product_title,product_link,company_name,company_link,is_verified_exporter,city_region,city,address_details,phone_number,phone_number_extension
"Pants Pull Ups Friends Classic Pant Adult Diapers, Size: XXL, 10 Pcs",https://www.indiamart.com/proddetail/friends-classic-pant-adult-diapers-26141775148.html?pos=1&kwd=adult diaper pant&tags=A||||8752.144|Price|product|||TS|rsf:gd-|-stype:attr=1|qr_nm:gd|res:RC4|com-cf:nl|ptrs:na|ktp:N0|mc:184603|mtp:S|qry_typ:P|lang:en|wc:3|flavl:0|cs:9650|v=4,Recherche World,https://www.rechercheworld.co.in/?pos=1&kwd=adult diaper pant&tags=A||||8752.144|Price|product|||TS|rsf:gd-|-stype:attr=1|qr_nm:gd|res:RC4|com-cf:nl|ptrs:na|ktp:N0|mc:184603|mtp:S|qry_typ:P|lang:en|wc:3|flavl:0|cs:9650|v=4,False,Pandav Nagar,New Delhi,"Near Gurudwara, Ground Floor, A-13-14, Gali No.01, Pandav Nagar, East Delhi, Pandav Nagar, New Delhi - 110092, Dist.Delhi, Delhi",8047312171,
"Friends Ultra Thin Adult Diapers Pant, Size: Medium",https://www.indiamart.com/proddetail/friends-ultra-thin-adult-diapers-pant-2853252270533.html?pos=2&kwd=adult diaper pant&tags=A||||8767.009|Price|product|||TS|rsf:gd-|-stype:attr=1|qr_nm:gd|res:RC4|com-cf:nl|ptrs:na|ktp:N0|mc:184603|mtp:S|qry_typ:P|lang:en|wc:3|flavl:0|cs:9650|v=4,Dakshu Enterprise,https://www.indiamart.com/dakshu-enterprise/?pos=2&kwd=adult diaper pant&tags=A||||8767.009|Price|product|||TS|rsf:gd-|-stype:attr=1|qr_nm:gd|res:RC4|com-cf:nl|ptrs:na|ktp:N0|mc:184603|mtp:S|qry_typ:P|lang:en|wc:3|flavl:0|cs:9650|v=4,False,,Baghpat,"0,,Delhi Saharanpur road,Baghpat, Baghpat - 250609, Dist.Bagpat, Uttar Pradesh",7949339950,
Pull Ups Liberty Eco Adult Diaper Pants Medium - 20,https://www.indiamart.com/proddetail/liberty-eco-adult-diaper-pants-medium-20-2851238764630.html?pos=3&kwd=adult diaper pant&tags=A||||8211.142|Price|product|||TS|rsf:gd-|-stype:attr=1|qr_nm:gd|res:RC4|com-cf:nl|ptrs:na|ktp:N0|mc:184603|mtp:S|qry_typ:P|lang:en|wc:3|flavl:0|cs:9650|v=4,Maxtech,https://www.maxtechhealth.in/?pos=3&kwd=adult diaper pant&tags=A||||8211.142|Price|product|||TS|rsf:gd-|-stype:attr=1|qr_nm:gd|res:RC4|com-cf:nl|ptrs:na|ktp:N0|mc:184603|mtp:S|qry_typ:P|lang:en|wc:3|flavl:0|cs:9650|v=4,False,Rani Sati Marg,Mumbai,"Shop No. 10, Pragati Shopping Centre Manchu Bhai Road, Rani Sati Marg, Mumbai - 400097, Dist.Mumbai, Maharashtra",8048970842,
"Pull Ups Adult Diaper Pants, Size: M L Xl Xxl",https://www.indiamart.com/proddetail/adult-diaper-pants-2852535065533.html?pos=4&kwd=adult diaper pant&tags=A||||8830.079|Price|product|||MDC|rsf:gd-|-stype:attr=1|qr_nm:gd|res:RC4|com-cf:nl|ptrs:na|ktp:N0|mc:184603|mtp:S|qry_typ:P|lang:en|wc:3|flavl:0|cs:9650|v=4,Thara Traders Propx. Thara Senthilkumar,https://www.indiamart.com/thara-traders/?pos=4&kwd=adult diaper pant&tags=A||||8830.079|Price|product|||MDC|rsf:gd-|-stype:attr=1|qr_nm:gd|res:RC4|com-cf:nl|ptrs:na|ktp:N0|mc:184603|mtp:S|qry_typ:P|lang:en|wc:3|flavl:0|cs:9650|v=4,False,Sathuvachari,Vellore,"546/2 Nethajibose Main Road, Tnhb, Phase 3, Vallalar A.r.complex,1st Floor, Nethaji Bose Main Road, Sathuvachari, Vellore - 632009, Dist.Vellore, Tamil Nadu",8048605071,
"Pant Type Hapus Adult Pull Up Diaper, Packaging Size: 10's Pack",https://www.indiamart.com/proddetail/hapus-adult-pull-up-diaper-24189367230.html?pos=5&kwd=adult diaper pant&tags=A||||8954.051|Price|product|||TS|rsf:gd-|-stype:attr=1|qr_nm:gd|res:RC4|com-cf:nl|ptrs:na|ktp:N0|mc:184603|mtp:S|qry_typ:P|lang:en|wc:3|flavl:0|cs:9650|v=4,Chris Merchant Private Limited,https://www.chrismerchant.co.in/?pos=5&kwd=adult diaper pant&tags=A||||8954.051|Price|product|||TS|rsf:gd-|-stype:attr=1|qr_nm:gd|res:RC4|com-cf:nl|ptrs:na|ktp:N0|mc:184603|mtp:S|qry_typ:P|lang:en|wc:3|flavl:0|cs:9650|v=4,False,Koyambedu,Chennai,"No. 5, Poonamalee High Road, Koyambedu, Chennai - 600107, Dist.Chennai, Tamil Nadu",8048956521,
"Nonwoven Plain Champs Dry Pants Diapers, Small",https://www.indiamart.com/proddetail/adult-diapers-2854454954588.html?pos=6&kwd=adult diaper pant&tags=A||||8753.51|Price|product|||MDC|rsf:gd-|-stype:attr=1|qr_nm:gd|res:RC4|com-cf:nl|ptrs:na|ktp:N0|mc:184603|mtp:S|qry_typ:P|lang:en|wc:3|flavl:0|cs:9650|v=4,Saraswati Stores,https://www.indiamart.com/saraswati-stores-karnal/?pos=6&kwd=adult diaper pant&tags=A||||8753.51|Price|product|||MDC|rsf:gd-|-stype:attr=1|qr_nm:gd|res:RC4|com-cf:nl|ptrs:na|ktp:N0|mc:184603|mtp:S|qry_typ:P|lang:en|wc:3|flavl:0|cs:9650|v=4,False,,Karnal,"2088/7, Unnamed Road, Sector 7 Park 16,, Karnal - 132001, Dist.Karnal, Haryana",7949328104,
Quick Care XL Adult Diaper,https://www.indiamart.com/proddetail/quick-care-xl-adult-diaper-23155723133.html?pos=7&kwd=adult diaper pant&tags=A||||8476.868|Price|product|||MDC|rsf:gd-|-stype:attr=1|qr_nm:gd|res:RC4|com-cf:nl|ptrs:na|ktp:N0|mc:184603|mtp:S|qry_typ:P|lang:en|wc:3|flavl:0|cs:9650|v=4,Ramkrushna Pharma Distributors,https://www.indiamart.com/ramkrushna-pharma-distributors/?pos=7&kwd=adult diaper pant&tags=A||||8476.868|Price|product|||MDC|rsf:gd-|-stype:attr=1|qr_nm:gd|res:RC4|com-cf:nl|ptrs:na|ktp:N0|mc:184603|mtp:S|qry_typ:P|lang:en|wc:3|flavl:0|cs:9650|v=4,False,,Aurangabad,"Upper Floor, Shop No 10, Global Avenue, Paithan Gate, Chhatrapati Sambhaji Nagar, Aurangabad - 431001, Maharashtra",8043861084,
"Adult Diapers Pant Styles, Medium",https://www.indiamart.com/proddetail/adult-diapers-pant-styles-2854267715930.html?pos=8&kwd=adult diaper pant&tags=BA||||8741.812||product|||TS|rsf:gd-|-stype:attr=1|qr_nm:gd|res:RC4|com-cf:nl|ptrs:na|ktp:N0|mc:184603|mtp:S|qry_typ:P|lang:en|wc:3|flavl:0|cs:9650|v=4,Kannu Impex (India) Private Limited,https://www.indiamart.com/kannuimpex/?pos=8&kwd=adult diaper pant&tags=BA||||8741.812||product|||TS|rsf:gd-|-stype:attr=1|qr_nm:gd|res:RC4|com-cf:nl|ptrs:na|ktp:N0|mc:184603|mtp:S|qry_typ:P|lang:en|wc:3|flavl:0|cs:9650|v=4,True,Sector 21,Gurgaon,"Corporate Office Suite No. 412, Suncity Trade Tower, Sector 21 Delhi-Gurgaon Road, Sector 21, Gurgaon - 122016, Dist.Gurgaon, Haryana",8048964773,
"Adult Diapers, Large",https://www.indiamart.com/proddetail/adult-diapers-2854691283897.html?pos=9&kwd=adult diaper pant&tags=BB||||8211.142|Price|product|||TS|rsf:gd-|-stype:attr=1|qr_nm:gd|res:RC4|com-cf:nl|ptrs:na|ktp:N0|mc:184603|mtp:S|qry_typ:P|lang:en|wc:3|flavl:0|cs:9650|v=4,Aglodia Corporation,https://www.aglodiacorp.com/?pos=9&kwd=adult diaper pant&tags=BB||||8211.142|Price|product|||TS|rsf:gd-|-stype:attr=1|qr_nm:gd|res:RC4|com-cf:nl|ptrs:na|ktp:N0|mc:184603|mtp:S|qry_typ:P|lang:en|wc:3|flavl:0|cs:9650|v=4,False,Goregaon West,Mumbai,"315/2512 motilal nagar 2 MG road Goregaon west, Goregaon West, Mumbai - 400064, Dist.Mumbai, Maharashtra",7942842515,
"Adult Diaper Pants, Size: XL",https://www.indiamart.com/proddetail/adult-diaper-pants-2854909706897.html?pos=10&kwd=adult diaper pant&tags=BA||||8752.144|Price|product|||MDC|rsf:gd-|-stype:attr=1|qr_nm:gd|res:RC4|com-cf:nl|ptrs:na|ktp:N0|mc:184603|mtp:S|qry_typ:P|lang:en|wc:3|flavl:0|cs:9650|v=4,Aksh Trading,https://www.indiamart.com/aksh-trading/?pos=10&kwd=adult diaper pant&tags=BA||||8752.144|Price|product|||MDC|rsf:gd-|-stype:attr=1|qr_nm:gd|res:RC4|com-cf:nl|ptrs:na|ktp:N0|mc:184603|mtp:S|qry_typ:P|lang:en|wc:3|flavl:0|cs:9650|v=4,False,Vikaspuri,New Delhi,"Flat No. 13A, CGHS Evershine Apartment, Vikash Puri, North West, Vikaspuri, New Delhi - 110018, Dist.Delhi, Delhi",7942660706,
"White Base Cotton Disposable Adult Pant Style Diaper, Small",https://www.indiamart.com/proddetail/disposable-adult-pant-style-diaper-2853037616391.html?pos=11&kwd=adult diaper pant&tags=A||||8785.791|Price|product|||MDC|rsf:gd-|-stype:attr=1|qr_nm:gd|res:RC4|com-cf:nl|ptrs:na|ktp:N0|mc:184603|mtp:S|qry_typ:P|lang:en|wc:3|flavl:0|cs:9650|v=4,Ghani Enterprises,https://www.indiamart.com/ghanienterprises/?pos=11&kwd=adult diaper pant&tags=A||||8785.791|Price|product|||MDC|rsf:gd-|-stype:attr=1|qr_nm:gd|res:RC4|com-cf:nl|ptrs:na|ktp:N0|mc:184603|mtp:S|qry_typ:P|lang:en|wc:3|flavl:0|cs:9650|v=4,False,,Ghaziabad,"House No-71 Chaman Colony, Islam Nagar, Ghaziabad - 201001, Dist.Ghaziabad, Uttar Pradesh",7942964362,
Evelance Adult Dry Pants Large 75-140cm (30-55 Inches) 12hr absorption. - L (10 Pieces),https://www.indiamart.com/proddetail/evelance-adult-dry-pants-large-75-140cm-30-55-inches-12hr-absorption-l-10-pieces-2854612423988.html?pos=12&kwd=adult diaper pant&tags=BA||||8740.707|Price|product|||MDC|rsf:gd-|-stype:attr=1|qr_nm:gd|res:RC4|com-cf:nl|ptrs:na|ktp:N0|mc:184603|mtp:S|qry_typ:P|lang:en|wc:3|flavl:0|cs:9650|v=4,Parv Industries,https://www.indiamart.com/parvindustries-punjab/?pos=12&kwd=adult diaper pant&tags=BA||||8740.707|Price|product|||MDC|rsf:gd-|-stype:attr=1|qr_nm:gd|res:RC4|com-cf:nl|ptrs:na|ktp:N0|mc:184603|mtp:S|qry_typ:P|lang:en|wc:3|flavl:0|cs:9650|v=4,False,,Sas Nagar,"34/2/2/2/2-1 8, Parv Industries, Pabhat, Zirakpur,, Sas Nagar - 140301, Dist.Mohali, Punjab",8044011342,
Adult Diaper Pants,https://www.indiamart.com/proddetail/adult-diaper-pants-2854631367448.html?pos=13&kwd=adult diaper pant&tags=BB||||8228.275|Price|product|||MDC|rsf:gd-|-stype:attr=1|qr_nm:gd|res:RC4|com-cf:nl|ptrs:na|ktp:N0|mc:184603|mtp:S|qry_typ:P|lang:en|wc:3|flavl:0|cs:9650|v=4,Chamunda Medical Agency,https://www.indiamart.com/chamunda-medical-agency/?pos=13&kwd=adult diaper pant&tags=BB||||8228.275|Price|product|||MDC|rsf:gd-|-stype:attr=1|qr_nm:gd|res:RC4|com-cf:nl|ptrs:na|ktp:N0|mc:184603|mtp:S|qry_typ:P|lang:en|wc:3|flavl:0|cs:9650|v=4,False,Vrundavan Society,Ahmedabad,"3rd Floor, Office No 2, Mahadev Complex Shahibaug, Camp Road, Opp Civil Hospital, Vrundavan Society, Ahmedabad - 380004, Dist.Ahmedabad, Gujarat",8045733303,
"KareMed Adult Diaper Pants, Medium",https://www.indiamart.com/proddetail/karemed-adult-diaper-pants-2854991151873.html?pos=14&kwd=adult diaper pant&tags=A||||9301.656|Price|product|||MDC|rsf:gd-|-stype:attr=1|qr_nm:gd|res:RC4|com-cf:nl|ptrs:na|ktp:N0|mc:184603|mtp:S|qry_typ:P|lang:en|wc:3|flavl:0|cs:9650|v=4,Growell Enterprises,https://www.indiamart.com/growellenterprisesvaranasi/?pos=14&kwd=adult diaper pant&tags=A||||9301.656|Price|product|||MDC|rsf:gd-|-stype:attr=1|qr_nm:gd|res:RC4|com-cf:nl|ptrs:na|ktp:N0|mc:184603|mtp:S|qry_typ:P|lang:en|wc:3|flavl:0|cs:9650|v=4,False,,Varanasi,"C27/111 - J-M-6, Jagat Ganj, Varanasi - 221002, Dist.Varanasi, Uttar Pradesh",8044014354,
"Respect Unisex Adult Diaper Pants, Size: Medium",https://www.indiamart.com/proddetail/respect-unisex-adult-diaper-pants-2854191132173.html?pos=15&kwd=adult diaper pant&tags=BA||||8769.508|Price|product|||MDC|rsf:gd-|-stype:attr=1|qr_nm:gd|res:RC4|com-cf:nl|ptrs:na|ktp:N0|mc:184603|mtp:S|qry_typ:P|lang:en|wc:3|cs:8887|v=4,Shivij Enterprises,https://www.indiamart.com/shivij-enterprises/?pos=15&kwd=adult diaper pant&tags=BA||||8769.508|Price|product|||MDC|rsf:gd-|-stype:attr=1|qr_nm:gd|res:RC4|com-cf:nl|ptrs:na|ktp:N0|mc:184603|mtp:S|qry_typ:P|lang:en|wc:3|cs:8887|v=4,False,,Faridabad,"Plot-11, Sec-15A, Vishwash Complax, Faridabad - 121004, Dist.Faridabad, Haryana",8045734144,
"Above 30 Year Pull Ups Non Woven Large Adult Diapers Pant, Size: Xxl",https://www.indiamart.com/proddetail/non-woven-large-adult-diapers-pant-2851829068573.html?pos=16&kwd=adult diaper pant&tags=BB||||8038.093|Price|product|||MDC|rsf:gd-|-stype:attr=1|qr_nm:gd|res:RC4|com-cf:nl|ptrs:na|ktp:N0|mc:184603|mtp:S|qry_typ:P|lang:en|wc:3|cs:8887|v=4,Aeroshine International,https://www.indiamart.com/aeroshineinternational/?pos=16&kwd=adult diaper pant&tags=BB||||8038.093|Price|product|||MDC|rsf:gd-|-stype:attr=1|qr_nm:gd|res:RC4|com-cf:nl|ptrs:na|ktp:N0|mc:184603|mtp:S|qry_typ:P|lang:en|wc:3|cs:8887|v=4,False,Champak Nagar,Rajkot,"Street No 8, Plot No 101-B, Brahmaniya Para, Sant Kabir Road, Govindbaug Opp. Vimal, R.S. No 185, Champak Nagar, Rajkot - 360003, Dist.Rajkot, Gujarat",7942714315,
"Plain Uphealthy Adult Pull Up Diapers Pants, Medium",https://www.indiamart.com/proddetail/uphealthy-adult-pull-up-diapers-pants-2854347164112.html?pos=17&kwd=adult diaper pant&tags=A||||8954.051|Price|product|||TS|rsf:gd-|-stype:attr=1|qr_nm:gd|res:RC4|com-cf:nl|ptrs:na|ktp:N0|mc:184603|mtp:S|qry_typ:P|lang:en|wc:3|cs:8887|v=4,Happy Zone Health Store,https://www.happyzonehealthstore.com/?pos=17&kwd=adult diaper pant&tags=A||||8954.051|Price|product|||TS|rsf:gd-|-stype:attr=1|qr_nm:gd|res:RC4|com-cf:nl|ptrs:na|ktp:N0|mc:184603|mtp:S|qry_typ:P|lang:en|wc:3|cs:8887|v=4,False,Mylapore,Chennai,"NO.61 NACHIAPPA ST,MYLAPORE, Mylapore, Chennai - 600004, Dist.Chennai, Tamil Nadu",8046074663,
"Pant Pull Ups Adult Diapers Pullups - Easycare, Waist Size: 41''-54'', Size: Various",https://www.indiamart.com/proddetail/adult-diapers-pullups-easycare-21887241855.html?pos=18&kwd=adult diaper pant&tags=BA||||8663.873|Price|product|||TS|rsf:gd-|-stype:attr=1|qr_nm:gd|res:RC4|com-cf:nl|ptrs:na|ktp:N0|mc:184603|mtp:S|qry_typ:P|lang:en|wc:3|cs:8887|v=4,Saamipya Home Health Private Limited,https://www.indiamart.com/saamipyahomehealth/?pos=18&kwd=adult diaper pant&tags=BA||||8663.873|Price|product|||TS|rsf:gd-|-stype:attr=1|qr_nm:gd|res:RC4|com-cf:nl|ptrs:na|ktp:N0|mc:184603|mtp:S|qry_typ:P|lang:en|wc:3|cs:8887|v=4,False,Hosakerehalli,Bengaluru,"644, 1st Cross Road,1st Phase, Girinagar, Hosakerehalli Layout, Banashankari 3rd Stage,Ward No 161, Hosakerehalli, Bengaluru - 560085, Dist.Bengaluru, Karnataka",8048615170,
"Pull Ups Adult diaper pants, Size: Medium",https://www.indiamart.com/proddetail/adult-diaper-pants-2853959280391.html?pos=19&kwd=adult diaper pant&tags=BA||||8778.123||product|||TS|rsf:gd-|-stype:attr=1|qr_nm:gd|res:RC4|com-cf:nl|ptrs:na|ktp:N0|mc:184603|mtp:S|qry_typ:P|lang:en|wc:3|cs:8887|v=4,Samyak Hygiene Care Private Limited,https://www.indiamart.com/samyakhygienecare/?pos=19&kwd=adult diaper pant&tags=BA||||8778.123||product|||TS|rsf:gd-|-stype:attr=1|qr_nm:gd|res:RC4|com-cf:nl|ptrs:na|ktp:N0|mc:184603|mtp:S|qry_typ:P|lang:en|wc:3|cs:8887|v=4,False,Ward No 11,Noida,"Plot No. 1782, Chatanga Road, Jewar, Guttam Bhudi Nagar, Ward No 11, Noida - 203135, Dist.Gautam Budh Nagar, Uttar Pradesh",8047640159,
"CIR L 10 Adult Diaper Pant, Size: Large",https://www.indiamart.com/proddetail/cir-l-10-adult-diaper-pant-2855000304655.html?pos=20&kwd=adult diaper pant&tags=A||||8752.144|Price|product|||MDC|rsf:gd-|-stype:attr=1|qr_nm:gd|res:RC4|com-cf:nl|ptrs:na|ktp:N0|mc:184603|mtp:S|qry_typ:P|lang:en|wc:3|cs:8887|v=4,Curepills Healthcare Private Limited,https://www.indiamart.com/curepillshealthcare/?pos=20&kwd=adult diaper pant&tags=A||||8752.144|Price|product|||MDC|rsf:gd-|-stype:attr=1|qr_nm:gd|res:RC4|com-cf:nl|ptrs:na|ktp:N0|mc:184603|mtp:S|qry_typ:P|lang:en|wc:3|cs:8887|v=4,False,,New Delhi,"Second Floor, B-37, DDA Shed, Okhla Industrial Estate Phase 2, South East Delhi, New Delhi - 110020, Dist.Delhi, Delhi",7949308749,
"L Adult Diaper Pants, Size: Large",https://www.indiamart.com/proddetail/l-adult-pull-up-diaper-pants-2854475102330.html?pos=21&kwd=adult diaper pant&tags=A||||8038.093|Price|product|||MDC|rsf:gd-|-stype:attr=1|qr_nm:gd|res:RC4|com-cf:nl|ptrs:na|ktp:N0|mc:184603|mtp:S|qry_typ:P|lang:en|wc:3|cs:8887|v=4,Kinshav Hub,https://www.indiamart.com/kinshavhub/?pos=21&kwd=adult diaper pant&tags=A||||8038.093|Price|product|||MDC|rsf:gd-|-stype:attr=1|qr_nm:gd|res:RC4|com-cf:nl|ptrs:na|ktp:N0|mc:184603|mtp:S|qry_typ:P|lang:en|wc:3|cs:8887|v=4,False,,Rajkot,"Flat No. 301, Ankita Apartment, Bhakti Nagar Station Plot, Godown Road, Jay Oil Centre, Manohar Plot, Rajkot - 360002, Dist.Rajkot, Gujarat",8041015587,
Adult Diaper Pants (KAREMED),https://www.indiamart.com/proddetail/adult-diaper-pants-karemed-2854647117648.html?pos=22&kwd=adult diaper pant&tags=BB||||8741.987|Price|product|||TS|rsf:gd-|-stype:attr=1|qr_nm:gd|res:RC4|com-cf:nl|ptrs:na|ktp:N0|mc:184603|mtp:S|qry_typ:P|lang:en|wc:3|cs:8887|v=4,Surgical Hub,https://www.indiamart.com/surgicalhub/?pos=22&kwd=adult diaper pant&tags=BB||||8741.987|Price|product|||TS|rsf:gd-|-stype:attr=1|qr_nm:gd|res:RC4|com-cf:nl|ptrs:na|ktp:N0|mc:184603|mtp:S|qry_typ:P|lang:en|wc:3|cs:8887|v=4,False,,Ambala,"136 A, Phase-2, Near Dr Makkar, Jaggi Colony, Ambala - 134003, Dist.Ambala, Haryana",8043804768,
Disposable Adult Pants,https://www.indiamart.com/proddetail/disposable-adult-pants-15523480355.html?pos=23&kwd=adult diaper pant&tags=A||||8559.269|Price|product|||TS|rsf:gd-|-stype:attr=1|qr_nm:gd|res:RC4|com-cf:nl|ptrs:na|ktp:N0|mc:184603|mtp:S|qry_typ:P|lang:en|wc:3|cs:8887|v=4,Madhav Overseas Corporation,https://www.madhavoverseascorporation.net/?pos=23&kwd=adult diaper pant&tags=A||||8559.269|Price|product|||TS|rsf:gd-|-stype:attr=1|qr_nm:gd|res:RC4|com-cf:nl|ptrs:na|ktp:N0|mc:184603|mtp:S|qry_typ:P|lang:en|wc:3|cs:8887|v=4,False,Atal Khel Parisar Main Road,Indore,"Madhav Corporate Scheme No 78 , Sector D ,Plot No 4,, Atal Khel Parisar Main Road, Indore - 452010, Dist.Indore, Madhya Pradesh",8048980263,
"Careloom Pant Style Adult Diaper, Medium",https://www.indiamart.com/proddetail/careloom-pant-style-adult-diaper-2854887471788.html?pos=24&kwd=adult diaper pant&tags=A||||8954.051|Price|product|||MDC|rsf:gd-|-stype:attr=1|qr_nm:gd|res:RC4|com-cf:nl|ptrs:na|ktp:N0|mc:184603|mtp:S|qry_typ:P|lang:en|wc:3|cs:8887|v=4,Careloom Health Care LLP,https://www.indiamart.com/careloom-health-care/?pos=24&kwd=adult diaper pant&tags=A||||8954.051|Price|product|||MDC|rsf:gd-|-stype:attr=1|qr_nm:gd|res:RC4|com-cf:nl|ptrs:na|ktp:N0|mc:184603|mtp:S|qry_typ:P|lang:en|wc:3|cs:8887|v=4,False,,Chennai,"Plot No 193, Palkalai Nagar Avenue ,Palavakkam, Chennai - 600041, Dist.Chennai, Tamil Nadu",7949304995,
"Fabby Adult Diaper Pants Extra Large, XL",https://www.indiamart.com/proddetail/fabby-adult-diaper-pants-extra-large-2854391134288.html?pos=25&kwd=adult diaper pant&tags=BA||||8211.142|Price|product|||SSnp|rsf:gd-|-stype:attr=1|qr_nm:gd|res:RC4|com-cf:nl|ptrs:na|ktp:N0|mc:184603|mtp:S|qry_typ:P|lang:en|wc:3|cs:8887|v=4,Hamazz Wellness Company,https://www.hamazzhealthcare.in/?pos=25&kwd=adult diaper pant&tags=BA||||8211.142|Price|product|||SSnp|rsf:gd-|-stype:attr=1|qr_nm:gd|res:RC4|com-cf:nl|ptrs:na|ktp:N0|mc:184603|mtp:S|qry_typ:P|lang:en|wc:3|cs:8887|v=4,False,Malad West,Mumbai,"D/14, 2nd Floor, Mashayakh CHS LTD Chincholi Bunder Road, Malad West, Mumbai - 400064, Dist.Mumbai, Maharashtra",8047655127,
"Kare Med Comfort Large Adult Diaper Pants, 47 Inch",https://www.indiamart.com/proddetail/kare-med-comfort-large-adult-diaper-pant-2855071554855.html?pos=26&kwd=adult diaper pant&tags=A||||8786.56|Price|product|||MDC|rsf:gd-|-stype:attr=1|qr_nm:gd|res:RC4|com-cf:nl|ptrs:na|ktp:N0|mc:184603|mtp:S|qry_typ:P|lang:en|wc:3|cs:8887|v=4,Maruthi Drugs,https://www.indiamart.com/maruthi-drugs/?pos=26&kwd=adult diaper pant&tags=A||||8786.56|Price|product|||MDC|rsf:gd-|-stype:attr=1|qr_nm:gd|res:RC4|com-cf:nl|ptrs:na|ktp:N0|mc:184603|mtp:S|qry_typ:P|lang:en|wc:3|cs:8887|v=4,False,Nimboli Adda,Hyderabad,"Ground floor, 3-2-371/B, Sri Nilayam Kachiguda Road, Opposite To Priyas Aqua RO Water Solution, Nimboli Adda, Hyderabad - 500027, Dist.Hyderabad, Telangana",7949304578,
"Pant Type Adult Diaper, Medium",https://www.indiamart.com/proddetail/pant-type-adult-diaper-2854593414262.html?pos=27&kwd=adult diaper pant&tags=BA||||8624.416|Price|product|||MDC|rsf:gd-|-stype:attr=1|qr_nm:gd|res:RC4|com-cf:nl|ptrs:na|ktp:N0|mc:184603|mtp:S|qry_typ:P|lang:en|wc:3|cs:8887|v=4,Supertech Surgical Company,https://www.indiamart.com/supertech-surgical-company/?pos=27&kwd=adult diaper pant&tags=BA||||8624.416|Price|product|||MDC|rsf:gd-|-stype:attr=1|qr_nm:gd|res:RC4|com-cf:nl|ptrs:na|ktp:N0|mc:184603|mtp:S|qry_typ:P|lang:en|wc:3|cs:8887|v=4,False,Shiv Nagar,Hisar,"Shop No. 1, Millgate Area, Shiv Nagar, Shiv Nagar, Hisar - 125001, Dist.Hisar, Haryana",8047642534,
"Adult Diaper Pants, Size: Small",https://www.indiamart.com/proddetail/adult-diaper-pants-2854035156591.html?pos=28&kwd=adult diaper pant&tags=BB||||8559.269|Price|product|||TS|rsf:gd-|-stype:attr=1|qr_nm:gd|res:RC4|com-cf:nl|ptrs:na|ktp:N0|mc:184603|mtp:S|qry_typ:P|lang:en|wc:3|cs:8887|v=4,Aadaarsh Enterprise,https://www.hellosweetybabydaiper.com/?pos=28&kwd=adult diaper pant&tags=BB||||8559.269|Price|product|||TS|rsf:gd-|-stype:attr=1|qr_nm:gd|res:RC4|com-cf:nl|ptrs:na|ktp:N0|mc:184603|mtp:S|qry_typ:P|lang:en|wc:3|cs:8887|v=4,False,,Indore,"2,Sher Shah Suri Nagar B, Khajrana, Indore - 452001, Dist.Indore, Madhya Pradesh",8043879050,
Pull Ups Adult Diaper Pants,https://www.indiamart.com/proddetail/adult-diaper-pants-2852405139730.html?pos=29&kwd=adult diaper pant&tags=BB||||8228.275||product|||TS|rsf:gd-|-stype:attr=1|qr_nm:gd|res:RC4|com-cf:nl|ptrs:na|ktp:N0|mc:184603|mtp:S|qry_typ:P|lang:en|wc:3|cs:8887|v=4,Jalaram Healthcare And Surgical,https://www.indiamart.com/jalaramhealthcareandsurgical/?pos=29&kwd=adult diaper pant&tags=BB||||8228.275||product|||TS|rsf:gd-|-stype:attr=1|qr_nm:gd|res:RC4|com-cf:nl|ptrs:na|ktp:N0|mc:184603|mtp:S|qry_typ:P|lang:en|wc:3|cs:8887|v=4,False,Vastral,Ahmedabad,"No.3 siddhivinayak plaza nr.nishant cross road, Vastral, Ahmedabad - 382418, Dist.Ahmedabad, Gujarat",8048609859,
Adult Diaper Pants,https://www.indiamart.com/proddetail/adult-diaper-pants-2854880364055.html?pos=30&kwd=adult diaper pant&tags=BB||||8228.275|Price|product|||TS|rsf:gd-|-stype:attr=1|qr_nm:gd|res:RC4|com-cf:nl|ptrs:na|ktp:N0|mc:184603|mtp:S|qry_typ:P|lang:en|wc:3|cs:8887|v=4,Om Enterprises,https://www.indiamart.com/omenterprisesgujrat/?pos=30&kwd=adult diaper pant&tags=BB||||8228.275|Price|product|||TS|rsf:gd-|-stype:attr=1|qr_nm:gd|res:RC4|com-cf:nl|ptrs:na|ktp:N0|mc:184603|mtp:S|qry_typ:P|lang:en|wc:3|cs:8887|v=4,False,Maninagar,Ahmedabad,"Ground Floor, Shop No-1 ,Mani Nagar Road ,Rudra Appartment Maniyasa Society,Mani Nagar East, Maninagar, Ahmedabad - 380008, Dist.Ahmedabad, Gujarat",7942715310,
Adult Diaper Pants,https://www.indiamart.com/proddetail/adult-diaper-pants-2854565171991.html?pos=31&kwd=adult diaper pant&tags=BA||||8830.388|Price|product|||TS|rsf:gd-|-stype:attr=1|qr_nm:gd|res:RC4|com-cf:nl|ptrs:na|ktp:N0|mc:184603|mtp:S|qry_typ:P|lang:en|wc:3|cs:8887|v=4,Easeplus Healthcare Private Limited,https://www.ezoyplus.in/?pos=31&kwd=adult diaper pant&tags=BA||||8830.388|Price|product|||TS|rsf:gd-|-stype:attr=1|qr_nm:gd|res:RC4|com-cf:nl|ptrs:na|ktp:N0|mc:184603|mtp:S|qry_typ:P|lang:en|wc:3|cs:8887|v=4,False,DD Nagar,Gwalior,"T 1298 K-61,Vrikampur Chouraha,Satabdipuram D D Nagar,Gwalior, DD Nagar, Gwalior - 474005, Dist.Gwalior, Madhya Pradesh",8048265864,
Miracle Adult Diaper Pants - Medium - Large,https://www.indiamart.com/proddetail/miracle-adult-diaper-pants-medium-large-25875807055.html?pos=32&kwd=adult diaper pant&tags=BA||||8663.873|Price|product|||TS|rsf:gd-|-stype:attr=1|qr_nm:gd|res:RC4|com-cf:nl|ptrs:na|ktp:N0|mc:184603|mtp:S|qry_typ:P|lang:en|wc:3|cs:8887|v=4,Exigo International Private Limited,https://www.exigointernational.in/?pos=32&kwd=adult diaper pant&tags=BA||||8663.873|Price|product|||TS|rsf:gd-|-stype:attr=1|qr_nm:gd|res:RC4|com-cf:nl|ptrs:na|ktp:N0|mc:184603|mtp:S|qry_typ:P|lang:en|wc:3|cs:8887|v=4,False,Nayandahalli,Bengaluru,"NO. 31-32,FLOWER GARDEN,OPP BHEL FACTORY,,MYSORE ROAD, Nayandahalli, Bengaluru - 560026, Dist.Bengaluru, Karnataka",8047671942,
White Flamingo Imported Adult Diaper Pant,https://www.indiamart.com/proddetail/white-flamingo-imported-adult-diaper-pant-2854586212333.html?pos=33&kwd=adult diaper pant&tags=BA||||9110.092|Price|product|||MDC|rsf:gd-|-stype:attr=1|qr_nm:gd|res:RC4|com-cf:nl|ptrs:na|ktp:N0|mc:184603|mtp:S|qry_typ:P|lang:en|wc:3|cs:8887|v=4,Asian Hygiene,https://www.indiamart.com/asian-hygiene/?pos=33&kwd=adult diaper pant&tags=BA||||9110.092|Price|product|||MDC|rsf:gd-|-stype:attr=1|qr_nm:gd|res:RC4|com-cf:nl|ptrs:na|ktp:N0|mc:184603|mtp:S|qry_typ:P|lang:en|wc:3|cs:8887|v=4,False,,Lucknow,"Shop No. 134, Kanpur Road, Transport Nagar,, Lucknow - 226012, Dist.Lucknow, Uttar Pradesh",7949330533,
Pull Ups Disposable Adult Pant Style Diaper,https://www.indiamart.com/proddetail/disposable-adult-pant-style-diaper-24269841648.html?pos=34&kwd=adult diaper pant&tags=BB||||8752.144|Price|product|||MDC|rsf:gd-|-stype:attr=1|qr_nm:gd|res:RC4|com-cf:nl|ptrs:na|ktp:N0|mc:184603|mtp:S|qry_typ:P|lang:en|wc:3|cs:8887|v=4,Balaji Entreprise,https://www.indiamart.com/balaji-entreprise/?pos=34&kwd=adult diaper pant&tags=BB||||8752.144|Price|product|||MDC|rsf:gd-|-stype:attr=1|qr_nm:gd|res:RC4|com-cf:nl|ptrs:na|ktp:N0|mc:184603|mtp:S|qry_typ:P|lang:en|wc:3|cs:8887|v=4,False,Budh Vihar,New Delhi,"A-1/29, Budh Vihar, Phase 2, Rohini, Budh Vihar, New Delhi - 110086, Dist.Delhi, Delhi",8048974223,
"Adult Diaper Pants, Size: Medium",https://www.indiamart.com/proddetail/adult-diaper-pants-2854458407591.html?pos=35&kwd=adult diaper pant&tags=BA||||8559.269|Price|product|||MDC|rsf:gd-|-stype:attr=1|qr_nm:gd|res:RC4|com-cf:nl|ptrs:na|ktp:N0|mc:184603|mtp:S|qry_typ:P|lang:en|wc:3|cs:8887|v=4,H & H Construct,https://www.indiamart.com/hh-construct/?pos=35&kwd=adult diaper pant&tags=BA||||8559.269|Price|product|||MDC|rsf:gd-|-stype:attr=1|qr_nm:gd|res:RC4|com-cf:nl|ptrs:na|ktp:N0|mc:184603|mtp:S|qry_typ:P|lang:en|wc:3|cs:8887|v=4,False,,Indore,"826,Scheme No-114,Part No-1, Indore - 452001, Dist.Indore, Madhya Pradesh",7949094380,
Wetex Adult Diapers Pants (Style),https://www.indiamart.com/proddetail/wetex-adult-diapers-pants-style-22437552573.html?pos=36&kwd=adult diaper pant&tags=BA||||8752.144|Price|product|||MDC|rsf:gd-|-stype:attr=1|qr_nm:gd|res:RC4|com-cf:nl|ptrs:na|ktp:N0|mc:184603|mtp:S|qry_typ:P|lang:en|wc:3|cs:8887|v=4,Walmark Meditech Private Limited,https://www.indiamart.com/walmarkmeditech/?pos=36&kwd=adult diaper pant&tags=BA||||8752.144|Price|product|||MDC|rsf:gd-|-stype:attr=1|qr_nm:gd|res:RC4|com-cf:nl|ptrs:na|ktp:N0|mc:184603|mtp:S|qry_typ:P|lang:en|wc:3|cs:8887|v=4,False,Dhantoli,New Delhi,"B 157,,OKHLA INDUSTRIAL AREA,NEW DELHI, Dhantoli, New Delhi - 110020, Dist.Delhi, Delhi",7942532407,
XL Elduro Premium Adult Diaper Pants,https://www.indiamart.com/proddetail/xl-elduro-premium-adult-diaper-pants-2852784472262.html?pos=37&kwd=adult diaper pant&tags=BA||||8786.56|Price|product|||MDC|rsf:gd-|-stype:attr=1|qr_nm:gd|res:RC4|com-cf:nl|ptrs:na|ktp:N0|mc:184603|mtp:S|qry_typ:P|lang:en|wc:3|cs:8887|v=4,Aaraniyar Enterprises,https://www.indiamart.com/aaraniyar-enterprises-hyderabad/?pos=37&kwd=adult diaper pant&tags=BA||||8786.56|Price|product|||MDC|rsf:gd-|-stype:attr=1|qr_nm:gd|res:RC4|com-cf:nl|ptrs:na|ktp:N0|mc:184603|mtp:S|qry_typ:P|lang:en|wc:3|cs:8887|v=4,False,Amberpet,Hyderabad,"3-14-36/8/10, Near Yaadaiah Hotel,Vivek Nagar, Amberpet, Ramanthapur, Amberpet, Hyderabad - 500013, Dist.Hyderabad, Telangana",7942717866,
Adult Diapers,https://www.indiamart.com/proddetail/adult-diapers-2854317633648.html?pos=38&kwd=adult diaper pant&tags=BB||||8230.883|Price|product|||MDC|rsf:gd-|-stype:attr=1|qr_nm:gd|res:RC4|com-cf:nl|ptrs:na|ktp:N0|mc:184603|mtp:S|qry_typ:P|lang:en|wc:3|cs:8887|v=4,Touchsafe Surgical,https://www.indiamart.com/touchsafe-surgical/?pos=38&kwd=adult diaper pant&tags=BB||||8230.883|Price|product|||MDC|rsf:gd-|-stype:attr=1|qr_nm:gd|res:RC4|com-cf:nl|ptrs:na|ktp:N0|mc:184603|mtp:S|qry_typ:P|lang:en|wc:3|cs:8887|v=4,False,Katargam,Surat,"GR Floor, 431 Paiki Plot No.6 Anjiriya Wadi, B/H Electric Sub- Station , Vastadevdi Road , Katargam, Katargam, Surat - 395004, Dist.Surat, Gujarat",7942670244,
Lifree Extra Absorb Adult Diapers,https://www.indiamart.com/proddetail/lifree-extra-absorb-adult-diapers-2853337193773.html?pos=39&kwd=adult diaper pant&tags=BA||||8211.142|Price|product|||MDC|rsf:gd-|-stype:attr=1|qr_nm:gd|res:RC4|com-cf:nl|ptrs:na|ktp:N0|mc:184603|mtp:S|qry_typ:P|lang:en|wc:3|cs:8887|v=4,Lucky Health Care,https://www.indiamart.com/luckyhealthcare/?pos=39&kwd=adult diaper pant&tags=BA||||8211.142|Price|product|||MDC|rsf:gd-|-stype:attr=1|qr_nm:gd|res:RC4|com-cf:nl|ptrs:na|ktp:N0|mc:184603|mtp:S|qry_typ:P|lang:en|wc:3|cs:8887|v=4,False,Malad East,Mumbai,"1st Floor, Shreya General Stores Ravi, Shankar Chawl Gen A K V Marg Malad, Navsha Compd Near Riddhi Garden, Suburban, Malad East, Mumbai - 400097, Dist.Mumbai, Maharashtra",7949227835,
White Non Woven Disposable Adult Diapers,https://www.indiamart.com/proddetail/white-non-woven-disposable-adult-diapers-2854494780248.html?pos=40&kwd=adult diaper pant&tags=BA||||8786.56|Price|product|||MDC|rsf:gd-|-stype:attr=1|qr_nm:gd|res:RC4|com-cf:nl|ptrs:na|ktp:N0|mc:184603|mtp:S|qry_typ:P|lang:en|wc:3|cs:8887|v=4,Popok Health Care,https://www.indiamart.com/popok-healthcare/?pos=40&kwd=adult diaper pant&tags=BA||||8786.56|Price|product|||MDC|rsf:gd-|-stype:attr=1|qr_nm:gd|res:RC4|com-cf:nl|ptrs:na|ktp:N0|mc:184603|mtp:S|qry_typ:P|lang:en|wc:3|cs:8887|v=4,False,,Hyderabad,"24-134, Anandbagh Medchal Malkajgiri, Hyderabad - 500047, Dist.Hyderabad, Telangana",7949330487,
Acquish Adult Pant 10pcs.,https://www.indiamart.com/proddetail/acquish-adult-pant-10pcs-2854078940348.html?pos=41&kwd=adult diaper pant&tags=BA||||8230.883||product|||TS|rsf:gd-|-stype:attr=1|qr_nm:gd|res:RC4|com-cf:nl|ptrs:na|ktp:N0|mc:184603|mtp:S|qry_typ:P|lang:en|wc:3|cs:8887|v=4,Hygiene Product,https://www.freshkin.co.in/?pos=41&kwd=adult diaper pant&tags=BA||||8230.883||product|||TS|rsf:gd-|-stype:attr=1|qr_nm:gd|res:RC4|com-cf:nl|ptrs:na|ktp:N0|mc:184603|mtp:S|qry_typ:P|lang:en|wc:3|cs:8887|v=4,False,Sagrampura Putli,Surat,"9002 B, World Trade Center Ring Road, Sagrampura Putli, Surat - 395002, Dist.Surat, Gujarat",8048610916,
Adult Diapers,https://www.indiamart.com/proddetail/adult-diapers-2854864351430.html?pos=42&kwd=adult diaper pant&tags=BB||||8211.142|Price|product|||TS|rsf:gd-|-stype:attr=1|qr_nm:gd|res:RC4|com-cf:nl|ptrs:na|ktp:N0|mc:184603|mtp:S|qry_typ:P|lang:en|wc:3|cs:8887|v=4,Freed Pharma LLP,https://www.freedpharma.com/?pos=42&kwd=adult diaper pant&tags=BB||||8211.142|Price|product|||TS|rsf:gd-|-stype:attr=1|qr_nm:gd|res:RC4|com-cf:nl|ptrs:na|ktp:N0|mc:184603|mtp:S|qry_typ:P|lang:en|wc:3|cs:8887|v=4,True,Worli,Mumbai,"8, Plot-316, Ground Floor, Pragati Industrial Estate, N M Joshi Marg, Jacob Circle Lower Parel, Worli, Mumbai - 400011, Dist.Mumbai, Maharashtra",7942717496,
"Friends Adult Diapers, Large Size, Pack of 10, Premium Comfort, Leak Protection, Odour Lock",https://www.indiamart.com/proddetail/friends-adult-diapers-large-size-pack-of-10-premium-comfort-leak-protection-odour-lock-2854605445533.html?pos=43&kwd=adult diaper pant&tags=BA||||8752.144|Price|product|||TS|rsf:gd-|-stype:attr=1|qr_nm:gd|res:RC4|com-cf:nl|ptrs:na|ktp:N0|mc:184603|mtp:S|qry_typ:P|lang:en|wc:3|cs:8887|v=4,Mediseller ( A Unit Of Medicare),https://www.medisellers.com/?pos=43&kwd=adult diaper pant&tags=BA||||8752.144|Price|product|||TS|rsf:gd-|-stype:attr=1|qr_nm:gd|res:RC4|com-cf:nl|ptrs:na|ktp:N0|mc:184603|mtp:S|qry_typ:P|lang:en|wc:3|cs:8887|v=4,True,Chandni Chowk,New Delhi,"No. 1520/110, First Floor, Jagson Pal Building Bhagirath Palace, Chandni Chowk, New Delhi - 110006, Dist.Delhi, Delhi",8048606035,
"Ezoy Plus Unisex Adult Diaper Pants, Large",https://www.indiamart.com/proddetail/ezoy-plus-unisex-adult-diaper-pants-2854493326573.html?pos=44&kwd=adult diaper pant&tags=BA||||8753.51|Price|product|||MDC|rsf:gd-|-stype:attr=1|qr_nm:gd|res:RC4|com-cf:nl|ptrs:na|ktp:N0|mc:184603|mtp:S|qry_typ:P|lang:en|wc:3|cs:8887|v=4,RDR Pharma And Surgical,https://www.indiamart.com/rdr-pharma-surgical/?pos=44&kwd=adult diaper pant&tags=BA||||8753.51|Price|product|||MDC|rsf:gd-|-stype:attr=1|qr_nm:gd|res:RC4|com-cf:nl|ptrs:na|ktp:N0|mc:184603|mtp:S|qry_typ:P|lang:en|wc:3|cs:8887|v=4,False,,Karnal,"Mangalpur R K Puram, Karnal - 132001, Dist.Karnal, Haryana",7949327081,
Adult Diaper Pants,,Alka Trading Corporation,https://www.indiamart.com/alkatradingcorporation/?pos=45&kwd=adult diaper pant&tags=BA||||8876.815||product|||TS|rsf:gd-|-stype:attr=1|qr_nm:gd|res:RC4|com-cf:nl|ptrs:na|ktp:N0|mc:184603|mtp:S|qry_typ:P|lang:en|wc:3|cs:8887|v=4,False,Ramdaspeth,Nagpur,"H. No,G-15, Sai Shadha Park Beltarodi, Near MBA Collage Pruthiraj Near Beltarodii, Manis Nagar Road, Ramdaspeth, Nagpur - 440034, Dist.Nagpur, Maharashtra",8047622256,
"Pant Type Seni Active Normal Pull Up Adult Diaper, Packaging Size: 10 Diapers",https://www.indiamart.com/proddetail/seni-active-normal-pull-up-adult-diaper-24255765891.html?pos=46&kwd=adult diaper pant&tags=BA||||8663.873|Price|proxy|||TS|rsf:gd-|-stype:attr=1|qr_nm:gd|res:RC4|com-cf:nl|ptrs:na|ktp:N0|mc:184603|mtp:S|qry_typ:P|lang:en|wc:3|cs:8887|v=4,TZMO India South Private Limited,https://www.indiamart.com/tzmoindiasouth/?pos=46&kwd=adult diaper pant&tags=BA||||8663.873|Price|proxy|||TS|rsf:gd-|-stype:attr=1|qr_nm:gd|res:RC4|com-cf:nl|ptrs:na|ktp:N0|mc:184603|mtp:S|qry_typ:P|lang:en|wc:3|cs:8887|v=4,False,New Timber Yard Layout,Bengaluru,"No.2, 1st Floor, Featherlite Building, Mysore Road, New Timber Yard Layout, New Timber Yard Layout, Bengaluru - 560026, Dist.Bengaluru, Karnataka",8048619127,
"M Hey Soft Adult Diaper, Medium",https://www.indiamart.com/proddetail/medium-adult-diaper-2854610750648.html?pos=47&kwd=adult diaper pant&tags=BA||||9839.57|Price|product|||NA|rsf:gd-|-stype:attr=1|qr_nm:gd|res:RC4|com-cf:nl|ptrs:na|ktp:N0|mc:184603|mtp:S|qry_typ:P|lang:en|wc:3|cs:8887|v=4,Heypharma Wellnees Private Limited,https://www.indiamart.com/heypharmawellnees/?pos=47&kwd=adult diaper pant&tags=BA||||9839.57|Price|product|||NA|rsf:gd-|-stype:attr=1|qr_nm:gd|res:RC4|com-cf:nl|ptrs:na|ktp:N0|mc:184603|mtp:S|qry_typ:P|lang:en|wc:3|cs:8887|v=4,False,,Kolkata,"113/E, Arihant Apartment, Beleghata Main Road, Kolkata - 700010, Dist.Kolkata, West Bengal",7949328923,
Adult Diaper Pants,,Unic Collection,https://www.indiamart.com/unic-collection-vadodara/?pos=48&kwd=adult diaper pant&tags=BB||||8281.036|Price|product|||NA|rsf:gd-|-stype:attr=1|qr_nm:gd|res:RC4|com-cf:nl|ptrs:na|ktp:N0|mc:184603|mtp:S|qry_typ:P|lang:en|wc:3|cs:8887|v=4,False,,Vadodara,"soma talav, Vadodara - 390004, Dist.Vadodara, Gujarat",8048247093,6661
"Adult Pants Diaper, Age Group: 1to2 Years",https://www.indiamart.com/proddetail/adult-pants-diaper-2854732697330.html?pos=49&kwd=adult diaper pant&tags=BB||||9045.955|Price|product|||NA|rsf:gd-|-stype:attr=1|qr_nm:gd|res:RC4|com-cf:nl|ptrs:na|ktp:N0|mc:184603|mtp:S|qry_typ:P|lang:en|wc:3|cs:8887|v=4,F.R.S. Traders,https://www.indiamart.com/frs-traders/?pos=49&kwd=adult diaper pant&tags=BB||||9045.955|Price|product|||NA|rsf:gd-|-stype:attr=1|qr_nm:gd|res:RC4|com-cf:nl|ptrs:na|ktp:N0|mc:184603|mtp:S|qry_typ:P|lang:en|wc:3|cs:8887|v=4,False,,Kanpur,"90/153 Iftikharabad Kanpur Nagar, Kanpur - 208001, Uttar Pradesh",8048247134,1012
Friends Adult Diapers Pants Xxl Xxxl,https://www.indiamart.com/proddetail/friends-adult-diapers-pants-xxl-xxxl-2854038724555.html?pos=50&kwd=adult diaper pant&tags=BB||||8723.301|Price|product|||NA|rsf:gd-|-stype:attr=1|qr_nm:gd|res:RC4|com-cf:nl|ptrs:na|ktp:N0|mc:184603|mtp:S|qry_typ:P|lang:en|wc:3|cs:8887|v=4,Krishna Medical And Surgicals,https://www.indiamart.com/krishna-medical-and-surgicals/?pos=50&kwd=adult diaper pant&tags=BB||||8723.301|Price|product|||NA|rsf:gd-|-stype:attr=1|qr_nm:gd|res:RC4|com-cf:nl|ptrs:na|ktp:N0|mc:184603|mtp:S|qry_typ:P|lang:en|wc:3|cs:8887|v=4,False,Gulmohar Colony,Bhopal,"E8/124 Trilochan Nager, Trilanga Road, Gulmohar Colony, Bhopal - 462039, Dist.Bhopal, Madhya Pradesh",8069013894,869
Adult Diaper Pants,,Savitri Surgical Services,https://www.indiamart.com/savitri-surgical-services/?pos=51&kwd=adult diaper pant&tags=BB||||8211.142|Price|product|||NA|rsf:gd-|-stype:attr=1|qr_nm:gd|res:RC4|com-cf:nl|ptrs:na|ktp:N0|mc:184603|mtp:S|qry_typ:P|lang:en|wc:3|cs:8887|v=4,False,,Mumbai,"AT S-3/5, Sunder Nagar, S. V. Road, Malad West, Mumbai - 400064, Dist.Mumbai, Maharashtra",8048250246,240
Adult Diaper Pants,,S K Pharmaceuticals,https://www.indiamart.com/skpharmaceuticals-hyderabad/?pos=52&kwd=adult diaper pant&tags=B||||8788.159||product|||NA|rsf:gd-|-stype:attr=1|qr_nm:gd|res:RC4|com-cf:nl|ptrs:na|ktp:N0|mc:184603|mtp:S|qry_typ:P|lang:en|wc:3|cs:8887|v=4,False,Sainikpuri Malkajgiri,Secunderabad,"1-4-158 63 B Ground Floor Medchal - Malkajgiri, Sainikpuri Malkajgiri, Secunderabad - 500094, Dist.Hyderabad, Telangana",8069023936,356
Adult Diaper Pants,,Lucky Medicos,https://www.indiamart.com/lucky-medicos/?pos=53&kwd=adult diaper pant&tags=BB||||8752.144||product|||NA|rsf:gd-|-stype:attr=1|qr_nm:gd|res:RC4|com-cf:nl|ptrs:na|ktp:N0|mc:184603|mtp:S|qry_typ:P|lang:en|wc:3|cs:8887|v=4,False,,New Delhi,"Delhi, New Delhi - 110015, Dist.Delhi, Delhi",8048247090,6088
Adult Diaper Pants,,Sudhira Distributors,https://www.indiamart.com/company/140919774/?pos=54&kwd=adult diaper pant&tags=BA||||8752.144|Price|product|||NA|rsf:gd-|-stype:attr=1|qr_nm:gd|res:RC4|com-cf:nl|ptrs:na|ktp:N0|mc:184603|mtp:S|qry_typ:P|lang:en|wc:3|cs:8887|v=4,False,Rohini,New Delhi,", Rohini, New Delhi - 110085, Dist.Delhi, Delhi",8048247090,9785
Adult Diaper Pants,,Samriddhi Care,https://www.indiamart.com/company/25019453/?pos=55&kwd=adult diaper pant&tags=BB||||9349.906|Price|product|||NA|rsf:gd-|-stype:attr=1|qr_nm:gd|res:RC4|com-cf:nl|ptrs:na|ktp:N0|mc:184603|mtp:S|qry_typ:P|lang:en|wc:3|cs:8887|v=4,False,SECTOR,Gorakhpur,"C27 GIDA, SECTOR, Gorakhpur - 273212, Dist.Gorakhpur, Uttar Pradesh",8048247098,6621
Protective Underwear Adult Diaper Pants,https://www.indiamart.com/proddetail/adult-diaper-pants-2853149151748.html?pos=56&kwd=adult diaper pant&tags=||||8786.56|Price|product|||TS|rsf:gd-|-stype:attr=1|qr_nm:gd|res:RC4|com-cf:nl|ptrs:na|ktp:N0|mc:184603|mtp:S|qry_typ:P|lang:en|wc:3|cs:8887|v=4,Medvian Health Care,https://www.medvianhealthcare.in/?pos=56&kwd=adult diaper pant&tags=||||8786.56|Price|product|||TS|rsf:gd-|-stype:attr=1|qr_nm:gd|res:RC4|com-cf:nl|ptrs:na|ktp:N0|mc:184603|mtp:S|qry_typ:P|lang:en|wc:3|cs:8887|v=4,False,Dammaiguda,Hyderabad,"# 7-51, Anushakthi Nagar Dammaiguda Road, Nagaram, Near Dubai Building, Dammaiguda, Hyderabad - 500083, Dist.Hyderabad, Telangana",8047639534,
Adult Diaper Pants,https://www.indiamart.com/proddetail/adult-diaper-pants-2853437190073.html?pos=57&kwd=adult diaper pant&tags=||||8752.144|Price|product|||TS|rsf:gd-|-stype:attr=1|qr_nm:gd|res:RC4|com-cf:nl|ptrs:na|ktp:N0|mc:184603|mtp:S|qry_typ:P|lang:en|wc:3|cs:8887|v=4,Dispowear Sterite Company,https://www.dispowear.co.in/?pos=57&kwd=adult diaper pant&tags=||||8752.144|Price|product|||TS|rsf:gd-|-stype:attr=1|qr_nm:gd|res:RC4|com-cf:nl|ptrs:na|ktp:N0|mc:184603|mtp:S|qry_typ:P|lang:en|wc:3|cs:8887|v=4,False,Janakpuri,New Delhi,"Pocket D-2 A, Flat No. 51 C, Janakpuri, Janakpuri, New Delhi - 110058, Dist.Delhi, Delhi",8048970362,
Cotton Pant Type Adult Diaper Pants (Pack of 10),https://www.indiamart.com/proddetail/adult-diaper-pants-pack-of-10-15520233862.html?pos=58&kwd=adult diaper pant&tags=||||8211.142|Price|product|||TS|rsf:gd-|-stype:attr=1|qr_nm:gd|res:RC4|com-cf:nl|ptrs:na|ktp:N0|mc:184603|mtp:S|qry_typ:P|lang:en|wc:3|cs:8887|v=4,I Touch Surgical,https://www.itouchsurgical.co.in/?pos=58&kwd=adult diaper pant&tags=||||8211.142|Price|product|||TS|rsf:gd-|-stype:attr=1|qr_nm:gd|res:RC4|com-cf:nl|ptrs:na|ktp:N0|mc:184603|mtp:S|qry_typ:P|lang:en|wc:3|cs:8887|v=4,False,Goregaon,Mumbai,"4, Ekta Suprabhat, Siddharth Nagar, Goregaon West, Goregaon, Mumbai - 400104, Dist.Mumbai, Maharashtra",8048962190,
El dry adult diaper pants,https://www.indiamart.com/proddetail/el-dry-adult-diaper-pants-2854931460788.html?pos=59&kwd=adult diaper pant&tags=||||8281.036|Price|product|||TS|rsf:gd-|-stype:attr=1|qr_nm:gd|res:RC4|com-cf:nl|ptrs:na|ktp:N0|mc:184603|mtp:S|qry_typ:P|lang:en|wc:3|cs:8887|v=4,Novelty Hosiery,https://www.indiamart.com/novelty-hosiery/?pos=59&kwd=adult diaper pant&tags=||||8281.036|Price|product|||TS|rsf:gd-|-stype:attr=1|qr_nm:gd|res:RC4|com-cf:nl|ptrs:na|ktp:N0|mc:184603|mtp:S|qry_typ:P|lang:en|wc:3|cs:8887|v=4,False,Chokshi Bazar,Vadodara,"M G Road 00 Laheripura Gate Nr Angadiya Gali, Chokshi Bazar, Vadodara - 390001, Dist.Vadodara, Gujarat",7942565948,
Premium XL Adult Diapers Pant,https://www.indiamart.com/proddetail/premium-xl-adult-diapers-pant-2854424215991.html?pos=60&kwd=adult diaper pant&tags=||||8228.275|Price|product|||MDC|rsf:gd-|-stype:attr=1|qr_nm:gd|res:RC4|com-cf:nl|ptrs:na|ktp:N0|mc:184603|mtp:S|qry_typ:P|lang:en|wc:3|cs:8887|v=4,Protect Healthcare,https://www.indiamart.com/protect-healthcare-ahmedabad/?pos=60&kwd=adult diaper pant&tags=||||8228.275|Price|product|||MDC|rsf:gd-|-stype:attr=1|qr_nm:gd|res:RC4|com-cf:nl|ptrs:na|ktp:N0|mc:184603|mtp:S|qry_typ:P|lang:en|wc:3|cs:8887|v=4,False,,Ahmedabad,"2/1, Ramvila Hights, UMA Vidhyalay Road, Gopal Chowk ,Nikol, Ahmedabad - 382350, Dist.Ahmedabad, Gujarat",7949337627,
Plain Lifree Adult Diaper Pant Xl,https://www.indiamart.com/proddetail/lifree-adult-diaper-pant-xl-2853473125830.html?pos=61&kwd=adult diaper pant&tags=||||8954.051|Price|product|||TS|rsf:gd-|-stype:attr=1|qr_nm:gd|res:RC4|com-cf:nl|ptrs:na|ktp:N0|mc:184603|mtp:S|qry_typ:P|lang:en|wc:3|cs:8887|v=4,Immanlyn Old Age Traders,https://www.immanlyn.in/?pos=61&kwd=adult diaper pant&tags=||||8954.051|Price|product|||TS|rsf:gd-|-stype:attr=1|qr_nm:gd|res:RC4|com-cf:nl|ptrs:na|ktp:N0|mc:184603|mtp:S|qry_typ:P|lang:en|wc:3|cs:8887|v=4,False,T Nagar,Chennai,"Old No 6 New No 15, Saravana Street, T Nagar, T Nagar, Chennai - 600017, Dist.Chennai, Tamil Nadu",8046053387,
"Adult Diaper Pants, Medium",https://www.indiamart.com/proddetail/adult-diaper-pants-2853872914673.html?pos=62&kwd=adult diaper pant&tags=||||8584.299|Price|product|||TS|rsf:gd-|-stype:attr=1|qr_nm:gd|res:RC4|com-cf:nl|ptrs:na|ktp:N0|mc:184603|mtp:S|qry_typ:P|lang:en|wc:3|cs:8887|v=4,Enora Naturals Enterprises,https://www.enoranaturals.co.in/?pos=62&kwd=adult diaper pant&tags=||||8584.299|Price|product|||TS|rsf:gd-|-stype:attr=1|qr_nm:gd|res:RC4|com-cf:nl|ptrs:na|ktp:N0|mc:184603|mtp:S|qry_typ:P|lang:en|wc:3|cs:8887|v=4,False,Velandi Palayam,Coimbatore,"6b, Karuppakonar Street, Kovilmedu, Kovai Corporation, Velandi Palayam, Velandi Palayam, Coimbatore - 641025, Dist.Coimbatore, Tamil Nadu",8044010068,
"Uphealthy Pull Up Adult Diapers Pant, Size: Extra Large, Packaging Type: Packet",https://www.indiamart.com/proddetail/pull-up-adult-diapers-pant-21913556130.html?pos=63&kwd=adult diaper pant&tags=||||8954.051|Price|product|||TS|rsf:gd-|-stype:attr=1|qr_nm:gd|res:RC4|com-cf:nl|ptrs:na|ktp:N0|mc:184603|mtp:S|qry_typ:P|lang:en|wc:3|cs:8887|v=4,Sri Sai Surgicals,https://www.indiamart.com/sai-surgicalchennai/?pos=63&kwd=adult diaper pant&tags=||||8954.051|Price|product|||TS|rsf:gd-|-stype:attr=1|qr_nm:gd|res:RC4|com-cf:nl|ptrs:na|ktp:N0|mc:184603|mtp:S|qry_typ:P|lang:en|wc:3|cs:8887|v=4,False,Aminijikarai,Chennai,"New No.20,old No.43 Rajeswari Street Chennai Chennai, Aminijikarai, Chennai - 600029, Dist.Chennai, Tamil Nadu",7942535047,
"Pull Ups BFIT Adult Diaper Pants, XL, Size: Extra Large",https://www.indiamart.com/proddetail/bfit-adult-diaper-pants-xl-22912781388.html?pos=64&kwd=adult diaper pant&tags=||||8211.142|Price|product|||TS|rsf:gd-|-stype:attr=1|qr_nm:gd|res:RC4|com-cf:nl|ptrs:na|ktp:N0|mc:184603|mtp:S|qry_typ:P|lang:en|wc:3|cs:8887|v=4,PAC Healthcare & Surgicals,https://www.healthcaredealer.in/?pos=64&kwd=adult diaper pant&tags=||||8211.142|Price|product|||TS|rsf:gd-|-stype:attr=1|qr_nm:gd|res:RC4|com-cf:nl|ptrs:na|ktp:N0|mc:184603|mtp:S|qry_typ:P|lang:en|wc:3|cs:8887|v=4,False,Borivali West,Mumbai,"5, Bill Berry Apartment, I. C. Colony, Borivali West, Mumbai - 400103, Dist.Mumbai, Maharashtra",8048960800,
"18 -85 Pull Ups Adult Diaper Pant, Size: Free",https://www.indiamart.com/proddetail/adult-diaper-pant-27014740662.html?pos=65&kwd=adult diaper pant&tags=||||8752.144|Price|product|||TS|rsf:gd-|-stype:attr=1|qr_nm:gd|res:RC4|com-cf:nl|ptrs:na|ktp:N0|mc:184603|mtp:S|qry_typ:P|lang:en|wc:3|cs:8887|v=4,Tejas Enterprises,https://www.indiamart.com/tejasenterprises-delhi/?pos=65&kwd=adult diaper pant&tags=||||8752.144|Price|product|||TS|rsf:gd-|-stype:attr=1|qr_nm:gd|res:RC4|com-cf:nl|ptrs:na|ktp:N0|mc:184603|mtp:S|qry_typ:P|lang:en|wc:3|cs:8887|v=4,False,New Mustafabad,New Delhi,"D - 6/162 - A, D - Block, Near Gali No.7, Main Road Brijpuri, New Mustafabad, New Delhi - 110094, Dist.Delhi, Delhi",8043855624,
"Karein Classic Adult Diaper Pant, Large",https://www.indiamart.com/proddetail/karein-classic-adult-diaper-pant-2854383825197.html?pos=66&kwd=adult diaper pant&tags=||||9839.57|Price|product|||MDC|rsf:gd-|-stype:attr=1|qr_nm:gd|res:RC4|com-cf:nl|ptrs:na|ktp:N0|mc:184603|mtp:S|qry_typ:P|lang:en|wc:3|cs:8887|v=4,Roy And Son Enterprise,https://www.indiamart.com/roy-son-enterprise/?pos=66&kwd=adult diaper pant&tags=||||9839.57|Price|product|||MDC|rsf:gd-|-stype:attr=1|qr_nm:gd|res:RC4|com-cf:nl|ptrs:na|ktp:N0|mc:184603|mtp:S|qry_typ:P|lang:en|wc:3|cs:8887|v=4,False,,Kolkata,"260g, Netaji Subash Road, Behala, Kolkata - 700034, Dist.Kolkata, West Bengal",7949340326,
"Adult Pull Up Diapers Pants, 28""-44"",37""-49"", M-L,L-XL",https://www.indiamart.com/proddetail/adult-pull-up-diapers-pants-16978512697.html?pos=67&kwd=adult diaper pant&tags=||||8703.834|Price|product|||TS|rsf:gd-|-stype:attr=1|qr_nm:gd|res:RC4|com-cf:nl|ptrs:na|ktp:N0|mc:184603|mtp:S|qry_typ:P|lang:en|wc:3|cs:8887|v=4,Kamal Healthcare Products Private Limited,https://www.avmsuperdry.in/?pos=67&kwd=adult diaper pant&tags=||||8703.834|Price|product|||TS|rsf:gd-|-stype:attr=1|qr_nm:gd|res:RC4|com-cf:nl|ptrs:na|ktp:N0|mc:184603|mtp:S|qry_typ:P|lang:en|wc:3|cs:8887|v=4,False,Ezhil Nagar,Thoothukudi,"2nd Floor, No. 180, North Cotton Road, Ezhil Nagar, Thoothukudi - 628001, Dist.Tuticorin, Tamil Nadu",8048605186,
White Flamingo Imported Adult Diaper Pant,https://www.indiamart.com/proddetail/white-flamingo-imported-adult-diaper-pant-24705782397.html?pos=68&kwd=adult diaper pant&tags=||||9110.092|Price|product|||TS|rsf:gd-|-stype:attr=1|qr_nm:gd|res:RC4|com-cf:nl|ptrs:na|ktp:N0|mc:184603|mtp:S|qry_typ:P|lang:en|wc:3|cs:8887|v=4,Shashwat Udyog,https://www.indiamart.com/shashwatudyog-uttarpradesh/?pos=68&kwd=adult diaper pant&tags=||||9110.092|Price|product|||TS|rsf:gd-|-stype:attr=1|qr_nm:gd|res:RC4|com-cf:nl|ptrs:na|ktp:N0|mc:184603|mtp:S|qry_typ:P|lang:en|wc:3|cs:8887|v=4,False,Gomti,Lucknow,"302, Omaxe Heights, Vibhuti Khand, Gomti Nagar, Gomti, Lucknow - 226010, Dist.Lucknow, Uttar Pradesh",8048616780,
B Fit Adult Diaper Pants,https://www.indiamart.com/proddetail/b-fit-adult-diaper-pants-21161868955.html?pos=69&kwd=adult diaper pant&tags=||||8581.569|Price|product|||MDC|rsf:gd-|-stype:attr=1|qr_nm:gd|res:RC4|com-cf:nl|ptrs:na|ktp:N0|mc:184603|mtp:S|qry_typ:P|lang:en|wc:3|cs:8887|v=4,Fakhri Chemicals,https://www.indiamart.com/fakhri-chemicals/?pos=69&kwd=adult diaper pant&tags=||||8581.569|Price|product|||MDC|rsf:gd-|-stype:attr=1|qr_nm:gd|res:RC4|com-cf:nl|ptrs:na|ktp:N0|mc:184603|mtp:S|qry_typ:P|lang:en|wc:3|cs:8887|v=4,False,,Dewas,"75, Haibat Rao Marg, Rajwada Road, Dewas - 455001, Dist.Dewas, Madhya Pradesh",7942640768,
Pull Ups Adult Diaper Pants,https://www.indiamart.com/proddetail/adult-diaper-pants-2852130481755.html?pos=70&kwd=adult diaper pant&tags=||||8228.275|Price|product|||MDC|rsf:gd-|-stype:attr=1|qr_nm:gd|res:RC4|com-cf:nl|ptrs:na|ktp:N0|mc:184603|mtp:S|qry_typ:P|lang:en|wc:3|cs:8887|v=4,Kamdhenu Pharma,https://www.indiamart.com/kamdhenupharmagujarat/?pos=70&kwd=adult diaper pant&tags=||||8228.275|Price|product|||MDC|rsf:gd-|-stype:attr=1|qr_nm:gd|res:RC4|com-cf:nl|ptrs:na|ktp:N0|mc:184603|mtp:S|qry_typ:P|lang:en|wc:3|cs:8887|v=4,False,Jahangirpura,Ahmedabad,"4th, B-412, Abhishek Complex, NR, Asarva Bridge, Jahangirpura, Ahmedabad - 380016, Dist.Ahmedabad, Gujarat",8047806771,
"L Size Modern Elite Adult Diaper Pants, Large",https://www.indiamart.com/proddetail/l-size-modern-elite-adult-diaper-pants-2854298991691.html?pos=71&kwd=adult diaper pant&tags=||||8226.563|Price|product|||MDC|rsf:gd-|-stype:attr=1|qr_nm:gd|res:RC4|com-cf:nl|ptrs:na|ktp:N0|mc:184603|mtp:S|qry_typ:P|lang:en|wc:3|cs:8887|v=4,Modern Sales Corporation,https://www.indiamart.com/modern-salescorporation/?pos=71&kwd=adult diaper pant&tags=||||8226.563|Price|product|||MDC|rsf:gd-|-stype:attr=1|qr_nm:gd|res:RC4|com-cf:nl|ptrs:na|ktp:N0|mc:184603|mtp:S|qry_typ:P|lang:en|wc:3|cs:8887|v=4,False,,Navi Mumbai,"Shop No. 1, House No. 169, Sector No. 12E, OPP. Animal Hospital, Koparkhairane,, Navi Mumbai - 400709, Dist.Thane, Maharashtra",8045735237,
"Pants Pull Ups Friends Classic Pant Adult Diapers, Size: Medium,Large And Extra Large",https://www.indiamart.com/proddetail/friends-classic-pant-adult-diapers-22873340530.html?pos=72&kwd=adult diaper pant&tags=||||8706.587|Price|product|||TS|rsf:gd-|-stype:attr=1|qr_nm:gd|res:RC4|com-cf:nl|ptrs:na|ktp:N0|mc:184603|mtp:S|qry_typ:P|lang:en|wc:3|cs:8887|v=4,Aruna Agencies,https://www.arunaagencies.in/?pos=72&kwd=adult diaper pant&tags=||||8706.587|Price|product|||TS|rsf:gd-|-stype:attr=1|qr_nm:gd|res:RC4|com-cf:nl|ptrs:na|ktp:N0|mc:184603|mtp:S|qry_typ:P|lang:en|wc:3|cs:8887|v=4,False,Simmakkal,Madurai,"Pooja Complex, No. 23, North Veli Street Ground Floor, Simmakkal, Simmakkal, Madurai - 625001, Dist.Madurai, Tamil Nadu",8048609760,
Adult Diaper Pants,https://www.indiamart.com/proddetail/adult-diaper-pants-2854178763973.html?pos=73&kwd=adult diaper pant&tags=||||8785.791|Price|product|||TS|rsf:gd-|-stype:attr=1|qr_nm:gd|res:RC4|com-cf:nl|ptrs:na|ktp:N0|mc:184603|mtp:S|qry_typ:P|lang:en|wc:3|cs:8887|v=4,Kshristi Enterprises,https://www.indiamart.com/kshristi-enterprises/?pos=73&kwd=adult diaper pant&tags=||||8785.791|Price|product|||TS|rsf:gd-|-stype:attr=1|qr_nm:gd|res:RC4|com-cf:nl|ptrs:na|ktp:N0|mc:184603|mtp:S|qry_typ:P|lang:en|wc:3|cs:8887|v=4,False,Sahibabad,Ghaziabad,"S 57 Harsha campound mohan nagar industrial area Ghaziabad Uttar Pradesh, Sahibabad, Ghaziabad - 201005, Dist.Ghaziabad, Uttar Pradesh",8046078120,
"Pull Ups Imported Adult Diaper Pants, Size: Large",https://www.indiamart.com/proddetail/imported-adult-diaper-pants-2853872191948.html?pos=74&kwd=adult diaper pant&tags=||||9363.783|Price|product|||TS|rsf:gd-|-stype:attr=1|qr_nm:gd|res:RC4|com-cf:nl|ptrs:na|ktp:N0|mc:184603|mtp:S|qry_typ:P|lang:en|wc:3|cs:8887|v=4,Shaswat Agro Industries,https://www.indiamart.com/shaswatagro-industries/?pos=74&kwd=adult diaper pant&tags=||||9363.783|Price|product|||TS|rsf:gd-|-stype:attr=1|qr_nm:gd|res:RC4|com-cf:nl|ptrs:na|ktp:N0|mc:184603|mtp:S|qry_typ:P|lang:en|wc:3|cs:8887|v=4,False,Tajopur,Maunath Bhanjan,"B-9, Industrial Area, Tajopur, Tajopur, Maunath Bhanjan - 275101, Dist.Mau, Uttar Pradesh",8047638492,
12 Months Pull Ups Pant Style Adult Diaper,https://www.indiamart.com/proddetail/pant-style-adult-diaper-23318475097.html?pos=75&kwd=adult diaper pant&tags=||||8316.457|Price|product|||MDC|rsf:gd-|-stype:attr=1|qr_nm:gd|res:RC4|com-cf:nl|ptrs:na|ktp:N0|mc:184603|mtp:S|qry_typ:P|lang:en|wc:3|cs:8887|v=4,Manavata Hygiene,https://www.indiamart.com/manavatahygiene/?pos=75&kwd=adult diaper pant&tags=||||8316.457|Price|product|||MDC|rsf:gd-|-stype:attr=1|qr_nm:gd|res:RC4|com-cf:nl|ptrs:na|ktp:N0|mc:184603|mtp:S|qry_typ:P|lang:en|wc:3|cs:8887|v=4,False,Vadangli,Nashik,"Shri Kruoa Nagar, Maparwadu Road, Sinnar,, Vadangli, Nashik - 422103, Dist.Nashik, Maharashtra",8047544880,
Pull Ups Pant Style Adult Diaper,https://www.indiamart.com/proddetail/pant-style-adult-diaper-19728669497.html?pos=76&kwd=adult diaper pant&tags=||||8038.093|Price|product|||TS|rsf:gd-|-stype:attr=1|qr_nm:gd|res:RC4|com-cf:nl|ptrs:na|ktp:N0|mc:184603|mtp:S|qry_typ:P|lang:en|wc:3|cs:8887|v=4,BM Hygienecare LLP,https://www.bmhygienecare.com/?pos=76&kwd=adult diaper pant&tags=||||8038.093|Price|product|||TS|rsf:gd-|-stype:attr=1|qr_nm:gd|res:RC4|com-cf:nl|ptrs:na|ktp:N0|mc:184603|mtp:S|qry_typ:P|lang:en|wc:3|cs:8887|v=4,False,Dhokaliya,Rajkot,"Madhapar Chowkdi Rajkot- Jamnagar Highway, Dhokaliya, Rajkot - 360007, Dist.Rajkot, Gujarat",8047642184,
Disposable Adult Diaper Pant Large,https://www.indiamart.com/proddetail/disposable-adult-diaper-pant-large-2854948260388.html?pos=77&kwd=adult diaper pant&tags=||||8954.051|Price|product|||TS|rsf:gd-|-stype:attr=1|qr_nm:gd|res:RC4|com-cf:nl|ptrs:na|ktp:N0|mc:184603|mtp:S|qry_typ:P|lang:en|wc:3|cs:8887|v=4,Shriv Medicare Private Limited,https://www.shrivmedicare.com/?pos=77&kwd=adult diaper pant&tags=||||8954.051|Price|product|||TS|rsf:gd-|-stype:attr=1|qr_nm:gd|res:RC4|com-cf:nl|ptrs:na|ktp:N0|mc:184603|mtp:S|qry_typ:P|lang:en|wc:3|cs:8887|v=4,False,Noombal,Chennai,"Plot No.2, Survey No. 15/2B, Vada Noombal Road, Perumalagaram, Tiruverkadu, Noombal, Chennai - 600077, Dist.Chennai, Tamil Nadu",8043830699,
Adult Diaper Pant Style Large Waist Size 30-48 Inch,https://www.indiamart.com/proddetail/adult-diaper-pant-style-large-waist-size-30-48-inch-2854885005173.html?pos=78&kwd=adult diaper pant&tags=||||8228.275|Price|product|||TS|rsf:gd-|-stype:attr=1|qr_nm:gd|res:RC4|com-cf:nl|ptrs:na|ktp:N0|mc:184603|mtp:S|qry_typ:P|lang:en|wc:3|cs:8887|v=4,Patoliya Exports Private Limited,https://www.indiamart.com/patoliya-exports-ahmedabad/?pos=78&kwd=adult diaper pant&tags=||||8228.275|Price|product|||TS|rsf:gd-|-stype:attr=1|qr_nm:gd|res:RC4|com-cf:nl|ptrs:na|ktp:N0|mc:184603|mtp:S|qry_typ:P|lang:en|wc:3|cs:8887|v=4,False,OPP GVMM,Ahmedabad,"B-62, Bileshwar Industrial Estate, OPP GVMM, Ahmedabad - 382415, Dist.Ahmedabad, Gujarat",8044458925,
Friends Adult Diapers Pants Xl,https://www.indiamart.com/proddetail/friends-adult-diapers-pants-xl-2853951653791.html?pos=79&kwd=adult diaper pant&tags=||||8876.815|Price|product|||TS|rsf:gd-|-stype:attr=1|qr_nm:gd|res:RC4|com-cf:nl|ptrs:na|ktp:N0|mc:184603|mtp:S|qry_typ:P|lang:en|wc:3|cs:8887|v=4,Jindal Tradelinks,https://www.indiamart.com/jindaltradelinksnagpur/?pos=79&kwd=adult diaper pant&tags=||||8876.815|Price|product|||TS|rsf:gd-|-stype:attr=1|qr_nm:gd|res:RC4|com-cf:nl|ptrs:na|ktp:N0|mc:184603|mtp:S|qry_typ:P|lang:en|wc:3|cs:8887|v=4,False,Sitabuldi,Nagpur,"House No. 330, Jindal House, Sitabuldi, Nagpur - 440012, Dist.Nagpur, Maharashtra",7942536296,
18-100 Pants Adult Pull Up Diaper,https://www.indiamart.com/proddetail/adult-pull-up-diaper-20875823962.html?pos=80&kwd=adult diaper pant&tags=||||8954.051|Price|product|||TS|rsf:gd-|-stype:attr=1|qr_nm:gd|res:RC4|com-cf:nl|ptrs:na|ktp:N0|mc:184603|mtp:S|qry_typ:P|lang:en|wc:3|cs:8887|v=4,Delite Surgicals,https://www.indiamart.com/delite-surgicals-chennai/?pos=80&kwd=adult diaper pant&tags=||||8954.051|Price|product|||TS|rsf:gd-|-stype:attr=1|qr_nm:gd|res:RC4|com-cf:nl|ptrs:na|ktp:N0|mc:184603|mtp:S|qry_typ:P|lang:en|wc:3|cs:8887|v=4,False,Park Town,Chennai,"107, Nyniappanaicken Street, Park Town, Park Town, Chennai - 600003, Dist.Chennai, Tamil Nadu",7942565474,
Liberty Adult Diaper Pants,https://www.indiamart.com/proddetail/liberty-adult-diaper-pants-2853884727273.html?pos=81&kwd=adult diaper pant&tags=||||8211.142|Price|product|||MDC|rsf:gd-|-stype:attr=1|qr_nm:gd|res:RC4|com-cf:nl|ptrs:na|ktp:N0|mc:184603|mtp:S|qry_typ:P|lang:en|wc:3|cs:8887|v=4,Vandana Enterprises,https://www.indiamart.com/vandanaenterprises-mumbai-maharashtra/?pos=81&kwd=adult diaper pant&tags=||||8211.142|Price|product|||MDC|rsf:gd-|-stype:attr=1|qr_nm:gd|res:RC4|com-cf:nl|ptrs:na|ktp:N0|mc:184603|mtp:S|qry_typ:P|lang:en|wc:3|cs:8887|v=4,False,Jogeshwari East,Mumbai,"Chawl No 8, 12, Nasirkhan Rasulkhan Chawl, Meghwadi, Near Shiv Sena Office, Jogeshwari Suburban East, Jogeshwari East, Mumbai - 400060, Dist.Mumbai, Maharashtra",7949093226,
Tidy Adult Diaper Pants Extra Large,https://www.indiamart.com/proddetail/tidy-adult-diaper-pants-extra-large-2854227376055.html?pos=82&kwd=adult diaper pant&tags=||||8747.223|Price|product|||TS|rsf:gd-|-stype:attr=1|qr_nm:gd|res:RC4|com-cf:nl|ptrs:na|ktp:N0|mc:184603|mtp:S|qry_typ:P|lang:en|wc:3|cs:8887|v=4,Pioneer Hygiene Industries LLP,https://www.pioneerhygiene.co.in/?pos=82&kwd=adult diaper pant&tags=||||8747.223|Price|product|||TS|rsf:gd-|-stype:attr=1|qr_nm:gd|res:RC4|com-cf:nl|ptrs:na|ktp:N0|mc:184603|mtp:S|qry_typ:P|lang:en|wc:3|cs:8887|v=4,True,,Sonipat,"Kila No. 95//1/1, 12/13, 19 And 22/1/1, Akbarpur Barota, Sonipat - 131103, Dist.Sonipat, Haryana",8045731181,
Pull Ups E Zoy Plus Adult Diaper Pants Medium,https://www.indiamart.com/proddetail/e-zoy-plus-adult-diaper-pants-medium-2853596159433.html?pos=83&kwd=adult diaper pant&tags=||||8228.275|Price|product|||TS|rsf:gd-|-stype:attr=1|qr_nm:gd|res:RC4|com-cf:nl|ptrs:na|ktp:N0|mc:184603|mtp:S|qry_typ:P|lang:en|wc:3|cs:8887|v=4,Shagun Enterprise,https://www.indiamart.com/shagun-enterpriseahmedabad/?pos=83&kwd=adult diaper pant&tags=||||8228.275|Price|product|||TS|rsf:gd-|-stype:attr=1|qr_nm:gd|res:RC4|com-cf:nl|ptrs:na|ktp:N0|mc:184603|mtp:S|qry_typ:P|lang:en|wc:3|cs:8887|v=4,False,Saraspur,Ahmedabad,"4th Floor Block G, 415, City Center, NR Idgha Gate, NR Girdharnagar Bridge, Asarwa,, Saraspur, Ahmedabad - 380016, Dist.Ahmedabad, Gujarat",7949226972,
18+ Cotton Disposable Adult Diaper Pant,https://www.indiamart.com/proddetail/disposable-adult-diaper-pant-2854435900930.html?pos=84&kwd=adult diaper pant&tags=||||8601.347|Price|product|||TS|rsf:gd-|-stype:attr=1|qr_nm:gd|res:RC4|com-cf:nl|ptrs:na|ktp:N0|mc:184603|mtp:S|qry_typ:P|lang:en|wc:3|cs:8887|v=4,T. C. Pharma,https://www.indiamart.com/tcpharma/?pos=84&kwd=adult diaper pant&tags=||||8601.347|Price|product|||TS|rsf:gd-|-stype:attr=1|qr_nm:gd|res:RC4|com-cf:nl|ptrs:na|ktp:N0|mc:184603|mtp:S|qry_typ:P|lang:en|wc:3|cs:8887|v=4,False,Bambala,Jaipur,"162/214, Ground Floor, Sector-16, Pratap Nagar,, Bambala, Jaipur - 302033, Dist.Jaipur, Rajasthan",8048273054,
"Pant Romsons Dignity Adults Diaper, Size: Medium, Packaging Size: 10",https://www.indiamart.com/proddetail/romsons-dignity-adults-diaper-27476520712.html?pos=85&kwd=adult diaper pant&tags=||||8786.56|Price|product|||TS|rsf:gd-|-stype:attr=1|qr_nm:gd|res:RC4|com-cf:nl|ptrs:na|ktp:N0|mc:184603|mtp:S|qry_typ:P|lang:en|wc:3|cs:8887|v=4,Prakar Enterprises,https://www.prakarenterprises.com/?pos=85&kwd=adult diaper pant&tags=||||8786.56|Price|product|||TS|rsf:gd-|-stype:attr=1|qr_nm:gd|res:RC4|com-cf:nl|ptrs:na|ktp:N0|mc:184603|mtp:S|qry_typ:P|lang:en|wc:3|cs:8887|v=4,False,Kothapet,Hyderabad,"13-1-2, Road no.1, Prabhath Nagar, Chaitanyapuri, Kothapet, Hyderabad - 500060, Dist.Hyderabad, Telangana",7942552841,
Pull Ups Dr C adult diapers large pants,https://www.indiamart.com/proddetail/dr-c-adult-diapers-large-pants-2852483630662.html?pos=86&kwd=adult diaper pant&tags=||||8954.051|Price|product|||TS|rsf:gd-|-stype:attr=1|qr_nm:gd|res:RC4|com-cf:nl|ptrs:na|ktp:N0|mc:184603|mtp:S|qry_typ:P|lang:en|wc:3|cs:8887|v=4,Gayathri Medicare,https://www.indiamart.com/gayathri-medicarechennai/?pos=86&kwd=adult diaper pant&tags=||||8954.051|Price|product|||TS|rsf:gd-|-stype:attr=1|qr_nm:gd|res:RC4|com-cf:nl|ptrs:na|ktp:N0|mc:184603|mtp:S|qry_typ:P|lang:en|wc:3|cs:8887|v=4,False,West Mambalam.. 12 sai tower.station road.,Chennai,"No 48,Basement Floor, B-5,Navins Aishwarya Apartment,Brindavan Street,Chennai, West Mambalam.. 12 sai tower.station road., Chennai - 600033, Dist.Chennai, Tamil Nadu",8047552428,
Above 60 Years Pull Ups Large Respect Adult Pant Diaper,https://www.indiamart.com/proddetail/large-respect-adult-pant-diaper-2851604705430.html?pos=87&kwd=adult diaper pant&tags=||||8307.81|Price|product|||MDC|rsf:gd-|-stype:attr=1|qr_nm:gd|res:RC4|com-cf:nl|ptrs:na|ktp:N0|mc:184603|mtp:S|qry_typ:P|lang:en|wc:3|cs:8887|v=4,Goodluck Diapers,https://www.indiamart.com/goodluckdiapers/?pos=87&kwd=adult diaper pant&tags=||||8307.81|Price|product|||MDC|rsf:gd-|-stype:attr=1|qr_nm:gd|res:RC4|com-cf:nl|ptrs:na|ktp:N0|mc:184603|mtp:S|qry_typ:P|lang:en|wc:3|cs:8887|v=4,False,Pimpri,Pune,"Shop No D22, Prem Park Commercial Complex Masulkar Colony, Pimpri, Pune - 411018, Dist.Pune, Maharashtra",7942839329,
"Dreamease Adult Pant L Size Disposable Diaper, Large",https://www.indiamart.com/proddetail/dreamease-adult-pant-l-size-disposable-diaper-2854250756391.html?pos=88&kwd=adult diaper pant&tags=||||8751.045|Price|product|||MDC|rsf:gd-|-stype:attr=1|qr_nm:gd|res:RC4|com-cf:nl|ptrs:na|ktp:N0|mc:184603|mtp:S|qry_typ:P|lang:en|wc:3|cs:8887|v=4,Aurum Medicare Private Limited,https://www.indiamart.com/aurum-medicare/?pos=88&kwd=adult diaper pant&tags=||||8751.045|Price|product|||MDC|rsf:gd-|-stype:attr=1|qr_nm:gd|res:RC4|com-cf:nl|ptrs:na|ktp:N0|mc:184603|mtp:S|qry_typ:P|lang:en|wc:3|cs:8887|v=4,False,,Baddi,"Himuda, 86 Phase-4, Plot No 86, Industrial Area Baddi, Himuda Industrial Area,, Baddi - 173205, Dist.Solan, Himachal Pradesh",8045737950,
"Absorbia M Unisex Adult Pant Style Diaper, Medium",https://www.indiamart.com/proddetail/absorbia-m-unisex-adult-pant-style-diaper-2854410499697.html?pos=89&kwd=adult diaper pant&tags=||||8556.61|Price|product|||MDC|rsf:gd-|-stype:attr=1|qr_nm:gd|res:RC4|com-cf:nl|ptrs:na|ktp:N0|mc:184603|mtp:S|qry_typ:P|lang:en|wc:3|cs:8887|v=4,Arbatt Enterprises,https://www.indiamart.com/arbatt-enterprises/?pos=89&kwd=adult diaper pant&tags=||||8556.61|Price|product|||MDC|rsf:gd-|-stype:attr=1|qr_nm:gd|res:RC4|com-cf:nl|ptrs:na|ktp:N0|mc:184603|mtp:S|qry_typ:P|lang:en|wc:3|cs:8887|v=4,False,,Mysuru,"119/1, Devayyana Hundi Road, Srirampra 2nd Stage, Mysuru - 570008, Dist.Mysuru, Karnataka",8044458992,
"Pull Ups Adult Diaper Pants, Size: Xl-xxl",https://www.indiamart.com/proddetail/adult-diaper-pants-2853066137533.html?pos=90&kwd=adult diaper pant&tags=||||8230.883|Price|product|||TS|rsf:gd-|-stype:attr=1|qr_nm:gd|res:RC4|com-cf:nl|ptrs:na|ktp:N0|mc:184603|mtp:S|qry_typ:P|lang:en|wc:3|cs:8887|v=4,Shanti Medicare,https://www.indiamart.com/shanti-medicare/?pos=90&kwd=adult diaper pant&tags=||||8230.883|Price|product|||TS|rsf:gd-|-stype:attr=1|qr_nm:gd|res:RC4|com-cf:nl|ptrs:na|ktp:N0|mc:184603|mtp:S|qry_typ:P|lang:en|wc:3|cs:8887|v=4,False,126 shardha row row house,Surat,"S 20, Swastik Plaza, Yogi Chowk,, 126 shardha row row house, Surat - 395010, Dist.Surat, Gujarat",7942835980,
wellstep adult diaper pants xl-10,https://www.indiamart.com/proddetail/wellstep-adult-diaper-pants-xl-10-2854982967033.html?pos=91&kwd=adult diaper pant&tags=||||8230.883|Price|product|||MDC|rsf:gd-|-stype:attr=1|qr_nm:gd|res:RC4|com-cf:nl|ptrs:na|ktp:N0|mc:184603|mtp:S|qry_typ:P|lang:en|wc:3|cs:8887|v=4,V R Barot,https://www.indiamart.com/v-r-barot/?pos=91&kwd=adult diaper pant&tags=||||8230.883|Price|product|||MDC|rsf:gd-|-stype:attr=1|qr_nm:gd|res:RC4|com-cf:nl|ptrs:na|ktp:N0|mc:184603|mtp:S|qry_typ:P|lang:en|wc:3|cs:8887|v=4,False,Bhagvati Nagar Housing Society,Surat,"B-19, Bhagavati Nagar Soc, Jahangirpura, Bhagvati Nagar Housing Society, Surat - 395005, Dist.Surat, Gujarat",7942968850,
"Bon Bon Adult Diaper Pants S-M, Small",https://www.indiamart.com/proddetail/bon-bon-adult-diaper-pants-s-m-2850640041091.html?pos=92&kwd=adult diaper pant&tags=||||8786.56|Price|product|||MDC|rsf:gd-|-stype:attr=1|qr_nm:gd|res:RC4|com-cf:nl|ptrs:na|ktp:N0|mc:184603|mtp:S|qry_typ:P|lang:en|wc:3|cs:8887|v=4,N K Corporation,https://www.indiamart.com/nkcorporation-telangana/?pos=92&kwd=adult diaper pant&tags=||||8786.56|Price|product|||MDC|rsf:gd-|-stype:attr=1|qr_nm:gd|res:RC4|com-cf:nl|ptrs:na|ktp:N0|mc:184603|mtp:S|qry_typ:P|lang:en|wc:3|cs:8887|v=4,False,,Hyderabad,"14-3-239,Goshamahal,, Hyderabad - 500012, Dist.Hyderabad, Telangana",8048982215,
"30-100 Age Pull Ups Friends Premium Adults Dry Diaper Pants, Size: XL",https://www.indiamart.com/proddetail/friends-premium-adults-dry-diaper-pants-2853016708533.html?pos=93&kwd=adult diaper pant&tags=||||8211.142|Price|product|||TS|rsf:gd-|-stype:attr=1|qr_nm:gd|res:RC4|com-cf:nl|ptrs:na|ktp:N0|mc:184603|mtp:S|qry_typ:P|lang:en|wc:3|cs:8887|v=4,GBSS Enterprises,https://www.indiamart.com/gbss-enterprise/?pos=93&kwd=adult diaper pant&tags=||||8211.142|Price|product|||TS|rsf:gd-|-stype:attr=1|qr_nm:gd|res:RC4|com-cf:nl|ptrs:na|ktp:N0|mc:184603|mtp:S|qry_typ:P|lang:en|wc:3|cs:8887|v=4,False,Kandivali West,Mumbai,"Sector-2, Plot No-202, Room No C-3, Sagar C.H.S.L, Charkop, Kandivali West, Charkhop, Kandivali West, Mumbai - 400067, Dist.Mumbai, Maharashtra",8047820540,
Pull Ups Svaach Overnight Adult Diaper Pants Medium,https://www.indiamart.com/proddetail/svaach-overnight-adult-diaper-pants-medium-2854045495888.html?pos=94&kwd=adult diaper pant&tags=||||8663.873|Price|product|||MDC|rsf:gd-|-stype:attr=1|qr_nm:gd|res:RC4|com-cf:nl|ptrs:na|ktp:N0|mc:184603|mtp:S|qry_typ:P|lang:en|wc:3|cs:8887|v=4,Samutthanam Health Care LLP,https://www.indiamart.com/samutthanamhealthcare/?pos=94&kwd=adult diaper pant&tags=||||8663.873|Price|product|||MDC|rsf:gd-|-stype:attr=1|qr_nm:gd|res:RC4|com-cf:nl|ptrs:na|ktp:N0|mc:184603|mtp:S|qry_typ:P|lang:en|wc:3|cs:8887|v=4,False,Banashankari,Bengaluru,"644, 1st A cross 1st Phase, Girinagara, Hosakerehalli, BSK 3rd Stage, Urban, Banashankari, Bengaluru - 560085, Dist.Bengaluru, Karnataka",7942791482,
"Arrpit Care Adult Diaper Pants, Size: Large",https://www.indiamart.com/proddetail/arrpit-care-adult-diaper-pants-2854148647662.html?pos=95&kwd=adult diaper pant&tags=||||8559.269|Price|product|||MDC|rsf:gd-|-stype:attr=1|qr_nm:gd|res:RC4|com-cf:nl|ptrs:na|ktp:N0|mc:184603|mtp:S|qry_typ:P|lang:en|wc:3|cs:8887|v=4,Arpit Care Private Limited,https://www.indiamart.com/arpit-care/?pos=95&kwd=adult diaper pant&tags=||||8559.269|Price|product|||MDC|rsf:gd-|-stype:attr=1|qr_nm:gd|res:RC4|com-cf:nl|ptrs:na|ktp:N0|mc:184603|mtp:S|qry_typ:P|lang:en|wc:3|cs:8887|v=4,False,,Indore,"210, HIG, Indore Kanadia Road, Scheme No 94, Indore - 452016, Dist.Indore, Madhya Pradesh",8044015285,
"16-100 Pull Ups Pant Style Adult Diapers, Size: Medium -large",https://www.indiamart.com/proddetail/pant-style-adult-diapers-2848956386830.html?pos=96&kwd=adult diaper pant&tags=||||8210.732|Price|product|||TS|rsf:gd-|-stype:attr=1|qr_nm:gd|res:RC4|com-cf:nl|ptrs:na|ktp:N0|mc:184603|mtp:S|qry_typ:P|lang:en|wc:3|cs:8887|v=4,M S Enterprises,https://www.indiamart.com/m-senterprisesmumbai/?pos=96&kwd=adult diaper pant&tags=||||8210.732|Price|product|||TS|rsf:gd-|-stype:attr=1|qr_nm:gd|res:RC4|com-cf:nl|ptrs:na|ktp:N0|mc:184603|mtp:S|qry_typ:P|lang:en|wc:3|cs:8887|v=4,False,Andheri East,Vasai,"1st Floor, Gala No 113, Rajprabha Industrial Enclave No 6, Boidapada, Vasai East Palghar, Andheri East, Vasai - 401208, Dist.Thane, Maharashtra",8048974810,
Flamingo Adult Diapers Tape Style Adult dry pants,https://www.indiamart.com/proddetail/flamingo-adult-diapers-tape-style-adult-dry-pants-2852396369797.html?pos=97&kwd=adult diaper pant&tags=||||8601.347|Price|product|||TS|rsf:gd-|-stype:attr=1|qr_nm:gd|res:RC4|com-cf:nl|ptrs:na|ktp:N0|mc:184603|mtp:S|qry_typ:P|lang:en|wc:3|cs:8887|v=4,Raj Biosis Private Limited,https://www.rajbiosis.com/?pos=97&kwd=adult diaper pant&tags=||||8601.347|Price|product|||TS|rsf:gd-|-stype:attr=1|qr_nm:gd|res:RC4|com-cf:nl|ptrs:na|ktp:N0|mc:184603|mtp:S|qry_typ:P|lang:en|wc:3|cs:8887|v=4,True,,Jaipur,"1st Floor, F-4,Plot No.16, D- Block, Tagor Nagar,Nr.200 FT, Jaipur - 302021, Dist.Jaipur, Rajasthan",8048962241,
Friends Adult Diaper Pant (Pack of 2),https://www.indiamart.com/proddetail/friends-adult-diaper-pant-18358131888.html?pos=98&kwd=adult diaper pant&tags=||||8211.142|Price|product|||TS|rsf:gd-|-stype:attr=1|qr_nm:gd|res:RC4|com-cf:nl|ptrs:na|ktp:N0|mc:184603|mtp:S|qry_typ:P|lang:en|wc:3|cs:8887|v=4,Shah Trading Corporation,https://www.indiamart.com/shahtrading-corp/?pos=98&kwd=adult diaper pant&tags=||||8211.142|Price|product|||TS|rsf:gd-|-stype:attr=1|qr_nm:gd|res:RC4|com-cf:nl|ptrs:na|ktp:N0|mc:184603|mtp:S|qry_typ:P|lang:en|wc:3|cs:8887|v=4,False,Kalbadevi,Mumbai,"Room No. 35, 2nd Floor, Shri Krishna Niwas 500, Kalbadevi Road, New Silk Bazar, Kalbadevi, Mumbai - 400002, Dist.Mumbai, Maharashtra",8046042417,
"Adults Pant Diapers medi sorb adult diaper, Size: Large",https://www.indiamart.com/proddetail/medi-sorb-adult-diaper-22266336191.html?pos=99&kwd=adult diaper pant&tags=||||8954.051|Price|product|||TS|rsf:gd-|-stype:attr=1|qr_nm:gd|res:RC4|com-cf:nl|ptrs:na|ktp:N0|mc:184603|mtp:S|qry_typ:P|lang:en|wc:3|cs:8887|v=4,Thiripura Agencies,https://www.indiamart.com/thiripura-agencies/?pos=99&kwd=adult diaper pant&tags=||||8954.051|Price|product|||TS|rsf:gd-|-stype:attr=1|qr_nm:gd|res:RC4|com-cf:nl|ptrs:na|ktp:N0|mc:184603|mtp:S|qry_typ:P|lang:en|wc:3|cs:8887|v=4,False,Vadapalani,Chennai,"87/38 Aadimula Perumal Koil Street Vadapalani, Vadapalani, Chennai - 600026, Dist.Chennai, Tamil Nadu",8047640570,
Pull Ups Adult Diapers Pant Styles,https://www.indiamart.com/proddetail/adult-diapers-pant-styles-23847575573.html?pos=100&kwd=adult diaper pant&tags=||||8899.625|Price|product|||TS|rsf:gd-|-stype:attr=1|qr_nm:gd|res:RC4|com-cf:nl|ptrs:na|ktp:N0|mc:184603|mtp:S|qry_typ:P|lang:en|wc:3|cs:8887|v=4,Sadhguru Surgicals Private Limited,https://www.indiamart.com/sadhguru-surgicals/?pos=100&kwd=adult diaper pant&tags=||||8899.625|Price|product|||TS|rsf:gd-|-stype:attr=1|qr_nm:gd|res:RC4|com-cf:nl|ptrs:na|ktp:N0|mc:184603|mtp:S|qry_typ:P|lang:en|wc:3|cs:8887|v=4,False,Thirubuvanai,Pondicherry,"First Floor, 104, 4th Cross Street, Ragavendra Nagar, Thirubuvanai, Thirubuvanai, Pondicherry - 605107, Dist.Pondicherry, Pondicherry",8047645074,
XL Classic Pants Adult Diapers,https://www.indiamart.com/proddetail/xl-classic-pants-adult-diapers-2853717067062.html?pos=101&kwd=adult diaper pant&tags=||||8038.093|Price|product|||MDC|rsf:gd-|-stype:attr=1|qr_nm:gd|res:RC4|com-cf:nl|ptrs:na|ktp:N0|mc:184603|mtp:S|qry_typ:P|lang:en|wc:3|cs:8887|v=4,Balaji Pharmacy,https://www.indiamart.com/balajipharmacy-rajkot/?pos=101&kwd=adult diaper pant&tags=||||8038.093|Price|product|||MDC|rsf:gd-|-stype:attr=1|qr_nm:gd|res:RC4|com-cf:nl|ptrs:na|ktp:N0|mc:184603|mtp:S|qry_typ:P|lang:en|wc:3|cs:8887|v=4,False,Jangleshwar,Rajkot,"Ground Floor,Shop No.2, Quater No.76,Surey No.249, Hudco Quarters, Kothariya Main Road, Jangleshwar, Rajkot - 360002, Dist.Rajkot, Gujarat",8044013220,
Pull Ups Adult Diapers Pants Large Size (Pack Of 10),https://www.indiamart.com/proddetail/adult-diapers-pants-large-size-pack-of-10-2853254943388.html?pos=102&kwd=adult diaper pant&tags=||||8788.382|Price|product|||MDC|rsf:gd-|-stype:attr=1|qr_nm:gd|res:RC4|com-cf:nl|ptrs:na|ktp:N0|mc:184603|mtp:S|qry_typ:P|lang:en|wc:3|cs:8887|v=4,Scientific Supplies Corporation,https://www.indiamart.com/scientific-supplies-corporation/?pos=102&kwd=adult diaper pant&tags=||||8788.382|Price|product|||MDC|rsf:gd-|-stype:attr=1|qr_nm:gd|res:RC4|com-cf:nl|ptrs:na|ktp:N0|mc:184603|mtp:S|qry_typ:P|lang:en|wc:3|cs:8887|v=4,False,Gamma 1,Greater Noida,"Shop No. 63, Jagat Plaza 2, Jagat Farm, Sector Gamma 1, Gamma 1, Greater Noida - 201308, Dist.Gautam Budh Nagar, Uttar Pradesh",7948548083,
"Protective Underwear B-Fit Adult Diaper Pant, Size: Xl",https://www.indiamart.com/proddetail/b-fit-adult-diaper-pant-27476311997.html?pos=103&kwd=adult diaper pant&tags=||||9140.514|Price|product|||MDC|rsf:gd-|-stype:attr=1|qr_nm:gd|res:RC4|com-cf:nl|ptrs:na|ktp:N0|mc:184603|mtp:S|qry_typ:P|lang:en|wc:3|cs:8887|v=4,Stuti Medical Agency,https://www.indiamart.com/stuti-medical-agencyraipur/?pos=103&kwd=adult diaper pant&tags=||||9140.514|Price|product|||MDC|rsf:gd-|-stype:attr=1|qr_nm:gd|res:RC4|com-cf:nl|ptrs:na|ktp:N0|mc:184603|mtp:S|qry_typ:P|lang:en|wc:3|cs:8887|v=4,False,Chowk,Raipur,"Shop No-33, Farishta Complex, Rajbandha Maidan,, Chowk, Raipur - 492001, Chhattisgarh",7942671922,
Seniorcare Adult Diaper Pant,https://www.indiamart.com/proddetail/seniorcare-adult-diaper-pant-2854578721255.html?pos=104&kwd=adult diaper pant&tags=||||8302.941|Price|product|||MDC|rsf:gd-|-stype:attr=1|qr_nm:gd|res:RC4|com-cf:nl|ptrs:na|ktp:N0|mc:184603|mtp:S|qry_typ:P|lang:en|wc:3|cs:8887|v=4,Advance Healthcare,https://www.indiamart.com/advance-healthcaremaharashtra/?pos=104&kwd=adult diaper pant&tags=||||8302.941|Price|product|||MDC|rsf:gd-|-stype:attr=1|qr_nm:gd|res:RC4|com-cf:nl|ptrs:na|ktp:N0|mc:184603|mtp:S|qry_typ:P|lang:en|wc:3|cs:8887|v=4,False,,Pimpri Chinchwad,"Office No.3, First Floor, Onkar Plaza, Indrayani Bazzar, MIDC Chinchwad, Pimpri Chinchwad - 411019, Maharashtra",7949329008,
"Adult Diaper Pant Type, Size: L - Xl",https://www.indiamart.com/proddetail/adult-diaper-pant-type-2851052312062.html?pos=105&kwd=adult diaper pant&tags=||||8782.67|Price|product|||TS|rsf:gd-|-stype:attr=1|qr_nm:gd|res:RC4|com-cf:nl|ptrs:na|ktp:N0|mc:184603|mtp:S|qry_typ:P|lang:en|wc:3|cs:8887|v=4,Medisky Surgicals,https://www.indiamart.com/medisky-surgicals/?pos=105&kwd=adult diaper pant&tags=||||8782.67|Price|product|||TS|rsf:gd-|-stype:attr=1|qr_nm:gd|res:RC4|com-cf:nl|ptrs:na|ktp:N0|mc:184603|mtp:S|qry_typ:P|lang:en|wc:3|cs:8887|v=4,False,Uchipuli,Ramanathapuram,"12/2865-30, Pattinamkathan, Madurai Rameshwaram Road, Achchundanvayal, Uchipuli, Ramanathapuram - 623502, Dist.Ramanathapuram, Tamil Nadu",7942960183,
"Pull Ups Kare Med Adult Diaper Pants, Size: XL",https://www.indiamart.com/proddetail/kare-med-adult-diaper-pants-2853946967812.html?pos=106&kwd=adult diaper pant&tags=||||9839.57|Price|product|||MDC|rsf:gd-|-stype:attr=1|qr_nm:gd|res:RC4|com-cf:nl|ptrs:na|ktp:N0|mc:184603|mtp:S|qry_typ:P|lang:en|wc:3|cs:8887|v=4,Aurafia Pharmaceuticals,https://www.indiamart.com/aurafia-pharmaceuticals/?pos=106&kwd=adult diaper pant&tags=||||9839.57|Price|product|||MDC|rsf:gd-|-stype:attr=1|qr_nm:gd|res:RC4|com-cf:nl|ptrs:na|ktp:N0|mc:184603|mtp:S|qry_typ:P|lang:en|wc:3|cs:8887|v=4,False,Manik Talla,Kolkata,"Shop No. 3/9 Gorachand Bose Road, Manik Talla, Kolkata - 700006, Dist.Kolkata, West Bengal",8047800483,
"Kare In Premium Adult Diaper Pants, Medium",https://www.indiamart.com/proddetail/kare-in-premium-adult-diaper-pants-2854333041391.html?pos=107&kwd=adult diaper pant&tags=||||8954.051|Price|product|||MDC|rsf:gd-|-stype:attr=1|qr_nm:gd|res:RC4|com-cf:nl|ptrs:na|ktp:N0|mc:184603|mtp:S|qry_typ:P|lang:en|wc:3|cs:8887|v=4,Artheon Healthcare,https://www.indiamart.com/artheon-healthcare-chennai/?pos=107&kwd=adult diaper pant&tags=||||8954.051|Price|product|||MDC|rsf:gd-|-stype:attr=1|qr_nm:gd|res:RC4|com-cf:nl|ptrs:na|ktp:N0|mc:184603|mtp:S|qry_typ:P|lang:en|wc:3|cs:8887|v=4,False,,Chennai,"D No 24/6, Bharathidasan Nagar Main Road, Adambakkam, Chennai - 600088, Dist.Chennai, Tamil Nadu",8045730959,
Medium Size Liberty Eco Adult Diaper Pants,https://www.indiamart.com/proddetail/medium-size-liberty-eco-adult-diaper-pants-2854726035262.html?pos=108&kwd=adult diaper pant&tags=||||8706.587|Price|product|||MDC|rsf:gd-|-stype:attr=1|qr_nm:gd|res:RC4|com-cf:nl|ptrs:na|ktp:N0|mc:184603|mtp:S|qry_typ:P|lang:en|wc:3|cs:8887|v=4,Biogen Healthcare,https://www.indiamart.com/biogen-healthcare-madurai/?pos=108&kwd=adult diaper pant&tags=||||8706.587|Price|product|||MDC|rsf:gd-|-stype:attr=1|qr_nm:gd|res:RC4|com-cf:nl|ptrs:na|ktp:N0|mc:184603|mtp:S|qry_typ:P|lang:en|wc:3|cs:8887|v=4,False,,Madurai,"8/3, Madakkulam Main Road, Madakkulam,, Madurai - 625003, Dist.Madurai, Tamil Nadu",7949323451,
"Adult Pull Up Pant Diapers, Size: M,L Xl",https://www.indiamart.com/proddetail/adult-pull-up-pant-diapers-24483054712.html?pos=109&kwd=adult diaper pant&tags=||||8559.269|Price|product|||TS|rsf:gd-|-stype:attr=1|qr_nm:gd|res:RC4|com-cf:nl|ptrs:na|ktp:N0|mc:184603|mtp:S|qry_typ:P|lang:en|wc:3|cs:8887|v=4,Shree Balasaheb Enterprises,https://www.indiamart.com/shreebalasahebenterprises/?pos=109&kwd=adult diaper pant&tags=||||8559.269|Price|product|||TS|rsf:gd-|-stype:attr=1|qr_nm:gd|res:RC4|com-cf:nl|ptrs:na|ktp:N0|mc:184603|mtp:S|qry_typ:P|lang:en|wc:3|cs:8887|v=4,False,Kailashpuri,Indore,"35 Kelashpuri Colony Khazrana, Kailashpuri, Indore - 452016, Dist.Indore, Madhya Pradesh",8048955175,
"Wetex Adult Pull up Diapers Pants Unisex Premium 10 Pcs, Size: Xl",https://www.indiamart.com/proddetail/wetex-adult-pull-up-diapers-pants-unisex-premium-10-pcs-2850478269930.html?pos=110&kwd=adult diaper pant&tags=||||8307.81|Price|product|||TS|rsf:gd-|-stype:attr=1|qr_nm:gd|res:RC4|com-cf:nl|ptrs:na|ktp:N0|mc:184603|mtp:S|qry_typ:P|lang:en|wc:3|cs:8887|v=4,Ecomed Solutions,https://www.indiamart.com/ecomedsolutions/?pos=110&kwd=adult diaper pant&tags=||||8307.81|Price|product|||TS|rsf:gd-|-stype:attr=1|qr_nm:gd|res:RC4|com-cf:nl|ptrs:na|ktp:N0|mc:184603|mtp:S|qry_typ:P|lang:en|wc:3|cs:8887|v=4,False,Hadapsar,Pune,"Fld3/b403 Sn44a Sasane Nagar Vardhaman Township Hadapsar, Hadapsar, Pune - 411028, Dist.Pune, Maharashtra",8043853505,
Pull Ups Disposable Adult Diaper Pant,https://www.indiamart.com/proddetail/disposable-adult-diaper-pant-27068125030.html?pos=111&kwd=adult diaper pant&tags=||||8793.739|Price|product|||TS|rsf:gd-|-stype:attr=1|qr_nm:gd|res:RC4|com-cf:nl|ptrs:na|ktp:N0|mc:184603|mtp:S|qry_typ:P|lang:en|wc:3|cs:8887|v=4,Sky High Medicare,https://www.skyhighmedicare.in/?pos=111&kwd=adult diaper pant&tags=||||8793.739|Price|product|||TS|rsf:gd-|-stype:attr=1|qr_nm:gd|res:RC4|com-cf:nl|ptrs:na|ktp:N0|mc:184603|mtp:S|qry_typ:P|lang:en|wc:3|cs:8887|v=4,False,Krishna Nagar,Mathura,"Sonkh Road, Krishna Nagar, Mathura - 281004, Dist.Mathura, Uttar Pradesh",7942534929,
Adult Diaper Pants,https://www.indiamart.com/proddetail/adult-diaper-pants-2853739626362.html?pos=112&kwd=adult diaper pant&tags=||||8752.144||product|||TS|rsf:gd-|-stype:attr=1|qr_nm:gd|res:RC4|com-cf:nl|ptrs:na|ktp:N0|mc:184603|mtp:S|qry_typ:P|lang:en|wc:3|cs:8887|v=4,Rama Enterprises,https://www.indiamart.com/rama-entprs-delhi/?pos=112&kwd=adult diaper pant&tags=||||8752.144||product|||TS|rsf:gd-|-stype:attr=1|qr_nm:gd|res:RC4|com-cf:nl|ptrs:na|ktp:N0|mc:184603|mtp:S|qry_typ:P|lang:en|wc:3|cs:8887|v=4,False,Gokalpur,New Delhi,"B-153 , Village Gokulpur , North East, Gokalpur, New Delhi - 110094, Dist.Delhi, Delhi",8047524470,
Pull Ups B-Fit XL Adult Diaper Pants,https://www.indiamart.com/proddetail/b-fit-xl-adult-diaper-pants-2850042148997.html?pos=113&kwd=adult diaper pant&tags=||||8899.625|Price|product|||TS|rsf:gd-|-stype:attr=1|qr_nm:gd|res:RC4|com-cf:nl|ptrs:na|ktp:N0|mc:184603|mtp:S|qry_typ:P|lang:en|wc:3|cs:8887|v=4,Sri Goutham Surgicals,https://www.indiamart.com/sri-goutham-surgicals/?pos=113&kwd=adult diaper pant&tags=||||8899.625|Price|product|||TS|rsf:gd-|-stype:attr=1|qr_nm:gd|res:RC4|com-cf:nl|ptrs:na|ktp:N0|mc:184603|mtp:S|qry_typ:P|lang:en|wc:3|cs:8887|v=4,False,Heritage Town,Pondicherry,"First Floor 156, Ambalathadayar Madam Street Kosakadi Street, Heritage Town, Pondicherry - 605001, Dist.Pondicherry, Pondicherry",7942799905,
"Plain Bio Care Adult Diaper pants, Medium",https://www.indiamart.com/proddetail/bio-care-adult-diaper-pants-24266150548.html?pos=114&kwd=adult diaper pant&tags=||||8786.56|Price|product|||TS|rsf:gd-|-stype:attr=1|qr_nm:gd|res:RC4|com-cf:nl|ptrs:na|ktp:N0|mc:184603|mtp:S|qry_typ:P|lang:en|wc:3|cs:8887|v=4,Biocare Surgical Industries,https://www.indiamart.com/biocaresurgicalindustries/?pos=114&kwd=adult diaper pant&tags=||||8786.56|Price|product|||TS|rsf:gd-|-stype:attr=1|qr_nm:gd|res:RC4|com-cf:nl|ptrs:na|ktp:N0|mc:184603|mtp:S|qry_typ:P|lang:en|wc:3|cs:8887|v=4,False,Nagaram,Hyderabad,"Plot No. 16, 2nd Floor, dammaiguda Hyderabad Medchal, Malkajgiri, Nagaram, Hyderabad - 500062, Dist.Hyderabad, Telangana",8048957165,
45 Pull Ups KAREMED ADULT DIAPER PANTS LARGE SIZE,https://www.indiamart.com/proddetail/karemed-adult-diaper-pants-large-size-24524239655.html?pos=115&kwd=adult diaper pant&tags=||||8228.275|Price|product|||TS|rsf:gd-|-stype:attr=1|qr_nm:gd|res:RC4|com-cf:nl|ptrs:na|ktp:N0|mc:184603|mtp:S|qry_typ:P|lang:en|wc:3|cs:8887|v=4,Classic Medical Supply,https://www.classicmedicalsupply.com/?pos=115&kwd=adult diaper pant&tags=||||8228.275|Price|product|||TS|rsf:gd-|-stype:attr=1|qr_nm:gd|res:RC4|com-cf:nl|ptrs:na|ktp:N0|mc:184603|mtp:S|qry_typ:P|lang:en|wc:3|cs:8887|v=4,False,Bhadra,Ahmedabad,"Pragati Bank, 1 Classic Electronics, Relief Road, Ratanpur Pole, Bhadra, Ahmedabad - 380001, Dist.Ahmedabad, Gujarat",8048953386,
Briefs Comfrey Adult Diapers Pants,https://www.indiamart.com/proddetail/comfrey-adult-diapers-pants-2852883815088.html?pos=116&kwd=adult diaper pant&tags=||||8211.142|Price|product|||TS|rsf:gd-|-stype:attr=1|qr_nm:gd|res:RC4|com-cf:nl|ptrs:na|ktp:N0|mc:184603|mtp:S|qry_typ:P|lang:en|wc:3|cs:8887|v=4,S N Surgicals,https://www.indiamart.com/snsurgicals-mumbai/?pos=116&kwd=adult diaper pant&tags=||||8211.142|Price|product|||TS|rsf:gd-|-stype:attr=1|qr_nm:gd|res:RC4|com-cf:nl|ptrs:na|ktp:N0|mc:184603|mtp:S|qry_typ:P|lang:en|wc:3|cs:8887|v=4,False,Dahisar,Mumbai,"Shop No. G-16, Sai Krupa Mall, LT Road, Opp Railway Station, Dahisar West Suburban, Dahisar, Mumbai - 400068, Dist.Mumbai, Maharashtra",7942968320,
Adult Diaper Pants,https://www.indiamart.com/proddetail/adult-diaper-pants-2853659981497.html?pos=117&kwd=adult diaper pant&tags=CC||||8785.791||product|||TS|rsf:gd-|-stype:attr=1|qr_nm:gd|res:RC4|com-cf:nl|ptrs:na|ktp:N0|mc:184603|mtp:S|qry_typ:P|lang:en|wc:3|cs:8887|v=4,De-Escorts Medical Services,https://www.indiamart.com/deescortsmedicalservices/?pos=117&kwd=adult diaper pant&tags=CC||||8785.791||product|||TS|rsf:gd-|-stype:attr=1|qr_nm:gd|res:RC4|com-cf:nl|ptrs:na|ktp:N0|mc:184603|mtp:S|qry_typ:P|lang:en|wc:3|cs:8887|v=4,False,Vasundhra,Ghaziabad,"Fourth Floor 401, SG Alpha Tower-II Sector-9 ,Vasundhra, Vasundhra, Ghaziabad - 201012, Dist.Ghaziabad, Uttar Pradesh",8047799744,
"M L,Cl Adult Diaper Pants",https://www.indiamart.com/proddetail/adult-diaper-pants-2854587976155.html?pos=118&kwd=adult diaper pant&tags=CC||||8662.111|Price|product|||TS|rsf:gd-|-stype:attr=1|qr_nm:gd|res:RC4|com-cf:nl|ptrs:na|ktp:N0|mc:184603|mtp:S|qry_typ:P|lang:en|wc:3|cs:8887|v=4,Rovee Garments,https://www.indiamart.com/rovee-garments/?pos=118&kwd=adult diaper pant&tags=CC||||8662.111|Price|product|||TS|rsf:gd-|-stype:attr=1|qr_nm:gd|res:RC4|com-cf:nl|ptrs:na|ktp:N0|mc:184603|mtp:S|qry_typ:P|lang:en|wc:3|cs:8887|v=4,False,State Bank Colony,Tirunelveli,"70, State Bank Colony, Ezhil Nagar, Ngo A Colony, State Bank Colony, Tirunelveli - 627007, Dist.Tirunelveli, Tamil Nadu",7942840922,
"Adult Diaper Pants, Small, medium and large",https://www.indiamart.com/proddetail/adult-diaper-pants-27632440030.html?pos=119&kwd=adult diaper pant&tags=CC||||8752.144|Price|product|||TS|rsf:gd-|-stype:attr=1|qr_nm:gd|res:RC4|com-cf:nl|ptrs:na|ktp:N0|mc:184603|mtp:S|qry_typ:P|lang:en|wc:3|cs:8887|v=4,Jai Shree Industries ( Regd.),https://www.jaishreeindustries.in/?pos=119&kwd=adult diaper pant&tags=CC||||8752.144|Price|product|||TS|rsf:gd-|-stype:attr=1|qr_nm:gd|res:RC4|com-cf:nl|ptrs:na|ktp:N0|mc:184603|mtp:S|qry_typ:P|lang:en|wc:3|cs:8887|v=4,False,Karam Pura,New Delhi,"No. 107, Magnum House II, First Floor, Karampura Commercial Complex, Karam Pura, New Delhi - 110015, Dist.Delhi, Delhi",8048981957,
"Plain KareIn Adult Diaper Pants, Packaging Size: Medium",https://www.indiamart.com/proddetail/karein-adult-diaper-pants-2853784794730.html?pos=120&kwd=adult diaper pant&tags=||||8954.051|Price|product|||MDC|rsf:gd-|-stype:attr=1|qr_nm:gd|res:RC4|com-cf:nl|ptrs:na|ktp:N0|mc:184603|mtp:S|qry_typ:P|lang:en|wc:3|cs:8887|v=4,Oracare,https://www.indiamart.com/oracare-chennai/?pos=120&kwd=adult diaper pant&tags=||||8954.051|Price|product|||MDC|rsf:gd-|-stype:attr=1|qr_nm:gd|res:RC4|com-cf:nl|ptrs:na|ktp:N0|mc:184603|mtp:S|qry_typ:P|lang:en|wc:3|cs:8887|v=4,False,Maraimalai Nagar,Chennai,"Ground Floor, 132, LIG, NH1 Ambedkar Street, Maraimalai Nagar, Kancheepuram, Maraimalai Nagar, Chennai - 603209, Dist.Chennai, Tamil Nadu",7949095662,
Disposable Adult Pull Up Diaper,https://www.indiamart.com/proddetail/disposable-adult-pull-up-diaper-23317070748.html?pos=121&kwd=adult diaper pant&tags=CC||||8752.144|Price|product|||TS|rsf:gd-|-stype:attr=1|qr_nm:gd|res:RC4|com-cf:nl|ptrs:na|ktp:N0|mc:184603|mtp:S|qry_typ:P|lang:en|wc:3|cs:8887|v=4,Health Care Hub,https://www.indiamart.com/blessingsofbalaji/?pos=121&kwd=adult diaper pant&tags=CC||||8752.144|Price|product|||TS|rsf:gd-|-stype:attr=1|qr_nm:gd|res:RC4|com-cf:nl|ptrs:na|ktp:N0|mc:184603|mtp:S|qry_typ:P|lang:en|wc:3|cs:8887|v=4,False,M.B.S. Nagar,New Delhi,"68 nagar, M.B.S. Nagar, New Delhi - 110018, Dist.Delhi, Delhi",8046061856,
Adult Diaper Pant,https://www.indiamart.com/proddetail/adult-diaper-pant-27019931933.html?pos=122&kwd=adult diaper pant&tags=CC||||8601.347|Price|product|||MDC|rsf:gd-|-stype:attr=1|qr_nm:gd|res:RC4|com-cf:nl|ptrs:na|ktp:N0|mc:184603|mtp:S|qry_typ:P|lang:en|wc:3|cs:8887|v=4,Solution India,https://www.indiamart.com/solutionindia-jaipur/?pos=122&kwd=adult diaper pant&tags=CC||||8601.347|Price|product|||MDC|rsf:gd-|-stype:attr=1|qr_nm:gd|res:RC4|com-cf:nl|ptrs:na|ktp:N0|mc:184603|mtp:S|qry_typ:P|lang:en|wc:3|cs:8887|v=4,False,Jhotwara,Jaipur,"G-3, Block 3A, Moon Resi, Behind Shanti Niketan Vidhya Mandir, Laxmi Nagar, Jhotwara, Jaipur - 302012, Dist.Jaipur, Rajasthan",8046044590,
"Adult Diaper Pants, Size: Large",https://www.indiamart.com/proddetail/adult-diaper-pant-2855098426755.html?pos=123&kwd=adult diaper pant&tags=||||8785.791||product|||MDC|rsf:gd-|-stype:attr=1|qr_nm:gd|res:RC4|com-cf:nl|ptrs:na|ktp:N0|mc:184603|mtp:S|qry_typ:P|lang:en|wc:3|cs:8887|v=4,K S Enterprises,https://www.indiamart.com/ks-enterprisesghaziabad/?pos=123&kwd=adult diaper pant&tags=||||8785.791||product|||MDC|rsf:gd-|-stype:attr=1|qr_nm:gd|res:RC4|com-cf:nl|ptrs:na|ktp:N0|mc:184603|mtp:S|qry_typ:P|lang:en|wc:3|cs:8887|v=4,False,,Ghaziabad,"Near P.W.D. Guest House, 194, G.T. Road, Bonjha, Ghaziabad - 201001, Dist.Ghaziabad, Uttar Pradesh",7949311608,
STAYSURE ADULT DIAPER PANT STYLE LARGE TO EXTRA LARGE MONEY SAVER PACK OF 10 PCS,https://www.indiamart.com/proddetail/staysure-adult-diaper-pant-style-large-to-extra-large-money-saver-pack-of-10-pcs-17026910512.html?pos=124&kwd=adult diaper pant&tags=||||8307.81|Price|product|||TS|rsf:gd-|-stype:attr=1|qr_nm:gd|res:RC4|com-cf:nl|ptrs:na|ktp:N0|mc:184603|mtp:S|qry_typ:P|lang:en|wc:3|cs:8887|v=4,Eternis Hygiene Products,https://www.indiamart.com/eternis-hygiene-products/?pos=124&kwd=adult diaper pant&tags=||||8307.81|Price|product|||TS|rsf:gd-|-stype:attr=1|qr_nm:gd|res:RC4|com-cf:nl|ptrs:na|ktp:N0|mc:184603|mtp:S|qry_typ:P|lang:en|wc:3|cs:8887|v=4,False,Kharabwadi,Pune,"Plot No. 5, Gat No. 357/95 Waghjai Nagar, Kharabwadi, Chakan, Khed, Kharabwadi, Pune - 410501, Dist.Pune, Maharashtra",8046042766,
Pull Ups Adult Diaper Pants,https://www.indiamart.com/proddetail/adult-diaper-pants-2851643658830.html?pos=125&kwd=adult diaper pant&tags=||||8237.554|Price|product|||MDC|rsf:gd-|-stype:attr=1|qr_nm:gd|res:RC4|com-cf:nl|ptrs:na|ktp:N0|mc:184603|mtp:S|qry_typ:P|lang:en|wc:3|cs:8887|v=4,Stoe Life Private Limited,https://www.indiamart.com/stoelife-gujarat/?pos=125&kwd=adult diaper pant&tags=||||8237.554|Price|product|||MDC|rsf:gd-|-stype:attr=1|qr_nm:gd|res:RC4|com-cf:nl|ptrs:na|ktp:N0|mc:184603|mtp:S|qry_typ:P|lang:en|wc:3|cs:8887|v=4,False,Sector 6,Gandhinagar,"Unit C/5,Gujarat Garment Co-operative Industrial Estate, Airport Road,Koba, Sector 6, Gandhinagar - 382006, Gujarat",8048979339,
"Pull Ups B Fit Adult Diaper Pants, Size: Large",https://www.indiamart.com/proddetail/b-fit-adult-diaper-pants-25691099248.html?pos=126&kwd=adult diaper pant&tags=||||8512.602|Price|product|||MDC|rsf:gd-|-stype:attr=1|qr_nm:gd|res:RC4|com-cf:nl|ptrs:na|ktp:N0|mc:184603|mtp:S|qry_typ:P|lang:en|wc:3|cs:8887|v=4,Sarayu Pharmaceutical Distributors,https://www.indiamart.com/sarayupharmaceuticaldistributors/?pos=126&kwd=adult diaper pant&tags=||||8512.602|Price|product|||MDC|rsf:gd-|-stype:attr=1|qr_nm:gd|res:RC4|com-cf:nl|ptrs:na|ktp:N0|mc:184603|mtp:S|qry_typ:P|lang:en|wc:3|cs:8887|v=4,False,,Thrippunithura,"41/388, Saryu, Nadam Village, Kanaynur Thaluk, Thrippunithura - 682301, Dist.Ernakulam, Kerala",8047651384,
XL Size Absorbia Pant Style Adult Diaper,https://www.indiamart.com/proddetail/xl-size-absorbia-pant-style-adult-diaper-2850677469791.html?pos=127&kwd=adult diaper pant&tags=CC||||8211.142|Price|product|||MDC|rsf:gd-|-stype:attr=1|qr_nm:gd|res:RC4|com-cf:nl|ptrs:na|ktp:N0|mc:184603|mtp:S|qry_typ:P|lang:en|wc:3|cs:8887|v=4,H M H Corporation,https://www.indiamart.com/hmhcorporation/?pos=127&kwd=adult diaper pant&tags=CC||||8211.142|Price|product|||MDC|rsf:gd-|-stype:attr=1|qr_nm:gd|res:RC4|com-cf:nl|ptrs:na|ktp:N0|mc:184603|mtp:S|qry_typ:P|lang:en|wc:3|cs:8887|v=4,False,Grant Road,Mumbai,"3B/ Plot No-3, Ground Floor, LNH Orphanage Compound, KM Munshi Marg, Babulnath Temple, Grant Road, Grant Road, Mumbai - 400007, Dist.Mumbai, Maharashtra",7942959739,
Adult Diaper Pants,https://www.indiamart.com/proddetail/adult-diaper-pants-24903019673.html?pos=128&kwd=adult diaper pant&tags=CC||||8588.208|Price|product|||MDC|rsf:gd-|-stype:attr=1|qr_nm:gd|res:RC4|com-cf:nl|ptrs:na|ktp:N0|mc:184603|mtp:S|qry_typ:P|lang:en|wc:3|cs:8887|v=4,Aarohi Distributors,https://www.indiamart.com/aarohidistributors/?pos=128&kwd=adult diaper pant&tags=CC||||8588.208|Price|product|||MDC|rsf:gd-|-stype:attr=1|qr_nm:gd|res:RC4|com-cf:nl|ptrs:na|ktp:N0|mc:184603|mtp:S|qry_typ:P|lang:en|wc:3|cs:8887|v=4,False,Borkheda,Kota,"Plot No. 14, Near Durga Mata Mandir, Bajrang Nagar, Main Road, Borkheda, Kota - 324002, Rajasthan",8048273399,
"Adult Diaper Pants, Size: Medium",https://www.indiamart.com/proddetail/adult-diaper-pants-2854691316573.html?pos=129&kwd=adult diaper pant&tags=CC||||8752.144|Price|product|||MDC|rsf:gd-|-stype:attr=1|qr_nm:gd|res:RC4|com-cf:nl|ptrs:na|ktp:N0|mc:184603|mtp:S|qry_typ:P|lang:en|wc:3|cs:8887|v=4,Yourecom,https://www.indiamart.com/yourecom/?pos=129&kwd=adult diaper pant&tags=CC||||8752.144|Price|product|||MDC|rsf:gd-|-stype:attr=1|qr_nm:gd|res:RC4|com-cf:nl|ptrs:na|ktp:N0|mc:184603|mtp:S|qry_typ:P|lang:en|wc:3|cs:8887|v=4,False,,New Delhi,"27 Block R3/B, Rathour Bhawan, Sanatan Shiv Mandir Gali, Bliss Institute, Mohan Garden West Delhi, New Delhi - 110059, Dist.Delhi, Delhi",7949341870,
"Hospi Fit Adult Diaper Pants, Large",https://www.indiamart.com/proddetail/hospi-fit-adult-diaper-pants-2854552320697.html?pos=130&kwd=adult diaper pant&tags=CC||||8556.86|Price|product|||MDC|rsf:gd-|-stype:attr=1|qr_nm:gd|res:RC4|com-cf:nl|ptrs:na|ktp:N0|mc:184603|mtp:S|qry_typ:P|lang:en|wc:3|cs:8887|v=4,Kridha Enterprises,https://www.indiamart.com/kridha-enterprises-ujjain/?pos=130&kwd=adult diaper pant&tags=CC||||8556.86|Price|product|||MDC|rsf:gd-|-stype:attr=1|qr_nm:gd|res:RC4|com-cf:nl|ptrs:na|ktp:N0|mc:184603|mtp:S|qry_typ:P|lang:en|wc:3|cs:8887|v=4,False,,Ujjain,"Office No. 310, 27/1 Navkar Complex, Teen Batti Square, Ujjain - 456010, Dist.Ujjain, Madhya Pradesh",7949325614,
Kare In Adult Diapers Pants,,Danish Sales,https://www.indiamart.com/danishsales/?pos=131&kwd=adult diaper pant&tags=||||8876.815|Price|product|||MDC|rsf:gd-|-stype:attr=1|qr_nm:gd|res:RC4|com-cf:nl|ptrs:na|ktp:N0|mc:184603|mtp:S|qry_typ:P|lang:en|wc:3|cs:8887|v=4,False,,Nagpur,"Near Gurunank Copy Bhandar, House No. 108/a, Muktai Niwas, Old Bhandara Road, Ganjakhet Chowk, Nagpur - 440002, Dist.Nagpur, Maharashtra",8045735518,
B-Fit Adult Diaper Pants large,https://www.indiamart.com/proddetail/b-fit-adult-diaper-pants-large-27164641155.html?pos=132&kwd=adult diaper pant&tags=CC||||8507.67|Price|product|||MDC|rsf:gd-|-stype:attr=1|qr_nm:gd|res:RC4|com-cf:nl|ptrs:na|ktp:N0|mc:184603|mtp:S|qry_typ:P|lang:en|wc:3|cs:8887|v=4,Roys Surgicals,https://www.indiamart.com/royssurgicals/?pos=132&kwd=adult diaper pant&tags=CC||||8507.67|Price|product|||MDC|rsf:gd-|-stype:attr=1|qr_nm:gd|res:RC4|com-cf:nl|ptrs:na|ktp:N0|mc:184603|mtp:S|qry_typ:P|lang:en|wc:3|cs:8887|v=4,False,Thrippunithura,Ernakulam,"11/ 305A, Thekkinethu, Sea Port Airport Road Irimpanam, Thrippunithura, Ernakulam - 682309, Dist.Ernakulam, Kerala",8047630278,
Liberty L 20 Adult Diaper Pants,https://www.indiamart.com/proddetail/liberty-l-20-adult-diaper-pants-2852864726233.html?pos=133&kwd=adult diaper pant&tags=CC||||8741.812|Price|product|||MDC|rsf:gd-|-stype:attr=1|qr_nm:gd|res:RC4|com-cf:nl|ptrs:na|ktp:N0|mc:184603|mtp:S|qry_typ:P|lang:en|wc:3|cs:8887|v=4,Mahak Enterprises,https://www.indiamart.com/mahak-enterprises-gurugram/?pos=133&kwd=adult diaper pant&tags=CC||||8741.812|Price|product|||MDC|rsf:gd-|-stype:attr=1|qr_nm:gd|res:RC4|com-cf:nl|ptrs:na|ktp:N0|mc:184603|mtp:S|qry_typ:P|lang:en|wc:3|cs:8887|v=4,False,Sector 9,Gurugram,"27, Gali number 1, Shiv Enclave Ghamroj , Mahendwara, Sector 9, Gurugram - 122102, Dist.Gurgaon, Haryana",7942967507,
Karemed Medium Adult Diaper Pants,https://www.indiamart.com/proddetail/karemed-medium-adult-diaper-pants-2854259127912.html?pos=134&kwd=adult diaper pant&tags=CC||||8706.587|Price|product|||MDC|rsf:gd-|-stype:attr=1|qr_nm:gd|res:RC4|com-cf:nl|ptrs:na|ktp:N0|mc:184603|mtp:S|qry_typ:P|lang:en|wc:3|cs:8887|v=4,Bawaa Medicals,https://www.indiamart.com/bawaa-medicals-madurai/?pos=134&kwd=adult diaper pant&tags=CC||||8706.587|Price|product|||MDC|rsf:gd-|-stype:attr=1|qr_nm:gd|res:RC4|com-cf:nl|ptrs:na|ktp:N0|mc:184603|mtp:S|qry_typ:P|lang:en|wc:3|cs:8887|v=4,False,,Madurai,"24 25, American College Complex, Goripalayam, Madurai - 625002, Dist.Madurai, Tamil Nadu",8047850991,
B Fit Economy Adult Diaper Pants,https://www.indiamart.com/proddetail/b-fit-economy-adult-diaper-pants-23107996433.html?pos=135&kwd=adult diaper pant&tags=CC||||8601.347|Price|product|||MDC|rsf:gd-|-stype:attr=1|qr_nm:gd|res:RC4|com-cf:nl|ptrs:na|ktp:N0|mc:184603|mtp:S|qry_typ:P|lang:en|wc:3|cs:8887|v=4,Sony Medicals,https://www.indiamart.com/sonymedicals-jaipur/?pos=135&kwd=adult diaper pant&tags=CC||||8601.347|Price|product|||MDC|rsf:gd-|-stype:attr=1|qr_nm:gd|res:RC4|com-cf:nl|ptrs:na|ktp:N0|mc:184603|mtp:S|qry_typ:P|lang:en|wc:3|cs:8887|v=4,False,Nehru Bazar,Jaipur,"First Floor, Deewan Ji Ki Nasiya, Opp S.M.S. Hospital, Nehru Bazar, Jaipur - 302001, Dist.Jaipur, Rajasthan",8046030975,
Pant Type MKT Care Adult Diaper Pants / Pull-Ups : Ex Large,https://www.indiamart.com/proddetail/mkt-care-adult-diaper-pants-pull-ups-ex-large-24805300962.html?pos=136&kwd=adult diaper pant&tags=||||8307.81|Price|product|||MDC|rsf:gd-|-stype:attr=1|qr_nm:gd|res:RC4|com-cf:nl|ptrs:na|ktp:N0|mc:184603|mtp:S|qry_typ:P|lang:en|wc:3|cs:8887|v=4,Tarmal Healthcare And Surgical,https://www.indiamart.com/tarmal-healthcaresurgical/?pos=136&kwd=adult diaper pant&tags=||||8307.81|Price|product|||MDC|rsf:gd-|-stype:attr=1|qr_nm:gd|res:RC4|com-cf:nl|ptrs:na|ktp:N0|mc:184603|mtp:S|qry_typ:P|lang:en|wc:3|cs:8887|v=4,False,Wanowrie,Pune,"Shop No. 9, Picasso Kedari Arcade, Kedari Nagar, Wanwadi, Wanowrie, Pune - 411048, Dist.Pune, Maharashtra",8047639015,
"Pant Type MUMBAIMEDS Adult Pull Ups Premium 20pcs Size:-Large(30-39 inches), Small",https://www.indiamart.com/proddetail/mumbaimeds-adult-pull-ups-premium-20pcs-size-large-30-39-inches-2849860081497.html?pos=137&kwd=adult diaper pant&tags=CC||||8211.142|Price|product|||MDC|rsf:gd-|-stype:attr=1|qr_nm:gd|res:RC4|com-cf:nl|ptrs:na|ktp:N0|mc:184603|mtp:S|qry_typ:P|lang:en|wc:3|cs:8887|v=4,Surya Krupa Medicare,https://www.indiamart.com/suryakrupa-medicare/?pos=137&kwd=adult diaper pant&tags=CC||||8211.142|Price|product|||MDC|rsf:gd-|-stype:attr=1|qr_nm:gd|res:RC4|com-cf:nl|ptrs:na|ktp:N0|mc:184603|mtp:S|qry_typ:P|lang:en|wc:3|cs:8887|v=4,False,Sion,Mumbai,"Shop No. 4B, Plot No. 271, Kamaldeep CHS Sulachana Sethi Marg, Sion West, Sion, Mumbai - 400022, Dist.Mumbai, Maharashtra",8048963580,
Lifree XL Extra Absorbs Pants,https://www.indiamart.com/proddetail/lifree-xl-extra-absorbs-pants-2852703069148.html?pos=138&kwd=adult diaper pant&tags=CC||||8230.883|Price|product|||MDC|rsf:gd-|-stype:attr=1|qr_nm:gd|res:RC4|com-cf:nl|ptrs:na|ktp:N0|mc:184603|mtp:S|qry_typ:P|lang:en|wc:3|cs:8887|v=4,Oceanic Supplier,https://www.indiamart.com/oceanicsupplier/?pos=138&kwd=adult diaper pant&tags=CC||||8230.883|Price|product|||MDC|rsf:gd-|-stype:attr=1|qr_nm:gd|res:RC4|com-cf:nl|ptrs:na|ktp:N0|mc:184603|mtp:S|qry_typ:P|lang:en|wc:3|cs:8887|v=4,False,Varachha,Surat,"Plot No-136, Ashopalav Bunglows, Rangoli Chowadi Road, Abrama Velanja Road, Kamrej, Velanja, Varachha, Surat - 394150, Dist.Surat, Gujarat",7942720766,
Loose packet 10 To 12 Hours Adult Diapers Pull Ups Pant Style( A grade),https://www.indiamart.com/proddetail/adult-diapers-pull-ups-pant-style-a-grade-22671127055.html?pos=139&kwd=adult diaper pant&tags=||||8211.142||product|||TS|rsf:gd-|-stype:attr=1|qr_nm:gd|res:RC4|com-cf:nl|ptrs:na|ktp:N0|mc:184603|mtp:S|qry_typ:P|lang:en|wc:3|cs:8887|v=4,Khanna Enterprise,https://www.indiamart.com/khannaentps-mumbai/?pos=139&kwd=adult diaper pant&tags=||||8211.142||product|||TS|rsf:gd-|-stype:attr=1|qr_nm:gd|res:RC4|com-cf:nl|ptrs:na|ktp:N0|mc:184603|mtp:S|qry_typ:P|lang:en|wc:3|cs:8887|v=4,False,Chembur,Mumbai,"A-8, Gurukrupa Terrace, RC Marg, Chembur East, Chembur, Mumbai - 400071, Dist.Mumbai, Maharashtra",8046039664,
"Plain Adult Pull Up Diaper Pants, Size: Large",https://www.indiamart.com/proddetail/adult-pull-up-diaper-pants-2854196105812.html?pos=140&kwd=adult diaper pant&tags=||||9110.092|Price|product|||MDC|rsf:gd-|-stype:attr=1|qr_nm:gd|res:RC4|com-cf:nl|ptrs:na|ktp:N0|mc:184603|mtp:S|qry_typ:P|lang:en|wc:3|cs:8887|v=4,Beyond Basics,https://www.indiamart.com/beyondbasics/?pos=140&kwd=adult diaper pant&tags=||||9110.092|Price|product|||MDC|rsf:gd-|-stype:attr=1|qr_nm:gd|res:RC4|com-cf:nl|ptrs:na|ktp:N0|mc:184603|mtp:S|qry_typ:P|lang:en|wc:3|cs:8887|v=4,False,Husainabad,Lucknow,"458/127 Shivpuri, Murg Khana Husainabad, Husainabad, Lucknow - 226003, Dist.Lucknow, Uttar Pradesh",8044562757,
Adult Diaper Pants,,Eskay Surgicals & Pharmacuticals,https://www.eskaysurgicals.com/?pos=141&kwd=adult diaper pant&tags=||||8786.56|Price|product|||TS|rsf:gd-|-stype:attr=1|qr_nm:gd|res:RC4|com-cf:nl|ptrs:na|ktp:N0|mc:184603|mtp:S|qry_typ:P|lang:en|wc:3|cs:8887|v=4,False,Jam Bagh,Hyderabad,"Ground Floor, 4-5-178/C, Sri Salasar Dham, Hasmath Gunj, Sultan Bazar,, Jam Bagh, Hyderabad - 500095, Dist.Hyderabad, Telangana",7942553848,
"B Fit Adult Diapers, Medium",https://www.indiamart.com/proddetail/adult-diaper-pants-2854544166873.html?pos=142&kwd=adult diaper pant&tags=CC||||8584.299|Price|product|||MDC|rsf:gd-|-stype:attr=1|qr_nm:gd|res:RC4|com-cf:nl|ptrs:na|ktp:N0|mc:184603|mtp:S|qry_typ:P|lang:en|wc:3|cs:8887|v=4,Thai Surgical,https://www.indiamart.com/thai-surgical/?pos=142&kwd=adult diaper pant&tags=CC||||8584.299|Price|product|||MDC|rsf:gd-|-stype:attr=1|qr_nm:gd|res:RC4|com-cf:nl|ptrs:na|ktp:N0|mc:184603|mtp:S|qry_typ:P|lang:en|wc:3|cs:8887|v=4,False,Ramanathapuram,Coimbatore,"215, Ramanathapuram, Angannan Saite, Ramanathapuram, Coimbatore - 641045, Dist.Coimbatore, Tamil Nadu",8045738113,
Elderly Briefs Adult Diaper,https://www.indiamart.com/proddetail/adult-diaper-pants-2852512417562.html?pos=143&kwd=adult diaper pant&tags=CC||||9301.656|Price|product|||MDC|rsf:gd-|-stype:attr=1|qr_nm:gd|res:RC4|com-cf:nl|ptrs:na|ktp:N0|mc:184603|mtp:S|qry_typ:P|lang:en|wc:3|cs:8887|v=4,Gifnery Medi Health Solution,https://www.indiamart.com/gifnerymedi-healthsolution/?pos=143&kwd=adult diaper pant&tags=CC||||9301.656|Price|product|||MDC|rsf:gd-|-stype:attr=1|qr_nm:gd|res:RC4|com-cf:nl|ptrs:na|ktp:N0|mc:184603|mtp:S|qry_typ:P|lang:en|wc:3|cs:8887|v=4,False,Sarnath,Varanasi,"ARAJI NO-87/1,SANJAY NAGAR COLONY,RAMREPUR SARNATH,VARANASI, Sarnath, Varanasi - 221007, Dist.Varanasi, Uttar Pradesh",8047525031,
"Adult Diaper Pants, Size: XL",https://www.indiamart.com/proddetail/adult-diaper-pants-2854577592748.html?pos=144&kwd=adult diaper pant&tags=CC||||8228.275||product|||MDC|rsf:gd-|-stype:attr=1|qr_nm:gd|res:RC4|com-cf:nl|ptrs:na|ktp:N0|mc:184603|mtp:S|qry_typ:P|lang:en|wc:3|cs:8887|v=4,Christ Care Surgicals,https://www.indiamart.com/christcaresurgicals/?pos=144&kwd=adult diaper pant&tags=CC||||8228.275||product|||MDC|rsf:gd-|-stype:attr=1|qr_nm:gd|res:RC4|com-cf:nl|ptrs:na|ktp:N0|mc:184603|mtp:S|qry_typ:P|lang:en|wc:3|cs:8887|v=4,False,,Ahmedabad,"First Floor, Shop No 1, Vinayak Complex, Station Road, Vardayni Dairy Product, Bareja,, Ahmedabad - 382425, Dist.Ahmedabad, Gujarat",8044564421,
Adult Diaper Pant,https://www.indiamart.com/proddetail/adult-diaper-pant-2851086759197.html?pos=145&kwd=adult diaper pant&tags=||||8813.969||product|||TS|rsf:gd-|-stype:attr=1|qr_nm:gd|res:RC4|com-cf:nl|ptrs:na|ktp:N0|mc:184603|mtp:S|qry_typ:P|lang:en|wc:3|cs:8887|v=4,Pearsons Healthcare Products,https://www.indiamart.com/pearsonshealthcareproducts/?pos=145&kwd=adult diaper pant&tags=||||8813.969||product|||TS|rsf:gd-|-stype:attr=1|qr_nm:gd|res:RC4|com-cf:nl|ptrs:na|ktp:N0|mc:184603|mtp:S|qry_typ:P|lang:en|wc:3|cs:8887|v=4,False,Kalyan Nagar,Meerut,"1st Floor, 5A, Garh Road Murari Puram, Kalyan Nagar, Meerut - 250002, Dist.Meerut, Uttar Pradesh",8047696443,
Pull Ups Adult Diaper Pant,https://www.indiamart.com/proddetail/adult-diaper-pant-2849318916862.html?pos=146&kwd=adult diaper pant&tags=||||8741.812|Price|product|||TS|rsf:gd-|-stype:attr=1|qr_nm:gd|res:RC4|com-cf:nl|ptrs:na|ktp:N0|mc:184603|mtp:S|qry_typ:P|lang:en|wc:3|cs:8887|v=4,Arrow Enterprises,https://www.arrowhomes.in/?pos=146&kwd=adult diaper pant&tags=||||8741.812|Price|product|||TS|rsf:gd-|-stype:attr=1|qr_nm:gd|res:RC4|com-cf:nl|ptrs:na|ktp:N0|mc:184603|mtp:S|qry_typ:P|lang:en|wc:3|cs:8887|v=4,False,Sector 37,Gurgaon,"Opposite Factory No. 761, Plot No. 8, Sector 37, Pace City 2, Sector 37, Gurgaon - 122001, Dist.Gurgaon, Haryana",7942564985,
Pull Ups Adult Diaper Pant,https://www.indiamart.com/proddetail/adult-diaper-pant-3730649373.html?pos=147&kwd=adult diaper pant&tags=||||8223.226||product|||TS|rsf:gd-|-stype:attr=1|qr_nm:gd|res:RC4|com-cf:nl|ptrs:na|ktp:N0|mc:184603|mtp:S|qry_typ:P|lang:en|wc:3|cs:8887|v=4,Amkay Products Private Limited,https://www.amkayproducts.net/?pos=147&kwd=adult diaper pant&tags=||||8223.226||product|||TS|rsf:gd-|-stype:attr=1|qr_nm:gd|res:RC4|com-cf:nl|ptrs:na|ktp:N0|mc:184603|mtp:S|qry_typ:P|lang:en|wc:3|cs:8887|v=4,False,Gokhiware,Thane,"Amkay Enclave, 68, Rashmi Park Bungalow Dhumal Nagar, Waliv Road, Vasai East, Gokhiware, Thane - 401208, Dist.Thane, Maharashtra",8048969241,
"Pull Ups Disposable Adult Diaper Pant, Size: Xl",https://www.indiamart.com/proddetail/disposable-adult-diaper-pant-25299525897.html?pos=148&kwd=adult diaper pant&tags=||||8752.144|Price|product|||TS|rsf:gd-|-stype:attr=1|qr_nm:gd|res:RC4|com-cf:nl|ptrs:na|ktp:N0|mc:184603|mtp:S|qry_typ:P|lang:en|wc:3|cs:8887|v=4,Manzen Healthcare Private Limited,https://www.manzenhealthcare.com/?pos=148&kwd=adult diaper pant&tags=||||8752.144|Price|product|||TS|rsf:gd-|-stype:attr=1|qr_nm:gd|res:RC4|com-cf:nl|ptrs:na|ktp:N0|mc:184603|mtp:S|qry_typ:P|lang:en|wc:3|cs:8887|v=4,False,Nehru Place,New Delhi,"606,CHIRANJIV TOWER,43,NEHRU PLACE, Nehru Place, New Delhi - 110019, Dist.Delhi, Delhi",8048266791,
"Used By Adults Protective Underwear Smart Care Adult Diaper Pant, Packaging Size: 11 Pieces, Size: M-11",https://www.indiamart.com/proddetail/smart-care-adult-diaper-pant-27216462230.html?pos=149&kwd=adult diaper pant&tags=||||8559.269|Price|product|||TS|rsf:gd-|-stype:attr=1|qr_nm:gd|res:RC4|com-cf:nl|ptrs:na|ktp:N0|mc:184603|mtp:S|qry_typ:P|lang:en|wc:3|cs:8887|v=4,HZ Enterprises,https://www.indiamart.com/hz-enterprises-madhyapradesh/?pos=149&kwd=adult diaper pant&tags=||||8559.269|Price|product|||TS|rsf:gd-|-stype:attr=1|qr_nm:gd|res:RC4|com-cf:nl|ptrs:na|ktp:N0|mc:184603|mtp:S|qry_typ:P|lang:en|wc:3|cs:8887|v=4,False,Sudama Nagar,Indore,"2, Manikbag Road, Sudama Nagar, Indore - 452009, Dist.Indore, Madhya Pradesh",7942791847,
"40 To 50 Years Diapers Friends Premium Adult Dry Pants, Size: Large, 10 Pieces",https://www.indiamart.com/proddetail/friends-premium-adult-dry-pants-25476077488.html?pos=150&kwd=adult diaper pant&tags=||||8584.299|Price|product|||TS|rsf:gd-|-stype:attr=1|qr_nm:gd|res:RC4|com-cf:nl|ptrs:na|ktp:N0|mc:184603|mtp:S|qry_typ:P|lang:en|wc:3|cs:8887|v=4,Sri Gokulam Surgicals,https://www.indiamart.com/sri-gokulam-surgicals/?pos=150&kwd=adult diaper pant&tags=||||8584.299|Price|product|||TS|rsf:gd-|-stype:attr=1|qr_nm:gd|res:RC4|com-cf:nl|ptrs:na|ktp:N0|mc:184603|mtp:S|qry_typ:P|lang:en|wc:3|cs:8887|v=4,False,Central Bus Stand,Coimbatore,"205, Sastry Road, Central Bus Stand, Coimbatore - 641009, Dist.Coimbatore, Tamil Nadu",7942823895,
Adult Diaper Pants,https://www.indiamart.com/proddetail/adult-diaper-pants-2853234188088.html?pos=151&kwd=adult diaper pant&tags=||||10180.86|Price|product|||TS|rsf:gd-|-stype:attr=1|qr_nm:gd|res:RC4|com-cf:nl|ptrs:na|ktp:N0|mc:184603|mtp:S|qry_typ:P|lang:en|wc:3|cs:8887|v=4,Bina E Medicare LLP,https://www.indiamart.com/bina-e-medicare/?pos=151&kwd=adult diaper pant&tags=||||10180.86|Price|product|||TS|rsf:gd-|-stype:attr=1|qr_nm:gd|res:RC4|com-cf:nl|ptrs:na|ktp:N0|mc:184603|mtp:S|qry_typ:P|lang:en|wc:3|cs:8887|v=4,False,Bormotoria,Guwahati,"2nd Floor C/o Dhruba Jyoti Das Gmch Road Harabala Market Bhangagarh, GMCH Road, Bormotoria, Guwahati - 781006, Dist.Kamrup, Assam",7942721010,
Adult Diaper Pants,https://www.indiamart.com/proddetail/adult-diaper-pants-2853152866462.html?pos=152&kwd=adult diaper pant&tags=||||8038.093||product|||TS|rsf:gd-|-stype:attr=1|qr_nm:gd|res:RC4|com-cf:nl|ptrs:na|ktp:N0|mc:184603|mtp:S|qry_typ:P|lang:en|wc:3|cs:8887|v=4,Apple Pharma,https://www.indiamart.com/applepharma/?pos=152&kwd=adult diaper pant&tags=||||8038.093||product|||TS|rsf:gd-|-stype:attr=1|qr_nm:gd|res:RC4|com-cf:nl|ptrs:na|ktp:N0|mc:184603|mtp:S|qry_typ:P|lang:en|wc:3|cs:8887|v=4,False,Darashan Park,Rajkot,"1, UNIQUE SHOPPING CENTER,GROUND FLOOR, Near Astron Sardarnagar Main Road, Everest Complexes, Darashan Park, Rajkot - 360005, Dist.Rajkot, Gujarat",8047647421,
"Soft & Secure Pant Style Adult Diapers M Size, Size: Medium",https://www.indiamart.com/proddetail/soft-secure-pant-style-adult-diapers-m-size-2852854599248.html?pos=153&kwd=adult diaper pant&tags=||||8230.883|Price|product|||TS|rsf:gd-|-stype:attr=1|qr_nm:gd|res:RC4|com-cf:nl|ptrs:na|ktp:N0|mc:184603|mtp:S|qry_typ:P|lang:en|wc:3|cs:8887|v=4,VR Hygiene Care,https://www.indiamart.com/vrhygienecare/?pos=153&kwd=adult diaper pant&tags=||||8230.883|Price|product|||TS|rsf:gd-|-stype:attr=1|qr_nm:gd|res:RC4|com-cf:nl|ptrs:na|ktp:N0|mc:184603|mtp:S|qry_typ:P|lang:en|wc:3|cs:8887|v=4,False,Saniya Hemad,Surat,"A-12, Subham Ind.-1, Saniya Hemad, Saniya Hemad, Surat - 395006, Dist.Surat, Gujarat",8048969848,
"Pull Ups B Fit Adult Diaper Pants, Size: Medium",https://www.indiamart.com/proddetail/b-fit-adult-diaper-pants-2854043658662.html?pos=154&kwd=adult diaper pant&tags=||||9349.906||product|||TS|rsf:gd-|-stype:attr=1|qr_nm:gd|res:RC4|com-cf:nl|ptrs:na|ktp:N0|mc:184603|mtp:S|qry_typ:P|lang:en|wc:3|cs:8887|v=4,Tulsyan Healthcare Private Limited,https://www.indiamart.com/tulsyan-heathcare/?pos=154&kwd=adult diaper pant&tags=||||9349.906||product|||TS|rsf:gd-|-stype:attr=1|qr_nm:gd|res:RC4|com-cf:nl|ptrs:na|ktp:N0|mc:184603|mtp:S|qry_typ:P|lang:en|wc:3|cs:8887|v=4,False,Golghar,Gorakhpur,"Shop 10, Bheem Complex, Bhalotiya Market, Golghar Gorakhpur, Golghar, Gorakhpur - 273001, Dist.Gorakhpur, Uttar Pradesh",8046060954,
CIR Adult Diaper Pant,https://www.indiamart.com/proddetail/cir-adult-diaper-pant-2853189790133.html?pos=155&kwd=adult diaper pant&tags=||||9829.308|Price|product|||MDC|rsf:gd-|-stype:attr=1|qr_nm:gd|res:RC4|com-cf:nl|ptrs:na|ktp:N0|mc:184603|mtp:S|qry_typ:P|lang:en|wc:3|cs:8887|v=4,Medisurge Enterprise,https://www.indiamart.com/medisurge-enterprise/?pos=155&kwd=adult diaper pant&tags=||||9829.308|Price|product|||MDC|rsf:gd-|-stype:attr=1|qr_nm:gd|res:RC4|com-cf:nl|ptrs:na|ktp:N0|mc:184603|mtp:S|qry_typ:P|lang:en|wc:3|cs:8887|v=4,False,Kadamtala,Howrah,"17/1, Ramkalpa Khan Lane, Kadamtala, Kadamtala, Howrah - 711101, Dist.Howrah, West Bengal",7949220773,
Disposable Adult Diaper Pant,https://www.indiamart.com/proddetail/disposable-adult-diaper-pant-2854871472712.html?pos=156&kwd=adult diaper pant&tags=||||9578.697|Price|product|||MDC|rsf:gd-|-stype:attr=1|qr_nm:gd|res:RC4|com-cf:nl|ptrs:na|ktp:N0|mc:184603|mtp:S|qry_typ:P|lang:en|wc:3|cs:8887|v=4,Mahalaxmi Enterprises,https://www.indiamart.com/mahalaxmienterprises-odisha/?pos=156&kwd=adult diaper pant&tags=||||9578.697|Price|product|||MDC|rsf:gd-|-stype:attr=1|qr_nm:gd|res:RC4|com-cf:nl|ptrs:na|ktp:N0|mc:184603|mtp:S|qry_typ:P|lang:en|wc:3|cs:8887|v=4,False,Industrial Estate Khapuria,Cuttack,"Ground Floor Khata No-614/953, Plot No-2447/2267, Nuapada, Balisahi, Bali Sahi, Industrial Estate Khapuria, Cuttack - 753013, Dist.Cuttack, Odisha",7942964397,
Adult Diaper Pants,https://www.indiamart.com/proddetail/adult-diaper-pants-2853918272548.html?pos=157&kwd=adult diaper pant&tags=||||9301.656|Price|product|||MDC|rsf:gd-|-stype:attr=1|qr_nm:gd|res:RC4|com-cf:nl|ptrs:na|ktp:N0|mc:184603|mtp:S|qry_typ:P|lang:en|wc:3|cs:8887|v=4,Shashwat Enterprises,https://www.indiamart.com/shashwat-enterprises-varanasi/?pos=157&kwd=adult diaper pant&tags=||||9301.656|Price|product|||MDC|rsf:gd-|-stype:attr=1|qr_nm:gd|res:RC4|com-cf:nl|ptrs:na|ktp:N0|mc:184603|mtp:S|qry_typ:P|lang:en|wc:3|cs:8887|v=4,False,Mahmoorganj,Varanasi,"Shop No 11, Beriwala Market, Luxa Road, Mahmoorganj, Varanasi - 221001, Dist.Varanasi, Uttar Pradesh",7942533890,
Protective Underwear Kare In Adult Diapers Pants,https://www.indiamart.com/proddetail/kare-in-adult-diapers-pants-4933977473.html?pos=158&kwd=adult diaper pant&tags=||||8954.051|Price|product|||TS|rsf:gd-|-stype:attr=1|qr_nm:gd|res:RC4|com-cf:nl|ptrs:na|ktp:N0|mc:184603|mtp:S|qry_typ:P|lang:en|wc:3|cs:8887|v=4,Sunway Health Care,https://www.sunwayhealthcare.co.in/?pos=158&kwd=adult diaper pant&tags=||||8954.051|Price|product|||TS|rsf:gd-|-stype:attr=1|qr_nm:gd|res:RC4|com-cf:nl|ptrs:na|ktp:N0|mc:184603|mtp:S|qry_typ:P|lang:en|wc:3|cs:8887|v=4,False,Perungudi,Chennai,"No. 22, 1st Floor, Old Mahabalipuram Road Seevaram, Perungudi, Perungudi, Chennai - 600096, Dist.Chennai, Tamil Nadu",8047645995,
"Plain Adult Pull Up Diaper Pants OPTUS, Medium",https://www.indiamart.com/proddetail/adult-pull-up-diaper-pants-optus-2854519742297.html?pos=159&kwd=adult diaper pant&tags=||||8601.347|Price|product|||TS|rsf:gd-|-stype:attr=1|qr_nm:gd|res:RC4|com-cf:nl|ptrs:na|ktp:N0|mc:184603|mtp:S|qry_typ:P|lang:en|wc:3|cs:8887|v=4,Anuradha Enterprises,https://www.anuradhaenterprises.net/?pos=159&kwd=adult diaper pant&tags=||||8601.347|Price|product|||TS|rsf:gd-|-stype:attr=1|qr_nm:gd|res:RC4|com-cf:nl|ptrs:na|ktp:N0|mc:184603|mtp:S|qry_typ:P|lang:en|wc:3|cs:8887|v=4,True,Gopalpura,Jaipur,"150, Krishna Vihar, Gopalpura By Pass,, Gopalpura, Jaipur - 302015, Dist.Jaipur, Rajasthan",8045908792,
"Friends Premium Adult Diaper Pant, Size: Large",https://www.indiamart.com/proddetail/friends-premium-adult-diaper-pant-21855953448.html?pos=160&kwd=adult diaper pant&tags=||||8226.563|Price|product|||MDC|rsf:gd-|-stype:attr=1|qr_nm:gd|res:RC4|com-cf:nl|ptrs:na|ktp:N0|mc:184603|mtp:S|qry_typ:P|lang:en|wc:3|cs:8887|v=4,Mednox Life Science,https://www.indiamart.com/mednoxlifescience/?pos=160&kwd=adult diaper pant&tags=||||8226.563|Price|product|||MDC|rsf:gd-|-stype:attr=1|qr_nm:gd|res:RC4|com-cf:nl|ptrs:na|ktp:N0|mc:184603|mtp:S|qry_typ:P|lang:en|wc:3|cs:8887|v=4,False,Sanpada,Navi Mumbai,"Ground Floor, Shop No.2, Plot No.34 And 35 Sector 1 Himalay Chs Ltd Sanpada, Sanpada, Navi Mumbai - 400705, Dist.Thane, Maharashtra",8048975180,
Protective Underwear XL Bonecam Adult Diaper Pants,https://www.indiamart.com/proddetail/xl-bonecam-adult-diaper-pants-2853934655497.html?pos=161&kwd=adult diaper pant&tags=||||8231.259|Price|product|||MDC|rsf:gd-|-stype:attr=1|qr_nm:gd|res:RC4|com-cf:nl|ptrs:na|ktp:N0|mc:184603|mtp:S|qry_typ:P|lang:en|wc:3|cs:8887|v=4,Kaker Group,https://www.indiamart.com/kaker-group/?pos=161&kwd=adult diaper pant&tags=||||8231.259|Price|product|||MDC|rsf:gd-|-stype:attr=1|qr_nm:gd|res:RC4|com-cf:nl|ptrs:na|ktp:N0|mc:184603|mtp:S|qry_typ:P|lang:en|wc:3|cs:8887|v=4,False,Chavindra Naka,Bhiwandi,"Ghar No 1503/G-06 Tal Majla, Malasiya Sizing Kacheri Pada Nagaon-2,, Chavindra Naka, Bhiwandi - 421302, Maharashtra",8044561428,
Pull Ups Adult Diaper Extra Large -10pc Adult Choice,https://www.indiamart.com/proddetail/adult-diaper-extra-large-10pc-adult-choice-2851613387373.html?pos=162&kwd=adult diaper pant&tags=||||8211.142|Price|product|||TS|rsf:gd-|-stype:attr=1|qr_nm:gd|res:RC4|com-cf:nl|ptrs:na|ktp:N0|mc:184603|mtp:S|qry_typ:P|lang:en|wc:3|cs:8887|v=4,Maxtech Healthcare Private Limited,https://www.indiamart.com/maxtech-healthcare/?pos=162&kwd=adult diaper pant&tags=||||8211.142|Price|product|||TS|rsf:gd-|-stype:attr=1|qr_nm:gd|res:RC4|com-cf:nl|ptrs:na|ktp:N0|mc:184603|mtp:S|qry_typ:P|lang:en|wc:3|cs:8887|v=4,False,Kandivali West,Mumbai,"Shop No. 10, Near Railway Station, Malad East, Pragati Shopping Center, Kandivali West, Mumbai - 400097, Dist.Mumbai, Maharashtra",8046077581,
"Liberty Adult Diapers Pant, Medium",https://www.indiamart.com/proddetail/liberty-adult-diapers-pant-2854698061797.html?pos=163&kwd=adult diaper pant&tags=||||8211.142|Price|product|||MDC|rsf:gd-|-stype:attr=1|qr_nm:gd|res:RC4|com-cf:nl|ptrs:na|ktp:N0|mc:184603|mtp:S|qry_typ:P|lang:en|wc:3|cs:8887|v=4,Shree Shiv Samarth Medical Store/ Samarth Enterprises,https://www.indiamart.com/shreeshiv-samarth-medicalstore/?pos=163&kwd=adult diaper pant&tags=||||8211.142|Price|product|||MDC|rsf:gd-|-stype:attr=1|qr_nm:gd|res:RC4|com-cf:nl|ptrs:na|ktp:N0|mc:184603|mtp:S|qry_typ:P|lang:en|wc:3|cs:8887|v=4,False,,Mumbai,"Ground Floor, Shop No.09, Sanjoba CHSL, Gorai-2, Borivali West,, Mumbai - 400091, Dist.Mumbai, Maharashtra",7949325673,
Adults Protective Underwear Liberty Adult Diapers Pant,https://www.indiamart.com/proddetail/liberty-adult-diapers-pant-24503036648.html?pos=164&kwd=adult diaper pant&tags=||||8723.301|Price|product|||MDC|rsf:gd-|-stype:attr=1|qr_nm:gd|res:RC4|com-cf:nl|ptrs:na|ktp:N0|mc:184603|mtp:S|qry_typ:P|lang:en|wc:3|cs:8887|v=4,SRV Group,https://www.indiamart.com/srv-group-bhopal/?pos=164&kwd=adult diaper pant&tags=||||8723.301|Price|product|||MDC|rsf:gd-|-stype:attr=1|qr_nm:gd|res:RC4|com-cf:nl|ptrs:na|ktp:N0|mc:184603|mtp:S|qry_typ:P|lang:en|wc:3|cs:8887|v=4,False,Kolar Road,Bhopal,"Dk-2/243, Danish Kunj, Kolar Road,, Kolar Road, Bhopal - 462042, Dist.Bhopal, Madhya Pradesh",7942559830,
"M Lifree Adult Pant Diaper, Size: Medium",https://www.indiamart.com/proddetail/m-lifree-adult-pant-diaper-2853859074012.html?pos=165&kwd=adult diaper pant&tags=||||8228.275|Price|product|||MDC|rsf:gd-|-stype:attr=1|qr_nm:gd|res:RC4|com-cf:nl|ptrs:na|ktp:N0|mc:184603|mtp:S|qry_typ:P|lang:en|wc:3|cs:8887|v=4,Krishna Surgicals,https://www.indiamart.com/krishnasurgicalsahmedabad/?pos=165&kwd=adult diaper pant&tags=||||8228.275|Price|product|||MDC|rsf:gd-|-stype:attr=1|qr_nm:gd|res:RC4|com-cf:nl|ptrs:na|ktp:N0|mc:184603|mtp:S|qry_typ:P|lang:en|wc:3|cs:8887|v=4,False,Gheekanta,Ahmedabad,"Ground Floor, 25, Ratnamani Complex, Relief Road Nagar Sheth No Vando Beside M J Market Gheekanta, 20, Gheekanta, Ahmedabad - 380001, Dist.Ahmedabad, Gujarat",7949086523,
Adult Diapers Pant Style,https://www.indiamart.com/proddetail/adult-diapers-pant-style-2852795225488.html?pos=166&kwd=adult diaper pant&tags=||||8785.791|Price|product|||MDC|rsf:gd-|-stype:attr=1|qr_nm:gd|res:RC4|com-cf:nl|ptrs:na|ktp:N0|mc:184603|mtp:S|qry_typ:P|lang:en|wc:3|cs:8887|v=4,Rajput Enterprises,https://www.indiamart.com/rajputenterprises-uttarpradesh/?pos=166&kwd=adult diaper pant&tags=||||8785.791|Price|product|||MDC|rsf:gd-|-stype:attr=1|qr_nm:gd|res:RC4|com-cf:nl|ptrs:na|ktp:N0|mc:184603|mtp:S|qry_typ:P|lang:en|wc:3|cs:8887|v=4,False,Vaishali,Ghaziabad,"5/598, Vaishali, Ghaziabad, Vaishali, Ghaziabad - 201019, Dist.Ghaziabad, Uttar Pradesh",7942800806,
Adult Diaper Pants,https://www.indiamart.com/proddetail/adult-diaper-pants-2853141677212.html?pos=167&kwd=adult diaper pant&tags=||||9136.286|Price|product|||MDC|rsf:gd-|-stype:attr=1|qr_nm:gd|res:RC4|com-cf:nl|ptrs:na|ktp:N0|mc:184603|mtp:S|qry_typ:P|lang:en|wc:3|cs:8887|v=4,Bhaskara Enterprises,https://www.indiamart.com/bhaskaraenterprises/?pos=167&kwd=adult diaper pant&tags=||||9136.286|Price|product|||MDC|rsf:gd-|-stype:attr=1|qr_nm:gd|res:RC4|com-cf:nl|ptrs:na|ktp:N0|mc:184603|mtp:S|qry_typ:P|lang:en|wc:3|cs:8887|v=4,False,Alcot Gardens,Rajahmundry,"36-21-6/1a, Bhavana Hospital Street, Innespeta, Rajamahendravaram, Alcot Gardens, Rajahmundry - 533101, Dist.East Godavari, Andhra Pradesh",7942719811,
"L10 Friends Classic Adult Diapers Pant, Size: Large",https://www.indiamart.com/proddetail/l10-friends-classic-adult-diapers-pant-2854900901688.html?pos=168&kwd=adult diaper pant&tags=||||8707.773|Price|product|||MDC|rsf:gd-|-stype:attr=1|qr_nm:gd|res:RC4|com-cf:nl|ptrs:na|ktp:N0|mc:184603|mtp:S|qry_typ:P|lang:en|wc:3|cs:8887|v=4,AC SurgiPro,https://www.indiamart.com/acsurgipro/?pos=168&kwd=adult diaper pant&tags=||||8707.773|Price|product|||MDC|rsf:gd-|-stype:attr=1|qr_nm:gd|res:RC4|com-cf:nl|ptrs:na|ktp:N0|mc:184603|mtp:S|qry_typ:P|lang:en|wc:3|cs:8887|v=4,False,Leftinent Ravinder Chikkara Chowk Shiv Colony,Jhajjar,"Khewat No 4864 Khata No 4978 Deswal Plaza Market, Leftinent Ravinder Chikkara Chowk Shiv Colony, Jhajjar - 124103, Dist.Jhajjar, Haryana",7949331561,
"60 + Yrs Pull Ups CIR Adult Diaper Pants, Size: Medium",https://www.indiamart.com/proddetail/cir-adult-diaper-pants-2852702889255.html?pos=169&kwd=adult diaper pant&tags=||||8663.873|Price|product|||MDC|rsf:gd-|-stype:attr=1|qr_nm:gd|res:RC4|com-cf:nl|ptrs:na|ktp:N0|mc:184603|mtp:S|qry_typ:P|lang:en|wc:3|cs:8887|v=4,Asterales Lifesciences Private Limited,https://www.indiamart.com/asterales-lifesciences/?pos=169&kwd=adult diaper pant&tags=||||8663.873|Price|product|||MDC|rsf:gd-|-stype:attr=1|qr_nm:gd|res:RC4|com-cf:nl|ptrs:na|ktp:N0|mc:184603|mtp:S|qry_typ:P|lang:en|wc:3|cs:8887|v=4,False,J P Nagar,Bengaluru,"1st Floor No.120, Shop Number-01 9th Cross, 80 Feet Road J P Nagar 1st Phase, J P Nagar, Bengaluru - 560078, Dist.Bengaluru, Karnataka",7942716348,
"B Fit Adult Diaper Pants, Size: Medium",https://www.indiamart.com/proddetail/b-fit-adult-diaper-pants-2853995758491.html?pos=170&kwd=adult diaper pant&tags=||||9839.57|Price|product|||MDC|rsf:gd-|-stype:attr=1|qr_nm:gd|res:RC4|com-cf:nl|ptrs:na|ktp:N0|mc:184603|mtp:S|qry_typ:P|lang:en|wc:3|cs:8887|v=4,S.R Enterprise,https://www.indiamart.com/sr-enterprisewestbengal-kolkata/?pos=170&kwd=adult diaper pant&tags=||||9839.57|Price|product|||MDC|rsf:gd-|-stype:attr=1|qr_nm:gd|res:RC4|com-cf:nl|ptrs:na|ktp:N0|mc:184603|mtp:S|qry_typ:P|lang:en|wc:3|cs:8887|v=4,False,Belgharia,Kolkata,"3rd Floor 18 Sonar Bangla Belgharia North Twenty Four Parganas, Belgharia, Kolkata - 700056, Dist.Kolkata, West Bengal",8045165892,
"Cotton Pant Diapers Stoe Adult Diaper Pants, Size: Medium",https://www.indiamart.com/proddetail/stoe-adult-diaper-pants-26486258588.html?pos=171&kwd=adult diaper pant&tags=||||8228.275|Price|product|||MDC|rsf:gd-|-stype:attr=1|qr_nm:gd|res:RC4|com-cf:nl|ptrs:na|ktp:N0|mc:184603|mtp:S|qry_typ:P|lang:en|wc:3|cs:8887|v=4,Rumi Enterprises,https://www.indiamart.com/rumienterprises-ahmedabad/?pos=171&kwd=adult diaper pant&tags=||||8228.275|Price|product|||MDC|rsf:gd-|-stype:attr=1|qr_nm:gd|res:RC4|com-cf:nl|ptrs:na|ktp:N0|mc:184603|mtp:S|qry_typ:P|lang:en|wc:3|cs:8887|v=4,False,Maktampura,Ahmedabad,"GF-33, AL-MUQAAM, NR VISHALA CIRCLE JUHAPURA ROAD, Maktampura, Ahmedabad - 380055, Dist.Ahmedabad, Gujarat",8047531812,
Eldiapers Adult Diapers Pants,https://www.indiamart.com/proddetail/eldiapers-adult-diapers-pants-2854864728697.html?pos=172&kwd=adult diaper pant&tags=||||8071.104|Price|product|||MDC|rsf:gd-|-stype:attr=1|qr_nm:gd|res:RC4|com-cf:nl|ptrs:na|ktp:N0|mc:184603|mtp:S|qry_typ:P|lang:en|wc:3|cs:8887|v=4,Shama Stores,https://www.indiamart.com/shamastores-amreli/?pos=172&kwd=adult diaper pant&tags=||||8071.104|Price|product|||MDC|rsf:gd-|-stype:attr=1|qr_nm:gd|res:RC4|com-cf:nl|ptrs:na|ktp:N0|mc:184603|mtp:S|qry_typ:P|lang:en|wc:3|cs:8887|v=4,False,,Amreli,"India Market, Tower Road, Amreli - 365601, Dist.Amreli, Gujarat",7949328834,
"Kare Med Adult Diaper Pants, Age Group: 3to12 Months",https://www.indiamart.com/proddetail/kare-med-adult-diaper-pants-2854888794991.html?pos=173&kwd=adult diaper pant&tags=||||8663.873|Price|product|||MDC|rsf:gd-|-stype:attr=1|qr_nm:gd|res:RC4|com-cf:nl|ptrs:na|ktp:N0|mc:184603|mtp:S|qry_typ:P|lang:en|wc:3|cs:8887|v=4,Charith Pharma,https://www.indiamart.com/charith-pharma/?pos=173&kwd=adult diaper pant&tags=||||8663.873|Price|product|||MDC|rsf:gd-|-stype:attr=1|qr_nm:gd|res:RC4|com-cf:nl|ptrs:na|ktp:N0|mc:184603|mtp:S|qry_typ:P|lang:en|wc:3|cs:8887|v=4,False,,Bengaluru,"No.22/1, Rbl Layout, Jp Nagar, 7th Phase, Chunchagatta Main Road, Om Shivashakthi Temple Road Bengaluru Urban, Bengaluru - 560062, Dist.Bengaluru, Karnataka",8044458044,
"Friends Premium Adult Diaper Pants, Size: XL",https://www.indiamart.com/proddetail/friends-premium-adult-diaper-pants-2854766243648.html?pos=174&kwd=adult diaper pant&tags=||||8954.051|Price|product|||MDC|rsf:gd-|-stype:attr=1|qr_nm:gd|res:RC4|com-cf:nl|ptrs:na|ktp:N0|mc:184603|mtp:S|qry_typ:P|lang:en|wc:3|cs:8887|v=4,Asian Fathima H2O Medical,https://www.indiamart.com/asianfathima-h2omedical/?pos=174&kwd=adult diaper pant&tags=||||8954.051|Price|product|||MDC|rsf:gd-|-stype:attr=1|qr_nm:gd|res:RC4|com-cf:nl|ptrs:na|ktp:N0|mc:184603|mtp:S|qry_typ:P|lang:en|wc:3|cs:8887|v=4,False,,Chennai,"1/3, Wallace Garden 1st Street, Nungabakkam, Chennai - 600006, Dist.Chennai, Tamil Nadu",7949324678,
"Pull Ups Friends Premium Adult Diaper Pants, Size: Medium",https://www.indiamart.com/proddetail/friends-premium-adult-diaper-pants-2853061904148.html?pos=175&kwd=adult diaper pant&tags=||||9528.781|Price|product|||MDC|rsf:gd-|-stype:attr=1|qr_nm:gd|res:RC4|com-cf:nl|ptrs:na|ktp:N0|mc:184603|mtp:S|qry_typ:P|lang:en|wc:3|cs:8887|v=4,Medilife Surgical,https://www.indiamart.com/medilife-surgical/?pos=175&kwd=adult diaper pant&tags=||||9528.781|Price|product|||MDC|rsf:gd-|-stype:attr=1|qr_nm:gd|res:RC4|com-cf:nl|ptrs:na|ktp:N0|mc:184603|mtp:S|qry_typ:P|lang:en|wc:3|cs:8887|v=4,False,Pahadi Mandir Lane,Ranchi,"New Shastri Nagar,Madhukam,Ratu Road, Pahadi Mandir Lane, Ranchi - 834005, Dist.Ranchi, Jharkhand",8047805286,
B Fit XL Adult Diaper Pants,https://www.indiamart.com/proddetail/b-fit-xl-adult-diaper-pants-23504861830.html?pos=176&kwd=adult diaper pant&tags=||||8661.854|Price|product|||MDC|rsf:gd-|-stype:attr=1|qr_nm:gd|res:RC4|com-cf:nl|ptrs:na|ktp:N0|mc:184603|mtp:S|qry_typ:P|lang:en|wc:3|cs:8887|v=4,D.H.L. Life Science,https://www.indiamart.com/dhllifescience/?pos=176&kwd=adult diaper pant&tags=||||8661.854|Price|product|||MDC|rsf:gd-|-stype:attr=1|qr_nm:gd|res:RC4|com-cf:nl|ptrs:na|ktp:N0|mc:184603|mtp:S|qry_typ:P|lang:en|wc:3|cs:8887|v=4,False,Haibowal Kalan,Ludhiana,"Shop No. 113, Duggal Complex, Pindi Street, Dr. Gujjar Mal Road, Haibowal Kalan, Ludhiana - 141003, Dist.Ludhiana, Punjab",8046067434,
"Alife Cure Classic Adult Pant Diapers, Size: Medium",https://www.indiamart.com/proddetail/alife-cure-classic-adult-pant-diapers-2854107645597.html?pos=177&kwd=adult diaper pant&tags=||||8281.036|Price|product|||MDC|rsf:gd-|-stype:attr=1|qr_nm:gd|res:RC4|com-cf:nl|ptrs:na|ktp:N0|mc:184603|mtp:S|qry_typ:P|lang:en|wc:3|cs:8887|v=4,Krishna Surgical,https://www.indiamart.com/krishnasurgicalvadodara/?pos=177&kwd=adult diaper pant&tags=||||8281.036|Price|product|||MDC|rsf:gd-|-stype:attr=1|qr_nm:gd|res:RC4|com-cf:nl|ptrs:na|ktp:N0|mc:184603|mtp:S|qry_typ:P|lang:en|wc:3|cs:8887|v=4,False,Manjalpur,Vadodara,"D 227 - 228, Kashi Vishweshwar Township, Jetalpur Road, Manjalpur, Vadodara - 390007, Dist.Vadodara, Gujarat",8045736026,
"Plain XL Adult Diapers Pants, Size: Medium, Age Group: Adults",https://www.indiamart.com/proddetail/xl-adult-diapers-pants-2853411923730.html?pos=178&kwd=adult diaper pant&tags=||||9110.092|Price|product|||MDC|rsf:gd-|-stype:attr=1|qr_nm:gd|res:RC4|com-cf:nl|ptrs:na|ktp:N0|mc:184603|mtp:S|qry_typ:P|lang:en|wc:3|cs:8887|v=4,Sanitech Hygiene,https://www.indiamart.com/sanitech-hygiene/?pos=178&kwd=adult diaper pant&tags=||||9110.092|Price|product|||MDC|rsf:gd-|-stype:attr=1|qr_nm:gd|res:RC4|com-cf:nl|ptrs:na|ktp:N0|mc:184603|mtp:S|qry_typ:P|lang:en|wc:3|cs:8887|v=4,False,Daliganj,Lucknow,"PLOT NO 16, IIM Road, Semra Gadhi Maharishi University Dwarikapuri Colony, Daliganj, Lucknow - 226020, Dist.Lucknow, Uttar Pradesh",7949226105,
Friends Adults Diaper Pants,https://www.indiamart.com/proddetail/friends-adults-diaper-pants-22066442348.html?pos=179&kwd=adult diaper pant&tags=||||8876.815|Price|product|||MDC|rsf:gd-|-stype:attr=1|qr_nm:gd|res:RC4|com-cf:nl|ptrs:na|ktp:N0|mc:184603|mtp:S|qry_typ:P|lang:en|wc:3|cs:8887|v=4,Mangalam Pharma,https://www.indiamart.com/mangalampharma/?pos=179&kwd=adult diaper pant&tags=||||8876.815|Price|product|||MDC|rsf:gd-|-stype:attr=1|qr_nm:gd|res:RC4|com-cf:nl|ptrs:na|ktp:N0|mc:184603|mtp:S|qry_typ:P|lang:en|wc:3|cs:8887|v=4,False,,Nagpur,"F-104, Plot No 802, Saptashru-NGI Apartment, Sudampuri,, Nagpur - 440009, Dist.Nagpur, Maharashtra",8047831433,
"Pant Style Pull Ups Friends Adults Diaper Pants, Size: Medium",https://www.indiamart.com/proddetail/friends-adults-diaper-pants-2851753178362.html?pos=180&kwd=adult diaper pant&tags=||||8785.791|Price|product|||MDC|rsf:gd-|-stype:attr=1|qr_nm:gd|res:RC4|com-cf:nl|ptrs:na|ktp:N0|mc:184603|mtp:S|qry_typ:P|lang:en|wc:3|cs:8887|v=4,Ediagno Healthcare Private Limited,https://www.indiamart.com/ediagnohealthcare/?pos=180&kwd=adult diaper pant&tags=||||8785.791|Price|product|||MDC|rsf:gd-|-stype:attr=1|qr_nm:gd|res:RC4|com-cf:nl|ptrs:na|ktp:N0|mc:184603|mtp:S|qry_typ:P|lang:en|wc:3|cs:8887|v=4,False,Vaishali,Ghaziabad,"1/580, Shop No. 1, Ground Floor, Vaishali, Vaishali, Ghaziabad - 201010, Dist.Ghaziabad, Uttar Pradesh",8043852624,
"Friends Classic Adult Diapers Pants, Size: Medium",https://www.indiamart.com/proddetail/friends-classic-adult-diapers-pants-25366141433.html?pos=181&kwd=adult diaper pant&tags=||||8752.144|Price|product|||MDC|rsf:gd-|-stype:attr=1|qr_nm:gd|res:RC4|com-cf:nl|ptrs:na|ktp:N0|mc:184603|mtp:S|qry_typ:P|lang:en|wc:3|cs:8887|v=4,Garg Surgimed,https://www.indiamart.com/garg-surgimed/?pos=181&kwd=adult diaper pant&tags=||||8752.144|Price|product|||MDC|rsf:gd-|-stype:attr=1|qr_nm:gd|res:RC4|com-cf:nl|ptrs:na|ktp:N0|mc:184603|mtp:S|qry_typ:P|lang:en|wc:3|cs:8887|v=4,False,Safdarjung Enclave,New Delhi,"61c,,Near Sukhmani Hospital,Arjun Nagar, Safdurjung Enclave, Safdarjung Enclave, New Delhi - 110029, Dist.Delhi, Delhi",8047303781,
"B Fit Adults Diaper Pants, Large",https://www.indiamart.com/proddetail/b-fit-adults-diaper-pants-5713507633.html?pos=182&kwd=adult diaper pant&tags=||||8307.81|Price|product|||MDC|rsf:gd-|-stype:attr=1|qr_nm:gd|res:RC4|com-cf:nl|ptrs:na|ktp:N0|mc:184603|mtp:S|qry_typ:P|lang:en|wc:3|cs:8887|v=4,Chaitanya Medical And General Stores,https://www.indiamart.com/chaitanyamedical-generalstores/?pos=182&kwd=adult diaper pant&tags=||||8307.81|Price|product|||MDC|rsf:gd-|-stype:attr=1|qr_nm:gd|res:RC4|com-cf:nl|ptrs:na|ktp:N0|mc:184603|mtp:S|qry_typ:P|lang:en|wc:3|cs:8887|v=4,False,,Pune,"PLT No. 69 And 53, Shop No. 10, Aditya Apartments, Survey No. 28/2, Anand Nagar,, Pune - 411051, Dist.Pune, Maharashtra",7942659651,
"30 To 80 Protective Underwear Medium Dreamys Adult Diapers, Packaging Type: Packet, Waist Size: 76-110 cm",https://www.indiamart.com/proddetail/medium-dreamys-adult-diapers-21329150962.html?pos=183&kwd=adult diaper pant&tags=||||8503.868|Price|product|||TS|rsf:gd-|-stype:attr=1|qr_nm:gd|res:RC4|com-cf:nl|ptrs:na|ktp:N0|mc:184603|mtp:S|qry_typ:P|lang:en|wc:3|cs:8887|v=4,Coble Impex Private Limited,https://www.indiamart.com/cobleimpex/?pos=183&kwd=adult diaper pant&tags=||||8503.868|Price|product|||TS|rsf:gd-|-stype:attr=1|qr_nm:gd|res:RC4|com-cf:nl|ptrs:na|ktp:N0|mc:184603|mtp:S|qry_typ:P|lang:en|wc:3|cs:8887|v=4,False,Kakkanad,Kochi,"No. 12/760 B, Manimala Estate, Padamugal Kakkanad, West Post Office, Kakkanad, Kochi - 682030, Dist.Ernakulam, Kerala",8048605079,
"Adult Pull-up Pants (Size M,L,XL & XXL), Large",https://www.indiamart.com/proddetail/adult-pull-up-pants-large-2852378980097.html?pos=184&kwd=adult diaper pant&tags=||||8211.142|Price|product|||TS|rsf:gd-|-stype:attr=1|qr_nm:gd|res:RC4|com-cf:nl|ptrs:na|ktp:N0|mc:184603|mtp:S|qry_typ:P|lang:en|wc:3|cs:8887|v=4,Buzil Rossari Private Limited,https://www.indiamart.com/buzil-rossari-private-limited/?pos=184&kwd=adult diaper pant&tags=||||8211.142|Price|product|||TS|rsf:gd-|-stype:attr=1|qr_nm:gd|res:RC4|com-cf:nl|ptrs:na|ktp:N0|mc:184603|mtp:S|qry_typ:P|lang:en|wc:3|cs:8887|v=4,True,,Mumbai,"201 A and B,Akruti Corporate Park,LBS Marg,Mumbai, Mumbai - 400078, Dist.Mumbai, Maharashtra",8045737506,
Akko XL Adult Pant,https://www.indiamart.com/proddetail/akko-xl-adult-pant-2854555250112.html?pos=185&kwd=adult diaper pant&tags=||||8785.791|Price|product|||MDC|rsf:gd-|-stype:attr=1|qr_nm:gd|res:RC4|com-cf:nl|ptrs:na|ktp:N0|mc:184603|mtp:S|qry_typ:P|lang:en|wc:3|cs:8887|v=4,J.A. Industries,https://www.indiamart.com/jaindustriesghaziabad/?pos=185&kwd=adult diaper pant&tags=||||8785.791|Price|product|||MDC|rsf:gd-|-stype:attr=1|qr_nm:gd|res:RC4|com-cf:nl|ptrs:na|ktp:N0|mc:184603|mtp:S|qry_typ:P|lang:en|wc:3|cs:8887|v=4,False,,Ghaziabad,"C-86, Unnamed Road, Chandan and Chandan Industries Pvt Ltd, Sector B3, Tronica City,, Ghaziabad - 201102, Dist.Ghaziabad, Uttar Pradesh",7949326382,
For Adults Pull Ups Blissbury L Adult Pants Diapers,https://www.indiamart.com/proddetail/blissbury-l-adult-pants-diapers-2853003098512.html?pos=186&kwd=adult diaper pant&tags=||||8723.301|Price|product|||MDC|rsf:gd-|-stype:attr=1|qr_nm:gd|res:RC4|com-cf:nl|ptrs:na|ktp:N0|mc:184603|mtp:S|qry_typ:P|lang:en|wc:3|cs:8887|v=4,Blissbury Care Private Limited,https://www.indiamart.com/blissbury-care-bhopal/?pos=186&kwd=adult diaper pant&tags=||||8723.301|Price|product|||MDC|rsf:gd-|-stype:attr=1|qr_nm:gd|res:RC4|com-cf:nl|ptrs:na|ktp:N0|mc:184603|mtp:S|qry_typ:P|lang:en|wc:3|cs:8887|v=4,False,Gandhi Nagar,Bhopal,"D-46, Dwarkadham New Jail Road, Gram Badwai Huzur, Gandhi Nagar, Bhopal - 462001, Dist.Bhopal, Madhya Pradesh",7942963355,
Adult Diapers Private Lable,https://www.indiamart.com/proddetail/adult-diapers-private-lable-25483032688.html?pos=187&kwd=adult diaper pant&tags=||||8786.56|Price|product|||TS|rsf:gd-|-stype:attr=1|qr_nm:gd|res:RC4|com-cf:nl|ptrs:na|ktp:N0|mc:184603|mtp:S|qry_typ:P|lang:en|wc:3|cs:8887|v=4,ADML(ADROIT MOLECULES),https://www.adroitmolecules.com/?pos=187&kwd=adult diaper pant&tags=||||8786.56|Price|product|||TS|rsf:gd-|-stype:attr=1|qr_nm:gd|res:RC4|com-cf:nl|ptrs:na|ktp:N0|mc:184603|mtp:S|qry_typ:P|lang:en|wc:3|cs:8887|v=4,False,Annaram,Hyderabad,"Plot No. 523/2 Dundigal Village , Medchal, Malkajgiri, Near Marri Laxman Reddy Engineering College, Annaram, Hyderabad - 500043, Dist.Hyderabad, Telangana",8046057643,
Friends Dry Pant,https://www.indiamart.com/proddetail/friends-dry-pant-2850391310197.html?pos=188&kwd=adult diaper pant&tags=||||8211.142||product|||TS|rsf:gd-|-stype:attr=1|qr_nm:gd|res:RC4|com-cf:nl|ptrs:na|ktp:N0|mc:184603|mtp:S|qry_typ:P|lang:en|wc:3|cs:8887|v=4,Shree Surgicals,https://www.indiamart.com/shreesurgicalsmumbai/?pos=188&kwd=adult diaper pant&tags=||||8211.142||product|||TS|rsf:gd-|-stype:attr=1|qr_nm:gd|res:RC4|com-cf:nl|ptrs:na|ktp:N0|mc:184603|mtp:S|qry_typ:P|lang:en|wc:3|cs:8887|v=4,False,Parel,Mumbai,"Shop No. 8,Atit Shopping Enterprise Pvt Ltd,J P Road,Mumbai, Parel, Mumbai - 400053, Dist.Mumbai, Maharashtra",7942817071,
"30 Years Briefs Adult Diapers - Pant and Diaper Type, Size: Medium",https://www.indiamart.com/proddetail/adult-diapers-pant-and-diaper-type-2851765699897.html?pos=189&kwd=adult diaper pant&tags=||||8954.051|Price|product|||TS|rsf:gd-|-stype:attr=1|qr_nm:gd|res:RC4|com-cf:nl|ptrs:na|ktp:N0|mc:184603|mtp:S|qry_typ:P|lang:en|wc:3|cs:8887|v=4,Dvine Surgicals,https://www.indiamart.com/divine-surgicals-chennai/?pos=189&kwd=adult diaper pant&tags=||||8954.051|Price|product|||TS|rsf:gd-|-stype:attr=1|qr_nm:gd|res:RC4|com-cf:nl|ptrs:na|ktp:N0|mc:184603|mtp:S|qry_typ:P|lang:en|wc:3|cs:8887|v=4,False,Nanganallur,Chennai,"New No.35, Old No. 15, 20th Street, Nehru Colony Nanganallur,Palavanthangal, Nanganallur, Chennai - 600114, Dist.Chennai, Tamil Nadu",8047657169,
"White Adult Diapers Pant Styles, Packaging Size: 10 Pieces In Packet",https://www.indiamart.com/proddetail/adult-diapers-pant-styles-11121983388.html?pos=190&kwd=adult diaper pant&tags=||||8307.81|Price|product|||TS|rsf:gd-|-stype:attr=1|qr_nm:gd|res:RC4|com-cf:nl|ptrs:na|ktp:N0|mc:184603|mtp:S|qry_typ:P|lang:en|wc:3|cs:8887|v=4,Namo Pharma,https://www.namopharma.net/?pos=190&kwd=adult diaper pant&tags=||||8307.81|Price|product|||TS|rsf:gd-|-stype:attr=1|qr_nm:gd|res:RC4|com-cf:nl|ptrs:na|ktp:N0|mc:184603|mtp:S|qry_typ:P|lang:en|wc:3|cs:8887|v=4,False,Shukrawar Peth,Pune,"Shop No. 2, Krishna Complex Towards Sadashiv Peth, Shukrawar Peth, Pune - 411002, Dist.Pune, Maharashtra",8046030868,
Pull Ups B Fit Pant Style Adult Diapers,https://www.indiamart.com/proddetail/b-fit-pant-style-adult-diapers-25577879855.html?pos=191&kwd=adult diaper pant&tags=||||9045.955|Price|product|||TS|rsf:gd-|-stype:attr=1|qr_nm:gd|res:RC4|com-cf:nl|ptrs:na|ktp:N0|mc:184603|mtp:S|qry_typ:P|lang:en|wc:3|cs:8887|v=4,Krishna Surgicals,https://www.indiamart.com/krishnasurgicals/?pos=191&kwd=adult diaper pant&tags=||||9045.955|Price|product|||TS|rsf:gd-|-stype:attr=1|qr_nm:gd|res:RC4|com-cf:nl|ptrs:na|ktp:N0|mc:184603|mtp:S|qry_typ:P|lang:en|wc:3|cs:8887|v=4,False,Narayan Purwa,Kanpur,"117 / N / 39 Kakadeo N Block Kanpur Kanpur Nagar, Narayan Purwa, Kanpur - 208005, Uttar Pradesh",8048965625,
Briefs Adult Diaper Pants Alife Cure,https://www.indiamart.com/proddetail/adult-diaper-pants-alife-cure-2851735939655.html?pos=192&kwd=adult diaper pant&tags=||||8228.275|Price|product|||TS|rsf:gd-|-stype:attr=1|qr_nm:gd|res:RC4|com-cf:nl|ptrs:na|ktp:N0|mc:184603|mtp:S|qry_typ:P|lang:en|wc:3|cs:8887|v=4,Tirupati Surgicals Private Limited,https://www.indiamart.com/tirupati-surgicals-gujarat/?pos=192&kwd=adult diaper pant&tags=||||8228.275|Price|product|||TS|rsf:gd-|-stype:attr=1|qr_nm:gd|res:RC4|com-cf:nl|ptrs:na|ktp:N0|mc:184603|mtp:S|qry_typ:P|lang:en|wc:3|cs:8887|v=4,False,Bopal,Ahmedabad,"Shop No. 12 Nr Bhavya Park Brts Daskroi C/o Shiv Complex, Bopal, Ahmedabad - 380058, Dist.Ahmedabad, Gujarat",7942871739,
"Adult Pull Up Diaper Pants, Packaging Size: Medium",https://www.indiamart.com/proddetail/adult-pull-up-diaper-pants-2853596902562.html?pos=193&kwd=adult diaper pant&tags=||||9140.514|Price|product|||TS|rsf:gd-|-stype:attr=1|qr_nm:gd|res:RC4|com-cf:nl|ptrs:na|ktp:N0|mc:184603|mtp:S|qry_typ:P|lang:en|wc:3|cs:8887|v=4,Sefora Health And Hygiene,https://www.indiamart.com/seforahealthhygiene/?pos=193&kwd=adult diaper pant&tags=||||9140.514|Price|product|||TS|rsf:gd-|-stype:attr=1|qr_nm:gd|res:RC4|com-cf:nl|ptrs:na|ktp:N0|mc:184603|mtp:S|qry_typ:P|lang:en|wc:3|cs:8887|v=4,False,Saddu,Raipur,"H No. 134 Extension, Avinash Capital Homes , Phase II, Saddu, Saddu, Raipur - 492014, Chhattisgarh",7942962364,
"Pull Ups Alfaby Premium Adult Diaper Pants, Ex-Large Size",https://www.indiamart.com/proddetail/alfaby-premium-adult-diaper-pants-ex-large-size-2853140194833.html?pos=194&kwd=adult diaper pant&tags=||||9837.093|Price|product|||TS|rsf:gd-|-stype:attr=1|qr_nm:gd|res:RC4|com-cf:nl|ptrs:na|ktp:N0|mc:184603|mtp:S|qry_typ:P|lang:en|wc:3|cs:8887|v=4,Dheera Infoservices,https://www.indiamart.com/dheerainfoservices/?pos=194&kwd=adult diaper pant&tags=||||9837.093|Price|product|||TS|rsf:gd-|-stype:attr=1|qr_nm:gd|res:RC4|com-cf:nl|ptrs:na|ktp:N0|mc:184603|mtp:S|qry_typ:P|lang:en|wc:3|cs:8887|v=4,False,Uttarpara Bazar,Uttarpara Kotrung,"24/12, Ground, K.K.D Chatterjee Street, Hooghly, Uttarpara Bazar, Uttarpara Kotrung - 712258, West Bengal",7942818965,
"Adults Friends Adult Diapers Pants large, Size: 30-56 Inch",https://www.indiamart.com/proddetail/friends-adult-diapers-pants-large-23574253573.html?pos=195&kwd=adult diaper pant&tags=||||8747.203|Price|product|||TS|rsf:gd-|-stype:attr=1|qr_nm:gd|res:RC4|com-cf:nl|ptrs:na|ktp:N0|mc:184603|mtp:S|qry_typ:P|lang:en|wc:3|cs:8887|v=4,Hargun Biotech,https://www.hargunbiotech.com/?pos=195&kwd=adult diaper pant&tags=||||8747.203|Price|product|||TS|rsf:gd-|-stype:attr=1|qr_nm:gd|res:RC4|com-cf:nl|ptrs:na|ktp:N0|mc:184603|mtp:S|qry_typ:P|lang:en|wc:3|cs:8887|v=4,False,Model Town,Panipat,"641, Paruthi Chowk, Model Town, Model Town, Panipat - 132103, Dist.Panipat, Haryana",7942559513,
"Protective Underwear Dr. Choice Adult Pant Diapers, Size: Xl",https://www.indiamart.com/proddetail/dr-choice-adult-pant-diapers-2853056342130.html?pos=196&kwd=adult diaper pant&tags=||||8752.144|Price|product|||MDC|rsf:gd-|-stype:attr=1|qr_nm:gd|res:RC4|com-cf:nl|ptrs:na|ktp:N0|mc:184603|mtp:S|qry_typ:P|lang:en|wc:3|cs:8887|v=4,Dagar Hygiene Private Limited,https://www.indiamart.com/dagar-hygiene/?pos=196&kwd=adult diaper pant&tags=||||8752.144|Price|product|||MDC|rsf:gd-|-stype:attr=1|qr_nm:gd|res:RC4|com-cf:nl|ptrs:na|ktp:N0|mc:184603|mtp:S|qry_typ:P|lang:en|wc:3|cs:8887|v=4,False,Karawal Nagar,New Delhi,"B-328, Kh-48/22, Maha Laxmi Enclave, Karawal Nagar North East, Karawal Nagar, New Delhi - 110094, Dist.Delhi, Delhi",7942965875,
Pant Style Pull Ups Smartcare Adult Diapers Extra Large 9 Pcs Pack,https://www.indiamart.com/proddetail/smartcare-adult-diapers-extra-large-9-pcs-pack-26059270833.html?pos=197&kwd=adult diaper pant&tags=||||8559.269|Price|product|||TS|rsf:gd-|-stype:attr=1|qr_nm:gd|res:RC4|com-cf:nl|ptrs:na|ktp:N0|mc:184603|mtp:S|qry_typ:P|lang:en|wc:3|cs:8887|v=4,Saify Traders,https://www.saifygroup.com/?pos=197&kwd=adult diaper pant&tags=||||8559.269|Price|product|||TS|rsf:gd-|-stype:attr=1|qr_nm:gd|res:RC4|com-cf:nl|ptrs:na|ktp:N0|mc:184603|mtp:S|qry_typ:P|lang:en|wc:3|cs:8887|v=4,False,Gadi Adda,Indore,"14/1 - Gali No.1 Dawa Bazaar R.N.T Marg, Gadi Adda, Indore - 452001, Dist.Indore, Madhya Pradesh",8048967969,
Adult Diaper Pants Medium Size,,M.R. Pharma,https://www.indiamart.com/mrpharma/?pos=198&kwd=adult diaper pant&tags=||||9572.14|Price|product|||MDC|rsf:gd-|-stype:attr=1|qr_nm:gd|res:RC4|com-cf:nl|ptrs:na|ktp:N0|mc:184603|mtp:S|qry_typ:P|lang:en|wc:3|cs:8887|v=4,False,Khordha,Bhubaneswar,"Plot No.-51, Sector-3, Niladri Vihar, Khordha, Bhubaneswar - 751021, Dist.Khorda, Odisha",7949374709,
Liberty adult eco diaper pants,,Starmed Pharmacy,https://www.indiamart.com/starmedpharmacy-chennai/?pos=199&kwd=adult diaper pant&tags=||||8954.051|Price|product|||MDC|rsf:gd-|-stype:attr=1|qr_nm:gd|res:RC4|com-cf:nl|ptrs:na|ktp:N0|mc:184603|mtp:S|qry_typ:P|lang:en|wc:3|cs:8887|v=4,False,Selaivayal,Chennai,"Plot No 52, Parthasarathy Street, KK Thazhai, MMC Post, Chennai, Selaivayal, Chennai - 600051, Dist.Chennai, Tamil Nadu",7942959094,
"Adult Pant Style Friends Overnight Unisex Diaper Pants, Size: XL,XXL",https://www.indiamart.com/proddetail/friends-overnight-unisex-diaper-pants-24860081012.html?pos=200&kwd=adult diaper pant&tags=||||8954.051|Price|product|||MDC|rsf:gd-|-stype:attr=1|qr_nm:gd|res:RC4|com-cf:nl|ptrs:na|ktp:N0|mc:184603|mtp:S|qry_typ:P|lang:en|wc:3|cs:8887|v=4,Sri Vari Agencies,https://www.indiamart.com/sri-variagencies/?pos=200&kwd=adult diaper pant&tags=||||8954.051|Price|product|||MDC|rsf:gd-|-stype:attr=1|qr_nm:gd|res:RC4|com-cf:nl|ptrs:na|ktp:N0|mc:184603|mtp:S|qry_typ:P|lang:en|wc:3|cs:8887|v=4,False,Mylapore,Chennai,"Old No.22, New No.40, Venkatesa Agraharam Street, Mylapore, Mylapore, Chennai - 600004, Dist.Chennai, Tamil Nadu",7942832299,
"Pant Syltyle Pull Ups Adult pants, Size: Large",https://www.indiamart.com/proddetail/adult-pants-25556453133.html?pos=201&kwd=adult diaper pant&tags=||||8752.144|Price|product|||TS|rsf:gd-|-stype:attr=1|qr_nm:gd|res:RC4|com-cf:nl|ptrs:na|ktp:N0|mc:184603|mtp:S|qry_typ:P|lang:en|wc:3|cs:8887|v=4,Menka Enterprises,https://www.indiamart.com/menka-enterprises/?pos=201&kwd=adult diaper pant&tags=||||8752.144|Price|product|||TS|rsf:gd-|-stype:attr=1|qr_nm:gd|res:RC4|com-cf:nl|ptrs:na|ktp:N0|mc:184603|mtp:S|qry_typ:P|lang:en|wc:3|cs:8887|v=4,False,Bawana,New Delhi,"N-275, Sector 1, Bawana Industrial Area, Bawana, New Delhi - 110039, Dist.Delhi, Delhi",8047644299,
B Fit Adult Pants,,S.T.S. Traders,https://www.indiamart.com/sts-traders-kolkata/?pos=202&kwd=adult diaper pant&tags=||||9839.57|Price|product|||TS|rsf:gd-|-stype:attr=1|qr_nm:gd|res:RC4|com-cf:nl|ptrs:na|ktp:N0|mc:184603|mtp:S|qry_typ:P|lang:en|wc:3|cs:8887|v=4,False,Gobra,Kolkata,"101- B Chittranjan Avenue 2nd Floor Flat No.3, Gobra, Kolkata - 700073, Dist.Kolkata, West Bengal",8048962268,
ADULT DIAPER PANT ROMSONS,,Madurai Meenakshi Pharma And Surgical,https://www.indiamart.com/maduraimeenakshipharma-and-surgical/?pos=203&kwd=adult diaper pant&tags=||||8706.587||product|||TS|rsf:gd-|-stype:attr=1|qr_nm:gd|res:RC4|com-cf:nl|ptrs:na|ktp:N0|mc:184603|mtp:S|qry_typ:P|lang:en|wc:3|cs:8887|v=4,False,Nelpettai,Madurai,"199, First Floor, Naicker New Street,, Nelpettai, Madurai - 625001, Dist.Madurai, Tamil Nadu",8043853780,
Adult Diapers Pant Styles,,Sana Surgicare Kovai,https://www.indiamart.com/sana-surgicare-kovai/?pos=204&kwd=adult diaper pant&tags=||||8584.299|Price|product|||MDC|rsf:gd-|-stype:attr=1|qr_nm:gd|res:RC4|com-cf:nl|ptrs:na|ktp:N0|mc:184603|mtp:S|qry_typ:P|lang:en|wc:3|cs:8887|v=4,False,Gopalapuram,Coimbatore,"1494, 0, Athar Jamath Building, Trichy Road, Gopalapuram, Coimbatore - 641018, Dist.Coimbatore, Tamil Nadu",8043850424,
"Briefs Moon Care Adult Diapers, Size: Large",https://www.indiamart.com/proddetail/moon-care-adult-diapers-22506885497.html?pos=205&kwd=adult diaper pant&tags=||||8624.416|Price|product|||TS|rsf:gd-|-stype:attr=1|qr_nm:gd|res:RC4|com-cf:nl|ptrs:na|ktp:N0|mc:184603|mtp:S|qry_typ:P|lang:en|wc:3|cs:8887|v=4,R K Surgical,https://www.indiamart.com/rk-surgical-haryana/?pos=205&kwd=adult diaper pant&tags=||||8624.416|Price|product|||TS|rsf:gd-|-stype:attr=1|qr_nm:gd|res:RC4|com-cf:nl|ptrs:na|ktp:N0|mc:184603|mtp:S|qry_typ:P|lang:en|wc:3|cs:8887|v=4,False,Mill Gate,Hisar,"Gali No 1, 2, Shyam Lal Dhani, Mill Gate Road, Opp Gate No 1, New Sabji Mandi,, Mill Gate, Hisar - 125001, Dist.Hisar, Haryana",8043827630,
Adult pant diapers,https://www.indiamart.com/proddetail/adult-pant-diapers-2852004301897.html?pos=206&kwd=adult diaper pant&tags=||||8661.854|Price|product|||TS|rsf:gd-|-stype:attr=1|qr_nm:gd|res:RC4|com-cf:nl|ptrs:na|ktp:N0|mc:184603|mtp:S|qry_typ:P|lang:en|wc:3|cs:8887|v=4,Surgi King,https://www.indiamart.com/surgi-king/?pos=206&kwd=adult diaper pant&tags=||||8661.854|Price|product|||TS|rsf:gd-|-stype:attr=1|qr_nm:gd|res:RC4|com-cf:nl|ptrs:na|ktp:N0|mc:184603|mtp:S|qry_typ:P|lang:en|wc:3|cs:8887|v=4,False,Railway Colony,Ludhiana,"Shop No-8, Manmohan Market ,Pindi Gali,, Railway Colony, Ludhiana - 141008, Dist.Ludhiana, Punjab",8046030681,
"Baby Diaper Pants, Size: Medium, Packaging Size: Small",https://www.indiamart.com/proddetail/baby-diaper-pants-2852420240455.html?pos=207&kwd=adult diaper pant&tags=||||8038.093|Price|product|||TS|rsf:gd-|-stype:attr=1|qr_nm:gd|res:RC4|com-cf:nl|ptrs:na|ktp:N0|mc:184603|mtp:S|qry_typ:P|lang:en|wc:3|cs:8887|v=4,Glowlyf Tradelink Private Limited,https://www.indiamart.com/glowlyftradelinkprivatelimited/?pos=207&kwd=adult diaper pant&tags=||||8038.093|Price|product|||TS|rsf:gd-|-stype:attr=1|qr_nm:gd|res:RC4|com-cf:nl|ptrs:na|ktp:N0|mc:184603|mtp:S|qry_typ:P|lang:en|wc:3|cs:8887|v=4,False,GIDC,Rajkot,"Gidc 2, Plot No 136, Opp. R M Steel, Aji Industrial Estate, Rajkot Industrial Area Dhamalpar, GIDC, Rajkot - 360003, Dist.Rajkot, Gujarat",7942711689,
Adult Diapers Pant Styles,https://www.indiamart.com/proddetail/adult-diapers-pant-styles-2851667617062.html?pos=208&kwd=adult diaper pant&tags=||||8601.347|Price|product|||TS|rsf:gd-|-stype:attr=1|qr_nm:gd|res:RC4|com-cf:nl|ptrs:na|ktp:N0|mc:184603|mtp:S|qry_typ:P|lang:en|wc:3|cs:8887|v=4,Medipharm Global,https://www.indiamart.com/medipharmglobal/?pos=208&kwd=adult diaper pant&tags=||||8601.347|Price|product|||TS|rsf:gd-|-stype:attr=1|qr_nm:gd|res:RC4|com-cf:nl|ptrs:na|ktp:N0|mc:184603|mtp:S|qry_typ:P|lang:en|wc:3|cs:8887|v=4,False,Jhotwara,Jaipur,"R. G Plaza, X-02B, Chandra Nagar, Kardhani Scheme, Kalwar Road, Jhotwara, Jaipur - 302012, Dist.Jaipur, Rajasthan",8047653066,
"Glider Cotton Adult Diapers Pant Styles, Size: Medium, Packaging Size: 10 Pcs",https://www.indiamart.com/proddetail/adult-diapers-pant-styles-25129982591.html?pos=209&kwd=adult diaper pant&tags=||||8228.275|Price|product|||TS|rsf:gd-|-stype:attr=1|qr_nm:gd|res:RC4|com-cf:nl|ptrs:na|ktp:N0|mc:184603|mtp:S|qry_typ:P|lang:en|wc:3|cs:8887|v=4,Aspire Healthcare,https://www.indiamart.com/aspire-healthcare/?pos=209&kwd=adult diaper pant&tags=||||8228.275|Price|product|||TS|rsf:gd-|-stype:attr=1|qr_nm:gd|res:RC4|com-cf:nl|ptrs:na|ktp:N0|mc:184603|mtp:S|qry_typ:P|lang:en|wc:3|cs:8887|v=4,False,Gota,Ahmedabad,"Shop no -19 ,Serenity Space,S G Highway, New Gota, Gota, Ahmedabad - 382481, Dist.Ahmedabad, Gujarat",8046039668,
Pull Ups M We Pro Deep Pant Style Adult Diaper,https://www.indiamart.com/proddetail/m-we-pro-deep-pant-style-adult-diaper-2851723656397.html?pos=210&kwd=adult diaper pant&tags=||||8242.731|Price|product|||TS|rsf:gd-|-stype:attr=1|qr_nm:gd|res:RC4|com-cf:nl|ptrs:na|ktp:N0|mc:184603|mtp:S|qry_typ:P|lang:en|wc:3|cs:8887|v=4,A S Enterprises,https://www.indiamart.com/asenterprises-ulhasnagar/?pos=210&kwd=adult diaper pant&tags=||||8242.731|Price|product|||TS|rsf:gd-|-stype:attr=1|qr_nm:gd|res:RC4|com-cf:nl|ptrs:na|ktp:N0|mc:184603|mtp:S|qry_typ:P|lang:en|wc:3|cs:8887|v=4,False,Vitthalwadi,Ulhasnagar,"Near BK No 617, Shop , Room No 1, O T Section, Vitthalwadi, Ulhasnagar - 421002, Dist.Thane, Maharashtra",7942835156,
