product_title,product_link,company_name,company_link,is_verified_exporter,city_region,city,address_details,phone_number,phone_number_extension
Tidy Adult Diaper Pants Extra Large,https://www.indiamart.com/proddetail/tidy-adult-diaper-pants-extra-large-2854227376055.html?pos=1&kwd=adult diapers&tags=A|PL|||8747.223|Price|product|||LSlc|rsf:pl-|-stype:attr=1|qr_nm:gd|res:RC4|com-cf:nl|ptrs:na|ktp:N0|mc:21601|mtp:S|qry_typ:P|lang:en|wc:2|flavl:10|cs:9638|v=4,Pioneer Hygiene Industries LLP,https://www.pioneerhygiene.co.in/?pos=1&kwd=adult diapers&tags=A|PL|||8747.223|Price|product|||LSlc|rsf:pl-|-stype:attr=1|qr_nm:gd|res:RC4|com-cf:nl|ptrs:na|ktp:N0|mc:21601|mtp:S|qry_typ:P|lang:en|wc:2|flavl:10|cs:9638|v=4,True,,Sonipat,"Kila No. 95//1/1, 12/13, 19 And 22/1/1, Akbarpur Barota, Sonipat - 131103, Dist.Sonipat, Haryana",8045731181,
Adult Diaper Pants,https://www.indiamart.com/proddetail/adult-diaper-pants-2854565171991.html?pos=2&kwd=adult diapers&tags=A|PL|||8830.388|Price|product|||SSlc|rsf:pl-|-stype:attr=1|qr_nm:gd|res:RC4|com-cf:nl|ptrs:na|ktp:N0|mc:21601|mtp:S|qry_typ:P|lang:en|wc:2|flavl:10|cs:9638|v=4,Easeplus Healthcare Private Limited,https://www.ezoyplus.in/?pos=2&kwd=adult diapers&tags=A|PL|||8830.388|Price|product|||SSlc|rsf:pl-|-stype:attr=1|qr_nm:gd|res:RC4|com-cf:nl|ptrs:na|ktp:N0|mc:21601|mtp:S|qry_typ:P|lang:en|wc:2|flavl:10|cs:9638|v=4,False,DD Nagar,Gwalior,"T 1298 K-61,Vrikampur Chouraha,Satabdipuram D D Nagar,Gwalior, DD Nagar, Gwalior - 474005, Dist.Gwalior, Madhya Pradesh",8048265864,
Adults Protective Underwear Careage Adult Diaper Pants Large,https://www.indiamart.com/proddetail/careage-adult-diaper-pants-large-2851615275012.html?pos=3&kwd=adult diapers&tags=A|PL|||8752.144|Price|product|||SSlc|rsf:pl-|-stype:attr=1|qr_nm:gd|res:RC4|com-cf:nl|ptrs:na|ktp:N0|mc:21601|mtp:S|qry_typ:P|lang:en|wc:2|flavl:10|cs:9638|v=4,Recherche World,https://www.rechercheworld.co.in/?pos=3&kwd=adult diapers&tags=A|PL|||8752.144|Price|product|||SSlc|rsf:pl-|-stype:attr=1|qr_nm:gd|res:RC4|com-cf:nl|ptrs:na|ktp:N0|mc:21601|mtp:S|qry_typ:P|lang:en|wc:2|flavl:10|cs:9638|v=4,False,Pandav Nagar,New Delhi,"Near Gurudwara, Ground Floor, A-13-14, Gali No.01, Pandav Nagar, East Delhi, Pandav Nagar, New Delhi - 110092, Dist.Delhi, Delhi",8047312171,
Protective Underwear Adult Diaper Pants,https://www.indiamart.com/proddetail/adult-diaper-pants-2853149151748.html?pos=4&kwd=adult diapers&tags=A|PL|||8786.56|Price|product|||SSlc|rsf:pl-|-stype:attr=1|qr_nm:gd|res:RC4|com-cf:nl|ptrs:na|ktp:N0|mc:21601|mtp:S|qry_typ:P|lang:en|wc:2|flavl:10|cs:9638|v=4,Medvian Health Care,https://www.medvianhealthcare.in/?pos=4&kwd=adult diapers&tags=A|PL|||8786.56|Price|product|||SSlc|rsf:pl-|-stype:attr=1|qr_nm:gd|res:RC4|com-cf:nl|ptrs:na|ktp:N0|mc:21601|mtp:S|qry_typ:P|lang:en|wc:2|flavl:10|cs:9638|v=4,False,Dammaiguda,Hyderabad,"# 7-51, Anushakthi Nagar Dammaiguda Road, Nagaram, Near Dubai Building, Dammaiguda, Hyderabad - 500083, Dist.Hyderabad, Telangana",8047639534,
"Adult Diapers, Size: Large,38-60 Inch",https://www.indiamart.com/proddetail/adult-diapers-20875824055.html?pos=5&kwd=adult diapers&tags=A||||8954.051|Price|product|||SSlc|rsf:gd-|-stype:attr=1|qr_nm:gd|res:RC4|com-cf:nl|ptrs:na|ktp:N0|mc:21601|mtp:S|qry_typ:P|lang:en|wc:2|flavl:10|cs:9638|v=4,Delite Surgicals,https://www.indiamart.com/delite-surgicals-chennai/?pos=5&kwd=adult diapers&tags=A||||8954.051|Price|product|||SSlc|rsf:gd-|-stype:attr=1|qr_nm:gd|res:RC4|com-cf:nl|ptrs:na|ktp:N0|mc:21601|mtp:S|qry_typ:P|lang:en|wc:2|flavl:10|cs:9638|v=4,False,Park Town,Chennai,"107, Nyniappanaicken Street, Park Town, Park Town, Chennai - 600003, Dist.Chennai, Tamil Nadu",7942565474,
Disposable Adult Diaper (Pack of 10),https://www.indiamart.com/proddetail/disposable-adult-diaper-18110123673.html?pos=6&kwd=adult diapers&tags=A||||8752.144|Price|product|||LSlc|rsf:gd-|-stype:attr=1|qr_nm:gd|res:RC4|com-cf:nl|ptrs:na|ktp:N0|mc:21601|mtp:S|qry_typ:P|lang:en|wc:2|flavl:10|cs:9638|v=4,Dispowear Sterite Company,https://www.dispowear.co.in/?pos=6&kwd=adult diapers&tags=A||||8752.144|Price|product|||LSlc|rsf:gd-|-stype:attr=1|qr_nm:gd|res:RC4|com-cf:nl|ptrs:na|ktp:N0|mc:21601|mtp:S|qry_typ:P|lang:en|wc:2|flavl:10|cs:9638|v=4,False,Janakpuri,New Delhi,"Pocket D-2 A, Flat No. 51 C, Janakpuri, Janakpuri, New Delhi - 110058, Dist.Delhi, Delhi",8048970362,
"Adult Diapers, Large",https://www.indiamart.com/proddetail/adult-diapers-2854691283897.html?pos=7&kwd=adult diapers&tags=A||||8211.142|Price|product|||TS|rsf:gd-|-stype:attr=1|qr_nm:gd|res:RC4|com-cf:nl|ptrs:na|ktp:N0|mc:21601|mtp:S|qry_typ:P|lang:en|wc:2|flavl:10|cs:9638|v=4,Aglodia Corporation,https://www.aglodiacorp.com/?pos=7&kwd=adult diapers&tags=A||||8211.142|Price|product|||TS|rsf:gd-|-stype:attr=1|qr_nm:gd|res:RC4|com-cf:nl|ptrs:na|ktp:N0|mc:21601|mtp:S|qry_typ:P|lang:en|wc:2|flavl:10|cs:9638|v=4,False,Goregaon West,Mumbai,"315/2512 motilal nagar 2 MG road Goregaon west, Goregaon West, Mumbai - 400064, Dist.Mumbai, Maharashtra",7942842515,
"Protective Underwear Non Woven Disposable Adult Diaper, Size: Xl",https://www.indiamart.com/proddetail/disposable-adult-diaper-2852110900091.html?pos=8&kwd=adult diapers&tags=A||||8954.051|Price|product|||TS|rsf:gd-|-stype:attr=1|qr_nm:gd|res:RC4|com-cf:nl|ptrs:na|ktp:N0|mc:21601|mtp:S|qry_typ:P|lang:en|wc:2|flavl:10|cs:9638|v=4,Shriv Medicare Private Limited,https://www.shrivmedicare.com/?pos=8&kwd=adult diapers&tags=A||||8954.051|Price|product|||TS|rsf:gd-|-stype:attr=1|qr_nm:gd|res:RC4|com-cf:nl|ptrs:na|ktp:N0|mc:21601|mtp:S|qry_typ:P|lang:en|wc:2|flavl:10|cs:9638|v=4,False,Noombal,Chennai,"Plot No.2, Survey No. 15/2B, Vada Noombal Road, Perumalagaram, Tiruverkadu, Noombal, Chennai - 600077, Dist.Chennai, Tamil Nadu",8043830699,
"Adult Diapers Pant Styles, Medium",https://www.indiamart.com/proddetail/adult-diapers-pant-styles-2854267715930.html?pos=9&kwd=adult diapers&tags=A||||8741.812||product|||TS|rsf:gd-|-stype:attr=1|qr_nm:gd|res:RC4|com-cf:nl|ptrs:na|ktp:N0|mc:21601|mtp:S|qry_typ:P|lang:en|wc:2|flavl:10|cs:9638|v=4,Kannu Impex (India) Private Limited,https://www.indiamart.com/kannuimpex/?pos=9&kwd=adult diapers&tags=A||||8741.812||product|||TS|rsf:gd-|-stype:attr=1|qr_nm:gd|res:RC4|com-cf:nl|ptrs:na|ktp:N0|mc:21601|mtp:S|qry_typ:P|lang:en|wc:2|flavl:10|cs:9638|v=4,True,Sector 21,Gurgaon,"Corporate Office Suite No. 412, Suncity Trade Tower, Sector 21 Delhi-Gurgaon Road, Sector 21, Gurgaon - 122016, Dist.Gurgaon, Haryana",8048964773,
"Disposable Adult Diaper, Medium",https://www.indiamart.com/proddetail/disposable-adult-diaper-2853596672555.html?pos=10&kwd=adult diapers&tags=A||||9140.514|Price|product|||TS|rsf:gd-|-stype:attr=1|qr_nm:gd|res:RC4|com-cf:nl|ptrs:na|ktp:N0|mc:21601|mtp:S|qry_typ:P|lang:en|wc:2|flavl:10|cs:9638|v=4,Sefora Health And Hygiene,https://www.indiamart.com/seforahealthhygiene/?pos=10&kwd=adult diapers&tags=A||||9140.514|Price|product|||TS|rsf:gd-|-stype:attr=1|qr_nm:gd|res:RC4|com-cf:nl|ptrs:na|ktp:N0|mc:21601|mtp:S|qry_typ:P|lang:en|wc:2|flavl:10|cs:9638|v=4,False,Saddu,Raipur,"H No. 134 Extension, Avinash Capital Homes , Phase II, Saddu, Saddu, Raipur - 492014, Chhattisgarh",7942962364,
"Adult Diapers, Size: Medium",https://www.indiamart.com/proddetail/adult-diapers-2853104429855.html?pos=11&kwd=adult diapers&tags=A||||8769.508|Price|product|||TS|rsf:gd-|-stype:attr=1|qr_nm:gd|res:RC4|com-cf:nl|ptrs:na|ktp:N0|mc:21601|mtp:S|qry_typ:P|lang:en|wc:2|flavl:10|cs:9638|v=4,Allied Way (India),https://www.alliedwayindia.org/?pos=11&kwd=adult diapers&tags=A||||8769.508|Price|product|||TS|rsf:gd-|-stype:attr=1|qr_nm:gd|res:RC4|com-cf:nl|ptrs:na|ktp:N0|mc:21601|mtp:S|qry_typ:P|lang:en|wc:2|flavl:10|cs:9638|v=4,True,Mathura Road Faridabad,Faridabad,"Property No. 26, HSIIDC, Sector 31, Mathura Road Faridabad, Faridabad - 121003, Dist.Faridabad, Haryana",8048965821,
Briefs Seni Air Classic Breathable Large Size Adult Diapers Pack Of 30,https://www.indiamart.com/proddetail/seni-air-classic-breathable-large-size-adult-diapers-pack-of-30-2852840253397.html?pos=12&kwd=adult diapers&tags=A||||8211.142|Price|product|||TS|rsf:gd-|-stype:attr=1|qr_nm:gd|res:RC4|com-cf:nl|ptrs:na|ktp:N0|mc:21601|mtp:S|qry_typ:P|lang:en|wc:2|flavl:10|cs:9638|v=4,I Touch Surgical,https://www.itouchsurgical.co.in/?pos=12&kwd=adult diapers&tags=A||||8211.142|Price|product|||TS|rsf:gd-|-stype:attr=1|qr_nm:gd|res:RC4|com-cf:nl|ptrs:na|ktp:N0|mc:21601|mtp:S|qry_typ:P|lang:en|wc:2|flavl:10|cs:9638|v=4,False,Goregaon,Mumbai,"4, Ekta Suprabhat, Siddharth Nagar, Goregaon West, Goregaon, Mumbai - 400104, Dist.Mumbai, Maharashtra",8048962190,
"Adult Diaper Unisex, Size: Medium",https://www.indiamart.com/proddetail/adult-diaper-unisex-2852811851773.html?pos=13&kwd=adult diapers&tags=A||||8228.275|Price|product|||TS|rsf:gd-|-stype:attr=1|qr_nm:gd|res:RC4|com-cf:nl|ptrs:na|ktp:N0|mc:21601|mtp:S|qry_typ:P|lang:en|wc:2|flavl:10|cs:9638|v=4,Om Enterprises,https://www.indiamart.com/omenterprisesgujrat/?pos=13&kwd=adult diapers&tags=A||||8228.275|Price|product|||TS|rsf:gd-|-stype:attr=1|qr_nm:gd|res:RC4|com-cf:nl|ptrs:na|ktp:N0|mc:21601|mtp:S|qry_typ:P|lang:en|wc:2|flavl:10|cs:9638|v=4,False,Maninagar,Ahmedabad,"Ground Floor, Shop No-1 ,Mani Nagar Road ,Rudra Appartment Maniyasa Society,Mani Nagar East, Maninagar, Ahmedabad - 380008, Dist.Ahmedabad, Gujarat",7942715310,
Pull Ups Medi Plus Adult Diaper,https://www.indiamart.com/proddetail/medi-plus-adult-diaper-22831357933.html?pos=14&kwd=adult diapers&tags=A||||8228.275|Price|product|||TS|rsf:gd-|-stype:attr=1|qr_nm:gd|res:RC4|com-cf:nl|ptrs:na|ktp:N0|mc:21601|mtp:S|qry_typ:P|lang:en|wc:2|flavl:10|cs:9638|v=4,Chamunda Surgical Agency,https://www.chamundasurgicalagency.com/?pos=14&kwd=adult diapers&tags=A||||8228.275|Price|product|||TS|rsf:gd-|-stype:attr=1|qr_nm:gd|res:RC4|com-cf:nl|ptrs:na|ktp:N0|mc:21601|mtp:S|qry_typ:P|lang:en|wc:2|flavl:10|cs:9638|v=4,False,Mithakhali,Ahmedabad,"9-10 - Medicare Center, Behind M.J Libary, Opp. Sanyas Ashram, Mithakhali, Ahmedabad - 380009, Dist.Ahmedabad, Gujarat",8047637438,
"Adult Diapers, Large",https://www.indiamart.com/proddetail/adult-diapers-large-2854979571533.html?pos=15&kwd=adult diapers&tags=A||||8211.142|Price|product|||TS|rsf:gd-|-stype:attr=1|qr_nm:gd|res:RC4|com-cf:nl|ptrs:na|ktp:N0|mc:21601|mtp:S|qry_typ:P|lang:en|wc:2|flavl:10|cs:9638|v=4,Buzil Rossari Private Limited,https://www.indiamart.com/buzil-rossari-private-limited/?pos=15&kwd=adult diapers&tags=A||||8211.142|Price|product|||TS|rsf:gd-|-stype:attr=1|qr_nm:gd|res:RC4|com-cf:nl|ptrs:na|ktp:N0|mc:21601|mtp:S|qry_typ:P|lang:en|wc:2|flavl:10|cs:9638|v=4,True,,Mumbai,"201 A and B,Akruti Corporate Park,LBS Marg,Mumbai, Mumbai - 400078, Dist.Mumbai, Maharashtra",8045737506,
Adult Diaper,https://www.indiamart.com/proddetail/adult-diaper-20049162955.html?pos=16&kwd=adult diapers&tags=A||||8703.834|Price|product|||TS|rsf:gd-|-stype:attr=1|qr_nm:gd|res:RC4|com-cf:nl|ptrs:na|ktp:N0|mc:21601|mtp:S|qry_typ:P|lang:en|wc:2|flavl:10|cs:9638|v=4,Kamal Healthcare Products Private Limited,https://www.avmsuperdry.in/?pos=16&kwd=adult diapers&tags=A||||8703.834|Price|product|||TS|rsf:gd-|-stype:attr=1|qr_nm:gd|res:RC4|com-cf:nl|ptrs:na|ktp:N0|mc:21601|mtp:S|qry_typ:P|lang:en|wc:2|flavl:10|cs:9638|v=4,False,Ezhil Nagar,Thoothukudi,"2nd Floor, No. 180, North Cotton Road, Ezhil Nagar, Thoothukudi - 628001, Dist.Tuticorin, Tamil Nadu",8048605186,
"Pull Ups Adult Diapers ., Size: Large",https://www.indiamart.com/proddetail/adult-diapers-2853906077730.html?pos=15&kwd=adult diapers&tags=A||||8752.144|Price|product|||TS|rsf:gd-|-stype:attr=1|qr_nm:gd|res:RC4|com-cf:nl|ptrs:na|ktp:N0|mc:21601|mtp:S|qry_typ:P|lang:en|wc:2|cs:8826|v=4,MSND Manufacturing,https://www.indiamart.com/msnd-manufacturing/?pos=15&kwd=adult diapers&tags=A||||8752.144|Price|product|||TS|rsf:gd-|-stype:attr=1|qr_nm:gd|res:RC4|com-cf:nl|ptrs:na|ktp:N0|mc:21601|mtp:S|qry_typ:P|lang:en|wc:2|cs:8826|v=4,False,Mandoli,New Delhi,"Ground Floor at C-2/80, floor-Kh. No. 34/1/1, G/F, Gali No.2, Harsh Vihar,, Mandoli, New Delhi - 110093, Dist.Delhi, Delhi",8046032266,
"Pant Romsons Dignity Adults Diaper, Size: Medium, Packaging Size: 10",https://www.indiamart.com/proddetail/romsons-dignity-adults-diaper-27476520712.html?pos=16&kwd=adult diapers&tags=A||||8786.56|Price|product|||TS|rsf:gd-|-stype:attr=1|qr_nm:gd|res:RC4|com-cf:nl|ptrs:na|ktp:N0|mc:21601|mtp:S|qry_typ:P|lang:en|wc:2|cs:8826|v=4,Prakar Enterprises,https://www.prakarenterprises.com/?pos=16&kwd=adult diapers&tags=A||||8786.56|Price|product|||TS|rsf:gd-|-stype:attr=1|qr_nm:gd|res:RC4|com-cf:nl|ptrs:na|ktp:N0|mc:21601|mtp:S|qry_typ:P|lang:en|wc:2|cs:8826|v=4,False,Kothapet,Hyderabad,"13-1-2, Road no.1, Prabhath Nagar, Chaitanyapuri, Kothapet, Hyderabad - 500060, Dist.Hyderabad, Telangana",7942552841,
Friends Adult Diapers,https://www.indiamart.com/proddetail/friends-adult-diapers-2852623891773.html?pos=17&kwd=adult diapers&tags=A||||8954.051|Price|product|||LSnp|rsf:gd-|-stype:attr=1|qr_nm:gd|res:RC4|com-cf:nl|ptrs:na|ktp:N0|mc:21601|mtp:S|qry_typ:P|lang:en|wc:2|cs:8826|v=4,Chris Merchant Private Limited,https://www.chrismerchant.co.in/?pos=17&kwd=adult diapers&tags=A||||8954.051|Price|product|||LSnp|rsf:gd-|-stype:attr=1|qr_nm:gd|res:RC4|com-cf:nl|ptrs:na|ktp:N0|mc:21601|mtp:S|qry_typ:P|lang:en|wc:2|cs:8826|v=4,False,Koyambedu,Chennai,"No. 5, Poonamalee High Road, Koyambedu, Chennai - 600107, Dist.Chennai, Tamil Nadu",8048956521,
"Briefs Comfit L Adult Diaper, Size: Medium / Large / Extra Large",https://www.indiamart.com/proddetail/comfit-l-adult-diaper-22485324155.html?pos=18&kwd=adult diapers&tags=A||||8210.732|Price|product|||TS|rsf:gd-|-stype:attr=1|qr_nm:gd|res:RC4|com-cf:nl|ptrs:na|ktp:N0|mc:21601|mtp:S|qry_typ:P|lang:en|wc:2|cs:8826|v=4,S4 Health Care Private Limited,https://www.s4healthcare.in/?pos=18&kwd=adult diapers&tags=A||||8210.732|Price|product|||TS|rsf:gd-|-stype:attr=1|qr_nm:gd|res:RC4|com-cf:nl|ptrs:na|ktp:N0|mc:21601|mtp:S|qry_typ:P|lang:en|wc:2|cs:8826|v=4,False,Valiv,Vasai,"22-25, Sheetal Supreme Industrial Estate No. 2 Behind Dhuri Industrial Estate No. 2, Valiv, Vasai - 401208, Dist.Thane, Maharashtra",7942545279,
"Hi5 Adult Diaper Sticker Type Medium, Waist Size: 29""-40''",https://www.indiamart.com/proddetail/hi5-adult-diaper-sticker-type-medium-22246519012.html?pos=19&kwd=adult diapers&tags=A||||8663.873|Price|product|||SSnp|rsf:gd-|-stype:attr=1|qr_nm:gd|res:RC4|com-cf:nl|ptrs:na|ktp:N0|mc:21601|mtp:S|qry_typ:P|lang:en|wc:2|cs:8826|v=4,Saamipya Home Health Private Limited,https://www.indiamart.com/saamipyahomehealth/?pos=19&kwd=adult diapers&tags=A||||8663.873|Price|product|||SSnp|rsf:gd-|-stype:attr=1|qr_nm:gd|res:RC4|com-cf:nl|ptrs:na|ktp:N0|mc:21601|mtp:S|qry_typ:P|lang:en|wc:2|cs:8826|v=4,False,Hosakerehalli,Bengaluru,"644, 1st Cross Road,1st Phase, Girinagar, Hosakerehalli Layout, Banashankari 3rd Stage,Ward No 161, Hosakerehalli, Bengaluru - 560085, Dist.Bengaluru, Karnataka",8048615170,
"Absorbia Adult Diaper, Size: Medium",https://www.indiamart.com/proddetail/absorbia-adult-diaper-13829091730.html?pos=20&kwd=adult diapers&tags=A||||8663.873|Price|product|||TS|rsf:gd-|-stype:attr=1|qr_nm:gd|res:RC4|com-cf:nl|ptrs:na|ktp:N0|mc:21601|mtp:S|qry_typ:P|lang:en|wc:2|cs:8826|v=4,Canadian Global Life And Educare Private Limited,https://www.healthheal.co.in/?pos=20&kwd=adult diapers&tags=A||||8663.873|Price|product|||TS|rsf:gd-|-stype:attr=1|qr_nm:gd|res:RC4|com-cf:nl|ptrs:na|ktp:N0|mc:21601|mtp:S|qry_typ:P|lang:en|wc:2|cs:8826|v=4,False,Vijayanagar,Bengaluru,"No. 2260, 4th A Cross, 1st Main Road, Vijayanagar, Bengaluru - 560040, Dist.Bengaluru, Karnataka",8048608947,
Pull Ups Dr C adult diapers large pants,https://www.indiamart.com/proddetail/dr-c-adult-diapers-large-pants-2852483630662.html?pos=21&kwd=adult diapers&tags=A||||8954.051|Price|product|||TS|rsf:gd-|-stype:attr=1|qr_nm:gd|res:RC4|com-cf:nl|ptrs:na|ktp:N0|mc:21601|mtp:S|qry_typ:P|lang:en|wc:2|cs:8826|v=4,Gayathri Medicare,https://www.indiamart.com/gayathri-medicarechennai/?pos=21&kwd=adult diapers&tags=A||||8954.051|Price|product|||TS|rsf:gd-|-stype:attr=1|qr_nm:gd|res:RC4|com-cf:nl|ptrs:na|ktp:N0|mc:21601|mtp:S|qry_typ:P|lang:en|wc:2|cs:8826|v=4,False,West Mambalam.. 12 sai tower.station road.,Chennai,"No 48,Basement Floor, B-5,Navins Aishwarya Apartment,Brindavan Street,Chennai, West Mambalam.. 12 sai tower.station road., Chennai - 600033, Dist.Chennai, Tamil Nadu",8047552428,
Adults Protective Underwear Careage Adult Diaper Pants Large,https://www.indiamart.com/proddetail/careage-adult-diaper-pants-large-2851615275012.html?pos=22&kwd=adult diapers&tags=A||||8752.144|Price|product|||SSlc|rsf:gd-|-stype:attr=1|qr_nm:gd|res:RC4|com-cf:nl|ptrs:na|ktp:N0|mc:21601|mtp:S|qry_typ:P|lang:en|wc:2|cs:8826|v=4,Recherche World,https://www.rechercheworld.co.in/?pos=22&kwd=adult diapers&tags=A||||8752.144|Price|product|||SSlc|rsf:gd-|-stype:attr=1|qr_nm:gd|res:RC4|com-cf:nl|ptrs:na|ktp:N0|mc:21601|mtp:S|qry_typ:P|lang:en|wc:2|cs:8826|v=4,False,Pandav Nagar,New Delhi,"Near Gurudwara, Ground Floor, A-13-14, Gali No.01, Pandav Nagar, East Delhi, Pandav Nagar, New Delhi - 110092, Dist.Delhi, Delhi",8047312171,
Cotton Overnight Friends Adult Diapers Medium,https://www.indiamart.com/proddetail/overnight-friends-adult-diapers-medium-20466051233.html?pos=23&kwd=adult diapers&tags=A||||8211.142|Price|product|||SSnp|rsf:gd-|-stype:attr=1|qr_nm:gd|res:RC4|com-cf:nl|ptrs:na|ktp:N0|mc:21601|mtp:S|qry_typ:P|lang:en|wc:2|cs:8826|v=4,PAC Healthcare & Surgicals,https://www.healthcaredealer.in/?pos=23&kwd=adult diapers&tags=A||||8211.142|Price|product|||SSnp|rsf:gd-|-stype:attr=1|qr_nm:gd|res:RC4|com-cf:nl|ptrs:na|ktp:N0|mc:21601|mtp:S|qry_typ:P|lang:en|wc:2|cs:8826|v=4,False,Borivali West,Mumbai,"5, Bill Berry Apartment, I. C. Colony, Borivali West, Mumbai - 400103, Dist.Mumbai, Maharashtra",8048960800,
Tidy Adult Diaper Pants Extra Large,https://www.indiamart.com/proddetail/tidy-adult-diaper-pants-extra-large-2854227376055.html?pos=24&kwd=adult diapers&tags=A||||8747.223|Price|product|||LSlc|rsf:gd-|-stype:attr=1|qr_nm:gd|res:RC4|com-cf:nl|ptrs:na|ktp:N0|mc:21601|mtp:S|qry_typ:P|lang:en|wc:2|cs:8826|v=4,Pioneer Hygiene Industries LLP,https://www.pioneerhygiene.co.in/?pos=24&kwd=adult diapers&tags=A||||8747.223|Price|product|||LSlc|rsf:gd-|-stype:attr=1|qr_nm:gd|res:RC4|com-cf:nl|ptrs:na|ktp:N0|mc:21601|mtp:S|qry_typ:P|lang:en|wc:2|cs:8826|v=4,True,,Sonipat,"Kila No. 95//1/1, 12/13, 19 And 22/1/1, Akbarpur Barota, Sonipat - 131103, Dist.Sonipat, Haryana",8045731181,
"30 To 80 Protective Underwear Dreamy's Adult Diaper Large, Packaging Type: Packet, Waist Size: 76-152 Cm",https://www.indiamart.com/proddetail/dreamy-s-adult-diaper-large-21329151430.html?pos=25&kwd=adult diapers&tags=A||||8503.868|Price|product|||TS|rsf:gd-|-stype:attr=1|qr_nm:gd|res:RC4|com-cf:nl|ptrs:na|ktp:N0|mc:21601|mtp:S|qry_typ:P|lang:en|wc:2|cs:8826|v=4,Coble Impex Private Limited,https://www.indiamart.com/cobleimpex/?pos=25&kwd=adult diapers&tags=A||||8503.868|Price|product|||TS|rsf:gd-|-stype:attr=1|qr_nm:gd|res:RC4|com-cf:nl|ptrs:na|ktp:N0|mc:21601|mtp:S|qry_typ:P|lang:en|wc:2|cs:8826|v=4,False,Kakkanad,Kochi,"No. 12/760 B, Manimala Estate, Padamugal Kakkanad, West Post Office, Kakkanad, Kochi - 682030, Dist.Ernakulam, Kerala",8048605079,
"Total Care Adult Diaper, Size: Medium Large",https://www.indiamart.com/proddetail/total-care-adult-diaper-2851542530888.html?pos=26&kwd=adult diapers&tags=A||||8211.142|Price|product|||TS|rsf:gd-|-stype:attr=1|qr_nm:gd|res:RC4|com-cf:nl|ptrs:na|ktp:N0|mc:21601|mtp:S|qry_typ:P|lang:en|wc:2|cs:8826|v=4,Shree Surgicals,https://www.indiamart.com/shreesurgicalsmumbai/?pos=26&kwd=adult diapers&tags=A||||8211.142|Price|product|||TS|rsf:gd-|-stype:attr=1|qr_nm:gd|res:RC4|com-cf:nl|ptrs:na|ktp:N0|mc:21601|mtp:S|qry_typ:P|lang:en|wc:2|cs:8826|v=4,False,Parel,Mumbai,"Shop No. 8,Atit Shopping Enterprise Pvt Ltd,J P Road,Mumbai, Parel, Mumbai - 400053, Dist.Mumbai, Maharashtra",7942817071,
Pull Ups Liberty Eco Adult Diaper Pants Medium - 20,https://www.indiamart.com/proddetail/liberty-eco-adult-diaper-pants-medium-20-2851238764630.html?pos=27&kwd=adult diapers&tags=A||||8211.142|Price|product|||LSnp|rsf:gd-|-stype:attr=1|qr_nm:gd|res:RC4|com-cf:nl|ptrs:na|ktp:N0|mc:21601|mtp:S|qry_typ:P|lang:en|wc:2|cs:8826|v=4,Maxtech,https://www.maxtechhealth.in/?pos=27&kwd=adult diapers&tags=A||||8211.142|Price|product|||LSnp|rsf:gd-|-stype:attr=1|qr_nm:gd|res:RC4|com-cf:nl|ptrs:na|ktp:N0|mc:21601|mtp:S|qry_typ:P|lang:en|wc:2|cs:8826|v=4,False,Rani Sati Marg,Mumbai,"Shop No. 10, Pragati Shopping Centre Manchu Bhai Road, Rani Sati Marg, Mumbai - 400097, Dist.Mumbai, Maharashtra",8048970842,
Pull Ups Adult Diaper Extra Large -10pc Adult Choice,https://www.indiamart.com/proddetail/adult-diaper-extra-large-10pc-adult-choice-2851613387373.html?pos=28&kwd=adult diapers&tags=A||||8211.142|Price|product|||TS|rsf:gd-|-stype:attr=1|qr_nm:gd|res:RC4|com-cf:nl|ptrs:na|ktp:N0|mc:21601|mtp:S|qry_typ:P|lang:en|wc:2|cs:8826|v=4,Maxtech Healthcare Private Limited,https://www.indiamart.com/maxtech-healthcare/?pos=28&kwd=adult diapers&tags=A||||8211.142|Price|product|||TS|rsf:gd-|-stype:attr=1|qr_nm:gd|res:RC4|com-cf:nl|ptrs:na|ktp:N0|mc:21601|mtp:S|qry_typ:P|lang:en|wc:2|cs:8826|v=4,False,Kandivali West,Mumbai,"Shop No. 10, Near Railway Station, Malad East, Pragati Shopping Center, Kandivali West, Mumbai - 400097, Dist.Mumbai, Maharashtra",8046077581,
"Friends Ultra Thin Adult Diapers Pant, Size: Medium",https://www.indiamart.com/proddetail/friends-ultra-thin-adult-diapers-pant-2853252270533.html?pos=29&kwd=adult diapers&tags=A||||8767.009|Price|product|||TS|rsf:gd-|-stype:attr=1|qr_nm:gd|res:RC4|com-cf:nl|ptrs:na|ktp:N0|mc:21601|mtp:S|qry_typ:P|lang:en|wc:2|cs:8826|v=4,Dakshu Enterprise,https://www.indiamart.com/dakshu-enterprise/?pos=29&kwd=adult diapers&tags=A||||8767.009|Price|product|||TS|rsf:gd-|-stype:attr=1|qr_nm:gd|res:RC4|com-cf:nl|ptrs:na|ktp:N0|mc:21601|mtp:S|qry_typ:P|lang:en|wc:2|cs:8826|v=4,False,,Baghpat,"0,,Delhi Saharanpur road,Baghpat, Baghpat - 250609, Dist.Bagpat, Uttar Pradesh",7949339950,
E Zoy Plus Adult Diaper Pants Large,https://www.indiamart.com/proddetail/e-zoy-plus-adult-diaper-pants-large-2853596159530.html?pos=30&kwd=adult diapers&tags=A||||8228.275|Price|product|||TS|rsf:gd-|-stype:attr=1|qr_nm:gd|res:RC4|com-cf:nl|ptrs:na|ktp:N0|mc:21601|mtp:S|qry_typ:P|lang:en|wc:2|cs:8826|v=4,Shagun Enterprise,https://www.indiamart.com/shagun-enterpriseahmedabad/?pos=30&kwd=adult diapers&tags=A||||8228.275|Price|product|||TS|rsf:gd-|-stype:attr=1|qr_nm:gd|res:RC4|com-cf:nl|ptrs:na|ktp:N0|mc:21601|mtp:S|qry_typ:P|lang:en|wc:2|cs:8826|v=4,False,Saraspur,Ahmedabad,"4th Floor Block G, 415, City Center, NR Idgha Gate, NR Girdharnagar Bridge, Asarwa,, Saraspur, Ahmedabad - 380016, Dist.Ahmedabad, Gujarat",7949226972,
Unipro Adult Diapers,https://www.indiamart.com/proddetail/unipro-adult-diapers-13588775662.html?pos=31&kwd=adult diapers&tags=A||||8954.051|Price|product|||SSlc|rsf:gd-|-stype:attr=1|qr_nm:gd|res:RC4|com-cf:nl|ptrs:na|ktp:N0|mc:21601|mtp:S|qry_typ:P|lang:en|wc:2|cs:8826|v=4,Universe Surgical Equipment Co.,https://www.viaaan.com/?pos=31&kwd=adult diapers&tags=A||||8954.051|Price|product|||SSlc|rsf:gd-|-stype:attr=1|qr_nm:gd|res:RC4|com-cf:nl|ptrs:na|ktp:N0|mc:21601|mtp:S|qry_typ:P|lang:en|wc:2|cs:8826|v=4,True,Park Town,Chennai,"No. 10/8, North Usman Road, T Nagar, Health & Glow, Park Town, Park Town, Chennai - 600003, Dist.Chennai, Tamil Nadu",8048264899,
"Tape Briefs SENI AIR CLASSIC ADULT DIAPER SMALL 10, Size: 55 * 80 Cms",https://www.indiamart.com/proddetail/seni-air-classic-adult-diaper-small-10-2851271170291.html?pos=32&kwd=adult diapers&tags=A||||8663.873|Price|product|||LSnp|rsf:gd-|-stype:attr=1|qr_nm:gd|res:RC4|com-cf:nl|ptrs:na|ktp:N0|mc:21601|mtp:S|qry_typ:P|lang:en|wc:2|cs:8826|v=4,TZMO India South Private Limited,https://www.indiamart.com/tzmoindiasouth/?pos=32&kwd=adult diapers&tags=A||||8663.873|Price|product|||LSnp|rsf:gd-|-stype:attr=1|qr_nm:gd|res:RC4|com-cf:nl|ptrs:na|ktp:N0|mc:21601|mtp:S|qry_typ:P|lang:en|wc:2|cs:8826|v=4,False,New Timber Yard Layout,Bengaluru,"No.2, 1st Floor, Featherlite Building, Mysore Road, New Timber Yard Layout, New Timber Yard Layout, Bengaluru - 560026, Dist.Bengaluru, Karnataka",8048619127,
Cotton Premium Adult Diapers,https://www.indiamart.com/proddetail/premium-adult-diapers-2853065996312.html?pos=33&kwd=adult diapers&tags=A||||8230.883|Price|product|||TS|rsf:gd-|-stype:attr=1|qr_nm:gd|res:RC4|com-cf:nl|ptrs:na|ktp:N0|mc:21601|mtp:S|qry_typ:P|lang:en|wc:2|cs:8826|v=4,Shanti Medicare,https://www.indiamart.com/shanti-medicare/?pos=33&kwd=adult diapers&tags=A||||8230.883|Price|product|||TS|rsf:gd-|-stype:attr=1|qr_nm:gd|res:RC4|com-cf:nl|ptrs:na|ktp:N0|mc:21601|mtp:S|qry_typ:P|lang:en|wc:2|cs:8826|v=4,False,126 shardha row row house,Surat,"S 20, Swastik Plaza, Yogi Chowk,, 126 shardha row row house, Surat - 395010, Dist.Surat, Gujarat",7942835980,
Loose Adult Diaper,https://www.indiamart.com/proddetail/loose-adult-diaper-23952633830.html?pos=34&kwd=adult diapers&tags=A||||8228.275|Price|product|||TS|rsf:gd-|-stype:attr=1|qr_nm:gd|res:RC4|com-cf:nl|ptrs:na|ktp:N0|mc:21601|mtp:S|qry_typ:P|lang:en|wc:2|cs:8826|v=4,Akshaya Enterprise,https://www.indiamart.com/akshayaenterpriseahmedabad/?pos=34&kwd=adult diapers&tags=A||||8228.275|Price|product|||TS|rsf:gd-|-stype:attr=1|qr_nm:gd|res:RC4|com-cf:nl|ptrs:na|ktp:N0|mc:21601|mtp:S|qry_typ:P|lang:en|wc:2|cs:8826|v=4,False,Dudheshwar,Ahmedabad,"C-103, First Floor, Shri Hari Residency, Near Sakar School, New C.G. Road, Chandkheda, Dudheshwar, Ahmedabad - 382424, Dist.Ahmedabad, Gujarat",8048983196,
Pull Ups Pant Style Adult Diaper,https://www.indiamart.com/proddetail/pant-style-adult-diaper-19728669497.html?pos=35&kwd=adult diapers&tags=A||||8038.093|Price|product|||TS|rsf:gd-|-stype:attr=1|qr_nm:gd|res:RC4|com-cf:nl|ptrs:na|ktp:N0|mc:21601|mtp:S|qry_typ:P|lang:en|wc:2|cs:8826|v=4,BM Hygienecare LLP,https://www.bmhygienecare.com/?pos=35&kwd=adult diapers&tags=A||||8038.093|Price|product|||TS|rsf:gd-|-stype:attr=1|qr_nm:gd|res:RC4|com-cf:nl|ptrs:na|ktp:N0|mc:21601|mtp:S|qry_typ:P|lang:en|wc:2|cs:8826|v=4,False,Dhokaliya,Rajkot,"Madhapar Chowkdi Rajkot- Jamnagar Highway, Dhokaliya, Rajkot - 360007, Dist.Rajkot, Gujarat",8047642184,
Disposable Adult Diaper,https://www.indiamart.com/proddetail/disposable-adult-diaper-2851488751588.html?pos=36&kwd=adult diapers&tags=A||||8954.051|Price|product|||TS|rsf:gd-|-stype:attr=1|qr_nm:gd|res:RC4|com-cf:nl|ptrs:na|ktp:N0|mc:21601|mtp:S|qry_typ:P|lang:en|wc:2|cs:8826|v=4,Parasuraman Enterprises,https://www.parasuramanenterprises.com/?pos=36&kwd=adult diapers&tags=A||||8954.051|Price|product|||TS|rsf:gd-|-stype:attr=1|qr_nm:gd|res:RC4|com-cf:nl|ptrs:na|ktp:N0|mc:21601|mtp:S|qry_typ:P|lang:en|wc:2|cs:8826|v=4,False,Seven Wells,Chennai,"Ground Floor, Old No.67 New No. 124, Sevenwells, Thaiyappan Street, Seven Wells, Chennai - 600001, Dist.Chennai, Tamil Nadu",7942844310,
Above 15 Pull Ups Adult Incontinence Diaper,https://www.indiamart.com/proddetail/adult-incontinence-diaper-2851913869562.html?pos=37&kwd=adult diapers&tags=A||||8038.093|Price|product|||TS|rsf:gd-|-stype:attr=1|qr_nm:gd|res:RC4|com-cf:nl|ptrs:na|ktp:N0|mc:21601|mtp:S|qry_typ:P|lang:en|wc:2|cs:8826|v=4,Rotech Healthcare Private Limited,https://www.lyfcareadultdiaper.com/?pos=37&kwd=adult diapers&tags=A||||8038.093|Price|product|||TS|rsf:gd-|-stype:attr=1|qr_nm:gd|res:RC4|com-cf:nl|ptrs:na|ktp:N0|mc:21601|mtp:S|qry_typ:P|lang:en|wc:2|cs:8826|v=4,True,Near ankit ind.area,Rajkot,"Survey No.343, Plot No. 2 Rotech Healthcare pvt ltd Behind rotec submersible pumps llp, Near ankit ind.area, Rajkot - 360024, Dist.Rajkot, Gujarat",8047653782,
Prime Adult Diaper,https://www.indiamart.com/proddetail/prime-adult-diaper-2854312028255.html?pos=38&kwd=adult diapers&tags=A||||8550.327|Price|product|||TS|rsf:gd-|-stype:attr=1|qr_nm:gd|res:RC4|com-cf:nl|ptrs:na|ktp:N0|mc:21601|mtp:S|qry_typ:P|lang:en|wc:2|cs:8826|v=4,Prime Enterprises,https://www.indiamart.com/prime-enterprises-palakkad/?pos=38&kwd=adult diapers&tags=A||||8550.327|Price|product|||TS|rsf:gd-|-stype:attr=1|qr_nm:gd|res:RC4|com-cf:nl|ptrs:na|ktp:N0|mc:21601|mtp:S|qry_typ:P|lang:en|wc:2|cs:8826|v=4,False,Palakkdam,Palakkad,"27/309, Thachilot Building, Manapullikavu, Palakkdam, Palakkad - 678013, Dist.Palakkad, Kerala",8046067395,
Briefs Medium Size Adult Diaper,https://www.indiamart.com/proddetail/medium-size-adult-diaper-2853470257297.html?pos=39&kwd=adult diapers&tags=A||||8559.269|Price|product|||SSnp|rsf:gd-|-stype:attr=1|qr_nm:gd|res:RC4|com-cf:nl|ptrs:na|ktp:N0|mc:21601|mtp:S|qry_typ:P|lang:en|wc:2|cs:8826|v=4,Madhav Overseas Corporation,https://www.madhavoverseascorporation.net/?pos=39&kwd=adult diapers&tags=A||||8559.269|Price|product|||SSnp|rsf:gd-|-stype:attr=1|qr_nm:gd|res:RC4|com-cf:nl|ptrs:na|ktp:N0|mc:21601|mtp:S|qry_typ:P|lang:en|wc:2|cs:8826|v=4,False,Atal Khel Parisar Main Road,Indore,"Madhav Corporate Scheme No 78 , Sector D ,Plot No 4,, Atal Khel Parisar Main Road, Indore - 452010, Dist.Indore, Madhya Pradesh",8048980263,
"Friends Large Pull Ups Adult Diaper, 10 Pic",https://www.indiamart.com/proddetail/friends-large-pull-ups-adult-diaper-26403635797.html?pos=40&kwd=adult diapers&tags=A||||8281.036|Price|product|||TS|rsf:gd-|-stype:attr=1|qr_nm:gd|res:RC4|com-cf:nl|ptrs:na|ktp:N0|mc:21601|mtp:S|qry_typ:P|lang:en|wc:2|cs:8826|v=4,Novelty Hosiery,https://www.indiamart.com/novelty-hosiery/?pos=40&kwd=adult diapers&tags=A||||8281.036|Price|product|||TS|rsf:gd-|-stype:attr=1|qr_nm:gd|res:RC4|com-cf:nl|ptrs:na|ktp:N0|mc:21601|mtp:S|qry_typ:P|lang:en|wc:2|cs:8826|v=4,False,Chokshi Bazar,Vadodara,"M G Road 00 Laheripura Gate Nr Angadiya Gali, Chokshi Bazar, Vadodara - 390001, Dist.Vadodara, Gujarat",7942565948,
Nonwoven Disposable Adult Diaper,https://www.indiamart.com/proddetail/disposable-adult-diaper-2852404609112.html?pos=41&kwd=adult diapers&tags=A||||8038.093|Price|product|||TS|rsf:gd-|-stype:attr=1|qr_nm:gd|res:RC4|com-cf:nl|ptrs:na|ktp:N0|mc:21601|mtp:S|qry_typ:P|lang:en|wc:2|cs:8826|v=4,Glowlyf Tradelink Private Limited,https://www.indiamart.com/glowlyftradelinkprivatelimited/?pos=41&kwd=adult diapers&tags=A||||8038.093|Price|product|||TS|rsf:gd-|-stype:attr=1|qr_nm:gd|res:RC4|com-cf:nl|ptrs:na|ktp:N0|mc:21601|mtp:S|qry_typ:P|lang:en|wc:2|cs:8826|v=4,False,GIDC,Rajkot,"Gidc 2, Plot No 136, Opp. R M Steel, Aji Industrial Estate, Rajkot Industrial Area Dhamalpar, GIDC, Rajkot - 360003, Dist.Rajkot, Gujarat",7942711689,
"Econap Adult Diaper, Size: Small",https://www.indiamart.com/proddetail/econap-adult-diaper-2853647843462.html?pos=42&kwd=adult diapers&tags=A||||8954.051|Price|product|||TS|rsf:gd-|-stype:attr=1|qr_nm:gd|res:RC4|com-cf:nl|ptrs:na|ktp:N0|mc:21601|mtp:S|qry_typ:P|lang:en|wc:2|cs:8826|v=4,Realcare Hygienic Products Private Limited,https://www.realcarefmcg.com/?pos=42&kwd=adult diapers&tags=A||||8954.051|Price|product|||TS|rsf:gd-|-stype:attr=1|qr_nm:gd|res:RC4|com-cf:nl|ptrs:na|ktp:N0|mc:21601|mtp:S|qry_typ:P|lang:en|wc:2|cs:8826|v=4,False,Sidco Industrial Estate,Chennai,"No 69 C, Sidco Industrial Estate, 12th Street, Ambattur, Sidco Industrial Estate, Chennai - 600098, Dist.Chennai, Tamil Nadu",8046064437,
Adult Diaper Pants xl,https://www.indiamart.com/proddetail/adult-diaper-pants-xl-2853951962748.html?pos=43&kwd=adult diapers&tags=A||||8876.815|Price|product|||TS|rsf:gd-|-stype:attr=1|qr_nm:gd|res:RC4|com-cf:nl|ptrs:na|ktp:N0|mc:21601|mtp:S|qry_typ:P|lang:en|wc:2|cs:8826|v=4,Jindal Tradelinks,https://www.indiamart.com/jindaltradelinksnagpur/?pos=43&kwd=adult diapers&tags=A||||8876.815|Price|product|||TS|rsf:gd-|-stype:attr=1|qr_nm:gd|res:RC4|com-cf:nl|ptrs:na|ktp:N0|mc:21601|mtp:S|qry_typ:P|lang:en|wc:2|cs:8826|v=4,False,Sitabuldi,Nagpur,"House No. 330, Jindal House, Sitabuldi, Nagpur - 440012, Dist.Nagpur, Maharashtra",7942536296,
DISPOSABLE ADULT DIAPER STICKY TYPES.,https://www.indiamart.com/proddetail/disposable-adult-diaper-sticky-types-24385224897.html?pos=44&kwd=adult diapers&tags=A||||8503.868|Price|product|||TS|rsf:gd-|-stype:attr=1|qr_nm:gd|res:RC4|com-cf:nl|ptrs:na|ktp:N0|mc:21601|mtp:S|qry_typ:P|lang:en|wc:2|cs:8826|v=4,Fasten Medical Private Limited,https://www.indiamart.com/fasten-medical/?pos=44&kwd=adult diapers&tags=A||||8503.868|Price|product|||TS|rsf:gd-|-stype:attr=1|qr_nm:gd|res:RC4|com-cf:nl|ptrs:na|ktp:N0|mc:21601|mtp:S|qry_typ:P|lang:en|wc:2|cs:8826|v=4,False,Karukutty,Kochi,"2/290a,ground Floor, Fasten Medical Pvt Ltd, Aseezi Nagar Road, Mambra, Karukutty, ,, Karukutty, Kochi - 683576, Dist.Ernakulam, Kerala",8048617782,
Tape Briefs Novel Adult Diaper ( L),https://www.indiamart.com/proddetail/novel-adult-diaper-l-2850757430791.html?pos=45&kwd=adult diapers&tags=A||||8741.812|Price|product|||TS|rsf:gd-|-stype:attr=1|qr_nm:gd|res:RC4|com-cf:nl|ptrs:na|ktp:N0|mc:21601|mtp:S|qry_typ:P|lang:en|wc:2|cs:8826|v=4,Vardhman Medicare Agencies,https://www.vardhmanmedicareagencies.in/?pos=45&kwd=adult diapers&tags=A||||8741.812|Price|product|||TS|rsf:gd-|-stype:attr=1|qr_nm:gd|res:RC4|com-cf:nl|ptrs:na|ktp:N0|mc:21601|mtp:S|qry_typ:P|lang:en|wc:2|cs:8826|v=4,False,Sikanderpur,Gurgaon,"Shop No. - 3 , Sikanderpur Badha, Sikanderpur, Gurgaon - 122004, Dist.Gurgaon, Haryana",8047658602,
Protective Underwear UNIFIT EVERYDRY ADULT DIAPER (LARGE),https://www.indiamart.com/proddetail/unifit-everydry-adult-diaper-large-2854052209597.html?pos=46&kwd=adult diapers&tags=A||||9140.514|Price|product|||TS|rsf:gd-|-stype:attr=1|qr_nm:gd|res:RC4|com-cf:nl|ptrs:na|ktp:N0|mc:21601|mtp:S|qry_typ:P|lang:en|wc:2|cs:8826|v=4,Daksh Healthcare,https://www.uniequip.in/?pos=46&kwd=adult diapers&tags=A||||9140.514|Price|product|||TS|rsf:gd-|-stype:attr=1|qr_nm:gd|res:RC4|com-cf:nl|ptrs:na|ktp:N0|mc:21601|mtp:S|qry_typ:P|lang:en|wc:2|cs:8826|v=4,False,Tatibandh,Raipur,"Below 6th Gear, Royal Enfield Showroom GE Road, Tatibandh, Beside Mangalam Motors, Tatibandh, Raipur - 492001, Chhattisgarh",8046043030,
"Plain Kare In Adult Diapers, Packaging Size: Medium",https://www.indiamart.com/proddetail/kare-in-adult-diapers-23842538648.html?pos=47&kwd=adult diapers&tags=A||||9870.655|Price|product|||TS|rsf:gd-|-stype:attr=1|qr_nm:gd|res:RC4|com-cf:nl|ptrs:na|ktp:N0|mc:21601|mtp:S|qry_typ:P|lang:en|wc:2|cs:8826|v=4,Bengal Feminine Care,https://www.indiamart.com/bengal-feminine-care/?pos=47&kwd=adult diapers&tags=A||||9870.655|Price|product|||TS|rsf:gd-|-stype:attr=1|qr_nm:gd|res:RC4|com-cf:nl|ptrs:na|ktp:N0|mc:21601|mtp:S|qry_typ:P|lang:en|wc:2|cs:8826|v=4,False,Barasat,Habra,"Habra, No. 2 ,Railway Gate, District North 24 Parganas, Barasat, Habra - 743263, Dist.North 24 Parganas, West Bengal",8046062955,
Velcro Pull Up Adult Diaper MEDIUM,https://www.indiamart.com/proddetail/pull-up-adult-diaper-medium-23022681462.html?pos=48&kwd=adult diapers&tags=A||||8237.554|Price|product|||MDC|rsf:gd-|-stype:attr=1|qr_nm:gd|res:RC4|com-cf:nl|ptrs:na|ktp:N0|mc:21601|mtp:S|qry_typ:P|lang:en|wc:2|cs:8826|v=4,Stoe Life Private Limited,https://www.indiamart.com/stoelife-gujarat/?pos=48&kwd=adult diapers&tags=A||||8237.554|Price|product|||MDC|rsf:gd-|-stype:attr=1|qr_nm:gd|res:RC4|com-cf:nl|ptrs:na|ktp:N0|mc:21601|mtp:S|qry_typ:P|lang:en|wc:2|cs:8826|v=4,False,Sector 6,Gandhinagar,"Unit C/5,Gujarat Garment Co-operative Industrial Estate, Airport Road,Koba, Sector 6, Gandhinagar - 382006, Gujarat",8048979339,
"Adult Diaper Pants, Size: XL",https://www.indiamart.com/proddetail/adult-diaper-pants-2854909706897.html?pos=49&kwd=adult diapers&tags=A||||8752.144|Price|product|||MDC|rsf:gd-|-stype:attr=1|qr_nm:gd|res:RC4|com-cf:nl|ptrs:na|ktp:N0|mc:21601|mtp:S|qry_typ:P|lang:en|wc:2|cs:8826|v=4,Aksh Trading,https://www.indiamart.com/aksh-trading/?pos=49&kwd=adult diapers&tags=A||||8752.144|Price|product|||MDC|rsf:gd-|-stype:attr=1|qr_nm:gd|res:RC4|com-cf:nl|ptrs:na|ktp:N0|mc:21601|mtp:S|qry_typ:P|lang:en|wc:2|cs:8826|v=4,False,Vikaspuri,New Delhi,"Flat No. 13A, CGHS Evershine Apartment, Vikash Puri, North West, Vikaspuri, New Delhi - 110018, Dist.Delhi, Delhi",7942660706,
Adult Diaper Pant Style Large Waist Size 30-48 Inch,https://www.indiamart.com/proddetail/adult-diaper-pant-style-large-waist-size-30-48-inch-2854885005173.html?pos=50&kwd=adult diapers&tags=A||||8228.275|Price|product|||TS|rsf:gd-|-stype:attr=1|qr_nm:gd|res:RC4|com-cf:nl|ptrs:na|ktp:N0|mc:21601|mtp:S|qry_typ:P|lang:en|wc:2|cs:8826|v=4,Patoliya Exports Private Limited,https://www.indiamart.com/patoliya-exports-ahmedabad/?pos=50&kwd=adult diapers&tags=A||||8228.275|Price|product|||TS|rsf:gd-|-stype:attr=1|qr_nm:gd|res:RC4|com-cf:nl|ptrs:na|ktp:N0|mc:21601|mtp:S|qry_typ:P|lang:en|wc:2|cs:8826|v=4,False,OPP GVMM,Ahmedabad,"B-62, Bileshwar Industrial Estate, OPP GVMM, Ahmedabad - 382415, Dist.Ahmedabad, Gujarat",8044458925,
Dr Nixon Adult Diapers,https://www.indiamart.com/proddetail/dr-nixon-adult-diapers-2853901788662.html?pos=51&kwd=adult diapers&tags=A||||8752.144|Price|product|||MDC|rsf:gd-|-stype:attr=1|qr_nm:gd|res:RC4|com-cf:nl|ptrs:na|ktp:N0|mc:21601|mtp:S|qry_typ:P|lang:en|wc:2|cs:8826|v=4,Secure Healthkare & Surgical,https://www.indiamart.com/secure-healthkare-surgical/?pos=51&kwd=adult diapers&tags=A||||8752.144|Price|product|||MDC|rsf:gd-|-stype:attr=1|qr_nm:gd|res:RC4|com-cf:nl|ptrs:na|ktp:N0|mc:21601|mtp:S|qry_typ:P|lang:en|wc:2|cs:8826|v=4,False,Rama Vihar,New Delhi,"1266-A Khasra No 80/4 BLK B ,Jain Nagar Road North West Delhi, Rama Vihar, New Delhi - 110081, Dist.Delhi, Delhi",8044012216,
"Pant Type Adult Diaper, Medium",https://www.indiamart.com/proddetail/pant-type-adult-diaper-2854593414262.html?pos=52&kwd=adult diapers&tags=A||||8624.416|Price|product|||MDC|rsf:gd-|-stype:attr=1|qr_nm:gd|res:RC4|com-cf:nl|ptrs:na|ktp:N0|mc:21601|mtp:S|qry_typ:P|lang:en|wc:2|cs:8826|v=4,Supertech Surgical Company,https://www.indiamart.com/supertech-surgical-company/?pos=52&kwd=adult diapers&tags=A||||8624.416|Price|product|||MDC|rsf:gd-|-stype:attr=1|qr_nm:gd|res:RC4|com-cf:nl|ptrs:na|ktp:N0|mc:21601|mtp:S|qry_typ:P|lang:en|wc:2|cs:8826|v=4,False,Shiv Nagar,Hisar,"Shop No. 1, Millgate Area, Shiv Nagar, Shiv Nagar, Hisar - 125001, Dist.Hisar, Haryana",8047642534,
"Extra Large Disposable Adult Diapers, XL",https://www.indiamart.com/proddetail/white-non-woven-adult-diapers-2854494780355.html?pos=53&kwd=adult diapers&tags=A||||8786.56|Price|product|||MDC|rsf:gd-|-stype:attr=1|qr_nm:gd|res:RC4|com-cf:nl|ptrs:na|ktp:N0|mc:21601|mtp:S|qry_typ:P|lang:en|wc:2|cs:8826|v=4,Popok Health Care,https://www.indiamart.com/popok-healthcare/?pos=53&kwd=adult diapers&tags=A||||8786.56|Price|product|||MDC|rsf:gd-|-stype:attr=1|qr_nm:gd|res:RC4|com-cf:nl|ptrs:na|ktp:N0|mc:21601|mtp:S|qry_typ:P|lang:en|wc:2|cs:8826|v=4,False,,Hyderabad,"24-134, Anandbagh Medchal Malkajgiri, Hyderabad - 500047, Dist.Hyderabad, Telangana",7949330487,
Premium XL Adult Diapers Pant,https://www.indiamart.com/proddetail/premium-xl-adult-diapers-pant-2854424215991.html?pos=54&kwd=adult diapers&tags=A||||8228.275|Price|product|||MDC|rsf:gd-|-stype:attr=1|qr_nm:gd|res:RC4|com-cf:nl|ptrs:na|ktp:N0|mc:21601|mtp:S|qry_typ:P|lang:en|wc:2|cs:8826|v=4,Protect Healthcare,https://www.indiamart.com/protect-healthcare-ahmedabad/?pos=54&kwd=adult diapers&tags=A||||8228.275|Price|product|||MDC|rsf:gd-|-stype:attr=1|qr_nm:gd|res:RC4|com-cf:nl|ptrs:na|ktp:N0|mc:21601|mtp:S|qry_typ:P|lang:en|wc:2|cs:8826|v=4,False,,Ahmedabad,"2/1, Ramvila Hights, UMA Vidhyalay Road, Gopal Chowk ,Nikol, Ahmedabad - 382350, Dist.Ahmedabad, Gujarat",7949337627,
"Pull Ups Adult Diaper Pants, Size: M L Xl Xxl",https://www.indiamart.com/proddetail/adult-diaper-pants-2852535065533.html?pos=55&kwd=adult diapers&tags=A||||8830.079|Price|product|||MDC|rsf:gd-|-stype:attr=1|qr_nm:gd|res:RC4|com-cf:nl|ptrs:na|ktp:N0|mc:21601|mtp:S|qry_typ:P|lang:en|wc:2|cs:8826|v=4,Thara Traders Propx. Thara Senthilkumar,https://www.indiamart.com/thara-traders/?pos=55&kwd=adult diapers&tags=A||||8830.079|Price|product|||MDC|rsf:gd-|-stype:attr=1|qr_nm:gd|res:RC4|com-cf:nl|ptrs:na|ktp:N0|mc:21601|mtp:S|qry_typ:P|lang:en|wc:2|cs:8826|v=4,False,Sathuvachari,Vellore,"546/2 Nethajibose Main Road, Tnhb, Phase 3, Vallalar A.r.complex,1st Floor, Nethaji Bose Main Road, Sathuvachari, Vellore - 632009, Dist.Vellore, Tamil Nadu",8048605071,
"Dreamease Adult Pant M Size Diapers, Medium",https://www.indiamart.com/proddetail/dreamease-adult-pant-m-size-diapers-2854250678555.html?pos=56&kwd=adult diapers&tags=A||||8751.045|Price|product|||MDC|rsf:gd-|-stype:attr=1|qr_nm:gd|res:RC4|com-cf:nl|ptrs:na|ktp:N0|mc:21601|mtp:S|qry_typ:P|lang:en|wc:2|cs:8826|v=4,Aurum Medicare Private Limited,https://www.indiamart.com/aurum-medicare/?pos=56&kwd=adult diapers&tags=A||||8751.045|Price|product|||MDC|rsf:gd-|-stype:attr=1|qr_nm:gd|res:RC4|com-cf:nl|ptrs:na|ktp:N0|mc:21601|mtp:S|qry_typ:P|lang:en|wc:2|cs:8826|v=4,False,,Baddi,"Himuda, 86 Phase-4, Plot No 86, Industrial Area Baddi, Himuda Industrial Area,, Baddi - 173205, Dist.Solan, Himachal Pradesh",8045737950,
"AroKleen Premium Adult Diapers Tape Style, Medium",https://www.indiamart.com/proddetail/arokleen-premium-adult-diapers-tape-style-2854573856388.html?pos=57&kwd=adult diapers&tags=A||||8752.144||product|||MDC|rsf:gd-|-stype:attr=1|qr_nm:gd|res:RC4|com-cf:nl|ptrs:na|ktp:N0|mc:21601|mtp:S|qry_typ:P|lang:en|wc:2|cs:8826|v=4,Paramount Surgimed Ltd.,https://www.indiamart.com/osimindia/?pos=57&kwd=adult diapers&tags=A||||8752.144||product|||MDC|rsf:gd-|-stype:attr=1|qr_nm:gd|res:RC4|com-cf:nl|ptrs:na|ktp:N0|mc:21601|mtp:S|qry_typ:P|lang:en|wc:2|cs:8826|v=4,False,Tehkhand,New Delhi,"No. 1, L. S. C., Okhla Industrial Area, Phase 2, Tehkhand, New Delhi - 110020, Dist.Delhi, Delhi",8048967635,
"Uphealthy Adult Diapers, Medium",https://www.indiamart.com/proddetail/uphealthy-adult-diapers-23981421491.html?pos=58&kwd=adult diapers&tags=A||||8954.051|Price|product|||TS|rsf:gd-|-stype:attr=1|qr_nm:gd|res:RC4|com-cf:nl|ptrs:na|ktp:N0|mc:21601|mtp:S|qry_typ:P|lang:en|wc:2|cs:8826|v=4,Happy Zone Health Store,https://www.happyzonehealthstore.com/?pos=58&kwd=adult diapers&tags=A||||8954.051|Price|product|||TS|rsf:gd-|-stype:attr=1|qr_nm:gd|res:RC4|com-cf:nl|ptrs:na|ktp:N0|mc:21601|mtp:S|qry_typ:P|lang:en|wc:2|cs:8826|v=4,False,Mylapore,Chennai,"NO.61 NACHIAPPA ST,MYLAPORE, Mylapore, Chennai - 600004, Dist.Chennai, Tamil Nadu",8046074663,
"Pull Ups Relieve Adult Diapers, Size: Xl",https://www.indiamart.com/proddetail/relieve-adult-diapers-23643626748.html?pos=59&kwd=adult diapers&tags=A||||8954.051|Price|product|||SSnp|rsf:gd-|-stype:attr=1|qr_nm:gd|res:RC4|com-cf:nl|ptrs:na|ktp:N0|mc:21601|mtp:S|qry_typ:P|lang:en|wc:2|cs:8826|v=4,Murugan Surgicals,https://www.murugansurgicals.co.in/?pos=59&kwd=adult diapers&tags=A||||8954.051|Price|product|||SSnp|rsf:gd-|-stype:attr=1|qr_nm:gd|res:RC4|com-cf:nl|ptrs:na|ktp:N0|mc:21601|mtp:S|qry_typ:P|lang:en|wc:2|cs:8826|v=4,False,Mint Building,Chennai,"Old No.34/35 Newno.87, Walltax Road, Mint Building, Chennai - 600001, Dist.Chennai, Tamil Nadu",8048974268,
Disposable Adult Diaper,https://www.indiamart.com/proddetail/disposable-adult-diaper-2851571488412.html?pos=60&kwd=adult diapers&tags=A||||8484.98||product|||MDC|rsf:gd-|-stype:attr=1|qr_nm:gd|res:RC4|com-cf:nl|ptrs:na|ktp:N0|mc:21601|mtp:S|qry_typ:P|lang:en|wc:2|cs:8826|v=4,Vitomed Healthcare Private Limited,https://www.indiamart.com/vitomedhealthcare/?pos=60&kwd=adult diapers&tags=A||||8484.98||product|||MDC|rsf:gd-|-stype:attr=1|qr_nm:gd|res:RC4|com-cf:nl|ptrs:na|ktp:N0|mc:21601|mtp:S|qry_typ:P|lang:en|wc:2|cs:8826|v=4,False,LIG Colony,Dhar,"101,L.I.G Colony Veer Savarkar Nagar,Dhar, LIG Colony, Dhar - 454001, Dist.Dhar, Madhya Pradesh",8045907242,
"wellstep adult diaper L10, Large",https://www.indiamart.com/proddetail/wellstep-adult-diaper-l-size-10pcs-2854832061255.html?pos=61&kwd=adult diapers&tags=A||||8230.883|Price|product|||MDC|rsf:gd-|-stype:attr=1|qr_nm:gd|res:RC4|com-cf:nl|ptrs:na|ktp:N0|mc:21601|mtp:S|qry_typ:P|lang:en|wc:2|cs:8826|v=4,V R Barot,https://www.indiamart.com/v-r-barot/?pos=61&kwd=adult diapers&tags=A||||8230.883|Price|product|||MDC|rsf:gd-|-stype:attr=1|qr_nm:gd|res:RC4|com-cf:nl|ptrs:na|ktp:N0|mc:21601|mtp:S|qry_typ:P|lang:en|wc:2|cs:8826|v=4,False,Bhagvati Nagar Housing Society,Surat,"B-19, Bhagavati Nagar Soc, Jahangirpura, Bhagvati Nagar Housing Society, Surat - 395005, Dist.Surat, Gujarat",7942968850,
Bon Bon Classic Adult Diaper Tape Style,https://www.indiamart.com/proddetail/bon-bon-classic-adult-diaper-tape-style-2854472942733.html?pos=62&kwd=adult diapers&tags=A||||8786.56|Price|product|||MDC|rsf:gd-|-stype:attr=1|qr_nm:gd|res:RC4|com-cf:nl|ptrs:na|ktp:N0|mc:21601|mtp:S|qry_typ:P|lang:en|wc:2|cs:8826|v=4,N K Corporation,https://www.indiamart.com/nkcorporation-telangana/?pos=62&kwd=adult diapers&tags=A||||8786.56|Price|product|||MDC|rsf:gd-|-stype:attr=1|qr_nm:gd|res:RC4|com-cf:nl|ptrs:na|ktp:N0|mc:21601|mtp:S|qry_typ:P|lang:en|wc:2|cs:8826|v=4,False,,Hyderabad,"14-3-239,Goshamahal,, Hyderabad - 500012, Dist.Hyderabad, Telangana",8048982215,
Quick Care XL Adult Diaper,https://www.indiamart.com/proddetail/quick-care-xl-adult-diaper-23155723133.html?pos=63&kwd=adult diapers&tags=A||||8476.868|Price|product|||MDC|rsf:gd-|-stype:attr=1|qr_nm:gd|res:RC4|com-cf:nl|ptrs:na|ktp:N0|mc:21601|mtp:S|qry_typ:P|lang:en|wc:2|cs:8826|v=4,Ramkrushna Pharma Distributors,https://www.indiamart.com/ramkrushna-pharma-distributors/?pos=63&kwd=adult diapers&tags=A||||8476.868|Price|product|||MDC|rsf:gd-|-stype:attr=1|qr_nm:gd|res:RC4|com-cf:nl|ptrs:na|ktp:N0|mc:21601|mtp:S|qry_typ:P|lang:en|wc:2|cs:8826|v=4,False,,Aurangabad,"Upper Floor, Shop No 10, Global Avenue, Paithan Gate, Chhatrapati Sambhaji Nagar, Aurangabad - 431001, Maharashtra",8043861084,
"Opt Care Adult Diapers, Medium",https://www.indiamart.com/proddetail/opt-care-adult-diapers-2851827367391.html?pos=64&kwd=adult diapers&tags=A||||8859.558|Price|product|||MDC|rsf:gd-|-stype:attr=1|qr_nm:gd|res:RC4|com-cf:nl|ptrs:na|ktp:N0|mc:21601|mtp:S|qry_typ:P|lang:en|wc:2|cs:8826|v=4,Siva Lavanya Traders,https://www.indiamart.com/siva-lavanyatraders-andhrapradesh/?pos=64&kwd=adult diapers&tags=A||||8859.558|Price|product|||MDC|rsf:gd-|-stype:attr=1|qr_nm:gd|res:RC4|com-cf:nl|ptrs:na|ktp:N0|mc:21601|mtp:S|qry_typ:P|lang:en|wc:2|cs:8826|v=4,False,venkateswara temple,Markapur,"3-189, Cumbum Road, Near Government Hospital, Vemula Kota,, venkateswara temple, Markapur - 523329, Dist.Prakasam, Andhra Pradesh",7949325093,
"Alpas M Beyond Freedom Adult Diaper, Medium",https://www.indiamart.com/proddetail/alpas-m-beyond-freedom-adult-diaper-2854767000973.html?pos=65&kwd=adult diapers&tags=A||||8556.61|Price|product|||MDC|rsf:gd-|-stype:attr=1|qr_nm:gd|res:RC4|com-cf:nl|ptrs:na|ktp:N0|mc:21601|mtp:S|qry_typ:P|lang:en|wc:2|cs:8826|v=4,Arbatt Enterprises,https://www.indiamart.com/arbatt-enterprises/?pos=65&kwd=adult diapers&tags=A||||8556.61|Price|product|||MDC|rsf:gd-|-stype:attr=1|qr_nm:gd|res:RC4|com-cf:nl|ptrs:na|ktp:N0|mc:21601|mtp:S|qry_typ:P|lang:en|wc:2|cs:8826|v=4,False,,Mysuru,"119/1, Devayyana Hundi Road, Srirampra 2nd Stage, Mysuru - 570008, Dist.Mysuru, Karnataka",8044458992,
Briefs Lenity Adult Diapers LARGE SIZE,https://www.indiamart.com/proddetail/lenity-adult-diapers-large-size-24374069630.html?pos=66&kwd=adult diapers&tags=A||||8228.275|Price|product|||TS|rsf:gd-|-stype:attr=1|qr_nm:gd|res:RC4|com-cf:nl|ptrs:na|ktp:N0|mc:21601|mtp:S|qry_typ:P|lang:en|wc:2|cs:8826|v=4,Zen Enterprise,https://www.zenenterprise.co.in/?pos=66&kwd=adult diapers&tags=A||||8228.275|Price|product|||TS|rsf:gd-|-stype:attr=1|qr_nm:gd|res:RC4|com-cf:nl|ptrs:na|ktp:N0|mc:21601|mtp:S|qry_typ:P|lang:en|wc:2|cs:8826|v=4,False,Thaltej,Ahmedabad,"205, Satva, Nr Padmavati Bunglows Opp Elligans Bunglows, Thaltej, Thaltej, Ahmedabad - 380054, Dist.Ahmedabad, Gujarat",8046046451,
Protective Underwear Adult Diaper Arokleen Prima (Large),https://www.indiamart.com/proddetail/adult-diaper-arokleen-prima-large-2851056956488.html?pos=67&kwd=adult diapers&tags=A||||10180.86|Price|product|||TS|rsf:gd-|-stype:attr=1|qr_nm:gd|res:RC4|com-cf:nl|ptrs:na|ktp:N0|mc:21601|mtp:S|qry_typ:P|lang:en|wc:2|cs:8826|v=4,J.N.M. Enterprise,https://www.jnmenterprise.com/?pos=67&kwd=adult diapers&tags=A||||10180.86|Price|product|||TS|rsf:gd-|-stype:attr=1|qr_nm:gd|res:RC4|com-cf:nl|ptrs:na|ktp:N0|mc:21601|mtp:S|qry_typ:P|lang:en|wc:2|cs:8826|v=4,False,Pan Bazaar,Guwahati,"1st Floor S S Road Nahar Mansion Lakhtokia, Pan Bazaar, Guwahati - 781001, Dist.Kamrup, Assam",7942827915,
"Adults Pull Ups Disposable Adult Diaper, Size: Large",https://www.indiamart.com/proddetail/disposable-adult-diaper-2853029952730.html?pos=68&kwd=adult diapers&tags=A||||8723.301|Price|product|||MDC|rsf:gd-|-stype:attr=1|qr_nm:gd|res:RC4|com-cf:nl|ptrs:na|ktp:N0|mc:21601|mtp:S|qry_typ:P|lang:en|wc:2|cs:8826|v=4,Blissbury Care Private Limited,https://www.indiamart.com/blissbury-care-bhopal/?pos=68&kwd=adult diapers&tags=A||||8723.301|Price|product|||MDC|rsf:gd-|-stype:attr=1|qr_nm:gd|res:RC4|com-cf:nl|ptrs:na|ktp:N0|mc:21601|mtp:S|qry_typ:P|lang:en|wc:2|cs:8826|v=4,False,Gandhi Nagar,Bhopal,"D-46, Dwarkadham New Jail Road, Gram Badwai Huzur, Gandhi Nagar, Bhopal - 462001, Dist.Bhopal, Madhya Pradesh",7942963355,
Sticking Diaper Friends Adult Diapers Large,https://www.indiamart.com/proddetail/friends-adult-diapers-large-15390344262.html?pos=69&kwd=adult diapers&tags=A||||8954.051|Price|product|||TS|rsf:gd-|-stype:attr=1|qr_nm:gd|res:RC4|com-cf:nl|ptrs:na|ktp:N0|mc:21601|mtp:S|qry_typ:P|lang:en|wc:2|cs:8826|v=4,Immanlyn Old Age Traders,https://www.immanlyn.in/?pos=69&kwd=adult diapers&tags=A||||8954.051|Price|product|||TS|rsf:gd-|-stype:attr=1|qr_nm:gd|res:RC4|com-cf:nl|ptrs:na|ktp:N0|mc:21601|mtp:S|qry_typ:P|lang:en|wc:2|cs:8826|v=4,False,T Nagar,Chennai,"Old No 6 New No 15, Saravana Street, T Nagar, T Nagar, Chennai - 600017, Dist.Chennai, Tamil Nadu",8046053387,
"Cotton Disposable Friends Pullups Adult Diaper, Size: L-XL",https://www.indiamart.com/proddetail/friends-pullups-adult-diaper-22272350162.html?pos=70&kwd=adult diapers&tags=A||||8228.275|Price|product|||TS|rsf:gd-|-stype:attr=1|qr_nm:gd|res:RC4|com-cf:nl|ptrs:na|ktp:N0|mc:21601|mtp:S|qry_typ:P|lang:en|wc:2|cs:8826|v=4,First Choice Surgicals,https://www.indiamart.com/first-choice-surgicals/?pos=70&kwd=adult diapers&tags=A||||8228.275|Price|product|||TS|rsf:gd-|-stype:attr=1|qr_nm:gd|res:RC4|com-cf:nl|ptrs:na|ktp:N0|mc:21601|mtp:S|qry_typ:P|lang:en|wc:2|cs:8826|v=4,False,Ellisbridge,Ahmedabad,"4, Upper Level, Park Avenue Complex, Parimal Garden Cross Roads, Ellisbridge, Ahmedabad - 380006, Dist.Ahmedabad, Gujarat",8048262878,
Adults & Senior Citizens Tape Style Premium Adult Diapers With SAP,https://www.indiamart.com/proddetail/premium-adult-diapers-with-sap-24925156491.html?pos=71&kwd=adult diapers&tags=A||||8210.732|Price|product|||TS|rsf:gd-|-stype:attr=1|qr_nm:gd|res:RC4|com-cf:nl|ptrs:na|ktp:N0|mc:21601|mtp:S|qry_typ:P|lang:en|wc:2|cs:8826|v=4,M S Enterprises,https://www.indiamart.com/m-senterprisesmumbai/?pos=71&kwd=adult diapers&tags=A||||8210.732|Price|product|||TS|rsf:gd-|-stype:attr=1|qr_nm:gd|res:RC4|com-cf:nl|ptrs:na|ktp:N0|mc:21601|mtp:S|qry_typ:P|lang:en|wc:2|cs:8826|v=4,False,Andheri East,Vasai,"1st Floor, Gala No 113, Rajprabha Industrial Enclave No 6, Boidapada, Vasai East Palghar, Andheri East, Vasai - 401208, Dist.Thane, Maharashtra",8048974810,
"Akko L Adult Diaper, Large",https://www.indiamart.com/proddetail/akko-l-adult-diaper-2854555258562.html?pos=72&kwd=adult diapers&tags=A||||8785.791|Price|product|||MDC|rsf:gd-|-stype:attr=1|qr_nm:gd|res:RC4|com-cf:nl|ptrs:na|ktp:N0|mc:21601|mtp:S|qry_typ:P|lang:en|wc:2|cs:8826|v=4,J.A. Industries,https://www.indiamart.com/jaindustriesghaziabad/?pos=72&kwd=adult diapers&tags=A||||8785.791|Price|product|||MDC|rsf:gd-|-stype:attr=1|qr_nm:gd|res:RC4|com-cf:nl|ptrs:na|ktp:N0|mc:21601|mtp:S|qry_typ:P|lang:en|wc:2|cs:8826|v=4,False,,Ghaziabad,"C-86, Unnamed Road, Chandan and Chandan Industries Pvt Ltd, Sector B3, Tronica City,, Ghaziabad - 201102, Dist.Ghaziabad, Uttar Pradesh",7949326382,
Briefs Svaach Basic Adult Diaper Sticker Type Large 10s,https://www.indiamart.com/proddetail/svaach-basic-adult-diaper-sticker-type-large-10s-2850395988048.html?pos=73&kwd=adult diapers&tags=A||||8663.873|Price|product|||MDC|rsf:gd-|-stype:attr=1|qr_nm:gd|res:RC4|com-cf:nl|ptrs:na|ktp:N0|mc:21601|mtp:S|qry_typ:P|lang:en|wc:2|cs:8826|v=4,Samutthanam Health Care LLP,https://www.indiamart.com/samutthanamhealthcare/?pos=73&kwd=adult diapers&tags=A||||8663.873|Price|product|||MDC|rsf:gd-|-stype:attr=1|qr_nm:gd|res:RC4|com-cf:nl|ptrs:na|ktp:N0|mc:21601|mtp:S|qry_typ:P|lang:en|wc:2|cs:8826|v=4,False,Banashankari,Bengaluru,"644, 1st A cross 1st Phase, Girinagara, Hosakerehalli, BSK 3rd Stage, Urban, Banashankari, Bengaluru - 560085, Dist.Bengaluru, Karnataka",7942791482,
"Pull Ups Disposable Adult Diaper, Size: Large",https://www.indiamart.com/proddetail/pull-ups-disposable-adult-diaper-2853397711288.html?pos=74&kwd=adult diapers&tags=A||||8601.347|Price|product|||LSnp|rsf:gd-|-stype:attr=1|qr_nm:gd|res:RC4|com-cf:nl|ptrs:na|ktp:N0|mc:21601|mtp:S|qry_typ:P|lang:en|wc:2|cs:8826|v=4,Raj Biosis Private Limited,https://www.rajbiosis.com/?pos=74&kwd=adult diapers&tags=A||||8601.347|Price|product|||LSnp|rsf:gd-|-stype:attr=1|qr_nm:gd|res:RC4|com-cf:nl|ptrs:na|ktp:N0|mc:21601|mtp:S|qry_typ:P|lang:en|wc:2|cs:8826|v=4,True,,Jaipur,"1st Floor, F-4,Plot No.16, D- Block, Tagor Nagar,Nr.200 FT, Jaipur - 302021, Dist.Jaipur, Rajasthan",8048962241,
Tape Style Adult Diaper,https://www.indiamart.com/proddetail/adult-diaper-20979149112.html?pos=75&kwd=adult diapers&tags=A||||9839.57|Price|product|||TS|rsf:gd-|-stype:attr=1|qr_nm:gd|res:RC4|com-cf:nl|ptrs:na|ktp:N0|mc:21601|mtp:S|qry_typ:P|lang:en|wc:2|cs:8826|v=4,Solace Group Of Companies,https://www.indiamart.com/solace-group-of-companies/?pos=75&kwd=adult diapers&tags=A||||9839.57|Price|product|||TS|rsf:gd-|-stype:attr=1|qr_nm:gd|res:RC4|com-cf:nl|ptrs:na|ktp:N0|mc:21601|mtp:S|qry_typ:P|lang:en|wc:2|cs:8826|v=4,False,Kulia,Kolkata,"95/D-2, Basundhara, Chingrighata, 3rd Floor Canal South Road, Kulia, Kolkata - 700105, Dist.Kolkata, West Bengal",8046057508,
"Adult Diapers, Size: Medium",https://www.indiamart.com/proddetail/adult-diapers-2851807965497.html?pos=76&kwd=adult diapers&tags=A||||8694.802|Price|product|||MDC|rsf:gd-|-stype:attr=1|qr_nm:gd|res:RC4|com-cf:nl|ptrs:na|ktp:N0|mc:21601|mtp:S|qry_typ:P|lang:en|wc:2|cs:8826|v=4,Usha Enterprises,https://www.indiamart.com/usha-enterprises-bawal/?pos=76&kwd=adult diapers&tags=A||||8694.802|Price|product|||MDC|rsf:gd-|-stype:attr=1|qr_nm:gd|res:RC4|com-cf:nl|ptrs:na|ktp:N0|mc:21601|mtp:S|qry_typ:P|lang:en|wc:2|cs:8826|v=4,False,Jaliawas,Bawal,"Plot No-195, Ground Floor, Sector-3, Hsiidc- Bawal, Rewari, Jaliawas, Bawal - 123501, Dist.Rewari, Haryana",8047830686,
Freshkins Adult Diaper 10pcs.,https://www.indiamart.com/proddetail/freshkins-adult-diaper-10pcs-2854079032755.html?pos=77&kwd=adult diapers&tags=A||||8230.883||product|||TS|rsf:gd-|-stype:attr=1|qr_nm:gd|res:RC4|com-cf:nl|ptrs:na|ktp:N0|mc:21601|mtp:S|qry_typ:P|lang:en|wc:2|cs:8826|v=4,Hygiene Product,https://www.freshkin.co.in/?pos=77&kwd=adult diapers&tags=A||||8230.883||product|||TS|rsf:gd-|-stype:attr=1|qr_nm:gd|res:RC4|com-cf:nl|ptrs:na|ktp:N0|mc:21601|mtp:S|qry_typ:P|lang:en|wc:2|cs:8826|v=4,False,Sagrampura Putli,Surat,"9002 B, World Trade Center Ring Road, Sagrampura Putli, Surat - 395002, Dist.Surat, Gujarat",8048610916,
"Pull Ups Romsons Dignity Adult Diaper, Size: XL",https://www.indiamart.com/proddetail/romsons-dignity-adult-diaper-2853930637348.html?pos=78&kwd=adult diapers&tags=A||||8786.56|Price|product|||MDC|rsf:gd-|-stype:attr=1|qr_nm:gd|res:RC4|com-cf:nl|ptrs:na|ktp:N0|mc:21601|mtp:S|qry_typ:P|lang:en|wc:2|cs:8826|v=4,Annapurna Agencies,https://www.indiamart.com/annapurna-agencies-hyderabad/?pos=78&kwd=adult diapers&tags=A||||8786.56|Price|product|||MDC|rsf:gd-|-stype:attr=1|qr_nm:gd|res:RC4|com-cf:nl|ptrs:na|ktp:N0|mc:21601|mtp:S|qry_typ:P|lang:en|wc:2|cs:8826|v=4,False,Mansoorabad,Hyderabad,"3-9-586/1, Plot No 99, Road No 2, Balaji Nagar, Mansoorabad, L.B. Nagar, Rangareddy, Mansoorabad, Hyderabad - 500068, Dist.Hyderabad, Telangana",7949082672,
"Friends Easy Adult Diaper, Size: Medium",https://www.indiamart.com/proddetail/friends-easy-adult-diaper-23724265730.html?pos=79&kwd=adult diapers&tags=A||||8211.142|Price|product|||TS|rsf:gd-|-stype:attr=1|qr_nm:gd|res:RC4|com-cf:nl|ptrs:na|ktp:N0|mc:21601|mtp:S|qry_typ:P|lang:en|wc:2|cs:8826|v=4,Manu Healthcare,https://www.manuhealthcareandsurgical.com/?pos=79&kwd=adult diapers&tags=A||||8211.142|Price|product|||TS|rsf:gd-|-stype:attr=1|qr_nm:gd|res:RC4|com-cf:nl|ptrs:na|ktp:N0|mc:21601|mtp:S|qry_typ:P|lang:en|wc:2|cs:8826|v=4,False,Kandivali West,Mumbai,"Block D 16, Lijjat Godavari Chs New Dahanukar Wadi, Shivaji X Rd, Kandivl Vinayak Hospital, Kandivali West, Mumbai - 400067, Dist.Mumbai, Maharashtra",8048972911,
"Seni Adult Diapers, Medium",https://www.indiamart.com/proddetail/seni-adult-diapers-2854799654762.html?pos=80&kwd=adult diapers&tags=A||||8331.224|Price|product|||MDC|rsf:gd-|-stype:attr=1|qr_nm:gd|res:RC4|com-cf:nl|ptrs:na|ktp:N0|mc:21601|mtp:S|qry_typ:P|lang:en|wc:2|cs:8826|v=4,Khandekar Medicals,https://www.indiamart.com/khandekar-medicals/?pos=80&kwd=adult diapers&tags=A||||8331.224|Price|product|||MDC|rsf:gd-|-stype:attr=1|qr_nm:gd|res:RC4|com-cf:nl|ptrs:na|ktp:N0|mc:21601|mtp:S|qry_typ:P|lang:en|wc:2|cs:8826|v=4,False,,Kolhapur,"695 E Ward, 3RD Lane, ShahupuriI, Kolhapur - 416001, Dist.Kolhapur, Maharashtra",7949330880,
"Uphealthy Pull Ups Dr Fitts Adult Diaper, Waist Size: 80-110 cm",https://www.indiamart.com/proddetail/dr-fitts-adult-diaper-21913567491.html?pos=81&kwd=adult diapers&tags=A||||8954.051|Price|product|||TS|rsf:gd-|-stype:attr=1|qr_nm:gd|res:RC4|com-cf:nl|ptrs:na|ktp:N0|mc:21601|mtp:S|qry_typ:P|lang:en|wc:2|cs:8826|v=4,Sri Sai Surgicals,https://www.indiamart.com/sai-surgicalchennai/?pos=81&kwd=adult diapers&tags=A||||8954.051|Price|product|||TS|rsf:gd-|-stype:attr=1|qr_nm:gd|res:RC4|com-cf:nl|ptrs:na|ktp:N0|mc:21601|mtp:S|qry_typ:P|lang:en|wc:2|cs:8826|v=4,False,Aminijikarai,Chennai,"New No.20,old No.43 Rajeswari Street Chennai Chennai, Aminijikarai, Chennai - 600029, Dist.Chennai, Tamil Nadu",7942535047,
"Adults Pant Diapers medi sorb adult diaper, Size: Large",https://www.indiamart.com/proddetail/medi-sorb-adult-diaper-22266336191.html?pos=82&kwd=adult diapers&tags=A||||8954.051|Price|product|||TS|rsf:gd-|-stype:attr=1|qr_nm:gd|res:RC4|com-cf:nl|ptrs:na|ktp:N0|mc:21601|mtp:S|qry_typ:P|lang:en|wc:2|cs:8826|v=4,Thiripura Agencies,https://www.indiamart.com/thiripura-agencies/?pos=82&kwd=adult diapers&tags=A||||8954.051|Price|product|||TS|rsf:gd-|-stype:attr=1|qr_nm:gd|res:RC4|com-cf:nl|ptrs:na|ktp:N0|mc:21601|mtp:S|qry_typ:P|lang:en|wc:2|cs:8826|v=4,False,Vadapalani,Chennai,"87/38 Aadimula Perumal Koil Street Vadapalani, Vadapalani, Chennai - 600026, Dist.Chennai, Tamil Nadu",8047640570,
"Cotton White Adult Diapers, Size: 12x12 Inches",https://www.indiamart.com/proddetail/white-adult-diapers-2853781777562.html?pos=83&kwd=adult diapers&tags=A||||8584.299|Price|product|||TS|rsf:gd-|-stype:attr=1|qr_nm:gd|res:RC4|com-cf:nl|ptrs:na|ktp:N0|mc:21601|mtp:S|qry_typ:P|lang:en|wc:2|cs:8826|v=4,Enora Naturals Enterprises,https://www.enoranaturals.co.in/?pos=83&kwd=adult diapers&tags=A||||8584.299|Price|product|||TS|rsf:gd-|-stype:attr=1|qr_nm:gd|res:RC4|com-cf:nl|ptrs:na|ktp:N0|mc:21601|mtp:S|qry_typ:P|lang:en|wc:2|cs:8826|v=4,False,Velandi Palayam,Coimbatore,"6b, Karuppakonar Street, Kovilmedu, Kovai Corporation, Velandi Palayam, Velandi Palayam, Coimbatore - 641025, Dist.Coimbatore, Tamil Nadu",8044010068,
Protective Underwear Disposable Adult Diaper,https://www.indiamart.com/proddetail/disposable-adult-diaper-2852167385497.html?pos=84&kwd=adult diapers&tags=A||||8307.81|Price|product|||TS|rsf:gd-|-stype:attr=1|qr_nm:gd|res:RC4|com-cf:nl|ptrs:na|ktp:N0|mc:21601|mtp:S|qry_typ:P|lang:en|wc:2|cs:8826|v=4,SMILEPAD HYGIENE INDIA PVT. LTD.,https://www.indiamart.com/smilepadhygiene/?pos=84&kwd=adult diapers&tags=A||||8307.81|Price|product|||TS|rsf:gd-|-stype:attr=1|qr_nm:gd|res:RC4|com-cf:nl|ptrs:na|ktp:N0|mc:21601|mtp:S|qry_typ:P|lang:en|wc:2|cs:8826|v=4,False,Mohammed Wadi,Pune,"SR.NO.284/01 Bhadale Nagar Uruli Devachi, Mohammed Wadi, Pune - 411060, Dist.Pune, Maharashtra",8048601512,
Evelance Adult Dry Pants Large 75-140cm (30-55 Inches) 12hr absorption. - L (10 Pieces),https://www.indiamart.com/proddetail/evelance-adult-dry-pants-large-75-140cm-30-55-inches-12hr-absorption-l-10-pieces-2854612423988.html?pos=85&kwd=adult diapers&tags=A||||8740.707|Price|product|||MDC|rsf:gd-|-stype:attr=1|qr_nm:gd|res:RC4|com-cf:nl|ptrs:na|ktp:N0|mc:21601|mtp:S|qry_typ:P|lang:en|wc:2|cs:8826|v=4,Parv Industries,https://www.indiamart.com/parvindustries-punjab/?pos=85&kwd=adult diapers&tags=A||||8740.707|Price|product|||MDC|rsf:gd-|-stype:attr=1|qr_nm:gd|res:RC4|com-cf:nl|ptrs:na|ktp:N0|mc:21601|mtp:S|qry_typ:P|lang:en|wc:2|cs:8826|v=4,False,,Sas Nagar,"34/2/2/2/2-1 8, Parv Industries, Pabhat, Zirakpur,, Sas Nagar - 140301, Dist.Mohali, Punjab",8044011342,
"Adult Diapers Large (Unisex), Size: 101 - 152 cm",https://www.indiamart.com/proddetail/adult-diapers-large-unisex-2850435756048.html?pos=86&kwd=adult diapers&tags=A||||8226.563|Price|product|||TS|rsf:gd-|-stype:attr=1|qr_nm:gd|res:RC4|com-cf:nl|ptrs:na|ktp:N0|mc:21601|mtp:S|qry_typ:P|lang:en|wc:2|cs:8826|v=4,Angus Healthcare,https://www.indiamart.com/angushealthcare/?pos=86&kwd=adult diapers&tags=A||||8226.563|Price|product|||TS|rsf:gd-|-stype:attr=1|qr_nm:gd|res:RC4|com-cf:nl|ptrs:na|ktp:N0|mc:21601|mtp:S|qry_typ:P|lang:en|wc:2|cs:8826|v=4,True,vashi,Navi Mumbai,"Off- A 4007,Pl no- 04,Sec- 19,Vashi, Navi Mumbai, vashi, Navi Mumbai - 400705, Dist.Thane, Maharashtra",7942546225,
Briefs Disposable Adult Diaper,https://www.indiamart.com/proddetail/disposable-adult-diaper-20964377830.html?pos=87&kwd=adult diapers&tags=A||||8788.382||product|||MDC|rsf:gd-|-stype:attr=1|qr_nm:gd|res:RC4|com-cf:nl|ptrs:na|ktp:N0|mc:21601|mtp:S|qry_typ:P|lang:en|wc:2|cs:8826|v=4,Scientific Supplies Corporation,https://www.indiamart.com/scientific-supplies-corporation/?pos=87&kwd=adult diapers&tags=A||||8788.382||product|||MDC|rsf:gd-|-stype:attr=1|qr_nm:gd|res:RC4|com-cf:nl|ptrs:na|ktp:N0|mc:21601|mtp:S|qry_typ:P|lang:en|wc:2|cs:8826|v=4,False,Gamma 1,Greater Noida,"Shop No. 63, Jagat Plaza 2, Jagat Farm, Sector Gamma 1, Gamma 1, Greater Noida - 201308, Dist.Gautam Budh Nagar, Uttar Pradesh",7948548083,
Adult Diaper Pants,https://www.indiamart.com/proddetail/adult-diaper-pants-2854631367448.html?pos=88&kwd=adult diapers&tags=A||||8228.275|Price|product|||MDC|rsf:gd-|-stype:attr=1|qr_nm:gd|res:RC4|com-cf:nl|ptrs:na|ktp:N0|mc:21601|mtp:S|qry_typ:P|lang:en|wc:2|cs:8826|v=4,Chamunda Medical Agency,https://www.indiamart.com/chamunda-medical-agency/?pos=88&kwd=adult diapers&tags=A||||8228.275|Price|product|||MDC|rsf:gd-|-stype:attr=1|qr_nm:gd|res:RC4|com-cf:nl|ptrs:na|ktp:N0|mc:21601|mtp:S|qry_typ:P|lang:en|wc:2|cs:8826|v=4,False,Vrundavan Society,Ahmedabad,"3rd Floor, Office No 2, Mahadev Complex Shahibaug, Camp Road, Opp Civil Hospital, Vrundavan Society, Ahmedabad - 380004, Dist.Ahmedabad, Gujarat",8045733303,
12 Months Pull Ups Pant Style Adult Diaper,https://www.indiamart.com/proddetail/pant-style-adult-diaper-23318475097.html?pos=89&kwd=adult diapers&tags=A||||8316.457|Price|product|||MDC|rsf:gd-|-stype:attr=1|qr_nm:gd|res:RC4|com-cf:nl|ptrs:na|ktp:N0|mc:21601|mtp:S|qry_typ:P|lang:en|wc:2|cs:8826|v=4,Manavata Hygiene,https://www.indiamart.com/manavatahygiene/?pos=89&kwd=adult diapers&tags=A||||8316.457|Price|product|||MDC|rsf:gd-|-stype:attr=1|qr_nm:gd|res:RC4|com-cf:nl|ptrs:na|ktp:N0|mc:21601|mtp:S|qry_typ:P|lang:en|wc:2|cs:8826|v=4,False,Vadangli,Nashik,"Shri Kruoa Nagar, Maparwadu Road, Sinnar,, Vadangli, Nashik - 422103, Dist.Nashik, Maharashtra",8047544880,
"Absorbia Unisex Adult Diaper, Medium",https://www.indiamart.com/proddetail/absorbia-unisex-adult-diaper-2850802807697.html?pos=90&kwd=adult diapers&tags=A||||8211.142|Price|product|||MDC|rsf:gd-|-stype:attr=1|qr_nm:gd|res:RC4|com-cf:nl|ptrs:na|ktp:N0|mc:21601|mtp:S|qry_typ:P|lang:en|wc:2|cs:8826|v=4,Fine Health Care,https://www.indiamart.com/fine-health-care/?pos=90&kwd=adult diapers&tags=A||||8211.142|Price|product|||MDC|rsf:gd-|-stype:attr=1|qr_nm:gd|res:RC4|com-cf:nl|ptrs:na|ktp:N0|mc:21601|mtp:S|qry_typ:P|lang:en|wc:2|cs:8826|v=4,False,Kandivali East Mumbai Suburban,Mumbai,"GR19, Wing-J, Shree Gokul Garden CHS LTD, Thakur Complex, W E Highway, NR Camre School, Kandivali East Mumbai Suburban, Mumbai - 400101, Dist.Mumbai, Maharashtra",7949324611,
"Dignity Magna Adult Diapers, Medium",https://www.indiamart.com/proddetail/dignity-magna-adult-diapers-13675110412.html?pos=91&kwd=adult diapers&tags=A||||9301.656|Price|product|||MDC|rsf:gd-|-stype:attr=1|qr_nm:gd|res:RC4|com-cf:nl|ptrs:na|ktp:N0|mc:21601|mtp:S|qry_typ:P|lang:en|wc:2|cs:8826|v=4,Manish Surgicals,https://www.indiamart.com/manishsurgicals/?pos=91&kwd=adult diapers&tags=A||||9301.656|Price|product|||MDC|rsf:gd-|-stype:attr=1|qr_nm:gd|res:RC4|com-cf:nl|ptrs:na|ktp:N0|mc:21601|mtp:S|qry_typ:P|lang:en|wc:2|cs:8826|v=4,False,,Varanasi,"Phase-2, Shop No.26, Surya Complex, Mahmoorganj, Varanasi - 221010, Dist.Varanasi, Uttar Pradesh",8044457624,
Above 60 Years Medium Liberty Eco Adult Diapers,https://www.indiamart.com/proddetail/medium-liberty-eco-adult-diapers-2851604727948.html?pos=92&kwd=adult diapers&tags=A||||8307.81|Price|product|||MDC|rsf:gd-|-stype:attr=1|qr_nm:gd|res:RC4|com-cf:nl|ptrs:na|ktp:N0|mc:21601|mtp:S|qry_typ:P|lang:en|wc:2|cs:8826|v=4,Goodluck Diapers,https://www.indiamart.com/goodluckdiapers/?pos=92&kwd=adult diapers&tags=A||||8307.81|Price|product|||MDC|rsf:gd-|-stype:attr=1|qr_nm:gd|res:RC4|com-cf:nl|ptrs:na|ktp:N0|mc:21601|mtp:S|qry_typ:P|lang:en|wc:2|cs:8826|v=4,False,Pimpri,Pune,"Shop No D22, Prem Park Commercial Complex Masulkar Colony, Pimpri, Pune - 411018, Dist.Pune, Maharashtra",7942839329,
"18 -85 Pull Ups Disposable Adult Diaper Pant, Size: Free",https://www.indiamart.com/proddetail/disposable-adult-diaper-pant-27014688533.html?pos=93&kwd=adult diapers&tags=A||||8752.144|Price|product|||TS|rsf:gd-|-stype:attr=1|qr_nm:gd|res:RC4|com-cf:nl|ptrs:na|ktp:N0|mc:21601|mtp:S|qry_typ:P|lang:en|wc:2|cs:8826|v=4,Tejas Enterprises,https://www.indiamart.com/tejasenterprises-delhi/?pos=93&kwd=adult diapers&tags=A||||8752.144|Price|product|||TS|rsf:gd-|-stype:attr=1|qr_nm:gd|res:RC4|com-cf:nl|ptrs:na|ktp:N0|mc:21601|mtp:S|qry_typ:P|lang:en|wc:2|cs:8826|v=4,False,New Mustafabad,New Delhi,"D - 6/162 - A, D - Block, Near Gali No.7, Main Road Brijpuri, New Mustafabad, New Delhi - 110094, Dist.Delhi, Delhi",8043855624,
Adult Diapers Private Lable,https://www.indiamart.com/proddetail/adult-diapers-private-lable-25483032688.html?pos=94&kwd=adult diapers&tags=A||||8786.56|Price|product|||TS|rsf:gd-|-stype:attr=1|qr_nm:gd|res:RC4|com-cf:nl|ptrs:na|ktp:N0|mc:21601|mtp:S|qry_typ:P|lang:en|wc:2|cs:8826|v=4,ADML(ADROIT MOLECULES),https://www.adroitmolecules.com/?pos=94&kwd=adult diapers&tags=A||||8786.56|Price|product|||TS|rsf:gd-|-stype:attr=1|qr_nm:gd|res:RC4|com-cf:nl|ptrs:na|ktp:N0|mc:21601|mtp:S|qry_typ:P|lang:en|wc:2|cs:8826|v=4,False,Annaram,Hyderabad,"Plot No. 523/2 Dundigal Village , Medchal, Malkajgiri, Near Marri Laxman Reddy Engineering College, Annaram, Hyderabad - 500043, Dist.Hyderabad, Telangana",8046057643,
"Karein Classic Adult Diaper Pant, Large",https://www.indiamart.com/proddetail/karein-classic-adult-diaper-pant-2854383825197.html?pos=95&kwd=adult diapers&tags=A||||9839.57|Price|product|||MDC|rsf:gd-|-stype:attr=1|qr_nm:gd|res:RC4|com-cf:nl|ptrs:na|ktp:N0|mc:21601|mtp:S|qry_typ:P|lang:en|wc:2|cs:8826|v=4,Roy And Son Enterprise,https://www.indiamart.com/roy-son-enterprise/?pos=95&kwd=adult diapers&tags=A||||9839.57|Price|product|||MDC|rsf:gd-|-stype:attr=1|qr_nm:gd|res:RC4|com-cf:nl|ptrs:na|ktp:N0|mc:21601|mtp:S|qry_typ:P|lang:en|wc:2|cs:8826|v=4,False,,Kolkata,"260g, Netaji Subash Road, Behala, Kolkata - 700034, Dist.Kolkata, West Bengal",7949340326,
"Friends Overnight Adult Diapers, Size: Large",https://www.indiamart.com/proddetail/friends-overnight-adult-diapers-2854191096188.html?pos=96&kwd=adult diapers&tags=A||||8769.508|Price|product|||MDC|rsf:gd-|-stype:attr=1|qr_nm:gd|res:RC4|com-cf:nl|ptrs:na|ktp:N0|mc:21601|mtp:S|qry_typ:P|lang:en|wc:2|cs:8826|v=4,Shivij Enterprises,https://www.indiamart.com/shivij-enterprises/?pos=96&kwd=adult diapers&tags=A||||8769.508|Price|product|||MDC|rsf:gd-|-stype:attr=1|qr_nm:gd|res:RC4|com-cf:nl|ptrs:na|ktp:N0|mc:21601|mtp:S|qry_typ:P|lang:en|wc:2|cs:8826|v=4,False,,Faridabad,"Plot-11, Sec-15A, Vishwash Complax, Faridabad - 121004, Dist.Faridabad, Haryana",8045734144,
B Fit Adult Diaper Pants,https://www.indiamart.com/proddetail/b-fit-adult-diaper-pants-21161868955.html?pos=97&kwd=adult diapers&tags=A||||8581.569|Price|product|||MDC|rsf:gd-|-stype:attr=1|qr_nm:gd|res:RC4|com-cf:nl|ptrs:na|ktp:N0|mc:21601|mtp:S|qry_typ:P|lang:en|wc:2|cs:8826|v=4,Fakhri Chemicals,https://www.indiamart.com/fakhri-chemicals/?pos=97&kwd=adult diapers&tags=A||||8581.569|Price|product|||MDC|rsf:gd-|-stype:attr=1|qr_nm:gd|res:RC4|com-cf:nl|ptrs:na|ktp:N0|mc:21601|mtp:S|qry_typ:P|lang:en|wc:2|cs:8826|v=4,False,,Dewas,"75, Haibat Rao Marg, Rajwada Road, Dewas - 455001, Dist.Dewas, Madhya Pradesh",7942640768,
Briefs Disposable Adult Diaper,https://www.indiamart.com/proddetail/white-sparrow-imported-disposable-adult-diaper-2850639770773.html?pos=98&kwd=adult diapers&tags=A||||9110.092|Price|product|||TS|rsf:gd-|-stype:attr=1|qr_nm:gd|res:RC4|com-cf:nl|ptrs:na|ktp:N0|mc:21601|mtp:S|qry_typ:P|lang:en|wc:2|cs:8826|v=4,Shashwat Udyog,https://www.indiamart.com/shashwatudyog-uttarpradesh/?pos=98&kwd=adult diapers&tags=A||||9110.092|Price|product|||TS|rsf:gd-|-stype:attr=1|qr_nm:gd|res:RC4|com-cf:nl|ptrs:na|ktp:N0|mc:21601|mtp:S|qry_typ:P|lang:en|wc:2|cs:8826|v=4,False,Gomti,Lucknow,"302, Omaxe Heights, Vibhuti Khand, Gomti Nagar, Gomti, Lucknow - 226010, Dist.Lucknow, Uttar Pradesh",8048616780,
"Disposable Adult Diaper, Large",https://www.indiamart.com/proddetail/disposable-adult-diaper-2854674936555.html?pos=99&kwd=adult diapers&tags=A||||8954.051|Price|product|||TS|rsf:gd-|-stype:attr=1|qr_nm:gd|res:RC4|com-cf:nl|ptrs:na|ktp:N0|mc:21601|mtp:S|qry_typ:P|lang:en|wc:2|cs:8826|v=4,Krithisha Enterprises,https://www.indiamart.com/krithisha-enterprises/?pos=99&kwd=adult diapers&tags=A||||8954.051|Price|product|||TS|rsf:gd-|-stype:attr=1|qr_nm:gd|res:RC4|com-cf:nl|ptrs:na|ktp:N0|mc:21601|mtp:S|qry_typ:P|lang:en|wc:2|cs:8826|v=4,False,Royapuram Anjaneya Nagar,Chennai,"New No.75, Old No.151, Prakasam Salai, Pophams Broadway, Royapuram Anjaneya Nagar, Chennai - 600001, Dist.Chennai, Tamil Nadu",8048951811,
"Nonwoven Plain Champs Dry Pants Diapers, Small",https://www.indiamart.com/proddetail/adult-diapers-2854454954588.html?pos=100&kwd=adult diapers&tags=A||||8753.51|Price|product|||MDC|rsf:gd-|-stype:attr=1|qr_nm:gd|res:RC4|com-cf:nl|ptrs:na|ktp:N0|mc:21601|mtp:S|qry_typ:P|lang:en|wc:2|cs:8826|v=4,Saraswati Stores,https://www.indiamart.com/saraswati-stores-karnal/?pos=100&kwd=adult diapers&tags=A||||8753.51|Price|product|||MDC|rsf:gd-|-stype:attr=1|qr_nm:gd|res:RC4|com-cf:nl|ptrs:na|ktp:N0|mc:21601|mtp:S|qry_typ:P|lang:en|wc:2|cs:8826|v=4,False,,Karnal,"2088/7, Unnamed Road, Sector 7 Park 16,, Karnal - 132001, Dist.Karnal, Haryana",7949328104,
"Dignity Magna Adult Diapers, Size: Medium",https://www.indiamart.com/proddetail/dignity-magna-adult-diapers-2853614480212.html?pos=101&kwd=adult diapers&tags=A||||8228.275|Price|product|||MDC|rsf:gd-|-stype:attr=1|qr_nm:gd|res:RC4|com-cf:nl|ptrs:na|ktp:N0|mc:21601|mtp:S|qry_typ:P|lang:en|wc:2|cs:8826|v=4,Kamdhenu Pharma,https://www.indiamart.com/kamdhenupharmagujarat/?pos=101&kwd=adult diapers&tags=A||||8228.275|Price|product|||MDC|rsf:gd-|-stype:attr=1|qr_nm:gd|res:RC4|com-cf:nl|ptrs:na|ktp:N0|mc:21601|mtp:S|qry_typ:P|lang:en|wc:2|cs:8826|v=4,False,Jahangirpura,Ahmedabad,"4th, B-412, Abhishek Complex, NR, Asarva Bridge, Jahangirpura, Ahmedabad - 380016, Dist.Ahmedabad, Gujarat",8047806771,
"Above 30 Year Pull Ups Non Woven Large Adult Diapers Pant, Size: Xxl",https://www.indiamart.com/proddetail/non-woven-large-adult-diapers-pant-2851829068573.html?pos=102&kwd=adult diapers&tags=A||||8038.093|Price|product|||MDC|rsf:gd-|-stype:attr=1|qr_nm:gd|res:RC4|com-cf:nl|ptrs:na|ktp:N0|mc:21601|mtp:S|qry_typ:P|lang:en|wc:2|cs:8826|v=4,Aeroshine International,https://www.indiamart.com/aeroshineinternational/?pos=102&kwd=adult diapers&tags=A||||8038.093|Price|product|||MDC|rsf:gd-|-stype:attr=1|qr_nm:gd|res:RC4|com-cf:nl|ptrs:na|ktp:N0|mc:21601|mtp:S|qry_typ:P|lang:en|wc:2|cs:8826|v=4,False,Champak Nagar,Rajkot,"Street No 8, Plot No 101-B, Brahmaniya Para, Sant Kabir Road, Govindbaug Opp. Vimal, R.S. No 185, Champak Nagar, Rajkot - 360003, Dist.Rajkot, Gujarat",7942714315,
"Gulls personal care Adult diaper, Medium",https://www.indiamart.com/proddetail/gulls-personal-care-adult-diaper-2854373565333.html?pos=103&kwd=adult diapers&tags=A||||8785.791|Price|product|||TS|rsf:gd-|-stype:attr=1|qr_nm:gd|res:RC4|com-cf:nl|ptrs:na|ktp:N0|mc:21601|mtp:S|qry_typ:P|lang:en|wc:2|cs:8826|v=4,Kshristi Enterprises,https://www.indiamart.com/kshristi-enterprises/?pos=103&kwd=adult diapers&tags=A||||8785.791|Price|product|||TS|rsf:gd-|-stype:attr=1|qr_nm:gd|res:RC4|com-cf:nl|ptrs:na|ktp:N0|mc:21601|mtp:S|qry_typ:P|lang:en|wc:2|cs:8826|v=4,False,Sahibabad,Ghaziabad,"S 57 Harsha campound mohan nagar industrial area Ghaziabad Uttar Pradesh, Sahibabad, Ghaziabad - 201005, Dist.Ghaziabad, Uttar Pradesh",8046078120,
Pull Ups Adult Diaper Pants,https://www.indiamart.com/proddetail/adult-diaper-pants-2852405139730.html?pos=104&kwd=adult diapers&tags=A||||8228.275||product|||TS|rsf:gd-|-stype:attr=1|qr_nm:gd|res:RC4|com-cf:nl|ptrs:na|ktp:N0|mc:21601|mtp:S|qry_typ:P|lang:en|wc:2|cs:8826|v=4,Jalaram Healthcare And Surgical,https://www.indiamart.com/jalaramhealthcareandsurgical/?pos=104&kwd=adult diapers&tags=A||||8228.275||product|||TS|rsf:gd-|-stype:attr=1|qr_nm:gd|res:RC4|com-cf:nl|ptrs:na|ktp:N0|mc:21601|mtp:S|qry_typ:P|lang:en|wc:2|cs:8826|v=4,False,Vastral,Ahmedabad,"No.3 siddhivinayak plaza nr.nishant cross road, Vastral, Ahmedabad - 382418, Dist.Ahmedabad, Gujarat",8048609859,
"Tape Style Friends Adult Diapers, Size: Large",https://www.indiamart.com/proddetail/friends-adult-diapers-23255184833.html?pos=105&kwd=adult diapers&tags=A||||8663.873|Price|product|||TS|rsf:gd-|-stype:attr=1|qr_nm:gd|res:RC4|com-cf:nl|ptrs:na|ktp:N0|mc:21601|mtp:S|qry_typ:P|lang:en|wc:2|cs:8826|v=4,Rajendra Surgicals,https://www.rajendrasurgicals.com/?pos=105&kwd=adult diapers&tags=A||||8663.873|Price|product|||TS|rsf:gd-|-stype:attr=1|qr_nm:gd|res:RC4|com-cf:nl|ptrs:na|ktp:N0|mc:21601|mtp:S|qry_typ:P|lang:en|wc:2|cs:8826|v=4,False,Rajajinagar,Bengaluru,"Ground Floor, 3rd Block, No.210/38, Skanda, Dr Mallegowda Street, 50th Cross, Rajajinagar, Rajajinagar, Bengaluru - 560010, Dist.Bengaluru, Karnataka",8048961624,
"Adult Diaper Pants, Size: Small",https://www.indiamart.com/proddetail/adult-diaper-pants-2854035156591.html?pos=106&kwd=adult diapers&tags=A||||8559.269|Price|product|||TS|rsf:gd-|-stype:attr=1|qr_nm:gd|res:RC4|com-cf:nl|ptrs:na|ktp:N0|mc:21601|mtp:S|qry_typ:P|lang:en|wc:2|cs:8826|v=4,Aadaarsh Enterprise,https://www.hellosweetybabydaiper.com/?pos=106&kwd=adult diapers&tags=A||||8559.269|Price|product|||TS|rsf:gd-|-stype:attr=1|qr_nm:gd|res:RC4|com-cf:nl|ptrs:na|ktp:N0|mc:21601|mtp:S|qry_typ:P|lang:en|wc:2|cs:8826|v=4,False,,Indore,"2,Sher Shah Suri Nagar B, Khajrana, Indore - 452001, Dist.Indore, Madhya Pradesh",8043879050,
"Briefs Imported Adult Diapers, Size: Large",https://www.indiamart.com/proddetail/imported-adult-diapers-2853872165991.html?pos=107&kwd=adult diapers&tags=A||||9363.783|Price|product|||TS|rsf:gd-|-stype:attr=1|qr_nm:gd|res:RC4|com-cf:nl|ptrs:na|ktp:N0|mc:21601|mtp:S|qry_typ:P|lang:en|wc:2|cs:8826|v=4,Shaswat Agro Industries,https://www.indiamart.com/shaswatagro-industries/?pos=107&kwd=adult diapers&tags=A||||9363.783|Price|product|||TS|rsf:gd-|-stype:attr=1|qr_nm:gd|res:RC4|com-cf:nl|ptrs:na|ktp:N0|mc:21601|mtp:S|qry_typ:P|lang:en|wc:2|cs:8826|v=4,False,Tajopur,Maunath Bhanjan,"B-9, Industrial Area, Tajopur, Tajopur, Maunath Bhanjan - 275101, Dist.Mau, Uttar Pradesh",8047638492,
"Pants Pull Ups Friends Classic Pant Adult Diapers, Size: Medium,Large And Extra Large",https://www.indiamart.com/proddetail/friends-classic-pant-adult-diapers-22873340530.html?pos=108&kwd=adult diapers&tags=A||||8706.587|Price|product|||TS|rsf:gd-|-stype:attr=1|qr_nm:gd|res:RC4|com-cf:nl|ptrs:na|ktp:N0|mc:21601|mtp:S|qry_typ:P|lang:en|wc:2|cs:8826|v=4,Aruna Agencies,https://www.arunaagencies.in/?pos=108&kwd=adult diapers&tags=A||||8706.587|Price|product|||TS|rsf:gd-|-stype:attr=1|qr_nm:gd|res:RC4|com-cf:nl|ptrs:na|ktp:N0|mc:21601|mtp:S|qry_typ:P|lang:en|wc:2|cs:8826|v=4,False,Simmakkal,Madurai,"Pooja Complex, No. 23, North Veli Street Ground Floor, Simmakkal, Simmakkal, Madurai - 625001, Dist.Madurai, Tamil Nadu",8048609760,
Flamingo Adult Diapers,https://www.indiamart.com/proddetail/flamingo-adult-diapers-26858042355.html?pos=109&kwd=adult diapers&tags=A||||8307.81|Price|product|||TS|rsf:gd-|-stype:attr=1|qr_nm:gd|res:RC4|com-cf:nl|ptrs:na|ktp:N0|mc:21601|mtp:S|qry_typ:P|lang:en|wc:2|cs:8826|v=4,Ecomed Solutions,https://www.indiamart.com/ecomedsolutions/?pos=109&kwd=adult diapers&tags=A||||8307.81|Price|product|||TS|rsf:gd-|-stype:attr=1|qr_nm:gd|res:RC4|com-cf:nl|ptrs:na|ktp:N0|mc:21601|mtp:S|qry_typ:P|lang:en|wc:2|cs:8826|v=4,False,Hadapsar,Pune,"Fld3/b403 Sn44a Sasane Nagar Vardhaman Township Hadapsar, Hadapsar, Pune - 411028, Dist.Pune, Maharashtra",8043853505,
Adult Diaper,https://www.indiamart.com/proddetail/adult-diaper-9252905262.html?pos=110&kwd=adult diapers&tags=A||||8584.299||product|||MDC|rsf:gd-|-stype:attr=1|qr_nm:gd|res:RC4|com-cf:nl|ptrs:na|ktp:N0|mc:21601|mtp:S|qry_typ:P|lang:en|wc:2|cs:8826|v=4,Safex Hygiene Care,https://www.indiamart.com/safex-hygiene-care/?pos=110&kwd=adult diapers&tags=A||||8584.299||product|||MDC|rsf:gd-|-stype:attr=1|qr_nm:gd|res:RC4|com-cf:nl|ptrs:na|ktp:N0|mc:21601|mtp:S|qry_typ:P|lang:en|wc:2|cs:8826|v=4,False,Kalveerampalayam,Coimbatore,"50/51, Thoppil Nagar, Kalveerampalyam, Kalveerampalayam, Coimbatore - 641046, Dist.Coimbatore, Tamil Nadu",8046037064,
"Unisex Tapping Friends Adult Diapers, 10's",https://www.indiamart.com/proddetail/friends-adult-diapers-22527681633.html?pos=111&kwd=adult diapers&tags=A||||8211.142|Price|product|||MDC|rsf:gd-|-stype:attr=1|qr_nm:gd|res:RC4|com-cf:nl|ptrs:na|ktp:N0|mc:21601|mtp:S|qry_typ:P|lang:en|wc:2|cs:8826|v=4,Shri Sai Pharma,https://www.indiamart.com/shrisaipharma/?pos=111&kwd=adult diapers&tags=A||||8211.142|Price|product|||MDC|rsf:gd-|-stype:attr=1|qr_nm:gd|res:RC4|com-cf:nl|ptrs:na|ktp:N0|mc:21601|mtp:S|qry_typ:P|lang:en|wc:2|cs:8826|v=4,False,Sion,Mumbai,"No. 1 Building, 112, Ashok Nagar, Sion-Trombay Road Sion, Chunabhatti, Sion, Mumbai - 400022, Dist.Mumbai, Maharashtra",8046055538,
"M Size Modern Adult Diaper, Medium",https://www.indiamart.com/proddetail/m-size-modern-adult-diaper-2854299007655.html?pos=112&kwd=adult diapers&tags=A||||8226.563|Price|product|||MDC|rsf:gd-|-stype:attr=1|qr_nm:gd|res:RC4|com-cf:nl|ptrs:na|ktp:N0|mc:21601|mtp:S|qry_typ:P|lang:en|wc:2|cs:8826|v=4,Modern Sales Corporation,https://www.indiamart.com/modern-salescorporation/?pos=112&kwd=adult diapers&tags=A||||8226.563|Price|product|||MDC|rsf:gd-|-stype:attr=1|qr_nm:gd|res:RC4|com-cf:nl|ptrs:na|ktp:N0|mc:21601|mtp:S|qry_typ:P|lang:en|wc:2|cs:8826|v=4,False,,Navi Mumbai,"Shop No. 1, House No. 169, Sector No. 12E, OPP. Animal Hospital, Koparkhairane,, Navi Mumbai - 400709, Dist.Thane, Maharashtra",8045735237,
"Adult Pull Up Pant Diapers, Size: M,L Xl",https://www.indiamart.com/proddetail/adult-pull-up-pant-diapers-24483054712.html?pos=113&kwd=adult diapers&tags=A||||8559.269|Price|product|||TS|rsf:gd-|-stype:attr=1|qr_nm:gd|res:RC4|com-cf:nl|ptrs:na|ktp:N0|mc:21601|mtp:S|qry_typ:P|lang:en|wc:2|cs:8826|v=4,Shree Balasaheb Enterprises,https://www.indiamart.com/shreebalasahebenterprises/?pos=113&kwd=adult diapers&tags=A||||8559.269|Price|product|||TS|rsf:gd-|-stype:attr=1|qr_nm:gd|res:RC4|com-cf:nl|ptrs:na|ktp:N0|mc:21601|mtp:S|qry_typ:P|lang:en|wc:2|cs:8826|v=4,False,Kailashpuri,Indore,"35 Kelashpuri Colony Khazrana, Kailashpuri, Indore - 452016, Dist.Indore, Madhya Pradesh",8048955175,
"STAY SURE ADULT DIAPERS EXTRA LARGE PREMIUM PACK OF 10 PCS, XL",https://www.indiamart.com/proddetail/stay-sure-adult-diapers-extra-large-premium-pack-of-10-pcs-2855079645712.html?pos=114&kwd=adult diapers&tags=A||||8307.81|Price|product|||TS|rsf:gd-|-stype:attr=1|qr_nm:gd|res:RC4|com-cf:nl|ptrs:na|ktp:N0|mc:21601|mtp:S|qry_typ:P|lang:en|wc:2|cs:8826|v=4,Eternis Hygiene Products,https://www.indiamart.com/eternis-hygiene-products/?pos=114&kwd=adult diapers&tags=A||||8307.81|Price|product|||TS|rsf:gd-|-stype:attr=1|qr_nm:gd|res:RC4|com-cf:nl|ptrs:na|ktp:N0|mc:21601|mtp:S|qry_typ:P|lang:en|wc:2|cs:8826|v=4,False,Kharabwadi,Pune,"Plot No. 5, Gat No. 357/95 Waghjai Nagar, Kharabwadi, Chakan, Khed, Kharabwadi, Pune - 410501, Dist.Pune, Maharashtra",8046042766,
Disposable Adult Diaper,https://www.indiamart.com/proddetail/disposable-adult-diaper-2853484373555.html?pos=115&kwd=adult diapers&tags=A||||8268.494|Price|product|||TS|rsf:gd-|-stype:attr=1|qr_nm:gd|res:RC4|com-cf:nl|ptrs:na|ktp:N0|mc:21601|mtp:S|qry_typ:P|lang:en|wc:2|cs:8826|v=4,Medco Distributors,https://www.medcodistributors.in/?pos=115&kwd=adult diapers&tags=A||||8268.494|Price|product|||TS|rsf:gd-|-stype:attr=1|qr_nm:gd|res:RC4|com-cf:nl|ptrs:na|ktp:N0|mc:21601|mtp:S|qry_typ:P|lang:en|wc:2|cs:8826|v=4,False,Sindhi Colony,Abu Road,"Ground Floor, Gujrati Kumar Mohalla, Sindhi Colony, Abu Road - 307026, Dist.Sirohi, Rajasthan",8046033758,
"Pull Ups Adult diaper pants, Size: Medium",https://www.indiamart.com/proddetail/adult-diaper-pants-2853959280391.html?pos=116&kwd=adult diapers&tags=A||||8778.123||product|||TS|rsf:gd-|-stype:attr=1|qr_nm:gd|res:RC4|com-cf:nl|ptrs:na|ktp:N0|mc:21601|mtp:S|qry_typ:P|lang:en|wc:2|cs:8826|v=4,Samyak Hygiene Care Private Limited,https://www.indiamart.com/samyakhygienecare/?pos=116&kwd=adult diapers&tags=A||||8778.123||product|||TS|rsf:gd-|-stype:attr=1|qr_nm:gd|res:RC4|com-cf:nl|ptrs:na|ktp:N0|mc:21601|mtp:S|qry_typ:P|lang:en|wc:2|cs:8826|v=4,False,Ward No 11,Noida,"Plot No. 1782, Chatanga Road, Jewar, Guttam Bhudi Nagar, Ward No 11, Noida - 203135, Dist.Gautam Budh Nagar, Uttar Pradesh",8047640159,
"Disposable Adult Diaper, Large",https://www.indiamart.com/proddetail/disposable-adult-diaper-2854377928655.html?pos=117&kwd=adult diapers&tags=A||||8228.275|Price|product|||TS|rsf:gd-|-stype:attr=1|qr_nm:gd|res:RC4|com-cf:nl|ptrs:na|ktp:N0|mc:21601|mtp:S|qry_typ:P|lang:en|wc:2|cs:8826|v=4,Curewell Pharma,https://www.curewellpharma.com/?pos=117&kwd=adult diapers&tags=A||||8228.275|Price|product|||TS|rsf:gd-|-stype:attr=1|qr_nm:gd|res:RC4|com-cf:nl|ptrs:na|ktp:N0|mc:21601|mtp:S|qry_typ:P|lang:en|wc:2|cs:8826|v=4,False,Ambavadi,Ahmedabad,"Ground Floor, GF-15, Doctor House, Parimal Crossing, Parimal Garden Junction,, Ambavadi, Ahmedabad - 380006, Dist.Ahmedabad, Gujarat",8044015333,
Adult Diaper Tape Type M Size,https://www.indiamart.com/proddetail/adult-diaper-tape-type-m-size-2851605950755.html?pos=118&kwd=adult diapers&tags=A||||8954.051|Price|product|||TS|rsf:gd-|-stype:attr=1|qr_nm:gd|res:RC4|com-cf:nl|ptrs:na|ktp:N0|mc:21601|mtp:S|qry_typ:P|lang:en|wc:2|cs:8826|v=4,The Exultant Enterprises,https://www.theexultantenterprises.com/?pos=118&kwd=adult diapers&tags=A||||8954.051|Price|product|||TS|rsf:gd-|-stype:attr=1|qr_nm:gd|res:RC4|com-cf:nl|ptrs:na|ktp:N0|mc:21601|mtp:S|qry_typ:P|lang:en|wc:2|cs:8826|v=4,False,Velacheri,Chennai,"Building No. 13, New Secreterary Colony 6th Street,, Velacheri, Chennai - 600042, Dist.Chennai, Tamil Nadu",8048960064,
"Fabby Adult Diaper Pants Extra Large, XL",https://www.indiamart.com/proddetail/fabby-adult-diaper-pants-extra-large-2854391134288.html?pos=119&kwd=adult diapers&tags=A||||8211.142|Price|product|||SSnp|rsf:gd-|-stype:attr=1|qr_nm:gd|res:RC4|com-cf:nl|ptrs:na|ktp:N0|mc:21601|mtp:S|qry_typ:P|lang:en|wc:2|cs:8826|v=4,Hamazz Wellness Company,https://www.hamazzhealthcare.in/?pos=119&kwd=adult diapers&tags=A||||8211.142|Price|product|||SSnp|rsf:gd-|-stype:attr=1|qr_nm:gd|res:RC4|com-cf:nl|ptrs:na|ktp:N0|mc:21601|mtp:S|qry_typ:P|lang:en|wc:2|cs:8826|v=4,False,Malad West,Mumbai,"D/14, 2nd Floor, Mashayakh CHS LTD Chincholi Bunder Road, Malad West, Mumbai - 400064, Dist.Mumbai, Maharashtra",8047655127,
Adult Diapers(valcro or sticking type),https://www.indiamart.com/proddetail/adult-diapers-valcro-or-sticking-type-22323651948.html?pos=120&kwd=adult diapers&tags=A||||8211.142||product|||TS|rsf:gd-|-stype:attr=1|qr_nm:gd|res:RC4|com-cf:nl|ptrs:na|ktp:N0|mc:21601|mtp:S|qry_typ:P|lang:en|wc:2|cs:8826|v=4,Khanna Enterprise,https://www.indiamart.com/khannaentps-mumbai/?pos=120&kwd=adult diapers&tags=A||||8211.142||product|||TS|rsf:gd-|-stype:attr=1|qr_nm:gd|res:RC4|com-cf:nl|ptrs:na|ktp:N0|mc:21601|mtp:S|qry_typ:P|lang:en|wc:2|cs:8826|v=4,False,Chembur,Mumbai,"A-8, Gurukrupa Terrace, RC Marg, Chembur East, Chembur, Mumbai - 400071, Dist.Mumbai, Maharashtra",8046039664,
Pull Ups Lifree Adult Diapers unisex,https://www.indiamart.com/proddetail/lifree-adult-diapers-unisex-2854067791030.html?pos=121&kwd=adult diapers&tags=A||||8211.142||product|||MDC|rsf:gd-|-stype:attr=1|qr_nm:gd|res:RC4|com-cf:nl|ptrs:na|ktp:N0|mc:21601|mtp:S|qry_typ:P|lang:en|wc:2|cs:8826|v=4,Vandana Enterprises,https://www.indiamart.com/vandanaenterprises-mumbai-maharashtra/?pos=121&kwd=adult diapers&tags=A||||8211.142||product|||MDC|rsf:gd-|-stype:attr=1|qr_nm:gd|res:RC4|com-cf:nl|ptrs:na|ktp:N0|mc:21601|mtp:S|qry_typ:P|lang:en|wc:2|cs:8826|v=4,False,Jogeshwari East,Mumbai,"Chawl No 8, 12, Nasirkhan Rasulkhan Chawl, Meghwadi, Near Shiv Sena Office, Jogeshwari Suburban East, Jogeshwari East, Mumbai - 400060, Dist.Mumbai, Maharashtra",7949093226,
Pull Ups Medium Classic Pant Adult Diaper,https://www.indiamart.com/proddetail/medium-classic-pant-adult-diaper-2853717093048.html?pos=122&kwd=adult diapers&tags=A||||8038.093|Price|product|||MDC|rsf:gd-|-stype:attr=1|qr_nm:gd|res:RC4|com-cf:nl|ptrs:na|ktp:N0|mc:21601|mtp:S|qry_typ:P|lang:en|wc:2|cs:8826|v=4,Balaji Pharmacy,https://www.indiamart.com/balajipharmacy-rajkot/?pos=122&kwd=adult diapers&tags=A||||8038.093|Price|product|||MDC|rsf:gd-|-stype:attr=1|qr_nm:gd|res:RC4|com-cf:nl|ptrs:na|ktp:N0|mc:21601|mtp:S|qry_typ:P|lang:en|wc:2|cs:8826|v=4,False,Jangleshwar,Rajkot,"Ground Floor,Shop No.2, Quater No.76,Surey No.249, Hudco Quarters, Kothariya Main Road, Jangleshwar, Rajkot - 360002, Dist.Rajkot, Gujarat",8044013220,
"Friends Adult Diapers, Size: Large",https://www.indiamart.com/proddetail/friends-adult-diapers-2852883815330.html?pos=123&kwd=adult diapers&tags=A||||8211.142|Price|product|||TS|rsf:gd-|-stype:attr=1|qr_nm:gd|res:RC4|com-cf:nl|ptrs:na|ktp:N0|mc:21601|mtp:S|qry_typ:P|lang:en|wc:2|cs:8826|v=4,S N Surgicals,https://www.indiamart.com/snsurgicals-mumbai/?pos=123&kwd=adult diapers&tags=A||||8211.142|Price|product|||TS|rsf:gd-|-stype:attr=1|qr_nm:gd|res:RC4|com-cf:nl|ptrs:na|ktp:N0|mc:21601|mtp:S|qry_typ:P|lang:en|wc:2|cs:8826|v=4,False,Dahisar,Mumbai,"Shop No. G-16, Sai Krupa Mall, LT Road, Opp Railway Station, Dahisar West Suburban, Dahisar, Mumbai - 400068, Dist.Mumbai, Maharashtra",7942968320,
"Adult Diapers, Large",https://www.indiamart.com/proddetail/adult-diapers-2854412320455.html?pos=124&kwd=adult diapers&tags=A||||9520.041|Price|product|||TS|rsf:gd-|-stype:attr=1|qr_nm:gd|res:RC4|com-cf:nl|ptrs:na|ktp:N0|mc:21601|mtp:S|qry_typ:P|lang:en|wc:2|cs:8826|v=4,Nidat Health Private Limited,https://www.indiamart.com/nidathealth/?pos=124&kwd=adult diapers&tags=A||||9520.041|Price|product|||TS|rsf:gd-|-stype:attr=1|qr_nm:gd|res:RC4|com-cf:nl|ptrs:na|ktp:N0|mc:21601|mtp:S|qry_typ:P|lang:en|wc:2|cs:8826|v=4,False,Lohia Nagar,Patna,"A/228, 1ST Floor West, P C Colony, Modern Hospital, Lohia Nagar, Patna - 800020, Dist.Patna, Bihar",7942870212,
Pull Ups Adult Diapers,https://www.indiamart.com/proddetail/adult-diapers-2853109124312.html?pos=125&kwd=adult diapers&tags=A||||9228.171||product|||TS|rsf:gd-|-stype:attr=1|qr_nm:gd|res:RC4|com-cf:nl|ptrs:na|ktp:N0|mc:21601|mtp:S|qry_typ:P|lang:en|wc:2|cs:8826|v=4,Evergreen Care,https://www.indiamart.com/evergreencare-faizabad/?pos=125&kwd=adult diapers&tags=A||||9228.171||product|||TS|rsf:gd-|-stype:attr=1|qr_nm:gd|res:RC4|com-cf:nl|ptrs:na|ktp:N0|mc:21601|mtp:S|qry_typ:P|lang:en|wc:2|cs:8826|v=4,False,Faizabad Cantt,Faizabad,"Near Raebareilly Bypass, Faizabad Cantt, Faizabad - 224202, Uttar Pradesh",8046054746,
Hospi Fit Adult Diaper,https://www.indiamart.com/proddetail/hospi-fit-adult-diaper-2854724679730.html?pos=126&kwd=adult diapers&tags=A||||9520.041|Price|product|||MDC|rsf:gd-|-stype:attr=1|qr_nm:gd|res:RC4|com-cf:nl|ptrs:na|ktp:N0|mc:21601|mtp:S|qry_typ:P|lang:en|wc:2|cs:8826|v=4,Nav Durga Surgicals,https://www.indiamart.com/navdurgasurgicals/?pos=126&kwd=adult diapers&tags=A||||9520.041|Price|product|||MDC|rsf:gd-|-stype:attr=1|qr_nm:gd|res:RC4|com-cf:nl|ptrs:na|ktp:N0|mc:21601|mtp:S|qry_typ:P|lang:en|wc:2|cs:8826|v=4,False,,Patna,"Plot No 962, Nav Durga Surgicals, Karorichak Main Road, Karori Chak,Phulwari Sharif, Patna - 801505, Dist.Patna, Bihar",7949328770,
Smartcare Adult Diapers,,S.T.S. Traders,https://www.indiamart.com/sts-traders-kolkata/?pos=127&kwd=adult diapers&tags=A||||9839.57|Price|product|||TS|rsf:gd-|-stype:attr=1|qr_nm:gd|res:RC4|com-cf:nl|ptrs:na|ktp:N0|mc:21601|mtp:S|qry_typ:P|lang:en|wc:2|cs:8826|v=4,False,Gobra,Kolkata,"101- B Chittranjan Avenue 2nd Floor Flat No.3, Gobra, Kolkata - 700073, Dist.Kolkata, West Bengal",8048962268,
Friends Adult Diaper Xl Size & L,https://www.indiamart.com/proddetail/friends-adult-diaper-xl-size-l-2853624263097.html?pos=128&kwd=adult diapers&tags=A||||8663.873|Price|product|||TS|rsf:gd-|-stype:attr=1|qr_nm:gd|res:RC4|com-cf:nl|ptrs:na|ktp:N0|mc:21601|mtp:S|qry_typ:P|lang:en|wc:2|cs:8826|v=4,SVK Healthcare Services,https://www.indiamart.com/svkhealthcareservice/?pos=128&kwd=adult diapers&tags=A||||8663.873|Price|product|||TS|rsf:gd-|-stype:attr=1|qr_nm:gd|res:RC4|com-cf:nl|ptrs:na|ktp:N0|mc:21601|mtp:S|qry_typ:P|lang:en|wc:2|cs:8826|v=4,False,Mahalakshmipuram Muneshwara Block,Bengaluru,"First Floor, No.123, 2nd Stage, 2nd Phase, 6th Main Road, Mahalakshmipuram Muneshwara Block, Bengaluru - 560086, Dist.Bengaluru, Karnataka",7949225739,
"Unisex Adult Diaper, Medium",https://www.indiamart.com/proddetail/unisex-adult-diaper-2852925018948.html?pos=129&kwd=adult diapers&tags=A||||8752.144|Price|product|||TS|rsf:gd-|-stype:attr=1|qr_nm:gd|res:RC4|com-cf:nl|ptrs:na|ktp:N0|mc:21601|mtp:S|qry_typ:P|lang:en|wc:2|cs:8826|v=4,Sri Rajbhan Enterprises,https://www.indiamart.com/srirajbhanenterprises/?pos=129&kwd=adult diapers&tags=A||||8752.144|Price|product|||TS|rsf:gd-|-stype:attr=1|qr_nm:gd|res:RC4|com-cf:nl|ptrs:na|ktp:N0|mc:21601|mtp:S|qry_typ:P|lang:en|wc:2|cs:8826|v=4,False,,New Delhi,"Flat No 18, Ganga Apartment, Alaknanda, New Delhi - 110019, Dist.Delhi, Delhi",7942956951,
"Briefs Male Adult Diaper, Waist Size: 20""-28''",https://www.indiamart.com/proddetail/male-adult-diaper-22170794662.html?pos=130&kwd=adult diapers&tags=A||||8307.81|Price|product|||SSnp|rsf:gd-|-stype:attr=1|qr_nm:gd|res:RC4|com-cf:nl|ptrs:na|ktp:N0|mc:21601|mtp:S|qry_typ:P|lang:en|wc:2|cs:8826|v=4,R M Pharmaceuticals,https://www.indiamart.com/rm-pharmaceuticals/?pos=130&kwd=adult diapers&tags=A||||8307.81|Price|product|||SSnp|rsf:gd-|-stype:attr=1|qr_nm:gd|res:RC4|com-cf:nl|ptrs:na|ktp:N0|mc:21601|mtp:S|qry_typ:P|lang:en|wc:2|cs:8826|v=4,True,Sadashiv Peth,Pune,"Malwadi A-103 S No 168/1011 Tupe Nagar Madhav Baug Sadashiv Peth, Sadashiv Peth, Pune - 411028, Dist.Pune, Maharashtra",7942556859,
"L Adult Diaper Pants, Size: Large",https://www.indiamart.com/proddetail/l-adult-pull-up-diaper-pants-2854475102330.html?pos=131&kwd=adult diapers&tags=A||||8038.093|Price|product|||MDC|rsf:gd-|-stype:attr=1|qr_nm:gd|res:RC4|com-cf:nl|ptrs:na|ktp:N0|mc:21601|mtp:S|qry_typ:P|lang:en|wc:2|cs:8826|v=4,Kinshav Hub,https://www.indiamart.com/kinshavhub/?pos=131&kwd=adult diapers&tags=A||||8038.093|Price|product|||MDC|rsf:gd-|-stype:attr=1|qr_nm:gd|res:RC4|com-cf:nl|ptrs:na|ktp:N0|mc:21601|mtp:S|qry_typ:P|lang:en|wc:2|cs:8826|v=4,False,,Rajkot,"Flat No. 301, Ankita Apartment, Bhakti Nagar Station Plot, Godown Road, Jay Oil Centre, Manohar Plot, Rajkot - 360002, Dist.Rajkot, Gujarat",8041015587,
"Sticking Briefs Friends Adult Diapers, Size: Large, 12*10",https://www.indiamart.com/proddetail/friends-adult-diapers-22290626888.html?pos=132&kwd=adult diapers&tags=A||||8226.563|Price|product|||TS|rsf:gd-|-stype:attr=1|qr_nm:gd|res:RC4|com-cf:nl|ptrs:na|ktp:N0|mc:21601|mtp:S|qry_typ:P|lang:en|wc:2|cs:8826|v=4,Radiant Bio Science,https://www.indiamart.com/radiantbioscience/?pos=132&kwd=adult diapers&tags=A||||8226.563|Price|product|||TS|rsf:gd-|-stype:attr=1|qr_nm:gd|res:RC4|com-cf:nl|ptrs:na|ktp:N0|mc:21601|mtp:S|qry_typ:P|lang:en|wc:2|cs:8826|v=4,False,Sanpada,Navi Mumbai,"Shop 1, Plot 67, Behind Krishna Govind Tower Sector 22, Turbhe, Sanpada, Navi Mumbai - 400705, Dist.Thane, Maharashtra",8048617594,
"Briefs Moon Care Adult Diapers, Size: Large",https://www.indiamart.com/proddetail/moon-care-adult-diapers-22506885497.html?pos=133&kwd=adult diapers&tags=A||||8624.416|Price|product|||TS|rsf:gd-|-stype:attr=1|qr_nm:gd|res:RC4|com-cf:nl|ptrs:na|ktp:N0|mc:21601|mtp:S|qry_typ:P|lang:en|wc:2|cs:8826|v=4,R K Surgical,https://www.indiamart.com/rk-surgical-haryana/?pos=133&kwd=adult diapers&tags=A||||8624.416|Price|product|||TS|rsf:gd-|-stype:attr=1|qr_nm:gd|res:RC4|com-cf:nl|ptrs:na|ktp:N0|mc:21601|mtp:S|qry_typ:P|lang:en|wc:2|cs:8826|v=4,False,Mill Gate,Hisar,"Gali No 1, 2, Shyam Lal Dhani, Mill Gate Road, Opp Gate No 1, New Sabji Mandi,, Mill Gate, Hisar - 125001, Dist.Hisar, Haryana",8043827630,
Protective Underwear Adult Diaper,https://www.indiamart.com/proddetail/adult-diaper-22416607797.html?pos=134&kwd=adult diapers&tags=A||||9572.14|Price|product|||TS|rsf:gd-|-stype:attr=1|qr_nm:gd|res:RC4|com-cf:nl|ptrs:na|ktp:N0|mc:21601|mtp:S|qry_typ:P|lang:en|wc:2|cs:8826|v=4,Savera Health Care,https://www.indiamart.com/saverahealthcare/?pos=134&kwd=adult diapers&tags=A||||9572.14|Price|product|||TS|rsf:gd-|-stype:attr=1|qr_nm:gd|res:RC4|com-cf:nl|ptrs:na|ktp:N0|mc:21601|mtp:S|qry_typ:P|lang:en|wc:2|cs:8826|v=4,False,Shyampur,Bhubaneswar,"Plot no:-1260, K-8,Kalinga Vihar OLD ASPIRE college road, Shyampur, Bhubaneswar - 751003, Dist.Khorda, Odisha",7942536916,
Lifree XL10 Extra Absorb Pants,https://www.indiamart.com/proddetail/lifree-xl10-extra-absorb-pants-2854694997662.html?pos=135&kwd=adult diapers&tags=A||||8559.269|Price|product|||MDC|rsf:gd-|-stype:attr=1|qr_nm:gd|res:RC4|com-cf:nl|ptrs:na|ktp:N0|mc:21601|mtp:S|qry_typ:P|lang:en|wc:2|cs:8826|v=4,Hi Tech Logistics,https://www.indiamart.com/hitech-logistics-indore/?pos=135&kwd=adult diapers&tags=A||||8559.269|Price|product|||MDC|rsf:gd-|-stype:attr=1|qr_nm:gd|res:RC4|com-cf:nl|ptrs:na|ktp:N0|mc:21601|mtp:S|qry_typ:P|lang:en|wc:2|cs:8826|v=4,False,,Indore,"Halka No. 17, Survey No. 13/2/1, Lasudiya Mori, Indore - 452010, Dist.Indore, Madhya Pradesh",8044460450,
Disposable Adult Diaper,https://www.indiamart.com/proddetail/disposable-adult-diaper-14799965097.html?pos=136&kwd=adult diapers&tags=A||||8954.051||product|||TS|rsf:gd-|-stype:attr=1|qr_nm:gd|res:RC4|com-cf:nl|ptrs:na|ktp:N0|mc:21601|mtp:S|qry_typ:P|lang:en|wc:2|cs:8826|v=4,Sidd Health Zon,https://www.oldagecarepro.com/?pos=136&kwd=adult diapers&tags=A||||8954.051||product|||TS|rsf:gd-|-stype:attr=1|qr_nm:gd|res:RC4|com-cf:nl|ptrs:na|ktp:N0|mc:21601|mtp:S|qry_typ:P|lang:en|wc:2|cs:8826|v=4,False,Anna Nagar,Chennai,"Ground Floor, AB 102, 104, PKS Arcade, 4th Avenue, Shanthi Colony, Nandhiniee Sweets, Anna Nagar, Anna Nagar, Chennai - 600040, Dist.Chennai, Tamil Nadu",8048986713,
Tape Style Cotton Disposable Adult Diaper,https://www.indiamart.com/proddetail/disposable-adult-diaper-2851727162433.html?pos=137&kwd=adult diapers&tags=A||||8752.144|Price|product|||TS|rsf:gd-|-stype:attr=1|qr_nm:gd|res:RC4|com-cf:nl|ptrs:na|ktp:N0|mc:21601|mtp:S|qry_typ:P|lang:en|wc:2|cs:8826|v=4,Kt Disposables,https://www.indiamart.com/ktdisposables/?pos=137&kwd=adult diapers&tags=A||||8752.144|Price|product|||TS|rsf:gd-|-stype:attr=1|qr_nm:gd|res:RC4|com-cf:nl|ptrs:na|ktp:N0|mc:21601|mtp:S|qry_typ:P|lang:en|wc:2|cs:8826|v=4,False,Uttam Nagar,New Delhi,"Portion Of Plot No 37 , Viddya Vihar , Hastsal Industrial Area, Uttam Nagar, Uttam Nagar, New Delhi - 110059, Dist.Delhi, Delhi",8047644954,
18+ Cotton Disposable Adult Diaper Pant,https://www.indiamart.com/proddetail/disposable-adult-diaper-pant-2854435900930.html?pos=138&kwd=adult diapers&tags=A||||8601.347|Price|product|||TS|rsf:gd-|-stype:attr=1|qr_nm:gd|res:RC4|com-cf:nl|ptrs:na|ktp:N0|mc:21601|mtp:S|qry_typ:P|lang:en|wc:2|cs:8826|v=4,T. C. Pharma,https://www.indiamart.com/tcpharma/?pos=138&kwd=adult diapers&tags=A||||8601.347|Price|product|||TS|rsf:gd-|-stype:attr=1|qr_nm:gd|res:RC4|com-cf:nl|ptrs:na|ktp:N0|mc:21601|mtp:S|qry_typ:P|lang:en|wc:2|cs:8826|v=4,False,Bambala,Jaipur,"162/214, Ground Floor, Sector-16, Pratap Nagar,, Bambala, Jaipur - 302033, Dist.Jaipur, Rajasthan",8048273054,
Lyfcare Adult Diapers,https://www.indiamart.com/proddetail/lyfcare-adult-diapers-2854924721655.html?pos=139&kwd=adult diapers&tags=A||||8302.941||product|||MDC|rsf:gd-|-stype:attr=1|qr_nm:gd|res:RC4|com-cf:nl|ptrs:na|ktp:N0|mc:21601|mtp:S|qry_typ:P|lang:en|wc:2|cs:8826|v=4,Unity Cure,https://www.indiamart.com/unity-cure/?pos=139&kwd=adult diapers&tags=A||||8302.941||product|||MDC|rsf:gd-|-stype:attr=1|qr_nm:gd|res:RC4|com-cf:nl|ptrs:na|ktp:N0|mc:21601|mtp:S|qry_typ:P|lang:en|wc:2|cs:8826|v=4,False,,Pimpri Chinchwad,"1st, Shop No. P-135, Mayur Trade Center, Old Mumbai Pune Highway Road, Chinchwad East, Pimpri Chinchwad - 411019, Maharashtra",8044457298,
"Friends Adult Diapers, Size: Medium, Age Group: Newly Born",https://www.indiamart.com/proddetail/friends-adult-diapers-2853348622197.html?pos=140&kwd=adult diapers&tags=A||||8211.142|Price|product|||MDC|rsf:gd-|-stype:attr=1|qr_nm:gd|res:RC4|com-cf:nl|ptrs:na|ktp:N0|mc:21601|mtp:S|qry_typ:P|lang:en|wc:2|cs:8826|v=4,Lucky Health Care,https://www.indiamart.com/luckyhealthcare/?pos=140&kwd=adult diapers&tags=A||||8211.142|Price|product|||MDC|rsf:gd-|-stype:attr=1|qr_nm:gd|res:RC4|com-cf:nl|ptrs:na|ktp:N0|mc:21601|mtp:S|qry_typ:P|lang:en|wc:2|cs:8826|v=4,False,Malad East,Mumbai,"1st Floor, Shreya General Stores Ravi, Shankar Chawl Gen A K V Marg Malad, Navsha Compd Near Riddhi Garden, Suburban, Malad East, Mumbai - 400097, Dist.Mumbai, Maharashtra",7949227835,
"Magna Adult Diapers M, Medium",https://www.indiamart.com/proddetail/magna-adult-diapers-m-2855008810312.html?pos=141&kwd=adult diapers&tags=A||||8915.672|Price|product|||MDC|rsf:gd-|-stype:attr=1|qr_nm:gd|res:RC4|com-cf:nl|ptrs:na|ktp:N0|mc:21601|mtp:S|qry_typ:P|lang:en|wc:2|cs:8826|v=4,Aiza International Pharma,https://www.indiamart.com/aizainternationalpharma/?pos=141&kwd=adult diapers&tags=A||||8915.672|Price|product|||MDC|rsf:gd-|-stype:attr=1|qr_nm:gd|res:RC4|com-cf:nl|ptrs:na|ktp:N0|mc:21601|mtp:S|qry_typ:P|lang:en|wc:2|cs:8826|v=4,False,,Moradabad,"Near Junior High School Pakwada, Opposite Narsury Ka Medan, Delhi Road, Pakwada, Moradabad - 244102, Dist.Moradabad, Uttar Pradesh",8044457474,
"B Fit Adult Diapers, Medium",https://www.indiamart.com/proddetail/b-fit-adult-diapers-2854862133088.html?pos=142&kwd=adult diapers&tags=A||||8211.142|Price|product|||MDC|rsf:gd-|-stype:attr=1|qr_nm:gd|res:RC4|com-cf:nl|ptrs:na|ktp:N0|mc:21601|mtp:S|qry_typ:P|lang:en|wc:2|cs:8826|v=4,R M Pharma & Surgical,https://www.indiamart.com/rm-pharma-surgical/?pos=142&kwd=adult diapers&tags=A||||8211.142|Price|product|||MDC|rsf:gd-|-stype:attr=1|qr_nm:gd|res:RC4|com-cf:nl|ptrs:na|ktp:N0|mc:21601|mtp:S|qry_typ:P|lang:en|wc:2|cs:8826|v=4,False,Ghatkopar West Mumbai Suburban,Mumbai,"Ground Floor, Shop No 04, Sunil CHS Ltd, Sant Narsi Mehta Road, Shreevigna Harta Ganesh Temple, Ghatkopar West Mumbai Suburban, Mumbai - 400086, Dist.Mumbai, Maharashtra",8044458210,
"Disposable Friends Adult Diapers, Large",https://www.indiamart.com/proddetail/disposable-friends-adult-diapers-22066257530.html?pos=143&kwd=adult diapers&tags=A||||8876.815|Price|product|||MDC|rsf:gd-|-stype:attr=1|qr_nm:gd|res:RC4|com-cf:nl|ptrs:na|ktp:N0|mc:21601|mtp:S|qry_typ:P|lang:en|wc:2|cs:8826|v=4,Mangalam Pharma,https://www.indiamart.com/mangalampharma/?pos=143&kwd=adult diapers&tags=A||||8876.815|Price|product|||MDC|rsf:gd-|-stype:attr=1|qr_nm:gd|res:RC4|com-cf:nl|ptrs:na|ktp:N0|mc:21601|mtp:S|qry_typ:P|lang:en|wc:2|cs:8826|v=4,False,,Nagpur,"F-104, Plot No 802, Saptashru-NGI Apartment, Sudampuri,, Nagpur - 440009, Dist.Nagpur, Maharashtra",8047831433,
Comfrey Adult Diaper XL 10,https://www.indiamart.com/proddetail/comfrey-adult-diaper-xl-10-2854581197330.html?pos=144&kwd=adult diapers&tags=A||||8211.142|Price|product|||MDC|rsf:gd-|-stype:attr=1|qr_nm:gd|res:RC4|com-cf:nl|ptrs:na|ktp:N0|mc:21601|mtp:S|qry_typ:P|lang:en|wc:2|cs:8826|v=4,S. P. Hygiene Products,https://www.indiamart.com/sphygieneproductsmumbai/?pos=144&kwd=adult diapers&tags=A||||8211.142|Price|product|||MDC|rsf:gd-|-stype:attr=1|qr_nm:gd|res:RC4|com-cf:nl|ptrs:na|ktp:N0|mc:21601|mtp:S|qry_typ:P|lang:en|wc:2|cs:8826|v=4,False,,Mumbai,"Ground Floor, Shop No.3, 46/A, Modern Mill Compound, Jagannath Bhatankar Marg, Near S T Depot Prabhadevi,, Mumbai - 400025, Dist.Mumbai, Maharashtra",7949338427,
Pant Type MKT Care Adult Diaper Pants / Pull-Ups : Ex Large,https://www.indiamart.com/proddetail/mkt-care-adult-diaper-pants-pull-ups-ex-large-24805300962.html?pos=145&kwd=adult diapers&tags=A||||8307.81|Price|product|||MDC|rsf:gd-|-stype:attr=1|qr_nm:gd|res:RC4|com-cf:nl|ptrs:na|ktp:N0|mc:21601|mtp:S|qry_typ:P|lang:en|wc:2|cs:8826|v=4,Tarmal Healthcare And Surgical,https://www.indiamart.com/tarmal-healthcaresurgical/?pos=145&kwd=adult diapers&tags=A||||8307.81|Price|product|||MDC|rsf:gd-|-stype:attr=1|qr_nm:gd|res:RC4|com-cf:nl|ptrs:na|ktp:N0|mc:21601|mtp:S|qry_typ:P|lang:en|wc:2|cs:8826|v=4,False,Wanowrie,Pune,"Shop No. 9, Picasso Kedari Arcade, Kedari Nagar, Wanwadi, Wanowrie, Pune - 411048, Dist.Pune, Maharashtra",8047639015,
"Free Steps Maxi, Size: XL",https://www.indiamart.com/proddetail/free-steps-maxi-2853892017233.html?pos=146&kwd=adult diapers&tags=A||||8741.812|Price|product|||TS|rsf:gd-|-stype:attr=1|qr_nm:gd|res:RC4|com-cf:nl|ptrs:na|ktp:N0|mc:21601|mtp:S|qry_typ:P|lang:en|wc:2|cs:8826|v=4,Jayshi Healthcare Private Limited,https://www.freesteps.in/?pos=146&kwd=adult diapers&tags=A||||8741.812|Price|product|||TS|rsf:gd-|-stype:attr=1|qr_nm:gd|res:RC4|com-cf:nl|ptrs:na|ktp:N0|mc:21601|mtp:S|qry_typ:P|lang:en|wc:2|cs:8826|v=4,False,,Gurugram,"Near Khasi Ram Medical, Gurugram ,HR, 413/4, Jacubpura, Gurugram, New Railway Road near Jeevan multi specialist hospital, Gurugram - 122001, Dist.Gurgaon, Haryana",8045909409,
"Adult Pull Up Diaper, Size: Medium",https://www.indiamart.com/proddetail/adult-pull-up-diaper-2853889379148.html?pos=147&kwd=adult diapers&tags=A||||9110.092|Price|product|||MDC|rsf:gd-|-stype:attr=1|qr_nm:gd|res:RC4|com-cf:nl|ptrs:na|ktp:N0|mc:21601|mtp:S|qry_typ:P|lang:en|wc:2|cs:8826|v=4,King Import And Export,https://www.indiamart.com/kingimportexport/?pos=147&kwd=adult diapers&tags=A||||9110.092|Price|product|||MDC|rsf:gd-|-stype:attr=1|qr_nm:gd|res:RC4|com-cf:nl|ptrs:na|ktp:N0|mc:21601|mtp:S|qry_typ:P|lang:en|wc:2|cs:8826|v=4,False,Hind Nagar,Lucknow,"F-489, Lucknow Bypass, Parking No 9, Transport Nagar, Hind Nagar, Lucknow - 226012, Dist.Lucknow, Uttar Pradesh",7949086924,
"Pull Ups Smart Care Adult Diaper, Size: XL",https://www.indiamart.com/proddetail/smart-care-adult-diaper-2853646284612.html?pos=148&kwd=adult diapers&tags=A||||8281.036|Price|product|||MDC|rsf:gd-|-stype:attr=1|qr_nm:gd|res:RC4|com-cf:nl|ptrs:na|ktp:N0|mc:21601|mtp:S|qry_typ:P|lang:en|wc:2|cs:8826|v=4,AVS Medical & Surgical,https://www.indiamart.com/avs-medical-surgical/?pos=148&kwd=adult diapers&tags=A||||8281.036|Price|product|||MDC|rsf:gd-|-stype:attr=1|qr_nm:gd|res:RC4|com-cf:nl|ptrs:na|ktp:N0|mc:21601|mtp:S|qry_typ:P|lang:en|wc:2|cs:8826|v=4,False,Makarpura,Vadodara,"First Floor, Tower Shop No. FF/16, Opp Royal Villa, B/H Air Force Station, Havali Resi Cum Plaza, Makarpura, Makarpura, Vadodara - 390014, Dist.Vadodara, Gujarat",7949092551,
"KareMed Adult Diaper Pants, Medium",https://www.indiamart.com/proddetail/karemed-adult-diaper-pants-2854991151873.html?pos=149&kwd=adult diapers&tags=A||||9301.656|Price|product|||MDC|rsf:gd-|-stype:attr=1|qr_nm:gd|res:RC4|com-cf:nl|ptrs:na|ktp:N0|mc:21601|mtp:S|qry_typ:P|lang:en|wc:2|cs:8826|v=4,Growell Enterprises,https://www.indiamart.com/growellenterprisesvaranasi/?pos=149&kwd=adult diapers&tags=A||||9301.656|Price|product|||MDC|rsf:gd-|-stype:attr=1|qr_nm:gd|res:RC4|com-cf:nl|ptrs:na|ktp:N0|mc:21601|mtp:S|qry_typ:P|lang:en|wc:2|cs:8826|v=4,False,,Varanasi,"C27/111 - J-M-6, Jagat Ganj, Varanasi - 221002, Dist.Varanasi, Uttar Pradesh",8044014354,
"Arrpit Care Adult Diaper Pants, Size: Large",https://www.indiamart.com/proddetail/arrpit-care-adult-diaper-pants-2854148647662.html?pos=150&kwd=adult diapers&tags=A||||8559.269|Price|product|||MDC|rsf:gd-|-stype:attr=1|qr_nm:gd|res:RC4|com-cf:nl|ptrs:na|ktp:N0|mc:21601|mtp:S|qry_typ:P|lang:en|wc:2|cs:8826|v=4,Arpit Care Private Limited,https://www.indiamart.com/arpit-care/?pos=150&kwd=adult diapers&tags=A||||8559.269|Price|product|||MDC|rsf:gd-|-stype:attr=1|qr_nm:gd|res:RC4|com-cf:nl|ptrs:na|ktp:N0|mc:21601|mtp:S|qry_typ:P|lang:en|wc:2|cs:8826|v=4,False,,Indore,"210, HIG, Indore Kanadia Road, Scheme No 94, Indore - 452016, Dist.Indore, Madhya Pradesh",8044015285,
"Plain Tryfit TF504M Pull Ups Adult Diaper, Packaging Size: Medium",https://www.indiamart.com/proddetail/tryfit-tf504m-pull-ups-adult-diaper-2853345004348.html?pos=151&kwd=adult diapers&tags=A||||9110.092||product|||MDC|rsf:gd-|-stype:attr=1|qr_nm:gd|res:RC4|com-cf:nl|ptrs:na|ktp:N0|mc:21601|mtp:S|qry_typ:P|lang:en|wc:2|cs:8826|v=4,Yashish Medicare Pvt. Ltd.,https://www.indiamart.com/yashish-medicare/?pos=151&kwd=adult diapers&tags=A||||9110.092||product|||MDC|rsf:gd-|-stype:attr=1|qr_nm:gd|res:RC4|com-cf:nl|ptrs:na|ktp:N0|mc:21601|mtp:S|qry_typ:P|lang:en|wc:2|cs:8826|v=4,False,Transport Nagar,Lucknow,"E-97, Kanpur Road, Transport Nagar, Transport Nagar, Lucknow - 226012, Dist.Lucknow, Uttar Pradesh",8047799569,
Disposable Adult Diaper tape Extra Large,,AS Enterprises,https://www.indiamart.com/asenterprises-telangana/?pos=152&kwd=adult diapers&tags=A||||8786.56||product|||TS|rsf:gd-|-stype:attr=1|qr_nm:gd|res:RC4|com-cf:nl|ptrs:na|ktp:N0|mc:21601|mtp:S|qry_typ:P|lang:en|wc:2|cs:8826|v=4,False,Ramanthapur,Hyderabad,"Telangana, Ramanthapur, Hyderabad - 500013, Dist.Hyderabad, Telangana",8048952542,
Adult Diapers,https://www.indiamart.com/proddetail/adult-diapers-2853859151230.html?pos=153&kwd=adult diapers&tags=A||||8584.299|Price|product|||TS|rsf:gd-|-stype:attr=1|qr_nm:gd|res:RC4|com-cf:nl|ptrs:na|ktp:N0|mc:21601|mtp:S|qry_typ:P|lang:en|wc:2|cs:8826|v=4,Ezhil Herbal Products,https://www.indiamart.com/ezhil-herbal-products/?pos=153&kwd=adult diapers&tags=A||||8584.299|Price|product|||TS|rsf:gd-|-stype:attr=1|qr_nm:gd|res:RC4|com-cf:nl|ptrs:na|ktp:N0|mc:21601|mtp:S|qry_typ:P|lang:en|wc:2|cs:8826|v=4,False,Madukkarai,Coimbatore,"12/389-1, Mariamman Kovil Street, Madukkarai Market Road, Canara Bank ATM, Madukkarai, Coimbatore - 641105, Dist.Coimbatore, Tamil Nadu",7949087411,
Adult Diaper Pants (KAREMED),https://www.indiamart.com/proddetail/adult-diaper-pants-karemed-2854647117648.html?pos=154&kwd=adult diapers&tags=A||||8741.987|Price|product|||TS|rsf:gd-|-stype:attr=1|qr_nm:gd|res:RC4|com-cf:nl|ptrs:na|ktp:N0|mc:21601|mtp:S|qry_typ:P|lang:en|wc:2|cs:8826|v=4,Surgical Hub,https://www.indiamart.com/surgicalhub/?pos=154&kwd=adult diapers&tags=A||||8741.987|Price|product|||TS|rsf:gd-|-stype:attr=1|qr_nm:gd|res:RC4|com-cf:nl|ptrs:na|ktp:N0|mc:21601|mtp:S|qry_typ:P|lang:en|wc:2|cs:8826|v=4,False,,Ambala,"136 A, Phase-2, Near Dr Makkar, Jaggi Colony, Ambala - 134003, Dist.Ambala, Haryana",8043804768,
"Pull Ups Disposable Adult Diaper, Age Group: Newly Born, Large",https://www.indiamart.com/proddetail/pull-ups-disposable-adult-diaper-2854294989812.html?pos=155&kwd=adult diapers&tags=A||||8601.347|Price|product|||TS|rsf:gd-|-stype:attr=1|qr_nm:gd|res:RC4|com-cf:nl|ptrs:na|ktp:N0|mc:21601|mtp:S|qry_typ:P|lang:en|wc:2|cs:8826|v=4,Anuradha Enterprises,https://www.anuradhaenterprises.net/?pos=155&kwd=adult diapers&tags=A||||8601.347|Price|product|||TS|rsf:gd-|-stype:attr=1|qr_nm:gd|res:RC4|com-cf:nl|ptrs:na|ktp:N0|mc:21601|mtp:S|qry_typ:P|lang:en|wc:2|cs:8826|v=4,True,Gopalpura,Jaipur,"150, Krishna Vihar, Gopalpura By Pass,, Gopalpura, Jaipur - 302015, Dist.Jaipur, Rajasthan",8045908792,
HS Adult Diaper,https://www.indiamart.com/proddetail/hs-adult-diaper-2854368689648.html?pos=156&kwd=adult diapers&tags=A||||8663.873|Price|product|||TS|rsf:gd-|-stype:attr=1|qr_nm:gd|res:RC4|com-cf:nl|ptrs:na|ktp:N0|mc:21601|mtp:S|qry_typ:P|lang:en|wc:2|cs:8826|v=4,Healing Bell Health Care,https://www.indiamart.com/healing-bell-health-care/?pos=156&kwd=adult diapers&tags=A||||8663.873|Price|product|||TS|rsf:gd-|-stype:attr=1|qr_nm:gd|res:RC4|com-cf:nl|ptrs:na|ktp:N0|mc:21601|mtp:S|qry_typ:P|lang:en|wc:2|cs:8826|v=4,False,,Bengaluru,"3rd Floor Old No 7k No 223/69/1b New No 8k 233/69/1 4th D Cross, Bengaluru - 560043, Dist.Bengaluru, Karnataka",7942706998,
Adult Incontinence Diaper,https://www.indiamart.com/proddetail/adult-incontinence-diaper-26409228973.html?pos=157&kwd=adult diapers&tags=A||||8786.56|Price|product|||TS|rsf:gd-|-stype:attr=1|qr_nm:gd|res:RC4|com-cf:nl|ptrs:na|ktp:N0|mc:21601|mtp:S|qry_typ:P|lang:en|wc:2|cs:8826|v=4,TJB Global Pharma,https://www.indiamart.com/jayabhadurisunkara/?pos=157&kwd=adult diapers&tags=A||||8786.56|Price|product|||TS|rsf:gd-|-stype:attr=1|qr_nm:gd|res:RC4|com-cf:nl|ptrs:na|ktp:N0|mc:21601|mtp:S|qry_typ:P|lang:en|wc:2|cs:8826|v=4,False,Nampally,Hyderabad,"6-3-596/21/2,Prem, Nagar Banjarahills,, Nampally, Hyderabad - 500034, Dist.Hyderabad, Telangana",8048618160,
"Disposable Adult Diaper, Age Group: 3to12 Months, Medium",https://www.indiamart.com/proddetail/disposable-adult-diaper-2852772030862.html?pos=158&kwd=adult diapers&tags=A||||8307.81|Price|product|||TS|rsf:gd-|-stype:attr=1|qr_nm:gd|res:RC4|com-cf:nl|ptrs:na|ktp:N0|mc:21601|mtp:S|qry_typ:P|lang:en|wc:2|cs:8826|v=4,MRM Healthcare,https://www.mrmhealthcare.com/?pos=158&kwd=adult diapers&tags=A||||8307.81|Price|product|||TS|rsf:gd-|-stype:attr=1|qr_nm:gd|res:RC4|com-cf:nl|ptrs:na|ktp:N0|mc:21601|mtp:S|qry_typ:P|lang:en|wc:2|cs:8826|v=4,False,Hadapsar,Pune,"Ground Floor Shope Number 1, H No 1355, Unit No 1 Suyog Apartment Chimnya Ganpati Chowk, Near Chimnya Ganpati Chowk. Bajirao Road Sadashiv Peth, Hadapsar, Pune - 411030, Dist.Pune, Maharashtra",7942800377,
Soft & Secure Unisex Classic Adult Diaper Pants for daily Use Adult Pull Up (Pack of 1-10 L),https://www.indiamart.com/proddetail/soft-secure-unisex-classic-adult-diaper-pants-for-daily-use-adult-pull-up-pack-of-1-10-l-2854186149230.html?pos=159&kwd=adult diapers&tags=A||||8782.67|Price|product|||TS|rsf:gd-|-stype:attr=1|qr_nm:gd|res:RC4|com-cf:nl|ptrs:na|ktp:N0|mc:21601|mtp:S|qry_typ:P|lang:en|wc:2|cs:8826|v=4,Medisky Surgicals,https://www.indiamart.com/medisky-surgicals/?pos=159&kwd=adult diapers&tags=A||||8782.67|Price|product|||TS|rsf:gd-|-stype:attr=1|qr_nm:gd|res:RC4|com-cf:nl|ptrs:na|ktp:N0|mc:21601|mtp:S|qry_typ:P|lang:en|wc:2|cs:8826|v=4,False,Uchipuli,Ramanathapuram,"12/2865-30, Pattinamkathan, Madurai Rameshwaram Road, Achchundanvayal, Uchipuli, Ramanathapuram - 623502, Dist.Ramanathapuram, Tamil Nadu",7942960183,
Normal Disposable Adult Diaper,https://www.indiamart.com/proddetail/disposable-adult-diaper-22543992891.html?pos=160&kwd=adult diapers&tags=A||||8754.115|Price|product|||TS|rsf:gd-|-stype:attr=1|qr_nm:gd|res:RC4|com-cf:nl|ptrs:na|ktp:N0|mc:21601|mtp:S|qry_typ:P|lang:en|wc:2|cs:8826|v=4,Dnr Healthcare Private Limited,https://www.indiamart.com/dnrhealthcare/?pos=160&kwd=adult diapers&tags=A||||8754.115|Price|product|||TS|rsf:gd-|-stype:attr=1|qr_nm:gd|res:RC4|com-cf:nl|ptrs:na|ktp:N0|mc:21601|mtp:S|qry_typ:P|lang:en|wc:2|cs:8826|v=4,False,Sector 8,Panchkula,"Plot No. 151 Industrial Area Phase Ii phase-2, Sector 8, Panchkula - 134109, Dist.Panchkula, Haryana",8047647074,
"Tape Diapers Friends Economy Adult Diaper, Size: Medium, 10 Piece",https://www.indiamart.com/proddetail/friends-economy-adult-diaper-27477375488.html?pos=161&kwd=adult diapers&tags=A||||9140.514|Price|product|||MDC|rsf:gd-|-stype:attr=1|qr_nm:gd|res:RC4|com-cf:nl|ptrs:na|ktp:N0|mc:21601|mtp:S|qry_typ:P|lang:en|wc:2|cs:8826|v=4,Stuti Medical Agency,https://www.indiamart.com/stuti-medical-agencyraipur/?pos=161&kwd=adult diapers&tags=A||||9140.514|Price|product|||MDC|rsf:gd-|-stype:attr=1|qr_nm:gd|res:RC4|com-cf:nl|ptrs:na|ktp:N0|mc:21601|mtp:S|qry_typ:P|lang:en|wc:2|cs:8826|v=4,False,Chowk,Raipur,"Shop No-33, Farishta Complex, Rajbandha Maidan,, Chowk, Raipur - 492001, Chhattisgarh",7942671922,
Friends Adult Diaper Pant (Pack of 2),https://www.indiamart.com/proddetail/friends-adult-diaper-pant-18358131888.html?pos=162&kwd=adult diapers&tags=A||||8211.142|Price|product|||TS|rsf:gd-|-stype:attr=1|qr_nm:gd|res:RC4|com-cf:nl|ptrs:na|ktp:N0|mc:21601|mtp:S|qry_typ:P|lang:en|wc:2|cs:8826|v=4,Shah Trading Corporation,https://www.indiamart.com/shahtrading-corp/?pos=162&kwd=adult diapers&tags=A||||8211.142|Price|product|||TS|rsf:gd-|-stype:attr=1|qr_nm:gd|res:RC4|com-cf:nl|ptrs:na|ktp:N0|mc:21601|mtp:S|qry_typ:P|lang:en|wc:2|cs:8826|v=4,False,Kalbadevi,Mumbai,"Room No. 35, 2nd Floor, Shri Krishna Niwas 500, Kalbadevi Road, New Silk Bazar, Kalbadevi, Mumbai - 400002, Dist.Mumbai, Maharashtra",8046042417,
Absorbia Adult Diaper Pants,https://www.indiamart.com/proddetail/absorbia-adult-diaper-pants-2851356331491.html?pos=163&kwd=adult diapers&tags=A||||8899.625|Price|product|||TS|rsf:gd-|-stype:attr=1|qr_nm:gd|res:RC4|com-cf:nl|ptrs:na|ktp:N0|mc:21601|mtp:S|qry_typ:P|lang:en|wc:2|cs:8826|v=4,Sadhguru Surgicals Private Limited,https://www.indiamart.com/sadhguru-surgicals/?pos=163&kwd=adult diapers&tags=A||||8899.625|Price|product|||TS|rsf:gd-|-stype:attr=1|qr_nm:gd|res:RC4|com-cf:nl|ptrs:na|ktp:N0|mc:21601|mtp:S|qry_typ:P|lang:en|wc:2|cs:8826|v=4,False,Thirubuvanai,Pondicherry,"First Floor, 104, 4th Cross Street, Ragavendra Nagar, Thirubuvanai, Thirubuvanai, Pondicherry - 605107, Dist.Pondicherry, Pondicherry",8047645074,
"Ambitech Adult Diapers, Large",https://www.indiamart.com/proddetail/ambitech-adult-diapers-2854458366930.html?pos=164&kwd=adult diapers&tags=A||||8559.269|Price|product|||MDC|rsf:gd-|-stype:attr=1|qr_nm:gd|res:RC4|com-cf:nl|ptrs:na|ktp:N0|mc:21601|mtp:S|qry_typ:P|lang:en|wc:2|cs:8826|v=4,H & H Construct,https://www.indiamart.com/hh-construct/?pos=164&kwd=adult diapers&tags=A||||8559.269|Price|product|||MDC|rsf:gd-|-stype:attr=1|qr_nm:gd|res:RC4|com-cf:nl|ptrs:na|ktp:N0|mc:21601|mtp:S|qry_typ:P|lang:en|wc:2|cs:8826|v=4,False,,Indore,"826,Scheme No-114,Part No-1, Indore - 452001, Dist.Indore, Madhya Pradesh",7949094380,
Medipolis Ultima Adult Diapers,https://www.indiamart.com/proddetail/medipolis-ultima-adult-diapers-2854977307973.html?pos=165&kwd=adult diapers&tags=A||||8786.56|Price|product|||MDC|rsf:gd-|-stype:attr=1|qr_nm:gd|res:RC4|com-cf:nl|ptrs:na|ktp:N0|mc:21601|mtp:S|qry_typ:P|lang:en|wc:2|cs:8826|v=4,Srujana Surgicals,https://www.indiamart.com/srujanasurgicals/?pos=165&kwd=adult diapers&tags=A||||8786.56|Price|product|||MDC|rsf:gd-|-stype:attr=1|qr_nm:gd|res:RC4|com-cf:nl|ptrs:na|ktp:N0|mc:21601|mtp:S|qry_typ:P|lang:en|wc:2|cs:8826|v=4,False,Medchal Malkajgiri,Hyderabad,"Ground Floor, H.No 24-92, Shop No. 3 Ptin , Anandbagh Main Road, Beside SBI Bank, Anandbagh, Medchal Malkajgiri, Hyderabad - 501401, Dist.Hyderabad, Telangana",8041014601,
"Hospi Fit Adult Diapers, Large",https://www.indiamart.com/proddetail/hospi-fit-adult-diapers-2854766337962.html?pos=166&kwd=adult diapers&tags=A||||8823.343|Price|product|||MDC|rsf:gd-|-stype:attr=1|qr_nm:gd|res:RC4|com-cf:nl|ptrs:na|ktp:N0|mc:21601|mtp:S|qry_typ:P|lang:en|wc:2|cs:8826|v=4,Radha Medicals/Radha Medical & General Stores,https://www.indiamart.com/radhamedicalsradhamedicalgeneralstores/?pos=166&kwd=adult diapers&tags=A||||8823.343|Price|product|||MDC|rsf:gd-|-stype:attr=1|qr_nm:gd|res:RC4|com-cf:nl|ptrs:na|ktp:N0|mc:21601|mtp:S|qry_typ:P|lang:en|wc:2|cs:8826|v=4,False,,Wardha,"Ingole Chowk, Main Road,, Wardha - 442001, Dist.Wardha, Maharashtra",8044456270,
XXL Size Silk Sense Adult Diapers,https://www.indiamart.com/proddetail/xxl-size-silk-sense-adult-diapers-2854673863255.html?pos=167&kwd=adult diapers&tags=A||||8307.81|Price|product|||MDC|rsf:gd-|-stype:attr=1|qr_nm:gd|res:RC4|com-cf:nl|ptrs:na|ktp:N0|mc:21601|mtp:S|qry_typ:P|lang:en|wc:2|cs:8826|v=4,Brother Enterprises,https://www.indiamart.com/brotherenterprisespune/?pos=167&kwd=adult diapers&tags=A||||8307.81|Price|product|||MDC|rsf:gd-|-stype:attr=1|qr_nm:gd|res:RC4|com-cf:nl|ptrs:na|ktp:N0|mc:21601|mtp:S|qry_typ:P|lang:en|wc:2|cs:8826|v=4,False,,Pune,"Balewadi Road, 150/1/1, Muktai Bld, Chakankar Mala Baner, Pune - 411045, Dist.Pune, Maharashtra",7949326791,
"Glider Cotton Adult Diapers Pant Styles, Size: Medium, Packaging Size: 10 Pcs",https://www.indiamart.com/proddetail/adult-diapers-pant-styles-25129982591.html?pos=168&kwd=adult diapers&tags=A||||8228.275|Price|product|||TS|rsf:gd-|-stype:attr=1|qr_nm:gd|res:RC4|com-cf:nl|ptrs:na|ktp:N0|mc:21601|mtp:S|qry_typ:P|lang:en|wc:2|cs:8826|v=4,Aspire Healthcare,https://www.indiamart.com/aspire-healthcare/?pos=168&kwd=adult diapers&tags=A||||8228.275|Price|product|||TS|rsf:gd-|-stype:attr=1|qr_nm:gd|res:RC4|com-cf:nl|ptrs:na|ktp:N0|mc:21601|mtp:S|qry_typ:P|lang:en|wc:2|cs:8826|v=4,False,Gota,Ahmedabad,"Shop no -19 ,Serenity Space,S G Highway, New Gota, Gota, Ahmedabad - 382481, Dist.Ahmedabad, Gujarat",8046039668,
"20 - 90 Briefs TryFit Adult Diaper, Size: Medium // Large // Xl",https://www.indiamart.com/proddetail/tryfit-adult-diaper-25577533912.html?pos=169&kwd=adult diapers&tags=A||||8838.804|Price|product|||MDC|rsf:gd-|-stype:attr=1|qr_nm:gd|res:RC4|com-cf:nl|ptrs:na|ktp:N0|mc:21601|mtp:S|qry_typ:P|lang:en|wc:2|cs:8826|v=4,Rajput Surgical,https://www.indiamart.com/rajput-surgical/?pos=169&kwd=adult diapers&tags=A||||8838.804|Price|product|||MDC|rsf:gd-|-stype:attr=1|qr_nm:gd|res:RC4|com-cf:nl|ptrs:na|ktp:N0|mc:21601|mtp:S|qry_typ:P|lang:en|wc:2|cs:8826|v=4,False,Market,Aligarh,"S - 001 Ground Floor ROMOTEK BUILDING Near Champion, Market, Aligarh - 202001, Uttar Pradesh",7942547617,
Stick Type Dr Fitts Adult Diaper,https://www.indiamart.com/proddetail/dr-fitts-adult-diaper-2851787147848.html?pos=170&kwd=adult diapers&tags=A||||8954.051|Price|product|||MDC|rsf:gd-|-stype:attr=1|qr_nm:gd|res:RC4|com-cf:nl|ptrs:na|ktp:N0|mc:21601|mtp:S|qry_typ:P|lang:en|wc:2|cs:8826|v=4,Sai Pharma & Surgical,https://www.indiamart.com/sai-pharma-surgical/?pos=170&kwd=adult diapers&tags=A||||8954.051|Price|product|||MDC|rsf:gd-|-stype:attr=1|qr_nm:gd|res:RC4|com-cf:nl|ptrs:na|ktp:N0|mc:21601|mtp:S|qry_typ:P|lang:en|wc:2|cs:8826|v=4,False,Park Town,Chennai,"Door No. 5, Shop No. 2, Ground Floor, Issac Street, Park Town, Chennai - 600003, Dist.Chennai, Tamil Nadu",7942552194,
"Pull Ups Kare In Adult Diaper, Size: XL",https://www.indiamart.com/proddetail/kare-in-adult-diaper-2850932700555.html?pos=171&kwd=adult diapers&tags=A||||8701.824|Price|product|||MDC|rsf:gd-|-stype:attr=1|qr_nm:gd|res:RC4|com-cf:nl|ptrs:na|ktp:N0|mc:21601|mtp:S|qry_typ:P|lang:en|wc:2|cs:8826|v=4,P Muthu Rajkavi Surgical & Pharma,https://www.indiamart.com/pmuthurajkavi-surgical-pharma/?pos=171&kwd=adult diapers&tags=A||||8701.824|Price|product|||MDC|rsf:gd-|-stype:attr=1|qr_nm:gd|res:RC4|com-cf:nl|ptrs:na|ktp:N0|mc:21601|mtp:S|qry_typ:P|lang:en|wc:2|cs:8826|v=4,False,Tiruchendur,Tiruchendur,"2/161 H,Pillayar Koil Street,Paramankurichi,Thoothukudi, Tiruchendur, Tiruchendur - 628213, Tamil Nadu",7949083666,
"Seniorcare Unisex Adult Diaper, Medium",https://www.indiamart.com/proddetail/seniorcare-unisex-adult-diaper-2854578649773.html?pos=172&kwd=adult diapers&tags=A||||8302.941|Price|product|||MDC|rsf:gd-|-stype:attr=1|qr_nm:gd|res:RC4|com-cf:nl|ptrs:na|ktp:N0|mc:21601|mtp:S|qry_typ:P|lang:en|wc:2|cs:8826|v=4,Advance Healthcare,https://www.indiamart.com/advance-healthcaremaharashtra/?pos=172&kwd=adult diapers&tags=A||||8302.941|Price|product|||MDC|rsf:gd-|-stype:attr=1|qr_nm:gd|res:RC4|com-cf:nl|ptrs:na|ktp:N0|mc:21601|mtp:S|qry_typ:P|lang:en|wc:2|cs:8826|v=4,False,,Pimpri Chinchwad,"Office No.3, First Floor, Onkar Plaza, Indrayani Bazzar, MIDC Chinchwad, Pimpri Chinchwad - 411019, Maharashtra",7949329008,
"Pull Ups Sara Care Adult Diaper, Size: XL",https://www.indiamart.com/proddetail/sara-care-adult-diaper-2854144776555.html?pos=173&kwd=adult diapers&tags=A||||9572.14|Price|product|||MDC|rsf:gd-|-stype:attr=1|qr_nm:gd|res:RC4|com-cf:nl|ptrs:na|ktp:N0|mc:21601|mtp:S|qry_typ:P|lang:en|wc:2|cs:8826|v=4,Suhasini Pharmaceuticals,https://www.indiamart.com/suhasinipharmaceuticals/?pos=173&kwd=adult diapers&tags=A||||9572.14|Price|product|||MDC|rsf:gd-|-stype:attr=1|qr_nm:gd|res:RC4|com-cf:nl|ptrs:na|ktp:N0|mc:21601|mtp:S|qry_typ:P|lang:en|wc:2|cs:8826|v=4,False,,Bhubaneswar,"Ground Floor, OSHC Complex, Plot No-24, Unit-111,Old Administrative Building, Kharavelanagar, Bhubaneswar - 751001, Dist.Khorda, Odisha",8045732380,
"Pull Ups Kare Med Adult Diaper Pants, Size: XL",https://www.indiamart.com/proddetail/kare-med-adult-diaper-pants-2853946967812.html?pos=174&kwd=adult diapers&tags=A||||9839.57|Price|product|||MDC|rsf:gd-|-stype:attr=1|qr_nm:gd|res:RC4|com-cf:nl|ptrs:na|ktp:N0|mc:21601|mtp:S|qry_typ:P|lang:en|wc:2|cs:8826|v=4,Aurafia Pharmaceuticals,https://www.indiamart.com/aurafia-pharmaceuticals/?pos=174&kwd=adult diapers&tags=A||||9839.57|Price|product|||MDC|rsf:gd-|-stype:attr=1|qr_nm:gd|res:RC4|com-cf:nl|ptrs:na|ktp:N0|mc:21601|mtp:S|qry_typ:P|lang:en|wc:2|cs:8826|v=4,False,Manik Talla,Kolkata,"Shop No. 3/9 Gorachand Bose Road, Manik Talla, Kolkata - 700006, Dist.Kolkata, West Bengal",8047800483,
"Kare In Premium Adult Diaper Pants, Medium",https://www.indiamart.com/proddetail/kare-in-premium-adult-diaper-pants-2854333041391.html?pos=175&kwd=adult diapers&tags=A||||8954.051|Price|product|||MDC|rsf:gd-|-stype:attr=1|qr_nm:gd|res:RC4|com-cf:nl|ptrs:na|ktp:N0|mc:21601|mtp:S|qry_typ:P|lang:en|wc:2|cs:8826|v=4,Artheon Healthcare,https://www.indiamart.com/artheon-healthcare-chennai/?pos=175&kwd=adult diapers&tags=A||||8954.051|Price|product|||MDC|rsf:gd-|-stype:attr=1|qr_nm:gd|res:RC4|com-cf:nl|ptrs:na|ktp:N0|mc:21601|mtp:S|qry_typ:P|lang:en|wc:2|cs:8826|v=4,False,,Chennai,"D No 24/6, Bharathidasan Nagar Main Road, Adambakkam, Chennai - 600088, Dist.Chennai, Tamil Nadu",8045730959,
Medium Size Liberty Eco Adult Diaper Pants,https://www.indiamart.com/proddetail/medium-size-liberty-eco-adult-diaper-pants-2854726035262.html?pos=176&kwd=adult diapers&tags=A||||8706.587|Price|product|||MDC|rsf:gd-|-stype:attr=1|qr_nm:gd|res:RC4|com-cf:nl|ptrs:na|ktp:N0|mc:21601|mtp:S|qry_typ:P|lang:en|wc:2|cs:8826|v=4,Biogen Healthcare,https://www.indiamart.com/biogen-healthcare-madurai/?pos=176&kwd=adult diapers&tags=A||||8706.587|Price|product|||MDC|rsf:gd-|-stype:attr=1|qr_nm:gd|res:RC4|com-cf:nl|ptrs:na|ktp:N0|mc:21601|mtp:S|qry_typ:P|lang:en|wc:2|cs:8826|v=4,False,,Madurai,"8/3, Madakkulam Main Road, Madakkulam,, Madurai - 625003, Dist.Madurai, Tamil Nadu",7949323451,
"LDPE Adult Diaper Packaging Bags, Capacity: 50 Kg",https://www.indiamart.com/proddetail/adult-diaper-packaging-bags-2852713320062.html?pos=177&kwd=adult diapers&tags=BA||||8785.791|Price|product|||TS|rsf:gd-|-stype:attr=1|qr_nm:gd|res:RC4|com-cf:nl|ptrs:na|ktp:N0|mc:21601|mtp:S|qry_typ:P|lang:en|wc:2|cs:8826|v=4,D. G. Polypack Private Limited,https://www.dgpolypack.com/?pos=177&kwd=adult diapers&tags=BA||||8785.791|Price|product|||TS|rsf:gd-|-stype:attr=1|qr_nm:gd|res:RC4|com-cf:nl|ptrs:na|ktp:N0|mc:21601|mtp:S|qry_typ:P|lang:en|wc:2|cs:8826|v=4,False,Mohan Nagar,Ghaziabad,"No. 112-C, Mohan Nagar, Mohan Nagar, Ghaziabad - 201007, Dist.Ghaziabad, Uttar Pradesh",8048616498,
Friends Economy Adult Diapers Tape Style - 10 Count - Medium Waist Size 27.56 -49.21 Inch,https://www.indiamart.com/proddetail/friends-economy-adult-diapers-tape-style-10-count-medium-waist-size-27-56-49-21-inch-25556547991.html?pos=178&kwd=adult diapers&tags=A||||8601.347|Price|product|||TS|rsf:gd-|-stype:attr=1|qr_nm:gd|res:RC4|com-cf:nl|ptrs:na|ktp:N0|mc:21601|mtp:S|qry_typ:P|lang:en|wc:2|cs:8826|v=4,Medipharm Global,https://www.indiamart.com/medipharmglobal/?pos=178&kwd=adult diapers&tags=A||||8601.347|Price|product|||TS|rsf:gd-|-stype:attr=1|qr_nm:gd|res:RC4|com-cf:nl|ptrs:na|ktp:N0|mc:21601|mtp:S|qry_typ:P|lang:en|wc:2|cs:8826|v=4,False,Jhotwara,Jaipur,"R. G Plaza, X-02B, Chandra Nagar, Kardhani Scheme, Kalwar Road, Jhotwara, Jaipur - 302012, Dist.Jaipur, Rajasthan",8047653066,
"Protective Underwear Kare In Adult Diapers, Size: Large, Age Group: Newly Born",https://www.indiamart.com/proddetail/kare-in-adult-diapers-2853887393730.html?pos=179&kwd=adult diapers&tags=A||||8584.299|Price|product|||TS|rsf:gd-|-stype:attr=1|qr_nm:gd|res:RC4|com-cf:nl|ptrs:na|ktp:N0|mc:21601|mtp:S|qry_typ:P|lang:en|wc:2|cs:8826|v=4,Kalam Enterprises,https://www.kalament.co.in/?pos=179&kwd=adult diapers&tags=A||||8584.299|Price|product|||TS|rsf:gd-|-stype:attr=1|qr_nm:gd|res:RC4|com-cf:nl|ptrs:na|ktp:N0|mc:21601|mtp:S|qry_typ:P|lang:en|wc:2|cs:8826|v=4,False,Siddhapudur,Coimbatore,"No. 262 A, Ground Floor, New Siddhapudur, Siddhapudur, Coimbatore - 641044, Dist.Coimbatore, Tamil Nadu",8048981845,
Comfort Adult Diapers,https://www.indiamart.com/proddetail/comfort-adult-diapers-15118992397.html?pos=180&kwd=adult diapers&tags=A||||8661.854|Price|product|||TS|rsf:gd-|-stype:attr=1|qr_nm:gd|res:RC4|com-cf:nl|ptrs:na|ktp:N0|mc:21601|mtp:S|qry_typ:P|lang:en|wc:2|cs:8826|v=4,Dayal Traders,https://www.indiamart.com/dayaltraders-ludhiana/?pos=180&kwd=adult diapers&tags=A||||8661.854|Price|product|||TS|rsf:gd-|-stype:attr=1|qr_nm:gd|res:RC4|com-cf:nl|ptrs:na|ktp:N0|mc:21601|mtp:S|qry_typ:P|lang:en|wc:2|cs:8826|v=4,False,Friends Colony,Ludhiana,"Shop No. 11, Dawar Complex, Gujjarmal Road Pindi Gali, Friends Colony, Ludhiana - 141008, Dist.Ludhiana, Punjab",8048953698,
"Briefs Friends Easy Adult Diapers, Size: XL, 10",https://www.indiamart.com/proddetail/friends-easy-adult-diapers-2849911978812.html?pos=181&kwd=adult diapers&tags=A||||8899.625|Price|product|||TS|rsf:gd-|-stype:attr=1|qr_nm:gd|res:RC4|com-cf:nl|ptrs:na|ktp:N0|mc:21601|mtp:S|qry_typ:P|lang:en|wc:2|cs:8826|v=4,Sri Goutham Surgicals,https://www.indiamart.com/sri-goutham-surgicals/?pos=181&kwd=adult diapers&tags=A||||8899.625|Price|product|||TS|rsf:gd-|-stype:attr=1|qr_nm:gd|res:RC4|com-cf:nl|ptrs:na|ktp:N0|mc:21601|mtp:S|qry_typ:P|lang:en|wc:2|cs:8826|v=4,False,Heritage Town,Pondicherry,"First Floor 156, Ambalathadayar Madam Street Kosakadi Street, Heritage Town, Pondicherry - 605001, Dist.Pondicherry, Pondicherry",7942799905,
"Romsons Dignity Majesty Adult Diapers, Size: Small",https://www.indiamart.com/proddetail/romsons-dignity-majesty-adult-diapers-2854184664855.html?pos=182&kwd=adult diapers&tags=A||||8717.056|Price|product|||TS|rsf:gd-|-stype:attr=1|qr_nm:gd|res:RC4|com-cf:nl|ptrs:na|ktp:N0|mc:21601|mtp:S|qry_typ:P|lang:en|wc:2|cs:8826|v=4,Genesis Diagnostics,https://www.indiamart.com/genesis-diagnostics-salem/?pos=182&kwd=adult diapers&tags=A||||8717.056|Price|product|||TS|rsf:gd-|-stype:attr=1|qr_nm:gd|res:RC4|com-cf:nl|ptrs:na|ktp:N0|mc:21601|mtp:S|qry_typ:P|lang:en|wc:2|cs:8826|v=4,False,,Salem,"283/2, Vasant Nagar, New Fairlands, Salem - 636016, Dist.Salem, Tamil Nadu",8045735882,
Four40 Adult Diapers / XLarge Size / 10pcs PACK / Disposable Adult Diapers,https://www.indiamart.com/proddetail/four40-adult-diapers-xlarge-size-10pcs-pack-disposable-adult-diapers-2853904837373.html?pos=183&kwd=adult diapers&tags=A||||8228.275|Price|product|||TS|rsf:gd-|-stype:attr=1|qr_nm:gd|res:RC4|com-cf:nl|ptrs:na|ktp:N0|mc:21601|mtp:S|qry_typ:P|lang:en|wc:2|cs:8826|v=4,Four40 Healthcare Private Limited,https://www.indiamart.com/four40-healthcare/?pos=183&kwd=adult diapers&tags=A||||8228.275|Price|product|||TS|rsf:gd-|-stype:attr=1|qr_nm:gd|res:RC4|com-cf:nl|ptrs:na|ktp:N0|mc:21601|mtp:S|qry_typ:P|lang:en|wc:2|cs:8826|v=4,False,Siddhapur,Ahmedabad,"401, Ashmaan Complex B/h Ganesh Plaza,, Siddhapur, Ahmedabad - 380013, Dist.Ahmedabad, Gujarat",7942843388,
Non Woven Disposable Adult Diaper,https://www.indiamart.com/proddetail/disposable-adult-diaper-2851073760030.html?pos=184&kwd=adult diapers&tags=A||||8223.226|Price|product|||TS|rsf:gd-|-stype:attr=1|qr_nm:gd|res:RC4|com-cf:nl|ptrs:na|ktp:N0|mc:21601|mtp:S|qry_typ:P|lang:en|wc:2|cs:8826|v=4,Om Sairam Enterprises,https://www.omsairamsurgicalgown.com/?pos=184&kwd=adult diapers&tags=A||||8223.226|Price|product|||TS|rsf:gd-|-stype:attr=1|qr_nm:gd|res:RC4|com-cf:nl|ptrs:na|ktp:N0|mc:21601|mtp:S|qry_typ:P|lang:en|wc:2|cs:8826|v=4,False,Mira Road,Thane,"F 2, Sai Shraddha Chawl, Chimaji Nagar, Penkar Pada, Near Nirbha Devil Mandir, Mira Road East, Mira Road, Thane - 401107, Dist.Thane, Maharashtra",7942535057,
"50 Above Stick Type Adult Diaper Ramson, Size: 38 -54",https://www.indiamart.com/proddetail/adult-diaper-ramson-22510599873.html?pos=185&kwd=adult diapers&tags=A||||8774.064|Price|product|||TS|rsf:gd-|-stype:attr=1|qr_nm:gd|res:RC4|com-cf:nl|ptrs:na|ktp:N0|mc:21601|mtp:S|qry_typ:P|lang:en|wc:2|cs:8826|v=4,Logic Biomedical Technologies,https://www.indiamart.com/logicbiomedicaretechnologies/?pos=185&kwd=adult diapers&tags=A||||8774.064|Price|product|||TS|rsf:gd-|-stype:attr=1|qr_nm:gd|res:RC4|com-cf:nl|ptrs:na|ktp:N0|mc:21601|mtp:S|qry_typ:P|lang:en|wc:2|cs:8826|v=4,False,Chinthamani Police Colony,Tiruchirappalli,"7/ Old No. 4, Arabikula Street,, Chinthamani Police Colony, Tiruchirappalli - 620002, Dist.Tiruchirappalli, Tamil Nadu",8048954358,
"Plain Bio Care Adult Diaper pants, Medium",https://www.indiamart.com/proddetail/bio-care-adult-diaper-pants-24266150548.html?pos=186&kwd=adult diapers&tags=A||||8786.56|Price|product|||TS|rsf:gd-|-stype:attr=1|qr_nm:gd|res:RC4|com-cf:nl|ptrs:na|ktp:N0|mc:21601|mtp:S|qry_typ:P|lang:en|wc:2|cs:8826|v=4,Biocare Surgical Industries,https://www.indiamart.com/biocaresurgicalindustries/?pos=186&kwd=adult diapers&tags=A||||8786.56|Price|product|||TS|rsf:gd-|-stype:attr=1|qr_nm:gd|res:RC4|com-cf:nl|ptrs:na|ktp:N0|mc:21601|mtp:S|qry_typ:P|lang:en|wc:2|cs:8826|v=4,False,Nagaram,Hyderabad,"Plot No. 16, 2nd Floor, dammaiguda Hyderabad Medchal, Malkajgiri, Nagaram, Hyderabad - 500062, Dist.Hyderabad, Telangana",8048957165,
Disposable Adult Diaper,https://www.indiamart.com/proddetail/disposable-adult-diaper-2851493028088.html?pos=187&kwd=adult diapers&tags=A||||8281.036|Price|product|||TS|rsf:gd-|-stype:attr=1|qr_nm:gd|res:RC4|com-cf:nl|ptrs:na|ktp:N0|mc:21601|mtp:S|qry_typ:P|lang:en|wc:2|cs:8826|v=4,S I Surgicare,https://www.indiamart.com/si-surgicare/?pos=187&kwd=adult diapers&tags=A||||8281.036|Price|product|||TS|rsf:gd-|-stype:attr=1|qr_nm:gd|res:RC4|com-cf:nl|ptrs:na|ktp:N0|mc:21601|mtp:S|qry_typ:P|lang:en|wc:2|cs:8826|v=4,False,Pratham Upvan,Vadodara,"1st Floor Ff/17 Star Residency Tandalja Road, Pratham Upvan, Vadodara - 390006, Dist.Vadodara, Gujarat",7942831770,
"Protective Underwear Adult Diapers, Size: M.l.xl",https://www.indiamart.com/proddetail/adult-diapers-2851970642155.html?pos=188&kwd=adult diapers&tags=A||||8706.587|Price|product|||MDC|rsf:gd-|-stype:attr=1|qr_nm:gd|res:RC4|com-cf:nl|ptrs:na|ktp:N0|mc:21601|mtp:S|qry_typ:P|lang:en|wc:2|cs:8826|v=4,Sri Ragavendra Agencies,https://www.indiamart.com/sriragavendra-agencies-madurai/?pos=188&kwd=adult diapers&tags=A||||8706.587|Price|product|||MDC|rsf:gd-|-stype:attr=1|qr_nm:gd|res:RC4|com-cf:nl|ptrs:na|ktp:N0|mc:21601|mtp:S|qry_typ:P|lang:en|wc:2|cs:8826|v=4,False,Vandiyur,Madurai,"1st Floor, 2-553/1, Gomathillam, Sri Sabari Street,Ambigainagar, Gomathipuram, Vandiyur, Madurai - 625020, Dist.Madurai, Tamil Nadu",8047552401,
"Above 60 Years Diapers Friends Easy Adult Diaper, Size: Large, 10 Pieces",https://www.indiamart.com/proddetail/friends-easy-adult-diaper-25476077362.html?pos=189&kwd=adult diapers&tags=A||||8584.299|Price|product|||TS|rsf:gd-|-stype:attr=1|qr_nm:gd|res:RC4|com-cf:nl|ptrs:na|ktp:N0|mc:21601|mtp:S|qry_typ:P|lang:en|wc:2|cs:8826|v=4,Sri Gokulam Surgicals,https://www.indiamart.com/sri-gokulam-surgicals/?pos=189&kwd=adult diapers&tags=A||||8584.299|Price|product|||TS|rsf:gd-|-stype:attr=1|qr_nm:gd|res:RC4|com-cf:nl|ptrs:na|ktp:N0|mc:21601|mtp:S|qry_typ:P|lang:en|wc:2|cs:8826|v=4,False,Central Bus Stand,Coimbatore,"205, Sastry Road, Central Bus Stand, Coimbatore - 641009, Dist.Coimbatore, Tamil Nadu",7942823895,
Pant Type Medium Adult Pull Up Diaper,https://www.indiamart.com/proddetail/medium-adult-pull-up-diaper-2849330518712.html?pos=190&kwd=adult diapers&tags=A||||8559.269|Price|product|||TS|rsf:gd-|-stype:attr=1|qr_nm:gd|res:RC4|com-cf:nl|ptrs:na|ktp:N0|mc:21601|mtp:S|qry_typ:P|lang:en|wc:2|cs:8826|v=4,Yogesari Enterprises,https://www.indiamart.com/yogesari-enterprises/?pos=190&kwd=adult diapers&tags=A||||8559.269|Price|product|||TS|rsf:gd-|-stype:attr=1|qr_nm:gd|res:RC4|com-cf:nl|ptrs:na|ktp:N0|mc:21601|mtp:S|qry_typ:P|lang:en|wc:2|cs:8826|v=4,False,Bhagirathpura,Indore,"1122/3, Bhagirath Pura, Bhagirathpura, Indore - 452003, Dist.Indore, Madhya Pradesh",7942786651,
"Romsons Magna Adult Diapers, Large",https://www.indiamart.com/proddetail/romsons-magna-adult-diapers-24530358848.html?pos=191&kwd=adult diapers&tags=A||||9110.092|Price|product|||MDC|rsf:gd-|-stype:attr=1|qr_nm:gd|res:RC4|com-cf:nl|ptrs:na|ktp:N0|mc:21601|mtp:S|qry_typ:P|lang:en|wc:2|cs:8826|v=4,Amar Surgicals,https://www.indiamart.com/amarsurgicals/?pos=191&kwd=adult diapers&tags=A||||9110.092|Price|product|||MDC|rsf:gd-|-stype:attr=1|qr_nm:gd|res:RC4|com-cf:nl|ptrs:na|ktp:N0|mc:21601|mtp:S|qry_typ:P|lang:en|wc:2|cs:8826|v=4,False,,Lucknow,"FF-8, New Medicine E Market, G B Marg, Aminabad, Lucknow - 226018, Dist.Lucknow, Uttar Pradesh",7949322723,
Protective Underwear Large Adult Disposable Diapers,https://www.indiamart.com/proddetail/large-adult-disposable-diapers-2854156544273.html?pos=192&kwd=adult diapers&tags=A||||8786.56||product|||MDC|rsf:gd-|-stype:attr=1|qr_nm:gd|res:RC4|com-cf:nl|ptrs:na|ktp:N0|mc:21601|mtp:S|qry_typ:P|lang:en|wc:2|cs:8826|v=4,Tirumala Drugs,https://www.indiamart.com/tirumala-drugs/?pos=192&kwd=adult diapers&tags=A||||8786.56||product|||MDC|rsf:gd-|-stype:attr=1|qr_nm:gd|res:RC4|com-cf:nl|ptrs:na|ktp:N0|mc:21601|mtp:S|qry_typ:P|lang:en|wc:2|cs:8826|v=4,False,Amberpet,Hyderabad,"2nd Floor, H.No 2-3-724/7, Opposite Vardhaman Steel Shop, Amberpet, Amberpet, Hyderabad - 500013, Dist.Hyderabad, Telangana",8045730644,
Kare In Adult Diapers,,Danish Sales,https://www.indiamart.com/danishsales/?pos=193&kwd=adult diapers&tags=A||||8876.815|Price|product|||MDC|rsf:gd-|-stype:attr=1|qr_nm:gd|res:RC4|com-cf:nl|ptrs:na|ktp:N0|mc:21601|mtp:S|qry_typ:P|lang:en|wc:2|cs:8826|v=4,False,,Nagpur,"Near Gurunank Copy Bhandar, House No. 108/a, Muktai Niwas, Old Bhandara Road, Ganjakhet Chowk, Nagpur - 440002, Dist.Nagpur, Maharashtra",8045735518,
"Alife Cure Classic Adult Pant Diapers, Size: Medium",https://www.indiamart.com/proddetail/alife-cure-classic-adult-pant-diapers-2854107645597.html?pos=194&kwd=adult diapers&tags=A||||8281.036|Price|product|||MDC|rsf:gd-|-stype:attr=1|qr_nm:gd|res:RC4|com-cf:nl|ptrs:na|ktp:N0|mc:21601|mtp:S|qry_typ:P|lang:en|wc:2|cs:8826|v=4,Krishna Surgical,https://www.indiamart.com/krishnasurgicalvadodara/?pos=194&kwd=adult diapers&tags=A||||8281.036|Price|product|||MDC|rsf:gd-|-stype:attr=1|qr_nm:gd|res:RC4|com-cf:nl|ptrs:na|ktp:N0|mc:21601|mtp:S|qry_typ:P|lang:en|wc:2|cs:8826|v=4,False,Manjalpur,Vadodara,"D 227 - 228, Kashi Vishweshwar Township, Jetalpur Road, Manjalpur, Vadodara - 390007, Dist.Vadodara, Gujarat",8045736026,
"Ez Life Adult Pull Up Diapers, XL",https://www.indiamart.com/proddetail/ez-life-adult-pull-up-diapers-2854256250697.html?pos=195&kwd=adult diapers&tags=A||||8228.275|Price|product|||MDC|rsf:gd-|-stype:attr=1|qr_nm:gd|res:RC4|com-cf:nl|ptrs:na|ktp:N0|mc:21601|mtp:S|qry_typ:P|lang:en|wc:2|cs:8826|v=4,Navjivan Pharma,https://www.indiamart.com/navjivan-pharma-ahmedabad/?pos=195&kwd=adult diapers&tags=A||||8228.275|Price|product|||MDC|rsf:gd-|-stype:attr=1|qr_nm:gd|res:RC4|com-cf:nl|ptrs:na|ktp:N0|mc:21601|mtp:S|qry_typ:P|lang:en|wc:2|cs:8826|v=4,False,,Ahmedabad,"Shop/B-106, Anand Sapphire,Opp. Vishwas City 7, Ahmedabad - 382481, Dist.Ahmedabad, Gujarat",8044014306,
"Nobel Hygiene B-Fit Economy Adult Diapers, Large",https://www.indiamart.com/proddetail/nobel-hygiene-b-fit-economy-adult-large-diapers-2854900785691.html?pos=196&kwd=adult diapers&tags=A||||8707.773|Price|product|||MDC|rsf:gd-|-stype:attr=1|qr_nm:gd|res:RC4|com-cf:nl|ptrs:na|ktp:N0|mc:21601|mtp:S|qry_typ:P|lang:en|wc:2|cs:8826|v=4,AC SurgiPro,https://www.indiamart.com/acsurgipro/?pos=196&kwd=adult diapers&tags=A||||8707.773|Price|product|||MDC|rsf:gd-|-stype:attr=1|qr_nm:gd|res:RC4|com-cf:nl|ptrs:na|ktp:N0|mc:21601|mtp:S|qry_typ:P|lang:en|wc:2|cs:8826|v=4,False,Leftinent Ravinder Chikkara Chowk Shiv Colony,Jhajjar,"Khewat No 4864 Khata No 4978 Deswal Plaza Market, Leftinent Ravinder Chikkara Chowk Shiv Colony, Jhajjar - 124103, Dist.Jhajjar, Haryana",7949331561,
"Economy Friends Adult Diapers, Size: XL",https://www.indiamart.com/proddetail/economy-friends-adult-diapers-2850346521891.html?pos=197&kwd=adult diapers&tags=A||||9839.57|Price|product|||MDC|rsf:gd-|-stype:attr=1|qr_nm:gd|res:RC4|com-cf:nl|ptrs:na|ktp:N0|mc:21601|mtp:S|qry_typ:P|lang:en|wc:2|cs:8826|v=4,Bagaria Agencies Private Limited,https://www.indiamart.com/bagariaagencies/?pos=197&kwd=adult diapers&tags=A||||9839.57|Price|product|||MDC|rsf:gd-|-stype:attr=1|qr_nm:gd|res:RC4|com-cf:nl|ptrs:na|ktp:N0|mc:21601|mtp:S|qry_typ:P|lang:en|wc:2|cs:8826|v=4,False,Barabazar Market,Kolkata,"Room No 10, Floor No 1, 12 Pollock Street, Kolkata, Barabazar Market, Kolkata - 700001, Dist.Kolkata, West Bengal",7942818112,
Adult Diaper,https://www.indiamart.com/proddetail/adult-diaper-11372408648.html?pos=198&kwd=adult diapers&tags=A||||8663.873|Price|product|||MDC|rsf:gd-|-stype:attr=1|qr_nm:gd|res:RC4|com-cf:nl|ptrs:na|ktp:N0|mc:21601|mtp:S|qry_typ:P|lang:en|wc:2|cs:8826|v=4,Sanjeevini Surgical Equipments,https://www.indiamart.com/sanjeevinisurgicalequipments/?pos=198&kwd=adult diapers&tags=A||||8663.873|Price|product|||MDC|rsf:gd-|-stype:attr=1|qr_nm:gd|res:RC4|com-cf:nl|ptrs:na|ktp:N0|mc:21601|mtp:S|qry_typ:P|lang:en|wc:2|cs:8826|v=4,False,Chamarajpet,Bengaluru,"No. 163/2/6, Ganesha Complex, 1st Main, 9th Cross, Chamarajapet, Chamarajpet, Bengaluru - 560018, Dist.Bengaluru, Karnataka",8048981805,
Protective Underwear Disposable Adult Diaper,https://www.indiamart.com/proddetail/disposable-adult-diaper-22635066955.html?pos=199&kwd=adult diapers&tags=A||||8786.56|Price|product|||MDC|rsf:gd-|-stype:attr=1|qr_nm:gd|res:RC4|com-cf:nl|ptrs:na|ktp:N0|mc:21601|mtp:S|qry_typ:P|lang:en|wc:2|cs:8826|v=4,Lavanyaenterprises,https://www.indiamart.com/lavanyaenterprises-hyderabad/?pos=199&kwd=adult diapers&tags=A||||8786.56|Price|product|||MDC|rsf:gd-|-stype:attr=1|qr_nm:gd|res:RC4|com-cf:nl|ptrs:na|ktp:N0|mc:21601|mtp:S|qry_typ:P|lang:en|wc:2|cs:8826|v=4,False,Fateh Nagar,Hyderabad,"10-5-72/4/3/2, vinayaka complex,pipeline road, Fateh Nagar, Hyderabad - 500018, Dist.Hyderabad, Telangana",8046032763,
"Protective Underwear Bestie Adult Diaper, Size: XL",https://www.indiamart.com/proddetail/bestie-adult-diaper-2854050742297.html?pos=200&kwd=adult diapers&tags=A||||8663.873|Price|product|||MDC|rsf:gd-|-stype:attr=1|qr_nm:gd|res:RC4|com-cf:nl|ptrs:na|ktp:N0|mc:21601|mtp:S|qry_typ:P|lang:en|wc:2|cs:8826|v=4,Karavali Plywoods,https://www.indiamart.com/karavaliplywoods/?pos=200&kwd=adult diapers&tags=A||||8663.873|Price|product|||MDC|rsf:gd-|-stype:attr=1|qr_nm:gd|res:RC4|com-cf:nl|ptrs:na|ktp:N0|mc:21601|mtp:S|qry_typ:P|lang:en|wc:2|cs:8826|v=4,False,Ramachandrapura,Bengaluru,"Shop No 1/2 4271/4, Ground Floor, 22nd Main Road Railway Parallel Road, A Block Diagonally Opp Veeranjaneta Swamy Temple, Ramachandrapura, Bengaluru - 560021, Dist.Bengaluru, Karnataka",8048268437,
Jiswap XL Adult Diaper,https://www.indiamart.com/proddetail/jiswap-xl-adult-diaper-24828203548.html?pos=201&kwd=adult diapers&tags=A||||8038.093|Price|product|||MDC|rsf:gd-|-stype:attr=1|qr_nm:gd|res:RC4|com-cf:nl|ptrs:na|ktp:N0|mc:21601|mtp:S|qry_typ:P|lang:en|wc:2|cs:8826|v=4,Empresa Industries,https://www.indiamart.com/empresaindustries/?pos=201&kwd=adult diapers&tags=A||||8038.093|Price|product|||MDC|rsf:gd-|-stype:attr=1|qr_nm:gd|res:RC4|com-cf:nl|ptrs:na|ktp:N0|mc:21601|mtp:S|qry_typ:P|lang:en|wc:2|cs:8826|v=4,False,,Rajkot,"Serve No.36, Plot No.4, Shade No 6, Village Vavdi, Near Om Casting, BH Krishna Park, Gondal Road,, Rajkot - 360004, Dist.Rajkot, Gujarat",8045738690,
"Plain KareIn Adult Diaper Pants, Packaging Size: Medium",https://www.indiamart.com/proddetail/karein-adult-diaper-pants-2853784794730.html?pos=202&kwd=adult diapers&tags=A||||8954.051|Price|product|||MDC|rsf:gd-|-stype:attr=1|qr_nm:gd|res:RC4|com-cf:nl|ptrs:na|ktp:N0|mc:21601|mtp:S|qry_typ:P|lang:en|wc:2|cs:8826|v=4,Oracare,https://www.indiamart.com/oracare-chennai/?pos=202&kwd=adult diapers&tags=A||||8954.051|Price|product|||MDC|rsf:gd-|-stype:attr=1|qr_nm:gd|res:RC4|com-cf:nl|ptrs:na|ktp:N0|mc:21601|mtp:S|qry_typ:P|lang:en|wc:2|cs:8826|v=4,False,Maraimalai Nagar,Chennai,"Ground Floor, 132, LIG, NH1 Ambedkar Street, Maraimalai Nagar, Kancheepuram, Maraimalai Nagar, Chennai - 603209, Dist.Chennai, Tamil Nadu",7949095662,
"My Comfort Adult Diaper, XL",https://www.indiamart.com/proddetail/my-comfort-adult-diaper-2854472661491.html?pos=203&kwd=adult diapers&tags=A||||8723.301|Price|product|||MDC|rsf:gd-|-stype:attr=1|qr_nm:gd|res:RC4|com-cf:nl|ptrs:na|ktp:N0|mc:21601|mtp:S|qry_typ:P|lang:en|wc:2|cs:8826|v=4,Mediline,https://www.indiamart.com/mediline-bhopal/?pos=203&kwd=adult diapers&tags=A||||8723.301|Price|product|||MDC|rsf:gd-|-stype:attr=1|qr_nm:gd|res:RC4|com-cf:nl|ptrs:na|ktp:N0|mc:21601|mtp:S|qry_typ:P|lang:en|wc:2|cs:8826|v=4,False,,Bhopal,"H.No 4, Shop No 3, Opposite Hamidia Hospital, Bhopal - 462001, Dist.Bhopal, Madhya Pradesh",7949322128,
"M Magna Adult Diaper, Size: Medium",https://www.indiamart.com/proddetail/m-magna-adult-diaper-2853858915255.html?pos=204&kwd=adult diapers&tags=A||||8228.275|Price|product|||MDC|rsf:gd-|-stype:attr=1|qr_nm:gd|res:RC4|com-cf:nl|ptrs:na|ktp:N0|mc:21601|mtp:S|qry_typ:P|lang:en|wc:2|cs:8826|v=4,Krishna Surgicals,https://www.indiamart.com/krishnasurgicalsahmedabad/?pos=204&kwd=adult diapers&tags=A||||8228.275|Price|product|||MDC|rsf:gd-|-stype:attr=1|qr_nm:gd|res:RC4|com-cf:nl|ptrs:na|ktp:N0|mc:21601|mtp:S|qry_typ:P|lang:en|wc:2|cs:8826|v=4,False,Gheekanta,Ahmedabad,"Ground Floor, 25, Ratnamani Complex, Relief Road Nagar Sheth No Vando Beside M J Market Gheekanta, 20, Gheekanta, Ahmedabad - 380001, Dist.Ahmedabad, Gujarat",7949086523,
Large Karein Adult Diaper,https://www.indiamart.com/proddetail/large-karein-adult-diaper-2854994967233.html?pos=205&kwd=adult diapers&tags=A||||8954.051|Price|product|||MDC|rsf:gd-|-stype:attr=1|qr_nm:gd|res:RC4|com-cf:nl|ptrs:na|ktp:N0|mc:21601|mtp:S|qry_typ:P|lang:en|wc:2|cs:8826|v=4,SSS Dental Mart,https://www.indiamart.com/sss-dental-martchennai/?pos=205&kwd=adult diapers&tags=A||||8954.051|Price|product|||MDC|rsf:gd-|-stype:attr=1|qr_nm:gd|res:RC4|com-cf:nl|ptrs:na|ktp:N0|mc:21601|mtp:S|qry_typ:P|lang:en|wc:2|cs:8826|v=4,False,,Chennai,"2nd Floor, 100, Pillyar Koil Street, Chennai - 600106, Dist.Chennai, Tamil Nadu",8048247130,5386
"Friends Adult Diapers, Size: Large",https://www.indiamart.com/proddetail/friends-adult-diapers-21352837012.html?pos=206&kwd=adult diapers&tags=A||||8211.142|Price|product|||MDC|rsf:gd-|-stype:attr=1|qr_nm:gd|res:RC4|com-cf:nl|ptrs:na|ktp:N0|mc:21601|mtp:S|qry_typ:P|lang:en|wc:2|cs:8826|v=4,Aarav Surgical,https://www.indiamart.com/aarav-surgical/?pos=206&kwd=adult diapers&tags=A||||8211.142|Price|product|||MDC|rsf:gd-|-stype:attr=1|qr_nm:gd|res:RC4|com-cf:nl|ptrs:na|ktp:N0|mc:21601|mtp:S|qry_typ:P|lang:en|wc:2|cs:8826|v=4,False,Dahisar East,Mumbai,"Shop No. 05 A/5, Shanti Apartment, Chsl., C.S.C. Road No. 3 Near Shakti Nagar, Dahisar East, Mumbai - 400068, Dist.Mumbai, Maharashtra",8048261724,
Adult Diapers,,Syana India Associates,https://www.indiamart.com/syanaindia/?pos=207&kwd=adult diapers&tags=A||||8752.144|Price|product|||TS|rsf:gd-|-stype:attr=1|qr_nm:gd|res:RC4|com-cf:nl|ptrs:na|ktp:N0|mc:21601|mtp:S|qry_typ:P|lang:en|wc:2|cs:8826|v=4,False,Pitampura,New Delhi,"Second Floor Off No 201, 205 And 207 Pitampura Vardhman Crystal Plaza, Pitampura, New Delhi - 110034, Dist.Delhi, Delhi",8048981636,
"Pant Type Friends Economy Adult Diapers M, Size: Medium, 10",https://www.indiamart.com/proddetail/friends-economy-adult-diapers-m-24254328797.html?pos=208&kwd=adult diapers&tags=A||||8228.275|Price|product|||TS|rsf:gd-|-stype:attr=1|qr_nm:gd|res:RC4|com-cf:nl|ptrs:na|ktp:N0|mc:21601|mtp:S|qry_typ:P|lang:en|wc:2|cs:8826|v=4,Classic Medical Supply,https://www.classicmedicalsupply.com/?pos=208&kwd=adult diapers&tags=A||||8228.275|Price|product|||TS|rsf:gd-|-stype:attr=1|qr_nm:gd|res:RC4|com-cf:nl|ptrs:na|ktp:N0|mc:21601|mtp:S|qry_typ:P|lang:en|wc:2|cs:8826|v=4,False,Bhadra,Ahmedabad,"Pragati Bank, 1 Classic Electronics, Relief Road, Ratanpur Pole, Bhadra, Ahmedabad - 380001, Dist.Ahmedabad, Gujarat",8048953386,
Adult Diaper Pants,,Eskay Surgicals & Pharmacuticals,https://www.eskaysurgicals.com/?pos=209&kwd=adult diapers&tags=A||||8786.56|Price|product|||TS|rsf:gd-|-stype:attr=1|qr_nm:gd|res:RC4|com-cf:nl|ptrs:na|ktp:N0|mc:21601|mtp:S|qry_typ:P|lang:en|wc:2|cs:8826|v=4,False,Jam Bagh,Hyderabad,"Ground Floor, 4-5-178/C, Sri Salasar Dham, Hasmath Gunj, Sultan Bazar,, Jam Bagh, Hyderabad - 500095, Dist.Hyderabad, Telangana",7942553848,
Uphealthy Adult Diaper (M/L/XL),,International Surgical Equipment Co,https://www.indiamart.com/internationalsurgicalequipmentco/?pos=210&kwd=adult diapers&tags=A||||8954.051||product|||SSnp|rsf:gd-|-stype:attr=1|qr_nm:gd|res:RC4|com-cf:nl|ptrs:na|ktp:N0|mc:21601|mtp:S|qry_typ:P|lang:en|wc:2|cs:8826|v=4,False,Periyamet,Chennai,"Ground Floor 109 Nyniappa Naicken Street, Periyamet, Chennai - 600003, Dist.Chennai, Tamil Nadu",8048261294,
