product_title,product_link,company_name,company_link,is_verified_exporter,city_region,city,address_details,phone_number,phone_number_extension
"Machinfabrik SS304 Ready to Eat Sterilizer, Size: Starting From 100 Litres/Batch",https://www.indiamart.com/proddetail/ready-to-eat-sterilizer-25573519312.html?pos=1&kwd=baby bottle sterilizer&tags=A||||8226.563||product|||LSnp|rsf:gd-|-stype:attr=1|qr_nm:gd|res:RC4|com-cf:nl|ptrs:na|ktp:N0|mc:192756|mtp:S|qry_typ:P|lang:en|wc:3|flavl:0|cs:9658|v=4,Machinfabrik Industries Private Limited,https://www.indiamart.com/machinfabrikindustries/?pos=1&kwd=baby bottle sterilizer&tags=A||||8226.563||product|||LSnp|rsf:gd-|-stype:attr=1|qr_nm:gd|res:RC4|com-cf:nl|ptrs:na|ktp:N0|mc:192756|mtp:S|qry_typ:P|lang:en|wc:3|flavl:0|cs:9658|v=4,False,Ghansoli,Navi Mumbai,"MIDC, R-89/90, TTC Industrial Area, Thane Belapur Road, Rabale MIDC, Ghansoli, Navi Mumbai - 400701, Dist.Thane, Maharashtra",8048267948,
Thrive Universal Bottle Sterilizer,https://www.indiamart.com/proddetail/thrive-universal-bottle-sterilizer-26106787533.html?pos=2&kwd=baby bottle sterilizer&tags=A||||8752.144|Price|product|||TS|rsf:gd-|-stype:attr=1|qr_nm:gd|res:RC4|com-cf:nl|ptrs:na|ktp:N0|mc:192756|mtp:S|qry_typ:P|lang:en|wc:3|flavl:0|cs:9658|v=4,Shree Ganpati Traders,https://www.thebulkbazaar.com/?pos=2&kwd=baby bottle sterilizer&tags=A||||8752.144|Price|product|||TS|rsf:gd-|-stype:attr=1|qr_nm:gd|res:RC4|com-cf:nl|ptrs:na|ktp:N0|mc:192756|mtp:S|qry_typ:P|lang:en|wc:3|flavl:0|cs:9658|v=4,False,Shahdara,New Delhi,"151, DOUBLE STORY FLATS, KABOOL NAGAR,, Shahdara, New Delhi - 110032, Dist.Delhi, Delhi",8046046908,
"White Philips Avent SCF291 Fast Effective Sterilisation, Capacity: 200 mL, Baby",https://www.indiamart.com/proddetail/philips-avent-scf291-fast-effective-sterilizer-2854976893748.html?pos=3&kwd=baby bottle sterilizer&tags=A||||8584.299|Price|product|||MDC|rsf:gd-|-stype:attr=1|qr_nm:gd|res:RC4|com-cf:nl|ptrs:na|ktp:N0|mc:192756|mtp:S|qry_typ:P|lang:en|wc:3|flavl:0|cs:9658|v=4,Vino Mani Enterprises,https://www.indiamart.com/vino-mani-enterprises/?pos=3&kwd=baby bottle sterilizer&tags=A||||8584.299|Price|product|||MDC|rsf:gd-|-stype:attr=1|qr_nm:gd|res:RC4|com-cf:nl|ptrs:na|ktp:N0|mc:192756|mtp:S|qry_typ:P|lang:en|wc:3|flavl:0|cs:9658|v=4,False,,Coimbatore,"No 89A, NA, Azad Road, R S Puram, Coimbatore - 641002, Dist.Coimbatore, Tamil Nadu",7942546353,
PHILIPS AVENT SCF291/00 BABY BOTTLE STERILIZER,,Mahavir World,https://www.indiamart.com/mahavir-world/?pos=4&kwd=baby bottle sterilizer&tags=BA||||8307.81|Price|product|||TS|rsf:gd-|-stype:attr=1|qr_nm:gd|res:RC4|com-cf:nl|ptrs:na|ktp:N0|mc:192756|mtp:S|qry_typ:P|lang:en|wc:3|flavl:0|cs:9658|v=4,False,Ganj Peth,Pune,"845, Shukrawarpeth, Opposite Vallabh Sarees, Near Jain Temple, Ganj Peth, Pune - 411002, Dist.Pune, Maharashtra",8046049692,
"Transparent Westinghouse Baby Bottle Electrical Steam & Sterilizer, Capacity: 200 mL",https://www.indiamart.com/proddetail/westinghouse-baby-bottle-electrical-steam-sterilizer-2852612377933.html?pos=5&kwd=baby bottle sterilizer&tags=BA||||8752.144|Price|product|||TS|rsf:gd-|-stype:attr=1|qr_nm:gd|res:RC4|com-cf:nl|ptrs:na|ktp:N0|mc:192756|mtp:S|qry_typ:P|lang:en|wc:3|flavl:0|cs:9658|v=4,Surya Home Collection,https://www.bookexperts.in/?pos=5&kwd=baby bottle sterilizer&tags=BA||||8752.144|Price|product|||TS|rsf:gd-|-stype:attr=1|qr_nm:gd|res:RC4|com-cf:nl|ptrs:na|ktp:N0|mc:192756|mtp:S|qry_typ:P|lang:en|wc:3|flavl:0|cs:9658|v=4,False,Jamia Nagar,New Delhi,"43, Ground Floor, Bharat Nagar, New Friends Colony, South Delhi, Jamia Nagar, New Delhi - 110025, Dist.Delhi, Delhi",8048984260,
"Philips Avent Advance Bottle Sterilizer Natural Steam Sterilization, Capacity: 200 mL",https://www.indiamart.com/proddetail/philips-avent-advance-bottle-sterilizer-natural-steam-sterilization-2852433630297.html?pos=6&kwd=baby bottle sterilizer&tags=BB||||9140.514|Price|product|||TS|rsf:gd-|-stype:attr=1|qr_nm:gd|res:RC4|com-cf:nl|ptrs:na|ktp:N0|mc:192756|mtp:S|qry_typ:P|lang:en|wc:3|flavl:0|cs:9658|v=4,Anjaneya Enterprises,https://www.ridenslide.in/?pos=6&kwd=baby bottle sterilizer&tags=BB||||9140.514|Price|product|||TS|rsf:gd-|-stype:attr=1|qr_nm:gd|res:RC4|com-cf:nl|ptrs:na|ktp:N0|mc:192756|mtp:S|qry_typ:P|lang:en|wc:3|flavl:0|cs:9658|v=4,False,Pandri,Raipur,"SHOP NO-10,SHOPPERS PARADISE,BEHIND CITY CENTER MALL,PANDRI,RAIPUR, Pandri, Raipur - 492001, Chhattisgarh",8046045761,
"White PHILIPS AVENT STERILIZATION, Baby",https://www.indiamart.com/proddetail/philips-avent-sterilization-2854898200030.html?pos=7&kwd=baby bottle sterilizer&tags=BB||||8954.051|Price|product|||TS|rsf:gd-|-stype:attr=1|qr_nm:gd|res:RC4|com-cf:nl|ptrs:na|ktp:N0|mc:192756|mtp:S|qry_typ:P|lang:en|wc:3|flavl:0|cs:9658|v=4,Golden Age Mart,https://www.indiamart.com/golden-age-mart/?pos=7&kwd=baby bottle sterilizer&tags=BB||||8954.051|Price|product|||TS|rsf:gd-|-stype:attr=1|qr_nm:gd|res:RC4|com-cf:nl|ptrs:na|ktp:N0|mc:192756|mtp:S|qry_typ:P|lang:en|wc:3|flavl:0|cs:9658|v=4,False,Police Colony,Chennai,"Ground Floor, No.87d, Kanniamman Koil Street, Kelambakkam Vandalur Road, Keelakottiyur Chengalpattu, Police Colony, Chennai - 600127, Dist.Chennai, Tamil Nadu",7949086669,
Avent Advance Bottle sterilizer SCF291/00,https://www.indiamart.com/proddetail/avent-advance-bottle-sterilizer-scf291-00-2853684061388.html?pos=8&kwd=baby bottle sterilizer&tags=BA||||8331.224|Price|product|||MDC|rsf:gd-|-stype:attr=1|qr_nm:gd|res:RC4|com-cf:nl|ptrs:na|ktp:N0|mc:192756|mtp:S|qry_typ:P|lang:en|wc:3|flavl:0|cs:9658|v=4,Shri Siddhivinayak Distributors,https://www.indiamart.com/shrisiddhivinayak-distributors/?pos=8&kwd=baby bottle sterilizer&tags=BA||||8331.224|Price|product|||MDC|rsf:gd-|-stype:attr=1|qr_nm:gd|res:RC4|com-cf:nl|ptrs:na|ktp:N0|mc:192756|mtp:S|qry_typ:P|lang:en|wc:3|flavl:0|cs:9658|v=4,False,New Shahupuri,Kolhapur,"Cs No 372/3, E Ward, Ghoarpade Galli, New Shahupuri, Kolhapur - 416003, Dist.Kolhapur, Maharashtra",7949095151,
Philips Sterlizer Scf 291,,Jeet And Company,https://www.indiamart.com/jeetcompany-karnal/?pos=9&kwd=baby bottle sterilizer&tags=BA||||8753.51|Price|product|||MDC|rsf:gd-|-stype:attr=1|qr_nm:gd|res:RC4|com-cf:nl|ptrs:na|ktp:N0|mc:192756|mtp:S|qry_typ:P|lang:en|wc:3|flavl:0|cs:9658|v=4,False,Market,Karnal,"8-10, Red Cross Market, Market, Karnal - 132001, Dist.Karnal, Haryana",7949083305,
Legit UV Sterilizer Dryer,https://www.indiamart.com/proddetail/legit-uv-sterilizer-dryer-23056663112.html?pos=10&kwd=baby bottle sterilizer&tags=BB||||8661.854|Price|product|||NA|rsf:gd-|-stype:attr=1|qr_nm:gd|res:RC4|com-cf:nl|ptrs:na|ktp:N0|mc:192756|mtp:S|qry_typ:P|lang:en|wc:3|flavl:0|cs:9658|v=4,Legit Appliances And Electronics Private Limited,https://www.indiamart.com/legit-appliances-andelectronics/?pos=10&kwd=baby bottle sterilizer&tags=BB||||8661.854|Price|product|||NA|rsf:gd-|-stype:attr=1|qr_nm:gd|res:RC4|com-cf:nl|ptrs:na|ktp:N0|mc:192756|mtp:S|qry_typ:P|lang:en|wc:3|flavl:0|cs:9658|v=4,False,G.T. Road,Ludhiana,"BXXX-57, Opp Hero Cycle, G.T. Road, G.T. Road, Ludhiana - 141010, Dist.Ludhiana, Punjab",8048985866,
Automatic Baby Feeding Bottle Electric Steam Sterilizer & Warmer for Bottles,https://www.indiamart.com/proddetail/automatic-baby-feeding-bottle-electric-steam-sterilizer-warmer-for-bottles-2852530174662.html?pos=11&kwd=baby bottle sterilizer&tags=BA||||8752.144|Price|product|||NA|rsf:gd-|-stype:attr=1|qr_nm:gd|res:RC4|com-cf:nl|ptrs:na|ktp:N0|mc:192756|mtp:S|qry_typ:P|lang:en|wc:3|flavl:0|cs:9658|v=4,Essential Healthcare Impex,https://www.indiamart.com/essentialhealthcare-impex/?pos=11&kwd=baby bottle sterilizer&tags=BA||||8752.144|Price|product|||NA|rsf:gd-|-stype:attr=1|qr_nm:gd|res:RC4|com-cf:nl|ptrs:na|ktp:N0|mc:192756|mtp:S|qry_typ:P|lang:en|wc:3|flavl:0|cs:9658|v=4,False,Khyala,New Delhi,"Rz-71, Narsing Garden, Khyala, West Delhi, Khyala, New Delhi - 110018, Dist.Delhi, Delhi",7942959465,
"White Plastic Thrive Bottle Sterilizer (With Termostat), 3-12 Months",https://www.indiamart.com/proddetail/thrive-bottle-sterilizer-with-termostat-27111855191.html?pos=12&kwd=baby bottle sterilizer&tags=BB||||8752.144|Price|product|||NA|rsf:gd-|-stype:attr=1|qr_nm:gd|res:RC4|com-cf:nl|ptrs:na|ktp:N0|mc:192756|mtp:S|qry_typ:P|lang:en|wc:3|flavl:0|cs:9658|v=4,Texon Industries,https://www.indiamart.com/texon-industries-newdelhi/?pos=12&kwd=baby bottle sterilizer&tags=BB||||8752.144|Price|product|||NA|rsf:gd-|-stype:attr=1|qr_nm:gd|res:RC4|com-cf:nl|ptrs:na|ktp:N0|mc:192756|mtp:S|qry_typ:P|lang:en|wc:3|flavl:0|cs:9658|v=4,False,,New Delhi,"307/1/150 , Industrial Area , Shahzada Bagh , North West, New Delhi - 110035, Dist.Delhi, Delhi",8047662640,
Philips Avent Advance Bottle sterilizer SCF291 Capacity Of 6 Baby Bottles,https://www.indiamart.com/proddetail/philips-avent-advance-bottle-sterilizer-scf291-capacity-of-6-baby-bottles-2852864967433.html?pos=13&kwd=baby bottle sterilizer&tags=BA||||8663.873|Price|product|||NA|rsf:gd-|-stype:attr=1|qr_nm:gd|res:RC4|com-cf:nl|ptrs:na|ktp:N0|mc:192756|mtp:S|qry_typ:P|lang:en|wc:3|flavl:0|cs:9658|v=4,Wellnex,https://www.indiamart.com/wellnex/?pos=13&kwd=baby bottle sterilizer&tags=BA||||8663.873|Price|product|||NA|rsf:gd-|-stype:attr=1|qr_nm:gd|res:RC4|com-cf:nl|ptrs:na|ktp:N0|mc:192756|mtp:S|qry_typ:P|lang:en|wc:3|flavl:0|cs:9658|v=4,False,Bangalore,Bengaluru,"NO.25 9TH CROSS, 1ST MAIN, MAGADI ROAD PRASHANTH NAGAR 9th cross, Prashant Nagar, Bangalore, Bengaluru - 560079, Dist.Bengaluru, Karnataka",8046033558,
"LuvLap Royal Electric Steam Sterilizer for 6 feeding bottles, Auto Shut off",https://www.indiamart.com/proddetail/luvlap-royal-electric-steam-sterilizer-for-6-feeding-bottles-auto-shut-off-2854909164630.html?pos=14&kwd=baby bottle sterilizer&tags=BB||||8692.532|Price|product|||NA|rsf:gd-|-stype:attr=1|qr_nm:gd|res:RC4|com-cf:nl|ptrs:na|ktp:N0|mc:192756|mtp:S|qry_typ:P|lang:en|wc:3|flavl:0|cs:9658|v=4,Onkar Trading Co.,https://www.indiamart.com/onkar-trading-samrala/?pos=14&kwd=baby bottle sterilizer&tags=BB||||8692.532|Price|product|||NA|rsf:gd-|-stype:attr=1|qr_nm:gd|res:RC4|com-cf:nl|ptrs:na|ktp:N0|mc:192756|mtp:S|qry_typ:P|lang:en|wc:3|flavl:0|cs:9658|v=4,False,,Samrala,"Durlabh Nagar, Samrala - 141114, Dist.Ludhiana, Punjab",7942795543,
Horizontal Bottle Sterilizer,https://www.indiamart.com/proddetail/bottle-sterilizer-4966522591.html?pos=15&kwd=baby bottle sterilizer&tags=CC||||8258.58|Price|product|||TS|rsf:gd-|-stype:attr=1|qr_nm:gd|res:RC4|com-cf:nl|ptrs:na|ktp:N0|mc:192756|mtp:S|qry_typ:P|lang:en|wc:3|cs:8895|v=4,Shreya Engineering Works,https://www.shreyaengineering.co.in/?pos=15&kwd=baby bottle sterilizer&tags=CC||||8258.58|Price|product|||TS|rsf:gd-|-stype:attr=1|qr_nm:gd|res:RC4|com-cf:nl|ptrs:na|ktp:N0|mc:192756|mtp:S|qry_typ:P|lang:en|wc:3|cs:8895|v=4,True,Vithal Udyognagar,Anand,"Zone E-3, Shed No. C-1/309, Vithal Udyognagar, Anand - 388121, Dist.Anand, Gujarat",8048968541,
Horizontal Stainless Steel Philips Avent Avent Electric Steam Steriliser,https://www.indiamart.com/proddetail/philips-avent-avent-electric-steam-steriliser-2852414290073.html?pos=16&kwd=baby bottle sterilizer&tags=CC||||8769.508|Price|product|||TS|rsf:gd-|-stype:attr=1|qr_nm:gd|res:RC4|com-cf:nl|ptrs:na|ktp:N0|mc:192756|mtp:S|qry_typ:P|lang:en|wc:3|cs:8895|v=4,Devyasi India Private Limited,https://www.indiamart.com/devyasi-india/?pos=16&kwd=baby bottle sterilizer&tags=CC||||8769.508|Price|product|||TS|rsf:gd-|-stype:attr=1|qr_nm:gd|res:RC4|com-cf:nl|ptrs:na|ktp:N0|mc:192756|mtp:S|qry_typ:P|lang:en|wc:3|cs:8895|v=4,False,Sector 12,Faridabad,"TF-01, Third Floor, Parsvnath City Mall, Sector- 12, Sector 12, Faridabad - 121006, Dist.Faridabad, Haryana",7942872525,
"Philips Avent Sterilizer Bottle Steam Sterilzer, Automation Grade: Fully Automatic, Warranty: 2 Years",https://www.indiamart.com/proddetail/bottle-steam-sterilzer-21630739897.html?pos=17&kwd=baby bottle sterilizer&tags=CC||||8954.051|Price|product|||TS|rsf:gd-|-stype:attr=1|qr_nm:gd|res:RC4|com-cf:nl|ptrs:na|ktp:N0|mc:192756|mtp:S|qry_typ:P|lang:en|wc:3|cs:8895|v=4,Auro Mira Medi Aids,https://www.indiamart.com/auromiramediaids/?pos=17&kwd=baby bottle sterilizer&tags=CC||||8954.051|Price|product|||TS|rsf:gd-|-stype:attr=1|qr_nm:gd|res:RC4|com-cf:nl|ptrs:na|ktp:N0|mc:192756|mtp:S|qry_typ:P|lang:en|wc:3|cs:8895|v=4,False,Adyar,Chennai,"New No. 36, Old No. 32, Shriram Nagar Main Road, Adyar, Chennai - 600113, Dist.Chennai, Tamil Nadu",8048988682,
Rectangular Luvlap electric steam sterilizier,https://www.indiamart.com/proddetail/luvlap-electric-steam-sterilizier-2854569131488.html?pos=18&kwd=baby bottle sterilizer&tags=CC||||8706.587||product|||MDC|rsf:gd-|-stype:attr=1|qr_nm:gd|res:RC4|com-cf:nl|ptrs:na|ktp:N0|mc:192756|mtp:S|qry_typ:P|lang:en|wc:3|cs:8895|v=4,Bawaa Medicals,https://www.indiamart.com/bawaa-medicals-madurai/?pos=18&kwd=baby bottle sterilizer&tags=CC||||8706.587||product|||MDC|rsf:gd-|-stype:attr=1|qr_nm:gd|res:RC4|com-cf:nl|ptrs:na|ktp:N0|mc:192756|mtp:S|qry_typ:P|lang:en|wc:3|cs:8895|v=4,False,,Madurai,"24 25, American College Complex, Goripalayam, Madurai - 625002, Dist.Madurai, Tamil Nadu",8047850991,
Breastmilk Bottles Sterliser,https://www.indiamart.com/proddetail/breastmilk-bottles-sterliser-3428762197.html?pos=19&kwd=baby bottle sterilizer&tags=CC||||8211.142|Price|product|||TS|rsf:gd-|-stype:attr=1|qr_nm:gd|res:RC4|com-cf:nl|ptrs:na|ktp:N0|mc:192756|mtp:S|qry_typ:P|lang:en|wc:3|cs:8895|v=4,Seward Systems Inc,https://www.indiamart.com/seward-systems/?pos=19&kwd=baby bottle sterilizer&tags=CC||||8211.142|Price|product|||TS|rsf:gd-|-stype:attr=1|qr_nm:gd|res:RC4|com-cf:nl|ptrs:na|ktp:N0|mc:192756|mtp:S|qry_typ:P|lang:en|wc:3|cs:8895|v=4,False,Borivali East,Mumbai,"No. 302, Triveni Krupa Building, Carter Road, No. 3, Borivali East, Mumbai - 400066, Dist.Mumbai, Maharashtra",8048602086,
"Transparent Philips Avent Advance Bottle Sterilizer, New Born Baby",https://www.indiamart.com/proddetail/philips-avent-advance-bottle-sterilizer-2854246626791.html?pos=20&kwd=baby bottle sterilizer&tags=CC||||8788.382|Price|product|||MDC|rsf:gd-|-stype:attr=1|qr_nm:gd|res:RC4|com-cf:nl|ptrs:na|ktp:N0|mc:192756|mtp:S|qry_typ:P|lang:en|wc:3|cs:8895|v=4,Health4u,https://www.indiamart.com/health4u-greaternoida/?pos=20&kwd=baby bottle sterilizer&tags=CC||||8788.382|Price|product|||MDC|rsf:gd-|-stype:attr=1|qr_nm:gd|res:RC4|com-cf:nl|ptrs:na|ktp:N0|mc:192756|mtp:S|qry_typ:P|lang:en|wc:3|cs:8895|v=4,False,,Greater Noida,"Shop No-5, H No-3, Pandat Complex, Ram Shyam Enclave, Chipiyana Buzurg,, Greater Noida - 201306, Dist.Gautam Budh Nagar, Uttar Pradesh",8045731446,
Pigeon Baby 6 Bottle Electric Steam Sterilizers,https://www.indiamart.com/proddetail/pigeon-baby-6-bottle-electric-steam-sterilizers-2852326702912.html?pos=21&kwd=baby bottle sterilizer&tags=CC||||8307.81|Price|product|||MDC|rsf:gd-|-stype:attr=1|qr_nm:gd|res:RC4|com-cf:nl|ptrs:na|ktp:N0|mc:192756|mtp:S|qry_typ:P|lang:en|wc:3|cs:8895|v=4,Bhavana Agency,https://www.indiamart.com/bhavana-agency/?pos=21&kwd=baby bottle sterilizer&tags=CC||||8307.81|Price|product|||MDC|rsf:gd-|-stype:attr=1|qr_nm:gd|res:RC4|com-cf:nl|ptrs:na|ktp:N0|mc:192756|mtp:S|qry_typ:P|lang:en|wc:3|cs:8895|v=4,False,Sadashiv Peth,Pune,"S No 4, 841/1, Asset Gold, Sadashiv Peth, Sadashiv Peth, Pune - 411030, Dist.Pune, Maharashtra",8047788291,
"Tube Material: Soft Glass AIR PORTABLE BABY BOTTLE STRELIZER & DRYER, Dc 5v, Automation Grade: Automatic",https://www.indiamart.com/proddetail/air-portable-baby-bottle-strelizer-dryer-26435303788.html?pos=22&kwd=baby bottle sterilizer&tags=CC||||8752.144|Price|product|||MDC|rsf:gd-|-stype:attr=1|qr_nm:gd|res:RC4|com-cf:nl|ptrs:na|ktp:N0|mc:192756|mtp:S|qry_typ:P|lang:en|wc:3|cs:8895|v=4,KamaIndia Private Limited,https://www.indiamart.com/kamaindia/?pos=22&kwd=baby bottle sterilizer&tags=CC||||8752.144|Price|product|||MDC|rsf:gd-|-stype:attr=1|qr_nm:gd|res:RC4|com-cf:nl|ptrs:na|ktp:N0|mc:192756|mtp:S|qry_typ:P|lang:en|wc:3|cs:8895|v=4,False,Yusuf Sarai,New Delhi,"BPS House, 2nd Floor, M-161, Community Centre, Yusuf Sarai, New Delhi - 110049, Dist.Delhi, Delhi",8048619490,
Philips Plastic Baby Bottle Warmer,https://www.indiamart.com/proddetail/baby-bottle-warmer-2091779088.html?pos=23&kwd=baby bottle sterilizer&tags=CC||||8954.051|Price|product|||TS|rsf:gd-|-stype:attr=1|qr_nm:gd|res:RC4|com-cf:nl|ptrs:na|ktp:N0|mc:192756|mtp:S|qry_typ:P|lang:en|wc:3|cs:8895|v=4,Right Med Bio System,https://www.rightmedbiosystem.com/?pos=23&kwd=baby bottle sterilizer&tags=CC||||8954.051|Price|product|||TS|rsf:gd-|-stype:attr=1|qr_nm:gd|res:RC4|com-cf:nl|ptrs:na|ktp:N0|mc:192756|mtp:S|qry_typ:P|lang:en|wc:3|cs:8895|v=4,False,Kovilambakkam,Chennai,"Plot No. 28, Ground Floor 1st Street, Devi Karumari Amman Nagar, Kovilambakkam, Chennai - 600129, Dist.Chennai, Tamil Nadu",8048965404,
Industrial Bottle Sterilizer,https://www.indiamart.com/proddetail/industrial-bottle-sterilizer-23345769388.html?pos=24&kwd=baby bottle sterilizer&tags=||||8228.275|Price|product|||TS|rsf:gd-|-stype:attr=1|qr_nm:gd|res:RC4|com-cf:nl|ptrs:na|ktp:N0|mc:192756|mtp:S|qry_typ:P|lang:en|wc:3|cs:8895|v=4,Map Industries,https://www.mapsterilizer.com/?pos=24&kwd=baby bottle sterilizer&tags=||||8228.275|Price|product|||TS|rsf:gd-|-stype:attr=1|qr_nm:gd|res:RC4|com-cf:nl|ptrs:na|ktp:N0|mc:192756|mtp:S|qry_typ:P|lang:en|wc:3|cs:8895|v=4,True,,Ahmedabad,"A-103/104, Swarnim Industrial Park, Bakrol Road, Bakrol, Ahmedabad - 382430, Dist.Ahmedabad, Gujarat",8048961872,
For Hospital Stainless Steel Saturated Steam Sterilizer,https://www.indiamart.com/proddetail/saturated-steam-sterilizer-10852378797.html?pos=25&kwd=baby bottle sterilizer&tags=||||8228.275|Price|product|||TS|rsf:gd-|-stype:attr=1|qr_nm:gd|res:RC4|com-cf:nl|ptrs:na|ktp:N0|mc:192756|mtp:S|qry_typ:P|lang:en|wc:3|cs:8895|v=4,Neelam Industries,https://www.neelampharmamech.com/?pos=25&kwd=baby bottle sterilizer&tags=||||8228.275|Price|product|||TS|rsf:gd-|-stype:attr=1|qr_nm:gd|res:RC4|com-cf:nl|ptrs:na|ktp:N0|mc:192756|mtp:S|qry_typ:P|lang:en|wc:3|cs:8895|v=4,True,Vatva,Ahmedabad,"G.I.D.C., Plot No.3735, Vatva, Phase Iv Vatva, Vatva, Ahmedabad - 382445, Dist.Ahmedabad, Gujarat",8046058273,
10-15 Litre Fully Automatic Bottle Sterilizer,https://www.indiamart.com/proddetail/bottle-sterilizer-10622448391.html?pos=26&kwd=baby bottle sterilizer&tags=||||8767.829||product|||TS|rsf:gd-|-stype:attr=1|qr_nm:gd|res:RC4|com-cf:nl|ptrs:na|ktp:N0|mc:192756|mtp:S|qry_typ:P|lang:en|wc:3|cs:8895|v=4,Food And Biotech Engineers (india) Private Limited,https://www.foodandbiotech.co.in/?pos=26&kwd=baby bottle sterilizer&tags=||||8767.829||product|||TS|rsf:gd-|-stype:attr=1|qr_nm:gd|res:RC4|com-cf:nl|ptrs:na|ktp:N0|mc:192756|mtp:S|qry_typ:P|lang:en|wc:3|cs:8895|v=4,False,Prithla,Palwal,"FOOD AND BIOTECH ENGINEERS INDIA PVT. LTD. PRITHLA, Prithla, Palwal - 121102, Dist.Palwal, Haryana",7942560856,
Baby Sterilizer Bottle,https://www.indiamart.com/proddetail/baby-sterilizer-bottle-18578403930.html?pos=27&kwd=baby bottle sterilizer&tags=CC||||8752.144|Price|product|||NA|rsf:gd-|-stype:attr=1|qr_nm:gd|res:RC4|com-cf:nl|ptrs:na|ktp:N0|mc:192756|mtp:S|qry_typ:P|lang:en|wc:3|cs:8895|v=4,F. T. Trading Co.,https://www.indiamart.com/ft-trading-co/?pos=27&kwd=baby bottle sterilizer&tags=CC||||8752.144|Price|product|||NA|rsf:gd-|-stype:attr=1|qr_nm:gd|res:RC4|com-cf:nl|ptrs:na|ktp:N0|mc:192756|mtp:S|qry_typ:P|lang:en|wc:3|cs:8895|v=4,False,,New Delhi,"292, Gali Toliye Wali, Sadar Bazar,, New Delhi - 110006, Dist.Delhi, Delhi",8062245069,584
Electric Steam Sterilizer,https://www.indiamart.com/proddetail/electric-steam-sterilizer-7709879412.html?pos=28&kwd=baby bottle sterilizer&tags=CC||||9839.57||product|||NA|rsf:gd-|-stype:attr=1|qr_nm:gd|res:RC4|com-cf:nl|ptrs:na|ktp:N0|mc:192756|mtp:S|qry_typ:P|lang:en|wc:3|cs:8895|v=4,Babys Joy,https://www.indiamart.com/babys-joy/?pos=28&kwd=baby bottle sterilizer&tags=CC||||9839.57||product|||NA|rsf:gd-|-stype:attr=1|qr_nm:gd|res:RC4|com-cf:nl|ptrs:na|ktp:N0|mc:192756|mtp:S|qry_typ:P|lang:en|wc:3|cs:8895|v=4,False,,Kolkata,"No. 14/8B, Golf Club Road, Ground Floor, Near RCGC Club, Kolkata - 700033, Dist.Kolkata, West Bengal",8043884156,
Electrical Sterilizers,https://www.indiamart.com/proddetail/electrical-sterilizers-7565755473.html?pos=29&kwd=baby bottle sterilizer&tags=CC||||8302.462|Price|product|||NA|rsf:gd-|-stype:attr=1|qr_nm:gd|res:RC4|com-cf:nl|ptrs:na|ktp:N0|mc:192756|mtp:S|qry_typ:P|lang:en|wc:3|cs:8895|v=4,Innotech,https://www.indiamart.com/asiainnotech/?pos=29&kwd=baby bottle sterilizer&tags=CC||||8302.462|Price|product|||NA|rsf:gd-|-stype:attr=1|qr_nm:gd|res:RC4|com-cf:nl|ptrs:na|ktp:N0|mc:192756|mtp:S|qry_typ:P|lang:en|wc:3|cs:8895|v=4,False,Tarsali,Dabhoi,"MAKNI MOHALLA,DABHOI, DABHOI, DABHOI,VADODARA Makarpura Industrial Estate,390010,Vadodara, Tarsali, Dabhoi - 391110, Dist.Vadodara, Gujarat",8069033791,695
Horizontal High Pressure Steam Sterilizer,https://www.indiamart.com/proddetail/horizontal-high-pressure-steam-sterilizer-24732290091.html?pos=30&kwd=baby bottle sterilizer&tags=||||8223.226|Price|product|||TS|rsf:gd-|-stype:attr=1|qr_nm:gd|res:RC4|com-cf:nl|ptrs:na|ktp:N0|mc:192756|mtp:S|qry_typ:P|lang:en|wc:3|cs:8895|v=4,Hospharma Corporation,https://www.hospharmacorp.in/?pos=30&kwd=baby bottle sterilizer&tags=||||8223.226|Price|product|||TS|rsf:gd-|-stype:attr=1|qr_nm:gd|res:RC4|com-cf:nl|ptrs:na|ktp:N0|mc:192756|mtp:S|qry_typ:P|lang:en|wc:3|cs:8895|v=4,True,Mira Road,Thane,"B, 102, Shantinath Darshan CHS Ltd Shanti Park Road, Mira Road, Mira Road, Thane - 401107, Dist.Thane, Maharashtra",8048261394,
"Stainless Steel Horizontal Cylindrical Steam Sterilizer, 650 - 830 L, For Hospital",https://www.indiamart.com/proddetail/horizontal-cylindrical-steam-sterilizer-4873808662.html?pos=31&kwd=baby bottle sterilizer&tags=||||8226.563||product|||TS|rsf:gd-|-stype:attr=1|qr_nm:gd|res:RC4|com-cf:nl|ptrs:na|ktp:N0|mc:192756|mtp:S|qry_typ:P|lang:en|wc:3|cs:8895|v=4,Biolinx Labsystems Private Limited,https://www.biolinxlabsystem.com/?pos=31&kwd=baby bottle sterilizer&tags=||||8226.563||product|||TS|rsf:gd-|-stype:attr=1|qr_nm:gd|res:RC4|com-cf:nl|ptrs:na|ktp:N0|mc:192756|mtp:S|qry_typ:P|lang:en|wc:3|cs:8895|v=4,False,Mahape,Navi Mumbai,"No. 203, Techno City, Plot No. X5/3, Mahape, Navi Mumbai - 400710, Dist.Thane, Maharashtra",8048983201,
"15-35 Industrial Autoclave & Sterilizers, Capacity: 190-3500 LTR",https://www.indiamart.com/proddetail/industrial-autoclave-sterilizers-2851093812362.html?pos=32&kwd=baby bottle sterilizer&tags=||||8228.275|Price|product|||TS|rsf:gd-|-stype:attr=1|qr_nm:gd|res:RC4|com-cf:nl|ptrs:na|ktp:N0|mc:192756|mtp:S|qry_typ:P|lang:en|wc:3|cs:8895|v=4,Krishna Engg.Corporation,https://www.indiamart.com/krishna-engg-corporation/?pos=32&kwd=baby bottle sterilizer&tags=||||8228.275|Price|product|||TS|rsf:gd-|-stype:attr=1|qr_nm:gd|res:RC4|com-cf:nl|ptrs:na|ktp:N0|mc:192756|mtp:S|qry_typ:P|lang:en|wc:3|cs:8895|v=4,False,Amraiwadi,Ahmedabad,"Factory No. 7, Hari Om Estate, Behind CTM Textile Mill, Opposite Om shanti School, Amraiwadi, Amraiwadi, Ahmedabad - 380026, Dist.Ahmedabad, Gujarat",8048603791,
Automatic Autoclave Machine,https://www.indiamart.com/proddetail/automatic-autoclave-machine-21678490273.html?pos=33&kwd=baby bottle sterilizer&tags=||||8663.873|Price|product|||TS|rsf:gd-|-stype:attr=1|qr_nm:gd|res:RC4|com-cf:nl|ptrs:na|ktp:N0|mc:192756|mtp:S|qry_typ:P|lang:en|wc:3|cs:8895|v=4,Divine Medical Systems,https://www.indiamart.com/divinemedicalsystems/?pos=33&kwd=baby bottle sterilizer&tags=||||8663.873|Price|product|||TS|rsf:gd-|-stype:attr=1|qr_nm:gd|res:RC4|com-cf:nl|ptrs:na|ktp:N0|mc:192756|mtp:S|qry_typ:P|lang:en|wc:3|cs:8895|v=4,False,Kacharakanahalli,Bengaluru,"17 20 2nd Cross Hennur Main Road, K.k. Halli,, Kacharakanahalli, Bengaluru - 560084, Dist.Bengaluru, Karnataka",8047642281,
"Horizontal Mild Steel Autoclaves, 1500kg-5000kg",https://www.indiamart.com/proddetail/autoclaves-11151319997.html?pos=34&kwd=baby bottle sterilizer&tags=||||8752.144|Price|product|||MDC|rsf:gd-|-stype:attr=1|qr_nm:gd|res:RC4|com-cf:nl|ptrs:na|ktp:N0|mc:192756|mtp:S|qry_typ:P|lang:en|wc:3|cs:8895|v=4,Satwant Tanks & Vessels,https://www.indiamart.com/satwanttankvessels/?pos=34&kwd=baby bottle sterilizer&tags=||||8752.144|Price|product|||MDC|rsf:gd-|-stype:attr=1|qr_nm:gd|res:RC4|com-cf:nl|ptrs:na|ktp:N0|mc:192756|mtp:S|qry_typ:P|lang:en|wc:3|cs:8895|v=4,False,Naraina,New Delhi,"C-186, Naraina Industrial Area, Phase-1, Naraina, New Delhi - 110028, Dist.Delhi, Delhi",8048968084,
Sterilizer,https://www.indiamart.com/proddetail/sterilizer-14383883733.html?pos=35&kwd=baby bottle sterilizer&tags=CC||||8741.987||product|||NA|rsf:gd-|-stype:attr=1|qr_nm:gd|res:RC4|com-cf:nl|ptrs:na|ktp:N0|mc:192756|mtp:S|qry_typ:P|lang:en|wc:3|cs:8895|v=4,Lotus,https://www.indiamart.com/lotus-overseas-marketing/?pos=35&kwd=baby bottle sterilizer&tags=CC||||8741.987||product|||NA|rsf:gd-|-stype:attr=1|qr_nm:gd|res:RC4|com-cf:nl|ptrs:na|ktp:N0|mc:192756|mtp:S|qry_typ:P|lang:en|wc:3|cs:8895|v=4,False,Ambala Cantt,Ambala,"No. 103, Mall Road, Ambala Cantt, Ambala - 133001, Dist.Ambala, Haryana",8048206164,
Baby Bottle Sterilizer,https://www.indiamart.com/proddetail/baby-bottle-sterilizer-12172304612.html?pos=36&kwd=baby bottle sterilizer&tags=CC||||8211.142|Price|product|||NA|rsf:gd-|-stype:attr=1|qr_nm:gd|res:RC4|com-cf:nl|ptrs:na|ktp:N0|mc:192756|mtp:S|qry_typ:P|lang:en|wc:3|cs:8895|v=4,Mani Sales,https://www.indiamart.com/manisales/?pos=36&kwd=baby bottle sterilizer&tags=CC||||8211.142|Price|product|||NA|rsf:gd-|-stype:attr=1|qr_nm:gd|res:RC4|com-cf:nl|ptrs:na|ktp:N0|mc:192756|mtp:S|qry_typ:P|lang:en|wc:3|cs:8895|v=4,False,,Mumbai,"Shop No. 5, Oppsite Vijay Park, Mumbai - 401107, Dist.Mumbai, Maharashtra",8048247131,4134
"White Chicco Baby Bottle Sterilizer, Capacity: 200 mL, 0-5 Years",https://www.indiamart.com/proddetail/chicco-baby-bottle-sterilizer-2852001860291.html?pos=37&kwd=baby bottle sterilizer&tags=CC||||8823.154|Price|product|||NA|rsf:gd-|-stype:attr=1|qr_nm:gd|res:RC4|com-cf:nl|ptrs:na|ktp:N0|mc:192756|mtp:S|qry_typ:P|lang:en|wc:3|cs:8895|v=4,Yahoo Fabs,https://www.indiamart.com/yahoo-fabs/?pos=37&kwd=baby bottle sterilizer&tags=CC||||8823.154|Price|product|||NA|rsf:gd-|-stype:attr=1|qr_nm:gd|res:RC4|com-cf:nl|ptrs:na|ktp:N0|mc:192756|mtp:S|qry_typ:P|lang:en|wc:3|cs:8895|v=4,False,,Agra,"58, Jaipur House, Loha Mandi, Agra - 282002, Dist.Agra, Uttar Pradesh",7942870014,
Baby Feeding Bottle Sterilizer,,Shri Shyam Sewak Sales,https://www.indiamart.com/shri-shyam-sewak-sales/?pos=38&kwd=baby bottle sterilizer&tags=CC||||9045.955||product|||NA|rsf:gd-|-stype:attr=1|qr_nm:gd|res:RC4|com-cf:nl|ptrs:na|ktp:N0|mc:192756|mtp:S|qry_typ:P|lang:en|wc:3|cs:8895|v=4,False,Vijay Tower,Kanpur,"108/37, Flat No 103, Vijay Tower, P Road, Vijay Tower, Kanpur - 208012, Uttar Pradesh",8048249673,6630
"Mee Mee Baby Bottle Sterilizer, Automation Grade: Fully Automatic, Chamber Volume: 0-5 Litre",https://www.indiamart.com/proddetail/mee-mee-baby-bottle-sterilizer-21926849812.html?pos=39&kwd=baby bottle sterilizer&tags=CC||||8601.347|Price|product|||NA|rsf:gd-|-stype:attr=1|qr_nm:gd|res:RC4|com-cf:nl|ptrs:na|ktp:N0|mc:192756|mtp:S|qry_typ:P|lang:en|wc:3|cs:8895|v=4,Reliable Enterprises,https://www.indiamart.com/reliable-entp-jaipur/?pos=39&kwd=baby bottle sterilizer&tags=CC||||8601.347|Price|product|||NA|rsf:gd-|-stype:attr=1|qr_nm:gd|res:RC4|com-cf:nl|ptrs:na|ktp:N0|mc:192756|mtp:S|qry_typ:P|lang:en|wc:3|cs:8895|v=4,False,KISHANPOLE BAZAR,Jaipur,"Shop No 6,7,Gulab Marg, Prem Nagar,Khatipura Road,Jhotwara 677,Shop No. 21, Ground Floor,C. K. Tower,302016,Jaipur, KISHANPOLE BAZAR, Jaipur - 302012, Dist.Jaipur, Rajasthan",8043811792,
"White Plastic Philips Avents Bottle Sterilizer, 2 Year",https://www.indiamart.com/proddetail/philips-avents-bottle-sterilizer-2851515432633.html?pos=40&kwd=baby bottle sterilizer&tags=CC||||8211.142||product|||NA|rsf:gd-|-stype:attr=1|qr_nm:gd|res:RC4|com-cf:nl|ptrs:na|ktp:N0|mc:192756|mtp:S|qry_typ:P|lang:en|wc:3|cs:8895|v=4,Synergy Medtech Solutions LLP,https://www.indiamart.com/synergy-medtech-solutions/?pos=40&kwd=baby bottle sterilizer&tags=CC||||8211.142||product|||NA|rsf:gd-|-stype:attr=1|qr_nm:gd|res:RC4|com-cf:nl|ptrs:na|ktp:N0|mc:192756|mtp:S|qry_typ:P|lang:en|wc:3|cs:8895|v=4,False,,Mumbai,"Shop No. 3, Neelsagar CHS, Tata Colony, Mulund East, Mumbai - 400081, Dist.Mumbai, Maharashtra",7942840696,
Baby Brezza One Step Baby Bottle Sterilizer And Dryer Advanced,https://www.indiamart.com/proddetail/baby-brezza-one-step-baby-bottle-sterilizer-and-dryer-advanced-2853237180173.html?pos=41&kwd=baby bottle sterilizer&tags=CC||||8752.144|Price|product|||NA|rsf:gd-|-stype:attr=1|qr_nm:gd|res:RC4|com-cf:nl|ptrs:na|ktp:N0|mc:192756|mtp:S|qry_typ:P|lang:en|wc:3|cs:8895|v=4,BD Impex,https://www.indiamart.com/company/2395482/?pos=41&kwd=baby bottle sterilizer&tags=CC||||8752.144|Price|product|||NA|rsf:gd-|-stype:attr=1|qr_nm:gd|res:RC4|com-cf:nl|ptrs:na|ktp:N0|mc:192756|mtp:S|qry_typ:P|lang:en|wc:3|cs:8895|v=4,False,,New Delhi,"The Moms Darling - Baby Shop 163, Kapil Vihar, Pitampura, New Delhi - 110034, Dist.Delhi, Delhi",,
"Transparent Philips Avent SCF291/00 Baby Bottle Sterilizer, Capacity: 200 mL",https://www.indiamart.com/proddetail/philips-avent-scf291-00-baby-bottle-sterilizer-2853873127733.html?pos=42&kwd=baby bottle sterilizer&tags=CC||||9110.092|Price|product|||NA|rsf:gd-|-stype:attr=1|qr_nm:gd|res:RC4|com-cf:nl|ptrs:na|ktp:N0|mc:192756|mtp:S|qry_typ:P|lang:en|wc:3|cs:8895|v=4,Rama Trading Company,https://www.indiamart.com/ramatradingcompanylucknow/?pos=42&kwd=baby bottle sterilizer&tags=CC||||9110.092|Price|product|||NA|rsf:gd-|-stype:attr=1|qr_nm:gd|res:RC4|com-cf:nl|ptrs:na|ktp:N0|mc:192756|mtp:S|qry_typ:P|lang:en|wc:3|cs:8895|v=4,False,,Lucknow,"K-2 Aashiyana Chauraha, Lucknow - 226012, Dist.Lucknow, Uttar Pradesh",8044013406,
Cute Baby Sterilizer,,Jupiter Enterprises,https://www.indiamart.com/jupiter-enterprises-delhi/?pos=43&kwd=baby bottle sterilizer&tags=CC||||8752.144|Price|product|||NA|rsf:gd-|-stype:attr=1|qr_nm:gd|res:RC4|com-cf:nl|ptrs:na|ktp:N0|mc:192756|mtp:S|qry_typ:P|lang:en|wc:3|cs:8895|v=4,False,Paschim Vihar,New Delhi,"FIRST FLOOR,PKT-1/A-2,89,PASCHIM PURI,,PASCHIM VIHAR, Paschim Vihar, New Delhi - 110063, Dist.Delhi, Delhi",8048361317,108
Automatic Baby Feeding Steam Bottle Sterilizer - 2 Bottles,https://www.indiamart.com/proddetail/automatic-baby-feeding-steam-bottle-sterilizer-2-bottles-2853683038462.html?pos=44&kwd=baby bottle sterilizer&tags=CC||||8752.144|Price|product|||NA|rsf:gd-|-stype:attr=1|qr_nm:gd|res:RC4|com-cf:nl|ptrs:na|ktp:N0|mc:192756|mtp:S|qry_typ:P|lang:en|wc:3|cs:8895|v=4,Gauba Traders,https://www.indiamart.com/gauba-traders/?pos=44&kwd=baby bottle sterilizer&tags=CC||||8752.144|Price|product|||NA|rsf:gd-|-stype:attr=1|qr_nm:gd|res:RC4|com-cf:nl|ptrs:na|ktp:N0|mc:192756|mtp:S|qry_typ:P|lang:en|wc:3|cs:8895|v=4,False,Shahdara,New Delhi,"Building Number- 358 A /1, Teliwara, Shahdara, New Delhi - 110032, Dist.Delhi, Delhi",,
R for Rabbit - I Bot Bottle Sterilizer,https://www.indiamart.com/proddetail/r-for-rabbit-i-bot-bottle-sterilizer-2851751639912.html?pos=45&kwd=baby bottle sterilizer&tags=CC||||8612.732|Price|product|||NA|rsf:gd-|-stype:attr=1|qr_nm:gd|res:RC4|com-cf:nl|ptrs:na|ktp:N0|mc:192756|mtp:S|qry_typ:P|lang:en|wc:3|cs:8895|v=4,Swift Healthcare & Hygiene Private Limited,https://www.indiamart.com/swift-healthcare-hygiene-private-limited-srinagar/?pos=45&kwd=baby bottle sterilizer&tags=CC||||8612.732|Price|product|||NA|rsf:gd-|-stype:attr=1|qr_nm:gd|res:RC4|com-cf:nl|ptrs:na|ktp:N0|mc:192756|mtp:S|qry_typ:P|lang:en|wc:3|cs:8895|v=4,False,Pampore,Srinagar,"1 1 Shiraz Road Srinagar Srinagar, Pampore, Srinagar - 190003, Dist.Srinagar, Jammu & Kashmir",,
Baby Bottle Sterilizers,,Firstcry Buy Mahindra Venture,https://www.indiamart.com/firstcry-buy-mahindra-venture/?pos=46&kwd=baby bottle sterilizer&tags=CC||||8754.115||product|||NA|rsf:gd-|-stype:attr=1|qr_nm:gd|res:RC4|com-cf:nl|ptrs:na|ktp:N0|mc:192756|mtp:S|qry_typ:P|lang:en|wc:3|cs:8895|v=4,False,Sector 9,Panchkula,"SCO 343, Sector 9, Sector 9, Panchkula - 134109, Dist.Panchkula, Haryana",8048264064,429
Avent Philips 3-in-1 Electric Steam Sterilizer,https://www.indiamart.com/proddetail/avent-philips-3-in-1-electric-steam-sterilizer-11921667991.html?pos=47&kwd=baby bottle sterilizer&tags=CC||||8307.81|Price|product|||NA|rsf:gd-|-stype:attr=1|qr_nm:gd|res:RC4|com-cf:nl|ptrs:na|ktp:N0|mc:192756|mtp:S|qry_typ:P|lang:en|wc:3|cs:8895|v=4,Madhura Medical Equipments,https://www.indiamart.com/madhuramedical/?pos=47&kwd=baby bottle sterilizer&tags=CC||||8307.81|Price|product|||NA|rsf:gd-|-stype:attr=1|qr_nm:gd|res:RC4|com-cf:nl|ptrs:na|ktp:N0|mc:192756|mtp:S|qry_typ:P|lang:en|wc:3|cs:8895|v=4,False,Mangalwar Peth,Pune,"office no 2,Floor 1st, mahesh galaxy, nr sinhgad school,Pune Shop no 1, sihagad road mahesh galexy Vadgaon,411011,Pune, Mangalwar Peth, Pune - 411041, Dist.Pune, Maharashtra",8048274709,
Table Top Autoclave Manual Philips Avent Microwave Steam Sterilizer,https://www.indiamart.com/proddetail/philips-avent-microwave-steam-sterilizer-20090947948.html?pos=48&kwd=baby bottle sterilizer&tags=CC||||8786.56|Price|product|||NA|rsf:gd-|-stype:attr=1|qr_nm:gd|res:RC4|com-cf:nl|ptrs:na|ktp:N0|mc:192756|mtp:S|qry_typ:P|lang:en|wc:3|cs:8895|v=4,Hygiene Surgicals,https://www.indiamart.com/hygienesurgicals/?pos=48&kwd=baby bottle sterilizer&tags=CC||||8786.56|Price|product|||NA|rsf:gd-|-stype:attr=1|qr_nm:gd|res:RC4|com-cf:nl|ptrs:na|ktp:N0|mc:192756|mtp:S|qry_typ:P|lang:en|wc:3|cs:8895|v=4,False,Nampally,Hyderabad,"14-1-1/5,,King Koti,Koti 14-2-332/19/1, Gyan Bagh Colony, Aghapura,500012,Hyderabad, Nampally, Hyderabad - 500001, Dist.Hyderabad, Telangana",8048207349,
Pigeon Compact Steam Sterilizer,https://www.indiamart.com/proddetail/pigeon-compact-steam-sterilizer-25686010662.html?pos=49&kwd=baby bottle sterilizer&tags=CC||||8601.347|Price|product|||NA|rsf:gd-|-stype:attr=1|qr_nm:gd|res:RC4|com-cf:nl|ptrs:na|ktp:N0|mc:192756|mtp:S|qry_typ:P|lang:en|wc:3|cs:8895|v=4,Kedia Distributors,https://www.indiamart.com/kedia-distributors/?pos=49&kwd=baby bottle sterilizer&tags=CC||||8601.347|Price|product|||NA|rsf:gd-|-stype:attr=1|qr_nm:gd|res:RC4|com-cf:nl|ptrs:na|ktp:N0|mc:192756|mtp:S|qry_typ:P|lang:en|wc:3|cs:8895|v=4,False,,Jaipur,"1, 0, Shri Bhagwat Market, Dooni House, Film Colony, Jaipur - 302003, Dist.Jaipur, Rajasthan",8043859444,
Electric Steam Sterilizer,https://www.indiamart.com/proddetail/electric-steam-sterilizer-6331124455.html?pos=50&kwd=baby bottle sterilizer&tags=CC||||8752.144||product|||NA|rsf:gd-|-stype:attr=1|qr_nm:gd|res:RC4|com-cf:nl|ptrs:na|ktp:N0|mc:192756|mtp:S|qry_typ:P|lang:en|wc:3|cs:8895|v=4,Goyal Knitting Industies,https://www.indiamart.com/goyal-knitting-industriesdelhi/?pos=50&kwd=baby bottle sterilizer&tags=CC||||8752.144||product|||NA|rsf:gd-|-stype:attr=1|qr_nm:gd|res:RC4|com-cf:nl|ptrs:na|ktp:N0|mc:192756|mtp:S|qry_typ:P|lang:en|wc:3|cs:8895|v=4,False,Shastri Nagar,New Delhi,",F-44,SHASTRI NAGAR,, Shastri Nagar, New Delhi - 110052, Dist.Delhi, Delhi",8047671909,
"BPA Free Plastic Stok ST-ES01 Electric Steam Sterilizer, Newly Born",https://www.indiamart.com/proddetail/stok-st-es01-electric-steam-sterilizer-18975516433.html?pos=51&kwd=baby bottle sterilizer&tags=CC||||8752.144|Price|product|||NA|rsf:gd-|-stype:attr=1|qr_nm:gd|res:RC4|com-cf:nl|ptrs:na|ktp:N0|mc:192756|mtp:S|qry_typ:P|lang:en|wc:3|cs:8895|v=4,Stok International,https://www.indiamart.com/stokinternational/?pos=51&kwd=baby bottle sterilizer&tags=CC||||8752.144|Price|product|||NA|rsf:gd-|-stype:attr=1|qr_nm:gd|res:RC4|com-cf:nl|ptrs:na|ktp:N0|mc:192756|mtp:S|qry_typ:P|lang:en|wc:3|cs:8895|v=4,False,Harkesh Nagar,New Delhi,"C-64/5 Okhla Phase 2, Harkesh Nagar, New Delhi - 110020, Dist.Delhi, Delhi",8048974694,
"Plastic Baby Water Bottle, Capacity: 250 mL",https://www.indiamart.com/proddetail/baby-water-bottle-2852515272933.html?pos=52&kwd=baby bottle sterilizer&tags=||||8211.142|Price|product|||TS|rsf:gd-|-stype:attr=1|qr_nm:gd|res:RC4|com-cf:nl|ptrs:na|ktp:N0|mc:192756|mtp:S|qry_typ:P|lang:en|wc:3|cs:8895|v=4,P For Panda Baby Products Private Limited,https://www.p4pandababyproducts.com/?pos=52&kwd=baby bottle sterilizer&tags=||||8211.142|Price|product|||TS|rsf:gd-|-stype:attr=1|qr_nm:gd|res:RC4|com-cf:nl|ptrs:na|ktp:N0|mc:192756|mtp:S|qry_typ:P|lang:en|wc:3|cs:8895|v=4,False,Goregaon West,Mumbai,"904 A Wing,9 Th Floor,Triple S Heights,Jakeria Road, Goregaon West, Mumbai - 400064, Dist.Mumbai, Maharashtra",7942710871,
Baby Feeding Bottle Cover,https://www.indiamart.com/proddetail/baby-feeding-bottle-cover-2586362788.html?pos=53&kwd=baby bottle sterilizer&tags=||||8752.144|Price|product|||TS|rsf:gd-|-stype:attr=1|qr_nm:gd|res:RC4|com-cf:nl|ptrs:na|ktp:N0|mc:192756|mtp:S|qry_typ:P|lang:en|wc:3|cs:8895|v=4,Dolphin Baby Product,https://www.dolphinbabyproducts.com/?pos=53&kwd=baby bottle sterilizer&tags=||||8752.144|Price|product|||TS|rsf:gd-|-stype:attr=1|qr_nm:gd|res:RC4|com-cf:nl|ptrs:na|ktp:N0|mc:192756|mtp:S|qry_typ:P|lang:en|wc:3|cs:8895|v=4,False,Inderlok,New Delhi,"No. 488, 1st Floor, Shahzada Bagh, Industrial Area Phase 1, Inderlok, New Delhi - 110035, Dist.Delhi, Delhi",8048965296,
"Baby Milk Bottle Cover, Capacity: 120ml",https://www.indiamart.com/proddetail/baby-milk-bottle-cover-2850398115897.html?pos=54&kwd=baby bottle sterilizer&tags=||||8778.123|Price|product|||TS|rsf:gd-|-stype:attr=1|qr_nm:gd|res:RC4|com-cf:nl|ptrs:na|ktp:N0|mc:192756|mtp:S|qry_typ:P|lang:en|wc:3|cs:8895|v=4,Radiant Enterprises,https://www.indiamart.com/radiant-enterprisesgautam-budhnagar/?pos=54&kwd=baby bottle sterilizer&tags=||||8778.123|Price|product|||TS|rsf:gd-|-stype:attr=1|qr_nm:gd|res:RC4|com-cf:nl|ptrs:na|ktp:N0|mc:192756|mtp:S|qry_typ:P|lang:en|wc:3|cs:8895|v=4,False,,Noida,"Tower-3,Flat-2601,Lotus 300,Noida,Gautam Buddha Nagar, Noida - 201304, Dist.Gautam Budh Nagar, Uttar Pradesh",7942828511,
Colored Stainless Steel Baby Feeding Bottle,https://www.indiamart.com/proddetail/colored-stainless-steel-baby-feeding-bottle-21290467012.html?pos=55&kwd=baby bottle sterilizer&tags=||||8954.051|Price|product|||TS|rsf:gd-|-stype:attr=1|qr_nm:gd|res:RC4|com-cf:nl|ptrs:na|ktp:N0|mc:192756|mtp:S|qry_typ:P|lang:en|wc:3|cs:8895|v=4,Sundar Garments,https://www.sundargarment.com/?pos=55&kwd=baby bottle sterilizer&tags=||||8954.051|Price|product|||TS|rsf:gd-|-stype:attr=1|qr_nm:gd|res:RC4|com-cf:nl|ptrs:na|ktp:N0|mc:192756|mtp:S|qry_typ:P|lang:en|wc:3|cs:8895|v=4,False,Kondithop,Chennai,"No-9 Murugesan Street Near Kondithope Park, Kondithop, Chennai - 600079, Dist.Chennai, Tamil Nadu",8048266539,
Baby Bottle Cotton Cover,https://www.indiamart.com/proddetail/baby-bottle-cotton-cover-2852538329712.html?pos=56&kwd=baby bottle sterilizer&tags=||||8823.154|Price|product|||TS|rsf:gd-|-stype:attr=1|qr_nm:gd|res:RC4|com-cf:nl|ptrs:na|ktp:N0|mc:192756|mtp:S|qry_typ:P|lang:en|wc:3|cs:8895|v=4,Shri Anant International,https://www.indiamart.com/shrianantinternational/?pos=56&kwd=baby bottle sterilizer&tags=||||8823.154|Price|product|||TS|rsf:gd-|-stype:attr=1|qr_nm:gd|res:RC4|com-cf:nl|ptrs:na|ktp:N0|mc:192756|mtp:S|qry_typ:P|lang:en|wc:3|cs:8895|v=4,False,DayalBagh,Agra,"No.02,House 2,Alkapuri Phase Ii,Agra, DayalBagh, Agra - 282005, Dist.Agra, Uttar Pradesh",7942721451,
"Metal Baby Stainless Steel Feeding Bottle, Capacity: 250 mL",https://www.indiamart.com/proddetail/baby-stainless-steel-feeding-bottle-2853459049491.html?pos=57&kwd=baby bottle sterilizer&tags=||||8752.144|Price|product|||TS|rsf:gd-|-stype:attr=1|qr_nm:gd|res:RC4|com-cf:nl|ptrs:na|ktp:N0|mc:192756|mtp:S|qry_typ:P|lang:en|wc:3|cs:8895|v=4,Ishvan Impex Private Limited,https://www.ishvanimpex.com/?pos=57&kwd=baby bottle sterilizer&tags=||||8752.144|Price|product|||TS|rsf:gd-|-stype:attr=1|qr_nm:gd|res:RC4|com-cf:nl|ptrs:na|ktp:N0|mc:192756|mtp:S|qry_typ:P|lang:en|wc:3|cs:8895|v=4,False,Chandni Chowk,New Delhi,"Ground Floor, Shop No. 1, Bagh Diwar, Fatehpuri, Chandni Chowk, Central Delhi, Chandni Chowk, New Delhi - 110006, Dist.Delhi, Delhi",8048974995,
"Metal STAINLESS STEEL BABY FEEDING BOTTLE, Capacity: 250 mL",https://www.indiamart.com/proddetail/stainless-steel-baby-feeding-bottle-22036586230.html?pos=58&kwd=baby bottle sterilizer&tags=||||8223.226|Price|product|||TS|rsf:gd-|-stype:attr=1|qr_nm:gd|res:RC4|com-cf:nl|ptrs:na|ktp:N0|mc:192756|mtp:S|qry_typ:P|lang:en|wc:3|cs:8895|v=4,Speedy Household Industry,https://www.indiamart.com/speedy-household-industry/?pos=58&kwd=baby bottle sterilizer&tags=||||8223.226|Price|product|||TS|rsf:gd-|-stype:attr=1|qr_nm:gd|res:RC4|com-cf:nl|ptrs:na|ktp:N0|mc:192756|mtp:S|qry_typ:P|lang:en|wc:3|cs:8895|v=4,False,Bhayandar East,Thane,"0/6, Vikas Udyog Nagar, Behind Goddev Fathak Road, Bhayandar East, Bhayandar East, Thane - 401105, Dist.Thane, Maharashtra",8048962061,
"Green Plastic Baby Bottle, Capacity: 100 mL, Age Group: Newly Born",https://www.indiamart.com/proddetail/plastic-baby-bottle-22001007833.html?pos=59&kwd=baby bottle sterilizer&tags=||||8752.144|Price|product|||TS|rsf:gd-|-stype:attr=1|qr_nm:gd|res:RC4|com-cf:nl|ptrs:na|ktp:N0|mc:192756|mtp:S|qry_typ:P|lang:en|wc:3|cs:8895|v=4,Dua Traders,https://www.indiamart.com/duatraders-delhi/?pos=59&kwd=baby bottle sterilizer&tags=||||8752.144|Price|product|||TS|rsf:gd-|-stype:attr=1|qr_nm:gd|res:RC4|com-cf:nl|ptrs:na|ktp:N0|mc:192756|mtp:S|qry_typ:P|lang:en|wc:3|cs:8895|v=4,False,Mandoli,New Delhi,"Plot No. 8, Kh No. 4/24, Mela Ram Vatika, E-block, JR Complex No. 4, Mandoli, Sevadham, Mandoli, New Delhi - 110093, Dist.Delhi, Delhi",8048971741,
"Plastic Baby Wide Neck Bottle, Age Group: 3-12 Months",https://www.indiamart.com/proddetail/plastic-baby-wide-neck-bottle-23634188891.html?pos=60&kwd=baby bottle sterilizer&tags=||||8741.812|Price|product|||MDC|rsf:gd-|-stype:attr=1|qr_nm:gd|res:RC4|com-cf:nl|ptrs:na|ktp:N0|mc:192756|mtp:S|qry_typ:P|lang:en|wc:3|cs:8895|v=4,Royal Baby Products (India),https://www.indiamart.com/royal-baby-products/?pos=60&kwd=baby bottle sterilizer&tags=||||8741.812|Price|product|||MDC|rsf:gd-|-stype:attr=1|qr_nm:gd|res:RC4|com-cf:nl|ptrs:na|ktp:N0|mc:192756|mtp:S|qry_typ:P|lang:en|wc:3|cs:8895|v=4,False,Sarhaul,Gurugram,"Ground Floor, M-2/22, Dlf City Phase II, Dlf City Phase II, Sarhaul, Gurugram - 122008, Dist.Gurgaon, Haryana",8048613476,
"200ml Pink Plastic Baby Feeding Bottle, Age Group: Newly Born",https://www.indiamart.com/proddetail/200ml-pink-plastic-baby-feeding-bottle-2851085369612.html?pos=61&kwd=baby bottle sterilizer&tags=||||8788.382|Price|product|||MDC|rsf:gd-|-stype:attr=1|qr_nm:gd|res:RC4|com-cf:nl|ptrs:na|ktp:N0|mc:192756|mtp:S|qry_typ:P|lang:en|wc:3|cs:8895|v=4,Loop Techno Systems Private Limited,https://www.indiamart.com/loop-technosystems/?pos=61&kwd=baby bottle sterilizer&tags=||||8788.382|Price|product|||MDC|rsf:gd-|-stype:attr=1|qr_nm:gd|res:RC4|com-cf:nl|ptrs:na|ktp:N0|mc:192756|mtp:S|qry_typ:P|lang:en|wc:3|cs:8895|v=4,False,Surajpur Site V,Greater Noida,"Plot No. J-023, Site 5, Kasna Ind, Area,Gautam Buddha Nagar, Surajpur Site V, Greater Noida - 201308, Dist.Gautam Budh Nagar, Uttar Pradesh",7942830535,
"Transparent Glass Baby Feeding Bottle with silicone cover, Capacity: 150 mL",https://www.indiamart.com/proddetail/glass-baby-feeding-bottle-with-silicone-cover-2855096770155.html?pos=62&kwd=baby bottle sterilizer&tags=||||8545.6045|Price|product|||MDC|rsf:gd-|-stype:attr=1|qr_nm:gd|res:RC4|com-cf:nl|ptrs:na|ktp:N0|mc:192756|mtp:S|qry_typ:P|lang:en|wc:3|cs:8895|v=4,Shraddha Saburi,https://www.indiamart.com/shraddhasaburi/?pos=62&kwd=baby bottle sterilizer&tags=||||8545.6045|Price|product|||MDC|rsf:gd-|-stype:attr=1|qr_nm:gd|res:RC4|com-cf:nl|ptrs:na|ktp:N0|mc:192756|mtp:S|qry_typ:P|lang:en|wc:3|cs:8895|v=4,False,Cantonment Area,Firozpur,"263, Suji Bazar, M/s Shraddha Saburi, Ferozepur Cantt, Cantonment Area, Firozpur - 152001, Dist.Firozpur, Punjab",8048979628,
"Metal Silver Speedex feeding bottle, Capacity: 250 mL, Baby",https://www.indiamart.com/proddetail/speedex-feeding-bottle-2854766686233.html?pos=63&kwd=baby bottle sterilizer&tags=||||8921.206|Price|product|||MDC|rsf:gd-|-stype:attr=1|qr_nm:gd|res:RC4|com-cf:nl|ptrs:na|ktp:N0|mc:192756|mtp:S|qry_typ:P|lang:en|wc:3|cs:8895|v=4,Malar Metalware Products,https://www.indiamart.com/malarmetalware-products/?pos=63&kwd=baby bottle sterilizer&tags=||||8921.206|Price|product|||MDC|rsf:gd-|-stype:attr=1|qr_nm:gd|res:RC4|com-cf:nl|ptrs:na|ktp:N0|mc:192756|mtp:S|qry_typ:P|lang:en|wc:3|cs:8895|v=4,False,,Chengalpattu,"133a, Sembakkam, Indira Nagar,, Sembakkam Village, Chengalpattu - 603108, Dist.Kanchipuram, Tamil Nadu",8044460341,
"Printed Glass Baby Feeding Bottle, 3-12 Months",https://www.indiamart.com/proddetail/printed-glass-baby-feeding-bottle-23215958162.html?pos=64&kwd=baby bottle sterilizer&tags=||||8545.6045|Price|product|||MDC|rsf:gd-|-stype:attr=1|qr_nm:gd|res:RC4|com-cf:nl|ptrs:na|ktp:N0|mc:192756|mtp:S|qry_typ:P|lang:en|wc:3|cs:8895|v=4,Shri Siddhivinayak Traders,https://www.indiamart.com/shrisiddhivinayaktraders-firozpur/?pos=64&kwd=baby bottle sterilizer&tags=||||8545.6045|Price|product|||MDC|rsf:gd-|-stype:attr=1|qr_nm:gd|res:RC4|com-cf:nl|ptrs:na|ktp:N0|mc:192756|mtp:S|qry_typ:P|lang:en|wc:3|cs:8895|v=4,False,Basti Nizamdin,Firozpur,"No.94, Anand Avenue, Backside Marked Office, Malwal Road, Firozpur City, Basti Nizamdin, Firozpur - 152002, Dist.Firozpur, Punjab",8046066644,
"Newly Born Silver SS Baby Feeding Bottle 120 Ml, Packaging Type: Box",https://www.indiamart.com/proddetail/ss-baby-feeding-bottle-120-ml-19094667662.html?pos=65&kwd=baby bottle sterilizer&tags=||||8954.051|Price|product|||MDC|rsf:gd-|-stype:attr=1|qr_nm:gd|res:RC4|com-cf:nl|ptrs:na|ktp:N0|mc:192756|mtp:S|qry_typ:P|lang:en|wc:3|cs:8895|v=4,Bhairavi Metal Works,https://www.indiamart.com/bhairavimetalworks/?pos=65&kwd=baby bottle sterilizer&tags=||||8954.051|Price|product|||MDC|rsf:gd-|-stype:attr=1|qr_nm:gd|res:RC4|com-cf:nl|ptrs:na|ktp:N0|mc:192756|mtp:S|qry_typ:P|lang:en|wc:3|cs:8895|v=4,False,Thiruporur,Chennai,"No. 24, Sandror Street,, Thiruporur, Chennai - 603110, Dist.Chennai, Tamil Nadu",8046052032,
Deluxe Baby Feeding Bottle 125ml,https://www.indiamart.com/proddetail/deluxe-baby-feeding-bottle-125ml-12769202412.html?pos=66&kwd=baby bottle sterilizer&tags=||||8223.226|Price|product|||MDC|rsf:gd-|-stype:attr=1|qr_nm:gd|res:RC4|com-cf:nl|ptrs:na|ktp:N0|mc:192756|mtp:S|qry_typ:P|lang:en|wc:3|cs:8895|v=4,Wecare Solutions,https://www.indiamart.com/wecare-solutions/?pos=66&kwd=baby bottle sterilizer&tags=||||8223.226|Price|product|||MDC|rsf:gd-|-stype:attr=1|qr_nm:gd|res:RC4|com-cf:nl|ptrs:na|ktp:N0|mc:192756|mtp:S|qry_typ:P|lang:en|wc:3|cs:8895|v=4,False,Valiv,Thane,"Gala No. F-19-20, 1st Floor, Rajprabha Anand Industrial Estate Naikpada, Waliv, Valiv, Thane - 401208, Dist.Thane, Maharashtra",8047631791,
"URBAN CUBE Transparent Glass Baby Feeding Bottle, 3-12 Months",https://www.indiamart.com/proddetail/glass-baby-feeding-bottle-26438729997.html?pos=67&kwd=baby bottle sterilizer&tags=||||8752.144|Price|product|||TS|rsf:gd-|-stype:attr=1|qr_nm:gd|res:RC4|com-cf:nl|ptrs:na|ktp:N0|mc:192756|mtp:S|qry_typ:P|lang:en|wc:3|cs:8895|v=4,Urbancube,https://www.indiamart.com/urbancube/?pos=67&kwd=baby bottle sterilizer&tags=||||8752.144|Price|product|||TS|rsf:gd-|-stype:attr=1|qr_nm:gd|res:RC4|com-cf:nl|ptrs:na|ktp:N0|mc:192756|mtp:S|qry_typ:P|lang:en|wc:3|cs:8895|v=4,False,Kamla Nagar,New Delhi,"Ground Floor, 14 UA, Jawahar Nagar, Kamla Nagar, New Delhi - 110007, Dist.Delhi, Delhi",8048980014,
"Plastic Baby Feeding Bottle 350 Ml, Age Group: 1-2 Years",https://www.indiamart.com/proddetail/baby-feeding-bottle-350-ml-2854786037188.html?pos=68&kwd=baby bottle sterilizer&tags=||||8038.093|Price|product|||TS|rsf:gd-|-stype:attr=1|qr_nm:gd|res:RC4|com-cf:nl|ptrs:na|ktp:N0|mc:192756|mtp:S|qry_typ:P|lang:en|wc:3|cs:8895|v=4,Kite Enterprise,https://www.indiamart.com/kiteenterprise/?pos=68&kwd=baby bottle sterilizer&tags=||||8038.093|Price|product|||TS|rsf:gd-|-stype:attr=1|qr_nm:gd|res:RC4|com-cf:nl|ptrs:na|ktp:N0|mc:192756|mtp:S|qry_typ:P|lang:en|wc:3|cs:8895|v=4,False,Geeta Nagar,Rajkot,"10/11, Laxmiwadi Nr. Anil Aquarium, Geeta Nagar, Rajkot - 360002, Dist.Rajkot, Gujarat",8047630757,
"750ml Gloory Borosilicate Glass Water Bottle, For Home",https://www.indiamart.com/proddetail/750ml-gloory-borosilicate-glass-water-bottle-2849817200255.html?pos=69&kwd=baby bottle sterilizer&tags=||||8741.987|Price|product|||TS|rsf:gd-|-stype:attr=1|qr_nm:gd|res:RC4|com-cf:nl|ptrs:na|ktp:N0|mc:192756|mtp:S|qry_typ:P|lang:en|wc:3|cs:8895|v=4,Excel Industries,https://www.borosilicateglassindia.com/?pos=69&kwd=baby bottle sterilizer&tags=||||8741.987|Price|product|||TS|rsf:gd-|-stype:attr=1|qr_nm:gd|res:RC4|com-cf:nl|ptrs:na|ktp:N0|mc:192756|mtp:S|qry_typ:P|lang:en|wc:3|cs:8895|v=4,False,Gandhi Nagar,Ambala,"2/14/4, Punjabi Bagh, Near Drum Factory, Gandhi Nagar, Ambala - 133001, Dist.Ambala, Haryana",7942797708,
"Transparent Glass Baby Feeding Bottle, Capacity: 200 mL, 3-12 Months",https://www.indiamart.com/proddetail/glass-baby-feeding-bottle-2852522969088.html?pos=70&kwd=baby bottle sterilizer&tags=||||8785.791|Price|product|||TS|rsf:gd-|-stype:attr=1|qr_nm:gd|res:RC4|com-cf:nl|ptrs:na|ktp:N0|mc:192756|mtp:S|qry_typ:P|lang:en|wc:3|cs:8895|v=4,Paras Enterprises,https://www.claoberry.com/?pos=70&kwd=baby bottle sterilizer&tags=||||8785.791|Price|product|||TS|rsf:gd-|-stype:attr=1|qr_nm:gd|res:RC4|com-cf:nl|ptrs:na|ktp:N0|mc:192756|mtp:S|qry_typ:P|lang:en|wc:3|cs:8895|v=4,False,Raj Nagar Extension,Ghaziabad,"KH.NO.-2565,VILLAGE KARHERA,MOHAN NAGAR,Ghaziabad, Raj Nagar Extension, Ghaziabad - 201007, Dist.Ghaziabad, Uttar Pradesh",8043862487,
"Milestone Silver Kiddy Steel Feeding Bottle, Design/Pattern: Plain",https://www.indiamart.com/proddetail/kiddy-steel-feeding-bottle-22292800991.html?pos=71&kwd=baby bottle sterilizer&tags=||||8211.142|Price|product|||TS|rsf:gd-|-stype:attr=1|qr_nm:gd|res:RC4|com-cf:nl|ptrs:na|ktp:N0|mc:192756|mtp:S|qry_typ:P|lang:en|wc:3|cs:8895|v=4,Mahavir Industries,https://www.mahavirmilestone.in/?pos=71&kwd=baby bottle sterilizer&tags=||||8211.142|Price|product|||TS|rsf:gd-|-stype:attr=1|qr_nm:gd|res:RC4|com-cf:nl|ptrs:na|ktp:N0|mc:192756|mtp:S|qry_typ:P|lang:en|wc:3|cs:8895|v=4,True,Vasai East,Mumbai,"29, NJ Industrial Estate, Chinchpada, Waliv Road, Vasai East, Mumbai - 401208, Dist.Mumbai, Maharashtra",8048962615,
"Matt Metal SS VACUUM FEEDING BABY BOTTLE 240ML, Capacity: 250 mL, 3-12 Months",https://www.indiamart.com/proddetail/ss-vacuum-feeding-baby-bottle-240ml-2853333034448.html?pos=72&kwd=baby bottle sterilizer&tags=||||8747.223|Price|product|||TS|rsf:gd-|-stype:attr=1|qr_nm:gd|res:RC4|com-cf:nl|ptrs:na|ktp:N0|mc:192756|mtp:S|qry_typ:P|lang:en|wc:3|cs:8895|v=4,Dewdrop Bottles Pvt. Ltd.,https://www.dewdropbottles.com/?pos=72&kwd=baby bottle sterilizer&tags=||||8747.223|Price|product|||TS|rsf:gd-|-stype:attr=1|qr_nm:gd|res:RC4|com-cf:nl|ptrs:na|ktp:N0|mc:192756|mtp:S|qry_typ:P|lang:en|wc:3|cs:8895|v=4,False,Sector 42,Sonipat,"Rect. And Killa No. 102//14/1/1, Revenue Estate, Akbarpur Barota, Sector 42, Sonipat - 131103, Dist.Sonipat, Haryana",7942840290,
Stainless Steel Bottle 240ml,https://www.indiamart.com/proddetail/stainless-steel-bottle-240ml-2849508907148.html?pos=73&kwd=baby bottle sterilizer&tags=||||8752.144|Price|product|||TS|rsf:gd-|-stype:attr=1|qr_nm:gd|res:RC4|com-cf:nl|ptrs:na|ktp:N0|mc:192756|mtp:S|qry_typ:P|lang:en|wc:3|cs:8895|v=4,R B Enterprises,https://www.indiamart.com/rbenterpriseskondalinewdelhi/?pos=73&kwd=baby bottle sterilizer&tags=||||8752.144|Price|product|||TS|rsf:gd-|-stype:attr=1|qr_nm:gd|res:RC4|com-cf:nl|ptrs:na|ktp:N0|mc:192756|mtp:S|qry_typ:P|lang:en|wc:3|cs:8895|v=4,False,Gharoli,New Delhi,"Ground, 58 F/F/R/S Brahman Basti, Kondli Main Road, Kondli Gharoli,, Gharoli, New Delhi - 110094, Dist.Delhi, Delhi",7942535965,
"AAditya White Baby Silicone Nipple, Packaging Type: Box, 1-2 Years",https://www.indiamart.com/proddetail/baby-silicone-nipple-22513633397.html?pos=74&kwd=baby bottle sterilizer&tags=||||8210.732|Price|product|||TS|rsf:gd-|-stype:attr=1|qr_nm:gd|res:RC4|com-cf:nl|ptrs:na|ktp:N0|mc:192756|mtp:S|qry_typ:P|lang:en|wc:3|cs:8895|v=4,Aditya Polymers,https://www.aadityapolymers.com/?pos=74&kwd=baby bottle sterilizer&tags=||||8210.732|Price|product|||TS|rsf:gd-|-stype:attr=1|qr_nm:gd|res:RC4|com-cf:nl|ptrs:na|ktp:N0|mc:192756|mtp:S|qry_typ:P|lang:en|wc:3|cs:8895|v=4,False,Gokhiware,Vasai,"106, A V Udhyog No. 3, Near Rajprabha Near Golani, Gokhiware, Vasai - 401208, Dist.Thane, Maharashtra",8048987383,
Baby Natural Fruit & Food Feeder(DROPSHIPPING AVAILABLE),https://www.indiamart.com/proddetail/baby-natural-fruit-food-feeder-dropshipping-available-25279631862.html?pos=75&kwd=baby bottle sterilizer&tags=||||8230.883|Price|product|||TS|rsf:gd-|-stype:attr=1|qr_nm:gd|res:RC4|com-cf:nl|ptrs:na|ktp:N0|mc:192756|mtp:S|qry_typ:P|lang:en|wc:3|cs:8895|v=4,Rozzby,https://www.cheaperzonetoys.com/?pos=75&kwd=baby bottle sterilizer&tags=||||8230.883|Price|product|||TS|rsf:gd-|-stype:attr=1|qr_nm:gd|res:RC4|com-cf:nl|ptrs:na|ktp:N0|mc:192756|mtp:S|qry_typ:P|lang:en|wc:3|cs:8895|v=4,False,Kosam,Surat,"1st Floor D-2,103 Vip Circle Shlok Recidency Utran, Kosam, Surat - 394105, Dist.Surat, Gujarat",8047622002,
Velvet Baby Bottle Cover,https://www.indiamart.com/proddetail/velvet-baby-bottle-cover-2852393836597.html?pos=76&kwd=baby bottle sterilizer&tags=||||8752.144|Price|product|||TS|rsf:gd-|-stype:attr=1|qr_nm:gd|res:RC4|com-cf:nl|ptrs:na|ktp:N0|mc:192756|mtp:S|qry_typ:P|lang:en|wc:3|cs:8895|v=4,Ekta Overseas,https://www.indiamart.com/ektaoverseas-newdelhi/?pos=76&kwd=baby bottle sterilizer&tags=||||8752.144|Price|product|||TS|rsf:gd-|-stype:attr=1|qr_nm:gd|res:RC4|com-cf:nl|ptrs:na|ktp:N0|mc:192756|mtp:S|qry_typ:P|lang:en|wc:3|cs:8895|v=4,False,Shahdara,New Delhi,"1/95, Gali No.3, Near Navjeevan Phisical Center, Vishwas Nagar, Shahdara,, Shahdara, New Delhi - 110032, Dist.Delhi, Delhi",7942628926,
"180ml Printed Stainless Steel Feeding Bottle, New Born Baby",https://www.indiamart.com/proddetail/180ml-printed-stainless-steel-feeding-bottle-2849084146333.html?pos=77&kwd=baby bottle sterilizer&tags=||||8592.634|Price|product|||MDC|rsf:gd-|-stype:attr=1|qr_nm:gd|res:RC4|com-cf:nl|ptrs:na|ktp:N0|mc:192756|mtp:S|qry_typ:P|lang:en|wc:3|cs:8895|v=4,Steel Hawk Traders,https://www.indiamart.com/steel-hawk-traders/?pos=77&kwd=baby bottle sterilizer&tags=||||8592.634|Price|product|||MDC|rsf:gd-|-stype:attr=1|qr_nm:gd|res:RC4|com-cf:nl|ptrs:na|ktp:N0|mc:192756|mtp:S|qry_typ:P|lang:en|wc:3|cs:8895|v=4,False,,Chettipalayam,"SF.No.301,302/1, Thillaiamman Valarmathi Nagar, Kuylai Pirivu,, Chettipalayam - 641201, Tamil Nadu",7949324072,
"Silver Baby Feeding Bottle, Capacity: 250 ml, Age Group: 1-2 Years",https://www.indiamart.com/proddetail/silver-baby-feeding-bottle-2853932627155.html?pos=78&kwd=baby bottle sterilizer&tags=||||8954.051|Price|product|||MDC|rsf:gd-|-stype:attr=1|qr_nm:gd|res:RC4|com-cf:nl|ptrs:na|ktp:N0|mc:192756|mtp:S|qry_typ:P|lang:en|wc:3|cs:8895|v=4,For Lil Ones LLP,https://www.indiamart.com/for-lilones/?pos=78&kwd=baby bottle sterilizer&tags=||||8954.051|Price|product|||MDC|rsf:gd-|-stype:attr=1|qr_nm:gd|res:RC4|com-cf:nl|ptrs:na|ktp:N0|mc:192756|mtp:S|qry_typ:P|lang:en|wc:3|cs:8895|v=4,False,Perungalattur,Chennai,"30/4, Rajaji Street, Srinivasa Nagar, Perungalattur, Chengalpattu, Perungalattur, Chennai - 600063, Dist.Chennai, Tamil Nadu",8044012811,
Baby Bottle Cover,https://www.indiamart.com/proddetail/baby-bottle-cover-2853107459255.html?pos=79&kwd=baby bottle sterilizer&tags=||||8706.508|Price|product|||MDC|rsf:gd-|-stype:attr=1|qr_nm:gd|res:RC4|com-cf:nl|ptrs:na|ktp:N0|mc:192756|mtp:S|qry_typ:P|lang:en|wc:3|cs:8895|v=4,Young Vision,https://www.indiamart.com/young-vision-rohtak/?pos=79&kwd=baby bottle sterilizer&tags=||||8706.508|Price|product|||MDC|rsf:gd-|-stype:attr=1|qr_nm:gd|res:RC4|com-cf:nl|ptrs:na|ktp:N0|mc:192756|mtp:S|qry_typ:P|lang:en|wc:3|cs:8895|v=4,False,Janta Colony,Rohtak,"949/31 Azad Nagar, Janta Colony, Rohtak - 124001, Dist.Rohtak, Haryana",8047688329,
304 Stainless Steel Baby Feeding Bottle For Baby 304 Grade 150 Ml Plain,https://www.indiamart.com/proddetail/304-stainless-steel-baby-feeding-bottle-for-baby-304-grade-150-ml-plain-22962350333.html?pos=80&kwd=baby bottle sterilizer&tags=||||8206.45|Price|product|||TS|rsf:gd-|-stype:attr=1|qr_nm:gd|res:RC4|com-cf:nl|ptrs:na|ktp:N0|mc:192756|mtp:S|qry_typ:P|lang:en|wc:3|cs:8895|v=4,Nelcon Industries India Private Limited,https://www.steelbottles.in/?pos=80&kwd=baby bottle sterilizer&tags=||||8206.45|Price|product|||TS|rsf:gd-|-stype:attr=1|qr_nm:gd|res:RC4|com-cf:nl|ptrs:na|ktp:N0|mc:192756|mtp:S|qry_typ:P|lang:en|wc:3|cs:8895|v=4,False,Tembhode,Palghar,"Survey No. 43/5/6, Plot No. D, Old Satpati Road Allayali, Post Tembhode Hitech Industrial Estate, Tembhode, Palghar - 401404, Dist.Thane, Maharashtra",7942539784,
PP Plastic Plant Tissue Culture Bottle Caps 63 MM,https://www.indiamart.com/proddetail/plastic-plant-tissue-culture-bottle-caps-63-mm-2854364084288.html?pos=81&kwd=baby bottle sterilizer&tags=||||8307.81|Price|product|||TS|rsf:gd-|-stype:attr=1|qr_nm:gd|res:RC4|com-cf:nl|ptrs:na|ktp:N0|mc:192756|mtp:S|qry_typ:P|lang:en|wc:3|cs:8895|v=4,Microtech Polymers,https://www.microtechpolymers.co.in/?pos=81&kwd=baby bottle sterilizer&tags=||||8307.81|Price|product|||TS|rsf:gd-|-stype:attr=1|qr_nm:gd|res:RC4|com-cf:nl|ptrs:na|ktp:N0|mc:192756|mtp:S|qry_typ:P|lang:en|wc:3|cs:8895|v=4,False,Kadamwak Wasti Haveli,Pune,"4/0367,Gat No 311,Behind Sunrise Shoping Center,Loni Kalbor Station, Pune-Solapur Road,Kadamwak Wasti, Haveli, Kadamwak Wasti Haveli, Pune - 412201, Dist.Pune, Maharashtra",7942969682,
Glass Baby Feeding Bottle,,R.B Handicrafts,https://www.indiamart.com/rbhandicrafts/?pos=82&kwd=baby bottle sterilizer&tags=||||8915.672|Price|product|||MDC|rsf:gd-|-stype:attr=1|qr_nm:gd|res:RC4|com-cf:nl|ptrs:na|ktp:N0|mc:192756|mtp:S|qry_typ:P|lang:en|wc:3|cs:8895|v=4,False,Bartan Bazaar,Moradabad,"0, Thatera Street Mazar Wali Gali, Bartan Bazaar, Moradabad - 244001, Dist.Moradabad, Uttar Pradesh",8043829840,
Blue 6Pcs Silicone Suction Plates Kids,https://www.indiamart.com/proddetail/6pcs-silicone-suction-plates-kids-26633839173.html?pos=83&kwd=baby bottle sterilizer&tags=||||8769.508|Price|product|||MDC|rsf:gd-|-stype:attr=1|qr_nm:gd|res:RC4|com-cf:nl|ptrs:na|ktp:N0|mc:192756|mtp:S|qry_typ:P|lang:en|wc:3|cs:8895|v=4,Anand Enterprises,https://www.indiamart.com/anand-enterprisesfaridabad/?pos=83&kwd=baby bottle sterilizer&tags=||||8769.508|Price|product|||MDC|rsf:gd-|-stype:attr=1|qr_nm:gd|res:RC4|com-cf:nl|ptrs:na|ktp:N0|mc:192756|mtp:S|qry_typ:P|lang:en|wc:3|cs:8895|v=4,False,Sect,Faridabad,"72 Kheri Road Kastori Faridabad, Sect, Faridabad - 121002, Dist.Faridabad, Haryana",7942703101,
"Plastic Pp Standard Neck Feeding Bottle, Capacity: 250 ml",https://www.indiamart.com/proddetail/pp-standard-neck-feeding-bottle-2854879890488.html?pos=84&kwd=baby bottle sterilizer&tags=||||8786.56||product|||MDC|rsf:gd-|-stype:attr=1|qr_nm:gd|res:RC4|com-cf:nl|ptrs:na|ktp:N0|mc:192756|mtp:S|qry_typ:P|lang:en|wc:3|cs:8895|v=4,Nabhodh Traders,https://www.indiamart.com/nabhodh-traders/?pos=84&kwd=baby bottle sterilizer&tags=||||8786.56||product|||MDC|rsf:gd-|-stype:attr=1|qr_nm:gd|res:RC4|com-cf:nl|ptrs:na|ktp:N0|mc:192756|mtp:S|qry_typ:P|lang:en|wc:3|cs:8895|v=4,False,,Hyderabad,"Plot No 60, Shilpa Avenue, Hyder Nagar Medchal Malkajgiri, Hyderabad - 500072, Dist.Hyderabad, Telangana",8044460917,
"Tender Flo Transparent Kosy Feeding Bottle, Packaging Type: Box, Size: 150ml And 250 mL",https://www.indiamart.com/proddetail/kosy-feeding-bottle-10699290473.html?pos=85&kwd=baby bottle sterilizer&tags=||||8778.123|Price|product|||TS|rsf:gd-|-stype:attr=1|qr_nm:gd|res:RC4|com-cf:nl|ptrs:na|ktp:N0|mc:192756|mtp:S|qry_typ:P|lang:en|wc:3|cs:8895|v=4,Bonny Products Private Limited,https://www.feedingbottles.com/?pos=85&kwd=baby bottle sterilizer&tags=||||8778.123|Price|product|||TS|rsf:gd-|-stype:attr=1|qr_nm:gd|res:RC4|com-cf:nl|ptrs:na|ktp:N0|mc:192756|mtp:S|qry_typ:P|lang:en|wc:3|cs:8895|v=4,False,Sector 63,Noida,"D240, Sector 63, Sector 63, Noida - 201307, Dist.Gautam Budh Nagar, Uttar Pradesh",8046040824,
Metal Stainless Steel Feeding Bottle For Baby 240ml,https://www.indiamart.com/proddetail/stainless-steel-feeding-bottle-for-baby-240ml-2848973893262.html?pos=86&kwd=baby bottle sterilizer&tags=||||8752.144|Price|product|||TS|rsf:gd-|-stype:attr=1|qr_nm:gd|res:RC4|com-cf:nl|ptrs:na|ktp:N0|mc:192756|mtp:S|qry_typ:P|lang:en|wc:3|cs:8895|v=4,Maharaja Cookers Private Limited,https://www.speedexind.co.in/?pos=86&kwd=baby bottle sterilizer&tags=||||8752.144|Price|product|||TS|rsf:gd-|-stype:attr=1|qr_nm:gd|res:RC4|com-cf:nl|ptrs:na|ktp:N0|mc:192756|mtp:S|qry_typ:P|lang:en|wc:3|cs:8895|v=4,False,Narela,New Delhi,"H-1311, DSIIDC Industrial Area, Narela, New Delhi - 110040, Dist.Delhi, Delhi",8048981827,
Baby milk bottle pacifier,https://www.indiamart.com/proddetail/baby-milk-bottle-pacifier-2854639589273.html?pos=87&kwd=baby bottle sterilizer&tags=||||8038.093|Price|product|||MDC|rsf:gd-|-stype:attr=1|qr_nm:gd|res:RC4|com-cf:nl|ptrs:na|ktp:N0|mc:192756|mtp:S|qry_typ:P|lang:en|wc:3|cs:8895|v=4,Creative Automation,https://www.indiamart.com/creativeautomationrajkot/?pos=87&kwd=baby bottle sterilizer&tags=||||8038.093|Price|product|||MDC|rsf:gd-|-stype:attr=1|qr_nm:gd|res:RC4|com-cf:nl|ptrs:na|ktp:N0|mc:192756|mtp:S|qry_typ:P|lang:en|wc:3|cs:8895|v=4,False,Rajkot,Rajkot,"Plot No.19, kailash Manu, Sidhdheshwar Griding, Atika ndustrial, Street No.3, Dhebar Road South Near Jaydev Foundry, Rajkot, Rajkot - 360002, Dist.Rajkot, Gujarat",7942570968,
"Baby Milk Bottle Cover, Capacity: 120ml",https://www.indiamart.com/proddetail/baby-milk-bottle-cover-2850398115897.html?pos=88&kwd=baby bottle sterilizer&tags=||||8778.123|Price|product|||TS|rsf:gd-|-stype:attr=1|qr_nm:gd|res:RC4|com-cf:nl|ptrs:na|ktp:N0|mc:192756|mtp:S|qry_typ:P|lang:en|wc:3|cs:8895|v=4,Radiant Enterprises,https://www.indiamart.com/radiant-enterprisesgautam-budhnagar/?pos=88&kwd=baby bottle sterilizer&tags=||||8778.123|Price|product|||TS|rsf:gd-|-stype:attr=1|qr_nm:gd|res:RC4|com-cf:nl|ptrs:na|ktp:N0|mc:192756|mtp:S|qry_typ:P|lang:en|wc:3|cs:8895|v=4,False,,Noida,"Tower-3,Flat-2601,Lotus 300,Noida,Gautam Buddha Nagar, Noida - 201304, Dist.Gautam Budh Nagar, Uttar Pradesh",7942828511,
Baby Silicone rattle feeder,https://www.indiamart.com/proddetail/baby-silicone-rattle-feeder-2854560953097.html?pos=89&kwd=baby bottle sterilizer&tags=||||8752.144|Price|product|||MDC|rsf:gd-|-stype:attr=1|qr_nm:gd|res:RC4|com-cf:nl|ptrs:na|ktp:N0|mc:192756|mtp:S|qry_typ:P|lang:en|wc:3|cs:8895|v=4,HS Enterprises,https://www.indiamart.com/hsenterprisesindia/?pos=89&kwd=baby bottle sterilizer&tags=||||8752.144|Price|product|||MDC|rsf:gd-|-stype:attr=1|qr_nm:gd|res:RC4|com-cf:nl|ptrs:na|ktp:N0|mc:192756|mtp:S|qry_typ:P|lang:en|wc:3|cs:8895|v=4,False,,New Delhi,"EE-496, Gali No. 10, North Delhi, New Delhi - 110042, Dist.Delhi, Delhi",7949329375,
"Sipfe Silver 500ml Stainless Steel Feeding Bottle, 5 Months",https://www.indiamart.com/proddetail/500ml-stainless-steel-feeding-bottle-24228687348.html?pos=90&kwd=baby bottle sterilizer&tags=||||8891.556|Price|product|||TS|rsf:gd-|-stype:attr=1|qr_nm:gd|res:RC4|com-cf:nl|ptrs:na|ktp:N0|mc:192756|mtp:S|qry_typ:P|lang:en|wc:3|cs:8895|v=4,Sipfe Industries,https://www.indiamart.com/sipfe-industries/?pos=90&kwd=baby bottle sterilizer&tags=||||8891.556|Price|product|||TS|rsf:gd-|-stype:attr=1|qr_nm:gd|res:RC4|com-cf:nl|ptrs:na|ktp:N0|mc:192756|mtp:S|qry_typ:P|lang:en|wc:3|cs:8895|v=4,False,Maraimalai Nagar,Kanchipuram,"Sf No.191/2c1, Plot No.41 Sengundram Road, Alamelumangapuram, Chengalpattu, Maraimalai Nagar, Kanchipuram - 603204, Dist.Kanchipuram, Tamil Nadu",7942562152,
Multicolor Baby Bottle Cover,https://www.indiamart.com/proddetail/baby-bottle-cover-20711904155.html?pos=91&kwd=baby bottle sterilizer&tags=||||8752.144|Price|product|||TS|rsf:gd-|-stype:attr=1|qr_nm:gd|res:RC4|com-cf:nl|ptrs:na|ktp:N0|mc:192756|mtp:S|qry_typ:P|lang:en|wc:3|cs:8895|v=4,National Overseas,https://www.indiamart.com/nationaltraders-vishwashnagar/?pos=91&kwd=baby bottle sterilizer&tags=||||8752.144|Price|product|||TS|rsf:gd-|-stype:attr=1|qr_nm:gd|res:RC4|com-cf:nl|ptrs:na|ktp:N0|mc:192756|mtp:S|qry_typ:P|lang:en|wc:3|cs:8895|v=4,False,Shahdara,New Delhi,"1/99, Gali No. 3, Vishwas Nagar, Shahdara, New Delhi - 110032, Dist.Delhi, Delhi",8046047673,
Baby Bottle Cover,https://www.indiamart.com/proddetail/baby-bottle-cover-2853867068897.html?pos=92&kwd=baby bottle sterilizer&tags=||||8752.144|Price|product|||MDC|rsf:gd-|-stype:attr=1|qr_nm:gd|res:RC4|com-cf:nl|ptrs:na|ktp:N0|mc:192756|mtp:S|qry_typ:P|lang:en|wc:3|cs:8895|v=4,Shopindia,https://www.indiamart.com/shopindia-delhi/?pos=92&kwd=baby bottle sterilizer&tags=||||8752.144|Price|product|||MDC|rsf:gd-|-stype:attr=1|qr_nm:gd|res:RC4|com-cf:nl|ptrs:na|ktp:N0|mc:192756|mtp:S|qry_typ:P|lang:en|wc:3|cs:8895|v=4,False,Khyala,New Delhi,"F/F, RZ-129 Old No.RZ-57, West Block, Vishnu Garden, Khyala, New Delhi - 110018, Dist.Delhi, Delhi",8047832403,
"GLOBAL Black,Blue & Red Straight Steel Bottle Coloed (750 ml), Sipper",https://www.indiamart.com/proddetail/straight-steel-bottle-coloed-750-ml-25835357673.html?pos=93&kwd=baby bottle sterilizer&tags=||||8752.144|Price|product|||TS|rsf:gd-|-stype:attr=1|qr_nm:gd|res:RC4|com-cf:nl|ptrs:na|ktp:N0|mc:192756|mtp:S|qry_typ:P|lang:en|wc:3|cs:8895|v=4,Global Productions,https://www.indiamart.com/global-productions-newdelhi/?pos=93&kwd=baby bottle sterilizer&tags=||||8752.144|Price|product|||TS|rsf:gd-|-stype:attr=1|qr_nm:gd|res:RC4|com-cf:nl|ptrs:na|ktp:N0|mc:192756|mtp:S|qry_typ:P|lang:en|wc:3|cs:8895|v=4,False,Motia Khan,New Delhi,"Ground Floor Shop No. 163 Janta Market, Motia Khan, New Delhi - 110055, Dist.Delhi, Delhi",8047302269,
Metal Baby Stainless Steel Feeding Bottle,https://www.indiamart.com/proddetail/baby-stainless-steel-feeding-bottle-2854887501612.html?pos=94&kwd=baby bottle sterilizer&tags=||||8206.306|Price|product|||MDC|rsf:gd-|-stype:attr=1|qr_nm:gd|res:RC4|com-cf:nl|ptrs:na|ktp:N0|mc:192756|mtp:S|qry_typ:P|lang:en|wc:3|cs:8895|v=4,Maya Industries,https://www.indiamart.com/maya-industries-maharashtra/?pos=94&kwd=baby bottle sterilizer&tags=||||8206.306|Price|product|||MDC|rsf:gd-|-stype:attr=1|qr_nm:gd|res:RC4|com-cf:nl|ptrs:na|ktp:N0|mc:192756|mtp:S|qry_typ:P|lang:en|wc:3|cs:8895|v=4,False,Bhayandar West,Bhayander West,"B-102, Pawan Kunj Apartment, 60 Feet Road, Nakoda Hospital, Mira Bhayandar, Thane, Bhayandar West, Bhayander West - 401101, Maharashtra",7949090316,
"Metal Baby Stainless Steel Milk Bottle, Capacity: 250 mL",https://www.indiamart.com/proddetail/baby-stainless-steel-milk-bottle-24273996833.html?pos=95&kwd=baby bottle sterilizer&tags=||||8752.144|Price|product|||MDC|rsf:gd-|-stype:attr=1|qr_nm:gd|res:RC4|com-cf:nl|ptrs:na|ktp:N0|mc:192756|mtp:S|qry_typ:P|lang:en|wc:3|cs:8895|v=4,Drishti E-Commerce,https://www.indiamart.com/drishti-e-commerce/?pos=95&kwd=baby bottle sterilizer&tags=||||8752.144|Price|product|||MDC|rsf:gd-|-stype:attr=1|qr_nm:gd|res:RC4|com-cf:nl|ptrs:na|ktp:N0|mc:192756|mtp:S|qry_typ:P|lang:en|wc:3|cs:8895|v=4,False,Jahangirpura,New Delhi,"B-29, Ground Floor, Kh No-238/2, Gali No-5/12, Gurunanak Dev Colony, Bhalswa, North Delhi, Jahangirpura, New Delhi - 110042, Dist.Delhi, Delhi",7949082368,
Baby Milk Bottle Cover,https://www.indiamart.com/proddetail/baby-milk-bottle-cover-2850164874730.html?pos=96&kwd=baby bottle sterilizer&tags=||||8752.144|Price|product|||MDC|rsf:gd-|-stype:attr=1|qr_nm:gd|res:RC4|com-cf:nl|ptrs:na|ktp:N0|mc:192756|mtp:S|qry_typ:P|lang:en|wc:3|cs:8895|v=4,Kidz Creation,https://www.indiamart.com/kidzcreation/?pos=96&kwd=baby bottle sterilizer&tags=||||8752.144|Price|product|||MDC|rsf:gd-|-stype:attr=1|qr_nm:gd|res:RC4|com-cf:nl|ptrs:na|ktp:N0|mc:192756|mtp:S|qry_typ:P|lang:en|wc:3|cs:8895|v=4,False,,New Delhi,"Shop No. 279/517,Sabharwal Market, Tolia Wali Gali Sadar Bazar, North Delhi,, New Delhi - 110006, Dist.Delhi, Delhi",8047679212,
"Silver Stainless Steel Baby Feeding Bottle, Capacity: 300 mL",https://www.indiamart.com/proddetail/stainless-steel-baby-feeding-bottle-2853302145748.html?pos=97&kwd=baby bottle sterilizer&tags=||||8210.732|Price|product|||TS|rsf:gd-|-stype:attr=1|qr_nm:gd|res:RC4|com-cf:nl|ptrs:na|ktp:N0|mc:192756|mtp:S|qry_typ:P|lang:en|wc:3|cs:8895|v=4,Arushi Enterprises,https://www.indiamart.com/arushi-enterprisesvasai-virar/?pos=97&kwd=baby bottle sterilizer&tags=||||8210.732|Price|product|||TS|rsf:gd-|-stype:attr=1|qr_nm:gd|res:RC4|com-cf:nl|ptrs:na|ktp:N0|mc:192756|mtp:S|qry_typ:P|lang:en|wc:3|cs:8895|v=4,False,Pelhar,Vasai,"Mira Industrial Estate, G.No F/6 S.No.74 H-2471 Nalasopara East, Pelhar, Palghar, Pelhar, Vasai - 401208, Dist.Thane, Maharashtra",7942825056,
Baby Sipper Bottle,https://www.indiamart.com/proddetail/baby-sipper-bottle-2854058546988.html?pos=98&kwd=baby bottle sterilizer&tags=||||8624.416|Price|product|||MDC|rsf:gd-|-stype:attr=1|qr_nm:gd|res:RC4|com-cf:nl|ptrs:na|ktp:N0|mc:192756|mtp:S|qry_typ:P|lang:en|wc:3|cs:8895|v=4,Dayawanti Traders,https://www.indiamart.com/dayawati-trader/?pos=98&kwd=baby bottle sterilizer&tags=||||8624.416|Price|product|||MDC|rsf:gd-|-stype:attr=1|qr_nm:gd|res:RC4|com-cf:nl|ptrs:na|ktp:N0|mc:192756|mtp:S|qry_typ:P|lang:en|wc:3|cs:8895|v=4,False,Indira Colony,Hisar,"Plot No. 137 Dhani Kishandutt, Near Asha High School, Nancy Beauty Parlour, Indira Colony, Indira Colony, Hisar - 125001, Dist.Hisar, Haryana",7942701403,
"Stainless Steel Feeding Bottle, Capacity: 300 mL",,A V Enterprises,https://www.indiamart.com/a-venterprises-delhi/?pos=99&kwd=baby bottle sterilizer&tags=||||8752.144|Price|product|||MDC|rsf:gd-|-stype:attr=1|qr_nm:gd|res:RC4|com-cf:nl|ptrs:na|ktp:N0|mc:192756|mtp:S|qry_typ:P|lang:en|wc:3|cs:8895|v=4,False,,New Delhi,"1st Floor, A-145/1, Wazirpur, Industrial Area, Wazirpur, New Delhi - 110052, Dist.Delhi, Delhi",8044460094,
White Metal Red Kitchen Chef Stainless steel Baby feeding bottle - 250 ml,https://www.indiamart.com/proddetail/red-kitchen-chef-stainless-steel-baby-feeding-bottle-250-ml-2854179718862.html?pos=100&kwd=baby bottle sterilizer&tags=||||8663.873|Price|product|||TS|rsf:gd-|-stype:attr=1|qr_nm:gd|res:RC4|com-cf:nl|ptrs:na|ktp:N0|mc:192756|mtp:S|qry_typ:P|lang:en|wc:3|cs:8895|v=4,Suranas,https://www.suranas.in/?pos=100&kwd=baby bottle sterilizer&tags=||||8663.873|Price|product|||TS|rsf:gd-|-stype:attr=1|qr_nm:gd|res:RC4|com-cf:nl|ptrs:na|ktp:N0|mc:192756|mtp:S|qry_typ:P|lang:en|wc:3|cs:8895|v=4,False,Basavanagudi,Bengaluru,"14/38, 1st model house street, Basavanagudi, Bengaluru - 560004, Dist.Bengaluru, Karnataka",8047547443,
"White PLASTIC BABY FEEDING BOTTLE 250 ML, Age Group: Newly Born",https://www.indiamart.com/proddetail/plastic-baby-feeding-bottle-250-ml-2849175138630.html?pos=101&kwd=baby bottle sterilizer&tags=||||8752.144|Price|product|||TS|rsf:gd-|-stype:attr=1|qr_nm:gd|res:RC4|com-cf:nl|ptrs:na|ktp:N0|mc:192756|mtp:S|qry_typ:P|lang:en|wc:3|cs:8895|v=4,Anand Garments Pvt Ltd,https://www.indiamart.com/anand-garments-newdelhi/?pos=101&kwd=baby bottle sterilizer&tags=||||8752.144|Price|product|||TS|rsf:gd-|-stype:attr=1|qr_nm:gd|res:RC4|com-cf:nl|ptrs:na|ktp:N0|mc:192756|mtp:S|qry_typ:P|lang:en|wc:3|cs:8895|v=4,False,mundka,New Delhi,"Plot No-276, Area Pocket-m Sector-1, Dsiidc Bawana,, mundka, New Delhi - 110039, Dist.Delhi, Delhi",8048262855,
Baby Stainless Steel Feeding Milk Bottle,,A.K.Metal Pressing,https://www.indiamart.com/akmetalpressing/?pos=102&kwd=baby bottle sterilizer&tags=||||8954.051|Price|product|||MDC|rsf:gd-|-stype:attr=1|qr_nm:gd|res:RC4|com-cf:nl|ptrs:na|ktp:N0|mc:192756|mtp:S|qry_typ:P|lang:en|wc:3|cs:8895|v=4,False,Sattangadu,Chennai,"No-33/15, Gandhi Nagar Main Road, Thiruvoittyur, Thiruvallur, Sattangadu, Chennai - 600019, Dist.Chennai, Tamil Nadu",8047647689,
"Silver Baby Feeding Bottle 300 ML, Age Group: 1-2 Years",https://www.indiamart.com/proddetail/baby-feeding-bottle-300-ml-2850630404397.html?pos=103&kwd=baby bottle sterilizer&tags=||||8954.051|Price|product|||TS|rsf:gd-|-stype:attr=1|qr_nm:gd|res:RC4|com-cf:nl|ptrs:na|ktp:N0|mc:192756|mtp:S|qry_typ:P|lang:en|wc:3|cs:8895|v=4,Anita Steel Centre,https://www.indiamart.com/anita-steel-center/?pos=103&kwd=baby bottle sterilizer&tags=||||8954.051|Price|product|||TS|rsf:gd-|-stype:attr=1|qr_nm:gd|res:RC4|com-cf:nl|ptrs:na|ktp:N0|mc:192756|mtp:S|qry_typ:P|lang:en|wc:3|cs:8895|v=4,False,Park Town,Chennai,"39/54, Nyniappa Maistry Street, Park Town, Chennai - 600003, Dist.Chennai, Tamil Nadu",8048985784,
PP Feeding Cup Milk/Medicine,,Kapoor Agencies,https://www.sagarproducts.co.in/?pos=104&kwd=baby bottle sterilizer&tags=||||8752.144|Price|product|||TS|rsf:gd-|-stype:attr=1|qr_nm:gd|res:RC4|com-cf:nl|ptrs:na|ktp:N0|mc:192756|mtp:S|qry_typ:P|lang:en|wc:3|cs:8895|v=4,False,Shahdara,New Delhi,"Iv/1697,Mahavir Block,Bhola Nath Nagar,Shahdar, Shahdara, New Delhi - 110032, Dist.Delhi, Delhi",8046069171,
Transparent Silicone Baby Fruit Feeder,https://www.indiamart.com/proddetail/silicone-baby-fruit-feeder-2850184193055.html?pos=105&kwd=baby bottle sterilizer&tags=||||8752.144|Price|product|||TS|rsf:gd-|-stype:attr=1|qr_nm:gd|res:RC4|com-cf:nl|ptrs:na|ktp:N0|mc:192756|mtp:S|qry_typ:P|lang:en|wc:3|cs:8895|v=4,Aastha Trading Company,https://www.indiamart.com/aasthatradingcompany-delhi/?pos=105&kwd=baby bottle sterilizer&tags=||||8752.144|Price|product|||TS|rsf:gd-|-stype:attr=1|qr_nm:gd|res:RC4|com-cf:nl|ptrs:na|ktp:N0|mc:192756|mtp:S|qry_typ:P|lang:en|wc:3|cs:8895|v=4,False,Mangolpuri,New Delhi,"Ground floor Block M Shop no-534, Mangolpuri, New Delhi - 110083, Dist.Delhi, Delhi",8046030692,
Baby Feeding Bottle Cover,https://www.indiamart.com/proddetail/baby-feeding-bottle-cover-2854279715712.html?pos=106&kwd=baby bottle sterilizer&tags=||||9189.305|Price|product|||MDC|rsf:gd-|-stype:attr=1|qr_nm:gd|res:RC4|com-cf:nl|ptrs:na|ktp:N0|mc:192756|mtp:S|qry_typ:P|lang:en|wc:3|cs:8895|v=4,Sudhanjali Enterprises,https://www.indiamart.com/sudhanjalienterprises/?pos=106&kwd=baby bottle sterilizer&tags=||||9189.305|Price|product|||MDC|rsf:gd-|-stype:attr=1|qr_nm:gd|res:RC4|com-cf:nl|ptrs:na|ktp:N0|mc:192756|mtp:S|qry_typ:P|lang:en|wc:3|cs:8895|v=4,False,,Prayagraj,"H No-10/7, Basahi, Nataka Babura, Khain, Prayagraj - 212307, Dist.Allahabad, Uttar Pradesh",7942964273,
"Transparent Plastic Little Bee Premium Baby Glass Feeding Bottle, Capacity: 50 mL",https://www.indiamart.com/proddetail/little-bee-premium-baby-glass-feeding-bottle-2854528306712.html?pos=107&kwd=baby bottle sterilizer&tags=||||8752.144|Price|product|||MDC|rsf:gd-|-stype:attr=1|qr_nm:gd|res:RC4|com-cf:nl|ptrs:na|ktp:N0|mc:192756|mtp:S|qry_typ:P|lang:en|wc:3|cs:8895|v=4,Priyanshi International,https://www.indiamart.com/priyanshi-international-uttarpradesh/?pos=107&kwd=baby bottle sterilizer&tags=||||8752.144|Price|product|||MDC|rsf:gd-|-stype:attr=1|qr_nm:gd|res:RC4|com-cf:nl|ptrs:na|ktp:N0|mc:192756|mtp:S|qry_typ:P|lang:en|wc:3|cs:8895|v=4,False,,New Delhi,"3,PROP NO S228,SCHOOL BLOCK,SHAKARPUR UGF, 3, Prop No S228, School Block, Shakarpur,110092, New Delhi - 110092, Dist.Delhi, Delhi",7942676139,
Stainless Steel Baby Feeding Bottle,https://www.indiamart.com/proddetail/stainless-steel-baby-feeding-bottle-2854078303797.html?pos=108&kwd=baby bottle sterilizer&tags=||||8752.144|Price|product|||MDC|rsf:gd-|-stype:attr=1|qr_nm:gd|res:RC4|com-cf:nl|ptrs:na|ktp:N0|mc:192756|mtp:S|qry_typ:P|lang:en|wc:3|cs:8895|v=4,Shubh Shakti Traders,https://www.indiamart.com/shubhshaktitraders/?pos=108&kwd=baby bottle sterilizer&tags=||||8752.144|Price|product|||MDC|rsf:gd-|-stype:attr=1|qr_nm:gd|res:RC4|com-cf:nl|ptrs:na|ktp:N0|mc:192756|mtp:S|qry_typ:P|lang:en|wc:3|cs:8895|v=4,False,Wazirpur,New Delhi,"Ground Floor, House No.51, DSIDC Complex. Wazirpur Indl. Area, Landmark Old SBI Building, North West, Wazirpur, New Delhi - 110052, Dist.Delhi, Delhi",7949224945,
"Steel Feeding Bottle For Baby, Capacity: 250 mL",https://www.indiamart.com/proddetail/steel-feeding-bottle-for-baby-2853709987448.html?pos=109&kwd=baby bottle sterilizer&tags=||||8785.791|Price|product|||MDC|rsf:gd-|-stype:attr=1|qr_nm:gd|res:RC4|com-cf:nl|ptrs:na|ktp:N0|mc:192756|mtp:S|qry_typ:P|lang:en|wc:3|cs:8895|v=4,Aadya Traders,https://www.indiamart.com/aadyatradersghaziabad/?pos=109&kwd=baby bottle sterilizer&tags=||||8785.791|Price|product|||MDC|rsf:gd-|-stype:attr=1|qr_nm:gd|res:RC4|com-cf:nl|ptrs:na|ktp:N0|mc:192756|mtp:S|qry_typ:P|lang:en|wc:3|cs:8895|v=4,False,Nand Gram,Ghaziabad,"C 465, Nand Gram, Nand Gram, Ghaziabad - 201003, Dist.Ghaziabad, Uttar Pradesh",7949086086,
"Silver VALENTINE Baby Bottle KIDDY 140 ML, 1-2 year",https://www.indiamart.com/proddetail/valentine-baby-bottle-kiddy-140-ml-2849388363748.html?pos=110&kwd=baby bottle sterilizer&tags=||||8752.144|Price|product|||MDC|rsf:gd-|-stype:attr=1|qr_nm:gd|res:RC4|com-cf:nl|ptrs:na|ktp:N0|mc:192756|mtp:S|qry_typ:P|lang:en|wc:3|cs:8895|v=4,Maharaja Metalik Group,https://www.indiamart.com/maharaja-metalik-group/?pos=110&kwd=baby bottle sterilizer&tags=||||8752.144|Price|product|||MDC|rsf:gd-|-stype:attr=1|qr_nm:gd|res:RC4|com-cf:nl|ptrs:na|ktp:N0|mc:192756|mtp:S|qry_typ:P|lang:en|wc:3|cs:8895|v=4,False,Wazirpur Industrial Area,New Delhi,"A- 87/5 Wazirpur Industrial Area, Wazirpur Industrial Area, New Delhi - 110052, Dist.Delhi, Delhi",8047699043,
Baby Silicone Soother,https://www.indiamart.com/proddetail/baby-silicone-soother-15491972597.html?pos=111&kwd=baby bottle sterilizer&tags=||||8211.142|Price|product|||TS|rsf:gd-|-stype:attr=1|qr_nm:gd|res:RC4|com-cf:nl|ptrs:na|ktp:N0|mc:192756|mtp:S|qry_typ:P|lang:en|wc:3|cs:8895|v=4,Gujarat Polymers,https://www.indiamart.com/gujaratpolymers-maharashtra/?pos=111&kwd=baby bottle sterilizer&tags=||||8211.142|Price|product|||TS|rsf:gd-|-stype:attr=1|qr_nm:gd|res:RC4|com-cf:nl|ptrs:na|ktp:N0|mc:192756|mtp:S|qry_typ:P|lang:en|wc:3|cs:8895|v=4,False,Andheri West,Mumbai,"No. 602, Centre Square, SV Road, Andheri West, Andheri West, Mumbai - 400058, Dist.Mumbai, Maharashtra",8046078043,
Wooden Baby Pacifier Clip and baby teether,https://www.indiamart.com/proddetail/baby-pacifier-clip-and-baby-teether-2854473070530.html?pos=112&kwd=baby bottle sterilizer&tags=||||7981.7773|Price|product|||TS|rsf:gd-|-stype:attr=1|qr_nm:gd|res:RC4|com-cf:nl|ptrs:na|ktp:N0|mc:192756|mtp:S|qry_typ:P|lang:en|wc:3|cs:8895|v=4,Shreeji Enterprise,https://www.indiamart.com/shreejienterprisegandhidham/?pos=112&kwd=baby bottle sterilizer&tags=||||7981.7773|Price|product|||TS|rsf:gd-|-stype:attr=1|qr_nm:gd|res:RC4|com-cf:nl|ptrs:na|ktp:N0|mc:192756|mtp:S|qry_typ:P|lang:en|wc:3|cs:8895|v=4,False,Golden Heights,Gandhidham,"108, Golden Height, Opposite Hotel Shiv Grand, Behind Petrol Pump, Golden Heights, Gandhidham - 370201, Dist.Kachchh, Gujarat",7942553471,
"White Plastic Baby Fruit Feeder, Capacity: 100 mL, 3-12 Months",https://www.indiamart.com/proddetail/baby-fruit-feeder-2851811834573.html?pos=113&kwd=baby bottle sterilizer&tags=||||8752.144|Price|product|||TS|rsf:gd-|-stype:attr=1|qr_nm:gd|res:RC4|com-cf:nl|ptrs:na|ktp:N0|mc:192756|mtp:S|qry_typ:P|lang:en|wc:3|cs:8895|v=4,B.S. ENTERPRISES,https://www.indiamart.com/yoneedo-delhi/?pos=113&kwd=baby bottle sterilizer&tags=||||8752.144|Price|product|||TS|rsf:gd-|-stype:attr=1|qr_nm:gd|res:RC4|com-cf:nl|ptrs:na|ktp:N0|mc:192756|mtp:S|qry_typ:P|lang:en|wc:3|cs:8895|v=4,False,Shalimar Village,New Delhi,"C-61 GALI NO 8 SHALIMAR VILLAGE Shalimar Village, Shalimar Village, New Delhi - 110088, Dist.Delhi, Delhi",8048955523,
"White Baby Feeding Silicone Nipple, 3 Months",https://www.indiamart.com/proddetail/baby-feeding-silicone-nipple-25599636191.html?pos=114&kwd=baby bottle sterilizer&tags=||||8211.142|Price|product|||TS|rsf:gd-|-stype:attr=1|qr_nm:gd|res:RC4|com-cf:nl|ptrs:na|ktp:N0|mc:192756|mtp:S|qry_typ:P|lang:en|wc:3|cs:8895|v=4,Silicone Products (India),https://www.indiamart.com/silicone-products-india/?pos=114&kwd=baby bottle sterilizer&tags=||||8211.142|Price|product|||TS|rsf:gd-|-stype:attr=1|qr_nm:gd|res:RC4|com-cf:nl|ptrs:na|ktp:N0|mc:192756|mtp:S|qry_typ:P|lang:en|wc:3|cs:8895|v=4,False,Borivali,Mumbai,"102, Aadinath Park Chs, 51 St Road, Shimpoli, Borivali West, Mumbai Suburban, Borivali, Mumbai - 400092, Dist.Mumbai, Maharashtra",8047652110,
"Metal Stainless Steel Feeding Bottle, Capacity: 300 mL, 3-12 Months",https://www.indiamart.com/proddetail/stainless-steel-feeding-bottle-2852451353848.html?pos=115&kwd=baby bottle sterilizer&tags=||||8211.142|Price|product|||TS|rsf:gd-|-stype:attr=1|qr_nm:gd|res:RC4|com-cf:nl|ptrs:na|ktp:N0|mc:192756|mtp:S|qry_typ:P|lang:en|wc:3|cs:8895|v=4,Prabhu Industries,https://www.indiamart.com/prabhu-industries-mumbai/?pos=115&kwd=baby bottle sterilizer&tags=||||8211.142|Price|product|||TS|rsf:gd-|-stype:attr=1|qr_nm:gd|res:RC4|com-cf:nl|ptrs:na|ktp:N0|mc:192756|mtp:S|qry_typ:P|lang:en|wc:3|cs:8895|v=4,False,Andheri East,Mumbai,"B2-701, 7th Floor, Preeti Apartment, J.B.Nagar, Kanti Nagar, Andheri East, Andheri East, Mumbai - 400059, Dist.Mumbai, Maharashtra",8047304103,
Bos Medicare Baby Nipple,https://www.indiamart.com/proddetail/bos-medicare-baby-nipple-25013868873.html?pos=116&kwd=baby bottle sterilizer&tags=||||8752.144|Price|product|||TS|rsf:gd-|-stype:attr=1|qr_nm:gd|res:RC4|com-cf:nl|ptrs:na|ktp:N0|mc:192756|mtp:S|qry_typ:P|lang:en|wc:3|cs:8895|v=4,Bos Medicare Surgical,https://www.bosmedicare.com/?pos=116&kwd=baby bottle sterilizer&tags=||||8752.144|Price|product|||TS|rsf:gd-|-stype:attr=1|qr_nm:gd|res:RC4|com-cf:nl|ptrs:na|ktp:N0|mc:192756|mtp:S|qry_typ:P|lang:en|wc:3|cs:8895|v=4,False,Kishan Ganj,New Delhi,"Shop No 155, Kishan Ganj Market, Old Rohtak Road, Kishan Ganj, Kishan Ganj, New Delhi - 110007, Dist.Delhi, Delhi",7942826425,
Baby Soother .,https://www.indiamart.com/proddetail/baby-soother-2853570013930.html?pos=117&kwd=baby bottle sterilizer&tags=||||8228.275|Price|product|||TS|rsf:gd-|-stype:attr=1|qr_nm:gd|res:RC4|com-cf:nl|ptrs:na|ktp:N0|mc:192756|mtp:S|qry_typ:P|lang:en|wc:3|cs:8895|v=4,Smonkare Impex Private Limited,https://www.psychiatricmedicines.com/?pos=117&kwd=baby bottle sterilizer&tags=||||8228.275|Price|product|||TS|rsf:gd-|-stype:attr=1|qr_nm:gd|res:RC4|com-cf:nl|ptrs:na|ktp:N0|mc:192756|mtp:S|qry_typ:P|lang:en|wc:3|cs:8895|v=4,False,Chanakyapuri,Ahmedabad,"1st Floor,1,2, Malhar Complex, Near Sola Railway Overbridge Science City Road, Chanakyapuri, Ahmedabad - 380060, Dist.Ahmedabad, Gujarat",8048985231,
Baby Nibbler Fruit Feeder,https://www.indiamart.com/proddetail/baby-nibbler-fruit-feeder-2850353032433.html?pos=118&kwd=baby bottle sterilizer&tags=||||8752.144|Price|product|||TS|rsf:gd-|-stype:attr=1|qr_nm:gd|res:RC4|com-cf:nl|ptrs:na|ktp:N0|mc:192756|mtp:S|qry_typ:P|lang:en|wc:3|cs:8895|v=4,Inquantity,https://www.indiamart.com/inquantity/?pos=118&kwd=baby bottle sterilizer&tags=||||8752.144|Price|product|||TS|rsf:gd-|-stype:attr=1|qr_nm:gd|res:RC4|com-cf:nl|ptrs:na|ktp:N0|mc:192756|mtp:S|qry_typ:P|lang:en|wc:3|cs:8895|v=4,False,Shahdara,New Delhi,"1/6258, East Rohtash Nagar, Shahdara, Shahdara, New Delhi - 110032, Dist.Delhi, Delhi",8047620719,
Chic Buddy Silicone Baby Tiny Cup with Spoon for Infants First Stage Training,https://www.indiamart.com/proddetail/chic-buddy-silicone-baby-tiny-cup-with-spoon-for-infants-first-stage-training-2848988232762.html?pos=119&kwd=baby bottle sterilizer&tags=||||8786.56|Price|product|||TS|rsf:gd-|-stype:attr=1|qr_nm:gd|res:RC4|com-cf:nl|ptrs:na|ktp:N0|mc:192756|mtp:S|qry_typ:P|lang:en|wc:3|cs:8895|v=4,Totcase Services Private Limited,https://www.totcase.com/?pos=119&kwd=baby bottle sterilizer&tags=||||8786.56|Price|product|||TS|rsf:gd-|-stype:attr=1|qr_nm:gd|res:RC4|com-cf:nl|ptrs:na|ktp:N0|mc:192756|mtp:S|qry_typ:P|lang:en|wc:3|cs:8895|v=4,False,Alwal,Hyderabad,"1-4-177/ A13/402 Shivasai Residency Greenwood Colony Old Alwal, Alwal, Hyderabad - 500010, Dist.Hyderabad, Telangana",8045910096,
"White 125ml Plastic Baby Feeding Bottle, Age Group: 3-12 Months",https://www.indiamart.com/proddetail/125ml-plastic-baby-feeding-bottle-23528593548.html?pos=120&kwd=baby bottle sterilizer&tags=||||8228.275|Price|product|||TS|rsf:gd-|-stype:attr=1|qr_nm:gd|res:RC4|com-cf:nl|ptrs:na|ktp:N0|mc:192756|mtp:S|qry_typ:P|lang:en|wc:3|cs:8895|v=4,Madhu Products,https://www.indiamart.com/madhu-products-ahmedabad/?pos=120&kwd=baby bottle sterilizer&tags=||||8228.275|Price|product|||TS|rsf:gd-|-stype:attr=1|qr_nm:gd|res:RC4|com-cf:nl|ptrs:na|ktp:N0|mc:192756|mtp:S|qry_typ:P|lang:en|wc:3|cs:8895|v=4,False,Saraspur,Ahmedabad,"825, Kadiawad, Saraspur, Saraspur, Ahmedabad - 380018, Dist.Ahmedabad, Gujarat",8046075412,
Horizontal Stainless Steel Autoclaves Pressure Steam Sterilizers,https://www.indiamart.com/proddetail/autoclaves-pressure-steam-sterilizers-6597449733.html?pos=121&kwd=baby bottle sterilizer&tags=||||8740.707|Price|product|||TS|rsf:gd-|-stype:attr=1|qr_nm:gd|res:RC4|com-cf:nl|ptrs:na|ktp:N0|mc:192756|mtp:S|qry_typ:P|lang:en|wc:3|cs:8895|v=4,Rockwell Industrial Plants Limited,https://www.riplindia.com/?pos=121&kwd=baby bottle sterilizer&tags=||||8740.707|Price|product|||TS|rsf:gd-|-stype:attr=1|qr_nm:gd|res:RC4|com-cf:nl|ptrs:na|ktp:N0|mc:192756|mtp:S|qry_typ:P|lang:en|wc:3|cs:8895|v=4,True,Sarsini,Sas Nagar,"VPO Sarsini, Chandigarh - Ambala Road Chandigarh - Ambala Road, Sarsini, Sas Nagar - 140501, Dist.Mohali, Punjab",8048961615,
Deluxe Baby Feeding Bottle 125ml,https://www.indiamart.com/proddetail/deluxe-baby-feeding-bottle-125ml-12769202412.html?pos=122&kwd=baby bottle sterilizer&tags=||||8223.226|Price|product|||MDC|rsf:gd-|-stype:attr=1|qr_nm:gd|res:RC4|com-cf:nl|ptrs:na|ktp:N0|mc:192756|mtp:S|qry_typ:P|lang:en|wc:3|cs:8895|v=4,Wecare Solutions,https://www.indiamart.com/wecare-solutions/?pos=122&kwd=baby bottle sterilizer&tags=||||8223.226|Price|product|||MDC|rsf:gd-|-stype:attr=1|qr_nm:gd|res:RC4|com-cf:nl|ptrs:na|ktp:N0|mc:192756|mtp:S|qry_typ:P|lang:en|wc:3|cs:8895|v=4,False,Valiv,Thane,"Gala No. F-19-20, 1st Floor, Rajprabha Anand Industrial Estate Naikpada, Waliv, Valiv, Thane - 401208, Dist.Thane, Maharashtra",8047631791,
"Transparent Glass Baby Feeding Bottle with silicone cover, Capacity: 150 mL",https://www.indiamart.com/proddetail/glass-baby-feeding-bottle-with-silicone-cover-2855096770155.html?pos=123&kwd=baby bottle sterilizer&tags=||||8545.6045|Price|product|||MDC|rsf:gd-|-stype:attr=1|qr_nm:gd|res:RC4|com-cf:nl|ptrs:na|ktp:N0|mc:192756|mtp:S|qry_typ:P|lang:en|wc:3|cs:8895|v=4,Shraddha Saburi,https://www.indiamart.com/shraddhasaburi/?pos=123&kwd=baby bottle sterilizer&tags=||||8545.6045|Price|product|||MDC|rsf:gd-|-stype:attr=1|qr_nm:gd|res:RC4|com-cf:nl|ptrs:na|ktp:N0|mc:192756|mtp:S|qry_typ:P|lang:en|wc:3|cs:8895|v=4,False,Cantonment Area,Firozpur,"263, Suji Bazar, M/s Shraddha Saburi, Ferozepur Cantt, Cantonment Area, Firozpur - 152001, Dist.Firozpur, Punjab",8048979628,
"Chinmay kids Baby Feeding bottle, 3-12 Months",https://www.indiamart.com/proddetail/baby-feeding-bottle-23414935112.html?pos=124&kwd=baby bottle sterilizer&tags=||||8752.144|Price|product|||TS|rsf:gd-|-stype:attr=1|qr_nm:gd|res:RC4|com-cf:nl|ptrs:na|ktp:N0|mc:192756|mtp:S|qry_typ:P|lang:en|wc:3|cs:8895|v=4,Chinmay Kids,https://www.indiamart.com/chinmaykids/?pos=124&kwd=baby bottle sterilizer&tags=||||8752.144|Price|product|||TS|rsf:gd-|-stype:attr=1|qr_nm:gd|res:RC4|com-cf:nl|ptrs:na|ktp:N0|mc:192756|mtp:S|qry_typ:P|lang:en|wc:3|cs:8895|v=4,False,Nayagaon,New Delhi,"C-99, Street No. 4, First Pusta, Nayagaon, New Delhi - 110053, Dist.Delhi, Delhi",8046054858,
"White Silicone Baby Feeding Bottle, Age Group: 3-12 Months",https://www.indiamart.com/proddetail/silicone-baby-feeding-bottle-2854220077733.html?pos=125&kwd=baby bottle sterilizer&tags=||||8230.883|Price|product|||TS|rsf:gd-|-stype:attr=1|qr_nm:gd|res:RC4|com-cf:nl|ptrs:na|ktp:N0|mc:192756|mtp:S|qry_typ:P|lang:en|wc:3|cs:8895|v=4,BABYHOLIC,https://www.babyholic.in/?pos=125&kwd=baby bottle sterilizer&tags=||||8230.883|Price|product|||TS|rsf:gd-|-stype:attr=1|qr_nm:gd|res:RC4|com-cf:nl|ptrs:na|ktp:N0|mc:192756|mtp:S|qry_typ:P|lang:en|wc:3|cs:8895|v=4,False,,Surat,"Ground Floor, Plot No. F/56/, And F/57, Laxmi Narayan Industrial Estate, Udhana, Kailash Fashion, Surat - 394210, Dist.Surat, Gujarat",8045732096,
Baby Feeding Bottle Cover,https://www.indiamart.com/proddetail/baby-feeding-bottle-cover-2854279715712.html?pos=126&kwd=baby bottle sterilizer&tags=||||9189.305|Price|product|||MDC|rsf:gd-|-stype:attr=1|qr_nm:gd|res:RC4|com-cf:nl|ptrs:na|ktp:N0|mc:192756|mtp:S|qry_typ:P|lang:en|wc:3|cs:8895|v=4,Sudhanjali Enterprises,https://www.indiamart.com/sudhanjalienterprises/?pos=126&kwd=baby bottle sterilizer&tags=||||9189.305|Price|product|||MDC|rsf:gd-|-stype:attr=1|qr_nm:gd|res:RC4|com-cf:nl|ptrs:na|ktp:N0|mc:192756|mtp:S|qry_typ:P|lang:en|wc:3|cs:8895|v=4,False,,Prayagraj,"H No-10/7, Basahi, Nataka Babura, Khain, Prayagraj - 212307, Dist.Allahabad, Uttar Pradesh",7942964273,
300 Ml Baby Milk Glass Bottle,https://www.indiamart.com/proddetail/300-ml-baby-milk-glass-bottle-23552281188.html?pos=127&kwd=baby bottle sterilizer&tags=||||8861.147|Price|product|||TS|rsf:gd-|-stype:attr=1|qr_nm:gd|res:RC4|com-cf:nl|ptrs:na|ktp:N0|mc:192756|mtp:S|qry_typ:P|lang:en|wc:3|cs:8895|v=4,Eagle Glass Deco Private Limited,https://www.indiamart.com/eagleglassdeco/?pos=127&kwd=baby bottle sterilizer&tags=||||8861.147|Price|product|||TS|rsf:gd-|-stype:attr=1|qr_nm:gd|res:RC4|com-cf:nl|ptrs:na|ktp:N0|mc:192756|mtp:S|qry_typ:P|lang:en|wc:3|cs:8895|v=4,True,Sukhmalpur Nizamabad,Firozabad,"C-19, 20, Industrial Estate Bhau Ka Nagla, Sukhmalpur Nizamabad, Firozabad - 283203, Dist.Firozabad, Uttar Pradesh",8047631366,
Stainless Steel Baby Feeding Bottle,https://www.indiamart.com/proddetail/stainless-steel-baby-feeding-bottle-2854718516173.html?pos=128&kwd=baby bottle sterilizer&tags=||||8786.56||product|||TS|rsf:gd-|-stype:attr=1|qr_nm:gd|res:RC4|com-cf:nl|ptrs:na|ktp:N0|mc:192756|mtp:S|qry_typ:P|lang:en|wc:3|cs:8895|v=4,Vishalandhra Industries,https://www.indiamart.com/vishalandhra-industries-hyderabad/?pos=128&kwd=baby bottle sterilizer&tags=||||8786.56||product|||TS|rsf:gd-|-stype:attr=1|qr_nm:gd|res:RC4|com-cf:nl|ptrs:na|ktp:N0|mc:192756|mtp:S|qry_typ:P|lang:en|wc:3|cs:8895|v=4,False,Kavadiguda,Hyderabad,"1-7-148/4/2/A Bakaram, Musheerabad Main Road Opp. Metro Pillar No. 1079 Musheerabad, Kavadiguda, Hyderabad - 500020, Dist.Hyderabad, Telangana",7942817189,
"Stainless Steel Baby Feeding Bottle, Capacity: 0.5 Ltr",https://www.indiamart.com/proddetail/stainless-steel-baby-feeding-bottle-27007002833.html?pos=129&kwd=baby bottle sterilizer&tags=||||8785.791|Price|product|||TS|rsf:gd-|-stype:attr=1|qr_nm:gd|res:RC4|com-cf:nl|ptrs:na|ktp:N0|mc:192756|mtp:S|qry_typ:P|lang:en|wc:3|cs:8895|v=4,Tatva By Gopika,https://www.urika.in/?pos=129&kwd=baby bottle sterilizer&tags=||||8785.791|Price|product|||TS|rsf:gd-|-stype:attr=1|qr_nm:gd|res:RC4|com-cf:nl|ptrs:na|ktp:N0|mc:192756|mtp:S|qry_typ:P|lang:en|wc:3|cs:8895|v=4,False,Indirapuram,Ghaziabad,"SD-035, LGF, Jaipuria Sunrise Greens, Plot No-12A, Ahinsha Khand, Indirapuram,, Indirapuram, Ghaziabad - 201014, Dist.Ghaziabad, Uttar Pradesh",8047673566,
"Transparent Borosilicate Glass Baby Feeding Bottle, Capacity: 100 mL",https://www.indiamart.com/proddetail/borosilicate-glass-baby-feeding-bottle-2854399303591.html?pos=130&kwd=baby bottle sterilizer&tags=||||8741.987|Price|product|||TS|rsf:gd-|-stype:attr=1|qr_nm:gd|res:RC4|com-cf:nl|ptrs:na|ktp:N0|mc:192756|mtp:S|qry_typ:P|lang:en|wc:3|cs:8895|v=4,Myson Exports Assistance,https://www.indiamart.com/myson-exports-assistance/?pos=130&kwd=baby bottle sterilizer&tags=||||8741.987|Price|product|||TS|rsf:gd-|-stype:attr=1|qr_nm:gd|res:RC4|com-cf:nl|ptrs:na|ktp:N0|mc:192756|mtp:S|qry_typ:P|lang:en|wc:3|cs:8895|v=4,False,Sadar Bazar,Ambala,"Shop No 4, Ist Floor, 5507-11/5555 Anaj Mandi, Nicholson Road, Ambala Cantt, Sadar Bazar, Ambala - 133001, Dist.Ambala, Haryana",8046073164,
"SS Baby Feeding Bottle, Capacity: 150 mL",https://www.indiamart.com/proddetail/ss-baby-feeding-bottle-1247331755.html?pos=131&kwd=baby bottle sterilizer&tags=||||8752.144|Price|product|||MDC|rsf:gd-|-stype:attr=1|qr_nm:gd|res:RC4|com-cf:nl|ptrs:na|ktp:N0|mc:192756|mtp:S|qry_typ:P|lang:en|wc:3|cs:8895|v=4,Neelkanth Metal Trading Co.,https://www.indiamart.com/neelkanthmetal-tradingco/?pos=131&kwd=baby bottle sterilizer&tags=||||8752.144|Price|product|||MDC|rsf:gd-|-stype:attr=1|qr_nm:gd|res:RC4|com-cf:nl|ptrs:na|ktp:N0|mc:192756|mtp:S|qry_typ:P|lang:en|wc:3|cs:8895|v=4,False,North West Delhi,New Delhi,"Ground Floor, House No X 1/9, Kh.No 83/15, Block -V-1, Budh Vihar Phase 1, North West Delhi, New Delhi - 110086, Dist.Delhi, Delhi",8047795143,
Capacity: 500 mL Blue Plastic Baby Sipper Bottle,https://www.indiamart.com/proddetail/plastic-baby-sipper-bottle-2852951365673.html?pos=132&kwd=baby bottle sterilizer&tags=||||8038.093|Price|product|||MDC|rsf:gd-|-stype:attr=1|qr_nm:gd|res:RC4|com-cf:nl|ptrs:na|ktp:N0|mc:192756|mtp:S|qry_typ:P|lang:en|wc:3|cs:8895|v=4,Alloy Exim,https://www.indiamart.com/maruti-enterpriserajkot-gujarat/?pos=132&kwd=baby bottle sterilizer&tags=||||8038.093|Price|product|||MDC|rsf:gd-|-stype:attr=1|qr_nm:gd|res:RC4|com-cf:nl|ptrs:na|ktp:N0|mc:192756|mtp:S|qry_typ:P|lang:en|wc:3|cs:8895|v=4,False,Rohidaspra,Rajkot,"Near Morbi Jakat Naku , Plot No.22/B ,Maruti, Jamana Park Street No. 3, Momai Auto Garage, Shree Ram Society, Rohidaspra, Rajkot - 360003, Dist.Rajkot, Gujarat",7942968638,
"Stainless Steel Baby Feeding Bottle, Capacity: 200 mL",https://www.indiamart.com/proddetail/stainless-steel-baby-feeding-bottle-2854703140191.html?pos=133&kwd=baby bottle sterilizer&tags=||||8211.142||product|||MDC|rsf:gd-|-stype:attr=1|qr_nm:gd|res:RC4|com-cf:nl|ptrs:na|ktp:N0|mc:192756|mtp:S|qry_typ:P|lang:en|wc:3|cs:8895|v=4,Brinox International,https://www.indiamart.com/brinox-international/?pos=133&kwd=baby bottle sterilizer&tags=||||8211.142||product|||MDC|rsf:gd-|-stype:attr=1|qr_nm:gd|res:RC4|com-cf:nl|ptrs:na|ktp:N0|mc:192756|mtp:S|qry_typ:P|lang:en|wc:3|cs:8895|v=4,False,,Mumbai,"501/502,5th Floor,Padmavati Niwas,Sadashiv Cross Lane, Nr. Sanskar Bal Mandir,Girgaon, Mumbai - 400004, Dist.Mumbai, Maharashtra",7949324583,
"White Metal Stainless Steel Baby Feeding Bottle, Capacity: 200 mL",https://www.indiamart.com/proddetail/stainless-steel-baby-feeding-bottle-2853858030548.html?pos=134&kwd=baby bottle sterilizer&tags=||||8210.732||product|||MDC|rsf:gd-|-stype:attr=1|qr_nm:gd|res:RC4|com-cf:nl|ptrs:na|ktp:N0|mc:192756|mtp:S|qry_typ:P|lang:en|wc:3|cs:8895|v=4,Navkar 9 Plastics & Steels,https://www.indiamart.com/navkar9-plastics-steels/?pos=134&kwd=baby bottle sterilizer&tags=||||8210.732||product|||MDC|rsf:gd-|-stype:attr=1|qr_nm:gd|res:RC4|com-cf:nl|ptrs:na|ktp:N0|mc:192756|mtp:S|qry_typ:P|lang:en|wc:3|cs:8895|v=4,False,Vasai East,Vasai Virar,"Ground Floor Gala No. 04 Raees Nagar, Khairpada, Bilalpada, Vasai East, Vasai Virar - 401208, Dist.Thane, Maharashtra",7949086716,
"Kidovilla Sky Blue 125ml Baby Glass Sipper Feeding Bottle, 3-12 Months",https://www.indiamart.com/proddetail/125ml-baby-glass-sipper-feeding-bottle-25736130397.html?pos=135&kwd=baby bottle sterilizer&tags=||||8752.144|Price|product|||MDC|rsf:gd-|-stype:attr=1|qr_nm:gd|res:RC4|com-cf:nl|ptrs:na|ktp:N0|mc:192756|mtp:S|qry_typ:P|lang:en|wc:3|cs:8895|v=4,Little Kingdom Baby Product,https://www.indiamart.com/little-kingdombaby-product/?pos=135&kwd=baby bottle sterilizer&tags=||||8752.144|Price|product|||MDC|rsf:gd-|-stype:attr=1|qr_nm:gd|res:RC4|com-cf:nl|ptrs:na|ktp:N0|mc:192756|mtp:S|qry_typ:P|lang:en|wc:3|cs:8895|v=4,False,Bawana,New Delhi,"Plot No. 16, PKT-G, Sector-3, DSIIDC, Bawana, North West Delhi, Bawana, New Delhi - 110039, Dist.Delhi, Delhi",8047648589,
"Transparent Metal Budds buddy Deluxe Stainless Steel Milk Bottle, Capacity: 300 mL, Baby",https://www.indiamart.com/proddetail/budds-buddy-deluxe-stainless-steel-milk-bottle-2854527366933.html?pos=136&kwd=baby bottle sterilizer&tags=||||8038.093|Price|product|||MDC|rsf:gd-|-stype:attr=1|qr_nm:gd|res:RC4|com-cf:nl|ptrs:na|ktp:N0|mc:192756|mtp:S|qry_typ:P|lang:en|wc:3|cs:8895|v=4,My Medicine,https://www.indiamart.com/mymedicinerajkot/?pos=136&kwd=baby bottle sterilizer&tags=||||8038.093|Price|product|||MDC|rsf:gd-|-stype:attr=1|qr_nm:gd|res:RC4|com-cf:nl|ptrs:na|ktp:N0|mc:192756|mtp:S|qry_typ:P|lang:en|wc:3|cs:8895|v=4,False,,Rajkot,"8, Git Gurjari Scoiety, My Medicine, Air Port Road, Opp. Nilkant Mahadev Temple, Rajkot - 360007, Dist.Rajkot, Gujarat",7949336599,
Baby Bottle Cover,https://www.indiamart.com/proddetail/baby-bottle-cover-4325215673.html?pos=137&kwd=baby bottle sterilizer&tags=||||8785.791|Price|product|||TS|rsf:gd-|-stype:attr=1|qr_nm:gd|res:RC4|com-cf:nl|ptrs:na|ktp:N0|mc:192756|mtp:S|qry_typ:P|lang:en|wc:3|cs:8895|v=4,Ilaki Intercraft (India),https://www.indiamart.com/ilakiintercraft/?pos=137&kwd=baby bottle sterilizer&tags=||||8785.791|Price|product|||TS|rsf:gd-|-stype:attr=1|qr_nm:gd|res:RC4|com-cf:nl|ptrs:na|ktp:N0|mc:192756|mtp:S|qry_typ:P|lang:en|wc:3|cs:8895|v=4,False,Tronica City,Ghaziabad,"D-69 Sector D-1 Tronica City, Tronica City, Ghaziabad - 201103, Dist.Ghaziabad, Uttar Pradesh",7942552124,
"Chinmay kids Baby Feeding bottle, 3-12 Months",https://www.indiamart.com/proddetail/baby-feeding-bottle-23414935112.html?pos=138&kwd=baby bottle sterilizer&tags=||||8752.144|Price|product|||TS|rsf:gd-|-stype:attr=1|qr_nm:gd|res:RC4|com-cf:nl|ptrs:na|ktp:N0|mc:192756|mtp:S|qry_typ:P|lang:en|wc:3|cs:8895|v=4,Chinmay Kids,https://www.indiamart.com/chinmaykids/?pos=138&kwd=baby bottle sterilizer&tags=||||8752.144|Price|product|||TS|rsf:gd-|-stype:attr=1|qr_nm:gd|res:RC4|com-cf:nl|ptrs:na|ktp:N0|mc:192756|mtp:S|qry_typ:P|lang:en|wc:3|cs:8895|v=4,False,Nayagaon,New Delhi,"C-99, Street No. 4, First Pusta, Nayagaon, New Delhi - 110053, Dist.Delhi, Delhi",8046054858,
Baby Bottle Cover,https://www.indiamart.com/proddetail/baby-bottle-cover-2853353408412.html?pos=139&kwd=baby bottle sterilizer&tags=||||8211.142|Price|product|||TS|rsf:gd-|-stype:attr=1|qr_nm:gd|res:RC4|com-cf:nl|ptrs:na|ktp:N0|mc:192756|mtp:S|qry_typ:P|lang:en|wc:3|cs:8895|v=4,Parass Trading,https://www.indiamart.com/parasstrading/?pos=139&kwd=baby bottle sterilizer&tags=||||8211.142|Price|product|||TS|rsf:gd-|-stype:attr=1|qr_nm:gd|res:RC4|com-cf:nl|ptrs:na|ktp:N0|mc:192756|mtp:S|qry_typ:P|lang:en|wc:3|cs:8895|v=4,False,Chembur,Mumbai,"Room no 3, First Floor, Plot no 39, Next to Shivaji Nagar police station,Kherwadi Plot no 39, Chembur, Mumbai - 400071, Dist.Mumbai, Maharashtra",8047631170,
Multicolor Baby Bottle Cover,https://www.indiamart.com/proddetail/baby-bottle-cover-20711904155.html?pos=140&kwd=baby bottle sterilizer&tags=||||8752.144|Price|product|||TS|rsf:gd-|-stype:attr=1|qr_nm:gd|res:RC4|com-cf:nl|ptrs:na|ktp:N0|mc:192756|mtp:S|qry_typ:P|lang:en|wc:3|cs:8895|v=4,National Overseas,https://www.indiamart.com/nationaltraders-vishwashnagar/?pos=140&kwd=baby bottle sterilizer&tags=||||8752.144|Price|product|||TS|rsf:gd-|-stype:attr=1|qr_nm:gd|res:RC4|com-cf:nl|ptrs:na|ktp:N0|mc:192756|mtp:S|qry_typ:P|lang:en|wc:3|cs:8895|v=4,False,Shahdara,New Delhi,"1/99, Gali No. 3, Vishwas Nagar, Shahdara, New Delhi - 110032, Dist.Delhi, Delhi",8046047673,
"Blue 8330-PREMIUM WARMER GLASS FEEDING BOTTLE, Capacity: 150 mL, Newly Born",https://www.indiamart.com/proddetail/8330-premium-warmer-glass-feeding-bottle-2851549718148.html?pos=141&kwd=baby bottle sterilizer&tags=||||8741.987||product|||MDC|rsf:gd-|-stype:attr=1|qr_nm:gd|res:RC4|com-cf:nl|ptrs:na|ktp:N0|mc:192756|mtp:S|qry_typ:P|lang:en|wc:3|cs:8895|v=4,Lab-Tech International,https://www.indiamart.com/labtechinternational/?pos=141&kwd=baby bottle sterilizer&tags=||||8741.987||product|||MDC|rsf:gd-|-stype:attr=1|qr_nm:gd|res:RC4|com-cf:nl|ptrs:na|ktp:N0|mc:192756|mtp:S|qry_typ:P|lang:en|wc:3|cs:8895|v=4,False,Cantt,Ambala,"11 -A, Herman City Road,Khudda,Ambala Cantt, Cantt, Ambala - 133001, Dist.Ambala, Haryana",7942550112,
Baby Pink Cotton Baby Bottle Cover,https://www.indiamart.com/proddetail/baby-pink-cotton-baby-bottle-cover-2852555610748.html?pos=142&kwd=baby bottle sterilizer&tags=||||8580.032|Price|product|||TS|rsf:gd-|-stype:attr=1|qr_nm:gd|res:RC4|com-cf:nl|ptrs:na|ktp:N0|mc:192756|mtp:S|qry_typ:P|lang:en|wc:3|cs:8895|v=4,Ritu Infants Care,https://www.indiamart.com/ritu-infants-care/?pos=142&kwd=baby bottle sterilizer&tags=||||8580.032|Price|product|||TS|rsf:gd-|-stype:attr=1|qr_nm:gd|res:RC4|com-cf:nl|ptrs:na|ktp:N0|mc:192756|mtp:S|qry_typ:P|lang:en|wc:3|cs:8895|v=4,False,Sunder Nagar,Amritsar,"232, Tilak Nagar, Shivala Colony, Sunder Nagar, Amritsar - 143001, Dist.Amritsar, Punjab",7942712512,
mix Baby Feeding Bottle Cover,https://www.indiamart.com/proddetail/baby-feeding-bottle-cover-3807488573.html?pos=143&kwd=baby bottle sterilizer&tags=||||8752.144|Price|product|||TS|rsf:gd-|-stype:attr=1|qr_nm:gd|res:RC4|com-cf:nl|ptrs:na|ktp:N0|mc:192756|mtp:S|qry_typ:P|lang:en|wc:3|cs:8895|v=4,Man Singh & Sons Private Limited,https://www.babyproductsmanufacturer.com/?pos=143&kwd=baby bottle sterilizer&tags=||||8752.144|Price|product|||TS|rsf:gd-|-stype:attr=1|qr_nm:gd|res:RC4|com-cf:nl|ptrs:na|ktp:N0|mc:192756|mtp:S|qry_typ:P|lang:en|wc:3|cs:8895|v=4,False,Karol Bagh,New Delhi,"No. 13/24, 1st Floor, W. E. A., Karol Bagh, Karol Bagh, New Delhi - 110005, Dist.Delhi, Delhi",8048978579,
Baby Bottle Cotton Cover,https://www.indiamart.com/proddetail/baby-bottle-cotton-cover-2852538329712.html?pos=144&kwd=baby bottle sterilizer&tags=||||8823.154|Price|product|||TS|rsf:gd-|-stype:attr=1|qr_nm:gd|res:RC4|com-cf:nl|ptrs:na|ktp:N0|mc:192756|mtp:S|qry_typ:P|lang:en|wc:3|cs:8895|v=4,Shri Anant International,https://www.indiamart.com/shrianantinternational/?pos=144&kwd=baby bottle sterilizer&tags=||||8823.154|Price|product|||TS|rsf:gd-|-stype:attr=1|qr_nm:gd|res:RC4|com-cf:nl|ptrs:na|ktp:N0|mc:192756|mtp:S|qry_typ:P|lang:en|wc:3|cs:8895|v=4,False,DayalBagh,Agra,"No.02,House 2,Alkapuri Phase Ii,Agra, DayalBagh, Agra - 282005, Dist.Agra, Uttar Pradesh",7942721451,
"Silicon Baby Bottle Cover, Size/Dimension: 6 Inch",https://www.indiamart.com/proddetail/silicon-baby-bottle-cover-24337902433.html?pos=145&kwd=baby bottle sterilizer&tags=||||8752.144|Price|product|||TS|rsf:gd-|-stype:attr=1|qr_nm:gd|res:RC4|com-cf:nl|ptrs:na|ktp:N0|mc:192756|mtp:S|qry_typ:P|lang:en|wc:3|cs:8895|v=4,Moonstar Enterprisrs,https://www.hamaarishop.com/?pos=145&kwd=baby bottle sterilizer&tags=||||8752.144|Price|product|||TS|rsf:gd-|-stype:attr=1|qr_nm:gd|res:RC4|com-cf:nl|ptrs:na|ktp:N0|mc:192756|mtp:S|qry_typ:P|lang:en|wc:3|cs:8895|v=4,False,,New Delhi,"House No 258,Gali No 7 Block B Ph 2 Landmark Prem Nagar,Delhi, New Delhi - 110041, Dist.Delhi, Delhi",7942538796,
Baby Feeding Bottle Cover,https://www.indiamart.com/proddetail/baby-feeding-bottle-cover-2586362788.html?pos=146&kwd=baby bottle sterilizer&tags=||||8752.144|Price|product|||TS|rsf:gd-|-stype:attr=1|qr_nm:gd|res:RC4|com-cf:nl|ptrs:na|ktp:N0|mc:192756|mtp:S|qry_typ:P|lang:en|wc:3|cs:8895|v=4,Dolphin Baby Product,https://www.dolphinbabyproducts.com/?pos=146&kwd=baby bottle sterilizer&tags=||||8752.144|Price|product|||TS|rsf:gd-|-stype:attr=1|qr_nm:gd|res:RC4|com-cf:nl|ptrs:na|ktp:N0|mc:192756|mtp:S|qry_typ:P|lang:en|wc:3|cs:8895|v=4,False,Inderlok,New Delhi,"No. 488, 1st Floor, Shahzada Bagh, Industrial Area Phase 1, Inderlok, New Delhi - 110035, Dist.Delhi, Delhi",8048965296,
Velvet Baby Bottle Cover,https://www.indiamart.com/proddetail/velvet-baby-bottle-cover-2852393836597.html?pos=147&kwd=baby bottle sterilizer&tags=||||8752.144|Price|product|||TS|rsf:gd-|-stype:attr=1|qr_nm:gd|res:RC4|com-cf:nl|ptrs:na|ktp:N0|mc:192756|mtp:S|qry_typ:P|lang:en|wc:3|cs:8895|v=4,Ekta Overseas,https://www.indiamart.com/ektaoverseas-newdelhi/?pos=147&kwd=baby bottle sterilizer&tags=||||8752.144|Price|product|||TS|rsf:gd-|-stype:attr=1|qr_nm:gd|res:RC4|com-cf:nl|ptrs:na|ktp:N0|mc:192756|mtp:S|qry_typ:P|lang:en|wc:3|cs:8895|v=4,False,Shahdara,New Delhi,"1/95, Gali No.3, Near Navjeevan Phisical Center, Vishwas Nagar, Shahdara,, Shahdara, New Delhi - 110032, Dist.Delhi, Delhi",7942628926,
"Mom & Son Velvet Baby Bottle Cover, 1-2 Years",https://www.indiamart.com/proddetail/velvet-baby-bottle-cover-21888876748.html?pos=148&kwd=baby bottle sterilizer&tags=||||8752.144|Price|product|||TS|rsf:gd-|-stype:attr=1|qr_nm:gd|res:RC4|com-cf:nl|ptrs:na|ktp:N0|mc:192756|mtp:S|qry_typ:P|lang:en|wc:3|cs:8895|v=4,Mom & Son,https://www.theindianchoice.com/?pos=148&kwd=baby bottle sterilizer&tags=||||8752.144|Price|product|||TS|rsf:gd-|-stype:attr=1|qr_nm:gd|res:RC4|com-cf:nl|ptrs:na|ktp:N0|mc:192756|mtp:S|qry_typ:P|lang:en|wc:3|cs:8895|v=4,False,Karawal Nagar,New Delhi,"B-57 Gali Number-1 Mukund Vihar, Near Pnb Bank, Karawal Nagar, New Delhi - 110094, Dist.Delhi, Delhi",7942565509,
Chhote Janab Baby Elephant Face Feeding Bottle Cover,https://www.indiamart.com/proddetail/baby-elephant-face-feeding-bottle-cover-19619931973.html?pos=149&kwd=baby bottle sterilizer&tags=||||8752.144|Price|product|||TS|rsf:gd-|-stype:attr=1|qr_nm:gd|res:RC4|com-cf:nl|ptrs:na|ktp:N0|mc:192756|mtp:S|qry_typ:P|lang:en|wc:3|cs:8895|v=4,Shree Balaji Infant Wear,https://www.indiamart.com/chhotejanab/?pos=149&kwd=baby bottle sterilizer&tags=||||8752.144|Price|product|||TS|rsf:gd-|-stype:attr=1|qr_nm:gd|res:RC4|com-cf:nl|ptrs:na|ktp:N0|mc:192756|mtp:S|qry_typ:P|lang:en|wc:3|cs:8895|v=4,False,Pahari Dhiraj,New Delhi,"1583- 84, Hathi Khana, Aziz Ganj, Bahadur Garh Road, Pahari Dhiraj, New Delhi - 110006, Dist.Delhi, Delhi",8047639754,
"Cotton Printed Baby Bottle Cover Set, 3-12 Months",https://www.indiamart.com/proddetail/cotton-printed-baby-bottle-cover-set-22827236997.html?pos=150&kwd=baby bottle sterilizer&tags=||||8211.142|Price|product|||TS|rsf:gd-|-stype:attr=1|qr_nm:gd|res:RC4|com-cf:nl|ptrs:na|ktp:N0|mc:192756|mtp:S|qry_typ:P|lang:en|wc:3|cs:8895|v=4,Child King Creation,https://www.indiamart.com/childkingcreation-mumbai/?pos=150&kwd=baby bottle sterilizer&tags=||||8211.142|Price|product|||TS|rsf:gd-|-stype:attr=1|qr_nm:gd|res:RC4|com-cf:nl|ptrs:na|ktp:N0|mc:192756|mtp:S|qry_typ:P|lang:en|wc:3|cs:8895|v=4,False,Malad West,Mumbai,"B 705, Seven Floor, Jagmagia Centre, Mamlatdar Wadi EXTN Road Nahar Nagar, Malad West, Suburban, Malad West, Mumbai - 400064, Dist.Mumbai, Maharashtra",8043805922,
Red Silicon Chewing BAR Baby Teethers Feeders Soothers 100% Safe BPA Free,https://www.indiamart.com/proddetail/red-silicon-chewing-bar-baby-teethers-feeders-soothers-100-safe-bpa-free-2852714730255.html?pos=151&kwd=baby bottle sterilizer&tags=||||8778.123|Price|product|||TS|rsf:gd-|-stype:attr=1|qr_nm:gd|res:RC4|com-cf:nl|ptrs:na|ktp:N0|mc:192756|mtp:S|qry_typ:P|lang:en|wc:3|cs:8895|v=4,GM'S Speechgears Private Limited,https://www.indiamart.com/gmsspeechgears/?pos=151&kwd=baby bottle sterilizer&tags=||||8778.123|Price|product|||TS|rsf:gd-|-stype:attr=1|qr_nm:gd|res:RC4|com-cf:nl|ptrs:na|ktp:N0|mc:192756|mtp:S|qry_typ:P|lang:en|wc:3|cs:8895|v=4,False,Sector 65,Noida,"1st Floor, A-77, Sector-65, Gautambuddha Nagar, Sector 65, Noida - 201301, Dist.Gautam Budh Nagar, Uttar Pradesh",7942713454,
Capacity: 1000 mL ANGLE SIPPER BOTTLE,https://www.indiamart.com/proddetail/angle-sipper-bottle-2850570676848.html?pos=152&kwd=baby bottle sterilizer&tags=||||8228.275|Price|product|||TS|rsf:gd-|-stype:attr=1|qr_nm:gd|res:RC4|com-cf:nl|ptrs:na|ktp:N0|mc:192756|mtp:S|qry_typ:P|lang:en|wc:3|cs:8895|v=4,Mayur Plastics And Toys,https://www.mayurplasticproducts.com/?pos=152&kwd=baby bottle sterilizer&tags=||||8228.275|Price|product|||TS|rsf:gd-|-stype:attr=1|qr_nm:gd|res:RC4|com-cf:nl|ptrs:na|ktp:N0|mc:192756|mtp:S|qry_typ:P|lang:en|wc:3|cs:8895|v=4,False,Rajpur Hirpur,Ahmedabad,"479/2842, Gujarat Housing Board dengra, Rajpur Hirpur, Ahmedabad - 380023, Dist.Ahmedabad, Gujarat",8048964748,
"Feeding Bottles & Sippers, Stainless Steel 304 Grade, Best Quality & Lowest Price",https://www.indiamart.com/proddetail/feeding-bottles-sippers-stainless-steel-304-grade-best-quality-lowest-price-24525737773.html?pos=153&kwd=baby bottle sterilizer&tags=||||8954.051|Price|product|||TS|rsf:gd-|-stype:attr=1|qr_nm:gd|res:RC4|com-cf:nl|ptrs:na|ktp:N0|mc:192756|mtp:S|qry_typ:P|lang:en|wc:3|cs:8895|v=4,KA Plastic & Safety India,https://www.indiamart.com/kaplastic-safetyindia/?pos=153&kwd=baby bottle sterilizer&tags=||||8954.051|Price|product|||TS|rsf:gd-|-stype:attr=1|qr_nm:gd|res:RC4|com-cf:nl|ptrs:na|ktp:N0|mc:192756|mtp:S|qry_typ:P|lang:en|wc:3|cs:8895|v=4,False,Tondiarpet,Chennai,"No.98, SN Chetty Street , Kasimedu, Tondiarpet, Chennai - 600057, Dist.Chennai, Tamil Nadu",7942550416,
"Transparent Plastic Baby Fruit Feeder, Capacity: 50 mL, 1-2 Years",https://www.indiamart.com/proddetail/baby-fruit-feeder-2852986153812.html?pos=154&kwd=baby bottle sterilizer&tags=||||8752.144|Price|product|||TS|rsf:gd-|-stype:attr=1|qr_nm:gd|res:RC4|com-cf:nl|ptrs:na|ktp:N0|mc:192756|mtp:S|qry_typ:P|lang:en|wc:3|cs:8895|v=4,TUF & Fit,https://www.indiamart.com/tuf-fit/?pos=154&kwd=baby bottle sterilizer&tags=||||8752.144|Price|product|||TS|rsf:gd-|-stype:attr=1|qr_nm:gd|res:RC4|com-cf:nl|ptrs:na|ktp:N0|mc:192756|mtp:S|qry_typ:P|lang:en|wc:3|cs:8895|v=4,False,Shalimar Bagh,New Delhi,"badli extension. near Laxmi Dhar kanta, Shalimar Bagh, New Delhi - 110084, Dist.Delhi, Delhi",8048262266,
"Plastic FEEDER BOTTLE 150ML, Age Group: Newly Born",https://www.indiamart.com/proddetail/feeder-bottle-150ml-2854444843812.html?pos=155&kwd=baby bottle sterilizer&tags=||||8230.883|Price|product|||TS|rsf:gd-|-stype:attr=1|qr_nm:gd|res:RC4|com-cf:nl|ptrs:na|ktp:N0|mc:192756|mtp:S|qry_typ:P|lang:en|wc:3|cs:8895|v=4,Medilio Enterprise Private Limited,https://www.indiamart.com/mediloenterprise/?pos=155&kwd=baby bottle sterilizer&tags=||||8230.883|Price|product|||TS|rsf:gd-|-stype:attr=1|qr_nm:gd|res:RC4|com-cf:nl|ptrs:na|ktp:N0|mc:192756|mtp:S|qry_typ:P|lang:en|wc:3|cs:8895|v=4,False,Magob,Surat,"Shop No 428,417,418, 4th Floor Raghuvir Trade Center, Surat-Bardoli Road, Magob, Surat - 395010, Dist.Surat, Gujarat",7942822471,
Baby Fruit Feeder Pacifier,https://www.indiamart.com/proddetail/baby-fruit-feeder-pacifier-2850904609097.html?pos=156&kwd=baby bottle sterilizer&tags=||||8752.144|Price|product|||TS|rsf:gd-|-stype:attr=1|qr_nm:gd|res:RC4|com-cf:nl|ptrs:na|ktp:N0|mc:192756|mtp:S|qry_typ:P|lang:en|wc:3|cs:8895|v=4,Aman Impex,https://www.myamanimpex.com/?pos=156&kwd=baby bottle sterilizer&tags=||||8752.144|Price|product|||TS|rsf:gd-|-stype:attr=1|qr_nm:gd|res:RC4|com-cf:nl|ptrs:na|ktp:N0|mc:192756|mtp:S|qry_typ:P|lang:en|wc:3|cs:8895|v=4,False,Paschim Vihar,New Delhi,"Flat No. 681, S/F Janta Flats, Pocket-II, Paschim Puri, Paschim Vihar, New Delhi - 110063, Dist.Delhi, Delhi",8048600148,
Baby Bottle Cover,https://www.indiamart.com/proddetail/baby-bottle-cover-25672772255.html?pos=157&kwd=baby bottle sterilizer&tags=||||8741.812|Price|product|||MDC|rsf:gd-|-stype:attr=1|qr_nm:gd|res:RC4|com-cf:nl|ptrs:na|ktp:N0|mc:192756|mtp:S|qry_typ:P|lang:en|wc:3|cs:8895|v=4,Linen Design Company Private Limited,https://www.indiamart.com/linen-design-company/?pos=157&kwd=baby bottle sterilizer&tags=||||8741.812|Price|product|||MDC|rsf:gd-|-stype:attr=1|qr_nm:gd|res:RC4|com-cf:nl|ptrs:na|ktp:N0|mc:192756|mtp:S|qry_typ:P|lang:en|wc:3|cs:8895|v=4,False,Mohyal Colony,Gurgaon,"141-142-143, Mohyal Colony Opposite Sector 31, Mohyal Colony, Gurgaon - 122003, Dist.Gurgaon, Haryana",8046073097,
Baby Bottle Cover,https://www.indiamart.com/proddetail/baby-bottle-cover-2853107459255.html?pos=158&kwd=baby bottle sterilizer&tags=||||8706.508|Price|product|||MDC|rsf:gd-|-stype:attr=1|qr_nm:gd|res:RC4|com-cf:nl|ptrs:na|ktp:N0|mc:192756|mtp:S|qry_typ:P|lang:en|wc:3|cs:8895|v=4,Young Vision,https://www.indiamart.com/young-vision-rohtak/?pos=158&kwd=baby bottle sterilizer&tags=||||8706.508|Price|product|||MDC|rsf:gd-|-stype:attr=1|qr_nm:gd|res:RC4|com-cf:nl|ptrs:na|ktp:N0|mc:192756|mtp:S|qry_typ:P|lang:en|wc:3|cs:8895|v=4,False,Janta Colony,Rohtak,"949/31 Azad Nagar, Janta Colony, Rohtak - 124001, Dist.Rohtak, Haryana",8047688329,
"Baby Milk Bottle Cover, Capacity: 200 ML",https://www.indiamart.com/proddetail/baby-milk-bottle-cover-24910746097.html?pos=159&kwd=baby bottle sterilizer&tags=||||8954.051|Price|product|||MDC|rsf:gd-|-stype:attr=1|qr_nm:gd|res:RC4|com-cf:nl|ptrs:na|ktp:N0|mc:192756|mtp:S|qry_typ:P|lang:en|wc:3|cs:8895|v=4,Bismillah Creation,https://www.indiamart.com/bismillah-creationchennai/?pos=159&kwd=baby bottle sterilizer&tags=||||8954.051|Price|product|||MDC|rsf:gd-|-stype:attr=1|qr_nm:gd|res:RC4|com-cf:nl|ptrs:na|ktp:N0|mc:192756|mtp:S|qry_typ:P|lang:en|wc:3|cs:8895|v=4,False,Selaivayal,Chennai,"No-31/1, Na, Vedhantha Murugappa Street, Selavoyal, Vedhantha Murugappa Street, Selaivayal, Chennai - 600051, Dist.Chennai, Tamil Nadu",8047309398,
Baby Feeding Bottle Cover,https://www.indiamart.com/proddetail/baby-feeding-bottle-cover-2854493964512.html?pos=160&kwd=baby bottle sterilizer&tags=||||8954.051|Price|product|||MDC|rsf:gd-|-stype:attr=1|qr_nm:gd|res:RC4|com-cf:nl|ptrs:na|ktp:N0|mc:192756|mtp:S|qry_typ:P|lang:en|wc:3|cs:8895|v=4,Earthwise Collective Private Limited,https://www.indiamart.com/earthwise-collective/?pos=160&kwd=baby bottle sterilizer&tags=||||8954.051|Price|product|||MDC|rsf:gd-|-stype:attr=1|qr_nm:gd|res:RC4|com-cf:nl|ptrs:na|ktp:N0|mc:192756|mtp:S|qry_typ:P|lang:en|wc:3|cs:8895|v=4,False,,Chennai,"9/2, 35/2, Bagirathiammal Street, T Nagar,, Chennai - 600017, Dist.Chennai, Tamil Nadu",7942801118,
Pink Baby Bottle Cover,https://www.indiamart.com/proddetail/pink-baby-bottle-cover-2854160637488.html?pos=161&kwd=baby bottle sterilizer&tags=||||8693.162||product|||MDC|rsf:gd-|-stype:attr=1|qr_nm:gd|res:RC4|com-cf:nl|ptrs:na|ktp:N0|mc:192756|mtp:S|qry_typ:P|lang:en|wc:3|cs:8895|v=4,Dear Baby,https://www.indiamart.com/dearbaby/?pos=161&kwd=baby bottle sterilizer&tags=||||8693.162||product|||MDC|rsf:gd-|-stype:attr=1|qr_nm:gd|res:RC4|com-cf:nl|ptrs:na|ktp:N0|mc:192756|mtp:S|qry_typ:P|lang:en|wc:3|cs:8895|v=4,False,Begambur,Dindigul,"2nd Floor, No 7, Ahmad Appartment, S P Nagar, Begambur, Begambur, Dindigul - 624002, Dist.Dindigul, Tamil Nadu",8045731862,
Velvet Baby Feeding Bottle Cover,https://www.indiamart.com/proddetail/velvet-baby-feeding-bottle-cover-2854287431612.html?pos=162&kwd=baby bottle sterilizer&tags=||||8223.226|Price|product|||MDC|rsf:gd-|-stype:attr=1|qr_nm:gd|res:RC4|com-cf:nl|ptrs:na|ktp:N0|mc:192756|mtp:S|qry_typ:P|lang:en|wc:3|cs:8895|v=4,Royal Baby,https://www.indiamart.com/royal-baby-thane/?pos=162&kwd=baby bottle sterilizer&tags=||||8223.226|Price|product|||MDC|rsf:gd-|-stype:attr=1|qr_nm:gd|res:RC4|com-cf:nl|ptrs:na|ktp:N0|mc:192756|mtp:S|qry_typ:P|lang:en|wc:3|cs:8895|v=4,False,,Thane,"Ground Floor, Shop No. 03, Savitri Niwas Mumbai Pune Road, Amrutnagar, Sub Post Office, Mumbra, Thane - 400612, Dist.Thane, Maharashtra",8045734604,
Baby Infant Bottle Covers,https://www.indiamart.com/proddetail/baby-infant-bottle-covers-2855016951030.html?pos=163&kwd=baby bottle sterilizer&tags=||||8752.144|Price|product|||MDC|rsf:gd-|-stype:attr=1|qr_nm:gd|res:RC4|com-cf:nl|ptrs:na|ktp:N0|mc:192756|mtp:S|qry_typ:P|lang:en|wc:3|cs:8895|v=4,A.S.Enterprises,https://www.indiamart.com/a-senterprisesdelhi-india/?pos=163&kwd=baby bottle sterilizer&tags=||||8752.144|Price|product|||MDC|rsf:gd-|-stype:attr=1|qr_nm:gd|res:RC4|com-cf:nl|ptrs:na|ktp:N0|mc:192756|mtp:S|qry_typ:P|lang:en|wc:3|cs:8895|v=4,False,,New Delhi,"G F, 816, Pan Mandi, Near Press Street Sadar Bazar Area, Central Delhi, New Delhi - 110006, Dist.Delhi, Delhi",7942537259,
Baby Milk Bottle Cover,https://www.indiamart.com/proddetail/baby-milk-bottle-cover-2853993469773.html?pos=164&kwd=baby bottle sterilizer&tags=||||8752.144|Price|product|||MDC|rsf:gd-|-stype:attr=1|qr_nm:gd|res:RC4|com-cf:nl|ptrs:na|ktp:N0|mc:192756|mtp:S|qry_typ:P|lang:en|wc:3|cs:8895|v=4,A.D. Enterprises,https://www.indiamart.com/adenterprises-burari-newdelhi/?pos=164&kwd=baby bottle sterilizer&tags=||||8752.144|Price|product|||MDC|rsf:gd-|-stype:attr=1|qr_nm:gd|res:RC4|com-cf:nl|ptrs:na|ktp:N0|mc:192756|mtp:S|qry_typ:P|lang:en|wc:3|cs:8895|v=4,False,North,New Delhi,"K.No-12/1, Main 25 FT. Road, Near Shyam Sweets, Uttranchal Enclave ,Kamal Pur, Burari, North, New Delhi - 110084, Dist.Delhi, Delhi",8044565004,
Cotton Baby Bottle Cover,https://www.indiamart.com/proddetail/cotton-baby-bottle-cover-2854410237412.html?pos=165&kwd=baby bottle sterilizer&tags=||||9045.955|Price|product|||MDC|rsf:gd-|-stype:attr=1|qr_nm:gd|res:RC4|com-cf:nl|ptrs:na|ktp:N0|mc:192756|mtp:S|qry_typ:P|lang:en|wc:3|cs:8895|v=4,Kesharwani Caps & Gloves,https://www.indiamart.com/kesharwani-caps-gloves/?pos=165&kwd=baby bottle sterilizer&tags=||||9045.955|Price|product|||MDC|rsf:gd-|-stype:attr=1|qr_nm:gd|res:RC4|com-cf:nl|ptrs:na|ktp:N0|mc:192756|mtp:S|qry_typ:P|lang:en|wc:3|cs:8895|v=4,False,Meston Road,Kanpur,"33/80, Kesharwani Caps And Gloves, Topi Bazar, Chowk, Meston Road, Kanpur - 208001, Uttar Pradesh",7949336314,
Baby Milk Bottle Cover,https://www.indiamart.com/proddetail/baby-milk-bottle-cover-2850164874730.html?pos=166&kwd=baby bottle sterilizer&tags=||||8752.144|Price|product|||MDC|rsf:gd-|-stype:attr=1|qr_nm:gd|res:RC4|com-cf:nl|ptrs:na|ktp:N0|mc:192756|mtp:S|qry_typ:P|lang:en|wc:3|cs:8895|v=4,Kidz Creation,https://www.indiamart.com/kidzcreation/?pos=166&kwd=baby bottle sterilizer&tags=||||8752.144|Price|product|||MDC|rsf:gd-|-stype:attr=1|qr_nm:gd|res:RC4|com-cf:nl|ptrs:na|ktp:N0|mc:192756|mtp:S|qry_typ:P|lang:en|wc:3|cs:8895|v=4,False,,New Delhi,"Shop No. 279/517,Sabharwal Market, Tolia Wali Gali Sadar Bazar, North Delhi,, New Delhi - 110006, Dist.Delhi, Delhi",8047679212,
"Baby Bottle Printed Cover, Size/Dimension: 7inch (l), Capacity: 150ml",https://www.indiamart.com/proddetail/baby-bottle-printed-cover-2850650074273.html?pos=167&kwd=baby bottle sterilizer&tags=||||8752.144|Price|product|||MDC|rsf:gd-|-stype:attr=1|qr_nm:gd|res:RC4|com-cf:nl|ptrs:na|ktp:N0|mc:192756|mtp:S|qry_typ:P|lang:en|wc:3|cs:8895|v=4,L T Textiles,https://www.indiamart.com/lttextiles/?pos=167&kwd=baby bottle sterilizer&tags=||||8752.144|Price|product|||MDC|rsf:gd-|-stype:attr=1|qr_nm:gd|res:RC4|com-cf:nl|ptrs:na|ktp:N0|mc:192756|mtp:S|qry_typ:P|lang:en|wc:3|cs:8895|v=4,False,Pahari Dhiraj,New Delhi,"5189-90 Main Road, Sadar Bazar, Pahari Dhiraj, New Delhi - 110006, Dist.Delhi, Delhi",7942958455,
"Baby Feeding Bottle Cover, Capacity: 250ml",https://www.indiamart.com/proddetail/baby-feeding-bottle-cover-2851755433162.html?pos=168&kwd=baby bottle sterilizer&tags=||||8752.144|Price|product|||MDC|rsf:gd-|-stype:attr=1|qr_nm:gd|res:RC4|com-cf:nl|ptrs:na|ktp:N0|mc:192756|mtp:S|qry_typ:P|lang:en|wc:3|cs:8895|v=4,B-Qube Enterprises,https://www.indiamart.com/bqube-enterprises/?pos=168&kwd=baby bottle sterilizer&tags=||||8752.144|Price|product|||MDC|rsf:gd-|-stype:attr=1|qr_nm:gd|res:RC4|com-cf:nl|ptrs:na|ktp:N0|mc:192756|mtp:S|qry_typ:P|lang:en|wc:3|cs:8895|v=4,False,Karol Bagh,New Delhi,"303, Iiird Floor,13/4, W.E.A.,Karol Bagh, Karol Bagh, New Delhi - 110005, Dist.Delhi, Delhi",8047313183,
Cotton Printed Baby Bottle Cover,https://www.indiamart.com/proddetail/cotton-printed-baby-bottle-cover-2853514566855.html?pos=169&kwd=baby bottle sterilizer&tags=||||8307.81|Price|product|||MDC|rsf:gd-|-stype:attr=1|qr_nm:gd|res:RC4|com-cf:nl|ptrs:na|ktp:N0|mc:192756|mtp:S|qry_typ:P|lang:en|wc:3|cs:8895|v=4,Tabaria Baby Mall,https://www.indiamart.com/tabaria-baby-mallpune/?pos=169&kwd=baby bottle sterilizer&tags=||||8307.81|Price|product|||MDC|rsf:gd-|-stype:attr=1|qr_nm:gd|res:RC4|com-cf:nl|ptrs:na|ktp:N0|mc:192756|mtp:S|qry_typ:P|lang:en|wc:3|cs:8895|v=4,False,Raviwar Peth,Pune,"1088,Manish Market,Raviwar Peth, Raviwar Peth, Pune - 411002, Dist.Pune, Maharashtra",7949092418,
Silicone Baby Fresh Fruit Food Feeder/Pacifier / Nibbler,https://www.indiamart.com/proddetail/silicone-baby-fresh-fruit-food-feeder-pacifier-nibbler-2854404687512.html?pos=170&kwd=baby bottle sterilizer&tags=||||8752.144|Price|product|||MDC|rsf:gd-|-stype:attr=1|qr_nm:gd|res:RC4|com-cf:nl|ptrs:na|ktp:N0|mc:192756|mtp:S|qry_typ:P|lang:en|wc:3|cs:8895|v=4,JMC Enterprises,https://www.indiamart.com/jmc-enterprises-newdelhi/?pos=170&kwd=baby bottle sterilizer&tags=||||8752.144|Price|product|||MDC|rsf:gd-|-stype:attr=1|qr_nm:gd|res:RC4|com-cf:nl|ptrs:na|ktp:N0|mc:192756|mtp:S|qry_typ:P|lang:en|wc:3|cs:8895|v=4,False,,New Delhi,"H.No. A-49 Ph-1, Block-A, Harsukh Prem Nagar -1, North West Delhi, New Delhi - 110086, Dist.Delhi, Delhi",8045735053,
"Transparent Plastic Baby Medicine Feeder, Capacity: 50 mL",https://www.indiamart.com/proddetail/plastic-baby-medicine-feeder-2854324761948.html?pos=171&kwd=baby bottle sterilizer&tags=||||8785.791|Price|product|||MDC|rsf:gd-|-stype:attr=1|qr_nm:gd|res:RC4|com-cf:nl|ptrs:na|ktp:N0|mc:192756|mtp:S|qry_typ:P|lang:en|wc:3|cs:8895|v=4,Finestdeal,https://www.indiamart.com/finestdeal/?pos=171&kwd=baby bottle sterilizer&tags=||||8785.791|Price|product|||MDC|rsf:gd-|-stype:attr=1|qr_nm:gd|res:RC4|com-cf:nl|ptrs:na|ktp:N0|mc:192756|mtp:S|qry_typ:P|lang:en|wc:3|cs:8895|v=4,False,,Ghaziabad,"S1 1403 Cloud 9 Tower Vaishali, Ghaziabad - 201010, Dist.Ghaziabad, Uttar Pradesh",8045729976,
Silicone Silicon Fruit Baby Pacifier,https://www.indiamart.com/proddetail/silicon-fruit-baby-pacifier-2854104996197.html?pos=172&kwd=baby bottle sterilizer&tags=||||8038.093|Price|product|||MDC|rsf:gd-|-stype:attr=1|qr_nm:gd|res:RC4|com-cf:nl|ptrs:na|ktp:N0|mc:192756|mtp:S|qry_typ:P|lang:en|wc:3|cs:8895|v=4,Kemlin International,https://www.indiamart.com/kemlin-international/?pos=172&kwd=baby bottle sterilizer&tags=||||8038.093|Price|product|||MDC|rsf:gd-|-stype:attr=1|qr_nm:gd|res:RC4|com-cf:nl|ptrs:na|ktp:N0|mc:192756|mtp:S|qry_typ:P|lang:en|wc:3|cs:8895|v=4,False,Sant Bhojaram Society,Rajkot,"Shed No. 2, Plot No. 17, R.s. No. 264, Kothariya, Sant Bhojaram Society, Rajkot - 360002, Dist.Rajkot, Gujarat",8044560767,
"Metal Stainless Steel Baby Feeding Bottle, Capacity: 250 mL",https://www.indiamart.com/proddetail/stainless-steel-baby-feeding-bottle-2853468908712.html?pos=173&kwd=baby bottle sterilizer&tags=||||8752.144||product|||MDC|rsf:gd-|-stype:attr=1|qr_nm:gd|res:RC4|com-cf:nl|ptrs:na|ktp:N0|mc:192756|mtp:S|qry_typ:P|lang:en|wc:3|cs:8895|v=4,Prince And Princess,https://www.indiamart.com/prince-princess-delhi/?pos=173&kwd=baby bottle sterilizer&tags=||||8752.144||product|||MDC|rsf:gd-|-stype:attr=1|qr_nm:gd|res:RC4|com-cf:nl|ptrs:na|ktp:N0|mc:192756|mtp:S|qry_typ:P|lang:en|wc:3|cs:8895|v=4,False,Gulabi Bagh,New Delhi,"Ground Floor, Garage No - 74, Gulabi Bagh Road,, Gulabi Bagh, New Delhi - 110007, Dist.Delhi, Delhi",8047629125,
250ml Stainless Steel Feeding Bottle,https://www.indiamart.com/proddetail/250ml-stainless-steel-feeding-bottle-2854907726688.html?pos=174&kwd=baby bottle sterilizer&tags=||||8741.812|Price|product|||MDC|rsf:gd-|-stype:attr=1|qr_nm:gd|res:RC4|com-cf:nl|ptrs:na|ktp:N0|mc:192756|mtp:S|qry_typ:P|lang:en|wc:3|cs:8895|v=4,Meesha Enterprises,https://www.indiamart.com/meeshaenterprises-gurugram/?pos=174&kwd=baby bottle sterilizer&tags=||||8741.812|Price|product|||MDC|rsf:gd-|-stype:attr=1|qr_nm:gd|res:RC4|com-cf:nl|ptrs:na|ktp:N0|mc:192756|mtp:S|qry_typ:P|lang:en|wc:3|cs:8895|v=4,False,,Gurugram,"2nd, 2061A, C Block, Sushant Lok 1,, Gurugram - 122002, Dist.Gurgaon, Haryana",8041015150,
"200ml Budds Buddy Premium Stainless Steel 3 in 1 Feeding Bottle, Baby",https://www.indiamart.com/proddetail/200ml-budds-buddy-premium-stainless-steel-3-in-1-feeding-bottle-2854382533748.html?pos=175&kwd=baby bottle sterilizer&tags=||||9110.092|Price|product|||MDC|rsf:gd-|-stype:attr=1|qr_nm:gd|res:RC4|com-cf:nl|ptrs:na|ktp:N0|mc:192756|mtp:S|qry_typ:P|lang:en|wc:3|cs:8895|v=4,Jai Maa Laxmi Agency,https://www.indiamart.com/jaimaalaxmiagency/?pos=175&kwd=baby bottle sterilizer&tags=||||9110.092|Price|product|||MDC|rsf:gd-|-stype:attr=1|qr_nm:gd|res:RC4|com-cf:nl|ptrs:na|ktp:N0|mc:192756|mtp:S|qry_typ:P|lang:en|wc:3|cs:8895|v=4,False,,Lucknow,"E-2468,Rajajipuram,Near Rupam Tailor,, Lucknow - 226017, Dist.Lucknow, Uttar Pradesh",7949339166,
Baby Bottle Cover,https://www.indiamart.com/proddetail/baby-bottle-cover-2853867068897.html?pos=176&kwd=baby bottle sterilizer&tags=||||8752.144|Price|product|||MDC|rsf:gd-|-stype:attr=1|qr_nm:gd|res:RC4|com-cf:nl|ptrs:na|ktp:N0|mc:192756|mtp:S|qry_typ:P|lang:en|wc:3|cs:8895|v=4,Shopindia,https://www.indiamart.com/shopindia-delhi/?pos=176&kwd=baby bottle sterilizer&tags=||||8752.144|Price|product|||MDC|rsf:gd-|-stype:attr=1|qr_nm:gd|res:RC4|com-cf:nl|ptrs:na|ktp:N0|mc:192756|mtp:S|qry_typ:P|lang:en|wc:3|cs:8895|v=4,False,Khyala,New Delhi,"F/F, RZ-129 Old No.RZ-57, West Block, Vishnu Garden, Khyala, New Delhi - 110018, Dist.Delhi, Delhi",8047832403,
Silicone Synthetic Baby Nipple Shield,https://www.indiamart.com/proddetail/synthetic-baby-nipple-shield-2854721717412.html?pos=177&kwd=baby bottle sterilizer&tags=||||8752.144|Price|product|||MDC|rsf:gd-|-stype:attr=1|qr_nm:gd|res:RC4|com-cf:nl|ptrs:na|ktp:N0|mc:192756|mtp:S|qry_typ:P|lang:en|wc:3|cs:8895|v=4,Rachna Enterprises,https://www.indiamart.com/rachnaenterprisesnewdelhi/?pos=177&kwd=baby bottle sterilizer&tags=||||8752.144|Price|product|||MDC|rsf:gd-|-stype:attr=1|qr_nm:gd|res:RC4|com-cf:nl|ptrs:na|ktp:N0|mc:192756|mtp:S|qry_typ:P|lang:en|wc:3|cs:8895|v=4,False,West Delhi,New Delhi,"Ground Floor, House No. RZ-123, Vishwas Park Main Road, T-Extn., Uttam Nagar, West Delhi, New Delhi - 110059, Dist.Delhi, Delhi",8041011216,
Ardo Nipple Sheild Large (2 Pcs),https://www.indiamart.com/proddetail/ardo-nipple-sheild-large-2-pcs-25419323473.html?pos=178&kwd=baby bottle sterilizer&tags=||||8307.81|Price|product|||MDC|rsf:gd-|-stype:attr=1|qr_nm:gd|res:RC4|com-cf:nl|ptrs:na|ktp:N0|mc:192756|mtp:S|qry_typ:P|lang:en|wc:3|cs:8895|v=4,Sleep Solutions,https://www.indiamart.com/sleepsolutionspune/?pos=178&kwd=baby bottle sterilizer&tags=||||8307.81|Price|product|||MDC|rsf:gd-|-stype:attr=1|qr_nm:gd|res:RC4|com-cf:nl|ptrs:na|ktp:N0|mc:192756|mtp:S|qry_typ:P|lang:en|wc:3|cs:8895|v=4,False,Fatima Nagar,Pune,"SHOP NO.17 LEGEND PRESTIGE BEHIND CROMA CENTER BT KAWADE RD BEHIND BUS STOP PUNE, Fatima Nagar, Pune - 411040, Dist.Pune, Maharashtra",8048271036,
"Blue Plastic Baby Fruit Feeder, Capacity: 100 mL",https://www.indiamart.com/proddetail/baby-fruit-feeder-2853670432773.html?pos=179&kwd=baby bottle sterilizer&tags=||||8663.873|Price|product|||MDC|rsf:gd-|-stype:attr=1|qr_nm:gd|res:RC4|com-cf:nl|ptrs:na|ktp:N0|mc:192756|mtp:S|qry_typ:P|lang:en|wc:3|cs:8895|v=4,Nipika Vrapped Gifting,https://www.indiamart.com/nipika-vrapped-gifting/?pos=179&kwd=baby bottle sterilizer&tags=||||8663.873|Price|product|||MDC|rsf:gd-|-stype:attr=1|qr_nm:gd|res:RC4|com-cf:nl|ptrs:na|ktp:N0|mc:192756|mtp:S|qry_typ:P|lang:en|wc:3|cs:8895|v=4,False,Bengaluru Urban,Bengaluru,"9/1, 23rd Cross Road, Magadi Road, KP Agrahara, Bengaluru Urban, Bengaluru - 560023, Dist.Bengaluru, Karnataka",7949328723,
Baby Pacifier Silicone Fresh Fruit Teether,https://www.indiamart.com/proddetail/baby-pacifier-silicone-fresh-fruit-teether-2854957104812.html?pos=180&kwd=baby bottle sterilizer&tags=||||8752.144|Price|product|||MDC|rsf:gd-|-stype:attr=1|qr_nm:gd|res:RC4|com-cf:nl|ptrs:na|ktp:N0|mc:192756|mtp:S|qry_typ:P|lang:en|wc:3|cs:8895|v=4,Yami Enterprises,https://www.indiamart.com/yamienterprises/?pos=180&kwd=baby bottle sterilizer&tags=||||8752.144|Price|product|||MDC|rsf:gd-|-stype:attr=1|qr_nm:gd|res:RC4|com-cf:nl|ptrs:na|ktp:N0|mc:192756|mtp:S|qry_typ:P|lang:en|wc:3|cs:8895|v=4,False,,New Delhi,"B-85, Prem Nagar 2, Kirari Suleman Nagar, North West Delhi, New Delhi - 110086, Dist.Delhi, Delhi",8045734447,
"Newborn Baby Bottle Cover, 240 ml size",https://www.indiamart.com/proddetail/newborn-baby-bottle-cover-240-ml-size-2852544605791.html?pos=181&kwd=baby bottle sterilizer&tags=||||8752.144|Price|product|||MDC|rsf:gd-|-stype:attr=1|qr_nm:gd|res:RC4|com-cf:nl|ptrs:na|ktp:N0|mc:192756|mtp:S|qry_typ:P|lang:en|wc:3|cs:8895|v=4,B N Hosiery,https://www.indiamart.com/bnhosiery/?pos=181&kwd=baby bottle sterilizer&tags=||||8752.144|Price|product|||MDC|rsf:gd-|-stype:attr=1|qr_nm:gd|res:RC4|com-cf:nl|ptrs:na|ktp:N0|mc:192756|mtp:S|qry_typ:P|lang:en|wc:3|cs:8895|v=4,False,Ashok Vihar,New Delhi,"House No 130l, Block-E, Phase-1,Ashok, Vihar, Ashok Vihar, New Delhi - 110052, Dist.Delhi, Delhi",7942706809,
Feeding Bottle Cover,https://www.indiamart.com/proddetail/feeding-bottle-cover-20704308033.html?pos=182&kwd=baby bottle sterilizer&tags=||||8559.269|Price|product|||TS|rsf:gd-|-stype:attr=1|qr_nm:gd|res:RC4|com-cf:nl|ptrs:na|ktp:N0|mc:192756|mtp:S|qry_typ:P|lang:en|wc:3|cs:8895|v=4,Daga Impex,https://www.dagaimpex.co.in/?pos=182&kwd=baby bottle sterilizer&tags=||||8559.269|Price|product|||TS|rsf:gd-|-stype:attr=1|qr_nm:gd|res:RC4|com-cf:nl|ptrs:na|ktp:N0|mc:192756|mtp:S|qry_typ:P|lang:en|wc:3|cs:8895|v=4,False,Rajwada,Indore,"No. 214, Tilak Path, Near Maruti Hanuman Mandir, Rajwada, Indore - 452007, Dist.Indore, Madhya Pradesh",8046030945,
Feeding Bottle Cover,https://www.indiamart.com/proddetail/feeding-bottle-cover-15686416012.html?pos=183&kwd=baby bottle sterilizer&tags=||||8211.142|Price|product|||TS|rsf:gd-|-stype:attr=1|qr_nm:gd|res:RC4|com-cf:nl|ptrs:na|ktp:N0|mc:192756|mtp:S|qry_typ:P|lang:en|wc:3|cs:8895|v=4,Computech India,https://www.computechindia.net/?pos=183&kwd=baby bottle sterilizer&tags=||||8211.142|Price|product|||TS|rsf:gd-|-stype:attr=1|qr_nm:gd|res:RC4|com-cf:nl|ptrs:na|ktp:N0|mc:192756|mtp:S|qry_typ:P|lang:en|wc:3|cs:8895|v=4,False,Goregaon,Mumbai,"No. 230, Aashirwad Industrial Estate, No. 5, Ram Mandir Road, Goregaon West, Goregaon, Mumbai - 400104, Dist.Mumbai, Maharashtra",7942553619,
COTTON BOTTLE COVER,https://www.indiamart.com/proddetail/cotton-bottle-cover-2854216039962.html?pos=184&kwd=baby bottle sterilizer&tags=||||8601.347|Price|product|||TS|rsf:gd-|-stype:attr=1|qr_nm:gd|res:RC4|com-cf:nl|ptrs:na|ktp:N0|mc:192756|mtp:S|qry_typ:P|lang:en|wc:3|cs:8895|v=4,Lucky Handicraft,https://www.luckyhandicraft.in/?pos=184&kwd=baby bottle sterilizer&tags=||||8601.347|Price|product|||TS|rsf:gd-|-stype:attr=1|qr_nm:gd|res:RC4|com-cf:nl|ptrs:na|ktp:N0|mc:192756|mtp:S|qry_typ:P|lang:en|wc:3|cs:8895|v=4,False,Govind Nagar,Jaipur,"190, Govind Nagar East, Amer Road, Govind Nagar, Jaipur - 302002, Dist.Jaipur, Rajasthan",8046067577,
Autoclavable Bottle Trays,https://www.indiamart.com/proddetail/autoclavable-bottle-trays-1844217230.html?pos=185&kwd=baby bottle sterilizer&tags=||||8307.81|Price|product|||TS|rsf:gd-|-stype:attr=1|qr_nm:gd|res:RC4|com-cf:nl|ptrs:na|ktp:N0|mc:192756|mtp:S|qry_typ:P|lang:en|wc:3|cs:8895|v=4,R. J. Industries,https://www.rjindustries.co.in/?pos=185&kwd=baby bottle sterilizer&tags=||||8307.81|Price|product|||TS|rsf:gd-|-stype:attr=1|qr_nm:gd|res:RC4|com-cf:nl|ptrs:na|ktp:N0|mc:192756|mtp:S|qry_typ:P|lang:en|wc:3|cs:8895|v=4,False,Ravet,Pune,"H303, Celestial City, Phase 1, Ravet, Pune - 412101, Dist.Pune, Maharashtra",8047639131,
"Pink And Transparent Plastic Baby Bottle, Capacity: 225 ml, Newly Born",https://www.indiamart.com/proddetail/baby-bottle-20767341491.html?pos=186&kwd=baby bottle sterilizer&tags=||||8211.906|Price|product|||TS|rsf:gd-|-stype:attr=1|qr_nm:gd|res:RC4|com-cf:nl|ptrs:na|ktp:N0|mc:192756|mtp:S|qry_typ:P|lang:en|wc:3|cs:8895|v=4,Punamiya Exim Private Limited,https://www.punamiyaexim.co.in/?pos=186&kwd=baby bottle sterilizer&tags=||||8211.906|Price|product|||TS|rsf:gd-|-stype:attr=1|qr_nm:gd|res:RC4|com-cf:nl|ptrs:na|ktp:N0|mc:192756|mtp:S|qry_typ:P|lang:en|wc:3|cs:8895|v=4,False,Umargam,Umargam,"Near To Sonal Plastic, Plot No 828 A GIDC, Plot No 828 A GIDC, Umbergaon Station Road, GIDC, Umargam, Umargam - 396171, Dist.Valsad, Gujarat",8048976705,
"Jute Bottle Cover, Capacity: Standard",https://www.indiamart.com/proddetail/jute-bottle-cover-25563450533.html?pos=187&kwd=baby bottle sterilizer&tags=||||8752.144|Price|product|||MDC|rsf:gd-|-stype:attr=1|qr_nm:gd|res:RC4|com-cf:nl|ptrs:na|ktp:N0|mc:192756|mtp:S|qry_typ:P|lang:en|wc:3|cs:8895|v=4,Jaggi Bag Store,https://www.indiamart.com/jaggibagstore/?pos=187&kwd=baby bottle sterilizer&tags=||||8752.144|Price|product|||MDC|rsf:gd-|-stype:attr=1|qr_nm:gd|res:RC4|com-cf:nl|ptrs:na|ktp:N0|mc:192756|mtp:S|qry_typ:P|lang:en|wc:3|cs:8895|v=4,False,Nabi Karim,New Delhi,"6009, Gali Satnaryan Mandir Nabi Karim Central Delhi, Nabi Karim, New Delhi - 110055, Dist.Delhi, Delhi",7942563521,
"Printed Glass Baby Feeding Bottle, 3-12 Months",https://www.indiamart.com/proddetail/printed-glass-baby-feeding-bottle-23215958162.html?pos=188&kwd=baby bottle sterilizer&tags=||||8545.6045|Price|product|||MDC|rsf:gd-|-stype:attr=1|qr_nm:gd|res:RC4|com-cf:nl|ptrs:na|ktp:N0|mc:192756|mtp:S|qry_typ:P|lang:en|wc:3|cs:8895|v=4,Shri Siddhivinayak Traders,https://www.indiamart.com/shrisiddhivinayaktraders-firozpur/?pos=188&kwd=baby bottle sterilizer&tags=||||8545.6045|Price|product|||MDC|rsf:gd-|-stype:attr=1|qr_nm:gd|res:RC4|com-cf:nl|ptrs:na|ktp:N0|mc:192756|mtp:S|qry_typ:P|lang:en|wc:3|cs:8895|v=4,False,Basti Nizamdin,Firozpur,"No.94, Anand Avenue, Backside Marked Office, Malwal Road, Firozpur City, Basti Nizamdin, Firozpur - 152002, Dist.Firozpur, Punjab",8046066644,
5 Piece Baby Feeder Cover Set,https://www.indiamart.com/proddetail/5-piece-baby-feeder-cover-set-24001290712.html?pos=189&kwd=baby bottle sterilizer&tags=||||8785.791|Price|product|||MDC|rsf:gd-|-stype:attr=1|qr_nm:gd|res:RC4|com-cf:nl|ptrs:na|ktp:N0|mc:192756|mtp:S|qry_typ:P|lang:en|wc:3|cs:8895|v=4,Navjal Enterprises,https://www.indiamart.com/navjal-enterprises/?pos=189&kwd=baby bottle sterilizer&tags=||||8785.791|Price|product|||MDC|rsf:gd-|-stype:attr=1|qr_nm:gd|res:RC4|com-cf:nl|ptrs:na|ktp:N0|mc:192756|mtp:S|qry_typ:P|lang:en|wc:3|cs:8895|v=4,False,Loni,Ghaziabad,"Plot No. F-30, Khasra No. 250, Ram Park, Dye House, Pargana, Loni, Lutfulapur Navada, Loni, Ghaziabad - 201102, Dist.Ghaziabad, Uttar Pradesh",8043878298,
"Green Disney Baby Bottle, Age Group: 1-2 Years, Size: 600",https://www.indiamart.com/proddetail/disney-baby-bottle-26311358562.html?pos=190&kwd=baby bottle sterilizer&tags=||||8228.275|Price|product|||TS|rsf:gd-|-stype:attr=1|qr_nm:gd|res:RC4|com-cf:nl|ptrs:na|ktp:N0|mc:192756|mtp:S|qry_typ:P|lang:en|wc:3|cs:8895|v=4,Gopinath Plast,https://www.gopinathplastic.com/?pos=190&kwd=baby bottle sterilizer&tags=||||8228.275|Price|product|||TS|rsf:gd-|-stype:attr=1|qr_nm:gd|res:RC4|com-cf:nl|ptrs:na|ktp:N0|mc:192756|mtp:S|qry_typ:P|lang:en|wc:3|cs:8895|v=4,False,Odhav,Ahmedabad,"A-19, Gopal Estate, Opposite Valabh Nagar, Odhav, Ahmedabad - 382415, Dist.Ahmedabad, Gujarat",8046079187,
"Dispenser Pump Hdpe Baby Bath Bottle, Use For Storage: Shampoo, 250 Ml",https://www.indiamart.com/proddetail/baby-bath-bottle-24971574733.html?pos=191&kwd=baby bottle sterilizer&tags=||||8752.144|Price|product|||TS|rsf:gd-|-stype:attr=1|qr_nm:gd|res:RC4|com-cf:nl|ptrs:na|ktp:N0|mc:192756|mtp:S|qry_typ:P|lang:en|wc:3|cs:8895|v=4,Vishwakarma Industries,https://www.indiamart.com/vishwakarma-industries-delhi/?pos=191&kwd=baby bottle sterilizer&tags=||||8752.144|Price|product|||TS|rsf:gd-|-stype:attr=1|qr_nm:gd|res:RC4|com-cf:nl|ptrs:na|ktp:N0|mc:192756|mtp:S|qry_typ:P|lang:en|wc:3|cs:8895|v=4,False,Badli,New Delhi,"Khasra No-43/36, Badli Village, Near Valmiki Temple,, Badli, New Delhi - 110042, Dist.Delhi, Delhi",8048601396,
"White Rectangular PP Autoclavable Bottle Tray, For Laboratory",https://www.indiamart.com/proddetail/pp-autoclavable-bottle-tray-25130336230.html?pos=192&kwd=baby bottle sterilizer&tags=||||8663.873|Price|product|||MDC|rsf:gd-|-stype:attr=1|qr_nm:gd|res:RC4|com-cf:nl|ptrs:na|ktp:N0|mc:192756|mtp:S|qry_typ:P|lang:en|wc:3|cs:8895|v=4,B S Equipments,https://www.indiamart.com/b-sequipments/?pos=192&kwd=baby bottle sterilizer&tags=||||8663.873|Price|product|||MDC|rsf:gd-|-stype:attr=1|qr_nm:gd|res:RC4|com-cf:nl|ptrs:na|ktp:N0|mc:192756|mtp:S|qry_typ:P|lang:en|wc:3|cs:8895|v=4,False,Srirampuram Bengaluru Urban,Bengaluru,"No. 6/3, 2nd Cross, Pillamma Block,, Srirampuram Bengaluru Urban, Bengaluru - 560021, Dist.Bengaluru, Karnataka",8047308102,
"Plastic Transparent Baby Zain Feeding Bottle, 1-2 Years, Size: 250ml",https://www.indiamart.com/proddetail/baby-zain-feeding-bottle-21013661830.html?pos=193&kwd=baby bottle sterilizer&tags=||||8786.56|Price|product|||TS|rsf:gd-|-stype:attr=1|qr_nm:gd|res:RC4|com-cf:nl|ptrs:na|ktp:N0|mc:192756|mtp:S|qry_typ:P|lang:en|wc:3|cs:8895|v=4,Rajadhani Enterprises,https://www.rajadhanienterprises.in/?pos=193&kwd=baby bottle sterilizer&tags=||||8786.56|Price|product|||TS|rsf:gd-|-stype:attr=1|qr_nm:gd|res:RC4|com-cf:nl|ptrs:na|ktp:N0|mc:192756|mtp:S|qry_typ:P|lang:en|wc:3|cs:8895|v=4,False,Begum Bazar Pathan Wadi,Hyderabad,"15-6-588/1G, Agarwal Market, Siddiamber Bazar Satyanarayan Enclaves, Gol Masjid, Begum Bazar Pathan Wadi, Hyderabad - 500012, Dist.Hyderabad, Telangana",8047635606,
"Plastic NICE KIDS BOTTLE, Capacity: 500 mL",https://www.indiamart.com/proddetail/nice-kids-bottle-2854404322462.html?pos=194&kwd=baby bottle sterilizer&tags=||||8230.883|Price|product|||TS|rsf:gd-|-stype:attr=1|qr_nm:gd|res:RC4|com-cf:nl|ptrs:na|ktp:N0|mc:192756|mtp:S|qry_typ:P|lang:en|wc:3|cs:8895|v=4,Isabella (A Brand Of Shayona Creation),https://www.srkmart.com/?pos=194&kwd=baby bottle sterilizer&tags=||||8230.883|Price|product|||TS|rsf:gd-|-stype:attr=1|qr_nm:gd|res:RC4|com-cf:nl|ptrs:na|ktp:N0|mc:192756|mtp:S|qry_typ:P|lang:en|wc:3|cs:8895|v=4,False,Utran,Surat,"208, Turning Point Near Bank Of Baroda Bank, Utran, Surat - 394105, Dist.Surat, Gujarat",8046057635,
Born Baby Shipper Bottle,https://www.indiamart.com/proddetail/born-baby-shipper-bottle-2853067056055.html?pos=195&kwd=baby bottle sterilizer&tags=||||8038.093|Price|product|||TS|rsf:gd-|-stype:attr=1|qr_nm:gd|res:RC4|com-cf:nl|ptrs:na|ktp:N0|mc:192756|mtp:S|qry_typ:P|lang:en|wc:3|cs:8895|v=4,N K Enterprise,https://www.indiamart.com/nkenterpriseindia/?pos=195&kwd=baby bottle sterilizer&tags=||||8038.093|Price|product|||TS|rsf:gd-|-stype:attr=1|qr_nm:gd|res:RC4|com-cf:nl|ptrs:na|ktp:N0|mc:192756|mtp:S|qry_typ:P|lang:en|wc:3|cs:8895|v=4,False,Vavdi,Rajkot,"B/H Krishna Park, Jivraj Industrial Area 2,Revenue Survey No.47 Plot No.17, Vavdi Main Road, Gondal Road, Vavdi, Rajkot - 360004, Dist.Rajkot, Gujarat",7942722569,
"Plastic PEACH BABY SIPPER BOTTLE, Packaging Type: Box, 3-12 Months",https://www.indiamart.com/proddetail/peach-baby-sipper-bottle-2852116721288.html?pos=196&kwd=baby bottle sterilizer&tags=||||8663.873|Price|product|||TS|rsf:gd-|-stype:attr=1|qr_nm:gd|res:RC4|com-cf:nl|ptrs:na|ktp:N0|mc:192756|mtp:S|qry_typ:P|lang:en|wc:3|cs:8895|v=4,Ratnaakar Impex,https://www.indiamart.com/ratnaakarimpex/?pos=196&kwd=baby bottle sterilizer&tags=||||8663.873|Price|product|||TS|rsf:gd-|-stype:attr=1|qr_nm:gd|res:RC4|com-cf:nl|ptrs:na|ktp:N0|mc:192756|mtp:S|qry_typ:P|lang:en|wc:3|cs:8895|v=4,False,Dharmarayaswamy Temple Street,Bengaluru,"6th Floor, No.6/2, Shop-1, Luciya City Center,Next To Sharada Talkies, OTC Road, Dharmarayaswamy Temple Street, Bengaluru - 560002, Dist.Bengaluru, Karnataka",7942843226,
Baby Glass Feeder Bottle,https://www.indiamart.com/proddetail/baby-glass-feeder-bottle-2853899066755.html?pos=197&kwd=baby bottle sterilizer&tags=||||8746.929|Price|product|||TS|rsf:gd-|-stype:attr=1|qr_nm:gd|res:RC4|com-cf:nl|ptrs:na|ktp:N0|mc:192756|mtp:S|qry_typ:P|lang:en|wc:3|cs:8895|v=4,Growson Healthcare,https://www.indiamart.com/growson-healthcare/?pos=197&kwd=baby bottle sterilizer&tags=||||8746.929|Price|product|||TS|rsf:gd-|-stype:attr=1|qr_nm:gd|res:RC4|com-cf:nl|ptrs:na|ktp:N0|mc:192756|mtp:S|qry_typ:P|lang:en|wc:3|cs:8895|v=4,False,Manimajra,Chandigarh,"Building No. 36/5, 2nd Floor, PWT, Manimajra, Chandigarh - 160101, Chandigarh",8047643425,
"Mom & Son Velvet Baby Bottle Cover, 1-2 Years",https://www.indiamart.com/proddetail/velvet-baby-bottle-cover-21888876748.html?pos=198&kwd=baby bottle sterilizer&tags=||||8752.144|Price|product|||TS|rsf:gd-|-stype:attr=1|qr_nm:gd|res:RC4|com-cf:nl|ptrs:na|ktp:N0|mc:192756|mtp:S|qry_typ:P|lang:en|wc:3|cs:8895|v=4,Mom & Son,https://www.theindianchoice.com/?pos=198&kwd=baby bottle sterilizer&tags=||||8752.144|Price|product|||TS|rsf:gd-|-stype:attr=1|qr_nm:gd|res:RC4|com-cf:nl|ptrs:na|ktp:N0|mc:192756|mtp:S|qry_typ:P|lang:en|wc:3|cs:8895|v=4,False,Karawal Nagar,New Delhi,"B-57 Gali Number-1 Mukund Vihar, Near Pnb Bank, Karawal Nagar, New Delhi - 110094, Dist.Delhi, Delhi",7942565509,
"PINK & BLUE Baby Shower Bottle medium, Age Group: Newly Born",https://www.indiamart.com/proddetail/baby-shower-bottle-medium-13036115133.html?pos=199&kwd=baby bottle sterilizer&tags=||||8211.142|Price|product|||TS|rsf:gd-|-stype:attr=1|qr_nm:gd|res:RC4|com-cf:nl|ptrs:na|ktp:N0|mc:192756|mtp:S|qry_typ:P|lang:en|wc:3|cs:8895|v=4,Party Shop,https://www.partyshops.in/?pos=199&kwd=baby bottle sterilizer&tags=||||8211.142|Price|product|||TS|rsf:gd-|-stype:attr=1|qr_nm:gd|res:RC4|com-cf:nl|ptrs:na|ktp:N0|mc:192756|mtp:S|qry_typ:P|lang:en|wc:3|cs:8895|v=4,False,Mandvi,Mumbai,"1st Floor, Umrigar Building, Above Badshah Cold Drink, Mandvi, Mumbai - 400003, Dist.Mumbai, Maharashtra",8046061811,
Maxfresh 304 Stainless Steel Baby Feeding Bottle Feeding Bottle for Baby BPA Free Bottle,https://www.indiamart.com/proddetail/maxfresh-304-stainless-steel-baby-feeding-bottle-feeding-bottle-for-baby-bpa-free-bottle-2852785444773.html?pos=200&kwd=baby bottle sterilizer&tags=||||8211.142|Price|product|||TS|rsf:gd-|-stype:attr=1|qr_nm:gd|res:RC4|com-cf:nl|ptrs:na|ktp:N0|mc:192756|mtp:S|qry_typ:P|lang:en|wc:3|cs:8895|v=4,Shree Vallabh Metals,https://www.shreevallabhmetals.in/?pos=200&kwd=baby bottle sterilizer&tags=||||8211.142|Price|product|||TS|rsf:gd-|-stype:attr=1|qr_nm:gd|res:RC4|com-cf:nl|ptrs:na|ktp:N0|mc:192756|mtp:S|qry_typ:P|lang:en|wc:3|cs:8895|v=4,True,Bhayandar East,Mumbai,"Gala No.8, H.P. Gas Godown Gali, Opposite Old Syndicate Bank, Bhayandar East, Mumbai - 401105, Dist.Mumbai, Maharashtra",8047623277,
Stainless Steel Baby Feeding Bottle,https://www.indiamart.com/proddetail/stainless-steel-baby-feeding-bottle-2853641928188.html?pos=201&kwd=baby bottle sterilizer&tags=||||8752.144|Price|product|||TS|rsf:gd-|-stype:attr=1|qr_nm:gd|res:RC4|com-cf:nl|ptrs:na|ktp:N0|mc:192756|mtp:S|qry_typ:P|lang:en|wc:3|cs:8895|v=4,Spills,https://www.indiamart.com/spills/?pos=201&kwd=baby bottle sterilizer&tags=||||8752.144|Price|product|||TS|rsf:gd-|-stype:attr=1|qr_nm:gd|res:RC4|com-cf:nl|ptrs:na|ktp:N0|mc:192756|mtp:S|qry_typ:P|lang:en|wc:3|cs:8895|v=4,False,Pahar Ganj,New Delhi,"1st Floor 2205/4 Pahar Ganj, Pahar Ganj, New Delhi - 110055, Dist.Delhi, Delhi",8047547921,
"Metal Baby Stainless Steel Feeding Bottle 250ML, Design/Pattern: Plain, 3-12 Months",https://www.indiamart.com/proddetail/baby-stainless-steel-feeding-bottle-250ml-26854877091.html?pos=202&kwd=baby bottle sterilizer&tags=||||8752.144|Price|product|||TS|rsf:gd-|-stype:attr=1|qr_nm:gd|res:RC4|com-cf:nl|ptrs:na|ktp:N0|mc:192756|mtp:S|qry_typ:P|lang:en|wc:3|cs:8895|v=4,Shri Shyam Enterprises,https://www.indiamart.com/shrishyamenterprisesnewdelhi/?pos=202&kwd=baby bottle sterilizer&tags=||||8752.144|Price|product|||TS|rsf:gd-|-stype:attr=1|qr_nm:gd|res:RC4|com-cf:nl|ptrs:na|ktp:N0|mc:192756|mtp:S|qry_typ:P|lang:en|wc:3|cs:8895|v=4,False,Tajpur Kalan,New Delhi,"House No.392, First Floor, Village Tajpur Kalan, North Delhi, Tajpur Kalan, New Delhi - 110036, Dist.Delhi, Delhi",8048212783,
"Kneaders Stainless Steel Baby Feeding Bottle, Capacity: 200 Ml, Size: 6 X 6 X 18 Cm",https://www.indiamart.com/proddetail/stainless-steel-baby-feeding-bottle-23187632155.html?pos=203&kwd=baby bottle sterilizer&tags=||||8223.226|Price|product|||TS|rsf:gd-|-stype:attr=1|qr_nm:gd|res:RC4|com-cf:nl|ptrs:na|ktp:N0|mc:192756|mtp:S|qry_typ:P|lang:en|wc:3|cs:8895|v=4,Tim Engineering,https://www.indiamart.com/timengineering-thane/?pos=203&kwd=baby bottle sterilizer&tags=||||8223.226|Price|product|||TS|rsf:gd-|-stype:attr=1|qr_nm:gd|res:RC4|com-cf:nl|ptrs:na|ktp:N0|mc:192756|mtp:S|qry_typ:P|lang:en|wc:3|cs:8895|v=4,False,Bhayandar West,Thane,"I-24, Swastik Ind.estate , Goddev Fatak Road, Bhayandar West, Thane - 401101, Dist.Thane, Maharashtra",8048954305,
"White Bonne Kid Plastic Baby Bottle, Age Group: 3-12 Months, Capacity: 160ml",https://www.indiamart.com/proddetail/bonne-kid-plastic-baby-bottle-26229713430.html?pos=204&kwd=baby bottle sterilizer&tags=||||8559.269||product|||TS|rsf:gd-|-stype:attr=1|qr_nm:gd|res:RC4|com-cf:nl|ptrs:na|ktp:N0|mc:192756|mtp:S|qry_typ:P|lang:en|wc:3|cs:8895|v=4,Subhash Stores,https://www.indiamart.com/subhash-stores/?pos=204&kwd=baby bottle sterilizer&tags=||||8559.269||product|||TS|rsf:gd-|-stype:attr=1|qr_nm:gd|res:RC4|com-cf:nl|ptrs:na|ktp:N0|mc:192756|mtp:S|qry_typ:P|lang:en|wc:3|cs:8895|v=4,False,Gadi Adda,Indore,"77, RANIPURA MAIN ROAD INDORE, Gadi Adda, Indore - 452001, Dist.Indore, Madhya Pradesh",8047698960,
Steel Baby Feeding Bottle 150ml,https://www.indiamart.com/proddetail/steel-baby-feeding-bottle-150ml-2854428613397.html?pos=205&kwd=baby bottle sterilizer&tags=||||8210.732|Price|product|||TS|rsf:gd-|-stype:attr=1|qr_nm:gd|res:RC4|com-cf:nl|ptrs:na|ktp:N0|mc:192756|mtp:S|qry_typ:P|lang:en|wc:3|cs:8895|v=4,B Shah Enterprises,https://www.indiamart.com/bshahenterprises/?pos=205&kwd=baby bottle sterilizer&tags=||||8210.732|Price|product|||TS|rsf:gd-|-stype:attr=1|qr_nm:gd|res:RC4|com-cf:nl|ptrs:na|ktp:N0|mc:192756|mtp:S|qry_typ:P|lang:en|wc:3|cs:8895|v=4,False,Vasai West,Vasai Virar,"Shop No 19, Dhuri Campus Building, Suncity, Near 100 feet Road,, Vasai West, Vasai Virar - 401202, Dist.Thane, Maharashtra",8047633191,
"White Steel Feeding Bottle For Baby, Design/Pattern: Round, Capacity: 150 ml",https://www.indiamart.com/proddetail/steel-feeding-bottle-for-baby-25383024533.html?pos=206&kwd=baby bottle sterilizer&tags=||||8954.051||product|||TS|rsf:gd-|-stype:attr=1|qr_nm:gd|res:RC4|com-cf:nl|ptrs:na|ktp:N0|mc:192756|mtp:S|qry_typ:P|lang:en|wc:3|cs:8895|v=4,Sha Mangnajee Bhawarlal,https://www.smbestore.in/?pos=206&kwd=baby bottle sterilizer&tags=||||8954.051||product|||TS|rsf:gd-|-stype:attr=1|qr_nm:gd|res:RC4|com-cf:nl|ptrs:na|ktp:N0|mc:192756|mtp:S|qry_typ:P|lang:en|wc:3|cs:8895|v=4,False,Sowcarpet,Chennai,"Building 33, Narayana Mudali Street Sowcarpet, Sowcarpet, Chennai - 600079, Dist.Chennai, Tamil Nadu",8048963829,
"Silver Metal Stainless Steel Baby Feeding Bottle, Design/Pattern: Round, Capacity: 200 mL",https://www.indiamart.com/proddetail/stainless-steel-baby-feeding-bottle-2853236379288.html?pos=207&kwd=baby bottle sterilizer&tags=||||8211.142|Price|product|||TS|rsf:gd-|-stype:attr=1|qr_nm:gd|res:RC4|com-cf:nl|ptrs:na|ktp:N0|mc:192756|mtp:S|qry_typ:P|lang:en|wc:3|cs:8895|v=4,Stallion Enterprise,https://www.stallionenterprise.com/?pos=207&kwd=baby bottle sterilizer&tags=||||8211.142|Price|product|||TS|rsf:gd-|-stype:attr=1|qr_nm:gd|res:RC4|com-cf:nl|ptrs:na|ktp:N0|mc:192756|mtp:S|qry_typ:P|lang:en|wc:3|cs:8895|v=4,False,Kandivali West,Mumbai,"Plot No. 136- ABC, Kandivali Government Industrial Estate Charkop, Kandivali West, Mumbai - 400067, Dist.Mumbai, Maharashtra",8048983208,
Stainless Steel Baby Feeding Bottle,https://www.indiamart.com/proddetail/stainless-steel-baby-feeding-bottle-2853962286362.html?pos=208&kwd=baby bottle sterilizer&tags=||||8038.093|Price|product|||TS|rsf:gd-|-stype:attr=1|qr_nm:gd|res:RC4|com-cf:nl|ptrs:na|ktp:N0|mc:192756|mtp:S|qry_typ:P|lang:en|wc:3|cs:8895|v=4,Trishul Marketing,https://www.trishulmarketing.com/?pos=208&kwd=baby bottle sterilizer&tags=||||8038.093|Price|product|||TS|rsf:gd-|-stype:attr=1|qr_nm:gd|res:RC4|com-cf:nl|ptrs:na|ktp:N0|mc:192756|mtp:S|qry_typ:P|lang:en|wc:3|cs:8895|v=4,False,Mavdi,Rajkot,"NR Shree Ram Sweet Mart, 1 Amar Nagar, Mavdi, Rajkot - 360004, Dist.Rajkot, Gujarat",7942564686,
"Plastic baby bottle, Age Group: 3-12 Months",https://www.indiamart.com/proddetail/baby-bottle-2854299635530.html?pos=209&kwd=baby bottle sterilizer&tags=||||8038.093|Price|product|||MDC|rsf:gd-|-stype:attr=1|qr_nm:gd|res:RC4|com-cf:nl|ptrs:na|ktp:N0|mc:192756|mtp:S|qry_typ:P|lang:en|wc:3|cs:8895|v=4,Prime Enterprise,https://www.indiamart.com/prime-enterpriserajkotgujarat/?pos=209&kwd=baby bottle sterilizer&tags=||||8038.093|Price|product|||MDC|rsf:gd-|-stype:attr=1|qr_nm:gd|res:RC4|com-cf:nl|ptrs:na|ktp:N0|mc:192756|mtp:S|qry_typ:P|lang:en|wc:3|cs:8895|v=4,False,Rajkot,Rajkot,"Prime Polymers Khodiyar Ind.Area, Dhebar Road, Rajkot, Rajkot - 360001, Dist.Rajkot, Gujarat",7949220525,
"Small Wonder Blue 250 ML Glass Baby Feeding Bottle, 3-12 Months",https://www.indiamart.com/proddetail/250-ml-glass-baby-feeding-bottle-25293524791.html?pos=210&kwd=baby bottle sterilizer&tags=||||8238.463|Price|product|||TS|rsf:gd-|-stype:attr=1|qr_nm:gd|res:RC4|com-cf:nl|ptrs:na|ktp:N0|mc:192756|mtp:S|qry_typ:P|lang:en|wc:3|cs:8895|v=4,Chemco Plastic Industries Pvt. Ltd.,https://www.indiamart.com/chemcoplastic/?pos=210&kwd=baby bottle sterilizer&tags=||||8238.463|Price|product|||TS|rsf:gd-|-stype:attr=1|qr_nm:gd|res:RC4|com-cf:nl|ptrs:na|ktp:N0|mc:192756|mtp:S|qry_typ:P|lang:en|wc:3|cs:8895|v=4,False,Colaba,Silvassa,"Survey No 227/1/1, Chemco Complex, Silvassa Sayali Road, Colaba, Silvassa - 396230, Dist.Dadra and Nagar Haveli and Daman and Diu, Dadra and Nagar Haveli and Daman and Diu",8048616523,
