product_title,product_link,company_name,company_link,is_verified_exporter,city_region,city,address_details,phone_number,phone_number_extension
Baby Cotton Buds,https://www.indiamart.com/proddetail/baby-cotton-buds-25130146733.html?pos=1&kwd=baby cotton swab&tags=BA||||8237.554|Price|product|||TS|rsf:gd-|-stype:attr=1|qr_nm:gd|res:RC4|com-cf:nl|ptrs:na|ktp:N0|mc:98914|mtp:S|qry_typ:P|lang:en|wc:3|flavl:0|cs:9611|v=4,Flosee Enterprise,https://www.floseeenterprise.co.in/?pos=1&kwd=baby cotton swab&tags=BA||||8237.554|Price|product|||TS|rsf:gd-|-stype:attr=1|qr_nm:gd|res:RC4|com-cf:nl|ptrs:na|ktp:N0|mc:98914|mtp:S|qry_typ:P|lang:en|wc:3|flavl:0|cs:9611|v=4,False,Sector 27,Gandhinagar,"Plot No E/159, GIDC Electronic Estate, Sector 26, Ghandhinagar, Sector 27, Gandhinagar - 382027, Gujarat",8048980880,
"Paper stick 100 cotton swabs flat box for hygiene packet, For Home, Non-Sterile",https://www.indiamart.com/proddetail/paper-stick-100-cotton-swabs-flat-box-for-hygiene-packet-2853477133088.html?pos=2&kwd=baby cotton swab&tags=CC||||8230.883|Price|product|||TS|rsf:gd-|-stype:attr=1|qr_nm:gd|res:RC4|com-cf:nl|ptrs:na|ktp:N0|mc:98914|mtp:S|qry_typ:P|lang:en|wc:3|flavl:0|cs:9611|v=4,Tulsi Hygiene Care,https://www.indiamart.com/tulsihygiene-care/?pos=2&kwd=baby cotton swab&tags=CC||||8230.883|Price|product|||TS|rsf:gd-|-stype:attr=1|qr_nm:gd|res:RC4|com-cf:nl|ptrs:na|ktp:N0|mc:98914|mtp:S|qry_typ:P|lang:en|wc:3|flavl:0|cs:9611|v=4,False,Mota Varachha,Surat,"Ground Floor, Plot No-31, Sarjan Bungalows, Mota Varachha, Mota Varachha, Surat - 394101, Dist.Surat, Gujarat",7949089997,
Baby Cotton Swab,https://www.indiamart.com/proddetail/baby-cotton-swab-2849014134188.html?pos=3&kwd=baby cotton swab&tags=CC||||8230.883|Price|product|||TS|rsf:gd-|-stype:attr=1|qr_nm:gd|res:RC4|com-cf:nl|ptrs:na|ktp:N0|mc:98914|mtp:S|qry_typ:P|lang:en|wc:3|flavl:0|cs:9611|v=4,Dev Enterprise,https://www.magicindustries.co.in/?pos=3&kwd=baby cotton swab&tags=CC||||8230.883|Price|product|||TS|rsf:gd-|-stype:attr=1|qr_nm:gd|res:RC4|com-cf:nl|ptrs:na|ktp:N0|mc:98914|mtp:S|qry_typ:P|lang:en|wc:3|flavl:0|cs:9611|v=4,False,Pipodara,Surat,"Block No 293/a Building No-c, Ground Floor, Bajrang Aasteed, Kanyasi Road, Pipodara, Pipodara, Surat - 394110, Dist.Surat, Gujarat",8048958269,
FC91 BABY COTTON SWABS,https://www.indiamart.com/proddetail/fc91-baby-cotton-swabs-2853131884397.html?pos=4&kwd=baby cotton swab&tags=CC||||8752.144|Price|product|||TS|rsf:gd-|-stype:attr=1|qr_nm:gd|res:RC4|com-cf:nl|ptrs:na|ktp:N0|mc:98914|mtp:S|qry_typ:P|lang:en|wc:3|flavl:0|cs:9611|v=4,Briota Brands Private Limited,https://www.indiamart.com/briota-brands/?pos=4&kwd=baby cotton swab&tags=CC||||8752.144|Price|product|||TS|rsf:gd-|-stype:attr=1|qr_nm:gd|res:RC4|com-cf:nl|ptrs:na|ktp:N0|mc:98914|mtp:S|qry_typ:P|lang:en|wc:3|flavl:0|cs:9611|v=4,False,Pitampura,New Delhi,"50, 1st Floor, Sharda Niketan Pitampura, Pitampura, New Delhi - 110034, Dist.Delhi, Delhi",8043843967,
"Greeniecan Premium Eco Friendly Cotton Buds, For Personal, Packaging Type: Recycled Craft Paper Box",https://www.indiamart.com/proddetail/greeniecan-premium-eco-friendly-cotton-buds-22711489997.html?pos=5&kwd=baby cotton swab&tags=CC||||8752.144|Price|product|||TS|rsf:gd-|-stype:attr=1|qr_nm:gd|res:RC4|com-cf:nl|ptrs:na|ktp:N0|mc:98914|mtp:S|qry_typ:P|lang:en|wc:3|flavl:0|cs:9611|v=4,Greeniecan India,https://www.greeniecan.co.in/?pos=5&kwd=baby cotton swab&tags=CC||||8752.144|Price|product|||TS|rsf:gd-|-stype:attr=1|qr_nm:gd|res:RC4|com-cf:nl|ptrs:na|ktp:N0|mc:98914|mtp:S|qry_typ:P|lang:en|wc:3|flavl:0|cs:9611|v=4,True,,New Delhi,"Ground Floor, House No- B-7/182, Phase Iv, Aaya Nagar, New Delhi - 110047, Dist.Delhi, Delhi",8048265707,
Homeoculture Bamboo Baby Cotton Swab Wood Sticks - Soft Cotton Buds - 0.5,https://www.indiamart.com/proddetail/homeoculture-bamboo-baby-cotton-swab-wood-sticks-soft-cotton-buds-0-5-2851117471397.html?pos=6&kwd=baby cotton swab&tags=||||8752.144|Price|product|||MDC|rsf:gd-|-stype:attr=1|qr_nm:gd|res:RC4|com-cf:nl|ptrs:na|ktp:N0|mc:98914|mtp:S|qry_typ:P|lang:en|wc:3|flavl:0|cs:9611|v=4,Ebiz Shapers,https://www.indiamart.com/ebizshapers/?pos=6&kwd=baby cotton swab&tags=||||8752.144|Price|product|||MDC|rsf:gd-|-stype:attr=1|qr_nm:gd|res:RC4|com-cf:nl|ptrs:na|ktp:N0|mc:98914|mtp:S|qry_typ:P|lang:en|wc:3|flavl:0|cs:9611|v=4,False,Sagar Pur,New Delhi,"Rz-133/91, Gali No-2, East Sagar Pur, South West Delhi, Sagar Pur, New Delhi - 110046, Dist.Delhi, Delhi",,
"Non-Sterile Cotton Ear Buds Cotton Swab, 100 sticks",https://www.indiamart.com/proddetail/cotton-ear-buds-cotton-swab-2854593015662.html?pos=7&kwd=baby cotton swab&tags=||||8038.093|Price|product|||TS|rsf:gd-|-stype:attr=1|qr_nm:gd|res:RC4|com-cf:nl|ptrs:na|ktp:N0|mc:98914|mtp:S|qry_typ:P|lang:en|wc:3|flavl:0|cs:9611|v=4,Shinex Hygiene,https://www.indiamart.com/shinex-hygiene-rajkot/?pos=7&kwd=baby cotton swab&tags=||||8038.093|Price|product|||TS|rsf:gd-|-stype:attr=1|qr_nm:gd|res:RC4|com-cf:nl|ptrs:na|ktp:N0|mc:98914|mtp:S|qry_typ:P|lang:en|wc:3|flavl:0|cs:9611|v=4,False,Vavdi,Rajkot,"Plot No 46, Sardar Industrial Area, Near Shreeji Metal, Kothariya Solvent, Vavdi, Rajkot - 360022, Dist.Rajkot, Gujarat",8044564946,
Cotton Swab Plastic Stick,https://www.indiamart.com/proddetail/cotton-swab-plastic-stick-22770356973.html?pos=8&kwd=baby cotton swab&tags=||||8661.854|Price|product|||TS|rsf:gd-|-stype:attr=1|qr_nm:gd|res:RC4|com-cf:nl|ptrs:na|ktp:N0|mc:98914|mtp:S|qry_typ:P|lang:en|wc:3|flavl:0|cs:9611|v=4,Yasharyn Mediaid Solutions,https://www.eminentconceptint.in/?pos=8&kwd=baby cotton swab&tags=||||8661.854|Price|product|||TS|rsf:gd-|-stype:attr=1|qr_nm:gd|res:RC4|com-cf:nl|ptrs:na|ktp:N0|mc:98914|mtp:S|qry_typ:P|lang:en|wc:3|flavl:0|cs:9611|v=4,False,Basant City,Ludhiana,"Hb 89 G.T. Road East, Street No.4 Opp. Nishat Bagh Colony, Bhattian, Basant City, Ludhiana - 141006, Dist.Ludhiana, Punjab",8048987580,
"Paper Stick 80s Cotton Buds/ Swabs, Polybag, For Professional, Medium",https://www.indiamart.com/proddetail/paper-stick-80s-cotton-buds-swabs-polybag-27502993055.html?pos=9&kwd=baby cotton swab&tags=||||8032.138|Price|product|||TS|rsf:gd-|-stype:attr=1|qr_nm:gd|res:RC4|com-cf:nl|ptrs:na|ktp:N0|mc:98914|mtp:S|qry_typ:P|lang:en|wc:3|flavl:0|cs:9611|v=4,Shubhang Products Co.,https://www.shivarchcottonbuds.com/?pos=9&kwd=baby cotton swab&tags=||||8032.138|Price|product|||TS|rsf:gd-|-stype:attr=1|qr_nm:gd|res:RC4|com-cf:nl|ptrs:na|ktp:N0|mc:98914|mtp:S|qry_typ:P|lang:en|wc:3|flavl:0|cs:9611|v=4,True,,Gondal,"At - Moviya Tal - Gondal, Plot No 1 Part B Godown No 3, Survey No 921 Paiki 1, Vasavad Road, Moviya, Gondal - 360330, Dist.Rajkot, Gujarat",8048978700,
"Lens Cleaning Cotton Swab Buds, Packaging Type: Polibag",https://www.indiamart.com/proddetail/lens-cleaning-cotton-swab-buds-24604668991.html?pos=10&kwd=baby cotton swab&tags=||||8769.508|Price|product|||TS|rsf:gd-|-stype:attr=1|qr_nm:gd|res:RC4|com-cf:nl|ptrs:na|ktp:N0|mc:98914|mtp:S|qry_typ:P|lang:en|wc:3|flavl:0|cs:9611|v=4,Vee M Automation Technology,https://www.indiamart.com/vee-m-automation-technology/?pos=10&kwd=baby cotton swab&tags=||||8769.508|Price|product|||TS|rsf:gd-|-stype:attr=1|qr_nm:gd|res:RC4|com-cf:nl|ptrs:na|ktp:N0|mc:98914|mtp:S|qry_typ:P|lang:en|wc:3|flavl:0|cs:9611|v=4,False,Sector 19,Faridabad,"89XL - H7X, Tigaon Ballabgarh Road Near Shiv Bed College, Sector 19, Faridabad - 121002, Dist.Faridabad, Haryana",8046079820,
Paper Stem Cotton ear buds/swabs 100 Stems Multipurpose Double tip cotton earbuds/swabs,https://www.indiamart.com/proddetail/paper-stem-cotton-ear-buds-swabs-100-stems-multipurpose-double-tip-cotton-earbuds-swabs-2851668167473.html?pos=11&kwd=baby cotton swab&tags=||||7991.571|Price|product|||TS|rsf:gd-|-stype:attr=1|qr_nm:gd|res:RC4|com-cf:nl|ptrs:na|ktp:N0|mc:98914|mtp:S|qry_typ:P|lang:en|wc:3|flavl:0|cs:9611|v=4,Ved Industries,https://www.indiamart.com/ved-industries-junagadh/?pos=11&kwd=baby cotton swab&tags=||||7991.571|Price|product|||TS|rsf:gd-|-stype:attr=1|qr_nm:gd|res:RC4|com-cf:nl|ptrs:na|ktp:N0|mc:98914|mtp:S|qry_typ:P|lang:en|wc:3|flavl:0|cs:9611|v=4,False,Aabetkar nagar,Junagadh,"Godown No 1, SR No117/P1, Plot No 21, Bhesan Rafaliya Road, Primary Health Centre Bhesa, Aabetkar nagar, Junagadh - 362020, Dist.Junagadh, Gujarat",7942841528,
"White Sterile Cotton Swab, Packaging Size: Single, Non-Sterile",https://www.indiamart.com/proddetail/sterile-cotton-swab-2853616589530.html?pos=12&kwd=baby cotton swab&tags=||||8752.144|Price|product|||TS|rsf:gd-|-stype:attr=1|qr_nm:gd|res:RC4|com-cf:nl|ptrs:na|ktp:N0|mc:98914|mtp:S|qry_typ:P|lang:en|wc:3|flavl:0|cs:9611|v=4,Recombigen Laboratories Private Limited,https://www.indiamart.com/recombigenlaboratories/?pos=12&kwd=baby cotton swab&tags=||||8752.144|Price|product|||TS|rsf:gd-|-stype:attr=1|qr_nm:gd|res:RC4|com-cf:nl|ptrs:na|ktp:N0|mc:98914|mtp:S|qry_typ:P|lang:en|wc:3|flavl:0|cs:9611|v=4,True,Badli,New Delhi,"Plot No. 98, Phase II, Near Sector 18, Rohini, DTC Bus Depot, Badli, New Delhi - 110042, Dist.Delhi, Delhi",8048959974,
"White Paper stick Single sided cotton swabs, Packaging Size: 25/100/200/500/1000, Sterile",https://www.indiamart.com/proddetail/paper-stick-single-sided-cotton-swabs-23065308755.html?pos=13&kwd=baby cotton swab&tags=||||8234.698|Price|product|||TS|rsf:gd-|-stype:attr=1|qr_nm:gd|res:RC4|com-cf:nl|ptrs:na|ktp:N0|mc:98914|mtp:S|qry_typ:P|lang:en|wc:3|flavl:0|cs:9611|v=4,Pearl Packaging,https://www.pearlpackaging.co.in/?pos=13&kwd=baby cotton swab&tags=||||8234.698|Price|product|||TS|rsf:gd-|-stype:attr=1|qr_nm:gd|res:RC4|com-cf:nl|ptrs:na|ktp:N0|mc:98914|mtp:S|qry_typ:P|lang:en|wc:3|flavl:0|cs:9611|v=4,False,piparia,Dadra,"Survey no. 68, plot no. 37, Piparia industrial estate, piparia, Dadra - 396193, Dadra and Nagar Haveli and Daman and Diu",8046077705,
"White Cotton Ear Buds Cotton Swab, For Household, 500",https://www.indiamart.com/proddetail/cotton-ear-buds-cotton-swab-27547016630.html?pos=14&kwd=baby cotton swab&tags=||||8601.347|Price|product|||TS|rsf:gd-|-stype:attr=1|qr_nm:gd|res:RC4|com-cf:nl|ptrs:na|ktp:N0|mc:98914|mtp:S|qry_typ:P|lang:en|wc:3|flavl:0|cs:9611|v=4,A B Bros,https://www.zqbiee.com/?pos=14&kwd=baby cotton swab&tags=||||8601.347|Price|product|||TS|rsf:gd-|-stype:attr=1|qr_nm:gd|res:RC4|com-cf:nl|ptrs:na|ktp:N0|mc:98914|mtp:S|qry_typ:P|lang:en|wc:3|flavl:0|cs:9611|v=4,False,,Jaipur,"B-37-C, Jain Mandir Marg, Sani Mandir, Sethi Colony, Jaipur - 302004, Dist.Jaipur, Rajasthan",7942675590,
Polyester Swab Stick Wooden With Tube,https://www.indiamart.com/proddetail/swab-stick-wooden-with-tube-2853596379862.html?pos=15&kwd=baby cotton swab&tags=||||8747.223|Price|product|||TS|rsf:gd-|-stype:attr=1|qr_nm:gd|res:RC4|com-cf:nl|ptrs:na|ktp:N0|mc:98914|mtp:S|qry_typ:P|lang:en|wc:3|cs:8848|v=4,D Healthcare Industries,https://www.indiamart.com/d-healthcare-industries/?pos=15&kwd=baby cotton swab&tags=||||8747.223|Price|product|||TS|rsf:gd-|-stype:attr=1|qr_nm:gd|res:RC4|com-cf:nl|ptrs:na|ktp:N0|mc:98914|mtp:S|qry_typ:P|lang:en|wc:3|cs:8848|v=4,False,Sector 25,Sonipat,"78k, New Baba Colony, Unnamed Road, Sector 25, Sonipat - 131001, Dist.Sonipat, Haryana",7942825321,
"200 Stems Cotton Swabs, Packaging Type: Box, Non-Sterile",https://www.indiamart.com/proddetail/200-stems-cotton-swabs-23489947230.html?pos=16&kwd=baby cotton swab&tags=||||8230.883|Price|product|||TS|rsf:gd-|-stype:attr=1|qr_nm:gd|res:RC4|com-cf:nl|ptrs:na|ktp:N0|mc:98914|mtp:S|qry_typ:P|lang:en|wc:3|cs:8848|v=4,Unique Hygiene Care,https://www.indiamart.com/unique-hygiene-care/?pos=16&kwd=baby cotton swab&tags=||||8230.883|Price|product|||TS|rsf:gd-|-stype:attr=1|qr_nm:gd|res:RC4|com-cf:nl|ptrs:na|ktp:N0|mc:98914|mtp:S|qry_typ:P|lang:en|wc:3|cs:8848|v=4,False,Vikram Nagar,Surat,"A-78 Hariom industrial Opp Bharat cancer hospital, Vikram Nagar, Surat - 395010, Dist.Surat, Gujarat",8046065141,
"White Cotton Ear Buds Round Jar 200, For Professional, Non-Sterile",https://www.indiamart.com/proddetail/cotton-ear-buds-round-jar-200-23216883762.html?pos=17&kwd=baby cotton swab&tags=||||8230.883|Price|product|||TS|rsf:gd-|-stype:attr=1|qr_nm:gd|res:RC4|com-cf:nl|ptrs:na|ktp:N0|mc:98914|mtp:S|qry_typ:P|lang:en|wc:3|cs:8848|v=4,Avkar Enterprise,https://www.indiamart.com/avakarenterprise/?pos=17&kwd=baby cotton swab&tags=||||8230.883|Price|product|||TS|rsf:gd-|-stype:attr=1|qr_nm:gd|res:RC4|com-cf:nl|ptrs:na|ktp:N0|mc:98914|mtp:S|qry_typ:P|lang:en|wc:3|cs:8848|v=4,False,Bhavani Nagar,Surat,"Serve No. 9, Plot No. 4, MP Nagar, Bhavani Nagar, Surat - 395006, Dist.Surat, Gujarat",8047645535,
"Cotton White Medica Mediswab Gauze Swab Sterile E/O 7.5cm X 7.5cm X 8ply, For Hospital",https://www.indiamart.com/proddetail/medica-mediswab-gauze-swab-sterile-e-o-7-5cm-x-7-5cm-x-8ply-2853201880888.html?pos=18&kwd=baby cotton swab&tags=||||8228.275|Price|product|||TS|rsf:gd-|-stype:attr=1|qr_nm:gd|res:RC4|com-cf:nl|ptrs:na|ktp:N0|mc:98914|mtp:S|qry_typ:P|lang:en|wc:3|cs:8848|v=4,Medicare Hygiene Limited,https://www.medicarehygiene.net/?pos=18&kwd=baby cotton swab&tags=||||8228.275|Price|product|||TS|rsf:gd-|-stype:attr=1|qr_nm:gd|res:RC4|com-cf:nl|ptrs:na|ktp:N0|mc:98914|mtp:S|qry_typ:P|lang:en|wc:3|cs:8848|v=4,True,Satellite Prahlad Nagar,Ahmedabad,"B/h.IOC Petrol Pump, A/710-711, Titanium City Centre, Near Shyamal Cross Road, Satellite, Satellite Prahlad Nagar, Ahmedabad - 380015, Dist.Ahmedabad, Gujarat",8047636579,
Eco Aware White Hotel Vanity Kit,https://www.indiamart.com/proddetail/hotel-vanity-kit-20673158073.html?pos=19&kwd=baby cotton swab&tags=||||8752.144|Price|product|||TS|rsf:gd-|-stype:attr=1|qr_nm:gd|res:RC4|com-cf:nl|ptrs:na|ktp:N0|mc:98914|mtp:S|qry_typ:P|lang:en|wc:3|cs:8848|v=4,JSR Amenities Private Limited,https://www.jsramenities.com/?pos=19&kwd=baby cotton swab&tags=||||8752.144|Price|product|||TS|rsf:gd-|-stype:attr=1|qr_nm:gd|res:RC4|com-cf:nl|ptrs:na|ktp:N0|mc:98914|mtp:S|qry_typ:P|lang:en|wc:3|cs:8848|v=4,False,Rohini Sector 4,New Delhi,"A-2/21, 22, First Floor, Sector 11, Rohini Sector 4, New Delhi - 110085, Dist.Delhi, Delhi",8048954277,
"Sterile Cotton Tip Applicator, Non-Sterile",https://www.indiamart.com/proddetail/sterile-cotton-tip-applicator-20452335988.html?pos=20&kwd=baby cotton swab&tags=||||8752.144|Price|product|||TS|rsf:gd-|-stype:attr=1|qr_nm:gd|res:RC4|com-cf:nl|ptrs:na|ktp:N0|mc:98914|mtp:S|qry_typ:P|lang:en|wc:3|cs:8848|v=4,Fusion Biotech,https://www.fusionbiotechindia.com/?pos=20&kwd=baby cotton swab&tags=||||8752.144|Price|product|||TS|rsf:gd-|-stype:attr=1|qr_nm:gd|res:RC4|com-cf:nl|ptrs:na|ktp:N0|mc:98914|mtp:S|qry_typ:P|lang:en|wc:3|cs:8848|v=4,False,Siraspur,New Delhi,"ground Floor,plot No. 15,block - F Rect No. 40 , Killa No 14/2 Gali No -1,,bhagwan Pura Village, Siraspur, New Delhi - 110042, Dist.Delhi, Delhi",8048978634,
"200 Stems Cotton Swabs, Packaging Type: Box, Medium",https://www.indiamart.com/proddetail/200-stems-cotton-swabs-packaging-type-box-2850826141573.html?pos=21&kwd=baby cotton swab&tags=||||8230.883|Price|product|||MDC|rsf:gd-|-stype:attr=1|qr_nm:gd|res:RC4|com-cf:nl|ptrs:na|ktp:N0|mc:98914|mtp:S|qry_typ:P|lang:en|wc:3|cs:8848|v=4,Aadhya Agency,https://www.indiamart.com/aadhya-agency-surat/?pos=21&kwd=baby cotton swab&tags=||||8230.883|Price|product|||MDC|rsf:gd-|-stype:attr=1|qr_nm:gd|res:RC4|com-cf:nl|ptrs:na|ktp:N0|mc:98914|mtp:S|qry_typ:P|lang:en|wc:3|cs:8848|v=4,False,Katargam,Surat,"Surat, Katargam, Surat - 395004, Dist.Surat, Gujarat",7942959512,
Zop lock 6 Inch Cotton Swab,https://www.indiamart.com/proddetail/6-inch-cotton-swab-23675843491.html?pos=22&kwd=baby cotton swab&tags=||||9110.092|Price|product|||MDC|rsf:gd-|-stype:attr=1|qr_nm:gd|res:RC4|com-cf:nl|ptrs:na|ktp:N0|mc:98914|mtp:S|qry_typ:P|lang:en|wc:3|cs:8848|v=4,S.S.Enterprises,https://www.indiamart.com/ss-enterprises-lucknowuttarpradesh/?pos=22&kwd=baby cotton swab&tags=||||9110.092|Price|product|||MDC|rsf:gd-|-stype:attr=1|qr_nm:gd|res:RC4|com-cf:nl|ptrs:na|ktp:N0|mc:98914|mtp:S|qry_typ:P|lang:en|wc:3|cs:8848|v=4,False,,Lucknow,"Khasra No 1231, Meera Vihar Colony, Haiwat Mau Mawaiya Pancham Khera Raibarely Road,, Lucknow - 226002, Dist.Lucknow, Uttar Pradesh",7949339985,
"Transparent Sterile Cotton Swab Stick, Large, Packaging Size: Single As Well As Bulk Packing",https://www.indiamart.com/proddetail/sterile-cotton-swab-stick-25182075191.html?pos=23&kwd=baby cotton swab&tags=||||8741.987|Price|product|||TS|rsf:gd-|-stype:attr=1|qr_nm:gd|res:RC4|com-cf:nl|ptrs:na|ktp:N0|mc:98914|mtp:S|qry_typ:P|lang:en|wc:3|cs:8848|v=4,V.J.E Trading,https://www.indiamart.com/vje-trading/?pos=23&kwd=baby cotton swab&tags=||||8741.987|Price|product|||TS|rsf:gd-|-stype:attr=1|qr_nm:gd|res:RC4|com-cf:nl|ptrs:na|ktp:N0|mc:98914|mtp:S|qry_typ:P|lang:en|wc:3|cs:8848|v=4,False,Ambala Cantt,Ambala,"25,Ashok Vihar,Behind Bd Flour Mill,Ambala Cantt, Ambala Cantt, Ambala - 133001, Dist.Ambala, Haryana",8047312949,
"Bamboo Sticks Cotton Swabs, For Professional, Packaging Type: Plastic Pouch",https://www.indiamart.com/proddetail/bamboo-sticks-cotton-swabs-2850462180533.html?pos=24&kwd=baby cotton swab&tags=||||8038.093|Price|product|||TS|rsf:gd-|-stype:attr=1|qr_nm:gd|res:RC4|com-cf:nl|ptrs:na|ktp:N0|mc:98914|mtp:S|qry_typ:P|lang:en|wc:3|cs:8848|v=4,Madhav Manufacturers,https://www.madhavmanufacturers.in/?pos=24&kwd=baby cotton swab&tags=||||8038.093|Price|product|||TS|rsf:gd-|-stype:attr=1|qr_nm:gd|res:RC4|com-cf:nl|ptrs:na|ktp:N0|mc:98914|mtp:S|qry_typ:P|lang:en|wc:3|cs:8848|v=4,False,Bhunava,Rajkot,"R.S. No 472/480, Shreenathji Industrial Area, Plot No-55 & 56, Khambha, Lodhika, Bhunava, Rajkot - 360035, Dist.Rajkot, Gujarat",8047306019,
"Sterile Cotton Swab, 100 sticks",https://www.indiamart.com/proddetail/sterile-cotton-swab-2855023770930.html?pos=25&kwd=baby cotton swab&tags=||||8752.144|Price|product|||TS|rsf:gd-|-stype:attr=1|qr_nm:gd|res:RC4|com-cf:nl|ptrs:na|ktp:N0|mc:98914|mtp:S|qry_typ:P|lang:en|wc:3|cs:8848|v=4,Pal Surgical Works,https://www.medicalequipmentsupply.in/?pos=25&kwd=baby cotton swab&tags=||||8752.144|Price|product|||TS|rsf:gd-|-stype:attr=1|qr_nm:gd|res:RC4|com-cf:nl|ptrs:na|ktp:N0|mc:98914|mtp:S|qry_typ:P|lang:en|wc:3|cs:8848|v=4,True,Delhi,New Delhi,"Khasra No.9/13, H.No.5, Street No.2, Sonu Farm House, Jawahar Nagar, Delhi, New Delhi - 110094, Dist.Delhi, Delhi",8048969369,
"Natural Wooden Color Cotton SWAB STICK, Packaging Size: 100 Pieces In 1 Packet, Sterile",https://www.indiamart.com/proddetail/swab-stick-20896482462.html?pos=26&kwd=baby cotton swab&tags=||||8741.987|Price|product|||TS|rsf:gd-|-stype:attr=1|qr_nm:gd|res:RC4|com-cf:nl|ptrs:na|ktp:N0|mc:98914|mtp:S|qry_typ:P|lang:en|wc:3|cs:8848|v=4,Defence Engg.Works,https://www.indiamart.com/defenceenggworks/?pos=26&kwd=baby cotton swab&tags=||||8741.987|Price|product|||TS|rsf:gd-|-stype:attr=1|qr_nm:gd|res:RC4|com-cf:nl|ptrs:na|ktp:N0|mc:98914|mtp:S|qry_typ:P|lang:en|wc:3|cs:8848|v=4,False,Krishna Nagar,Ambala,"11,,RAJA PARK,AMBALA CANTT, Krishna Nagar, Ambala - 133001, Dist.Ambala, Haryana",8046041473,
Wooden Swab Stick,https://www.indiamart.com/proddetail/wooden-swab-stick-2850561375555.html?pos=27&kwd=baby cotton swab&tags=||||8786.56|Price|product|||TS|rsf:gd-|-stype:attr=1|qr_nm:gd|res:RC4|com-cf:nl|ptrs:na|ktp:N0|mc:98914|mtp:S|qry_typ:P|lang:en|wc:3|cs:8848|v=4,DM International,https://www.dminternationalindia.in/?pos=27&kwd=baby cotton swab&tags=||||8786.56|Price|product|||TS|rsf:gd-|-stype:attr=1|qr_nm:gd|res:RC4|com-cf:nl|ptrs:na|ktp:N0|mc:98914|mtp:S|qry_typ:P|lang:en|wc:3|cs:8848|v=4,False,,Hyderabad,"Ground Floor, Sy No. 376/A, 5-9-262, Rajiv Gandhi Nagar, Prashanthi Nagar, Medchal Malkajgiri, Hyderabad - 500072, Dist.Hyderabad, Telangana",8048211783,
"Bamboo Stick Cotton Buds, 100 Sticks",https://www.indiamart.com/proddetail/bamboo-stick-cotton-buds-2854629106088.html?pos=28&kwd=baby cotton swab&tags=||||8038.093|Price|product|||TS|rsf:gd-|-stype:attr=1|qr_nm:gd|res:RC4|com-cf:nl|ptrs:na|ktp:N0|mc:98914|mtp:S|qry_typ:P|lang:en|wc:3|cs:8848|v=4,Maruti Enterprise,https://www.indiamart.com/maruti-enterprise-rajkotgujarat/?pos=28&kwd=baby cotton swab&tags=||||8038.093|Price|product|||TS|rsf:gd-|-stype:attr=1|qr_nm:gd|res:RC4|com-cf:nl|ptrs:na|ktp:N0|mc:98914|mtp:S|qry_typ:P|lang:en|wc:3|cs:8848|v=4,False,Vavdi,Rajkot,"PL-59,OPP WATER TANK,150 FT RING ROAD,RAJKOT, Vavdi, Rajkot - 360004, Dist.Rajkot, Gujarat",8047635785,
"White Cotton Swab, Cotton Earbud,, Packaging Size: 200 Piece, Sterile",https://www.indiamart.com/proddetail/cotton-swab-cotton-earbud-24549783473.html?pos=29&kwd=baby cotton swab&tags=||||8235.23|Price|product|||MDC|rsf:gd-|-stype:attr=1|qr_nm:gd|res:RC4|com-cf:nl|ptrs:na|ktp:N0|mc:98914|mtp:S|qry_typ:P|lang:en|wc:3|cs:8848|v=4,Shrav Marketing,https://www.indiamart.com/shrav-marketing/?pos=29&kwd=baby cotton swab&tags=||||8235.23|Price|product|||MDC|rsf:gd-|-stype:attr=1|qr_nm:gd|res:RC4|com-cf:nl|ptrs:na|ktp:N0|mc:98914|mtp:S|qry_typ:P|lang:en|wc:3|cs:8848|v=4,False,Dombivali East,Dombivli,"4th Floor, C/405, Bhopar Deslepada Road, Vinayak Pride CHS, East, Dombivali East, Dombivli - 421201, Dist.Thane, Maharashtra",7949083556,
Wood Stick Cotton Swab,https://www.indiamart.com/proddetail/wood-stick-cotton-swab-26357625162.html?pos=30&kwd=baby cotton swab&tags=||||8752.144|Price|product|||TS|rsf:gd-|-stype:attr=1|qr_nm:gd|res:RC4|com-cf:nl|ptrs:na|ktp:N0|mc:98914|mtp:S|qry_typ:P|lang:en|wc:3|cs:8848|v=4,Shri Sai Laboratory & Pharma Co.,https://www.indiamart.com/shrisailaboratorypharma-co/?pos=30&kwd=baby cotton swab&tags=||||8752.144|Price|product|||TS|rsf:gd-|-stype:attr=1|qr_nm:gd|res:RC4|com-cf:nl|ptrs:na|ktp:N0|mc:98914|mtp:S|qry_typ:P|lang:en|wc:3|cs:8848|v=4,False,Samaypur,New Delhi,"73a, Ground Floor, Hall No 65 Sq Yds ,near Vijya Bank ,village Samaypur, Samaypur, New Delhi - 110042, Dist.Delhi, Delhi",8048607751,
"Cotton Swab Wooden Stick, Packaging Size: 100pcs/bag,10000pcs/ctn",https://www.indiamart.com/proddetail/cotton-swab-wooden-stick-21072026691.html?pos=31&kwd=baby cotton swab&tags=||||8752.144|Price|product|||TS|rsf:gd-|-stype:attr=1|qr_nm:gd|res:RC4|com-cf:nl|ptrs:na|ktp:N0|mc:98914|mtp:S|qry_typ:P|lang:en|wc:3|cs:8848|v=4,Accufine Life Sciences,https://www.accufinelifesciences.co.in/?pos=31&kwd=baby cotton swab&tags=||||8752.144|Price|product|||TS|rsf:gd-|-stype:attr=1|qr_nm:gd|res:RC4|com-cf:nl|ptrs:na|ktp:N0|mc:98914|mtp:S|qry_typ:P|lang:en|wc:3|cs:8848|v=4,False,Rohini,New Delhi,"Ns-28, Second Floor, Mianwali Nagar, Pashchim Vihar, Rohini, New Delhi - 110087, Dist.Delhi, Delhi",8047645258,
"Sterile Cotton Swab With Wooden Stick individual pack, 100 sticks",https://www.indiamart.com/proddetail/cotton-swab-with-wooden-stick-individual-pack-2855024305991.html?pos=32&kwd=baby cotton swab&tags=||||8741.987|Price|product|||TS|rsf:gd-|-stype:attr=1|qr_nm:gd|res:RC4|com-cf:nl|ptrs:na|ktp:N0|mc:98914|mtp:S|qry_typ:P|lang:en|wc:3|cs:8848|v=4,Heligon India,https://www.indiamart.com/heligonindia/?pos=32&kwd=baby cotton swab&tags=||||8741.987|Price|product|||TS|rsf:gd-|-stype:attr=1|qr_nm:gd|res:RC4|com-cf:nl|ptrs:na|ktp:N0|mc:98914|mtp:S|qry_typ:P|lang:en|wc:3|cs:8848|v=4,False,Cantt,Ambala,"Khasra No. 1/15, Hari Nagar, Behind B D Flour Mill, Ambala Cantt,, Cantt, Ambala - 133001, Dist.Ambala, Haryana",7942800949,
"Bleached Cotton Ball Swab, 1000 Piece In Pack",https://www.indiamart.com/proddetail/cotton-ball-swab-2986114797.html?pos=33&kwd=baby cotton swab&tags=||||8211.142|Price|product|||MDC|rsf:gd-|-stype:attr=1|qr_nm:gd|res:RC4|com-cf:nl|ptrs:na|ktp:N0|mc:98914|mtp:S|qry_typ:P|lang:en|wc:3|cs:8848|v=4,Relax Surgical Co.,https://www.indiamart.com/relax-surgical/?pos=33&kwd=baby cotton swab&tags=||||8211.142|Price|product|||MDC|rsf:gd-|-stype:attr=1|qr_nm:gd|res:RC4|com-cf:nl|ptrs:na|ktp:N0|mc:98914|mtp:S|qry_typ:P|lang:en|wc:3|cs:8848|v=4,False,Malad East,Mumbai,"3rd Floor, Vijay Dwar, Hava Hira Park Kurar Village, Malad East, Mumbai - 400097, Dist.Mumbai, Maharashtra",8048965339,
Plus Paper Stick Square Cotton Ear Swab,https://www.indiamart.com/proddetail/plus-paper-stick-square-cotton-ear-swab-21196985730.html?pos=34&kwd=baby cotton swab&tags=||||8275.938|Price|product|||TS|rsf:gd-|-stype:attr=1|qr_nm:gd|res:RC4|com-cf:nl|ptrs:na|ktp:N0|mc:98914|mtp:S|qry_typ:P|lang:en|wc:3|cs:8848|v=4,MS Health Care,https://www.indiamart.com/mshealthcare-gujarat/?pos=34&kwd=baby cotton swab&tags=||||8275.938|Price|product|||TS|rsf:gd-|-stype:attr=1|qr_nm:gd|res:RC4|com-cf:nl|ptrs:na|ktp:N0|mc:98914|mtp:S|qry_typ:P|lang:en|wc:3|cs:8848|v=4,False,Savgadh,Himatnagar,"S-5, 6 ABC Plaza At Panpur Patiya, Vijapur Road, Savgadh, Himatnagar - 383001, Dist.Sabarkantha, Gujarat",8048970307,
"Blue Sterile Cotton Swabs With Tube, Packaging Size: 100",https://www.indiamart.com/proddetail/sterile-cotton-swabs-with-tube-24994168288.html?pos=35&kwd=baby cotton swab&tags=||||8752.144|Price|product|||TS|rsf:gd-|-stype:attr=1|qr_nm:gd|res:RC4|com-cf:nl|ptrs:na|ktp:N0|mc:98914|mtp:S|qry_typ:P|lang:en|wc:3|cs:8848|v=4,M K Plast,https://www.indiamart.com/mkplast/?pos=35&kwd=baby cotton swab&tags=||||8752.144|Price|product|||TS|rsf:gd-|-stype:attr=1|qr_nm:gd|res:RC4|com-cf:nl|ptrs:na|ktp:N0|mc:98914|mtp:S|qry_typ:P|lang:en|wc:3|cs:8848|v=4,False,Daya Basti,New Delhi,"3rd Floor, House No. 50, Shahzada Bag, Indus. Aera, Old Rohtak Road, Landmark-shastri Nagar, Daya Basti, New Delhi - 110035, Dist.Delhi, Delhi",8046046924,
"White Cotton Gauge Swabs, 12 Ply, Bandage Size: 90cm x 18m",https://www.indiamart.com/proddetail/cotton-gauge-swabs-2850945658033.html?pos=36&kwd=baby cotton swab&tags=||||8559.269|Price|product|||TS|rsf:gd-|-stype:attr=1|qr_nm:gd|res:RC4|com-cf:nl|ptrs:na|ktp:N0|mc:98914|mtp:S|qry_typ:P|lang:en|wc:3|cs:8848|v=4,Kanak Processor,https://www.indiamart.com/kanakprocessor-indore/?pos=36&kwd=baby cotton swab&tags=||||8559.269|Price|product|||TS|rsf:gd-|-stype:attr=1|qr_nm:gd|res:RC4|com-cf:nl|ptrs:na|ktp:N0|mc:98914|mtp:S|qry_typ:P|lang:en|wc:3|cs:8848|v=4,False,Adarsh Moulic Nagar,Indore,"140, Bhagirathpura, Behind Shiv Mandir,, Adarsh Moulic Nagar, Indore - 452010, Dist.Indore, Madhya Pradesh",7942957675,
"Plain 3mm White Paper Ear Cleaning Buds, For Home",https://www.indiamart.com/proddetail/3mm-white-paper-ear-cleaning-buds-2853863011412.html?pos=37&kwd=baby cotton swab&tags=||||8038.093||product|||MDC|rsf:gd-|-stype:attr=1|qr_nm:gd|res:RC4|com-cf:nl|ptrs:na|ktp:N0|mc:98914|mtp:S|qry_typ:P|lang:en|wc:3|cs:8848|v=4,Karmyogi Paper Product,https://www.indiamart.com/karmyogi-paper-product/?pos=37&kwd=baby cotton swab&tags=||||8038.093||product|||MDC|rsf:gd-|-stype:attr=1|qr_nm:gd|res:RC4|com-cf:nl|ptrs:na|ktp:N0|mc:98914|mtp:S|qry_typ:P|lang:en|wc:3|cs:8848|v=4,False,Lodhika,Rajkot,"Shed No.01, M & A Industrial Zone, R.S No.271 Behind Swaminarayan Restaurant, Ravki Main Road, Village Ravki, Lodhika, Lodhika, Rajkot - 360035, Dist.Rajkot, Gujarat",7949087011,
"Sterile Swab with Tube, Packaging Size: Packet",https://www.indiamart.com/proddetail/sterile-swab-with-tube-19972039830.html?pos=38&kwd=baby cotton swab&tags=||||8235.23|Price|product|||MDC|rsf:gd-|-stype:attr=1|qr_nm:gd|res:RC4|com-cf:nl|ptrs:na|ktp:N0|mc:98914|mtp:S|qry_typ:P|lang:en|wc:3|cs:8848|v=4,Dynamicro Labs Private Limited,https://www.indiamart.com/dynamicro-labs/?pos=38&kwd=baby cotton swab&tags=||||8235.23|Price|product|||MDC|rsf:gd-|-stype:attr=1|qr_nm:gd|res:RC4|com-cf:nl|ptrs:na|ktp:N0|mc:98914|mtp:S|qry_typ:P|lang:en|wc:3|cs:8848|v=4,False,Chole Gaon,Dombivli,"B-50, MIDC, Phase I, Khambalpada, Chole Gaon, Dombivli - 421201, Dist.Thane, Maharashtra",8048989833,
"Cotton Plastic Swab Stick, For Hospital, Sterile",https://www.indiamart.com/proddetail/plastic-swab-stick-22335855491.html?pos=39&kwd=baby cotton swab&tags=||||8500.97||product|||TS|rsf:gd-|-stype:attr=1|qr_nm:gd|res:RC4|com-cf:nl|ptrs:na|ktp:N0|mc:98914|mtp:S|qry_typ:P|lang:en|wc:3|cs:8848|v=4,Astra Bioscience Limited,https://www.indiamart.com/astra-bioscience/?pos=39&kwd=baby cotton swab&tags=||||8500.97||product|||TS|rsf:gd-|-stype:attr=1|qr_nm:gd|res:RC4|com-cf:nl|ptrs:na|ktp:N0|mc:98914|mtp:S|qry_typ:P|lang:en|wc:3|cs:8848|v=4,False,Kinfra Park Koratti,Thrissur,"PLOT 4,Kinfra Industrial Park Koratty, Thrissur (DT) , Kerala, INDIA, Kinfra Park Koratti, Thrissur - 680309, Dist.Thrissur, Kerala",7942535642,
"TULIPS Eco-Friendly 100s Cotton Buds/ Swabs, Jar, For Personal Hygiene",https://www.indiamart.com/proddetail/tulips-eco-friendly-100s-cotton-buds-swabs-jar-25975811288.html?pos=40&kwd=baby cotton swab&tags=||||8752.144|Price|product|||MDC|rsf:gd-|-stype:attr=1|qr_nm:gd|res:RC4|com-cf:nl|ptrs:na|ktp:N0|mc:98914|mtp:S|qry_typ:P|lang:en|wc:3|cs:8848|v=4,Suparshva Swabs India,https://www.indiamart.com/suparshva-swabs/?pos=40&kwd=baby cotton swab&tags=||||8752.144|Price|product|||MDC|rsf:gd-|-stype:attr=1|qr_nm:gd|res:RC4|com-cf:nl|ptrs:na|ktp:N0|mc:98914|mtp:S|qry_typ:P|lang:en|wc:3|cs:8848|v=4,False,Peeragarhi,New Delhi,"487/18, Peeragarhi, Rohtak Road, Peeragarhi, New Delhi - 110087, Dist.Delhi, Delhi",8046041952,
Bamboo Cotton Earbuds,https://www.indiamart.com/proddetail/bamboo-cotton-earbuds-2851896920262.html?pos=41&kwd=baby cotton swab&tags=||||8778.123|Price|product|||MDC|rsf:gd-|-stype:attr=1|qr_nm:gd|res:RC4|com-cf:nl|ptrs:na|ktp:N0|mc:98914|mtp:S|qry_typ:P|lang:en|wc:3|cs:8848|v=4,Imvelo Homecare Pvt. Ltd.,https://www.indiamart.com/imvelo-homecare/?pos=41&kwd=baby cotton swab&tags=||||8778.123|Price|product|||MDC|rsf:gd-|-stype:attr=1|qr_nm:gd|res:RC4|com-cf:nl|ptrs:na|ktp:N0|mc:98914|mtp:S|qry_typ:P|lang:en|wc:3|cs:8848|v=4,False,Phase-2,Noida,"6th Floor, D-604, Antriksh Golf View 1, Sector 78, Gautambuddha Nagar, Phase-2, Noida - 201301, Dist.Gautam Budh Nagar, Uttar Pradesh",7942872756,
"Wooden Cotton Swabs, 100 Sticks, Sterile",https://www.indiamart.com/proddetail/wooden-cotton-swabs-2853366927512.html?pos=42&kwd=baby cotton swab&tags=||||8954.051|Price|product|||MDC|rsf:gd-|-stype:attr=1|qr_nm:gd|res:RC4|com-cf:nl|ptrs:na|ktp:N0|mc:98914|mtp:S|qry_typ:P|lang:en|wc:3|cs:8848|v=4,Manju Impex,https://www.indiamart.com/manjuimpex/?pos=42&kwd=baby cotton swab&tags=||||8954.051|Price|product|||MDC|rsf:gd-|-stype:attr=1|qr_nm:gd|res:RC4|com-cf:nl|ptrs:na|ktp:N0|mc:98914|mtp:S|qry_typ:P|lang:en|wc:3|cs:8848|v=4,False,Sowcarpet,Chennai,"1st Floor, No 384, Mint Street, Sowcarpet, Sowcarpet, Chennai - 600079, Dist.Chennai, Tamil Nadu",7949226197,
"Red Sterile Cotton Swab, For Professional, Packaging Size: 100nos",https://www.indiamart.com/proddetail/sterile-cotton-swab-2851638163548.html?pos=43&kwd=baby cotton swab&tags=||||8235.23|Price|product|||TS|rsf:gd-|-stype:attr=1|qr_nm:gd|res:RC4|com-cf:nl|ptrs:na|ktp:N0|mc:98914|mtp:S|qry_typ:P|lang:en|wc:3|cs:8848|v=4,Svan Analytical Instruments Pvt.Ltd,https://www.svananalytical.com/?pos=43&kwd=baby cotton swab&tags=||||8235.23|Price|product|||TS|rsf:gd-|-stype:attr=1|qr_nm:gd|res:RC4|com-cf:nl|ptrs:na|ktp:N0|mc:98914|mtp:S|qry_typ:P|lang:en|wc:3|cs:8848|v=4,False,Dombivali I.A.,Dombivli,"308, Jai Estate, Opposite Fire Brigade, MIDC Phase 1, Dombivali I.A., Dombivli - 421203, Dist.Thane, Maharashtra",8048612568,
White Sterile Cotton Swab,https://www.indiamart.com/proddetail/sterile-cotton-swab-17659069030.html?pos=44&kwd=baby cotton swab&tags=||||8639.861||product|||MDC|rsf:gd-|-stype:attr=1|qr_nm:gd|res:RC4|com-cf:nl|ptrs:na|ktp:N0|mc:98914|mtp:S|qry_typ:P|lang:en|wc:3|cs:8848|v=4,Bharath Surgical Dressing Co.,https://www.indiamart.com/bharath-surgicaldressing/?pos=44&kwd=baby cotton swab&tags=||||8639.861||product|||MDC|rsf:gd-|-stype:attr=1|qr_nm:gd|res:RC4|com-cf:nl|ptrs:na|ktp:N0|mc:98914|mtp:S|qry_typ:P|lang:en|wc:3|cs:8848|v=4,False,Samusigapuram,Rajapalayam,"542/15, Alangulam Road, Samusigapuram, Rajapalayam - 626102, Dist.Virudhunagar, Tamil Nadu",8048985966,
"Sterile Cotton Swab, 100 sticks",https://www.indiamart.com/proddetail/sterile-cotton-swab-2854957602255.html?pos=45&kwd=baby cotton swab&tags=||||8228.275|Price|product|||MDC|rsf:gd-|-stype:attr=1|qr_nm:gd|res:RC4|com-cf:nl|ptrs:na|ktp:N0|mc:98914|mtp:S|qry_typ:P|lang:en|wc:3|cs:8848|v=4,General Trade Agency,https://www.indiamart.com/generaltrade-agency-ahmedabad/?pos=45&kwd=baby cotton swab&tags=||||8228.275|Price|product|||MDC|rsf:gd-|-stype:attr=1|qr_nm:gd|res:RC4|com-cf:nl|ptrs:na|ktp:N0|mc:98914|mtp:S|qry_typ:P|lang:en|wc:3|cs:8848|v=4,False,,Ahmedabad,"17, Snehkunj Co-Op Housing Society, Surendra Mangaldas Road, Nehrunagar, Ambawadi, Ahmedabad - 380015, Dist.Ahmedabad, Gujarat",8041011028,
"Medical Swab Wooden Stick with Cotton Tip Individually Wrapp, Packaging Size: 100 Pcs Each Pack, Sterile",https://www.indiamart.com/proddetail/medical-swab-wooden-stick-with-cotton-tip-individually-wrapp-10208944397.html?pos=46&kwd=baby cotton swab&tags=||||8601.347|Price|product|||TS|rsf:gd-|-stype:attr=1|qr_nm:gd|res:RC4|com-cf:nl|ptrs:na|ktp:N0|mc:98914|mtp:S|qry_typ:P|lang:en|wc:3|cs:8848|v=4,Raj Biosis Private Limited,https://www.rajbiosis.com/?pos=46&kwd=baby cotton swab&tags=||||8601.347|Price|product|||TS|rsf:gd-|-stype:attr=1|qr_nm:gd|res:RC4|com-cf:nl|ptrs:na|ktp:N0|mc:98914|mtp:S|qry_typ:P|lang:en|wc:3|cs:8848|v=4,True,,Jaipur,"1st Floor, F-4,Plot No.16, D- Block, Tagor Nagar,Nr.200 FT, Jaipur - 302021, Dist.Jaipur, Rajasthan",8048962241,
Cotton Swabs,https://www.indiamart.com/proddetail/cotton-swabs-2853234241991.html?pos=47&kwd=baby cotton swab&tags=||||10180.86|Price|product|||TS|rsf:gd-|-stype:attr=1|qr_nm:gd|res:RC4|com-cf:nl|ptrs:na|ktp:N0|mc:98914|mtp:S|qry_typ:P|lang:en|wc:3|cs:8848|v=4,Bina E Medicare LLP,https://www.indiamart.com/bina-e-medicare/?pos=47&kwd=baby cotton swab&tags=||||10180.86|Price|product|||TS|rsf:gd-|-stype:attr=1|qr_nm:gd|res:RC4|com-cf:nl|ptrs:na|ktp:N0|mc:98914|mtp:S|qry_typ:P|lang:en|wc:3|cs:8848|v=4,False,Bormotoria,Guwahati,"2nd Floor C/o Dhruba Jyoti Das Gmch Road Harabala Market Bhangagarh, GMCH Road, Bormotoria, Guwahati - 781006, Dist.Kamrup, Assam",7942721010,
"White Cotton Swabs, For Multiple Usage, Packaging Size: 50 Piece",https://www.indiamart.com/proddetail/white-cotton-swabs-2851858482873.html?pos=48&kwd=baby cotton swab&tags=||||8752.144|Price|product|||TS|rsf:gd-|-stype:attr=1|qr_nm:gd|res:RC4|com-cf:nl|ptrs:na|ktp:N0|mc:98914|mtp:S|qry_typ:P|lang:en|wc:3|cs:8848|v=4,Chhabra Industries,https://www.chhabraindustries.com/?pos=48&kwd=baby cotton swab&tags=||||8752.144|Price|product|||TS|rsf:gd-|-stype:attr=1|qr_nm:gd|res:RC4|com-cf:nl|ptrs:na|ktp:N0|mc:98914|mtp:S|qry_typ:P|lang:en|wc:3|cs:8848|v=4,False,Bawana,New Delhi,"7 Pocket J Sector 1,D.S.I.I.D.C., Bawana Industrial, Complex , North West, Bawana, New Delhi - 110039, Dist.Delhi, Delhi",8047848853,
"Wooden Cotton Buds, 200 Sticks",https://www.indiamart.com/proddetail/wooden-stick-cotton-buds-2855023758097.html?pos=49&kwd=baby cotton swab&tags=||||8817.752|Price|product|||MDC|rsf:gd-|-stype:attr=1|qr_nm:gd|res:RC4|com-cf:nl|ptrs:na|ktp:N0|mc:98914|mtp:S|qry_typ:P|lang:en|wc:3|cs:8848|v=4,R V International,https://www.indiamart.com/rvinternationalhapur/?pos=49&kwd=baby cotton swab&tags=||||8817.752|Price|product|||MDC|rsf:gd-|-stype:attr=1|qr_nm:gd|res:RC4|com-cf:nl|ptrs:na|ktp:N0|mc:98914|mtp:S|qry_typ:P|lang:en|wc:3|cs:8848|v=4,False,,Hapur,"Near HDFC Bank, C/O Vijay Golden TRPT Corp, Delhi Garh Road, Pilkhuwa,, Hapur - 245304, Dist.Hapur, Uttar Pradesh",7949330462,
Non-Sterile 1000 Pieces Cotton Swabs,https://www.indiamart.com/proddetail/1000-pieces-cotton-swabs-2854700436233.html?pos=50&kwd=baby cotton swab&tags=||||8038.093|Price|product|||MDC|rsf:gd-|-stype:attr=1|qr_nm:gd|res:RC4|com-cf:nl|ptrs:na|ktp:N0|mc:98914|mtp:S|qry_typ:P|lang:en|wc:3|cs:8848|v=4,Mahavir Enterprise,https://www.indiamart.com/mahavirenterprise-rajkkot/?pos=50&kwd=baby cotton swab&tags=||||8038.093|Price|product|||MDC|rsf:gd-|-stype:attr=1|qr_nm:gd|res:RC4|com-cf:nl|ptrs:na|ktp:N0|mc:98914|mtp:S|qry_typ:P|lang:en|wc:3|cs:8848|v=4,False,,Rajkot,"Gandhigram Near Lakh Banglow, Chirsneh New Mahavir Nagar, 80 Ft Road, Rajkot - 360007, Dist.Rajkot, Gujarat",7949326783,
"Swab With Cotton Head In Pp Tube, Packaging Size: 100 Nos, Sterile",https://www.indiamart.com/proddetail/swab-with-cotton-head-in-pp-tube-2851852223473.html?pos=51&kwd=baby cotton swab&tags=||||8954.051|Price|product|||TS|rsf:gd-|-stype:attr=1|qr_nm:gd|res:RC4|com-cf:nl|ptrs:na|ktp:N0|mc:98914|mtp:S|qry_typ:P|lang:en|wc:3|cs:8848|v=4,"Dr.S Manjuparkavi, Alpha Lifecare",https://www.indiamart.com/drs-manjuparkavialpha-lifecare/?pos=51&kwd=baby cotton swab&tags=||||8954.051|Price|product|||TS|rsf:gd-|-stype:attr=1|qr_nm:gd|res:RC4|com-cf:nl|ptrs:na|ktp:N0|mc:98914|mtp:S|qry_typ:P|lang:en|wc:3|cs:8848|v=4,False,Kaiveli,Chennai,"247/12, Velachery Main Road, Thanthai Periyar Nagar, Kaiveli, Kaiveli, Chennai - 600042, Dist.Chennai, Tamil Nadu",7942955668,
"White Cotton Swab Brush, For Cleaning, Medium",https://www.indiamart.com/proddetail/cotton-swab-brush-2850891065612.html?pos=52&kwd=baby cotton swab&tags=||||8752.144|Price|product|||TS|rsf:gd-|-stype:attr=1|qr_nm:gd|res:RC4|com-cf:nl|ptrs:na|ktp:N0|mc:98914|mtp:S|qry_typ:P|lang:en|wc:3|cs:8848|v=4,Tej Singh Brush Manufacturing,https://www.tsbmanufacturing.com/?pos=52&kwd=baby cotton swab&tags=||||8752.144|Price|product|||TS|rsf:gd-|-stype:attr=1|qr_nm:gd|res:RC4|com-cf:nl|ptrs:na|ktp:N0|mc:98914|mtp:S|qry_typ:P|lang:en|wc:3|cs:8848|v=4,False,Seelampur,New Delhi,"J-234 Cpj-block New Seelampur, Seelampur, New Delhi - 110053, Dist.Delhi, Delhi",7942827911,
"White Paper Stick Cotton Swabs, For Ear Buds, Non-Sterile",https://www.indiamart.com/proddetail/paper-stick-cotton-swabs-2850813683673.html?pos=53&kwd=baby cotton swab&tags=||||8038.093|Price|product|||TS|rsf:gd-|-stype:attr=1|qr_nm:gd|res:RC4|com-cf:nl|ptrs:na|ktp:N0|mc:98914|mtp:S|qry_typ:P|lang:en|wc:3|cs:8848|v=4,Parth Plast,https://www.parthplast.in.net/?pos=53&kwd=baby cotton swab&tags=||||8038.093|Price|product|||TS|rsf:gd-|-stype:attr=1|qr_nm:gd|res:RC4|com-cf:nl|ptrs:na|ktp:N0|mc:98914|mtp:S|qry_typ:P|lang:en|wc:3|cs:8848|v=4,False,Vavdi,Rajkot,"B/h Tulip Party Plot, Nr Uttam Industrial Area, Parth Plast, Gondal Road Vavdi, Vavdi, Rajkot - 360005, Dist.Rajkot, Gujarat",8048987507,
"Wooden Cotton Swab Stick, Packaging Size: 100, Non-Sterile",https://www.indiamart.com/proddetail/cotton-swab-stick-24204189948.html?pos=54&kwd=baby cotton swab&tags=||||8752.144|Price|product|||TS|rsf:gd-|-stype:attr=1|qr_nm:gd|res:RC4|com-cf:nl|ptrs:na|ktp:N0|mc:98914|mtp:S|qry_typ:P|lang:en|wc:3|cs:8848|v=4,Apex Scientific,https://www.indiamart.com/apex-scientific/?pos=54&kwd=baby cotton swab&tags=||||8752.144|Price|product|||TS|rsf:gd-|-stype:attr=1|qr_nm:gd|res:RC4|com-cf:nl|ptrs:na|ktp:N0|mc:98914|mtp:S|qry_typ:P|lang:en|wc:3|cs:8848|v=4,False,Uttam Nagar,New Delhi,"H.No ,B-6, Vikas Kunj Extn., Mohan Garden, Uttam Nagar, Uttam Nagar, New Delhi - 110059, Dist.Delhi, Delhi",8045911429,
Transparent Sterile Cotton Swab,https://www.indiamart.com/proddetail/sterile-cotton-swab-22358186673.html?pos=55&kwd=baby cotton swab&tags=||||8237.554|Price|product|||TS|rsf:gd-|-stype:attr=1|qr_nm:gd|res:RC4|com-cf:nl|ptrs:na|ktp:N0|mc:98914|mtp:S|qry_typ:P|lang:en|wc:3|cs:8848|v=4,Labtech Disposables,https://www.labtechdispo.com/?pos=55&kwd=baby cotton swab&tags=||||8237.554|Price|product|||TS|rsf:gd-|-stype:attr=1|qr_nm:gd|res:RC4|com-cf:nl|ptrs:na|ktp:N0|mc:98914|mtp:S|qry_typ:P|lang:en|wc:3|cs:8848|v=4,False,Vadsar,Gandhinagar,"776/1 Vadsar industrial area, Vill Vadsar, T.A Kalol, Vadsar, Gandhinagar - 382721, Gujarat",8048983607,
"Cotton Swab Sterile, Medium, Packaging Size: 100 PC's",https://www.indiamart.com/proddetail/cotton-swab-sterile-2850112857930.html?pos=56&kwd=baby cotton swab&tags=||||8223.226|Price|product|||TS|rsf:gd-|-stype:attr=1|qr_nm:gd|res:RC4|com-cf:nl|ptrs:na|ktp:N0|mc:98914|mtp:S|qry_typ:P|lang:en|wc:3|cs:8848|v=4,"Mayur Traders, Thane",https://www.labequipmentconsumables.com/?pos=56&kwd=baby cotton swab&tags=||||8223.226|Price|product|||TS|rsf:gd-|-stype:attr=1|qr_nm:gd|res:RC4|com-cf:nl|ptrs:na|ktp:N0|mc:98914|mtp:S|qry_typ:P|lang:en|wc:3|cs:8848|v=4,False,Jekegram,Thane,"No. 201, Narmada Building, Laxmi Industrial Complex Vartak Nagar, Thane Janata Sahakari Bank, Thane West, Jekegram, Thane - 400606, Dist.Thane, Maharashtra",8048618956,
"Wooden Sterile Cotton Swab, For Clinical, Non-Sterile",https://www.indiamart.com/proddetail/sterile-cotton-swab-19303535262.html?pos=57&kwd=baby cotton swab&tags=||||8785.791|Price|product|||TS|rsf:gd-|-stype:attr=1|qr_nm:gd|res:RC4|com-cf:nl|ptrs:na|ktp:N0|mc:98914|mtp:S|qry_typ:P|lang:en|wc:3|cs:8848|v=4,Pal Surgical And Medical,https://www.psmworld.in/?pos=57&kwd=baby cotton swab&tags=||||8785.791|Price|product|||TS|rsf:gd-|-stype:attr=1|qr_nm:gd|res:RC4|com-cf:nl|ptrs:na|ktp:N0|mc:98914|mtp:S|qry_typ:P|lang:en|wc:3|cs:8848|v=4,True,Loni,Ghaziabad,"Near Petrol Pump, ., Pathsala Road Khekra Baghpat, Loni, Loni, Ghaziabad - 201102, Dist.Ghaziabad, Uttar Pradesh",8048989622,
White Cotton Swab Paper Sticks,https://www.indiamart.com/proddetail/cotton-swab-paper-sticks-23924735462.html?pos=58&kwd=baby cotton swab&tags=||||8211.142|Price|product|||TS|rsf:gd-|-stype:attr=1|qr_nm:gd|res:RC4|com-cf:nl|ptrs:na|ktp:N0|mc:98914|mtp:S|qry_typ:P|lang:en|wc:3|cs:8848|v=4,New Mayur Plastics,https://www.indiamart.com/newmayurplastics/?pos=58&kwd=baby cotton swab&tags=||||8211.142|Price|product|||TS|rsf:gd-|-stype:attr=1|qr_nm:gd|res:RC4|com-cf:nl|ptrs:na|ktp:N0|mc:98914|mtp:S|qry_typ:P|lang:en|wc:3|cs:8848|v=4,False,Mahim,Mumbai,"47, Kakad Industrial Estate, LJ Cross Road No. 3, Mahim, Mahim, Mumbai - 400016, Dist.Mumbai, Maharashtra",8048612193,
"Brown And White Bamboo Cotton Swab Products, Packaging Size: Medium",https://www.indiamart.com/proddetail/bamboo-cotton-swab-products-2850225175033.html?pos=59&kwd=baby cotton swab&tags=||||7964.7354|Price|product|||TS|rsf:gd-|-stype:attr=1|qr_nm:gd|res:RC4|com-cf:nl|ptrs:na|ktp:N0|mc:98914|mtp:S|qry_typ:P|lang:en|wc:3|cs:8848|v=4,Kalasanskruti Coir Products Private Limited,https://www.kscoirproducts.co.in/?pos=59&kwd=baby cotton swab&tags=||||7964.7354|Price|product|||TS|rsf:gd-|-stype:attr=1|qr_nm:gd|res:RC4|com-cf:nl|ptrs:na|ktp:N0|mc:98914|mtp:S|qry_typ:P|lang:en|wc:3|cs:8848|v=4,False,Kadiawad,Jamnagar,"Shop No 8, Jai Labh Complex, Complexchandi Bazar, Kadiawad, Jamnagar - 361001, Dist.Jamnagar, Gujarat",8043834906,
Black swan cotton swab bread,https://www.indiamart.com/proddetail/black-swan-cotton-swab-bread-2854268421862.html?pos=60&kwd=baby cotton swab&tags=||||8752.144|Price|product|||TS|rsf:gd-|-stype:attr=1|qr_nm:gd|res:RC4|com-cf:nl|ptrs:na|ktp:N0|mc:98914|mtp:S|qry_typ:P|lang:en|wc:3|cs:8848|v=4,K.B.Enterprises,https://www.indiamart.com/kbenterprises-new-delhi/?pos=60&kwd=baby cotton swab&tags=||||8752.144|Price|product|||TS|rsf:gd-|-stype:attr=1|qr_nm:gd|res:RC4|com-cf:nl|ptrs:na|ktp:N0|mc:98914|mtp:S|qry_typ:P|lang:en|wc:3|cs:8848|v=4,False,North Delhi,New Delhi,"1599 Hathi Khana 1st Floor Bahadurgarh Road, North Delhi, New Delhi - 110006, Dist.Delhi, Delhi",8048601660,
"Auroswab - Sterile Cotton Swab, For Hospital",https://www.indiamart.com/proddetail/auroswab-sterile-cotton-swab-5583625362.html?pos=61&kwd=baby cotton swab&tags=||||8706.587||product|||TS|rsf:gd-|-stype:attr=1|qr_nm:gd|res:RC4|com-cf:nl|ptrs:na|ktp:N0|mc:98914|mtp:S|qry_typ:P|lang:en|wc:3|cs:8848|v=4,Aurolab,https://www.indiamart.com/aurolab/?pos=61&kwd=baby cotton swab&tags=||||8706.587||product|||TS|rsf:gd-|-stype:attr=1|qr_nm:gd|res:RC4|com-cf:nl|ptrs:na|ktp:N0|mc:98914|mtp:S|qry_typ:P|lang:en|wc:3|cs:8848|v=4,False,Mattiuttavani,Madurai,"No. 1, Sivagangai Main Road Sivagangai Main Road, Mattiuttavani, Madurai - 625020, Dist.Madurai, Tamil Nadu",8048970776,
"Cotton Swab With Wooden Stick, Packaging Size: 100 Piece, Sterile",https://www.indiamart.com/proddetail/cotton-swab-with-wooden-stick-2853018248455.html?pos=62&kwd=baby cotton swab&tags=||||8752.144|Price|product|||TS|rsf:gd-|-stype:attr=1|qr_nm:gd|res:RC4|com-cf:nl|ptrs:na|ktp:N0|mc:98914|mtp:S|qry_typ:P|lang:en|wc:3|cs:8848|v=4,Amrit Scientific Ind. Private Limited,https://www.amritscientificasico.com/?pos=62&kwd=baby cotton swab&tags=||||8752.144|Price|product|||TS|rsf:gd-|-stype:attr=1|qr_nm:gd|res:RC4|com-cf:nl|ptrs:na|ktp:N0|mc:98914|mtp:S|qry_typ:P|lang:en|wc:3|cs:8848|v=4,False,Pahari Dhiraj,New Delhi,"G/F, S.NO.- 48, South Basti Harphool Singh, Pahari Dhiraj, New Delhi - 110006, Dist.Delhi, Delhi",7942560589,
"Non-Sterile Cotton Swab With Wooden Stick, 100 sticks",https://www.indiamart.com/proddetail/cotton-swab-with-wooden-stick-2855062100573.html?pos=63&kwd=baby cotton swab&tags=||||8741.987|Price|product|||TS|rsf:gd-|-stype:attr=1|qr_nm:gd|res:RC4|com-cf:nl|ptrs:na|ktp:N0|mc:98914|mtp:S|qry_typ:P|lang:en|wc:3|cs:8848|v=4,Glass Agencies,https://www.indiamart.com/glass-agencies-ambala/?pos=63&kwd=baby cotton swab&tags=||||8741.987|Price|product|||TS|rsf:gd-|-stype:attr=1|qr_nm:gd|res:RC4|com-cf:nl|ptrs:na|ktp:N0|mc:98914|mtp:S|qry_typ:P|lang:en|wc:3|cs:8848|v=4,False,,Ambala,"5309, Anaj Mandi, Ambala Cantt, Ambala - 133001, Dist.Ambala, Haryana",8048974697,
Swab with cotton head and Wooden stick.,https://www.indiamart.com/proddetail/swab-with-cotton-head-and-wooden-stick-23349151891.html?pos=64&kwd=baby cotton swab&tags=||||8786.56||product|||TS|rsf:gd-|-stype:attr=1|qr_nm:gd|res:RC4|com-cf:nl|ptrs:na|ktp:N0|mc:98914|mtp:S|qry_typ:P|lang:en|wc:3|cs:8848|v=4,Kalyan Enterprises,https://www.indiamart.com/kalyan-enterprises-hyderabad/?pos=64&kwd=baby cotton swab&tags=||||8786.56||product|||TS|rsf:gd-|-stype:attr=1|qr_nm:gd|res:RC4|com-cf:nl|ptrs:na|ktp:N0|mc:98914|mtp:S|qry_typ:P|lang:en|wc:3|cs:8848|v=4,False,Bansilalpet,Hyderabad,"No. 6-1-356/1, 3rd Floor, New Bhoiguda, Bansilalpet, Hyderabad - 500003, Dist.Hyderabad, Telangana",8047628532,
"Nylon Sterile Cotton Swab, For Professional, 100 sticks",https://www.indiamart.com/proddetail/sterile-cotton-swab-2854464280191.html?pos=65&kwd=baby cotton swab&tags=||||8211.142|Price|product|||MDC|rsf:gd-|-stype:attr=1|qr_nm:gd|res:RC4|com-cf:nl|ptrs:na|ktp:N0|mc:98914|mtp:S|qry_typ:P|lang:en|wc:3|cs:8848|v=4,Trustcare Surgitech Solutions Private Limited,https://www.indiamart.com/trustcaresurgitechsolutions/?pos=65&kwd=baby cotton swab&tags=||||8211.142|Price|product|||MDC|rsf:gd-|-stype:attr=1|qr_nm:gd|res:RC4|com-cf:nl|ptrs:na|ktp:N0|mc:98914|mtp:S|qry_typ:P|lang:en|wc:3|cs:8848|v=4,False,Bhandup West Suburban,Mumbai,"4th Floor, Office No. 404 Sunshine SRA CHS Commercial Building, Bhandup West Suburban, Mumbai - 400078, Dist.Mumbai, Maharashtra",7942669466,
"White Cotton Swab Stick, Packaging Size: 200 Piece, Sterile",https://www.indiamart.com/proddetail/cotton-swab-stick-2853736332948.html?pos=66&kwd=baby cotton swab&tags=||||8752.144|Price|product|||MDC|rsf:gd-|-stype:attr=1|qr_nm:gd|res:RC4|com-cf:nl|ptrs:na|ktp:N0|mc:98914|mtp:S|qry_typ:P|lang:en|wc:3|cs:8848|v=4,Dizi Venture,https://www.indiamart.com/dizi-venture/?pos=66&kwd=baby cotton swab&tags=||||8752.144|Price|product|||MDC|rsf:gd-|-stype:attr=1|qr_nm:gd|res:RC4|com-cf:nl|ptrs:na|ktp:N0|mc:98914|mtp:S|qry_typ:P|lang:en|wc:3|cs:8848|v=4,False,Keshav Puram,New Delhi,"C-6/109, Keshav Puram, Lawrence Road, Keshav Puram, New Delhi - 110035, Dist.Delhi, Delhi",7949087351,
"Cotton Swab Stick, 100 sticks",https://www.indiamart.com/proddetail/cotton-swab-stick-2854873830373.html?pos=67&kwd=baby cotton swab&tags=||||8211.142|Price|product|||MDC|rsf:gd-|-stype:attr=1|qr_nm:gd|res:RC4|com-cf:nl|ptrs:na|ktp:N0|mc:98914|mtp:S|qry_typ:P|lang:en|wc:3|cs:8848|v=4,Champion Traders,https://www.indiamart.com/champion-traders-mumbai/?pos=67&kwd=baby cotton swab&tags=||||8211.142|Price|product|||MDC|rsf:gd-|-stype:attr=1|qr_nm:gd|res:RC4|com-cf:nl|ptrs:na|ktp:N0|mc:98914|mtp:S|qry_typ:P|lang:en|wc:3|cs:8848|v=4,False,,Mumbai,"1st Floor, Room No 25, 27, Ismail Building, Sutar Chawl, Abdul Rehman Street, Kalbadevi,, Mumbai - 400002, Dist.Mumbai, Maharashtra",8044459818,
"Green ESD Dust Free Cotton Swab, Small, Sterile",https://www.indiamart.com/proddetail/dust-free-cotton-swab-2852771077362.html?pos=68&kwd=baby cotton swab&tags=||||8918.457|Price|product|||MDC|rsf:gd-|-stype:attr=1|qr_nm:gd|res:RC4|com-cf:nl|ptrs:na|ktp:N0|mc:98914|mtp:S|qry_typ:P|lang:en|wc:3|cs:8848|v=4,Umeco India Automation Private Limited,https://www.indiamart.com/umeco-india-automation/?pos=68&kwd=baby cotton swab&tags=||||8918.457|Price|product|||MDC|rsf:gd-|-stype:attr=1|qr_nm:gd|res:RC4|com-cf:nl|ptrs:na|ktp:N0|mc:98914|mtp:S|qry_typ:P|lang:en|wc:3|cs:8848|v=4,False,Juhi,Sriperumbudur,"1st Floor, No 24, Lakshmi Nagar, Near Sumathi Theater, Kancheepuram,, Juhi, Sriperumbudur - 602105, Dist.Kanchipuram, Tamil Nadu",7942718592,
"Sterile Cotton Swab Sticks, For Hospital, Medium",https://www.indiamart.com/proddetail/sterile-cotton-swab-sticks-2853982173148.html?pos=69&kwd=baby cotton swab&tags=||||9843.627|Price|product|||MDC|rsf:gd-|-stype:attr=1|qr_nm:gd|res:RC4|com-cf:nl|ptrs:na|ktp:N0|mc:98914|mtp:S|qry_typ:P|lang:en|wc:3|cs:8848|v=4,Med-Science International,https://www.indiamart.com/med-science-international/?pos=69&kwd=baby cotton swab&tags=||||9843.627|Price|product|||MDC|rsf:gd-|-stype:attr=1|qr_nm:gd|res:RC4|com-cf:nl|ptrs:na|ktp:N0|mc:98914|mtp:S|qry_typ:P|lang:en|wc:3|cs:8848|v=4,False,Satpukur,North 24 Parganas,"107/1, Rafi Ahamed Kidwai Road, Dum Dum Nagar Bazar, Satpukur, North 24 Parganas - 700055, Dist.North 24 Parganas, West Bengal",8044561788,
Super Absorber cotton swab,https://www.indiamart.com/proddetail/super-absorber-cotton-swab-26898376188.html?pos=70&kwd=baby cotton swab&tags=||||8702.805||product|||MDC|rsf:gd-|-stype:attr=1|qr_nm:gd|res:RC4|com-cf:nl|ptrs:na|ktp:N0|mc:98914|mtp:S|qry_typ:P|lang:en|wc:3|cs:8848|v=4,Varn Enterprises,https://www.indiamart.com/varn-enterprises-tamilnadu/?pos=70&kwd=baby cotton swab&tags=||||8702.805||product|||MDC|rsf:gd-|-stype:attr=1|qr_nm:gd|res:RC4|com-cf:nl|ptrs:na|ktp:N0|mc:98914|mtp:S|qry_typ:P|lang:en|wc:3|cs:8848|v=4,False,Pudupalaiyam,Aruppukkottai,"11/234k3A, 1, Rajapalayam, Arasiyarpatti, Virudhunagar, Pudupalaiyam, Aruppukkottai - 626108, Dist.Virudhunagar, Tamil Nadu",8048211521,
Sterile Cotton Swab Stick,https://www.indiamart.com/proddetail/sterile-cotton-swab-stick-23394260673.html?pos=71&kwd=baby cotton swab&tags=||||8211.142|Price|product|||MDC|rsf:gd-|-stype:attr=1|qr_nm:gd|res:RC4|com-cf:nl|ptrs:na|ktp:N0|mc:98914|mtp:S|qry_typ:P|lang:en|wc:3|cs:8848|v=4,Sumeet Traders,https://www.indiamart.com/sumeet-traders/?pos=71&kwd=baby cotton swab&tags=||||8211.142|Price|product|||MDC|rsf:gd-|-stype:attr=1|qr_nm:gd|res:RC4|com-cf:nl|ptrs:na|ktp:N0|mc:98914|mtp:S|qry_typ:P|lang:en|wc:3|cs:8848|v=4,False,,Mumbai,"Room No.9, Shree Mahalaxmi Niwas, Yashwant Rao Chawan Marg, Maharashtra Nagar, Mumbai - 400088, Dist.Mumbai, Maharashtra",8046040134,
"PW009 Sterile Cotton Swab, 100 sticks",https://www.indiamart.com/proddetail/pw009-sterile-cotton-swab-2854373616673.html?pos=72&kwd=baby cotton swab&tags=||||8785.608|Price|product|||MDC|rsf:gd-|-stype:attr=1|qr_nm:gd|res:RC4|com-cf:nl|ptrs:na|ktp:N0|mc:98914|mtp:S|qry_typ:P|lang:en|wc:3|cs:8848|v=4,Star Chemicals & Instruments,https://www.indiamart.com/star-chemicals-instruments/?pos=72&kwd=baby cotton swab&tags=||||8785.608|Price|product|||MDC|rsf:gd-|-stype:attr=1|qr_nm:gd|res:RC4|com-cf:nl|ptrs:na|ktp:N0|mc:98914|mtp:S|qry_typ:P|lang:en|wc:3|cs:8848|v=4,False,,Yamuna Nagar,"M-33/1, Industrial Area, Yamuna Nagar - 135001, Dist.Yamuna Nagar, Haryana",7942629491,
"Wood Stick Cotton Swab, Medium, Non-Sterile",https://www.indiamart.com/proddetail/wood-stick-cotton-swab-2853312546033.html?pos=73&kwd=baby cotton swab&tags=||||8893.88|Price|product|||MDC|rsf:gd-|-stype:attr=1|qr_nm:gd|res:RC4|com-cf:nl|ptrs:na|ktp:N0|mc:98914|mtp:S|qry_typ:P|lang:en|wc:3|cs:8848|v=4,AGS Health Care,https://www.indiamart.com/ags-healthcare-cuddalore/?pos=73&kwd=baby cotton swab&tags=||||8893.88|Price|product|||MDC|rsf:gd-|-stype:attr=1|qr_nm:gd|res:RC4|com-cf:nl|ptrs:na|ktp:N0|mc:98914|mtp:S|qry_typ:P|lang:en|wc:3|cs:8848|v=4,False,,Cuddalore,"Ground Floor, No 659, North Street, Near Mariamman Koil, Aathirikuppam, Kilkangeyankuppam, Cuddalore - 607805, Dist.Cuddalore, Tamil Nadu",8046077561,
"Non-Sterile Cotton Swabs PW004, Packaging Size: 100nos",https://www.indiamart.com/proddetail/non-sterile-cotton-swabs-pw004-26033474355.html?pos=74&kwd=baby cotton swab&tags=||||8584.299|Price|product|||MDC|rsf:gd-|-stype:attr=1|qr_nm:gd|res:RC4|com-cf:nl|ptrs:na|ktp:N0|mc:98914|mtp:S|qry_typ:P|lang:en|wc:3|cs:8848|v=4,Shree Vissnu Scientific Company,https://www.indiamart.com/shree-vissnuscientific-company/?pos=74&kwd=baby cotton swab&tags=||||8584.299|Price|product|||MDC|rsf:gd-|-stype:attr=1|qr_nm:gd|res:RC4|com-cf:nl|ptrs:na|ktp:N0|mc:98914|mtp:S|qry_typ:P|lang:en|wc:3|cs:8848|v=4,False,Gandhipuram,Coimbatore,"545E, BKR Nagar, Sathy Road,Gandhipuram,, Gandhipuram, Coimbatore - 641012, Dist.Coimbatore, Tamil Nadu",8043852080,
"Humidifier Stick Cotton Swab 100 Pieces, Packaging Type: Box",https://www.indiamart.com/proddetail/humidifier-stick-cotton-swab-100-pieces-2854242831148.html?pos=75&kwd=baby cotton swab&tags=||||8168.6484|Price|product|||MDC|rsf:gd-|-stype:attr=1|qr_nm:gd|res:RC4|com-cf:nl|ptrs:na|ktp:N0|mc:98914|mtp:S|qry_typ:P|lang:en|wc:3|cs:8848|v=4,Khanjan Corporation,https://www.indiamart.com/khnajancorporation/?pos=75&kwd=baby cotton swab&tags=||||8168.6484|Price|product|||MDC|rsf:gd-|-stype:attr=1|qr_nm:gd|res:RC4|com-cf:nl|ptrs:na|ktp:N0|mc:98914|mtp:S|qry_typ:P|lang:en|wc:3|cs:8848|v=4,False,,Bhavnagar,"420,Dadma Dada Same Ni Sheri,Vill Ambla,Tal Shihor, Bhavnagar - 364210, Dist.Bhavnagar, Gujarat",8045736606,
"Sterile Cotton Swab (Pack Of 100pcs), Packaging Size: Box",https://www.indiamart.com/proddetail/sterile-cotton-swab-pack-of-100pcs-2851789776533.html?pos=76&kwd=baby cotton swab&tags=||||8954.051|Price|product|||MDC|rsf:gd-|-stype:attr=1|qr_nm:gd|res:RC4|com-cf:nl|ptrs:na|ktp:N0|mc:98914|mtp:S|qry_typ:P|lang:en|wc:3|cs:8848|v=4,Chitra Scientific Industries,https://www.indiamart.com/chitrascientificcompany/?pos=76&kwd=baby cotton swab&tags=||||8954.051|Price|product|||MDC|rsf:gd-|-stype:attr=1|qr_nm:gd|res:RC4|com-cf:nl|ptrs:na|ktp:N0|mc:98914|mtp:S|qry_typ:P|lang:en|wc:3|cs:8848|v=4,False,Valasaravakkam,Chennai,"No 27 V S Nagar 1st Main Road Valasaravakkam Valasaravakkam,, Valasaravakkam, Chennai - 600087, Dist.Chennai, Tamil Nadu",8047630259,
"Cotton Tip Wooden Applicators 6'', Packaging Size: 100/pcs, Non-Sterile",https://www.indiamart.com/proddetail/cotton-tip-wooden-applicators-6-22333960548.html?pos=77&kwd=baby cotton swab&tags=||||8211.142|Price|product|||TS|rsf:gd-|-stype:attr=1|qr_nm:gd|res:RC4|com-cf:nl|ptrs:na|ktp:N0|mc:98914|mtp:S|qry_typ:P|lang:en|wc:3|cs:8848|v=4,Computech India,https://www.computechindia.net/?pos=77&kwd=baby cotton swab&tags=||||8211.142|Price|product|||TS|rsf:gd-|-stype:attr=1|qr_nm:gd|res:RC4|com-cf:nl|ptrs:na|ktp:N0|mc:98914|mtp:S|qry_typ:P|lang:en|wc:3|cs:8848|v=4,False,Goregaon,Mumbai,"No. 230, Aashirwad Industrial Estate, No. 5, Ram Mandir Road, Goregaon West, Goregaon, Mumbai - 400104, Dist.Mumbai, Maharashtra",7942553619,
"Cotton 75 Stick Wooden Ear Wax Cleaning Buds ( Pack Of 75 ), Medium, Packaging Type: Packet",https://www.indiamart.com/proddetail/75-stick-wooden-ear-wax-cleaning-buds-pack-of-75-2849785327697.html?pos=78&kwd=baby cotton swab&tags=||||8752.144|Price|product|||TS|rsf:gd-|-stype:attr=1|qr_nm:gd|res:RC4|com-cf:nl|ptrs:na|ktp:N0|mc:98914|mtp:S|qry_typ:P|lang:en|wc:3|cs:8848|v=4,The Creators,https://www.indiamart.com/thecreators-newdelhi/?pos=78&kwd=baby cotton swab&tags=||||8752.144|Price|product|||TS|rsf:gd-|-stype:attr=1|qr_nm:gd|res:RC4|com-cf:nl|ptrs:na|ktp:N0|mc:98914|mtp:S|qry_typ:P|lang:en|wc:3|cs:8848|v=4,False,Sultanpuri,New Delhi,"275-76, Block P-3, Sultanpuri North West Delhi, Sultanpuri, New Delhi - 110086, Dist.Delhi, Delhi",8047549858,
"PVC White Evolis Cleaning Swaps, Size: 4 Inch (length)",https://www.indiamart.com/proddetail/evolis-cleaning-swaps-2853885750491.html?pos=79&kwd=baby cotton swab&tags=||||9572.14|Price|product|||TS|rsf:gd-|-stype:attr=1|qr_nm:gd|res:RC4|com-cf:nl|ptrs:na|ktp:N0|mc:98914|mtp:S|qry_typ:P|lang:en|wc:3|cs:8848|v=4,The Image Square,https://www.indiamart.com/theimagesquare/?pos=79&kwd=baby cotton swab&tags=||||9572.14|Price|product|||TS|rsf:gd-|-stype:attr=1|qr_nm:gd|res:RC4|com-cf:nl|ptrs:na|ktp:N0|mc:98914|mtp:S|qry_typ:P|lang:en|wc:3|cs:8848|v=4,False,Irc Village,Bhubaneswar,"Plot No. N-6/13,Irc Village,Nayapalli,Bhubaneswar, Irc Village, Bhubaneswar - 751015, Dist.Khorda, Odisha",8044012572,
Antigen Test Nasal And Oral Nylon Flocked Swab,https://www.indiamart.com/proddetail/nasal-and-oral-nylon-flocked-swab-25207566397.html?pos=80&kwd=baby cotton swab&tags=||||8741.987|Price|product|||TS|rsf:gd-|-stype:attr=1|qr_nm:gd|res:RC4|com-cf:nl|ptrs:na|ktp:N0|mc:98914|mtp:S|qry_typ:P|lang:en|wc:3|cs:8848|v=4,Star Delight International,https://www.indiamart.com/star-delight-international/?pos=80&kwd=baby cotton swab&tags=||||8741.987|Price|product|||TS|rsf:gd-|-stype:attr=1|qr_nm:gd|res:RC4|com-cf:nl|ptrs:na|ktp:N0|mc:98914|mtp:S|qry_typ:P|lang:en|wc:3|cs:8848|v=4,False,Dayal Bagh,Ambala,"3, Vashisht Nagar, Babyal Road, Ambala Cantt, Dayal Bagh, Ambala - 133005, Dist.Ambala, Haryana",8046057060,
"Non-Sterile Wooden Ear Swabs STICKS ONLY, PP BAGS",https://www.indiamart.com/proddetail/wooden-ear-swabs-sticks-only-26253787955.html?pos=81&kwd=baby cotton swab&tags=||||8663.873|Price|product|||TS|rsf:gd-|-stype:attr=1|qr_nm:gd|res:RC4|com-cf:nl|ptrs:na|ktp:N0|mc:98914|mtp:S|qry_typ:P|lang:en|wc:3|cs:8848|v=4,Rohit Marketing,https://www.indiamart.com/rohit-marketing-robertsonpet/?pos=81&kwd=baby cotton swab&tags=||||8663.873|Price|product|||TS|rsf:gd-|-stype:attr=1|qr_nm:gd|res:RC4|com-cf:nl|ptrs:na|ktp:N0|mc:98914|mtp:S|qry_typ:P|lang:en|wc:3|cs:8848|v=4,False,Wilson Garden,Bengaluru,"#133/2, GROUND FLOOR 5TH MAIN 5TH CROSS, Wilson Garden, Bengaluru - 560027, Dist.Bengaluru, Karnataka",8046064881,
Puritan Sterile Cotton Tipped Applicator,https://www.indiamart.com/proddetail/puritan-sterile-cotton-tipped-applicator-23427189573.html?pos=82&kwd=baby cotton swab&tags=||||8663.873||product|||TS|rsf:gd-|-stype:attr=1|qr_nm:gd|res:RC4|com-cf:nl|ptrs:na|ktp:N0|mc:98914|mtp:S|qry_typ:P|lang:en|wc:3|cs:8848|v=4,SAV Scientific And Petrochem,https://www.indiamart.com/savscientificandpetrochem/?pos=82&kwd=baby cotton swab&tags=||||8663.873||product|||TS|rsf:gd-|-stype:attr=1|qr_nm:gd|res:RC4|com-cf:nl|ptrs:na|ktp:N0|mc:98914|mtp:S|qry_typ:P|lang:en|wc:3|cs:8848|v=4,False,Yemalur,Bengaluru,"Shop No. 02, BBMP NO. 410, Survey No. 6/1, Old Grama Thana No. 309/2, Ward 86, Yemalur Village, Yemalur, Bengaluru - 560037, Dist.Bengaluru, Karnataka",8046051665,
"Cotton Now Organic Bamboo Ear Cleaning Buds, Packaging Type: Box, Model Name/Number: NOWORGBUD0001",https://www.indiamart.com/proddetail/now-organic-bamboo-ear-cleaning-buds-22460056173.html?pos=83&kwd=baby cotton swab&tags=||||8974.737|Price|product|||TS|rsf:gd-|-stype:attr=1|qr_nm:gd|res:RC4|com-cf:nl|ptrs:na|ktp:N0|mc:98914|mtp:S|qry_typ:P|lang:en|wc:3|cs:8848|v=4,Trivi Industries,https://www.indiamart.com/trivi-industries/?pos=83&kwd=baby cotton swab&tags=||||8974.737|Price|product|||TS|rsf:gd-|-stype:attr=1|qr_nm:gd|res:RC4|com-cf:nl|ptrs:na|ktp:N0|mc:98914|mtp:S|qry_typ:P|lang:en|wc:3|cs:8848|v=4,False,Civil Lines,Bareilly,"Plot No 201, 202 New industrial area Parsakhera Road No 1, Civil Lines, Bareilly - 243502, Dist.Bareilly, Uttar Pradesh",7942562036,
"Ear Buds Cotton, For Household, 100 Sticks",https://www.indiamart.com/proddetail/ear-buds-cotton-2849536675388.html?pos=84&kwd=baby cotton swab&tags=||||8752.144|Price|product|||TS|rsf:gd-|-stype:attr=1|qr_nm:gd|res:RC4|com-cf:nl|ptrs:na|ktp:N0|mc:98914|mtp:S|qry_typ:P|lang:en|wc:3|cs:8848|v=4,Ambika Traders,https://www.vikosteels.com/?pos=84&kwd=baby cotton swab&tags=||||8752.144|Price|product|||TS|rsf:gd-|-stype:attr=1|qr_nm:gd|res:RC4|com-cf:nl|ptrs:na|ktp:N0|mc:98914|mtp:S|qry_typ:P|lang:en|wc:3|cs:8848|v=4,False,Teliwara,New Delhi,"2582 Mahavir Bazar Teliwara, Teliwara, New Delhi - 110006, Dist.Delhi, Delhi",8047636488,
"Sterile Cotton Applicator, For Professional",https://www.indiamart.com/proddetail/sterile-cotton-applicator-2854476725391.html?pos=85&kwd=baby cotton swab&tags=||||8741.987|Price|product|||TS|rsf:gd-|-stype:attr=1|qr_nm:gd|res:RC4|com-cf:nl|ptrs:na|ktp:N0|mc:98914|mtp:S|qry_typ:P|lang:en|wc:3|cs:8848|v=4,The Unified India,https://www.indiamart.com/theunified-india/?pos=85&kwd=baby cotton swab&tags=||||8741.987|Price|product|||TS|rsf:gd-|-stype:attr=1|qr_nm:gd|res:RC4|com-cf:nl|ptrs:na|ktp:N0|mc:98914|mtp:S|qry_typ:P|lang:en|wc:3|cs:8848|v=4,False,,Ambala,"86, The Unified India,simran Vihar, Behind B D Floor Mill,, Ambala - 133001, Dist.Ambala, Haryana",7949338616,
Bamboo Ear Cotton Swabs,https://www.indiamart.com/proddetail/bamboo-ear-cotton-swabs-2854356998888.html?pos=86&kwd=baby cotton swab&tags=||||8954.051|Price|product|||TS|rsf:gd-|-stype:attr=1|qr_nm:gd|res:RC4|com-cf:nl|ptrs:na|ktp:N0|mc:98914|mtp:S|qry_typ:P|lang:en|wc:3|cs:8848|v=4,Ecovians,https://www.indiamart.com/ecovians-chennai/?pos=86&kwd=baby cotton swab&tags=||||8954.051|Price|product|||TS|rsf:gd-|-stype:attr=1|qr_nm:gd|res:RC4|com-cf:nl|ptrs:na|ktp:N0|mc:98914|mtp:S|qry_typ:P|lang:en|wc:3|cs:8848|v=4,False,,Chennai,"Ground Floor Part, No 37, Vannaskathi Nagar, Murugan Koil Street, Chennai, Chennai - 600099, Dist.Chennai, Tamil Nadu",7942720862,
Liquid Isopropyl Alcohol,https://www.indiamart.com/proddetail/liquid-isopropyl-alcohol-20848568630.html?pos=87&kwd=baby cotton swab&tags=||||8752.144|Price|product|||TS|rsf:gd-|-stype:attr=1|qr_nm:gd|res:RC4|com-cf:nl|ptrs:na|ktp:N0|mc:98914|mtp:S|qry_typ:P|lang:en|wc:3|cs:8848|v=4,Kwality Thinners & Chemicals,https://www.indiamart.com/kwalitythinnersandchemicals/?pos=87&kwd=baby cotton swab&tags=||||8752.144|Price|product|||TS|rsf:gd-|-stype:attr=1|qr_nm:gd|res:RC4|com-cf:nl|ptrs:na|ktp:N0|mc:98914|mtp:S|qry_typ:P|lang:en|wc:3|cs:8848|v=4,False,Kirti Nagar,New Delhi,"1408-a, Ground Floor, Gali Telian, Tilak Bazar,, Kirti Nagar, New Delhi - 110006, Dist.Delhi, Delhi",8046068743,
"Trupti Cotton Buds, For Professional, Medium",https://www.indiamart.com/proddetail/trupti-cotton-buds-25232326688.html?pos=88&kwd=baby cotton swab&tags=||||8786.56|Price|product|||TS|rsf:gd-|-stype:attr=1|qr_nm:gd|res:RC4|com-cf:nl|ptrs:na|ktp:N0|mc:98914|mtp:S|qry_typ:P|lang:en|wc:3|cs:8848|v=4,Rajadhani Enterprises,https://www.rajadhanienterprises.in/?pos=88&kwd=baby cotton swab&tags=||||8786.56|Price|product|||TS|rsf:gd-|-stype:attr=1|qr_nm:gd|res:RC4|com-cf:nl|ptrs:na|ktp:N0|mc:98914|mtp:S|qry_typ:P|lang:en|wc:3|cs:8848|v=4,False,Begum Bazar Pathan Wadi,Hyderabad,"15-6-588/1G, Agarwal Market, Siddiamber Bazar Satyanarayan Enclaves, Gol Masjid, Begum Bazar Pathan Wadi, Hyderabad - 500012, Dist.Hyderabad, Telangana",8047635606,
"Wooden Ear Swab, Packaging Size: 30 Packets, Sterile",https://www.indiamart.com/proddetail/wooden-ear-swab-2852992194391.html?pos=89&kwd=baby cotton swab&tags=||||8752.144|Price|product|||TS|rsf:gd-|-stype:attr=1|qr_nm:gd|res:RC4|com-cf:nl|ptrs:na|ktp:N0|mc:98914|mtp:S|qry_typ:P|lang:en|wc:3|cs:8848|v=4,Mannu Traders,https://www.indiamart.com/mannutraders-delhi/?pos=89&kwd=baby cotton swab&tags=||||8752.144|Price|product|||TS|rsf:gd-|-stype:attr=1|qr_nm:gd|res:RC4|com-cf:nl|ptrs:na|ktp:N0|mc:98914|mtp:S|qry_typ:P|lang:en|wc:3|cs:8848|v=4,False,Delhi Sadar Bazar,New Delhi,"5651 Gandhi Market, Sadar Bazar, North Delhi, Delhi Sadar Bazar, New Delhi - 110006, Dist.Delhi, Delhi",8047799471,
"Cotton Ear Cleaning Buds, For Residential, Packaging Size: 100 Sticks",https://www.indiamart.com/proddetail/ear-cleaning-buds-23461122533.html?pos=90&kwd=baby cotton swab&tags=||||8663.873||product|||TS|rsf:gd-|-stype:attr=1|qr_nm:gd|res:RC4|com-cf:nl|ptrs:na|ktp:N0|mc:98914|mtp:S|qry_typ:P|lang:en|wc:3|cs:8848|v=4,Shree Impex,https://www.indiamart.com/shreeimpex/?pos=90&kwd=baby cotton swab&tags=||||8663.873||product|||TS|rsf:gd-|-stype:attr=1|qr_nm:gd|res:RC4|com-cf:nl|ptrs:na|ktp:N0|mc:98914|mtp:S|qry_typ:P|lang:en|wc:3|cs:8848|v=4,False,Chickpet,Bengaluru,"5/1, PS Lane, Santhuspet, Santhusapet, Chickpet, Bengaluru - 560053, Dist.Bengaluru, Karnataka",8048966801,
"Bamboo Cotton Ear Bud, For Personal, Packaging Type: Pack Of 80 Swabs",https://www.indiamart.com/proddetail/bamboo-cotton-ear-bud-24739106097.html?pos=91&kwd=baby cotton swab&tags=||||8752.144|Price|product|||TS|rsf:gd-|-stype:attr=1|qr_nm:gd|res:RC4|com-cf:nl|ptrs:na|ktp:N0|mc:98914|mtp:S|qry_typ:P|lang:en|wc:3|cs:8848|v=4,IM Corporation,https://www.imcorporation.in/?pos=91&kwd=baby cotton swab&tags=||||8752.144|Price|product|||TS|rsf:gd-|-stype:attr=1|qr_nm:gd|res:RC4|com-cf:nl|ptrs:na|ktp:N0|mc:98914|mtp:S|qry_typ:P|lang:en|wc:3|cs:8848|v=4,False,Okhla Industrial Estate,New Delhi,"DDA Shed Okhla Industrial Area Phase-1 Delhi C-77 Delhi South Delhi Ground Floor, Okhla Industrial Estate, New Delhi - 110020, Dist.Delhi, Delhi",8048263469,
"CLEANING SWAB S, For Industrial",https://www.indiamart.com/proddetail/cleaning-swab-s-2853931608533.html?pos=92&kwd=baby cotton swab&tags=||||8786.56|Price|product|||TS|rsf:gd-|-stype:attr=1|qr_nm:gd|res:RC4|com-cf:nl|ptrs:na|ktp:N0|mc:98914|mtp:S|qry_typ:P|lang:en|wc:3|cs:8848|v=4,SMS ENTERPRISES,https://www.maxwellhyd.com/?pos=92&kwd=baby cotton swab&tags=||||8786.56|Price|product|||TS|rsf:gd-|-stype:attr=1|qr_nm:gd|res:RC4|com-cf:nl|ptrs:na|ktp:N0|mc:98914|mtp:S|qry_typ:P|lang:en|wc:3|cs:8848|v=4,False,Medchal,Hyderabad,"12-87/a/1 P.no 45 Survey No 421/a 871, Medchal Mandal, Medchal, Hyderabad - 501401, Dist.Hyderabad, Telangana",8047646834,
"White Hotel Cotton Tips, Packaging Size: Box, Sterile",https://www.indiamart.com/proddetail/hotel-cotton-tips-2851220601030.html?pos=93&kwd=baby cotton swab&tags=||||8211.142|Price|product|||TS|rsf:gd-|-stype:attr=1|qr_nm:gd|res:RC4|com-cf:nl|ptrs:na|ktp:N0|mc:98914|mtp:S|qry_typ:P|lang:en|wc:3|cs:8848|v=4,Rita Enterprises,https://www.ritaenterprise.co.in/?pos=93&kwd=baby cotton swab&tags=||||8211.142|Price|product|||TS|rsf:gd-|-stype:attr=1|qr_nm:gd|res:RC4|com-cf:nl|ptrs:na|ktp:N0|mc:98914|mtp:S|qry_typ:P|lang:en|wc:3|cs:8848|v=4,False,Dahisar East,Mumbai,"2/3, 2, 3, Rafiq Industrial Estate, End Of S. V. Road, Dahisar East, Mumbai - 400068, Dist.Mumbai, Maharashtra",8048619897,
Wooden Ear Swab,https://www.indiamart.com/proddetail/wooden-ear-swab-2851818762155.html?pos=94&kwd=baby cotton swab&tags=||||8774.064|Price|product|||TS|rsf:gd-|-stype:attr=1|qr_nm:gd|res:RC4|com-cf:nl|ptrs:na|ktp:N0|mc:98914|mtp:S|qry_typ:P|lang:en|wc:3|cs:8848|v=4,Sri.Rajkamal Marketing,https://www.indiamart.com/srirajkamal-marketing/?pos=94&kwd=baby cotton swab&tags=||||8774.064|Price|product|||TS|rsf:gd-|-stype:attr=1|qr_nm:gd|res:RC4|com-cf:nl|ptrs:na|ktp:N0|mc:98914|mtp:S|qry_typ:P|lang:en|wc:3|cs:8848|v=4,False,Tharanallur,Tiruchirappalli,"No.74, Big Kammala Street, Tharanallur, Tiruchirappalli - 620008, Dist.Tiruchirappalli, Tamil Nadu",7942836032,
PAPER STICK COTTON BUDS A100 BAG,https://www.indiamart.com/proddetail/paper-stick-cotton-buds-a100-bag-2850866267097.html?pos=95&kwd=baby cotton swab&tags=||||8663.873|Price|product|||TS|rsf:gd-|-stype:attr=1|qr_nm:gd|res:RC4|com-cf:nl|ptrs:na|ktp:N0|mc:98914|mtp:S|qry_typ:P|lang:en|wc:3|cs:8848|v=4,TZMO India South Private Limited,https://www.indiamart.com/tzmoindiasouth/?pos=95&kwd=baby cotton swab&tags=||||8663.873|Price|product|||TS|rsf:gd-|-stype:attr=1|qr_nm:gd|res:RC4|com-cf:nl|ptrs:na|ktp:N0|mc:98914|mtp:S|qry_typ:P|lang:en|wc:3|cs:8848|v=4,False,New Timber Yard Layout,Bengaluru,"No.2, 1st Floor, Featherlite Building, Mysore Road, New Timber Yard Layout, New Timber Yard Layout, Bengaluru - 560026, Dist.Bengaluru, Karnataka",8048619127,
Non Sterile Swab,https://www.indiamart.com/proddetail/non-sterile-swab-23748668330.html?pos=96&kwd=baby cotton swab&tags=||||8307.81|Price|product|||TS|rsf:gd-|-stype:attr=1|qr_nm:gd|res:RC4|com-cf:nl|ptrs:na|ktp:N0|mc:98914|mtp:S|qry_typ:P|lang:en|wc:3|cs:8848|v=4,Arjas Healthcare,https://www.arjashealthcare.com/?pos=96&kwd=baby cotton swab&tags=||||8307.81|Price|product|||TS|rsf:gd-|-stype:attr=1|qr_nm:gd|res:RC4|com-cf:nl|ptrs:na|ktp:N0|mc:98914|mtp:S|qry_typ:P|lang:en|wc:3|cs:8848|v=4,False,Sadashiv Peth,Pune,"1144, Nilav Coop HSG Society, Sadashiv Peth, Near Perugate Police Chowki, Sadashiv Peth, Pune - 411030, Dist.Pune, Maharashtra",8046045005,
"White Tulips Cotton Swabs, Packaging Size: 50 Piece, Sterile",https://www.indiamart.com/proddetail/tulips-cotton-swabs-23306264162.html?pos=97&kwd=baby cotton swab&tags=||||8559.269|Price|product|||TS|rsf:gd-|-stype:attr=1|qr_nm:gd|res:RC4|com-cf:nl|ptrs:na|ktp:N0|mc:98914|mtp:S|qry_typ:P|lang:en|wc:3|cs:8848|v=4,Muskan Enterprises,https://www.indiamart.com/muskan-enterprises-sagar/?pos=97&kwd=baby cotton swab&tags=||||8559.269|Price|product|||TS|rsf:gd-|-stype:attr=1|qr_nm:gd|res:RC4|com-cf:nl|ptrs:na|ktp:N0|mc:98914|mtp:S|qry_typ:P|lang:en|wc:3|cs:8848|v=4,False,Khatiwala Tank,Indore,"32, Veer Sawarkar Nagar, Khatiwala Tank, Indore - 452014, Dist.Indore, Madhya Pradesh",8047641149,
Round Bamboo Ear Buds,https://www.indiamart.com/proddetail/bamboo-ear-buds-2851065682733.html?pos=98&kwd=baby cotton swab&tags=||||9839.57|Price|product|||TS|rsf:gd-|-stype:attr=1|qr_nm:gd|res:RC4|com-cf:nl|ptrs:na|ktp:N0|mc:98914|mtp:S|qry_typ:P|lang:en|wc:3|cs:8848|v=4,Skp Enterprises,https://www.bambooliving.in/?pos=98&kwd=baby cotton swab&tags=||||9839.57|Price|product|||TS|rsf:gd-|-stype:attr=1|qr_nm:gd|res:RC4|com-cf:nl|ptrs:na|ktp:N0|mc:98914|mtp:S|qry_typ:P|lang:en|wc:3|cs:8848|v=4,False,Baranagar,Kolkata,"167/18 A, Ground Floor, South Sinthi, Kolkata, North Twenty Four Parganas, Baranagar, Kolkata - 700050, Dist.Kolkata, West Bengal",8047650479,
"Cotton Eco Friendly Bamboo Earbuds, Packaging Size: 100 Sticks, Medium",https://www.indiamart.com/proddetail/eco-friendly-bamboo-earbuds-2852600269962.html?pos=99&kwd=baby cotton swab&tags=||||8325.872|Price|product|||TS|rsf:gd-|-stype:attr=1|qr_nm:gd|res:RC4|com-cf:nl|ptrs:na|ktp:N0|mc:98914|mtp:S|qry_typ:P|lang:en|wc:3|cs:8848|v=4,Arth Bioplast Products Private Limited,https://www.indiamart.com/arth-bioplast-products/?pos=99&kwd=baby cotton swab&tags=||||8325.872|Price|product|||TS|rsf:gd-|-stype:attr=1|qr_nm:gd|res:RC4|com-cf:nl|ptrs:na|ktp:N0|mc:98914|mtp:S|qry_typ:P|lang:en|wc:3|cs:8848|v=4,False,1st Pulia,Panchmahal,"Plot No. 2/37, GIDC Estate, Chandrapura, Halol Panchmahals, 1st Pulia, Panchmahal - 389350, Dist.Panch Mahals, Gujarat",8048265633,
"Bamboo Cotton Ear Swabs, Packaging Type: Box, Packaging Size: 100 Sticks",https://www.indiamart.com/proddetail/bamboo-cotton-ear-swabs-22699950797.html?pos=100&kwd=baby cotton swab&tags=||||8752.144|Price|product|||TS|rsf:gd-|-stype:attr=1|qr_nm:gd|res:RC4|com-cf:nl|ptrs:na|ktp:N0|mc:98914|mtp:S|qry_typ:P|lang:en|wc:3|cs:8848|v=4,The Bamboo Bae,https://www.bambooproducts.co.in/?pos=100&kwd=baby cotton swab&tags=||||8752.144|Price|product|||TS|rsf:gd-|-stype:attr=1|qr_nm:gd|res:RC4|com-cf:nl|ptrs:na|ktp:N0|mc:98914|mtp:S|qry_typ:P|lang:en|wc:3|cs:8848|v=4,False,Jagjeet Nagar,New Delhi,"E-614, Indra Gali No 4, 3rd Pusta, Jagjeet Nagar, Jagjeet Nagar, New Delhi - 110053, Dist.Delhi, Delhi",8048979668,
"White Sterilised Swab Stick (Individual Packing), Packaging Size: 100 Pieces, Sterile",https://www.indiamart.com/proddetail/sterilised-swab-stick-individual-packing-16781820333.html?pos=101&kwd=baby cotton swab&tags=||||8752.144|Price|product|||TS|rsf:gd-|-stype:attr=1|qr_nm:gd|res:RC4|com-cf:nl|ptrs:na|ktp:N0|mc:98914|mtp:S|qry_typ:P|lang:en|wc:3|cs:8848|v=4,Noble Healthcare,https://www.derbyhealthcare.in/?pos=101&kwd=baby cotton swab&tags=||||8752.144|Price|product|||TS|rsf:gd-|-stype:attr=1|qr_nm:gd|res:RC4|com-cf:nl|ptrs:na|ktp:N0|mc:98914|mtp:S|qry_typ:P|lang:en|wc:3|cs:8848|v=4,False,Subhash Nagar,New Delhi,"Shop No. 14/127, Ground Floor, Subhash Nagar, Subhash Nagar, New Delhi - 110027, Dist.Delhi, Delhi",8048955013,
Antigen Test Specimen Collection Flocked Swabs,https://www.indiamart.com/proddetail/specimen-collection-flocked-swabs-24198714473.html?pos=102&kwd=baby cotton swab&tags=||||8228.275|Price|product|||TS|rsf:gd-|-stype:attr=1|qr_nm:gd|res:RC4|com-cf:nl|ptrs:na|ktp:N0|mc:98914|mtp:S|qry_typ:P|lang:en|wc:3|cs:8848|v=4,K. D. Corporation,https://www.kdcorporation.in/?pos=102&kwd=baby cotton swab&tags=||||8228.275|Price|product|||TS|rsf:gd-|-stype:attr=1|qr_nm:gd|res:RC4|com-cf:nl|ptrs:na|ktp:N0|mc:98914|mtp:S|qry_typ:P|lang:en|wc:3|cs:8848|v=4,False,Nikol,Ahmedabad,"11, 12, 13, Khushi Arcade, Manmohan Road, Khodiyar Temple, Nikol, Nikol, Ahmedabad - 382350, Dist.Ahmedabad, Gujarat",8046041635,
"Wooden Earbuds, For Hospital, Packaging Size: 100 Sticks",https://www.indiamart.com/proddetail/cotton-earbuds-bamboo-stick-2854682542673.html?pos=103&kwd=baby cotton swab&tags=||||8752.144|Price|product|||TS|rsf:gd-|-stype:attr=1|qr_nm:gd|res:RC4|com-cf:nl|ptrs:na|ktp:N0|mc:98914|mtp:S|qry_typ:P|lang:en|wc:3|cs:8848|v=4,Krrish Impex,https://www.indiamart.com/krrish-impex/?pos=103&kwd=baby cotton swab&tags=||||8752.144|Price|product|||TS|rsf:gd-|-stype:attr=1|qr_nm:gd|res:RC4|com-cf:nl|ptrs:na|ktp:N0|mc:98914|mtp:S|qry_typ:P|lang:en|wc:3|cs:8848|v=4,False,Siraspur,New Delhi,"Khasra No 692/1, Shed No 4 To 7, Dharma Raja Marg, Gali No 4, Pipal Chowk, Siraspur, Siraspur, New Delhi - 110042, Dist.Delhi, Delhi",8043861966,
"Sceptre Scepto Rub -2 S Swab Stick, For Hospital",https://www.indiamart.com/proddetail/scepto-rub-2-s-swab-stick-20848883733.html?pos=104&kwd=baby cotton swab&tags=||||8752.144||product|||TS|rsf:gd-|-stype:attr=1|qr_nm:gd|res:RC4|com-cf:nl|ptrs:na|ktp:N0|mc:98914|mtp:S|qry_typ:P|lang:en|wc:3|cs:8848|v=4,M S Medicals Private Limited,https://www.msmedicals.in/?pos=104&kwd=baby cotton swab&tags=||||8752.144||product|||TS|rsf:gd-|-stype:attr=1|qr_nm:gd|res:RC4|com-cf:nl|ptrs:na|ktp:N0|mc:98914|mtp:S|qry_typ:P|lang:en|wc:3|cs:8848|v=4,False,Ashok Vihar,New Delhi,"N-1, Lower Ground, Satyawati Colony, Ashok Vihar, New Delhi - 110052, Dist.Delhi, Delhi",8047636686,
"Cotton Swabs, For Ear Clean",https://www.indiamart.com/proddetail/cotton-swabs-22340488991.html?pos=105&kwd=baby cotton swab&tags=||||10180.86|Price|product|||TS|rsf:gd-|-stype:attr=1|qr_nm:gd|res:RC4|com-cf:nl|ptrs:na|ktp:N0|mc:98914|mtp:S|qry_typ:P|lang:en|wc:3|cs:8848|v=4,Khushi Enterprises,https://www.indiamart.com/khushi-enterprises-guwahati/?pos=105&kwd=baby cotton swab&tags=||||10180.86|Price|product|||TS|rsf:gd-|-stype:attr=1|qr_nm:gd|res:RC4|com-cf:nl|ptrs:na|ktp:N0|mc:98914|mtp:S|qry_typ:P|lang:en|wc:3|cs:8848|v=4,False,Kamala Das Colony,Guwahati,"guwahati, Kamala Das Colony, Guwahati - 781001, Dist.Kamrup, Assam",7942550774,
Q-tips Cotton Swabs,https://www.indiamart.com/proddetail/q-tips-cotton-swabs-2853990365930.html?pos=106&kwd=baby cotton swab&tags=||||8663.873||product|||TS|rsf:gd-|-stype:attr=1|qr_nm:gd|res:RC4|com-cf:nl|ptrs:na|ktp:N0|mc:98914|mtp:S|qry_typ:P|lang:en|wc:3|cs:8848|v=4,E T S,https://www.indiamart.com/ets-bengaluru/?pos=106&kwd=baby cotton swab&tags=||||8663.873||product|||TS|rsf:gd-|-stype:attr=1|qr_nm:gd|res:RC4|com-cf:nl|ptrs:na|ktp:N0|mc:98914|mtp:S|qry_typ:P|lang:en|wc:3|cs:8848|v=4,False,Laggere,Bengaluru,"Ground Floor, Old No. 997, New No. 244, 50 Feet Road, Muneshwara Layout, Laggere Urban, Laggere, Bengaluru - 560058, Dist.Bengaluru, Karnataka",7942624685,
"Brown Bamboo Ear Cleaning Cotton Buds, For Clinic, Packaging Type: Kraft Box",https://www.indiamart.com/proddetail/bamboo-ear-cleaning-cotton-buds-21554244733.html?pos=107&kwd=baby cotton swab&tags=||||9845.05|Price|product|||TS|rsf:gd-|-stype:attr=1|qr_nm:gd|res:RC4|com-cf:nl|ptrs:na|ktp:N0|mc:98914|mtp:S|qry_typ:P|lang:en|wc:3|cs:8848|v=4,Amwoodo Eco Products Private Limited,https://www.indiamart.com/amwoodo-eco-products/?pos=107&kwd=baby cotton swab&tags=||||9845.05|Price|product|||TS|rsf:gd-|-stype:attr=1|qr_nm:gd|res:RC4|com-cf:nl|ptrs:na|ktp:N0|mc:98914|mtp:S|qry_typ:P|lang:en|wc:3|cs:8848|v=4,False,,Bidhan Nagar,"7th, Room No- 703, Webel IT Park, Tower-2, Bn-9 Block, Bidhan Nagar - 700091, Dist.Darjiling, West Bengal",7942556178,
"PATA Plastic Cotton Swabs Paper Stick, Packaging Size: 1 X 100, Sterile",https://www.indiamart.com/proddetail/cotton-swabs-paper-stick-27138926688.html?pos=108&kwd=baby cotton swab&tags=||||8230.883|Price|product|||TS|rsf:gd-|-stype:attr=1|qr_nm:gd|res:RC4|com-cf:nl|ptrs:na|ktp:N0|mc:98914|mtp:S|qry_typ:P|lang:en|wc:3|cs:8848|v=4,Hanscure Lifescience Pvt Ltd,https://www.indiamart.com/hanscure-lifescience/?pos=108&kwd=baby cotton swab&tags=||||8230.883|Price|product|||TS|rsf:gd-|-stype:attr=1|qr_nm:gd|res:RC4|com-cf:nl|ptrs:na|ktp:N0|mc:98914|mtp:S|qry_typ:P|lang:en|wc:3|cs:8848|v=4,False,Kamrej,Surat,"Plot No. 39, Soham Ind., Near Navagam, Kamrej, Kamrej, Surat - 394185, Dist.Surat, Gujarat",8047543657,
"Brown Cotton Swabs - Packet 100's, For Household, Sterile",https://www.indiamart.com/proddetail/cotton-swabs-packet-100-s-2852829144962.html?pos=109&kwd=baby cotton swab&tags=||||8752.144||product|||TS|rsf:gd-|-stype:attr=1|qr_nm:gd|res:RC4|com-cf:nl|ptrs:na|ktp:N0|mc:98914|mtp:S|qry_typ:P|lang:en|wc:3|cs:8848|v=4,MS Enterprises,https://www.themayansh.com/?pos=109&kwd=baby cotton swab&tags=||||8752.144||product|||TS|rsf:gd-|-stype:attr=1|qr_nm:gd|res:RC4|com-cf:nl|ptrs:na|ktp:N0|mc:98914|mtp:S|qry_typ:P|lang:en|wc:3|cs:8848|v=4,False,Shakurpur,New Delhi,"3503, Block WZ, Raja Park, Shakur Basti,North West, Shakurpur, New Delhi - 110034, Dist.Delhi, Delhi",8047650795,
"Wooden Stick Cotton Swabs, Packaging Size: 100pcs, Non-Sterile",https://www.indiamart.com/proddetail/wooden-stick-cotton-swabs-23936330073.html?pos=110&kwd=baby cotton swab&tags=||||8786.56|Price|product|||TS|rsf:gd-|-stype:attr=1|qr_nm:gd|res:RC4|com-cf:nl|ptrs:na|ktp:N0|mc:98914|mtp:S|qry_typ:P|lang:en|wc:3|cs:8848|v=4,Gpr Tech Diagno Plastics,https://www.gprtechdiagnoplastic.com/?pos=110&kwd=baby cotton swab&tags=||||8786.56|Price|product|||TS|rsf:gd-|-stype:attr=1|qr_nm:gd|res:RC4|com-cf:nl|ptrs:na|ktp:N0|mc:98914|mtp:S|qry_typ:P|lang:en|wc:3|cs:8848|v=4,False,Kapra,Hyderabad,"H No. 1-1-107/53, V.S.Colony, Nathaji Nagar Hi-Tension to old Kapra Muncipal Road, Kapra, Hyderabad - 500062, Dist.Hyderabad, Telangana",8048986815,
"Wooden Antigen Test Disposable Medical Cotton Swabs, Packaging Size: 50 Piece, Sterile",https://www.indiamart.com/proddetail/disposable-medical-cotton-swabs-22180996633.html?pos=111&kwd=baby cotton swab&tags=||||8692.544|Price|product|||TS|rsf:gd-|-stype:attr=1|qr_nm:gd|res:RC4|com-cf:nl|ptrs:na|ktp:N0|mc:98914|mtp:S|qry_typ:P|lang:en|wc:3|cs:8848|v=4,Agarwal Closures,https://www.agarwalclosures.com/?pos=111&kwd=baby cotton swab&tags=||||8692.544|Price|product|||TS|rsf:gd-|-stype:attr=1|qr_nm:gd|res:RC4|com-cf:nl|ptrs:na|ktp:N0|mc:98914|mtp:S|qry_typ:P|lang:en|wc:3|cs:8848|v=4,False,Daudpur,Alwar,"H1-6B South East Extension Mia, Daudpur, Alwar - 301030, Dist.Alwar, Rajasthan",8048273422,
"White Soft Cotton Swabs, 4 Ply, Bandage Size: 90cm x 16m",https://www.indiamart.com/proddetail/soft-cotton-swabs-2851512968648.html?pos=112&kwd=baby cotton swab&tags=||||9301.656|Price|product|||TS|rsf:gd-|-stype:attr=1|qr_nm:gd|res:RC4|com-cf:nl|ptrs:na|ktp:N0|mc:98914|mtp:S|qry_typ:P|lang:en|wc:3|cs:8848|v=4,H.H Cares,https://www.indiamart.com/hhcares/?pos=112&kwd=baby cotton swab&tags=||||9301.656|Price|product|||TS|rsf:gd-|-stype:attr=1|qr_nm:gd|res:RC4|com-cf:nl|ptrs:na|ktp:N0|mc:98914|mtp:S|qry_typ:P|lang:en|wc:3|cs:8848|v=4,False,Telibagh,Varanasi,"C-27/253 C-1, Das Nagar Colony, Maldahiya, Telibagh, Varanasi - 221002, Dist.Varanasi, Uttar Pradesh",8046055862,
"Lens Cleaning Swabs Buds, Packaging Type: Packet, Foam",https://www.indiamart.com/proddetail/lens-cleaning-swabs-buds-2854851039912.html?pos=113&kwd=baby cotton swab&tags=||||8769.508|Price|product|||TS|rsf:gd-|-stype:attr=1|qr_nm:gd|res:RC4|com-cf:nl|ptrs:na|ktp:N0|mc:98914|mtp:S|qry_typ:P|lang:en|wc:3|cs:8848|v=4,Sunrise Technology,https://www.indiamart.com/sunrise-technology-faridabad/?pos=113&kwd=baby cotton swab&tags=||||8769.508|Price|product|||TS|rsf:gd-|-stype:attr=1|qr_nm:gd|res:RC4|com-cf:nl|ptrs:na|ktp:N0|mc:98914|mtp:S|qry_typ:P|lang:en|wc:3|cs:8848|v=4,False,Near,Faridabad,"2,Near Shiv Mandir,Faridabad, Near, Faridabad - 121004, Dist.Faridabad, Haryana",8045166840,
"Cotton Ear Buds, 6 cm, Packaging Type: Packet",https://www.indiamart.com/proddetail/cotton-ear-buds-25892039688.html?pos=114&kwd=baby cotton swab&tags=||||8211.142|Price|product|||TS|rsf:gd-|-stype:attr=1|qr_nm:gd|res:RC4|com-cf:nl|ptrs:na|ktp:N0|mc:98914|mtp:S|qry_typ:P|lang:en|wc:3|cs:8848|v=4,Green Ware Cutleries Private Limited,https://www.greenwarecutleries.com/?pos=114&kwd=baby cotton swab&tags=||||8211.142|Price|product|||TS|rsf:gd-|-stype:attr=1|qr_nm:gd|res:RC4|com-cf:nl|ptrs:na|ktp:N0|mc:98914|mtp:S|qry_typ:P|lang:en|wc:3|cs:8848|v=4,False,Worli,Mumbai,"Gala, Modern Mills Shed, Shivram Seth Bdd, Amrutwar Road, Worli, Worli, Mumbai - 400018, Dist.Mumbai, Maharashtra",8047675494,
Cotton Swabs,https://www.indiamart.com/proddetail/cotton-swabs-23851012355.html?pos=115&kwd=baby cotton swab&tags=||||8752.144||product|||TS|rsf:gd-|-stype:attr=1|qr_nm:gd|res:RC4|com-cf:nl|ptrs:na|ktp:N0|mc:98914|mtp:S|qry_typ:P|lang:en|wc:3|cs:8848|v=4,Essone Global,https://www.indiamart.com/essoneglobal/?pos=115&kwd=baby cotton swab&tags=||||8752.144||product|||TS|rsf:gd-|-stype:attr=1|qr_nm:gd|res:RC4|com-cf:nl|ptrs:na|ktp:N0|mc:98914|mtp:S|qry_typ:P|lang:en|wc:3|cs:8848|v=4,False,Bawana,New Delhi,"M-117, Sector 1 Bawana Industrial Area, Bawana, New Delhi - 110039, Dist.Delhi, Delhi",7942553260,
"White Bamboo Cotton Swabs (Pack Of 20Pcs) 6016, Packaging Size: 20*14*9, Sterile",https://www.indiamart.com/proddetail/bamboo-cotton-swabs-pack-of-20pcs-6016-2853430868848.html?pos=116&kwd=baby cotton swab&tags=||||8038.093|Price|product|||TS|rsf:gd-|-stype:attr=1|qr_nm:gd|res:RC4|com-cf:nl|ptrs:na|ktp:N0|mc:98914|mtp:S|qry_typ:P|lang:en|wc:3|cs:8848|v=4,Deodap,https://www.indiamart.com/deodap/?pos=116&kwd=baby cotton swab&tags=||||8038.093|Price|product|||TS|rsf:gd-|-stype:attr=1|qr_nm:gd|res:RC4|com-cf:nl|ptrs:na|ktp:N0|mc:98914|mtp:S|qry_typ:P|lang:en|wc:3|cs:8848|v=4,False,Rajkot,Rajkot,"plot No. 9 Behind Patanjali Werhouse, Ruda Transport, Saat Hanuman Ahemdabad Road, Rajkot, Rajkot - 360005, Dist.Rajkot, Gujarat",8048972316,
"Three Packing Material Cotton Swabs Packaging, Packaging Type: Pouch, Size: 112.5x295 MM",https://www.indiamart.com/proddetail/cotton-swabs-packaging-23739880012.html?pos=117&kwd=baby cotton swab&tags=||||8785.791|Price|product|||MDC|rsf:gd-|-stype:attr=1|qr_nm:gd|res:RC4|com-cf:nl|ptrs:na|ktp:N0|mc:98914|mtp:S|qry_typ:P|lang:en|wc:3|cs:8848|v=4,Sanmati Packaging Private Limited,https://www.indiamart.com/sanmati-packaging/?pos=117&kwd=baby cotton swab&tags=||||8785.791|Price|product|||MDC|rsf:gd-|-stype:attr=1|qr_nm:gd|res:RC4|com-cf:nl|ptrs:na|ktp:N0|mc:98914|mtp:S|qry_typ:P|lang:en|wc:3|cs:8848|v=4,False,Haqiqatpur Urf Khudawas,Ghaziabad,"Sector A-3, Plot No. F-7, Haqiqatpur Urf Khudawas, Ghaziabad - 201102, Dist.Ghaziabad, Uttar Pradesh",7942558136,
"Non-Sterile Microfiber Cotton Swabs Paper Stick, For Household",https://www.indiamart.com/proddetail/cotton-swabs-paper-stick-2850593044997.html?pos=118&kwd=baby cotton swab&tags=||||8228.275|Price|product|||MDC|rsf:gd-|-stype:attr=1|qr_nm:gd|res:RC4|com-cf:nl|ptrs:na|ktp:N0|mc:98914|mtp:S|qry_typ:P|lang:en|wc:3|cs:8848|v=4,Brahmbhatt Enterprise,https://www.indiamart.com/brahmbhattenterprise/?pos=118&kwd=baby cotton swab&tags=||||8228.275|Price|product|||MDC|rsf:gd-|-stype:attr=1|qr_nm:gd|res:RC4|com-cf:nl|ptrs:na|ktp:N0|mc:98914|mtp:S|qry_typ:P|lang:en|wc:3|cs:8848|v=4,False,Amdupura,Ahmedabad,"F/14 Bansidhar Mill Compound Shayona Estate Naroda Road, Amdupura, Ahmedabad - 380025, Dist.Ahmedabad, Gujarat",7942787563,
Cotton Swabs Bamboo With Wooden Handles For Makeup Clean Care Ear Cleaning Wound Care Cosmetic Tool Double Head Biodegradable Eco Friendly (pack Of 20),https://www.indiamart.com/proddetail/cotton-swabs-bamboo-with-wooden-handles-for-makeup-clean-care-ear-cleaning-wound-care-cosmetic-tool-double-head-biodegradable-eco-friendly-pack-of-20-2854780133448.html?pos=119&kwd=baby cotton swab&tags=||||8692.544|Price|product|||MDC|rsf:gd-|-stype:attr=1|qr_nm:gd|res:RC4|com-cf:nl|ptrs:na|ktp:N0|mc:98914|mtp:S|qry_typ:P|lang:en|wc:3|cs:8848|v=4,Demrot Bangles And Manufacture,https://www.indiamart.com/demrotbanglesmanufacture/?pos=119&kwd=baby cotton swab&tags=||||8692.544|Price|product|||MDC|rsf:gd-|-stype:attr=1|qr_nm:gd|res:RC4|com-cf:nl|ptrs:na|ktp:N0|mc:98914|mtp:S|qry_typ:P|lang:en|wc:3|cs:8848|v=4,False,Kishangarh Bas,Alwar,"Vashishtha Market, Kishangarh Bass, Kishangarh Bas, Alwar - 301405, Dist.Alwar, Rajasthan",,
"Cotton Viscous Sterile Swab, For Hospital, Medium",https://www.indiamart.com/proddetail/viscous-sterile-swab-2849553674091.html?pos=120&kwd=baby cotton swab&tags=||||8223.226|Price|product|||MDC|rsf:gd-|-stype:attr=1|qr_nm:gd|res:RC4|com-cf:nl|ptrs:na|ktp:N0|mc:98914|mtp:S|qry_typ:P|lang:en|wc:3|cs:8848|v=4,Smaform Engineering India Private Limited,https://www.indiamart.com/smaformengineeringindia/?pos=120&kwd=baby cotton swab&tags=||||8223.226|Price|product|||MDC|rsf:gd-|-stype:attr=1|qr_nm:gd|res:RC4|com-cf:nl|ptrs:na|ktp:N0|mc:98914|mtp:S|qry_typ:P|lang:en|wc:3|cs:8848|v=4,False,Dombivli East,Thane,"W 53, Ujwal Industries Midc Phase Ii, Midc, Dombivli East,Thane, Dombivli East, Thane - 421204, Dist.Thane, Maharashtra",7942792279,
"Cotton Swabs And Medical Applicators Machines, Medium",https://www.indiamart.com/proddetail/cotton-swabs-and-medical-applicators-machines-26209120373.html?pos=121&kwd=baby cotton swab&tags=||||8663.873||product|||MDC|rsf:gd-|-stype:attr=1|qr_nm:gd|res:RC4|com-cf:nl|ptrs:na|ktp:N0|mc:98914|mtp:S|qry_typ:P|lang:en|wc:3|cs:8848|v=4,Transcedence Automation Private Limited,https://www.indiamart.com/transcedence-automation-private-limited/?pos=121&kwd=baby cotton swab&tags=||||8663.873||product|||MDC|rsf:gd-|-stype:attr=1|qr_nm:gd|res:RC4|com-cf:nl|ptrs:na|ktp:N0|mc:98914|mtp:S|qry_typ:P|lang:en|wc:3|cs:8848|v=4,False,Thippenahalli,Bengaluru,"No.1 A, TVR Estate, Karivobanahalli Main Road, Thippenahalli, Bengaluru - 560073, Dist.Bengaluru, Karnataka",8043852731,
"Bamboo Ear Swabs, 100 sticks",https://www.indiamart.com/proddetail/bamboo-ear-cotton-swabs-18674234897.html?pos=122&kwd=baby cotton swab&tags=||||8786.56|Price|product|||MDC|rsf:gd-|-stype:attr=1|qr_nm:gd|res:RC4|com-cf:nl|ptrs:na|ktp:N0|mc:98914|mtp:S|qry_typ:P|lang:en|wc:3|cs:8848|v=4,Jain Plastocorp,https://www.indiamart.com/jainplastocorp-hyderabad/?pos=122&kwd=baby cotton swab&tags=||||8786.56|Price|product|||MDC|rsf:gd-|-stype:attr=1|qr_nm:gd|res:RC4|com-cf:nl|ptrs:na|ktp:N0|mc:98914|mtp:S|qry_typ:P|lang:en|wc:3|cs:8848|v=4,False,,Hyderabad,"16-10-1/5/341, Mahaboob Mansion, Sri Krupa Market, Malakpet, Hyderabad - 500036, Dist.Hyderabad, Telangana",8046071964,
Nylon Flocked Swab,https://www.indiamart.com/proddetail/nylon-swab-stick-23507175212.html?pos=123&kwd=baby cotton swab&tags=||||8281.036|Price|product|||MDC|rsf:gd-|-stype:attr=1|qr_nm:gd|res:RC4|com-cf:nl|ptrs:na|ktp:N0|mc:98914|mtp:S|qry_typ:P|lang:en|wc:3|cs:8848|v=4,Amizara Industries,https://www.indiamart.com/amizara-industries-vadodra/?pos=123&kwd=baby cotton swab&tags=||||8281.036|Price|product|||MDC|rsf:gd-|-stype:attr=1|qr_nm:gd|res:RC4|com-cf:nl|ptrs:na|ktp:N0|mc:98914|mtp:S|qry_typ:P|lang:en|wc:3|cs:8848|v=4,False,Vadodara,Vadodara,"Plot No. 101/A/3 G.I.D.C, Ranoli, Vadodara, Vadodara - 391350, Dist.Vadodara, Gujarat",8046050243,
"White 6 Inch Plastic Swab, Packaging Size: 100 Pcs, Sterile",https://www.indiamart.com/proddetail/6-inch-plastic-swab-25273697962.html?pos=124&kwd=baby cotton swab&tags=||||8752.144|Price|product|||MDC|rsf:gd-|-stype:attr=1|qr_nm:gd|res:RC4|com-cf:nl|ptrs:na|ktp:N0|mc:98914|mtp:S|qry_typ:P|lang:en|wc:3|cs:8848|v=4,The Hospital Supply Company,https://www.indiamart.com/thehospitalsupplycompany/?pos=124&kwd=baby cotton swab&tags=||||8752.144|Price|product|||MDC|rsf:gd-|-stype:attr=1|qr_nm:gd|res:RC4|com-cf:nl|ptrs:na|ktp:N0|mc:98914|mtp:S|qry_typ:P|lang:en|wc:3|cs:8848|v=4,False,Tri Nagar,New Delhi,"Plot No-4424/8, Ground Floor, Jai Mata Market, Tri Nagar,, Tri Nagar, New Delhi - 110035, Dist.Delhi, Delhi",8047310176,
"Sterile Cotton Applicator, For Laboratory, Medium",https://www.indiamart.com/proddetail/sterile-cotton-applicator-2850784885662.html?pos=125&kwd=baby cotton swab&tags=||||8752.144|Price|product|||MDC|rsf:gd-|-stype:attr=1|qr_nm:gd|res:RC4|com-cf:nl|ptrs:na|ktp:N0|mc:98914|mtp:S|qry_typ:P|lang:en|wc:3|cs:8848|v=4,Rashi Dignostic And Surgicals,https://www.indiamart.com/rashi-dignostic-surgicals/?pos=125&kwd=baby cotton swab&tags=||||8752.144|Price|product|||MDC|rsf:gd-|-stype:attr=1|qr_nm:gd|res:RC4|com-cf:nl|ptrs:na|ktp:N0|mc:98914|mtp:S|qry_typ:P|lang:en|wc:3|cs:8848|v=4,False,Janakpuri,New Delhi,"110 A, First Floor, Jaina Tower 1, Janak Puri, Janakpuri, New Delhi - 110058, Dist.Delhi, Delhi",8047806097,
"Green Plastic Lens Cleaning Swabs, Packaging Size: 50 Buds",https://www.indiamart.com/proddetail/lens-cleaning-swabs-25723619891.html?pos=126&kwd=baby cotton swab&tags=||||8769.508|Price|product|||MDC|rsf:gd-|-stype:attr=1|qr_nm:gd|res:RC4|com-cf:nl|ptrs:na|ktp:N0|mc:98914|mtp:S|qry_typ:P|lang:en|wc:3|cs:8848|v=4,Xero Defects Engineers And Solutions,https://www.indiamart.com/xerodefects-engineers-solutions/?pos=126&kwd=baby cotton swab&tags=||||8769.508|Price|product|||MDC|rsf:gd-|-stype:attr=1|qr_nm:gd|res:RC4|com-cf:nl|ptrs:na|ktp:N0|mc:98914|mtp:S|qry_typ:P|lang:en|wc:3|cs:8848|v=4,False,Sector 86,Faridabad,"1K-26-B, N0.1, Sector 86, Faridabad - 121001, Dist.Faridabad, Haryana",8047674472,
"Cotton CZ U COTTAN BUDS 100S, For Professional, Medium",https://www.indiamart.com/proddetail/cz-u-cottan-buds-100s-2850460735497.html?pos=127&kwd=baby cotton swab&tags=||||8601.347|Price|product|||MDC|rsf:gd-|-stype:attr=1|qr_nm:gd|res:RC4|com-cf:nl|ptrs:na|ktp:N0|mc:98914|mtp:S|qry_typ:P|lang:en|wc:3|cs:8848|v=4,Duro Plast Agencies,https://www.indiamart.com/duroplast-agencies/?pos=127&kwd=baby cotton swab&tags=||||8601.347|Price|product|||MDC|rsf:gd-|-stype:attr=1|qr_nm:gd|res:RC4|com-cf:nl|ptrs:na|ktp:N0|mc:98914|mtp:S|qry_typ:P|lang:en|wc:3|cs:8848|v=4,False,Vishwakarma Industrial Area,Jaipur,"3780, Duroplast Agencies, Langar Ka Balaji Ka Rasta, Gangori Baza, Vishwakarma Industrial Area, Jaipur - 302001, Dist.Jaipur, Rajasthan",8048611455,
Pigeon Cotton Swabs,https://www.indiamart.com/proddetail/pigeon-cotton-swabs-2852328122588.html?pos=128&kwd=baby cotton swab&tags=||||8307.81|Price|product|||MDC|rsf:gd-|-stype:attr=1|qr_nm:gd|res:RC4|com-cf:nl|ptrs:na|ktp:N0|mc:98914|mtp:S|qry_typ:P|lang:en|wc:3|cs:8848|v=4,Bhavana Agency,https://www.indiamart.com/bhavana-agency/?pos=128&kwd=baby cotton swab&tags=||||8307.81|Price|product|||MDC|rsf:gd-|-stype:attr=1|qr_nm:gd|res:RC4|com-cf:nl|ptrs:na|ktp:N0|mc:98914|mtp:S|qry_typ:P|lang:en|wc:3|cs:8848|v=4,False,Sadashiv Peth,Pune,"S No 4, 841/1, Asset Gold, Sadashiv Peth, Sadashiv Peth, Pune - 411030, Dist.Pune, Maharashtra",8047788291,
"Brown Bamboo Ear Swabs, Sterile",https://www.indiamart.com/proddetail/bamboo-ear-swabs-23402044897.html?pos=129&kwd=baby cotton swab&tags=||||8752.144|Price|product|||MDC|rsf:gd-|-stype:attr=1|qr_nm:gd|res:RC4|com-cf:nl|ptrs:na|ktp:N0|mc:98914|mtp:S|qry_typ:P|lang:en|wc:3|cs:8848|v=4,Aorion Technoserve Private Limited,https://www.indiamart.com/aoriontechnoserve/?pos=129&kwd=baby cotton swab&tags=||||8752.144|Price|product|||MDC|rsf:gd-|-stype:attr=1|qr_nm:gd|res:RC4|com-cf:nl|ptrs:na|ktp:N0|mc:98914|mtp:S|qry_typ:P|lang:en|wc:3|cs:8848|v=4,False,Panchsheel Vihar,New Delhi,"B-92, S/F L/S, Panchsheel Vihar, Khirki, Panchsheel Vihar, New Delhi - 110017, Dist.Delhi, Delhi",8046056810,
Milky White COTTON/NYLON/POLYESTER/WOODEN SWAB APPLICATOR 6,https://www.indiamart.com/proddetail/cotton-nylon-polyester-wooden-swab-applicator-6-26440850662.html?pos=130&kwd=baby cotton swab&tags=||||8741.987|Price|product|||MDC|rsf:gd-|-stype:attr=1|qr_nm:gd|res:RC4|com-cf:nl|ptrs:na|ktp:N0|mc:98914|mtp:S|qry_typ:P|lang:en|wc:3|cs:8848|v=4,Tanisha Scientific Industries,https://www.indiamart.com/tanisha-scientific-industries/?pos=130&kwd=baby cotton swab&tags=||||8741.987|Price|product|||MDC|rsf:gd-|-stype:attr=1|qr_nm:gd|res:RC4|com-cf:nl|ptrs:na|ktp:N0|mc:98914|mtp:S|qry_typ:P|lang:en|wc:3|cs:8848|v=4,False,Karda Nagar,Ambala,"1071, Ward No.07, Shiwala Mandi, Karda Nagar, Ambala - 133001, Dist.Ambala, Haryana",8047667189,
"Tulips Stick Cotton Swabs, 200 sticks",https://www.indiamart.com/proddetail/tulips-stick-cotton-swabs-2854921309948.html?pos=131&kwd=baby cotton swab&tags=||||8663.873|Price|product|||MDC|rsf:gd-|-stype:attr=1|qr_nm:gd|res:RC4|com-cf:nl|ptrs:na|ktp:N0|mc:98914|mtp:S|qry_typ:P|lang:en|wc:3|cs:8848|v=4,Mahadev Enterprise,https://www.indiamart.com/mahadeventerprisebengaluru/?pos=131&kwd=baby cotton swab&tags=||||8663.873|Price|product|||MDC|rsf:gd-|-stype:attr=1|qr_nm:gd|res:RC4|com-cf:nl|ptrs:na|ktp:N0|mc:98914|mtp:S|qry_typ:P|lang:en|wc:3|cs:8848|v=4,False,,Bengaluru,"No 14, 3rd Main 6th Cross Gururaja Layout, Doddanekundi Marathalli Urban, Bengaluru - 560037, Dist.Bengaluru, Karnataka",8044456382,
"White Microfiber Cotton Ear Bird, Small",https://www.indiamart.com/proddetail/cotton-ear-bird-2853450065797.html?pos=132&kwd=baby cotton swab&tags=||||8876.815|Price|product|||MDC|rsf:gd-|-stype:attr=1|qr_nm:gd|res:RC4|com-cf:nl|ptrs:na|ktp:N0|mc:98914|mtp:S|qry_typ:P|lang:en|wc:3|cs:8848|v=4,Devanshi Enterprises,https://www.indiamart.com/devanshienterprisesnagpur/?pos=132&kwd=baby cotton swab&tags=||||8876.815|Price|product|||MDC|rsf:gd-|-stype:attr=1|qr_nm:gd|res:RC4|com-cf:nl|ptrs:na|ktp:N0|mc:98914|mtp:S|qry_typ:P|lang:en|wc:3|cs:8848|v=4,False,Itwari,Nagpur,"221A, Khapripura Itwari, Itwari, Nagpur - 440002, Dist.Nagpur, Maharashtra",7942662391,
"Brown & White Standard Sterile Cotton Swabs, Medium, Packaging Size: 12 Pack",https://www.indiamart.com/proddetail/sterile-cotton-swabs-2850760373912.html?pos=133&kwd=baby cotton swab&tags=||||8752.144|Price|product|||MDC|rsf:gd-|-stype:attr=1|qr_nm:gd|res:RC4|com-cf:nl|ptrs:na|ktp:N0|mc:98914|mtp:S|qry_typ:P|lang:en|wc:3|cs:8848|v=4,Sangam Distributors,https://www.indiamart.com/sangam-distributors-newdelhi/?pos=133&kwd=baby cotton swab&tags=||||8752.144|Price|product|||MDC|rsf:gd-|-stype:attr=1|qr_nm:gd|res:RC4|com-cf:nl|ptrs:na|ktp:N0|mc:98914|mtp:S|qry_typ:P|lang:en|wc:3|cs:8848|v=4,False,Geeta Colony,New Delhi,"6 / 348, Ground Floor, Geeta Colony, Geeta Colony, East Delhi,, Geeta Colony, New Delhi - 110031, Dist.Delhi, Delhi",8047790717,
"Cotton Cleaning Swabs, Sticks",https://www.indiamart.com/proddetail/cotton-cleaning-swabs-2854025884573.html?pos=134&kwd=baby cotton swab&tags=||||8778.123|Price|product|||MDC|rsf:gd-|-stype:attr=1|qr_nm:gd|res:RC4|com-cf:nl|ptrs:na|ktp:N0|mc:98914|mtp:S|qry_typ:P|lang:en|wc:3|cs:8848|v=4,Horb Manufacturing India Pvt. Ltd.,https://www.indiamart.com/horb-manufacturing-india/?pos=134&kwd=baby cotton swab&tags=||||8778.123|Price|product|||MDC|rsf:gd-|-stype:attr=1|qr_nm:gd|res:RC4|com-cf:nl|ptrs:na|ktp:N0|mc:98914|mtp:S|qry_typ:P|lang:en|wc:3|cs:8848|v=4,False,Sector 6,Noida,"E-21, Sector 63, Sector 6, Noida - 201301, Dist.Gautam Budh Nagar, Uttar Pradesh",7942640798,
"Non-Sterile SHIVARCH BAMBOO STICK COTTON SWABS, For Professional, 200 sticks",https://www.indiamart.com/proddetail/shivarch-bamboo-stick-cotton-swabs-2854204331448.html?pos=135&kwd=baby cotton swab&tags=||||9140.514|Price|product|||MDC|rsf:gd-|-stype:attr=1|qr_nm:gd|res:RC4|com-cf:nl|ptrs:na|ktp:N0|mc:98914|mtp:S|qry_typ:P|lang:en|wc:3|cs:8848|v=4,Shivshankar Stores,https://www.indiamart.com/shivshankarstores/?pos=135&kwd=baby cotton swab&tags=||||9140.514|Price|product|||MDC|rsf:gd-|-stype:attr=1|qr_nm:gd|res:RC4|com-cf:nl|ptrs:na|ktp:N0|mc:98914|mtp:S|qry_typ:P|lang:en|wc:3|cs:8848|v=4,False,Shyam Nagar,Raipur,"Thok Bazar, Doomartari, Shyam Nagar, Raipur - 492001, Chhattisgarh",7942815115,
"Small Cotton Swabs, For Household",https://www.indiamart.com/proddetail/small-cotton-swabs-2853453026433.html?pos=136&kwd=baby cotton swab&tags=||||9839.57|Price|product|||MDC|rsf:gd-|-stype:attr=1|qr_nm:gd|res:RC4|com-cf:nl|ptrs:na|ktp:N0|mc:98914|mtp:S|qry_typ:P|lang:en|wc:3|cs:8848|v=4,Siddharth Plastic Industries,https://www.indiamart.com/siddharthplasticindustries/?pos=136&kwd=baby cotton swab&tags=||||9839.57|Price|product|||MDC|rsf:gd-|-stype:attr=1|qr_nm:gd|res:RC4|com-cf:nl|ptrs:na|ktp:N0|mc:98914|mtp:S|qry_typ:P|lang:en|wc:3|cs:8848|v=4,False,Khengrapatti,Kolkata,"10, Armenian Street ground floor, Khengrapatti, Kolkata - 700001, Dist.Kolkata, West Bengal",8048961168,
"Eyelash Micro Fiber Swaps, 200 sticks",https://www.indiamart.com/proddetail/eyelash-micro-fiber-swaps-2854910182033.html?pos=137&kwd=baby cotton swab&tags=||||8752.144|Price|product|||MDC|rsf:gd-|-stype:attr=1|qr_nm:gd|res:RC4|com-cf:nl|ptrs:na|ktp:N0|mc:98914|mtp:S|qry_typ:P|lang:en|wc:3|cs:8848|v=4,Lilly's Professional,https://www.indiamart.com/lillys-professional/?pos=137&kwd=baby cotton swab&tags=||||8752.144|Price|product|||MDC|rsf:gd-|-stype:attr=1|qr_nm:gd|res:RC4|com-cf:nl|ptrs:na|ktp:N0|mc:98914|mtp:S|qry_typ:P|lang:en|wc:3|cs:8848|v=4,False,,New Delhi,"B-145 Street No. 12, Kanti Nagar Ext, Kanti Nagar, East Delhi, New Delhi - 110051, Dist.Delhi, Delhi",7949331165,
cotton Disposable Sterile transport Swab,https://www.indiamart.com/proddetail/disposable-sterile-transport-swab-26591300133.html?pos=138&kwd=baby cotton swab&tags=||||8206.45|Price|product|||MDC|rsf:gd-|-stype:attr=1|qr_nm:gd|res:RC4|com-cf:nl|ptrs:na|ktp:N0|mc:98914|mtp:S|qry_typ:P|lang:en|wc:3|cs:8848|v=4,Top Tech Bio Medicals,https://www.indiamart.com/toptechbiomedicals/?pos=138&kwd=baby cotton swab&tags=||||8206.45|Price|product|||MDC|rsf:gd-|-stype:attr=1|qr_nm:gd|res:RC4|com-cf:nl|ptrs:na|ktp:N0|mc:98914|mtp:S|qry_typ:P|lang:en|wc:3|cs:8848|v=4,False,Palghar,Palghar,"16, Ground, Sahakar Vijay Industrial Estate,Navghar Road, Vasai East, Palghar, Palghar, Palghar - 401210, Dist.Thane, Maharashtra",8048605980,
Cotton Oral Swabs Disposable,https://www.indiamart.com/proddetail/cotton-oral-swabs-disposable-2853151042612.html?pos=139&kwd=baby cotton swab&tags=||||8741.987|Price|product|||MDC|rsf:gd-|-stype:attr=1|qr_nm:gd|res:RC4|com-cf:nl|ptrs:na|ktp:N0|mc:98914|mtp:S|qry_typ:P|lang:en|wc:3|cs:8848|v=4,Sytix Corporation,https://www.indiamart.com/sytixcorporation/?pos=139&kwd=baby cotton swab&tags=||||8741.987|Price|product|||MDC|rsf:gd-|-stype:attr=1|qr_nm:gd|res:RC4|com-cf:nl|ptrs:na|ktp:N0|mc:98914|mtp:S|qry_typ:P|lang:en|wc:3|cs:8848|v=4,False,Salarheri Ambala Cantt,Ambala,"Plot No. 418-B, Near Bharat Gas Agency, Sonia Colony, Salarheri Ambala Cantt, Ambala - 133001, Dist.Ambala, Haryana",7942612054,
Sterile Tulips Cotton Swabs 100 Stems,https://www.indiamart.com/proddetail/tulips-cotton-swabs-100-stems-2854486192012.html?pos=140&kwd=baby cotton swab&tags=||||8307.81|Price|product|||MDC|rsf:gd-|-stype:attr=1|qr_nm:gd|res:RC4|com-cf:nl|ptrs:na|ktp:N0|mc:98914|mtp:S|qry_typ:P|lang:en|wc:3|cs:8848|v=4,New Mahalaxmi Medico,https://www.indiamart.com/newmahalaxmimedico/?pos=140&kwd=baby cotton swab&tags=||||8307.81|Price|product|||MDC|rsf:gd-|-stype:attr=1|qr_nm:gd|res:RC4|com-cf:nl|ptrs:na|ktp:N0|mc:98914|mtp:S|qry_typ:P|lang:en|wc:3|cs:8848|v=4,False,,Pune,"S No 80, Shop No E1/16, Ganga Orchard, Mundhwa Road, Pingale Wasti,, Pune - 411036, Dist.Pune, Maharashtra",7949324112,
"Q- Tips Cotton Swab, Packaging Type: Packet",https://www.indiamart.com/proddetail/q-tips-cotton-swab-20768764673.html?pos=141&kwd=baby cotton swab&tags=||||8254.475|Price|product|||TS|rsf:gd-|-stype:attr=1|qr_nm:gd|res:RC4|com-cf:nl|ptrs:na|ktp:N0|mc:98914|mtp:S|qry_typ:P|lang:en|wc:3|cs:8848|v=4,Kirti Enterprises And Trader,https://www.indiamart.com/kirti-enterprises-and-traders/?pos=141&kwd=baby cotton swab&tags=||||8254.475|Price|product|||TS|rsf:gd-|-stype:attr=1|qr_nm:gd|res:RC4|com-cf:nl|ptrs:na|ktp:N0|mc:98914|mtp:S|qry_typ:P|lang:en|wc:3|cs:8848|v=4,False,Aavakar Society,Bharuch,"B-304, Akshar Residency, Aavakar Society, Bharuch - 393002, Dist.Bharuch, Gujarat",8048615538,
"62mm Cotton Swabs, for Ear Cleaning",https://www.indiamart.com/proddetail/62mm-cotton-swabs-21666345673.html?pos=142&kwd=baby cotton swab&tags=||||8228.275|Price|product|||TS|rsf:gd-|-stype:attr=1|qr_nm:gd|res:RC4|com-cf:nl|ptrs:na|ktp:N0|mc:98914|mtp:S|qry_typ:P|lang:en|wc:3|cs:8848|v=4,Green Life Healthcare,https://www.indiamart.com/green-life-healthcare/?pos=142&kwd=baby cotton swab&tags=||||8228.275|Price|product|||TS|rsf:gd-|-stype:attr=1|qr_nm:gd|res:RC4|com-cf:nl|ptrs:na|ktp:N0|mc:98914|mtp:S|qry_typ:P|lang:en|wc:3|cs:8848|v=4,False,Sarkhej Village,Ahmedabad,"11, J P ESTATE,NAVAPURA NR SHUKAN COMPLEX, Sarkhej Village, Ahmedabad - 382210, Dist.Ahmedabad, Gujarat",8048604726,
"Cotton Swabs, For Ear Cleaning,, Small",https://www.indiamart.com/proddetail/cotton-swabs-for-ear-cleaning-2852733045855.html?pos=143&kwd=baby cotton swab&tags=||||8038.093|Price|product|||TS|rsf:gd-|-stype:attr=1|qr_nm:gd|res:RC4|com-cf:nl|ptrs:na|ktp:N0|mc:98914|mtp:S|qry_typ:P|lang:en|wc:3|cs:8848|v=4,Veeral Cera Impex,https://www.lcd-repair-machine.in/?pos=143&kwd=baby cotton swab&tags=||||8038.093|Price|product|||TS|rsf:gd-|-stype:attr=1|qr_nm:gd|res:RC4|com-cf:nl|ptrs:na|ktp:N0|mc:98914|mtp:S|qry_typ:P|lang:en|wc:3|cs:8848|v=4,True,,Rajkot,"30 Samrat Industrial Area Nr. Bhati Transport, Rajkot - 360002, Dist.Rajkot, Gujarat",8046070097,
Chhote Janab Baby Cotton Bibs,https://www.indiamart.com/proddetail/baby-cotton-bibs-19619639433.html?pos=144&kwd=baby cotton swab&tags=||||8752.144|Price|product|||TS|rsf:gd-|-stype:attr=1|qr_nm:gd|res:RC4|com-cf:nl|ptrs:na|ktp:N0|mc:98914|mtp:S|qry_typ:P|lang:en|wc:3|cs:8848|v=4,Shree Balaji Infant Wear,https://www.indiamart.com/chhotejanab/?pos=144&kwd=baby cotton swab&tags=||||8752.144|Price|product|||TS|rsf:gd-|-stype:attr=1|qr_nm:gd|res:RC4|com-cf:nl|ptrs:na|ktp:N0|mc:98914|mtp:S|qry_typ:P|lang:en|wc:3|cs:8848|v=4,False,Pahari Dhiraj,New Delhi,"1583- 84, Hathi Khana, Aziz Ganj, Bahadur Garh Road, Pahari Dhiraj, New Delhi - 110006, Dist.Delhi, Delhi",8047639754,
Sivam Export Organic Cotton Baby Bib,https://www.indiamart.com/proddetail/organic-cotton-baby-bib-25264591430.html?pos=145&kwd=baby cotton swab&tags=||||8706.263|Price|product|||TS|rsf:gd-|-stype:attr=1|qr_nm:gd|res:RC4|com-cf:nl|ptrs:na|ktp:N0|mc:98914|mtp:S|qry_typ:P|lang:en|wc:3|cs:8848|v=4,Sivam Export,https://www.indiamart.com/sivamexport-karur/?pos=145&kwd=baby cotton swab&tags=||||8706.263|Price|product|||TS|rsf:gd-|-stype:attr=1|qr_nm:gd|res:RC4|com-cf:nl|ptrs:na|ktp:N0|mc:98914|mtp:S|qry_typ:P|lang:en|wc:3|cs:8848|v=4,False,,Karur,"6/1 Thiru Nagar,3rd Street, Karur - 639002, Dist.Karur, Tamil Nadu",8046050918,
"Baby Cotton Bibs, 3-12 Months",https://www.indiamart.com/proddetail/baby-cotton-bibs-2852538330048.html?pos=146&kwd=baby cotton swab&tags=||||8823.154|Price|product|||TS|rsf:gd-|-stype:attr=1|qr_nm:gd|res:RC4|com-cf:nl|ptrs:na|ktp:N0|mc:98914|mtp:S|qry_typ:P|lang:en|wc:3|cs:8848|v=4,Shri Anant International,https://www.indiamart.com/shrianantinternational/?pos=146&kwd=baby cotton swab&tags=||||8823.154|Price|product|||TS|rsf:gd-|-stype:attr=1|qr_nm:gd|res:RC4|com-cf:nl|ptrs:na|ktp:N0|mc:98914|mtp:S|qry_typ:P|lang:en|wc:3|cs:8848|v=4,False,DayalBagh,Agra,"No.02,House 2,Alkapuri Phase Ii,Agra, DayalBagh, Agra - 282005, Dist.Agra, Uttar Pradesh",7942721451,
Cotton Baby Towel,https://www.indiamart.com/proddetail/cotton-baby-towel-2854537205748.html?pos=147&kwd=baby cotton swab&tags=||||8211.142|Price|product|||TS|rsf:gd-|-stype:attr=1|qr_nm:gd|res:RC4|com-cf:nl|ptrs:na|ktp:N0|mc:98914|mtp:S|qry_typ:P|lang:en|wc:3|cs:8848|v=4,P For Panda Baby Products Private Limited,https://www.p4pandababyproducts.com/?pos=147&kwd=baby cotton swab&tags=||||8211.142|Price|product|||TS|rsf:gd-|-stype:attr=1|qr_nm:gd|res:RC4|com-cf:nl|ptrs:na|ktp:N0|mc:98914|mtp:S|qry_typ:P|lang:en|wc:3|cs:8848|v=4,False,Goregaon West,Mumbai,"904 A Wing,9 Th Floor,Triple S Heights,Jakeria Road, Goregaon West, Mumbai - 400064, Dist.Mumbai, Maharashtra",7942710871,
Cotton swab 6 inch,,Shri Nathji Traders,https://www.indiamart.com/shri-nathji-traders-lucknow/?pos=148&kwd=baby cotton swab&tags=||||9110.092|Price|product|||TS|rsf:gd-|-stype:attr=1|qr_nm:gd|res:RC4|com-cf:nl|ptrs:na|ktp:N0|mc:98914|mtp:S|qry_typ:P|lang:en|wc:3|cs:8848|v=4,False,Aminabad,Lucknow,"244/84/2 Yahiyaganj Chowk Lucknow, 226003 Uttar Pradesh Gomti Nagar, Aminabad, Lucknow - 226003, Dist.Lucknow, Uttar Pradesh",7942561294,
"Organic Cotton Newborn Baby Diaper or Nappy Change Mattress, Unisex - FIRSTIN Infant Apparel",https://www.indiamart.com/proddetail/organic-cotton-newborn-baby-diaper-or-nappy-change-mattress-unisex-firstin-infant-apparel-21349285955.html?pos=149&kwd=baby cotton swab&tags=||||8668.838|Price|product|||TS|rsf:gd-|-stype:attr=1|qr_nm:gd|res:RC4|com-cf:nl|ptrs:na|ktp:N0|mc:98914|mtp:S|qry_typ:P|lang:en|wc:3|cs:8848|v=4,Sri Kalyan Export Private Limited,https://www.firstinbabydress.com/?pos=149&kwd=baby cotton swab&tags=||||8668.838|Price|product|||TS|rsf:gd-|-stype:attr=1|qr_nm:gd|res:RC4|com-cf:nl|ptrs:na|ktp:N0|mc:98914|mtp:S|qry_typ:P|lang:en|wc:3|cs:8848|v=4,False,Vilarasampatti,Erode,"192/4, Ishwarya Garden, Sengodampalayam, Villarasampatti Post, Erode,, Vilarasampatti, Erode - 638107, Dist.Erode, Tamil Nadu",8046030291,
Printed Cotton Baby Bib,https://www.indiamart.com/proddetail/printed-cotton-baby-bib-2851682623491.html?pos=150&kwd=baby cotton swab&tags=||||8752.144|Price|product|||TS|rsf:gd-|-stype:attr=1|qr_nm:gd|res:RC4|com-cf:nl|ptrs:na|ktp:N0|mc:98914|mtp:S|qry_typ:P|lang:en|wc:3|cs:8848|v=4,National Overseas,https://www.indiamart.com/nationaltraders-vishwashnagar/?pos=150&kwd=baby cotton swab&tags=||||8752.144|Price|product|||TS|rsf:gd-|-stype:attr=1|qr_nm:gd|res:RC4|com-cf:nl|ptrs:na|ktp:N0|mc:98914|mtp:S|qry_typ:P|lang:en|wc:3|cs:8848|v=4,False,Shahdara,New Delhi,"1/99, Gali No. 3, Vishwas Nagar, Shahdara, New Delhi - 110032, Dist.Delhi, Delhi",8046047673,
"Unisex Blue(Base) Baby Printed Cotton Towel, For Babies, New Born",https://www.indiamart.com/proddetail/baby-printed-cotton-towel-2850804870948.html?pos=151&kwd=baby cotton swab&tags=||||8752.144|Price|product|||MDC|rsf:gd-|-stype:attr=1|qr_nm:gd|res:RC4|com-cf:nl|ptrs:na|ktp:N0|mc:98914|mtp:S|qry_typ:P|lang:en|wc:3|cs:8848|v=4,Mahi Hosiery,https://www.indiamart.com/mahi-hosierydelhi/?pos=151&kwd=baby cotton swab&tags=||||8752.144|Price|product|||MDC|rsf:gd-|-stype:attr=1|qr_nm:gd|res:RC4|com-cf:nl|ptrs:na|ktp:N0|mc:98914|mtp:S|qry_typ:P|lang:en|wc:3|cs:8848|v=4,False,Shastri Nagar,New Delhi,"144, Second Floor, Gali No-5, New Main Road, New Lahore Colony, Shastri Nagar, Shastri Nagar, New Delhi - 110031, Dist.Delhi, Delhi",8047699176,
Cotton New Born Baby Bib,https://www.indiamart.com/proddetail/new-born-baby-bib-2854881219397.html?pos=152&kwd=baby cotton swab&tags=||||8752.144|Price|product|||TS|rsf:gd-|-stype:attr=1|qr_nm:gd|res:RC4|com-cf:nl|ptrs:na|ktp:N0|mc:98914|mtp:S|qry_typ:P|lang:en|wc:3|cs:8848|v=4,Urbancube,https://www.indiamart.com/urbancube/?pos=152&kwd=baby cotton swab&tags=||||8752.144|Price|product|||TS|rsf:gd-|-stype:attr=1|qr_nm:gd|res:RC4|com-cf:nl|ptrs:na|ktp:N0|mc:98914|mtp:S|qry_typ:P|lang:en|wc:3|cs:8848|v=4,False,Kamla Nagar,New Delhi,"Ground Floor, 14 UA, Jawahar Nagar, Kamla Nagar, New Delhi - 110007, Dist.Delhi, Delhi",8048980014,
Plain Baby Pink Flannel Fabric,https://www.indiamart.com/proddetail/baby-pink-flannel-fabric-10462922262.html?pos=153&kwd=baby cotton swab&tags=||||8559.269|Price|product|||TS|rsf:gd-|-stype:attr=1|qr_nm:gd|res:RC4|com-cf:nl|ptrs:na|ktp:N0|mc:98914|mtp:S|qry_typ:P|lang:en|wc:3|cs:8848|v=4,A R Enterprises,https://www.indiamart.com/vinaytextilesindore/?pos=153&kwd=baby cotton swab&tags=||||8559.269|Price|product|||TS|rsf:gd-|-stype:attr=1|qr_nm:gd|res:RC4|com-cf:nl|ptrs:na|ktp:N0|mc:98914|mtp:S|qry_typ:P|lang:en|wc:3|cs:8848|v=4,False,Tilak Nagar,Indore,"81, Tilak Nagar Extension, Tilak Nagar, Indore - 452018, Dist.Indore, Madhya Pradesh",8048972129,
"Ear Cleaning Buds, Wooden Cotton Swabs Bamboo Stick Ear Buds for Ear Wax Cleaning Double",https://www.indiamart.com/proddetail/ear-cleaning-buds-wooden-cotton-swabs-bamboo-stick-ear-buds-for-ear-wax-cleaning-double-2854167238473.html?pos=154&kwd=baby cotton swab&tags=||||8230.883|Price|product|||TS|rsf:gd-|-stype:attr=1|qr_nm:gd|res:RC4|com-cf:nl|ptrs:na|ktp:N0|mc:98914|mtp:S|qry_typ:P|lang:en|wc:3|cs:8848|v=4,Manisha Enterprise,https://www.indiamart.com/manishaenterprisesurat/?pos=154&kwd=baby cotton swab&tags=||||8230.883|Price|product|||TS|rsf:gd-|-stype:attr=1|qr_nm:gd|res:RC4|com-cf:nl|ptrs:na|ktp:N0|mc:98914|mtp:S|qry_typ:P|lang:en|wc:3|cs:8848|v=4,False,Amroli,Surat,"GF C-75, Somnath Adarshnagar 1, Chprabhata Road, Amroli, Amroli, Surat - 394107, Dist.Surat, Gujarat",7949372906,
"BRG+ Brown Swab Sticks Wooden 6"", For Pap Smear Kit",https://www.indiamart.com/proddetail/swab-sticks-wooden-6-22456128555.html?pos=155&kwd=baby cotton swab&tags=||||8747.203|Price|product|||TS|rsf:gd-|-stype:attr=1|qr_nm:gd|res:RC4|com-cf:nl|ptrs:na|ktp:N0|mc:98914|mtp:S|qry_typ:P|lang:en|wc:3|cs:8848|v=4,BRG Biomedicals,https://www.brgbiomedicals.in/?pos=155&kwd=baby cotton swab&tags=||||8747.203|Price|product|||TS|rsf:gd-|-stype:attr=1|qr_nm:gd|res:RC4|com-cf:nl|ptrs:na|ktp:N0|mc:98914|mtp:S|qry_typ:P|lang:en|wc:3|cs:8848|v=4,False,Panchwati Colony,Panipat,"Gali No. 7, Panchwati Colony, G. T. Road, Panchwati Colony, Panipat - 132101, Dist.Panipat, Haryana",8046061142,
"Plastic Ear Swab Holder, Packaging Size: 100 Sticks, Medium",https://www.indiamart.com/proddetail/ear-swab-holder-2850802483355.html?pos=156&kwd=baby cotton swab&tags=||||8752.144|Price|product|||TS|rsf:gd-|-stype:attr=1|qr_nm:gd|res:RC4|com-cf:nl|ptrs:na|ktp:N0|mc:98914|mtp:S|qry_typ:P|lang:en|wc:3|cs:8848|v=4,Innovent E-Com LLP,https://www.indiamart.com/homesmart-newdelhi/?pos=156&kwd=baby cotton swab&tags=||||8752.144|Price|product|||TS|rsf:gd-|-stype:attr=1|qr_nm:gd|res:RC4|com-cf:nl|ptrs:na|ktp:N0|mc:98914|mtp:S|qry_typ:P|lang:en|wc:3|cs:8848|v=4,False,Mundka,New Delhi,"KH.NO.93/5&94/1/1,,Firni Road,New Delhi, Mundka, New Delhi - 110041, Dist.Delhi, Delhi",8046055753,
"Cotton Wooden Ear Swabs, For Clinic, Medium",https://www.indiamart.com/proddetail/wooden-ear-swabs-21804870848.html?pos=157&kwd=baby cotton swab&tags=||||8954.051|Price|product|||TS|rsf:gd-|-stype:attr=1|qr_nm:gd|res:RC4|com-cf:nl|ptrs:na|ktp:N0|mc:98914|mtp:S|qry_typ:P|lang:en|wc:3|cs:8848|v=4,Sha Mangnajee Bhawarlal,https://www.smbestore.in/?pos=157&kwd=baby cotton swab&tags=||||8954.051|Price|product|||TS|rsf:gd-|-stype:attr=1|qr_nm:gd|res:RC4|com-cf:nl|ptrs:na|ktp:N0|mc:98914|mtp:S|qry_typ:P|lang:en|wc:3|cs:8848|v=4,False,Sowcarpet,Chennai,"Building 33, Narayana Mudali Street Sowcarpet, Sowcarpet, Chennai - 600079, Dist.Chennai, Tamil Nadu",8048963829,
"Plastic Silicone Smart Swab Ear Wax Remover, Packaging Type: Box",https://www.indiamart.com/proddetail/silicone-smart-swab-ear-wax-remover-25639859362.html?pos=158&kwd=baby cotton swab&tags=||||8230.883|Price|product|||TS|rsf:gd-|-stype:attr=1|qr_nm:gd|res:RC4|com-cf:nl|ptrs:na|ktp:N0|mc:98914|mtp:S|qry_typ:P|lang:en|wc:3|cs:8848|v=4,Hemiza Enterprise,https://www.hemiza.in/?pos=158&kwd=baby cotton swab&tags=||||8230.883|Price|product|||TS|rsf:gd-|-stype:attr=1|qr_nm:gd|res:RC4|com-cf:nl|ptrs:na|ktp:N0|mc:98914|mtp:S|qry_typ:P|lang:en|wc:3|cs:8848|v=4,False,Katargam,Surat,"71, Ground Floor, Shubhash Nagar Society Near Shakti Nagar Ni Vadi, Katargam, Surat - 395004, Dist.Surat, Gujarat",8048976391,
"plastic shree hans creation Smart Swab, For Personal",https://www.indiamart.com/proddetail/shree-hans-creation-smart-swab-24747082355.html?pos=159&kwd=baby cotton swab&tags=||||8230.883|Price|product|||TS|rsf:gd-|-stype:attr=1|qr_nm:gd|res:RC4|com-cf:nl|ptrs:na|ktp:N0|mc:98914|mtp:S|qry_typ:P|lang:en|wc:3|cs:8848|v=4,Ankita Jeetubhai Lokdiya,https://www.hanscart.com/?pos=159&kwd=baby cotton swab&tags=||||8230.883|Price|product|||TS|rsf:gd-|-stype:attr=1|qr_nm:gd|res:RC4|com-cf:nl|ptrs:na|ktp:N0|mc:98914|mtp:S|qry_typ:P|lang:en|wc:3|cs:8848|v=4,False,Katargam,Surat,"Block No.82, Plot No.C1, Ground Floor, Palod, Nr.Bank Of India, Nr.Kim Chowkdi, Kim, Katargam, Surat - 394110, Dist.Surat, Gujarat",8046041344,
Cotton Swabs,,Komal Health Care Private Limited,https://www.komalhealthcare.in/?pos=160&kwd=baby cotton swab&tags=||||8223.226||product|||TS|rsf:gd-|-stype:attr=1|qr_nm:gd|res:RC4|com-cf:nl|ptrs:na|ktp:N0|mc:98914|mtp:S|qry_typ:P|lang:en|wc:3|cs:8848|v=4,False,Mira,Thane,"102, 103, Leena Heights, Mira Bhayander Road, Opposite Thunga Hospital, Behind Dominos Pizza Mira Road East, Mira, Thane - 401107, Dist.Thane, Maharashtra",8046047880,
Cotton Printed 7 Days Baby BibS,https://www.indiamart.com/proddetail/printed-7-days-baby-bibs-2851497410997.html?pos=161&kwd=baby cotton swab&tags=||||8752.144|Price|product|||TS|rsf:gd-|-stype:attr=1|qr_nm:gd|res:RC4|com-cf:nl|ptrs:na|ktp:N0|mc:98914|mtp:S|qry_typ:P|lang:en|wc:3|cs:8848|v=4,Ekta Overseas,https://www.indiamart.com/ektaoverseas-newdelhi/?pos=161&kwd=baby cotton swab&tags=||||8752.144|Price|product|||TS|rsf:gd-|-stype:attr=1|qr_nm:gd|res:RC4|com-cf:nl|ptrs:na|ktp:N0|mc:98914|mtp:S|qry_typ:P|lang:en|wc:3|cs:8848|v=4,False,Shahdara,New Delhi,"1/95, Gali No.3, Near Navjeevan Phisical Center, Vishwas Nagar, Shahdara,, Shahdara, New Delhi - 110032, Dist.Delhi, Delhi",7942628926,
Baby Printed Cotton Bib,https://www.indiamart.com/proddetail/baby-printed-cotton-bib-2850156311491.html?pos=162&kwd=baby cotton swab&tags=||||8752.144|Price|product|||MDC|rsf:gd-|-stype:attr=1|qr_nm:gd|res:RC4|com-cf:nl|ptrs:na|ktp:N0|mc:98914|mtp:S|qry_typ:P|lang:en|wc:3|cs:8848|v=4,Kidz Creation,https://www.indiamart.com/kidzcreation/?pos=162&kwd=baby cotton swab&tags=||||8752.144|Price|product|||MDC|rsf:gd-|-stype:attr=1|qr_nm:gd|res:RC4|com-cf:nl|ptrs:na|ktp:N0|mc:98914|mtp:S|qry_typ:P|lang:en|wc:3|cs:8848|v=4,False,,New Delhi,"Shop No. 279/517,Sabharwal Market, Tolia Wali Gali Sadar Bazar, North Delhi,, New Delhi - 110006, Dist.Delhi, Delhi",8047679212,
Smart Ear Cleaner Earpick Swab Easy Earwax Removal,https://www.indiamart.com/proddetail/smart-ear-cleaner-earpick-swab-easy-earwax-removal-20247082862.html?pos=163&kwd=baby cotton swab&tags=||||8752.144|Price|product|||MDC|rsf:gd-|-stype:attr=1|qr_nm:gd|res:RC4|com-cf:nl|ptrs:na|ktp:N0|mc:98914|mtp:S|qry_typ:P|lang:en|wc:3|cs:8848|v=4,Mehak Enterprises,https://www.indiamart.com/mehak-enterprises/?pos=163&kwd=baby cotton swab&tags=||||8752.144|Price|product|||MDC|rsf:gd-|-stype:attr=1|qr_nm:gd|res:RC4|com-cf:nl|ptrs:na|ktp:N0|mc:98914|mtp:S|qry_typ:P|lang:en|wc:3|cs:8848|v=4,False,Ashok Vihar,New Delhi,"Shop No. 7, G Block Market, Ashok Vihar, Phase 1, Ashok Vihar, New Delhi - 110052, Dist.Delhi, Delhi",8046071382,
"Albedo Multicolor Organic Cotton Baby Muslin Cloth Swaddle, Toddlers",https://www.indiamart.com/proddetail/organic-cotton-baby-muslin-cloth-swaddle-23850858133.html?pos=164&kwd=baby cotton swab&tags=||||8668.838|Price|product|||TS|rsf:gd-|-stype:attr=1|qr_nm:gd|res:RC4|com-cf:nl|ptrs:na|ktp:N0|mc:98914|mtp:S|qry_typ:P|lang:en|wc:3|cs:8848|v=4,Meenu's Manchesters,https://www.hotelbedsheet.in/?pos=164&kwd=baby cotton swab&tags=||||8668.838|Price|product|||TS|rsf:gd-|-stype:attr=1|qr_nm:gd|res:RC4|com-cf:nl|ptrs:na|ktp:N0|mc:98914|mtp:S|qry_typ:P|lang:en|wc:3|cs:8848|v=4,False,Edayankattuvalsu,Erode,"26, Nggo Colony, 1, Edayankattuvalsu, Erode - 638009, Dist.Erode, Tamil Nadu",8048609221,
Cotton New Born Baby Bib,https://www.indiamart.com/proddetail/new-born-baby-bib-2854946859988.html?pos=165&kwd=baby cotton swab&tags=||||8752.144|Price|product|||TS|rsf:gd-|-stype:attr=1|qr_nm:gd|res:RC4|com-cf:nl|ptrs:na|ktp:N0|mc:98914|mtp:S|qry_typ:P|lang:en|wc:3|cs:8848|v=4,Dua Traders,https://www.indiamart.com/duatraders-delhi/?pos=165&kwd=baby cotton swab&tags=||||8752.144|Price|product|||TS|rsf:gd-|-stype:attr=1|qr_nm:gd|res:RC4|com-cf:nl|ptrs:na|ktp:N0|mc:98914|mtp:S|qry_typ:P|lang:en|wc:3|cs:8848|v=4,False,Mandoli,New Delhi,"Plot No. 8, Kh No. 4/24, Mela Ram Vatika, E-block, JR Complex No. 4, Mandoli, Sevadham, Mandoli, New Delhi - 110093, Dist.Delhi, Delhi",8048971741,
Cotton Kids Bath Towel,https://www.indiamart.com/proddetail/kids-bath-towel-19103634530.html?pos=166&kwd=baby cotton swab&tags=||||8752.144|Price|product|||TS|rsf:gd-|-stype:attr=1|qr_nm:gd|res:RC4|com-cf:nl|ptrs:na|ktp:N0|mc:98914|mtp:S|qry_typ:P|lang:en|wc:3|cs:8848|v=4,Krishna Handloom,https://www.krishnahandloom.co.in/?pos=166&kwd=baby cotton swab&tags=||||8752.144|Price|product|||TS|rsf:gd-|-stype:attr=1|qr_nm:gd|res:RC4|com-cf:nl|ptrs:na|ktp:N0|mc:98914|mtp:S|qry_typ:P|lang:en|wc:3|cs:8848|v=4,False,Tilak Nagar,New Delhi,"First Floor, 54/9, Ashok Nagar Opposite Jankie Vaishno Dhaba, Tilak Nagar, New Delhi - 110018, Dist.Delhi, Delhi",8048982699,
Cotton White base printed Hooded Baby Blanket,https://www.indiamart.com/proddetail/hooded-baby-blanket-2851209756255.html?pos=167&kwd=baby cotton swab&tags=||||8668.838|Price|product|||TS|rsf:gd-|-stype:attr=1|qr_nm:gd|res:RC4|com-cf:nl|ptrs:na|ktp:N0|mc:98914|mtp:S|qry_typ:P|lang:en|wc:3|cs:8848|v=4,Ram Textiles,https://www.indiamart.com/ram-textiles/?pos=167&kwd=baby cotton swab&tags=||||8668.838|Price|product|||TS|rsf:gd-|-stype:attr=1|qr_nm:gd|res:RC4|com-cf:nl|ptrs:na|ktp:N0|mc:98914|mtp:S|qry_typ:P|lang:en|wc:3|cs:8848|v=4,False,Veerappanchatram,Erode,"No. 131, M. G. R. Street-1, Veerappanchatram, Veerappanchatram, Erode - 638004, Dist.Erode, Tamil Nadu",8048611846,
"Printed Cotton Baby Bib, Newly Born",https://www.indiamart.com/proddetail/printed-cotton-baby-bib-2855065123988.html?pos=168&kwd=baby cotton swab&tags=||||8752.144|Price|product|||MDC|rsf:gd-|-stype:attr=1|qr_nm:gd|res:RC4|com-cf:nl|ptrs:na|ktp:N0|mc:98914|mtp:S|qry_typ:P|lang:en|wc:3|cs:8848|v=4,Madhav Hosiery,https://www.indiamart.com/madhav-hosiery-newdelhi/?pos=168&kwd=baby cotton swab&tags=||||8752.144|Price|product|||MDC|rsf:gd-|-stype:attr=1|qr_nm:gd|res:RC4|com-cf:nl|ptrs:na|ktp:N0|mc:98914|mtp:S|qry_typ:P|lang:en|wc:3|cs:8848|v=4,False,,New Delhi,"First Floor, 106, 1, Sunder Park, Shastri Nagar, East Delhi, New Delhi - 110031, Dist.Delhi, Delhi",7949307518,
Fairbizps Soft Cotton Baby Bibs Washable Waterproof 7 Days Printed Baby Bibs Apron For Baby Feeding (pack Of 7),https://www.indiamart.com/proddetail/fairbizps-soft-cotton-baby-bibs-washable-waterproof-7-days-printed-baby-bibs-apron-for-baby-feeding-pack-of-7-2852003416562.html?pos=169&kwd=baby cotton swab&tags=||||8752.144|Price|product|||TS|rsf:gd-|-stype:attr=1|qr_nm:gd|res:RC4|com-cf:nl|ptrs:na|ktp:N0|mc:98914|mtp:S|qry_typ:P|lang:en|wc:3|cs:8848|v=4,Fairbizps,https://www.indiamart.com/fairbizps/?pos=169&kwd=baby cotton swab&tags=||||8752.144|Price|product|||TS|rsf:gd-|-stype:attr=1|qr_nm:gd|res:RC4|com-cf:nl|ptrs:na|ktp:N0|mc:98914|mtp:S|qry_typ:P|lang:en|wc:3|cs:8848|v=4,True,Laxmi Nagar,New Delhi,"No. 348/4A, Asha Ram, Street No. 4, Subedar Chowk Mandawali, Laxmi Nagar, New Delhi - 110092, Dist.Delhi, Delhi",,
"Blue Cotton Plain Baby Towel, 3-12 Months",https://www.indiamart.com/proddetail/cotton-plain-baby-towel-11906663373.html?pos=170&kwd=baby cotton swab&tags=||||8752.144|Price|product|||TS|rsf:gd-|-stype:attr=1|qr_nm:gd|res:RC4|com-cf:nl|ptrs:na|ktp:N0|mc:98914|mtp:S|qry_typ:P|lang:en|wc:3|cs:8848|v=4,Chinmay Kids,https://www.indiamart.com/chinmaykids/?pos=170&kwd=baby cotton swab&tags=||||8752.144|Price|product|||TS|rsf:gd-|-stype:attr=1|qr_nm:gd|res:RC4|com-cf:nl|ptrs:na|ktp:N0|mc:98914|mtp:S|qry_typ:P|lang:en|wc:3|cs:8848|v=4,False,Nayagaon,New Delhi,"C-99, Street No. 4, First Pusta, Nayagaon, New Delhi - 110053, Dist.Delhi, Delhi",8046054858,
"Printed Unisex Baby Cotton Muslin Towel, 3-12 Months",https://www.indiamart.com/proddetail/baby-cotton-muslin-towel-2852519071848.html?pos=171&kwd=baby cotton swab&tags=||||8668.838|Price|product|||MDC|rsf:gd-|-stype:attr=1|qr_nm:gd|res:RC4|com-cf:nl|ptrs:na|ktp:N0|mc:98914|mtp:S|qry_typ:P|lang:en|wc:3|cs:8848|v=4,Rakshita Exports,https://www.indiamart.com/rakshita-exports/?pos=171&kwd=baby cotton swab&tags=||||8668.838|Price|product|||MDC|rsf:gd-|-stype:attr=1|qr_nm:gd|res:RC4|com-cf:nl|ptrs:na|ktp:N0|mc:98914|mtp:S|qry_typ:P|lang:en|wc:3|cs:8848|v=4,False,erode,Erode,"95/1, Bagiya Complex, Nasiyanur Road, Ondikkaranpalayam, erode, Erode - 638107, Dist.Erode, Tamil Nadu",7942708189,
Muslin Baby Towel Super Soft Cotton Baby Bath Towel,https://www.indiamart.com/proddetail/muslin-baby-towel-super-soft-cotton-baby-bath-towel-2853941937288.html?pos=172&kwd=baby cotton swab&tags=||||8706.263|Price|product|||TS|rsf:gd-|-stype:attr=1|qr_nm:gd|res:RC4|com-cf:nl|ptrs:na|ktp:N0|mc:98914|mtp:S|qry_typ:P|lang:en|wc:3|cs:8848|v=4,Shree Garments,https://www.indiamart.com/shree-garments-karur/?pos=172&kwd=baby cotton swab&tags=||||8706.263|Price|product|||TS|rsf:gd-|-stype:attr=1|qr_nm:gd|res:RC4|com-cf:nl|ptrs:na|ktp:N0|mc:98914|mtp:S|qry_typ:P|lang:en|wc:3|cs:8848|v=4,False,Vengamedu,Karur,"6, Maruthamuthu Thottam, Opp To Sp Colony, Vengameduvengamedu,, Vengamedu, Karur - 639006, Dist.Karur, Tamil Nadu",7942719649,
"Cotton Baby Earbuds ., Medium",https://www.indiamart.com/proddetail/baby-earbuds-2851211647088.html?pos=173&kwd=baby cotton swab&tags=||||8752.144|Price|product|||TS|rsf:gd-|-stype:attr=1|qr_nm:gd|res:RC4|com-cf:nl|ptrs:na|ktp:N0|mc:98914|mtp:S|qry_typ:P|lang:en|wc:3|cs:8848|v=4,Anand Garments Pvt Ltd,https://www.indiamart.com/anand-garments-newdelhi/?pos=173&kwd=baby cotton swab&tags=||||8752.144|Price|product|||TS|rsf:gd-|-stype:attr=1|qr_nm:gd|res:RC4|com-cf:nl|ptrs:na|ktp:N0|mc:98914|mtp:S|qry_typ:P|lang:en|wc:3|cs:8848|v=4,False,mundka,New Delhi,"Plot No-276, Area Pocket-m Sector-1, Dsiidc Bawana,, mundka, New Delhi - 110039, Dist.Delhi, Delhi",8048262855,
"Pink Baby Cotton Printed Mat, Newly Born",https://www.indiamart.com/proddetail/pink-baby-cotton-printed-mat-2853736739173.html?pos=174&kwd=baby cotton swab&tags=||||8228.275|Price|product|||MDC|rsf:gd-|-stype:attr=1|qr_nm:gd|res:RC4|com-cf:nl|ptrs:na|ktp:N0|mc:98914|mtp:S|qry_typ:P|lang:en|wc:3|cs:8848|v=4,Born Baby,https://www.indiamart.com/born-baby-ahmedabad/?pos=174&kwd=baby cotton swab&tags=||||8228.275|Price|product|||MDC|rsf:gd-|-stype:attr=1|qr_nm:gd|res:RC4|com-cf:nl|ptrs:na|ktp:N0|mc:98914|mtp:S|qry_typ:P|lang:en|wc:3|cs:8848|v=4,False,,Ahmedabad,"708, Mahalaxmi Complex, Gheekanta GPO, Ahmedabad - 380001, Dist.Ahmedabad, Gujarat",7949331255,
"Cotton Plain,Printed Mini Berry Baby Washcloth Towel",https://www.indiamart.com/proddetail/mini-berry-baby-washcloth-towel-21114625712.html?pos=175&kwd=baby cotton swab&tags=||||8663.873|Price|product|||MDC|rsf:gd-|-stype:attr=1|qr_nm:gd|res:RC4|com-cf:nl|ptrs:na|ktp:N0|mc:98914|mtp:S|qry_typ:P|lang:en|wc:3|cs:8848|v=4,Mini Berry,https://www.indiamart.com/miniberry/?pos=175&kwd=baby cotton swab&tags=||||8663.873|Price|product|||MDC|rsf:gd-|-stype:attr=1|qr_nm:gd|res:RC4|com-cf:nl|ptrs:na|ktp:N0|mc:98914|mtp:S|qry_typ:P|lang:en|wc:3|cs:8848|v=4,False,Vidyaranyapura,Bengaluru,"2, Navratna Complex, 2nd Floor, Vidyaranyapura, Bengaluru - 560097, Dist.Bengaluru, Karnataka",8046069832,
"Cotton Baby Bibs, Newly Born",https://www.indiamart.com/proddetail/cotton-baby-bibs-2854029781988.html?pos=176&kwd=baby cotton swab&tags=||||8584.299|Price|product|||TS|rsf:gd-|-stype:attr=1|qr_nm:gd|res:RC4|com-cf:nl|ptrs:na|ktp:N0|mc:98914|mtp:S|qry_typ:P|lang:en|wc:3|cs:8848|v=4,Sotexpa Qualidis Textile India Pvt. Ltd.,https://www.indiamart.com/sotexpa-qualidis-textileindia/?pos=176&kwd=baby cotton swab&tags=||||8584.299|Price|product|||TS|rsf:gd-|-stype:attr=1|qr_nm:gd|res:RC4|com-cf:nl|ptrs:na|ktp:N0|mc:98914|mtp:S|qry_typ:P|lang:en|wc:3|cs:8848|v=4,False,Sulur,Coimbatore,"SF 247, Railway Feeder Road, Muthu Gounden Pudur, Sulur Taluk, Sulur, Coimbatore - 641402, Dist.Coimbatore, Tamil Nadu",8044010301,
Baby Cotton Bibs,https://www.indiamart.com/proddetail/baby-cotton-bibs-27594580197.html?pos=177&kwd=baby cotton swab&tags=||||8706.263|Price|product|||TS|rsf:gd-|-stype:attr=1|qr_nm:gd|res:RC4|com-cf:nl|ptrs:na|ktp:N0|mc:98914|mtp:S|qry_typ:P|lang:en|wc:3|cs:8848|v=4,Karur Export Company,https://www.karurexportcompany.in/?pos=177&kwd=baby cotton swab&tags=||||8706.263|Price|product|||TS|rsf:gd-|-stype:attr=1|qr_nm:gd|res:RC4|com-cf:nl|ptrs:na|ktp:N0|mc:98914|mtp:S|qry_typ:P|lang:en|wc:3|cs:8848|v=4,True,Sri Poonkuyil Nagar,Karur,"41, 43, Kuluthu Palayam Road, Vengamedu, Sri Poonkuyil Nagar, Karur - 639006, Dist.Karur, Tamil Nadu",8048600914,
"Micro Polyester Plain Stripe Bath Mat, For Bedroom",https://www.indiamart.com/proddetail/stripe-bath-mat-25833144030.html?pos=178&kwd=baby cotton swab&tags=||||8747.203|Price|product|||TS|rsf:gd-|-stype:attr=1|qr_nm:gd|res:RC4|com-cf:nl|ptrs:na|ktp:N0|mc:98914|mtp:S|qry_typ:P|lang:en|wc:3|cs:8848|v=4,R N Fibers,https://www.indiamart.com/rnfibers/?pos=178&kwd=baby cotton swab&tags=||||8747.203|Price|product|||TS|rsf:gd-|-stype:attr=1|qr_nm:gd|res:RC4|com-cf:nl|ptrs:na|ktp:N0|mc:98914|mtp:S|qry_typ:P|lang:en|wc:3|cs:8848|v=4,False,Industrial Area,Panipat,"Floora Chowk, Nangalkheri, Killa No. 7/1 Muraba No. 62, Sector-29, Industrial Area, Panipat - 132103, Dist.Panipat, Haryana",8047658595,
"Cotton Printed Baby Photoshoot mileston Mat, Mat Size: 15 X 10inch",https://www.indiamart.com/proddetail/baby-photoshoot-mileston-mat-24316821997.html?pos=179&kwd=baby cotton swab&tags=||||8228.275|Price|product|||MDC|rsf:gd-|-stype:attr=1|qr_nm:gd|res:RC4|com-cf:nl|ptrs:na|ktp:N0|mc:98914|mtp:S|qry_typ:P|lang:en|wc:3|cs:8848|v=4,Sanskriti Inc,https://www.indiamart.com/sanskriti-inc/?pos=179&kwd=baby cotton swab&tags=||||8228.275|Price|product|||MDC|rsf:gd-|-stype:attr=1|qr_nm:gd|res:RC4|com-cf:nl|ptrs:na|ktp:N0|mc:98914|mtp:S|qry_typ:P|lang:en|wc:3|cs:8848|v=4,False,Nikol,Ahmedabad,"Shop No-26, Surjit Co Op H Soc Ltd, Nr. India Colony, Nikol Road, Nikol, Ahmedabad - 382350, Dist.Ahmedabad, Gujarat",8046047726,
"Rectangle Cotton Baby Bath Towel, GSM: 100 GSM",https://www.indiamart.com/proddetail/rectangle-cotton-baby-bath-towel-2851233766248.html?pos=180&kwd=baby cotton swab&tags=||||8515.687|Price|product|||MDC|rsf:gd-|-stype:attr=1|qr_nm:gd|res:RC4|com-cf:nl|ptrs:na|ktp:N0|mc:98914|mtp:S|qry_typ:P|lang:en|wc:3|cs:8848|v=4,Pamu Textiles,https://www.indiamart.com/pamu-textiles/?pos=180&kwd=baby cotton swab&tags=||||8515.687|Price|product|||MDC|rsf:gd-|-stype:attr=1|qr_nm:gd|res:RC4|com-cf:nl|ptrs:na|ktp:N0|mc:98914|mtp:S|qry_typ:P|lang:en|wc:3|cs:8848|v=4,False,,Solapur,"PT 11, Asha Nagar, Solapur North, Kumbhari, Solapur - 413006, Dist.Solapur, Maharashtra",7949329534,
Plain Fabric: Cotton New Born Hospital Hooded Towel,https://www.indiamart.com/proddetail/new-born-baby-cotton-hooded-towel-26877531073.html?pos=181&kwd=baby cotton swab&tags=||||8626.744|Price|product|||MDC|rsf:gd-|-stype:attr=1|qr_nm:gd|res:RC4|com-cf:nl|ptrs:na|ktp:N0|mc:98914|mtp:S|qry_typ:P|lang:en|wc:3|cs:8848|v=4,Senthoor Tex,https://www.indiamart.com/senthoor-tex/?pos=181&kwd=baby cotton swab&tags=||||8626.744|Price|product|||MDC|rsf:gd-|-stype:attr=1|qr_nm:gd|res:RC4|com-cf:nl|ptrs:na|ktp:N0|mc:98914|mtp:S|qry_typ:P|lang:en|wc:3|cs:8848|v=4,False,Tiruppur North,Tiruppur,"8/1465B RS Puram, 1 Street, Pandiyan Nagar, Puluvupatti PO, Tiruppur North, Tiruppur - 641602, Dist.Coimbatore, Tamil Nadu",8045729718,
"Cotton BABY MUSLIN BATH TOWELS, Newly Born",https://www.indiamart.com/proddetail/baby-muslin-bath-towels-2854217509348.html?pos=182&kwd=baby cotton swab&tags=||||8228.275|Price|product|||TS|rsf:gd-|-stype:attr=1|qr_nm:gd|res:RC4|com-cf:nl|ptrs:na|ktp:N0|mc:98914|mtp:S|qry_typ:P|lang:en|wc:3|cs:8848|v=4,King Enterprise,https://www.kingenterpriseindia.com/?pos=182&kwd=baby cotton swab&tags=||||8228.275|Price|product|||TS|rsf:gd-|-stype:attr=1|qr_nm:gd|res:RC4|com-cf:nl|ptrs:na|ktp:N0|mc:98914|mtp:S|qry_typ:P|lang:en|wc:3|cs:8848|v=4,False,Opp. Haripura Bus Stand,Ahmedabad,"Block- E 28, Ground Floor, Abhishek Estate-1, Opp. Haripura Bus Stand, Ahmedabad - 380016, Dist.Ahmedabad, Gujarat",8047632934,
"Cotton Baby Muslin Bath Towels, Newly Born",https://www.indiamart.com/proddetail/baby-muslin-bath-towels-2854510699991.html?pos=183&kwd=baby cotton swab&tags=||||8230.883|Price|product|||TS|rsf:gd-|-stype:attr=1|qr_nm:gd|res:RC4|com-cf:nl|ptrs:na|ktp:N0|mc:98914|mtp:S|qry_typ:P|lang:en|wc:3|cs:8848|v=4,BABYHOLIC,https://www.babyholic.in/?pos=183&kwd=baby cotton swab&tags=||||8230.883|Price|product|||TS|rsf:gd-|-stype:attr=1|qr_nm:gd|res:RC4|com-cf:nl|ptrs:na|ktp:N0|mc:98914|mtp:S|qry_typ:P|lang:en|wc:3|cs:8848|v=4,False,,Surat,"Ground Floor, Plot No. F/56/, And F/57, Laxmi Narayan Industrial Estate, Udhana, Kailash Fashion, Surat - 394210, Dist.Surat, Gujarat",8045732096,
"Microfiber Newborn Baby Towel, Newly Born",https://www.indiamart.com/proddetail/newborn-baby-towel-2854365933062.html?pos=184&kwd=baby cotton swab&tags=||||8211.142|Price|product|||TS|rsf:gd-|-stype:attr=1|qr_nm:gd|res:RC4|com-cf:nl|ptrs:na|ktp:N0|mc:98914|mtp:S|qry_typ:P|lang:en|wc:3|cs:8848|v=4,Parass Trading,https://www.indiamart.com/parasstrading/?pos=184&kwd=baby cotton swab&tags=||||8211.142|Price|product|||TS|rsf:gd-|-stype:attr=1|qr_nm:gd|res:RC4|com-cf:nl|ptrs:na|ktp:N0|mc:98914|mtp:S|qry_typ:P|lang:en|wc:3|cs:8848|v=4,False,Chembur,Mumbai,"Room no 3, First Floor, Plot no 39, Next to Shivaji Nagar police station,Kherwadi Plot no 39, Chembur, Mumbai - 400071, Dist.Mumbai, Maharashtra",8047631170,
Cotton Baby Bib,https://www.indiamart.com/proddetail/baby-bib-20882621597.html?pos=185&kwd=baby cotton swab&tags=||||8661.854|Price|product|||TS|rsf:gd-|-stype:attr=1|qr_nm:gd|res:RC4|com-cf:nl|ptrs:na|ktp:N0|mc:98914|mtp:S|qry_typ:P|lang:en|wc:3|cs:8848|v=4,Uncle Benit Global Inc,https://www.indiamart.com/unclebenitglobal/?pos=185&kwd=baby cotton swab&tags=||||8661.854|Price|product|||TS|rsf:gd-|-stype:attr=1|qr_nm:gd|res:RC4|com-cf:nl|ptrs:na|ktp:N0|mc:98914|mtp:S|qry_typ:P|lang:en|wc:3|cs:8848|v=4,False,Mundian,Ludhiana,"Opposite Fortis Hospital, NH-95 Chandigarh Road, Mundian Khurd, Mundian, Ludhiana - 141110, Dist.Ludhiana, Punjab",8046075831,
"Cotton Baby Bibs, 1-2 Years",https://www.indiamart.com/proddetail/cotton-baby-bibs-2854312381955.html?pos=186&kwd=baby cotton swab&tags=||||8778.123|Price|product|||TS|rsf:gd-|-stype:attr=1|qr_nm:gd|res:RC4|com-cf:nl|ptrs:na|ktp:N0|mc:98914|mtp:S|qry_typ:P|lang:en|wc:3|cs:8848|v=4,Pleasure Paradise,https://www.wonderfeel.in/?pos=186&kwd=baby cotton swab&tags=||||8778.123|Price|product|||TS|rsf:gd-|-stype:attr=1|qr_nm:gd|res:RC4|com-cf:nl|ptrs:na|ktp:N0|mc:98914|mtp:S|qry_typ:P|lang:en|wc:3|cs:8848|v=4,False,Sector 137,Noida,"11, T12 1105, Paras Tierea, Sector 137, Sector 137, Noida - 201301, Dist.Gautam Budh Nagar, Uttar Pradesh",8048612980,
Baby Cotton Swab,https://www.indiamart.com/proddetail/baby-cotton-swab-12447941897.html?pos=187&kwd=baby cotton swab&tags=CC||||8954.051|Price|product|||NA|rsf:gd-|-stype:attr=1|qr_nm:gd|res:RC4|com-cf:nl|ptrs:na|ktp:N0|mc:98914|mtp:S|qry_typ:P|lang:en|wc:3|cs:8848|v=4,Kankaria International,https://www.indiamart.com/kankariainternational/?pos=187&kwd=baby cotton swab&tags=CC||||8954.051|Price|product|||NA|rsf:gd-|-stype:attr=1|qr_nm:gd|res:RC4|com-cf:nl|ptrs:na|ktp:N0|mc:98914|mtp:S|qry_typ:P|lang:en|wc:3|cs:8848|v=4,False,Krishnammal Road,Chennai,"Shop No. 148, Krishnammal Road, Chennai - 600034, Dist.Chennai, Tamil Nadu",8043802944,
Bonne Tender Flo Cotton Swab Sticks,https://www.indiamart.com/proddetail/bonne-tender-flo-cotton-swab-sticks-21587273191.html?pos=188&kwd=baby cotton swab&tags=CC||||9421.978|Price|product|||NA|rsf:gd-|-stype:attr=1|qr_nm:gd|res:RC4|com-cf:nl|ptrs:na|ktp:N0|mc:98914|mtp:S|qry_typ:P|lang:en|wc:3|cs:8848|v=4,Khushbu Enterprises,https://www.indiamart.com/khushbu-enterprises-dehri/?pos=188&kwd=baby cotton swab&tags=CC||||9421.978|Price|product|||NA|rsf:gd-|-stype:attr=1|qr_nm:gd|res:RC4|com-cf:nl|ptrs:na|ktp:N0|mc:98914|mtp:S|qry_typ:P|lang:en|wc:3|cs:8848|v=4,False,Adarsh Nagar,Dehri,"Mohan Bigha Market, Adarsh Nagar, Dehri - 821307, Dist.Rohtas, Bihar",8062245002,556
Tulips Baby Ear Cotton Swabs,https://www.indiamart.com/proddetail/tulips-baby-ear-cotton-swabs-2852615162212.html?pos=189&kwd=baby cotton swab&tags=CC||||8307.81|Price|product|||NA|rsf:gd-|-stype:attr=1|qr_nm:gd|res:RC4|com-cf:nl|ptrs:na|ktp:N0|mc:98914|mtp:S|qry_typ:P|lang:en|wc:3|cs:8848|v=4,Karan Sales,https://www.indiamart.com/karan-sales-pune/?pos=189&kwd=baby cotton swab&tags=CC||||8307.81|Price|product|||NA|rsf:gd-|-stype:attr=1|qr_nm:gd|res:RC4|com-cf:nl|ptrs:na|ktp:N0|mc:98914|mtp:S|qry_typ:P|lang:en|wc:3|cs:8848|v=4,False,Katraj,Pune,"Flat No A/19, Sr. No.13/2b/1, Pl No 1, Bhairavnath Nagar Appt, Katraj, Katraj, Pune - 411046, Dist.Pune, Maharashtra",7942711602,
"White (Base) 180 GSM Printed Waffle Cotton Baby Towel, Size: 30 X 60inch",https://www.indiamart.com/proddetail/180-gsm-printed-waffle-cotton-baby-towel-2849901957297.html?pos=190&kwd=baby cotton swab&tags=||||8601.347|Price|product|||TS|rsf:gd-|-stype:attr=1|qr_nm:gd|res:RC4|com-cf:nl|ptrs:na|ktp:N0|mc:98914|mtp:S|qry_typ:P|lang:en|wc:3|cs:8848|v=4,Parmi Textile,https://www.parmitextile.com/?pos=190&kwd=baby cotton swab&tags=||||8601.347|Price|product|||TS|rsf:gd-|-stype:attr=1|qr_nm:gd|res:RC4|com-cf:nl|ptrs:na|ktp:N0|mc:98914|mtp:S|qry_typ:P|lang:en|wc:3|cs:8848|v=4,False,Sanganer,Jaipur,"192/331, Janki Devi Road, Sanganer, Jaipur - 302033, Dist.Jaipur, Rajasthan",7942801178,
"Printed GREY Imported Cotton Towel For Baby's., Packaging Type: POLY BAG",https://www.indiamart.com/proddetail/imported-cotton-towel-for-baby-s-2853743181433.html?pos=191&kwd=baby cotton swab&tags=||||8259.31|Price|product|||TS|rsf:gd-|-stype:attr=1|qr_nm:gd|res:RC4|com-cf:nl|ptrs:na|ktp:N0|mc:98914|mtp:S|qry_typ:P|lang:en|wc:3|cs:8848|v=4,Padhariya International,https://www.padhariyainternational.in/?pos=191&kwd=baby cotton swab&tags=||||8259.31|Price|product|||TS|rsf:gd-|-stype:attr=1|qr_nm:gd|res:RC4|com-cf:nl|ptrs:na|ktp:N0|mc:98914|mtp:S|qry_typ:P|lang:en|wc:3|cs:8848|v=4,False,Abhiram Nagar,Bardoli,"A-30, Abhiram Nagar Society, Nr Bhuvenseshwari Baug , Bardoli,, Abhiram Nagar, Bardoli - 394601, Dist.Surat, Gujarat",8044011879,
Cotton Baby Bibs,https://www.indiamart.com/proddetail/cotton-baby-bibs-2852982493248.html?pos=192&kwd=baby cotton swab&tags=||||8752.144|Price|product|||MDC|rsf:gd-|-stype:attr=1|qr_nm:gd|res:RC4|com-cf:nl|ptrs:na|ktp:N0|mc:98914|mtp:S|qry_typ:P|lang:en|wc:3|cs:8848|v=4,B N Hosiery,https://www.indiamart.com/bnhosiery/?pos=192&kwd=baby cotton swab&tags=||||8752.144|Price|product|||MDC|rsf:gd-|-stype:attr=1|qr_nm:gd|res:RC4|com-cf:nl|ptrs:na|ktp:N0|mc:98914|mtp:S|qry_typ:P|lang:en|wc:3|cs:8848|v=4,False,Ashok Vihar,New Delhi,"House No 130l, Block-E, Phase-1,Ashok, Vihar, Ashok Vihar, New Delhi - 110052, Dist.Delhi, Delhi",7942706809,
"POMS Cotton Baby Bibs, Packaging Type: Poly cover, Newly Born",https://www.indiamart.com/proddetail/cotton-baby-bibs-2853899692930.html?pos=193&kwd=baby cotton swab&tags=||||8550.327|Price|product|||MDC|rsf:gd-|-stype:attr=1|qr_nm:gd|res:RC4|com-cf:nl|ptrs:na|ktp:N0|mc:98914|mtp:S|qry_typ:P|lang:en|wc:3|cs:8848|v=4,Surgee Apparels,https://www.indiamart.com/surgee-apparels/?pos=193&kwd=baby cotton swab&tags=||||8550.327|Price|product|||MDC|rsf:gd-|-stype:attr=1|qr_nm:gd|res:RC4|com-cf:nl|ptrs:na|ktp:N0|mc:98914|mtp:S|qry_typ:P|lang:en|wc:3|cs:8848|v=4,False,Chandranagar Colony Extension,Palakkad,"10/651, Brothers Complex, Kootupatha, Chandranagar Colony Extension, Palakkad - 678007, Dist.Palakkad, Kerala",7949086612,
Baby Ear Buds,https://www.indiamart.com/proddetail/baby-ear-buds-14837435330.html?pos=194&kwd=baby cotton swab&tags=CC||||8584.299||product|||NA|rsf:gd-|-stype:attr=1|qr_nm:gd|res:RC4|com-cf:nl|ptrs:na|ktp:N0|mc:98914|mtp:S|qry_typ:P|lang:en|wc:3|cs:8848|v=4,Suprem Enterprises,https://www.indiamart.com/suprementerprises/?pos=194&kwd=baby cotton swab&tags=CC||||8584.299||product|||NA|rsf:gd-|-stype:attr=1|qr_nm:gd|res:RC4|com-cf:nl|ptrs:na|ktp:N0|mc:98914|mtp:S|qry_typ:P|lang:en|wc:3|cs:8848|v=4,False,Puliakulam Road,Coimbatore,"737, Green Fields, Puliakulam Road, Coimbatore - 641045, Dist.Coimbatore, Tamil Nadu",7942662895,
"Baby Pink Cotton Bib, Newly Born",https://www.indiamart.com/proddetail/baby-pink-cotton-bib-2851485580773.html?pos=195&kwd=baby cotton swab&tags=||||8624.416|Price|product|||MDC|rsf:gd-|-stype:attr=1|qr_nm:gd|res:RC4|com-cf:nl|ptrs:na|ktp:N0|mc:98914|mtp:S|qry_typ:P|lang:en|wc:3|cs:8848|v=4,Nagpal Cosmetics,https://www.indiamart.com/nagpal-cosmetics/?pos=195&kwd=baby cotton swab&tags=||||8624.416|Price|product|||MDC|rsf:gd-|-stype:attr=1|qr_nm:gd|res:RC4|com-cf:nl|ptrs:na|ktp:N0|mc:98914|mtp:S|qry_typ:P|lang:en|wc:3|cs:8848|v=4,False,,Hisar,"First Floor, House No. 123, Kunj Lal Garden, Shanti Nagar, Hisar - 125001, Dist.Hisar, Haryana",8045738316,
"Baby Cotton Cloth Towel, 1-2 Years",https://www.indiamart.com/proddetail/baby-cotton-cloth-towel-2854719995491.html?pos=196&kwd=baby cotton swab&tags=||||8954.051|Price|product|||MDC|rsf:gd-|-stype:attr=1|qr_nm:gd|res:RC4|com-cf:nl|ptrs:na|ktp:N0|mc:98914|mtp:S|qry_typ:P|lang:en|wc:3|cs:8848|v=4,Tender Babe,https://www.indiamart.com/tenderbabe-chennai/?pos=196&kwd=baby cotton swab&tags=||||8954.051|Price|product|||MDC|rsf:gd-|-stype:attr=1|qr_nm:gd|res:RC4|com-cf:nl|ptrs:na|ktp:N0|mc:98914|mtp:S|qry_typ:P|lang:en|wc:3|cs:8848|v=4,False,Tiruvallur,Chennai,"196/2A, Annai Teresa Street, Kavarapalayam Main Road,, Siranjivi Nagar, Avadi,, Tiruvallur, Chennai - 600054, Dist.Chennai, Tamil Nadu",7949323914,
Printed Cotton Baby Bib,https://www.indiamart.com/proddetail/printed-cotton-baby-bib-2850650073473.html?pos=197&kwd=baby cotton swab&tags=||||8752.144|Price|product|||MDC|rsf:gd-|-stype:attr=1|qr_nm:gd|res:RC4|com-cf:nl|ptrs:na|ktp:N0|mc:98914|mtp:S|qry_typ:P|lang:en|wc:3|cs:8848|v=4,L T Textiles,https://www.indiamart.com/lttextiles/?pos=197&kwd=baby cotton swab&tags=||||8752.144|Price|product|||MDC|rsf:gd-|-stype:attr=1|qr_nm:gd|res:RC4|com-cf:nl|ptrs:na|ktp:N0|mc:98914|mtp:S|qry_typ:P|lang:en|wc:3|cs:8848|v=4,False,Pahari Dhiraj,New Delhi,"5189-90 Main Road, Sadar Bazar, Pahari Dhiraj, New Delhi - 110006, Dist.Delhi, Delhi",7942958455,
"Licka Bells Newborn Baby Cotton Bib Set, Newly Born",https://www.indiamart.com/proddetail/newborn-baby-cotton-bib-set-2853146647491.html?pos=198&kwd=baby cotton swab&tags=||||8559.269|Price|product|||MDC|rsf:gd-|-stype:attr=1|qr_nm:gd|res:RC4|com-cf:nl|ptrs:na|ktp:N0|mc:98914|mtp:S|qry_typ:P|lang:en|wc:3|cs:8848|v=4,Akash Enterprises,https://www.indiamart.com/akashenterprises-indoremadhyapradesh/?pos=198&kwd=baby cotton swab&tags=||||8559.269|Price|product|||MDC|rsf:gd-|-stype:attr=1|qr_nm:gd|res:RC4|com-cf:nl|ptrs:na|ktp:N0|mc:98914|mtp:S|qry_typ:P|lang:en|wc:3|cs:8848|v=4,False,Sudama Nagar,Indore,"1058K Sudama Nagar, Sudama Nagar, Indore - 452009, Dist.Indore, Madhya Pradesh",7942720321,
"Baby White Muslin Cotton Swaddle ,Towel",https://www.indiamart.com/proddetail/baby-white-muslin-cotton-swaddle-towel-2854138792248.html?pos=199&kwd=baby cotton swab&tags=||||8706.263|Price|product|||MDC|rsf:gd-|-stype:attr=1|qr_nm:gd|res:RC4|com-cf:nl|ptrs:na|ktp:N0|mc:98914|mtp:S|qry_typ:P|lang:en|wc:3|cs:8848|v=4,RKND Traders,https://www.indiamart.com/rknd-traders/?pos=199&kwd=baby cotton swab&tags=||||8706.263|Price|product|||MDC|rsf:gd-|-stype:attr=1|qr_nm:gd|res:RC4|com-cf:nl|ptrs:na|ktp:N0|mc:98914|mtp:S|qry_typ:P|lang:en|wc:3|cs:8848|v=4,False,,Karur,"No.86/66, Mettu Street, Karur - 639001, Dist.Karur, Tamil Nadu",8045730806,
"Orange Cotton 370 GSM Classic Baby Bath Towel, Size: 52x116 cm",https://www.indiamart.com/proddetail/cotton-370-gsm-classic-baby-bath-towel-19106702897.html?pos=200&kwd=baby cotton swab&tags=||||8778.123|Price|product|||MDC|rsf:gd-|-stype:attr=1|qr_nm:gd|res:RC4|com-cf:nl|ptrs:na|ktp:N0|mc:98914|mtp:S|qry_typ:P|lang:en|wc:3|cs:8848|v=4,Small World,https://www.indiamart.com/smallworldnoida/?pos=200&kwd=baby cotton swab&tags=||||8778.123|Price|product|||MDC|rsf:gd-|-stype:attr=1|qr_nm:gd|res:RC4|com-cf:nl|ptrs:na|ktp:N0|mc:98914|mtp:S|qry_typ:P|lang:en|wc:3|cs:8848|v=4,False,Sector 11,Noida,"D-34, Sector 11, Sector 11, Noida - 201301, Dist.Gautam Budh Nagar, Uttar Pradesh",8048611523,
"Cotton Baby Changer mat, Newly Born",https://www.indiamart.com/proddetail/baby-changer-mat-2851242713388.html?pos=201&kwd=baby cotton swab&tags=||||8752.144|Price|product|||TS|rsf:gd-|-stype:attr=1|qr_nm:gd|res:RC4|com-cf:nl|ptrs:na|ktp:N0|mc:98914|mtp:S|qry_typ:P|lang:en|wc:3|cs:8848|v=4,Bankey Bihari Enterprises,https://www.indiamart.com/bankey-bihari-enterprisesnewdelhi/?pos=201&kwd=baby cotton swab&tags=||||8752.144|Price|product|||TS|rsf:gd-|-stype:attr=1|qr_nm:gd|res:RC4|com-cf:nl|ptrs:na|ktp:N0|mc:98914|mtp:S|qry_typ:P|lang:en|wc:3|cs:8848|v=4,False,Jahangirpuri,New Delhi,"Plot No 51 First Floor Street No 11 Harijan Colony Village Bhalsva, Jahangirpuri, New Delhi - 110033, Dist.Delhi, Delhi",7942825166,
"CRADLE TOGS Cotton Fancy Baby Bibs, Packaging Type: POLYPACK",https://www.indiamart.com/proddetail/fancy-baby-bibs-3807154233.html?pos=202&kwd=baby cotton swab&tags=||||8752.144|Price|product|||TS|rsf:gd-|-stype:attr=1|qr_nm:gd|res:RC4|com-cf:nl|ptrs:na|ktp:N0|mc:98914|mtp:S|qry_typ:P|lang:en|wc:3|cs:8848|v=4,Man Singh & Sons Private Limited,https://www.babyproductsmanufacturer.com/?pos=202&kwd=baby cotton swab&tags=||||8752.144|Price|product|||TS|rsf:gd-|-stype:attr=1|qr_nm:gd|res:RC4|com-cf:nl|ptrs:na|ktp:N0|mc:98914|mtp:S|qry_typ:P|lang:en|wc:3|cs:8848|v=4,False,Karol Bagh,New Delhi,"No. 13/24, 1st Floor, W. E. A., Karol Bagh, Karol Bagh, New Delhi - 110005, Dist.Delhi, Delhi",8048978579,
Cotton Baby Bib,https://www.indiamart.com/proddetail/baby-bib-2854584074391.html?pos=203&kwd=baby cotton swab&tags=||||8662.111|Price|product|||TS|rsf:gd-|-stype:attr=1|qr_nm:gd|res:RC4|com-cf:nl|ptrs:na|ktp:N0|mc:98914|mtp:S|qry_typ:P|lang:en|wc:3|cs:8848|v=4,Rovee Garments,https://www.indiamart.com/rovee-garments/?pos=203&kwd=baby cotton swab&tags=||||8662.111|Price|product|||TS|rsf:gd-|-stype:attr=1|qr_nm:gd|res:RC4|com-cf:nl|ptrs:na|ktp:N0|mc:98914|mtp:S|qry_typ:P|lang:en|wc:3|cs:8848|v=4,False,State Bank Colony,Tirunelveli,"70, State Bank Colony, Ezhil Nagar, Ngo A Colony, State Bank Colony, Tirunelveli - 627007, Dist.Tirunelveli, Tamil Nadu",7942840922,
"Babyzone Embroidered Single AC Blanket for AC Room (Poly Cotton, PINK RABBIT",https://www.indiamart.com/proddetail/embroidered-baby-towel-2850674090397.html?pos=204&kwd=baby cotton swab&tags=||||8661.854|Price|product|||TS|rsf:gd-|-stype:attr=1|qr_nm:gd|res:RC4|com-cf:nl|ptrs:na|ktp:N0|mc:98914|mtp:S|qry_typ:P|lang:en|wc:3|cs:8848|v=4,Aggarwal Creations,https://www.aggarwalcreations.com/?pos=204&kwd=baby cotton swab&tags=||||8661.854|Price|product|||TS|rsf:gd-|-stype:attr=1|qr_nm:gd|res:RC4|com-cf:nl|ptrs:na|ktp:N0|mc:98914|mtp:S|qry_typ:P|lang:en|wc:3|cs:8848|v=4,False,Ramesh Nagar,Ludhiana,"Geeta Nagar, Street No. 7, Tajpur Road, Ramesh Nagar, Ludhiana - 141008, Dist.Ludhiana, Punjab",8048962321,
Printed Multicolor Kids Bath Towel,https://www.indiamart.com/proddetail/kids-bath-towel-23588449012.html?pos=205&kwd=baby cotton swab&tags=||||8515.687|Price|product|||TS|rsf:gd-|-stype:attr=1|qr_nm:gd|res:RC4|com-cf:nl|ptrs:na|ktp:N0|mc:98914|mtp:S|qry_typ:P|lang:en|wc:3|cs:8848|v=4,Ranka Trade Centre,https://www.indiamart.com/ranka-trade-centre/?pos=205&kwd=baby cotton swab&tags=||||8515.687|Price|product|||TS|rsf:gd-|-stype:attr=1|qr_nm:gd|res:RC4|com-cf:nl|ptrs:na|ktp:N0|mc:98914|mtp:S|qry_typ:P|lang:en|wc:3|cs:8848|v=4,False,Mangalwar Peth,Solapur,"35/36/37, Ground, Mahavir Market, Phaltan Galli, West Mangalwar Peth, Mangalwar Peth, Solapur - 413002, Dist.Solapur, Maharashtra",8048975996,
Return gift Customized Kids Towel,https://www.indiamart.com/proddetail/return-gift-customized-kids-towel-2850602797973.html?pos=206&kwd=baby cotton swab&tags=||||8228.275|Price|product|||TS|rsf:gd-|-stype:attr=1|qr_nm:gd|res:RC4|com-cf:nl|ptrs:na|ktp:N0|mc:98914|mtp:S|qry_typ:P|lang:en|wc:3|cs:8848|v=4,Labdhi Engineering Pvt. Ltd.,https://www.indiamart.com/labdhiengineering/?pos=206&kwd=baby cotton swab&tags=||||8228.275|Price|product|||TS|rsf:gd-|-stype:attr=1|qr_nm:gd|res:RC4|com-cf:nl|ptrs:na|ktp:N0|mc:98914|mtp:S|qry_typ:P|lang:en|wc:3|cs:8848|v=4,False,Navrangpura,Ahmedabad,"No. 203, Loha Bhavan, Near Old High Court Road, Income Tax, Navrangpura, Ahmedabad - 380009, Dist.Ahmedabad, Gujarat",8046033416,
hot pink round Baby Head Shaper Pillow,https://www.indiamart.com/proddetail/baby-head-shaper-pillow-26275219491.html?pos=207&kwd=baby cotton swab&tags=||||8752.144|Price|product|||TS|rsf:gd-|-stype:attr=1|qr_nm:gd|res:RC4|com-cf:nl|ptrs:na|ktp:N0|mc:98914|mtp:S|qry_typ:P|lang:en|wc:3|cs:8848|v=4,Verma Enterprises,https://www.styaloindia.com/?pos=207&kwd=baby cotton swab&tags=||||8752.144|Price|product|||TS|rsf:gd-|-stype:attr=1|qr_nm:gd|res:RC4|com-cf:nl|ptrs:na|ktp:N0|mc:98914|mtp:S|qry_typ:P|lang:en|wc:3|cs:8848|v=4,False,Samaypur,New Delhi,"Plot No.180/1-B, Kh.No. 955/1, 1st, Block-C, Raja Vihar, Siraspur, Badli, North West Delhi, Samaypur, New Delhi - 110042, Dist.Delhi, Delhi",8047654672,
Cotton Baby Bibs,https://www.indiamart.com/proddetail/cotton-baby-bibs-2852978995355.html?pos=208&kwd=baby cotton swab&tags=||||8626.744|Price|product|||TS|rsf:gd-|-stype:attr=1|qr_nm:gd|res:RC4|com-cf:nl|ptrs:na|ktp:N0|mc:98914|mtp:S|qry_typ:P|lang:en|wc:3|cs:8848|v=4,Richie International,https://www.indiamart.com/richieinternational/?pos=208&kwd=baby cotton swab&tags=||||8626.744|Price|product|||TS|rsf:gd-|-stype:attr=1|qr_nm:gd|res:RC4|com-cf:nl|ptrs:na|ktp:N0|mc:98914|mtp:S|qry_typ:P|lang:en|wc:3|cs:8848|v=4,False,Nallur,Tiruppur,"48 Csi Colony, Nallur, Vijayapuram Post vijayapuram kangayam road, Nallur, Tiruppur - 641606, Dist.Coimbatore, Tamil Nadu",8047698456,
Cotton Lazytoddler Muslin Baby Bib,https://www.indiamart.com/proddetail/lazytoddler-muslin-baby-bib-2849545344691.html?pos=209&kwd=baby cotton swab&tags=||||8307.81|Price|product|||TS|rsf:gd-|-stype:attr=1|qr_nm:gd|res:RC4|com-cf:nl|ptrs:na|ktp:N0|mc:98914|mtp:S|qry_typ:P|lang:en|wc:3|cs:8848|v=4,Lazytoddler Solutions Private Limited,https://www.indiamart.com/lazytoddler-solutions/?pos=209&kwd=baby cotton swab&tags=||||8307.81|Price|product|||TS|rsf:gd-|-stype:attr=1|qr_nm:gd|res:RC4|com-cf:nl|ptrs:na|ktp:N0|mc:98914|mtp:S|qry_typ:P|lang:en|wc:3|cs:8848|v=4,False,Wakad,Pune,"A2-1001, Fl-A1, Behind Madhuban Hotel, S.No-40, Armada Parkhe Wasti, Wakad, Wakad, Pune - 411057, Dist.Pune, Maharashtra",8043819563,
Girl & Boy Baby Bib 100% Cotton,https://www.indiamart.com/proddetail/baby-bib-100-cotton-22624119212.html?pos=210&kwd=baby cotton swab&tags=||||8954.051|Price|product|||TS|rsf:gd-|-stype:attr=1|qr_nm:gd|res:RC4|com-cf:nl|ptrs:na|ktp:N0|mc:98914|mtp:S|qry_typ:P|lang:en|wc:3|cs:8848|v=4,Tetra Clothing,https://www.tetraclothing.in/?pos=210&kwd=baby cotton swab&tags=||||8954.051|Price|product|||TS|rsf:gd-|-stype:attr=1|qr_nm:gd|res:RC4|com-cf:nl|ptrs:na|ktp:N0|mc:98914|mtp:S|qry_typ:P|lang:en|wc:3|cs:8848|v=4,True,Gopichettipalaiyam,Chennai,"No. 59/28, Balu Building, Gopichettipalaiyam, Chennai - 638476, Dist.Chennai, Tamil Nadu",8048957951,
