product_title,product_link,company_name,company_link,is_verified_exporter,city_region,city,address_details,phone_number,phone_number_extension
"Conava White Kids u shape brush, Packaging Type: Box, 1-2 Years",https://www.indiamart.com/proddetail/kids-u-shape-brush-2850432140612.html?pos=1&kwd=baby brush and swab&tags=BA||||8752.144|Price|product|||TS|rsf:gd-|-stype:attr=1|qr_nm:gd|res:RC3|com-cf:nl|ptrs:na|ktp:N0|mc:189958|mtp:S|qry_typ:P|lang:en|wc:4|flavl:0|cs:9668|v=4,House Of Luxury,https://www.theholworld.net/?pos=1&kwd=baby brush and swab&tags=BA||||8752.144|Price|product|||TS|rsf:gd-|-stype:attr=1|qr_nm:gd|res:RC3|com-cf:nl|ptrs:na|ktp:N0|mc:189958|mtp:S|qry_typ:P|lang:en|wc:4|flavl:0|cs:9668|v=4,False,Budh Vihar,New Delhi,"Plot No - 5, Kh. No. - 89/10/2, 1, Block No. - I-1, Budh Vihar Phase 1, Delhi, North West Delhi, Del, Budh Vihar, New Delhi - 110086, Dist.Delhi, Delhi",7942819716,
"Yellow Baby Grooming Kit, Packaging Type: Plastic Jar, 3-12 Months",https://www.indiamart.com/proddetail/baby-grooming-kit-2852082923448.html?pos=2&kwd=baby brush and swab&tags=BB||||8624.416|Price|product|||MDC|rsf:gd-|-stype:attr=1|qr_nm:gd|res:RC3|com-cf:nl|ptrs:na|ktp:N0|mc:189958|mtp:S|qry_typ:P|lang:en|wc:4|flavl:0|cs:9668|v=4,Dayawanti Traders,https://www.indiamart.com/dayawati-trader/?pos=2&kwd=baby brush and swab&tags=BB||||8624.416|Price|product|||MDC|rsf:gd-|-stype:attr=1|qr_nm:gd|res:RC3|com-cf:nl|ptrs:na|ktp:N0|mc:189958|mtp:S|qry_typ:P|lang:en|wc:4|flavl:0|cs:9668|v=4,False,Indira Colony,Hisar,"Plot No. 137 Dhani Kishandutt, Near Asha High School, Nancy Beauty Parlour, Indira Colony, Indira Colony, Hisar - 125001, Dist.Hisar, Haryana",7942701403,
Baby Care Kit 10 pcs,https://www.indiamart.com/proddetail/baby-care-kit-10-pcs-2854721492697.html?pos=3&kwd=baby brush and swab&tags=BB||||8741.812|Price|product|||TS|rsf:gd-|-stype:attr=1|qr_nm:gd|res:RC3|com-cf:nl|ptrs:na|ktp:N0|mc:189958|mtp:S|qry_typ:P|lang:en|wc:4|flavl:0|cs:9668|v=4,Om Deal Online,https://www.indiamart.com/om-deal-online/?pos=3&kwd=baby brush and swab&tags=BB||||8741.812|Price|product|||TS|rsf:gd-|-stype:attr=1|qr_nm:gd|res:RC3|com-cf:nl|ptrs:na|ktp:N0|mc:189958|mtp:S|qry_typ:P|lang:en|wc:4|flavl:0|cs:9668|v=4,False,Sector 93,Gurugram,"114, IMT Road, Government High School, Hayatpur, Sector 93, Gurugram - 122505, Dist.Gurgaon, Haryana",7942836824,
"JNSM SPARK muticolor Soft Adjustable Bath Cap for Toddler/Baby/Kids, 1-2 Years",https://www.indiamart.com/proddetail/soft-adjustable-bath-cap-for-toddler-baby-kids-2853672174597.html?pos=4&kwd=baby brush and swab&tags=BA||||8230.883|Price|product|||MDC|rsf:gd-|-stype:attr=1|qr_nm:gd|res:RC3|com-cf:nl|ptrs:na|ktp:N0|mc:189958|mtp:S|qry_typ:P|lang:en|wc:4|flavl:0|cs:9668|v=4,Jnsm Spark,https://www.indiamart.com/jnsm-spark/?pos=4&kwd=baby brush and swab&tags=BA||||8230.883|Price|product|||MDC|rsf:gd-|-stype:attr=1|qr_nm:gd|res:RC3|com-cf:nl|ptrs:na|ktp:N0|mc:189958|mtp:S|qry_typ:P|lang:en|wc:4|flavl:0|cs:9668|v=4,False,Dabholi,Surat,"3rd Floor Flat-302, Shukan Valley BLDG-F, OPP Hari Darshan, Dabholi Road, Dabholi, Surat - 395004, Dist.Surat, Gujarat",8045166587,
"MAJESTIQUE Multicolor CMB545 BABY GROOMING KIT WITH SOFT TOWEL, Packaging Type: POUCH, 3-12 Months",https://www.indiamart.com/proddetail/cmb545-baby-grooming-kit-with-soft-towel-2853131877855.html?pos=5&kwd=baby brush and swab&tags=CC||||8752.144|Price|product|||TS|rsf:gd-|-stype:attr=1|qr_nm:gd|res:RC3|com-cf:nl|ptrs:na|ktp:N0|mc:189958|mtp:S|qry_typ:P|lang:en|wc:4|flavl:0|cs:9668|v=4,Briota Brands Private Limited,https://www.indiamart.com/briota-brands/?pos=5&kwd=baby brush and swab&tags=CC||||8752.144|Price|product|||TS|rsf:gd-|-stype:attr=1|qr_nm:gd|res:RC3|com-cf:nl|ptrs:na|ktp:N0|mc:189958|mtp:S|qry_typ:P|lang:en|wc:4|flavl:0|cs:9668|v=4,False,Pitampura,New Delhi,"50, 1st Floor, Sharda Niketan Pitampura, Pitampura, New Delhi - 110034, Dist.Delhi, Delhi",8043843967,
Baby Plastic Grooming Toy Set,https://www.indiamart.com/proddetail/baby-plastic-grooming-toy-set-25736131391.html?pos=6&kwd=baby brush and swab&tags=CC||||8752.144|Price|product|||MDC|rsf:gd-|-stype:attr=1|qr_nm:gd|res:RC3|com-cf:nl|ptrs:na|ktp:N0|mc:189958|mtp:S|qry_typ:P|lang:en|wc:4|flavl:0|cs:9668|v=4,Little Kingdom Baby Product,https://www.indiamart.com/little-kingdombaby-product/?pos=6&kwd=baby brush and swab&tags=CC||||8752.144|Price|product|||MDC|rsf:gd-|-stype:attr=1|qr_nm:gd|res:RC3|com-cf:nl|ptrs:na|ktp:N0|mc:189958|mtp:S|qry_typ:P|lang:en|wc:4|flavl:0|cs:9668|v=4,False,Bawana,New Delhi,"Plot No. 16, PKT-G, Sector-3, DSIIDC, Bawana, North West Delhi, Bawana, New Delhi - 110039, Dist.Delhi, Delhi",8047648589,
"Paper stick 100 cotton swabs flat box for hygiene packet, For Home, Non-Sterile",https://www.indiamart.com/proddetail/paper-stick-100-cotton-swabs-flat-box-for-hygiene-packet-2853477133088.html?pos=7&kwd=baby brush and swab&tags=||||8230.883|Price|product|||TS|rsf:gd-|-stype:attr=1|qr_nm:gd|res:RC3|com-cf:nl|ptrs:na|ktp:N0|mc:189958|mtp:S|qry_typ:P|lang:en|wc:4|flavl:0|cs:9668|v=4,Tulsi Hygiene Care,https://www.indiamart.com/tulsihygiene-care/?pos=7&kwd=baby brush and swab&tags=||||8230.883|Price|product|||TS|rsf:gd-|-stype:attr=1|qr_nm:gd|res:RC3|com-cf:nl|ptrs:na|ktp:N0|mc:189958|mtp:S|qry_typ:P|lang:en|wc:4|flavl:0|cs:9668|v=4,False,Mota Varachha,Surat,"Ground Floor, Plot No-31, Sarjan Bungalows, Mota Varachha, Mota Varachha, Surat - 394101, Dist.Surat, Gujarat",7949089997,
Baby Cotton Buds,https://www.indiamart.com/proddetail/baby-cotton-buds-25130146733.html?pos=8&kwd=baby brush and swab&tags=||||8237.554|Price|product|||TS|rsf:gd-|-stype:attr=1|qr_nm:gd|res:RC3|com-cf:nl|ptrs:na|ktp:N0|mc:189958|mtp:S|qry_typ:P|lang:en|wc:4|flavl:0|cs:9668|v=4,Flosee Enterprise,https://www.floseeenterprise.co.in/?pos=8&kwd=baby brush and swab&tags=||||8237.554|Price|product|||TS|rsf:gd-|-stype:attr=1|qr_nm:gd|res:RC3|com-cf:nl|ptrs:na|ktp:N0|mc:189958|mtp:S|qry_typ:P|lang:en|wc:4|flavl:0|cs:9668|v=4,False,Sector 27,Gandhinagar,"Plot No E/159, GIDC Electronic Estate, Sector 26, Ghandhinagar, Sector 27, Gandhinagar - 382027, Gujarat",8048980880,
Silicone Baby Toothbrush,https://www.indiamart.com/proddetail/silicone-baby-toothbrush-2854238911348.html?pos=9&kwd=baby brush and swab&tags=||||8752.144|Price|product|||TS|rsf:gd-|-stype:attr=1|qr_nm:gd|res:RC3|com-cf:nl|ptrs:na|ktp:N0|mc:189958|mtp:S|qry_typ:P|lang:en|wc:4|flavl:0|cs:9668|v=4,VN Enterprise,https://www.indiamart.com/vn-enterprise-new-delhi/?pos=9&kwd=baby brush and swab&tags=||||8752.144|Price|product|||TS|rsf:gd-|-stype:attr=1|qr_nm:gd|res:RC3|com-cf:nl|ptrs:na|ktp:N0|mc:189958|mtp:S|qry_typ:P|lang:en|wc:4|flavl:0|cs:9668|v=4,False,,New Delhi,"Wz-1013d, Gali No-13, Sadh Nagar, Palam Colony, New Delhi - 110045, Dist.Delhi, Delhi",8045734282,
Baby Cotton Swab,https://www.indiamart.com/proddetail/baby-cotton-swab-2849014134188.html?pos=10&kwd=baby brush and swab&tags=||||8230.883|Price|product|||TS|rsf:gd-|-stype:attr=1|qr_nm:gd|res:RC3|com-cf:nl|ptrs:na|ktp:N0|mc:189958|mtp:S|qry_typ:P|lang:en|wc:4|flavl:0|cs:9668|v=4,Dev Enterprise,https://www.magicindustries.co.in/?pos=10&kwd=baby brush and swab&tags=||||8230.883|Price|product|||TS|rsf:gd-|-stype:attr=1|qr_nm:gd|res:RC3|com-cf:nl|ptrs:na|ktp:N0|mc:189958|mtp:S|qry_typ:P|lang:en|wc:4|flavl:0|cs:9668|v=4,False,Pipodara,Surat,"Block No 293/a Building No-c, Ground Floor, Bajrang Aasteed, Kanyasi Road, Pipodara, Pipodara, Surat - 394110, Dist.Surat, Gujarat",8048958269,
Bamboo Buds Round Box,https://www.indiamart.com/proddetail/bamboo-buds-round-box-2854309437888.html?pos=11&kwd=baby brush and swab&tags=||||8752.144|Price|product|||TS|rsf:gd-|-stype:attr=1|qr_nm:gd|res:RC3|com-cf:nl|ptrs:na|ktp:N0|mc:189958|mtp:S|qry_typ:P|lang:en|wc:4|flavl:0|cs:9668|v=4,Greeniecan India,https://www.greeniecan.co.in/?pos=11&kwd=baby brush and swab&tags=||||8752.144|Price|product|||TS|rsf:gd-|-stype:attr=1|qr_nm:gd|res:RC3|com-cf:nl|ptrs:na|ktp:N0|mc:189958|mtp:S|qry_typ:P|lang:en|wc:4|flavl:0|cs:9668|v=4,True,,New Delhi,"Ground Floor, House No- B-7/182, Phase Iv, Aaya Nagar, New Delhi - 110047, Dist.Delhi, Delhi",8048265707,
Baby Care Kit,https://www.indiamart.com/proddetail/baby-care-kit-2854226129812.html?pos=12&kwd=baby brush and swab&tags=||||8230.883|Price|product|||TS|rsf:gd-|-stype:attr=1|qr_nm:gd|res:RC3|com-cf:nl|ptrs:na|ktp:N0|mc:189958|mtp:S|qry_typ:P|lang:en|wc:4|flavl:0|cs:9668|v=4,BABYHOLIC,https://www.babyholic.in/?pos=12&kwd=baby brush and swab&tags=||||8230.883|Price|product|||TS|rsf:gd-|-stype:attr=1|qr_nm:gd|res:RC3|com-cf:nl|ptrs:na|ktp:N0|mc:189958|mtp:S|qry_typ:P|lang:en|wc:4|flavl:0|cs:9668|v=4,False,,Surat,"Ground Floor, Plot No. F/56/, And F/57, Laxmi Narayan Industrial Estate, Udhana, Kailash Fashion, Surat - 394210, Dist.Surat, Gujarat",8045732096,
"IMPORTED Orange Baby Finger Toothbrush, Packaging Type: Box, 1-2 Years",https://www.indiamart.com/proddetail/baby-finger-toothbrush-2852519064497.html?pos=13&kwd=baby brush and swab&tags=||||8211.142|Price|product|||TS|rsf:gd-|-stype:attr=1|qr_nm:gd|res:RC3|com-cf:nl|ptrs:na|ktp:N0|mc:189958|mtp:S|qry_typ:P|lang:en|wc:4|flavl:0|cs:9668|v=4,P For Panda Baby Products Private Limited,https://www.p4pandababyproducts.com/?pos=13&kwd=baby brush and swab&tags=||||8211.142|Price|product|||TS|rsf:gd-|-stype:attr=1|qr_nm:gd|res:RC3|com-cf:nl|ptrs:na|ktp:N0|mc:189958|mtp:S|qry_typ:P|lang:en|wc:4|flavl:0|cs:9668|v=4,False,Goregaon West,Mumbai,"904 A Wing,9 Th Floor,Triple S Heights,Jakeria Road, Goregaon West, Mumbai - 400064, Dist.Mumbai, Maharashtra",7942710871,
"LuvLap Stylish Infant Hair Brush and Comb Kit, Suitable from Birth 0+month baby (White) 18607",https://www.indiamart.com/proddetail/luvlap-stylish-infant-hair-brush-and-comb-kit-suitable-from-birth-0-month-baby-white-18607-2853231074673.html?pos=14&kwd=baby brush and swab&tags=||||8614.241|Price|product|||MDC|rsf:gd-|-stype:attr=1|qr_nm:gd|res:RC3|com-cf:nl|ptrs:na|ktp:N0|mc:189958|mtp:S|qry_typ:P|lang:en|wc:4|flavl:0|cs:9668|v=4,M.M. Toy World,https://www.indiamart.com/mmtoyworld/?pos=14&kwd=baby brush and swab&tags=||||8614.241|Price|product|||MDC|rsf:gd-|-stype:attr=1|qr_nm:gd|res:RC3|com-cf:nl|ptrs:na|ktp:N0|mc:189958|mtp:S|qry_typ:P|lang:en|wc:4|flavl:0|cs:9668|v=4,False,Achli Gate,Batala,"M.M. Toys World, Bedian Gali, Khujari Gate, Gurdaspur, Achli Gate, Batala - 143505, Dist.Gurdaspur, Punjab",,
Chicco Tooth brush,https://www.indiamart.com/proddetail/chicco-tooth-brush-2851027746433.html?pos=15&kwd=baby brush and swab&tags=||||8740.707|Price|product|||TS|rsf:gd-|-stype:attr=1|qr_nm:gd|res:RC3|com-cf:nl|ptrs:na|ktp:N0|mc:189958|mtp:S|qry_typ:P|lang:en|wc:4|cs:8905|v=4,Arihant Solutions,https://www.indiamart.com/arihantsolutions/?pos=15&kwd=baby brush and swab&tags=||||8740.707|Price|product|||TS|rsf:gd-|-stype:attr=1|qr_nm:gd|res:RC3|com-cf:nl|ptrs:na|ktp:N0|mc:189958|mtp:S|qry_typ:P|lang:en|wc:4|cs:8905|v=4,False,JLPL Industrial Area,Sas Nagar,"First Floor Plot No. 1250 JLPL, Sector 82, JLPL Industrial Area, Sas Nagar - 160055, Dist.Mohali, Punjab",8047645834,
Baby Hair Brush Comb,https://www.indiamart.com/proddetail/baby-hair-brush-comb-2853943500530.html?pos=16&kwd=baby brush and swab&tags=||||8752.144|Price|product|||TS|rsf:gd-|-stype:attr=1|qr_nm:gd|res:RC3|com-cf:nl|ptrs:na|ktp:N0|mc:189958|mtp:S|qry_typ:P|lang:en|wc:4|cs:8905|v=4,The Creators,https://www.indiamart.com/thecreators-newdelhi/?pos=16&kwd=baby brush and swab&tags=||||8752.144|Price|product|||TS|rsf:gd-|-stype:attr=1|qr_nm:gd|res:RC3|com-cf:nl|ptrs:na|ktp:N0|mc:189958|mtp:S|qry_typ:P|lang:en|wc:4|cs:8905|v=4,False,Sultanpuri,New Delhi,"275-76, Block P-3, Sultanpuri North West Delhi, Sultanpuri, New Delhi - 110086, Dist.Delhi, Delhi",8047549858,
"Women Hair Bits ( small baby), For Personal, 3-12 Months",https://www.indiamart.com/proddetail/hair-bits-small-baby-2854500101730.html?pos=17&kwd=baby brush and swab&tags=||||8211.142||product|||TS|rsf:gd-|-stype:attr=1|qr_nm:gd|res:RC3|com-cf:nl|ptrs:na|ktp:N0|mc:189958|mtp:S|qry_typ:P|lang:en|wc:4|cs:8905|v=4,Perfect Immitation Jewellery,https://www.perfecthairaccessories.com/?pos=17&kwd=baby brush and swab&tags=||||8211.142||product|||TS|rsf:gd-|-stype:attr=1|qr_nm:gd|res:RC3|com-cf:nl|ptrs:na|ktp:N0|mc:189958|mtp:S|qry_typ:P|lang:en|wc:4|cs:8905|v=4,False,S. C. Court,Mumbai,"SHOP NO.10, 3RD FLOOR, 12/14, SASOOR BUILDING,, S. C. Court, Mumbai - 400002, Dist.Mumbai, Maharashtra",8048950643,
"China Multicolor Silicone Baby Toothbrush, Packaging Type: Box, 3-12 Months baby mouth brush",https://www.indiamart.com/proddetail/china-multicolor-silicone-baby-toothbrush-packaging-type-box-3-12-months-baby-mouth-brush-25962111973.html?pos=18&kwd=baby brush and swab&tags=||||8752.144|Price|product|||TS|rsf:gd-|-stype:attr=1|qr_nm:gd|res:RC3|com-cf:nl|ptrs:na|ktp:N0|mc:189958|mtp:S|qry_typ:P|lang:en|wc:4|cs:8905|v=4,Shiv Darshan Sansthan,https://www.shivdarshansansthan.com/?pos=18&kwd=baby brush and swab&tags=||||8752.144|Price|product|||TS|rsf:gd-|-stype:attr=1|qr_nm:gd|res:RC3|com-cf:nl|ptrs:na|ktp:N0|mc:189958|mtp:S|qry_typ:P|lang:en|wc:4|cs:8905|v=4,False,Pandav Nagar,New Delhi,"Bunglow, Plot No. 10, Pandav Nagar, New Delhi - 110092, Dist.Delhi, Delhi",8048984990,
Plastic Baby Hair Brush,https://www.indiamart.com/proddetail/plastic-baby-hair-brush-2851921816988.html?pos=19&kwd=baby brush and swab&tags=||||8211.142|Price|product|||TS|rsf:gd-|-stype:attr=1|qr_nm:gd|res:RC3|com-cf:nl|ptrs:na|ktp:N0|mc:189958|mtp:S|qry_typ:P|lang:en|wc:4|cs:8905|v=4,Vijay Brush Co.,https://www.vijaybrush.com/?pos=19&kwd=baby brush and swab&tags=||||8211.142|Price|product|||TS|rsf:gd-|-stype:attr=1|qr_nm:gd|res:RC3|com-cf:nl|ptrs:na|ktp:N0|mc:189958|mtp:S|qry_typ:P|lang:en|wc:4|cs:8905|v=4,False,Sharma Estate,Mumbai,"23/A/606, Sneh Co-Op Hsg Sty Ltd, Bimbisar Nagar, Goregaon, Mumbai Suburban, Sharma Estate, Mumbai - 400063, Dist.Mumbai, Maharashtra",7942871572,
"Baby Wooden Hair Brush, More than 12 months",https://www.indiamart.com/proddetail/baby-wooden-hair-brush-2854575390330.html?pos=20&kwd=baby brush and swab&tags=||||8752.144|Price|product|||TS|rsf:gd-|-stype:attr=1|qr_nm:gd|res:RC3|com-cf:nl|ptrs:na|ktp:N0|mc:189958|mtp:S|qry_typ:P|lang:en|wc:4|cs:8905|v=4,IM Corporation,https://www.imcorporation.in/?pos=20&kwd=baby brush and swab&tags=||||8752.144|Price|product|||TS|rsf:gd-|-stype:attr=1|qr_nm:gd|res:RC3|com-cf:nl|ptrs:na|ktp:N0|mc:189958|mtp:S|qry_typ:P|lang:en|wc:4|cs:8905|v=4,False,Okhla Industrial Estate,New Delhi,"DDA Shed Okhla Industrial Area Phase-1 Delhi C-77 Delhi South Delhi Ground Floor, Okhla Industrial Estate, New Delhi - 110020, Dist.Delhi, Delhi",8048263469,
Detangling Kids Gentle Tangle Wet Dry Bristles Handle Massage Detangling Comb Hair Brush,https://www.indiamart.com/proddetail/detangling-kids-gentle-tangle-wet-dry-bristles-handle-massage-detangling-comb-hair-brush-25945966612.html?pos=21&kwd=baby brush and swab&tags=||||8355.778|Price|product|||TS|rsf:gd-|-stype:attr=1|qr_nm:gd|res:RC3|com-cf:nl|ptrs:na|ktp:N0|mc:189958|mtp:S|qry_typ:P|lang:en|wc:4|cs:8905|v=4,Rightbrain Creations Private Limited,https://www.rbcpvtltd.com/?pos=21&kwd=baby brush and swab&tags=||||8355.778|Price|product|||TS|rsf:gd-|-stype:attr=1|qr_nm:gd|res:RC3|com-cf:nl|ptrs:na|ktp:N0|mc:189958|mtp:S|qry_typ:P|lang:en|wc:4|cs:8905|v=4,False,Rishabhdev,Rishabhdeo,"Ground Floor, 01, Laxmi Devi W/o Bihari Lal Jain, Pagaliyaji Road, Rishabhdev, Rishabhdeo - 313802, Dist.Udaipur, Rajasthan",8046062538,
Pink Cotton Baby Hooded Towels,https://www.indiamart.com/proddetail/cotton-baby-hooded-towels-24733791388.html?pos=22&kwd=baby brush and swab&tags=||||8752.144|Price|product|||TS|rsf:gd-|-stype:attr=1|qr_nm:gd|res:RC3|com-cf:nl|ptrs:na|ktp:N0|mc:189958|mtp:S|qry_typ:P|lang:en|wc:4|cs:8905|v=4,Swastik Enterprises,https://www.indiamart.com/swastikentpndelhi/?pos=22&kwd=baby brush and swab&tags=||||8752.144|Price|product|||TS|rsf:gd-|-stype:attr=1|qr_nm:gd|res:RC3|com-cf:nl|ptrs:na|ktp:N0|mc:189958|mtp:S|qry_typ:P|lang:en|wc:4|cs:8905|v=4,False,Shastri Nagar,New Delhi,"M 29, Shastri Nagar, Street No. 1, Shastri Nagar, New Delhi - 110052, Dist.Delhi, Delhi",8048607766,
"Soft White Littloo Baby Finger Tooth Brush, Packaging Type: Box",https://www.indiamart.com/proddetail/littloo-baby-finger-tooth-brush-21930505797.html?pos=23&kwd=baby brush and swab&tags=||||8752.144|Price|product|||TS|rsf:gd-|-stype:attr=1|qr_nm:gd|res:RC3|com-cf:nl|ptrs:na|ktp:N0|mc:189958|mtp:S|qry_typ:P|lang:en|wc:4|cs:8905|v=4,Salvia Cosmeceuticals Private Limited,https://www.salviacosmeceuticals.in/?pos=23&kwd=baby brush and swab&tags=||||8752.144|Price|product|||TS|rsf:gd-|-stype:attr=1|qr_nm:gd|res:RC3|com-cf:nl|ptrs:na|ktp:N0|mc:189958|mtp:S|qry_typ:P|lang:en|wc:4|cs:8905|v=4,False,Ashok Vihar,New Delhi,"301-A, Prop. No.48, Second Floor, Rama Road, Najafgarh Road Industrial Area, Kirti Nagar, New Delhi,, Ashok Vihar, New Delhi - 110052, Dist.Delhi, Delhi",7942559667,
Hair Curler Brush & Comb,https://www.indiamart.com/proddetail/hair-curler-brush-comb-2854982041955.html?pos=24&kwd=baby brush and swab&tags=||||8211.142|Price|product|||TS|rsf:gd-|-stype:attr=1|qr_nm:gd|res:RC3|com-cf:nl|ptrs:na|ktp:N0|mc:189958|mtp:S|qry_typ:P|lang:en|wc:4|cs:8905|v=4,RAF India,https://www.rafindia.co.in/?pos=24&kwd=baby brush and swab&tags=||||8211.142|Price|product|||TS|rsf:gd-|-stype:attr=1|qr_nm:gd|res:RC3|com-cf:nl|ptrs:na|ktp:N0|mc:189958|mtp:S|qry_typ:P|lang:en|wc:4|cs:8905|v=4,False,Pydhonie,Mumbai,"425, Ibrahim Rehmatulla Road, Pydhonie, Mumbai - 400003, Dist.Mumbai, Maharashtra",8047635175,
"Remonde Plastic Flat Hair Brush, For Home",https://www.indiamart.com/proddetail/flat-hair-brush-3741662948.html?pos=25&kwd=baby brush and swab&tags=||||8211.142|Price|product|||TS|rsf:gd-|-stype:attr=1|qr_nm:gd|res:RC3|com-cf:nl|ptrs:na|ktp:N0|mc:189958|mtp:S|qry_typ:P|lang:en|wc:4|cs:8905|v=4,Remonde Plasmetiks,https://www.remondeplasmetiks.com/?pos=25&kwd=baby brush and swab&tags=||||8211.142|Price|product|||TS|rsf:gd-|-stype:attr=1|qr_nm:gd|res:RC3|com-cf:nl|ptrs:na|ktp:N0|mc:189958|mtp:S|qry_typ:P|lang:en|wc:4|cs:8905|v=4,False,Goregaon East,Mumbai,"50/51, Jagat Satguru Industrial Estate, 1st Floor, Vishweshwar Road Off Aarey Road, Goregaon East, Mumbai - 400063, Dist.Mumbai, Maharashtra",8046041673,
"Deodap Multicolor Cartoon Design Kids Hair Brush 6471, Packaging Type: Polybag, 5-7 Years",https://www.indiamart.com/proddetail/cartoon-design-kids-hair-brush-6471-2853389448091.html?pos=26&kwd=baby brush and swab&tags=||||8038.093|Price|product|||TS|rsf:gd-|-stype:attr=1|qr_nm:gd|res:RC3|com-cf:nl|ptrs:na|ktp:N0|mc:189958|mtp:S|qry_typ:P|lang:en|wc:4|cs:8905|v=4,Deodap,https://www.indiamart.com/deodap/?pos=26&kwd=baby brush and swab&tags=||||8038.093|Price|product|||TS|rsf:gd-|-stype:attr=1|qr_nm:gd|res:RC3|com-cf:nl|ptrs:na|ktp:N0|mc:189958|mtp:S|qry_typ:P|lang:en|wc:4|cs:8905|v=4,False,Rajkot,Rajkot,"plot No. 9 Behind Patanjali Werhouse, Ruda Transport, Saat Hanuman Ahemdabad Road, Rajkot, Rajkot - 360005, Dist.Rajkot, Gujarat",8048972316,
"Toothbrush - Soft Bristle Toothbrush - 3-sided Training Toothbrush With Silicone Head, Inverted Cleaning Toothbrush For Aged 2-12, Children's Cleaning (1 Pc)",https://www.indiamart.com/proddetail/toothbrush-soft-bristle-toothbrush-3-sided-training-toothbrush-with-silicone-head-inverted-cleaning-toothbrush-for-aged-2-12-children-s-cleaning-1-pc-2855039319612.html?pos=27&kwd=baby brush and swab&tags=||||8692.544|Price|product|||MDC|rsf:gd-|-stype:attr=1|qr_nm:gd|res:RC3|com-cf:nl|ptrs:na|ktp:N0|mc:189958|mtp:S|qry_typ:P|lang:en|wc:4|cs:8905|v=4,Demrot Bangles And Manufacture,https://www.indiamart.com/demrotbanglesmanufacture/?pos=27&kwd=baby brush and swab&tags=||||8692.544|Price|product|||MDC|rsf:gd-|-stype:attr=1|qr_nm:gd|res:RC3|com-cf:nl|ptrs:na|ktp:N0|mc:189958|mtp:S|qry_typ:P|lang:en|wc:4|cs:8905|v=4,False,Kishangarh Bas,Alwar,"Vashishtha Market, Kishangarh Bass, Kishangarh Bas, Alwar - 301405, Dist.Alwar, Rajasthan",,
Kids Hair Brush,https://www.indiamart.com/proddetail/kids-hair-brush-2853733779197.html?pos=28&kwd=baby brush and swab&tags=||||8663.873|Price|product|||MDC|rsf:gd-|-stype:attr=1|qr_nm:gd|res:RC3|com-cf:nl|ptrs:na|ktp:N0|mc:189958|mtp:S|qry_typ:P|lang:en|wc:4|cs:8905|v=4,Maya Marketing,https://www.indiamart.com/mayamarketingbengaluru/?pos=28&kwd=baby brush and swab&tags=||||8663.873|Price|product|||MDC|rsf:gd-|-stype:attr=1|qr_nm:gd|res:RC3|com-cf:nl|ptrs:na|ktp:N0|mc:189958|mtp:S|qry_typ:P|lang:en|wc:4|cs:8905|v=4,False,Sampangi Rama Nagar,Bengaluru,"6/1,7 th Cross,SR Nagar, Sri BT Muniyappa Road, Bengaluru Urban, Sampangi Rama Nagar, Bengaluru - 560027, Dist.Bengaluru, Karnataka",8044011151,
Manual Silicon Tooth Brush for 2-6 Years,https://www.indiamart.com/proddetail/silicon-tooth-brush-for-2-6-years-2852926317530.html?pos=29&kwd=baby brush and swab&tags=||||8230.883|Price|product|||MDC|rsf:gd-|-stype:attr=1|qr_nm:gd|res:RC3|com-cf:nl|ptrs:na|ktp:N0|mc:189958|mtp:S|qry_typ:P|lang:en|wc:4|cs:8905|v=4,Uma Enterprise,https://www.indiamart.com/umaenterprisesurat/?pos=29&kwd=baby brush and swab&tags=||||8230.883|Price|product|||MDC|rsf:gd-|-stype:attr=1|qr_nm:gd|res:RC3|com-cf:nl|ptrs:na|ktp:N0|mc:189958|mtp:S|qry_typ:P|lang:en|wc:4|cs:8905|v=4,False,Majura Gate,Surat,"72, Hari Ichchha Industrial Co Op Society, A K Road, Majura Gate, Surat - 395008, Dist.Surat, Gujarat",7942713138,
Silicone Baby Gum Cleaner,https://www.indiamart.com/proddetail/silicone-baby-gum-cleaner-12782306830.html?pos=30&kwd=baby brush and swab&tags=||||8223.226|Price|product|||MDC|rsf:gd-|-stype:attr=1|qr_nm:gd|res:RC3|com-cf:nl|ptrs:na|ktp:N0|mc:189958|mtp:S|qry_typ:P|lang:en|wc:4|cs:8905|v=4,Wecare Solutions,https://www.indiamart.com/wecare-solutions/?pos=30&kwd=baby brush and swab&tags=||||8223.226|Price|product|||MDC|rsf:gd-|-stype:attr=1|qr_nm:gd|res:RC3|com-cf:nl|ptrs:na|ktp:N0|mc:189958|mtp:S|qry_typ:P|lang:en|wc:4|cs:8905|v=4,False,Valiv,Thane,"Gala No. F-19-20, 1st Floor, Rajprabha Anand Industrial Estate Naikpada, Waliv, Valiv, Thane - 401208, Dist.Thane, Maharashtra",8047631791,
"Pink Kids Hair Brush, 3-12 Months",https://www.indiamart.com/proddetail/kids-hair-brush-2853425851355.html?pos=31&kwd=baby brush and swab&tags=||||9618.383|Price|product|||MDC|rsf:gd-|-stype:attr=1|qr_nm:gd|res:RC3|com-cf:nl|ptrs:na|ktp:N0|mc:189958|mtp:S|qry_typ:P|lang:en|wc:4|cs:8905|v=4,Texco,https://www.indiamart.com/texco/?pos=31&kwd=baby brush and swab&tags=||||9618.383|Price|product|||MDC|rsf:gd-|-stype:attr=1|qr_nm:gd|res:RC3|com-cf:nl|ptrs:na|ktp:N0|mc:189958|mtp:S|qry_typ:P|lang:en|wc:4|cs:8905|v=4,False,Bistupur,Jamshedpur,"Shop No. 2, Main Road, Bistupur, Bistupur, Jamshedpur - 831001, Dist.East Singhbhum, Jharkhand",7949092933,
Blue Plastic Hair Brush,https://www.indiamart.com/proddetail/blue-plastic-hair-brush-26196143688.html?pos=32&kwd=baby brush and swab&tags=||||8211.142|Price|product|||MDC|rsf:gd-|-stype:attr=1|qr_nm:gd|res:RC3|com-cf:nl|ptrs:na|ktp:N0|mc:189958|mtp:S|qry_typ:P|lang:en|wc:4|cs:8905|v=4,Bhojane Brothers,https://www.indiamart.com/bhojanebrothers-mumbai/?pos=32&kwd=baby brush and swab&tags=||||8211.142|Price|product|||MDC|rsf:gd-|-stype:attr=1|qr_nm:gd|res:RC3|com-cf:nl|ptrs:na|ktp:N0|mc:189958|mtp:S|qry_typ:P|lang:en|wc:4|cs:8905|v=4,False,Dadar,Mumbai,"210, 2nd Floor, Shree Hari Bldg, Shankar Palav Marg, Dadar, Dadar, Mumbai - 400014, Dist.Mumbai, Maharashtra",8043863052,
Plastic LEGIT Electric Cordless Bottle Cleaning Brush Set,https://www.indiamart.com/proddetail/legit-electric-cordless-bottle-cleaning-brush-set-2852870937233.html?pos=33&kwd=baby brush and swab&tags=||||8661.854|Price|product|||MDC|rsf:gd-|-stype:attr=1|qr_nm:gd|res:RC3|com-cf:nl|ptrs:na|ktp:N0|mc:189958|mtp:S|qry_typ:P|lang:en|wc:4|cs:8905|v=4,FAIRDEAL AGENCIES PVT. LTD.,https://www.indiamart.com/fairdeal-agencies-ltd/?pos=33&kwd=baby brush and swab&tags=||||8661.854|Price|product|||MDC|rsf:gd-|-stype:attr=1|qr_nm:gd|res:RC3|com-cf:nl|ptrs:na|ktp:N0|mc:189958|mtp:S|qry_typ:P|lang:en|wc:4|cs:8905|v=4,False,Focal Point,Ludhiana,"B-XXX57, Opp. Hero Cycles Ltd, Grand Trunk Rd, Ludhiana, Punjab, Focal Point, Ludhiana - 141010, Dist.Ludhiana, Punjab",8048960987,
Baby Hair Brush Comb,https://www.indiamart.com/proddetail/baby-hair-brush-comb-23215958248.html?pos=34&kwd=baby brush and swab&tags=||||8545.6045|Price|product|||MDC|rsf:gd-|-stype:attr=1|qr_nm:gd|res:RC3|com-cf:nl|ptrs:na|ktp:N0|mc:189958|mtp:S|qry_typ:P|lang:en|wc:4|cs:8905|v=4,Shri Siddhivinayak Traders,https://www.indiamart.com/shrisiddhivinayaktraders-firozpur/?pos=34&kwd=baby brush and swab&tags=||||8545.6045|Price|product|||MDC|rsf:gd-|-stype:attr=1|qr_nm:gd|res:RC3|com-cf:nl|ptrs:na|ktp:N0|mc:189958|mtp:S|qry_typ:P|lang:en|wc:4|cs:8905|v=4,False,Basti Nizamdin,Firozpur,"No.94, Anand Avenue, Backside Marked Office, Malwal Road, Firozpur City, Basti Nizamdin, Firozpur - 152002, Dist.Firozpur, Punjab",8046066644,
Baby Hair Brush,https://www.indiamart.com/proddetail/baby-hair-brush-2849393485548.html?pos=35&kwd=baby brush and swab&tags=||||8860.933|Price|product|||MDC|rsf:gd-|-stype:attr=1|qr_nm:gd|res:RC3|com-cf:nl|ptrs:na|ktp:N0|mc:189958|mtp:S|qry_typ:P|lang:en|wc:4|cs:8905|v=4,Indian Turf,https://www.indiamart.com/indianturf-dehradun/?pos=35&kwd=baby brush and swab&tags=||||8860.933|Price|product|||MDC|rsf:gd-|-stype:attr=1|qr_nm:gd|res:RC3|com-cf:nl|ptrs:na|ktp:N0|mc:189958|mtp:S|qry_typ:P|lang:en|wc:4|cs:8905|v=4,False,Chukkuwala,Dehradun,"56, Neshvilla Road,, Chukkuwala, Dehradun - 248001, Dist.Dehradun, Uttarakhand",8046062814,
"NEW TRENDY BABY HAIR BRUSH TOOL SET, 3-12 Months",https://www.indiamart.com/proddetail/new-trendy-baby-hair-brush-tool-set-2854763984255.html?pos=36&kwd=baby brush and swab&tags=||||8211.142|Price|product|||MDC|rsf:gd-|-stype:attr=1|qr_nm:gd|res:RC3|com-cf:nl|ptrs:na|ktp:N0|mc:189958|mtp:S|qry_typ:P|lang:en|wc:4|cs:8905|v=4,Fatema Collection,https://www.indiamart.com/fatemacollection-mumbai/?pos=36&kwd=baby brush and swab&tags=||||8211.142|Price|product|||MDC|rsf:gd-|-stype:attr=1|qr_nm:gd|res:RC3|com-cf:nl|ptrs:na|ktp:N0|mc:189958|mtp:S|qry_typ:P|lang:en|wc:4|cs:8905|v=4,False,Mazgaon,Mumbai,"2nd Floor, Room No.202, Audumber Building, Seth Motishah Cross Lane, Byculla East, Mazgaon, Mumbai - 400027, Dist.Mumbai, Maharashtra",7948549397,
"White Silicone Baby Toothbrush, 3-12 Months",https://www.indiamart.com/proddetail/silicone-baby-toothbrush-2852724173633.html?pos=37&kwd=baby brush and swab&tags=||||8752.144|Price|product|||MDC|rsf:gd-|-stype:attr=1|qr_nm:gd|res:RC3|com-cf:nl|ptrs:na|ktp:N0|mc:189958|mtp:S|qry_typ:P|lang:en|wc:4|cs:8905|v=4,Soni India Traders,https://www.indiamart.com/soniindiatraders/?pos=37&kwd=baby brush and swab&tags=||||8752.144|Price|product|||MDC|rsf:gd-|-stype:attr=1|qr_nm:gd|res:RC3|com-cf:nl|ptrs:na|ktp:N0|mc:189958|mtp:S|qry_typ:P|lang:en|wc:4|cs:8905|v=4,False,Khureji Khas,New Delhi,"First Floor A-4 Street No.3 New Brij Puri Khureji Khas, Khureji Khas, New Delhi - 110051, Dist.Delhi, Delhi",7942720625,
Brown (Base) Baby Printed Hooded Towel,https://www.indiamart.com/proddetail/baby-printed-hooded-towel-2850650074433.html?pos=38&kwd=baby brush and swab&tags=||||8752.144|Price|product|||MDC|rsf:gd-|-stype:attr=1|qr_nm:gd|res:RC3|com-cf:nl|ptrs:na|ktp:N0|mc:189958|mtp:S|qry_typ:P|lang:en|wc:4|cs:8905|v=4,L T Textiles,https://www.indiamart.com/lttextiles/?pos=38&kwd=baby brush and swab&tags=||||8752.144|Price|product|||MDC|rsf:gd-|-stype:attr=1|qr_nm:gd|res:RC3|com-cf:nl|ptrs:na|ktp:N0|mc:189958|mtp:S|qry_typ:P|lang:en|wc:4|cs:8905|v=4,False,Pahari Dhiraj,New Delhi,"5189-90 Main Road, Sadar Bazar, Pahari Dhiraj, New Delhi - 110006, Dist.Delhi, Delhi",7942958455,
Baby Grooming Kit,,Rajdhani Florist & Decorator,https://www.indiamart.com/rajdhaniflorist-decorator/?pos=39&kwd=baby brush and swab&tags=CC||||8752.144||product|||NA|rsf:gd-|-stype:attr=1|qr_nm:gd|res:RC3|com-cf:nl|ptrs:na|ktp:N0|mc:189958|mtp:S|qry_typ:P|lang:en|wc:4|cs:8905|v=4,False,,Delhi,"H-13, Main Market, Laxmi Nagar, Delhi - 110092, Dist.Delhi, Delhi",8047309003,3117
Baby Grooming Kit,https://www.indiamart.com/proddetail/baby-grooming-kit-13946896348.html?pos=40&kwd=baby brush and swab&tags=CC||||8746.929||product|||NA|rsf:gd-|-stype:attr=1|qr_nm:gd|res:RC3|com-cf:nl|ptrs:na|ktp:N0|mc:189958|mtp:S|qry_typ:P|lang:en|wc:4|cs:8905|v=4,Mother Sparsh Baby Care Pvt. Ltd.,https://www.indiamart.com/mother-sparsh-babycare/?pos=40&kwd=baby brush and swab&tags=CC||||8746.929||product|||NA|rsf:gd-|-stype:attr=1|qr_nm:gd|res:RC3|com-cf:nl|ptrs:na|ktp:N0|mc:189958|mtp:S|qry_typ:P|lang:en|wc:4|cs:8905|v=4,False,Ambala City,Chandigarh,"H.no 886, Sector-7 Haryana, Ambala City, Chandigarh - 134003, Chandigarh",7942638622,
"Blue / Pink Baby Grooming Kit With Scissor, Packaging Type: Box, 1-2 Years",https://www.indiamart.com/proddetail/baby-grooming-kit-with-scissor-2852136017697.html?pos=41&kwd=baby brush and swab&tags=CC||||8752.144|Price|product|||NA|rsf:gd-|-stype:attr=1|qr_nm:gd|res:RC3|com-cf:nl|ptrs:na|ktp:N0|mc:189958|mtp:S|qry_typ:P|lang:en|wc:4|cs:8905|v=4,Tiana Enterprises,https://www.indiamart.com/company/76311576/?pos=41&kwd=baby brush and swab&tags=CC||||8752.144|Price|product|||NA|rsf:gd-|-stype:attr=1|qr_nm:gd|res:RC3|com-cf:nl|ptrs:na|ktp:N0|mc:189958|mtp:S|qry_typ:P|lang:en|wc:4|cs:8905|v=4,False,,New Delhi,"Kishan Ganj 482 Malka Ganj Nai Basti Delhi North, New Delhi - 110007, Dist.Delhi, Delhi",8069264838,774
Pink Baby Electric Nail Trimmer And Cutter Clippers Set,https://www.indiamart.com/proddetail/baby-electric-nail-trimmer-and-cutter-clippers-set-2849826141833.html?pos=42&kwd=baby brush and swab&tags=CC||||8230.883|Price|product|||NA|rsf:gd-|-stype:attr=1|qr_nm:gd|res:RC3|com-cf:nl|ptrs:na|ktp:N0|mc:189958|mtp:S|qry_typ:P|lang:en|wc:4|cs:8905|v=4,All In One Fashion,https://www.indiamart.com/all-in-one-shop-surat/?pos=42&kwd=baby brush and swab&tags=CC||||8230.883|Price|product|||NA|rsf:gd-|-stype:attr=1|qr_nm:gd|res:RC3|com-cf:nl|ptrs:na|ktp:N0|mc:189958|mtp:S|qry_typ:P|lang:en|wc:4|cs:8905|v=4,False,,Surat,"50,FF, VRUNDAVAN SOCIETY, MOTA VARACHHA,SURAT Raju Chowk, Parvat Patiya,395010,Surat, Surat - 394101, Dist.Surat, Gujarat",8047795168,
Male Baby Grooming Kit,https://www.indiamart.com/proddetail/baby-grooming-kit-21236210955.html?pos=43&kwd=baby brush and swab&tags=CC||||8047.7524|Price|product|||NA|rsf:gd-|-stype:attr=1|qr_nm:gd|res:RC3|com-cf:nl|ptrs:na|ktp:N0|mc:189958|mtp:S|qry_typ:P|lang:en|wc:4|cs:8905|v=4,Club India,https://www.indiamart.com/club-india/?pos=43&kwd=baby brush and swab&tags=CC||||8047.7524|Price|product|||NA|rsf:gd-|-stype:attr=1|qr_nm:gd|res:RC3|com-cf:nl|ptrs:na|ktp:N0|mc:189958|mtp:S|qry_typ:P|lang:en|wc:4|cs:8905|v=4,False,,Morbi,"Street No. 4, 153, Alif, Avenue Park, Ravapar Road, Morbi - 363641, Dist.Rajkot, Gujarat",8047666187,
Baby Grooming Kit,https://www.indiamart.com/proddetail/baby-grooming-kit-13895862312.html?pos=44&kwd=baby brush and swab&tags=CC||||9839.57||product|||NA|rsf:gd-|-stype:attr=1|qr_nm:gd|res:RC3|com-cf:nl|ptrs:na|ktp:N0|mc:189958|mtp:S|qry_typ:P|lang:en|wc:4|cs:8905|v=4,Spencers Hyper,https://www.indiamart.com/spencers-hyper/?pos=44&kwd=baby brush and swab&tags=CC||||9839.57||product|||NA|rsf:gd-|-stype:attr=1|qr_nm:gd|res:RC3|com-cf:nl|ptrs:na|ktp:N0|mc:189958|mtp:S|qry_typ:P|lang:en|wc:4|cs:8905|v=4,False,South City Jadavpur,Kolkata,"Jadavpur, South City, Prince Anwar Shah Road, Opp. Jadavpur Police Thana, South City Jadavpur, Kolkata - 700068, Dist.Kolkata, West Bengal",8045849891,869
Baby Grooming Products,,Seemans Electrics,https://www.indiamart.com/seemans-electrics/?pos=45&kwd=baby brush and swab&tags=CC||||7964.59||product|||NA|rsf:gd-|-stype:attr=1|qr_nm:gd|res:RC3|com-cf:nl|ptrs:na|ktp:N0|mc:189958|mtp:S|qry_typ:P|lang:en|wc:4|cs:8905|v=4,False,Kutch,Kutch,",102,BANKERS COLONY,SULAY APPARTMENT,BHUJ,,Kachchh,Gujarat,370001, Kutch, Kutch - 370001, Dist.Kachchh, Gujarat",8048247127,4996
Baby hair brush,,Aggarwal Glass House,https://www.indiamart.com/aggarwalglasshouse/?pos=46&kwd=baby brush and swab&tags=||||8752.144|Price|product|||MDC|rsf:gd-|-stype:attr=1|qr_nm:gd|res:RC3|com-cf:nl|ptrs:na|ktp:N0|mc:189958|mtp:S|qry_typ:P|lang:en|wc:4|cs:8905|v=4,False,Chandni Chowk,New Delhi,"5460/2 1st Floor, Ahmed Ki Sarai , Gandhi Market, Sadar Bazar, Chandni Chowk, New Delhi - 110006, Dist.Delhi, Delhi",8043857289,
Himalaya Baby Grooming Kit,,Sharma Enterprises,https://www.indiamart.com/sharma-enterprises-bhusawal/?pos=47&kwd=baby brush and swab&tags=CC||||8536.012||product|||NA|rsf:gd-|-stype:attr=1|qr_nm:gd|res:RC3|com-cf:nl|ptrs:na|ktp:N0|mc:189958|mtp:S|qry_typ:P|lang:en|wc:4|cs:8905|v=4,False,Bhajiya Galli,Bhusawal,"Saraf Bazar, Bhajiya Galli, Bhajiya Galli, Bhusawal - 425201, Dist.Jalgaon, Maharashtra",8048371537,646
Himalaya Baby Grooming Kit,,Babyoye By Mahindra,https://www.indiamart.com/babyoyeby-mahindra/?pos=48&kwd=baby brush and swab&tags=CC||||9839.57||product|||NA|rsf:gd-|-stype:attr=1|qr_nm:gd|res:RC3|com-cf:nl|ptrs:na|ktp:N0|mc:189958|mtp:S|qry_typ:P|lang:en|wc:4|cs:8905|v=4,False,Salt Lake City,Kolkata,"AD 79, Salt Lake City, Sector 1, Ilnd, No. 3, Gandhi Murti, Salt Lake City, Kolkata - 700064, Dist.Kolkata, West Bengal",8043804150,
Chhote Janab Soft Baby Bib,https://www.indiamart.com/proddetail/soft-baby-bib-19936709030.html?pos=49&kwd=baby brush and swab&tags=||||8752.144|Price|proxy|||TS|rsf:gd-|-stype:attr=1|qr_nm:gd|res:RC3|com-cf:nl|ptrs:na|ktp:N0|mc:189958|mtp:S|qry_typ:P|lang:en|wc:4|cs:8905|v=4,Shree Balaji Infant Wear,https://www.indiamart.com/chhotejanab/?pos=49&kwd=baby brush and swab&tags=||||8752.144|Price|proxy|||TS|rsf:gd-|-stype:attr=1|qr_nm:gd|res:RC3|com-cf:nl|ptrs:na|ktp:N0|mc:189958|mtp:S|qry_typ:P|lang:en|wc:4|cs:8905|v=4,False,Pahari Dhiraj,New Delhi,"1583- 84, Hathi Khana, Aziz Ganj, Bahadur Garh Road, Pahari Dhiraj, New Delhi - 110006, Dist.Delhi, Delhi",8047639754,
"Plastic Pink Baby Bather Support Baby, 1-2 Years",https://www.indiamart.com/proddetail/baby-bather-support-baby-2854699704812.html?pos=50&kwd=baby brush and swab&tags=||||8823.154|Price|proxy|||TS|rsf:gd-|-stype:attr=1|qr_nm:gd|res:RC3|com-cf:nl|ptrs:na|ktp:N0|mc:189958|mtp:S|qry_typ:P|lang:en|wc:4|cs:8905|v=4,Shri Anant International,https://www.indiamart.com/shrianantinternational/?pos=50&kwd=baby brush and swab&tags=||||8823.154|Price|proxy|||TS|rsf:gd-|-stype:attr=1|qr_nm:gd|res:RC3|com-cf:nl|ptrs:na|ktp:N0|mc:189958|mtp:S|qry_typ:P|lang:en|wc:4|cs:8905|v=4,False,DayalBagh,Agra,"No.02,House 2,Alkapuri Phase Ii,Agra, DayalBagh, Agra - 282005, Dist.Agra, Uttar Pradesh",7942721451,
Fairbizps Soft Baby Bibs Washable Waterproof Printed Baby Bibs Apron With Button For Baby Feeding- Multicolor,https://www.indiamart.com/proddetail/fairbizps-soft-baby-bibs-washable-waterproof-printed-baby-bibs-apron-with-button-for-baby-feeding-multicolor-2852003114697.html?pos=51&kwd=baby brush and swab&tags=||||8752.144|Price|proxy|||TS|rsf:gd-|-stype:attr=1|qr_nm:gd|res:RC3|com-cf:nl|ptrs:na|ktp:N0|mc:189958|mtp:S|qry_typ:P|lang:en|wc:4|cs:8905|v=4,Fairbizps,https://www.indiamart.com/fairbizps/?pos=51&kwd=baby brush and swab&tags=||||8752.144|Price|proxy|||TS|rsf:gd-|-stype:attr=1|qr_nm:gd|res:RC3|com-cf:nl|ptrs:na|ktp:N0|mc:189958|mtp:S|qry_typ:P|lang:en|wc:4|cs:8905|v=4,True,Laxmi Nagar,New Delhi,"No. 348/4A, Asha Ram, Street No. 4, Subedar Chowk Mandawali, Laxmi Nagar, New Delhi - 110092, Dist.Delhi, Delhi",,
Green (base) Cotton Baby Apron Bib,https://www.indiamart.com/proddetail/baby-apron-bib-16966373133.html?pos=52&kwd=baby brush and swab&tags=||||8752.144|Price|proxy|||TS|rsf:gd-|-stype:attr=1|qr_nm:gd|res:RC3|com-cf:nl|ptrs:na|ktp:N0|mc:189958|mtp:S|qry_typ:P|lang:en|wc:4|cs:8905|v=4,Anand Garments Pvt Ltd,https://www.indiamart.com/anand-garments-newdelhi/?pos=52&kwd=baby brush and swab&tags=||||8752.144|Price|proxy|||TS|rsf:gd-|-stype:attr=1|qr_nm:gd|res:RC3|com-cf:nl|ptrs:na|ktp:N0|mc:189958|mtp:S|qry_typ:P|lang:en|wc:4|cs:8905|v=4,False,mundka,New Delhi,"Plot No-276, Area Pocket-m Sector-1, Dsiidc Bawana,, mundka, New Delhi - 110039, Dist.Delhi, Delhi",8048262855,
Silicone Baby Bibs,https://www.indiamart.com/proddetail/silicone-baby-bibs-2854013903133.html?pos=53&kwd=baby brush and swab&tags=||||8038.093|Price|proxy|||MDC|rsf:gd-|-stype:attr=1|qr_nm:gd|res:RC3|com-cf:nl|ptrs:na|ktp:N0|mc:189958|mtp:S|qry_typ:P|lang:en|wc:4|cs:8905|v=4,Glister Corporation,https://www.indiamart.com/glistercorporation-gujarat/?pos=53&kwd=baby brush and swab&tags=||||8038.093|Price|proxy|||MDC|rsf:gd-|-stype:attr=1|qr_nm:gd|res:RC3|com-cf:nl|ptrs:na|ktp:N0|mc:189958|mtp:S|qry_typ:P|lang:en|wc:4|cs:8905|v=4,False,Sri Ram Krupa,Rajkot,"Plot No 1,Shed 1/1,Bhumeshawar Ind Area Nr, Om Eng Works,GN RD Kothariya, Sri Ram Krupa, Rajkot - 360002, Dist.Rajkot, Gujarat",7942818763,
Baby Ear Buds,https://www.indiamart.com/proddetail/baby-ear-buds-14837435330.html?pos=54&kwd=baby brush and swab&tags=||||8584.299||product|||NA|rsf:gd-|-stype:attr=1|qr_nm:gd|res:RC3|com-cf:nl|ptrs:na|ktp:N0|mc:189958|mtp:S|qry_typ:P|lang:en|wc:4|cs:8905|v=4,Suprem Enterprises,https://www.indiamart.com/suprementerprises/?pos=54&kwd=baby brush and swab&tags=||||8584.299||product|||NA|rsf:gd-|-stype:attr=1|qr_nm:gd|res:RC3|com-cf:nl|ptrs:na|ktp:N0|mc:189958|mtp:S|qry_typ:P|lang:en|wc:4|cs:8905|v=4,False,Puliakulam Road,Coimbatore,"737, Green Fields, Puliakulam Road, Coimbatore - 641045, Dist.Coimbatore, Tamil Nadu",7942662895,
Baby Cotton Swab,https://www.indiamart.com/proddetail/baby-cotton-swab-12447941897.html?pos=55&kwd=baby brush and swab&tags=||||8954.051|Price|product|||NA|rsf:gd-|-stype:attr=1|qr_nm:gd|res:RC3|com-cf:nl|ptrs:na|ktp:N0|mc:189958|mtp:S|qry_typ:P|lang:en|wc:4|cs:8905|v=4,Kankaria International,https://www.indiamart.com/kankariainternational/?pos=55&kwd=baby brush and swab&tags=||||8954.051|Price|product|||NA|rsf:gd-|-stype:attr=1|qr_nm:gd|res:RC3|com-cf:nl|ptrs:na|ktp:N0|mc:189958|mtp:S|qry_typ:P|lang:en|wc:4|cs:8905|v=4,False,Krishnammal Road,Chennai,"Shop No. 148, Krishnammal Road, Chennai - 600034, Dist.Chennai, Tamil Nadu",8043802944,
Chicco - Brush & Comb,https://www.indiamart.com/proddetail/chicco-brush-comb-4633175088.html?pos=56&kwd=baby brush and swab&tags=||||8954.051||product|||NA|rsf:gd-|-stype:attr=1|qr_nm:gd|res:RC3|com-cf:nl|ptrs:na|ktp:N0|mc:189958|mtp:S|qry_typ:P|lang:en|wc:4|cs:8905|v=4,Best Baby Shop,https://www.indiamart.com/bestbaby-shop/?pos=56&kwd=baby brush and swab&tags=||||8954.051||product|||NA|rsf:gd-|-stype:attr=1|qr_nm:gd|res:RC3|com-cf:nl|ptrs:na|ktp:N0|mc:189958|mtp:S|qry_typ:P|lang:en|wc:4|cs:8905|v=4,False,Anna Nagar,Chennai,"New No. 23/1, 3362 K, AE Block, 8th Street, Annanagar Post Office, Anna Nagar West, Anna Nagar, Chennai - 600040, Dist.Chennai, Tamil Nadu",8048372379,303
Tulips Baby Ear Cotton Swabs,https://www.indiamart.com/proddetail/tulips-baby-ear-cotton-swabs-2852615162212.html?pos=57&kwd=baby brush and swab&tags=||||8307.81|Price|product|||NA|rsf:gd-|-stype:attr=1|qr_nm:gd|res:RC3|com-cf:nl|ptrs:na|ktp:N0|mc:189958|mtp:S|qry_typ:P|lang:en|wc:4|cs:8905|v=4,Karan Sales,https://www.indiamart.com/karan-sales-pune/?pos=57&kwd=baby brush and swab&tags=||||8307.81|Price|product|||NA|rsf:gd-|-stype:attr=1|qr_nm:gd|res:RC3|com-cf:nl|ptrs:na|ktp:N0|mc:189958|mtp:S|qry_typ:P|lang:en|wc:4|cs:8905|v=4,False,Katraj,Pune,"Flat No A/19, Sr. No.13/2b/1, Pl No 1, Bhairavnath Nagar Appt, Katraj, Katraj, Pune - 411046, Dist.Pune, Maharashtra",7942711602,
Luvable Friends - Towel,https://www.indiamart.com/proddetail/luvable-friends-towel-7709931191.html?pos=58&kwd=baby brush and swab&tags=||||9839.57||product|||NA|rsf:gd-|-stype:attr=1|qr_nm:gd|res:RC3|com-cf:nl|ptrs:na|ktp:N0|mc:189958|mtp:S|qry_typ:P|lang:en|wc:4|cs:8905|v=4,Babys Joy,https://www.indiamart.com/babys-joy/?pos=58&kwd=baby brush and swab&tags=||||9839.57||product|||NA|rsf:gd-|-stype:attr=1|qr_nm:gd|res:RC3|com-cf:nl|ptrs:na|ktp:N0|mc:189958|mtp:S|qry_typ:P|lang:en|wc:4|cs:8905|v=4,False,,Kolkata,"No. 14/8B, Golf Club Road, Ground Floor, Near RCGC Club, Kolkata - 700033, Dist.Kolkata, West Bengal",8043884156,
Johnson's Baby Powder - 200gm,https://www.indiamart.com/proddetail/johnson-s-baby-powder-200gm-17635966762.html?pos=59&kwd=baby brush and swab&tags=||||8601.347|Price|product|||NA|rsf:gd-|-stype:attr=1|qr_nm:gd|res:RC3|com-cf:nl|ptrs:na|ktp:N0|mc:189958|mtp:S|qry_typ:P|lang:en|wc:4|cs:8905|v=4,Anil Kirana Store,https://www.indiamart.com/anil-kirana-rajasthan/?pos=59&kwd=baby brush and swab&tags=||||8601.347|Price|product|||NA|rsf:gd-|-stype:attr=1|qr_nm:gd|res:RC3|com-cf:nl|ptrs:na|ktp:N0|mc:189958|mtp:S|qry_typ:P|lang:en|wc:4|cs:8905|v=4,False,Hasanpura,Jaipur,"NBC Road, Hasanpura, Jaipur - 302006, Dist.Jaipur, Rajasthan",8047663267,
Bonne Tender Flo Cotton Swab Sticks,https://www.indiamart.com/proddetail/bonne-tender-flo-cotton-swab-sticks-21587273191.html?pos=60&kwd=baby brush and swab&tags=||||9421.978|Price|product|||NA|rsf:gd-|-stype:attr=1|qr_nm:gd|res:RC3|com-cf:nl|ptrs:na|ktp:N0|mc:189958|mtp:S|qry_typ:P|lang:en|wc:4|cs:8905|v=4,Khushbu Enterprises,https://www.indiamart.com/khushbu-enterprises-dehri/?pos=60&kwd=baby brush and swab&tags=||||9421.978|Price|product|||NA|rsf:gd-|-stype:attr=1|qr_nm:gd|res:RC3|com-cf:nl|ptrs:na|ktp:N0|mc:189958|mtp:S|qry_typ:P|lang:en|wc:4|cs:8905|v=4,False,Adarsh Nagar,Dehri,"Mohan Bigha Market, Adarsh Nagar, Dehri - 821307, Dist.Rohtas, Bihar",8062245002,556
Multicolor Baby Nail Trimmer Electric Safe Baby Nail Clippers Manicure Set,https://www.indiamart.com/proddetail/baby-nail-trimmer-electric-safe-baby-nail-clippers-manicure-set-2852852824933.html?pos=61&kwd=baby brush and swab&tags=||||8584.299|Price|proxy|||TS|rsf:gd-|-stype:attr=1|qr_nm:gd|res:RC3|com-cf:nl|ptrs:na|ktp:N0|mc:189958|mtp:S|qry_typ:P|lang:en|wc:4|cs:8905|v=4,BKH Enterprises,https://www.bkhenterprises.net/?pos=61&kwd=baby brush and swab&tags=||||8584.299|Price|proxy|||TS|rsf:gd-|-stype:attr=1|qr_nm:gd|res:RC3|com-cf:nl|ptrs:na|ktp:N0|mc:189958|mtp:S|qry_typ:P|lang:en|wc:4|cs:8905|v=4,False,Annai Indra Nagar,Coimbatore,"45,West Subramaniam Street,RS Puram, Annai Indra Nagar, Coimbatore - 641001, Dist.Coimbatore, Tamil Nadu",8046066722,
Baby Comb And Brush Set,https://www.indiamart.com/proddetail/baby-comb-and-brush-set-3587402673.html?pos=62&kwd=baby brush and swab&tags=||||8954.051||product|||NA|rsf:gd-|-stype:attr=1|qr_nm:gd|res:RC3|com-cf:nl|ptrs:na|ktp:N0|mc:189958|mtp:S|qry_typ:P|lang:en|wc:4|cs:8905|v=4,Kids World,https://www.indiamart.com/kids-world-chennai/?pos=62&kwd=baby brush and swab&tags=||||8954.051||product|||NA|rsf:gd-|-stype:attr=1|qr_nm:gd|res:RC3|com-cf:nl|ptrs:na|ktp:N0|mc:189958|mtp:S|qry_typ:P|lang:en|wc:4|cs:8905|v=4,False,Choolai,Chennai,"Plot No.8, Nehru Timber Market, New No.41,, Old No.14,1st Floor, Sattanna Naicken Street, Choolai, Choolai, Chennai - 600112, Dist.Chennai, Tamil Nadu",8047793260,
Baby Hair Brush,,nn trading co.,https://www.indiamart.com/m-kumarbengaluru/?pos=63&kwd=baby brush and swab&tags=||||8663.873||product|||NA|rsf:gd-|-stype:attr=1|qr_nm:gd|res:RC3|com-cf:nl|ptrs:na|ktp:N0|mc:189958|mtp:S|qry_typ:P|lang:en|wc:4|cs:8905|v=4,False,Virupakshapura,Bengaluru,"no.475,1st floor, rajeev gandhi nagar, Virupakshapura, Bengaluru - 560092, Dist.Bengaluru, Karnataka",8062270227,193
Blue Plastic Baby Comb And Brush Set,https://www.indiamart.com/proddetail/baby-comb-and-brush-set-2850164014830.html?pos=64&kwd=baby brush and swab&tags=||||8331.224|Price|product|||NA|rsf:gd-|-stype:attr=1|qr_nm:gd|res:RC3|com-cf:nl|ptrs:na|ktp:N0|mc:189958|mtp:S|qry_typ:P|lang:en|wc:4|cs:8905|v=4,Minakshi Garments,https://www.indiamart.com/minakshi-garments-kolhapur/?pos=64&kwd=baby brush and swab&tags=||||8331.224|Price|product|||NA|rsf:gd-|-stype:attr=1|qr_nm:gd|res:RC3|com-cf:nl|ptrs:na|ktp:N0|mc:189958|mtp:S|qry_typ:P|lang:en|wc:4|cs:8905|v=4,False,Tarabai Park,Kolhapur,"Gala No 14 B Parvati Plaza, Main Market Road Swastik Market, Gandhinagar, Tarabai Park, Kolhapur - 416119, Dist.Kolhapur, Maharashtra",7942670858,
8352 Kids U Shaped Toothbrush Children Baby Silicone Kids Toothbrush U Shaped Silicone Brush Head for 360 Degree Cleaning Suitable For 2-6 Years,https://www.indiamart.com/proddetail/8352-kids-u-shaped-toothbrush-children-baby-silicone-kids-toothbrush-u-shaped-silicone-brush-head-for-360-degree-cleaning-suitable-for-2-6-years-2853173672612.html?pos=65&kwd=baby brush and swab&tags=||||9848.189|Price|product|||NA|rsf:gd-|-stype:attr=1|qr_nm:gd|res:RC3|com-cf:nl|ptrs:na|ktp:N0|mc:189958|mtp:S|qry_typ:P|lang:en|wc:4|cs:8905|v=4,Social Cat,https://www.indiamart.com/googlykart/?pos=65&kwd=baby brush and swab&tags=||||9848.189|Price|product|||NA|rsf:gd-|-stype:attr=1|qr_nm:gd|res:RC3|com-cf:nl|ptrs:na|ktp:N0|mc:189958|mtp:S|qry_typ:P|lang:en|wc:4|cs:8905|v=4,False,sb nagar,Siliguri,"445/50/109/88/1 Ward No 24, sb nagar, Siliguri - 734004, Dist.Darjiling, West Bengal",,
"Non Branded 1 To 5 Silicone U Shape Toothbrush, For Tooth Cleaning, Packaging Size: 9 X 5 X 2 cm",https://www.indiamart.com/proddetail/silicone-u-shape-toothbrush-26076445591.html?pos=66&kwd=baby brush and swab&tags=||||8752.144|Price|product|||NA|rsf:gd-|-stype:attr=1|qr_nm:gd|res:RC3|com-cf:nl|ptrs:na|ktp:N0|mc:189958|mtp:S|qry_typ:P|lang:en|wc:4|cs:8905|v=4,Bunshop,https://www.indiamart.com/bun-shop/?pos=66&kwd=baby brush and swab&tags=||||8752.144|Price|product|||NA|rsf:gd-|-stype:attr=1|qr_nm:gd|res:RC3|com-cf:nl|ptrs:na|ktp:N0|mc:189958|mtp:S|qry_typ:P|lang:en|wc:4|cs:8905|v=4,False,New Delhi,New Delhi,"Keshav Puram Keshav Puram, New Delhi, New Delhi - 110035, Dist.Delhi, Delhi",8069013485,324
Pink Plastic Unicorn and princes hair brush,https://www.indiamart.com/proddetail/unicorn-and-princes-hair-brush-2851314117955.html?pos=67&kwd=baby brush and swab&tags=||||8752.144||product|||NA|rsf:gd-|-stype:attr=1|qr_nm:gd|res:RC3|com-cf:nl|ptrs:na|ktp:N0|mc:189958|mtp:S|qry_typ:P|lang:en|wc:4|cs:8905|v=4,Dabkiya Jewellery,https://www.indiamart.com/dabkiya-jewellery-delhi/?pos=67&kwd=baby brush and swab&tags=||||8752.144||product|||NA|rsf:gd-|-stype:attr=1|qr_nm:gd|res:RC3|com-cf:nl|ptrs:na|ktp:N0|mc:189958|mtp:S|qry_typ:P|lang:en|wc:4|cs:8905|v=4,False,,New Delhi,"Kh No. 11/19 House No.18 Shiv Ram Park Extn,Nangloi,New Delhi, West Delhi, New Delhi - 110041, Dist.Delhi, Delhi",8046076586,
Packed Kids Brushes,https://www.indiamart.com/proddetail/packed-kids-brushes-5376615362.html?pos=68&kwd=baby brush and swab&tags=||||8306.348||product|||NA|rsf:gd-|-stype:attr=1|qr_nm:gd|res:RC3|com-cf:nl|ptrs:na|ktp:N0|mc:189958|mtp:S|qry_typ:P|lang:en|wc:4|cs:8905|v=4,Schiffer And Menezes India Private Limited,https://www.indiamart.com/schiffermenezes-india/?pos=68&kwd=baby brush and swab&tags=||||8306.348||product|||NA|rsf:gd-|-stype:attr=1|qr_nm:gd|res:RC3|com-cf:nl|ptrs:na|ktp:N0|mc:189958|mtp:S|qry_typ:P|lang:en|wc:4|cs:8905|v=4,False,Verna,Goa,"Plot No. L 27, Phase II A, Verna Industrial Estate, Verna, Goa - 403722, Dist.North Goa, Goa",8048361301,777
"Blue Mee Mee Toddler Toothbrush, Packaging Type: Packet, 4-10 Years",https://www.indiamart.com/proddetail/mee-mee-toddler-toothbrush-2851844082091.html?pos=69&kwd=baby brush and swab&tags=||||8500.97|Price|product|||NA|rsf:gd-|-stype:attr=1|qr_nm:gd|res:RC3|com-cf:nl|ptrs:na|ktp:N0|mc:189958|mtp:S|qry_typ:P|lang:en|wc:4|cs:8905|v=4,Alpha Enterprises,https://www.indiamart.com/alphaenterprises/?pos=69&kwd=baby brush and swab&tags=||||8500.97|Price|product|||NA|rsf:gd-|-stype:attr=1|qr_nm:gd|res:RC3|com-cf:nl|ptrs:na|ktp:N0|mc:189958|mtp:S|qry_typ:P|lang:en|wc:4|cs:8905|v=4,False,,Thrissur,"15/71,Post Office Road,Chiyyaram, Thrissur - 680026, Dist.Thrissur, Kerala",7942871618,
Baby Comb Brush,https://www.indiamart.com/proddetail/baby-comb-brush-23417195973.html?pos=70&kwd=baby brush and swab&tags=||||9829.308|Price|product|||NA|rsf:gd-|-stype:attr=1|qr_nm:gd|res:RC3|com-cf:nl|ptrs:na|ktp:N0|mc:189958|mtp:S|qry_typ:P|lang:en|wc:4|cs:8905|v=4,M/ S Naughty Baby Products,https://www.indiamart.com/naughty-baby-products/?pos=70&kwd=baby brush and swab&tags=||||9829.308|Price|product|||NA|rsf:gd-|-stype:attr=1|qr_nm:gd|res:RC3|com-cf:nl|ptrs:na|ktp:N0|mc:189958|mtp:S|qry_typ:P|lang:en|wc:4|cs:8905|v=4,False,Salkia,Howrah,"6, Kolu Para Lane, Salkia, Salkia, Howrah - 711106, Dist.Howrah, West Bengal",8048372620,444
Maroon Beauty Parlour hair Brush,https://www.indiamart.com/proddetail/beauty-parlour-hair-brush-23303859473.html?pos=71&kwd=baby brush and swab&tags=||||9849.786|Price|product|||NA|rsf:gd-|-stype:attr=1|qr_nm:gd|res:RC3|com-cf:nl|ptrs:na|ktp:N0|mc:189958|mtp:S|qry_typ:P|lang:en|wc:4|cs:8905|v=4,Bharat Brush And Comb,https://www.indiamart.com/bharatbrushcomb/?pos=71&kwd=baby brush and swab&tags=||||9849.786|Price|product|||NA|rsf:gd-|-stype:attr=1|qr_nm:gd|res:RC3|com-cf:nl|ptrs:na|ktp:N0|mc:189958|mtp:S|qry_typ:P|lang:en|wc:4|cs:8905|v=4,False,South 24 Parganas,Amtala,"Chak Borhanpur, Chandandaha , Bishnupur, South 24 Parganas, Amtala - 743503, Dist.Murshidabad, West Bengal",8043861446,
Silicone Huf & Nuf Green Color Grooming Baby Comb Brush Set,https://www.indiamart.com/proddetail/huf-nuf-green-color-grooming-baby-comb-brush-set-25690310012.html?pos=72&kwd=baby brush and swab&tags=||||8752.144|Price|product|||NA|rsf:gd-|-stype:attr=1|qr_nm:gd|res:RC3|com-cf:nl|ptrs:na|ktp:N0|mc:189958|mtp:S|qry_typ:P|lang:en|wc:4|cs:8905|v=4,AWNIB Consultants,https://www.indiamart.com/awnibconsultants/?pos=72&kwd=baby brush and swab&tags=||||8752.144|Price|product|||NA|rsf:gd-|-stype:attr=1|qr_nm:gd|res:RC3|com-cf:nl|ptrs:na|ktp:N0|mc:189958|mtp:S|qry_typ:P|lang:en|wc:4|cs:8905|v=4,False,,New Delhi,"175D, 3rd Floor, Block AG-1, Vikaspuri, West Delhi, New Delhi - 110018, Dist.Delhi, Delhi",8047654774,
Baby Hair Brush & Comb,,Bonne Care Private Limited,https://www.indiamart.com/bonne-care/?pos=73&kwd=baby brush and swab&tags=||||8752.144||product|||NA|rsf:gd-|-stype:attr=1|qr_nm:gd|res:RC3|com-cf:nl|ptrs:na|ktp:N0|mc:189958|mtp:S|qry_typ:P|lang:en|wc:4|cs:8905|v=4,False,,New Delhi,"No. 48, SSI Industrial Co Operative Estate, GT Karnal Road, New Delhi - 110033, Dist.Delhi, Delhi",8048361296,864
Private Label Free Sample Hair Glue Brush Hair Gel 3 In 1 Waterproof Baby Hair,https://www.indiamart.com/proddetail/private-label-free-sample-hair-glue-brush-hair-gel-3-in-1-waterproof-baby-hair-2853305071533.html?pos=74&kwd=baby brush and swab&tags=||||8601.347|Price|product|||NA|rsf:gd-|-stype:attr=1|qr_nm:gd|res:RC3|com-cf:nl|ptrs:na|ktp:N0|mc:189958|mtp:S|qry_typ:P|lang:en|wc:4|cs:8905|v=4,Beauty Products,https://www.indiamart.com/beauty-products-jaipur/?pos=74&kwd=baby brush and swab&tags=||||8601.347|Price|product|||NA|rsf:gd-|-stype:attr=1|qr_nm:gd|res:RC3|com-cf:nl|ptrs:na|ktp:N0|mc:189958|mtp:S|qry_typ:P|lang:en|wc:4|cs:8905|v=4,False,,Jaipur,"patrakar clony new sangner road maansarovar, Jaipur - 302020, Dist.Jaipur, Rajasthan",8069196706,675
Purple Baby Plastic Hairbrush,https://www.indiamart.com/proddetail/purple-baby-plastic-hairbrush-26462435833.html?pos=75&kwd=baby brush and swab&tags=||||8915.672||product|||NA|rsf:gd-|-stype:attr=1|qr_nm:gd|res:RC3|com-cf:nl|ptrs:na|ktp:N0|mc:189958|mtp:S|qry_typ:P|lang:en|wc:4|cs:8905|v=4,The Little Lookers,https://www.indiamart.com/thelittlelookers-moradabad/?pos=75&kwd=baby brush and swab&tags=||||8915.672||product|||NA|rsf:gd-|-stype:attr=1|qr_nm:gd|res:RC3|com-cf:nl|ptrs:na|ktp:N0|mc:189958|mtp:S|qry_typ:P|lang:en|wc:4|cs:8905|v=4,False,,Moradabad,"4-B-145, Buddhi Vihar Yozna Mbd, Moradabad - 244001, Dist.Moradabad, Uttar Pradesh",8047655658,
Baby Silicon Brush,,Midas Marketing,https://www.indiamart.com/midas-marketing/?pos=76&kwd=baby brush and swab&tags=||||8228.275||product|||NA|rsf:gd-|-stype:attr=1|qr_nm:gd|res:RC3|com-cf:nl|ptrs:na|ktp:N0|mc:189958|mtp:S|qry_typ:P|lang:en|wc:4|cs:8905|v=4,False,,Ahmedabad,"B 61, C .P. Nagar, Part 2, Sola Road, Ghatlodia, Ahmedabad - 380061, Dist.Ahmedabad, Gujarat",8048372652,933
Kids Care Brush,https://www.indiamart.com/proddetail/kids-care-brush-2528349291.html?pos=77&kwd=baby brush and swab&tags=||||8270.32||product|||NA|rsf:gd-|-stype:attr=1|qr_nm:gd|res:RC3|com-cf:nl|ptrs:na|ktp:N0|mc:189958|mtp:S|qry_typ:P|lang:en|wc:4|cs:8905|v=4,Belgium Glass Andceramics Pvt. Ltd.,https://www.indiamart.com/belgium-glass-ceramics/?pos=77&kwd=baby brush and swab&tags=||||8270.32||product|||NA|rsf:gd-|-stype:attr=1|qr_nm:gd|res:RC3|com-cf:nl|ptrs:na|ktp:N0|mc:189958|mtp:S|qry_typ:P|lang:en|wc:4|cs:8905|v=4,False,Village Dabhasha,Padra,"Green Ford Side, Baroda- Jambuusar National Highway Road, Taluka , Village Dabhasha, Village Dabhasha, Padra - 391440, Dist.Vadodara, Gujarat",8047698271,
Pink Baby Hair Brushes Cleaning Set,https://www.indiamart.com/proddetail/pink-baby-hair-brushes-cleaning-set-2852418792812.html?pos=78&kwd=baby brush and swab&tags=||||8211.142|Price|product|||NA|rsf:gd-|-stype:attr=1|qr_nm:gd|res:RC3|com-cf:nl|ptrs:na|ktp:N0|mc:189958|mtp:S|qry_typ:P|lang:en|wc:4|cs:8905|v=4,Baby World,https://www.indiamart.com/babyworlds/?pos=78&kwd=baby brush and swab&tags=||||8211.142|Price|product|||NA|rsf:gd-|-stype:attr=1|qr_nm:gd|res:RC3|com-cf:nl|ptrs:na|ktp:N0|mc:189958|mtp:S|qry_typ:P|lang:en|wc:4|cs:8905|v=4,False,,Mumbai,"Groung Floor, Shop No 4-A, 37, Hawa Mansion, Shaikh Memon Street, Pinjara Street, Mandvi, Mumbai - 400003, Dist.Mumbai, Maharashtra",8048981354,
Scarlet Line Professional Small Wooden Flat Baby Hair Brush with Back Side Mirror for Children,https://www.indiamart.com/proddetail/scarlet-line-professional-small-wooden-flat-baby-hair-brush-with-back-side-mirror-for-children-22250819848.html?pos=79&kwd=baby brush and swab&tags=||||8228.275|Price|product|||NA|rsf:gd-|-stype:attr=1|qr_nm:gd|res:RC3|com-cf:nl|ptrs:na|ktp:N0|mc:189958|mtp:S|qry_typ:P|lang:en|wc:4|cs:8905|v=4,Instyle,https://www.indiamart.com/instyle-ahmedabad/?pos=79&kwd=baby brush and swab&tags=||||8228.275|Price|product|||NA|rsf:gd-|-stype:attr=1|qr_nm:gd|res:RC3|com-cf:nl|ptrs:na|ktp:N0|mc:189958|mtp:S|qry_typ:P|lang:en|wc:4|cs:8905|v=4,False,Relief Road,Ahmedabad,"2787/1, Nisha Pole Naka, Zaveriwad Gate, Relief Road, Ahmedabad - 380001, Dist.Ahmedabad, Gujarat",8047668753,
Baby Silicon Finger Toothbrush,https://www.indiamart.com/proddetail/baby-silicon-finger-toothbrush-2854975697673.html?pos=80&kwd=baby brush and swab&tags=||||8752.144|Price|product|||NA|rsf:gd-|-stype:attr=1|qr_nm:gd|res:RC3|com-cf:nl|ptrs:na|ktp:N0|mc:189958|mtp:S|qry_typ:P|lang:en|wc:4|cs:8905|v=4,Virenika Industries,https://www.indiamart.com/virenika-industries/?pos=80&kwd=baby brush and swab&tags=||||8752.144|Price|product|||NA|rsf:gd-|-stype:attr=1|qr_nm:gd|res:RC3|com-cf:nl|ptrs:na|ktp:N0|mc:189958|mtp:S|qry_typ:P|lang:en|wc:4|cs:8905|v=4,False,,New Delhi,"A-61, indirapark , masudabad , najafgarh najafgarh, New Delhi - 110053, Dist.Delhi, Delhi",8047662058,
"12572 Cartoon Hair Brush Massage Shower Comb Blur Wet Salon Hair Brushes Hair Styling Tools, Glitter Comb, Soft & Smooth Brush, Mermaid Brush For Kids Return Gifts For Kids (1 Pc )",https://www.indiamart.com/proddetail/12572-cartoon-hair-brush-massage-shower-comb-blur-wet-salon-hair-brushes-hair-styling-tools-glitter-comb-soft-smooth-brush-mermaid-brush-for-kids-return-gifts-for-kids-1-pc-2854348518955.html?pos=81&kwd=baby brush and swab&tags=||||8706.587|Price|product|||NA|rsf:gd-|-stype:attr=1|qr_nm:gd|res:RC3|com-cf:nl|ptrs:na|ktp:N0|mc:189958|mtp:S|qry_typ:P|lang:en|wc:4|cs:8905|v=4,offersonlineshop.in,https://www.indiamart.com/offersonlineshopin/?pos=81&kwd=baby brush and swab&tags=||||8706.587|Price|product|||NA|rsf:gd-|-stype:attr=1|qr_nm:gd|res:RC3|com-cf:nl|ptrs:na|ktp:N0|mc:189958|mtp:S|qry_typ:P|lang:en|wc:4|cs:8905|v=4,False,,Madurai,"Pin code :- 625514 City :- madurai State :- tamilnadu madurai 625514 Tamil Nadu, Madurai - 625514, Dist.Madurai, Tamil Nadu",,
"Toothbrush - Soft Bristle Toothbrush - 3-sided Training Toothbrush With Silicone Head, Inverted Cleaning Toothbrush For Aged 2-12, Children's Cleaning (1 Pc)",https://www.indiamart.com/proddetail/toothbrush-soft-bristle-toothbrush-3-sided-training-toothbrush-with-silicone-head-inverted-cleaning-toothbrush-for-aged-2-12-children-s-cleaning-1-pc-2855060751855.html?pos=82&kwd=baby brush and swab&tags=||||9289.285|Price|product|||FCPE|rsf:gd-|-stype:attr=1|qr_nm:gd|res:RC3|com-cf:nl|ptrs:na|ktp:N0|mc:189958|mtp:S|qry_typ:P|lang:en|wc:4|cs:8905|v=4,darling lifestyle,https://www.indiamart.com/darling-lifestyle/?pos=82&kwd=baby brush and swab&tags=||||9289.285|Price|product|||FCPE|rsf:gd-|-stype:attr=1|qr_nm:gd|res:RC3|com-cf:nl|ptrs:na|ktp:N0|mc:189958|mtp:S|qry_typ:P|lang:en|wc:4|cs:8905|v=4,False,,Visakhapatnam,"karri banu s/o k abbainaidu ration depo 3 karri street s rayavaram po vill md visakhapatnam distc andhrapradesh, Visakhapatnam - 531060, Dist.Visakhapatnam, Andhra Pradesh",,
"6892 Electric Toothbrush With Light & Music, Kids U-shaped 360 Usb Rechargeable Plastic Automatic Toothbrush Portable Adjustable Cleaning Whitening Toothbrush With Usb Charging Function Plastic + Abs For Kids",https://www.indiamart.com/proddetail/6892-electric-toothbrush-with-light-music-kids-u-shaped-360-usb-rechargeable-plastic-automatic-toothbrush-portable-adjustable-cleaning-whitening-toothbrush-with-usb-charging-function-plastic-abs-for-kids-2854513625748.html?pos=83&kwd=baby brush and swab&tags=||||8741.812|Price|product|||NA|rsf:gd-|-stype:attr=1|qr_nm:gd|res:RC3|com-cf:nl|ptrs:na|ktp:N0|mc:189958|mtp:S|qry_typ:P|lang:en|wc:4|cs:8905|v=4,Go5 Incorporation,https://www.indiamart.com/go5incorporation/?pos=83&kwd=baby brush and swab&tags=||||8741.812|Price|product|||NA|rsf:gd-|-stype:attr=1|qr_nm:gd|res:RC3|com-cf:nl|ptrs:na|ktp:N0|mc:189958|mtp:S|qry_typ:P|lang:en|wc:4|cs:8905|v=4,False,,Gurugram,"T 2/13, DLF Phase 3, Gurugram - 122002, Dist.Gurgaon, Haryana",,
Baby Hair Brush,https://www.indiamart.com/proddetail/baby-hair-brush-21240032133.html?pos=84&kwd=baby brush and swab&tags=||||8211.142|Price|product|||NA|rsf:gd-|-stype:attr=1|qr_nm:gd|res:RC3|com-cf:nl|ptrs:na|ktp:N0|mc:189958|mtp:S|qry_typ:P|lang:en|wc:4|cs:8905|v=4,Sai Kiran Enterprises,https://www.indiamart.com/sai-kiran-entps/?pos=84&kwd=baby brush and swab&tags=||||8211.142|Price|product|||NA|rsf:gd-|-stype:attr=1|qr_nm:gd|res:RC3|com-cf:nl|ptrs:na|ktp:N0|mc:189958|mtp:S|qry_typ:P|lang:en|wc:4|cs:8905|v=4,False,,Mumbai,"Gala No. 6, Pooja Garage, Goregaon East, Mumbai - 400063, Dist.Mumbai, Maharashtra",8043878455,
Black Plastic Zodiac Hair Dey Brush Comb,https://www.indiamart.com/proddetail/zodiac-hair-dey-brush-comb-2851581552162.html?pos=85&kwd=baby brush and swab&tags=||||8559.269|Price|product|||NA|rsf:gd-|-stype:attr=1|qr_nm:gd|res:RC3|com-cf:nl|ptrs:na|ktp:N0|mc:189958|mtp:S|qry_typ:P|lang:en|wc:4|cs:8905|v=4,New Satish General Store,https://www.indiamart.com/newsatish-generalstore/?pos=85&kwd=baby brush and swab&tags=||||8559.269|Price|product|||NA|rsf:gd-|-stype:attr=1|qr_nm:gd|res:RC3|com-cf:nl|ptrs:na|ktp:N0|mc:189958|mtp:S|qry_typ:P|lang:en|wc:4|cs:8905|v=4,False,Ram Bagh,Indore,"15,3, Jawahar Marg, Ram Bagh, Indore - 452007, Dist.Indore, Madhya Pradesh",8048979581,
"12572 Cartoon Hair Brush Massage Shower Comb Blur Wet Salon Hair Brushes Hair Styling Tools, Glitter Comb, Soft & Smooth Brush, Mermaid Brush For Kids Return Gifts For Kids (1 Pc )",https://www.indiamart.com/proddetail/12572-cartoon-hair-brush-massage-shower-comb-blur-wet-salon-hair-brushes-hair-styling-tools-glitter-comb-soft-smooth-brush-mermaid-brush-for-kids-return-gifts-for-kids-1-pc-2854457439688.html?pos=86&kwd=baby brush and swab&tags=||||8786.56|Price|product|||FCPE|rsf:gd-|-stype:attr=1|qr_nm:gd|res:RC3|com-cf:nl|ptrs:na|ktp:N0|mc:189958|mtp:S|qry_typ:P|lang:en|wc:4|cs:8905|v=4,Jaatara,https://www.indiamart.com/company/225931792/?pos=86&kwd=baby brush and swab&tags=||||8786.56|Price|product|||FCPE|rsf:gd-|-stype:attr=1|qr_nm:gd|res:RC3|com-cf:nl|ptrs:na|ktp:N0|mc:189958|mtp:S|qry_typ:P|lang:en|wc:4|cs:8905|v=4,False,,Cyberabad,"8-4-376/22, New Shastri Nagar Erragadda, Hyderabad - 500018 Telangana, Cyberabad - 500018, Dist.Hyderabad, Andhra Pradesh",,
"Baby Hair Brush Comb, Newly Born",,Royal Enterprises,https://www.indiamart.com/royalenterprises-95911176/?pos=87&kwd=baby brush and swab&tags=||||8752.144|Price|product|||NA|rsf:gd-|-stype:attr=1|qr_nm:gd|res:RC3|com-cf:nl|ptrs:na|ktp:N0|mc:189958|mtp:S|qry_typ:P|lang:en|wc:4|cs:8905|v=4,False,,New Delhi,"Qutab Road,Delhi Sadar Bazar,110006,Delhi, New Delhi - 110031, Dist.Delhi, Delhi",8047664321,
Aflipshop Baby Grooming Baby Healthcare Kit Newborn Baby Care Accessories Baby Health Care Set Baby Nail Clipper Scissors Hair Comb Brush Nose Cleaner Safety For Toddler Infant Nursing Grooming(pack Of 6 Pc),https://www.indiamart.com/proddetail/aflipshop-baby-grooming-baby-healthcare-kit-newborn-baby-care-accessories-baby-health-care-set-baby-nail-clipper-scissors-hair-comb-brush-nose-cleaner-safety-for-toddler-infant-nursing-grooming-pack-of-6-pc-2853801480791.html?pos=88&kwd=baby brush and swab&tags=||||8752.144|Price|product|||NA|rsf:gd-|-stype:attr=1|qr_nm:gd|res:RC3|com-cf:nl|ptrs:na|ktp:N0|mc:189958|mtp:S|qry_typ:P|lang:en|wc:4|cs:8905|v=4,Aflipshop,https://www.indiamart.com/aflipshopin/?pos=88&kwd=baby brush and swab&tags=||||8752.144|Price|product|||NA|rsf:gd-|-stype:attr=1|qr_nm:gd|res:RC3|com-cf:nl|ptrs:na|ktp:N0|mc:189958|mtp:S|qry_typ:P|lang:en|wc:4|cs:8905|v=4,False,,New Delhi,"P-9, C/o Innovative E Business Service Llp Mayur Vihar Phase 1 Jp Complex New Delhi, New Delhi - 110091, Dist.Delhi, Delhi",,
Wooden Comb & Mirror Hair Brush Set For All Hair Types (Pack of 2),,Neelam E-Retail,https://www.indiamart.com/neelam-enterprises-kanpur/?pos=89&kwd=baby brush and swab&tags=||||9045.955|Price|product|||FCPE|rsf:gd-|-stype:attr=1|qr_nm:gd|res:RC3|com-cf:nl|ptrs:na|ktp:N0|mc:189958|mtp:S|qry_typ:P|lang:en|wc:4|cs:8905|v=4,False,General Ganj,Kanpur,"Shop No. 33/161, Radha Krishan Market, Gaya Prasad Lane, General Ganj, Kanpur - 208001, Uttar Pradesh",8048267956,
Baby Grooming Products,,Baby Hugs,https://www.indiamart.com/baby-hugs-visakhapatnam/?pos=90&kwd=baby brush and swab&tags=CC||||9289.285||product|||NA|rsf:gd-|-stype:attr=1|qr_nm:gd|res:RC3|com-cf:nl|ptrs:na|ktp:N0|mc:189958|mtp:S|qry_typ:P|lang:en|wc:4|cs:8905|v=4,False,Dondaparthy,Visakhapatnam,"# 46-22-33/1,, Dondaparthy, Visakhapatnam - 530016, Dist.Visakhapatnam, Andhra Pradesh",8062245136,227
Baby Dress Kit,,M S C Collections,https://www.indiamart.com/msc-collection-bengaluru/?pos=91&kwd=baby brush and swab&tags=CC||||8663.873||product|||NA|rsf:gd-|-stype:attr=1|qr_nm:gd|res:RC3|com-cf:nl|ptrs:na|ktp:N0|mc:189958|mtp:S|qry_typ:P|lang:en|wc:4|cs:8905|v=4,False,Rajaji Nagar,Bengaluru,"No. 245, 2nd Cross, 2nd Main Road, Ramachandrapuram, Rajaji Nagar, Bengaluru - 560021, Dist.Bengaluru, Karnataka",8048371785,499
Baby Grooming Kit,,Me N Moms Pvt. Ltd.,https://www.indiamart.com/me-n-moms-pvt-ltd-bengaluru/?pos=92&kwd=baby brush and swab&tags=CC||||8663.873||product|||NA|rsf:gd-|-stype:attr=1|qr_nm:gd|res:RC3|com-cf:nl|ptrs:na|ktp:N0|mc:189958|mtp:S|qry_typ:P|lang:en|wc:4|cs:8905|v=4,False,IT Tamadu Extension,Bengaluru,"3, Pobbathi Balakrishna Tower, 100feet Ring Road, 5th Block Banashankari 3rd Stage, Ward No. 55, IT Tamadu Extension, Bengaluru - 560085, Dist.Bengaluru, Karnataka",8069051307,824
Baby Grooming,,Mum's Care,https://www.indiamart.com/mumscaresecunderabad/?pos=93&kwd=baby brush and swab&tags=CC||||8788.159||product|||NA|rsf:gd-|-stype:attr=1|qr_nm:gd|res:RC3|com-cf:nl|ptrs:na|ktp:N0|mc:189958|mtp:S|qry_typ:P|lang:en|wc:4|cs:8905|v=4,False,M.G. Road,Secunderabad,"HM Ishaq Estate- Shop No. 22/23/24, General Bazar, M.G. Road, Secunderabad - 500003, Dist.Hyderabad, Telangana",8048247125,7274
Baby Cotton Buds,,Bablo Bebli Jiyana Shop,https://www.indiamart.com/bablo-and-bebli-jiyana-house/?pos=94&kwd=baby brush and swab&tags=||||8230.883||product|||NA|rsf:gd-|-stype:attr=1|qr_nm:gd|res:RC3|com-cf:nl|ptrs:na|ktp:N0|mc:189958|mtp:S|qry_typ:P|lang:en|wc:4|cs:8905|v=4,False,,Surat,"Shop No.4 Opp.mahalaxmi Society,kargil Chowk Road Royal Heaven Punagam, Surat - 395010, Dist.Surat, Gujarat",8048372949,424
Himalaya Baby Care Products,,Mom & Kidz,https://www.indiamart.com/momkidz-chennai/?pos=95&kwd=baby brush and swab&tags=||||8954.051||product|||NA|rsf:gd-|-stype:attr=1|qr_nm:gd|res:RC3|com-cf:nl|ptrs:na|ktp:N0|mc:189958|mtp:S|qry_typ:P|lang:en|wc:4|cs:8905|v=4,False,Triplicane,Chennai,"DOOR NO. 127/252 TRIPLICANE HIGH ROAD, TRIPLICANE,, Triplicane, Chennai - 600005, Dist.Chennai, Tamil Nadu",8048371797,605
Baby Cotton Buds,,Lil' Hub Baby Store,https://www.indiamart.com/mandotimpex/?pos=96&kwd=baby brush and swab&tags=||||8786.56||product|||NA|rsf:gd-|-stype:attr=1|qr_nm:gd|res:RC3|com-cf:nl|ptrs:na|ktp:N0|mc:189958|mtp:S|qry_typ:P|lang:en|wc:4|cs:8905|v=4,False,Begum Bazar,Hyderabad,"3-5-874/A/4, Mazzanine Floor,,Hyderguda,Hyderabad 3 FLOOR,5/1/911/3 FLAT NO 305,NAVODAYA PLAZA,,500095,Hyderabad, Begum Bazar, Hyderabad - 500029, Dist.Hyderabad, Telangana",8062245026,882
Baby Cotton Buds,,Shree Vitthal Enterprises,https://www.indiamart.com/shree-vitthal-enterprises-kanpur/?pos=97&kwd=baby brush and swab&tags=||||9045.955||product|||NA|rsf:gd-|-stype:attr=1|qr_nm:gd|res:RC3|com-cf:nl|ptrs:na|ktp:N0|mc:189958|mtp:S|qry_typ:P|lang:en|wc:4|cs:8905|v=4,False,,Kanpur,"12/36/108,,Gwaltoli Road,Kanpur 12/36/108, Gwaltoli Road, Raja Electricals, Gwaltoli, Kanpur, Kanpur Nagar, Uttar Pradesh, 208001,2, Kanpur - 208001, Uttar Pradesh",8047311015,2534
Johnsons Cotton Buds,,Hamara Mart Multitrade LLP,https://www.indiamart.com/hamara-mart-multitrade/?pos=98&kwd=baby brush and swab&tags=||||8810.737|Price|product|||NA|rsf:gd-|-stype:attr=1|qr_nm:gd|res:RC3|com-cf:nl|ptrs:na|ktp:N0|mc:189958|mtp:S|qry_typ:P|lang:en|wc:4|cs:8905|v=4,False,Dwarka Puri Colony,Saharanpur,"No.25-30, Delhi Road, Near Roop Vihar Dwarka Puri Colony, Dwarka Puri Colony, Saharanpur - 247001, Dist.Saharanpur, Uttar Pradesh",7942640836,
Johnson Cotton Bud,,Shri Govindam Pharmacy,https://www.indiamart.com/shri-govindam-pharmacy-jaipur/?pos=99&kwd=baby brush and swab&tags=||||8601.347||product|||NA|rsf:gd-|-stype:attr=1|qr_nm:gd|res:RC3|com-cf:nl|ptrs:na|ktp:N0|mc:189958|mtp:S|qry_typ:P|lang:en|wc:4|cs:8905|v=4,False,Mansarovar,Jaipur,"Shop No -75/5, Shipra Path, Mansrowar, Mansarovar, Jaipur - 302020, Dist.Jaipur, Rajasthan",8048371790,977
Mee Mee Toothbrush,,Thanvi Associates,https://www.indiamart.com/thanvi-associates/?pos=100&kwd=baby brush and swab&tags=||||8788.159|Price|product|||NA|rsf:gd-|-stype:attr=1|qr_nm:gd|res:RC3|com-cf:nl|ptrs:na|ktp:N0|mc:189958|mtp:S|qry_typ:P|lang:en|wc:4|cs:8905|v=4,False,Shivaji Nagar,Secunderabad,"Shivaji Nagar, 7-1-136, Bandimet, Maruthi Veedhi, Shivaji Nagar, Secunderabad - 500003, Dist.Hyderabad, Telangana",8047852297,
Liquid Red Baby Care Products,,Mother'S Choice Distributors,https://www.indiamart.com/avn-enterprises-yavatmal/?pos=101&kwd=baby brush and swab&tags=||||8770.455||product|||NA|rsf:gd-|-stype:attr=1|qr_nm:gd|res:RC3|com-cf:nl|ptrs:na|ktp:N0|mc:189958|mtp:S|qry_typ:P|lang:en|wc:4|cs:8905|v=4,False,Rohile Baba Galli,Yavatmal,"Plot No 7 Pimpalgaon Road, Rohile Baba Galli, Yavatmal - 445001, Dist.Yavatmal, Maharashtra",8048249734,5660
Baby Hair Brush,,Shakshi Baby,https://www.indiamart.com/shakshibaby-mumbai/?pos=102&kwd=baby brush and swab&tags=||||8211.142||product|||NA|rsf:gd-|-stype:attr=1|qr_nm:gd|res:RC3|com-cf:nl|ptrs:na|ktp:N0|mc:189958|mtp:S|qry_typ:P|lang:en|wc:4|cs:8905|v=4,False,Kandivali East,Mumbai,"Shop No. 19, E-2, Highway Park, Thakur Complex, Kandivali East, Mumbai - 400101, Dist.Mumbai, Maharashtra",8062245081,904
"baby nail cutter, baby combo, baby brush",,Nashal Consumer Products Private Limited,https://www.indiamart.com/nashal-consumer-products-private-limited/?pos=103&kwd=baby brush and swab&tags=||||8704.343|Price|product|||NA|rsf:gd-|-stype:attr=1|qr_nm:gd|res:RC3|com-cf:nl|ptrs:na|ktp:N0|mc:189958|mtp:S|qry_typ:P|lang:en|wc:4|cs:8905|v=4,False,,Patiala,"C-59,Focal Point,Patiala,Patiala, Patiala - 147001, Dist.Patiala, Punjab",8047311014,2089
Baby Hair Brushes Comb,,Ranuja Novelties,https://www.indiamart.com/ranuja-novelties/?pos=104&kwd=baby brush and swab&tags=||||8954.051||product|||NA|rsf:gd-|-stype:attr=1|qr_nm:gd|res:RC3|com-cf:nl|ptrs:na|ktp:N0|mc:189958|mtp:S|qry_typ:P|lang:en|wc:4|cs:8905|v=4,False,George Town,Chennai,"Navarathna Complex, Kasi Chetty Lane, George Town, Chennai - 600079, Dist.Chennai, Tamil Nadu",8048371801,254
Baby Hair brush,,Anandi Sales Corporation\'s,https://www.indiamart.com/anandi-sales-corporation/?pos=105&kwd=baby brush and swab&tags=||||8601.347||product|||NA|rsf:gd-|-stype:attr=1|qr_nm:gd|res:RC3|com-cf:nl|ptrs:na|ktp:N0|mc:189958|mtp:S|qry_typ:P|lang:en|wc:4|cs:8905|v=4,False,Mansarovar,Jaipur,"House No. 80/222, Patel Marg, Madhyam Marg, Mansarovar, Jaipur - 302020, Dist.Jaipur, Rajasthan",8048371602,571
Baby Comb,,Ramdev Novelty Centre,https://www.indiamart.com/ramdev-novelty-centre/?pos=106&kwd=baby brush and swab&tags=||||8954.051||product|||NA|rsf:gd-|-stype:attr=1|qr_nm:gd|res:RC3|com-cf:nl|ptrs:na|ktp:N0|mc:189958|mtp:S|qry_typ:P|lang:en|wc:4|cs:8905|v=4,False,Kasi Chetty Street,Chennai,"No. 20/53, Kasi Chetty Street, 1st Floor, Kasi Chetty Street, Chennai - 600079, Dist.Chennai, Tamil Nadu",8048372571,672
greenbell-baby-hair-brush,,SPJ International,https://www.indiamart.com/spj-international/?pos=107&kwd=baby brush and swab&tags=||||9829.308||product|||NA|rsf:gd-|-stype:attr=1|qr_nm:gd|res:RC3|com-cf:nl|ptrs:na|ktp:N0|mc:189958|mtp:S|qry_typ:P|lang:en|wc:4|cs:8905|v=4,False,,Howrah,"29 Ballygunge Park Ballygunge Kolkata, Howrah - 700019, Dist.Howrah, West Bengal",8069013445,111
Aesthetic Hair Brush Comb,,Frenzyk,https://www.indiamart.com/frenzyk-new-delhi/?pos=108&kwd=baby brush and swab&tags=||||8752.144|Price|product|||NA|rsf:gd-|-stype:attr=1|qr_nm:gd|res:RC3|com-cf:nl|ptrs:na|ktp:N0|mc:189958|mtp:S|qry_typ:P|lang:en|wc:4|cs:8905|v=4,False,,New Delhi,"1/7530 Street No-12 East Gorakh Park, Shahdara East Delhi, New Delhi - 110032, Dist.Delhi, Delhi",8069857446,600
Frida Baby The 3-Step Cradle Cap System,,Bhejo Ecommerce Private Limited,https://www.indiamart.com/bhejo-ecommerce-private-limited/?pos=109&kwd=baby brush and swab&tags=||||8211.142|Price|product|||NA|rsf:gd-|-stype:attr=1|qr_nm:gd|res:RC3|com-cf:nl|ptrs:na|ktp:N0|mc:189958|mtp:S|qry_typ:P|lang:en|wc:4|cs:8905|v=4,False,,Mumbai,"Lotus House, Near Lathia Rubber Factoty, Off Andheri Kurla Rd, Sakinaka, Andheri East, Mumbai-72, Mumbai - 400072, Dist.Mumbai, Maharashtra",8069728299,702
Baby Hair Brush,,Maa N Mee,https://www.indiamart.com/maanmee-pune/?pos=110&kwd=baby brush and swab&tags=||||8307.81||product|||NA|rsf:gd-|-stype:attr=1|qr_nm:gd|res:RC3|com-cf:nl|ptrs:na|ktp:N0|mc:189958|mtp:S|qry_typ:P|lang:en|wc:4|cs:8905|v=4,False,Kharadi,Pune,"Majestic Plaza, Shop No. 2, Next To Columbia Asia Hospital, Kharadi, Pune - 411014, Dist.Pune, Maharashtra",8043840338,
Baby Hair Brush with Comb,,Flo-Rite Baby Products Pvt. Ltd.,https://www.indiamart.com/florite-baby-products/?pos=111&kwd=baby brush and swab&tags=||||8211.142||product|||NA|rsf:gd-|-stype:attr=1|qr_nm:gd|res:RC3|com-cf:nl|ptrs:na|ktp:N0|mc:189958|mtp:S|qry_typ:P|lang:en|wc:4|cs:8905|v=4,False,Bhandup West,Mumbai,"C-Wing, Gala No. 101/106, 1st Floor, Shiva Estate, Lake Road, Nr. Tata Power House, Bhandup (W), Bhandup West, Mumbai - 400078, Dist.Mumbai, Maharashtra",8043865984,
Samrat Baby Brush,,Jay Goga Marketing,https://www.indiamart.com/jay-goga-marketing-madurai/?pos=112&kwd=baby brush and swab&tags=||||8706.587|Price|product|||NA|rsf:gd-|-stype:attr=1|qr_nm:gd|res:RC3|com-cf:nl|ptrs:na|ktp:N0|mc:189958|mtp:S|qry_typ:P|lang:en|wc:4|cs:8905|v=4,False,madurai,Madurai,"munsali madurai, madurai, Madurai - 625001, Dist.Madurai, Tamil Nadu",8044017514,
"Blue Automatic Baby Nail Trimmer, Electric, 3-12 Months",https://www.indiamart.com/proddetail/automatic-baby-nail-trimmer-2853948136212.html?pos=113&kwd=baby brush and swab&tags=||||8230.883|Price|product|||TS|rsf:gd-|-stype:attr=1|qr_nm:gd|res:RC3|com-cf:nl|ptrs:na|ktp:N0|mc:189958|mtp:S|qry_typ:P|lang:en|wc:4|cs:8905|v=4,Manisha Enterprise,https://www.indiamart.com/manishaenterprisesurat/?pos=113&kwd=baby brush and swab&tags=||||8230.883|Price|product|||TS|rsf:gd-|-stype:attr=1|qr_nm:gd|res:RC3|com-cf:nl|ptrs:na|ktp:N0|mc:189958|mtp:S|qry_typ:P|lang:en|wc:4|cs:8905|v=4,False,Amroli,Surat,"GF C-75, Somnath Adarshnagar 1, Chprabhata Road, Amroli, Amroli, Surat - 394107, Dist.Surat, Gujarat",7949372906,
New Baby Nail File,https://www.indiamart.com/proddetail/new-baby-nail-file-2851620556688.html?pos=114&kwd=baby brush and swab&tags=||||8230.883|Price|product|||MDC|rsf:gd-|-stype:attr=1|qr_nm:gd|res:RC3|com-cf:nl|ptrs:na|ktp:N0|mc:189958|mtp:S|qry_typ:P|lang:en|wc:4|cs:8905|v=4,Bosig Mart,https://www.indiamart.com/bosigmart/?pos=114&kwd=baby brush and swab&tags=||||8230.883|Price|product|||MDC|rsf:gd-|-stype:attr=1|qr_nm:gd|res:RC3|com-cf:nl|ptrs:na|ktp:N0|mc:189958|mtp:S|qry_typ:P|lang:en|wc:4|cs:8905|v=4,False,Dabholi Village,Surat,"27, Hari Om Nagar Society, Jahangirpura, Dabholi Village, Surat - 395005, Dist.Surat, Gujarat",7942837519,
Baby Care Kit Set,https://www.indiamart.com/proddetail/baby-care-kit-set-2853670493055.html?pos=115&kwd=baby brush and swab&tags=||||8663.873|Price|product|||MDC|rsf:gd-|-stype:attr=1|qr_nm:gd|res:RC3|com-cf:nl|ptrs:na|ktp:N0|mc:189958|mtp:S|qry_typ:P|lang:en|wc:4|cs:8905|v=4,Nipika Vrapped Gifting,https://www.indiamart.com/nipika-vrapped-gifting/?pos=115&kwd=baby brush and swab&tags=||||8663.873|Price|product|||MDC|rsf:gd-|-stype:attr=1|qr_nm:gd|res:RC3|com-cf:nl|ptrs:na|ktp:N0|mc:189958|mtp:S|qry_typ:P|lang:en|wc:4|cs:8905|v=4,False,Bengaluru Urban,Bengaluru,"9/1, 23rd Cross Road, Magadi Road, KP Agrahara, Bengaluru Urban, Bengaluru - 560023, Dist.Bengaluru, Karnataka",7949328723,
"Baby Nail Clipper Kit - BLUE, For Babies",https://www.indiamart.com/proddetail/baby-nail-clipper-kit-blue-2852393642130.html?pos=116&kwd=baby brush and swab&tags=||||8752.144|Price|product|||TS|rsf:gd-|-stype:attr=1|qr_nm:gd|res:RC3|com-cf:nl|ptrs:na|ktp:N0|mc:189958|mtp:S|qry_typ:P|lang:en|wc:4|cs:8905|v=4,Ekta Overseas,https://www.indiamart.com/ektaoverseas-newdelhi/?pos=116&kwd=baby brush and swab&tags=||||8752.144|Price|product|||TS|rsf:gd-|-stype:attr=1|qr_nm:gd|res:RC3|com-cf:nl|ptrs:na|ktp:N0|mc:189958|mtp:S|qry_typ:P|lang:en|wc:4|cs:8905|v=4,False,Shahdara,New Delhi,"1/95, Gali No.3, Near Navjeevan Phisical Center, Vishwas Nagar, Shahdara,, Shahdara, New Delhi - 110032, Dist.Delhi, Delhi",7942628926,
"PINK Baby Healthcare and Grooming Kit, Packaging Type: Box, 3-12 Months",https://www.indiamart.com/proddetail/baby-healthcare-and-grooming-kit-2852059991391.html?pos=117&kwd=baby brush and swab&tags=||||8752.144|Price|product|||TS|rsf:gd-|-stype:attr=1|qr_nm:gd|res:RC3|com-cf:nl|ptrs:na|ktp:N0|mc:189958|mtp:S|qry_typ:P|lang:en|wc:4|cs:8905|v=4,Jainone Hub,https://www.indiamart.com/jainonehub/?pos=117&kwd=baby brush and swab&tags=||||8752.144|Price|product|||TS|rsf:gd-|-stype:attr=1|qr_nm:gd|res:RC3|com-cf:nl|ptrs:na|ktp:N0|mc:189958|mtp:S|qry_typ:P|lang:en|wc:4|cs:8905|v=4,False,Mandoli,New Delhi,"J- 8, Near Frooti Godown, Gali No. 4, Melaram Farm House Mandoli Sewadham Road, Mandoli, New Delhi - 110093, Dist.Delhi, Delhi",8048963941,
"Syga Pink Baby Healthcare Kit, Packaging Type: Box",https://www.indiamart.com/proddetail/baby-healthcare-kit-19811576730.html?pos=118&kwd=baby brush and swab&tags=||||8228.275|Price|product|||TS|rsf:gd-|-stype:attr=1|qr_nm:gd|res:RC3|com-cf:nl|ptrs:na|ktp:N0|mc:189958|mtp:S|qry_typ:P|lang:en|wc:4|cs:8905|v=4,Syga Home Furnishing,https://www.indiamart.com/sygahomefurnishing/?pos=118&kwd=baby brush and swab&tags=||||8228.275|Price|product|||TS|rsf:gd-|-stype:attr=1|qr_nm:gd|res:RC3|com-cf:nl|ptrs:na|ktp:N0|mc:189958|mtp:S|qry_typ:P|lang:en|wc:4|cs:8905|v=4,False,Navrangpura,Ahmedabad,"A-503, Samudra Complex, Near Girish Cold Drinks C. G. Road, Navrangpura, Navrangpura, Ahmedabad - 380009, Dist.Ahmedabad, Gujarat",8048985837,
"Electric Nail File Drill for Baby No Sharp Claws Hurt, 6 in 1 Safety Cutter Trimmer",https://www.indiamart.com/proddetail/electric-nail-file-drill-for-baby-no-sharp-claws-hurt-6-in-1-safety-cutter-trimmer-2854586333262.html?pos=119&kwd=baby brush and swab&tags=||||8230.883|Price|product|||MDC|rsf:gd-|-stype:attr=1|qr_nm:gd|res:RC3|com-cf:nl|ptrs:na|ktp:N0|mc:189958|mtp:S|qry_typ:P|lang:en|wc:4|cs:8905|v=4,Smile Baby - Online,https://www.indiamart.com/smile-baby-online/?pos=119&kwd=baby brush and swab&tags=||||8230.883|Price|product|||MDC|rsf:gd-|-stype:attr=1|qr_nm:gd|res:RC3|com-cf:nl|ptrs:na|ktp:N0|mc:189958|mtp:S|qry_typ:P|lang:en|wc:4|cs:8905|v=4,False,,Surat,"Plot-154 GR. FLR,SY NO-24/1, Suyog Nagar Society, Bhatar Road,Althan Tenement,, Surat - 395007, Dist.Surat, Gujarat",7949330383,
"10 PCS Baby Healthcare Grooming Kits, Packaging Type: Box",https://www.indiamart.com/proddetail/10-pcs-baby-healthcare-grooming-kits-2853224051212.html?pos=120&kwd=baby brush and swab&tags=||||8230.883|Price|product|||TS|rsf:gd-|-stype:attr=1|qr_nm:gd|res:RC3|com-cf:nl|ptrs:na|ktp:N0|mc:189958|mtp:S|qry_typ:P|lang:en|wc:4|cs:8905|v=4,Rozzby,https://www.cheaperzonetoys.com/?pos=120&kwd=baby brush and swab&tags=||||8230.883|Price|product|||TS|rsf:gd-|-stype:attr=1|qr_nm:gd|res:RC3|com-cf:nl|ptrs:na|ktp:N0|mc:189958|mtp:S|qry_typ:P|lang:en|wc:4|cs:8905|v=4,False,Kosam,Surat,"1st Floor D-2,103 Vip Circle Shlok Recidency Utran, Kosam, Surat - 394105, Dist.Surat, Gujarat",8047622002,
"Chicco Baby Moments Shampoo, Newly Born",https://www.indiamart.com/proddetail/chicco-baby-moments-shampoo-2854518091673.html?pos=121&kwd=baby brush and swab&tags=||||8661.854|Price|product|||MDC|rsf:gd-|-stype:attr=1|qr_nm:gd|res:RC3|com-cf:nl|ptrs:na|ktp:N0|mc:189958|mtp:S|qry_typ:P|lang:en|wc:4|cs:8905|v=4,Yashika Enterprises,https://www.indiamart.com/yashikaenterprisespunjab/?pos=121&kwd=baby brush and swab&tags=||||8661.854|Price|product|||MDC|rsf:gd-|-stype:attr=1|qr_nm:gd|res:RC3|com-cf:nl|ptrs:na|ktp:N0|mc:189958|mtp:S|qry_typ:P|lang:en|wc:4|cs:8905|v=4,False,,Ludhiana,"Backisde Luminous Battery Godown,10-A, Brinda Vihar, Haider Enclave, Ludhiana - 141008, Dist.Ludhiana, Punjab",7949324098,
Himalaya Baby Care Products,https://www.indiamart.com/proddetail/himalaya-baby-care-products-2849260304462.html?pos=122&kwd=baby brush and swab&tags=||||8211.142||product|||TS|rsf:gd-|-stype:attr=1|qr_nm:gd|res:RC3|com-cf:nl|ptrs:na|ktp:N0|mc:189958|mtp:S|qry_typ:P|lang:en|wc:4|cs:8905|v=4,Ennar Enterprises,https://www.indiamart.com/ennar-entp-mumbai/?pos=122&kwd=baby brush and swab&tags=||||8211.142||product|||TS|rsf:gd-|-stype:attr=1|qr_nm:gd|res:RC3|com-cf:nl|ptrs:na|ktp:N0|mc:189958|mtp:S|qry_typ:P|lang:en|wc:4|cs:8905|v=4,False,Masjid Bandar,Mumbai,"1st, M-101, Vardhaman Nagar, Dr R P Road, Masjid Bandar, Mumbai - 400080, Dist.Mumbai, Maharashtra",8046030904,
Baby care kit 10 pcs,https://www.indiamart.com/proddetail/baby-care-kit-10-pcs-2852052825373.html?pos=123&kwd=baby brush and swab&tags=||||8230.883|Price|product|||TS|rsf:gd-|-stype:attr=1|qr_nm:gd|res:RC3|com-cf:nl|ptrs:na|ktp:N0|mc:189958|mtp:S|qry_typ:P|lang:en|wc:4|cs:8905|v=4,Seaspirit(A Brand Of Spirit Enterprise),https://www.indiamart.com/spiritenterprisesurat/?pos=123&kwd=baby brush and swab&tags=||||8230.883|Price|product|||TS|rsf:gd-|-stype:attr=1|qr_nm:gd|res:RC3|com-cf:nl|ptrs:na|ktp:N0|mc:189958|mtp:S|qry_typ:P|lang:en|wc:4|cs:8905|v=4,False,Dabholi,Surat,"HOLIDAY GATE NO.1, Shop No.1 - HOLIDAY, OPP SHREENATHDWARA SOCIETY, B/S NEW DELUX MOTORS, NEAR CANCER HOSPITAL, Dabholi Road, KATARGAM, Dabholi, Surat - 395004, Dist.Surat, Gujarat",8046069933,
Multicolor Baby Care Kit Set,https://www.indiamart.com/proddetail/baby-care-kit-set-2853722732497.html?pos=124&kwd=baby brush and swab&tags=||||8230.883|Price|product|||TS|rsf:gd-|-stype:attr=1|qr_nm:gd|res:RC3|com-cf:nl|ptrs:na|ktp:N0|mc:189958|mtp:S|qry_typ:P|lang:en|wc:4|cs:8905|v=4,Indiab2btrade,https://www.indiab2btrade.com/?pos=124&kwd=baby brush and swab&tags=||||8230.883|Price|product|||TS|rsf:gd-|-stype:attr=1|qr_nm:gd|res:RC3|com-cf:nl|ptrs:na|ktp:N0|mc:189958|mtp:S|qry_typ:P|lang:en|wc:4|cs:8905|v=4,False,Mota Varachha,Surat,"Ground Floor, Shop No. F/22, Shivdhara Complex, L.P Savani School,Near To Maharaja Farm,, Mota Varachha, Surat - 394105, Dist.Surat, Gujarat",8043816125,
Newborn Baby Care Kits,https://www.indiamart.com/proddetail/newborn-baby-care-kits-2853148443512.html?pos=125&kwd=baby brush and swab&tags=||||8752.144|Price|product|||TS|rsf:gd-|-stype:attr=1|qr_nm:gd|res:RC3|com-cf:nl|ptrs:na|ktp:N0|mc:189958|mtp:S|qry_typ:P|lang:en|wc:4|cs:8905|v=4,Inquantity,https://www.indiamart.com/inquantity/?pos=125&kwd=baby brush and swab&tags=||||8752.144|Price|product|||TS|rsf:gd-|-stype:attr=1|qr_nm:gd|res:RC3|com-cf:nl|ptrs:na|ktp:N0|mc:189958|mtp:S|qry_typ:P|lang:en|wc:4|cs:8905|v=4,False,Shahdara,New Delhi,"1/6258, East Rohtash Nagar, Shahdara, Shahdara, New Delhi - 110032, Dist.Delhi, Delhi",8047620719,
"Multicolor 10 PCS Baby Care Kit, Packaging Type: Box",https://www.indiamart.com/proddetail/10-pcs-baby-care-kit-2853692995797.html?pos=126&kwd=baby brush and swab&tags=||||8230.883|Price|product|||TS|rsf:gd-|-stype:attr=1|qr_nm:gd|res:RC3|com-cf:nl|ptrs:na|ktp:N0|mc:189958|mtp:S|qry_typ:P|lang:en|wc:4|cs:8905|v=4,Valam Enterprise,https://www.valamenterprise.com/?pos=126&kwd=baby brush and swab&tags=||||8230.883|Price|product|||TS|rsf:gd-|-stype:attr=1|qr_nm:gd|res:RC3|com-cf:nl|ptrs:na|ktp:N0|mc:189958|mtp:S|qry_typ:P|lang:en|wc:4|cs:8905|v=4,False,Dabholi,Surat,"First Floor 37 Nr Bapa Sitaram Chowk Gopinath Society-3 Katargam, Dabholi, Surat - 395004, Dist.Surat, Gujarat",8046058398,
"AMARA IMPEX Multicolor Baby Grooming & Healthcare kit, 15 X 20 X 3 cm, 1-3 YEARS",https://www.indiamart.com/proddetail/baby-grooming-healthcare-kit-2852153349755.html?pos=127&kwd=baby brush and swab&tags=||||8230.883|Price|product|||TS|rsf:gd-|-stype:attr=1|qr_nm:gd|res:RC3|com-cf:nl|ptrs:na|ktp:N0|mc:189958|mtp:S|qry_typ:P|lang:en|wc:4|cs:8905|v=4,Amara Impex,https://www.amaraimpex.in/?pos=127&kwd=baby brush and swab&tags=||||8230.883|Price|product|||TS|rsf:gd-|-stype:attr=1|qr_nm:gd|res:RC3|com-cf:nl|ptrs:na|ktp:N0|mc:189958|mtp:S|qry_typ:P|lang:en|wc:4|cs:8905|v=4,False,Katargam,Surat,"148, Haridham Society, Amabatalavdi Road, Katargam,, Katargam, Surat - 395004, Dist.Surat, Gujarat",8048613226,
"Multicolor Newborn Baby Care Kits, Packaging Type: Box",https://www.indiamart.com/proddetail/newborn-baby-care-kits-2853692993855.html?pos=128&kwd=baby brush and swab&tags=||||8230.883|Price|product|||TS|rsf:gd-|-stype:attr=1|qr_nm:gd|res:RC3|com-cf:nl|ptrs:na|ktp:N0|mc:189958|mtp:S|qry_typ:P|lang:en|wc:4|cs:8905|v=4,Alpyog Marketing,https://www.alpyogmarketing.com/?pos=128&kwd=baby brush and swab&tags=||||8230.883|Price|product|||TS|rsf:gd-|-stype:attr=1|qr_nm:gd|res:RC3|com-cf:nl|ptrs:na|ktp:N0|mc:189958|mtp:S|qry_typ:P|lang:en|wc:4|cs:8905|v=4,False,Singanpor,Surat,"SY No,1-36, 1st Floor, Talav Falia, Rear Side, Post Siganpore, Katargam, Singanpor, Surat - 395004, Dist.Surat, Gujarat",8048968669,
BABY CARE KIT (6 PCS),https://www.indiamart.com/proddetail/baby-care-kit-6-pcs-2854894141073.html?pos=129&kwd=baby brush and swab&tags=||||8230.883|Price|product|||MDC|rsf:gd-|-stype:attr=1|qr_nm:gd|res:RC3|com-cf:nl|ptrs:na|ktp:N0|mc:189958|mtp:S|qry_typ:P|lang:en|wc:4|cs:8905|v=4,Balar Corporation,https://www.indiamart.com/balar-corporation/?pos=129&kwd=baby brush and swab&tags=||||8230.883|Price|product|||MDC|rsf:gd-|-stype:attr=1|qr_nm:gd|res:RC3|com-cf:nl|ptrs:na|ktp:N0|mc:189958|mtp:S|qry_typ:P|lang:en|wc:4|cs:8905|v=4,False,,Surat,"C-504, Rameshvaram Regency, Utran, Surat - 394105, Dist.Surat, Gujarat",8045734410,
"multy BABY CARE KIT 10 PCS, Packaging Type: Box",https://www.indiamart.com/proddetail/baby-care-kit-10-pcs-2853470434855.html?pos=130&kwd=baby brush and swab&tags=||||8230.883|Price|product|||MDC|rsf:gd-|-stype:attr=1|qr_nm:gd|res:RC3|com-cf:nl|ptrs:na|ktp:N0|mc:189958|mtp:S|qry_typ:P|lang:en|wc:4|cs:8905|v=4,Kitchenware Zone,https://www.indiamart.com/kitchenwarezone/?pos=130&kwd=baby brush and swab&tags=||||8230.883|Price|product|||MDC|rsf:gd-|-stype:attr=1|qr_nm:gd|res:RC3|com-cf:nl|ptrs:na|ktp:N0|mc:189958|mtp:S|qry_typ:P|lang:en|wc:4|cs:8905|v=4,False,Nana Varachha,Surat,"Ground Floor, Shop No.09, The Galleria, Yogi Chowk, Nana Varachha, Surat - 395010, Dist.Surat, Gujarat",7949222469,
"MIX BABY CARE KIT, Packaging Type: NEW",https://www.indiamart.com/proddetail/baby-care-kit-2854108643055.html?pos=131&kwd=baby brush and swab&tags=||||8211.142|Price|product|||TS|rsf:gd-|-stype:attr=1|qr_nm:gd|res:RC3|com-cf:nl|ptrs:na|ktp:N0|mc:189958|mtp:S|qry_typ:P|lang:en|wc:4|cs:8905|v=4,Sam Cart,https://www.indiamart.com/sam-cart/?pos=131&kwd=baby brush and swab&tags=||||8211.142|Price|product|||TS|rsf:gd-|-stype:attr=1|qr_nm:gd|res:RC3|com-cf:nl|ptrs:na|ktp:N0|mc:189958|mtp:S|qry_typ:P|lang:en|wc:4|cs:8905|v=4,False,Town Hall,Mumbai,"Ground Floor,18/19, 5,B, M, C Dormitory Building Saboo Siddik,Road, Musafir Khana Fort,, Town Hall, Mumbai - 400001, Dist.Mumbai, Maharashtra",8048609217,
Baby Care KIt,https://www.indiamart.com/proddetail/baby-care-kit-2854100604791.html?pos=132&kwd=baby brush and swab&tags=||||8211.142|Price|product|||TS|rsf:gd-|-stype:attr=1|qr_nm:gd|res:RC3|com-cf:nl|ptrs:na|ktp:N0|mc:189958|mtp:S|qry_typ:P|lang:en|wc:4|cs:8905|v=4,Sameer Collection,https://www.sameercollection.in/?pos=132&kwd=baby brush and swab&tags=||||8211.142|Price|product|||TS|rsf:gd-|-stype:attr=1|qr_nm:gd|res:RC3|com-cf:nl|ptrs:na|ktp:N0|mc:189958|mtp:S|qry_typ:P|lang:en|wc:4|cs:8905|v=4,False,Princess Dock,Mumbai,"A-1901, Ansari Heights, Umar Kokil Marg, Princess Dock, Mumbai - 400009, Dist.Mumbai, Maharashtra",8046070689,
Baby Care Kit,https://www.indiamart.com/proddetail/baby-care-kit-2854912657397.html?pos=133&kwd=baby brush and swab&tags=||||8230.883|Price|product|||MDC|rsf:gd-|-stype:attr=1|qr_nm:gd|res:RC3|com-cf:nl|ptrs:na|ktp:N0|mc:189958|mtp:S|qry_typ:P|lang:en|wc:4|cs:8905|v=4,SN Enterprise,https://www.indiamart.com/snenterprise-surat/?pos=133&kwd=baby brush and swab&tags=||||8230.883|Price|product|||MDC|rsf:gd-|-stype:attr=1|qr_nm:gd|res:RC3|com-cf:nl|ptrs:na|ktp:N0|mc:189958|mtp:S|qry_typ:P|lang:en|wc:4|cs:8905|v=4,False,,Surat,"Plot 130/131, 2nd Floor, Flat 201, Balaji Nagar SOC-1, Shri Siddhi Vinayak Place, Surat - 395004, Dist.Surat, Gujarat",8041015777,
"Baby Grooming Kit, 10Pcs Newborn Baby, Toddler, Kids Care Accessories Set, Portable",https://www.indiamart.com/proddetail/baby-grooming-kit-10pcs-newborn-baby-toddler-kids-care-accessories-set-portable-2854754680688.html?pos=134&kwd=baby brush and swab&tags=||||8230.883|Price|product|||MDC|rsf:gd-|-stype:attr=1|qr_nm:gd|res:RC3|com-cf:nl|ptrs:na|ktp:N0|mc:189958|mtp:S|qry_typ:P|lang:en|wc:4|cs:8905|v=4,P G Impex,https://www.indiamart.com/pg-impex-surat/?pos=134&kwd=baby brush and swab&tags=||||8230.883|Price|product|||MDC|rsf:gd-|-stype:attr=1|qr_nm:gd|res:RC3|com-cf:nl|ptrs:na|ktp:N0|mc:189958|mtp:S|qry_typ:P|lang:en|wc:4|cs:8905|v=4,False,,Surat,"3rd Floor, 304, Sarjan Residency Wing-A, Sunganpor Road, Katargam, Surat - 395004, Dist.Surat, Gujarat",7949322822,
Ethylene Vinyl Acetate (EVA) 0 To 3 Adjustable Safe Soft Bathing Baby Shower Cap,https://www.indiamart.com/proddetail/adjustable-safe-soft-bathing-baby-shower-cap-2851645819091.html?pos=135&kwd=baby brush and swab&tags=||||8230.883|Price|product|||TS|rsf:gd-|-stype:attr=1|qr_nm:gd|res:RC3|com-cf:nl|ptrs:na|ktp:N0|mc:189958|mtp:S|qry_typ:P|lang:en|wc:4|cs:8905|v=4,RJ Enterprise,https://www.indiamart.com/rj-enterprise-surat/?pos=135&kwd=baby brush and swab&tags=||||8230.883|Price|product|||TS|rsf:gd-|-stype:attr=1|qr_nm:gd|res:RC3|com-cf:nl|ptrs:na|ktp:N0|mc:189958|mtp:S|qry_typ:P|lang:en|wc:4|cs:8905|v=4,False,Katargam,Surat,"134, Sahjanand Society, N/R Arogyakendra, Katargam, Katargam, Surat - 395004, Dist.Surat, Gujarat",7942555306,
"Strawberry Kids Tooth Paste, Packaging Type: Tube, 1-2 Years",https://www.indiamart.com/proddetail/strawberry-kids-tooth-paste-24761067188.html?pos=136&kwd=baby brush and swab&tags=||||8228.275|Price|product|||TS|rsf:gd-|-stype:attr=1|qr_nm:gd|res:RC3|com-cf:nl|ptrs:na|ktp:N0|mc:189958|mtp:S|qry_typ:P|lang:en|wc:4|cs:8905|v=4,Hcp Wellness Private Limited,https://www.cosmeticmanufacturers.com/?pos=136&kwd=baby brush and swab&tags=||||8228.275|Price|product|||TS|rsf:gd-|-stype:attr=1|qr_nm:gd|res:RC3|com-cf:nl|ptrs:na|ktp:N0|mc:189958|mtp:S|qry_typ:P|lang:en|wc:4|cs:8905|v=4,False,Thaltej,Ahmedabad,"403 Opp. Global Hospital, Sindhubhavan Road, Bodakdev Elanza Vertex Sindhu Bhavan Road, S. G. Highway, Thaltej, Ahmedabad - 380059, Dist.Ahmedabad, Gujarat",8048980123,
"THE FLORABLE Baby Healthcare kit, Medium",https://www.indiamart.com/proddetail/baby-healthcare-kit-25871987497.html?pos=137&kwd=baby brush and swab&tags=||||8230.883|Price|product|||TS|rsf:gd-|-stype:attr=1|qr_nm:gd|res:RC3|com-cf:nl|ptrs:na|ktp:N0|mc:189958|mtp:S|qry_typ:P|lang:en|wc:4|cs:8905|v=4,The Florable,https://www.indiamart.com/theflorable/?pos=137&kwd=baby brush and swab&tags=||||8230.883|Price|product|||TS|rsf:gd-|-stype:attr=1|qr_nm:gd|res:RC3|com-cf:nl|ptrs:na|ktp:N0|mc:189958|mtp:S|qry_typ:P|lang:en|wc:4|cs:8905|v=4,False,Archana Society,Surat,"GR Floor, SY No-54, Plot-New-47, Old-49, Archana Society, Surat - 395004, Dist.Surat, Gujarat",8046057332,
Blue Baby Nail Trimmer,https://www.indiamart.com/proddetail/blue-baby-nail-trimmer-2854774035062.html?pos=138&kwd=baby brush and swab&tags=||||8230.883|Price|proxy|||TS|rsf:gd-|-stype:attr=1|qr_nm:gd|res:RC3|com-cf:nl|ptrs:na|ktp:N0|mc:189958|mtp:S|qry_typ:P|lang:en|wc:4|cs:8905|v=4,Dass Enterprise,https://www.indiamart.com/dassenterprise/?pos=138&kwd=baby brush and swab&tags=||||8230.883|Price|proxy|||TS|rsf:gd-|-stype:attr=1|qr_nm:gd|res:RC3|com-cf:nl|ptrs:na|ktp:N0|mc:189958|mtp:S|qry_typ:P|lang:en|wc:4|cs:8905|v=4,False,,Surat,"First Floor Shop No-111 Yogi Chowk The Galleria, Surat - 395010, Dist.Surat, Gujarat",7949340419,
EVA White Folding Baby Play Mat,https://www.indiamart.com/proddetail/folding-baby-play-mat-2849081629073.html?pos=139&kwd=baby brush and swab&tags=||||8230.883|Price|proxy|||TS|rsf:gd-|-stype:attr=1|qr_nm:gd|res:RC3|com-cf:nl|ptrs:na|ktp:N0|mc:189958|mtp:S|qry_typ:P|lang:en|wc:4|cs:8905|v=4,Homeza Sales,https://www.homezasales.com/?pos=139&kwd=baby brush and swab&tags=||||8230.883|Price|proxy|||TS|rsf:gd-|-stype:attr=1|qr_nm:gd|res:RC3|com-cf:nl|ptrs:na|ktp:N0|mc:189958|mtp:S|qry_typ:P|lang:en|wc:4|cs:8905|v=4,False,Katargam,Surat,"Plot No-A/22, Ground Floor, Madhav Park Society, Singanpore Char Rasta, Ved Road,, Katargam, Surat - 395004, Dist.Surat, Gujarat",8047656895,
Baby Care Products,https://www.indiamart.com/proddetail/baby-care-products-9350455048.html?pos=140&kwd=baby brush and swab&tags=||||8752.144||product|||NA|rsf:gd-|-stype:attr=1|qr_nm:gd|res:RC3|com-cf:nl|ptrs:na|ktp:N0|mc:189958|mtp:S|qry_typ:P|lang:en|wc:4|cs:8905|v=4,Jai Healthcare Private Limited,https://www.indiamart.com/jai-healthcare/?pos=140&kwd=baby brush and swab&tags=||||8752.144||product|||NA|rsf:gd-|-stype:attr=1|qr_nm:gd|res:RC3|com-cf:nl|ptrs:na|ktp:N0|mc:189958|mtp:S|qry_typ:P|lang:en|wc:4|cs:8905|v=4,False,Budh Vihar,New Delhi,"I - 26 , Budh Vihar , Phase - Ii , Sharma Colony , New Delhi, Budh Vihar, New Delhi - 110086, Dist.Delhi, Delhi",8048361377,880
"Multicolor Baby Nail Cutter, For Child",https://www.indiamart.com/proddetail/baby-nail-cutter-27437190273.html?pos=141&kwd=baby brush and swab&tags=||||8230.883|Price|proxy|||TS|rsf:gd-|-stype:attr=1|qr_nm:gd|res:RC3|com-cf:nl|ptrs:na|ktp:N0|mc:189958|mtp:S|qry_typ:P|lang:en|wc:4|cs:8905|v=4,Isabella (A Brand Of Shayona Creation),https://www.srkmart.com/?pos=141&kwd=baby brush and swab&tags=||||8230.883|Price|proxy|||TS|rsf:gd-|-stype:attr=1|qr_nm:gd|res:RC3|com-cf:nl|ptrs:na|ktp:N0|mc:189958|mtp:S|qry_typ:P|lang:en|wc:4|cs:8905|v=4,False,Utran,Surat,"208, Turning Point Near Bank Of Baroda Bank, Utran, Surat - 394105, Dist.Surat, Gujarat",8046057635,
PVA 3-12 Months Adjustable Baby Shower Cap,https://www.indiamart.com/proddetail/adjustable-baby-shower-cap-24341455655.html?pos=142&kwd=baby brush and swab&tags=||||8559.269|Price|proxy|||MDC|rsf:gd-|-stype:attr=1|qr_nm:gd|res:RC3|com-cf:nl|ptrs:na|ktp:N0|mc:189958|mtp:S|qry_typ:P|lang:en|wc:4|cs:8905|v=4,RV Enterprises,https://www.indiamart.com/rventerprises-indore/?pos=142&kwd=baby brush and swab&tags=||||8559.269|Price|proxy|||MDC|rsf:gd-|-stype:attr=1|qr_nm:gd|res:RC3|com-cf:nl|ptrs:na|ktp:N0|mc:189958|mtp:S|qry_typ:P|lang:en|wc:4|cs:8905|v=4,False,,Indore,"1089, Sudama Nagar, Indore - 452009, Dist.Indore, Madhya Pradesh",8047826026,
Mee Mee Baby Shampoo,https://www.indiamart.com/proddetail/mee-mee-baby-shampoo-2853350259562.html?pos=143&kwd=baby brush and swab&tags=||||8954.051|Price|product|||NA|rsf:gd-|-stype:attr=1|qr_nm:gd|res:RC3|com-cf:nl|ptrs:na|ktp:N0|mc:189958|mtp:S|qry_typ:P|lang:en|wc:4|cs:8905|v=4,K Enterprises,https://www.indiamart.com/k-enterpriseschennai/?pos=143&kwd=baby brush and swab&tags=||||8954.051|Price|product|||NA|rsf:gd-|-stype:attr=1|qr_nm:gd|res:RC3|com-cf:nl|ptrs:na|ktp:N0|mc:189958|mtp:S|qry_typ:P|lang:en|wc:4|cs:8905|v=4,False,,Chennai,"New No 42,Old No 65,Gandhi Street,West Mambalam,Chennai,Chennai, Chennai - 600033, Dist.Chennai, Tamil Nadu",7942638362,
Mee Mee Baby Care Products,https://www.indiamart.com/proddetail/mee-mee-baby-care-products-14458246962.html?pos=144&kwd=baby brush and swab&tags=||||8500.97|Price|product|||NA|rsf:gd-|-stype:attr=1|qr_nm:gd|res:RC3|com-cf:nl|ptrs:na|ktp:N0|mc:189958|mtp:S|qry_typ:P|lang:en|wc:4|cs:8905|v=4,BGC Enterprises,https://www.indiamart.com/bgc-enterprises/?pos=144&kwd=baby brush and swab&tags=||||8500.97|Price|product|||NA|rsf:gd-|-stype:attr=1|qr_nm:gd|res:RC3|com-cf:nl|ptrs:na|ktp:N0|mc:189958|mtp:S|qry_typ:P|lang:en|wc:4|cs:8905|v=4,False,Ikkandawarier Road,Thrissur,",8/308/1,IKKANDA WARRIER ROAD,,THRISSUR,,Thrissur,Kerala, Ikkandawarier Road, Thrissur - 680005, Dist.Thrissur, Kerala",8047694379,
BABY CARE KIT 10 PCS,https://www.indiamart.com/proddetail/baby-care-kit-10-pcs-2854996946233.html?pos=145&kwd=baby brush and swab&tags=||||8230.883|Price|product|||NA|rsf:gd-|-stype:attr=1|qr_nm:gd|res:RC3|com-cf:nl|ptrs:na|ktp:N0|mc:189958|mtp:S|qry_typ:P|lang:en|wc:4|cs:8905|v=4,Ucrow Textile,https://www.indiamart.com/ucrow-textile/?pos=145&kwd=baby brush and swab&tags=||||8230.883|Price|product|||NA|rsf:gd-|-stype:attr=1|qr_nm:gd|res:RC3|com-cf:nl|ptrs:na|ktp:N0|mc:189958|mtp:S|qry_typ:P|lang:en|wc:4|cs:8905|v=4,False,,Surat,"Ground Floor, Plot No.4305/3, 4 No Road, Sachin Gidc, Surat - 394230, Dist.Surat, Gujarat",8048249738,7535
Safety 1st Baby Healthcare Grooming Kit,https://www.indiamart.com/proddetail/baby-healthcare-grooming-kit-21087144188.html?pos=146&kwd=baby brush and swab&tags=||||8752.144|Price|product|||NA|rsf:gd-|-stype:attr=1|qr_nm:gd|res:RC3|com-cf:nl|ptrs:na|ktp:N0|mc:189958|mtp:S|qry_typ:P|lang:en|wc:4|cs:8905|v=4,Satguru Traders,https://www.indiamart.com/shopuskart/?pos=146&kwd=baby brush and swab&tags=||||8752.144|Price|product|||NA|rsf:gd-|-stype:attr=1|qr_nm:gd|res:RC3|com-cf:nl|ptrs:na|ktp:N0|mc:189958|mtp:S|qry_typ:P|lang:en|wc:4|cs:8905|v=4,False,,New Delhi,"B 617, B Block, Jahangir Puri, New Delhi - 110033, Dist.Delhi, Delhi",8048249780,5591
"Profecto Pink Baby Nail Cutter Kit, 3-12 Months",https://www.indiamart.com/proddetail/baby-nail-cutter-kit-2853239739662.html?pos=147&kwd=baby brush and swab&tags=||||8752.144|Price|product|||NA|rsf:gd-|-stype:attr=1|qr_nm:gd|res:RC3|com-cf:nl|ptrs:na|ktp:N0|mc:189958|mtp:S|qry_typ:P|lang:en|wc:4|cs:8905|v=4,Badal Trading Enterprises,https://www.indiamart.com/badaltradingenterprises/?pos=147&kwd=baby brush and swab&tags=||||8752.144|Price|product|||NA|rsf:gd-|-stype:attr=1|qr_nm:gd|res:RC3|com-cf:nl|ptrs:na|ktp:N0|mc:189958|mtp:S|qry_typ:P|lang:en|wc:4|cs:8905|v=4,False,Tilak Nagar,New Delhi,"Ground Floor, Shop At 16/32, Prakash Shopping Complex, Tilak Nagar, West, Tilak Nagar, New Delhi - 110018, Dist.Delhi, Delhi",7949095301,
"Blue,Pink BABY CARE KIT 10 PCS, Packaging Type: Box",https://www.indiamart.com/proddetail/baby-care-kit-10-pcs-2854068829955.html?pos=148&kwd=baby brush and swab&tags=||||8230.883|Price|product|||NA|rsf:gd-|-stype:attr=1|qr_nm:gd|res:RC3|com-cf:nl|ptrs:na|ktp:N0|mc:189958|mtp:S|qry_typ:P|lang:en|wc:4|cs:8905|v=4,Professor Enterprises,https://www.indiamart.com/professor-enterprises-surat/?pos=148&kwd=baby brush and swab&tags=||||8230.883|Price|product|||NA|rsf:gd-|-stype:attr=1|qr_nm:gd|res:RC3|com-cf:nl|ptrs:na|ktp:N0|mc:189958|mtp:S|qry_typ:P|lang:en|wc:4|cs:8905|v=4,False,,Surat,"Gr Floor Pl 157 Shop Sayan Road Shrushti Row House V-2 Kosad Surat, Surat - 394107, Dist.Surat, Gujarat",8041012884,
"Multicolor Baby Nail Trimmer, 0-5 YEARS",https://www.indiamart.com/proddetail/baby-nail-trimmer-2850353852030.html?pos=149&kwd=baby brush and swab&tags=||||8230.883|Price|product|||NA|rsf:gd-|-stype:attr=1|qr_nm:gd|res:RC3|com-cf:nl|ptrs:na|ktp:N0|mc:189958|mtp:S|qry_typ:P|lang:en|wc:4|cs:8905|v=4,Indosellers,https://www.indiamart.com/indosellers/?pos=149&kwd=baby brush and swab&tags=||||8230.883|Price|product|||NA|rsf:gd-|-stype:attr=1|qr_nm:gd|res:RC3|com-cf:nl|ptrs:na|ktp:N0|mc:189958|mtp:S|qry_typ:P|lang:en|wc:4|cs:8905|v=4,False,Katargam,Surat,"A/158, Shiv Chhaya Soc, B/H Akhand Anand College, Ved Road, Katargam, Surat - 395004, Dist.Surat, Gujarat",7942817925,
1-2 Years Babies Grooming Kit,https://www.indiamart.com/proddetail/babies-grooming-kit-21966517273.html?pos=150&kwd=baby brush and swab&tags=||||8413.825|Price|product|||NA|rsf:gd-|-stype:attr=1|qr_nm:gd|res:RC3|com-cf:nl|ptrs:na|ktp:N0|mc:189958|mtp:S|qry_typ:P|lang:en|wc:4|cs:8905|v=4,Tot'S Trunk,https://www.indiamart.com/tot-strunk-private-limited/?pos=150&kwd=baby brush and swab&tags=||||8413.825|Price|product|||NA|rsf:gd-|-stype:attr=1|qr_nm:gd|res:RC3|com-cf:nl|ptrs:na|ktp:N0|mc:189958|mtp:S|qry_typ:P|lang:en|wc:4|cs:8905|v=4,False,,Hubli,"Navanagar Road, Hubli - 580025, Dist.Dharwad, Karnataka",8048371754,172
Baby Bath Towel,https://www.indiamart.com/proddetail/baby-bath-towel-20864762048.html?pos=151&kwd=baby brush and swab&tags=||||8663.873|Price|product|||NA|rsf:gd-|-stype:attr=1|qr_nm:gd|res:RC3|com-cf:nl|ptrs:na|ktp:N0|mc:189958|mtp:S|qry_typ:P|lang:en|wc:4|cs:8905|v=4,M.M. Marketing,https://www.indiamart.com/m-mmarketing/?pos=151&kwd=baby brush and swab&tags=||||8663.873|Price|product|||NA|rsf:gd-|-stype:attr=1|qr_nm:gd|res:RC3|com-cf:nl|ptrs:na|ktp:N0|mc:189958|mtp:S|qry_typ:P|lang:en|wc:4|cs:8905|v=4,False,Chickpet,Bengaluru,"No. 17, 1st Floor, 12th Cross, Cubbonpet, Chickpet, Bengaluru - 560002, Dist.Bengaluru, Karnataka",8047677597,
Baby Face Towel,,Kitty Kids Department Store,https://www.indiamart.com/kittykids-departmental-store/?pos=152&kwd=baby brush and swab&tags=||||8211.142||product|||NA|rsf:gd-|-stype:attr=1|qr_nm:gd|res:RC3|com-cf:nl|ptrs:na|ktp:N0|mc:189958|mtp:S|qry_typ:P|lang:en|wc:4|cs:8905|v=4,False,Ghatkopar West,Mumbai,"No. 12, Ground Floor, Sanghavi Square, Opposite Bank Of Baroda, M.G. Road, Ghatkopar West, Mumbai - 400086, Dist.Mumbai, Maharashtra",8048247119,9285
