product_title,product_link,company_name,company_link,is_verified_exporter,city_region,city,address_details,phone_number,phone_number_extension
Pavlik Harness (Flamingo),https://www.indiamart.com/proddetail/pavlik-harness-flamingo-26246597233.html?pos=1&kwd=baby harness&tags=A||||8752.144|Price|product|||TS|rsf:gd-|-stype:attr=1|qr_nm:gd|res:RC3|com-cf:nl|ptrs:na|ktp:N0|mc:45613|mtp:S|qry_typ:P|lang:en|wc:2|flavl:0|cs:9597|v=4,Garg International,https://www.indiamart.com/garginternational/?pos=1&kwd=baby harness&tags=A||||8752.144|Price|product|||TS|rsf:gd-|-stype:attr=1|qr_nm:gd|res:RC3|com-cf:nl|ptrs:na|ktp:N0|mc:45613|mtp:S|qry_typ:P|lang:en|wc:2|flavl:0|cs:9597|v=4,True,MOB - 931-3833-111,New Delhi,"Plot No. 448, Patparganj Industrial Area, MOB - 931-3833-111, New Delhi - 110092, Dist.Delhi, Delhi",8046041447,
Orange And Blue Polyester Pseudo Baby Walking Belt Walker Harness,https://www.indiamart.com/proddetail/pseudo-baby-belt-walker-harness-2855005749255.html?pos=2&kwd=baby harness&tags=A||||8752.144|Price|product|||MDC|rsf:gd-|-stype:attr=1|qr_nm:gd|res:RC3|com-cf:nl|ptrs:na|ktp:N0|mc:45613|mtp:S|qry_typ:P|lang:en|wc:2|flavl:0|cs:9597|v=4,Dealsup,https://www.indiamart.com/dealsup-north-delhi/?pos=2&kwd=baby harness&tags=A||||8752.144|Price|product|||MDC|rsf:gd-|-stype:attr=1|qr_nm:gd|res:RC3|com-cf:nl|ptrs:na|ktp:N0|mc:45613|mtp:S|qry_typ:P|lang:en|wc:2|flavl:0|cs:9597|v=4,False,,New Delhi,"Kamal Pur Majra, Khasra No. 7/14, Kamal Vihar, Village Burari North Delhi, New Delhi - 110084, Dist.Delhi, Delhi",7942532252,
"White Soft Fabric Pavlik Harness, Packaging Type: Box",https://www.indiamart.com/proddetail/pavlik-harness-2851662304788.html?pos=3&kwd=baby harness&tags=BA||||8628.45|Price|product|||MDC|rsf:gd-|-stype:attr=1|qr_nm:gd|res:RC3|com-cf:nl|ptrs:na|ktp:N0|mc:45613|mtp:S|qry_typ:P|lang:en|wc:2|flavl:0|cs:9597|v=4,Esha Prosthetics And Orthotics,https://www.indiamart.com/eshaprosthetics-orthotics/?pos=3&kwd=baby harness&tags=BA||||8628.45|Price|product|||MDC|rsf:gd-|-stype:attr=1|qr_nm:gd|res:RC3|com-cf:nl|ptrs:na|ktp:N0|mc:45613|mtp:S|qry_typ:P|lang:en|wc:2|flavl:0|cs:9597|v=4,False,Ramanagara,Ramanagara,"No 58 Ward No 2 Vijayanagar, Ramanagara, Ramanagara - 562159, Dist.Ramanagar, Karnataka",7942834879,
"Red Soft Fabric Baby Harness, 3-12 Months",https://www.indiamart.com/proddetail/baby-harness-27123796755.html?pos=4&kwd=baby harness&tags=BA||||8752.144|Price|product|||TS|rsf:gd-|-stype:attr=1|qr_nm:gd|res:RC3|com-cf:nl|ptrs:na|ktp:N0|mc:45613|mtp:S|qry_typ:P|lang:en|wc:2|flavl:0|cs:9597|v=4,Bankey Bihari Enterprises,https://www.indiamart.com/bankey-bihari-enterprisesnewdelhi/?pos=4&kwd=baby harness&tags=BA||||8752.144|Price|product|||TS|rsf:gd-|-stype:attr=1|qr_nm:gd|res:RC3|com-cf:nl|ptrs:na|ktp:N0|mc:45613|mtp:S|qry_typ:P|lang:en|wc:2|flavl:0|cs:9597|v=4,False,Jahangirpuri,New Delhi,"Plot No 51 First Floor Street No 11 Harijan Colony Village Bhalsva, Jahangirpuri, New Delhi - 110033, Dist.Delhi, Delhi",7942825166,
"Multicolor Polyester Tallin Baby Safety Seat Strap, Baby Harness Belt for Toddler Feeding, Packaging Type: Bag, 3-12 Months",https://www.indiamart.com/proddetail/tallin-baby-safety-seat-strap-baby-harness-belt-for-toddler-feeding-2852046718073.html?pos=5&kwd=baby harness&tags=BA||||8230.883|Price|product|||TS|rsf:gd-|-stype:attr=1|qr_nm:gd|res:RC3|com-cf:nl|ptrs:na|ktp:N0|mc:45613|mtp:S|qry_typ:P|lang:en|wc:2|flavl:0|cs:9597|v=4,Tallin Sales,https://www.indiamart.com/tallin-sales/?pos=5&kwd=baby harness&tags=BA||||8230.883|Price|product|||TS|rsf:gd-|-stype:attr=1|qr_nm:gd|res:RC3|com-cf:nl|ptrs:na|ktp:N0|mc:45613|mtp:S|qry_typ:P|lang:en|wc:2|flavl:0|cs:9597|v=4,False,Singanpor,Surat,"Lakshmi Enclave Basement near Gajera School, Singanpor, Surat - 395004, Dist.Surat, Gujarat",7942542891,
Pavlik Harness,https://www.indiamart.com/proddetail/pavlik-harness-12901573791.html?pos=6&kwd=baby harness&tags=BA||||8786.56||product|||TS|rsf:gd-|-stype:attr=1|qr_nm:gd|res:RC3|com-cf:nl|ptrs:na|ktp:N0|mc:45613|mtp:S|qry_typ:P|lang:en|wc:2|flavl:0|cs:9597|v=4,Ortho India,https://www.indiamart.com/orthoindia/?pos=6&kwd=baby harness&tags=BA||||8786.56||product|||TS|rsf:gd-|-stype:attr=1|qr_nm:gd|res:RC3|com-cf:nl|ptrs:na|ktp:N0|mc:45613|mtp:S|qry_typ:P|lang:en|wc:2|flavl:0|cs:9597|v=4,False,Adikmet,Hyderabad,"Space Times, Maurya Towers, No. 1-9-648, LG-2, Vidyanagar, Adikmet, Hyderabad - 500044, Dist.Hyderabad, Telangana",8048953898,
Gray & Black Neoprene Pelvic Harness,https://www.indiamart.com/proddetail/neoprene-pelvic-harness-22463781212.html?pos=7&kwd=baby harness&tags=BA||||8723.301|Price|product|||TS|rsf:gd-|-stype:attr=1|qr_nm:gd|res:RC3|com-cf:nl|ptrs:na|ktp:N0|mc:45613|mtp:S|qry_typ:P|lang:en|wc:2|flavl:0|cs:9597|v=4,In Motion Prosthetic & Orthotic,https://www.inmotionprosthetic.com/?pos=7&kwd=baby harness&tags=BA||||8723.301|Price|product|||TS|rsf:gd-|-stype:attr=1|qr_nm:gd|res:RC3|com-cf:nl|ptrs:na|ktp:N0|mc:45613|mtp:S|qry_typ:P|lang:en|wc:2|flavl:0|cs:9597|v=4,False,Arera Colony,Bhopal,"1/64/e-6, Sai Board, Arera Colony, Arera Colony, Bhopal - 462016, Dist.Bhopal, Madhya Pradesh",8046054782,
"Inspire Life Polyester Pavelik Harness belt, Size: Small",https://www.indiamart.com/proddetail/pavelik-harness-belt-22631716748.html?pos=8&kwd=baby harness&tags=BA||||8786.56|Price|product|||TS|rsf:gd-|-stype:attr=1|qr_nm:gd|res:RC3|com-cf:nl|ptrs:na|ktp:N0|mc:45613|mtp:S|qry_typ:P|lang:en|wc:2|flavl:0|cs:9597|v=4,Inspire Life Prosthetics & Orthotics LLP,https://www.inspirelifepando.com/?pos=8&kwd=baby harness&tags=BA||||8786.56|Price|product|||TS|rsf:gd-|-stype:attr=1|qr_nm:gd|res:RC3|com-cf:nl|ptrs:na|ktp:N0|mc:45613|mtp:S|qry_typ:P|lang:en|wc:2|flavl:0|cs:9597|v=4,False,West Marredpally,Hyderabad,"H No 5-15-130,Plot No-23, New SBH Colony, West Marredpally New SBH Colony, West Marredpally, Hyderabad - 500026, Dist.Hyderabad, Telangana",8046051582,
white latex free Pavlik Harness/ hip upduction brce,https://www.indiamart.com/proddetail/pavlik-harness-hip-upduction-brce-8971279748.html?pos=9&kwd=baby harness&tags=BB||||8752.144|Price|product|||TS|rsf:gd-|-stype:attr=1|qr_nm:gd|res:RC3|com-cf:nl|ptrs:na|ktp:N0|mc:45613|mtp:S|qry_typ:P|lang:en|wc:2|flavl:0|cs:9597|v=4,Bornlife Prosthetic And Orthotic Inc.,https://www.bornlife.co.in/?pos=9&kwd=baby harness&tags=BB||||8752.144|Price|product|||TS|rsf:gd-|-stype:attr=1|qr_nm:gd|res:RC3|com-cf:nl|ptrs:na|ktp:N0|mc:45613|mtp:S|qry_typ:P|lang:en|wc:2|flavl:0|cs:9597|v=4,False,Lajpat Nagar,New Delhi,"H-2, Lajpat Nagar, Part 1 Near Gurudwara, Lajpat Nagar, New Delhi - 110024, Dist.Delhi, Delhi",8046068665,
"Red Soft Fabric Pavlik Harness, Packaging Type: Box, 3-12 Months",https://www.indiamart.com/proddetail/pavlik-harness-24638367655.html?pos=10&kwd=baby harness&tags=BA||||8876.815|Price|product|||TS|rsf:gd-|-stype:attr=1|qr_nm:gd|res:RC3|com-cf:nl|ptrs:na|ktp:N0|mc:45613|mtp:S|qry_typ:P|lang:en|wc:2|flavl:0|cs:9597|v=4,Altior Healthcare (OPC) Private Limited,https://www.altiorhealthcare.in/?pos=10&kwd=baby harness&tags=BA||||8876.815|Price|product|||TS|rsf:gd-|-stype:attr=1|qr_nm:gd|res:RC3|com-cf:nl|ptrs:na|ktp:N0|mc:45613|mtp:S|qry_typ:P|lang:en|wc:2|flavl:0|cs:9597|v=4,False,Vivekanand Nagar,Nagpur,"House No 36, Hindustan Colony, Wardha Road, Vivekanand Nagar, Nagpur - 440015, Dist.Nagpur, Maharashtra",7942545035,
Orange Cotton Baby Walking Harness,https://www.indiamart.com/proddetail/baby-walking-harness-2853522961155.html?pos=11&kwd=baby harness&tags=BA||||8752.144|Price|product|||MDC|rsf:gd-|-stype:attr=1|qr_nm:gd|res:RC3|com-cf:nl|ptrs:na|ktp:N0|mc:45613|mtp:S|qry_typ:P|lang:en|wc:2|flavl:0|cs:9597|v=4,Santosh Enterprises,https://www.indiamart.com/santosh-enterprises-delhiindia/?pos=11&kwd=baby harness&tags=BA||||8752.144|Price|product|||MDC|rsf:gd-|-stype:attr=1|qr_nm:gd|res:RC3|com-cf:nl|ptrs:na|ktp:N0|mc:45613|mtp:S|qry_typ:P|lang:en|wc:2|flavl:0|cs:9597|v=4,False,North Delhi,New Delhi,"Ground Floor A 44 Khera Garhi Colony Gali No 01, North Delhi, New Delhi - 110082, Dist.Delhi, Delhi",8047837949,
Orange and Blue Polyester Toddler Walking Training Belt Infant Jumper Harness,https://www.indiamart.com/proddetail/toddler-walking-training-belt-infant-jumper-harness-2854468027255.html?pos=12&kwd=baby harness&tags=BA||||8752.144|Price|product|||MDC|rsf:gd-|-stype:attr=1|qr_nm:gd|res:RC3|com-cf:nl|ptrs:na|ktp:N0|mc:45613|mtp:S|qry_typ:P|lang:en|wc:2|flavl:0|cs:9597|v=4,R K Enterprises,https://www.indiamart.com/r-kenterprisesnorthnewdelhi/?pos=12&kwd=baby harness&tags=BA||||8752.144|Price|product|||MDC|rsf:gd-|-stype:attr=1|qr_nm:gd|res:RC3|com-cf:nl|ptrs:na|ktp:N0|mc:45613|mtp:S|qry_typ:P|lang:en|wc:2|flavl:0|cs:9597|v=4,False,North Delhi,New Delhi,"House No-235, Yadav Nagar, Block-E, Samaypur, North Delhi, New Delhi - 110042, Dist.Delhi, Delhi",7949337344,
Baby Walking Harness,https://www.indiamart.com/proddetail/baby-walking-harness-23513681430.html?pos=13&kwd=baby harness&tags=BB||||8752.144||product|||NA|rsf:gd-|-stype:attr=1|qr_nm:gd|res:RC3|com-cf:nl|ptrs:na|ktp:N0|mc:45613|mtp:S|qry_typ:P|lang:en|wc:2|flavl:0|cs:9597|v=4,Alfora Impex,https://www.indiamart.com/parulenterprisesdelhi/?pos=13&kwd=baby harness&tags=BB||||8752.144||product|||NA|rsf:gd-|-stype:attr=1|qr_nm:gd|res:RC3|com-cf:nl|ptrs:na|ktp:N0|mc:45613|mtp:S|qry_typ:P|lang:en|wc:2|flavl:0|cs:9597|v=4,False,Pitampura Kohat Enclave,New Delhi,"263, 2nd Floor, Pitampura Kohat Enclave, New Delhi - 110034, Dist.Delhi, Delhi",8047848193,
green Cotton Baby Walking Harness,https://www.indiamart.com/proddetail/baby-walking-harness-25961064733.html?pos=14&kwd=baby harness&tags=BB||||8228.275|Price|product|||NA|rsf:gd-|-stype:attr=1|qr_nm:gd|res:RC3|com-cf:nl|ptrs:na|ktp:N0|mc:45613|mtp:S|qry_typ:P|lang:en|wc:2|flavl:0|cs:9597|v=4,Eclat Globalbiz LLP,https://www.indiamart.com/eclatglobalbiz/?pos=14&kwd=baby harness&tags=BB||||8228.275|Price|product|||NA|rsf:gd-|-stype:attr=1|qr_nm:gd|res:RC3|com-cf:nl|ptrs:na|ktp:N0|mc:45613|mtp:S|qry_typ:P|lang:en|wc:2|flavl:0|cs:9597|v=4,False,,Ahmedabad,"Shilp Zaveri, Ahmedabad - 380004, Dist.Ahmedabad, Gujarat",8047627244,
Multicolor Cotton Baby Carrier Harness,https://www.indiamart.com/proddetail/baby-carrier-harness-4069370533.html?pos=15&kwd=baby harness&tags=CC||||8211.142|Price|product|||TS|rsf:gd-|-stype:attr=1|qr_nm:gd|res:RC3|com-cf:nl|ptrs:na|ktp:N0|mc:45613|mtp:S|qry_typ:P|lang:en|wc:2|cs:8834|v=4,Welcome Enterprise,https://www.welcomeenterprise.in/?pos=15&kwd=baby harness&tags=CC||||8211.142|Price|product|||TS|rsf:gd-|-stype:attr=1|qr_nm:gd|res:RC3|com-cf:nl|ptrs:na|ktp:N0|mc:45613|mtp:S|qry_typ:P|lang:en|wc:2|cs:8834|v=4,False,Santacruz West,Mumbai,"1,Gulam Rasul Chawl No. 149,Khot Wadi, Besant Road,Santacruz West, Santacruz West, Mumbai - 400054, Dist.Mumbai, Maharashtra",8048601972,
Multicolor Round Baby Head Protection Anti Fall Head Safety Pillow,https://www.indiamart.com/proddetail/baby-head-protection-anti-fall-head-safety-pillow-2851452450048.html?pos=16&kwd=baby harness&tags=CC||||8752.144|Price|product|||TS|rsf:gd-|-stype:attr=1|qr_nm:gd|res:RC3|com-cf:nl|ptrs:na|ktp:N0|mc:45613|mtp:S|qry_typ:P|lang:en|wc:2|cs:8834|v=4,House Of Luxury,https://www.theholworld.net/?pos=16&kwd=baby harness&tags=CC||||8752.144|Price|product|||TS|rsf:gd-|-stype:attr=1|qr_nm:gd|res:RC3|com-cf:nl|ptrs:na|ktp:N0|mc:45613|mtp:S|qry_typ:P|lang:en|wc:2|cs:8834|v=4,False,Budh Vihar,New Delhi,"Plot No - 5, Kh. No. - 89/10/2, 1, Block No. - I-1, Budh Vihar Phase 1, Delhi, North West Delhi, Del, Budh Vihar, New Delhi - 110086, Dist.Delhi, Delhi",7942819716,
Multicolor Polyester Children Motorcycle Safety Harness BELT - RED,https://www.indiamart.com/proddetail/children-motorcycle-safety-harness-belt-red-24761037797.html?pos=17&kwd=baby harness&tags=CC||||8752.144|Price|product|||TS|rsf:gd-|-stype:attr=1|qr_nm:gd|res:RC3|com-cf:nl|ptrs:na|ktp:N0|mc:45613|mtp:S|qry_typ:P|lang:en|wc:2|cs:8834|v=4,Ekta Overseas,https://www.indiamart.com/ektaoverseas-newdelhi/?pos=17&kwd=baby harness&tags=CC||||8752.144|Price|product|||TS|rsf:gd-|-stype:attr=1|qr_nm:gd|res:RC3|com-cf:nl|ptrs:na|ktp:N0|mc:45613|mtp:S|qry_typ:P|lang:en|wc:2|cs:8834|v=4,False,Shahdara,New Delhi,"1/95, Gali No.3, Near Navjeevan Phisical Center, Vishwas Nagar, Shahdara,, Shahdara, New Delhi - 110032, Dist.Delhi, Delhi",7942628926,
Blue Polyester Baby Bike Safety Harness Bag,https://www.indiamart.com/proddetail/baby-bike-safety-harness-bag-24187354833.html?pos=18&kwd=baby harness&tags=||||8752.144|Price|product|||TS|rsf:gd-|-stype:attr=1|qr_nm:gd|res:RC3|com-cf:nl|ptrs:na|ktp:N0|mc:45613|mtp:S|qry_typ:P|lang:en|wc:2|cs:8834|v=4,Chinmay Kids,https://www.indiamart.com/chinmaykids/?pos=18&kwd=baby harness&tags=||||8752.144|Price|product|||TS|rsf:gd-|-stype:attr=1|qr_nm:gd|res:RC3|com-cf:nl|ptrs:na|ktp:N0|mc:45613|mtp:S|qry_typ:P|lang:en|wc:2|cs:8834|v=4,False,Nayagaon,New Delhi,"C-99, Street No. 4, First Pusta, Nayagaon, New Delhi - 110053, Dist.Delhi, Delhi",8046054858,
Plastic Caramel Baby Pram Cum Stroller With 5 Point Safety Harness,https://www.indiamart.com/proddetail/caramel-baby-pram-cum-stroller-with-5-point-safety-harness-2852433244062.html?pos=19&kwd=baby harness&tags=||||9140.514|Price|product|||TS|rsf:gd-|-stype:attr=1|qr_nm:gd|res:RC3|com-cf:nl|ptrs:na|ktp:N0|mc:45613|mtp:S|qry_typ:P|lang:en|wc:2|cs:8834|v=4,Anjaneya Enterprises,https://www.ridenslide.in/?pos=19&kwd=baby harness&tags=||||9140.514|Price|product|||TS|rsf:gd-|-stype:attr=1|qr_nm:gd|res:RC3|com-cf:nl|ptrs:na|ktp:N0|mc:45613|mtp:S|qry_typ:P|lang:en|wc:2|cs:8834|v=4,False,Pandri,Raipur,"SHOP NO-10,SHOPPERS PARADISE,BEHIND CITY CENTER MALL,PANDRI,RAIPUR, Pandri, Raipur - 492001, Chhattisgarh",8046045761,
"Baby Safety Belt For Kinds Carrier, Children Motorcycle Safety Harness 8468",https://www.indiamart.com/proddetail/baby-safety-belt-for-kinds-carrier-children-motorcycle-safety-harness-8468-2853286699462.html?pos=20&kwd=baby harness&tags=||||8038.093|Price|product|||TS|rsf:gd-|-stype:attr=1|qr_nm:gd|res:RC3|com-cf:nl|ptrs:na|ktp:N0|mc:45613|mtp:S|qry_typ:P|lang:en|wc:2|cs:8834|v=4,Deodap,https://www.indiamart.com/deodap/?pos=20&kwd=baby harness&tags=||||8038.093|Price|product|||TS|rsf:gd-|-stype:attr=1|qr_nm:gd|res:RC3|com-cf:nl|ptrs:na|ktp:N0|mc:45613|mtp:S|qry_typ:P|lang:en|wc:2|cs:8834|v=4,False,Rajkot,Rajkot,"plot No. 9 Behind Patanjali Werhouse, Ruda Transport, Saat Hanuman Ahemdabad Road, Rajkot, Rajkot - 360005, Dist.Rajkot, Gujarat",8048972316,
"Buckle Kids Two Wheeler Belt harness, Age Group: 1-2 Years, Packaging Type: Polypack",https://www.indiamart.com/proddetail/kids-two-wheeler-belt-harness-19802926233.html?pos=21&kwd=baby harness&tags=||||8752.144|Price|product|||TS|rsf:gd-|-stype:attr=1|qr_nm:gd|res:RC3|com-cf:nl|ptrs:na|ktp:N0|mc:45613|mtp:S|qry_typ:P|lang:en|wc:2|cs:8834|v=4,Nimesh Enterprises,https://www.indiamart.com/nimesh-enterprises/?pos=21&kwd=baby harness&tags=||||8752.144|Price|product|||TS|rsf:gd-|-stype:attr=1|qr_nm:gd|res:RC3|com-cf:nl|ptrs:na|ktp:N0|mc:45613|mtp:S|qry_typ:P|lang:en|wc:2|cs:8834|v=4,False,Rajpur Khurd,New Delhi,"A- 8, Rajpur Khurd, Tivoli Garden, Rajpur Khurd, New Delhi - 110068, Dist.Delhi, Delhi",8047634050,
"LuvLap Tutti Fruti Compact Travel Baby Stroller/Buggy, 6-36 Months, 5-Point Safety Harness, Adjustable Recline, 15Kg Max, Light Blue-18272",https://www.indiamart.com/proddetail/luvlap-tutti-fruti-compact-travel-baby-stroller-buggy-6-36-months-5-point-safety-harness-adjustable-recline-15kg-max-light-blue-18272-2852748293255.html?pos=22&kwd=baby harness&tags=||||8614.241|Price|product|||MDC|rsf:gd-|-stype:attr=1|qr_nm:gd|res:RC3|com-cf:nl|ptrs:na|ktp:N0|mc:45613|mtp:S|qry_typ:P|lang:en|wc:2|cs:8834|v=4,M.M. Toy World,https://www.indiamart.com/mmtoyworld/?pos=22&kwd=baby harness&tags=||||8614.241|Price|product|||MDC|rsf:gd-|-stype:attr=1|qr_nm:gd|res:RC3|com-cf:nl|ptrs:na|ktp:N0|mc:45613|mtp:S|qry_typ:P|lang:en|wc:2|cs:8834|v=4,False,Achli Gate,Batala,"M.M. Toys World, Bedian Gali, Khujari Gate, Gurdaspur, Achli Gate, Batala - 143505, Dist.Gurdaspur, Punjab",,
Scooter Safety Belt,https://www.indiamart.com/proddetail/scooter-safety-belt-19514936973.html?pos=23&kwd=baby harness&tags=||||8752.144|Price|product|||MDC|rsf:gd-|-stype:attr=1|qr_nm:gd|res:RC3|com-cf:nl|ptrs:na|ktp:N0|mc:45613|mtp:S|qry_typ:P|lang:en|wc:2|cs:8834|v=4,Anil Steel Industries,https://www.indiamart.com/anilsteelindustries-delhi/?pos=23&kwd=baby harness&tags=||||8752.144|Price|product|||MDC|rsf:gd-|-stype:attr=1|qr_nm:gd|res:RC3|com-cf:nl|ptrs:na|ktp:N0|mc:45613|mtp:S|qry_typ:P|lang:en|wc:2|cs:8834|v=4,False,Kirti Nagar,New Delhi,"N-46, Shop Plot, Kirti Nagar, Kirti Nagar, New Delhi - 110015, Dist.Delhi, Delhi",8046057314,
Mild Steel And Polyester Black Baby Jumping Harness,https://www.indiamart.com/proddetail/baby-jumping-harness-25585683930.html?pos=24&kwd=baby harness&tags=CC||||8823.154|Price|product|||NA|rsf:gd-|-stype:attr=1|qr_nm:gd|res:RC3|com-cf:nl|ptrs:na|ktp:N0|mc:45613|mtp:S|qry_typ:P|lang:en|wc:2|cs:8834|v=4,M/S IVRAH Corporation,https://www.indiamart.com/ivrahcorporation/?pos=24&kwd=baby harness&tags=CC||||8823.154|Price|product|||NA|rsf:gd-|-stype:attr=1|qr_nm:gd|res:RC3|com-cf:nl|ptrs:na|ktp:N0|mc:45613|mtp:S|qry_typ:P|lang:en|wc:2|cs:8834|v=4,False,Agra,Agra,"E 109, Sitc C, Upsidc Sikandra, Agra, Agra - 282007, Dist.Agra, Uttar Pradesh",8048212066,
"Red Cotton baby waking harness, Packaging Type: Plastic Panni",https://www.indiamart.com/proddetail/baby-waking-harness-2854325055412.html?pos=25&kwd=baby harness&tags=CC||||8237.554|Price|product|||NA|rsf:gd-|-stype:attr=1|qr_nm:gd|res:RC3|com-cf:nl|ptrs:na|ktp:N0|mc:45613|mtp:S|qry_typ:P|lang:en|wc:2|cs:8834|v=4,Fashion Hub,https://www.indiamart.com/fashionhub-223272691/?pos=25&kwd=baby harness&tags=CC||||8237.554|Price|product|||NA|rsf:gd-|-stype:attr=1|qr_nm:gd|res:RC3|com-cf:nl|ptrs:na|ktp:N0|mc:45613|mtp:S|qry_typ:P|lang:en|wc:2|cs:8834|v=4,False,,Gandhinagar,"1st Floor, Shop No D 105, Sharda Avenue, Near Shalin-1, Vavol, Gandhinagar - 382016, Gujarat",8048370718,4081
Kid Safe Belt Plus,https://www.indiamart.com/proddetail/kid-safe-belt-plus-13760065455.html?pos=26&kwd=baby harness&tags=CC||||8663.873|Price|product|||NA|rsf:gd-|-stype:attr=1|qr_nm:gd|res:RC3|com-cf:nl|ptrs:na|ktp:N0|mc:45613|mtp:S|qry_typ:P|lang:en|wc:2|cs:8834|v=4,NU Dzine,https://www.indiamart.com/nudzine-bengaluru/?pos=26&kwd=baby harness&tags=CC||||8663.873|Price|product|||NA|rsf:gd-|-stype:attr=1|qr_nm:gd|res:RC3|com-cf:nl|ptrs:na|ktp:N0|mc:45613|mtp:S|qry_typ:P|lang:en|wc:2|cs:8834|v=4,False,r.s.palya,Bengaluru,"118 10th cross sadashiva temple street, r.s.palya, Bengaluru - 560033, Dist.Bengaluru, Karnataka",7949312976,
Child Wiring Harness,https://www.indiamart.com/proddetail/child-wiring-harness-2154694162.html?pos=27&kwd=baby harness&tags=CC||||8778.123||product|||NA|rsf:gd-|-stype:attr=1|qr_nm:gd|res:RC3|com-cf:nl|ptrs:na|ktp:N0|mc:45613|mtp:S|qry_typ:P|lang:en|wc:2|cs:8834|v=4,Aglow Engineers Pvt. Ltd.,https://www.indiamart.com/aglow-engineers/?pos=27&kwd=baby harness&tags=CC||||8778.123||product|||NA|rsf:gd-|-stype:attr=1|qr_nm:gd|res:RC3|com-cf:nl|ptrs:na|ktp:N0|mc:45613|mtp:S|qry_typ:P|lang:en|wc:2|cs:8834|v=4,False,Sector 8,Noida,"F-117, Sector 8, District G. B. Nagar Distt GB Nagar, Sector 8, Noida - 201301, Dist.Gautam Budh Nagar, Uttar Pradesh",8043801685,
"Fabric & Metal Cradle with Swing and Mosquito net (Blue), Packaging Type: Box, 0-12 Month",https://www.indiamart.com/proddetail/cradle-with-swing-and-mosquito-net-blue-2852701528555.html?pos=28&kwd=baby harness&tags=CC||||8752.144|Price|product|||NA|rsf:gd-|-stype:attr=1|qr_nm:gd|res:RC3|com-cf:nl|ptrs:na|ktp:N0|mc:45613|mtp:S|qry_typ:P|lang:en|wc:2|cs:8834|v=4,The Style Pro,https://www.indiamart.com/the-style-pro/?pos=28&kwd=baby harness&tags=CC||||8752.144|Price|product|||NA|rsf:gd-|-stype:attr=1|qr_nm:gd|res:RC3|com-cf:nl|ptrs:na|ktp:N0|mc:45613|mtp:S|qry_typ:P|lang:en|wc:2|cs:8834|v=4,False,Burari,New Delhi,"D 6/1 Raadio Colony, Kingsway Camp, North Delhi, Burari, New Delhi - 110009, Dist.Delhi, Delhi",7942818187,
Child Wiring Harness,https://www.indiamart.com/proddetail/child-wiring-harness-7817469848.html?pos=29&kwd=baby harness&tags=CC||||8778.123||product|||NA|rsf:gd-|-stype:attr=1|qr_nm:gd|res:RC3|com-cf:nl|ptrs:na|ktp:N0|mc:45613|mtp:S|qry_typ:P|lang:en|wc:2|cs:8834|v=4,Bonjour,https://www.indiamart.com/milkywaywiringharness/?pos=29&kwd=baby harness&tags=CC||||8778.123||product|||NA|rsf:gd-|-stype:attr=1|qr_nm:gd|res:RC3|com-cf:nl|ptrs:na|ktp:N0|mc:45613|mtp:S|qry_typ:P|lang:en|wc:2|cs:8834|v=4,False,Chhapraula,Noida,"606, Tower C2 Gh-07a, Techzone 4, Patwari Spring Meadows Greater Noida Gautam Buddha Nagar, Chhapraula, Noida - 201306, Dist.Gautam Budh Nagar, Uttar Pradesh",8069857331,804
"navar Belt Type Pavlik Harness for hip dysplasia, Packaging Type: Box",https://www.indiamart.com/proddetail/pavlik-harness-for-hip-dysplasia-19306358048.html?pos=30&kwd=baby harness&tags=CC||||8786.56|Price|product|||NA|rsf:gd-|-stype:attr=1|qr_nm:gd|res:RC3|com-cf:nl|ptrs:na|ktp:N0|mc:45613|mtp:S|qry_typ:P|lang:en|wc:2|cs:8834|v=4,My Care Prosthetics And Orthotics,https://www.indiamart.com/mycare-prosthetics/?pos=30&kwd=baby harness&tags=CC||||8786.56|Price|product|||NA|rsf:gd-|-stype:attr=1|qr_nm:gd|res:RC3|com-cf:nl|ptrs:na|ktp:N0|mc:45613|mtp:S|qry_typ:P|lang:en|wc:2|cs:8834|v=4,False,Nallakunta,Hyderabad,"No. 2-1-392/1/3/9, Tilaknagar Main Road, Near Fever Hospital Tilaknagar Railway Bridge, Nallakunta, Hyderabad - 500044, Dist.Hyderabad, Telangana",8047670818,
Cotton Baby Cradle Swing With Mosquito Net & Spring,https://www.indiamart.com/proddetail/baby-cradle-swing-with-mosquito-net-spring-22992577230.html?pos=31&kwd=baby harness&tags=CC||||8665.558|Price|product|||NA|rsf:gd-|-stype:attr=1|qr_nm:gd|res:RC3|com-cf:nl|ptrs:na|ktp:N0|mc:45613|mtp:S|qry_typ:P|lang:en|wc:2|cs:8834|v=4,Vasantha Arun.M.Falconking Ventures,https://www.indiamart.com/mfalconking-ventures/?pos=31&kwd=baby harness&tags=CC||||8665.558|Price|product|||NA|rsf:gd-|-stype:attr=1|qr_nm:gd|res:RC3|com-cf:nl|ptrs:na|ktp:N0|mc:45613|mtp:S|qry_typ:P|lang:en|wc:2|cs:8834|v=4,False,,Bhavani,"1/301, Natarajapuram, Bhavani - 638301, Dist.Erode, Tamil Nadu",8048361369,158
Blue Child Hip Relocating Harness,https://www.indiamart.com/proddetail/child-hip-relocating-harness-23607102348.html?pos=32&kwd=baby harness&tags=CC||||8316.457|Price|product|||NA|rsf:gd-|-stype:attr=1|qr_nm:gd|res:RC3|com-cf:nl|ptrs:na|ktp:N0|mc:45613|mtp:S|qry_typ:P|lang:en|wc:2|cs:8834|v=4,Anamika Handicap Footwear,https://www.indiamart.com/anamika-handicap-footwear/?pos=32&kwd=baby harness&tags=CC||||8316.457|Price|product|||NA|rsf:gd-|-stype:attr=1|qr_nm:gd|res:RC3|com-cf:nl|ptrs:na|ktp:N0|mc:45613|mtp:S|qry_typ:P|lang:en|wc:2|cs:8834|v=4,False,Gole colony Ashok Stambh MG Road,Nashik,"Shop No-31/308,Mini Market,Sharanpur Road,, Gole colony Ashok Stambh MG Road, Nashik - 422005, Dist.Nashik, Maharashtra",8046057057,
"Baby Carrier Newborn to Toddler, Ergonomic 3D Mesh Baby Wraps Carrier",https://www.indiamart.com/proddetail/baby-carrier-newborn-to-toddler-ergonomic-3d-mesh-baby-wraps-carrier-2854387081973.html?pos=33&kwd=baby harness&tags=CC||||8230.883|Price|product|||NA|rsf:gd-|-stype:attr=1|qr_nm:gd|res:RC3|com-cf:nl|ptrs:na|ktp:N0|mc:45613|mtp:S|qry_typ:P|lang:en|wc:2|cs:8834|v=4,Om Anvay Enterprise,https://www.indiamart.com/om-anvay-enterprise/?pos=33&kwd=baby harness&tags=CC||||8230.883|Price|product|||NA|rsf:gd-|-stype:attr=1|qr_nm:gd|res:RC3|com-cf:nl|ptrs:na|ktp:N0|mc:45613|mtp:S|qry_typ:P|lang:en|wc:2|cs:8834|v=4,False,Katargam,Surat,"TPS-19,SY NO-248/2,271, LAKSHMI ENCLVE, GAJERA SCHOOL ROAD,KATARGAM,SURAT Lakshmi Enclave-1 Basement,395004,Surat, Katargam, Surat - 394150, Dist.Surat, Gujarat",8047662284,
Bee Baby Head Protector Pillow Brown,https://www.indiamart.com/proddetail/baby-head-protector-pillow-brown-2851104855233.html?pos=34&kwd=baby harness&tags=CC||||8223.226|Price|product|||NA|rsf:gd-|-stype:attr=1|qr_nm:gd|res:RC3|com-cf:nl|ptrs:na|ktp:N0|mc:45613|mtp:S|qry_typ:P|lang:en|wc:2|cs:8834|v=4,Thank You Mommy,https://www.indiamart.com/thank-you-mommy/?pos=34&kwd=baby harness&tags=CC||||8223.226|Price|product|||NA|rsf:gd-|-stype:attr=1|qr_nm:gd|res:RC3|com-cf:nl|ptrs:na|ktp:N0|mc:45613|mtp:S|qry_typ:P|lang:en|wc:2|cs:8834|v=4,False,,Thane,"1st Floor C Wing Room No. 104 Mumbai Pune Road New Nasheman Apartment, Thane - 400612, Dist.Thane, Maharashtra",8069196750,828
U Shaped Toothbrush Kids Grade Soft Silicone Brush Teeth Cleaning Design for Kids Age 2-6,https://www.indiamart.com/proddetail/u-shaped-toothbrush-kids-grade-soft-silicone-brush-teeth-cleaning-design-for-kids-age-2-6-2850300285330.html?pos=35&kwd=baby harness&tags=CC||||8954.051|Price|product|||NA|rsf:gd-|-stype:attr=1|qr_nm:gd|res:RC3|com-cf:nl|ptrs:na|ktp:N0|mc:45613|mtp:S|qry_typ:P|lang:en|wc:2|cs:8834|v=4,Thanisha Enterprises,https://www.indiamart.com/thanishaenterprises/?pos=35&kwd=baby harness&tags=CC||||8954.051|Price|product|||NA|rsf:gd-|-stype:attr=1|qr_nm:gd|res:RC3|com-cf:nl|ptrs:na|ktp:N0|mc:45613|mtp:S|qry_typ:P|lang:en|wc:2|cs:8834|v=4,False,Ambattur Industrial Estate,Chennai,"267/2, Pillaiyar Koil Street, East Balaji Nagar, Kallikuppam,, Ambattur, Thiruvallur,, Ambattur Industrial Estate, Chennai - 600053, Dist.Chennai, Tamil Nadu",7942672812,
Bansal Enterprises,,Bansal Enterprises,https://www.indiamart.com/bansalenterprisesharyana/?pos=36&kwd=baby harness&tags=||||8734.695||bl|||TS|rsf:gd-|-stype:attr=1|qr_nm:gd|res:RC3|com-cf:nl|ptrs:na|ktp:N0|mc:45613|mtp:S|qry_typ:P|lang:en|wc:2|cs:8834|v=4,False,Bahadurgarh,Bahadurgarh,"1st Floor, No. 1457, Opp Saini Market, Main Delhi Rohtak Road ,Near Metro Pillar No. 840,, Bahadurgarh, Bahadurgarh - 124507, Dist.Jhajjar, Haryana",7942718095,
"101 Centimeters Plastic Lolli Pop Baby Stroller With Five Point Harness, Four, 8906047526348_LuvLap",https://www.indiamart.com/proddetail/lolli-pop-baby-stroller-with-five-point-harness-2851952559830.html?pos=37&kwd=baby harness&tags=||||8752.144|Price|product|||NA|rsf:gd-|-stype:attr=1|qr_nm:gd|res:RC3|com-cf:nl|ptrs:na|ktp:N0|mc:45613|mtp:S|qry_typ:P|lang:en|wc:2|cs:8834|v=4,Pram Hut,https://www.indiamart.com/pram-hutdelhi/?pos=37&kwd=baby harness&tags=||||8752.144|Price|product|||NA|rsf:gd-|-stype:attr=1|qr_nm:gd|res:RC3|com-cf:nl|ptrs:na|ktp:N0|mc:45613|mtp:S|qry_typ:P|lang:en|wc:2|cs:8834|v=4,False,,New Delhi,"SHOP NO.- 156,ANARKALI COMPLEX,ANARKALI COMPLEX,New Delhi LOWER GROUND FLOOR, SHOP NO.- 156, ANARKALI COMPLEX, ANARKALI COMPLEX, JHANDEWALAN, New Delhi, Cent, New Delhi - 110055, Dist.Delhi, Delhi",7942701586,
1st Step Caramel Baby Pram Cum Stroller with 5 Point Safety Harness,https://www.indiamart.com/proddetail/1st-step-caramel-baby-pram-cum-stroller-with-5-point-safety-harness-2853451996530.html?pos=38&kwd=baby harness&tags=||||8786.56|Price|product|||NA|rsf:gd-|-stype:attr=1|qr_nm:gd|res:RC3|com-cf:nl|ptrs:na|ktp:N0|mc:45613|mtp:S|qry_typ:P|lang:en|wc:2|cs:8834|v=4,Springkart,https://www.indiamart.com/springkart/?pos=38&kwd=baby harness&tags=||||8786.56|Price|product|||NA|rsf:gd-|-stype:attr=1|qr_nm:gd|res:RC3|com-cf:nl|ptrs:na|ktp:N0|mc:45613|mtp:S|qry_typ:P|lang:en|wc:2|cs:8834|v=4,False,Moula Ali,Hyderabad,"Flat No. 103, Saipriya Residency, M. J. Colony, Moula Ali, Hyderabad - 500080, Dist.Hyderabad, Telangana",,
Baby Chair Safety seating belt baby Safety Seat Strap Harness Seat for High Chair,https://www.indiamart.com/proddetail/baby-chair-safety-seating-belt-baby-safety-seat-strap-harness-seat-for-high-chair-2853924745633.html?pos=39&kwd=baby harness&tags=||||8741.812|Price|product|||NA|rsf:gd-|-stype:attr=1|qr_nm:gd|res:RC3|com-cf:nl|ptrs:na|ktp:N0|mc:45613|mtp:S|qry_typ:P|lang:en|wc:2|cs:8834|v=4,Amateurs Trading Private Limited,https://www.indiamart.com/amateurs-trading-private-limited/?pos=39&kwd=baby harness&tags=||||8741.812|Price|product|||NA|rsf:gd-|-stype:attr=1|qr_nm:gd|res:RC3|com-cf:nl|ptrs:na|ktp:N0|mc:45613|mtp:S|qry_typ:P|lang:en|wc:2|cs:8834|v=4,False,,Gurugram,"Plot No. 76 D Udyog Vihar Phase-4 Sector-18 UDYOG VIHAR, Gurugram - 122001, Dist.Gurgaon, Haryana",8041013713,
"Baby Safety Belt For Kinds Carrier, Children Motorcycle Safety Harness - Child Ride Strap",https://www.indiamart.com/proddetail/baby-safety-belt-for-kinds-carrier-children-motorcycle-safety-harness-child-ride-strap-2852962548348.html?pos=40&kwd=baby harness&tags=||||8038.093||product|||NA|rsf:gd-|-stype:attr=1|qr_nm:gd|res:RC3|com-cf:nl|ptrs:na|ktp:N0|mc:45613|mtp:S|qry_typ:P|lang:en|wc:2|cs:8834|v=4,Srivishnupriya Enterprise,https://www.indiamart.com/srivishnupriya-enterprise/?pos=40&kwd=baby harness&tags=||||8038.093||product|||NA|rsf:gd-|-stype:attr=1|qr_nm:gd|res:RC3|com-cf:nl|ptrs:na|ktp:N0|mc:45613|mtp:S|qry_typ:P|lang:en|wc:2|cs:8834|v=4,False,Aji Industrial Estate,Rajkot,"1st, C-103, Satyam Park, Shrinathji Residancy, Near Sorathiyawadi Circle, 80 Feet Road, Equity Hyundai, Sarvodaya Society, Aji Industrial Estate, Rajkot - 360003, Dist.Rajkot, Gujarat",7942702452,
"Baby Safety Belt For Kinds Carrier, Children Motorcycle Safety Harness - Child Ride Strap - Kids Vehicle Adjustable Safety Harness Strap for Two Wheeler Bike Horseback Riding Travel (1 Pc)",https://www.indiamart.com/proddetail/baby-safety-belt-for-kinds-carrier-children-motorcycle-safety-harness-child-ride-strap-kids-vehicle-adjustable-safety-harness-strap-for-two-wheeler-bike-horseback-riding-travel-1-pc-2853496831330.html?pos=41&kwd=baby harness&tags=||||9733.506|Price|product|||NA|rsf:gd-|-stype:attr=1|qr_nm:gd|res:RC3|com-cf:nl|ptrs:na|ktp:N0|mc:45613|mtp:S|qry_typ:P|lang:en|wc:2|cs:8834|v=4,WaferKart,https://www.indiamart.com/waferkart/?pos=41&kwd=baby harness&tags=||||9733.506|Price|product|||NA|rsf:gd-|-stype:attr=1|qr_nm:gd|res:RC3|com-cf:nl|ptrs:na|ktp:N0|mc:45613|mtp:S|qry_typ:P|lang:en|wc:2|cs:8834|v=4,False,,Durgapur,"RAILPAR TANKITALA PANAGARH, Durgapur - 713148, West Bengal",,
Children Adjustable Safety Harness Strap for 2-Wheeler Bike Travel (Rainbow),https://www.indiamart.com/proddetail/children-adjustable-safety-harness-strap-for-2-wheeler-bike-travel-rainbow-2854512209448.html?pos=42&kwd=baby harness&tags=||||8752.144|Price|product|||NA|rsf:gd-|-stype:attr=1|qr_nm:gd|res:RC3|com-cf:nl|ptrs:na|ktp:N0|mc:45613|mtp:S|qry_typ:P|lang:en|wc:2|cs:8834|v=4,Paras Enterprises,https://www.indiamart.com/parasenterprises-5350981/?pos=42&kwd=baby harness&tags=||||8752.144|Price|product|||NA|rsf:gd-|-stype:attr=1|qr_nm:gd|res:RC3|com-cf:nl|ptrs:na|ktp:N0|mc:45613|mtp:S|qry_typ:P|lang:en|wc:2|cs:8834|v=4,False,Sahibabad,New Delhi,"Sahibabad, Sahibabad, New Delhi - 110032, Dist.Delhi, Delhi",7942668151,
Baby Carrier Bag,https://www.indiamart.com/proddetail/baby-carrier-bag-23160857688.html?pos=43&kwd=baby harness&tags=||||8752.144|Price|proxy|||TS|rsf:gd-|-stype:attr=1|qr_nm:gd|res:RC3|com-cf:nl|ptrs:na|ktp:N0|mc:45613|mtp:S|qry_typ:P|lang:en|wc:2|cs:8834|v=4,Melvis,https://www.indiamart.com/melvis/?pos=43&kwd=baby harness&tags=||||8752.144|Price|proxy|||TS|rsf:gd-|-stype:attr=1|qr_nm:gd|res:RC3|com-cf:nl|ptrs:na|ktp:N0|mc:45613|mtp:S|qry_typ:P|lang:en|wc:2|cs:8834|v=4,False,Swaroop Nagar,New Delhi,"First Floor, House Number 185/12, Block-B, Yadav Market Road Chowk, Swaroop Nagar,, Swaroop Nagar, New Delhi - 110042, Dist.Delhi, Delhi",8047632851,
Pavlik Harness,,Deep Artificial Limb Centre,https://www.indiamart.com/deepartificiallimbcentre/?pos=44&kwd=baby harness&tags=CC||||8746.929|Price|product|||MDC|rsf:gd-|-stype:attr=1|qr_nm:gd|res:RC3|com-cf:nl|ptrs:na|ktp:N0|mc:45613|mtp:S|qry_typ:P|lang:en|wc:2|cs:8834|v=4,False,Industrial Area Phase II,Chandigarh,"Plot Number 1005, Industrial Area,Phase 2, Industrial Area Phase II, Chandigarh - 160017, Chandigarh",8047789578,
Baby Harness BF-500A,,Manisha Intarnational Private Limited,https://www.indiamart.com/manisha-international-india/?pos=45&kwd=baby harness&tags=CC||||8752.144||product|||NA|rsf:gd-|-stype:attr=1|qr_nm:gd|res:RC3|com-cf:nl|ptrs:na|ktp:N0|mc:45613|mtp:S|qry_typ:P|lang:en|wc:2|cs:8834|v=4,False,Saidulajab,New Delhi,"No. 1- A, First Floor, Khasra No. 275, Westend Marg, Saidulajab, Saidulajab, New Delhi - 110030, Dist.Delhi, Delhi",8047689247,
Child Safety,,Lavish Home Decor,https://www.indiamart.com/lavish-home-decor-jodhpur/?pos=46&kwd=baby harness&tags=CC||||8319.425||product|||NA|rsf:gd-|-stype:attr=1|qr_nm:gd|res:RC3|com-cf:nl|ptrs:na|ktp:N0|mc:45613|mtp:S|qry_typ:P|lang:en|wc:2|cs:8834|v=4,False,,Jodhpur,"17/157,Nandanvan,Jodhpur,Jodhpur, Jodhpur - 342008, Dist.Jodhpur, Rajasthan",8048249732,8692
Pavlik Harness,,Livcaare Rehabilitation,https://www.indiamart.com/livcaare-rehabilitation/?pos=47&kwd=baby harness&tags=CC||||9010.878||product|||NA|rsf:gd-|-stype:attr=1|qr_nm:gd|res:RC3|com-cf:nl|ptrs:na|ktp:N0|mc:45613|mtp:S|qry_typ:P|lang:en|wc:2|cs:8834|v=4,False,,Vijayawada,"59a-21/4-1 Dasari Street Vijayawada, Vijayawada - 520010, Dist.Krishna, Andhra Pradesh",8048249808,278
Auto Safety Belt black with red,,Sahni Plastic Works,https://www.indiamart.com/sahni-plastic-works/?pos=48&kwd=baby harness&tags=CC||||8752.144||product|||NA|rsf:gd-|-stype:attr=1|qr_nm:gd|res:RC3|com-cf:nl|ptrs:na|ktp:N0|mc:45613|mtp:S|qry_typ:P|lang:en|wc:2|cs:8834|v=4,False,,New Delhi,"Tilak A44 G/F Tilak Nagar Dsidc New West, New Delhi - 110018, Dist.Delhi, Delhi",8069707365,434
Child Safety,,Asenfab Engineering Private Limited,https://www.indiamart.com/asenfab-engineering-private-limited/?pos=49&kwd=baby harness&tags=CC||||8211.142||product|||NA|rsf:gd-|-stype:attr=1|qr_nm:gd|res:RC3|com-cf:nl|ptrs:na|ktp:N0|mc:45613|mtp:S|qry_typ:P|lang:en|wc:2|cs:8834|v=4,False,,Mumbai,"Ground Floor U-9 Ram Mandir Road Guru Govind Singh Industrial Estate, Mumbai - 400063, Dist.Mumbai, Maharashtra",8048265352,126
Baby Safety,,Sai Agencies,https://www.indiamart.com/saiagencies-101895217/?pos=50&kwd=baby harness&tags=CC||||9010.878|Price|product|||NA|rsf:gd-|-stype:attr=1|qr_nm:gd|res:RC3|com-cf:nl|ptrs:na|ktp:N0|mc:45613|mtp:S|qry_typ:P|lang:en|wc:2|cs:8834|v=4,False,,Vijayawada,"Ground Floor 11-22-6 R R Apparao Street Kothapet Vijayawada Krishna, Vijayawada - 520001, Dist.Krishna, Andhra Pradesh",8069033854,963
Child Safety,,Real Marketing,https://www.indiamart.com/realmarketing/?pos=51&kwd=baby harness&tags=CC||||8307.81||product|||NA|rsf:gd-|-stype:attr=1|qr_nm:gd|res:RC3|com-cf:nl|ptrs:na|ktp:N0|mc:45613|mtp:S|qry_typ:P|lang:en|wc:2|cs:8834|v=4,False,Bhama Central Co. Op Society,Pune,"142, Ganesh Peth, Shop No. B-009, Bhama Central Co. Op Society,, Bhama Central Co. Op Society, Pune - 411042, Dist.Pune, Maharashtra",8048247112,6088
baby harmness protector,,Agarwal Overseas,https://www.indiamart.com/agarwaloverseas/?pos=52&kwd=baby harness&tags=CC||||8752.144|Price|product|||NA|rsf:gd-|-stype:attr=1|qr_nm:gd|res:RC3|com-cf:nl|ptrs:na|ktp:N0|mc:45613|mtp:S|qry_typ:P|lang:en|wc:2|cs:8834|v=4,False,Ashok Vihar,New Delhi,"Phase 1, House No. A-51, Ashok Vihar, New Delhi - 110052, Dist.Delhi, Delhi",8047666734,
Child Safety Sheet,,Paracoat Products Limited,https://www.indiamart.com/paracoat-products-limited-hosur/?pos=53&kwd=baby harness&tags=CC||||8687.614||product|||NA|rsf:gd-|-stype:attr=1|qr_nm:gd|res:RC3|com-cf:nl|ptrs:na|ktp:N0|mc:45613|mtp:S|qry_typ:P|lang:en|wc:2|cs:8834|v=4,False,,Hosur,"Plot No 43-c Phase 1 Sipcot Industrial Complex Hosur Krishnagiri PHASE 1, HOSUR, Krishnagiri, Tamil Nadu,, Hosur - 635126, Dist.Krishnagiri, Tamil Nadu",8069013475,598
"96 cm Metal,Plastic & Cloth Trixie Musical Pram Crome Wheel, SA110B",https://www.indiamart.com/proddetail/trixie-musical-pram-crome-wheel-2852997615233.html?pos=54&kwd=baby harness&tags=||||8752.144|Price|product|||TS|rsf:gd-|-stype:attr=1|qr_nm:gd|res:RC3|com-cf:nl|ptrs:na|ktp:N0|mc:45613|mtp:S|qry_typ:P|lang:en|wc:2|cs:8834|v=4,Steel Art (A Brand Of Mittal Enterprises),https://www.indiamart.com/mittalentps-delhi/?pos=54&kwd=baby harness&tags=||||8752.144|Price|product|||TS|rsf:gd-|-stype:attr=1|qr_nm:gd|res:RC3|com-cf:nl|ptrs:na|ktp:N0|mc:45613|mtp:S|qry_typ:P|lang:en|wc:2|cs:8834|v=4,False,Mundka,New Delhi,"Ground Floor, Plot At Khasra No. 66/22, Gali No. 2, Mundka, Mundka, New Delhi - 110041, Dist.Delhi, Delhi",8046044378,
"3.6 Feet Red Mild Steel Baby Pram Stroller, 4",https://www.indiamart.com/proddetail/red-mild-steel-baby-pram-stroller-2850295461233.html?pos=55&kwd=baby harness&tags=||||8752.144|Price|product|||TS|rsf:gd-|-stype:attr=1|qr_nm:gd|res:RC3|com-cf:nl|ptrs:na|ktp:N0|mc:45613|mtp:S|qry_typ:P|lang:en|wc:2|cs:8834|v=4,Neelam Enterprises,https://www.indiamart.com/neelam-enterprisesdelhi/?pos=55&kwd=baby harness&tags=||||8752.144|Price|product|||TS|rsf:gd-|-stype:attr=1|qr_nm:gd|res:RC3|com-cf:nl|ptrs:na|ktp:N0|mc:45613|mtp:S|qry_typ:P|lang:en|wc:2|cs:8834|v=4,False,North East,New Delhi,"Gf,Pradhan Parshadi Lal Market,Main Tukmirpur Road,Karawal Nagar, North East, New Delhi - 110094, Dist.Delhi, Delhi",7942814861,
Orange Cotton Adjustable Baby Carrier,https://www.indiamart.com/proddetail/adjustable-baby-carrier-20711039473.html?pos=56&kwd=baby harness&tags=||||8752.144|Price|product|||TS|rsf:gd-|-stype:attr=1|qr_nm:gd|res:RC3|com-cf:nl|ptrs:na|ktp:N0|mc:45613|mtp:S|qry_typ:P|lang:en|wc:2|cs:8834|v=4,National Overseas,https://www.indiamart.com/nationaltraders-vishwashnagar/?pos=56&kwd=baby harness&tags=||||8752.144|Price|product|||TS|rsf:gd-|-stype:attr=1|qr_nm:gd|res:RC3|com-cf:nl|ptrs:na|ktp:N0|mc:45613|mtp:S|qry_typ:P|lang:en|wc:2|cs:8834|v=4,False,Shahdara,New Delhi,"1/99, Gali No. 3, Vishwas Nagar, Shahdara, New Delhi - 110032, Dist.Delhi, Delhi",8046047673,
"Black Alloy Baby Folding Stroller Pram, Age Group: 1-3 years, Packaging Type: Carton Box",https://www.indiamart.com/proddetail/baby-folding-stroller-pram-2853643799997.html?pos=57&kwd=baby harness&tags=||||8206.45|Price|product|||MDC|rsf:gd-|-stype:attr=1|qr_nm:gd|res:RC3|com-cf:nl|ptrs:na|ktp:N0|mc:45613|mtp:S|qry_typ:P|lang:en|wc:2|cs:8834|v=4,APDD E Commerce India LLP,https://www.indiamart.com/apddecommerceindia/?pos=57&kwd=baby harness&tags=||||8206.45|Price|product|||MDC|rsf:gd-|-stype:attr=1|qr_nm:gd|res:RC3|com-cf:nl|ptrs:na|ktp:N0|mc:45613|mtp:S|qry_typ:P|lang:en|wc:2|cs:8834|v=4,False,Vishnu Nagar,Palghar,"2ndFloor, Block No.301,D-Wing, Jivadani Complex, Mahim Road, National Cooperative Bank, Vishnu Nagar, Vishnu Nagar, Palghar - 401404, Dist.Thane, Maharashtra",8047307898,
"Plastic Adjustable Baby Walker, One to Two Years",https://www.indiamart.com/proddetail/adjustable-baby-walker-2854781917533.html?pos=58&kwd=baby harness&tags=||||8211.142|Price|product|||TS|rsf:gd-|-stype:attr=1|qr_nm:gd|res:RC3|com-cf:nl|ptrs:na|ktp:N0|mc:45613|mtp:S|qry_typ:P|lang:en|wc:2|cs:8834|v=4,P For Panda Baby Products Private Limited,https://www.p4pandababyproducts.com/?pos=58&kwd=baby harness&tags=||||8211.142|Price|product|||TS|rsf:gd-|-stype:attr=1|qr_nm:gd|res:RC3|com-cf:nl|ptrs:na|ktp:N0|mc:45613|mtp:S|qry_typ:P|lang:en|wc:2|cs:8834|v=4,False,Goregaon West,Mumbai,"904 A Wing,9 Th Floor,Triple S Heights,Jakeria Road, Goregaon West, Mumbai - 400064, Dist.Mumbai, Maharashtra",7942710871,
Wall Mounted Baby Protection Safety Seat,https://www.indiamart.com/proddetail/wall-mounted-baby-protection-safety-seat-2852047264362.html?pos=59&kwd=baby harness&tags=||||8211.142|Price|product|||TS|rsf:gd-|-stype:attr=1|qr_nm:gd|res:RC3|com-cf:nl|ptrs:na|ktp:N0|mc:45613|mtp:S|qry_typ:P|lang:en|wc:2|cs:8834|v=4,Orchids International,https://www.indiamart.com/orchid-international-maharashtra/?pos=59&kwd=baby harness&tags=||||8211.142|Price|product|||TS|rsf:gd-|-stype:attr=1|qr_nm:gd|res:RC3|com-cf:nl|ptrs:na|ktp:N0|mc:45613|mtp:S|qry_typ:P|lang:en|wc:2|cs:8834|v=4,False,Mahim,Mumbai,"2 Floor, Gala No 209, Allied Industrial Premises Co-Op. Soc. Ltd, Ram Panjawani Marg, Mahim -W, Mahim, Mumbai - 400016, Dist.Mumbai, Maharashtra",7942708611,
Joie Tilt Car Seat,https://www.indiamart.com/proddetail/joie-tilt-car-seat-2849774068333.html?pos=60&kwd=baby harness&tags=||||8211.142|Price|product|||TS|rsf:gd-|-stype:attr=1|qr_nm:gd|res:RC3|com-cf:nl|ptrs:na|ktp:N0|mc:45613|mtp:S|qry_typ:P|lang:en|wc:2|cs:8834|v=4,Mini World,https://www.indiamart.com/miniworld/?pos=60&kwd=baby harness&tags=||||8211.142|Price|product|||TS|rsf:gd-|-stype:attr=1|qr_nm:gd|res:RC3|com-cf:nl|ptrs:na|ktp:N0|mc:45613|mtp:S|qry_typ:P|lang:en|wc:2|cs:8834|v=4,False,Goregaon West,Mumbai,"SHOP No 2,16, Ground Floor, Unnath Nagar 3, M.G. Road, Goregaon MG Road, Goregaon West, Mumbai - 400062, Dist.Mumbai, Maharashtra",8046034221,
PATOYS | Asalvo Spain Moby Grey Stroller/Pram for Baby/Kids,https://www.indiamart.com/proddetail/patoys-asalvo-spain-moby-grey-stroller-pram-for-baby-kids-2851579841412.html?pos=61&kwd=baby harness&tags=||||8793.739|Price|product|||TS|rsf:gd-|-stype:attr=1|qr_nm:gd|res:RC3|com-cf:nl|ptrs:na|ktp:N0|mc:45613|mtp:S|qry_typ:P|lang:en|wc:2|cs:8834|v=4,Patoys,https://www.indiamart.com/patoys/?pos=61&kwd=baby harness&tags=||||8793.739|Price|product|||TS|rsf:gd-|-stype:attr=1|qr_nm:gd|res:RC3|com-cf:nl|ptrs:na|ktp:N0|mc:45613|mtp:S|qry_typ:P|lang:en|wc:2|cs:8834|v=4,False,Krishna Nagar,Mathura,"Ground Floor Shop No - 3 Krishna Nagar Krishna Plaza, Krishna Nagar, Mathura - 281004, Dist.Mathura, Uttar Pradesh",,
Blue And White Plastic Baybee Mono Baby Walker,https://www.indiamart.com/proddetail/baybee-mono-baby-walker-2853479755612.html?pos=62&kwd=baby harness&tags=||||8954.051|Price|product|||MDC|rsf:gd-|-stype:attr=1|qr_nm:gd|res:RC3|com-cf:nl|ptrs:na|ktp:N0|mc:45613|mtp:S|qry_typ:P|lang:en|wc:2|cs:8834|v=4,Mom's Fashion World,https://www.indiamart.com/moms-fashion-world/?pos=62&kwd=baby harness&tags=||||8954.051|Price|product|||MDC|rsf:gd-|-stype:attr=1|qr_nm:gd|res:RC3|com-cf:nl|ptrs:na|ktp:N0|mc:45613|mtp:S|qry_typ:P|lang:en|wc:2|cs:8834|v=4,False,Adyar,Chennai,"10/2 ,12th Street, Bakthavatchallam Nagar,Nanganallur, Adyar, Chennai - 600061, Dist.Chennai, Tamil Nadu",7949091874,
Yellow And Red Plastic Musical Activity Baby Walker,https://www.indiamart.com/proddetail/musical-activity-baby-walker-2853972276573.html?pos=63&kwd=baby harness&tags=||||8752.144|Price|product|||MDC|rsf:gd-|-stype:attr=1|qr_nm:gd|res:RC3|com-cf:nl|ptrs:na|ktp:N0|mc:45613|mtp:S|qry_typ:P|lang:en|wc:2|cs:8834|v=4,Swastik Toys,https://www.indiamart.com/swastik-toys-delhi/?pos=63&kwd=baby harness&tags=||||8752.144|Price|product|||MDC|rsf:gd-|-stype:attr=1|qr_nm:gd|res:RC3|com-cf:nl|ptrs:na|ktp:N0|mc:45613|mtp:S|qry_typ:P|lang:en|wc:2|cs:8834|v=4,False,Tihar,New Delhi,"WZ 125, Mahakavi Goswami Tulsidas Marg, Tihar, West Delhi, Tihar, New Delhi - 110018, Dist.Delhi, Delhi",8044015186,
"Iron Blue Baby Stroller, 4",https://www.indiamart.com/proddetail/blue-baby-stroller-2852948042530.html?pos=64&kwd=baby harness&tags=||||8752.144|Price|product|||MDC|rsf:gd-|-stype:attr=1|qr_nm:gd|res:RC3|com-cf:nl|ptrs:na|ktp:N0|mc:45613|mtp:S|qry_typ:P|lang:en|wc:2|cs:8834|v=4,Juneja Steel Furniture,https://www.indiamart.com/juneja-steel-furniture/?pos=64&kwd=baby harness&tags=||||8752.144|Price|product|||MDC|rsf:gd-|-stype:attr=1|qr_nm:gd|res:RC3|com-cf:nl|ptrs:na|ktp:N0|mc:45613|mtp:S|qry_typ:P|lang:en|wc:2|cs:8834|v=4,False,Multani Dhanda,New Delhi,"9523/13 Multani Dhanda Pahar Ganj, Multani Dhanda, New Delhi - 110055, Dist.Delhi, Delhi",8047824106,
"Donald Plastic Baby Pram & Stroller, Age Group: 3-12 Months, 8 Wheel",https://www.indiamart.com/proddetail/baby-pram-stroller-21581283233.html?pos=65&kwd=baby harness&tags=||||8752.144|Price|product|||TS|rsf:gd-|-stype:attr=1|qr_nm:gd|res:RC3|com-cf:nl|ptrs:na|ktp:N0|mc:45613|mtp:S|qry_typ:P|lang:en|wc:2|cs:8834|v=4,Giriraj Enterprises,https://www.indiamart.com/giriraj-enterprises-delhi/?pos=65&kwd=baby harness&tags=||||8752.144|Price|product|||TS|rsf:gd-|-stype:attr=1|qr_nm:gd|res:RC3|com-cf:nl|ptrs:na|ktp:N0|mc:45613|mtp:S|qry_typ:P|lang:en|wc:2|cs:8834|v=4,False,Shakurpur,New Delhi,"WZ 313 A, Shakurpur Village, Shakurpur, New Delhi - 110034, Dist.Delhi, Delhi",8048262415,
"INFANTO Blue,Red Comfortable Baby Red Car Seat, Packaging Type: Box",https://www.indiamart.com/proddetail/comfortable-baby-red-car-seat-21989528830.html?pos=66&kwd=baby harness&tags=||||8211.142|Price|product|||TS|rsf:gd-|-stype:attr=1|qr_nm:gd|res:RC3|com-cf:nl|ptrs:na|ktp:N0|mc:45613|mtp:S|qry_typ:P|lang:en|wc:2|cs:8834|v=4,New Natraj Industries,https://www.indiamart.com/newnatrajindustries/?pos=66&kwd=baby harness&tags=||||8211.142|Price|product|||TS|rsf:gd-|-stype:attr=1|qr_nm:gd|res:RC3|com-cf:nl|ptrs:na|ktp:N0|mc:45613|mtp:S|qry_typ:P|lang:en|wc:2|cs:8834|v=4,False,Andheri,Mumbai,"2nd,47 A,VEERA DESAI ROAD,GHANSHYAM INDUSTRIAL ESTATE,ANDHERI WEST, Andheri, Mumbai - 400053, Dist.Mumbai, Maharashtra",8048609903,
Baby Protection Seat,https://www.indiamart.com/proddetail/baby-protection-seat-25303609162.html?pos=67&kwd=baby harness&tags=||||8211.142|Price|product|||TS|rsf:gd-|-stype:attr=1|qr_nm:gd|res:RC3|com-cf:nl|ptrs:na|ktp:N0|mc:45613|mtp:S|qry_typ:P|lang:en|wc:2|cs:8834|v=4,Orchids Tissue Paper Products,https://www.indiamart.com/orchidstissuepaperproducts/?pos=67&kwd=baby harness&tags=||||8211.142|Price|product|||TS|rsf:gd-|-stype:attr=1|qr_nm:gd|res:RC3|com-cf:nl|ptrs:na|ktp:N0|mc:45613|mtp:S|qry_typ:P|lang:en|wc:2|cs:8834|v=4,False,Mahim,Mumbai,"Shop No 209/210, Allied Industrial Estate, Ram Panjwani Road, Mahim, Mahim, Mumbai - 400016, Dist.Mumbai, Maharashtra",8046045706,
"Multicolor shree hans creation Baby Moon Walker, For Personal",https://www.indiamart.com/proddetail/shree-hans-creation-baby-moon-walker-24751729633.html?pos=68&kwd=baby harness&tags=||||8230.883|Price|product|||TS|rsf:gd-|-stype:attr=1|qr_nm:gd|res:RC3|com-cf:nl|ptrs:na|ktp:N0|mc:45613|mtp:S|qry_typ:P|lang:en|wc:2|cs:8834|v=4,Ankita Jeetubhai Lokdiya,https://www.hanscart.com/?pos=68&kwd=baby harness&tags=||||8230.883|Price|product|||TS|rsf:gd-|-stype:attr=1|qr_nm:gd|res:RC3|com-cf:nl|ptrs:na|ktp:N0|mc:45613|mtp:S|qry_typ:P|lang:en|wc:2|cs:8834|v=4,False,Katargam,Surat,"Block No.82, Plot No.C1, Ground Floor, Palod, Nr.Bank Of India, Nr.Kim Chowkdi, Kim, Katargam, Surat - 394110, Dist.Surat, Gujarat",8046041344,
"Multicolor 2.5 Feet Baby Stroller Pram, 8 Wheel, Packaging Type: Box Packing",https://www.indiamart.com/proddetail/baby-stroller-pram-2854219439473.html?pos=69&kwd=baby harness&tags=||||8752.144|Price|product|||TS|rsf:gd-|-stype:attr=1|qr_nm:gd|res:RC3|com-cf:nl|ptrs:na|ktp:N0|mc:45613|mtp:S|qry_typ:P|lang:en|wc:2|cs:8834|v=4,Indial Premium Products,https://www.indiamart.com/indial-premium-products/?pos=69&kwd=baby harness&tags=||||8752.144|Price|product|||TS|rsf:gd-|-stype:attr=1|qr_nm:gd|res:RC3|com-cf:nl|ptrs:na|ktp:N0|mc:45613|mtp:S|qry_typ:P|lang:en|wc:2|cs:8834|v=4,False,,New Delhi,"68, K Block, Jahangirpuri North West Delhi, New Delhi - 110033, Dist.Delhi, Delhi",8045732973,
Joie Mirus Reversible Handle Stroller (Birth to 17.5kg),https://www.indiamart.com/proddetail/joie-mirus-reversible-handle-stroller-birth-to-17-5kg-2851664954888.html?pos=70&kwd=baby harness&tags=||||8752.144|Price|product|||TS|rsf:gd-|-stype:attr=1|qr_nm:gd|res:RC3|com-cf:nl|ptrs:na|ktp:N0|mc:45613|mtp:S|qry_typ:P|lang:en|wc:2|cs:8834|v=4,Luxtronic Technologies,https://www.indiamart.com/luxtronic-technologies/?pos=70&kwd=baby harness&tags=||||8752.144|Price|product|||TS|rsf:gd-|-stype:attr=1|qr_nm:gd|res:RC3|com-cf:nl|ptrs:na|ktp:N0|mc:45613|mtp:S|qry_typ:P|lang:en|wc:2|cs:8834|v=4,False,Burari,New Delhi,"Khasra No.19/1, Shastri Park Burari,, Burari, New Delhi - 110084, Dist.Delhi, Delhi",7942835637,
"Plastic Adjustable Baby Walker, One to Two Years",https://www.indiamart.com/proddetail/adjustable-baby-walker-2854781917533.html?pos=71&kwd=baby harness&tags=||||8211.142|Price|product|||TS|rsf:gd-|-stype:attr=1|qr_nm:gd|res:RC3|com-cf:nl|ptrs:na|ktp:N0|mc:45613|mtp:S|qry_typ:P|lang:en|wc:2|cs:8834|v=4,P For Panda Baby Products Private Limited,https://www.p4pandababyproducts.com/?pos=71&kwd=baby harness&tags=||||8211.142|Price|product|||TS|rsf:gd-|-stype:attr=1|qr_nm:gd|res:RC3|com-cf:nl|ptrs:na|ktp:N0|mc:45613|mtp:S|qry_typ:P|lang:en|wc:2|cs:8834|v=4,False,Goregaon West,Mumbai,"904 A Wing,9 Th Floor,Triple S Heights,Jakeria Road, Goregaon West, Mumbai - 400064, Dist.Mumbai, Maharashtra",7942710871,
"Black Baby Car Seat, Packaging Type: Box, Newly Born",https://www.indiamart.com/proddetail/baby-car-seat-2852488036055.html?pos=72&kwd=baby harness&tags=||||8211.142|Price|product|||TS|rsf:gd-|-stype:attr=1|qr_nm:gd|res:RC3|com-cf:nl|ptrs:na|ktp:N0|mc:45613|mtp:S|qry_typ:P|lang:en|wc:2|cs:8834|v=4,Mabel The Fashion Hub,https://www.mabelbabies.com/?pos=72&kwd=baby harness&tags=||||8211.142|Price|product|||TS|rsf:gd-|-stype:attr=1|qr_nm:gd|res:RC3|com-cf:nl|ptrs:na|ktp:N0|mc:45613|mtp:S|qry_typ:P|lang:en|wc:2|cs:8834|v=4,False,Andheri East,Mumbai,"Shop No 1, Teresa Triumph Chs, J B Nagar, Andheri East, Mumbai - 400059, Dist.Mumbai, Maharashtra",8047635478,
"Stainless Steel Dumbledo Babylove Pink Baby Stroller, 4",https://www.indiamart.com/proddetail/dumbledo-babylove-pink-baby-stroller-2854254006873.html?pos=73&kwd=baby harness&tags=||||8211.142|Price|product|||MDC|rsf:gd-|-stype:attr=1|qr_nm:gd|res:RC3|com-cf:nl|ptrs:na|ktp:N0|mc:45613|mtp:S|qry_typ:P|lang:en|wc:2|cs:8834|v=4,Dumbledo,https://www.indiamart.com/dumbledo-mumbai/?pos=73&kwd=baby harness&tags=||||8211.142|Price|product|||MDC|rsf:gd-|-stype:attr=1|qr_nm:gd|res:RC3|com-cf:nl|ptrs:na|ktp:N0|mc:45613|mtp:S|qry_typ:P|lang:en|wc:2|cs:8834|v=4,False,,Mumbai,"1st Floor, B/105, Bhoomi Valley, Thakur Village Road, Mumbai - 400101, Dist.Mumbai, Maharashtra",8044560722,
Suspended Gait Trainer Reduced Weight-Bearing Gait Training Aid Dual Motor Remote Controlled,https://www.indiamart.com/proddetail/suspended-gait-trainer-reduced-weight-bearing-gait-training-aid-dual-motor-remote-controlled-2852425727333.html?pos=74&kwd=baby harness&tags=||||8752.144|Price|product|||TS|rsf:gd-|-stype:attr=1|qr_nm:gd|res:RC3|com-cf:nl|ptrs:na|ktp:N0|mc:45613|mtp:S|qry_typ:P|lang:en|wc:2|cs:8834|v=4,Solution Forever,https://www.biotronixsolutionforever.com/?pos=74&kwd=baby harness&tags=||||8752.144|Price|product|||TS|rsf:gd-|-stype:attr=1|qr_nm:gd|res:RC3|com-cf:nl|ptrs:na|ktp:N0|mc:45613|mtp:S|qry_typ:P|lang:en|wc:2|cs:8834|v=4,False,Kirti Nagar,New Delhi,"F - 400, Sudershan Park, Moti Nagar, Near Gopal Dairy, Kirti Nagar, New Delhi - 110015, Dist.Delhi, Delhi",8048601881,
"Brown Cotton 110 GSM Baby Carrier Bag, Age Group: 1-2 Years",https://www.indiamart.com/proddetail/110-gsm-baby-carrier-bag-2854915243473.html?pos=77&kwd=baby harness&tags=||||8786.56|Price|proxy|||MDC|rsf:gd-|-stype:attr=1|qr_nm:gd|res:RC3|com-cf:nl|ptrs:na|ktp:N0|mc:45613|mtp:S|qry_typ:P|lang:en|wc:2|cs:8834|v=4,Jeneve Trutwein,https://www.indiamart.com/jeneve-trutwein/?pos=77&kwd=baby harness&tags=||||8786.56|Price|proxy|||MDC|rsf:gd-|-stype:attr=1|qr_nm:gd|res:RC3|com-cf:nl|ptrs:na|ktp:N0|mc:45613|mtp:S|qry_typ:P|lang:en|wc:2|cs:8834|v=4,False,,Hyderabad,"3rd Floor, Flat NO.302, Hriddhi Residency, Serilingampally, Plot NO.169/27, Rangareddy, Hyderabad - 500019, Dist.Hyderabad, Telangana",8041014428,
"Plastic Yellow Baby Walker, 6 Months",https://www.indiamart.com/proddetail/plastic-yellow-baby-walker-2854549728355.html?pos=76&kwd=baby harness&tags=||||8752.144|Price|product|||NA|rsf:gd-|-stype:attr=1|qr_nm:gd|res:RC3|com-cf:nl|ptrs:na|ktp:N0|mc:45613|mtp:S|qry_typ:P|lang:en|wc:2|cs:8834|v=4,Shree Shyam Sales,https://www.indiamart.com/shree-shyamsalesdelhi/?pos=76&kwd=baby harness&tags=||||8752.144|Price|product|||NA|rsf:gd-|-stype:attr=1|qr_nm:gd|res:RC3|com-cf:nl|ptrs:na|ktp:N0|mc:45613|mtp:S|qry_typ:P|lang:en|wc:2|cs:8834|v=4,False,,New Delhi,"Ground Floor, NO. 176/6A, Block-K, 70 Foot Road, Prem Nagar 2, Near By Jaanu Building, Kirari Suleman Nagar, North Delhi,, New Delhi - 110086, Dist.Delhi, Delhi",7949325238,
"Brown Cotton 110 GSM Baby Carrier Bag, Age Group: 1-2 Years",https://www.indiamart.com/proddetail/110-gsm-baby-carrier-bag-2854915243473.html?pos=77&kwd=baby harness&tags=||||8786.56|Price|proxy|||MDC|rsf:gd-|-stype:attr=1|qr_nm:gd|res:RC3|com-cf:nl|ptrs:na|ktp:N0|mc:45613|mtp:S|qry_typ:P|lang:en|wc:2|cs:8834|v=4,Jeneve Trutwein,https://www.indiamart.com/jeneve-trutwein/?pos=77&kwd=baby harness&tags=||||8786.56|Price|proxy|||MDC|rsf:gd-|-stype:attr=1|qr_nm:gd|res:RC3|com-cf:nl|ptrs:na|ktp:N0|mc:45613|mtp:S|qry_typ:P|lang:en|wc:2|cs:8834|v=4,False,,Hyderabad,"3rd Floor, Flat NO.302, Hriddhi Residency, Serilingampally, Plot NO.169/27, Rangareddy, Hyderabad - 500019, Dist.Hyderabad, Telangana",8041014428,
"Gray,Black Grey LuvLap Infant Baby Car Seat",https://www.indiamart.com/proddetail/grey-luvlap-infant-baby-car-seat-24263696312.html?pos=78&kwd=baby harness&tags=||||8740.707|Price|product|||NA|rsf:gd-|-stype:attr=1|qr_nm:gd|res:RC3|com-cf:nl|ptrs:na|ktp:N0|mc:45613|mtp:S|qry_typ:P|lang:en|wc:2|cs:8834|v=4,Atharva Enterprises,https://www.indiamart.com/atharvaenterprises-zirakpur/?pos=78&kwd=baby harness&tags=||||8740.707|Price|product|||NA|rsf:gd-|-stype:attr=1|qr_nm:gd|res:RC3|com-cf:nl|ptrs:na|ktp:N0|mc:45613|mtp:S|qry_typ:P|lang:en|wc:2|cs:8834|v=4,False,SAS Nagar,Sas Nagar,"Shop No. 7, Near Community Centre, Luxmi Enclave, Dhakoli, SAS Nagar, Sas Nagar - 140603, Dist.Mohali, Punjab",7942538452,
Convertible Car Seat For Kids,https://www.indiamart.com/proddetail/convertible-car-seat-for-kids-24823985648.html?pos=79&kwd=baby harness&tags=||||8211.142|Price|product|||NA|rsf:gd-|-stype:attr=1|qr_nm:gd|res:RC3|com-cf:nl|ptrs:na|ktp:N0|mc:45613|mtp:S|qry_typ:P|lang:en|wc:2|cs:8834|v=4,Pawan General Stores,https://www.indiamart.com/pvan-retail/?pos=79&kwd=baby harness&tags=||||8211.142|Price|product|||NA|rsf:gd-|-stype:attr=1|qr_nm:gd|res:RC3|com-cf:nl|ptrs:na|ktp:N0|mc:45613|mtp:S|qry_typ:P|lang:en|wc:2|cs:8834|v=4,False,Thakur Village,Mumbai,"B. Block Varanda No 6 Main Bazar Main Bazar Pimpri, Thakur Village, Mumbai - 411017, Dist.Mumbai, Maharashtra",8043812369,
Baby Car Seat,https://www.indiamart.com/proddetail/baby-car-seat-22544401497.html?pos=80&kwd=baby harness&tags=||||8230.883||product|||NA|rsf:gd-|-stype:attr=1|qr_nm:gd|res:RC3|com-cf:nl|ptrs:na|ktp:N0|mc:45613|mtp:S|qry_typ:P|lang:en|wc:2|cs:8834|v=4,Rozzby,https://www.indiamart.com/rozzby-surat/?pos=80&kwd=baby harness&tags=||||8230.883||product|||NA|rsf:gd-|-stype:attr=1|qr_nm:gd|res:RC3|com-cf:nl|ptrs:na|ktp:N0|mc:45613|mtp:S|qry_typ:P|lang:en|wc:2|cs:8834|v=4,False,Hirabaug,Surat,"A/19,Purvi Soc,Hirabaug,Varachha Road, Hirabaug, Surat - 395006, Dist.Surat, Gujarat",8048372580,706
Vaishnavi Enterprises,,Vaishnavi Enterprises,https://www.indiamart.com/vaishnavienterprises-haryana/?pos=81&kwd=baby harness&tags=||||8769.508||bl|||MDC|rsf:gd-|-stype:attr=1|qr_nm:gd|res:RC3|com-cf:nl|ptrs:na|ktp:N0|mc:45613|mtp:S|qry_typ:P|lang:en|wc:2|cs:8834|v=4,False,Ballabhgarh,Faridabad,"House No 68, Near Govt. Primary School, Mothuka Shiv Mandir, Ballabhgarh, Faridabad - 121101, Dist.Faridabad, Haryana",7949093248,
Baby Car Seat BRITAX ROMER EVOLVA 1-2-3 SICT,https://www.indiamart.com/proddetail/baby-car-seat-britax-romer-evolva-1-2-3-sict-19473654662.html?pos=82&kwd=baby harness&tags=||||8211.142|Price|product|||NA|rsf:gd-|-stype:attr=1|qr_nm:gd|res:RC3|com-cf:nl|ptrs:na|ktp:N0|mc:45613|mtp:S|qry_typ:P|lang:en|wc:2|cs:8834|v=4,Resper International (India) Private Limited,https://www.indiamart.com/reltrix-fincorp/?pos=82&kwd=baby harness&tags=||||8211.142|Price|product|||NA|rsf:gd-|-stype:attr=1|qr_nm:gd|res:RC3|com-cf:nl|ptrs:na|ktp:N0|mc:45613|mtp:S|qry_typ:P|lang:en|wc:2|cs:8834|v=4,False,Dharavi,Mumbai,"144, Ashok Mill Compound Sion Bandra Link Road, Dharavi, Mumbai - 400017, Dist.Mumbai, Maharashtra",8048371522,634
Logo Printed Wall Mount LuvLap Joy Convertible Baby Car Seat,https://www.indiamart.com/proddetail/luvlap-joy-convertible-baby-car-seat-2852595188897.html?pos=83&kwd=baby harness&tags=||||8706.587|Price|product|||NA|rsf:gd-|-stype:attr=1|qr_nm:gd|res:RC3|com-cf:nl|ptrs:na|ktp:N0|mc:45613|mtp:S|qry_typ:P|lang:en|wc:2|cs:8834|v=4,HD Automotive,https://www.indiamart.com/hdautomotive/?pos=83&kwd=baby harness&tags=||||8706.587|Price|product|||NA|rsf:gd-|-stype:attr=1|qr_nm:gd|res:RC3|com-cf:nl|ptrs:na|ktp:N0|mc:45613|mtp:S|qry_typ:P|lang:en|wc:2|cs:8834|v=4,False,,Madurai,"No - 12, Sasi Nagar , P And T Nagar, Madurai - 625017, Dist.Madurai, Tamil Nadu",7942709913,
SIMPRO High Quality Baby Carry Bag with Strong Belt 4 in 1 Position Baby Carrier Baby Carrier,https://www.indiamart.com/proddetail/simpro-high-quality-baby-carry-bag-with-strong-belt-4-in-1-position-baby-carrier-baby-carrier-2853175679155.html?pos=84&kwd=baby harness&tags=||||9848.189|Price|product|||NA|rsf:gd-|-stype:attr=1|qr_nm:gd|res:RC3|com-cf:nl|ptrs:na|ktp:N0|mc:45613|mtp:S|qry_typ:P|lang:en|wc:2|cs:8834|v=4,Social Cat,https://www.indiamart.com/googlykart/?pos=84&kwd=baby harness&tags=||||9848.189|Price|product|||NA|rsf:gd-|-stype:attr=1|qr_nm:gd|res:RC3|com-cf:nl|ptrs:na|ktp:N0|mc:45613|mtp:S|qry_typ:P|lang:en|wc:2|cs:8834|v=4,False,sb nagar,Siliguri,"445/50/109/88/1 Ward No 24, sb nagar, Siliguri - 734004, Dist.Darjiling, West Bengal",,
R for Rabbit Ginny and Johnny Baby Stroller,https://www.indiamart.com/proddetail/r-for-rabbit-ginny-and-johnny-baby-stroller-2851751640255.html?pos=85&kwd=baby harness&tags=||||8612.732|Price|product|||NA|rsf:gd-|-stype:attr=1|qr_nm:gd|res:RC3|com-cf:nl|ptrs:na|ktp:N0|mc:45613|mtp:S|qry_typ:P|lang:en|wc:2|cs:8834|v=4,Swift Healthcare & Hygiene Private Limited,https://www.indiamart.com/swift-healthcare-hygiene-private-limited-srinagar/?pos=85&kwd=baby harness&tags=||||8612.732|Price|product|||NA|rsf:gd-|-stype:attr=1|qr_nm:gd|res:RC3|com-cf:nl|ptrs:na|ktp:N0|mc:45613|mtp:S|qry_typ:P|lang:en|wc:2|cs:8834|v=4,False,Pampore,Srinagar,"1 1 Shiraz Road Srinagar Srinagar, Pampore, Srinagar - 190003, Dist.Srinagar, Jammu & Kashmir",,
Red And Black Baby Lockable Car Seat BL-22,https://www.indiamart.com/proddetail/baby-lockable-car-seat-bl-22-20517628030.html?pos=86&kwd=baby harness&tags=||||8954.051||product|||NA|rsf:gd-|-stype:attr=1|qr_nm:gd|res:RC3|com-cf:nl|ptrs:na|ktp:N0|mc:45613|mtp:S|qry_typ:P|lang:en|wc:2|cs:8834|v=4,Babylou,https://www.indiamart.com/baby-lou/?pos=86&kwd=baby harness&tags=||||8954.051||product|||NA|rsf:gd-|-stype:attr=1|qr_nm:gd|res:RC3|com-cf:nl|ptrs:na|ktp:N0|mc:45613|mtp:S|qry_typ:P|lang:en|wc:2|cs:8834|v=4,False,Mylapore,Chennai,"114 Luz Church Road Near Alwarpet Anjaneyar Temple, Mylapore, Chennai - 600004, Dist.Chennai, Tamil Nadu",8043800763,
R For Rabbit Jack N Jill Grand Isofix Car Seat For Kids - Grey,https://www.indiamart.com/proddetail/r-for-rabbit-jack-n-jill-grand-isofix-car-seat-for-kids-grey-2854852520888.html?pos=87&kwd=baby harness&tags=||||8752.144|Price|product|||NA|rsf:gd-|-stype:attr=1|qr_nm:gd|res:RC3|com-cf:nl|ptrs:na|ktp:N0|mc:45613|mtp:S|qry_typ:P|lang:en|wc:2|cs:8834|v=4,BD Impex,https://www.indiamart.com/company/2395482/?pos=87&kwd=baby harness&tags=||||8752.144|Price|product|||NA|rsf:gd-|-stype:attr=1|qr_nm:gd|res:RC3|com-cf:nl|ptrs:na|ktp:N0|mc:45613|mtp:S|qry_typ:P|lang:en|wc:2|cs:8834|v=4,False,,New Delhi,"The Moms Darling - Baby Shop 163, Kapil Vihar, Pitampura, New Delhi - 110034, Dist.Delhi, Delhi",,
Metal Lite Colorful Stroller & Pram,https://www.indiamart.com/proddetail/lite-colorful-stroller-pram-2852151702230.html?pos=88&kwd=baby harness&tags=||||8316.457|Price|product|||NA|rsf:gd-|-stype:attr=1|qr_nm:gd|res:RC3|com-cf:nl|ptrs:na|ktp:N0|mc:45613|mtp:S|qry_typ:P|lang:en|wc:2|cs:8834|v=4,Kihama Toys LLP,https://www.indiamart.com/kihamatoys/?pos=88&kwd=baby harness&tags=||||8316.457|Price|product|||NA|rsf:gd-|-stype:attr=1|qr_nm:gd|res:RC3|com-cf:nl|ptrs:na|ktp:N0|mc:45613|mtp:S|qry_typ:P|lang:en|wc:2|cs:8834|v=4,False,Gangapur Road,Nashik,"A Wing, Office No 1A, Rushiraj Riviers, Gangapur Road, Near Bhonsla Military School, Gangapur Road, Nashik - 422013, Dist.Nashik, Maharashtra",7942837923,
"3feet Wooden Funskool Activity Walker, 4 Wheeles",https://www.indiamart.com/proddetail/funskool-activity-walker-25744025291.html?pos=89&kwd=baby harness&tags=||||8954.051||product|||NA|rsf:gd-|-stype:attr=1|qr_nm:gd|res:RC3|com-cf:nl|ptrs:na|ktp:N0|mc:45613|mtp:S|qry_typ:P|lang:en|wc:2|cs:8834|v=4,Babylou,https://www.indiamart.com/wwwindiamartcom-babylou-tn/?pos=89&kwd=baby harness&tags=||||8954.051||product|||NA|rsf:gd-|-stype:attr=1|qr_nm:gd|res:RC3|com-cf:nl|ptrs:na|ktp:N0|mc:45613|mtp:S|qry_typ:P|lang:en|wc:2|cs:8834|v=4,False,Alwarpet,Chennai,"Gokul Towers 7/54 CP Ramaswamy Road, Alwarpet, Chennai - 600004, Dist.Chennai, Tamil Nadu",8047654088,
Yapaababy Kidstar Safety Baby Car Seat,https://www.indiamart.com/proddetail/yapaababy-kidstar-safety-baby-car-seat-3794221530.html?pos=90&kwd=baby harness&tags=||||8230.883||product|||NA|rsf:gd-|-stype:attr=1|qr_nm:gd|res:RC3|com-cf:nl|ptrs:na|ktp:N0|mc:45613|mtp:S|qry_typ:P|lang:en|wc:2|cs:8834|v=4,Yapaa Dot Com,https://www.indiamart.com/yapaa-dsurat/?pos=90&kwd=baby harness&tags=||||8230.883||product|||NA|rsf:gd-|-stype:attr=1|qr_nm:gd|res:RC3|com-cf:nl|ptrs:na|ktp:N0|mc:45613|mtp:S|qry_typ:P|lang:en|wc:2|cs:8834|v=4,False,,Surat,"Ghod Dod Road, Surat - 395007, Dist.Surat, Gujarat",8047308899,7252
"107 CM Eva Foam LuvLap Galaxy Stroller Pram Black For babies upto 25 kg, 4",https://www.indiamart.com/proddetail/luvlap-galaxy-stroller-pram-black-for-babies-upto-25-kg-24301529473.html?pos=91&kwd=baby harness&tags=||||8752.144|Price|product|||NA|rsf:gd-|-stype:attr=1|qr_nm:gd|res:RC3|com-cf:nl|ptrs:na|ktp:N0|mc:45613|mtp:S|qry_typ:P|lang:en|wc:2|cs:8834|v=4,DRR Tele Services,https://www.indiamart.com/drr-tele-services/?pos=91&kwd=baby harness&tags=||||8752.144|Price|product|||NA|rsf:gd-|-stype:attr=1|qr_nm:gd|res:RC3|com-cf:nl|ptrs:na|ktp:N0|mc:45613|mtp:S|qry_typ:P|lang:en|wc:2|cs:8834|v=4,False,,New Delhi,"House No. G1/54B, Kunwar Singh Nagar, Nangloi, West Delhi, New Delhi - 110041, Dist.Delhi, Delhi",8048247131,5649
Sunbaby Orion Carseat Without Bumper,https://www.indiamart.com/proddetail/sunbaby-orion-carseat-without-bumper-16034371597.html?pos=92&kwd=baby harness&tags=||||8752.144|Price|product|||NA|rsf:gd-|-stype:attr=1|qr_nm:gd|res:RC3|com-cf:nl|ptrs:na|ktp:N0|mc:45613|mtp:S|qry_typ:P|lang:en|wc:2|cs:8834|v=4,I Tigar Shop Dot Com,https://www.indiamart.com/i-tigar-shopcom/?pos=92&kwd=baby harness&tags=||||8752.144|Price|product|||NA|rsf:gd-|-stype:attr=1|qr_nm:gd|res:RC3|com-cf:nl|ptrs:na|ktp:N0|mc:45613|mtp:S|qry_typ:P|lang:en|wc:2|cs:8834|v=4,False,,New Delhi,"Near Indira Gandhi Gandhi International Airport, New Delhi - 110037, Dist.Delhi, Delhi",8048372371,331
Multicolor Offspring Baby Carry Cot Cum Rocker,https://www.indiamart.com/proddetail/offspring-baby-carry-cot-cum-rocker-20147405255.html?pos=93&kwd=baby harness&tags=||||8211.142||product|||NA|rsf:gd-|-stype:attr=1|qr_nm:gd|res:RC3|com-cf:nl|ptrs:na|ktp:N0|mc:45613|mtp:S|qry_typ:P|lang:en|wc:2|cs:8834|v=4,Offspring,https://www.indiamart.com/offspring/?pos=93&kwd=baby harness&tags=||||8211.142||product|||NA|rsf:gd-|-stype:attr=1|qr_nm:gd|res:RC3|com-cf:nl|ptrs:na|ktp:N0|mc:45613|mtp:S|qry_typ:P|lang:en|wc:2|cs:8834|v=4,False,Ghatkopar West,Mumbai,"No. 316, Subhash Nagar, Dutt Nagar J. M. Mandir Road, Asalpha, Ghatkopar West, Ghatkopar West, Mumbai - 400084, Dist.Mumbai, Maharashtra",8047629614,
Audi Baby Seat,https://www.indiamart.com/proddetail/audi-baby-seat-6669001648.html?pos=94&kwd=baby harness&tags=||||8752.144||product|||NA|rsf:gd-|-stype:attr=1|qr_nm:gd|res:RC3|com-cf:nl|ptrs:na|ktp:N0|mc:45613|mtp:S|qry_typ:P|lang:en|wc:2|cs:8834|v=4,Audi Delhi South,https://www.indiamart.com/audi-delhi-south-newdelhi/?pos=94&kwd=baby harness&tags=||||8752.144||product|||NA|rsf:gd-|-stype:attr=1|qr_nm:gd|res:RC3|com-cf:nl|ptrs:na|ktp:N0|mc:45613|mtp:S|qry_typ:P|lang:en|wc:2|cs:8834|v=4,False,Industrial Estate Mathura Road,New Delhi,"B1/H1 Mohan Cooperative, Industrial Estate Mathura Road, New Delhi - 110044, Dist.Delhi, Delhi",8047311019,5576
Smart Trike Infinity Purple Stroller,https://www.indiamart.com/proddetail/smart-trike-infinity-purple-stroller-15159339148.html?pos=95&kwd=baby harness&tags=||||8785.791||product|||NA|rsf:gd-|-stype:attr=1|qr_nm:gd|res:RC3|com-cf:nl|ptrs:na|ktp:N0|mc:45613|mtp:S|qry_typ:P|lang:en|wc:2|cs:8834|v=4,Mothercare,https://www.indiamart.com/mothercare-ghaziabad/?pos=95&kwd=baby harness&tags=||||8785.791||product|||NA|rsf:gd-|-stype:attr=1|qr_nm:gd|res:RC3|com-cf:nl|ptrs:na|ktp:N0|mc:45613|mtp:S|qry_typ:P|lang:en|wc:2|cs:8834|v=4,False,,Ghaziabad,"Shop No. 5 Lower Grung Floor Shipra Mall, Ghaziabad - 201014, Dist.Ghaziabad, Uttar Pradesh",8062245991,679
28 cm Mild Steel And Plastic 6 Wheel Baby Pram,https://www.indiamart.com/proddetail/6-wheel-baby-pram-24973137755.html?pos=96&kwd=baby harness&tags=||||8752.144|Price|product|||NA|rsf:gd-|-stype:attr=1|qr_nm:gd|res:RC3|com-cf:nl|ptrs:na|ktp:N0|mc:45613|mtp:S|qry_typ:P|lang:en|wc:2|cs:8834|v=4,Aries Enterprises,https://www.indiamart.com/aries-enterprises-newdelhi/?pos=96&kwd=baby harness&tags=||||8752.144|Price|product|||NA|rsf:gd-|-stype:attr=1|qr_nm:gd|res:RC3|com-cf:nl|ptrs:na|ktp:N0|mc:45613|mtp:S|qry_typ:P|lang:en|wc:2|cs:8834|v=4,False,Budh Vihar Phase -1,New Delhi,"Prop No 15, KH No 80/22, 1st Floor, Block F-2, Budh Vihar, Phase-1, Pooth Kalan, Budh Vihar Phase -1, New Delhi - 110086, Dist.Delhi, Delhi",8047307345,
Baby Walker BW05 Blue,https://www.indiamart.com/proddetail/baby-walker-bw05-blue-8933147797.html?pos=97&kwd=baby harness&tags=||||8211.142||product|||NA|rsf:gd-|-stype:attr=1|qr_nm:gd|res:RC3|com-cf:nl|ptrs:na|ktp:N0|mc:45613|mtp:S|qry_typ:P|lang:en|wc:2|cs:8834|v=4,Mahesh & Sons HUF,https://www.indiamart.com/mahesh-and-sons-huf/?pos=97&kwd=baby harness&tags=||||8211.142||product|||NA|rsf:gd-|-stype:attr=1|qr_nm:gd|res:RC3|com-cf:nl|ptrs:na|ktp:N0|mc:45613|mtp:S|qry_typ:P|lang:en|wc:2|cs:8834|v=4,False,Santacruz East,Mumbai,"B 3/2, BK Chhabra Estate, Santacruz East, Mumbai - 400055, Dist.Mumbai, Maharashtra",8047668053,
Baby Bouncer Blue,https://www.indiamart.com/proddetail/baby-bouncer-blue-13727181997.html?pos=98&kwd=baby harness&tags=||||8476.868|Price|product|||NA|rsf:gd-|-stype:attr=1|qr_nm:gd|res:RC3|com-cf:nl|ptrs:na|ktp:N0|mc:45613|mtp:S|qry_typ:P|lang:en|wc:2|cs:8834|v=4,J L Morison India Limited,https://www.indiamart.com/sydler-remedies/?pos=98&kwd=baby harness&tags=||||8476.868|Price|product|||NA|rsf:gd-|-stype:attr=1|qr_nm:gd|res:RC3|com-cf:nl|ptrs:na|ktp:N0|mc:45613|mtp:S|qry_typ:P|lang:en|wc:2|cs:8834|v=4,False,MIDC,Aurangabad,"E-95/1, M. I. D. C, Waluj, MIDC, Aurangabad - 431136, Maharashtra",7942612193,
"Cotton Red Baby Carrier, Age Group: 0-6 Months, Packaging Type: Pouch Packaging",https://www.indiamart.com/proddetail/red-baby-carrier-2854238387848.html?pos=99&kwd=baby harness&tags=||||8823.154|Price|product|||NA|rsf:gd-|-stype:attr=1|qr_nm:gd|res:RC3|com-cf:nl|ptrs:na|ktp:N0|mc:45613|mtp:S|qry_typ:P|lang:en|wc:2|cs:8834|v=4,Hariom Trading Co.,https://www.indiamart.com/hariomtradingco-agra/?pos=99&kwd=baby harness&tags=||||8823.154|Price|product|||NA|rsf:gd-|-stype:attr=1|qr_nm:gd|res:RC3|com-cf:nl|ptrs:na|ktp:N0|mc:45613|mtp:S|qry_typ:P|lang:en|wc:2|cs:8834|v=4,False,,Agra,"24, Johri Bazar, Agra - 282003, Dist.Agra, Uttar Pradesh",8045735811,
"2 Feet Linen Dotmom Uber Flyer Stroller Baby Walkers, 4 Wheels",https://www.indiamart.com/proddetail/dotmom-uber-flyer-stroller-baby-walkers-23486949288.html?pos=100&kwd=baby harness&tags=||||8741.812|Price|product|||NA|rsf:gd-|-stype:attr=1|qr_nm:gd|res:RC3|com-cf:nl|ptrs:na|ktp:N0|mc:45613|mtp:S|qry_typ:P|lang:en|wc:2|cs:8834|v=4,Keta Anjani Impex,https://www.indiamart.com/ketaanjaniimpex/?pos=100&kwd=baby harness&tags=||||8741.812|Price|product|||NA|rsf:gd-|-stype:attr=1|qr_nm:gd|res:RC3|com-cf:nl|ptrs:na|ktp:N0|mc:45613|mtp:S|qry_typ:P|lang:en|wc:2|cs:8834|v=4,False,Sector 90,Gurugram,"SF-221, 2nd Floor, IT Complex JMD Megapolis, Village Tikri, Sohna Road, Sector 90, Gurugram - 122001, Dist.Gurgaon, Haryana",8046063344,
"Black 34 X 14 X 18 cm Multi Inner Bag for Stroller, PGU052401, Packaging Type: Cardboard Box",https://www.indiamart.com/proddetail/multi-inner-bag-for-stroller-2854526662933.html?pos=101&kwd=baby harness&tags=||||8752.144||product|||NA|rsf:gd-|-stype:attr=1|qr_nm:gd|res:RC3|com-cf:nl|ptrs:na|ktp:N0|mc:45613|mtp:S|qry_typ:P|lang:en|wc:2|cs:8834|v=4,Carry Trading Private Limited,https://www.indiamart.com/carry-trading-private-limited/?pos=101&kwd=baby harness&tags=||||8752.144||product|||NA|rsf:gd-|-stype:attr=1|qr_nm:gd|res:RC3|com-cf:nl|ptrs:na|ktp:N0|mc:45613|mtp:S|qry_typ:P|lang:en|wc:2|cs:8834|v=4,False,New Delhi,New Delhi,"80/40b,Malvi Nagar,New Delhi Malviya Nagar, New Delhi, New Delhi - 110017, Dist.Delhi, Delhi",8069033799,744
"20 Inch Powder Coating Baby Strollers Baby Pram Baby Buggy, 4 To 6",https://www.indiamart.com/proddetail/baby-strollers-baby-pram-baby-buggy-3459399855.html?pos=102&kwd=baby harness&tags=||||8239.3955|Price|product|||NA|rsf:gd-|-stype:attr=1|qr_nm:gd|res:RC3|com-cf:nl|ptrs:na|ktp:N0|mc:45613|mtp:S|qry_typ:P|lang:en|wc:2|cs:8834|v=4,Tiny Toes,https://www.indiamart.com/tiny-toes/?pos=102&kwd=baby harness&tags=||||8239.3955|Price|product|||NA|rsf:gd-|-stype:attr=1|qr_nm:gd|res:RC3|com-cf:nl|ptrs:na|ktp:N0|mc:45613|mtp:S|qry_typ:P|lang:en|wc:2|cs:8834|v=4,False,,Kalyan,"Shop No 4, Jai Sonali Building Dr. Ambedkar road, Kalyan - 421301, Dist.Thane, Maharashtra",8047699360,
"Wiggle Lightweight Easy Fold Baby Stroller for Travel, Large Storage Basket (Grey)",https://www.indiamart.com/proddetail/wiggle-lightweight-easy-fold-baby-stroller-for-travel-large-storage-basket-grey-2852549652012.html?pos=103&kwd=baby harness&tags=||||8211.142|Price|product|||NA|rsf:gd-|-stype:attr=1|qr_nm:gd|res:RC3|com-cf:nl|ptrs:na|ktp:N0|mc:45613|mtp:S|qry_typ:P|lang:en|wc:2|cs:8834|v=4,Istuff365,https://www.indiamart.com/istuff/?pos=103&kwd=baby harness&tags=||||8211.142|Price|product|||NA|rsf:gd-|-stype:attr=1|qr_nm:gd|res:RC3|com-cf:nl|ptrs:na|ktp:N0|mc:45613|mtp:S|qry_typ:P|lang:en|wc:2|cs:8834|v=4,False,Charni Road East,Mumbai,"Office No. 2B, First Floor, Unity House Near Royal Opera House, Charni Road East, Mumbai - 400004, Dist.Mumbai, Maharashtra",7942711049,
Two Wheeler Safety Belt For Kids- Tetron- Parrot,https://www.indiamart.com/proddetail/two-wheeler-safety-belt-for-kids-tetron-parrot-20995606912.html?pos=108&kwd=baby harness&tags=||||8752.144|Price|product|||NA|rsf:gd-|-stype:attr=1|qr_nm:gd|res:RC3|com-cf:nl|ptrs:na|ktp:N0|mc:45613|mtp:S|qry_typ:P|lang:en|wc:2|cs:8834|v=4,Aarin Enterprise,https://www.indiamart.com/aarin-enterprise-delhi/?pos=108&kwd=baby harness&tags=||||8752.144|Price|product|||NA|rsf:gd-|-stype:attr=1|qr_nm:gd|res:RC3|com-cf:nl|ptrs:na|ktp:N0|mc:45613|mtp:S|qry_typ:P|lang:en|wc:2|cs:8834|v=4,False,Shahdara,New Delhi,"E-196,S/F, E-Block, Gali No. 3, Pandav Nagar,Pandav Ngr Police Station 1/7086, Street No. 5, Vishnu Marg,110032,Delhi, Shahdara, New Delhi - 110091, Dist.Delhi, Delhi",8048372580,505
Chicco Keyfit Baby Car Seat Rental Service,https://www.indiamart.com/proddetail/chicco-keyfit-baby-car-seat-rental-service-19413920188.html?pos=105&kwd=baby harness&tags=||||8211.142||product|||NA|rsf:gd-|-stype:attr=1|qr_nm:gd|res:RC3|com-cf:nl|ptrs:na|ktp:N0|mc:45613|mtp:S|qry_typ:P|lang:en|wc:2|cs:8834|v=4,T-Lab Tradecom Private Limited,https://www.indiamart.com/bragpacker/?pos=105&kwd=baby harness&tags=||||8211.142||product|||NA|rsf:gd-|-stype:attr=1|qr_nm:gd|res:RC3|com-cf:nl|ptrs:na|ktp:N0|mc:45613|mtp:S|qry_typ:P|lang:en|wc:2|cs:8834|v=4,False,Juhu,Mumbai,"701, Jal Darshan Apartment, Gandhigram Road, Juhu, Juhu, Mumbai - 400049, Dist.Mumbai, Maharashtra",8047671411,
Joy Stroller AERIA S W/ RC & ADPT,https://www.indiamart.com/proddetail/joy-stroller-aeria-s-w-rc-adpt-2853742832830.html?pos=106&kwd=baby harness&tags=||||8752.144|Price|product|||NA|rsf:gd-|-stype:attr=1|qr_nm:gd|res:RC3|com-cf:nl|ptrs:na|ktp:N0|mc:45613|mtp:S|qry_typ:P|lang:en|wc:2|cs:8834|v=4,Ghodela Enterprises,https://www.indiamart.com/ghodela-enterprises/?pos=106&kwd=baby harness&tags=||||8752.144|Price|product|||NA|rsf:gd-|-stype:attr=1|qr_nm:gd|res:RC3|com-cf:nl|ptrs:na|ktp:N0|mc:45613|mtp:S|qry_typ:P|lang:en|wc:2|cs:8834|v=4,False,,New Delhi,"Ground Floor H. No 235, Kh No-114 Ambedkar Colony Gali No-8 Chhatarpur South West Delhi, New Delhi - 110074, Dist.Delhi, Delhi",8048372639,879
"1.0 Leather Cruz V2 UPPAbaby Baby Strollers Extra-Large Easy-Access, 4",https://www.indiamart.com/proddetail/cruz-v2-uppababy-baby-strollers-extra-large-easy-access-2852650005091.html?pos=107&kwd=baby harness&tags=||||8592.183|Price|product|||NA|rsf:gd-|-stype:attr=1|qr_nm:gd|res:RC3|com-cf:nl|ptrs:na|ktp:N0|mc:45613|mtp:S|qry_typ:P|lang:en|wc:2|cs:8834|v=4,Rkg Global,https://www.indiamart.com/rkg-global-tumakuru/?pos=107&kwd=baby harness&tags=||||8592.183|Price|product|||NA|rsf:gd-|-stype:attr=1|qr_nm:gd|res:RC3|com-cf:nl|ptrs:na|ktp:N0|mc:45613|mtp:S|qry_typ:P|lang:en|wc:2|cs:8834|v=4,False,Niwai,Tonk,"F-86 Gali No 3 Deendayal Colony Niwai GALI NO 3 DEENDAYAL COLONY, BEHIND SBI BANK, Niwai, Tonk - 304021, Dist.Tonk, Rajasthan",8047311016,5747
Two Wheeler Safety Belt For Kids- Tetron- Parrot,https://www.indiamart.com/proddetail/two-wheeler-safety-belt-for-kids-tetron-parrot-20995606912.html?pos=108&kwd=baby harness&tags=||||8752.144|Price|product|||NA|rsf:gd-|-stype:attr=1|qr_nm:gd|res:RC3|com-cf:nl|ptrs:na|ktp:N0|mc:45613|mtp:S|qry_typ:P|lang:en|wc:2|cs:8834|v=4,Aarin Enterprise,https://www.indiamart.com/aarin-enterprise-delhi/?pos=108&kwd=baby harness&tags=||||8752.144|Price|product|||NA|rsf:gd-|-stype:attr=1|qr_nm:gd|res:RC3|com-cf:nl|ptrs:na|ktp:N0|mc:45613|mtp:S|qry_typ:P|lang:en|wc:2|cs:8834|v=4,False,Shahdara,New Delhi,"E-196,S/F, E-Block, Gali No. 3, Pandav Nagar,Pandav Ngr Police Station 1/7086, Street No. 5, Vishnu Marg,110032,Delhi, Shahdara, New Delhi - 110091, Dist.Delhi, Delhi",8048372580,505
