product_title,product_link,company_name,company_link,is_verified_exporter,city_region,city,address_details,phone_number,phone_number_extension
Zippie Voyage - Early Intervention Stroller,https://www.indiamart.com/proddetail/zippie-voyage-early-intervention-stroller-22242706362.html?pos=1&kwd=baby jogging stroller&tags=BA||||8663.873||product|||TS|rsf:gd-|-stype:attr=1|qr_nm:gd|res:RC3|com-cf:nl|ptrs:na|ktp:N0|mc:22719|mtp:S|qry_typ:P|lang:en|wc:3|flavl:0|cs:9600|v=4,KTWO Healthcare Private Limited,https://www.theprosthesis.com/?pos=1&kwd=baby jogging stroller&tags=BA||||8663.873||product|||TS|rsf:gd-|-stype:attr=1|qr_nm:gd|res:RC3|com-cf:nl|ptrs:na|ktp:N0|mc:22719|mtp:S|qry_typ:P|lang:en|wc:3|flavl:0|cs:9600|v=4,False,Bilekahalli,Bengaluru,"No. 93, 2nd floor, 6th Cross, 2nd Stage, BTM Layout, Bilekahalli, Bengaluru - 560076, Dist.Bengaluru, Karnataka",8048989676,
"Natraj 2-3 Feet Double Baby Stroller, Age Group: Upto 2 Years",https://www.indiamart.com/proddetail/double-baby-stroller-21911570348.html?pos=2&kwd=baby jogging stroller&tags=BB||||8211.142|Price|product|||TS|rsf:gd-|-stype:attr=1|qr_nm:gd|res:RC3|com-cf:nl|ptrs:na|ktp:N0|mc:22719|mtp:S|qry_typ:P|lang:en|wc:3|flavl:0|cs:9600|v=4,New Natraj Industries,https://www.indiamart.com/newnatrajindustries/?pos=2&kwd=baby jogging stroller&tags=BB||||8211.142|Price|product|||TS|rsf:gd-|-stype:attr=1|qr_nm:gd|res:RC3|com-cf:nl|ptrs:na|ktp:N0|mc:22719|mtp:S|qry_typ:P|lang:en|wc:3|flavl:0|cs:9600|v=4,False,Andheri,Mumbai,"2nd,47 A,VEERA DESAI ROAD,GHANSHYAM INDUSTRIAL ESTATE,ANDHERI WEST, Andheri, Mumbai - 400053, Dist.Mumbai, Maharashtra",8048609903,
4 Feet Plastic And Iron Baby Jogging Stroller,https://www.indiamart.com/proddetail/baby-jogging-stroller-27130676212.html?pos=3&kwd=baby jogging stroller&tags=BB||||8752.144|Price|product|||MDC|rsf:gd-|-stype:attr=1|qr_nm:gd|res:RC3|com-cf:nl|ptrs:na|ktp:N0|mc:22719|mtp:S|qry_typ:P|lang:en|wc:3|flavl:0|cs:9600|v=4,Crazy Kanchan,https://www.indiamart.com/crazykanchan/?pos=3&kwd=baby jogging stroller&tags=BB||||8752.144|Price|product|||MDC|rsf:gd-|-stype:attr=1|qr_nm:gd|res:RC3|com-cf:nl|ptrs:na|ktp:N0|mc:22719|mtp:S|qry_typ:P|lang:en|wc:3|flavl:0|cs:9600|v=4,False,Bhajan Pura,New Delhi,"C-344/1 Gali No -16 Bhajanpura , Shahdara North East Delhi, Bhajan Pura, New Delhi - 110053, Dist.Delhi, Delhi",8048204487,
Baby Jogging Stroller,https://www.indiamart.com/proddetail/baby-jogging-stroller-2854151071233.html?pos=4&kwd=baby jogging stroller&tags=BA||||8206.45|Price|product|||MDC|rsf:gd-|-stype:attr=1|qr_nm:gd|res:RC3|com-cf:nl|ptrs:na|ktp:N0|mc:22719|mtp:S|qry_typ:P|lang:en|wc:3|flavl:0|cs:9600|v=4,APDD E Commerce India LLP,https://www.indiamart.com/apddecommerceindia/?pos=4&kwd=baby jogging stroller&tags=BA||||8206.45|Price|product|||MDC|rsf:gd-|-stype:attr=1|qr_nm:gd|res:RC3|com-cf:nl|ptrs:na|ktp:N0|mc:22719|mtp:S|qry_typ:P|lang:en|wc:3|flavl:0|cs:9600|v=4,False,Vishnu Nagar,Palghar,"2ndFloor, Block No.301,D-Wing, Jivadani Complex, Mahim Road, National Cooperative Bank, Vishnu Nagar, Vishnu Nagar, Palghar - 401404, Dist.Thane, Maharashtra",8047307898,
"PATOYS | Asalvo 16256 Stroller Moving Coa l For Newborn Baby, Infant Kids,",https://www.indiamart.com/proddetail/patoys-asalvo-16256-stroller-moving-coa-l-for-newborn-baby-infant-kids-2851579841397.html?pos=5&kwd=baby jogging stroller&tags=BA||||8793.739|Price|product|||TS|rsf:gd-|-stype:attr=1|qr_nm:gd|res:RC3|com-cf:nl|ptrs:na|ktp:N0|mc:22719|mtp:S|qry_typ:P|lang:en|wc:3|flavl:0|cs:9600|v=4,Patoys,https://www.indiamart.com/patoys/?pos=5&kwd=baby jogging stroller&tags=BA||||8793.739|Price|product|||TS|rsf:gd-|-stype:attr=1|qr_nm:gd|res:RC3|com-cf:nl|ptrs:na|ktp:N0|mc:22719|mtp:S|qry_typ:P|lang:en|wc:3|flavl:0|cs:9600|v=4,False,Krishna Nagar,Mathura,"Ground Floor Shop No - 3 Krishna Nagar Krishna Plaza, Krishna Nagar, Mathura - 281004, Dist.Mathura, Uttar Pradesh",,
"50 Plastic Baby Walkers Toys, 6, R.p",https://www.indiamart.com/proddetail/baby-walkers-toys-25005792273.html?pos=6&kwd=baby jogging stroller&tags=BB||||8752.144|Price|product|||TS|rsf:gd-|-stype:attr=1|qr_nm:gd|res:RC3|com-cf:nl|ptrs:na|ktp:N0|mc:22719|mtp:S|qry_typ:P|lang:en|wc:3|flavl:0|cs:9600|v=4,Raja Plastic,https://www.rajaplastic.co.in/?pos=6&kwd=baby jogging stroller&tags=BB||||8752.144|Price|product|||TS|rsf:gd-|-stype:attr=1|qr_nm:gd|res:RC3|com-cf:nl|ptrs:na|ktp:N0|mc:22719|mtp:S|qry_typ:P|lang:en|wc:3|flavl:0|cs:9600|v=4,False,Pahari Dhiraj,New Delhi,"1444/45 Main Gali Fayaz Ganj,Bahadurgarh Road, Pahari Dhiraj, New Delhi - 110006, Dist.Delhi, Delhi",8048956783,
"1-3 Feet Eva Foam,Steel Baby Jogging Stroller, 6 Wheel",https://www.indiamart.com/proddetail/baby-jogging-stroller-21882199388.html?pos=7&kwd=baby jogging stroller&tags=BA||||8752.144|Price|product|||NA|rsf:gd-|-stype:attr=1|qr_nm:gd|res:RC3|com-cf:nl|ptrs:na|ktp:N0|mc:22719|mtp:S|qry_typ:P|lang:en|wc:3|flavl:0|cs:9600|v=4,Tradex Pro Private Limited,https://www.indiamart.com/tradexpro/?pos=7&kwd=baby jogging stroller&tags=BA||||8752.144|Price|product|||NA|rsf:gd-|-stype:attr=1|qr_nm:gd|res:RC3|com-cf:nl|ptrs:na|ktp:N0|mc:22719|mtp:S|qry_typ:P|lang:en|wc:3|flavl:0|cs:9600|v=4,False,Adarsh Nagar,New Delhi,"G Block Kh-8/20 Swaroop Nagar, Adarsh Nagar, New Delhi - 110042, Dist.Delhi, Delhi",7942559159,
"Ajustable Mild Steel And Fabric Baby Jogger Stroller, 4",https://www.indiamart.com/proddetail/baby-jogger-stroller-27442165712.html?pos=8&kwd=baby jogging stroller&tags=BB||||8785.791|Price|product|||NA|rsf:gd-|-stype:attr=1|qr_nm:gd|res:RC3|com-cf:nl|ptrs:na|ktp:N0|mc:22719|mtp:S|qry_typ:P|lang:en|wc:3|flavl:0|cs:9600|v=4,Geeta Industries,https://www.indiamart.com/geetaindustries-troniccity/?pos=8&kwd=baby jogging stroller&tags=BB||||8785.791|Price|product|||NA|rsf:gd-|-stype:attr=1|qr_nm:gd|res:RC3|com-cf:nl|ptrs:na|ktp:N0|mc:22719|mtp:S|qry_typ:P|lang:en|wc:3|flavl:0|cs:9600|v=4,False,,Ghaziabad,"Plot No D-50 Sec A-7 Tronica City, Ghaziabad - 201102, Dist.Ghaziabad, Uttar Pradesh",7942785994,
"Costway Baby Stroller, Size/Dimension: 60 x 47 x 98 cm",https://www.indiamart.com/proddetail/costway-baby-stroller-20915475191.html?pos=9&kwd=baby jogging stroller&tags=CC||||8500.97||product|||MDC|rsf:gd-|-stype:attr=1|qr_nm:gd|res:RC3|com-cf:nl|ptrs:na|ktp:N0|mc:22719|mtp:S|qry_typ:P|lang:en|wc:3|flavl:0|cs:9600|v=4,Central Surgicals,https://www.indiamart.com/centralsurgicals/?pos=9&kwd=baby jogging stroller&tags=CC||||8500.97||product|||MDC|rsf:gd-|-stype:attr=1|qr_nm:gd|res:RC3|com-cf:nl|ptrs:na|ktp:N0|mc:22719|mtp:S|qry_typ:P|lang:en|wc:3|flavl:0|cs:9600|v=4,False,Patturaikkal,Thrissur,"Silver Building, Aswani Hospital Via, Patturaikkal. P.o Thiruvambadi, Patturaikkal, Thrissur - 680022, Dist.Thrissur, Kerala",8046056678,
"B.O.B Gear Revolution Flex 3.0 Jogging Stroller, Ultra Smooth Ride Graphite Black",https://www.indiamart.com/proddetail/b-o-b-gear-revolution-flex-3-0-jogging-stroller-ultra-smooth-ride-graphite-black-2853666123048.html?pos=10&kwd=baby jogging stroller&tags=||||8752.144|Price|product|||TS|rsf:gd-|-stype:attr=1|qr_nm:gd|res:RC3|com-cf:nl|ptrs:na|ktp:N0|mc:22719|mtp:S|qry_typ:P|lang:en|wc:3|flavl:0|cs:9600|v=4,Ayansh Trading Private Limited,https://www.kartzons.in/?pos=10&kwd=baby jogging stroller&tags=||||8752.144|Price|product|||TS|rsf:gd-|-stype:attr=1|qr_nm:gd|res:RC3|com-cf:nl|ptrs:na|ktp:N0|mc:22719|mtp:S|qry_typ:P|lang:en|wc:3|flavl:0|cs:9600|v=4,False,96979-88399 Azad Nagar,New Delhi,"72/1, Gali No 9, West Azad Nagar, East Delhi, 96979-88399 Azad Nagar, New Delhi - 110051, Dist.Delhi, Delhi",8047845326,
Black And Blue 3.15ft 8 Wheel Baby Stroller,https://www.indiamart.com/proddetail/8-wheel-baby-stroller-2852721419830.html?pos=11&kwd=baby jogging stroller&tags=||||8785.791|Price|product|||MDC|rsf:gd-|-stype:attr=1|qr_nm:gd|res:RC3|com-cf:nl|ptrs:na|ktp:N0|mc:22719|mtp:S|qry_typ:P|lang:en|wc:3|flavl:0|cs:9600|v=4,Falguni Baby Product,https://www.indiamart.com/falguni-baby-product/?pos=11&kwd=baby jogging stroller&tags=||||8785.791|Price|product|||MDC|rsf:gd-|-stype:attr=1|qr_nm:gd|res:RC3|com-cf:nl|ptrs:na|ktp:N0|mc:22719|mtp:S|qry_typ:P|lang:en|wc:3|flavl:0|cs:9600|v=4,False,,Ghaziabad,"E - 19, Sector A - 7 P - 1, Tronica City, Ghaziabad - 201102, Dist.Ghaziabad, Uttar Pradesh",8045731457,
"Blue Metal & Cloth Pram (Cutie Dlx.) Crome Wheel, Age Group: Newly Born, Packaging Type: Box",https://www.indiamart.com/proddetail/cloth-baby-pram-crome-2850512777233.html?pos=12&kwd=baby jogging stroller&tags=||||8752.144|Price|product|||TS|rsf:gd-|-stype:attr=1|qr_nm:gd|res:RC3|com-cf:nl|ptrs:na|ktp:N0|mc:22719|mtp:S|qry_typ:P|lang:en|wc:3|flavl:0|cs:9600|v=4,Steel Art (A Brand Of Mittal Enterprises),https://www.indiamart.com/mittalentps-delhi/?pos=12&kwd=baby jogging stroller&tags=||||8752.144|Price|product|||TS|rsf:gd-|-stype:attr=1|qr_nm:gd|res:RC3|com-cf:nl|ptrs:na|ktp:N0|mc:22719|mtp:S|qry_typ:P|lang:en|wc:3|flavl:0|cs:9600|v=4,False,Mundka,New Delhi,"Ground Floor, Plot At Khasra No. 66/22, Gali No. 2, Mundka, Mundka, New Delhi - 110041, Dist.Delhi, Delhi",8046044378,
SPECIAL STROLLERS FOR CEREBRAL PALSY CHILDREN,https://www.indiamart.com/proddetail/special-strollers-for-cerebral-palsy-children-2851616936555.html?pos=13&kwd=baby jogging stroller&tags=||||8601.347|Price|product|||TS|rsf:gd-|-stype:attr=1|qr_nm:gd|res:RC3|com-cf:nl|ptrs:na|ktp:N0|mc:22719|mtp:S|qry_typ:P|lang:en|wc:3|flavl:0|cs:9600|v=4,Morecare Mobility And Rehabilitation Solutions,https://www.iphealth.in/?pos=13&kwd=baby jogging stroller&tags=||||8601.347|Price|product|||TS|rsf:gd-|-stype:attr=1|qr_nm:gd|res:RC3|com-cf:nl|ptrs:na|ktp:N0|mc:22719|mtp:S|qry_typ:P|lang:en|wc:3|flavl:0|cs:9600|v=4,False,Durgapura,Jaipur,"E22, Gayatri Nagar Vistar, Near Clothing Industrial Area, Maharani Farm, Cloth Printing Industries, Durgapura, Durgapura, Jaipur - 302018, Dist.Jaipur, Rajasthan",8047672177,
"Kids Strollers, 4, Baby New Stroller",https://www.indiamart.com/proddetail/baby-stroller-kid-cycle-2854537209988.html?pos=14&kwd=baby jogging stroller&tags=||||8211.142|Price|product|||TS|rsf:gd-|-stype:attr=1|qr_nm:gd|res:RC3|com-cf:nl|ptrs:na|ktp:N0|mc:22719|mtp:S|qry_typ:P|lang:en|wc:3|flavl:0|cs:9600|v=4,P For Panda Baby Products Private Limited,https://www.p4pandababyproducts.com/?pos=14&kwd=baby jogging stroller&tags=||||8211.142|Price|product|||TS|rsf:gd-|-stype:attr=1|qr_nm:gd|res:RC3|com-cf:nl|ptrs:na|ktp:N0|mc:22719|mtp:S|qry_typ:P|lang:en|wc:3|flavl:0|cs:9600|v=4,False,Goregaon West,Mumbai,"904 A Wing,9 Th Floor,Triple S Heights,Jakeria Road, Goregaon West, Mumbai - 400064, Dist.Mumbai, Maharashtra",7942710871,
"ABS Plastic Mee Mee Baby Twins Buggy Stroller/Two Babies Toddlers, 4 Wheel",https://www.indiamart.com/proddetail/mee-mee-baby-twins-buggy-stroller-two-babies-toddlers-2852433626462.html?pos=15&kwd=baby jogging stroller&tags=||||9140.514|Price|product|||TS|rsf:gd-|-stype:attr=1|qr_nm:gd|res:RC3|com-cf:nl|ptrs:na|ktp:N0|mc:22719|mtp:S|qry_typ:P|lang:en|wc:3|cs:8837|v=4,Anjaneya Enterprises,https://www.ridenslide.in/?pos=15&kwd=baby jogging stroller&tags=||||9140.514|Price|product|||TS|rsf:gd-|-stype:attr=1|qr_nm:gd|res:RC3|com-cf:nl|ptrs:na|ktp:N0|mc:22719|mtp:S|qry_typ:P|lang:en|wc:3|cs:8837|v=4,False,Pandri,Raipur,"SHOP NO-10,SHOPPERS PARADISE,BEHIND CITY CENTER MALL,PANDRI,RAIPUR, Pandri, Raipur - 492001, Chhattisgarh",8046045761,
"1.5 Feet Plastic Baby Jogging Stroller, 4",https://www.indiamart.com/proddetail/baby-jogging-stroller-27594548491.html?pos=16&kwd=baby jogging stroller&tags=CC||||8556.61|Price|product|||NA|rsf:gd-|-stype:attr=1|qr_nm:gd|res:RC3|com-cf:nl|ptrs:na|ktp:N0|mc:22719|mtp:S|qry_typ:P|lang:en|wc:3|cs:8837|v=4,Select Baby World,https://www.indiamart.com/selectbabyworld/?pos=16&kwd=baby jogging stroller&tags=CC||||8556.61|Price|product|||NA|rsf:gd-|-stype:attr=1|qr_nm:gd|res:RC3|com-cf:nl|ptrs:na|ktp:N0|mc:22719|mtp:S|qry_typ:P|lang:en|wc:3|cs:8837|v=4,False,,Mysore,"No. 805 L-28 1st West Cross, Shop No. 1, Lashkar Mohalla, Mysore - 570001, Dist.Mysuru, Karnataka",8047548812,
"Eva Foam Baby Jogging Stroller, Age Group: 3-12 Months",https://www.indiamart.com/proddetail/baby-jogging-stroller-22144328148.html?pos=17&kwd=baby jogging stroller&tags=CC||||8307.81|Price|product|||NA|rsf:gd-|-stype:attr=1|qr_nm:gd|res:RC3|com-cf:nl|ptrs:na|ktp:N0|mc:22719|mtp:S|qry_typ:P|lang:en|wc:3|cs:8837|v=4,Hopes Enterprises,https://www.indiamart.com/hopes-enterprises-pune/?pos=17&kwd=baby jogging stroller&tags=CC||||8307.81|Price|product|||NA|rsf:gd-|-stype:attr=1|qr_nm:gd|res:RC3|com-cf:nl|ptrs:na|ktp:N0|mc:22719|mtp:S|qry_typ:P|lang:en|wc:3|cs:8837|v=4,False,Fatima Nagar,Pune,"Tain Square Building C, Shop No. 02, S No. 15/A Wanawadi, Fatima Nagar, Pune - 411040, Dist.Pune, Maharashtra",8069264845,214
"1feet MS And Cotton Fabric Baby Jogging Stroller, 3",https://www.indiamart.com/proddetail/baby-jogging-stroller-23748856855.html?pos=18&kwd=baby jogging stroller&tags=CC||||8604.875|Price|product|||NA|rsf:gd-|-stype:attr=1|qr_nm:gd|res:RC3|com-cf:nl|ptrs:na|ktp:N0|mc:22719|mtp:S|qry_typ:P|lang:en|wc:3|cs:8837|v=4,National Traders,https://www.indiamart.com/nationaltraderspunjab/?pos=18&kwd=baby jogging stroller&tags=CC||||8604.875|Price|product|||NA|rsf:gd-|-stype:attr=1|qr_nm:gd|res:RC3|com-cf:nl|ptrs:na|ktp:N0|mc:22719|mtp:S|qry_typ:P|lang:en|wc:3|cs:8837|v=4,False,,Mansa,"Near River Brize, Jawaharke Road, Mansa - 151505, Punjab",8043862053,
"Mild Steel And Plastic Baby Jogging Stroller, 4",https://www.indiamart.com/proddetail/baby-jogging-stroller-2851867720673.html?pos=19&kwd=baby jogging stroller&tags=CC||||9110.092|Price|product|||NA|rsf:gd-|-stype:attr=1|qr_nm:gd|res:RC3|com-cf:nl|ptrs:na|ktp:N0|mc:22719|mtp:S|qry_typ:P|lang:en|wc:3|cs:8837|v=4,Bombay Kiddies,https://www.indiamart.com/bombay-kiddies/?pos=19&kwd=baby jogging stroller&tags=CC||||9110.092|Price|product|||NA|rsf:gd-|-stype:attr=1|qr_nm:gd|res:RC3|com-cf:nl|ptrs:na|ktp:N0|mc:22719|mtp:S|qry_typ:P|lang:en|wc:3|cs:8837|v=4,False,Aminabad,Lucknow,"Shop No. 39, Mumtaz Market, Bagh Gunge Nawab, Aminabad, Aminabad, Lucknow - 226018, Dist.Lucknow, Uttar Pradesh",8047828824,
Baby Jogging Stroller,https://www.indiamart.com/proddetail/baby-jogging-stroller-2853200090412.html?pos=20&kwd=baby jogging stroller&tags=CC||||8752.144|Price|product|||NA|rsf:gd-|-stype:attr=1|qr_nm:gd|res:RC3|com-cf:nl|ptrs:na|ktp:N0|mc:22719|mtp:S|qry_typ:P|lang:en|wc:3|cs:8837|v=4,Lionbolt Enterprises,https://www.indiamart.com/lionboltenterprises/?pos=20&kwd=baby jogging stroller&tags=CC||||8752.144|Price|product|||NA|rsf:gd-|-stype:attr=1|qr_nm:gd|res:RC3|com-cf:nl|ptrs:na|ktp:N0|mc:22719|mtp:S|qry_typ:P|lang:en|wc:3|cs:8837|v=4,False,Shastri Nagar,New Delhi,"B-33/3 Old Village Jasola Old Village Jasola,okhla, Shastri Nagar, New Delhi - 110044, Dist.Delhi, Delhi",7942843746,
"Steel And Plastic 3 Feet Baby Rainbow Stroller, 4 Wheels",https://www.indiamart.com/proddetail/3-feet-baby-rainbow-stroller-2849147548688.html?pos=21&kwd=baby jogging stroller&tags=CC||||8752.144|Price|product|||NA|rsf:gd-|-stype:attr=1|qr_nm:gd|res:RC3|com-cf:nl|ptrs:na|ktp:N0|mc:22719|mtp:S|qry_typ:P|lang:en|wc:3|cs:8837|v=4,M K Accessories,https://www.indiamart.com/m-k-accessoriesdelhi/?pos=21&kwd=baby jogging stroller&tags=CC||||8752.144|Price|product|||NA|rsf:gd-|-stype:attr=1|qr_nm:gd|res:RC3|com-cf:nl|ptrs:na|ktp:N0|mc:22719|mtp:S|qry_typ:P|lang:en|wc:3|cs:8837|v=4,False,,New Delhi,"F-263/9, First Floor, G.N. 9, Chand Bagh, North East Delhi, New Delhi - 110094, Dist.Delhi, Delhi",8047819072,
Luv Lap Tutti Frutti Baby Stroller Buggy - Black,,Bonzo Kids Apparel Private Limited,https://www.indiamart.com/bonzo-kids-apparels-private-limited/?pos=22&kwd=baby jogging stroller&tags=CC||||8752.144||product|||NA|rsf:gd-|-stype:attr=1|qr_nm:gd|res:RC3|com-cf:nl|ptrs:na|ktp:N0|mc:22719|mtp:S|qry_typ:P|lang:en|wc:3|cs:8837|v=4,False,,New Delhi,"S67 Okhla Phase II, New Delhi - 110020, Dist.Delhi, Delhi",8048372815,342
"Joie Stroller Rapid, 4",https://www.indiamart.com/proddetail/joie-stroller-rapid-26745578988.html?pos=23&kwd=baby jogging stroller&tags=||||8211.142|Price|product|||TS|rsf:gd-|-stype:attr=1|qr_nm:gd|res:RC3|com-cf:nl|ptrs:na|ktp:N0|mc:22719|mtp:S|qry_typ:P|lang:en|wc:3|cs:8837|v=4,Mini World,https://www.indiamart.com/miniworld/?pos=23&kwd=baby jogging stroller&tags=||||8211.142|Price|product|||TS|rsf:gd-|-stype:attr=1|qr_nm:gd|res:RC3|com-cf:nl|ptrs:na|ktp:N0|mc:22719|mtp:S|qry_typ:P|lang:en|wc:3|cs:8837|v=4,False,Goregaon West,Mumbai,"SHOP No 2,16, Ground Floor, Unnath Nagar 3, M.G. Road, Goregaon MG Road, Goregaon West, Mumbai - 400062, Dist.Mumbai, Maharashtra",8046034221,
"3.1 Feet Mild Steel Baby Pram Stroller, 4",https://www.indiamart.com/proddetail/mild-steel-baby-pram-stroller-2850223109591.html?pos=24&kwd=baby jogging stroller&tags=||||8752.144|Price|product|||TS|rsf:gd-|-stype:attr=1|qr_nm:gd|res:RC3|com-cf:nl|ptrs:na|ktp:N0|mc:22719|mtp:S|qry_typ:P|lang:en|wc:3|cs:8837|v=4,Neelam Enterprises,https://www.indiamart.com/neelam-enterprisesdelhi/?pos=24&kwd=baby jogging stroller&tags=||||8752.144|Price|product|||TS|rsf:gd-|-stype:attr=1|qr_nm:gd|res:RC3|com-cf:nl|ptrs:na|ktp:N0|mc:22719|mtp:S|qry_typ:P|lang:en|wc:3|cs:8837|v=4,False,North East,New Delhi,"Gf,Pradhan Parshadi Lal Market,Main Tukmirpur Road,Karawal Nagar, North East, New Delhi - 110094, Dist.Delhi, Delhi",7942814861,
"Stroller Baby, 8, Infantjoys",https://www.indiamart.com/proddetail/stroller-baby-26077147273.html?pos=25&kwd=baby jogging stroller&tags=||||9110.092|Price|product|||TS|rsf:gd-|-stype:attr=1|qr_nm:gd|res:RC3|com-cf:nl|ptrs:na|ktp:N0|mc:22719|mtp:S|qry_typ:P|lang:en|wc:3|cs:8837|v=4,Pawan Cycle Store,https://www.indiamart.com/pawancyclestore-lucknow/?pos=25&kwd=baby jogging stroller&tags=||||9110.092|Price|product|||TS|rsf:gd-|-stype:attr=1|qr_nm:gd|res:RC3|com-cf:nl|ptrs:na|ktp:N0|mc:22719|mtp:S|qry_typ:P|lang:en|wc:3|cs:8837|v=4,False,Darul Safa,Lucknow,"91/8, Yadunath Sanyal Road, Darul Safa, Lucknow - 226001, Dist.Lucknow, Uttar Pradesh",8043851096,
"hello world Baby Stroller, 4",https://www.indiamart.com/proddetail/baby-stroller-21718360255.html?pos=26&kwd=baby jogging stroller&tags=CC||||8752.144|Price|product|||NA|rsf:gd-|-stype:attr=1|qr_nm:gd|res:RC3|com-cf:nl|ptrs:na|ktp:N0|mc:22719|mtp:S|qry_typ:P|lang:en|wc:3|cs:8837|v=4,C M Jain Enterprises,https://www.indiamart.com/c-m-jain-enterprises/?pos=26&kwd=baby jogging stroller&tags=CC||||8752.144|Price|product|||NA|rsf:gd-|-stype:attr=1|qr_nm:gd|res:RC3|com-cf:nl|ptrs:na|ktp:N0|mc:22719|mtp:S|qry_typ:P|lang:en|wc:3|cs:8837|v=4,False,,New Delhi,"6 -27 W E A,IST FLOOR, AJMAL KHAN ROAD, KAROL BAGH,KAROL BAGH Karol Bagh,,New Delhi, New Delhi - 110005, Dist.Delhi, Delhi",8048361341,627
999 Baby Stroller,https://www.indiamart.com/proddetail/999-baby-stroller-19013488830.html?pos=27&kwd=baby jogging stroller&tags=CC||||8752.144|Price|product|||NA|rsf:gd-|-stype:attr=1|qr_nm:gd|res:RC3|com-cf:nl|ptrs:na|ktp:N0|mc:22719|mtp:S|qry_typ:P|lang:en|wc:3|cs:8837|v=4,Singla Cycle Store,https://www.indiamart.com/singla-cyc/?pos=27&kwd=baby jogging stroller&tags=CC||||8752.144|Price|product|||NA|rsf:gd-|-stype:attr=1|qr_nm:gd|res:RC3|com-cf:nl|ptrs:na|ktp:N0|mc:22719|mtp:S|qry_typ:P|lang:en|wc:3|cs:8837|v=4,False,Uttam Nagar,New Delhi,"WZ-246/B-4, Uttam Nagar, New Delhi - 110059, Dist.Delhi, Delhi",8062245046,928
Rent Baby Stroller,https://www.indiamart.com/proddetail/rent-baby-stroller-19563719648.html?pos=28&kwd=baby jogging stroller&tags=CC||||8211.142|Price|product|||NA|rsf:gd-|-stype:attr=1|qr_nm:gd|res:RC3|com-cf:nl|ptrs:na|ktp:N0|mc:22719|mtp:S|qry_typ:P|lang:en|wc:3|cs:8837|v=4,Hello Health,https://www.indiamart.com/hello-health/?pos=28&kwd=baby jogging stroller&tags=CC||||8211.142|Price|product|||NA|rsf:gd-|-stype:attr=1|qr_nm:gd|res:RC3|com-cf:nl|ptrs:na|ktp:N0|mc:22719|mtp:S|qry_typ:P|lang:en|wc:3|cs:8837|v=4,False,Santacruz East,Mumbai,"Vakola Santacruz East, Near New Modern English School, Santacruz East, Mumbai - 400055, Dist.Mumbai, Maharashtra",8047665797,
"38.1cm Stainless Steel,Plastic Baby push Walkers, 6, Single Horn",https://www.indiamart.com/proddetail/baby-push-walkers-26375911897.html?pos=29&kwd=baby jogging stroller&tags=CC||||8752.144|Price|product|||NA|rsf:gd-|-stype:attr=1|qr_nm:gd|res:RC3|com-cf:nl|ptrs:na|ktp:N0|mc:22719|mtp:S|qry_typ:P|lang:en|wc:3|cs:8837|v=4,Sukhme Industries,https://www.indiamart.com/sukhme-industries/?pos=29&kwd=baby jogging stroller&tags=CC||||8752.144|Price|product|||NA|rsf:gd-|-stype:attr=1|qr_nm:gd|res:RC3|com-cf:nl|ptrs:na|ktp:N0|mc:22719|mtp:S|qry_typ:P|lang:en|wc:3|cs:8837|v=4,False,Laxmi Nagar,New Delhi,"Shop No-D235 A street no 8, Laxmi Nagar, New Delhi - 110092, Dist.Delhi, Delhi",8069017464,126
Luvlap Starshine Baby Stroller,,Maruti Kids Zone,https://www.indiamart.com/maruti-kids-zone/?pos=30&kwd=baby jogging stroller&tags=CC||||9839.57||product|||NA|rsf:gd-|-stype:attr=1|qr_nm:gd|res:RC3|com-cf:nl|ptrs:na|ktp:N0|mc:22719|mtp:S|qry_typ:P|lang:en|wc:3|cs:8837|v=4,False,Muktaram Babu Street,Kolkata,"No. 109, 1st Floor, Muktaram Babu Street, Kolkata - 700007, Dist.Kolkata, West Bengal",7949342709,
Orange And Black Buddy Stroller With Reversible Handle,https://www.indiamart.com/proddetail/buddy-stroller-with-reversible-handle-20843737797.html?pos=31&kwd=baby jogging stroller&tags=CC||||8211.142||product|||NA|rsf:gd-|-stype:attr=1|qr_nm:gd|res:RC3|com-cf:nl|ptrs:na|ktp:N0|mc:22719|mtp:S|qry_typ:P|lang:en|wc:3|cs:8837|v=4,Offspring,https://www.indiamart.com/offspring/?pos=31&kwd=baby jogging stroller&tags=CC||||8211.142||product|||NA|rsf:gd-|-stype:attr=1|qr_nm:gd|res:RC3|com-cf:nl|ptrs:na|ktp:N0|mc:22719|mtp:S|qry_typ:P|lang:en|wc:3|cs:8837|v=4,False,Ghatkopar West,Mumbai,"No. 316, Subhash Nagar, Dutt Nagar J. M. Mandir Road, Asalpha, Ghatkopar West, Ghatkopar West, Mumbai - 400084, Dist.Mumbai, Maharashtra",8047629614,
Baby Stroller Fold for Newborn Baby Reversible Handle Bracker Easy Carry Travel,https://www.indiamart.com/proddetail/baby-stroller-fold-for-newborn-baby-reversible-handle-bracker-easy-carry-travel-2854759076612.html?pos=32&kwd=baby jogging stroller&tags=||||8230.883|Price|product|||MDC|rsf:gd-|-stype:attr=1|qr_nm:gd|res:RC3|com-cf:nl|ptrs:na|ktp:N0|mc:22719|mtp:S|qry_typ:P|lang:en|wc:3|cs:8837|v=4,Shiv Marketing,https://www.indiamart.com/shivmarketing/?pos=32&kwd=baby jogging stroller&tags=||||8230.883|Price|product|||MDC|rsf:gd-|-stype:attr=1|qr_nm:gd|res:RC3|com-cf:nl|ptrs:na|ktp:N0|mc:22719|mtp:S|qry_typ:P|lang:en|wc:3|cs:8837|v=4,False,Katargam,Surat,"2nd Floor Blog-F, Flat 201, Shivam Avenue, Singanpore Dabholi Road, Katargam,, Katargam, Surat - 395004, Dist.Surat, Gujarat",7949093095,
Baby Stroller,https://www.indiamart.com/proddetail/baby-stroller-8624384630.html?pos=33&kwd=baby jogging stroller&tags=||||8663.873|Price|product|||TS|rsf:gd-|-stype:attr=1|qr_nm:gd|res:RC3|com-cf:nl|ptrs:na|ktp:N0|mc:22719|mtp:S|qry_typ:P|lang:en|wc:3|cs:8837|v=4,Hitendar Sales Corporation,https://www.indiamart.com/hitendarsalescorporation/?pos=33&kwd=baby jogging stroller&tags=||||8663.873|Price|product|||TS|rsf:gd-|-stype:attr=1|qr_nm:gd|res:RC3|com-cf:nl|ptrs:na|ktp:N0|mc:22719|mtp:S|qry_typ:P|lang:en|wc:3|cs:8837|v=4,False,Chickpet,Bengaluru,"No. 109, BB Temple Street, Mamulpet, Chickpet, Chickpet, Bengaluru - 560053, Dist.Bengaluru, Karnataka",8047693080,
"2 Feet Iron Baby Stroller, 4",https://www.indiamart.com/proddetail/baby-stroller-21747188255.html?pos=34&kwd=baby jogging stroller&tags=||||8211.142|Price|product|||TS|rsf:gd-|-stype:attr=1|qr_nm:gd|res:RC3|com-cf:nl|ptrs:na|ktp:N0|mc:22719|mtp:S|qry_typ:P|lang:en|wc:3|cs:8837|v=4,Toys Center,https://www.evergreentoys.in/?pos=34&kwd=baby jogging stroller&tags=||||8211.142|Price|product|||TS|rsf:gd-|-stype:attr=1|qr_nm:gd|res:RC3|com-cf:nl|ptrs:na|ktp:N0|mc:22719|mtp:S|qry_typ:P|lang:en|wc:3|cs:8837|v=4,False,Umerkhadi,Mumbai,"2nd Floor, 75/77 Room No 7, C Block, Sheriar Baug Building Babula Tank Road, Umerkhadi, Mumbai - 400009, Dist.Mumbai, Maharashtra",8047638027,
Polyester Baby Stroller,https://www.indiamart.com/proddetail/baby-stroller-20830363362.html?pos=35&kwd=baby jogging stroller&tags=||||8752.144|Price|product|||TS|rsf:gd-|-stype:attr=1|qr_nm:gd|res:RC3|com-cf:nl|ptrs:na|ktp:N0|mc:22719|mtp:S|qry_typ:P|lang:en|wc:3|cs:8837|v=4,Gupta Plastic Works,https://www.indiamart.com/guptaplasticworks/?pos=35&kwd=baby jogging stroller&tags=||||8752.144|Price|product|||TS|rsf:gd-|-stype:attr=1|qr_nm:gd|res:RC3|com-cf:nl|ptrs:na|ktp:N0|mc:22719|mtp:S|qry_typ:P|lang:en|wc:3|cs:8837|v=4,False,Azadpur,New Delhi,"A-80/1, G.T. Karnal Road, Industrial Area, Azadpur, New Delhi - 110033, Dist.Delhi, Delhi",8046032300,
"Standard Children Baby Stroller, 4",https://www.indiamart.com/proddetail/children-baby-stroller-26436306973.html?pos=36&kwd=baby jogging stroller&tags=||||8307.81|Price|product|||TS|rsf:gd-|-stype:attr=1|qr_nm:gd|res:RC3|com-cf:nl|ptrs:na|ktp:N0|mc:22719|mtp:S|qry_typ:P|lang:en|wc:3|cs:8837|v=4,Porwal Cycle And Motor Company,https://www.indiamart.com/porwal-cycle-motor/?pos=36&kwd=baby jogging stroller&tags=||||8307.81|Price|product|||TS|rsf:gd-|-stype:attr=1|qr_nm:gd|res:RC3|com-cf:nl|ptrs:na|ktp:N0|mc:22719|mtp:S|qry_typ:P|lang:en|wc:3|cs:8837|v=4,False,Budhwar Peth,Pune,"185/2 B, Ground Floor, Porwal Cycle And Motor Company, Laxmi Road, Budhwar Peth, Budhwar Peth, Pune - 411002, Dist.Pune, Maharashtra",8043811727,
"Red Blue Pink Stainless Steel Baby Stroller Pram, Age Group: Newly Born, Packaging Type: Box Pack",https://www.indiamart.com/proddetail/baby-stroller-pram-2854229940933.html?pos=37&kwd=baby jogging stroller&tags=||||8752.144|Price|product|||TS|rsf:gd-|-stype:attr=1|qr_nm:gd|res:RC3|com-cf:nl|ptrs:na|ktp:N0|mc:22719|mtp:S|qry_typ:P|lang:en|wc:3|cs:8837|v=4,Rajbir Trading Company,https://www.indiamart.com/rajbir-tradingcompany/?pos=37&kwd=baby jogging stroller&tags=||||8752.144|Price|product|||TS|rsf:gd-|-stype:attr=1|qr_nm:gd|res:RC3|com-cf:nl|ptrs:na|ktp:N0|mc:22719|mtp:S|qry_typ:P|lang:en|wc:3|cs:8837|v=4,False,Khyala,New Delhi,"NW-26-B, Vishnu Garden, Khyala, New Delhi - 110018, Dist.Delhi, Delhi",7942799536,
"Cotton Baby Stroller Pram, 4, Justin",https://www.indiamart.com/proddetail/baby-stroller-pram-2853002495555.html?pos=38&kwd=baby jogging stroller&tags=||||8752.144|Price|product|||TS|rsf:gd-|-stype:attr=1|qr_nm:gd|res:RC3|com-cf:nl|ptrs:na|ktp:N0|mc:22719|mtp:S|qry_typ:P|lang:en|wc:3|cs:8837|v=4,Balaji Overseas Inc.,https://www.babyzon.in/?pos=38&kwd=baby jogging stroller&tags=||||8752.144|Price|product|||TS|rsf:gd-|-stype:attr=1|qr_nm:gd|res:RC3|com-cf:nl|ptrs:na|ktp:N0|mc:22719|mtp:S|qry_typ:P|lang:en|wc:3|cs:8837|v=4,False,Tri Nagar,New Delhi,"1553/110, Landmark Ganesh Pura, Tri Nagar, Tri Nagar, New Delhi - 110035, Dist.Delhi, Delhi",8047532650,
"Multicolor 2.5 Feet Baby Stroller Pram, 8 Wheel, Packaging Type: Box Packing",https://www.indiamart.com/proddetail/baby-stroller-pram-2854219439473.html?pos=39&kwd=baby jogging stroller&tags=||||8752.144|Price|product|||TS|rsf:gd-|-stype:attr=1|qr_nm:gd|res:RC3|com-cf:nl|ptrs:na|ktp:N0|mc:22719|mtp:S|qry_typ:P|lang:en|wc:3|cs:8837|v=4,Indial Premium Products,https://www.indiamart.com/indial-premium-products/?pos=39&kwd=baby jogging stroller&tags=||||8752.144|Price|product|||TS|rsf:gd-|-stype:attr=1|qr_nm:gd|res:RC3|com-cf:nl|ptrs:na|ktp:N0|mc:22719|mtp:S|qry_typ:P|lang:en|wc:3|cs:8837|v=4,False,,New Delhi,"68, K Block, Jahangirpuri North West Delhi, New Delhi - 110033, Dist.Delhi, Delhi",8045732973,
"Multicolor Baby Stroller Pram, Packaging Type: Box",https://www.indiamart.com/proddetail/baby-stroller-pram-2848989054591.html?pos=40&kwd=baby jogging stroller&tags=||||8230.883|Price|product|||TS|rsf:gd-|-stype:attr=1|qr_nm:gd|res:RC3|com-cf:nl|ptrs:na|ktp:N0|mc:22719|mtp:S|qry_typ:P|lang:en|wc:3|cs:8837|v=4,Quality Zone,https://www.qualityzoneindia.com/?pos=40&kwd=baby jogging stroller&tags=||||8230.883|Price|product|||TS|rsf:gd-|-stype:attr=1|qr_nm:gd|res:RC3|com-cf:nl|ptrs:na|ktp:N0|mc:22719|mtp:S|qry_typ:P|lang:en|wc:3|cs:8837|v=4,False,Dabholi,Surat,"Plot No-17, Sy No-93/94, 1st Floor, Om Satyam Nagar Society, Ved Road, Dabholi Char Rasta, Dabholi, Surat - 395004, Dist.Surat, Gujarat",8048971766,
Baby Stroller Pram,https://www.indiamart.com/proddetail/baby-stroller-pram-2852488832573.html?pos=41&kwd=baby jogging stroller&tags=||||8211.142|Price|product|||TS|rsf:gd-|-stype:attr=1|qr_nm:gd|res:RC3|com-cf:nl|ptrs:na|ktp:N0|mc:22719|mtp:S|qry_typ:P|lang:en|wc:3|cs:8837|v=4,Mabel The Fashion Hub,https://www.mabelbabies.com/?pos=41&kwd=baby jogging stroller&tags=||||8211.142|Price|product|||TS|rsf:gd-|-stype:attr=1|qr_nm:gd|res:RC3|com-cf:nl|ptrs:na|ktp:N0|mc:22719|mtp:S|qry_typ:P|lang:en|wc:3|cs:8837|v=4,False,Andheri East,Mumbai,"Shop No 1, Teresa Triumph Chs, J B Nagar, Andheri East, Mumbai - 400059, Dist.Mumbai, Maharashtra",8047635478,
"Donald 3.5 Feet Kids Pram & Stroller, Age Group: 3-12 Months, 8 Wheel",https://www.indiamart.com/proddetail/kids-pram-stroller-21535967297.html?pos=42&kwd=baby jogging stroller&tags=||||8752.144|Price|product|||TS|rsf:gd-|-stype:attr=1|qr_nm:gd|res:RC3|com-cf:nl|ptrs:na|ktp:N0|mc:22719|mtp:S|qry_typ:P|lang:en|wc:3|cs:8837|v=4,Giriraj Enterprises,https://www.indiamart.com/giriraj-enterprises-delhi/?pos=42&kwd=baby jogging stroller&tags=||||8752.144|Price|product|||TS|rsf:gd-|-stype:attr=1|qr_nm:gd|res:RC3|com-cf:nl|ptrs:na|ktp:N0|mc:22719|mtp:S|qry_typ:P|lang:en|wc:3|cs:8837|v=4,False,Shakurpur,New Delhi,"WZ 313 A, Shakurpur Village, Shakurpur, New Delhi - 110034, Dist.Delhi, Delhi",8048262415,
SUPER TOY BABY STROLLER DOLL,https://www.indiamart.com/proddetail/super-toy-baby-stroller-doll-2854101645891.html?pos=43&kwd=baby jogging stroller&tags=||||8211.142|Price|product|||TS|rsf:gd-|-stype:attr=1|qr_nm:gd|res:RC3|com-cf:nl|ptrs:na|ktp:N0|mc:22719|mtp:S|qry_typ:P|lang:en|wc:3|cs:8837|v=4,S. V. Traders,https://www.indiamart.com/sv-tradersmumbai/?pos=43&kwd=baby jogging stroller&tags=||||8211.142|Price|product|||TS|rsf:gd-|-stype:attr=1|qr_nm:gd|res:RC3|com-cf:nl|ptrs:na|ktp:N0|mc:22719|mtp:S|qry_typ:P|lang:en|wc:3|cs:8837|v=4,False,Kalbadevi,Mumbai,"64, Fateh Dispensary House, Cross A.R Street, Bhajipala Lane, Kalbadevi, Mumbai - 400003, Dist.Mumbai, Maharashtra",7949227969,
WATERPROOF BABY STROLLER HANGING BAG,https://www.indiamart.com/proddetail/waterproof-baby-stroller-hanging-bag-27508499697.html?pos=44&kwd=baby jogging stroller&tags=||||8230.883|Price|product|||TS|rsf:gd-|-stype:attr=1|qr_nm:gd|res:RC3|com-cf:nl|ptrs:na|ktp:N0|mc:22719|mtp:S|qry_typ:P|lang:en|wc:3|cs:8837|v=4,Clomana,https://www.clomana.in/?pos=44&kwd=baby jogging stroller&tags=||||8230.883|Price|product|||TS|rsf:gd-|-stype:attr=1|qr_nm:gd|res:RC3|com-cf:nl|ptrs:na|ktp:N0|mc:22719|mtp:S|qry_typ:P|lang:en|wc:3|cs:8837|v=4,False,Katargam,Surat,"Shed No. 2, Sy. No. 310, Patel Falia, Katargam, Katargam, Surat - 395004, Dist.Surat, Gujarat",8048984393,
"Blue CRC Pipe Baby Stroller Pram, Age Group: 1-2 Years",https://www.indiamart.com/proddetail/baby-stroller-pram-2853332737488.html?pos=45&kwd=baby jogging stroller&tags=||||8752.144||product|||MDC|rsf:gd-|-stype:attr=1|qr_nm:gd|res:RC3|com-cf:nl|ptrs:na|ktp:N0|mc:22719|mtp:S|qry_typ:P|lang:en|wc:3|cs:8837|v=4,Chicky Baby Care,https://www.indiamart.com/chickybabycare/?pos=45&kwd=baby jogging stroller&tags=||||8752.144||product|||MDC|rsf:gd-|-stype:attr=1|qr_nm:gd|res:RC3|com-cf:nl|ptrs:na|ktp:N0|mc:22719|mtp:S|qry_typ:P|lang:en|wc:3|cs:8837|v=4,False,Begampur,New Delhi,"Ground Floor, Kh No - 14/2, Extn Village Begampur, Bhero Mandir,North West Delhi, Begampur, New Delhi - 110086, Dist.Delhi, Delhi",7942570605,
"Pink Plastic Kids Stroller, 4",https://www.indiamart.com/proddetail/pink-plastic-kids-stroller-2852948102173.html?pos=46&kwd=baby jogging stroller&tags=||||8752.144|Price|product|||MDC|rsf:gd-|-stype:attr=1|qr_nm:gd|res:RC3|com-cf:nl|ptrs:na|ktp:N0|mc:22719|mtp:S|qry_typ:P|lang:en|wc:3|cs:8837|v=4,Juneja Steel Furniture,https://www.indiamart.com/juneja-steel-furniture/?pos=46&kwd=baby jogging stroller&tags=||||8752.144|Price|product|||MDC|rsf:gd-|-stype:attr=1|qr_nm:gd|res:RC3|com-cf:nl|ptrs:na|ktp:N0|mc:22719|mtp:S|qry_typ:P|lang:en|wc:3|cs:8837|v=4,False,Multani Dhanda,New Delhi,"9523/13 Multani Dhanda Pahar Ganj, Multani Dhanda, New Delhi - 110055, Dist.Delhi, Delhi",8047824106,
Baby Stroller Pram,https://www.indiamart.com/proddetail/baby-stroller-pram-2853954974388.html?pos=47&kwd=baby jogging stroller&tags=||||8752.144|Price|product|||MDC|rsf:gd-|-stype:attr=1|qr_nm:gd|res:RC3|com-cf:nl|ptrs:na|ktp:N0|mc:22719|mtp:S|qry_typ:P|lang:en|wc:3|cs:8837|v=4,Swastik Toys,https://www.indiamart.com/swastik-toys-delhi/?pos=47&kwd=baby jogging stroller&tags=||||8752.144|Price|product|||MDC|rsf:gd-|-stype:attr=1|qr_nm:gd|res:RC3|com-cf:nl|ptrs:na|ktp:N0|mc:22719|mtp:S|qry_typ:P|lang:en|wc:3|cs:8837|v=4,False,Tihar,New Delhi,"WZ 125, Mahakavi Goswami Tulsidas Marg, Tihar, West Delhi, Tihar, New Delhi - 110018, Dist.Delhi, Delhi",8044015186,
"Normal Baby Stroller DLX, 4",https://www.indiamart.com/proddetail/baby-stroller-dlx-14674922791.html?pos=48&kwd=baby jogging stroller&tags=||||8211.142|Price|product|||MDC|rsf:gd-|-stype:attr=1|qr_nm:gd|res:RC3|com-cf:nl|ptrs:na|ktp:N0|mc:22719|mtp:S|qry_typ:P|lang:en|wc:3|cs:8837|v=4,Sara Traders,https://www.indiamart.com/saratraders-mumbai/?pos=48&kwd=baby jogging stroller&tags=||||8211.142|Price|product|||MDC|rsf:gd-|-stype:attr=1|qr_nm:gd|res:RC3|com-cf:nl|ptrs:na|ktp:N0|mc:22719|mtp:S|qry_typ:P|lang:en|wc:3|cs:8837|v=4,False,Princess Dock,Mumbai,"DONGRI,5/7 NISHANPADA CROSS LANE,2, DASTAGIR BUILDING,Mumbai, Princess Dock, Mumbai - 400009, Dist.Mumbai, Maharashtra",8048265712,
Wicker Doll Stroller Wicker Doll Pram Doll Pram Wicker Baby Stroller for Dolls Eco-friendly,https://www.indiamart.com/proddetail/wicker-doll-stroller-wicker-doll-pram-doll-pram-wicker-baby-stroller-for-dolls-eco-friendly-2854509217688.html?pos=49&kwd=baby jogging stroller&tags=||||8752.144|Price|product|||TS|rsf:gd-|-stype:attr=1|qr_nm:gd|res:RC3|com-cf:nl|ptrs:na|ktp:N0|mc:22719|mtp:S|qry_typ:P|lang:en|wc:3|cs:8837|v=4,Craferia Export Llp,https://www.craferiaexport.com/?pos=49&kwd=baby jogging stroller&tags=||||8752.144|Price|product|||TS|rsf:gd-|-stype:attr=1|qr_nm:gd|res:RC3|com-cf:nl|ptrs:na|ktp:N0|mc:22719|mtp:S|qry_typ:P|lang:en|wc:3|cs:8837|v=4,True,N.S.I.T. Dwarka,New Delhi,"H.No 319, 3rd Floor, Pocket 1, Sector 12, Dwarka,Near Metro Station,, N.S.I.T. Dwarka, New Delhi - 110078, Dist.Delhi, Delhi",8047671940,
Luvlap City 18277 Baby Stroller/Buggy 3 Position Adjustment For Babies 0 To 36 Months,https://www.indiamart.com/proddetail/luvlap-city-18277-baby-stroller-buggy-3-position-adjustment-for-babies-0-to-36-months-2851553139497.html?pos=50&kwd=baby jogging stroller&tags=||||8614.241|Price|product|||MDC|rsf:gd-|-stype:attr=1|qr_nm:gd|res:RC3|com-cf:nl|ptrs:na|ktp:N0|mc:22719|mtp:S|qry_typ:P|lang:en|wc:3|cs:8837|v=4,M.M. Toy World,https://www.indiamart.com/mmtoyworld/?pos=50&kwd=baby jogging stroller&tags=||||8614.241|Price|product|||MDC|rsf:gd-|-stype:attr=1|qr_nm:gd|res:RC3|com-cf:nl|ptrs:na|ktp:N0|mc:22719|mtp:S|qry_typ:P|lang:en|wc:3|cs:8837|v=4,False,Achli Gate,Batala,"M.M. Toys World, Bedian Gali, Khujari Gate, Gurdaspur, Achli Gate, Batala - 143505, Dist.Gurdaspur, Punjab",,
"Plastic Black Baby Folding Stroller, Age Group: 3-12 Months",https://www.indiamart.com/proddetail/black-baby-folding-stroller-2853400178997.html?pos=51&kwd=baby jogging stroller&tags=||||9618.383|Price|product|||MDC|rsf:gd-|-stype:attr=1|qr_nm:gd|res:RC3|com-cf:nl|ptrs:na|ktp:N0|mc:22719|mtp:S|qry_typ:P|lang:en|wc:3|cs:8837|v=4,Texco,https://www.indiamart.com/texco/?pos=51&kwd=baby jogging stroller&tags=||||9618.383|Price|product|||MDC|rsf:gd-|-stype:attr=1|qr_nm:gd|res:RC3|com-cf:nl|ptrs:na|ktp:N0|mc:22719|mtp:S|qry_typ:P|lang:en|wc:3|cs:8837|v=4,False,Bistupur,Jamshedpur,"Shop No. 2, Main Road, Bistupur, Bistupur, Jamshedpur - 831001, Dist.East Singhbhum, Jharkhand",7949092933,
Red And Black 2 Side Baby Seaters,https://www.indiamart.com/proddetail/2-side-kids-stroller-2854745876912.html?pos=52&kwd=baby jogging stroller&tags=||||8230.883|Price|product|||MDC|rsf:gd-|-stype:attr=1|qr_nm:gd|res:RC3|com-cf:nl|ptrs:na|ktp:N0|mc:22719|mtp:S|qry_typ:P|lang:en|wc:3|cs:8837|v=4,Shree Shree Khilona,https://www.indiamart.com/shreeshree-khilona/?pos=52&kwd=baby jogging stroller&tags=||||8230.883|Price|product|||MDC|rsf:gd-|-stype:attr=1|qr_nm:gd|res:RC3|com-cf:nl|ptrs:na|ktp:N0|mc:22719|mtp:S|qry_typ:P|lang:en|wc:3|cs:8837|v=4,False,Turava Compound Heera Bagh,Surat,"Lower Ground Floor, Shop No-L/9 To L/13, Sarthi CO-OP Housing Society LTD, Varachha Main Road, Turava Compound Heera Bagh, Surat - 395006, Dist.Surat, Gujarat",7949322132,
"Stainless Steel Dumbledo Babylove Pink Baby Stroller, 4",https://www.indiamart.com/proddetail/dumbledo-babylove-pink-baby-stroller-2854254006873.html?pos=53&kwd=baby jogging stroller&tags=||||8211.142|Price|product|||MDC|rsf:gd-|-stype:attr=1|qr_nm:gd|res:RC3|com-cf:nl|ptrs:na|ktp:N0|mc:22719|mtp:S|qry_typ:P|lang:en|wc:3|cs:8837|v=4,Dumbledo,https://www.indiamart.com/dumbledo-mumbai/?pos=53&kwd=baby jogging stroller&tags=||||8211.142|Price|product|||MDC|rsf:gd-|-stype:attr=1|qr_nm:gd|res:RC3|com-cf:nl|ptrs:na|ktp:N0|mc:22719|mtp:S|qry_typ:P|lang:en|wc:3|cs:8837|v=4,False,,Mumbai,"1st Floor, B/105, Bhoomi Valley, Thakur Village Road, Mumbai - 400101, Dist.Mumbai, Maharashtra",8044560722,
Blue & Red Baby Prams,https://www.indiamart.com/proddetail/baby-prams-19391809355.html?pos=54&kwd=baby jogging stroller&tags=||||8752.144|Price|product|||TS|rsf:gd-|-stype:attr=1|qr_nm:gd|res:RC3|com-cf:nl|ptrs:na|ktp:N0|mc:22719|mtp:S|qry_typ:P|lang:en|wc:3|cs:8837|v=4,Shri Krishna Trading,https://www.indiamart.com/shrikrishna-trading/?pos=54&kwd=baby jogging stroller&tags=||||8752.144|Price|product|||TS|rsf:gd-|-stype:attr=1|qr_nm:gd|res:RC3|com-cf:nl|ptrs:na|ktp:N0|mc:22719|mtp:S|qry_typ:P|lang:en|wc:3|cs:8837|v=4,False,Pitampura,New Delhi,"WZ-351, Pitampura, New Delhi - 110034, Dist.Delhi, Delhi",8047634011,
Assorted Baby Carrier Newborn to Toddler Wrap Carrier,https://www.indiamart.com/proddetail/baby-carrier-newborn-to-toddler-wrap-carrier-2851765642412.html?pos=55&kwd=baby jogging stroller&tags=||||8211.142|Price|product|||TS|rsf:gd-|-stype:attr=1|qr_nm:gd|res:RC3|com-cf:nl|ptrs:na|ktp:N0|mc:22719|mtp:S|qry_typ:P|lang:en|wc:3|cs:8837|v=4,Homenity,https://www.homenity.in/?pos=55&kwd=baby jogging stroller&tags=||||8211.142|Price|product|||TS|rsf:gd-|-stype:attr=1|qr_nm:gd|res:RC3|com-cf:nl|ptrs:na|ktp:N0|mc:22719|mtp:S|qry_typ:P|lang:en|wc:3|cs:8837|v=4,False,Masjid Bandar,Mumbai,"203, 2nd Floor, Plot-13a Mehajabeen Arcade, Chakala Cross Lane, Mumbai, Mumbai, Maharashtra, Masjid Bandar, Mumbai - 400003, Dist.Mumbai, Maharashtra",8047673711,
"2 Feet Metal Kids Stroller & Prams, 8",https://www.indiamart.com/proddetail/kids-stroller-prams-23352181030.html?pos=56&kwd=baby jogging stroller&tags=||||8752.144|Price|product|||TS|rsf:gd-|-stype:attr=1|qr_nm:gd|res:RC3|com-cf:nl|ptrs:na|ktp:N0|mc:22719|mtp:S|qry_typ:P|lang:en|wc:3|cs:8837|v=4,Ashish Trading Co.,https://www.indiamart.com/ashish-trading/?pos=56&kwd=baby jogging stroller&tags=||||8752.144|Price|product|||TS|rsf:gd-|-stype:attr=1|qr_nm:gd|res:RC3|com-cf:nl|ptrs:na|ktp:N0|mc:22719|mtp:S|qry_typ:P|lang:en|wc:3|cs:8837|v=4,False,Shalimar Bagh,New Delhi,"BC- 67 A, East Shalimar Bagh, Kela Godown Road Shalimar, Shalimar Bagh, New Delhi - 110088, Dist.Delhi, Delhi",8048979347,
Joie Mirus Reversible Handle Stroller (Birth to 17.5kg),https://www.indiamart.com/proddetail/joie-mirus-reversible-handle-stroller-birth-to-17-5kg-2851664954888.html?pos=57&kwd=baby jogging stroller&tags=||||8752.144|Price|product|||TS|rsf:gd-|-stype:attr=1|qr_nm:gd|res:RC3|com-cf:nl|ptrs:na|ktp:N0|mc:22719|mtp:S|qry_typ:P|lang:en|wc:3|cs:8837|v=4,Luxtronic Technologies,https://www.indiamart.com/luxtronic-technologies/?pos=57&kwd=baby jogging stroller&tags=||||8752.144|Price|product|||TS|rsf:gd-|-stype:attr=1|qr_nm:gd|res:RC3|com-cf:nl|ptrs:na|ktp:N0|mc:22719|mtp:S|qry_typ:P|lang:en|wc:3|cs:8837|v=4,False,Burari,New Delhi,"Khasra No.19/1, Shastri Park Burari,, Burari, New Delhi - 110084, Dist.Delhi, Delhi",7942835637,
3 Feet Plastic 4 Wheel Blue Printed Baby Pram,https://www.indiamart.com/proddetail/4-wheel-blue-printed-baby-pram-2852374630473.html?pos=58&kwd=baby jogging stroller&tags=||||8752.144|Price|product|||TS|rsf:gd-|-stype:attr=1|qr_nm:gd|res:RC3|com-cf:nl|ptrs:na|ktp:N0|mc:22719|mtp:S|qry_typ:P|lang:en|wc:3|cs:8837|v=4,Rocky India,https://www.indiamart.com/rocky-india/?pos=58&kwd=baby jogging stroller&tags=||||8752.144|Price|product|||TS|rsf:gd-|-stype:attr=1|qr_nm:gd|res:RC3|com-cf:nl|ptrs:na|ktp:N0|mc:22719|mtp:S|qry_typ:P|lang:en|wc:3|cs:8837|v=4,False,Brahampuri,New Delhi,"Ground Floor, I-36/10, Gali No. 10, Brahampuri, Brahampuri, New Delhi - 110053, Dist.Delhi, Delhi",7942708012,
Baby Stroller- Bicycles Hook,https://www.indiamart.com/proddetail/baby-stroller-bicycles-hook-2854572783397.html?pos=59&kwd=baby jogging stroller&tags=||||8211.142|Price|product|||TS|rsf:gd-|-stype:attr=1|qr_nm:gd|res:RC3|com-cf:nl|ptrs:na|ktp:N0|mc:22719|mtp:S|qry_typ:P|lang:en|wc:3|cs:8837|v=4,Parshwa Traders,https://www.parshwatrader.com/?pos=59&kwd=baby jogging stroller&tags=||||8211.142|Price|product|||TS|rsf:gd-|-stype:attr=1|qr_nm:gd|res:RC3|com-cf:nl|ptrs:na|ktp:N0|mc:22719|mtp:S|qry_typ:P|lang:en|wc:3|cs:8837|v=4,False,Masjiid bunder,Mumbai,"Crawford Market, Mumbai, 1st Floor, Shop No.4A, Amaan Mansion, 91 Sarang Street, Masjiid bunder, Mumbai - 400003, Dist.Mumbai, Maharashtra",8048963161,
Baby Walker Craddle,https://www.indiamart.com/proddetail/baby-walker-craddle-25921700048.html?pos=60&kwd=baby jogging stroller&tags=||||8211.142||product|||TS|rsf:gd-|-stype:attr=1|qr_nm:gd|res:RC3|com-cf:nl|ptrs:na|ktp:N0|mc:22719|mtp:S|qry_typ:P|lang:en|wc:3|cs:8837|v=4,Ennar Enterprises,https://www.indiamart.com/ennar-entp-mumbai/?pos=60&kwd=baby jogging stroller&tags=||||8211.142||product|||TS|rsf:gd-|-stype:attr=1|qr_nm:gd|res:RC3|com-cf:nl|ptrs:na|ktp:N0|mc:22719|mtp:S|qry_typ:P|lang:en|wc:3|cs:8837|v=4,False,Masjid Bandar,Mumbai,"1st, M-101, Vardhaman Nagar, Dr R P Road, Masjid Bandar, Mumbai - 400080, Dist.Mumbai, Maharashtra",8046030904,
"Plastic Fancy Baby Walker, 8",https://www.indiamart.com/proddetail/fancy-baby-walker-2852136247248.html?pos=61&kwd=baby jogging stroller&tags=||||8663.873|Price|product|||TS|rsf:gd-|-stype:attr=1|qr_nm:gd|res:RC3|com-cf:nl|ptrs:na|ktp:N0|mc:22719|mtp:S|qry_typ:P|lang:en|wc:3|cs:8837|v=4,Ratnaakar Impex,https://www.indiamart.com/ratnaakarimpex/?pos=61&kwd=baby jogging stroller&tags=||||8663.873|Price|product|||TS|rsf:gd-|-stype:attr=1|qr_nm:gd|res:RC3|com-cf:nl|ptrs:na|ktp:N0|mc:22719|mtp:S|qry_typ:P|lang:en|wc:3|cs:8837|v=4,False,Dharmarayaswamy Temple Street,Bengaluru,"6th Floor, No.6/2, Shop-1, Luciya City Center,Next To Sharada Talkies, OTC Road, Dharmarayaswamy Temple Street, Bengaluru - 560002, Dist.Bengaluru, Karnataka",7942843226,
Baby Walker,,Disha And Dustu Cycle Stores,https://www.indiamart.com/disha-and-dustu-cycle-stores/?pos=62&kwd=baby jogging stroller&tags=CC||||9820.245||product|||NA|rsf:gd-|-stype:attr=1|qr_nm:gd|res:RC3|com-cf:nl|ptrs:na|ktp:N0|mc:22719|mtp:S|qry_typ:P|lang:en|wc:3|cs:8837|v=4,False,Radindra Avenue,Malda,"Rajmahal Road, Near Pasu Hospital, Radindra Avenue, Malda - 732101, Dist.Malda, West Bengal",8048372249,782
"Pink,Black PVC,Mild Steel Movable Baby Prams, Age Group: 1-2 Years",https://www.indiamart.com/proddetail/movable-baby-prams-2853637568988.html?pos=63&kwd=baby jogging stroller&tags=||||9148.645|Price|product|||MDC|rsf:gd-|-stype:attr=1|qr_nm:gd|res:RC3|com-cf:nl|ptrs:na|ktp:N0|mc:22719|mtp:S|qry_typ:P|lang:en|wc:3|cs:8837|v=4,Sri Jaya Enterprises,https://www.indiamart.com/sri-jayaenterprises/?pos=63&kwd=baby jogging stroller&tags=||||9148.645|Price|product|||MDC|rsf:gd-|-stype:attr=1|qr_nm:gd|res:RC3|com-cf:nl|ptrs:na|ktp:N0|mc:22719|mtp:S|qry_typ:P|lang:en|wc:3|cs:8837|v=4,False,Machara,Mandapeta,"31-1-27/1, Ward No 13, Alamuru Road, Mandapeta, East Godavari, Machara, Mandapeta - 533308, Dist.East Godavari, Andhra Pradesh",7949093426,
"16 Inch Mild Steel Baby Pram, 6 Wheel",https://www.indiamart.com/proddetail/16-inch-mild-steel-baby-pram-2851821617333.html?pos=64&kwd=baby jogging stroller&tags=||||8752.144|Price|product|||MDC|rsf:gd-|-stype:attr=1|qr_nm:gd|res:RC3|com-cf:nl|ptrs:na|ktp:N0|mc:22719|mtp:S|qry_typ:P|lang:en|wc:3|cs:8837|v=4,Pinky Enterprises,https://www.indiamart.com/pinky-enterprisesdelhi/?pos=64&kwd=baby jogging stroller&tags=||||8752.144|Price|product|||MDC|rsf:gd-|-stype:attr=1|qr_nm:gd|res:RC3|com-cf:nl|ptrs:na|ktp:N0|mc:22719|mtp:S|qry_typ:P|lang:en|wc:3|cs:8837|v=4,False,Brahmpuri,New Delhi,"N-9/11, Gali No-14, NR Veshyai Dharmshala, Brahmpuri Ghonda, North East Delhi, Brahmpuri, New Delhi - 110053, Dist.Delhi, Delhi",8047694699,
"Polyester Stroller School Bag, Sttrolr Sb001-b",https://www.indiamart.com/proddetail/stroller-school-bag-2851501736333.html?pos=65&kwd=baby jogging stroller&tags=||||8954.051|Price|product|||MDC|rsf:gd-|-stype:attr=1|qr_nm:gd|res:RC3|com-cf:nl|ptrs:na|ktp:N0|mc:22719|mtp:S|qry_typ:P|lang:en|wc:3|cs:8837|v=4,Aventera Ventures Private Limited,https://www.indiamart.com/aventera-ventures/?pos=65&kwd=baby jogging stroller&tags=||||8954.051|Price|product|||MDC|rsf:gd-|-stype:attr=1|qr_nm:gd|res:RC3|com-cf:nl|ptrs:na|ktp:N0|mc:22719|mtp:S|qry_typ:P|lang:en|wc:3|cs:8837|v=4,False,Chennai,Chennai,"3/129, Thalambur Main Road, Karanai, Navallur Post, Chennai, Chennai - 600130, Dist.Chennai, Tamil Nadu",8048619129,
"Blue Iron Baby Pram, Age Group: Newly Born",https://www.indiamart.com/proddetail/iron-baby-pram-2854517660362.html?pos=66&kwd=baby jogging stroller&tags=||||8785.791|Price|product|||MDC|rsf:gd-|-stype:attr=1|qr_nm:gd|res:RC3|com-cf:nl|ptrs:na|ktp:N0|mc:22719|mtp:S|qry_typ:P|lang:en|wc:3|cs:8837|v=4,AS Creations,https://www.indiamart.com/ascreations-ghaziabad/?pos=66&kwd=baby jogging stroller&tags=||||8785.791|Price|product|||MDC|rsf:gd-|-stype:attr=1|qr_nm:gd|res:RC3|com-cf:nl|ptrs:na|ktp:N0|mc:22719|mtp:S|qry_typ:P|lang:en|wc:3|cs:8837|v=4,False,Sahibabad,Ghaziabad,"Ground Floor, B-169, Shalimar Garden Main, Sahibabad, Sahibabad, Ghaziabad - 201005, Dist.Ghaziabad, Uttar Pradesh",7949329190,
Pram Stroller,https://www.indiamart.com/proddetail/pram-stroller-2062212912.html?pos=67&kwd=baby jogging stroller&tags=||||8752.144|Price|product|||MDC|rsf:gd-|-stype:attr=1|qr_nm:gd|res:RC3|com-cf:nl|ptrs:na|ktp:N0|mc:22719|mtp:S|qry_typ:P|lang:en|wc:3|cs:8837|v=4,Bajaj Bicycle Company,https://www.indiamart.com/bajajbicycle/?pos=67&kwd=baby jogging stroller&tags=||||8752.144|Price|product|||MDC|rsf:gd-|-stype:attr=1|qr_nm:gd|res:RC3|com-cf:nl|ptrs:na|ktp:N0|mc:22719|mtp:S|qry_typ:P|lang:en|wc:3|cs:8837|v=4,False,Dilshad Garden,New Delhi,"O-35-A-1, Dilshad Garden, Dilshad Garden, New Delhi - 110095, Dist.Delhi, Delhi",8048600091,
"Baybee Grey Aluminium Stroller Travel System, 4 Wheels, Age Group: 0-3 Years",https://www.indiamart.com/proddetail/baybee-grey-aluminium-stroller-travel-system-2853491277748.html?pos=68&kwd=baby jogging stroller&tags=||||8954.051|Price|product|||MDC|rsf:gd-|-stype:attr=1|qr_nm:gd|res:RC3|com-cf:nl|ptrs:na|ktp:N0|mc:22719|mtp:S|qry_typ:P|lang:en|wc:3|cs:8837|v=4,Mom's Fashion World,https://www.indiamart.com/moms-fashion-world/?pos=68&kwd=baby jogging stroller&tags=||||8954.051|Price|product|||MDC|rsf:gd-|-stype:attr=1|qr_nm:gd|res:RC3|com-cf:nl|ptrs:na|ktp:N0|mc:22719|mtp:S|qry_typ:P|lang:en|wc:3|cs:8837|v=4,False,Adyar,Chennai,"10/2 ,12th Street, Bakthavatchallam Nagar,Nanganallur, Adyar, Chennai - 600061, Dist.Chennai, Tamil Nadu",7949091874,
Baby Stroller Pram,,Vikas Enterprises,https://www.indiamart.com/vikasentp-delhi/?pos=69&kwd=baby jogging stroller&tags=||||8752.144|Price|product|||MDC|rsf:gd-|-stype:attr=1|qr_nm:gd|res:RC3|com-cf:nl|ptrs:na|ktp:N0|mc:22719|mtp:S|qry_typ:P|lang:en|wc:3|cs:8837|v=4,False,Nangloi,New Delhi,"HN 35, Tyagi Colony, Rajendra Park, Main Rohtak Road Nangloi, Nangloi, New Delhi - 110041, Dist.Delhi, Delhi",8046065409,
Kids Baggi,https://www.indiamart.com/proddetail/kids-baggi-2855061127791.html?pos=70&kwd=baby jogging stroller&tags=||||8813.969|Price|product|||MDC|rsf:gd-|-stype:attr=1|qr_nm:gd|res:RC3|com-cf:nl|ptrs:na|ktp:N0|mc:22719|mtp:S|qry_typ:P|lang:en|wc:3|cs:8837|v=4,M.K Kids Zone,https://www.indiamart.com/mk-kids-zone/?pos=70&kwd=baby jogging stroller&tags=||||8813.969|Price|product|||MDC|rsf:gd-|-stype:attr=1|qr_nm:gd|res:RC3|com-cf:nl|ptrs:na|ktp:N0|mc:22719|mtp:S|qry_typ:P|lang:en|wc:3|cs:8837|v=4,False,ghanta ghar,Meerut,"34, Opp Pyare Lal Hospital, Ahmad Road, ghanta ghar, Meerut - 250002, Dist.Meerut, Uttar Pradesh",8047526300,
"Navy Blue Iron ABS Plastic Baby Prams, Age Group: 3-12 Months",https://www.indiamart.com/proddetail/iron-baby-prams-2854635925430.html?pos=71&kwd=baby jogging stroller&tags=||||9528.781|Price|product|||MDC|rsf:gd-|-stype:attr=1|qr_nm:gd|res:RC3|com-cf:nl|ptrs:na|ktp:N0|mc:22719|mtp:S|qry_typ:P|lang:en|wc:3|cs:8837|v=4,Sri Babajee Cycle,https://www.indiamart.com/sribabajeecycle/?pos=71&kwd=baby jogging stroller&tags=||||9528.781|Price|product|||MDC|rsf:gd-|-stype:attr=1|qr_nm:gd|res:RC3|com-cf:nl|ptrs:na|ktp:N0|mc:22719|mtp:S|qry_typ:P|lang:en|wc:3|cs:8837|v=4,False,,Ranchi,"Gorakh Nath Lane, Ratu Road, Ranchi - 834001, Dist.Ranchi, Jharkhand",7949329605,
"Baby Cradle Stroller, Blue, 4",https://www.indiamart.com/proddetail/baby-cradle-stroller-blue-27018711848.html?pos=72&kwd=baby jogging stroller&tags=||||8752.144|Price|product|||MDC|rsf:gd-|-stype:attr=1|qr_nm:gd|res:RC3|com-cf:nl|ptrs:na|ktp:N0|mc:22719|mtp:S|qry_typ:P|lang:en|wc:3|cs:8837|v=4,Goyal Baby Products,https://www.indiamart.com/goyalbabyproducts/?pos=72&kwd=baby jogging stroller&tags=||||8752.144|Price|product|||MDC|rsf:gd-|-stype:attr=1|qr_nm:gd|res:RC3|com-cf:nl|ptrs:na|ktp:N0|mc:22719|mtp:S|qry_typ:P|lang:en|wc:3|cs:8837|v=4,False,Bawana,New Delhi,"Plot.No.32, Ground Floor, Pocket-G, Sector-2, Bawana Dsidc, Bawana, New Delhi - 110039, Dist.Delhi, Delhi",8043894453,
"70 Cm Stainless Steel,Plastic Musical Baby Walker, 8 Wheels",https://www.indiamart.com/proddetail/musical-baby-walker-22708309973.html?pos=73&kwd=baby jogging stroller&tags=||||8752.144|Price|product|||TS|rsf:gd-|-stype:attr=1|qr_nm:gd|res:RC3|com-cf:nl|ptrs:na|ktp:N0|mc:22719|mtp:S|qry_typ:P|lang:en|wc:3|cs:8837|v=4,Mayur Steel Furniture,https://www.stylemayur.com/?pos=73&kwd=baby jogging stroller&tags=||||8752.144|Price|product|||TS|rsf:gd-|-stype:attr=1|qr_nm:gd|res:RC3|com-cf:nl|ptrs:na|ktp:N0|mc:22719|mtp:S|qry_typ:P|lang:en|wc:3|cs:8837|v=4,False,Multani Dhanda,New Delhi,"9525 Street No. 13 Multani Dhanda Paharganj since 1989, Multani Dhanda, New Delhi - 110055, Dist.Delhi, Delhi",8047635904,
Emerson Zxl with Sw electronic ca stroller model 543-0225-03,,Sonex Trading Co.,https://www.sonextrading.in/?pos=74&kwd=baby jogging stroller&tags=||||8228.275|Price|product|||TS|rsf:gd-|-stype:attr=1|qr_nm:gd|res:RC3|com-cf:nl|ptrs:na|ktp:N0|mc:22719|mtp:S|qry_typ:P|lang:en|wc:3|cs:8837|v=4,False,Sarkhej,Ahmedabad,"4, Saurashtra Estate, Near Lalji Mulji Transport S.G. Highway, Sarkhej, Ahmedabad - 382210, Dist.Ahmedabad, Gujarat",7942542538,
Plastic Baby walker,https://www.indiamart.com/proddetail/baby-walker-2853718746133.html?pos=75&kwd=baby jogging stroller&tags=||||8752.144|Price|product|||MDC|rsf:gd-|-stype:attr=1|qr_nm:gd|res:RC3|com-cf:nl|ptrs:na|ktp:N0|mc:22719|mtp:S|qry_typ:P|lang:en|wc:3|cs:8837|v=4,Anil Steel Industries,https://www.indiamart.com/anilsteelindustries-delhi/?pos=75&kwd=baby jogging stroller&tags=||||8752.144|Price|product|||MDC|rsf:gd-|-stype:attr=1|qr_nm:gd|res:RC3|com-cf:nl|ptrs:na|ktp:N0|mc:22719|mtp:S|qry_typ:P|lang:en|wc:3|cs:8837|v=4,False,Kirti Nagar,New Delhi,"N-46, Shop Plot, Kirti Nagar, Kirti Nagar, New Delhi - 110015, Dist.Delhi, Delhi",8046057314,
"Plastic and Stainless Steel Baby Turquoise Musical Dolphin Handle Adjustable Seat Walker, Six to Eighteen Months",https://www.indiamart.com/proddetail/baby-turquoise-musical-dolphin-handle-adjustable-seat-walker-2854405367133.html?pos=76&kwd=baby jogging stroller&tags=||||8210.732|Price|proxy|||MDC|rsf:gd-|-stype:attr=1|qr_nm:gd|res:RC3|com-cf:nl|ptrs:na|ktp:N0|mc:22719|mtp:S|qry_typ:P|lang:en|wc:3|cs:8837|v=4,Navkar Traders,https://www.indiamart.com/navkartradersmaharashtra/?pos=76&kwd=baby jogging stroller&tags=||||8210.732|Price|proxy|||MDC|rsf:gd-|-stype:attr=1|qr_nm:gd|res:RC3|com-cf:nl|ptrs:na|ktp:N0|mc:22719|mtp:S|qry_typ:P|lang:en|wc:3|cs:8837|v=4,False,,Vasai Virar,"Ground Floor, B/001, Shivam Apt, Rd. No. 1 Vasant Nagri,, Vasai Virar - 401209, Dist.Thane, Maharashtra",7949338602,
Plastic Green Musical Baby Walker,https://www.indiamart.com/proddetail/green-musical-baby-walker-2854071652991.html?pos=77&kwd=baby jogging stroller&tags=||||8785.791|Price|proxy|||MDC|rsf:gd-|-stype:attr=1|qr_nm:gd|res:RC3|com-cf:nl|ptrs:na|ktp:N0|mc:22719|mtp:S|qry_typ:P|lang:en|wc:3|cs:8837|v=4,Laxmi Enterprises,https://www.indiamart.com/laxmi-enterprisesindia/?pos=77&kwd=baby jogging stroller&tags=||||8785.791|Price|proxy|||MDC|rsf:gd-|-stype:attr=1|qr_nm:gd|res:RC3|com-cf:nl|ptrs:na|ktp:N0|mc:22719|mtp:S|qry_typ:P|lang:en|wc:3|cs:8837|v=4,False,Behta Hajipur,Ghaziabad,"Kh No.-1985, GALI NO.07, RYI Properties, Krishna Vihar II, LONI, Behta Hajipur, Behta Hajipur, Ghaziabad - 201102, Dist.Ghaziabad, Uttar Pradesh",8044563149,
Staranddaisy Luxury Kids Boutique,,Staranddaisy Luxury Kids Boutique,https://www.indiamart.com/staranddaisy-luxury-kids-boutique/?pos=78&kwd=baby jogging stroller&tags=||||8785.791||bl|||TS|rsf:gd-|-stype:attr=1|qr_nm:gd|res:RC3|com-cf:nl|ptrs:na|ktp:N0|mc:22719|mtp:S|qry_typ:P|lang:en|wc:3|cs:8837|v=4,False,Nehru Nagar,Ghaziabad,"R-6/27, Sector - 6 , Raj Nagar, Nehru Nagar, Ghaziabad - 201001, Dist.Ghaziabad, Uttar Pradesh",8048971885,
MAHADEV INDUSTRIES,,MAHADEV INDUSTRIES,https://www.mahadevindustries.in/?pos=79&kwd=baby jogging stroller&tags=||||8038.093||bl|||TS|rsf:gd-|-stype:attr=1|qr_nm:gd|res:RC3|com-cf:nl|ptrs:na|ktp:N0|mc:22719|mtp:S|qry_typ:P|lang:en|wc:3|cs:8837|v=4,False,Navyug Pura,Rajkot,"Shri Hari Industrial Area, Main Road, Near Ananad Hotel NH 8B Ring Road, Navyug Pura, Rajkot - 360002, Dist.Rajkot, Gujarat",8046050653,
Baby Stroller,https://www.indiamart.com/proddetail/baby-stroller-7447477191.html?pos=80&kwd=baby jogging stroller&tags=||||8242.532||product|||NA|rsf:gd-|-stype:attr=1|qr_nm:gd|res:RC3|com-cf:nl|ptrs:na|ktp:N0|mc:22719|mtp:S|qry_typ:P|lang:en|wc:3|cs:8837|v=4,Guru Kirpa Garments,https://www.indiamart.com/guru-kirpa-garments/?pos=80&kwd=baby jogging stroller&tags=||||8242.532||product|||NA|rsf:gd-|-stype:attr=1|qr_nm:gd|res:RC3|com-cf:nl|ptrs:na|ktp:N0|mc:22719|mtp:S|qry_typ:P|lang:en|wc:3|cs:8837|v=4,False,,Mansa,"Khoo Wali Gali, Opposite Vijaya Bank Mans, Mansa - 151505, Gujarat",8048249733,8007
Baby Stroller,https://www.indiamart.com/proddetail/baby-stroller-8201529673.html?pos=81&kwd=baby jogging stroller&tags=||||8752.144||product|||NA|rsf:gd-|-stype:attr=1|qr_nm:gd|res:RC3|com-cf:nl|ptrs:na|ktp:N0|mc:22719|mtp:S|qry_typ:P|lang:en|wc:3|cs:8837|v=4,Pragati International,https://www.indiamart.com/babypower/?pos=81&kwd=baby jogging stroller&tags=||||8752.144||product|||NA|rsf:gd-|-stype:attr=1|qr_nm:gd|res:RC3|com-cf:nl|ptrs:na|ktp:N0|mc:22719|mtp:S|qry_typ:P|lang:en|wc:3|cs:8837|v=4,False,Rohini Sector 9 Parvana Vihar,New Delhi,"Plot Number- I-6, Parvana Vihar, Sector 9, Rohini, Rohini Sector 9 Parvana Vihar, New Delhi - 110085, Dist.Delhi, Delhi",8048371914,871
Baby Stroller,https://www.indiamart.com/proddetail/baby-stroller-9559268191.html?pos=82&kwd=baby jogging stroller&tags=||||8752.144||product|||NA|rsf:gd-|-stype:attr=1|qr_nm:gd|res:RC3|com-cf:nl|ptrs:na|ktp:N0|mc:22719|mtp:S|qry_typ:P|lang:en|wc:3|cs:8837|v=4,Neha International,https://www.indiamart.com/neha-international-delhi/?pos=82&kwd=baby jogging stroller&tags=||||8752.144||product|||NA|rsf:gd-|-stype:attr=1|qr_nm:gd|res:RC3|com-cf:nl|ptrs:na|ktp:N0|mc:22719|mtp:S|qry_typ:P|lang:en|wc:3|cs:8837|v=4,False,Preet Vihar,New Delhi,"C-39, Preet Vihar, New Delhi - 110092, Dist.Delhi, Delhi",8043887600,
Baby Ride Stroller,,Wonder Multi Store,https://www.indiamart.com/srs-ent/?pos=83&kwd=baby jogging stroller&tags=||||8556.61|Price|product|||NA|rsf:gd-|-stype:attr=1|qr_nm:gd|res:RC3|com-cf:nl|ptrs:na|ktp:N0|mc:22719|mtp:S|qry_typ:P|lang:en|wc:3|cs:8837|v=4,False,,Mysore,"Ground Floor And Cellar D No 13/a Sathya Marga Siddartha Layout Near Gss School, Mysore - 570011, Dist.Mysuru, Karnataka",8048372744,588
Baby Stroller,https://www.indiamart.com/proddetail/baby-stroller-2330086933.html?pos=84&kwd=baby jogging stroller&tags=||||8752.144||product|||NA|rsf:gd-|-stype:attr=1|qr_nm:gd|res:RC3|com-cf:nl|ptrs:na|ktp:N0|mc:22719|mtp:S|qry_typ:P|lang:en|wc:3|cs:8837|v=4,Akay Rolling Mills Private Limited,https://www.indiamart.com/akay-rolling-mills/?pos=84&kwd=baby jogging stroller&tags=||||8752.144||product|||NA|rsf:gd-|-stype:attr=1|qr_nm:gd|res:RC3|com-cf:nl|ptrs:na|ktp:N0|mc:22719|mtp:S|qry_typ:P|lang:en|wc:3|cs:8837|v=4,False,Bali Nagar,New Delhi,"No. H-27, Bali Nagar, Bali Nagar, New Delhi - 110015, Dist.Delhi, Delhi",8048372274,137
Male Baby Stroller,https://www.indiamart.com/proddetail/baby-stroller-13112996462.html?pos=85&kwd=baby jogging stroller&tags=||||8663.873|Price|product|||NA|rsf:gd-|-stype:attr=1|qr_nm:gd|res:RC3|com-cf:nl|ptrs:na|ktp:N0|mc:22719|mtp:S|qry_typ:P|lang:en|wc:3|cs:8837|v=4,Benaka Scientifics,https://www.indiamart.com/benakascientifics/?pos=85&kwd=baby jogging stroller&tags=||||8663.873|Price|product|||NA|rsf:gd-|-stype:attr=1|qr_nm:gd|res:RC3|com-cf:nl|ptrs:na|ktp:N0|mc:22719|mtp:S|qry_typ:P|lang:en|wc:3|cs:8837|v=4,False,SVG Nagar,Bengaluru,"No. 16, Mahamane, 1st Floor, 3rd Cross, Svg Nagar Mudalapalya, SVG Nagar, Bengaluru - 560072, Dist.Bengaluru, Karnataka",8047696865,
Bajaj Baby Products Baby Stroller,https://www.indiamart.com/proddetail/baby-stroller-16071693533.html?pos=86&kwd=baby jogging stroller&tags=||||8752.144|Price|product|||NA|rsf:gd-|-stype:attr=1|qr_nm:gd|res:RC3|com-cf:nl|ptrs:na|ktp:N0|mc:22719|mtp:S|qry_typ:P|lang:en|wc:3|cs:8837|v=4,Bajaj Baby Products,https://www.indiamart.com/bajajbabyproducts/?pos=86&kwd=baby jogging stroller&tags=||||8752.144|Price|product|||NA|rsf:gd-|-stype:attr=1|qr_nm:gd|res:RC3|com-cf:nl|ptrs:na|ktp:N0|mc:22719|mtp:S|qry_typ:P|lang:en|wc:3|cs:8837|v=4,False,Bawana,New Delhi,"PLOT NO-54,,BLOCK-D,SHIV VIHAR KARALA P-11, Sector 1,110039,New Delhi, Bawana, New Delhi - 110081, Dist.Delhi, Delhi",8047669110,
Multicolor Baby Stroller,https://www.indiamart.com/proddetail/baby-stroller-16545367233.html?pos=87&kwd=baby jogging stroller&tags=||||8230.883|Price|product|||NA|rsf:gd-|-stype:attr=1|qr_nm:gd|res:RC3|com-cf:nl|ptrs:na|ktp:N0|mc:22719|mtp:S|qry_typ:P|lang:en|wc:3|cs:8837|v=4,Rangildas And Brothers,https://www.indiamart.com/rangildasandbrothers/?pos=87&kwd=baby jogging stroller&tags=||||8230.883|Price|product|||NA|rsf:gd-|-stype:attr=1|qr_nm:gd|res:RC3|com-cf:nl|ptrs:na|ktp:N0|mc:22719|mtp:S|qry_typ:P|lang:en|wc:3|cs:8837|v=4,False,Gopipura,Surat,",11,295 TO 299-B,OPP MRTRO SHOOES, BHAGATALAV,,BHAGATALAB, Gopipura, Surat - 395003, Dist.Surat, Gujarat",8047686540,
Baby Stroller,https://www.indiamart.com/proddetail/baby-stroller-8911245712.html?pos=88&kwd=baby jogging stroller&tags=||||8752.144||product|||NA|rsf:gd-|-stype:attr=1|qr_nm:gd|res:RC3|com-cf:nl|ptrs:na|ktp:N0|mc:22719|mtp:S|qry_typ:P|lang:en|wc:3|cs:8837|v=4,Dream Works,https://www.indiamart.com/dreamworks-ghaziabad/?pos=88&kwd=baby jogging stroller&tags=||||8752.144||product|||NA|rsf:gd-|-stype:attr=1|qr_nm:gd|res:RC3|com-cf:nl|ptrs:na|ktp:N0|mc:22719|mtp:S|qry_typ:P|lang:en|wc:3|cs:8837|v=4,False,Geeta Colony,New Delhi,"No. 8-A/1, Second Floor, Geeta Colony, New Delhi - 110031, Dist.Delhi, Delhi",8043803044,
Baby Stroller,,Mahalaxmi Marketing,https://www.indiamart.com/mahalaxmi-marketingchennai/?pos=89&kwd=baby jogging stroller&tags=||||8954.051||product|||NA|rsf:gd-|-stype:attr=1|qr_nm:gd|res:RC3|com-cf:nl|ptrs:na|ktp:N0|mc:22719|mtp:S|qry_typ:P|lang:en|wc:3|cs:8837|v=4,False,,Chennai,"No.130, Ground Floor Shop No.17, Complex Sree Centre, Mint Street Sowcarpet, Chennai - 600001, Dist.Chennai, Tamil Nadu",8047548374,
"5 Ft MS Pipes Baby Stroller, 8, G7",https://www.indiamart.com/proddetail/baby-stroller-2850473709697.html?pos=90&kwd=baby jogging stroller&tags=||||8752.144|Price|product|||NA|rsf:gd-|-stype:attr=1|qr_nm:gd|res:RC3|com-cf:nl|ptrs:na|ktp:N0|mc:22719|mtp:S|qry_typ:P|lang:en|wc:3|cs:8837|v=4,Nishad Cycle Industries,https://www.indiamart.com/nishadcycleindustries/?pos=90&kwd=baby jogging stroller&tags=||||8752.144|Price|product|||NA|rsf:gd-|-stype:attr=1|qr_nm:gd|res:RC3|com-cf:nl|ptrs:na|ktp:N0|mc:22719|mtp:S|qry_typ:P|lang:en|wc:3|cs:8837|v=4,False,,New Delhi,"H.No.-166, PKT-C, Sec-4, DSIDC, Bawana, New Delhi - 110039, Dist.Delhi, Delhi",7942821632,
Baby Stroller,https://www.indiamart.com/proddetail/baby-stroller-10517988533.html?pos=91&kwd=baby jogging stroller&tags=||||8785.791|Price|product|||NA|rsf:gd-|-stype:attr=1|qr_nm:gd|res:RC3|com-cf:nl|ptrs:na|ktp:N0|mc:22719|mtp:S|qry_typ:P|lang:en|wc:3|cs:8837|v=4,Littles Camp,https://www.indiamart.com/littles-camp/?pos=91&kwd=baby jogging stroller&tags=||||8785.791|Price|product|||NA|rsf:gd-|-stype:attr=1|qr_nm:gd|res:RC3|com-cf:nl|ptrs:na|ktp:N0|mc:22719|mtp:S|qry_typ:P|lang:en|wc:3|cs:8837|v=4,False,Ghanta Ghar,Ghaziabad,"Shop No. A1, Main G. T. Road, Ghanta Ghar, Ghaziabad - 201001, Dist.Ghaziabad, Uttar Pradesh",8047767245,
Baby Stroller,,Novelty Plastic Industries,https://www.indiamart.com/noveltyplasticindustries/?pos=92&kwd=baby jogging stroller&tags=||||8752.144||product|||NA|rsf:gd-|-stype:attr=1|qr_nm:gd|res:RC3|com-cf:nl|ptrs:na|ktp:N0|mc:22719|mtp:S|qry_typ:P|lang:en|wc:3|cs:8837|v=4,False,Jhilmil Colony,New Delhi,"S-26,,School Block,Shakarpur A9/2, Jhilmil Industrial Area, Dilshad Garden Metro, Shakarpur,110095,Delhi, Jhilmil Colony, New Delhi - 110092, Dist.Delhi, Delhi",7949350057,
Baby Stroller,https://www.indiamart.com/proddetail/baby-stroller-19646765488.html?pos=93&kwd=baby jogging stroller&tags=||||9110.092|Price|product|||NA|rsf:gd-|-stype:attr=1|qr_nm:gd|res:RC3|com-cf:nl|ptrs:na|ktp:N0|mc:22719|mtp:S|qry_typ:P|lang:en|wc:3|cs:8837|v=4,Janta Sports And Toys,https://www.indiamart.com/janta-sportstoys/?pos=93&kwd=baby jogging stroller&tags=||||9110.092|Price|product|||NA|rsf:gd-|-stype:attr=1|qr_nm:gd|res:RC3|com-cf:nl|ptrs:na|ktp:N0|mc:22719|mtp:S|qry_typ:P|lang:en|wc:3|cs:8837|v=4,False,Yahiyaganj,Lucknow,"Opposite Chhote Lal Misthan Bhandar, Yahiyaganj, Lucknow - 226004, Dist.Lucknow, Uttar Pradesh",8047670822,
Baby Stroller,https://www.indiamart.com/proddetail/baby-stroller-20702453812.html?pos=94&kwd=baby jogging stroller&tags=||||8752.144|Price|product|||NA|rsf:gd-|-stype:attr=1|qr_nm:gd|res:RC3|com-cf:nl|ptrs:na|ktp:N0|mc:22719|mtp:S|qry_typ:P|lang:en|wc:3|cs:8837|v=4,Magadi Metallon Trading Corporation,https://www.indiamart.com/magadimetallontradingcorporation/?pos=94&kwd=baby jogging stroller&tags=||||8752.144|Price|product|||NA|rsf:gd-|-stype:attr=1|qr_nm:gd|res:RC3|com-cf:nl|ptrs:na|ktp:N0|mc:22719|mtp:S|qry_typ:P|lang:en|wc:3|cs:8837|v=4,False,New Friends Colony,New Delhi,"B10, SF, Maharani Bagh, New Friends Colony, New Delhi - 110065, Dist.Delhi, Delhi",8048372067,297
Baby Stroller,https://www.indiamart.com/proddetail/baby-stroller-2849890890630.html?pos=95&kwd=baby jogging stroller&tags=||||8228.275|Price|product|||NA|rsf:gd-|-stype:attr=1|qr_nm:gd|res:RC3|com-cf:nl|ptrs:na|ktp:N0|mc:22719|mtp:S|qry_typ:P|lang:en|wc:3|cs:8837|v=4,Toy Paradise NX,https://www.indiamart.com/toy-paradise-nx-ahmedabad/?pos=95&kwd=baby jogging stroller&tags=||||8228.275|Price|product|||NA|rsf:gd-|-stype:attr=1|qr_nm:gd|res:RC3|com-cf:nl|ptrs:na|ktp:N0|mc:22719|mtp:S|qry_typ:P|lang:en|wc:3|cs:8837|v=4,False,shahpur cross road,Ahmedabad,"SHOP NO-1,NR. KASHI VISHVANATH MAHADEV,O/S SHAHPUR GATE,SHAHPUR nr kashi Vishwanath mahadev,380002,Ahmedabad, shahpur cross road, Ahmedabad - 380001, Dist.Ahmedabad, Gujarat",8043817929,
Baby Stroller,https://www.indiamart.com/proddetail/baby-stroller-2853474560848.html?pos=96&kwd=baby jogging stroller&tags=||||8741.812|Price|product|||NA|rsf:gd-|-stype:attr=1|qr_nm:gd|res:RC3|com-cf:nl|ptrs:na|ktp:N0|mc:22719|mtp:S|qry_typ:P|lang:en|wc:3|cs:8837|v=4,Cmie store,https://www.indiamart.com/pakka-rent/?pos=96&kwd=baby jogging stroller&tags=||||8741.812|Price|product|||NA|rsf:gd-|-stype:attr=1|qr_nm:gd|res:RC3|com-cf:nl|ptrs:na|ktp:N0|mc:22719|mtp:S|qry_typ:P|lang:en|wc:3|cs:8837|v=4,False,,Gurugram,"1st floor, Pearl Tower, Plot No. 51, Sector 32, Gurugram, Haryan, Gurugram - 122001, Dist.Gurgaon, Haryana",8047665903,
Baby Stroller with 5 Point Safety Harness and Reversible Handlebar Stroller for Baby,https://www.indiamart.com/proddetail/baby-stroller-with-5-point-safety-harness-and-reversible-handlebar-stroller-for-baby-2853410518312.html?pos=97&kwd=baby jogging stroller&tags=||||8786.56|Price|product|||NA|rsf:gd-|-stype:attr=1|qr_nm:gd|res:RC3|com-cf:nl|ptrs:na|ktp:N0|mc:22719|mtp:S|qry_typ:P|lang:en|wc:3|cs:8837|v=4,Springkart,https://www.indiamart.com/springkart/?pos=97&kwd=baby jogging stroller&tags=||||8786.56|Price|product|||NA|rsf:gd-|-stype:attr=1|qr_nm:gd|res:RC3|com-cf:nl|ptrs:na|ktp:N0|mc:22719|mtp:S|qry_typ:P|lang:en|wc:3|cs:8837|v=4,False,Moula Ali,Hyderabad,"Flat No. 103, Saipriya Residency, M. J. Colony, Moula Ali, Hyderabad - 500080, Dist.Hyderabad, Telangana",,
"4 Feet PVC And SS Baby Folding Stroller, 2",https://www.indiamart.com/proddetail/baby-folding-stroller-2851767589230.html?pos=98&kwd=baby jogging stroller&tags=||||8661.854|Price|product|||NA|rsf:gd-|-stype:attr=1|qr_nm:gd|res:RC3|com-cf:nl|ptrs:na|ktp:N0|mc:22719|mtp:S|qry_typ:P|lang:en|wc:3|cs:8837|v=4,Balwinder Singh & Sons,https://www.indiamart.com/rs-medical-agency-sansarpur-terrace-growth-centre-industrial-area/?pos=98&kwd=baby jogging stroller&tags=||||8661.854|Price|product|||NA|rsf:gd-|-stype:attr=1|qr_nm:gd|res:RC3|com-cf:nl|ptrs:na|ktp:N0|mc:22719|mtp:S|qry_typ:P|lang:en|wc:3|cs:8837|v=4,False,,Ludhiana,"House No. 1188 Karta Ram Street Vikram Sood, Ludhiana - 141008, Dist.Ludhiana, Punjab",8069196745,495
Baby Parm Stroller,,Maheshwari Traders,https://www.indiamart.com/universal-storenew-delhi/?pos=99&kwd=baby jogging stroller&tags=||||8752.144||product|||NA|rsf:gd-|-stype:attr=1|qr_nm:gd|res:RC3|com-cf:nl|ptrs:na|ktp:N0|mc:22719|mtp:S|qry_typ:P|lang:en|wc:3|cs:8837|v=4,False,SAGARPUR,New Delhi,"HOUSE NO - WZ 10,,VILLAGE - ASALATPUR,JANAKPURI RZ F115A VEER NAGAR GALI NO 3 WEST SAGARPUR,110046,New Delhi, SAGARPUR, New Delhi - 110058, Dist.Delhi, Delhi",8043805038,
Baby Stroller Walker,https://www.indiamart.com/proddetail/baby-stroller-walker-12450331855.html?pos=100&kwd=baby jogging stroller&tags=||||8954.051|Price|product|||NA|rsf:gd-|-stype:attr=1|qr_nm:gd|res:RC3|com-cf:nl|ptrs:na|ktp:N0|mc:22719|mtp:S|qry_typ:P|lang:en|wc:3|cs:8837|v=4,Kankaria International,https://www.indiamart.com/kankariainternational/?pos=100&kwd=baby jogging stroller&tags=||||8954.051|Price|product|||NA|rsf:gd-|-stype:attr=1|qr_nm:gd|res:RC3|com-cf:nl|ptrs:na|ktp:N0|mc:22719|mtp:S|qry_typ:P|lang:en|wc:3|cs:8837|v=4,False,Krishnammal Road,Chennai,"Shop No. 148, Krishnammal Road, Chennai - 600034, Dist.Chennai, Tamil Nadu",8043802944,
"Luvlap Baby Stroller, 4",https://www.indiamart.com/proddetail/luvlap-baby-stroller-2852859949612.html?pos=101&kwd=baby jogging stroller&tags=||||8786.56|Price|product|||NA|rsf:gd-|-stype:attr=1|qr_nm:gd|res:RC3|com-cf:nl|ptrs:na|ktp:N0|mc:22719|mtp:S|qry_typ:P|lang:en|wc:3|cs:8837|v=4,Abishek Goli,https://www.indiamart.com/abishek-goli/?pos=101&kwd=baby jogging stroller&tags=||||8786.56|Price|product|||NA|rsf:gd-|-stype:attr=1|qr_nm:gd|res:RC3|com-cf:nl|ptrs:na|ktp:N0|mc:22719|mtp:S|qry_typ:P|lang:en|wc:3|cs:8837|v=4,False,,Hyderabad,", Hyderabad - 500012, Dist.Hyderabad, Telangana",8048250559,770
"Steel Pipe,Oxford Fabric T603 Baby Stroller, 6 Wheel",https://www.indiamart.com/proddetail/t603-baby-stroller-2852549645748.html?pos=102&kwd=baby jogging stroller&tags=||||8211.142|Price|product|||NA|rsf:gd-|-stype:attr=1|qr_nm:gd|res:RC3|com-cf:nl|ptrs:na|ktp:N0|mc:22719|mtp:S|qry_typ:P|lang:en|wc:3|cs:8837|v=4,Spinners Bicycles And Fitness,https://www.indiamart.com/spinnersbicyclesfitness/?pos=102&kwd=baby jogging stroller&tags=||||8211.142|Price|product|||NA|rsf:gd-|-stype:attr=1|qr_nm:gd|res:RC3|com-cf:nl|ptrs:na|ktp:N0|mc:22719|mtp:S|qry_typ:P|lang:en|wc:3|cs:8837|v=4,False,,Mumbai,"Mezzanine Floor, 203/205, Cream Apartment, Sheriff Devji Street, Chakla, Mandvi,, Mumbai - 400003, Dist.Mumbai, Maharashtra",7942711423,
"3 Feet Plastic Baby Travel Stroller, 4 Wheel",https://www.indiamart.com/proddetail/baby-travel-stroller-2852711288048.html?pos=103&kwd=baby jogging stroller&tags=||||8231.259||product|||NA|rsf:gd-|-stype:attr=1|qr_nm:gd|res:RC3|com-cf:nl|ptrs:na|ktp:N0|mc:22719|mtp:S|qry_typ:P|lang:en|wc:3|cs:8837|v=4,Bush Impex,https://www.indiamart.com/bush-impex-bhiwandimaharashtra/?pos=103&kwd=baby jogging stroller&tags=||||8231.259||product|||NA|rsf:gd-|-stype:attr=1|qr_nm:gd|res:RC3|com-cf:nl|ptrs:na|ktp:N0|mc:22719|mtp:S|qry_typ:P|lang:en|wc:3|cs:8837|v=4,False,,Bhiwandi,"6th, 603, A Wing., Farid Arcade, Khandupada, Thane, Bhiwandi - 421302, Maharashtra",7942717940,
Sky Blue Plastic Fancy Baby Stroller,https://www.indiamart.com/proddetail/fancy-baby-stroller-3517871948.html?pos=104&kwd=baby jogging stroller&tags=||||9839.57|Price|product|||NA|rsf:gd-|-stype:attr=1|qr_nm:gd|res:RC3|com-cf:nl|ptrs:na|ktp:N0|mc:22719|mtp:S|qry_typ:P|lang:en|wc:3|cs:8837|v=4,Saroj International Trading Co.,https://www.indiamart.com/sarojinternationaltradingco/?pos=104&kwd=baby jogging stroller&tags=||||9839.57|Price|product|||NA|rsf:gd-|-stype:attr=1|qr_nm:gd|res:RC3|com-cf:nl|ptrs:na|ktp:N0|mc:22719|mtp:S|qry_typ:P|lang:en|wc:3|cs:8837|v=4,False,,Kolkata,"7B C Tiljala Road Park Circus, Kolkata - 700046, Dist.Kolkata, West Bengal",8047646422,
Comfort Baby Stroller,https://www.indiamart.com/proddetail/comfort-baby-stroller-13727181573.html?pos=105&kwd=baby jogging stroller&tags=||||8476.868|Price|product|||NA|rsf:gd-|-stype:attr=1|qr_nm:gd|res:RC3|com-cf:nl|ptrs:na|ktp:N0|mc:22719|mtp:S|qry_typ:P|lang:en|wc:3|cs:8837|v=4,J L Morison India Limited,https://www.indiamart.com/sydler-remedies/?pos=105&kwd=baby jogging stroller&tags=||||8476.868|Price|product|||NA|rsf:gd-|-stype:attr=1|qr_nm:gd|res:RC3|com-cf:nl|ptrs:na|ktp:N0|mc:22719|mtp:S|qry_typ:P|lang:en|wc:3|cs:8837|v=4,False,MIDC,Aurangabad,"E-95/1, M. I. D. C, Waluj, MIDC, Aurangabad - 431136, Maharashtra",7942612193,
"28 Inch (h) PVC Luvlap Baby Stroller, 4",https://www.indiamart.com/proddetail/luvlap-baby-stroller-2851821371348.html?pos=106&kwd=baby jogging stroller&tags=||||8663.873|Price|product|||NA|rsf:gd-|-stype:attr=1|qr_nm:gd|res:RC3|com-cf:nl|ptrs:na|ktp:N0|mc:22719|mtp:S|qry_typ:P|lang:en|wc:3|cs:8837|v=4,Krishna Born Baby,https://www.indiamart.com/krishna-born-baby/?pos=106&kwd=baby jogging stroller&tags=||||8663.873|Price|product|||NA|rsf:gd-|-stype:attr=1|qr_nm:gd|res:RC3|com-cf:nl|ptrs:na|ktp:N0|mc:22719|mtp:S|qry_typ:P|lang:en|wc:3|cs:8837|v=4,False,,Bengaluru,"No 524, 24th Main, HSR Layout Sector-2, Urban, Bengaluru - 560102, Dist.Bengaluru, Karnataka",8047671592,
"Baby Stroller Pram, 4",https://www.indiamart.com/proddetail/baby-stroller-pram-23540807688.html?pos=107&kwd=baby jogging stroller&tags=||||8562.157|Price|product|||NA|rsf:gd-|-stype:attr=1|qr_nm:gd|res:RC3|com-cf:nl|ptrs:na|ktp:N0|mc:22719|mtp:S|qry_typ:P|lang:en|wc:3|cs:8837|v=4,Jai Bala Ji Enterprises,https://www.indiamart.com/jai-bala-jienterprises/?pos=107&kwd=baby jogging stroller&tags=||||8562.157|Price|product|||NA|rsf:gd-|-stype:attr=1|qr_nm:gd|res:RC3|com-cf:nl|ptrs:na|ktp:N0|mc:22719|mtp:S|qry_typ:P|lang:en|wc:3|cs:8837|v=4,False,,Sirsa,"Gali DR.Mathura Dass Wali ,Rori Bazar ,Sirsa,Haryana, Sirsa - 125055, Haryana",8047763398,
"3 Feet Metal And Cloth luvlap baby stroller, 4, lvlp001",https://www.indiamart.com/proddetail/luvlap-baby-stroller-3463181212.html?pos=108&kwd=baby jogging stroller&tags=||||8228.275|Price|product|||NA|rsf:gd-|-stype:attr=1|qr_nm:gd|res:RC3|com-cf:nl|ptrs:na|ktp:N0|mc:22719|mtp:S|qry_typ:P|lang:en|wc:3|cs:8837|v=4,New Twinkle Toys,https://www.indiamart.com/newtwinkle-toys/?pos=108&kwd=baby jogging stroller&tags=||||8228.275|Price|product|||NA|rsf:gd-|-stype:attr=1|qr_nm:gd|res:RC3|com-cf:nl|ptrs:na|ktp:N0|mc:22719|mtp:S|qry_typ:P|lang:en|wc:3|cs:8837|v=4,False,Satellite,Ahmedabad,"Shop No. B-14, Neelkanth Palace, 100 Feet Ring Road Satellite, Opposite Seema Hall, Satellite, Ahmedabad - 380015, Dist.Ahmedabad, Gujarat",8043818949,
Baby Stroller Tyre,,Suraj Rubber Industries,https://www.indiamart.com/suraj-rubber-industries/?pos=109&kwd=baby jogging stroller&tags=||||8641.487||product|||NA|rsf:gd-|-stype:attr=1|qr_nm:gd|res:RC3|com-cf:nl|ptrs:na|ktp:N0|mc:22719|mtp:S|qry_typ:P|lang:en|wc:3|cs:8837|v=4,False,Transport Nagar,Jalandhar,"Aman Nagar, Bye - Pass, Transport Nagar, Jalandhar - 144004, Dist.Jalandhar, Punjab",8043834503,
"2Feet SS And Polyester Baby Pram Stroller, 8",https://www.indiamart.com/proddetail/baby-pram-stroller-2851077727555.html?pos=110&kwd=baby jogging stroller&tags=||||9140.514|Price|product|||NA|rsf:gd-|-stype:attr=1|qr_nm:gd|res:RC3|com-cf:nl|ptrs:na|ktp:N0|mc:22719|mtp:S|qry_typ:P|lang:en|wc:3|cs:8837|v=4,M S Traders,https://www.indiamart.com/mstraders-raipur/?pos=110&kwd=baby jogging stroller&tags=||||9140.514|Price|product|||NA|rsf:gd-|-stype:attr=1|qr_nm:gd|res:RC3|com-cf:nl|ptrs:na|ktp:N0|mc:22719|mtp:S|qry_typ:P|lang:en|wc:3|cs:8837|v=4,False,,Raipur,"Parwani Building, Jairam Complex M G Road, Sharda Chowk, Raipur - 492001, Chhattisgarh",7942834181,
"Steel Baby Stroller Pram, 12",https://www.indiamart.com/proddetail/baby-stroller-pram-23138872091.html?pos=111&kwd=baby jogging stroller&tags=||||8823.154|Price|product|||NA|rsf:gd-|-stype:attr=1|qr_nm:gd|res:RC3|com-cf:nl|ptrs:na|ktp:N0|mc:22719|mtp:S|qry_typ:P|lang:en|wc:3|cs:8837|v=4,RDC Brothers,https://www.indiamart.com/rdc-brothers/?pos=111&kwd=baby jogging stroller&tags=||||8823.154|Price|product|||NA|rsf:gd-|-stype:attr=1|qr_nm:gd|res:RC3|com-cf:nl|ptrs:na|ktp:N0|mc:22719|mtp:S|qry_typ:P|lang:en|wc:3|cs:8837|v=4,False,Rajpur Chungi,Agra,"Near Rajeshwar mandir, Shamashabad road beside upadhyay tent house, Rajpur Chungi, Agra - 282001, Dist.Agra, Uttar Pradesh",8046067443,
"Baby Stroller Pram, Luvlap",https://www.indiamart.com/proddetail/baby-stroller-pram-22596357412.html?pos=112&kwd=baby jogging stroller&tags=||||8500.97|Price|product|||NA|rsf:gd-|-stype:attr=1|qr_nm:gd|res:RC3|com-cf:nl|ptrs:na|ktp:N0|mc:22719|mtp:S|qry_typ:P|lang:en|wc:3|cs:8837|v=4,G.K. Tradings,https://www.indiamart.com/g-k-tradings/?pos=112&kwd=baby jogging stroller&tags=||||8500.97|Price|product|||NA|rsf:gd-|-stype:attr=1|qr_nm:gd|res:RC3|com-cf:nl|ptrs:na|ktp:N0|mc:22719|mtp:S|qry_typ:P|lang:en|wc:3|cs:8837|v=4,False,Thriprayar,Thrissur,"Ix/626,627, 628 Triprayar Nattika, Thriprayar, Thrissur - 680566, Dist.Thrissur, Kerala",7942560526,
Light weight Travel Baby Trolley Stroller (Grey),https://www.indiamart.com/proddetail/light-weight-travel-baby-trolley-stroller-grey-2852408752097.html?pos=113&kwd=baby jogging stroller&tags=||||8228.275|Price|product|||NA|rsf:gd-|-stype:attr=1|qr_nm:gd|res:RC3|com-cf:nl|ptrs:na|ktp:N0|mc:22719|mtp:S|qry_typ:P|lang:en|wc:3|cs:8837|v=4,Eclat Globalbiz LLP,https://www.indiamart.com/eclatglobalbiz/?pos=113&kwd=baby jogging stroller&tags=||||8228.275|Price|product|||NA|rsf:gd-|-stype:attr=1|qr_nm:gd|res:RC3|com-cf:nl|ptrs:na|ktp:N0|mc:22719|mtp:S|qry_typ:P|lang:en|wc:3|cs:8837|v=4,False,,Ahmedabad,"Shilp Zaveri, Ahmedabad - 380004, Dist.Ahmedabad, Gujarat",,
Baby Stroller Tyre,,Luna Tyres Private Limited,https://www.indiamart.com/luna-tyres-ltd/?pos=114&kwd=baby jogging stroller&tags=||||9839.57||product|||NA|rsf:gd-|-stype:attr=1|qr_nm:gd|res:RC3|com-cf:nl|ptrs:na|ktp:N0|mc:22719|mtp:S|qry_typ:P|lang:en|wc:3|cs:8837|v=4,False,Kaba Para,Kolkata,"Swabhumi,, Kaba Para, Kolkata - 700054, Dist.Kolkata, West Bengal",8048361324,348
Baby Carry Travel Pram Stroller,https://www.indiamart.com/proddetail/baby-carry-travel-pram-stroller-16863524491.html?pos=115&kwd=baby jogging stroller&tags=||||8230.883|Price|product|||NA|rsf:gd-|-stype:attr=1|qr_nm:gd|res:RC3|com-cf:nl|ptrs:na|ktp:N0|mc:22719|mtp:S|qry_typ:P|lang:en|wc:3|cs:8837|v=4,National Traders,https://www.indiamart.com/national-traders-surat/?pos=115&kwd=baby jogging stroller&tags=||||8230.883|Price|product|||NA|rsf:gd-|-stype:attr=1|qr_nm:gd|res:RC3|com-cf:nl|ptrs:na|ktp:N0|mc:22719|mtp:S|qry_typ:P|lang:en|wc:3|cs:8837|v=4,False,Gopipura,Surat,"12/1339, Mughal Mahal Basement , Behind SMC, Turkiwad Turkiwad, Gopipura, Surat - 395003, Dist.Surat, Gujarat",8047668591,
"Metal Baby Stroller Pram, 4 Pair",https://www.indiamart.com/proddetail/baby-stroller-pram-22675998833.html?pos=116&kwd=baby jogging stroller&tags=||||8752.144|Price|product|||NA|rsf:gd-|-stype:attr=1|qr_nm:gd|res:RC3|com-cf:nl|ptrs:na|ktp:N0|mc:22719|mtp:S|qry_typ:P|lang:en|wc:3|cs:8837|v=4,Suash Traders,https://www.indiamart.com/suashtraders/?pos=116&kwd=baby jogging stroller&tags=||||8752.144|Price|product|||NA|rsf:gd-|-stype:attr=1|qr_nm:gd|res:RC3|com-cf:nl|ptrs:na|ktp:N0|mc:22719|mtp:S|qry_typ:P|lang:en|wc:3|cs:8837|v=4,False,Mandawali,New Delhi,"House No 191 A, USB Mandawali, Mandawali, New Delhi - 110092, Dist.Delhi, Delhi",8047640516,
Baby Stroller Pram,,Narang Tradex,https://www.indiamart.com/narang-tradex/?pos=117&kwd=baby jogging stroller&tags=||||8752.144|Price|product|||NA|rsf:gd-|-stype:attr=1|qr_nm:gd|res:RC3|com-cf:nl|ptrs:na|ktp:N0|mc:22719|mtp:S|qry_typ:P|lang:en|wc:3|cs:8837|v=4,False,New Delhi,New Delhi,"For B47 Bda Market Jahangirpuri, New Delhi, New Delhi - 110033, Dist.Delhi, Delhi",8048247129,2854
"Iron Baby Stroller Pram, 4",https://www.indiamart.com/proddetail/baby-stroller-pram-2851973511812.html?pos=118&kwd=baby jogging stroller&tags=||||9839.57|Price|product|||NA|rsf:gd-|-stype:attr=1|qr_nm:gd|res:RC3|com-cf:nl|ptrs:na|ktp:N0|mc:22719|mtp:S|qry_typ:P|lang:en|wc:3|cs:8837|v=4,Winner Enterprise,https://www.indiamart.com/winnerenterprise-kolkata/?pos=118&kwd=baby jogging stroller&tags=||||9839.57|Price|product|||NA|rsf:gd-|-stype:attr=1|qr_nm:gd|res:RC3|com-cf:nl|ptrs:na|ktp:N0|mc:22719|mtp:S|qry_typ:P|lang:en|wc:3|cs:8837|v=4,False,Building,Kolkata,"44, Gandhi Building, 44 Ezra Street, Building, Kolkata - 700001, Dist.Kolkata, West Bengal",8047696249,
Luvlap Sports Baby Stroller,https://www.indiamart.com/proddetail/luvlap-sports-baby-stroller-9442392191.html?pos=119&kwd=baby jogging stroller&tags=||||8752.144|Price|product|||NA|rsf:gd-|-stype:attr=1|qr_nm:gd|res:RC3|com-cf:nl|ptrs:na|ktp:N0|mc:22719|mtp:S|qry_typ:P|lang:en|wc:3|cs:8837|v=4,Meco Industries ( India ),https://www.indiamart.com/mecoindustries/?pos=119&kwd=baby jogging stroller&tags=||||8752.144|Price|product|||NA|rsf:gd-|-stype:attr=1|qr_nm:gd|res:RC3|com-cf:nl|ptrs:na|ktp:N0|mc:22719|mtp:S|qry_typ:P|lang:en|wc:3|cs:8837|v=4,False,Uttam Nagar,New Delhi,"No. 3- A, Vikas Vihar, Vikas Nagar,, Uttam Nagar, New Delhi - 110059, Dist.Delhi, Delhi",7942614605,
Baby Stroller (Retro Series),https://www.indiamart.com/proddetail/baby-stroller-retro-series-3621578873.html?pos=120&kwd=baby jogging stroller&tags=||||8954.051||product|||NA|rsf:gd-|-stype:attr=1|qr_nm:gd|res:RC3|com-cf:nl|ptrs:na|ktp:N0|mc:22719|mtp:S|qry_typ:P|lang:en|wc:3|cs:8837|v=4,Kids World,https://www.indiamart.com/kids-world-chennai/?pos=120&kwd=baby jogging stroller&tags=||||8954.051||product|||NA|rsf:gd-|-stype:attr=1|qr_nm:gd|res:RC3|com-cf:nl|ptrs:na|ktp:N0|mc:22719|mtp:S|qry_typ:P|lang:en|wc:3|cs:8837|v=4,False,Choolai,Chennai,"Plot No.8, Nehru Timber Market, New No.41,, Old No.14,1st Floor, Sattanna Naicken Street, Choolai, Choolai, Chennai - 600112, Dist.Chennai, Tamil Nadu",8047793260,
Baby Stroller Britax Holiday,https://www.indiamart.com/proddetail/baby-stroller-britax-holiday-19458149297.html?pos=121&kwd=baby jogging stroller&tags=||||8211.142|Price|product|||NA|rsf:gd-|-stype:attr=1|qr_nm:gd|res:RC3|com-cf:nl|ptrs:na|ktp:N0|mc:22719|mtp:S|qry_typ:P|lang:en|wc:3|cs:8837|v=4,Resper International (India) Private Limited,https://www.indiamart.com/reltrix-fincorp/?pos=121&kwd=baby jogging stroller&tags=||||8211.142|Price|product|||NA|rsf:gd-|-stype:attr=1|qr_nm:gd|res:RC3|com-cf:nl|ptrs:na|ktp:N0|mc:22719|mtp:S|qry_typ:P|lang:en|wc:3|cs:8837|v=4,False,Dharavi,Mumbai,"144, Ashok Mill Compound Sion Bandra Link Road, Dharavi, Mumbai - 400017, Dist.Mumbai, Maharashtra",8048371522,634
"SS Baby Stroller Travel System, 4 Wheel",https://www.indiamart.com/proddetail/baby-stroller-travel-system-23952076348.html?pos=122&kwd=baby jogging stroller&tags=||||8752.144|Price|product|||NA|rsf:gd-|-stype:attr=1|qr_nm:gd|res:RC3|com-cf:nl|ptrs:na|ktp:N0|mc:22719|mtp:S|qry_typ:P|lang:en|wc:3|cs:8837|v=4,Shaurya Love,https://www.indiamart.com/shauryalove/?pos=122&kwd=baby jogging stroller&tags=||||8752.144|Price|product|||NA|rsf:gd-|-stype:attr=1|qr_nm:gd|res:RC3|com-cf:nl|ptrs:na|ktp:N0|mc:22719|mtp:S|qry_typ:P|lang:en|wc:3|cs:8837|v=4,False,Shahdara,New Delhi,"I-36/10, Gali No-10, Brahampuri,, Shahdara, New Delhi - 110053, Dist.Delhi, Delhi",8047784989,
"Baby Prams And Stroller, 8 Wheels, Ace",https://www.indiamart.com/proddetail/baby-prams-and-stroller-23513117555.html?pos=123&kwd=baby jogging stroller&tags=||||8752.144|Price|product|||NA|rsf:gd-|-stype:attr=1|qr_nm:gd|res:RC3|com-cf:nl|ptrs:na|ktp:N0|mc:22719|mtp:S|qry_typ:P|lang:en|wc:3|cs:8837|v=4,Citizen Baby Products,https://www.indiamart.com/citizen-baby-products-delhi/?pos=123&kwd=baby jogging stroller&tags=||||8752.144|Price|product|||NA|rsf:gd-|-stype:attr=1|qr_nm:gd|res:RC3|com-cf:nl|ptrs:na|ktp:N0|mc:22719|mtp:S|qry_typ:P|lang:en|wc:3|cs:8837|v=4,False,,New Delhi,"Door No 87-a, Jhandewalan Extension, New Delhi - 110055, Dist.Delhi, Delhi",8045849770,392
Baby Travel Chair Stroller,,Babies Plus Point,https://www.indiamart.com/pluspoint/?pos=124&kwd=baby jogging stroller&tags=||||8229.666|Price|product|||NA|rsf:gd-|-stype:attr=1|qr_nm:gd|res:RC3|com-cf:nl|ptrs:na|ktp:N0|mc:22719|mtp:S|qry_typ:P|lang:en|wc:3|cs:8837|v=4,False,Chala Daman Road,Vapi,"No. 106, Royal Dreams, Chala, Daman Road, Chala Daman Road, Vapi - 396191, Dist.Valsad, Gujarat",7942640924,
"Aluminium Sunbaby Angel Baby Stroller/pram, 8",https://www.indiamart.com/proddetail/sunbaby-angel-baby-stroller-pram-24760666762.html?pos=125&kwd=baby jogging stroller&tags=||||8752.144|Price|product|||NA|rsf:gd-|-stype:attr=1|qr_nm:gd|res:RC3|com-cf:nl|ptrs:na|ktp:N0|mc:22719|mtp:S|qry_typ:P|lang:en|wc:3|cs:8837|v=4,Krona Liquatec Ltd.,https://www.indiamart.com/kronaliquatec/?pos=125&kwd=baby jogging stroller&tags=||||8752.144|Price|product|||NA|rsf:gd-|-stype:attr=1|qr_nm:gd|res:RC3|com-cf:nl|ptrs:na|ktp:N0|mc:22719|mtp:S|qry_typ:P|lang:en|wc:3|cs:8837|v=4,False,,New Delhi,"B Ii/96, M.C.I.E, Badarpur, South Delhi, New Delhi - 110044, Dist.Delhi, Delhi",8047303429,
"2 Feet Morisons Active Baby Stroller, 4",https://www.indiamart.com/proddetail/morisons-active-baby-stroller-17917601130.html?pos=126&kwd=baby jogging stroller&tags=||||8706.587|Price|product|||NA|rsf:gd-|-stype:attr=1|qr_nm:gd|res:RC3|com-cf:nl|ptrs:na|ktp:N0|mc:22719|mtp:S|qry_typ:P|lang:en|wc:3|cs:8837|v=4,Genesio Agency,https://www.indiamart.com/genesioagency/?pos=126&kwd=baby jogging stroller&tags=||||8706.587|Price|product|||NA|rsf:gd-|-stype:attr=1|qr_nm:gd|res:RC3|com-cf:nl|ptrs:na|ktp:N0|mc:22719|mtp:S|qry_typ:P|lang:en|wc:3|cs:8837|v=4,False,Vilangudi,Madurai,"21, 2nd Street, Old Villangudi, Vilangudi, Madurai - 625018, Dist.Madurai, Tamil Nadu",8046063350,
"Wooden Baby Stroller Pram, 4 Wheel",https://www.indiamart.com/proddetail/wooden-baby-stroller-pram-23030555062.html?pos=127&kwd=baby jogging stroller&tags=||||8319.425|Price|product|||NA|rsf:gd-|-stype:attr=1|qr_nm:gd|res:RC3|com-cf:nl|ptrs:na|ktp:N0|mc:22719|mtp:S|qry_typ:P|lang:en|wc:3|cs:8837|v=4,Opulent Interiors,https://www.indiamart.com/opulent-interiors/?pos=127&kwd=baby jogging stroller&tags=||||8319.425|Price|product|||NA|rsf:gd-|-stype:attr=1|qr_nm:gd|res:RC3|com-cf:nl|ptrs:na|ktp:N0|mc:22719|mtp:S|qry_typ:P|lang:en|wc:3|cs:8837|v=4,False,,Jodhpur,"518-A,NEAR CHILDREN PARK, 8TH B ROAD SARDARPURA,JODHPUR 518 A, Near Children Park, 8th B Road,342001,Jodhpur, Jodhpur - 342003, Dist.Jodhpur, Rajasthan",8043884462,
Kids Strollers,,Toy Rentals,https://www.indiamart.com/company/197728712/?pos=128&kwd=baby jogging stroller&tags=||||8876.815||product|||NA|rsf:gd-|-stype:attr=1|qr_nm:gd|res:RC3|com-cf:nl|ptrs:na|ktp:N0|mc:22719|mtp:S|qry_typ:P|lang:en|wc:3|cs:8837|v=4,False,nagpur,Nagpur,"3 Hindustan colony wardha road Nagpur plot no.01 opp Arya cars great naag road Nagpur, nagpur, Nagpur - 440010, Dist.Nagpur, Maharashtra",7949084764,
Blue And Grey 3 Ft Kids Stroller Travel System,https://www.indiamart.com/proddetail/kids-stroller-travel-system-2853396730291.html?pos=129&kwd=baby jogging stroller&tags=||||8228.275|Price|product|||NA|rsf:gd-|-stype:attr=1|qr_nm:gd|res:RC3|com-cf:nl|ptrs:na|ktp:N0|mc:22719|mtp:S|qry_typ:P|lang:en|wc:3|cs:8837|v=4,Ayub Cycle Stores,https://www.indiamart.com/ayub-cycle-stores/?pos=129&kwd=baby jogging stroller&tags=||||8228.275|Price|product|||NA|rsf:gd-|-stype:attr=1|qr_nm:gd|res:RC3|com-cf:nl|ptrs:na|ktp:N0|mc:22719|mtp:S|qry_typ:P|lang:en|wc:3|cs:8837|v=4,False,Daskroi,Ahmedabad,"1, Oppo Prakas Highschool, S T Bus Stand Road, Bareja, Daskroi, Ahmedabad - 382425, Dist.Ahmedabad, Gujarat",7949227132,
"Polyester,Metal Mee Mee Baby Stroller Blue, Grey",https://www.indiamart.com/proddetail/mee-mee-baby-stroller-blue-grey-2852151255930.html?pos=130&kwd=baby jogging stroller&tags=||||8316.457|Price|product|||NA|rsf:gd-|-stype:attr=1|qr_nm:gd|res:RC3|com-cf:nl|ptrs:na|ktp:N0|mc:22719|mtp:S|qry_typ:P|lang:en|wc:3|cs:8837|v=4,Kihama Toys LLP,https://www.indiamart.com/kihamatoys/?pos=130&kwd=baby jogging stroller&tags=||||8316.457|Price|product|||NA|rsf:gd-|-stype:attr=1|qr_nm:gd|res:RC3|com-cf:nl|ptrs:na|ktp:N0|mc:22719|mtp:S|qry_typ:P|lang:en|wc:3|cs:8837|v=4,False,Gangapur Road,Nashik,"A Wing, Office No 1A, Rushiraj Riviers, Gangapur Road, Near Bhonsla Military School, Gangapur Road, Nashik - 422013, Dist.Nashik, Maharashtra",7942837923,
"1000 Cm Fabric Sugar Pop Baby Stroller, Four",https://www.indiamart.com/proddetail/sugar-pop-baby-stroller-2851952559633.html?pos=131&kwd=baby jogging stroller&tags=||||8752.144|Price|product|||NA|rsf:gd-|-stype:attr=1|qr_nm:gd|res:RC3|com-cf:nl|ptrs:na|ktp:N0|mc:22719|mtp:S|qry_typ:P|lang:en|wc:3|cs:8837|v=4,Pram Hut,https://www.indiamart.com/pram-hutdelhi/?pos=131&kwd=baby jogging stroller&tags=||||8752.144|Price|product|||NA|rsf:gd-|-stype:attr=1|qr_nm:gd|res:RC3|com-cf:nl|ptrs:na|ktp:N0|mc:22719|mtp:S|qry_typ:P|lang:en|wc:3|cs:8837|v=4,False,,New Delhi,"SHOP NO.- 156,ANARKALI COMPLEX,ANARKALI COMPLEX,New Delhi LOWER GROUND FLOOR, SHOP NO.- 156, ANARKALI COMPLEX, ANARKALI COMPLEX, JHANDEWALAN, New Delhi, Cent, New Delhi - 110055, Dist.Delhi, Delhi",7942701586,
"Baby Stroller Travel System, Age Group: Newly Born",,New Payal Gift House,https://www.indiamart.com/new-payal-gift-house/?pos=132&kwd=baby jogging stroller&tags=||||8661.854|Price|product|||NA|rsf:gd-|-stype:attr=1|qr_nm:gd|res:RC3|com-cf:nl|ptrs:na|ktp:N0|mc:22719|mtp:S|qry_typ:P|lang:en|wc:3|cs:8837|v=4,False,,Ludhiana,"KHALSA NATIONAL SCHOOL MKT,,,SHAHPUR ROAD,LUDHIAN 132-AB, Shahpur Road,141008,Ludhiana, Ludhiana - 141005, Dist.Ludhiana, Punjab",8048264926,
"Stylish Baby Stroller Travel System, 1",https://www.indiamart.com/proddetail/stylish-baby-stroller-travel-system-2852128779548.html?pos=133&kwd=baby jogging stroller&tags=||||9618.383|Price|product|||NA|rsf:gd-|-stype:attr=1|qr_nm:gd|res:RC3|com-cf:nl|ptrs:na|ktp:N0|mc:22719|mtp:S|qry_typ:P|lang:en|wc:3|cs:8837|v=4,Roy Interprises,https://www.indiamart.com/roy-interprises/?pos=133&kwd=baby jogging stroller&tags=||||9618.383|Price|product|||NA|rsf:gd-|-stype:attr=1|qr_nm:gd|res:RC3|com-cf:nl|ptrs:na|ktp:N0|mc:22719|mtp:S|qry_typ:P|lang:en|wc:3|cs:8837|v=4,False,,Jamshedpur,", Jamshedpur - 831002, Dist.East Singhbhum, Jharkhand",8069017451,799
"112 cm Lightweight Aluminium,Plastic LuvLap Optima Baby Stroller Travel System, 4",https://www.indiamart.com/proddetail/luvlap-optima-baby-stroller-travel-system-24245296755.html?pos=134&kwd=baby jogging stroller&tags=||||8740.707|Price|product|||NA|rsf:gd-|-stype:attr=1|qr_nm:gd|res:RC3|com-cf:nl|ptrs:na|ktp:N0|mc:22719|mtp:S|qry_typ:P|lang:en|wc:3|cs:8837|v=4,Atharva Enterprises,https://www.indiamart.com/atharvaenterprises-zirakpur/?pos=134&kwd=baby jogging stroller&tags=||||8740.707|Price|product|||NA|rsf:gd-|-stype:attr=1|qr_nm:gd|res:RC3|com-cf:nl|ptrs:na|ktp:N0|mc:22719|mtp:S|qry_typ:P|lang:en|wc:3|cs:8837|v=4,False,SAS Nagar,Sas Nagar,"Shop No. 7, Near Community Centre, Luxmi Enclave, Dhakoli, SAS Nagar, Sas Nagar - 140603, Dist.Mohali, Punjab",7942538452,
1st Step Baby Strollers Orange,https://www.indiamart.com/proddetail/1st-step-baby-strollers-orange-3837312388.html?pos=135&kwd=baby jogging stroller&tags=||||8230.883||product|||NA|rsf:gd-|-stype:attr=1|qr_nm:gd|res:RC3|com-cf:nl|ptrs:na|ktp:N0|mc:22719|mtp:S|qry_typ:P|lang:en|wc:3|cs:8837|v=4,Yapaa Dot Com,https://www.indiamart.com/yapaa-dsurat/?pos=135&kwd=baby jogging stroller&tags=||||8230.883||product|||NA|rsf:gd-|-stype:attr=1|qr_nm:gd|res:RC3|com-cf:nl|ptrs:na|ktp:N0|mc:22719|mtp:S|qry_typ:P|lang:en|wc:3|cs:8837|v=4,False,,Surat,"Ghod Dod Road, Surat - 395007, Dist.Surat, Gujarat",8047308899,7252
Pink Baby Cradle Cot Cum Stroller,https://www.indiamart.com/proddetail/baby-cradle-cot-cum-stroller-20686404312.html?pos=136&kwd=baby jogging stroller&tags=||||8752.144|Price|product|||NA|rsf:gd-|-stype:attr=1|qr_nm:gd|res:RC3|com-cf:nl|ptrs:na|ktp:N0|mc:22719|mtp:S|qry_typ:P|lang:en|wc:3|cs:8837|v=4,Bajrang Trading Co.,https://www.indiamart.com/bajrang-tradingcompany/?pos=136&kwd=baby jogging stroller&tags=||||8752.144|Price|product|||NA|rsf:gd-|-stype:attr=1|qr_nm:gd|res:RC3|com-cf:nl|ptrs:na|ktp:N0|mc:22719|mtp:S|qry_typ:P|lang:en|wc:3|cs:8837|v=4,False,Bawana,New Delhi,"57-A,SOUTH ANARKALI EXTN,,DELHI Plot No. 254, 1st Floor, Pocket D, Sector 3,110039,Delhi, Bawana, New Delhi - 110051, Dist.Delhi, Delhi",8048372778,933
4 Feet Plastic Stroller Baby Prams,https://www.indiamart.com/proddetail/4-feet-plastic-stroller-baby-prams-2853045896691.html?pos=137&kwd=baby jogging stroller&tags=||||8752.144|Price|product|||NA|rsf:gd-|-stype:attr=1|qr_nm:gd|res:RC3|com-cf:nl|ptrs:na|ktp:N0|mc:22719|mtp:S|qry_typ:P|lang:en|wc:3|cs:8837|v=4,Lavith Enterprises,https://www.indiamart.com/lavith-enterprises-newdelhi/?pos=137&kwd=baby jogging stroller&tags=||||8752.144|Price|product|||NA|rsf:gd-|-stype:attr=1|qr_nm:gd|res:RC3|com-cf:nl|ptrs:na|ktp:N0|mc:22719|mtp:S|qry_typ:P|lang:en|wc:3|cs:8837|v=4,False,Sadar Bazaar,New Delhi,"4th, House No 503, Ward No-5, Mehrauli, Sadar Bazaar, New Delhi - 110030, Dist.Delhi, Delhi",7942962695,
Stroller Cum Swing for Newborn Baby,https://www.indiamart.com/proddetail/stroller-cum-swing-for-newborn-baby-23294571073.html?pos=138&kwd=baby jogging stroller&tags=||||8752.144||product|||NA|rsf:gd-|-stype:attr=1|qr_nm:gd|res:RC3|com-cf:nl|ptrs:na|ktp:N0|mc:22719|mtp:S|qry_typ:P|lang:en|wc:3|cs:8837|v=4,DM Exclusive,https://www.indiamart.com/dms-exclusive/?pos=138&kwd=baby jogging stroller&tags=||||8752.144||product|||NA|rsf:gd-|-stype:attr=1|qr_nm:gd|res:RC3|com-cf:nl|ptrs:na|ktp:N0|mc:22719|mtp:S|qry_typ:P|lang:en|wc:3|cs:8837|v=4,False,,New Delhi,"1st Floor O-109 Sector-2, New Delhi - 110039, Dist.Delhi, Delhi",7942622411,
"2 Feet Linen Dotmom Uber Flyer Stroller Baby Walkers, 4 Wheels",https://www.indiamart.com/proddetail/dotmom-uber-flyer-stroller-baby-walkers-23486949288.html?pos=139&kwd=baby jogging stroller&tags=||||8741.812|Price|product|||NA|rsf:gd-|-stype:attr=1|qr_nm:gd|res:RC3|com-cf:nl|ptrs:na|ktp:N0|mc:22719|mtp:S|qry_typ:P|lang:en|wc:3|cs:8837|v=4,Keta Anjani Impex,https://www.indiamart.com/ketaanjaniimpex/?pos=139&kwd=baby jogging stroller&tags=||||8741.812|Price|product|||NA|rsf:gd-|-stype:attr=1|qr_nm:gd|res:RC3|com-cf:nl|ptrs:na|ktp:N0|mc:22719|mtp:S|qry_typ:P|lang:en|wc:3|cs:8837|v=4,False,Sector 90,Gurugram,"SF-221, 2nd Floor, IT Complex JMD Megapolis, Village Tikri, Sohna Road, Sector 90, Gurugram - 122001, Dist.Gurgaon, Haryana",8046063344,
Doona Plus 4 In 1 Baby Stroller,,Roserve Enviro Private Limited,https://www.indiamart.com/company/227729369/?pos=140&kwd=baby jogging stroller&tags=||||8752.144||product|||NA|rsf:gd-|-stype:attr=1|qr_nm:gd|res:RC3|com-cf:nl|ptrs:na|ktp:N0|mc:22719|mtp:S|qry_typ:P|lang:en|wc:3|cs:8837|v=4,False,,New Delhi,"Bl-28 Shalimar Bagh, New Delhi - 110088, Dist.Delhi, Delhi",8048249710,1112
Stokke Xplory V5 Complete Set Baby Stroller,https://www.indiamart.com/proddetail/stokke-xplory-v5-complete-set-baby-stroller-2853116572948.html?pos=141&kwd=baby jogging stroller&tags=||||8752.144|Price|product|||NA|rsf:gd-|-stype:attr=1|qr_nm:gd|res:RC3|com-cf:nl|ptrs:na|ktp:N0|mc:22719|mtp:S|qry_typ:P|lang:en|wc:3|cs:8837|v=4,Haixin Group Store,https://www.indiamart.com/haixin-group-store/?pos=141&kwd=baby jogging stroller&tags=||||8752.144|Price|product|||NA|rsf:gd-|-stype:attr=1|qr_nm:gd|res:RC3|com-cf:nl|ptrs:na|ktp:N0|mc:22719|mtp:S|qry_typ:P|lang:en|wc:3|cs:8837|v=4,False,,New Delhi,"645, New Delhi - 110020, Dist.Delhi, Delhi",8045849723,590
KITI KITS Baby Stroller For Doll Set,https://www.indiamart.com/proddetail/kiti-kits-baby-stroller-for-doll-set-2853055297191.html?pos=142&kwd=baby jogging stroller&tags=||||8211.142|Price|product|||NA|rsf:gd-|-stype:attr=1|qr_nm:gd|res:RC3|com-cf:nl|ptrs:na|ktp:N0|mc:22719|mtp:S|qry_typ:P|lang:en|wc:3|cs:8837|v=4,NVJ Enterprise,https://www.indiamart.com/nvj-enteprise/?pos=142&kwd=baby jogging stroller&tags=||||8211.142|Price|product|||NA|rsf:gd-|-stype:attr=1|qr_nm:gd|res:RC3|com-cf:nl|ptrs:na|ktp:N0|mc:22719|mtp:S|qry_typ:P|lang:en|wc:3|cs:8837|v=4,False,Near Dada Dadi Garden,Mumbai,"A/303 Abhimanyu Apt, Datta Mandir Road, Malad- East, Near Dada Dadi Garden, Mumbai - 400097, Dist.Mumbai, Maharashtra",8047846703,
Male baby stroller 3 in 1 newborn infant folding baby pram,https://www.indiamart.com/proddetail/baby-stroller-3-in-1-newborn-infant-folding-baby-pram-20977707397.html?pos=143&kwd=baby jogging stroller&tags=||||8509.724|Price|product|||NA|rsf:gd-|-stype:attr=1|qr_nm:gd|res:RC3|com-cf:nl|ptrs:na|ktp:N0|mc:22719|mtp:S|qry_typ:P|lang:en|wc:3|cs:8837|v=4,Bebe Moma,https://www.indiamart.com/bebe-moma/?pos=143&kwd=baby jogging stroller&tags=||||8509.724|Price|product|||NA|rsf:gd-|-stype:attr=1|qr_nm:gd|res:RC3|com-cf:nl|ptrs:na|ktp:N0|mc:22719|mtp:S|qry_typ:P|lang:en|wc:3|cs:8837|v=4,False,Vellakkinar,Alappuzha,", Vellakkinar, Alappuzha, Dist.Alappuzha, Kerala",8045849754,228
R For Rabbit Street Smart Nova Super Comfy Travel Friendly Kids Stroller,https://www.indiamart.com/proddetail/r-for-rabbit-street-smart-nova-super-comfy-travel-friendly-kids-stroller-2854878018262.html?pos=144&kwd=baby jogging stroller&tags=||||8752.144|Price|product|||NA|rsf:gd-|-stype:attr=1|qr_nm:gd|res:RC3|com-cf:nl|ptrs:na|ktp:N0|mc:22719|mtp:S|qry_typ:P|lang:en|wc:3|cs:8837|v=4,BD Impex,https://www.indiamart.com/company/2395482/?pos=144&kwd=baby jogging stroller&tags=||||8752.144|Price|product|||NA|rsf:gd-|-stype:attr=1|qr_nm:gd|res:RC3|com-cf:nl|ptrs:na|ktp:N0|mc:22719|mtp:S|qry_typ:P|lang:en|wc:3|cs:8837|v=4,False,,New Delhi,"The Moms Darling - Baby Shop 163, Kapil Vihar, Pitampura, New Delhi - 110034, Dist.Delhi, Delhi",,
R for Rabbit Ginny and Johnny Baby Stroller,https://www.indiamart.com/proddetail/r-for-rabbit-ginny-and-johnny-baby-stroller-2851751640255.html?pos=145&kwd=baby jogging stroller&tags=||||8612.732|Price|product|||NA|rsf:gd-|-stype:attr=1|qr_nm:gd|res:RC3|com-cf:nl|ptrs:na|ktp:N0|mc:22719|mtp:S|qry_typ:P|lang:en|wc:3|cs:8837|v=4,Swift Healthcare & Hygiene Private Limited,https://www.indiamart.com/swift-healthcare-hygiene-private-limited-srinagar/?pos=145&kwd=baby jogging stroller&tags=||||8612.732|Price|product|||NA|rsf:gd-|-stype:attr=1|qr_nm:gd|res:RC3|com-cf:nl|ptrs:na|ktp:N0|mc:22719|mtp:S|qry_typ:P|lang:en|wc:3|cs:8837|v=4,False,Pampore,Srinagar,"1 1 Shiraz Road Srinagar Srinagar, Pampore, Srinagar - 190003, Dist.Srinagar, Jammu & Kashmir",,
Notty Ride Three Wheel Light Weight Baby Stroller (Blue),https://www.indiamart.com/proddetail/notty-ride-three-wheel-light-weight-baby-stroller-blue-10987807862.html?pos=146&kwd=baby jogging stroller&tags=||||9839.57||product|||NA|rsf:gd-|-stype:attr=1|qr_nm:gd|res:RC3|com-cf:nl|ptrs:na|ktp:N0|mc:22719|mtp:S|qry_typ:P|lang:en|wc:3|cs:8837|v=4,Headway Inc,https://www.indiamart.com/headway-inc/?pos=146&kwd=baby jogging stroller&tags=||||9839.57||product|||NA|rsf:gd-|-stype:attr=1|qr_nm:gd|res:RC3|com-cf:nl|ptrs:na|ktp:N0|mc:22719|mtp:S|qry_typ:P|lang:en|wc:3|cs:8837|v=4,False,,Kolkata,"No. 55, Ezra Street, 1st Floor, Kolkata - 700001, Dist.Kolkata, West Bengal",8047843118,
Luv Lap Sunshine Baby Buggy Stroller - Red BL-07,https://www.indiamart.com/proddetail/luv-lap-sunshine-baby-buggy-stroller-red-bl-07-20517237188.html?pos=147&kwd=baby jogging stroller&tags=||||8954.051||product|||NA|rsf:gd-|-stype:attr=1|qr_nm:gd|res:RC3|com-cf:nl|ptrs:na|ktp:N0|mc:22719|mtp:S|qry_typ:P|lang:en|wc:3|cs:8837|v=4,Babylou,https://www.indiamart.com/baby-lou/?pos=147&kwd=baby jogging stroller&tags=||||8954.051||product|||NA|rsf:gd-|-stype:attr=1|qr_nm:gd|res:RC3|com-cf:nl|ptrs:na|ktp:N0|mc:22719|mtp:S|qry_typ:P|lang:en|wc:3|cs:8837|v=4,False,Mylapore,Chennai,"114 Luz Church Road Near Alwarpet Anjaneyar Temple, Mylapore, Chennai - 600004, Dist.Chennai, Tamil Nadu",8043800763,
"StarAndDaisy Sunrise Baby Stroller and Pram with Extended Mosquito Net, 4",https://www.indiamart.com/proddetail/staranddaisy-sunrise-baby-stroller-and-pram-with-extended-mosquito-net-2852621846448.html?pos=148&kwd=baby jogging stroller&tags=||||8752.144|Price|product|||NA|rsf:gd-|-stype:attr=1|qr_nm:gd|res:RC3|com-cf:nl|ptrs:na|ktp:N0|mc:22719|mtp:S|qry_typ:P|lang:en|wc:3|cs:8837|v=4,Sharma Enterprises,https://www.indiamart.com/sharmaenterprises-41638746/?pos=148&kwd=baby jogging stroller&tags=||||8752.144|Price|product|||NA|rsf:gd-|-stype:attr=1|qr_nm:gd|res:RC3|com-cf:nl|ptrs:na|ktp:N0|mc:22719|mtp:S|qry_typ:P|lang:en|wc:3|cs:8837|v=4,False,,New Delhi,"Wz-502 Shakur Basti Sri Nagar North West, New Delhi - 110034, Dist.Delhi, Delhi",8047308668,3332
"Wiggle Lightweight Easy Fold Baby Stroller for Travel, Large Storage Basket (Grey)",https://www.indiamart.com/proddetail/wiggle-lightweight-easy-fold-baby-stroller-for-travel-large-storage-basket-grey-2852549652012.html?pos=149&kwd=baby jogging stroller&tags=||||8211.142|Price|product|||NA|rsf:gd-|-stype:attr=1|qr_nm:gd|res:RC3|com-cf:nl|ptrs:na|ktp:N0|mc:22719|mtp:S|qry_typ:P|lang:en|wc:3|cs:8837|v=4,Istuff365,https://www.indiamart.com/istuff/?pos=149&kwd=baby jogging stroller&tags=||||8211.142|Price|product|||NA|rsf:gd-|-stype:attr=1|qr_nm:gd|res:RC3|com-cf:nl|ptrs:na|ktp:N0|mc:22719|mtp:S|qry_typ:P|lang:en|wc:3|cs:8837|v=4,False,Charni Road East,Mumbai,"Office No. 2B, First Floor, Unity House Near Royal Opera House, Charni Road East, Mumbai - 400004, Dist.Mumbai, Maharashtra",7942711049,
Maxbell Cute Spiral Activity Stroller Car Seat Cot Lathe Hanging Bell Baby Play Travel Toys Newborn Baby Rattles Infant Soft Plush Toys Yellow Mouth Deer,https://www.indiamart.com/proddetail/maxbell-cute-spiral-activity-stroller-car-seat-cot-lathe-hanging-bell-baby-play-travel-toys-newborn-baby-rattles-infant-soft-plush-toys-yellow-mouth-deer-2851588606530.html?pos=150&kwd=baby jogging stroller&tags=||||8752.144|Price|product|||FCPE|rsf:gd-|-stype:attr=1|qr_nm:gd|res:RC3|com-cf:nl|ptrs:na|ktp:N0|mc:22719|mtp:S|qry_typ:P|lang:en|wc:3|cs:8837|v=4,Aladdin Shoppers,https://www.indiamart.com/aladdin-shoppers/?pos=150&kwd=baby jogging stroller&tags=||||8752.144|Price|product|||FCPE|rsf:gd-|-stype:attr=1|qr_nm:gd|res:RC3|com-cf:nl|ptrs:na|ktp:N0|mc:22719|mtp:S|qry_typ:P|lang:en|wc:3|cs:8837|v=4,False,,New Delhi,"1/5496-B, Gali No. 16, Balbir Nagar Extn, Shahdara, East Delhi, New Delhi - 110032, Dist.Delhi, Delhi",,
Baby Products Cradle,https://www.indiamart.com/proddetail/baby-products-cradle-9096939397.html?pos=151&kwd=baby jogging stroller&tags=||||8771.463||product|||NA|rsf:gd-|-stype:attr=1|qr_nm:gd|res:RC3|com-cf:nl|ptrs:na|ktp:N0|mc:22719|mtp:S|qry_typ:P|lang:en|wc:3|cs:8837|v=4,Limitless Trading Pvt. Ltd.,https://www.indiamart.com/limitlesstrading/?pos=151&kwd=baby jogging stroller&tags=||||8771.463||product|||NA|rsf:gd-|-stype:attr=1|qr_nm:gd|res:RC3|com-cf:nl|ptrs:na|ktp:N0|mc:22719|mtp:S|qry_typ:P|lang:en|wc:3|cs:8837|v=4,False,,Mandi,"Near Post Office, Nerchowk, Mandi - 175008, Dist.Mandi, Himachal Pradesh",8048371958,650
Sunbaby Trendy Baby Buggy,https://www.indiamart.com/proddetail/sunbaby-trendy-baby-buggy-6617481712.html?pos=152&kwd=baby jogging stroller&tags=||||8228.275||product|||NA|rsf:gd-|-stype:attr=1|qr_nm:gd|res:RC3|com-cf:nl|ptrs:na|ktp:N0|mc:22719|mtp:S|qry_typ:P|lang:en|wc:3|cs:8837|v=4,Nikiz Dot Com,https://www.indiamart.com/nikiz-ahmedabad/?pos=152&kwd=baby jogging stroller&tags=||||8228.275||product|||NA|rsf:gd-|-stype:attr=1|qr_nm:gd|res:RC3|com-cf:nl|ptrs:na|ktp:N0|mc:22719|mtp:S|qry_typ:P|lang:en|wc:3|cs:8837|v=4,False,Navrangpura,Ahmedabad,"Webtech System, No. 203, Kashiparekh Complex, Opposite City Centre, Swastik Cross Roads, Navrangpura, Navrangpura, Ahmedabad - 380009, Dist.Ahmedabad, Gujarat",8045849605,562
Tri Wheel Scooty For Kids With Bell,https://www.indiamart.com/proddetail/tri-wheel-scooty-for-kids-with-bell-8473170433.html?pos=153&kwd=baby jogging stroller&tags=||||8307.81||product|||NA|rsf:gd-|-stype:attr=1|qr_nm:gd|res:RC3|com-cf:nl|ptrs:na|ktp:N0|mc:22719|mtp:S|qry_typ:P|lang:en|wc:3|cs:8837|v=4,Gifts And Arts,https://www.indiamart.com/gifts-and-arts/?pos=153&kwd=baby jogging stroller&tags=||||8307.81||product|||NA|rsf:gd-|-stype:attr=1|qr_nm:gd|res:RC3|com-cf:nl|ptrs:na|ktp:N0|mc:22719|mtp:S|qry_typ:P|lang:en|wc:3|cs:8837|v=4,False,Chinchwad,Pune,"Sai Arcade, MIDC, Chinchwad, Chinchwad, Pune - 411019, Dist.Pune, Maharashtra",8069728254,183
Multicolor Baby Prams,https://www.indiamart.com/proddetail/baby-prams-19570603988.html?pos=154&kwd=baby jogging stroller&tags=||||8752.144||product|||NA|rsf:gd-|-stype:attr=1|qr_nm:gd|res:RC3|com-cf:nl|ptrs:na|ktp:N0|mc:22719|mtp:S|qry_typ:P|lang:en|wc:3|cs:8837|v=4,Harish Kumar And Sons,https://www.indiamart.com/jai-jhulelal/?pos=154&kwd=baby jogging stroller&tags=||||8752.144||product|||NA|rsf:gd-|-stype:attr=1|qr_nm:gd|res:RC3|com-cf:nl|ptrs:na|ktp:N0|mc:22719|mtp:S|qry_typ:P|lang:en|wc:3|cs:8837|v=4,False,Bahadurgarh Road,New Delhi,"3003, 2nd Floor, Bahadurgarh Road, New Delhi - 110006, Dist.Delhi, Delhi",8048372566,408
"1.0 Leather Cruz V2 UPPAbaby Baby Strollers Extra-Large Easy-Access, 4",https://www.indiamart.com/proddetail/cruz-v2-uppababy-baby-strollers-extra-large-easy-access-2852650005091.html?pos=155&kwd=baby jogging stroller&tags=||||8592.183|Price|product|||NA|rsf:gd-|-stype:attr=1|qr_nm:gd|res:RC3|com-cf:nl|ptrs:na|ktp:N0|mc:22719|mtp:S|qry_typ:P|lang:en|wc:3|cs:8837|v=4,Rkg Global,https://www.indiamart.com/rkg-global-tumakuru/?pos=155&kwd=baby jogging stroller&tags=||||8592.183|Price|product|||NA|rsf:gd-|-stype:attr=1|qr_nm:gd|res:RC3|com-cf:nl|ptrs:na|ktp:N0|mc:22719|mtp:S|qry_typ:P|lang:en|wc:3|cs:8837|v=4,False,Niwai,Tonk,"F-86 Gali No 3 Deendayal Colony Niwai GALI NO 3 DEENDAYAL COLONY, BEHIND SBI BANK, Niwai, Tonk - 304021, Dist.Tonk, Rajasthan",8047311016,5747
Blue Child,https://www.indiamart.com/proddetail/child-blue-19790556433.html?pos=156&kwd=baby jogging stroller&tags=||||8211.142|Price|product|||NA|rsf:gd-|-stype:attr=1|qr_nm:gd|res:RC3|com-cf:nl|ptrs:na|ktp:N0|mc:22719|mtp:S|qry_typ:P|lang:en|wc:3|cs:8837|v=4,Cornealens Shapers,https://www.indiamart.com/cornealens-shapers-mumbai/?pos=156&kwd=baby jogging stroller&tags=||||8211.142|Price|product|||NA|rsf:gd-|-stype:attr=1|qr_nm:gd|res:RC3|com-cf:nl|ptrs:na|ktp:N0|mc:22719|mtp:S|qry_typ:P|lang:en|wc:3|cs:8837|v=4,False,Virar West,Mumbai,"Shree Om Green Park Apartment, Virar West, Mumbai - 401303, Dist.Mumbai, Maharashtra",8069707335,712
Gt-Mini,,Gridar Technologies,https://www.indiamart.com/gridar-technologies-chennai/?pos=157&kwd=baby jogging stroller&tags=||||8954.051|Price|product|||NA|rsf:gd-|-stype:attr=1|qr_nm:gd|res:RC3|com-cf:nl|ptrs:na|ktp:N0|mc:22719|mtp:S|qry_typ:P|lang:en|wc:3|cs:8837|v=4,False,,Chennai,"Second Floor No.22, B2 Kamadenu Nagar Elegant Square Old Perungalathur, Chennai - 600063, Dist.Chennai, Tamil Nadu",8069707307,512
Blue And Black Baby Pram,https://www.indiamart.com/proddetail/baby-pram-14928038962.html?pos=158&kwd=baby jogging stroller&tags=||||8663.873|Price|product|||NA|rsf:gd-|-stype:attr=1|qr_nm:gd|res:RC3|com-cf:nl|ptrs:na|ktp:N0|mc:22719|mtp:S|qry_typ:P|lang:en|wc:3|cs:8837|v=4,Hello Fitness,https://www.indiamart.com/hello-fitness/?pos=158&kwd=baby jogging stroller&tags=||||8663.873|Price|product|||NA|rsf:gd-|-stype:attr=1|qr_nm:gd|res:RC3|com-cf:nl|ptrs:na|ktp:N0|mc:22719|mtp:S|qry_typ:P|lang:en|wc:3|cs:8837|v=4,False,Kumaraswamy Layout,Bengaluru,"No. 1089, 42nd Cross, 1st Stage, Kumaraswamy Layout, Bengaluru - 560078, Dist.Bengaluru, Karnataka",8043803851,
Baby Prams Travel Systems,,Individual,https://www.indiamart.com/individual-141964100/?pos=159&kwd=baby jogging stroller&tags=||||8663.873||product|||NA|rsf:gd-|-stype:attr=1|qr_nm:gd|res:RC3|com-cf:nl|ptrs:na|ktp:N0|mc:22719|mtp:S|qry_typ:P|lang:en|wc:3|cs:8837|v=4,False,,Bengaluru,"#12, 1st floor, 9th Main, 4th Cross, BTM 1st stage, Near Nimhans wellbeing center,, Bengaluru - 560029, Dist.Bengaluru, Karnataka",8045849554,575
Cashless Travel System,https://www.indiamart.com/proddetail/cashless-travel-system-24055949933.html?pos=160&kwd=baby jogging stroller&tags=||||8752.144||product|||NA|rsf:gd-|-stype:attr=1|qr_nm:gd|res:RC3|com-cf:nl|ptrs:na|ktp:N0|mc:22719|mtp:S|qry_typ:P|lang:en|wc:3|cs:8837|v=4,Trimax IT Infrastructure & Services Ltd.,https://www.indiamart.com/trimax-it-infrastructure-services-limited-delhi/?pos=160&kwd=baby jogging stroller&tags=||||8752.144||product|||NA|rsf:gd-|-stype:attr=1|qr_nm:gd|res:RC3|com-cf:nl|ptrs:na|ktp:N0|mc:22719|mtp:S|qry_typ:P|lang:en|wc:3|cs:8837|v=4,False,,Delhi,"1st Floor, Santram Complex, L-3, Street No. 1, Mahipalpur Extn, Delhi - 400079, Dist.Delhi, Delhi",7942654685,
"Blue And Pink Stainless Steel Kids Pram, Age Group: 3-12 Months",https://www.indiamart.com/proddetail/kids-pram-2854324283688.html?pos=161&kwd=baby jogging stroller&tags=||||8752.144|Price|product|||NA|rsf:gd-|-stype:attr=1|qr_nm:gd|res:RC3|com-cf:nl|ptrs:na|ktp:N0|mc:22719|mtp:S|qry_typ:P|lang:en|wc:3|cs:8837|v=4,Cdl Enterprises,https://www.indiamart.com/cdl-enterprises/?pos=161&kwd=baby jogging stroller&tags=||||8752.144|Price|product|||NA|rsf:gd-|-stype:attr=1|qr_nm:gd|res:RC3|com-cf:nl|ptrs:na|ktp:N0|mc:22719|mtp:S|qry_typ:P|lang:en|wc:3|cs:8837|v=4,False,,New Delhi,"KH. No. 18/4,Plot No.D-1/15/6 - A,Mohamad Pur Mazri,New Delhi ,110081,, New Delhi - 110081, Dist.Delhi, Delhi",8048370722,6004
Sunbaby Stroller,https://www.indiamart.com/proddetail/sunbaby-stroller-25748322188.html?pos=162&kwd=baby jogging stroller&tags=||||8954.051||product|||NA|rsf:gd-|-stype:attr=1|qr_nm:gd|res:RC3|com-cf:nl|ptrs:na|ktp:N0|mc:22719|mtp:S|qry_typ:P|lang:en|wc:3|cs:8837|v=4,Babylou,https://www.indiamart.com/wwwindiamartcom-babylou-tn/?pos=162&kwd=baby jogging stroller&tags=||||8954.051||product|||NA|rsf:gd-|-stype:attr=1|qr_nm:gd|res:RC3|com-cf:nl|ptrs:na|ktp:N0|mc:22719|mtp:S|qry_typ:P|lang:en|wc:3|cs:8837|v=4,False,Alwarpet,Chennai,"Gokul Towers 7/54 CP Ramaswamy Road, Alwarpet, Chennai - 600004, Dist.Chennai, Tamil Nadu",8047654088,
Fancy Baby Walker,,Google World,https://www.indiamart.com/google-world-bargarh/?pos=163&kwd=baby jogging stroller&tags=||||9347.4||product|||NA|rsf:gd-|-stype:attr=1|qr_nm:gd|res:RC3|com-cf:nl|ptrs:na|ktp:N0|mc:22719|mtp:S|qry_typ:P|lang:en|wc:3|cs:8837|v=4,False,Bargarh,Bargarh,"Bhatli Chowk, Bargarh, Bargarh - 768028, Dist.Bargarh, Odisha",8048372931,563
The Summit,https://www.indiamart.com/proddetail/the-summit-6858033773.html?pos=164&kwd=baby jogging stroller&tags=||||8752.144||product|||NA|rsf:gd-|-stype:attr=1|qr_nm:gd|res:RC3|com-cf:nl|ptrs:na|ktp:N0|mc:22719|mtp:S|qry_typ:P|lang:en|wc:3|cs:8837|v=4,The Connaught Hotel,https://www.indiamart.com/the-connaught-hotel/?pos=164&kwd=baby jogging stroller&tags=||||8752.144||product|||NA|rsf:gd-|-stype:attr=1|qr_nm:gd|res:RC3|com-cf:nl|ptrs:na|ktp:N0|mc:22719|mtp:S|qry_typ:P|lang:en|wc:3|cs:8837|v=4,False,,Delhi,"No. 37, Shaheed Bhagat Singh Marg, Next To Shivaji Stadium, Delhi - 110001, Dist.Delhi, Delhi",8048263433,767
Baby Stroller,,Mothercare,https://www.indiamart.com/mothercare-chennai/?pos=165&kwd=baby jogging stroller&tags=||||8954.051||product|||NA|rsf:gd-|-stype:attr=1|qr_nm:gd|res:RC3|com-cf:nl|ptrs:na|ktp:N0|mc:22719|mtp:S|qry_typ:P|lang:en|wc:3|cs:8837|v=4,False,Royapettah,Chennai,"Shop No. 252 2nd Floor, Express Avenue Mall, Royapettah, Chennai - 600014, Dist.Chennai, Tamil Nadu",8048371639,665
Baby Prams,https://www.indiamart.com/proddetail/baby-prams-12898017773.html?pos=166&kwd=baby jogging stroller&tags=||||8663.873|Price|product|||NA|rsf:gd-|-stype:attr=1|qr_nm:gd|res:RC3|com-cf:nl|ptrs:na|ktp:N0|mc:22719|mtp:S|qry_typ:P|lang:en|wc:3|cs:8837|v=4,My Little Star,https://www.indiamart.com/mylittlestar/?pos=166&kwd=baby jogging stroller&tags=||||8663.873|Price|product|||NA|rsf:gd-|-stype:attr=1|qr_nm:gd|res:RC3|com-cf:nl|ptrs:na|ktp:N0|mc:22719|mtp:S|qry_typ:P|lang:en|wc:3|cs:8837|v=4,False,Yelahanka New Town,Bengaluru,"75/707, H S R Plaza, 1st Main, 2nd Cross 4th Phase, Opp. Govt. School Yelahanka New Town,, Yelahanka New Town, Bengaluru - 560064, Dist.Bengaluru, Karnataka",8043812713,
Female Baby Prams,https://www.indiamart.com/proddetail/baby-prams-14948182933.html?pos=167&kwd=baby jogging stroller&tags=||||8752.144|Price|product|||NA|rsf:gd-|-stype:attr=1|qr_nm:gd|res:RC3|com-cf:nl|ptrs:na|ktp:N0|mc:22719|mtp:S|qry_typ:P|lang:en|wc:3|cs:8837|v=4,Swati Creations,https://www.indiamart.com/swaticreations-3306165/?pos=167&kwd=baby jogging stroller&tags=||||8752.144|Price|product|||NA|rsf:gd-|-stype:attr=1|qr_nm:gd|res:RC3|com-cf:nl|ptrs:na|ktp:N0|mc:22719|mtp:S|qry_typ:P|lang:en|wc:3|cs:8837|v=4,False,Balbir Nagar,New Delhi,"No.1/5060A, Gali No.2, Shahdara, Balbir Nagar, New Delhi - 110032, Dist.Delhi, Delhi",8048372516,427
Mothercare Orb Pushchair,,Mothercare,https://www.indiamart.com/mothercare-ghaziabad/?pos=168&kwd=baby jogging stroller&tags=||||8785.791||product|||NA|rsf:gd-|-stype:attr=1|qr_nm:gd|res:RC3|com-cf:nl|ptrs:na|ktp:N0|mc:22719|mtp:S|qry_typ:P|lang:en|wc:3|cs:8837|v=4,False,,Ghaziabad,"Shop No. 5 Lower Grung Floor Shipra Mall, Ghaziabad - 201014, Dist.Ghaziabad, Uttar Pradesh",8062245991,679
Mirage Solo With Daydream,,Awky Bazar,https://www.indiamart.com/awky-bazar/?pos=169&kwd=baby jogging stroller&tags=||||8752.144||product|||NA|rsf:gd-|-stype:attr=1|qr_nm:gd|res:RC3|com-cf:nl|ptrs:na|ktp:N0|mc:22719|mtp:S|qry_typ:P|lang:en|wc:3|cs:8837|v=4,False,South West,New Delhi,"Gurgaon Road, South West, South West, New Delhi - 110037, Dist.Delhi, Delhi",8048371922,475
Baby Walker,,New Bharat Cycle Store,https://www.indiamart.com/new-bharat-cycle-store-bulandshahr/?pos=170&kwd=baby jogging stroller&tags=||||8821.238||product|||NA|rsf:gd-|-stype:attr=1|qr_nm:gd|res:RC3|com-cf:nl|ptrs:na|ktp:N0|mc:22719|mtp:S|qry_typ:P|lang:en|wc:3|cs:8837|v=4,False,,Bulandshahr,"0 Bulandshahr, Bulandshahr - 203001, Dist.Bulandshahr, Uttar Pradesh",8069017282,994
Honkong Cycle,,Krishna Toys And Gifits,https://www.indiamart.com/krishna-toys-and-gifts/?pos=171&kwd=baby jogging stroller&tags=||||8234.609|Price|product|||NA|rsf:gd-|-stype:attr=1|qr_nm:gd|res:RC3|com-cf:nl|ptrs:na|ktp:N0|mc:22719|mtp:S|qry_typ:P|lang:en|wc:3|cs:8837|v=4,False,Vegetable Market,Valsad,"Radhakrishna Mandir, Vegetable Market, Valsad - 396001, Dist.Valsad, Gujarat",8069416006,306
Baby Stroller,,Venkatesh Toys gift and cycle,https://www.indiamart.com/venkatesh-toys-gift-and-cycle/?pos=172&kwd=baby jogging stroller&tags=||||8620.856|Price|product|||NA|rsf:gd-|-stype:attr=1|qr_nm:gd|res:RC3|com-cf:nl|ptrs:na|ktp:N0|mc:22719|mtp:S|qry_typ:P|lang:en|wc:3|cs:8837|v=4,False,Basmat Road,Parbhani,"Shivaji college complex,shop No 23 Vasmat Road, Parbhani, Basmat Road, Parbhani - 431401, Dist.Parbhani, Maharashtra",8048249780,5944
Pram,,Baby Steps,https://www.indiamart.com/baby-steps/?pos=173&kwd=baby jogging stroller&tags=||||8228.275||product|||NA|rsf:gd-|-stype:attr=1|qr_nm:gd|res:RC3|com-cf:nl|ptrs:na|ktp:N0|mc:22719|mtp:S|qry_typ:P|lang:en|wc:3|cs:8837|v=4,False,Anand Nagar Road,Ahmedabad,"Akshar Dhara 2, Anand Nagar Road, Prahlad Nagar Opposite To Sachin Tower, Anand Nagar Road, Ahmedabad - 380015, Dist.Ahmedabad, Gujarat",8048371681,261
Cosset,https://www.indiamart.com/proddetail/cosset-16416833862.html?pos=174&kwd=baby jogging stroller&tags=||||8752.144||product|||NA|rsf:gd-|-stype:attr=1|qr_nm:gd|res:RC3|com-cf:nl|ptrs:na|ktp:N0|mc:22719|mtp:S|qry_typ:P|lang:en|wc:3|cs:8837|v=4,Little Nap Designs Private Limited,https://www.indiamart.com/little-nap-designs-private-limited/?pos=174&kwd=baby jogging stroller&tags=||||8752.144||product|||NA|rsf:gd-|-stype:attr=1|qr_nm:gd|res:RC3|com-cf:nl|ptrs:na|ktp:N0|mc:22719|mtp:S|qry_typ:P|lang:en|wc:3|cs:8837|v=4,False,,New Delhi,"844, Opp to pillar 114, M.G. Road, Ghitorni Opposite Metro Pillar No. 118, New Delhi - 110030, Dist.Delhi, Delhi",8045849066,2495
"Baby Trend Expedition Jogger Travel System, Millennium Blue",https://www.indiamart.com/proddetail/baby-trend-expedition-jogger-travel-system-millennium-blue-2852887557533.html?pos=175&kwd=baby jogging stroller&tags=||||8661.854|Price|product|||NA|rsf:gd-|-stype:attr=1|qr_nm:gd|res:RC3|com-cf:nl|ptrs:na|ktp:N0|mc:22719|mtp:S|qry_typ:P|lang:en|wc:3|cs:8837|v=4,System Tools & Engineering Products,https://www.indiamart.com/system-tools-engineering-products/?pos=175&kwd=baby jogging stroller&tags=||||8661.854|Price|product|||NA|rsf:gd-|-stype:attr=1|qr_nm:gd|res:RC3|com-cf:nl|ptrs:na|ktp:N0|mc:22719|mtp:S|qry_typ:P|lang:en|wc:3|cs:8837|v=4,False,,Ludhiana,"K-98, Phase-7, Focal Point, Ludhiana - 141010, Dist.Ludhiana, Punjab",8062245031,620
NEW Bugaa booo Donkey 3 Twin with Turtle Car Seat - Complete Stroller,https://www.indiamart.com/proddetail/new-bugaa-booo-donkey-3-twin-with-turtle-car-seat-complete-stroller-2853015647948.html?pos=176&kwd=baby jogging stroller&tags=||||8752.144|Price|product|||NA|rsf:gd-|-stype:attr=1|qr_nm:gd|res:RC3|com-cf:nl|ptrs:na|ktp:N0|mc:22719|mtp:S|qry_typ:P|lang:en|wc:3|cs:8837|v=4,Techstorm,https://www.indiamart.com/techstorm-new-delhi/?pos=176&kwd=baby jogging stroller&tags=||||8752.144|Price|product|||NA|rsf:gd-|-stype:attr=1|qr_nm:gd|res:RC3|com-cf:nl|ptrs:na|ktp:N0|mc:22719|mtp:S|qry_typ:P|lang:en|wc:3|cs:8837|v=4,False,Mahavir Enclave Part-3,New Delhi,"D-129 Gali No.51 Gali No 51, Mahavir Enclave Part-3, Mahavir Enclave Part-3, New Delhi - 110059, Dist.Delhi, Delhi",8047308900,2853
Joy Stroller AERIA S W/ RC & ADPT,https://www.indiamart.com/proddetail/joy-stroller-aeria-s-w-rc-adpt-2853742832830.html?pos=177&kwd=baby jogging stroller&tags=||||8752.144|Price|product|||NA|rsf:gd-|-stype:attr=1|qr_nm:gd|res:RC3|com-cf:nl|ptrs:na|ktp:N0|mc:22719|mtp:S|qry_typ:P|lang:en|wc:3|cs:8837|v=4,Ghodela Enterprises,https://www.indiamart.com/ghodela-enterprises/?pos=177&kwd=baby jogging stroller&tags=||||8752.144|Price|product|||NA|rsf:gd-|-stype:attr=1|qr_nm:gd|res:RC3|com-cf:nl|ptrs:na|ktp:N0|mc:22719|mtp:S|qry_typ:P|lang:en|wc:3|cs:8837|v=4,False,,New Delhi,"Ground Floor H. No 235, Kh No-114 Ambedkar Colony Gali No-8 Chhatarpur South West Delhi, New Delhi - 110074, Dist.Delhi, Delhi",8048372639,879
Dew Action Sports Tour,https://www.indiamart.com/proddetail/dew-action-sports-tour-6626454262.html?pos=178&kwd=baby jogging stroller&tags=||||8721.05||product|||NA|rsf:gd-|-stype:attr=1|qr_nm:gd|res:RC3|com-cf:nl|ptrs:na|ktp:N0|mc:22719|mtp:S|qry_typ:P|lang:en|wc:3|cs:8837|v=4,Blue Lemon Marketing Private Limited,https://www.indiamart.com/blue-lemon-marketing-pvt-ltd/?pos=178&kwd=baby jogging stroller&tags=||||8721.05||product|||NA|rsf:gd-|-stype:attr=1|qr_nm:gd|res:RC3|com-cf:nl|ptrs:na|ktp:N0|mc:22719|mtp:S|qry_typ:P|lang:en|wc:3|cs:8837|v=4,False,Alwar,Bhiwadi,"Omaxe City, Alwar Bypass Road, Alwar, Bhiwadi - 301018, Rajasthan",8062245084,194
Zelia Max 5 in 1 Modular Travel System,,Universal Pulse,https://www.indiamart.com/universal-pulse-mumbai/?pos=179&kwd=baby jogging stroller&tags=||||8211.142|Price|product|||NA|rsf:gd-|-stype:attr=1|qr_nm:gd|res:RC3|com-cf:nl|ptrs:na|ktp:N0|mc:22719|mtp:S|qry_typ:P|lang:en|wc:3|cs:8837|v=4,False,,Mumbai,"1st Floor 15, Flat No-16a Viju Kotak Marg Contractor Building, Mumbai - 400001, Dist.Mumbai, Maharashtra",7942820557,
"Plastic Fancy Baby Walker, Packaging Type: Box",https://www.indiamart.com/proddetail/fancy-baby-walker-2852726869573.html?pos=180&kwd=baby jogging stroller&tags=||||8228.275|Price|product|||NA|rsf:gd-|-stype:attr=1|qr_nm:gd|res:RC3|com-cf:nl|ptrs:na|ktp:N0|mc:22719|mtp:S|qry_typ:P|lang:en|wc:3|cs:8837|v=4,Patel Ravjibhai Dayabhai & Son,https://www.indiamart.com/patel-ravjibhai-dayabhai-son/?pos=180&kwd=baby jogging stroller&tags=||||8228.275|Price|product|||NA|rsf:gd-|-stype:attr=1|qr_nm:gd|res:RC3|com-cf:nl|ptrs:na|ktp:N0|mc:22719|mtp:S|qry_typ:P|lang:en|wc:3|cs:8837|v=4,False,,Ahmedabad,"Aiyubtaiyub Surati Building Inside Dhoraji Gate Aiyubtaiyub Surati Building Inside Dhoraji Gate, , Ahmedabad-360370, Gujarat,India, Ahmedabad - 360370, Dist.Ahmedabad, Gujarat",8069013459,227
Romantic Pink Baby medium Powder Puff,https://www.indiamart.com/proddetail/pink-baby-medium-powder-puff-26218115473.html?pos=181&kwd=baby jogging stroller&tags=||||8228.275||product|||NA|rsf:gd-|-stype:attr=1|qr_nm:gd|res:RC3|com-cf:nl|ptrs:na|ktp:N0|mc:22719|mtp:S|qry_typ:P|lang:en|wc:3|cs:8837|v=4,Jay Shree Products,https://www.indiamart.com/jay-shreeproducts-ahmedabad/?pos=181&kwd=baby jogging stroller&tags=||||8228.275||product|||NA|rsf:gd-|-stype:attr=1|qr_nm:gd|res:RC3|com-cf:nl|ptrs:na|ktp:N0|mc:22719|mtp:S|qry_typ:P|lang:en|wc:3|cs:8837|v=4,False,,Ahmedabad,"3, B331, Sumel Business Park IV, Near Kalupur Bridge, Amdupura, Ahmedabad - 380018, Dist.Ahmedabad, Gujarat",7942641339,
Brown Aluminium Doors ILA-612,,I-Leaf Doors & Windows,https://www.indiamart.com/i-leaf-doors-windows/?pos=182&kwd=baby jogging stroller&tags=||||8503.868||product|||NA|rsf:gd-|-stype:attr=1|qr_nm:gd|res:RC3|com-cf:nl|ptrs:na|ktp:N0|mc:22719|mtp:S|qry_typ:P|lang:en|wc:3|cs:8837|v=4,False,Calicut,Kochi,"Calicut, 11/395, Chemmalli Masjid Building, Nisari Junction, Ramanattukara Kozhikode, Calicut, Kochi - 673001, Dist.Ernakulam, Kerala",8045849638,311
"Crc Pipe And Fabric Baby Pram, 8",https://www.indiamart.com/proddetail/baby-pram-24805152248.html?pos=183&kwd=baby jogging stroller&tags=||||8752.144|Price|product|||NA|rsf:gd-|-stype:attr=1|qr_nm:gd|res:RC3|com-cf:nl|ptrs:na|ktp:N0|mc:22719|mtp:S|qry_typ:P|lang:en|wc:3|cs:8837|v=4,Sanskar Steel Industries,https://www.indiamart.com/sanskarsteelindustries-new-delhi/?pos=183&kwd=baby jogging stroller&tags=||||8752.144|Price|product|||NA|rsf:gd-|-stype:attr=1|qr_nm:gd|res:RC3|com-cf:nl|ptrs:na|ktp:N0|mc:22719|mtp:S|qry_typ:P|lang:en|wc:3|cs:8837|v=4,False,Sultanpur Dabas,New Delhi,"Plot No. 4a, Kh 30/8, Ground Floor, Matiala Village, Uttam Nagar, West Delhi, Sultanpur Dabas, New Delhi - 110059, Dist.Delhi, Delhi",7942561721,
Pram,,Ajanta Cycle Store,https://www.indiamart.com/ajanta-cycle-store-cuttack/?pos=184&kwd=baby jogging stroller&tags=||||9578.697||product|||NA|rsf:gd-|-stype:attr=1|qr_nm:gd|res:RC3|com-cf:nl|ptrs:na|ktp:N0|mc:22719|mtp:S|qry_typ:P|lang:en|wc:3|cs:8837|v=4,False,Ranihat,Cuttack,"Ajanta Cycle Store, Ranihat Colony Ranihat Colony, Ranihat, Cuttack - 753001, Dist.Cuttack, Odisha",8048371961,518
"OUTDOOR AIR WALKER / AIR STROLLER, PRSA005",https://www.indiamart.com/proddetail/outdoor-air-walker-air-stroller-25786627855.html?pos=185&kwd=baby jogging stroller&tags=||||8641.487|Price|product|||NA|rsf:gd-|-stype:attr=1|qr_nm:gd|res:RC3|com-cf:nl|ptrs:na|ktp:N0|mc:22719|mtp:S|qry_typ:P|lang:en|wc:3|cs:8837|v=4,Param Sports And Fitness,https://www.indiamart.com/paramengineers-jalandhar/?pos=185&kwd=baby jogging stroller&tags=||||8641.487|Price|product|||NA|rsf:gd-|-stype:attr=1|qr_nm:gd|res:RC3|com-cf:nl|ptrs:na|ktp:N0|mc:22719|mtp:S|qry_typ:P|lang:en|wc:3|cs:8837|v=4,False,Basti Danishmandan,Jalandhar,"224 224 Basti Danishmanda Shivaji Nagar Jalandhar, Basti Danishmandan, Jalandhar - 144002, Dist.Jalandhar, Punjab",8069033844,376
Red Nanne Munne Super Deluxe Baby Prams,https://www.indiamart.com/proddetail/super-deluxe-baby-prams-20901586748.html?pos=186&kwd=baby jogging stroller&tags=||||8752.144|Price|product|||NA|rsf:gd-|-stype:attr=1|qr_nm:gd|res:RC3|com-cf:nl|ptrs:na|ktp:N0|mc:22719|mtp:S|qry_typ:P|lang:en|wc:3|cs:8837|v=4,Chhabra Industries,https://www.indiamart.com/chhabraindustries-delhi/?pos=186&kwd=baby jogging stroller&tags=||||8752.144|Price|product|||NA|rsf:gd-|-stype:attr=1|qr_nm:gd|res:RC3|com-cf:nl|ptrs:na|ktp:N0|mc:22719|mtp:S|qry_typ:P|lang:en|wc:3|cs:8837|v=4,False,,New Delhi,"C-6 sec-A5/6 tronica city signature city gaziabad up, New Delhi - 110039, Dist.Delhi, Delhi",8047640157,
"Plastic,Steel Baby Walker, Number Of Wheels 6",https://www.indiamart.com/proddetail/baby-walker-22114559062.html?pos=187&kwd=baby jogging stroller&tags=||||8641.487|Price|product|||NA|rsf:gd-|-stype:attr=1|qr_nm:gd|res:RC3|com-cf:nl|ptrs:na|ktp:N0|mc:22719|mtp:S|qry_typ:P|lang:en|wc:3|cs:8837|v=4,Tricycle Planet,https://www.indiamart.com/tricycle-planet/?pos=187&kwd=baby jogging stroller&tags=||||8641.487|Price|product|||NA|rsf:gd-|-stype:attr=1|qr_nm:gd|res:RC3|com-cf:nl|ptrs:na|ktp:N0|mc:22719|mtp:S|qry_typ:P|lang:en|wc:3|cs:8837|v=4,False,,Jalandhar,"Tricycls Planet, New Railway Road, Near Bhagat Singh Chowk, Jalandhar - 144001, Dist.Jalandhar, Punjab",8047687269,
"cotton Baby Carrier Bag, Age Group: 3 months to 36 monhhs",https://www.indiamart.com/proddetail/baby-carrier-bag-2854407856130.html?pos=188&kwd=baby jogging stroller&tags=||||8281.036|Price|product|||NA|rsf:gd-|-stype:attr=1|qr_nm:gd|res:RC3|com-cf:nl|ptrs:na|ktp:N0|mc:22719|mtp:S|qry_typ:P|lang:en|wc:3|cs:8837|v=4,Best And Fast Exports LLP,https://www.indiamart.com/best-and-fast-export-llp/?pos=188&kwd=baby jogging stroller&tags=||||8281.036|Price|product|||NA|rsf:gd-|-stype:attr=1|qr_nm:gd|res:RC3|com-cf:nl|ptrs:na|ktp:N0|mc:22719|mtp:S|qry_typ:P|lang:en|wc:3|cs:8837|v=4,False,,Vadodara,"301 Susen Tarsali Ring Road Indra Complex Vadodara, Vadodara - 390010, Dist.Vadodara, Gujarat",8069264844,140
Stroller,,Omkar Toys,https://www.indiamart.com/omkar-toys-hyderabad/?pos=189&kwd=baby jogging stroller&tags=||||8786.56|Price|product|||NA|rsf:gd-|-stype:attr=1|qr_nm:gd|res:RC3|com-cf:nl|ptrs:na|ktp:N0|mc:22719|mtp:S|qry_typ:P|lang:en|wc:3|cs:8837|v=4,False,,Hyderabad,"12-1-733 Asif Nagar, Hyderabad - 500028, Dist.Hyderabad, Telangana",8048371744,609
Baby Strollers Baby Pram Baby Buggy,https://www.indiamart.com/proddetail/baby-strollers-baby-pram-baby-buggy-24737061948.html?pos=190&kwd=baby jogging stroller&tags=||||8752.144|Price|product|||NA|rsf:gd-|-stype:attr=1|qr_nm:gd|res:RC3|com-cf:nl|ptrs:na|ktp:N0|mc:22719|mtp:S|qry_typ:P|lang:en|wc:3|cs:8837|v=4,Fatevalley,https://www.indiamart.com/fatevalley/?pos=190&kwd=baby jogging stroller&tags=||||8752.144|Price|product|||NA|rsf:gd-|-stype:attr=1|qr_nm:gd|res:RC3|com-cf:nl|ptrs:na|ktp:N0|mc:22719|mtp:S|qry_typ:P|lang:en|wc:3|cs:8837|v=4,False,Rohini,New Delhi,"A-222 RAMESH ENCLAVE STREET NO 8 DELHI North Near Rohini Sector-21, Rohini, New Delhi - 110086, Dist.Delhi, Delhi",8047690254,
18 Inch Baby Prams,https://www.indiamart.com/proddetail/18-inch-baby-prams-12801924612.html?pos=191&kwd=baby jogging stroller&tags=||||8752.144|Price|product|||NA|rsf:gd-|-stype:attr=1|qr_nm:gd|res:RC3|com-cf:nl|ptrs:na|ktp:N0|mc:22719|mtp:S|qry_typ:P|lang:en|wc:3|cs:8837|v=4,Saxena & Son'S,https://www.indiamart.com/chitranshibp/?pos=191&kwd=baby jogging stroller&tags=||||8752.144|Price|product|||NA|rsf:gd-|-stype:attr=1|qr_nm:gd|res:RC3|com-cf:nl|ptrs:na|ktp:N0|mc:22719|mtp:S|qry_typ:P|lang:en|wc:3|cs:8837|v=4,False,Nawada,New Delhi,"K-22/25, Street No. 19, Gangotri Vihar, West Ghonda, Nawada, New Delhi - 110053, Dist.Delhi, Delhi",8043812729,
"Pram For Kids, 4",https://www.indiamart.com/proddetail/pram-for-kids-27111893448.html?pos=192&kwd=baby jogging stroller&tags=||||8752.144|Price|product|||NA|rsf:gd-|-stype:attr=1|qr_nm:gd|res:RC3|com-cf:nl|ptrs:na|ktp:N0|mc:22719|mtp:S|qry_typ:P|lang:en|wc:3|cs:8837|v=4,Goel Sinks India Private Limited,https://www.indiamart.com/goelsinksindia/?pos=192&kwd=baby jogging stroller&tags=||||8752.144|Price|product|||NA|rsf:gd-|-stype:attr=1|qr_nm:gd|res:RC3|com-cf:nl|ptrs:na|ktp:N0|mc:22719|mtp:S|qry_typ:P|lang:en|wc:3|cs:8837|v=4,False,,New Delhi,"Khasra No 873/1, Gali No-2, Rithala,, New Delhi - 110085, Dist.Delhi, Delhi",8047644629,
"Pink Plastic Doll with pram, Age Group: 3-10 years",https://www.indiamart.com/proddetail/doll-with-pram-2853461915797.html?pos=193&kwd=baby jogging stroller&tags=||||8740.707|Price|product|||NA|rsf:gd-|-stype:attr=1|qr_nm:gd|res:RC3|com-cf:nl|ptrs:na|ktp:N0|mc:22719|mtp:S|qry_typ:P|lang:en|wc:3|cs:8837|v=4,Chhabra Gifts & Toys,https://www.indiamart.com/chhabra-gifts-toys/?pos=193&kwd=baby jogging stroller&tags=||||8740.707|Price|product|||NA|rsf:gd-|-stype:attr=1|qr_nm:gd|res:RC3|com-cf:nl|ptrs:na|ktp:N0|mc:22719|mtp:S|qry_typ:P|lang:en|wc:3|cs:8837|v=4,False,Sector 60,Mohali,"Shop No. 248, Phase 3B1, Sector 60, Mohali - 160062, Dist.Mohali, Punjab",8048372716,798
Mild Steel Kids Folding Cradle,https://www.indiamart.com/proddetail/mild-steel-kids-folding-cradle-2850140247773.html?pos=194&kwd=baby jogging stroller&tags=||||8661.854|Price|product|||NA|rsf:gd-|-stype:attr=1|qr_nm:gd|res:RC3|com-cf:nl|ptrs:na|ktp:N0|mc:22719|mtp:S|qry_typ:P|lang:en|wc:3|cs:8837|v=4,Satnam Products,https://www.indiamart.com/satnamproducts/?pos=194&kwd=baby jogging stroller&tags=||||8661.854|Price|product|||NA|rsf:gd-|-stype:attr=1|qr_nm:gd|res:RC3|com-cf:nl|ptrs:na|ktp:N0|mc:22719|mtp:S|qry_typ:P|lang:en|wc:3|cs:8837|v=4,False,Dhandari Kalan,Ludhiana,"Plot No 536/35D/8A Guru Gobind Singh Colony,Dhandari Kalan - Satnam Products, Dhandari Kalan, Ludhiana - 141014, Dist.Ludhiana, Punjab",7942803490,
Black And White Maclaren Globetrotter Stroller,https://www.indiamart.com/proddetail/maclaren-globetrotter-stroller-19413546591.html?pos=195&kwd=baby jogging stroller&tags=||||8211.142|Price|product|||NA|rsf:gd-|-stype:attr=1|qr_nm:gd|res:RC3|com-cf:nl|ptrs:na|ktp:N0|mc:22719|mtp:S|qry_typ:P|lang:en|wc:3|cs:8837|v=4,T-Lab Tradecom Private Limited,https://www.indiamart.com/bragpacker/?pos=195&kwd=baby jogging stroller&tags=||||8211.142|Price|product|||NA|rsf:gd-|-stype:attr=1|qr_nm:gd|res:RC3|com-cf:nl|ptrs:na|ktp:N0|mc:22719|mtp:S|qry_typ:P|lang:en|wc:3|cs:8837|v=4,False,Juhu,Mumbai,"701, Jal Darshan Apartment, Gandhigram Road, Juhu, Juhu, Mumbai - 400049, Dist.Mumbai, Maharashtra",8047671411,
Laadla Blue Baby Pram,https://www.indiamart.com/proddetail/blue-baby-pram-20471827273.html?pos=196&kwd=baby jogging stroller&tags=||||8752.144|Price|product|||NA|rsf:gd-|-stype:attr=1|qr_nm:gd|res:RC3|com-cf:nl|ptrs:na|ktp:N0|mc:22719|mtp:S|qry_typ:P|lang:en|wc:3|cs:8837|v=4,Laadla Baby Products,https://www.indiamart.com/laadla-baby-products-new-delhi/?pos=196&kwd=baby jogging stroller&tags=||||8752.144|Price|product|||NA|rsf:gd-|-stype:attr=1|qr_nm:gd|res:RC3|com-cf:nl|ptrs:na|ktp:N0|mc:22719|mtp:S|qry_typ:P|lang:en|wc:3|cs:8837|v=4,False,Bawana,New Delhi,"Sector 2, F- 78, Bawana Industrial Area DSIIDC, Bawana, New Delhi - 110039, Dist.Delhi, Delhi",8048361374,409
"Yellow Baby Metal Trolly, For Photoshoot Props",https://www.indiamart.com/proddetail/baby-metal-trolly-27154856691.html?pos=197&kwd=baby jogging stroller&tags=||||8230.883|Price|product|||NA|rsf:gd-|-stype:attr=1|qr_nm:gd|res:RC3|com-cf:nl|ptrs:na|ktp:N0|mc:22719|mtp:S|qry_typ:P|lang:en|wc:3|cs:8837|v=4,Shivam Enterprise,https://www.indiamart.com/shivamentpsgujarat/?pos=197&kwd=baby jogging stroller&tags=||||8230.883|Price|product|||NA|rsf:gd-|-stype:attr=1|qr_nm:gd|res:RC3|com-cf:nl|ptrs:na|ktp:N0|mc:22719|mtp:S|qry_typ:P|lang:en|wc:3|cs:8837|v=4,False,Mota Varachha,Surat,"1st Floor UG/5, Plot No. 239 To 242, L H Road, Nr. Maruti Chowk Shiv Complex, Nilkanth Society, Mota Varachha, Surat - 395010, Dist.Surat, Gujarat",8043822474,
Baby Pram,https://www.indiamart.com/proddetail/baby-pram-16845868888.html?pos=198&kwd=baby jogging stroller&tags=||||8752.144|Price|product|||NA|rsf:gd-|-stype:attr=1|qr_nm:gd|res:RC3|com-cf:nl|ptrs:na|ktp:N0|mc:22719|mtp:S|qry_typ:P|lang:en|wc:3|cs:8837|v=4,GS Collection,https://www.indiamart.com/gscollection-delhi/?pos=198&kwd=baby jogging stroller&tags=||||8752.144|Price|product|||NA|rsf:gd-|-stype:attr=1|qr_nm:gd|res:RC3|com-cf:nl|ptrs:na|ktp:N0|mc:22719|mtp:S|qry_typ:P|lang:en|wc:3|cs:8837|v=4,False,Chattarpur,New Delhi,"431 Phase 5, Saket, Chattarpur, New Delhi - 110074, Dist.Delhi, Delhi",8047810349,
Fisher Price - Rover Stroller Cum Pram,https://www.indiamart.com/proddetail/fisher-price-rover-stroller-cum-pram-14100940833.html?pos=199&kwd=baby jogging stroller&tags=||||8752.144|Price|product|||NA|rsf:gd-|-stype:attr=1|qr_nm:gd|res:RC3|com-cf:nl|ptrs:na|ktp:N0|mc:22719|mtp:S|qry_typ:P|lang:en|wc:3|cs:8837|v=4,Alex Daisy,https://www.indiamart.com/alex-daisy/?pos=199&kwd=baby jogging stroller&tags=||||8752.144|Price|product|||NA|rsf:gd-|-stype:attr=1|qr_nm:gd|res:RC3|com-cf:nl|ptrs:na|ktp:N0|mc:22719|mtp:S|qry_typ:P|lang:en|wc:3|cs:8837|v=4,False,Kirti Nagar,New Delhi,"No. 4/1, WHS Block-2, Main Furniture Market Road, Kirti Nagar Opp. Metro Pillar No. 120, Ghitorni, MG Road, New Delhi-30, Kirti Nagar, New Delhi - 110015, Dist.Delhi, Delhi",7949369266,
Baby Pram,,Himanshu Kids Corner,https://www.indiamart.com/himanshu-kids-corner-hyderabad/?pos=200&kwd=baby jogging stroller&tags=||||8786.56||product|||NA|rsf:gd-|-stype:attr=1|qr_nm:gd|res:RC3|com-cf:nl|ptrs:na|ktp:N0|mc:22719|mtp:S|qry_typ:P|lang:en|wc:3|cs:8837|v=4,False,feel khana,Hyderabad,"15-8-429/c/1 Aheer Plaza Feelkhana Begum Bazar, feel khana, Hyderabad - 500012, Dist.Hyderabad, Telangana",8047768001,
Seema Enterprises Pink Baby Walking Pram,https://www.indiamart.com/proddetail/baby-walking-pram-16818265633.html?pos=201&kwd=baby jogging stroller&tags=||||8752.144|Price|product|||NA|rsf:gd-|-stype:attr=1|qr_nm:gd|res:RC3|com-cf:nl|ptrs:na|ktp:N0|mc:22719|mtp:S|qry_typ:P|lang:en|wc:3|cs:8837|v=4,Seema Enterprises,https://www.indiamart.com/seemaenterprises-khasra/?pos=201&kwd=baby jogging stroller&tags=||||8752.144|Price|product|||NA|rsf:gd-|-stype:attr=1|qr_nm:gd|res:RC3|com-cf:nl|ptrs:na|ktp:N0|mc:22719|mtp:S|qry_typ:P|lang:en|wc:3|cs:8837|v=4,False,Village Mandoli,New Delhi,"B-75, Khasra No. 2/15,16 Milan Garden, Village Mandoli, New Delhi - 110093, Dist.Delhi, Delhi",7942621135,
"Wooden Baby Walker, Six Months to Four Years, Packaging Type: Box Packging",https://www.indiamart.com/proddetail/wooden-baby-walker-2851613942433.html?pos=202&kwd=baby jogging stroller&tags=||||8601.347|Price|product|||NA|rsf:gd-|-stype:attr=1|qr_nm:gd|res:RC3|com-cf:nl|ptrs:na|ktp:N0|mc:22719|mtp:S|qry_typ:P|lang:en|wc:3|cs:8837|v=4,Rahul Traders,https://www.indiamart.com/rahultraders-191919939/?pos=202&kwd=baby jogging stroller&tags=||||8601.347|Price|product|||NA|rsf:gd-|-stype:attr=1|qr_nm:gd|res:RC3|com-cf:nl|ptrs:na|ktp:N0|mc:22719|mtp:S|qry_typ:P|lang:en|wc:3|cs:8837|v=4,False,,Jaipur,"NEAR ANAJ MANDI, DAKBEK, BAGRU, JAIPUR, RAJASTHAN- 303007, Jaipur - 303007, Dist.Jaipur, Rajasthan",8069416016,366
"3-3.5 Feet Stainless Steel And Plastic Pram-Stroller, 8 Wheel, G14",https://www.indiamart.com/proddetail/pram-stroller-21844082397.html?pos=203&kwd=baby jogging stroller&tags=||||8752.144|Price|product|||NA|rsf:gd-|-stype:attr=1|qr_nm:gd|res:RC3|com-cf:nl|ptrs:na|ktp:N0|mc:22719|mtp:S|qry_typ:P|lang:en|wc:3|cs:8837|v=4,Childfun Walker Mfg Co.,https://www.indiamart.com/childfun-walker-mfg-co/?pos=203&kwd=baby jogging stroller&tags=||||8752.144|Price|product|||NA|rsf:gd-|-stype:attr=1|qr_nm:gd|res:RC3|com-cf:nl|ptrs:na|ktp:N0|mc:22719|mtp:S|qry_typ:P|lang:en|wc:3|cs:8837|v=4,False,Bawana DSIDC,New Delhi,"C166, Sector 4, Bawana DSIDC, New Delhi - 110039, Dist.Delhi, Delhi",8047667477,
"3ft Steel And Febric Blue Baby Prams, 8",https://www.indiamart.com/proddetail/blue-baby-prams-25642815873.html?pos=204&kwd=baby jogging stroller&tags=||||8974.737|Price|product|||NA|rsf:gd-|-stype:attr=1|qr_nm:gd|res:RC3|com-cf:nl|ptrs:na|ktp:N0|mc:22719|mtp:S|qry_typ:P|lang:en|wc:3|cs:8837|v=4,Sanjay Enterprises,https://www.indiamart.com/sanjay-enterprisesbareilly/?pos=204&kwd=baby jogging stroller&tags=||||8974.737|Price|product|||NA|rsf:gd-|-stype:attr=1|qr_nm:gd|res:RC3|com-cf:nl|ptrs:na|ktp:N0|mc:22719|mtp:S|qry_typ:P|lang:en|wc:3|cs:8837|v=4,False,Civil Lines,Bareilly,"26-27, Islamiya Market, Anathalay Road, Civil Lines, Bareilly - 243001, Dist.Bareilly, Uttar Pradesh",8047650009,
Sunbaby Trendy Baby Buggy,https://www.indiamart.com/proddetail/sunbaby-trendy-baby-buggy-16034372230.html?pos=205&kwd=baby jogging stroller&tags=||||8752.144|Price|product|||NA|rsf:gd-|-stype:attr=1|qr_nm:gd|res:RC3|com-cf:nl|ptrs:na|ktp:N0|mc:22719|mtp:S|qry_typ:P|lang:en|wc:3|cs:8837|v=4,I Tigar Shop Dot Com,https://www.indiamart.com/i-tigar-shopcom/?pos=205&kwd=baby jogging stroller&tags=||||8752.144|Price|product|||NA|rsf:gd-|-stype:attr=1|qr_nm:gd|res:RC3|com-cf:nl|ptrs:na|ktp:N0|mc:22719|mtp:S|qry_typ:P|lang:en|wc:3|cs:8837|v=4,False,,New Delhi,"Near Indira Gandhi Gandhi International Airport, New Delhi - 110037, Dist.Delhi, Delhi",8048372371,331
Elite City,https://www.indiamart.com/proddetail/elite-city-2852732391691.html?pos=206&kwd=baby jogging stroller&tags=||||8584.299||product|||NA|rsf:gd-|-stype:attr=1|qr_nm:gd|res:RC3|com-cf:nl|ptrs:na|ktp:N0|mc:22719|mtp:S|qry_typ:P|lang:en|wc:3|cs:8837|v=4,Town & City Developers,https://www.indiamart.com/town-city-developers-coimbatore/?pos=206&kwd=baby jogging stroller&tags=||||8584.299||product|||NA|rsf:gd-|-stype:attr=1|qr_nm:gd|res:RC3|com-cf:nl|ptrs:na|ktp:N0|mc:22719|mtp:S|qry_typ:P|lang:en|wc:3|cs:8837|v=4,False,Tamil Nadu,Coimbatore,"126, K.g. House Coimbatore, Tamil Nadu, Coimbatore - 641018, Dist.Coimbatore, Tamil Nadu",8069728262,744
Little Tikes Stroller,,Arsh Marketing,https://www.indiamart.com/arshmarketingahmedabad/?pos=207&kwd=baby jogging stroller&tags=||||8228.275|Price|product|||NA|rsf:gd-|-stype:attr=1|qr_nm:gd|res:RC3|com-cf:nl|ptrs:na|ktp:N0|mc:22719|mtp:S|qry_typ:P|lang:en|wc:3|cs:8837|v=4,False,Juhapura,Ahmedabad,"1153 1, Pankore Naka, G P O, Juhapura, Ahmedabad - 380001, Dist.Ahmedabad, Gujarat",8047546762,
Baby Folding Stroller,,Mayank Toys,https://www.indiamart.com/mayank-toys/?pos=208&kwd=baby jogging stroller&tags=||||8752.144||product|||NA|rsf:gd-|-stype:attr=1|qr_nm:gd|res:RC3|com-cf:nl|ptrs:na|ktp:N0|mc:22719|mtp:S|qry_typ:P|lang:en|wc:3|cs:8837|v=4,False,North East,New Delhi,"Ground Floor, B 382, Street No. 5, Prem Vihar, Karawal Nagar, North East, New Delhi - 110094, Dist.Delhi, Delhi",7949226824,
Pram Cleaning Services,https://www.indiamart.com/proddetail/pram-cleaning-services-1990683348.html?pos=209&kwd=baby jogging stroller&tags=||||8752.144||product|||NA|rsf:gd-|-stype:attr=1|qr_nm:gd|res:RC3|com-cf:nl|ptrs:na|ktp:N0|mc:22719|mtp:S|qry_typ:P|lang:en|wc:3|cs:8837|v=4,Wonder Koncept Dry Clearners,https://www.indiamart.com/wonderkoncept/?pos=209&kwd=baby jogging stroller&tags=||||8752.144||product|||NA|rsf:gd-|-stype:attr=1|qr_nm:gd|res:RC3|com-cf:nl|ptrs:na|ktp:N0|mc:22719|mtp:S|qry_typ:P|lang:en|wc:3|cs:8837|v=4,False,Rajaurili Garden,New Delhi,"J-12/22 Shop No.1, Rajaurili Garden, New Delhi - 110027, Dist.Delhi, Delhi",8043814880,
Luvlap Baby Stroller Pram,,Jainam Toys & Gift Center,https://www.indiamart.com/jainamtoysgiftcenter/?pos=210&kwd=baby jogging stroller&tags=||||8559.269||product|||NA|rsf:gd-|-stype:attr=1|qr_nm:gd|res:RC3|com-cf:nl|ptrs:na|ktp:N0|mc:22719|mtp:S|qry_typ:P|lang:en|wc:3|cs:8837|v=4,False,Indore GPO,Indore,"36, Sikh Mohalla, Main Road, Aditya Villa Basement, Indore GPO, Indore - 452001, Dist.Indore, Madhya Pradesh",8043833004,
