product_title,product_link,company_name,company_link,is_verified_exporter,city_region,city,address_details,phone_number,phone_number_extension
Polyester Sky Blue Baby Carrier Bag,https://www.indiamart.com/proddetail/sky-blue-baby-carrier-bag-2851647537555.html?pos=1&kwd=baby carrier&tags=A||||8783.355|Price|product|||MDC|rsf:gd-|-stype:attr=1|qr_nm:gd|res:RC3|com-cf:nl|ptrs:na|ktp:N0|mc:21807|mtp:S|qry_typ:P|lang:en|wc:2|flavl:4|cs:9600|v=4,Om Shiv International,https://www.indiamart.com/omshivinternational/?pos=1&kwd=baby carrier&tags=A||||8783.355|Price|product|||MDC|rsf:gd-|-stype:attr=1|qr_nm:gd|res:RC3|com-cf:nl|ptrs:na|ktp:N0|mc:21807|mtp:S|qry_typ:P|lang:en|wc:2|flavl:4|cs:9600|v=4,False,Baghpat,Aminagar Sarai,"170, Gauspur, Baghpat, Baghpat, Aminagar Sarai - 250606, Dist.Bagpat, Uttar Pradesh",8048616452,
Oscar Soft Fabric Baby Pillow Set,https://www.indiamart.com/proddetail/baby-pillow-set-13874920555.html?pos=2&kwd=baby carrier&tags=A||||8778.123|Price|product|||TS|rsf:gd-|-stype:attr=1|qr_nm:gd|res:RC3|com-cf:nl|ptrs:na|ktp:N0|mc:21807|mtp:S|qry_typ:P|lang:en|wc:2|flavl:4|cs:9600|v=4,Oscar Overseas,https://www.oscar-india.com/?pos=2&kwd=baby carrier&tags=A||||8778.123|Price|product|||TS|rsf:gd-|-stype:attr=1|qr_nm:gd|res:RC3|com-cf:nl|ptrs:na|ktp:N0|mc:21807|mtp:S|qry_typ:P|lang:en|wc:2|flavl:4|cs:9600|v=4,False,,Noida,"A-99 Sector 5, Noida - 201301, Dist.Gautam Budh Nagar, Uttar Pradesh",8046058290,
Polyester 4-in-1 Adjustable Baby Carrier BAG,https://www.indiamart.com/proddetail/4-in-1-adjustable-baby-carrier-bag-2851497298973.html?pos=3&kwd=baby carrier&tags=A||||8752.144|Price|product|||TS|rsf:gd-|-stype:attr=1|qr_nm:gd|res:RC3|com-cf:nl|ptrs:na|ktp:N0|mc:21807|mtp:S|qry_typ:P|lang:en|wc:2|flavl:4|cs:9600|v=4,Ekta Overseas,https://www.indiamart.com/ektaoverseas-newdelhi/?pos=3&kwd=baby carrier&tags=A||||8752.144|Price|product|||TS|rsf:gd-|-stype:attr=1|qr_nm:gd|res:RC3|com-cf:nl|ptrs:na|ktp:N0|mc:21807|mtp:S|qry_typ:P|lang:en|wc:2|flavl:4|cs:9600|v=4,False,Shahdara,New Delhi,"1/95, Gali No.3, Near Navjeevan Phisical Center, Vishwas Nagar, Shahdara,, Shahdara, New Delhi - 110032, Dist.Delhi, Delhi",7942628926,
"Red & Black Plastic Baby Carrier Bag, Age Group: 3-12 Months, Packaging Type: LDPE",https://www.indiamart.com/proddetail/baby-carrier-bag-2854257770530.html?pos=4&kwd=baby carrier&tags=A||||8752.144|Price|product|||TS|rsf:gd-|-stype:attr=1|qr_nm:gd|res:RC3|com-cf:nl|ptrs:na|ktp:N0|mc:21807|mtp:S|qry_typ:P|lang:en|wc:2|flavl:4|cs:9600|v=4,Nimesh Enterprises,https://www.indiamart.com/nimesh-enterprises/?pos=4&kwd=baby carrier&tags=A||||8752.144|Price|product|||TS|rsf:gd-|-stype:attr=1|qr_nm:gd|res:RC3|com-cf:nl|ptrs:na|ktp:N0|mc:21807|mtp:S|qry_typ:P|lang:en|wc:2|flavl:4|cs:9600|v=4,False,Rajpur Khurd,New Delhi,"A- 8, Rajpur Khurd, Tivoli Garden, Rajpur Khurd, New Delhi - 110068, Dist.Delhi, Delhi",8047634050,
Front And Back Baby Carrier,https://www.indiamart.com/proddetail/front-and-back-baby-carrier-20710882430.html?pos=5&kwd=baby carrier&tags=A||||8752.144|Price|product|||TS|rsf:gd-|-stype:attr=1|qr_nm:gd|res:RC3|com-cf:nl|ptrs:na|ktp:N0|mc:21807|mtp:S|qry_typ:P|lang:en|wc:2|flavl:4|cs:9600|v=4,National Overseas,https://www.indiamart.com/nationaltraders-vishwashnagar/?pos=5&kwd=baby carrier&tags=A||||8752.144|Price|product|||TS|rsf:gd-|-stype:attr=1|qr_nm:gd|res:RC3|com-cf:nl|ptrs:na|ktp:N0|mc:21807|mtp:S|qry_typ:P|lang:en|wc:2|flavl:4|cs:9600|v=4,False,Shahdara,New Delhi,"1/99, Gali No. 3, Vishwas Nagar, Shahdara, New Delhi - 110032, Dist.Delhi, Delhi",8046047673,
Baby Carrier Bag,https://www.indiamart.com/proddetail/baby-carrier-bag-23160857688.html?pos=6&kwd=baby carrier&tags=A||||8752.144|Price|product|||TS|rsf:gd-|-stype:attr=1|qr_nm:gd|res:RC3|com-cf:nl|ptrs:na|ktp:N0|mc:21807|mtp:S|qry_typ:P|lang:en|wc:2|flavl:4|cs:9600|v=4,Melvis,https://www.indiamart.com/melvis/?pos=6&kwd=baby carrier&tags=A||||8752.144|Price|product|||TS|rsf:gd-|-stype:attr=1|qr_nm:gd|res:RC3|com-cf:nl|ptrs:na|ktp:N0|mc:21807|mtp:S|qry_typ:P|lang:en|wc:2|flavl:4|cs:9600|v=4,False,Swaroop Nagar,New Delhi,"First Floor, House Number 185/12, Block-B, Yadav Market Road Chowk, Swaroop Nagar,, Swaroop Nagar, New Delhi - 110042, Dist.Delhi, Delhi",8047632851,
multy Soft Fabric Kangaroo Bag Baby Carrier,https://www.indiamart.com/proddetail/kangaroo-bag-baby-carrier-2852512135012.html?pos=7&kwd=baby carrier&tags=A||||8211.142|Price|product|||TS|rsf:gd-|-stype:attr=1|qr_nm:gd|res:RC3|com-cf:nl|ptrs:na|ktp:N0|mc:21807|mtp:S|qry_typ:P|lang:en|wc:2|flavl:4|cs:9600|v=4,P For Panda Baby Products Private Limited,https://www.p4pandababyproducts.com/?pos=7&kwd=baby carrier&tags=A||||8211.142|Price|product|||TS|rsf:gd-|-stype:attr=1|qr_nm:gd|res:RC3|com-cf:nl|ptrs:na|ktp:N0|mc:21807|mtp:S|qry_typ:P|lang:en|wc:2|flavl:4|cs:9600|v=4,False,Goregaon West,Mumbai,"904 A Wing,9 Th Floor,Triple S Heights,Jakeria Road, Goregaon West, Mumbai - 400064, Dist.Mumbai, Maharashtra",7942710871,
Polyester Baby Carry Bag,https://www.indiamart.com/proddetail/baby-carry-bag-2852519465291.html?pos=8&kwd=baby carrier&tags=A||||8230.883|Price|product|||TS|rsf:gd-|-stype:attr=1|qr_nm:gd|res:RC3|com-cf:nl|ptrs:na|ktp:N0|mc:21807|mtp:S|qry_typ:P|lang:en|wc:2|flavl:4|cs:9600|v=4,Concept Enterprise,https://www.cartforbaby.com/?pos=8&kwd=baby carrier&tags=A||||8230.883|Price|product|||TS|rsf:gd-|-stype:attr=1|qr_nm:gd|res:RC3|com-cf:nl|ptrs:na|ktp:N0|mc:21807|mtp:S|qry_typ:P|lang:en|wc:2|flavl:4|cs:9600|v=4,False,Dabholi,Surat,"17, Bhumi Park Society, Near Dabholi Road, Katargam, Dabholi, Surat - 395004, Dist.Surat, Gujarat",8047546659,
"Multicolor Cotton Baby Carrier, Age Group: 3-12 Months, Packaging Type: Plastic Bag",https://www.indiamart.com/proddetail/cotton-baby-carrier-2853670550673.html?pos=9&kwd=baby carrier&tags=A||||8663.873|Price|product|||MDC|rsf:gd-|-stype:attr=1|qr_nm:gd|res:RC3|com-cf:nl|ptrs:na|ktp:N0|mc:21807|mtp:S|qry_typ:P|lang:en|wc:2|flavl:4|cs:9600|v=4,Nipika Vrapped Gifting,https://www.indiamart.com/nipika-vrapped-gifting/?pos=9&kwd=baby carrier&tags=A||||8663.873|Price|product|||MDC|rsf:gd-|-stype:attr=1|qr_nm:gd|res:RC3|com-cf:nl|ptrs:na|ktp:N0|mc:21807|mtp:S|qry_typ:P|lang:en|wc:2|flavl:4|cs:9600|v=4,False,Bengaluru Urban,Bengaluru,"9/1, 23rd Cross Road, Magadi Road, KP Agrahara, Bengaluru Urban, Bengaluru - 560023, Dist.Bengaluru, Karnataka",7949328723,
"polyster 4 IN 1 Maroon Baby Polyester Carrier Bag, Age Group: 3M-24Month",https://www.indiamart.com/proddetail/4-in-1-soft-structured-baby-carrier-bag-2852590159633.html?pos=10&kwd=baby carrier&tags=A||||9189.305|Price|product|||MDC|rsf:gd-|-stype:attr=1|qr_nm:gd|res:RC3|com-cf:nl|ptrs:na|ktp:N0|mc:21807|mtp:S|qry_typ:P|lang:en|wc:2|flavl:4|cs:9600|v=4,Sudhanjali Enterprises,https://www.indiamart.com/sudhanjalienterprises/?pos=10&kwd=baby carrier&tags=A||||9189.305|Price|product|||MDC|rsf:gd-|-stype:attr=1|qr_nm:gd|res:RC3|com-cf:nl|ptrs:na|ktp:N0|mc:21807|mtp:S|qry_typ:P|lang:en|wc:2|flavl:4|cs:9600|v=4,False,,Prayagraj,"H No-10/7, Basahi, Nataka Babura, Khain, Prayagraj - 212307, Dist.Allahabad, Uttar Pradesh",7942964273,
"Polyester Pink Baby Carrier, Age Group: Newly Born",https://www.indiamart.com/proddetail/pink-polyester-baby-carrier-2854851651955.html?pos=11&kwd=baby carrier&tags=A||||8752.144|Price|product|||MDC|rsf:gd-|-stype:attr=1|qr_nm:gd|res:RC3|com-cf:nl|ptrs:na|ktp:N0|mc:21807|mtp:S|qry_typ:P|lang:en|wc:2|flavl:4|cs:9600|v=4,V P Product,https://www.indiamart.com/vpproduct/?pos=11&kwd=baby carrier&tags=A||||8752.144|Price|product|||MDC|rsf:gd-|-stype:attr=1|qr_nm:gd|res:RC3|com-cf:nl|ptrs:na|ktp:N0|mc:21807|mtp:S|qry_typ:P|lang:en|wc:2|flavl:4|cs:9600|v=4,False,,New Delhi,"Ground Floor, H.No.- E-5/139, Gali No. - 5, East Gokal Pur, North East Delhi, New Delhi - 110094, Dist.Delhi, Delhi",8044460681,
"Brown Cotton 110 GSM Baby Carrier Bag, Age Group: 1-2 Years",https://www.indiamart.com/proddetail/110-gsm-baby-carrier-bag-2854915243473.html?pos=12&kwd=baby carrier&tags=A||||8786.56|Price|product|||MDC|rsf:gd-|-stype:attr=1|qr_nm:gd|res:RC3|com-cf:nl|ptrs:na|ktp:N0|mc:21807|mtp:S|qry_typ:P|lang:en|wc:2|flavl:4|cs:9600|v=4,Jeneve Trutwein,https://www.indiamart.com/jeneve-trutwein/?pos=12&kwd=baby carrier&tags=A||||8786.56|Price|product|||MDC|rsf:gd-|-stype:attr=1|qr_nm:gd|res:RC3|com-cf:nl|ptrs:na|ktp:N0|mc:21807|mtp:S|qry_typ:P|lang:en|wc:2|flavl:4|cs:9600|v=4,False,,Hyderabad,"3rd Floor, Flat NO.302, Hriddhi Residency, Serilingampally, Plot NO.169/27, Rangareddy, Hyderabad - 500019, Dist.Hyderabad, Telangana",8041014428,
"Black Cotton cloth Baby Carrier, Age Group: 3-12 Months, Packaging Type: Poly Bag",https://www.indiamart.com/proddetail/baby-carrier-2854872672891.html?pos=13&kwd=baby carrier&tags=A||||8752.144|Price|product|||MDC|rsf:gd-|-stype:attr=1|qr_nm:gd|res:RC3|com-cf:nl|ptrs:na|ktp:N0|mc:21807|mtp:S|qry_typ:P|lang:en|wc:2|flavl:4|cs:9600|v=4,Boby Kid'S Care,https://www.indiamart.com/boby-kids-care/?pos=13&kwd=baby carrier&tags=A||||8752.144|Price|product|||MDC|rsf:gd-|-stype:attr=1|qr_nm:gd|res:RC3|com-cf:nl|ptrs:na|ktp:N0|mc:21807|mtp:S|qry_typ:P|lang:en|wc:2|flavl:4|cs:9600|v=4,False,Saboli,New Delhi,"Ist Floor, 273, Gali No. 14, Rana Mohalla, Vill. Saboli, Saboli, New Delhi - 110093, Dist.Delhi, Delhi",7942705842,
"Blue Cotton Baby Carrier Bag, Age Group: 3-12 Months",https://www.indiamart.com/proddetail/baby-carrier-bag-2854722814255.html?pos=14&kwd=baby carrier&tags=A||||8211.142|Price|product|||MDC|rsf:gd-|-stype:attr=1|qr_nm:gd|res:RC3|com-cf:nl|ptrs:na|ktp:N0|mc:21807|mtp:S|qry_typ:P|lang:en|wc:2|flavl:4|cs:9600|v=4,Apple Kids,https://www.indiamart.com/applekids-mumbai/?pos=14&kwd=baby carrier&tags=A||||8211.142|Price|product|||MDC|rsf:gd-|-stype:attr=1|qr_nm:gd|res:RC3|com-cf:nl|ptrs:na|ktp:N0|mc:21807|mtp:S|qry_typ:P|lang:en|wc:2|flavl:4|cs:9600|v=4,False,,Mumbai,"Room No 1,211/4, Janu Seth Chawl, Puspa Park, Daftary Road, Malad East Suburban, Mumbai - 400097, Dist.Mumbai, Maharashtra",7949326883,
"Polyester Baby Carrier Bag Black, Age Group: 1-2 Years",https://www.indiamart.com/proddetail/baby-carrier-bag-black-2854418477933.html?pos=15&kwd=baby carrier&tags=A||||8785.791|Price|product|||MDC|rsf:gd-|-stype:attr=1|qr_nm:gd|res:RC3|com-cf:nl|ptrs:na|ktp:N0|mc:21807|mtp:S|qry_typ:P|lang:en|wc:2|cs:8833|v=4,Adinath Handloom,https://www.indiamart.com/adinath-handloom-ghaziabad/?pos=15&kwd=baby carrier&tags=A||||8785.791|Price|product|||MDC|rsf:gd-|-stype:attr=1|qr_nm:gd|res:RC3|com-cf:nl|ptrs:na|ktp:N0|mc:21807|mtp:S|qry_typ:P|lang:en|wc:2|cs:8833|v=4,False,,Ghaziabad,"104, Vill, Asalatpur, Asalatpur Farakh Nagar, Ghaziabad - 201003, Dist.Ghaziabad, Uttar Pradesh",7942711074,
"Blue Cotton Baby Carrier Bag, Age Group: 3-12 Months",https://www.indiamart.com/proddetail/baby-carrier-bag-2854722814255.html?pos=16&kwd=baby carrier&tags=A||||8211.142|Price|product|||MDC|rsf:gd-|-stype:attr=1|qr_nm:gd|res:RC3|com-cf:nl|ptrs:na|ktp:N0|mc:21807|mtp:S|qry_typ:P|lang:en|wc:2|cs:8833|v=4,Apple Kids,https://www.indiamart.com/applekids-mumbai/?pos=16&kwd=baby carrier&tags=A||||8211.142|Price|product|||MDC|rsf:gd-|-stype:attr=1|qr_nm:gd|res:RC3|com-cf:nl|ptrs:na|ktp:N0|mc:21807|mtp:S|qry_typ:P|lang:en|wc:2|cs:8833|v=4,False,,Mumbai,"Room No 1,211/4, Janu Seth Chawl, Puspa Park, Daftary Road, Malad East Suburban, Mumbai - 400097, Dist.Mumbai, Maharashtra",7949326883,
Baby-Carrier-Blossom-4-In-1-Position-Baby-Carrier-Baby-Carrier-Original,https://www.indiamart.com/proddetail/baby-carrier-blossom-4-in-1-position-baby-carrier-baby-carrier-original-24187364933.html?pos=17&kwd=baby carrier&tags=A||||8752.144|Price|product|||TS|rsf:gd-|-stype:attr=1|qr_nm:gd|res:RC3|com-cf:nl|ptrs:na|ktp:N0|mc:21807|mtp:S|qry_typ:P|lang:en|wc:2|cs:8833|v=4,Chinmay Kids,https://www.indiamart.com/chinmaykids/?pos=17&kwd=baby carrier&tags=A||||8752.144|Price|product|||TS|rsf:gd-|-stype:attr=1|qr_nm:gd|res:RC3|com-cf:nl|ptrs:na|ktp:N0|mc:21807|mtp:S|qry_typ:P|lang:en|wc:2|cs:8833|v=4,False,Nayagaon,New Delhi,"C-99, Street No. 4, First Pusta, Nayagaon, New Delhi - 110053, Dist.Delhi, Delhi",8046054858,
"Baby Carrier Sling, Age Group: 3-12 Months",https://www.indiamart.com/proddetail/baby-carrier-sling-2854492577962.html?pos=18&kwd=baby carrier&tags=A||||8211.142|Price|product|||TS|rsf:gd-|-stype:attr=1|qr_nm:gd|res:RC3|com-cf:nl|ptrs:na|ktp:N0|mc:21807|mtp:S|qry_typ:P|lang:en|wc:2|cs:8833|v=4,M N Trading Co.,https://www.mntraders.in/?pos=18&kwd=baby carrier&tags=A||||8211.142|Price|product|||TS|rsf:gd-|-stype:attr=1|qr_nm:gd|res:RC3|com-cf:nl|ptrs:na|ktp:N0|mc:21807|mtp:S|qry_typ:P|lang:en|wc:2|cs:8833|v=4,False,Town Hall,Mumbai,"GRD FLOOR R 19 SABOO SIDDIK ROAD, MANISH MARKET 128, AMANAH SHOPPING CENTRE FORT, Town Hall, Mumbai - 400001, Dist.Mumbai, Maharashtra",8048983957,
Polyester Blue Baby Carrier Bag,https://www.indiamart.com/proddetail/blue-baby-carrier-bag-24262966655.html?pos=19&kwd=baby carrier&tags=A||||8752.144|Price|product|||TS|rsf:gd-|-stype:attr=1|qr_nm:gd|res:RC3|com-cf:nl|ptrs:na|ktp:N0|mc:21807|mtp:S|qry_typ:P|lang:en|wc:2|cs:8833|v=4,H.S. Enterprises,https://www.hsenterprises.net.in/?pos=19&kwd=baby carrier&tags=A||||8752.144|Price|product|||TS|rsf:gd-|-stype:attr=1|qr_nm:gd|res:RC3|com-cf:nl|ptrs:na|ktp:N0|mc:21807|mtp:S|qry_typ:P|lang:en|wc:2|cs:8833|v=4,False,Johripur,New Delhi,"Kh 11/14 E 66 Ramabai Ambedkar Mohalla Jagdamba Colony Johripur, Johripur, New Delhi - 110094, Dist.Delhi, Delhi",7942531730,
Toddler Baby Carrier Baby Hipseat Ergonomic Baby Wrap Sling Travel Backpack,https://www.indiamart.com/proddetail/toddler-baby-carrier-baby-hipseat-ergonomic-baby-wrap-sling-travel-backpack-2853974300791.html?pos=20&kwd=baby carrier&tags=A||||8230.883|Price|product|||TS|rsf:gd-|-stype:attr=1|qr_nm:gd|res:RC3|com-cf:nl|ptrs:na|ktp:N0|mc:21807|mtp:S|qry_typ:P|lang:en|wc:2|cs:8833|v=4,Nika Enterprise,https://www.nikaenterprise.in/?pos=20&kwd=baby carrier&tags=A||||8230.883|Price|product|||TS|rsf:gd-|-stype:attr=1|qr_nm:gd|res:RC3|com-cf:nl|ptrs:na|ktp:N0|mc:21807|mtp:S|qry_typ:P|lang:en|wc:2|cs:8833|v=4,False,,Surat,"1st Floor,, Flat No-102, Plot No-173/174/175, Rs-109,504,, Vitthal Nagar Soc, Dabholi Char Rasta, Katargam, Surat - 395004, Dist.Surat, Gujarat",8047550715,
Cotton white on printed Newborn Baby Cap Set,https://www.indiamart.com/proddetail/newborn-baby-cap-set-2851565208297.html?pos=21&kwd=baby carrier&tags=A||||8668.838|Price|product|||TS|rsf:gd-|-stype:attr=1|qr_nm:gd|res:RC3|com-cf:nl|ptrs:na|ktp:N0|mc:21807|mtp:S|qry_typ:P|lang:en|wc:2|cs:8833|v=4,Meenu's Manchesters,https://www.hotelbedsheet.in/?pos=21&kwd=baby carrier&tags=A||||8668.838|Price|product|||TS|rsf:gd-|-stype:attr=1|qr_nm:gd|res:RC3|com-cf:nl|ptrs:na|ktp:N0|mc:21807|mtp:S|qry_typ:P|lang:en|wc:2|cs:8833|v=4,False,Edayankattuvalsu,Erode,"26, Nggo Colony, 1, Edayankattuvalsu, Erode - 638009, Dist.Erode, Tamil Nadu",8048609221,
"Multicolor Polyster Baby Carrier Bag, Age Group: 3-12 Months",https://www.indiamart.com/proddetail/baby-carrier-bag-2853262393812.html?pos=22&kwd=baby carrier&tags=A||||8752.144|Price|product|||LSnp|rsf:gd-|-stype:attr=1|qr_nm:gd|res:RC3|com-cf:nl|ptrs:na|ktp:N0|mc:21807|mtp:S|qry_typ:P|lang:en|wc:2|cs:8833|v=4,NV Enterprises,https://www.indiamart.com/nventerprise-delhi/?pos=22&kwd=baby carrier&tags=A||||8752.144|Price|product|||LSnp|rsf:gd-|-stype:attr=1|qr_nm:gd|res:RC3|com-cf:nl|ptrs:na|ktp:N0|mc:21807|mtp:S|qry_typ:P|lang:en|wc:2|cs:8833|v=4,False,Shastri Nagar,New Delhi,"D 148, Street No. 2, Swaroop Nagar, Shastri Nagar, New Delhi - 110052, Dist.Delhi, Delhi",7942543916,
Blue & White Cotton 3D Mesh Baby Wraps Carrier,https://www.indiamart.com/proddetail/3d-mesh-baby-wraps-carrier-2852154884197.html?pos=23&kwd=baby carrier&tags=BA||||8230.883|Price|product|||TS|rsf:gd-|-stype:attr=1|qr_nm:gd|res:RC3|com-cf:nl|ptrs:na|ktp:N0|mc:21807|mtp:S|qry_typ:P|lang:en|wc:2|cs:8833|v=4,Trendeasy,https://www.indiamart.com/trendeasy/?pos=23&kwd=baby carrier&tags=BA||||8230.883|Price|product|||TS|rsf:gd-|-stype:attr=1|qr_nm:gd|res:RC3|com-cf:nl|ptrs:na|ktp:N0|mc:21807|mtp:S|qry_typ:P|lang:en|wc:2|cs:8833|v=4,False,Katargam,Surat,"Flat No. E/108, 1st Floor, Suman Sath, Ews-14, B/S Ambyvalley Heights, Utran, Katargam, Surat - 394101, Dist.Surat, Gujarat",8048272248,
Yellow And Black Polyester Baby Carrier Wrap,https://www.indiamart.com/proddetail/polyester-baby-carrier-wrap-2850650074355.html?pos=24&kwd=baby carrier&tags=BA||||8752.144|Price|product|||MDC|rsf:gd-|-stype:attr=1|qr_nm:gd|res:RC3|com-cf:nl|ptrs:na|ktp:N0|mc:21807|mtp:S|qry_typ:P|lang:en|wc:2|cs:8833|v=4,L T Textiles,https://www.indiamart.com/lttextiles/?pos=24&kwd=baby carrier&tags=BA||||8752.144|Price|product|||MDC|rsf:gd-|-stype:attr=1|qr_nm:gd|res:RC3|com-cf:nl|ptrs:na|ktp:N0|mc:21807|mtp:S|qry_typ:P|lang:en|wc:2|cs:8833|v=4,False,Pahari Dhiraj,New Delhi,"5189-90 Main Road, Sadar Bazar, Pahari Dhiraj, New Delhi - 110006, Dist.Delhi, Delhi",7942958455,
Baby Carrier Newborn to Toddler,https://www.indiamart.com/proddetail/baby-carrier-newborn-to-toddler-2853269651330.html?pos=25&kwd=baby carrier&tags=A||||8752.144|Price|product|||TS|rsf:gd-|-stype:attr=1|qr_nm:gd|res:RC3|com-cf:nl|ptrs:na|ktp:N0|mc:21807|mtp:S|qry_typ:P|lang:en|wc:2|cs:8833|v=4,Inquantity,https://www.indiamart.com/inquantity/?pos=25&kwd=baby carrier&tags=A||||8752.144|Price|product|||TS|rsf:gd-|-stype:attr=1|qr_nm:gd|res:RC3|com-cf:nl|ptrs:na|ktp:N0|mc:21807|mtp:S|qry_typ:P|lang:en|wc:2|cs:8833|v=4,False,Shahdara,New Delhi,"1/6258, East Rohtash Nagar, Shahdara, Shahdara, New Delhi - 110032, Dist.Delhi, Delhi",8047620719,
"Pink,Yellow Velvet Baby Carrier, Age Group: 3-12 Months",https://www.indiamart.com/proddetail/velvet-baby-carrier-2854287388791.html?pos=26&kwd=baby carrier&tags=A||||8223.226|Price|product|||MDC|rsf:gd-|-stype:attr=1|qr_nm:gd|res:RC3|com-cf:nl|ptrs:na|ktp:N0|mc:21807|mtp:S|qry_typ:P|lang:en|wc:2|cs:8833|v=4,Royal Baby,https://www.indiamart.com/royal-baby-thane/?pos=26&kwd=baby carrier&tags=A||||8223.226|Price|product|||MDC|rsf:gd-|-stype:attr=1|qr_nm:gd|res:RC3|com-cf:nl|ptrs:na|ktp:N0|mc:21807|mtp:S|qry_typ:P|lang:en|wc:2|cs:8833|v=4,False,,Thane,"Ground Floor, Shop No. 03, Savitri Niwas Mumbai Pune Road, Amrutnagar, Sub Post Office, Mumbra, Thane - 400612, Dist.Thane, Maharashtra",8045734604,
"Breathable Fabric Blue Lightweight Adjustable Baby Sling Carrier, Age Group: 3 Years",https://www.indiamart.com/proddetail/blue-lightweight-adjustable-baby-sling-carrier-2854287584433.html?pos=27&kwd=baby carrier&tags=A||||8752.144|Price|product|||MDC|rsf:gd-|-stype:attr=1|qr_nm:gd|res:RC3|com-cf:nl|ptrs:na|ktp:N0|mc:21807|mtp:S|qry_typ:P|lang:en|wc:2|cs:8833|v=4,Prakhar Enterprises,https://www.indiamart.com/prakharenterprisesdelhi/?pos=27&kwd=baby carrier&tags=A||||8752.144|Price|product|||MDC|rsf:gd-|-stype:attr=1|qr_nm:gd|res:RC3|com-cf:nl|ptrs:na|ktp:N0|mc:21807|mtp:S|qry_typ:P|lang:en|wc:2|cs:8833|v=4,False,,New Delhi,"Second Floor, D-17-B, Unnamed Road, MCD Park, East Of Kailash, South East, New Delhi - 110065, Dist.Delhi, Delhi",8045734664,
Baby Carrier Sling Wrap Baby Carrier Newborn to Toddler Ergonomic 3D Mesh Baby Wraps Carrier,https://www.indiamart.com/proddetail/baby-carrier-sling-wrap-baby-carrier-newborn-to-toddler-ergonomic-3d-mesh-baby-wraps-carrier-2852872411612.html?pos=28&kwd=baby carrier&tags=A||||8230.883|Price|product|||TS|rsf:gd-|-stype:attr=1|qr_nm:gd|res:RC3|com-cf:nl|ptrs:na|ktp:N0|mc:21807|mtp:S|qry_typ:P|lang:en|wc:2|cs:8833|v=4,Pocket Simple,https://www.pocketsimple.in/?pos=28&kwd=baby carrier&tags=A||||8230.883|Price|product|||TS|rsf:gd-|-stype:attr=1|qr_nm:gd|res:RC3|com-cf:nl|ptrs:na|ktp:N0|mc:21807|mtp:S|qry_typ:P|lang:en|wc:2|cs:8833|v=4,False,KATARGAM,Surat,"Gr.Floor, Shop No-20, Pramukh Residency,Omkar Soc, Ved Road, KATARGAM, Surat - 395004, Dist.Surat, Gujarat",7942720597,
Multicolor Fabric Baby Carrier,https://www.indiamart.com/proddetail/baby-carrier-2854515666312.html?pos=29&kwd=baby carrier&tags=A||||8785.791|Price|product|||MDC|rsf:gd-|-stype:attr=1|qr_nm:gd|res:RC3|com-cf:nl|ptrs:na|ktp:N0|mc:21807|mtp:S|qry_typ:P|lang:en|wc:2|cs:8833|v=4,Nihalson Enterprises,https://www.indiamart.com/nihalson-enterprises/?pos=29&kwd=baby carrier&tags=A||||8785.791|Price|product|||MDC|rsf:gd-|-stype:attr=1|qr_nm:gd|res:RC3|com-cf:nl|ptrs:na|ktp:N0|mc:21807|mtp:S|qry_typ:P|lang:en|wc:2|cs:8833|v=4,False,,Ghaziabad,"D-362, Laxmi Garden Loni ,Loni Ghaziabad Road, Indraprashth Awas Yojna, Banthla, Ghaziabad - 201102, Dist.Ghaziabad, Uttar Pradesh",7949336257,
"Black And White COTTON FABRIC ELOSKA WORLD BABY CARRIER BELT, Age Group: 3 TO 48 MONTHS, Packaging Type: Couriar Bag",https://www.indiamart.com/proddetail/eloska-world-baby-carrier-belt-2854741073973.html?pos=30&kwd=baby carrier&tags=A||||8230.883|Price|product|||TS|rsf:gd-|-stype:attr=1|qr_nm:gd|res:RC3|com-cf:nl|ptrs:na|ktp:N0|mc:21807|mtp:S|qry_typ:P|lang:en|wc:2|cs:8833|v=4,Eloska World,https://www.eloskaworld.com/?pos=30&kwd=baby carrier&tags=A||||8230.883|Price|product|||TS|rsf:gd-|-stype:attr=1|qr_nm:gd|res:RC3|com-cf:nl|ptrs:na|ktp:N0|mc:21807|mtp:S|qry_typ:P|lang:en|wc:2|cs:8833|v=4,False,,Surat,"Plot No 73, Akshardeep Society, Opp Gopal Nagar, Singanpore Char Rasta, Ved Road, Katargam, Surat - 395004, Dist.Surat, Gujarat",8047641093,
Assorted Baby Carrier Newborn to Toddler Wrap Carrier,https://www.indiamart.com/proddetail/baby-carrier-newborn-to-toddler-wrap-carrier-2851765642412.html?pos=31&kwd=baby carrier&tags=BA||||8211.142|Price|product|||TS|rsf:gd-|-stype:attr=1|qr_nm:gd|res:RC3|com-cf:nl|ptrs:na|ktp:N0|mc:21807|mtp:S|qry_typ:P|lang:en|wc:2|cs:8833|v=4,Homenity,https://www.homenity.in/?pos=31&kwd=baby carrier&tags=BA||||8211.142|Price|product|||TS|rsf:gd-|-stype:attr=1|qr_nm:gd|res:RC3|com-cf:nl|ptrs:na|ktp:N0|mc:21807|mtp:S|qry_typ:P|lang:en|wc:2|cs:8833|v=4,False,Masjid Bandar,Mumbai,"203, 2nd Floor, Plot-13a Mehajabeen Arcade, Chakala Cross Lane, Mumbai, Mumbai, Maharashtra, Masjid Bandar, Mumbai - 400003, Dist.Mumbai, Maharashtra",8047673711,
Baby Carriers,https://www.indiamart.com/proddetail/baby-carriers-3725500833.html?pos=32&kwd=baby carrier&tags=BA||||8211.142|Price|product|||TS|rsf:gd-|-stype:attr=1|qr_nm:gd|res:RC3|com-cf:nl|ptrs:na|ktp:N0|mc:21807|mtp:S|qry_typ:P|lang:en|wc:2|cs:8833|v=4,Dhrupti Creation,https://www.indiamart.com/littlecare/?pos=32&kwd=baby carrier&tags=BA||||8211.142|Price|product|||TS|rsf:gd-|-stype:attr=1|qr_nm:gd|res:RC3|com-cf:nl|ptrs:na|ktp:N0|mc:21807|mtp:S|qry_typ:P|lang:en|wc:2|cs:8833|v=4,False,Malad East,Mumbai,"Gala No. 3, Jignesh Diamond House, Near Vaishnavdevi Mandir, Subhash Lane, Malad East, Malad East, Mumbai - 400097, Dist.Mumbai, Maharashtra",8048970316,
Mix Polyester Baby travel bags for mothers carry with foldable,https://www.indiamart.com/proddetail/baby-travel-bags-for-mothers-carry-with-foldable-2849211633948.html?pos=33&kwd=baby carrier&tags=BB||||8752.144|Price|product|||TS|rsf:gd-|-stype:attr=1|qr_nm:gd|res:RC3|com-cf:nl|ptrs:na|ktp:N0|mc:21807|mtp:S|qry_typ:P|lang:en|wc:2|cs:8833|v=4,Aman Impex,https://www.myamanimpex.com/?pos=33&kwd=baby carrier&tags=BB||||8752.144|Price|product|||TS|rsf:gd-|-stype:attr=1|qr_nm:gd|res:RC3|com-cf:nl|ptrs:na|ktp:N0|mc:21807|mtp:S|qry_typ:P|lang:en|wc:2|cs:8833|v=4,False,Paschim Vihar,New Delhi,"Flat No. 681, S/F Janta Flats, Pocket-II, Paschim Puri, Paschim Vihar, New Delhi - 110063, Dist.Delhi, Delhi",8048600148,
"Blue COTTON Baby Carrier Bag, Age Group: 3-12 Months",https://www.indiamart.com/proddetail/baby-carrier-bag-2854493307597.html?pos=34&kwd=baby carrier&tags=A||||8752.144|Price|product|||TS|rsf:gd-|-stype:attr=1|qr_nm:gd|res:RC3|com-cf:nl|ptrs:na|ktp:N0|mc:21807|mtp:S|qry_typ:P|lang:en|wc:2|cs:8833|v=4,M.K. Enterprises,https://www.indiamart.com/mk-enterprisesindia/?pos=34&kwd=baby carrier&tags=A||||8752.144|Price|product|||TS|rsf:gd-|-stype:attr=1|qr_nm:gd|res:RC3|com-cf:nl|ptrs:na|ktp:N0|mc:21807|mtp:S|qry_typ:P|lang:en|wc:2|cs:8833|v=4,False,Mandoli,New Delhi,"D-1/792, K.H. NO 38/3, Maharana Pratap School, Sukkar Bazar Road, Behing Jail Road, Harsh Vihar, Mandoli, New Delhi - 110093, Dist.Delhi, Delhi",7942959041,
BABY SLING CARRIER,https://www.indiamart.com/proddetail/baby-sling-carrier-2855007650030.html?pos=35&kwd=baby carrier&tags=A||||8752.144|Price|product|||TS|rsf:gd-|-stype:attr=1|qr_nm:gd|res:RC3|com-cf:nl|ptrs:na|ktp:N0|mc:21807|mtp:S|qry_typ:P|lang:en|wc:2|cs:8833|v=4,M A Enterprises,https://www.maenterprisess.com/?pos=35&kwd=baby carrier&tags=A||||8752.144|Price|product|||TS|rsf:gd-|-stype:attr=1|qr_nm:gd|res:RC3|com-cf:nl|ptrs:na|ktp:N0|mc:21807|mtp:S|qry_typ:P|lang:en|wc:2|cs:8833|v=4,False,azadpur delhi,New Delhi,"Plot No 32b bassment Rameswar nagar Azadpur, azadpur delhi, New Delhi - 110033, Dist.Delhi, Delhi",7949326748,
"Multicolor cotton Baby Sling Carrier, Age Group: 3-12 Months, Packaging Type: Box Packing",https://www.indiamart.com/proddetail/baby-sling-carrier-2853955476630.html?pos=36&kwd=baby carrier&tags=A||||8752.144|Price|product|||TS|rsf:gd-|-stype:attr=1|qr_nm:gd|res:RC3|com-cf:nl|ptrs:na|ktp:N0|mc:21807|mtp:S|qry_typ:P|lang:en|wc:2|cs:8833|v=4,A N Creations,https://www.indiamart.com/ancreations-delhi/?pos=36&kwd=baby carrier&tags=A||||8752.144|Price|product|||TS|rsf:gd-|-stype:attr=1|qr_nm:gd|res:RC3|com-cf:nl|ptrs:na|ktp:N0|mc:21807|mtp:S|qry_typ:P|lang:en|wc:2|cs:8833|v=4,False,Rohini Sector 17,New Delhi,"Iind Floor A-4/175 Sector-17 Rohini North West Delhi, Rohini Sector 17, New Delhi - 110089, Dist.Delhi, Delhi",8047638940,
"Wrist Band COTTON FABRIC ELOSKA WORLD BABY CARRIER BELT, Packaging Type: Couriar Bag, Size: 85 *41 cm",https://www.indiamart.com/proddetail/eloska-world-baby-carrier-belt-2854756113897.html?pos=37&kwd=baby carrier&tags=A||||8230.883|Price|product|||TS|rsf:gd-|-stype:attr=1|qr_nm:gd|res:RC3|com-cf:nl|ptrs:na|ktp:N0|mc:21807|mtp:S|qry_typ:P|lang:en|wc:2|cs:8833|v=4,Eloska World LLP,https://www.indiamart.com/eloskaworld-surat/?pos=37&kwd=baby carrier&tags=A||||8230.883|Price|product|||TS|rsf:gd-|-stype:attr=1|qr_nm:gd|res:RC3|com-cf:nl|ptrs:na|ktp:N0|mc:21807|mtp:S|qry_typ:P|lang:en|wc:2|cs:8833|v=4,False,katargam,Surat,"Ground Floor Plot No-35 Katargam Singanpore Road D M Park Society Near Dhanmora Complex, katargam, Surat - 395004, Dist.Surat, Gujarat",8044457639,
Black Cotton BABY CARRIER NEWBORN TO TODDLER,https://www.indiamart.com/proddetail/baby-carrier-newborn-to-toddler-2853053087388.html?pos=38&kwd=baby carrier&tags=A||||8230.883|Price|product|||TS|rsf:gd-|-stype:attr=1|qr_nm:gd|res:RC3|com-cf:nl|ptrs:na|ktp:N0|mc:21807|mtp:S|qry_typ:P|lang:en|wc:2|cs:8833|v=4,Basketo,https://www.basketo.net/?pos=38&kwd=baby carrier&tags=A||||8230.883|Price|product|||TS|rsf:gd-|-stype:attr=1|qr_nm:gd|res:RC3|com-cf:nl|ptrs:na|ktp:N0|mc:21807|mtp:S|qry_typ:P|lang:en|wc:2|cs:8833|v=4,False,Singanpor,Surat,"PLOT NO-32,Laxmi Narayan Society,DABHOLI CHAR RASTA, VED ROAD,Surat, Singanpor, Surat - 395004, Dist.Surat, Gujarat",7942716532,
"Cotton Carrier For Baby With Safety Belt And Buckle Straps (Blue), Age Group: 2 month - 2 year",https://www.indiamart.com/proddetail/carrier-for-baby-with-safety-belt-and-buckle-straps-blue-2855009213697.html?pos=39&kwd=baby carrier&tags=A||||8230.883|Price|product|||TS|rsf:gd-|-stype:attr=1|qr_nm:gd|res:RC3|com-cf:nl|ptrs:na|ktp:N0|mc:21807|mtp:S|qry_typ:P|lang:en|wc:2|cs:8833|v=4,Aenci Enterprise,https://www.indiamart.com/aencienterprise/?pos=39&kwd=baby carrier&tags=A||||8230.883|Price|product|||TS|rsf:gd-|-stype:attr=1|qr_nm:gd|res:RC3|com-cf:nl|ptrs:na|ktp:N0|mc:21807|mtp:S|qry_typ:P|lang:en|wc:2|cs:8833|v=4,False,,Surat,"Basement, A/2, Lackview Appartment, Near Kasa Nagar, Mota Talav, Japti Faliya, Laxmikant Road Opposite Lackview Garden, Katargam, Surat - 395004, Dist.Surat, Gujarat",7949358264,
Bamboo green Bamboo fabric Baby carier,https://www.indiamart.com/proddetail/baby-carier-27448373188.html?pos=40&kwd=baby carrier&tags=BA||||8584.299|Price|product|||MDC|rsf:gd-|-stype:attr=1|qr_nm:gd|res:RC3|com-cf:nl|ptrs:na|ktp:N0|mc:21807|mtp:S|qry_typ:P|lang:en|wc:2|cs:8833|v=4,Britex,https://www.indiamart.com/britex-coimbatore/?pos=40&kwd=baby carrier&tags=BA||||8584.299|Price|product|||MDC|rsf:gd-|-stype:attr=1|qr_nm:gd|res:RC3|com-cf:nl|ptrs:na|ktp:N0|mc:21807|mtp:S|qry_typ:P|lang:en|wc:2|cs:8833|v=4,False,Sanath Nagar,Coimbatore,"No.1/155A, Mottukaran Thottam, Pathuvampalli , Annur,, Sanath Nagar, Coimbatore - 641659, Dist.Coimbatore, Tamil Nadu",8043853672,
"Adhoniyah Velvet Baby Carry Bed, Newly Born",https://www.indiamart.com/proddetail/velvet-baby-carry-bed-25439700655.html?pos=41&kwd=baby carrier&tags=BA||||8954.051|Price|product|||MDC|rsf:gd-|-stype:attr=1|qr_nm:gd|res:RC3|com-cf:nl|ptrs:na|ktp:N0|mc:21807|mtp:S|qry_typ:P|lang:en|wc:2|cs:8833|v=4,Adhoniyah,https://www.indiamart.com/adhoniyah/?pos=41&kwd=baby carrier&tags=BA||||8954.051|Price|product|||MDC|rsf:gd-|-stype:attr=1|qr_nm:gd|res:RC3|com-cf:nl|ptrs:na|ktp:N0|mc:21807|mtp:S|qry_typ:P|lang:en|wc:2|cs:8833|v=4,False,Jamalia,Chennai,"Ground Floor,5/4,Strahans Road I St Street,Otteri, Jamalia, Chennai - 600012, Dist.Chennai, Tamil Nadu",8048274134,
EV Back Carrier,https://www.indiamart.com/proddetail/ev-back-carrier-2854866249962.html?pos=42&kwd=baby carrier&tags=A||||8769.508|Price|product|||TS|rsf:gd-|-stype:attr=1|qr_nm:gd|res:RC3|com-cf:nl|ptrs:na|ktp:N0|mc:21807|mtp:S|qry_typ:P|lang:en|wc:2|cs:8833|v=4,Autopuri India Private Limited,https://www.indiamart.com/autopuri-india/?pos=42&kwd=baby carrier&tags=A||||8769.508|Price|product|||TS|rsf:gd-|-stype:attr=1|qr_nm:gd|res:RC3|com-cf:nl|ptrs:na|ktp:N0|mc:21807|mtp:S|qry_typ:P|lang:en|wc:2|cs:8833|v=4,False,,Faridabad,"HOUSE NO 1080,,SECTOR 23A,Faridabad House No 1080 Sector 23a,121005, Faridabad - 121005, Dist.Faridabad, Haryana",8041011004,
"Adhoniyah Velvet Baby Carry Bed, Newly Born",https://www.indiamart.com/proddetail/velvet-baby-carry-bed-25439700655.html?pos=43&kwd=baby carrier&tags=BA||||8954.051|Price|product|||MDC|rsf:gd-|-stype:attr=1|qr_nm:gd|res:RC3|com-cf:nl|ptrs:na|ktp:N0|mc:21807|mtp:S|qry_typ:P|lang:en|wc:2|cs:8833|v=4,Adhoniyah,https://www.indiamart.com/adhoniyah/?pos=43&kwd=baby carrier&tags=BA||||8954.051|Price|product|||MDC|rsf:gd-|-stype:attr=1|qr_nm:gd|res:RC3|com-cf:nl|ptrs:na|ktp:N0|mc:21807|mtp:S|qry_typ:P|lang:en|wc:2|cs:8833|v=4,False,Jamalia,Chennai,"Ground Floor,5/4,Strahans Road I St Street,Otteri, Jamalia, Chennai - 600012, Dist.Chennai, Tamil Nadu",8048274134,
EV Back Carrier,https://www.indiamart.com/proddetail/ev-back-carrier-2854866249962.html?pos=44&kwd=baby carrier&tags=A||||8769.508|Price|product|||TS|rsf:gd-|-stype:attr=1|qr_nm:gd|res:RC3|com-cf:nl|ptrs:na|ktp:N0|mc:21807|mtp:S|qry_typ:P|lang:en|wc:2|cs:8833|v=4,Autopuri India Private Limited,https://www.indiamart.com/autopuri-india/?pos=44&kwd=baby carrier&tags=A||||8769.508|Price|product|||TS|rsf:gd-|-stype:attr=1|qr_nm:gd|res:RC3|com-cf:nl|ptrs:na|ktp:N0|mc:21807|mtp:S|qry_typ:P|lang:en|wc:2|cs:8833|v=4,False,,Faridabad,"HOUSE NO 1080,,SECTOR 23A,Faridabad House No 1080 Sector 23a,121005, Faridabad - 121005, Dist.Faridabad, Haryana",8041011004,
Multicolor Soft Fabric Baby Sling,https://www.indiamart.com/proddetail/baby-sling-2852610321073.html?pos=45&kwd=baby carrier&tags=A||||8230.883||product|||TS|rsf:gd-|-stype:attr=1|qr_nm:gd|res:RC3|com-cf:nl|ptrs:na|ktp:N0|mc:21807|mtp:S|qry_typ:P|lang:en|wc:2|cs:8833|v=4,Gadhiya Impex.,https://www.gadhiyaimpex.com/?pos=45&kwd=baby carrier&tags=A||||8230.883||product|||TS|rsf:gd-|-stype:attr=1|qr_nm:gd|res:RC3|com-cf:nl|ptrs:na|ktp:N0|mc:21807|mtp:S|qry_typ:P|lang:en|wc:2|cs:8833|v=4,False,Katargam,Surat,"8th, 804, Variav Road, Panchshila Sky, Katargam, Surat - 394520, Dist.Surat, Gujarat",8047619805,
"Cotton,Net Baby Carrier Sling, Age Group: 3-36 Months",https://www.indiamart.com/proddetail/baby-carrier-sling-2854912637130.html?pos=46&kwd=baby carrier&tags=A||||8230.883|Price|product|||MDC|rsf:gd-|-stype:attr=1|qr_nm:gd|res:RC3|com-cf:nl|ptrs:na|ktp:N0|mc:21807|mtp:S|qry_typ:P|lang:en|wc:2|cs:8833|v=4,SN Enterprise,https://www.indiamart.com/snenterprise-surat/?pos=46&kwd=baby carrier&tags=A||||8230.883|Price|product|||MDC|rsf:gd-|-stype:attr=1|qr_nm:gd|res:RC3|com-cf:nl|ptrs:na|ktp:N0|mc:21807|mtp:S|qry_typ:P|lang:en|wc:2|cs:8833|v=4,False,,Surat,"Plot 130/131, 2nd Floor, Flat 201, Balaji Nagar SOC-1, Shri Siddhi Vinayak Place, Surat - 395004, Dist.Surat, Gujarat",8041015777,
"Grey (base) Cotton Pseudo Adjustable Baby Carrier, Age Group: Newly Born",https://www.indiamart.com/proddetail/pseudo-adjustable-baby-carrier-2855007529855.html?pos=47&kwd=baby carrier&tags=A||||8752.144|Price|product|||MDC|rsf:gd-|-stype:attr=1|qr_nm:gd|res:RC3|com-cf:nl|ptrs:na|ktp:N0|mc:21807|mtp:S|qry_typ:P|lang:en|wc:2|cs:8833|v=4,Dealsup,https://www.indiamart.com/dealsup-north-delhi/?pos=47&kwd=baby carrier&tags=A||||8752.144|Price|product|||MDC|rsf:gd-|-stype:attr=1|qr_nm:gd|res:RC3|com-cf:nl|ptrs:na|ktp:N0|mc:21807|mtp:S|qry_typ:P|lang:en|wc:2|cs:8833|v=4,False,,New Delhi,"Kamal Pur Majra, Khasra No. 7/14, Kamal Vihar, Village Burari North Delhi, New Delhi - 110084, Dist.Delhi, Delhi",7942532252,
Blue & White Cotton 3D Mesh Baby Wraps Carrier,https://www.indiamart.com/proddetail/3d-mesh-baby-wraps-carrier-2852154884197.html?pos=48&kwd=baby carrier&tags=BA||||8230.883|Price|product|||TS|rsf:gd-|-stype:attr=1|qr_nm:gd|res:RC3|com-cf:nl|ptrs:na|ktp:N0|mc:21807|mtp:S|qry_typ:P|lang:en|wc:2|cs:8833|v=4,Trendeasy,https://www.indiamart.com/trendeasy/?pos=48&kwd=baby carrier&tags=BA||||8230.883|Price|product|||TS|rsf:gd-|-stype:attr=1|qr_nm:gd|res:RC3|com-cf:nl|ptrs:na|ktp:N0|mc:21807|mtp:S|qry_typ:P|lang:en|wc:2|cs:8833|v=4,False,Katargam,Surat,"Flat No. E/108, 1st Floor, Suman Sath, Ews-14, B/S Ambyvalley Heights, Utran, Katargam, Surat - 394101, Dist.Surat, Gujarat",8048272248,
Cotton Baby Carrier,https://www.indiamart.com/proddetail/cotton-baby-carrier-2854493552212.html?pos=49&kwd=baby carrier&tags=BA||||8954.051|Price|product|||MDC|rsf:gd-|-stype:attr=1|qr_nm:gd|res:RC3|com-cf:nl|ptrs:na|ktp:N0|mc:21807|mtp:S|qry_typ:P|lang:en|wc:2|cs:8833|v=4,Earthwise Collective Private Limited,https://www.indiamart.com/earthwise-collective/?pos=49&kwd=baby carrier&tags=BA||||8954.051|Price|product|||MDC|rsf:gd-|-stype:attr=1|qr_nm:gd|res:RC3|com-cf:nl|ptrs:na|ktp:N0|mc:21807|mtp:S|qry_typ:P|lang:en|wc:2|cs:8833|v=4,False,,Chennai,"9/2, 35/2, Bagirathiammal Street, T Nagar,, Chennai - 600017, Dist.Chennai, Tamil Nadu",7942801118,
Yellow And Black Polyester Baby Carrier Wrap,https://www.indiamart.com/proddetail/polyester-baby-carrier-wrap-2850650074355.html?pos=50&kwd=baby carrier&tags=BA||||8752.144|Price|product|||MDC|rsf:gd-|-stype:attr=1|qr_nm:gd|res:RC3|com-cf:nl|ptrs:na|ktp:N0|mc:21807|mtp:S|qry_typ:P|lang:en|wc:2|cs:8833|v=4,L T Textiles,https://www.indiamart.com/lttextiles/?pos=50&kwd=baby carrier&tags=BA||||8752.144|Price|product|||MDC|rsf:gd-|-stype:attr=1|qr_nm:gd|res:RC3|com-cf:nl|ptrs:na|ktp:N0|mc:21807|mtp:S|qry_typ:P|lang:en|wc:2|cs:8833|v=4,False,Pahari Dhiraj,New Delhi,"5189-90 Main Road, Sadar Bazar, Pahari Dhiraj, New Delhi - 110006, Dist.Delhi, Delhi",7942958455,
"Little Innocents Multicolor Baby Carrier - Panda, Packaging Type: Box",https://www.indiamart.com/proddetail/baby-carrier-panda-18999302191.html?pos=51&kwd=baby carrier&tags=BA||||8211.142|Price|product|||TS|rsf:gd-|-stype:attr=1|qr_nm:gd|res:RC3|com-cf:nl|ptrs:na|ktp:N0|mc:21807|mtp:S|qry_typ:P|lang:en|wc:2|cs:8833|v=4,Welcome Enterprise,https://www.welcomeenterprise.in/?pos=51&kwd=baby carrier&tags=BA||||8211.142|Price|product|||TS|rsf:gd-|-stype:attr=1|qr_nm:gd|res:RC3|com-cf:nl|ptrs:na|ktp:N0|mc:21807|mtp:S|qry_typ:P|lang:en|wc:2|cs:8833|v=4,False,Santacruz West,Mumbai,"1,Gulam Rasul Chawl No. 149,Khot Wadi, Besant Road,Santacruz West, Santacruz West, Mumbai - 400054, Dist.Mumbai, Maharashtra",8048601972,
Multicolor Baby Carrier Bag,https://www.indiamart.com/proddetail/baby-carrier-bag-2850636534991.html?pos=52&kwd=baby carrier&tags=BA||||8752.144|Price|product|||TS|rsf:gd-|-stype:attr=1|qr_nm:gd|res:RC3|com-cf:nl|ptrs:na|ktp:N0|mc:21807|mtp:S|qry_typ:P|lang:en|wc:2|cs:8833|v=4,Mom & Son,https://www.theindianchoice.com/?pos=52&kwd=baby carrier&tags=BA||||8752.144|Price|product|||TS|rsf:gd-|-stype:attr=1|qr_nm:gd|res:RC3|com-cf:nl|ptrs:na|ktp:N0|mc:21807|mtp:S|qry_typ:P|lang:en|wc:2|cs:8833|v=4,False,Karawal Nagar,New Delhi,"B-57 Gali Number-1 Mukund Vihar, Near Pnb Bank, Karawal Nagar, New Delhi - 110094, Dist.Delhi, Delhi",7942565509,
"Blue Cotton Baby Sleeping Bag, Newly Born",https://www.indiamart.com/proddetail/blue-cotton-baby-sleeping-bag-2853993464930.html?pos=53&kwd=baby carrier&tags=BB||||8752.144|Price|product|||MDC|rsf:gd-|-stype:attr=1|qr_nm:gd|res:RC3|com-cf:nl|ptrs:na|ktp:N0|mc:21807|mtp:S|qry_typ:P|lang:en|wc:2|cs:8833|v=4,A.D. Enterprises,https://www.indiamart.com/adenterprises-burari-newdelhi/?pos=53&kwd=baby carrier&tags=BB||||8752.144|Price|product|||MDC|rsf:gd-|-stype:attr=1|qr_nm:gd|res:RC3|com-cf:nl|ptrs:na|ktp:N0|mc:21807|mtp:S|qry_typ:P|lang:en|wc:2|cs:8833|v=4,False,North,New Delhi,"K.No-12/1, Main 25 FT. Road, Near Shyam Sweets, Uttranchal Enclave ,Kamal Pur, Burari, North, New Delhi - 110084, Dist.Delhi, Delhi",8044565004,
Resin NATURAL IDEAS MINIMALIST BABY KIDS GIFT,https://www.indiamart.com/proddetail/natural-ideas-minimalist-baby-kids-gift-2854895325673.html?pos=54&kwd=baby carrier&tags=BB||||8230.883|Price|product|||MDC|rsf:gd-|-stype:attr=1|qr_nm:gd|res:RC3|com-cf:nl|ptrs:na|ktp:N0|mc:21807|mtp:S|qry_typ:P|lang:en|wc:2|cs:8833|v=4,Balar Corporation,https://www.indiamart.com/balar-corporation/?pos=54&kwd=baby carrier&tags=BB||||8230.883|Price|product|||MDC|rsf:gd-|-stype:attr=1|qr_nm:gd|res:RC3|com-cf:nl|ptrs:na|ktp:N0|mc:21807|mtp:S|qry_typ:P|lang:en|wc:2|cs:8833|v=4,False,,Surat,"C-504, Rameshvaram Regency, Utran, Surat - 394105, Dist.Surat, Gujarat",8045734410,
White & Blue Polyester 4 In 1 Adjustable Baby Carrier Bag,https://www.indiamart.com/proddetail/white-blue-polyester-4-in-1-adjustable-baby-carrier-bag-24090884312.html?pos=55&kwd=baby carrier&tags=BB||||8752.144|Price|product|||TS|rsf:gd-|-stype:attr=1|qr_nm:gd|res:RC3|com-cf:nl|ptrs:na|ktp:N0|mc:21807|mtp:S|qry_typ:P|lang:en|wc:2|cs:8833|v=4,Olivia International,https://www.indiamart.com/oliviainternational/?pos=55&kwd=baby carrier&tags=BB||||8752.144|Price|product|||TS|rsf:gd-|-stype:attr=1|qr_nm:gd|res:RC3|com-cf:nl|ptrs:na|ktp:N0|mc:21807|mtp:S|qry_typ:P|lang:en|wc:2|cs:8833|v=4,False,Mehrauli,New Delhi,"First Floor ,F-59 Lado Sarai, Mehrauli, New Delhi - 110030, Dist.Delhi, Delhi",7942558296,
"Multicolor Fabrics Baby Carrier, Age Group: 3-12 Months",https://www.indiamart.com/proddetail/baby-carrier-2853390405730.html?pos=56&kwd=baby carrier&tags=BA||||8747.203|Price|product|||TS|rsf:gd-|-stype:attr=1|qr_nm:gd|res:RC3|com-cf:nl|ptrs:na|ktp:N0|mc:21807|mtp:S|qry_typ:P|lang:en|wc:2|cs:8833|v=4,Paras Blanket,https://www.parasblanket.com/?pos=56&kwd=baby carrier&tags=BA||||8747.203|Price|product|||TS|rsf:gd-|-stype:attr=1|qr_nm:gd|res:RC3|com-cf:nl|ptrs:na|ktp:N0|mc:21807|mtp:S|qry_typ:P|lang:en|wc:2|cs:8833|v=4,False,Old Housing Board Colony,Panipat,"Shop No. 1, 2, 3, New Pachranga Market Pachranga Bazar, Old Housing Board Colony, Panipat - 132103, Dist.Panipat, Haryana",8048968656,
Red Shoulder Baby Carrier,https://www.indiamart.com/proddetail/shoulder-baby-carrier-20016698891.html?pos=57&kwd=baby carrier&tags=BA||||8752.144|Price|product|||TS|rsf:gd-|-stype:attr=1|qr_nm:gd|res:RC3|com-cf:nl|ptrs:na|ktp:N0|mc:21807|mtp:S|qry_typ:P|lang:en|wc:2|cs:8833|v=4,NK Enterprises,https://www.smartonlineselling.com/?pos=57&kwd=baby carrier&tags=BA||||8752.144|Price|product|||TS|rsf:gd-|-stype:attr=1|qr_nm:gd|res:RC3|com-cf:nl|ptrs:na|ktp:N0|mc:21807|mtp:S|qry_typ:P|lang:en|wc:2|cs:8833|v=4,False,Nangloi,New Delhi,"F-29, DSIDC Complex, Main Rohtak Road, Nangloi, New Delhi - 110041, Dist.Delhi, Delhi",8048611321,
"Red Cotton Baby Carrier, Age Group: 3-12 Months",https://www.indiamart.com/proddetail/baby-carrier-21423054288.html?pos=58&kwd=baby carrier&tags=BA||||8752.144|Price|product|||TS|rsf:gd-|-stype:attr=1|qr_nm:gd|res:RC3|com-cf:nl|ptrs:na|ktp:N0|mc:21807|mtp:S|qry_typ:P|lang:en|wc:2|cs:8833|v=4,Ashish Trading Co.,https://www.indiamart.com/ashish-trading/?pos=58&kwd=baby carrier&tags=BA||||8752.144|Price|product|||TS|rsf:gd-|-stype:attr=1|qr_nm:gd|res:RC3|com-cf:nl|ptrs:na|ktp:N0|mc:21807|mtp:S|qry_typ:P|lang:en|wc:2|cs:8833|v=4,False,Shalimar Bagh,New Delhi,"BC- 67 A, East Shalimar Bagh, Kela Godown Road Shalimar, Shalimar Bagh, New Delhi - 110088, Dist.Delhi, Delhi",8048979347,
Baby Carriers,https://www.indiamart.com/proddetail/baby-carriers-3725500833.html?pos=59&kwd=baby carrier&tags=BA||||8211.142|Price|product|||TS|rsf:gd-|-stype:attr=1|qr_nm:gd|res:RC3|com-cf:nl|ptrs:na|ktp:N0|mc:21807|mtp:S|qry_typ:P|lang:en|wc:2|cs:8833|v=4,Dhrupti Creation,https://www.indiamart.com/littlecare/?pos=59&kwd=baby carrier&tags=BA||||8211.142|Price|product|||TS|rsf:gd-|-stype:attr=1|qr_nm:gd|res:RC3|com-cf:nl|ptrs:na|ktp:N0|mc:21807|mtp:S|qry_typ:P|lang:en|wc:2|cs:8833|v=4,False,Malad East,Mumbai,"Gala No. 3, Jignesh Diamond House, Near Vaishnavdevi Mandir, Subhash Lane, Malad East, Malad East, Mumbai - 400097, Dist.Mumbai, Maharashtra",8048970316,
Blue and White Polyester Baby Carrier Bag,https://www.indiamart.com/proddetail/baby-carrier-bag-23025516162.html?pos=60&kwd=baby carrier&tags=BA||||8752.144|Price|product|||TS|rsf:gd-|-stype:attr=1|qr_nm:gd|res:RC3|com-cf:nl|ptrs:na|ktp:N0|mc:21807|mtp:S|qry_typ:P|lang:en|wc:2|cs:8833|v=4,Marvels,https://www.indiamart.com/marvels/?pos=60&kwd=baby carrier&tags=BA||||8752.144|Price|product|||TS|rsf:gd-|-stype:attr=1|qr_nm:gd|res:RC3|com-cf:nl|ptrs:na|ktp:N0|mc:21807|mtp:S|qry_typ:P|lang:en|wc:2|cs:8833|v=4,False,Libaspur,New Delhi,"D247 street no 3 swaroop nagar delhi, Libaspur, New Delhi - 110042, Dist.Delhi, Delhi",8046075963,
"Red Cloth Baby Wrap Carrier, Age Group: 3-12 Months",https://www.indiamart.com/proddetail/baby-wrap-carrier-2853202867673.html?pos=61&kwd=baby carrier&tags=BA||||8752.144|Price|product|||TS|rsf:gd-|-stype:attr=1|qr_nm:gd|res:RC3|com-cf:nl|ptrs:na|ktp:N0|mc:21807|mtp:S|qry_typ:P|lang:en|wc:2|cs:8833|v=4,Balak Creations,https://www.indiamart.com/balak-creations/?pos=61&kwd=baby carrier&tags=BA||||8752.144|Price|product|||TS|rsf:gd-|-stype:attr=1|qr_nm:gd|res:RC3|com-cf:nl|ptrs:na|ktp:N0|mc:21807|mtp:S|qry_typ:P|lang:en|wc:2|cs:8833|v=4,False,Jahangirpuri,New Delhi,"Plot No. 32 BLK-E, Third Floor, At SMA, Industrial Area, GTB Road, Jahangirpuri, New Delhi - 110033, Dist.Delhi, Delhi",7942548459,
Baby siling Carrier,https://www.indiamart.com/proddetail/baby-siling-carrier-2851962484791.html?pos=62&kwd=baby carrier&tags=BA||||8752.144|Price|product|||TS|rsf:gd-|-stype:attr=1|qr_nm:gd|res:RC3|com-cf:nl|ptrs:na|ktp:N0|mc:21807|mtp:S|qry_typ:P|lang:en|wc:2|cs:8833|v=4,Bankey Bihari Enterprises,https://www.indiamart.com/bankey-bihari-enterprisesnewdelhi/?pos=62&kwd=baby carrier&tags=BA||||8752.144|Price|product|||TS|rsf:gd-|-stype:attr=1|qr_nm:gd|res:RC3|com-cf:nl|ptrs:na|ktp:N0|mc:21807|mtp:S|qry_typ:P|lang:en|wc:2|cs:8833|v=4,False,Jahangirpuri,New Delhi,"Plot No 51 First Floor Street No 11 Harijan Colony Village Bhalsva, Jahangirpuri, New Delhi - 110033, Dist.Delhi, Delhi",7942825166,
"Little Innocents Multicolor Baby Carrier - Panda, Packaging Type: Box",https://www.indiamart.com/proddetail/baby-carrier-panda-18999302191.html?pos=63&kwd=baby carrier&tags=BA||||8211.142|Price|product|||TS|rsf:gd-|-stype:attr=1|qr_nm:gd|res:RC3|com-cf:nl|ptrs:na|ktp:N0|mc:21807|mtp:S|qry_typ:P|lang:en|wc:2|cs:8833|v=4,Welcome Enterprise,https://www.welcomeenterprise.in/?pos=63&kwd=baby carrier&tags=BA||||8211.142|Price|product|||TS|rsf:gd-|-stype:attr=1|qr_nm:gd|res:RC3|com-cf:nl|ptrs:na|ktp:N0|mc:21807|mtp:S|qry_typ:P|lang:en|wc:2|cs:8833|v=4,False,Santacruz West,Mumbai,"1,Gulam Rasul Chawl No. 149,Khot Wadi, Besant Road,Santacruz West, Santacruz West, Mumbai - 400054, Dist.Mumbai, Maharashtra",8048601972,
Kidoyzz Kangaroo Bag Baby Carrier,https://www.indiamart.com/proddetail/kangaroo-bag-baby-carrier-21082449555.html?pos=64&kwd=baby carrier&tags=BA||||8752.144|Price|product|||TS|rsf:gd-|-stype:attr=1|qr_nm:gd|res:RC3|com-cf:nl|ptrs:na|ktp:N0|mc:21807|mtp:S|qry_typ:P|lang:en|wc:2|cs:8833|v=4,Shaifali Traders,https://www.shopphiez.com/?pos=64&kwd=baby carrier&tags=BA||||8752.144|Price|product|||TS|rsf:gd-|-stype:attr=1|qr_nm:gd|res:RC3|com-cf:nl|ptrs:na|ktp:N0|mc:21807|mtp:S|qry_typ:P|lang:en|wc:2|cs:8833|v=4,False,PATPARGANJ,New Delhi,"Plot No 10, main road patparganj ganj, PATPARGANJ, New Delhi - 110091, Dist.Delhi, Delhi",8046033629,
Baby Carrier Bag,https://www.indiamart.com/proddetail/baby-carrier-bag-20319128233.html?pos=65&kwd=baby carrier&tags=BB||||8752.144|Price|product|||TS|rsf:gd-|-stype:attr=1|qr_nm:gd|res:RC3|com-cf:nl|ptrs:na|ktp:N0|mc:21807|mtp:S|qry_typ:P|lang:en|wc:2|cs:8833|v=4,Gyasi Ram & Associates,https://www.indiamart.com/gyasiram/?pos=65&kwd=baby carrier&tags=BB||||8752.144|Price|product|||TS|rsf:gd-|-stype:attr=1|qr_nm:gd|res:RC3|com-cf:nl|ptrs:na|ktp:N0|mc:21807|mtp:S|qry_typ:P|lang:en|wc:2|cs:8833|v=4,False,Delhi Sadar Bazar,New Delhi,"458, Main Road, Sadar Bazar Near Bara Tooti Chowk, Delhi Sadar Bazar, New Delhi - 110006, Dist.Delhi, Delhi",8046043034,
Multicolor Soft Fabric Baby Carrier Bed,https://www.indiamart.com/proddetail/baby-carrier-bed-18133531273.html?pos=66&kwd=baby carrier&tags=BA||||8584.299|Price|product|||TS|rsf:gd-|-stype:attr=1|qr_nm:gd|res:RC3|com-cf:nl|ptrs:na|ktp:N0|mc:21807|mtp:S|qry_typ:P|lang:en|wc:2|cs:8833|v=4,Sag Industries,https://www.sagbabygro.com/?pos=66&kwd=baby carrier&tags=BA||||8584.299|Price|product|||TS|rsf:gd-|-stype:attr=1|qr_nm:gd|res:RC3|com-cf:nl|ptrs:na|ktp:N0|mc:21807|mtp:S|qry_typ:P|lang:en|wc:2|cs:8833|v=4,False,Ashok Nagar,Coimbatore,"59,,SRI KRISHNA NAGAR,CHOKKAMPUDUR ROAD, Ashok Nagar, Coimbatore - 641001, Dist.Coimbatore, Tamil Nadu",8048959921,
"Tetra MC-002 Me Tai Baby Carriers, Age Group: 3-12 Months",https://www.indiamart.com/proddetail/mc-002-me-tai-baby-carriers-22159161173.html?pos=67&kwd=baby carrier&tags=BA||||8954.051|Price|product|||TS|rsf:gd-|-stype:attr=1|qr_nm:gd|res:RC3|com-cf:nl|ptrs:na|ktp:N0|mc:21807|mtp:S|qry_typ:P|lang:en|wc:2|cs:8833|v=4,Tetra Clothing,https://www.tetraclothing.in/?pos=67&kwd=baby carrier&tags=BA||||8954.051|Price|product|||TS|rsf:gd-|-stype:attr=1|qr_nm:gd|res:RC3|com-cf:nl|ptrs:na|ktp:N0|mc:21807|mtp:S|qry_typ:P|lang:en|wc:2|cs:8833|v=4,True,Gopichettipalaiyam,Chennai,"No. 59/28, Balu Building, Gopichettipalaiyam, Chennai - 638476, Dist.Chennai, Tamil Nadu",8048957951,
Baby Carrier Bag,https://www.indiamart.com/proddetail/baby-carrier-bag-2852116616148.html?pos=68&kwd=baby carrier&tags=BA||||8663.873|Price|product|||TS|rsf:gd-|-stype:attr=1|qr_nm:gd|res:RC3|com-cf:nl|ptrs:na|ktp:N0|mc:21807|mtp:S|qry_typ:P|lang:en|wc:2|cs:8833|v=4,Ratnaakar Impex,https://www.indiamart.com/ratnaakarimpex/?pos=68&kwd=baby carrier&tags=BA||||8663.873|Price|product|||TS|rsf:gd-|-stype:attr=1|qr_nm:gd|res:RC3|com-cf:nl|ptrs:na|ktp:N0|mc:21807|mtp:S|qry_typ:P|lang:en|wc:2|cs:8833|v=4,False,Dharmarayaswamy Temple Street,Bengaluru,"6th Floor, No.6/2, Shop-1, Luciya City Center,Next To Sharada Talkies, OTC Road, Dharmarayaswamy Temple Street, Bengaluru - 560002, Dist.Bengaluru, Karnataka",7942843226,
Multicolor Baby Carrier Bag,https://www.indiamart.com/proddetail/baby-carrier-bag-2850636534991.html?pos=69&kwd=baby carrier&tags=BA||||8752.144|Price|product|||TS|rsf:gd-|-stype:attr=1|qr_nm:gd|res:RC3|com-cf:nl|ptrs:na|ktp:N0|mc:21807|mtp:S|qry_typ:P|lang:en|wc:2|cs:8833|v=4,Mom & Son,https://www.theindianchoice.com/?pos=69&kwd=baby carrier&tags=BA||||8752.144|Price|product|||TS|rsf:gd-|-stype:attr=1|qr_nm:gd|res:RC3|com-cf:nl|ptrs:na|ktp:N0|mc:21807|mtp:S|qry_typ:P|lang:en|wc:2|cs:8833|v=4,False,Karawal Nagar,New Delhi,"B-57 Gali Number-1 Mukund Vihar, Near Pnb Bank, Karawal Nagar, New Delhi - 110094, Dist.Delhi, Delhi",7942565509,
Multicolor Soft Fabric Baby Carrier Bag,https://www.indiamart.com/proddetail/baby-carrier-bag-2850783328155.html?pos=70&kwd=baby carrier&tags=BA||||8752.144|Price|product|||TS|rsf:gd-|-stype:attr=1|qr_nm:gd|res:RC3|com-cf:nl|ptrs:na|ktp:N0|mc:21807|mtp:S|qry_typ:P|lang:en|wc:2|cs:8833|v=4,Rishb Enterprises,https://www.rishbenterprises.com/?pos=70&kwd=baby carrier&tags=BA||||8752.144|Price|product|||TS|rsf:gd-|-stype:attr=1|qr_nm:gd|res:RC3|com-cf:nl|ptrs:na|ktp:N0|mc:21807|mtp:S|qry_typ:P|lang:en|wc:2|cs:8833|v=4,False,Patel Nagar West,New Delhi,"Office No. F-233a, Gaytri Colony Punjabi Basti near Ramjas cricket ground, Patel Nagar West, New Delhi - 110008, Dist.Delhi, Delhi",8046049081,
"Multicolor Baby Carrier Bag, Age Group: Newly Born, Packaging Type: Box",https://www.indiamart.com/proddetail/baby-carrier-bag-2855002487530.html?pos=71&kwd=baby carrier&tags=BB||||8752.144|Price|product|||TS|rsf:gd-|-stype:attr=1|qr_nm:gd|res:RC3|com-cf:nl|ptrs:na|ktp:N0|mc:21807|mtp:S|qry_typ:P|lang:en|wc:2|cs:8833|v=4,Indial Premium Products,https://www.indiamart.com/indial-premium-products/?pos=71&kwd=baby carrier&tags=BB||||8752.144|Price|product|||TS|rsf:gd-|-stype:attr=1|qr_nm:gd|res:RC3|com-cf:nl|ptrs:na|ktp:N0|mc:21807|mtp:S|qry_typ:P|lang:en|wc:2|cs:8833|v=4,False,,New Delhi,"68, K Block, Jahangirpuri North West Delhi, New Delhi - 110033, Dist.Delhi, Delhi",8045732973,
Multicolor Soft Fabric Baby Carrier Bag,https://www.indiamart.com/proddetail/baby-carrier-bag-2852092234848.html?pos=72&kwd=baby carrier&tags=BA||||8752.144|Price|product|||TS|rsf:gd-|-stype:attr=1|qr_nm:gd|res:RC3|com-cf:nl|ptrs:na|ktp:N0|mc:21807|mtp:S|qry_typ:P|lang:en|wc:2|cs:8833|v=4,Industrial Engineering Services,https://www.indiamart.com/industrialengineeringservices/?pos=72&kwd=baby carrier&tags=BA||||8752.144|Price|product|||TS|rsf:gd-|-stype:attr=1|qr_nm:gd|res:RC3|com-cf:nl|ptrs:na|ktp:N0|mc:21807|mtp:S|qry_typ:P|lang:en|wc:2|cs:8833|v=4,False,Sadar Bazar,New Delhi,"No. 1376, Faiz Ganj, Bahadurgarh Road, Sadar Bazar, New Delhi - 110006, Dist.Delhi, Delhi",8048602148,
Multicolor Polyster Baby Carrier Bag,https://www.indiamart.com/proddetail/baby-carrier-bag-21790519097.html?pos=73&kwd=baby carrier&tags=BA||||8752.144|Price|product|||TS|rsf:gd-|-stype:attr=1|qr_nm:gd|res:RC3|com-cf:nl|ptrs:na|ktp:N0|mc:21807|mtp:S|qry_typ:P|lang:en|wc:2|cs:8833|v=4,Shree Balaji Infant Wear,https://www.indiamart.com/chhotejanab/?pos=73&kwd=baby carrier&tags=BA||||8752.144|Price|product|||TS|rsf:gd-|-stype:attr=1|qr_nm:gd|res:RC3|com-cf:nl|ptrs:na|ktp:N0|mc:21807|mtp:S|qry_typ:P|lang:en|wc:2|cs:8833|v=4,False,Pahari Dhiraj,New Delhi,"1583- 84, Hathi Khana, Aziz Ganj, Bahadur Garh Road, Pahari Dhiraj, New Delhi - 110006, Dist.Delhi, Delhi",8047639754,
"Red Cotton Baby Carrier, Age Group: Newly Born",https://www.indiamart.com/proddetail/cotton-baby-carrier-25992378212.html?pos=74&kwd=baby carrier&tags=BA||||8230.883|Price|product|||TS|rsf:gd-|-stype:attr=1|qr_nm:gd|res:RC3|com-cf:nl|ptrs:na|ktp:N0|mc:21807|mtp:S|qry_typ:P|lang:en|wc:2|cs:8833|v=4,Quality Zone,https://www.qualityzoneindia.com/?pos=74&kwd=baby carrier&tags=BA||||8230.883|Price|product|||TS|rsf:gd-|-stype:attr=1|qr_nm:gd|res:RC3|com-cf:nl|ptrs:na|ktp:N0|mc:21807|mtp:S|qry_typ:P|lang:en|wc:2|cs:8833|v=4,False,Dabholi,Surat,"Plot No-17, Sy No-93/94, 1st Floor, Om Satyam Nagar Society, Ved Road, Dabholi Char Rasta, Dabholi, Surat - 395004, Dist.Surat, Gujarat",8048971766,
Baby Carrier Cuddler,https://www.indiamart.com/proddetail/baby-carrier-cuddler-22387432930.html?pos=75&kwd=baby carrier&tags=BB||||8281.036|Price|product|||TS|rsf:gd-|-stype:attr=1|qr_nm:gd|res:RC3|com-cf:nl|ptrs:na|ktp:N0|mc:21807|mtp:S|qry_typ:P|lang:en|wc:2|cs:8833|v=4,Sanchi Creation,https://www.indiamart.com/sanchi-creation-vadodara/?pos=75&kwd=baby carrier&tags=BB||||8281.036|Price|product|||TS|rsf:gd-|-stype:attr=1|qr_nm:gd|res:RC3|com-cf:nl|ptrs:na|ktp:N0|mc:21807|mtp:S|qry_typ:P|lang:en|wc:2|cs:8833|v=4,False,H Chaturbhai Park Warasia Ring Road Vadodara,Vadodara,"Kalamandir Lane, Mangal Bazar, H Chaturbhai Park Warasia Ring Road Vadodara, Vadodara - 390006, Dist.Vadodara, Gujarat",8047632435,
Blue Soft Fabric Tallin Adjustable Baby Sling Carrier for Newborn baby carrier,https://www.indiamart.com/proddetail/tallin-adjustable-baby-sling-carrier-for-newborn-baby-carrier-2851722837573.html?pos=76&kwd=baby carrier&tags=BA||||8230.883|Price|product|||TS|rsf:gd-|-stype:attr=1|qr_nm:gd|res:RC3|com-cf:nl|ptrs:na|ktp:N0|mc:21807|mtp:S|qry_typ:P|lang:en|wc:2|cs:8833|v=4,Tallin Sales,https://www.indiamart.com/tallin-sales/?pos=76&kwd=baby carrier&tags=BA||||8230.883|Price|product|||TS|rsf:gd-|-stype:attr=1|qr_nm:gd|res:RC3|com-cf:nl|ptrs:na|ktp:N0|mc:21807|mtp:S|qry_typ:P|lang:en|wc:2|cs:8833|v=4,False,Singanpor,Surat,"Lakshmi Enclave Basement near Gajera School, Singanpor, Surat - 395004, Dist.Surat, Gujarat",7942542891,
Kangaroo Bag Baby Carrier,https://www.indiamart.com/proddetail/kangaroo-bag-baby-carrier-2853926858230.html?pos=77&kwd=baby carrier&tags=BA||||8663.873|Price|product|||TS|rsf:gd-|-stype:attr=1|qr_nm:gd|res:RC3|com-cf:nl|ptrs:na|ktp:N0|mc:21807|mtp:S|qry_typ:P|lang:en|wc:2|cs:8833|v=4,Trekkers,https://www.indiamart.com/trekkers-karnataka/?pos=77&kwd=baby carrier&tags=BA||||8663.873|Price|product|||TS|rsf:gd-|-stype:attr=1|qr_nm:gd|res:RC3|com-cf:nl|ptrs:na|ktp:N0|mc:21807|mtp:S|qry_typ:P|lang:en|wc:2|cs:8833|v=4,False,Nelamangala,Bengaluru,"SLR Conventional Hall, No.1309, Juniour College Road, Nelamangala, Hassan, Nelamangala, Bengaluru - 562123, Dist.Bengaluru, Karnataka",8047790381,
Cotton Baby Carrier Cum Kangaroo Bag,https://www.indiamart.com/proddetail/baby-carrier-cum-kangaroo-bag-22826977597.html?pos=78&kwd=baby carrier&tags=BA||||8211.142|Price|product|||TS|rsf:gd-|-stype:attr=1|qr_nm:gd|res:RC3|com-cf:nl|ptrs:na|ktp:N0|mc:21807|mtp:S|qry_typ:P|lang:en|wc:2|cs:8833|v=4,Child King Creation,https://www.indiamart.com/childkingcreation-mumbai/?pos=78&kwd=baby carrier&tags=BA||||8211.142|Price|product|||TS|rsf:gd-|-stype:attr=1|qr_nm:gd|res:RC3|com-cf:nl|ptrs:na|ktp:N0|mc:21807|mtp:S|qry_typ:P|lang:en|wc:2|cs:8833|v=4,False,Malad West,Mumbai,"B 705, Seven Floor, Jagmagia Centre, Mamlatdar Wadi EXTN Road Nahar Nagar, Malad West, Suburban, Malad West, Mumbai - 400064, Dist.Mumbai, Maharashtra",8043805922,
Kangaroo Bag Baby Carrier,https://www.indiamart.com/proddetail/kangaroo-bag-baby-carrier-2854104563455.html?pos=79&kwd=baby carrier&tags=BA||||8752.144|Price|product|||TS|rsf:gd-|-stype:attr=1|qr_nm:gd|res:RC3|com-cf:nl|ptrs:na|ktp:N0|mc:21807|mtp:S|qry_typ:P|lang:en|wc:2|cs:8833|v=4,Arti Enterprises,https://www.indiamart.com/arti-enterprisesnew-delhi/?pos=79&kwd=baby carrier&tags=BA||||8752.144|Price|product|||TS|rsf:gd-|-stype:attr=1|qr_nm:gd|res:RC3|com-cf:nl|ptrs:na|ktp:N0|mc:21807|mtp:S|qry_typ:P|lang:en|wc:2|cs:8833|v=4,False,Vinod Nagar West,New Delhi,"F 54, Gali No 2, Vinod Nagar West, East Delhi, Vinod Nagar West, New Delhi - 110092, Dist.Delhi, Delhi",7942964853,
"Dark Blue POLISTER LUVLAP ELEGANT BABY CARRIER, Age Group: 4 TO 24 MONTHS",https://www.indiamart.com/proddetail/luvlap-elegant-baby-carrier-2853472905312.html?pos=80&kwd=baby carrier&tags=BA||||8752.144|Price|product|||TS|rsf:gd-|-stype:attr=1|qr_nm:gd|res:RC3|com-cf:nl|ptrs:na|ktp:N0|mc:21807|mtp:S|qry_typ:P|lang:en|wc:2|cs:8833|v=4,Ayansh Trading Private Limited,https://www.kartzons.in/?pos=80&kwd=baby carrier&tags=BA||||8752.144|Price|product|||TS|rsf:gd-|-stype:attr=1|qr_nm:gd|res:RC3|com-cf:nl|ptrs:na|ktp:N0|mc:21807|mtp:S|qry_typ:P|lang:en|wc:2|cs:8833|v=4,False,96979-88399 Azad Nagar,New Delhi,"72/1, Gali No 9, West Azad Nagar, East Delhi, 96979-88399 Azad Nagar, New Delhi - 110051, Dist.Delhi, Delhi",8047845326,
mitsico Baby Carrier Sling Wrap Multifunctional Baby Carrier Sling for Baby and Toddler,https://www.indiamart.com/proddetail/mitsico-baby-carrier-sling-wrap-multifunctional-baby-carrier-sling-for-baby-and-toddler-2853761089888.html?pos=81&kwd=baby carrier&tags=BA||||8230.883|Price|product|||TS|rsf:gd-|-stype:attr=1|qr_nm:gd|res:RC3|com-cf:nl|ptrs:na|ktp:N0|mc:21807|mtp:S|qry_typ:P|lang:en|wc:2|cs:8833|v=4,Mitsico,https://www.mitsico.in/?pos=81&kwd=baby carrier&tags=BA||||8230.883|Price|product|||TS|rsf:gd-|-stype:attr=1|qr_nm:gd|res:RC3|com-cf:nl|ptrs:na|ktp:N0|mc:21807|mtp:S|qry_typ:P|lang:en|wc:2|cs:8833|v=4,False,KATARGAM,Surat,"Basement-1, Shop No.- A1, Sunday Hub Shopping Center, Amba Talavadi, Opp. Shree Vinayak Residency, KATARGAM, Surat - 395004, Dist.Surat, Gujarat",8047649165,
Ergonomic 3D Mesh Baby Carrier,https://www.indiamart.com/proddetail/ergonomic-3d-mesh-baby-carrier-2853742437430.html?pos=82&kwd=baby carrier&tags=BA||||9097.53|Price|product|||TS|rsf:gd-|-stype:attr=1|qr_nm:gd|res:RC3|com-cf:nl|ptrs:na|ktp:N0|mc:21807|mtp:S|qry_typ:P|lang:en|wc:2|cs:8833|v=4,My Bear Hugs,https://www.indiamart.com/bear-hugs/?pos=82&kwd=baby carrier&tags=BA||||9097.53|Price|product|||TS|rsf:gd-|-stype:attr=1|qr_nm:gd|res:RC3|com-cf:nl|ptrs:na|ktp:N0|mc:21807|mtp:S|qry_typ:P|lang:en|wc:2|cs:8833|v=4,False,,Fatehpur,"44/38,,CHAUDHARANA,Fatehpur Ist Floor 44/38 Chaudharana,212601,, Fatehpur - 212601, Uttar Pradesh",,
syga Baby Carrier Dark Blue,https://www.indiamart.com/proddetail/syga-baby-carrier-dark-blue-26420294273.html?pos=83&kwd=baby carrier&tags=BA||||8228.275|Price|product|||TS|rsf:gd-|-stype:attr=1|qr_nm:gd|res:RC3|com-cf:nl|ptrs:na|ktp:N0|mc:21807|mtp:S|qry_typ:P|lang:en|wc:2|cs:8833|v=4,Syga Home Furnishing,https://www.indiamart.com/sygahomefurnishing/?pos=83&kwd=baby carrier&tags=BA||||8228.275|Price|product|||TS|rsf:gd-|-stype:attr=1|qr_nm:gd|res:RC3|com-cf:nl|ptrs:na|ktp:N0|mc:21807|mtp:S|qry_typ:P|lang:en|wc:2|cs:8833|v=4,False,Navrangpura,Ahmedabad,"A-503, Samudra Complex, Near Girish Cold Drinks C. G. Road, Navrangpura, Navrangpura, Ahmedabad - 380009, Dist.Ahmedabad, Gujarat",8048985837,
"Black Cotton Baby Carrier Newborn to Toddler, Age Group: 1-2 Years",https://www.indiamart.com/proddetail/baby-carrier-newborn-to-toddler-2854170129430.html?pos=84&kwd=baby carrier&tags=BA||||8230.883|Price|product|||TS|rsf:gd-|-stype:attr=1|qr_nm:gd|res:RC3|com-cf:nl|ptrs:na|ktp:N0|mc:21807|mtp:S|qry_typ:P|lang:en|wc:2|cs:8833|v=4,Iscon Mart,https://www.indiamart.com/iscon-mart-gujarat/?pos=84&kwd=baby carrier&tags=BA||||8230.883|Price|product|||TS|rsf:gd-|-stype:attr=1|qr_nm:gd|res:RC3|com-cf:nl|ptrs:na|ktp:N0|mc:21807|mtp:S|qry_typ:P|lang:en|wc:2|cs:8833|v=4,False,,Surat,"518 the gallery business hub 2 near mahavir chikuvadi nana varachha surat -395006, Surat - 395010, Dist.Surat, Gujarat",8045736488,
"Unisex Playground Equipment Cotton Ring Slings Baby Carrier, For Home, Child Age Group: 1-3",https://www.indiamart.com/proddetail/cotton-ring-slings-baby-carrier-14117053173.html?pos=85&kwd=baby carrier&tags=BA||||8668.838|Price|product|||TS|rsf:gd-|-stype:attr=1|qr_nm:gd|res:RC3|com-cf:nl|ptrs:na|ktp:N0|mc:21807|mtp:S|qry_typ:P|lang:en|wc:2|cs:8833|v=4,Sri Kalyan Export Private Limited,https://www.kitchenlinens.in/?pos=85&kwd=baby carrier&tags=BA||||8668.838|Price|product|||TS|rsf:gd-|-stype:attr=1|qr_nm:gd|res:RC3|com-cf:nl|ptrs:na|ktp:N0|mc:21807|mtp:S|qry_typ:P|lang:en|wc:2|cs:8833|v=4,True,Vilarasampatti,Erode,"No. 192/4, Iswarya Garden Sengodanpalayam, Vilarasampatti, Erode - 638107, Dist.Erode, Tamil Nadu",8048983341,
BABY CARRIER NEWBORN TO TODDLER,https://www.indiamart.com/proddetail/baby-carrier-newborn-to-toddler-2853638975373.html?pos=86&kwd=baby carrier&tags=BA||||8230.883|Price|product|||TS|rsf:gd-|-stype:attr=1|qr_nm:gd|res:RC3|com-cf:nl|ptrs:na|ktp:N0|mc:21807|mtp:S|qry_typ:P|lang:en|wc:2|cs:8833|v=4,Sixfire Pvt,https://www.sixfirepvt.com/?pos=86&kwd=baby carrier&tags=BA||||8230.883|Price|product|||TS|rsf:gd-|-stype:attr=1|qr_nm:gd|res:RC3|com-cf:nl|ptrs:na|ktp:N0|mc:21807|mtp:S|qry_typ:P|lang:en|wc:2|cs:8833|v=4,False,Singanpor,Surat,"Plot No-32, Ground Floor, Laxmi Narayan Co. Op. Housing Society, Ved Road, Singanpor, Surat - 395004, Dist.Surat, Gujarat",7942957589,
Baby Carrier Adjustable Hands-Free 4-In-1 Ployester Without Waist Belt,https://www.indiamart.com/proddetail/baby-carrier-adjustable-hands-free-4-in-1-ployester-without-waist-belt-19914042130.html?pos=87&kwd=baby carrier&tags=BA||||8752.144|Price|product|||TS|rsf:gd-|-stype:attr=1|qr_nm:gd|res:RC3|com-cf:nl|ptrs:na|ktp:N0|mc:21807|mtp:S|qry_typ:P|lang:en|wc:2|cs:8833|v=4,Gtglobal Trade India Private Limited,https://www.gtcglobal.in/?pos=87&kwd=baby carrier&tags=BA||||8752.144|Price|product|||TS|rsf:gd-|-stype:attr=1|qr_nm:gd|res:RC3|com-cf:nl|ptrs:na|ktp:N0|mc:21807|mtp:S|qry_typ:P|lang:en|wc:2|cs:8833|v=4,False,Swaroop Nagar,New Delhi,"Plot No 144/145 , Kh. No.16/10, Gali No-7 Swaroop Nagar Extension, Swaroop Nagar, New Delhi - 110042, Dist.Delhi, Delhi",8048960531,
"Multicolor COTTON 4-in-1 Adjustable Baby Carrier Cum Kangaroo Bag, Age Group: 3-24 months",https://www.indiamart.com/proddetail/4-in-1-adjustable-baby-carrier-cum-kangaroo-bag-2853671523897.html?pos=88&kwd=baby carrier&tags=BA||||8752.144|Price|product|||TS|rsf:gd-|-stype:attr=1|qr_nm:gd|res:RC3|com-cf:nl|ptrs:na|ktp:N0|mc:21807|mtp:S|qry_typ:P|lang:en|wc:2|cs:8833|v=4,Perfection Health Care Industry,https://www.perfectionhealthcareindustry.com/?pos=88&kwd=baby carrier&tags=BA||||8752.144|Price|product|||TS|rsf:gd-|-stype:attr=1|qr_nm:gd|res:RC3|com-cf:nl|ptrs:na|ktp:N0|mc:21807|mtp:S|qry_typ:P|lang:en|wc:2|cs:8833|v=4,False,Baprola,New Delhi,"House No. G-28A, Kh No.55/12, Ground Floor, Harphool Vihar, Jai Vihar, Phase-3, Bapraula South West Delhi, Baprola, New Delhi - 110043, Dist.Delhi, Delhi",8046068381,
"Multicolor Nylon Baby Carrier - Adjustable Baby Sling for Newborn to Toddle, Age Group: Newly Born, Packaging Type: Box",https://www.indiamart.com/proddetail/baby-carrier-adjustable-baby-sling-for-newborn-to-toddle-2853309980312.html?pos=89&kwd=baby carrier&tags=BA||||8230.883|Price|product|||TS|rsf:gd-|-stype:attr=1|qr_nm:gd|res:RC3|com-cf:nl|ptrs:na|ktp:N0|mc:21807|mtp:S|qry_typ:P|lang:en|wc:2|cs:8833|v=4,Alpyog Marketing,https://www.alpyogmarketing.com/?pos=89&kwd=baby carrier&tags=BA||||8230.883|Price|product|||TS|rsf:gd-|-stype:attr=1|qr_nm:gd|res:RC3|com-cf:nl|ptrs:na|ktp:N0|mc:21807|mtp:S|qry_typ:P|lang:en|wc:2|cs:8833|v=4,False,Singanpor,Surat,"SY No,1-36, 1st Floor, Talav Falia, Rear Side, Post Siganpore, Katargam, Singanpor, Surat - 395004, Dist.Surat, Gujarat",8048968669,
PATOYS | Asalvo | 11084 Baby Carrier Blue for newborn,https://www.indiamart.com/proddetail/patoys-asalvo-11084-baby-carrier-blue-for-newborn-2851579838533.html?pos=90&kwd=baby carrier&tags=BA||||8793.739|Price|product|||TS|rsf:gd-|-stype:attr=1|qr_nm:gd|res:RC3|com-cf:nl|ptrs:na|ktp:N0|mc:21807|mtp:S|qry_typ:P|lang:en|wc:2|cs:8833|v=4,Patoys,https://www.indiamart.com/patoys/?pos=90&kwd=baby carrier&tags=BA||||8793.739|Price|product|||TS|rsf:gd-|-stype:attr=1|qr_nm:gd|res:RC3|com-cf:nl|ptrs:na|ktp:N0|mc:21807|mtp:S|qry_typ:P|lang:en|wc:2|cs:8833|v=4,False,Krishna Nagar,Mathura,"Ground Floor Shop No - 3 Krishna Nagar Krishna Plaza, Krishna Nagar, Mathura - 281004, Dist.Mathura, Uttar Pradesh",,
"HEMICO BABY Strap, Baby Carrier Bag for 0 to 3 Year Baby, Adjustable Baby Sling Bag",https://www.indiamart.com/proddetail/hemico-baby-strap-baby-carrier-bag-for-0-to-3-year-baby-adjustable-baby-sling-bag-2854507032648.html?pos=91&kwd=baby carrier&tags=BA||||8230.883|Price|product|||TS|rsf:gd-|-stype:attr=1|qr_nm:gd|res:RC3|com-cf:nl|ptrs:na|ktp:N0|mc:21807|mtp:S|qry_typ:P|lang:en|wc:2|cs:8833|v=4,Hemico,https://www.hemico.in/?pos=91&kwd=baby carrier&tags=BA||||8230.883|Price|product|||TS|rsf:gd-|-stype:attr=1|qr_nm:gd|res:RC3|com-cf:nl|ptrs:na|ktp:N0|mc:21807|mtp:S|qry_typ:P|lang:en|wc:2|cs:8833|v=4,False,Katargam,Surat,"Basement Shop No.-1, Sunday Hub Shopping Center, Ambatalavdi Road KATARGAM, Katargam, Surat - 395004, Dist.Surat, Gujarat",7942544294,
White & Blue Polyester 4 In 1 Adjustable Baby Carrier Bag,https://www.indiamart.com/proddetail/white-blue-polyester-4-in-1-adjustable-baby-carrier-bag-24090884312.html?pos=92&kwd=baby carrier&tags=BB||||8752.144|Price|product|||TS|rsf:gd-|-stype:attr=1|qr_nm:gd|res:RC3|com-cf:nl|ptrs:na|ktp:N0|mc:21807|mtp:S|qry_typ:P|lang:en|wc:2|cs:8833|v=4,Olivia International,https://www.indiamart.com/oliviainternational/?pos=92&kwd=baby carrier&tags=BB||||8752.144|Price|product|||TS|rsf:gd-|-stype:attr=1|qr_nm:gd|res:RC3|com-cf:nl|ptrs:na|ktp:N0|mc:21807|mtp:S|qry_typ:P|lang:en|wc:2|cs:8833|v=4,False,Mehrauli,New Delhi,"First Floor ,F-59 Lado Sarai, Mehrauli, New Delhi - 110030, Dist.Delhi, Delhi",7942558296,
"Baby cariar bagComfort Baby Product Bike And Cars, 1-2 Years",https://www.indiamart.com/proddetail/baby-cariar-bagcomfort-ba-2851072931133.html?pos=93&kwd=baby carrier&tags=BA||||8752.144|Price|product|||TS|rsf:gd-|-stype:attr=1|qr_nm:gd|res:RC3|com-cf:nl|ptrs:na|ktp:N0|mc:21807|mtp:S|qry_typ:P|lang:en|wc:2|cs:8833|v=4,Ananya Enterprises,https://www.ananyaenterprisesonline.com/?pos=93&kwd=baby carrier&tags=BA||||8752.144|Price|product|||TS|rsf:gd-|-stype:attr=1|qr_nm:gd|res:RC3|com-cf:nl|ptrs:na|ktp:N0|mc:21807|mtp:S|qry_typ:P|lang:en|wc:2|cs:8833|v=4,False,Johripur,New Delhi,"A - 89 Gali No - 4 Johripur Extention, Johripur, New Delhi - 110094, Dist.Delhi, Delhi",8048954241,
"White and Orange Baby Printed Carry Nest, For Babies",https://www.indiamart.com/proddetail/baby-printed-carry-nest-23403818473.html?pos=94&kwd=baby carrier&tags=BA||||8706.263|Price|product|||TS|rsf:gd-|-stype:attr=1|qr_nm:gd|res:RC3|com-cf:nl|ptrs:na|ktp:N0|mc:21807|mtp:S|qry_typ:P|lang:en|wc:2|cs:8833|v=4,P.R.Cottons,https://www.indiamart.com/prcottons/?pos=94&kwd=baby carrier&tags=BA||||8706.263|Price|product|||TS|rsf:gd-|-stype:attr=1|qr_nm:gd|res:RC3|com-cf:nl|ptrs:na|ktp:N0|mc:21807|mtp:S|qry_typ:P|lang:en|wc:2|cs:8833|v=4,True,Near,Karur,"Ground Floor Room No.1, Door No.79/1, Vaiyapurinagar Ist Cross, Near, Karur - 639002, Dist.Karur, Tamil Nadu",8048608767,
Multicolor Cotton 3 In 1 Baby Bag,https://www.indiamart.com/proddetail/3-in-1-baby-bag-27130299297.html?pos=95&kwd=baby carrier&tags=BA||||8230.883|Price|product|||TS|rsf:gd-|-stype:attr=1|qr_nm:gd|res:RC3|com-cf:nl|ptrs:na|ktp:N0|mc:21807|mtp:S|qry_typ:P|lang:en|wc:2|cs:8833|v=4,The Guru Shop,https://www.indiamart.com/thegurushop/?pos=95&kwd=baby carrier&tags=BA||||8230.883|Price|product|||TS|rsf:gd-|-stype:attr=1|qr_nm:gd|res:RC3|com-cf:nl|ptrs:na|ktp:N0|mc:21807|mtp:S|qry_typ:P|lang:en|wc:2|cs:8833|v=4,False,Katargam,Surat,"F-33/34, 1st Floor, Radhe Shyam Society, Near Singanpore Char Rasta, Ved Road,, Katargam, Surat - 395004, Dist.Surat, Gujarat",8046037459,
"Pink Pure Organic Cotton Mokshay Baby Nest, Packaging Type: Box, 3-12 Months",https://www.indiamart.com/proddetail/mokshay-baby-nest-2851913848091.html?pos=96&kwd=baby carrier&tags=BA||||8747.203||product|||TS|rsf:gd-|-stype:attr=1|qr_nm:gd|res:RC3|com-cf:nl|ptrs:na|ktp:N0|mc:21807|mtp:S|qry_typ:P|lang:en|wc:2|cs:8833|v=4,Mokshay (A Brand Of S P Wooltex),https://www.mokshay.in/?pos=96&kwd=baby carrier&tags=BA||||8747.203||product|||TS|rsf:gd-|-stype:attr=1|qr_nm:gd|res:RC3|com-cf:nl|ptrs:na|ktp:N0|mc:21807|mtp:S|qry_typ:P|lang:en|wc:2|cs:8833|v=4,False,Huda,Panipat,"Opp. Sardar Jali Wala, Ganesh Nagar, Sanoli Road,, Huda, Panipat - 132103, Dist.Panipat, Haryana",7942870300,
"Mix Color CLOTHES Baby Carry Bag, Age Group: 1-2 Years, Packaging Type: Polly",https://www.indiamart.com/proddetail/baby-carry-bag-2853231789112.html?pos=97&kwd=baby carrier&tags=BA||||8752.144|Price|product|||TS|rsf:gd-|-stype:attr=1|qr_nm:gd|res:RC3|com-cf:nl|ptrs:na|ktp:N0|mc:21807|mtp:S|qry_typ:P|lang:en|wc:2|cs:8833|v=4,Jainone Hub,https://www.indiamart.com/jainonehub/?pos=97&kwd=baby carrier&tags=BA||||8752.144|Price|product|||TS|rsf:gd-|-stype:attr=1|qr_nm:gd|res:RC3|com-cf:nl|ptrs:na|ktp:N0|mc:21807|mtp:S|qry_typ:P|lang:en|wc:2|cs:8833|v=4,False,Mandoli,New Delhi,"J- 8, Near Frooti Godown, Gali No. 4, Melaram Farm House Mandoli Sewadham Road, Mandoli, New Delhi - 110093, Dist.Delhi, Delhi",8048963941,
"Baby Safety Belt For Kinds Carrier, Children Motorcycle Safety Harness 8468",https://www.indiamart.com/proddetail/baby-safety-belt-for-kinds-carrier-children-motorcycle-safety-harness-8468-2853286699462.html?pos=98&kwd=baby carrier&tags=BA||||8038.093|Price|product|||TS|rsf:gd-|-stype:attr=1|qr_nm:gd|res:RC3|com-cf:nl|ptrs:na|ktp:N0|mc:21807|mtp:S|qry_typ:P|lang:en|wc:2|cs:8833|v=4,Deodap,https://www.indiamart.com/deodap/?pos=98&kwd=baby carrier&tags=BA||||8038.093|Price|product|||TS|rsf:gd-|-stype:attr=1|qr_nm:gd|res:RC3|com-cf:nl|ptrs:na|ktp:N0|mc:21807|mtp:S|qry_typ:P|lang:en|wc:2|cs:8833|v=4,False,Rajkot,Rajkot,"plot No. 9 Behind Patanjali Werhouse, Ruda Transport, Saat Hanuman Ahemdabad Road, Rajkot, Rajkot - 360005, Dist.Rajkot, Gujarat",8048972316,
"Black Nylon Baby Carry Bag, Packaging Type: Box",https://www.indiamart.com/proddetail/baby-carry-bag-2854313539762.html?pos=99&kwd=baby carrier&tags=BA||||8752.144|Price|product|||TS|rsf:gd-|-stype:attr=1|qr_nm:gd|res:RC3|com-cf:nl|ptrs:na|ktp:N0|mc:21807|mtp:S|qry_typ:P|lang:en|wc:2|cs:8833|v=4,Anshu Enterprises,https://www.electronicgadgetswale.com/?pos=99&kwd=baby carrier&tags=BA||||8752.144|Price|product|||TS|rsf:gd-|-stype:attr=1|qr_nm:gd|res:RC3|com-cf:nl|ptrs:na|ktp:N0|mc:21807|mtp:S|qry_typ:P|lang:en|wc:2|cs:8833|v=4,False,Nangloi,New Delhi,"C 57 Plot No 32. Pravesh Nagar Mubarakpur, Nangloi, New Delhi - 110081, Dist.Delhi, Delhi",7942556919,
Baby carrying support belt,https://www.indiamart.com/proddetail/baby-carrying-support-belt-2848949242673.html?pos=100&kwd=baby carrier&tags=BA||||8211.142||product|||TS|rsf:gd-|-stype:attr=1|qr_nm:gd|res:RC3|com-cf:nl|ptrs:na|ktp:N0|mc:21807|mtp:S|qry_typ:P|lang:en|wc:2|cs:8833|v=4,Ennar Enterprises,https://www.indiamart.com/ennar-entp-mumbai/?pos=100&kwd=baby carrier&tags=BA||||8211.142||product|||TS|rsf:gd-|-stype:attr=1|qr_nm:gd|res:RC3|com-cf:nl|ptrs:na|ktp:N0|mc:21807|mtp:S|qry_typ:P|lang:en|wc:2|cs:8833|v=4,False,Masjid Bandar,Mumbai,"1st, M-101, Vardhaman Nagar, Dr R P Road, Masjid Bandar, Mumbai - 400080, Dist.Mumbai, Maharashtra",8046030904,
Multicolor Soft Fabric Baby Carry Bag,https://www.indiamart.com/proddetail/baby-carry-bag-2851755826462.html?pos=101&kwd=baby carrier&tags=BA||||8954.051|Price|product|||TS|rsf:gd-|-stype:attr=1|qr_nm:gd|res:RC3|com-cf:nl|ptrs:na|ktp:N0|mc:21807|mtp:S|qry_typ:P|lang:en|wc:2|cs:8833|v=4,Kapila Toys,https://www.kapilatoys.com/?pos=101&kwd=baby carrier&tags=BA||||8954.051|Price|product|||TS|rsf:gd-|-stype:attr=1|qr_nm:gd|res:RC3|com-cf:nl|ptrs:na|ktp:N0|mc:21807|mtp:S|qry_typ:P|lang:en|wc:2|cs:8833|v=4,False,Sowcarpet,Chennai,"Building Number Old 49, New 103 1st Floor, Narayana Mudali Street, Sowcarpet, Chennai - 600079, Dist.Chennai, Tamil Nadu",8046064982,
Baby carrier,https://www.indiamart.com/proddetail/baby-carrier-2850552612391.html?pos=102&kwd=baby carrier&tags=BB||||8706.508|Price|product|||MDC|rsf:gd-|-stype:attr=1|qr_nm:gd|res:RC3|com-cf:nl|ptrs:na|ktp:N0|mc:21807|mtp:S|qry_typ:P|lang:en|wc:2|cs:8833|v=4,Young Vision,https://www.indiamart.com/young-vision-rohtak/?pos=102&kwd=baby carrier&tags=BB||||8706.508|Price|product|||MDC|rsf:gd-|-stype:attr=1|qr_nm:gd|res:RC3|com-cf:nl|ptrs:na|ktp:N0|mc:21807|mtp:S|qry_typ:P|lang:en|wc:2|cs:8833|v=4,False,Janta Colony,Rohtak,"949/31 Azad Nagar, Janta Colony, Rohtak - 124001, Dist.Rohtak, Haryana",8047688329,
Baby Carrier,https://www.indiamart.com/proddetail/baby-carrier-10827666512.html?pos=103&kwd=baby carrier&tags=BA||||8752.144||product|||MDC|rsf:gd-|-stype:attr=1|qr_nm:gd|res:RC3|com-cf:nl|ptrs:na|ktp:N0|mc:21807|mtp:S|qry_typ:P|lang:en|wc:2|cs:8833|v=4,Anil Steel Industries,https://www.indiamart.com/anilsteelindustries-delhi/?pos=103&kwd=baby carrier&tags=BA||||8752.144||product|||MDC|rsf:gd-|-stype:attr=1|qr_nm:gd|res:RC3|com-cf:nl|ptrs:na|ktp:N0|mc:21807|mtp:S|qry_typ:P|lang:en|wc:2|cs:8833|v=4,False,Kirti Nagar,New Delhi,"N-46, Shop Plot, Kirti Nagar, Kirti Nagar, New Delhi - 110015, Dist.Delhi, Delhi",8046057314,
"Red Polyester,Foam Adjustable Baby Carrier, Age Group: 3-12 Months",https://www.indiamart.com/proddetail/adjustable-baby-carrier-2852270854591.html?pos=104&kwd=baby carrier&tags=BA||||9148.645|Price|product|||MDC|rsf:gd-|-stype:attr=1|qr_nm:gd|res:RC3|com-cf:nl|ptrs:na|ktp:N0|mc:21807|mtp:S|qry_typ:P|lang:en|wc:2|cs:8833|v=4,Sri Jaya Enterprises,https://www.indiamart.com/sri-jayaenterprises/?pos=104&kwd=baby carrier&tags=BA||||9148.645|Price|product|||MDC|rsf:gd-|-stype:attr=1|qr_nm:gd|res:RC3|com-cf:nl|ptrs:na|ktp:N0|mc:21807|mtp:S|qry_typ:P|lang:en|wc:2|cs:8833|v=4,False,Machara,Mandapeta,"31-1-27/1, Ward No 13, Alamuru Road, Mandapeta, East Godavari, Machara, Mandapeta - 533308, Dist.East Godavari, Andhra Pradesh",7949093426,
"Cotton Kangaroo Baby Carrier, 1-2 Years",https://www.indiamart.com/proddetail/kangaroo-baby-carrier-2854497775033.html?pos=105&kwd=baby carrier&tags=BA||||8747.203|Price|product|||MDC|rsf:gd-|-stype:attr=1|qr_nm:gd|res:RC3|com-cf:nl|ptrs:na|ktp:N0|mc:21807|mtp:S|qry_typ:P|lang:en|wc:2|cs:8833|v=4,Gandhi Wooltex,https://www.indiamart.com/gandhiwooltex/?pos=105&kwd=baby carrier&tags=BA||||8747.203|Price|product|||MDC|rsf:gd-|-stype:attr=1|qr_nm:gd|res:RC3|com-cf:nl|ptrs:na|ktp:N0|mc:21807|mtp:S|qry_typ:P|lang:en|wc:2|cs:8833|v=4,False,,Panipat,"H No. 538, Sector 12, Huda, Panipat - 132103, Dist.Panipat, Haryana",7949338841,
Baby Carrier Bag,https://www.indiamart.com/proddetail/baby-carrier-bag-12809882888.html?pos=106&kwd=baby carrier&tags=BB||||8223.226|Price|product|||MDC|rsf:gd-|-stype:attr=1|qr_nm:gd|res:RC3|com-cf:nl|ptrs:na|ktp:N0|mc:21807|mtp:S|qry_typ:P|lang:en|wc:2|cs:8833|v=4,Wecare Solutions,https://www.indiamart.com/wecare-solutions/?pos=106&kwd=baby carrier&tags=BB||||8223.226|Price|product|||MDC|rsf:gd-|-stype:attr=1|qr_nm:gd|res:RC3|com-cf:nl|ptrs:na|ktp:N0|mc:21807|mtp:S|qry_typ:P|lang:en|wc:2|cs:8833|v=4,False,Valiv,Thane,"Gala No. F-19-20, 1st Floor, Rajprabha Anand Industrial Estate Naikpada, Waliv, Valiv, Thane - 401208, Dist.Thane, Maharashtra",8047631791,
"Milee Pinl,Blue Cotton Baby Carrier",https://www.indiamart.com/proddetail/cotton-baby-carrier-15506045297.html?pos=107&kwd=baby carrier&tags=BA||||8211.142|Price|product|||MDC|rsf:gd-|-stype:attr=1|qr_nm:gd|res:RC3|com-cf:nl|ptrs:na|ktp:N0|mc:21807|mtp:S|qry_typ:P|lang:en|wc:2|cs:8833|v=4,Milee Fashion,https://www.indiamart.com/mileefashion/?pos=107&kwd=baby carrier&tags=BA||||8211.142|Price|product|||MDC|rsf:gd-|-stype:attr=1|qr_nm:gd|res:RC3|com-cf:nl|ptrs:na|ktp:N0|mc:21807|mtp:S|qry_typ:P|lang:en|wc:2|cs:8833|v=4,False,Chedda Nagar,Mumbai,"Veer Sambhaji Nagar, Near Hanuman Mandir PL Lokhande Marg, Chembur, Chedda Nagar, Mumbai - 400089, Dist.Mumbai, Maharashtra",8048966118,
Baby Carrier Bag,https://www.indiamart.com/proddetail/baby-carrier-bag-2854270898912.html?pos=108&kwd=baby carrier&tags=BA||||8230.883|Price|product|||MDC|rsf:gd-|-stype:attr=1|qr_nm:gd|res:RC3|com-cf:nl|ptrs:na|ktp:N0|mc:21807|mtp:S|qry_typ:P|lang:en|wc:2|cs:8833|v=4,White Horse,https://www.indiamart.com/white-horse-surat/?pos=108&kwd=baby carrier&tags=BA||||8230.883|Price|product|||MDC|rsf:gd-|-stype:attr=1|qr_nm:gd|res:RC3|com-cf:nl|ptrs:na|ktp:N0|mc:21807|mtp:S|qry_typ:P|lang:en|wc:2|cs:8833|v=4,False,,Surat,"First Floor, Plot No.-Old-50 New-48, Sundaram Society, Singanpur Road, Sundaram Society, Katargam, Surat - 395004, Dist.Surat, Gujarat",8045729734,
"Multicolor Cotton Baby Carrier Sling, Age Group: 3-12 Months",https://www.indiamart.com/proddetail/baby-carrier-sling-2853523006955.html?pos=109&kwd=baby carrier&tags=BA||||8752.144|Price|product|||MDC|rsf:gd-|-stype:attr=1|qr_nm:gd|res:RC3|com-cf:nl|ptrs:na|ktp:N0|mc:21807|mtp:S|qry_typ:P|lang:en|wc:2|cs:8833|v=4,Santosh Enterprises,https://www.indiamart.com/santosh-enterprises-delhiindia/?pos=109&kwd=baby carrier&tags=BA||||8752.144|Price|product|||MDC|rsf:gd-|-stype:attr=1|qr_nm:gd|res:RC3|com-cf:nl|ptrs:na|ktp:N0|mc:21807|mtp:S|qry_typ:P|lang:en|wc:2|cs:8833|v=4,False,North Delhi,New Delhi,"Ground Floor A 44 Khera Garhi Colony Gali No 01, North Delhi, New Delhi - 110082, Dist.Delhi, Delhi",8047837949,
Cotton Baby Orange Printed Carrier,https://www.indiamart.com/proddetail/baby-orange-printed-carrier-21285353148.html?pos=110&kwd=baby carrier&tags=BA||||8752.144|Price|product|||MDC|rsf:gd-|-stype:attr=1|qr_nm:gd|res:RC3|com-cf:nl|ptrs:na|ktp:N0|mc:21807|mtp:S|qry_typ:P|lang:en|wc:2|cs:8833|v=4,Kidz Creation,https://www.indiamart.com/kidzcreation/?pos=110&kwd=baby carrier&tags=BA||||8752.144|Price|product|||MDC|rsf:gd-|-stype:attr=1|qr_nm:gd|res:RC3|com-cf:nl|ptrs:na|ktp:N0|mc:21807|mtp:S|qry_typ:P|lang:en|wc:2|cs:8833|v=4,False,,New Delhi,"Shop No. 279/517,Sabharwal Market, Tolia Wali Gali Sadar Bazar, North Delhi,, New Delhi - 110006, Dist.Delhi, Delhi",8047679212,
Blue Cotton Baby Carrier Bag,https://www.indiamart.com/proddetail/baby-carrier-bag-23996153891.html?pos=111&kwd=baby carrier&tags=BA||||8752.144|Price|product|||MDC|rsf:gd-|-stype:attr=1|qr_nm:gd|res:RC3|com-cf:nl|ptrs:na|ktp:N0|mc:21807|mtp:S|qry_typ:P|lang:en|wc:2|cs:8833|v=4,Naira Shopping Hub,https://www.indiamart.com/nairashoppinghub/?pos=111&kwd=baby carrier&tags=BA||||8752.144|Price|product|||MDC|rsf:gd-|-stype:attr=1|qr_nm:gd|res:RC3|com-cf:nl|ptrs:na|ktp:N0|mc:21807|mtp:S|qry_typ:P|lang:en|wc:2|cs:8833|v=4,False,Libaspur,New Delhi,"Ground Floor, D-220, Street No. 3, Saroop Nagar, Libaspur, New Delhi - 110042, Dist.Delhi, Delhi",7942558165,
Panfikh Baby Carrier Toddler,https://www.indiamart.com/proddetail/panfikh-baby-carrier-toddler-2852328617055.html?pos=112&kwd=baby carrier&tags=BA||||8226.563|Price|product|||MDC|rsf:gd-|-stype:attr=1|qr_nm:gd|res:RC3|com-cf:nl|ptrs:na|ktp:N0|mc:21807|mtp:S|qry_typ:P|lang:en|wc:2|cs:8833|v=4,Pehal Enterprises,https://www.indiamart.com/pehalenterprises/?pos=112&kwd=baby carrier&tags=BA||||8226.563|Price|product|||MDC|rsf:gd-|-stype:attr=1|qr_nm:gd|res:RC3|com-cf:nl|ptrs:na|ktp:N0|mc:21807|mtp:S|qry_typ:P|lang:en|wc:2|cs:8833|v=4,False,Nerul,Navi Mumbai,"Ground Floor, Shop No 01, Plot No 74, C/O Suman Dattatray Tandel, Premnath Residency, Sector 44, Seawoods Nerul, Nerul, Navi Mumbai - 400706, Dist.Thane, Maharashtra",8043844515,
"Grey Alloy Baby Carrier, Age Group: 3-12 Months",https://www.indiamart.com/proddetail/grey-alloy-baby-carrier-2853644017491.html?pos=113&kwd=baby carrier&tags=BA||||8206.45|Price|product|||MDC|rsf:gd-|-stype:attr=1|qr_nm:gd|res:RC3|com-cf:nl|ptrs:na|ktp:N0|mc:21807|mtp:S|qry_typ:P|lang:en|wc:2|cs:8833|v=4,APDD E Commerce India LLP,https://www.indiamart.com/apddecommerceindia/?pos=113&kwd=baby carrier&tags=BA||||8206.45|Price|product|||MDC|rsf:gd-|-stype:attr=1|qr_nm:gd|res:RC3|com-cf:nl|ptrs:na|ktp:N0|mc:21807|mtp:S|qry_typ:P|lang:en|wc:2|cs:8833|v=4,False,Vishnu Nagar,Palghar,"2ndFloor, Block No.301,D-Wing, Jivadani Complex, Mahim Road, National Cooperative Bank, Vishnu Nagar, Vishnu Nagar, Palghar - 401404, Dist.Thane, Maharashtra",8047307898,
"Cotton 150 Gsm Blue Baby Carrier, Age Group: 3-12 Months, Packaging Type: Packet",https://www.indiamart.com/proddetail/150-gsm-blue-baby-carrier-2853091898112.html?pos=114&kwd=baby carrier&tags=BA||||8242.731|Price|product|||MDC|rsf:gd-|-stype:attr=1|qr_nm:gd|res:RC3|com-cf:nl|ptrs:na|ktp:N0|mc:21807|mtp:S|qry_typ:P|lang:en|wc:2|cs:8833|v=4,Vaffadar Dresses,https://www.indiamart.com/vaffadardresses-maharashtra/?pos=114&kwd=baby carrier&tags=BA||||8242.731|Price|product|||MDC|rsf:gd-|-stype:attr=1|qr_nm:gd|res:RC3|com-cf:nl|ptrs:na|ktp:N0|mc:21807|mtp:S|qry_typ:P|lang:en|wc:2|cs:8833|v=4,False,Shivaji Chowk,Ulhasnagar,"1005, Sangam Building, Shivaji Chowk,Thane, Shivaji Chowk, Ulhasnagar - 421003, Dist.Thane, Maharashtra",7942966063,
"Cloth Green Cotton KHU Baby Sling Carrier, Adjustable Baby Holder Carrier",https://www.indiamart.com/proddetail/khu-baby-sling-carrier-adjustable-baby-holder-carrier-2852228752055.html?pos=115&kwd=baby carrier&tags=BA||||8211.142|Price|product|||MDC|rsf:gd-|-stype:attr=1|qr_nm:gd|res:RC3|com-cf:nl|ptrs:na|ktp:N0|mc:21807|mtp:S|qry_typ:P|lang:en|wc:2|cs:8833|v=4,KHU Technologies,https://www.indiamart.com/khu-technologies/?pos=115&kwd=baby carrier&tags=BA||||8211.142|Price|product|||MDC|rsf:gd-|-stype:attr=1|qr_nm:gd|res:RC3|com-cf:nl|ptrs:na|ktp:N0|mc:21807|mtp:S|qry_typ:P|lang:en|wc:2|cs:8833|v=4,False,Mandvi,Mumbai,"1st Floor, Office No 5, Usman Chamber 22/24, Kazi Sayed Street Masjid Bunder West, Mumbai, Mandvi, Mumbai - 400009, Dist.Mumbai, Maharashtra",8046053657,
"Baby Carrier Bag,Adjustable 4 in 1,sefty Belt/Child Safety Strip/Baby Sling Carrier/Back Carrier",https://www.indiamart.com/proddetail/baby-carrier-bag-adjustable-4-in-1-sefty-belt-child-safety-strip-baby-sling-carrier-back-carrier-2853655070997.html?pos=116&kwd=baby carrier&tags=BA||||8230.883|Price|product|||MDC|rsf:gd-|-stype:attr=1|qr_nm:gd|res:RC3|com-cf:nl|ptrs:na|ktp:N0|mc:21807|mtp:S|qry_typ:P|lang:en|wc:2|cs:8833|v=4,Jnsm Spark,https://www.indiamart.com/jnsm-spark/?pos=116&kwd=baby carrier&tags=BA||||8230.883|Price|product|||MDC|rsf:gd-|-stype:attr=1|qr_nm:gd|res:RC3|com-cf:nl|ptrs:na|ktp:N0|mc:21807|mtp:S|qry_typ:P|lang:en|wc:2|cs:8833|v=4,False,Dabholi,Surat,"3rd Floor Flat-302, Shukan Valley BLDG-F, OPP Hari Darshan, Dabholi Road, Dabholi, Surat - 395004, Dist.Surat, Gujarat",8045166587,
Baby Carry Nest,https://www.indiamart.com/proddetail/baby-carry-nest-19359418373.html?pos=117&kwd=baby carrier&tags=BA||||8211.142|Price|product|||MDC|rsf:gd-|-stype:attr=1|qr_nm:gd|res:RC3|com-cf:nl|ptrs:na|ktp:N0|mc:21807|mtp:S|qry_typ:P|lang:en|wc:2|cs:8833|v=4,Padam Kids,https://www.indiamart.com/padam-kids/?pos=117&kwd=baby carrier&tags=BA||||8211.142|Price|product|||MDC|rsf:gd-|-stype:attr=1|qr_nm:gd|res:RC3|com-cf:nl|ptrs:na|ktp:N0|mc:21807|mtp:S|qry_typ:P|lang:en|wc:2|cs:8833|v=4,False,,Mumbai,"CKP Colony, Near Dargah, Behind Dr. Manish Bhatt Eksar Road, Borivali West, Mumbai - 400092, Dist.Mumbai, Maharashtra",8046057613,
Hoopa Infant Cushion Cum Carrier,https://www.indiamart.com/proddetail/hoopa-infant-cushion-cum-carrier-2853591946448.html?pos=118&kwd=baby carrier&tags=BA||||8307.81|Price|product|||MDC|rsf:gd-|-stype:attr=1|qr_nm:gd|res:RC3|com-cf:nl|ptrs:na|ktp:N0|mc:21807|mtp:S|qry_typ:P|lang:en|wc:2|cs:8833|v=4,Tabaria Baby Mall,https://www.indiamart.com/tabaria-baby-mallpune/?pos=118&kwd=baby carrier&tags=BA||||8307.81|Price|product|||MDC|rsf:gd-|-stype:attr=1|qr_nm:gd|res:RC3|com-cf:nl|ptrs:na|ktp:N0|mc:21807|mtp:S|qry_typ:P|lang:en|wc:2|cs:8833|v=4,False,Raviwar Peth,Pune,"1088,Manish Market,Raviwar Peth, Raviwar Peth, Pune - 411002, Dist.Pune, Maharashtra",7949092418,
2 in 1 Baby Cotton Carry Bag,https://www.indiamart.com/proddetail/2-in-1-baby-cotton-carry-bag-2854011139912.html?pos=119&kwd=baby carrier&tags=BA||||8230.883|Price|product|||MDC|rsf:gd-|-stype:attr=1|qr_nm:gd|res:RC3|com-cf:nl|ptrs:na|ktp:N0|mc:21807|mtp:S|qry_typ:P|lang:en|wc:2|cs:8833|v=4,Krishna Enterprise,https://www.indiamart.com/krishnaenterprise-surat-gujaratindia/?pos=119&kwd=baby carrier&tags=BA||||8230.883|Price|product|||MDC|rsf:gd-|-stype:attr=1|qr_nm:gd|res:RC3|com-cf:nl|ptrs:na|ktp:N0|mc:21807|mtp:S|qry_typ:P|lang:en|wc:2|cs:8833|v=4,False,Mankna,Surat,"Plot No-3 Block No.278 Krishna Residency Vibhag-2 Mankna, Mankna, Surat - 394325, Dist.Surat, Gujarat",7942708926,
Blue Cotton BABY SLING,https://www.indiamart.com/proddetail/baby-sling-2852721827948.html?pos=120&kwd=baby carrier&tags=BA||||8230.883|Price|product|||MDC|rsf:gd-|-stype:attr=1|qr_nm:gd|res:RC3|com-cf:nl|ptrs:na|ktp:N0|mc:21807|mtp:S|qry_typ:P|lang:en|wc:2|cs:8833|v=4,KRUPA FASHION,https://www.indiamart.com/krupafashion/?pos=120&kwd=baby carrier&tags=BA||||8230.883|Price|product|||MDC|rsf:gd-|-stype:attr=1|qr_nm:gd|res:RC3|com-cf:nl|ptrs:na|ktp:N0|mc:21807|mtp:S|qry_typ:P|lang:en|wc:2|cs:8833|v=4,False,Dabholi,Surat,"A/18, Kusumpark Society, Near Gayatri Mandir, Dabholi Road,, Dabholi, Surat - 395004, Dist.Surat, Gujarat",8048262537,
Child Carry Bag,,Sabina Caps Works,https://www.indiamart.com/sabinacapsworks/?pos=121&kwd=baby carrier&tags=BA||||8211.142|Price|product|||MDC|rsf:gd-|-stype:attr=1|qr_nm:gd|res:RC3|com-cf:nl|ptrs:na|ktp:N0|mc:21807|mtp:S|qry_typ:P|lang:en|wc:2|cs:8833|v=4,False,DM Colony,Mumbai,"4, C/31, Mohd Rafiq Nagar, Behind Bismilla Masjid, Shivaji Nagar, Govandi, Mumbai Suburban, DM Colony, Mumbai - 400043, Dist.Mumbai, Maharashtra",8047842970,
"Multicolor NYLON Newborn Baby Carriers, Age Group: 0-36 MONTHS",https://www.indiamart.com/proddetail/newborn-baby-carriers-2853199049333.html?pos=122&kwd=baby carrier&tags=BA||||8230.883|Price|product|||MDC|rsf:gd-|-stype:attr=1|qr_nm:gd|res:RC3|com-cf:nl|ptrs:na|ktp:N0|mc:21807|mtp:S|qry_typ:P|lang:en|wc:2|cs:8833|v=4,Beyond Unique Enterprises,https://www.indiamart.com/beyonduniqueenterprises/?pos=122&kwd=baby carrier&tags=BA||||8230.883|Price|product|||MDC|rsf:gd-|-stype:attr=1|qr_nm:gd|res:RC3|com-cf:nl|ptrs:na|ktp:N0|mc:21807|mtp:S|qry_typ:P|lang:en|wc:2|cs:8833|v=4,False,Katargam,Surat,"180, Bhagwan Nagar Society, Ved Nagar Char Rasta, Magan Nagar 2 Ni Pachhal, Katargam, Katargam, Surat - 395004, Dist.Surat, Gujarat",8047527253,
"Plastic Baybee baby carrier, Age Group: 3-12 Months",,Bawaa Medicals,https://www.indiamart.com/bawaa-medicals-madurai/?pos=123&kwd=baby carrier&tags=BA||||8706.587|Price|product|||MDC|rsf:gd-|-stype:attr=1|qr_nm:gd|res:RC3|com-cf:nl|ptrs:na|ktp:N0|mc:21807|mtp:S|qry_typ:P|lang:en|wc:2|cs:8833|v=4,False,,Madurai,"24 25, American College Complex, Goripalayam, Madurai - 625002, Dist.Madurai, Tamil Nadu",8047850991,
Baby Carrier,,Om Traders,https://www.indiamart.com/omtraders-maharashtra/?pos=124&kwd=baby carrier&tags=BA||||8242.731||product|||TS|rsf:gd-|-stype:attr=1|qr_nm:gd|res:RC3|com-cf:nl|ptrs:na|ktp:N0|mc:21807|mtp:S|qry_typ:P|lang:en|wc:2|cs:8833|v=4,False,Siru Chowk,Ulhasnagar,"Sant Chellaram Market, Shop No.19, 1st Floor, Siru Chowk, Ulhasnagar - 421002, Dist.Thane, Maharashtra",7942553425,
Baby Carrier Bag /baby Sefty Belt/child Safety Strip Belt,,SKV World,https://www.indiamart.com/skv-world/?pos=125&kwd=baby carrier&tags=BA||||8635.896|Price|product|||TS|rsf:gd-|-stype:attr=1|qr_nm:gd|res:RC3|com-cf:nl|ptrs:na|ktp:N0|mc:21807|mtp:S|qry_typ:P|lang:en|wc:2|cs:8833|v=4,False,Nagercoil,Kanyakumari,"Vetturnimadam, Nagercoil, Kanyakumari - 629003, Dist.Kanyakumari, Tamil Nadu",,
Angel kids bouncer,,Balaji Overseas Inc.,https://www.babyzon.in/?pos=126&kwd=baby carrier&tags=BA||||8752.144|Price|product|||TS|rsf:gd-|-stype:attr=1|qr_nm:gd|res:RC3|com-cf:nl|ptrs:na|ktp:N0|mc:21807|mtp:S|qry_typ:P|lang:en|wc:2|cs:8833|v=4,False,Tri Nagar,New Delhi,"1553/110, Landmark Ganesh Pura, Tri Nagar, Tri Nagar, New Delhi - 110035, Dist.Delhi, Delhi",8047532650,
Sonal Mandap Tailors,,Sonal Mandap Tailors,https://www.indiamart.com/sonal-mandap-tailors/?pos=127&kwd=baby carrier&tags=A||||8228.275||bl|||TS|rsf:gd-|-stype:attr=1|qr_nm:gd|res:RC3|com-cf:nl|ptrs:na|ktp:N0|mc:21807|mtp:S|qry_typ:P|lang:en|wc:2|cs:8833|v=4,False,Motera,Ahmedabad,"Thakorvas 253 Motera Koteshwar, Motera, Ahmedabad - 380005, Dist.Ahmedabad, Gujarat",7942544361,
Reelay Ecommerce India Private Limited,,Reelay Ecommerce India Private Limited,https://www.indiamart.com/reelay-ecommerceindia/?pos=128&kwd=baby carrier&tags=A||||8752.144||bl|||TS|rsf:gd-|-stype:attr=1|qr_nm:gd|res:RC3|com-cf:nl|ptrs:na|ktp:N0|mc:21807|mtp:S|qry_typ:P|lang:en|wc:2|cs:8833|v=4,False,Rangpuri,New Delhi,"Kh. No. 634/1 Min,Ground Floor, Block-A, Rangpuri, Extn, Rangpuri, New Delhi - 110037, Dist.Delhi, Delhi",7942614682,
"Baby Carrier Kangaroo, Age Group: 3-12 Months, Packaging Type: Pvc Bag Packing",https://www.indiamart.com/proddetail/baby-carrier-kangaroo-2854043105588.html?pos=129&kwd=baby carrier&tags=A||||8210.732|Price|product|||NA|rsf:gd-|-stype:attr=1|qr_nm:gd|res:RC3|com-cf:nl|ptrs:na|ktp:N0|mc:21807|mtp:S|qry_typ:P|lang:en|wc:2|cs:8833|v=4,MRB Creation,https://www.indiamart.com/mrb-creation-maharashtra/?pos=129&kwd=baby carrier&tags=A||||8210.732|Price|product|||NA|rsf:gd-|-stype:attr=1|qr_nm:gd|res:RC3|com-cf:nl|ptrs:na|ktp:N0|mc:21807|mtp:S|qry_typ:P|lang:en|wc:2|cs:8833|v=4,False,Vasai East,Vasai Virar,"Ground Floor Shop A-001 Anand Nagar Laxmi Tower West, Vasai East, Vasai Virar - 401202, Dist.Thane, Maharashtra",7949222433,
Royal Blue (Base) Japanese Cotton Kasuri Merrie 's Baby designer Infant Carrier Bag,https://www.indiamart.com/proddetail/merrie-s-baby-designer-infant-carrier-bag-2849522960288.html?pos=138&kwd=baby carrier&tags=BA||||8211.142|Price|product|||NA|rsf:gd-|-stype:attr=1|qr_nm:gd|res:RC3|com-cf:nl|ptrs:na|ktp:N0|mc:21807|mtp:S|qry_typ:P|lang:en|wc:2|cs:8833|v=4,Dee Bee & Co.,https://www.indiamart.com/me-nmoms/?pos=138&kwd=baby carrier&tags=BA||||8211.142|Price|product|||NA|rsf:gd-|-stype:attr=1|qr_nm:gd|res:RC3|com-cf:nl|ptrs:na|ktp:N0|mc:21807|mtp:S|qry_typ:P|lang:en|wc:2|cs:8833|v=4,False,,Mumbai,"A-202, 2nd floor, Aaradhya Nalanda, R B Mehta Marg, Mumbai, Mumbai Suburban, Mumbai - 400077, Dist.Mumbai, Maharashtra",7942792773,
"Blue And White Cotton Baby Carry Bag, Age Group: Newly Born",https://www.indiamart.com/proddetail/baby-carry-bag-2853397429233.html?pos=131&kwd=baby carrier&tags=BA||||8234.203|Price|product|||NA|rsf:gd-|-stype:attr=1|qr_nm:gd|res:RC3|com-cf:nl|ptrs:na|ktp:N0|mc:21807|mtp:S|qry_typ:P|lang:en|wc:2|cs:8833|v=4,Inspire Hype,https://www.indiamart.com/inspirehype/?pos=131&kwd=baby carrier&tags=BA||||8234.203|Price|product|||NA|rsf:gd-|-stype:attr=1|qr_nm:gd|res:RC3|com-cf:nl|ptrs:na|ktp:N0|mc:21807|mtp:S|qry_typ:P|lang:en|wc:2|cs:8833|v=4,False,Denap,Visnagar,"4-B, C H Complex, Denap Tran Rasta Mahesana, Denap, Visnagar - 384315, Dist.Mehsana, Gujarat",7949224033,
Baby Carrier Bag,https://www.indiamart.com/proddetail/baby-carrier-bag-2853984720012.html?pos=132&kwd=baby carrier&tags=A||||8752.144|Price|product|||NA|rsf:gd-|-stype:attr=1|qr_nm:gd|res:RC3|com-cf:nl|ptrs:na|ktp:N0|mc:21807|mtp:S|qry_typ:P|lang:en|wc:2|cs:8833|v=4,Anshul Enterprise,https://www.indiamart.com/anshul-enterprise-new-delhi/?pos=132&kwd=baby carrier&tags=A||||8752.144|Price|product|||NA|rsf:gd-|-stype:attr=1|qr_nm:gd|res:RC3|com-cf:nl|ptrs:na|ktp:N0|mc:21807|mtp:S|qry_typ:P|lang:en|wc:2|cs:8833|v=4,False,,New Delhi,", New Delhi - 110093, Dist.Delhi, Delhi",8048372248,904
"Available in Every Colour cotton Baby Carrier Bag, Age Group: 3 months to 36 monhhs",https://www.indiamart.com/proddetail/baby-carrier-bag-2854407160991.html?pos=133&kwd=baby carrier&tags=A||||8281.036|Price|product|||NA|rsf:gd-|-stype:attr=1|qr_nm:gd|res:RC3|com-cf:nl|ptrs:na|ktp:N0|mc:21807|mtp:S|qry_typ:P|lang:en|wc:2|cs:8833|v=4,Best And Fast Exports LLP,https://www.indiamart.com/best-and-fast-export-llp/?pos=133&kwd=baby carrier&tags=A||||8281.036|Price|product|||NA|rsf:gd-|-stype:attr=1|qr_nm:gd|res:RC3|com-cf:nl|ptrs:na|ktp:N0|mc:21807|mtp:S|qry_typ:P|lang:en|wc:2|cs:8833|v=4,False,,Vadodara,"301 Susen Tarsali Ring Road Indra Complex Vadodara, Vadodara - 390010, Dist.Vadodara, Gujarat",8069264844,140
Cotton Multicolor Baby carrier wrap,https://www.indiamart.com/proddetail/baby-carrier-wrap-2852722681155.html?pos=134&kwd=baby carrier&tags=BA||||8211.142|Price|product|||NA|rsf:gd-|-stype:attr=1|qr_nm:gd|res:RC3|com-cf:nl|ptrs:na|ktp:N0|mc:21807|mtp:S|qry_typ:P|lang:en|wc:2|cs:8833|v=4,Sonal Communication,https://www.indiamart.com/sonal-communication-mumbai/?pos=134&kwd=baby carrier&tags=BA||||8211.142|Price|product|||NA|rsf:gd-|-stype:attr=1|qr_nm:gd|res:RC3|com-cf:nl|ptrs:na|ktp:N0|mc:21807|mtp:S|qry_typ:P|lang:en|wc:2|cs:8833|v=4,False,,Mumbai,"B/602, Comet Building, Bhakti Park, Near Imax Cinema, Wadala,, Mumbai - 400037, Dist.Mumbai, Maharashtra",8047656217,
Sea Green Cotton Baby Carrier,https://www.indiamart.com/proddetail/sea-green-cotton-baby-carrier-2850164078091.html?pos=135&kwd=baby carrier&tags=BA||||8331.224|Price|product|||NA|rsf:gd-|-stype:attr=1|qr_nm:gd|res:RC3|com-cf:nl|ptrs:na|ktp:N0|mc:21807|mtp:S|qry_typ:P|lang:en|wc:2|cs:8833|v=4,Minakshi Garments,https://www.indiamart.com/minakshi-garments-kolhapur/?pos=135&kwd=baby carrier&tags=BA||||8331.224|Price|product|||NA|rsf:gd-|-stype:attr=1|qr_nm:gd|res:RC3|com-cf:nl|ptrs:na|ktp:N0|mc:21807|mtp:S|qry_typ:P|lang:en|wc:2|cs:8833|v=4,False,Tarabai Park,Kolhapur,"Gala No 14 B Parvati Plaza, Main Market Road Swastik Market, Gandhinagar, Tarabai Park, Kolhapur - 416119, Dist.Kolhapur, Maharashtra",7942670858,
"Baby Sleeping Bag, Baby Wrap for Newborn Baby Boys Girls (0-12 Months)",https://www.indiamart.com/proddetail/baby-sleeping-bag-baby-wrap-for-newborn-baby-boys-girls-0-12-months-2854185663355.html?pos=136&kwd=baby carrier&tags=BB||||8663.873|Price|product|||NA|rsf:gd-|-stype:attr=1|qr_nm:gd|res:RC3|com-cf:nl|ptrs:na|ktp:N0|mc:21807|mtp:S|qry_typ:P|lang:en|wc:2|cs:8833|v=4,Chadu,https://www.indiamart.com/chadu/?pos=136&kwd=baby carrier&tags=BB||||8663.873|Price|product|||NA|rsf:gd-|-stype:attr=1|qr_nm:gd|res:RC3|com-cf:nl|ptrs:na|ktp:N0|mc:21807|mtp:S|qry_typ:P|lang:en|wc:2|cs:8833|v=4,False,,Bengaluru,", Bengaluru - 560032, Dist.Bengaluru, Karnataka",8048370717,5972
"Plastic Blue Baby Grooming Kit, For Kids",https://www.indiamart.com/proddetail/baby-grooming-kit-25899394448.html?pos=137&kwd=baby carrier&tags=BB||||8752.144|Price|product|||NA|rsf:gd-|-stype:attr=1|qr_nm:gd|res:RC3|com-cf:nl|ptrs:na|ktp:N0|mc:21807|mtp:S|qry_typ:P|lang:en|wc:2|cs:8833|v=4,Topgifties,https://www.indiamart.com/topgifties/?pos=137&kwd=baby carrier&tags=BB||||8752.144|Price|product|||NA|rsf:gd-|-stype:attr=1|qr_nm:gd|res:RC3|com-cf:nl|ptrs:na|ktp:N0|mc:21807|mtp:S|qry_typ:P|lang:en|wc:2|cs:8833|v=4,False,,New Delhi,"4/1752, Mahavir Block, Shahdara, New Delhi - 110032, Dist.Delhi, Delhi",8047676503,
Royal Blue (Base) Japanese Cotton Kasuri Merrie 's Baby designer Infant Carrier Bag,https://www.indiamart.com/proddetail/merrie-s-baby-designer-infant-carrier-bag-2849522960288.html?pos=138&kwd=baby carrier&tags=BA||||8211.142|Price|product|||NA|rsf:gd-|-stype:attr=1|qr_nm:gd|res:RC3|com-cf:nl|ptrs:na|ktp:N0|mc:21807|mtp:S|qry_typ:P|lang:en|wc:2|cs:8833|v=4,Dee Bee & Co.,https://www.indiamart.com/me-nmoms/?pos=138&kwd=baby carrier&tags=BA||||8211.142|Price|product|||NA|rsf:gd-|-stype:attr=1|qr_nm:gd|res:RC3|com-cf:nl|ptrs:na|ktp:N0|mc:21807|mtp:S|qry_typ:P|lang:en|wc:2|cs:8833|v=4,False,,Mumbai,"A-202, 2nd floor, Aaradhya Nalanda, R B Mehta Marg, Mumbai, Mumbai Suburban, Mumbai - 400077, Dist.Mumbai, Maharashtra",7942792773,
Staranddaisy Luxury Kids Boutique,,Staranddaisy Luxury Kids Boutique,https://www.indiamart.com/staranddaisy-luxury-kids-boutique/?pos=139&kwd=baby carrier&tags=BA||||8785.791||bl|||TS|rsf:gd-|-stype:attr=1|qr_nm:gd|res:RC3|com-cf:nl|ptrs:na|ktp:N0|mc:21807|mtp:S|qry_typ:P|lang:en|wc:2|cs:8833|v=4,False,Nehru Nagar,Ghaziabad,"R-6/27, Sector - 6 , Raj Nagar, Nehru Nagar, Ghaziabad - 201001, Dist.Ghaziabad, Uttar Pradesh",8048971885,
Baby Carrier,https://www.indiamart.com/proddetail/baby-carrier-16538845712.html?pos=140&kwd=baby carrier&tags=BA||||8752.144|Price|product|||NA|rsf:gd-|-stype:attr=1|qr_nm:gd|res:RC3|com-cf:nl|ptrs:na|ktp:N0|mc:21807|mtp:S|qry_typ:P|lang:en|wc:2|cs:8833|v=4,T & T Enterprises,https://www.indiamart.com/ttenterprisesdelhi/?pos=140&kwd=baby carrier&tags=BA||||8752.144|Price|product|||NA|rsf:gd-|-stype:attr=1|qr_nm:gd|res:RC3|com-cf:nl|ptrs:na|ktp:N0|mc:21807|mtp:S|qry_typ:P|lang:en|wc:2|cs:8833|v=4,False,Johripur,New Delhi,"Main Road Village Johripur Near MCD School, Johripur, New Delhi - 110094, Dist.Delhi, Delhi",8048372295,183
Baby Carrier,https://www.indiamart.com/proddetail/baby-carrier-2854599304848.html?pos=141&kwd=baby carrier&tags=BA||||8752.144|Price|product|||NA|rsf:gd-|-stype:attr=1|qr_nm:gd|res:RC3|com-cf:nl|ptrs:na|ktp:N0|mc:21807|mtp:S|qry_typ:P|lang:en|wc:2|cs:8833|v=4,A K Traders,https://www.indiamart.com/aktraders-114304932/?pos=141&kwd=baby carrier&tags=BA||||8752.144|Price|product|||NA|rsf:gd-|-stype:attr=1|qr_nm:gd|res:RC3|com-cf:nl|ptrs:na|ktp:N0|mc:21807|mtp:S|qry_typ:P|lang:en|wc:2|cs:8833|v=4,False,,New Delhi,"A-36, G/F, Shastri Mohalla, Patpar Ganj, East Delhi, Delhi, 110091, New Delhi - 110091, Dist.Delhi, Delhi",8048372065,556
"Blue (base) Cotton Go Gee G Baby Carrier Bag, Age Group: Newly Born, Packaging Type: Box",https://www.indiamart.com/proddetail/go-gee-g-baby-carrier-bag-2853224317348.html?pos=142&kwd=baby carrier&tags=BA||||8752.144|Price|product|||NA|rsf:gd-|-stype:attr=1|qr_nm:gd|res:RC3|com-cf:nl|ptrs:na|ktp:N0|mc:21807|mtp:S|qry_typ:P|lang:en|wc:2|cs:8833|v=4,A2Z Creations,https://www.indiamart.com/a2z-creations/?pos=142&kwd=baby carrier&tags=BA||||8752.144|Price|product|||NA|rsf:gd-|-stype:attr=1|qr_nm:gd|res:RC3|com-cf:nl|ptrs:na|ktp:N0|mc:21807|mtp:S|qry_typ:P|lang:en|wc:2|cs:8833|v=4,False,Shakarpur,New Delhi,"G-2a, Kh No-327/161 Aruna Park, Shakarpur, Shakarpur, New Delhi - 110092, Dist.Delhi, Delhi",7949220120,
"Green Baby Carrier, Age Group: Newly Born, Packaging Type: Bag",https://www.indiamart.com/proddetail/baby-carrier-24958404788.html?pos=143&kwd=baby carrier&tags=BB||||8228.275||product|||NA|rsf:gd-|-stype:attr=1|qr_nm:gd|res:RC3|com-cf:nl|ptrs:na|ktp:N0|mc:21807|mtp:S|qry_typ:P|lang:en|wc:2|cs:8833|v=4,Meet Collection,https://www.indiamart.com/meetcollection-ahmedabad/?pos=143&kwd=baby carrier&tags=BB||||8228.275||product|||NA|rsf:gd-|-stype:attr=1|qr_nm:gd|res:RC3|com-cf:nl|ptrs:na|ktp:N0|mc:21807|mtp:S|qry_typ:P|lang:en|wc:2|cs:8833|v=4,False,,Ahmedabad,"2404/a Nr Parbaram Mandir C Ward Kubernagar, Ahmedabad - 382340, Dist.Ahmedabad, Gujarat",8046032091,
Blue Soft Fabric Baby Carrier,https://www.indiamart.com/proddetail/baby-carrier-2851517977730.html?pos=144&kwd=baby carrier&tags=BB||||8974.737||product|||NA|rsf:gd-|-stype:attr=1|qr_nm:gd|res:RC3|com-cf:nl|ptrs:na|ktp:N0|mc:21807|mtp:S|qry_typ:P|lang:en|wc:2|cs:8833|v=4,Almahad Exim,https://www.indiamart.com/almahad-exim/?pos=144&kwd=baby carrier&tags=BB||||8974.737||product|||NA|rsf:gd-|-stype:attr=1|qr_nm:gd|res:RC3|com-cf:nl|ptrs:na|ktp:N0|mc:21807|mtp:S|qry_typ:P|lang:en|wc:2|cs:8833|v=4,False,,Bareilly,"Ashiyana Colony Ashiyana Colony, Bareilly - 243001, Dist.Bareilly, Uttar Pradesh",8069196787,550
"Multicolor Cotton Baby Carrier, Age Group: 3-12 Months, Packaging Type: Box",https://www.indiamart.com/proddetail/baby-carrier-2853939467362.html?pos=145&kwd=baby carrier&tags=BA||||8752.144|Price|product|||NA|rsf:gd-|-stype:attr=1|qr_nm:gd|res:RC3|com-cf:nl|ptrs:na|ktp:N0|mc:21807|mtp:S|qry_typ:P|lang:en|wc:2|cs:8833|v=4,Darshan Globals,https://www.indiamart.com/darshan-globals/?pos=145&kwd=baby carrier&tags=BA||||8752.144|Price|product|||NA|rsf:gd-|-stype:attr=1|qr_nm:gd|res:RC3|com-cf:nl|ptrs:na|ktp:N0|mc:21807|mtp:S|qry_typ:P|lang:en|wc:2|cs:8833|v=4,False,,New Delhi,"Kh No-32/17,18 & 19 Plot No-49 U/f/f Back Side, Abchal Nagar Part- 1 Nilothi Extension, New Delhi - 110041, Dist.Delhi, Delhi",8041014014,
Baby Carrier,,Radha Krishan Jewellers,https://www.indiamart.com/company/189083652/?pos=146&kwd=baby carrier&tags=BB||||8752.144|Price|product|||NA|rsf:gd-|-stype:attr=1|qr_nm:gd|res:RC3|com-cf:nl|ptrs:na|ktp:N0|mc:21807|mtp:S|qry_typ:P|lang:en|wc:2|cs:8833|v=4,False,,New Delhi,"C-186/187 Shiv Mandir Road Swaroop Nagar North West Delhi North West Delhi, New Delhi - 110042, Dist.Delhi, Delhi",8069196738,163
Assorted colors Soft Fabric Baby Carrier,https://www.indiamart.com/proddetail/baby-carrier-3459399697.html?pos=147&kwd=baby carrier&tags=BB||||8239.3955|Price|product|||NA|rsf:gd-|-stype:attr=1|qr_nm:gd|res:RC3|com-cf:nl|ptrs:na|ktp:N0|mc:21807|mtp:S|qry_typ:P|lang:en|wc:2|cs:8833|v=4,Tiny Toes,https://www.indiamart.com/tiny-toes/?pos=147&kwd=baby carrier&tags=BB||||8239.3955|Price|product|||NA|rsf:gd-|-stype:attr=1|qr_nm:gd|res:RC3|com-cf:nl|ptrs:na|ktp:N0|mc:21807|mtp:S|qry_typ:P|lang:en|wc:2|cs:8833|v=4,False,,Kalyan,"Shop No 4, Jai Sonali Building Dr. Ambedkar road, Kalyan - 421301, Dist.Thane, Maharashtra",8047699360,
Cotton Trendy Baby Carrier,https://www.indiamart.com/proddetail/trendy-baby-carrier-21436758791.html?pos=148&kwd=baby carrier&tags=BA||||8211.142|Price|product|||NA|rsf:gd-|-stype:attr=1|qr_nm:gd|res:RC3|com-cf:nl|ptrs:na|ktp:N0|mc:21807|mtp:S|qry_typ:P|lang:en|wc:2|cs:8833|v=4,Keval Enterprises,https://www.indiamart.com/keval-enterprises-mumbai/?pos=148&kwd=baby carrier&tags=BA||||8211.142|Price|product|||NA|rsf:gd-|-stype:attr=1|qr_nm:gd|res:RC3|com-cf:nl|ptrs:na|ktp:N0|mc:21807|mtp:S|qry_typ:P|lang:en|wc:2|cs:8833|v=4,False,Dadar West,Mumbai,"Shop No. 20, Madhani Industrial Estate Senapati Bapat Marg, Dadar West, Mumbai - 400028, Dist.Mumbai, Maharashtra",8048951266,
Baby Carrier,,Ambika Traders,https://www.indiamart.com/bebworld/?pos=149&kwd=baby carrier&tags=BA||||9839.57||product|||NA|rsf:gd-|-stype:attr=1|qr_nm:gd|res:RC3|com-cf:nl|ptrs:na|ktp:N0|mc:21807|mtp:S|qry_typ:P|lang:en|wc:2|cs:8833|v=4,False,Munshi Sadruddin Lane,Kolkata,"No. 7, 3rd Floor, Munshi Sadruddin Lane, Kolkata - 700007, Dist.Kolkata, West Bengal",8048372775,590
Anmol Easy Olive Baby Carrier,,Anmol Baby,https://www.indiamart.com/anmol-baby-mumbai/?pos=150&kwd=baby carrier&tags=BA||||8211.142||product|||NA|rsf:gd-|-stype:attr=1|qr_nm:gd|res:RC3|com-cf:nl|ptrs:na|ktp:N0|mc:21807|mtp:S|qry_typ:P|lang:en|wc:2|cs:8833|v=4,False,,Mumbai,"3303, Lal Bahadur Shastri Marg, Runwal Anthurium Tower - 3, Mulund, Mumbai - 400080, Dist.Mumbai, Maharashtra",8047309008,1555
Blue Soft Fabric Kangaroo Baby Carrier,https://www.indiamart.com/proddetail/kangaroo-baby-carrier-2852528419662.html?pos=151&kwd=baby carrier&tags=BA||||8785.791|Price|product|||NA|rsf:gd-|-stype:attr=1|qr_nm:gd|res:RC3|com-cf:nl|ptrs:na|ktp:N0|mc:21807|mtp:S|qry_typ:P|lang:en|wc:2|cs:8833|v=4,TOYCHEM INTERNATIONAL,https://www.indiamart.com/namokar-trading-new-delhi/?pos=151&kwd=baby carrier&tags=BA||||8785.791|Price|product|||NA|rsf:gd-|-stype:attr=1|qr_nm:gd|res:RC3|com-cf:nl|ptrs:na|ktp:N0|mc:21807|mtp:S|qry_typ:P|lang:en|wc:2|cs:8833|v=4,False,Shalimar Garden,Ghaziabad,"B- 136/1a Extension 2, Shalimar Garden, Ghaziabad - 201005, Dist.Ghaziabad, Uttar Pradesh",8069017287,446
Honeycomb Baby Carrier Bag,https://www.indiamart.com/proddetail/baby-carrier-bag-2849356662533.html?pos=152&kwd=baby carrier&tags=BB||||8752.144|Price|product|||NA|rsf:gd-|-stype:attr=1|qr_nm:gd|res:RC3|com-cf:nl|ptrs:na|ktp:N0|mc:21807|mtp:S|qry_typ:P|lang:en|wc:2|cs:8833|v=4,M K Accessories,https://www.indiamart.com/m-k-accessoriesdelhi/?pos=152&kwd=baby carrier&tags=BB||||8752.144|Price|product|||NA|rsf:gd-|-stype:attr=1|qr_nm:gd|res:RC3|com-cf:nl|ptrs:na|ktp:N0|mc:21807|mtp:S|qry_typ:P|lang:en|wc:2|cs:8833|v=4,False,,New Delhi,"F-263/9, First Floor, G.N. 9, Chand Bagh, North East Delhi, New Delhi - 110094, Dist.Delhi, Delhi",8047819072,
"Grey/Navy Blue/Black Baby Carrier Bag, Age Group: 3+months and 14kg, Packaging Type: Box",https://www.indiamart.com/proddetail/baby-carrier-bag-2854675105497.html?pos=153&kwd=baby carrier&tags=BB||||8319.425|Price|product|||NA|rsf:gd-|-stype:attr=1|qr_nm:gd|res:RC3|com-cf:nl|ptrs:na|ktp:N0|mc:21807|mtp:S|qry_typ:P|lang:en|wc:2|cs:8833|v=4,Vikas Fashion Agency,https://www.indiamart.com/vikas-fashion-agency/?pos=153&kwd=baby carrier&tags=BB||||8319.425|Price|product|||NA|rsf:gd-|-stype:attr=1|qr_nm:gd|res:RC3|com-cf:nl|ptrs:na|ktp:N0|mc:21807|mtp:S|qry_typ:P|lang:en|wc:2|cs:8833|v=4,False,,Jodhpur,"45 Amrit Nagar Pal Road Jodhpur Jodhpur, Jodhpur - 342001, Dist.Jodhpur, Rajasthan",8048370641,4212
Black Baby Carrier Cudder,https://www.indiamart.com/proddetail/baby-carrier-cudder-24269121491.html?pos=154&kwd=baby carrier&tags=BA||||9839.57|Price|product|||NA|rsf:gd-|-stype:attr=1|qr_nm:gd|res:RC3|com-cf:nl|ptrs:na|ktp:N0|mc:21807|mtp:S|qry_typ:P|lang:en|wc:2|cs:8833|v=4,Parents Care,https://www.indiamart.com/parentscare-kolkata/?pos=154&kwd=baby carrier&tags=BA||||9839.57|Price|product|||NA|rsf:gd-|-stype:attr=1|qr_nm:gd|res:RC3|com-cf:nl|ptrs:na|ktp:N0|mc:21807|mtp:S|qry_typ:P|lang:en|wc:2|cs:8833|v=4,False,,Kolkata,"10H/2, Bibi Bagan Lane, Kolkata - 700015, Dist.Kolkata, West Bengal",8048969289,
Infaneo Multicolor Baby Swaddle Carrier,https://www.indiamart.com/proddetail/baby-swaddle-carrier-19340699648.html?pos=155&kwd=baby carrier&tags=BB||||8211.142|Price|product|||NA|rsf:gd-|-stype:attr=1|qr_nm:gd|res:RC3|com-cf:nl|ptrs:na|ktp:N0|mc:21807|mtp:S|qry_typ:P|lang:en|wc:2|cs:8833|v=4,Rachna Creation,https://www.indiamart.com/rachna-creation/?pos=155&kwd=baby carrier&tags=BB||||8211.142|Price|product|||NA|rsf:gd-|-stype:attr=1|qr_nm:gd|res:RC3|com-cf:nl|ptrs:na|ktp:N0|mc:21807|mtp:S|qry_typ:P|lang:en|wc:2|cs:8833|v=4,False,Dadar (East),Mumbai,"Plot No. 155, Tarwala House, Shop No. 5 Saint Paul Street, Hindmata, Dadar (East), Mumbai - 400014, Dist.Mumbai, Maharashtra",8047681234,
Soft Fabric Baby Carrier Pink,https://www.indiamart.com/proddetail/baby-carrier-pink-2851707332333.html?pos=156&kwd=baby carrier&tags=BB||||8624.416|Price|product|||NA|rsf:gd-|-stype:attr=1|qr_nm:gd|res:RC3|com-cf:nl|ptrs:na|ktp:N0|mc:21807|mtp:S|qry_typ:P|lang:en|wc:2|cs:8833|v=4,Shri Dayal Traders,https://www.indiamart.com/shri-dayal-traders-hisar/?pos=156&kwd=baby carrier&tags=BB||||8624.416|Price|product|||NA|rsf:gd-|-stype:attr=1|qr_nm:gd|res:RC3|com-cf:nl|ptrs:na|ktp:N0|mc:21807|mtp:S|qry_typ:P|lang:en|wc:2|cs:8833|v=4,False,,Hisar,"Jindal Chowk, HIsar, Hisar - 125001, Dist.Hisar, Haryana",8048249680,9131
Polyester Plain Red Baby Carrier Bag,https://www.indiamart.com/proddetail/plain-red-baby-carrier-bag-2852450129112.html?pos=157&kwd=baby carrier&tags=BA||||9848.189||product|||NA|rsf:gd-|-stype:attr=1|qr_nm:gd|res:RC3|com-cf:nl|ptrs:na|ktp:N0|mc:21807|mtp:S|qry_typ:P|lang:en|wc:2|cs:8833|v=4,R S Venture,https://www.indiamart.com/rsventure/?pos=157&kwd=baby carrier&tags=BA||||9848.189||product|||NA|rsf:gd-|-stype:attr=1|qr_nm:gd|res:RC3|com-cf:nl|ptrs:na|ktp:N0|mc:21807|mtp:S|qry_typ:P|lang:en|wc:2|cs:8833|v=4,False,Mahananda Para,Siliguri,"Basement, Holding No.153/9/197/1/N, Golden Plaza, Burdwan Road, Indusind Bank, Mahananda Para Ward 4 Darjeeling, Mahananda Para, Siliguri - 734001, Dist.Darjiling, West Bengal",8048206752,
"Hoopa Baby Carrier, Age Group: 3-12 Months",https://www.indiamart.com/proddetail/hoopa-baby-carrier-21104488212.html?pos=158&kwd=baby carrier&tags=BB||||8211.142|Price|product|||NA|rsf:gd-|-stype:attr=1|qr_nm:gd|res:RC3|com-cf:nl|ptrs:na|ktp:N0|mc:21807|mtp:S|qry_typ:P|lang:en|wc:2|cs:8833|v=4,Little Hub,https://www.indiamart.com/littlehub/?pos=158&kwd=baby carrier&tags=BB||||8211.142|Price|product|||NA|rsf:gd-|-stype:attr=1|qr_nm:gd|res:RC3|com-cf:nl|ptrs:na|ktp:N0|mc:21807|mtp:S|qry_typ:P|lang:en|wc:2|cs:8833|v=4,False,,Mumbai,"Shop No. 5, Atlantic Plaza, Ground Floor, Garage Gally, Near Tilak Bhavan, Dadar West, Mumbai - 400028, Dist.Mumbai, Maharashtra",8047678643,
Handwoven Fabric Adjustable Flexy Baby Carrier,https://www.indiamart.com/proddetail/adjustable-flexy-baby-carrier-24746109530.html?pos=159&kwd=baby carrier&tags=BA||||8211.142|Price|product|||NA|rsf:gd-|-stype:attr=1|qr_nm:gd|res:RC3|com-cf:nl|ptrs:na|ktp:N0|mc:21807|mtp:S|qry_typ:P|lang:en|wc:2|cs:8833|v=4,Baby World,https://www.indiamart.com/babyworld/?pos=159&kwd=baby carrier&tags=BA||||8211.142|Price|product|||NA|rsf:gd-|-stype:attr=1|qr_nm:gd|res:RC3|com-cf:nl|ptrs:na|ktp:N0|mc:21807|mtp:S|qry_typ:P|lang:en|wc:2|cs:8833|v=4,False,Masjid Bandar,Mumbai,"12, Gorund Floor, Fatimabai Building, Dharamashala Street, Umerkhadi, Chinchbunder, Masjid Bandar, Mumbai - 400009, Dist.Mumbai, Maharashtra",7942539685,
Cotton Baby Carriers Kangaroo Bags,https://www.indiamart.com/proddetail/baby-carriers-kangaroo-bags-2851295142330.html?pos=160&kwd=baby carrier&tags=BA||||8752.144|Price|product|||NA|rsf:gd-|-stype:attr=1|qr_nm:gd|res:RC3|com-cf:nl|ptrs:na|ktp:N0|mc:21807|mtp:S|qry_typ:P|lang:en|wc:2|cs:8833|v=4,SG. Enterprises,https://www.indiamart.com/sgenterprisesindia/?pos=160&kwd=baby carrier&tags=BA||||8752.144|Price|product|||NA|rsf:gd-|-stype:attr=1|qr_nm:gd|res:RC3|com-cf:nl|ptrs:na|ktp:N0|mc:21807|mtp:S|qry_typ:P|lang:en|wc:2|cs:8833|v=4,False,,New Delhi,"J-1040, Khadda Colony, Swaroop Nagar, North West, New Delhi - 110042, Dist.Delhi, Delhi",8047314451,
Grey Polyester Comfy Baby Carrier,https://www.indiamart.com/proddetail/comfy-baby-carrier-2852545264155.html?pos=161&kwd=baby carrier&tags=BB||||8752.144|Price|product|||NA|rsf:gd-|-stype:attr=1|qr_nm:gd|res:RC3|com-cf:nl|ptrs:na|ktp:N0|mc:21807|mtp:S|qry_typ:P|lang:en|wc:2|cs:8833|v=4,The Trendys,https://www.indiamart.com/the-trendys/?pos=161&kwd=baby carrier&tags=BB||||8752.144|Price|product|||NA|rsf:gd-|-stype:attr=1|qr_nm:gd|res:RC3|com-cf:nl|ptrs:na|ktp:N0|mc:21807|mtp:S|qry_typ:P|lang:en|wc:2|cs:8833|v=4,False,,New Delhi,"J-65, Gautam Nagar, New Delhi - 110049, New Delhi - 110049, Dist.Delhi, Delhi",8047308884,2490
Polyester Baby Carrier Bag,https://www.indiamart.com/proddetail/polyester-baby-carrier-bag-24402395012.html?pos=162&kwd=baby carrier&tags=BB||||8954.051|Price|product|||NA|rsf:gd-|-stype:attr=1|qr_nm:gd|res:RC3|com-cf:nl|ptrs:na|ktp:N0|mc:21807|mtp:S|qry_typ:P|lang:en|wc:2|cs:8833|v=4,Krishna Enterprises,https://www.indiamart.com/krishnaenterprises-chennaitamilnadu/?pos=162&kwd=baby carrier&tags=BB||||8954.051|Price|product|||NA|rsf:gd-|-stype:attr=1|qr_nm:gd|res:RC3|com-cf:nl|ptrs:na|ktp:N0|mc:21807|mtp:S|qry_typ:P|lang:en|wc:2|cs:8833|v=4,False,,Chennai,"129, First Floor, Nyniappa Naicken Street, Park Town, Chennai - 600003, Dist.Chennai, Tamil Nadu",7942562925,
Polka Tots Hip Seat Baby Carrier,https://www.indiamart.com/proddetail/polka-tots-hip-seat-baby-carrier-25971518391.html?pos=163&kwd=baby carrier&tags=BA||||8228.275|Price|product|||NA|rsf:gd-|-stype:attr=1|qr_nm:gd|res:RC3|com-cf:nl|ptrs:na|ktp:N0|mc:21807|mtp:S|qry_typ:P|lang:en|wc:2|cs:8833|v=4,Eclat Globalbiz LLP,https://www.indiamart.com/eclatglobalbiz/?pos=163&kwd=baby carrier&tags=BA||||8228.275|Price|product|||NA|rsf:gd-|-stype:attr=1|qr_nm:gd|res:RC3|com-cf:nl|ptrs:na|ktp:N0|mc:21807|mtp:S|qry_typ:P|lang:en|wc:2|cs:8833|v=4,False,,Ahmedabad,"Shilp Zaveri, Ahmedabad - 380004, Dist.Ahmedabad, Gujarat",8047627244,
Cotton Baby Carrier Bag Pink Color,https://www.indiamart.com/proddetail/baby-carrier-bag-pink-color-2851090306533.html?pos=164&kwd=baby carrier&tags=BB||||8752.144|Price|product|||NA|rsf:gd-|-stype:attr=1|qr_nm:gd|res:RC3|com-cf:nl|ptrs:na|ktp:N0|mc:21807|mtp:S|qry_typ:P|lang:en|wc:2|cs:8833|v=4,Sunny Mobile Accessories,https://www.indiamart.com/sunny-mobile-accessories-new-delhi/?pos=164&kwd=baby carrier&tags=BB||||8752.144|Price|product|||NA|rsf:gd-|-stype:attr=1|qr_nm:gd|res:RC3|com-cf:nl|ptrs:na|ktp:N0|mc:21807|mtp:S|qry_typ:P|lang:en|wc:2|cs:8833|v=4,False,JOHARIPUR EXTENSION,New Delhi,"D-Block House No-63 GALI NO-4, JOHARIPUR EXTENSION, New Delhi - 110094, Dist.Delhi, Delhi",8069017260,830
Purple And Grey 2 Straps Polyester Baby Carrier,https://www.indiamart.com/proddetail/2-straps-polyester-baby-carrier-2850836581933.html?pos=165&kwd=baby carrier&tags=BB||||8810.737|Price|product|||NA|rsf:gd-|-stype:attr=1|qr_nm:gd|res:RC3|com-cf:nl|ptrs:na|ktp:N0|mc:21807|mtp:S|qry_typ:P|lang:en|wc:2|cs:8833|v=4,Saraniya Enterprises,https://www.indiamart.com/saraniya-enterprises-saharanpur/?pos=165&kwd=baby carrier&tags=BB||||8810.737|Price|product|||NA|rsf:gd-|-stype:attr=1|qr_nm:gd|res:RC3|com-cf:nl|ptrs:na|ktp:N0|mc:21807|mtp:S|qry_typ:P|lang:en|wc:2|cs:8833|v=4,False,,Saharanpur,"House No-3/5215, Jagdamba Colony, Paper Mill Road, Saharanpur - 247001, Dist.Saharanpur, Uttar Pradesh",7942826965,
Blue Soft Fabric Mom's Pride Ergonomic Baby Carrier,https://www.indiamart.com/proddetail/mom-s-pride-ergonomic-baby-carrier-2851090981630.html?pos=166&kwd=baby carrier&tags=BA||||8752.144|Price|product|||NA|rsf:gd-|-stype:attr=1|qr_nm:gd|res:RC3|com-cf:nl|ptrs:na|ktp:N0|mc:21807|mtp:S|qry_typ:P|lang:en|wc:2|cs:8833|v=4,Paras Enterprises,https://www.indiamart.com/parasenterprises-5350981/?pos=166&kwd=baby carrier&tags=BA||||8752.144|Price|product|||NA|rsf:gd-|-stype:attr=1|qr_nm:gd|res:RC3|com-cf:nl|ptrs:na|ktp:N0|mc:21807|mtp:S|qry_typ:P|lang:en|wc:2|cs:8833|v=4,False,Sahibabad,New Delhi,"Sahibabad, Sahibabad, New Delhi - 110032, Dist.Delhi, Delhi",7942668151,
Chubby Cheeks New Baby Carrier,https://www.indiamart.com/proddetail/chubby-cheeks-new-baby-carrier-2851751641155.html?pos=167&kwd=baby carrier&tags=BA||||8612.732|Price|product|||NA|rsf:gd-|-stype:attr=1|qr_nm:gd|res:RC3|com-cf:nl|ptrs:na|ktp:N0|mc:21807|mtp:S|qry_typ:P|lang:en|wc:2|cs:8833|v=4,Swift Healthcare & Hygiene Private Limited,https://www.indiamart.com/swift-healthcare-hygiene-private-limited-srinagar/?pos=167&kwd=baby carrier&tags=BA||||8612.732|Price|product|||NA|rsf:gd-|-stype:attr=1|qr_nm:gd|res:RC3|com-cf:nl|ptrs:na|ktp:N0|mc:21807|mtp:S|qry_typ:P|lang:en|wc:2|cs:8833|v=4,False,Pampore,Srinagar,"1 1 Shiraz Road Srinagar Srinagar, Pampore, Srinagar - 190003, Dist.Srinagar, Jammu & Kashmir",,
Baby Carrier Free Your Hand,https://www.indiamart.com/proddetail/baby-carrier-free-your-hand-22858403997.html?pos=168&kwd=baby carrier&tags=BB||||8601.347|Price|product|||NA|rsf:gd-|-stype:attr=1|qr_nm:gd|res:RC3|com-cf:nl|ptrs:na|ktp:N0|mc:21807|mtp:S|qry_typ:P|lang:en|wc:2|cs:8833|v=4,V K Imports,https://www.indiamart.com/vkimports/?pos=168&kwd=baby carrier&tags=BB||||8601.347|Price|product|||NA|rsf:gd-|-stype:attr=1|qr_nm:gd|res:RC3|com-cf:nl|ptrs:na|ktp:N0|mc:21807|mtp:S|qry_typ:P|lang:en|wc:2|cs:8833|v=4,False,Bani Park,Jaipur,"F-63, Kalidas Marg, Bani Park, Bani Park, Jaipur - 302016, Dist.Jaipur, Rajasthan",8047641419,
"Polyester Black Blue Baby Carrier, Age Group: 1-2 Years",https://www.indiamart.com/proddetail/polyester-black-blue-baby-carrier-2854219333133.html?pos=169&kwd=baby carrier&tags=BA||||8752.144|Price|product|||NA|rsf:gd-|-stype:attr=1|qr_nm:gd|res:RC3|com-cf:nl|ptrs:na|ktp:N0|mc:21807|mtp:S|qry_typ:P|lang:en|wc:2|cs:8833|v=4,Tarun Sales Corporation,https://www.indiamart.com/tarun-salescorporation/?pos=169&kwd=baby carrier&tags=BA||||8752.144|Price|product|||NA|rsf:gd-|-stype:attr=1|qr_nm:gd|res:RC3|com-cf:nl|ptrs:na|ktp:N0|mc:21807|mtp:S|qry_typ:P|lang:en|wc:2|cs:8833|v=4,False,Jhandewalan Central Delhi,New Delhi,"Shop No 40-A, Cycle Market, Jhandewalan Central Delhi, New Delhi - 110055, Dist.Delhi, Delhi",8045735204,
"Light Blue Plastic Baby Carrier Newborn to Toddler, Age Group: Newly Born",https://www.indiamart.com/proddetail/baby-carrier-newborn-to-toddler-2854919900312.html?pos=170&kwd=baby carrier&tags=BB||||8230.883|Price|product|||NA|rsf:gd-|-stype:attr=1|qr_nm:gd|res:RC3|com-cf:nl|ptrs:na|ktp:N0|mc:21807|mtp:S|qry_typ:P|lang:en|wc:2|cs:8833|v=4,Ucrow Textile,https://www.indiamart.com/ucrow-textile/?pos=170&kwd=baby carrier&tags=BB||||8230.883|Price|product|||NA|rsf:gd-|-stype:attr=1|qr_nm:gd|res:RC3|com-cf:nl|ptrs:na|ktp:N0|mc:21807|mtp:S|qry_typ:P|lang:en|wc:2|cs:8833|v=4,False,,Surat,"Ground Floor, Plot No.4305/3, 4 No Road, Sachin Gidc, Surat - 394230, Dist.Surat, Gujarat",8048249738,7535
Baby Carrier Newborn To Toddler,https://www.indiamart.com/proddetail/baby-carrier-newborn-to-toddler-2852686006288.html?pos=171&kwd=baby carrier&tags=BA||||8786.56|Price|product|||NA|rsf:gd-|-stype:attr=1|qr_nm:gd|res:RC3|com-cf:nl|ptrs:na|ktp:N0|mc:21807|mtp:S|qry_typ:P|lang:en|wc:2|cs:8833|v=4,Springkart,https://www.indiamart.com/springkart/?pos=171&kwd=baby carrier&tags=BA||||8786.56|Price|product|||NA|rsf:gd-|-stype:attr=1|qr_nm:gd|res:RC3|com-cf:nl|ptrs:na|ktp:N0|mc:21807|mtp:S|qry_typ:P|lang:en|wc:2|cs:8833|v=4,False,Moula Ali,Hyderabad,"Flat No. 103, Saipriya Residency, M. J. Colony, Moula Ali, Hyderabad - 500080, Dist.Hyderabad, Telangana",,
Nylon Aurapuro Sky Blue Baby Carrier Bag,https://www.indiamart.com/proddetail/aurapuro-sky-blue-baby-carrier-bag-24325648148.html?pos=172&kwd=baby carrier&tags=BA||||8785.791|Price|product|||NA|rsf:gd-|-stype:attr=1|qr_nm:gd|res:RC3|com-cf:nl|ptrs:na|ktp:N0|mc:21807|mtp:S|qry_typ:P|lang:en|wc:2|cs:8833|v=4,Aurapuro,https://www.indiamart.com/sanctify-planet-private-limited/?pos=172&kwd=baby carrier&tags=BA||||8785.791|Price|product|||NA|rsf:gd-|-stype:attr=1|qr_nm:gd|res:RC3|com-cf:nl|ptrs:na|ktp:N0|mc:21807|mtp:S|qry_typ:P|lang:en|wc:2|cs:8833|v=4,False,Nehru Nagar,Ghaziabad,"100 3rd A Nehru Nagar Division, Nehru Nagar, Ghaziabad - 201001, Dist.Ghaziabad, Uttar Pradesh",8048249735,4291
"Pink Cotton Baby Bed Carrier / Sleeping Bag, Newly Born",https://www.indiamart.com/proddetail/baby-bed-carrier-sleeping-bag-22992587862.html?pos=173&kwd=baby carrier&tags=BB||||8665.558||product|||NA|rsf:gd-|-stype:attr=1|qr_nm:gd|res:RC3|com-cf:nl|ptrs:na|ktp:N0|mc:21807|mtp:S|qry_typ:P|lang:en|wc:2|cs:8833|v=4,Vasantha Arun.M.Falconking Ventures,https://www.indiamart.com/mfalconking-ventures/?pos=173&kwd=baby carrier&tags=BB||||8665.558||product|||NA|rsf:gd-|-stype:attr=1|qr_nm:gd|res:RC3|com-cf:nl|ptrs:na|ktp:N0|mc:21807|mtp:S|qry_typ:P|lang:en|wc:2|cs:8833|v=4,False,,Bhavani,"1/301, Natarajapuram, Bhavani - 638301, Dist.Erode, Tamil Nadu",8048361369,158
Black And White Cotton Adjustable Hand Free Baby Carrier Bag,https://www.indiamart.com/proddetail/adjustable-hand-free-baby-carrier-bag-2851754965488.html?pos=174&kwd=baby carrier&tags=BA||||8211.142|Price|product|||NA|rsf:gd-|-stype:attr=1|qr_nm:gd|res:RC3|com-cf:nl|ptrs:na|ktp:N0|mc:21807|mtp:S|qry_typ:P|lang:en|wc:2|cs:8833|v=4,Baby World,https://www.indiamart.com/babyworlds/?pos=174&kwd=baby carrier&tags=BA||||8211.142|Price|product|||NA|rsf:gd-|-stype:attr=1|qr_nm:gd|res:RC3|com-cf:nl|ptrs:na|ktp:N0|mc:21807|mtp:S|qry_typ:P|lang:en|wc:2|cs:8833|v=4,False,,Mumbai,"Groung Floor, Shop No 4-A, 37, Hawa Mansion, Shaikh Memon Street, Pinjara Street, Mandvi, Mumbai - 400003, Dist.Mumbai, Maharashtra",8048981354,
"Baby Carrier Bag Carry Sling/Back/Front Carrier For Baby With Safety Belt And Buckle Straps,",https://www.indiamart.com/proddetail/baby-carrier-bag-carry-sling-back-front-carrier-for-baby-with-safety-belt-and-buckle-straps-2852678851848.html?pos=175&kwd=baby carrier&tags=BA||||8752.144|Price|product|||NA|rsf:gd-|-stype:attr=1|qr_nm:gd|res:RC3|com-cf:nl|ptrs:na|ktp:N0|mc:21807|mtp:S|qry_typ:P|lang:en|wc:2|cs:8833|v=4,Vaidik Mithila LLP,https://www.indiamart.com/vaidikmithila/?pos=175&kwd=baby carrier&tags=BA||||8752.144|Price|product|||NA|rsf:gd-|-stype:attr=1|qr_nm:gd|res:RC3|com-cf:nl|ptrs:na|ktp:N0|mc:21807|mtp:S|qry_typ:P|lang:en|wc:2|cs:8833|v=4,False,North Delhi,New Delhi,"H.No-474/3, Gali No-16A, Chandan Vihar, Sant Nagar, Burari, North Delhi, New Delhi - 110084, Dist.Delhi, Delhi",8043855030,
Royal Blue (Base) Japanese Cotton Kasuri Merrie 's Baby designer Infant Carrier Bag,https://www.indiamart.com/proddetail/merrie-s-baby-designer-infant-carrier-bag-2849522960288.html?pos=176&kwd=baby carrier&tags=BA||||8211.142|Price|product|||NA|rsf:gd-|-stype:attr=1|qr_nm:gd|res:RC3|com-cf:nl|ptrs:na|ktp:N0|mc:21807|mtp:S|qry_typ:P|lang:en|wc:2|cs:8833|v=4,Dee Bee & Co.,https://www.indiamart.com/me-nmoms/?pos=176&kwd=baby carrier&tags=BA||||8211.142|Price|product|||NA|rsf:gd-|-stype:attr=1|qr_nm:gd|res:RC3|com-cf:nl|ptrs:na|ktp:N0|mc:21807|mtp:S|qry_typ:P|lang:en|wc:2|cs:8833|v=4,False,,Mumbai,"A-202, 2nd floor, Aaradhya Nalanda, R B Mehta Marg, Mumbai, Mumbai Suburban, Mumbai - 400077, Dist.Mumbai, Maharashtra",7942792773,
"Baby Carry Bags for 0 to 2 Years Baby Carrier with Safety Belt Baby Carrier,",https://www.indiamart.com/proddetail/baby-carry-bags-for-0-to-2-years-baby-carrier-with-safety-belt-baby-carrier-23953156288.html?pos=177&kwd=baby carrier&tags=BA||||8635.896|Price|product|||NA|rsf:gd-|-stype:attr=1|qr_nm:gd|res:RC3|com-cf:nl|ptrs:na|ktp:N0|mc:21807|mtp:S|qry_typ:P|lang:en|wc:2|cs:8833|v=4,CTM Exports,https://www.indiamart.com/ctm-exports-kanyakumari/?pos=177&kwd=baby carrier&tags=BA||||8635.896|Price|product|||NA|rsf:gd-|-stype:attr=1|qr_nm:gd|res:RC3|com-cf:nl|ptrs:na|ktp:N0|mc:21807|mtp:S|qry_typ:P|lang:en|wc:2|cs:8833|v=4,False,,Kanyakumari,"D.NO 15-72 Xavier Street Neyyoor CTM EXPORTS, Kanyakumari - 629802, Dist.Kanyakumari, Tamil Nadu",8048372871,242
"Soft Cotton Baby Carry Bag, Size/Dimension: 1.5x2.5 feet",https://www.indiamart.com/proddetail/baby-carry-bag-21753167730.html?pos=178&kwd=baby carrier&tags=BB||||8211.142|Price|product|||NA|rsf:gd-|-stype:attr=1|qr_nm:gd|res:RC3|com-cf:nl|ptrs:na|ktp:N0|mc:21807|mtp:S|qry_typ:P|lang:en|wc:2|cs:8833|v=4,Bakai Creation,https://www.indiamart.com/bakaicreation/?pos=178&kwd=baby carrier&tags=BB||||8211.142|Price|product|||NA|rsf:gd-|-stype:attr=1|qr_nm:gd|res:RC3|com-cf:nl|ptrs:na|ktp:N0|mc:21807|mtp:S|qry_typ:P|lang:en|wc:2|cs:8833|v=4,False,,Mumbai,"81,FLOOR-GRD, NAYA NAGAR, RAHEJA HOSPITAL MARG,MAHIM Naya Nagar, 81, Raheja Hospital Marg, Mahim,400017,Mumbai, Mumbai - 400016, Dist.Mumbai, Maharashtra",8048372574,102
Red Baby Carriage,https://www.indiamart.com/proddetail/baby-carriage-2849841043130.html?pos=179&kwd=baby carrier&tags=BB||||9110.092|Price|product|||NA|rsf:gd-|-stype:attr=1|qr_nm:gd|res:RC3|com-cf:nl|ptrs:na|ktp:N0|mc:21807|mtp:S|qry_typ:P|lang:en|wc:2|cs:8833|v=4,Janta Agencies,https://www.indiamart.com/jantaagencies/?pos=179&kwd=baby carrier&tags=BB||||9110.092|Price|product|||NA|rsf:gd-|-stype:attr=1|qr_nm:gd|res:RC3|com-cf:nl|ptrs:na|ktp:N0|mc:21807|mtp:S|qry_typ:P|lang:en|wc:2|cs:8833|v=4,False,,Lucknow,"258/135, Nadan Mahal Road, Lucknow - 226004, Dist.Lucknow, Uttar Pradesh",8043809748,
Hoopa Hooded Infant Carrier,,Ukko Good Life Private Limited,https://www.indiamart.com/akhand-organic/?pos=180&kwd=baby carrier&tags=BB||||8211.142|Price|product|||NA|rsf:gd-|-stype:attr=1|qr_nm:gd|res:RC3|com-cf:nl|ptrs:na|ktp:N0|mc:21807|mtp:S|qry_typ:P|lang:en|wc:2|cs:8833|v=4,False,Borivali West,Mumbai,"No. 1603, Yogi Tower Society Yogi Nagar, Borivali West, Borivali West, Mumbai - 400091, Dist.Mumbai, Maharashtra",8048371924,694
Baby Carry Bags,https://www.indiamart.com/proddetail/baby-carry-bags-26343426391.html?pos=181&kwd=baby carrier&tags=BB||||9839.57|Price|product|||NA|rsf:gd-|-stype:attr=1|qr_nm:gd|res:RC3|com-cf:nl|ptrs:na|ktp:N0|mc:21807|mtp:S|qry_typ:P|lang:en|wc:2|cs:8833|v=4,Mini Master,https://www.indiamart.com/mini-master-kolkata/?pos=181&kwd=baby carrier&tags=BB||||9839.57|Price|product|||NA|rsf:gd-|-stype:attr=1|qr_nm:gd|res:RC3|com-cf:nl|ptrs:na|ktp:N0|mc:21807|mtp:S|qry_typ:P|lang:en|wc:2|cs:8833|v=4,False,,Kolkata,"64, Collin Street, Kolkata - 700016, Dist.Kolkata, West Bengal",8043852186,
Red Soft Fabric Baby Carier Bag,https://www.indiamart.com/proddetail/baby-carier-bag-25588783962.html?pos=182&kwd=baby carrier&tags=BB||||8228.275|Price|product|||NA|rsf:gd-|-stype:attr=1|qr_nm:gd|res:RC3|com-cf:nl|ptrs:na|ktp:N0|mc:21807|mtp:S|qry_typ:P|lang:en|wc:2|cs:8833|v=4,Kavya Sales,https://www.indiamart.com/kavya-sales-ahmedabad/?pos=182&kwd=baby carrier&tags=BB||||8228.275|Price|product|||NA|rsf:gd-|-stype:attr=1|qr_nm:gd|res:RC3|com-cf:nl|ptrs:na|ktp:N0|mc:21807|mtp:S|qry_typ:P|lang:en|wc:2|cs:8833|v=4,False,Rakhial,Ahmedabad,"253,BALABHAI CHAGANBHAI NI CHALI,B/H RAIPUR MILS, RAKHIYAL ROAD,AHMEDABAD 253/balabhai chaganlal chowl nr raipur mill,380018,Ahmedabad, Rakhial, Ahmedabad - 380021, Dist.Ahmedabad, Gujarat",8043837082,
Baby carry coat,https://www.indiamart.com/proddetail/baby-carry-coat-2851624112633.html?pos=183&kwd=baby carrier&tags=BA||||8603.455|Price|product|||NA|rsf:gd-|-stype:attr=1|qr_nm:gd|res:RC3|com-cf:nl|ptrs:na|ktp:N0|mc:21807|mtp:S|qry_typ:P|lang:en|wc:2|cs:8833|v=4,Deep Gift Center,https://www.indiamart.com/deep-gi/?pos=183&kwd=baby carrier&tags=BA||||8603.455|Price|product|||NA|rsf:gd-|-stype:attr=1|qr_nm:gd|res:RC3|com-cf:nl|ptrs:na|ktp:N0|mc:21807|mtp:S|qry_typ:P|lang:en|wc:2|cs:8833|v=4,False,Mandi Road Thakur Basti,Fatehabad,"Deep Gift Center,Thakar Basti, Mandi Road Thakur Basti, Fatehabad - 125050, Haryana",7949367497,
"Cotton Baby Carry Bag, Newly Born",https://www.indiamart.com/proddetail/baby-carry-bag-24869972297.html?pos=184&kwd=baby carrier&tags=BB||||8752.144|Price|product|||NA|rsf:gd-|-stype:attr=1|qr_nm:gd|res:RC3|com-cf:nl|ptrs:na|ktp:N0|mc:21807|mtp:S|qry_typ:P|lang:en|wc:2|cs:8833|v=4,Big Life Mark,https://www.indiamart.com/big-life-mark/?pos=184&kwd=baby carrier&tags=BB||||8752.144|Price|product|||NA|rsf:gd-|-stype:attr=1|qr_nm:gd|res:RC3|com-cf:nl|ptrs:na|ktp:N0|mc:21807|mtp:S|qry_typ:P|lang:en|wc:2|cs:8833|v=4,False,,New Delhi,"F-252, 1, Street No. 9, Chand Bagh, North-East Delhi, New Delhi - 110094, Dist.Delhi, Delhi",8048262705,
White Cotton Baby Carry Nest,https://www.indiamart.com/proddetail/baby-carry-nest-26472704333.html?pos=185&kwd=baby carrier&tags=BA||||8663.873|Price|product|||NA|rsf:gd-|-stype:attr=1|qr_nm:gd|res:RC3|com-cf:nl|ptrs:na|ktp:N0|mc:21807|mtp:S|qry_typ:P|lang:en|wc:2|cs:8833|v=4,Bambinos Baby Care Solutions,https://www.indiamart.com/bambinosbabycaresolutions-bengaluru/?pos=185&kwd=baby carrier&tags=BA||||8663.873|Price|product|||NA|rsf:gd-|-stype:attr=1|qr_nm:gd|res:RC3|com-cf:nl|ptrs:na|ktp:N0|mc:21807|mtp:S|qry_typ:P|lang:en|wc:2|cs:8833|v=4,False,Nagarbhavi,Bengaluru,"Janatha Colony, 4, 1st Cross, Kottige Palya Ward, Malagala 9th Block, Nagarbhavi, Bengaluru - 560072, Dist.Bengaluru, Karnataka",7942834556,
Baby Carriers Kangaroo Bags,,Max Enterprises,https://www.indiamart.com/maxenterprises-124648683/?pos=186&kwd=baby carrier&tags=BB||||8752.144|Price|product|||NA|rsf:gd-|-stype:attr=1|qr_nm:gd|res:RC3|com-cf:nl|ptrs:na|ktp:N0|mc:21807|mtp:S|qry_typ:P|lang:en|wc:2|cs:8833|v=4,False,North East,New Delhi,"F-238 Gali Number 9 Ground Floor, North East, New Delhi - 110094, Dist.Delhi, Delhi",8069023794,405
Red and Blue Polyester Baby Carriers Kangaroo Bag,https://www.indiamart.com/proddetail/baby-carriers-kangaroo-bag-24203961755.html?pos=187&kwd=baby carrier&tags=BB||||8876.815|Price|product|||NA|rsf:gd-|-stype:attr=1|qr_nm:gd|res:RC3|com-cf:nl|ptrs:na|ktp:N0|mc:21807|mtp:S|qry_typ:P|lang:en|wc:2|cs:8833|v=4,Shikha Infant Wear,https://www.indiamart.com/shikha-infant-wear/?pos=187&kwd=baby carrier&tags=BB||||8876.815|Price|product|||NA|rsf:gd-|-stype:attr=1|qr_nm:gd|res:RC3|com-cf:nl|ptrs:na|ktp:N0|mc:21807|mtp:S|qry_typ:P|lang:en|wc:2|cs:8833|v=4,False,,Nagpur,"Shop No. A1, Jeevan Kanaiya Complex, Pavarpura, Nagpur - 440002, Dist.Nagpur, Maharashtra",8045907248,
"Metal Royal Baby Trolley Cage Cart, Newly Born",https://www.indiamart.com/proddetail/metal-royal-baby-trolley-cage-cart-2851978655773.html?pos=188&kwd=baby carrier&tags=BA||||8228.275|Price|product|||NA|rsf:gd-|-stype:attr=1|qr_nm:gd|res:RC3|com-cf:nl|ptrs:na|ktp:N0|mc:21807|mtp:S|qry_typ:P|lang:en|wc:2|cs:8833|v=4,Smart Traders,https://www.indiamart.com/smart-traders-ahmedabad/?pos=188&kwd=baby carrier&tags=BA||||8228.275|Price|product|||NA|rsf:gd-|-stype:attr=1|qr_nm:gd|res:RC3|com-cf:nl|ptrs:na|ktp:N0|mc:21807|mtp:S|qry_typ:P|lang:en|wc:2|cs:8833|v=4,False,Naroda,Ahmedabad,"First, C 104, Shubham Galaxy, Haridarshan Char Rasta Nava Naroda, Naroda, Ahmedabad - 382330, Dist.Ahmedabad, Gujarat",8043877868,
Baby Carry Bag,https://www.indiamart.com/proddetail/baby-carry-bag-27101336688.html?pos=189&kwd=baby carrier&tags=BB||||9839.57||product|||NA|rsf:gd-|-stype:attr=1|qr_nm:gd|res:RC3|com-cf:nl|ptrs:na|ktp:N0|mc:21807|mtp:S|qry_typ:P|lang:en|wc:2|cs:8833|v=4,Sri Ganesh Enterprise,https://www.indiamart.com/sriganeshenterprise/?pos=189&kwd=baby carrier&tags=BB||||9839.57||product|||NA|rsf:gd-|-stype:attr=1|qr_nm:gd|res:RC3|com-cf:nl|ptrs:na|ktp:N0|mc:21807|mtp:S|qry_typ:P|lang:en|wc:2|cs:8833|v=4,False,,Kolkata,"8, 2nd Floor, Ashyana Building, Ram Lochan Mullick Street, Kolkata - 700007, Dist.Kolkata, West Bengal",8047668863,
"Black And Sky Blue cotten Baby premium carry bag, Age Group: newly born 12 month, Packaging Type: Polythene",https://www.indiamart.com/proddetail/baby-premium-carry-bag-2853640153191.html?pos=190&kwd=baby carrier&tags=BA||||8752.144|Price|product|||NA|rsf:gd-|-stype:attr=1|qr_nm:gd|res:RC3|com-cf:nl|ptrs:na|ktp:N0|mc:21807|mtp:S|qry_typ:P|lang:en|wc:2|cs:8833|v=4,S.K Enterprises,https://www.indiamart.com/skenterprises-maujpur/?pos=190&kwd=baby carrier&tags=BA||||8752.144|Price|product|||NA|rsf:gd-|-stype:attr=1|qr_nm:gd|res:RC3|com-cf:nl|ptrs:na|ktp:N0|mc:21807|mtp:S|qry_typ:P|lang:en|wc:2|cs:8833|v=4,False,Maujpur,New Delhi,"First Floor, Old H.No. 83, Old Maujpur, Maujpur, North East Delhi, Maujpur, New Delhi - 110053, Dist.Delhi, Delhi",7942721855,
R For Rabbit Baby Carry Cot,https://www.indiamart.com/proddetail/r-for-rabbit-baby-carry-cot-2852163653033.html?pos=191&kwd=baby carrier&tags=BA||||8752.144|Price|product|||NA|rsf:gd-|-stype:attr=1|qr_nm:gd|res:RC3|com-cf:nl|ptrs:na|ktp:N0|mc:21807|mtp:S|qry_typ:P|lang:en|wc:2|cs:8833|v=4,Pram Hut,https://www.indiamart.com/pram-hutdelhi/?pos=191&kwd=baby carrier&tags=BA||||8752.144|Price|product|||NA|rsf:gd-|-stype:attr=1|qr_nm:gd|res:RC3|com-cf:nl|ptrs:na|ktp:N0|mc:21807|mtp:S|qry_typ:P|lang:en|wc:2|cs:8833|v=4,False,,New Delhi,"SHOP NO.- 156,ANARKALI COMPLEX,ANARKALI COMPLEX,New Delhi LOWER GROUND FLOOR, SHOP NO.- 156, ANARKALI COMPLEX, ANARKALI COMPLEX, JHANDEWALAN, New Delhi, Cent, New Delhi - 110055, Dist.Delhi, Delhi",7942701586,
"Baby Safety Belt For Kinds Carrier, Children Motorcycle Safety Harness - Child Ride Strap",https://www.indiamart.com/proddetail/baby-safety-belt-for-kinds-carrier-children-motorcycle-safety-harness-child-ride-strap-2852962548348.html?pos=192&kwd=baby carrier&tags=BA||||8038.093||product|||NA|rsf:gd-|-stype:attr=1|qr_nm:gd|res:RC3|com-cf:nl|ptrs:na|ktp:N0|mc:21807|mtp:S|qry_typ:P|lang:en|wc:2|cs:8833|v=4,Srivishnupriya Enterprise,https://www.indiamart.com/srivishnupriya-enterprise/?pos=192&kwd=baby carrier&tags=BA||||8038.093||product|||NA|rsf:gd-|-stype:attr=1|qr_nm:gd|res:RC3|com-cf:nl|ptrs:na|ktp:N0|mc:21807|mtp:S|qry_typ:P|lang:en|wc:2|cs:8833|v=4,False,Aji Industrial Estate,Rajkot,"1st, C-103, Satyam Park, Shrinathji Residancy, Near Sorathiyawadi Circle, 80 Feet Road, Equity Hyundai, Sarvodaya Society, Aji Industrial Estate, Rajkot - 360003, Dist.Rajkot, Gujarat",7942702452,
"Multicolor COTTON Baby Carry Bag, Age Group: Newly Born",https://www.indiamart.com/proddetail/baby-carry-bag-2854360201530.html?pos=193&kwd=baby carrier&tags=BB||||8228.275|Price|product|||NA|rsf:gd-|-stype:attr=1|qr_nm:gd|res:RC3|com-cf:nl|ptrs:na|ktp:N0|mc:21807|mtp:S|qry_typ:P|lang:en|wc:2|cs:8833|v=4,Akshay Enterprise,https://www.indiamart.com/kasolia-expert/?pos=193&kwd=baby carrier&tags=BB||||8228.275|Price|product|||NA|rsf:gd-|-stype:attr=1|qr_nm:gd|res:RC3|com-cf:nl|ptrs:na|ktp:N0|mc:21807|mtp:S|qry_typ:P|lang:en|wc:2|cs:8833|v=4,False,Nikol,Ahmedabad,"14 Nikol Gam Rd, near Canal, Opp Raghuvir Park1, Umiya Nagar, Nikol, Ahmedabad - 382350, Dist.Ahmedabad, Gujarat",8044017601,
Multicolor Soft Fabric Baby Sling,https://www.indiamart.com/proddetail/multicolor-soft-fabric-baby-sling-2854771449991.html?pos=194&kwd=baby carrier&tags=BA||||8752.144|Price|product|||NA|rsf:gd-|-stype:attr=1|qr_nm:gd|res:RC3|com-cf:nl|ptrs:na|ktp:N0|mc:21807|mtp:S|qry_typ:P|lang:en|wc:2|cs:8833|v=4,Rs Associate,https://www.indiamart.com/rs-associate-delhi/?pos=194&kwd=baby carrier&tags=BA||||8752.144|Price|product|||NA|rsf:gd-|-stype:attr=1|qr_nm:gd|res:RC3|com-cf:nl|ptrs:na|ktp:N0|mc:21807|mtp:S|qry_typ:P|lang:en|wc:2|cs:8833|v=4,False,,Delhi,"b-7/20 rohini sector 17 delhi110089, Delhi - 110089, Dist.Delhi, Delhi",8048249738,9254
Baby Carrier,,Rosewing India,https://www.indiamart.com/rosewingindia/?pos=195&kwd=baby carrier&tags=BB||||8752.144|Price|product|||NA|rsf:gd-|-stype:attr=1|qr_nm:gd|res:RC3|com-cf:nl|ptrs:na|ktp:N0|mc:21807|mtp:S|qry_typ:P|lang:en|wc:2|cs:8833|v=4,False,Gharoli Dary Farm,New Delhi,"Mayur Vihar Ph-3 Rajveer Colony, Gharoli Dary Farm, New Delhi - 110096, Dist.Delhi, Delhi",8045849974,722
BABY CARRIER,,Baby King World,https://www.indiamart.com/baby-king-world/?pos=196&kwd=baby carrier&tags=BB||||8899.625||product|||NA|rsf:gd-|-stype:attr=1|qr_nm:gd|res:RC3|com-cf:nl|ptrs:na|ktp:N0|mc:21807|mtp:S|qry_typ:P|lang:en|wc:2|cs:8833|v=4,False,PONDICHERRY,Pondicherry,"40,GROUND FLOOR, THIRUMAL NAGAR KOSAPALAYAM, PONDICHERRY, Pondicherry - 605013, Dist.Pondicherry, Pondicherry",7942634438,
Baby Carrier,,The Giant Mart,https://www.indiamart.com/the-giant-mart/?pos=197&kwd=baby carrier&tags=BB||||8752.144||product|||NA|rsf:gd-|-stype:attr=1|qr_nm:gd|res:RC3|com-cf:nl|ptrs:na|ktp:N0|mc:21807|mtp:S|qry_typ:P|lang:en|wc:2|cs:8833|v=4,False,,New Delhi,"C-26A Sundarshan Park Sundarshan Park West Delhi, New Delhi - 110015, Dist.Delhi, Delhi",7942656391,
Baby Carrier,,Duggu Kids,https://www.indiamart.com/duggu-kids/?pos=198&kwd=baby carrier&tags=BB||||8752.144||product|||NA|rsf:gd-|-stype:attr=1|qr_nm:gd|res:RC3|com-cf:nl|ptrs:na|ktp:N0|mc:21807|mtp:S|qry_typ:P|lang:en|wc:2|cs:8833|v=4,False,,New Delhi,"D - 104,Old No - D- 58,Khasra No 427,Gali No - 3,Bhajanpura Near,North East, New Delhi - 110053, Dist.Delhi, Delhi",8047308884,5849
Baby Carrier,,Max Ride,https://www.indiamart.com/max-ride/?pos=199&kwd=baby carrier&tags=BA||||8663.873||product|||NA|rsf:gd-|-stype:attr=1|qr_nm:gd|res:RC3|com-cf:nl|ptrs:na|ktp:N0|mc:21807|mtp:S|qry_typ:P|lang:en|wc:2|cs:8833|v=4,False,bangalore,Bengaluru,"Shop No.3 And 4, No.7/1, 1st Floor, Santusapet, Sultanpet Cross,, Bangalore, Bengaluru Urban, Karnat aka, 560053, bangalore, Bengaluru - 560053, Dist.Bengaluru, Karnataka",8069857314,745
Baby Carrier,,Firoz Selections,https://www.indiamart.com/firoz-selections/?pos=200&kwd=baby carrier&tags=BB||||8228.275||product|||NA|rsf:gd-|-stype:attr=1|qr_nm:gd|res:RC3|com-cf:nl|ptrs:na|ktp:N0|mc:21807|mtp:S|qry_typ:P|lang:en|wc:2|cs:8833|v=4,False,,Ahmedabad,"Tran Darwaja, Gandhi Road, Tutorial Complex, Ahmedabad - 380001, Dist.Ahmedabad, Gujarat",8048249717,9616
Baby Carrier,,Shri Balaji Traders,https://www.indiamart.com/shribalajitraders-113785298/?pos=201&kwd=baby carrier&tags=BB||||8752.144|Price|product|||NA|rsf:gd-|-stype:attr=1|qr_nm:gd|res:RC3|com-cf:nl|ptrs:na|ktp:N0|mc:21807|mtp:S|qry_typ:P|lang:en|wc:2|cs:8833|v=4,False,,New Delhi,"First Floor E-2/15 E-block Krishna Nagar East Delhi, New Delhi - 110051, Dist.Delhi, Delhi",8048370718,9507
Baby Carrier,,Sweet Angels,https://www.indiamart.com/sweet-angels/?pos=202&kwd=baby carrier&tags=BB||||8038.093||product|||NA|rsf:gd-|-stype:attr=1|qr_nm:gd|res:RC3|com-cf:nl|ptrs:na|ktp:N0|mc:21807|mtp:S|qry_typ:P|lang:en|wc:2|cs:8833|v=4,False,Kotecha Main Road,Rajkot,"Sunny Plaza, Kotecha Main Road, Rajkot - 360001, Dist.Rajkot, Gujarat",8047522019,
Baby Carriers,,Shiv Plastic,https://www.indiamart.com/shiv-plastic-hyderabad/?pos=203&kwd=baby carrier&tags=BA||||8786.56||product|||NA|rsf:gd-|-stype:attr=1|qr_nm:gd|res:RC3|com-cf:nl|ptrs:na|ktp:N0|mc:21807|mtp:S|qry_typ:P|lang:en|wc:2|cs:8833|v=4,False,Afzal Gunj,Hyderabad,"15-8-511,shop no-18, ground floor,r.k. plaza ,nimbu market ,beside Aziz plaza ,Begum bazar,hydrabad-12(t.s.), Afzal Gunj, Hyderabad - 500012, Dist.Hyderabad, Telangana",8043821216,
Baby carrier,,Kta Enterprises,https://www.indiamart.com/kta-enterprises/?pos=204&kwd=baby carrier&tags=BB||||8752.144|Price|product|||NA|rsf:gd-|-stype:attr=1|qr_nm:gd|res:RC3|com-cf:nl|ptrs:na|ktp:N0|mc:21807|mtp:S|qry_typ:P|lang:en|wc:2|cs:8833|v=4,False,,New Delhi,"House No 182-b Street No 4, New Delhi - 110032, Dist.Delhi, Delhi",8062270218,516
Galaxy Baby Carrier,,Babee World,https://www.indiamart.com/babee-world-erode/?pos=205&kwd=baby carrier&tags=BA||||8668.838||product|||NA|rsf:gd-|-stype:attr=1|qr_nm:gd|res:RC3|com-cf:nl|ptrs:na|ktp:N0|mc:21807|mtp:S|qry_typ:P|lang:en|wc:2|cs:8833|v=4,False,Lotus Enclave Building,Erode,"456 Brough Road, Lotus Enclave Building, Erode - 638001, Dist.Erode, Tamil Nadu",8048265049,8812
Kids Baby Carrier,,Superbb Tex,https://www.indiamart.com/superbbtex-41698039/?pos=206&kwd=baby carrier&tags=B||||8626.744||product|||NA|rsf:gd-|-stype:attr=1|qr_nm:gd|res:RC3|com-cf:nl|ptrs:na|ktp:N0|mc:21807|mtp:S|qry_typ:P|lang:en|wc:2|cs:8833|v=4,False,,Tiruppur,"6/21 A M.g.r. Nagar, 7th Street Tirupur, Tiruppur - 641602, Dist.Coimbatore, Tamil Nadu",8048250514,798
Baby Carrier 4in1,,Divyanshi International,https://www.indiamart.com/divyanshi-international-ghaziabad/?pos=207&kwd=baby carrier&tags=BA||||8785.791|Price|product|||NA|rsf:gd-|-stype:attr=1|qr_nm:gd|res:RC3|com-cf:nl|ptrs:na|ktp:N0|mc:21807|mtp:S|qry_typ:P|lang:en|wc:2|cs:8833|v=4,False,,Ghaziabad,"Salempur Dundemai Dundemai, Ghaziabad - 201102, Dist.Ghaziabad, Uttar Pradesh",8048249971,154
Baby Sling Carrier,,Sehaj Nath Enterprises,https://www.indiamart.com/sehaj-nath-enterprises/?pos=208&kwd=baby carrier&tags=BA||||8752.144|Price|product|||NA|rsf:gd-|-stype:attr=1|qr_nm:gd|res:RC3|com-cf:nl|ptrs:na|ktp:N0|mc:21807|mtp:S|qry_typ:P|lang:en|wc:2|cs:8833|v=4,False,,New Delhi,"Gh-14,3 Rd Floor Gate No.5 Paschim, New Delhi - 110087, Dist.Delhi, Delhi",8047311026,7208
Baby Carrier Newborn to Toddler,,Store Mela,https://www.indiamart.com/store-mela/?pos=209&kwd=baby carrier&tags=B||||9616.169||product|||NA|rsf:gd-|-stype:attr=1|qr_nm:gd|res:RC3|com-cf:nl|ptrs:na|ktp:N0|mc:21807|mtp:S|qry_typ:P|lang:en|wc:2|cs:8833|v=4,False,,Madhubani,"Ward 06 Tola - Chhajna Sonpatahi, Madhubani - 847401, Dist.Madhubani, Bihar",8048370720,9430
Anmol Easy Olive Baby Carrier,,Anmol Baby,https://www.indiamart.com/anmol-baby-mumbai/?pos=210&kwd=baby carrier&tags=BA||||8211.142||product|||NA|rsf:gd-|-stype:attr=1|qr_nm:gd|res:RC3|com-cf:nl|ptrs:na|ktp:N0|mc:21807|mtp:S|qry_typ:P|lang:en|wc:2|cs:8833|v=4,False,,Mumbai,"3303, Lal Bahadur Shastri Marg, Runwal Anthurium Tower - 3, Mulund, Mumbai - 400080, Dist.Mumbai, Maharashtra",8047309008,1555
