product_title,product_link,company_name,company_link,is_verified_exporter,city_region,city,address_details,phone_number,phone_number_extension
Printed Baby Soft Foam Mat,https://www.indiamart.com/proddetail/baby-soft-foam-mat-2852113955330.html?pos=1&kwd=baby soft mat&tags=A||||8228.275|Price|product|||TS|rsf:gd-|-stype:attr=1|qr_nm:gd|res:RC4|com-cf:nl|ptrs:na|ktp:N0|mc:84283|mtp:S|qry_typ:P|lang:en|wc:3|flavl:0-2|cs:9700|v=4,Ragun Care Private Limited,https://www.indiamart.com/raguncare/?pos=1&kwd=baby soft mat&tags=A||||8228.275|Price|product|||TS|rsf:gd-|-stype:attr=1|qr_nm:gd|res:RC4|com-cf:nl|ptrs:na|ktp:N0|mc:84283|mtp:S|qry_typ:P|lang:en|wc:3|flavl:0-2|cs:9700|v=4,False,Changodar,Ahmedabad,"Second Floor 237 Sarkhej Bavla Road Shree Sharan Business Park Changodar, Changodar, Ahmedabad - 382213, Dist.Ahmedabad, Gujarat",8043802755,
"Foam Multicolor Baby Learning Mat, Mat Size: 200*150*0.6, Printed",https://www.indiamart.com/proddetail/baby-learning-mat-2852595224855.html?pos=2&kwd=baby soft mat&tags=A||||8307.81|Price|product|||TS|rsf:gd-|-stype:attr=1|qr_nm:gd|res:RC4|com-cf:nl|ptrs:na|ktp:N0|mc:84283|mtp:S|qry_typ:P|lang:en|wc:3|flavl:0-2|cs:9700|v=4,Swastika Enterprises,https://www.indiamart.com/swastikaenterprises-pune/?pos=2&kwd=baby soft mat&tags=A||||8307.81|Price|product|||TS|rsf:gd-|-stype:attr=1|qr_nm:gd|res:RC4|com-cf:nl|ptrs:na|ktp:N0|mc:84283|mtp:S|qry_typ:P|lang:en|wc:3|flavl:0-2|cs:9700|v=4,False,Hadapsar,Pune,"Ground Floor, Shop No D-10 A, Ganga Florentina, Mohmadwadi Road, Hadapsar, Hadapsar, Pune - 412308, Dist.Pune, Maharashtra",7942713872,
Multicolor Kids Play Mat 4 Ft x 6 Ft,https://www.indiamart.com/proddetail/kids-play-mat-4-ft-x-6-ft-26243611591.html?pos=3&kwd=baby soft mat&tags=A||||8752.144|Price|product|||TS|rsf:gd-|-stype:attr=1|qr_nm:gd|res:RC4|com-cf:nl|ptrs:na|ktp:N0|mc:84283|mtp:S|qry_typ:P|lang:en|wc:3|flavl:0-2|cs:9700|v=4,Paramount Foams Private Limited.,https://www.paramountfoams.co.in/?pos=3&kwd=baby soft mat&tags=A||||8752.144|Price|product|||TS|rsf:gd-|-stype:attr=1|qr_nm:gd|res:RC4|com-cf:nl|ptrs:na|ktp:N0|mc:84283|mtp:S|qry_typ:P|lang:en|wc:3|flavl:0-2|cs:9700|v=4,False,Pitampura,New Delhi,"350, 2nd Floor, Tarun Enclave, Pitampura, New Delhi - 110034, Dist.Delhi, Delhi",8043815404,
"XPE SHEETS Multicolor Baby Soft Mat, Mat Size: 5*7 Ft, Cartoon Cariture",https://www.indiamart.com/proddetail/baby-soft-mat-27600260948.html?pos=4&kwd=baby soft mat&tags=A||||8747.203|Price|product|||TS|rsf:gd-|-stype:attr=1|qr_nm:gd|res:RC4|com-cf:nl|ptrs:na|ktp:N0|mc:84283|mtp:S|qry_typ:P|lang:en|wc:3|flavl:0-2|cs:9700|v=4,Lakshmi Furnishing,https://www.indiamart.com/lakshmi-furnishing/?pos=4&kwd=baby soft mat&tags=A||||8747.203|Price|product|||TS|rsf:gd-|-stype:attr=1|qr_nm:gd|res:RC4|com-cf:nl|ptrs:na|ktp:N0|mc:84283|mtp:S|qry_typ:P|lang:en|wc:3|flavl:0-2|cs:9700|v=4,False,Huda,Panipat,"50, Kataria Colony, Gali No. 7, Near Gangapuri Road, Huda, Panipat - 132103, Dist.Panipat, Haryana",8047654543,
Rubber Baby Mat,https://www.indiamart.com/proddetail/baby-mat-23829148488.html?pos=5&kwd=baby soft mat&tags=A||||9839.57|Price|product|||TS|rsf:gd-|-stype:attr=1|qr_nm:gd|res:RC4|com-cf:nl|ptrs:na|ktp:N0|mc:84283|mtp:S|qry_typ:P|lang:en|wc:3|flavl:0-2|cs:9700|v=4,Dave Waterproof Works,https://www.indiamart.com/davewaterproofworks-kolkata/?pos=5&kwd=baby soft mat&tags=A||||9839.57|Price|product|||TS|rsf:gd-|-stype:attr=1|qr_nm:gd|res:RC4|com-cf:nl|ptrs:na|ktp:N0|mc:84283|mtp:S|qry_typ:P|lang:en|wc:3|flavl:0-2|cs:9700|v=4,False,Kalighat,Kolkata,"2nd Floor, Building No.43, B.B. Ganguly Street, Bowbazar, Kalighat, Kolkata - 700012, Dist.Kolkata, West Bengal",8046039325,
"Multicolor Medifit Waterproof Foldable Baby Play Mat, Size/Dimension: 5x6",https://www.indiamart.com/proddetail/medifit-waterproof-foldable-baby-play-mat-2853072747373.html?pos=6&kwd=baby soft mat&tags=A||||8752.144|Price|product|||TS|rsf:gd-|-stype:attr=1|qr_nm:gd|res:RC4|com-cf:nl|ptrs:na|ktp:N0|mc:84283|mtp:S|qry_typ:P|lang:en|wc:3|flavl:0-2|cs:9700|v=4,Sumit Footcare,https://www.sumitfootcare.com/?pos=6&kwd=baby soft mat&tags=A||||8752.144|Price|product|||TS|rsf:gd-|-stype:attr=1|qr_nm:gd|res:RC4|com-cf:nl|ptrs:na|ktp:N0|mc:84283|mtp:S|qry_typ:P|lang:en|wc:3|flavl:0-2|cs:9700|v=4,False,Pitampura,New Delhi,"A-105, Mangolpuri Industrial Area, Phase 2, Pitampura, New Delhi - 110034, Dist.Delhi, Delhi",8047631737,
Multicolor Baby Play Mats,https://www.indiamart.com/proddetail/baby-play-mats-27622362173.html?pos=7&kwd=baby soft mat&tags=A||||8752.144|Price|product|||TS|rsf:gd-|-stype:attr=1|qr_nm:gd|res:RC4|com-cf:nl|ptrs:na|ktp:N0|mc:84283|mtp:S|qry_typ:P|lang:en|wc:3|flavl:0-2|cs:9700|v=4,Gunjan Associates,https://www.gunjaneva.com/?pos=7&kwd=baby soft mat&tags=A||||8752.144|Price|product|||TS|rsf:gd-|-stype:attr=1|qr_nm:gd|res:RC4|com-cf:nl|ptrs:na|ktp:N0|mc:84283|mtp:S|qry_typ:P|lang:en|wc:3|flavl:0-2|cs:9700|v=4,False,Pitampura,New Delhi,"B 18, Mangolpuri Industrial Area, Phase 2 Mangolpuri, Pitampura, New Delhi - 110034, Dist.Delhi, Delhi",8048968082,
EVA Multicolor Baby Mat Soft Mat Double Side Baby Play Floor Mat,https://www.indiamart.com/proddetail/baby-mat-soft-mat-double-side-baby-play-floor-mat-25562076497.html?pos=8&kwd=baby soft mat&tags=A||||8230.883|Price|product|||TS|rsf:gd-|-stype:attr=1|qr_nm:gd|res:RC4|com-cf:nl|ptrs:na|ktp:N0|mc:84283|mtp:S|qry_typ:P|lang:en|wc:3|flavl:0-2|cs:9700|v=4,Homeza Sales,https://www.homezasales.com/?pos=8&kwd=baby soft mat&tags=A||||8230.883|Price|product|||TS|rsf:gd-|-stype:attr=1|qr_nm:gd|res:RC4|com-cf:nl|ptrs:na|ktp:N0|mc:84283|mtp:S|qry_typ:P|lang:en|wc:3|flavl:0-2|cs:9700|v=4,False,Katargam,Surat,"Plot No-A/22, Ground Floor, Madhav Park Society, Singanpore Char Rasta, Ved Road,, Katargam, Surat - 395004, Dist.Surat, Gujarat",8047656895,
Waterproof Red Kids Mat,https://www.indiamart.com/proddetail/kids-mat-2853664105955.html?pos=9&kwd=baby soft mat&tags=A||||8752.144|Price|product|||TS|rsf:gd-|-stype:attr=1|qr_nm:gd|res:RC4|com-cf:nl|ptrs:na|ktp:N0|mc:84283|mtp:S|qry_typ:P|lang:en|wc:3|flavl:0-2|cs:9700|v=4,Kriti Enterprises,https://www.indiamart.com/kriti-enterprisesnewdelhi/?pos=9&kwd=baby soft mat&tags=A||||8752.144|Price|product|||TS|rsf:gd-|-stype:attr=1|qr_nm:gd|res:RC4|com-cf:nl|ptrs:na|ktp:N0|mc:84283|mtp:S|qry_typ:P|lang:en|wc:3|flavl:0-2|cs:9700|v=4,False,Laxmi Nagar,New Delhi,"D-139, F.F, Gali No.6 Laxmi Nagar East Delhi, Laxmi Nagar, New Delhi - 110092, Dist.Delhi, Delhi",8047655853,
"Pink Baby Soft Cotton Mat, Newly Born",https://www.indiamart.com/proddetail/pink-baby-soft-cotton-mat-27405069873.html?pos=10&kwd=baby soft mat&tags=A||||8228.275|Price|product|||MDC|rsf:gd-|-stype:attr=1|qr_nm:gd|res:RC4|com-cf:nl|ptrs:na|ktp:N0|mc:84283|mtp:S|qry_typ:P|lang:en|wc:3|flavl:0-2|cs:9700|v=4,Born Baby,https://www.indiamart.com/born-baby-ahmedabad/?pos=10&kwd=baby soft mat&tags=A||||8228.275|Price|product|||MDC|rsf:gd-|-stype:attr=1|qr_nm:gd|res:RC4|com-cf:nl|ptrs:na|ktp:N0|mc:84283|mtp:S|qry_typ:P|lang:en|wc:3|flavl:0-2|cs:9700|v=4,False,,Ahmedabad,"708, Mahalaxmi Complex, Gheekanta GPO, Ahmedabad - 380001, Dist.Ahmedabad, Gujarat",7949331255,
"Natural Rubber Blue Baby Mat, Mat Size: 69 X 50 X 8 Cms",https://www.indiamart.com/proddetail/baby-mat-27606446891.html?pos=11&kwd=baby soft mat&tags=A||||8230.883|Price|product|||TS|rsf:gd-|-stype:attr=1|qr_nm:gd|res:RC4|com-cf:nl|ptrs:na|ktp:N0|mc:84283|mtp:S|qry_typ:P|lang:en|wc:3|flavl:0-2|cs:9700|v=4,Proffitto,https://www.indiamart.com/voetex-zone/?pos=11&kwd=baby soft mat&tags=A||||8230.883|Price|product|||TS|rsf:gd-|-stype:attr=1|qr_nm:gd|res:RC4|com-cf:nl|ptrs:na|ktp:N0|mc:84283|mtp:S|qry_typ:P|lang:en|wc:3|flavl:0-2|cs:9700|v=4,False,Katargam,Surat,"19/20 Nagnath Soc, Above Shyam Hardware,, Katargam, Surat - 395004, Dist.Surat, Gujarat",8048988951,
"Polyester Multicolor Baby Kids Water Play Mat, Baby Slapped Pad, Baby Water Mat",https://www.indiamart.com/proddetail/baby-kids-water-play-mat-baby-slapped-pad-baby-water-mat-2853188892730.html?pos=12&kwd=baby soft mat&tags=BB||||8230.883|Price|product|||TS|rsf:gd-|-stype:attr=1|qr_nm:gd|res:RC4|com-cf:nl|ptrs:na|ktp:N0|mc:84283|mtp:S|qry_typ:P|lang:en|wc:3|flavl:0-2|cs:9700|v=4,Rapid Import & Export,https://www.indiamart.com/rapidimportexport/?pos=12&kwd=baby soft mat&tags=BB||||8230.883|Price|product|||TS|rsf:gd-|-stype:attr=1|qr_nm:gd|res:RC4|com-cf:nl|ptrs:na|ktp:N0|mc:84283|mtp:S|qry_typ:P|lang:en|wc:3|flavl:0-2|cs:9700|v=4,False,Dabholi,Surat,"Shade No 19, Nilkanth Park, Nr. Silver Stone Villa, Tulsi Chowk Dabholi Gam, Ved Road, Dabholi, Surat - 395004, Dist.Surat, Gujarat",7942960616,
"Rectangular Shape Gravolite Printed Kids Fun Mats, Mat Size: 2 Feet * 6 Feet",https://www.indiamart.com/proddetail/gravolite-printed-kids-fun-mats-14246734562.html?pos=13&kwd=baby soft mat&tags=BA||||8752.144|Price|product|||TS|rsf:gd-|-stype:attr=1|qr_nm:gd|res:RC4|com-cf:nl|ptrs:na|ktp:N0|mc:84283|mtp:S|qry_typ:P|lang:en|wc:3|flavl:0-2|cs:9700|v=4,Somani Enterprises,https://www.matskart.in/?pos=13&kwd=baby soft mat&tags=BA||||8752.144|Price|product|||TS|rsf:gd-|-stype:attr=1|qr_nm:gd|res:RC4|com-cf:nl|ptrs:na|ktp:N0|mc:84283|mtp:S|qry_typ:P|lang:en|wc:3|flavl:0-2|cs:9700|v=4,False,Pitampura,New Delhi,"B-47/48 Mangolupuri Industrial Area, Phase-2, Pitampura, New Delhi - 110034, Dist.Delhi, Delhi",8048980729,
Kids Play Mat,https://www.indiamart.com/proddetail/kids-play-mat-23954321088.html?pos=14&kwd=baby soft mat&tags=BA||||8752.144|Price|product|||TS|rsf:gd-|-stype:attr=1|qr_nm:gd|res:RC4|com-cf:nl|ptrs:na|ktp:N0|mc:84283|mtp:S|qry_typ:P|lang:en|wc:3|flavl:0-2|cs:9700|v=4,Ankit Polymers,https://www.ankitpolymers.com/?pos=14&kwd=baby soft mat&tags=BA||||8752.144|Price|product|||TS|rsf:gd-|-stype:attr=1|qr_nm:gd|res:RC4|com-cf:nl|ptrs:na|ktp:N0|mc:84283|mtp:S|qry_typ:P|lang:en|wc:3|flavl:0-2|cs:9700|v=4,False,Mangolpuri,New Delhi,"T-2/160, Phase-1, Mangolpuri Industrial Area, Mangolpuri, New Delhi - 110083, Dist.Delhi, Delhi",8046059020,
"Polyester + Rubber Grip Printed Baby Soft Mat, Mat Size: 1 Meter X 1 Meter",https://www.indiamart.com/proddetail/baby-soft-mat-24009692591.html?pos=15&kwd=baby soft mat&tags=A||||8228.275|Price|product|||TS|rsf:gd-|-stype:attr=1|qr_nm:gd|res:RC4|com-cf:nl|ptrs:na|ktp:N0|mc:84283|mtp:S|qry_typ:P|lang:en|wc:3|cs:8842|v=4,B. M Marketing,https://www.indiamart.com/bmmarketing/?pos=15&kwd=baby soft mat&tags=A||||8228.275|Price|product|||TS|rsf:gd-|-stype:attr=1|qr_nm:gd|res:RC4|com-cf:nl|ptrs:na|ktp:N0|mc:84283|mtp:S|qry_typ:P|lang:en|wc:3|cs:8842|v=4,False,Hirpara,Ahmedabad,"Shop No. 1178/15/2, Biscuit Gali, Pankor Naka Relief Road, Hirpara, Ahmedabad - 380001, Dist.Ahmedabad, Gujarat",8047644570,
Eva Foam Interlocking Mats,https://www.indiamart.com/proddetail/interlocking-mats-15020180030.html?pos=16&kwd=baby soft mat&tags=BA||||8211.142|Price|product|||MDC|rsf:gd-|-stype:attr=1|qr_nm:gd|res:RC4|com-cf:nl|ptrs:na|ktp:N0|mc:84283|mtp:S|qry_typ:P|lang:en|wc:3|cs:8842|v=4,Simmone Enterprises,https://www.indiamart.com/simmone-enterprises/?pos=16&kwd=baby soft mat&tags=BA||||8211.142|Price|product|||MDC|rsf:gd-|-stype:attr=1|qr_nm:gd|res:RC4|com-cf:nl|ptrs:na|ktp:N0|mc:84283|mtp:S|qry_typ:P|lang:en|wc:3|cs:8842|v=4,False,Navi Mumbai Rabale,Mumbai,"PAPR 531 ,TTC Industrial Estate MIDC Rabale opp Techno Process, Navi Mumbai Rabale, Mumbai - 400042, Dist.Mumbai, Maharashtra",8046044746,
"Baby Folding Crawl Mat, Mat Size: 1380mm X 1980mm",https://www.indiamart.com/proddetail/baby-folding-crawl-mat-2851935852291.html?pos=17&kwd=baby soft mat&tags=A||||8752.144|Price|product|||TS|rsf:gd-|-stype:attr=1|qr_nm:gd|res:RC4|com-cf:nl|ptrs:na|ktp:N0|mc:84283|mtp:S|qry_typ:P|lang:en|wc:3|cs:8842|v=4,Junior Kart,https://www.indiamart.com/junior-kart-newdelhi/?pos=17&kwd=baby soft mat&tags=A||||8752.144|Price|product|||TS|rsf:gd-|-stype:attr=1|qr_nm:gd|res:RC4|com-cf:nl|ptrs:na|ktp:N0|mc:84283|mtp:S|qry_typ:P|lang:en|wc:3|cs:8842|v=4,False,Samaypur,New Delhi,"CW-668,,SANJAY GANDHI TRANSPORT NAGAR,New Delhi, Samaypur, New Delhi - 110042, Dist.Delhi, Delhi",8047633346,
Baby Chatai,https://www.indiamart.com/proddetail/baby-chatai-2854440851733.html?pos=18&kwd=baby soft mat&tags=A||||8747.203|Price|product|||TS|rsf:gd-|-stype:attr=1|qr_nm:gd|res:RC4|com-cf:nl|ptrs:na|ktp:N0|mc:84283|mtp:S|qry_typ:P|lang:en|wc:3|cs:8842|v=4,Shri Sai Kripa Textiles,https://www.indiamart.com/shrisaikripatextiles/?pos=18&kwd=baby soft mat&tags=A||||8747.203|Price|product|||TS|rsf:gd-|-stype:attr=1|qr_nm:gd|res:RC4|com-cf:nl|ptrs:na|ktp:N0|mc:84283|mtp:S|qry_typ:P|lang:en|wc:3|cs:8842|v=4,False,Chowk,Panipat,"411/7, Near Ram Mandir, Amar Bhawan Chowk, Chowk, Panipat - 132103, Dist.Panipat, Haryana",8045168250,
"Foam Various Baby Mat, Mat Size: 4 X 6,6 X 6",https://www.indiamart.com/proddetail/baby-mat-26273485148.html?pos=19&kwd=baby soft mat&tags=A||||8230.883|Price|product|||MDC|rsf:gd-|-stype:attr=1|qr_nm:gd|res:RC4|com-cf:nl|ptrs:na|ktp:N0|mc:84283|mtp:S|qry_typ:P|lang:en|wc:3|cs:8842|v=4,Arvind Impex,https://www.indiamart.com/arvind-impex-surat/?pos=19&kwd=baby soft mat&tags=A||||8230.883|Price|product|||MDC|rsf:gd-|-stype:attr=1|qr_nm:gd|res:RC4|com-cf:nl|ptrs:na|ktp:N0|mc:84283|mtp:S|qry_typ:P|lang:en|wc:3|cs:8842|v=4,False,Yogeshwar Society,Surat,"Block No-56, RS -33/1, Plot No 57, Opp. Rang Avdhut Society,, Yogeshwar Society, Surat - 395010, Dist.Surat, Gujarat",8043863686,
F934 Toy Park 3D Area Underwater World Printing Rug Pad With Non Slip Material,https://www.indiamart.com/proddetail/f934-toy-park-3d-area-underwater-world-printing-rug-pad-with-non-slip-material-24177219830.html?pos=20&kwd=baby soft mat&tags=A||||8752.144|Price|product|||TS|rsf:gd-|-stype:attr=1|qr_nm:gd|res:RC4|com-cf:nl|ptrs:na|ktp:N0|mc:84283|mtp:S|qry_typ:P|lang:en|wc:3|cs:8842|v=4,Toy Park Delhi Private Limited,https://www.toypark.co.in/?pos=20&kwd=baby soft mat&tags=A||||8752.144|Price|product|||TS|rsf:gd-|-stype:attr=1|qr_nm:gd|res:RC4|com-cf:nl|ptrs:na|ktp:N0|mc:84283|mtp:S|qry_typ:P|lang:en|wc:3|cs:8842|v=4,False,Karol Bagh,New Delhi,"No. 17A/56, W.E.A, Karol Bagh, Near Metro Pillar 98-99, Karol Bagh, New Delhi - 110005, Dist.Delhi, Delhi",8046052967,
EVA Multicolor Baby Play Mat,https://www.indiamart.com/proddetail/baby-play-mat-2849769813488.html?pos=21&kwd=baby soft mat&tags=A||||8747.203|Price|product|||TS|rsf:gd-|-stype:attr=1|qr_nm:gd|res:RC4|com-cf:nl|ptrs:na|ktp:N0|mc:84283|mtp:S|qry_typ:P|lang:en|wc:3|cs:8842|v=4,Shiv Textiles,https://www.indiamart.com/shivtextilespanipat/?pos=21&kwd=baby soft mat&tags=A||||8747.203|Price|product|||TS|rsf:gd-|-stype:attr=1|qr_nm:gd|res:RC4|com-cf:nl|ptrs:na|ktp:N0|mc:84283|mtp:S|qry_typ:P|lang:en|wc:3|cs:8842|v=4,False,Jagjivan Ram Colony,Panipat,"Shop No.19-C, Aggarwal Gali Number 1, Gohana Road, Jagjivan Ram Colony, Panipat - 132103, Dist.Panipat, Haryana",7942665530,
"Rubber Set Of 4 Colours Kids Mat, Mat Size: 2x2 Foot, Interlocking",https://www.indiamart.com/proddetail/kids-mat-2851972918173.html?pos=22&kwd=baby soft mat&tags=BA||||8752.144|Price|product|||TS|rsf:gd-|-stype:attr=1|qr_nm:gd|res:RC4|com-cf:nl|ptrs:na|ktp:N0|mc:84283|mtp:S|qry_typ:P|lang:en|wc:3|cs:8842|v=4,Ankit Polymers,https://www.indiamart.com/ankitpolymers-delhi/?pos=22&kwd=baby soft mat&tags=BA||||8752.144|Price|product|||TS|rsf:gd-|-stype:attr=1|qr_nm:gd|res:RC4|com-cf:nl|ptrs:na|ktp:N0|mc:84283|mtp:S|qry_typ:P|lang:en|wc:3|cs:8842|v=4,False,Bawana,New Delhi,"M-198, Sector 1, DSIIDC, Bawana, New Delhi - 110039, Dist.Delhi, Delhi",8047640834,
Printed Newborn Baby Mattresse,https://www.indiamart.com/proddetail/printed-newborn-baby-mattresse-2851499920791.html?pos=23&kwd=baby soft mat&tags=BA||||8230.883|Price|product|||TS|rsf:gd-|-stype:attr=1|qr_nm:gd|res:RC4|com-cf:nl|ptrs:na|ktp:N0|mc:84283|mtp:S|qry_typ:P|lang:en|wc:3|cs:8842|v=4,Maa Kiran Handloom & Jiyana,https://www.indiamart.com/maakiranhandloomjiyana/?pos=23&kwd=baby soft mat&tags=BA||||8230.883|Price|product|||TS|rsf:gd-|-stype:attr=1|qr_nm:gd|res:RC4|com-cf:nl|ptrs:na|ktp:N0|mc:84283|mtp:S|qry_typ:P|lang:en|wc:3|cs:8842|v=4,False,Udhana,Surat,"Shop No.17, Ground Floor, Astha Business Centre, Canal Road,, Udhana, Surat - 394185, Dist.Surat, Gujarat",7942788374,
PLAY MAT NEW JG BIG,https://www.indiamart.com/proddetail/play-mat-new-jg-big-2853221597262.html?pos=24&kwd=baby soft mat&tags=BA||||8211.142|Price|product|||TS|rsf:gd-|-stype:attr=1|qr_nm:gd|res:RC4|com-cf:nl|ptrs:na|ktp:N0|mc:84283|mtp:S|qry_typ:P|lang:en|wc:3|cs:8842|v=4,A.K.N Traders,https://www.akntraders.com/?pos=24&kwd=baby soft mat&tags=BA||||8211.142|Price|product|||TS|rsf:gd-|-stype:attr=1|qr_nm:gd|res:RC4|com-cf:nl|ptrs:na|ktp:N0|mc:84283|mtp:S|qry_typ:P|lang:en|wc:3|cs:8842|v=4,False,Mazgaon Road,Mumbai,"25th Floor, 250, Saifee Park, Mascrenhas Road, Mazogaon,, Mazgaon Road, Mumbai - 400010, Dist.Mumbai, Maharashtra",7942869187,
"Foam Baby Soft Mat, Newly Born",https://www.indiamart.com/proddetail/baby-soft-mat-2853600071330.html?pos=25&kwd=baby soft mat&tags=A||||8307.81|Price|product|||TS|rsf:gd-|-stype:attr=1|qr_nm:gd|res:RC4|com-cf:nl|ptrs:na|ktp:N0|mc:84283|mtp:S|qry_typ:P|lang:en|wc:3|cs:8842|v=4,Lazytoddler Solutions Private Limited,https://www.indiamart.com/lazytoddler-solutions/?pos=25&kwd=baby soft mat&tags=A||||8307.81|Price|product|||TS|rsf:gd-|-stype:attr=1|qr_nm:gd|res:RC4|com-cf:nl|ptrs:na|ktp:N0|mc:84283|mtp:S|qry_typ:P|lang:en|wc:3|cs:8842|v=4,False,Wakad,Pune,"A2-1001, Fl-A1, Behind Madhuban Hotel, S.No-40, Armada Parkhe Wasti, Wakad, Wakad, Pune - 411057, Dist.Pune, Maharashtra",8043819563,
"Micro Polyester Plain Stripe Bath Mat, For Bedroom",https://www.indiamart.com/proddetail/stripe-bath-mat-25833144030.html?pos=26&kwd=baby soft mat&tags=BA||||8747.203|Price|product|||TS|rsf:gd-|-stype:attr=1|qr_nm:gd|res:RC4|com-cf:nl|ptrs:na|ktp:N0|mc:84283|mtp:S|qry_typ:P|lang:en|wc:3|cs:8842|v=4,R N Fibers,https://www.indiamart.com/rnfibers/?pos=26&kwd=baby soft mat&tags=BA||||8747.203|Price|product|||TS|rsf:gd-|-stype:attr=1|qr_nm:gd|res:RC4|com-cf:nl|ptrs:na|ktp:N0|mc:84283|mtp:S|qry_typ:P|lang:en|wc:3|cs:8842|v=4,False,Industrial Area,Panipat,"Floora Chowk, Nangalkheri, Killa No. 7/1 Muraba No. 62, Sector-29, Industrial Area, Panipat - 132103, Dist.Panipat, Haryana",8047658595,
Foam Multicolor Dazzlia BABY CRAWLING MATT,https://www.indiamart.com/proddetail/dazzlia-baby-crawling-matt-2850261089697.html?pos=27&kwd=baby soft mat&tags=BA||||8228.275|Price|product|||TS|rsf:gd-|-stype:attr=1|qr_nm:gd|res:RC4|com-cf:nl|ptrs:na|ktp:N0|mc:84283|mtp:S|qry_typ:P|lang:en|wc:3|cs:8842|v=4,Rushabh Business Centre,https://www.indiamart.com/rushabh-business-centre/?pos=27&kwd=baby soft mat&tags=BA||||8228.275|Price|product|||TS|rsf:gd-|-stype:attr=1|qr_nm:gd|res:RC4|com-cf:nl|ptrs:na|ktp:N0|mc:84283|mtp:S|qry_typ:P|lang:en|wc:3|cs:8842|v=4,False,Satellite Nehru Nagar,Ahmedabad,"Shop No.7, Ground Floor, Galaxy Mall, Opp Jhansi Ki Rani Brts , Nerhu Nagar, Satellite Nehru Nagar, Ahmedabad - 380015, Dist.Ahmedabad, Gujarat",8047622454,
"Plastic/Rubber Rectangular Baby Plastic Mat, Mat Size: 69*50*8cm",https://www.indiamart.com/proddetail/baby-plastic-mat-25932138688.html?pos=28&kwd=baby soft mat&tags=A||||8752.144|Price|product|||TS|rsf:gd-|-stype:attr=1|qr_nm:gd|res:RC4|com-cf:nl|ptrs:na|ktp:N0|mc:84283|mtp:S|qry_typ:P|lang:en|wc:3|cs:8842|v=4,Saksham,https://www.indiamart.com/saksham-delhi/?pos=28&kwd=baby soft mat&tags=A||||8752.144|Price|product|||TS|rsf:gd-|-stype:attr=1|qr_nm:gd|res:RC4|com-cf:nl|ptrs:na|ktp:N0|mc:84283|mtp:S|qry_typ:P|lang:en|wc:3|cs:8842|v=4,False,Sangam Vihar,New Delhi,"Sangam Vihar New Delhi 110080 Gali No 15/A( Near By Hamdard Public School Gate No. 1), Sangam Vihar, New Delhi - 110034, Dist.Delhi, Delhi",8048265471,
"Rubber Blue Baby Water Mat, Packaging Type: Box",https://www.indiamart.com/proddetail/baby-water-mat-25453961673.html?pos=29&kwd=baby soft mat&tags=A||||8752.144|Price|product|||TS|rsf:gd-|-stype:attr=1|qr_nm:gd|res:RC4|com-cf:nl|ptrs:na|ktp:N0|mc:84283|mtp:S|qry_typ:P|lang:en|wc:3|cs:8842|v=4,LBM Import India,https://www.indiamart.com/lbmimportindia/?pos=29&kwd=baby soft mat&tags=A||||8752.144|Price|product|||TS|rsf:gd-|-stype:attr=1|qr_nm:gd|res:RC4|com-cf:nl|ptrs:na|ktp:N0|mc:84283|mtp:S|qry_typ:P|lang:en|wc:3|cs:8842|v=4,False,Shastri Nagar,New Delhi,"House No. 253, Block E-2, Shastri Nagar, New Delhi - 110052, Dist.Delhi, Delhi",8046032633,
"Foam Multicolor D23 CUTE BABY HAMMY FAMILYS MAT, Packaging Type: Box",https://www.indiamart.com/proddetail/d23-cute-baby-hammy-familys-mat-2853089685591.html?pos=30&kwd=baby soft mat&tags=A||||8211.142|Price|product|||TS|rsf:gd-|-stype:attr=1|qr_nm:gd|res:RC4|com-cf:nl|ptrs:na|ktp:N0|mc:84283|mtp:S|qry_typ:P|lang:en|wc:3|cs:8842|v=4,Taaj Traders,https://www.taajtraders.com/?pos=30&kwd=baby soft mat&tags=A||||8211.142|Price|product|||TS|rsf:gd-|-stype:attr=1|qr_nm:gd|res:RC4|com-cf:nl|ptrs:na|ktp:N0|mc:84283|mtp:S|qry_typ:P|lang:en|wc:3|cs:8842|v=4,False,Mandvi,Mumbai,"12,1st, Plot - 30/32, Naseem Manzil, Miya Ahmed Chotani Marg, Mandvi, Mumbai - 400003, Dist.Mumbai, Maharashtra",8048209836,
"Xpe Printed Baby Folding Mat For Kids Large Size, Mat Size: 6.5*5ft",https://www.indiamart.com/proddetail/baby-folding-mat-for-kids-large-size-23506145855.html?pos=31&kwd=baby soft mat&tags=A||||8307.81|Price|product|||TS|rsf:gd-|-stype:attr=1|qr_nm:gd|res:RC4|com-cf:nl|ptrs:na|ktp:N0|mc:84283|mtp:S|qry_typ:P|lang:en|wc:3|cs:8842|v=4,Shop Drive,https://www.indiamart.com/shop-drive/?pos=31&kwd=baby soft mat&tags=A||||8307.81|Price|product|||TS|rsf:gd-|-stype:attr=1|qr_nm:gd|res:RC4|com-cf:nl|ptrs:na|ktp:N0|mc:84283|mtp:S|qry_typ:P|lang:en|wc:3|cs:8842|v=4,False,Kondhwa Budruk,Pune,"Sr No. 37/1/4/3/1,Pisoli Rd Mohan Marble Lane Khadi Machine Chowk, Kondhwa Budruk, Pune - 411048, Dist.Pune, Maharashtra",8046038016,
"Shree Hans Creation Double Sided Water Proof Baby Play Mat, Play Mats For Kids Large Size",https://www.indiamart.com/proddetail/shree-hans-creation-double-sided-water-proof-baby-play-mat-play-mats-for-kids-large-size-24416511230.html?pos=32&kwd=baby soft mat&tags=A||||8230.883|Price|product|||TS|rsf:gd-|-stype:attr=1|qr_nm:gd|res:RC4|com-cf:nl|ptrs:na|ktp:N0|mc:84283|mtp:S|qry_typ:P|lang:en|wc:3|cs:8842|v=4,Ankita Jeetubhai Lokdiya,https://www.hanscart.com/?pos=32&kwd=baby soft mat&tags=A||||8230.883|Price|product|||TS|rsf:gd-|-stype:attr=1|qr_nm:gd|res:RC4|com-cf:nl|ptrs:na|ktp:N0|mc:84283|mtp:S|qry_typ:P|lang:en|wc:3|cs:8842|v=4,False,Katargam,Surat,"Block No.82, Plot No.C1, Ground Floor, Palod, Nr.Bank Of India, Nr.Kim Chowkdi, Kim, Katargam, Surat - 394110, Dist.Surat, Gujarat",8046041344,
"Rubber Baby Soft Mat, Newly Born",https://www.indiamart.com/proddetail/baby-soft-mat-2854518263930.html?pos=33&kwd=baby soft mat&tags=A||||8281.036|Price|product|||MDC|rsf:gd-|-stype:attr=1|qr_nm:gd|res:RC4|com-cf:nl|ptrs:na|ktp:N0|mc:84283|mtp:S|qry_typ:P|lang:en|wc:3|cs:8842|v=4,Case Plus,https://www.indiamart.com/case-plus/?pos=33&kwd=baby soft mat&tags=A||||8281.036|Price|product|||MDC|rsf:gd-|-stype:attr=1|qr_nm:gd|res:RC4|com-cf:nl|ptrs:na|ktp:N0|mc:84283|mtp:S|qry_typ:P|lang:en|wc:3|cs:8842|v=4,False,,Vadodara,"A-22, Siddharth Annexe 3, Near Hotel Plazzo, Vemali, Vadodara - 391740, Dist.Vadodara, Gujarat",7949341771,
Foam Square Baby Mat,https://www.indiamart.com/proddetail/square-baby-mat-2854957417497.html?pos=34&kwd=baby soft mat&tags=A||||8747.203|Price|product|||MDC|rsf:gd-|-stype:attr=1|qr_nm:gd|res:RC4|com-cf:nl|ptrs:na|ktp:N0|mc:84283|mtp:S|qry_typ:P|lang:en|wc:3|cs:8842|v=4,Bansal & Son'S,https://www.indiamart.com/bansalsons-panipat/?pos=34&kwd=baby soft mat&tags=A||||8747.203|Price|product|||MDC|rsf:gd-|-stype:attr=1|qr_nm:gd|res:RC4|com-cf:nl|ptrs:na|ktp:N0|mc:84283|mtp:S|qry_typ:P|lang:en|wc:3|cs:8842|v=4,False,,Panipat,"Beri Wali Masjid, Near Ajeet Atta Chakki, Mahdev Colony, Panipat - 132103, Dist.Panipat, Haryana",8041011125,
Baby Education Mat Bag,https://www.indiamart.com/proddetail/baby-education-mat-bag-2854912762173.html?pos=35&kwd=baby soft mat&tags=A||||8230.883|Price|product|||MDC|rsf:gd-|-stype:attr=1|qr_nm:gd|res:RC4|com-cf:nl|ptrs:na|ktp:N0|mc:84283|mtp:S|qry_typ:P|lang:en|wc:3|cs:8842|v=4,SN Enterprise,https://www.indiamart.com/snenterprise-surat/?pos=35&kwd=baby soft mat&tags=A||||8230.883|Price|product|||MDC|rsf:gd-|-stype:attr=1|qr_nm:gd|res:RC4|com-cf:nl|ptrs:na|ktp:N0|mc:84283|mtp:S|qry_typ:P|lang:en|wc:3|cs:8842|v=4,False,,Surat,"Plot 130/131, 2nd Floor, Flat 201, Balaji Nagar SOC-1, Shri Siddhi Vinayak Place, Surat - 395004, Dist.Surat, Gujarat",8041015777,
Baby Changing Mat,https://www.indiamart.com/proddetail/baby-changing-mat-2851320361833.html?pos=36&kwd=baby soft mat&tags=BA||||8752.144|Price|product|||TS|rsf:gd-|-stype:attr=1|qr_nm:gd|res:RC4|com-cf:nl|ptrs:na|ktp:N0|mc:84283|mtp:S|qry_typ:P|lang:en|wc:3|cs:8842|v=4,Bankey Bihari Enterprises,https://www.indiamart.com/bankey-bihari-enterprisesnewdelhi/?pos=36&kwd=baby soft mat&tags=BA||||8752.144|Price|product|||TS|rsf:gd-|-stype:attr=1|qr_nm:gd|res:RC4|com-cf:nl|ptrs:na|ktp:N0|mc:84283|mtp:S|qry_typ:P|lang:en|wc:3|cs:8842|v=4,False,Jahangirpuri,New Delhi,"Plot No 51 First Floor Street No 11 Harijan Colony Village Bhalsva, Jahangirpuri, New Delhi - 110033, Dist.Delhi, Delhi",7942825166,
"Unisex BabySoft Activity Mat, Size: 81 Cm Dia",https://www.indiamart.com/proddetail/babysoft-activity-mat-22970806797.html?pos=37&kwd=baby soft mat&tags=BA||||8778.123|Price|product|||TS|rsf:gd-|-stype:attr=1|qr_nm:gd|res:RC4|com-cf:nl|ptrs:na|ktp:N0|mc:84283|mtp:S|qry_typ:P|lang:en|wc:3|cs:8842|v=4,Oscar Overseas,https://www.oscar-india.com/?pos=37&kwd=baby soft mat&tags=BA||||8778.123|Price|product|||TS|rsf:gd-|-stype:attr=1|qr_nm:gd|res:RC4|com-cf:nl|ptrs:na|ktp:N0|mc:84283|mtp:S|qry_typ:P|lang:en|wc:3|cs:8842|v=4,False,,Noida,"A-99 Sector 5, Noida - 201301, Dist.Gautam Budh Nagar, Uttar Pradesh",8046058290,
Blue Baby Water Play Mat,https://www.indiamart.com/proddetail/baby-water-play-mat-23953381633.html?pos=38&kwd=baby soft mat&tags=BB||||8230.883|Price|product|||TS|rsf:gd-|-stype:attr=1|qr_nm:gd|res:RC4|com-cf:nl|ptrs:na|ktp:N0|mc:84283|mtp:S|qry_typ:P|lang:en|wc:3|cs:8842|v=4,Trusthaven,https://www.indiamart.com/ankush-international-surat/?pos=38&kwd=baby soft mat&tags=BB||||8230.883|Price|product|||TS|rsf:gd-|-stype:attr=1|qr_nm:gd|res:RC4|com-cf:nl|ptrs:na|ktp:N0|mc:84283|mtp:S|qry_typ:P|lang:en|wc:3|cs:8842|v=4,False,Varni palace near rasi circle,Surat,"Buil-B, Flat No. B/501, Opp. Western Somchintamani, Sahstrafana Saubhagya Residency, Pal Katargam, Varni palace near rasi circle, Surat - 395009, Dist.Surat, Gujarat",8048964329,
Rubberised Baby Mats,https://www.indiamart.com/proddetail/rubberised-baby-mats-4929056473.html?pos=39&kwd=baby soft mat&tags=BA||||9839.57|Price|product|||TS|rsf:gd-|-stype:attr=1|qr_nm:gd|res:RC4|com-cf:nl|ptrs:na|ktp:N0|mc:84283|mtp:S|qry_typ:P|lang:en|wc:3|cs:8842|v=4,Poddar Sales Private Limited,https://www.poddarsales.com/?pos=39&kwd=baby soft mat&tags=BA||||9839.57|Price|product|||TS|rsf:gd-|-stype:attr=1|qr_nm:gd|res:RC4|com-cf:nl|ptrs:na|ktp:N0|mc:84283|mtp:S|qry_typ:P|lang:en|wc:3|cs:8842|v=4,False,Building,Kolkata,"Ground Floor, Block B, Mercantile Buildings, 9, Lalbazar Street, K0lkata, Building, Kolkata - 700001, Dist.Kolkata, West Bengal",8048954212,
"Cotton Baby Soft Mat, Newly Born",https://www.indiamart.com/proddetail/baby-soft-mat-2854367375112.html?pos=40&kwd=baby soft mat&tags=BA||||9572.14|Price|product|||MDC|rsf:gd-|-stype:attr=1|qr_nm:gd|res:RC4|com-cf:nl|ptrs:na|ktp:N0|mc:84283|mtp:S|qry_typ:P|lang:en|wc:3|cs:8842|v=4,OMM Saikrupa Medicines,https://www.indiamart.com/omm-saikrupa-medicines/?pos=40&kwd=baby soft mat&tags=BA||||9572.14|Price|product|||MDC|rsf:gd-|-stype:attr=1|qr_nm:gd|res:RC4|com-cf:nl|ptrs:na|ktp:N0|mc:84283|mtp:S|qry_typ:P|lang:en|wc:3|cs:8842|v=4,False,,Bhubaneswar,"Plot No. N-1/10, IRC Village, Nayapalli,, Bhubaneswar - 751015, Dist.Khorda, Odisha",7949337001,
Baby Folding Mat,https://www.indiamart.com/proddetail/baby-folding-mat-2854182467148.html?pos=41&kwd=baby soft mat&tags=BA||||8752.144|Price|product|||TS|rsf:gd-|-stype:attr=1|qr_nm:gd|res:RC4|com-cf:nl|ptrs:na|ktp:N0|mc:84283|mtp:S|qry_typ:P|lang:en|wc:3|cs:8842|v=4,Healthy Chacha International,https://www.healthychacha.com/?pos=41&kwd=baby soft mat&tags=BA||||8752.144|Price|product|||TS|rsf:gd-|-stype:attr=1|qr_nm:gd|res:RC4|com-cf:nl|ptrs:na|ktp:N0|mc:84283|mtp:S|qry_typ:P|lang:en|wc:3|cs:8842|v=4,False,Jhandewalan,New Delhi,"E-37, Jhandewalan Flatted Factory Complex, Jhandewalan, New Delhi - 110055, Dist.Delhi, Delhi",8048974489,
Duckback Baby Mat,https://www.indiamart.com/proddetail/duckback-baby-mat-13112687091.html?pos=42&kwd=baby soft mat&tags=BA||||8954.051|Price|product|||SSlc|rsf:gd-|-stype:attr=1|qr_nm:gd|res:RC4|com-cf:nl|ptrs:na|ktp:N0|mc:84283|mtp:S|qry_typ:P|lang:en|wc:3|cs:8842|v=4,Hindustan Industries,https://www.indiamart.com/hindustanindustries-chennai/?pos=42&kwd=baby soft mat&tags=BA||||8954.051|Price|product|||SSlc|rsf:gd-|-stype:attr=1|qr_nm:gd|res:RC4|com-cf:nl|ptrs:na|ktp:N0|mc:84283|mtp:S|qry_typ:P|lang:en|wc:3|cs:8842|v=4,False,Seven Wells,Chennai,"No. 10/40, Mangammal Street Seven Wells, Seven Wells, Chennai - 600001, Dist.Chennai, Tamil Nadu",8046071147,
"Rectangular Shape Gravolite Printed Kids Fun Mats, Mat Size: 2 Feet * 6 Feet",https://www.indiamart.com/proddetail/gravolite-printed-kids-fun-mats-14246734562.html?pos=43&kwd=baby soft mat&tags=BA||||8752.144|Price|product|||TS|rsf:gd-|-stype:attr=1|qr_nm:gd|res:RC4|com-cf:nl|ptrs:na|ktp:N0|mc:84283|mtp:S|qry_typ:P|lang:en|wc:3|cs:8842|v=4,Somani Enterprises,https://www.matskart.in/?pos=43&kwd=baby soft mat&tags=BA||||8752.144|Price|product|||TS|rsf:gd-|-stype:attr=1|qr_nm:gd|res:RC4|com-cf:nl|ptrs:na|ktp:N0|mc:84283|mtp:S|qry_typ:P|lang:en|wc:3|cs:8842|v=4,False,Pitampura,New Delhi,"B-47/48 Mangolupuri Industrial Area, Phase-2, Pitampura, New Delhi - 110034, Dist.Delhi, Delhi",8048980729,
"Cotton Baby Soft Mat, Newly Born",https://www.indiamart.com/proddetail/baby-soft-mat-2854367375112.html?pos=44&kwd=baby soft mat&tags=BA||||9572.14|Price|product|||MDC|rsf:gd-|-stype:attr=1|qr_nm:gd|res:RC4|com-cf:nl|ptrs:na|ktp:N0|mc:84283|mtp:S|qry_typ:P|lang:en|wc:3|cs:8842|v=4,OMM Saikrupa Medicines,https://www.indiamart.com/omm-saikrupa-medicines/?pos=44&kwd=baby soft mat&tags=BA||||9572.14|Price|product|||MDC|rsf:gd-|-stype:attr=1|qr_nm:gd|res:RC4|com-cf:nl|ptrs:na|ktp:N0|mc:84283|mtp:S|qry_typ:P|lang:en|wc:3|cs:8842|v=4,False,,Bhubaneswar,"Plot No. N-1/10, IRC Village, Nayapalli,, Bhubaneswar - 751015, Dist.Khorda, Odisha",7949337001,
Baby Changing Mat,https://www.indiamart.com/proddetail/baby-changing-mat-2851320361833.html?pos=45&kwd=baby soft mat&tags=BA||||8752.144|Price|product|||TS|rsf:gd-|-stype:attr=1|qr_nm:gd|res:RC4|com-cf:nl|ptrs:na|ktp:N0|mc:84283|mtp:S|qry_typ:P|lang:en|wc:3|cs:8842|v=4,Bankey Bihari Enterprises,https://www.indiamart.com/bankey-bihari-enterprisesnewdelhi/?pos=45&kwd=baby soft mat&tags=BA||||8752.144|Price|product|||TS|rsf:gd-|-stype:attr=1|qr_nm:gd|res:RC4|com-cf:nl|ptrs:na|ktp:N0|mc:84283|mtp:S|qry_typ:P|lang:en|wc:3|cs:8842|v=4,False,Jahangirpuri,New Delhi,"Plot No 51 First Floor Street No 11 Harijan Colony Village Bhalsva, Jahangirpuri, New Delhi - 110033, Dist.Delhi, Delhi",7942825166,
Duckback Baby Mat,https://www.indiamart.com/proddetail/duckback-baby-mat-13112687091.html?pos=46&kwd=baby soft mat&tags=BA||||8954.051|Price|product|||SSlc|rsf:gd-|-stype:attr=1|qr_nm:gd|res:RC4|com-cf:nl|ptrs:na|ktp:N0|mc:84283|mtp:S|qry_typ:P|lang:en|wc:3|cs:8842|v=4,Hindustan Industries,https://www.indiamart.com/hindustanindustries-chennai/?pos=46&kwd=baby soft mat&tags=BA||||8954.051|Price|product|||SSlc|rsf:gd-|-stype:attr=1|qr_nm:gd|res:RC4|com-cf:nl|ptrs:na|ktp:N0|mc:84283|mtp:S|qry_typ:P|lang:en|wc:3|cs:8842|v=4,False,Seven Wells,Chennai,"No. 10/40, Mangammal Street Seven Wells, Seven Wells, Chennai - 600001, Dist.Chennai, Tamil Nadu",8046071147,
"Kids Leakproof Water Mat, Fun Activity Play Center Indoor and Outdoor",https://www.indiamart.com/proddetail/kids-leakproof-water-mat-fun-activity-play-center-indoor-and-outdoor-2853091666433.html?pos=47&kwd=baby soft mat&tags=A||||8307.81|Price|product|||TS|rsf:gd-|-stype:attr=1|qr_nm:gd|res:RC4|com-cf:nl|ptrs:na|ktp:N0|mc:84283|mtp:S|qry_typ:P|lang:en|wc:3|cs:8842|v=4,Mega Corporation,https://www.indiamart.com/mega-corporation-pune/?pos=47&kwd=baby soft mat&tags=A||||8307.81|Price|product|||TS|rsf:gd-|-stype:attr=1|qr_nm:gd|res:RC4|com-cf:nl|ptrs:na|ktp:N0|mc:84283|mtp:S|qry_typ:P|lang:en|wc:3|cs:8842|v=4,False,Budhwar Peth,Pune,"1st Floor, 708/709, Shivganga Complex, K Sham Singh Pardeshi Marg, Near Sakal Press Office, Budhwar Peth, Budhwar Peth, Pune - 411002, Dist.Pune, Maharashtra",7942712457,
"Xpe Printed Baby Folding Mat For Kids Large Size, Mat Size: 6.5*5ft",https://www.indiamart.com/proddetail/baby-folding-mat-for-kids-large-size-23506145855.html?pos=48&kwd=baby soft mat&tags=A||||8307.81|Price|product|||TS|rsf:gd-|-stype:attr=1|qr_nm:gd|res:RC4|com-cf:nl|ptrs:na|ktp:N0|mc:84283|mtp:S|qry_typ:P|lang:en|wc:3|cs:8842|v=4,Shop Drive,https://www.indiamart.com/shop-drive/?pos=48&kwd=baby soft mat&tags=A||||8307.81|Price|product|||TS|rsf:gd-|-stype:attr=1|qr_nm:gd|res:RC4|com-cf:nl|ptrs:na|ktp:N0|mc:84283|mtp:S|qry_typ:P|lang:en|wc:3|cs:8842|v=4,False,Kondhwa Budruk,Pune,"Sr No. 37/1/4/3/1,Pisoli Rd Mohan Marble Lane Khadi Machine Chowk, Kondhwa Budruk, Pune - 411048, Dist.Pune, Maharashtra",8046038016,
Multicolor Kids Play Mat 4 Ft x 6 Ft,https://www.indiamart.com/proddetail/kids-play-mat-4-ft-x-6-ft-26243611591.html?pos=49&kwd=baby soft mat&tags=A||||8752.144|Price|product|||TS|rsf:gd-|-stype:attr=1|qr_nm:gd|res:RC4|com-cf:nl|ptrs:na|ktp:N0|mc:84283|mtp:S|qry_typ:P|lang:en|wc:3|cs:8842|v=4,Paramount Foams Private Limited.,https://www.paramountfoams.co.in/?pos=49&kwd=baby soft mat&tags=A||||8752.144|Price|product|||TS|rsf:gd-|-stype:attr=1|qr_nm:gd|res:RC4|com-cf:nl|ptrs:na|ktp:N0|mc:84283|mtp:S|qry_typ:P|lang:en|wc:3|cs:8842|v=4,False,Pitampura,New Delhi,"350, 2nd Floor, Tarun Enclave, Pitampura, New Delhi - 110034, Dist.Delhi, Delhi",8043815404,
EVA Multicolor Kids Play Mat Foam Foldable,https://www.indiamart.com/proddetail/kids-play-mat-foam-foldable-2854796097330.html?pos=50&kwd=baby soft mat&tags=BB||||8230.883|Price|product|||TS|rsf:gd-|-stype:attr=1|qr_nm:gd|res:RC4|com-cf:nl|ptrs:na|ktp:N0|mc:84283|mtp:S|qry_typ:P|lang:en|wc:3|cs:8842|v=4,Hilltop Enterprises,https://www.indiamart.com/hilltop-enterprisesgujarat/?pos=50&kwd=baby soft mat&tags=BB||||8230.883|Price|product|||TS|rsf:gd-|-stype:attr=1|qr_nm:gd|res:RC4|com-cf:nl|ptrs:na|ktp:N0|mc:84283|mtp:S|qry_typ:P|lang:en|wc:3|cs:8842|v=4,False,,Surat,"132,1st Floor,Gruham Icon,Kosad Road, Surat - 394107, Dist.Surat, Gujarat",8044456788,
Embroidered Eva Foam Interlocking Baby Playing Mats 12mm,https://www.indiamart.com/proddetail/eva-foam-interlocking-baby-playing-mats-12mm-2853232729848.html?pos=51&kwd=baby soft mat&tags=BA||||8752.144|Price|product|||MDC|rsf:gd-|-stype:attr=1|qr_nm:gd|res:RC4|com-cf:nl|ptrs:na|ktp:N0|mc:84283|mtp:S|qry_typ:P|lang:en|wc:3|cs:8842|v=4,Fuse Fitness Guru Private Limited,https://www.indiamart.com/fusefitnessguru/?pos=51&kwd=baby soft mat&tags=BA||||8752.144|Price|product|||MDC|rsf:gd-|-stype:attr=1|qr_nm:gd|res:RC4|com-cf:nl|ptrs:na|ktp:N0|mc:84283|mtp:S|qry_typ:P|lang:en|wc:3|cs:8842|v=4,False,Mahavir Enclave Part-II,New Delhi,"H-69, Nasir Pur Main Road, Mahavir Enclave Part-II, New Delhi - 110045, Dist.Delhi, Delhi",8047630496,
"Printed White And Blue Baby Soft Mattress Fabric, 220 Gsm",https://www.indiamart.com/proddetail/baby-soft-mattress-fabric-2853385131830.html?pos=52&kwd=baby soft mat&tags=BA||||8230.883||product|||MDC|rsf:gd-|-stype:attr=1|qr_nm:gd|res:RC4|com-cf:nl|ptrs:na|ktp:N0|mc:84283|mtp:S|qry_typ:P|lang:en|wc:3|cs:8842|v=4,Amby Industries,https://www.indiamart.com/amby-industries/?pos=52&kwd=baby soft mat&tags=BA||||8230.883||product|||MDC|rsf:gd-|-stype:attr=1|qr_nm:gd|res:RC4|com-cf:nl|ptrs:na|ktp:N0|mc:84283|mtp:S|qry_typ:P|lang:en|wc:3|cs:8842|v=4,False,Sachin,Surat,"Plot No. 5810, Block No. 343 Paikee and 345 , Sachin GIDC, Road No. 58, Sachin, Surat - 394230, Dist.Surat, Gujarat",7949227539,
PVC Green Printed Baby Bed Sheet,https://www.indiamart.com/proddetail/green-printed-baby-bed-sheet-2853217631355.html?pos=53&kwd=baby soft mat&tags=BA||||8211.142|Price|product|||MDC|rsf:gd-|-stype:attr=1|qr_nm:gd|res:RC4|com-cf:nl|ptrs:na|ktp:N0|mc:84283|mtp:S|qry_typ:P|lang:en|wc:3|cs:8842|v=4,Baby Boutique,https://www.indiamart.com/baby-boutiquemumbai/?pos=53&kwd=baby soft mat&tags=BA||||8211.142|Price|product|||MDC|rsf:gd-|-stype:attr=1|qr_nm:gd|res:RC4|com-cf:nl|ptrs:na|ktp:N0|mc:84283|mtp:S|qry_typ:P|lang:en|wc:3|cs:8842|v=4,False,Masjid Bandar,Mumbai,"7th, 95/99 Flat No. 701, Noori Tower, Sherriff Devi Street, Mandvi, Masjid Bandar, West Mumbai, Masjid Bandar, Mumbai - 400003, Dist.Mumbai, Maharashtra",7942960570,
Printed Cotton Baby Bib,https://www.indiamart.com/proddetail/printed-cotton-baby-bib-2850650073473.html?pos=54&kwd=baby soft mat&tags=BA||||8752.144|Price|product|||MDC|rsf:gd-|-stype:attr=1|qr_nm:gd|res:RC4|com-cf:nl|ptrs:na|ktp:N0|mc:84283|mtp:S|qry_typ:P|lang:en|wc:3|cs:8842|v=4,L T Textiles,https://www.indiamart.com/lttextiles/?pos=54&kwd=baby soft mat&tags=BA||||8752.144|Price|product|||MDC|rsf:gd-|-stype:attr=1|qr_nm:gd|res:RC4|com-cf:nl|ptrs:na|ktp:N0|mc:84283|mtp:S|qry_typ:P|lang:en|wc:3|cs:8842|v=4,False,Pahari Dhiraj,New Delhi,"5189-90 Main Road, Sadar Bazar, Pahari Dhiraj, New Delhi - 110006, Dist.Delhi, Delhi",7942958455,
"Rubber Bol Baby Soft Play Mat, Newly Born",https://www.indiamart.com/proddetail/bol-baby-soft-play-mat-2850668629130.html?pos=55&kwd=baby soft mat&tags=BA||||8228.275|Price|product|||MDC|rsf:gd-|-stype:attr=1|qr_nm:gd|res:RC4|com-cf:nl|ptrs:na|ktp:N0|mc:84283|mtp:S|qry_typ:P|lang:en|wc:3|cs:8842|v=4,Mahalaxmi Babycare Products LLP,https://www.indiamart.com/mahalaxmibabycareproducts/?pos=55&kwd=baby soft mat&tags=BA||||8228.275|Price|product|||MDC|rsf:gd-|-stype:attr=1|qr_nm:gd|res:RC4|com-cf:nl|ptrs:na|ktp:N0|mc:84283|mtp:S|qry_typ:P|lang:en|wc:3|cs:8842|v=4,False,Bapunagar,Ahmedabad,"Survey No. 00697/4585, B No 697/4585 Gujarat Hou Board, Bapunagar, Bapunagar, Ahmedabad - 382424, Dist.Ahmedabad, Gujarat",8047787256,
"Cotton Blue Baby Soft Mat, 3-12 Months, Printed",https://www.indiamart.com/proddetail/baby-soft-mat-2852779989955.html?pos=56&kwd=baby soft mat&tags=BA||||8230.883|Price|product|||TS|rsf:gd-|-stype:attr=1|qr_nm:gd|res:RC4|com-cf:nl|ptrs:na|ktp:N0|mc:84283|mtp:S|qry_typ:P|lang:en|wc:3|cs:8842|v=4,Fibro Laminates Private Limited,https://www.fibrolaminatespvtltd.com/?pos=56&kwd=baby soft mat&tags=BA||||8230.883|Price|product|||TS|rsf:gd-|-stype:attr=1|qr_nm:gd|res:RC4|com-cf:nl|ptrs:na|ktp:N0|mc:84283|mtp:S|qry_typ:P|lang:en|wc:3|cs:8842|v=4,False,Udhana,Surat,"PLOT NO-6125,,GIDC, ROAD NO-61,Surat, Udhana, Surat - 394230, Dist.Surat, Gujarat",7942965280,
Baby Soft Mat,https://www.indiamart.com/proddetail/baby-soft-mat-2853564663030.html?pos=57&kwd=baby soft mat&tags=BA||||8230.883|Price|product|||TS|rsf:gd-|-stype:attr=1|qr_nm:gd|res:RC4|com-cf:nl|ptrs:na|ktp:N0|mc:84283|mtp:S|qry_typ:P|lang:en|wc:3|cs:8842|v=4,Parth Traders,https://www.parthtraders.co.in/?pos=57&kwd=baby soft mat&tags=BA||||8230.883|Price|product|||TS|rsf:gd-|-stype:attr=1|qr_nm:gd|res:RC4|com-cf:nl|ptrs:na|ktp:N0|mc:84283|mtp:S|qry_typ:P|lang:en|wc:3|cs:8842|v=4,False,Udhana,Surat,"BLOCK NO.298,NR. SANGAR FARM, KOSMADA NAHER, KOSMADA,KAMREJ, Udhana, Surat - 395006, Dist.Surat, Gujarat",8047690914,
Baby Soft Mat,https://www.indiamart.com/proddetail/baby-soft-mat-2852581641612.html?pos=58&kwd=baby soft mat&tags=BA||||8230.883|Price|product|||TS|rsf:gd-|-stype:attr=1|qr_nm:gd|res:RC4|com-cf:nl|ptrs:na|ktp:N0|mc:84283|mtp:S|qry_typ:P|lang:en|wc:3|cs:8842|v=4,Victory International,https://www.indiamart.com/victory-intl-surat/?pos=58&kwd=baby soft mat&tags=BA||||8230.883|Price|product|||TS|rsf:gd-|-stype:attr=1|qr_nm:gd|res:RC4|com-cf:nl|ptrs:na|ktp:N0|mc:84283|mtp:S|qry_typ:P|lang:en|wc:3|cs:8842|v=4,False,Bhavani Estate,Surat,"LAND MARK EMPIRE, B G 39, OPP VAKIL VADI, NR PUNA JAKATNAKA, Bhavani Estate, Surat - 395010, Dist.Surat, Gujarat",7942636905,
"Cotton And Foam Printed Baby Fix Pillow Soft Mat, Mat Size: 1h X 65l X 45w Cm",https://www.indiamart.com/proddetail/baby-fix-pillow-soft-mat-22827098748.html?pos=59&kwd=baby soft mat&tags=BA||||8211.142|Price|product|||TS|rsf:gd-|-stype:attr=1|qr_nm:gd|res:RC4|com-cf:nl|ptrs:na|ktp:N0|mc:84283|mtp:S|qry_typ:P|lang:en|wc:3|cs:8842|v=4,Child King Creation,https://www.indiamart.com/childkingcreation-mumbai/?pos=59&kwd=baby soft mat&tags=BA||||8211.142|Price|product|||TS|rsf:gd-|-stype:attr=1|qr_nm:gd|res:RC4|com-cf:nl|ptrs:na|ktp:N0|mc:84283|mtp:S|qry_typ:P|lang:en|wc:3|cs:8842|v=4,False,Malad West,Mumbai,"B 705, Seven Floor, Jagmagia Centre, Mamlatdar Wadi EXTN Road Nahar Nagar, Malad West, Suburban, Malad West, Mumbai - 400064, Dist.Mumbai, Maharashtra",8043805922,
"Printed Blue Cotton Baby Mat, Mat Size: 20 X 30 cm",https://www.indiamart.com/proddetail/cotton-baby-mat-14841411873.html?pos=60&kwd=baby soft mat&tags=BA||||8211.142|Price|product|||TS|rsf:gd-|-stype:attr=1|qr_nm:gd|res:RC4|com-cf:nl|ptrs:na|ktp:N0|mc:84283|mtp:S|qry_typ:P|lang:en|wc:3|cs:8842|v=4,Computech India,https://www.computechindia.net/?pos=60&kwd=baby soft mat&tags=BA||||8211.142|Price|product|||TS|rsf:gd-|-stype:attr=1|qr_nm:gd|res:RC4|com-cf:nl|ptrs:na|ktp:N0|mc:84283|mtp:S|qry_typ:P|lang:en|wc:3|cs:8842|v=4,False,Goregaon,Mumbai,"No. 230, Aashirwad Industrial Estate, No. 5, Ram Mandir Road, Goregaon West, Goregaon, Mumbai - 400104, Dist.Mumbai, Maharashtra",7942553619,
"Baby Mat, Ro",https://www.indiamart.com/proddetail/baby-mat-25872888155.html?pos=61&kwd=baby soft mat&tags=BB||||8211.142|Price|product|||TS|rsf:gd-|-stype:attr=1|qr_nm:gd|res:RC4|com-cf:nl|ptrs:na|ktp:N0|mc:84283|mtp:S|qry_typ:P|lang:en|wc:3|cs:8842|v=4,Zhom Collection,https://www.indiamart.com/zhomcollection/?pos=61&kwd=baby soft mat&tags=BB||||8211.142|Price|product|||TS|rsf:gd-|-stype:attr=1|qr_nm:gd|res:RC4|com-cf:nl|ptrs:na|ktp:N0|mc:84283|mtp:S|qry_typ:P|lang:en|wc:3|cs:8842|v=4,False,Princess Dock,Mumbai,"Narsi Natha Street Katha Bazar Masjid Bandar, Princess Dock, Mumbai - 400009, Dist.Mumbai, Maharashtra",8048970759,
"Cotton Baby Changing Mat, Blue",https://www.indiamart.com/proddetail/baby-changing-mat-21888931473.html?pos=62&kwd=baby soft mat&tags=BA||||8752.144|Price|product|||TS|rsf:gd-|-stype:attr=1|qr_nm:gd|res:RC4|com-cf:nl|ptrs:na|ktp:N0|mc:84283|mtp:S|qry_typ:P|lang:en|wc:3|cs:8842|v=4,Mom & Son,https://www.theindianchoice.com/?pos=62&kwd=baby soft mat&tags=BA||||8752.144|Price|product|||TS|rsf:gd-|-stype:attr=1|qr_nm:gd|res:RC4|com-cf:nl|ptrs:na|ktp:N0|mc:84283|mtp:S|qry_typ:P|lang:en|wc:3|cs:8842|v=4,False,Karawal Nagar,New Delhi,"B-57 Gali Number-1 Mukund Vihar, Near Pnb Bank, Karawal Nagar, New Delhi - 110094, Dist.Delhi, Delhi",7942565509,
"NIRLOBH ENTERPRISE Multicolor Baby Folding Mat, Packaging Type: Plastic, 5",https://www.indiamart.com/proddetail/baby-folding-mat-2853679344533.html?pos=63&kwd=baby soft mat&tags=BA||||8230.883|Price|product|||TS|rsf:gd-|-stype:attr=1|qr_nm:gd|res:RC4|com-cf:nl|ptrs:na|ktp:N0|mc:84283|mtp:S|qry_typ:P|lang:en|wc:3|cs:8842|v=4,Nirlobh Enterprise,https://www.indiamart.com/nirlobh-enterprise/?pos=63&kwd=baby soft mat&tags=BA||||8230.883|Price|product|||TS|rsf:gd-|-stype:attr=1|qr_nm:gd|res:RC4|com-cf:nl|ptrs:na|ktp:N0|mc:84283|mtp:S|qry_typ:P|lang:en|wc:3|cs:8842|v=4,False,Dabholi,Surat,"369,F/F,Ranujadham Co Op Soc.,,Near Khodiyar School,Punagam Surat, Dabholi, Surat - 395010, Dist.Surat, Gujarat",7942628087,
"Napasar Polymer Polyster Printed Baby Mat, Newly Born, Mat Size: 2 Meter",https://www.indiamart.com/proddetail/printed-baby-mat-23490582633.html?pos=64&kwd=baby soft mat&tags=BA||||9839.57|Price|product|||TS|rsf:gd-|-stype:attr=1|qr_nm:gd|res:RC4|com-cf:nl|ptrs:na|ktp:N0|mc:84283|mtp:S|qry_typ:P|lang:en|wc:3|cs:8842|v=4,Napasar Polymer Pvt Ltd,https://www.indiamart.com/napasar-polymer/?pos=64&kwd=baby soft mat&tags=BA||||9839.57|Price|product|||TS|rsf:gd-|-stype:attr=1|qr_nm:gd|res:RC4|com-cf:nl|ptrs:na|ktp:N0|mc:84283|mtp:S|qry_typ:P|lang:en|wc:3|cs:8842|v=4,False,Strand Road,Kolkata,"12, Noormal Lohia Lane, Strand Road, Kolkata - 700007, Dist.Kolkata, West Bengal",7942556530,
Baby Piano Mat,https://www.indiamart.com/proddetail/baby-piano-mat-2854697598048.html?pos=65&kwd=baby soft mat&tags=BB||||8663.873|Price|product|||TS|rsf:gd-|-stype:attr=1|qr_nm:gd|res:RC4|com-cf:nl|ptrs:na|ktp:N0|mc:84283|mtp:S|qry_typ:P|lang:en|wc:3|cs:8842|v=4,Hitendar Sales Corporation,https://www.indiamart.com/hitendarsalescorporation/?pos=65&kwd=baby soft mat&tags=BB||||8663.873|Price|product|||TS|rsf:gd-|-stype:attr=1|qr_nm:gd|res:RC4|com-cf:nl|ptrs:na|ktp:N0|mc:84283|mtp:S|qry_typ:P|lang:en|wc:3|cs:8842|v=4,False,Chickpet,Bengaluru,"No. 109, BB Temple Street, Mamulpet, Chickpet, Chickpet, Bengaluru - 560053, Dist.Bengaluru, Karnataka",8047693080,
Blue Baby Water Mat,https://www.indiamart.com/proddetail/baby-water-mat-25453833512.html?pos=66&kwd=baby soft mat&tags=BA||||8752.144|Price|product|||TS|rsf:gd-|-stype:attr=1|qr_nm:gd|res:RC4|com-cf:nl|ptrs:na|ktp:N0|mc:84283|mtp:S|qry_typ:P|lang:en|wc:3|cs:8842|v=4,JRC Trade India,https://www.indiamart.com/jrstradeindia/?pos=66&kwd=baby soft mat&tags=BA||||8752.144|Price|product|||TS|rsf:gd-|-stype:attr=1|qr_nm:gd|res:RC4|com-cf:nl|ptrs:na|ktp:N0|mc:84283|mtp:S|qry_typ:P|lang:en|wc:3|cs:8842|v=4,False,Shastri Nagar,New Delhi,"House No. 253, Block E 2, Shastri Nagar, New Delhi - 110052, Dist.Delhi, Delhi",8047634068,
Plastic Multicolor Baby Water Mat,https://www.indiamart.com/proddetail/baby-water-mat-26111950662.html?pos=67&kwd=baby soft mat&tags=BB||||8230.883|Price|product|||TS|rsf:gd-|-stype:attr=1|qr_nm:gd|res:RC4|com-cf:nl|ptrs:na|ktp:N0|mc:84283|mtp:S|qry_typ:P|lang:en|wc:3|cs:8842|v=4,Sarvam Cart,https://www.sarvamcart.net/?pos=67&kwd=baby soft mat&tags=BB||||8230.883|Price|product|||TS|rsf:gd-|-stype:attr=1|qr_nm:gd|res:RC4|com-cf:nl|ptrs:na|ktp:N0|mc:84283|mtp:S|qry_typ:P|lang:en|wc:3|cs:8842|v=4,False,Nana Varachha,Surat,"Shop No. 28 Puna Simada Road Anupam The Business Hub Yogi Chowk, Nana Varachha, Surat - 394211, Dist.Surat, Gujarat",8047634175,
"Rubber Square Baby water mat, Mat Size: 20 X 18 X 3",https://www.indiamart.com/proddetail/baby-water-mat-26440252033.html?pos=68&kwd=baby soft mat&tags=BB||||8038.093|Price|product|||TS|rsf:gd-|-stype:attr=1|qr_nm:gd|res:RC4|com-cf:nl|ptrs:na|ktp:N0|mc:84283|mtp:S|qry_typ:P|lang:en|wc:3|cs:8842|v=4,Madhav Enterprise,https://www.indiamart.com/madhav-enterpriserajkot-gujarat/?pos=68&kwd=baby soft mat&tags=BB||||8038.093|Price|product|||TS|rsf:gd-|-stype:attr=1|qr_nm:gd|res:RC4|com-cf:nl|ptrs:na|ktp:N0|mc:84283|mtp:S|qry_typ:P|lang:en|wc:3|cs:8842|v=4,False,Kothariya,Rajkot,"New Ganeshnagar Streetno-5, Near Bapa Sitaram Chowk , Kothariya Main Road, Ganesh Marbel Street,, Kothariya, Rajkot - 360002, Dist.Rajkot, Gujarat",8048613186,
Baby Soft Mat,https://www.indiamart.com/proddetail/baby-soft-mat-2849357386097.html?pos=69&kwd=baby soft mat&tags=BA||||8601.347|Price|product|||TS|rsf:gd-|-stype:attr=1|qr_nm:gd|res:RC4|com-cf:nl|ptrs:na|ktp:N0|mc:84283|mtp:S|qry_typ:P|lang:en|wc:3|cs:8842|v=4,Jagraj Polymers,https://www.jagrajpolymers.com/?pos=69&kwd=baby soft mat&tags=BA||||8601.347|Price|product|||TS|rsf:gd-|-stype:attr=1|qr_nm:gd|res:RC4|com-cf:nl|ptrs:na|ktp:N0|mc:84283|mtp:S|qry_typ:P|lang:en|wc:3|cs:8842|v=4,False,Vishwakarma Industrial Area,Jaipur,"RIICO Housing Colony, Plot No.107, Badarna VKI Area, Vishwakarma Industrial Area, Jaipur - 302013, Dist.Jaipur, Rajasthan",7942674725,
"Plain Medigold Baby Mat Rubber Soft Sheet, Mat Size: 1 X 1.5 M",https://www.indiamart.com/proddetail/medigold-baby-mat-rubber-soft-sheet-25698813312.html?pos=70&kwd=baby soft mat&tags=BB||||8752.144|Price|product|||TS|rsf:gd-|-stype:attr=1|qr_nm:gd|res:RC4|com-cf:nl|ptrs:na|ktp:N0|mc:84283|mtp:S|qry_typ:P|lang:en|wc:3|cs:8842|v=4,JAS Enterprises,https://www.indiamart.com/jasenterprisesnewdelhi/?pos=70&kwd=baby soft mat&tags=BB||||8752.144|Price|product|||TS|rsf:gd-|-stype:attr=1|qr_nm:gd|res:RC4|com-cf:nl|ptrs:na|ktp:N0|mc:84283|mtp:S|qry_typ:P|lang:en|wc:3|cs:8842|v=4,False,Chandni Chowk,New Delhi,"1521-A Bhagirath Palace Chandni Chowk, Chandni Chowk, New Delhi - 110006, Dist.Delhi, Delhi",8047658253,
Blue Baby Water Mat,https://www.indiamart.com/proddetail/baby-water-mat-25453833512.html?pos=71&kwd=baby soft mat&tags=BA||||8752.144|Price|product|||TS|rsf:gd-|-stype:attr=1|qr_nm:gd|res:RC4|com-cf:nl|ptrs:na|ktp:N0|mc:84283|mtp:S|qry_typ:P|lang:en|wc:3|cs:8842|v=4,JRC Trade India,https://www.indiamart.com/jrstradeindia/?pos=71&kwd=baby soft mat&tags=BA||||8752.144|Price|product|||TS|rsf:gd-|-stype:attr=1|qr_nm:gd|res:RC4|com-cf:nl|ptrs:na|ktp:N0|mc:84283|mtp:S|qry_typ:P|lang:en|wc:3|cs:8842|v=4,False,Shastri Nagar,New Delhi,"House No. 253, Block E 2, Shastri Nagar, New Delhi - 110052, Dist.Delhi, Delhi",8047634068,
Plastic Multicolor Baby Water Mat,https://www.indiamart.com/proddetail/baby-water-mat-26111950662.html?pos=72&kwd=baby soft mat&tags=BB||||8230.883|Price|product|||TS|rsf:gd-|-stype:attr=1|qr_nm:gd|res:RC4|com-cf:nl|ptrs:na|ktp:N0|mc:84283|mtp:S|qry_typ:P|lang:en|wc:3|cs:8842|v=4,Sarvam Cart,https://www.sarvamcart.net/?pos=72&kwd=baby soft mat&tags=BB||||8230.883|Price|product|||TS|rsf:gd-|-stype:attr=1|qr_nm:gd|res:RC4|com-cf:nl|ptrs:na|ktp:N0|mc:84283|mtp:S|qry_typ:P|lang:en|wc:3|cs:8842|v=4,False,Nana Varachha,Surat,"Shop No. 28 Puna Simada Road Anupam The Business Hub Yogi Chowk, Nana Varachha, Surat - 394211, Dist.Surat, Gujarat",8047634175,
Rubber Printed Baby Folding Mat,https://www.indiamart.com/proddetail/baby-folding-mat-2851657480591.html?pos=73&kwd=baby soft mat&tags=BA||||8230.883|Price|product|||TS|rsf:gd-|-stype:attr=1|qr_nm:gd|res:RC4|com-cf:nl|ptrs:na|ktp:N0|mc:84283|mtp:S|qry_typ:P|lang:en|wc:3|cs:8842|v=4,RJ Enterprise,https://www.indiamart.com/rj-enterprise-surat/?pos=73&kwd=baby soft mat&tags=BA||||8230.883|Price|product|||TS|rsf:gd-|-stype:attr=1|qr_nm:gd|res:RC4|com-cf:nl|ptrs:na|ktp:N0|mc:84283|mtp:S|qry_typ:P|lang:en|wc:3|cs:8842|v=4,False,Katargam,Surat,"134, Sahjanand Society, N/R Arogyakendra, Katargam, Katargam, Surat - 395004, Dist.Surat, Gujarat",7942555306,
Baby Print Dhaara Healthcare Baby Rubber Mat,https://www.indiamart.com/proddetail/baby-rubber-mat-21076131333.html?pos=74&kwd=baby soft mat&tags=BB||||8752.144|Price|product|||TS|rsf:gd-|-stype:attr=1|qr_nm:gd|res:RC4|com-cf:nl|ptrs:na|ktp:N0|mc:84283|mtp:S|qry_typ:P|lang:en|wc:3|cs:8842|v=4,Manu Shree Surgical Udyog,https://www.medwear.in/?pos=74&kwd=baby soft mat&tags=BB||||8752.144|Price|product|||TS|rsf:gd-|-stype:attr=1|qr_nm:gd|res:RC4|com-cf:nl|ptrs:na|ktp:N0|mc:84283|mtp:S|qry_typ:P|lang:en|wc:3|cs:8842|v=4,False,Patel Nagar,New Delhi,"C-19, West Patel Nagar, Patel Nagar, New Delhi - 110008, Dist.Delhi, Delhi",7942544025,
"Multi Multicolor FOLDING BABY MAT, Packaging Type: Box, 3-12 Months",https://www.indiamart.com/proddetail/folding-baby-mat-2851215924630.html?pos=75&kwd=baby soft mat&tags=BA||||8230.883|Price|product|||TS|rsf:gd-|-stype:attr=1|qr_nm:gd|res:RC4|com-cf:nl|ptrs:na|ktp:N0|mc:84283|mtp:S|qry_typ:P|lang:en|wc:3|cs:8842|v=4,Shreeji Retails,https://www.thesajanihouse.com/?pos=75&kwd=baby soft mat&tags=BA||||8230.883|Price|product|||TS|rsf:gd-|-stype:attr=1|qr_nm:gd|res:RC4|com-cf:nl|ptrs:na|ktp:N0|mc:84283|mtp:S|qry_typ:P|lang:en|wc:3|cs:8842|v=4,False,Alankar Society,Surat,"PLOT NO- 17, OM SATYAM NAGAR SOC., DABHOLI CHAR RASTA, VED ROAD, Alankar Society, Surat - 395004, Dist.Surat, Gujarat",8047654270,
"Rubber Square Baby water mat, Mat Size: 20 X 18 X 3",https://www.indiamart.com/proddetail/baby-water-mat-26440252033.html?pos=76&kwd=baby soft mat&tags=BB||||8038.093|Price|product|||TS|rsf:gd-|-stype:attr=1|qr_nm:gd|res:RC4|com-cf:nl|ptrs:na|ktp:N0|mc:84283|mtp:S|qry_typ:P|lang:en|wc:3|cs:8842|v=4,Madhav Enterprise,https://www.indiamart.com/madhav-enterpriserajkot-gujarat/?pos=76&kwd=baby soft mat&tags=BB||||8038.093|Price|product|||TS|rsf:gd-|-stype:attr=1|qr_nm:gd|res:RC4|com-cf:nl|ptrs:na|ktp:N0|mc:84283|mtp:S|qry_typ:P|lang:en|wc:3|cs:8842|v=4,False,Kothariya,Rajkot,"New Ganeshnagar Streetno-5, Near Bapa Sitaram Chowk , Kothariya Main Road, Ganesh Marbel Street,, Kothariya, Rajkot - 360002, Dist.Rajkot, Gujarat",8048613186,
White Printed Baby bed Korai mat,https://www.indiamart.com/proddetail/baby-bed-korai-mat-2852448544712.html?pos=77&kwd=baby soft mat&tags=BA||||8695.722|Price|product|||TS|rsf:gd-|-stype:attr=1|qr_nm:gd|res:RC4|com-cf:nl|ptrs:na|ktp:N0|mc:84283|mtp:S|qry_typ:P|lang:en|wc:3|cs:8842|v=4,SKV MATS,https://www.indiamart.com/skv-mats/?pos=77&kwd=baby soft mat&tags=BA||||8695.722|Price|product|||TS|rsf:gd-|-stype:attr=1|qr_nm:gd|res:RC4|com-cf:nl|ptrs:na|ktp:N0|mc:84283|mtp:S|qry_typ:P|lang:en|wc:3|cs:8842|v=4,False,M Kallipatti,Mecheri,"9 1 15, Kolkaranur Kattu Valavu, Mecheri Post, Mettur Taluk, Salem Dt, M Kallipatti, Mecheri - 636453, Dist.Salem, Tamil Nadu",8048971705,
"PVC Printed Double Sided Baby Mat, Mat Size: 4*6 Feet",https://www.indiamart.com/proddetail/double-sided-baby-mat-26053017491.html?pos=78&kwd=baby soft mat&tags=BA||||8230.883|Price|product|||TS|rsf:gd-|-stype:attr=1|qr_nm:gd|res:RC4|com-cf:nl|ptrs:na|ktp:N0|mc:84283|mtp:S|qry_typ:P|lang:en|wc:3|cs:8842|v=4,On Shop,https://www.indiamart.com/on-shop/?pos=78&kwd=baby soft mat&tags=BA||||8230.883|Price|product|||TS|rsf:gd-|-stype:attr=1|qr_nm:gd|res:RC4|com-cf:nl|ptrs:na|ktp:N0|mc:84283|mtp:S|qry_typ:P|lang:en|wc:3|cs:8842|v=4,False,Dabholi,Surat,"Sy No.83/2 Ground Floor 56 Pooja Park Housing Society, Dabholi, Surat - 395004, Dist.Surat, Gujarat",8043857985,
Blue Baby Water Play Mat,https://www.indiamart.com/proddetail/baby-water-play-mat-26530711088.html?pos=79&kwd=baby soft mat&tags=BA||||8752.144|Price|product|||TS|rsf:gd-|-stype:attr=1|qr_nm:gd|res:RC4|com-cf:nl|ptrs:na|ktp:N0|mc:84283|mtp:S|qry_typ:P|lang:en|wc:3|cs:8842|v=4,MPS Group,https://www.indiamart.com/mps-group-delhi/?pos=79&kwd=baby soft mat&tags=BA||||8752.144|Price|product|||TS|rsf:gd-|-stype:attr=1|qr_nm:gd|res:RC4|com-cf:nl|ptrs:na|ktp:N0|mc:84283|mtp:S|qry_typ:P|lang:en|wc:3|cs:8842|v=4,False,Azadpur,New Delhi,"House No. 10, Suraj Nagar, Azadpur, North West, Azadpur, New Delhi - 110033, Dist.Delhi, Delhi",8047657378,
"Rectangular Blue Inflatable Baby Water Mat, 3-12 Months, Mat Size: 66 X 50 cm",https://www.indiamart.com/proddetail/inflatable-baby-water-mat-2850394284130.html?pos=80&kwd=baby soft mat&tags=BA||||8752.144|Price|product|||TS|rsf:gd-|-stype:attr=1|qr_nm:gd|res:RC4|com-cf:nl|ptrs:na|ktp:N0|mc:84283|mtp:S|qry_typ:P|lang:en|wc:3|cs:8842|v=4,House Of Luxury,https://www.theholworld.net/?pos=80&kwd=baby soft mat&tags=BA||||8752.144|Price|product|||TS|rsf:gd-|-stype:attr=1|qr_nm:gd|res:RC4|com-cf:nl|ptrs:na|ktp:N0|mc:84283|mtp:S|qry_typ:P|lang:en|wc:3|cs:8842|v=4,False,Budh Vihar,New Delhi,"Plot No - 5, Kh. No. - 89/10/2, 1, Block No. - I-1, Budh Vihar Phase 1, Delhi, North West Delhi, Del, Budh Vihar, New Delhi - 110086, Dist.Delhi, Delhi",7942819716,
"Plastic Printed Double Sided Waterproof Baby Mat, Mat Size: 4ft*6ft",https://www.indiamart.com/proddetail/double-sided-waterproof-baby-mat-24167227812.html?pos=81&kwd=baby soft mat&tags=BA||||8747.203|Price|product|||TS|rsf:gd-|-stype:attr=1|qr_nm:gd|res:RC4|com-cf:nl|ptrs:na|ktp:N0|mc:84283|mtp:S|qry_typ:P|lang:en|wc:3|cs:8842|v=4,A Cube Luxury Solutions,https://www.indiamart.com/a-cube-luxurysolutions/?pos=81&kwd=baby soft mat&tags=BA||||8747.203|Price|product|||TS|rsf:gd-|-stype:attr=1|qr_nm:gd|res:RC4|com-cf:nl|ptrs:na|ktp:N0|mc:84283|mtp:S|qry_typ:P|lang:en|wc:3|cs:8842|v=4,False,Huda,Panipat,"House No. 540-A, Phase-2nd, Ramesh Chander Saneja, Sector-12, Huda, Huda, Panipat - 132103, Dist.Panipat, Haryana",8045908184,
"Plastic Baby Floor Mat Wath Bag, More than 12 months",https://www.indiamart.com/proddetail/baby-floor-mat-wath-bag-2854324612155.html?pos=82&kwd=baby soft mat&tags=BA||||8747.203|Price|product|||TS|rsf:gd-|-stype:attr=1|qr_nm:gd|res:RC4|com-cf:nl|ptrs:na|ktp:N0|mc:84283|mtp:S|qry_typ:P|lang:en|wc:3|cs:8842|v=4,Aalfa Collection,https://www.indiamart.com/aalfa-collection/?pos=82&kwd=baby soft mat&tags=BA||||8747.203|Price|product|||TS|rsf:gd-|-stype:attr=1|qr_nm:gd|res:RC4|com-cf:nl|ptrs:na|ktp:N0|mc:84283|mtp:S|qry_typ:P|lang:en|wc:3|cs:8842|v=4,False,,Panipat,"Sethi Chowk, Panipat - 132103, Dist.Panipat, Haryana",8047307649,
"Rubber Multicolor 2 FOLD BABY FLOOR MAT, Packaging Type: Box, 1-2 Years",https://www.indiamart.com/proddetail/2-fold-baby-floor-mat-2854098492212.html?pos=83&kwd=baby soft mat&tags=BA||||8230.883|Price|product|||TS|rsf:gd-|-stype:attr=1|qr_nm:gd|res:RC4|com-cf:nl|ptrs:na|ktp:N0|mc:84283|mtp:S|qry_typ:P|lang:en|wc:3|cs:8842|v=4,Shree Lalankrupa Enterprise,https://www.indiamart.com/shree-lalankrupa-enterprise/?pos=83&kwd=baby soft mat&tags=BA||||8230.883|Price|product|||TS|rsf:gd-|-stype:attr=1|qr_nm:gd|res:RC4|com-cf:nl|ptrs:na|ktp:N0|mc:84283|mtp:S|qry_typ:P|lang:en|wc:3|cs:8842|v=4,False,Punagam,Surat,"132 Punagam Gautam Park Soc Chorasi Surat, Punagam, Surat - 395010, Dist.Surat, Gujarat",8044562706,
"Printed Multicolor Double Sided Water Proof Baby Mat, 3-12 Months, Mat Size: 182.9 X 152.4 X 0.8",https://www.indiamart.com/proddetail/double-sided-water-proof-baby-mat-2850827754233.html?pos=84&kwd=baby soft mat&tags=BA||||8230.883|Price|product|||TS|rsf:gd-|-stype:attr=1|qr_nm:gd|res:RC4|com-cf:nl|ptrs:na|ktp:N0|mc:84283|mtp:S|qry_typ:P|lang:en|wc:3|cs:8842|v=4,Sixfire Pvt,https://www.sixfirepvt.com/?pos=84&kwd=baby soft mat&tags=BA||||8230.883|Price|product|||TS|rsf:gd-|-stype:attr=1|qr_nm:gd|res:RC4|com-cf:nl|ptrs:na|ktp:N0|mc:84283|mtp:S|qry_typ:P|lang:en|wc:3|cs:8842|v=4,False,Singanpor,Surat,"Plot No-32, Ground Floor, Laxmi Narayan Co. Op. Housing Society, Ved Road, Singanpor, Surat - 395004, Dist.Surat, Gujarat",7942957589,
"Foam Baby Folding Mat 5 feet x 6 Feet, 1-2 Years",https://www.indiamart.com/proddetail/baby-folding-mat-5-feet-x-6-feet-2854989170391.html?pos=85&kwd=baby soft mat&tags=BA||||8954.051|Price|product|||TS|rsf:gd-|-stype:attr=1|qr_nm:gd|res:RC4|com-cf:nl|ptrs:na|ktp:N0|mc:84283|mtp:S|qry_typ:P|lang:en|wc:3|cs:8842|v=4,Shah International,https://www.indiamart.com/shah-internationalchennai/?pos=85&kwd=baby soft mat&tags=BA||||8954.051|Price|product|||TS|rsf:gd-|-stype:attr=1|qr_nm:gd|res:RC4|com-cf:nl|ptrs:na|ktp:N0|mc:84283|mtp:S|qry_typ:P|lang:en|wc:3|cs:8842|v=4,False,Sydenhams lane,Chennai,"New No.195, Old No.137 & 138/1, Sydenhams Road, Periyamet, Sydenhams lane, Chennai - 600003, Dist.Chennai, Tamil Nadu",7942963807,
"Blue Hand Block Printed Cotton Baby Play Mat Supplier, 3-12 Months, Mat Size: 120 cm in Diameter",https://www.indiamart.com/proddetail/hand-block-printed-cotton-baby-play-mat-supplier-21588343748.html?pos=86&kwd=baby soft mat&tags=BA||||8601.347|Price|product|||TS|rsf:gd-|-stype:attr=1|qr_nm:gd|res:RC4|com-cf:nl|ptrs:na|ktp:N0|mc:84283|mtp:S|qry_typ:P|lang:en|wc:3|cs:8842|v=4,Vandana Handicraft,https://www.vandanahandicraft.net/?pos=86&kwd=baby soft mat&tags=BA||||8601.347|Price|product|||TS|rsf:gd-|-stype:attr=1|qr_nm:gd|res:RC4|com-cf:nl|ptrs:na|ktp:N0|mc:84283|mtp:S|qry_typ:P|lang:en|wc:3|cs:8842|v=4,True,Sitapura Industrial Area,Jaipur,"Plot No. H-1167, Sitapura Industrial Area, Phase III, Sitapura Industrial Area, Jaipur - 302022, Dist.Jaipur, Rajasthan",8046049036,
Waterproof Double Side Baby Play Floor Mat for Kids Home With Bag (Size 120 x 180cm)(8059),https://www.indiamart.com/proddetail/waterproof-double-side-baby-play-floor-mat-for-kids-home-with-bag-size-120-x-180cm-8059-24458637512.html?pos=87&kwd=baby soft mat&tags=BA||||8038.093|Price|product|||TS|rsf:gd-|-stype:attr=1|qr_nm:gd|res:RC4|com-cf:nl|ptrs:na|ktp:N0|mc:84283|mtp:S|qry_typ:P|lang:en|wc:3|cs:8842|v=4,Deodap,https://www.indiamart.com/deodap/?pos=87&kwd=baby soft mat&tags=BA||||8038.093|Price|product|||TS|rsf:gd-|-stype:attr=1|qr_nm:gd|res:RC4|com-cf:nl|ptrs:na|ktp:N0|mc:84283|mtp:S|qry_typ:P|lang:en|wc:3|cs:8842|v=4,False,Rajkot,Rajkot,"plot No. 9 Behind Patanjali Werhouse, Ruda Transport, Saat Hanuman Ahemdabad Road, Rajkot, Rajkot - 360005, Dist.Rajkot, Gujarat",8048972316,
Pink Printed Baby Plastic Mats,https://www.indiamart.com/proddetail/baby-plastic-mats-20704342655.html?pos=88&kwd=baby soft mat&tags=BB||||8559.269|Price|product|||TS|rsf:gd-|-stype:attr=1|qr_nm:gd|res:RC4|com-cf:nl|ptrs:na|ktp:N0|mc:84283|mtp:S|qry_typ:P|lang:en|wc:3|cs:8842|v=4,Daga Impex,https://www.dagaimpex.co.in/?pos=88&kwd=baby soft mat&tags=BB||||8559.269|Price|product|||TS|rsf:gd-|-stype:attr=1|qr_nm:gd|res:RC4|com-cf:nl|ptrs:na|ktp:N0|mc:84283|mtp:S|qry_typ:P|lang:en|wc:3|cs:8842|v=4,False,Rajwada,Indore,"No. 214, Tilak Path, Near Maruti Hanuman Mandir, Rajwada, Indore - 452007, Dist.Indore, Madhya Pradesh",8046030945,
"Rubber Multicolor Kids Jumble Mat, 3-12 Months, Printed",https://www.indiamart.com/proddetail/kids-jumble-mat-2851823870997.html?pos=89&kwd=baby soft mat&tags=BA||||8752.144|Price|product|||TS|rsf:gd-|-stype:attr=1|qr_nm:gd|res:RC4|com-cf:nl|ptrs:na|ktp:N0|mc:84283|mtp:S|qry_typ:P|lang:en|wc:3|cs:8842|v=4,S R International,https://www.passionplay.co.in/?pos=89&kwd=baby soft mat&tags=BA||||8752.144|Price|product|||TS|rsf:gd-|-stype:attr=1|qr_nm:gd|res:RC4|com-cf:nl|ptrs:na|ktp:N0|mc:84283|mtp:S|qry_typ:P|lang:en|wc:3|cs:8842|v=4,False,Jhandewalan,New Delhi,"Shop No. 83 A, Dda Cycle Market, Jhandewalan, West Delhi, Jhandewalan, New Delhi - 110055, Dist.Delhi, Delhi",7942785838,
"Soft Foam Multi Kids Mats, Mat Size: 2 ft x3 ft",https://www.indiamart.com/proddetail/kids-mats-8986025988.html?pos=90&kwd=baby soft mat&tags=BB||||8752.144|Price|product|||TS|rsf:gd-|-stype:attr=1|qr_nm:gd|res:RC4|com-cf:nl|ptrs:na|ktp:N0|mc:84283|mtp:S|qry_typ:P|lang:en|wc:3|cs:8842|v=4,The Creations,https://www.indiamart.com/thecreations-delhi/?pos=90&kwd=baby soft mat&tags=BB||||8752.144|Price|product|||TS|rsf:gd-|-stype:attr=1|qr_nm:gd|res:RC4|com-cf:nl|ptrs:na|ktp:N0|mc:84283|mtp:S|qry_typ:P|lang:en|wc:3|cs:8842|v=4,False,Azadpur,New Delhi,"340, 3rd floor, Vradhaman Mall G. T. Karnal Road, Azadpur, New Delhi - 110033, Dist.Delhi, Delhi",8046056086,
"Polyester Printed Chic Buddy Splat Floor Mat, Mat Size: 48cmx 48cm",https://www.indiamart.com/proddetail/chic-buddy-splat-floor-mat-24183900355.html?pos=91&kwd=baby soft mat&tags=BA||||8786.56|Price|product|||TS|rsf:gd-|-stype:attr=1|qr_nm:gd|res:RC4|com-cf:nl|ptrs:na|ktp:N0|mc:84283|mtp:S|qry_typ:P|lang:en|wc:3|cs:8842|v=4,Totcase Services Private Limited,https://www.totcase.com/?pos=91&kwd=baby soft mat&tags=BA||||8786.56|Price|product|||TS|rsf:gd-|-stype:attr=1|qr_nm:gd|res:RC4|com-cf:nl|ptrs:na|ktp:N0|mc:84283|mtp:S|qry_typ:P|lang:en|wc:3|cs:8842|v=4,False,Alwal,Hyderabad,"1-4-177/ A13/402 Shivasai Residency Greenwood Colony Old Alwal, Alwal, Hyderabad - 500010, Dist.Hyderabad, Telangana",8045910096,
Folding Baby Met,https://www.indiamart.com/proddetail/folding-baby-met-2853668407512.html?pos=92&kwd=baby soft mat&tags=BA||||8230.883|Price|product|||TS|rsf:gd-|-stype:attr=1|qr_nm:gd|res:RC4|com-cf:nl|ptrs:na|ktp:N0|mc:84283|mtp:S|qry_typ:P|lang:en|wc:3|cs:8842|v=4,Valam Enterprise,https://www.valamenterprise.com/?pos=92&kwd=baby soft mat&tags=BA||||8230.883|Price|product|||TS|rsf:gd-|-stype:attr=1|qr_nm:gd|res:RC4|com-cf:nl|ptrs:na|ktp:N0|mc:84283|mtp:S|qry_typ:P|lang:en|wc:3|cs:8842|v=4,False,Dabholi,Surat,"First Floor 37 Nr Bapa Sitaram Chowk Gopinath Society-3 Katargam, Dabholi, Surat - 395004, Dist.Surat, Gujarat",8046058398,
KIDS FLOOR MATS,https://www.indiamart.com/proddetail/kids-floor-mats-23854575912.html?pos=93&kwd=baby soft mat&tags=BB||||8307.81|Price|product|||TS|rsf:gd-|-stype:attr=1|qr_nm:gd|res:RC4|com-cf:nl|ptrs:na|ktp:N0|mc:84283|mtp:S|qry_typ:P|lang:en|wc:3|cs:8842|v=4,Jinen Trading,https://www.indiamart.com/jinentrading/?pos=93&kwd=baby soft mat&tags=BB||||8307.81|Price|product|||TS|rsf:gd-|-stype:attr=1|qr_nm:gd|res:RC4|com-cf:nl|ptrs:na|ktp:N0|mc:84283|mtp:S|qry_typ:P|lang:en|wc:3|cs:8842|v=4,False,Baner,Pune,"Plot No. 16, 17, Survey No. 87, Saily Terrace, Baner, Pune - 411045, Dist.Pune, Maharashtra",8047638634,
"Foam Printed Crawling Mat, Mat Size: 6 X 5 Inch,6 X 4 Inch",https://www.indiamart.com/proddetail/crawling-mat-14230190833.html?pos=94&kwd=baby soft mat&tags=BA||||8752.144|Price|product|||TS|rsf:gd-|-stype:attr=1|qr_nm:gd|res:RC4|com-cf:nl|ptrs:na|ktp:N0|mc:84283|mtp:S|qry_typ:P|lang:en|wc:3|cs:8842|v=4,Joginder Agencies,https://www.joginderagencies.com/?pos=94&kwd=baby soft mat&tags=BA||||8752.144|Price|product|||TS|rsf:gd-|-stype:attr=1|qr_nm:gd|res:RC4|com-cf:nl|ptrs:na|ktp:N0|mc:84283|mtp:S|qry_typ:P|lang:en|wc:3|cs:8842|v=4,False,,New Delhi,"35-B Cycle MKT, Jhandewalan Extn, New Delhi - 110055, Dist.Delhi, Delhi",8047643058,
Yellow PVC Kids Hopscotch Mat,https://www.indiamart.com/proddetail/kids-hopscotch-mat-22554625833.html?pos=95&kwd=baby soft mat&tags=BB||||8819.817|Price|product|||TS|rsf:gd-|-stype:attr=1|qr_nm:gd|res:RC4|com-cf:nl|ptrs:na|ktp:N0|mc:84283|mtp:S|qry_typ:P|lang:en|wc:3|cs:8842|v=4,Sports And Sports International,https://www.sassportsshop.com/?pos=95&kwd=baby soft mat&tags=BB||||8819.817|Price|product|||TS|rsf:gd-|-stype:attr=1|qr_nm:gd|res:RC4|com-cf:nl|ptrs:na|ktp:N0|mc:84283|mtp:S|qry_typ:P|lang:en|wc:3|cs:8842|v=4,True,,Mohiuddinpur,"Khasra No- 477,Sports And Sports International,Opp Mohiuddin Pur Mill,Gejha, Mohiuddinpur - 250205, Dist.Meerut, Uttar Pradesh",8048601991,
"Romsons Dignity Disposable Baby Changing Mats, Newly Born",https://www.indiamart.com/proddetail/romsons-dignity-disposable-baby-changing-mats-2854184685430.html?pos=96&kwd=baby soft mat&tags=BA||||8717.056|Price|product|||TS|rsf:gd-|-stype:attr=1|qr_nm:gd|res:RC4|com-cf:nl|ptrs:na|ktp:N0|mc:84283|mtp:S|qry_typ:P|lang:en|wc:3|cs:8842|v=4,Genesis Diagnostics,https://www.indiamart.com/genesis-diagnostics-salem/?pos=96&kwd=baby soft mat&tags=BA||||8717.056|Price|product|||TS|rsf:gd-|-stype:attr=1|qr_nm:gd|res:RC4|com-cf:nl|ptrs:na|ktp:N0|mc:84283|mtp:S|qry_typ:P|lang:en|wc:3|cs:8842|v=4,False,,Salem,"283/2, Vasant Nagar, New Fairlands, Salem - 636016, Dist.Salem, Tamil Nadu",8045735882,
"Baby Soft Mat, 1-2 Years",https://www.indiamart.com/proddetail/baby-soft-mat-2854584536655.html?pos=97&kwd=baby soft mat&tags=BA||||8211.142|Price|product|||MDC|rsf:gd-|-stype:attr=1|qr_nm:gd|res:RC4|com-cf:nl|ptrs:na|ktp:N0|mc:84283|mtp:S|qry_typ:P|lang:en|wc:3|cs:8842|v=4,N Chandan Corporation,https://www.indiamart.com/n-chandan-corporation/?pos=97&kwd=baby soft mat&tags=BA||||8211.142|Price|product|||MDC|rsf:gd-|-stype:attr=1|qr_nm:gd|res:RC4|com-cf:nl|ptrs:na|ktp:N0|mc:84283|mtp:S|qry_typ:P|lang:en|wc:3|cs:8842|v=4,False,Kalbadevi,Mumbai,"2nd Floor, Room No. 22, Sujal Mansion, Bhangwadi, Kalbadevi, Mumbai - 400002, Dist.Mumbai, Maharashtra",7949330694,
"Cotton Multicolor Baby Soft Mat, Newly Born, Mat Size: 18*24 Inch",https://www.indiamart.com/proddetail/baby-soft-mat-27456607888.html?pos=98&kwd=baby soft mat&tags=BA||||8785.791|Price|product|||MDC|rsf:gd-|-stype:attr=1|qr_nm:gd|res:RC4|com-cf:nl|ptrs:na|ktp:N0|mc:84283|mtp:S|qry_typ:P|lang:en|wc:3|cs:8842|v=4,First Smile Enterprises,https://www.indiamart.com/firstsmileenterprises/?pos=98&kwd=baby soft mat&tags=BA||||8785.791|Price|product|||MDC|rsf:gd-|-stype:attr=1|qr_nm:gd|res:RC4|com-cf:nl|ptrs:na|ktp:N0|mc:84283|mtp:S|qry_typ:P|lang:en|wc:3|cs:8842|v=4,False,Ahmed Nagar Nawada,Ghaziabad,"Khasra No 263, New Anand Vihar, Loni,, Ahmed Nagar Nawada, Ghaziabad - 201102, Dist.Ghaziabad, Uttar Pradesh",8043850100,
"Cotton Folding Baby Mat, Newly Born",https://www.indiamart.com/proddetail/baby-soft-mat-2854733751662.html?pos=99&kwd=baby soft mat&tags=BA||||8230.883|Price|product|||MDC|rsf:gd-|-stype:attr=1|qr_nm:gd|res:RC4|com-cf:nl|ptrs:na|ktp:N0|mc:84283|mtp:S|qry_typ:P|lang:en|wc:3|cs:8842|v=4,Prem Enterprise,https://www.indiamart.com/prementerprisesurat/?pos=99&kwd=baby soft mat&tags=BA||||8230.883|Price|product|||MDC|rsf:gd-|-stype:attr=1|qr_nm:gd|res:RC4|com-cf:nl|ptrs:na|ktp:N0|mc:84283|mtp:S|qry_typ:P|lang:en|wc:3|cs:8842|v=4,False,,Surat,"135, Shaktikrupa Society, Laskana, Shaktikrupa Society, Kamrej,, Surat - 395006, Dist.Surat, Gujarat",7949325958,
"Printed Blue Cotton Baby Mat, Mat Size: 20 X 30 cm",https://www.indiamart.com/proddetail/cotton-baby-mat-14841411873.html?pos=100&kwd=baby soft mat&tags=BA||||8211.142|Price|product|||TS|rsf:gd-|-stype:attr=1|qr_nm:gd|res:RC4|com-cf:nl|ptrs:na|ktp:N0|mc:84283|mtp:S|qry_typ:P|lang:en|wc:3|cs:8842|v=4,Computech India,https://www.computechindia.net/?pos=100&kwd=baby soft mat&tags=BA||||8211.142|Price|product|||TS|rsf:gd-|-stype:attr=1|qr_nm:gd|res:RC4|com-cf:nl|ptrs:na|ktp:N0|mc:84283|mtp:S|qry_typ:P|lang:en|wc:3|cs:8842|v=4,False,Goregaon,Mumbai,"No. 230, Aashirwad Industrial Estate, No. 5, Ram Mandir Road, Goregaon West, Goregaon, Mumbai - 400104, Dist.Mumbai, Maharashtra",7942553619,
"PVC Printed Double Sided Baby Mat, Mat Size: 4*6 Feet",https://www.indiamart.com/proddetail/double-sided-baby-mat-26053017491.html?pos=101&kwd=baby soft mat&tags=BA||||8230.883|Price|product|||TS|rsf:gd-|-stype:attr=1|qr_nm:gd|res:RC4|com-cf:nl|ptrs:na|ktp:N0|mc:84283|mtp:S|qry_typ:P|lang:en|wc:3|cs:8842|v=4,On Shop,https://www.indiamart.com/on-shop/?pos=101&kwd=baby soft mat&tags=BA||||8230.883|Price|product|||TS|rsf:gd-|-stype:attr=1|qr_nm:gd|res:RC4|com-cf:nl|ptrs:na|ktp:N0|mc:84283|mtp:S|qry_typ:P|lang:en|wc:3|cs:8842|v=4,False,Dabholi,Surat,"Sy No.83/2 Ground Floor 56 Pooja Park Housing Society, Dabholi, Surat - 395004, Dist.Surat, Gujarat",8043857985,
Plastic Printed Blue Baby Soft Mat,https://www.indiamart.com/proddetail/blue-baby-soft-mat-2854579819973.html?pos=102&kwd=baby soft mat&tags=BA||||8226.563|Price|product|||MDC|rsf:gd-|-stype:attr=1|qr_nm:gd|res:RC4|com-cf:nl|ptrs:na|ktp:N0|mc:84283|mtp:S|qry_typ:P|lang:en|wc:3|cs:8842|v=4,Virat,https://www.indiamart.com/virat-maharashtra/?pos=102&kwd=baby soft mat&tags=BA||||8226.563|Price|product|||MDC|rsf:gd-|-stype:attr=1|qr_nm:gd|res:RC4|com-cf:nl|ptrs:na|ktp:N0|mc:84283|mtp:S|qry_typ:P|lang:en|wc:3|cs:8842|v=4,False,,Navi Mumbai,"Ground Floor,Shop No. 6,Merchant Center,Plot No. 14D,Sector 19,Next To Kailash Enterprises Vashi, Navi Mumbai - 400703, Dist.Thane, Maharashtra",7949324680,
"Cotton Printed Baby Soft Mat, Mat Size: 160x190mm",https://www.indiamart.com/proddetail/cotton-printed-baby-soft-mat-24686452488.html?pos=103&kwd=baby soft mat&tags=BA||||8230.883|Price|product|||MDC|rsf:gd-|-stype:attr=1|qr_nm:gd|res:RC4|com-cf:nl|ptrs:na|ktp:N0|mc:84283|mtp:S|qry_typ:P|lang:en|wc:3|cs:8842|v=4,Dharmnandan Creation,https://www.indiamart.com/dharmnandancreation/?pos=103&kwd=baby soft mat&tags=BA||||8230.883|Price|product|||MDC|rsf:gd-|-stype:attr=1|qr_nm:gd|res:RC4|com-cf:nl|ptrs:na|ktp:N0|mc:84283|mtp:S|qry_typ:P|lang:en|wc:3|cs:8842|v=4,False,Udhana,Surat,"Plot No. A/10, City Ind. Estate, Udhana, Udhan Road,, Udhana, Surat - 394210, Dist.Surat, Gujarat",7942543669,
"Foam Baby Mat Floor Mat, 1-2 Years",https://www.indiamart.com/proddetail/baby-mat-floor-mat-2854447647091.html?pos=104&kwd=baby soft mat&tags=BA||||8230.883|Price|product|||MDC|rsf:gd-|-stype:attr=1|qr_nm:gd|res:RC4|com-cf:nl|ptrs:na|ktp:N0|mc:84283|mtp:S|qry_typ:P|lang:en|wc:3|cs:8842|v=4,Hallmark Impex,https://www.indiamart.com/hallmark-impex-surat/?pos=104&kwd=baby soft mat&tags=BA||||8230.883|Price|product|||MDC|rsf:gd-|-stype:attr=1|qr_nm:gd|res:RC4|com-cf:nl|ptrs:na|ktp:N0|mc:84283|mtp:S|qry_typ:P|lang:en|wc:3|cs:8842|v=4,False,Patel Nagar,Surat,"1ST Floor, Office NO.110, Mahek Icon, Sumal Dairy Road, NR. Shanti Niketan Society, Katargam, Patel Nagar, Surat - 395003, Dist.Surat, Gujarat",7948547238,
Baby Mat,https://www.indiamart.com/proddetail/baby-mat-10370062097.html?pos=105&kwd=baby soft mat&tags=BA||||8752.144||product|||MDC|rsf:gd-|-stype:attr=1|qr_nm:gd|res:RC4|com-cf:nl|ptrs:na|ktp:N0|mc:84283|mtp:S|qry_typ:P|lang:en|wc:3|cs:8842|v=4,Tara Sales Corporation,https://www.indiamart.com/tarasalescorporation/?pos=105&kwd=baby soft mat&tags=BA||||8752.144||product|||MDC|rsf:gd-|-stype:attr=1|qr_nm:gd|res:RC4|com-cf:nl|ptrs:na|ktp:N0|mc:84283|mtp:S|qry_typ:P|lang:en|wc:3|cs:8842|v=4,False,Jhandewalan,New Delhi,"56A, Cycle Market, Jhandewalan, New Delhi - 110055, Dist.Delhi, Delhi",8048978330,
"Pink Duckback Mothers Lap Baby Soft Mat, Newly Born to 2 Years, Mat Size: 90x91cm (lxw)",https://www.indiamart.com/proddetail/duckback-mothers-lap-baby-soft-mat-2852864933288.html?pos=106&kwd=baby soft mat&tags=BA||||10180.86|Price|product|||MDC|rsf:gd-|-stype:attr=1|qr_nm:gd|res:RC4|com-cf:nl|ptrs:na|ktp:N0|mc:84283|mtp:S|qry_typ:P|lang:en|wc:3|cs:8842|v=4,T.K.Industrial Enterprise,https://www.indiamart.com/tkindustrialenterprise/?pos=106&kwd=baby soft mat&tags=BA||||10180.86|Price|product|||MDC|rsf:gd-|-stype:attr=1|qr_nm:gd|res:RC4|com-cf:nl|ptrs:na|ktp:N0|mc:84283|mtp:S|qry_typ:P|lang:en|wc:3|cs:8842|v=4,False,Fancy Bazar,Guwahati,"0000 S S Road, Fancy Bazar Lakhtokia, Fancy Bazar, Guwahati - 781001, Dist.Kamrup, Assam",7942968314,
"Multicolor 1mm Waterproof Foldable Baby Play Soft Mat, Size/Dimension: 150x100x1 Cm (lxwxh)",https://www.indiamart.com/proddetail/1mm-waterproof-foldable-baby-play-soft-mat-26277483273.html?pos=107&kwd=baby soft mat&tags=BA||||8752.144|Price|product|||MDC|rsf:gd-|-stype:attr=1|qr_nm:gd|res:RC4|com-cf:nl|ptrs:na|ktp:N0|mc:84283|mtp:S|qry_typ:P|lang:en|wc:3|cs:8842|v=4,Planet Of Toys,https://www.indiamart.com/planet-of-toys/?pos=107&kwd=baby soft mat&tags=BA||||8752.144|Price|product|||MDC|rsf:gd-|-stype:attr=1|qr_nm:gd|res:RC4|com-cf:nl|ptrs:na|ktp:N0|mc:84283|mtp:S|qry_typ:P|lang:en|wc:3|cs:8842|v=4,False,Ranhola,New Delhi,"Ground Floor, 1st Floor And 2nd Floor, 605 Block H3, Kunwar Singh Nagar, Nangloi, Ranhola, New Delhi - 110041, Dist.Delhi, Delhi",7942722155,
Waterproof Double Side Baby Play Floor Mat for Kids Home With Bag (Size 120 x 180cm)(8059),https://www.indiamart.com/proddetail/waterproof-double-side-baby-play-floor-mat-for-kids-home-with-bag-size-120-x-180cm-8059-24458637512.html?pos=108&kwd=baby soft mat&tags=BA||||8038.093|Price|product|||TS|rsf:gd-|-stype:attr=1|qr_nm:gd|res:RC4|com-cf:nl|ptrs:na|ktp:N0|mc:84283|mtp:S|qry_typ:P|lang:en|wc:3|cs:8842|v=4,Deodap,https://www.indiamart.com/deodap/?pos=108&kwd=baby soft mat&tags=BA||||8038.093|Price|product|||TS|rsf:gd-|-stype:attr=1|qr_nm:gd|res:RC4|com-cf:nl|ptrs:na|ktp:N0|mc:84283|mtp:S|qry_typ:P|lang:en|wc:3|cs:8842|v=4,False,Rajkot,Rajkot,"plot No. 9 Behind Patanjali Werhouse, Ruda Transport, Saat Hanuman Ahemdabad Road, Rajkot, Rajkot - 360005, Dist.Rajkot, Gujarat",8048972316,
PVC Blue Baby Water Mat / Slapped Pad,https://www.indiamart.com/proddetail/baby-water-mat-2854712487312.html?pos=109&kwd=baby soft mat&tags=BB||||8230.883|Price|product|||MDC|rsf:gd-|-stype:attr=1|qr_nm:gd|res:RC4|com-cf:nl|ptrs:na|ktp:N0|mc:84283|mtp:S|qry_typ:P|lang:en|wc:3|cs:8842|v=4,Mazon Sales,https://www.indiamart.com/mazon-sales/?pos=109&kwd=baby soft mat&tags=BB||||8230.883|Price|product|||MDC|rsf:gd-|-stype:attr=1|qr_nm:gd|res:RC4|com-cf:nl|ptrs:na|ktp:N0|mc:84283|mtp:S|qry_typ:P|lang:en|wc:3|cs:8842|v=4,False,,Surat,"Flat 302, 3rd Floor, Wing C/2, Harikrushna Residency, Singanpor Road,, Surat - 395004, Dist.Surat, Gujarat",7949329529,
Blue Baby Water Mat,https://www.indiamart.com/proddetail/baby-water-mat-24991400930.html?pos=110&kwd=baby soft mat&tags=BB||||8230.883|Price|product|||MDC|rsf:gd-|-stype:attr=1|qr_nm:gd|res:RC4|com-cf:nl|ptrs:na|ktp:N0|mc:84283|mtp:S|qry_typ:P|lang:en|wc:3|cs:8842|v=4,V S Enterprise,https://www.indiamart.com/vsenterprise-gujarat/?pos=110&kwd=baby soft mat&tags=BB||||8230.883|Price|product|||MDC|rsf:gd-|-stype:attr=1|qr_nm:gd|res:RC4|com-cf:nl|ptrs:na|ktp:N0|mc:84283|mtp:S|qry_typ:P|lang:en|wc:3|cs:8842|v=4,False,Katargam,Surat,"B/501, Buil- B Sahstrafana Saubhagya Residency, Opp Western Somchintamani, Pal, Katargam, Surat - 395009, Dist.Surat, Gujarat",8048971602,
"Duck Printed PFC SP Baby Mat, 1-2.5 Mm",https://www.indiamart.com/proddetail/pfc-sp-baby-mat-12810277230.html?pos=111&kwd=baby soft mat&tags=BA||||8223.226|Price|product|||MDC|rsf:gd-|-stype:attr=1|qr_nm:gd|res:RC4|com-cf:nl|ptrs:na|ktp:N0|mc:84283|mtp:S|qry_typ:P|lang:en|wc:3|cs:8842|v=4,Wecare Solutions,https://www.indiamart.com/wecare-solutions/?pos=111&kwd=baby soft mat&tags=BA||||8223.226|Price|product|||MDC|rsf:gd-|-stype:attr=1|qr_nm:gd|res:RC4|com-cf:nl|ptrs:na|ktp:N0|mc:84283|mtp:S|qry_typ:P|lang:en|wc:3|cs:8842|v=4,False,Valiv,Thane,"Gala No. F-19-20, 1st Floor, Rajprabha Anand Industrial Estate Naikpada, Waliv, Valiv, Thane - 401208, Dist.Thane, Maharashtra",8047631791,
folding baby mat,https://www.indiamart.com/proddetail/folding-baby-mat-2854552779462.html?pos=112&kwd=baby soft mat&tags=BA||||8230.883|Price|product|||MDC|rsf:gd-|-stype:attr=1|qr_nm:gd|res:RC4|com-cf:nl|ptrs:na|ktp:N0|mc:84283|mtp:S|qry_typ:P|lang:en|wc:3|cs:8842|v=4,CM Enterprise,https://www.indiamart.com/cmenterprise-katargam/?pos=112&kwd=baby soft mat&tags=BA||||8230.883|Price|product|||MDC|rsf:gd-|-stype:attr=1|qr_nm:gd|res:RC4|com-cf:nl|ptrs:na|ktp:N0|mc:84283|mtp:S|qry_typ:P|lang:en|wc:3|cs:8842|v=4,False,,Surat,"2nd Floor, B-203, Shivalik Heights, Nr. Elephanta Business Hub Singanpor Dabholi Link Road, Hari Darshan No Khado, Katargam, Surat - 395004, Dist.Surat, Gujarat",7949340298,
"Foam BABY MAT (64''''), 1-2 Years",https://www.indiamart.com/proddetail/baby-mat-64-2854854263212.html?pos=113&kwd=baby soft mat&tags=BB||||8230.883|Price|product|||MDC|rsf:gd-|-stype:attr=1|qr_nm:gd|res:RC4|com-cf:nl|ptrs:na|ktp:N0|mc:84283|mtp:S|qry_typ:P|lang:en|wc:3|cs:8842|v=4,Balar Corporation,https://www.indiamart.com/balar-corporation/?pos=113&kwd=baby soft mat&tags=BB||||8230.883|Price|product|||MDC|rsf:gd-|-stype:attr=1|qr_nm:gd|res:RC4|com-cf:nl|ptrs:na|ktp:N0|mc:84283|mtp:S|qry_typ:P|lang:en|wc:3|cs:8842|v=4,False,,Surat,"C-504, Rameshvaram Regency, Utran, Surat - 394105, Dist.Surat, Gujarat",8045734410,
BABY PLAIN MAT,https://www.indiamart.com/proddetail/baby-plain-mat-2852612048330.html?pos=114&kwd=baby soft mat&tags=BB||||8747.203|Price|product|||MDC|rsf:gd-|-stype:attr=1|qr_nm:gd|res:RC4|com-cf:nl|ptrs:na|ktp:N0|mc:84283|mtp:S|qry_typ:P|lang:en|wc:3|cs:8842|v=4,Shubhya International,https://www.indiamart.com/shubhya-international-panipat/?pos=114&kwd=baby soft mat&tags=BB||||8747.203|Price|product|||MDC|rsf:gd-|-stype:attr=1|qr_nm:gd|res:RC4|com-cf:nl|ptrs:na|ktp:N0|mc:84283|mtp:S|qry_typ:P|lang:en|wc:3|cs:8842|v=4,False,Netaji Colony,Panipat,"Shop No - 2, Ganga Puri Mandir Wali Gali, Ganga Puri Road, Netaji Colony, Panipat - 132103, Dist.Panipat, Haryana",8046075507,
"Mix Pvc Soft Mat (BM&C) 03A I, Mat Size: 18*12",https://www.indiamart.com/proddetail/pvc-soft-mat-bm-c-03a-i-24294753873.html?pos=115&kwd=baby soft mat&tags=BB||||8211.142||product|||MDC|rsf:gd-|-stype:attr=1|qr_nm:gd|res:RC4|com-cf:nl|ptrs:na|ktp:N0|mc:84283|mtp:S|qry_typ:P|lang:en|wc:3|cs:8842|v=4,Bombay Mat & Chemicals,https://www.indiamart.com/bombaymat-chemicals/?pos=115&kwd=baby soft mat&tags=BB||||8211.142||product|||MDC|rsf:gd-|-stype:attr=1|qr_nm:gd|res:RC4|com-cf:nl|ptrs:na|ktp:N0|mc:84283|mtp:S|qry_typ:P|lang:en|wc:3|cs:8842|v=4,False,Kalbadevi,Mumbai,"Room No 08, 21 Keshvaji Naik Rd, 1st floor,Bhat Bazar, Masjid Bander, Kalbadevi, Mumbai - 400009, Dist.Mumbai, Maharashtra",8047783175,
"Vikamshi Fabric Baby Mat, Mat Size: 90cm X 90 cm",https://www.indiamart.com/proddetail/vikamshi-fabric-baby-mat-25367030491.html?pos=116&kwd=baby soft mat&tags=BB||||8752.144|Price|product|||MDC|rsf:gd-|-stype:attr=1|qr_nm:gd|res:RC4|com-cf:nl|ptrs:na|ktp:N0|mc:84283|mtp:S|qry_typ:P|lang:en|wc:3|cs:8842|v=4,Garg Surgimed,https://www.indiamart.com/garg-surgimed/?pos=116&kwd=baby soft mat&tags=BB||||8752.144|Price|product|||MDC|rsf:gd-|-stype:attr=1|qr_nm:gd|res:RC4|com-cf:nl|ptrs:na|ktp:N0|mc:84283|mtp:S|qry_typ:P|lang:en|wc:3|cs:8842|v=4,False,Safdarjung Enclave,New Delhi,"61c,,Near Sukhmani Hospital,Arjun Nagar, Safdurjung Enclave, Safdarjung Enclave, New Delhi - 110029, Dist.Delhi, Delhi",8047303781,
"Cotton Printed Baby Photoshoot mileston Mat, Mat Size: 15 X 10inch",https://www.indiamart.com/proddetail/baby-photoshoot-mileston-mat-24316821997.html?pos=117&kwd=baby soft mat&tags=BA||||8228.275|Price|product|||MDC|rsf:gd-|-stype:attr=1|qr_nm:gd|res:RC4|com-cf:nl|ptrs:na|ktp:N0|mc:84283|mtp:S|qry_typ:P|lang:en|wc:3|cs:8842|v=4,Sanskriti Inc,https://www.indiamart.com/sanskriti-inc/?pos=117&kwd=baby soft mat&tags=BA||||8228.275|Price|product|||MDC|rsf:gd-|-stype:attr=1|qr_nm:gd|res:RC4|com-cf:nl|ptrs:na|ktp:N0|mc:84283|mtp:S|qry_typ:P|lang:en|wc:3|cs:8842|v=4,False,Nikol,Ahmedabad,"Shop No-26, Surjit Co Op H Soc Ltd, Nr. India Colony, Nikol Road, Nikol, Ahmedabad - 382350, Dist.Ahmedabad, Gujarat",8046047726,
Waterproof/Oil Proof Baby Mat,https://www.indiamart.com/proddetail/waterproof-oil-proof-baby-mat-22496786091.html?pos=118&kwd=baby soft mat&tags=BA||||8584.299|Price|product|||MDC|rsf:gd-|-stype:attr=1|qr_nm:gd|res:RC4|com-cf:nl|ptrs:na|ktp:N0|mc:84283|mtp:S|qry_typ:P|lang:en|wc:3|cs:8842|v=4,Coatex,https://www.indiamart.com/coatex/?pos=118&kwd=baby soft mat&tags=BA||||8584.299|Price|product|||MDC|rsf:gd-|-stype:attr=1|qr_nm:gd|res:RC4|com-cf:nl|ptrs:na|ktp:N0|mc:84283|mtp:S|qry_typ:P|lang:en|wc:3|cs:8842|v=4,False,Kurichchi,Coimbatore,",V3,Sreevatsa Hillview, Kovaipudur Road,Sree Vatsahillview, Kurichchi, Coimbatore - 641669, Dist.Coimbatore, Tamil Nadu",8048964471,
"Quick Dry Baby Mat, Newly Born",,Sri Piyush Enterprises,https://www.indiamart.com/sri-piyush-enterprises/?pos=119&kwd=baby soft mat&tags=BB||||8954.051|Price|product|||MDC|rsf:gd-|-stype:attr=1|qr_nm:gd|res:RC4|com-cf:nl|ptrs:na|ktp:N0|mc:84283|mtp:S|qry_typ:P|lang:en|wc:3|cs:8842|v=4,False,Sowcarpet,Chennai,"19/21, Pamidi Complex, Kasi Chetty Street, Sowcarpet,, Sowcarpet, Chennai - 600079, Dist.Chennai, Tamil Nadu",8043860290,
"Rubber Set Of 4 Colours Kids Mat, Mat Size: 2x2 Foot, Interlocking",https://www.indiamart.com/proddetail/kids-mat-2851972918173.html?pos=120&kwd=baby soft mat&tags=BA||||8752.144|Price|product|||TS|rsf:gd-|-stype:attr=1|qr_nm:gd|res:RC4|com-cf:nl|ptrs:na|ktp:N0|mc:84283|mtp:S|qry_typ:P|lang:en|wc:3|cs:8842|v=4,Ankit Polymers,https://www.indiamart.com/ankitpolymers-delhi/?pos=120&kwd=baby soft mat&tags=BA||||8752.144|Price|product|||TS|rsf:gd-|-stype:attr=1|qr_nm:gd|res:RC4|com-cf:nl|ptrs:na|ktp:N0|mc:84283|mtp:S|qry_typ:P|lang:en|wc:3|cs:8842|v=4,False,Bawana,New Delhi,"M-198, Sector 1, DSIIDC, Bawana, New Delhi - 110039, Dist.Delhi, Delhi",8047640834,
"Cotton Baby Changing Mat, Blue",https://www.indiamart.com/proddetail/baby-changing-mat-21888931473.html?pos=121&kwd=baby soft mat&tags=BA||||8752.144|Price|product|||TS|rsf:gd-|-stype:attr=1|qr_nm:gd|res:RC4|com-cf:nl|ptrs:na|ktp:N0|mc:84283|mtp:S|qry_typ:P|lang:en|wc:3|cs:8842|v=4,Mom & Son,https://www.theindianchoice.com/?pos=121&kwd=baby soft mat&tags=BA||||8752.144|Price|product|||TS|rsf:gd-|-stype:attr=1|qr_nm:gd|res:RC4|com-cf:nl|ptrs:na|ktp:N0|mc:84283|mtp:S|qry_typ:P|lang:en|wc:3|cs:8842|v=4,False,Karawal Nagar,New Delhi,"B-57 Gali Number-1 Mukund Vihar, Near Pnb Bank, Karawal Nagar, New Delhi - 110094, Dist.Delhi, Delhi",7942565509,
"Baby Tummy Time Multicolor Water Mat Slapped Pad For Infants, Inflatable Play Mat",https://www.indiamart.com/proddetail/baby-tummy-time-multicolor-water-mat-slapped-pad-for-infants-inflatable-play-mat-2854136989933.html?pos=122&kwd=baby soft mat&tags=BB||||8230.883|Price|product|||MDC|rsf:gd-|-stype:attr=1|qr_nm:gd|res:RC4|com-cf:nl|ptrs:na|ktp:N0|mc:84283|mtp:S|qry_typ:P|lang:en|wc:3|cs:8842|v=4,Beyond Unique Enterprises,https://www.indiamart.com/beyonduniqueenterprises/?pos=122&kwd=baby soft mat&tags=BB||||8230.883|Price|product|||MDC|rsf:gd-|-stype:attr=1|qr_nm:gd|res:RC4|com-cf:nl|ptrs:na|ktp:N0|mc:84283|mtp:S|qry_typ:P|lang:en|wc:3|cs:8842|v=4,False,Katargam,Surat,"180, Bhagwan Nagar Society, Ved Nagar Char Rasta, Magan Nagar 2 Ni Pachhal, Katargam, Katargam, Surat - 395004, Dist.Surat, Gujarat",8047527253,
"Polythene Plain Vikamshi Sishu Mat, Mat Size: 4 X 4",https://www.indiamart.com/proddetail/vikamshi-sishu-mat-21357189762.html?pos=123&kwd=baby soft mat&tags=BA||||8211.142|Price|product|||MDC|rsf:gd-|-stype:attr=1|qr_nm:gd|res:RC4|com-cf:nl|ptrs:na|ktp:N0|mc:84283|mtp:S|qry_typ:P|lang:en|wc:3|cs:8842|v=4,Aarav Surgical,https://www.indiamart.com/aarav-surgical/?pos=123&kwd=baby soft mat&tags=BA||||8211.142|Price|product|||MDC|rsf:gd-|-stype:attr=1|qr_nm:gd|res:RC4|com-cf:nl|ptrs:na|ktp:N0|mc:84283|mtp:S|qry_typ:P|lang:en|wc:3|cs:8842|v=4,False,Dahisar East,Mumbai,"Shop No. 05 A/5, Shanti Apartment, Chsl., C.S.C. Road No. 3 Near Shakti Nagar, Dahisar East, Mumbai - 400068, Dist.Mumbai, Maharashtra",8048261724,
"Green Kids Mat, Mat Size: 4x6 Ft",https://www.indiamart.com/proddetail/kids-mat-2852892982312.html?pos=124&kwd=baby soft mat&tags=BA||||8752.144|Price|product|||MDC|rsf:gd-|-stype:attr=1|qr_nm:gd|res:RC4|com-cf:nl|ptrs:na|ktp:N0|mc:84283|mtp:S|qry_typ:P|lang:en|wc:3|cs:8842|v=4,Bansal Coating,https://www.indiamart.com/bansalcoating/?pos=124&kwd=baby soft mat&tags=BA||||8752.144|Price|product|||MDC|rsf:gd-|-stype:attr=1|qr_nm:gd|res:RC4|com-cf:nl|ptrs:na|ktp:N0|mc:84283|mtp:S|qry_typ:P|lang:en|wc:3|cs:8842|v=4,False,Sadar Bazar,New Delhi,"K-244-A,Kh.No.244 Main Pasta Road, Sadar Bazar, New Delhi - 110094, Dist.Delhi, Delhi",7942836772,
"Multicolor 1 Kids mats, 0-3 Yrs",https://www.indiamart.com/proddetail/kids-mats-4950401773.html?pos=125&kwd=baby soft mat&tags=BB||||8752.144|Price|product|||MDC|rsf:gd-|-stype:attr=1|qr_nm:gd|res:RC4|com-cf:nl|ptrs:na|ktp:N0|mc:84283|mtp:S|qry_typ:P|lang:en|wc:3|cs:8842|v=4,Strawberry Stop,https://www.indiamart.com/strawberystop/?pos=125&kwd=baby soft mat&tags=BB||||8752.144|Price|product|||MDC|rsf:gd-|-stype:attr=1|qr_nm:gd|res:RC4|com-cf:nl|ptrs:na|ktp:N0|mc:84283|mtp:S|qry_typ:P|lang:en|wc:3|cs:8842|v=4,False,ROHINI,New Delhi,"A-3/23,BLOCK A,SECTOR 5,ROHINI, ROHINI, New Delhi - 110085, Dist.Delhi, Delhi",8048601210,
PLAY MAT NEW JG BIG,https://www.indiamart.com/proddetail/play-mat-new-jg-big-2853221597262.html?pos=126&kwd=baby soft mat&tags=BA||||8211.142|Price|product|||TS|rsf:gd-|-stype:attr=1|qr_nm:gd|res:RC4|com-cf:nl|ptrs:na|ktp:N0|mc:84283|mtp:S|qry_typ:P|lang:en|wc:3|cs:8842|v=4,A.K.N Traders,https://www.akntraders.com/?pos=126&kwd=baby soft mat&tags=BA||||8211.142|Price|product|||TS|rsf:gd-|-stype:attr=1|qr_nm:gd|res:RC4|com-cf:nl|ptrs:na|ktp:N0|mc:84283|mtp:S|qry_typ:P|lang:en|wc:3|cs:8842|v=4,False,Mazgaon Road,Mumbai,"25th Floor, 250, Saifee Park, Mascrenhas Road, Mazogaon,, Mazgaon Road, Mumbai - 400010, Dist.Mumbai, Maharashtra",7942869187,
PVC Green Printed Baby Bed Sheet,https://www.indiamart.com/proddetail/green-printed-baby-bed-sheet-2853217631355.html?pos=127&kwd=baby soft mat&tags=BA||||8211.142|Price|product|||MDC|rsf:gd-|-stype:attr=1|qr_nm:gd|res:RC4|com-cf:nl|ptrs:na|ktp:N0|mc:84283|mtp:S|qry_typ:P|lang:en|wc:3|cs:8842|v=4,Baby Boutique,https://www.indiamart.com/baby-boutiquemumbai/?pos=127&kwd=baby soft mat&tags=BA||||8211.142|Price|product|||MDC|rsf:gd-|-stype:attr=1|qr_nm:gd|res:RC4|com-cf:nl|ptrs:na|ktp:N0|mc:84283|mtp:S|qry_typ:P|lang:en|wc:3|cs:8842|v=4,False,Masjid Bandar,Mumbai,"7th, 95/99 Flat No. 701, Noori Tower, Sherriff Devi Street, Mandvi, Masjid Bandar, West Mumbai, Masjid Bandar, Mumbai - 400003, Dist.Mumbai, Maharashtra",7942960570,
"Multicolor Baby Play Mat, Size/Dimension: 75L*6W*39H",https://www.indiamart.com/proddetail/baby-play-mat-2850621796655.html?pos=128&kwd=baby soft mat&tags=BA||||8230.883|Price|product|||TS|rsf:gd-|-stype:attr=1|qr_nm:gd|res:RC4|com-cf:nl|ptrs:na|ktp:N0|mc:84283|mtp:S|qry_typ:P|lang:en|wc:3|cs:8842|v=4,Khilona House,https://www.indiamart.com/khilona-house-surat/?pos=128&kwd=baby soft mat&tags=BA||||8230.883|Price|product|||TS|rsf:gd-|-stype:attr=1|qr_nm:gd|res:RC4|com-cf:nl|ptrs:na|ktp:N0|mc:84283|mtp:S|qry_typ:P|lang:en|wc:3|cs:8842|v=4,False,Singanpor,Surat,"SY.No.-0047, Plot A/19, First, Madhav Mandir Society-1, Dabholi Road, Katargam, Singanpor, Surat - 395004, Dist.Surat, Gujarat",8047783031,
Baby Measuring Mat,https://www.indiamart.com/proddetail/baby-measuring-mat-2852708112562.html?pos=129&kwd=baby soft mat&tags=BA||||8228.275|Price|product|||TS|rsf:gd-|-stype:attr=1|qr_nm:gd|res:RC4|com-cf:nl|ptrs:na|ktp:N0|mc:84283|mtp:S|qry_typ:P|lang:en|wc:3|cs:8842|v=4,Sarkar Surgical,https://www.indiamart.com/sarkarsurgical/?pos=129&kwd=baby soft mat&tags=BA||||8228.275|Price|product|||TS|rsf:gd-|-stype:attr=1|qr_nm:gd|res:RC4|com-cf:nl|ptrs:na|ktp:N0|mc:84283|mtp:S|qry_typ:P|lang:en|wc:3|cs:8842|v=4,False,Juhapura,Ahmedabad,"263/1 , Hussaini Park-2 , Opp. Hotel Vishla, Near Alfatima Society,Juhapura, Juhapura, Ahmedabad - 380055, Dist.Ahmedabad, Gujarat",8048616575,
"Multicolor Baby Cotton Play Mat, Size/Dimension: 100cm Round",https://www.indiamart.com/proddetail/baby-cotton-play-mat-2852060049862.html?pos=130&kwd=baby soft mat&tags=BA||||8706.263|Price|product|||TS|rsf:gd-|-stype:attr=1|qr_nm:gd|res:RC4|com-cf:nl|ptrs:na|ktp:N0|mc:84283|mtp:S|qry_typ:P|lang:en|wc:3|cs:8842|v=4,Taruna Tex,https://www.indiamart.com/taruna-tex-karur/?pos=130&kwd=baby soft mat&tags=BA||||8706.263|Price|product|||TS|rsf:gd-|-stype:attr=1|qr_nm:gd|res:RC4|com-cf:nl|ptrs:na|ktp:N0|mc:84283|mtp:S|qry_typ:P|lang:en|wc:3|cs:8842|v=4,True,Veluswamypuram,Karur,"137, Nanthavana Street, Velusamypuram IV Cross, Andankoil West, Veluswamypuram, Karur - 639002, Dist.Karur, Tamil Nadu",7942874999,
"Baby Soft Mattress, 1-2 Years",https://www.indiamart.com/proddetail/baby-soft-mattress-2851939420573.html?pos=131&kwd=baby soft mat&tags=BB||||8211.142|Price|product|||TS|rsf:gd-|-stype:attr=1|qr_nm:gd|res:RC4|com-cf:nl|ptrs:na|ktp:N0|mc:84283|mtp:S|qry_typ:P|lang:en|wc:3|cs:8842|v=4,White House Toys,https://www.indiamart.com/whitehousetoys/?pos=131&kwd=baby soft mat&tags=BB||||8211.142|Price|product|||TS|rsf:gd-|-stype:attr=1|qr_nm:gd|res:RC4|com-cf:nl|ptrs:na|ktp:N0|mc:84283|mtp:S|qry_typ:P|lang:en|wc:3|cs:8842|v=4,False,Town Hall,Mumbai,"95 bhaji Pala lane shop No.3 Ground Floor Opp.cosmo MKT.ABDU REHMANS STREET,CROSS LANE, MUMBAI Modern Toy Mumbai, Town Hall, Mumbai - 400001, Dist.Mumbai, Maharashtra",7942869160,
"Blue Plastic Baby Mat Water Play Leak Proof, Child Age Group: 1 Month To 1 Year",https://www.indiamart.com/proddetail/baby-mat-water-play-leak-proof-24389248133.html?pos=132&kwd=baby soft mat&tags=BA||||8211.142|Price|product|||TS|rsf:gd-|-stype:attr=1|qr_nm:gd|res:RC4|com-cf:nl|ptrs:na|ktp:N0|mc:84283|mtp:S|qry_typ:P|lang:en|wc:3|cs:8842|v=4,A One Collection,https://www.aonecollection.net/?pos=132&kwd=baby soft mat&tags=BA||||8211.142|Price|product|||TS|rsf:gd-|-stype:attr=1|qr_nm:gd|res:RC4|com-cf:nl|ptrs:na|ktp:N0|mc:84283|mtp:S|qry_typ:P|lang:en|wc:3|cs:8842|v=4,False,Nr Fire Bridge Station,Mumbai,"Gala No 505, Bldg No 11, 5th Floor, Motilal Nehru Nagar, Bandra, Nr Fire Bridge Station, Mumbai - 400051, Dist.Mumbai, Maharashtra",8045910671,
Baby Kids Water Play Mat Toys Inflatable Tummy Time Leakproof Water Play Mat,https://www.indiamart.com/proddetail/baby-kids-water-play-mat-toys-inflatable-tummy-time-leakproof-water-play-mat-2851955230748.html?pos=133&kwd=baby soft mat&tags=BA||||8228.275|Price|product|||TS|rsf:gd-|-stype:attr=1|qr_nm:gd|res:RC4|com-cf:nl|ptrs:na|ktp:N0|mc:84283|mtp:S|qry_typ:P|lang:en|wc:3|cs:8842|v=4,B2B Box,https://www.indiamart.com/b2b-box/?pos=133&kwd=baby soft mat&tags=BA||||8228.275|Price|product|||TS|rsf:gd-|-stype:attr=1|qr_nm:gd|res:RC4|com-cf:nl|ptrs:na|ktp:N0|mc:84283|mtp:S|qry_typ:P|lang:en|wc:3|cs:8842|v=4,False,,Ahmedabad,"Plot No 8, Survey No 707, Opposite Green City Apartment, Dipak Poha Mamra Gali Rakanpur, Ahmedabad, Gujarat, Ahmedabad - 380058, Dist.Ahmedabad, Gujarat",7942874137,
Baby Folding Mat Play Foam Crawl Waterproof Portable Kids Baby ( 6x5.5 FT),https://www.indiamart.com/proddetail/baby-folding-mat-play-foam-crawl-waterproof-portable-kids-baby-6x5-5-ft-2853193784073.html?pos=134&kwd=baby soft mat&tags=BA||||8230.883|Price|product|||TS|rsf:gd-|-stype:attr=1|qr_nm:gd|res:RC4|com-cf:nl|ptrs:na|ktp:N0|mc:84283|mtp:S|qry_typ:P|lang:en|wc:3|cs:8842|v=4,DS Enterprise,https://www.dsent.in/?pos=134&kwd=baby soft mat&tags=BA||||8230.883|Price|product|||TS|rsf:gd-|-stype:attr=1|qr_nm:gd|res:RC4|com-cf:nl|ptrs:na|ktp:N0|mc:84283|mtp:S|qry_typ:P|lang:en|wc:3|cs:8842|v=4,False,Mota Varachha,Surat,"404, 4th Floor ,Green Plaza, Golden City Road, Mota Varachha, Surat - 394101, Dist.Surat, Gujarat",8048977036,
MITSICO Water Play Mat for Baby Inflatable Baby Slapped Pad Toy Indoor and Outdoor Water for Infants,https://www.indiamart.com/proddetail/mitsico-water-play-mat-for-baby-inflatable-baby-slapped-pad-toy-indoor-and-outdoor-water-for-infants-25769353197.html?pos=135&kwd=baby soft mat&tags=BA||||8230.883|Price|product|||TS|rsf:gd-|-stype:attr=1|qr_nm:gd|res:RC4|com-cf:nl|ptrs:na|ktp:N0|mc:84283|mtp:S|qry_typ:P|lang:en|wc:3|cs:8842|v=4,Mitsico,https://www.mitsico.in/?pos=135&kwd=baby soft mat&tags=BA||||8230.883|Price|product|||TS|rsf:gd-|-stype:attr=1|qr_nm:gd|res:RC4|com-cf:nl|ptrs:na|ktp:N0|mc:84283|mtp:S|qry_typ:P|lang:en|wc:3|cs:8842|v=4,False,KATARGAM,Surat,"Basement-1, Shop No.- A1, Sunday Hub Shopping Center, Amba Talavadi, Opp. Shree Vinayak Residency, KATARGAM, Surat - 395004, Dist.Surat, Gujarat",8047649165,
"Kids Play Mat, Size/Dimension: 5*7",https://www.indiamart.com/proddetail/kids-play-mat-27632200712.html?pos=136&kwd=baby soft mat&tags=BB||||8747.203|Price|product|||TS|rsf:gd-|-stype:attr=1|qr_nm:gd|res:RC4|com-cf:nl|ptrs:na|ktp:N0|mc:84283|mtp:S|qry_typ:P|lang:en|wc:3|cs:8842|v=4,Jai Balaji Textiles,https://www.indiamart.com/jaibalajitextile-panipat/?pos=136&kwd=baby soft mat&tags=BB||||8747.203|Price|product|||TS|rsf:gd-|-stype:attr=1|qr_nm:gd|res:RC4|com-cf:nl|ptrs:na|ktp:N0|mc:84283|mtp:S|qry_typ:P|lang:en|wc:3|cs:8842|v=4,False,Sethi Chowk,Panipat,"Sethi Chowk, Sethi Chowk, Panipat - 132103, Dist.Panipat, Haryana",8047672751,
Manufacturer of Newborn Baby/Infant Diaper/Nappy Changing Mat/Pads - Organic Cotton Reusable Printed,https://www.indiamart.com/proddetail/manufacturer-of-newborn-baby-infant-diaper-nappy-changing-mat-pads-organic-cotton-reusable-printed-21352161412.html?pos=137&kwd=baby soft mat&tags=BA||||8668.838|Price|product|||TS|rsf:gd-|-stype:attr=1|qr_nm:gd|res:RC4|com-cf:nl|ptrs:na|ktp:N0|mc:84283|mtp:S|qry_typ:P|lang:en|wc:3|cs:8842|v=4,Sri Kalyan Export Private Limited,https://www.firstinbabydress.com/?pos=137&kwd=baby soft mat&tags=BA||||8668.838|Price|product|||TS|rsf:gd-|-stype:attr=1|qr_nm:gd|res:RC4|com-cf:nl|ptrs:na|ktp:N0|mc:84283|mtp:S|qry_typ:P|lang:en|wc:3|cs:8842|v=4,False,Vilarasampatti,Erode,"192/4, Ishwarya Garden, Sengodampalayam, Villarasampatti Post, Erode,, Vilarasampatti, Erode - 638107, Dist.Erode, Tamil Nadu",8046030291,
"Rectangular School Silicone Mat, Size: 5x10 Inch",https://www.indiamart.com/proddetail/school-silicone-mat-2853958427733.html?pos=138&kwd=baby soft mat&tags=BB||||8723.301|Price|product|||TS|rsf:gd-|-stype:attr=1|qr_nm:gd|res:RC4|com-cf:nl|ptrs:na|ktp:N0|mc:84283|mtp:S|qry_typ:P|lang:en|wc:3|cs:8842|v=4,Future School Solutions,https://www.indiamart.com/future-school-solutions/?pos=138&kwd=baby soft mat&tags=BB||||8723.301|Price|product|||TS|rsf:gd-|-stype:attr=1|qr_nm:gd|res:RC4|com-cf:nl|ptrs:na|ktp:N0|mc:84283|mtp:S|qry_typ:P|lang:en|wc:3|cs:8842|v=4,False,misrod,Bhopal,"37,PARSHVE PAVILLION,BEHIND INDUS EMPIRE,BHOPAL, misrod, Bhopal - 462026, Dist.Bhopal, Madhya Pradesh",8044561546,
"Blue Newnik Cozymat Soft Water Proof, For Clinic, Size/Dimension: 0.7 Mtr * 1.0 Mtr",https://www.indiamart.com/proddetail/newnik-cozymat-soft-water-proof-26195617188.html?pos=139&kwd=baby soft mat&tags=BA||||8307.81|Price|product|||TS|rsf:gd-|-stype:attr=1|qr_nm:gd|res:RC4|com-cf:nl|ptrs:na|ktp:N0|mc:84283|mtp:S|qry_typ:P|lang:en|wc:3|cs:8842|v=4,Bhairavi Surgicals & Distributors,https://www.bhairavisurgical.in/?pos=139&kwd=baby soft mat&tags=BA||||8307.81|Price|product|||TS|rsf:gd-|-stype:attr=1|qr_nm:gd|res:RC4|com-cf:nl|ptrs:na|ktp:N0|mc:84283|mtp:S|qry_typ:P|lang:en|wc:3|cs:8842|v=4,False,Uruli Devachi,Pune,"Uruli Devachi, Near HP Petrol Pump Mantarwadi, Uruli Devachi, Pune - 412308, Dist.Pune, Maharashtra",8048953479,
"Baby Play Mat, Floor Crawling Educational Double Sided Waterproof Carpet For Kids",https://www.indiamart.com/proddetail/baby-play-mat-floor-crawling-educational-double-sided-waterproof-carpet-for-kids-2852047480688.html?pos=140&kwd=baby soft mat&tags=BA||||8230.883|Price|product|||TS|rsf:gd-|-stype:attr=1|qr_nm:gd|res:RC4|com-cf:nl|ptrs:na|ktp:N0|mc:84283|mtp:S|qry_typ:P|lang:en|wc:3|cs:8842|v=4,Medigo,https://www.indiamart.com/medigo/?pos=140&kwd=baby soft mat&tags=BA||||8230.883|Price|product|||TS|rsf:gd-|-stype:attr=1|qr_nm:gd|res:RC4|com-cf:nl|ptrs:na|ktp:N0|mc:84283|mtp:S|qry_typ:P|lang:en|wc:3|cs:8842|v=4,False,Ghodbunder,Surat,"33, Gr Fl, Vallabh Nagar H Society, Ved Gurukul Road, Ghodbunder, Surat - 395004, Dist.Surat, Gujarat",8047543152,
"New Inflatable Water Play Mats, Medium",https://www.indiamart.com/proddetail/inflatable-water-play-mats-26027414991.html?pos=141&kwd=baby soft mat&tags=BB||||8211.142|Price|product|||TS|rsf:gd-|-stype:attr=1|qr_nm:gd|res:RC4|com-cf:nl|ptrs:na|ktp:N0|mc:84283|mtp:S|qry_typ:P|lang:en|wc:3|cs:8842|v=4,Sameer Collection,https://www.sameercollection.in/?pos=141&kwd=baby soft mat&tags=BB||||8211.142|Price|product|||TS|rsf:gd-|-stype:attr=1|qr_nm:gd|res:RC4|com-cf:nl|ptrs:na|ktp:N0|mc:84283|mtp:S|qry_typ:P|lang:en|wc:3|cs:8842|v=4,False,Princess Dock,Mumbai,"A-1901, Ansari Heights, Umar Kokil Marg, Princess Dock, Mumbai - 400009, Dist.Mumbai, Maharashtra",8046070689,
Rubber Blue Baby Water Mat,https://www.indiamart.com/proddetail/baby-water-mat-2854060477930.html?pos=142&kwd=baby soft mat&tags=BA||||8230.883|Price|product|||TS|rsf:gd-|-stype:attr=1|qr_nm:gd|res:RC4|com-cf:nl|ptrs:na|ktp:N0|mc:84283|mtp:S|qry_typ:P|lang:en|wc:3|cs:8842|v=4,Godfather Medicare Agency,https://www.godfatherimpex.com/?pos=142&kwd=baby soft mat&tags=BA||||8230.883|Price|product|||TS|rsf:gd-|-stype:attr=1|qr_nm:gd|res:RC4|com-cf:nl|ptrs:na|ktp:N0|mc:84283|mtp:S|qry_typ:P|lang:en|wc:3|cs:8842|v=4,False,,Surat,"165, Shubhlaxmi Society, Nana Varachha, Surat - 395006, Dist.Surat, Gujarat",8044456116,
"Multicolor Baby Play Mat, Size/Dimension: 75L*6W*39H",https://www.indiamart.com/proddetail/baby-play-mat-2850621796655.html?pos=143&kwd=baby soft mat&tags=BA||||8230.883|Price|product|||TS|rsf:gd-|-stype:attr=1|qr_nm:gd|res:RC4|com-cf:nl|ptrs:na|ktp:N0|mc:84283|mtp:S|qry_typ:P|lang:en|wc:3|cs:8842|v=4,Khilona House,https://www.indiamart.com/khilona-house-surat/?pos=143&kwd=baby soft mat&tags=BA||||8230.883|Price|product|||TS|rsf:gd-|-stype:attr=1|qr_nm:gd|res:RC4|com-cf:nl|ptrs:na|ktp:N0|mc:84283|mtp:S|qry_typ:P|lang:en|wc:3|cs:8842|v=4,False,Singanpor,Surat,"SY.No.-0047, Plot A/19, First, Madhav Mandir Society-1, Dabholi Road, Katargam, Singanpor, Surat - 395004, Dist.Surat, Gujarat",8047783031,
"Squre Leather BABY MASSAGE MAT, For Home",https://www.indiamart.com/proddetail/baby-massage-mat-2852378578888.html?pos=144&kwd=baby soft mat&tags=BA||||8211.142|Price|product|||TS|rsf:gd-|-stype:attr=1|qr_nm:gd|res:RC4|com-cf:nl|ptrs:na|ktp:N0|mc:84283|mtp:S|qry_typ:P|lang:en|wc:3|cs:8842|v=4,P For Panda Baby Products Private Limited,https://www.p4pandababyproducts.com/?pos=144&kwd=baby soft mat&tags=BA||||8211.142|Price|product|||TS|rsf:gd-|-stype:attr=1|qr_nm:gd|res:RC4|com-cf:nl|ptrs:na|ktp:N0|mc:84283|mtp:S|qry_typ:P|lang:en|wc:3|cs:8842|v=4,False,Goregaon West,Mumbai,"904 A Wing,9 Th Floor,Triple S Heights,Jakeria Road, Goregaon West, Mumbai - 400064, Dist.Mumbai, Maharashtra",7942710871,
PVC mix colours Baby Play Mat (6x4),https://www.indiamart.com/proddetail/baby-play-mat-6x4-2853249185055.html?pos=145&kwd=baby soft mat&tags=BA||||8752.144|Price|product|||TS|rsf:gd-|-stype:attr=1|qr_nm:gd|res:RC4|com-cf:nl|ptrs:na|ktp:N0|mc:84283|mtp:S|qry_typ:P|lang:en|wc:3|cs:8842|v=4,Ekta Overseas,https://www.indiamart.com/ektaoverseas-newdelhi/?pos=145&kwd=baby soft mat&tags=BA||||8752.144|Price|product|||TS|rsf:gd-|-stype:attr=1|qr_nm:gd|res:RC4|com-cf:nl|ptrs:na|ktp:N0|mc:84283|mtp:S|qry_typ:P|lang:en|wc:3|cs:8842|v=4,False,Shahdara,New Delhi,"1/95, Gali No.3, Near Navjeevan Phisical Center, Vishwas Nagar, Shahdara,, Shahdara, New Delhi - 110032, Dist.Delhi, Delhi",7942628926,
"PVC Pun Out Baby Kids Water Play Mat, Baby Slapped Pad, Baby Water Mat, Rider Capacity: 20",https://www.indiamart.com/proddetail/baby-kids-water-play-mat-baby-slapped-pad-baby-water-mat-23865669573.html?pos=146&kwd=baby soft mat&tags=BA||||8230.883|Price|product|||TS|rsf:gd-|-stype:attr=1|qr_nm:gd|res:RC4|com-cf:nl|ptrs:na|ktp:N0|mc:84283|mtp:S|qry_typ:P|lang:en|wc:3|cs:8842|v=4,Dynamic Import & Export,https://www.dynamicimportandexport.com/?pos=146&kwd=baby soft mat&tags=BA||||8230.883|Price|product|||TS|rsf:gd-|-stype:attr=1|qr_nm:gd|res:RC4|com-cf:nl|ptrs:na|ktp:N0|mc:84283|mtp:S|qry_typ:P|lang:en|wc:3|cs:8842|v=4,False,Punagam,Surat,"Shade No 4, Besides B4Bakers, Opp Ami Park Society, Manishnagar Market Road, Dabholi, Katargam, Punagam, Surat - 395010, Dist.Surat, Gujarat",8046030878,
Multicolor Baby Kids Water Play Mat,https://www.indiamart.com/proddetail/baby-kids-water-play-mat-24341727862.html?pos=147&kwd=baby soft mat&tags=BB||||8230.883|Price|product|||TS|rsf:gd-|-stype:attr=1|qr_nm:gd|res:RC4|com-cf:nl|ptrs:na|ktp:N0|mc:84283|mtp:S|qry_typ:P|lang:en|wc:3|cs:8842|v=4,Angel Enterprise,https://www.angelenterprise.net/?pos=147&kwd=baby soft mat&tags=BB||||8230.883|Price|product|||TS|rsf:gd-|-stype:attr=1|qr_nm:gd|res:RC4|com-cf:nl|ptrs:na|ktp:N0|mc:84283|mtp:S|qry_typ:P|lang:en|wc:3|cs:8842|v=4,False,Singanpor,Surat,"Basement Plot No-c/45 Singanpore Road Radheshyam Society, Singanpor, Surat - 395004, Dist.Surat, Gujarat",8045910723,
Plastic Baby Activity Mat,https://www.indiamart.com/proddetail/plastic-baby-activity-mat-2853928151797.html?pos=148&kwd=baby soft mat&tags=BA||||8752.144|Price|product|||MDC|rsf:gd-|-stype:attr=1|qr_nm:gd|res:RC4|com-cf:nl|ptrs:na|ktp:N0|mc:84283|mtp:S|qry_typ:P|lang:en|wc:3|cs:8842|v=4,S.M. Enterprises,https://www.indiamart.com/smenterprisesnew-delhi/?pos=148&kwd=baby soft mat&tags=BA||||8752.144|Price|product|||MDC|rsf:gd-|-stype:attr=1|qr_nm:gd|res:RC4|com-cf:nl|ptrs:na|ktp:N0|mc:84283|mtp:S|qry_typ:P|lang:en|wc:3|cs:8842|v=4,False,North West Delhi,New Delhi,"Ground, F-24/214, Gali Number 3, Rohini Sector 3, North West Delhi, New Delhi - 110085, Dist.Delhi, Delhi",8044565279,
Manufacturer of Newborn Baby/Infant Diaper/Nappy Changing Mat/Pads - Organic Cotton Reusable Printed,https://www.indiamart.com/proddetail/manufacturer-of-newborn-baby-infant-diaper-nappy-changing-mat-pads-organic-cotton-reusable-printed-21352161412.html?pos=149&kwd=baby soft mat&tags=BA||||8668.838|Price|product|||TS|rsf:gd-|-stype:attr=1|qr_nm:gd|res:RC4|com-cf:nl|ptrs:na|ktp:N0|mc:84283|mtp:S|qry_typ:P|lang:en|wc:3|cs:8842|v=4,Sri Kalyan Export Private Limited,https://www.firstinbabydress.com/?pos=149&kwd=baby soft mat&tags=BA||||8668.838|Price|product|||TS|rsf:gd-|-stype:attr=1|qr_nm:gd|res:RC4|com-cf:nl|ptrs:na|ktp:N0|mc:84283|mtp:S|qry_typ:P|lang:en|wc:3|cs:8842|v=4,False,Vilarasampatti,Erode,"192/4, Ishwarya Garden, Sengodampalayam, Villarasampatti Post, Erode,, Vilarasampatti, Erode - 638107, Dist.Erode, Tamil Nadu",8046030291,
"Unisex BabySoft Activity Mat, Size: 81 Cm Dia",https://www.indiamart.com/proddetail/babysoft-activity-mat-22970806797.html?pos=150&kwd=baby soft mat&tags=BA||||8778.123|Price|product|||TS|rsf:gd-|-stype:attr=1|qr_nm:gd|res:RC4|com-cf:nl|ptrs:na|ktp:N0|mc:84283|mtp:S|qry_typ:P|lang:en|wc:3|cs:8842|v=4,Oscar Overseas,https://www.oscar-india.com/?pos=150&kwd=baby soft mat&tags=BA||||8778.123|Price|product|||TS|rsf:gd-|-stype:attr=1|qr_nm:gd|res:RC4|com-cf:nl|ptrs:na|ktp:N0|mc:84283|mtp:S|qry_typ:P|lang:en|wc:3|cs:8842|v=4,False,,Noida,"A-99 Sector 5, Noida - 201301, Dist.Gautam Budh Nagar, Uttar Pradesh",8046058290,
"Multicolor Imported Kids Play Mat, Size/Dimension: 150x100(cm)",https://www.indiamart.com/proddetail/imported-kids-play-mat-26246038462.html?pos=151&kwd=baby soft mat&tags=BB||||8752.144|Price|product|||TS|rsf:gd-|-stype:attr=1|qr_nm:gd|res:RC4|com-cf:nl|ptrs:na|ktp:N0|mc:84283|mtp:S|qry_typ:P|lang:en|wc:3|cs:8842|v=4,Wonderland Garden Arts And Crafts,https://www.thewonderlandwholesaler.com/?pos=151&kwd=baby soft mat&tags=BB||||8752.144|Price|product|||TS|rsf:gd-|-stype:attr=1|qr_nm:gd|res:RC4|com-cf:nl|ptrs:na|ktp:N0|mc:84283|mtp:S|qry_typ:P|lang:en|wc:3|cs:8842|v=4,False,wonderland,New Delhi,"D-10/2, Okhla Industrial Phase 1, wonderland, New Delhi - 110020, Dist.Delhi, Delhi",8048988737,
Multicolor Beautiful EVA Mat flooring tiles for Montessori School Kids,https://www.indiamart.com/proddetail/beautiful-eva-mat-flooring-tiles-for-montessori-school-kids-27450866033.html?pos=152&kwd=baby soft mat&tags=BB||||8223.226|Price|product|||TS|rsf:gd-|-stype:attr=1|qr_nm:gd|res:RC4|com-cf:nl|ptrs:na|ktp:N0|mc:84283|mtp:S|qry_typ:P|lang:en|wc:3|cs:8842|v=4,Royal Play Equipments,https://www.indiamart.com/omenterprisesmaharashtra/?pos=152&kwd=baby soft mat&tags=BB||||8223.226|Price|product|||TS|rsf:gd-|-stype:attr=1|qr_nm:gd|res:RC4|com-cf:nl|ptrs:na|ktp:N0|mc:84283|mtp:S|qry_typ:P|lang:en|wc:3|cs:8842|v=4,False,Vasai,Thane,"Gala No. 17, Dewan & Shah Industrial Estate No. 6, Navghar, Vasai East, Vasai, Thane - 401210, Dist.Thane, Maharashtra",8048618808,
"Hand made crochet Cotton Kids Dining Mat, 1",https://www.indiamart.com/proddetail/kids-dining-mat-2849869930662.html?pos=153&kwd=baby soft mat&tags=BB||||8891.556|Price|product|||TS|rsf:gd-|-stype:attr=1|qr_nm:gd|res:RC4|com-cf:nl|ptrs:na|ktp:N0|mc:84283|mtp:S|qry_typ:P|lang:en|wc:3|cs:8842|v=4,Trendy Crew Exports,https://www.indiamart.com/trendy-crew-exports-kanchipuram/?pos=153&kwd=baby soft mat&tags=BB||||8891.556|Price|product|||TS|rsf:gd-|-stype:attr=1|qr_nm:gd|res:RC4|com-cf:nl|ptrs:na|ktp:N0|mc:84283|mtp:S|qry_typ:P|lang:en|wc:3|cs:8842|v=4,False,Medavakkam,Kanchipuram,"Block S 203, Isha Yara, Vadakkupattu Main Road, Medavakkam, Kanchipuram - 600100, Dist.Kanchipuram, Tamil Nadu",7942793402,
"Baby Water Play Mat for Infants and Toddlers Baby Toys for 3 to 24 Months, Strengthen Your Baby",https://www.indiamart.com/proddetail/baby-water-play-mat-for-infants-and-toddlers-baby-toys-for-3-to-24-months-strengthen-your-baby-2854951546848.html?pos=154&kwd=baby soft mat&tags=BB||||8230.883|Price|product|||MDC|rsf:gd-|-stype:attr=1|qr_nm:gd|res:RC4|com-cf:nl|ptrs:na|ktp:N0|mc:84283|mtp:S|qry_typ:P|lang:en|wc:3|cs:8842|v=4,Brahma Wholesaler,https://www.indiamart.com/brahma-wholesaler/?pos=154&kwd=baby soft mat&tags=BB||||8230.883|Price|product|||MDC|rsf:gd-|-stype:attr=1|qr_nm:gd|res:RC4|com-cf:nl|ptrs:na|ktp:N0|mc:84283|mtp:S|qry_typ:P|lang:en|wc:3|cs:8842|v=4,False,,Surat,"Ground Floor, 123, Harekrishna SOC, Katargam Road, Shreeji Provision Store, Surat - 395004, Dist.Surat, Gujarat",7949331498,
"Eva Kid S Interlocking Play Mat, Mat Size: 1m X 1m",https://www.indiamart.com/proddetail/eva-kid-s-interlocking-play-mat-25671321455.html?pos=155&kwd=baby soft mat&tags=BA||||8663.873|Price|product|||MDC|rsf:gd-|-stype:attr=1|qr_nm:gd|res:RC4|com-cf:nl|ptrs:na|ktp:N0|mc:84283|mtp:S|qry_typ:P|lang:en|wc:3|cs:8842|v=4,Sri Hari Innovation Flooring,https://www.indiamart.com/srihariinnovation-flooring/?pos=155&kwd=baby soft mat&tags=BA||||8663.873|Price|product|||MDC|rsf:gd-|-stype:attr=1|qr_nm:gd|res:RC4|com-cf:nl|ptrs:na|ktp:N0|mc:84283|mtp:S|qry_typ:P|lang:en|wc:3|cs:8842|v=4,False,Cross,Bengaluru,"No.19, Rajiv Gandhi Road, Naidu Layout, 3rd Cross, Jaraganahalli Village, Uttarahalli Hobli,, Cross, Bengaluru - 560078, Dist.Bengaluru, Karnataka",8047653937,
"Blue (Base) Baby Cotton Bibs, Newly Born",https://www.indiamart.com/proddetail/baby-cotton-bibs-24252501248.html?pos=156&kwd=baby soft mat&tags=BB||||8752.144|Price|product|||MDC|rsf:gd-|-stype:attr=1|qr_nm:gd|res:RC4|com-cf:nl|ptrs:na|ktp:N0|mc:84283|mtp:S|qry_typ:P|lang:en|wc:3|cs:8842|v=4,Drishti E-Commerce,https://www.indiamart.com/drishti-e-commerce/?pos=156&kwd=baby soft mat&tags=BB||||8752.144|Price|product|||MDC|rsf:gd-|-stype:attr=1|qr_nm:gd|res:RC4|com-cf:nl|ptrs:na|ktp:N0|mc:84283|mtp:S|qry_typ:P|lang:en|wc:3|cs:8842|v=4,False,Jahangirpura,New Delhi,"B-29, Ground Floor, Kh No-238/2, Gali No-5/12, Gurunanak Dev Colony, Bhalswa, North Delhi, Jahangirpura, New Delhi - 110042, Dist.Delhi, Delhi",7949082368,
"BABY DIAPER CHANGING PAD, Portable changing pad for newborn boy & girl- Baby Changing Pad",https://www.indiamart.com/proddetail/baby-diaper-changing-pad-portable-changing-pad-for-newborn-boy-girl-baby-changing-pad-2854750565112.html?pos=157&kwd=baby soft mat&tags=BB||||8230.883|Price|product|||MDC|rsf:gd-|-stype:attr=1|qr_nm:gd|res:RC4|com-cf:nl|ptrs:na|ktp:N0|mc:84283|mtp:S|qry_typ:P|lang:en|wc:3|cs:8842|v=4,P G Impex,https://www.indiamart.com/pg-impex-surat/?pos=157&kwd=baby soft mat&tags=BB||||8230.883|Price|product|||MDC|rsf:gd-|-stype:attr=1|qr_nm:gd|res:RC4|com-cf:nl|ptrs:na|ktp:N0|mc:84283|mtp:S|qry_typ:P|lang:en|wc:3|cs:8842|v=4,False,,Surat,"3rd Floor, 304, Sarjan Residency Wing-A, Sunganpor Road, Katargam, Surat - 395004, Dist.Surat, Gujarat",7949322822,
Rectangular Cotton Printed Baby Mattress,https://www.indiamart.com/proddetail/rectangular-cotton-printed-baby-mattress-2852670388097.html?pos=158&kwd=baby soft mat&tags=BA||||8230.883|Price|product|||MDC|rsf:gd-|-stype:attr=1|qr_nm:gd|res:RC4|com-cf:nl|ptrs:na|ktp:N0|mc:84283|mtp:S|qry_typ:P|lang:en|wc:3|cs:8842|v=4,Shri Shri Fashion,https://www.indiamart.com/shri-shri-fashion/?pos=158&kwd=baby soft mat&tags=BA||||8230.883|Price|product|||MDC|rsf:gd-|-stype:attr=1|qr_nm:gd|res:RC4|com-cf:nl|ptrs:na|ktp:N0|mc:84283|mtp:S|qry_typ:P|lang:en|wc:3|cs:8842|v=4,False,Varachha,Surat,"A-231, Narayan Nagar, Near Nalanda School, Punagam,, Varachha, Surat - 395010, Dist.Surat, Gujarat",7942712235,
Kids School Mat,,Aryan Sports & Fitness,https://www.indiamart.com/aryansports/?pos=159&kwd=baby soft mat&tags=BA||||9110.092|Price|product|||MDC|rsf:gd-|-stype:attr=1|qr_nm:gd|res:RC4|com-cf:nl|ptrs:na|ktp:N0|mc:84283|mtp:S|qry_typ:P|lang:en|wc:3|cs:8842|v=4,False,Vikas Nagar,Lucknow,"Khurram Nagar, Near Union Bank Of India, Vikas Nagar, Lucknow - 226022, Dist.Lucknow, Uttar Pradesh",8046061812,
Baby Folding Mat,https://www.indiamart.com/proddetail/baby-folding-mat-2854182467148.html?pos=160&kwd=baby soft mat&tags=BA||||8752.144|Price|product|||TS|rsf:gd-|-stype:attr=1|qr_nm:gd|res:RC4|com-cf:nl|ptrs:na|ktp:N0|mc:84283|mtp:S|qry_typ:P|lang:en|wc:3|cs:8842|v=4,Healthy Chacha International,https://www.healthychacha.com/?pos=160&kwd=baby soft mat&tags=BA||||8752.144|Price|product|||TS|rsf:gd-|-stype:attr=1|qr_nm:gd|res:RC4|com-cf:nl|ptrs:na|ktp:N0|mc:84283|mtp:S|qry_typ:P|lang:en|wc:3|cs:8842|v=4,False,Jhandewalan,New Delhi,"E-37, Jhandewalan Flatted Factory Complex, Jhandewalan, New Delhi - 110055, Dist.Delhi, Delhi",8048974489,
"Polyester Printed Chic Buddy Splat Floor Mat, Mat Size: 48cmx 48cm",https://www.indiamart.com/proddetail/chic-buddy-splat-floor-mat-24183900355.html?pos=161&kwd=baby soft mat&tags=BA||||8786.56|Price|product|||TS|rsf:gd-|-stype:attr=1|qr_nm:gd|res:RC4|com-cf:nl|ptrs:na|ktp:N0|mc:84283|mtp:S|qry_typ:P|lang:en|wc:3|cs:8842|v=4,Totcase Services Private Limited,https://www.totcase.com/?pos=161&kwd=baby soft mat&tags=BA||||8786.56|Price|product|||TS|rsf:gd-|-stype:attr=1|qr_nm:gd|res:RC4|com-cf:nl|ptrs:na|ktp:N0|mc:84283|mtp:S|qry_typ:P|lang:en|wc:3|cs:8842|v=4,False,Alwal,Hyderabad,"1-4-177/ A13/402 Shivasai Residency Greenwood Colony Old Alwal, Alwal, Hyderabad - 500010, Dist.Hyderabad, Telangana",8045910096,
Baby Mat,https://www.indiamart.com/proddetail/baby-mat-10370062097.html?pos=162&kwd=baby soft mat&tags=BA||||8752.144||product|||MDC|rsf:gd-|-stype:attr=1|qr_nm:gd|res:RC4|com-cf:nl|ptrs:na|ktp:N0|mc:84283|mtp:S|qry_typ:P|lang:en|wc:3|cs:8842|v=4,Tara Sales Corporation,https://www.indiamart.com/tarasalescorporation/?pos=162&kwd=baby soft mat&tags=BA||||8752.144||product|||MDC|rsf:gd-|-stype:attr=1|qr_nm:gd|res:RC4|com-cf:nl|ptrs:na|ktp:N0|mc:84283|mtp:S|qry_typ:P|lang:en|wc:3|cs:8842|v=4,False,Jhandewalan,New Delhi,"56A, Cycle Market, Jhandewalan, New Delhi - 110055, Dist.Delhi, Delhi",8048978330,
Duro Soft Mats,,S.M.S. Mat House,https://www.indiamart.com/smsmathouse/?pos=163&kwd=baby soft mat&tags=BA||||8211.142|Price|product|||TS|rsf:gd-|-stype:attr=1|qr_nm:gd|res:RC4|com-cf:nl|ptrs:na|ktp:N0|mc:84283|mtp:S|qry_typ:P|lang:en|wc:3|cs:8842|v=4,False,Andheri West,Mumbai,"Shop No. 9, Dattaguru Cooperative Housing Society, Ceazer Road, Amboli Data Sai Mandir, Andheri West, Mumbai - 400058, Dist.Mumbai, Maharashtra",8047641462,
"Memory Foam Multicolor BABY MAT (64''''), 1-2 Years",https://www.indiamart.com/proddetail/baby-mat-64-2849116936648.html?pos=164&kwd=baby soft mat&tags=BA||||8230.883|Price|product|||TS|rsf:gd-|-stype:attr=1|qr_nm:gd|res:RC4|com-cf:nl|ptrs:na|ktp:N0|mc:84283|mtp:S|qry_typ:P|lang:en|wc:3|cs:8842|v=4,Gadhiya Impex.,https://www.gadhiyaimpex.com/?pos=164&kwd=baby soft mat&tags=BA||||8230.883|Price|product|||TS|rsf:gd-|-stype:attr=1|qr_nm:gd|res:RC4|com-cf:nl|ptrs:na|ktp:N0|mc:84283|mtp:S|qry_typ:P|lang:en|wc:3|cs:8842|v=4,False,Katargam,Surat,"8th, 804, Variav Road, Panchshila Sky, Katargam, Surat - 394520, Dist.Surat, Gujarat",8047619805,
"Cotton Baby Soft Tent Mat, Newly Born",https://www.indiamart.com/proddetail/baby-soft-tent-mat-2854722889988.html?pos=165&kwd=baby soft mat&tags=A||||8228.275|Price|product|||NA|rsf:gd-|-stype:attr=1|qr_nm:gd|res:RC4|com-cf:nl|ptrs:na|ktp:N0|mc:84283|mtp:S|qry_typ:P|lang:en|wc:3|cs:8842|v=4,Shishu Apparels,https://www.indiamart.com/shishu-apparels/?pos=165&kwd=baby soft mat&tags=A||||8228.275|Price|product|||NA|rsf:gd-|-stype:attr=1|qr_nm:gd|res:RC4|com-cf:nl|ptrs:na|ktp:N0|mc:84283|mtp:S|qry_typ:P|lang:en|wc:3|cs:8842|v=4,False,,Ahmedabad,"62, Laxmi Vishnu Market, Gheekanta Road, Ghee Kanta, Ahmedabad - 380001, Dist.Ahmedabad, Gujarat",7949322683,
"Multicolor Epe Double Side Printed Baby Soft Mat, Mat Size: 0.9mx1.8mx5mm",https://www.indiamart.com/proddetail/double-side-printed-baby-soft-mat-21832922991.html?pos=166&kwd=baby soft mat&tags=BB||||8228.275|Price|product|||NA|rsf:gd-|-stype:attr=1|qr_nm:gd|res:RC4|com-cf:nl|ptrs:na|ktp:N0|mc:84283|mtp:S|qry_typ:P|lang:en|wc:3|cs:8842|v=4,Chang Ding Plastic Private Limited,https://www.indiamart.com/changdingplastic/?pos=166&kwd=baby soft mat&tags=BB||||8228.275|Price|product|||NA|rsf:gd-|-stype:attr=1|qr_nm:gd|res:RC4|com-cf:nl|ptrs:na|ktp:N0|mc:84283|mtp:S|qry_typ:P|lang:en|wc:3|cs:8842|v=4,False,Vasna Chacharwadi,Ahmedabad,"Warehouse No. 3, Peb Structure, Ashwika 3, Vasna Chacharwadi, Ahmedabad - 382213, Dist.Ahmedabad, Gujarat",8046069373,
Hardhuu Cotton Baby Soft Mat,https://www.indiamart.com/proddetail/baby-soft-mat-2853937851473.html?pos=167&kwd=baby soft mat&tags=BA||||8230.883|Price|product|||NA|rsf:gd-|-stype:attr=1|qr_nm:gd|res:RC4|com-cf:nl|ptrs:na|ktp:N0|mc:84283|mtp:S|qry_typ:P|lang:en|wc:3|cs:8842|v=4,Hardhuu International,https://www.indiamart.com/hardhuuinternational/?pos=167&kwd=baby soft mat&tags=BA||||8230.883|Price|product|||NA|rsf:gd-|-stype:attr=1|qr_nm:gd|res:RC4|com-cf:nl|ptrs:na|ktp:N0|mc:84283|mtp:S|qry_typ:P|lang:en|wc:3|cs:8842|v=4,False,Vijay Nagar Society No 2,Surat,"10, Ground Floor, The Galleria, Kiran Chowk To Yogi Chowk Road, Vijay Nagar Society No 2, Surat - 395010, Dist.Surat, Gujarat",8048271898,
"Printed Navy Blue And Red Polyester Baby Soft Mat, 10 Year, Mat Size: 13x10 Inch (lxw)",https://www.indiamart.com/proddetail/polyester-baby-soft-mat-2850632996955.html?pos=168&kwd=baby soft mat&tags=BA||||8747.203|Price|product|||NA|rsf:gd-|-stype:attr=1|qr_nm:gd|res:RC4|com-cf:nl|ptrs:na|ktp:N0|mc:84283|mtp:S|qry_typ:P|lang:en|wc:3|cs:8842|v=4,Sankait Handloom,https://www.indiamart.com/sankaithandloom/?pos=168&kwd=baby soft mat&tags=BA||||8747.203|Price|product|||NA|rsf:gd-|-stype:attr=1|qr_nm:gd|res:RC4|com-cf:nl|ptrs:na|ktp:N0|mc:84283|mtp:S|qry_typ:P|lang:en|wc:3|cs:8842|v=4,False,Ashok Vihar,Panipat,"875/1, Ashok Vihar Colony, Ashok Vihar, Panipat - 132103, Dist.Panipat, Haryana",7942958822,
"Polythene Green (base) Printed Baby Soft Mat, Newly Born, Mat Size: 1X4m",https://www.indiamart.com/proddetail/printed-baby-soft-mat-2850165606555.html?pos=169&kwd=baby soft mat&tags=BA||||8331.224|Price|product|||NA|rsf:gd-|-stype:attr=1|qr_nm:gd|res:RC4|com-cf:nl|ptrs:na|ktp:N0|mc:84283|mtp:S|qry_typ:P|lang:en|wc:3|cs:8842|v=4,Minakshi Garments,https://www.indiamart.com/minakshi-garments-kolhapur/?pos=169&kwd=baby soft mat&tags=BA||||8331.224|Price|product|||NA|rsf:gd-|-stype:attr=1|qr_nm:gd|res:RC4|com-cf:nl|ptrs:na|ktp:N0|mc:84283|mtp:S|qry_typ:P|lang:en|wc:3|cs:8842|v=4,False,Tarabai Park,Kolhapur,"Gala No 14 B Parvati Plaza, Main Market Road Swastik Market, Gandhinagar, Tarabai Park, Kolhapur - 416119, Dist.Kolhapur, Maharashtra",7942670858,
"Printed Blue (base) Rubber Baby Soft Mat, Mat Size: 15x7inch(Lenght)",https://www.indiamart.com/proddetail/rubber-baby-soft-mat-24819368855.html?pos=170&kwd=baby soft mat&tags=BB||||8752.144|Price|product|||NA|rsf:gd-|-stype:attr=1|qr_nm:gd|res:RC4|com-cf:nl|ptrs:na|ktp:N0|mc:84283|mtp:S|qry_typ:P|lang:en|wc:3|cs:8842|v=4,Surgical Enterprises,https://www.indiamart.com/surgical-enterprises/?pos=170&kwd=baby soft mat&tags=BB||||8752.144|Price|product|||NA|rsf:gd-|-stype:attr=1|qr_nm:gd|res:RC4|com-cf:nl|ptrs:na|ktp:N0|mc:84283|mtp:S|qry_typ:P|lang:en|wc:3|cs:8842|v=4,False,,New Delhi,"A-34, Ground Floor, Naraina Industrial Area, Phase-II, South West Delhi, New Delhi - 110028, Dist.Delhi, Delhi",8047300337,
"Printed Cotton Newborn Baby Plastic Soft Mats, Age Group: 3-12 Months, Packaging Size: Box Packing",https://www.indiamart.com/proddetail/newborn-baby-plastic-soft-mats-21419870012.html?pos=171&kwd=baby soft mat&tags=BA||||8228.275|Price|product|||NA|rsf:gd-|-stype:attr=1|qr_nm:gd|res:RC4|com-cf:nl|ptrs:na|ktp:N0|mc:84283|mtp:S|qry_typ:P|lang:en|wc:3|cs:8842|v=4,Sanjay Traders,https://www.indiamart.com/sanjaytradersahmedabad/?pos=171&kwd=baby soft mat&tags=BA||||8228.275|Price|product|||NA|rsf:gd-|-stype:attr=1|qr_nm:gd|res:RC4|com-cf:nl|ptrs:na|ktp:N0|mc:84283|mtp:S|qry_typ:P|lang:en|wc:3|cs:8842|v=4,False,,Ahmedabad,"1,PARAS NAGAR PART-II, NR JETHABHAI NI VAVA,ISANPUR Opp. Jyoti Vidhyalay Parasnagar 2,382445,Ahmedabad, Ahmedabad - 382443, Dist.Ahmedabad, Gujarat",8046045819,
"Soft Cartoon Print Baby Mat, Mat Size: 4*6",https://www.indiamart.com/proddetail/baby-mat-2851262687748.html?pos=172&kwd=baby soft mat&tags=BA||||8559.269|Price|product|||NA|rsf:gd-|-stype:attr=1|qr_nm:gd|res:RC4|com-cf:nl|ptrs:na|ktp:N0|mc:84283|mtp:S|qry_typ:P|lang:en|wc:3|cs:8842|v=4,Kiara Kreations,https://www.indiamart.com/kiara-kreations-indore/?pos=172&kwd=baby soft mat&tags=BA||||8559.269|Price|product|||NA|rsf:gd-|-stype:attr=1|qr_nm:gd|res:RC4|com-cf:nl|ptrs:na|ktp:N0|mc:84283|mtp:S|qry_typ:P|lang:en|wc:3|cs:8842|v=4,False,,Indore,"59-2,,new deaws road, malwamill,Indore 59/2, New Dewas Road, Malwa Mill,452003,, Indore - 452003, Dist.Indore, Madhya Pradesh",8069196783,185
Plastic Baby Mat,https://www.indiamart.com/proddetail/baby-mat-23755449855.html?pos=173&kwd=baby soft mat&tags=BB||||9829.308|Price|product|||NA|rsf:gd-|-stype:attr=1|qr_nm:gd|res:RC4|com-cf:nl|ptrs:na|ktp:N0|mc:84283|mtp:S|qry_typ:P|lang:en|wc:3|cs:8842|v=4,Sigma Surgical Co.,https://www.indiamart.com/sigma-surgical-co/?pos=173&kwd=baby soft mat&tags=BB||||9829.308|Price|product|||NA|rsf:gd-|-stype:attr=1|qr_nm:gd|res:RC4|com-cf:nl|ptrs:na|ktp:N0|mc:84283|mtp:S|qry_typ:P|lang:en|wc:3|cs:8842|v=4,False,,Howrah,"31 Rabindar sarani near star guest house kolkata - 700073, Howrah - 711107, Dist.Howrah, West Bengal",7942533719,
Baby Mat,https://www.indiamart.com/proddetail/baby-mat-2852128454212.html?pos=174&kwd=baby soft mat&tags=BB||||8211.142||product|||NA|rsf:gd-|-stype:attr=1|qr_nm:gd|res:RC4|com-cf:nl|ptrs:na|ktp:N0|mc:84283|mtp:S|qry_typ:P|lang:en|wc:3|cs:8842|v=4,Entremonde Polycoaters Limited,https://www.indiamart.com/entremonde-polyecoatemumbai/?pos=174&kwd=baby soft mat&tags=BB||||8211.142||product|||NA|rsf:gd-|-stype:attr=1|qr_nm:gd|res:RC4|com-cf:nl|ptrs:na|ktp:N0|mc:84283|mtp:S|qry_typ:P|lang:en|wc:3|cs:8842|v=4,False,,Mumbai,"C-17, Dalia Industrial. Area, Off Link Road, Andheri West, Mumbai - 400053, Dist.Mumbai, Maharashtra",8043810901,
"Sea Green Bigmother Printed New Born Baby Cotton Mat, 0-6 Months, Mat Size: 20 X 10 cm",https://www.indiamart.com/proddetail/bigmother-printed-new-born-baby-cotton-mat-2852577210673.html?pos=175&kwd=baby soft mat&tags=BA||||8230.883|Price|product|||NA|rsf:gd-|-stype:attr=1|qr_nm:gd|res:RC4|com-cf:nl|ptrs:na|ktp:N0|mc:84283|mtp:S|qry_typ:P|lang:en|wc:3|cs:8842|v=4,Satani Enterprise,https://www.indiamart.com/satani-enterprise-surat/?pos=175&kwd=baby soft mat&tags=BA||||8230.883|Price|product|||NA|rsf:gd-|-stype:attr=1|qr_nm:gd|res:RC4|com-cf:nl|ptrs:na|ktp:N0|mc:84283|mtp:S|qry_typ:P|lang:en|wc:3|cs:8842|v=4,False,Katargam,Surat,"Ground Floor, G-4, Indra Puri Apartment, Bhaichand Nagar Society, Near Parash Police Chowky, Katargam, Katargam, Surat - 395004, Dist.Surat, Gujarat",7942711793,
Kids Printed Cotton Baby Soft Mat,https://www.indiamart.com/proddetail/kids-printed-cotton-baby-soft-mat-2853436938662.html?pos=176&kwd=baby soft mat&tags=BA||||8740.707|Price|product|||NA|rsf:gd-|-stype:attr=1|qr_nm:gd|res:RC4|com-cf:nl|ptrs:na|ktp:N0|mc:84283|mtp:S|qry_typ:P|lang:en|wc:3|cs:8842|v=4,Shoppers Delight,https://www.indiamart.com/shoppersdelight/?pos=176&kwd=baby soft mat&tags=BA||||8740.707|Price|product|||NA|rsf:gd-|-stype:attr=1|qr_nm:gd|res:RC4|com-cf:nl|ptrs:na|ktp:N0|mc:84283|mtp:S|qry_typ:P|lang:en|wc:3|cs:8842|v=4,False,,Mohali,"Ground And Basement, Booth No 14, Shoppers Delight, Clockton Market Omaxe Phase 1 Unique Brew, Sector 13, New Chandigarh, Sas Nagar, Mohali - 140901, Dist.Mohali, Punjab",8043877997,
"Cotton Waterproof Baby Mat, Newly Born",https://www.indiamart.com/proddetail/waterproof-baby-mat-2854318959862.html?pos=177&kwd=baby soft mat&tags=BB||||8785.791|Price|product|||NA|rsf:gd-|-stype:attr=1|qr_nm:gd|res:RC4|com-cf:nl|ptrs:na|ktp:N0|mc:84283|mtp:S|qry_typ:P|lang:en|wc:3|cs:8842|v=4,Om Enterprises,https://www.indiamart.com/omenterprises-63726406/?pos=177&kwd=baby soft mat&tags=BB||||8785.791|Price|product|||NA|rsf:gd-|-stype:attr=1|qr_nm:gd|res:RC4|com-cf:nl|ptrs:na|ktp:N0|mc:84283|mtp:S|qry_typ:P|lang:en|wc:3|cs:8842|v=4,False,Ghaziabad,Ghaziabad,"Garni, Meerut Road, Ghaziabad, Meerut Road, Ghaziabad, Ghaziabad - 201001, Dist.Ghaziabad, Uttar Pradesh",8048370722,5617
"Plastic Baby Mat Floor Mat 64 FT, 1-2 Years",https://www.indiamart.com/proddetail/baby-mat-floor-mat-64-ft-2854920121530.html?pos=178&kwd=baby soft mat&tags=BB||||8230.883|Price|product|||NA|rsf:gd-|-stype:attr=1|qr_nm:gd|res:RC4|com-cf:nl|ptrs:na|ktp:N0|mc:84283|mtp:S|qry_typ:P|lang:en|wc:3|cs:8842|v=4,Ucrow Textile,https://www.indiamart.com/ucrow-textile/?pos=178&kwd=baby soft mat&tags=BB||||8230.883|Price|product|||NA|rsf:gd-|-stype:attr=1|qr_nm:gd|res:RC4|com-cf:nl|ptrs:na|ktp:N0|mc:84283|mtp:S|qry_typ:P|lang:en|wc:3|cs:8842|v=4,False,,Surat,"Ground Floor, Plot No.4305/3, 4 No Road, Sachin Gidc, Surat - 394230, Dist.Surat, Gujarat",8048249738,7535
Baby Mat Floor Mat 64 FT,https://www.indiamart.com/proddetail/baby-mat-floor-mat-64-ft-2854955356697.html?pos=179&kwd=baby soft mat&tags=BB||||8230.883|Price|product|||NA|rsf:gd-|-stype:attr=1|qr_nm:gd|res:RC4|com-cf:nl|ptrs:na|ktp:N0|mc:84283|mtp:S|qry_typ:P|lang:en|wc:3|cs:8842|v=4,The Grand Supreme,https://www.indiamart.com/the-grand-supreme/?pos=179&kwd=baby soft mat&tags=BB||||8230.883|Price|product|||NA|rsf:gd-|-stype:attr=1|qr_nm:gd|res:RC4|com-cf:nl|ptrs:na|ktp:N0|mc:84283|mtp:S|qry_typ:P|lang:en|wc:3|cs:8842|v=4,False,,Surat,"Third Floor,C-5,308,Gadhpur Township,Kathodara Road,Surat,Surat, Surat - 394326, Dist.Surat, Gujarat",8048247087,3720
"Printed Multicolor New born baby Mat, Mat Size: 0-1 Year",https://www.indiamart.com/proddetail/new-born-baby-mat-26738461562.html?pos=180&kwd=baby soft mat&tags=BB||||8230.883|Price|product|||NA|rsf:gd-|-stype:attr=1|qr_nm:gd|res:RC4|com-cf:nl|ptrs:na|ktp:N0|mc:84283|mtp:S|qry_typ:P|lang:en|wc:3|cs:8842|v=4,Savan Enterprise,https://www.indiamart.com/savanenterprise-111288849/?pos=180&kwd=baby soft mat&tags=BB||||8230.883|Price|product|||NA|rsf:gd-|-stype:attr=1|qr_nm:gd|res:RC4|com-cf:nl|ptrs:na|ktp:N0|mc:84283|mtp:S|qry_typ:P|lang:en|wc:3|cs:8842|v=4,False,Katargam,Surat,"Ground Floor Flate No.g-4 Bhaichandnagar Society Indrapuri Appartment Katargam, Katargam, Surat - 395004, Dist.Surat, Gujarat",8048249734,3471
"Cotton Printed cartoon Print Baby Mat, Mat Size: 34inch",https://www.indiamart.com/proddetail/cartoon-print-baby-mat-25111301062.html?pos=181&kwd=baby soft mat&tags=BB||||8038.093|Price|product|||NA|rsf:gd-|-stype:attr=1|qr_nm:gd|res:RC4|com-cf:nl|ptrs:na|ktp:N0|mc:84283|mtp:S|qry_typ:P|lang:en|wc:3|cs:8842|v=4,Fabric Master,https://www.indiamart.com/fabric-master-rajkot/?pos=181&kwd=baby soft mat&tags=BB||||8038.093|Price|product|||NA|rsf:gd-|-stype:attr=1|qr_nm:gd|res:RC4|com-cf:nl|ptrs:na|ktp:N0|mc:84283|mtp:S|qry_typ:P|lang:en|wc:3|cs:8842|v=4,False,,Rajkot,"Ankur Nana Mava Road, 117 Radha Nagar, Rajkot - 360004, Dist.Rajkot, Gujarat",8047301139,
"Off White Cotton Plain Baby Mat, 1-2 Years, Mat Size: 5x4 Feet(lxw)",https://www.indiamart.com/proddetail/cotton-plain-baby-mat-2851741373188.html?pos=182&kwd=baby soft mat&tags=BA||||8228.275|Price|product|||NA|rsf:gd-|-stype:attr=1|qr_nm:gd|res:RC4|com-cf:nl|ptrs:na|ktp:N0|mc:84283|mtp:S|qry_typ:P|lang:en|wc:3|cs:8842|v=4,M Marketing,https://www.indiamart.com/mmarketing/?pos=182&kwd=baby soft mat&tags=BA||||8228.275|Price|product|||NA|rsf:gd-|-stype:attr=1|qr_nm:gd|res:RC4|com-cf:nl|ptrs:na|ktp:N0|mc:84283|mtp:S|qry_typ:P|lang:en|wc:3|cs:8842|v=4,False,,Ahmedabad,"TF/301, Karnavati Archade, Near Gheekanta, Ahmedabad - 380001, Dist.Ahmedabad, Gujarat",7942868797,
Baby Mat Floor Mat 64 FT,https://www.indiamart.com/proddetail/baby-mat-floor-mat-64-ft-2854955356697.html?pos=183&kwd=baby soft mat&tags=BB||||8230.883|Price|product|||NA|rsf:gd-|-stype:attr=1|qr_nm:gd|res:RC4|com-cf:nl|ptrs:na|ktp:N0|mc:84283|mtp:S|qry_typ:P|lang:en|wc:3|cs:8842|v=4,The Grand Supreme,https://www.indiamart.com/the-grand-supreme/?pos=183&kwd=baby soft mat&tags=BB||||8230.883|Price|product|||NA|rsf:gd-|-stype:attr=1|qr_nm:gd|res:RC4|com-cf:nl|ptrs:na|ktp:N0|mc:84283|mtp:S|qry_typ:P|lang:en|wc:3|cs:8842|v=4,False,,Surat,"Third Floor,C-5,308,Gadhpur Township,Kathodara Road,Surat,Surat, Surat - 394326, Dist.Surat, Gujarat",8048247087,3720
"Printed Multicolor New born baby Mat, Mat Size: 0-1 Year",https://www.indiamart.com/proddetail/new-born-baby-mat-26738461562.html?pos=184&kwd=baby soft mat&tags=BB||||8230.883|Price|product|||NA|rsf:gd-|-stype:attr=1|qr_nm:gd|res:RC4|com-cf:nl|ptrs:na|ktp:N0|mc:84283|mtp:S|qry_typ:P|lang:en|wc:3|cs:8842|v=4,Savan Enterprise,https://www.indiamart.com/savanenterprise-111288849/?pos=184&kwd=baby soft mat&tags=BB||||8230.883|Price|product|||NA|rsf:gd-|-stype:attr=1|qr_nm:gd|res:RC4|com-cf:nl|ptrs:na|ktp:N0|mc:84283|mtp:S|qry_typ:P|lang:en|wc:3|cs:8842|v=4,False,Katargam,Surat,"Ground Floor Flate No.g-4 Bhaichandnagar Society Indrapuri Appartment Katargam, Katargam, Surat - 395004, Dist.Surat, Gujarat",8048249734,3471
"Plastic Baby Crawling Mat 4''x3'', Mat Size: 4*3",https://www.indiamart.com/proddetail/baby-crawling-mat-4-x3-20751068633.html?pos=185&kwd=baby soft mat&tags=BB||||8316.713|Price|product|||NA|rsf:gd-|-stype:attr=1|qr_nm:gd|res:RC4|com-cf:nl|ptrs:na|ktp:N0|mc:84283|mtp:S|qry_typ:P|lang:en|wc:3|cs:8842|v=4,Eco Hometown,https://www.indiamart.com/ecohometown/?pos=185&kwd=baby soft mat&tags=BB||||8316.713|Price|product|||NA|rsf:gd-|-stype:attr=1|qr_nm:gd|res:RC4|com-cf:nl|ptrs:na|ktp:N0|mc:84283|mtp:S|qry_typ:P|lang:en|wc:3|cs:8842|v=4,False,Bodake Nagar,Junnar,"Sindhu, Shiv Krupa Colony, Junnar, Taluka Junnar, Bodake Nagar, Junnar - 410502, Dist.Pune, Maharashtra",8046035682,
"Cotton Printed cartoon Print Baby Mat, Mat Size: 34inch",https://www.indiamart.com/proddetail/cartoon-print-baby-mat-25111301062.html?pos=186&kwd=baby soft mat&tags=BB||||8038.093|Price|product|||NA|rsf:gd-|-stype:attr=1|qr_nm:gd|res:RC4|com-cf:nl|ptrs:na|ktp:N0|mc:84283|mtp:S|qry_typ:P|lang:en|wc:3|cs:8842|v=4,Fabric Master,https://www.indiamart.com/fabric-master-rajkot/?pos=186&kwd=baby soft mat&tags=BB||||8038.093|Price|product|||NA|rsf:gd-|-stype:attr=1|qr_nm:gd|res:RC4|com-cf:nl|ptrs:na|ktp:N0|mc:84283|mtp:S|qry_typ:P|lang:en|wc:3|cs:8842|v=4,False,,Rajkot,"Ankur Nana Mava Road, 117 Radha Nagar, Rajkot - 360004, Dist.Rajkot, Gujarat",8047301139,
"Off White Cotton Plain Baby Mat, 1-2 Years, Mat Size: 5x4 Feet(lxw)",https://www.indiamart.com/proddetail/cotton-plain-baby-mat-2851741373188.html?pos=187&kwd=baby soft mat&tags=BA||||8228.275|Price|product|||NA|rsf:gd-|-stype:attr=1|qr_nm:gd|res:RC4|com-cf:nl|ptrs:na|ktp:N0|mc:84283|mtp:S|qry_typ:P|lang:en|wc:3|cs:8842|v=4,M Marketing,https://www.indiamart.com/mmarketing/?pos=187&kwd=baby soft mat&tags=BA||||8228.275|Price|product|||NA|rsf:gd-|-stype:attr=1|qr_nm:gd|res:RC4|com-cf:nl|ptrs:na|ktp:N0|mc:84283|mtp:S|qry_typ:P|lang:en|wc:3|cs:8842|v=4,False,,Ahmedabad,"TF/301, Karnavati Archade, Near Gheekanta, Ahmedabad - 380001, Dist.Ahmedabad, Gujarat",7942868797,
"Pure Cottan New Baby Urine Mat Waterproof, 3-12 Months, Mat Size: 69 X 50 X 8 Cms",https://www.indiamart.com/proddetail/baby-urine-mat-waterproof-2850463485297.html?pos=188&kwd=baby soft mat&tags=BA||||8230.883|Price|product|||NA|rsf:gd-|-stype:attr=1|qr_nm:gd|res:RC4|com-cf:nl|ptrs:na|ktp:N0|mc:84283|mtp:S|qry_typ:P|lang:en|wc:3|cs:8842|v=4,Supreme International,https://www.indiamart.com/supreme-inter-national/?pos=188&kwd=baby soft mat&tags=BA||||8230.883|Price|product|||NA|rsf:gd-|-stype:attr=1|qr_nm:gd|res:RC4|com-cf:nl|ptrs:na|ktp:N0|mc:84283|mtp:S|qry_typ:P|lang:en|wc:3|cs:8842|v=4,False,,Surat,"Shop No-102, Silver Business Hub, Simada BRTS Road, Surat - 395010, Dist.Surat, Gujarat",7942819056,
"Cotton And Velvet Printed Baby Soft Mattress, Mat Size: 18x24 Inch",https://www.indiamart.com/proddetail/printed-baby-soft-mattress-24201667333.html?pos=189&kwd=baby soft mat&tags=BB||||8876.815|Price|product|||NA|rsf:gd-|-stype:attr=1|qr_nm:gd|res:RC4|com-cf:nl|ptrs:na|ktp:N0|mc:84283|mtp:S|qry_typ:P|lang:en|wc:3|cs:8842|v=4,Shikha Infant Wear,https://www.indiamart.com/shikha-infant-wear/?pos=189&kwd=baby soft mat&tags=BB||||8876.815|Price|product|||NA|rsf:gd-|-stype:attr=1|qr_nm:gd|res:RC4|com-cf:nl|ptrs:na|ktp:N0|mc:84283|mtp:S|qry_typ:P|lang:en|wc:3|cs:8842|v=4,False,,Nagpur,"Shop No. A1, Jeevan Kanaiya Complex, Pavarpura, Nagpur - 440002, Dist.Nagpur, Maharashtra",8045907248,
"Inflatable Tummy Time Leak Proof, Fun Activity Indoor And Outdoor Water Play Mat For Baby",https://www.indiamart.com/proddetail/inflatable-tummy-time-leak-proof-fun-activity-indoor-and-outdoor-water-play-mat-for-baby-25110165591.html?pos=190&kwd=baby soft mat&tags=BA||||8230.883||product|||NA|rsf:gd-|-stype:attr=1|qr_nm:gd|res:RC4|com-cf:nl|ptrs:na|ktp:N0|mc:84283|mtp:S|qry_typ:P|lang:en|wc:3|cs:8842|v=4,Nilkanth Sales,https://www.indiamart.com/nilkanthsales-9114977/?pos=190&kwd=baby soft mat&tags=BA||||8230.883||product|||NA|rsf:gd-|-stype:attr=1|qr_nm:gd|res:RC4|com-cf:nl|ptrs:na|ktp:N0|mc:84283|mtp:S|qry_typ:P|lang:en|wc:3|cs:8842|v=4,False,Dabholi Road,Surat,"11, Madhav Kunj Society, Dabholi Road, Surat - 395004, Dist.Surat, Gujarat",8047663430,
"Polythene Green (base) Printed Baby Soft Mat, Newly Born, Mat Size: 1X4m",https://www.indiamart.com/proddetail/printed-baby-soft-mat-2850165606555.html?pos=191&kwd=baby soft mat&tags=BA||||8331.224|Price|product|||NA|rsf:gd-|-stype:attr=1|qr_nm:gd|res:RC4|com-cf:nl|ptrs:na|ktp:N0|mc:84283|mtp:S|qry_typ:P|lang:en|wc:3|cs:8842|v=4,Minakshi Garments,https://www.indiamart.com/minakshi-garments-kolhapur/?pos=191&kwd=baby soft mat&tags=BA||||8331.224|Price|product|||NA|rsf:gd-|-stype:attr=1|qr_nm:gd|res:RC4|com-cf:nl|ptrs:na|ktp:N0|mc:84283|mtp:S|qry_typ:P|lang:en|wc:3|cs:8842|v=4,False,Tarabai Park,Kolhapur,"Gala No 14 B Parvati Plaza, Main Market Road Swastik Market, Gandhinagar, Tarabai Park, Kolhapur - 416119, Dist.Kolhapur, Maharashtra",7942670858,
Green Large Plastic Cotton Printed Mats,https://www.indiamart.com/proddetail/large-plastic-cotton-printed-mats-24487298033.html?pos=192&kwd=baby soft mat&tags=BB||||8223.226|Price|product|||NA|rsf:gd-|-stype:attr=1|qr_nm:gd|res:RC4|com-cf:nl|ptrs:na|ktp:N0|mc:84283|mtp:S|qry_typ:P|lang:en|wc:3|cs:8842|v=4,Babys Choice,https://www.indiamart.com/babys-choice-mumbai/?pos=192&kwd=baby soft mat&tags=BB||||8223.226|Price|product|||NA|rsf:gd-|-stype:attr=1|qr_nm:gd|res:RC4|com-cf:nl|ptrs:na|ktp:N0|mc:84283|mtp:S|qry_typ:P|lang:en|wc:3|cs:8842|v=4,False,Mumbai Suburan,Thane,"7,Sonal Darshan, Gaushala Road Mulund, Mumbai Suburan, Thane - 400080, Dist.Thane, Maharashtra",7942538240,
"Multicolor Baby Play Met, Size/Dimension: 4*6",https://www.indiamart.com/proddetail/baby-play-met-24339603312.html?pos=193&kwd=baby soft mat&tags=BB||||8747.203|Price|product|||NA|rsf:gd-|-stype:attr=1|qr_nm:gd|res:RC4|com-cf:nl|ptrs:na|ktp:N0|mc:84283|mtp:S|qry_typ:P|lang:en|wc:3|cs:8842|v=4,Vansh Home Decor,https://www.indiamart.com/vansh-home-decor-panipat/?pos=193&kwd=baby soft mat&tags=BB||||8747.203|Price|product|||NA|rsf:gd-|-stype:attr=1|qr_nm:gd|res:RC4|com-cf:nl|ptrs:na|ktp:N0|mc:84283|mtp:S|qry_typ:P|lang:en|wc:3|cs:8842|v=4,False,Near New Sabzi Mandi,Panipat,"Rani Mahal, Valmiki Chowk, House No. 264,ward No. 10, Near New Sabzi Mandi, Panipat - 132103, Dist.Panipat, Haryana",8062245068,781
"White Ramsons baby mats, Mat Size: 60x60",https://www.indiamart.com/proddetail/ramsons-baby-mats-25515157548.html?pos=194&kwd=baby soft mat&tags=BB||||8663.873|Price|product|||NA|rsf:gd-|-stype:attr=1|qr_nm:gd|res:RC4|com-cf:nl|ptrs:na|ktp:N0|mc:84283|mtp:S|qry_typ:P|lang:en|wc:3|cs:8842|v=4,Srivari Enterprises,https://www.indiamart.com/srivarienterpriseskarnataka/?pos=194&kwd=baby soft mat&tags=BB||||8663.873|Price|product|||NA|rsf:gd-|-stype:attr=1|qr_nm:gd|res:RC4|com-cf:nl|ptrs:na|ktp:N0|mc:84283|mtp:S|qry_typ:P|lang:en|wc:3|cs:8842|v=4,False,,Bengaluru,"No-51, Shop No-1, Ground Floor, Telecom Colony, HBCS Layout, New Timber Yard Layout,, Bengaluru - 560026, Dist.Bengaluru, Karnataka",8048273900,
"Foam Fabric Printed Kids Crawling Mat, Mat Size: 6*5 Inch",https://www.indiamart.com/proddetail/kids-crawling-mat-23504430762.html?pos=195&kwd=baby soft mat&tags=BB||||9848.189|Price|product|||NA|rsf:gd-|-stype:attr=1|qr_nm:gd|res:RC4|com-cf:nl|ptrs:na|ktp:N0|mc:84283|mtp:S|qry_typ:P|lang:en|wc:3|cs:8842|v=4,Shivam Traders,https://www.indiamart.com/shivam-traders-westbengal/?pos=195&kwd=baby soft mat&tags=BB||||9848.189|Price|product|||NA|rsf:gd-|-stype:attr=1|qr_nm:gd|res:RC4|com-cf:nl|ptrs:na|ktp:N0|mc:84283|mtp:S|qry_typ:P|lang:en|wc:3|cs:8842|v=4,False,Hakim Para,Siliguri,"H/8/273/231, Shivam Traders, Bidhan Road, Hakim Para, Siliguri - 734005, Dist.Darjiling, West Bengal",8046068201,
Baby Slapped Pad Leakproof,https://www.indiamart.com/proddetail/baby-slapped-pad-leakproof-24618365248.html?pos=196&kwd=baby soft mat&tags=BA||||8230.883|Price|product|||NA|rsf:gd-|-stype:attr=1|qr_nm:gd|res:RC4|com-cf:nl|ptrs:na|ktp:N0|mc:84283|mtp:S|qry_typ:P|lang:en|wc:3|cs:8842|v=4,Radhe Enterprise,https://www.indiamart.com/radheenterprisesurat-gujarat/?pos=196&kwd=baby soft mat&tags=BA||||8230.883|Price|product|||NA|rsf:gd-|-stype:attr=1|qr_nm:gd|res:RC4|com-cf:nl|ptrs:na|ktp:N0|mc:84283|mtp:S|qry_typ:P|lang:en|wc:3|cs:8842|v=4,False,Singanpor,Surat,"SHADE NO - 5, Opp suryam residency, Singanpore Katargam, Singanpor, Surat - 395004, Dist.Surat, Gujarat",8048608137,
"Pink Duckback Mother's Lap Pure Rubber sheet, Mat Size: 1 Meter, Nursery Print",https://www.indiamart.com/proddetail/duckback-mother-s-lap-pure-rubber-sheet-27050606612.html?pos=197&kwd=baby soft mat&tags=BA||||8211.142|Price|product|||NA|rsf:gd-|-stype:attr=1|qr_nm:gd|res:RC4|com-cf:nl|ptrs:na|ktp:N0|mc:84283|mtp:S|qry_typ:P|lang:en|wc:3|cs:8842|v=4,Shreeji Enterprise,https://www.indiamart.com/shreejienterprise-maharashtra/?pos=197&kwd=baby soft mat&tags=BA||||8211.142|Price|product|||NA|rsf:gd-|-stype:attr=1|qr_nm:gd|res:RC4|com-cf:nl|ptrs:na|ktp:N0|mc:84283|mtp:S|qry_typ:P|lang:en|wc:3|cs:8842|v=4,False,,Mumbai,"Flat No. C-402, 4th Floor, Shanti Vihar, S.V.Road, Near Balbharti School, Kandivali West, Mumbai - 400067, Dist.Mumbai, Maharashtra",8048986963,
"Baby mat, Packaging Type: Plastic Bottle, 1-2 Years",https://www.indiamart.com/proddetail/baby-mat-2850110722955.html?pos=198&kwd=baby soft mat&tags=BB||||8230.883|Price|product|||NA|rsf:gd-|-stype:attr=1|qr_nm:gd|res:RC4|com-cf:nl|ptrs:na|ktp:N0|mc:84283|mtp:S|qry_typ:P|lang:en|wc:3|cs:8842|v=4,Him Tax,https://www.indiamart.com/him-tax/?pos=198&kwd=baby soft mat&tags=BB||||8230.883|Price|product|||NA|rsf:gd-|-stype:attr=1|qr_nm:gd|res:RC4|com-cf:nl|ptrs:na|ktp:N0|mc:84283|mtp:S|qry_typ:P|lang:en|wc:3|cs:8842|v=4,False,,Surat,"Plot No.36, Shop No. 3, Jay Yogeshwar Row House, Near Shyamdham Mandir, Sarthana Jakatnaka, Surat - 395006, Dist.Surat, Gujarat",8043894143,
"Printed Brown Cotton Baby Mat, Mat Size: Small",https://www.indiamart.com/proddetail/baby-mat-22502174033.html?pos=199&kwd=baby soft mat&tags=BB||||8211.142|Price|product|||NA|rsf:gd-|-stype:attr=1|qr_nm:gd|res:RC4|com-cf:nl|ptrs:na|ktp:N0|mc:84283|mtp:S|qry_typ:P|lang:en|wc:3|cs:8842|v=4,Kala Darshan Crafts Bazar,https://www.indiamart.com/kala-darshan-crafts-bazar/?pos=199&kwd=baby soft mat&tags=BB||||8211.142|Price|product|||NA|rsf:gd-|-stype:attr=1|qr_nm:gd|res:RC4|com-cf:nl|ptrs:na|ktp:N0|mc:84283|mtp:S|qry_typ:P|lang:en|wc:3|cs:8842|v=4,False,,Mumbai,"Shop No 128/3 Azmi Gate No 7, Malwani Rehman Nagar Malad, Mumbai - 400095, Dist.Mumbai, Maharashtra",7942562938,
"Mittenbooty Blue And White Baby Soft Quilted Cotton Plastic Sleeping Mat, Mat Size: 67x47 Inch (lxw), Newly Born",https://www.indiamart.com/proddetail/baby-soft-quilted-cotton-plastic-sleeping-mat-2849765752297.html?pos=200&kwd=baby soft mat&tags=BB||||8601.347|Price|product|||NA|rsf:gd-|-stype:attr=1|qr_nm:gd|res:RC4|com-cf:nl|ptrs:na|ktp:N0|mc:84283|mtp:S|qry_typ:P|lang:en|wc:3|cs:8842|v=4,Bhagwati Enterprises,https://www.indiamart.com/bhagwati-enterprisesrajasthan/?pos=200&kwd=baby soft mat&tags=BB||||8601.347|Price|product|||NA|rsf:gd-|-stype:attr=1|qr_nm:gd|res:RC4|com-cf:nl|ptrs:na|ktp:N0|mc:84283|mtp:S|qry_typ:P|lang:en|wc:3|cs:8842|v=4,False,,Jaipur,"Ground Floor, ARG Murli Heights, Moti Doongri Road, Jaipur - 302004, Dist.Jaipur, Rajasthan",7942795447,
"Plastic Baby Crawling Mat 4''x3'', Mat Size: 4*3",https://www.indiamart.com/proddetail/baby-crawling-mat-4-x3-20751068633.html?pos=201&kwd=baby soft mat&tags=BB||||8316.713|Price|product|||NA|rsf:gd-|-stype:attr=1|qr_nm:gd|res:RC4|com-cf:nl|ptrs:na|ktp:N0|mc:84283|mtp:S|qry_typ:P|lang:en|wc:3|cs:8842|v=4,Eco Hometown,https://www.indiamart.com/ecohometown/?pos=201&kwd=baby soft mat&tags=BB||||8316.713|Price|product|||NA|rsf:gd-|-stype:attr=1|qr_nm:gd|res:RC4|com-cf:nl|ptrs:na|ktp:N0|mc:84283|mtp:S|qry_typ:P|lang:en|wc:3|cs:8842|v=4,False,Bodake Nagar,Junnar,"Sindhu, Shiv Krupa Colony, Junnar, Taluka Junnar, Bodake Nagar, Junnar - 410502, Dist.Pune, Maharashtra",8046035682,
"Cotton Printed cartoon Print Baby Mat, Mat Size: 34inch",https://www.indiamart.com/proddetail/cartoon-print-baby-mat-25111301062.html?pos=202&kwd=baby soft mat&tags=BB||||8038.093|Price|product|||NA|rsf:gd-|-stype:attr=1|qr_nm:gd|res:RC4|com-cf:nl|ptrs:na|ktp:N0|mc:84283|mtp:S|qry_typ:P|lang:en|wc:3|cs:8842|v=4,Fabric Master,https://www.indiamart.com/fabric-master-rajkot/?pos=202&kwd=baby soft mat&tags=BB||||8038.093|Price|product|||NA|rsf:gd-|-stype:attr=1|qr_nm:gd|res:RC4|com-cf:nl|ptrs:na|ktp:N0|mc:84283|mtp:S|qry_typ:P|lang:en|wc:3|cs:8842|v=4,False,,Rajkot,"Ankur Nana Mava Road, 117 Radha Nagar, Rajkot - 360004, Dist.Rajkot, Gujarat",8047301139,
Baby Slapped Pad Leakproof,https://www.indiamart.com/proddetail/baby-slapped-pad-leakproof-24618365248.html?pos=203&kwd=baby soft mat&tags=BA||||8230.883|Price|product|||NA|rsf:gd-|-stype:attr=1|qr_nm:gd|res:RC4|com-cf:nl|ptrs:na|ktp:N0|mc:84283|mtp:S|qry_typ:P|lang:en|wc:3|cs:8842|v=4,Radhe Enterprise,https://www.indiamart.com/radheenterprisesurat-gujarat/?pos=203&kwd=baby soft mat&tags=BA||||8230.883|Price|product|||NA|rsf:gd-|-stype:attr=1|qr_nm:gd|res:RC4|com-cf:nl|ptrs:na|ktp:N0|mc:84283|mtp:S|qry_typ:P|lang:en|wc:3|cs:8842|v=4,False,Singanpor,Surat,"SHADE NO - 5, Opp suryam residency, Singanpore Katargam, Singanpor, Surat - 395004, Dist.Surat, Gujarat",8048608137,
Foam Baby Soft Mat,https://www.indiamart.com/proddetail/baby-soft-mat-2854561806597.html?pos=204&kwd=baby soft mat&tags=BA||||9363.783|Price|product|||NA|rsf:gd-|-stype:attr=1|qr_nm:gd|res:RC4|com-cf:nl|ptrs:na|ktp:N0|mc:84283|mtp:S|qry_typ:P|lang:en|wc:3|cs:8842|v=4,Hayat Traders,https://www.indiamart.com/company/204549572/?pos=204&kwd=baby soft mat&tags=BA||||9363.783|Price|product|||NA|rsf:gd-|-stype:attr=1|qr_nm:gd|res:RC4|com-cf:nl|ptrs:na|ktp:N0|mc:84283|mtp:S|qry_typ:P|lang:en|wc:3|cs:8842|v=4,False,,Mau,", Mau, Uttar Pradesh",8048370732,4311
Sponge Multicolor Extra Large Reversible Baby Play Mat,https://www.indiamart.com/proddetail/extra-large-reversible-baby-play-mat-2854480934930.html?pos=205&kwd=baby soft mat&tags=BB||||9704.348|Price|product|||NA|rsf:gd-|-stype:attr=1|qr_nm:gd|res:RC4|com-cf:nl|ptrs:na|ktp:N0|mc:84283|mtp:S|qry_typ:P|lang:en|wc:3|cs:8842|v=4,K.J. Creation,https://www.indiamart.com/company/225984559/?pos=205&kwd=baby soft mat&tags=BB||||9704.348|Price|product|||NA|rsf:gd-|-stype:attr=1|qr_nm:gd|res:RC4|com-cf:nl|ptrs:na|ktp:N0|mc:84283|mtp:S|qry_typ:P|lang:en|wc:3|cs:8842|v=4,False,Bhagalpur,Bhagalpur,"BS.022.0234 MIRJANHAT, Bhagalpur, Bhagalpur - 812005, Dist.Bhagalpur, Bihar",8048370728,4723
Baby Kids Water Play Mat Toys Inflatable Tummy Time Leakproof Water Play Mat,https://www.indiamart.com/proddetail/baby-kids-water-play-mat-toys-inflatable-tummy-time-leakproof-water-play-mat-24784530362.html?pos=206&kwd=baby soft mat&tags=BB||||8237.554|Price|product|||NA|rsf:gd-|-stype:attr=1|qr_nm:gd|res:RC4|com-cf:nl|ptrs:na|ktp:N0|mc:84283|mtp:S|qry_typ:P|lang:en|wc:3|cs:8842|v=4,Black Leaf Enterprise,https://www.indiamart.com/blackleafenterprise/?pos=206&kwd=baby soft mat&tags=BB||||8237.554|Price|product|||NA|rsf:gd-|-stype:attr=1|qr_nm:gd|res:RC4|com-cf:nl|ptrs:na|ktp:N0|mc:84283|mtp:S|qry_typ:P|lang:en|wc:3|cs:8842|v=4,False,,Gandhinagar,"616 Shivalik Satyamev Ambli Bopal Juction, Gandhinagar - 382721, Gujarat",8046063660,
Sponge Multicolor Extra Large Reversible Baby Play Mat/ Kids Playing Mat,https://www.indiamart.com/proddetail/extra-large-reversible-baby-play-mat-kids-playing-mat-2855003023155.html?pos=207&kwd=baby soft mat&tags=BB||||8752.144|Price|product|||NA|rsf:gd-|-stype:attr=1|qr_nm:gd|res:RC4|com-cf:nl|ptrs:na|ktp:N0|mc:84283|mtp:S|qry_typ:P|lang:en|wc:3|cs:8842|v=4,MK Enterprises,https://www.indiamart.com/mkenterprises-232227365/?pos=207&kwd=baby soft mat&tags=BB||||8752.144|Price|product|||NA|rsf:gd-|-stype:attr=1|qr_nm:gd|res:RC4|com-cf:nl|ptrs:na|ktp:N0|mc:84283|mtp:S|qry_typ:P|lang:en|wc:3|cs:8842|v=4,False,,New Delhi,"H.No-408, Block-E-1, Gali No-8, Nehru Vihar, New Delhi - 110094, Dist.Delhi, Delhi",8048247089,6551
Soft Pure cotton baby sleeping mat,https://www.indiamart.com/proddetail/soft-pure-cotton-baby-sleeping-mat-2852486916648.html?pos=208&kwd=baby soft mat&tags=BA||||9363.783|Price|product|||NA|rsf:gd-|-stype:attr=1|qr_nm:gd|res:RC4|com-cf:nl|ptrs:na|ktp:N0|mc:84283|mtp:S|qry_typ:P|lang:en|wc:3|cs:8842|v=4,Chennai Clothing Store,https://www.indiamart.com/chennai-clothing-store/?pos=208&kwd=baby soft mat&tags=BA||||9363.783|Price|product|||NA|rsf:gd-|-stype:attr=1|qr_nm:gd|res:RC4|com-cf:nl|ptrs:na|ktp:N0|mc:84283|mtp:S|qry_typ:P|lang:en|wc:3|cs:8842|v=4,False,Azeemabad,Maunath Bhanjan,"170/8-k - Mau mirzahadipura, Azeemabad, Maunath Bhanjan - 275101, Dist.Mau, Uttar Pradesh",8047308777,2164
Multicolor Baby Crawl Play Mat,https://www.indiamart.com/proddetail/baby-crawl-play-mat-24824576891.html?pos=209&kwd=baby soft mat&tags=BA||||8211.142|Price|product|||NA|rsf:gd-|-stype:attr=1|qr_nm:gd|res:RC4|com-cf:nl|ptrs:na|ktp:N0|mc:84283|mtp:S|qry_typ:P|lang:en|wc:3|cs:8842|v=4,Keval Enterprises,https://www.indiamart.com/keval-enterprises-mumbai/?pos=209&kwd=baby soft mat&tags=BA||||8211.142|Price|product|||NA|rsf:gd-|-stype:attr=1|qr_nm:gd|res:RC4|com-cf:nl|ptrs:na|ktp:N0|mc:84283|mtp:S|qry_typ:P|lang:en|wc:3|cs:8842|v=4,False,Dadar West,Mumbai,"Shop No. 20, Madhani Industrial Estate Senapati Bapat Marg, Dadar West, Mumbai - 400028, Dist.Mumbai, Maharashtra",8048951266,
Double Sided Water Proof Baby Mat,https://www.indiamart.com/proddetail/double-sided-water-proof-baby-mat-2849260514012.html?pos=210&kwd=baby soft mat&tags=BB||||8230.883|Price|product|||NA|rsf:gd-|-stype:attr=1|qr_nm:gd|res:RC4|com-cf:nl|ptrs:na|ktp:N0|mc:84283|mtp:S|qry_typ:P|lang:en|wc:3|cs:8842|v=4,Sixfire,https://www.indiamart.com/sixfire/?pos=210&kwd=baby soft mat&tags=BB||||8230.883|Price|product|||NA|rsf:gd-|-stype:attr=1|qr_nm:gd|res:RC4|com-cf:nl|ptrs:na|ktp:N0|mc:84283|mtp:S|qry_typ:P|lang:en|wc:3|cs:8842|v=4,False,,Surat,"PLOT NO-32, LAXMI NARAYAN SOC, DABHOLI CHAR RASTA, KATARGAM, Surat - 395004, Dist.Surat, Gujarat",8047307463,
