product_title,product_link,company_name,company_link,is_verified_exporter,city_region,city,address_details,phone_number,phone_number_extension
"Baby Wooden Hair Brush, More than 12 months",https://www.indiamart.com/proddetail/baby-wooden-hair-brush-2854575390330.html?pos=1&kwd=baby hair brushes&tags=A||||8752.144|Price|product|||TS|rsf:gd-|-stype:attr=1|qr_nm:gd|res:RC4|com-cf:nl|ptrs:na|ktp:N0|mc:98611|mtp:S|qry_typ:P|lang:en|wc:3|flavl:0|cs:9605|v=4,IM Corporation,https://www.imcorporation.in/?pos=1&kwd=baby hair brushes&tags=A||||8752.144|Price|product|||TS|rsf:gd-|-stype:attr=1|qr_nm:gd|res:RC4|com-cf:nl|ptrs:na|ktp:N0|mc:98611|mtp:S|qry_typ:P|lang:en|wc:3|flavl:0|cs:9605|v=4,False,Okhla Industrial Estate,New Delhi,"DDA Shed Okhla Industrial Area Phase-1 Delhi C-77 Delhi South Delhi Ground Floor, Okhla Industrial Estate, New Delhi - 110020, Dist.Delhi, Delhi",8048263469,
Baby Care Products Kit 10 Pieces,https://www.indiamart.com/proddetail/baby-care-products-kit-10-pieces-2854218775130.html?pos=2&kwd=baby hair brushes&tags=BA||||8230.883|Price|product|||TS|rsf:gd-|-stype:attr=1|qr_nm:gd|res:RC4|com-cf:nl|ptrs:na|ktp:N0|mc:98611|mtp:S|qry_typ:P|lang:en|wc:3|flavl:0|cs:9605|v=4,BABYHOLIC,https://www.babyholic.in/?pos=2&kwd=baby hair brushes&tags=BA||||8230.883|Price|product|||TS|rsf:gd-|-stype:attr=1|qr_nm:gd|res:RC4|com-cf:nl|ptrs:na|ktp:N0|mc:98611|mtp:S|qry_typ:P|lang:en|wc:3|flavl:0|cs:9605|v=4,False,,Surat,"Ground Floor, Plot No. F/56/, And F/57, Laxmi Narayan Industrial Estate, Udhana, Kailash Fashion, Surat - 394210, Dist.Surat, Gujarat",8045732096,
"Pink Plastic Baby Hair Brush, 1-2 Years",https://www.indiamart.com/proddetail/baby-hair-brush-2852390119830.html?pos=3&kwd=baby hair brushes&tags=BA||||8211.142|Price|product|||TS|rsf:gd-|-stype:attr=1|qr_nm:gd|res:RC4|com-cf:nl|ptrs:na|ktp:N0|mc:98611|mtp:S|qry_typ:P|lang:en|wc:3|flavl:0|cs:9605|v=4,Vijay Brush Co.,https://www.vijaybrush.com/?pos=3&kwd=baby hair brushes&tags=BA||||8211.142|Price|product|||TS|rsf:gd-|-stype:attr=1|qr_nm:gd|res:RC4|com-cf:nl|ptrs:na|ktp:N0|mc:98611|mtp:S|qry_typ:P|lang:en|wc:3|flavl:0|cs:9605|v=4,False,Sharma Estate,Mumbai,"23/A/606, Sneh Co-Op Hsg Sty Ltd, Bimbisar Nagar, Goregaon, Mumbai Suburban, Sharma Estate, Mumbai - 400063, Dist.Mumbai, Maharashtra",7942871572,
Baby Hair Brush Comb,https://www.indiamart.com/proddetail/baby-hair-brush-comb-2853943500530.html?pos=4&kwd=baby hair brushes&tags=BA||||8752.144|Price|product|||TS|rsf:gd-|-stype:attr=1|qr_nm:gd|res:RC4|com-cf:nl|ptrs:na|ktp:N0|mc:98611|mtp:S|qry_typ:P|lang:en|wc:3|flavl:0|cs:9605|v=4,The Creators,https://www.indiamart.com/thecreators-newdelhi/?pos=4&kwd=baby hair brushes&tags=BA||||8752.144|Price|product|||TS|rsf:gd-|-stype:attr=1|qr_nm:gd|res:RC4|com-cf:nl|ptrs:na|ktp:N0|mc:98611|mtp:S|qry_typ:P|lang:en|wc:3|flavl:0|cs:9605|v=4,False,Sultanpuri,New Delhi,"275-76, Block P-3, Sultanpuri North West Delhi, Sultanpuri, New Delhi - 110086, Dist.Delhi, Delhi",8047549858,
Detangling Kids Gentle Tangle Wet Dry Bristles Handle Massage Detangling Comb Hair Brush,https://www.indiamart.com/proddetail/detangling-kids-gentle-tangle-wet-dry-bristles-handle-massage-detangling-comb-hair-brush-25945966612.html?pos=5&kwd=baby hair brushes&tags=BA||||8355.778|Price|product|||TS|rsf:gd-|-stype:attr=1|qr_nm:gd|res:RC4|com-cf:nl|ptrs:na|ktp:N0|mc:98611|mtp:S|qry_typ:P|lang:en|wc:3|flavl:0|cs:9605|v=4,Rightbrain Creations Private Limited,https://www.rbcpvtltd.com/?pos=5&kwd=baby hair brushes&tags=BA||||8355.778|Price|product|||TS|rsf:gd-|-stype:attr=1|qr_nm:gd|res:RC4|com-cf:nl|ptrs:na|ktp:N0|mc:98611|mtp:S|qry_typ:P|lang:en|wc:3|flavl:0|cs:9605|v=4,False,Rishabhdev,Rishabhdeo,"Ground Floor, 01, Laxmi Devi W/o Bihari Lal Jain, Pagaliyaji Road, Rishabhdev, Rishabhdeo - 313802, Dist.Udaipur, Rajasthan",8046062538,
Hair Curler Brush & Comb,https://www.indiamart.com/proddetail/hair-curler-brush-comb-2854982041955.html?pos=6&kwd=baby hair brushes&tags=BB||||8211.142|Price|product|||TS|rsf:gd-|-stype:attr=1|qr_nm:gd|res:RC4|com-cf:nl|ptrs:na|ktp:N0|mc:98611|mtp:S|qry_typ:P|lang:en|wc:3|flavl:0|cs:9605|v=4,RAF India,https://www.rafindia.co.in/?pos=6&kwd=baby hair brushes&tags=BB||||8211.142|Price|product|||TS|rsf:gd-|-stype:attr=1|qr_nm:gd|res:RC4|com-cf:nl|ptrs:na|ktp:N0|mc:98611|mtp:S|qry_typ:P|lang:en|wc:3|flavl:0|cs:9605|v=4,False,Pydhonie,Mumbai,"425, Ibrahim Rehmatulla Road, Pydhonie, Mumbai - 400003, Dist.Mumbai, Maharashtra",8047635175,
Baby Hair Brush,https://www.indiamart.com/proddetail/baby-hair-brush-2849393485548.html?pos=7&kwd=baby hair brushes&tags=BA||||8860.933|Price|product|||MDC|rsf:gd-|-stype:attr=1|qr_nm:gd|res:RC4|com-cf:nl|ptrs:na|ktp:N0|mc:98611|mtp:S|qry_typ:P|lang:en|wc:3|flavl:0|cs:9605|v=4,Indian Turf,https://www.indiamart.com/indianturf-dehradun/?pos=7&kwd=baby hair brushes&tags=BA||||8860.933|Price|product|||MDC|rsf:gd-|-stype:attr=1|qr_nm:gd|res:RC4|com-cf:nl|ptrs:na|ktp:N0|mc:98611|mtp:S|qry_typ:P|lang:en|wc:3|flavl:0|cs:9605|v=4,False,Chukkuwala,Dehradun,"56, Neshvilla Road,, Chukkuwala, Dehradun - 248001, Dist.Dehradun, Uttarakhand",8046062814,
"NEW TRENDY BABY HAIR BRUSH TOOL SET, 3-12 Months",https://www.indiamart.com/proddetail/new-trendy-baby-hair-brush-tool-set-2854763984255.html?pos=8&kwd=baby hair brushes&tags=BA||||8211.142|Price|product|||MDC|rsf:gd-|-stype:attr=1|qr_nm:gd|res:RC4|com-cf:nl|ptrs:na|ktp:N0|mc:98611|mtp:S|qry_typ:P|lang:en|wc:3|flavl:0|cs:9605|v=4,Fatema Collection,https://www.indiamart.com/fatemacollection-mumbai/?pos=8&kwd=baby hair brushes&tags=BA||||8211.142|Price|product|||MDC|rsf:gd-|-stype:attr=1|qr_nm:gd|res:RC4|com-cf:nl|ptrs:na|ktp:N0|mc:98611|mtp:S|qry_typ:P|lang:en|wc:3|flavl:0|cs:9605|v=4,False,Mazgaon,Mumbai,"2nd Floor, Room No.202, Audumber Building, Seth Motishah Cross Lane, Byculla East, Mazgaon, Mumbai - 400027, Dist.Mumbai, Maharashtra",7948549397,
"Remonde Plastic Flat Hair Brush, For Home",https://www.indiamart.com/proddetail/flat-hair-brush-3741662948.html?pos=9&kwd=baby hair brushes&tags=BA||||8211.142|Price|product|||TS|rsf:gd-|-stype:attr=1|qr_nm:gd|res:RC4|com-cf:nl|ptrs:na|ktp:N0|mc:98611|mtp:S|qry_typ:P|lang:en|wc:3|flavl:0|cs:9605|v=4,Remonde Plasmetiks,https://www.remondeplasmetiks.com/?pos=9&kwd=baby hair brushes&tags=BA||||8211.142|Price|product|||TS|rsf:gd-|-stype:attr=1|qr_nm:gd|res:RC4|com-cf:nl|ptrs:na|ktp:N0|mc:98611|mtp:S|qry_typ:P|lang:en|wc:3|flavl:0|cs:9605|v=4,False,Goregaon East,Mumbai,"50/51, Jagat Satguru Industrial Estate, 1st Floor, Vishweshwar Road Off Aarey Road, Goregaon East, Mumbai - 400063, Dist.Mumbai, Maharashtra",8046041673,
Blue Plastic Hair Brush,https://www.indiamart.com/proddetail/blue-plastic-hair-brush-26196143688.html?pos=10&kwd=baby hair brushes&tags=BB||||8211.142|Price|product|||MDC|rsf:gd-|-stype:attr=1|qr_nm:gd|res:RC4|com-cf:nl|ptrs:na|ktp:N0|mc:98611|mtp:S|qry_typ:P|lang:en|wc:3|flavl:0|cs:9605|v=4,Bhojane Brothers,https://www.indiamart.com/bhojanebrothers-mumbai/?pos=10&kwd=baby hair brushes&tags=BB||||8211.142|Price|product|||MDC|rsf:gd-|-stype:attr=1|qr_nm:gd|res:RC4|com-cf:nl|ptrs:na|ktp:N0|mc:98611|mtp:S|qry_typ:P|lang:en|wc:3|flavl:0|cs:9605|v=4,False,Dadar,Mumbai,"210, 2nd Floor, Shree Hari Bldg, Shankar Palav Marg, Dadar, Dadar, Mumbai - 400014, Dist.Mumbai, Maharashtra",8043863052,
Printed Cotton Baby Bib,https://www.indiamart.com/proddetail/printed-cotton-baby-bib-2850650073473.html?pos=11&kwd=baby hair brushes&tags=BB||||8752.144|Price|product|||MDC|rsf:gd-|-stype:attr=1|qr_nm:gd|res:RC4|com-cf:nl|ptrs:na|ktp:N0|mc:98611|mtp:S|qry_typ:P|lang:en|wc:3|flavl:0|cs:9605|v=4,L T Textiles,https://www.indiamart.com/lttextiles/?pos=11&kwd=baby hair brushes&tags=BB||||8752.144|Price|product|||MDC|rsf:gd-|-stype:attr=1|qr_nm:gd|res:RC4|com-cf:nl|ptrs:na|ktp:N0|mc:98611|mtp:S|qry_typ:P|lang:en|wc:3|flavl:0|cs:9605|v=4,False,Pahari Dhiraj,New Delhi,"5189-90 Main Road, Sadar Bazar, Pahari Dhiraj, New Delhi - 110006, Dist.Delhi, Delhi",7942958455,
Baby hair brush,,Aggarwal Glass House,https://www.indiamart.com/aggarwalglasshouse/?pos=12&kwd=baby hair brushes&tags=BB||||8752.144|Price|product|||MDC|rsf:gd-|-stype:attr=1|qr_nm:gd|res:RC4|com-cf:nl|ptrs:na|ktp:N0|mc:98611|mtp:S|qry_typ:P|lang:en|wc:3|flavl:0|cs:9605|v=4,False,Chandni Chowk,New Delhi,"5460/2 1st Floor, Ahmed Ki Sarai , Gandhi Market, Sadar Bazar, Chandni Chowk, New Delhi - 110006, Dist.Delhi, Delhi",8043857289,
Baby Hair Brush,,nn trading co.,https://www.indiamart.com/m-kumarbengaluru/?pos=13&kwd=baby hair brushes&tags=BB||||8663.873||product|||NA|rsf:gd-|-stype:attr=1|qr_nm:gd|res:RC4|com-cf:nl|ptrs:na|ktp:N0|mc:98611|mtp:S|qry_typ:P|lang:en|wc:3|flavl:0|cs:9605|v=4,False,Virupakshapura,Bengaluru,"no.475,1st floor, rajeev gandhi nagar, Virupakshapura, Bengaluru - 560092, Dist.Bengaluru, Karnataka",8062270227,193
Huf & Nuf Blue Color Baby Comb Brush Set,https://www.indiamart.com/proddetail/huf-nuf-blue-color-baby-comb-brush-set-25690307830.html?pos=14&kwd=baby hair brushes&tags=BB||||8752.144|Price|product|||NA|rsf:gd-|-stype:attr=1|qr_nm:gd|res:RC4|com-cf:nl|ptrs:na|ktp:N0|mc:98611|mtp:S|qry_typ:P|lang:en|wc:3|flavl:0|cs:9605|v=4,AWNIB Consultants,https://www.indiamart.com/awnibconsultants/?pos=14&kwd=baby hair brushes&tags=BB||||8752.144|Price|product|||NA|rsf:gd-|-stype:attr=1|qr_nm:gd|res:RC4|com-cf:nl|ptrs:na|ktp:N0|mc:98611|mtp:S|qry_typ:P|lang:en|wc:3|flavl:0|cs:9605|v=4,False,,New Delhi,"175D, 3rd Floor, Block AG-1, Vikaspuri, West Delhi, New Delhi - 110018, Dist.Delhi, Delhi",8047654774,
Wooden Comb & Mirror Hair Brush Set For All Hair Types (Pack of 2),,Neelam E-Retail,https://www.indiamart.com/neelam-enterprises-kanpur/?pos=15&kwd=baby hair brushes&tags=BA||||9045.955|Price|product|||FCPE|rsf:gd-|-stype:attr=1|qr_nm:gd|res:RC4|com-cf:nl|ptrs:na|ktp:N0|mc:98611|mtp:S|qry_typ:P|lang:en|wc:3|cs:8842|v=4,False,General Ganj,Kanpur,"Shop No. 33/161, Radha Krishan Market, Gaya Prasad Lane, General Ganj, Kanpur - 208001, Uttar Pradesh",8048267956,
HR143 DETANGLING BABY HAIR BRUSH,https://www.indiamart.com/proddetail/hr143-detangling-baby-hair-brush-2853131893730.html?pos=16&kwd=baby hair brushes&tags=||||8752.144|Price|product|||TS|rsf:gd-|-stype:attr=1|qr_nm:gd|res:RC4|com-cf:nl|ptrs:na|ktp:N0|mc:98611|mtp:S|qry_typ:P|lang:en|wc:3|cs:8842|v=4,Briota Brands Private Limited,https://www.indiamart.com/briota-brands/?pos=16&kwd=baby hair brushes&tags=||||8752.144|Price|product|||TS|rsf:gd-|-stype:attr=1|qr_nm:gd|res:RC4|com-cf:nl|ptrs:na|ktp:N0|mc:98611|mtp:S|qry_typ:P|lang:en|wc:3|cs:8842|v=4,False,Pitampura,New Delhi,"50, 1st Floor, Sharda Niketan Pitampura, Pitampura, New Delhi - 110034, Dist.Delhi, Delhi",8043843967,
"Women Hair Bits ( small baby), For Personal, 3-12 Months",https://www.indiamart.com/proddetail/hair-bits-small-baby-2854500101730.html?pos=17&kwd=baby hair brushes&tags=CC||||8211.142||product|||TS|rsf:gd-|-stype:attr=1|qr_nm:gd|res:RC4|com-cf:nl|ptrs:na|ktp:N0|mc:98611|mtp:S|qry_typ:P|lang:en|wc:3|cs:8842|v=4,Perfect Immitation Jewellery,https://www.perfecthairaccessories.com/?pos=17&kwd=baby hair brushes&tags=CC||||8211.142||product|||TS|rsf:gd-|-stype:attr=1|qr_nm:gd|res:RC4|com-cf:nl|ptrs:na|ktp:N0|mc:98611|mtp:S|qry_typ:P|lang:en|wc:3|cs:8842|v=4,False,S. C. Court,Mumbai,"SHOP NO.10, 3RD FLOOR, 12/14, SASOOR BUILDING,, S. C. Court, Mumbai - 400002, Dist.Mumbai, Maharashtra",8048950643,
"Deodap Multicolor Cartoon Design Kids Hair Brush 6471, Packaging Type: Polybag, 5-7 Years",https://www.indiamart.com/proddetail/cartoon-design-kids-hair-brush-6471-2853389448091.html?pos=18&kwd=baby hair brushes&tags=CC||||8038.093|Price|product|||TS|rsf:gd-|-stype:attr=1|qr_nm:gd|res:RC4|com-cf:nl|ptrs:na|ktp:N0|mc:98611|mtp:S|qry_typ:P|lang:en|wc:3|cs:8842|v=4,Deodap,https://www.indiamart.com/deodap/?pos=18&kwd=baby hair brushes&tags=CC||||8038.093|Price|product|||TS|rsf:gd-|-stype:attr=1|qr_nm:gd|res:RC4|com-cf:nl|ptrs:na|ktp:N0|mc:98611|mtp:S|qry_typ:P|lang:en|wc:3|cs:8842|v=4,False,Rajkot,Rajkot,"plot No. 9 Behind Patanjali Werhouse, Ruda Transport, Saat Hanuman Ahemdabad Road, Rajkot, Rajkot - 360005, Dist.Rajkot, Gujarat",8048972316,
Baby Hair Brush Comb,https://www.indiamart.com/proddetail/baby-hair-brush-comb-23215958248.html?pos=19&kwd=baby hair brushes&tags=CC||||8545.6045|Price|product|||MDC|rsf:gd-|-stype:attr=1|qr_nm:gd|res:RC4|com-cf:nl|ptrs:na|ktp:N0|mc:98611|mtp:S|qry_typ:P|lang:en|wc:3|cs:8842|v=4,Shri Siddhivinayak Traders,https://www.indiamart.com/shrisiddhivinayaktraders-firozpur/?pos=19&kwd=baby hair brushes&tags=CC||||8545.6045|Price|product|||MDC|rsf:gd-|-stype:attr=1|qr_nm:gd|res:RC4|com-cf:nl|ptrs:na|ktp:N0|mc:98611|mtp:S|qry_typ:P|lang:en|wc:3|cs:8842|v=4,False,Basti Nizamdin,Firozpur,"No.94, Anand Avenue, Backside Marked Office, Malwal Road, Firozpur City, Basti Nizamdin, Firozpur - 152002, Dist.Firozpur, Punjab",8046066644,
"LuvLap Stylish Infant Hair Brush and Comb Kit, Suitable from Birth 0+month baby (White) 18607",https://www.indiamart.com/proddetail/luvlap-stylish-infant-hair-brush-and-comb-kit-suitable-from-birth-0-month-baby-white-18607-2853231074673.html?pos=20&kwd=baby hair brushes&tags=CC||||8614.241|Price|product|||MDC|rsf:gd-|-stype:attr=1|qr_nm:gd|res:RC4|com-cf:nl|ptrs:na|ktp:N0|mc:98611|mtp:S|qry_typ:P|lang:en|wc:3|cs:8842|v=4,M.M. Toy World,https://www.indiamart.com/mmtoyworld/?pos=20&kwd=baby hair brushes&tags=CC||||8614.241|Price|product|||MDC|rsf:gd-|-stype:attr=1|qr_nm:gd|res:RC4|com-cf:nl|ptrs:na|ktp:N0|mc:98611|mtp:S|qry_typ:P|lang:en|wc:3|cs:8842|v=4,False,Achli Gate,Batala,"M.M. Toys World, Bedian Gali, Khujari Gate, Gurdaspur, Achli Gate, Batala - 143505, Dist.Gurdaspur, Punjab",,
Kids Hair Brush,https://www.indiamart.com/proddetail/kids-hair-brush-2853733779197.html?pos=21&kwd=baby hair brushes&tags=CC||||8663.873|Price|product|||MDC|rsf:gd-|-stype:attr=1|qr_nm:gd|res:RC4|com-cf:nl|ptrs:na|ktp:N0|mc:98611|mtp:S|qry_typ:P|lang:en|wc:3|cs:8842|v=4,Maya Marketing,https://www.indiamart.com/mayamarketingbengaluru/?pos=21&kwd=baby hair brushes&tags=CC||||8663.873|Price|product|||MDC|rsf:gd-|-stype:attr=1|qr_nm:gd|res:RC4|com-cf:nl|ptrs:na|ktp:N0|mc:98611|mtp:S|qry_typ:P|lang:en|wc:3|cs:8842|v=4,False,Sampangi Rama Nagar,Bengaluru,"6/1,7 th Cross,SR Nagar, Sri BT Muniyappa Road, Bengaluru Urban, Sampangi Rama Nagar, Bengaluru - 560027, Dist.Bengaluru, Karnataka",8044011151,
"Pink Kids Hair Brush, 3-12 Months",https://www.indiamart.com/proddetail/kids-hair-brush-2853425851355.html?pos=22&kwd=baby hair brushes&tags=CC||||9618.383|Price|product|||MDC|rsf:gd-|-stype:attr=1|qr_nm:gd|res:RC4|com-cf:nl|ptrs:na|ktp:N0|mc:98611|mtp:S|qry_typ:P|lang:en|wc:3|cs:8842|v=4,Texco,https://www.indiamart.com/texco/?pos=22&kwd=baby hair brushes&tags=CC||||9618.383|Price|product|||MDC|rsf:gd-|-stype:attr=1|qr_nm:gd|res:RC4|com-cf:nl|ptrs:na|ktp:N0|mc:98611|mtp:S|qry_typ:P|lang:en|wc:3|cs:8842|v=4,False,Bistupur,Jamshedpur,"Shop No. 2, Main Road, Bistupur, Bistupur, Jamshedpur - 831001, Dist.East Singhbhum, Jharkhand",7949092933,
"Silicone Hair Scalp Massager Brush for Man Women & All Hair Types, For Household",https://www.indiamart.com/proddetail/hair-scalp-massager-brush-for-man-women-all-hair-types-2853727885862.html?pos=23&kwd=baby hair brushes&tags=CC||||8230.883|Price|product|||MDC|rsf:gd-|-stype:attr=1|qr_nm:gd|res:RC4|com-cf:nl|ptrs:na|ktp:N0|mc:98611|mtp:S|qry_typ:P|lang:en|wc:3|cs:8842|v=4,Jnsm Spark,https://www.indiamart.com/jnsm-spark/?pos=23&kwd=baby hair brushes&tags=CC||||8230.883|Price|product|||MDC|rsf:gd-|-stype:attr=1|qr_nm:gd|res:RC4|com-cf:nl|ptrs:na|ktp:N0|mc:98611|mtp:S|qry_typ:P|lang:en|wc:3|cs:8842|v=4,False,Dabholi,Surat,"3rd Floor Flat-302, Shukan Valley BLDG-F, OPP Hari Darshan, Dabholi Road, Dabholi, Surat - 395004, Dist.Surat, Gujarat",8045166587,
Asera Unicorn Round Glittery Hair Brush For Kids Girls Birthday Return Gifts,https://www.indiamart.com/proddetail/asera-unicorn-round-glittery-hair-brush-for-kids-girls-birthday-return-gifts-2852614632188.html?pos=24&kwd=baby hair brushes&tags=||||8752.144|Price|product|||TS|rsf:gd-|-stype:attr=1|qr_nm:gd|res:RC4|com-cf:nl|ptrs:na|ktp:N0|mc:98611|mtp:S|qry_typ:P|lang:en|wc:3|cs:8842|v=4,Maa Padmavati Enterprises,https://www.aseraonline.com/?pos=24&kwd=baby hair brushes&tags=||||8752.144|Price|product|||TS|rsf:gd-|-stype:attr=1|qr_nm:gd|res:RC4|com-cf:nl|ptrs:na|ktp:N0|mc:98611|mtp:S|qry_typ:P|lang:en|wc:3|cs:8842|v=4,False,Pitampura,New Delhi,"3rd Floor, WZ-636, Rishi Nagar, Rani Bagh Saraswati Vihar, North West, Pitampura, New Delhi - 110041, Dist.Delhi, Delhi",8043877438,
Brown Wooden Hair Brush,https://www.indiamart.com/proddetail/wooden-hair-brush-2854338610312.html?pos=25&kwd=baby hair brushes&tags=||||8741.812|Price|proxy|||TS|rsf:gd-|-stype:attr=1|qr_nm:gd|res:RC4|com-cf:nl|ptrs:na|ktp:N0|mc:98611|mtp:S|qry_typ:P|lang:en|wc:3|cs:8842|v=4,Moxcel Store,https://www.moxcelstore.com/?pos=25&kwd=baby hair brushes&tags=||||8741.812|Price|proxy|||TS|rsf:gd-|-stype:attr=1|qr_nm:gd|res:RC4|com-cf:nl|ptrs:na|ktp:N0|mc:98611|mtp:S|qry_typ:P|lang:en|wc:3|cs:8842|v=4,False,Palam Vihar Extension,Gurugram,"Plot No 12A, Gali No 2, Near R K Residency, Dharam Colony, Gurgaon, Palam Vihar Extension, Gurugram - 122017, Dist.Gurgaon, Haryana",8048612717,
Beige Wooden Hair Brush,https://www.indiamart.com/proddetail/wooden-hair-brush-2854256505691.html?pos=26&kwd=baby hair brushes&tags=||||8752.144|Price|product|||TS|rsf:gd-|-stype:attr=1|qr_nm:gd|res:RC4|com-cf:nl|ptrs:na|ktp:N0|mc:98611|mtp:S|qry_typ:P|lang:en|wc:3|cs:8842|v=4,Meserii,https://www.indiamart.com/meserii/?pos=26&kwd=baby hair brushes&tags=||||8752.144|Price|product|||TS|rsf:gd-|-stype:attr=1|qr_nm:gd|res:RC4|com-cf:nl|ptrs:na|ktp:N0|mc:98611|mtp:S|qry_typ:P|lang:en|wc:3|cs:8842|v=4,False,Sainik Farms,New Delhi,"H-165/16 KH No. 1516, Sangam Vihar Road, Sainik Farms, New Delhi - 110062, Dist.Delhi, Delhi",7942702773,
Brown Wooden Now Organic Bamboo Hair Brush,https://www.indiamart.com/proddetail/now-organic-bamboo-hair-brush-27552415930.html?pos=27&kwd=baby hair brushes&tags=||||8974.737|Price|proxy|||TS|rsf:gd-|-stype:attr=1|qr_nm:gd|res:RC4|com-cf:nl|ptrs:na|ktp:N0|mc:98611|mtp:S|qry_typ:P|lang:en|wc:3|cs:8842|v=4,Trivi Industries,https://www.indiamart.com/trivi-industries/?pos=27&kwd=baby hair brushes&tags=||||8974.737|Price|proxy|||TS|rsf:gd-|-stype:attr=1|qr_nm:gd|res:RC4|com-cf:nl|ptrs:na|ktp:N0|mc:98611|mtp:S|qry_typ:P|lang:en|wc:3|cs:8842|v=4,False,Civil Lines,Bareilly,"Plot No 201, 202 New industrial area Parsakhera Road No 1, Civil Lines, Bareilly - 243502, Dist.Bareilly, Uttar Pradesh",7942562036,
brown Wooden Paddle Hair Brush,https://www.indiamart.com/proddetail/wooden-paddle-hair-brush-2854370863988.html?pos=28&kwd=baby hair brushes&tags=||||8752.144|Price|proxy|||TS|rsf:gd-|-stype:attr=1|qr_nm:gd|res:RC4|com-cf:nl|ptrs:na|ktp:N0|mc:98611|mtp:S|qry_typ:P|lang:en|wc:3|cs:8842|v=4,Greeniecan India,https://www.greeniecan.co.in/?pos=28&kwd=baby hair brushes&tags=||||8752.144|Price|proxy|||TS|rsf:gd-|-stype:attr=1|qr_nm:gd|res:RC4|com-cf:nl|ptrs:na|ktp:N0|mc:98611|mtp:S|qry_typ:P|lang:en|wc:3|cs:8842|v=4,True,,New Delhi,"Ground Floor, House No- B-7/182, Phase Iv, Aaya Nagar, New Delhi - 110047, Dist.Delhi, Delhi",8048265707,
"Unicorn Glitter Hair Brush Comb for Girls, Massage Hairbrush for Kids",https://www.indiamart.com/proddetail/unicorn-glitter-hair-brush-comb-for-girls-massage-hairbrush-for-kids-2852290566233.html?pos=29&kwd=baby hair brushes&tags=||||8752.144|Price|product|||TS|rsf:gd-|-stype:attr=1|qr_nm:gd|res:RC4|com-cf:nl|ptrs:na|ktp:N0|mc:98611|mtp:S|qry_typ:P|lang:en|wc:3|cs:8842|v=4,Srishe Traders,https://www.indiamart.com/srishetraders/?pos=29&kwd=baby hair brushes&tags=||||8752.144|Price|product|||TS|rsf:gd-|-stype:attr=1|qr_nm:gd|res:RC4|com-cf:nl|ptrs:na|ktp:N0|mc:98611|mtp:S|qry_typ:P|lang:en|wc:3|cs:8842|v=4,False,Khari Baoli,New Delhi,"1879, Room No. 02, First Floor, Kucha Chelan , Khari Baoli, Central Delhi, Khari Baoli, New Delhi - 110006, Dist.Delhi, Delhi",8047686776,
Hair Brush For Kids Detangling Anti-static Soft Massage For Braids Curly Straight Long Or Short Wet Or Dry Hair (multi-design),https://www.indiamart.com/proddetail/hair-brush-for-kids-detangling-anti-static-soft-massage-for-braids-curly-straight-long-or-short-wet-or-dry-hair-multi-design-2854780125630.html?pos=30&kwd=baby hair brushes&tags=||||8692.544|Price|product|||MDC|rsf:gd-|-stype:attr=1|qr_nm:gd|res:RC4|com-cf:nl|ptrs:na|ktp:N0|mc:98611|mtp:S|qry_typ:P|lang:en|wc:3|cs:8842|v=4,Demrot Bangles And Manufacture,https://www.indiamart.com/demrotbanglesmanufacture/?pos=30&kwd=baby hair brushes&tags=||||8692.544|Price|product|||MDC|rsf:gd-|-stype:attr=1|qr_nm:gd|res:RC4|com-cf:nl|ptrs:na|ktp:N0|mc:98611|mtp:S|qry_typ:P|lang:en|wc:3|cs:8842|v=4,False,Kishangarh Bas,Alwar,"Vashishtha Market, Kishangarh Bass, Kishangarh Bas, Alwar - 301405, Dist.Alwar, Rajasthan",,
Hair Scalp Massager Silicone Shampoo Brush Silicone Shower Comb for Women Men & Kids,https://www.indiamart.com/proddetail/hair-scalp-massager-silicone-shampoo-brush-silicone-shower-comb-for-women-men-kids-2853148255373.html?pos=31&kwd=baby hair brushes&tags=||||8230.883|Price|product|||MDC|rsf:gd-|-stype:attr=1|qr_nm:gd|res:RC4|com-cf:nl|ptrs:na|ktp:N0|mc:98611|mtp:S|qry_typ:P|lang:en|wc:3|cs:8842|v=4,Beyond Unique Enterprises,https://www.indiamart.com/beyonduniqueenterprises/?pos=31&kwd=baby hair brushes&tags=||||8230.883|Price|product|||MDC|rsf:gd-|-stype:attr=1|qr_nm:gd|res:RC4|com-cf:nl|ptrs:na|ktp:N0|mc:98611|mtp:S|qry_typ:P|lang:en|wc:3|cs:8842|v=4,False,Katargam,Surat,"180, Bhagwan Nagar Society, Ved Nagar Char Rasta, Magan Nagar 2 Ni Pachhal, Katargam, Katargam, Surat - 395004, Dist.Surat, Gujarat",8047527253,
Black Plastic Hair Dye Brush And Bowls,https://www.indiamart.com/proddetail/hair-dye-brush-and-bowls-2854431211788.html?pos=32&kwd=baby hair brushes&tags=||||8617.287|Price|proxy|||MDC|rsf:gd-|-stype:attr=1|qr_nm:gd|res:RC4|com-cf:nl|ptrs:na|ktp:N0|mc:98611|mtp:S|qry_typ:P|lang:en|wc:3|cs:8842|v=4,Shriya Trading Company,https://www.indiamart.com/shriyatradingcompany-ratia/?pos=32&kwd=baby hair brushes&tags=||||8617.287|Price|proxy|||MDC|rsf:gd-|-stype:attr=1|qr_nm:gd|res:RC4|com-cf:nl|ptrs:na|ktp:N0|mc:98611|mtp:S|qry_typ:P|lang:en|wc:3|cs:8842|v=4,False,Aimnabad,Ratia,"Shop No. 1, Fatehabad Road, Near Haffed Complex, Fatehabad,, Aimnabad, Ratia - 125051, Dist.Fatehabad, Haryana",7948549394,
Virtue Impex,,Virtue Impex,https://www.virtue.biz/?pos=33&kwd=baby hair brushes&tags=||||8211.142||bl|||TS|rsf:gd-|-stype:attr=1|qr_nm:gd|res:RC4|com-cf:nl|ptrs:na|ktp:N0|mc:98611|mtp:S|qry_typ:P|lang:en|wc:3|cs:8842|v=4,False,Town Hall,Mumbai,"2,, Floor-3, 12/14, Mohatta Market, Musafirkhana Road, Crawford Market, Fort, Town Hall, Mumbai - 400001, Dist.Mumbai, Maharashtra",7942558224,
"NV Pink Baby Nail Trimmer, Packaging Type: Plastic Bottle, 0-5",https://www.indiamart.com/proddetail/baby-nail-trimmer-2850391081191.html?pos=34&kwd=baby hair brushes&tags=||||8752.144|Price|product|||TS|rsf:gd-|-stype:attr=1|qr_nm:gd|res:RC4|com-cf:nl|ptrs:na|ktp:N0|mc:98611|mtp:S|qry_typ:P|lang:en|wc:3|cs:8842|v=4,NV Enterprises,https://www.indiamart.com/nventerprise-delhi/?pos=34&kwd=baby hair brushes&tags=||||8752.144|Price|product|||TS|rsf:gd-|-stype:attr=1|qr_nm:gd|res:RC4|com-cf:nl|ptrs:na|ktp:N0|mc:98611|mtp:S|qry_typ:P|lang:en|wc:3|cs:8842|v=4,False,Shastri Nagar,New Delhi,"D 148, Street No. 2, Swaroop Nagar, Shastri Nagar, New Delhi - 110052, Dist.Delhi, Delhi",7942543916,
Adoniz Pink Professional Hair Brushes,https://www.indiamart.com/proddetail/professional-hair-brushes-22946470397.html?pos=35&kwd=baby hair brushes&tags=||||8954.051|Price|product|||MDC|rsf:gd-|-stype:attr=1|qr_nm:gd|res:RC4|com-cf:nl|ptrs:na|ktp:N0|mc:98611|mtp:S|qry_typ:P|lang:en|wc:3|cs:8842|v=4,Nisa Mart,https://www.indiamart.com/nisa-mart/?pos=35&kwd=baby hair brushes&tags=||||8954.051|Price|product|||MDC|rsf:gd-|-stype:attr=1|qr_nm:gd|res:RC4|com-cf:nl|ptrs:na|ktp:N0|mc:98611|mtp:S|qry_typ:P|lang:en|wc:3|cs:8842|v=4,False,Poonamallee,Chennai,"23 Thirumal Nagar 2nd Main Road Poonamalle, Poonamallee, Chennai - 600056, Dist.Chennai, Tamil Nadu",8048961404,
Baby Shower Cap Wash Hair For Children Baby Eye Ear Protector Adjustable( MultiColour),https://www.indiamart.com/proddetail/baby-shower-cap-wash-hair-for-children-baby-eye-ear-protector-adjustable-multicolour-2853654961897.html?pos=36&kwd=baby hair brushes&tags=||||8230.883|Price|product|||TS|rsf:gd-|-stype:attr=1|qr_nm:gd|res:RC4|com-cf:nl|ptrs:na|ktp:N0|mc:98611|mtp:S|qry_typ:P|lang:en|wc:3|cs:8842|v=4,Nika Enterprise,https://www.nikaenterprise.in/?pos=36&kwd=baby hair brushes&tags=||||8230.883|Price|product|||TS|rsf:gd-|-stype:attr=1|qr_nm:gd|res:RC4|com-cf:nl|ptrs:na|ktp:N0|mc:98611|mtp:S|qry_typ:P|lang:en|wc:3|cs:8842|v=4,False,,Surat,"1st Floor,, Flat No-102, Plot No-173/174/175, Rs-109,504,, Vitthal Nagar Soc, Dabholi Char Rasta, Katargam, Surat - 395004, Dist.Surat, Gujarat",8047550715,
"Hair Scalp Massager Shampoo Brush Shower Scalp Scrubber Brush for Dandruff, Scalp Exfoliator",https://www.indiamart.com/proddetail/hair-scalp-massager-shampoo-brush-shower-scalp-scrubber-brush-for-dandruff-scalp-exfoliator-2854578662797.html?pos=37&kwd=baby hair brushes&tags=||||8230.883|Price|product|||TS|rsf:gd-|-stype:attr=1|qr_nm:gd|res:RC4|com-cf:nl|ptrs:na|ktp:N0|mc:98611|mtp:S|qry_typ:P|lang:en|wc:3|cs:8842|v=4,Yaadgar Enterprise,https://www.indiamart.com/yaadgar-enterprise/?pos=37&kwd=baby hair brushes&tags=||||8230.883|Price|product|||TS|rsf:gd-|-stype:attr=1|qr_nm:gd|res:RC4|com-cf:nl|ptrs:na|ktp:N0|mc:98611|mtp:S|qry_typ:P|lang:en|wc:3|cs:8842|v=4,False,Katargam,Surat,"3rd Floor, 124, Flat No. 302, Pushp Vatika Apartment Singanpor Road, Katargam, Surat - 395004, Dist.Surat, Gujarat",7942531767,
4 in 1 Self Cleaning Hair Brush,https://www.indiamart.com/proddetail/4-in-1-self-cleaning-hair-brush-2853892047555.html?pos=38&kwd=baby hair brushes&tags=||||8230.883|Price|product|||TS|rsf:gd-|-stype:attr=1|qr_nm:gd|res:RC4|com-cf:nl|ptrs:na|ktp:N0|mc:98611|mtp:S|qry_typ:P|lang:en|wc:3|cs:8842|v=4,Basketo,https://www.basketo.net/?pos=38&kwd=baby hair brushes&tags=||||8230.883|Price|product|||TS|rsf:gd-|-stype:attr=1|qr_nm:gd|res:RC4|com-cf:nl|ptrs:na|ktp:N0|mc:98611|mtp:S|qry_typ:P|lang:en|wc:3|cs:8842|v=4,False,Singanpor,Surat,"PLOT NO-32,Laxmi Narayan Society,DABHOLI CHAR RASTA, VED ROAD,Surat, Singanpor, Surat - 395004, Dist.Surat, Gujarat",7942716532,
dual tone Baby Nail Cutter,https://www.indiamart.com/proddetail/baby-nail-cutter-27452293712.html?pos=39&kwd=baby hair brushes&tags=||||8211.142|Price|product|||TS|rsf:gd-|-stype:attr=1|qr_nm:gd|res:RC4|com-cf:nl|ptrs:na|ktp:N0|mc:98611|mtp:S|qry_typ:P|lang:en|wc:3|cs:8842|v=4,Sam Cart,https://www.indiamart.com/sam-cart/?pos=39&kwd=baby hair brushes&tags=||||8211.142|Price|product|||TS|rsf:gd-|-stype:attr=1|qr_nm:gd|res:RC4|com-cf:nl|ptrs:na|ktp:N0|mc:98611|mtp:S|qry_typ:P|lang:en|wc:3|cs:8842|v=4,False,Town Hall,Mumbai,"Ground Floor,18/19, 5,B, M, C Dormitory Building Saboo Siddik,Road, Musafir Khana Fort,, Town Hall, Mumbai - 400001, Dist.Mumbai, Maharashtra",8048609217,
Multicolor Plastic Unicorn Glittery Star Brush Comb Hairbrush,https://www.indiamart.com/proddetail/unicorn-glittery-star-brush-comb-hairbrush-2852413058273.html?pos=40&kwd=baby hair brushes&tags=||||8211.142|Price|product|||TS|rsf:gd-|-stype:attr=1|qr_nm:gd|res:RC4|com-cf:nl|ptrs:na|ktp:N0|mc:98611|mtp:S|qry_typ:P|lang:en|wc:3|cs:8842|v=4,More Buy Trading,https://www.indiamart.com/morebuytrading/?pos=40&kwd=baby hair brushes&tags=||||8211.142|Price|product|||TS|rsf:gd-|-stype:attr=1|qr_nm:gd|res:RC4|com-cf:nl|ptrs:na|ktp:N0|mc:98611|mtp:S|qry_typ:P|lang:en|wc:3|cs:8842|v=4,False,Masjid Bandar,Mumbai,"1st Floor-1,11/15,Khimji Meghji House CHS,Essaji Street,Masjid Bandar West, Masjid Bandar, Mumbai - 400003, Dist.Mumbai, Maharashtra",7942866894,
Plastic DETANGLING HAIR COMB BRUSH,https://www.indiamart.com/proddetail/detangling-hair-comb-brush-2853873592997.html?pos=41&kwd=baby hair brushes&tags=||||8230.883|Price|product|||TS|rsf:gd-|-stype:attr=1|qr_nm:gd|res:RC4|com-cf:nl|ptrs:na|ktp:N0|mc:98611|mtp:S|qry_typ:P|lang:en|wc:3|cs:8842|v=4,N R Mart,https://www.thecheaperzone.com/?pos=41&kwd=baby hair brushes&tags=||||8230.883|Price|product|||TS|rsf:gd-|-stype:attr=1|qr_nm:gd|res:RC4|com-cf:nl|ptrs:na|ktp:N0|mc:98611|mtp:S|qry_typ:P|lang:en|wc:3|cs:8842|v=4,False,Katargam,Surat,"SHED NO 2, SY.NO.310. F H NO.132, PATEL FALIA, KATARGAM, SURAT, Surat, Gujarat, 395004, Katargam, Surat - 395004, Dist.Surat, Gujarat",8048262787,
White Plastic 4 in 1 Self Cleaning Hair Brush,https://www.indiamart.com/proddetail/4-in-1-self-cleaning-hair-brush-2853892133773.html?pos=42&kwd=baby hair brushes&tags=||||8230.883|Price|product|||TS|rsf:gd-|-stype:attr=1|qr_nm:gd|res:RC4|com-cf:nl|ptrs:na|ktp:N0|mc:98611|mtp:S|qry_typ:P|lang:en|wc:3|cs:8842|v=4,Sixfire Pvt,https://www.sixfirepvt.com/?pos=42&kwd=baby hair brushes&tags=||||8230.883|Price|product|||TS|rsf:gd-|-stype:attr=1|qr_nm:gd|res:RC4|com-cf:nl|ptrs:na|ktp:N0|mc:98611|mtp:S|qry_typ:P|lang:en|wc:3|cs:8842|v=4,False,Singanpor,Surat,"Plot No-32, Ground Floor, Laxmi Narayan Co. Op. Housing Society, Ved Road, Singanpor, Surat - 395004, Dist.Surat, Gujarat",7942957589,
"Hair Scalp Massager Shampoo Brush With Soft Silicone Bristles, Anti Dandruff Oem Custom Logo",https://www.indiamart.com/proddetail/hair-scalp-massager-shampoo-brush-with-soft-silicone-bristles-anti-dandruff-oem-custom-logo-23941222497.html?pos=43&kwd=baby hair brushes&tags=||||8741.812|Price|product|||TS|rsf:gd-|-stype:attr=1|qr_nm:gd|res:RC4|com-cf:nl|ptrs:na|ktp:N0|mc:98611|mtp:S|qry_typ:P|lang:en|wc:3|cs:8842|v=4,Blacktie Ecom Private Limited,https://www.indiamart.com/blacktieecom/?pos=43&kwd=baby hair brushes&tags=||||8741.812|Price|product|||TS|rsf:gd-|-stype:attr=1|qr_nm:gd|res:RC4|com-cf:nl|ptrs:na|ktp:N0|mc:98611|mtp:S|qry_typ:P|lang:en|wc:3|cs:8842|v=4,False,Gurgaon South City Ii,Gurgaon,"CABIN 210 B 38 OLD DLF COLONY, Gurgaon South City Ii, Gurgaon - 122018, Dist.Gurgaon, Haryana",8046052578,
Blue Plastic Hair Dressing Brush,https://www.indiamart.com/proddetail/hair-dressing-brush-2854419963962.html?pos=44&kwd=baby hair brushes&tags=||||8230.883|Price|product|||TS|rsf:gd-|-stype:attr=1|qr_nm:gd|res:RC4|com-cf:nl|ptrs:na|ktp:N0|mc:98611|mtp:S|qry_typ:P|lang:en|wc:3|cs:8842|v=4,Mahant,https://www.themahant.com/?pos=44&kwd=baby hair brushes&tags=||||8230.883|Price|product|||TS|rsf:gd-|-stype:attr=1|qr_nm:gd|res:RC4|com-cf:nl|ptrs:na|ktp:N0|mc:98611|mtp:S|qry_typ:P|lang:en|wc:3|cs:8842|v=4,False,Katargam,Surat,"E-1103, Shukan Heights, Opp, Kantareshwar Hanuman Temple, Singanpore, Katargam, Surat - 395004, Dist.Surat, Gujarat",8048954505,
dual tone Baby Nail Cutter,https://www.indiamart.com/proddetail/baby-nail-cutter-27452252248.html?pos=45&kwd=baby hair brushes&tags=||||8211.142|Price|product|||TS|rsf:gd-|-stype:attr=1|qr_nm:gd|res:RC4|com-cf:nl|ptrs:na|ktp:N0|mc:98611|mtp:S|qry_typ:P|lang:en|wc:3|cs:8842|v=4,Sameer Collection,https://www.sameercollection.in/?pos=45&kwd=baby hair brushes&tags=||||8211.142|Price|product|||TS|rsf:gd-|-stype:attr=1|qr_nm:gd|res:RC4|com-cf:nl|ptrs:na|ktp:N0|mc:98611|mtp:S|qry_typ:P|lang:en|wc:3|cs:8842|v=4,False,Princess Dock,Mumbai,"A-1901, Ansari Heights, Umar Kokil Marg, Princess Dock, Mumbai - 400009, Dist.Mumbai, Maharashtra",8046070689,
Multicolor Plastic 2-IN-1 HAIRBRUSH AND HAIR CUTTING COMB,https://www.indiamart.com/proddetail/2-in-1-hairbrush-and-hair-cutting-comb-2854235485291.html?pos=46&kwd=baby hair brushes&tags=||||8230.883|Price|product|||TS|rsf:gd-|-stype:attr=1|qr_nm:gd|res:RC4|com-cf:nl|ptrs:na|ktp:N0|mc:98611|mtp:S|qry_typ:P|lang:en|wc:3|cs:8842|v=4,Cheaperzone Ecom LLP,https://www.cheaperzonewholesale.com/?pos=46&kwd=baby hair brushes&tags=||||8230.883|Price|product|||TS|rsf:gd-|-stype:attr=1|qr_nm:gd|res:RC4|com-cf:nl|ptrs:na|ktp:N0|mc:98611|mtp:S|qry_typ:P|lang:en|wc:3|cs:8842|v=4,False,,Surat,"SY-108,109,PAIKI WEST SIDE,DABHOLI MAIN ROAD,Surat, Surat - 395004, Dist.Surat, Gujarat",8048985824,
White Plastic Hotel Shower Cap,https://www.indiamart.com/proddetail/hotel-shower-cap-26207867648.html?pos=47&kwd=baby hair brushes&tags=||||8228.275|Price|product|||TS|rsf:gd-|-stype:attr=1|qr_nm:gd|res:RC4|com-cf:nl|ptrs:na|ktp:N0|mc:98611|mtp:S|qry_typ:P|lang:en|wc:3|cs:8842|v=4,Access Marketing Pvt.Ltd,https://www.hotelmart.co.in/?pos=47&kwd=baby hair brushes&tags=||||8228.275|Price|product|||TS|rsf:gd-|-stype:attr=1|qr_nm:gd|res:RC4|com-cf:nl|ptrs:na|ktp:N0|mc:98611|mtp:S|qry_typ:P|lang:en|wc:3|cs:8842|v=4,False,Jodhpur Village,Ahmedabad,"302, Third Floor, Shilp Arcade, Opp Ratnamani Tower, Jodhpur Cross Road, Satellite,, Jodhpur Village, Ahmedabad - 380015, Dist.Ahmedabad, Gujarat",8043855041,
Chicco Tooth brush,https://www.indiamart.com/proddetail/chicco-tooth-brush-2851027746433.html?pos=48&kwd=baby hair brushes&tags=||||8740.707|Price|product|||TS|rsf:gd-|-stype:attr=1|qr_nm:gd|res:RC4|com-cf:nl|ptrs:na|ktp:N0|mc:98611|mtp:S|qry_typ:P|lang:en|wc:3|cs:8842|v=4,Arihant Solutions,https://www.indiamart.com/arihantsolutions/?pos=48&kwd=baby hair brushes&tags=||||8740.707|Price|product|||TS|rsf:gd-|-stype:attr=1|qr_nm:gd|res:RC4|com-cf:nl|ptrs:na|ktp:N0|mc:98611|mtp:S|qry_typ:P|lang:en|wc:3|cs:8842|v=4,False,JLPL Industrial Area,Sas Nagar,"First Floor Plot No. 1250 JLPL, Sector 82, JLPL Industrial Area, Sas Nagar - 160055, Dist.Mohali, Punjab",8047645834,
Detangling Brush for Curly Hair Hair Detangler Brush,https://www.indiamart.com/proddetail/detangling-brush-for-curly-hair-hair-detangler-brush-27071377930.html?pos=49&kwd=baby hair brushes&tags=||||8230.883|Price|product|||MDC|rsf:gd-|-stype:attr=1|qr_nm:gd|res:RC4|com-cf:nl|ptrs:na|ktp:N0|mc:98611|mtp:S|qry_typ:P|lang:en|wc:3|cs:8842|v=4,P-Plus International,https://www.indiamart.com/pplus-international/?pos=49&kwd=baby hair brushes&tags=||||8230.883|Price|product|||MDC|rsf:gd-|-stype:attr=1|qr_nm:gd|res:RC4|com-cf:nl|ptrs:na|ktp:N0|mc:98611|mtp:S|qry_typ:P|lang:en|wc:3|cs:8842|v=4,False,Dabholi,Surat,"C 1102, Brahmand Residency, NR Sky Heaven, Dabholi, Surat - 395004, Dist.Surat, Gujarat",8043835199,
Light Violet Plastic Self Cleaning Hair Brush,https://www.indiamart.com/proddetail/self-cleaning-hair-brush-2854275011630.html?pos=50&kwd=baby hair brushes&tags=||||8230.883|Price|product|||MDC|rsf:gd-|-stype:attr=1|qr_nm:gd|res:RC4|com-cf:nl|ptrs:na|ktp:N0|mc:98611|mtp:S|qry_typ:P|lang:en|wc:3|cs:8842|v=4,Swabsmart,https://www.indiamart.com/swabsmart/?pos=50&kwd=baby hair brushes&tags=||||8230.883|Price|product|||MDC|rsf:gd-|-stype:attr=1|qr_nm:gd|res:RC4|com-cf:nl|ptrs:na|ktp:N0|mc:98611|mtp:S|qry_typ:P|lang:en|wc:3|cs:8842|v=4,False,,Surat,"Eight Floor, Flat No 804, Silver Stone Homes, Singanpor Dabholi Link Road, Surat - 395004, Dist.Surat, Gujarat",8047667469,
Shampoo Brush Silicon Scalp Massager Hair Brush Wet Dry Comb Head Scrubber 100% Comfortable for All Hair Improve Blood Circulation,https://www.indiamart.com/proddetail/shampoo-brush-silicon-scalp-massager-hair-brush-wet-dry-comb-head-scrubber-100-comfortable-for-all-hair-improve-blood-circulation-2853456500473.html?pos=51&kwd=baby hair brushes&tags=||||8230.883|Price|product|||MDC|rsf:gd-|-stype:attr=1|qr_nm:gd|res:RC4|com-cf:nl|ptrs:na|ktp:N0|mc:98611|mtp:S|qry_typ:P|lang:en|wc:3|cs:8842|v=4,Dharti Bandhani,https://www.indiamart.com/dhartibandhani/?pos=51&kwd=baby hair brushes&tags=||||8230.883|Price|product|||MDC|rsf:gd-|-stype:attr=1|qr_nm:gd|res:RC4|com-cf:nl|ptrs:na|ktp:N0|mc:98611|mtp:S|qry_typ:P|lang:en|wc:3|cs:8842|v=4,False,,Surat,"Sy.No-7, Plot No-6,Fatakawadi, Near, Pandol Ved, Road, Surat - 395004, Dist.Surat, Gujarat",,
"Silicone Shampoo Hair Brush for Exfoliating and Head Massage, Wet & Dry, Scalp Massage Brush",https://www.indiamart.com/proddetail/silicone-shampoo-hair-brush-for-exfoliating-and-head-massage-wet-dry-scalp-massage-brush-2854704382697.html?pos=52&kwd=baby hair brushes&tags=||||8230.883|Price|product|||MDC|rsf:gd-|-stype:attr=1|qr_nm:gd|res:RC4|com-cf:nl|ptrs:na|ktp:N0|mc:98611|mtp:S|qry_typ:P|lang:en|wc:3|cs:8842|v=4,P G Impex,https://www.indiamart.com/pg-impex-surat/?pos=52&kwd=baby hair brushes&tags=||||8230.883|Price|product|||MDC|rsf:gd-|-stype:attr=1|qr_nm:gd|res:RC4|com-cf:nl|ptrs:na|ktp:N0|mc:98611|mtp:S|qry_typ:P|lang:en|wc:3|cs:8842|v=4,False,,Surat,"3rd Floor, 304, Sarjan Residency Wing-A, Sunganpor Road, Katargam, Surat - 395004, Dist.Surat, Gujarat",7949322822,
Silicone Hair Comb Brush,https://www.indiamart.com/proddetail/silicone-hair-comb-brush-2853927632091.html?pos=53&kwd=baby hair brushes&tags=||||8228.275|Price|product|||MDC|rsf:gd-|-stype:attr=1|qr_nm:gd|res:RC4|com-cf:nl|ptrs:na|ktp:N0|mc:98611|mtp:S|qry_typ:P|lang:en|wc:3|cs:8842|v=4,Kyara Creatives,https://www.indiamart.com/kyara-creatives/?pos=53&kwd=baby hair brushes&tags=||||8228.275|Price|product|||MDC|rsf:gd-|-stype:attr=1|qr_nm:gd|res:RC4|com-cf:nl|ptrs:na|ktp:N0|mc:98611|mtp:S|qry_typ:P|lang:en|wc:3|cs:8842|v=4,False,Nikol,Ahmedabad,"4th, I-402, Surbhi Residency, Nikol, Opp. Avkash Park, Nikol,, Nikol, Ahmedabad - 382350, Dist.Ahmedabad, Gujarat",8045168844,
Pink Baby Hair Brushes Cleaning Set,https://www.indiamart.com/proddetail/pink-baby-hair-brushes-cleaning-set-2852418792812.html?pos=54&kwd=baby hair brushes&tags=CC||||8211.142|Price|product|||NA|rsf:gd-|-stype:attr=1|qr_nm:gd|res:RC4|com-cf:nl|ptrs:na|ktp:N0|mc:98611|mtp:S|qry_typ:P|lang:en|wc:3|cs:8842|v=4,Baby World,https://www.indiamart.com/babyworlds/?pos=54&kwd=baby hair brushes&tags=CC||||8211.142|Price|product|||NA|rsf:gd-|-stype:attr=1|qr_nm:gd|res:RC4|com-cf:nl|ptrs:na|ktp:N0|mc:98611|mtp:S|qry_typ:P|lang:en|wc:3|cs:8842|v=4,False,,Mumbai,"Groung Floor, Shop No 4-A, 37, Hawa Mansion, Shaikh Memon Street, Pinjara Street, Mandvi, Mumbai - 400003, Dist.Mumbai, Maharashtra",8048981354,
Baby Hair Brush,https://www.indiamart.com/proddetail/baby-hair-brush-21240032133.html?pos=55&kwd=baby hair brushes&tags=CC||||8211.142|Price|product|||NA|rsf:gd-|-stype:attr=1|qr_nm:gd|res:RC4|com-cf:nl|ptrs:na|ktp:N0|mc:98611|mtp:S|qry_typ:P|lang:en|wc:3|cs:8842|v=4,Sai Kiran Enterprises,https://www.indiamart.com/sai-kiran-entps/?pos=55&kwd=baby hair brushes&tags=CC||||8211.142|Price|product|||NA|rsf:gd-|-stype:attr=1|qr_nm:gd|res:RC4|com-cf:nl|ptrs:na|ktp:N0|mc:98611|mtp:S|qry_typ:P|lang:en|wc:3|cs:8842|v=4,False,,Mumbai,"Gala No. 6, Pooja Garage, Goregaon East, Mumbai - 400063, Dist.Mumbai, Maharashtra",8043878455,
"Baby Hair Brush Comb, Newly Born",,Royal Enterprises,https://www.indiamart.com/royalenterprises-95911176/?pos=56&kwd=baby hair brushes&tags=CC||||8752.144|Price|product|||NA|rsf:gd-|-stype:attr=1|qr_nm:gd|res:RC4|com-cf:nl|ptrs:na|ktp:N0|mc:98611|mtp:S|qry_typ:P|lang:en|wc:3|cs:8842|v=4,False,,New Delhi,"Qutab Road,Delhi Sadar Bazar,110006,Delhi, New Delhi - 110031, Dist.Delhi, Delhi",8047664321,
Baby Hair Brush & Comb,,Bonne Care Private Limited,https://www.indiamart.com/bonne-care/?pos=57&kwd=baby hair brushes&tags=CC||||8752.144||product|||NA|rsf:gd-|-stype:attr=1|qr_nm:gd|res:RC4|com-cf:nl|ptrs:na|ktp:N0|mc:98611|mtp:S|qry_typ:P|lang:en|wc:3|cs:8842|v=4,False,,New Delhi,"No. 48, SSI Industrial Co Operative Estate, GT Karnal Road, New Delhi - 110033, Dist.Delhi, Delhi",8048361296,864
Private Label Free Sample Hair Glue Brush Hair Gel 3 In 1 Waterproof Baby Hair,https://www.indiamart.com/proddetail/private-label-free-sample-hair-glue-brush-hair-gel-3-in-1-waterproof-baby-hair-2853305071533.html?pos=58&kwd=baby hair brushes&tags=CC||||8601.347|Price|product|||NA|rsf:gd-|-stype:attr=1|qr_nm:gd|res:RC4|com-cf:nl|ptrs:na|ktp:N0|mc:98611|mtp:S|qry_typ:P|lang:en|wc:3|cs:8842|v=4,Beauty Products,https://www.indiamart.com/beauty-products-jaipur/?pos=58&kwd=baby hair brushes&tags=CC||||8601.347|Price|product|||NA|rsf:gd-|-stype:attr=1|qr_nm:gd|res:RC4|com-cf:nl|ptrs:na|ktp:N0|mc:98611|mtp:S|qry_typ:P|lang:en|wc:3|cs:8842|v=4,False,,Jaipur,"patrakar clony new sangner road maansarovar, Jaipur - 302020, Dist.Jaipur, Rajasthan",8069196706,675
"12572 Cartoon Hair Brush Massage Shower Comb Blur Wet Salon Hair Brushes Hair Styling Tools, Glitter Comb, Soft & Smooth Brush, Mermaid Brush For Kids Return Gifts For Kids (1 Pc )",https://www.indiamart.com/proddetail/12572-cartoon-hair-brush-massage-shower-comb-blur-wet-salon-hair-brushes-hair-styling-tools-glitter-comb-soft-smooth-brush-mermaid-brush-for-kids-return-gifts-for-kids-1-pc-2854457439688.html?pos=59&kwd=baby hair brushes&tags=CC||||8786.56|Price|product|||FCPE|rsf:gd-|-stype:attr=1|qr_nm:gd|res:RC4|com-cf:nl|ptrs:na|ktp:N0|mc:98611|mtp:S|qry_typ:P|lang:en|wc:3|cs:8842|v=4,Jaatara,https://www.indiamart.com/company/225931792/?pos=59&kwd=baby hair brushes&tags=CC||||8786.56|Price|product|||FCPE|rsf:gd-|-stype:attr=1|qr_nm:gd|res:RC4|com-cf:nl|ptrs:na|ktp:N0|mc:98611|mtp:S|qry_typ:P|lang:en|wc:3|cs:8842|v=4,False,,Cyberabad,"8-4-376/22, New Shastri Nagar Erragadda, Hyderabad - 500018 Telangana, Cyberabad - 500018, Dist.Hyderabad, Andhra Pradesh",,
"12572 Cartoon Hair Brush Massage Shower Comb Blur Wet Salon Hair Brushes Hair Styling Tools, Glitter Comb, Soft & Smooth Brush, Mermaid Brush For Kids Return Gifts For Kids (1 Pc )",https://www.indiamart.com/proddetail/12572-cartoon-hair-brush-massage-shower-comb-blur-wet-salon-hair-brushes-hair-styling-tools-glitter-comb-soft-smooth-brush-mermaid-brush-for-kids-return-gifts-for-kids-1-pc-2854348518955.html?pos=60&kwd=baby hair brushes&tags=CC||||8706.587|Price|product|||NA|rsf:gd-|-stype:attr=1|qr_nm:gd|res:RC4|com-cf:nl|ptrs:na|ktp:N0|mc:98611|mtp:S|qry_typ:P|lang:en|wc:3|cs:8842|v=4,offersonlineshop.in,https://www.indiamart.com/offersonlineshopin/?pos=60&kwd=baby hair brushes&tags=CC||||8706.587|Price|product|||NA|rsf:gd-|-stype:attr=1|qr_nm:gd|res:RC4|com-cf:nl|ptrs:na|ktp:N0|mc:98611|mtp:S|qry_typ:P|lang:en|wc:3|cs:8842|v=4,False,,Madurai,"Pin code :- 625514 City :- madurai State :- tamilnadu madurai 625514 Tamil Nadu, Madurai - 625514, Dist.Madurai, Tamil Nadu",,
Scarlet Line Professional Small Wooden Flat Baby Hair Brush with Back Side Mirror for Children,https://www.indiamart.com/proddetail/scarlet-line-professional-small-wooden-flat-baby-hair-brush-with-back-side-mirror-for-children-22250819848.html?pos=61&kwd=baby hair brushes&tags=CB||||8228.275|Price|product|||NA|rsf:gd-|-stype:attr=1|qr_nm:gd|res:RC4|com-cf:nl|ptrs:na|ktp:N0|mc:98611|mtp:S|qry_typ:P|lang:en|wc:3|cs:8842|v=4,Instyle,https://www.indiamart.com/instyle-ahmedabad/?pos=61&kwd=baby hair brushes&tags=CB||||8228.275|Price|product|||NA|rsf:gd-|-stype:attr=1|qr_nm:gd|res:RC4|com-cf:nl|ptrs:na|ktp:N0|mc:98611|mtp:S|qry_typ:P|lang:en|wc:3|cs:8842|v=4,False,Relief Road,Ahmedabad,"2787/1, Nisha Pole Naka, Zaveriwad Gate, Relief Road, Ahmedabad - 380001, Dist.Ahmedabad, Gujarat",8047668753,
Baby Comb Brush,https://www.indiamart.com/proddetail/baby-comb-brush-23417195973.html?pos=62&kwd=baby hair brushes&tags=CC||||9829.308|Price|product|||NA|rsf:gd-|-stype:attr=1|qr_nm:gd|res:RC4|com-cf:nl|ptrs:na|ktp:N0|mc:98611|mtp:S|qry_typ:P|lang:en|wc:3|cs:8842|v=4,M/ S Naughty Baby Products,https://www.indiamart.com/naughty-baby-products/?pos=62&kwd=baby hair brushes&tags=CC||||9829.308|Price|product|||NA|rsf:gd-|-stype:attr=1|qr_nm:gd|res:RC4|com-cf:nl|ptrs:na|ktp:N0|mc:98611|mtp:S|qry_typ:P|lang:en|wc:3|cs:8842|v=4,False,Salkia,Howrah,"6, Kolu Para Lane, Salkia, Salkia, Howrah - 711106, Dist.Howrah, West Bengal",8048372620,444
Chicco - Brush & Comb,https://www.indiamart.com/proddetail/chicco-brush-comb-4633175088.html?pos=63&kwd=baby hair brushes&tags=CC||||8954.051||product|||NA|rsf:gd-|-stype:attr=1|qr_nm:gd|res:RC4|com-cf:nl|ptrs:na|ktp:N0|mc:98611|mtp:S|qry_typ:P|lang:en|wc:3|cs:8842|v=4,Best Baby Shop,https://www.indiamart.com/bestbaby-shop/?pos=63&kwd=baby hair brushes&tags=CC||||8954.051||product|||NA|rsf:gd-|-stype:attr=1|qr_nm:gd|res:RC4|com-cf:nl|ptrs:na|ktp:N0|mc:98611|mtp:S|qry_typ:P|lang:en|wc:3|cs:8842|v=4,False,Anna Nagar,Chennai,"New No. 23/1, 3362 K, AE Block, 8th Street, Annanagar Post Office, Anna Nagar West, Anna Nagar, Chennai - 600040, Dist.Chennai, Tamil Nadu",8048372379,303
Plastic Baby Hair Brush Comb,https://www.indiamart.com/proddetail/baby-hair-brush-comb-26427985288.html?pos=64&kwd=baby hair brushes&tags=CC||||8915.672||product|||NA|rsf:gd-|-stype:attr=1|qr_nm:gd|res:RC4|com-cf:nl|ptrs:na|ktp:N0|mc:98611|mtp:S|qry_typ:P|lang:en|wc:3|cs:8842|v=4,The Little Lookers,https://www.indiamart.com/thelittlelookers-moradabad/?pos=64&kwd=baby hair brushes&tags=CC||||8915.672||product|||NA|rsf:gd-|-stype:attr=1|qr_nm:gd|res:RC4|com-cf:nl|ptrs:na|ktp:N0|mc:98611|mtp:S|qry_typ:P|lang:en|wc:3|cs:8842|v=4,False,,Moradabad,"4-B-145, Buddhi Vihar Yozna Mbd, Moradabad - 244001, Dist.Moradabad, Uttar Pradesh",8047655658,
Black Plastic Zodiac Hair Dey Brush Comb,https://www.indiamart.com/proddetail/zodiac-hair-dey-brush-comb-2851581552162.html?pos=65&kwd=baby hair brushes&tags=CC||||8559.269|Price|product|||NA|rsf:gd-|-stype:attr=1|qr_nm:gd|res:RC4|com-cf:nl|ptrs:na|ktp:N0|mc:98611|mtp:S|qry_typ:P|lang:en|wc:3|cs:8842|v=4,New Satish General Store,https://www.indiamart.com/newsatish-generalstore/?pos=65&kwd=baby hair brushes&tags=CC||||8559.269|Price|product|||NA|rsf:gd-|-stype:attr=1|qr_nm:gd|res:RC4|com-cf:nl|ptrs:na|ktp:N0|mc:98611|mtp:S|qry_typ:P|lang:en|wc:3|cs:8842|v=4,False,Ram Bagh,Indore,"15,3, Jawahar Marg, Ram Bagh, Indore - 452007, Dist.Indore, Madhya Pradesh",8048979581,
Adjustable Safe Soft Bathing Baby Shower Cap Wash Hair for Children Baby,https://www.indiamart.com/proddetail/adjustable-safe-soft-bathing-baby-shower-cap-wash-hair-for-children-baby-2854150098112.html?pos=66&kwd=baby hair brushes&tags=||||8230.883|Price|product|||TS|rsf:gd-|-stype:attr=1|qr_nm:gd|res:RC4|com-cf:nl|ptrs:na|ktp:N0|mc:98611|mtp:S|qry_typ:P|lang:en|wc:3|cs:8842|v=4,Manisha Enterprise,https://www.indiamart.com/manishaenterprisesurat/?pos=66&kwd=baby hair brushes&tags=||||8230.883|Price|product|||TS|rsf:gd-|-stype:attr=1|qr_nm:gd|res:RC4|com-cf:nl|ptrs:na|ktp:N0|mc:98611|mtp:S|qry_typ:P|lang:en|wc:3|cs:8842|v=4,False,Amroli,Surat,"GF C-75, Somnath Adarshnagar 1, Chprabhata Road, Amroli, Amroli, Surat - 394107, Dist.Surat, Gujarat",7949372906,
Baby Shower Cap Wash Hair For Children Baby Eye Ear Protector Adjustable Leaves Shape,https://www.indiamart.com/proddetail/baby-shower-cap-wash-hair-for-children-baby-eye-ear-protector-adjustable-leaves-shape-23013574612.html?pos=67&kwd=baby hair brushes&tags=||||8211.142|Price|product|||TS|rsf:gd-|-stype:attr=1|qr_nm:gd|res:RC4|com-cf:nl|ptrs:na|ktp:N0|mc:98611|mtp:S|qry_typ:P|lang:en|wc:3|cs:8842|v=4,Alino Collection,https://www.alinocollection.com/?pos=67&kwd=baby hair brushes&tags=||||8211.142|Price|product|||TS|rsf:gd-|-stype:attr=1|qr_nm:gd|res:RC4|com-cf:nl|ptrs:na|ktp:N0|mc:98611|mtp:S|qry_typ:P|lang:en|wc:3|cs:8842|v=4,False,Santacruz East,Mumbai,"Shop no 505, Building No 11, Motilal Nehru Nagar,Bandra BKC, Bandra East, Santacruz East, Mumbai - 400098, Dist.Mumbai, Maharashtra",8048970663,
"Baby shower capSoft Baby Shower Cap, Baby Bath Cap For Kids And Children Protection Of Hair & Ears",https://www.indiamart.com/proddetail/baby-shower-capsoft-baby-shower-cap-baby-bath-cap-for-kids-and-children-protection-of-hair-ears-2854140260630.html?pos=68&kwd=baby hair brushes&tags=||||8954.051|Price|product|||MDC|rsf:gd-|-stype:attr=1|qr_nm:gd|res:RC4|com-cf:nl|ptrs:na|ktp:N0|mc:98611|mtp:S|qry_typ:P|lang:en|wc:3|cs:8842|v=4,Munmur E Ventures,https://www.indiamart.com/munmur-e-ventureschennai/?pos=68&kwd=baby hair brushes&tags=||||8954.051|Price|product|||MDC|rsf:gd-|-stype:attr=1|qr_nm:gd|res:RC4|com-cf:nl|ptrs:na|ktp:N0|mc:98611|mtp:S|qry_typ:P|lang:en|wc:3|cs:8842|v=4,False,Ponniammanmedu,Chennai,"No.97, Poongavanam Thootam, Periya Salai, Ponniammanmedu, Ponniammanmedu, Chennai - 600110, Dist.Chennai, Tamil Nadu",8044564242,
Adjustable Safe Soft Bathing Baby Shower Cap Wash Hair For Children Baby Eye Ear,https://www.indiamart.com/proddetail/adjustable-safe-soft-bathing-baby-shower-cap-wash-hair-for-children-baby-eye-ear-25408401297.html?pos=69&kwd=baby hair brushes&tags=||||8752.144|Price|product|||MDC|rsf:gd-|-stype:attr=1|qr_nm:gd|res:RC4|com-cf:nl|ptrs:na|ktp:N0|mc:98611|mtp:S|qry_typ:P|lang:en|wc:3|cs:8842|v=4,Vakil Cloth House,https://www.indiamart.com/vakilclothhouse/?pos=69&kwd=baby hair brushes&tags=||||8752.144|Price|product|||MDC|rsf:gd-|-stype:attr=1|qr_nm:gd|res:RC4|com-cf:nl|ptrs:na|ktp:N0|mc:98611|mtp:S|qry_typ:P|lang:en|wc:3|cs:8842|v=4,False,Govindpuri,New Delhi,"1731/5, Shop No-3, Govindpuri Extension, Govindpuri, New Delhi - 110019, Dist.Delhi, Delhi",8047633407,
Adjustable Baby Shower Cap New Soft Bathing Baby Wash Hair Eye Ear Protector Hat-baby bath cap,https://www.indiamart.com/proddetail/adjustable-baby-shower-cap-new-soft-bathing-baby-wash-hair-eye-ear-protector-hat-baby-bath-cap-21638976833.html?pos=70&kwd=baby hair brushes&tags=||||8230.883|Price|product|||MDC|rsf:gd-|-stype:attr=1|qr_nm:gd|res:RC4|com-cf:nl|ptrs:na|ktp:N0|mc:98611|mtp:S|qry_typ:P|lang:en|wc:3|cs:8842|v=4,Unique Buyer,https://www.indiamart.com/unique-buyer/?pos=70&kwd=baby hair brushes&tags=||||8230.883|Price|product|||MDC|rsf:gd-|-stype:attr=1|qr_nm:gd|res:RC4|com-cf:nl|ptrs:na|ktp:N0|mc:98611|mtp:S|qry_typ:P|lang:en|wc:3|cs:8842|v=4,False,Katargam,Surat,"C 25 shaymdham soc, opp archana soc,near vijayraj circal, Singanpore,, Katargam, Surat - 395004, Dist.Surat, Gujarat",7942544685,
"Baby Shower Cap: Clean Hair for Kids, Adjustable Eye and Ear Protection (Multi-Color)",https://www.indiamart.com/proddetail/baby-shower-cap-clean-hair-for-kids-adjustable-eye-and-ear-protection-multi-color-2854983273533.html?pos=71&kwd=baby hair brushes&tags=||||8663.873|Price|product|||MDC|rsf:gd-|-stype:attr=1|qr_nm:gd|res:RC4|com-cf:nl|ptrs:na|ktp:N0|mc:98611|mtp:S|qry_typ:P|lang:en|wc:3|cs:8842|v=4,Nipika Vrapped Gifting,https://www.indiamart.com/nipika-vrapped-gifting/?pos=71&kwd=baby hair brushes&tags=||||8663.873|Price|product|||MDC|rsf:gd-|-stype:attr=1|qr_nm:gd|res:RC4|com-cf:nl|ptrs:na|ktp:N0|mc:98611|mtp:S|qry_typ:P|lang:en|wc:3|cs:8842|v=4,False,Bengaluru Urban,Bengaluru,"9/1, 23rd Cross Road, Magadi Road, KP Agrahara, Bengaluru Urban, Bengaluru - 560023, Dist.Bengaluru, Karnataka",7949328723,
varni sales foam Rubber Kids Adjustable Shower Cap For Wash Hair,https://www.indiamart.com/proddetail/rubber-kids-adjustable-shower-cap-for-wash-hair-2849620640412.html?pos=72&kwd=baby hair brushes&tags=||||8230.883|Price|product|||TS|rsf:gd-|-stype:attr=1|qr_nm:gd|res:RC4|com-cf:nl|ptrs:na|ktp:N0|mc:98611|mtp:S|qry_typ:P|lang:en|wc:3|cs:8842|v=4,Varni Sales,https://www.indiamart.com/varnisales/?pos=72&kwd=baby hair brushes&tags=||||8230.883|Price|product|||TS|rsf:gd-|-stype:attr=1|qr_nm:gd|res:RC4|com-cf:nl|ptrs:na|ktp:N0|mc:98611|mtp:S|qry_typ:P|lang:en|wc:3|cs:8842|v=4,False,Punagam,Surat,"117, Chamunda Nagar Society, Bombay Market, Punagam, Punagam, Surat - 395010, Dist.Surat, Gujarat",7942788932,
Multicolor Baby Nail Trimmer Electric Safe Baby Nail Clippers Manicure Set,https://www.indiamart.com/proddetail/baby-nail-trimmer-electric-safe-baby-nail-clippers-manicure-set-2852852824933.html?pos=73&kwd=baby hair brushes&tags=||||8584.299|Price|product|||TS|rsf:gd-|-stype:attr=1|qr_nm:gd|res:RC4|com-cf:nl|ptrs:na|ktp:N0|mc:98611|mtp:S|qry_typ:P|lang:en|wc:3|cs:8842|v=4,BKH Enterprises,https://www.bkhenterprises.net/?pos=73&kwd=baby hair brushes&tags=||||8584.299|Price|product|||TS|rsf:gd-|-stype:attr=1|qr_nm:gd|res:RC4|com-cf:nl|ptrs:na|ktp:N0|mc:98611|mtp:S|qry_typ:P|lang:en|wc:3|cs:8842|v=4,False,Annai Indra Nagar,Coimbatore,"45,West Subramaniam Street,RS Puram, Annai Indra Nagar, Coimbatore - 641001, Dist.Coimbatore, Tamil Nadu",8046066722,
"Polythene Plain Disposable Shower Cap, Size: 18 Inch",https://www.indiamart.com/proddetail/disposable-shower-cap-19778647830.html?pos=74&kwd=baby hair brushes&tags=||||8752.144|Price|product|||TS|rsf:gd-|-stype:attr=1|qr_nm:gd|res:RC4|com-cf:nl|ptrs:na|ktp:N0|mc:98611|mtp:S|qry_typ:P|lang:en|wc:3|cs:8842|v=4,JSR Amenities Private Limited,https://www.jsramenities.com/?pos=74&kwd=baby hair brushes&tags=||||8752.144|Price|product|||TS|rsf:gd-|-stype:attr=1|qr_nm:gd|res:RC4|com-cf:nl|ptrs:na|ktp:N0|mc:98611|mtp:S|qry_typ:P|lang:en|wc:3|cs:8842|v=4,False,Rohini Sector 4,New Delhi,"A-2/21, 22, First Floor, Sector 11, Rohini Sector 4, New Delhi - 110085, Dist.Delhi, Delhi",8048954277,
"White Himalaya Baby Massage Oil, Packaging Type: Bottle, Packaging Size: 500 ml",https://www.indiamart.com/proddetail/himalaya-baby-massage-oil-2852153529530.html?pos=75&kwd=baby hair brushes&tags=||||8752.144|Price|product|||MDC|rsf:gd-|-stype:attr=1|qr_nm:gd|res:RC4|com-cf:nl|ptrs:na|ktp:N0|mc:98611|mtp:S|qry_typ:P|lang:en|wc:3|cs:8842|v=4,Shree Enterprises,https://www.indiamart.com/shree-enterprises-krishnanagar/?pos=75&kwd=baby hair brushes&tags=||||8752.144|Price|product|||MDC|rsf:gd-|-stype:attr=1|qr_nm:gd|res:RC4|com-cf:nl|ptrs:na|ktp:N0|mc:98611|mtp:S|qry_typ:P|lang:en|wc:3|cs:8842|v=4,False,Krishna Nagar,New Delhi,"2/1, Krishna Nagar, New Layalpur Colony, East Delhi, Krishna Nagar, New Delhi - 110051, Dist.Delhi, Delhi",7942709132,
Pink Plastic Unicorn and princes hair brush,https://www.indiamart.com/proddetail/unicorn-and-princes-hair-brush-2851314117955.html?pos=76&kwd=baby hair brushes&tags=CC||||8752.144||product|||NA|rsf:gd-|-stype:attr=1|qr_nm:gd|res:RC4|com-cf:nl|ptrs:na|ktp:N0|mc:98611|mtp:S|qry_typ:P|lang:en|wc:3|cs:8842|v=4,Dabkiya Jewellery,https://www.indiamart.com/dabkiya-jewellery-delhi/?pos=76&kwd=baby hair brushes&tags=CC||||8752.144||product|||NA|rsf:gd-|-stype:attr=1|qr_nm:gd|res:RC4|com-cf:nl|ptrs:na|ktp:N0|mc:98611|mtp:S|qry_typ:P|lang:en|wc:3|cs:8842|v=4,False,,New Delhi,"Kh No. 11/19 House No.18 Shiv Ram Park Extn,Nangloi,New Delhi, West Delhi, New Delhi - 110041, Dist.Delhi, Delhi",8046076586,
Maroon Beauty Parlour hair Brush,https://www.indiamart.com/proddetail/beauty-parlour-hair-brush-23303859473.html?pos=77&kwd=baby hair brushes&tags=CC||||9849.786|Price|product|||NA|rsf:gd-|-stype:attr=1|qr_nm:gd|res:RC4|com-cf:nl|ptrs:na|ktp:N0|mc:98611|mtp:S|qry_typ:P|lang:en|wc:3|cs:8842|v=4,Bharat Brush And Comb,https://www.indiamart.com/bharatbrushcomb/?pos=77&kwd=baby hair brushes&tags=CC||||9849.786|Price|product|||NA|rsf:gd-|-stype:attr=1|qr_nm:gd|res:RC4|com-cf:nl|ptrs:na|ktp:N0|mc:98611|mtp:S|qry_typ:P|lang:en|wc:3|cs:8842|v=4,False,South 24 Parganas,Amtala,"Chak Borhanpur, Chandandaha , Bishnupur, South 24 Parganas, Amtala - 743503, Dist.Murshidabad, West Bengal",8043861446,
Blue Plastic Baby Comb And Brush Set,https://www.indiamart.com/proddetail/baby-comb-and-brush-set-2850164014830.html?pos=78&kwd=baby hair brushes&tags=CC||||8331.224|Price|product|||NA|rsf:gd-|-stype:attr=1|qr_nm:gd|res:RC4|com-cf:nl|ptrs:na|ktp:N0|mc:98611|mtp:S|qry_typ:P|lang:en|wc:3|cs:8842|v=4,Minakshi Garments,https://www.indiamart.com/minakshi-garments-kolhapur/?pos=78&kwd=baby hair brushes&tags=CC||||8331.224|Price|product|||NA|rsf:gd-|-stype:attr=1|qr_nm:gd|res:RC4|com-cf:nl|ptrs:na|ktp:N0|mc:98611|mtp:S|qry_typ:P|lang:en|wc:3|cs:8842|v=4,False,Tarabai Park,Kolhapur,"Gala No 14 B Parvati Plaza, Main Market Road Swastik Market, Gandhinagar, Tarabai Park, Kolhapur - 416119, Dist.Kolhapur, Maharashtra",7942670858,
100 % Pure Goat Bristle Baby Hair Brush...,,Brush India Online,https://www.indiamart.com/brush-india-online/?pos=79&kwd=baby hair brushes&tags=||||9839.57|Price|product|||NA|rsf:gd-|-stype:attr=1|qr_nm:gd|res:RC4|com-cf:nl|ptrs:na|ktp:N0|mc:98611|mtp:S|qry_typ:P|lang:en|wc:3|cs:8842|v=4,False,Bishnupur,Kolkata,"Chak Burhanpur, Bishnupur, Bishnupur, Kolkata - 743503, Dist.Kolkata, West Bengal",8062245146,773
"Aflipshop Fitlift Scalp Massager Shampoo Brush, Soft Silicone Baby Hair Brush Scalp Scrubber For Baby Bath, Hair Care,",https://www.indiamart.com/proddetail/aflipshop-fitlift-scalp-massager-shampoo-brush-soft-silicone-baby-hair-brush-scalp-scrubber-for-baby-bath-hair-care-2853838044862.html?pos=80&kwd=baby hair brushes&tags=||||8752.144|Price|product|||NA|rsf:gd-|-stype:attr=1|qr_nm:gd|res:RC4|com-cf:nl|ptrs:na|ktp:N0|mc:98611|mtp:S|qry_typ:P|lang:en|wc:3|cs:8842|v=4,Aflipshop,https://www.indiamart.com/aflipshopin/?pos=80&kwd=baby hair brushes&tags=||||8752.144|Price|product|||NA|rsf:gd-|-stype:attr=1|qr_nm:gd|res:RC4|com-cf:nl|ptrs:na|ktp:N0|mc:98611|mtp:S|qry_typ:P|lang:en|wc:3|cs:8842|v=4,False,,New Delhi,"P-9, C/o Innovative E Business Service Llp Mayur Vihar Phase 1 Jp Complex New Delhi, New Delhi - 110091, Dist.Delhi, Delhi",,
Esmi Unicorn Hair Brushes-unicorn Star Shaped Novelty Glittery Star Brush Comb Hairbrush For Kid,https://www.indiamart.com/proddetail/esmi-unicorn-hair-brushes-unicorn-star-shaped-novelty-glittery-star-brush-comb-hairbrush-for-kid-24160658248.html?pos=81&kwd=baby hair brushes&tags=||||8741.812|Price|product|||NA|rsf:gd-|-stype:attr=1|qr_nm:gd|res:RC4|com-cf:nl|ptrs:na|ktp:N0|mc:98611|mtp:S|qry_typ:P|lang:en|wc:3|cs:8842|v=4,Esmehar Enterprises,https://www.indiamart.com/esmehar-enterprises/?pos=81&kwd=baby hair brushes&tags=||||8741.812|Price|product|||NA|rsf:gd-|-stype:attr=1|qr_nm:gd|res:RC4|com-cf:nl|ptrs:na|ktp:N0|mc:98611|mtp:S|qry_typ:P|lang:en|wc:3|cs:8842|v=4,False,Sector 107,Gurugram,"UG 16 , Solera Signum Complex, Sector 107, Gurugram - 122006, Dist.Gurgaon, Haryana",8047686556,
"Multicolor Plastic Hair Scalp Massager Shampoo Brush, Shower Hair Brush",https://www.indiamart.com/proddetail/hair-scalp-massager-shampoo-brush-shower-hair-brush-2851885805555.html?pos=82&kwd=baby hair brushes&tags=||||8038.093|Price|product|||TS|rsf:gd-|-stype:attr=1|qr_nm:gd|res:RC4|com-cf:nl|ptrs:na|ktp:N0|mc:98611|mtp:S|qry_typ:P|lang:en|wc:3|cs:8842|v=4,Khodal Enterprise,https://www.indiamart.com/khodalenterprise-rajkot-india/?pos=82&kwd=baby hair brushes&tags=||||8038.093|Price|product|||TS|rsf:gd-|-stype:attr=1|qr_nm:gd|res:RC4|com-cf:nl|ptrs:na|ktp:N0|mc:98611|mtp:S|qry_typ:P|lang:en|wc:3|cs:8842|v=4,False,Vavdi,Rajkot,"Shad No 2 Plot No 7, Vavdi Industrial Area, Rajkot Gondal Road, Nr Om Casting, Vavdi, Rajkot - 360004, Dist.Rajkot, Gujarat",8048267986,
"Glam Locks Black And Pink Loop Hair Brush, For Personal,Parlour",https://www.indiamart.com/proddetail/loop-hair-brush-19153810388.html?pos=83&kwd=baby hair brushes&tags=||||8752.144|Price|product|||TS|rsf:gd-|-stype:attr=1|qr_nm:gd|res:RC4|com-cf:nl|ptrs:na|ktp:N0|mc:98611|mtp:S|qry_typ:P|lang:en|wc:3|cs:8842|v=4,Glam Locks,https://www.indiamart.com/glam-locks-hair-extensions/?pos=83&kwd=baby hair brushes&tags=||||8752.144|Price|product|||TS|rsf:gd-|-stype:attr=1|qr_nm:gd|res:RC4|com-cf:nl|ptrs:na|ktp:N0|mc:98611|mtp:S|qry_typ:P|lang:en|wc:3|cs:8842|v=4,False,Pitampura,New Delhi,"CP-212, Maurya Enclave, Pitampura, New Delhi - 110034, Dist.Delhi, Delhi",8046058776,
Plastic Hair Scalp Massager Shampoo Brush,https://www.indiamart.com/proddetail/hair-scalp-massager-shampoo-brush-24266743455.html?pos=84&kwd=baby hair brushes&tags=||||8038.093|Price|product|||TS|rsf:gd-|-stype:attr=1|qr_nm:gd|res:RC4|com-cf:nl|ptrs:na|ktp:N0|mc:98611|mtp:S|qry_typ:P|lang:en|wc:3|cs:8842|v=4,Abhi Group,https://www.abhigroups.com/?pos=84&kwd=baby hair brushes&tags=||||8038.093|Price|product|||TS|rsf:gd-|-stype:attr=1|qr_nm:gd|res:RC4|com-cf:nl|ptrs:na|ktp:N0|mc:98611|mtp:S|qry_typ:P|lang:en|wc:3|cs:8842|v=4,True,Vavdi,Rajkot,"Word No.1, City Survey No.536, -, Ganpati Temple Street, Paddhari, Rajkot, Vavdi, Rajkot - 360110, Dist.Rajkot, Gujarat",8046067039,
White Wooden Paddle Hair Brush,https://www.indiamart.com/proddetail/wooden-paddle-hair-brush-2853067146533.html?pos=85&kwd=baby hair brushes&tags=||||8752.144|Price|product|||TS|rsf:gd-|-stype:attr=1|qr_nm:gd|res:RC4|com-cf:nl|ptrs:na|ktp:N0|mc:98611|mtp:S|qry_typ:P|lang:en|wc:3|cs:8842|v=4,Tora Creations,https://www.toracreations.com/?pos=85&kwd=baby hair brushes&tags=||||8752.144|Price|product|||TS|rsf:gd-|-stype:attr=1|qr_nm:gd|res:RC4|com-cf:nl|ptrs:na|ktp:N0|mc:98611|mtp:S|qry_typ:P|lang:en|wc:3|cs:8842|v=4,False,Laxmi Nagar,New Delhi,"No. 62-A, Vishwakarma Park, Near Police Station Shakar Pur, Laxmi Nagar, Laxmi Nagar, New Delhi - 110092, Dist.Delhi, Delhi",8048983022,
Wooden Pure Hair Hog Brush,https://www.indiamart.com/proddetail/pure-hair-hog-brush-2850614525388.html?pos=86&kwd=baby hair brushes&tags=||||9733.042|Price|product|||MDC|rsf:gd-|-stype:attr=1|qr_nm:gd|res:RC4|com-cf:nl|ptrs:na|ktp:N0|mc:98611|mtp:S|qry_typ:P|lang:en|wc:3|cs:8842|v=4,Mondal Trading Co.,https://www.indiamart.com/mondal-trading-co/?pos=86&kwd=baby hair brushes&tags=||||9733.042|Price|product|||MDC|rsf:gd-|-stype:attr=1|qr_nm:gd|res:RC4|com-cf:nl|ptrs:na|ktp:N0|mc:98611|mtp:S|qry_typ:P|lang:en|wc:3|cs:8842|v=4,False,Kanyanagar,Bishnupur,"Amtala, Kanyanagar, Bishnpur, Amtala , South Twenty Four Parganas, Kanyanagar, Bishnupur - 743503, Dist.South 24 Parganas, West Bengal",8047784558,
Pink Round Hair Brush,https://www.indiamart.com/proddetail/pink-round-hair-brush-2854358404888.html?pos=87&kwd=baby hair brushes&tags=||||8752.144|Price|product|||MDC|rsf:gd-|-stype:attr=1|qr_nm:gd|res:RC4|com-cf:nl|ptrs:na|ktp:N0|mc:98611|mtp:S|qry_typ:P|lang:en|wc:3|cs:8842|v=4,Shiv Shakti Enterprises,https://www.indiamart.com/shivshaktienterpriseseastdelhi/?pos=87&kwd=baby hair brushes&tags=||||8752.144|Price|product|||MDC|rsf:gd-|-stype:attr=1|qr_nm:gd|res:RC4|com-cf:nl|ptrs:na|ktp:N0|mc:98611|mtp:S|qry_typ:P|lang:en|wc:3|cs:8842|v=4,False,New Delhi,New Delhi,"Gali No 19 D-15 Plot No 44 Ground Floor Madhu Vihar Block D East, New Delhi, New Delhi - 110092, Dist.Delhi, Delhi",7949336971,
"Hair scalp massager for hair growth with Black, Waterproof Head Massage",https://www.indiamart.com/proddetail/hair-scalp-massager-for-hair-growth-with-black-waterproof-head-massage-2854493193930.html?pos=88&kwd=baby hair brushes&tags=||||8211.142|Price|product|||MDC|rsf:gd-|-stype:attr=1|qr_nm:gd|res:RC4|com-cf:nl|ptrs:na|ktp:N0|mc:98611|mtp:S|qry_typ:P|lang:en|wc:3|cs:8842|v=4,Dreamy Cosmetic Boutique,https://www.indiamart.com/dreamycosmeticboutique/?pos=88&kwd=baby hair brushes&tags=||||8211.142|Price|product|||MDC|rsf:gd-|-stype:attr=1|qr_nm:gd|res:RC4|com-cf:nl|ptrs:na|ktp:N0|mc:98611|mtp:S|qry_typ:P|lang:en|wc:3|cs:8842|v=4,False,Mumbai,Mumbai,"R No 4, Bhusare CHS, Sub Station S N Dube Kokni Pada Jansampark Karyalaya, Dahisar East, Mumbai Suburban, Mumbai, Mumbai - 400068, Dist.Mumbai, Maharashtra",7949329212,
"Mitsico Adjustable Safe Shampoo Shower Bathing Protection Bath Cap For Toddler, Baby, Kids, Children",https://www.indiamart.com/proddetail/mitsico-adjustable-safe-shampoo-shower-bathing-protection-bath-cap-for-toddler-baby-kids-children-26000143448.html?pos=89&kwd=baby hair brushes&tags=||||8230.883|Price|product|||TS|rsf:gd-|-stype:attr=1|qr_nm:gd|res:RC4|com-cf:nl|ptrs:na|ktp:N0|mc:98611|mtp:S|qry_typ:P|lang:en|wc:3|cs:8842|v=4,Mitsico,https://www.mitsico.in/?pos=89&kwd=baby hair brushes&tags=||||8230.883|Price|product|||TS|rsf:gd-|-stype:attr=1|qr_nm:gd|res:RC4|com-cf:nl|ptrs:na|ktp:N0|mc:98611|mtp:S|qry_typ:P|lang:en|wc:3|cs:8842|v=4,False,KATARGAM,Surat,"Basement-1, Shop No.- A1, Sunday Hub Shopping Center, Amba Talavadi, Opp. Shree Vinayak Residency, KATARGAM, Surat - 395004, Dist.Surat, Gujarat",8047649165,
Black Plastic Parag Hair Dye Brush,https://www.indiamart.com/proddetail/parag-hair-dye-brush-25367613433.html?pos=90&kwd=baby hair brushes&tags=||||9045.955|Price|product|||MDC|rsf:gd-|-stype:attr=1|qr_nm:gd|res:RC4|com-cf:nl|ptrs:na|ktp:N0|mc:98611|mtp:S|qry_typ:P|lang:en|wc:3|cs:8842|v=4,Neelam Plastic Industries,https://www.indiamart.com/neelam-plastic-industries/?pos=90&kwd=baby hair brushes&tags=||||9045.955|Price|product|||MDC|rsf:gd-|-stype:attr=1|qr_nm:gd|res:RC4|com-cf:nl|ptrs:na|ktp:N0|mc:98611|mtp:S|qry_typ:P|lang:en|wc:3|cs:8842|v=4,False,Mac Robertganj,Kanpur,"81/60, Kuli Bazar Road, Kuli Bazar, Mac Robertganj, Kanpur - 208001, Uttar Pradesh",8048271028,
"Ecoearthone Bamboo Hair Brush, 8 inch",https://www.indiamart.com/proddetail/ecoearthone-bamboo-hair-brush-2854891464655.html?pos=91&kwd=baby hair brushes&tags=||||8228.275|Price|product|||MDC|rsf:gd-|-stype:attr=1|qr_nm:gd|res:RC4|com-cf:nl|ptrs:na|ktp:N0|mc:98611|mtp:S|qry_typ:P|lang:en|wc:3|cs:8842|v=4,Nilkanth Enterprise,https://www.indiamart.com/nilkanth-enterprise-gujaratindia/?pos=91&kwd=baby hair brushes&tags=||||8228.275|Price|product|||MDC|rsf:gd-|-stype:attr=1|qr_nm:gd|res:RC4|com-cf:nl|ptrs:na|ktp:N0|mc:98611|mtp:S|qry_typ:P|lang:en|wc:3|cs:8842|v=4,False,,Ahmedabad,"L -502, Fifth Floor, S. G. Business Hub, Nr. Sola Bhagvat, Ahmedabad - 380061, Dist.Ahmedabad, Gujarat",7949323430,
Soft Rubber Head Style BABY BATH CAP,https://www.indiamart.com/proddetail/baby-bath-cap-22238014048.html?pos=92&kwd=baby hair brushes&tags=||||8230.883|Price|product|||TS|rsf:gd-|-stype:attr=1|qr_nm:gd|res:RC4|com-cf:nl|ptrs:na|ktp:N0|mc:98611|mtp:S|qry_typ:P|lang:en|wc:3|cs:8842|v=4,Clomana,https://www.clomana.in/?pos=92&kwd=baby hair brushes&tags=||||8230.883|Price|product|||TS|rsf:gd-|-stype:attr=1|qr_nm:gd|res:RC4|com-cf:nl|ptrs:na|ktp:N0|mc:98611|mtp:S|qry_typ:P|lang:en|wc:3|cs:8842|v=4,False,Katargam,Surat,"Shed No. 2, Sy. No. 310, Patel Falia, Katargam, Katargam, Surat - 395004, Dist.Surat, Gujarat",8048984393,
Hair Scalp Massager Shampoo Brush,https://www.indiamart.com/proddetail/hair-scalp-massager-shampoo-brush-2853188348862.html?pos=93&kwd=baby hair brushes&tags=||||8038.093|Price|product|||TS|rsf:gd-|-stype:attr=1|qr_nm:gd|res:RC4|com-cf:nl|ptrs:na|ktp:N0|mc:98611|mtp:S|qry_typ:P|lang:en|wc:3|cs:8842|v=4,Balaji Kitchen King LLP,https://www.indiamart.com/mventerprisegujarat/?pos=93&kwd=baby hair brushes&tags=||||8038.093|Price|product|||TS|rsf:gd-|-stype:attr=1|qr_nm:gd|res:RC4|com-cf:nl|ptrs:na|ktp:N0|mc:98611|mtp:S|qry_typ:P|lang:en|wc:3|cs:8842|v=4,False,Mahalaxmi Society,Rajkot,"Rs No 253, Shed No 1 And 2 Plot No 59, Maruti Estate, Nr Harbhoke Ind Area, Kothariya Solvant, Kothariya, Mahalaxmi Society, Rajkot - 360022, Dist.Rajkot, Gujarat",8046078629,
Blow Dry Brush,https://www.indiamart.com/proddetail/blow-dry-brush-23548936733.html?pos=94&kwd=baby hair brushes&tags=||||8228.275|Price|product|||TS|rsf:gd-|-stype:attr=1|qr_nm:gd|res:RC4|com-cf:nl|ptrs:na|ktp:N0|mc:98611|mtp:S|qry_typ:P|lang:en|wc:3|cs:8842|v=4,Karnavati Brush Manufacturing Co.,https://www.brushmanufacturerindia.com/?pos=94&kwd=baby hair brushes&tags=||||8228.275|Price|product|||TS|rsf:gd-|-stype:attr=1|qr_nm:gd|res:RC4|com-cf:nl|ptrs:na|ktp:N0|mc:98611|mtp:S|qry_typ:P|lang:en|wc:3|cs:8842|v=4,True,Patha,Ahmedabad,"No. 5/1- B, Pankaj Society, Ramjimandir Road, Bhattha, Patha, Ahmedabad - 380007, Dist.Ahmedabad, Gujarat",8048601560,
One Step Hair Dryer,https://www.indiamart.com/proddetail/one-step-hair-dryer-2854648069430.html?pos=95&kwd=baby hair brushes&tags=||||8210.732|Price|product|||MDC|rsf:gd-|-stype:attr=1|qr_nm:gd|res:RC4|com-cf:nl|ptrs:na|ktp:N0|mc:98611|mtp:S|qry_typ:P|lang:en|wc:3|cs:8842|v=4,Al Zaki Overseas,https://www.indiamart.com/alzakioverseas-vasai-virar/?pos=95&kwd=baby hair brushes&tags=||||8210.732|Price|product|||MDC|rsf:gd-|-stype:attr=1|qr_nm:gd|res:RC4|com-cf:nl|ptrs:na|ktp:N0|mc:98611|mtp:S|qry_typ:P|lang:en|wc:3|cs:8842|v=4,False,Nallasopara,Vasai Virar,"3rd Floor, Flat No. 301,SR.No.104, Blue Heaven, Achole Road, Anant Ashraya Apartment, Nallasopara, Nallasopara, Vasai Virar - 401209, Dist.Thane, Maharashtra",7949326645,
Wooden Watch Cleaning Brush,https://www.indiamart.com/proddetail/watch-cleaning-brush-2854775063848.html?pos=96&kwd=baby hair brushes&tags=||||9830.128|Price|product|||MDC|rsf:gd-|-stype:attr=1|qr_nm:gd|res:RC4|com-cf:nl|ptrs:na|ktp:N0|mc:98611|mtp:S|qry_typ:P|lang:en|wc:3|cs:8842|v=4,SK. Anwar Brothers,https://www.indiamart.com/sk-anwar-brothers/?pos=96&kwd=baby hair brushes&tags=||||9830.128|Price|product|||MDC|rsf:gd-|-stype:attr=1|qr_nm:gd|res:RC4|com-cf:nl|ptrs:na|ktp:N0|mc:98611|mtp:S|qry_typ:P|lang:en|wc:3|cs:8842|v=4,False,,Bankra,"0, Bankra Mondal Para, Ps Domjur, Bankra - 711403, Dist.Howrah, West Bengal",7949326184,
"Round Plastic Hair Brush, For Parlour And Personal Use",https://www.indiamart.com/proddetail/hair-brush-2849562346273.html?pos=97&kwd=baby hair brushes&tags=||||8617.287|Price|product|||TS|rsf:gd-|-stype:attr=1|qr_nm:gd|res:RC4|com-cf:nl|ptrs:na|ktp:N0|mc:98611|mtp:S|qry_typ:P|lang:en|wc:3|cs:8842|v=4,Shri Bala Ji Trading,https://www.indiamart.com/shribalajitrading-faridabad/?pos=97&kwd=baby hair brushes&tags=||||8617.287|Price|product|||TS|rsf:gd-|-stype:attr=1|qr_nm:gd|res:RC4|com-cf:nl|ptrs:na|ktp:N0|mc:98611|mtp:S|qry_typ:P|lang:en|wc:3|cs:8842|v=4,False,Dera Surjanhar,Ratia,"M/s Shri Bala Ji Trading, Near Dera Baba Ranjha Dass, Ratia,, Dera Surjanhar, Ratia - 125051, Dist.Fatehabad, Haryana",7942800424,
Ceramic Maharaja 999 Pearl Comb 9Inch,https://www.indiamart.com/proddetail/maharaja-999-pearl-comb-9inch-2853783514973.html?pos=98&kwd=baby hair brushes&tags=||||8786.56|Price|product|||TS|rsf:gd-|-stype:attr=1|qr_nm:gd|res:RC4|com-cf:nl|ptrs:na|ktp:N0|mc:98611|mtp:S|qry_typ:P|lang:en|wc:3|cs:8842|v=4,Rajadhani Enterprises,https://www.rajadhanienterprises.in/?pos=98&kwd=baby hair brushes&tags=||||8786.56|Price|product|||TS|rsf:gd-|-stype:attr=1|qr_nm:gd|res:RC4|com-cf:nl|ptrs:na|ktp:N0|mc:98611|mtp:S|qry_typ:P|lang:en|wc:3|cs:8842|v=4,False,Begum Bazar Pathan Wadi,Hyderabad,"15-6-588/1G, Agarwal Market, Siddiamber Bazar Satyanarayan Enclaves, Gol Masjid, Begum Bazar Pathan Wadi, Hyderabad - 500012, Dist.Hyderabad, Telangana",8047635606,
"Black Plastic Hair Scalp Massager Shampoo Brush, For Household",https://www.indiamart.com/proddetail/hair-scalp-massager-shampoo-brush-2852260304188.html?pos=99&kwd=baby hair brushes&tags=||||8038.093|Price|product|||TS|rsf:gd-|-stype:attr=1|qr_nm:gd|res:RC4|com-cf:nl|ptrs:na|ktp:N0|mc:98611|mtp:S|qry_typ:P|lang:en|wc:3|cs:8842|v=4,Dexter Enterprise,https://www.panashkitchenware.com/?pos=99&kwd=baby hair brushes&tags=||||8038.093|Price|product|||TS|rsf:gd-|-stype:attr=1|qr_nm:gd|res:RC4|com-cf:nl|ptrs:na|ktp:N0|mc:98611|mtp:S|qry_typ:P|lang:en|wc:3|cs:8842|v=4,False,Lal Park,Rajkot,"Street No. 03, Arti Soceity, Lal Park, Rajkot - 360002, Dist.Rajkot, Gujarat",8047632289,
Wooden Hair Brush,https://www.indiamart.com/proddetail/wooden-hair-brush-2852094422855.html?pos=100&kwd=baby hair brushes&tags=||||8823.154||product|||TS|rsf:gd-|-stype:attr=1|qr_nm:gd|res:RC4|com-cf:nl|ptrs:na|ktp:N0|mc:98611|mtp:S|qry_typ:P|lang:en|wc:3|cs:8842|v=4,Malhotra Brush Industry,https://www.indiamart.com/malhotrabrushindustry-agra/?pos=100&kwd=baby hair brushes&tags=||||8823.154||product|||TS|rsf:gd-|-stype:attr=1|qr_nm:gd|res:RC4|com-cf:nl|ptrs:na|ktp:N0|mc:98611|mtp:S|qry_typ:P|lang:en|wc:3|cs:8842|v=4,False,Sarai Khwaja,Agra,"59/3N/B, Near Shri Ram Shanti Seva Sadan, West Arjun Nagar Sona Nagar,, Sarai Khwaja, Agra - 282001, Dist.Agra, Uttar Pradesh",7942869996,
Wooden Hair Brush,https://www.indiamart.com/proddetail/wooden-hair-brush-2852958894912.html?pos=101&kwd=baby hair brushes&tags=||||9845.05|Price|product|||TS|rsf:gd-|-stype:attr=1|qr_nm:gd|res:RC4|com-cf:nl|ptrs:na|ktp:N0|mc:98611|mtp:S|qry_typ:P|lang:en|wc:3|cs:8842|v=4,Amwoodo Eco Products Private Limited,https://www.indiamart.com/amwoodo-eco-products/?pos=101&kwd=baby hair brushes&tags=||||9845.05|Price|product|||TS|rsf:gd-|-stype:attr=1|qr_nm:gd|res:RC4|com-cf:nl|ptrs:na|ktp:N0|mc:98611|mtp:S|qry_typ:P|lang:en|wc:3|cs:8842|v=4,False,,Bidhan Nagar,"7th, Room No- 703, Webel IT Park, Tower-2, Bn-9 Block, Bidhan Nagar - 700091, Dist.Darjiling, West Bengal",7942556178,
Buyerzone Plastic Baby Shower Cap,https://www.indiamart.com/proddetail/baby-shower-cap-2852995806697.html?pos=102&kwd=baby hair brushes&tags=||||8230.883|Price|product|||TS|rsf:gd-|-stype:attr=1|qr_nm:gd|res:RC4|com-cf:nl|ptrs:na|ktp:N0|mc:98611|mtp:S|qry_typ:P|lang:en|wc:3|cs:8842|v=4,Buyerzone Enterprise,https://www.thebuyerzone.in/?pos=102&kwd=baby hair brushes&tags=||||8230.883|Price|product|||TS|rsf:gd-|-stype:attr=1|qr_nm:gd|res:RC4|com-cf:nl|ptrs:na|ktp:N0|mc:98611|mtp:S|qry_typ:P|lang:en|wc:3|cs:8842|v=4,False,Katargam,Surat,"Plot No.247-1st Floor, Above E-Com Courier,Near Laxmi Residency, Katargam Vastadevadi Road, Katargam, Surat - 395004, Dist.Surat, Gujarat",8048966965,
Silicone Hair Scalp Massager Brush,,Shree Ram Plastic,https://www.indiamart.com/shree-ram-plasticrajkot/?pos=103&kwd=baby hair brushes&tags=||||8038.093|Price|product|||MDC|rsf:gd-|-stype:attr=1|qr_nm:gd|res:RC4|com-cf:nl|ptrs:na|ktp:N0|mc:98611|mtp:S|qry_typ:P|lang:en|wc:3|cs:8842|v=4,False,Tapan School Road,Rajkot,"Block No-5, R S No-18 Paki 1, Plot No-1 To 11, Sub Plot No-1 To 11/5, Shivdham Society,, Tapan School Road, Rajkot - 360004, Dist.Rajkot, Gujarat",7949331426,
Black And Brwon Plastic Trendy Look Wooden Hair Brush,https://www.indiamart.com/proddetail/trendy-look-wooden-hair-brush-2849176895873.html?pos=104&kwd=baby hair brushes&tags=||||8211.142|Price|product|||TS|rsf:gd-|-stype:attr=1|qr_nm:gd|res:RC4|com-cf:nl|ptrs:na|ktp:N0|mc:98611|mtp:S|qry_typ:P|lang:en|wc:3|cs:8842|v=4,TWINKLE BEAUTY SHOP,https://www.indiamart.com/twinklebeauty-shop-thane/?pos=104&kwd=baby hair brushes&tags=||||8211.142|Price|product|||TS|rsf:gd-|-stype:attr=1|qr_nm:gd|res:RC4|com-cf:nl|ptrs:na|ktp:N0|mc:98611|mtp:S|qry_typ:P|lang:en|wc:3|cs:8842|v=4,False,Mandvi,Mumbai,"399/401, 1ST Floor, Mohd Hussain Building, Sheikh Memon Street, Pinjara Street, Mandvi, Mumbai - 400003, Dist.Mumbai, Maharashtra",7942674033,
"Black Wooden U shape hair stick bun stick for hair, 7",https://www.indiamart.com/proddetail/wooden-u-shape-hair-stick-bun-stick-for-hair-2851911963412.html?pos=105&kwd=baby hair brushes&tags=||||8211.142|Price|product|||TS|rsf:gd-|-stype:attr=1|qr_nm:gd|res:RC4|com-cf:nl|ptrs:na|ktp:N0|mc:98611|mtp:S|qry_typ:P|lang:en|wc:3|cs:8842|v=4,Royal Spoons,https://www.royalwspoons.com/?pos=105&kwd=baby hair brushes&tags=||||8211.142|Price|product|||TS|rsf:gd-|-stype:attr=1|qr_nm:gd|res:RC4|com-cf:nl|ptrs:na|ktp:N0|mc:98611|mtp:S|qry_typ:P|lang:en|wc:3|cs:8842|v=4,False,DM Colony,Mumbai,"Lohar Chawl, 30 Feet Police Chawki Road Gala no. 2,3&4, 1st Road, Near Ramlal Hotel, DM Colony, Mumbai - 400043, Dist.Mumbai, Maharashtra",8047646140,
Brown Bamboo Bristles Paddle Hairbrush,https://www.indiamart.com/proddetail/bamboo-bristles-paddle-hairbrush-2854357023330.html?pos=106&kwd=baby hair brushes&tags=||||8954.051|Price|product|||TS|rsf:gd-|-stype:attr=1|qr_nm:gd|res:RC4|com-cf:nl|ptrs:na|ktp:N0|mc:98611|mtp:S|qry_typ:P|lang:en|wc:3|cs:8842|v=4,Ecovians,https://www.indiamart.com/ecovians-chennai/?pos=106&kwd=baby hair brushes&tags=||||8954.051|Price|product|||TS|rsf:gd-|-stype:attr=1|qr_nm:gd|res:RC4|com-cf:nl|ptrs:na|ktp:N0|mc:98611|mtp:S|qry_typ:P|lang:en|wc:3|cs:8842|v=4,False,,Chennai,"Ground Floor Part, No 37, Vannaskathi Nagar, Murugan Koil Street, Chennai, Chennai - 600099, Dist.Chennai, Tamil Nadu",7942720862,
Baby Bath Cap,https://www.indiamart.com/proddetail/baby-bath-cap-26390920155.html?pos=107&kwd=baby hair brushes&tags=||||8230.883|Price|product|||TS|rsf:gd-|-stype:attr=1|qr_nm:gd|res:RC4|com-cf:nl|ptrs:na|ktp:N0|mc:98611|mtp:S|qry_typ:P|lang:en|wc:3|cs:8842|v=4,Gadhiya Impex.,https://www.gadhiyaimpex.com/?pos=107&kwd=baby hair brushes&tags=||||8230.883|Price|product|||TS|rsf:gd-|-stype:attr=1|qr_nm:gd|res:RC4|com-cf:nl|ptrs:na|ktp:N0|mc:98611|mtp:S|qry_typ:P|lang:en|wc:3|cs:8842|v=4,False,Katargam,Surat,"8th, 804, Variav Road, Panchshila Sky, Katargam, Surat - 394520, Dist.Surat, Gujarat",8047619805,
Rubber 0 To 2 Year Baby Bath Shower Cap,https://www.indiamart.com/proddetail/baby-bath-shower-cap-2851838830697.html?pos=108&kwd=baby hair brushes&tags=||||8228.275|Price|product|||TS|rsf:gd-|-stype:attr=1|qr_nm:gd|res:RC4|com-cf:nl|ptrs:na|ktp:N0|mc:98611|mtp:S|qry_typ:P|lang:en|wc:3|cs:8842|v=4,Mahi Supermart,https://www.mahisupermart.com/?pos=108&kwd=baby hair brushes&tags=||||8228.275|Price|product|||TS|rsf:gd-|-stype:attr=1|qr_nm:gd|res:RC4|com-cf:nl|ptrs:na|ktp:N0|mc:98611|mtp:S|qry_typ:P|lang:en|wc:3|cs:8842|v=4,False,Saijpur Bogha,Ahmedabad,"22, Jay Bhagwan Society, Miraj Cinemas Narod Road, Krishna Nagar, Saijpur Bogha, Ahmedabad - 382345, Dist.Ahmedabad, Gujarat",7942837913,
Scalp Massager Silicone Waterproof Shampoo Brush Hair Clean and Head Relax,https://www.indiamart.com/proddetail/scalp-massager-silicone-waterproof-shampoo-brush-hair-clean-and-head-relax-2854250749062.html?pos=109&kwd=baby hair brushes&tags=||||8038.093|Price|product|||TS|rsf:gd-|-stype:attr=1|qr_nm:gd|res:RC4|com-cf:nl|ptrs:na|ktp:N0|mc:98611|mtp:S|qry_typ:P|lang:en|wc:3|cs:8842|v=4,J And B Products,https://www.wellstickkitchenware.com/?pos=109&kwd=baby hair brushes&tags=||||8038.093|Price|product|||TS|rsf:gd-|-stype:attr=1|qr_nm:gd|res:RC4|com-cf:nl|ptrs:na|ktp:N0|mc:98611|mtp:S|qry_typ:P|lang:en|wc:3|cs:8842|v=4,False,Samrat Industrial Area,Rajkot,"01, GOKULNAGAR,MAVADI PLOT,NEAR FORTUNE, Samrat Industrial Area, Rajkot - 360004, Dist.Rajkot, Gujarat",8046043314,
"Signamio Hair Massager Shampoo Brush With Soft Silicone Bristles,Exfoliating With Scalp Care (Grey)",https://www.indiamart.com/proddetail/signamio-hair-massager-shampoo-brush-with-soft-silicone-bristles-exfoliating-with-scalp-care-grey-24524745330.html?pos=110&kwd=baby hair brushes&tags=||||8228.275|Price|product|||TS|rsf:gd-|-stype:attr=1|qr_nm:gd|res:RC4|com-cf:nl|ptrs:na|ktp:N0|mc:98611|mtp:S|qry_typ:P|lang:en|wc:3|cs:8842|v=4,Signamio,https://www.indiamart.com/signamio/?pos=110&kwd=baby hair brushes&tags=||||8228.275|Price|product|||TS|rsf:gd-|-stype:attr=1|qr_nm:gd|res:RC4|com-cf:nl|ptrs:na|ktp:N0|mc:98611|mtp:S|qry_typ:P|lang:en|wc:3|cs:8842|v=4,False,Krishnanagar,Ahmedabad,"Shop No. 4, Ground Floor, Raj Complex, Krishnanagar, Nava Naroda, Krishnanagar, Ahmedabad - 382345, Dist.Ahmedabad, Gujarat",8048978107,
Wooden Beard Brush,https://www.indiamart.com/proddetail/beard-brush-2853232067291.html?pos=111&kwd=baby hair brushes&tags=||||8601.347|Price|product|||TS|rsf:gd-|-stype:attr=1|qr_nm:gd|res:RC4|com-cf:nl|ptrs:na|ktp:N0|mc:98611|mtp:S|qry_typ:P|lang:en|wc:3|cs:8842|v=4,The Earth Trading And Consulting Company,http://www.theearthtrading.in/?pos=111&kwd=baby hair brushes&tags=||||8601.347|Price|product|||TS|rsf:gd-|-stype:attr=1|qr_nm:gd|res:RC4|com-cf:nl|ptrs:na|ktp:N0|mc:98611|mtp:S|qry_typ:P|lang:en|wc:3|cs:8842|v=4,False,Shyam Nagar,Jaipur,"42-A, Laxmi Villa, dharampark Colony, Near Sodhani Sweets, Shyam Nagar-2, Sodala, Shyam Nagar, Jaipur - 302019, Dist.Jaipur, Rajasthan",8043851380,
FTouch Oval Hair Extension Brush Black,https://www.indiamart.com/proddetail/hair-extension-brush-black-26262003991.html?pos=112&kwd=baby hair brushes&tags=||||8211.142|Price|product|||TS|rsf:gd-|-stype:attr=1|qr_nm:gd|res:RC4|com-cf:nl|ptrs:na|ktp:N0|mc:98611|mtp:S|qry_typ:P|lang:en|wc:3|cs:8842|v=4,Finishing Touch,https://www.finishingtouchtm.com/?pos=112&kwd=baby hair brushes&tags=||||8211.142|Price|product|||TS|rsf:gd-|-stype:attr=1|qr_nm:gd|res:RC4|com-cf:nl|ptrs:na|ktp:N0|mc:98611|mtp:S|qry_typ:P|lang:en|wc:3|cs:8842|v=4,False,Malad West,Mumbai,"No. 206, Aditya Banarasi Heritage, Behind Inorbit Mall Lane To Rustomji Elanza, Mindspace, Malad West, Mumbai - 400064, Dist.Mumbai, Maharashtra",8048976775,
Platform Brush Wooden Black Hair,https://www.indiamart.com/proddetail/platform-brush-wooden-black-hair-2851270252391.html?pos=113&kwd=baby hair brushes&tags=||||8482.091|Price|product|||MDC|rsf:gd-|-stype:attr=1|qr_nm:gd|res:RC4|com-cf:nl|ptrs:na|ktp:N0|mc:98611|mtp:S|qry_typ:P|lang:en|wc:3|cs:8842|v=4,Maruti Industries,https://www.indiamart.com/marutiindustries-rajasthan/?pos=113&kwd=baby hair brushes&tags=||||8482.091|Price|product|||MDC|rsf:gd-|-stype:attr=1|qr_nm:gd|res:RC4|com-cf:nl|ptrs:na|ktp:N0|mc:98611|mtp:S|qry_typ:P|lang:en|wc:3|cs:8842|v=4,False,Dorai,Ajmer,"Khati Mohalla, Dorai Branch Post Office, Daurai, Dorai, Ajmer - 305003, Dist.Ajmer, Rajasthan",7942829050,
"Brito Hair Dye Brush, Usage: Household, Salon",https://www.indiamart.com/proddetail/hair-dye-brush-2039293288.html?pos=114&kwd=baby hair brushes&tags=||||8211.142|Price|product|||MDC|rsf:gd-|-stype:attr=1|qr_nm:gd|res:RC4|com-cf:nl|ptrs:na|ktp:N0|mc:98611|mtp:S|qry_typ:P|lang:en|wc:3|cs:8842|v=4,Brito Plast,https://www.indiamart.com/brito-plast/?pos=114&kwd=baby hair brushes&tags=||||8211.142|Price|product|||MDC|rsf:gd-|-stype:attr=1|qr_nm:gd|res:RC4|com-cf:nl|ptrs:na|ktp:N0|mc:98611|mtp:S|qry_typ:P|lang:en|wc:3|cs:8842|v=4,False,Jogeshwari East,Mumbai,"No. 7, Satyam Industrial Estate, Subhash Road, Jogeshwari East, Mumbai - 400060, Dist.Mumbai, Maharashtra",8046033127,
"Baby Nail Clipper, Manual, 12 piece",https://www.indiamart.com/proddetail/baby-nail-clipper-2854881883462.html?pos=115&kwd=baby hair brushes&tags=||||8211.142|Price|product|||MDC|rsf:gd-|-stype:attr=1|qr_nm:gd|res:RC4|com-cf:nl|ptrs:na|ktp:N0|mc:98611|mtp:S|qry_typ:P|lang:en|wc:3|cs:8842|v=4,Champion Traders,https://www.indiamart.com/champion-traders-mumbai/?pos=115&kwd=baby hair brushes&tags=||||8211.142|Price|product|||MDC|rsf:gd-|-stype:attr=1|qr_nm:gd|res:RC4|com-cf:nl|ptrs:na|ktp:N0|mc:98611|mtp:S|qry_typ:P|lang:en|wc:3|cs:8842|v=4,False,,Mumbai,"1st Floor, Room No 25, 27, Ismail Building, Sutar Chawl, Abdul Rehman Street, Kalbadevi,, Mumbai - 400002, Dist.Mumbai, Maharashtra",8044459818,
Silicone Hair Scalp Massager Shampoo Brush,https://www.indiamart.com/proddetail/hair-scalp-massager-brush-2854908139830.html?pos=116&kwd=baby hair brushes&tags=||||8038.093|Price|product|||MDC|rsf:gd-|-stype:attr=1|qr_nm:gd|res:RC4|com-cf:nl|ptrs:na|ktp:N0|mc:98611|mtp:S|qry_typ:P|lang:en|wc:3|cs:8842|v=4,Shreeji Enterprise,https://www.indiamart.com/shreeji-enterpriserajkotgujarat/?pos=116&kwd=baby hair brushes&tags=||||8038.093|Price|product|||MDC|rsf:gd-|-stype:attr=1|qr_nm:gd|res:RC4|com-cf:nl|ptrs:na|ktp:N0|mc:98611|mtp:S|qry_typ:P|lang:en|wc:3|cs:8842|v=4,False,,Rajkot,"Flat No.602, RSN.70, Plot No.3, Radhe Heights, Unnati Residency, 40 Feet Road, Nr. Tapan School, Vavdi, Rajkot - 360004, Dist.Rajkot, Gujarat",8044460058,
"Silicone Hair Scalp Massager Brush, For Home,Hotel",https://www.indiamart.com/proddetail/hair-scalp-massager-brush-2853403159591.html?pos=117&kwd=baby hair brushes&tags=||||8038.093|Price|product|||MDC|rsf:gd-|-stype:attr=1|qr_nm:gd|res:RC4|com-cf:nl|ptrs:na|ktp:N0|mc:98611|mtp:S|qry_typ:P|lang:en|wc:3|cs:8842|v=4,Shree Ram Engineering,https://www.indiamart.com/shreeramengineeringrajkot/?pos=117&kwd=baby hair brushes&tags=||||8038.093|Price|product|||MDC|rsf:gd-|-stype:attr=1|qr_nm:gd|res:RC4|com-cf:nl|ptrs:na|ktp:N0|mc:98611|mtp:S|qry_typ:P|lang:en|wc:3|cs:8842|v=4,False,Rajkot,Rajkot,"Shed No.5,Mahadev Ind.Area,Narayan Weigh Bridge,Kothria, Rajkot, Rajkot - 360022, Dist.Rajkot, Gujarat",7948548408,
Multicolor Baby Nail Cutter,https://www.indiamart.com/proddetail/baby-nail-cutter-27292732748.html?pos=118&kwd=baby hair brushes&tags=||||8752.144|Price|product|||TS|rsf:gd-|-stype:attr=1|qr_nm:gd|res:RC4|com-cf:nl|ptrs:na|ktp:N0|mc:98611|mtp:S|qry_typ:P|lang:en|wc:3|cs:8842|v=4,Raj Trading,https://www.rajtradinginternational.com/?pos=118&kwd=baby hair brushes&tags=||||8752.144|Price|product|||TS|rsf:gd-|-stype:attr=1|qr_nm:gd|res:RC4|com-cf:nl|ptrs:na|ktp:N0|mc:98611|mtp:S|qry_typ:P|lang:en|wc:3|cs:8842|v=4,False,Mayur Vihar Phase 1,New Delhi,"First Floor, 154, Village Chilla Saroda Chilla, Mayur Vihar Phase 1, New Delhi - 110091, Dist.Delhi, Delhi",7942551089,
UNMOUNTED HAIR BRUSH,https://www.indiamart.com/proddetail/unmounted-hair-brush-3991529288.html?pos=119&kwd=baby hair brushes&tags=||||8641.487||product|||TS|rsf:gd-|-stype:attr=1|qr_nm:gd|res:RC4|com-cf:nl|ptrs:na|ktp:N0|mc:98611|mtp:S|qry_typ:P|lang:en|wc:3|cs:8842|v=4,Green Stars Sa Private Limited,https://www.jewelrytoolsindia.com/?pos=119&kwd=baby hair brushes&tags=||||8641.487||product|||TS|rsf:gd-|-stype:attr=1|qr_nm:gd|res:RC4|com-cf:nl|ptrs:na|ktp:N0|mc:98611|mtp:S|qry_typ:P|lang:en|wc:3|cs:8842|v=4,False,Dilbagh Nagar,Jalandhar,"540-A, Dilbagh Nagar Extension, Dilbagh Nagar, Jalandhar - 144002, Dist.Jalandhar, Punjab",8048602218,
Multicolor Wooden Hair Brush,https://www.indiamart.com/proddetail/wooden-hair-brush-2851484701962.html?pos=120&kwd=baby hair brushes&tags=||||8211.142|Price|product|||TS|rsf:gd-|-stype:attr=1|qr_nm:gd|res:RC4|com-cf:nl|ptrs:na|ktp:N0|mc:98611|mtp:S|qry_typ:P|lang:en|wc:3|cs:8842|v=4,Mahavir Enterprises,https://www.indiamart.com/mahavir-enterprisesmaharashtra/?pos=120&kwd=baby hair brushes&tags=||||8211.142|Price|product|||TS|rsf:gd-|-stype:attr=1|qr_nm:gd|res:RC4|com-cf:nl|ptrs:na|ktp:N0|mc:98611|mtp:S|qry_typ:P|lang:en|wc:3|cs:8842|v=4,False,Kalbadevi,Mumbai,"Ground Floor, 268/18, Batatawala Building, Abdul Rehman Street, Kalbadevi, Mumbai - 400003, Dist.Mumbai, Maharashtra",7942844067,
blue Ceramic Brushman Round Hair Brush,https://www.indiamart.com/proddetail/brushman-round-hair-brush-26136753962.html?pos=121&kwd=baby hair brushes&tags=||||8230.883|Price|product|||TS|rsf:gd-|-stype:attr=1|qr_nm:gd|res:RC4|com-cf:nl|ptrs:na|ktp:N0|mc:98611|mtp:S|qry_typ:P|lang:en|wc:3|cs:8842|v=4,Lacasa Beauty Care,https://www.indiamart.com/lacasabeautycare/?pos=121&kwd=baby hair brushes&tags=||||8230.883|Price|product|||TS|rsf:gd-|-stype:attr=1|qr_nm:gd|res:RC4|com-cf:nl|ptrs:na|ktp:N0|mc:98611|mtp:S|qry_typ:P|lang:en|wc:3|cs:8842|v=4,False,Varachha,Surat,"29, Harekrishna Society 3, Punagam, Near Borda Farm, Varachha, Surat - 395010, Dist.Surat, Gujarat",8043861555,
"Hair Dye Brush, For Professional And Household",https://www.indiamart.com/proddetail/hair-dye-brush-9952335973.html?pos=122&kwd=baby hair brushes&tags=||||8211.142|Price|product|||TS|rsf:gd-|-stype:attr=1|qr_nm:gd|res:RC4|com-cf:nl|ptrs:na|ktp:N0|mc:98611|mtp:S|qry_typ:P|lang:en|wc:3|cs:8842|v=4,Utkarsh Brush Works,https://www.brushindia.com/?pos=122&kwd=baby hair brushes&tags=||||8211.142|Price|product|||TS|rsf:gd-|-stype:attr=1|qr_nm:gd|res:RC4|com-cf:nl|ptrs:na|ktp:N0|mc:98611|mtp:S|qry_typ:P|lang:en|wc:3|cs:8842|v=4,False,Airport,Mumbai,"No. 235, Adarsh Industrial Estate, Chakala Sahar Road, Airport, Mumbai - 400099, Dist.Mumbai, Maharashtra",8048979235,
"Black Plastic Hair Combs Brushes, For Personal,Parlour",https://www.indiamart.com/proddetail/hair-combs-brushes-24226928048.html?pos=123&kwd=baby hair brushes&tags=||||9010.878|Price|product|||TS|rsf:gd-|-stype:attr=1|qr_nm:gd|res:RC4|com-cf:nl|ptrs:na|ktp:N0|mc:98611|mtp:S|qry_typ:P|lang:en|wc:3|cs:8842|v=4,Acupressure Health Care Systems,https://www.acupressurehealthcareproducts.com/?pos=123&kwd=baby hair brushes&tags=||||9010.878|Price|product|||TS|rsf:gd-|-stype:attr=1|qr_nm:gd|res:RC4|com-cf:nl|ptrs:na|ktp:N0|mc:98611|mtp:S|qry_typ:P|lang:en|wc:3|cs:8842|v=4,False,Tarapet,Vijayawada,"No. 11-40-12, Opposite Ribbon, Pulipativari Street, Tarapet, Vijayawada - 520001, Dist.Krishna, Andhra Pradesh",8047641279,
Thrive Universal Bottle Sterilizer,https://www.indiamart.com/proddetail/thrive-universal-bottle-sterilizer-26106787533.html?pos=124&kwd=baby hair brushes&tags=||||8752.144|Price|product|||TS|rsf:gd-|-stype:attr=1|qr_nm:gd|res:RC4|com-cf:nl|ptrs:na|ktp:N0|mc:98611|mtp:S|qry_typ:P|lang:en|wc:3|cs:8842|v=4,Shree Ganpati Traders,https://www.thebulkbazaar.com/?pos=124&kwd=baby hair brushes&tags=||||8752.144|Price|product|||TS|rsf:gd-|-stype:attr=1|qr_nm:gd|res:RC4|com-cf:nl|ptrs:na|ktp:N0|mc:98611|mtp:S|qry_typ:P|lang:en|wc:3|cs:8842|v=4,False,Shahdara,New Delhi,"151, DOUBLE STORY FLATS, KABOOL NAGAR,, Shahdara, New Delhi - 110032, Dist.Delhi, Delhi",8046046908,
Black Plastic Hair Combs Brushes,https://www.indiamart.com/proddetail/hair-combs-brushes-2851272057312.html?pos=125&kwd=baby hair brushes&tags=||||8752.144|Price|product|||TS|rsf:gd-|-stype:attr=1|qr_nm:gd|res:RC4|com-cf:nl|ptrs:na|ktp:N0|mc:98611|mtp:S|qry_typ:P|lang:en|wc:3|cs:8842|v=4,Neelkhant Enterprises,https://www.indiamart.com/neelkhantenterprises/?pos=125&kwd=baby hair brushes&tags=||||8752.144|Price|product|||TS|rsf:gd-|-stype:attr=1|qr_nm:gd|res:RC4|com-cf:nl|ptrs:na|ktp:N0|mc:98611|mtp:S|qry_typ:P|lang:en|wc:3|cs:8842|v=4,False,Karol Bagh,New Delhi,"First Floor, 15a/46, Pvt., First Floor, Karol Bagh, Situated At W.E.A, Karol Bagh, Karol Bagh, New Delhi - 110005, Dist.Delhi, Delhi",7942829886,
Plastic Hair Combs Brushes,https://www.indiamart.com/proddetail/hair-combs-brushes-2854514820491.html?pos=126&kwd=baby hair brushes&tags=||||8954.051|Price|product|||TS|rsf:gd-|-stype:attr=1|qr_nm:gd|res:RC4|com-cf:nl|ptrs:na|ktp:N0|mc:98611|mtp:S|qry_typ:P|lang:en|wc:3|cs:8842|v=4,"Dr.S Manjuparkavi, Alpha Lifecare",https://www.indiamart.com/drs-manjuparkavialpha-lifecare/?pos=126&kwd=baby hair brushes&tags=||||8954.051|Price|product|||TS|rsf:gd-|-stype:attr=1|qr_nm:gd|res:RC4|com-cf:nl|ptrs:na|ktp:N0|mc:98611|mtp:S|qry_typ:P|lang:en|wc:3|cs:8842|v=4,False,Kaiveli,Chennai,"247/12, Velachery Main Road, Thanthai Periyar Nagar, Kaiveli, Kaiveli, Chennai - 600042, Dist.Chennai, Tamil Nadu",7942955668,
Synthetic Hair Cosmetic Brushes,https://www.indiamart.com/proddetail/synthetic-hair-cosmetic-brushes-1218166973.html?pos=127&kwd=baby hair brushes&tags=||||8915.672||product|||TS|rsf:gd-|-stype:attr=1|qr_nm:gd|res:RC4|com-cf:nl|ptrs:na|ktp:N0|mc:98611|mtp:S|qry_typ:P|lang:en|wc:3|cs:8842|v=4,Weldon Brushes And Heritage Artware Mfg Private Limited,https://www.weldonbrushes.com/?pos=127&kwd=baby hair brushes&tags=||||8915.672||product|||TS|rsf:gd-|-stype:attr=1|qr_nm:gd|res:RC4|com-cf:nl|ptrs:na|ktp:N0|mc:98611|mtp:S|qry_typ:P|lang:en|wc:3|cs:8842|v=4,False,Civil Lines,Moradabad,"Lal Kothi, Civil Lines Near Jain Temple, Civil Lines, Moradabad - 244001, Dist.Moradabad, Uttar Pradesh",8048971954,
Rakesh Plastic Hair Die Brush,https://www.indiamart.com/proddetail/plastic-hair-die-brush-18523051830.html?pos=128&kwd=baby hair brushes&tags=||||8752.144|Price|product|||TS|rsf:gd-|-stype:attr=1|qr_nm:gd|res:RC4|com-cf:nl|ptrs:na|ktp:N0|mc:98611|mtp:S|qry_typ:P|lang:en|wc:3|cs:8842|v=4,Rakesh Plastic Works,https://www.indiamart.com/rakesh-plastic-works-delhi/?pos=128&kwd=baby hair brushes&tags=||||8752.144|Price|product|||TS|rsf:gd-|-stype:attr=1|qr_nm:gd|res:RC4|com-cf:nl|ptrs:na|ktp:N0|mc:98611|mtp:S|qry_typ:P|lang:en|wc:3|cs:8842|v=4,False,Daya Basti,New Delhi,"19/179, Sarai Rohilla, Near Inderlok, Daya Basti, New Delhi - 110035, Dist.Delhi, Delhi",8046054894,
Neoprene Pedder Johnson Grip Professional Hair Brushes,https://www.indiamart.com/proddetail/pedder-johnson-grip-professional-hair-brushes-18546475488.html?pos=129&kwd=baby hair brushes&tags=||||8211.142|Price|product|||TS|rsf:gd-|-stype:attr=1|qr_nm:gd|res:RC4|com-cf:nl|ptrs:na|ktp:N0|mc:98611|mtp:S|qry_typ:P|lang:en|wc:3|cs:8842|v=4,Fordham Consultancy Private Limited,https://www.indiamart.com/fordham-consultancy/?pos=129&kwd=baby hair brushes&tags=||||8211.142|Price|product|||TS|rsf:gd-|-stype:attr=1|qr_nm:gd|res:RC4|com-cf:nl|ptrs:na|ktp:N0|mc:98611|mtp:S|qry_typ:P|lang:en|wc:3|cs:8842|v=4,False,Chembur,Mumbai,"318, Swastik Chambers, Sion Trombay Road, Chembur, Mumbai - 400071, Dist.Mumbai, Maharashtra",8047655135,
LA UNIQUE Wooden Hair Brushes,https://www.indiamart.com/proddetail/wooden-hair-brushes-4088826688.html?pos=130&kwd=baby hair brushes&tags=||||8752.144||product|||MDC|rsf:gd-|-stype:attr=1|qr_nm:gd|res:RC4|com-cf:nl|ptrs:na|ktp:N0|mc:98611|mtp:S|qry_typ:P|lang:en|wc:3|cs:8842|v=4,Unique Sales Network,https://www.indiamart.com/uniquesalesnetwork/?pos=130&kwd=baby hair brushes&tags=||||8752.144||product|||MDC|rsf:gd-|-stype:attr=1|qr_nm:gd|res:RC4|com-cf:nl|ptrs:na|ktp:N0|mc:98611|mtp:S|qry_typ:P|lang:en|wc:3|cs:8842|v=4,False,Moti Nagar,New Delhi,"No. 12/185, New Moti Nagar, Near Milan Cinema Or Moti Nagar Metro Station, Moti Nagar, New Delhi - 110015, Dist.Delhi, Delhi",8048615061,
Black Wooden Vega Hair Brushes,https://www.indiamart.com/proddetail/vega-hair-brushes-2851935947530.html?pos=131&kwd=baby hair brushes&tags=||||8752.144|Price|product|||MDC|rsf:gd-|-stype:attr=1|qr_nm:gd|res:RC4|com-cf:nl|ptrs:na|ktp:N0|mc:98611|mtp:S|qry_typ:P|lang:en|wc:3|cs:8842|v=4,Color,https://www.indiamart.com/colordelhi/?pos=131&kwd=baby hair brushes&tags=||||8752.144|Price|product|||MDC|rsf:gd-|-stype:attr=1|qr_nm:gd|res:RC4|com-cf:nl|ptrs:na|ktp:N0|mc:98611|mtp:S|qry_typ:P|lang:en|wc:3|cs:8842|v=4,False,Sadar Bazaar,New Delhi,"310, Sadar Bazar,, Sadar Bazaar, New Delhi - 110006, Dist.Delhi, Delhi",8047530243,
Hair Combs Brushes,https://www.indiamart.com/proddetail/hair-combs-brushes-2852869633091.html?pos=132&kwd=baby hair brushes&tags=||||8706.587|Price|product|||MDC|rsf:gd-|-stype:attr=1|qr_nm:gd|res:RC4|com-cf:nl|ptrs:na|ktp:N0|mc:98611|mtp:S|qry_typ:P|lang:en|wc:3|cs:8842|v=4,Gouri Agencies,https://www.indiamart.com/gouri-agencies-madurai/?pos=132&kwd=baby hair brushes&tags=||||8706.587|Price|product|||MDC|rsf:gd-|-stype:attr=1|qr_nm:gd|res:RC4|com-cf:nl|ptrs:na|ktp:N0|mc:98611|mtp:S|qry_typ:P|lang:en|wc:3|cs:8842|v=4,False,Madurai Bazaar,Madurai,"1, Big Valayalkara Street, Near Meenakshi Amman Temple, Madurai Bazaar, Madurai - 625001, Dist.Madurai, Tamil Nadu",8048269694,
Baby Bath Cap,https://www.indiamart.com/proddetail/baby-bath-cap-2854777381173.html?pos=133&kwd=baby hair brushes&tags=||||8230.883|Price|product|||TS|rsf:gd-|-stype:attr=1|qr_nm:gd|res:RC4|com-cf:nl|ptrs:na|ktp:N0|mc:98611|mtp:S|qry_typ:P|lang:en|wc:3|cs:8842|v=4,Iscon Mart,https://www.indiamart.com/iscon-mart-gujarat/?pos=133&kwd=baby hair brushes&tags=||||8230.883|Price|product|||TS|rsf:gd-|-stype:attr=1|qr_nm:gd|res:RC4|com-cf:nl|ptrs:na|ktp:N0|mc:98611|mtp:S|qry_typ:P|lang:en|wc:3|cs:8842|v=4,False,,Surat,"518 the gallery business hub 2 near mahavir chikuvadi nana varachha surat -395006, Surat - 395010, Dist.Surat, Gujarat",8045736488,
Qualityzone Plastic Adjustable Baby Shower Cap,https://www.indiamart.com/proddetail/adjustable-baby-shower-cap-23694965012.html?pos=134&kwd=baby hair brushes&tags=||||8230.883|Price|product|||TS|rsf:gd-|-stype:attr=1|qr_nm:gd|res:RC4|com-cf:nl|ptrs:na|ktp:N0|mc:98611|mtp:S|qry_typ:P|lang:en|wc:3|cs:8842|v=4,Quality Zone,https://www.qualityzoneindia.com/?pos=134&kwd=baby hair brushes&tags=||||8230.883|Price|product|||TS|rsf:gd-|-stype:attr=1|qr_nm:gd|res:RC4|com-cf:nl|ptrs:na|ktp:N0|mc:98611|mtp:S|qry_typ:P|lang:en|wc:3|cs:8842|v=4,False,Dabholi,Surat,"Plot No-17, Sy No-93/94, 1st Floor, Om Satyam Nagar Society, Ved Road, Dabholi Char Rasta, Dabholi, Surat - 395004, Dist.Surat, Gujarat",8048971766,
Multicolor Baby Kids Water Play Mat,https://www.indiamart.com/proddetail/baby-kids-water-play-mat-24341727862.html?pos=135&kwd=baby hair brushes&tags=||||8230.883|Price|product|||TS|rsf:gd-|-stype:attr=1|qr_nm:gd|res:RC4|com-cf:nl|ptrs:na|ktp:N0|mc:98611|mtp:S|qry_typ:P|lang:en|wc:3|cs:8842|v=4,Angel Enterprise,https://www.angelenterprise.net/?pos=135&kwd=baby hair brushes&tags=||||8230.883|Price|product|||TS|rsf:gd-|-stype:attr=1|qr_nm:gd|res:RC4|com-cf:nl|ptrs:na|ktp:N0|mc:98611|mtp:S|qry_typ:P|lang:en|wc:3|cs:8842|v=4,False,Singanpor,Surat,"Basement Plot No-c/45 Singanpore Road Radheshyam Society, Singanpor, Surat - 395004, Dist.Surat, Gujarat",8045910723,
Wooden hair pedal brushes,https://www.indiamart.com/proddetail/wooden-hair-pedal-brushes-2851113327455.html?pos=136&kwd=baby hair brushes&tags=||||8785.791|Price|product|||MDC|rsf:gd-|-stype:attr=1|qr_nm:gd|res:RC4|com-cf:nl|ptrs:na|ktp:N0|mc:98611|mtp:S|qry_typ:P|lang:en|wc:3|cs:8842|v=4,Sana Eco Enterprises,https://www.indiamart.com/sanaecoenterprises/?pos=136&kwd=baby hair brushes&tags=||||8785.791|Price|product|||MDC|rsf:gd-|-stype:attr=1|qr_nm:gd|res:RC4|com-cf:nl|ptrs:na|ktp:N0|mc:98611|mtp:S|qry_typ:P|lang:en|wc:3|cs:8842|v=4,False,Masuri,Ghaziabad,"Jafar Colony, Masuri, Ghaziabad - 201302, Dist.Ghaziabad, Uttar Pradesh",8046043077,
Brown Bare Essentials Detangling Wooden Hair Brush,https://www.indiamart.com/proddetail/bare-essentials-detangling-wooden-hair-brush-21184150262.html?pos=137&kwd=baby hair brushes&tags=||||8752.144|Price|product|||MDC|rsf:gd-|-stype:attr=1|qr_nm:gd|res:RC4|com-cf:nl|ptrs:na|ktp:N0|mc:98611|mtp:S|qry_typ:P|lang:en|wc:3|cs:8842|v=4,Indian Fine Beauty Care Private Limited,https://www.indiamart.com/indianfinebeautycare/?pos=137&kwd=baby hair brushes&tags=||||8752.144|Price|product|||MDC|rsf:gd-|-stype:attr=1|qr_nm:gd|res:RC4|com-cf:nl|ptrs:na|ktp:N0|mc:98611|mtp:S|qry_typ:P|lang:en|wc:3|cs:8842|v=4,False,Kirti Nagar,New Delhi,"C-30 Dsidc Packaging Complex Kirti Nagar, Kirti Nagar, New Delhi - 110015, Dist.Delhi, Delhi",7942960648,
Ethylene Vinyl Acetate (EVA) 0 To 3 Adjustable Safe Soft Bathing Baby Shower Cap,https://www.indiamart.com/proddetail/adjustable-safe-soft-bathing-baby-shower-cap-2851645819091.html?pos=138&kwd=baby hair brushes&tags=||||8230.883|Price|product|||TS|rsf:gd-|-stype:attr=1|qr_nm:gd|res:RC4|com-cf:nl|ptrs:na|ktp:N0|mc:98611|mtp:S|qry_typ:P|lang:en|wc:3|cs:8842|v=4,RJ Enterprise,https://www.indiamart.com/rj-enterprise-surat/?pos=138&kwd=baby hair brushes&tags=||||8230.883|Price|product|||TS|rsf:gd-|-stype:attr=1|qr_nm:gd|res:RC4|com-cf:nl|ptrs:na|ktp:N0|mc:98611|mtp:S|qry_typ:P|lang:en|wc:3|cs:8842|v=4,False,Katargam,Surat,"134, Sahjanand Society, N/R Arogyakendra, Katargam, Katargam, Surat - 395004, Dist.Surat, Gujarat",7942555306,
Hair Dye Brush,https://www.indiamart.com/proddetail/hair-dye-brush-20805119155.html?pos=139&kwd=baby hair brushes&tags=||||8211.142|Price|product|||MDC|rsf:gd-|-stype:attr=1|qr_nm:gd|res:RC4|com-cf:nl|ptrs:na|ktp:N0|mc:98611|mtp:S|qry_typ:P|lang:en|wc:3|cs:8842|v=4,Infinite Beauty,https://www.indiamart.com/infinitebeauty/?pos=139&kwd=baby hair brushes&tags=||||8211.142|Price|product|||MDC|rsf:gd-|-stype:attr=1|qr_nm:gd|res:RC4|com-cf:nl|ptrs:na|ktp:N0|mc:98611|mtp:S|qry_typ:P|lang:en|wc:3|cs:8842|v=4,False,Masjid Bandar,Mumbai,"1st Floor, Shop No. 5, 293, Badri Building, Nagdevi Street, Masjid Bandar, Mumbai - 400003, Dist.Mumbai, Maharashtra",8046041165,
Hear roller brush,,Anil Brushwala,https://www.indiamart.com/anilbrushwala/?pos=140&kwd=baby hair brushes&tags=||||8211.142|Price|product|||TS|rsf:gd-|-stype:attr=1|qr_nm:gd|res:RC4|com-cf:nl|ptrs:na|ktp:N0|mc:98611|mtp:S|qry_typ:P|lang:en|wc:3|cs:8842|v=4,False,Kurla,Mumbai,"Vatsalatai Naik Nagar, Room No. C-190, Near S T Depot, Pipe Line, Kurla East, Kurla, Mumbai - 400071, Dist.Mumbai, Maharashtra",8047634432,
Wooden Hair Dye Brush,https://www.indiamart.com/proddetail/wooden-hair-dye-brush-25319239573.html?pos=141&kwd=baby hair brushes&tags=||||8211.142|Price|product|||TS|rsf:gd-|-stype:attr=1|qr_nm:gd|res:RC4|com-cf:nl|ptrs:na|ktp:N0|mc:98611|mtp:S|qry_typ:P|lang:en|wc:3|cs:8842|v=4,Pyrex Plastics,https://www.pyrexplastics.in/?pos=141&kwd=baby hair brushes&tags=||||8211.142|Price|product|||TS|rsf:gd-|-stype:attr=1|qr_nm:gd|res:RC4|com-cf:nl|ptrs:na|ktp:N0|mc:98611|mtp:S|qry_typ:P|lang:en|wc:3|cs:8842|v=4,False,Andheri East,Mumbai,"A2,106 Subh Innovate Industrial east vasai east, Andheri East, Mumbai - 400058, Dist.Mumbai, Maharashtra",8047636033,
"Multicolor ABS Hollow Cushion Comb, For Household",https://www.indiamart.com/proddetail/hollow-cushion-comb-2850055856155.html?pos=142&kwd=baby hair brushes&tags=||||8211.142|Price|product|||TS|rsf:gd-|-stype:attr=1|qr_nm:gd|res:RC4|com-cf:nl|ptrs:na|ktp:N0|mc:98611|mtp:S|qry_typ:P|lang:en|wc:3|cs:8842|v=4,Glow World,https://www.glowworld.net/?pos=142&kwd=baby hair brushes&tags=||||8211.142|Price|product|||TS|rsf:gd-|-stype:attr=1|qr_nm:gd|res:RC4|com-cf:nl|ptrs:na|ktp:N0|mc:98611|mtp:S|qry_typ:P|lang:en|wc:3|cs:8842|v=4,False,Umerkhadi,Mumbai,"426 Xcross Lane, Kolsa Street, Shiren Mansion, Above Cafe Parveen 2nd Floor, Umerkhadi, Mumbai - 400003, Dist.Mumbai, Maharashtra",8046054511,
"Pbt Crimbed Makeup Brush, For Loose Powder",https://www.indiamart.com/proddetail/crimbed-makeup-brush-2851876597888.html?pos=143&kwd=baby hair brushes&tags=||||8752.144|Price|product|||TS|rsf:gd-|-stype:attr=1|qr_nm:gd|res:RC4|com-cf:nl|ptrs:na|ktp:N0|mc:98611|mtp:S|qry_typ:P|lang:en|wc:3|cs:8842|v=4,Goyal Bristle House,https://www.indiamart.com/goyal-bristle-house/?pos=143&kwd=baby hair brushes&tags=||||8752.144|Price|product|||TS|rsf:gd-|-stype:attr=1|qr_nm:gd|res:RC4|com-cf:nl|ptrs:na|ktp:N0|mc:98611|mtp:S|qry_typ:P|lang:en|wc:3|cs:8842|v=4,False,,New Delhi,"B-5, Plot No.5, Gupta Arcade, Srestha Vihar, New Delhi - 110092, Dist.Delhi, Delhi",7942866100,
Hair Style Roll Fril,https://www.indiamart.com/proddetail/hair-style-roll-frill-19126113133.html?pos=144&kwd=baby hair brushes&tags=||||8242.731|Price|product|||TS|rsf:gd-|-stype:attr=1|qr_nm:gd|res:RC4|com-cf:nl|ptrs:na|ktp:N0|mc:98611|mtp:S|qry_typ:P|lang:en|wc:3|cs:8842|v=4,Kiran Traders,https://www.indiamart.com/kirantraders-ulhasnagar/?pos=144&kwd=baby hair brushes&tags=||||8242.731|Price|product|||TS|rsf:gd-|-stype:attr=1|qr_nm:gd|res:RC4|com-cf:nl|ptrs:na|ktp:N0|mc:98611|mtp:S|qry_typ:P|lang:en|wc:3|cs:8842|v=4,False,BK No. 129,Ulhasnagar,"Amarlal Palace, Near Sadhubella School BK. No. 129, R. No. 7, BK No. 129, Ulhasnagar - 421001, Dist.Thane, Maharashtra",8047634427,
Aluminium Black Hair Brush 4Pcs Set Moonseason,https://www.indiamart.com/proddetail/black-hair-brush-4pcs-set-moonseason-2854122105312.html?pos=145&kwd=baby hair brushes&tags=||||8211.142|Price|product|||TS|rsf:gd-|-stype:attr=1|qr_nm:gd|res:RC4|com-cf:nl|ptrs:na|ktp:N0|mc:98611|mtp:S|qry_typ:P|lang:en|wc:3|cs:8842|v=4,Bharat Trading,https://www.indiamart.com/bharat-tradingmumbai/?pos=145&kwd=baby hair brushes&tags=||||8211.142|Price|product|||TS|rsf:gd-|-stype:attr=1|qr_nm:gd|res:RC4|com-cf:nl|ptrs:na|ktp:N0|mc:98611|mtp:S|qry_typ:P|lang:en|wc:3|cs:8842|v=4,False,Kurla West,Mumbai,"14, Fithwala Chwal, Pipe Road, Kurla West, Kurla West, Mumbai - 400070, Dist.Mumbai, Maharashtra",7942838972,
"Black Plastic Hair Scalp Massager Shampoo Brush, For Household",https://www.indiamart.com/proddetail/hair-scalp-massager-shampoo-brush-2852615524433.html?pos=146&kwd=baby hair brushes&tags=||||8038.093|Price|product|||TS|rsf:gd-|-stype:attr=1|qr_nm:gd|res:RC4|com-cf:nl|ptrs:na|ktp:N0|mc:98611|mtp:S|qry_typ:P|lang:en|wc:3|cs:8842|v=4,Seven Enterprise,https://www.indiamart.com/seven-enterprise-rajkot/?pos=146&kwd=baby hair brushes&tags=||||8038.093|Price|product|||TS|rsf:gd-|-stype:attr=1|qr_nm:gd|res:RC4|com-cf:nl|ptrs:na|ktp:N0|mc:98611|mtp:S|qry_typ:P|lang:en|wc:3|cs:8842|v=4,False,New Sagar Society,Rajkot,"Opp Raj Hansh Pan Street, Shri Hari IND Zone-1, Plot No-54,Street No-6, Unnamed Road, National Highway, Aji, New Sagar Society, Rajkot - 360002, Dist.Rajkot, Gujarat",7942871035,
"Mystique Hair Synthetic Hair & Goat Hair Make Up Brush Set, For Professional",https://www.indiamart.com/proddetail/make-up-brush-set-21020491573.html?pos=147&kwd=baby hair brushes&tags=||||8752.144|Price|product|||TS|rsf:gd-|-stype:attr=1|qr_nm:gd|res:RC4|com-cf:nl|ptrs:na|ktp:N0|mc:98611|mtp:S|qry_typ:P|lang:en|wc:3|cs:8842|v=4,Mystique Hair,https://www.indiamart.com/mystique-hair/?pos=147&kwd=baby hair brushes&tags=||||8752.144|Price|product|||TS|rsf:gd-|-stype:attr=1|qr_nm:gd|res:RC4|com-cf:nl|ptrs:na|ktp:N0|mc:98611|mtp:S|qry_typ:P|lang:en|wc:3|cs:8842|v=4,False,Rohini Institutional Area,New Delhi,"B-7/16, First Floor, Sector-11, Rohini, Rohini Institutional Area, New Delhi - 110085, Dist.Delhi, Delhi",8047622973,
Bowl & Brush For Hair Spa & Color,https://www.indiamart.com/proddetail/bowl-brush-for-hair-spa-color-2852052446091.html?pos=148&kwd=baby hair brushes&tags=||||8778.123|Price|product|||TS|rsf:gd-|-stype:attr=1|qr_nm:gd|res:RC4|com-cf:nl|ptrs:na|ktp:N0|mc:98611|mtp:S|qry_typ:P|lang:en|wc:3|cs:8842|v=4,Prokare ( A Brand of Ritu Jewels Private Limited),https://www.indiamart.com/ritujewels/?pos=148&kwd=baby hair brushes&tags=||||8778.123|Price|product|||TS|rsf:gd-|-stype:attr=1|qr_nm:gd|res:RC4|com-cf:nl|ptrs:na|ktp:N0|mc:98611|mtp:S|qry_typ:P|lang:en|wc:3|cs:8842|v=4,False,Sarojini Nagar,Noida,"500, Ground Floor Sector-29 Noida Gautam Buddha Nagar, Sarojini Nagar, Noida - 201301, Dist.Gautam Budh Nagar, Uttar Pradesh",,
Plastic Black Combi Brush,https://www.indiamart.com/proddetail/black-combi-brush-2854306242088.html?pos=149&kwd=baby hair brushes&tags=||||8778.123|Price|product|||TS|rsf:gd-|-stype:attr=1|qr_nm:gd|res:RC4|com-cf:nl|ptrs:na|ktp:N0|mc:98611|mtp:S|qry_typ:P|lang:en|wc:3|cs:8842|v=4,Spunk Indo Marketings,https://www.indiamart.com/spunk-indo-marketings-ghaziabad/?pos=149&kwd=baby hair brushes&tags=||||8778.123|Price|product|||TS|rsf:gd-|-stype:attr=1|qr_nm:gd|res:RC4|com-cf:nl|ptrs:na|ktp:N0|mc:98611|mtp:S|qry_typ:P|lang:en|wc:3|cs:8842|v=4,False,,Noida,"G 210, Ground Floor, Sector 63, Noida - 201301, Dist.Gautam Budh Nagar, Uttar Pradesh",8045735701,
"Black Ceramic Pig Hair Brush, For Cleaning",https://www.indiamart.com/proddetail/pig-hair-brush-22656824562.html?pos=150&kwd=baby hair brushes&tags=||||8215.6|Price|product|||TS|rsf:gd-|-stype:attr=1|qr_nm:gd|res:RC4|com-cf:nl|ptrs:na|ktp:N0|mc:98611|mtp:S|qry_typ:P|lang:en|wc:3|cs:8842|v=4,New Tech Enterprise,https://www.newtechenterprise.co.in/?pos=150&kwd=baby hair brushes&tags=||||8215.6|Price|product|||TS|rsf:gd-|-stype:attr=1|qr_nm:gd|res:RC4|com-cf:nl|ptrs:na|ktp:N0|mc:98611|mtp:S|qry_typ:P|lang:en|wc:3|cs:8842|v=4,False,Ayodhya Nagar,Mehsana,"24, Ayodhya Nagar, Nanikadi, Kadi, Gujarat, Ayodhya Nagar, Mehsana - 382715, Dist.Mehsana, Gujarat",8046060635,
Mix Baby Nail Trimmer,https://www.indiamart.com/proddetail/baby-nail-trimmer-2850184294362.html?pos=151&kwd=baby hair brushes&tags=||||8211.142|Price|product|||TS|rsf:gd-|-stype:attr=1|qr_nm:gd|res:RC4|com-cf:nl|ptrs:na|ktp:N0|mc:98611|mtp:S|qry_typ:P|lang:en|wc:3|cs:8842|v=4,M S Trader's,https://www.mstraders.in.net/?pos=151&kwd=baby hair brushes&tags=||||8211.142|Price|product|||TS|rsf:gd-|-stype:attr=1|qr_nm:gd|res:RC4|com-cf:nl|ptrs:na|ktp:N0|mc:98611|mtp:S|qry_typ:P|lang:en|wc:3|cs:8842|v=4,False,Town Hall,Mumbai,"2nd Floor 72/73 Saboo Siddik Road, Musafir Khana, Fort Bmc Dormitory Building, Town Hall, Mumbai - 400001, Dist.Mumbai, Maharashtra",7942541092,
Comb Brush,https://www.indiamart.com/proddetail/comb-brush-1951693333.html?pos=152&kwd=baby hair brushes&tags=||||8915.672||product|||TS|rsf:gd-|-stype:attr=1|qr_nm:gd|res:RC4|com-cf:nl|ptrs:na|ktp:N0|mc:98611|mtp:S|qry_typ:P|lang:en|wc:3|cs:8842|v=4,White Daisy,https://www.whitedaisyintl.net/?pos=152&kwd=baby hair brushes&tags=||||8915.672||product|||TS|rsf:gd-|-stype:attr=1|qr_nm:gd|res:RC4|com-cf:nl|ptrs:na|ktp:N0|mc:98611|mtp:S|qry_typ:P|lang:en|wc:3|cs:8842|v=4,False,Ghurathy,Moradabad,"No. 101, Kothiwal Nagar, Near Highland Building, Ghurathy, Moradabad - 244001, Dist.Moradabad, Uttar Pradesh",8046053484,
Multicolor Plastic Round Hair Brush,https://www.indiamart.com/proddetail/round-hair-brush-2855025881230.html?pos=153&kwd=baby hair brushes&tags=||||8038.093||product|||TS|rsf:gd-|-stype:attr=1|qr_nm:gd|res:RC4|com-cf:nl|ptrs:na|ktp:N0|mc:98611|mtp:S|qry_typ:P|lang:en|wc:3|cs:8842|v=4,Balaji Marketing,https://www.indiamart.com/balajimarketing-rajkot/?pos=153&kwd=baby hair brushes&tags=||||8038.093||product|||TS|rsf:gd-|-stype:attr=1|qr_nm:gd|res:RC4|com-cf:nl|ptrs:na|ktp:N0|mc:98611|mtp:S|qry_typ:P|lang:en|wc:3|cs:8842|v=4,False,Kotada Sangani,Rajkot,"Sardar Industrial Area Sapar Veraval, Kotada Sangani, Rajkot - 360024, Dist.Rajkot, Gujarat",8046047893,
"Multicolor Plastic Magic Round Hair Brush, Brush Length: 9 inches",https://www.indiamart.com/proddetail/magic-round-hair-brush-21660127473.html?pos=154&kwd=baby hair brushes&tags=||||8211.142|Price|product|||TS|rsf:gd-|-stype:attr=1|qr_nm:gd|res:RC4|com-cf:nl|ptrs:na|ktp:N0|mc:98611|mtp:S|qry_typ:P|lang:en|wc:3|cs:8842|v=4,B. R. Plastics,https://www.brplastics.net/?pos=154&kwd=baby hair brushes&tags=||||8211.142|Price|product|||TS|rsf:gd-|-stype:attr=1|qr_nm:gd|res:RC4|com-cf:nl|ptrs:na|ktp:N0|mc:98611|mtp:S|qry_typ:P|lang:en|wc:3|cs:8842|v=4,False,Thakurdwar,Mumbai,"59 Bhuleshwar Road 3rd Bhoiwada Gulalwadi, Thakurdwar, Mumbai - 400002, Dist.Mumbai, Maharashtra",8048986969,
222 wooden hair brush,https://www.indiamart.com/proddetail/222-wooden-hair-brush-2851944807848.html?pos=155&kwd=baby hair brushes&tags=||||8823.154||product|||TS|rsf:gd-|-stype:attr=1|qr_nm:gd|res:RC4|com-cf:nl|ptrs:na|ktp:N0|mc:98611|mtp:S|qry_typ:P|lang:en|wc:3|cs:8842|v=4,V. D. Enterprises,https://www.indiamart.com/vd-enterprisesagra/?pos=155&kwd=baby hair brushes&tags=||||8823.154||product|||TS|rsf:gd-|-stype:attr=1|qr_nm:gd|res:RC4|com-cf:nl|ptrs:na|ktp:N0|mc:98611|mtp:S|qry_typ:P|lang:en|wc:3|cs:8842|v=4,False,Tajganj,Agra,"12/33-A/A-6, New Abadi Dalhai Taj Ganj, Tajganj, Agra - 282001, Dist.Agra, Uttar Pradesh",8047656031,
Multicolor Baby Nail Cutter,https://www.indiamart.com/proddetail/baby-nail-cutter-2852775645048.html?pos=156&kwd=baby hair brushes&tags=||||8230.883|Price|product|||TS|rsf:gd-|-stype:attr=1|qr_nm:gd|res:RC4|com-cf:nl|ptrs:na|ktp:N0|mc:98611|mtp:S|qry_typ:P|lang:en|wc:3|cs:8842|v=4,Crazy Deal,https://www.ecomdeal.net/?pos=156&kwd=baby hair brushes&tags=||||8230.883|Price|product|||TS|rsf:gd-|-stype:attr=1|qr_nm:gd|res:RC4|com-cf:nl|ptrs:na|ktp:N0|mc:98611|mtp:S|qry_typ:P|lang:en|wc:3|cs:8842|v=4,False,Uttran,Surat,"3rd Floor, Shop No 303, Nr. Bhagyoday Residency, Raghuvir Textiles Mall, Magob, Uttran, Surat - 395010, Dist.Surat, Gujarat",8047815429,
"Multicolor Plastic Hair Scalp Adjustable Massager Shampoo Brush,scalp Shampoo Brush",https://www.indiamart.com/proddetail/hair-scalp-adjustable-massager-shampoo-brush-scalp-shampoo-brush-25572138130.html?pos=157&kwd=baby hair brushes&tags=||||8635.896|Price|product|||TS|rsf:gd-|-stype:attr=1|qr_nm:gd|res:RC4|com-cf:nl|ptrs:na|ktp:N0|mc:98611|mtp:S|qry_typ:P|lang:en|wc:3|cs:8842|v=4,SKV World,https://www.indiamart.com/skv-world/?pos=157&kwd=baby hair brushes&tags=||||8635.896|Price|product|||TS|rsf:gd-|-stype:attr=1|qr_nm:gd|res:RC4|com-cf:nl|ptrs:na|ktp:N0|mc:98611|mtp:S|qry_typ:P|lang:en|wc:3|cs:8842|v=4,False,Nagercoil,Kanyakumari,"Vetturnimadam, Nagercoil, Kanyakumari - 629003, Dist.Kanyakumari, Tamil Nadu",7942545168,
Size: Medium SGCB Horse Hair Multipurpose Wood Brush,https://www.indiamart.com/proddetail/sgcb-horse-hair-multipurpose-wood-brush-2854621500112.html?pos=158&kwd=baby hair brushes&tags=||||8230.883|Price|product|||TS|rsf:gd-|-stype:attr=1|qr_nm:gd|res:RC4|com-cf:nl|ptrs:na|ktp:N0|mc:98611|mtp:S|qry_typ:P|lang:en|wc:3|cs:8842|v=4,Shree Sai Auto Care,https://www.indiamart.com/shreesaiautocare/?pos=158&kwd=baby hair brushes&tags=||||8230.883|Price|product|||TS|rsf:gd-|-stype:attr=1|qr_nm:gd|res:RC4|com-cf:nl|ptrs:na|ktp:N0|mc:98611|mtp:S|qry_typ:P|lang:en|wc:3|cs:8842|v=4,False,Adajan,Surat,"Shop No. 2-3, Sarjan Complex Saurabh Police Chowki Lane, Adajan, Surat - 395009, Dist.Surat, Gujarat",8048957673,
Round White Salon Professional Hair Brush - Rond,https://www.indiamart.com/proddetail/salon-professional-hair-brush-rond-23032508588.html?pos=159&kwd=baby hair brushes&tags=||||8647.052|Price|product|||TS|rsf:gd-|-stype:attr=1|qr_nm:gd|res:RC4|com-cf:nl|ptrs:na|ktp:N0|mc:98611|mtp:S|qry_typ:P|lang:en|wc:3|cs:8842|v=4,And Brothers Company,https://www.indiamart.com/brothers-company-haryana/?pos=159&kwd=baby hair brushes&tags=||||8647.052|Price|product|||TS|rsf:gd-|-stype:attr=1|qr_nm:gd|res:RC4|com-cf:nl|ptrs:na|ktp:N0|mc:98611|mtp:S|qry_typ:P|lang:en|wc:3|cs:8842|v=4,False,Roop Nagar,Hansi,"UNIT NO. 27 / 18, RAM NAGAR COLONY, BHAGAT SINGH ROAD, Roop Nagar, Hansi - 125033, Dist.Hisar, Haryana",8048977650,
Pandora Ceramic Hair Brush,https://www.indiamart.com/proddetail/pandora-ceramic-hair-brush-8494339655.html?pos=160&kwd=baby hair brushes&tags=||||8752.144|Price|product|||TS|rsf:gd-|-stype:attr=1|qr_nm:gd|res:RC4|com-cf:nl|ptrs:na|ktp:N0|mc:98611|mtp:S|qry_typ:P|lang:en|wc:3|cs:8842|v=4,Beauty And Health Care Corporation,https://www.bahcc.in/?pos=160&kwd=baby hair brushes&tags=||||8752.144|Price|product|||TS|rsf:gd-|-stype:attr=1|qr_nm:gd|res:RC4|com-cf:nl|ptrs:na|ktp:N0|mc:98611|mtp:S|qry_typ:P|lang:en|wc:3|cs:8842|v=4,False,,New Delhi,"No. 51, Sharda Niketan, Near Saraswati Vihar, Deepali Chowk,, New Delhi - 110034, Dist.Delhi, Delhi",8048984602,
The Guru Shop Baby Nail Trimmer With Case,https://www.indiamart.com/proddetail/the-guru-shop-baby-nail-trimmer-with-case-2854368811648.html?pos=161&kwd=baby hair brushes&tags=||||8230.883|Price|product|||TS|rsf:gd-|-stype:attr=1|qr_nm:gd|res:RC4|com-cf:nl|ptrs:na|ktp:N0|mc:98611|mtp:S|qry_typ:P|lang:en|wc:3|cs:8842|v=4,The Guru Shop,https://www.indiamart.com/thegurushop/?pos=161&kwd=baby hair brushes&tags=||||8230.883|Price|product|||TS|rsf:gd-|-stype:attr=1|qr_nm:gd|res:RC4|com-cf:nl|ptrs:na|ktp:N0|mc:98611|mtp:S|qry_typ:P|lang:en|wc:3|cs:8842|v=4,False,Katargam,Surat,"F-33/34, 1st Floor, Radhe Shyam Society, Near Singanpore Char Rasta, Ved Road,, Katargam, Surat - 395004, Dist.Surat, Gujarat",8046037459,
"Valera Hair Dye Brush, for Parlour",https://www.indiamart.com/proddetail/hair-dye-brush-15709573633.html?pos=162&kwd=baby hair brushes&tags=||||8663.873|Price|product|||TS|rsf:gd-|-stype:attr=1|qr_nm:gd|res:RC4|com-cf:nl|ptrs:na|ktp:N0|mc:98611|mtp:S|qry_typ:P|lang:en|wc:3|cs:8842|v=4,Pasion Cosmetics Shoppe,https://www.pasioncosmeticsshoppe.com/?pos=162&kwd=baby hair brushes&tags=||||8663.873|Price|product|||TS|rsf:gd-|-stype:attr=1|qr_nm:gd|res:RC4|com-cf:nl|ptrs:na|ktp:N0|mc:98611|mtp:S|qry_typ:P|lang:en|wc:3|cs:8842|v=4,False,Indiranagar,Bengaluru,"No. 43/1 A, Aiswarya Mansion, 9th A Main Road, Indiranagar, Bengaluru - 560038, Dist.Bengaluru, Karnataka",8048952234,
Black Blow Dryer Brush Set,https://www.indiamart.com/proddetail/blow-dryer-brush-set-2336100733.html?pos=163&kwd=baby hair brushes&tags=||||8752.144|Price|product|||TS|rsf:gd-|-stype:attr=1|qr_nm:gd|res:RC4|com-cf:nl|ptrs:na|ktp:N0|mc:98611|mtp:S|qry_typ:P|lang:en|wc:3|cs:8842|v=4,Sakhi Beauty Concepts,https://www.sakhisalonfurniture.com/?pos=163&kwd=baby hair brushes&tags=||||8752.144|Price|product|||TS|rsf:gd-|-stype:attr=1|qr_nm:gd|res:RC4|com-cf:nl|ptrs:na|ktp:N0|mc:98611|mtp:S|qry_typ:P|lang:en|wc:3|cs:8842|v=4,False,Tagore Garden Extension,New Delhi,"A- 39, Basement, Opposite TDI Mall, Vishal Enclave, Tagore Garden Extension, New Delhi - 110027, Dist.Delhi, Delhi",8048967723,
Denman Black D200 Hyflex Vent Hair Brush,https://www.indiamart.com/proddetail/d200-hyflex-vent-hair-brush-22208565291.html?pos=164&kwd=baby hair brushes&tags=||||8752.144|Price|product|||TS|rsf:gd-|-stype:attr=1|qr_nm:gd|res:RC4|com-cf:nl|ptrs:na|ktp:N0|mc:98611|mtp:S|qry_typ:P|lang:en|wc:3|cs:8842|v=4,Shraddha Enterprises,https://www.shraddhaenterprises.in/?pos=164&kwd=baby hair brushes&tags=||||8752.144|Price|product|||TS|rsf:gd-|-stype:attr=1|qr_nm:gd|res:RC4|com-cf:nl|ptrs:na|ktp:N0|mc:98611|mtp:S|qry_typ:P|lang:en|wc:3|cs:8842|v=4,False,Vinod Nagar North,New Delhi,"E-80 FIRST FLOOR GALI NO-01 WEST VINOD NAGAR West Vinod Nagar, Mandawali, Vinod Nagar North, New Delhi - 110092, Dist.Delhi, Delhi",7942547409,
"Multicolor Baby Nail Cutter, For Child",https://www.indiamart.com/proddetail/baby-nail-cutter-27437190273.html?pos=165&kwd=baby hair brushes&tags=||||8230.883|Price|product|||TS|rsf:gd-|-stype:attr=1|qr_nm:gd|res:RC4|com-cf:nl|ptrs:na|ktp:N0|mc:98611|mtp:S|qry_typ:P|lang:en|wc:3|cs:8842|v=4,Isabella (A Brand Of Shayona Creation),https://www.srkmart.com/?pos=165&kwd=baby hair brushes&tags=||||8230.883|Price|product|||TS|rsf:gd-|-stype:attr=1|qr_nm:gd|res:RC4|com-cf:nl|ptrs:na|ktp:N0|mc:98611|mtp:S|qry_typ:P|lang:en|wc:3|cs:8842|v=4,False,Utran,Surat,"208, Turning Point Near Bank Of Baroda Bank, Utran, Surat - 394105, Dist.Surat, Gujarat",8046057635,
Black Plastic ACS Hair Brush - Vibrator Comb,https://www.indiamart.com/proddetail/acs-hair-brush-vibrator-comb-2852781483430.html?pos=166&kwd=baby hair brushes&tags=||||8752.144|Price|product|||TS|rsf:gd-|-stype:attr=1|qr_nm:gd|res:RC4|com-cf:nl|ptrs:na|ktp:N0|mc:98611|mtp:S|qry_typ:P|lang:en|wc:3|cs:8842|v=4,Acupressure Health Care Point,https://www.accupressures.com/?pos=166&kwd=baby hair brushes&tags=||||8752.144|Price|product|||TS|rsf:gd-|-stype:attr=1|qr_nm:gd|res:RC4|com-cf:nl|ptrs:na|ktp:N0|mc:98611|mtp:S|qry_typ:P|lang:en|wc:3|cs:8842|v=4,False,Multani Dhanda,New Delhi,"Shop No. -10060, Ground Floor Gali No.-1-2, Desh Raj Bhatiya Marg, Multani Dhanda, New Delhi - 110055, Dist.Delhi, Delhi",7942675616,
Brush for Detangling and Defining Curly and Afro hair - Anti-tangle comb,https://www.indiamart.com/proddetail/brush-for-detangling-and-defining-curly-and-afro-hair-anti-tangle-comb-2853587813397.html?pos=167&kwd=baby hair brushes&tags=||||8557.848|Price|product|||TS|rsf:gd-|-stype:attr=1|qr_nm:gd|res:RC4|com-cf:nl|ptrs:na|ktp:N0|mc:98611|mtp:S|qry_typ:P|lang:en|wc:3|cs:8842|v=4,Store Apt,https://www.indiamart.com/beauty-bot/?pos=167&kwd=baby hair brushes&tags=||||8557.848|Price|product|||TS|rsf:gd-|-stype:attr=1|qr_nm:gd|res:RC4|com-cf:nl|ptrs:na|ktp:N0|mc:98611|mtp:S|qry_typ:P|lang:en|wc:3|cs:8842|v=4,False,,Pathanamthitta,"16/589,,KALANJOOR,Kalanjoor Nandanam Variam, Kalanjoor, Pathanakthitta,689694,, Pathanamthitta - 689694, Dist.Pathanamthitta, Kerala",,
"Plastic Round Bristle Hair Brush, For Home,Parlour",https://www.indiamart.com/proddetail/round-bristle-hair-brush-22541544873.html?pos=168&kwd=baby hair brushes&tags=||||8752.144|Price|product|||TS|rsf:gd-|-stype:attr=1|qr_nm:gd|res:RC4|com-cf:nl|ptrs:na|ktp:N0|mc:98611|mtp:S|qry_typ:P|lang:en|wc:3|cs:8842|v=4,Sourabh Sales Corporation,https://www.indiamart.com/sourabh-sales-corporation-delhi/?pos=168&kwd=baby hair brushes&tags=||||8752.144|Price|product|||TS|rsf:gd-|-stype:attr=1|qr_nm:gd|res:RC4|com-cf:nl|ptrs:na|ktp:N0|mc:98611|mtp:S|qry_typ:P|lang:en|wc:3|cs:8842|v=4,False,Pitampura,New Delhi,"5605,GANDHI MARKET,,SADAR BAZAR, Pitampura, New Delhi - 110006, Dist.Delhi, Delhi",7942551842,
New Electric Blow Dryer Straight Hot Air Comb Hair Curling Wand Negative Ion Straightener Brush,https://www.indiamart.com/proddetail/new-electric-blow-dryer-straight-hot-air-comb-hair-curling-wand-negative-ion-straightener-brush-26927684162.html?pos=169&kwd=baby hair brushes&tags=||||8211.142|Price|product|||TS|rsf:gd-|-stype:attr=1|qr_nm:gd|res:RC4|com-cf:nl|ptrs:na|ktp:N0|mc:98611|mtp:S|qry_typ:P|lang:en|wc:3|cs:8842|v=4,Humaira Impex,https://www.humairaimpex.in/?pos=169&kwd=baby hair brushes&tags=||||8211.142|Price|product|||TS|rsf:gd-|-stype:attr=1|qr_nm:gd|res:RC4|com-cf:nl|ptrs:na|ktp:N0|mc:98611|mtp:S|qry_typ:P|lang:en|wc:3|cs:8842|v=4,False,Jogeshwari West,Mumbai,"A 602, Magnum Rose Apartment, Bandivali Hill Road, Jogeshwari West, Mumbai - 400102, Dist.Mumbai, Maharashtra",8047638057,
Plastic Curler Brush,,BAJORIA PLAST (INDIA),https://www.indiamart.com/bajoria-plast-india/?pos=170&kwd=baby hair brushes&tags=||||8752.144||product|||TS|rsf:gd-|-stype:attr=1|qr_nm:gd|res:RC4|com-cf:nl|ptrs:na|ktp:N0|mc:98611|mtp:S|qry_typ:P|lang:en|wc:3|cs:8842|v=4,False,Baratooti,New Delhi,"4593-94P, Deputy Ganj, Sadar Bazar, Baratooti, New Delhi - 110006, Dist.Delhi, Delhi",8047636796,
"Ceramic,Ionic Hair Round Brush Set",https://www.indiamart.com/proddetail/hair-round-brush-set-2853297248630.html?pos=171&kwd=baby hair brushes&tags=||||8281.036|Price|product|||TS|rsf:gd-|-stype:attr=1|qr_nm:gd|res:RC4|com-cf:nl|ptrs:na|ktp:N0|mc:98611|mtp:S|qry_typ:P|lang:en|wc:3|cs:8842|v=4,Master Sales,https://www.indiamart.com/master-sales-vadodara/?pos=171&kwd=baby hair brushes&tags=||||8281.036|Price|product|||TS|rsf:gd-|-stype:attr=1|qr_nm:gd|res:RC4|com-cf:nl|ptrs:na|ktp:N0|mc:98611|mtp:S|qry_typ:P|lang:en|wc:3|cs:8842|v=4,False,Wadi,Vadodara,"Ground Floor, 42, New Heaven Enclave, O/S Panigate, Wadi, Vadodara - 390019, Dist.Vadodara, Gujarat",7949227275,
Standard Rectangle Wooden Base Brushes,https://www.indiamart.com/proddetail/wooden-base-brushes-12693695448.html?pos=172&kwd=baby hair brushes&tags=||||8584.299|Price|product|||TS|rsf:gd-|-stype:attr=1|qr_nm:gd|res:RC4|com-cf:nl|ptrs:na|ktp:N0|mc:98611|mtp:S|qry_typ:P|lang:en|wc:3|cs:8842|v=4,G.J Brush Industries,https://www.gjbrushes.in/?pos=172&kwd=baby hair brushes&tags=||||8584.299|Price|product|||TS|rsf:gd-|-stype:attr=1|qr_nm:gd|res:RC4|com-cf:nl|ptrs:na|ktp:N0|mc:98611|mtp:S|qry_typ:P|lang:en|wc:3|cs:8842|v=4,True,Vilankurichi,Coimbatore,"31 A, Gandhi Street, Vilankurichi, Vilankurichi, Coimbatore - 641035, Dist.Coimbatore, Tamil Nadu",8048958427,
White Plastic Comb Scalp Massage Brush,https://www.indiamart.com/proddetail/comb-scalp-massage-brush-2854190739362.html?pos=173&kwd=baby hair brushes&tags=||||8228.275|Price|product|||TS|rsf:gd-|-stype:attr=1|qr_nm:gd|res:RC4|com-cf:nl|ptrs:na|ktp:N0|mc:98611|mtp:S|qry_typ:P|lang:en|wc:3|cs:8842|v=4,See Inside,https://www.seeinside.co.in/?pos=173&kwd=baby hair brushes&tags=||||8228.275|Price|product|||TS|rsf:gd-|-stype:attr=1|qr_nm:gd|res:RC4|com-cf:nl|ptrs:na|ktp:N0|mc:98611|mtp:S|qry_typ:P|lang:en|wc:3|cs:8842|v=4,False,Kathwada,Ahmedabad,"A/6 - Zaveri Estate, Odhav Industrial Estate, Singarwa Kathwada Rd, Nr. Shubh Industrial Estate Kathwada, Kathwada, Ahmedabad - 382430, Dist.Ahmedabad, Gujarat",8048611458,
"HQ09 Hair Brush, Usage: Professional, Household",https://www.indiamart.com/proddetail/hq09-hair-brush-18719816455.html?pos=174&kwd=baby hair brushes&tags=||||8752.144|Price|product|||TS|rsf:gd-|-stype:attr=1|qr_nm:gd|res:RC4|com-cf:nl|ptrs:na|ktp:N0|mc:98611|mtp:S|qry_typ:P|lang:en|wc:3|cs:8842|v=4,Seema S Enterprises,https://www.stealthxindia.com/?pos=174&kwd=baby hair brushes&tags=||||8752.144|Price|product|||TS|rsf:gd-|-stype:attr=1|qr_nm:gd|res:RC4|com-cf:nl|ptrs:na|ktp:N0|mc:98611|mtp:S|qry_typ:P|lang:en|wc:3|cs:8842|v=4,False,Kashmere Gate,New Delhi,"Pocket B/2-c, Block - I, Phase-iii, Ashok Vihar, Kashmere Gate, New Delhi - 110006, Dist.Delhi, Delhi",8047642574,
"Baby Nail File Electric, Gentle Baby Nail Trimmer Electric Rechargable, Baby Nail Clipper",https://www.indiamart.com/proddetail/baby-nail-file-electric-gentle-baby-nail-trimmer-electric-rechargable-baby-nail-clipper-2853098765691.html?pos=175&kwd=baby hair brushes&tags=||||8230.883|Price|product|||TS|rsf:gd-|-stype:attr=1|qr_nm:gd|res:RC4|com-cf:nl|ptrs:na|ktp:N0|mc:98611|mtp:S|qry_typ:P|lang:en|wc:3|cs:8842|v=4,Tallin Sales,https://www.indiamart.com/tallin-sales/?pos=175&kwd=baby hair brushes&tags=||||8230.883|Price|product|||TS|rsf:gd-|-stype:attr=1|qr_nm:gd|res:RC4|com-cf:nl|ptrs:na|ktp:N0|mc:98611|mtp:S|qry_typ:P|lang:en|wc:3|cs:8842|v=4,False,Singanpor,Surat,"Lakshmi Enclave Basement near Gajera School, Singanpor, Surat - 395004, Dist.Surat, Gujarat",7942542891,
"Foam Upto 3 Years Baby Bath Shower Cap, For Home",https://www.indiamart.com/proddetail/baby-bath-shower-cap-21847915373.html?pos=176&kwd=baby hair brushes&tags=||||8230.883|Price|product|||TS|rsf:gd-|-stype:attr=1|qr_nm:gd|res:RC4|com-cf:nl|ptrs:na|ktp:N0|mc:98611|mtp:S|qry_typ:P|lang:en|wc:3|cs:8842|v=4,Hemiza Enterprise,https://www.hemiza.in/?pos=176&kwd=baby hair brushes&tags=||||8230.883|Price|product|||TS|rsf:gd-|-stype:attr=1|qr_nm:gd|res:RC4|com-cf:nl|ptrs:na|ktp:N0|mc:98611|mtp:S|qry_typ:P|lang:en|wc:3|cs:8842|v=4,False,Katargam,Surat,"71, Ground Floor, Shubhash Nagar Society Near Shakti Nagar Ni Vadi, Katargam, Surat - 395004, Dist.Surat, Gujarat",8048976391,
Kristor Hair Automatic Straightener Brush,https://www.indiamart.com/proddetail/hair-automatic-straightener-brush-16167144897.html?pos=177&kwd=baby hair brushes&tags=||||8211.142|Price|product|||TS|rsf:gd-|-stype:attr=1|qr_nm:gd|res:RC4|com-cf:nl|ptrs:na|ktp:N0|mc:98611|mtp:S|qry_typ:P|lang:en|wc:3|cs:8842|v=4,SK Infosyes,https://www.indiamart.com/sk-infosyes/?pos=177&kwd=baby hair brushes&tags=||||8211.142|Price|product|||TS|rsf:gd-|-stype:attr=1|qr_nm:gd|res:RC4|com-cf:nl|ptrs:na|ktp:N0|mc:98611|mtp:S|qry_typ:P|lang:en|wc:3|cs:8842|v=4,False,Mumbai,Mumbai,"Shop no 6 Madina building Musafirkhana Road, Mumbai, Mumbai - 400001, Dist.Mumbai, Maharashtra",8048975850,
Plastic Hair Dye Brush Professional Hair Coloring Reusable Hair Dye Brush for Men and Women Self Use,https://www.indiamart.com/proddetail/plastic-hair-dye-brush-professional-hair-coloring-reusable-hair-dye-brush-for-men-and-women-self-use-2853154494362.html?pos=178&kwd=baby hair brushes&tags=||||8752.144||product|||TS|rsf:gd-|-stype:attr=1|qr_nm:gd|res:RC4|com-cf:nl|ptrs:na|ktp:N0|mc:98611|mtp:S|qry_typ:P|lang:en|wc:3|cs:8842|v=4,MS Enterprises,https://www.themayansh.com/?pos=178&kwd=baby hair brushes&tags=||||8752.144||product|||TS|rsf:gd-|-stype:attr=1|qr_nm:gd|res:RC4|com-cf:nl|ptrs:na|ktp:N0|mc:98611|mtp:S|qry_typ:P|lang:en|wc:3|cs:8842|v=4,False,Shakurpur,New Delhi,"3503, Block WZ, Raja Park, Shakur Basti,North West, Shakurpur, New Delhi - 110034, Dist.Delhi, Delhi",8047650795,
Himalaya Baby Care Products,https://www.indiamart.com/proddetail/himalaya-baby-care-products-2849260304462.html?pos=179&kwd=baby hair brushes&tags=||||8211.142||product|||TS|rsf:gd-|-stype:attr=1|qr_nm:gd|res:RC4|com-cf:nl|ptrs:na|ktp:N0|mc:98611|mtp:S|qry_typ:P|lang:en|wc:3|cs:8842|v=4,Ennar Enterprises,https://www.indiamart.com/ennar-entp-mumbai/?pos=179&kwd=baby hair brushes&tags=||||8211.142||product|||TS|rsf:gd-|-stype:attr=1|qr_nm:gd|res:RC4|com-cf:nl|ptrs:na|ktp:N0|mc:98611|mtp:S|qry_typ:P|lang:en|wc:3|cs:8842|v=4,False,Masjid Bandar,Mumbai,"1st, M-101, Vardhaman Nagar, Dr R P Road, Masjid Bandar, Mumbai - 400080, Dist.Mumbai, Maharashtra",8046030904,
"Baby Electric Nail Trimmer, Baby Nail Trimmer Baby Nail Cutter",https://www.indiamart.com/proddetail/baby-electric-nail-trimmer-baby-nail-trimmer-baby-nail-cutter-25961576633.html?pos=180&kwd=baby hair brushes&tags=||||8752.144|Price|product|||TS|rsf:gd-|-stype:attr=1|qr_nm:gd|res:RC4|com-cf:nl|ptrs:na|ktp:N0|mc:98611|mtp:S|qry_typ:P|lang:en|wc:3|cs:8842|v=4,Shiv Darshan Sansthan,https://www.shivdarshansansthan.com/?pos=180&kwd=baby hair brushes&tags=||||8752.144|Price|product|||TS|rsf:gd-|-stype:attr=1|qr_nm:gd|res:RC4|com-cf:nl|ptrs:na|ktp:N0|mc:98611|mtp:S|qry_typ:P|lang:en|wc:3|cs:8842|v=4,False,Pandav Nagar,New Delhi,"Bunglow, Plot No. 10, Pandav Nagar, New Delhi - 110092, Dist.Delhi, Delhi",8048984990,
Simply Straight Ceramic Straightening Power Brush,https://www.indiamart.com/proddetail/simply-straight-ceramic-straightening-power-brush-15039649333.html?pos=181&kwd=baby hair brushes&tags=||||8752.144|Price|product|||TS|rsf:gd-|-stype:attr=1|qr_nm:gd|res:RC4|com-cf:nl|ptrs:na|ktp:N0|mc:98611|mtp:S|qry_typ:P|lang:en|wc:3|cs:8842|v=4,Wonder World,https://www.seemamart.com/?pos=181&kwd=baby hair brushes&tags=||||8752.144|Price|product|||TS|rsf:gd-|-stype:attr=1|qr_nm:gd|res:RC4|com-cf:nl|ptrs:na|ktp:N0|mc:98611|mtp:S|qry_typ:P|lang:en|wc:3|cs:8842|v=4,False,Baratooti,New Delhi,"No. 2927/19, 2nd Floor, Krishna Chambers Bahadurgarh Road, Baratooti, New Delhi - 110006, Dist.Delhi, Delhi",8048964709,
Hair Scalp Massager Shampoo Brush,https://www.indiamart.com/proddetail/hair-scalp-massager-shampoo-brush-2854166699330.html?pos=182&kwd=baby hair brushes&tags=||||8752.144|Price|product|||TS|rsf:gd-|-stype:attr=1|qr_nm:gd|res:RC4|com-cf:nl|ptrs:na|ktp:N0|mc:98611|mtp:S|qry_typ:P|lang:en|wc:3|cs:8842|v=4,Shri Shyam Enterprises,https://www.shoppersfuture.com/?pos=182&kwd=baby hair brushes&tags=||||8752.144|Price|product|||TS|rsf:gd-|-stype:attr=1|qr_nm:gd|res:RC4|com-cf:nl|ptrs:na|ktp:N0|mc:98611|mtp:S|qry_typ:P|lang:en|wc:3|cs:8842|v=4,False,Vijay Park,New Delhi,"538,First Floor,Street No 5,Vijay Park Maujpur, Vijay Park, New Delhi - 110053, Dist.Delhi, Delhi",8048959470,
Rectangle Assorted Hot Hair Brush,https://www.indiamart.com/proddetail/hot-hair-brush-24619856997.html?pos=183&kwd=baby hair brushes&tags=||||8752.144|Price|product|||TS|rsf:gd-|-stype:attr=1|qr_nm:gd|res:RC4|com-cf:nl|ptrs:na|ktp:N0|mc:98611|mtp:S|qry_typ:P|lang:en|wc:3|cs:8842|v=4,P D Enterprises,https://www.indiamart.com/pdenterprises-new-delhi/?pos=183&kwd=baby hair brushes&tags=||||8752.144|Price|product|||TS|rsf:gd-|-stype:attr=1|qr_nm:gd|res:RC4|com-cf:nl|ptrs:na|ktp:N0|mc:98611|mtp:S|qry_typ:P|lang:en|wc:3|cs:8842|v=4,False,Azadpur,New Delhi,"S7A, Suraj Nagar, Azadpur, Azadpur, New Delhi - 110033, Dist.Delhi, Delhi",8048952304,
Black Plastic Ozivia Hair Dye Brush,https://www.indiamart.com/proddetail/ozivia-hair-dye-brush-25467728873.html?pos=184&kwd=baby hair brushes&tags=||||8752.144||product|||TS|rsf:gd-|-stype:attr=1|qr_nm:gd|res:RC4|com-cf:nl|ptrs:na|ktp:N0|mc:98611|mtp:S|qry_typ:P|lang:en|wc:3|cs:8842|v=4,D S Enterprises,https://www.indiamart.com/ds-enterprises-india/?pos=184&kwd=baby hair brushes&tags=||||8752.144||product|||TS|rsf:gd-|-stype:attr=1|qr_nm:gd|res:RC4|com-cf:nl|ptrs:na|ktp:N0|mc:98611|mtp:S|qry_typ:P|lang:en|wc:3|cs:8842|v=4,False,Sadar Bazar Delh,New Delhi,"First Floor, 5232/34, Gandhi Market, Sadar Bazar 138, 2 Floor, Balaji Market, Mithaipul, 138, 2 Floor, Balaji Market, Mithaipul, Sadar Bazar Delh, New Delhi - 110006, Dist.Delhi, Delhi",8046031384,
Pawa Hair Dye Brush,https://www.indiamart.com/proddetail/hair-dye-brush-14161599833.html?pos=185&kwd=baby hair brushes&tags=||||8752.144|Price|product|||TS|rsf:gd-|-stype:attr=1|qr_nm:gd|res:RC4|com-cf:nl|ptrs:na|ktp:N0|mc:98611|mtp:S|qry_typ:P|lang:en|wc:3|cs:8842|v=4,Bombay Brush Industries,https://www.bombaybrushindustries.in/?pos=185&kwd=baby hair brushes&tags=||||8752.144|Price|product|||TS|rsf:gd-|-stype:attr=1|qr_nm:gd|res:RC4|com-cf:nl|ptrs:na|ktp:N0|mc:98611|mtp:S|qry_typ:P|lang:en|wc:3|cs:8842|v=4,False,Sadar Bazar.,New Delhi,"No. 4996, Gali School Wali, Rui Mandi, Sadar Bazar., New Delhi - 110006, Dist.Delhi, Delhi",8048957911,
"Rectangular Yellow and Red Wooden Hair Brush, For Cleaning",https://www.indiamart.com/proddetail/wooden-hair-brush-20627239588.html?pos=186&kwd=baby hair brushes&tags=||||8752.144|Price|product|||TS|rsf:gd-|-stype:attr=1|qr_nm:gd|res:RC4|com-cf:nl|ptrs:na|ktp:N0|mc:98611|mtp:S|qry_typ:P|lang:en|wc:3|cs:8842|v=4,AR Trading Company,https://www.artradingcompany.in/?pos=186&kwd=baby hair brushes&tags=||||8752.144|Price|product|||TS|rsf:gd-|-stype:attr=1|qr_nm:gd|res:RC4|com-cf:nl|ptrs:na|ktp:N0|mc:98611|mtp:S|qry_typ:P|lang:en|wc:3|cs:8842|v=4,False,Chandni Chowk,New Delhi,"4393, First Floor, Shahganj, Ajmeri Gate, Chandni Chowk, New Delhi - 110006, Dist.Delhi, Delhi",8048615038,
Qawachh Comb Hair Dye Brush,https://www.indiamart.com/proddetail/hair-dye-brush-22985953273.html?pos=187&kwd=baby hair brushes&tags=||||8752.144|Price|product|||TS|rsf:gd-|-stype:attr=1|qr_nm:gd|res:RC4|com-cf:nl|ptrs:na|ktp:N0|mc:98611|mtp:S|qry_typ:P|lang:en|wc:3|cs:8842|v=4,Qawachh Mobility,https://www.qawachh.in/?pos=187&kwd=baby hair brushes&tags=||||8752.144|Price|product|||TS|rsf:gd-|-stype:attr=1|qr_nm:gd|res:RC4|com-cf:nl|ptrs:na|ktp:N0|mc:98611|mtp:S|qry_typ:P|lang:en|wc:3|cs:8842|v=4,False,Karol Bagh,New Delhi,"F 103, D B Gupta Road, Karol Bagh, Near Gaffar Market, Karol Bagh, New Delhi - 110005, Dist.Delhi, Delhi",8046053872,
"Modulyss Adjustable Safe Shampoo Shower Bathing Protection Bath Cap For Toddler, Baby",https://www.indiamart.com/proddetail/modulyss-adjustable-safe-shampoo-shower-bathing-protection-bath-cap-for-toddler-baby-2850158719312.html?pos=188&kwd=baby hair brushes&tags=||||8230.883|Price|product|||TS|rsf:gd-|-stype:attr=1|qr_nm:gd|res:RC4|com-cf:nl|ptrs:na|ktp:N0|mc:98611|mtp:S|qry_typ:P|lang:en|wc:3|cs:8842|v=4,Modulyss,https://www.modulyss.in/?pos=188&kwd=baby hair brushes&tags=||||8230.883|Price|product|||TS|rsf:gd-|-stype:attr=1|qr_nm:gd|res:RC4|com-cf:nl|ptrs:na|ktp:N0|mc:98611|mtp:S|qry_typ:P|lang:en|wc:3|cs:8842|v=4,False,Katargam,Surat,"Modulyss OFFICE NO :- 2 BASEMENT-1, SUNDAY HUB, NEAR AMBA TALAVDI, OPP ANKUR SCHOOL, KATARGAM, SURAT, Katargam, Surat - 395004, Dist.Surat, Gujarat",7942792869,
Hard Bristle Brush,https://www.indiamart.com/proddetail/hard-bristle-brush-2852820233612.html?pos=189&kwd=baby hair brushes&tags=||||8769.508|Price|product|||TS|rsf:gd-|-stype:attr=1|qr_nm:gd|res:RC4|com-cf:nl|ptrs:na|ktp:N0|mc:98611|mtp:S|qry_typ:P|lang:en|wc:3|cs:8842|v=4,Guru Kirpa Enterprises,https://www.indiamart.com/gurukirpaenterprises-faridabad/?pos=189&kwd=baby hair brushes&tags=||||8769.508|Price|product|||TS|rsf:gd-|-stype:attr=1|qr_nm:gd|res:RC4|com-cf:nl|ptrs:na|ktp:N0|mc:98611|mtp:S|qry_typ:P|lang:en|wc:3|cs:8842|v=4,False,New Industrial Township 1,Faridabad,"H. No-1A/25, Block-1A, Near Ram Dharam Kanta, NIT, New Industrial Township 1, Faridabad - 121001, Dist.Faridabad, Haryana",7942968184,
"Soft 14 Bristle Line Wooden Brush, For Cleaning, Size: 8 Inch",https://www.indiamart.com/proddetail/14-bristle-line-wooden-brush-22550148148.html?pos=190&kwd=baby hair brushes&tags=||||8752.144|Price|product|||TS|rsf:gd-|-stype:attr=1|qr_nm:gd|res:RC4|com-cf:nl|ptrs:na|ktp:N0|mc:98611|mtp:S|qry_typ:P|lang:en|wc:3|cs:8842|v=4,Ranjeet Brush Industries,https://www.indiamart.com/ranjeet-brush-industries/?pos=190&kwd=baby hair brushes&tags=||||8752.144|Price|product|||TS|rsf:gd-|-stype:attr=1|qr_nm:gd|res:RC4|com-cf:nl|ptrs:na|ktp:N0|mc:98611|mtp:S|qry_typ:P|lang:en|wc:3|cs:8842|v=4,False,Mangolpuri,New Delhi,"Shed No 3/2, Floor Ground, Dsidc Shed, Mangol Puri, Mangolpuri, New Delhi - 110083, Dist.Delhi, Delhi",8046048441,
Multicolor Plastic Professional Hair Styler Brush,https://www.indiamart.com/proddetail/professional-hair-styler-brush-2853719617362.html?pos=191&kwd=baby hair brushes&tags=||||8752.144||product|||TS|rsf:gd-|-stype:attr=1|qr_nm:gd|res:RC4|com-cf:nl|ptrs:na|ktp:N0|mc:98611|mtp:S|qry_typ:P|lang:en|wc:3|cs:8842|v=4,Beauty 'n' Beyond,https://www.beautysalonequipments.com/?pos=191&kwd=baby hair brushes&tags=||||8752.144||product|||TS|rsf:gd-|-stype:attr=1|qr_nm:gd|res:RC4|com-cf:nl|ptrs:na|ktp:N0|mc:98611|mtp:S|qry_typ:P|lang:en|wc:3|cs:8842|v=4,False,Lajpat Nagar,New Delhi,"D-2/B, Next To V-Mart, Lajpat Nagar-2 New Delhi -24 Lajpat Nagar Metro Station Exit GN-5, Lajpat Nagar, New Delhi - 110024, Dist.Delhi, Delhi",8048988063,
Natural Wooden Hair Brush Bamboo Paddle Brush,https://www.indiamart.com/proddetail/wooden-hair-brush-bamboo-paddle-brush-2849781310373.html?pos=192&kwd=baby hair brushes&tags=||||8752.144|Price|product|||TS|rsf:gd-|-stype:attr=1|qr_nm:gd|res:RC4|com-cf:nl|ptrs:na|ktp:N0|mc:98611|mtp:S|qry_typ:P|lang:en|wc:3|cs:8842|v=4,The Bamboo Bae,https://www.bambooproducts.co.in/?pos=192&kwd=baby hair brushes&tags=||||8752.144|Price|product|||TS|rsf:gd-|-stype:attr=1|qr_nm:gd|res:RC4|com-cf:nl|ptrs:na|ktp:N0|mc:98611|mtp:S|qry_typ:P|lang:en|wc:3|cs:8842|v=4,False,Jagjeet Nagar,New Delhi,"E-614, Indra Gali No 4, 3rd Pusta, Jagjeet Nagar, Jagjeet Nagar, New Delhi - 110053, Dist.Delhi, Delhi",8048979668,
Forever52 NX022 Comb Brush,https://www.indiamart.com/proddetail/forever52-nx022-comb-brush-2853354642755.html?pos=193&kwd=baby hair brushes&tags=||||8211.142|Price|product|||TS|rsf:gd-|-stype:attr=1|qr_nm:gd|res:RC4|com-cf:nl|ptrs:na|ktp:N0|mc:98611|mtp:S|qry_typ:P|lang:en|wc:3|cs:8842|v=4,Sawariya Beauty,https://www.indiamart.com/sawariya-beauty/?pos=193&kwd=baby hair brushes&tags=||||8211.142|Price|product|||TS|rsf:gd-|-stype:attr=1|qr_nm:gd|res:RC4|com-cf:nl|ptrs:na|ktp:N0|mc:98611|mtp:S|qry_typ:P|lang:en|wc:3|cs:8842|v=4,False,Kurla West,Mumbai,"Mezbaan House, Shop No. 79/A, Pipe Road, Kurla West, Kurla West, Mumbai - 400070, Dist.Mumbai, Maharashtra",8045168381,
Women Hair Com,https://www.indiamart.com/proddetail/hair-com-2850329688430.html?pos=194&kwd=baby hair brushes&tags=||||8752.144|Price|product|||TS|rsf:gd-|-stype:attr=1|qr_nm:gd|res:RC4|com-cf:nl|ptrs:na|ktp:N0|mc:98611|mtp:S|qry_typ:P|lang:en|wc:3|cs:8842|v=4,Kartik Enterprises,https://www.kartik-enterprises.com/?pos=194&kwd=baby hair brushes&tags=||||8752.144|Price|product|||TS|rsf:gd-|-stype:attr=1|qr_nm:gd|res:RC4|com-cf:nl|ptrs:na|ktp:N0|mc:98611|mtp:S|qry_typ:P|lang:en|wc:3|cs:8842|v=4,False,Karol Bagh,New Delhi,"Ground Floor, 3910, Gali Number 28, Karol Bagh, New Delhi - 110005, Dist.Delhi, Delhi",8047650230,
"3 in 1 One Step Hair Dryer and Styler Volumizer for Straightening, Curling, Blow Drying",https://www.indiamart.com/proddetail/3-in-1-one-step-hair-dryer-and-styler-volumizer-for-straightening-curling-blow-drying-2853068495548.html?pos=195&kwd=baby hair brushes&tags=||||8752.144|Price|product|||TS|rsf:gd-|-stype:attr=1|qr_nm:gd|res:RC4|com-cf:nl|ptrs:na|ktp:N0|mc:98611|mtp:S|qry_typ:P|lang:en|wc:3|cs:8842|v=4,GK Gadgets,https://www.indiamart.com/gkgadgets/?pos=195&kwd=baby hair brushes&tags=||||8752.144|Price|product|||TS|rsf:gd-|-stype:attr=1|qr_nm:gd|res:RC4|com-cf:nl|ptrs:na|ktp:N0|mc:98611|mtp:S|qry_typ:P|lang:en|wc:3|cs:8842|v=4,False,Shakarpur,New Delhi,"First Floor, U-157-B, Upadhay Block, Shakarpur, Shakarpur, New Delhi - 110092, Dist.Delhi, Delhi",7942713735,
Multicolor Plastic Hair Scalp Massager Shampoo Brush,https://www.indiamart.com/proddetail/hair-scalp-massager-shampoo-brush-2850863497188.html?pos=196&kwd=baby hair brushes&tags=||||8038.093|Price|product|||TS|rsf:gd-|-stype:attr=1|qr_nm:gd|res:RC4|com-cf:nl|ptrs:na|ktp:N0|mc:98611|mtp:S|qry_typ:P|lang:en|wc:3|cs:8842|v=4,Kite Enterprise,https://www.indiamart.com/kiteenterprise/?pos=196&kwd=baby hair brushes&tags=||||8038.093|Price|product|||TS|rsf:gd-|-stype:attr=1|qr_nm:gd|res:RC4|com-cf:nl|ptrs:na|ktp:N0|mc:98611|mtp:S|qry_typ:P|lang:en|wc:3|cs:8842|v=4,False,Geeta Nagar,Rajkot,"10/11, Laxmiwadi Nr. Anil Aquarium, Geeta Nagar, Rajkot - 360002, Dist.Rajkot, Gujarat",8047630757,
"Rectangular Blue Inflatable Baby Water Mat, 3-12 Months, Mat Size: 66 X 50 cm",https://www.indiamart.com/proddetail/inflatable-baby-water-mat-2850394284130.html?pos=197&kwd=baby hair brushes&tags=||||8752.144|Price|product|||TS|rsf:gd-|-stype:attr=1|qr_nm:gd|res:RC4|com-cf:nl|ptrs:na|ktp:N0|mc:98611|mtp:S|qry_typ:P|lang:en|wc:3|cs:8842|v=4,House Of Luxury,https://www.theholworld.net/?pos=197&kwd=baby hair brushes&tags=||||8752.144|Price|product|||TS|rsf:gd-|-stype:attr=1|qr_nm:gd|res:RC4|com-cf:nl|ptrs:na|ktp:N0|mc:98611|mtp:S|qry_typ:P|lang:en|wc:3|cs:8842|v=4,False,Budh Vihar,New Delhi,"Plot No - 5, Kh. No. - 89/10/2, 1, Block No. - I-1, Budh Vihar Phase 1, Delhi, North West Delhi, Del, Budh Vihar, New Delhi - 110086, Dist.Delhi, Delhi",7942819716,
"Baby Nail Trimmer Electric, Safe Baby Nail File,Baby Nail Clippers with Light",https://www.indiamart.com/proddetail/baby-nail-trimmer-electric-safe-baby-nail-file-baby-nail-clippers-with-light-2853662613573.html?pos=198&kwd=baby hair brushes&tags=||||8228.275|Price|product|||TS|rsf:gd-|-stype:attr=1|qr_nm:gd|res:RC4|com-cf:nl|ptrs:na|ktp:N0|mc:98611|mtp:S|qry_typ:P|lang:en|wc:3|cs:8842|v=4,Vishwas Enterprise,https://www.indiamart.com/vishwasenterprise/?pos=198&kwd=baby hair brushes&tags=||||8228.275|Price|product|||TS|rsf:gd-|-stype:attr=1|qr_nm:gd|res:RC4|com-cf:nl|ptrs:na|ktp:N0|mc:98611|mtp:S|qry_typ:P|lang:en|wc:3|cs:8842|v=4,False,NIKOL,Ahmedabad,"70 Sahjanand Businesses Park Opp Plam Hotel, Behind Shree Marutinandan Restaurants, NIKOL, Ahmedabad - 382350, Dist.Ahmedabad, Gujarat",7942536201,
K964 KSTAR Hair Brush Vibrator Comb,https://www.indiamart.com/proddetail/k964-kstar-hair-brush-vibrator-comb-2852933912788.html?pos=199&kwd=baby hair brushes&tags=||||8752.144|Price|product|||TS|rsf:gd-|-stype:attr=1|qr_nm:gd|res:RC4|com-cf:nl|ptrs:na|ktp:N0|mc:98611|mtp:S|qry_typ:P|lang:en|wc:3|cs:8842|v=4,Khandoliya Industries,https://www.indiamart.com/khandoliya-industries/?pos=199&kwd=baby hair brushes&tags=||||8752.144|Price|product|||TS|rsf:gd-|-stype:attr=1|qr_nm:gd|res:RC4|com-cf:nl|ptrs:na|ktp:N0|mc:98611|mtp:S|qry_typ:P|lang:en|wc:3|cs:8842|v=4,False,Karol Bagh,New Delhi,"Ground Floor, Plot No.3, Block No.6, Western Extension Area, Karol Bagh, Karol Bagh, New Delhi - 110005, Dist.Delhi, Delhi",8047636474,
White Wooden Hair Brush,https://www.indiamart.com/proddetail/wooden-hair-brush-2854471516155.html?pos=200&kwd=baby hair brushes&tags=||||8747.223|Price|product|||TS|rsf:gd-|-stype:attr=1|qr_nm:gd|res:RC4|com-cf:nl|ptrs:na|ktp:N0|mc:98611|mtp:S|qry_typ:P|lang:en|wc:3|cs:8842|v=4,Swastik Colors,https://www.indiamart.com/swastikcolors/?pos=200&kwd=baby hair brushes&tags=||||8747.223|Price|product|||TS|rsf:gd-|-stype:attr=1|qr_nm:gd|res:RC4|com-cf:nl|ptrs:na|ktp:N0|mc:98611|mtp:S|qry_typ:P|lang:en|wc:3|cs:8842|v=4,False,Saidpur,Sonipat,"58/25/2, Jatola Road, Village Saidpur, Saidpur, Sonipat - 131402, Dist.Sonipat, Haryana",8048607802,
King Baby Shower Cap,https://www.indiamart.com/proddetail/king-baby-shower-cap-2854395863797.html?pos=201&kwd=baby hair brushes&tags=||||8230.883|Price|product|||TS|rsf:gd-|-stype:attr=1|qr_nm:gd|res:RC4|com-cf:nl|ptrs:na|ktp:N0|mc:98611|mtp:S|qry_typ:P|lang:en|wc:3|cs:8842|v=4,S R Entrprise,https://www.homekitchenproduct.com/?pos=201&kwd=baby hair brushes&tags=||||8230.883|Price|product|||TS|rsf:gd-|-stype:attr=1|qr_nm:gd|res:RC4|com-cf:nl|ptrs:na|ktp:N0|mc:98611|mtp:S|qry_typ:P|lang:en|wc:3|cs:8842|v=4,False,,Surat,"14th Floor, Flat No-D/1404, Rivanata Luxuria, Hazira Sayan Road, Surat - 394107, Dist.Surat, Gujarat",8045731417,
Black Plastic Mega Colors Hair Dye Brush,https://www.indiamart.com/proddetail/mega-colors-hair-dye-brush-2851390816812.html?pos=202&kwd=baby hair brushes&tags=||||8823.154|Price|product|||TS|rsf:gd-|-stype:attr=1|qr_nm:gd|res:RC4|com-cf:nl|ptrs:na|ktp:N0|mc:98611|mtp:S|qry_typ:P|lang:en|wc:3|cs:8842|v=4,Venus Cleaning Product,https://www.venuscleaning.in/?pos=202&kwd=baby hair brushes&tags=||||8823.154|Price|product|||TS|rsf:gd-|-stype:attr=1|qr_nm:gd|res:RC4|com-cf:nl|ptrs:na|ktp:N0|mc:98611|mtp:S|qry_typ:P|lang:en|wc:3|cs:8842|v=4,False,Nunhai,Agra,"Link Road Nunhai,, Nunhai, Agra - 282006, Dist.Agra, Uttar Pradesh",7942836317,
Wooden Detailing Brush Set Of 5 Natural Hair,,Elite Car Spa Equipments,https://www.elitecarspaequipments.com/?pos=203&kwd=baby hair brushes&tags=||||8584.299|Price|product|||TS|rsf:gd-|-stype:attr=1|qr_nm:gd|res:RC4|com-cf:nl|ptrs:na|ktp:N0|mc:98611|mtp:S|qry_typ:P|lang:en|wc:3|cs:8842|v=4,False,Saravanampatty,Coimbatore,"No. 24, Sathy Main Road Sarkar Samakulam, Kurumbapalayam Post, Saravanampatty, Coimbatore - 641107, Dist.Coimbatore, Tamil Nadu",8047644794,
Black Wooden Hair removal soft brush,https://www.indiamart.com/proddetail/hair-removal-soft-brush-2853152095848.html?pos=204&kwd=baby hair brushes&tags=||||8823.154|Price|product|||TS|rsf:gd-|-stype:attr=1|qr_nm:gd|res:RC4|com-cf:nl|ptrs:na|ktp:N0|mc:98611|mtp:S|qry_typ:P|lang:en|wc:3|cs:8842|v=4,Vatsa Enterprises,https://www.vatsaenterprisesindia.com/?pos=204&kwd=baby hair brushes&tags=||||8823.154|Price|product|||TS|rsf:gd-|-stype:attr=1|qr_nm:gd|res:RC4|com-cf:nl|ptrs:na|ktp:N0|mc:98611|mtp:S|qry_typ:P|lang:en|wc:3|cs:8842|v=4,True,Ram Bagh,Agra,"Ground Floor, Plot No. 30, Mauja Road, Mahal Etmadpur Madra, Ram Bagh, Agra - 282006, Dist.Agra, Uttar Pradesh",8043890850,
"Hemico Adjustable Safe Shampoo Shower Bathing Protection Bath Cap For Toddler, Baby, Kids, Children",https://www.indiamart.com/proddetail/hemico-adjustable-safe-shampoo-shower-bathing-protection-bath-cap-for-toddler-baby-kids-children-25999980191.html?pos=205&kwd=baby hair brushes&tags=||||8230.883|Price|product|||TS|rsf:gd-|-stype:attr=1|qr_nm:gd|res:RC4|com-cf:nl|ptrs:na|ktp:N0|mc:98611|mtp:S|qry_typ:P|lang:en|wc:3|cs:8842|v=4,Hemico,https://www.hemico.in/?pos=205&kwd=baby hair brushes&tags=||||8230.883|Price|product|||TS|rsf:gd-|-stype:attr=1|qr_nm:gd|res:RC4|com-cf:nl|ptrs:na|ktp:N0|mc:98611|mtp:S|qry_typ:P|lang:en|wc:3|cs:8842|v=4,False,Katargam,Surat,"Basement Shop No.-1, Sunday Hub Shopping Center, Ambatalavdi Road KATARGAM, Katargam, Surat - 395004, Dist.Surat, Gujarat",7942544294,
Multicolor Baby Electric Nail Trimmer,https://www.indiamart.com/proddetail/baby-electric-nail-trimmer-26039602162.html?pos=206&kwd=baby hair brushes&tags=||||8752.144|Price|product|||TS|rsf:gd-|-stype:attr=1|qr_nm:gd|res:RC4|com-cf:nl|ptrs:na|ktp:N0|mc:98611|mtp:S|qry_typ:P|lang:en|wc:3|cs:8842|v=4,Mount Emporium,https://www.indiamart.com/mount-emporium-delhi/?pos=206&kwd=baby hair brushes&tags=||||8752.144|Price|product|||TS|rsf:gd-|-stype:attr=1|qr_nm:gd|res:RC4|com-cf:nl|ptrs:na|ktp:N0|mc:98611|mtp:S|qry_typ:P|lang:en|wc:3|cs:8842|v=4,False,Nawada,New Delhi,"House No. A81 Road No. 04 Sidharth Enclave,Uttam Nagar, Nawada, New Delhi - 110059, Dist.Delhi, Delhi",8048977752,
"Big Vega Hair Brush, For Professional And Household",https://www.indiamart.com/proddetail/big-vega-hair-brush-14830143312.html?pos=207&kwd=baby hair brushes&tags=||||8778.123|Price|product|||TS|rsf:gd-|-stype:attr=1|qr_nm:gd|res:RC4|com-cf:nl|ptrs:na|ktp:N0|mc:98611|mtp:S|qry_typ:P|lang:en|wc:3|cs:8842|v=4,Looks Forever Hair And Skin Aesthetic Clinic,https://www.looksforever.org/?pos=207&kwd=baby hair brushes&tags=||||8778.123|Price|product|||TS|rsf:gd-|-stype:attr=1|qr_nm:gd|res:RC4|com-cf:nl|ptrs:na|ktp:N0|mc:98611|mtp:S|qry_typ:P|lang:en|wc:3|cs:8842|v=4,False,Sector 18,Noida,"Wave Mall, LGF, 17, & 18, Sector 18, Noida - 201301, Dist.Gautam Budh Nagar, Uttar Pradesh",8046078439,
Red Plastic Woman Hair Brush,https://www.indiamart.com/proddetail/woman-hair-brush-2853414479597.html?pos=208&kwd=baby hair brushes&tags=||||8769.508|Price|product|||TS|rsf:gd-|-stype:attr=1|qr_nm:gd|res:RC4|com-cf:nl|ptrs:na|ktp:N0|mc:98611|mtp:S|qry_typ:P|lang:en|wc:3|cs:8842|v=4,khyati Expo India,https://www.khyatiexpo.com/?pos=208&kwd=baby hair brushes&tags=||||8769.508|Price|product|||TS|rsf:gd-|-stype:attr=1|qr_nm:gd|res:RC4|com-cf:nl|ptrs:na|ktp:N0|mc:98611|mtp:S|qry_typ:P|lang:en|wc:3|cs:8842|v=4,False,New Industrial Township,Faridabad,"1974/1186 Nangla Enclave Part-1, N.I.T. Faridabad, New Industrial Township, Faridabad - 121005, Dist.Faridabad, Haryana",8046060349,
Black Coloring Dyeing Kit Hair Accessries,https://www.indiamart.com/proddetail/coloring-dyeing-kit-hair-accessries-24914869691.html?pos=209&kwd=baby hair brushes&tags=||||8624.416|Price|product|||TS|rsf:gd-|-stype:attr=1|qr_nm:gd|res:RC4|com-cf:nl|ptrs:na|ktp:N0|mc:98611|mtp:S|qry_typ:P|lang:en|wc:3|cs:8842|v=4,AV Traders,https://www.bbeauty4u.com/?pos=209&kwd=baby hair brushes&tags=||||8624.416|Price|product|||TS|rsf:gd-|-stype:attr=1|qr_nm:gd|res:RC4|com-cf:nl|ptrs:na|ktp:N0|mc:98611|mtp:S|qry_typ:P|lang:en|wc:3|cs:8842|v=4,False,,Hisar,"17/11-A, Shanti Nagar, Near Water Tank, Hisar - 125001, Dist.Hisar, Haryana",8048605781,
White Wooden Hair Brush,https://www.indiamart.com/proddetail/wooden-hair-brush-25617334097.html?pos=210&kwd=baby hair brushes&tags=||||9842.926|Price|product|||TS|rsf:gd-|-stype:attr=1|qr_nm:gd|res:RC4|com-cf:nl|ptrs:na|ktp:N0|mc:98611|mtp:S|qry_typ:P|lang:en|wc:3|cs:8842|v=4,Mantu Brush Traders,https://www.indiamart.com/mantubrushtraders/?pos=210&kwd=baby hair brushes&tags=||||9842.926|Price|product|||TS|rsf:gd-|-stype:attr=1|qr_nm:gd|res:RC4|com-cf:nl|ptrs:na|ktp:N0|mc:98611|mtp:S|qry_typ:P|lang:en|wc:3|cs:8842|v=4,False,Chandandaha,South 24 Parganas,"Kashibati, Chandandaha, District South 24 Parganas, Chandandaha, South 24 Parganas - 743503, Dist.South 24 Parganas, West Bengal",8048604278,
