product_title,product_link,company_name,company_link,is_verified_exporter,city_region,city,address_details,phone_number,phone_number_extension
Cotton Baby Folding bed / Baby Portable Bed,https://www.indiamart.com/proddetail/baby-folding-bed-baby-portable-bed-2854503151891.html?pos=1&kwd=baby beddings&tags=A||||8211.142|Price|product|||TS|rsf:gd-|-stype:attr=1|qr_nm:gd|res:RC4|com-cf:nl|ptrs:na|ktp:N0|mc:4161|mtp:S|qry_typ:P|lang:en|wc:2|flavl:3|cs:9546|v=4,Sidhshlok Enterprises,https://www.indiamart.com/sidhshlokenterprises/?pos=1&kwd=baby beddings&tags=A||||8211.142|Price|product|||TS|rsf:gd-|-stype:attr=1|qr_nm:gd|res:RC4|com-cf:nl|ptrs:na|ktp:N0|mc:4161|mtp:S|qry_typ:P|lang:en|wc:2|flavl:3|cs:9546|v=4,False,Mulund West,Mumbai,"A-9, Chagpar Khimaji, R R T Road, Mumbai Suburban, Mulund West, Mumbai - 400080, Dist.Mumbai, Maharashtra",7942832648,
"Multicolor Round baby bed - nest - play mat - Floor Bed, Size/Dimension: 28 Inc Dia When Closed",https://www.indiamart.com/proddetail/round-baby-bed-nest-play-mat-floor-bed-13222583097.html?pos=2&kwd=baby beddings&tags=A||||8778.123|Price|product|||TS|rsf:gd-|-stype:attr=1|qr_nm:gd|res:RC4|com-cf:nl|ptrs:na|ktp:N0|mc:4161|mtp:S|qry_typ:P|lang:en|wc:2|flavl:3|cs:9546|v=4,Oscar Overseas,https://www.oscar-india.com/?pos=2&kwd=baby beddings&tags=A||||8778.123|Price|product|||TS|rsf:gd-|-stype:attr=1|qr_nm:gd|res:RC4|com-cf:nl|ptrs:na|ktp:N0|mc:4161|mtp:S|qry_typ:P|lang:en|wc:2|flavl:3|cs:9546|v=4,False,,Noida,"A-99 Sector 5, Noida - 201301, Dist.Gautam Budh Nagar, Uttar Pradesh",8046058290,
Baby Mosquito Net Bed,https://www.indiamart.com/proddetail/baby-mosquito-net-bed-2850586699791.html?pos=3&kwd=baby beddings&tags=A||||8230.883|Price|product|||TS|rsf:gd-|-stype:attr=1|qr_nm:gd|res:RC4|com-cf:nl|ptrs:na|ktp:N0|mc:4161|mtp:S|qry_typ:P|lang:en|wc:2|flavl:3|cs:9546|v=4,Concept Enterprise,https://www.cartforbaby.com/?pos=3&kwd=baby beddings&tags=A||||8230.883|Price|product|||TS|rsf:gd-|-stype:attr=1|qr_nm:gd|res:RC4|com-cf:nl|ptrs:na|ktp:N0|mc:4161|mtp:S|qry_typ:P|lang:en|wc:2|flavl:3|cs:9546|v=4,False,Dabholi,Surat,"17, Bhumi Park Society, Near Dabholi Road, Katargam, Dabholi, Surat - 395004, Dist.Surat, Gujarat",8047546659,
"Multicolor Rectangular Baby Bedding Set, Cotton",https://www.indiamart.com/proddetail/baby-bedding-set-2854924535773.html?pos=4&kwd=baby beddings&tags=A||||8752.144|Price|product|||TS|rsf:gd-|-stype:attr=1|qr_nm:gd|res:RC4|com-cf:nl|ptrs:na|ktp:N0|mc:4161|mtp:S|qry_typ:P|lang:en|wc:2|flavl:3|cs:9546|v=4,Verma Enterprises,https://www.styaloindia.com/?pos=4&kwd=baby beddings&tags=A||||8752.144|Price|product|||TS|rsf:gd-|-stype:attr=1|qr_nm:gd|res:RC4|com-cf:nl|ptrs:na|ktp:N0|mc:4161|mtp:S|qry_typ:P|lang:en|wc:2|flavl:3|cs:9546|v=4,False,Samaypur,New Delhi,"Plot No.180/1-B, Kh.No. 955/1, 1st, Block-C, Raja Vihar, Siraspur, Badli, North West Delhi, Samaypur, New Delhi - 110042, Dist.Delhi, Delhi",8047654672,
"3 in 1 Baby Bed, Sleeping Bag & Carry Nest, Cotton Baby Bedding Unisex Baby Sleeping Bed",https://www.indiamart.com/proddetail/3-in-1-baby-bed-sleeping-bag-carry-nest-cotton-baby-bedding-unisex-baby-sleeping-bed-2852997028091.html?pos=5&kwd=baby beddings&tags=A||||9842.824|Price|product|||TS|rsf:gd-|-stype:attr=1|qr_nm:gd|res:RC4|com-cf:nl|ptrs:na|ktp:N0|mc:4161|mtp:S|qry_typ:P|lang:en|wc:2|flavl:3|cs:9546|v=4,Indilittle Global Export,https://www.indiamart.com/indilittleglobalexport/?pos=5&kwd=baby beddings&tags=A||||9842.824|Price|product|||TS|rsf:gd-|-stype:attr=1|qr_nm:gd|res:RC4|com-cf:nl|ptrs:na|ktp:N0|mc:4161|mtp:S|qry_typ:P|lang:en|wc:2|flavl:3|cs:9546|v=4,False,Haripal,Hooghly,"BRAHMANPARA, NALIKUL PASCHIM, HARIPAL, Haripal, Hooghly - 712405, Dist.Hooghly, West Bengal",8048977919,
"Adhoniyah Pink Cotton Baby Carry Bed, Newly Born",https://www.indiamart.com/proddetail/pink-cotton-baby-carry-bed-25229550788.html?pos=6&kwd=baby beddings&tags=A||||8954.051|Price|product|||MDC|rsf:gd-|-stype:attr=1|qr_nm:gd|res:RC4|com-cf:nl|ptrs:na|ktp:N0|mc:4161|mtp:S|qry_typ:P|lang:en|wc:2|flavl:3|cs:9546|v=4,Adhoniyah,https://www.indiamart.com/adhoniyah/?pos=6&kwd=baby beddings&tags=A||||8954.051|Price|product|||MDC|rsf:gd-|-stype:attr=1|qr_nm:gd|res:RC4|com-cf:nl|ptrs:na|ktp:N0|mc:4161|mtp:S|qry_typ:P|lang:en|wc:2|flavl:3|cs:9546|v=4,False,Jamalia,Chennai,"Ground Floor,5/4,Strahans Road I St Street,Otteri, Jamalia, Chennai - 600012, Dist.Chennai, Tamil Nadu",8048274134,
"Baby bedding quilt 5pcs set, Cotton",https://www.indiamart.com/proddetail/baby-bedding-quilt-5pcs-set-2854297884648.html?pos=7&kwd=baby beddings&tags=A||||8580.032|Price|product|||TS|rsf:gd-|-stype:attr=1|qr_nm:gd|res:RC4|com-cf:nl|ptrs:na|ktp:N0|mc:4161|mtp:S|qry_typ:P|lang:en|wc:2|flavl:3|cs:9546|v=4,Ritu Infants Care,https://www.indiamart.com/ritu-infants-care/?pos=7&kwd=baby beddings&tags=A||||8580.032|Price|product|||TS|rsf:gd-|-stype:attr=1|qr_nm:gd|res:RC4|com-cf:nl|ptrs:na|ktp:N0|mc:4161|mtp:S|qry_typ:P|lang:en|wc:2|flavl:3|cs:9546|v=4,False,Sunder Nagar,Amritsar,"232, Tilak Nagar, Shivala Colony, Sunder Nagar, Amritsar - 143001, Dist.Amritsar, Punjab",7942712512,
Navy Blue Velvet Baby Carry Bed,https://www.indiamart.com/proddetail/navy-blue-velvet-baby-carry-bed-2854853218233.html?pos=8&kwd=baby beddings&tags=A||||8752.144|Price|product|||MDC|rsf:gd-|-stype:attr=1|qr_nm:gd|res:RC4|com-cf:nl|ptrs:na|ktp:N0|mc:4161|mtp:S|qry_typ:P|lang:en|wc:2|flavl:3|cs:9546|v=4,V P Product,https://www.indiamart.com/vpproduct/?pos=8&kwd=baby beddings&tags=A||||8752.144|Price|product|||MDC|rsf:gd-|-stype:attr=1|qr_nm:gd|res:RC4|com-cf:nl|ptrs:na|ktp:N0|mc:4161|mtp:S|qry_typ:P|lang:en|wc:2|flavl:3|cs:9546|v=4,False,,New Delhi,"Ground Floor, H.No.- E-5/139, Gali No. - 5, East Gokal Pur, North East Delhi, New Delhi - 110094, Dist.Delhi, Delhi",8044460681,
Baby Carry Bed,https://www.indiamart.com/proddetail/baby-carry-bed-22965018762.html?pos=9&kwd=baby beddings&tags=A||||8752.144|Price|product|||TS|rsf:gd-|-stype:attr=1|qr_nm:gd|res:RC4|com-cf:nl|ptrs:na|ktp:N0|mc:4161|mtp:S|qry_typ:P|lang:en|wc:2|flavl:3|cs:9546|v=4,Gyasi Ram & Sons,https://www.indiamart.com/gyasi-ram-sons/?pos=9&kwd=baby beddings&tags=A||||8752.144|Price|product|||TS|rsf:gd-|-stype:attr=1|qr_nm:gd|res:RC4|com-cf:nl|ptrs:na|ktp:N0|mc:4161|mtp:S|qry_typ:P|lang:en|wc:2|flavl:3|cs:9546|v=4,False,Sadar Bazaar,New Delhi,"No. 459, Main Road, Sadar Bazar, Sadar Bazaar, New Delhi - 110006, Dist.Delhi, Delhi",8043865798,
BABY BEDDING SET,https://www.indiamart.com/proddetail/baby-bedding-set-2849899207055.html?pos=10&kwd=baby beddings&tags=BA||||8752.144|Price|product|||TS|rsf:gd-|-stype:attr=1|qr_nm:gd|res:RC4|com-cf:nl|ptrs:na|ktp:N0|mc:4161|mtp:S|qry_typ:P|lang:en|wc:2|flavl:3|cs:9546|v=4,National Overseas,https://www.indiamart.com/nationaltraders-vishwashnagar/?pos=10&kwd=baby beddings&tags=BA||||8752.144|Price|product|||TS|rsf:gd-|-stype:attr=1|qr_nm:gd|res:RC4|com-cf:nl|ptrs:na|ktp:N0|mc:4161|mtp:S|qry_typ:P|lang:en|wc:2|flavl:3|cs:9546|v=4,False,Shahdara,New Delhi,"1/99, Gali No. 3, Vishwas Nagar, Shahdara, New Delhi - 110032, Dist.Delhi, Delhi",8046047673,
U 200 TC Baby Bedding with Mattress Set and Pillow,https://www.indiamart.com/proddetail/200-tc-baby-bedding-with-mattress-set-and-pillow-2853593929012.html?pos=11&kwd=baby beddings&tags=A||||8747.203|Price|product|||TS|rsf:gd-|-stype:attr=1|qr_nm:gd|res:RC4|com-cf:nl|ptrs:na|ktp:N0|mc:4161|mtp:S|qry_typ:P|lang:en|wc:2|flavl:3|cs:9546|v=4,National Woollen & Finishers,https://www.nationalwoollen.com/?pos=11&kwd=baby beddings&tags=A||||8747.203|Price|product|||TS|rsf:gd-|-stype:attr=1|qr_nm:gd|res:RC4|com-cf:nl|ptrs:na|ktp:N0|mc:4161|mtp:S|qry_typ:P|lang:en|wc:2|flavl:3|cs:9546|v=4,True,Huda,Panipat,"Plot No. 302, Industrial Area, Sector 29, Part II, Huda, Panipat - 132103, Dist.Panipat, Haryana",8048601812,
Velvet Solid Baby Bedding Set With Mosquito Net,https://www.indiamart.com/proddetail/baby-bedding-set-with-mosquito-net-2850453837612.html?pos=12&kwd=baby beddings&tags=A||||8747.203|Price|product|||TS|rsf:gd-|-stype:attr=1|qr_nm:gd|res:RC4|com-cf:nl|ptrs:na|ktp:N0|mc:4161|mtp:S|qry_typ:P|lang:en|wc:2|flavl:3|cs:9546|v=4,Clovis Krafts,https://www.cloviskrafts.com/?pos=12&kwd=baby beddings&tags=A||||8747.203|Price|product|||TS|rsf:gd-|-stype:attr=1|qr_nm:gd|res:RC4|com-cf:nl|ptrs:na|ktp:N0|mc:4161|mtp:S|qry_typ:P|lang:en|wc:2|flavl:3|cs:9546|v=4,False,Tehsil Camp,Panipat,"Vikas Nagar 314 Tehsil Camp Near Ram Mandir, Tehsil Camp, Panipat - 132103, Dist.Panipat, Haryana",8047313394,
Size: Single PVC Blue Baby Bed Sheet,https://www.indiamart.com/proddetail/pvc-blue-baby-bed-sheet-2853217963673.html?pos=13&kwd=baby beddings&tags=A||||8211.142||product|||MDC|rsf:gd-|-stype:attr=1|qr_nm:gd|res:RC4|com-cf:nl|ptrs:na|ktp:N0|mc:4161|mtp:S|qry_typ:P|lang:en|wc:2|flavl:3|cs:9546|v=4,Baby Boutique,https://www.indiamart.com/baby-boutiquemumbai/?pos=13&kwd=baby beddings&tags=A||||8211.142||product|||MDC|rsf:gd-|-stype:attr=1|qr_nm:gd|res:RC4|com-cf:nl|ptrs:na|ktp:N0|mc:4161|mtp:S|qry_typ:P|lang:en|wc:2|flavl:3|cs:9546|v=4,False,Masjid Bandar,Mumbai,"7th, 95/99 Flat No. 701, Noori Tower, Sherriff Devi Street, Mandvi, Masjid Bandar, West Mumbai, Masjid Bandar, Mumbai - 400003, Dist.Mumbai, Maharashtra",7942960570,
Blue And White Round Baby Cotton Velvet Bedding Set,https://www.indiamart.com/proddetail/baby-cotton-velvet-bedding-set-2853468607591.html?pos=14&kwd=baby beddings&tags=A||||8752.144|Price|product|||MDC|rsf:gd-|-stype:attr=1|qr_nm:gd|res:RC4|com-cf:nl|ptrs:na|ktp:N0|mc:4161|mtp:S|qry_typ:P|lang:en|wc:2|flavl:3|cs:9546|v=4,Kapil Enterprises,https://www.indiamart.com/kapilenterprisesnew-delhi/?pos=14&kwd=baby beddings&tags=A||||8752.144|Price|product|||MDC|rsf:gd-|-stype:attr=1|qr_nm:gd|res:RC4|com-cf:nl|ptrs:na|ktp:N0|mc:4161|mtp:S|qry_typ:P|lang:en|wc:2|flavl:3|cs:9546|v=4,False,Vijay Vihar,New Delhi,"Ground Floor, E-25, Vijay Vihar, Near Badi Masjid, Rohini Sector 7, North West Delhi, Vijay Vihar, New Delhi - 110085, Dist.Delhi, Delhi",7949092118,
Sky Blue Rectangular Baby Cotton Foam Bed,https://www.indiamart.com/proddetail/baby-cotton-foam-bed-24326908748.html?pos=15&kwd=baby beddings&tags=A||||9140.514|Price|product|||MDC|rsf:gd-|-stype:attr=1|qr_nm:gd|res:RC4|com-cf:nl|ptrs:na|ktp:N0|mc:4161|mtp:S|qry_typ:P|lang:en|wc:2|cs:8780|v=4,Shivay Trading & Manufacturing,https://www.indiamart.com/shivaytradingmanufacturing/?pos=15&kwd=baby beddings&tags=A||||9140.514|Price|product|||MDC|rsf:gd-|-stype:attr=1|qr_nm:gd|res:RC4|com-cf:nl|ptrs:na|ktp:N0|mc:4161|mtp:S|qry_typ:P|lang:en|wc:2|cs:8780|v=4,False,Pandri,Raipur,"Plot No.94, First Floor, Indira Gandhi Vyavsayik Parisar, Cloth Market, Pandri, Pandri, Raipur - 492001, Chhattisgarh",8044012762,
"Cotton Zipper little monkeys Baby Bed Set and Baby Play Gym with Mosquito Net, For Home, Size: Medium",https://www.indiamart.com/proddetail/little-monkeys-baby-bed-set-and-baby-play-gym-with-mosquito-net-2851497240588.html?pos=16&kwd=baby beddings&tags=BA||||8752.144|Price|product|||TS|rsf:gd-|-stype:attr=1|qr_nm:gd|res:RC4|com-cf:nl|ptrs:na|ktp:N0|mc:4161|mtp:S|qry_typ:P|lang:en|wc:2|cs:8780|v=4,Ekta Overseas,https://www.indiamart.com/ektaoverseas-newdelhi/?pos=16&kwd=baby beddings&tags=BA||||8752.144|Price|product|||TS|rsf:gd-|-stype:attr=1|qr_nm:gd|res:RC4|com-cf:nl|ptrs:na|ktp:N0|mc:4161|mtp:S|qry_typ:P|lang:en|wc:2|cs:8780|v=4,False,Shahdara,New Delhi,"1/95, Gali No.3, Near Navjeevan Phisical Center, Vishwas Nagar, Shahdara,, Shahdara, New Delhi - 110032, Dist.Delhi, Delhi",7942628926,
Good Quality Cotton Baby Bedding Set,https://www.indiamart.com/proddetail/baby-bedding-set-22261401388.html?pos=17&kwd=baby beddings&tags=A||||9829.308|Price|product|||TS|rsf:gd-|-stype:attr=1|qr_nm:gd|res:RC4|com-cf:nl|ptrs:na|ktp:N0|mc:4161|mtp:S|qry_typ:P|lang:en|wc:2|cs:8780|v=4,Yash Garment,https://www.indiamart.com/yash-garment/?pos=17&kwd=baby beddings&tags=A||||9829.308|Price|product|||TS|rsf:gd-|-stype:attr=1|qr_nm:gd|res:RC4|com-cf:nl|ptrs:na|ktp:N0|mc:4161|mtp:S|qry_typ:P|lang:en|wc:2|cs:8780|v=4,False,Ross Road,Howrah,"Gali No.38/25, Ross Road, Howrah - 711101, Dist.Howrah, West Bengal",7942556350,
King Size Sheesham Wood Wooden Single Baby Bed,https://www.indiamart.com/proddetail/wooden-single-baby-bed-2854882859548.html?pos=18&kwd=baby beddings&tags=A||||8810.737|Price|product|||MDC|rsf:gd-|-stype:attr=1|qr_nm:gd|res:RC4|com-cf:nl|ptrs:na|ktp:N0|mc:4161|mtp:S|qry_typ:P|lang:en|wc:2|cs:8780|v=4,Muskan Arts,https://www.indiamart.com/muskan-arts-saharanpur/?pos=18&kwd=baby beddings&tags=A||||8810.737|Price|product|||MDC|rsf:gd-|-stype:attr=1|qr_nm:gd|res:RC4|com-cf:nl|ptrs:na|ktp:N0|mc:4161|mtp:S|qry_typ:P|lang:en|wc:2|cs:8780|v=4,False,,Saharanpur,"Near Farman Masjid, Khatakheri, Saharanpur - 247001, Dist.Saharanpur, Uttar Pradesh",8041014400,
Multicolor Rectangular New born baby bed set / Comfortable New Born Baby Bedding Set,https://www.indiamart.com/proddetail/new-born-baby-bed-set-comfortable-new-born-baby-bedding-set-2853711190397.html?pos=19&kwd=baby beddings&tags=BA||||8559.269|Price|product|||MDC|rsf:gd-|-stype:attr=1|qr_nm:gd|res:RC4|com-cf:nl|ptrs:na|ktp:N0|mc:4161|mtp:S|qry_typ:P|lang:en|wc:2|cs:8780|v=4,Sheza Enterprises,https://www.indiamart.com/shezaenterprises/?pos=19&kwd=baby beddings&tags=BA||||8559.269|Price|product|||MDC|rsf:gd-|-stype:attr=1|qr_nm:gd|res:RC4|com-cf:nl|ptrs:na|ktp:N0|mc:4161|mtp:S|qry_typ:P|lang:en|wc:2|cs:8780|v=4,False,,Indore,"Alif House, 5, Khajrana Main Road, Opposite HP Petrol Pump,, Indore - 452001, Dist.Indore, Madhya Pradesh",7948547068,
"Gots, Grs, ISO Certified Organic Baby Crib Fabric & Baby Clothing Manufacturer from India",https://www.indiamart.com/proddetail/gots-grs-iso-certified-organic-baby-crib-fabric-baby-clothing-manufacturer-from-india-4783831488.html?pos=20&kwd=baby beddings&tags=A||||8668.838|Price|product|||TS|rsf:gd-|-stype:attr=1|qr_nm:gd|res:RC4|com-cf:nl|ptrs:na|ktp:N0|mc:4161|mtp:S|qry_typ:P|lang:en|wc:2|cs:8780|v=4,Sri Kalyan Export Private Limited,https://www.organictextileindia.com/?pos=20&kwd=baby beddings&tags=A||||8668.838|Price|product|||TS|rsf:gd-|-stype:attr=1|qr_nm:gd|res:RC4|com-cf:nl|ptrs:na|ktp:N0|mc:4161|mtp:S|qry_typ:P|lang:en|wc:2|cs:8780|v=4,False,Vilarasampatti,Erode,"192/4, Iswarya Garden, Vilarasampatti, Erode - 638107, Dist.Erode, Tamil Nadu",8048974551,
"Sivam Export Black Baby Carry Bed, Packaging Type: Box, Newly Born",https://www.indiamart.com/proddetail/baby-carry-bed-25425668691.html?pos=21&kwd=baby beddings&tags=A||||8706.263|Price|product|||TS|rsf:gd-|-stype:attr=1|qr_nm:gd|res:RC4|com-cf:nl|ptrs:na|ktp:N0|mc:4161|mtp:S|qry_typ:P|lang:en|wc:2|cs:8780|v=4,Sivam Export,https://www.indiamart.com/sivamexport-karur/?pos=21&kwd=baby beddings&tags=A||||8706.263|Price|product|||TS|rsf:gd-|-stype:attr=1|qr_nm:gd|res:RC4|com-cf:nl|ptrs:na|ktp:N0|mc:4161|mtp:S|qry_typ:P|lang:en|wc:2|cs:8780|v=4,False,,Karur,"6/1 Thiru Nagar,3rd Street, Karur - 639002, Dist.Karur, Tamil Nadu",8046050918,
"Cotton Zip Baby Beds, Size: 20x36 Inch",https://www.indiamart.com/proddetail/baby-beds-19354913033.html?pos=22&kwd=baby beddings&tags=BA||||8706.263|Price|product|||TS|rsf:gd-|-stype:attr=1|qr_nm:gd|res:RC4|com-cf:nl|ptrs:na|ktp:N0|mc:4161|mtp:S|qry_typ:P|lang:en|wc:2|cs:8780|v=4,Sankari Plastic,https://www.spmosquitonet.com/?pos=22&kwd=baby beddings&tags=BA||||8706.263|Price|product|||TS|rsf:gd-|-stype:attr=1|qr_nm:gd|res:RC4|com-cf:nl|ptrs:na|ktp:N0|mc:4161|mtp:S|qry_typ:P|lang:en|wc:2|cs:8780|v=4,False,Karur,Karur,"No. 59/A3, Thillai Nagar East, Karur, Karur - 639005, Dist.Karur, Tamil Nadu",8048954769,
"Intelock With Wadding Aop Baby Hooded Bed, 800 Gms, New Born 0-2 Yrs",https://www.indiamart.com/proddetail/baby-hooded-bed-14180524512.html?pos=23&kwd=baby beddings&tags=BA||||8626.744|Price|product|||TS|rsf:gd-|-stype:attr=1|qr_nm:gd|res:RC4|com-cf:nl|ptrs:na|ktp:N0|mc:4161|mtp:S|qry_typ:P|lang:en|wc:2|cs:8780|v=4,Sudarshaan Impex,https://www.sudarshaanimpex.com/?pos=23&kwd=baby beddings&tags=BA||||8626.744|Price|product|||TS|rsf:gd-|-stype:attr=1|qr_nm:gd|res:RC4|com-cf:nl|ptrs:na|ktp:N0|mc:4161|mtp:S|qry_typ:P|lang:en|wc:2|cs:8780|v=4,False,Jeeva Nagar,Tiruppur,"No.8/398C, Selvalakshmi nagar, 1st street, Angeri palayam , Tirupur - 641603., Jeeva Nagar, Tiruppur - 641603, Dist.Coimbatore, Tamil Nadu",8047630683,
Cotton Printed Baby Bedding With Pillow,https://www.indiamart.com/proddetail/baby-bedding-with-pillow-24284362548.html?pos=24&kwd=baby beddings&tags=BA||||8228.275||product|||TS|rsf:gd-|-stype:attr=1|qr_nm:gd|res:RC4|com-cf:nl|ptrs:na|ktp:N0|mc:4161|mtp:S|qry_typ:P|lang:en|wc:2|cs:8780|v=4,Panchratna Handicraft,https://www.indiamart.com/panchratnahadicraft/?pos=24&kwd=baby beddings&tags=BA||||8228.275||product|||TS|rsf:gd-|-stype:attr=1|qr_nm:gd|res:RC4|com-cf:nl|ptrs:na|ktp:N0|mc:4161|mtp:S|qry_typ:P|lang:en|wc:2|cs:8780|v=4,False,Nikol,Ahmedabad,"33, Ishwarkrupa Society, Opposite Jivanwadi, Nikol Gam Road, Nikol, Nikol, Ahmedabad - 382350, Dist.Ahmedabad, Gujarat",8048980894,
Chhote Janab 5 Piece Baby Bedding Set,https://www.indiamart.com/proddetail/5-piece-baby-bedding-set-19619250130.html?pos=25&kwd=baby beddings&tags=BA||||8752.144|Price|product|||TS|rsf:gd-|-stype:attr=1|qr_nm:gd|res:RC4|com-cf:nl|ptrs:na|ktp:N0|mc:4161|mtp:S|qry_typ:P|lang:en|wc:2|cs:8780|v=4,Shree Balaji Infant Wear,https://www.indiamart.com/chhotejanab/?pos=25&kwd=baby beddings&tags=BA||||8752.144|Price|product|||TS|rsf:gd-|-stype:attr=1|qr_nm:gd|res:RC4|com-cf:nl|ptrs:na|ktp:N0|mc:4161|mtp:S|qry_typ:P|lang:en|wc:2|cs:8780|v=4,False,Pahari Dhiraj,New Delhi,"1583- 84, Hathi Khana, Aziz Ganj, Bahadur Garh Road, Pahari Dhiraj, New Delhi - 110006, Dist.Delhi, Delhi",8047639754,
"Red Printed Cotton Baby Bedding Set, For Home",https://www.indiamart.com/proddetail/cotton-baby-bedding-set-22828838748.html?pos=26&kwd=baby beddings&tags=BA||||8601.347|Price|product|||TS|rsf:gd-|-stype:attr=1|qr_nm:gd|res:RC4|com-cf:nl|ptrs:na|ktp:N0|mc:4161|mtp:S|qry_typ:P|lang:en|wc:2|cs:8780|v=4,Meera Handicrafts,https://www.meerahandicrafts.in/?pos=26&kwd=baby beddings&tags=BA||||8601.347|Price|product|||TS|rsf:gd-|-stype:attr=1|qr_nm:gd|res:RC4|com-cf:nl|ptrs:na|ktp:N0|mc:4161|mtp:S|qry_typ:P|lang:en|wc:2|cs:8780|v=4,True,Govind Nagar,Jaipur,"Govind Nagar Vistar, Plot No 54b, Dussehra Kothi, Amer Road, Govind Nagar, Jaipur - 302002, Dist.Jaipur, Rajasthan",8048618585,
Newborn Baby Bedding,https://www.indiamart.com/proddetail/newborn-baby-bedding-2853004802491.html?pos=27&kwd=baby beddings&tags=A||||8230.883|Price|product|||TS|rsf:gd-|-stype:attr=1|qr_nm:gd|res:RC4|com-cf:nl|ptrs:na|ktp:N0|mc:4161|mtp:S|qry_typ:P|lang:en|wc:2|cs:8780|v=4,Maa Kiran Handloom & Jiyana,https://www.indiamart.com/maakiranhandloomjiyana/?pos=27&kwd=baby beddings&tags=A||||8230.883|Price|product|||TS|rsf:gd-|-stype:attr=1|qr_nm:gd|res:RC4|com-cf:nl|ptrs:na|ktp:N0|mc:4161|mtp:S|qry_typ:P|lang:en|wc:2|cs:8780|v=4,False,Udhana,Surat,"Shop No.17, Ground Floor, Astha Business Centre, Canal Road,, Udhana, Surat - 394185, Dist.Surat, Gujarat",7942788374,
Pale Yellow Rectangular Newborn Baby Cotton Bed,https://www.indiamart.com/proddetail/newborn-baby-cotton-bed-2854184842588.html?pos=28&kwd=baby beddings&tags=A||||8228.275|Price|product|||MDC|rsf:gd-|-stype:attr=1|qr_nm:gd|res:RC4|com-cf:nl|ptrs:na|ktp:N0|mc:4161|mtp:S|qry_typ:P|lang:en|wc:2|cs:8780|v=4,Ramchand Tilumal,https://www.indiamart.com/ramchandtilumal/?pos=28&kwd=baby beddings&tags=A||||8228.275|Price|product|||MDC|rsf:gd-|-stype:attr=1|qr_nm:gd|res:RC4|com-cf:nl|ptrs:na|ktp:N0|mc:4161|mtp:S|qry_typ:P|lang:en|wc:2|cs:8780|v=4,False,Kalupur,Ahmedabad,"S-117, Sindhi Market, Revdi Bazar, Kalupur, Kalupur, Ahmedabad - 380001, Dist.Ahmedabad, Gujarat",8045731988,
Multicolor Rectangular Cotton Newborn Baby Beddings,https://www.indiamart.com/proddetail/cotton-newborn-baby-beddings-23505167148.html?pos=29&kwd=baby beddings&tags=BA||||8668.838|Price|product|||MDC|rsf:gd-|-stype:attr=1|qr_nm:gd|res:RC4|com-cf:nl|ptrs:na|ktp:N0|mc:4161|mtp:S|qry_typ:P|lang:en|wc:2|cs:8780|v=4,Home Tex Life,https://www.indiamart.com/hometexlife/?pos=29&kwd=baby beddings&tags=BA||||8668.838|Price|product|||MDC|rsf:gd-|-stype:attr=1|qr_nm:gd|res:RC4|com-cf:nl|ptrs:na|ktp:N0|mc:4161|mtp:S|qry_typ:P|lang:en|wc:2|cs:8780|v=4,False,,Erode,"1,13/1,Vijay Gugan Illam,Gandhi Nagar, Vettukatuvalasu, Erode - 638011, Dist.Erode, Tamil Nadu",8044460990,
Baby Printed Comforters,https://www.indiamart.com/proddetail/baby-printed-comforters-23969871988.html?pos=30&kwd=baby beddings&tags=BA||||8601.347|Price|product|||TS|rsf:gd-|-stype:attr=1|qr_nm:gd|res:RC4|com-cf:nl|ptrs:na|ktp:N0|mc:4161|mtp:S|qry_typ:P|lang:en|wc:2|cs:8780|v=4,Ramanand Industries,https://www.ramanandindustries.com/?pos=30&kwd=baby beddings&tags=BA||||8601.347|Price|product|||TS|rsf:gd-|-stype:attr=1|qr_nm:gd|res:RC4|com-cf:nl|ptrs:na|ktp:N0|mc:4161|mtp:S|qry_typ:P|lang:en|wc:2|cs:8780|v=4,False,Mukundpura,Jaipur,"RIICO Industrial Area, F-151, Village Heerawala, Mukundpura, Jaipur - 303012, Dist.Jaipur, Rajasthan",8048986941,
Baby Bed,https://www.indiamart.com/proddetail/baby-bed-2853101272491.html?pos=31&kwd=baby beddings&tags=BA||||8734.695|Price|product|||TS|rsf:gd-|-stype:attr=1|qr_nm:gd|res:RC4|com-cf:nl|ptrs:na|ktp:N0|mc:4161|mtp:S|qry_typ:P|lang:en|wc:2|cs:8780|v=4,Welcome Polymers India Private Limited,https://www.welcomepolymers.com/?pos=31&kwd=baby beddings&tags=BA||||8734.695|Price|product|||TS|rsf:gd-|-stype:attr=1|qr_nm:gd|res:RC4|com-cf:nl|ptrs:na|ktp:N0|mc:4161|mtp:S|qry_typ:P|lang:en|wc:2|cs:8780|v=4,False,Sector 17,Bahadurgarh,"Plot No.270, Sector 17, Sector 17, Bahadurgarh - 124507, Dist.Jhajjar, Haryana",8048986357,
"RJ Enterprise MULTY Baby Bed, Sleeping Bag & Carry Nest, Cotton Baby Bedding, Packaging Type: Box, 0-2 YEAR",https://www.indiamart.com/proddetail/baby-bed-sleeping-bag-carry-nest-cotton-baby-bedding-2851723659591.html?pos=32&kwd=baby beddings&tags=BA||||8230.883|Price|product|||TS|rsf:gd-|-stype:attr=1|qr_nm:gd|res:RC4|com-cf:nl|ptrs:na|ktp:N0|mc:4161|mtp:S|qry_typ:P|lang:en|wc:2|cs:8780|v=4,RJ Enterprise,https://www.indiamart.com/rj-enterprise-surat/?pos=32&kwd=baby beddings&tags=BA||||8230.883|Price|product|||TS|rsf:gd-|-stype:attr=1|qr_nm:gd|res:RC4|com-cf:nl|ptrs:na|ktp:N0|mc:4161|mtp:S|qry_typ:P|lang:en|wc:2|cs:8780|v=4,False,Katargam,Surat,"134, Sahjanand Society, N/R Arogyakendra, Katargam, Katargam, Surat - 395004, Dist.Surat, Gujarat",7942555306,
"Kids Velvet Bedding Set, For Gift Purpose",https://www.indiamart.com/proddetail/kids-velvet-bedding-set-2849665787455.html?pos=33&kwd=baby beddings&tags=A||||8823.154|Price|product|||TS|rsf:gd-|-stype:attr=1|qr_nm:gd|res:RC4|com-cf:nl|ptrs:na|ktp:N0|mc:4161|mtp:S|qry_typ:P|lang:en|wc:2|cs:8780|v=4,Basant Bahar Hosiery,https://www.angelsoftindia.in/?pos=33&kwd=baby beddings&tags=A||||8823.154|Price|product|||TS|rsf:gd-|-stype:attr=1|qr_nm:gd|res:RC4|com-cf:nl|ptrs:na|ktp:N0|mc:4161|mtp:S|qry_typ:P|lang:en|wc:2|cs:8780|v=4,False,Mantola,Agra,"Plot No. 29/294, Katra Hazi Hassan, Mantola, Agra - 282003, Dist.Agra, Uttar Pradesh",8047643394,
Standard Baby Bedding,https://www.indiamart.com/proddetail/baby-bedding-4498058762.html?pos=34&kwd=baby beddings&tags=BA||||8211.142|Price|product|||TS|rsf:gd-|-stype:attr=1|qr_nm:gd|res:RC4|com-cf:nl|ptrs:na|ktp:N0|mc:4161|mtp:S|qry_typ:P|lang:en|wc:2|cs:8780|v=4,Dhrupti Creation,https://www.indiamart.com/littlecare/?pos=34&kwd=baby beddings&tags=BA||||8211.142|Price|product|||TS|rsf:gd-|-stype:attr=1|qr_nm:gd|res:RC4|com-cf:nl|ptrs:na|ktp:N0|mc:4161|mtp:S|qry_typ:P|lang:en|wc:2|cs:8780|v=4,False,Malad East,Mumbai,"Gala No. 3, Jignesh Diamond House, Near Vaishnavdevi Mandir, Subhash Lane, Malad East, Malad East, Mumbai - 400097, Dist.Mumbai, Maharashtra",8048970316,
"Flannel Printed Baby Bedding Set (FLANNO), For Home",https://www.indiamart.com/proddetail/baby-bedding-set-flanno-2850430437255.html?pos=35&kwd=baby beddings&tags=BA||||8747.203|Price|product|||TS|rsf:gd-|-stype:attr=1|qr_nm:gd|res:RC4|com-cf:nl|ptrs:na|ktp:N0|mc:4161|mtp:S|qry_typ:P|lang:en|wc:2|cs:8780|v=4,Paras Blanket,https://www.parasblanket.com/?pos=35&kwd=baby beddings&tags=BA||||8747.203|Price|product|||TS|rsf:gd-|-stype:attr=1|qr_nm:gd|res:RC4|com-cf:nl|ptrs:na|ktp:N0|mc:4161|mtp:S|qry_typ:P|lang:en|wc:2|cs:8780|v=4,False,Old Housing Board Colony,Panipat,"Shop No. 1, 2, 3, New Pachranga Market Pachranga Bazar, Old Housing Board Colony, Panipat - 132103, Dist.Panipat, Haryana",8048968656,
COTTON Stripe New Born Baby Bedding,https://www.indiamart.com/proddetail/new-born-baby-bedding-27595217662.html?pos=36&kwd=baby beddings&tags=BA||||8706.263|Price|product|||TS|rsf:gd-|-stype:attr=1|qr_nm:gd|res:RC4|com-cf:nl|ptrs:na|ktp:N0|mc:4161|mtp:S|qry_typ:P|lang:en|wc:2|cs:8780|v=4,Karur Export Company,https://www.karurexportcompany.in/?pos=36&kwd=baby beddings&tags=BA||||8706.263|Price|product|||TS|rsf:gd-|-stype:attr=1|qr_nm:gd|res:RC4|com-cf:nl|ptrs:na|ktp:N0|mc:4161|mtp:S|qry_typ:P|lang:en|wc:2|cs:8780|v=4,True,Sri Poonkuyil Nagar,Karur,"41, 43, Kuluthu Palayam Road, Vengamedu, Sri Poonkuyil Nagar, Karur - 639006, Dist.Karur, Tamil Nadu",8048600914,
"Organic Cotton Printed Baby Bedding, Capacity: 300000",https://www.indiamart.com/proddetail/baby-bedding-22453135255.html?pos=37&kwd=baby beddings&tags=BA||||8663.873|Price|product|||TS|rsf:gd-|-stype:attr=1|qr_nm:gd|res:RC4|com-cf:nl|ptrs:na|ktp:N0|mc:4161|mtp:S|qry_typ:P|lang:en|wc:2|cs:8780|v=4,Alpha Organics Clothing India,https://www.indiamart.com/alphaorganicsclothingindia/?pos=37&kwd=baby beddings&tags=BA||||8663.873|Price|product|||TS|rsf:gd-|-stype:attr=1|qr_nm:gd|res:RC4|com-cf:nl|ptrs:na|ktp:N0|mc:4161|mtp:S|qry_typ:P|lang:en|wc:2|cs:8780|v=4,True,Indiranagar,Bengaluru,"NO.3037,INDIRANAGAR,8TH MAIN ROAD, HAL 2ND STAGE,BANGALORE, Indiranagar, Bengaluru - 560038, Dist.Bengaluru, Karnataka",7942540831,
Ultra soft suede Plain CraftX Baby Sofa Bedding,https://www.indiamart.com/proddetail/craftx-baby-sofa-bedding-21789225891.html?pos=38&kwd=baby beddings&tags=BA||||8752.144|Price|product|||TS|rsf:gd-|-stype:attr=1|qr_nm:gd|res:RC4|com-cf:nl|ptrs:na|ktp:N0|mc:4161|mtp:S|qry_typ:P|lang:en|wc:2|cs:8780|v=4,Craftx Inc,https://www.indiamart.com/missru-trading-company/?pos=38&kwd=baby beddings&tags=BA||||8752.144|Price|product|||TS|rsf:gd-|-stype:attr=1|qr_nm:gd|res:RC4|com-cf:nl|ptrs:na|ktp:N0|mc:4161|mtp:S|qry_typ:P|lang:en|wc:2|cs:8780|v=4,False,Bawana,New Delhi,"N-191, Sec-02, Bawana Industrial Area, Bawana, New Delhi - 110084, Dist.Delhi, Delhi",8048952385,
"Hand Block Printed Cotton Baby Bedding Set manufacturer, For Home",https://www.indiamart.com/proddetail/hand-block-printed-cotton-baby-bedding-set-manufacturer-2851669575633.html?pos=39&kwd=baby beddings&tags=BA||||8601.347|Price|product|||LSnp|rsf:gd-|-stype:attr=1|qr_nm:gd|res:RC4|com-cf:nl|ptrs:na|ktp:N0|mc:4161|mtp:S|qry_typ:P|lang:en|wc:2|cs:8780|v=4,Vandana Handicraft,https://www.vandanahandicraft.net/?pos=39&kwd=baby beddings&tags=BA||||8601.347|Price|product|||LSnp|rsf:gd-|-stype:attr=1|qr_nm:gd|res:RC4|com-cf:nl|ptrs:na|ktp:N0|mc:4161|mtp:S|qry_typ:P|lang:en|wc:2|cs:8780|v=4,True,Sitapura Industrial Area,Jaipur,"Plot No. H-1167, Sitapura Industrial Area, Phase III, Sitapura Industrial Area, Jaipur - 302022, Dist.Jaipur, Rajasthan",8046049036,
Multicolor Printed Baby Bed Set,https://www.indiamart.com/proddetail/baby-bed-set-22431709648.html?pos=40&kwd=baby beddings&tags=BA||||8601.347|Price|product|||TS|rsf:gd-|-stype:attr=1|qr_nm:gd|res:RC4|com-cf:nl|ptrs:na|ktp:N0|mc:4161|mtp:S|qry_typ:P|lang:en|wc:2|cs:8780|v=4,Shree Ganesh Handicrafts & Textiles,https://www.shreeganeshhandicrafts.com/?pos=40&kwd=baby beddings&tags=BA||||8601.347|Price|product|||TS|rsf:gd-|-stype:attr=1|qr_nm:gd|res:RC4|com-cf:nl|ptrs:na|ktp:N0|mc:4161|mtp:S|qry_typ:P|lang:en|wc:2|cs:8780|v=4,True,Amer Road,Jaipur,"Govind Nagar Vistar, Plot No 54b, Dussehra Kothi, Amer Road, Amer Road, Jaipur - 302002, Dist.Jaipur, Rajasthan",8046036982,
"Cotton Western New Born Baby Bedding, Packaging Type: Box, 2.5 kg",https://www.indiamart.com/proddetail/new-born-baby-bedding-2849082344873.html?pos=41&kwd=baby beddings&tags=BA||||8307.81|Price|product|||TS|rsf:gd-|-stype:attr=1|qr_nm:gd|res:RC4|com-cf:nl|ptrs:na|ktp:N0|mc:4161|mtp:S|qry_typ:P|lang:en|wc:2|cs:8780|v=4,Bizbee Techologies Llp,https://www.indiamart.com/bizbee-technologies-pune/?pos=41&kwd=baby beddings&tags=BA||||8307.81|Price|product|||TS|rsf:gd-|-stype:attr=1|qr_nm:gd|res:RC4|com-cf:nl|ptrs:na|ktp:N0|mc:4161|mtp:S|qry_typ:P|lang:en|wc:2|cs:8780|v=4,False,Maharshi Nagar,Pune,"C/O Laxmi Warehousing Survey Number 2329 Dhani Road, Wagholi Ganga Club Road, Maharshi Nagar, Pune - 412207, Dist.Pune, Maharashtra",8046054477,
LOREM Grey 3 Pillows & Rectangle shape Moon Cotton Baby Bed for 0-1 Year BB107,https://www.indiamart.com/proddetail/lorem-grey-3-pillows-rectangle-shape-moon-cotton-baby-bed-for-0-1-year-bb107-2853146345048.html?pos=42&kwd=baby beddings&tags=BA||||8230.883|Price|product|||TS|rsf:gd-|-stype:attr=1|qr_nm:gd|res:RC4|com-cf:nl|ptrs:na|ktp:N0|mc:4161|mtp:S|qry_typ:P|lang:en|wc:2|cs:8780|v=4,S J Fashion,https://www.indiamart.com/sjfashion/?pos=42&kwd=baby beddings&tags=BA||||8230.883|Price|product|||TS|rsf:gd-|-stype:attr=1|qr_nm:gd|res:RC4|com-cf:nl|ptrs:na|ktp:N0|mc:4161|mtp:S|qry_typ:P|lang:en|wc:2|cs:8780|v=4,False,Punagam,Surat,"B4, Basement, Polaris Mall Punagam BRTS canal Road,, Punagam, Surat - 395010, Dist.Surat, Gujarat",8048958543,
"Flannel Printed Baby Bedding Set (FLANNO), For Home",https://www.indiamart.com/proddetail/baby-bedding-set-flanno-2850430437255.html?pos=43&kwd=baby beddings&tags=BA||||8747.203|Price|product|||TS|rsf:gd-|-stype:attr=1|qr_nm:gd|res:RC4|com-cf:nl|ptrs:na|ktp:N0|mc:4161|mtp:S|qry_typ:P|lang:en|wc:2|cs:8780|v=4,Paras Blanket,https://www.parasblanket.com/?pos=43&kwd=baby beddings&tags=BA||||8747.203|Price|product|||TS|rsf:gd-|-stype:attr=1|qr_nm:gd|res:RC4|com-cf:nl|ptrs:na|ktp:N0|mc:4161|mtp:S|qry_typ:P|lang:en|wc:2|cs:8780|v=4,False,Old Housing Board Colony,Panipat,"Shop No. 1, 2, 3, New Pachranga Market Pachranga Bazar, Old Housing Board Colony, Panipat - 132103, Dist.Panipat, Haryana",8048968656,
COTTON Stripe New Born Baby Bedding,https://www.indiamart.com/proddetail/new-born-baby-bedding-27595217662.html?pos=44&kwd=baby beddings&tags=BA||||8706.263|Price|product|||TS|rsf:gd-|-stype:attr=1|qr_nm:gd|res:RC4|com-cf:nl|ptrs:na|ktp:N0|mc:4161|mtp:S|qry_typ:P|lang:en|wc:2|cs:8780|v=4,Karur Export Company,https://www.karurexportcompany.in/?pos=44&kwd=baby beddings&tags=BA||||8706.263|Price|product|||TS|rsf:gd-|-stype:attr=1|qr_nm:gd|res:RC4|com-cf:nl|ptrs:na|ktp:N0|mc:4161|mtp:S|qry_typ:P|lang:en|wc:2|cs:8780|v=4,True,Sri Poonkuyil Nagar,Karur,"41, 43, Kuluthu Palayam Road, Vengamedu, Sri Poonkuyil Nagar, Karur - 639006, Dist.Karur, Tamil Nadu",8048600914,
"Organic Cotton Printed Baby Bedding, Capacity: 300000",https://www.indiamart.com/proddetail/baby-bedding-22453135255.html?pos=45&kwd=baby beddings&tags=BA||||8663.873|Price|product|||TS|rsf:gd-|-stype:attr=1|qr_nm:gd|res:RC4|com-cf:nl|ptrs:na|ktp:N0|mc:4161|mtp:S|qry_typ:P|lang:en|wc:2|cs:8780|v=4,Alpha Organics Clothing India,https://www.indiamart.com/alphaorganicsclothingindia/?pos=45&kwd=baby beddings&tags=BA||||8663.873|Price|product|||TS|rsf:gd-|-stype:attr=1|qr_nm:gd|res:RC4|com-cf:nl|ptrs:na|ktp:N0|mc:4161|mtp:S|qry_typ:P|lang:en|wc:2|cs:8780|v=4,True,Indiranagar,Bengaluru,"NO.3037,INDIRANAGAR,8TH MAIN ROAD, HAL 2ND STAGE,BANGALORE, Indiranagar, Bengaluru - 560038, Dist.Bengaluru, Karnataka",7942540831,
Ultra soft suede Plain CraftX Baby Sofa Bedding,https://www.indiamart.com/proddetail/craftx-baby-sofa-bedding-21789225891.html?pos=46&kwd=baby beddings&tags=BA||||8752.144|Price|product|||TS|rsf:gd-|-stype:attr=1|qr_nm:gd|res:RC4|com-cf:nl|ptrs:na|ktp:N0|mc:4161|mtp:S|qry_typ:P|lang:en|wc:2|cs:8780|v=4,Craftx Inc,https://www.indiamart.com/missru-trading-company/?pos=46&kwd=baby beddings&tags=BA||||8752.144|Price|product|||TS|rsf:gd-|-stype:attr=1|qr_nm:gd|res:RC4|com-cf:nl|ptrs:na|ktp:N0|mc:4161|mtp:S|qry_typ:P|lang:en|wc:2|cs:8780|v=4,False,Bawana,New Delhi,"N-191, Sec-02, Bawana Industrial Area, Bawana, New Delhi - 110084, Dist.Delhi, Delhi",8048952385,
"Hand Block Printed Cotton Baby Bedding Set manufacturer, For Home",https://www.indiamart.com/proddetail/hand-block-printed-cotton-baby-bedding-set-manufacturer-2851669575633.html?pos=47&kwd=baby beddings&tags=BA||||8601.347|Price|product|||LSnp|rsf:gd-|-stype:attr=1|qr_nm:gd|res:RC4|com-cf:nl|ptrs:na|ktp:N0|mc:4161|mtp:S|qry_typ:P|lang:en|wc:2|cs:8780|v=4,Vandana Handicraft,https://www.vandanahandicraft.net/?pos=47&kwd=baby beddings&tags=BA||||8601.347|Price|product|||LSnp|rsf:gd-|-stype:attr=1|qr_nm:gd|res:RC4|com-cf:nl|ptrs:na|ktp:N0|mc:4161|mtp:S|qry_typ:P|lang:en|wc:2|cs:8780|v=4,True,Sitapura Industrial Area,Jaipur,"Plot No. H-1167, Sitapura Industrial Area, Phase III, Sitapura Industrial Area, Jaipur - 302022, Dist.Jaipur, Rajasthan",8046049036,
Multicolor Printed Baby Bed Set,https://www.indiamart.com/proddetail/baby-bed-set-22431709648.html?pos=48&kwd=baby beddings&tags=BA||||8601.347|Price|product|||TS|rsf:gd-|-stype:attr=1|qr_nm:gd|res:RC4|com-cf:nl|ptrs:na|ktp:N0|mc:4161|mtp:S|qry_typ:P|lang:en|wc:2|cs:8780|v=4,Shree Ganesh Handicrafts & Textiles,https://www.shreeganeshhandicrafts.com/?pos=48&kwd=baby beddings&tags=BA||||8601.347|Price|product|||TS|rsf:gd-|-stype:attr=1|qr_nm:gd|res:RC4|com-cf:nl|ptrs:na|ktp:N0|mc:4161|mtp:S|qry_typ:P|lang:en|wc:2|cs:8780|v=4,True,Amer Road,Jaipur,"Govind Nagar Vistar, Plot No 54b, Dussehra Kothi, Amer Road, Amer Road, Jaipur - 302002, Dist.Jaipur, Rajasthan",8046036982,
"Cotton Western New Born Baby Bedding, Packaging Type: Box, 2.5 kg",https://www.indiamart.com/proddetail/new-born-baby-bedding-2849082344873.html?pos=49&kwd=baby beddings&tags=BA||||8307.81|Price|product|||TS|rsf:gd-|-stype:attr=1|qr_nm:gd|res:RC4|com-cf:nl|ptrs:na|ktp:N0|mc:4161|mtp:S|qry_typ:P|lang:en|wc:2|cs:8780|v=4,Bizbee Techologies Llp,https://www.indiamart.com/bizbee-technologies-pune/?pos=49&kwd=baby beddings&tags=BA||||8307.81|Price|product|||TS|rsf:gd-|-stype:attr=1|qr_nm:gd|res:RC4|com-cf:nl|ptrs:na|ktp:N0|mc:4161|mtp:S|qry_typ:P|lang:en|wc:2|cs:8780|v=4,False,Maharshi Nagar,Pune,"C/O Laxmi Warehousing Survey Number 2329 Dhani Road, Wagholi Ganga Club Road, Maharshi Nagar, Pune - 412207, Dist.Pune, Maharashtra",8046054477,
LOREM Grey 3 Pillows & Rectangle shape Moon Cotton Baby Bed for 0-1 Year BB107,https://www.indiamart.com/proddetail/lorem-grey-3-pillows-rectangle-shape-moon-cotton-baby-bed-for-0-1-year-bb107-2853146345048.html?pos=50&kwd=baby beddings&tags=BA||||8230.883|Price|product|||TS|rsf:gd-|-stype:attr=1|qr_nm:gd|res:RC4|com-cf:nl|ptrs:na|ktp:N0|mc:4161|mtp:S|qry_typ:P|lang:en|wc:2|cs:8780|v=4,S J Fashion,https://www.indiamart.com/sjfashion/?pos=50&kwd=baby beddings&tags=BA||||8230.883|Price|product|||TS|rsf:gd-|-stype:attr=1|qr_nm:gd|res:RC4|com-cf:nl|ptrs:na|ktp:N0|mc:4161|mtp:S|qry_typ:P|lang:en|wc:2|cs:8780|v=4,False,Punagam,Surat,"B4, Basement, Polaris Mall Punagam BRTS canal Road,, Punagam, Surat - 395010, Dist.Surat, Gujarat",8048958543,
Standard Baby Bedding,https://www.indiamart.com/proddetail/baby-bedding-4498058762.html?pos=51&kwd=baby beddings&tags=BA||||8211.142|Price|product|||TS|rsf:gd-|-stype:attr=1|qr_nm:gd|res:RC4|com-cf:nl|ptrs:na|ktp:N0|mc:4161|mtp:S|qry_typ:P|lang:en|wc:2|cs:8780|v=4,Dhrupti Creation,https://www.indiamart.com/littlecare/?pos=51&kwd=baby beddings&tags=BA||||8211.142|Price|product|||TS|rsf:gd-|-stype:attr=1|qr_nm:gd|res:RC4|com-cf:nl|ptrs:na|ktp:N0|mc:4161|mtp:S|qry_typ:P|lang:en|wc:2|cs:8780|v=4,False,Malad East,Mumbai,"Gala No. 3, Jignesh Diamond House, Near Vaishnavdevi Mandir, Subhash Lane, Malad East, Malad East, Mumbai - 400097, Dist.Mumbai, Maharashtra",8048970316,
Cotton Pink Baby Carry Bed,https://www.indiamart.com/proddetail/baby-carry-bed-24207953112.html?pos=52&kwd=baby beddings&tags=BA||||8747.203|Price|product|||TS|rsf:gd-|-stype:attr=1|qr_nm:gd|res:RC4|com-cf:nl|ptrs:na|ktp:N0|mc:4161|mtp:S|qry_typ:P|lang:en|wc:2|cs:8780|v=4,Ambay Enterprises,https://www.crafteal.in/?pos=52&kwd=baby beddings&tags=BA||||8747.203|Price|product|||TS|rsf:gd-|-stype:attr=1|qr_nm:gd|res:RC4|com-cf:nl|ptrs:na|ktp:N0|mc:4161|mtp:S|qry_typ:P|lang:en|wc:2|cs:8780|v=4,False,Colony,Panipat,"Near Guru Medical Store H/N 2270 Wadhawa Ram Colony, Colony, Panipat - 132103, Dist.Panipat, Haryana",7949092116,
"Sky Blue Dot Printed Cotton Baby Bedding Set, For Home",https://www.indiamart.com/proddetail/sky-blue-dot-printed-cotton-baby-bedding-set-23705254812.html?pos=53&kwd=baby beddings&tags=BA||||8752.144|Price|product|||TS|rsf:gd-|-stype:attr=1|qr_nm:gd|res:RC4|com-cf:nl|ptrs:na|ktp:N0|mc:4161|mtp:S|qry_typ:P|lang:en|wc:2|cs:8780|v=4,ASW Retail Corporation,https://www.indiamart.com/aswretailcorporation/?pos=53&kwd=baby beddings&tags=BA||||8752.144|Price|product|||TS|rsf:gd-|-stype:attr=1|qr_nm:gd|res:RC4|com-cf:nl|ptrs:na|ktp:N0|mc:4161|mtp:S|qry_typ:P|lang:en|wc:2|cs:8780|v=4,False,Naraina,New Delhi,"B-62/6 3rd Floor Phase II, Naraina Industrial Area, Naraina, New Delhi - 110032, Dist.Delhi, Delhi",8046060075,
Cotton Blue Baby Sleeping Bed,https://www.indiamart.com/proddetail/baby-sleeping-bed-27123794491.html?pos=54&kwd=baby beddings&tags=BA||||8752.144|Price|product|||TS|rsf:gd-|-stype:attr=1|qr_nm:gd|res:RC4|com-cf:nl|ptrs:na|ktp:N0|mc:4161|mtp:S|qry_typ:P|lang:en|wc:2|cs:8780|v=4,Bankey Bihari Enterprises,https://www.indiamart.com/bankey-bihari-enterprisesnewdelhi/?pos=54&kwd=baby beddings&tags=BA||||8752.144|Price|product|||TS|rsf:gd-|-stype:attr=1|qr_nm:gd|res:RC4|com-cf:nl|ptrs:na|ktp:N0|mc:4161|mtp:S|qry_typ:P|lang:en|wc:2|cs:8780|v=4,False,Jahangirpuri,New Delhi,"Plot No 51 First Floor Street No 11 Harijan Colony Village Bhalsva, Jahangirpuri, New Delhi - 110033, Dist.Delhi, Delhi",7942825166,
"Cotton Baby Bed With Mosquito Net, For Home, Size: Medium",https://www.indiamart.com/proddetail/baby-bed-with-mosquito-net-23203413373.html?pos=55&kwd=baby beddings&tags=BB||||8228.275|Price|product|||TS|rsf:gd-|-stype:attr=1|qr_nm:gd|res:RC4|com-cf:nl|ptrs:na|ktp:N0|mc:4161|mtp:S|qry_typ:P|lang:en|wc:2|cs:8780|v=4,Tulsi Jiyana,https://www.indiamart.com/tulsijiyana/?pos=55&kwd=baby beddings&tags=BB||||8228.275|Price|product|||TS|rsf:gd-|-stype:attr=1|qr_nm:gd|res:RC4|com-cf:nl|ptrs:na|ktp:N0|mc:4161|mtp:S|qry_typ:P|lang:en|wc:2|cs:8780|v=4,False,Nikol,Ahmedabad,"C/14, Parishram Park Society Opposite Sun City, Nikol, Ahmedabad - 380001, Dist.Ahmedabad, Gujarat",8046078640,
"100% Polyester Baby Bed Net, For Home, Size: Medium",https://www.indiamart.com/proddetail/baby-bed-net-17830246733.html?pos=56&kwd=baby beddings&tags=BA||||8584.299|Price|product|||TS|rsf:gd-|-stype:attr=1|qr_nm:gd|res:RC4|com-cf:nl|ptrs:na|ktp:N0|mc:4161|mtp:S|qry_typ:P|lang:en|wc:2|cs:8780|v=4,Sag Industries,https://www.sagbabygro.com/?pos=56&kwd=baby beddings&tags=BA||||8584.299|Price|product|||TS|rsf:gd-|-stype:attr=1|qr_nm:gd|res:RC4|com-cf:nl|ptrs:na|ktp:N0|mc:4161|mtp:S|qry_typ:P|lang:en|wc:2|cs:8780|v=4,False,Ashok Nagar,Coimbatore,"59,,SRI KRISHNA NAGAR,CHOKKAMPUDUR ROAD, Ashok Nagar, Coimbatore - 641001, Dist.Coimbatore, Tamil Nadu",8048959921,
Organic Cotton Flat Crib Sheet,https://www.indiamart.com/proddetail/organic-cotton-flat-crib-sheet-2852060049630.html?pos=57&kwd=baby beddings&tags=BA||||8706.263|Price|product|||TS|rsf:gd-|-stype:attr=1|qr_nm:gd|res:RC4|com-cf:nl|ptrs:na|ktp:N0|mc:4161|mtp:S|qry_typ:P|lang:en|wc:2|cs:8780|v=4,Taruna Tex,https://www.indiamart.com/taruna-tex-karur/?pos=57&kwd=baby beddings&tags=BA||||8706.263|Price|product|||TS|rsf:gd-|-stype:attr=1|qr_nm:gd|res:RC4|com-cf:nl|ptrs:na|ktp:N0|mc:4161|mtp:S|qry_typ:P|lang:en|wc:2|cs:8780|v=4,True,Veluswamypuram,Karur,"137, Nanthavana Street, Velusamypuram IV Cross, Andankoil West, Veluswamypuram, Karur - 639002, Dist.Karur, Tamil Nadu",7942874999,
Blue Rectangular Stainless Steel New Born Baby Bed,https://www.indiamart.com/proddetail/stainless-steel-new-born-baby-bed-2853871080273.html?pos=58&kwd=baby beddings&tags=BA||||8752.144|Price|product|||TS|rsf:gd-|-stype:attr=1|qr_nm:gd|res:RC4|com-cf:nl|ptrs:na|ktp:N0|mc:4161|mtp:S|qry_typ:P|lang:en|wc:2|cs:8780|v=4,CBR Healthcare Products,https://www.cbrhealthcare.in/?pos=58&kwd=baby beddings&tags=BA||||8752.144|Price|product|||TS|rsf:gd-|-stype:attr=1|qr_nm:gd|res:RC4|com-cf:nl|ptrs:na|ktp:N0|mc:4161|mtp:S|qry_typ:P|lang:en|wc:2|cs:8780|v=4,False,Jonapur,New Delhi,"CBR Hospital, Villagr Ayanagar, Mehraui, Jonapur, New Delhi - 110047, Dist.Delhi, Delhi",8044012862,
"Organic Cotton Printed Baby Bedding, Capacity: 300000",https://www.indiamart.com/proddetail/baby-bedding-22453135255.html?pos=59&kwd=baby beddings&tags=BA||||8663.873|Price|product|||TS|rsf:gd-|-stype:attr=1|qr_nm:gd|res:RC4|com-cf:nl|ptrs:na|ktp:N0|mc:4161|mtp:S|qry_typ:P|lang:en|wc:2|cs:8780|v=4,Alpha Organics Clothing India,https://www.indiamart.com/alphaorganicsclothingindia/?pos=59&kwd=baby beddings&tags=BA||||8663.873|Price|product|||TS|rsf:gd-|-stype:attr=1|qr_nm:gd|res:RC4|com-cf:nl|ptrs:na|ktp:N0|mc:4161|mtp:S|qry_typ:P|lang:en|wc:2|cs:8780|v=4,True,Indiranagar,Bengaluru,"NO.3037,INDIRANAGAR,8TH MAIN ROAD, HAL 2ND STAGE,BANGALORE, Indiranagar, Bengaluru - 560038, Dist.Bengaluru, Karnataka",7942540831,
LOREM Grey 3 Pillows & Rectangle shape Moon Cotton Baby Bed for 0-1 Year BB107,https://www.indiamart.com/proddetail/lorem-grey-3-pillows-rectangle-shape-moon-cotton-baby-bed-for-0-1-year-bb107-2853146345048.html?pos=60&kwd=baby beddings&tags=BA||||8230.883|Price|product|||TS|rsf:gd-|-stype:attr=1|qr_nm:gd|res:RC4|com-cf:nl|ptrs:na|ktp:N0|mc:4161|mtp:S|qry_typ:P|lang:en|wc:2|cs:8780|v=4,S J Fashion,https://www.indiamart.com/sjfashion/?pos=60&kwd=baby beddings&tags=BA||||8230.883|Price|product|||TS|rsf:gd-|-stype:attr=1|qr_nm:gd|res:RC4|com-cf:nl|ptrs:na|ktp:N0|mc:4161|mtp:S|qry_typ:P|lang:en|wc:2|cs:8780|v=4,False,Punagam,Surat,"B4, Basement, Polaris Mall Punagam BRTS canal Road,, Punagam, Surat - 395010, Dist.Surat, Gujarat",8048958543,
Baby Carry Bed,https://www.indiamart.com/proddetail/baby-carry-bed-2854012203388.html?pos=61&kwd=baby beddings&tags=BA||||8559.269|Price|product|||TS|rsf:gd-|-stype:attr=1|qr_nm:gd|res:RC4|com-cf:nl|ptrs:na|ktp:N0|mc:4161|mtp:S|qry_typ:P|lang:en|wc:2|cs:8780|v=4,Central India Fabrics,https://www.centralindiafabrics.net/?pos=61&kwd=baby beddings&tags=BA||||8559.269|Price|product|||TS|rsf:gd-|-stype:attr=1|qr_nm:gd|res:RC4|com-cf:nl|ptrs:na|ktp:N0|mc:4161|mtp:S|qry_typ:P|lang:en|wc:2|cs:8780|v=4,True,Avantika Nagar,Indore,"2/A/C, Sector D, Sanwer Road Opposite Bandganga Police Station, Avantika Nagar, Indore - 452015, Dist.Indore, Madhya Pradesh",8048965370,
Multicolor Rectangular REVERSIBLE PORTABLE COTTON BABY BED,https://www.indiamart.com/proddetail/reversible-portable-cotton-baby-bed-2854738047491.html?pos=62&kwd=baby beddings&tags=BB||||8584.299|Price|product|||TS|rsf:gd-|-stype:attr=1|qr_nm:gd|res:RC4|com-cf:nl|ptrs:na|ktp:N0|mc:4161|mtp:S|qry_typ:P|lang:en|wc:2|cs:8780|v=4,Agam Home Furnishings,https://www.indiamart.com/agam-home-furnishings/?pos=62&kwd=baby beddings&tags=BB||||8584.299|Price|product|||TS|rsf:gd-|-stype:attr=1|qr_nm:gd|res:RC4|com-cf:nl|ptrs:na|ktp:N0|mc:4161|mtp:S|qry_typ:P|lang:en|wc:2|cs:8780|v=4,False,Singanallur,Coimbatore,"1277, Tamil Nadu Housing Board Colony, Singanallur, Singanallur, Coimbatore - 641005, Dist.Coimbatore, Tamil Nadu",7942717816,
Non-woolen Nylon Combo Of 5 Daily Needs Baby Bedding Items,https://www.indiamart.com/proddetail/combo-of-5-daily-needs-baby-bedding-items-12954924255.html?pos=63&kwd=baby beddings&tags=BA||||8223.731||product|||TS|rsf:gd-|-stype:attr=1|qr_nm:gd|res:RC4|com-cf:nl|ptrs:na|ktp:N0|mc:4161|mtp:S|qry_typ:P|lang:en|wc:2|cs:8780|v=4,Maitri Export,https://www.maitriexport.in/?pos=63&kwd=baby beddings&tags=BA||||8223.731||product|||TS|rsf:gd-|-stype:attr=1|qr_nm:gd|res:RC4|com-cf:nl|ptrs:na|ktp:N0|mc:4161|mtp:S|qry_typ:P|lang:en|wc:2|cs:8780|v=4,False,Lambi Oty,Khambhat,"Kh-0199A, Khichdiya Ni Khadki,Ladwado, Near Jain Upashray, Lambi Oty, Khambhat - 388620, Dist.Anand, Gujarat",8046054414,
Baby Sleeping Pouch baby bedding set,https://www.indiamart.com/proddetail/baby-sleeping-pouch-baby-bedding-set-2852045551373.html?pos=64&kwd=baby beddings&tags=BA||||8559.269|Price|product|||TS|rsf:gd-|-stype:attr=1|qr_nm:gd|res:RC4|com-cf:nl|ptrs:na|ktp:N0|mc:4161|mtp:S|qry_typ:P|lang:en|wc:2|cs:8780|v=4,Preeti Textiles,https://www.indiamart.com/preetitextiles/?pos=64&kwd=baby beddings&tags=BA||||8559.269|Price|product|||TS|rsf:gd-|-stype:attr=1|qr_nm:gd|res:RC4|com-cf:nl|ptrs:na|ktp:N0|mc:4161|mtp:S|qry_typ:P|lang:en|wc:2|cs:8780|v=4,False,Vyankatesh Nagar,Indore,"133-134, 2nd Floor, Muchhal Chamber, MT Cloth Market, Vyankatesh Nagar, Indore - 452009, Dist.Indore, Madhya Pradesh",8048600421,
"pc print Baby Bed Clothes, 0-3years",https://www.indiamart.com/proddetail/baby-bed-clothes-4785348030.html?pos=65&kwd=baby beddings&tags=BA||||8663.873|Price|product|||TS|rsf:gd-|-stype:attr=1|qr_nm:gd|res:RC4|com-cf:nl|ptrs:na|ktp:N0|mc:4161|mtp:S|qry_typ:P|lang:en|wc:2|cs:8780|v=4,Hira Textiles,https://www.indiamart.com/hiratextiles/?pos=65&kwd=baby beddings&tags=BA||||8663.873|Price|product|||TS|rsf:gd-|-stype:attr=1|qr_nm:gd|res:RC4|com-cf:nl|ptrs:na|ktp:N0|mc:4161|mtp:S|qry_typ:P|lang:en|wc:2|cs:8780|v=4,False,Chickpet,Bengaluru,"No. 70,2nd Floor,Ambica Cloth Martket,Deewankhan Lane,Chickpet Cross, Chickpet, Bengaluru - 560053, Dist.Bengaluru, Karnataka",8046032799,
Baby Godadi Set,https://www.indiamart.com/proddetail/baby-godadi-set-2854677779088.html?pos=66&kwd=baby beddings&tags=BB||||8230.883|Price|product|||MDC|rsf:gd-|-stype:attr=1|qr_nm:gd|res:RC4|com-cf:nl|ptrs:na|ktp:N0|mc:4161|mtp:S|qry_typ:P|lang:en|wc:2|cs:8780|v=4,Grow More Enterprise,https://www.indiamart.com/growmoreenterprise-surat/?pos=66&kwd=baby beddings&tags=BB||||8230.883|Price|product|||MDC|rsf:gd-|-stype:attr=1|qr_nm:gd|res:RC4|com-cf:nl|ptrs:na|ktp:N0|mc:4161|mtp:S|qry_typ:P|lang:en|wc:2|cs:8780|v=4,False,Punagam,Surat,"C 38, Matrushakti Society, Punagam, Punagam, Surat - 395010, Dist.Surat, Gujarat",7942722776,
"Pink Baby Carry Bedding Bed, 2 Year",https://www.indiamart.com/proddetail/baby-carry-bedding-bed-24422576473.html?pos=67&kwd=baby beddings&tags=BA||||8954.051|Price|product|||MDC|rsf:gd-|-stype:attr=1|qr_nm:gd|res:RC4|com-cf:nl|ptrs:na|ktp:N0|mc:4161|mtp:S|qry_typ:P|lang:en|wc:2|cs:8780|v=4,Upkar Agency,https://www.indiamart.com/upkaragency/?pos=67&kwd=baby beddings&tags=BA||||8954.051|Price|product|||MDC|rsf:gd-|-stype:attr=1|qr_nm:gd|res:RC4|com-cf:nl|ptrs:na|ktp:N0|mc:4161|mtp:S|qry_typ:P|lang:en|wc:2|cs:8780|v=4,False,Sowcarpet,Chennai,",30,Strotten Muthiah Mudali Street,,Sowcarpet,,, Sowcarpet, Chennai - 600001, Dist.Chennai, Tamil Nadu",7942549213,
White(Base) Rectangular Baby Chunky Soft Cotton Baby Bed Crib Sheet,https://www.indiamart.com/proddetail/baby-chunky-soft-cotton-baby-bed-crib-sheet-2854507557355.html?pos=68&kwd=baby beddings&tags=BA||||8663.873|Price|product|||MDC|rsf:gd-|-stype:attr=1|qr_nm:gd|res:RC4|com-cf:nl|ptrs:na|ktp:N0|mc:4161|mtp:S|qry_typ:P|lang:en|wc:2|cs:8780|v=4,AQ Corporation,https://www.indiamart.com/aqcorporation/?pos=68&kwd=baby beddings&tags=BA||||8663.873|Price|product|||MDC|rsf:gd-|-stype:attr=1|qr_nm:gd|res:RC4|com-cf:nl|ptrs:na|ktp:N0|mc:4161|mtp:S|qry_typ:P|lang:en|wc:2|cs:8780|v=4,False,,Bengaluru,"Ground And First Floor, No 88, 2nd Cross, 4th Main, NGEF Layout, Nagashetty Halli, Sanjaynagar Bengaluru Urban, Bengaluru - 560094, Dist.Bengaluru, Karnataka",7949325043,
Baby Bedding Set No. 1,https://www.indiamart.com/proddetail/baby-bedding-set-no-1-12810024333.html?pos=69&kwd=baby beddings&tags=BA||||8223.226|Price|product|||MDC|rsf:gd-|-stype:attr=1|qr_nm:gd|res:RC4|com-cf:nl|ptrs:na|ktp:N0|mc:4161|mtp:S|qry_typ:P|lang:en|wc:2|cs:8780|v=4,Wecare Solutions,https://www.indiamart.com/wecare-solutions/?pos=69&kwd=baby beddings&tags=BA||||8223.226|Price|product|||MDC|rsf:gd-|-stype:attr=1|qr_nm:gd|res:RC4|com-cf:nl|ptrs:na|ktp:N0|mc:4161|mtp:S|qry_typ:P|lang:en|wc:2|cs:8780|v=4,False,Valiv,Thane,"Gala No. F-19-20, 1st Floor, Rajprabha Anand Industrial Estate Naikpada, Waliv, Valiv, Thane - 401208, Dist.Thane, Maharashtra",8047631791,
Little Bunny Baby Bed,https://www.indiamart.com/proddetail/little-bunny-baby-bed-2854383935991.html?pos=70&kwd=baby beddings&tags=BB||||8954.051|Price|product|||MDC|rsf:gd-|-stype:attr=1|qr_nm:gd|res:RC4|com-cf:nl|ptrs:na|ktp:N0|mc:4161|mtp:S|qry_typ:P|lang:en|wc:2|cs:8780|v=4,Earthwise Collective Private Limited,https://www.indiamart.com/earthwise-collective/?pos=70&kwd=baby beddings&tags=BB||||8954.051|Price|product|||MDC|rsf:gd-|-stype:attr=1|qr_nm:gd|res:RC4|com-cf:nl|ptrs:na|ktp:N0|mc:4161|mtp:S|qry_typ:P|lang:en|wc:2|cs:8780|v=4,False,,Chennai,"9/2, 35/2, Bagirathiammal Street, T Nagar,, Chennai - 600017, Dist.Chennai, Tamil Nadu",7942801118,
"Baby Bed Set, Printed",https://www.indiamart.com/proddetail/baby-bed-set-9417562673.html?pos=71&kwd=baby beddings&tags=BA||||8211.142|Price|product|||MDC|rsf:gd-|-stype:attr=1|qr_nm:gd|res:RC4|com-cf:nl|ptrs:na|ktp:N0|mc:4161|mtp:S|qry_typ:P|lang:en|wc:2|cs:8780|v=4,Milee Fashion,https://www.indiamart.com/mileefashion/?pos=71&kwd=baby beddings&tags=BA||||8211.142|Price|product|||MDC|rsf:gd-|-stype:attr=1|qr_nm:gd|res:RC4|com-cf:nl|ptrs:na|ktp:N0|mc:4161|mtp:S|qry_typ:P|lang:en|wc:2|cs:8780|v=4,False,Chedda Nagar,Mumbai,"Veer Sambhaji Nagar, Near Hanuman Mandir PL Lokhande Marg, Chembur, Chedda Nagar, Mumbai - 400089, Dist.Mumbai, Maharashtra",8048966118,
"Blue And White Baby Mosquito Net Bedding Set, For Home, Cotton",https://www.indiamart.com/proddetail/baby-mosquito-net-bedding-set-2854490133030.html?pos=72&kwd=baby beddings&tags=BB||||8769.508|Price|product|||MDC|rsf:gd-|-stype:attr=1|qr_nm:gd|res:RC4|com-cf:nl|ptrs:na|ktp:N0|mc:4161|mtp:S|qry_typ:P|lang:en|wc:2|cs:8780|v=4,9noc,https://www.indiamart.com/9noc/?pos=72&kwd=baby beddings&tags=BB||||8769.508|Price|product|||MDC|rsf:gd-|-stype:attr=1|qr_nm:gd|res:RC4|com-cf:nl|ptrs:na|ktp:N0|mc:4161|mtp:S|qry_typ:P|lang:en|wc:2|cs:8780|v=4,False,,Faridabad,"H No. - 1011, H.B.C Colony, Sector 21C, Faridabad - 121001, Dist.Faridabad, Haryana",7949329664,
White Base Rectangular Baybee Cotton Baby Bedding Set,https://www.indiamart.com/proddetail/baybee-cotton-baby-bedding-set-2854690401373.html?pos=73&kwd=baby beddings&tags=BA||||8954.051|Price|product|||MDC|rsf:gd-|-stype:attr=1|qr_nm:gd|res:RC4|com-cf:nl|ptrs:na|ktp:N0|mc:4161|mtp:S|qry_typ:P|lang:en|wc:2|cs:8780|v=4,Shanjay Enterprises,https://www.indiamart.com/shanjay-enterprises-chennai/?pos=73&kwd=baby beddings&tags=BA||||8954.051|Price|product|||MDC|rsf:gd-|-stype:attr=1|qr_nm:gd|res:RC4|com-cf:nl|ptrs:na|ktp:N0|mc:4161|mtp:S|qry_typ:P|lang:en|wc:2|cs:8780|v=4,False,,Chennai,"No 5, Alapakkam Main Road, Maduravoyal, Chennai - 600095, Dist.Chennai, Tamil Nadu",8044461007,
Single Wooden Pink Kids Bed,https://www.indiamart.com/proddetail/pink-kids-bed-2850234520848.html?pos=74&kwd=baby beddings&tags=BA||||8717.755|Price|product|||TS|rsf:gd-|-stype:attr=1|qr_nm:gd|res:RC4|com-cf:nl|ptrs:na|ktp:N0|mc:4161|mtp:S|qry_typ:P|lang:en|wc:2|cs:8780|v=4,Maglic Kids Furniture,https://www.maglickidsfurniture.com/?pos=74&kwd=baby beddings&tags=BA||||8717.755|Price|product|||TS|rsf:gd-|-stype:attr=1|qr_nm:gd|res:RC4|com-cf:nl|ptrs:na|ktp:N0|mc:4161|mtp:S|qry_typ:P|lang:en|wc:2|cs:8780|v=4,False,Manikonda,Rangareddy,"1-1/3, beside pooja crafted homes alkapur township road, neknampur, Manikonda, Rangareddy - 500089, Dist.Rangareddy, Telangana",7942550826,
"Sky Blue Dot Printed Cotton Baby Bedding Set, For Home",https://www.indiamart.com/proddetail/sky-blue-dot-printed-cotton-baby-bedding-set-23705254812.html?pos=75&kwd=baby beddings&tags=BA||||8752.144|Price|product|||TS|rsf:gd-|-stype:attr=1|qr_nm:gd|res:RC4|com-cf:nl|ptrs:na|ktp:N0|mc:4161|mtp:S|qry_typ:P|lang:en|wc:2|cs:8780|v=4,ASW Retail Corporation,https://www.indiamart.com/aswretailcorporation/?pos=75&kwd=baby beddings&tags=BA||||8752.144|Price|product|||TS|rsf:gd-|-stype:attr=1|qr_nm:gd|res:RC4|com-cf:nl|ptrs:na|ktp:N0|mc:4161|mtp:S|qry_typ:P|lang:en|wc:2|cs:8780|v=4,False,Naraina,New Delhi,"B-62/6 3rd Floor Phase II, Naraina Industrial Area, Naraina, New Delhi - 110032, Dist.Delhi, Delhi",8046060075,
Blue 100% Cotton Baby Bed Sheet,https://www.indiamart.com/proddetail/baby-bed-sheet-16964243433.html?pos=76&kwd=baby beddings&tags=BB||||8752.144|Price|product|||TS|rsf:gd-|-stype:attr=1|qr_nm:gd|res:RC4|com-cf:nl|ptrs:na|ktp:N0|mc:4161|mtp:S|qry_typ:P|lang:en|wc:2|cs:8780|v=4,Man Singh & Sons Private Limited,https://www.babyproductsmanufacturer.com/?pos=76&kwd=baby beddings&tags=BB||||8752.144|Price|product|||TS|rsf:gd-|-stype:attr=1|qr_nm:gd|res:RC4|com-cf:nl|ptrs:na|ktp:N0|mc:4161|mtp:S|qry_typ:P|lang:en|wc:2|cs:8780|v=4,False,Karol Bagh,New Delhi,"No. 13/24, 1st Floor, W. E. A., Karol Bagh, Karol Bagh, New Delhi - 110005, Dist.Delhi, Delhi",8048978579,
Little Innocents Various Baby Bed Set,https://www.indiamart.com/proddetail/baby-bed-set-18999351833.html?pos=77&kwd=baby beddings&tags=BA||||8211.142|Price|product|||TS|rsf:gd-|-stype:attr=1|qr_nm:gd|res:RC4|com-cf:nl|ptrs:na|ktp:N0|mc:4161|mtp:S|qry_typ:P|lang:en|wc:2|cs:8780|v=4,Welcome Enterprise,https://www.welcomeenterprise.in/?pos=77&kwd=baby beddings&tags=BA||||8211.142|Price|product|||TS|rsf:gd-|-stype:attr=1|qr_nm:gd|res:RC4|com-cf:nl|ptrs:na|ktp:N0|mc:4161|mtp:S|qry_typ:P|lang:en|wc:2|cs:8780|v=4,False,Santacruz West,Mumbai,"1,Gulam Rasul Chawl No. 149,Khot Wadi, Besant Road,Santacruz West, Santacruz West, Mumbai - 400054, Dist.Mumbai, Maharashtra",8048601972,
Foam Pillow Pink Baby Bedding Sets,https://www.indiamart.com/proddetail/baby-bedding-sets-14206230973.html?pos=78&kwd=baby beddings&tags=BB||||8747.203|Price|product|||TS|rsf:gd-|-stype:attr=1|qr_nm:gd|res:RC4|com-cf:nl|ptrs:na|ktp:N0|mc:4161|mtp:S|qry_typ:P|lang:en|wc:2|cs:8780|v=4,Shiv Shakti Handloom Industries,https://www.shivshaktihandloomindustries.com/?pos=78&kwd=baby beddings&tags=BB||||8747.203|Price|product|||TS|rsf:gd-|-stype:attr=1|qr_nm:gd|res:RC4|com-cf:nl|ptrs:na|ktp:N0|mc:4161|mtp:S|qry_typ:P|lang:en|wc:2|cs:8780|v=4,False,Panipat City,Panipat,"Shop 12, Krishna Market, Pachranga Bazar, Panipat City, Panipat - 132103, Dist.Panipat, Haryana",8048970618,
"100% Natural Organic Cotton Printed Stylish Animal Print Baby Bedding Set, For Hotel, Multi",https://www.indiamart.com/proddetail/stylish-animal-print-baby-bedding-set-2850392580733.html?pos=79&kwd=baby beddings&tags=BA||||8601.347|Price|product|||TS|rsf:gd-|-stype:attr=1|qr_nm:gd|res:RC4|com-cf:nl|ptrs:na|ktp:N0|mc:4161|mtp:S|qry_typ:P|lang:en|wc:2|cs:8780|v=4,Trade Star Exports,https://www.tradestar.co.in/?pos=79&kwd=baby beddings&tags=BA||||8601.347|Price|product|||TS|rsf:gd-|-stype:attr=1|qr_nm:gd|res:RC4|com-cf:nl|ptrs:na|ktp:N0|mc:4161|mtp:S|qry_typ:P|lang:en|wc:2|cs:8780|v=4,True,,Jaipur,"H 1 1256, Riico Industrial Area, Sitapura,, Jaipur - 302022, Dist.Jaipur, Rajasthan",8046033994,
"Cotton Zipper little monkeys Baby Bed Set and Baby Play Gym with Mosquito Net, For Home, Size: Medium",https://www.indiamart.com/proddetail/little-monkeys-baby-bed-set-and-baby-play-gym-with-mosquito-net-2851497240588.html?pos=80&kwd=baby beddings&tags=BA||||8752.144|Price|product|||TS|rsf:gd-|-stype:attr=1|qr_nm:gd|res:RC4|com-cf:nl|ptrs:na|ktp:N0|mc:4161|mtp:S|qry_typ:P|lang:en|wc:2|cs:8780|v=4,Ekta Overseas,https://www.indiamart.com/ektaoverseas-newdelhi/?pos=80&kwd=baby beddings&tags=BA||||8752.144|Price|product|||TS|rsf:gd-|-stype:attr=1|qr_nm:gd|res:RC4|com-cf:nl|ptrs:na|ktp:N0|mc:4161|mtp:S|qry_typ:P|lang:en|wc:2|cs:8780|v=4,False,Shahdara,New Delhi,"1/95, Gali No.3, Near Navjeevan Phisical Center, Vishwas Nagar, Shahdara,, Shahdara, New Delhi - 110032, Dist.Delhi, Delhi",7942628926,
Baby Printed Bedding Set,https://www.indiamart.com/proddetail/baby-printed-bedding-set-22826957348.html?pos=81&kwd=baby beddings&tags=BB||||8211.142|Price|product|||TS|rsf:gd-|-stype:attr=1|qr_nm:gd|res:RC4|com-cf:nl|ptrs:na|ktp:N0|mc:4161|mtp:S|qry_typ:P|lang:en|wc:2|cs:8780|v=4,Child King Creation,https://www.indiamart.com/childkingcreation-mumbai/?pos=81&kwd=baby beddings&tags=BB||||8211.142|Price|product|||TS|rsf:gd-|-stype:attr=1|qr_nm:gd|res:RC4|com-cf:nl|ptrs:na|ktp:N0|mc:4161|mtp:S|qry_typ:P|lang:en|wc:2|cs:8780|v=4,False,Malad West,Mumbai,"B 705, Seven Floor, Jagmagia Centre, Mamlatdar Wadi EXTN Road Nahar Nagar, Malad West, Suburban, Malad West, Mumbai - 400064, Dist.Mumbai, Maharashtra",8043805922,
"Foam Pillow Multicolor Femfairy Baby Bedding Set, For Home",https://www.indiamart.com/proddetail/femfairy-baby-bedding-set-2849863760891.html?pos=82&kwd=baby beddings&tags=BB||||8747.203|Price|product|||TS|rsf:gd-|-stype:attr=1|qr_nm:gd|res:RC4|com-cf:nl|ptrs:na|ktp:N0|mc:4161|mtp:S|qry_typ:P|lang:en|wc:2|cs:8780|v=4,ANB Handlooms,https://www.femfairy.com/?pos=82&kwd=baby beddings&tags=BB||||8747.203|Price|product|||TS|rsf:gd-|-stype:attr=1|qr_nm:gd|res:RC4|com-cf:nl|ptrs:na|ktp:N0|mc:4161|mtp:S|qry_typ:P|lang:en|wc:2|cs:8780|v=4,False,Chadau Mohalla,Panipat,"455/9, Sanoli Road, Chadau Mohalla, Panipat - 132103, Dist.Panipat, Haryana",7942544537,
Baby Duvet Cover Set,https://www.indiamart.com/proddetail/baby-duvet-cover-set-2852593549948.html?pos=83&kwd=baby beddings&tags=BB||||8747.203||product|||TS|rsf:gd-|-stype:attr=1|qr_nm:gd|res:RC4|com-cf:nl|ptrs:na|ktp:N0|mc:4161|mtp:S|qry_typ:P|lang:en|wc:2|cs:8780|v=4,Supercloudy Fashion World Private Limited,https://www.indiamart.com/supercloudyfashionworld/?pos=83&kwd=baby beddings&tags=BB||||8747.203||product|||TS|rsf:gd-|-stype:attr=1|qr_nm:gd|res:RC4|com-cf:nl|ptrs:na|ktp:N0|mc:4161|mtp:S|qry_typ:P|lang:en|wc:2|cs:8780|v=4,False,Huda,Panipat,"Vpo Kurar, Near Jagmehar Hatchery, Huda, Panipat - 132103, Dist.Panipat, Haryana",8047303410,
"OAPTIMO Rectangle Carrying Method Baby Carry Nest With Hood, Packaging Type: Box",https://www.indiamart.com/proddetail/baby-carry-nest-with-hood-2850472652230.html?pos=84&kwd=baby beddings&tags=BA||||8706.263|Price|product|||TS|rsf:gd-|-stype:attr=1|qr_nm:gd|res:RC4|com-cf:nl|ptrs:na|ktp:N0|mc:4161|mtp:S|qry_typ:P|lang:en|wc:2|cs:8780|v=4,Mercury Weavers,https://www.indiamart.com/mercuryweavers/?pos=84&kwd=baby beddings&tags=BA||||8706.263|Price|product|||TS|rsf:gd-|-stype:attr=1|qr_nm:gd|res:RC4|com-cf:nl|ptrs:na|ktp:N0|mc:4161|mtp:S|qry_typ:P|lang:en|wc:2|cs:8780|v=4,False,Gowripuram,Karur,"35/3, 2nd Floor, Gandhi Nagar 3rd Cross, Karur Town, Gowripuram, Karur - 639001, Dist.Karur, Tamil Nadu",8047641180,
Multicolor Rectangular Baby Bedding Set Manufacturer,https://www.indiamart.com/proddetail/baby-bedding-set-manufacturer-2853931582673.html?pos=85&kwd=baby beddings&tags=BA||||8752.144|Price|product|||TS|rsf:gd-|-stype:attr=1|qr_nm:gd|res:RC4|com-cf:nl|ptrs:na|ktp:N0|mc:4161|mtp:S|qry_typ:P|lang:en|wc:2|cs:8780|v=4,Mom & Son,https://www.theindianchoice.com/?pos=85&kwd=baby beddings&tags=BA||||8752.144|Price|product|||TS|rsf:gd-|-stype:attr=1|qr_nm:gd|res:RC4|com-cf:nl|ptrs:na|ktp:N0|mc:4161|mtp:S|qry_typ:P|lang:en|wc:2|cs:8780|v=4,False,Karawal Nagar,New Delhi,"B-57 Gali Number-1 Mukund Vihar, Near Pnb Bank, Karawal Nagar, New Delhi - 110094, Dist.Delhi, Delhi",7942565509,
"Microfiber Plain SIE STORE Solid Crib Crib Baby Blanket, Size: 114 cm X 153 cm",https://www.indiamart.com/proddetail/sie-store-solid-crib-crib-baby-blanket-25556817297.html?pos=86&kwd=baby beddings&tags=BB||||8601.347|Price|product|||MDC|rsf:gd-|-stype:attr=1|qr_nm:gd|res:RC4|com-cf:nl|ptrs:na|ktp:N0|mc:4161|mtp:S|qry_typ:P|lang:en|wc:2|cs:8780|v=4,Srknd India Enterprises,https://www.indiamart.com/srkndindiaenterprises/?pos=86&kwd=baby beddings&tags=BB||||8601.347|Price|product|||MDC|rsf:gd-|-stype:attr=1|qr_nm:gd|res:RC4|com-cf:nl|ptrs:na|ktp:N0|mc:4161|mtp:S|qry_typ:P|lang:en|wc:2|cs:8780|v=4,False,Rawan Gate,Jaipur,"S-2, Plot No 83 Parth Sarthi Residency, Rawan Gate, Jaipur - 302012, Dist.Jaipur, Rajasthan",8048963972,
Baby Bedding Set No. 1,https://www.indiamart.com/proddetail/baby-bedding-set-no-1-12810024333.html?pos=87&kwd=baby beddings&tags=BA||||8223.226|Price|product|||MDC|rsf:gd-|-stype:attr=1|qr_nm:gd|res:RC4|com-cf:nl|ptrs:na|ktp:N0|mc:4161|mtp:S|qry_typ:P|lang:en|wc:2|cs:8780|v=4,Wecare Solutions,https://www.indiamart.com/wecare-solutions/?pos=87&kwd=baby beddings&tags=BA||||8223.226|Price|product|||MDC|rsf:gd-|-stype:attr=1|qr_nm:gd|res:RC4|com-cf:nl|ptrs:na|ktp:N0|mc:4161|mtp:S|qry_typ:P|lang:en|wc:2|cs:8780|v=4,False,Valiv,Thane,"Gala No. F-19-20, 1st Floor, Rajprabha Anand Industrial Estate Naikpada, Waliv, Valiv, Thane - 401208, Dist.Thane, Maharashtra",8047631791,
"Pink Baby Carry Bedding Bed, 2 Year",https://www.indiamart.com/proddetail/baby-carry-bedding-bed-24422576473.html?pos=88&kwd=baby beddings&tags=BA||||8954.051|Price|product|||MDC|rsf:gd-|-stype:attr=1|qr_nm:gd|res:RC4|com-cf:nl|ptrs:na|ktp:N0|mc:4161|mtp:S|qry_typ:P|lang:en|wc:2|cs:8780|v=4,Upkar Agency,https://www.indiamart.com/upkaragency/?pos=88&kwd=baby beddings&tags=BA||||8954.051|Price|product|||MDC|rsf:gd-|-stype:attr=1|qr_nm:gd|res:RC4|com-cf:nl|ptrs:na|ktp:N0|mc:4161|mtp:S|qry_typ:P|lang:en|wc:2|cs:8780|v=4,False,Sowcarpet,Chennai,",30,Strotten Muthiah Mudali Street,,Sowcarpet,,, Sowcarpet, Chennai - 600001, Dist.Chennai, Tamil Nadu",7942549213,
"Baby Bed Set, Printed",https://www.indiamart.com/proddetail/baby-bed-set-9417562673.html?pos=89&kwd=baby beddings&tags=BA||||8211.142|Price|product|||MDC|rsf:gd-|-stype:attr=1|qr_nm:gd|res:RC4|com-cf:nl|ptrs:na|ktp:N0|mc:4161|mtp:S|qry_typ:P|lang:en|wc:2|cs:8780|v=4,Milee Fashion,https://www.indiamart.com/mileefashion/?pos=89&kwd=baby beddings&tags=BA||||8211.142|Price|product|||MDC|rsf:gd-|-stype:attr=1|qr_nm:gd|res:RC4|com-cf:nl|ptrs:na|ktp:N0|mc:4161|mtp:S|qry_typ:P|lang:en|wc:2|cs:8780|v=4,False,Chedda Nagar,Mumbai,"Veer Sambhaji Nagar, Near Hanuman Mandir PL Lokhande Marg, Chembur, Chedda Nagar, Mumbai - 400089, Dist.Mumbai, Maharashtra",8048966118,
"Size: Single Cotton Cars Printed Kids Bed Sheet, For Home",https://www.indiamart.com/proddetail/cars-printed-kids-bed-sheet-2850708463173.html?pos=90&kwd=baby beddings&tags=BA||||8584.299|Price|product|||MDC|rsf:gd-|-stype:attr=1|qr_nm:gd|res:RC4|com-cf:nl|ptrs:na|ktp:N0|mc:4161|mtp:S|qry_typ:P|lang:en|wc:2|cs:8780|v=4,Coimbatore Vandana Beds,https://www.indiamart.com/coimbatore-vandana-beds/?pos=90&kwd=baby beddings&tags=BA||||8584.299|Price|product|||MDC|rsf:gd-|-stype:attr=1|qr_nm:gd|res:RC4|com-cf:nl|ptrs:na|ktp:N0|mc:4161|mtp:S|qry_typ:P|lang:en|wc:2|cs:8780|v=4,False,Town Hall,Coimbatore,"394, Oppanakara Street, Town Hall, Coimbatore - 641001, Dist.Coimbatore, Tamil Nadu",8047697480,
Multicolor Rectangular New born baby bed set / Comfortable New Born Baby Bedding Set,https://www.indiamart.com/proddetail/new-born-baby-bed-set-comfortable-new-born-baby-bedding-set-2853711190397.html?pos=91&kwd=baby beddings&tags=BA||||8559.269|Price|product|||MDC|rsf:gd-|-stype:attr=1|qr_nm:gd|res:RC4|com-cf:nl|ptrs:na|ktp:N0|mc:4161|mtp:S|qry_typ:P|lang:en|wc:2|cs:8780|v=4,Sheza Enterprises,https://www.indiamart.com/shezaenterprises/?pos=91&kwd=baby beddings&tags=BA||||8559.269|Price|product|||MDC|rsf:gd-|-stype:attr=1|qr_nm:gd|res:RC4|com-cf:nl|ptrs:na|ktp:N0|mc:4161|mtp:S|qry_typ:P|lang:en|wc:2|cs:8780|v=4,False,,Indore,"Alif House, 5, Khajrana Main Road, Opposite HP Petrol Pump,, Indore - 452001, Dist.Indore, Madhya Pradesh",7948547068,
"imported Baby Care Products, 3-12 Months",https://www.indiamart.com/proddetail/baby-care-products-2849563394797.html?pos=92&kwd=baby beddings&tags=BB||||8752.144|Price|product|||TS|rsf:gd-|-stype:attr=1|qr_nm:gd|res:RC4|com-cf:nl|ptrs:na|ktp:N0|mc:4161|mtp:S|qry_typ:P|lang:en|wc:2|cs:8780|v=4,Amarcom,https://www.indiamart.com/amarcom-newdelhi/?pos=92&kwd=baby beddings&tags=BB||||8752.144|Price|product|||TS|rsf:gd-|-stype:attr=1|qr_nm:gd|res:RC4|com-cf:nl|ptrs:na|ktp:N0|mc:4161|mtp:S|qry_typ:P|lang:en|wc:2|cs:8780|v=4,False,Punjabi Bagh,New Delhi,"63, West Avenue Road, West Punjabi Bagh, New Delhi, Punjabi Bagh, New Delhi - 110026, Dist.Delhi, Delhi",8043869162,
PINK Printed XL Foldable Baby Bed Set (One Pillow),https://www.indiamart.com/proddetail/xl-foldable-baby-bed-set-one-pillow-21253019233.html?pos=93&kwd=baby beddings&tags=BA||||9842.824|Price|product|||TS|rsf:gd-|-stype:attr=1|qr_nm:gd|res:RC4|com-cf:nl|ptrs:na|ktp:N0|mc:4161|mtp:S|qry_typ:P|lang:en|wc:2|cs:8780|v=4,Baby Mosquito Net Seller,https://www.indiamart.com/babymosquitonetseller/?pos=93&kwd=baby beddings&tags=BA||||9842.824|Price|product|||TS|rsf:gd-|-stype:attr=1|qr_nm:gd|res:RC4|com-cf:nl|ptrs:na|ktp:N0|mc:4161|mtp:S|qry_typ:P|lang:en|wc:2|cs:8780|v=4,False,Kailash Nagar,Hooghly,"Paulpara, P. O. Bandel, Kailash Nagar, Hooghly - 712103, Dist.Hooghly, West Bengal",8048953197,
Blue 100% Cotton Baby Bed Sheet,https://www.indiamart.com/proddetail/baby-bed-sheet-16964243433.html?pos=94&kwd=baby beddings&tags=BB||||8752.144|Price|product|||TS|rsf:gd-|-stype:attr=1|qr_nm:gd|res:RC4|com-cf:nl|ptrs:na|ktp:N0|mc:4161|mtp:S|qry_typ:P|lang:en|wc:2|cs:8780|v=4,Man Singh & Sons Private Limited,https://www.babyproductsmanufacturer.com/?pos=94&kwd=baby beddings&tags=BB||||8752.144|Price|product|||TS|rsf:gd-|-stype:attr=1|qr_nm:gd|res:RC4|com-cf:nl|ptrs:na|ktp:N0|mc:4161|mtp:S|qry_typ:P|lang:en|wc:2|cs:8780|v=4,False,Karol Bagh,New Delhi,"No. 13/24, 1st Floor, W. E. A., Karol Bagh, Karol Bagh, New Delhi - 110005, Dist.Delhi, Delhi",8048978579,
Little Innocents Various Baby Bed Set,https://www.indiamart.com/proddetail/baby-bed-set-18999351833.html?pos=95&kwd=baby beddings&tags=BA||||8211.142|Price|product|||TS|rsf:gd-|-stype:attr=1|qr_nm:gd|res:RC4|com-cf:nl|ptrs:na|ktp:N0|mc:4161|mtp:S|qry_typ:P|lang:en|wc:2|cs:8780|v=4,Welcome Enterprise,https://www.welcomeenterprise.in/?pos=95&kwd=baby beddings&tags=BA||||8211.142|Price|product|||TS|rsf:gd-|-stype:attr=1|qr_nm:gd|res:RC4|com-cf:nl|ptrs:na|ktp:N0|mc:4161|mtp:S|qry_typ:P|lang:en|wc:2|cs:8780|v=4,False,Santacruz West,Mumbai,"1,Gulam Rasul Chawl No. 149,Khot Wadi, Besant Road,Santacruz West, Santacruz West, Mumbai - 400054, Dist.Mumbai, Maharashtra",8048601972,
"100% Natural Organic Cotton Printed Stylish Animal Print Baby Bedding Set, For Hotel, Multi",https://www.indiamart.com/proddetail/stylish-animal-print-baby-bedding-set-2850392580733.html?pos=96&kwd=baby beddings&tags=BA||||8601.347|Price|product|||TS|rsf:gd-|-stype:attr=1|qr_nm:gd|res:RC4|com-cf:nl|ptrs:na|ktp:N0|mc:4161|mtp:S|qry_typ:P|lang:en|wc:2|cs:8780|v=4,Trade Star Exports,https://www.tradestar.co.in/?pos=96&kwd=baby beddings&tags=BA||||8601.347|Price|product|||TS|rsf:gd-|-stype:attr=1|qr_nm:gd|res:RC4|com-cf:nl|ptrs:na|ktp:N0|mc:4161|mtp:S|qry_typ:P|lang:en|wc:2|cs:8780|v=4,True,,Jaipur,"H 1 1256, Riico Industrial Area, Sitapura,, Jaipur - 302022, Dist.Jaipur, Rajasthan",8046033994,
Foam Pillow Pink Baby Bedding Sets,https://www.indiamart.com/proddetail/baby-bedding-sets-14206230973.html?pos=97&kwd=baby beddings&tags=BB||||8747.203|Price|product|||TS|rsf:gd-|-stype:attr=1|qr_nm:gd|res:RC4|com-cf:nl|ptrs:na|ktp:N0|mc:4161|mtp:S|qry_typ:P|lang:en|wc:2|cs:8780|v=4,Shiv Shakti Handloom Industries,https://www.shivshaktihandloomindustries.com/?pos=97&kwd=baby beddings&tags=BB||||8747.203|Price|product|||TS|rsf:gd-|-stype:attr=1|qr_nm:gd|res:RC4|com-cf:nl|ptrs:na|ktp:N0|mc:4161|mtp:S|qry_typ:P|lang:en|wc:2|cs:8780|v=4,False,Panipat City,Panipat,"Shop 12, Krishna Market, Pachranga Bazar, Panipat City, Panipat - 132103, Dist.Panipat, Haryana",8048970618,
Photography Prop Basket Cane Bamboo Doll Bed Basket Infant Girl Photography Props baske,https://www.indiamart.com/proddetail/photography-prop-basket-cane-bamboo-doll-bed-basket-infant-girl-photography-props-baske-2854558050573.html?pos=98&kwd=baby beddings&tags=BA||||8752.144|Price|product|||TS|rsf:gd-|-stype:attr=1|qr_nm:gd|res:RC4|com-cf:nl|ptrs:na|ktp:N0|mc:4161|mtp:S|qry_typ:P|lang:en|wc:2|cs:8780|v=4,Craferia Export Llp,https://www.craferiaexport.com/?pos=98&kwd=baby beddings&tags=BA||||8752.144|Price|product|||TS|rsf:gd-|-stype:attr=1|qr_nm:gd|res:RC4|com-cf:nl|ptrs:na|ktp:N0|mc:4161|mtp:S|qry_typ:P|lang:en|wc:2|cs:8780|v=4,True,N.S.I.T. Dwarka,New Delhi,"H.No 319, 3rd Floor, Pocket 1, Sector 12, Dwarka,Near Metro Station,, N.S.I.T. Dwarka, New Delhi - 110078, Dist.Delhi, Delhi",8047671940,
"Microfiber Plain SIE STORE Solid Crib Crib Baby Blanket, Size: 114 cm X 153 cm",https://www.indiamart.com/proddetail/sie-store-solid-crib-crib-baby-blanket-25556817297.html?pos=99&kwd=baby beddings&tags=BB||||8601.347|Price|product|||MDC|rsf:gd-|-stype:attr=1|qr_nm:gd|res:RC4|com-cf:nl|ptrs:na|ktp:N0|mc:4161|mtp:S|qry_typ:P|lang:en|wc:2|cs:8780|v=4,Srknd India Enterprises,https://www.indiamart.com/srkndindiaenterprises/?pos=99&kwd=baby beddings&tags=BB||||8601.347|Price|product|||MDC|rsf:gd-|-stype:attr=1|qr_nm:gd|res:RC4|com-cf:nl|ptrs:na|ktp:N0|mc:4161|mtp:S|qry_typ:P|lang:en|wc:2|cs:8780|v=4,False,Rawan Gate,Jaipur,"S-2, Plot No 83 Parth Sarthi Residency, Rawan Gate, Jaipur - 302012, Dist.Jaipur, Rajasthan",8048963972,
"Printed Baby Bed Protector Dry Sheet, Red, Size: 50x30(LxW)inch",https://www.indiamart.com/proddetail/baby-bed-protector-dry-sheet-2853262386888.html?pos=100&kwd=baby beddings&tags=BB||||8752.144|Price|product|||MDC|rsf:gd-|-stype:attr=1|qr_nm:gd|res:RC4|com-cf:nl|ptrs:na|ktp:N0|mc:4161|mtp:S|qry_typ:P|lang:en|wc:2|cs:8780|v=4,A.D. Enterprises,https://www.indiamart.com/adenterprises-burari-newdelhi/?pos=100&kwd=baby beddings&tags=BB||||8752.144|Price|product|||MDC|rsf:gd-|-stype:attr=1|qr_nm:gd|res:RC4|com-cf:nl|ptrs:na|ktp:N0|mc:4161|mtp:S|qry_typ:P|lang:en|wc:2|cs:8780|v=4,False,North,New Delhi,"K.No-12/1, Main 25 FT. Road, Near Shyam Sweets, Uttranchal Enclave ,Kamal Pur, Burari, North, New Delhi - 110084, Dist.Delhi, Delhi",8044565004,
Stylish Baby Sleeping Bag,https://www.indiamart.com/proddetail/stylish-baby-sleeping-bag-2853603638748.html?pos=101&kwd=baby beddings&tags=BA||||8230.883|Price|product|||MDC|rsf:gd-|-stype:attr=1|qr_nm:gd|res:RC4|com-cf:nl|ptrs:na|ktp:N0|mc:4161|mtp:S|qry_typ:P|lang:en|wc:2|cs:8780|v=4,Shri Shri Fashion,https://www.indiamart.com/shri-shri-fashion/?pos=101&kwd=baby beddings&tags=BA||||8230.883|Price|product|||MDC|rsf:gd-|-stype:attr=1|qr_nm:gd|res:RC4|com-cf:nl|ptrs:na|ktp:N0|mc:4161|mtp:S|qry_typ:P|lang:en|wc:2|cs:8780|v=4,False,Varachha,Surat,"A-231, Narayan Nagar, Near Nalanda School, Punagam,, Varachha, Surat - 395010, Dist.Surat, Gujarat",7942712235,
Velvet 1 Kg New Born Baby Bedding Net,https://www.indiamart.com/proddetail/new-born-baby-bedding-net-22878204248.html?pos=102&kwd=baby beddings&tags=BA||||8747.203|Price|product|||MDC|rsf:gd-|-stype:attr=1|qr_nm:gd|res:RC4|com-cf:nl|ptrs:na|ktp:N0|mc:4161|mtp:S|qry_typ:P|lang:en|wc:2|cs:8780|v=4,Nav Jyoti Creations,https://www.indiamart.com/nav-jyoti-creations/?pos=102&kwd=baby beddings&tags=BA||||8747.203|Price|product|||MDC|rsf:gd-|-stype:attr=1|qr_nm:gd|res:RC4|com-cf:nl|ptrs:na|ktp:N0|mc:4161|mtp:S|qry_typ:P|lang:en|wc:2|cs:8780|v=4,False,Panipat N.S.M.,Panipat,"Shop No. 2, Dev Puri Road, Panipat N.S.M., Panipat - 132103, Dist.Panipat, Haryana",8046049761,
Wooden Kids Bed,https://www.indiamart.com/proddetail/wooden-kids-bed-2853636299030.html?pos=103&kwd=baby beddings&tags=A||||8601.347|Price|product|||NA|rsf:gd-|-stype:attr=1|qr_nm:gd|res:RC4|com-cf:nl|ptrs:na|ktp:N0|mc:4161|mtp:S|qry_typ:P|lang:en|wc:2|cs:8780|v=4,Furniculture India,https://www.indiamart.com/furniculture-india/?pos=103&kwd=baby beddings&tags=A||||8601.347|Price|product|||NA|rsf:gd-|-stype:attr=1|qr_nm:gd|res:RC4|com-cf:nl|ptrs:na|ktp:N0|mc:4161|mtp:S|qry_typ:P|lang:en|wc:2|cs:8780|v=4,False,Ajmer Road,Jaipur,"10th B-1001 Ajmer Road Sky-25, Ajmer Road, Jaipur - 302006, Dist.Jaipur, Rajasthan",8043833104,
"Mild Steel Bed Rail Guard For Baby, Polished",https://www.indiamart.com/proddetail/bed-rail-guard-for-baby-2850169843573.html?pos=111&kwd=baby beddings&tags=BA||||8230.883|Price|product|||NA|rsf:gd-|-stype:attr=1|qr_nm:gd|res:RC4|com-cf:nl|ptrs:na|ktp:N0|mc:4161|mtp:S|qry_typ:P|lang:en|wc:2|cs:8780|v=4,A Kapadiya Enterprise,https://www.indiamart.com/akapadiya-enterprise-surat/?pos=111&kwd=baby beddings&tags=BA||||8230.883|Price|product|||NA|rsf:gd-|-stype:attr=1|qr_nm:gd|res:RC4|com-cf:nl|ptrs:na|ktp:N0|mc:4161|mtp:S|qry_typ:P|lang:en|wc:2|cs:8780|v=4,False,,Surat,"Plot No. 64, Ground Floor, Siddhi Vinayak Industrial Estate, At. Kholvad, Surat - 394190, Dist.Surat, Gujarat",7942804130,
Cotton Printed Baby Bedding With Apron,https://www.indiamart.com/proddetail/baby-bedding-with-apron-8861717373.html?pos=105&kwd=baby beddings&tags=BB||||8774.064|Price|product|||NA|rsf:gd-|-stype:attr=1|qr_nm:gd|res:RC4|com-cf:nl|ptrs:na|ktp:N0|mc:4161|mtp:S|qry_typ:P|lang:en|wc:2|cs:8780|v=4,Sree Alagar Enterprises,https://www.indiamart.com/sreealagarenterprises/?pos=105&kwd=baby beddings&tags=BB||||8774.064|Price|product|||NA|rsf:gd-|-stype:attr=1|qr_nm:gd|res:RC4|com-cf:nl|ptrs:na|ktp:N0|mc:4161|mtp:S|qry_typ:P|lang:en|wc:2|cs:8780|v=4,False,,Tiruchirappalli,"No 7, Professer Colony, Subramaniyapuram ., Tiruchirappalli - 620020, Dist.Tiruchirappalli, Tamil Nadu",8046044233,
Baby Carry Bed,https://www.indiamart.com/proddetail/baby-carry-bed-16357403112.html?pos=106&kwd=baby beddings&tags=BB||||8211.142|Price|product|||NA|rsf:gd-|-stype:attr=1|qr_nm:gd|res:RC4|com-cf:nl|ptrs:na|ktp:N0|mc:4161|mtp:S|qry_typ:P|lang:en|wc:2|cs:8780|v=4,Baby World,https://www.indiamart.com/babyworld/?pos=106&kwd=baby beddings&tags=BB||||8211.142|Price|product|||NA|rsf:gd-|-stype:attr=1|qr_nm:gd|res:RC4|com-cf:nl|ptrs:na|ktp:N0|mc:4161|mtp:S|qry_typ:P|lang:en|wc:2|cs:8780|v=4,False,Masjid Bandar,Mumbai,"12, Gorund Floor, Fatimabai Building, Dharamashala Street, Umerkhadi, Chinchbunder, Masjid Bandar, Mumbai - 400009, Dist.Mumbai, Maharashtra",7942539685,
"Baby Bedding Set With Mosquito Net and Pillow, For Home",https://www.indiamart.com/proddetail/baby-bedding-set-with-mosquito-net-and-pillow-2850308973797.html?pos=107&kwd=baby beddings&tags=BA||||8228.275|Price|product|||NA|rsf:gd-|-stype:attr=1|qr_nm:gd|res:RC4|com-cf:nl|ptrs:na|ktp:N0|mc:4161|mtp:S|qry_typ:P|lang:en|wc:2|cs:8780|v=4,V K Products,https://www.indiamart.com/vkproductsahmedabad/?pos=107&kwd=baby beddings&tags=BA||||8228.275|Price|product|||NA|rsf:gd-|-stype:attr=1|qr_nm:gd|res:RC4|com-cf:nl|ptrs:na|ktp:N0|mc:4161|mtp:S|qry_typ:P|lang:en|wc:2|cs:8780|v=4,False,Bapunagar,Ahmedabad,"Ahmedabad, Bapunagar, Ahmedabad - 380024, Dist.Ahmedabad, Gujarat",8048987069,
"Soft Baby Beds, 0-1 Year",https://www.indiamart.com/proddetail/baby-beds-22505160673.html?pos=108&kwd=baby beddings&tags=BA||||8211.142||product|||NA|rsf:gd-|-stype:attr=1|qr_nm:gd|res:RC4|com-cf:nl|ptrs:na|ktp:N0|mc:4161|mtp:S|qry_typ:P|lang:en|wc:2|cs:8780|v=4,Ganesh Fibres,https://www.indiamart.com/ganeshfibres/?pos=108&kwd=baby beddings&tags=BA||||8211.142||product|||NA|rsf:gd-|-stype:attr=1|qr_nm:gd|res:RC4|com-cf:nl|ptrs:na|ktp:N0|mc:4161|mtp:S|qry_typ:P|lang:en|wc:2|cs:8780|v=4,False,Dharavi,Mumbai,"GODOWN NO.2, KALYANWADI DHARAVI MAIN ROAD,ENNA POONAWADI,NR VAIBHAV APARTMENT DHARAVI Dharavi Main Road, Dharavi, Mahim East, Dharavi, Mumbai - 400017, Dist.Mumbai, Maharashtra",8048960434,
"Printed 4 Piece Baby Bedding Set, For Home, Blue (base)",https://www.indiamart.com/proddetail/4-piece-baby-bedding-set-2852118879091.html?pos=109&kwd=baby beddings&tags=BA||||8559.269|Price|product|||NA|rsf:gd-|-stype:attr=1|qr_nm:gd|res:RC4|com-cf:nl|ptrs:na|ktp:N0|mc:4161|mtp:S|qry_typ:P|lang:en|wc:2|cs:8780|v=4,Navkar Traders,https://www.indiamart.com/navkar-tradersindore/?pos=109&kwd=baby beddings&tags=BA||||8559.269|Price|product|||NA|rsf:gd-|-stype:attr=1|qr_nm:gd|res:RC4|com-cf:nl|ptrs:na|ktp:N0|mc:4161|mtp:S|qry_typ:P|lang:en|wc:2|cs:8780|v=4,False,Sukhlia,Indore,"304, Shyam Bhatika Ke Pass, Shyam Nagar,, Sukhlia, Indore - 452010, Dist.Indore, Madhya Pradesh",7942962327,
Cotton Blue Baby Beddings,https://www.indiamart.com/proddetail/baby-beddings-2854710015962.html?pos=110&kwd=baby beddings&tags=BA||||8706.263|Price|product|||NA|rsf:gd-|-stype:attr=1|qr_nm:gd|res:RC4|com-cf:nl|ptrs:na|ktp:N0|mc:4161|mtp:S|qry_typ:P|lang:en|wc:2|cs:8780|v=4,Rahini Infotech,https://www.indiamart.com/rahini-infotech/?pos=110&kwd=baby beddings&tags=BA||||8706.263|Price|product|||NA|rsf:gd-|-stype:attr=1|qr_nm:gd|res:RC4|com-cf:nl|ptrs:na|ktp:N0|mc:4161|mtp:S|qry_typ:P|lang:en|wc:2|cs:8780|v=4,False,,Karur,"No.89a Anbu Nagar, Rayanur West, Thanthoni, Karur - 639003, Dist.Karur, Tamil Nadu",8048249780,6909
"Mild Steel Bed Rail Guard For Baby, Polished",https://www.indiamart.com/proddetail/bed-rail-guard-for-baby-2850169843573.html?pos=111&kwd=baby beddings&tags=BA||||8230.883|Price|product|||NA|rsf:gd-|-stype:attr=1|qr_nm:gd|res:RC4|com-cf:nl|ptrs:na|ktp:N0|mc:4161|mtp:S|qry_typ:P|lang:en|wc:2|cs:8780|v=4,A Kapadiya Enterprise,https://www.indiamart.com/akapadiya-enterprise-surat/?pos=111&kwd=baby beddings&tags=BA||||8230.883|Price|product|||NA|rsf:gd-|-stype:attr=1|qr_nm:gd|res:RC4|com-cf:nl|ptrs:na|ktp:N0|mc:4161|mtp:S|qry_typ:P|lang:en|wc:2|cs:8780|v=4,False,,Surat,"Plot No. 64, Ground Floor, Siddhi Vinayak Industrial Estate, At. Kholvad, Surat - 394190, Dist.Surat, Gujarat",7942804130,
Fancy Fluff Premium Baby Bedding,,L&C Homeware,https://www.indiamart.com/lc-homeware/?pos=112&kwd=baby beddings&tags=BB||||9363.783|Price|product|||NA|rsf:gd-|-stype:attr=1|qr_nm:gd|res:RC4|com-cf:nl|ptrs:na|ktp:N0|mc:4161|mtp:S|qry_typ:P|lang:en|wc:2|cs:8780|v=4,False,,Maunath Bhanjan,"Chhitan Pura Maunath Bhanjan, Maunath Bhanjan - 275101, Dist.Mau, Uttar Pradesh",8045849575,609
"Soft Baby Beds, 0-1 Year",https://www.indiamart.com/proddetail/baby-beds-22505160673.html?pos=113&kwd=baby beddings&tags=BA||||8211.142||product|||NA|rsf:gd-|-stype:attr=1|qr_nm:gd|res:RC4|com-cf:nl|ptrs:na|ktp:N0|mc:4161|mtp:S|qry_typ:P|lang:en|wc:2|cs:8780|v=4,Ganesh Fibres,https://www.indiamart.com/ganeshfibres/?pos=113&kwd=baby beddings&tags=BA||||8211.142||product|||NA|rsf:gd-|-stype:attr=1|qr_nm:gd|res:RC4|com-cf:nl|ptrs:na|ktp:N0|mc:4161|mtp:S|qry_typ:P|lang:en|wc:2|cs:8780|v=4,False,Dharavi,Mumbai,"GODOWN NO.2, KALYANWADI DHARAVI MAIN ROAD,ENNA POONAWADI,NR VAIBHAV APARTMENT DHARAVI Dharavi Main Road, Dharavi, Mahim East, Dharavi, Mumbai - 400017, Dist.Mumbai, Maharashtra",8048960434,
"Printed 4 Piece Baby Bedding Set, For Home, Blue (base)",https://www.indiamart.com/proddetail/4-piece-baby-bedding-set-2852118879091.html?pos=114&kwd=baby beddings&tags=BA||||8559.269|Price|product|||NA|rsf:gd-|-stype:attr=1|qr_nm:gd|res:RC4|com-cf:nl|ptrs:na|ktp:N0|mc:4161|mtp:S|qry_typ:P|lang:en|wc:2|cs:8780|v=4,Navkar Traders,https://www.indiamart.com/navkar-tradersindore/?pos=114&kwd=baby beddings&tags=BA||||8559.269|Price|product|||NA|rsf:gd-|-stype:attr=1|qr_nm:gd|res:RC4|com-cf:nl|ptrs:na|ktp:N0|mc:4161|mtp:S|qry_typ:P|lang:en|wc:2|cs:8780|v=4,False,Sukhlia,Indore,"304, Shyam Bhatika Ke Pass, Shyam Nagar,, Sukhlia, Indore - 452010, Dist.Indore, Madhya Pradesh",7942962327,
Cotton Blue Baby Beddings,https://www.indiamart.com/proddetail/baby-beddings-2854710015962.html?pos=115&kwd=baby beddings&tags=BA||||8706.263|Price|product|||NA|rsf:gd-|-stype:attr=1|qr_nm:gd|res:RC4|com-cf:nl|ptrs:na|ktp:N0|mc:4161|mtp:S|qry_typ:P|lang:en|wc:2|cs:8780|v=4,Rahini Infotech,https://www.indiamart.com/rahini-infotech/?pos=115&kwd=baby beddings&tags=BA||||8706.263|Price|product|||NA|rsf:gd-|-stype:attr=1|qr_nm:gd|res:RC4|com-cf:nl|ptrs:na|ktp:N0|mc:4161|mtp:S|qry_typ:P|lang:en|wc:2|cs:8780|v=4,False,,Karur,"No.89a Anbu Nagar, Rayanur West, Thanthoni, Karur - 639003, Dist.Karur, Tamil Nadu",8048249780,6909
Fancy Fluff Premium Baby Bedding,,L&C Homeware,https://www.indiamart.com/lc-homeware/?pos=116&kwd=baby beddings&tags=BB||||9363.783|Price|product|||NA|rsf:gd-|-stype:attr=1|qr_nm:gd|res:RC4|com-cf:nl|ptrs:na|ktp:N0|mc:4161|mtp:S|qry_typ:P|lang:en|wc:2|cs:8780|v=4,False,,Maunath Bhanjan,"Chhitan Pura Maunath Bhanjan, Maunath Bhanjan - 275101, Dist.Mau, Uttar Pradesh",8045849575,609
Printed Crib Sheet,https://www.indiamart.com/proddetail/printed-crib-sheet-6690663873.html?pos=117&kwd=baby beddings&tags=BB||||9839.57||product|||NA|rsf:gd-|-stype:attr=1|qr_nm:gd|res:RC4|com-cf:nl|ptrs:na|ktp:N0|mc:4161|mtp:S|qry_typ:P|lang:en|wc:2|cs:8780|v=4,Idea Marketing,https://www.indiamart.com/idea-marketing/?pos=117&kwd=baby beddings&tags=BB||||9839.57||product|||NA|rsf:gd-|-stype:attr=1|qr_nm:gd|res:RC4|com-cf:nl|ptrs:na|ktp:N0|mc:4161|mtp:S|qry_typ:P|lang:en|wc:2|cs:8780|v=4,False,,Kolkata,"G. P. O. Box- 695, Kolkata - 700001, Dist.Kolkata, West Bengal",8069033786,320
"Cotton Printed Newborn Baby Bed With Net, 1 To 9 Months",https://www.indiamart.com/proddetail/newborn-baby-bed-with-net-25399327473.html?pos=118&kwd=baby beddings&tags=BB||||8669.942|Price|product|||NA|rsf:gd-|-stype:attr=1|qr_nm:gd|res:RC4|com-cf:nl|ptrs:na|ktp:N0|mc:4161|mtp:S|qry_typ:P|lang:en|wc:2|cs:8780|v=4,Stars,https://www.indiamart.com/stars-sivakasi/?pos=118&kwd=baby beddings&tags=BB||||8669.942|Price|product|||NA|rsf:gd-|-stype:attr=1|qr_nm:gd|res:RC4|com-cf:nl|ptrs:na|ktp:N0|mc:4161|mtp:S|qry_typ:P|lang:en|wc:2|cs:8780|v=4,False,,Sivakasi,"61 n.g.o colony, Sivakasi - 626124, Dist.Virudhunagar, Tamil Nadu",8069707359,469
new born baby bed,,K K Kids Wear,https://www.indiamart.com/kkkidswear/?pos=119&kwd=baby beddings&tags=BA||||8275.613||product|||NA|rsf:gd-|-stype:attr=1|qr_nm:gd|res:RC4|com-cf:nl|ptrs:na|ktp:N0|mc:4161|mtp:S|qry_typ:P|lang:en|wc:2|cs:8780|v=4,False,Near Ram Temple,Mapusa,"H NO 18/5,,RAM NAGAR,COLVALE H No 18/5, Ram Nagar, Colvale, North Goa,403513,Mapusa, Near Ram Temple, Mapusa - 403502, Dist.North Goa, Goa",8047835522,
Baby Bed Set,,Snugglers Babycare Products LLP,https://www.indiamart.com/snugglers-babycare-products-llp/?pos=120&kwd=baby beddings&tags=BB||||8211.142||product|||NA|rsf:gd-|-stype:attr=1|qr_nm:gd|res:RC4|com-cf:nl|ptrs:na|ktp:N0|mc:4161|mtp:S|qry_typ:P|lang:en|wc:2|cs:8780|v=4,False,,Mumbai,"1st Floor Flat No.f 102 Kondivita Midc, Andheri East Sterling Court, Mumbai - 400059, Dist.Mumbai, Maharashtra",8048372529,523
Cotton baby bed with bedsheet & blanket,,Syed Yousuf,https://www.indiamart.com/syed-yousuf/?pos=121&kwd=baby beddings&tags=BA||||8963.853|Price|product|||NA|rsf:gd-|-stype:attr=1|qr_nm:gd|res:RC4|com-cf:nl|ptrs:na|ktp:N0|mc:4161|mtp:S|qry_typ:P|lang:en|wc:2|cs:8780|v=4,False,Shalibanda,Dornakal,"2-55, Main Road,, Shalibanda, Dornakal - 506381, Dist.Mahabubabad, Telangana",8047308765,9646
"Cotyon Born baby bedding rajwadi, For Home",https://www.indiamart.com/proddetail/born-baby-bedding-rajwadi-2850352791712.html?pos=122&kwd=baby beddings&tags=BB||||7991.571|Price|product|||NA|rsf:gd-|-stype:attr=1|qr_nm:gd|res:RC4|com-cf:nl|ptrs:na|ktp:N0|mc:4161|mtp:S|qry_typ:P|lang:en|wc:2|cs:8780|v=4,Natkhat Enterprise,https://www.indiamart.com/natkhatenterprise/?pos=122&kwd=baby beddings&tags=BB||||7991.571|Price|product|||NA|rsf:gd-|-stype:attr=1|qr_nm:gd|res:RC4|com-cf:nl|ptrs:na|ktp:N0|mc:4161|mtp:S|qry_typ:P|lang:en|wc:2|cs:8780|v=4,False,Mangnath Road,Junagadh,"Tribhuvan Complex, First Floor Shop 1 -2, Mangnath Road, Junagadh - 362001, Dist.Junagadh, Gujarat",8043851522,
"Printed Velvet Purple Baby Bedding, 1.2Kg, 2 Years",https://www.indiamart.com/proddetail/velvet-purple-baby-bedding-2850470995188.html?pos=123&kwd=baby beddings&tags=BB||||8736.878|Price|product|||NA|rsf:gd-|-stype:attr=1|qr_nm:gd|res:RC4|com-cf:nl|ptrs:na|ktp:N0|mc:4161|mtp:S|qry_typ:P|lang:en|wc:2|cs:8780|v=4,Just Magic The Home Store,https://www.indiamart.com/justmagic-the-homestore/?pos=123&kwd=baby beddings&tags=BB||||8736.878|Price|product|||NA|rsf:gd-|-stype:attr=1|qr_nm:gd|res:RC4|com-cf:nl|ptrs:na|ktp:N0|mc:4161|mtp:S|qry_typ:P|lang:en|wc:2|cs:8780|v=4,False,Kolar,Robertsonpet,"00, Avenue Road,, Kolar, Robertsonpet - 563122, Dist.Kolar, Karnataka",7942823571,
"Cotton Multiple,Mix New Born Baby Bedding, 390 Gm, Infant,Baby",https://www.indiamart.com/proddetail/new-born-baby-bedding-2850561921348.html?pos=124&kwd=baby beddings&tags=BB||||8228.275||product|||NA|rsf:gd-|-stype:attr=1|qr_nm:gd|res:RC4|com-cf:nl|ptrs:na|ktp:N0|mc:4161|mtp:S|qry_typ:P|lang:en|wc:2|cs:8780|v=4,Vinayak Enterprise,https://www.indiamart.com/vinayakenterprise-186905971/?pos=124&kwd=baby beddings&tags=BB||||8228.275||product|||NA|rsf:gd-|-stype:attr=1|qr_nm:gd|res:RC4|com-cf:nl|ptrs:na|ktp:N0|mc:4161|mtp:S|qry_typ:P|lang:en|wc:2|cs:8780|v=4,False,,Ahmedabad,"B/4 Bus Stand Isanpur Road Shrijivan L I C Staff Co Op H Soc Ltd, Ahmedabad - 382443, Dist.Ahmedabad, Gujarat",8069264810,400
"pink Printed Bedding Set Cotton 1 Bed 1 Pillow 2 Pillow 4 Pcs (0-3 Years), For Home",https://www.indiamart.com/proddetail/bedding-set-cotton-1-bed-1-pillow-2-pillow-4-pcs-0-3-years-25832228191.html?pos=125&kwd=baby beddings&tags=BB||||8230.883|Price|product|||NA|rsf:gd-|-stype:attr=1|qr_nm:gd|res:RC4|com-cf:nl|ptrs:na|ktp:N0|mc:4161|mtp:S|qry_typ:P|lang:en|wc:2|cs:8780|v=4,Pramukh Steel,https://www.indiamart.com/pramukh-steel-surat/?pos=125&kwd=baby beddings&tags=BB||||8230.883|Price|product|||NA|rsf:gd-|-stype:attr=1|qr_nm:gd|res:RC4|com-cf:nl|ptrs:na|ktp:N0|mc:4161|mtp:S|qry_typ:P|lang:en|wc:2|cs:8780|v=4,False,,Surat,"27, Gunjan Park, Laxmi Vadi, Atodra Chokdi, Olpad, Surat - 394540, Dist.Surat, Gujarat",8047655035,
ellavampanchu bed,,Vellureperumal Silk Cotton,https://www.indiamart.com/vellureperumal-silk-cotton/?pos=126&kwd=baby beddings&tags=BB||||8665.558||product|||NA|rsf:gd-|-stype:attr=1|qr_nm:gd|res:RC4|com-cf:nl|ptrs:na|ktp:N0|mc:4161|mtp:S|qry_typ:P|lang:en|wc:2|cs:8780|v=4,False,,Bhavani,"4/6 Murugan Kovil Street, Kuppichipalayam, Bhavani - 638314, Dist.Erode, Tamil Nadu",8045849681,414
Ees Ees Cotton Baby Fancy Carry Bed,https://www.indiamart.com/proddetail/baby-fancy-carry-bed-22925823191.html?pos=127&kwd=baby beddings&tags=BA||||8706.263|Price|product|||NA|rsf:gd-|-stype:attr=1|qr_nm:gd|res:RC4|com-cf:nl|ptrs:na|ktp:N0|mc:4161|mtp:S|qry_typ:P|lang:en|wc:2|cs:8780|v=4,K. Saravanan Prop Ees Ees Agencies,https://www.indiamart.com/k-saravananprop-eesees-agencies/?pos=127&kwd=baby beddings&tags=BA||||8706.263|Price|product|||NA|rsf:gd-|-stype:attr=1|qr_nm:gd|res:RC4|com-cf:nl|ptrs:na|ktp:N0|mc:4161|mtp:S|qry_typ:P|lang:en|wc:2|cs:8780|v=4,False,KARUR,Karur,"KUMARAPALAYAM PUDHUR VELLIYANAI NORTH, KARUR, Karur - 639118, Dist.Karur, Tamil Nadu",7942665369,
"Cotton Printed Play Gym Baby Bed, 3 kg, 1 Year",https://www.indiamart.com/proddetail/play-gym-baby-bed-25635609162.html?pos=128&kwd=baby beddings&tags=BB||||8747.203|Price|product|||NA|rsf:gd-|-stype:attr=1|qr_nm:gd|res:RC4|com-cf:nl|ptrs:na|ktp:N0|mc:4161|mtp:S|qry_typ:P|lang:en|wc:2|cs:8780|v=4,Online Vonline,https://www.indiamart.com/online-vonline/?pos=128&kwd=baby beddings&tags=BB||||8747.203|Price|product|||NA|rsf:gd-|-stype:attr=1|qr_nm:gd|res:RC4|com-cf:nl|ptrs:na|ktp:N0|mc:4161|mtp:S|qry_typ:P|lang:en|wc:2|cs:8780|v=4,False,rajeev colony,Panipat,"1643/11, Street No.6 opp. g.n vidya mandir school, rajeev colony, Panipat - 132103, Dist.Panipat, Haryana",8047655064,
Cotton Printed Multicolor New Born Baby Bed,https://www.indiamart.com/proddetail/multicolor-new-born-baby-bed-2849766573948.html?pos=129&kwd=baby beddings&tags=BA||||8752.144|Price|product|||NA|rsf:gd-|-stype:attr=1|qr_nm:gd|res:RC4|com-cf:nl|ptrs:na|ktp:N0|mc:4161|mtp:S|qry_typ:P|lang:en|wc:2|cs:8780|v=4,Pramila Collection,https://www.indiamart.com/pramila-collection/?pos=129&kwd=baby beddings&tags=BA||||8752.144|Price|product|||NA|rsf:gd-|-stype:attr=1|qr_nm:gd|res:RC4|com-cf:nl|ptrs:na|ktp:N0|mc:4161|mtp:S|qry_typ:P|lang:en|wc:2|cs:8780|v=4,False,,New Delhi,"Ground Floor, H.NO-30 KH.No-55/24, BLK B-1, Budh Vihar, Village Pooth Kalan PH-2,North West Delhi, New Delhi - 110086, Dist.Delhi, Delhi",7942715711,
"PRINTED BABY CARRY NEST / BABY SLEEPING BED / BABY CARRY BED, Newly Born",https://www.indiamart.com/proddetail/baby-carry-nest-baby-sleeping-bed-baby-carry-bed-26665246297.html?pos=130&kwd=baby beddings&tags=BB||||8236.946|Price|product|||NA|rsf:gd-|-stype:attr=1|qr_nm:gd|res:RC4|com-cf:nl|ptrs:na|ktp:N0|mc:4161|mtp:S|qry_typ:P|lang:en|wc:2|cs:8780|v=4,Pranita Textile,https://www.indiamart.com/pranita-textile/?pos=130&kwd=baby beddings&tags=BB||||8236.946|Price|product|||NA|rsf:gd-|-stype:attr=1|qr_nm:gd|res:RC4|com-cf:nl|ptrs:na|ktp:N0|mc:4161|mtp:S|qry_typ:P|lang:en|wc:2|cs:8780|v=4,False,,Raigad,"Unit No 206, 2nd Fioor, Silver Springs, Taloja Midc, Taloja Panchanand, Raigad., Raigad - 410208, Maharashtra",8043855238,
Cotton White Baby bedding set,https://www.indiamart.com/proddetail/baby-bedding-set-26004027062.html?pos=131&kwd=baby beddings&tags=BB||||8255.478||product|||NA|rsf:gd-|-stype:attr=1|qr_nm:gd|res:RC4|com-cf:nl|ptrs:na|ktp:N0|mc:4161|mtp:S|qry_typ:P|lang:en|wc:2|cs:8780|v=4,Vihan Creation,https://www.indiamart.com/vihan-creation-ankleshwar/?pos=131&kwd=baby beddings&tags=BB||||8255.478||product|||NA|rsf:gd-|-stype:attr=1|qr_nm:gd|res:RC4|com-cf:nl|ptrs:na|ktp:N0|mc:4161|mtp:S|qry_typ:P|lang:en|wc:2|cs:8780|v=4,False,jaldhara chokdi,Ankleshwar,"shahaj complex treet gopal derry, jaldhara chokdi, Ankleshwar - 395010, Dist.Bharuch, Gujarat",8069033737,287
"Cotton Printed Soft Baby Carry Bed, 300g",https://www.indiamart.com/proddetail/soft-baby-carry-bed-25111308733.html?pos=132&kwd=baby beddings&tags=BB||||8038.093|Price|product|||NA|rsf:gd-|-stype:attr=1|qr_nm:gd|res:RC4|com-cf:nl|ptrs:na|ktp:N0|mc:4161|mtp:S|qry_typ:P|lang:en|wc:2|cs:8780|v=4,Fabric Master,https://www.indiamart.com/fabric-master-rajkot/?pos=132&kwd=baby beddings&tags=BB||||8038.093|Price|product|||NA|rsf:gd-|-stype:attr=1|qr_nm:gd|res:RC4|com-cf:nl|ptrs:na|ktp:N0|mc:4161|mtp:S|qry_typ:P|lang:en|wc:2|cs:8780|v=4,False,,Rajkot,"Ankur Nana Mava Road, 117 Radha Nagar, Rajkot - 360004, Dist.Rajkot, Gujarat",8047301139,
"Cotton Nursery Pattern Baby Bedding, 0 -2 Year",https://www.indiamart.com/proddetail/baby-bedding-23512142148.html?pos=133&kwd=baby beddings&tags=BB||||8457.459|Price|product|||NA|rsf:gd-|-stype:attr=1|qr_nm:gd|res:RC4|com-cf:nl|ptrs:na|ktp:N0|mc:4161|mtp:S|qry_typ:P|lang:en|wc:2|cs:8780|v=4,Knead Your Dream,https://www.indiamart.com/knead-your-dream/?pos=133&kwd=baby beddings&tags=BB||||8457.459|Price|product|||NA|rsf:gd-|-stype:attr=1|qr_nm:gd|res:RC4|com-cf:nl|ptrs:na|ktp:N0|mc:4161|mtp:S|qry_typ:P|lang:en|wc:2|cs:8780|v=4,False,Kakkur,Kozhikode,"586 Kakkur Kakkuparambath Chelannur, Kakkur, Kozhikode - 673613, Dist.Kozhikode, Kerala",8043885486,
BABY LAUNCHER,https://www.indiamart.com/proddetail/baby-launcher-2850232684562.html?pos=134&kwd=baby beddings&tags=BA||||8706.263||product|||NA|rsf:gd-|-stype:attr=1|qr_nm:gd|res:RC4|com-cf:nl|ptrs:na|ktp:N0|mc:4161|mtp:S|qry_typ:P|lang:en|wc:2|cs:8780|v=4,Aarthia Impex,https://www.indiamart.com/aathia-impex/?pos=134&kwd=baby beddings&tags=BA||||8706.263||product|||NA|rsf:gd-|-stype:attr=1|qr_nm:gd|res:RC4|com-cf:nl|ptrs:na|ktp:N0|mc:4161|mtp:S|qry_typ:P|lang:en|wc:2|cs:8780|v=4,False,Vivekananda Nagar,Karur,",6-A,,VIVEKANANDHA NAGAR,SENGUNTHAPURAM 11TH CROSS,, Vivekananda Nagar, Karur - 639002, Dist.Karur, Tamil Nadu",8069013454,970
Cotton Printed Baby Bedding With Apron,https://www.indiamart.com/proddetail/baby-bedding-with-apron-8861717373.html?pos=135&kwd=baby beddings&tags=BB||||8774.064|Price|product|||NA|rsf:gd-|-stype:attr=1|qr_nm:gd|res:RC4|com-cf:nl|ptrs:na|ktp:N0|mc:4161|mtp:S|qry_typ:P|lang:en|wc:2|cs:8780|v=4,Sree Alagar Enterprises,https://www.indiamart.com/sreealagarenterprises/?pos=135&kwd=baby beddings&tags=BB||||8774.064|Price|product|||NA|rsf:gd-|-stype:attr=1|qr_nm:gd|res:RC4|com-cf:nl|ptrs:na|ktp:N0|mc:4161|mtp:S|qry_typ:P|lang:en|wc:2|cs:8780|v=4,False,,Tiruchirappalli,"No 7, Professer Colony, Subramaniyapuram ., Tiruchirappalli - 620020, Dist.Tiruchirappalli, Tamil Nadu",8046044233,
Baby Tub Bed With 3 Pillow ( Pink And Red ).,https://www.indiamart.com/proddetail/baby-tub-bed-with-3-pillow-pink-and-red-2853102830662.html?pos=136&kwd=baby beddings&tags=BA||||8032.138|Price|product|||NA|rsf:gd-|-stype:attr=1|qr_nm:gd|res:RC4|com-cf:nl|ptrs:na|ktp:N0|mc:4161|mtp:S|qry_typ:P|lang:en|wc:2|cs:8780|v=4,Pankhulit Enterprise,https://www.indiamart.com/pankhulit-enterprise/?pos=136&kwd=baby beddings&tags=BA||||8032.138|Price|product|||NA|rsf:gd-|-stype:attr=1|qr_nm:gd|res:RC4|com-cf:nl|ptrs:na|ktp:N0|mc:4161|mtp:S|qry_typ:P|lang:en|wc:2|cs:8780|v=4,False,,Gondal,"Ground Floor Shop No 3 Railway Station Road Rameshwar Residency, Gondal - 360311, Dist.Rajkot, Gujarat",8069707353,965
Blue E1 Mild Steel Hospital Baby Cot,https://www.indiamart.com/proddetail/e1-mild-steel-hospital-baby-cot-2850417813973.html?pos=137&kwd=baby beddings&tags=BB||||8752.144||product|||NA|rsf:gd-|-stype:attr=1|qr_nm:gd|res:RC4|com-cf:nl|ptrs:na|ktp:N0|mc:4161|mtp:S|qry_typ:P|lang:en|wc:2|cs:8780|v=4,Nishad Cycle Industries,https://www.indiamart.com/nishadcycleindustries/?pos=137&kwd=baby beddings&tags=BB||||8752.144||product|||NA|rsf:gd-|-stype:attr=1|qr_nm:gd|res:RC4|com-cf:nl|ptrs:na|ktp:N0|mc:4161|mtp:S|qry_typ:P|lang:en|wc:2|cs:8780|v=4,False,,New Delhi,"H.No.-166, PKT-C, Sec-4, DSIDC, Bawana, New Delhi - 110039, Dist.Delhi, Delhi",7942821632,
"Cotton Printed BABY BEDS, 600 Gram, 0-2",https://www.indiamart.com/proddetail/baby-beds-26011406848.html?pos=138&kwd=baby beddings&tags=BB||||8706.263|Price|product|||NA|rsf:gd-|-stype:attr=1|qr_nm:gd|res:RC4|com-cf:nl|ptrs:na|ktp:N0|mc:4161|mtp:S|qry_typ:P|lang:en|wc:2|cs:8780|v=4,Sayo Fabrics,https://www.indiamart.com/sayo-fabrics/?pos=138&kwd=baby beddings&tags=BB||||8706.263|Price|product|||NA|rsf:gd-|-stype:attr=1|qr_nm:gd|res:RC4|com-cf:nl|ptrs:na|ktp:N0|mc:4161|mtp:S|qry_typ:P|lang:en|wc:2|cs:8780|v=4,False,Kamarajapuram,Karur,"42, Periyar Nagar East, Inam Karur, Kamarajapuram, Karur - 639002, Dist.Karur, Tamil Nadu",8047619671,
Baby Carry Bed,https://www.indiamart.com/proddetail/baby-carry-bed-16357403112.html?pos=139&kwd=baby beddings&tags=BB||||8211.142|Price|product|||NA|rsf:gd-|-stype:attr=1|qr_nm:gd|res:RC4|com-cf:nl|ptrs:na|ktp:N0|mc:4161|mtp:S|qry_typ:P|lang:en|wc:2|cs:8780|v=4,Baby World,https://www.indiamart.com/babyworld/?pos=139&kwd=baby beddings&tags=BB||||8211.142|Price|product|||NA|rsf:gd-|-stype:attr=1|qr_nm:gd|res:RC4|com-cf:nl|ptrs:na|ktp:N0|mc:4161|mtp:S|qry_typ:P|lang:en|wc:2|cs:8780|v=4,False,Masjid Bandar,Mumbai,"12, Gorund Floor, Fatimabai Building, Dharamashala Street, Umerkhadi, Chinchbunder, Masjid Bandar, Mumbai - 400009, Dist.Mumbai, Maharashtra",7942539685,
100u Pure Silk Cotton Baby Bed,https://www.indiamart.com/proddetail/baby-bed-24190349197.html?pos=140&kwd=baby beddings&tags=BA||||8588.545|Price|product|||NA|rsf:gd-|-stype:attr=1|qr_nm:gd|res:RC4|com-cf:nl|ptrs:na|ktp:N0|mc:4161|mtp:S|qry_typ:P|lang:en|wc:2|cs:8780|v=4,VI-Enterprises,https://www.indiamart.com/vienterprisestiruppur/?pos=140&kwd=baby beddings&tags=BA||||8588.545|Price|product|||NA|rsf:gd-|-stype:attr=1|qr_nm:gd|res:RC4|com-cf:nl|ptrs:na|ktp:N0|mc:4161|mtp:S|qry_typ:P|lang:en|wc:2|cs:8780|v=4,False,Udumalpet (TK),Pollachi,"6/158 A. Ammapatti Post Mounagurusamy Udumalpet Taluk Tiruppur, Udumalpet (TK), Pollachi - 642205, Dist.Coimbatore, Tamil Nadu",8048617483,
"Mumma Mall Cotton Grey Baby Bedding Set, For Home, Size/Dimension: 39x39x5 Inches",https://www.indiamart.com/proddetail/grey-baby-bedding-set-2849671526673.html?pos=141&kwd=baby beddings&tags=BB||||8032.138||product|||NA|rsf:gd-|-stype:attr=1|qr_nm:gd|res:RC4|com-cf:nl|ptrs:na|ktp:N0|mc:4161|mtp:S|qry_typ:P|lang:en|wc:2|cs:8780|v=4,Ambition Of Creativity,https://www.indiamart.com/ambitionofcreativitygondal/?pos=141&kwd=baby beddings&tags=BB||||8032.138||product|||NA|rsf:gd-|-stype:attr=1|qr_nm:gd|res:RC4|com-cf:nl|ptrs:na|ktp:N0|mc:4161|mtp:S|qry_typ:P|lang:en|wc:2|cs:8780|v=4,False,Rajkot,Gondal,"Raiyaraj, Chokshi Nagar, Umvada Road,, Rajkot, Gondal - 360311, Dist.Rajkot, Gujarat",7942791225,
Cotton 66 X 5 X 30 Cm Printed Baby Carry Bed,https://www.indiamart.com/proddetail/printed-baby-carry-bed-22684966388.html?pos=142&kwd=baby beddings&tags=BB||||8211.142|Price|product|||NA|rsf:gd-|-stype:attr=1|qr_nm:gd|res:RC4|com-cf:nl|ptrs:na|ktp:N0|mc:4161|mtp:S|qry_typ:P|lang:en|wc:2|cs:8780|v=4,S.A.Garment,https://www.indiamart.com/sagarment/?pos=142&kwd=baby beddings&tags=BB||||8211.142|Price|product|||NA|rsf:gd-|-stype:attr=1|qr_nm:gd|res:RC4|com-cf:nl|ptrs:na|ktp:N0|mc:4161|mtp:S|qry_typ:P|lang:en|wc:2|cs:8780|v=4,False,,Mumbai,"Floor-grd A/1-123 Mahatma Gandhi Road, Dharavi Social Nagar, Laxmi Baug, Mumbai - 400017, Dist.Mumbai, Maharashtra",8043805988,
"Cotton,Polyester Plain Baby Bedding, 500 Gram, 1 Year",https://www.indiamart.com/proddetail/plain-baby-bedding-22821330788.html?pos=143&kwd=baby beddings&tags=BB||||8488.448|Price|product|||NA|rsf:gd-|-stype:attr=1|qr_nm:gd|res:RC4|com-cf:nl|ptrs:na|ktp:N0|mc:4161|mtp:S|qry_typ:P|lang:en|wc:2|cs:8780|v=4,Akbartraders,https://www.indiamart.com/akbar-traders-malappuram/?pos=143&kwd=baby beddings&tags=BB||||8488.448|Price|product|||NA|rsf:gd-|-stype:attr=1|qr_nm:gd|res:RC4|com-cf:nl|ptrs:na|ktp:N0|mc:4161|mtp:S|qry_typ:P|lang:en|wc:2|cs:8780|v=4,False,Thiruvananthapuram,Malappuram,"786, Akbar tradesh Anthiyur, Thiruvananthapuram, Malappuram - 679338, Dist.Malappuram, Kerala",8069033807,832
Newborn Baby Bedding Set,https://www.indiamart.com/proddetail/newborn-baby-bedding-set-22597331155.html?pos=144&kwd=baby beddings&tags=BB||||8752.144|Price|product|||NA|rsf:gd-|-stype:attr=1|qr_nm:gd|res:RC4|com-cf:nl|ptrs:na|ktp:N0|mc:4161|mtp:S|qry_typ:P|lang:en|wc:2|cs:8780|v=4,Ekanthika Enterprises,https://www.indiamart.com/ekanthika-enterprises/?pos=144&kwd=baby beddings&tags=BB||||8752.144|Price|product|||NA|rsf:gd-|-stype:attr=1|qr_nm:gd|res:RC4|com-cf:nl|ptrs:na|ktp:N0|mc:4161|mtp:S|qry_typ:P|lang:en|wc:2|cs:8780|v=4,False,North West Delhi,New Delhi,"C-51/B, S No. 21, Second Floor, Khasra No. 214/2 Sector 07, North West Delhi, New Delhi - 110085, Dist.Delhi, Delhi",8048371865,554
"Cotton Newborn Baby Bedding, Newly Born",https://www.indiamart.com/proddetail/cotton-newborn-baby-bedding-22610117433.html?pos=145&kwd=baby beddings&tags=BB||||8211.142|Price|product|||NA|rsf:gd-|-stype:attr=1|qr_nm:gd|res:RC4|com-cf:nl|ptrs:na|ktp:N0|mc:4161|mtp:S|qry_typ:P|lang:en|wc:2|cs:8780|v=4,Richa Traders,https://www.indiamart.com/richatraders-maharashtra/?pos=145&kwd=baby beddings&tags=BB||||8211.142|Price|product|||NA|rsf:gd-|-stype:attr=1|qr_nm:gd|res:RC4|com-cf:nl|ptrs:na|ktp:N0|mc:4161|mtp:S|qry_typ:P|lang:en|wc:2|cs:8780|v=4,False,Dadar West,Mumbai,"20, Pearl Centre, Zarapkar Building Senapati Bapat Marg,, Dadar West, Mumbai - 400028, Dist.Mumbai, Maharashtra",8048961097,
"Bed Baby Printed Bedding, Size/Dimension: Small",https://www.indiamart.com/proddetail/baby-printed-bedding-20661804391.html?pos=146&kwd=baby beddings&tags=BB||||8559.269||product|||NA|rsf:gd-|-stype:attr=1|qr_nm:gd|res:RC4|com-cf:nl|ptrs:na|ktp:N0|mc:4161|mtp:S|qry_typ:P|lang:en|wc:2|cs:8780|v=4,Jainam Toys & Gift Center,https://www.indiamart.com/jainamtoysgiftcenter/?pos=146&kwd=baby beddings&tags=BB||||8559.269||product|||NA|rsf:gd-|-stype:attr=1|qr_nm:gd|res:RC4|com-cf:nl|ptrs:na|ktp:N0|mc:4161|mtp:S|qry_typ:P|lang:en|wc:2|cs:8780|v=4,False,Indore GPO,Indore,"36, Sikh Mohalla, Main Road, Aditya Villa Basement, Indore GPO, Indore - 452001, Dist.Indore, Madhya Pradesh",8043833004,
"yellow Round baby Bed sets, For Home",https://www.indiamart.com/proddetail/round-baby-bed-sets-22902076362.html?pos=147&kwd=baby beddings&tags=BA||||8032.138|Price|product|||NA|rsf:gd-|-stype:attr=1|qr_nm:gd|res:RC4|com-cf:nl|ptrs:na|ktp:N0|mc:4161|mtp:S|qry_typ:P|lang:en|wc:2|cs:8780|v=4,S.K.Traders,https://www.indiamart.com/sk-traders-gondal/?pos=147&kwd=baby beddings&tags=BA||||8032.138|Price|product|||NA|rsf:gd-|-stype:attr=1|qr_nm:gd|res:RC4|com-cf:nl|ptrs:na|ktp:N0|mc:4161|mtp:S|qry_typ:P|lang:en|wc:2|cs:8780|v=4,False,Bhvnath,Gondal,",-,Bhavnath Nagar-2, Street No-4, Near Angan,S.K.Traders,Gondal,,Rajkot, Bhvnath, Gondal - 360311, Dist.Rajkot, Gujarat",8047831529,
"Rectangular Infant White Printed Godadi Set, Cotton",https://www.indiamart.com/proddetail/infant-white-printed-godadi-set-2854718948362.html?pos=148&kwd=baby beddings&tags=BA||||8228.275|Price|product|||NA|rsf:gd-|-stype:attr=1|qr_nm:gd|res:RC4|com-cf:nl|ptrs:na|ktp:N0|mc:4161|mtp:S|qry_typ:P|lang:en|wc:2|cs:8780|v=4,Shishu Apparels,https://www.indiamart.com/shishu-apparels/?pos=148&kwd=baby beddings&tags=BA||||8228.275|Price|product|||NA|rsf:gd-|-stype:attr=1|qr_nm:gd|res:RC4|com-cf:nl|ptrs:na|ktp:N0|mc:4161|mtp:S|qry_typ:P|lang:en|wc:2|cs:8780|v=4,False,,Ahmedabad,"62, Laxmi Vishnu Market, Gheekanta Road, Ghee Kanta, Ahmedabad - 380001, Dist.Ahmedabad, Gujarat",7949322683,
"PRINTED BABY CARRY NEST / BABY SLEEPING BED / BABY CARRY BED, Newly Born",https://www.indiamart.com/proddetail/baby-carry-nest-baby-sleeping-bed-baby-carry-bed-26665246297.html?pos=149&kwd=baby beddings&tags=BB||||8236.946|Price|product|||NA|rsf:gd-|-stype:attr=1|qr_nm:gd|res:RC4|com-cf:nl|ptrs:na|ktp:N0|mc:4161|mtp:S|qry_typ:P|lang:en|wc:2|cs:8780|v=4,Pranita Textile,https://www.indiamart.com/pranita-textile/?pos=149&kwd=baby beddings&tags=BB||||8236.946|Price|product|||NA|rsf:gd-|-stype:attr=1|qr_nm:gd|res:RC4|com-cf:nl|ptrs:na|ktp:N0|mc:4161|mtp:S|qry_typ:P|lang:en|wc:2|cs:8780|v=4,False,,Raigad,"Unit No 206, 2nd Fioor, Silver Springs, Taloja Midc, Taloja Panchanand, Raigad., Raigad - 410208, Maharashtra",8043855238,
Baby Bed Set,,Snugglers Babycare Products LLP,https://www.indiamart.com/snugglers-babycare-products-llp/?pos=150&kwd=baby beddings&tags=BB||||8211.142||product|||NA|rsf:gd-|-stype:attr=1|qr_nm:gd|res:RC4|com-cf:nl|ptrs:na|ktp:N0|mc:4161|mtp:S|qry_typ:P|lang:en|wc:2|cs:8780|v=4,False,,Mumbai,"1st Floor Flat No.f 102 Kondivita Midc, Andheri East Sterling Court, Mumbai - 400059, Dist.Mumbai, Maharashtra",8048372529,523
Rectangular Green Baby Bedding Set,https://www.indiamart.com/proddetail/green-baby-bedding-set-2853142093355.html?pos=151&kwd=baby beddings&tags=BA||||8752.144|Price|product|||NA|rsf:gd-|-stype:attr=1|qr_nm:gd|res:RC4|com-cf:nl|ptrs:na|ktp:N0|mc:4161|mtp:S|qry_typ:P|lang:en|wc:2|cs:8780|v=4,A.K Creation,https://www.indiamart.com/akcreation-new-delhi/?pos=151&kwd=baby beddings&tags=BA||||8752.144|Price|product|||NA|rsf:gd-|-stype:attr=1|qr_nm:gd|res:RC4|com-cf:nl|ptrs:na|ktp:N0|mc:4161|mtp:S|qry_typ:P|lang:en|wc:2|cs:8780|v=4,False,Laxmi Nagar,New Delhi,"Basement, R-103/2, Ramesh Park, Laxmi Nagar, East, Laxmi Nagar, New Delhi - 110092, Dist.Delhi, Delhi",7949086474,
Soft Pure cotton baby sleeping mat,https://www.indiamart.com/proddetail/soft-pure-cotton-baby-sleeping-mat-2852486916648.html?pos=152&kwd=baby beddings&tags=BA||||9363.783|Price|product|||NA|rsf:gd-|-stype:attr=1|qr_nm:gd|res:RC4|com-cf:nl|ptrs:na|ktp:N0|mc:4161|mtp:S|qry_typ:P|lang:en|wc:2|cs:8780|v=4,Chennai Clothing Store,https://www.indiamart.com/chennai-clothing-store/?pos=152&kwd=baby beddings&tags=BA||||9363.783|Price|product|||NA|rsf:gd-|-stype:attr=1|qr_nm:gd|res:RC4|com-cf:nl|ptrs:na|ktp:N0|mc:4161|mtp:S|qry_typ:P|lang:en|wc:2|cs:8780|v=4,False,Azeemabad,Maunath Bhanjan,"170/8-k - Mau mirzahadipura, Azeemabad, Maunath Bhanjan - 275101, Dist.Mau, Uttar Pradesh",8047308777,2164
"Cotton Baby Carry Bed, Born Babies",https://www.indiamart.com/proddetail/baby-carry-bed-2849037948488.html?pos=153&kwd=baby beddings&tags=BA||||8954.051|Price|product|||NA|rsf:gd-|-stype:attr=1|qr_nm:gd|res:RC4|com-cf:nl|ptrs:na|ktp:N0|mc:4161|mtp:S|qry_typ:P|lang:en|wc:2|cs:8780|v=4,Kit Kat Marketing,https://www.indiamart.com/kit-kat-marketingchennai/?pos=153&kwd=baby beddings&tags=BA||||8954.051|Price|product|||NA|rsf:gd-|-stype:attr=1|qr_nm:gd|res:RC4|com-cf:nl|ptrs:na|ktp:N0|mc:4161|mtp:S|qry_typ:P|lang:en|wc:2|cs:8780|v=4,False,,Chennai,"1st Floor 226 409 Apparao Gardens Road, Chennai - 600112, Dist.Chennai, Tamil Nadu",8047531671,
"Cotton Printed Soft Baby Carry Bed, 300g",https://www.indiamart.com/proddetail/soft-baby-carry-bed-25111308733.html?pos=154&kwd=baby beddings&tags=BB||||8038.093|Price|product|||NA|rsf:gd-|-stype:attr=1|qr_nm:gd|res:RC4|com-cf:nl|ptrs:na|ktp:N0|mc:4161|mtp:S|qry_typ:P|lang:en|wc:2|cs:8780|v=4,Fabric Master,https://www.indiamart.com/fabric-master-rajkot/?pos=154&kwd=baby beddings&tags=BB||||8038.093|Price|product|||NA|rsf:gd-|-stype:attr=1|qr_nm:gd|res:RC4|com-cf:nl|ptrs:na|ktp:N0|mc:4161|mtp:S|qry_typ:P|lang:en|wc:2|cs:8780|v=4,False,,Rajkot,"Ankur Nana Mava Road, 117 Radha Nagar, Rajkot - 360004, Dist.Rajkot, Gujarat",8047301139,
"160x50 cm Cross Zipper Baby Carry Bed, 3-12 Months",https://www.indiamart.com/proddetail/160x50-cm-cross-zipper-baby-carry-bed-2850659021088.html?pos=161&kwd=baby beddings&tags=BB||||8954.051|Price|product|||NA|rsf:gd-|-stype:attr=1|qr_nm:gd|res:RC4|com-cf:nl|ptrs:na|ktp:N0|mc:4161|mtp:S|qry_typ:P|lang:en|wc:2|cs:8780|v=4,Baby Doll Traders,https://www.indiamart.com/baby-doll-traders/?pos=161&kwd=baby beddings&tags=BB||||8954.051|Price|product|||NA|rsf:gd-|-stype:attr=1|qr_nm:gd|res:RC4|com-cf:nl|ptrs:na|ktp:N0|mc:4161|mtp:S|qry_typ:P|lang:en|wc:2|cs:8780|v=4,False,,Chennai,"7/64, Pillaiyar Koil Street, Eadapalayam, Alamathi, Chennai - 600052, Dist.Chennai, Tamil Nadu",7942958583,
Baby Printed Bedding Set,https://www.indiamart.com/proddetail/baby-printed-bedding-set-22426634173.html?pos=156&kwd=baby beddings&tags=BB||||8500.97|Price|product|||NA|rsf:gd-|-stype:attr=1|qr_nm:gd|res:RC4|com-cf:nl|ptrs:na|ktp:N0|mc:4161|mtp:S|qry_typ:P|lang:en|wc:2|cs:8780|v=4,G.K. Tradings,https://www.indiamart.com/g-k-tradings/?pos=156&kwd=baby beddings&tags=BB||||8500.97|Price|product|||NA|rsf:gd-|-stype:attr=1|qr_nm:gd|res:RC4|com-cf:nl|ptrs:na|ktp:N0|mc:4161|mtp:S|qry_typ:P|lang:en|wc:2|cs:8780|v=4,False,Thriprayar,Thrissur,"Ix/626,627, 628 Triprayar Nattika, Thriprayar, Thrissur - 680566, Dist.Thrissur, Kerala",7942560526,
"Cotton White And Red Newborn Baby Bedding Set, For Home",https://www.indiamart.com/proddetail/newborn-baby-bedding-set-25500451433.html?pos=164&kwd=baby beddings&tags=BA||||8230.883|Price|product|||NA|rsf:gd-|-stype:attr=1|qr_nm:gd|res:RC4|com-cf:nl|ptrs:na|ktp:N0|mc:4161|mtp:S|qry_typ:P|lang:en|wc:2|cs:8780|v=4,Kiran Handicraft,https://www.indiamart.com/kiran-handicraft-surat/?pos=164&kwd=baby beddings&tags=BA||||8230.883|Price|product|||NA|rsf:gd-|-stype:attr=1|qr_nm:gd|res:RC4|com-cf:nl|ptrs:na|ktp:N0|mc:4161|mtp:S|qry_typ:P|lang:en|wc:2|cs:8780|v=4,False,Sanjay Nagar,Surat,"Plot No.-44, 45, Ground Floor And 1st Floor, Siddhi Vinayak Industrial Estate, Laskana, Sanjay Nagar, Surat - 395006, Dist.Surat, Gujarat",8047308089,
Printed Red Baby Bedding Set,https://www.indiamart.com/proddetail/red-baby-bedding-set-22220307033.html?pos=165&kwd=baby beddings&tags=BB||||8601.347|Price|product|||NA|rsf:gd-|-stype:attr=1|qr_nm:gd|res:RC4|com-cf:nl|ptrs:na|ktp:N0|mc:4161|mtp:S|qry_typ:P|lang:en|wc:2|cs:8780|v=4,Lakshay Kid'S Collection,https://www.indiamart.com/lakshaykids-collection/?pos=165&kwd=baby beddings&tags=BB||||8601.347|Price|product|||NA|rsf:gd-|-stype:attr=1|qr_nm:gd|res:RC4|com-cf:nl|ptrs:na|ktp:N0|mc:4161|mtp:S|qry_typ:P|lang:en|wc:2|cs:8780|v=4,False,,Jaipur,"3/882, Malviya Nagar, Jaipur - 302017, Dist.Jaipur, Rajasthan",8048614670,
"Polyester Zipper Baby Bedding Set, Size: Medium",https://www.indiamart.com/proddetail/baby-bedding-set-2849765820430.html?pos=166&kwd=baby beddings&tags=BA||||8601.347||product|||NA|rsf:gd-|-stype:attr=1|qr_nm:gd|res:RC4|com-cf:nl|ptrs:na|ktp:N0|mc:4161|mtp:S|qry_typ:P|lang:en|wc:2|cs:8780|v=4,Bhagwati Enterprises,https://www.indiamart.com/bhagwati-enterprisesrajasthan/?pos=166&kwd=baby beddings&tags=BA||||8601.347||product|||NA|rsf:gd-|-stype:attr=1|qr_nm:gd|res:RC4|com-cf:nl|ptrs:na|ktp:N0|mc:4161|mtp:S|qry_typ:P|lang:en|wc:2|cs:8780|v=4,False,,Jaipur,"Ground Floor, ARG Murli Heights, Moti Doongri Road, Jaipur - 302004, Dist.Jaipur, Rajasthan",7942795447,
"Baby Sleeping Bag & Carry Nest, Cotton Baby Bedding for New Born & Infant- 0 to 18 Months",https://www.indiamart.com/proddetail/baby-sleeping-bag-carry-nest-cotton-baby-bedding-for-new-born-infant-0-to-18-months-2854185699388.html?pos=160&kwd=baby beddings&tags=BB||||8663.873|Price|product|||NA|rsf:gd-|-stype:attr=1|qr_nm:gd|res:RC4|com-cf:nl|ptrs:na|ktp:N0|mc:4161|mtp:S|qry_typ:P|lang:en|wc:2|cs:8780|v=4,Chadu,https://www.indiamart.com/chadu/?pos=160&kwd=baby beddings&tags=BB||||8663.873|Price|product|||NA|rsf:gd-|-stype:attr=1|qr_nm:gd|res:RC4|com-cf:nl|ptrs:na|ktp:N0|mc:4161|mtp:S|qry_typ:P|lang:en|wc:2|cs:8780|v=4,False,,Bengaluru,", Bengaluru - 560032, Dist.Bengaluru, Karnataka",8048370717,5972
"160x50 cm Cross Zipper Baby Carry Bed, 3-12 Months",https://www.indiamart.com/proddetail/160x50-cm-cross-zipper-baby-carry-bed-2850659021088.html?pos=161&kwd=baby beddings&tags=BB||||8954.051|Price|product|||NA|rsf:gd-|-stype:attr=1|qr_nm:gd|res:RC4|com-cf:nl|ptrs:na|ktp:N0|mc:4161|mtp:S|qry_typ:P|lang:en|wc:2|cs:8780|v=4,Baby Doll Traders,https://www.indiamart.com/baby-doll-traders/?pos=161&kwd=baby beddings&tags=BB||||8954.051|Price|product|||NA|rsf:gd-|-stype:attr=1|qr_nm:gd|res:RC4|com-cf:nl|ptrs:na|ktp:N0|mc:4161|mtp:S|qry_typ:P|lang:en|wc:2|cs:8780|v=4,False,,Chennai,"7/64, Pillaiyar Koil Street, Eadapalayam, Alamathi, Chennai - 600052, Dist.Chennai, Tamil Nadu",7942958583,
Plastic 350 Grams Baby Carry Bed,https://www.indiamart.com/proddetail/baby-carry-bed-23175566773.html?pos=162&kwd=baby beddings&tags=BB||||8954.051|Price|product|||NA|rsf:gd-|-stype:attr=1|qr_nm:gd|res:RC4|com-cf:nl|ptrs:na|ktp:N0|mc:4161|mtp:S|qry_typ:P|lang:en|wc:2|cs:8780|v=4,DJP Trading Company,https://www.indiamart.com/djp-trading-company/?pos=162&kwd=baby beddings&tags=BB||||8954.051|Price|product|||NA|rsf:gd-|-stype:attr=1|qr_nm:gd|res:RC4|com-cf:nl|ptrs:na|ktp:N0|mc:4161|mtp:S|qry_typ:P|lang:en|wc:2|cs:8780|v=4,False,,Chennai,"7/132, Ayodhya Nagar, Triplicane, Chennai - 600005, Dist.Chennai, Tamil Nadu",8048976947,
"Cotton Multicolor Newborn Baby Bedding Set, For Home",https://www.indiamart.com/proddetail/newborn-baby-bedding-set-2850327750733.html?pos=163&kwd=baby beddings&tags=BB||||8661.854|Price|product|||NA|rsf:gd-|-stype:attr=1|qr_nm:gd|res:RC4|com-cf:nl|ptrs:na|ktp:N0|mc:4161|mtp:S|qry_typ:P|lang:en|wc:2|cs:8780|v=4,Charu Enterprises,https://www.indiamart.com/charu-enterprises-punjab/?pos=163&kwd=baby beddings&tags=BB||||8661.854|Price|product|||NA|rsf:gd-|-stype:attr=1|qr_nm:gd|res:RC4|com-cf:nl|ptrs:na|ktp:N0|mc:4161|mtp:S|qry_typ:P|lang:en|wc:2|cs:8780|v=4,False,,Ludhiana,"6729, Street No.4, Jassian Road, Naveen Nagar, Haibowal Kalan, Ludhiana - 141008, Dist.Ludhiana, Punjab",7942817239,
"Cotton White And Red Newborn Baby Bedding Set, For Home",https://www.indiamart.com/proddetail/newborn-baby-bedding-set-25500451433.html?pos=164&kwd=baby beddings&tags=BA||||8230.883|Price|product|||NA|rsf:gd-|-stype:attr=1|qr_nm:gd|res:RC4|com-cf:nl|ptrs:na|ktp:N0|mc:4161|mtp:S|qry_typ:P|lang:en|wc:2|cs:8780|v=4,Kiran Handicraft,https://www.indiamart.com/kiran-handicraft-surat/?pos=164&kwd=baby beddings&tags=BA||||8230.883|Price|product|||NA|rsf:gd-|-stype:attr=1|qr_nm:gd|res:RC4|com-cf:nl|ptrs:na|ktp:N0|mc:4161|mtp:S|qry_typ:P|lang:en|wc:2|cs:8780|v=4,False,Sanjay Nagar,Surat,"Plot No.-44, 45, Ground Floor And 1st Floor, Siddhi Vinayak Industrial Estate, Laskana, Sanjay Nagar, Surat - 395006, Dist.Surat, Gujarat",8047308089,
Printed Red Baby Bedding Set,https://www.indiamart.com/proddetail/red-baby-bedding-set-22220307033.html?pos=165&kwd=baby beddings&tags=BB||||8601.347|Price|product|||NA|rsf:gd-|-stype:attr=1|qr_nm:gd|res:RC4|com-cf:nl|ptrs:na|ktp:N0|mc:4161|mtp:S|qry_typ:P|lang:en|wc:2|cs:8780|v=4,Lakshay Kid'S Collection,https://www.indiamart.com/lakshaykids-collection/?pos=165&kwd=baby beddings&tags=BB||||8601.347|Price|product|||NA|rsf:gd-|-stype:attr=1|qr_nm:gd|res:RC4|com-cf:nl|ptrs:na|ktp:N0|mc:4161|mtp:S|qry_typ:P|lang:en|wc:2|cs:8780|v=4,False,,Jaipur,"3/882, Malviya Nagar, Jaipur - 302017, Dist.Jaipur, Rajasthan",8048614670,
"Polyester Zipper Baby Bedding Set, Size: Medium",https://www.indiamart.com/proddetail/baby-bedding-set-2849765820430.html?pos=166&kwd=baby beddings&tags=BA||||8601.347||product|||NA|rsf:gd-|-stype:attr=1|qr_nm:gd|res:RC4|com-cf:nl|ptrs:na|ktp:N0|mc:4161|mtp:S|qry_typ:P|lang:en|wc:2|cs:8780|v=4,Bhagwati Enterprises,https://www.indiamart.com/bhagwati-enterprisesrajasthan/?pos=166&kwd=baby beddings&tags=BA||||8601.347||product|||NA|rsf:gd-|-stype:attr=1|qr_nm:gd|res:RC4|com-cf:nl|ptrs:na|ktp:N0|mc:4161|mtp:S|qry_typ:P|lang:en|wc:2|cs:8780|v=4,False,,Jaipur,"Ground Floor, ARG Murli Heights, Moti Doongri Road, Jaipur - 302004, Dist.Jaipur, Rajasthan",7942795447,
Cotton Multicolor Baby Bed In A Bag,https://www.indiamart.com/proddetail/baby-bed-in-a-bag-2851741038448.html?pos=167&kwd=baby beddings&tags=BB||||8211.142|Price|product|||NA|rsf:gd-|-stype:attr=1|qr_nm:gd|res:RC4|com-cf:nl|ptrs:na|ktp:N0|mc:4161|mtp:S|qry_typ:P|lang:en|wc:2|cs:8780|v=4,Dee Bee & Co.,https://www.indiamart.com/me-nmoms/?pos=167&kwd=baby beddings&tags=BB||||8211.142|Price|product|||NA|rsf:gd-|-stype:attr=1|qr_nm:gd|res:RC4|com-cf:nl|ptrs:na|ktp:N0|mc:4161|mtp:S|qry_typ:P|lang:en|wc:2|cs:8780|v=4,False,,Mumbai,"A-202, 2nd floor, Aaradhya Nalanda, R B Mehta Marg, Mumbai, Mumbai Suburban, Mumbai - 400077, Dist.Mumbai, Maharashtra",7942792773,
Goodmunchkins Baby Sleeping Bed Mosquito Net Bed Polycottong (34x19x16) (Pink),https://www.indiamart.com/proddetail/goodmunchkins-baby-sleeping-bed-mosquito-net-bed-polycottong-34x19x16-pink-25386143030.html?pos=168&kwd=baby beddings&tags=BB||||8830.079|Price|product|||NA|rsf:gd-|-stype:attr=1|qr_nm:gd|res:RC4|com-cf:nl|ptrs:na|ktp:N0|mc:4161|mtp:S|qry_typ:P|lang:en|wc:2|cs:8780|v=4,Goodmunchkins Private Limited,https://www.indiamart.com/goodmunchkins/?pos=168&kwd=baby beddings&tags=BB||||8830.079|Price|product|||NA|rsf:gd-|-stype:attr=1|qr_nm:gd|res:RC4|com-cf:nl|ptrs:na|ktp:N0|mc:4161|mtp:S|qry_typ:P|lang:en|wc:2|cs:8780|v=4,False,Gandhi Nagar,Vellore,"No.31, Ground Floor, Jaganathan Nagar Main Road, Gandhi Nagar, Vellore - 632006, Dist.Vellore, Tamil Nadu",7942555990,
Baby beds,,Akila Traders,https://www.indiamart.com/akila-traders-tirunelveli/?pos=169&kwd=baby beddings&tags=BB||||8662.111|Price|product|||NA|rsf:gd-|-stype:attr=1|qr_nm:gd|res:RC4|com-cf:nl|ptrs:na|ktp:N0|mc:4161|mtp:S|qry_typ:P|lang:en|wc:2|cs:8780|v=4,False,kalanthapanai,Tirunelveli,"12, Nagercoil bypass Tirunelveli, kalanthapanai, Tirunelveli - 627117, Dist.Tirunelveli, Tamil Nadu",8048262786,845
XL Bed,,Bueno Silk Cotton Mattress,https://www.indiamart.com/bueno-silk-cotton-mattress/?pos=170&kwd=baby beddings&tags=BB||||8488.448||product|||NA|rsf:gd-|-stype:attr=1|qr_nm:gd|res:RC4|com-cf:nl|ptrs:na|ktp:N0|mc:4161|mtp:S|qry_typ:P|lang:en|wc:2|cs:8780|v=4,False,,Malappuram,"Kvh Bed Works, Vengoor, Malappuram - 679325, Dist.Malappuram, Kerala",8048249730,4333
Baby Bed,,Linsonlinda Agencies,https://www.indiamart.com/linson-linda-agencies/?pos=171&kwd=baby beddings&tags=BB||||8500.97||product|||NA|rsf:gd-|-stype:attr=1|qr_nm:gd|res:RC4|com-cf:nl|ptrs:na|ktp:N0|mc:4161|mtp:S|qry_typ:P|lang:en|wc:2|cs:8780|v=4,False,Kuttanellur,Thrissur,"Kuttanellur, Kuttanellur, Thrissur - 680014, Dist.Thrissur, Kerala",8048361364,865
Johysons. Baby bed,,Surya Fancy Kirana & General Stores,https://www.indiamart.com/surya-fancy-and-general-store/?pos=172&kwd=baby beddings&tags=BB||||9142.047|Price|product|||NA|rsf:gd-|-stype:attr=1|qr_nm:gd|res:RC4|com-cf:nl|ptrs:na|ktp:N0|mc:4161|mtp:S|qry_typ:P|lang:en|wc:2|cs:8780|v=4,False,RAZOLE MANDAL,Thatipaka,"8-200/8, Tatipaka, Razole, East Godavari New Amalapuram Road, RAZOLE MANDAL, Thatipaka - 533249, Dist.East Godavari, Andhra Pradesh",8048250355,436
BABY BIG SIZE BEDDING,,Geeta,https://www.indiamart.com/geeta-berhampur/?pos=173&kwd=baby beddings&tags=BB||||9831.75|Price|product|||NA|rsf:gd-|-stype:attr=1|qr_nm:gd|res:RC4|com-cf:nl|ptrs:na|ktp:N0|mc:4161|mtp:S|qry_typ:P|lang:en|wc:2|cs:8780|v=4,False,Kadai,Berhampore,"Na,15/1,Lower Kadai Kishore Sangha,Dr S N Bhattacharjee Road,Berhampore,Murshidabad 15, Dr SN Bhattacharya Rd, Kadai, Berhampore - 742101, Dist.Murshidabad, West Bengal",8048371557,467
Baby Zipper Beds,,Balaji Bag,https://www.indiamart.com/balaji-bag-selam/?pos=174&kwd=baby beddings&tags=BB||||8717.056||product|||NA|rsf:gd-|-stype:attr=1|qr_nm:gd|res:RC4|com-cf:nl|ptrs:na|ktp:N0|mc:4161|mtp:S|qry_typ:P|lang:en|wc:2|cs:8780|v=4,False,I Agraharam,Salem,"No.-70/45,paul Street, I Agraharam, Salem - 636001, Dist.Salem, Tamil Nadu",8048371964,840
Baby Bedding,,G K Enterprises,https://www.indiamart.com/gk-enterprises-india/?pos=175&kwd=baby beddings&tags=BB||||8747.203|Price|product|||NA|rsf:gd-|-stype:attr=1|qr_nm:gd|res:RC4|com-cf:nl|ptrs:na|ktp:N0|mc:4161|mtp:S|qry_typ:P|lang:en|wc:2|cs:8780|v=4,False,,Panipat,"Batra Colony 7373 Kutani Road, Panipat - 132103, Dist.Panipat, Haryana",7942621938,
Baby Bed,,Shree Sati NX,https://www.indiamart.com/shreesatinx/?pos=176&kwd=baby beddings&tags=BB||||8211.142||product|||NA|rsf:gd-|-stype:attr=1|qr_nm:gd|res:RC4|com-cf:nl|ptrs:na|ktp:N0|mc:4161|mtp:S|qry_typ:P|lang:en|wc:2|cs:8780|v=4,False,Dadar Howkers Plaza,Mumbai,"Shop No. 1137, 1st Floor, Janta Market. Howkers Plaza, S. B. Marg, Dadar (West), Mumbai 400028, Dadar Howkers Plaza, Mumbai - 400072, Dist.Mumbai, Maharashtra",8069017403,940
Baby beds,,Shri Gukhan A Traders,https://www.indiamart.com/company/130085535/?pos=177&kwd=baby beddings&tags=BB||||8706.263|Price|product|||NA|rsf:gd-|-stype:attr=1|qr_nm:gd|res:RC4|com-cf:nl|ptrs:na|ktp:N0|mc:4161|mtp:S|qry_typ:P|lang:en|wc:2|cs:8780|v=4,False,,Karur,"305/A,Saliesh Appartment,Mahathma Gandhi Salai,Lgb Nagar Main Road,Karur, Karur - 639001, Dist.Karur, Tamil Nadu",8048370645,8305
Newborn Baby Wooden Bed,,Shree Ban Mata Art,https://www.indiamart.com/shree-ban-mata-art/?pos=178&kwd=baby beddings&tags=B||||8319.425||product|||NA|rsf:gd-|-stype:attr=1|qr_nm:gd|res:RC4|com-cf:nl|ptrs:na|ktp:N0|mc:4161|mtp:S|qry_typ:P|lang:en|wc:2|cs:8780|v=4,False,,Jodhpur,"Khasara No. 32/11,Nokdiya Bera Pal,Opp Street of Our Lady of Pillar Convent School,Jodhpur Khasara No. 32/11 Opp Street of Our Lady of Pillar Convent School Nokdiya Bera Pal Jodhpur Jodhpur, Jodhpur - 342001, Dist.Jodhpur, Rajasthan",8069416072,291
Baby Bedding,,Bhama Sales Corporation,https://www.indiamart.com/bhama-sales-corporation/?pos=179&kwd=baby beddings&tags=BB||||8601.347|Price|product|||NA|rsf:gd-|-stype:attr=1|qr_nm:gd|res:RC4|com-cf:nl|ptrs:na|ktp:N0|mc:4161|mtp:S|qry_typ:P|lang:en|wc:2|cs:8780|v=4,False,,Jaipur,"PROFESSOR COLONY,PROFESSOR COLONY,,NEAR V.P. GIRLS COLLEGE 20/182, Kaveri Path, Mansarovar,302020,Jaipur, Jaipur - 302020, Dist.Jaipur, Rajasthan",8048371873,874
baby pillow and bed with different kinds of varieties,,Hindustan Bedding Shop,https://www.indiamart.com/hindustan-bedding-shop/?pos=180&kwd=baby beddings&tags=BB||||8663.873|Price|product|||NA|rsf:gd-|-stype:attr=1|qr_nm:gd|res:RC4|com-cf:nl|ptrs:na|ktp:N0|mc:4161|mtp:S|qry_typ:P|lang:en|wc:2|cs:8780|v=4,False,,Bengaluru,", Bengaluru - 560086, Dist.Bengaluru, Karnataka",8048247090,6469
Pop Bedding,,H K G N Enterprises,https://www.indiamart.com/hkgn-entps/?pos=181&kwd=baby beddings&tags=BB||||8663.873||product|||NA|rsf:gd-|-stype:attr=1|qr_nm:gd|res:RC4|com-cf:nl|ptrs:na|ktp:N0|mc:4161|mtp:S|qry_typ:P|lang:en|wc:2|cs:8780|v=4,False,Electronic City,Bengaluru,"Old No 19 New No. 124, Near Axix Bank, Konappana Agrahara Bus Stop Electronic City Hosur Main Road pillar.number 223, Electronic City, Bengaluru - 560100, Dist.Bengaluru, Karnataka",8047783554,
Gadda Beddings with Botties,,Parents Care,https://www.indiamart.com/sbenterpri/?pos=182&kwd=baby beddings&tags=BB||||9839.57|Price|product|||NA|rsf:gd-|-stype:attr=1|qr_nm:gd|res:RC4|com-cf:nl|ptrs:na|ktp:N0|mc:4161|mtp:S|qry_typ:P|lang:en|wc:2|cs:8780|v=4,False,,Kolkata,"10H/2, Bibi Bagan Lane, Kolkata - 700015, Dist.Kolkata, West Bengal",8048204678,
Baby Bed,,Sri Kawya Tex,https://www.indiamart.com/sri-kawya-tex/?pos=183&kwd=baby beddings&tags=BA||||8706.587||product|||NA|rsf:gd-|-stype:attr=1|qr_nm:gd|res:RC4|com-cf:nl|ptrs:na|ktp:N0|mc:4161|mtp:S|qry_typ:P|lang:en|wc:2|cs:8780|v=4,False,,Madurai,"49,mahal vadampokki street, Madurai - 625001, Dist.Madurai, Tamil Nadu",8048372701,331
Baby Bedding,,Janki Jiyana House,https://www.indiamart.com/jankijiyana-house/?pos=184&kwd=baby beddings&tags=BB||||8230.883|Price|product|||NA|rsf:gd-|-stype:attr=1|qr_nm:gd|res:RC4|com-cf:nl|ptrs:na|ktp:N0|mc:4161|mtp:S|qry_typ:P|lang:en|wc:2|cs:8780|v=4,False,,Surat,"Shop No 10, 1st Floor, Sahyog Park, Opp. Mansarovar Circle, Amroli,, Surat - 394107, Dist.Surat, Gujarat",7942803964,
baby bedBaby Carry Bed,,Jikks Baby Care,https://www.indiamart.com/jikks-baby-care/?pos=185&kwd=baby beddings&tags=BA||||8401.482||product|||NA|rsf:gd-|-stype:attr=1|qr_nm:gd|res:RC4|com-cf:nl|ptrs:na|ktp:N0|mc:4161|mtp:S|qry_typ:P|lang:en|wc:2|cs:8780|v=4,False,Anangoor N H Road,Kasaragod,"First Floor KMC5/448- A1 Kala Complex, Anangoor N H Road, Kasaragod - 671121, Dist.Kasargod, Kerala",8048250436,475
Baby Bedding Set,,Rimjhim Creations,https://www.indiamart.com/rimjhim-creations-kolkata/?pos=186&kwd=baby beddings&tags=BB||||9839.57|Price|product|||NA|rsf:gd-|-stype:attr=1|qr_nm:gd|res:RC4|com-cf:nl|ptrs:na|ktp:N0|mc:4161|mtp:S|qry_typ:P|lang:en|wc:2|cs:8780|v=4,False,,Kolkata,"7,,Munsi Sadruddin Lane,Kolkata 7, Munsi Sadruddin Lane,700007,, Kolkata - 700007, Dist.Kolkata, West Bengal",8048372926,944
Baby Travel Bed,,Vin Traders,https://www.indiamart.com/vin-traders-karur/?pos=187&kwd=baby beddings&tags=BB||||8706.263|Price|product|||NA|rsf:gd-|-stype:attr=1|qr_nm:gd|res:RC4|com-cf:nl|ptrs:na|ktp:N0|mc:4161|mtp:S|qry_typ:P|lang:en|wc:2|cs:8780|v=4,False,Sengnthapuram,Karur,"4a Old, 9 New, Palaniyappa North Street, Sengnthapuram, Karur - 639002, Dist.Karur, Tamil Nadu",8062245021,743
Baby nestbed,,''Cherry Berry'' The Kids Shop,https://www.indiamart.com/cherry-berry-the-kids-shop/?pos=188&kwd=baby beddings&tags=BA||||8228.275|Price|product|||NA|rsf:gd-|-stype:attr=1|qr_nm:gd|res:RC4|com-cf:nl|ptrs:na|ktp:N0|mc:4161|mtp:S|qry_typ:P|lang:en|wc:2|cs:8780|v=4,False,Pankornaka,Ahmedabad,"1178 Chanpaneri Wadi Biscuit Gali Vaskhodiya Mohallo, Pankornaka, Ahmedabad - 380001, Dist.Ahmedabad, Gujarat",8048249726,8809
"Classic Mosquito Net Polyester Kids Baby Bed, Size: Small",https://www.indiamart.com/proddetail/classic-mosquito-net-polyester-kids-baby-bed-2853661286930.html?pos=189&kwd=baby beddings&tags=||||8281.036|Price|product|||TS|rsf:gd-|-stype:attr=1|qr_nm:gd|res:RC4|com-cf:nl|ptrs:na|ktp:N0|mc:4161|mtp:S|qry_typ:P|lang:en|wc:2|cs:8780|v=4,Classic Mosquito Net ( A Brand of Prayosha Expo Pvt. Ltd ),https://www.classicmosquitonet.co.in/?pos=189&kwd=baby beddings&tags=||||8281.036|Price|product|||TS|rsf:gd-|-stype:attr=1|qr_nm:gd|res:RC4|com-cf:nl|ptrs:na|ktp:N0|mc:4161|mtp:S|qry_typ:P|lang:en|wc:2|cs:8780|v=4,False,Industrial Estate,Vadodara,"C1B/267 Gidc, Opp. Prakruti Tiles, Makarpura Industrial Estate,, Industrial Estate, Vadodara - 390010, Dist.Vadodara, Gujarat",8046052164,
Kids Wall Bed,https://www.indiamart.com/proddetail/kids-wall-bed-12029284230.html?pos=190&kwd=baby beddings&tags=||||8307.81|Price|product|||TS|rsf:gd-|-stype:attr=1|qr_nm:gd|res:RC4|com-cf:nl|ptrs:na|ktp:N0|mc:4161|mtp:S|qry_typ:P|lang:en|wc:2|cs:8780|v=4,Spacemax Indoor Solutions Private Limited,https://www.indiamart.com/spacemax-indoor/?pos=190&kwd=baby beddings&tags=||||8307.81|Price|product|||TS|rsf:gd-|-stype:attr=1|qr_nm:gd|res:RC4|com-cf:nl|ptrs:na|ktp:N0|mc:4161|mtp:S|qry_typ:P|lang:en|wc:2|cs:8780|v=4,False,Kharadi,Pune,"Shop No-4, Gagan Grant Bay Building, Block Sector-Kharadi, Grant Road, Kharadi, Pune - 411014, Dist.Pune, Maharashtra",8047645845,
Metal house kids bed,https://www.indiamart.com/proddetail/metal-house-kids-bed-2850329645548.html?pos=191&kwd=baby beddings&tags=||||8752.144|Price|product|||TS|rsf:gd-|-stype:attr=1|qr_nm:gd|res:RC4|com-cf:nl|ptrs:na|ktp:N0|mc:4161|mtp:S|qry_typ:P|lang:en|wc:2|cs:8780|v=4,KS Creations,https://www.kscreations.net/?pos=191&kwd=baby beddings&tags=||||8752.144|Price|product|||TS|rsf:gd-|-stype:attr=1|qr_nm:gd|res:RC4|com-cf:nl|ptrs:na|ktp:N0|mc:4161|mtp:S|qry_typ:P|lang:en|wc:2|cs:8780|v=4,False,Uttam Nagar,New Delhi,"A 31, Om Vihar Phase V, Uttam Nagar, New Delhi - 110059, Dist.Delhi, Delhi",7942534588,
"Black Metal Bunker Bed, For Hostel, Size: 6x3",https://www.indiamart.com/proddetail/metal-bunker-bed-22374693162.html?pos=192&kwd=baby beddings&tags=||||8211.142|Price|product|||TS|rsf:gd-|-stype:attr=1|qr_nm:gd|res:RC4|com-cf:nl|ptrs:na|ktp:N0|mc:4161|mtp:S|qry_typ:P|lang:en|wc:2|cs:8780|v=4,Super Enterprises,https://www.super-enterprises.in/?pos=192&kwd=baby beddings&tags=||||8211.142|Price|product|||TS|rsf:gd-|-stype:attr=1|qr_nm:gd|res:RC4|com-cf:nl|ptrs:na|ktp:N0|mc:4161|mtp:S|qry_typ:P|lang:en|wc:2|cs:8780|v=4,False,Kandivali West,Mumbai,"Gala No 25, Kandivali West, Mumbai - 401208, Dist.Mumbai, Maharashtra",7942551131,
2 Seater Engineered Wood Wooden Diwan Kids Bed,https://www.indiamart.com/proddetail/wooden-diwan-kids-bed-23806237012.html?pos=193&kwd=baby beddings&tags=||||8663.873|Price|product|||TS|rsf:gd-|-stype:attr=1|qr_nm:gd|res:RC4|com-cf:nl|ptrs:na|ktp:N0|mc:4161|mtp:S|qry_typ:P|lang:en|wc:2|cs:8780|v=4,S.B Wooden & Steel Industries,https://www.indiamart.com/sbwoodenandsteelindustries/?pos=193&kwd=baby beddings&tags=||||8663.873|Price|product|||TS|rsf:gd-|-stype:attr=1|qr_nm:gd|res:RC4|com-cf:nl|ptrs:na|ktp:N0|mc:4161|mtp:S|qry_typ:P|lang:en|wc:2|cs:8780|v=4,False,Wilson Garden,Bengaluru,"10/8, 2nd Floor, J C Road, 1st Cross Firewoks Colony, Opp Anjuman Vinobanagar, Wilson Garden, Bengaluru - 560027, Dist.Bengaluru, Karnataka",7942799292,
"Double Iron Hostel Bunk Bed, Suitable For: Kids, Without Storage",https://www.indiamart.com/proddetail/hostel-bunk-bed-24914972162.html?pos=194&kwd=baby beddings&tags=||||8281.036|Price|product|||TS|rsf:gd-|-stype:attr=1|qr_nm:gd|res:RC4|com-cf:nl|ptrs:na|ktp:N0|mc:4161|mtp:S|qry_typ:P|lang:en|wc:2|cs:8780|v=4,Cooling Zone,https://www.indiamart.com/coolingzone-vadodara/?pos=194&kwd=baby beddings&tags=||||8281.036|Price|product|||TS|rsf:gd-|-stype:attr=1|qr_nm:gd|res:RC4|com-cf:nl|ptrs:na|ktp:N0|mc:4161|mtp:S|qry_typ:P|lang:en|wc:2|cs:8780|v=4,False,Balaji Nagar,Vadodara,"132 Sai Krupa Society,Near Amit Nagar Circle Vip Road, Balaji Nagar, Vadodara - 390018, Dist.Vadodara, Gujarat",8048274991,
"Double Mild Steel Bunk Beds, Without Storage, Suitable For: Kids & Adults",https://www.indiamart.com/proddetail/mild-steel-bunk-beds-2852814433648.html?pos=195&kwd=baby beddings&tags=||||8302.941|Price|product|||TS|rsf:gd-|-stype:attr=1|qr_nm:gd|res:RC4|com-cf:nl|ptrs:na|ktp:N0|mc:4161|mtp:S|qry_typ:P|lang:en|wc:2|cs:8780|v=4,Fernicon Engineering,https://www.fernicon.com/?pos=195&kwd=baby beddings&tags=||||8302.941|Price|product|||TS|rsf:gd-|-stype:attr=1|qr_nm:gd|res:RC4|com-cf:nl|ptrs:na|ktp:N0|mc:4161|mtp:S|qry_typ:P|lang:en|wc:2|cs:8780|v=4,False,Pawar Vasti,Pimpri Chinchwad,"Shanti complex industries, Akurdi road, Sane chouk(Pune) Pune, Pawar Vasti, Pimpri Chinchwad - 412114, Maharashtra",8043891769,
Mild Steel Plastic Bed,https://www.indiamart.com/proddetail/plastic-bed-2849319308173.html?pos=196&kwd=baby beddings&tags=||||8752.144|Price|product|||TS|rsf:gd-|-stype:attr=1|qr_nm:gd|res:RC4|com-cf:nl|ptrs:na|ktp:N0|mc:4161|mtp:S|qry_typ:P|lang:en|wc:2|cs:8780|v=4,S R International,https://www.passionplay.co.in/?pos=196&kwd=baby beddings&tags=||||8752.144|Price|product|||TS|rsf:gd-|-stype:attr=1|qr_nm:gd|res:RC4|com-cf:nl|ptrs:na|ktp:N0|mc:4161|mtp:S|qry_typ:P|lang:en|wc:2|cs:8780|v=4,False,Jhandewalan,New Delhi,"Shop No. 83 A, Dda Cycle Market, Jhandewalan, West Delhi, Jhandewalan, New Delhi - 110055, Dist.Delhi, Delhi",7942785838,
"Maayaar Metal Kids Bunk Beds, For Home, Size: 2'x4'x54",https://www.indiamart.com/proddetail/kids-bunk-beds-22052025048.html?pos=197&kwd=baby beddings&tags=||||8752.144|Price|product|||TS|rsf:gd-|-stype:attr=1|qr_nm:gd|res:RC4|com-cf:nl|ptrs:na|ktp:N0|mc:4161|mtp:S|qry_typ:P|lang:en|wc:2|cs:8780|v=4,Maayaar Engineers & Constructions Private Limited,https://www.indiamart.com/maayaar-engineers-constructions/?pos=197&kwd=baby beddings&tags=||||8752.144|Price|product|||TS|rsf:gd-|-stype:attr=1|qr_nm:gd|res:RC4|com-cf:nl|ptrs:na|ktp:N0|mc:4161|mtp:S|qry_typ:P|lang:en|wc:2|cs:8780|v=4,False,,New Delhi,"B-79, Basement, Okhla Industrial Area Phase-2, New Delhi - 110020, Dist.Delhi, Delhi",8047670290,
Kindergarten Plastic Children Bed,https://www.indiamart.com/proddetail/kindergarten-plastic-children-bed-21602806055.html?pos=198&kwd=baby beddings&tags=||||8752.144|Price|product|||TS|rsf:gd-|-stype:attr=1|qr_nm:gd|res:RC4|com-cf:nl|ptrs:na|ktp:N0|mc:4161|mtp:S|qry_typ:P|lang:en|wc:2|cs:8780|v=4,Rudram International,https://www.adiplayindia.com/?pos=198&kwd=baby beddings&tags=||||8752.144|Price|product|||TS|rsf:gd-|-stype:attr=1|qr_nm:gd|res:RC4|com-cf:nl|ptrs:na|ktp:N0|mc:4161|mtp:S|qry_typ:P|lang:en|wc:2|cs:8780|v=4,False,Bawana,New Delhi,"KH NO. 154 / 345 , Part 3 Village pooth khurd, Bawana, New Delhi - 110039, Dist.Delhi, Delhi",7942548502,
"Single Twin over Twin Kids Blue Double Bunk Bed, With Storage",https://www.indiamart.com/proddetail/twin-over-twin-kids-blue-double-bunk-bed-2849364847691.html?pos=199&kwd=baby beddings&tags=||||8584.299|Price|product|||TS|rsf:gd-|-stype:attr=1|qr_nm:gd|res:RC4|com-cf:nl|ptrs:na|ktp:N0|mc:4161|mtp:S|qry_typ:P|lang:en|wc:2|cs:8780|v=4,Kidomate Retail India Private Limited,https://www.indiamart.com/kidomateretailindia/?pos=199&kwd=baby beddings&tags=||||8584.299|Price|product|||TS|rsf:gd-|-stype:attr=1|qr_nm:gd|res:RC4|com-cf:nl|ptrs:na|ktp:N0|mc:4161|mtp:S|qry_typ:P|lang:en|wc:2|cs:8780|v=4,False,Chinnavedampatty,Coimbatore,"411, Thadagam Road, R.S. Puram,, Chinnavedampatty, Coimbatore - 641002, Dist.Coimbatore, Tamil Nadu",7942785795,
Single Kids Plastic Bed,https://www.indiamart.com/proddetail/kids-plastic-bed-2852588758248.html?pos=200&kwd=baby beddings&tags=||||8752.144|Price|product|||TS|rsf:gd-|-stype:attr=1|qr_nm:gd|res:RC4|com-cf:nl|ptrs:na|ktp:N0|mc:4161|mtp:S|qry_typ:P|lang:en|wc:2|cs:8780|v=4,Glorious Enterprises,https://www.indiamart.com/glorious-enterprises-newdelhi/?pos=200&kwd=baby beddings&tags=||||8752.144|Price|product|||TS|rsf:gd-|-stype:attr=1|qr_nm:gd|res:RC4|com-cf:nl|ptrs:na|ktp:N0|mc:4161|mtp:S|qry_typ:P|lang:en|wc:2|cs:8780|v=4,False,,New Delhi,"C-116, 2nd Floor, Block-C, Rohini, Sector-1, New Delhi - 110085, Dist.Delhi, Delhi",8043853647,
Imported Blue F828 Stackable Bed,https://www.indiamart.com/proddetail/f828-stackable-bed-18072066391.html?pos=201&kwd=baby beddings&tags=||||8752.144|Price|product|||TS|rsf:gd-|-stype:attr=1|qr_nm:gd|res:RC4|com-cf:nl|ptrs:na|ktp:N0|mc:4161|mtp:S|qry_typ:P|lang:en|wc:2|cs:8780|v=4,Toy Park Delhi Private Limited,https://www.toypark.co.in/?pos=201&kwd=baby beddings&tags=||||8752.144|Price|product|||TS|rsf:gd-|-stype:attr=1|qr_nm:gd|res:RC4|com-cf:nl|ptrs:na|ktp:N0|mc:4161|mtp:S|qry_typ:P|lang:en|wc:2|cs:8780|v=4,False,Karol Bagh,New Delhi,"No. 17A/56, W.E.A, Karol Bagh, Near Metro Pillar 98-99, Karol Bagh, New Delhi - 110005, Dist.Delhi, Delhi",8046052967,
"Unisex Casual Wear Blue Flannel Newborn Baby Hospital Kit, Age Group: 0-3 Months",https://www.indiamart.com/proddetail/blue-flannel-newborn-baby-hospital-kit-2851752512255.html?pos=202&kwd=baby beddings&tags=||||8559.269|Price|product|||TS|rsf:gd-|-stype:attr=1|qr_nm:gd|res:RC4|com-cf:nl|ptrs:na|ktp:N0|mc:4161|mtp:S|qry_typ:P|lang:en|wc:2|cs:8780|v=4,Guild Corporation,https://www.indiamart.com/guildcorporation/?pos=202&kwd=baby beddings&tags=||||8559.269|Price|product|||TS|rsf:gd-|-stype:attr=1|qr_nm:gd|res:RC4|com-cf:nl|ptrs:na|ktp:N0|mc:4161|mtp:S|qry_typ:P|lang:en|wc:2|cs:8780|v=4,False,Sanwariya Nagar,Indore,"32, Bijasan Colony, Airport Road, Sanwariya Nagar, Indore - 452005, Dist.Indore, Madhya Pradesh",8047662733,
"Cotton Plain Baby Reusable Bed Protector DrySheet, Mat Size: 200x140 cm (lxb)",https://www.indiamart.com/proddetail/baby-reusable-bed-protector-drysheet-23083544997.html?pos=203&kwd=baby beddings&tags=||||8211.142|Price|product|||TS|rsf:gd-|-stype:attr=1|qr_nm:gd|res:RC4|com-cf:nl|ptrs:na|ktp:N0|mc:4161|mtp:S|qry_typ:P|lang:en|wc:2|cs:8780|v=4,JP Manufacturers,https://www.indiamart.com/jpmanufacturers-mumbai/?pos=203&kwd=baby beddings&tags=||||8211.142|Price|product|||TS|rsf:gd-|-stype:attr=1|qr_nm:gd|res:RC4|com-cf:nl|ptrs:na|ktp:N0|mc:4161|mtp:S|qry_typ:P|lang:en|wc:2|cs:8780|v=4,False,Abhyudaya Nagar,Mumbai,"Maharashtra 514/5, Milan Industrial Estate, Abhyudaya Nagar, Abhyudaya Nagar, Mumbai - 400033, Dist.Mumbai, Maharashtra",8048950627,
"Cotton Plain Baby DrySheet for single bed or kids bed, Red",https://www.indiamart.com/proddetail/baby-drysheet-for-single-bed-or-kids-bed-23973851233.html?pos=204&kwd=baby beddings&tags=||||8752.144|Price|product|||TS|rsf:gd-|-stype:attr=1|qr_nm:gd|res:RC4|com-cf:nl|ptrs:na|ktp:N0|mc:4161|mtp:S|qry_typ:P|lang:en|wc:2|cs:8780|v=4,Poshak Mandir,https://www.indiamart.com/phoshak-mandir/?pos=204&kwd=baby beddings&tags=||||8752.144|Price|product|||TS|rsf:gd-|-stype:attr=1|qr_nm:gd|res:RC4|com-cf:nl|ptrs:na|ktp:N0|mc:4161|mtp:S|qry_typ:P|lang:en|wc:2|cs:8780|v=4,False,Nangloi,New Delhi,"S/F D-41, Aman Puri, Najafgarh Road, Nangloi, Nangloi, New Delhi - 110041, Dist.Delhi, Delhi",7942628055,
Baby Mosquito Net Bed,https://www.indiamart.com/proddetail/baby-mosquito-net-bed-2850586699791.html?pos=205&kwd=baby beddings&tags=||||8230.883|Price|product|||TS|rsf:gd-|-stype:attr=1|qr_nm:gd|res:RC4|com-cf:nl|ptrs:na|ktp:N0|mc:4161|mtp:S|qry_typ:P|lang:en|wc:2|cs:8780|v=4,Concept Enterprise,https://www.cartforbaby.com/?pos=205&kwd=baby beddings&tags=||||8230.883|Price|product|||TS|rsf:gd-|-stype:attr=1|qr_nm:gd|res:RC4|com-cf:nl|ptrs:na|ktp:N0|mc:4161|mtp:S|qry_typ:P|lang:en|wc:2|cs:8780|v=4,False,Dabholi,Surat,"17, Bhumi Park Society, Near Dabholi Road, Katargam, Dabholi, Surat - 395004, Dist.Surat, Gujarat",8047546659,
"Cotton Multicolor Premium Quality Handblock Printed Bedding Set, Size: Double",https://www.indiamart.com/proddetail/premium-quality-handblock-printed-bedding-set-2853318463562.html?pos=206&kwd=baby beddings&tags=||||8601.347|Price|product|||TS|rsf:gd-|-stype:attr=1|qr_nm:gd|res:RC4|com-cf:nl|ptrs:na|ktp:N0|mc:4161|mtp:S|qry_typ:P|lang:en|wc:2|cs:8780|v=4,Indus Art And Emporium,https://www.indusart.in/?pos=206&kwd=baby beddings&tags=||||8601.347|Price|product|||TS|rsf:gd-|-stype:attr=1|qr_nm:gd|res:RC4|com-cf:nl|ptrs:na|ktp:N0|mc:4161|mtp:S|qry_typ:P|lang:en|wc:2|cs:8780|v=4,True,Mansarovar,Jaipur,"H/3, First Floor, RIICO Industrial Area, Mansarovar, Jaipur - 302020, Dist.Jaipur, Rajasthan",8048956816,
Plain Polar Fleece Fabric Small Size Dream Care Waterproof Dry Baby Bed Sheet,https://www.indiamart.com/proddetail/small-size-dream-care-waterproof-dry-baby-bed-sheet-4543966030.html?pos=207&kwd=baby beddings&tags=||||8752.144|Price|product|||TS|rsf:gd-|-stype:attr=1|qr_nm:gd|res:RC4|com-cf:nl|ptrs:na|ktp:N0|mc:4161|mtp:S|qry_typ:P|lang:en|wc:2|cs:8780|v=4,Dream Care Furnishings Private Limited,https://www.indiamart.com/dreamcare/?pos=207&kwd=baby beddings&tags=||||8752.144|Price|product|||TS|rsf:gd-|-stype:attr=1|qr_nm:gd|res:RC4|com-cf:nl|ptrs:na|ktp:N0|mc:4161|mtp:S|qry_typ:P|lang:en|wc:2|cs:8780|v=4,False,Patparganj Industrial Area,New Delhi,"44, Patparganj Industrial Area, New Delhi - 110092, Dist.Delhi, Delhi",8048969333,
"Iron Single Bed With Storage, Suitable For: Kids & Adults",https://www.indiamart.com/proddetail/single-bed-with-storage-2849389288262.html?pos=208&kwd=baby beddings&tags=||||8786.56|Price|product|||TS|rsf:gd-|-stype:attr=1|qr_nm:gd|res:RC4|com-cf:nl|ptrs:na|ktp:N0|mc:4161|mtp:S|qry_typ:P|lang:en|wc:2|cs:8780|v=4,A To Z Steel Works,https://www.atozsteelworks.com/?pos=208&kwd=baby beddings&tags=||||8786.56|Price|product|||TS|rsf:gd-|-stype:attr=1|qr_nm:gd|res:RC4|com-cf:nl|ptrs:na|ktp:N0|mc:4161|mtp:S|qry_typ:P|lang:en|wc:2|cs:8780|v=4,False,Karwan,Hyderabad,"mallepally, Karwan, Hyderabad - 500006, Dist.Hyderabad, Telangana",8048977326,
Single Wooden Kids Bed,https://www.indiamart.com/proddetail/kids-bed-2854857633433.html?pos=209&kwd=baby beddings&tags=||||8307.81||product|||TS|rsf:gd-|-stype:attr=1|qr_nm:gd|res:RC4|com-cf:nl|ptrs:na|ktp:N0|mc:4161|mtp:S|qry_typ:P|lang:en|wc:2|cs:8780|v=4,Kohinoor Furniture,https://www.kohinoorfurniture.in/?pos=209&kwd=baby beddings&tags=||||8307.81||product|||TS|rsf:gd-|-stype:attr=1|qr_nm:gd|res:RC4|com-cf:nl|ptrs:na|ktp:N0|mc:4161|mtp:S|qry_typ:P|lang:en|wc:2|cs:8780|v=4,False,Bavdhan,Pune,"S NO 20/3/3 20/3/5 20/3/6A 20/3/9 20/3/10A,ZIENNEA,SHOP NO 11 Sr No. 20/3/3, Bavdhan, Bavdhan, Pune - 411021, Dist.Pune, Maharashtra",8048602619,
Children Bed,,Royal School Furniture Industry,https://www.indiamart.com/royal-school-furniture-industry/?pos=210&kwd=baby beddings&tags=||||8307.81|Price|product|||TS|rsf:gd-|-stype:attr=1|qr_nm:gd|res:RC4|com-cf:nl|ptrs:na|ktp:N0|mc:4161|mtp:S|qry_typ:P|lang:en|wc:2|cs:8780|v=4,False,DONJE,Pune,"Sr. No. 135, 2B, Yashodeep Society, NDA Road, DONJE, Pune - 411058, Dist.Pune, Maharashtra",7942672062,
