product_title,product_link,company_name,company_link,is_verified_exporter,city_region,city,address_details,phone_number,phone_number_extension
"Firstin Born Baby Diapers, Cotton Padded Underwear - Muslin Multi-time Reusable Diaper Manufacturer",https://www.indiamart.com/proddetail/firstin-born-baby-diapers-cotton-padded-underwear-muslin-multi-time-reusable-diaper-manufacturer-20962097497.html?pos=1&kwd=baby diapers&tags=A|PL|||8668.838|Price|product|||LSlc|rsf:pl-|-stype:attr=1|qr_nm:gd|res:RC4|com-cf:nl|ptrs:na|ktp:N0|mc:4167|mtp:S|qry_typ:P|lang:en|wc:2|flavl:10|cs:9598|v=4,Sri Kalyan Export Private Limited,https://www.firstinbabydress.com/?pos=1&kwd=baby diapers&tags=A|PL|||8668.838|Price|product|||LSlc|rsf:pl-|-stype:attr=1|qr_nm:gd|res:RC4|com-cf:nl|ptrs:na|ktp:N0|mc:4167|mtp:S|qry_typ:P|lang:en|wc:2|flavl:10|cs:9598|v=4,False,Vilarasampatti,Erode,"192/4, Ishwarya Garden, Sengodampalayam, Villarasampatti Post, Erode,, Vilarasampatti, Erode - 638107, Dist.Erode, Tamil Nadu",8046030291,
New Born Baby Diapers,https://www.indiamart.com/proddetail/new-born-baby-diapers-2854228376012.html?pos=2&kwd=baby diapers&tags=|PL|||8747.223|Price|product|||LSlc|rsf:pl-|-stype:attr=1|qr_nm:gd|res:RC4|com-cf:nl|ptrs:na|ktp:N0|mc:4167|mtp:S|qry_typ:P|lang:en|wc:2|flavl:10|cs:9598|v=4,Pioneer Hygiene Industries LLP,https://www.pioneerhygiene.co.in/?pos=2&kwd=baby diapers&tags=|PL|||8747.223|Price|product|||LSlc|rsf:pl-|-stype:attr=1|qr_nm:gd|res:RC4|com-cf:nl|ptrs:na|ktp:N0|mc:4167|mtp:S|qry_typ:P|lang:en|wc:2|flavl:10|cs:9598|v=4,True,,Sonipat,"Kila No. 95//1/1, 12/13, 19 And 22/1/1, Akbarpur Barota, Sonipat - 131103, Dist.Sonipat, Haryana",8045731181,
"Baby Diaper Pant, Size: XL, Small",https://www.indiamart.com/proddetail/baby-diaper-pant-23123274191.html?pos=3&kwd=baby diapers&tags=A|PL|||8830.388|Price|product|||SSlc|rsf:pl-|-stype:attr=1|qr_nm:gd|res:RC4|com-cf:nl|ptrs:na|ktp:N0|mc:4167|mtp:S|qry_typ:P|lang:en|wc:2|flavl:10|cs:9598|v=4,Easeplus Healthcare Private Limited,https://www.ezoyplus.in/?pos=3&kwd=baby diapers&tags=A|PL|||8830.388|Price|product|||SSlc|rsf:pl-|-stype:attr=1|qr_nm:gd|res:RC4|com-cf:nl|ptrs:na|ktp:N0|mc:4167|mtp:S|qry_typ:P|lang:en|wc:2|flavl:10|cs:9598|v=4,False,DD Nagar,Gwalior,"T 1298 K-61,Vrikampur Chouraha,Satabdipuram D D Nagar,Gwalior, DD Nagar, Gwalior - 474005, Dist.Gwalior, Madhya Pradesh",8048265864,
"Nonwoven Pant Diapers Xl Size Baby Diaper, Age Group: 2 years & above, Packaging Size: 50 Pieces in 1 Packet",https://www.indiamart.com/proddetail/xl-size-baby-diaper-27207318062.html?pos=4&kwd=baby diapers&tags=A||||8230.883|Price|product|||LSlc|rsf:gd-|-stype:attr=1|qr_nm:gd|res:RC4|com-cf:nl|ptrs:na|ktp:N0|mc:4167|mtp:S|qry_typ:P|lang:en|wc:2|flavl:10|cs:9598|v=4,M. D. Hygiene Private Limited,https://www.mdhygieneindia.com/?pos=4&kwd=baby diapers&tags=A||||8230.883|Price|product|||LSlc|rsf:gd-|-stype:attr=1|qr_nm:gd|res:RC4|com-cf:nl|ptrs:na|ktp:N0|mc:4167|mtp:S|qry_typ:P|lang:en|wc:2|flavl:10|cs:9598|v=4,True,Tadkeshwar,Surat,"Block No. 959, Kim Mandvi Road, Tadkeshwar, Surat - 394170, Dist.Surat, Gujarat",8046050788,
"Printed Baby Diaper Pants, Small",https://www.indiamart.com/proddetail/baby-diaper-pants-2854365659991.html?pos=5&kwd=baby diapers&tags=A||||8584.299|Price|product|||TS|rsf:gd-|-stype:attr=1|qr_nm:gd|res:RC4|com-cf:nl|ptrs:na|ktp:N0|mc:4167|mtp:S|qry_typ:P|lang:en|wc:2|flavl:10|cs:9598|v=4,Raws N Greens Healthcare Private Limited,https://www.rawsngreens.com/?pos=5&kwd=baby diapers&tags=A||||8584.299|Price|product|||TS|rsf:gd-|-stype:attr=1|qr_nm:gd|res:RC4|com-cf:nl|ptrs:na|ktp:N0|mc:4167|mtp:S|qry_typ:P|lang:en|wc:2|flavl:10|cs:9598|v=4,False,Saravanampatti,Coimbatore,"No.24 B Vky Vilankurichi Road, Chitra Nagar SARAVANAMPATTI, Saravanampatti, Coimbatore - 641035, Dist.Coimbatore, Tamil Nadu",7942799211,
"Aarvi Cotton Baby Diapers, Size: Medium",https://www.indiamart.com/proddetail/baby-diapers-23304326955.html?pos=6&kwd=baby diapers&tags=A||||8584.299|Price|product|||SSnp|rsf:gd-|-stype:attr=1|qr_nm:gd|res:RC4|com-cf:nl|ptrs:na|ktp:N0|mc:4167|mtp:S|qry_typ:P|lang:en|wc:2|flavl:10|cs:9598|v=4,Naturo-Health Organic Enterprises,https://www.indiamart.com/naturohealthorganicenterprises/?pos=6&kwd=baby diapers&tags=A||||8584.299|Price|product|||SSnp|rsf:gd-|-stype:attr=1|qr_nm:gd|res:RC4|com-cf:nl|ptrs:na|ktp:N0|mc:4167|mtp:S|qry_typ:P|lang:en|wc:2|flavl:10|cs:9598|v=4,False,Edayarpalayam,Coimbatore,"B83, Anna Nagar, Housing Unit Edayarpalayam, Edayarpalayam, Coimbatore - 641025, Dist.Coimbatore, Tamil Nadu",8047632292,
"Nonwoven Baby diapers, Small",https://www.indiamart.com/proddetail/baby-diapers-2853457735962.html?pos=7&kwd=baby diapers&tags=A||||8230.883|Price|product|||TS|rsf:gd-|-stype:attr=1|qr_nm:gd|res:RC4|com-cf:nl|ptrs:na|ktp:N0|mc:4167|mtp:S|qry_typ:P|lang:en|wc:2|flavl:10|cs:9598|v=4,Shree Balaji Enterprises,https://www.indiamart.com/shree-balaji-enterprises-maharashtra/?pos=7&kwd=baby diapers&tags=A||||8230.883|Price|product|||TS|rsf:gd-|-stype:attr=1|qr_nm:gd|res:RC4|com-cf:nl|ptrs:na|ktp:N0|mc:4167|mtp:S|qry_typ:P|lang:en|wc:2|flavl:10|cs:9598|v=4,False,Parvat Patiya,Surat,"LA Citadel Complex, G-59, Ground Floor, Near Kangaru Circle, Puna Patiya, Parvat Patiya, Surat - 395010, Dist.Surat, Gujarat",8048987419,
Baby Diaper,https://www.indiamart.com/proddetail/baby-diaper-2852907059591.html?pos=8&kwd=baby diapers&tags=A||||9228.171|Price|product|||TS|rsf:gd-|-stype:attr=1|qr_nm:gd|res:RC4|com-cf:nl|ptrs:na|ktp:N0|mc:4167|mtp:S|qry_typ:P|lang:en|wc:2|flavl:10|cs:9598|v=4,Evergreen Care,https://www.indiamart.com/evergreencare-faizabad/?pos=8&kwd=baby diapers&tags=A||||9228.171|Price|product|||TS|rsf:gd-|-stype:attr=1|qr_nm:gd|res:RC4|com-cf:nl|ptrs:na|ktp:N0|mc:4167|mtp:S|qry_typ:P|lang:en|wc:2|flavl:10|cs:9598|v=4,False,Faizabad Cantt,Faizabad,"Near Raebareilly Bypass, Faizabad Cantt, Faizabad - 224202, Uttar Pradesh",8046054746,
Pamper Kids Diaper,https://www.indiamart.com/proddetail/pamper-kids-diaper-2854237197455.html?pos=9&kwd=baby diapers&tags=A||||8778.123|Price|product|||TS|rsf:gd-|-stype:attr=1|qr_nm:gd|res:RC4|com-cf:nl|ptrs:na|ktp:N0|mc:4167|mtp:S|qry_typ:P|lang:en|wc:2|flavl:10|cs:9598|v=4,Pleasure Paradise,https://www.wonderfeel.in/?pos=9&kwd=baby diapers&tags=A||||8778.123|Price|product|||TS|rsf:gd-|-stype:attr=1|qr_nm:gd|res:RC4|com-cf:nl|ptrs:na|ktp:N0|mc:4167|mtp:S|qry_typ:P|lang:en|wc:2|flavl:10|cs:9598|v=4,False,Sector 137,Noida,"11, T12 1105, Paras Tierea, Sector 137, Sector 137, Noida - 201301, Dist.Gautam Budh Nagar, Uttar Pradesh",8048612980,
"Baby Diaper Pants, Size: Medium",https://www.indiamart.com/proddetail/baby-diaper-pants-24809199088.html?pos=10&kwd=baby diapers&tags=A||||8954.051|Price|product|||TS|rsf:gd-|-stype:attr=1|qr_nm:gd|res:RC4|com-cf:nl|ptrs:na|ktp:N0|mc:4167|mtp:S|qry_typ:P|lang:en|wc:2|flavl:10|cs:9598|v=4,The Exultant Enterprises,https://www.theexultantenterprises.com/?pos=10&kwd=baby diapers&tags=A||||8954.051|Price|product|||TS|rsf:gd-|-stype:attr=1|qr_nm:gd|res:RC4|com-cf:nl|ptrs:na|ktp:N0|mc:4167|mtp:S|qry_typ:P|lang:en|wc:2|flavl:10|cs:9598|v=4,False,Velacheri,Chennai,"Building No. 13, New Secreterary Colony 6th Street,, Velacheri, Chennai - 600042, Dist.Chennai, Tamil Nadu",8048960064,
"CHUBBY PRO-BABY DIAPERS, Small",https://www.indiamart.com/proddetail/chubby-pro-baby-diapers-2854417692197.html?pos=11&kwd=baby diapers&tags=A||||8601.347||product|||TS|rsf:gd-|-stype:attr=1|qr_nm:gd|res:RC4|com-cf:nl|ptrs:na|ktp:N0|mc:4167|mtp:S|qry_typ:P|lang:en|wc:2|flavl:10|cs:9598|v=4,Jayom Choice Industries,https://www.jayomchoice.com/?pos=11&kwd=baby diapers&tags=A||||8601.347||product|||TS|rsf:gd-|-stype:attr=1|qr_nm:gd|res:RC4|com-cf:nl|ptrs:na|ktp:N0|mc:4167|mtp:S|qry_typ:P|lang:en|wc:2|flavl:10|cs:9598|v=4,False,Sukhdeopura Nohara,Jaipur,"EF-152 Gulmohar Garden Phase-III Vatika Road, Manpur Bhatawala, Sukhdeopura Nohara, Jaipur - 303905, Dist.Jaipur, Rajasthan",8048975546,
Nonwoven Small Baby Diapers,https://www.indiamart.com/proddetail/small-baby-diapers-2854035104073.html?pos=12&kwd=baby diapers&tags=A||||8559.269|Price|product|||TS|rsf:gd-|-stype:attr=1|qr_nm:gd|res:RC4|com-cf:nl|ptrs:na|ktp:N0|mc:4167|mtp:S|qry_typ:P|lang:en|wc:2|flavl:10|cs:9598|v=4,Aadaarsh Enterprise,https://www.hellosweetybabydaiper.com/?pos=12&kwd=baby diapers&tags=A||||8559.269|Price|product|||TS|rsf:gd-|-stype:attr=1|qr_nm:gd|res:RC4|com-cf:nl|ptrs:na|ktp:N0|mc:4167|mtp:S|qry_typ:P|lang:en|wc:2|flavl:10|cs:9598|v=4,False,,Indore,"2,Sher Shah Suri Nagar B, Khajrana, Indore - 452001, Dist.Indore, Madhya Pradesh",8043879050,
"Disposable Baby Diapers, Size: Large",https://www.indiamart.com/proddetail/disposable-baby-diapers-2851359747191.html?pos=13&kwd=baby diapers&tags=A||||8211.142|Price|product|||SSnp|rsf:gd-|-stype:attr=1|qr_nm:gd|res:RC4|com-cf:nl|ptrs:na|ktp:N0|mc:4167|mtp:S|qry_typ:P|lang:en|wc:2|flavl:10|cs:9598|v=4,Aglodia Corporation,https://www.aglodiacorp.com/?pos=13&kwd=baby diapers&tags=A||||8211.142|Price|product|||SSnp|rsf:gd-|-stype:attr=1|qr_nm:gd|res:RC4|com-cf:nl|ptrs:na|ktp:N0|mc:4167|mtp:S|qry_typ:P|lang:en|wc:2|flavl:10|cs:9598|v=4,False,Goregaon West,Mumbai,"315/2512 motilal nagar 2 MG road Goregaon west, Goregaon West, Mumbai - 400064, Dist.Mumbai, Maharashtra",7942842515,
Cotton Disposable Baby Diapers,https://www.indiamart.com/proddetail/disposable-baby-diapers-2850963472888.html?pos=14&kwd=baby diapers&tags=A||||8785.791|Price|product|||SSnp|rsf:gd-|-stype:attr=1|qr_nm:gd|res:RC4|com-cf:nl|ptrs:na|ktp:N0|mc:4167|mtp:S|qry_typ:P|lang:en|wc:2|flavl:10|cs:9598|v=4,Kshristi Enterprises,https://www.indiamart.com/kshristi-enterprises/?pos=14&kwd=baby diapers&tags=A||||8785.791|Price|product|||SSnp|rsf:gd-|-stype:attr=1|qr_nm:gd|res:RC4|com-cf:nl|ptrs:na|ktp:N0|mc:4167|mtp:S|qry_typ:P|lang:en|wc:2|flavl:10|cs:9598|v=4,False,Sahibabad,Ghaziabad,"S 57 Harsha campound mohan nagar industrial area Ghaziabad Uttar Pradesh, Sahibabad, Ghaziabad - 201005, Dist.Ghaziabad, Uttar Pradesh",8046078120,
BEBE Baby Diapers - Medium,https://www.indiamart.com/proddetail/bebe-baby-diapers-medium-2852422421155.html?pos=15&kwd=baby diapers&tags=A||||8954.051|Price|product|||TS|rsf:gd-|-stype:attr=1|qr_nm:gd|res:RC4|com-cf:nl|ptrs:na|ktp:N0|mc:4167|mtp:S|qry_typ:P|lang:en|wc:2|flavl:10|cs:9598|v=4,Immanlyn Old Age Traders,https://www.immanlyn.in/?pos=15&kwd=baby diapers&tags=A||||8954.051|Price|product|||TS|rsf:gd-|-stype:attr=1|qr_nm:gd|res:RC4|com-cf:nl|ptrs:na|ktp:N0|mc:4167|mtp:S|qry_typ:P|lang:en|wc:2|flavl:10|cs:9598|v=4,False,T Nagar,Chennai,"Old No 6 New No 15, Saravana Street, T Nagar, T Nagar, Chennai - 600017, Dist.Chennai, Tamil Nadu",8046053387,
FRIENDS SNUGGY BABY DIAPER NEWBORN,https://www.indiamart.com/proddetail/friends-snuggy-baby-diaper-newborn-25681120133.html?pos=16&kwd=baby diapers&tags=A||||8571.301|Price|product|||TS|rsf:gd-|-stype:attr=1|qr_nm:gd|res:RC4|com-cf:nl|ptrs:na|ktp:N0|mc:4167|mtp:S|qry_typ:P|lang:en|wc:2|flavl:10|cs:9598|v=4,Atomlife Healthcare And Reseacrh Private Limited,https://www.indiamart.com/atomlifehealthcareresearch/?pos=16&kwd=baby diapers&tags=A||||8571.301|Price|product|||TS|rsf:gd-|-stype:attr=1|qr_nm:gd|res:RC4|com-cf:nl|ptrs:na|ktp:N0|mc:4167|mtp:S|qry_typ:P|lang:en|wc:2|flavl:10|cs:9598|v=4,False,Thycaud,Thiruvananthapuram,"TC 24/449, Thycaud, Thiruvananthapuram - 695014, Dist.Thiruvananthapuram, Kerala",8048263415,
Toddlers Baby Diapers,https://www.indiamart.com/proddetail/toddlers-baby-diapers-20170649197.html?pos=15&kwd=baby diapers&tags=A||||8786.56|Price|product|||TS|rsf:gd-|-stype:attr=1|qr_nm:gd|res:RC4|com-cf:nl|ptrs:na|ktp:N0|mc:4167|mtp:S|qry_typ:P|lang:en|wc:2|cs:8786|v=4,ADML(ADROIT MOLECULES),https://www.adroitmolecules.com/?pos=15&kwd=baby diapers&tags=A||||8786.56|Price|product|||TS|rsf:gd-|-stype:attr=1|qr_nm:gd|res:RC4|com-cf:nl|ptrs:na|ktp:N0|mc:4167|mtp:S|qry_typ:P|lang:en|wc:2|cs:8786|v=4,False,Annaram,Hyderabad,"Plot No. 523/2 Dundigal Village , Medchal, Malkajgiri, Near Marri Laxman Reddy Engineering College, Annaram, Hyderabad - 500043, Dist.Hyderabad, Telangana",8046057643,
"Cotton LILIPUT Pant Style Imported Baby Diapers, Medium",https://www.indiamart.com/proddetail/liliput-pant-style-imported-baby-diapers-21592666888.html?pos=16&kwd=baby diapers&tags=A||||9110.092|Price|product|||TS|rsf:gd-|-stype:attr=1|qr_nm:gd|res:RC4|com-cf:nl|ptrs:na|ktp:N0|mc:4167|mtp:S|qry_typ:P|lang:en|wc:2|cs:8786|v=4,Shashwat Udyog,https://www.indiamart.com/shashwatudyog-uttarpradesh/?pos=16&kwd=baby diapers&tags=A||||9110.092|Price|product|||TS|rsf:gd-|-stype:attr=1|qr_nm:gd|res:RC4|com-cf:nl|ptrs:na|ktp:N0|mc:4167|mtp:S|qry_typ:P|lang:en|wc:2|cs:8786|v=4,False,Gomti,Lucknow,"302, Omaxe Heights, Vibhuti Khand, Gomti Nagar, Gomti, Lucknow - 226010, Dist.Lucknow, Uttar Pradesh",8048616780,
Cotton Best Diapers - Imported Organic British Baby Diapers - New Born,https://www.indiamart.com/proddetail/best-diapers-imported-organic-british-baby-diapers-new-born-2852357276073.html?pos=17&kwd=baby diapers&tags=A||||8717.056|Price|product|||TS|rsf:gd-|-stype:attr=1|qr_nm:gd|res:RC4|com-cf:nl|ptrs:na|ktp:N0|mc:4167|mtp:S|qry_typ:P|lang:en|wc:2|cs:8786|v=4,Best Diapers,https://www.bestdiapers.net/?pos=17&kwd=baby diapers&tags=A||||8717.056|Price|product|||TS|rsf:gd-|-stype:attr=1|qr_nm:gd|res:RC4|com-cf:nl|ptrs:na|ktp:N0|mc:4167|mtp:S|qry_typ:P|lang:en|wc:2|cs:8786|v=4,False,Tata Colony,Salem,"591/3 Pillayar Nagar Siddharkoil Main Road Pillayar Nagar, Siddhar Koil Main Road, Tata Colony, Salem - 636005, Dist.Salem, Tamil Nadu",7942703611,
Cotton Baby Diaper Xl Size,https://www.indiamart.com/proddetail/baby-diaper-xl-size-2854373953397.html?pos=18&kwd=baby diapers&tags=A||||8584.299|Price|product|||TS|rsf:gd-|-stype:attr=1|qr_nm:gd|res:RC4|com-cf:nl|ptrs:na|ktp:N0|mc:4167|mtp:S|qry_typ:P|lang:en|wc:2|cs:8786|v=4,Enora Naturals Enterprises,https://www.enoranaturals.co.in/?pos=18&kwd=baby diapers&tags=A||||8584.299|Price|product|||TS|rsf:gd-|-stype:attr=1|qr_nm:gd|res:RC4|com-cf:nl|ptrs:na|ktp:N0|mc:4167|mtp:S|qry_typ:P|lang:en|wc:2|cs:8786|v=4,False,Velandi Palayam,Coimbatore,"6b, Karuppakonar Street, Kovilmedu, Kovai Corporation, Velandi Palayam, Velandi Palayam, Coimbatore - 641025, Dist.Coimbatore, Tamil Nadu",8044010068,
"Disposable Baby Diapers, Age Group: Newly Born, Size: Medium",https://www.indiamart.com/proddetail/disposable-baby-diapers-2852420240373.html?pos=19&kwd=baby diapers&tags=A||||8038.093|Price|product|||SSnp|rsf:gd-|-stype:attr=1|qr_nm:gd|res:RC4|com-cf:nl|ptrs:na|ktp:N0|mc:4167|mtp:S|qry_typ:P|lang:en|wc:2|cs:8786|v=4,Glowlyf Tradelink Private Limited,https://www.indiamart.com/glowlyftradelinkprivatelimited/?pos=19&kwd=baby diapers&tags=A||||8038.093|Price|product|||SSnp|rsf:gd-|-stype:attr=1|qr_nm:gd|res:RC4|com-cf:nl|ptrs:na|ktp:N0|mc:4167|mtp:S|qry_typ:P|lang:en|wc:2|cs:8786|v=4,False,GIDC,Rajkot,"Gidc 2, Plot No 136, Opp. R M Steel, Aji Industrial Estate, Rajkot Industrial Area Dhamalpar, GIDC, Rajkot - 360003, Dist.Rajkot, Gujarat",7942711689,
Nonwoven Premium Baby Diapers,,Yogesari Enterprises,https://www.indiamart.com/yogesari-enterprises/?pos=20&kwd=baby diapers&tags=A||||8559.269|Price|product|||TS|rsf:gd-|-stype:attr=1|qr_nm:gd|res:RC4|com-cf:nl|ptrs:na|ktp:N0|mc:4167|mtp:S|qry_typ:P|lang:en|wc:2|cs:8786|v=4,False,Bhagirathpura,Indore,"1122/3, Bhagirath Pura, Bhagirathpura, Indore - 452003, Dist.Indore, Madhya Pradesh",7942786651,
BEBE Baby Diapers - Medium,https://www.indiamart.com/proddetail/bebe-baby-diapers-medium-2852422421155.html?pos=21&kwd=baby diapers&tags=A||||8954.051|Price|product|||TS|rsf:gd-|-stype:attr=1|qr_nm:gd|res:RC4|com-cf:nl|ptrs:na|ktp:N0|mc:4167|mtp:S|qry_typ:P|lang:en|wc:2|cs:8786|v=4,Immanlyn Old Age Traders,https://www.immanlyn.in/?pos=21&kwd=baby diapers&tags=A||||8954.051|Price|product|||TS|rsf:gd-|-stype:attr=1|qr_nm:gd|res:RC4|com-cf:nl|ptrs:na|ktp:N0|mc:4167|mtp:S|qry_typ:P|lang:en|wc:2|cs:8786|v=4,False,T Nagar,Chennai,"Old No 6 New No 15, Saravana Street, T Nagar, T Nagar, Chennai - 600017, Dist.Chennai, Tamil Nadu",8046053387,
"Cotton Grade B Baby Diapers XL Size, Medium",https://www.indiamart.com/proddetail/grade-b-baby-diapers-xl-size-2853301273130.html?pos=22&kwd=baby diapers&tags=A||||8559.269|Price|product|||SSnp|rsf:gd-|-stype:attr=1|qr_nm:gd|res:RC4|com-cf:nl|ptrs:na|ktp:N0|mc:4167|mtp:S|qry_typ:P|lang:en|wc:2|cs:8786|v=4,Pulkit Enterprises,https://www.indiamart.com/pulkitenterprises-indor/?pos=22&kwd=baby diapers&tags=A||||8559.269|Price|product|||SSnp|rsf:gd-|-stype:attr=1|qr_nm:gd|res:RC4|com-cf:nl|ptrs:na|ktp:N0|mc:4167|mtp:S|qry_typ:P|lang:en|wc:2|cs:8786|v=4,False,,Indore,"505, Kalpana Apartment, 1, 7,South Tukoganj, Indore - 452001, Dist.Indore, Madhya Pradesh",8048961141,
"Plain Mommy Care Baby Diapers Pants Small Size, Packaging Size: 58",https://www.indiamart.com/proddetail/mommy-care-baby-diapers-pants-small-size-2851655485748.html?pos=23&kwd=baby diapers&tags=A||||8228.275|Price|product|||TS|rsf:gd-|-stype:attr=1|qr_nm:gd|res:RC4|com-cf:nl|ptrs:na|ktp:N0|mc:4167|mtp:S|qry_typ:P|lang:en|wc:2|cs:8786|v=4,Four40 Healthcare Private Limited,https://www.indiamart.com/four40-healthcare/?pos=23&kwd=baby diapers&tags=A||||8228.275|Price|product|||TS|rsf:gd-|-stype:attr=1|qr_nm:gd|res:RC4|com-cf:nl|ptrs:na|ktp:N0|mc:4167|mtp:S|qry_typ:P|lang:en|wc:2|cs:8786|v=4,False,Siddhapur,Ahmedabad,"401, Ashmaan Complex B/h Ganesh Plaza,, Siddhapur, Ahmedabad - 380013, Dist.Ahmedabad, Gujarat",7942843388,
Medium Size Baby Diaper,https://www.indiamart.com/proddetail/medium-size-baby-diaper-2852825211933.html?pos=24&kwd=baby diapers&tags=A||||8482.679|Price|product|||TS|rsf:gd-|-stype:attr=1|qr_nm:gd|res:RC4|com-cf:nl|ptrs:na|ktp:N0|mc:4167|mtp:S|qry_typ:P|lang:en|wc:2|cs:8786|v=4,On The Spot Infra.,https://www.indiamart.com/onthe-spotinfra/?pos=24&kwd=baby diapers&tags=A||||8482.679|Price|product|||TS|rsf:gd-|-stype:attr=1|qr_nm:gd|res:RC4|com-cf:nl|ptrs:na|ktp:N0|mc:4167|mtp:S|qry_typ:P|lang:en|wc:2|cs:8786|v=4,False,Bangrod,Ratlam,"Bangrod, Bangrod, Ratlam - 457001, Dist.Ratlam, Madhya Pradesh",7942559398,
Disposable Baby Diapers,https://www.indiamart.com/proddetail/disposable-baby-diapers-2853717099291.html?pos=25&kwd=baby diapers&tags=A||||8752.144|Price|product|||SSnp|rsf:gd-|-stype:attr=1|qr_nm:gd|res:RC4|com-cf:nl|ptrs:na|ktp:N0|mc:4167|mtp:S|qry_typ:P|lang:en|wc:2|cs:8786|v=4,Sri Rajbhan Enterprises,https://www.indiamart.com/srirajbhanenterprises/?pos=25&kwd=baby diapers&tags=A||||8752.144|Price|product|||SSnp|rsf:gd-|-stype:attr=1|qr_nm:gd|res:RC4|com-cf:nl|ptrs:na|ktp:N0|mc:4167|mtp:S|qry_typ:P|lang:en|wc:2|cs:8786|v=4,False,,New Delhi,"Flat No 18, Ganga Apartment, Alaknanda, New Delhi - 110019, Dist.Delhi, Delhi",7942956951,
"Pant Diapers 7 Soft Baby Diapers , Small Medium Large Xl",https://www.indiamart.com/proddetail/7-soft-baby-diapers-25478953933.html?pos=26&kwd=baby diapers&tags=A||||8281.036|Price|product|||TS|rsf:gd-|-stype:attr=1|qr_nm:gd|res:RC4|com-cf:nl|ptrs:na|ktp:N0|mc:4167|mtp:S|qry_typ:P|lang:en|wc:2|cs:8786|v=4,Novelty Hosiery,https://www.indiamart.com/novelty-hosiery/?pos=26&kwd=baby diapers&tags=A||||8281.036|Price|product|||TS|rsf:gd-|-stype:attr=1|qr_nm:gd|res:RC4|com-cf:nl|ptrs:na|ktp:N0|mc:4167|mtp:S|qry_typ:P|lang:en|wc:2|cs:8786|v=4,False,Chokshi Bazar,Vadodara,"M G Road 00 Laheripura Gate Nr Angadiya Gali, Chokshi Bazar, Vadodara - 390001, Dist.Vadodara, Gujarat",7942565948,
Baby Diapers 75 Pice,https://www.indiamart.com/proddetail/baby-diapers-75-pice-2853170230333.html?pos=27&kwd=baby diapers&tags=A||||8752.144|Price|product|||TS|rsf:gd-|-stype:attr=1|qr_nm:gd|res:RC4|com-cf:nl|ptrs:na|ktp:N0|mc:4167|mtp:S|qry_typ:P|lang:en|wc:2|cs:8786|v=4,MSND Manufacturing,https://www.indiamart.com/msnd-manufacturing/?pos=27&kwd=baby diapers&tags=A||||8752.144|Price|product|||TS|rsf:gd-|-stype:attr=1|qr_nm:gd|res:RC4|com-cf:nl|ptrs:na|ktp:N0|mc:4167|mtp:S|qry_typ:P|lang:en|wc:2|cs:8786|v=4,False,Mandoli,New Delhi,"Ground Floor at C-2/80, floor-Kh. No. 34/1/1, G/F, Gali No.2, Harsh Vihar,, Mandoli, New Delhi - 110093, Dist.Delhi, Delhi",8046032266,
"Soft Baby Diaper, Age Group: 12 kgs, Size: L",https://www.indiamart.com/proddetail/soft-baby-diaper-2851732057691.html?pos=28&kwd=baby diapers&tags=A||||8230.883|Price|product|||SSnp|rsf:gd-|-stype:attr=1|qr_nm:gd|res:RC4|com-cf:nl|ptrs:na|ktp:N0|mc:4167|mtp:S|qry_typ:P|lang:en|wc:2|cs:8786|v=4,VR Hygiene Care,https://www.indiamart.com/vrhygienecare/?pos=28&kwd=baby diapers&tags=A||||8230.883|Price|product|||SSnp|rsf:gd-|-stype:attr=1|qr_nm:gd|res:RC4|com-cf:nl|ptrs:na|ktp:N0|mc:4167|mtp:S|qry_typ:P|lang:en|wc:2|cs:8786|v=4,False,Saniya Hemad,Surat,"A-12, Subham Ind.-1, Saniya Hemad, Saniya Hemad, Surat - 395006, Dist.Surat, Gujarat",8048969848,
Cotton Baby Diapers Large Size 9-14 KG,https://www.indiamart.com/proddetail/baby-diapers-large-size-9-14-kg-2854884830748.html?pos=29&kwd=baby diapers&tags=A||||8228.275|Price|product|||SSnp|rsf:gd-|-stype:attr=1|qr_nm:gd|res:RC4|com-cf:nl|ptrs:na|ktp:N0|mc:4167|mtp:S|qry_typ:P|lang:en|wc:2|cs:8786|v=4,Patoliya Exports Private Limited,https://www.indiamart.com/patoliya-exports-ahmedabad/?pos=29&kwd=baby diapers&tags=A||||8228.275|Price|product|||SSnp|rsf:gd-|-stype:attr=1|qr_nm:gd|res:RC4|com-cf:nl|ptrs:na|ktp:N0|mc:4167|mtp:S|qry_typ:P|lang:en|wc:2|cs:8786|v=4,False,OPP GVMM,Ahmedabad,"B-62, Bileshwar Industrial Estate, OPP GVMM, Ahmedabad - 382415, Dist.Ahmedabad, Gujarat",8044458925,
"Bella Happy Baby Diapers Medium 80 Pcs, Age Group: 3-5 Years",https://www.indiamart.com/proddetail/bella-happy-baby-diapers-medium-80-pcs-27627254148.html?pos=30&kwd=baby diapers&tags=A||||8663.873|Price|product|||LSnp|rsf:gd-|-stype:attr=1|qr_nm:gd|res:RC4|com-cf:nl|ptrs:na|ktp:N0|mc:4167|mtp:S|qry_typ:P|lang:en|wc:2|cs:8786|v=4,TZMO India South Private Limited,https://www.indiamart.com/tzmoindiasouth/?pos=30&kwd=baby diapers&tags=A||||8663.873|Price|product|||LSnp|rsf:gd-|-stype:attr=1|qr_nm:gd|res:RC4|com-cf:nl|ptrs:na|ktp:N0|mc:4167|mtp:S|qry_typ:P|lang:en|wc:2|cs:8786|v=4,False,New Timber Yard Layout,Bengaluru,"No.2, 1st Floor, Featherlite Building, Mysore Road, New Timber Yard Layout, New Timber Yard Layout, Bengaluru - 560026, Dist.Bengaluru, Karnataka",8048619127,
"7 SOFT BABY DIAPER PANTS -M (34 PCS.), Packaging Size: Medium",https://www.indiamart.com/proddetail/7-soft-baby-diaper-pants-m-34-pcs-2852296912712.html?pos=31&kwd=baby diapers&tags=A||||8782.67|Price|product|||TS|rsf:gd-|-stype:attr=1|qr_nm:gd|res:RC4|com-cf:nl|ptrs:na|ktp:N0|mc:4167|mtp:S|qry_typ:P|lang:en|wc:2|cs:8786|v=4,Medisky Surgicals,https://www.indiamart.com/medisky-surgicals/?pos=31&kwd=baby diapers&tags=A||||8782.67|Price|product|||TS|rsf:gd-|-stype:attr=1|qr_nm:gd|res:RC4|com-cf:nl|ptrs:na|ktp:N0|mc:4167|mtp:S|qry_typ:P|lang:en|wc:2|cs:8786|v=4,False,Uchipuli,Ramanathapuram,"12/2865-30, Pattinamkathan, Madurai Rameshwaram Road, Achchundanvayal, Uchipuli, Ramanathapuram - 623502, Dist.Ramanathapuram, Tamil Nadu",7942960183,
"Million Disposable Baby Diapers Pants XXXL, Size: Newly Born to XL",https://www.indiamart.com/proddetail/million-disposable-baby-diapers-pants-xxxl-21733072212.html?pos=32&kwd=baby diapers&tags=A||||8559.269|Price|product|||TS|rsf:gd-|-stype:attr=1|qr_nm:gd|res:RC4|com-cf:nl|ptrs:na|ktp:N0|mc:4167|mtp:S|qry_typ:P|lang:en|wc:2|cs:8786|v=4,AL Arhan Trading Company,https://www.indiamart.com/al-arhan-trading-company/?pos=32&kwd=baby diapers&tags=A||||8559.269|Price|product|||TS|rsf:gd-|-stype:attr=1|qr_nm:gd|res:RC4|com-cf:nl|ptrs:na|ktp:N0|mc:4167|mtp:S|qry_typ:P|lang:en|wc:2|cs:8786|v=4,False,Nandlalpura,Indore,"380, Sector B, Chandan Nagar Ground Floor, Nandlalpura, Indore - 452002, Dist.Indore, Madhya Pradesh",8047635284,
"Cotton Baby Diaper Pants, Packaging Size: 5 Pcs",https://www.indiamart.com/proddetail/baby-diaper-pants-13281957491.html?pos=33&kwd=baby diapers&tags=A||||8559.269|Price|product|||SSnp|rsf:gd-|-stype:attr=1|qr_nm:gd|res:RC4|com-cf:nl|ptrs:na|ktp:N0|mc:4167|mtp:S|qry_typ:P|lang:en|wc:2|cs:8786|v=4,Madhav Overseas Corporation,https://www.madhavoverseascorporation.net/?pos=33&kwd=baby diapers&tags=A||||8559.269|Price|product|||SSnp|rsf:gd-|-stype:attr=1|qr_nm:gd|res:RC4|com-cf:nl|ptrs:na|ktp:N0|mc:4167|mtp:S|qry_typ:P|lang:en|wc:2|cs:8786|v=4,False,Atal Khel Parisar Main Road,Indore,"Madhav Corporate Scheme No 78 , Sector D ,Plot No 4,, Atal Khel Parisar Main Road, Indore - 452010, Dist.Indore, Madhya Pradesh",8048980263,
Teddy Baby easy Diaper Pants,https://www.indiamart.com/proddetail/teddy-baby-easy-diaper-pants-2852520375291.html?pos=34&kwd=baby diapers&tags=A||||8899.625|Price|product|||TS|rsf:gd-|-stype:attr=1|qr_nm:gd|res:RC4|com-cf:nl|ptrs:na|ktp:N0|mc:4167|mtp:S|qry_typ:P|lang:en|wc:2|cs:8786|v=4,Sri Goutham Surgicals,https://www.indiamart.com/sri-goutham-surgicals/?pos=34&kwd=baby diapers&tags=A||||8899.625|Price|product|||TS|rsf:gd-|-stype:attr=1|qr_nm:gd|res:RC4|com-cf:nl|ptrs:na|ktp:N0|mc:4167|mtp:S|qry_typ:P|lang:en|wc:2|cs:8786|v=4,False,Heritage Town,Pondicherry,"First Floor 156, Ambalathadayar Madam Street Kosakadi Street, Heritage Town, Pondicherry - 605001, Dist.Pondicherry, Pondicherry",7942799905,
Cotton Bebe Baby Diaper - Premature,https://www.indiamart.com/proddetail/bebe-baby-diaper-premature-2852386252455.html?pos=35&kwd=baby diapers&tags=A||||8954.051|Price|product|||TS|rsf:gd-|-stype:attr=1|qr_nm:gd|res:RC4|com-cf:nl|ptrs:na|ktp:N0|mc:4167|mtp:S|qry_typ:P|lang:en|wc:2|cs:8786|v=4,Realcare Hygienic Products Private Limited,https://www.realcarefmcg.com/?pos=35&kwd=baby diapers&tags=A||||8954.051|Price|product|||TS|rsf:gd-|-stype:attr=1|qr_nm:gd|res:RC4|com-cf:nl|ptrs:na|ktp:N0|mc:4167|mtp:S|qry_typ:P|lang:en|wc:2|cs:8786|v=4,False,Sidco Industrial Estate,Chennai,"No 69 C, Sidco Industrial Estate, 12th Street, Ambattur, Sidco Industrial Estate, Chennai - 600098, Dist.Chennai, Tamil Nadu",8046064437,
"Disposable Smart Care Baby Diaper Large 5 Pcs Pack, Age Group: 1-2 Years",https://www.indiamart.com/proddetail/smart-care-baby-diaper-large-5-pcs-pack-4531113012.html?pos=36&kwd=baby diapers&tags=A||||8559.269|Price|product|||TS|rsf:gd-|-stype:attr=1|qr_nm:gd|res:RC4|com-cf:nl|ptrs:na|ktp:N0|mc:4167|mtp:S|qry_typ:P|lang:en|wc:2|cs:8786|v=4,Saify Traders,https://www.saifygroup.com/?pos=36&kwd=baby diapers&tags=A||||8559.269|Price|product|||TS|rsf:gd-|-stype:attr=1|qr_nm:gd|res:RC4|com-cf:nl|ptrs:na|ktp:N0|mc:4167|mtp:S|qry_typ:P|lang:en|wc:2|cs:8786|v=4,False,Gadi Adda,Indore,"14/1 - Gali No.1 Dawa Bazaar R.N.T Marg, Gadi Adda, Indore - 452001, Dist.Indore, Madhya Pradesh",8048967969,
White Printed Disposable Baby Diaper,https://www.indiamart.com/proddetail/disposable-baby-diaper-21046372562.html?pos=37&kwd=baby diapers&tags=A||||8778.123|Price|product|||TS|rsf:gd-|-stype:attr=1|qr_nm:gd|res:RC4|com-cf:nl|ptrs:na|ktp:N0|mc:4167|mtp:S|qry_typ:P|lang:en|wc:2|cs:8786|v=4,Samyak Hygiene Care Private Limited,https://www.indiamart.com/samyakhygienecare/?pos=37&kwd=baby diapers&tags=A||||8778.123|Price|product|||TS|rsf:gd-|-stype:attr=1|qr_nm:gd|res:RC4|com-cf:nl|ptrs:na|ktp:N0|mc:4167|mtp:S|qry_typ:P|lang:en|wc:2|cs:8786|v=4,False,Ward No 11,Noida,"Plot No. 1782, Chatanga Road, Jewar, Guttam Bhudi Nagar, Ward No 11, Noida - 203135, Dist.Gautam Budh Nagar, Uttar Pradesh",8047640159,
"Disposable Tape Style Baby Diaper, Packaging Size: In Loose",https://www.indiamart.com/proddetail/tape-style-baby-diaper-23242315591.html?pos=38&kwd=baby diapers&tags=A||||9839.57|Price|product|||TS|rsf:gd-|-stype:attr=1|qr_nm:gd|res:RC4|com-cf:nl|ptrs:na|ktp:N0|mc:4167|mtp:S|qry_typ:P|lang:en|wc:2|cs:8786|v=4,Solace Group Of Companies,https://www.indiamart.com/solace-group-of-companies/?pos=38&kwd=baby diapers&tags=A||||9839.57|Price|product|||TS|rsf:gd-|-stype:attr=1|qr_nm:gd|res:RC4|com-cf:nl|ptrs:na|ktp:N0|mc:4167|mtp:S|qry_typ:P|lang:en|wc:2|cs:8786|v=4,False,Kulia,Kolkata,"95/D-2, Basundhara, Chingrighata, 3rd Floor Canal South Road, Kulia, Kolkata - 700105, Dist.Kolkata, West Bengal",8046057508,
"Kids Cloth Diapers, Size: Medium, Age Group: 0 to 24",https://www.indiamart.com/proddetail/kids-cloth-diapers-24926317162.html?pos=39&kwd=baby diapers&tags=A||||8752.144|Price|product|||TS|rsf:gd-|-stype:attr=1|qr_nm:gd|res:RC4|com-cf:nl|ptrs:na|ktp:N0|mc:4167|mtp:S|qry_typ:P|lang:en|wc:2|cs:8786|v=4,R B Enterprises,https://www.indiamart.com/rbenterpriseskondalinewdelhi/?pos=39&kwd=baby diapers&tags=A||||8752.144|Price|product|||TS|rsf:gd-|-stype:attr=1|qr_nm:gd|res:RC4|com-cf:nl|ptrs:na|ktp:N0|mc:4167|mtp:S|qry_typ:P|lang:en|wc:2|cs:8786|v=4,False,Gharoli,New Delhi,"Ground, 58 F/F/R/S Brahman Basti, Kondli Main Road, Kondli Gharoli,, Gharoli, New Delhi - 110094, Dist.Delhi, Delhi",7942535965,
Printed Large Size A Grade Primium Quality Baby Diaper Pant Style,https://www.indiamart.com/proddetail/large-size-a-grade-primium-quality-baby-diaper-pant-style-2851622960591.html?pos=40&kwd=baby diapers&tags=A||||8559.269|Price|product|||TS|rsf:gd-|-stype:attr=1|qr_nm:gd|res:RC4|com-cf:nl|ptrs:na|ktp:N0|mc:4167|mtp:S|qry_typ:P|lang:en|wc:2|cs:8786|v=4,ITO Healthcare Private Limited,https://www.indiamart.com/itohealthcare-madhyapradesh/?pos=40&kwd=baby diapers&tags=A||||8559.269|Price|product|||TS|rsf:gd-|-stype:attr=1|qr_nm:gd|res:RC4|com-cf:nl|ptrs:na|ktp:N0|mc:4167|mtp:S|qry_typ:P|lang:en|wc:2|cs:8786|v=4,False,Manglaya Sadak,Indore,"558 Talawali Chanda Panchvati Colony, Manglaya Sadak, Indore - 453771, Dist.Indore, Madhya Pradesh",7942956583,
"Baby Diaper Loose, Age Group: 3to12 Months",https://www.indiamart.com/proddetail/baby-diaper-loose-21612618388.html?pos=41&kwd=baby diapers&tags=A||||9870.655|Price|product|||SSnp|rsf:gd-|-stype:attr=1|qr_nm:gd|res:RC4|com-cf:nl|ptrs:na|ktp:N0|mc:4167|mtp:S|qry_typ:P|lang:en|wc:2|cs:8786|v=4,Bengal Feminine Care,https://www.indiamart.com/bengal-feminine-care/?pos=41&kwd=baby diapers&tags=A||||9870.655|Price|product|||SSnp|rsf:gd-|-stype:attr=1|qr_nm:gd|res:RC4|com-cf:nl|ptrs:na|ktp:N0|mc:4167|mtp:S|qry_typ:P|lang:en|wc:2|cs:8786|v=4,False,Barasat,Habra,"Habra, No. 2 ,Railway Gate, District North 24 Parganas, Barasat, Habra - 743263, Dist.North 24 Parganas, West Bengal",8046062955,
"White Cotton Disposable Baby Diapers, Size: Medium",https://www.indiamart.com/proddetail/cotton-disposable-baby-diapers-2851980183073.html?pos=42&kwd=baby diapers&tags=A||||9501.713|Price|product|||TS|rsf:gd-|-stype:attr=1|qr_nm:gd|res:RC4|com-cf:nl|ptrs:na|ktp:N0|mc:4167|mtp:S|qry_typ:P|lang:en|wc:2|cs:8786|v=4,No.1 Health Care,https://www.indiamart.com/no1-healthcare/?pos=42&kwd=baby diapers&tags=A||||9501.713|Price|product|||TS|rsf:gd-|-stype:attr=1|qr_nm:gd|res:RC4|com-cf:nl|ptrs:na|ktp:N0|mc:4167|mtp:S|qry_typ:P|lang:en|wc:2|cs:8786|v=4,False,Musahri,Motihari,"Baluwa,Malahi Panchbalua,Paharpur,Purbi Champaran, Musahri, Motihari - 845422, Dist.East Champaran, Bihar",8048981915,
Stay Sure Baby Diaper,https://www.indiamart.com/proddetail/stay-sure-baby-diaper-15023739562.html?pos=43&kwd=baby diapers&tags=A||||8307.81|Price|product|||TS|rsf:gd-|-stype:attr=1|qr_nm:gd|res:RC4|com-cf:nl|ptrs:na|ktp:N0|mc:4167|mtp:S|qry_typ:P|lang:en|wc:2|cs:8786|v=4,Eternis Hygiene Products,https://www.indiamart.com/eternis-hygiene-products/?pos=43&kwd=baby diapers&tags=A||||8307.81|Price|product|||TS|rsf:gd-|-stype:attr=1|qr_nm:gd|res:RC4|com-cf:nl|ptrs:na|ktp:N0|mc:4167|mtp:S|qry_typ:P|lang:en|wc:2|cs:8786|v=4,False,Kharabwadi,Pune,"Plot No. 5, Gat No. 357/95 Waghjai Nagar, Kharabwadi, Chakan, Khed, Kharabwadi, Pune - 410501, Dist.Pune, Maharashtra",8046042766,
Reusable Baby Cloth Diapers,https://www.indiamart.com/proddetail/reusable-baby-cloth-diapers-2853426200762.html?pos=44&kwd=baby diapers&tags=A||||8662.111|Price|product|||TS|rsf:gd-|-stype:attr=1|qr_nm:gd|res:RC4|com-cf:nl|ptrs:na|ktp:N0|mc:4167|mtp:S|qry_typ:P|lang:en|wc:2|cs:8786|v=4,Rovee Garments,https://www.indiamart.com/rovee-garments/?pos=44&kwd=baby diapers&tags=A||||8662.111|Price|product|||TS|rsf:gd-|-stype:attr=1|qr_nm:gd|res:RC4|com-cf:nl|ptrs:na|ktp:N0|mc:4167|mtp:S|qry_typ:P|lang:en|wc:2|cs:8786|v=4,False,State Bank Colony,Tirunelveli,"70, State Bank Colony, Ezhil Nagar, Ngo A Colony, State Bank Colony, Tirunelveli - 627007, Dist.Tirunelveli, Tamil Nadu",7942840922,
"Plain Baby Diaper Pants, Size: Large",https://www.indiamart.com/proddetail/baby-diaper-pants-2850158716148.html?pos=45&kwd=baby diapers&tags=A||||8752.144|Price|product|||TS|rsf:gd-|-stype:attr=1|qr_nm:gd|res:RC4|com-cf:nl|ptrs:na|ktp:N0|mc:4167|mtp:S|qry_typ:P|lang:en|wc:2|cs:8786|v=4,Royal Rose International,https://www.indiamart.com/royal-rose-international/?pos=45&kwd=baby diapers&tags=A||||8752.144|Price|product|||TS|rsf:gd-|-stype:attr=1|qr_nm:gd|res:RC4|com-cf:nl|ptrs:na|ktp:N0|mc:4167|mtp:S|qry_typ:P|lang:en|wc:2|cs:8786|v=4,False,Rajindra Place,New Delhi,"27, Ground Floor, Rajindra Park, Pusa Road, Rajindra Place, New Delhi - 110060, Dist.Delhi, Delhi",8047619163,
Bamboo Nature Baby Diaper,https://www.indiamart.com/proddetail/bamboo-nature-baby-diaper-2852895364233.html?pos=46&kwd=baby diapers&tags=A||||8211.142|Price|product|||TS|rsf:gd-|-stype:attr=1|qr_nm:gd|res:RC4|com-cf:nl|ptrs:na|ktp:N0|mc:4167|mtp:S|qry_typ:P|lang:en|wc:2|cs:8786|v=4,Mabel The Fashion Hub,https://www.mabelbabies.com/?pos=46&kwd=baby diapers&tags=A||||8211.142|Price|product|||TS|rsf:gd-|-stype:attr=1|qr_nm:gd|res:RC4|com-cf:nl|ptrs:na|ktp:N0|mc:4167|mtp:S|qry_typ:P|lang:en|wc:2|cs:8786|v=4,False,Andheri East,Mumbai,"Shop No 1, Teresa Triumph Chs, J B Nagar, Andheri East, Mumbai - 400059, Dist.Mumbai, Maharashtra",8047635478,
"Disposable Baby Diapers, Age Group: 3to12 Months, Size: Small",https://www.indiamart.com/proddetail/disposable-baby-diapers-2854151446312.html?pos=47&kwd=baby diapers&tags=A||||8228.275|Price|product|||TS|rsf:gd-|-stype:attr=1|qr_nm:gd|res:RC4|com-cf:nl|ptrs:na|ktp:N0|mc:4167|mtp:S|qry_typ:P|lang:en|wc:2|cs:8786|v=4,Shagun Enterprise,https://www.indiamart.com/shagun-enterpriseahmedabad/?pos=47&kwd=baby diapers&tags=A||||8228.275|Price|product|||TS|rsf:gd-|-stype:attr=1|qr_nm:gd|res:RC4|com-cf:nl|ptrs:na|ktp:N0|mc:4167|mtp:S|qry_typ:P|lang:en|wc:2|cs:8786|v=4,False,Saraspur,Ahmedabad,"4th Floor Block G, 415, City Center, NR Idgha Gate, NR Girdharnagar Bridge, Asarwa,, Saraspur, Ahmedabad - 380016, Dist.Ahmedabad, Gujarat",7949226972,
Baby Loose Diapers,https://www.indiamart.com/proddetail/baby-loose-diapers-2853351296612.html?pos=48&kwd=baby diapers&tags=A||||8211.142|Price|product|||TS|rsf:gd-|-stype:attr=1|qr_nm:gd|res:RC4|com-cf:nl|ptrs:na|ktp:N0|mc:4167|mtp:S|qry_typ:P|lang:en|wc:2|cs:8786|v=4,GBSS Enterprises,https://www.indiamart.com/gbss-enterprise/?pos=48&kwd=baby diapers&tags=A||||8211.142|Price|product|||TS|rsf:gd-|-stype:attr=1|qr_nm:gd|res:RC4|com-cf:nl|ptrs:na|ktp:N0|mc:4167|mtp:S|qry_typ:P|lang:en|wc:2|cs:8786|v=4,False,Kandivali West,Mumbai,"Sector-2, Plot No-202, Room No C-3, Sagar C.H.S.L, Charkop, Kandivali West, Charkhop, Kandivali West, Mumbai - 400067, Dist.Mumbai, Maharashtra",8047820540,
"Nonwoven Baby Diapers, Medium",https://www.indiamart.com/proddetail/baby-diapers-2852381933191.html?pos=49&kwd=baby diapers&tags=A||||8785.791|Price|product|||MDC|rsf:gd-|-stype:attr=1|qr_nm:gd|res:RC4|com-cf:nl|ptrs:na|ktp:N0|mc:4167|mtp:S|qry_typ:P|lang:en|wc:2|cs:8786|v=4,Rajput Enterprises,https://www.indiamart.com/rajputenterprises-uttarpradesh/?pos=49&kwd=baby diapers&tags=A||||8785.791|Price|product|||MDC|rsf:gd-|-stype:attr=1|qr_nm:gd|res:RC4|com-cf:nl|ptrs:na|ktp:N0|mc:4167|mtp:S|qry_typ:P|lang:en|wc:2|cs:8786|v=4,False,Vaishali,Ghaziabad,"5/598, Vaishali, Ghaziabad, Vaishali, Ghaziabad - 201019, Dist.Ghaziabad, Uttar Pradesh",7942800806,
"Kids Diaper, Small, Age Group: 3to12 Months",https://www.indiamart.com/proddetail/kids-diaper-2854774625830.html?pos=50&kwd=baby diapers&tags=A||||8752.144|Price|product|||MDC|rsf:gd-|-stype:attr=1|qr_nm:gd|res:RC4|com-cf:nl|ptrs:na|ktp:N0|mc:4167|mtp:S|qry_typ:P|lang:en|wc:2|cs:8786|v=4,Ayavic Products Enterprises,https://www.indiamart.com/ayavic-products-enterprises/?pos=50&kwd=baby diapers&tags=A||||8752.144|Price|product|||MDC|rsf:gd-|-stype:attr=1|qr_nm:gd|res:RC4|com-cf:nl|ptrs:na|ktp:N0|mc:4167|mtp:S|qry_typ:P|lang:en|wc:2|cs:8786|v=4,False,(West),New Delhi,"Ground Floor,H No. 169, Shop No.2, Uttam Nagar, Vipin Garden Extension, (West), New Delhi - 110059, Dist.Delhi, Delhi",8044564544,
"LILIPUT PREMIUM IMPORTED BABY DIAPER PANTS - 12-Hour Leak Protection, Medium",https://www.indiamart.com/proddetail/liliput-premium-imported-baby-diaper-pants-12-hour-leak-protection-2854587412988.html?pos=51&kwd=baby diapers&tags=A||||9110.092|Price|product|||MDC|rsf:gd-|-stype:attr=1|qr_nm:gd|res:RC4|com-cf:nl|ptrs:na|ktp:N0|mc:4167|mtp:S|qry_typ:P|lang:en|wc:2|cs:8786|v=4,Asian Hygiene,https://www.indiamart.com/asian-hygiene/?pos=51&kwd=baby diapers&tags=A||||9110.092|Price|product|||MDC|rsf:gd-|-stype:attr=1|qr_nm:gd|res:RC4|com-cf:nl|ptrs:na|ktp:N0|mc:4167|mtp:S|qry_typ:P|lang:en|wc:2|cs:8786|v=4,False,,Lucknow,"Shop No. 134, Kanpur Road, Transport Nagar,, Lucknow - 226012, Dist.Lucknow, Uttar Pradesh",7949330533,
"Plain Baby Pull Up Diapers, Size: Medium",https://www.indiamart.com/proddetail/baby-pull-up-diapers-2853884348030.html?pos=52&kwd=baby diapers&tags=A||||9110.092|Price|product|||MDC|rsf:gd-|-stype:attr=1|qr_nm:gd|res:RC4|com-cf:nl|ptrs:na|ktp:N0|mc:4167|mtp:S|qry_typ:P|lang:en|wc:2|cs:8786|v=4,King Import And Export,https://www.indiamart.com/kingimportexport/?pos=52&kwd=baby diapers&tags=A||||9110.092|Price|product|||MDC|rsf:gd-|-stype:attr=1|qr_nm:gd|res:RC4|com-cf:nl|ptrs:na|ktp:N0|mc:4167|mtp:S|qry_typ:P|lang:en|wc:2|cs:8786|v=4,False,Hind Nagar,Lucknow,"F-489, Lucknow Bypass, Parking No 9, Transport Nagar, Hind Nagar, Lucknow - 226012, Dist.Lucknow, Uttar Pradesh",7949086924,
Cotton M Size Premium Baby Diapers,https://www.indiamart.com/proddetail/m-size-premium-baby-diapers-2852704122755.html?pos=53&kwd=baby diapers&tags=A||||8601.347|Price|product|||MDC|rsf:gd-|-stype:attr=1|qr_nm:gd|res:RC4|com-cf:nl|ptrs:na|ktp:N0|mc:4167|mtp:S|qry_typ:P|lang:en|wc:2|cs:8786|v=4,Smilemax Hygiene Pvt. Ltd.,https://www.indiamart.com/smilemaxhygiene/?pos=53&kwd=baby diapers&tags=A||||8601.347|Price|product|||MDC|rsf:gd-|-stype:attr=1|qr_nm:gd|res:RC4|com-cf:nl|ptrs:na|ktp:N0|mc:4167|mtp:S|qry_typ:P|lang:en|wc:2|cs:8786|v=4,False,Ashok Nagar,Jaipur,"C-61A C-Scheme Sarojini Marg, Ashok Nagar, Jaipur - 302001, Dist.Jaipur, Rajasthan",7942711844,
"Printed Baby Pant Diaper 75pcs, Size: Medium",https://www.indiamart.com/proddetail/baby-pant-diaper-75pcs-2854225388797.html?pos=54&kwd=baby diapers&tags=A||||8316.457|Price|product|||MDC|rsf:gd-|-stype:attr=1|qr_nm:gd|res:RC4|com-cf:nl|ptrs:na|ktp:N0|mc:4167|mtp:S|qry_typ:P|lang:en|wc:2|cs:8786|v=4,Manavata Hygiene,https://www.indiamart.com/manavatahygiene/?pos=54&kwd=baby diapers&tags=A||||8316.457|Price|product|||MDC|rsf:gd-|-stype:attr=1|qr_nm:gd|res:RC4|com-cf:nl|ptrs:na|ktp:N0|mc:4167|mtp:S|qry_typ:P|lang:en|wc:2|cs:8786|v=4,False,Vadangli,Nashik,"Shri Kruoa Nagar, Maparwadu Road, Sinnar,, Vadangli, Nashik - 422103, Dist.Nashik, Maharashtra",8047544880,
Cotton XL Baby Diaper,https://www.indiamart.com/proddetail/xl-baby-diaper-2854914550062.html?pos=55&kwd=baby diapers&tags=A||||8767.829|Price|product|||MDC|rsf:gd-|-stype:attr=1|qr_nm:gd|res:RC4|com-cf:nl|ptrs:na|ktp:N0|mc:4167|mtp:S|qry_typ:P|lang:en|wc:2|cs:8786|v=4,RSG Healthcare,https://www.indiamart.com/rsg-healthcare/?pos=55&kwd=baby diapers&tags=A||||8767.829|Price|product|||MDC|rsf:gd-|-stype:attr=1|qr_nm:gd|res:RC4|com-cf:nl|ptrs:na|ktp:N0|mc:4167|mtp:S|qry_typ:P|lang:en|wc:2|cs:8786|v=4,False,,Palwal,"Khasra No 1501 Railway Station Road Patida Kirana Store, Shayam Nagar, Palwal - 121102, Dist.Palwal, Haryana",8041014767,
"Printed Baby Diaper Pants, Medium",https://www.indiamart.com/proddetail/baby-diaper-pants-2854458320055.html?pos=56&kwd=baby diapers&tags=A||||8559.269|Price|product|||MDC|rsf:gd-|-stype:attr=1|qr_nm:gd|res:RC4|com-cf:nl|ptrs:na|ktp:N0|mc:4167|mtp:S|qry_typ:P|lang:en|wc:2|cs:8786|v=4,H & H Construct,https://www.indiamart.com/hh-construct/?pos=56&kwd=baby diapers&tags=A||||8559.269|Price|product|||MDC|rsf:gd-|-stype:attr=1|qr_nm:gd|res:RC4|com-cf:nl|ptrs:na|ktp:N0|mc:4167|mtp:S|qry_typ:P|lang:en|wc:2|cs:8786|v=4,False,,Indore,"826,Scheme No-114,Part No-1, Indore - 452001, Dist.Indore, Madhya Pradesh",7949094380,
Bumtum Baby Diapers,https://www.indiamart.com/proddetail/bumtum-baby-diapers-2854231232962.html?pos=57&kwd=baby diapers&tags=A||||8739.675|Price|product|||MDC|rsf:gd-|-stype:attr=1|qr_nm:gd|res:RC4|com-cf:nl|ptrs:na|ktp:N0|mc:4167|mtp:S|qry_typ:P|lang:en|wc:2|cs:8786|v=4,Sneh Industry,https://www.indiamart.com/snehindustry/?pos=57&kwd=baby diapers&tags=A||||8739.675|Price|product|||MDC|rsf:gd-|-stype:attr=1|qr_nm:gd|res:RC4|com-cf:nl|ptrs:na|ktp:N0|mc:4167|mtp:S|qry_typ:P|lang:en|wc:2|cs:8786|v=4,False,Sultanpur,Amravati,"Near Gram Panchayat, Sultanpur, Revsa, Sultanpur, Amravati - 444801, Dist.Amravati, Maharashtra",7942784375,
"Cotton Printed White Disposable Baby Diapers Pant, Large",https://www.indiamart.com/proddetail/new-born-baby-disposable-baby-diapers-pant-2853037609991.html?pos=58&kwd=baby diapers&tags=A||||8785.791|Price|product|||MDC|rsf:gd-|-stype:attr=1|qr_nm:gd|res:RC4|com-cf:nl|ptrs:na|ktp:N0|mc:4167|mtp:S|qry_typ:P|lang:en|wc:2|cs:8786|v=4,Ghani Enterprises,https://www.indiamart.com/ghanienterprises/?pos=58&kwd=baby diapers&tags=A||||8785.791|Price|product|||MDC|rsf:gd-|-stype:attr=1|qr_nm:gd|res:RC4|com-cf:nl|ptrs:na|ktp:N0|mc:4167|mtp:S|qry_typ:P|lang:en|wc:2|cs:8786|v=4,False,,Ghaziabad,"House No-71 Chaman Colony, Islam Nagar, Ghaziabad - 201001, Dist.Ghaziabad, Uttar Pradesh",7942964362,
Cotton Carefor Baby Diaper Large,https://www.indiamart.com/proddetail/carefor-baby-diaper-large-14458537833.html?pos=59&kwd=baby diapers&tags=A||||8500.97|Price|product|||SSnp|rsf:gd-|-stype:attr=1|qr_nm:gd|res:RC4|com-cf:nl|ptrs:na|ktp:N0|mc:4167|mtp:S|qry_typ:P|lang:en|wc:2|cs:8786|v=4,Arambans Exporters Private Limited,https://www.indiamart.com/arambansexporters/?pos=59&kwd=baby diapers&tags=A||||8500.97|Price|product|||SSnp|rsf:gd-|-stype:attr=1|qr_nm:gd|res:RC4|com-cf:nl|ptrs:na|ktp:N0|mc:4167|mtp:S|qry_typ:P|lang:en|wc:2|cs:8786|v=4,False,Kuriachira,Thrissur,"Attokaran, TT Road, Kuriachira PO, Kuriachira, Thrissur - 680006, Dist.Thrissur, Kerala",8046058355,
"Printed Baby Diaper Pants, Packaging Size: Large",https://www.indiamart.com/proddetail/baby-diaper-pants-2853394783091.html?pos=60&kwd=baby diapers&tags=A||||8228.275|Price|product|||MDC|rsf:gd-|-stype:attr=1|qr_nm:gd|res:RC4|com-cf:nl|ptrs:na|ktp:N0|mc:4167|mtp:S|qry_typ:P|lang:en|wc:2|cs:8786|v=4,Ashok Sunderdas Jarwani,https://www.indiamart.com/ashoksunderdasjarwani/?pos=60&kwd=baby diapers&tags=A||||8228.275|Price|product|||MDC|rsf:gd-|-stype:attr=1|qr_nm:gd|res:RC4|com-cf:nl|ptrs:na|ktp:N0|mc:4167|mtp:S|qry_typ:P|lang:en|wc:2|cs:8786|v=4,False,Sardarnagar,Ahmedabad,"17, First Floor, Sardarnagar Main Road Rukmani Market, Sardarnagar, Ahmedabad - 382475, Dist.Ahmedabad, Gujarat",7942958384,
"EVELANCE Baby Dry Pants Small Size Bubble Care Premium Pants, for 4-8kg Baby Weight - S (72 Pieces)",https://www.indiamart.com/proddetail/evelance-baby-dry-pants-small-size-bubble-care-premium-pants-for-4-8kg-baby-weight-s-72-pieces-2854612413955.html?pos=61&kwd=baby diapers&tags=A||||8740.707|Price|product|||MDC|rsf:gd-|-stype:attr=1|qr_nm:gd|res:RC4|com-cf:nl|ptrs:na|ktp:N0|mc:4167|mtp:S|qry_typ:P|lang:en|wc:2|cs:8786|v=4,Parv Industries,https://www.indiamart.com/parvindustries-punjab/?pos=61&kwd=baby diapers&tags=A||||8740.707|Price|product|||MDC|rsf:gd-|-stype:attr=1|qr_nm:gd|res:RC4|com-cf:nl|ptrs:na|ktp:N0|mc:4167|mtp:S|qry_typ:P|lang:en|wc:2|cs:8786|v=4,False,,Sas Nagar,"34/2/2/2/2-1 8, Parv Industries, Pabhat, Zirakpur,, Sas Nagar - 140301, Dist.Mohali, Punjab",8044011342,
"Kids Disposable Diaper, Age Group: 1to2 Years",https://www.indiamart.com/proddetail/kids-disposable-diaper-2855085565697.html?pos=62&kwd=baby diapers&tags=A||||8626.744|Price|product|||MDC|rsf:gd-|-stype:attr=1|qr_nm:gd|res:RC4|com-cf:nl|ptrs:na|ktp:N0|mc:4167|mtp:S|qry_typ:P|lang:en|wc:2|cs:8786|v=4,Rich Plus Garment,https://www.indiamart.com/rich-plus-garment/?pos=62&kwd=baby diapers&tags=A||||8626.744|Price|product|||MDC|rsf:gd-|-stype:attr=1|qr_nm:gd|res:RC4|com-cf:nl|ptrs:na|ktp:N0|mc:4167|mtp:S|qry_typ:P|lang:en|wc:2|cs:8786|v=4,False,Rayapuram,Tiruppur,"22, 2/92 B Kumarappapuram 2nd Street, Rayapuram, Tiruppur - 641601, Dist.Coimbatore, Tamil Nadu",7949092088,
Cotton Baby Diaper Small,https://www.indiamart.com/proddetail/baby-diaper-small-2851872653233.html?pos=63&kwd=baby diapers&tags=A||||8830.388|Price|product|||MDC|rsf:gd-|-stype:attr=1|qr_nm:gd|res:RC4|com-cf:nl|ptrs:na|ktp:N0|mc:4167|mtp:S|qry_typ:P|lang:en|wc:2|cs:8786|v=4,Doubtfree Hygiene Care,https://www.indiamart.com/doubtfree-hygiene-care/?pos=63&kwd=baby diapers&tags=A||||8830.388|Price|product|||MDC|rsf:gd-|-stype:attr=1|qr_nm:gd|res:RC4|com-cf:nl|ptrs:na|ktp:N0|mc:4167|mtp:S|qry_typ:P|lang:en|wc:2|cs:8786|v=4,False,Purani Chhawani,Gwalior,"Plot No. 49/50, Block-3,Phase-1,Tiwari Farm House, Purani Chhawani, Gwalior - 474010, Dist.Gwalior, Madhya Pradesh",8047522800,
Baby Pant Diapers,https://www.indiamart.com/proddetail/baby-pant-diapers-2849772438997.html?pos=64&kwd=baby diapers&tags=A||||8211.142|Price|product|||MDC|rsf:gd-|-stype:attr=1|qr_nm:gd|res:RC4|com-cf:nl|ptrs:na|ktp:N0|mc:4167|mtp:S|qry_typ:P|lang:en|wc:2|cs:8786|v=4,Shri Sai Pharma,https://www.indiamart.com/shrisaipharma/?pos=64&kwd=baby diapers&tags=A||||8211.142|Price|product|||MDC|rsf:gd-|-stype:attr=1|qr_nm:gd|res:RC4|com-cf:nl|ptrs:na|ktp:N0|mc:4167|mtp:S|qry_typ:P|lang:en|wc:2|cs:8786|v=4,False,Sion,Mumbai,"No. 1 Building, 112, Ashok Nagar, Sion-Trombay Road Sion, Chunabhatti, Sion, Mumbai - 400022, Dist.Mumbai, Maharashtra",8046055538,
"Cotton Baby diaper, Small",https://www.indiamart.com/proddetail/baby-diaper-2854153337873.html?pos=65&kwd=baby diapers&tags=A||||8559.269|Price|product|||MDC|rsf:gd-|-stype:attr=1|qr_nm:gd|res:RC4|com-cf:nl|ptrs:na|ktp:N0|mc:4167|mtp:S|qry_typ:P|lang:en|wc:2|cs:8786|v=4,Macsona Industries,https://www.indiamart.com/macsonaindustries/?pos=65&kwd=baby diapers&tags=A||||8559.269|Price|product|||MDC|rsf:gd-|-stype:attr=1|qr_nm:gd|res:RC4|com-cf:nl|ptrs:na|ktp:N0|mc:4167|mtp:S|qry_typ:P|lang:en|wc:2|cs:8786|v=4,False,Bhagyashree Colony,Indore,"Scheme No 53, 36 Scheme N 53, Medanta Hospital, Bhagyashree Colony, Indore - 452010, Dist.Indore, Madhya Pradesh",7942825123,
Butties Cotton Baby Diaper Pants,https://www.indiamart.com/proddetail/butties-cotton-baby-diaper-pants-2854720085097.html?pos=66&kwd=baby diapers&tags=A||||8752.144|Price|product|||MDC|rsf:gd-|-stype:attr=1|qr_nm:gd|res:RC4|com-cf:nl|ptrs:na|ktp:N0|mc:4167|mtp:S|qry_typ:P|lang:en|wc:2|cs:8786|v=4,Siddiqui And Sons,https://www.indiamart.com/siddiqui-sons-northdelhi/?pos=66&kwd=baby diapers&tags=A||||8752.144|Price|product|||MDC|rsf:gd-|-stype:attr=1|qr_nm:gd|res:RC4|com-cf:nl|ptrs:na|ktp:N0|mc:4167|mtp:S|qry_typ:P|lang:en|wc:2|cs:8786|v=4,False,,New Delhi,"S/F, B-38, B- Block Gokal Puri, Near Post Office, North East Delhi,, New Delhi - 110094, Dist.Delhi, Delhi",7949324358,
"Cotton Baby Diapers Loose Diapers, Small",https://www.indiamart.com/proddetail/baby-diapers-loose-diapers-2855081771130.html?pos=67&kwd=baby diapers&tags=A||||8482.679|Price|product|||MDC|rsf:gd-|-stype:attr=1|qr_nm:gd|res:RC4|com-cf:nl|ptrs:na|ktp:N0|mc:4167|mtp:S|qry_typ:P|lang:en|wc:2|cs:8786|v=4,Shri Fashion,https://www.indiamart.com/shree-fashion-ratlam/?pos=67&kwd=baby diapers&tags=A||||8482.679|Price|product|||MDC|rsf:gd-|-stype:attr=1|qr_nm:gd|res:RC4|com-cf:nl|ptrs:na|ktp:N0|mc:4167|mtp:S|qry_typ:P|lang:en|wc:2|cs:8786|v=4,False,Dindayal nagar,Ratlam,"VIP NAGAR 73 NEAR SAI MANDIR NEAR DIN DAYAL NAGAR, Dindayal nagar, Ratlam - 457001, Dist.Ratlam, Madhya Pradesh",8048984778,
"Disposable Baby Diapers, Size: Medium",https://www.indiamart.com/proddetail/disposable-baby-diapers-2852401775762.html?pos=68&kwd=baby diapers&tags=A||||8830.079|Price|product|||MDC|rsf:gd-|-stype:attr=1|qr_nm:gd|res:RC4|com-cf:nl|ptrs:na|ktp:N0|mc:4167|mtp:S|qry_typ:P|lang:en|wc:2|cs:8786|v=4,Thara Traders Propx. Thara Senthilkumar,https://www.indiamart.com/thara-traders/?pos=68&kwd=baby diapers&tags=A||||8830.079|Price|product|||MDC|rsf:gd-|-stype:attr=1|qr_nm:gd|res:RC4|com-cf:nl|ptrs:na|ktp:N0|mc:4167|mtp:S|qry_typ:P|lang:en|wc:2|cs:8786|v=4,False,Sathuvachari,Vellore,"546/2 Nethajibose Main Road, Tnhb, Phase 3, Vallalar A.r.complex,1st Floor, Nethaji Bose Main Road, Sathuvachari, Vellore - 632009, Dist.Vellore, Tamil Nadu",8048605071,
"Cotton Softyhopps baby diaper size NB, Small",https://www.indiamart.com/proddetail/softyhopps-baby-diaper-size-nb-2854883423033.html?pos=69&kwd=baby diapers&tags=A||||9520.041|Price|product|||MDC|rsf:gd-|-stype:attr=1|qr_nm:gd|res:RC4|com-cf:nl|ptrs:na|ktp:N0|mc:4167|mtp:S|qry_typ:P|lang:en|wc:2|cs:8786|v=4,Navadurga Enterprises,https://www.indiamart.com/navadurga-enterprises-bihar/?pos=69&kwd=baby diapers&tags=A||||9520.041|Price|product|||MDC|rsf:gd-|-stype:attr=1|qr_nm:gd|res:RC4|com-cf:nl|ptrs:na|ktp:N0|mc:4167|mtp:S|qry_typ:P|lang:en|wc:2|cs:8786|v=4,False,Kumhrar,Patna,"2nd Floor, 2, C/O Pavitri Devi,2nd Floor,Behind Anupma Indane,Road No-2, Bhagwat Nagar Main Road, Kumhrar, Patna - 800026, Dist.Patna, Bihar",7949221509,
Baby Diapers,,A.Z.N Enterprises,https://www.indiamart.com/aznenterprisesdelhi/?pos=70&kwd=baby diapers&tags=A||||8752.144|Price|product|||MDC|rsf:gd-|-stype:attr=1|qr_nm:gd|res:RC4|com-cf:nl|ptrs:na|ktp:N0|mc:4167|mtp:S|qry_typ:P|lang:en|wc:2|cs:8786|v=4,False,Garhi Mendu,New Delhi,"T-233, Gali No.-3, Gautampuri, North East Delhi, Garhi Mendu, New Delhi - 110053, Dist.Delhi, Delhi",8044010599,
Cotton baby plain button diaper - BLUE,https://www.indiamart.com/proddetail/baby-plain-button-diaper-blue-2852489841088.html?pos=71&kwd=baby diapers&tags=A||||8752.144|Price|product|||TS|rsf:gd-|-stype:attr=1|qr_nm:gd|res:RC4|com-cf:nl|ptrs:na|ktp:N0|mc:4167|mtp:S|qry_typ:P|lang:en|wc:2|cs:8786|v=4,Ekta Overseas,https://www.indiamart.com/ektaoverseas-newdelhi/?pos=71&kwd=baby diapers&tags=A||||8752.144|Price|product|||TS|rsf:gd-|-stype:attr=1|qr_nm:gd|res:RC4|com-cf:nl|ptrs:na|ktp:N0|mc:4167|mtp:S|qry_typ:P|lang:en|wc:2|cs:8786|v=4,False,Shahdara,New Delhi,"1/95, Gali No.3, Near Navjeevan Phisical Center, Vishwas Nagar, Shahdara,, Shahdara, New Delhi - 110032, Dist.Delhi, Delhi",7942628926,
Cotton Loose Baby Diaper,https://www.indiamart.com/proddetail/loose-baby-diaper-2852993952112.html?pos=72&kwd=baby diapers&tags=A||||8723.301|Price|product|||MDC|rsf:gd-|-stype:attr=1|qr_nm:gd|res:RC4|com-cf:nl|ptrs:na|ktp:N0|mc:4167|mtp:S|qry_typ:P|lang:en|wc:2|cs:8786|v=4,SRV Group,https://www.indiamart.com/srv-group-bhopal/?pos=72&kwd=baby diapers&tags=A||||8723.301|Price|product|||MDC|rsf:gd-|-stype:attr=1|qr_nm:gd|res:RC4|com-cf:nl|ptrs:na|ktp:N0|mc:4167|mtp:S|qry_typ:P|lang:en|wc:2|cs:8786|v=4,False,Kolar Road,Bhopal,"Dk-2/243, Danish Kunj, Kolar Road,, Kolar Road, Bhopal - 462042, Dist.Bhopal, Madhya Pradesh",7942559830,
Baby Diapers 75 Pc,https://www.indiamart.com/proddetail/baby-diapers-75-pc-23564771797.html?pos=73&kwd=baby diapers&tags=A||||9839.57|Price|product|||TS|rsf:gd-|-stype:attr=1|qr_nm:gd|res:RC4|com-cf:nl|ptrs:na|ktp:N0|mc:4167|mtp:S|qry_typ:P|lang:en|wc:2|cs:8786|v=4,S.T.S. Traders,https://www.indiamart.com/sts-traders-kolkata/?pos=73&kwd=baby diapers&tags=A||||9839.57|Price|product|||TS|rsf:gd-|-stype:attr=1|qr_nm:gd|res:RC4|com-cf:nl|ptrs:na|ktp:N0|mc:4167|mtp:S|qry_typ:P|lang:en|wc:2|cs:8786|v=4,False,Gobra,Kolkata,"101- B Chittranjan Avenue 2nd Floor Flat No.3, Gobra, Kolkata - 700073, Dist.Kolkata, West Bengal",8048962268,
Novel Baby Diaper,https://www.indiamart.com/proddetail/novel-baby-diaper-25669256791.html?pos=74&kwd=baby diapers&tags=A||||8556.61|Price|product|||MDC|rsf:gd-|-stype:attr=1|qr_nm:gd|res:RC4|com-cf:nl|ptrs:na|ktp:N0|mc:4167|mtp:S|qry_typ:P|lang:en|wc:2|cs:8786|v=4,Novel Tissues Private Limited,https://www.indiamart.com/noveltissues/?pos=74&kwd=baby diapers&tags=A||||8556.61|Price|product|||MDC|rsf:gd-|-stype:attr=1|qr_nm:gd|res:RC4|com-cf:nl|ptrs:na|ktp:N0|mc:4167|mtp:S|qry_typ:P|lang:en|wc:2|cs:8786|v=4,False,Hootagalli,Mysore,"65A, KIADB Industrial Area, Hootagalli, Mysore - 570018, Dist.Mysuru, Karnataka",8047641097,
"Cotton 7 Soft Baby Diaper, XL",https://www.indiamart.com/proddetail/7-soft-baby-diaper-2854257721462.html?pos=75&kwd=baby diapers&tags=A||||8228.275|Price|product|||MDC|rsf:gd-|-stype:attr=1|qr_nm:gd|res:RC4|com-cf:nl|ptrs:na|ktp:N0|mc:4167|mtp:S|qry_typ:P|lang:en|wc:2|cs:8786|v=4,Shiv Enterprise,https://www.indiamart.com/shiv-enterprise-gujaratindia/?pos=75&kwd=baby diapers&tags=A||||8228.275|Price|product|||MDC|rsf:gd-|-stype:attr=1|qr_nm:gd|res:RC4|com-cf:nl|ptrs:na|ktp:N0|mc:4167|mtp:S|qry_typ:P|lang:en|wc:2|cs:8786|v=4,False,Nikol,Ahmedabad,"5, Raghuvirpark Vibhag -1, Opp.Swaminarayan Nagar, Nikol, Nikol, Ahmedabad - 382350, Dist.Ahmedabad, Gujarat",8044012558,
"Cotton Little Nappy Baby Diaper, Packaging Type: Packet",https://www.indiamart.com/proddetail/little-nappy-baby-diaper-19867421655.html?pos=76&kwd=baby diapers&tags=A||||8038.093|Price|product|||TS|rsf:gd-|-stype:attr=1|qr_nm:gd|res:RC4|com-cf:nl|ptrs:na|ktp:N0|mc:4167|mtp:S|qry_typ:P|lang:en|wc:2|cs:8786|v=4,BM Hygienecare LLP,https://www.bmhygienecare.com/?pos=76&kwd=baby diapers&tags=A||||8038.093|Price|product|||TS|rsf:gd-|-stype:attr=1|qr_nm:gd|res:RC4|com-cf:nl|ptrs:na|ktp:N0|mc:4167|mtp:S|qry_typ:P|lang:en|wc:2|cs:8786|v=4,False,Dhokaliya,Rajkot,"Madhapar Chowkdi Rajkot- Jamnagar Highway, Dhokaliya, Rajkot - 360007, Dist.Rajkot, Gujarat",8047642184,
Nonwoven Smilepad baby diaper,https://www.indiamart.com/proddetail/smilepad-baby-diaper-2851828873197.html?pos=77&kwd=baby diapers&tags=A||||8307.81|Price|product|||TS|rsf:gd-|-stype:attr=1|qr_nm:gd|res:RC4|com-cf:nl|ptrs:na|ktp:N0|mc:4167|mtp:S|qry_typ:P|lang:en|wc:2|cs:8786|v=4,SMILEPAD HYGIENE INDIA PVT. LTD.,https://www.indiamart.com/smilepadhygiene/?pos=77&kwd=baby diapers&tags=A||||8307.81|Price|product|||TS|rsf:gd-|-stype:attr=1|qr_nm:gd|res:RC4|com-cf:nl|ptrs:na|ktp:N0|mc:4167|mtp:S|qry_typ:P|lang:en|wc:2|cs:8786|v=4,False,Mohammed Wadi,Pune,"SR.NO.284/01 Bhadale Nagar Uruli Devachi, Mohammed Wadi, Pune - 411060, Dist.Pune, Maharashtra",8048601512,
Printed Baby Diaper Small Pant Style,https://www.indiamart.com/proddetail/baby-diaper-small-pant-style-2852778336697.html?pos=78&kwd=baby diapers&tags=A||||8752.144|Price|product|||TS|rsf:gd-|-stype:attr=1|qr_nm:gd|res:RC4|com-cf:nl|ptrs:na|ktp:N0|mc:4167|mtp:S|qry_typ:P|lang:en|wc:2|cs:8786|v=4,Creatwings Care Products LLP,https://www.indiamart.com/creatwingscare-products/?pos=78&kwd=baby diapers&tags=A||||8752.144|Price|product|||TS|rsf:gd-|-stype:attr=1|qr_nm:gd|res:RC4|com-cf:nl|ptrs:na|ktp:N0|mc:4167|mtp:S|qry_typ:P|lang:en|wc:2|cs:8786|v=4,False,Rohini Sector 15,New Delhi,"Flat No 122, Ground Floor, Bl K-F LIG Flats, Landmark Near Dr Lal Path Lab, Sec 18 Rohini, Rohini Sector 15, New Delhi - 110089, Dist.Delhi, Delhi",8043853586,
Nonwoven Baby Diaper Pants,https://www.indiamart.com/proddetail/baby-diaper-pants-2852729199248.html?pos=79&kwd=baby diapers&tags=A||||8228.275|Price|product|||TS|rsf:gd-|-stype:attr=1|qr_nm:gd|res:RC4|com-cf:nl|ptrs:na|ktp:N0|mc:4167|mtp:S|qry_typ:P|lang:en|wc:2|cs:8786|v=4,Akshaya Enterprise,https://www.indiamart.com/akshayaenterpriseahmedabad/?pos=79&kwd=baby diapers&tags=A||||8228.275|Price|product|||TS|rsf:gd-|-stype:attr=1|qr_nm:gd|res:RC4|com-cf:nl|ptrs:na|ktp:N0|mc:4167|mtp:S|qry_typ:P|lang:en|wc:2|cs:8786|v=4,False,Dudheshwar,Ahmedabad,"C-103, First Floor, Shri Hari Residency, Near Sakar School, New C.G. Road, Chandkheda, Dudheshwar, Ahmedabad - 382424, Dist.Ahmedabad, Gujarat",8048983196,
Reusable Baby Cloth Diapers,https://www.indiamart.com/proddetail/reusable-baby-cloth-diapers-2853365778855.html?pos=80&kwd=baby diapers&tags=A||||8954.051|Price|product|||TS|rsf:gd-|-stype:attr=1|qr_nm:gd|res:RC4|com-cf:nl|ptrs:na|ktp:N0|mc:4167|mtp:S|qry_typ:P|lang:en|wc:2|cs:8786|v=4,Shubh Swasan (i) Private Limited,https://www.waterproofbreathablefabric.com/?pos=80&kwd=baby diapers&tags=A||||8954.051|Price|product|||TS|rsf:gd-|-stype:attr=1|qr_nm:gd|res:RC4|com-cf:nl|ptrs:na|ktp:N0|mc:4167|mtp:S|qry_typ:P|lang:en|wc:2|cs:8786|v=4,False,Kilpauk,Chennai,"No. 9/32, Branson Garden Street, Kilpauk, Kilpauk, Chennai - 600010, Dist.Chennai, Tamil Nadu",8046047088,
"Mamy KIDS LIFE BABY DIAPERS SIZE- M 38 PCS, Medium",https://www.indiamart.com/proddetail/kids-life-baby-diapers-size-m-38-pcs-22778425330.html?pos=81&kwd=baby diapers&tags=A||||8230.883|Price|product|||MDC|rsf:gd-|-stype:attr=1|qr_nm:gd|res:RC4|com-cf:nl|ptrs:na|ktp:N0|mc:4167|mtp:S|qry_typ:P|lang:en|wc:2|cs:8786|v=4,G.G. Jetani & Sons,https://www.indiamart.com/ggjetanisons/?pos=81&kwd=baby diapers&tags=A||||8230.883|Price|product|||MDC|rsf:gd-|-stype:attr=1|qr_nm:gd|res:RC4|com-cf:nl|ptrs:na|ktp:N0|mc:4167|mtp:S|qry_typ:P|lang:en|wc:2|cs:8786|v=4,False,Mota Varachha,Surat,"Office 4, Lalitya Residency, Near Mauni International School Utran Petrol Pump, Mota Varachha, Mota Varachha, Surat - 394101, Dist.Surat, Gujarat",8046063287,
White Medium Pant Style Baby Diaper,https://www.indiamart.com/proddetail/medium-pant-style-baby-diaper-2852755298912.html?pos=82&kwd=baby diapers&tags=A||||8230.883|Price|product|||MDC|rsf:gd-|-stype:attr=1|qr_nm:gd|res:RC4|com-cf:nl|ptrs:na|ktp:N0|mc:4167|mtp:S|qry_typ:P|lang:en|wc:2|cs:8786|v=4,V R Barot,https://www.indiamart.com/v-r-barot/?pos=82&kwd=baby diapers&tags=A||||8230.883|Price|product|||MDC|rsf:gd-|-stype:attr=1|qr_nm:gd|res:RC4|com-cf:nl|ptrs:na|ktp:N0|mc:4167|mtp:S|qry_typ:P|lang:en|wc:2|cs:8786|v=4,False,Bhagvati Nagar Housing Society,Surat,"B-19, Bhagavati Nagar Soc, Jahangirpura, Bhagvati Nagar Housing Society, Surat - 395005, Dist.Surat, Gujarat",7942968850,
"Printed Pant Baby Diapers, Packaging Size: 40",https://www.indiamart.com/proddetail/pant-baby-diapers-24817755473.html?pos=83&kwd=baby diapers&tags=A||||8786.56|Price|product|||TS|rsf:gd-|-stype:attr=1|qr_nm:gd|res:RC4|com-cf:nl|ptrs:na|ktp:N0|mc:4167|mtp:S|qry_typ:P|lang:en|wc:2|cs:8786|v=4,Addalyn Impex Private Limited,https://www.indiamart.com/addalyn-impex/?pos=83&kwd=baby diapers&tags=A||||8786.56|Price|product|||TS|rsf:gd-|-stype:attr=1|qr_nm:gd|res:RC4|com-cf:nl|ptrs:na|ktp:N0|mc:4167|mtp:S|qry_typ:P|lang:en|wc:2|cs:8786|v=4,False,BARKATPURA,Hyderabad,"3-4-841, Flat No.301, 4th Floor Castle Homes Apts, Barkatpura, BARKATPURA, Hyderabad - 500027, Dist.Hyderabad, Telangana",7942545062,
White Cotton Baby Diaper,https://www.indiamart.com/proddetail/cotton-baby-diaper-2849669686273.html?pos=84&kwd=baby diapers&tags=A||||8823.154|Price|product|||TS|rsf:gd-|-stype:attr=1|qr_nm:gd|res:RC4|com-cf:nl|ptrs:na|ktp:N0|mc:4167|mtp:S|qry_typ:P|lang:en|wc:2|cs:8786|v=4,Sahaj Enterprises,https://www.compulsory.co.in/?pos=84&kwd=baby diapers&tags=A||||8823.154|Price|product|||TS|rsf:gd-|-stype:attr=1|qr_nm:gd|res:RC4|com-cf:nl|ptrs:na|ktp:N0|mc:4167|mtp:S|qry_typ:P|lang:en|wc:2|cs:8786|v=4,False,Sikandra,Agra,"13/18-A, Avas Vikas Colony, Sikandra, Sikandra, Agra - 282007, Dist.Agra, Uttar Pradesh",8047639490,
"Cotton Baby Free Size Blue Diaper, Age Group: 3-12 Months",https://www.indiamart.com/proddetail/baby-free-size-blue-diaper-24195777855.html?pos=85&kwd=baby diapers&tags=A||||8752.144|Price|product|||TS|rsf:gd-|-stype:attr=1|qr_nm:gd|res:RC4|com-cf:nl|ptrs:na|ktp:N0|mc:4167|mtp:S|qry_typ:P|lang:en|wc:2|cs:8786|v=4,Chinmay Kids,https://www.indiamart.com/chinmaykids/?pos=85&kwd=baby diapers&tags=A||||8752.144|Price|product|||TS|rsf:gd-|-stype:attr=1|qr_nm:gd|res:RC4|com-cf:nl|ptrs:na|ktp:N0|mc:4167|mtp:S|qry_typ:P|lang:en|wc:2|cs:8786|v=4,False,Nayagaon,New Delhi,"C-99, Street No. 4, First Pusta, Nayagaon, New Delhi - 110053, Dist.Delhi, Delhi",8046054858,
"Printed Freshkins premium soft baby diaper L, Large",https://www.indiamart.com/proddetail/freshkins-premium-soft-baby-diaper-l-2854539894697.html?pos=86&kwd=baby diapers&tags=A||||8230.883||product|||TS|rsf:gd-|-stype:attr=1|qr_nm:gd|res:RC4|com-cf:nl|ptrs:na|ktp:N0|mc:4167|mtp:S|qry_typ:P|lang:en|wc:2|cs:8786|v=4,Hygiene Product,https://www.freshkin.co.in/?pos=86&kwd=baby diapers&tags=A||||8230.883||product|||TS|rsf:gd-|-stype:attr=1|qr_nm:gd|res:RC4|com-cf:nl|ptrs:na|ktp:N0|mc:4167|mtp:S|qry_typ:P|lang:en|wc:2|cs:8786|v=4,False,Sagrampura Putli,Surat,"9002 B, World Trade Center Ring Road, Sagrampura Putli, Surat - 395002, Dist.Surat, Gujarat",8048610916,
"Baby Diaper Pants, Age Group: 3-12 Months",https://www.indiamart.com/proddetail/baby-diaper-pants-25365144130.html?pos=87&kwd=baby diapers&tags=A||||8559.269|Price|product|||TS|rsf:gd-|-stype:attr=1|qr_nm:gd|res:RC4|com-cf:nl|ptrs:na|ktp:N0|mc:4167|mtp:S|qry_typ:P|lang:en|wc:2|cs:8786|v=4,Shree Balasaheb Enterprises,https://www.indiamart.com/shreebalasahebenterprises/?pos=87&kwd=baby diapers&tags=A||||8559.269|Price|product|||TS|rsf:gd-|-stype:attr=1|qr_nm:gd|res:RC4|com-cf:nl|ptrs:na|ktp:N0|mc:4167|mtp:S|qry_typ:P|lang:en|wc:2|cs:8786|v=4,False,Kailashpuri,Indore,"35 Kelashpuri Colony Khazrana, Kailashpuri, Indore - 452016, Dist.Indore, Madhya Pradesh",8048955175,
"Printed L Size KidsLife Pant style Baby Diaper, Large",https://www.indiamart.com/proddetail/l-size-kidslife-pant-style-baby-diaper-2854440771955.html?pos=88&kwd=baby diapers&tags=A||||8211.142|Price|product|||TS|rsf:gd-|-stype:attr=1|qr_nm:gd|res:RC4|com-cf:nl|ptrs:na|ktp:N0|mc:4167|mtp:S|qry_typ:P|lang:en|wc:2|cs:8786|v=4,Stayzy Hygiene Private Limited,https://www.indiamart.com/synergy-fly/?pos=88&kwd=baby diapers&tags=A||||8211.142|Price|product|||TS|rsf:gd-|-stype:attr=1|qr_nm:gd|res:RC4|com-cf:nl|ptrs:na|ktp:N0|mc:4167|mtp:S|qry_typ:P|lang:en|wc:2|cs:8786|v=4,False,Borivali West,Mumbai,"Bluechip Industrial Estate No 4 Sativali Road, Near Nexa Showroom, Waliv Naka, Borivali West, Mumbai - 401101, Dist.Mumbai, Maharashtra",8048604117,
Cotton Bebe Baby Diaper,https://www.indiamart.com/proddetail/bebe-baby-diaper-2852811886248.html?pos=89&kwd=baby diapers&tags=A||||8954.051|Price|product|||TS|rsf:gd-|-stype:attr=1|qr_nm:gd|res:RC4|com-cf:nl|ptrs:na|ktp:N0|mc:4167|mtp:S|qry_typ:P|lang:en|wc:2|cs:8786|v=4,Happy Zone Health Store,https://www.happyzonehealthstore.com/?pos=89&kwd=baby diapers&tags=A||||8954.051|Price|product|||TS|rsf:gd-|-stype:attr=1|qr_nm:gd|res:RC4|com-cf:nl|ptrs:na|ktp:N0|mc:4167|mtp:S|qry_typ:P|lang:en|wc:2|cs:8786|v=4,False,Mylapore,Chennai,"NO.61 NACHIAPPA ST,MYLAPORE, Mylapore, Chennai - 600004, Dist.Chennai, Tamil Nadu",8046074663,
"Disposable Baby Diapers, Age Group: 1to2 Years, Size: Medium",https://www.indiamart.com/proddetail/disposable-baby-diapers-26885298573.html?pos=90&kwd=baby diapers&tags=A||||8210.732|Price|product|||TS|rsf:gd-|-stype:attr=1|qr_nm:gd|res:RC4|com-cf:nl|ptrs:na|ktp:N0|mc:4167|mtp:S|qry_typ:P|lang:en|wc:2|cs:8786|v=4,M S Enterprises,https://www.indiamart.com/m-senterprisesmumbai/?pos=90&kwd=baby diapers&tags=A||||8210.732|Price|product|||TS|rsf:gd-|-stype:attr=1|qr_nm:gd|res:RC4|com-cf:nl|ptrs:na|ktp:N0|mc:4167|mtp:S|qry_typ:P|lang:en|wc:2|cs:8786|v=4,False,Andheri East,Vasai,"1st Floor, Gala No 113, Rajprabha Industrial Enclave No 6, Boidapada, Vasai East Palghar, Andheri East, Vasai - 401208, Dist.Thane, Maharashtra",8048974810,
"Dumbledo Baby Cotton Diaper, Small",https://www.indiamart.com/proddetail/dumbledo-baby-cotton-diaper-2854254006588.html?pos=91&kwd=baby diapers&tags=A||||8211.142|Price|product|||MDC|rsf:gd-|-stype:attr=1|qr_nm:gd|res:RC4|com-cf:nl|ptrs:na|ktp:N0|mc:4167|mtp:S|qry_typ:P|lang:en|wc:2|cs:8786|v=4,Dumbledo,https://www.indiamart.com/dumbledo-mumbai/?pos=91&kwd=baby diapers&tags=A||||8211.142|Price|product|||MDC|rsf:gd-|-stype:attr=1|qr_nm:gd|res:RC4|com-cf:nl|ptrs:na|ktp:N0|mc:4167|mtp:S|qry_typ:P|lang:en|wc:2|cs:8786|v=4,False,,Mumbai,"1st Floor, B/105, Bhoomi Valley, Thakur Village Road, Mumbai - 400101, Dist.Mumbai, Maharashtra",8044560722,
"Cotton With Gel Disposable Baby Diaper, Age Group: 3-12 Months",https://www.indiamart.com/proddetail/disposable-baby-diaper-20973819791.html?pos=92&kwd=baby diapers&tags=A||||8752.144|Price|product|||MDC|rsf:gd-|-stype:attr=1|qr_nm:gd|res:RC4|com-cf:nl|ptrs:na|ktp:N0|mc:4167|mtp:S|qry_typ:P|lang:en|wc:2|cs:8786|v=4,Balaji Entreprise,https://www.indiamart.com/balaji-entreprise/?pos=92&kwd=baby diapers&tags=A||||8752.144|Price|product|||MDC|rsf:gd-|-stype:attr=1|qr_nm:gd|res:RC4|com-cf:nl|ptrs:na|ktp:N0|mc:4167|mtp:S|qry_typ:P|lang:en|wc:2|cs:8786|v=4,False,Budh Vihar,New Delhi,"A-1/29, Budh Vihar, Phase 2, Rohini, Budh Vihar, New Delhi - 110086, Dist.Delhi, Delhi",8048974223,
Cotton Newborn Baby Diapers,https://www.indiamart.com/proddetail/newborn-baby-diapers-2852624683197.html?pos=93&kwd=baby diapers&tags=A||||8876.815|Price|product|||SSnp|rsf:gd-|-stype:attr=1|qr_nm:gd|res:RC4|com-cf:nl|ptrs:na|ktp:N0|mc:4167|mtp:S|qry_typ:P|lang:en|wc:2|cs:8786|v=4,Smart Hygeia,https://www.indiamart.com/smarthygeia-nagpur/?pos=93&kwd=baby diapers&tags=A||||8876.815|Price|product|||SSnp|rsf:gd-|-stype:attr=1|qr_nm:gd|res:RC4|com-cf:nl|ptrs:na|ktp:N0|mc:4167|mtp:S|qry_typ:P|lang:en|wc:2|cs:8786|v=4,False,Rahate Colony,Nagpur,"Block No 702, Naniks Ashtavinayak Park Avenue Nagpur Chhavni, Sadar Nagar, Rahate Colony, Nagpur - 440001, Dist.Nagpur, Maharashtra",7942566182,
Plain Large Nonwoven Disposable Baby Diaper Pants,https://www.indiamart.com/proddetail/large-nonwoven-disposable-baby-diaper-pants-2853252270612.html?pos=94&kwd=baby diapers&tags=A||||8767.009|Price|product|||TS|rsf:gd-|-stype:attr=1|qr_nm:gd|res:RC4|com-cf:nl|ptrs:na|ktp:N0|mc:4167|mtp:S|qry_typ:P|lang:en|wc:2|cs:8786|v=4,Dakshu Enterprise,https://www.indiamart.com/dakshu-enterprise/?pos=94&kwd=baby diapers&tags=A||||8767.009|Price|product|||TS|rsf:gd-|-stype:attr=1|qr_nm:gd|res:RC4|com-cf:nl|ptrs:na|ktp:N0|mc:4167|mtp:S|qry_typ:P|lang:en|wc:2|cs:8786|v=4,False,,Baghpat,"0,,Delhi Saharanpur road,Baghpat, Baghpat - 250609, Dist.Bagpat, Uttar Pradesh",7949339950,
Cotton Loose Baby Diapers Pants,https://www.indiamart.com/proddetail/loose-baby-diapers-pants-2851851346291.html?pos=95&kwd=baby diapers&tags=A||||8047.7524|Price|product|||TS|rsf:gd-|-stype:attr=1|qr_nm:gd|res:RC4|com-cf:nl|ptrs:na|ktp:N0|mc:4167|mtp:S|qry_typ:P|lang:en|wc:2|cs:8786|v=4,Proctus Lifecare LLP,https://www.indiamart.com/proctuslifecarellp-morbi/?pos=95&kwd=baby diapers&tags=A||||8047.7524|Price|product|||TS|rsf:gd-|-stype:attr=1|qr_nm:gd|res:RC4|com-cf:nl|ptrs:na|ktp:N0|mc:4167|mtp:S|qry_typ:P|lang:en|wc:2|cs:8786|v=4,False,Bagathala,Morbi,"Survey No 350, Railway Crossing No 48, Khakhrala Bagathala Road, Plot No 3 and 4 Navlakhi Highway, Khakhrala, Morbi, Bagathala, Morbi - 363641, Dist.Rajkot, Gujarat",8048212116,
Cotton Baby Diaper Pant,https://www.indiamart.com/proddetail/baby-diaper-pant-21962596648.html?pos=96&kwd=baby diapers&tags=A||||8584.299|Price|product|||TS|rsf:gd-|-stype:attr=1|qr_nm:gd|res:RC4|com-cf:nl|ptrs:na|ktp:N0|mc:4167|mtp:S|qry_typ:P|lang:en|wc:2|cs:8786|v=4,Kalam Enterprises,https://www.kalament.co.in/?pos=96&kwd=baby diapers&tags=A||||8584.299|Price|product|||TS|rsf:gd-|-stype:attr=1|qr_nm:gd|res:RC4|com-cf:nl|ptrs:na|ktp:N0|mc:4167|mtp:S|qry_typ:P|lang:en|wc:2|cs:8786|v=4,False,Siddhapudur,Coimbatore,"No. 262 A, Ground Floor, New Siddhapudur, Siddhapudur, Coimbatore - 641044, Dist.Coimbatore, Tamil Nadu",8048981845,
Reusable Cloth diaper for babies Pocket style 3M to 3Y CPSIA Certified 300 Washable & Adjustable,https://www.indiamart.com/proddetail/reusable-cloth-diaper-for-babies-pocket-style-3m-to-3y-cpsia-certified-300-washable-adjustable-23935824830.html?pos=97&kwd=baby diapers&tags=A||||8584.299|Price|product|||TS|rsf:gd-|-stype:attr=1|qr_nm:gd|res:RC4|com-cf:nl|ptrs:na|ktp:N0|mc:4167|mtp:S|qry_typ:P|lang:en|wc:2|cs:8786|v=4,Apple Blossoms,https://www.indiamart.com/appleblossoms/?pos=97&kwd=baby diapers&tags=A||||8584.299|Price|product|||TS|rsf:gd-|-stype:attr=1|qr_nm:gd|res:RC4|com-cf:nl|ptrs:na|ktp:N0|mc:4167|mtp:S|qry_typ:P|lang:en|wc:2|cs:8786|v=4,False,Gn Mills,Coimbatore,"555/1, 2nd Floor, Gandhi Nagar, Mettupalayam Road, Extension, GN Mills Post, Thudiyalur,, Gn Mills, Coimbatore - 641029, Dist.Coimbatore, Tamil Nadu",8048614461,
Newborn Baby Diapers pants,https://www.indiamart.com/proddetail/newborn-baby-diapers-pants-2854413695291.html?pos=98&kwd=baby diapers&tags=A||||9110.092|Price|product|||MDC|rsf:gd-|-stype:attr=1|qr_nm:gd|res:RC4|com-cf:nl|ptrs:na|ktp:N0|mc:4167|mtp:S|qry_typ:P|lang:en|wc:2|cs:8786|v=4,Beyond Basics,https://www.indiamart.com/beyondbasics/?pos=98&kwd=baby diapers&tags=A||||9110.092|Price|product|||MDC|rsf:gd-|-stype:attr=1|qr_nm:gd|res:RC4|com-cf:nl|ptrs:na|ktp:N0|mc:4167|mtp:S|qry_typ:P|lang:en|wc:2|cs:8786|v=4,False,Husainabad,Lucknow,"458/127 Shivpuri, Murg Khana Husainabad, Husainabad, Lucknow - 226003, Dist.Lucknow, Uttar Pradesh",8044562757,
TEDDY BABY DIAPERS SOFT MEDIUM 66'S,,Evergreen Healthcare & Surgical,https://www.indiamart.com/evergreen-healthcare-surgical/?pos=99&kwd=baby diapers&tags=A||||8954.051|Price|product|||MDC|rsf:gd-|-stype:attr=1|qr_nm:gd|res:RC4|com-cf:nl|ptrs:na|ktp:N0|mc:4167|mtp:S|qry_typ:P|lang:en|wc:2|cs:8786|v=4,False,Royapuram,Chennai,"35/1, First Floor, Manarsamy Koil Street, Royapuram, Royapuram, Chennai - 600013, Dist.Chennai, Tamil Nadu",7942842952,
"Cotton Bebe Baby Diapers, Small",https://www.indiamart.com/proddetail/bebe-baby-diapers-2854319232597.html?pos=100&kwd=baby diapers&tags=A||||8706.587|Price|product|||TS|rsf:gd-|-stype:attr=1|qr_nm:gd|res:RC4|com-cf:nl|ptrs:na|ktp:N0|mc:4167|mtp:S|qry_typ:P|lang:en|wc:2|cs:8786|v=4,Aruna Agencies,https://www.arunaagencies.in/?pos=100&kwd=baby diapers&tags=A||||8706.587|Price|product|||TS|rsf:gd-|-stype:attr=1|qr_nm:gd|res:RC4|com-cf:nl|ptrs:na|ktp:N0|mc:4167|mtp:S|qry_typ:P|lang:en|wc:2|cs:8786|v=4,False,Simmakkal,Madurai,"Pooja Complex, No. 23, North Veli Street Ground Floor, Simmakkal, Simmakkal, Madurai - 625001, Dist.Madurai, Tamil Nadu",8048609760,
Cotton BABY DIAPERS JUMBO,https://www.indiamart.com/proddetail/baby-diapers-jumbo-23737133991.html?pos=101&kwd=baby diapers&tags=A||||8954.051|Price|product|||LSnp|rsf:gd-|-stype:attr=1|qr_nm:gd|res:RC4|com-cf:nl|ptrs:na|ktp:N0|mc:4167|mtp:S|qry_typ:P|lang:en|wc:2|cs:8786|v=4,Chris Merchant Private Limited,https://www.chrismerchant.co.in/?pos=101&kwd=baby diapers&tags=A||||8954.051|Price|product|||LSnp|rsf:gd-|-stype:attr=1|qr_nm:gd|res:RC4|com-cf:nl|ptrs:na|ktp:N0|mc:4167|mtp:S|qry_typ:P|lang:en|wc:2|cs:8786|v=4,False,Koyambedu,Chennai,"No. 5, Poonamalee High Road, Koyambedu, Chennai - 600107, Dist.Chennai, Tamil Nadu",8048956521,
"Cotton Pant Diapers Kids Diaper, Age Group: Newly Born",https://www.indiamart.com/proddetail/kids-diaper-26161859612.html?pos=102&kwd=baby diapers&tags=A||||8752.144|Price|product|||TS|rsf:gd-|-stype:attr=1|qr_nm:gd|res:RC4|com-cf:nl|ptrs:na|ktp:N0|mc:4167|mtp:S|qry_typ:P|lang:en|wc:2|cs:8786|v=4,Jai Shree Industries ( Regd.),https://www.jaishreeindustries.in/?pos=102&kwd=baby diapers&tags=A||||8752.144|Price|product|||TS|rsf:gd-|-stype:attr=1|qr_nm:gd|res:RC4|com-cf:nl|ptrs:na|ktp:N0|mc:4167|mtp:S|qry_typ:P|lang:en|wc:2|cs:8786|v=4,False,Karam Pura,New Delhi,"No. 107, Magnum House II, First Floor, Karampura Commercial Complex, Karam Pura, New Delhi - 110015, Dist.Delhi, Delhi",8048981957,
Cotton Baby Diaper,https://www.indiamart.com/proddetail/baby-diaper-2853351411212.html?pos=103&kwd=baby diapers&tags=A||||8752.144|Price|product|||TS|rsf:gd-|-stype:attr=1|qr_nm:gd|res:RC4|com-cf:nl|ptrs:na|ktp:N0|mc:4167|mtp:S|qry_typ:P|lang:en|wc:2|cs:8786|v=4,Midas Touch,https://www.indiamart.com/midastouchnewdelhi/?pos=103&kwd=baby diapers&tags=A||||8752.144|Price|product|||TS|rsf:gd-|-stype:attr=1|qr_nm:gd|res:RC4|com-cf:nl|ptrs:na|ktp:N0|mc:4167|mtp:S|qry_typ:P|lang:en|wc:2|cs:8786|v=4,False,Shalimar Bagh,New Delhi,"Upper Ground Plot No-423 Near Raghunath Mandir Bh Shalimar Bagh East Delhi, Shalimar Bagh, New Delhi - 110088, Dist.Delhi, Delhi",7942825260,
"Cotton Baby Diapers, Small",https://www.indiamart.com/proddetail/baby-diapers-2854051242191.html?pos=104&kwd=baby diapers&tags=A||||8663.873|Price|product|||MDC|rsf:gd-|-stype:attr=1|qr_nm:gd|res:RC4|com-cf:nl|ptrs:na|ktp:N0|mc:4167|mtp:S|qry_typ:P|lang:en|wc:2|cs:8786|v=4,Karavali Plywoods,https://www.indiamart.com/karavaliplywoods/?pos=104&kwd=baby diapers&tags=A||||8663.873|Price|product|||MDC|rsf:gd-|-stype:attr=1|qr_nm:gd|res:RC4|com-cf:nl|ptrs:na|ktp:N0|mc:4167|mtp:S|qry_typ:P|lang:en|wc:2|cs:8786|v=4,False,Ramachandrapura,Bengaluru,"Shop No 1/2 4271/4, Ground Floor, 22nd Main Road Railway Parallel Road, A Block Diagonally Opp Veeranjaneta Swamy Temple, Ramachandrapura, Bengaluru - 560021, Dist.Bengaluru, Karnataka",8048268437,
Baby Diapers,,Ezhil Herbal Products,https://www.indiamart.com/ezhil-herbal-products/?pos=105&kwd=baby diapers&tags=A||||8584.299|Price|product|||TS|rsf:gd-|-stype:attr=1|qr_nm:gd|res:RC4|com-cf:nl|ptrs:na|ktp:N0|mc:4167|mtp:S|qry_typ:P|lang:en|wc:2|cs:8786|v=4,False,Madukkarai,Coimbatore,"12/389-1, Mariamman Kovil Street, Madukkarai Market Road, Canara Bank ATM, Madukkarai, Coimbatore - 641105, Dist.Coimbatore, Tamil Nadu",7949087411,
"Printed Baby Cloth Cotton Diaper, Small, Age Group: 3to12 Months",https://www.indiamart.com/proddetail/printed-baby-cloth-cotton-diaper-2854709624973.html?pos=106&kwd=baby diapers&tags=A||||8626.744|Price|product|||MDC|rsf:gd-|-stype:attr=1|qr_nm:gd|res:RC4|com-cf:nl|ptrs:na|ktp:N0|mc:4167|mtp:S|qry_typ:P|lang:en|wc:2|cs:8786|v=4,Hugbae Kidswear Manufacturers,https://www.indiamart.com/hugbae-kidswearmanufacturers/?pos=106&kwd=baby diapers&tags=A||||8626.744|Price|product|||MDC|rsf:gd-|-stype:attr=1|qr_nm:gd|res:RC4|com-cf:nl|ptrs:na|ktp:N0|mc:4167|mtp:S|qry_typ:P|lang:en|wc:2|cs:8786|v=4,False,,Tiruppur,"2/301A, 2/301B,2/301C, 2/301D, SRC Nagar, Palladam Taluk, Ganapathipalayam, Tiruppur - 641605, Dist.Coimbatore, Tamil Nadu",8044460250,
"Printed Baby Diaper Pants, Small",https://www.indiamart.com/proddetail/baby-diaper-pants-2854455532633.html?pos=107&kwd=baby diapers&tags=A||||8752.144|Price|product|||TS|rsf:gd-|-stype:attr=1|qr_nm:gd|res:RC4|com-cf:nl|ptrs:na|ktp:N0|mc:4167|mtp:S|qry_typ:P|lang:en|wc:2|cs:8786|v=4,Maitri Health And Hygiene,https://www.indiamart.com/maitri-healthandhygiene/?pos=107&kwd=baby diapers&tags=A||||8752.144|Price|product|||TS|rsf:gd-|-stype:attr=1|qr_nm:gd|res:RC4|com-cf:nl|ptrs:na|ktp:N0|mc:4167|mtp:S|qry_typ:P|lang:en|wc:2|cs:8786|v=4,False,Shalimar Bagh,New Delhi,"Flat No. 10-D/E, Block And Pocket-Cc, Shalimar Bagh, Shalimar Bagh, New Delhi - 110088, Dist.Delhi, Delhi",8047658643,
"Nubaby Premium Baby Diapers,XXL (XXL), 42 Count, above 15 kg (Shipping Charges Extra)",https://www.indiamart.com/proddetail/nubaby-premium-baby-diapers-xxl-xxl-42-count-above-15-kg-shipping-charges-extra-2852640825288.html?pos=108&kwd=baby diapers&tags=A||||8786.56|Price|product|||MDC|rsf:gd-|-stype:attr=1|qr_nm:gd|res:RC4|com-cf:nl|ptrs:na|ktp:N0|mc:4167|mtp:S|qry_typ:P|lang:en|wc:2|cs:8786|v=4,MAK Overseas,https://www.indiamart.com/makoverseashyderabad/?pos=108&kwd=baby diapers&tags=A||||8786.56|Price|product|||MDC|rsf:gd-|-stype:attr=1|qr_nm:gd|res:RC4|com-cf:nl|ptrs:na|ktp:N0|mc:4167|mtp:S|qry_typ:P|lang:en|wc:2|cs:8786|v=4,False,Saidabad,Hyderabad,"Floor 4, Office 401 17-1-A/1 MIG H.No.1/A Saidabad Santhosh Nagar Rangareddy, Saidabad, Hyderabad - 500059, Dist.Hyderabad, Telangana",7942712102,
Nonwoven Loose Baby Diapers,https://www.indiamart.com/proddetail/loose-baby-diapers-2851807947255.html?pos=109&kwd=baby diapers&tags=A||||8694.802|Price|product|||MDC|rsf:gd-|-stype:attr=1|qr_nm:gd|res:RC4|com-cf:nl|ptrs:na|ktp:N0|mc:4167|mtp:S|qry_typ:P|lang:en|wc:2|cs:8786|v=4,Usha Enterprises,https://www.indiamart.com/usha-enterprises-bawal/?pos=109&kwd=baby diapers&tags=A||||8694.802|Price|product|||MDC|rsf:gd-|-stype:attr=1|qr_nm:gd|res:RC4|com-cf:nl|ptrs:na|ktp:N0|mc:4167|mtp:S|qry_typ:P|lang:en|wc:2|cs:8786|v=4,False,Jaliawas,Bawal,"Plot No-195, Ground Floor, Sector-3, Hsiidc- Bawal, Rewari, Jaliawas, Bawal - 123501, Dist.Rewari, Haryana",8047830686,
"Cotton Baby Printed Diaper, Medium",https://www.indiamart.com/proddetail/baby-printed-diaper-2854225514688.html?pos=110&kwd=baby diapers&tags=A||||8230.883|Price|product|||TS|rsf:gd-|-stype:attr=1|qr_nm:gd|res:RC4|com-cf:nl|ptrs:na|ktp:N0|mc:4167|mtp:S|qry_typ:P|lang:en|wc:2|cs:8786|v=4,BABYHOLIC,https://www.babyholic.in/?pos=110&kwd=baby diapers&tags=A||||8230.883|Price|product|||TS|rsf:gd-|-stype:attr=1|qr_nm:gd|res:RC4|com-cf:nl|ptrs:na|ktp:N0|mc:4167|mtp:S|qry_typ:P|lang:en|wc:2|cs:8786|v=4,False,,Surat,"Ground Floor, Plot No. F/56/, And F/57, Laxmi Narayan Industrial Estate, Udhana, Kailash Fashion, Surat - 394210, Dist.Surat, Gujarat",8045732096,
"Bamboo Cotton Baby Diaper, Small",https://www.indiamart.com/proddetail/baby-diaper-2853304380291.html?pos=111&kwd=baby diapers&tags=A||||8228.275|Price|product|||TS|rsf:gd-|-stype:attr=1|qr_nm:gd|res:RC4|com-cf:nl|ptrs:na|ktp:N0|mc:4167|mtp:S|qry_typ:P|lang:en|wc:2|cs:8786|v=4,Green Life Healthcare,https://www.indiamart.com/green-life-healthcare/?pos=111&kwd=baby diapers&tags=A||||8228.275|Price|product|||TS|rsf:gd-|-stype:attr=1|qr_nm:gd|res:RC4|com-cf:nl|ptrs:na|ktp:N0|mc:4167|mtp:S|qry_typ:P|lang:en|wc:2|cs:8786|v=4,False,Sarkhej Village,Ahmedabad,"11, J P ESTATE,NAVAPURA NR SHUKAN COMPLEX, Sarkhej Village, Ahmedabad - 382210, Dist.Ahmedabad, Gujarat",8048604726,
Plain Small Extra Soft Baby Diaper Pant,https://www.indiamart.com/proddetail/small-extra-soft-baby-diaper-pant-26196099597.html?pos=112&kwd=baby diapers&tags=A||||8752.144|Price|product|||TS|rsf:gd-|-stype:attr=1|qr_nm:gd|res:RC4|com-cf:nl|ptrs:na|ktp:N0|mc:4167|mtp:S|qry_typ:P|lang:en|wc:2|cs:8786|v=4,Tejas Enterprises,https://www.indiamart.com/tejasenterprises-delhi/?pos=112&kwd=baby diapers&tags=A||||8752.144|Price|product|||TS|rsf:gd-|-stype:attr=1|qr_nm:gd|res:RC4|com-cf:nl|ptrs:na|ktp:N0|mc:4167|mtp:S|qry_typ:P|lang:en|wc:2|cs:8786|v=4,False,New Mustafabad,New Delhi,"D - 6/162 - A, D - Block, Near Gali No.7, Main Road Brijpuri, New Mustafabad, New Delhi - 110094, Dist.Delhi, Delhi",8043855624,
Nappee imported Baby Diaper,https://www.indiamart.com/proddetail/nappee-imported-baby-diaper-2854473256012.html?pos=113&kwd=baby diapers&tags=A||||8038.093|Price|product|||TS|rsf:gd-|-stype:attr=1|qr_nm:gd|res:RC4|com-cf:nl|ptrs:na|ktp:N0|mc:4167|mtp:S|qry_typ:P|lang:en|wc:2|cs:8786|v=4,Chandarana Packaging,https://www.indiamart.com/chandarana-packaging/?pos=113&kwd=baby diapers&tags=A||||8038.093|Price|product|||TS|rsf:gd-|-stype:attr=1|qr_nm:gd|res:RC4|com-cf:nl|ptrs:na|ktp:N0|mc:4167|mtp:S|qry_typ:P|lang:en|wc:2|cs:8786|v=4,False,Chotu Nagar,Rajkot,"Sainath Industrial Estate,,Nr. Rajesh Oil Mill,,Gujarat,360007,Rajkot, Chotu Nagar, Rajkot - 360007, Dist.Rajkot, Gujarat",8046054669,
Nonwoven Baby Diaper,https://www.indiamart.com/proddetail/baby-diaper-2853028475662.html?pos=114&kwd=baby diapers&tags=A||||8752.144|Price|product|||TS|rsf:gd-|-stype:attr=1|qr_nm:gd|res:RC4|com-cf:nl|ptrs:na|ktp:N0|mc:4167|mtp:S|qry_typ:P|lang:en|wc:2|cs:8786|v=4,Quality Healthcare Industries,https://www.indiamart.com/qualityhealthcareindustries/?pos=114&kwd=baby diapers&tags=A||||8752.144|Price|product|||TS|rsf:gd-|-stype:attr=1|qr_nm:gd|res:RC4|com-cf:nl|ptrs:na|ktp:N0|mc:4167|mtp:S|qry_typ:P|lang:en|wc:2|cs:8786|v=4,False,Mundka,New Delhi,"G/F Plot At KH No. 370,Pole No. MDKK314,Guga Park Situated In The Revenue Estate Of Villa , Mundka, Mundka, New Delhi - 110041, Dist.Delhi, Delhi",7942716926,
"Nonwoven Bella Baby Happy Diapers, Medium",https://www.indiamart.com/proddetail/bella-baby-happy-diapers-2854137384248.html?pos=115&kwd=baby diapers&tags=A||||8788.382|Price|product|||MDC|rsf:gd-|-stype:attr=1|qr_nm:gd|res:RC4|com-cf:nl|ptrs:na|ktp:N0|mc:4167|mtp:S|qry_typ:P|lang:en|wc:2|cs:8786|v=4,Health4u,https://www.indiamart.com/health4u-greaternoida/?pos=115&kwd=baby diapers&tags=A||||8788.382|Price|product|||MDC|rsf:gd-|-stype:attr=1|qr_nm:gd|res:RC4|com-cf:nl|ptrs:na|ktp:N0|mc:4167|mtp:S|qry_typ:P|lang:en|wc:2|cs:8786|v=4,False,,Greater Noida,"Shop No-5, H No-3, Pandat Complex, Ram Shyam Enclave, Chipiyana Buzurg,, Greater Noida - 201306, Dist.Gautam Budh Nagar, Uttar Pradesh",8045731446,
"Small Pampers Baby Diapers, Age Group: Newly Born",https://www.indiamart.com/proddetail/small-pampers-baby-diapers-2852646060991.html?pos=116&kwd=baby diapers&tags=A||||8230.883|Price|product|||MDC|rsf:gd-|-stype:attr=1|qr_nm:gd|res:RC4|com-cf:nl|ptrs:na|ktp:N0|mc:4167|mtp:S|qry_typ:P|lang:en|wc:2|cs:8786|v=4,Oceanic Supplier,https://www.indiamart.com/oceanicsupplier/?pos=116&kwd=baby diapers&tags=A||||8230.883|Price|product|||MDC|rsf:gd-|-stype:attr=1|qr_nm:gd|res:RC4|com-cf:nl|ptrs:na|ktp:N0|mc:4167|mtp:S|qry_typ:P|lang:en|wc:2|cs:8786|v=4,False,Varachha,Surat,"Plot No-136, Ashopalav Bunglows, Rangoli Chowadi Road, Abrama Velanja Road, Kamrej, Velanja, Varachha, Surat - 394150, Dist.Surat, Gujarat",7942720766,
Baby Diaper Pants,https://www.indiamart.com/proddetail/baby-diaper-pants-2854385446262.html?pos=117&kwd=baby diapers&tags=A||||8038.093|Price|product|||MDC|rsf:gd-|-stype:attr=1|qr_nm:gd|res:RC4|com-cf:nl|ptrs:na|ktp:N0|mc:4167|mtp:S|qry_typ:P|lang:en|wc:2|cs:8786|v=4,Aeroshine International,https://www.indiamart.com/aeroshineinternational/?pos=117&kwd=baby diapers&tags=A||||8038.093|Price|product|||MDC|rsf:gd-|-stype:attr=1|qr_nm:gd|res:RC4|com-cf:nl|ptrs:na|ktp:N0|mc:4167|mtp:S|qry_typ:P|lang:en|wc:2|cs:8786|v=4,False,Champak Nagar,Rajkot,"Street No 8, Plot No 101-B, Brahmaniya Para, Sant Kabir Road, Govindbaug Opp. Vimal, R.S. No 185, Champak Nagar, Rajkot - 360003, Dist.Rajkot, Gujarat",7942714315,
"Small Classic Baby Diapers Pants, Age Group: Newly Born",https://www.indiamart.com/proddetail/small-classic-baby-diapers-pants-2853717124662.html?pos=118&kwd=baby diapers&tags=A||||8038.093|Price|product|||MDC|rsf:gd-|-stype:attr=1|qr_nm:gd|res:RC4|com-cf:nl|ptrs:na|ktp:N0|mc:4167|mtp:S|qry_typ:P|lang:en|wc:2|cs:8786|v=4,Balaji Pharmacy,https://www.indiamart.com/balajipharmacy-rajkot/?pos=118&kwd=baby diapers&tags=A||||8038.093|Price|product|||MDC|rsf:gd-|-stype:attr=1|qr_nm:gd|res:RC4|com-cf:nl|ptrs:na|ktp:N0|mc:4167|mtp:S|qry_typ:P|lang:en|wc:2|cs:8786|v=4,False,Jangleshwar,Rajkot,"Ground Floor,Shop No.2, Quater No.76,Surey No.249, Hudco Quarters, Kothariya Main Road, Jangleshwar, Rajkot - 360002, Dist.Rajkot, Gujarat",8044013220,
Nonwoven Printed Large Size Baby Diaper Pants,https://www.indiamart.com/proddetail/printed-baby-diaper-pants-2854602545662.html?pos=119&kwd=baby diapers&tags=A||||8786.56|Price|product|||MDC|rsf:gd-|-stype:attr=1|qr_nm:gd|res:RC4|com-cf:nl|ptrs:na|ktp:N0|mc:4167|mtp:S|qry_typ:P|lang:en|wc:2|cs:8786|v=4,Popok Health Care,https://www.indiamart.com/popok-healthcare/?pos=119&kwd=baby diapers&tags=A||||8786.56|Price|product|||MDC|rsf:gd-|-stype:attr=1|qr_nm:gd|res:RC4|com-cf:nl|ptrs:na|ktp:N0|mc:4167|mtp:S|qry_typ:P|lang:en|wc:2|cs:8786|v=4,False,,Hyderabad,"24-134, Anandbagh Medchal Malkajgiri, Hyderabad - 500047, Dist.Hyderabad, Telangana",7949330487,
Cotton Baby diaper A grade,https://www.indiamart.com/proddetail/baby-diaper-a-grade-2852776857333.html?pos=120&kwd=baby diapers&tags=A||||8307.81|Price|product|||MDC|rsf:gd-|-stype:attr=1|qr_nm:gd|res:RC4|com-cf:nl|ptrs:na|ktp:N0|mc:4167|mtp:S|qry_typ:P|lang:en|wc:2|cs:8786|v=4,Ashstylo Collection,https://www.indiamart.com/ashstylocollection/?pos=120&kwd=baby diapers&tags=A||||8307.81|Price|product|||MDC|rsf:gd-|-stype:attr=1|qr_nm:gd|res:RC4|com-cf:nl|ptrs:na|ktp:N0|mc:4167|mtp:S|qry_typ:P|lang:en|wc:2|cs:8786|v=4,False,Kondhwa,Pune,"Kamaldeep Garden, A/26, Kondhwa, Kondhwa, Pune - 411048, Dist.Pune, Maharashtra",7942712072,
Cotton Allyca Small Size Diaper,https://www.indiamart.com/proddetail/allyca-small-size-tape-diaper-2854682102691.html?pos=121&kwd=baby diapers&tags=A||||8552.925|Price|product|||MDC|rsf:gd-|-stype:attr=1|qr_nm:gd|res:RC4|com-cf:nl|ptrs:na|ktp:N0|mc:4167|mtp:S|qry_typ:P|lang:en|wc:2|cs:8786|v=4,Allyca Hygiene Products,https://www.indiamart.com/allycahygiene-products/?pos=121&kwd=baby diapers&tags=A||||8552.925|Price|product|||MDC|rsf:gd-|-stype:attr=1|qr_nm:gd|res:RC4|com-cf:nl|ptrs:na|ktp:N0|mc:4167|mtp:S|qry_typ:P|lang:en|wc:2|cs:8786|v=4,False,,Rau,"133, Keshav Park, Umariya, Mhow, Rau - 453331, Dist.Indore, Madhya Pradesh",7949322626,
Extracare small baby diaper,https://www.indiamart.com/proddetail/extracare-small-baby-diaper-25382991655.html?pos=122&kwd=baby diapers&tags=A||||8242.731|Price|product|||MDC|rsf:gd-|-stype:attr=1|qr_nm:gd|res:RC4|com-cf:nl|ptrs:na|ktp:N0|mc:4167|mtp:S|qry_typ:P|lang:en|wc:2|cs:8786|v=4,Moti Enterprises,https://www.indiamart.com/moti-enterprises/?pos=122&kwd=baby diapers&tags=A||||8242.731|Price|product|||MDC|rsf:gd-|-stype:attr=1|qr_nm:gd|res:RC4|com-cf:nl|ptrs:na|ktp:N0|mc:4167|mtp:S|qry_typ:P|lang:en|wc:2|cs:8786|v=4,False,Sidhi Vinayak Nagar,Ulhasnagar,"B. K. 424, Room No. 8, Behind Heera Panna Building, Sidhi Vinayak Nagar, Ulhasnagar - 421001, Dist.Thane, Maharashtra",8046068234,
Loose Baby Diaper,,Saraswati Stores,https://www.indiamart.com/saraswati-stores-karnal/?pos=123&kwd=baby diapers&tags=A||||8753.51|Price|product|||MDC|rsf:gd-|-stype:attr=1|qr_nm:gd|res:RC4|com-cf:nl|ptrs:na|ktp:N0|mc:4167|mtp:S|qry_typ:P|lang:en|wc:2|cs:8786|v=4,False,,Karnal,"2088/7, Unnamed Road, Sector 7 Park 16,, Karnal - 132001, Dist.Karnal, Haryana",7949328104,
"Pant Type C Grade Baby Diapers Pants, Packaging Size: Bag",https://www.indiamart.com/proddetail/c-grade-baby-diapers-pants-2850338705948.html?pos=124&kwd=baby diapers&tags=A||||8752.144|Price|product|||TS|rsf:gd-|-stype:attr=1|qr_nm:gd|res:RC4|com-cf:nl|ptrs:na|ktp:N0|mc:4167|mtp:S|qry_typ:P|lang:en|wc:2|cs:8786|v=4,Menka Enterprises,https://www.indiamart.com/menka-enterprises/?pos=124&kwd=baby diapers&tags=A||||8752.144|Price|product|||TS|rsf:gd-|-stype:attr=1|qr_nm:gd|res:RC4|com-cf:nl|ptrs:na|ktp:N0|mc:4167|mtp:S|qry_typ:P|lang:en|wc:2|cs:8786|v=4,False,Bawana,New Delhi,"N-275, Sector 1, Bawana Industrial Area, Bawana, New Delhi - 110039, Dist.Delhi, Delhi",8047644299,
Baby Diapers,,Syana India Associates,https://www.indiamart.com/syanaindia/?pos=125&kwd=baby diapers&tags=A||||8752.144|Price|product|||TS|rsf:gd-|-stype:attr=1|qr_nm:gd|res:RC4|com-cf:nl|ptrs:na|ktp:N0|mc:4167|mtp:S|qry_typ:P|lang:en|wc:2|cs:8786|v=4,False,Pitampura,New Delhi,"Second Floor Off No 201, 205 And 207 Pitampura Vardhman Crystal Plaza, Pitampura, New Delhi - 110034, Dist.Delhi, Delhi",8048981636,
Bebe natural baby diaper,,Gayathri Medicare,https://www.indiamart.com/gayathri-medicarechennai/?pos=126&kwd=baby diapers&tags=BA||||8954.051|Price|product|||TS|rsf:gd-|-stype:attr=1|qr_nm:gd|res:RC4|com-cf:nl|ptrs:na|ktp:N0|mc:4167|mtp:S|qry_typ:P|lang:en|wc:2|cs:8786|v=4,False,West Mambalam.. 12 sai tower.station road.,Chennai,"No 48,Basement Floor, B-5,Navins Aishwarya Apartment,Brindavan Street,Chennai, West Mambalam.. 12 sai tower.station road., Chennai - 600033, Dist.Chennai, Tamil Nadu",8047552428,
"Printed LILIPUT Imported Baby Diaper Pants, Medium",https://www.indiamart.com/proddetail/liliput-imported-baby-diaper-pants-2854687894755.html?pos=127&kwd=baby diapers&tags=A||||9363.783|Price|product|||TS|rsf:gd-|-stype:attr=1|qr_nm:gd|res:RC4|com-cf:nl|ptrs:na|ktp:N0|mc:4167|mtp:S|qry_typ:P|lang:en|wc:2|cs:8786|v=4,Shaswat Agro Industries,https://www.indiamart.com/shaswatagro-industries/?pos=127&kwd=baby diapers&tags=A||||9363.783|Price|product|||TS|rsf:gd-|-stype:attr=1|qr_nm:gd|res:RC4|com-cf:nl|ptrs:na|ktp:N0|mc:4167|mtp:S|qry_typ:P|lang:en|wc:2|cs:8786|v=4,False,Tajopur,Maunath Bhanjan,"B-9, Industrial Area, Tajopur, Tajopur, Maunath Bhanjan - 275101, Dist.Mau, Uttar Pradesh",8047638492,
"Unisex Newborn Baby Diapers, Age Group: 9-12 Months",https://www.indiamart.com/proddetail/newborn-baby-diapers-2855076646862.html?pos=128&kwd=baby diapers&tags=A||||8954.051|Price|product|||TS|rsf:gd-|-stype:attr=1|qr_nm:gd|res:RC4|com-cf:nl|ptrs:na|ktp:N0|mc:4167|mtp:S|qry_typ:P|lang:en|wc:2|cs:8786|v=4,Tetra Clothing,https://www.tetraclothing.in/?pos=128&kwd=baby diapers&tags=A||||8954.051|Price|product|||TS|rsf:gd-|-stype:attr=1|qr_nm:gd|res:RC4|com-cf:nl|ptrs:na|ktp:N0|mc:4167|mtp:S|qry_typ:P|lang:en|wc:2|cs:8786|v=4,True,Gopichettipalaiyam,Chennai,"No. 59/28, Balu Building, Gopichettipalaiyam, Chennai - 638476, Dist.Chennai, Tamil Nadu",8048957951,
"Firstin Born Baby Diapers, Cotton Padded Underwear - Muslin Multi-time Reusable Diaper Manufacturer",https://www.indiamart.com/proddetail/firstin-born-baby-diapers-cotton-padded-underwear-muslin-multi-time-reusable-diaper-manufacturer-20962097497.html?pos=129&kwd=baby diapers&tags=A||||8668.838|Price|product|||LSlc|rsf:gd-|-stype:attr=1|qr_nm:gd|res:RC4|com-cf:nl|ptrs:na|ktp:N0|mc:4167|mtp:S|qry_typ:P|lang:en|wc:2|cs:8786|v=4,Sri Kalyan Export Private Limited,https://www.firstinbabydress.com/?pos=129&kwd=baby diapers&tags=A||||8668.838|Price|product|||LSlc|rsf:gd-|-stype:attr=1|qr_nm:gd|res:RC4|com-cf:nl|ptrs:na|ktp:N0|mc:4167|mtp:S|qry_typ:P|lang:en|wc:2|cs:8786|v=4,False,Vilarasampatti,Erode,"192/4, Ishwarya Garden, Sengodampalayam, Villarasampatti Post, Erode,, Vilarasampatti, Erode - 638107, Dist.Erode, Tamil Nadu",8046030291,
Cotton baby diaper,https://www.indiamart.com/proddetail/baby-diaper-2851420248030.html?pos=130&kwd=baby diapers&tags=A||||8830.388|Price|product|||TS|rsf:gd-|-stype:attr=1|qr_nm:gd|res:RC4|com-cf:nl|ptrs:na|ktp:N0|mc:4167|mtp:S|qry_typ:P|lang:en|wc:2|cs:8786|v=4,Yours Sanitary Pad,https://www.indiamart.com/yourssanitarypad/?pos=130&kwd=baby diapers&tags=A||||8830.388|Price|product|||TS|rsf:gd-|-stype:attr=1|qr_nm:gd|res:RC4|com-cf:nl|ptrs:na|ktp:N0|mc:4167|mtp:S|qry_typ:P|lang:en|wc:2|cs:8786|v=4,False,Anand Nagar,Gwalior,"A 193 ,Anand Nagar Gwalior, Anand Nagar, Gwalior - 474001, Dist.Gwalior, Madhya Pradesh",7942540759,
"Upto 12 Hours Printed Hamazz Baby Premium Diaper Pants, Packaging Size: 50 Pcs",https://www.indiamart.com/proddetail/hamazz-baby-premium-diaper-pants-27301213497.html?pos=131&kwd=baby diapers&tags=A||||8211.142|Price|product|||TS|rsf:gd-|-stype:attr=1|qr_nm:gd|res:RC4|com-cf:nl|ptrs:na|ktp:N0|mc:4167|mtp:S|qry_typ:P|lang:en|wc:2|cs:8786|v=4,Hamazz Wellness Company,https://www.hamazzhealthcare.in/?pos=131&kwd=baby diapers&tags=A||||8211.142|Price|product|||TS|rsf:gd-|-stype:attr=1|qr_nm:gd|res:RC4|com-cf:nl|ptrs:na|ktp:N0|mc:4167|mtp:S|qry_typ:P|lang:en|wc:2|cs:8786|v=4,False,Malad West,Mumbai,"D/14, 2nd Floor, Mashayakh CHS LTD Chincholi Bunder Road, Malad West, Mumbai - 400064, Dist.Mumbai, Maharashtra",8047655127,
Baby Diaper Loose,https://www.indiamart.com/proddetail/baby-diaper-loose-2853682892362.html?pos=132&kwd=baby diapers&tags=A||||8230.883|Price|product|||MDC|rsf:gd-|-stype:attr=1|qr_nm:gd|res:RC4|com-cf:nl|ptrs:na|ktp:N0|mc:4167|mtp:S|qry_typ:P|lang:en|wc:2|cs:8786|v=4,Zainab Enterprise,https://www.indiamart.com/zainabenterprise-surat/?pos=132&kwd=baby diapers&tags=A||||8230.883|Price|product|||MDC|rsf:gd-|-stype:attr=1|qr_nm:gd|res:RC4|com-cf:nl|ptrs:na|ktp:N0|mc:4167|mtp:S|qry_typ:P|lang:en|wc:2|cs:8786|v=4,False,Begampura,Surat,"Shop No.5,Ground Floor,Al Meena Appt.,,2210 - Zapabazar,Zampa Surat Surat City, Begampura, Surat - 395003, Dist.Surat, Gujarat",8048956780,
"Printed Pant Style Baby Diapers, Small",https://www.indiamart.com/proddetail/pant-style-baby-diapers-2854947257873.html?pos=133&kwd=baby diapers&tags=A||||8038.093|Price|product|||MDC|rsf:gd-|-stype:attr=1|qr_nm:gd|res:RC4|com-cf:nl|ptrs:na|ktp:N0|mc:4167|mtp:S|qry_typ:P|lang:en|wc:2|cs:8786|v=4,Bramhani Products,https://www.indiamart.com/bramhaniproducts/?pos=133&kwd=baby diapers&tags=A||||8038.093|Price|product|||MDC|rsf:gd-|-stype:attr=1|qr_nm:gd|res:RC4|com-cf:nl|ptrs:na|ktp:N0|mc:4167|mtp:S|qry_typ:P|lang:en|wc:2|cs:8786|v=4,False,Swati Park,Rajkot,"Kothariya Part, Radhe Shyam Industrial Area, Plot No 9, Swati Road, Opp.Kanbi Electricals, Swati Park, Rajkot - 360002, Dist.Rajkot, Gujarat",8044456440,
"Baby Orange Plain Cotton Cloth Diaper Pant, Age Group: 8 Month",https://www.indiamart.com/proddetail/baby-orange-plain-cotton-cloth-diaper-pant-2851855632333.html?pos=134&kwd=baby diapers&tags=A||||8785.791|Price|product|||MDC|rsf:gd-|-stype:attr=1|qr_nm:gd|res:RC4|com-cf:nl|ptrs:na|ktp:N0|mc:4167|mtp:S|qry_typ:P|lang:en|wc:2|cs:8786|v=4,Osail Corporation,https://www.indiamart.com/osail-corporation-india/?pos=134&kwd=baby diapers&tags=A||||8785.791|Price|product|||MDC|rsf:gd-|-stype:attr=1|qr_nm:gd|res:RC4|com-cf:nl|ptrs:na|ktp:N0|mc:4167|mtp:S|qry_typ:P|lang:en|wc:2|cs:8786|v=4,False,Maharajpur,Ghaziabad,"First Floor 38/2/20 Site 4, Sahibabad, Industrial Area, Maharajpur, Ghaziabad - 201010, Dist.Ghaziabad, Uttar Pradesh",8043837117,
"Cotton Disposable Diaper Pants, Packaging Size: Pouch",https://www.indiamart.com/proddetail/disposable-diaper-pants-27019932012.html?pos=135&kwd=baby diapers&tags=A||||8601.347|Price|product|||MDC|rsf:gd-|-stype:attr=1|qr_nm:gd|res:RC4|com-cf:nl|ptrs:na|ktp:N0|mc:4167|mtp:S|qry_typ:P|lang:en|wc:2|cs:8786|v=4,Solution India,https://www.indiamart.com/solutionindia-jaipur/?pos=135&kwd=baby diapers&tags=A||||8601.347|Price|product|||MDC|rsf:gd-|-stype:attr=1|qr_nm:gd|res:RC4|com-cf:nl|ptrs:na|ktp:N0|mc:4167|mtp:S|qry_typ:P|lang:en|wc:2|cs:8786|v=4,False,Jhotwara,Jaipur,"G-3, Block 3A, Moon Resi, Behind Shanti Niketan Vidhya Mandir, Laxmi Nagar, Jhotwara, Jaipur - 302012, Dist.Jaipur, Rajasthan",8046044590,
"Off White Disposable Cotton Muslin Nappies, Medium",https://www.indiamart.com/proddetail/cotton-muslin-nappies-25739579448.html?pos=136&kwd=baby diapers&tags=A||||8626.744|Price|product|||MDC|rsf:gd-|-stype:attr=1|qr_nm:gd|res:RC4|com-cf:nl|ptrs:na|ktp:N0|mc:4167|mtp:S|qry_typ:P|lang:en|wc:2|cs:8786|v=4,Thoni Eswar Exports,https://www.indiamart.com/thoni-eswar-exports/?pos=136&kwd=baby diapers&tags=A||||8626.744|Price|product|||MDC|rsf:gd-|-stype:attr=1|qr_nm:gd|res:RC4|com-cf:nl|ptrs:na|ktp:N0|mc:4167|mtp:S|qry_typ:P|lang:en|wc:2|cs:8786|v=4,False,,Tiruppur,"5/7, Church Street, Avinashi Road, Tiruppur - 641603, Dist.Coimbatore, Tamil Nadu",7942621102,
"Cotton Disposable Baby Diapers, Small",https://www.indiamart.com/proddetail/disposable-baby-diapers-2851236578148.html?pos=137&kwd=baby diapers&tags=A||||8228.275|Price|product|||TS|rsf:gd-|-stype:attr=1|qr_nm:gd|res:RC4|com-cf:nl|ptrs:na|ktp:N0|mc:4167|mtp:S|qry_typ:P|lang:en|wc:2|cs:8786|v=4,Aspire Healthcare,https://www.indiamart.com/aspire-healthcare/?pos=137&kwd=baby diapers&tags=A||||8228.275|Price|product|||TS|rsf:gd-|-stype:attr=1|qr_nm:gd|res:RC4|com-cf:nl|ptrs:na|ktp:N0|mc:4167|mtp:S|qry_typ:P|lang:en|wc:2|cs:8786|v=4,False,Gota,Ahmedabad,"Shop no -19 ,Serenity Space,S G Highway, New Gota, Gota, Ahmedabad - 382481, Dist.Ahmedabad, Gujarat",8046039668,
"Bamboo Cotton Baby Button Diaper, Medium, Packaging Size: 8*8",https://www.indiamart.com/proddetail/baby-button-diaper-21237678655.html?pos=138&kwd=baby diapers&tags=A||||8752.144|Price|product|||TS|rsf:gd-|-stype:attr=1|qr_nm:gd|res:RC4|com-cf:nl|ptrs:na|ktp:N0|mc:4167|mtp:S|qry_typ:P|lang:en|wc:2|cs:8786|v=4,National Overseas,https://www.indiamart.com/nationaltraders-vishwashnagar/?pos=138&kwd=baby diapers&tags=A||||8752.144|Price|product|||TS|rsf:gd-|-stype:attr=1|qr_nm:gd|res:RC4|com-cf:nl|ptrs:na|ktp:N0|mc:4167|mtp:S|qry_typ:P|lang:en|wc:2|cs:8786|v=4,False,Shahdara,New Delhi,"1/99, Gali No. 3, Vishwas Nagar, Shahdara, New Delhi - 110032, Dist.Delhi, Delhi",8046047673,
"Reusable Cloth Diaper for babies, Size: Medium, Age Group: 3-12 Months",https://www.indiamart.com/proddetail/reusable-cloth-diaper-for-babies-2851755699830.html?pos=139&kwd=baby diapers&tags=A||||8752.144|Price|product|||MDC|rsf:gd-|-stype:attr=1|qr_nm:gd|res:RC4|com-cf:nl|ptrs:na|ktp:N0|mc:4167|mtp:S|qry_typ:P|lang:en|wc:2|cs:8786|v=4,B-Qube Enterprises,https://www.indiamart.com/bqube-enterprises/?pos=139&kwd=baby diapers&tags=A||||8752.144|Price|product|||MDC|rsf:gd-|-stype:attr=1|qr_nm:gd|res:RC4|com-cf:nl|ptrs:na|ktp:N0|mc:4167|mtp:S|qry_typ:P|lang:en|wc:2|cs:8786|v=4,False,Karol Bagh,New Delhi,"303, Iiird Floor,13/4, W.E.A.,Karol Bagh, Karol Bagh, New Delhi - 110005, Dist.Delhi, Delhi",8047313183,
"CRADLE TOGS Mix Baby Terry & Pvc Diaper, Size: Nb-L, Packaging Size: 6 PC in One Polypack",https://www.indiamart.com/proddetail/baby-terry-pvc-diaper-24417635955.html?pos=140&kwd=baby diapers&tags=BA||||8752.144|Price|product|||TS|rsf:gd-|-stype:attr=1|qr_nm:gd|res:RC4|com-cf:nl|ptrs:na|ktp:N0|mc:4167|mtp:S|qry_typ:P|lang:en|wc:2|cs:8786|v=4,Man Singh & Sons Private Limited,https://www.babyproductsmanufacturer.com/?pos=140&kwd=baby diapers&tags=BA||||8752.144|Price|product|||TS|rsf:gd-|-stype:attr=1|qr_nm:gd|res:RC4|com-cf:nl|ptrs:na|ktp:N0|mc:4167|mtp:S|qry_typ:P|lang:en|wc:2|cs:8786|v=4,False,Karol Bagh,New Delhi,"No. 13/24, 1st Floor, W. E. A., Karol Bagh, Karol Bagh, New Delhi - 110005, Dist.Delhi, Delhi",8048978579,
"Plain Baby Diapers XL, Size: Extra Large, Packaging Size: 56",https://www.indiamart.com/proddetail/baby-diapers-xl-2851488490633.html?pos=141&kwd=baby diapers&tags=A||||9837.093|Price|product|||TS|rsf:gd-|-stype:attr=1|qr_nm:gd|res:RC4|com-cf:nl|ptrs:na|ktp:N0|mc:4167|mtp:S|qry_typ:P|lang:en|wc:2|cs:8786|v=4,Dheera Infoservices,https://www.indiamart.com/dheerainfoservices/?pos=141&kwd=baby diapers&tags=A||||9837.093|Price|product|||TS|rsf:gd-|-stype:attr=1|qr_nm:gd|res:RC4|com-cf:nl|ptrs:na|ktp:N0|mc:4167|mtp:S|qry_typ:P|lang:en|wc:2|cs:8786|v=4,False,Uttarpara Bazar,Uttarpara Kotrung,"24/12, Ground, K.K.D Chatterjee Street, Hooghly, Uttarpara Bazar, Uttarpara Kotrung - 712258, West Bengal",7942818965,
Baby Cloth Diapers,https://www.indiamart.com/proddetail/baby-cloth-diapers-2853164140412.html?pos=142&kwd=baby diapers&tags=A||||8752.144|Price|product|||TS|rsf:gd-|-stype:attr=1|qr_nm:gd|res:RC4|com-cf:nl|ptrs:na|ktp:N0|mc:4167|mtp:S|qry_typ:P|lang:en|wc:2|cs:8786|v=4,Hetampuria Tex Fab,https://www.indiamart.com/hetampuria-tex-fab/?pos=142&kwd=baby diapers&tags=A||||8752.144|Price|product|||TS|rsf:gd-|-stype:attr=1|qr_nm:gd|res:RC4|com-cf:nl|ptrs:na|ktp:N0|mc:4167|mtp:S|qry_typ:P|lang:en|wc:2|cs:8786|v=4,False,Chandni Chowk,New Delhi,"1 BAGH DIWAR (DHARAMSHALA) FATEHPURI, Chandni Chowk, New Delhi - 110006, Dist.Delhi, Delhi",7942814797,
TEDDY BABY DIAPERS,,Madurai Meenakshi Pharma And Surgical,https://www.indiamart.com/maduraimeenakshipharma-and-surgical/?pos=143&kwd=baby diapers&tags=A||||8706.587||product|||TS|rsf:gd-|-stype:attr=1|qr_nm:gd|res:RC4|com-cf:nl|ptrs:na|ktp:N0|mc:4167|mtp:S|qry_typ:P|lang:en|wc:2|cs:8786|v=4,False,Nelpettai,Madurai,"199, First Floor, Naicker New Street,, Nelpettai, Madurai - 625001, Dist.Madurai, Tamil Nadu",8043853780,
"Cotton Baby Reusable Diapers, Medium",https://www.indiamart.com/proddetail/baby-reusable-diapers-2853333487048.html?pos=144&kwd=baby diapers&tags=A||||8823.154|Price|product|||TS|rsf:gd-|-stype:attr=1|qr_nm:gd|res:RC4|com-cf:nl|ptrs:na|ktp:N0|mc:4167|mtp:S|qry_typ:P|lang:en|wc:2|cs:8786|v=4,Shri Anant International,https://www.indiamart.com/shrianantinternational/?pos=144&kwd=baby diapers&tags=A||||8823.154|Price|product|||TS|rsf:gd-|-stype:attr=1|qr_nm:gd|res:RC4|com-cf:nl|ptrs:na|ktp:N0|mc:4167|mtp:S|qry_typ:P|lang:en|wc:2|cs:8786|v=4,False,DayalBagh,Agra,"No.02,House 2,Alkapuri Phase Ii,Agra, DayalBagh, Agra - 282005, Dist.Agra, Uttar Pradesh",7942721451,
"Cotton Baby Diaper 5 Pcs, Medium",https://www.indiamart.com/proddetail/baby-diaper-5-pcs-2852719260573.html?pos=145&kwd=baby diapers&tags=A||||8230.883|Price|product|||TS|rsf:gd-|-stype:attr=1|qr_nm:gd|res:RC4|com-cf:nl|ptrs:na|ktp:N0|mc:4167|mtp:S|qry_typ:P|lang:en|wc:2|cs:8786|v=4,Shanti Medicare,https://www.indiamart.com/shanti-medicare/?pos=145&kwd=baby diapers&tags=A||||8230.883|Price|product|||TS|rsf:gd-|-stype:attr=1|qr_nm:gd|res:RC4|com-cf:nl|ptrs:na|ktp:N0|mc:4167|mtp:S|qry_typ:P|lang:en|wc:2|cs:8786|v=4,False,126 shardha row row house,Surat,"S 20, Swastik Plaza, Yogi Chowk,, 126 shardha row row house, Surat - 395010, Dist.Surat, Gujarat",7942835980,
Cotton M Size Baby Diaper,https://www.indiamart.com/proddetail/m-size-baby-diaper-20218762148.html?pos=146&kwd=baby diapers&tags=A||||8747.223|Price|product|||TS|rsf:gd-|-stype:attr=1|qr_nm:gd|res:RC4|com-cf:nl|ptrs:na|ktp:N0|mc:4167|mtp:S|qry_typ:P|lang:en|wc:2|cs:8786|v=4,Garg Healthcare Products,https://www.garghealthcare.in/?pos=146&kwd=baby diapers&tags=A||||8747.223|Price|product|||TS|rsf:gd-|-stype:attr=1|qr_nm:gd|res:RC4|com-cf:nl|ptrs:na|ktp:N0|mc:4167|mtp:S|qry_typ:P|lang:en|wc:2|cs:8786|v=4,False,,Sonipat,"Property No 119, Phase 1, Sector 53, Kundli Industrial Area, Sonipat - 131028, Dist.Sonipat, Haryana",8048964429,
"White Cotton Plain Baby Diaper, Size: Medium",https://www.indiamart.com/proddetail/white-cotton-plain-baby-diaper-2854143348155.html?pos=147&kwd=baby diapers&tags=A||||8223.226|Price|product|||MDC|rsf:gd-|-stype:attr=1|qr_nm:gd|res:RC4|com-cf:nl|ptrs:na|ktp:N0|mc:4167|mtp:S|qry_typ:P|lang:en|wc:2|cs:8786|v=4,S L K Enterprises,https://www.indiamart.com/slkenterprises/?pos=147&kwd=baby diapers&tags=A||||8223.226|Price|product|||MDC|rsf:gd-|-stype:attr=1|qr_nm:gd|res:RC4|com-cf:nl|ptrs:na|ktp:N0|mc:4167|mtp:S|qry_typ:P|lang:en|wc:2|cs:8786|v=4,False,Opp. Raza Masjid Amrut Nagar Mumbra,Thane,"Ground Floor, Flat No.001, Zoha Apartment, Sharifa Road,, Opp. Raza Masjid Amrut Nagar Mumbra, Thane - 400612, Dist.Thane, Maharashtra",7949082283,
"Plain HIGH ABSORBENT BABY DIAPERS 0967, Packaging Size: Large",https://www.indiamart.com/proddetail/high-absorbent-baby-diapers-0967-2853270806373.html?pos=148&kwd=baby diapers&tags=A||||8038.093|Price|product|||TS|rsf:gd-|-stype:attr=1|qr_nm:gd|res:RC4|com-cf:nl|ptrs:na|ktp:N0|mc:4167|mtp:S|qry_typ:P|lang:en|wc:2|cs:8786|v=4,Deodap,https://www.indiamart.com/deodap/?pos=148&kwd=baby diapers&tags=A||||8038.093|Price|product|||TS|rsf:gd-|-stype:attr=1|qr_nm:gd|res:RC4|com-cf:nl|ptrs:na|ktp:N0|mc:4167|mtp:S|qry_typ:P|lang:en|wc:2|cs:8786|v=4,False,Rajkot,Rajkot,"plot No. 9 Behind Patanjali Werhouse, Ruda Transport, Saat Hanuman Ahemdabad Road, Rajkot, Rajkot - 360005, Dist.Rajkot, Gujarat",8048972316,
"Baby Diaper Pants, Size: Small",https://www.indiamart.com/proddetail/baby-diaper-pants-2853479909033.html?pos=149&kwd=baby diapers&tags=A||||9839.57|Price|product|||TS|rsf:gd-|-stype:attr=1|qr_nm:gd|res:RC4|com-cf:nl|ptrs:na|ktp:N0|mc:4167|mtp:S|qry_typ:P|lang:en|wc:2|cs:8786|v=4,Aftab Trader,https://www.indiamart.com/aftab-trader-kolkata/?pos=149&kwd=baby diapers&tags=A||||9839.57|Price|product|||TS|rsf:gd-|-stype:attr=1|qr_nm:gd|res:RC4|com-cf:nl|ptrs:na|ktp:N0|mc:4167|mtp:S|qry_typ:P|lang:en|wc:2|cs:8786|v=4,False,Baitakkhana North,Kolkata,"H/4, 11/1 Harshi Street, Baitakkhana North, Kolkata - 700009, Dist.Kolkata, West Bengal",8047654403,
Pull Ups Disposable Adult Diaper,https://www.indiamart.com/proddetail/disposable-adult-diaper-2853155001855.html?pos=150&kwd=baby diapers&tags=A||||8663.873|Price|product|||TS|rsf:gd-|-stype:attr=1|qr_nm:gd|res:RC4|com-cf:nl|ptrs:na|ktp:N0|mc:4167|mtp:S|qry_typ:P|lang:en|wc:2|cs:8786|v=4,Jeev Care,https://www.indiamart.com/jeev-care-bengaluru/?pos=150&kwd=baby diapers&tags=A||||8663.873|Price|product|||TS|rsf:gd-|-stype:attr=1|qr_nm:gd|res:RC4|com-cf:nl|ptrs:na|ktp:N0|mc:4167|mtp:S|qry_typ:P|lang:en|wc:2|cs:8786|v=4,False,Basavanagudi,Bengaluru,"60/1, 1st Floor, R. V. Road, Basavanagudi,, Basavanagudi, Bengaluru - 560004, Dist.Bengaluru, Karnataka",8047304285,
Extra Large Baby Diaper,https://www.indiamart.com/proddetail/extra-large-baby-diaper-2853324245388.html?pos=151&kwd=baby diapers&tags=A||||8559.269|Price|product|||TS|rsf:gd-|-stype:attr=1|qr_nm:gd|res:RC4|com-cf:nl|ptrs:na|ktp:N0|mc:4167|mtp:S|qry_typ:P|lang:en|wc:2|cs:8786|v=4,HZ Enterprises,https://www.indiamart.com/hz-enterprises-madhyapradesh/?pos=151&kwd=baby diapers&tags=A||||8559.269|Price|product|||TS|rsf:gd-|-stype:attr=1|qr_nm:gd|res:RC4|com-cf:nl|ptrs:na|ktp:N0|mc:4167|mtp:S|qry_typ:P|lang:en|wc:2|cs:8786|v=4,False,Sudama Nagar,Indore,"2, Manikbag Road, Sudama Nagar, Indore - 452009, Dist.Indore, Madhya Pradesh",7942791847,
Cotton Relaxx Baby Diaper,https://www.indiamart.com/proddetail/relaxx-baby-diaper-7701197330.html?pos=152&kwd=baby diapers&tags=A||||9839.57|Price|product|||TS|rsf:gd-|-stype:attr=1|qr_nm:gd|res:RC4|com-cf:nl|ptrs:na|ktp:N0|mc:4167|mtp:S|qry_typ:P|lang:en|wc:2|cs:8786|v=4,Add Life Human Care Private Limited,https://www.indiamart.com/addlife-human-care/?pos=152&kwd=baby diapers&tags=A||||9839.57|Price|product|||TS|rsf:gd-|-stype:attr=1|qr_nm:gd|res:RC4|com-cf:nl|ptrs:na|ktp:N0|mc:4167|mtp:S|qry_typ:P|lang:en|wc:2|cs:8786|v=4,False,Beleghata East,Kolkata,"26/H/4 Barwari Tala Road Beliaghata, Beleghata East, Kolkata - 700010, Dist.Kolkata, West Bengal",7949220551,
"Devik Baby Diaper, Size: Xl, Packaging Size: 1",https://www.indiamart.com/proddetail/baby-diaper-22516395630.html?pos=153&kwd=baby diapers&tags=A||||8741.987|Price|product|||TS|rsf:gd-|-stype:attr=1|qr_nm:gd|res:RC4|com-cf:nl|ptrs:na|ktp:N0|mc:4167|mtp:S|qry_typ:P|lang:en|wc:2|cs:8786|v=4,Devik Trader,https://www.latestproductsupplier.com/?pos=153&kwd=baby diapers&tags=A||||8741.987|Price|product|||TS|rsf:gd-|-stype:attr=1|qr_nm:gd|res:RC4|com-cf:nl|ptrs:na|ktp:N0|mc:4167|mtp:S|qry_typ:P|lang:en|wc:2|cs:8786|v=4,False,Nanhera,Ambala,"Nanehra, Nanhera, Ambala - 133001, Dist.Ambala, Haryana",8048603229,
"Multicolor Reusable Baby Diaper With 3 Layer Pad, Size: adjustable, Age Group: 1-2 Years",https://www.indiamart.com/proddetail/multicolor-reusable-baby-diaper-with-3-layer-pad-24823701455.html?pos=154&kwd=baby diapers&tags=A||||8228.275|Price|product|||TS|rsf:gd-|-stype:attr=1|qr_nm:gd|res:RC4|com-cf:nl|ptrs:na|ktp:N0|mc:4167|mtp:S|qry_typ:P|lang:en|wc:2|cs:8786|v=4,Vitus International,https://www.indiamart.com/vitus-international/?pos=154&kwd=baby diapers&tags=A||||8228.275|Price|product|||TS|rsf:gd-|-stype:attr=1|qr_nm:gd|res:RC4|com-cf:nl|ptrs:na|ktp:N0|mc:4167|mtp:S|qry_typ:P|lang:en|wc:2|cs:8786|v=4,False,Chamanpura,Ahmedabad,"21-D, Block - C Sumel Business Park 5, Chamanpura, Ahmedabad - 380016, Dist.Ahmedabad, Gujarat",8046045482,
"Cotton Teddy Baby Diaper, XL",https://www.indiamart.com/proddetail/teddy-baby-diaper-2854065416912.html?pos=155&kwd=baby diapers&tags=A||||8793.619|Price|product|||TS|rsf:gd-|-stype:attr=1|qr_nm:gd|res:RC4|com-cf:nl|ptrs:na|ktp:N0|mc:4167|mtp:S|qry_typ:P|lang:en|wc:2|cs:8786|v=4,Muthu Surgicals,https://www.indiamart.com/muthu-surgicals-perambalur/?pos=155&kwd=baby diapers&tags=A||||8793.619|Price|product|||TS|rsf:gd-|-stype:attr=1|qr_nm:gd|res:RC4|com-cf:nl|ptrs:na|ktp:N0|mc:4167|mtp:S|qry_typ:P|lang:en|wc:2|cs:8786|v=4,False,Thuraimangalam,Perambalur,"No. 8/8, Main Road, Maravanatham Post, V Kalathur, Thuraimangalam, Perambalur - 621117, Dist.Perambalur, Tamil Nadu",7942873124,
"Cotton Baby Diapers, Small",https://www.indiamart.com/proddetail/baby-diapers-2854912133988.html?pos=156&kwd=baby diapers&tags=A||||8817.752|Price|product|||MDC|rsf:gd-|-stype:attr=1|qr_nm:gd|res:RC4|com-cf:nl|ptrs:na|ktp:N0|mc:4167|mtp:S|qry_typ:P|lang:en|wc:2|cs:8786|v=4,Bhagwati Collection,https://www.indiamart.com/bhagwati-collection-hapur/?pos=156&kwd=baby diapers&tags=A||||8817.752|Price|product|||MDC|rsf:gd-|-stype:attr=1|qr_nm:gd|res:RC4|com-cf:nl|ptrs:na|ktp:N0|mc:4167|mtp:S|qry_typ:P|lang:en|wc:2|cs:8786|v=4,False,,Hapur,"Mukesh Garg, Krishna Gali, Khurja Pech Doymi Opp Ram Tent House, Hapur - 245101, Dist.Hapur, Uttar Pradesh",8041015469,
Printed Baby Diapers Pants Xl Size,https://www.indiamart.com/proddetail/baby-diapers-pants-xl-size-2852801853930.html?pos=157&kwd=baby diapers&tags=A||||8786.56|Price|product|||MDC|rsf:gd-|-stype:attr=1|qr_nm:gd|res:RC4|com-cf:nl|ptrs:na|ktp:N0|mc:4167|mtp:S|qry_typ:P|lang:en|wc:2|cs:8786|v=4,Aaraniyar Enterprises,https://www.indiamart.com/aaraniyar-enterprises-hyderabad/?pos=157&kwd=baby diapers&tags=A||||8786.56|Price|product|||MDC|rsf:gd-|-stype:attr=1|qr_nm:gd|res:RC4|com-cf:nl|ptrs:na|ktp:N0|mc:4167|mtp:S|qry_typ:P|lang:en|wc:2|cs:8786|v=4,False,Amberpet,Hyderabad,"3-14-36/8/10, Near Yaadaiah Hotel,Vivek Nagar, Amberpet, Ramanthapur, Amberpet, Hyderabad - 500013, Dist.Hyderabad, Telangana",7942717866,
Baby's Pride Male Newborn Baby Nappy,https://www.indiamart.com/proddetail/newborn-baby-nappy-11312771948.html?pos=158&kwd=baby diapers&tags=BA||||8626.744|Price|product|||TS|rsf:gd-|-stype:attr=1|qr_nm:gd|res:RC4|com-cf:nl|ptrs:na|ktp:N0|mc:4167|mtp:S|qry_typ:P|lang:en|wc:2|cs:8786|v=4,Sudarshaan Impex,https://www.indiamart.com/sudarshaan-impex/?pos=158&kwd=baby diapers&tags=BA||||8626.744|Price|product|||TS|rsf:gd-|-stype:attr=1|qr_nm:gd|res:RC4|com-cf:nl|ptrs:na|ktp:N0|mc:4167|mtp:S|qry_typ:P|lang:en|wc:2|cs:8786|v=4,False,Jeeva Nagar,Tiruppur,"No.8/398C, Selvalakshmi nagar, 1st street, Angeri palayam, Jeeva Nagar, Tiruppur - 641603, Dist.Coimbatore, Tamil Nadu",8046077280,
Teddyy Baby Diapers,https://www.indiamart.com/proddetail/teddyy-baby-diapers-2850611151933.html?pos=159&kwd=baby diapers&tags=A||||8954.051||product|||TS|rsf:gd-|-stype:attr=1|qr_nm:gd|res:RC4|com-cf:nl|ptrs:na|ktp:N0|mc:4167|mtp:S|qry_typ:P|lang:en|wc:2|cs:8786|v=4,Auro Mira Medi Aids,https://www.indiamart.com/auromiramediaids/?pos=159&kwd=baby diapers&tags=A||||8954.051||product|||TS|rsf:gd-|-stype:attr=1|qr_nm:gd|res:RC4|com-cf:nl|ptrs:na|ktp:N0|mc:4167|mtp:S|qry_typ:P|lang:en|wc:2|cs:8786|v=4,False,Adyar,Chennai,"New No. 36, Old No. 32, Shriram Nagar Main Road, Adyar, Chennai - 600113, Dist.Chennai, Tamil Nadu",8048988682,
"Monthly Disposable Super Teddyy Baby Diaper Large Size 48's, Age Group: 3-12 Months",https://www.indiamart.com/proddetail/super-teddyy-baby-diaper-large-size-48-s-25310619288.html?pos=160&kwd=baby diapers&tags=A||||8899.625|Price|product|||TS|rsf:gd-|-stype:attr=1|qr_nm:gd|res:RC4|com-cf:nl|ptrs:na|ktp:N0|mc:4167|mtp:S|qry_typ:P|lang:en|wc:2|cs:8786|v=4,Sadhguru Surgicals Private Limited,https://www.indiamart.com/sadhguru-surgicals/?pos=160&kwd=baby diapers&tags=A||||8899.625|Price|product|||TS|rsf:gd-|-stype:attr=1|qr_nm:gd|res:RC4|com-cf:nl|ptrs:na|ktp:N0|mc:4167|mtp:S|qry_typ:P|lang:en|wc:2|cs:8786|v=4,False,Thirubuvanai,Pondicherry,"First Floor, 104, 4th Cross Street, Ragavendra Nagar, Thirubuvanai, Thirubuvanai, Pondicherry - 605107, Dist.Pondicherry, Pondicherry",8047645074,
Loose Diaper In All Sizes,https://www.indiamart.com/proddetail/loose-diaper-in-all-sizes-2854102746262.html?pos=161&kwd=baby diapers&tags=A||||8038.093||product|||TS|rsf:gd-|-stype:attr=1|qr_nm:gd|res:RC4|com-cf:nl|ptrs:na|ktp:N0|mc:4167|mtp:S|qry_typ:P|lang:en|wc:2|cs:8786|v=4,Ramnath medical store,https://www.indiamart.com/ramnathmedicalstore/?pos=161&kwd=baby diapers&tags=A||||8038.093||product|||TS|rsf:gd-|-stype:attr=1|qr_nm:gd|res:RC4|com-cf:nl|ptrs:na|ktp:N0|mc:4167|mtp:S|qry_typ:P|lang:en|wc:2|cs:8786|v=4,False,Gavliwad,Rajkot,"G-1, Rajpath Point, Opp. Pearl Women Hospital, Nr. Tapovan School, 150 Ring Road, Rajkot, Gavliwad, Rajkot - 360004, Dist.Rajkot, Gujarat",7942815628,
"Cotton Unisex Born Baby Jabla Set, For Gift Purpose, Size: 0-1 Year",https://www.indiamart.com/proddetail/born-baby-jabla-set-2854236706562.html?pos=162&kwd=baby diapers&tags=A||||8228.275|Price|product|||TS|rsf:gd-|-stype:attr=1|qr_nm:gd|res:RC4|com-cf:nl|ptrs:na|ktp:N0|mc:4167|mtp:S|qry_typ:P|lang:en|wc:2|cs:8786|v=4,King Enterprise,https://www.kingenterpriseindia.com/?pos=162&kwd=baby diapers&tags=A||||8228.275|Price|product|||TS|rsf:gd-|-stype:attr=1|qr_nm:gd|res:RC4|com-cf:nl|ptrs:na|ktp:N0|mc:4167|mtp:S|qry_typ:P|lang:en|wc:2|cs:8786|v=4,False,Opp. Haripura Bus Stand,Ahmedabad,"Block- E 28, Ground Floor, Abhishek Estate-1, Opp. Haripura Bus Stand, Ahmedabad - 380016, Dist.Ahmedabad, Gujarat",8047632934,
"Muslin Plain Nappies, Medium",https://www.indiamart.com/proddetail/muslin-plain-nappies-2854264265962.html?pos=163&kwd=baby diapers&tags=A||||8668.838|Price|product|||TS|rsf:gd-|-stype:attr=1|qr_nm:gd|res:RC4|com-cf:nl|ptrs:na|ktp:N0|mc:4167|mtp:S|qry_typ:P|lang:en|wc:2|cs:8786|v=4,New Asia Textiles,https://www.indiamart.com/new-asia-textiles/?pos=163&kwd=baby diapers&tags=A||||8668.838|Price|product|||TS|rsf:gd-|-stype:attr=1|qr_nm:gd|res:RC4|com-cf:nl|ptrs:na|ktp:N0|mc:4167|mtp:S|qry_typ:P|lang:en|wc:2|cs:8786|v=4,False,,Erode,"42, Mosikeeranar Street-4 indra nagar, Erode - 638003, Dist.Erode, Tamil Nadu",8046070169,
"Sanitary Napkin Pad, 8 Pads, Regular",https://www.indiamart.com/proddetail/sanitary-napkin-pad-2853887754533.html?pos=164&kwd=baby diapers&tags=A||||8601.347|Price|product|||TS|rsf:gd-|-stype:attr=1|qr_nm:gd|res:RC4|com-cf:nl|ptrs:na|ktp:N0|mc:4167|mtp:S|qry_typ:P|lang:en|wc:2|cs:8786|v=4,Orphee Lifesciences LLP,https://www.indiamart.com/orpheelifesciences/?pos=164&kwd=baby diapers&tags=A||||8601.347|Price|product|||TS|rsf:gd-|-stype:attr=1|qr_nm:gd|res:RC4|com-cf:nl|ptrs:na|ktp:N0|mc:4167|mtp:S|qry_typ:P|lang:en|wc:2|cs:8786|v=4,False,Ram Nagar Extention,Jaipur,"Ganesh Nagar P. No. 70-a Sodala, Ram Nagar Extention, Jaipur - 302019, Dist.Jaipur, Rajasthan",7949089910,
"Teddyy Easy Baby Diapers, Size: XL",https://www.indiamart.com/proddetail/teddyy-easy-baby-diapers-2854435641197.html?pos=165&kwd=baby diapers&tags=A||||8211.142|Price|product|||MDC|rsf:gd-|-stype:attr=1|qr_nm:gd|res:RC4|com-cf:nl|ptrs:na|ktp:N0|mc:4167|mtp:S|qry_typ:P|lang:en|wc:2|cs:8786|v=4,S. P. Hygiene Products,https://www.indiamart.com/sphygieneproductsmumbai/?pos=165&kwd=baby diapers&tags=A||||8211.142|Price|product|||MDC|rsf:gd-|-stype:attr=1|qr_nm:gd|res:RC4|com-cf:nl|ptrs:na|ktp:N0|mc:4167|mtp:S|qry_typ:P|lang:en|wc:2|cs:8786|v=4,False,,Mumbai,"Ground Floor, Shop No.3, 46/A, Modern Mill Compound, Jagannath Bhatankar Marg, Near S T Depot Prabhadevi,, Mumbai - 400025, Dist.Mumbai, Maharashtra",7949338427,
"XL Baby Mamy Poko Pants Diaper, Age Group: 2 To 4 Years",https://www.indiamart.com/proddetail/xl-baby-mamy-poko-pants-diaper-2853271053033.html?pos=166&kwd=baby diapers&tags=A||||8786.56|Price|product|||MDC|rsf:gd-|-stype:attr=1|qr_nm:gd|res:RC4|com-cf:nl|ptrs:na|ktp:N0|mc:4167|mtp:S|qry_typ:P|lang:en|wc:2|cs:8786|v=4,SVS Enterprises,https://www.indiamart.com/svs-enterpriseshyderabad/?pos=166&kwd=baby diapers&tags=A||||8786.56|Price|product|||MDC|rsf:gd-|-stype:attr=1|qr_nm:gd|res:RC4|com-cf:nl|ptrs:na|ktp:N0|mc:4167|mtp:S|qry_typ:P|lang:en|wc:2|cs:8786|v=4,False,Peerzadiguda,Hyderabad,"Ground Floor, Plot No. 36, South Swaroop Nagar,4-98/34/4,Near Committe Hall, Uppal Kalan,Medchal Malkajgiri, Peerzadiguda, Hyderabad - 500008, Dist.Hyderabad, Telangana",7948548055,
Printed Bonecam baby diaper pants xxxl,https://www.indiamart.com/proddetail/bonecam-baby-diaper-pants-xxxl-2854010509912.html?pos=167&kwd=baby diapers&tags=A||||8231.259|Price|product|||MDC|rsf:gd-|-stype:attr=1|qr_nm:gd|res:RC4|com-cf:nl|ptrs:na|ktp:N0|mc:4167|mtp:S|qry_typ:P|lang:en|wc:2|cs:8786|v=4,Kaker Group,https://www.indiamart.com/kaker-group/?pos=167&kwd=baby diapers&tags=A||||8231.259|Price|product|||MDC|rsf:gd-|-stype:attr=1|qr_nm:gd|res:RC4|com-cf:nl|ptrs:na|ktp:N0|mc:4167|mtp:S|qry_typ:P|lang:en|wc:2|cs:8786|v=4,False,Chavindra Naka,Bhiwandi,"Ghar No 1503/G-06 Tal Majla, Malasiya Sizing Kacheri Pada Nagaon-2,, Chavindra Naka, Bhiwandi - 421302, Maharashtra",8044561428,
"Pant Style Pull Ups M Adult Diaper, Waist Size: 20""-28''",https://www.indiamart.com/proddetail/m-adult-diaper-21934848673.html?pos=168&kwd=baby diapers&tags=A||||8038.093|Price|product|||MDC|rsf:gd-|-stype:attr=1|qr_nm:gd|res:RC4|com-cf:nl|ptrs:na|ktp:N0|mc:4167|mtp:S|qry_typ:P|lang:en|wc:2|cs:8786|v=4,Happy+ Healthcare Products,https://www.indiamart.com/happyhealthcareproducts/?pos=168&kwd=baby diapers&tags=A||||8038.093|Price|product|||MDC|rsf:gd-|-stype:attr=1|qr_nm:gd|res:RC4|com-cf:nl|ptrs:na|ktp:N0|mc:4167|mtp:S|qry_typ:P|lang:en|wc:2|cs:8786|v=4,False,Sri Ram Krupa,Rajkot,"RADHAPARK STREET NO.1,NEAR TRISHUL DAIRY,OPP.DIAMOND PARTY PLOT. RADHAPARK MAIN ROAD, Sri Ram Krupa, Rajkot - 360002, Dist.Rajkot, Gujarat",8048618001,
"M1 Mamy Poko Pants Standard, Size: Medium, Age Group: 1to2 Years",https://www.indiamart.com/proddetail/m1-mamy-poko-pants-standard-2854697287988.html?pos=169&kwd=baby diapers&tags=A||||8559.269|Price|product|||MDC|rsf:gd-|-stype:attr=1|qr_nm:gd|res:RC4|com-cf:nl|ptrs:na|ktp:N0|mc:4167|mtp:S|qry_typ:P|lang:en|wc:2|cs:8786|v=4,Hi Tech Logistics,https://www.indiamart.com/hitech-logistics-indore/?pos=169&kwd=baby diapers&tags=A||||8559.269|Price|product|||MDC|rsf:gd-|-stype:attr=1|qr_nm:gd|res:RC4|com-cf:nl|ptrs:na|ktp:N0|mc:4167|mtp:S|qry_typ:P|lang:en|wc:2|cs:8786|v=4,False,,Indore,"Halka No. 17, Survey No. 13/2/1, Lasudiya Mori, Indore - 452010, Dist.Indore, Madhya Pradesh",8044460450,
Mamy Poko Pants Baby Diaper,https://www.indiamart.com/proddetail/mamy-poko-pants-baby-diaper-2853337195891.html?pos=170&kwd=baby diapers&tags=A||||8211.142||product|||MDC|rsf:gd-|-stype:attr=1|qr_nm:gd|res:RC4|com-cf:nl|ptrs:na|ktp:N0|mc:4167|mtp:S|qry_typ:P|lang:en|wc:2|cs:8786|v=4,Lucky Health Care,https://www.indiamart.com/luckyhealthcare/?pos=170&kwd=baby diapers&tags=A||||8211.142||product|||MDC|rsf:gd-|-stype:attr=1|qr_nm:gd|res:RC4|com-cf:nl|ptrs:na|ktp:N0|mc:4167|mtp:S|qry_typ:P|lang:en|wc:2|cs:8786|v=4,False,Malad East,Mumbai,"1st Floor, Shreya General Stores Ravi, Shankar Chawl Gen A K V Marg Malad, Navsha Compd Near Riddhi Garden, Suburban, Malad East, Mumbai - 400097, Dist.Mumbai, Maharashtra",7949227835,
Baby Diapers,https://www.indiamart.com/proddetail/baby-diapers-2851792836362.html?pos=171&kwd=baby diapers&tags=BA||||8588.208||product|||TS|rsf:gd-|-stype:attr=1|qr_nm:gd|res:RC4|com-cf:nl|ptrs:na|ktp:N0|mc:4167|mtp:S|qry_typ:P|lang:en|wc:2|cs:8786|v=4,Dinesh Medicals,https://www.indiamart.com/dineshmedicals-kota/?pos=171&kwd=baby diapers&tags=BA||||8588.208||product|||TS|rsf:gd-|-stype:attr=1|qr_nm:gd|res:RC4|com-cf:nl|ptrs:na|ktp:N0|mc:4167|mtp:S|qry_typ:P|lang:en|wc:2|cs:8786|v=4,False,Ladpura,Kota,"Near Jagdish Hotel, Ladpura, Ladpura, Kota - 324006, Rajasthan",8043862482,
Briefs Adult Diaper,https://www.indiamart.com/proddetail/friends-adult-diapers-20475782655.html?pos=172&kwd=baby diapers&tags=BB||||8663.873|Price|product|||TS|rsf:gd-|-stype:attr=1|qr_nm:gd|res:RC4|com-cf:nl|ptrs:na|ktp:N0|mc:4167|mtp:S|qry_typ:P|lang:en|wc:2|cs:8786|v=4,The South India Surgical Co. (Bangalores),https://www.indiamart.com/thesouthindiasurgicalco/?pos=172&kwd=baby diapers&tags=BB||||8663.873|Price|product|||TS|rsf:gd-|-stype:attr=1|qr_nm:gd|res:RC4|com-cf:nl|ptrs:na|ktp:N0|mc:4167|mtp:S|qry_typ:P|lang:en|wc:2|cs:8786|v=4,False,Kalasipalyam,Bengaluru,"OPP Vani Vilas Hospital, No.25, A Street, K.R. Road, Fort, Kalasipalyam, Bengaluru - 560002, Dist.Bengaluru, Karnataka",8048978771,
Cotton Baby Diapers,https://www.indiamart.com/proddetail/baby-diapers-2850883243491.html?pos=173&kwd=baby diapers&tags=BA||||9722.896|Price|product|||TS|rsf:gd-|-stype:attr=1|qr_nm:gd|res:RC4|com-cf:nl|ptrs:na|ktp:N0|mc:4167|mtp:S|qry_typ:P|lang:en|wc:2|cs:8786|v=4,Ashirbad Paper Cup Project,https://www.indiamart.com/ashirbad-papercup-project/?pos=173&kwd=baby diapers&tags=BA||||9722.896|Price|product|||TS|rsf:gd-|-stype:attr=1|qr_nm:gd|res:RC4|com-cf:nl|ptrs:na|ktp:N0|mc:4167|mtp:S|qry_typ:P|lang:en|wc:2|cs:8786|v=4,False,Nachipur,Kharagpur,"0, Keshiary, Hasimpur,, Nachipur, Kharagpur - 721133, West Bengal",8046058567,
Cotton Reusable baby diapers,https://www.indiamart.com/proddetail/reusable-baby-diapers-2855059749897.html?pos=174&kwd=baby diapers&tags=BB||||8662.111|Price|product|||TS|rsf:gd-|-stype:attr=1|qr_nm:gd|res:RC4|com-cf:nl|ptrs:na|ktp:N0|mc:4167|mtp:S|qry_typ:P|lang:en|wc:2|cs:8786|v=4,Fay Walk Fashions,https://www.indiamart.com/faywalk-fashions/?pos=174&kwd=baby diapers&tags=BB||||8662.111|Price|product|||TS|rsf:gd-|-stype:attr=1|qr_nm:gd|res:RC4|com-cf:nl|ptrs:na|ktp:N0|mc:4167|mtp:S|qry_typ:P|lang:en|wc:2|cs:8786|v=4,False,Vanarpattai,Tirunelveli,"House Of Seyad, 2nd Floor, Na, North Bye Pass Road, Vanarpattai, Tirunelveli - 627003, Dist.Tirunelveli, Tamil Nadu",8043802713,
Disposable Baby Diapers,https://www.indiamart.com/proddetail/disposable-baby-diapers-2853430435833.html?pos=175&kwd=baby diapers&tags=BA||||8242.731||product|||TS|rsf:gd-|-stype:attr=1|qr_nm:gd|res:RC4|com-cf:nl|ptrs:na|ktp:N0|mc:4167|mtp:S|qry_typ:P|lang:en|wc:2|cs:8786|v=4,A S Enterprises,https://www.indiamart.com/asenterprises-ulhasnagar/?pos=175&kwd=baby diapers&tags=BA||||8242.731||product|||TS|rsf:gd-|-stype:attr=1|qr_nm:gd|res:RC4|com-cf:nl|ptrs:na|ktp:N0|mc:4167|mtp:S|qry_typ:P|lang:en|wc:2|cs:8786|v=4,False,Vitthalwadi,Ulhasnagar,"Near BK No 617, Shop , Room No 1, O T Section, Vitthalwadi, Ulhasnagar - 421002, Dist.Thane, Maharashtra",7942835156,
"Polyester Cloth Diaper Reusable Baby Diapers, Small, Age Group: 3-12 Months",https://www.indiamart.com/proddetail/reusable-baby-diapers-26747903830.html?pos=176&kwd=baby diapers&tags=BA||||8752.144|Price|product|||TS|rsf:gd-|-stype:attr=1|qr_nm:gd|res:RC4|com-cf:nl|ptrs:na|ktp:N0|mc:4167|mtp:S|qry_typ:P|lang:en|wc:2|cs:8786|v=4,Insight Products,https://www.indiamart.com/insightproducts/?pos=176&kwd=baby diapers&tags=BA||||8752.144|Price|product|||TS|rsf:gd-|-stype:attr=1|qr_nm:gd|res:RC4|com-cf:nl|ptrs:na|ktp:N0|mc:4167|mtp:S|qry_typ:P|lang:en|wc:2|cs:8786|v=4,False,Bhagwati Garden,New Delhi,"10, Jai Bharat Enclave, Nr. Bhagwati Garden Extn, Mohan Garden, West Delhi, Bhagwati Garden, New Delhi - 110059, Dist.Delhi, Delhi",8043802833,
"Nonwoven Libero Baby Diapers, 385x280 mm",https://www.indiamart.com/proddetail/libero-baby-diapers-13588789555.html?pos=177&kwd=baby diapers&tags=BA||||8954.051|Price|product|||TS|rsf:gd-|-stype:attr=1|qr_nm:gd|res:RC4|com-cf:nl|ptrs:na|ktp:N0|mc:4167|mtp:S|qry_typ:P|lang:en|wc:2|cs:8786|v=4,Universe Surgical Equipment Co.,https://www.viaaan.com/?pos=177&kwd=baby diapers&tags=BA||||8954.051|Price|product|||TS|rsf:gd-|-stype:attr=1|qr_nm:gd|res:RC4|com-cf:nl|ptrs:na|ktp:N0|mc:4167|mtp:S|qry_typ:P|lang:en|wc:2|cs:8786|v=4,True,Park Town,Chennai,"No. 10/8, North Usman Road, T Nagar, Health & Glow, Park Town, Park Town, Chennai - 600003, Dist.Chennai, Tamil Nadu",8048264899,
Nonwoven Baby Diaper Loose,https://www.indiamart.com/proddetail/baby-diaper-loose-2852799530933.html?pos=178&kwd=baby diapers&tags=BA||||9734.362|Price|product|||TS|rsf:gd-|-stype:attr=1|qr_nm:gd|res:RC4|com-cf:nl|ptrs:na|ktp:N0|mc:4167|mtp:S|qry_typ:P|lang:en|wc:2|cs:8786|v=4,Shree Krishna Traders,https://www.jasminehygiene.in/?pos=178&kwd=baby diapers&tags=BA||||9734.362|Price|product|||TS|rsf:gd-|-stype:attr=1|qr_nm:gd|res:RC4|com-cf:nl|ptrs:na|ktp:N0|mc:4167|mtp:S|qry_typ:P|lang:en|wc:2|cs:8786|v=4,False,Jogbani,Jogabani,"Plot No 649,650,2852,2853, Ward No 14, Post Office Road, Jogbani Post Office, Jogbani, Jogabani - 854328, Dist.Araria, Bihar",7942964191,
Kids Diaper,https://www.indiamart.com/proddetail/kids-diaper-2854622347962.html?pos=179&kwd=baby diapers&tags=BA||||8601.347|Price|product|||TS|rsf:gd-|-stype:attr=1|qr_nm:gd|res:RC4|com-cf:nl|ptrs:na|ktp:N0|mc:4167|mtp:S|qry_typ:P|lang:en|wc:2|cs:8786|v=4,JSM Traders,https://www.indiamart.com/jsmtraders/?pos=179&kwd=baby diapers&tags=BA||||8601.347|Price|product|||TS|rsf:gd-|-stype:attr=1|qr_nm:gd|res:RC4|com-cf:nl|ptrs:na|ktp:N0|mc:4167|mtp:S|qry_typ:P|lang:en|wc:2|cs:8786|v=4,False,Jhotwara,Jaipur,"47-A, Shivpuri Colony, Jhotwara, Jhotwara, Jaipur - 302012, Dist.Jaipur, Rajasthan",8046059170,
Cotton Honey Bunny Baby Diaper Jumbo Pack,https://www.indiamart.com/proddetail/honey-bunny-baby-diaper-jumbo-pack-2853403072533.html?pos=180&kwd=baby diapers&tags=BA||||8478.165|Price|product|||TS|rsf:gd-|-stype:attr=1|qr_nm:gd|res:RC4|com-cf:nl|ptrs:na|ktp:N0|mc:4167|mtp:S|qry_typ:P|lang:en|wc:2|cs:8786|v=4,P & Q Hygiene Products,https://www.indiamart.com/pqhygieneproducts/?pos=180&kwd=baby diapers&tags=BA||||8478.165|Price|product|||TS|rsf:gd-|-stype:attr=1|qr_nm:gd|res:RC4|com-cf:nl|ptrs:na|ktp:N0|mc:4167|mtp:S|qry_typ:P|lang:en|wc:2|cs:8786|v=4,False,,Thazhecode,"TP11/260 A, B, C, Olakkal Building, Thondimmal, Thiruvambadi, Thazhecode - 673603, Dist.Kozhikode, Kerala",7942532245,
Cotton Large Super Jumbo Care Baby Diaper,https://www.indiamart.com/proddetail/large-super-jumbo-care-baby-diaper-19405477733.html?pos=181&kwd=baby diapers&tags=BA||||8747.223|Price|product|||TS|rsf:gd-|-stype:attr=1|qr_nm:gd|res:RC4|com-cf:nl|ptrs:na|ktp:N0|mc:4167|mtp:S|qry_typ:P|lang:en|wc:2|cs:8786|v=4,Vivia International Private Limited,https://www.viviainternational.com/?pos=181&kwd=baby diapers&tags=BA||||8747.223|Price|product|||TS|rsf:gd-|-stype:attr=1|qr_nm:gd|res:RC4|com-cf:nl|ptrs:na|ktp:N0|mc:4167|mtp:S|qry_typ:P|lang:en|wc:2|cs:8786|v=4,False,Nathupur,Sonipat,"Khasra No. 36/9/2/1-2/8, Village Nathupur, Kundli, Nathupur, Sonipat - 131029, Dist.Sonipat, Haryana",8047643594,
"Cotton Reusable Baby Diaper, Age Group: 3-12 Months",https://www.indiamart.com/proddetail/reusable-baby-diaper-23025654630.html?pos=182&kwd=baby diapers&tags=BA||||8752.144|Price|product|||TS|rsf:gd-|-stype:attr=1|qr_nm:gd|res:RC4|com-cf:nl|ptrs:na|ktp:N0|mc:4167|mtp:S|qry_typ:P|lang:en|wc:2|cs:8786|v=4,Marvels,https://www.indiamart.com/marvels/?pos=182&kwd=baby diapers&tags=BA||||8752.144|Price|product|||TS|rsf:gd-|-stype:attr=1|qr_nm:gd|res:RC4|com-cf:nl|ptrs:na|ktp:N0|mc:4167|mtp:S|qry_typ:P|lang:en|wc:2|cs:8786|v=4,False,Libaspur,New Delhi,"D247 street no 3 swaroop nagar delhi, Libaspur, New Delhi - 110042, Dist.Delhi, Delhi",8046075963,
"Cloud Responsive Krishnavi India DESIGN, With 24*7 Support",https://www.indiamart.com/proddetail/krishnavi-india-design-27488074962.html?pos=183&kwd=baby diapers&tags=BA||||8752.144||product|||TS|rsf:gd-|-stype:attr=1|qr_nm:gd|res:RC4|com-cf:nl|ptrs:na|ktp:N0|mc:4167|mtp:S|qry_typ:P|lang:en|wc:2|cs:8786|v=4,Krishnavi India,https://www.indiamart.com/krishnavi-india/?pos=183&kwd=baby diapers&tags=BA||||8752.144||product|||TS|rsf:gd-|-stype:attr=1|qr_nm:gd|res:RC4|com-cf:nl|ptrs:na|ktp:N0|mc:4167|mtp:S|qry_typ:P|lang:en|wc:2|cs:8786|v=4,True,Uttam Nagar,New Delhi,"M-41, Shayam Park, Nawada, Uttam Nagar Near Mohan Garden, Uttam Nagar, New Delhi - 110059, Dist.Delhi, Delhi",8048617988,
Reusable Diaper,https://www.indiamart.com/proddetail/reusable-diaper-2853723038348.html?pos=184&kwd=baby diapers&tags=BA||||9097.53|Price|product|||TS|rsf:gd-|-stype:attr=1|qr_nm:gd|res:RC4|com-cf:nl|ptrs:na|ktp:N0|mc:4167|mtp:S|qry_typ:P|lang:en|wc:2|cs:8786|v=4,My Bear Hugs,https://www.indiamart.com/bear-hugs/?pos=184&kwd=baby diapers&tags=BA||||9097.53|Price|product|||TS|rsf:gd-|-stype:attr=1|qr_nm:gd|res:RC4|com-cf:nl|ptrs:na|ktp:N0|mc:4167|mtp:S|qry_typ:P|lang:en|wc:2|cs:8786|v=4,False,,Fatehpur,"44/38,,CHAUDHARANA,Fatehpur Ist Floor 44/38 Chaudharana,212601,, Fatehpur - 212601, Uttar Pradesh",,
"Babyhug Super Dry Diaper Pants, Age Group: 1-6Months",https://www.indiamart.com/proddetail/babyhug-super-dry-diaper-pants-2852945006355.html?pos=185&kwd=baby diapers&tags=BA||||8559.269|Price|product|||TS|rsf:gd-|-stype:attr=1|qr_nm:gd|res:RC4|com-cf:nl|ptrs:na|ktp:N0|mc:4167|mtp:S|qry_typ:P|lang:en|wc:2|cs:8786|v=4,MDM Comfort Hygiene And Health Care,https://www.indiamart.com/mdm-comforthygieneand-healthcare/?pos=185&kwd=baby diapers&tags=BA||||8559.269|Price|product|||TS|rsf:gd-|-stype:attr=1|qr_nm:gd|res:RC4|com-cf:nl|ptrs:na|ktp:N0|mc:4167|mtp:S|qry_typ:P|lang:en|wc:2|cs:8786|v=4,False,Musakhedi,Indore,"1st Floor, 70, Udyog Nagar, Near Shiv Nagar, Musakhedi, Indore - 452020, Dist.Indore, Madhya Pradesh",7942840436,
"Cotton Baby Diaper, Medium",https://www.indiamart.com/proddetail/baby-diaper-2853233060688.html?pos=186&kwd=baby diapers&tags=BA||||10180.86|Price|product|||TS|rsf:gd-|-stype:attr=1|qr_nm:gd|res:RC4|com-cf:nl|ptrs:na|ktp:N0|mc:4167|mtp:S|qry_typ:P|lang:en|wc:2|cs:8786|v=4,Bina E Medicare LLP,https://www.indiamart.com/bina-e-medicare/?pos=186&kwd=baby diapers&tags=BA||||10180.86|Price|product|||TS|rsf:gd-|-stype:attr=1|qr_nm:gd|res:RC4|com-cf:nl|ptrs:na|ktp:N0|mc:4167|mtp:S|qry_typ:P|lang:en|wc:2|cs:8786|v=4,False,Bormotoria,Guwahati,"2nd Floor C/o Dhruba Jyoti Das Gmch Road Harabala Market Bhangagarh, GMCH Road, Bormotoria, Guwahati - 781006, Dist.Kamrup, Assam",7942721010,
"Advanced Dipers Pant Type Babyhug Diapers, Size: Small, Packaging Size: 3 Pc",https://www.indiamart.com/proddetail/babyhug-diapers-2849645511891.html?pos=187&kwd=baby diapers&tags=BA||||8740.707|Price|product|||TS|rsf:gd-|-stype:attr=1|qr_nm:gd|res:RC4|com-cf:nl|ptrs:na|ktp:N0|mc:4167|mtp:S|qry_typ:P|lang:en|wc:2|cs:8786|v=4,Arihant Solutions,https://www.indiamart.com/arihantsolutions/?pos=187&kwd=baby diapers&tags=BA||||8740.707|Price|product|||TS|rsf:gd-|-stype:attr=1|qr_nm:gd|res:RC4|com-cf:nl|ptrs:na|ktp:N0|mc:4167|mtp:S|qry_typ:P|lang:en|wc:2|cs:8786|v=4,False,JLPL Industrial Area,Sas Nagar,"First Floor Plot No. 1250 JLPL, Sector 82, JLPL Industrial Area, Sas Nagar - 160055, Dist.Mohali, Punjab",8047645834,
Pull Ups Hug Fit large Baby Diaper Pant,https://www.indiamart.com/proddetail/hug-fit-large-baby-diaper-pant-22141187812.html?pos=188&kwd=baby diapers&tags=BA||||8211.142|Price|product|||TS|rsf:gd-|-stype:attr=1|qr_nm:gd|res:RC4|com-cf:nl|ptrs:na|ktp:N0|mc:4167|mtp:S|qry_typ:P|lang:en|wc:2|cs:8786|v=4,Royal Herbs,https://www.indiamart.com/royal-herbs/?pos=188&kwd=baby diapers&tags=BA||||8211.142|Price|product|||TS|rsf:gd-|-stype:attr=1|qr_nm:gd|res:RC4|com-cf:nl|ptrs:na|ktp:N0|mc:4167|mtp:S|qry_typ:P|lang:en|wc:2|cs:8786|v=4,False,Malad East,Mumbai,"Kurar Village Road, Ambewadi, Shantaram Talav, Malad East, Malad East, Mumbai - 400097, Dist.Mumbai, Maharashtra",7942541679,
Nonwoven Baby Diaper,https://www.indiamart.com/proddetail/baby-diaper-2849864116688.html?pos=189&kwd=baby diapers&tags=BA||||8559.269|Price|product|||TS|rsf:gd-|-stype:attr=1|qr_nm:gd|res:RC4|com-cf:nl|ptrs:na|ktp:N0|mc:4167|mtp:S|qry_typ:P|lang:en|wc:2|cs:8786|v=4,Lark Care,https://www.indiamart.com/larkcare/?pos=189&kwd=baby diapers&tags=BA||||8559.269|Price|product|||TS|rsf:gd-|-stype:attr=1|qr_nm:gd|res:RC4|com-cf:nl|ptrs:na|ktp:N0|mc:4167|mtp:S|qry_typ:P|lang:en|wc:2|cs:8786|v=4,False,Ushaganj,Indore,"355,DAWA BAZAR,RNT MARG,INDORE, Ushaganj, Indore - 452001, Dist.Indore, Madhya Pradesh",8046032934,
"Velcro Type Freshkins Baby Diaper, Size: Medium",https://www.indiamart.com/proddetail/velcro-type-freshkins-baby-diaper-2851845801788.html?pos=190&kwd=baby diapers&tags=BA||||9578.697|Price|product|||TS|rsf:gd-|-stype:attr=1|qr_nm:gd|res:RC4|com-cf:nl|ptrs:na|ktp:N0|mc:4167|mtp:S|qry_typ:P|lang:en|wc:2|cs:8786|v=4,Jyotsna Associate,https://www.indiamart.com/jyotsnaassociate/?pos=190&kwd=baby diapers&tags=BA||||9578.697|Price|product|||TS|rsf:gd-|-stype:attr=1|qr_nm:gd|res:RC4|com-cf:nl|ptrs:na|ktp:N0|mc:4167|mtp:S|qry_typ:P|lang:en|wc:2|cs:8786|v=4,False,Mangalabag,Cuttack,"New Colony, 183/H/3, Buxibazar, Gamadia, Mangalabag, Cuttack - 753001, Dist.Cuttack, Odisha",7942836140,
Feel Free Cotton Baby Diaper,https://www.indiamart.com/proddetail/baby-diaper-21732912091.html?pos=191&kwd=baby diapers&tags=BB||||8559.269|Price|product|||TS|rsf:gd-|-stype:attr=1|qr_nm:gd|res:RC4|com-cf:nl|ptrs:na|ktp:N0|mc:4167|mtp:S|qry_typ:P|lang:en|wc:2|cs:8786|v=4,Gee Seven Bio Energy,https://www.indiamart.com/geesevenbioenergy/?pos=191&kwd=baby diapers&tags=BB||||8559.269|Price|product|||TS|rsf:gd-|-stype:attr=1|qr_nm:gd|res:RC4|com-cf:nl|ptrs:na|ktp:N0|mc:4167|mtp:S|qry_typ:P|lang:en|wc:2|cs:8786|v=4,False,Navlakha,Indore,"Fifth Floor, 502, Bansiwala Tower, Sapna Sangeeta Road,, Navlakha, Indore - 452001, Dist.Indore, Madhya Pradesh",7942558587,
"Cotton Pant Diapers LuvLap Baby Diaper Pants New Born (NB) 0-5kg, Size: Small, Packaging Size: 15 X 16 X 1 Centimeters",https://www.indiamart.com/proddetail/luvlap-baby-diaper-pants-new-born-nb-0-5kg-25269205591.html?pos=192&kwd=baby diapers&tags=BA||||8228.275|Price|product|||TS|rsf:gd-|-stype:attr=1|qr_nm:gd|res:RC4|com-cf:nl|ptrs:na|ktp:N0|mc:4167|mtp:S|qry_typ:P|lang:en|wc:2|cs:8786|v=4,Classic Medical Supply,https://www.classicmedicalsupply.com/?pos=192&kwd=baby diapers&tags=BA||||8228.275|Price|product|||TS|rsf:gd-|-stype:attr=1|qr_nm:gd|res:RC4|com-cf:nl|ptrs:na|ktp:N0|mc:4167|mtp:S|qry_typ:P|lang:en|wc:2|cs:8786|v=4,False,Bhadra,Ahmedabad,"Pragati Bank, 1 Classic Electronics, Relief Road, Ratanpur Pole, Bhadra, Ahmedabad - 380001, Dist.Ahmedabad, Gujarat",8048953386,
Baby Cloth Diaper With 5 Layer Bamboo Charcoal Insert Pad,https://www.indiamart.com/proddetail/baby-cloth-diaper-with-5-layer-bamboo-charcoal-insert-pad-24447871097.html?pos=193&kwd=baby diapers&tags=BB||||8752.144|Price|product|||TS|rsf:gd-|-stype:attr=1|qr_nm:gd|res:RC4|com-cf:nl|ptrs:na|ktp:N0|mc:4167|mtp:S|qry_typ:P|lang:en|wc:2|cs:8786|v=4,Shaifali Traders,https://www.shopphiez.com/?pos=193&kwd=baby diapers&tags=BB||||8752.144|Price|product|||TS|rsf:gd-|-stype:attr=1|qr_nm:gd|res:RC4|com-cf:nl|ptrs:na|ktp:N0|mc:4167|mtp:S|qry_typ:P|lang:en|wc:2|cs:8786|v=4,False,PATPARGANJ,New Delhi,"Plot No 10, main road patparganj ganj, PATPARGANJ, New Delhi - 110091, Dist.Delhi, Delhi",8046033629,
"VARSHA Baby Diaper, Age Group: 1 to10",https://www.indiamart.com/proddetail/varsha-baby-diaper-25562386055.html?pos=194&kwd=baby diapers&tags=BA||||9839.57|Price|product|||TS|rsf:gd-|-stype:attr=1|qr_nm:gd|res:RC4|com-cf:nl|ptrs:na|ktp:N0|mc:4167|mtp:S|qry_typ:P|lang:en|wc:2|cs:8786|v=4,Varsha Fashions,https://www.indiamart.com/varshafashions/?pos=194&kwd=baby diapers&tags=BA||||9839.57|Price|product|||TS|rsf:gd-|-stype:attr=1|qr_nm:gd|res:RC4|com-cf:nl|ptrs:na|ktp:N0|mc:4167|mtp:S|qry_typ:P|lang:en|wc:2|cs:8786|v=4,False,Machua,Kolkata,"170A & 170B, Room No. 4 B2, 4th Floor Chittranjan Avenue, Machua, Kolkata - 700007, Dist.Kolkata, West Bengal",8046043605,
"Cotton Disposable Baby Diaper ( Large Size), Packaging Size: 5 Piece In Pack",https://www.indiamart.com/proddetail/baby-diaper-large-size-12945376788.html?pos=195&kwd=baby diapers&tags=BA||||8601.347|Price|product|||TS|rsf:gd-|-stype:attr=1|qr_nm:gd|res:RC4|com-cf:nl|ptrs:na|ktp:N0|mc:4167|mtp:S|qry_typ:P|lang:en|wc:2|cs:8786|v=4,Jackson Care Product,https://www.jacksoncare.in/?pos=195&kwd=baby diapers&tags=BA||||8601.347|Price|product|||TS|rsf:gd-|-stype:attr=1|qr_nm:gd|res:RC4|com-cf:nl|ptrs:na|ktp:N0|mc:4167|mtp:S|qry_typ:P|lang:en|wc:2|cs:8786|v=4,False,Jaisinghpura Khor,Jaipur,"No. 199, Rishi Galav Nagar, Jaisinghpura Khor, Jaipur - 302002, Dist.Jaipur, Rajasthan",8048965113,
"Nonwoven MCP Baby Diapers, S, M, L, XL, XXL",https://www.indiamart.com/proddetail/mcp-baby-diapers-s-m-l-xl-xxl-2852571457988.html?pos=196&kwd=baby diapers&tags=BA||||8752.144|Price|product|||TS|rsf:gd-|-stype:attr=1|qr_nm:gd|res:RC4|com-cf:nl|ptrs:na|ktp:N0|mc:4167|mtp:S|qry_typ:P|lang:en|wc:2|cs:8786|v=4,Jindal Medical & Scientific Instruments Company (pvt.) Ltd.,https://www.indiamart.com/jindalmedical/?pos=196&kwd=baby diapers&tags=BA||||8752.144|Price|product|||TS|rsf:gd-|-stype:attr=1|qr_nm:gd|res:RC4|com-cf:nl|ptrs:na|ktp:N0|mc:4167|mtp:S|qry_typ:P|lang:en|wc:2|cs:8786|v=4,False,Mansarover Garden,New Delhi,"No. C 53-A, Mansarovar Garden, Mansarover Garden, New Delhi - 110015, Dist.Delhi, Delhi",8048978967,
Printed Loose Baby Diaper Pant Style XL 6 PCS Packing,https://www.indiamart.com/proddetail/printed-loose-baby-diaper-pant-style-xl-6-pcs-packing-2854951862033.html?pos=197&kwd=baby diapers&tags=BB||||8038.093|Price|product|||MDC|rsf:gd-|-stype:attr=1|qr_nm:gd|res:RC4|com-cf:nl|ptrs:na|ktp:N0|mc:4167|mtp:S|qry_typ:P|lang:en|wc:2|cs:8786|v=4,Siyaram Enterprise,https://www.indiamart.com/siyaramenterprise/?pos=197&kwd=baby diapers&tags=BB||||8038.093|Price|product|||MDC|rsf:gd-|-stype:attr=1|qr_nm:gd|res:RC4|com-cf:nl|ptrs:na|ktp:N0|mc:4167|mtp:S|qry_typ:P|lang:en|wc:2|cs:8786|v=4,False,Mavdi,Rajkot,"2016/0011387, Mavdi Vistar, Street No-15, Mavdi, Rajkot - 360004, Dist.Rajkot, Gujarat",8044012484,
Newborn Baby Diapers,https://www.indiamart.com/proddetail/newborn-baby-diapers-2854699553591.html?pos=198&kwd=baby diapers&tags=BB||||8626.744|Price|product|||MDC|rsf:gd-|-stype:attr=1|qr_nm:gd|res:RC4|com-cf:nl|ptrs:na|ktp:N0|mc:4167|mtp:S|qry_typ:P|lang:en|wc:2|cs:8786|v=4,S.M.Garmentss,https://www.indiamart.com/sm-garmentss/?pos=198&kwd=baby diapers&tags=BB||||8626.744|Price|product|||MDC|rsf:gd-|-stype:attr=1|qr_nm:gd|res:RC4|com-cf:nl|ptrs:na|ktp:N0|mc:4167|mtp:S|qry_typ:P|lang:en|wc:2|cs:8786|v=4,False,,Tiruppur,"8/4077/A6, Cholan Nagar, Anna Nagar East, P.N.Road, Tiruppur - 641602, Dist.Coimbatore, Tamil Nadu",7949336546,
Nonwoven Disposable Baby Diapers,https://www.indiamart.com/proddetail/disposable-baby-diapers-26759918691.html?pos=199&kwd=baby diapers&tags=BB||||8767.829|Price|product|||MDC|rsf:gd-|-stype:attr=1|qr_nm:gd|res:RC4|com-cf:nl|ptrs:na|ktp:N0|mc:4167|mtp:S|qry_typ:P|lang:en|wc:2|cs:8786|v=4,Hema Engineering Solution,https://www.indiamart.com/hemaengineeringsolution/?pos=199&kwd=baby diapers&tags=BB||||8767.829|Price|product|||MDC|rsf:gd-|-stype:attr=1|qr_nm:gd|res:RC4|com-cf:nl|ptrs:na|ktp:N0|mc:4167|mtp:S|qry_typ:P|lang:en|wc:2|cs:8786|v=4,False,Piyush City,Palwal,"644, First Floor, 1, Happy Homes, Omaxe City, Palwal, Piyush City, Palwal - 121102, Dist.Palwal, Haryana",8043853768,
Cotton Cuddles Baby Diapers,https://www.indiamart.com/proddetail/cuddles-baby-diapers-2854067798491.html?pos=200&kwd=baby diapers&tags=BA||||8211.142||product|||MDC|rsf:gd-|-stype:attr=1|qr_nm:gd|res:RC4|com-cf:nl|ptrs:na|ktp:N0|mc:4167|mtp:S|qry_typ:P|lang:en|wc:2|cs:8786|v=4,Vandana Enterprises,https://www.indiamart.com/vandanaenterprises-mumbai-maharashtra/?pos=200&kwd=baby diapers&tags=BA||||8211.142||product|||MDC|rsf:gd-|-stype:attr=1|qr_nm:gd|res:RC4|com-cf:nl|ptrs:na|ktp:N0|mc:4167|mtp:S|qry_typ:P|lang:en|wc:2|cs:8786|v=4,False,Jogeshwari East,Mumbai,"Chawl No 8, 12, Nasirkhan Rasulkhan Chawl, Meghwadi, Near Shiv Sena Office, Jogeshwari Suburban East, Jogeshwari East, Mumbai - 400060, Dist.Mumbai, Maharashtra",7949093226,
Baby Diaper for Kids,https://www.indiamart.com/proddetail/baby-diaper-for-kids-9616965633.html?pos=201&kwd=baby diapers&tags=BA||||8584.299|Price|product|||MDC|rsf:gd-|-stype:attr=1|qr_nm:gd|res:RC4|com-cf:nl|ptrs:na|ktp:N0|mc:4167|mtp:S|qry_typ:P|lang:en|wc:2|cs:8786|v=4,Safex Hygiene Care,https://www.indiamart.com/safex-hygiene-care/?pos=201&kwd=baby diapers&tags=BA||||8584.299|Price|product|||MDC|rsf:gd-|-stype:attr=1|qr_nm:gd|res:RC4|com-cf:nl|ptrs:na|ktp:N0|mc:4167|mtp:S|qry_typ:P|lang:en|wc:2|cs:8786|v=4,False,Kalveerampalayam,Coimbatore,"50/51, Thoppil Nagar, Kalveerampalyam, Kalveerampalayam, Coimbatore - 641046, Dist.Coimbatore, Tamil Nadu",8046037064,
"Cotton Easyfit Baby Diapers, Small",https://www.indiamart.com/proddetail/easyfit-baby-diapers-2854718794988.html?pos=202&kwd=baby diapers&tags=BA||||8582.251|Price|product|||MDC|rsf:gd-|-stype:attr=1|qr_nm:gd|res:RC4|com-cf:nl|ptrs:na|ktp:N0|mc:4167|mtp:S|qry_typ:P|lang:en|wc:2|cs:8786|v=4,Drug House,https://www.indiamart.com/drughouse-india/?pos=202&kwd=baby diapers&tags=BA||||8582.251|Price|product|||MDC|rsf:gd-|-stype:attr=1|qr_nm:gd|res:RC4|com-cf:nl|ptrs:na|ktp:N0|mc:4167|mtp:S|qry_typ:P|lang:en|wc:2|cs:8786|v=4,False,,Burhanpur,"Circle No. 02, Shop No. 386, Ward No. 24, Chandrakala,, Burhanpur - 450331, Dist.Burhanpur, Madhya Pradesh",7949341929,
Baby Printed Pant Diaper,https://www.indiamart.com/proddetail/baby-printed-pant-diaper-2853054634712.html?pos=203&kwd=baby diapers&tags=BA||||8752.144|Price|product|||MDC|rsf:gd-|-stype:attr=1|qr_nm:gd|res:RC4|com-cf:nl|ptrs:na|ktp:N0|mc:4167|mtp:S|qry_typ:P|lang:en|wc:2|cs:8786|v=4,Dagar Hygiene Private Limited,https://www.indiamart.com/dagar-hygiene/?pos=203&kwd=baby diapers&tags=BA||||8752.144|Price|product|||MDC|rsf:gd-|-stype:attr=1|qr_nm:gd|res:RC4|com-cf:nl|ptrs:na|ktp:N0|mc:4167|mtp:S|qry_typ:P|lang:en|wc:2|cs:8786|v=4,False,Karawal Nagar,New Delhi,"B-328, Kh-48/22, Maha Laxmi Enclave, Karawal Nagar North East, Karawal Nagar, New Delhi - 110094, Dist.Delhi, Delhi",7942965875,
"Himalaya Baby Diapers Small, Age Group: Newly Born",https://www.indiamart.com/proddetail/himalaya-baby-diapers-small-2853684619630.html?pos=204&kwd=baby diapers&tags=BA||||8331.224|Price|product|||MDC|rsf:gd-|-stype:attr=1|qr_nm:gd|res:RC4|com-cf:nl|ptrs:na|ktp:N0|mc:4167|mtp:S|qry_typ:P|lang:en|wc:2|cs:8786|v=4,Shri Siddhivinayak Distributors,https://www.indiamart.com/shrisiddhivinayak-distributors/?pos=204&kwd=baby diapers&tags=BA||||8331.224|Price|product|||MDC|rsf:gd-|-stype:attr=1|qr_nm:gd|res:RC4|com-cf:nl|ptrs:na|ktp:N0|mc:4167|mtp:S|qry_typ:P|lang:en|wc:2|cs:8786|v=4,False,New Shahupuri,Kolhapur,"Cs No 372/3, E Ward, Ghoarpade Galli, New Shahupuri, Kolhapur - 416003, Dist.Kolhapur, Maharashtra",7949095151,
Medium Size Baby Diapers,https://www.indiamart.com/proddetail/medium-size-baby-diapers-23958864612.html?pos=205&kwd=baby diapers&tags=BA||||8601.347|Price|product|||MDC|rsf:gd-|-stype:attr=1|qr_nm:gd|res:RC4|com-cf:nl|ptrs:na|ktp:N0|mc:4167|mtp:S|qry_typ:P|lang:en|wc:2|cs:8786|v=4,Fleming Hygiene,https://www.indiamart.com/fleming-hygiene/?pos=205&kwd=baby diapers&tags=BA||||8601.347|Price|product|||MDC|rsf:gd-|-stype:attr=1|qr_nm:gd|res:RC4|com-cf:nl|ptrs:na|ktp:N0|mc:4167|mtp:S|qry_typ:P|lang:en|wc:2|cs:8786|v=4,False,Gate,Jaipur,"774 Sanganeri Gate, Gate, Jaipur - 302003, Dist.Jaipur, Rajasthan",8047632456,
"Cotton Disposable Baby Diapers S M L, Age Group: 3-12 Months, Packaging Size: 46=36=32",https://www.indiamart.com/proddetail/baby-diapers-s-m-l-22612577155.html?pos=206&kwd=baby diapers&tags=BA||||8281.036|Price|product|||MDC|rsf:gd-|-stype:attr=1|qr_nm:gd|res:RC4|com-cf:nl|ptrs:na|ktp:N0|mc:4167|mtp:S|qry_typ:P|lang:en|wc:2|cs:8786|v=4,Fashion Live,https://www.indiamart.com/newsuperfashionlive/?pos=206&kwd=baby diapers&tags=BA||||8281.036|Price|product|||MDC|rsf:gd-|-stype:attr=1|qr_nm:gd|res:RC4|com-cf:nl|ptrs:na|ktp:N0|mc:4167|mtp:S|qry_typ:P|lang:en|wc:2|cs:8786|v=4,False,Karelibagh,Vadodara,"D-48, Vrundavan Tounship, Harni Road,, Karelibagh, Vadodara - 390022, Dist.Vadodara, Gujarat",8046037163,
Pant Type Easy Teddy Baby Diaper Small Pants,https://www.indiamart.com/proddetail/easy-teddy-baby-diaper-small-pants-2848954835133.html?pos=207&kwd=baby diapers&tags=BA||||8507.67|Price|product|||MDC|rsf:gd-|-stype:attr=1|qr_nm:gd|res:RC4|com-cf:nl|ptrs:na|ktp:N0|mc:4167|mtp:S|qry_typ:P|lang:en|wc:2|cs:8786|v=4,Roys Surgicals,https://www.indiamart.com/royssurgicals/?pos=207&kwd=baby diapers&tags=BA||||8507.67|Price|product|||MDC|rsf:gd-|-stype:attr=1|qr_nm:gd|res:RC4|com-cf:nl|ptrs:na|ktp:N0|mc:4167|mtp:S|qry_typ:P|lang:en|wc:2|cs:8786|v=4,False,Thrippunithura,Ernakulam,"11/ 305A, Thekkinethu, Sea Port Airport Road Irimpanam, Thrippunithura, Ernakulam - 682309, Dist.Ernakulam, Kerala",8047630278,
Wetex Twinkle Baby Diapers,,DKBD Private Limited,https://www.indiamart.com/dkbdguduvancheri/?pos=208&kwd=baby diapers&tags=A||||8929.652|Price|product|||TS|rsf:gd-|-stype:attr=1|qr_nm:gd|res:RC4|com-cf:nl|ptrs:na|ktp:N0|mc:4167|mtp:S|qry_typ:P|lang:en|wc:2|cs:8786|v=4,False,Medavakkam,Nandivaram-Guduvancheri,"No.10 Adhanur Nandivaram Guduvancheri, Medavakkam, Nandivaram-Guduvancheri - 603202, Tamil Nadu",8046076801,
"Pamper Premium Baby Care Diapers 13+ kg 36pcs Pack, XL",https://www.indiamart.com/proddetail/pamper-premium-baby-care-diapers-13-kg-36pcs-pack-2854586268897.html?pos=209&kwd=baby diapers&tags=BB||||8230.883|Price|product|||MDC|rsf:gd-|-stype:attr=1|qr_nm:gd|res:RC4|com-cf:nl|ptrs:na|ktp:N0|mc:4167|mtp:S|qry_typ:P|lang:en|wc:2|cs:8786|v=4,Smile Baby - Online,https://www.indiamart.com/smile-baby-online/?pos=209&kwd=baby diapers&tags=BB||||8230.883|Price|product|||MDC|rsf:gd-|-stype:attr=1|qr_nm:gd|res:RC4|com-cf:nl|ptrs:na|ktp:N0|mc:4167|mtp:S|qry_typ:P|lang:en|wc:2|cs:8786|v=4,False,,Surat,"Plot-154 GR. FLR,SY NO-24/1, Suyog Nagar Society, Bhatar Road,Althan Tenement,, Surat - 395007, Dist.Surat, Gujarat",7949330383,
Plain Medium Go Diapers Kids Premium Dry Pants,https://www.indiamart.com/proddetail/medium-go-diapers-kids-premium-dry-pants-2852670721355.html?pos=210&kwd=baby diapers&tags=BA||||9110.092||product|||MDC|rsf:gd-|-stype:attr=1|qr_nm:gd|res:RC4|com-cf:nl|ptrs:na|ktp:N0|mc:4167|mtp:S|qry_typ:P|lang:en|wc:2|cs:8786|v=4,Singh Associates,https://www.indiamart.com/singhassociateslucknow/?pos=210&kwd=baby diapers&tags=BA||||9110.092||product|||MDC|rsf:gd-|-stype:attr=1|qr_nm:gd|res:RC4|com-cf:nl|ptrs:na|ktp:N0|mc:4167|mtp:S|qry_typ:P|lang:en|wc:2|cs:8786|v=4,False,Hind Nagar,Lucknow,"First Floor, G-4, Transportnagar, Hind Nagar, Lucknow - 226012, Dist.Lucknow, Uttar Pradesh",7942716162,
