product_title,product_link,company_name,company_link,is_verified_exporter,city_region,city,address_details,phone_number,phone_number_extension
Multicolor SQUARE BABY CUSHION BOOK PILLOW(DROPSHIPPING AVAILABLE),https://www.indiamart.com/proddetail/baby-cushion-book-pillow-dropshipping-available-26074007812.html?pos=1&kwd=baby cushion&tags=A||||8230.883|Price|product|||TS|rsf:gd-|-stype:attr=1|qr_nm:gd|res:RC3|com-cf:nl|ptrs:na|ktp:N0|mc:72556|mtp:S|qry_typ:P|lang:en|wc:2|flavl:0|cs:9603|v=4,Rozzby,https://www.cheaperzonetoys.com/?pos=1&kwd=baby cushion&tags=A||||8230.883|Price|product|||TS|rsf:gd-|-stype:attr=1|qr_nm:gd|res:RC3|com-cf:nl|ptrs:na|ktp:N0|mc:72556|mtp:S|qry_typ:P|lang:en|wc:2|flavl:0|cs:9603|v=4,False,Kosam,Surat,"1st Floor D-2,103 Vip Circle Shlok Recidency Utran, Kosam, Surat - 394105, Dist.Surat, Gujarat",8047622002,
Pink Rectangular Kids Learning Cushion,https://www.indiamart.com/proddetail/kids-learning-cushion-2854761025612.html?pos=2&kwd=baby cushion&tags=BA||||8230.883|Price|product|||TS|rsf:gd-|-stype:attr=1|qr_nm:gd|res:RC3|com-cf:nl|ptrs:na|ktp:N0|mc:72556|mtp:S|qry_typ:P|lang:en|wc:2|flavl:0|cs:9603|v=4,Onward Toys,https://www.indiamart.com/onwardtoys/?pos=2&kwd=baby cushion&tags=BA||||8230.883|Price|product|||TS|rsf:gd-|-stype:attr=1|qr_nm:gd|res:RC3|com-cf:nl|ptrs:na|ktp:N0|mc:72556|mtp:S|qry_typ:P|lang:en|wc:2|flavl:0|cs:9603|v=4,False,Kamrej,Surat,"Plot No-82, Sidhdhivinayak Ind Estate, Kholvad, Sub Post Office, Kamrej,, Kamrej, Surat - 394180, Dist.Surat, Gujarat",8044561719,
U Shape Travelling Neck Cushion,https://www.indiamart.com/proddetail/travelling-neck-cushion-2849491478212.html?pos=3&kwd=baby cushion&tags=A||||8752.144|Price|product|||TS|rsf:gd-|-stype:attr=1|qr_nm:gd|res:RC3|com-cf:nl|ptrs:na|ktp:N0|mc:72556|mtp:S|qry_typ:P|lang:en|wc:2|flavl:0|cs:9603|v=4,Verma Enterprises,https://www.styaloindia.com/?pos=3&kwd=baby cushion&tags=A||||8752.144|Price|product|||TS|rsf:gd-|-stype:attr=1|qr_nm:gd|res:RC3|com-cf:nl|ptrs:na|ktp:N0|mc:72556|mtp:S|qry_typ:P|lang:en|wc:2|flavl:0|cs:9603|v=4,False,Samaypur,New Delhi,"Plot No.180/1-B, Kh.No. 955/1, 1st, Block-C, Raja Vihar, Siraspur, Badli, North West Delhi, Samaypur, New Delhi - 110042, Dist.Delhi, Delhi",8047654672,
Cushions,https://www.indiamart.com/proddetail/cushions-2851532930048.html?pos=4&kwd=baby cushion&tags=BA||||8752.144||product|||TS|rsf:gd-|-stype:attr=1|qr_nm:gd|res:RC3|com-cf:nl|ptrs:na|ktp:N0|mc:72556|mtp:S|qry_typ:P|lang:en|wc:2|flavl:0|cs:9603|v=4,National Overseas,https://www.indiamart.com/nationaltraders-vishwashnagar/?pos=4&kwd=baby cushion&tags=BA||||8752.144||product|||TS|rsf:gd-|-stype:attr=1|qr_nm:gd|res:RC3|com-cf:nl|ptrs:na|ktp:N0|mc:72556|mtp:S|qry_typ:P|lang:en|wc:2|flavl:0|cs:9603|v=4,False,Shahdara,New Delhi,"1/99, Gali No. 3, Vishwas Nagar, Shahdara, New Delhi - 110032, Dist.Delhi, Delhi",8046047673,
Multicolor Cotton Newborn Baby Mattress,https://www.indiamart.com/proddetail/newborn-baby-mattress-2854900388648.html?pos=5&kwd=baby cushion&tags=BB||||8230.883||product|||TS|rsf:gd-|-stype:attr=1|qr_nm:gd|res:RC3|com-cf:nl|ptrs:na|ktp:N0|mc:72556|mtp:S|qry_typ:P|lang:en|wc:2|flavl:0|cs:9603|v=4,Jani Collection,https://www.indiamart.com/janicollection/?pos=5&kwd=baby cushion&tags=BB||||8230.883||product|||TS|rsf:gd-|-stype:attr=1|qr_nm:gd|res:RC3|com-cf:nl|ptrs:na|ktp:N0|mc:72556|mtp:S|qry_typ:P|lang:en|wc:2|flavl:0|cs:9603|v=4,False,Katargam,Surat,"H.No. F.F., Plot 30-31, Parsottam Nagar, Idghawad, B/h Manavdharam Ashram, Gotalawadi, Katargam, Surat - 395003, Dist.Surat, Gujarat",8044562060,
Baby Bed Pillow Red Blue Square Kids Learning Cushion,https://www.indiamart.com/proddetail/blue-square-kids-learning-cushion-2853444349033.html?pos=6&kwd=baby cushion&tags=A||||8230.883|Price|product|||TS|rsf:gd-|-stype:attr=1|qr_nm:gd|res:RC3|com-cf:nl|ptrs:na|ktp:N0|mc:72556|mtp:S|qry_typ:P|lang:en|wc:2|flavl:0|cs:9603|v=4,Maa Kiran Handloom & Jiyana,https://www.indiamart.com/maakiranhandloomjiyana/?pos=6&kwd=baby cushion&tags=A||||8230.883|Price|product|||TS|rsf:gd-|-stype:attr=1|qr_nm:gd|res:RC3|com-cf:nl|ptrs:na|ktp:N0|mc:72556|mtp:S|qry_typ:P|lang:en|wc:2|flavl:0|cs:9603|v=4,False,Udhana,Surat,"Shop No.17, Ground Floor, Astha Business Centre, Canal Road,, Udhana, Surat - 394185, Dist.Surat, Gujarat",7942788374,
hemico Baby Digital Printed Cotton Fabric Educational Alphabet Learning Soft Pillow Cushion Book.,https://www.indiamart.com/proddetail/hemico-baby-digital-printed-cotton-fabric-educational-alphabet-learning-soft-pillow-cushion-book-2853739432197.html?pos=7&kwd=baby cushion&tags=A||||8230.883|Price|product|||TS|rsf:gd-|-stype:attr=1|qr_nm:gd|res:RC3|com-cf:nl|ptrs:na|ktp:N0|mc:72556|mtp:S|qry_typ:P|lang:en|wc:2|flavl:0|cs:9603|v=4,Hemico,https://www.hemico.in/?pos=7&kwd=baby cushion&tags=A||||8230.883|Price|product|||TS|rsf:gd-|-stype:attr=1|qr_nm:gd|res:RC3|com-cf:nl|ptrs:na|ktp:N0|mc:72556|mtp:S|qry_typ:P|lang:en|wc:2|flavl:0|cs:9603|v=4,False,Katargam,Surat,"Basement Shop No.-1, Sunday Hub Shopping Center, Ambatalavdi Road KATARGAM, Katargam, Surat - 395004, Dist.Surat, Gujarat",7942544294,
Learning Pillow Cloth Book with English and Hindi Cushion Cotton Books for Kids Baby,https://www.indiamart.com/proddetail/learning-pillow-cloth-book-with-english-and-hindi-cushion-cotton-books-for-kids-baby-2853420139888.html?pos=8&kwd=baby cushion&tags=A||||8230.883|Price|product|||TS|rsf:gd-|-stype:attr=1|qr_nm:gd|res:RC3|com-cf:nl|ptrs:na|ktp:N0|mc:72556|mtp:S|qry_typ:P|lang:en|wc:2|flavl:0|cs:9603|v=4,Pocket Simple,https://www.pocketsimple.in/?pos=8&kwd=baby cushion&tags=A||||8230.883|Price|product|||TS|rsf:gd-|-stype:attr=1|qr_nm:gd|res:RC3|com-cf:nl|ptrs:na|ktp:N0|mc:72556|mtp:S|qry_typ:P|lang:en|wc:2|flavl:0|cs:9603|v=4,False,KATARGAM,Surat,"Gr.Floor, Shop No-20, Pramukh Residency,Omkar Soc, Ved Road, KATARGAM, Surat - 395004, Dist.Surat, Gujarat",7942720597,
Rectangular Yellow Cotton Baby Cushion,https://www.indiamart.com/proddetail/yellow-cotton-baby-cushion-2855018849530.html?pos=9&kwd=baby cushion&tags=A||||8626.744|Price|product|||MDC|rsf:gd-|-stype:attr=1|qr_nm:gd|res:RC3|com-cf:nl|ptrs:na|ktp:N0|mc:72556|mtp:S|qry_typ:P|lang:en|wc:2|flavl:0|cs:9603|v=4,Bawse Baby,https://www.indiamart.com/bawseebaby/?pos=9&kwd=baby cushion&tags=A||||8626.744|Price|product|||MDC|rsf:gd-|-stype:attr=1|qr_nm:gd|res:RC3|com-cf:nl|ptrs:na|ktp:N0|mc:72556|mtp:S|qry_typ:P|lang:en|wc:2|flavl:0|cs:9603|v=4,False,,Tiruppur,"1/125A Semmetuth Thottam, Kulathuputhur, Andipalayam, Tiruppur - 641687, Dist.Coimbatore, Tamil Nadu",8047552265,
Multicolor Unicorn Pseudo Baby Head Protector Cushion,https://www.indiamart.com/proddetail/pseudo-baby-head-protector-cushion-2855024273633.html?pos=10&kwd=baby cushion&tags=A||||8752.144|Price|product|||MDC|rsf:gd-|-stype:attr=1|qr_nm:gd|res:RC3|com-cf:nl|ptrs:na|ktp:N0|mc:72556|mtp:S|qry_typ:P|lang:en|wc:2|flavl:0|cs:9603|v=4,Dealsup,https://www.indiamart.com/dealsup-north-delhi/?pos=10&kwd=baby cushion&tags=A||||8752.144|Price|product|||MDC|rsf:gd-|-stype:attr=1|qr_nm:gd|res:RC3|com-cf:nl|ptrs:na|ktp:N0|mc:72556|mtp:S|qry_typ:P|lang:en|wc:2|flavl:0|cs:9603|v=4,False,,New Delhi,"Kamal Pur Majra, Khasra No. 7/14, Kamal Vihar, Village Burari North Delhi, New Delhi - 110084, Dist.Delhi, Delhi",7942532252,
"Red,Blue Rectangular Kid Learning Pillow Cushion",https://www.indiamart.com/proddetail/kid-learning-pillow-cushion-2854912738062.html?pos=11&kwd=baby cushion&tags=A||||8230.883|Price|product|||MDC|rsf:gd-|-stype:attr=1|qr_nm:gd|res:RC3|com-cf:nl|ptrs:na|ktp:N0|mc:72556|mtp:S|qry_typ:P|lang:en|wc:2|flavl:0|cs:9603|v=4,SN Enterprise,https://www.indiamart.com/snenterprise-surat/?pos=11&kwd=baby cushion&tags=A||||8230.883|Price|product|||MDC|rsf:gd-|-stype:attr=1|qr_nm:gd|res:RC3|com-cf:nl|ptrs:na|ktp:N0|mc:72556|mtp:S|qry_typ:P|lang:en|wc:2|flavl:0|cs:9603|v=4,False,,Surat,"Plot 130/131, 2nd Floor, Flat 201, Balaji Nagar SOC-1, Shri Siddhi Vinayak Place, Surat - 395004, Dist.Surat, Gujarat",8041015777,
"Educational Cushion Multicolor Baby Learning Pillow, Packaging Type: in bag, 3-12 Months",https://www.indiamart.com/proddetail/baby-learning-pillow-26954165373.html?pos=12&kwd=baby cushion&tags=BA||||8230.883|Price|product|||TS|rsf:gd-|-stype:attr=1|qr_nm:gd|res:RC3|com-cf:nl|ptrs:na|ktp:N0|mc:72556|mtp:S|qry_typ:P|lang:en|wc:2|flavl:0|cs:9603|v=4,Roswell,https://www.indiamart.com/varni-variety-store/?pos=12&kwd=baby cushion&tags=BA||||8230.883|Price|product|||TS|rsf:gd-|-stype:attr=1|qr_nm:gd|res:RC3|com-cf:nl|ptrs:na|ktp:N0|mc:72556|mtp:S|qry_typ:P|lang:en|wc:2|flavl:0|cs:9603|v=4,False,Katargam,Surat,"A-202, Maruti Residancy, Shyamdham Society Near Tarankund Katargam, Surat, Katargam, Surat - 395004, Dist.Surat, Gujarat",8048273281,
U Pink Baby Neck Pillow,https://www.indiamart.com/proddetail/pink-baby-neck-pillow-2854162970033.html?pos=13&kwd=baby cushion&tags=BA||||8752.144|Price|product|||MDC|rsf:gd-|-stype:attr=1|qr_nm:gd|res:RC3|com-cf:nl|ptrs:na|ktp:N0|mc:72556|mtp:S|qry_typ:P|lang:en|wc:2|flavl:0|cs:9603|v=4,Komal Embroidery,https://www.indiamart.com/komal-embroidery-newdelhi/?pos=13&kwd=baby cushion&tags=BA||||8752.144|Price|product|||MDC|rsf:gd-|-stype:attr=1|qr_nm:gd|res:RC3|com-cf:nl|ptrs:na|ktp:N0|mc:72556|mtp:S|qry_typ:P|lang:en|wc:2|flavl:0|cs:9603|v=4,False,Rithala,New Delhi,"Ground Floor, Shop No. PVT-3, KH No. 1203, Lal Doora Village Rithala Near Surya Hotel, Rithala, New Delhi - 110085, Dist.Delhi, Delhi",8045730251,
"WELLGREEN White Cushion, For Hotel",https://www.indiamart.com/proddetail/cushion-24498086633.html?pos=14&kwd=baby cushion&tags=A||||8230.883||product|||TS|rsf:gd-|-stype:attr=1|qr_nm:gd|res:RC3|com-cf:nl|ptrs:na|ktp:N0|mc:72556|mtp:S|qry_typ:P|lang:en|wc:2|flavl:0|cs:9603|v=4,Wellgreen Pillow Xpress,https://www.indiamart.com/wellgreen-pillow-xpress/?pos=14&kwd=baby cushion&tags=A||||8230.883||product|||TS|rsf:gd-|-stype:attr=1|qr_nm:gd|res:RC3|com-cf:nl|ptrs:na|ktp:N0|mc:72556|mtp:S|qry_typ:P|lang:en|wc:2|flavl:0|cs:9603|v=4,False,Bhestan,Surat,"Plot No 1/2, Ashirwad Ind. Soc, Bhestan C/o Wellgreen Pillow Xpress, Bhestan, Surat - 395023, Dist.Surat, Gujarat",8047301526,
Baby Cushion,,Mamta Traders,https://www.indiamart.com/mamtatradersmoradabad/?pos=15&kwd=baby cushion&tags=BA||||8915.672|Price|product|||TS|rsf:gd-|-stype:attr=1|qr_nm:gd|res:RC3|com-cf:nl|ptrs:na|ktp:N0|mc:72556|mtp:S|qry_typ:P|lang:en|wc:2|cs:8840|v=4,False,Govind Nagar Colony,Moradabad,"0, Holi Ka Maidan Katghar Beech, Kat Ghar, Govind Nagar Colony, Moradabad - 244001, Dist.Moradabad, Uttar Pradesh",7942823051,
Rectangular sublimation baby cushion,https://www.indiamart.com/proddetail/sublimation-baby-cushion-25760642873.html?pos=16&kwd=baby cushion&tags=BB||||8038.093|Price|product|||TS|rsf:gd-|-stype:attr=1|qr_nm:gd|res:RC3|com-cf:nl|ptrs:na|ktp:N0|mc:72556|mtp:S|qry_typ:P|lang:en|wc:2|cs:8840|v=4,Unique Enterprise,https://www.sublimationmanufacturer.com/?pos=16&kwd=baby cushion&tags=BB||||8038.093|Price|product|||TS|rsf:gd-|-stype:attr=1|qr_nm:gd|res:RC3|com-cf:nl|ptrs:na|ktp:N0|mc:72556|mtp:S|qry_typ:P|lang:en|wc:2|cs:8840|v=4,False,Maruti Industrial Area,Rajkot,"Sahkar Road Mehani Nagar 5, Maruti Industrial Area, Rajkot - 360004, Dist.Rajkot, Gujarat",8047633297,
Pink Rectangular Baby Learning Cushion,https://www.indiamart.com/proddetail/baby-learning-cushion-2849762442662.html?pos=17&kwd=baby cushion&tags=BA||||8230.883|Price|product|||TS|rsf:gd-|-stype:attr=1|qr_nm:gd|res:RC3|com-cf:nl|ptrs:na|ktp:N0|mc:72556|mtp:S|qry_typ:P|lang:en|wc:2|cs:8840|v=4,Sarvam Cart,https://www.sarvamcart.net/?pos=17&kwd=baby cushion&tags=BA||||8230.883|Price|product|||TS|rsf:gd-|-stype:attr=1|qr_nm:gd|res:RC3|com-cf:nl|ptrs:na|ktp:N0|mc:72556|mtp:S|qry_typ:P|lang:en|wc:2|cs:8840|v=4,False,Nana Varachha,Surat,"Shop No. 28 Puna Simada Road Anupam The Business Hub Yogi Chowk, Nana Varachha, Surat - 394211, Dist.Surat, Gujarat",8047634175,
"Polyfill Multicolor craftx Baby Cushion, For Home",https://www.indiamart.com/proddetail/craftx-baby-cushion-22671499233.html?pos=18&kwd=baby cushion&tags=BA||||8752.144|Price|product|||TS|rsf:gd-|-stype:attr=1|qr_nm:gd|res:RC3|com-cf:nl|ptrs:na|ktp:N0|mc:72556|mtp:S|qry_typ:P|lang:en|wc:2|cs:8840|v=4,Craftx Inc,https://www.indiamart.com/missru-trading-company/?pos=18&kwd=baby cushion&tags=BA||||8752.144|Price|product|||TS|rsf:gd-|-stype:attr=1|qr_nm:gd|res:RC3|com-cf:nl|ptrs:na|ktp:N0|mc:72556|mtp:S|qry_typ:P|lang:en|wc:2|cs:8840|v=4,False,Bawana,New Delhi,"N-191, Sec-02, Bawana Industrial Area, Bawana, New Delhi - 110084, Dist.Delhi, Delhi",8048952385,
"Velvet Printed Quirky Cushion , Kids Cushion , Soft Toys",https://www.indiamart.com/proddetail/quirky-cushion-kids-cushion-soft-toys-17804558155.html?pos=19&kwd=baby cushion&tags=BA||||8752.144|Price|product|||TS|rsf:gd-|-stype:attr=1|qr_nm:gd|res:RC3|com-cf:nl|ptrs:na|ktp:N0|mc:72556|mtp:S|qry_typ:P|lang:en|wc:2|cs:8840|v=4,Stybuzz,https://www.indiamart.com/stybuzz/?pos=19&kwd=baby cushion&tags=BA||||8752.144|Price|product|||TS|rsf:gd-|-stype:attr=1|qr_nm:gd|res:RC3|com-cf:nl|ptrs:na|ktp:N0|mc:72556|mtp:S|qry_typ:P|lang:en|wc:2|cs:8840|v=4,False,Patparganj Industrial Area,New Delhi,"Plot No. 400, First Floor, Patparganj Industrial Area, New Delhi - 110092, Dist.Delhi, Delhi",8048961845,
Multicolor BABY PROTECTOR CUSHION (2M),https://www.indiamart.com/proddetail/baby-protector-cushion-2m-24058652030.html?pos=20&kwd=baby cushion&tags=BA||||8230.883|Price|product|||TS|rsf:gd-|-stype:attr=1|qr_nm:gd|res:RC3|com-cf:nl|ptrs:na|ktp:N0|mc:72556|mtp:S|qry_typ:P|lang:en|wc:2|cs:8840|v=4,Mahant,https://www.themahant.com/?pos=20&kwd=baby cushion&tags=BA||||8230.883|Price|product|||TS|rsf:gd-|-stype:attr=1|qr_nm:gd|res:RC3|com-cf:nl|ptrs:na|ktp:N0|mc:72556|mtp:S|qry_typ:P|lang:en|wc:2|cs:8840|v=4,False,Katargam,Surat,"E-1103, Shukan Heights, Opp, Kantareshwar Hanuman Temple, Singanpore, Katargam, Surat - 395004, Dist.Surat, Gujarat",8048954505,
Baby Learning Cushion Pillow Book,https://www.indiamart.com/proddetail/baby-learning-cushion-pillow-book-2854651376030.html?pos=21&kwd=baby cushion&tags=BA||||8557.848|Price|product|||TS|rsf:gd-|-stype:attr=1|qr_nm:gd|res:RC3|com-cf:nl|ptrs:na|ktp:N0|mc:72556|mtp:S|qry_typ:P|lang:en|wc:2|cs:8840|v=4,Deal IND ( A Brand of Store APT ),https://www.indiamart.com/deal-ind/?pos=21&kwd=baby cushion&tags=BA||||8557.848|Price|product|||TS|rsf:gd-|-stype:attr=1|qr_nm:gd|res:RC3|com-cf:nl|ptrs:na|ktp:N0|mc:72556|mtp:S|qry_typ:P|lang:en|wc:2|cs:8840|v=4,False,Kalanjoor,Pathanamthitta,"16/589 Kalanjoor Kalanjoor, Kalanjoor, Pathanamthitta - 689694, Dist.Pathanamthitta, Kerala",,
"Baby Learning Cushion Soft Toys, Thinking, Child Age Group: 7-10 Yrs",https://www.indiamart.com/proddetail/baby-learning-cushion-soft-toys-2851733181855.html?pos=22&kwd=baby cushion&tags=BA||||8230.883|Price|product|||TS|rsf:gd-|-stype:attr=1|qr_nm:gd|res:RC3|com-cf:nl|ptrs:na|ktp:N0|mc:72556|mtp:S|qry_typ:P|lang:en|wc:2|cs:8840|v=4,RJ Enterprise,https://www.indiamart.com/rj-enterprise-surat/?pos=22&kwd=baby cushion&tags=BA||||8230.883|Price|product|||TS|rsf:gd-|-stype:attr=1|qr_nm:gd|res:RC3|com-cf:nl|ptrs:na|ktp:N0|mc:72556|mtp:S|qry_typ:P|lang:en|wc:2|cs:8840|v=4,False,Katargam,Surat,"134, Sahjanand Society, N/R Arogyakendra, Katargam, Katargam, Surat - 395004, Dist.Surat, Gujarat",7942555306,
"Printed mitsico Baby Cloth Book Learning Pillow Book Cushion Books, For Home",https://www.indiamart.com/proddetail/mitsico-baby-cloth-book-learning-pillow-book-cushion-books-2852607153597.html?pos=23&kwd=baby cushion&tags=BA||||8230.883|Price|product|||TS|rsf:gd-|-stype:attr=1|qr_nm:gd|res:RC3|com-cf:nl|ptrs:na|ktp:N0|mc:72556|mtp:S|qry_typ:P|lang:en|wc:2|cs:8840|v=4,Mitsico,https://www.mitsico.in/?pos=23&kwd=baby cushion&tags=BA||||8230.883|Price|product|||TS|rsf:gd-|-stype:attr=1|qr_nm:gd|res:RC3|com-cf:nl|ptrs:na|ktp:N0|mc:72556|mtp:S|qry_typ:P|lang:en|wc:2|cs:8840|v=4,False,KATARGAM,Surat,"Basement-1, Shop No.- A1, Sunday Hub Shopping Center, Amba Talavadi, Opp. Shree Vinayak Residency, KATARGAM, Surat - 395004, Dist.Surat, Gujarat",8047649165,
"Educational Cushion Multicolor Baby Learning Pillow, Packaging Type: in bag, 3-12 Months",https://www.indiamart.com/proddetail/baby-learning-pillow-26954165373.html?pos=24&kwd=baby cushion&tags=BA||||8230.883|Price|product|||TS|rsf:gd-|-stype:attr=1|qr_nm:gd|res:RC3|com-cf:nl|ptrs:na|ktp:N0|mc:72556|mtp:S|qry_typ:P|lang:en|wc:2|cs:8840|v=4,Roswell,https://www.indiamart.com/varni-variety-store/?pos=24&kwd=baby cushion&tags=BA||||8230.883|Price|product|||TS|rsf:gd-|-stype:attr=1|qr_nm:gd|res:RC3|com-cf:nl|ptrs:na|ktp:N0|mc:72556|mtp:S|qry_typ:P|lang:en|wc:2|cs:8840|v=4,False,Katargam,Surat,"A-202, Maruti Residancy, Shyamdham Society Near Tarankund Katargam, Surat, Katargam, Surat - 395004, Dist.Surat, Gujarat",8048273281,
Multicolor U Baby Bed Pillow,https://www.indiamart.com/proddetail/baby-bed-pillow-2852128209430.html?pos=25&kwd=baby cushion&tags=BB||||8747.203||product|||TS|rsf:gd-|-stype:attr=1|qr_nm:gd|res:RC3|com-cf:nl|ptrs:na|ktp:N0|mc:72556|mtp:S|qry_typ:P|lang:en|wc:2|cs:8840|v=4,Karunamayi Textiles,https://www.indiamart.com/karunamayitextiles/?pos=25&kwd=baby cushion&tags=BB||||8747.203||product|||TS|rsf:gd-|-stype:attr=1|qr_nm:gd|res:RC3|com-cf:nl|ptrs:na|ktp:N0|mc:72556|mtp:S|qry_typ:P|lang:en|wc:2|cs:8840|v=4,False,Netaji Colony,Panipat,"19/7, Sethi Road, Netaji Colony, Panipat - 132103, Dist.Panipat, Haryana",8043891244,
Ananda Foam Designer Kids Cushion,https://www.indiamart.com/proddetail/designer-kids-cushion-21415022173.html?pos=26&kwd=baby cushion&tags=BA||||8747.203|Price|product|||TS|rsf:gd-|-stype:attr=1|qr_nm:gd|res:RC3|com-cf:nl|ptrs:na|ktp:N0|mc:72556|mtp:S|qry_typ:P|lang:en|wc:2|cs:8840|v=4,Anand Fabrics,https://www.indiamart.com/anandfabricspanipat/?pos=26&kwd=baby cushion&tags=BA||||8747.203|Price|product|||TS|rsf:gd-|-stype:attr=1|qr_nm:gd|res:RC3|com-cf:nl|ptrs:na|ktp:N0|mc:72556|mtp:S|qry_typ:P|lang:en|wc:2|cs:8840|v=4,False,Huda,Panipat,"104, SD College Road, Huda, Panipat - 132103, Dist.Panipat, Haryana",7942556232,
Foam Pillow Multicolor Cushions For Kids,https://www.indiamart.com/proddetail/cushions-for-kids-2854121961730.html?pos=27&kwd=baby cushion&tags=BA||||8778.123|Price|product|||TS|rsf:gd-|-stype:attr=1|qr_nm:gd|res:RC3|com-cf:nl|ptrs:na|ktp:N0|mc:72556|mtp:S|qry_typ:P|lang:en|wc:2|cs:8840|v=4,Ferocraft E-Retail,https://www.indiamart.com/ferocraft-eretail-noida/?pos=27&kwd=baby cushion&tags=BA||||8778.123|Price|product|||TS|rsf:gd-|-stype:attr=1|qr_nm:gd|res:RC3|com-cf:nl|ptrs:na|ktp:N0|mc:72556|mtp:S|qry_typ:P|lang:en|wc:2|cs:8840|v=4,False,Sector 64,Noida,"B-85, sector 64, Noida Sector-64, Sector 64, Noida - 201305, Dist.Gautam Budh Nagar, Uttar Pradesh",8048609247,
U Shape Baby neck pillow,https://www.indiamart.com/proddetail/baby-neck-pillow-2851104175430.html?pos=28&kwd=baby cushion&tags=BA||||8752.144|Price|product|||TS|rsf:gd-|-stype:attr=1|qr_nm:gd|res:RC3|com-cf:nl|ptrs:na|ktp:N0|mc:72556|mtp:S|qry_typ:P|lang:en|wc:2|cs:8840|v=4,Bankey Bihari Enterprises,https://www.indiamart.com/bankey-bihari-enterprisesnewdelhi/?pos=28&kwd=baby cushion&tags=BA||||8752.144|Price|product|||TS|rsf:gd-|-stype:attr=1|qr_nm:gd|res:RC3|com-cf:nl|ptrs:na|ktp:N0|mc:72556|mtp:S|qry_typ:P|lang:en|wc:2|cs:8840|v=4,False,Jahangirpuri,New Delhi,"Plot No 51 First Floor Street No 11 Harijan Colony Village Bhalsva, Jahangirpuri, New Delhi - 110033, Dist.Delhi, Delhi",7942825166,
Modulyss Kids Learning Cushion English Hindi Etc Educational Pillow Velvet Cushion Book,https://www.indiamart.com/proddetail/modulyss-kids-learning-cushion-english-hindi-etc-educational-pillow-velvet-cushion-book-2852597567530.html?pos=29&kwd=baby cushion&tags=BA||||8230.883|Price|product|||TS|rsf:gd-|-stype:attr=1|qr_nm:gd|res:RC3|com-cf:nl|ptrs:na|ktp:N0|mc:72556|mtp:S|qry_typ:P|lang:en|wc:2|cs:8840|v=4,Modulyss,https://www.modulyss.in/?pos=29&kwd=baby cushion&tags=BA||||8230.883|Price|product|||TS|rsf:gd-|-stype:attr=1|qr_nm:gd|res:RC3|com-cf:nl|ptrs:na|ktp:N0|mc:72556|mtp:S|qry_typ:P|lang:en|wc:2|cs:8840|v=4,False,Katargam,Surat,"Modulyss OFFICE NO :- 2 BASEMENT-1, SUNDAY HUB, NEAR AMBA TALAVDI, OPP ANKUR SCHOOL, KATARGAM, SURAT, Katargam, Surat - 395004, Dist.Surat, Gujarat",7942792869,
Baby Bed Pillow PINK/BLUE KIDS LEARNING PILLOW/CUSION (SHREE HANS CREATION),https://www.indiamart.com/proddetail/kids-learning-pillow-cusion-shree-hans-creation-2853219035691.html?pos=30&kwd=baby cushion&tags=BA||||8230.883|Price|product|||TS|rsf:gd-|-stype:attr=1|qr_nm:gd|res:RC3|com-cf:nl|ptrs:na|ktp:N0|mc:72556|mtp:S|qry_typ:P|lang:en|wc:2|cs:8840|v=4,Ankita Jeetubhai Lokdiya,https://www.hanscart.com/?pos=30&kwd=baby cushion&tags=BA||||8230.883|Price|product|||TS|rsf:gd-|-stype:attr=1|qr_nm:gd|res:RC3|com-cf:nl|ptrs:na|ktp:N0|mc:72556|mtp:S|qry_typ:P|lang:en|wc:2|cs:8840|v=4,False,Katargam,Surat,"Block No.82, Plot No.C1, Ground Floor, Palod, Nr.Bank Of India, Nr.Kim Chowkdi, Kim, Katargam, Surat - 394110, Dist.Surat, Gujarat",8046041344,
Blue Rectangular Designer Baby Cushions,https://www.indiamart.com/proddetail/designer-baby-cushions-24272393962.html?pos=31&kwd=baby cushion&tags=BB||||8230.883|Price|product|||TS|rsf:gd-|-stype:attr=1|qr_nm:gd|res:RC3|com-cf:nl|ptrs:na|ktp:N0|mc:72556|mtp:S|qry_typ:P|lang:en|wc:2|cs:8840|v=4,N R Mart,https://www.thecheaperzone.com/?pos=31&kwd=baby cushion&tags=BB||||8230.883|Price|product|||TS|rsf:gd-|-stype:attr=1|qr_nm:gd|res:RC3|com-cf:nl|ptrs:na|ktp:N0|mc:72556|mtp:S|qry_typ:P|lang:en|wc:2|cs:8840|v=4,False,Katargam,Surat,"SHED NO 2, SY.NO.310. F H NO.132, PATEL FALIA, KATARGAM, SURAT, Surat, Gujarat, 395004, Katargam, Surat - 395004, Dist.Surat, Gujarat",8048262787,
Pillow For Kids,https://www.indiamart.com/proddetail/pillow-for-kids-2854080927262.html?pos=32&kwd=baby cushion&tags=BA||||8747.203|Price|product|||TS|rsf:gd-|-stype:attr=1|qr_nm:gd|res:RC3|com-cf:nl|ptrs:na|ktp:N0|mc:72556|mtp:S|qry_typ:P|lang:en|wc:2|cs:8840|v=4,Eshika Industries,https://www.eshikahomefurnishing.com/?pos=32&kwd=baby cushion&tags=BA||||8747.203|Price|product|||TS|rsf:gd-|-stype:attr=1|qr_nm:gd|res:RC3|com-cf:nl|ptrs:na|ktp:N0|mc:72556|mtp:S|qry_typ:P|lang:en|wc:2|cs:8840|v=4,False,HUDA,Panipat,"1825, Jyoti Colony, Near Main Road, HUDA, Panipat - 132103, Dist.Panipat, Haryana",7942826759,
Kids Cushion Book,https://www.indiamart.com/proddetail/kids-cushion-book-2853578241848.html?pos=33&kwd=baby cushion&tags=BA||||8752.144|Price|product|||TS|rsf:gd-|-stype:attr=1|qr_nm:gd|res:RC3|com-cf:nl|ptrs:na|ktp:N0|mc:72556|mtp:S|qry_typ:P|lang:en|wc:2|cs:8840|v=4,Uniqueotrend,https://www.indiamart.com/uniqueotrend-delhi/?pos=33&kwd=baby cushion&tags=BA||||8752.144|Price|product|||TS|rsf:gd-|-stype:attr=1|qr_nm:gd|res:RC3|com-cf:nl|ptrs:na|ktp:N0|mc:72556|mtp:S|qry_typ:P|lang:en|wc:2|cs:8840|v=4,False,North West,New Delhi,"Ist Floor, 67, Sector 11 Block G, Pocket 3, Rohini, North West, New Delhi - 110085, Dist.Delhi, Delhi",7942629340,
Mickey Mouse Customized Cushion,https://www.indiamart.com/proddetail/mickey-mouse-customized-cushion-23158046088.html?pos=34&kwd=baby cushion&tags=BA||||9520.041|Price|product|||TS|rsf:gd-|-stype:attr=1|qr_nm:gd|res:RC3|com-cf:nl|ptrs:na|ktp:N0|mc:72556|mtp:S|qry_typ:P|lang:en|wc:2|cs:8840|v=4,Bandhan Sales And Services,https://www.bandhansales.com/?pos=34&kwd=baby cushion&tags=BA||||9520.041|Price|product|||TS|rsf:gd-|-stype:attr=1|qr_nm:gd|res:RC3|com-cf:nl|ptrs:na|ktp:N0|mc:72556|mtp:S|qry_typ:P|lang:en|wc:2|cs:8840|v=4,False,Bakarganj,Patna,"Old Priya Hotel Gali, Baker Ganj, Gola Road Near Kuldeep Market And Mobile Hospital, Bakarganj, Patna - 800004, Dist.Patna, Bihar",8048617609,
"Lorem Yellow Kids Learning Pillow In English & Hindi Abcd, Birds, Fruits, Vegetable, Animal Bb104",https://www.indiamart.com/proddetail/lorem-yellow-kids-learning-pillow-in-english-hindi-abcd-birds-fruits-vegetable-animal-bb104-2852804127055.html?pos=35&kwd=baby cushion&tags=BB||||8230.883|Price|product|||TS|rsf:gd-|-stype:attr=1|qr_nm:gd|res:RC3|com-cf:nl|ptrs:na|ktp:N0|mc:72556|mtp:S|qry_typ:P|lang:en|wc:2|cs:8840|v=4,S J Fashion,https://www.indiamart.com/sjfashion/?pos=35&kwd=baby cushion&tags=BB||||8230.883|Price|product|||TS|rsf:gd-|-stype:attr=1|qr_nm:gd|res:RC3|com-cf:nl|ptrs:na|ktp:N0|mc:72556|mtp:S|qry_typ:P|lang:en|wc:2|cs:8840|v=4,False,Punagam,Surat,"B4, Basement, Polaris Mall Punagam BRTS canal Road,, Punagam, Surat - 395010, Dist.Surat, Gujarat",8048958543,
Baby Bed Pillow Red Cushions For Kids,https://www.indiamart.com/proddetail/cushions-for-kids-27045993612.html?pos=36&kwd=baby cushion&tags=BA||||8788.382|Price|product|||TS|rsf:gd-|-stype:attr=1|qr_nm:gd|res:RC3|com-cf:nl|ptrs:na|ktp:N0|mc:72556|mtp:S|qry_typ:P|lang:en|wc:2|cs:8840|v=4,Second May International,https://www.secondmayinternational.com/?pos=36&kwd=baby cushion&tags=BA||||8788.382|Price|product|||TS|rsf:gd-|-stype:attr=1|qr_nm:gd|res:RC3|com-cf:nl|ptrs:na|ktp:N0|mc:72556|mtp:S|qry_typ:P|lang:en|wc:2|cs:8840|v=4,True,Greater Noida,Greater Noida,"D 147 Epip Site 5, Surajpur Ind Area, Greater Noida, Greater Noida - 201308, Dist.Gautam Budh Nagar, Uttar Pradesh",8048982935,
Foam Base(Yellow) Animal Printed Cotton Baby Cushion,https://www.indiamart.com/proddetail/animal-printed-cotton-baby-cushion-2852673558948.html?pos=37&kwd=baby cushion&tags=BA||||8230.883|Price|product|||MDC|rsf:gd-|-stype:attr=1|qr_nm:gd|res:RC3|com-cf:nl|ptrs:na|ktp:N0|mc:72556|mtp:S|qry_typ:P|lang:en|wc:2|cs:8840|v=4,Shri Shri Fashion,https://www.indiamart.com/shri-shri-fashion/?pos=37&kwd=baby cushion&tags=BA||||8230.883|Price|product|||MDC|rsf:gd-|-stype:attr=1|qr_nm:gd|res:RC3|com-cf:nl|ptrs:na|ktp:N0|mc:72556|mtp:S|qry_typ:P|lang:en|wc:2|cs:8840|v=4,False,Varachha,Surat,"A-231, Narayan Nagar, Near Nalanda School, Punagam,, Varachha, Surat - 395010, Dist.Surat, Gujarat",7942712235,
Multicolor Rectangular Baby Cushion,https://www.indiamart.com/proddetail/baby-cushion-23822933312.html?pos=38&kwd=baby cushion&tags=BA||||8747.203||product|||MDC|rsf:gd-|-stype:attr=1|qr_nm:gd|res:RC3|com-cf:nl|ptrs:na|ktp:N0|mc:72556|mtp:S|qry_typ:P|lang:en|wc:2|cs:8840|v=4,Nav Jyoti Creations,https://www.indiamart.com/nav-jyoti-creations/?pos=38&kwd=baby cushion&tags=BA||||8747.203||product|||MDC|rsf:gd-|-stype:attr=1|qr_nm:gd|res:RC3|com-cf:nl|ptrs:na|ktp:N0|mc:72556|mtp:S|qry_typ:P|lang:en|wc:2|cs:8840|v=4,False,Panipat N.S.M.,Panipat,"Shop No. 2, Dev Puri Road, Panipat N.S.M., Panipat - 132103, Dist.Panipat, Haryana",8046049761,
Blue Baby Cushion,https://www.indiamart.com/proddetail/blue-baby-cushion-2853764331848.html?pos=39&kwd=baby cushion&tags=BA||||8752.144|Price|product|||MDC|rsf:gd-|-stype:attr=1|qr_nm:gd|res:RC3|com-cf:nl|ptrs:na|ktp:N0|mc:72556|mtp:S|qry_typ:P|lang:en|wc:2|cs:8840|v=4,Sana Toys India Private Limited,https://www.indiamart.com/sanatoys-india/?pos=39&kwd=baby cushion&tags=BA||||8752.144|Price|product|||MDC|rsf:gd-|-stype:attr=1|qr_nm:gd|res:RC3|com-cf:nl|ptrs:na|ktp:N0|mc:72556|mtp:S|qry_typ:P|lang:en|wc:2|cs:8840|v=4,False,Saraswati Vihar,New Delhi,"1,3, 163A, Saraswati Vihar, Pitampura, Saraswati Vihar, New Delhi - 110034, Dist.Delhi, Delhi",7949086093,
Rectangular Kids Learning Cushion Book,https://www.indiamart.com/proddetail/kids-learning-cushion-book-2853749452497.html?pos=40&kwd=baby cushion&tags=BA||||8747.203|Price|product|||MDC|rsf:gd-|-stype:attr=1|qr_nm:gd|res:RC3|com-cf:nl|ptrs:na|ktp:N0|mc:72556|mtp:S|qry_typ:P|lang:en|wc:2|cs:8840|v=4,Sabmix,https://www.indiamart.com/sabmix/?pos=40&kwd=baby cushion&tags=BA||||8747.203|Price|product|||MDC|rsf:gd-|-stype:attr=1|qr_nm:gd|res:RC3|com-cf:nl|ptrs:na|ktp:N0|mc:72556|mtp:S|qry_typ:P|lang:en|wc:2|cs:8840|v=4,False,Jattal,Panipat,"Nehar By-Pass Near Jattal Road, Near Deshwal Petrol Pump, Jattal, Panipat - 132103, Dist.Panipat, Haryana",8045165458,
"Velvet Printed Cushions set for kids, For Shop home, Size: 12)12",https://www.indiamart.com/proddetail/cushions-set-for-kids-2852638000088.html?pos=41&kwd=baby cushion&tags=BA||||8747.203|Price|product|||MDC|rsf:gd-|-stype:attr=1|qr_nm:gd|res:RC3|com-cf:nl|ptrs:na|ktp:N0|mc:72556|mtp:S|qry_typ:P|lang:en|wc:2|cs:8840|v=4,CS Traders,https://www.indiamart.com/cstraders-panipat/?pos=41&kwd=baby cushion&tags=BA||||8747.203|Price|product|||MDC|rsf:gd-|-stype:attr=1|qr_nm:gd|res:RC3|com-cf:nl|ptrs:na|ktp:N0|mc:72556|mtp:S|qry_typ:P|lang:en|wc:2|cs:8840|v=4,False,Chowk,Panipat,"House Number 5/7, Veer Ji Patang Wali Gali, Amar Bhawan Chowk, Chowk, Panipat - 132103, Dist.Panipat, Haryana",7942804560,
Baby Bed Pillow Mix Kids Learning Cushion Book,https://www.indiamart.com/proddetail/kids-learning-cushion-book-2853714010412.html?pos=42&kwd=baby cushion&tags=BA||||8737.904|Price|product|||MDC|rsf:gd-|-stype:attr=1|qr_nm:gd|res:RC3|com-cf:nl|ptrs:na|ktp:N0|mc:72556|mtp:S|qry_typ:P|lang:en|wc:2|cs:8840|v=4,PB Enterprises,https://www.indiamart.com/pb-enterprises-asankhurd/?pos=42&kwd=baby cushion&tags=BA||||8737.904|Price|product|||MDC|rsf:gd-|-stype:attr=1|qr_nm:gd|res:RC3|com-cf:nl|ptrs:na|ktp:N0|mc:72556|mtp:S|qry_typ:P|lang:en|wc:2|cs:8840|v=4,False,Panipat Thermal Project,Asankhurd,"Na 736/3 Oppt. Pandit Ji Sweet , Sondhapur Colony Hari Om, Panipat Thermal Project, Asankhurd - 132105, Haryana",7949092975,
Foam Base(Yellow) Animal Printed Cotton Baby Cushion,https://www.indiamart.com/proddetail/animal-printed-cotton-baby-cushion-2852673558948.html?pos=43&kwd=baby cushion&tags=BA||||8230.883|Price|product|||MDC|rsf:gd-|-stype:attr=1|qr_nm:gd|res:RC3|com-cf:nl|ptrs:na|ktp:N0|mc:72556|mtp:S|qry_typ:P|lang:en|wc:2|cs:8840|v=4,Shri Shri Fashion,https://www.indiamart.com/shri-shri-fashion/?pos=43&kwd=baby cushion&tags=BA||||8230.883|Price|product|||MDC|rsf:gd-|-stype:attr=1|qr_nm:gd|res:RC3|com-cf:nl|ptrs:na|ktp:N0|mc:72556|mtp:S|qry_typ:P|lang:en|wc:2|cs:8840|v=4,False,Varachha,Surat,"A-231, Narayan Nagar, Near Nalanda School, Punagam,, Varachha, Surat - 395010, Dist.Surat, Gujarat",7942712235,
"Velvet Printed Cushions set for kids, For Shop home, Size: 12)12",https://www.indiamart.com/proddetail/cushions-set-for-kids-2852638000088.html?pos=44&kwd=baby cushion&tags=BA||||8747.203|Price|product|||MDC|rsf:gd-|-stype:attr=1|qr_nm:gd|res:RC3|com-cf:nl|ptrs:na|ktp:N0|mc:72556|mtp:S|qry_typ:P|lang:en|wc:2|cs:8840|v=4,CS Traders,https://www.indiamart.com/cstraders-panipat/?pos=44&kwd=baby cushion&tags=BA||||8747.203|Price|product|||MDC|rsf:gd-|-stype:attr=1|qr_nm:gd|res:RC3|com-cf:nl|ptrs:na|ktp:N0|mc:72556|mtp:S|qry_typ:P|lang:en|wc:2|cs:8840|v=4,False,Chowk,Panipat,"House Number 5/7, Veer Ji Patang Wali Gali, Amar Bhawan Chowk, Chowk, Panipat - 132103, Dist.Panipat, Haryana",7942804560,
Baby Bed Pillow Mix Kids Learning Cushion Book,https://www.indiamart.com/proddetail/kids-learning-cushion-book-2853714010412.html?pos=45&kwd=baby cushion&tags=BA||||8737.904|Price|product|||MDC|rsf:gd-|-stype:attr=1|qr_nm:gd|res:RC3|com-cf:nl|ptrs:na|ktp:N0|mc:72556|mtp:S|qry_typ:P|lang:en|wc:2|cs:8840|v=4,PB Enterprises,https://www.indiamart.com/pb-enterprises-asankhurd/?pos=45&kwd=baby cushion&tags=BA||||8737.904|Price|product|||MDC|rsf:gd-|-stype:attr=1|qr_nm:gd|res:RC3|com-cf:nl|ptrs:na|ktp:N0|mc:72556|mtp:S|qry_typ:P|lang:en|wc:2|cs:8840|v=4,False,Panipat Thermal Project,Asankhurd,"Na 736/3 Oppt. Pandit Ji Sweet , Sondhapur Colony Hari Om, Panipat Thermal Project, Asankhurd - 132105, Haryana",7949092975,
Foam Pillow Multicolor Cushions For Kids,https://www.indiamart.com/proddetail/cushions-for-kids-2854121961730.html?pos=46&kwd=baby cushion&tags=BA||||8778.123|Price|product|||TS|rsf:gd-|-stype:attr=1|qr_nm:gd|res:RC3|com-cf:nl|ptrs:na|ktp:N0|mc:72556|mtp:S|qry_typ:P|lang:en|wc:2|cs:8840|v=4,Ferocraft E-Retail,https://www.indiamart.com/ferocraft-eretail-noida/?pos=46&kwd=baby cushion&tags=BA||||8778.123|Price|product|||TS|rsf:gd-|-stype:attr=1|qr_nm:gd|res:RC3|com-cf:nl|ptrs:na|ktp:N0|mc:72556|mtp:S|qry_typ:P|lang:en|wc:2|cs:8840|v=4,False,Sector 64,Noida,"B-85, sector 64, Noida Sector-64, Sector 64, Noida - 201305, Dist.Gautam Budh Nagar, Uttar Pradesh",8048609247,
LEARNING PILLOW CUSION,https://www.indiamart.com/proddetail/learning-pillow-cusion-2852053026033.html?pos=47&kwd=baby cushion&tags=BA||||8230.883|Price|product|||TS|rsf:gd-|-stype:attr=1|qr_nm:gd|res:RC3|com-cf:nl|ptrs:na|ktp:N0|mc:72556|mtp:S|qry_typ:P|lang:en|wc:2|cs:8840|v=4,Seaspirit(A Brand Of Spirit Enterprise),https://www.indiamart.com/spiritenterprisesurat/?pos=47&kwd=baby cushion&tags=BA||||8230.883|Price|product|||TS|rsf:gd-|-stype:attr=1|qr_nm:gd|res:RC3|com-cf:nl|ptrs:na|ktp:N0|mc:72556|mtp:S|qry_typ:P|lang:en|wc:2|cs:8840|v=4,False,Dabholi,Surat,"HOLIDAY GATE NO.1, Shop No.1 - HOLIDAY, OPP SHREENATHDWARA SOCIETY, B/S NEW DELUX MOTORS, NEAR CANCER HOSPITAL, Dabholi Road, KATARGAM, Dabholi, Surat - 395004, Dist.Surat, Gujarat",8046069933,
"siroki bond Polyster Polyester Filled Cushion, For Home",https://www.indiamart.com/proddetail/polyester-filled-cushion-26032571655.html?pos=48&kwd=baby cushion&tags=BA||||8601.347|Price|product|||TS|rsf:gd-|-stype:attr=1|qr_nm:gd|res:RC3|com-cf:nl|ptrs:na|ktp:N0|mc:72556|mtp:S|qry_typ:P|lang:en|wc:2|cs:8840|v=4,Supreme Bond Mattress,https://www.indiamart.com/supreme-bond-mattress/?pos=48&kwd=baby cushion&tags=BA||||8601.347|Price|product|||TS|rsf:gd-|-stype:attr=1|qr_nm:gd|res:RC3|com-cf:nl|ptrs:na|ktp:N0|mc:72556|mtp:S|qry_typ:P|lang:en|wc:2|cs:8840|v=4,False,Bagru,Jaipur,"I/d-4, Solitaire Industrial Park, Phase- 2, Bagru, Bagru, Jaipur - 303007, Dist.Jaipur, Rajasthan",8047640386,
"Pink,Red,Blue Velvet Sublimation Cushion Sweet Dream Pillow, Packaging Type: Box, Rectangle",https://www.indiamart.com/proddetail/sublimation-cushion-sweet-dream-pillow-14521306933.html?pos=49&kwd=baby cushion&tags=BA||||8752.144|Price|product|||TS|rsf:gd-|-stype:attr=1|qr_nm:gd|res:RC3|com-cf:nl|ptrs:na|ktp:N0|mc:72556|mtp:S|qry_typ:P|lang:en|wc:2|cs:8840|v=4,Ambition Gifts,https://www.ambitiongifts.co.in/?pos=49&kwd=baby cushion&tags=BA||||8752.144|Price|product|||TS|rsf:gd-|-stype:attr=1|qr_nm:gd|res:RC3|com-cf:nl|ptrs:na|ktp:N0|mc:72556|mtp:S|qry_typ:P|lang:en|wc:2|cs:8840|v=4,False,Jhandewalan,New Delhi,"47, First Floor, Rani Jhansi Road, Jhandewalan, New Delhi - 110055, Dist.Delhi, Delhi",8047632065,
Cushions,https://www.indiamart.com/proddetail/cushions-2851532930048.html?pos=50&kwd=baby cushion&tags=BA||||8752.144||product|||TS|rsf:gd-|-stype:attr=1|qr_nm:gd|res:RC3|com-cf:nl|ptrs:na|ktp:N0|mc:72556|mtp:S|qry_typ:P|lang:en|wc:2|cs:8840|v=4,National Overseas,https://www.indiamart.com/nationaltraders-vishwashnagar/?pos=50&kwd=baby cushion&tags=BA||||8752.144||product|||TS|rsf:gd-|-stype:attr=1|qr_nm:gd|res:RC3|com-cf:nl|ptrs:na|ktp:N0|mc:72556|mtp:S|qry_typ:P|lang:en|wc:2|cs:8840|v=4,False,Shahdara,New Delhi,"1/99, Gali No. 3, Vishwas Nagar, Shahdara, New Delhi - 110032, Dist.Delhi, Delhi",8046047673,
Baby Learning Pillow,https://www.indiamart.com/proddetail/baby-learning-pillow-2854678169888.html?pos=51&kwd=baby cushion&tags=BA||||8230.883|Price|product|||MDC|rsf:gd-|-stype:attr=1|qr_nm:gd|res:RC3|com-cf:nl|ptrs:na|ktp:N0|mc:72556|mtp:S|qry_typ:P|lang:en|wc:2|cs:8840|v=4,Grow More Enterprise,https://www.indiamart.com/growmoreenterprise-surat/?pos=51&kwd=baby cushion&tags=BA||||8230.883|Price|product|||MDC|rsf:gd-|-stype:attr=1|qr_nm:gd|res:RC3|com-cf:nl|ptrs:na|ktp:N0|mc:72556|mtp:S|qry_typ:P|lang:en|wc:2|cs:8840|v=4,False,Punagam,Surat,"C 38, Matrushakti Society, Punagam, Punagam, Surat - 395010, Dist.Surat, Gujarat",7942722776,
"Plain Newborn Baby Plastic Bed Sheet, For Home, Size: 4x2(LxW)feet",https://www.indiamart.com/proddetail/newborn-baby-plastic-bed-sheet-2853993448148.html?pos=52&kwd=baby cushion&tags=BA||||8752.144|Price|product|||MDC|rsf:gd-|-stype:attr=1|qr_nm:gd|res:RC3|com-cf:nl|ptrs:na|ktp:N0|mc:72556|mtp:S|qry_typ:P|lang:en|wc:2|cs:8840|v=4,A.D. Enterprises,https://www.indiamart.com/adenterprises-burari-newdelhi/?pos=52&kwd=baby cushion&tags=BA||||8752.144|Price|product|||MDC|rsf:gd-|-stype:attr=1|qr_nm:gd|res:RC3|com-cf:nl|ptrs:na|ktp:N0|mc:72556|mtp:S|qry_typ:P|lang:en|wc:2|cs:8840|v=4,False,North,New Delhi,"K.No-12/1, Main 25 FT. Road, Near Shyam Sweets, Uttranchal Enclave ,Kamal Pur, Burari, North, New Delhi - 110084, Dist.Delhi, Delhi",8044565004,
"Baby Bed Set, Printed",https://www.indiamart.com/proddetail/baby-bed-set-9417562673.html?pos=53&kwd=baby cushion&tags=BA||||8211.142|Price|product|||MDC|rsf:gd-|-stype:attr=1|qr_nm:gd|res:RC3|com-cf:nl|ptrs:na|ktp:N0|mc:72556|mtp:S|qry_typ:P|lang:en|wc:2|cs:8840|v=4,Milee Fashion,https://www.indiamart.com/mileefashion/?pos=53&kwd=baby cushion&tags=BA||||8211.142|Price|product|||MDC|rsf:gd-|-stype:attr=1|qr_nm:gd|res:RC3|com-cf:nl|ptrs:na|ktp:N0|mc:72556|mtp:S|qry_typ:P|lang:en|wc:2|cs:8840|v=4,False,Chedda Nagar,Mumbai,"Veer Sambhaji Nagar, Near Hanuman Mandir PL Lokhande Marg, Chembur, Chedda Nagar, Mumbai - 400089, Dist.Mumbai, Maharashtra",8048966118,
BABY SOFT COTTON CUSHIONED PILLOWS. BABY HEAD SHAPER PILLOWS,,B N Hosiery,https://www.indiamart.com/bnhosiery/?pos=54&kwd=baby cushion&tags=BA||||8752.144|Price|product|||MDC|rsf:gd-|-stype:attr=1|qr_nm:gd|res:RC3|com-cf:nl|ptrs:na|ktp:N0|mc:72556|mtp:S|qry_typ:P|lang:en|wc:2|cs:8840|v=4,False,Ashok Vihar,New Delhi,"House No 130l, Block-E, Phase-1,Ashok, Vihar, Ashok Vihar, New Delhi - 110052, Dist.Delhi, Delhi",7942706809,
various assorted Designer Baby Cushions,https://www.indiamart.com/proddetail/designer-baby-cushions-13265315262.html?pos=55&kwd=baby cushion&tags=BA||||8778.123|Price|product|||TS|rsf:gd-|-stype:attr=1|qr_nm:gd|res:RC3|com-cf:nl|ptrs:na|ktp:N0|mc:72556|mtp:S|qry_typ:P|lang:en|wc:2|cs:8840|v=4,Oscar Overseas,https://www.oscar-india.com/?pos=55&kwd=baby cushion&tags=BA||||8778.123|Price|product|||TS|rsf:gd-|-stype:attr=1|qr_nm:gd|res:RC3|com-cf:nl|ptrs:na|ktp:N0|mc:72556|mtp:S|qry_typ:P|lang:en|wc:2|cs:8840|v=4,False,,Noida,"A-99 Sector 5, Noida - 201301, Dist.Gautam Budh Nagar, Uttar Pradesh",8046058290,
"Velvet Printed Quirky Cushion , Kids Cushion , Soft Toys",https://www.indiamart.com/proddetail/quirky-cushion-kids-cushion-soft-toys-17804558155.html?pos=56&kwd=baby cushion&tags=BA||||8752.144|Price|product|||TS|rsf:gd-|-stype:attr=1|qr_nm:gd|res:RC3|com-cf:nl|ptrs:na|ktp:N0|mc:72556|mtp:S|qry_typ:P|lang:en|wc:2|cs:8840|v=4,Stybuzz,https://www.indiamart.com/stybuzz/?pos=56&kwd=baby cushion&tags=BA||||8752.144|Price|product|||TS|rsf:gd-|-stype:attr=1|qr_nm:gd|res:RC3|com-cf:nl|ptrs:na|ktp:N0|mc:72556|mtp:S|qry_typ:P|lang:en|wc:2|cs:8840|v=4,False,Patparganj Industrial Area,New Delhi,"Plot No. 400, First Floor, Patparganj Industrial Area, New Delhi - 110092, Dist.Delhi, Delhi",8048961845,
Multicolor Rectangular Kids Soft Learning Cushion,https://www.indiamart.com/proddetail/kids-soft-learning-cushion-26030893188.html?pos=57&kwd=baby cushion&tags=BA||||8230.883|Price|product|||TS|rsf:gd-|-stype:attr=1|qr_nm:gd|res:RC3|com-cf:nl|ptrs:na|ktp:N0|mc:72556|mtp:S|qry_typ:P|lang:en|wc:2|cs:8840|v=4,Quality Zone,https://www.qualityzoneindia.com/?pos=57&kwd=baby cushion&tags=BA||||8230.883|Price|product|||TS|rsf:gd-|-stype:attr=1|qr_nm:gd|res:RC3|com-cf:nl|ptrs:na|ktp:N0|mc:72556|mtp:S|qry_typ:P|lang:en|wc:2|cs:8840|v=4,False,Dabholi,Surat,"Plot No-17, Sy No-93/94, 1st Floor, Om Satyam Nagar Society, Ved Road, Dabholi Char Rasta, Dabholi, Surat - 395004, Dist.Surat, Gujarat",8048971766,
Square BABY CUSHION BOOK PILLOW ( 4 COLOR AVAILABLE),https://www.indiamart.com/proddetail/baby-cushion-book-pillow-4-color-available-2854880850988.html?pos=58&kwd=baby cushion&tags=BB||||8230.883|Price|product|||MDC|rsf:gd-|-stype:attr=1|qr_nm:gd|res:RC3|com-cf:nl|ptrs:na|ktp:N0|mc:72556|mtp:S|qry_typ:P|lang:en|wc:2|cs:8840|v=4,Balar Corporation,https://www.indiamart.com/balar-corporation/?pos=58&kwd=baby cushion&tags=BB||||8230.883|Price|product|||MDC|rsf:gd-|-stype:attr=1|qr_nm:gd|res:RC3|com-cf:nl|ptrs:na|ktp:N0|mc:72556|mtp:S|qry_typ:P|lang:en|wc:2|cs:8840|v=4,False,,Surat,"C-504, Rameshvaram Regency, Utran, Surat - 394105, Dist.Surat, Gujarat",8045734410,
Foam Base(Yellow) Animal Printed Cotton Baby Cushion,https://www.indiamart.com/proddetail/animal-printed-cotton-baby-cushion-2852673558948.html?pos=59&kwd=baby cushion&tags=BA||||8230.883|Price|product|||MDC|rsf:gd-|-stype:attr=1|qr_nm:gd|res:RC3|com-cf:nl|ptrs:na|ktp:N0|mc:72556|mtp:S|qry_typ:P|lang:en|wc:2|cs:8840|v=4,Shri Shri Fashion,https://www.indiamart.com/shri-shri-fashion/?pos=59&kwd=baby cushion&tags=BA||||8230.883|Price|product|||MDC|rsf:gd-|-stype:attr=1|qr_nm:gd|res:RC3|com-cf:nl|ptrs:na|ktp:N0|mc:72556|mtp:S|qry_typ:P|lang:en|wc:2|cs:8840|v=4,False,Varachha,Surat,"A-231, Narayan Nagar, Near Nalanda School, Punagam,, Varachha, Surat - 395010, Dist.Surat, Gujarat",7942712235,
"Lorem Yellow Kids Learning Pillow In English & Hindi Abcd, Birds, Fruits, Vegetable, Animal Bb104",https://www.indiamart.com/proddetail/lorem-yellow-kids-learning-pillow-in-english-hindi-abcd-birds-fruits-vegetable-animal-bb104-2852804127055.html?pos=60&kwd=baby cushion&tags=BB||||8230.883|Price|product|||TS|rsf:gd-|-stype:attr=1|qr_nm:gd|res:RC3|com-cf:nl|ptrs:na|ktp:N0|mc:72556|mtp:S|qry_typ:P|lang:en|wc:2|cs:8840|v=4,S J Fashion,https://www.indiamart.com/sjfashion/?pos=60&kwd=baby cushion&tags=BB||||8230.883|Price|product|||TS|rsf:gd-|-stype:attr=1|qr_nm:gd|res:RC3|com-cf:nl|ptrs:na|ktp:N0|mc:72556|mtp:S|qry_typ:P|lang:en|wc:2|cs:8840|v=4,False,Punagam,Surat,"B4, Basement, Polaris Mall Punagam BRTS canal Road,, Punagam, Surat - 395010, Dist.Surat, Gujarat",8048958543,
Baby Learning Pillow,https://www.indiamart.com/proddetail/baby-learning-pillow-2854678169888.html?pos=61&kwd=baby cushion&tags=BA||||8230.883|Price|product|||MDC|rsf:gd-|-stype:attr=1|qr_nm:gd|res:RC3|com-cf:nl|ptrs:na|ktp:N0|mc:72556|mtp:S|qry_typ:P|lang:en|wc:2|cs:8840|v=4,Grow More Enterprise,https://www.indiamart.com/growmoreenterprise-surat/?pos=61&kwd=baby cushion&tags=BA||||8230.883|Price|product|||MDC|rsf:gd-|-stype:attr=1|qr_nm:gd|res:RC3|com-cf:nl|ptrs:na|ktp:N0|mc:72556|mtp:S|qry_typ:P|lang:en|wc:2|cs:8840|v=4,False,Punagam,Surat,"C 38, Matrushakti Society, Punagam, Punagam, Surat - 395010, Dist.Surat, Gujarat",7942722776,
"Blue Nursery to Std 5 learning cushion pillow book for kids, Hindi",https://www.indiamart.com/proddetail/learning-cushion-pillow-book-for-kids-25674766573.html?pos=62&kwd=baby cushion&tags=A||||8230.883|Price|product|||NA|rsf:gd-|-stype:attr=1|qr_nm:gd|res:RC3|com-cf:nl|ptrs:na|ktp:N0|mc:72556|mtp:S|qry_typ:P|lang:en|wc:2|cs:8840|v=4,Pramukh Steel,https://www.indiamart.com/pramukh-steel-surat/?pos=62&kwd=baby cushion&tags=A||||8230.883|Price|product|||NA|rsf:gd-|-stype:attr=1|qr_nm:gd|res:RC3|com-cf:nl|ptrs:na|ktp:N0|mc:72556|mtp:S|qry_typ:P|lang:en|wc:2|cs:8840|v=4,False,,Surat,"27, Gunjan Park, Laxmi Vadi, Atodra Chokdi, Olpad, Surat - 394540, Dist.Surat, Gujarat",8047655035,
Red Rectangular Trauller Yellow Baby Alphabetical Learning Cushion,https://www.indiamart.com/proddetail/trauller-yellow-baby-alphabetical-learning-cushion-26860559533.html?pos=69&kwd=baby cushion&tags=BB||||8230.883|Price|product|||NA|rsf:gd-|-stype:attr=1|qr_nm:gd|res:RC3|com-cf:nl|ptrs:na|ktp:N0|mc:72556|mtp:S|qry_typ:P|lang:en|wc:2|cs:8840|v=4,Trauller,https://www.indiamart.com/trauller/?pos=69&kwd=baby cushion&tags=BB||||8230.883|Price|product|||NA|rsf:gd-|-stype:attr=1|qr_nm:gd|res:RC3|com-cf:nl|ptrs:na|ktp:N0|mc:72556|mtp:S|qry_typ:P|lang:en|wc:2|cs:8840|v=4,False,Surat Gujarat,Surat,"10, Raman nagar Society, Surat Gujarat, Surat - 395004, Dist.Surat, Gujarat",8069017411,359
PINK AND GRAY Rectangular Baby Cushion,https://www.indiamart.com/proddetail/baby-cushion-25771469088.html?pos=64&kwd=baby cushion&tags=BA||||8752.144|Price|product|||NA|rsf:gd-|-stype:attr=1|qr_nm:gd|res:RC3|com-cf:nl|ptrs:na|ktp:N0|mc:72556|mtp:S|qry_typ:P|lang:en|wc:2|cs:8840|v=4,S S Impex,https://www.indiamart.com/s-s-impex-new-delhi/?pos=64&kwd=baby cushion&tags=BA||||8752.144|Price|product|||NA|rsf:gd-|-stype:attr=1|qr_nm:gd|res:RC3|com-cf:nl|ptrs:na|ktp:N0|mc:72556|mtp:S|qry_typ:P|lang:en|wc:2|cs:8840|v=4,False,new ashok nagar,New Delhi,"Gr Floor C-374-b Old C-24-26 Kh No-264 New Ashok Nagar C-374-B Old C-24-26 Kh No-264, Gr Floor, New Ashok Nagar, Delhi, East Delhi, Delhi, 110096, new ashok nagar, New Delhi - 110096, Dist.Delhi, Delhi",8069023925,779
Giftoland Baby Star Moon Cloud Handmade Soft Serenity Sublimation Cushion,https://www.indiamart.com/proddetail/giftoland-baby-star-moon-cloud-handmade-soft-serenity-sublimation-cushion-25368418962.html?pos=65&kwd=baby cushion&tags=BB||||8785.791|Price|product|||NA|rsf:gd-|-stype:attr=1|qr_nm:gd|res:RC3|com-cf:nl|ptrs:na|ktp:N0|mc:72556|mtp:S|qry_typ:P|lang:en|wc:2|cs:8840|v=4,Future Fashion Enterprises,https://www.indiamart.com/futurefashionenterprises/?pos=65&kwd=baby cushion&tags=BB||||8785.791|Price|product|||NA|rsf:gd-|-stype:attr=1|qr_nm:gd|res:RC3|com-cf:nl|ptrs:na|ktp:N0|mc:72556|mtp:S|qry_typ:P|lang:en|wc:2|cs:8840|v=4,False,,Ghaziabad,"H 268 B,VIJAY NAGAR,SECTOR 12,GHAZIABAD G-290, Sector-63, Noida, U.P. 201301,201012,Ghaziabad, Ghaziabad - 201001, Dist.Ghaziabad, Uttar Pradesh",7942535638,
White(Base) Cylinder Newborn Baby Cushions,https://www.indiamart.com/proddetail/newborn-baby-cushions-2854061314591.html?pos=66&kwd=baby cushion&tags=BA||||8601.347|Price|product|||NA|rsf:gd-|-stype:attr=1|qr_nm:gd|res:RC3|com-cf:nl|ptrs:na|ktp:N0|mc:72556|mtp:S|qry_typ:P|lang:en|wc:2|cs:8840|v=4,Waterberry,https://www.indiamart.com/waterberry/?pos=66&kwd=baby cushion&tags=BA||||8601.347|Price|product|||NA|rsf:gd-|-stype:attr=1|qr_nm:gd|res:RC3|com-cf:nl|ptrs:na|ktp:N0|mc:72556|mtp:S|qry_typ:P|lang:en|wc:2|cs:8840|v=4,False,Raj Bhawan (Jaipur),Jaipur,"Plot No. 6, Hathi Babu Ka Bagh, Gopal Ji Ka Mandir, Raj Bhawan (Jaipur), Jaipur - 302006, Dist.Jaipur, Rajasthan",8044010603,
Foam Round Flower Theme Baby Cushion,https://www.indiamart.com/proddetail/flower-theme-baby-cushion-25635431112.html?pos=67&kwd=baby cushion&tags=BB||||8228.275|Price|product|||NA|rsf:gd-|-stype:attr=1|qr_nm:gd|res:RC3|com-cf:nl|ptrs:na|ktp:N0|mc:72556|mtp:S|qry_typ:P|lang:en|wc:2|cs:8840|v=4,Velanto,https://www.indiamart.com/velanto-ahmedabad/?pos=67&kwd=baby cushion&tags=BB||||8228.275|Price|product|||NA|rsf:gd-|-stype:attr=1|qr_nm:gd|res:RC3|com-cf:nl|ptrs:na|ktp:N0|mc:72556|mtp:S|qry_typ:P|lang:en|wc:2|cs:8840|v=4,False,,Ahmedabad,"Vrundavan Residency, Block B, FF-Shop-102, Opp Yogeshwar Park, Nr Shreenathji Ni Haveli, Ahmedabad - 382350, Dist.Ahmedabad, Gujarat",8043855011,
"Velvet Round Green Baby Seat Cushion, For Home",https://www.indiamart.com/proddetail/green-baby-seat-cushion-23520413548.html?pos=68&kwd=baby cushion&tags=BB||||9848.189|Price|product|||NA|rsf:gd-|-stype:attr=1|qr_nm:gd|res:RC3|com-cf:nl|ptrs:na|ktp:N0|mc:72556|mtp:S|qry_typ:P|lang:en|wc:2|cs:8840|v=4,Shivam Traders,https://www.indiamart.com/shivam-traders-westbengal/?pos=68&kwd=baby cushion&tags=BB||||9848.189|Price|product|||NA|rsf:gd-|-stype:attr=1|qr_nm:gd|res:RC3|com-cf:nl|ptrs:na|ktp:N0|mc:72556|mtp:S|qry_typ:P|lang:en|wc:2|cs:8840|v=4,False,Hakim Para,Siliguri,"H/8/273/231, Shivam Traders, Bidhan Road, Hakim Para, Siliguri - 734005, Dist.Darjiling, West Bengal",8046068201,
Red Rectangular Trauller Yellow Baby Alphabetical Learning Cushion,https://www.indiamart.com/proddetail/trauller-yellow-baby-alphabetical-learning-cushion-26860559533.html?pos=69&kwd=baby cushion&tags=BB||||8230.883|Price|product|||NA|rsf:gd-|-stype:attr=1|qr_nm:gd|res:RC3|com-cf:nl|ptrs:na|ktp:N0|mc:72556|mtp:S|qry_typ:P|lang:en|wc:2|cs:8840|v=4,Trauller,https://www.indiamart.com/trauller/?pos=69&kwd=baby cushion&tags=BB||||8230.883|Price|product|||NA|rsf:gd-|-stype:attr=1|qr_nm:gd|res:RC3|com-cf:nl|ptrs:na|ktp:N0|mc:72556|mtp:S|qry_typ:P|lang:en|wc:2|cs:8840|v=4,False,Surat Gujarat,Surat,"10, Raman nagar Society, Surat Gujarat, Surat - 395004, Dist.Surat, Gujarat",8069017411,359
Custom Alphabet Toddler Cushion,https://www.indiamart.com/proddetail/custom-alphabet-toddler-cushion-22271363155.html?pos=70&kwd=baby cushion&tags=BB||||8706.263|Price|product|||NA|rsf:gd-|-stype:attr=1|qr_nm:gd|res:RC3|com-cf:nl|ptrs:na|ktp:N0|mc:72556|mtp:S|qry_typ:P|lang:en|wc:2|cs:8840|v=4,Cotton India Exports,https://www.indiamart.com/cotton-india-exports/?pos=70&kwd=baby cushion&tags=BB||||8706.263|Price|product|||NA|rsf:gd-|-stype:attr=1|qr_nm:gd|res:RC3|com-cf:nl|ptrs:na|ktp:N0|mc:72556|mtp:S|qry_typ:P|lang:en|wc:2|cs:8840|v=4,False,Thirugampuliur,Karur,"5/291-2, Ashok Nagar, Thirugampuliur, Karur - 639002, Dist.Karur, Tamil Nadu",8047693176,
Cushions For Kids-star Moon Cloud Cushion For Baby & Kids Room Decoration,https://www.indiamart.com/proddetail/cushions-for-kids-star-moon-cloud-cushion-for-baby-kids-room-decoration-25051008273.html?pos=71&kwd=baby cushion&tags=BB||||8769.508|Price|product|||NA|rsf:gd-|-stype:attr=1|qr_nm:gd|res:RC3|com-cf:nl|ptrs:na|ktp:N0|mc:72556|mtp:S|qry_typ:P|lang:en|wc:2|cs:8840|v=4,Ayaana Impex,https://www.indiamart.com/ayaana-impex/?pos=71&kwd=baby cushion&tags=BB||||8769.508|Price|product|||NA|rsf:gd-|-stype:attr=1|qr_nm:gd|res:RC3|com-cf:nl|ptrs:na|ktp:N0|mc:72556|mtp:S|qry_typ:P|lang:en|wc:2|cs:8840|v=4,False,New Industrial Town,Faridabad,"0 Faridabad, New Industrial Town, Faridabad - 121001, Dist.Faridabad, Haryana",8048372237,219
Baby Bed Pillow White ( Base ) Kids Learning Cushion,https://www.indiamart.com/proddetail/kids-learning-cushion-26527210791.html?pos=72&kwd=baby cushion&tags=BA||||8230.883|Price|product|||NA|rsf:gd-|-stype:attr=1|qr_nm:gd|res:RC3|com-cf:nl|ptrs:na|ktp:N0|mc:72556|mtp:S|qry_typ:P|lang:en|wc:2|cs:8840|v=4,K.R. Enterprise,https://www.indiamart.com/kr-enterprise-surat/?pos=72&kwd=baby cushion&tags=BA||||8230.883|Price|product|||NA|rsf:gd-|-stype:attr=1|qr_nm:gd|res:RC3|com-cf:nl|ptrs:na|ktp:N0|mc:72556|mtp:S|qry_typ:P|lang:en|wc:2|cs:8840|v=4,False,,Surat,"9, Ramjikrupa Row House, Nr Gajera School, Katargam, Surat - 395004, Dist.Surat, Gujarat",8047531314,
Foam Printed Soft Velvet Kids Cushion,https://www.indiamart.com/proddetail/soft-velvet-kids-cushion-22792378412.html?pos=73&kwd=baby cushion&tags=BB||||8747.203|Price|product|||NA|rsf:gd-|-stype:attr=1|qr_nm:gd|res:RC3|com-cf:nl|ptrs:na|ktp:N0|mc:72556|mtp:S|qry_typ:P|lang:en|wc:2|cs:8840|v=4,Trisha Collection,https://www.indiamart.com/trishacollection-panipat/?pos=73&kwd=baby cushion&tags=BB||||8747.203|Price|product|||NA|rsf:gd-|-stype:attr=1|qr_nm:gd|res:RC3|com-cf:nl|ptrs:na|ktp:N0|mc:72556|mtp:S|qry_typ:P|lang:en|wc:2|cs:8840|v=4,False,,Panipat,"R.K Puram, jattal road, Panipat - 132103, Dist.Panipat, Haryana",8048372674,292
"Yellow Banana Soft Plush Velvet Kids Pillow, 1-2 Years",https://www.indiamart.com/proddetail/banana-soft-plush-velvet-kids-pillow-23578011391.html?pos=74&kwd=baby cushion&tags=BB||||8752.144|Price|product|||NA|rsf:gd-|-stype:attr=1|qr_nm:gd|res:RC3|com-cf:nl|ptrs:na|ktp:N0|mc:72556|mtp:S|qry_typ:P|lang:en|wc:2|cs:8840|v=4,Srmaji Industries,https://www.indiamart.com/srmaji-store-delhi/?pos=74&kwd=baby cushion&tags=BB||||8752.144|Price|product|||NA|rsf:gd-|-stype:attr=1|qr_nm:gd|res:RC3|com-cf:nl|ptrs:na|ktp:N0|mc:72556|mtp:S|qry_typ:P|lang:en|wc:2|cs:8840|v=4,False,,New Delhi,"Kh.No-78/198, 1, Street No-1, Bakoli, New Delhi - 110036, Dist.Delhi, Delhi",8069023917,103
Baby Bed Pillow Red Square Kids Learning Cushion,https://www.indiamart.com/proddetail/red-square-kids-learning-cushion-24286401497.html?pos=75&kwd=baby cushion&tags=BB||||8230.883|Price|product|||NA|rsf:gd-|-stype:attr=1|qr_nm:gd|res:RC3|com-cf:nl|ptrs:na|ktp:N0|mc:72556|mtp:S|qry_typ:P|lang:en|wc:2|cs:8840|v=4,Cushion Villa,https://www.indiamart.com/cushion-villa/?pos=75&kwd=baby cushion&tags=BB||||8230.883|Price|product|||NA|rsf:gd-|-stype:attr=1|qr_nm:gd|res:RC3|com-cf:nl|ptrs:na|ktp:N0|mc:72556|mtp:S|qry_typ:P|lang:en|wc:2|cs:8840|v=4,False,Aambatalavdi,Surat,"304,Zircon Plus, Opp Avalon Business Centre, Katargam, Aambatalavdi, Surat - 395004, Dist.Surat, Gujarat",8047797428,
Kids Cushions,,BV Enterprise,https://www.indiamart.com/bventerprise-gondal/?pos=76&kwd=baby cushion&tags=BB||||8032.138|Price|product|||NA|rsf:gd-|-stype:attr=1|qr_nm:gd|res:RC3|com-cf:nl|ptrs:na|ktp:N0|mc:72556|mtp:S|qry_typ:P|lang:en|wc:2|cs:8840|v=4,False,,Gondal,"Shop No-3.4, Mahadev Complex, BV Enterprise, Gundala Road, Gondal - 360311, Dist.Rajkot, Gujarat",8047314169,
Baby Bed Pillow YELLOW Kids Learning Cushion,https://www.indiamart.com/proddetail/kids-learning-cushion-2853812676948.html?pos=77&kwd=baby cushion&tags=BA||||8230.883|Price|product|||NA|rsf:gd-|-stype:attr=1|qr_nm:gd|res:RC3|com-cf:nl|ptrs:na|ktp:N0|mc:72556|mtp:S|qry_typ:P|lang:en|wc:2|cs:8840|v=4,Dhyana Enterprise,https://www.indiamart.com/dhyanaenterprise-218685088/?pos=77&kwd=baby cushion&tags=BA||||8230.883|Price|product|||NA|rsf:gd-|-stype:attr=1|qr_nm:gd|res:RC3|com-cf:nl|ptrs:na|ktp:N0|mc:72556|mtp:S|qry_typ:P|lang:en|wc:2|cs:8840|v=4,False,,Surat,"73 Nansad Road Shivanjali Bunglows Kamrej, Surat - 394180, Dist.Surat, Gujarat",8041012072,
Baby Bed Pillow Rectangular Personalized Learning cushion Book for kids,https://www.indiamart.com/proddetail/personalized-learning-cushion-book-for-kids-2851089051548.html?pos=78&kwd=baby cushion&tags=BB||||8601.347|Price|product|||NA|rsf:gd-|-stype:attr=1|qr_nm:gd|res:RC3|com-cf:nl|ptrs:na|ktp:N0|mc:72556|mtp:S|qry_typ:P|lang:en|wc:2|cs:8840|v=4,Rudram Arts,https://www.indiamart.com/rudramarts/?pos=78&kwd=baby cushion&tags=BB||||8601.347|Price|product|||NA|rsf:gd-|-stype:attr=1|qr_nm:gd|res:RC3|com-cf:nl|ptrs:na|ktp:N0|mc:72556|mtp:S|qry_typ:P|lang:en|wc:2|cs:8840|v=4,False,,Jaipur,"Plot No. 72, Krishna Vihar, Balaji College Ke Samne, Benar Road, Jaipur - 302013, Dist.Jaipur, Rajasthan",7942958063,
Rectangular Learning Cushion for Kids Gift / Study Cushion Golden,https://www.indiamart.com/proddetail/learning-cushion-for-kids-gift-study-cushion-golden-23870774897.html?pos=79&kwd=baby cushion&tags=BB||||8230.883|Price|product|||NA|rsf:gd-|-stype:attr=1|qr_nm:gd|res:RC3|com-cf:nl|ptrs:na|ktp:N0|mc:72556|mtp:S|qry_typ:P|lang:en|wc:2|cs:8840|v=4,Keshyo Enterprise,https://www.indiamart.com/keshyo-enterprise/?pos=79&kwd=baby cushion&tags=BB||||8230.883|Price|product|||NA|rsf:gd-|-stype:attr=1|qr_nm:gd|res:RC3|com-cf:nl|ptrs:na|ktp:N0|mc:72556|mtp:S|qry_typ:P|lang:en|wc:2|cs:8840|v=4,False,,Surat,"46, Sanskrut Row House Near Rajawadi Party Plot, New Kosad Road, Amroli, Surat - 394107, Dist.Surat, Gujarat",8048371961,971
Baby Gadi,https://www.indiamart.com/proddetail/baby-gadi-2854846444688.html?pos=80&kwd=baby cushion&tags=BB||||8559.269|Price|product|||NA|rsf:gd-|-stype:attr=1|qr_nm:gd|res:RC3|com-cf:nl|ptrs:na|ktp:N0|mc:72556|mtp:S|qry_typ:P|lang:en|wc:2|cs:8840|v=4,Jain Cap Depo,https://www.indiamart.com/jain-cap-depo/?pos=80&kwd=baby cushion&tags=BB||||8559.269|Price|product|||NA|rsf:gd-|-stype:attr=1|qr_nm:gd|res:RC3|com-cf:nl|ptrs:na|ktp:N0|mc:72556|mtp:S|qry_typ:P|lang:en|wc:2|cs:8840|v=4,False,Kishanpura,Indore,"127/2, Mahatma Gandhi Marg, Kishanpura, Inside Shree Krishna Market, Kishanpura, Indore - 452001, Dist.Indore, Madhya Pradesh",8047667655,
Custom Alphabet Toddler Cushion,https://www.indiamart.com/proddetail/custom-alphabet-toddler-cushion-22271363155.html?pos=81&kwd=baby cushion&tags=BB||||8706.263|Price|product|||NA|rsf:gd-|-stype:attr=1|qr_nm:gd|res:RC3|com-cf:nl|ptrs:na|ktp:N0|mc:72556|mtp:S|qry_typ:P|lang:en|wc:2|cs:8840|v=4,Cotton India Exports,https://www.indiamart.com/cotton-india-exports/?pos=81&kwd=baby cushion&tags=BB||||8706.263|Price|product|||NA|rsf:gd-|-stype:attr=1|qr_nm:gd|res:RC3|com-cf:nl|ptrs:na|ktp:N0|mc:72556|mtp:S|qry_typ:P|lang:en|wc:2|cs:8840|v=4,False,Thirugampuliur,Karur,"5/291-2, Ashok Nagar, Thirugampuliur, Karur - 639002, Dist.Karur, Tamil Nadu",8047693176,
PDSPM Learning Cushion Pillow Book with 2 Languages Learn English and Hindi Cloth Book Educational,https://www.indiamart.com/proddetail/pdspm-learning-cushion-pillow-book-with-2-languages-learn-english-and-hindi-cloth-book-educational-2853631000573.html?pos=82&kwd=baby cushion&tags=BA||||8230.883|Price|product|||NA|rsf:gd-|-stype:attr=1|qr_nm:gd|res:RC3|com-cf:nl|ptrs:na|ktp:N0|mc:72556|mtp:S|qry_typ:P|lang:en|wc:2|cs:8840|v=4,Black Pearls International,https://www.indiamart.com/blackpearlsinternational/?pos=82&kwd=baby cushion&tags=BA||||8230.883|Price|product|||NA|rsf:gd-|-stype:attr=1|qr_nm:gd|res:RC3|com-cf:nl|ptrs:na|ktp:N0|mc:72556|mtp:S|qry_typ:P|lang:en|wc:2|cs:8840|v=4,False,Kosad,Surat,"2nd Floor, Shop No-202, Gruham Plaza, Kosadn Sayan Road Opp. Kosad Lake Garden, Kosad Village, Kosad, Surat - 394107, Dist.Surat, Gujarat",7942703578,
Multicolor Square KIDS LEARNING PILLOW CUSION,https://www.indiamart.com/proddetail/kids-learning-pillow-cusion-2849813123362.html?pos=83&kwd=baby cushion&tags=BA||||8230.883|Price|product|||NA|rsf:gd-|-stype:attr=1|qr_nm:gd|res:RC3|com-cf:nl|ptrs:na|ktp:N0|mc:72556|mtp:S|qry_typ:P|lang:en|wc:2|cs:8840|v=4,Radhe Enterprise,https://www.indiamart.com/radheenterprisesurat-gujarat/?pos=83&kwd=baby cushion&tags=BA||||8230.883|Price|product|||NA|rsf:gd-|-stype:attr=1|qr_nm:gd|res:RC3|com-cf:nl|ptrs:na|ktp:N0|mc:72556|mtp:S|qry_typ:P|lang:en|wc:2|cs:8840|v=4,False,Singanpor,Surat,"SHADE NO - 5, Opp suryam residency, Singanpore Katargam, Singanpor, Surat - 395004, Dist.Surat, Gujarat",8048608137,
Blue Soft Baby Chair Support Seat Sofa,,Shivya Home Furnishing,https://www.indiamart.com/shivya-home-furnishing/?pos=84&kwd=baby cushion&tags=BB||||8747.203|Price|product|||NA|rsf:gd-|-stype:attr=1|qr_nm:gd|res:RC3|com-cf:nl|ptrs:na|ktp:N0|mc:72556|mtp:S|qry_typ:P|lang:en|wc:2|cs:8840|v=4,False,Model Town,Panipat,"House No. 9, Durga Enclave, Model Town, Panipat - 132103, Dist.Panipat, Haryana",8048247139,6884
U White Cotton Baby Bed Pillow,https://www.indiamart.com/proddetail/white-cotton-baby-bed-pillow-2849666762497.html?pos=85&kwd=baby cushion&tags=BB||||8747.203|Price|product|||NA|rsf:gd-|-stype:attr=1|qr_nm:gd|res:RC3|com-cf:nl|ptrs:na|ktp:N0|mc:72556|mtp:S|qry_typ:P|lang:en|wc:2|cs:8840|v=4,Kirpa Enterprise,https://www.indiamart.com/kirpa-enterprise-panipat/?pos=85&kwd=baby cushion&tags=BB||||8747.203|Price|product|||NA|rsf:gd-|-stype:attr=1|qr_nm:gd|res:RC3|com-cf:nl|ptrs:na|ktp:N0|mc:72556|mtp:S|qry_typ:P|lang:en|wc:2|cs:8840|v=4,False,,Panipat,"879,11, Ward No.11, Panipat - 132103, Dist.Panipat, Haryana",7942795917,
"Blue Rectangular Baby Kids Pillow, 1-5 Year",https://www.indiamart.com/proddetail/baby-kids-pillow-27544492255.html?pos=86&kwd=baby cushion&tags=BB||||8230.883|Price|product|||NA|rsf:gd-|-stype:attr=1|qr_nm:gd|res:RC3|com-cf:nl|ptrs:na|ktp:N0|mc:72556|mtp:S|qry_typ:P|lang:en|wc:2|cs:8840|v=4,Him Tax,https://www.indiamart.com/him-tax/?pos=86&kwd=baby cushion&tags=BB||||8230.883|Price|product|||NA|rsf:gd-|-stype:attr=1|qr_nm:gd|res:RC3|com-cf:nl|ptrs:na|ktp:N0|mc:72556|mtp:S|qry_typ:P|lang:en|wc:2|cs:8840|v=4,False,,Surat,"Plot No.36, Shop No. 3, Jay Yogeshwar Row House, Near Shyamdham Mandir, Sarthana Jakatnaka, Surat - 395006, Dist.Surat, Gujarat",8043894143,
Cat Design Baby Cotton Pillow,https://www.indiamart.com/proddetail/cat-design-baby-cotton-pillow-23030475362.html?pos=87&kwd=baby cushion&tags=BB||||8752.144|Price|product|||NA|rsf:gd-|-stype:attr=1|qr_nm:gd|res:RC3|com-cf:nl|ptrs:na|ktp:N0|mc:72556|mtp:S|qry_typ:P|lang:en|wc:2|cs:8840|v=4,Anu Creations,https://www.indiamart.com/anucreations-delhi/?pos=87&kwd=baby cushion&tags=BB||||8752.144|Price|product|||NA|rsf:gd-|-stype:attr=1|qr_nm:gd|res:RC3|com-cf:nl|ptrs:na|ktp:N0|mc:72556|mtp:S|qry_typ:P|lang:en|wc:2|cs:8840|v=4,False,Karol Bagh,New Delhi,"4312, 2nd Floor, Gali Bahuji, Bahadur Garh Road, Sadar Bazar, Central Delhi, Karol Bagh, New Delhi - 110006, Dist.Delhi, Delhi",8047657412,
Baby Cushion,,Styla Home,https://www.indiamart.com/styla-home/?pos=88&kwd=baby cushion&tags=BB||||8747.203||product|||NA|rsf:gd-|-stype:attr=1|qr_nm:gd|res:RC3|com-cf:nl|ptrs:na|ktp:N0|mc:72556|mtp:S|qry_typ:P|lang:en|wc:2|cs:8840|v=4,False,,Panipat,"1 1020/3 Pachranga Bazaar, Panipat - 132103, Dist.Panipat, Haryana",8048371707,534
Learning Cushions For Kids,,G K Enterprises,https://www.indiamart.com/gk-enterprises-india/?pos=89&kwd=baby cushion&tags=BB||||8747.203|Price|product|||NA|rsf:gd-|-stype:attr=1|qr_nm:gd|res:RC3|com-cf:nl|ptrs:na|ktp:N0|mc:72556|mtp:S|qry_typ:P|lang:en|wc:2|cs:8840|v=4,False,,Panipat,"Batra Colony 7373 Kutani Road, Panipat - 132103, Dist.Panipat, Haryana",7942621938,
Baby Learning Pillow kids cushion,,Kashtbhanjan Enterprise,https://www.indiamart.com/kashtbhanjanenterprise-surat/?pos=94&kwd=baby cushion&tags=BA||||8230.883|Price|product|||NA|rsf:gd-|-stype:attr=1|qr_nm:gd|res:RC3|com-cf:nl|ptrs:na|ktp:N0|mc:72556|mtp:S|qry_typ:P|lang:en|wc:2|cs:8840|v=4,False,,Surat,"Shop No. B/F-10, Mangalam Residency, Yogi Chowk Road, Shubh Clinic, Punagam, Surat - 395010, Dist.Surat, Gujarat",8047311013,6950
baby home decor owl cushion,,Toddle Paws,https://www.indiamart.com/toddle-paws/?pos=91&kwd=baby cushion&tags=BB||||8778.123|Price|product|||NA|rsf:gd-|-stype:attr=1|qr_nm:gd|res:RC3|com-cf:nl|ptrs:na|ktp:N0|mc:72556|mtp:S|qry_typ:P|lang:en|wc:2|cs:8840|v=4,False,,Noida,"Flat Number G-1906,Logix Blossom County,Sector - 137,Noida,Gautam Buddha Nagar, Noida - 201301, Dist.Gautam Budh Nagar, Uttar Pradesh",8047308885,9524
personalized Child Pillow With Bottle,,Foray Creations,https://www.indiamart.com/foraycreations/?pos=92&kwd=baby cushion&tags=BB||||8211.142||product|||NA|rsf:gd-|-stype:attr=1|qr_nm:gd|res:RC3|com-cf:nl|ptrs:na|ktp:N0|mc:72556|mtp:S|qry_typ:P|lang:en|wc:2|cs:8840|v=4,False,,Mumbai,"R-1, Ground Floor, WP-321B, Madhav Bhuvan, King Circle, Deodhar Road, Matunga,, Mumbai - 400019, Dist.Mumbai, Maharashtra",8043854561,
Kids sleep cushion,,Shashi Textiles,https://www.indiamart.com/shashi-textiles-panipat/?pos=93&kwd=baby cushion&tags=BA||||8747.203|Price|product|||NA|rsf:gd-|-stype:attr=1|qr_nm:gd|res:RC3|com-cf:nl|ptrs:na|ktp:N0|mc:72556|mtp:S|qry_typ:P|lang:en|wc:2|cs:8840|v=4,False,,Panipat,"Khasra No- 94 H No -11070,Near Beri Wali Masjid,Mahadev Colony,Pooja Enterprises,Desraj Colony,Panip, Panipat - 132103, Dist.Panipat, Haryana",8048249871,646
Baby Learning Pillow kids cushion,,Kashtbhanjan Enterprise,https://www.indiamart.com/kashtbhanjanenterprise-surat/?pos=94&kwd=baby cushion&tags=BA||||8230.883|Price|product|||NA|rsf:gd-|-stype:attr=1|qr_nm:gd|res:RC3|com-cf:nl|ptrs:na|ktp:N0|mc:72556|mtp:S|qry_typ:P|lang:en|wc:2|cs:8840|v=4,False,,Surat,"Shop No. B/F-10, Mangalam Residency, Yogi Chowk Road, Shubh Clinic, Punagam, Surat - 395010, Dist.Surat, Gujarat",8047311013,6950
Square SUPER SOFT KIDS SUBLIAMTION LEARNING CUSHION,https://www.indiamart.com/proddetail/super-soft-kids-subliamtion-learning-cushion-2853243486533.html?pos=95&kwd=baby cushion&tags=||||8747.203|Price|product|||TS|rsf:gd-|-stype:attr=1|qr_nm:gd|res:RC3|com-cf:nl|ptrs:na|ktp:N0|mc:72556|mtp:S|qry_typ:P|lang:en|wc:2|cs:8840|v=4,Creative Products,https://www.sublimationcushions.com/?pos=95&kwd=baby cushion&tags=||||8747.203|Price|product|||TS|rsf:gd-|-stype:attr=1|qr_nm:gd|res:RC3|com-cf:nl|ptrs:na|ktp:N0|mc:72556|mtp:S|qry_typ:P|lang:en|wc:2|cs:8840|v=4,False,Jyoti Nagar,Panipat,"282/7, BABA GANGA PURI ROAD, Jyoti Nagar, Panipat - 132103, Dist.Panipat, Haryana",8047641504,
Cotton Printed Baby Cushion Set,https://www.indiamart.com/proddetail/baby-cushion-set-19828406291.html?pos=96&kwd=baby cushion&tags=CC||||8752.144|Price|product|||TS|rsf:gd-|-stype:attr=1|qr_nm:gd|res:RC3|com-cf:nl|ptrs:na|ktp:N0|mc:72556|mtp:S|qry_typ:P|lang:en|wc:2|cs:8840|v=4,Shaifali Traders,https://www.shopphiez.com/?pos=96&kwd=baby cushion&tags=CC||||8752.144|Price|product|||TS|rsf:gd-|-stype:attr=1|qr_nm:gd|res:RC3|com-cf:nl|ptrs:na|ktp:N0|mc:72556|mtp:S|qry_typ:P|lang:en|wc:2|cs:8840|v=4,False,PATPARGANJ,New Delhi,"Plot No 10, main road patparganj ganj, PATPARGANJ, New Delhi - 110091, Dist.Delhi, Delhi",8046033629,
Toytales Plush Baby Santa Cushion,https://www.indiamart.com/proddetail/baby-santa-cushion-22616423348.html?pos=97&kwd=baby cushion&tags=CC||||8752.144|Price|product|||TS|rsf:gd-|-stype:attr=1|qr_nm:gd|res:RC3|com-cf:nl|ptrs:na|ktp:N0|mc:72556|mtp:S|qry_typ:P|lang:en|wc:2|cs:8840|v=4,G. G. Enterprises,https://www.ggenterprisestoys.com/?pos=97&kwd=baby cushion&tags=CC||||8752.144|Price|product|||TS|rsf:gd-|-stype:attr=1|qr_nm:gd|res:RC3|com-cf:nl|ptrs:na|ktp:N0|mc:72556|mtp:S|qry_typ:P|lang:en|wc:2|cs:8840|v=4,False,Badli,New Delhi,"Khasra No. 28/24/8, Badli Village, Badli, New Delhi - 110042, Dist.Delhi, Delhi",8048958529,
Round Handmade Red Crochet Kids Cuddle Cushion,https://www.indiamart.com/proddetail/handmade-red-crochet-kids-cuddle-cushion-2852306090362.html?pos=98&kwd=baby cushion&tags=CC||||8747.223|Price|product|||TS|rsf:gd-|-stype:attr=1|qr_nm:gd|res:RC3|com-cf:nl|ptrs:na|ktp:N0|mc:72556|mtp:S|qry_typ:P|lang:en|wc:2|cs:8840|v=4,Zillivate Ventures Private Limited,https://www.indiamart.com/zillivate-ventures/?pos=98&kwd=baby cushion&tags=CC||||8747.223|Price|product|||TS|rsf:gd-|-stype:attr=1|qr_nm:gd|res:RC3|com-cf:nl|ptrs:na|ktp:N0|mc:72556|mtp:S|qry_typ:P|lang:en|wc:2|cs:8840|v=4,True,sector 10,Sonipat,"Rakba 190 Varg Gaj, Mundrja Khewat Number 119, Khata Number 129, Mundrja Killa Number - 24/19/1/2, Mauja Siddharth Enclave Colony, Krishna Gehlawat Road, sector 10, Sonipat - 131001, Dist.Sonipat, Haryana",8047830425,
Baby Cushion Shoot By Sellerwings,https://www.indiamart.com/proddetail/baby-cushion-shoot-by-sellerwings-25986727888.html?pos=99&kwd=baby cushion&tags=CC||||8752.144|Price|product|||TS|rsf:gd-|-stype:attr=1|qr_nm:gd|res:RC3|com-cf:nl|ptrs:na|ktp:N0|mc:72556|mtp:S|qry_typ:P|lang:en|wc:2|cs:8840|v=4,Seller Wings,https://www.sellerwings.in/?pos=99&kwd=baby cushion&tags=CC||||8752.144|Price|product|||TS|rsf:gd-|-stype:attr=1|qr_nm:gd|res:RC3|com-cf:nl|ptrs:na|ktp:N0|mc:72556|mtp:S|qry_typ:P|lang:en|wc:2|cs:8840|v=4,False,Sec-7 Market,New Delhi,"D- 472 G/F, KH No- 29/10,,Palam Extn, Sector-7, Dwarka,New Delhi 2nd Floor, C-1029, Sector-7 Dwarka,110075,New Delhi, Sec-7 Market, New Delhi - 110045, Dist.Delhi, Delhi",8044565895,
Pink Foam Printed Kids Cushion,https://www.indiamart.com/proddetail/printed-kids-cushion-21576677255.html?pos=100&kwd=baby cushion&tags=CC||||8507.67|Price|product|||TS|rsf:gd-|-stype:attr=1|qr_nm:gd|res:RC3|com-cf:nl|ptrs:na|ktp:N0|mc:72556|mtp:S|qry_typ:P|lang:en|wc:2|cs:8840|v=4,Pdlprint,https://www.indiamart.com/pdlprint/?pos=100&kwd=baby cushion&tags=CC||||8507.67|Price|product|||TS|rsf:gd-|-stype:attr=1|qr_nm:gd|res:RC3|com-cf:nl|ptrs:na|ktp:N0|mc:72556|mtp:S|qry_typ:P|lang:en|wc:2|cs:8840|v=4,False,Vyttila,Ernakulam,"Corporation Building, 1st Floor, Vyttila, Ernakulam - 682019, Dist.Ernakulam, Kerala",7942535043,
Blue U Newborn Baby Pillow,https://www.indiamart.com/proddetail/newborn-baby-pillow-2854237599991.html?pos=101&kwd=baby cushion&tags=CC||||8601.347|Price|product|||TS|rsf:gd-|-stype:attr=1|qr_nm:gd|res:RC3|com-cf:nl|ptrs:na|ktp:N0|mc:72556|mtp:S|qry_typ:P|lang:en|wc:2|cs:8840|v=4,Jagraj Polymers,https://www.jagrajpolymers.com/?pos=101&kwd=baby cushion&tags=CC||||8601.347|Price|product|||TS|rsf:gd-|-stype:attr=1|qr_nm:gd|res:RC3|com-cf:nl|ptrs:na|ktp:N0|mc:72556|mtp:S|qry_typ:P|lang:en|wc:2|cs:8840|v=4,False,Vishwakarma Industrial Area,Jaipur,"RIICO Housing Colony, Plot No.107, Badarna VKI Area, Vishwakarma Industrial Area, Jaipur - 302013, Dist.Jaipur, Rajasthan",7942674725,
Baby Fish Pillow,https://www.indiamart.com/proddetail/baby-fish-pillow-2853640958933.html?pos=102&kwd=baby cushion&tags=CC||||8228.275|Price|product|||TS|rsf:gd-|-stype:attr=1|qr_nm:gd|res:RC3|com-cf:nl|ptrs:na|ktp:N0|mc:72556|mtp:S|qry_typ:P|lang:en|wc:2|cs:8840|v=4,JSPM Traders,https://www.jspmtraders.com/?pos=102&kwd=baby cushion&tags=CC||||8228.275|Price|product|||TS|rsf:gd-|-stype:attr=1|qr_nm:gd|res:RC3|com-cf:nl|ptrs:na|ktp:N0|mc:72556|mtp:S|qry_typ:P|lang:en|wc:2|cs:8840|v=4,False,Dudheshwar,Ahmedabad,"407, 4th, Block-B, Sumel Business Park-9, Dudheshwar, Dudheshwar, Ahmedabad - 380004, Dist.Ahmedabad, Gujarat",8045908277,
Multicolor Rectangular Kids Soft Learning Cushion,https://www.indiamart.com/proddetail/kids-soft-learning-cushion-2854368044073.html?pos=103&kwd=baby cushion&tags=CC||||8230.883|Price|product|||TS|rsf:gd-|-stype:attr=1|qr_nm:gd|res:RC3|com-cf:nl|ptrs:na|ktp:N0|mc:72556|mtp:S|qry_typ:P|lang:en|wc:2|cs:8840|v=4,Iscon Mart,https://www.indiamart.com/iscon-mart-gujarat/?pos=103&kwd=baby cushion&tags=CC||||8230.883|Price|product|||TS|rsf:gd-|-stype:attr=1|qr_nm:gd|res:RC3|com-cf:nl|ptrs:na|ktp:N0|mc:72556|mtp:S|qry_typ:P|lang:en|wc:2|cs:8840|v=4,False,,Surat,"518 the gallery business hub 2 near mahavir chikuvadi nana varachha surat -395006, Surat - 395010, Dist.Surat, Gujarat",8045736488,
Fur Handmade Printable Panda Cushion,https://www.indiamart.com/proddetail/printable-panda-cushion-23123786688.html?pos=104&kwd=baby cushion&tags=CC||||9140.514|Price|product|||TS|rsf:gd-|-stype:attr=1|qr_nm:gd|res:RC3|com-cf:nl|ptrs:na|ktp:N0|mc:72556|mtp:S|qry_typ:P|lang:en|wc:2|cs:8840|v=4,Pawan Novelty,https://www.pnxindia.in/?pos=104&kwd=baby cushion&tags=CC||||9140.514|Price|product|||TS|rsf:gd-|-stype:attr=1|qr_nm:gd|res:RC3|com-cf:nl|ptrs:na|ktp:N0|mc:72556|mtp:S|qry_typ:P|lang:en|wc:2|cs:8840|v=4,False,Railway Colony,Raipur,"Opp. Deshbandhu press BACK OF SBI, Railway Colony, Raipur - 492001, Chhattisgarh",8047639946,
Multicolor square Designer Baby Cushions,https://www.indiamart.com/proddetail/designer-baby-cushions-26230505855.html?pos=105&kwd=baby cushion&tags=CC||||8230.883|Price|product|||TS|rsf:gd-|-stype:attr=1|qr_nm:gd|res:RC3|com-cf:nl|ptrs:na|ktp:N0|mc:72556|mtp:S|qry_typ:P|lang:en|wc:2|cs:8840|v=4,PYOS,https://www.pyosofficial.com/?pos=105&kwd=baby cushion&tags=CC||||8230.883|Price|product|||TS|rsf:gd-|-stype:attr=1|qr_nm:gd|res:RC3|com-cf:nl|ptrs:na|ktp:N0|mc:72556|mtp:S|qry_typ:P|lang:en|wc:2|cs:8840|v=4,False,Magdalla,Surat,"Plot No. 78, Ground Floor, S K Industrial Society-2, Udhana Magdalla Road, Magdalla, Surat - 395007, Dist.Surat, Gujarat",7942557798,
Baby Bed Pillow Red Kids Learning Cushion,https://www.indiamart.com/proddetail/kids-learning-cushion-2854468376497.html?pos=106&kwd=baby cushion&tags=CC||||8715.251|Price|product|||MDC|rsf:gd-|-stype:attr=1|qr_nm:gd|res:RC3|com-cf:nl|ptrs:na|ktp:N0|mc:72556|mtp:S|qry_typ:P|lang:en|wc:2|cs:8840|v=4,Bhardwaj Traders,https://www.indiamart.com/bhardwajtradersasandh/?pos=106&kwd=baby cushion&tags=CC||||8715.251|Price|product|||MDC|rsf:gd-|-stype:attr=1|qr_nm:gd|res:RC3|com-cf:nl|ptrs:na|ktp:N0|mc:72556|mtp:S|qry_typ:P|lang:en|wc:2|cs:8840|v=4,False,,Asandh,"Shop, Jind Road, HDFC Bank, Jalmana, Asandh - 132039, Dist.Karnal, Haryana",7949322197,
"Multicolor Baby Head Protector Safety Pad Cushion, Loose Packing",https://www.indiamart.com/proddetail/baby-head-protector-safety-pad-cushion-2849600978033.html?pos=107&kwd=baby cushion&tags=CC||||8230.883|Price|product|||TS|rsf:gd-|-stype:attr=1|qr_nm:gd|res:RC3|com-cf:nl|ptrs:na|ktp:N0|mc:72556|mtp:S|qry_typ:P|lang:en|wc:2|cs:8840|v=4,M. Khodiyar Fashion,https://www.mkhodiyarfashion.com/?pos=107&kwd=baby cushion&tags=CC||||8230.883|Price|product|||TS|rsf:gd-|-stype:attr=1|qr_nm:gd|res:RC3|com-cf:nl|ptrs:na|ktp:N0|mc:72556|mtp:S|qry_typ:P|lang:en|wc:2|cs:8840|v=4,False,Singanpor,Surat,"243-244, GR FL, Shree Krushna Nagar SOC, NR. Multy Purpose Hall, Singanpore Road, Singanpor, Surat - 395004, Dist.Surat, Gujarat",7942791367,
Personalised Couple Cushion With Hidden Photos Kids Cushion,https://www.indiamart.com/proddetail/personalised-couple-cushion-with-hidden-photos-kids-cushion-24772251697.html?pos=108&kwd=baby cushion&tags=||||8823.154|Price|product|||MDC|rsf:gd-|-stype:attr=1|qr_nm:gd|res:RC3|com-cf:nl|ptrs:na|ktp:N0|mc:72556|mtp:S|qry_typ:P|lang:en|wc:2|cs:8840|v=4,Printoli,https://www.indiamart.com/printoli/?pos=108&kwd=baby cushion&tags=||||8823.154|Price|product|||MDC|rsf:gd-|-stype:attr=1|qr_nm:gd|res:RC3|com-cf:nl|ptrs:na|ktp:N0|mc:72556|mtp:S|qry_typ:P|lang:en|wc:2|cs:8840|v=4,False,Sanjay Place,Agra,"26/2/4, Shop No-119, Sanjay Place, Sanjay Place, Agra - 282002, Dist.Agra, Uttar Pradesh",8046042836,
Pink Newborn Baby Cushion Or Pillow,https://www.indiamart.com/proddetail/newborn-baby-cushion-or-pillow-2851806261233.html?pos=109&kwd=baby cushion&tags=CC||||8752.144|Price|product|||TS|rsf:gd-|-stype:attr=1|qr_nm:gd|res:RC3|com-cf:nl|ptrs:na|ktp:N0|mc:72556|mtp:S|qry_typ:P|lang:en|wc:2|cs:8840|v=4,Swastik Enterprises,https://www.indiamart.com/swastikentpndelhi/?pos=109&kwd=baby cushion&tags=CC||||8752.144|Price|product|||TS|rsf:gd-|-stype:attr=1|qr_nm:gd|res:RC3|com-cf:nl|ptrs:na|ktp:N0|mc:72556|mtp:S|qry_typ:P|lang:en|wc:2|cs:8840|v=4,False,Shastri Nagar,New Delhi,"M 29, Shastri Nagar, Street No. 1, Shastri Nagar, New Delhi - 110052, Dist.Delhi, Delhi",8048607766,
Multicolor Rectangular Kids Soft learning cushion,https://www.indiamart.com/proddetail/kids-soft-learning-cushion-25940788091.html?pos=110&kwd=baby cushion&tags=CC||||8230.883|Price|product|||TS|rsf:gd-|-stype:attr=1|qr_nm:gd|res:RC3|com-cf:nl|ptrs:na|ktp:N0|mc:72556|mtp:S|qry_typ:P|lang:en|wc:2|cs:8840|v=4,Shreeji Retails,https://www.thesajanihouse.com/?pos=110&kwd=baby cushion&tags=CC||||8230.883|Price|product|||TS|rsf:gd-|-stype:attr=1|qr_nm:gd|res:RC3|com-cf:nl|ptrs:na|ktp:N0|mc:72556|mtp:S|qry_typ:P|lang:en|wc:2|cs:8840|v=4,False,Alankar Society,Surat,"PLOT NO- 17, OM SATYAM NAGAR SOC., DABHOLI CHAR RASTA, VED ROAD, Alankar Society, Surat - 395004, Dist.Surat, Gujarat",8047654270,
Multicolor Rectangular Kids Soft Learning Cushion,https://www.indiamart.com/proddetail/kids-soft-learning-cushion-26030893188.html?pos=111&kwd=baby cushion&tags=||||8230.883|Price|product|||TS|rsf:gd-|-stype:attr=1|qr_nm:gd|res:RC3|com-cf:nl|ptrs:na|ktp:N0|mc:72556|mtp:S|qry_typ:P|lang:en|wc:2|cs:8840|v=4,Quality Zone,https://www.qualityzoneindia.com/?pos=111&kwd=baby cushion&tags=||||8230.883|Price|product|||TS|rsf:gd-|-stype:attr=1|qr_nm:gd|res:RC3|com-cf:nl|ptrs:na|ktp:N0|mc:72556|mtp:S|qry_typ:P|lang:en|wc:2|cs:8840|v=4,False,Dabholi,Surat,"Plot No-17, Sy No-93/94, 1st Floor, Om Satyam Nagar Society, Ved Road, Dabholi Char Rasta, Dabholi, Surat - 395004, Dist.Surat, Gujarat",8048971766,
"Multicolor Hand Painted cotton kids printed cushion cover, Size: 16 X 16 Inches",https://www.indiamart.com/proddetail/cotton-kids-printed-cushion-cover-2850313916433.html?pos=112&kwd=baby cushion&tags=||||8601.347|Price|product|||TS|rsf:gd-|-stype:attr=1|qr_nm:gd|res:RC3|com-cf:nl|ptrs:na|ktp:N0|mc:72556|mtp:S|qry_typ:P|lang:en|wc:2|cs:8840|v=4,Vandana Handicraft,https://www.vandanahandicraft.net/?pos=112&kwd=baby cushion&tags=||||8601.347|Price|product|||TS|rsf:gd-|-stype:attr=1|qr_nm:gd|res:RC3|com-cf:nl|ptrs:na|ktp:N0|mc:72556|mtp:S|qry_typ:P|lang:en|wc:2|cs:8840|v=4,True,Sitapura Industrial Area,Jaipur,"Plot No. H-1167, Sitapura Industrial Area, Phase III, Sitapura Industrial Area, Jaipur - 302022, Dist.Jaipur, Rajasthan",8046049036,
Baby Gadi Sets,https://www.indiamart.com/proddetail/baby-gadi-sets-3737005297.html?pos=113&kwd=baby cushion&tags=||||8211.142|Price|product|||TS|rsf:gd-|-stype:attr=1|qr_nm:gd|res:RC3|com-cf:nl|ptrs:na|ktp:N0|mc:72556|mtp:S|qry_typ:P|lang:en|wc:2|cs:8840|v=4,Dhrupti Creation,https://www.indiamart.com/littlecare/?pos=113&kwd=baby cushion&tags=||||8211.142|Price|product|||TS|rsf:gd-|-stype:attr=1|qr_nm:gd|res:RC3|com-cf:nl|ptrs:na|ktp:N0|mc:72556|mtp:S|qry_typ:P|lang:en|wc:2|cs:8840|v=4,False,Malad East,Mumbai,"Gala No. 3, Jignesh Diamond House, Near Vaishnavdevi Mandir, Subhash Lane, Malad East, Malad East, Mumbai - 400097, Dist.Mumbai, Maharashtra",8048970316,
Baby Learning Cushion Soft Toys,https://www.indiamart.com/proddetail/baby-learning-cushion-soft-toys-2853572993391.html?pos=114&kwd=baby cushion&tags=CC||||8230.883|Price|product|||MDC|rsf:gd-|-stype:attr=1|qr_nm:gd|res:RC3|com-cf:nl|ptrs:na|ktp:N0|mc:72556|mtp:S|qry_typ:P|lang:en|wc:2|cs:8840|v=4,Uma Enterprise,https://www.indiamart.com/umaenterprisesurat/?pos=114&kwd=baby cushion&tags=CC||||8230.883|Price|product|||MDC|rsf:gd-|-stype:attr=1|qr_nm:gd|res:RC3|com-cf:nl|ptrs:na|ktp:N0|mc:72556|mtp:S|qry_typ:P|lang:en|wc:2|cs:8840|v=4,False,Majura Gate,Surat,"72, Hari Ichchha Industrial Co Op Society, A K Road, Majura Gate, Surat - 395008, Dist.Surat, Gujarat",7942713138,
"Baby Learning Cushion Soft Toys, Thinking, Child Age Group: 7-10 Yrs",https://www.indiamart.com/proddetail/baby-learning-cushion-soft-toys-2851733181855.html?pos=115&kwd=baby cushion&tags=||||8230.883|Price|product|||TS|rsf:gd-|-stype:attr=1|qr_nm:gd|res:RC3|com-cf:nl|ptrs:na|ktp:N0|mc:72556|mtp:S|qry_typ:P|lang:en|wc:2|cs:8840|v=4,RJ Enterprise,https://www.indiamart.com/rj-enterprise-surat/?pos=115&kwd=baby cushion&tags=||||8230.883|Price|product|||TS|rsf:gd-|-stype:attr=1|qr_nm:gd|res:RC3|com-cf:nl|ptrs:na|ktp:N0|mc:72556|mtp:S|qry_typ:P|lang:en|wc:2|cs:8840|v=4,False,Katargam,Surat,"134, Sahjanand Society, N/R Arogyakendra, Katargam, Katargam, Surat - 395004, Dist.Surat, Gujarat",7942555306,
"Cotton Maroon Meditation Zafu Cushion From India, For Yoga, 30x18",https://www.indiamart.com/proddetail/meditation-zafu-cushion-from-india-4502898573.html?pos=116&kwd=baby cushion&tags=||||8706.263|Price|product|||TS|rsf:gd-|-stype:attr=1|qr_nm:gd|res:RC3|com-cf:nl|ptrs:na|ktp:N0|mc:72556|mtp:S|qry_typ:P|lang:en|wc:2|cs:8840|v=4,The Loyal Exports,https://www.yogaaccessories.co.in/?pos=116&kwd=baby cushion&tags=||||8706.263|Price|product|||TS|rsf:gd-|-stype:attr=1|qr_nm:gd|res:RC3|com-cf:nl|ptrs:na|ktp:N0|mc:72556|mtp:S|qry_typ:P|lang:en|wc:2|cs:8840|v=4,False,Ramkrishnapuram,Karur,"No. 12-A, Ramakrishnapuram, Ramkrishnapuram, Karur - 639001, Dist.Karur, Tamil Nadu",8048618331,
"Sequin Baby Printed Silver Color Magic Blank Cushion, Packaging Type: Poly Bag, Size: 16x16 Inches",https://www.indiamart.com/proddetail/baby-printed-silver-color-magic-blank-cushion-20659550088.html?pos=117&kwd=baby cushion&tags=||||8747.203|Price|product|||TS|rsf:gd-|-stype:attr=1|qr_nm:gd|res:RC3|com-cf:nl|ptrs:na|ktp:N0|mc:72556|mtp:S|qry_typ:P|lang:en|wc:2|cs:8840|v=4,Radhika Industries,https://www.indiamart.com/radhika-industries-panipat/?pos=117&kwd=baby cushion&tags=||||8747.203|Price|product|||TS|rsf:gd-|-stype:attr=1|qr_nm:gd|res:RC3|com-cf:nl|ptrs:na|ktp:N0|mc:72556|mtp:S|qry_typ:P|lang:en|wc:2|cs:8840|v=4,False,Model Town,Panipat,"No. 326- L, Model Town, Panipat - 132103, Dist.Panipat, Haryana",8046042935,
Multicolor Sublimation baby seater,https://www.indiamart.com/proddetail/sublimation-baby-seater-2853073848562.html?pos=118&kwd=baby cushion&tags=||||8223.226|Price|product|||TS|rsf:gd-|-stype:attr=1|qr_nm:gd|res:RC3|com-cf:nl|ptrs:na|ktp:N0|mc:72556|mtp:S|qry_typ:P|lang:en|wc:2|cs:8840|v=4,AMV INNOVATIONS,https://www.amvinnovations.com/?pos=118&kwd=baby cushion&tags=||||8223.226|Price|product|||TS|rsf:gd-|-stype:attr=1|qr_nm:gd|res:RC3|com-cf:nl|ptrs:na|ktp:N0|mc:72556|mtp:S|qry_typ:P|lang:en|wc:2|cs:8840|v=4,False,,Thane,"Plot No.1A, GAMI JADE Ground Floor, SHOP NO. 3, SECTOR 26, Thane - 400705, Dist.Thane, Maharashtra",8048974594,
Baby Head Shaping D Shape Pillow,https://www.indiamart.com/proddetail/baby-head-shaping-d-shape-pillow-2853364438662.html?pos=119&kwd=baby cushion&tags=||||8741.812|Price|product|||TS|rsf:gd-|-stype:attr=1|qr_nm:gd|res:RC3|com-cf:nl|ptrs:na|ktp:N0|mc:72556|mtp:S|qry_typ:P|lang:en|wc:2|cs:8840|v=4,Saimson,https://www.saimson.com/?pos=119&kwd=baby cushion&tags=||||8741.812|Price|product|||TS|rsf:gd-|-stype:attr=1|qr_nm:gd|res:RC3|com-cf:nl|ptrs:na|ktp:N0|mc:72556|mtp:S|qry_typ:P|lang:en|wc:2|cs:8840|v=4,False,Punhana,Gurugram,"Kewat No/ Khata No 477/534 M. N 51, Kila No 8/2 7-3, Punhana, Lohinga Kalan,, Punhana, Gurugram - 122508, Dist.Gurgaon, Haryana",7942964240,
"Conforto Polyester Staple Fiber Kids Travel Pillow, Shape: U Shape, Size: Normal Size",https://www.indiamart.com/proddetail/kids-travel-pillow-2849490451548.html?pos=120&kwd=baby cushion&tags=||||8752.144|Price|product|||TS|rsf:gd-|-stype:attr=1|qr_nm:gd|res:RC3|com-cf:nl|ptrs:na|ktp:N0|mc:72556|mtp:S|qry_typ:P|lang:en|wc:2|cs:8840|v=4,Sharma Handloom House,https://www.indiamart.com/sharmapolyfillcompany/?pos=120&kwd=baby cushion&tags=||||8752.144|Price|product|||TS|rsf:gd-|-stype:attr=1|qr_nm:gd|res:RC3|com-cf:nl|ptrs:na|ktp:N0|mc:72556|mtp:S|qry_typ:P|lang:en|wc:2|cs:8840|v=4,False,Kirti Nagar,New Delhi,"9/46, Industrial Area, Kirti Nagar, New Delhi - 110015, Dist.Delhi, Delhi",8048966959,
Pvc Cushion Mat Roll Car Mat Swimming Pool Mat,https://www.indiamart.com/proddetail/pvc-cushion-mat-roll-car-mat-swimming-pool-mat-2852639991733.html?pos=121&kwd=baby cushion&tags=||||8211.142|Price|product|||MDC|rsf:gd-|-stype:attr=1|qr_nm:gd|res:RC3|com-cf:nl|ptrs:na|ktp:N0|mc:72556|mtp:S|qry_typ:P|lang:en|wc:2|cs:8840|v=4,Bombay Mat & Chemicals,https://www.indiamart.com/bombaymat-chemicals/?pos=121&kwd=baby cushion&tags=||||8211.142|Price|product|||MDC|rsf:gd-|-stype:attr=1|qr_nm:gd|res:RC3|com-cf:nl|ptrs:na|ktp:N0|mc:72556|mtp:S|qry_typ:P|lang:en|wc:2|cs:8840|v=4,False,Kalbadevi,Mumbai,"Room No 08, 21 Keshvaji Naik Rd, 1st floor,Bhat Bazar, Masjid Bander, Kalbadevi, Mumbai - 400009, Dist.Mumbai, Maharashtra",8047783175,
Kid's Baby U Shaped Pillow,https://www.indiamart.com/proddetail/kid-s-baby-u-shaped-pillow-2854316082033.html?pos=122&kwd=baby cushion&tags=||||8752.144|Price|product|||TS|rsf:gd-|-stype:attr=1|qr_nm:gd|res:RC3|com-cf:nl|ptrs:na|ktp:N0|mc:72556|mtp:S|qry_typ:P|lang:en|wc:2|cs:8840|v=4,Prince International Soft Toys,https://www.princeinternationals.com/?pos=122&kwd=baby cushion&tags=||||8752.144|Price|product|||TS|rsf:gd-|-stype:attr=1|qr_nm:gd|res:RC3|com-cf:nl|ptrs:na|ktp:N0|mc:72556|mtp:S|qry_typ:P|lang:en|wc:2|cs:8840|v=4,False,Mukundpur,New Delhi,"Plot No. 8 , Gali No. 3, Mukundpur Village, Near Shiv Mandir, Mukundpur, New Delhi - 110042, Dist.Delhi, Delhi",8048976675,
"Cotton Baby Mattress Set With Net, Packaging Type: Packet, Model Name/Number: 3 Pillow Load Gadi",https://www.indiamart.com/proddetail/baby-mattress-set-with-net-24284283512.html?pos=123&kwd=baby cushion&tags=||||8228.275|Price|product|||TS|rsf:gd-|-stype:attr=1|qr_nm:gd|res:RC3|com-cf:nl|ptrs:na|ktp:N0|mc:72556|mtp:S|qry_typ:P|lang:en|wc:2|cs:8840|v=4,Panchratna Handicraft,https://www.indiamart.com/panchratnahadicraft/?pos=123&kwd=baby cushion&tags=||||8228.275|Price|product|||TS|rsf:gd-|-stype:attr=1|qr_nm:gd|res:RC3|com-cf:nl|ptrs:na|ktp:N0|mc:72556|mtp:S|qry_typ:P|lang:en|wc:2|cs:8840|v=4,False,Nikol,Ahmedabad,"33, Ishwarkrupa Society, Opposite Jivanwadi, Nikol Gam Road, Nikol, Nikol, Ahmedabad - 382350, Dist.Ahmedabad, Gujarat",8048980894,
"Polyfill Multicolor craftx Baby Cushion, For Home",https://www.indiamart.com/proddetail/craftx-baby-cushion-22671499233.html?pos=124&kwd=baby cushion&tags=||||8752.144|Price|product|||TS|rsf:gd-|-stype:attr=1|qr_nm:gd|res:RC3|com-cf:nl|ptrs:na|ktp:N0|mc:72556|mtp:S|qry_typ:P|lang:en|wc:2|cs:8840|v=4,Craftx Inc,https://www.indiamart.com/missru-trading-company/?pos=124&kwd=baby cushion&tags=||||8752.144|Price|product|||TS|rsf:gd-|-stype:attr=1|qr_nm:gd|res:RC3|com-cf:nl|ptrs:na|ktp:N0|mc:72556|mtp:S|qry_typ:P|lang:en|wc:2|cs:8840|v=4,False,Bawana,New Delhi,"N-191, Sec-02, Bawana Industrial Area, Bawana, New Delhi - 110084, Dist.Delhi, Delhi",8048952385,
White Base Baby Night Support Pillow,https://www.indiamart.com/proddetail/baby-night-support-pillow-2854459437073.html?pos=125&kwd=baby cushion&tags=||||8752.144|Price|product|||MDC|rsf:gd-|-stype:attr=1|qr_nm:gd|res:RC3|com-cf:nl|ptrs:na|ktp:N0|mc:72556|mtp:S|qry_typ:P|lang:en|wc:2|cs:8840|v=4,R K Enterprises,https://www.indiamart.com/r-kenterprisesnorthnewdelhi/?pos=125&kwd=baby cushion&tags=||||8752.144|Price|product|||MDC|rsf:gd-|-stype:attr=1|qr_nm:gd|res:RC3|com-cf:nl|ptrs:na|ktp:N0|mc:72556|mtp:S|qry_typ:P|lang:en|wc:2|cs:8840|v=4,False,North Delhi,New Delhi,"House No-235, Yadav Nagar, Block-E, Samaypur, North Delhi, New Delhi - 110042, Dist.Delhi, Delhi",7949337344,
"Microfiber (outer) Fiber Kids Cute Heart Shaped Cushion, Size/Dimension: 35*35 Cm",https://www.indiamart.com/proddetail/kids-cute-heart-shaped-cushion-22937427497.html?pos=126&kwd=baby cushion&tags=||||9045.955|Price|product|||TS|rsf:gd-|-stype:attr=1|qr_nm:gd|res:RC3|com-cf:nl|ptrs:na|ktp:N0|mc:72556|mtp:S|qry_typ:P|lang:en|wc:2|cs:8840|v=4,Divya Soft Toys,https://www.divyasofttoys.com/?pos=126&kwd=baby cushion&tags=||||9045.955|Price|product|||TS|rsf:gd-|-stype:attr=1|qr_nm:gd|res:RC3|com-cf:nl|ptrs:na|ktp:N0|mc:72556|mtp:S|qry_typ:P|lang:en|wc:2|cs:8840|v=4,False,Sanigawan,Kanpur,"Global Hospital, Plot No. 52, Araji No. 266, Sanigawan Road, Swarn Jayanti Vistar Part-1, Sanigawan, Kanpur - 208021, Uttar Pradesh",8046078101,
Multicolor U Shape Baby Neck Pillow,https://www.indiamart.com/proddetail/baby-neck-pillow-2854177960948.html?pos=127&kwd=baby cushion&tags=||||8752.144|Price|product|||MDC|rsf:gd-|-stype:attr=1|qr_nm:gd|res:RC3|com-cf:nl|ptrs:na|ktp:N0|mc:72556|mtp:S|qry_typ:P|lang:en|wc:2|cs:8840|v=4,Kapil Enterprises,https://www.indiamart.com/kapilenterprisesnew-delhi/?pos=127&kwd=baby cushion&tags=||||8752.144|Price|product|||MDC|rsf:gd-|-stype:attr=1|qr_nm:gd|res:RC3|com-cf:nl|ptrs:na|ktp:N0|mc:72556|mtp:S|qry_typ:P|lang:en|wc:2|cs:8840|v=4,False,Vijay Vihar,New Delhi,"Ground Floor, E-25, Vijay Vihar, Near Badi Masjid, Rohini Sector 7, North West Delhi, Vijay Vihar, New Delhi - 110085, Dist.Delhi, Delhi",7949092118,
Kids Neck Pillow,https://www.indiamart.com/proddetail/kids-neck-pillow-2854906822962.html?pos=128&kwd=baby cushion&tags=||||8785.791||product|||MDC|rsf:gd-|-stype:attr=1|qr_nm:gd|res:RC3|com-cf:nl|ptrs:na|ktp:N0|mc:72556|mtp:S|qry_typ:P|lang:en|wc:2|cs:8840|v=4,Kids Cuddle,https://www.indiamart.com/kidscuddle/?pos=128&kwd=baby cushion&tags=||||8785.791||product|||MDC|rsf:gd-|-stype:attr=1|qr_nm:gd|res:RC3|com-cf:nl|ptrs:na|ktp:N0|mc:72556|mtp:S|qry_typ:P|lang:en|wc:2|cs:8840|v=4,False,Sahibabad Industrial Area,Ghaziabad,"59/2/8,,Sahibabad Road,Ghaziabad, Sahibabad Industrial Area, Ghaziabad - 201010, Dist.Ghaziabad, Uttar Pradesh",8047691584,
Baby Neck Pillow,https://www.indiamart.com/proddetail/baby-neck-pillow-2852001622748.html?pos=129&kwd=baby cushion&tags=||||8785.791|Price|product|||TS|rsf:gd-|-stype:attr=1|qr_nm:gd|res:RC3|com-cf:nl|ptrs:na|ktp:N0|mc:72556|mtp:S|qry_typ:P|lang:en|wc:2|cs:8840|v=4,SMR Merchandise LLP,https://www.smrmerchandise.com/?pos=129&kwd=baby cushion&tags=||||8785.791|Price|product|||TS|rsf:gd-|-stype:attr=1|qr_nm:gd|res:RC3|com-cf:nl|ptrs:na|ktp:N0|mc:72556|mtp:S|qry_typ:P|lang:en|wc:2|cs:8840|v=4,False,Vasundhara,Ghaziabad,"R - 312, Vvip Addresses, Raj Nagar Extension, Vasundhara, Ghaziabad - 201017, Dist.Ghaziabad, Uttar Pradesh",8048604571,
"Microfiber (outer) Fiber Kids Cute Heart Shaped Cushion, Size/Dimension: 35*35 Cm",https://www.indiamart.com/proddetail/kids-cute-heart-shaped-cushion-22937427497.html?pos=130&kwd=baby cushion&tags=||||9045.955|Price|product|||TS|rsf:gd-|-stype:attr=1|qr_nm:gd|res:RC3|com-cf:nl|ptrs:na|ktp:N0|mc:72556|mtp:S|qry_typ:P|lang:en|wc:2|cs:8840|v=4,Divya Soft Toys,https://www.divyasofttoys.com/?pos=130&kwd=baby cushion&tags=||||9045.955|Price|product|||TS|rsf:gd-|-stype:attr=1|qr_nm:gd|res:RC3|com-cf:nl|ptrs:na|ktp:N0|mc:72556|mtp:S|qry_typ:P|lang:en|wc:2|cs:8840|v=4,False,Sanigawan,Kanpur,"Global Hospital, Plot No. 52, Araji No. 266, Sanigawan Road, Swarn Jayanti Vistar Part-1, Sanigawan, Kanpur - 208021, Uttar Pradesh",8046078101,
"White U Sleepsia Baby Pillow, Newly Born",https://www.indiamart.com/proddetail/sleepsia-baby-pillow-26125036930.html?pos=131&kwd=baby cushion&tags=||||8741.812|Price|product|||TS|rsf:gd-|-stype:attr=1|qr_nm:gd|res:RC3|com-cf:nl|ptrs:na|ktp:N0|mc:72556|mtp:S|qry_typ:P|lang:en|wc:2|cs:8840|v=4,Sleepsia India Private Limited,https://www.indiamart.com/sleepsia-india-limited/?pos=131&kwd=baby cushion&tags=||||8741.812|Price|product|||TS|rsf:gd-|-stype:attr=1|qr_nm:gd|res:RC3|com-cf:nl|ptrs:na|ktp:N0|mc:72556|mtp:S|qry_typ:P|lang:en|wc:2|cs:8840|v=4,False,Sector 19,Gurugram,"Plot No 880, Third Floor, Udyog Vihar Phase 5,Gurugram, Sector 19, Gurugram - 122016, Dist.Gurgaon, Haryana",8043855636,
"Printed Baby Nest Cotton Cushion Bed, 1.5 kg, 0-5 Months",https://www.indiamart.com/proddetail/baby-nest-cotton-cushion-bed-21746286997.html?pos=132&kwd=baby cushion&tags=||||8706.263|Price|product|||TS|rsf:gd-|-stype:attr=1|qr_nm:gd|res:RC3|com-cf:nl|ptrs:na|ktp:N0|mc:72556|mtp:S|qry_typ:P|lang:en|wc:2|cs:8840|v=4,Sivam Export,https://www.indiamart.com/sivamexport-karur/?pos=132&kwd=baby cushion&tags=||||8706.263|Price|product|||TS|rsf:gd-|-stype:attr=1|qr_nm:gd|res:RC3|com-cf:nl|ptrs:na|ktp:N0|mc:72556|mtp:S|qry_typ:P|lang:en|wc:2|cs:8840|v=4,False,,Karur,"6/1 Thiru Nagar,3rd Street, Karur - 639002, Dist.Karur, Tamil Nadu",8046050918,
U Pink Baby Neck Pillow,https://www.indiamart.com/proddetail/pink-baby-neck-pillow-2854162970033.html?pos=133&kwd=baby cushion&tags=||||8752.144|Price|product|||MDC|rsf:gd-|-stype:attr=1|qr_nm:gd|res:RC3|com-cf:nl|ptrs:na|ktp:N0|mc:72556|mtp:S|qry_typ:P|lang:en|wc:2|cs:8840|v=4,Komal Embroidery,https://www.indiamart.com/komal-embroidery-newdelhi/?pos=133&kwd=baby cushion&tags=||||8752.144|Price|product|||MDC|rsf:gd-|-stype:attr=1|qr_nm:gd|res:RC3|com-cf:nl|ptrs:na|ktp:N0|mc:72556|mtp:S|qry_typ:P|lang:en|wc:2|cs:8840|v=4,False,Rithala,New Delhi,"Ground Floor, Shop No. PVT-3, KH No. 1203, Lal Doora Village Rithala Near Surya Hotel, Rithala, New Delhi - 110085, Dist.Delhi, Delhi",8045730251,
"Size: Double Velvet White Heart Printed Baby Sleeping Mattress, Thickness: 6 inch",https://www.indiamart.com/proddetail/white-heart-printed-baby-sleeping-mattress-2853733310188.html?pos=134&kwd=baby cushion&tags=||||8230.883|Price|proxy|||TS|rsf:gd-|-stype:attr=1|qr_nm:gd|res:RC3|com-cf:nl|ptrs:na|ktp:N0|mc:72556|mtp:S|qry_typ:P|lang:en|wc:2|cs:8840|v=4,Concept Enterprise,https://www.cartforbaby.com/?pos=134&kwd=baby cushion&tags=||||8230.883|Price|proxy|||TS|rsf:gd-|-stype:attr=1|qr_nm:gd|res:RC3|com-cf:nl|ptrs:na|ktp:N0|mc:72556|mtp:S|qry_typ:P|lang:en|wc:2|cs:8840|v=4,False,Dabholi,Surat,"17, Bhumi Park Society, Near Dabholi Road, Katargam, Dabholi, Surat - 395004, Dist.Surat, Gujarat",8047546659,
Baby Cushion,https://www.indiamart.com/proddetail/baby-cushion-4989874397.html?pos=135&kwd=baby cushion&tags=CA||||8230.883||product|||NA|rsf:gd-|-stype:attr=1|qr_nm:gd|res:RC3|com-cf:nl|ptrs:na|ktp:N0|mc:72556|mtp:S|qry_typ:P|lang:en|wc:2|cs:8840|v=4,Ami Toys,https://www.indiamart.com/ami-toys/?pos=135&kwd=baby cushion&tags=CA||||8230.883||product|||NA|rsf:gd-|-stype:attr=1|qr_nm:gd|res:RC3|com-cf:nl|ptrs:na|ktp:N0|mc:72556|mtp:S|qry_typ:P|lang:en|wc:2|cs:8840|v=4,False,Gopipura,Surat,"9/1411/13 AMBAJI ROAD, HAVADIA CHAKLA, Gopipura, Surat - 395003, Dist.Surat, Gujarat",7942621164,
LAZYwindow New Born Baby Pillow U Shaped Neck Support and for Head (U Shape-Cute Pink) LW0327,https://www.indiamart.com/proddetail/lazywindow-new-born-baby-pillow-u-shaped-neck-support-and-for-head-u-shape-cute-pink-lw0327-26519466233.html?pos=136&kwd=baby cushion&tags=||||8741.812|Price|product|||TS|rsf:gd-|-stype:attr=1|qr_nm:gd|res:RC3|com-cf:nl|ptrs:na|ktp:N0|mc:72556|mtp:S|qry_typ:P|lang:en|wc:2|cs:8840|v=4,Lazy Window LLP,https://www.indiamart.com/lazy-window-llp/?pos=136&kwd=baby cushion&tags=||||8741.812|Price|product|||TS|rsf:gd-|-stype:attr=1|qr_nm:gd|res:RC3|com-cf:nl|ptrs:na|ktp:N0|mc:72556|mtp:S|qry_typ:P|lang:en|wc:2|cs:8840|v=4,False,Rajeev Nagar,Gurugram,"2117 A, Rajeev Nagar J India Garden,, Rajeev Nagar, Gurugram - 122001, Dist.Gurgaon, Haryana",8048268914,
Smiley Emoji Cushion Pillows- yellow,https://www.indiamart.com/proddetail/smiley-emoji-cushion-pillows-yellow-2851532603862.html?pos=137&kwd=baby cushion&tags=||||8752.144|Price|product|||TS|rsf:gd-|-stype:attr=1|qr_nm:gd|res:RC3|com-cf:nl|ptrs:na|ktp:N0|mc:72556|mtp:S|qry_typ:P|lang:en|wc:2|cs:8840|v=4,Ekta Overseas,https://www.indiamart.com/ektaoverseas-newdelhi/?pos=137&kwd=baby cushion&tags=||||8752.144|Price|product|||TS|rsf:gd-|-stype:attr=1|qr_nm:gd|res:RC3|com-cf:nl|ptrs:na|ktp:N0|mc:72556|mtp:S|qry_typ:P|lang:en|wc:2|cs:8840|v=4,False,Shahdara,New Delhi,"1/95, Gali No.3, Near Navjeevan Phisical Center, Vishwas Nagar, Shahdara,, Shahdara, New Delhi - 110032, Dist.Delhi, Delhi",7942628926,
Baby Bolster Pillow 2 Pcs Set - Newborn Baby Boy & Girl Muslin Clothes & Dresses - FIRSTIN,https://www.indiamart.com/proddetail/baby-bolster-pillow-2-pcs-set-newborn-baby-boy-girl-muslin-clothes-dresses-firstin-20722414497.html?pos=138&kwd=baby cushion&tags=||||8668.838|Price|product|||TS|rsf:gd-|-stype:attr=1|qr_nm:gd|res:RC3|com-cf:nl|ptrs:na|ktp:N0|mc:72556|mtp:S|qry_typ:P|lang:en|wc:2|cs:8840|v=4,Sri Kalyan Export Private Limited,https://www.firstinbabydress.com/?pos=138&kwd=baby cushion&tags=||||8668.838|Price|product|||TS|rsf:gd-|-stype:attr=1|qr_nm:gd|res:RC3|com-cf:nl|ptrs:na|ktp:N0|mc:72556|mtp:S|qry_typ:P|lang:en|wc:2|cs:8840|v=4,False,Vilarasampatti,Erode,"192/4, Ishwarya Garden, Sengodampalayam, Villarasampatti Post, Erode,, Vilarasampatti, Erode - 638107, Dist.Erode, Tamil Nadu",8046030291,
Kids Fur Sublimation Cushion,https://www.indiamart.com/proddetail/kids-fur-sublimation-cushion-2851795664848.html?pos=139&kwd=baby cushion&tags=||||9520.041|Price|product|||TS|rsf:gd-|-stype:attr=1|qr_nm:gd|res:RC3|com-cf:nl|ptrs:na|ktp:N0|mc:72556|mtp:S|qry_typ:P|lang:en|wc:2|cs:8840|v=4,Vam Creation,https://www.indiamart.com/vam-creation-patna/?pos=139&kwd=baby cushion&tags=||||9520.041|Price|product|||TS|rsf:gd-|-stype:attr=1|qr_nm:gd|res:RC3|com-cf:nl|ptrs:na|ktp:N0|mc:72556|mtp:S|qry_typ:P|lang:en|wc:2|cs:8840|v=4,False,Naya Tola,Patna,"New Holding No-236A, Old Holding No-159F, Naya Tola Sub Post Office, Bata Gali,Kadam Kuan Thana, Naya Tola, Patna - 800004, Dist.Patna, Bihar",7942797306,
zexsazone Plain Flowers Plush Pillow Sunflower Soft Sofa Cushion Colorful Toys,https://www.indiamart.com/proddetail/flowers-plush-pillow-sunflower-soft-sofa-cushion-colorful-toys-2853701439733.html?pos=140&kwd=baby cushion&tags=||||8778.123|Price|product|||MDC|rsf:gd-|-stype:attr=1|qr_nm:gd|res:RC3|com-cf:nl|ptrs:na|ktp:N0|mc:72556|mtp:S|qry_typ:P|lang:en|wc:2|cs:8840|v=4,Apro India Services Pvt Ltd,https://www.indiamart.com/aproindiaservices/?pos=140&kwd=baby cushion&tags=||||8778.123|Price|product|||MDC|rsf:gd-|-stype:attr=1|qr_nm:gd|res:RC3|com-cf:nl|ptrs:na|ktp:N0|mc:72556|mtp:S|qry_typ:P|lang:en|wc:2|cs:8840|v=4,False,,Noida,"Plot No. 176, Gali No.- 04, Sai Garden -3 Shabari, Noida - 201301, Dist.Gautam Budh Nagar, Uttar Pradesh",8041012189,
"FUR Blue Baby Neck Pillow, For Sleeping",https://www.indiamart.com/proddetail/baby-neck-pillow-2854911009755.html?pos=141&kwd=baby cushion&tags=||||8752.144|Price|product|||MDC|rsf:gd-|-stype:attr=1|qr_nm:gd|res:RC3|com-cf:nl|ptrs:na|ktp:N0|mc:72556|mtp:S|qry_typ:P|lang:en|wc:2|cs:8840|v=4,Seventeen Century,https://www.indiamart.com/seventeencentury/?pos=141&kwd=baby cushion&tags=||||8752.144|Price|product|||MDC|rsf:gd-|-stype:attr=1|qr_nm:gd|res:RC3|com-cf:nl|ptrs:na|ktp:N0|mc:72556|mtp:S|qry_typ:P|lang:en|wc:2|cs:8840|v=4,False,Rohini,New Delhi,"First Floor, House No 75, Khasara No. 20/16,25, 21/20, 22, Block-A, Rajani Vihar Extn, Village Begumpur, North West Delhi, Rohini, New Delhi - 110086, Dist.Delhi, Delhi",8044014279,
Multicolor Rectangular Baby Pur Soft Pillow,https://www.indiamart.com/proddetail/baby-fur-pillow-2854655472155.html?pos=142&kwd=baby cushion&tags=||||8769.508|Price|product|||MDC|rsf:gd-|-stype:attr=1|qr_nm:gd|res:RC3|com-cf:nl|ptrs:na|ktp:N0|mc:72556|mtp:S|qry_typ:P|lang:en|wc:2|cs:8840|v=4,9noc,https://www.indiamart.com/9noc/?pos=142&kwd=baby cushion&tags=||||8769.508|Price|product|||MDC|rsf:gd-|-stype:attr=1|qr_nm:gd|res:RC3|com-cf:nl|ptrs:na|ktp:N0|mc:72556|mtp:S|qry_typ:P|lang:en|wc:2|cs:8840|v=4,False,,Faridabad,"H No. - 1011, H.B.C Colony, Sector 21C, Faridabad - 121001, Dist.Faridabad, Haryana",7949329664,
Sky Blue And Orange Baby Fleece Elephant Design Pillow,https://www.indiamart.com/proddetail/baby-fleece-elephant-design-pillow-2850156416655.html?pos=143&kwd=baby cushion&tags=||||8752.144|Price|product|||MDC|rsf:gd-|-stype:attr=1|qr_nm:gd|res:RC3|com-cf:nl|ptrs:na|ktp:N0|mc:72556|mtp:S|qry_typ:P|lang:en|wc:2|cs:8840|v=4,Kidz Creation,https://www.indiamart.com/kidzcreation/?pos=143&kwd=baby cushion&tags=||||8752.144|Price|product|||MDC|rsf:gd-|-stype:attr=1|qr_nm:gd|res:RC3|com-cf:nl|ptrs:na|ktp:N0|mc:72556|mtp:S|qry_typ:P|lang:en|wc:2|cs:8840|v=4,False,,New Delhi,"Shop No. 279/517,Sabharwal Market, Tolia Wali Gali Sadar Bazar, North Delhi,, New Delhi - 110006, Dist.Delhi, Delhi",8047679212,
Kids Neck Pillow,https://www.indiamart.com/proddetail/kids-neck-pillow-2854906822962.html?pos=144&kwd=baby cushion&tags=||||8785.791||product|||MDC|rsf:gd-|-stype:attr=1|qr_nm:gd|res:RC3|com-cf:nl|ptrs:na|ktp:N0|mc:72556|mtp:S|qry_typ:P|lang:en|wc:2|cs:8840|v=4,Kids Cuddle,https://www.indiamart.com/kidscuddle/?pos=144&kwd=baby cushion&tags=||||8785.791||product|||MDC|rsf:gd-|-stype:attr=1|qr_nm:gd|res:RC3|com-cf:nl|ptrs:na|ktp:N0|mc:72556|mtp:S|qry_typ:P|lang:en|wc:2|cs:8840|v=4,False,Sahibabad Industrial Area,Ghaziabad,"59/2/8,,Sahibabad Road,Ghaziabad, Sahibabad Industrial Area, Ghaziabad - 201010, Dist.Ghaziabad, Uttar Pradesh",8047691584,
"Plain Baby U Shape Neck Pillow, Size: 30cm",https://www.indiamart.com/proddetail/baby-u-shape-neck-pillow-2854978219855.html?pos=145&kwd=baby cushion&tags=||||8786.56|Price|product|||MDC|rsf:gd-|-stype:attr=1|qr_nm:gd|res:RC3|com-cf:nl|ptrs:na|ktp:N0|mc:72556|mtp:S|qry_typ:P|lang:en|wc:2|cs:8840|v=4,Vinod And Company,https://www.indiamart.com/vinodcompany-hyderabad/?pos=145&kwd=baby cushion&tags=||||8786.56|Price|product|||MDC|rsf:gd-|-stype:attr=1|qr_nm:gd|res:RC3|com-cf:nl|ptrs:na|ktp:N0|mc:72556|mtp:S|qry_typ:P|lang:en|wc:2|cs:8840|v=4,False,Feelkhana,Hyderabad,"15/8/514/1/D, Feelkhana, Begum Bazar, Feelkhana, Hyderabad - 500012, Dist.Hyderabad, Telangana",7949086154,
"FLEXI COMFORT Jute Luxe Model Moulded PU Foam Sofa Cushion for Wooden Sofa, For Home",https://www.indiamart.com/proddetail/luxe-model-moulded-pu-foam-sofa-cushion-for-wooden-sofa-22195547355.html?pos=146&kwd=baby cushion&tags=||||8918.457|Price|product|||TS|rsf:gd-|-stype:attr=1|qr_nm:gd|res:RC3|com-cf:nl|ptrs:na|ktp:N0|mc:72556|mtp:S|qry_typ:P|lang:en|wc:2|cs:8840|v=4,Sriram Foams Private Limited,https://www.pipelinepig.in/?pos=146&kwd=baby cushion&tags=||||8918.457|Price|product|||TS|rsf:gd-|-stype:attr=1|qr_nm:gd|res:RC3|com-cf:nl|ptrs:na|ktp:N0|mc:72556|mtp:S|qry_typ:P|lang:en|wc:2|cs:8840|v=4,False,Annanagar East,Sriperumbudur,"G-46-1, Vadagal A Sipcot Industrial Park, Vallam Vadagal Sriperumbudur, Annanagar East, Sriperumbudur - 602105, Dist.Kanchipuram, Tamil Nadu",8048950248,
Red Gel Cozy Baby Pillow,https://www.indiamart.com/proddetail/cozy-baby-pillow-20503012697.html?pos=147&kwd=baby cushion&tags=||||8775.616|Price|product|||TS|rsf:gd-|-stype:attr=1|qr_nm:gd|res:RC3|com-cf:nl|ptrs:na|ktp:N0|mc:72556|mtp:S|qry_typ:P|lang:en|wc:2|cs:8840|v=4,Gel Craft Healthcare Private Limited,https://www.gelcrafthealthcare.com/?pos=147&kwd=baby cushion&tags=||||8775.616|Price|product|||TS|rsf:gd-|-stype:attr=1|qr_nm:gd|res:RC3|com-cf:nl|ptrs:na|ktp:N0|mc:72556|mtp:S|qry_typ:P|lang:en|wc:2|cs:8840|v=4,False,Sahibabad Industrial Area,Sahibabad,"49/41, Site No - 4, Sahibabad Industrial Area, Sahibabad Industrial Area, Sahibabad - 201010, Dist.Ghaziabad, Uttar Pradesh",8047636660,
"Plush Cotton Banana Soft pillow cushion 60 cm, For Interior Decor",https://www.indiamart.com/proddetail/banana-soft-pillow-cushion-60-cm-2854541625512.html?pos=148&kwd=baby cushion&tags=||||8788.382|Price|product|||TS|rsf:gd-|-stype:attr=1|qr_nm:gd|res:RC3|com-cf:nl|ptrs:na|ktp:N0|mc:72556|mtp:S|qry_typ:P|lang:en|wc:2|cs:8840|v=4,Puran Enterprises,https://www.indiamart.com/puranenterprises-uttarpradesh/?pos=148&kwd=baby cushion&tags=||||8788.382|Price|product|||TS|rsf:gd-|-stype:attr=1|qr_nm:gd|res:RC3|com-cf:nl|ptrs:na|ktp:N0|mc:72556|mtp:S|qry_typ:P|lang:en|wc:2|cs:8840|v=4,False,Bisrakh Jalalpur Village,Greater Noida,"KHS-508, Haldauni, Toy City, Ecotech 3,, Bisrakh Jalalpur Village, Greater Noida - 201306, Dist.Gautam Budh Nagar, Uttar Pradesh",7942719521,
"2 Seater Modern Swing Seat Bench Cushion for Garden, Size: Length - 150 Width - 50cm",https://www.indiamart.com/proddetail/swing-seat-bench-cushion-for-garden-20745638148.html?pos=149&kwd=baby cushion&tags=||||8254.475|Price|product|||TS|rsf:gd-|-stype:attr=1|qr_nm:gd|res:RC3|com-cf:nl|ptrs:na|ktp:N0|mc:72556|mtp:S|qry_typ:P|lang:en|wc:2|cs:8840|v=4,IRA Furniture,https://www.indiamart.com/irafurniture/?pos=149&kwd=baby cushion&tags=||||8254.475|Price|product|||TS|rsf:gd-|-stype:attr=1|qr_nm:gd|res:RC3|com-cf:nl|ptrs:na|ktp:N0|mc:72556|mtp:S|qry_typ:P|lang:en|wc:2|cs:8840|v=4,False,Ashirwad Park,Bharuch,"Flat A1/ 901, Shyam Villa, Opposite Decor House, Ashirwad Park, Bharuch - 392001, Dist.Bharuch, Gujarat",8046058681,
Safe&cute Baby fish pillow velvet head support,https://www.indiamart.com/proddetail/safe-cute-baby-fish-pillow-velvet-head-support-2852802629662.html?pos=150&kwd=baby cushion&tags=||||8580.032|Price|proxy|||TS|rsf:gd-|-stype:attr=1|qr_nm:gd|res:RC3|com-cf:nl|ptrs:na|ktp:N0|mc:72556|mtp:S|qry_typ:P|lang:en|wc:2|cs:8840|v=4,Ritu Infants Care,https://www.indiamart.com/ritu-infants-care/?pos=150&kwd=baby cushion&tags=||||8580.032|Price|proxy|||TS|rsf:gd-|-stype:attr=1|qr_nm:gd|res:RC3|com-cf:nl|ptrs:na|ktp:N0|mc:72556|mtp:S|qry_typ:P|lang:en|wc:2|cs:8840|v=4,False,Sunder Nagar,Amritsar,"232, Tilak Nagar, Shivala Colony, Sunder Nagar, Amritsar - 143001, Dist.Amritsar, Punjab",7942712512,
"Pink U Cotton Baby Neck Pillow, Newly Born",https://www.indiamart.com/proddetail/cotton-baby-neck-pillow-24514373255.html?pos=151&kwd=baby cushion&tags=||||8785.791|Price|product|||TS|rsf:gd-|-stype:attr=1|qr_nm:gd|res:RC3|com-cf:nl|ptrs:na|ktp:N0|mc:72556|mtp:S|qry_typ:P|lang:en|wc:2|cs:8840|v=4,Ilaki Intercraft (India),https://www.indiamart.com/ilakiintercraft/?pos=151&kwd=baby cushion&tags=||||8785.791|Price|product|||TS|rsf:gd-|-stype:attr=1|qr_nm:gd|res:RC3|com-cf:nl|ptrs:na|ktp:N0|mc:72556|mtp:S|qry_typ:P|lang:en|wc:2|cs:8840|v=4,False,Tronica City,Ghaziabad,"D-69 Sector D-1 Tronica City, Tronica City, Ghaziabad - 201103, Dist.Ghaziabad, Uttar Pradesh",7942552124,
Sky Blue Plain Baby Velvet Neck Pillow,https://www.indiamart.com/proddetail/baby-velvet-neck-pillow-20604726333.html?pos=152&kwd=baby cushion&tags=||||8752.144|Price|product|||TS|rsf:gd-|-stype:attr=1|qr_nm:gd|res:RC3|com-cf:nl|ptrs:na|ktp:N0|mc:72556|mtp:S|qry_typ:P|lang:en|wc:2|cs:8840|v=4,Dua Traders,https://www.indiamart.com/duatraders-delhi/?pos=152&kwd=baby cushion&tags=||||8752.144|Price|product|||TS|rsf:gd-|-stype:attr=1|qr_nm:gd|res:RC3|com-cf:nl|ptrs:na|ktp:N0|mc:72556|mtp:S|qry_typ:P|lang:en|wc:2|cs:8840|v=4,False,Mandoli,New Delhi,"Plot No. 8, Kh No. 4/24, Mela Ram Vatika, E-block, JR Complex No. 4, Mandoli, Sevadham, Mandoli, New Delhi - 110093, Dist.Delhi, Delhi",8048971741,
Baby Fish Pillow,https://www.indiamart.com/proddetail/baby-fish-pillow-2853640958933.html?pos=153&kwd=baby cushion&tags=||||8228.275|Price|product|||TS|rsf:gd-|-stype:attr=1|qr_nm:gd|res:RC3|com-cf:nl|ptrs:na|ktp:N0|mc:72556|mtp:S|qry_typ:P|lang:en|wc:2|cs:8840|v=4,JSPM Traders,https://www.jspmtraders.com/?pos=153&kwd=baby cushion&tags=||||8228.275|Price|product|||TS|rsf:gd-|-stype:attr=1|qr_nm:gd|res:RC3|com-cf:nl|ptrs:na|ktp:N0|mc:72556|mtp:S|qry_typ:P|lang:en|wc:2|cs:8840|v=4,False,Dudheshwar,Ahmedabad,"407, 4th, Block-B, Sumel Business Park-9, Dudheshwar, Dudheshwar, Ahmedabad - 380004, Dist.Ahmedabad, Gujarat",8045908277,
Velvet Unisex Valvet Neck Pillow,https://www.indiamart.com/proddetail/valvet-neck-pillow-21795702288.html?pos=154&kwd=baby cushion&tags=||||8752.144|Price|product|||TS|rsf:gd-|-stype:attr=1|qr_nm:gd|res:RC3|com-cf:nl|ptrs:na|ktp:N0|mc:72556|mtp:S|qry_typ:P|lang:en|wc:2|cs:8840|v=4,Krishna Handloom,https://www.krishnahandloom.co.in/?pos=154&kwd=baby cushion&tags=||||8752.144|Price|product|||TS|rsf:gd-|-stype:attr=1|qr_nm:gd|res:RC3|com-cf:nl|ptrs:na|ktp:N0|mc:72556|mtp:S|qry_typ:P|lang:en|wc:2|cs:8840|v=4,False,Tilak Nagar,New Delhi,"First Floor, 54/9, Ashok Nagar Opposite Jankie Vaishno Dhaba, Tilak Nagar, New Delhi - 110018, Dist.Delhi, Delhi",8048982699,
"Ajanta Black and Navy Blue Compact Travel Kid: Eye Shade, Ear Plugs, Neck Pillow, For Travelling",https://www.indiamart.com/proddetail/compact-travel-kid-eye-shade-ear-plugs-neck-pillow-23477611612.html?pos=155&kwd=baby cushion&tags=||||8211.142|Price|product|||TS|rsf:gd-|-stype:attr=1|qr_nm:gd|res:RC3|com-cf:nl|ptrs:na|ktp:N0|mc:72556|mtp:S|qry_typ:P|lang:en|wc:2|cs:8840|v=4,Ajanta International,https://www.indiamart.com/ajanta-international/?pos=155&kwd=baby cushion&tags=||||8211.142|Price|product|||TS|rsf:gd-|-stype:attr=1|qr_nm:gd|res:RC3|com-cf:nl|ptrs:na|ktp:N0|mc:72556|mtp:S|qry_typ:P|lang:en|wc:2|cs:8840|v=4,False,Chinchpokli,Mumbai,"No. 202, Shiv Shakti Industrial, Premises, Behind Apollo Mill Compound, Office N. M. Joshi Marg Lower Parel, Chinchpokli, Mumbai - 400011, Dist.Mumbai, Maharashtra",8048971723,
LAZYwindow New Born Baby Pillow U Shaped Neck Support and for Head (U Shape-Cute Pink) LW0327,https://www.indiamart.com/proddetail/lazywindow-new-born-baby-pillow-u-shaped-neck-support-and-for-head-u-shape-cute-pink-lw0327-26519466233.html?pos=156&kwd=baby cushion&tags=||||8741.812|Price|product|||TS|rsf:gd-|-stype:attr=1|qr_nm:gd|res:RC3|com-cf:nl|ptrs:na|ktp:N0|mc:72556|mtp:S|qry_typ:P|lang:en|wc:2|cs:8840|v=4,Lazy Window LLP,https://www.indiamart.com/lazy-window-llp/?pos=156&kwd=baby cushion&tags=||||8741.812|Price|product|||TS|rsf:gd-|-stype:attr=1|qr_nm:gd|res:RC3|com-cf:nl|ptrs:na|ktp:N0|mc:72556|mtp:S|qry_typ:P|lang:en|wc:2|cs:8840|v=4,False,Rajeev Nagar,Gurugram,"2117 A, Rajeev Nagar J India Garden,, Rajeev Nagar, Gurugram - 122001, Dist.Gurgaon, Haryana",8048268914,
"Blue Silicone Egg Sitter, Box",https://www.indiamart.com/proddetail/egg-sitter-22693187333.html?pos=157&kwd=baby cushion&tags=||||8778.123|Price|product|||TS|rsf:gd-|-stype:attr=1|qr_nm:gd|res:RC3|com-cf:nl|ptrs:na|ktp:N0|mc:72556|mtp:S|qry_typ:P|lang:en|wc:2|cs:8840|v=4,HK Imports,https://www.indiamart.com/hkimports/?pos=157&kwd=baby cushion&tags=||||8778.123|Price|product|||TS|rsf:gd-|-stype:attr=1|qr_nm:gd|res:RC3|com-cf:nl|ptrs:na|ktp:N0|mc:72556|mtp:S|qry_typ:P|lang:en|wc:2|cs:8840|v=4,False,Sector 65,Noida,"H-370,3rd floor,H block,gaur grandeur,sec119, Sector 65, Noida - 201305, Dist.Gautam Budh Nagar, Uttar Pradesh",8048972263,
"Deals India Plush Folding Elephant Soft Pillow, For Kids play, Shape: Rectangular",https://www.indiamart.com/proddetail/folding-elephant-soft-pillow-12476612688.html?pos=158&kwd=baby cushion&tags=||||8752.144|Price|product|||TS|rsf:gd-|-stype:attr=1|qr_nm:gd|res:RC3|com-cf:nl|ptrs:na|ktp:N0|mc:72556|mtp:S|qry_typ:P|lang:en|wc:2|cs:8840|v=4,Deals India DI,https://www.indiamart.com/deals-india-di/?pos=158&kwd=baby cushion&tags=||||8752.144|Price|product|||TS|rsf:gd-|-stype:attr=1|qr_nm:gd|res:RC3|com-cf:nl|ptrs:na|ktp:N0|mc:72556|mtp:S|qry_typ:P|lang:en|wc:2|cs:8840|v=4,False,Bawana,New Delhi,"Plot No. J-186, Ground Floor, Pocket-p, Sector-3, Bawana Dsiidc, North West delhi, Bawana, New Delhi - 110039, Dist.Delhi, Delhi",8048958231,
Kids Chota Bheem Tom And Jerry Mermaid Cushion,https://www.indiamart.com/proddetail/kids-chota-bheem-tom-and-jerry-mermaid-cushion-20594265348.html?pos=159&kwd=baby cushion&tags=||||8559.269|Price|product|||TS|rsf:gd-|-stype:attr=1|qr_nm:gd|res:RC3|com-cf:nl|ptrs:na|ktp:N0|mc:72556|mtp:S|qry_typ:P|lang:en|wc:2|cs:8840|v=4,Puran Sublimation Industries,https://www.indiamart.com/ashapuraenterprisesindore/?pos=159&kwd=baby cushion&tags=||||8559.269|Price|product|||TS|rsf:gd-|-stype:attr=1|qr_nm:gd|res:RC3|com-cf:nl|ptrs:na|ktp:N0|mc:72556|mtp:S|qry_typ:P|lang:en|wc:2|cs:8840|v=4,False,,Indore,"65 Lodhi Mohalla, Indore - 452001, Dist.Indore, Madhya Pradesh",8048606829,
Multicolor Baby Gadda Set,https://www.indiamart.com/proddetail/baby-gadda-set-8863455573.html?pos=160&kwd=baby cushion&tags=||||8211.142|Price|product|||TS|rsf:gd-|-stype:attr=1|qr_nm:gd|res:RC3|com-cf:nl|ptrs:na|ktp:N0|mc:72556|mtp:S|qry_typ:P|lang:en|wc:2|cs:8840|v=4,Welcome Enterprise,https://www.welcomeenterprise.in/?pos=160&kwd=baby cushion&tags=||||8211.142|Price|product|||TS|rsf:gd-|-stype:attr=1|qr_nm:gd|res:RC3|com-cf:nl|ptrs:na|ktp:N0|mc:72556|mtp:S|qry_typ:P|lang:en|wc:2|cs:8840|v=4,False,Santacruz West,Mumbai,"1,Gulam Rasul Chawl No. 149,Khot Wadi, Besant Road,Santacruz West, Santacruz West, Mumbai - 400054, Dist.Mumbai, Maharashtra",8048601972,
Baby Cat Shape Pillow /Baby Pillow,https://www.indiamart.com/proddetail/baby-cat-shape-pillow-baby-pillow-21888956655.html?pos=161&kwd=baby cushion&tags=||||8752.144|Price|product|||TS|rsf:gd-|-stype:attr=1|qr_nm:gd|res:RC3|com-cf:nl|ptrs:na|ktp:N0|mc:72556|mtp:S|qry_typ:P|lang:en|wc:2|cs:8840|v=4,Mom & Son,https://www.theindianchoice.com/?pos=161&kwd=baby cushion&tags=||||8752.144|Price|product|||TS|rsf:gd-|-stype:attr=1|qr_nm:gd|res:RC3|com-cf:nl|ptrs:na|ktp:N0|mc:72556|mtp:S|qry_typ:P|lang:en|wc:2|cs:8840|v=4,False,Karawal Nagar,New Delhi,"B-57 Gali Number-1 Mukund Vihar, Near Pnb Bank, Karawal Nagar, New Delhi - 110094, Dist.Delhi, Delhi",7942565509,
"Multicolor Polyfill Soft Printed Cushions For Car, Living, Baby And Bedroom, For Home",https://www.indiamart.com/proddetail/soft-printed-cushions-for-car-living-baby-and-bedroom-21549722633.html?pos=162&kwd=baby cushion&tags=||||8211.142|Price|product|||TS|rsf:gd-|-stype:attr=1|qr_nm:gd|res:RC3|com-cf:nl|ptrs:na|ktp:N0|mc:72556|mtp:S|qry_typ:P|lang:en|wc:2|cs:8840|v=4,Happy Home Textile LLP,https://www.indiamart.com/happyhometextile/?pos=162&kwd=baby cushion&tags=||||8211.142|Price|product|||TS|rsf:gd-|-stype:attr=1|qr_nm:gd|res:RC3|com-cf:nl|ptrs:na|ktp:N0|mc:72556|mtp:S|qry_typ:P|lang:en|wc:2|cs:8840|v=4,False,Lower Parel,Mumbai,"No. 315, Kewal Industrial Estate DALAL, Lower Parel, Mumbai - 400013, Dist.Mumbai, Maharashtra",8048615637,
Baby Bolster Pillow 2 Pcs Set - Newborn Baby Boy & Girl Muslin Clothes & Dresses - FIRSTIN,https://www.indiamart.com/proddetail/baby-bolster-pillow-2-pcs-set-newborn-baby-boy-girl-muslin-clothes-dresses-firstin-20722414497.html?pos=163&kwd=baby cushion&tags=||||8668.838|Price|product|||TS|rsf:gd-|-stype:attr=1|qr_nm:gd|res:RC3|com-cf:nl|ptrs:na|ktp:N0|mc:72556|mtp:S|qry_typ:P|lang:en|wc:2|cs:8840|v=4,Sri Kalyan Export Private Limited,https://www.firstinbabydress.com/?pos=163&kwd=baby cushion&tags=||||8668.838|Price|product|||TS|rsf:gd-|-stype:attr=1|qr_nm:gd|res:RC3|com-cf:nl|ptrs:na|ktp:N0|mc:72556|mtp:S|qry_typ:P|lang:en|wc:2|cs:8840|v=4,False,Vilarasampatti,Erode,"192/4, Ishwarya Garden, Sengodampalayam, Villarasampatti Post, Erode,, Vilarasampatti, Erode - 638107, Dist.Erode, Tamil Nadu",8046030291,
Smiley Emoji Cushion Pillows- yellow,https://www.indiamart.com/proddetail/smiley-emoji-cushion-pillows-yellow-2851532603862.html?pos=164&kwd=baby cushion&tags=||||8752.144|Price|product|||TS|rsf:gd-|-stype:attr=1|qr_nm:gd|res:RC3|com-cf:nl|ptrs:na|ktp:N0|mc:72556|mtp:S|qry_typ:P|lang:en|wc:2|cs:8840|v=4,Ekta Overseas,https://www.indiamart.com/ektaoverseas-newdelhi/?pos=164&kwd=baby cushion&tags=||||8752.144|Price|product|||TS|rsf:gd-|-stype:attr=1|qr_nm:gd|res:RC3|com-cf:nl|ptrs:na|ktp:N0|mc:72556|mtp:S|qry_typ:P|lang:en|wc:2|cs:8840|v=4,False,Shahdara,New Delhi,"1/95, Gali No.3, Near Navjeevan Phisical Center, Vishwas Nagar, Shahdara,, Shahdara, New Delhi - 110032, Dist.Delhi, Delhi",7942628926,
"Kids Printed Rectangle Sublimation Cushion, Packaging Type: Individual Zipper Packing",https://www.indiamart.com/proddetail/sublimation-cushion-26103958455.html?pos=165&kwd=baby cushion&tags=||||8752.144|Price|product|||TS|rsf:gd-|-stype:attr=1|qr_nm:gd|res:RC3|com-cf:nl|ptrs:na|ktp:N0|mc:72556|mtp:S|qry_typ:P|lang:en|wc:2|cs:8840|v=4,SS Enterprises,https://www.indiamart.com/ss-enterprses/?pos=165&kwd=baby cushion&tags=||||8752.144|Price|product|||TS|rsf:gd-|-stype:attr=1|qr_nm:gd|res:RC3|com-cf:nl|ptrs:na|ktp:N0|mc:72556|mtp:S|qry_typ:P|lang:en|wc:2|cs:8840|v=4,False,Laxmi Nagar,New Delhi,"A12, Ganesh Nagar, Laxmi Nagar, New Delhi - 110092, Dist.Delhi, Delhi",7942531680,
Fiber Cushion With Embroidery,https://www.indiamart.com/proddetail/fiber-cushion-with-embroidery-2854238306788.html?pos=166&kwd=baby cushion&tags=||||8752.144|Price|product|||TS|rsf:gd-|-stype:attr=1|qr_nm:gd|res:RC3|com-cf:nl|ptrs:na|ktp:N0|mc:72556|mtp:S|qry_typ:P|lang:en|wc:2|cs:8840|v=4,Rathi Brothers,https://www.indiamart.com/rathibrothers-delhi/?pos=166&kwd=baby cushion&tags=||||8752.144|Price|product|||TS|rsf:gd-|-stype:attr=1|qr_nm:gd|res:RC3|com-cf:nl|ptrs:na|ktp:N0|mc:72556|mtp:S|qry_typ:P|lang:en|wc:2|cs:8840|v=4,False,Karol Bagh,New Delhi,"Stree No-31, Building No-3225, Beadon Pura, Karol Bagh, Karol Bagh, New Delhi - 110005, Dist.Delhi, Delhi",8046038664,
Baby Printed Bedding Set,https://www.indiamart.com/proddetail/baby-printed-bedding-set-22826957348.html?pos=167&kwd=baby cushion&tags=||||8211.142|Price|product|||TS|rsf:gd-|-stype:attr=1|qr_nm:gd|res:RC3|com-cf:nl|ptrs:na|ktp:N0|mc:72556|mtp:S|qry_typ:P|lang:en|wc:2|cs:8840|v=4,Child King Creation,https://www.indiamart.com/childkingcreation-mumbai/?pos=167&kwd=baby cushion&tags=||||8211.142|Price|product|||TS|rsf:gd-|-stype:attr=1|qr_nm:gd|res:RC3|com-cf:nl|ptrs:na|ktp:N0|mc:72556|mtp:S|qry_typ:P|lang:en|wc:2|cs:8840|v=4,False,Malad West,Mumbai,"B 705, Seven Floor, Jagmagia Centre, Mamlatdar Wadi EXTN Road Nahar Nagar, Malad West, Suburban, Malad West, Mumbai - 400064, Dist.Mumbai, Maharashtra",8043805922,
"Trade Star 100% Natural Organic Cotton Stylish Luxury Home Decor Sabra Kilim Cushion Case, Size: 14x36 Inches",https://www.indiamart.com/proddetail/stylish-luxury-home-decor-sabra-kilim-cushion-case-2850389625748.html?pos=168&kwd=baby cushion&tags=||||8601.347|Price|product|||TS|rsf:gd-|-stype:attr=1|qr_nm:gd|res:RC3|com-cf:nl|ptrs:na|ktp:N0|mc:72556|mtp:S|qry_typ:P|lang:en|wc:2|cs:8840|v=4,Trade Star Exports,https://www.tradestar.co.in/?pos=168&kwd=baby cushion&tags=||||8601.347|Price|product|||TS|rsf:gd-|-stype:attr=1|qr_nm:gd|res:RC3|com-cf:nl|ptrs:na|ktp:N0|mc:72556|mtp:S|qry_typ:P|lang:en|wc:2|cs:8840|v=4,True,,Jaipur,"H 1 1256, Riico Industrial Area, Sitapura,, Jaipur - 302022, Dist.Jaipur, Rajasthan",8046033994,
"Cotton Bad BABY SHOWER SEAT BED 6308, 200 G, New Born",https://www.indiamart.com/proddetail/baby-shower-seat-bed-6308-2853401118088.html?pos=169&kwd=baby cushion&tags=||||8038.093|Price|product|||TS|rsf:gd-|-stype:attr=1|qr_nm:gd|res:RC3|com-cf:nl|ptrs:na|ktp:N0|mc:72556|mtp:S|qry_typ:P|lang:en|wc:2|cs:8840|v=4,Deodap,https://www.indiamart.com/deodap/?pos=169&kwd=baby cushion&tags=||||8038.093|Price|product|||TS|rsf:gd-|-stype:attr=1|qr_nm:gd|res:RC3|com-cf:nl|ptrs:na|ktp:N0|mc:72556|mtp:S|qry_typ:P|lang:en|wc:2|cs:8840|v=4,False,Rajkot,Rajkot,"plot No. 9 Behind Patanjali Werhouse, Ruda Transport, Saat Hanuman Ahemdabad Road, Rajkot, Rajkot - 360005, Dist.Rajkot, Gujarat",8048972316,
Multicolor SQUARE BABY CUSHION BOOK PILLOW(DROPSHIPPING AVAILABLE),https://www.indiamart.com/proddetail/baby-cushion-book-pillow-dropshipping-available-26074007812.html?pos=170&kwd=baby cushion&tags=||||8230.883|Price|product|||TS|rsf:gd-|-stype:attr=1|qr_nm:gd|res:RC3|com-cf:nl|ptrs:na|ktp:N0|mc:72556|mtp:S|qry_typ:P|lang:en|wc:2|cs:8840|v=4,Rozzby,https://www.cheaperzonetoys.com/?pos=170&kwd=baby cushion&tags=||||8230.883|Price|product|||TS|rsf:gd-|-stype:attr=1|qr_nm:gd|res:RC3|com-cf:nl|ptrs:na|ktp:N0|mc:72556|mtp:S|qry_typ:P|lang:en|wc:2|cs:8840|v=4,False,Kosam,Surat,"1st Floor D-2,103 Vip Circle Shlok Recidency Utran, Kosam, Surat - 394105, Dist.Surat, Gujarat",8047622002,
child Kids Pillow Book,https://www.indiamart.com/proddetail/kids-pillow-book-2853219894088.html?pos=171&kwd=baby cushion&tags=||||8230.883|Price|product|||TS|rsf:gd-|-stype:attr=1|qr_nm:gd|res:RC3|com-cf:nl|ptrs:na|ktp:N0|mc:72556|mtp:S|qry_typ:P|lang:en|wc:2|cs:8840|v=4,Pramukh Medical,https://www.pramukhmedical.com/?pos=171&kwd=baby cushion&tags=||||8230.883|Price|product|||TS|rsf:gd-|-stype:attr=1|qr_nm:gd|res:RC3|com-cf:nl|ptrs:na|ktp:N0|mc:72556|mtp:S|qry_typ:P|lang:en|wc:2|cs:8840|v=4,False,Kamrej,Surat,"Plot No-51, Ground Floor, Ashopalav Row House-2, Unamed Road, Kamrej Surat, Kamrej, Surat - 394180, Dist.Surat, Gujarat",8047653695,
Multicolor square Designer Baby Cushions,https://www.indiamart.com/proddetail/designer-baby-cushions-26230505855.html?pos=172&kwd=baby cushion&tags=||||8230.883|Price|product|||TS|rsf:gd-|-stype:attr=1|qr_nm:gd|res:RC3|com-cf:nl|ptrs:na|ktp:N0|mc:72556|mtp:S|qry_typ:P|lang:en|wc:2|cs:8840|v=4,PYOS,https://www.pyosofficial.com/?pos=172&kwd=baby cushion&tags=||||8230.883|Price|product|||TS|rsf:gd-|-stype:attr=1|qr_nm:gd|res:RC3|com-cf:nl|ptrs:na|ktp:N0|mc:72556|mtp:S|qry_typ:P|lang:en|wc:2|cs:8840|v=4,False,Magdalla,Surat,"Plot No. 78, Ground Floor, S K Industrial Society-2, Udhana Magdalla Road, Magdalla, Surat - 395007, Dist.Surat, Gujarat",7942557798,
Pillow For Kids,https://www.indiamart.com/proddetail/pillow-for-kids-2854080927262.html?pos=173&kwd=baby cushion&tags=||||8747.203|Price|product|||TS|rsf:gd-|-stype:attr=1|qr_nm:gd|res:RC3|com-cf:nl|ptrs:na|ktp:N0|mc:72556|mtp:S|qry_typ:P|lang:en|wc:2|cs:8840|v=4,Eshika Industries,https://www.eshikahomefurnishing.com/?pos=173&kwd=baby cushion&tags=||||8747.203|Price|product|||TS|rsf:gd-|-stype:attr=1|qr_nm:gd|res:RC3|com-cf:nl|ptrs:na|ktp:N0|mc:72556|mtp:S|qry_typ:P|lang:en|wc:2|cs:8840|v=4,False,HUDA,Panipat,"1825, Jyoti Colony, Near Main Road, HUDA, Panipat - 132103, Dist.Panipat, Haryana",7942826759,
"Material: Poly cotton Bombay Dying Stripe Pillow And Cushion, For Hotel, Size: Double",https://www.indiamart.com/proddetail/bombay-dying-stripe-pillow-and-cushion-2851066818362.html?pos=174&kwd=baby cushion&tags=||||8747.203|Price|product|||TS|rsf:gd-|-stype:attr=1|qr_nm:gd|res:RC3|com-cf:nl|ptrs:na|ktp:N0|mc:72556|mtp:S|qry_typ:P|lang:en|wc:2|cs:8840|v=4,FAB ERA,https://www.fabera.in/?pos=174&kwd=baby cushion&tags=||||8747.203|Price|product|||TS|rsf:gd-|-stype:attr=1|qr_nm:gd|res:RC3|com-cf:nl|ptrs:na|ktp:N0|mc:72556|mtp:S|qry_typ:P|lang:en|wc:2|cs:8840|v=4,False,Near Ganga Garden,Panipat,"280/14, Gangapuri Road, Sanoli Road, Near Ganga Garden, Panipat - 132103, Dist.Panipat, Haryana",7942560918,
"Micky,Minnie An Panda Cartoon Character Shape Sublimation Face Pillow For Kids",https://www.indiamart.com/proddetail/sublimation-face-pillow-for-kids-24176939730.html?pos=175&kwd=baby cushion&tags=||||8038.093|Price|product|||TS|rsf:gd-|-stype:attr=1|qr_nm:gd|res:RC3|com-cf:nl|ptrs:na|ktp:N0|mc:72556|mtp:S|qry_typ:P|lang:en|wc:2|cs:8840|v=4,Right Marc,https://www.indiamart.com/right-marc/?pos=175&kwd=baby cushion&tags=||||8038.093|Price|product|||TS|rsf:gd-|-stype:attr=1|qr_nm:gd|res:RC3|com-cf:nl|ptrs:na|ktp:N0|mc:72556|mtp:S|qry_typ:P|lang:en|wc:2|cs:8840|v=4,False,Natraj Nagar,Rajkot,"B-3, Siddhnath Complex, Sadhuvashvani Road, Natraj Nagar, Rajkot - 360005, Dist.Rajkot, Gujarat",8047633870,
Off White Baby Head Support Pillow,https://www.indiamart.com/proddetail/baby-head-support-pillow-2853905430333.html?pos=176&kwd=baby cushion&tags=||||8226.563|Price|product|||MDC|rsf:gd-|-stype:attr=1|qr_nm:gd|res:RC3|com-cf:nl|ptrs:na|ktp:N0|mc:72556|mtp:S|qry_typ:P|lang:en|wc:2|cs:8840|v=4,Vanbon Clothing Co.,https://www.indiamart.com/vanbon-clothing-co/?pos=176&kwd=baby cushion&tags=||||8226.563|Price|product|||MDC|rsf:gd-|-stype:attr=1|qr_nm:gd|res:RC3|com-cf:nl|ptrs:na|ktp:N0|mc:72556|mtp:S|qry_typ:P|lang:en|wc:2|cs:8840|v=4,False,Vashi (Thane),Navi Mumbai,"1st Floor Ofice No.16, Plot No.73, D Wing Vallabh Bhai Patel Marg, Vashi (Thane), Navi Mumbai - 400703, Dist.Thane, Maharashtra",8044012603,
Kids Square Pillow,https://www.indiamart.com/proddetail/kids-square-pillow-15390269673.html?pos=177&kwd=baby cushion&tags=||||8307.81|Price|product|||MDC|rsf:gd-|-stype:attr=1|qr_nm:gd|res:RC3|com-cf:nl|ptrs:na|ktp:N0|mc:72556|mtp:S|qry_typ:P|lang:en|wc:2|cs:8840|v=4,Vishal Enterprises,https://www.indiamart.com/vishalentps-pune/?pos=177&kwd=baby cushion&tags=||||8307.81|Price|product|||MDC|rsf:gd-|-stype:attr=1|qr_nm:gd|res:RC3|com-cf:nl|ptrs:na|ktp:N0|mc:72556|mtp:S|qry_typ:P|lang:en|wc:2|cs:8840|v=4,False,Kharadi,Pune,"Survey No. 134/2, Pune Nagar Highway, Next To Chandan Marble Near India Oil Petrol Pump, Kharadi, Pune - 411014, Dist.Pune, Maharashtra",8048605291,
"Plain Soft Toy Baby Neck Pillows, For Home, Shape: Round",https://www.indiamart.com/proddetail/soft-toy-baby-neck-pillows-2854086465891.html?pos=178&kwd=baby cushion&tags=||||9839.57|Price|product|||MDC|rsf:gd-|-stype:attr=1|qr_nm:gd|res:RC3|com-cf:nl|ptrs:na|ktp:N0|mc:72556|mtp:S|qry_typ:P|lang:en|wc:2|cs:8840|v=4,Feelings,https://www.indiamart.com/feelingsq/?pos=178&kwd=baby cushion&tags=||||9839.57|Price|product|||MDC|rsf:gd-|-stype:attr=1|qr_nm:gd|res:RC3|com-cf:nl|ptrs:na|ktp:N0|mc:72556|mtp:S|qry_typ:P|lang:en|wc:2|cs:8840|v=4,False,Tiretta,Kolkata,"1st Floor, C 117-118, 71, Canning Street, Tiretta, Kolkata - 700073, Dist.Kolkata, West Bengal",8043886040,
Pink Rectangular Vparents Chunky New Born Baby Cotton Crib Sheet,https://www.indiamart.com/proddetail/chunky-new-born-baby-cotton-crib-sheet-2852137148648.html?pos=179&kwd=baby cushion&tags=||||8663.873|Price|product|||MDC|rsf:gd-|-stype:attr=1|qr_nm:gd|res:RC3|com-cf:nl|ptrs:na|ktp:N0|mc:72556|mtp:S|qry_typ:P|lang:en|wc:2|cs:8840|v=4,AQ Corporation,https://www.indiamart.com/aqcorporation/?pos=179&kwd=baby cushion&tags=||||8663.873|Price|product|||MDC|rsf:gd-|-stype:attr=1|qr_nm:gd|res:RC3|com-cf:nl|ptrs:na|ktp:N0|mc:72556|mtp:S|qry_typ:P|lang:en|wc:2|cs:8840|v=4,False,,Bengaluru,"Ground And First Floor, No 88, 2nd Cross, 4th Main, NGEF Layout, Nagashetty Halli, Sanjaynagar Bengaluru Urban, Bengaluru - 560094, Dist.Bengaluru, Karnataka",7949325043,
Baby Small No Zip Net Bedding Set,https://www.indiamart.com/proddetail/baby-small-no-zip-net-bedding-set-12810074591.html?pos=180&kwd=baby cushion&tags=||||8223.226|Price|product|||MDC|rsf:gd-|-stype:attr=1|qr_nm:gd|res:RC3|com-cf:nl|ptrs:na|ktp:N0|mc:72556|mtp:S|qry_typ:P|lang:en|wc:2|cs:8840|v=4,Wecare Solutions,https://www.indiamart.com/wecare-solutions/?pos=180&kwd=baby cushion&tags=||||8223.226|Price|product|||MDC|rsf:gd-|-stype:attr=1|qr_nm:gd|res:RC3|com-cf:nl|ptrs:na|ktp:N0|mc:72556|mtp:S|qry_typ:P|lang:en|wc:2|cs:8840|v=4,False,Valiv,Thane,"Gala No. F-19-20, 1st Floor, Rajprabha Anand Industrial Estate Naikpada, Waliv, Valiv, Thane - 401208, Dist.Thane, Maharashtra",8047631791,
REMAXX Inflatable Kids Travel Neck Pillow,https://www.indiamart.com/proddetail/remaxx-inflatable-kids-travel-neck-pillow-2854290100788.html?pos=181&kwd=baby cushion&tags=||||8211.142|Price|product|||MDC|rsf:gd-|-stype:attr=1|qr_nm:gd|res:RC3|com-cf:nl|ptrs:na|ktp:N0|mc:72556|mtp:S|qry_typ:P|lang:en|wc:2|cs:8840|v=4,S B Enterprises,https://www.indiamart.com/sb-enterprises-worlimumbai/?pos=181&kwd=baby cushion&tags=||||8211.142|Price|product|||MDC|rsf:gd-|-stype:attr=1|qr_nm:gd|res:RC3|com-cf:nl|ptrs:na|ktp:N0|mc:72556|mtp:S|qry_typ:P|lang:en|wc:2|cs:8840|v=4,False,,Mumbai,"402-B, Poonam Apartments, DR Annie Besant Road, Worli, Mumbai - 400018, Dist.Mumbai, Maharashtra",8045734969,
Customised Cartoon Cushions For Kids,https://www.indiamart.com/proddetail/customised-cartoon-cushions-for-kids-2853016090562.html?pos=182&kwd=baby cushion&tags=||||8239.3955|Price|product|||MDC|rsf:gd-|-stype:attr=1|qr_nm:gd|res:RC3|com-cf:nl|ptrs:na|ktp:N0|mc:72556|mtp:S|qry_typ:P|lang:en|wc:2|cs:8840|v=4,Pressto Personalised Gift Shop,https://www.indiamart.com/presstopersonalisedgiftshopkalyan/?pos=182&kwd=baby cushion&tags=||||8239.3955|Price|product|||MDC|rsf:gd-|-stype:attr=1|qr_nm:gd|res:RC3|com-cf:nl|ptrs:na|ktp:N0|mc:72556|mtp:S|qry_typ:P|lang:en|wc:2|cs:8840|v=4,False,Ulhasnagar,Kalyan,"Gr Flr, Shop No 1 C-14/13, Ashok Tower, UMC Road, Sec-17,, Ulhasnagar, Kalyan - 421301, Dist.Thane, Maharashtra",7942718272,
"Plain Soft Toy Baby Neck Pillows, For Home, Shape: Round",https://www.indiamart.com/proddetail/soft-toy-baby-neck-pillows-2854086465891.html?pos=183&kwd=baby cushion&tags=||||9839.57|Price|product|||MDC|rsf:gd-|-stype:attr=1|qr_nm:gd|res:RC3|com-cf:nl|ptrs:na|ktp:N0|mc:72556|mtp:S|qry_typ:P|lang:en|wc:2|cs:8840|v=4,Feelings,https://www.indiamart.com/feelingsq/?pos=183&kwd=baby cushion&tags=||||9839.57|Price|product|||MDC|rsf:gd-|-stype:attr=1|qr_nm:gd|res:RC3|com-cf:nl|ptrs:na|ktp:N0|mc:72556|mtp:S|qry_typ:P|lang:en|wc:2|cs:8840|v=4,False,Tiretta,Kolkata,"1st Floor, C 117-118, 71, Canning Street, Tiretta, Kolkata - 700073, Dist.Kolkata, West Bengal",8043886040,
Pink Rectangular Vparents Chunky New Born Baby Cotton Crib Sheet,https://www.indiamart.com/proddetail/chunky-new-born-baby-cotton-crib-sheet-2852137148648.html?pos=184&kwd=baby cushion&tags=||||8663.873|Price|product|||MDC|rsf:gd-|-stype:attr=1|qr_nm:gd|res:RC3|com-cf:nl|ptrs:na|ktp:N0|mc:72556|mtp:S|qry_typ:P|lang:en|wc:2|cs:8840|v=4,AQ Corporation,https://www.indiamart.com/aqcorporation/?pos=184&kwd=baby cushion&tags=||||8663.873|Price|product|||MDC|rsf:gd-|-stype:attr=1|qr_nm:gd|res:RC3|com-cf:nl|ptrs:na|ktp:N0|mc:72556|mtp:S|qry_typ:P|lang:en|wc:2|cs:8840|v=4,False,,Bengaluru,"Ground And First Floor, No 88, 2nd Cross, 4th Main, NGEF Layout, Nagashetty Halli, Sanjaynagar Bengaluru Urban, Bengaluru - 560094, Dist.Bengaluru, Karnataka",7949325043,
REMAXX Inflatable Kids Travel Neck Pillow,https://www.indiamart.com/proddetail/remaxx-inflatable-kids-travel-neck-pillow-2854290100788.html?pos=185&kwd=baby cushion&tags=||||8211.142|Price|product|||MDC|rsf:gd-|-stype:attr=1|qr_nm:gd|res:RC3|com-cf:nl|ptrs:na|ktp:N0|mc:72556|mtp:S|qry_typ:P|lang:en|wc:2|cs:8840|v=4,S B Enterprises,https://www.indiamart.com/sb-enterprises-worlimumbai/?pos=185&kwd=baby cushion&tags=||||8211.142|Price|product|||MDC|rsf:gd-|-stype:attr=1|qr_nm:gd|res:RC3|com-cf:nl|ptrs:na|ktp:N0|mc:72556|mtp:S|qry_typ:P|lang:en|wc:2|cs:8840|v=4,False,,Mumbai,"402-B, Poonam Apartments, DR Annie Besant Road, Worli, Mumbai - 400018, Dist.Mumbai, Maharashtra",8045734969,
Customised Cartoon Cushions For Kids,https://www.indiamart.com/proddetail/customised-cartoon-cushions-for-kids-2853016090562.html?pos=186&kwd=baby cushion&tags=||||8239.3955|Price|product|||MDC|rsf:gd-|-stype:attr=1|qr_nm:gd|res:RC3|com-cf:nl|ptrs:na|ktp:N0|mc:72556|mtp:S|qry_typ:P|lang:en|wc:2|cs:8840|v=4,Pressto Personalised Gift Shop,https://www.indiamart.com/presstopersonalisedgiftshopkalyan/?pos=186&kwd=baby cushion&tags=||||8239.3955|Price|product|||MDC|rsf:gd-|-stype:attr=1|qr_nm:gd|res:RC3|com-cf:nl|ptrs:na|ktp:N0|mc:72556|mtp:S|qry_typ:P|lang:en|wc:2|cs:8840|v=4,False,Ulhasnagar,Kalyan,"Gr Flr, Shop No 1 C-14/13, Ashok Tower, UMC Road, Sec-17,, Ulhasnagar, Kalyan - 421301, Dist.Thane, Maharashtra",7942718272,
"Polyester Green Baby Mosquito Net, For Home, Size: Small",https://www.indiamart.com/proddetail/green-baby-mosquito-net-2854163839373.html?pos=187&kwd=baby cushion&tags=||||8693.162||product|||MDC|rsf:gd-|-stype:attr=1|qr_nm:gd|res:RC3|com-cf:nl|ptrs:na|ktp:N0|mc:72556|mtp:S|qry_typ:P|lang:en|wc:2|cs:8840|v=4,Dear Baby,https://www.indiamart.com/dearbaby/?pos=187&kwd=baby cushion&tags=||||8693.162||product|||MDC|rsf:gd-|-stype:attr=1|qr_nm:gd|res:RC3|com-cf:nl|ptrs:na|ktp:N0|mc:72556|mtp:S|qry_typ:P|lang:en|wc:2|cs:8840|v=4,False,Begambur,Dindigul,"2nd Floor, No 7, Ahmad Appartment, S P Nagar, Begambur, Begambur, Dindigul - 624002, Dist.Dindigul, Tamil Nadu",8045731862,
"Orange (Base Color) Plain Baby Neck Pillow, For Home, Shape: U Shape",https://www.indiamart.com/proddetail/baby-neck-pillow-2849250644012.html?pos=188&kwd=baby cushion&tags=||||8752.144|Price|product|||MDC|rsf:gd-|-stype:attr=1|qr_nm:gd|res:RC3|com-cf:nl|ptrs:na|ktp:N0|mc:72556|mtp:S|qry_typ:P|lang:en|wc:2|cs:8840|v=4,Bombay Pen Store,https://www.indiamart.com/bombaypenstorenewdelhi/?pos=188&kwd=baby cushion&tags=||||8752.144|Price|product|||MDC|rsf:gd-|-stype:attr=1|qr_nm:gd|res:RC3|com-cf:nl|ptrs:na|ktp:N0|mc:72556|mtp:S|qry_typ:P|lang:en|wc:2|cs:8840|v=4,False,Delhi Sadar Bazar,New Delhi,"Second Floor, 6054, Main Road Sadar Bazar, Near Qutub Road Chowk, North Delhi, Delhi Sadar Bazar, New Delhi - 110006, Dist.Delhi, Delhi",8047666043,
"Multicolor Rectangular Baby Bed Pillow, Newly Born",https://www.indiamart.com/proddetail/baby-bed-pillow-26159673812.html?pos=189&kwd=baby cushion&tags=||||8785.791|Price|product|||MDC|rsf:gd-|-stype:attr=1|qr_nm:gd|res:RC3|com-cf:nl|ptrs:na|ktp:N0|mc:72556|mtp:S|qry_typ:P|lang:en|wc:2|cs:8840|v=4,First Smile Enterprises,https://www.indiamart.com/firstsmileenterprises/?pos=189&kwd=baby cushion&tags=||||8785.791|Price|product|||MDC|rsf:gd-|-stype:attr=1|qr_nm:gd|res:RC3|com-cf:nl|ptrs:na|ktp:N0|mc:72556|mtp:S|qry_typ:P|lang:en|wc:2|cs:8840|v=4,False,Ahmed Nagar Nawada,Ghaziabad,"Khasra No 263, New Anand Vihar, Loni,, Ahmed Nagar Nawada, Ghaziabad - 201102, Dist.Ghaziabad, Uttar Pradesh",8043850100,
zexsazone Plain Flowers Plush Pillow Sunflower Soft Sofa Cushion Colorful Toys,https://www.indiamart.com/proddetail/flowers-plush-pillow-sunflower-soft-sofa-cushion-colorful-toys-2853701439733.html?pos=190&kwd=baby cushion&tags=||||8778.123|Price|product|||MDC|rsf:gd-|-stype:attr=1|qr_nm:gd|res:RC3|com-cf:nl|ptrs:na|ktp:N0|mc:72556|mtp:S|qry_typ:P|lang:en|wc:2|cs:8840|v=4,Apro India Services Pvt Ltd,https://www.indiamart.com/aproindiaservices/?pos=190&kwd=baby cushion&tags=||||8778.123|Price|product|||MDC|rsf:gd-|-stype:attr=1|qr_nm:gd|res:RC3|com-cf:nl|ptrs:na|ktp:N0|mc:72556|mtp:S|qry_typ:P|lang:en|wc:2|cs:8840|v=4,False,,Noida,"Plot No. 176, Gali No.- 04, Sai Garden -3 Shabari, Noida - 201301, Dist.Gautam Budh Nagar, Uttar Pradesh",8041012189,
"FUR Blue Baby Neck Pillow, For Sleeping",https://www.indiamart.com/proddetail/baby-neck-pillow-2854911009755.html?pos=191&kwd=baby cushion&tags=||||8752.144|Price|product|||MDC|rsf:gd-|-stype:attr=1|qr_nm:gd|res:RC3|com-cf:nl|ptrs:na|ktp:N0|mc:72556|mtp:S|qry_typ:P|lang:en|wc:2|cs:8840|v=4,Seventeen Century,https://www.indiamart.com/seventeencentury/?pos=191&kwd=baby cushion&tags=||||8752.144|Price|product|||MDC|rsf:gd-|-stype:attr=1|qr_nm:gd|res:RC3|com-cf:nl|ptrs:na|ktp:N0|mc:72556|mtp:S|qry_typ:P|lang:en|wc:2|cs:8840|v=4,False,Rohini,New Delhi,"First Floor, House No 75, Khasara No. 20/16,25, 21/20, 22, Block-A, Rajani Vihar Extn, Village Begumpur, North West Delhi, Rohini, New Delhi - 110086, Dist.Delhi, Delhi",8044014279,
Sublimation Rectangle Paddy Pillow for children,https://www.indiamart.com/proddetail/sublimation-rectangle-paddy-pillow-for-children-25971820197.html?pos=192&kwd=baby cushion&tags=||||8752.144|Price|product|||MDC|rsf:gd-|-stype:attr=1|qr_nm:gd|res:RC3|com-cf:nl|ptrs:na|ktp:N0|mc:72556|mtp:S|qry_typ:P|lang:en|wc:2|cs:8840|v=4,Paras Enterprises,https://www.indiamart.com/parasenterprises-delhi-india/?pos=192&kwd=baby cushion&tags=||||8752.144|Price|product|||MDC|rsf:gd-|-stype:attr=1|qr_nm:gd|res:RC3|com-cf:nl|ptrs:na|ktp:N0|mc:72556|mtp:S|qry_typ:P|lang:en|wc:2|cs:8840|v=4,False,Baljit Nagar,New Delhi,"T - 650, F. F., Kumaun Gali Dash Mesh Moh, Baljit Nagar Central Delhi, Baljit Nagar, New Delhi - 110008, Dist.Delhi, Delhi",8047659375,
Pink Baby Cushion,,Kanha Ji Collection,https://www.indiamart.com/kanha-ji-collection-bhilwara/?pos=193&kwd=baby cushion&tags=CC||||8461.862||product|||NA|rsf:gd-|-stype:attr=1|qr_nm:gd|res:RC3|com-cf:nl|ptrs:na|ktp:N0|mc:72556|mtp:S|qry_typ:P|lang:en|wc:2|cs:8840|v=4,False,Azad Chowk,Bhilwara,"In Front Of Godawari Hall, Azad Chowk, Bhilwara - 311001, Dist.Bhilwara, Rajasthan",8048249677,2839
Square Baby Cushion,https://www.indiamart.com/proddetail/baby-cushion-22915149130.html?pos=194&kwd=baby cushion&tags=CC||||8741.812|Price|product|||NA|rsf:gd-|-stype:attr=1|qr_nm:gd|res:RC3|com-cf:nl|ptrs:na|ktp:N0|mc:72556|mtp:S|qry_typ:P|lang:en|wc:2|cs:8840|v=4,Jai Mata Di Enterprises,https://www.indiamart.com/jaimatadi-enterprises-gurgaon/?pos=194&kwd=baby cushion&tags=CC||||8741.812|Price|product|||NA|rsf:gd-|-stype:attr=1|qr_nm:gd|res:RC3|com-cf:nl|ptrs:na|ktp:N0|mc:72556|mtp:S|qry_typ:P|lang:en|wc:2|cs:8840|v=4,False,Sarswati Enclave,Gurugram,"Plot No 97 Block D,1st Floor, Saraswati Enclave Opposit Nishat Dharm Kanta,Kadipur H n 91 block D,122001,Gurgaon, Sarswati Enclave, Gurugram - 122006, Dist.Gurgaon, Haryana",8048372680,219
Printed Baby Cushion,https://www.indiamart.com/proddetail/baby-cushion-20330653330.html?pos=195&kwd=baby cushion&tags=CC||||8752.144|Price|product|||NA|rsf:gd-|-stype:attr=1|qr_nm:gd|res:RC3|com-cf:nl|ptrs:na|ktp:N0|mc:72556|mtp:S|qry_typ:P|lang:en|wc:2|cs:8840|v=4,Sahni Tolia Agency,https://www.indiamart.com/sahni-tolia-agency/?pos=195&kwd=baby cushion&tags=CC||||8752.144|Price|product|||NA|rsf:gd-|-stype:attr=1|qr_nm:gd|res:RC3|com-cf:nl|ptrs:na|ktp:N0|mc:72556|mtp:S|qry_typ:P|lang:en|wc:2|cs:8840|v=4,False,Sadar Bazaar,New Delhi,"305, Tolia Wali Gali 311, 1 Floor, Main Sadar Bazar, Sadar Bazaar, New Delhi - 110006, Dist.Delhi, Delhi",8047690122,
Neck Pillow Rectangular Pink Baby Cushion,https://www.indiamart.com/proddetail/pink-baby-cushion-2851811577688.html?pos=196&kwd=baby cushion&tags=CC||||8478.165|Price|product|||NA|rsf:gd-|-stype:attr=1|qr_nm:gd|res:RC3|com-cf:nl|ptrs:na|ktp:N0|mc:72556|mtp:S|qry_typ:P|lang:en|wc:2|cs:8840|v=4,Samsco Enterprises,https://www.indiamart.com/samscoenterprises/?pos=196&kwd=baby cushion&tags=CC||||8478.165|Price|product|||NA|rsf:gd-|-stype:attr=1|qr_nm:gd|res:RC3|com-cf:nl|ptrs:na|ktp:N0|mc:72556|mtp:S|qry_typ:P|lang:en|wc:2|cs:8840|v=4,False,Kakkur,Thazhecode,"Ground Floor Km 19/517 G, Km 19/517 H Narikkuni Road Al Sufa City Tower, Kakkur, Thazhecode - 673572, Dist.Kozhikode, Kerala",7942870584,
M Initial Baby Cushion,https://www.indiamart.com/proddetail/m-initial-baby-cushion-2852703999062.html?pos=197&kwd=baby cushion&tags=CC||||8741.812|Price|product|||NA|rsf:gd-|-stype:attr=1|qr_nm:gd|res:RC3|com-cf:nl|ptrs:na|ktp:N0|mc:72556|mtp:S|qry_typ:P|lang:en|wc:2|cs:8840|v=4,Shreeji Jewels,https://www.indiamart.com/shreeji-jewels-gurugram/?pos=197&kwd=baby cushion&tags=CC||||8741.812|Price|product|||NA|rsf:gd-|-stype:attr=1|qr_nm:gd|res:RC3|com-cf:nl|ptrs:na|ktp:N0|mc:72556|mtp:S|qry_typ:P|lang:en|wc:2|cs:8840|v=4,False,Sector 9,Gurugram,"GF, SCO 62, Old Judicial Complex,, Sector 9, Gurugram - 122001, Dist.Gurgaon, Haryana",7942718571,
Rectangular Blue Baby Cushion Pillow,https://www.indiamart.com/proddetail/blue-baby-cushion-pillow-2852975093033.html?pos=198&kwd=baby cushion&tags=CC||||8559.269|Price|product|||NA|rsf:gd-|-stype:attr=1|qr_nm:gd|res:RC3|com-cf:nl|ptrs:na|ktp:N0|mc:72556|mtp:S|qry_typ:P|lang:en|wc:2|cs:8840|v=4,Navkar Traders,https://www.indiamart.com/navkar-tradersindore/?pos=198&kwd=baby cushion&tags=CC||||8559.269|Price|product|||NA|rsf:gd-|-stype:attr=1|qr_nm:gd|res:RC3|com-cf:nl|ptrs:na|ktp:N0|mc:72556|mtp:S|qry_typ:P|lang:en|wc:2|cs:8840|v=4,False,Sukhlia,Indore,"304, Shyam Bhatika Ke Pass, Shyam Nagar,, Sukhlia, Indore - 452010, Dist.Indore, Madhya Pradesh",7942962327,
Neck Pillow Blue Baby Head Protector Cushion,https://www.indiamart.com/proddetail/baby-head-protector-cushion-2850801327173.html?pos=199&kwd=baby cushion&tags=CC||||8752.144|Price|product|||NA|rsf:gd-|-stype:attr=1|qr_nm:gd|res:RC3|com-cf:nl|ptrs:na|ktp:N0|mc:72556|mtp:S|qry_typ:P|lang:en|wc:2|cs:8840|v=4,S R Enterprises,https://www.indiamart.com/s-renterprisesnew-delhi/?pos=199&kwd=baby cushion&tags=CC||||8752.144|Price|product|||NA|rsf:gd-|-stype:attr=1|qr_nm:gd|res:RC3|com-cf:nl|ptrs:na|ktp:N0|mc:72556|mtp:S|qry_typ:P|lang:en|wc:2|cs:8840|v=4,False,kamal pur kamal vihar burari,New Delhi,"kh.no 10/18 20, kamal pur kamal vihar burari, New Delhi - 110084, Dist.Delhi, Delhi",8047829011,
Round Baby Head Protector Cushion,https://www.indiamart.com/proddetail/baby-head-protector-cushion-23021111912.html?pos=200&kwd=baby cushion&tags=CC||||8230.883|Price|product|||NA|rsf:gd-|-stype:attr=1|qr_nm:gd|res:RC3|com-cf:nl|ptrs:na|ktp:N0|mc:72556|mtp:S|qry_typ:P|lang:en|wc:2|cs:8840|v=4,G K Star,https://www.indiamart.com/g-k-star/?pos=200&kwd=baby cushion&tags=CC||||8230.883|Price|product|||NA|rsf:gd-|-stype:attr=1|qr_nm:gd|res:RC3|com-cf:nl|ptrs:na|ktp:N0|mc:72556|mtp:S|qry_typ:P|lang:en|wc:2|cs:8840|v=4,False,,Surat,"LAXMIWADI SOCIETY 68 VED ROAD NEAR NANI VED, Surat - 395004, Dist.Surat, Gujarat",8048372659,289
BABY CUSHION DINING CAHIR,https://www.indiamart.com/proddetail/baby-cushion-dining-cahir-23714740073.html?pos=201&kwd=baby cushion&tags=CC||||8723.301|Price|product|||NA|rsf:gd-|-stype:attr=1|qr_nm:gd|res:RC3|com-cf:nl|ptrs:na|ktp:N0|mc:72556|mtp:S|qry_typ:P|lang:en|wc:2|cs:8840|v=4,Century Mouldings Pvt. Ltd.,https://www.indiamart.com/century-mouldings/?pos=201&kwd=baby cushion&tags=CC||||8723.301|Price|product|||NA|rsf:gd-|-stype:attr=1|qr_nm:gd|res:RC3|com-cf:nl|ptrs:na|ktp:N0|mc:72556|mtp:S|qry_typ:P|lang:en|wc:2|cs:8840|v=4,False,Chhola Road,Bhopal,"22, Kali Pared, Chhola Road, Bhopal - 462001, Dist.Bhopal, Madhya Pradesh",8046042190,
Baby Product - Parachute Cushion,,Lotus Pacific,https://www.indiamart.com/lotus-pacific/?pos=202&kwd=baby cushion&tags=CC||||8211.142||product|||NA|rsf:gd-|-stype:attr=1|qr_nm:gd|res:RC3|com-cf:nl|ptrs:na|ktp:N0|mc:72556|mtp:S|qry_typ:P|lang:en|wc:2|cs:8840|v=4,False,Khar,Mumbai,"B-5/154, Mittal Estate , Andheri Kurla Road , Andheri East, Khar, Mumbai - 400059, Dist.Mumbai, Maharashtra",8048250134,810
Baby Learning Cushion Pillow Book,https://www.indiamart.com/proddetail/baby-learning-cushion-pillow-book-2854773906955.html?pos=203&kwd=baby cushion&tags=CC||||8663.873|Price|product|||NA|rsf:gd-|-stype:attr=1|qr_nm:gd|res:RC3|com-cf:nl|ptrs:na|ktp:N0|mc:72556|mtp:S|qry_typ:P|lang:en|wc:2|cs:8840|v=4,TRUTOYZZZ,https://www.indiamart.com/trutoyzzz/?pos=203&kwd=baby cushion&tags=CC||||8663.873|Price|product|||NA|rsf:gd-|-stype:attr=1|qr_nm:gd|res:RC3|com-cf:nl|ptrs:na|ktp:N0|mc:72556|mtp:S|qry_typ:P|lang:en|wc:2|cs:8840|v=4,False,,Bengaluru,"Doddaballapur Main Road bmsit, Bengaluru - 560064, Dist.Bengaluru, Karnataka",,
Baby Learning Cushion Pillow Book,https://www.indiamart.com/proddetail/baby-learning-cushion-pillow-book-2854419395448.html?pos=204&kwd=baby cushion&tags=CC||||8661.854|Price|product|||FCPE|rsf:gd-|-stype:attr=1|qr_nm:gd|res:RC3|com-cf:nl|ptrs:na|ktp:N0|mc:72556|mtp:S|qry_typ:P|lang:en|wc:2|cs:8840|v=4,Vastu Bazaar,https://www.indiamart.com/vastu-bazaar/?pos=204&kwd=baby cushion&tags=CC||||8661.854|Price|product|||FCPE|rsf:gd-|-stype:attr=1|qr_nm:gd|res:RC3|com-cf:nl|ptrs:na|ktp:N0|mc:72556|mtp:S|qry_typ:P|lang:en|wc:2|cs:8840|v=4,False,,Ludhiana,", Ludhiana - 141126, Dist.Ludhiana, Punjab",,
Baby Learning Cushion Pillow Book,https://www.indiamart.com/proddetail/baby-learning-cushion-pillow-book-2853118994391.html?pos=205&kwd=baby cushion&tags=CC||||9618.383|Price|product|||NA|rsf:gd-|-stype:attr=1|qr_nm:gd|res:RC3|com-cf:nl|ptrs:na|ktp:N0|mc:72556|mtp:S|qry_typ:P|lang:en|wc:2|cs:8840|v=4,Brand Kiosk Store,https://www.indiamart.com/brand-kiosk-store/?pos=205&kwd=baby cushion&tags=CC||||9618.383|Price|product|||NA|rsf:gd-|-stype:attr=1|qr_nm:gd|res:RC3|com-cf:nl|ptrs:na|ktp:N0|mc:72556|mtp:S|qry_typ:P|lang:en|wc:2|cs:8840|v=4,False,,Jamshedpur,"Adityapur, Jamshedpur - 831013, Dist.East Singhbhum, Jharkhand",,
Cute Cartoon Style Baby Cushion Soft Lying,https://www.indiamart.com/proddetail/cute-cartoon-style-baby-cushion-soft-lying-2855103127762.html?pos=206&kwd=baby cushion&tags=||||8745.513|Price|product|||FCPE|rsf:gd-|-stype:attr=1|qr_nm:gd|res:RC3|com-cf:nl|ptrs:na|ktp:N0|mc:72556|mtp:S|qry_typ:P|lang:en|wc:2|cs:8840|v=4,Eshop9,https://www.indiamart.com/company/233048983/?pos=206&kwd=baby cushion&tags=||||8745.513|Price|product|||FCPE|rsf:gd-|-stype:attr=1|qr_nm:gd|res:RC3|com-cf:nl|ptrs:na|ktp:N0|mc:72556|mtp:S|qry_typ:P|lang:en|wc:2|cs:8840|v=4,False,,Jadcherla,"JADCHERLA, MAHBOOB NAGAR, Jadcherla - 509301, Dist.Mahabub Nagar, Telangana",,
Baby Learning Cushion Pillow Book Pack Of 2,https://www.indiamart.com/proddetail/baby-learning-cushion-pillow-book-pack-of-2-2854682386455.html?pos=207&kwd=baby cushion&tags=CC||||8786.56|Price|product|||NA|rsf:gd-|-stype:attr=1|qr_nm:gd|res:RC3|com-cf:nl|ptrs:na|ktp:N0|mc:72556|mtp:S|qry_typ:P|lang:en|wc:2|cs:8840|v=4,saniecommerce.in,https://www.indiamart.com/saniecommercein/?pos=207&kwd=baby cushion&tags=CC||||8786.56|Price|product|||NA|rsf:gd-|-stype:attr=1|qr_nm:gd|res:RC3|com-cf:nl|ptrs:na|ktp:N0|mc:72556|mtp:S|qry_typ:P|lang:en|wc:2|cs:8840|v=4,False,,Hyderabad,"Officers Colony Chanchalguda RS tower , flat 101, Hyderabad - 500024, Dist.Hyderabad, Telangana",,
Pink Velvet Self- Nursing Feeding Support Baby Cushion Infant Pillow,https://www.indiamart.com/proddetail/self-nursing-feeding-support-baby-cushion-infant-pillow-20559635630.html?pos=208&kwd=baby cushion&tags=CC||||8601.347||product|||NA|rsf:gd-|-stype:attr=1|qr_nm:gd|res:RC3|com-cf:nl|ptrs:na|ktp:N0|mc:72556|mtp:S|qry_typ:P|lang:en|wc:2|cs:8840|v=4,Gurukripa Dresses,https://www.indiamart.com/guru-kripa-dresses-jaipur/?pos=208&kwd=baby cushion&tags=CC||||8601.347||product|||NA|rsf:gd-|-stype:attr=1|qr_nm:gd|res:RC3|com-cf:nl|ptrs:na|ktp:N0|mc:72556|mtp:S|qry_typ:P|lang:en|wc:2|cs:8840|v=4,False,Sitapura,Jaipur,"185/51, Pratap Nagar, Sitapura, Jaipur - 302033, Dist.Jaipur, Rajasthan",8048207293,
Baby Learning Cushion Pillow Book Pack Of 2,https://www.indiamart.com/proddetail/baby-learning-cushion-pillow-book-pack-of-2-2854625514255.html?pos=209&kwd=baby cushion&tags=CC||||8752.144|Price|product|||NA|rsf:gd-|-stype:attr=1|qr_nm:gd|res:RC3|com-cf:nl|ptrs:na|ktp:N0|mc:72556|mtp:S|qry_typ:P|lang:en|wc:2|cs:8840|v=4,Cheap bazar,https://www.indiamart.com/cheap-bazar/?pos=209&kwd=baby cushion&tags=CC||||8752.144|Price|product|||NA|rsf:gd-|-stype:attr=1|qr_nm:gd|res:RC3|com-cf:nl|ptrs:na|ktp:N0|mc:72556|mtp:S|qry_typ:P|lang:en|wc:2|cs:8840|v=4,False,,Delhi,"Badangpet , Hyderabad, Delhi - 500060, Dist.Delhi, Delhi",,
Baby Learning Cushion Pillow Book Pack Of 2,https://www.indiamart.com/proddetail/baby-learning-cushion-pillow-book-pack-of-2-2854714933912.html?pos=210&kwd=baby cushion&tags=CC||||8954.051|Price|product|||NA|rsf:gd-|-stype:attr=1|qr_nm:gd|res:RC3|com-cf:nl|ptrs:na|ktp:N0|mc:72556|mtp:S|qry_typ:P|lang:en|wc:2|cs:8840|v=4,Neatnest,https://www.indiamart.com/neatnest/?pos=210&kwd=baby cushion&tags=CC||||8954.051|Price|product|||NA|rsf:gd-|-stype:attr=1|qr_nm:gd|res:RC3|com-cf:nl|ptrs:na|ktp:N0|mc:72556|mtp:S|qry_typ:P|lang:en|wc:2|cs:8840|v=4,False,vandalur,Chennai,"32/2, Ramamoorthy, Anbu Street Gandhi Street, Vandalur, vandalur, Chennai - 600048, Dist.Chennai, Tamil Nadu",,
