product_title,product_link,company_name,company_link,is_verified_exporter,city_region,city,address_details,phone_number,phone_number_extension
Multicolor Rectangular Cotton Baby Pillow,https://www.indiamart.com/proddetail/cotton-baby-pillow-26673167073.html?pos=1&kwd=baby cotton pillow&tags=A||||8752.144|Price|product|||TS|rsf:gd-|-stype:attr=1|qr_nm:gd|res:RC4|com-cf:nl|ptrs:na|ktp:N0|mc:191315|mtp:S|qry_typ:P|lang:en|wc:3|flavl:0|cs:9648|v=4,Verma Enterprises,https://www.styaloindia.com/?pos=1&kwd=baby cotton pillow&tags=A||||8752.144|Price|product|||TS|rsf:gd-|-stype:attr=1|qr_nm:gd|res:RC4|com-cf:nl|ptrs:na|ktp:N0|mc:191315|mtp:S|qry_typ:P|lang:en|wc:3|flavl:0|cs:9648|v=4,False,Samaypur,New Delhi,"Plot No.180/1-B, Kh.No. 955/1, 1st, Block-C, Raja Vihar, Siraspur, Badli, North West Delhi, Samaypur, New Delhi - 110042, Dist.Delhi, Delhi",8047654672,
Craftx Multicolor Baby Cotton Pillow,https://www.indiamart.com/proddetail/baby-cotton-pillow-21916209530.html?pos=2&kwd=baby cotton pillow&tags=A||||8752.144|Price|product|||TS|rsf:gd-|-stype:attr=1|qr_nm:gd|res:RC4|com-cf:nl|ptrs:na|ktp:N0|mc:191315|mtp:S|qry_typ:P|lang:en|wc:3|flavl:0|cs:9648|v=4,Craftx Inc,https://www.indiamart.com/missru-trading-company/?pos=2&kwd=baby cotton pillow&tags=A||||8752.144|Price|product|||TS|rsf:gd-|-stype:attr=1|qr_nm:gd|res:RC4|com-cf:nl|ptrs:na|ktp:N0|mc:191315|mtp:S|qry_typ:P|lang:en|wc:3|flavl:0|cs:9648|v=4,False,Bawana,New Delhi,"N-191, Sec-02, Bawana Industrial Area, Bawana, New Delhi - 110084, Dist.Delhi, Delhi",8048952385,
Pink Rectangular Baby Elephant Pillow,https://www.indiamart.com/proddetail/baby-elephant-pillow-2853999243197.html?pos=3&kwd=baby cotton pillow&tags=A||||8752.144|Price|product|||MDC|rsf:gd-|-stype:attr=1|qr_nm:gd|res:RC4|com-cf:nl|ptrs:na|ktp:N0|mc:191315|mtp:S|qry_typ:P|lang:en|wc:3|flavl:0|cs:9648|v=4,Kapil Enterprises,https://www.indiamart.com/kapilenterprisesnew-delhi/?pos=3&kwd=baby cotton pillow&tags=A||||8752.144|Price|product|||MDC|rsf:gd-|-stype:attr=1|qr_nm:gd|res:RC4|com-cf:nl|ptrs:na|ktp:N0|mc:191315|mtp:S|qry_typ:P|lang:en|wc:3|flavl:0|cs:9648|v=4,False,Vijay Vihar,New Delhi,"Ground Floor, E-25, Vijay Vihar, Near Badi Masjid, Rohini Sector 7, North West Delhi, Vijay Vihar, New Delhi - 110085, Dist.Delhi, Delhi",7949092118,
Baby Pillow With Hole,https://www.indiamart.com/proddetail/baby-pillow-with-hole-19620402562.html?pos=4&kwd=baby cotton pillow&tags=A||||8752.144|Price|product|||TS|rsf:gd-|-stype:attr=1|qr_nm:gd|res:RC4|com-cf:nl|ptrs:na|ktp:N0|mc:191315|mtp:S|qry_typ:P|lang:en|wc:3|flavl:0|cs:9648|v=4,Shree Balaji Infant Wear,https://www.indiamart.com/chhotejanab/?pos=4&kwd=baby cotton pillow&tags=A||||8752.144|Price|product|||TS|rsf:gd-|-stype:attr=1|qr_nm:gd|res:RC4|com-cf:nl|ptrs:na|ktp:N0|mc:191315|mtp:S|qry_typ:P|lang:en|wc:3|flavl:0|cs:9648|v=4,False,Pahari Dhiraj,New Delhi,"1583- 84, Hathi Khana, Aziz Ganj, Bahadur Garh Road, Pahari Dhiraj, New Delhi - 110006, Dist.Delhi, Delhi",8047639754,
Newborn Baby Pillow,https://www.indiamart.com/proddetail/newborn-baby-pillow-2852383167433.html?pos=5&kwd=baby cotton pillow&tags=A||||8752.144|Price|product|||TS|rsf:gd-|-stype:attr=1|qr_nm:gd|res:RC4|com-cf:nl|ptrs:na|ktp:N0|mc:191315|mtp:S|qry_typ:P|lang:en|wc:3|flavl:0|cs:9648|v=4,Ekta Overseas,https://www.indiamart.com/ektaoverseas-newdelhi/?pos=5&kwd=baby cotton pillow&tags=A||||8752.144|Price|product|||TS|rsf:gd-|-stype:attr=1|qr_nm:gd|res:RC4|com-cf:nl|ptrs:na|ktp:N0|mc:191315|mtp:S|qry_typ:P|lang:en|wc:3|flavl:0|cs:9648|v=4,False,Shahdara,New Delhi,"1/95, Gali No.3, Near Navjeevan Phisical Center, Vishwas Nagar, Shahdara,, Shahdara, New Delhi - 110032, Dist.Delhi, Delhi",7942628926,
Baby Neck Pillow,https://www.indiamart.com/proddetail/baby-neck-pillow-2852001622748.html?pos=6&kwd=baby cotton pillow&tags=A||||8785.791|Price|product|||TS|rsf:gd-|-stype:attr=1|qr_nm:gd|res:RC4|com-cf:nl|ptrs:na|ktp:N0|mc:191315|mtp:S|qry_typ:P|lang:en|wc:3|flavl:0|cs:9648|v=4,SMR Merchandise LLP,https://www.smrmerchandise.com/?pos=6&kwd=baby cotton pillow&tags=A||||8785.791|Price|product|||TS|rsf:gd-|-stype:attr=1|qr_nm:gd|res:RC4|com-cf:nl|ptrs:na|ktp:N0|mc:191315|mtp:S|qry_typ:P|lang:en|wc:3|flavl:0|cs:9648|v=4,False,Vasundhara,Ghaziabad,"R - 312, Vvip Addresses, Raj Nagar Extension, Vasundhara, Ghaziabad - 201017, Dist.Ghaziabad, Uttar Pradesh",8048604571,
Red Baby Feeding Pillow,https://www.indiamart.com/proddetail/baby-feeding-pillow-16151219991.html?pos=7&kwd=baby cotton pillow&tags=A||||8752.144|Price|product|||TS|rsf:gd-|-stype:attr=1|qr_nm:gd|res:RC4|com-cf:nl|ptrs:na|ktp:N0|mc:191315|mtp:S|qry_typ:P|lang:en|wc:3|flavl:0|cs:9648|v=4,Prince International Soft Toys,https://www.princeinternationals.com/?pos=7&kwd=baby cotton pillow&tags=A||||8752.144|Price|product|||TS|rsf:gd-|-stype:attr=1|qr_nm:gd|res:RC4|com-cf:nl|ptrs:na|ktp:N0|mc:191315|mtp:S|qry_typ:P|lang:en|wc:3|flavl:0|cs:9648|v=4,False,Mukundpur,New Delhi,"Plot No. 8 , Gali No. 3, Mukundpur Village, Near Shiv Mandir, Mukundpur, New Delhi - 110042, Dist.Delhi, Delhi",8048976675,
"Multicolor Wing Shape Baby Adjustable Head,Shoulder Protection Pillow with Straps",https://www.indiamart.com/proddetail/baby-adjustable-head-shoulder-protection-pillow-with-straps-22055190212.html?pos=8&kwd=baby cotton pillow&tags=A||||8230.883|Price|product|||TS|rsf:gd-|-stype:attr=1|qr_nm:gd|res:RC4|com-cf:nl|ptrs:na|ktp:N0|mc:191315|mtp:S|qry_typ:P|lang:en|wc:3|flavl:0|cs:9648|v=4,Divinext Imex,https://www.divinextimex.com/?pos=8&kwd=baby cotton pillow&tags=A||||8230.883|Price|product|||TS|rsf:gd-|-stype:attr=1|qr_nm:gd|res:RC4|com-cf:nl|ptrs:na|ktp:N0|mc:191315|mtp:S|qry_typ:P|lang:en|wc:3|flavl:0|cs:9648|v=4,False,Katragam,Surat,"Sy No 106/1-2 Plot No 2/3,302 3rd Floor,shreeji Complex,shriji Nagar Society 1 Ved Road, Katragam, Surat - 395004, Dist.Surat, Gujarat",7942538402,
Buckwheat Hull Bolster Support Pillow Pain Relief Pillow With Removable/Washable Cotton Cover,https://www.indiamart.com/proddetail/buckwheat-hull-bolster-support-pillow-pain-relief-pillow-with-removable-washable-cotton-cover-21152658948.html?pos=9&kwd=baby cotton pillow&tags=A||||8778.123|Price|product|||TS|rsf:gd-|-stype:attr=1|qr_nm:gd|res:RC4|com-cf:nl|ptrs:na|ktp:N0|mc:191315|mtp:S|qry_typ:P|lang:en|wc:3|flavl:0|cs:9648|v=4,Oscar Overseas,https://www.oscar-india.com/?pos=9&kwd=baby cotton pillow&tags=A||||8778.123|Price|product|||TS|rsf:gd-|-stype:attr=1|qr_nm:gd|res:RC4|com-cf:nl|ptrs:na|ktp:N0|mc:191315|mtp:S|qry_typ:P|lang:en|wc:3|flavl:0|cs:9648|v=4,False,,Noida,"A-99 Sector 5, Noida - 201301, Dist.Gautam Budh Nagar, Uttar Pradesh",8046058290,
grey U Baby Safety Pillow,https://www.indiamart.com/proddetail/baby-safety-pillow-23116509297.html?pos=10&kwd=baby cotton pillow&tags=A||||9045.955|Price|product|||TS|rsf:gd-|-stype:attr=1|qr_nm:gd|res:RC4|com-cf:nl|ptrs:na|ktp:N0|mc:191315|mtp:S|qry_typ:P|lang:en|wc:3|flavl:0|cs:9648|v=4,Divya Soft Toys,https://www.divyasofttoys.com/?pos=10&kwd=baby cotton pillow&tags=A||||9045.955|Price|product|||TS|rsf:gd-|-stype:attr=1|qr_nm:gd|res:RC4|com-cf:nl|ptrs:na|ktp:N0|mc:191315|mtp:S|qry_typ:P|lang:en|wc:3|flavl:0|cs:9648|v=4,False,Sanigawan,Kanpur,"Global Hospital, Plot No. 52, Araji No. 266, Sanigawan Road, Swarn Jayanti Vistar Part-1, Sanigawan, Kanpur - 208021, Uttar Pradesh",8046078101,
White Rectangular Kids Bamboo Pillow,https://www.indiamart.com/proddetail/kids-bamboo-pillow-26143884362.html?pos=11&kwd=baby cotton pillow&tags=A||||8741.812|Price|product|||TS|rsf:gd-|-stype:attr=1|qr_nm:gd|res:RC4|com-cf:nl|ptrs:na|ktp:N0|mc:191315|mtp:S|qry_typ:P|lang:en|wc:3|flavl:0|cs:9648|v=4,Sleepsia India Private Limited,https://www.indiamart.com/sleepsia-india-limited/?pos=11&kwd=baby cotton pillow&tags=A||||8741.812|Price|product|||TS|rsf:gd-|-stype:attr=1|qr_nm:gd|res:RC4|com-cf:nl|ptrs:na|ktp:N0|mc:191315|mtp:S|qry_typ:P|lang:en|wc:3|flavl:0|cs:9648|v=4,False,Sector 19,Gurugram,"Plot No 880, Third Floor, Udyog Vihar Phase 5,Gurugram, Sector 19, Gurugram - 122016, Dist.Gurgaon, Haryana",8043855636,
Baby Head Shaping D Shape Pillow,https://www.indiamart.com/proddetail/baby-head-shaping-d-shape-pillow-2853364438662.html?pos=12&kwd=baby cotton pillow&tags=A||||8741.812|Price|product|||TS|rsf:gd-|-stype:attr=1|qr_nm:gd|res:RC4|com-cf:nl|ptrs:na|ktp:N0|mc:191315|mtp:S|qry_typ:P|lang:en|wc:3|flavl:0|cs:9648|v=4,Saimson,https://www.saimson.com/?pos=12&kwd=baby cotton pillow&tags=A||||8741.812|Price|product|||TS|rsf:gd-|-stype:attr=1|qr_nm:gd|res:RC4|com-cf:nl|ptrs:na|ktp:N0|mc:191315|mtp:S|qry_typ:P|lang:en|wc:3|flavl:0|cs:9648|v=4,False,Punhana,Gurugram,"Kewat No/ Khata No 477/534 M. N 51, Kila No 8/2 7-3, Punhana, Lohinga Kalan,, Punhana, Gurugram - 122508, Dist.Gurgaon, Haryana",7942964240,
U Yellow Newborn Cotton Baby Pillow,https://www.indiamart.com/proddetail/yellow-newborn-cotton-baby-pillow-2853850606788.html?pos=13&kwd=baby cotton pillow&tags=A||||8752.144|Price|product|||MDC|rsf:gd-|-stype:attr=1|qr_nm:gd|res:RC4|com-cf:nl|ptrs:na|ktp:N0|mc:191315|mtp:S|qry_typ:P|lang:en|wc:3|flavl:0|cs:9648|v=4,Tarun Child Care (India),https://www.indiamart.com/tarunchildcare-india/?pos=13&kwd=baby cotton pillow&tags=A||||8752.144|Price|product|||MDC|rsf:gd-|-stype:attr=1|qr_nm:gd|res:RC4|com-cf:nl|ptrs:na|ktp:N0|mc:191315|mtp:S|qry_typ:P|lang:en|wc:3|flavl:0|cs:9648|v=4,False,,New Delhi,"Khasra No.34/23/1, B1/579A, Plot No.34/8, Gali No-21, Harsh Vihar North East Delhi, New Delhi - 110093, Dist.Delhi, Delhi",8045732716,
"Cotton Blue Baby Fix Pillow Met, Newly Born",https://www.indiamart.com/proddetail/cotton-blue-baby-fix-pillow-met-24989264133.html?pos=14&kwd=baby cotton pillow&tags=A||||8228.275|Price|product|||MDC|rsf:gd-|-stype:attr=1|qr_nm:gd|res:RC4|com-cf:nl|ptrs:na|ktp:N0|mc:191315|mtp:S|qry_typ:P|lang:en|wc:3|flavl:0|cs:9648|v=4,Born Baby,https://www.indiamart.com/born-baby-ahmedabad/?pos=14&kwd=baby cotton pillow&tags=A||||8228.275|Price|product|||MDC|rsf:gd-|-stype:attr=1|qr_nm:gd|res:RC4|com-cf:nl|ptrs:na|ktp:N0|mc:191315|mtp:S|qry_typ:P|lang:en|wc:3|flavl:0|cs:9648|v=4,False,,Ahmedabad,"708, Mahalaxmi Complex, Gheekanta GPO, Ahmedabad - 380001, Dist.Ahmedabad, Gujarat",7949331255,
Yellow Baby Cotton Neck Rai Pillow,https://www.indiamart.com/proddetail/yellow-baby-cotton-neck-rai-pillow-2854128618648.html?pos=15&kwd=baby cotton pillow&tags=A||||8752.144|Price|product|||MDC|rsf:gd-|-stype:attr=1|qr_nm:gd|res:RC4|com-cf:nl|ptrs:na|ktp:N0|mc:191315|mtp:S|qry_typ:P|lang:en|wc:3|cs:8885|v=4,Komal Embroidery,https://www.indiamart.com/komal-embroidery-newdelhi/?pos=15&kwd=baby cotton pillow&tags=A||||8752.144|Price|product|||MDC|rsf:gd-|-stype:attr=1|qr_nm:gd|res:RC4|com-cf:nl|ptrs:na|ktp:N0|mc:191315|mtp:S|qry_typ:P|lang:en|wc:3|cs:8885|v=4,False,Rithala,New Delhi,"Ground Floor, Shop No. PVT-3, KH No. 1203, Lal Doora Village Rithala Near Surya Hotel, Rithala, New Delhi - 110085, Dist.Delhi, Delhi",8045730251,
Baby Cotton Soft Pillow,,Preeti Textiles,https://www.indiamart.com/preetitextiles/?pos=16&kwd=baby cotton pillow&tags=A||||8559.269|Price|product|||TS|rsf:gd-|-stype:attr=1|qr_nm:gd|res:RC4|com-cf:nl|ptrs:na|ktp:N0|mc:191315|mtp:S|qry_typ:P|lang:en|wc:3|cs:8885|v=4,False,Vyankatesh Nagar,Indore,"133-134, 2nd Floor, Muchhal Chamber, MT Cloth Market, Vyankatesh Nagar, Indore - 452009, Dist.Indore, Madhya Pradesh",8048600421,
Baby Cat Pillow,https://www.indiamart.com/proddetail/baby-cat-pillow-2851547394288.html?pos=17&kwd=baby cotton pillow&tags=A||||8752.144||product|||TS|rsf:gd-|-stype:attr=1|qr_nm:gd|res:RC4|com-cf:nl|ptrs:na|ktp:N0|mc:191315|mtp:S|qry_typ:P|lang:en|wc:3|cs:8885|v=4,National Overseas,https://www.indiamart.com/nationaltraders-vishwashnagar/?pos=17&kwd=baby cotton pillow&tags=A||||8752.144||product|||TS|rsf:gd-|-stype:attr=1|qr_nm:gd|res:RC4|com-cf:nl|ptrs:na|ktp:N0|mc:191315|mtp:S|qry_typ:P|lang:en|wc:3|cs:8885|v=4,False,Shahdara,New Delhi,"1/99, Gali No. 3, Vishwas Nagar, Shahdara, New Delhi - 110032, Dist.Delhi, Delhi",8046047673,
Red U Baby Cotton Pillow,https://www.indiamart.com/proddetail/baby-cotton-pillow-2851620398297.html?pos=18&kwd=baby cotton pillow&tags=A||||8752.144|Price|product|||MDC|rsf:gd-|-stype:attr=1|qr_nm:gd|res:RC4|com-cf:nl|ptrs:na|ktp:N0|mc:191315|mtp:S|qry_typ:P|lang:en|wc:3|cs:8885|v=4,Santosh Enterprises,https://www.indiamart.com/santosh-enterprises-delhiindia/?pos=18&kwd=baby cotton pillow&tags=A||||8752.144|Price|product|||MDC|rsf:gd-|-stype:attr=1|qr_nm:gd|res:RC4|com-cf:nl|ptrs:na|ktp:N0|mc:191315|mtp:S|qry_typ:P|lang:en|wc:3|cs:8885|v=4,False,North Delhi,New Delhi,"Ground Floor A 44 Khera Garhi Colony Gali No 01, North Delhi, New Delhi - 110082, Dist.Delhi, Delhi",8047837949,
Pink Baby Cotton Pillow,https://www.indiamart.com/proddetail/pink-baby-cotton-pillow-2853762747112.html?pos=19&kwd=baby cotton pillow&tags=A||||8698.031|Price|product|||MDC|rsf:gd-|-stype:attr=1|qr_nm:gd|res:RC4|com-cf:nl|ptrs:na|ktp:N0|mc:191315|mtp:S|qry_typ:P|lang:en|wc:3|cs:8885|v=4,Krm International,https://www.indiamart.com/krminternationalharyana/?pos=19&kwd=baby cotton pillow&tags=A||||8698.031|Price|product|||MDC|rsf:gd-|-stype:attr=1|qr_nm:gd|res:RC4|com-cf:nl|ptrs:na|ktp:N0|mc:191315|mtp:S|qry_typ:P|lang:en|wc:3|cs:8885|v=4,False,Siwan,Kaithal,"Krm International, Main Road, Near Govt. Girl School, Siwan, Siwan, Kaithal - 136033, Dist.Kaithal, Haryana",8044012542,
Blue And Pink Square Baby Cotton Printed Pillow,https://www.indiamart.com/proddetail/baby-cotton-printed-pillow-2850156424933.html?pos=20&kwd=baby cotton pillow&tags=A||||8752.144|Price|product|||MDC|rsf:gd-|-stype:attr=1|qr_nm:gd|res:RC4|com-cf:nl|ptrs:na|ktp:N0|mc:191315|mtp:S|qry_typ:P|lang:en|wc:3|cs:8885|v=4,Kidz Creation,https://www.indiamart.com/kidzcreation/?pos=20&kwd=baby cotton pillow&tags=A||||8752.144|Price|product|||MDC|rsf:gd-|-stype:attr=1|qr_nm:gd|res:RC4|com-cf:nl|ptrs:na|ktp:N0|mc:191315|mtp:S|qry_typ:P|lang:en|wc:3|cs:8885|v=4,False,,New Delhi,"Shop No. 279/517,Sabharwal Market, Tolia Wali Gali Sadar Bazar, North Delhi,, New Delhi - 110006, Dist.Delhi, Delhi",8047679212,
Baby Pillow,,Mahi Hosiery,https://www.indiamart.com/mahi-hosierydelhi/?pos=21&kwd=baby cotton pillow&tags=A||||8752.144|Price|product|||MDC|rsf:gd-|-stype:attr=1|qr_nm:gd|res:RC4|com-cf:nl|ptrs:na|ktp:N0|mc:191315|mtp:S|qry_typ:P|lang:en|wc:3|cs:8885|v=4,False,Shastri Nagar,New Delhi,"144, Second Floor, Gali No-5, New Main Road, New Lahore Colony, Shastri Nagar, Shastri Nagar, New Delhi - 110031, Dist.Delhi, Delhi",8047699176,
"Plain Baby U Shape Neck Pillow, Size: 30cm",https://www.indiamart.com/proddetail/baby-u-shape-neck-pillow-2854978219855.html?pos=22&kwd=baby cotton pillow&tags=A||||8786.56|Price|product|||MDC|rsf:gd-|-stype:attr=1|qr_nm:gd|res:RC4|com-cf:nl|ptrs:na|ktp:N0|mc:191315|mtp:S|qry_typ:P|lang:en|wc:3|cs:8885|v=4,Vinod And Company,https://www.indiamart.com/vinodcompany-hyderabad/?pos=22&kwd=baby cotton pillow&tags=A||||8786.56|Price|product|||MDC|rsf:gd-|-stype:attr=1|qr_nm:gd|res:RC4|com-cf:nl|ptrs:na|ktp:N0|mc:191315|mtp:S|qry_typ:P|lang:en|wc:3|cs:8885|v=4,False,Feelkhana,Hyderabad,"15/8/514/1/D, Feelkhana, Begum Bazar, Feelkhana, Hyderabad - 500012, Dist.Hyderabad, Telangana",7949086154,
Multicolor Rectangular Baby Learning Pillow,https://www.indiamart.com/proddetail/baby-learning-pillow-2853189363830.html?pos=23&kwd=baby cotton pillow&tags=BA||||8230.883|Price|product|||TS|rsf:gd-|-stype:attr=1|qr_nm:gd|res:RC4|com-cf:nl|ptrs:na|ktp:N0|mc:191315|mtp:S|qry_typ:P|lang:en|wc:3|cs:8885|v=4,Rapid Import & Export,https://www.indiamart.com/rapidimportexport/?pos=23&kwd=baby cotton pillow&tags=BA||||8230.883|Price|product|||TS|rsf:gd-|-stype:attr=1|qr_nm:gd|res:RC4|com-cf:nl|ptrs:na|ktp:N0|mc:191315|mtp:S|qry_typ:P|lang:en|wc:3|cs:8885|v=4,False,Dabholi,Surat,"Shade No 19, Nilkanth Park, Nr. Silver Stone Villa, Tulsi Chowk Dabholi Gam, Ved Road, Dabholi, Surat - 395004, Dist.Surat, Gujarat",7942960616,
Queen Cotton BORN BABY DIGITAL FOURPIS SET,https://www.indiamart.com/proddetail/born-baby-digital-fourpis-set-2853403598955.html?pos=24&kwd=baby cotton pillow&tags=BA||||8230.883|Price|product|||TS|rsf:gd-|-stype:attr=1|qr_nm:gd|res:RC4|com-cf:nl|ptrs:na|ktp:N0|mc:191315|mtp:S|qry_typ:P|lang:en|wc:3|cs:8885|v=4,Maa Kiran Handloom & Jiyana,https://www.indiamart.com/maakiranhandloomjiyana/?pos=24&kwd=baby cotton pillow&tags=BA||||8230.883|Price|product|||TS|rsf:gd-|-stype:attr=1|qr_nm:gd|res:RC4|com-cf:nl|ptrs:na|ktp:N0|mc:191315|mtp:S|qry_typ:P|lang:en|wc:3|cs:8885|v=4,False,Udhana,Surat,"Shop No.17, Ground Floor, Astha Business Centre, Canal Road,, Udhana, Surat - 394185, Dist.Surat, Gujarat",7942788374,
"Printed Kids Pillow, For Home, Rectangle",https://www.indiamart.com/proddetail/printed-kids-pillow-25185666812.html?pos=25&kwd=baby cotton pillow&tags=A||||8747.203|Price|product|||TS|rsf:gd-|-stype:attr=1|qr_nm:gd|res:RC4|com-cf:nl|ptrs:na|ktp:N0|mc:191315|mtp:S|qry_typ:P|lang:en|wc:3|cs:8885|v=4,Rahul Traders,https://www.silverpetalpillow.com/?pos=25&kwd=baby cotton pillow&tags=A||||8747.203|Price|product|||TS|rsf:gd-|-stype:attr=1|qr_nm:gd|res:RC4|com-cf:nl|ptrs:na|ktp:N0|mc:191315|mtp:S|qry_typ:P|lang:en|wc:3|cs:8885|v=4,False,,Panipat,"Near Rana Public School, Peer Wali Gali, Khanna Road,, Panipat - 132103, Dist.Panipat, Haryana",8048955521,
White Baby Pillow,https://www.indiamart.com/proddetail/white-baby-pillow-2850640784512.html?pos=26&kwd=baby cotton pillow&tags=BA||||8778.123|Price|product|||TS|rsf:gd-|-stype:attr=1|qr_nm:gd|res:RC4|com-cf:nl|ptrs:na|ktp:N0|mc:191315|mtp:S|qry_typ:P|lang:en|wc:3|cs:8885|v=4,Forever Enterprises,https://www.forever-enterprise.com/?pos=26&kwd=baby cotton pillow&tags=BA||||8778.123|Price|product|||TS|rsf:gd-|-stype:attr=1|qr_nm:gd|res:RC4|com-cf:nl|ptrs:na|ktp:N0|mc:191315|mtp:S|qry_typ:P|lang:en|wc:3|cs:8885|v=4,False,Bahlolpur,Noida,"Khasra no. 271&272, Bahlolpur, Noida Gali no -1, Bahlolpur, Noida - 201301, Dist.Gautam Budh Nagar, Uttar Pradesh",8048619388,
Feeding Baby Pillow,https://www.indiamart.com/proddetail/feeding-baby-pillow-2854872342933.html?pos=27&kwd=baby cotton pillow&tags=A||||8230.883|Price|product|||TS|rsf:gd-|-stype:attr=1|qr_nm:gd|res:RC4|com-cf:nl|ptrs:na|ktp:N0|mc:191315|mtp:S|qry_typ:P|lang:en|wc:3|cs:8885|v=4,Godfather Medicare Agency,https://www.godfatherimpex.com/?pos=27&kwd=baby cotton pillow&tags=A||||8230.883|Price|product|||TS|rsf:gd-|-stype:attr=1|qr_nm:gd|res:RC4|com-cf:nl|ptrs:na|ktp:N0|mc:191315|mtp:S|qry_typ:P|lang:en|wc:3|cs:8885|v=4,False,,Surat,"165, Shubhlaxmi Society, Nana Varachha, Surat - 395006, Dist.Surat, Gujarat",8044456116,
Newborn Baby Pillow,https://www.indiamart.com/proddetail/newborn-baby-pillow-2854083649033.html?pos=28&kwd=baby cotton pillow&tags=A||||8601.347|Price|product|||TS|rsf:gd-|-stype:attr=1|qr_nm:gd|res:RC4|com-cf:nl|ptrs:na|ktp:N0|mc:191315|mtp:S|qry_typ:P|lang:en|wc:3|cs:8885|v=4,A B Bros,https://www.zqbiee.com/?pos=28&kwd=baby cotton pillow&tags=A||||8601.347|Price|product|||TS|rsf:gd-|-stype:attr=1|qr_nm:gd|res:RC4|com-cf:nl|ptrs:na|ktp:N0|mc:191315|mtp:S|qry_typ:P|lang:en|wc:3|cs:8885|v=4,False,,Jaipur,"B-37-C, Jain Mandir Marg, Sani Mandir, Sethi Colony, Jaipur - 302004, Dist.Jaipur, Rajasthan",7942675590,
Baby Head Protector Pillow,https://www.indiamart.com/proddetail/baby-head-protector-pillow-23812620391.html?pos=29&kwd=baby cotton pillow&tags=A||||8230.883|Price|product|||TS|rsf:gd-|-stype:attr=1|qr_nm:gd|res:RC4|com-cf:nl|ptrs:na|ktp:N0|mc:191315|mtp:S|qry_typ:P|lang:en|wc:3|cs:8885|v=4,Seaspirit(A Brand Of Spirit Enterprise),https://www.indiamart.com/spiritenterprisesurat/?pos=29&kwd=baby cotton pillow&tags=A||||8230.883|Price|product|||TS|rsf:gd-|-stype:attr=1|qr_nm:gd|res:RC4|com-cf:nl|ptrs:na|ktp:N0|mc:191315|mtp:S|qry_typ:P|lang:en|wc:3|cs:8885|v=4,False,Dabholi,Surat,"HOLIDAY GATE NO.1, Shop No.1 - HOLIDAY, OPP SHREENATHDWARA SOCIETY, B/S NEW DELUX MOTORS, NEAR CANCER HOSPITAL, Dabholi Road, KATARGAM, Dabholi, Surat - 395004, Dist.Surat, Gujarat",8046069933,
"bothe design Rectangular Hand Block Printed Cotton Baby Pillow Case Exporter, For Home, Size: 12 X 18 Inches",https://www.indiamart.com/proddetail/hand-block-printed-cotton-baby-pillow-case-exporter-2851690617530.html?pos=30&kwd=baby cotton pillow&tags=A||||8601.347|Price|product|||TS|rsf:gd-|-stype:attr=1|qr_nm:gd|res:RC4|com-cf:nl|ptrs:na|ktp:N0|mc:191315|mtp:S|qry_typ:P|lang:en|wc:3|cs:8885|v=4,Vandana Handicraft,https://www.vandanahandicraft.net/?pos=30&kwd=baby cotton pillow&tags=A||||8601.347|Price|product|||TS|rsf:gd-|-stype:attr=1|qr_nm:gd|res:RC4|com-cf:nl|ptrs:na|ktp:N0|mc:191315|mtp:S|qry_typ:P|lang:en|wc:3|cs:8885|v=4,True,Sitapura Industrial Area,Jaipur,"Plot No. H-1167, Sitapura Industrial Area, Phase III, Sitapura Industrial Area, Jaipur - 302022, Dist.Jaipur, Rajasthan",8046049036,
Baby Head Protector Baby Safety Pillow Adjustable for 6-36 Months Toddler Baby Head Protection,https://www.indiamart.com/proddetail/baby-head-protector-baby-safety-pillow-adjustable-for-6-36-months-toddler-baby-head-protection-2852872454488.html?pos=31&kwd=baby cotton pillow&tags=A||||8230.883|Price|product|||TS|rsf:gd-|-stype:attr=1|qr_nm:gd|res:RC4|com-cf:nl|ptrs:na|ktp:N0|mc:191315|mtp:S|qry_typ:P|lang:en|wc:3|cs:8885|v=4,Pocket Simple,https://www.pocketsimple.in/?pos=31&kwd=baby cotton pillow&tags=A||||8230.883|Price|product|||TS|rsf:gd-|-stype:attr=1|qr_nm:gd|res:RC4|com-cf:nl|ptrs:na|ktp:N0|mc:191315|mtp:S|qry_typ:P|lang:en|wc:3|cs:8885|v=4,False,KATARGAM,Surat,"Gr.Floor, Shop No-20, Pramukh Residency,Omkar Soc, Ved Road, KATARGAM, Surat - 395004, Dist.Surat, Gujarat",7942720597,
Multicolor U Baby Cotton Pillow,https://www.indiamart.com/proddetail/baby-cotton-pillow-2854921964173.html?pos=32&kwd=baby cotton pillow&tags=A||||8876.815|Price|product|||MDC|rsf:gd-|-stype:attr=1|qr_nm:gd|res:RC4|com-cf:nl|ptrs:na|ktp:N0|mc:191315|mtp:S|qry_typ:P|lang:en|wc:3|cs:8885|v=4,Good Luck Trading,https://www.indiamart.com/goodlucktrading-nagpur/?pos=32&kwd=baby cotton pillow&tags=A||||8876.815|Price|product|||MDC|rsf:gd-|-stype:attr=1|qr_nm:gd|res:RC4|com-cf:nl|ptrs:na|ktp:N0|mc:191315|mtp:S|qry_typ:P|lang:en|wc:3|cs:8885|v=4,False,,Nagpur,"Plot No. 807, Dharamchaya Fawara Chowk Builing, Nikalas Mandir Road, Itwari, Nagpur - 440002, Dist.Nagpur, Maharashtra",8041014474,
Cat Shape Baby Cotton Pillow,https://www.indiamart.com/proddetail/cat-shape-baby-cotton-pillow-2855017048691.html?pos=33&kwd=baby cotton pillow&tags=A||||8752.144|Price|product|||MDC|rsf:gd-|-stype:attr=1|qr_nm:gd|res:RC4|com-cf:nl|ptrs:na|ktp:N0|mc:191315|mtp:S|qry_typ:P|lang:en|wc:3|cs:8885|v=4,A.S.Enterprises,https://www.indiamart.com/a-senterprisesdelhi-india/?pos=33&kwd=baby cotton pillow&tags=A||||8752.144|Price|product|||MDC|rsf:gd-|-stype:attr=1|qr_nm:gd|res:RC4|com-cf:nl|ptrs:na|ktp:N0|mc:191315|mtp:S|qry_typ:P|lang:en|wc:3|cs:8885|v=4,False,,New Delhi,"G F, 816, Pan Mandi, Near Press Street Sadar Bazar Area, Central Delhi, New Delhi - 110006, Dist.Delhi, Delhi",7942537259,
Off White (Base) Cotton Fish Pillow,https://www.indiamart.com/proddetail/baby-cotton-fish-pillow-2855061492462.html?pos=34&kwd=baby cotton pillow&tags=A||||8752.144|Price|product|||MDC|rsf:gd-|-stype:attr=1|qr_nm:gd|res:RC4|com-cf:nl|ptrs:na|ktp:N0|mc:191315|mtp:S|qry_typ:P|lang:en|wc:3|cs:8885|v=4,Dealsup,https://www.indiamart.com/dealsup-north-delhi/?pos=34&kwd=baby cotton pillow&tags=A||||8752.144|Price|product|||MDC|rsf:gd-|-stype:attr=1|qr_nm:gd|res:RC4|com-cf:nl|ptrs:na|ktp:N0|mc:191315|mtp:S|qry_typ:P|lang:en|wc:3|cs:8885|v=4,False,,New Delhi,"Kamal Pur Majra, Khasra No. 7/14, Kamal Vihar, Village Burari North Delhi, New Delhi - 110084, Dist.Delhi, Delhi",7942532252,
Pink Square Baby Cotton Pillow,https://www.indiamart.com/proddetail/square-baby-cotton-pillow-2853048222897.html?pos=35&kwd=baby cotton pillow&tags=A||||8752.144|Price|product|||MDC|rsf:gd-|-stype:attr=1|qr_nm:gd|res:RC4|com-cf:nl|ptrs:na|ktp:N0|mc:191315|mtp:S|qry_typ:P|lang:en|wc:3|cs:8885|v=4,Shri Raj Parnami,https://www.indiamart.com/shri-raj-parnami/?pos=35&kwd=baby cotton pillow&tags=A||||8752.144|Price|product|||MDC|rsf:gd-|-stype:attr=1|qr_nm:gd|res:RC4|com-cf:nl|ptrs:na|ktp:N0|mc:191315|mtp:S|qry_typ:P|lang:en|wc:3|cs:8885|v=4,False,,New Delhi,"Shop No.406, Main Road, Azad Market, Central Delhi,, New Delhi - 110006, Dist.Delhi, Delhi",7949338213,
U White Baby Cotton Pillow,https://www.indiamart.com/proddetail/white-baby-cotton-pillow-2854954238448.html?pos=36&kwd=baby cotton pillow&tags=A||||8626.744|Price|product|||MDC|rsf:gd-|-stype:attr=1|qr_nm:gd|res:RC4|com-cf:nl|ptrs:na|ktp:N0|mc:191315|mtp:S|qry_typ:P|lang:en|wc:3|cs:8885|v=4,Bawse Baby,https://www.indiamart.com/bawseebaby/?pos=36&kwd=baby cotton pillow&tags=A||||8626.744|Price|product|||MDC|rsf:gd-|-stype:attr=1|qr_nm:gd|res:RC4|com-cf:nl|ptrs:na|ktp:N0|mc:191315|mtp:S|qry_typ:P|lang:en|wc:3|cs:8885|v=4,False,,Tiruppur,"1/125A Semmetuth Thottam, Kulathuputhur, Andipalayam, Tiruppur - 641687, Dist.Coimbatore, Tamil Nadu",8047552265,
Green Cotton Baby U Pillow,https://www.indiamart.com/proddetail/cotton-baby-u-pillow-2853954144088.html?pos=37&kwd=baby cotton pillow&tags=A||||8752.144||product|||MDC|rsf:gd-|-stype:attr=1|qr_nm:gd|res:RC4|com-cf:nl|ptrs:na|ktp:N0|mc:191315|mtp:S|qry_typ:P|lang:en|wc:3|cs:8885|v=4,Topscotch Enterprises,https://www.indiamart.com/topscotch-enterprises-newdelhi/?pos=37&kwd=baby cotton pillow&tags=A||||8752.144||product|||MDC|rsf:gd-|-stype:attr=1|qr_nm:gd|res:RC4|com-cf:nl|ptrs:na|ktp:N0|mc:191315|mtp:S|qry_typ:P|lang:en|wc:3|cs:8885|v=4,False,North Delhi,New Delhi,"Street No 7 BLKB, Kadipur Ground Floor Plot No 99-A,KH. No. 1311 Swaroop Vihar, North Delhi, New Delhi - 110036, Dist.Delhi, Delhi",8044564980,
"Kids Printed Cotton Pillow, For Home, Shape: Square",https://www.indiamart.com/proddetail/kids-printed-cotton-pillow-2854323150991.html?pos=38&kwd=baby cotton pillow&tags=A||||8211.142|Price|product|||MDC|rsf:gd-|-stype:attr=1|qr_nm:gd|res:RC4|com-cf:nl|ptrs:na|ktp:N0|mc:191315|mtp:S|qry_typ:P|lang:en|wc:3|cs:8885|v=4,Vishram Soft Toys,https://www.indiamart.com/vishram-soft-toys/?pos=38&kwd=baby cotton pillow&tags=A||||8211.142|Price|product|||MDC|rsf:gd-|-stype:attr=1|qr_nm:gd|res:RC4|com-cf:nl|ptrs:na|ktp:N0|mc:191315|mtp:S|qry_typ:P|lang:en|wc:3|cs:8885|v=4,False,Kalbadevi,Mumbai,"Building No. 355 Room No. 63 Shaikh Memon Street Asiad Market Building, Kalbadevi, Mumbai - 400002, Dist.Mumbai, Maharashtra",7949340282,
"Multicolor Rectangular Baby Bed Pillow, Newly Born",https://www.indiamart.com/proddetail/baby-bed-pillow-26159673812.html?pos=39&kwd=baby cotton pillow&tags=A||||8785.791|Price|product|||MDC|rsf:gd-|-stype:attr=1|qr_nm:gd|res:RC4|com-cf:nl|ptrs:na|ktp:N0|mc:191315|mtp:S|qry_typ:P|lang:en|wc:3|cs:8885|v=4,First Smile Enterprises,https://www.indiamart.com/firstsmileenterprises/?pos=39&kwd=baby cotton pillow&tags=A||||8785.791|Price|product|||MDC|rsf:gd-|-stype:attr=1|qr_nm:gd|res:RC4|com-cf:nl|ptrs:na|ktp:N0|mc:191315|mtp:S|qry_typ:P|lang:en|wc:3|cs:8885|v=4,False,Ahmed Nagar Nawada,Ghaziabad,"Khasra No 263, New Anand Vihar, Loni,, Ahmed Nagar Nawada, Ghaziabad - 201102, Dist.Ghaziabad, Uttar Pradesh",8043850100,
Foam Pillow Pink Soft Baby Pillows,https://www.indiamart.com/proddetail/soft-baby-pillows-2854187999073.html?pos=40&kwd=baby cotton pillow&tags=A||||8752.144||product|||MDC|rsf:gd-|-stype:attr=1|qr_nm:gd|res:RC4|com-cf:nl|ptrs:na|ktp:N0|mc:191315|mtp:S|qry_typ:P|lang:en|wc:3|cs:8885|v=4,Shopindia,https://www.indiamart.com/shopindia-delhi/?pos=40&kwd=baby cotton pillow&tags=A||||8752.144||product|||MDC|rsf:gd-|-stype:attr=1|qr_nm:gd|res:RC4|com-cf:nl|ptrs:na|ktp:N0|mc:191315|mtp:S|qry_typ:P|lang:en|wc:3|cs:8885|v=4,False,Khyala,New Delhi,"F/F, RZ-129 Old No.RZ-57, West Block, Vishnu Garden, Khyala, New Delhi - 110018, Dist.Delhi, Delhi",8047832403,
Rectangular Kid Baby Pillow - Contour,https://www.indiamart.com/proddetail/kid-baby-pillow-contour-2853320420891.html?pos=41&kwd=baby cotton pillow&tags=BA||||8234.203|Price|product|||TS|rsf:gd-|-stype:attr=1|qr_nm:gd|res:RC4|com-cf:nl|ptrs:na|ktp:N0|mc:191315|mtp:S|qry_typ:P|lang:en|wc:3|cs:8885|v=4,Accudex Elastomers Private Limited,https://www.indiamart.com/accudex-elastomers/?pos=41&kwd=baby cotton pillow&tags=BA||||8234.203|Price|product|||TS|rsf:gd-|-stype:attr=1|qr_nm:gd|res:RC4|com-cf:nl|ptrs:na|ktp:N0|mc:191315|mtp:S|qry_typ:P|lang:en|wc:3|cs:8885|v=4,False,Anand Nagar,Visnagar,"Plot No. 14/15/16 GIDC Mahesana, Anand Nagar, Visnagar - 384315, Dist.Mehsana, Gujarat",7942639693,
CAT PILLOW FOR BORN BABY,https://www.indiamart.com/proddetail/cat-pillow-for-born-baby-2849544147897.html?pos=42&kwd=baby cotton pillow&tags=BA||||8230.883|Price|product|||TS|rsf:gd-|-stype:attr=1|qr_nm:gd|res:RC4|com-cf:nl|ptrs:na|ktp:N0|mc:191315|mtp:S|qry_typ:P|lang:en|wc:3|cs:8885|v=4,Rozzby,https://www.cheaperzonetoys.com/?pos=42&kwd=baby cotton pillow&tags=BA||||8230.883|Price|product|||TS|rsf:gd-|-stype:attr=1|qr_nm:gd|res:RC4|com-cf:nl|ptrs:na|ktp:N0|mc:191315|mtp:S|qry_typ:P|lang:en|wc:3|cs:8885|v=4,False,Kosam,Surat,"1st Floor D-2,103 Vip Circle Shlok Recidency Utran, Kosam, Surat - 394105, Dist.Surat, Gujarat",8047622002,
Green Cotton Baby U Pillow,https://www.indiamart.com/proddetail/cotton-baby-u-pillow-2853954144088.html?pos=43&kwd=baby cotton pillow&tags=A||||8752.144||product|||MDC|rsf:gd-|-stype:attr=1|qr_nm:gd|res:RC4|com-cf:nl|ptrs:na|ktp:N0|mc:191315|mtp:S|qry_typ:P|lang:en|wc:3|cs:8885|v=4,Topscotch Enterprises,https://www.indiamart.com/topscotch-enterprises-newdelhi/?pos=43&kwd=baby cotton pillow&tags=A||||8752.144||product|||MDC|rsf:gd-|-stype:attr=1|qr_nm:gd|res:RC4|com-cf:nl|ptrs:na|ktp:N0|mc:191315|mtp:S|qry_typ:P|lang:en|wc:3|cs:8885|v=4,False,North Delhi,New Delhi,"Street No 7 BLKB, Kadipur Ground Floor Plot No 99-A,KH. No. 1311 Swaroop Vihar, North Delhi, New Delhi - 110036, Dist.Delhi, Delhi",8044564980,
"Kids Printed Cotton Pillow, For Home, Shape: Square",https://www.indiamart.com/proddetail/kids-printed-cotton-pillow-2854323150991.html?pos=44&kwd=baby cotton pillow&tags=A||||8211.142|Price|product|||MDC|rsf:gd-|-stype:attr=1|qr_nm:gd|res:RC4|com-cf:nl|ptrs:na|ktp:N0|mc:191315|mtp:S|qry_typ:P|lang:en|wc:3|cs:8885|v=4,Vishram Soft Toys,https://www.indiamart.com/vishram-soft-toys/?pos=44&kwd=baby cotton pillow&tags=A||||8211.142|Price|product|||MDC|rsf:gd-|-stype:attr=1|qr_nm:gd|res:RC4|com-cf:nl|ptrs:na|ktp:N0|mc:191315|mtp:S|qry_typ:P|lang:en|wc:3|cs:8885|v=4,False,Kalbadevi,Mumbai,"Building No. 355 Room No. 63 Shaikh Memon Street Asiad Market Building, Kalbadevi, Mumbai - 400002, Dist.Mumbai, Maharashtra",7949340282,
"Multicolor Rectangular Baby Bed Pillow, Newly Born",https://www.indiamart.com/proddetail/baby-bed-pillow-26159673812.html?pos=45&kwd=baby cotton pillow&tags=A||||8785.791|Price|product|||MDC|rsf:gd-|-stype:attr=1|qr_nm:gd|res:RC4|com-cf:nl|ptrs:na|ktp:N0|mc:191315|mtp:S|qry_typ:P|lang:en|wc:3|cs:8885|v=4,First Smile Enterprises,https://www.indiamart.com/firstsmileenterprises/?pos=45&kwd=baby cotton pillow&tags=A||||8785.791|Price|product|||MDC|rsf:gd-|-stype:attr=1|qr_nm:gd|res:RC4|com-cf:nl|ptrs:na|ktp:N0|mc:191315|mtp:S|qry_typ:P|lang:en|wc:3|cs:8885|v=4,False,Ahmed Nagar Nawada,Ghaziabad,"Khasra No 263, New Anand Vihar, Loni,, Ahmed Nagar Nawada, Ghaziabad - 201102, Dist.Ghaziabad, Uttar Pradesh",8043850100,
Foam Pillow Pink Soft Baby Pillows,https://www.indiamart.com/proddetail/soft-baby-pillows-2854187999073.html?pos=46&kwd=baby cotton pillow&tags=A||||8752.144||product|||MDC|rsf:gd-|-stype:attr=1|qr_nm:gd|res:RC4|com-cf:nl|ptrs:na|ktp:N0|mc:191315|mtp:S|qry_typ:P|lang:en|wc:3|cs:8885|v=4,Shopindia,https://www.indiamart.com/shopindia-delhi/?pos=46&kwd=baby cotton pillow&tags=A||||8752.144||product|||MDC|rsf:gd-|-stype:attr=1|qr_nm:gd|res:RC4|com-cf:nl|ptrs:na|ktp:N0|mc:191315|mtp:S|qry_typ:P|lang:en|wc:3|cs:8885|v=4,False,Khyala,New Delhi,"F/F, RZ-129 Old No.RZ-57, West Block, Vishnu Garden, Khyala, New Delhi - 110018, Dist.Delhi, Delhi",8047832403,
Rectangular Kid Baby Pillow - Contour,https://www.indiamart.com/proddetail/kid-baby-pillow-contour-2853320420891.html?pos=47&kwd=baby cotton pillow&tags=BA||||8234.203|Price|product|||TS|rsf:gd-|-stype:attr=1|qr_nm:gd|res:RC4|com-cf:nl|ptrs:na|ktp:N0|mc:191315|mtp:S|qry_typ:P|lang:en|wc:3|cs:8885|v=4,Accudex Elastomers Private Limited,https://www.indiamart.com/accudex-elastomers/?pos=47&kwd=baby cotton pillow&tags=BA||||8234.203|Price|product|||TS|rsf:gd-|-stype:attr=1|qr_nm:gd|res:RC4|com-cf:nl|ptrs:na|ktp:N0|mc:191315|mtp:S|qry_typ:P|lang:en|wc:3|cs:8885|v=4,False,Anand Nagar,Visnagar,"Plot No. 14/15/16 GIDC Mahesana, Anand Nagar, Visnagar - 384315, Dist.Mehsana, Gujarat",7942639693,
CAT PILLOW FOR BORN BABY,https://www.indiamart.com/proddetail/cat-pillow-for-born-baby-2849544147897.html?pos=48&kwd=baby cotton pillow&tags=BA||||8230.883|Price|product|||TS|rsf:gd-|-stype:attr=1|qr_nm:gd|res:RC4|com-cf:nl|ptrs:na|ktp:N0|mc:191315|mtp:S|qry_typ:P|lang:en|wc:3|cs:8885|v=4,Rozzby,https://www.cheaperzonetoys.com/?pos=48&kwd=baby cotton pillow&tags=BA||||8230.883|Price|product|||TS|rsf:gd-|-stype:attr=1|qr_nm:gd|res:RC4|com-cf:nl|ptrs:na|ktp:N0|mc:191315|mtp:S|qry_typ:P|lang:en|wc:3|cs:8885|v=4,False,Kosam,Surat,"1st Floor D-2,103 Vip Circle Shlok Recidency Utran, Kosam, Surat - 394105, Dist.Surat, Gujarat",8047622002,
Baby Cotton Soft Pillow,,Preeti Textiles,https://www.indiamart.com/preetitextiles/?pos=49&kwd=baby cotton pillow&tags=A||||8559.269|Price|product|||TS|rsf:gd-|-stype:attr=1|qr_nm:gd|res:RC4|com-cf:nl|ptrs:na|ktp:N0|mc:191315|mtp:S|qry_typ:P|lang:en|wc:3|cs:8885|v=4,False,Vyankatesh Nagar,Indore,"133-134, 2nd Floor, Muchhal Chamber, MT Cloth Market, Vyankatesh Nagar, Indore - 452009, Dist.Indore, Madhya Pradesh",8048600421,
Newborn Baby Pillow,https://www.indiamart.com/proddetail/newborn-baby-pillow-2852383167433.html?pos=50&kwd=baby cotton pillow&tags=A||||8752.144|Price|product|||TS|rsf:gd-|-stype:attr=1|qr_nm:gd|res:RC4|com-cf:nl|ptrs:na|ktp:N0|mc:191315|mtp:S|qry_typ:P|lang:en|wc:3|cs:8885|v=4,Ekta Overseas,https://www.indiamart.com/ektaoverseas-newdelhi/?pos=50&kwd=baby cotton pillow&tags=A||||8752.144|Price|product|||TS|rsf:gd-|-stype:attr=1|qr_nm:gd|res:RC4|com-cf:nl|ptrs:na|ktp:N0|mc:191315|mtp:S|qry_typ:P|lang:en|wc:3|cs:8885|v=4,False,Shahdara,New Delhi,"1/95, Gali No.3, Near Navjeevan Phisical Center, Vishwas Nagar, Shahdara,, Shahdara, New Delhi - 110032, Dist.Delhi, Delhi",7942628926,
Aliens Green Baby Cotton Neck Pillow,https://www.indiamart.com/proddetail/baby-cotton-neck-pillow-2854854808748.html?pos=51&kwd=baby cotton pillow&tags=A||||8747.203|Price|product|||MDC|rsf:gd-|-stype:attr=1|qr_nm:gd|res:RC4|com-cf:nl|ptrs:na|ktp:N0|mc:191315|mtp:S|qry_typ:P|lang:en|wc:3|cs:8885|v=4,Pundhir Textile,https://www.indiamart.com/pundhirtextile/?pos=51&kwd=baby cotton pillow&tags=A||||8747.203|Price|product|||MDC|rsf:gd-|-stype:attr=1|qr_nm:gd|res:RC4|com-cf:nl|ptrs:na|ktp:N0|mc:191315|mtp:S|qry_typ:P|lang:en|wc:3|cs:8885|v=4,False,,Panipat,"1816, Huda, Sector 12, Panipat - 132103, Dist.Panipat, Haryana",8044458209,
Brown U Shape Teddy Bear Baby Neck Pillow,https://www.indiamart.com/proddetail/teddy-bear-baby-neck-pillow-2854983882912.html?pos=52&kwd=baby cotton pillow&tags=A||||8747.203|Price|product|||MDC|rsf:gd-|-stype:attr=1|qr_nm:gd|res:RC4|com-cf:nl|ptrs:na|ktp:N0|mc:191315|mtp:S|qry_typ:P|lang:en|wc:3|cs:8885|v=4,VVD Home Decor,https://www.indiamart.com/vvd-home-decor/?pos=52&kwd=baby cotton pillow&tags=A||||8747.203|Price|product|||MDC|rsf:gd-|-stype:attr=1|qr_nm:gd|res:RC4|com-cf:nl|ptrs:na|ktp:N0|mc:191315|mtp:S|qry_typ:P|lang:en|wc:3|cs:8885|v=4,False,,Panipat,"388, NR. Sarkari School, Government Primary School, Mahadev Colony, Panipat - 132103, Dist.Panipat, Haryana",8041015044,
Off White (Base) Cotton Fish Pillow,https://www.indiamart.com/proddetail/baby-cotton-fish-pillow-2855061492462.html?pos=53&kwd=baby cotton pillow&tags=A||||8752.144|Price|product|||MDC|rsf:gd-|-stype:attr=1|qr_nm:gd|res:RC4|com-cf:nl|ptrs:na|ktp:N0|mc:191315|mtp:S|qry_typ:P|lang:en|wc:3|cs:8885|v=4,Dealsup,https://www.indiamart.com/dealsup-north-delhi/?pos=53&kwd=baby cotton pillow&tags=A||||8752.144|Price|product|||MDC|rsf:gd-|-stype:attr=1|qr_nm:gd|res:RC4|com-cf:nl|ptrs:na|ktp:N0|mc:191315|mtp:S|qry_typ:P|lang:en|wc:3|cs:8885|v=4,False,,New Delhi,"Kamal Pur Majra, Khasra No. 7/14, Kamal Vihar, Village Burari North Delhi, New Delhi - 110084, Dist.Delhi, Delhi",7942532252,
Multicolor Rectangular baby bed / bedding set reversiable cotton,https://www.indiamart.com/proddetail/rectangular-baby-bed-2853711146748.html?pos=54&kwd=baby cotton pillow&tags=BA||||8559.269|Price|product|||MDC|rsf:gd-|-stype:attr=1|qr_nm:gd|res:RC4|com-cf:nl|ptrs:na|ktp:N0|mc:191315|mtp:S|qry_typ:P|lang:en|wc:3|cs:8885|v=4,Sheza Enterprises,https://www.indiamart.com/shezaenterprises/?pos=54&kwd=baby cotton pillow&tags=BA||||8559.269|Price|product|||MDC|rsf:gd-|-stype:attr=1|qr_nm:gd|res:RC4|com-cf:nl|ptrs:na|ktp:N0|mc:191315|mtp:S|qry_typ:P|lang:en|wc:3|cs:8885|v=4,False,,Indore,"Alif House, 5, Khajrana Main Road, Opposite HP Petrol Pump,, Indore - 452001, Dist.Indore, Madhya Pradesh",7948547068,
"Cottom Printed Cotton Baby Pillow, 0 To 12 Months",https://www.indiamart.com/proddetail/cotton-baby-pillow-4325197191.html?pos=55&kwd=baby cotton pillow&tags=BB||||8785.791|Price|product|||TS|rsf:gd-|-stype:attr=1|qr_nm:gd|res:RC4|com-cf:nl|ptrs:na|ktp:N0|mc:191315|mtp:S|qry_typ:P|lang:en|wc:3|cs:8885|v=4,Ilaki Intercraft (India),https://www.indiamart.com/ilakiintercraft/?pos=55&kwd=baby cotton pillow&tags=BB||||8785.791|Price|product|||TS|rsf:gd-|-stype:attr=1|qr_nm:gd|res:RC4|com-cf:nl|ptrs:na|ktp:N0|mc:191315|mtp:S|qry_typ:P|lang:en|wc:3|cs:8885|v=4,False,Tronica City,Ghaziabad,"D-69 Sector D-1 Tronica City, Tronica City, Ghaziabad - 201103, Dist.Ghaziabad, Uttar Pradesh",7942552124,
"Elegant Baby Cotton Pillow, 03 - 12 Months",https://www.indiamart.com/proddetail/baby-cotton-pillow-12371870855.html?pos=56&kwd=baby cotton pillow&tags=BA||||8752.144|Price|product|||TS|rsf:gd-|-stype:attr=1|qr_nm:gd|res:RC4|com-cf:nl|ptrs:na|ktp:N0|mc:191315|mtp:S|qry_typ:P|lang:en|wc:3|cs:8885|v=4,Chinmay Kids,https://www.indiamart.com/chinmaykids/?pos=56&kwd=baby cotton pillow&tags=BA||||8752.144|Price|product|||TS|rsf:gd-|-stype:attr=1|qr_nm:gd|res:RC4|com-cf:nl|ptrs:na|ktp:N0|mc:191315|mtp:S|qry_typ:P|lang:en|wc:3|cs:8885|v=4,False,Nayagaon,New Delhi,"C-99, Street No. 4, First Pusta, Nayagaon, New Delhi - 110053, Dist.Delhi, Delhi",8046054858,
Mix U Cotton Baby Pillow,https://www.indiamart.com/proddetail/cotton-baby-pillow-24422494212.html?pos=57&kwd=baby cotton pillow&tags=BA||||8752.144|Price|product|||TS|rsf:gd-|-stype:attr=1|qr_nm:gd|res:RC4|com-cf:nl|ptrs:na|ktp:N0|mc:191315|mtp:S|qry_typ:P|lang:en|wc:3|cs:8885|v=4,Man Singh & Sons Private Limited,https://www.babyproductsmanufacturer.com/?pos=57&kwd=baby cotton pillow&tags=BA||||8752.144|Price|product|||TS|rsf:gd-|-stype:attr=1|qr_nm:gd|res:RC4|com-cf:nl|ptrs:na|ktp:N0|mc:191315|mtp:S|qry_typ:P|lang:en|wc:3|cs:8885|v=4,False,Karol Bagh,New Delhi,"No. 13/24, 1st Floor, W. E. A., Karol Bagh, Karol Bagh, New Delhi - 110005, Dist.Delhi, Delhi",8048978579,
Baby Cotton Pillow,https://www.indiamart.com/proddetail/baby-cotton-pillow-2851318241133.html?pos=58&kwd=baby cotton pillow&tags=BA||||8752.144|Price|product|||TS|rsf:gd-|-stype:attr=1|qr_nm:gd|res:RC4|com-cf:nl|ptrs:na|ktp:N0|mc:191315|mtp:S|qry_typ:P|lang:en|wc:3|cs:8885|v=4,Bankey Bihari Enterprises,https://www.indiamart.com/bankey-bihari-enterprisesnewdelhi/?pos=58&kwd=baby cotton pillow&tags=BA||||8752.144|Price|product|||TS|rsf:gd-|-stype:attr=1|qr_nm:gd|res:RC4|com-cf:nl|ptrs:na|ktp:N0|mc:191315|mtp:S|qry_typ:P|lang:en|wc:3|cs:8885|v=4,False,Jahangirpuri,New Delhi,"Plot No 51 First Floor Street No 11 Harijan Colony Village Bhalsva, Jahangirpuri, New Delhi - 110033, Dist.Delhi, Delhi",7942825166,
Baby Cotton Pillow,https://www.indiamart.com/proddetail/baby-cotton-pillow-2850411575688.html?pos=59&kwd=baby cotton pillow&tags=BB||||8747.203|Price|product|||TS|rsf:gd-|-stype:attr=1|qr_nm:gd|res:RC4|com-cf:nl|ptrs:na|ktp:N0|mc:191315|mtp:S|qry_typ:P|lang:en|wc:3|cs:8885|v=4,JMD TEXTILES,https://www.jmdtextiles.co.in/?pos=59&kwd=baby cotton pillow&tags=BB||||8747.203|Price|product|||TS|rsf:gd-|-stype:attr=1|qr_nm:gd|res:RC4|com-cf:nl|ptrs:na|ktp:N0|mc:191315|mtp:S|qry_typ:P|lang:en|wc:3|cs:8885|v=4,False,Old Housing Board Colony,Panipat,"House no -181 Ram Nagar, Old Housing Board Colony, Panipat - 132103, Dist.Panipat, Haryana",8047549223,
Multicolor Rectangular Baby Cotton Printed Pillow,https://www.indiamart.com/proddetail/baby-cotton-printed-pillow-2849771476091.html?pos=60&kwd=baby cotton pillow&tags=BB||||8725.991|Price|product|||TS|rsf:gd-|-stype:attr=1|qr_nm:gd|res:RC4|com-cf:nl|ptrs:na|ktp:N0|mc:191315|mtp:S|qry_typ:P|lang:en|wc:3|cs:8885|v=4,Noor Furnishing,https://www.indiamart.com/noor-furnishing-rajpura/?pos=60&kwd=baby cotton pillow&tags=BB||||8725.991|Price|product|||TS|rsf:gd-|-stype:attr=1|qr_nm:gd|res:RC4|com-cf:nl|ptrs:na|ktp:N0|mc:191315|mtp:S|qry_typ:P|lang:en|wc:3|cs:8885|v=4,False,Neelpur,Rajpura,"H.No.2062, Gandhi Market, Near Anjal, Patiala, Neelpur, Rajpura - 140401, Dist.Patiala, Punjab",7942824508,
Safe n cute Baby cotton pillow head neck supporter,https://www.indiamart.com/proddetail/safe-n-cute-baby-cotton-pillow-head-neck-supporter-2852802630391.html?pos=61&kwd=baby cotton pillow&tags=BA||||8580.032|Price|product|||TS|rsf:gd-|-stype:attr=1|qr_nm:gd|res:RC4|com-cf:nl|ptrs:na|ktp:N0|mc:191315|mtp:S|qry_typ:P|lang:en|wc:3|cs:8885|v=4,Ritu Infants Care,https://www.indiamart.com/ritu-infants-care/?pos=61&kwd=baby cotton pillow&tags=BA||||8580.032|Price|product|||TS|rsf:gd-|-stype:attr=1|qr_nm:gd|res:RC4|com-cf:nl|ptrs:na|ktp:N0|mc:191315|mtp:S|qry_typ:P|lang:en|wc:3|cs:8885|v=4,False,Sunder Nagar,Amritsar,"232, Tilak Nagar, Shivala Colony, Sunder Nagar, Amritsar - 143001, Dist.Amritsar, Punjab",7942712512,
U Baby Plain Pillow,https://www.indiamart.com/proddetail/baby-plain-pillow-8863471373.html?pos=62&kwd=baby cotton pillow&tags=BA||||8211.142|Price|product|||TS|rsf:gd-|-stype:attr=1|qr_nm:gd|res:RC4|com-cf:nl|ptrs:na|ktp:N0|mc:191315|mtp:S|qry_typ:P|lang:en|wc:3|cs:8885|v=4,Welcome Enterprise,https://www.welcomeenterprise.in/?pos=62&kwd=baby cotton pillow&tags=BA||||8211.142|Price|product|||TS|rsf:gd-|-stype:attr=1|qr_nm:gd|res:RC4|com-cf:nl|ptrs:na|ktp:N0|mc:191315|mtp:S|qry_typ:P|lang:en|wc:3|cs:8885|v=4,False,Santacruz West,Mumbai,"1,Gulam Rasul Chawl No. 149,Khot Wadi, Besant Road,Santacruz West, Santacruz West, Mumbai - 400054, Dist.Mumbai, Maharashtra",8048601972,
Multicolor Rectangular Baby Learning Pillow,https://www.indiamart.com/proddetail/baby-learning-pillow-2854165359512.html?pos=63&kwd=baby cotton pillow&tags=BA||||8230.883|Price|product|||TS|rsf:gd-|-stype:attr=1|qr_nm:gd|res:RC4|com-cf:nl|ptrs:na|ktp:N0|mc:191315|mtp:S|qry_typ:P|lang:en|wc:3|cs:8885|v=4,Sixfire Pvt,https://www.sixfirepvt.com/?pos=63&kwd=baby cotton pillow&tags=BA||||8230.883|Price|product|||TS|rsf:gd-|-stype:attr=1|qr_nm:gd|res:RC4|com-cf:nl|ptrs:na|ktp:N0|mc:191315|mtp:S|qry_typ:P|lang:en|wc:3|cs:8885|v=4,False,Singanpor,Surat,"Plot No-32, Ground Floor, Laxmi Narayan Co. Op. Housing Society, Ved Road, Singanpor, Surat - 395004, Dist.Surat, Gujarat",7942957589,
U Baby Feeding Pillow,https://www.indiamart.com/proddetail/baby-feeding-pillow-27594980862.html?pos=64&kwd=baby cotton pillow&tags=BA||||8706.263|Price|product|||TS|rsf:gd-|-stype:attr=1|qr_nm:gd|res:RC4|com-cf:nl|ptrs:na|ktp:N0|mc:191315|mtp:S|qry_typ:P|lang:en|wc:3|cs:8885|v=4,Karur Export Company,https://www.karurexportcompany.in/?pos=64&kwd=baby cotton pillow&tags=BA||||8706.263|Price|product|||TS|rsf:gd-|-stype:attr=1|qr_nm:gd|res:RC4|com-cf:nl|ptrs:na|ktp:N0|mc:191315|mtp:S|qry_typ:P|lang:en|wc:3|cs:8885|v=4,True,Sri Poonkuyil Nagar,Karur,"41, 43, Kuluthu Palayam Road, Vengamedu, Sri Poonkuyil Nagar, Karur - 639006, Dist.Karur, Tamil Nadu",8048600914,
"Heart,Square Sublimation Baby Pillow",https://www.indiamart.com/proddetail/sublimation-baby-pillow-27338119573.html?pos=65&kwd=baby cotton pillow&tags=BA||||8038.093|Price|product|||TS|rsf:gd-|-stype:attr=1|qr_nm:gd|res:RC4|com-cf:nl|ptrs:na|ktp:N0|mc:191315|mtp:S|qry_typ:P|lang:en|wc:3|cs:8885|v=4,Unique Enterprise,https://www.sublimationmanufacturer.com/?pos=65&kwd=baby cotton pillow&tags=BA||||8038.093|Price|product|||TS|rsf:gd-|-stype:attr=1|qr_nm:gd|res:RC4|com-cf:nl|ptrs:na|ktp:N0|mc:191315|mtp:S|qry_typ:P|lang:en|wc:3|cs:8885|v=4,False,Maruti Industrial Area,Rajkot,"Sahkar Road Mehani Nagar 5, Maruti Industrial Area, Rajkot - 360004, Dist.Rajkot, Gujarat",8047633297,
Cotton Printable Baby Pillow,https://www.indiamart.com/proddetail/printable-baby-pillow-19677454691.html?pos=66&kwd=baby cotton pillow&tags=BA||||9110.092|Price|product|||TS|rsf:gd-|-stype:attr=1|qr_nm:gd|res:RC4|com-cf:nl|ptrs:na|ktp:N0|mc:191315|mtp:S|qry_typ:P|lang:en|wc:3|cs:8885|v=4,Pick- N- Play,https://www.namdharicreations.com/?pos=66&kwd=baby cotton pillow&tags=BA||||9110.092|Price|product|||TS|rsf:gd-|-stype:attr=1|qr_nm:gd|res:RC4|com-cf:nl|ptrs:na|ktp:N0|mc:191315|mtp:S|qry_typ:P|lang:en|wc:3|cs:8885|v=4,False,Alambagh,Lucknow,"131/1, Chander Nagar, Alambagh, Lucknow - 226005, Dist.Lucknow, Uttar Pradesh",8046041677,
Red Gel Cozy Baby Pillow,https://www.indiamart.com/proddetail/cozy-baby-pillow-20503012697.html?pos=67&kwd=baby cotton pillow&tags=BA||||8775.616|Price|product|||TS|rsf:gd-|-stype:attr=1|qr_nm:gd|res:RC4|com-cf:nl|ptrs:na|ktp:N0|mc:191315|mtp:S|qry_typ:P|lang:en|wc:3|cs:8885|v=4,Gel Craft Healthcare Private Limited,https://www.gelcrafthealthcare.com/?pos=67&kwd=baby cotton pillow&tags=BA||||8775.616|Price|product|||TS|rsf:gd-|-stype:attr=1|qr_nm:gd|res:RC4|com-cf:nl|ptrs:na|ktp:N0|mc:191315|mtp:S|qry_typ:P|lang:en|wc:3|cs:8885|v=4,False,Sahibabad Industrial Area,Sahibabad,"49/41, Site No - 4, Sahibabad Industrial Area, Sahibabad Industrial Area, Sahibabad - 201010, Dist.Ghaziabad, Uttar Pradesh",8047636660,
"Multicolor U Newborn Baby Pillow, Packaging Type: pp bag, 3-12 Months",https://www.indiamart.com/proddetail/newborn-baby-pillow-2852301776562.html?pos=68&kwd=baby cotton pillow&tags=BA||||8211.142|Price|product|||TS|rsf:gd-|-stype:attr=1|qr_nm:gd|res:RC4|com-cf:nl|ptrs:na|ktp:N0|mc:191315|mtp:S|qry_typ:P|lang:en|wc:3|cs:8885|v=4,P For Panda Baby Products Private Limited,https://www.p4pandababyproducts.com/?pos=68&kwd=baby cotton pillow&tags=BA||||8211.142|Price|product|||TS|rsf:gd-|-stype:attr=1|qr_nm:gd|res:RC4|com-cf:nl|ptrs:na|ktp:N0|mc:191315|mtp:S|qry_typ:P|lang:en|wc:3|cs:8885|v=4,False,Goregaon West,Mumbai,"904 A Wing,9 Th Floor,Triple S Heights,Jakeria Road, Goregaon West, Mumbai - 400064, Dist.Mumbai, Maharashtra",7942710871,
BABY SHAPING PILLOW,https://www.indiamart.com/proddetail/baby-shaping-pillow-2853052607555.html?pos=69&kwd=baby cotton pillow&tags=BA||||8230.883|Price|product|||TS|rsf:gd-|-stype:attr=1|qr_nm:gd|res:RC4|com-cf:nl|ptrs:na|ktp:N0|mc:191315|mtp:S|qry_typ:P|lang:en|wc:3|cs:8885|v=4,Basketo,https://www.basketo.net/?pos=69&kwd=baby cotton pillow&tags=BA||||8230.883|Price|product|||TS|rsf:gd-|-stype:attr=1|qr_nm:gd|res:RC4|com-cf:nl|ptrs:na|ktp:N0|mc:191315|mtp:S|qry_typ:P|lang:en|wc:3|cs:8885|v=4,False,Singanpor,Surat,"PLOT NO-32,Laxmi Narayan Society,DABHOLI CHAR RASTA, VED ROAD,Surat, Singanpor, Surat - 395004, Dist.Surat, Gujarat",7942716532,
Red Rectangular Learning Baby Pillow,https://www.indiamart.com/proddetail/learning-baby-pillow-2850113525797.html?pos=70&kwd=baby cotton pillow&tags=BA||||8230.883|Price|product|||TS|rsf:gd-|-stype:attr=1|qr_nm:gd|res:RC4|com-cf:nl|ptrs:na|ktp:N0|mc:191315|mtp:S|qry_typ:P|lang:en|wc:3|cs:8885|v=4,RJ Enterprise,https://www.indiamart.com/rj-enterprise-surat/?pos=70&kwd=baby cotton pillow&tags=BA||||8230.883|Price|product|||TS|rsf:gd-|-stype:attr=1|qr_nm:gd|res:RC4|com-cf:nl|ptrs:na|ktp:N0|mc:191315|mtp:S|qry_typ:P|lang:en|wc:3|cs:8885|v=4,False,Katargam,Surat,"134, Sahjanand Society, N/R Arogyakendra, Katargam, Katargam, Surat - 395004, Dist.Surat, Gujarat",7942555306,
Multicolor Bee Baby Head Protector Pillow,https://www.indiamart.com/proddetail/baby-head-protector-pillow-23978817833.html?pos=71&kwd=baby cotton pillow&tags=BA||||8230.883|Price|product|||TS|rsf:gd-|-stype:attr=1|qr_nm:gd|res:RC4|com-cf:nl|ptrs:na|ktp:N0|mc:191315|mtp:S|qry_typ:P|lang:en|wc:3|cs:8885|v=4,Quality Zone,https://www.qualityzoneindia.com/?pos=71&kwd=baby cotton pillow&tags=BA||||8230.883|Price|product|||TS|rsf:gd-|-stype:attr=1|qr_nm:gd|res:RC4|com-cf:nl|ptrs:na|ktp:N0|mc:191315|mtp:S|qry_typ:P|lang:en|wc:3|cs:8885|v=4,False,Dabholi,Surat,"Plot No-17, Sy No-93/94, 1st Floor, Om Satyam Nagar Society, Ved Road, Dabholi Char Rasta, Dabholi, Surat - 395004, Dist.Surat, Gujarat",8048971766,
Multicolor Baby Head Protection Pillow,https://www.indiamart.com/proddetail/baby-head-protection-pillow-23977125530.html?pos=72&kwd=baby cotton pillow&tags=BA||||8230.883|Price|product|||TS|rsf:gd-|-stype:attr=1|qr_nm:gd|res:RC4|com-cf:nl|ptrs:na|ktp:N0|mc:191315|mtp:S|qry_typ:P|lang:en|wc:3|cs:8885|v=4,Mahant,https://www.themahant.com/?pos=72&kwd=baby cotton pillow&tags=BA||||8230.883|Price|product|||TS|rsf:gd-|-stype:attr=1|qr_nm:gd|res:RC4|com-cf:nl|ptrs:na|ktp:N0|mc:191315|mtp:S|qry_typ:P|lang:en|wc:3|cs:8885|v=4,False,Katargam,Surat,"E-1103, Shukan Heights, Opp, Kantareshwar Hanuman Temple, Singanpore, Katargam, Surat - 395004, Dist.Surat, Gujarat",8048954505,
Mustard Seeds Apple Shape Baby Pillow,https://www.indiamart.com/proddetail/apple-shape-baby-pillow-9182116097.html?pos=73&kwd=baby cotton pillow&tags=BA||||8752.144|Price|product|||TS|rsf:gd-|-stype:attr=1|qr_nm:gd|res:RC4|com-cf:nl|ptrs:na|ktp:N0|mc:191315|mtp:S|qry_typ:P|lang:en|wc:3|cs:8885|v=4,Prem Chand Brothers,https://www.premchandbrothers.com/?pos=73&kwd=baby cotton pillow&tags=BA||||8752.144|Price|product|||TS|rsf:gd-|-stype:attr=1|qr_nm:gd|res:RC4|com-cf:nl|ptrs:na|ktp:N0|mc:191315|mtp:S|qry_typ:P|lang:en|wc:3|cs:8885|v=4,False,Delhi Sadar Bazar,New Delhi,"No. 5733, Gandhi Market, Bara Gate Sadar Bazar, Delhi Sadar Bazar, New Delhi - 110006, Dist.Delhi, Delhi",8047631281,
Organic Cotton Baby Pillow - Firstin Brand Manufacturer & Supplier All Over India,https://www.indiamart.com/proddetail/organic-cotton-baby-pillow-firstin-brand-manufacturer-supplier-all-over-india-20970995212.html?pos=74&kwd=baby cotton pillow&tags=BA||||8668.838|Price|product|||TS|rsf:gd-|-stype:attr=1|qr_nm:gd|res:RC4|com-cf:nl|ptrs:na|ktp:N0|mc:191315|mtp:S|qry_typ:P|lang:en|wc:3|cs:8885|v=4,Sri Kalyan Export Private Limited,https://www.firstinbabydress.com/?pos=74&kwd=baby cotton pillow&tags=BA||||8668.838|Price|product|||TS|rsf:gd-|-stype:attr=1|qr_nm:gd|res:RC4|com-cf:nl|ptrs:na|ktp:N0|mc:191315|mtp:S|qry_typ:P|lang:en|wc:3|cs:8885|v=4,False,Vilarasampatti,Erode,"192/4, Ishwarya Garden, Sengodampalayam, Villarasampatti Post, Erode,, Vilarasampatti, Erode - 638107, Dist.Erode, Tamil Nadu",8046030291,
Pink U-shape new born baby head shaping pillow,https://www.indiamart.com/proddetail/u-shape-new-born-baby-head-shaping-pillow-26357629173.html?pos=75&kwd=baby cotton pillow&tags=BA||||8223.226|Price|product|||TS|rsf:gd-|-stype:attr=1|qr_nm:gd|res:RC4|com-cf:nl|ptrs:na|ktp:N0|mc:191315|mtp:S|qry_typ:P|lang:en|wc:3|cs:8885|v=4,Jenico World,https://www.jenicoworld.com/?pos=75&kwd=baby cotton pillow&tags=BA||||8223.226|Price|product|||TS|rsf:gd-|-stype:attr=1|qr_nm:gd|res:RC4|com-cf:nl|ptrs:na|ktp:N0|mc:191315|mtp:S|qry_typ:P|lang:en|wc:3|cs:8885|v=4,False,Mira Road,Thane,"ndra Maternity And Surgical Nursing Home, GROUND FLOOR, D-8, FLAT NO - 002, Panchami Cooperative Housing Society Ltd, SECTOR - 7, Shanti Nagar,, Mira Road, Thane - 401107, Dist.Thane, Maharashtra",8043855594,
Buckwheat Hull Bolster Support Pillow Pain Relief Pillow With Removable/Washable Cotton Cover,https://www.indiamart.com/proddetail/buckwheat-hull-bolster-support-pillow-pain-relief-pillow-with-removable-washable-cotton-cover-21152658948.html?pos=76&kwd=baby cotton pillow&tags=A||||8778.123|Price|product|||TS|rsf:gd-|-stype:attr=1|qr_nm:gd|res:RC4|com-cf:nl|ptrs:na|ktp:N0|mc:191315|mtp:S|qry_typ:P|lang:en|wc:3|cs:8885|v=4,Oscar Overseas,https://www.oscar-india.com/?pos=76&kwd=baby cotton pillow&tags=A||||8778.123|Price|product|||TS|rsf:gd-|-stype:attr=1|qr_nm:gd|res:RC4|com-cf:nl|ptrs:na|ktp:N0|mc:191315|mtp:S|qry_typ:P|lang:en|wc:3|cs:8885|v=4,False,,Noida,"A-99 Sector 5, Noida - 201301, Dist.Gautam Budh Nagar, Uttar Pradesh",8046058290,
Standard Cotton Rai Pillow,https://www.indiamart.com/proddetail/baby-cotton-soft-pillow-11861825388.html?pos=77&kwd=baby cotton pillow&tags=BA||||8211.142|Price|product|||TS|rsf:gd-|-stype:attr=1|qr_nm:gd|res:RC4|com-cf:nl|ptrs:na|ktp:N0|mc:191315|mtp:S|qry_typ:P|lang:en|wc:3|cs:8885|v=4,Dhrupti Creation,https://www.indiamart.com/littlecare/?pos=77&kwd=baby cotton pillow&tags=BA||||8211.142|Price|product|||TS|rsf:gd-|-stype:attr=1|qr_nm:gd|res:RC4|com-cf:nl|ptrs:na|ktp:N0|mc:191315|mtp:S|qry_typ:P|lang:en|wc:3|cs:8885|v=4,False,Malad East,Mumbai,"Gala No. 3, Jignesh Diamond House, Near Vaishnavdevi Mandir, Subhash Lane, Malad East, Malad East, Mumbai - 400097, Dist.Mumbai, Maharashtra",8048970316,
Rectangular Baby Cotton Bed Pillow,https://www.indiamart.com/proddetail/baby-cotton-bed-pillow-21888980233.html?pos=78&kwd=baby cotton pillow&tags=BA||||8752.144|Price|product|||TS|rsf:gd-|-stype:attr=1|qr_nm:gd|res:RC4|com-cf:nl|ptrs:na|ktp:N0|mc:191315|mtp:S|qry_typ:P|lang:en|wc:3|cs:8885|v=4,Mom & Son,https://www.theindianchoice.com/?pos=78&kwd=baby cotton pillow&tags=BA||||8752.144|Price|product|||TS|rsf:gd-|-stype:attr=1|qr_nm:gd|res:RC4|com-cf:nl|ptrs:na|ktp:N0|mc:191315|mtp:S|qry_typ:P|lang:en|wc:3|cs:8885|v=4,False,Karawal Nagar,New Delhi,"B-57 Gali Number-1 Mukund Vihar, Near Pnb Bank, Karawal Nagar, New Delhi - 110094, Dist.Delhi, Delhi",7942565509,
Baby Headrest Memory foam,https://www.indiamart.com/proddetail/baby-headrest-memory-foam-2853179299591.html?pos=79&kwd=baby cotton pillow&tags=BA||||8741.812|Price|product|||TS|rsf:gd-|-stype:attr=1|qr_nm:gd|res:RC4|com-cf:nl|ptrs:na|ktp:N0|mc:191315|mtp:S|qry_typ:P|lang:en|wc:3|cs:8885|v=4,AMCO Industries,https://www.indiamart.com/amcoindustries-gurgaon/?pos=79&kwd=baby cotton pillow&tags=BA||||8741.812|Price|product|||TS|rsf:gd-|-stype:attr=1|qr_nm:gd|res:RC4|com-cf:nl|ptrs:na|ktp:N0|mc:191315|mtp:S|qry_typ:P|lang:en|wc:3|cs:8885|v=4,False,Saraswati Enclave,Gurugram,"40, Amar colony Pataudi Road, Saraswati Enclave, Gurugram - 122004, Dist.Gurgaon, Haryana",8048616238,
Capybara Babies Transparent Plush Pillow,https://www.indiamart.com/proddetail/capybara-babies-transparent-plush-pillow-2854512900330.html?pos=80&kwd=baby cotton pillow&tags=BA||||9097.53|Price|product|||TS|rsf:gd-|-stype:attr=1|qr_nm:gd|res:RC4|com-cf:nl|ptrs:na|ktp:N0|mc:191315|mtp:S|qry_typ:P|lang:en|wc:3|cs:8885|v=4,My Bear Hugs,https://www.indiamart.com/bear-hugs/?pos=80&kwd=baby cotton pillow&tags=BA||||9097.53|Price|product|||TS|rsf:gd-|-stype:attr=1|qr_nm:gd|res:RC4|com-cf:nl|ptrs:na|ktp:N0|mc:191315|mtp:S|qry_typ:P|lang:en|wc:3|cs:8885|v=4,False,,Fatehpur,"44/38,,CHAUDHARANA,Fatehpur Ist Floor 44/38 Chaudharana,212601,, Fatehpur - 212601, Uttar Pradesh",,
Mix Rectangular Soft Baby Pillows,https://www.indiamart.com/proddetail/soft-baby-pillows-26161335797.html?pos=81&kwd=baby cotton pillow&tags=BA||||8752.144|Price|product|||TS|rsf:gd-|-stype:attr=1|qr_nm:gd|res:RC4|com-cf:nl|ptrs:na|ktp:N0|mc:191315|mtp:S|qry_typ:P|lang:en|wc:3|cs:8885|v=4,Ira Impex,https://www.iraimpex.com/?pos=81&kwd=baby cotton pillow&tags=BA||||8752.144|Price|product|||TS|rsf:gd-|-stype:attr=1|qr_nm:gd|res:RC4|com-cf:nl|ptrs:na|ktp:N0|mc:191315|mtp:S|qry_typ:P|lang:en|wc:3|cs:8885|v=4,False,,New Delhi,"IIIrd Floor, Khasra No-1110 & 132 V P O, Rithala, New Delhi - 110085, Dist.Delhi, Delhi",8048961100,
"Baby Bed Pillows, For Home",https://www.indiamart.com/proddetail/baby-bed-pillows-2853262127188.html?pos=82&kwd=baby cotton pillow&tags=BA||||8752.144|Price|product|||TS|rsf:gd-|-stype:attr=1|qr_nm:gd|res:RC4|com-cf:nl|ptrs:na|ktp:N0|mc:191315|mtp:S|qry_typ:P|lang:en|wc:3|cs:8885|v=4,Pinakin Trading & Co.,https://www.indiamart.com/pinakintrading/?pos=82&kwd=baby cotton pillow&tags=BA||||8752.144|Price|product|||TS|rsf:gd-|-stype:attr=1|qr_nm:gd|res:RC4|com-cf:nl|ptrs:na|ktp:N0|mc:191315|mtp:S|qry_typ:P|lang:en|wc:3|cs:8885|v=4,False,Mandoli,New Delhi,"C - 3/1018 KH NO. 23/3 PLOT NO. 5,GALI NO. 33,HARSH VIHAR,MANDOLI Second Floor, C - 3/1018 Kh No. 23/3, Plot No. 5, Gali No. 33, Harsh Vihar, Mandoli, North East,110, Mandoli, New Delhi - 110093, Dist.Delhi, Delhi",7942967562,
White Printed Nursing Pillow,https://www.indiamart.com/proddetail/printed-nursing-pillow-2853704098373.html?pos=83&kwd=baby cotton pillow&tags=BA||||8706.263|Price|product|||TS|rsf:gd-|-stype:attr=1|qr_nm:gd|res:RC4|com-cf:nl|ptrs:na|ktp:N0|mc:191315|mtp:S|qry_typ:P|lang:en|wc:3|cs:8885|v=4,L S Textiles And Exports Private Limited,https://www.indiamart.com/lstextiles/?pos=83&kwd=baby cotton pillow&tags=BA||||8706.263|Price|product|||TS|rsf:gd-|-stype:attr=1|qr_nm:gd|res:RC4|com-cf:nl|ptrs:na|ktp:N0|mc:191315|mtp:S|qry_typ:P|lang:en|wc:3|cs:8885|v=4,True,Punnam,Karur,"S.F.No.141/13 South Punnam Village, Pugalur Taluk Palamapuram, Punnam, Karur - 639136, Dist.Karur, Tamil Nadu",8047851645,
"Multicolor Rectangular Printed Kids Pillow, Packaging Type: PVC Pack, 1-2 Years",https://www.indiamart.com/proddetail/printed-kids-pillow-2852182293512.html?pos=84&kwd=baby cotton pillow&tags=BA||||8747.203|Price|product|||TS|rsf:gd-|-stype:attr=1|qr_nm:gd|res:RC4|com-cf:nl|ptrs:na|ktp:N0|mc:191315|mtp:S|qry_typ:P|lang:en|wc:3|cs:8885|v=4,GNK Enterprises,https://www.gnkenterprises.in/?pos=84&kwd=baby cotton pillow&tags=BA||||8747.203|Price|product|||TS|rsf:gd-|-stype:attr=1|qr_nm:gd|res:RC4|com-cf:nl|ptrs:na|ktp:N0|mc:191315|mtp:S|qry_typ:P|lang:en|wc:3|cs:8885|v=4,False,Panipat N.S.M.,Panipat,"Shop No. 219, New Sabji Mandi, Panipat N.S.M., Panipat - 132103, Dist.Panipat, Haryana",8048610352,
MixColor Rectangular Kids Education Pillow,https://www.indiamart.com/proddetail/kids-education-pillow-2853110094662.html?pos=85&kwd=baby cotton pillow&tags=BA||||8228.275|Price|product|||TS|rsf:gd-|-stype:attr=1|qr_nm:gd|res:RC4|com-cf:nl|ptrs:na|ktp:N0|mc:191315|mtp:S|qry_typ:P|lang:en|wc:3|cs:8885|v=4,Mahi Supermart,https://www.mahisupermart.com/?pos=85&kwd=baby cotton pillow&tags=BA||||8228.275|Price|product|||TS|rsf:gd-|-stype:attr=1|qr_nm:gd|res:RC4|com-cf:nl|ptrs:na|ktp:N0|mc:191315|mtp:S|qry_typ:P|lang:en|wc:3|cs:8885|v=4,False,Saijpur Bogha,Ahmedabad,"22, Jay Bhagwan Society, Miraj Cinemas Narod Road, Krishna Nagar, Saijpur Bogha, Ahmedabad - 382345, Dist.Ahmedabad, Gujarat",7942837913,
Baby Cotton Pillow,https://www.indiamart.com/proddetail/baby-cotton-pillow-2851318241133.html?pos=86&kwd=baby cotton pillow&tags=BA||||8752.144|Price|product|||TS|rsf:gd-|-stype:attr=1|qr_nm:gd|res:RC4|com-cf:nl|ptrs:na|ktp:N0|mc:191315|mtp:S|qry_typ:P|lang:en|wc:3|cs:8885|v=4,Bankey Bihari Enterprises,https://www.indiamart.com/bankey-bihari-enterprisesnewdelhi/?pos=86&kwd=baby cotton pillow&tags=BA||||8752.144|Price|product|||TS|rsf:gd-|-stype:attr=1|qr_nm:gd|res:RC4|com-cf:nl|ptrs:na|ktp:N0|mc:191315|mtp:S|qry_typ:P|lang:en|wc:3|cs:8885|v=4,False,Jahangirpuri,New Delhi,"Plot No 51 First Floor Street No 11 Harijan Colony Village Bhalsva, Jahangirpuri, New Delhi - 110033, Dist.Delhi, Delhi",7942825166,
Sky Blue Plain Baby Velvet Neck Pillow,https://www.indiamart.com/proddetail/baby-velvet-neck-pillow-20604726333.html?pos=87&kwd=baby cotton pillow&tags=BA||||8752.144|Price|product|||TS|rsf:gd-|-stype:attr=1|qr_nm:gd|res:RC4|com-cf:nl|ptrs:na|ktp:N0|mc:191315|mtp:S|qry_typ:P|lang:en|wc:3|cs:8885|v=4,Dua Traders,https://www.indiamart.com/duatraders-delhi/?pos=87&kwd=baby cotton pillow&tags=BA||||8752.144|Price|product|||TS|rsf:gd-|-stype:attr=1|qr_nm:gd|res:RC4|com-cf:nl|ptrs:na|ktp:N0|mc:191315|mtp:S|qry_typ:P|lang:en|wc:3|cs:8885|v=4,False,Mandoli,New Delhi,"Plot No. 8, Kh No. 4/24, Mela Ram Vatika, E-block, JR Complex No. 4, Mandoli, Sevadham, Mandoli, New Delhi - 110093, Dist.Delhi, Delhi",8048971741,
Multicolor Rectangular Baby Cotton Pillow,https://www.indiamart.com/proddetail/baby-cotton-pillow-23343103612.html?pos=88&kwd=baby cotton pillow&tags=BA||||8747.203||product|||MDC|rsf:gd-|-stype:attr=1|qr_nm:gd|res:RC4|com-cf:nl|ptrs:na|ktp:N0|mc:191315|mtp:S|qry_typ:P|lang:en|wc:3|cs:8885|v=4,Nav Jyoti Creations,https://www.indiamart.com/nav-jyoti-creations/?pos=88&kwd=baby cotton pillow&tags=BA||||8747.203||product|||MDC|rsf:gd-|-stype:attr=1|qr_nm:gd|res:RC4|com-cf:nl|ptrs:na|ktp:N0|mc:191315|mtp:S|qry_typ:P|lang:en|wc:3|cs:8885|v=4,False,Panipat N.S.M.,Panipat,"Shop No. 2, Dev Puri Road, Panipat N.S.M., Panipat - 132103, Dist.Panipat, Haryana",8046049761,
Baby Nest Comfyt Baby Pillow Portable Bassinet Newborn Bed Baby Cocoon Travel Crib Sleeping,https://www.indiamart.com/proddetail/baby-nest-comfyt-baby-pillow-portable-bassinet-newborn-bed-baby-cocoon-travel-crib-sleeping-2852551595612.html?pos=89&kwd=baby cotton pillow&tags=BA||||8211.142|Price|product|||TS|rsf:gd-|-stype:attr=1|qr_nm:gd|res:RC4|com-cf:nl|ptrs:na|ktp:N0|mc:191315|mtp:S|qry_typ:P|lang:en|wc:3|cs:8885|v=4,Homenity,https://www.homenity.in/?pos=89&kwd=baby cotton pillow&tags=BA||||8211.142|Price|product|||TS|rsf:gd-|-stype:attr=1|qr_nm:gd|res:RC4|com-cf:nl|ptrs:na|ktp:N0|mc:191315|mtp:S|qry_typ:P|lang:en|wc:3|cs:8885|v=4,False,Masjid Bandar,Mumbai,"203, 2nd Floor, Plot-13a Mehajabeen Arcade, Chakala Cross Lane, Mumbai, Mumbai, Maharashtra, Masjid Bandar, Mumbai - 400003, Dist.Mumbai, Maharashtra",8047673711,
Safe n cute Baby cotton pillow head neck supporter,https://www.indiamart.com/proddetail/safe-n-cute-baby-cotton-pillow-head-neck-supporter-2852802630391.html?pos=90&kwd=baby cotton pillow&tags=BA||||8580.032|Price|product|||TS|rsf:gd-|-stype:attr=1|qr_nm:gd|res:RC4|com-cf:nl|ptrs:na|ktp:N0|mc:191315|mtp:S|qry_typ:P|lang:en|wc:3|cs:8885|v=4,Ritu Infants Care,https://www.indiamart.com/ritu-infants-care/?pos=90&kwd=baby cotton pillow&tags=BA||||8580.032|Price|product|||TS|rsf:gd-|-stype:attr=1|qr_nm:gd|res:RC4|com-cf:nl|ptrs:na|ktp:N0|mc:191315|mtp:S|qry_typ:P|lang:en|wc:3|cs:8885|v=4,False,Sunder Nagar,Amritsar,"232, Tilak Nagar, Shivala Colony, Sunder Nagar, Amritsar - 143001, Dist.Amritsar, Punjab",7942712512,
Round Green Baby Cotton Pillow,https://www.indiamart.com/proddetail/green-baby-cotton-pillow-2853309069162.html?pos=91&kwd=baby cotton pillow&tags=BA||||8752.144|Price|product|||MDC|rsf:gd-|-stype:attr=1|qr_nm:gd|res:RC4|com-cf:nl|ptrs:na|ktp:N0|mc:191315|mtp:S|qry_typ:P|lang:en|wc:3|cs:8885|v=4,A.D. Enterprises,https://www.indiamart.com/adenterprises-burari-newdelhi/?pos=91&kwd=baby cotton pillow&tags=BA||||8752.144|Price|product|||MDC|rsf:gd-|-stype:attr=1|qr_nm:gd|res:RC4|com-cf:nl|ptrs:na|ktp:N0|mc:191315|mtp:S|qry_typ:P|lang:en|wc:3|cs:8885|v=4,False,North,New Delhi,"K.No-12/1, Main 25 FT. Road, Near Shyam Sweets, Uttranchal Enclave ,Kamal Pur, Burari, North, New Delhi - 110084, Dist.Delhi, Delhi",8044565004,
Multicolor Rectangular Baby Printed Cotton Pillow,https://www.indiamart.com/proddetail/baby-printed-cotton-pillow-2854410238755.html?pos=92&kwd=baby cotton pillow&tags=BA||||9045.955|Price|product|||MDC|rsf:gd-|-stype:attr=1|qr_nm:gd|res:RC4|com-cf:nl|ptrs:na|ktp:N0|mc:191315|mtp:S|qry_typ:P|lang:en|wc:3|cs:8885|v=4,Kesharwani Caps & Gloves,https://www.indiamart.com/kesharwani-caps-gloves/?pos=92&kwd=baby cotton pillow&tags=BA||||9045.955|Price|product|||MDC|rsf:gd-|-stype:attr=1|qr_nm:gd|res:RC4|com-cf:nl|ptrs:na|ktp:N0|mc:191315|mtp:S|qry_typ:P|lang:en|wc:3|cs:8885|v=4,False,Meston Road,Kanpur,"33/80, Kesharwani Caps And Gloves, Topi Bazar, Chowk, Meston Road, Kanpur - 208001, Uttar Pradesh",7949336314,
Red U Cotton Solid Baby Pillow,https://www.indiamart.com/proddetail/cotton-solid-baby-pillow-2854655453797.html?pos=93&kwd=baby cotton pillow&tags=BA||||8769.508|Price|product|||MDC|rsf:gd-|-stype:attr=1|qr_nm:gd|res:RC4|com-cf:nl|ptrs:na|ktp:N0|mc:191315|mtp:S|qry_typ:P|lang:en|wc:3|cs:8885|v=4,9noc,https://www.indiamart.com/9noc/?pos=93&kwd=baby cotton pillow&tags=BA||||8769.508|Price|product|||MDC|rsf:gd-|-stype:attr=1|qr_nm:gd|res:RC4|com-cf:nl|ptrs:na|ktp:N0|mc:191315|mtp:S|qry_typ:P|lang:en|wc:3|cs:8885|v=4,False,,Faridabad,"H No. - 1011, H.B.C Colony, Sector 21C, Faridabad - 121001, Dist.Faridabad, Haryana",7949329664,
White And Black Round (Base) Printed Baby Cotton Pillow,https://www.indiamart.com/proddetail/printed-baby-cotton-pillow-2852712656988.html?pos=94&kwd=baby cotton pillow&tags=BA||||8601.347|Price|product|||MDC|rsf:gd-|-stype:attr=1|qr_nm:gd|res:RC4|com-cf:nl|ptrs:na|ktp:N0|mc:191315|mtp:S|qry_typ:P|lang:en|wc:3|cs:8885|v=4,Homecomfort Bedsheet And Decor,https://www.indiamart.com/homecomfort-bedsheet-decor/?pos=94&kwd=baby cotton pillow&tags=BA||||8601.347|Price|product|||MDC|rsf:gd-|-stype:attr=1|qr_nm:gd|res:RC4|com-cf:nl|ptrs:na|ktp:N0|mc:191315|mtp:S|qry_typ:P|lang:en|wc:3|cs:8885|v=4,False,Vaishali Nagar,Jaipur,"E-1/119, Near Global Heart Hospital, Vaishali Nagar, Vaishali Nagar, Jaipur - 302021, Dist.Jaipur, Rajasthan",8047525979,
Sky Blue Baby Cotton Mickey Pillow,https://www.indiamart.com/proddetail/baby-cotton-mickey-pillow-24326916597.html?pos=95&kwd=baby cotton pillow&tags=BA||||9140.514|Price|product|||MDC|rsf:gd-|-stype:attr=1|qr_nm:gd|res:RC4|com-cf:nl|ptrs:na|ktp:N0|mc:191315|mtp:S|qry_typ:P|lang:en|wc:3|cs:8885|v=4,Shivay Trading & Manufacturing,https://www.indiamart.com/shivaytradingmanufacturing/?pos=95&kwd=baby cotton pillow&tags=BA||||9140.514|Price|product|||MDC|rsf:gd-|-stype:attr=1|qr_nm:gd|res:RC4|com-cf:nl|ptrs:na|ktp:N0|mc:191315|mtp:S|qry_typ:P|lang:en|wc:3|cs:8885|v=4,False,Pandri,Raipur,"Plot No.94, First Floor, Indira Gandhi Vyavsayik Parisar, Cloth Market, Pandri, Pandri, Raipur - 492001, Chhattisgarh",8044012762,
Organic Cotton Baby Pillow - Firstin Brand Manufacturer & Supplier All Over India,https://www.indiamart.com/proddetail/organic-cotton-baby-pillow-firstin-brand-manufacturer-supplier-all-over-india-20970995212.html?pos=96&kwd=baby cotton pillow&tags=BA||||8668.838|Price|product|||TS|rsf:gd-|-stype:attr=1|qr_nm:gd|res:RC4|com-cf:nl|ptrs:na|ktp:N0|mc:191315|mtp:S|qry_typ:P|lang:en|wc:3|cs:8885|v=4,Sri Kalyan Export Private Limited,https://www.firstinbabydress.com/?pos=96&kwd=baby cotton pillow&tags=BA||||8668.838|Price|product|||TS|rsf:gd-|-stype:attr=1|qr_nm:gd|res:RC4|com-cf:nl|ptrs:na|ktp:N0|mc:191315|mtp:S|qry_typ:P|lang:en|wc:3|cs:8885|v=4,False,Vilarasampatti,Erode,"192/4, Ishwarya Garden, Sengodampalayam, Villarasampatti Post, Erode,, Vilarasampatti, Erode - 638107, Dist.Erode, Tamil Nadu",8046030291,
Blue And Red Rectangular Cotton Kids Pillow Set,https://www.indiamart.com/proddetail/cotton-kids-pillow-set-2853500801555.html?pos=97&kwd=baby cotton pillow&tags=BA||||8230.883|Price|product|||MDC|rsf:gd-|-stype:attr=1|qr_nm:gd|res:RC4|com-cf:nl|ptrs:na|ktp:N0|mc:191315|mtp:S|qry_typ:P|lang:en|wc:3|cs:8885|v=4,Khodiyar Kids,https://www.indiamart.com/khodiyar-kids/?pos=97&kwd=baby cotton pillow&tags=BA||||8230.883|Price|product|||MDC|rsf:gd-|-stype:attr=1|qr_nm:gd|res:RC4|com-cf:nl|ptrs:na|ktp:N0|mc:191315|mtp:S|qry_typ:P|lang:en|wc:3|cs:8885|v=4,False,Velanja,Surat,"Gf Shop ,Plot No 382 , Ram Vatika VI-2,Sayan Road, Near Rangoli Chowkdi, Velanja, Velanja, Surat - 394150, Dist.Surat, Gujarat",8047629218,
Rectangular Cotton Soft Blue Baby Pillow,https://www.indiamart.com/proddetail/cotton-soft-blue-baby-pillow-2853473294491.html?pos=98&kwd=baby cotton pillow&tags=BA||||8230.883|Price|product|||MDC|rsf:gd-|-stype:attr=1|qr_nm:gd|res:RC4|com-cf:nl|ptrs:na|ktp:N0|mc:191315|mtp:S|qry_typ:P|lang:en|wc:3|cs:8885|v=4,Riyo Enterprise,https://www.indiamart.com/riyo-enterprise-surat/?pos=98&kwd=baby cotton pillow&tags=BA||||8230.883|Price|product|||MDC|rsf:gd-|-stype:attr=1|qr_nm:gd|res:RC4|com-cf:nl|ptrs:na|ktp:N0|mc:191315|mtp:S|qry_typ:P|lang:en|wc:3|cs:8885|v=4,False,Punagam,Surat,"Ground Floor, A-228, Narayannagar Society, Punagam Road, Nalanda Vidhyalay, Punagam, Punagam, Surat - 395010, Dist.Surat, Gujarat",8045910533,
Sky Blue Baby Cotton Mickey Pillow,https://www.indiamart.com/proddetail/baby-cotton-mickey-pillow-24326916597.html?pos=99&kwd=baby cotton pillow&tags=BA||||9140.514|Price|product|||MDC|rsf:gd-|-stype:attr=1|qr_nm:gd|res:RC4|com-cf:nl|ptrs:na|ktp:N0|mc:191315|mtp:S|qry_typ:P|lang:en|wc:3|cs:8885|v=4,Shivay Trading & Manufacturing,https://www.indiamart.com/shivaytradingmanufacturing/?pos=99&kwd=baby cotton pillow&tags=BA||||9140.514|Price|product|||MDC|rsf:gd-|-stype:attr=1|qr_nm:gd|res:RC4|com-cf:nl|ptrs:na|ktp:N0|mc:191315|mtp:S|qry_typ:P|lang:en|wc:3|cs:8885|v=4,False,Pandri,Raipur,"Plot No.94, First Floor, Indira Gandhi Vyavsayik Parisar, Cloth Market, Pandri, Pandri, Raipur - 492001, Chhattisgarh",8044012762,
Organic Cotton Baby Pillow - Firstin Brand Manufacturer & Supplier All Over India,https://www.indiamart.com/proddetail/organic-cotton-baby-pillow-firstin-brand-manufacturer-supplier-all-over-india-20970995212.html?pos=100&kwd=baby cotton pillow&tags=BA||||8668.838|Price|product|||TS|rsf:gd-|-stype:attr=1|qr_nm:gd|res:RC4|com-cf:nl|ptrs:na|ktp:N0|mc:191315|mtp:S|qry_typ:P|lang:en|wc:3|cs:8885|v=4,Sri Kalyan Export Private Limited,https://www.firstinbabydress.com/?pos=100&kwd=baby cotton pillow&tags=BA||||8668.838|Price|product|||TS|rsf:gd-|-stype:attr=1|qr_nm:gd|res:RC4|com-cf:nl|ptrs:na|ktp:N0|mc:191315|mtp:S|qry_typ:P|lang:en|wc:3|cs:8885|v=4,False,Vilarasampatti,Erode,"192/4, Ishwarya Garden, Sengodampalayam, Villarasampatti Post, Erode,, Vilarasampatti, Erode - 638107, Dist.Erode, Tamil Nadu",8046030291,
Blue And Red Rectangular Cotton Kids Pillow Set,https://www.indiamart.com/proddetail/cotton-kids-pillow-set-2853500801555.html?pos=101&kwd=baby cotton pillow&tags=BA||||8230.883|Price|product|||MDC|rsf:gd-|-stype:attr=1|qr_nm:gd|res:RC4|com-cf:nl|ptrs:na|ktp:N0|mc:191315|mtp:S|qry_typ:P|lang:en|wc:3|cs:8885|v=4,Khodiyar Kids,https://www.indiamart.com/khodiyar-kids/?pos=101&kwd=baby cotton pillow&tags=BA||||8230.883|Price|product|||MDC|rsf:gd-|-stype:attr=1|qr_nm:gd|res:RC4|com-cf:nl|ptrs:na|ktp:N0|mc:191315|mtp:S|qry_typ:P|lang:en|wc:3|cs:8885|v=4,False,Velanja,Surat,"Gf Shop ,Plot No 382 , Ram Vatika VI-2,Sayan Road, Near Rangoli Chowkdi, Velanja, Velanja, Surat - 394150, Dist.Surat, Gujarat",8047629218,
Multicolor Rectangular Cartoon Printed Cotton Baby Pillow,https://www.indiamart.com/proddetail/cartoon-printed-cotton-baby-pillow-2852673504933.html?pos=102&kwd=baby cotton pillow&tags=BA||||8230.883|Price|product|||MDC|rsf:gd-|-stype:attr=1|qr_nm:gd|res:RC4|com-cf:nl|ptrs:na|ktp:N0|mc:191315|mtp:S|qry_typ:P|lang:en|wc:3|cs:8885|v=4,Shri Shri Fashion,https://www.indiamart.com/shri-shri-fashion/?pos=102&kwd=baby cotton pillow&tags=BA||||8230.883|Price|product|||MDC|rsf:gd-|-stype:attr=1|qr_nm:gd|res:RC4|com-cf:nl|ptrs:na|ktp:N0|mc:191315|mtp:S|qry_typ:P|lang:en|wc:3|cs:8885|v=4,False,Varachha,Surat,"A-231, Narayan Nagar, Near Nalanda School, Punagam,, Varachha, Surat - 395010, Dist.Surat, Gujarat",7942712235,
Rectangular Cotton Soft Blue Baby Pillow,https://www.indiamart.com/proddetail/cotton-soft-blue-baby-pillow-2853473294491.html?pos=103&kwd=baby cotton pillow&tags=BA||||8230.883|Price|product|||MDC|rsf:gd-|-stype:attr=1|qr_nm:gd|res:RC4|com-cf:nl|ptrs:na|ktp:N0|mc:191315|mtp:S|qry_typ:P|lang:en|wc:3|cs:8885|v=4,Riyo Enterprise,https://www.indiamart.com/riyo-enterprise-surat/?pos=103&kwd=baby cotton pillow&tags=BA||||8230.883|Price|product|||MDC|rsf:gd-|-stype:attr=1|qr_nm:gd|res:RC4|com-cf:nl|ptrs:na|ktp:N0|mc:191315|mtp:S|qry_typ:P|lang:en|wc:3|cs:8885|v=4,False,Punagam,Surat,"Ground Floor, A-228, Narayannagar Society, Punagam Road, Nalanda Vidhyalay, Punagam, Punagam, Surat - 395010, Dist.Surat, Gujarat",8045910533,
Pink U Baby Pillow,https://www.indiamart.com/proddetail/baby-pillow-16143681012.html?pos=104&kwd=baby cotton pillow&tags=BA||||8545.6045|Price|product|||MDC|rsf:gd-|-stype:attr=1|qr_nm:gd|res:RC4|com-cf:nl|ptrs:na|ktp:N0|mc:191315|mtp:S|qry_typ:P|lang:en|wc:3|cs:8885|v=4,Shraddha Saburi,https://www.indiamart.com/shraddhasaburi/?pos=104&kwd=baby cotton pillow&tags=BA||||8545.6045|Price|product|||MDC|rsf:gd-|-stype:attr=1|qr_nm:gd|res:RC4|com-cf:nl|ptrs:na|ktp:N0|mc:191315|mtp:S|qry_typ:P|lang:en|wc:3|cs:8885|v=4,False,Cantonment Area,Firozpur,"263, Suji Bazar, M/s Shraddha Saburi, Ferozepur Cantt, Cantonment Area, Firozpur - 152001, Dist.Firozpur, Punjab",8048979628,
Baby Learning Pillow,https://www.indiamart.com/proddetail/baby-learning-pillow-2854678169888.html?pos=105&kwd=baby cotton pillow&tags=BA||||8230.883|Price|product|||MDC|rsf:gd-|-stype:attr=1|qr_nm:gd|res:RC4|com-cf:nl|ptrs:na|ktp:N0|mc:191315|mtp:S|qry_typ:P|lang:en|wc:3|cs:8885|v=4,Grow More Enterprise,https://www.indiamart.com/growmoreenterprise-surat/?pos=105&kwd=baby cotton pillow&tags=BA||||8230.883|Price|product|||MDC|rsf:gd-|-stype:attr=1|qr_nm:gd|res:RC4|com-cf:nl|ptrs:na|ktp:N0|mc:191315|mtp:S|qry_typ:P|lang:en|wc:3|cs:8885|v=4,False,Punagam,Surat,"C 38, Matrushakti Society, Punagam, Punagam, Surat - 395010, Dist.Surat, Gujarat",7942722776,
Learning Baby Pillow,https://www.indiamart.com/proddetail/learning-baby-pillow-2853397971662.html?pos=106&kwd=baby cotton pillow&tags=BA||||8230.883|Price|product|||MDC|rsf:gd-|-stype:attr=1|qr_nm:gd|res:RC4|com-cf:nl|ptrs:na|ktp:N0|mc:191315|mtp:S|qry_typ:P|lang:en|wc:3|cs:8885|v=4,Uma Enterprise,https://www.indiamart.com/umaenterprisesurat/?pos=106&kwd=baby cotton pillow&tags=BA||||8230.883|Price|product|||MDC|rsf:gd-|-stype:attr=1|qr_nm:gd|res:RC4|com-cf:nl|ptrs:na|ktp:N0|mc:191315|mtp:S|qry_typ:P|lang:en|wc:3|cs:8885|v=4,False,Majura Gate,Surat,"72, Hari Ichchha Industrial Co Op Society, A K Road, Majura Gate, Surat - 395008, Dist.Surat, Gujarat",7942713138,
"Cotton Printed Baby Square Pillow, Size: 10""x10""",https://www.indiamart.com/proddetail/baby-square-pillow-9466954712.html?pos=107&kwd=baby cotton pillow&tags=BA||||8211.142|Price|product|||MDC|rsf:gd-|-stype:attr=1|qr_nm:gd|res:RC4|com-cf:nl|ptrs:na|ktp:N0|mc:191315|mtp:S|qry_typ:P|lang:en|wc:3|cs:8885|v=4,Milee Fashion,https://www.indiamart.com/mileefashion/?pos=107&kwd=baby cotton pillow&tags=BA||||8211.142|Price|product|||MDC|rsf:gd-|-stype:attr=1|qr_nm:gd|res:RC4|com-cf:nl|ptrs:na|ktp:N0|mc:191315|mtp:S|qry_typ:P|lang:en|wc:3|cs:8885|v=4,False,Chedda Nagar,Mumbai,"Veer Sambhaji Nagar, Near Hanuman Mandir PL Lokhande Marg, Chembur, Chedda Nagar, Mumbai - 400089, Dist.Mumbai, Maharashtra",8048966118,
Multicolor Plain Round Shape Baby Pillow,https://www.indiamart.com/proddetail/round-shape-baby-pillow-27096663791.html?pos=108&kwd=baby cotton pillow&tags=BA||||8752.144|Price|product|||MDC|rsf:gd-|-stype:attr=1|qr_nm:gd|res:RC4|com-cf:nl|ptrs:na|ktp:N0|mc:191315|mtp:S|qry_typ:P|lang:en|wc:3|cs:8885|v=4,L T Textiles,https://www.indiamart.com/lttextiles/?pos=108&kwd=baby cotton pillow&tags=BA||||8752.144|Price|product|||MDC|rsf:gd-|-stype:attr=1|qr_nm:gd|res:RC4|com-cf:nl|ptrs:na|ktp:N0|mc:191315|mtp:S|qry_typ:P|lang:en|wc:3|cs:8885|v=4,False,Pahari Dhiraj,New Delhi,"5189-90 Main Road, Sadar Bazar, Pahari Dhiraj, New Delhi - 110006, Dist.Delhi, Delhi",7942958455,
Off White Baby Head Support Pillow,https://www.indiamart.com/proddetail/baby-head-support-pillow-2853905430333.html?pos=109&kwd=baby cotton pillow&tags=BA||||8226.563|Price|product|||MDC|rsf:gd-|-stype:attr=1|qr_nm:gd|res:RC4|com-cf:nl|ptrs:na|ktp:N0|mc:191315|mtp:S|qry_typ:P|lang:en|wc:3|cs:8885|v=4,Vanbon Clothing Co.,https://www.indiamart.com/vanbon-clothing-co/?pos=109&kwd=baby cotton pillow&tags=BA||||8226.563|Price|product|||MDC|rsf:gd-|-stype:attr=1|qr_nm:gd|res:RC4|com-cf:nl|ptrs:na|ktp:N0|mc:191315|mtp:S|qry_typ:P|lang:en|wc:3|cs:8885|v=4,False,Vashi (Thane),Navi Mumbai,"1st Floor Ofice No.16, Plot No.73, D Wing Vallabh Bhai Patel Marg, Vashi (Thane), Navi Mumbai - 400703, Dist.Thane, Maharashtra",8044012603,
"Grey Cotton Baby Elephant Night Pillow, For Home",https://www.indiamart.com/proddetail/baby-elephant-night-pillow-2854459433891.html?pos=110&kwd=baby cotton pillow&tags=BA||||8752.144|Price|product|||MDC|rsf:gd-|-stype:attr=1|qr_nm:gd|res:RC4|com-cf:nl|ptrs:na|ktp:N0|mc:191315|mtp:S|qry_typ:P|lang:en|wc:3|cs:8885|v=4,R K Enterprises,https://www.indiamart.com/r-kenterprisesnorthnewdelhi/?pos=110&kwd=baby cotton pillow&tags=BA||||8752.144|Price|product|||MDC|rsf:gd-|-stype:attr=1|qr_nm:gd|res:RC4|com-cf:nl|ptrs:na|ktp:N0|mc:191315|mtp:S|qry_typ:P|lang:en|wc:3|cs:8885|v=4,False,North Delhi,New Delhi,"House No-235, Yadav Nagar, Block-E, Samaypur, North Delhi, New Delhi - 110042, Dist.Delhi, Delhi",7949337344,
"Blue,Red And Beige U Baby Soft Pillow Set, 3-12 Months",https://www.indiamart.com/proddetail/baby-soft-pillow-set-2851226389155.html?pos=111&kwd=baby cotton pillow&tags=BA||||8752.144||product|||MDC|rsf:gd-|-stype:attr=1|qr_nm:gd|res:RC4|com-cf:nl|ptrs:na|ktp:N0|mc:191315|mtp:S|qry_typ:P|lang:en|wc:3|cs:8885|v=4,Prince And Princess,https://www.indiamart.com/prince-princess-delhi/?pos=111&kwd=baby cotton pillow&tags=BA||||8752.144||product|||MDC|rsf:gd-|-stype:attr=1|qr_nm:gd|res:RC4|com-cf:nl|ptrs:na|ktp:N0|mc:191315|mtp:S|qry_typ:P|lang:en|wc:3|cs:8885|v=4,False,Gulabi Bagh,New Delhi,"Ground Floor, Garage No - 74, Gulabi Bagh Road,, Gulabi Bagh, New Delhi - 110007, Dist.Delhi, Delhi",8047629125,
Mix U Cotton Baby Pillow,https://www.indiamart.com/proddetail/cotton-baby-pillow-24422494212.html?pos=112&kwd=baby cotton pillow&tags=BA||||8752.144|Price|product|||TS|rsf:gd-|-stype:attr=1|qr_nm:gd|res:RC4|com-cf:nl|ptrs:na|ktp:N0|mc:191315|mtp:S|qry_typ:P|lang:en|wc:3|cs:8885|v=4,Man Singh & Sons Private Limited,https://www.babyproductsmanufacturer.com/?pos=112&kwd=baby cotton pillow&tags=BA||||8752.144|Price|product|||TS|rsf:gd-|-stype:attr=1|qr_nm:gd|res:RC4|com-cf:nl|ptrs:na|ktp:N0|mc:191315|mtp:S|qry_typ:P|lang:en|wc:3|cs:8885|v=4,False,Karol Bagh,New Delhi,"No. 13/24, 1st Floor, W. E. A., Karol Bagh, Karol Bagh, New Delhi - 110005, Dist.Delhi, Delhi",8048978579,
Adjustable Size New-Born Baby Sleep Positioning Pillow Ultra Soft Body Support Anti-Roll Breathable,https://www.indiamart.com/proddetail/adjustable-size-new-born-baby-sleep-positioning-pillow-ultra-soft-body-support-anti-roll-breathable-2854903919555.html?pos=113&kwd=baby cotton pillow&tags=BB||||8230.883|Price|product|||MDC|rsf:gd-|-stype:attr=1|qr_nm:gd|res:RC4|com-cf:nl|ptrs:na|ktp:N0|mc:191315|mtp:S|qry_typ:P|lang:en|wc:3|cs:8885|v=4,P G Impex,https://www.indiamart.com/pg-impex-surat/?pos=113&kwd=baby cotton pillow&tags=BB||||8230.883|Price|product|||MDC|rsf:gd-|-stype:attr=1|qr_nm:gd|res:RC4|com-cf:nl|ptrs:na|ktp:N0|mc:191315|mtp:S|qry_typ:P|lang:en|wc:3|cs:8885|v=4,False,,Surat,"3rd Floor, 304, Sarjan Residency Wing-A, Sunganpor Road, Katargam, Surat - 395004, Dist.Surat, Gujarat",7949322822,
Baby Cotton Soft Pillow,https://www.indiamart.com/proddetail/baby-cotton-soft-pillow-23771459388.html?pos=114&kwd=baby cotton pillow&tags=BA||||8223.226|Price|product|||MDC|rsf:gd-|-stype:attr=1|qr_nm:gd|res:RC4|com-cf:nl|ptrs:na|ktp:N0|mc:191315|mtp:S|qry_typ:P|lang:en|wc:3|cs:8885|v=4,Wecare Solutions,https://www.indiamart.com/wecare-solutions/?pos=114&kwd=baby cotton pillow&tags=BA||||8223.226|Price|product|||MDC|rsf:gd-|-stype:attr=1|qr_nm:gd|res:RC4|com-cf:nl|ptrs:na|ktp:N0|mc:191315|mtp:S|qry_typ:P|lang:en|wc:3|cs:8885|v=4,False,Valiv,Thane,"Gala No. F-19-20, 1st Floor, Rajprabha Anand Industrial Estate Naikpada, Waliv, Valiv, Thane - 401208, Dist.Thane, Maharashtra",8047631791,
Rectangular Motu Patlu Kids Pillow,https://www.indiamart.com/proddetail/motu-patlu-kids-pillow-2854486608762.html?pos=115&kwd=baby cotton pillow&tags=BA||||9110.092|Price|product|||MDC|rsf:gd-|-stype:attr=1|qr_nm:gd|res:RC4|com-cf:nl|ptrs:na|ktp:N0|mc:191315|mtp:S|qry_typ:P|lang:en|wc:3|cs:8885|v=4,The Parda House,https://www.indiamart.com/thepardahouse/?pos=115&kwd=baby cotton pillow&tags=BA||||9110.092|Price|product|||MDC|rsf:gd-|-stype:attr=1|qr_nm:gd|res:RC4|com-cf:nl|ptrs:na|ktp:N0|mc:191315|mtp:S|qry_typ:P|lang:en|wc:3|cs:8885|v=4,False,,Lucknow,"Ground, 529D/0067-CC, Deep House, Ring Road Bypass, Jagrani Hospital, Kalyanpur, Lucknow - 226022, Dist.Lucknow, Uttar Pradesh",7949339384,
Multicolor Rectangular Cartoon Printed Cotton Baby Pillow,https://www.indiamart.com/proddetail/cartoon-printed-cotton-baby-pillow-2852673504933.html?pos=116&kwd=baby cotton pillow&tags=BA||||8230.883|Price|product|||MDC|rsf:gd-|-stype:attr=1|qr_nm:gd|res:RC4|com-cf:nl|ptrs:na|ktp:N0|mc:191315|mtp:S|qry_typ:P|lang:en|wc:3|cs:8885|v=4,Shri Shri Fashion,https://www.indiamart.com/shri-shri-fashion/?pos=116&kwd=baby cotton pillow&tags=BA||||8230.883|Price|product|||MDC|rsf:gd-|-stype:attr=1|qr_nm:gd|res:RC4|com-cf:nl|ptrs:na|ktp:N0|mc:191315|mtp:S|qry_typ:P|lang:en|wc:3|cs:8885|v=4,False,Varachha,Surat,"A-231, Narayan Nagar, Near Nalanda School, Punagam,, Varachha, Surat - 395010, Dist.Surat, Gujarat",7942712235,
"Blue,Red And Beige U Baby Soft Pillow Set, 3-12 Months",https://www.indiamart.com/proddetail/baby-soft-pillow-set-2851226389155.html?pos=117&kwd=baby cotton pillow&tags=BA||||8752.144||product|||MDC|rsf:gd-|-stype:attr=1|qr_nm:gd|res:RC4|com-cf:nl|ptrs:na|ktp:N0|mc:191315|mtp:S|qry_typ:P|lang:en|wc:3|cs:8885|v=4,Prince And Princess,https://www.indiamart.com/prince-princess-delhi/?pos=117&kwd=baby cotton pillow&tags=BA||||8752.144||product|||MDC|rsf:gd-|-stype:attr=1|qr_nm:gd|res:RC4|com-cf:nl|ptrs:na|ktp:N0|mc:191315|mtp:S|qry_typ:P|lang:en|wc:3|cs:8885|v=4,False,Gulabi Bagh,New Delhi,"Ground Floor, Garage No - 74, Gulabi Bagh Road,, Gulabi Bagh, New Delhi - 110007, Dist.Delhi, Delhi",8047629125,
Blue And Red Rectangular Cotton Kids Pillow Set,https://www.indiamart.com/proddetail/cotton-kids-pillow-set-2853500801555.html?pos=118&kwd=baby cotton pillow&tags=BA||||8230.883|Price|product|||MDC|rsf:gd-|-stype:attr=1|qr_nm:gd|res:RC4|com-cf:nl|ptrs:na|ktp:N0|mc:191315|mtp:S|qry_typ:P|lang:en|wc:3|cs:8885|v=4,Khodiyar Kids,https://www.indiamart.com/khodiyar-kids/?pos=118&kwd=baby cotton pillow&tags=BA||||8230.883|Price|product|||MDC|rsf:gd-|-stype:attr=1|qr_nm:gd|res:RC4|com-cf:nl|ptrs:na|ktp:N0|mc:191315|mtp:S|qry_typ:P|lang:en|wc:3|cs:8885|v=4,False,Velanja,Surat,"Gf Shop ,Plot No 382 , Ram Vatika VI-2,Sayan Road, Near Rangoli Chowkdi, Velanja, Velanja, Surat - 394150, Dist.Surat, Gujarat",8047629218,
"Multicolor Plush Giraffe Shaped Baby Bed Pillow 35 cm, Newly Born",https://www.indiamart.com/proddetail/giraffe-shaped-baby-bed-pillow-35-cm-2852829141488.html?pos=119&kwd=baby cotton pillow&tags=BA||||8788.382|Price|product|||TS|rsf:gd-|-stype:attr=1|qr_nm:gd|res:RC4|com-cf:nl|ptrs:na|ktp:N0|mc:191315|mtp:S|qry_typ:P|lang:en|wc:3|cs:8885|v=4,Puran Enterprises,https://www.indiamart.com/puranenterprises-uttarpradesh/?pos=119&kwd=baby cotton pillow&tags=BA||||8788.382|Price|product|||TS|rsf:gd-|-stype:attr=1|qr_nm:gd|res:RC4|com-cf:nl|ptrs:na|ktp:N0|mc:191315|mtp:S|qry_typ:P|lang:en|wc:3|cs:8885|v=4,False,Bisrakh Jalalpur Village,Greater Noida,"KHS-508, Haldauni, Toy City, Ecotech 3,, Bisrakh Jalalpur Village, Greater Noida - 201306, Dist.Gautam Budh Nagar, Uttar Pradesh",7942719521,
Multicolor Round Baby Head Protection Anti Fall Head Safety Pillow,https://www.indiamart.com/proddetail/baby-head-protection-anti-fall-head-safety-pillow-2851452450048.html?pos=120&kwd=baby cotton pillow&tags=BA||||8752.144|Price|product|||TS|rsf:gd-|-stype:attr=1|qr_nm:gd|res:RC4|com-cf:nl|ptrs:na|ktp:N0|mc:191315|mtp:S|qry_typ:P|lang:en|wc:3|cs:8885|v=4,House Of Luxury,https://www.theholworld.net/?pos=120&kwd=baby cotton pillow&tags=BA||||8752.144|Price|product|||TS|rsf:gd-|-stype:attr=1|qr_nm:gd|res:RC4|com-cf:nl|ptrs:na|ktp:N0|mc:191315|mtp:S|qry_typ:P|lang:en|wc:3|cs:8885|v=4,False,Budh Vihar,New Delhi,"Plot No - 5, Kh. No. - 89/10/2, 1, Block No. - I-1, Budh Vihar Phase 1, Delhi, North West Delhi, Del, Budh Vihar, New Delhi - 110086, Dist.Delhi, Delhi",7942819716,
Baby Pillow,https://www.indiamart.com/proddetail/baby-pillow-2854470838597.html?pos=121&kwd=baby cotton pillow&tags=BA||||8747.203|Price|product|||TS|rsf:gd-|-stype:attr=1|qr_nm:gd|res:RC4|com-cf:nl|ptrs:na|ktp:N0|mc:191315|mtp:S|qry_typ:P|lang:en|wc:3|cs:8885|v=4,Cloud Tree,https://www.cloudtree.co.in/?pos=121&kwd=baby cotton pillow&tags=BA||||8747.203|Price|product|||TS|rsf:gd-|-stype:attr=1|qr_nm:gd|res:RC4|com-cf:nl|ptrs:na|ktp:N0|mc:191315|mtp:S|qry_typ:P|lang:en|wc:3|cs:8885|v=4,False,Kabri,Panipat,"Kuldeep Nagar, Kabri Bye Pass Road, Near Rishikul School, Kabri, Panipat - 132103, Dist.Panipat, Haryana",8048958134,
Blue U Newborn Baby Pillow,https://www.indiamart.com/proddetail/newborn-baby-pillow-2854237599991.html?pos=122&kwd=baby cotton pillow&tags=BA||||8601.347|Price|product|||TS|rsf:gd-|-stype:attr=1|qr_nm:gd|res:RC4|com-cf:nl|ptrs:na|ktp:N0|mc:191315|mtp:S|qry_typ:P|lang:en|wc:3|cs:8885|v=4,Jagraj Polymers,https://www.jagrajpolymers.com/?pos=122&kwd=baby cotton pillow&tags=BA||||8601.347|Price|product|||TS|rsf:gd-|-stype:attr=1|qr_nm:gd|res:RC4|com-cf:nl|ptrs:na|ktp:N0|mc:191315|mtp:S|qry_typ:P|lang:en|wc:3|cs:8885|v=4,False,Vishwakarma Industrial Area,Jaipur,"RIICO Housing Colony, Plot No.107, Badarna VKI Area, Vishwakarma Industrial Area, Jaipur - 302013, Dist.Jaipur, Rajasthan",7942674725,
Baby Rai Mustard Seed Pillow,https://www.indiamart.com/proddetail/baby-rai-mustard-seed-pillow-2854264380473.html?pos=123&kwd=baby cotton pillow&tags=BA||||8668.838|Price|product|||TS|rsf:gd-|-stype:attr=1|qr_nm:gd|res:RC4|com-cf:nl|ptrs:na|ktp:N0|mc:191315|mtp:S|qry_typ:P|lang:en|wc:3|cs:8885|v=4,New Asia Textiles,https://www.indiamart.com/new-asia-textiles/?pos=123&kwd=baby cotton pillow&tags=BA||||8668.838|Price|product|||TS|rsf:gd-|-stype:attr=1|qr_nm:gd|res:RC4|com-cf:nl|ptrs:na|ktp:N0|mc:191315|mtp:S|qry_typ:P|lang:en|wc:3|cs:8885|v=4,False,,Erode,"42, Mosikeeranar Street-4 indra nagar, Erode - 638003, Dist.Erode, Tamil Nadu",8046070169,
"Baby Head Protector, Box",https://www.indiamart.com/proddetail/baby-head-protector-24431546112.html?pos=124&kwd=baby cotton pillow&tags=BB||||8230.883|Price|product|||TS|rsf:gd-|-stype:attr=1|qr_nm:gd|res:RC4|com-cf:nl|ptrs:na|ktp:N0|mc:191315|mtp:S|qry_typ:P|lang:en|wc:3|cs:8885|v=4,Angel Enterprise,https://www.angelenterprise.net/?pos=124&kwd=baby cotton pillow&tags=BB||||8230.883|Price|product|||TS|rsf:gd-|-stype:attr=1|qr_nm:gd|res:RC4|com-cf:nl|ptrs:na|ktp:N0|mc:191315|mtp:S|qry_typ:P|lang:en|wc:3|cs:8885|v=4,False,Singanpor,Surat,"Basement Plot No-c/45 Singanpore Road Radheshyam Society, Singanpor, Surat - 395004, Dist.Surat, Gujarat",8045910723,
Baby Learning Pillow,https://www.indiamart.com/proddetail/baby-learning-pillow-2854678169888.html?pos=125&kwd=baby cotton pillow&tags=BA||||8230.883|Price|product|||MDC|rsf:gd-|-stype:attr=1|qr_nm:gd|res:RC4|com-cf:nl|ptrs:na|ktp:N0|mc:191315|mtp:S|qry_typ:P|lang:en|wc:3|cs:8885|v=4,Grow More Enterprise,https://www.indiamart.com/growmoreenterprise-surat/?pos=125&kwd=baby cotton pillow&tags=BA||||8230.883|Price|product|||MDC|rsf:gd-|-stype:attr=1|qr_nm:gd|res:RC4|com-cf:nl|ptrs:na|ktp:N0|mc:191315|mtp:S|qry_typ:P|lang:en|wc:3|cs:8885|v=4,False,Punagam,Surat,"C 38, Matrushakti Society, Punagam, Punagam, Surat - 395010, Dist.Surat, Gujarat",7942722776,
Pink U Organic Cotton Baby Pillow,https://www.indiamart.com/proddetail/organic-cotton-baby-pillow-27153981433.html?pos=126&kwd=baby cotton pillow&tags=BB||||8723.301|Price|product|||MDC|rsf:gd-|-stype:attr=1|qr_nm:gd|res:RC4|com-cf:nl|ptrs:na|ktp:N0|mc:191315|mtp:S|qry_typ:P|lang:en|wc:3|cs:8885|v=4,Kaevion,https://www.indiamart.com/kaevion-bhopal/?pos=126&kwd=baby cotton pillow&tags=BB||||8723.301|Price|product|||MDC|rsf:gd-|-stype:attr=1|qr_nm:gd|res:RC4|com-cf:nl|ptrs:na|ktp:N0|mc:191315|mtp:S|qry_typ:P|lang:en|wc:3|cs:8885|v=4,False,Nivesh Colony,Bhopal,"New Mla Colony H No 41 Behind Unique College Jawahar Chowk, Nivesh Colony, Bhopal - 462003, Dist.Bhopal, Madhya Pradesh",7942834010,
White (Base Color) Rectangular Newborn Baby Pillow,https://www.indiamart.com/proddetail/newborn-baby-pillow-2853402711248.html?pos=127&kwd=baby cotton pillow&tags=BA||||8230.883|Price|product|||MDC|rsf:gd-|-stype:attr=1|qr_nm:gd|res:RC4|com-cf:nl|ptrs:na|ktp:N0|mc:191315|mtp:S|qry_typ:P|lang:en|wc:3|cs:8885|v=4,P & C Enterprise,https://www.indiamart.com/pc-enterprisesurat/?pos=127&kwd=baby cotton pillow&tags=BA||||8230.883|Price|product|||MDC|rsf:gd-|-stype:attr=1|qr_nm:gd|res:RC4|com-cf:nl|ptrs:na|ktp:N0|mc:191315|mtp:S|qry_typ:P|lang:en|wc:3|cs:8885|v=4,False,Punagam,Surat,"4TH, L-11, Shubh Plaza NR. Bhaiya Nagar, Satguru Mobile, Punagam, Surat - 395010, Dist.Surat, Gujarat",7949222404,
"Cottom Printed Cotton Baby Pillow, 0 To 12 Months",https://www.indiamart.com/proddetail/cotton-baby-pillow-4325197191.html?pos=128&kwd=baby cotton pillow&tags=BB||||8785.791|Price|product|||TS|rsf:gd-|-stype:attr=1|qr_nm:gd|res:RC4|com-cf:nl|ptrs:na|ktp:N0|mc:191315|mtp:S|qry_typ:P|lang:en|wc:3|cs:8885|v=4,Ilaki Intercraft (India),https://www.indiamart.com/ilakiintercraft/?pos=128&kwd=baby cotton pillow&tags=BB||||8785.791|Price|product|||TS|rsf:gd-|-stype:attr=1|qr_nm:gd|res:RC4|com-cf:nl|ptrs:na|ktp:N0|mc:191315|mtp:S|qry_typ:P|lang:en|wc:3|cs:8885|v=4,False,Tronica City,Ghaziabad,"D-69 Sector D-1 Tronica City, Tronica City, Ghaziabad - 201103, Dist.Ghaziabad, Uttar Pradesh",7942552124,
Multicolor Plain Round Shape Baby Pillow,https://www.indiamart.com/proddetail/round-shape-baby-pillow-27096663791.html?pos=129&kwd=baby cotton pillow&tags=BA||||8752.144|Price|product|||MDC|rsf:gd-|-stype:attr=1|qr_nm:gd|res:RC4|com-cf:nl|ptrs:na|ktp:N0|mc:191315|mtp:S|qry_typ:P|lang:en|wc:3|cs:8885|v=4,L T Textiles,https://www.indiamart.com/lttextiles/?pos=129&kwd=baby cotton pillow&tags=BA||||8752.144|Price|product|||MDC|rsf:gd-|-stype:attr=1|qr_nm:gd|res:RC4|com-cf:nl|ptrs:na|ktp:N0|mc:191315|mtp:S|qry_typ:P|lang:en|wc:3|cs:8885|v=4,False,Pahari Dhiraj,New Delhi,"5189-90 Main Road, Sadar Bazar, Pahari Dhiraj, New Delhi - 110006, Dist.Delhi, Delhi",7942958455,
Multicolor Rectangular Cartoon Printed Cotton Baby Pillow,https://www.indiamart.com/proddetail/cartoon-printed-cotton-baby-pillow-2852673504933.html?pos=130&kwd=baby cotton pillow&tags=BA||||8230.883|Price|product|||MDC|rsf:gd-|-stype:attr=1|qr_nm:gd|res:RC4|com-cf:nl|ptrs:na|ktp:N0|mc:191315|mtp:S|qry_typ:P|lang:en|wc:3|cs:8885|v=4,Shri Shri Fashion,https://www.indiamart.com/shri-shri-fashion/?pos=130&kwd=baby cotton pillow&tags=BA||||8230.883|Price|product|||MDC|rsf:gd-|-stype:attr=1|qr_nm:gd|res:RC4|com-cf:nl|ptrs:na|ktp:N0|mc:191315|mtp:S|qry_typ:P|lang:en|wc:3|cs:8885|v=4,False,Varachha,Surat,"A-231, Narayan Nagar, Near Nalanda School, Punagam,, Varachha, Surat - 395010, Dist.Surat, Gujarat",7942712235,
Rectangular Baby Blue Cotton Pillow,https://www.indiamart.com/proddetail/baby-blue-cotton-pillow-2853351860597.html?pos=131&kwd=baby cotton pillow&tags=A||||8210.732|Price|product|||NA|rsf:gd-|-stype:attr=1|qr_nm:gd|res:RC4|com-cf:nl|ptrs:na|ktp:N0|mc:191315|mtp:S|qry_typ:P|lang:en|wc:3|cs:8885|v=4,MRB Creation,https://www.indiamart.com/mrb-creation-maharashtra/?pos=131&kwd=baby cotton pillow&tags=A||||8210.732|Price|product|||NA|rsf:gd-|-stype:attr=1|qr_nm:gd|res:RC4|com-cf:nl|ptrs:na|ktp:N0|mc:191315|mtp:S|qry_typ:P|lang:en|wc:3|cs:8885|v=4,False,Vasai East,Vasai Virar,"Ground Floor Shop A-001 Anand Nagar Laxmi Tower West, Vasai East, Vasai Virar - 401202, Dist.Thane, Maharashtra",7949222433,
"Cotton Pink Lavender Mini Pillow, For Kids",https://www.indiamart.com/proddetail/lavender-mini-pillow-2850513013233.html?pos=133&kwd=baby cotton pillow&tags=A||||8752.144|Price|product|||NA|rsf:gd-|-stype:attr=1|qr_nm:gd|res:RC4|com-cf:nl|ptrs:na|ktp:N0|mc:191315|mtp:S|qry_typ:P|lang:en|wc:3|cs:8885|v=4,Anvika Enterprises,https://www.indiamart.com/anvikaenterprises-delhi/?pos=133&kwd=baby cotton pillow&tags=A||||8752.144|Price|product|||NA|rsf:gd-|-stype:attr=1|qr_nm:gd|res:RC4|com-cf:nl|ptrs:na|ktp:N0|mc:191315|mtp:S|qry_typ:P|lang:en|wc:3|cs:8885|v=4,False,,New Delhi,"House Number-212 Gali Number-2 Phase-4,Shiv Vihar,Karawal Nagar North East House Number-212, Gali Number-2, Phase-4, Shiv Vihar, New Delhi - 110094, Dist.Delhi, Delhi",7942824195,
"Cotton Pink Lavender Mini Pillow, For Kids",https://www.indiamart.com/proddetail/lavender-mini-pillow-2850513013233.html?pos=133&kwd=baby cotton pillow&tags=A||||8752.144|Price|product|||NA|rsf:gd-|-stype:attr=1|qr_nm:gd|res:RC4|com-cf:nl|ptrs:na|ktp:N0|mc:191315|mtp:S|qry_typ:P|lang:en|wc:3|cs:8885|v=4,Anvika Enterprises,https://www.indiamart.com/anvikaenterprises-delhi/?pos=133&kwd=baby cotton pillow&tags=A||||8752.144|Price|product|||NA|rsf:gd-|-stype:attr=1|qr_nm:gd|res:RC4|com-cf:nl|ptrs:na|ktp:N0|mc:191315|mtp:S|qry_typ:P|lang:en|wc:3|cs:8885|v=4,False,,New Delhi,"House Number-212 Gali Number-2 Phase-4,Shiv Vihar,Karawal Nagar North East House Number-212, Gali Number-2, Phase-4, Shiv Vihar, New Delhi - 110094, Dist.Delhi, Delhi",7942824195,
Baby Cotton Pillow,https://www.indiamart.com/proddetail/baby-cotton-pillow-2854849358097.html?pos=134&kwd=baby cotton pillow&tags=BB||||8342.223|Price|product|||NA|rsf:gd-|-stype:attr=1|qr_nm:gd|res:RC4|com-cf:nl|ptrs:na|ktp:N0|mc:191315|mtp:S|qry_typ:P|lang:en|wc:3|cs:8885|v=4,Royal. Parfekt,https://www.indiamart.com/royal-parfekt/?pos=134&kwd=baby cotton pillow&tags=BB||||8342.223|Price|product|||NA|rsf:gd-|-stype:attr=1|qr_nm:gd|res:RC4|com-cf:nl|ptrs:na|ktp:N0|mc:191315|mtp:S|qry_typ:P|lang:en|wc:3|cs:8885|v=4,False,,Pali,"6, Ajmer Road, Ras, Pali - 306101, Rajasthan",8048247091,4596
Blue Rectangular Cotton Baby Pillow,https://www.indiamart.com/proddetail/cotton-baby-pillow-23802910288.html?pos=135&kwd=baby cotton pillow&tags=BB||||9839.57|Price|product|||NA|rsf:gd-|-stype:attr=1|qr_nm:gd|res:RC4|com-cf:nl|ptrs:na|ktp:N0|mc:191315|mtp:S|qry_typ:P|lang:en|wc:3|cs:8885|v=4,India Shoppers Hub,https://www.indiamart.com/india-shoppers-hub/?pos=135&kwd=baby cotton pillow&tags=BB||||9839.57|Price|product|||NA|rsf:gd-|-stype:attr=1|qr_nm:gd|res:RC4|com-cf:nl|ptrs:na|ktp:N0|mc:191315|mtp:S|qry_typ:P|lang:en|wc:3|cs:8885|v=4,False,,Kolkata,"8, 6th Floor, Shantiniketan Building, Camac Street, Kolkata - 700017, Dist.Kolkata, West Bengal",8046042060,
Baby Cotton Pillow,https://www.indiamart.com/proddetail/baby-cotton-pillow-23031148273.html?pos=136&kwd=baby cotton pillow&tags=BB||||8752.144|Price|product|||NA|rsf:gd-|-stype:attr=1|qr_nm:gd|res:RC4|com-cf:nl|ptrs:na|ktp:N0|mc:191315|mtp:S|qry_typ:P|lang:en|wc:3|cs:8885|v=4,Anu Creations,https://www.indiamart.com/anucreations-delhi/?pos=136&kwd=baby cotton pillow&tags=BB||||8752.144|Price|product|||NA|rsf:gd-|-stype:attr=1|qr_nm:gd|res:RC4|com-cf:nl|ptrs:na|ktp:N0|mc:191315|mtp:S|qry_typ:P|lang:en|wc:3|cs:8885|v=4,False,Karol Bagh,New Delhi,"4312, 2nd Floor, Gali Bahuji, Bahadur Garh Road, Sadar Bazar, Central Delhi, Karol Bagh, New Delhi - 110006, Dist.Delhi, Delhi",8047657412,
Baby Cotton Pillow,https://www.indiamart.com/proddetail/baby-cotton-pillow-21937374333.html?pos=137&kwd=baby cotton pillow&tags=BB||||8779.266|Price|product|||NA|rsf:gd-|-stype:attr=1|qr_nm:gd|res:RC4|com-cf:nl|ptrs:na|ktp:N0|mc:191315|mtp:S|qry_typ:P|lang:en|wc:3|cs:8885|v=4,Anita Fashions,https://www.indiamart.com/anitafashions/?pos=137&kwd=baby cotton pillow&tags=BB||||8779.266|Price|product|||NA|rsf:gd-|-stype:attr=1|qr_nm:gd|res:RC4|com-cf:nl|ptrs:na|ktp:N0|mc:191315|mtp:S|qry_typ:P|lang:en|wc:3|cs:8885|v=4,False,Lawi Khurd,Solan,"Shop No. 4, Anand Cinema Complex, Lawi Khurd, Solan - 173212, Dist.Solan, Himachal Pradesh",8048614729,
"Multicolor Cartoon Printed Baby Cotton Pillow, Newly Born",https://www.indiamart.com/proddetail/cartoon-printed-baby-cotton-pillow-26185128433.html?pos=138&kwd=baby cotton pillow&tags=BB||||8752.144|Price|product|||NA|rsf:gd-|-stype:attr=1|qr_nm:gd|res:RC4|com-cf:nl|ptrs:na|ktp:N0|mc:191315|mtp:S|qry_typ:P|lang:en|wc:3|cs:8885|v=4,Manchanda Brothers,https://www.indiamart.com/manchandabrothersdelhi/?pos=138&kwd=baby cotton pillow&tags=BB||||8752.144|Price|product|||NA|rsf:gd-|-stype:attr=1|qr_nm:gd|res:RC4|com-cf:nl|ptrs:na|ktp:N0|mc:191315|mtp:S|qry_typ:P|lang:en|wc:3|cs:8885|v=4,False,,New Delhi,"C-358, Ground Floor, Dr.Mukherjee Nagar, Dhaka Johar, North West Delhi, New Delhi - 110009, Dist.Delhi, Delhi",8043856086,
U Baby White Cotton Pillow,https://www.indiamart.com/proddetail/baby-white-cotton-pillow-24933134930.html?pos=139&kwd=baby cotton pillow&tags=BB||||8741.812|Price|product|||NA|rsf:gd-|-stype:attr=1|qr_nm:gd|res:RC4|com-cf:nl|ptrs:na|ktp:N0|mc:191315|mtp:S|qry_typ:P|lang:en|wc:3|cs:8885|v=4,Land Of Comfort,https://www.indiamart.com/landofcomfort/?pos=139&kwd=baby cotton pillow&tags=BB||||8741.812|Price|product|||NA|rsf:gd-|-stype:attr=1|qr_nm:gd|res:RC4|com-cf:nl|ptrs:na|ktp:N0|mc:191315|mtp:S|qry_typ:P|lang:en|wc:3|cs:8885|v=4,False,,Gurgaon,"Gali No 3, Anjana Colony, Khandsa, Sector 37, Gurgaon - 122001, Dist.Gurgaon, Haryana",8047304923,
"Grey Plain Baby Cotton Neck Pillow, Shape: U Shape",https://www.indiamart.com/proddetail/baby-cotton-neck-pillow-2850515260530.html?pos=140&kwd=baby cotton pillow&tags=BB||||8752.144|Price|product|||NA|rsf:gd-|-stype:attr=1|qr_nm:gd|res:RC4|com-cf:nl|ptrs:na|ktp:N0|mc:191315|mtp:S|qry_typ:P|lang:en|wc:3|cs:8885|v=4,Nanku Traders,https://www.indiamart.com/nanku-traders-delhi/?pos=140&kwd=baby cotton pillow&tags=BB||||8752.144|Price|product|||NA|rsf:gd-|-stype:attr=1|qr_nm:gd|res:RC4|com-cf:nl|ptrs:na|ktp:N0|mc:191315|mtp:S|qry_typ:P|lang:en|wc:3|cs:8885|v=4,False,,New Delhi,"House No 11, Blk-T, 2nd, Moolchand Colony, North Delhi, New Delhi - 110033, Dist.Delhi, Delhi",7942819739,
U Pink Cotton Baby Pillow,https://www.indiamart.com/proddetail/pink-cotton-baby-pillow-2852696905288.html?pos=141&kwd=baby cotton pillow&tags=BA||||8747.203||product|||NA|rsf:gd-|-stype:attr=1|qr_nm:gd|res:RC4|com-cf:nl|ptrs:na|ktp:N0|mc:191315|mtp:S|qry_typ:P|lang:en|wc:3|cs:8885|v=4,J.P Enterprises,https://www.indiamart.com/jpenterprises-panipat/?pos=141&kwd=baby cotton pillow&tags=BA||||8747.203||product|||NA|rsf:gd-|-stype:attr=1|qr_nm:gd|res:RC4|com-cf:nl|ptrs:na|ktp:N0|mc:191315|mtp:S|qry_typ:P|lang:en|wc:3|cs:8885|v=4,False,Huda,Panipat,"Sanoli Road, 996/8, Near Lahuwala Gurudwara, Huda, Panipat - 132103, Dist.Panipat, Haryana",8047551121,
Pink Square Plain Baby Cotton Pillow,https://www.indiamart.com/proddetail/plain-baby-cotton-pillow-2854093516748.html?pos=142&kwd=baby cotton pillow&tags=BA||||8661.854|Price|product|||NA|rsf:gd-|-stype:attr=1|qr_nm:gd|res:RC4|com-cf:nl|ptrs:na|ktp:N0|mc:191315|mtp:S|qry_typ:P|lang:en|wc:3|cs:8885|v=4,Dua Cardings,https://www.indiamart.com/dua-cardings/?pos=142&kwd=baby cotton pillow&tags=BA||||8661.854|Price|product|||NA|rsf:gd-|-stype:attr=1|qr_nm:gd|res:RC4|com-cf:nl|ptrs:na|ktp:N0|mc:191315|mtp:S|qry_typ:P|lang:en|wc:3|cs:8885|v=4,False,Harnam Nagar,Ludhiana,"B-18-3377/1A, Gurcharan Park, Harnam Nagar, Ludhiana - 141002, Dist.Ludhiana, Punjab",8044562894,
"Blue (base) U And Cylindrical cotton Baby Pillow Set, Newly Born",https://www.indiamart.com/proddetail/cotton-baby-pillow-set-2852118845930.html?pos=143&kwd=baby cotton pillow&tags=BA||||8559.269|Price|product|||NA|rsf:gd-|-stype:attr=1|qr_nm:gd|res:RC4|com-cf:nl|ptrs:na|ktp:N0|mc:191315|mtp:S|qry_typ:P|lang:en|wc:3|cs:8885|v=4,Navkar Traders,https://www.indiamart.com/navkar-tradersindore/?pos=143&kwd=baby cotton pillow&tags=BA||||8559.269|Price|product|||NA|rsf:gd-|-stype:attr=1|qr_nm:gd|res:RC4|com-cf:nl|ptrs:na|ktp:N0|mc:191315|mtp:S|qry_typ:P|lang:en|wc:3|cs:8885|v=4,False,Sukhlia,Indore,"304, Shyam Bhatika Ke Pass, Shyam Nagar,, Sukhlia, Indore - 452010, Dist.Indore, Madhya Pradesh",7942962327,
Grey(Base) Rectangular Printed Baby Cotton Pillow,https://www.indiamart.com/proddetail/printed-baby-cotton-pillow-2853456881055.html?pos=144&kwd=baby cotton pillow&tags=BA||||8747.203|Price|product|||NA|rsf:gd-|-stype:attr=1|qr_nm:gd|res:RC4|com-cf:nl|ptrs:na|ktp:N0|mc:191315|mtp:S|qry_typ:P|lang:en|wc:3|cs:8885|v=4,Shine Creation,https://www.indiamart.com/shine-creation-panipat/?pos=144&kwd=baby cotton pillow&tags=BA||||8747.203|Price|product|||NA|rsf:gd-|-stype:attr=1|qr_nm:gd|res:RC4|com-cf:nl|ptrs:na|ktp:N0|mc:191315|mtp:S|qry_typ:P|lang:en|wc:3|cs:8885|v=4,False,Rajiv Colony,Panipat,"Property No 63, Ground Floor, Rajiv Colony, Panipat, Rajiv Colony, Panipat - 132103, Dist.Panipat, Haryana",8045909148,
White (Base) Rectangular Baby Printed Cotton Pillow,https://www.indiamart.com/proddetail/rectangular-baby-printed-cotton-pillow-2854286283330.html?pos=145&kwd=baby cotton pillow&tags=BA||||8752.144|Price|product|||NA|rsf:gd-|-stype:attr=1|qr_nm:gd|res:RC4|com-cf:nl|ptrs:na|ktp:N0|mc:191315|mtp:S|qry_typ:P|lang:en|wc:3|cs:8885|v=4,Varnar Viral,https://www.indiamart.com/varnar-viral/?pos=145&kwd=baby cotton pillow&tags=BA||||8752.144|Price|product|||NA|rsf:gd-|-stype:attr=1|qr_nm:gd|res:RC4|com-cf:nl|ptrs:na|ktp:N0|mc:191315|mtp:S|qry_typ:P|lang:en|wc:3|cs:8885|v=4,False,,New Delhi,"First Floor, House No.1049, Karol Bagh,blk- T, Bhagat Singh Nagar, Near By Kumar Studio, Manakpura Central Delhi, New Delhi - 110005, Dist.Delhi, Delhi",8045729464,
Multicolor Rectangular Baby Cotton Soft Pillow,https://www.indiamart.com/proddetail/baby-cotton-soft-pillow-2849765630873.html?pos=146&kwd=baby cotton pillow&tags=BB||||8601.347|Price|product|||NA|rsf:gd-|-stype:attr=1|qr_nm:gd|res:RC4|com-cf:nl|ptrs:na|ktp:N0|mc:191315|mtp:S|qry_typ:P|lang:en|wc:3|cs:8885|v=4,Bhagwati Enterprises,https://www.indiamart.com/bhagwati-enterprisesrajasthan/?pos=146&kwd=baby cotton pillow&tags=BB||||8601.347|Price|product|||NA|rsf:gd-|-stype:attr=1|qr_nm:gd|res:RC4|com-cf:nl|ptrs:na|ktp:N0|mc:191315|mtp:S|qry_typ:P|lang:en|wc:3|cs:8885|v=4,False,,Jaipur,"Ground Floor, ARG Murli Heights, Moti Doongri Road, Jaipur - 302004, Dist.Jaipur, Rajasthan",7942795447,
Square White Baby Cotton Pillow,https://www.indiamart.com/proddetail/white-baby-cotton-pillow-2853383361291.html?pos=147&kwd=baby cotton pillow&tags=BA||||8234.203|Price|product|||NA|rsf:gd-|-stype:attr=1|qr_nm:gd|res:RC4|com-cf:nl|ptrs:na|ktp:N0|mc:191315|mtp:S|qry_typ:P|lang:en|wc:3|cs:8885|v=4,Inspire Hype,https://www.indiamart.com/inspirehype/?pos=147&kwd=baby cotton pillow&tags=BA||||8234.203|Price|product|||NA|rsf:gd-|-stype:attr=1|qr_nm:gd|res:RC4|com-cf:nl|ptrs:na|ktp:N0|mc:191315|mtp:S|qry_typ:P|lang:en|wc:3|cs:8885|v=4,False,Denap,Visnagar,"4-B, C H Complex, Denap Tran Rasta Mahesana, Denap, Visnagar - 384315, Dist.Mehsana, Gujarat",7949224033,
Blue U Newborn Baby Cotton Pillow,https://www.indiamart.com/proddetail/newborn-baby-cotton-pillow-2853069186412.html?pos=148&kwd=baby cotton pillow&tags=BA||||8747.203|Price|product|||NA|rsf:gd-|-stype:attr=1|qr_nm:gd|res:RC4|com-cf:nl|ptrs:na|ktp:N0|mc:191315|mtp:S|qry_typ:P|lang:en|wc:3|cs:8885|v=4,Baba Furnishing,https://www.indiamart.com/babafurnishing/?pos=148&kwd=baby cotton pillow&tags=BA||||8747.203|Price|product|||NA|rsf:gd-|-stype:attr=1|qr_nm:gd|res:RC4|com-cf:nl|ptrs:na|ktp:N0|mc:191315|mtp:S|qry_typ:P|lang:en|wc:3|cs:8885|v=4,False,Netaji Colony,Panipat,"Ahuja Furniture, Near Mahaveer Gate Number 2, Dav Puri Road,, Netaji Colony, Panipat - 132103, Dist.Panipat, Haryana",7942965741,
"Plain Baby Pink Cotton Pillow, For Home and Hotel, Size/Dimension: 17x28inch",https://www.indiamart.com/proddetail/plain-baby-pink-cotton-pillow-23433807948.html?pos=149&kwd=baby cotton pillow&tags=BB||||8584.299|Price|product|||NA|rsf:gd-|-stype:attr=1|qr_nm:gd|res:RC4|com-cf:nl|ptrs:na|ktp:N0|mc:191315|mtp:S|qry_typ:P|lang:en|wc:3|cs:8885|v=4,Dhuruvan Spinners,https://www.indiamart.com/dhuruvan-spinners/?pos=149&kwd=baby cotton pillow&tags=BB||||8584.299|Price|product|||NA|rsf:gd-|-stype:attr=1|qr_nm:gd|res:RC4|com-cf:nl|ptrs:na|ktp:N0|mc:191315|mtp:S|qry_typ:P|lang:en|wc:3|cs:8885|v=4,False,,Coimbatore,"SF No. 226/2, Door No. 11/49, Kennedy Street, Vellalore, Coimbatore - 641111, Dist.Coimbatore, Tamil Nadu",8046054871,
"White And Black U Newborn Baby Panda Cotton Pillow, Newly Born",https://www.indiamart.com/proddetail/newborn-baby-panda-cotton-pillow-27505329897.html?pos=150&kwd=baby cotton pillow&tags=BB||||8752.144|Price|product|||NA|rsf:gd-|-stype:attr=1|qr_nm:gd|res:RC4|com-cf:nl|ptrs:na|ktp:N0|mc:191315|mtp:S|qry_typ:P|lang:en|wc:3|cs:8885|v=4,Caring Mom,https://www.indiamart.com/caring-mom/?pos=150&kwd=baby cotton pillow&tags=BB||||8752.144|Price|product|||NA|rsf:gd-|-stype:attr=1|qr_nm:gd|res:RC4|com-cf:nl|ptrs:na|ktp:N0|mc:191315|mtp:S|qry_typ:P|lang:en|wc:3|cs:8885|v=4,False,North East Delhi,New Delhi,"KH No-51/1, Gali No-14, Shiv Vihar Phase 6, East Karwal Nagar, North East Delhi, New Delhi - 110094, Dist.Delhi, Delhi",7942673419,
Blue And Red Hut Shape Cotton Baby Pillow,https://www.indiamart.com/proddetail/hut-shape-cotton-baby-pillow-25890123455.html?pos=151&kwd=baby cotton pillow&tags=BB||||8752.144|Price|product|||NA|rsf:gd-|-stype:attr=1|qr_nm:gd|res:RC4|com-cf:nl|ptrs:na|ktp:N0|mc:191315|mtp:S|qry_typ:P|lang:en|wc:3|cs:8885|v=4,Aashia Fashion,https://www.indiamart.com/aashia-fashion/?pos=151&kwd=baby cotton pillow&tags=BB||||8752.144|Price|product|||NA|rsf:gd-|-stype:attr=1|qr_nm:gd|res:RC4|com-cf:nl|ptrs:na|ktp:N0|mc:191315|mtp:S|qry_typ:P|lang:en|wc:3|cs:8885|v=4,False,,New Delhi,"A-21 Shiv Vihar, Vikas Nagar Near Rama Sweets, Uttam Nagar, New Delhi - 110059, Dist.Delhi, Delhi",8047676001,
U White Cotton Baby Bed Pillow,https://www.indiamart.com/proddetail/white-cotton-baby-bed-pillow-2849666762497.html?pos=152&kwd=baby cotton pillow&tags=BB||||8747.203|Price|product|||NA|rsf:gd-|-stype:attr=1|qr_nm:gd|res:RC4|com-cf:nl|ptrs:na|ktp:N0|mc:191315|mtp:S|qry_typ:P|lang:en|wc:3|cs:8885|v=4,Kirpa Enterprise,https://www.indiamart.com/kirpa-enterprise-panipat/?pos=152&kwd=baby cotton pillow&tags=BB||||8747.203|Price|product|||NA|rsf:gd-|-stype:attr=1|qr_nm:gd|res:RC4|com-cf:nl|ptrs:na|ktp:N0|mc:191315|mtp:S|qry_typ:P|lang:en|wc:3|cs:8885|v=4,False,,Panipat,"879,11, Ward No.11, Panipat - 132103, Dist.Panipat, Haryana",7942795917,
White(Base) U White Printed Baby Cotton Pillow,https://www.indiamart.com/proddetail/white-printed-baby-cotton-pillow-2850548367691.html?pos=153&kwd=baby cotton pillow&tags=BB||||8211.142|Price|product|||NA|rsf:gd-|-stype:attr=1|qr_nm:gd|res:RC4|com-cf:nl|ptrs:na|ktp:N0|mc:191315|mtp:S|qry_typ:P|lang:en|wc:3|cs:8885|v=4,Colours Baby Clothing Co.,https://www.indiamart.com/coloursbabyclothing/?pos=153&kwd=baby cotton pillow&tags=BB||||8211.142|Price|product|||NA|rsf:gd-|-stype:attr=1|qr_nm:gd|res:RC4|com-cf:nl|ptrs:na|ktp:N0|mc:191315|mtp:S|qry_typ:P|lang:en|wc:3|cs:8885|v=4,False,,Mumbai,"1st Floor Gandhi Industrial Estates Poomi Ka Road, Villlage Mohali, Mumbai - 400070, Dist.Mumbai, Maharashtra",8047785453,
Blue U New Born Baby Cotton Pillow,https://www.indiamart.com/proddetail/new-born-baby-cotton-pillow-2850321339297.html?pos=154&kwd=baby cotton pillow&tags=BB||||8817.752|Price|product|||NA|rsf:gd-|-stype:attr=1|qr_nm:gd|res:RC4|com-cf:nl|ptrs:na|ktp:N0|mc:191315|mtp:S|qry_typ:P|lang:en|wc:3|cs:8885|v=4,Yogendra Enterprises,https://www.indiamart.com/yogendraenterprises/?pos=154&kwd=baby cotton pillow&tags=BB||||8817.752|Price|product|||NA|rsf:gd-|-stype:attr=1|qr_nm:gd|res:RC4|com-cf:nl|ptrs:na|ktp:N0|mc:191315|mtp:S|qry_typ:P|lang:en|wc:3|cs:8885|v=4,False,,Hapur,"Dehra Dhaulana, Hapur - 245301, Dist.Hapur, Uttar Pradesh",7942794173,
Baby Pillow,,G K Enterprises,https://www.indiamart.com/gk-enterprises-india/?pos=155&kwd=baby cotton pillow&tags=BB||||8747.203|Price|product|||NA|rsf:gd-|-stype:attr=1|qr_nm:gd|res:RC4|com-cf:nl|ptrs:na|ktp:N0|mc:191315|mtp:S|qry_typ:P|lang:en|wc:3|cs:8885|v=4,False,,Panipat,"Batra Colony 7373 Kutani Road, Panipat - 132103, Dist.Panipat, Haryana",7942621938,
Baby Cotton Pillow,,Gautam Traders,https://www.indiamart.com/karmagroup-delhi/?pos=156&kwd=baby cotton pillow&tags=BA||||8752.144||product|||NA|rsf:gd-|-stype:attr=1|qr_nm:gd|res:RC4|com-cf:nl|ptrs:na|ktp:N0|mc:191315|mtp:S|qry_typ:P|lang:en|wc:3|cs:8885|v=4,False,Johripur,New Delhi,"Hno. 65,Gali No 3 Tunda Nagar, Johripur, New Delhi - 110094, Dist.Delhi, Delhi",8047837511,
Multicolor Rectangular Baby pillow,https://www.indiamart.com/proddetail/baby-pillow-2853962185733.html?pos=157&kwd=baby cotton pillow&tags=BA||||8752.144|Price|product|||NA|rsf:gd-|-stype:attr=1|qr_nm:gd|res:RC4|com-cf:nl|ptrs:na|ktp:N0|mc:191315|mtp:S|qry_typ:P|lang:en|wc:3|cs:8885|v=4,Balaji Enterprises,https://www.indiamart.com/balajienterprisesnewdelhindia/?pos=157&kwd=baby cotton pillow&tags=BA||||8752.144|Price|product|||NA|rsf:gd-|-stype:attr=1|qr_nm:gd|res:RC4|com-cf:nl|ptrs:na|ktp:N0|mc:191315|mtp:S|qry_typ:P|lang:en|wc:3|cs:8885|v=4,False,Kondli,New Delhi,"First Floor Kh-197 Village Kondli,Near Panchayat Ghar New East,Pandit Mohalla, Kondli, New Delhi - 110096, Dist.Delhi, Delhi",8044012807,
Baby Pillow,https://www.indiamart.com/proddetail/baby-pillow-20553520330.html?pos=158&kwd=baby cotton pillow&tags=BB||||8663.873|Price|product|||NA|rsf:gd-|-stype:attr=1|qr_nm:gd|res:RC4|com-cf:nl|ptrs:na|ktp:N0|mc:191315|mtp:S|qry_typ:P|lang:en|wc:3|cs:8885|v=4,Mahadev Enterprises,https://www.indiamart.com/mahadeventps-bengaluru/?pos=158&kwd=baby cotton pillow&tags=BB||||8663.873|Price|product|||NA|rsf:gd-|-stype:attr=1|qr_nm:gd|res:RC4|com-cf:nl|ptrs:na|ktp:N0|mc:191315|mtp:S|qry_typ:P|lang:en|wc:3|cs:8885|v=4,False,Cubbonpet Main Road,Bengaluru,"32, 1st Floor, 13th Cross, Cubbonpet Main Road, Bengaluru - 560001, Dist.Bengaluru, Karnataka",8047690378,
"Mustard Pillow U Baby Pillows, Packaging Type: Plastic Bag, Newly Born",https://www.indiamart.com/proddetail/baby-pillows-25358423812.html?pos=159&kwd=baby cotton pillow&tags=BB||||8223.226|Price|product|||NA|rsf:gd-|-stype:attr=1|qr_nm:gd|res:RC4|com-cf:nl|ptrs:na|ktp:N0|mc:191315|mtp:S|qry_typ:P|lang:en|wc:3|cs:8885|v=4,Kidee-Kid Enterprises,https://www.indiamart.com/kideekid-enterprises/?pos=159&kwd=baby cotton pillow&tags=BB||||8223.226|Price|product|||NA|rsf:gd-|-stype:attr=1|qr_nm:gd|res:RC4|com-cf:nl|ptrs:na|ktp:N0|mc:191315|mtp:S|qry_typ:P|lang:en|wc:3|cs:8885|v=4,False,Ambika Nagar,Thane,"Hill No.3 R No. 192 Kamani Sundar Baug Lane Kurla West, Ambika Nagar, Thane - 400070, Dist.Thane, Maharashtra",8048250433,444
Newborn Baby Pillow,,MR Timepass Clothing,https://www.indiamart.com/mr-timepass-clothing/?pos=160&kwd=baby cotton pillow&tags=BA||||8752.144|Price|product|||NA|rsf:gd-|-stype:attr=1|qr_nm:gd|res:RC4|com-cf:nl|ptrs:na|ktp:N0|mc:191315|mtp:S|qry_typ:P|lang:en|wc:3|cs:8885|v=4,False,Shahdara,New Delhi,"1/97,G/F 01, Vishwas Nagar, North East, Near Mandir , Shahdara, Shahdara, New Delhi - 110032, Dist.Delhi, Delhi",7942968342,
"Pink Rectangular Baby book pillow, 3-12 Months",https://www.indiamart.com/proddetail/baby-book-pillow-2849226867862.html?pos=161&kwd=baby cotton pillow&tags=BB||||8230.883|Price|product|||NA|rsf:gd-|-stype:attr=1|qr_nm:gd|res:RC4|com-cf:nl|ptrs:na|ktp:N0|mc:191315|mtp:S|qry_typ:P|lang:en|wc:3|cs:8885|v=4,Him Tax,https://www.indiamart.com/him-tax/?pos=161&kwd=baby cotton pillow&tags=BB||||8230.883|Price|product|||NA|rsf:gd-|-stype:attr=1|qr_nm:gd|res:RC4|com-cf:nl|ptrs:na|ktp:N0|mc:191315|mtp:S|qry_typ:P|lang:en|wc:3|cs:8885|v=4,False,,Surat,"Plot No.36, Shop No. 3, Jay Yogeshwar Row House, Near Shyamdham Mandir, Sarthana Jakatnaka, Surat - 395006, Dist.Surat, Gujarat",8043894143,
"SHYAM ENTERPRISE SQUARE Baby Learning Pillow, Packaging Type: Box",https://www.indiamart.com/proddetail/baby-learning-pillow-2849518974791.html?pos=162&kwd=baby cotton pillow&tags=BA||||8230.883|Price|product|||NA|rsf:gd-|-stype:attr=1|qr_nm:gd|res:RC4|com-cf:nl|ptrs:na|ktp:N0|mc:191315|mtp:S|qry_typ:P|lang:en|wc:3|cs:8885|v=4,Shyam Enterprise,https://www.indiamart.com/shyamenterprise-61963196/?pos=162&kwd=baby cotton pillow&tags=BA||||8230.883|Price|product|||NA|rsf:gd-|-stype:attr=1|qr_nm:gd|res:RC4|com-cf:nl|ptrs:na|ktp:N0|mc:191315|mtp:S|qry_typ:P|lang:en|wc:3|cs:8885|v=4,False,,Surat,"Shop No. 1 Varachha Road Ganesh Shopping Centre, Surat - 395006, Dist.Surat, Gujarat",7949094135,
Multicolor Rectangular Baby animals pillow,https://www.indiamart.com/proddetail/baby-animals-pillow-2853281508391.html?pos=163&kwd=baby cotton pillow&tags=BA||||8734.695|Price|product|||NA|rsf:gd-|-stype:attr=1|qr_nm:gd|res:RC4|com-cf:nl|ptrs:na|ktp:N0|mc:191315|mtp:S|qry_typ:P|lang:en|wc:3|cs:8885|v=4,K Joon Exports,https://www.indiamart.com/k-joon-exports/?pos=163&kwd=baby cotton pillow&tags=BA||||8734.695|Price|product|||NA|rsf:gd-|-stype:attr=1|qr_nm:gd|res:RC4|com-cf:nl|ptrs:na|ktp:N0|mc:191315|mtp:S|qry_typ:P|lang:en|wc:3|cs:8885|v=4,False,Sarai Aurangabad,Bahadurgarh,"H No 151, VPO Nuna Majra, Tehsil Bahadurgarh, Jhajjar, Sarai Aurangabad, Bahadurgarh - 124507, Dist.Jhajjar, Haryana",8047662139,
Paras enterprises U Shape Baby Neck Pillow,https://www.indiamart.com/proddetail/baby-neck-pillow-2854771091548.html?pos=164&kwd=baby cotton pillow&tags=BA||||8823.154|Price|product|||NA|rsf:gd-|-stype:attr=1|qr_nm:gd|res:RC4|com-cf:nl|ptrs:na|ktp:N0|mc:191315|mtp:S|qry_typ:P|lang:en|wc:3|cs:8885|v=4,Paras Enterprises,https://www.indiamart.com/parasenterprises-97200216/?pos=164&kwd=baby cotton pillow&tags=BA||||8823.154|Price|product|||NA|rsf:gd-|-stype:attr=1|qr_nm:gd|res:RC4|com-cf:nl|ptrs:na|ktp:N0|mc:191315|mtp:S|qry_typ:P|lang:en|wc:3|cs:8885|v=4,False,kamla nagar,Agra,"37,Brij Vihar,Kamla Nagar,Agra,Agra, kamla nagar, Agra - 282005, Dist.Agra, Uttar Pradesh",8069707409,309
"White Heart Baby Pillows, Packaging Type: Box, Newly Born",https://www.indiamart.com/proddetail/baby-pillows-24509468273.html?pos=165&kwd=baby cotton pillow&tags=BB||||8752.144|Price|product|||NA|rsf:gd-|-stype:attr=1|qr_nm:gd|res:RC4|com-cf:nl|ptrs:na|ktp:N0|mc:191315|mtp:S|qry_typ:P|lang:en|wc:3|cs:8885|v=4,Saaq,https://www.indiamart.com/saaq/?pos=165&kwd=baby cotton pillow&tags=BB||||8752.144|Price|product|||NA|rsf:gd-|-stype:attr=1|qr_nm:gd|res:RC4|com-cf:nl|ptrs:na|ktp:N0|mc:191315|mtp:S|qry_typ:P|lang:en|wc:3|cs:8885|v=4,False,Durga Park,New Delhi,"Rz-273/1 Durga Park, Palam Colony, Nasirpur Street No-03 Street no.-03, Durga Park, New Delhi - 110045, Dist.Delhi, Delhi",8048249721,9369
Baby Supporter Neck Pillow,https://www.indiamart.com/proddetail/baby-supporter-neck-pillow-20421205562.html?pos=166&kwd=baby cotton pillow&tags=BB||||8331.224|Price|product|||NA|rsf:gd-|-stype:attr=1|qr_nm:gd|res:RC4|com-cf:nl|ptrs:na|ktp:N0|mc:191315|mtp:S|qry_typ:P|lang:en|wc:3|cs:8885|v=4,Rose Wear Care Private Limited,https://www.indiamart.com/rose-wearcare-private-limited/?pos=166&kwd=baby cotton pillow&tags=BB||||8331.224|Price|product|||NA|rsf:gd-|-stype:attr=1|qr_nm:gd|res:RC4|com-cf:nl|ptrs:na|ktp:N0|mc:191315|mtp:S|qry_typ:P|lang:en|wc:3|cs:8885|v=4,False,Kawala Naka,Kolhapur,"2113 K-1, Kawala Naka, Kolhapur - 416003, Dist.Kolhapur, Maharashtra",8048361219,430
New Born Baby Pillow,,Tanish Traders (Nahar),https://www.indiamart.com/tanish-traders-nahar-new-delhi/?pos=167&kwd=baby cotton pillow&tags=BB||||8752.144||product|||NA|rsf:gd-|-stype:attr=1|qr_nm:gd|res:RC4|com-cf:nl|ptrs:na|ktp:N0|mc:191315|mtp:S|qry_typ:P|lang:en|wc:3|cs:8885|v=4,False,,New Delhi,"Ix-6825 Shyam Gali Gandhi Nagar Gandhi Nagar, New Delhi - 110031, Dist.Delhi, Delhi",8048249690,8208
"U Baby Red Head Pillow, Newly Born",https://www.indiamart.com/proddetail/baby-red-head-pillow-2849085998188.html?pos=168&kwd=baby cotton pillow&tags=BB||||8788.382|Price|product|||NA|rsf:gd-|-stype:attr=1|qr_nm:gd|res:RC4|com-cf:nl|ptrs:na|ktp:N0|mc:191315|mtp:S|qry_typ:P|lang:en|wc:3|cs:8885|v=4,Muskan India Export,https://www.indiamart.com/muskanindiaexport/?pos=168&kwd=baby cotton pillow&tags=BB||||8788.382|Price|product|||NA|rsf:gd-|-stype:attr=1|qr_nm:gd|res:RC4|com-cf:nl|ptrs:na|ktp:N0|mc:191315|mtp:S|qry_typ:P|lang:en|wc:3|cs:8885|v=4,False,Gautam Buddha Nagar,Greater Noida,"Shop No. 01, H No. 0520Z, Kulesara, Kulesara Gali 1, Gautam Buddha Nagar, Greater Noida - 201306, Dist.Gautam Budh Nagar, Uttar Pradesh",8047830031,
Baby U Shape Pillow,https://www.indiamart.com/proddetail/baby-u-shape-pillow-2852008260555.html?pos=169&kwd=baby cotton pillow&tags=BA||||8752.144|Price|product|||NA|rsf:gd-|-stype:attr=1|qr_nm:gd|res:RC4|com-cf:nl|ptrs:na|ktp:N0|mc:191315|mtp:S|qry_typ:P|lang:en|wc:3|cs:8885|v=4,Suraj Enterprises,https://www.indiamart.com/surajenterprises-194855443/?pos=169&kwd=baby cotton pillow&tags=BA||||8752.144|Price|product|||NA|rsf:gd-|-stype:attr=1|qr_nm:gd|res:RC4|com-cf:nl|ptrs:na|ktp:N0|mc:191315|mtp:S|qry_typ:P|lang:en|wc:3|cs:8885|v=4,False,,New Delhi,"House No.203 Street No.3 A-block, Shiv Vihar Karawal Nagar Shiv vihar karawal nagar delhi 110094, New Delhi - 110094, Dist.Delhi, Delhi",8047311004,9405
"Waterberry Pink Hut Shape Baby Bedding Pillow, For Home",https://www.indiamart.com/proddetail/hut-shape-baby-bedding-pillow-2853243719962.html?pos=170&kwd=baby cotton pillow&tags=BA||||8601.347|Price|product|||NA|rsf:gd-|-stype:attr=1|qr_nm:gd|res:RC4|com-cf:nl|ptrs:na|ktp:N0|mc:191315|mtp:S|qry_typ:P|lang:en|wc:3|cs:8885|v=4,Waterberry,https://www.indiamart.com/waterberry/?pos=170&kwd=baby cotton pillow&tags=BA||||8601.347|Price|product|||NA|rsf:gd-|-stype:attr=1|qr_nm:gd|res:RC4|com-cf:nl|ptrs:na|ktp:N0|mc:191315|mtp:S|qry_typ:P|lang:en|wc:3|cs:8885|v=4,False,Raj Bhawan (Jaipur),Jaipur,"Plot No. 6, Hathi Babu Ka Bagh, Gopal Ji Ka Mandir, Raj Bhawan (Jaipur), Jaipur - 302006, Dist.Jaipur, Rajasthan",8044010603,
Bee Baby Head Protector Pillow Orange & Green,https://www.indiamart.com/proddetail/baby-head-protector-pillow-orange-green-2851104855073.html?pos=171&kwd=baby cotton pillow&tags=BB||||8223.226|Price|product|||NA|rsf:gd-|-stype:attr=1|qr_nm:gd|res:RC4|com-cf:nl|ptrs:na|ktp:N0|mc:191315|mtp:S|qry_typ:P|lang:en|wc:3|cs:8885|v=4,Thank You Mommy,https://www.indiamart.com/thank-you-mommy/?pos=171&kwd=baby cotton pillow&tags=BB||||8223.226|Price|product|||NA|rsf:gd-|-stype:attr=1|qr_nm:gd|res:RC4|com-cf:nl|ptrs:na|ktp:N0|mc:191315|mtp:S|qry_typ:P|lang:en|wc:3|cs:8885|v=4,False,,Thane,"1st Floor C Wing Room No. 104 Mumbai Pune Road New Nasheman Apartment, Thane - 400612, Dist.Thane, Maharashtra",8069196750,828
Printed Custome Shape New Born Baby Head Pillow/ Baby Head Shaping Pillow,https://www.indiamart.com/proddetail/new-born-baby-head-pillow-baby-head-shaping-pillow-2850785391062.html?pos=172&kwd=baby cotton pillow&tags=BA||||8236.946|Price|product|||NA|rsf:gd-|-stype:attr=1|qr_nm:gd|res:RC4|com-cf:nl|ptrs:na|ktp:N0|mc:191315|mtp:S|qry_typ:P|lang:en|wc:3|cs:8885|v=4,Pranita Textile,https://www.indiamart.com/pranita-textile/?pos=172&kwd=baby cotton pillow&tags=BA||||8236.946|Price|product|||NA|rsf:gd-|-stype:attr=1|qr_nm:gd|res:RC4|com-cf:nl|ptrs:na|ktp:N0|mc:191315|mtp:S|qry_typ:P|lang:en|wc:3|cs:8885|v=4,False,,Raigad,"Unit No 206, 2nd Fioor, Silver Springs, Taloja Midc, Taloja Panchanand, Raigad., Raigad - 410208, Maharashtra",8043855238,
Baby Pink Round Tub Bed Heart Pillow,https://www.indiamart.com/proddetail/baby-pink-round-tub-bed-heart-pillow-2849704502891.html?pos=173&kwd=baby cotton pillow&tags=BB||||8032.138||product|||NA|rsf:gd-|-stype:attr=1|qr_nm:gd|res:RC4|com-cf:nl|ptrs:na|ktp:N0|mc:191315|mtp:S|qry_typ:P|lang:en|wc:3|cs:8885|v=4,Ambition Of Creativity,https://www.indiamart.com/ambitionofcreativitygondal/?pos=173&kwd=baby cotton pillow&tags=BB||||8032.138||product|||NA|rsf:gd-|-stype:attr=1|qr_nm:gd|res:RC4|com-cf:nl|ptrs:na|ktp:N0|mc:191315|mtp:S|qry_typ:P|lang:en|wc:3|cs:8885|v=4,False,Rajkot,Gondal,"Raiyaraj, Chokshi Nagar, Umvada Road,, Rajkot, Gondal - 360311, Dist.Rajkot, Gujarat",7942791225,
Multicolor U Shape Baby Soft Neck Support Pillow for Head Shaping,https://www.indiamart.com/proddetail/baby-soft-neck-support-pillow-for-head-shaping-25368154812.html?pos=174&kwd=baby cotton pillow&tags=BB||||8785.791|Price|product|||NA|rsf:gd-|-stype:attr=1|qr_nm:gd|res:RC4|com-cf:nl|ptrs:na|ktp:N0|mc:191315|mtp:S|qry_typ:P|lang:en|wc:3|cs:8885|v=4,Future Fashion Enterprises,https://www.indiamart.com/futurefashionenterprises/?pos=174&kwd=baby cotton pillow&tags=BB||||8785.791|Price|product|||NA|rsf:gd-|-stype:attr=1|qr_nm:gd|res:RC4|com-cf:nl|ptrs:na|ktp:N0|mc:191315|mtp:S|qry_typ:P|lang:en|wc:3|cs:8885|v=4,False,,Ghaziabad,"H 268 B,VIJAY NAGAR,SECTOR 12,GHAZIABAD G-290, Sector-63, Noida, U.P. 201301,201012,Ghaziabad, Ghaziabad - 201001, Dist.Ghaziabad, Uttar Pradesh",7942535638,
"Beautiful Soft Unicorn Designs Pillow with Blanket for Baby Girl and Baby Boys,Super & Comfortable",https://www.indiamart.com/proddetail/beautiful-soft-unicorn-designs-pillow-with-blanket-for-baby-girl-and-baby-boys-super-comfortable-23119956455.html?pos=175&kwd=baby cotton pillow&tags=BB||||8752.144|Price|product|||NA|rsf:gd-|-stype:attr=1|qr_nm:gd|res:RC4|com-cf:nl|ptrs:na|ktp:N0|mc:191315|mtp:S|qry_typ:P|lang:en|wc:3|cs:8885|v=4,Aarna Sales Corporation,https://www.indiamart.com/aarnasales-corporation/?pos=175&kwd=baby cotton pillow&tags=BB||||8752.144|Price|product|||NA|rsf:gd-|-stype:attr=1|qr_nm:gd|res:RC4|com-cf:nl|ptrs:na|ktp:N0|mc:191315|mtp:S|qry_typ:P|lang:en|wc:3|cs:8885|v=4,False,New Delhi North West,New Delhi,"Third Floor 481-82 Gali Sheesh Mehal, Sita Ram Bazar, New Delhi North West, New Delhi - 110006, Dist.Delhi, Delhi",8047636204,
"Grey Plain Baby Cotton Neck Pillow, Shape: U Shape",https://www.indiamart.com/proddetail/baby-cotton-neck-pillow-2850515260530.html?pos=176&kwd=baby cotton pillow&tags=BB||||8752.144|Price|product|||NA|rsf:gd-|-stype:attr=1|qr_nm:gd|res:RC4|com-cf:nl|ptrs:na|ktp:N0|mc:191315|mtp:S|qry_typ:P|lang:en|wc:3|cs:8885|v=4,Nanku Traders,https://www.indiamart.com/nanku-traders-delhi/?pos=176&kwd=baby cotton pillow&tags=BB||||8752.144|Price|product|||NA|rsf:gd-|-stype:attr=1|qr_nm:gd|res:RC4|com-cf:nl|ptrs:na|ktp:N0|mc:191315|mtp:S|qry_typ:P|lang:en|wc:3|cs:8885|v=4,False,,New Delhi,"House No 11, Blk-T, 2nd, Moolchand Colony, North Delhi, New Delhi - 110033, Dist.Delhi, Delhi",7942819739,
Multicolor Rectangular Baby pillow,https://www.indiamart.com/proddetail/baby-pillow-2853962185733.html?pos=177&kwd=baby cotton pillow&tags=BA||||8752.144|Price|product|||NA|rsf:gd-|-stype:attr=1|qr_nm:gd|res:RC4|com-cf:nl|ptrs:na|ktp:N0|mc:191315|mtp:S|qry_typ:P|lang:en|wc:3|cs:8885|v=4,Balaji Enterprises,https://www.indiamart.com/balajienterprisesnewdelhindia/?pos=177&kwd=baby cotton pillow&tags=BA||||8752.144|Price|product|||NA|rsf:gd-|-stype:attr=1|qr_nm:gd|res:RC4|com-cf:nl|ptrs:na|ktp:N0|mc:191315|mtp:S|qry_typ:P|lang:en|wc:3|cs:8885|v=4,False,Kondli,New Delhi,"First Floor Kh-197 Village Kondli,Near Panchayat Ghar New East,Pandit Mohalla, Kondli, New Delhi - 110096, Dist.Delhi, Delhi",8044012807,
"Cotton Multicolor Soft Learning Kids Pillow, Shape: Rectangular, Size/Dimension: 16x10 Inch",https://www.indiamart.com/proddetail/soft-learning-kids-pillow-25635430297.html?pos=178&kwd=baby cotton pillow&tags=BB||||8228.275|Price|product|||NA|rsf:gd-|-stype:attr=1|qr_nm:gd|res:RC4|com-cf:nl|ptrs:na|ktp:N0|mc:191315|mtp:S|qry_typ:P|lang:en|wc:3|cs:8885|v=4,Velanto,https://www.indiamart.com/velanto-ahmedabad/?pos=178&kwd=baby cotton pillow&tags=BB||||8228.275|Price|product|||NA|rsf:gd-|-stype:attr=1|qr_nm:gd|res:RC4|com-cf:nl|ptrs:na|ktp:N0|mc:191315|mtp:S|qry_typ:P|lang:en|wc:3|cs:8885|v=4,False,,Ahmedabad,"Vrundavan Residency, Block B, FF-Shop-102, Opp Yogeshwar Park, Nr Shreenathji Ni Haveli, Ahmedabad - 382350, Dist.Ahmedabad, Gujarat",8043855011,
"Blue Rectangular Kids Lurning Pillow / Study Pillow, 3-12 Months",https://www.indiamart.com/proddetail/kids-lurning-pillow-study-pillow-25168242191.html?pos=179&kwd=baby cotton pillow&tags=BB||||8230.883|Price|product|||NA|rsf:gd-|-stype:attr=1|qr_nm:gd|res:RC4|com-cf:nl|ptrs:na|ktp:N0|mc:191315|mtp:S|qry_typ:P|lang:en|wc:3|cs:8885|v=4,Kiran Handicraft,https://www.indiamart.com/kiran-handicraft-surat/?pos=179&kwd=baby cotton pillow&tags=BB||||8230.883|Price|product|||NA|rsf:gd-|-stype:attr=1|qr_nm:gd|res:RC4|com-cf:nl|ptrs:na|ktp:N0|mc:191315|mtp:S|qry_typ:P|lang:en|wc:3|cs:8885|v=4,False,Sanjay Nagar,Surat,"Plot No.-44, 45, Ground Floor And 1st Floor, Siddhi Vinayak Industrial Estate, Laskana, Sanjay Nagar, Surat - 395006, Dist.Surat, Gujarat",8047308089,
Blue And Red Hut Shape Cotton Baby Pillow,https://www.indiamart.com/proddetail/hut-shape-cotton-baby-pillow-25890123455.html?pos=180&kwd=baby cotton pillow&tags=BB||||8752.144|Price|product|||NA|rsf:gd-|-stype:attr=1|qr_nm:gd|res:RC4|com-cf:nl|ptrs:na|ktp:N0|mc:191315|mtp:S|qry_typ:P|lang:en|wc:3|cs:8885|v=4,Aashia Fashion,https://www.indiamart.com/aashia-fashion/?pos=180&kwd=baby cotton pillow&tags=BB||||8752.144|Price|product|||NA|rsf:gd-|-stype:attr=1|qr_nm:gd|res:RC4|com-cf:nl|ptrs:na|ktp:N0|mc:191315|mtp:S|qry_typ:P|lang:en|wc:3|cs:8885|v=4,False,,New Delhi,"A-21 Shiv Vihar, Vikas Nagar Near Rama Sweets, Uttam Nagar, New Delhi - 110059, Dist.Delhi, Delhi",8047676001,
Grey(Base) Rectangular Printed Baby Cotton Pillow,https://www.indiamart.com/proddetail/printed-baby-cotton-pillow-2853456881055.html?pos=181&kwd=baby cotton pillow&tags=BA||||8747.203|Price|product|||NA|rsf:gd-|-stype:attr=1|qr_nm:gd|res:RC4|com-cf:nl|ptrs:na|ktp:N0|mc:191315|mtp:S|qry_typ:P|lang:en|wc:3|cs:8885|v=4,Shine Creation,https://www.indiamart.com/shine-creation-panipat/?pos=181&kwd=baby cotton pillow&tags=BA||||8747.203|Price|product|||NA|rsf:gd-|-stype:attr=1|qr_nm:gd|res:RC4|com-cf:nl|ptrs:na|ktp:N0|mc:191315|mtp:S|qry_typ:P|lang:en|wc:3|cs:8885|v=4,False,Rajiv Colony,Panipat,"Property No 63, Ground Floor, Rajiv Colony, Panipat, Rajiv Colony, Panipat - 132103, Dist.Panipat, Haryana",8045909148,
Baby Cotton Pillow,,Gautam Traders,https://www.indiamart.com/karmagroup-delhi/?pos=182&kwd=baby cotton pillow&tags=BA||||8752.144||product|||NA|rsf:gd-|-stype:attr=1|qr_nm:gd|res:RC4|com-cf:nl|ptrs:na|ktp:N0|mc:191315|mtp:S|qry_typ:P|lang:en|wc:3|cs:8885|v=4,False,Johripur,New Delhi,"Hno. 65,Gali No 3 Tunda Nagar, Johripur, New Delhi - 110094, Dist.Delhi, Delhi",8047837511,
"Multicolor Cartoon Printed Baby Cotton Pillow, Newly Born",https://www.indiamart.com/proddetail/cartoon-printed-baby-cotton-pillow-26185128433.html?pos=183&kwd=baby cotton pillow&tags=BB||||8752.144|Price|product|||NA|rsf:gd-|-stype:attr=1|qr_nm:gd|res:RC4|com-cf:nl|ptrs:na|ktp:N0|mc:191315|mtp:S|qry_typ:P|lang:en|wc:3|cs:8885|v=4,Manchanda Brothers,https://www.indiamart.com/manchandabrothersdelhi/?pos=183&kwd=baby cotton pillow&tags=BB||||8752.144|Price|product|||NA|rsf:gd-|-stype:attr=1|qr_nm:gd|res:RC4|com-cf:nl|ptrs:na|ktp:N0|mc:191315|mtp:S|qry_typ:P|lang:en|wc:3|cs:8885|v=4,False,,New Delhi,"C-358, Ground Floor, Dr.Mukherjee Nagar, Dhaka Johar, North West Delhi, New Delhi - 110009, Dist.Delhi, Delhi",8043856086,
Multicolor Baby Neck Support Pillow,https://www.indiamart.com/proddetail/baby-neck-support-pillow-2853396873330.html?pos=184&kwd=baby cotton pillow&tags=BA||||8207.956|Price|product|||NA|rsf:gd-|-stype:attr=1|qr_nm:gd|res:RC4|com-cf:nl|ptrs:na|ktp:N0|mc:191315|mtp:S|qry_typ:P|lang:en|wc:3|cs:8885|v=4,Daivya Enterprise,https://www.indiamart.com/daivya-enterprise-sanand/?pos=184&kwd=baby cotton pillow&tags=BA||||8207.956|Price|product|||NA|rsf:gd-|-stype:attr=1|qr_nm:gd|res:RC4|com-cf:nl|ptrs:na|ktp:N0|mc:191315|mtp:S|qry_typ:P|lang:en|wc:3|cs:8885|v=4,False,Bol,Sanand,"Shop No-1, Survey No-885, Near Motipura Bus Stand, Bol ,Sanad, GIDC, Bol, Sanand - 382170, Dist.Ahmedabad, Gujarat",7949224901,
"Pure Natural Kapok Cotton Variety colors D S Baby Pillow, For Home, Shape: Rectangular",https://www.indiamart.com/proddetail/d-s-baby-pillow-22820333188.html?pos=185&kwd=baby cotton pillow&tags=BB||||8505.002||product|||NA|rsf:gd-|-stype:attr=1|qr_nm:gd|res:RC4|com-cf:nl|ptrs:na|ktp:N0|mc:191315|mtp:S|qry_typ:P|lang:en|wc:3|cs:8885|v=4,K.V.H. Bed Works,https://www.indiamart.com/kvh-bed-work/?pos=185&kwd=baby cotton pillow&tags=BB||||8505.002||product|||NA|rsf:gd-|-stype:attr=1|qr_nm:gd|res:RC4|com-cf:nl|ptrs:na|ktp:N0|mc:191315|mtp:S|qry_typ:P|lang:en|wc:3|cs:8885|v=4,False,Perinthalmanna,Perinthalmanna,"Vengoor Post, Keezhttur Village, Perinthalmanna, Perinthalmanna - 679325, Dist.Malappuram, Kerala",8047806530,
Multicolor Rectangular Baby Cotton Soft Pillow,https://www.indiamart.com/proddetail/baby-cotton-soft-pillow-2849765630873.html?pos=186&kwd=baby cotton pillow&tags=BB||||8601.347|Price|product|||NA|rsf:gd-|-stype:attr=1|qr_nm:gd|res:RC4|com-cf:nl|ptrs:na|ktp:N0|mc:191315|mtp:S|qry_typ:P|lang:en|wc:3|cs:8885|v=4,Bhagwati Enterprises,https://www.indiamart.com/bhagwati-enterprisesrajasthan/?pos=186&kwd=baby cotton pillow&tags=BB||||8601.347|Price|product|||NA|rsf:gd-|-stype:attr=1|qr_nm:gd|res:RC4|com-cf:nl|ptrs:na|ktp:N0|mc:191315|mtp:S|qry_typ:P|lang:en|wc:3|cs:8885|v=4,False,,Jaipur,"Ground Floor, ARG Murli Heights, Moti Doongri Road, Jaipur - 302004, Dist.Jaipur, Rajasthan",7942795447,
White(Base) U White Printed Baby Cotton Pillow,https://www.indiamart.com/proddetail/white-printed-baby-cotton-pillow-2850548367691.html?pos=187&kwd=baby cotton pillow&tags=BB||||8211.142|Price|product|||NA|rsf:gd-|-stype:attr=1|qr_nm:gd|res:RC4|com-cf:nl|ptrs:na|ktp:N0|mc:191315|mtp:S|qry_typ:P|lang:en|wc:3|cs:8885|v=4,Colours Baby Clothing Co.,https://www.indiamart.com/coloursbabyclothing/?pos=187&kwd=baby cotton pillow&tags=BB||||8211.142|Price|product|||NA|rsf:gd-|-stype:attr=1|qr_nm:gd|res:RC4|com-cf:nl|ptrs:na|ktp:N0|mc:191315|mtp:S|qry_typ:P|lang:en|wc:3|cs:8885|v=4,False,,Mumbai,"1st Floor Gandhi Industrial Estates Poomi Ka Road, Villlage Mohali, Mumbai - 400070, Dist.Mumbai, Maharashtra",8047785453,
"Srf Foam Pillow Disney Kids Pillows, Shape: Rectangular, Size/dimension: 12*18 Inch",https://www.indiamart.com/proddetail/disney-kids-pillows-24266873212.html?pos=188&kwd=baby cotton pillow&tags=BB||||8747.203|Price|product|||NA|rsf:gd-|-stype:attr=1|qr_nm:gd|res:RC4|com-cf:nl|ptrs:na|ktp:N0|mc:191315|mtp:S|qry_typ:P|lang:en|wc:3|cs:8885|v=4,Sri Ram Fabrics,https://www.indiamart.com/sriram-fabrics-panipat/?pos=188&kwd=baby cotton pillow&tags=BB||||8747.203|Price|product|||NA|rsf:gd-|-stype:attr=1|qr_nm:gd|res:RC4|com-cf:nl|ptrs:na|ktp:N0|mc:191315|mtp:S|qry_typ:P|lang:en|wc:3|cs:8885|v=4,False,,Panipat,"173/7 Ram Mandir Wali Gali, Sethi Chowk, Panipat - 132103, Dist.Panipat, Haryana",8047626405,
Soft Baby Pillows,https://www.indiamart.com/proddetail/soft-baby-pillows-23350169233.html?pos=189&kwd=baby cotton pillow&tags=BB||||8646.75|Price|product|||NA|rsf:gd-|-stype:attr=1|qr_nm:gd|res:RC4|com-cf:nl|ptrs:na|ktp:N0|mc:191315|mtp:S|qry_typ:P|lang:en|wc:3|cs:8885|v=4,Chouhan Enterprises,https://www.indiamart.com/chouhan-enterprises-sunam/?pos=189&kwd=baby cotton pillow&tags=BB||||8646.75|Price|product|||NA|rsf:gd-|-stype:attr=1|qr_nm:gd|res:RC4|com-cf:nl|ptrs:na|ktp:N0|mc:191315|mtp:S|qry_typ:P|lang:en|wc:3|cs:8885|v=4,False,Kohliyan Wala Mohalla,Sunam,"Near Hindu Sbha High School, Kohliyan Wala Mohalla, Sunam - 148028, Dist.Sangrur, Punjab",7942613493,
Multicolor U Shape Baby Soft Neck Support Pillow for Head Shaping,https://www.indiamart.com/proddetail/baby-soft-neck-support-pillow-for-head-shaping-25368154812.html?pos=190&kwd=baby cotton pillow&tags=BB||||8785.791|Price|product|||NA|rsf:gd-|-stype:attr=1|qr_nm:gd|res:RC4|com-cf:nl|ptrs:na|ktp:N0|mc:191315|mtp:S|qry_typ:P|lang:en|wc:3|cs:8885|v=4,Future Fashion Enterprises,https://www.indiamart.com/futurefashionenterprises/?pos=190&kwd=baby cotton pillow&tags=BB||||8785.791|Price|product|||NA|rsf:gd-|-stype:attr=1|qr_nm:gd|res:RC4|com-cf:nl|ptrs:na|ktp:N0|mc:191315|mtp:S|qry_typ:P|lang:en|wc:3|cs:8885|v=4,False,,Ghaziabad,"H 268 B,VIJAY NAGAR,SECTOR 12,GHAZIABAD G-290, Sector-63, Noida, U.P. 201301,201012,Ghaziabad, Ghaziabad - 201001, Dist.Ghaziabad, Uttar Pradesh",7942535638,
Bee Baby Head Protector Pillow Orange & Green,https://www.indiamart.com/proddetail/baby-head-protector-pillow-orange-green-2851104855073.html?pos=191&kwd=baby cotton pillow&tags=BB||||8223.226|Price|product|||NA|rsf:gd-|-stype:attr=1|qr_nm:gd|res:RC4|com-cf:nl|ptrs:na|ktp:N0|mc:191315|mtp:S|qry_typ:P|lang:en|wc:3|cs:8885|v=4,Thank You Mommy,https://www.indiamart.com/thank-you-mommy/?pos=191&kwd=baby cotton pillow&tags=BB||||8223.226|Price|product|||NA|rsf:gd-|-stype:attr=1|qr_nm:gd|res:RC4|com-cf:nl|ptrs:na|ktp:N0|mc:191315|mtp:S|qry_typ:P|lang:en|wc:3|cs:8885|v=4,False,,Thane,"1st Floor C Wing Room No. 104 Mumbai Pune Road New Nasheman Apartment, Thane - 400612, Dist.Thane, Maharashtra",8069196750,828
"Yellow(Base) Baby Pillow Set, Cotton",https://www.indiamart.com/proddetail/baby-pillow-set-2853995357197.html?pos=192&kwd=baby cotton pillow&tags=BA||||8723.301|Price|product|||NA|rsf:gd-|-stype:attr=1|qr_nm:gd|res:RC4|com-cf:nl|ptrs:na|ktp:N0|mc:191315|mtp:S|qry_typ:P|lang:en|wc:3|cs:8885|v=4,Lotus Marketing,https://www.indiamart.com/lotusmarketing-bhopal/?pos=192&kwd=baby cotton pillow&tags=BA||||8723.301|Price|product|||NA|rsf:gd-|-stype:attr=1|qr_nm:gd|res:RC4|com-cf:nl|ptrs:na|ktp:N0|mc:191315|mtp:S|qry_typ:P|lang:en|wc:3|cs:8885|v=4,False,Vardhman Green City,Bhopal,"Near Durga Chowk M No-274, Narela Shankery, Vardhman Green City, Bhopal - 462041, Dist.Bhopal, Madhya Pradesh",8044015628,
"Cotton Pink Baby Mosquito Net, For Home, Size: Small",https://www.indiamart.com/proddetail/pink-baby-mosquito-net-2850340949333.html?pos=193&kwd=baby cotton pillow&tags=BB||||8734.695|Price|product|||NA|rsf:gd-|-stype:attr=1|qr_nm:gd|res:RC4|com-cf:nl|ptrs:na|ktp:N0|mc:191315|mtp:S|qry_typ:P|lang:en|wc:3|cs:8885|v=4,Hanu Enterprises,https://www.indiamart.com/hanuenterprisesindia/?pos=193&kwd=baby cotton pillow&tags=BB||||8734.695|Price|product|||NA|rsf:gd-|-stype:attr=1|qr_nm:gd|res:RC4|com-cf:nl|ptrs:na|ktp:N0|mc:191315|mtp:S|qry_typ:P|lang:en|wc:3|cs:8885|v=4,False,,Bahadurgarh,"House No 24/194 Dhola Kua, Bombay Wali Gali, Bahadurgarh - 124507, Dist.Jhajjar, Haryana",8046064096,
U Baby White Cotton Pillow,https://www.indiamart.com/proddetail/baby-white-cotton-pillow-24933134930.html?pos=194&kwd=baby cotton pillow&tags=BB||||8741.812|Price|product|||NA|rsf:gd-|-stype:attr=1|qr_nm:gd|res:RC4|com-cf:nl|ptrs:na|ktp:N0|mc:191315|mtp:S|qry_typ:P|lang:en|wc:3|cs:8885|v=4,Land Of Comfort,https://www.indiamart.com/landofcomfort/?pos=194&kwd=baby cotton pillow&tags=BB||||8741.812|Price|product|||NA|rsf:gd-|-stype:attr=1|qr_nm:gd|res:RC4|com-cf:nl|ptrs:na|ktp:N0|mc:191315|mtp:S|qry_typ:P|lang:en|wc:3|cs:8885|v=4,False,,Gurgaon,"Gali No 3, Anjana Colony, Khandsa, Sector 37, Gurgaon - 122001, Dist.Gurgaon, Haryana",8047304923,
"Foam Plain White Cotton Cushion, For Hotel, Size: 12 X 12 Inch (l X W)",https://www.indiamart.com/proddetail/white-cotton-cushion-2850443816591.html?pos=195&kwd=baby cotton pillow&tags=BB||||8747.203|Price|product|||NA|rsf:gd-|-stype:attr=1|qr_nm:gd|res:RC4|com-cf:nl|ptrs:na|ktp:N0|mc:191315|mtp:S|qry_typ:P|lang:en|wc:3|cs:8885|v=4,Ramvati International,https://www.indiamart.com/ramvati-international/?pos=195&kwd=baby cotton pillow&tags=BB||||8747.203|Price|product|||NA|rsf:gd-|-stype:attr=1|qr_nm:gd|res:RC4|com-cf:nl|ptrs:na|ktp:N0|mc:191315|mtp:S|qry_typ:P|lang:en|wc:3|cs:8885|v=4,False,,Panipat,"Factory At Sanoli Road, Near Sundar Sarup Kutiya, Ward No-8, Panipat - 132103, Dist.Panipat, Haryana",7942822431,
Baby Pillow,,K P Creation,https://www.indiamart.com/k-p-creations-surat/?pos=196&kwd=baby cotton pillow&tags=BA||||8230.883|Price|product|||NA|rsf:gd-|-stype:attr=1|qr_nm:gd|res:RC4|com-cf:nl|ptrs:na|ktp:N0|mc:191315|mtp:S|qry_typ:P|lang:en|wc:3|cs:8885|v=4,False,,Surat,"330 , tulsi arced , mota varachha , near sudama chowk , surat., Surat - 395010, Dist.Surat, Gujarat",8048249731,9170
Baby Cotton Pillow,,Aditya Kids Wear,https://www.indiamart.com/aditya-kids-wear/?pos=197&kwd=baby cotton pillow&tags=BA||||8785.791|Price|product|||NA|rsf:gd-|-stype:attr=1|qr_nm:gd|res:RC4|com-cf:nl|ptrs:na|ktp:N0|mc:191315|mtp:S|qry_typ:P|lang:en|wc:3|cs:8885|v=4,False,,Ghaziabad,"C-322,VIKAS KUNJ,GALI NO-5,Loni 201102, Ghaziabad - 201102, Dist.Ghaziabad, Uttar Pradesh",8047311026,4337
Cotton Baby Pillow,,Shakti Enterprises,https://www.indiamart.com/shaktienterprises-149666000/?pos=198&kwd=baby cotton pillow&tags=BB||||8752.144||product|||NA|rsf:gd-|-stype:attr=1|qr_nm:gd|res:RC4|com-cf:nl|ptrs:na|ktp:N0|mc:191315|mtp:S|qry_typ:P|lang:en|wc:3|cs:8885|v=4,False,Delhi,New Delhi,"X/3046 C, Gali No. 4 Gali No. - 4, Raghubar Pura No. - 2 Uday Pal Gandhi Nagar East Delhi X/3046 C, GALI NO. 4, Uday Pal, Gali no. - 4, Raghubar Pura No. - 2, Gandhi Nagar, East Delhi, Delhi, Delhi, New Delhi - 110031, Dist.Delhi, Delhi",8048250364,974
Baby Side Pillow,,Snugglers Babycare Products LLP,https://www.indiamart.com/snugglers-babycare-products-llp/?pos=199&kwd=baby cotton pillow&tags=BB||||8211.142||product|||NA|rsf:gd-|-stype:attr=1|qr_nm:gd|res:RC4|com-cf:nl|ptrs:na|ktp:N0|mc:191315|mtp:S|qry_typ:P|lang:en|wc:3|cs:8885|v=4,False,,Mumbai,"1st Floor Flat No.f 102 Kondivita Midc, Andheri East Sterling Court, Mumbai - 400059, Dist.Mumbai, Maharashtra",8048372529,523
newborn baby pillow,,Kesree India,https://www.indiamart.com/company/231259651/?pos=200&kwd=baby cotton pillow&tags=BB||||8752.144|Price|product|||NA|rsf:gd-|-stype:attr=1|qr_nm:gd|res:RC4|com-cf:nl|ptrs:na|ktp:N0|mc:191315|mtp:S|qry_typ:P|lang:en|wc:3|cs:8885|v=4,False,,New Delhi,"KH No 80/9, Vashist Encl Baba CLY, Burari Delhi, New Delhi - 110084, Dist.Delhi, Delhi",8048247100,4089
Baby Side Pillow,,Vihan Creation,https://www.indiamart.com/vihan-creation-ankleshwar/?pos=201&kwd=baby cotton pillow&tags=BA||||8255.478|Price|product|||NA|rsf:gd-|-stype:attr=1|qr_nm:gd|res:RC4|com-cf:nl|ptrs:na|ktp:N0|mc:191315|mtp:S|qry_typ:P|lang:en|wc:3|cs:8885|v=4,False,jaldhara chokdi,Ankleshwar,"shahaj complex treet gopal derry, jaldhara chokdi, Ankleshwar - 395010, Dist.Bharuch, Gujarat",8069033737,287
Baby Learning Pillow,,Rivaan Enterprise,https://www.indiamart.com/company/202154207/?pos=202&kwd=baby cotton pillow&tags=BB||||8230.883|Price|product|||NA|rsf:gd-|-stype:attr=1|qr_nm:gd|res:RC4|com-cf:nl|ptrs:na|ktp:N0|mc:191315|mtp:S|qry_typ:P|lang:en|wc:3|cs:8885|v=4,False,Amroli,Surat,"First Floor, 109, 99 Shoping Center, Amroli Sayan Road, Amroli, Surat - 394107, Dist.Surat, Gujarat",8048247104,9716
Pink Pillow For baby Girls,,CC&S Enterprises,https://www.indiamart.com/cc-s-enterprises/?pos=203&kwd=baby cotton pillow&tags=BB||||8752.144||product|||NA|rsf:gd-|-stype:attr=1|qr_nm:gd|res:RC4|com-cf:nl|ptrs:na|ktp:N0|mc:191315|mtp:S|qry_typ:P|lang:en|wc:3|cs:8885|v=4,False,,New Delhi,"L - 12, 42, Sadat Pur Extn , Karawal Nagar, North East, New Delhi - 110094, Dist.Delhi, Delhi",7942843549,
Baby Feeding Armpillow,,Gem Exports,https://www.indiamart.com/gem-exports-karur/?pos=204&kwd=baby cotton pillow&tags=BB||||8706.263|Price|product|||NA|rsf:gd-|-stype:attr=1|qr_nm:gd|res:RC4|com-cf:nl|ptrs:na|ktp:N0|mc:191315|mtp:S|qry_typ:P|lang:en|wc:3|cs:8885|v=4,False,,Karur,"278,279, SUNDARAM NAGAR, ERODE MAIN ROAD, ATHUR POST,, Karur - 639002, Dist.Karur, Tamil Nadu",8069017058,780
Sofa Mini Pillow,,Queen Beds,https://www.indiamart.com/queenbeds-coimbatore/?pos=205&kwd=baby cotton pillow&tags=B||||8584.299|Price|product|||NA|rsf:gd-|-stype:attr=1|qr_nm:gd|res:RC4|com-cf:nl|ptrs:na|ktp:N0|mc:191315|mtp:S|qry_typ:P|lang:en|wc:3|cs:8885|v=4,False,,Coimbatore,"55,,THENDRAL NAGAR,THEETHIPALAYAM 55 Thendral Nagar Theethipalayam P.N Palayam, Coimbatore,641037,, Coimbatore - 641037, Dist.Coimbatore, Tamil Nadu",8048249849,290
Baby Pillow,,Dee Kay Traders,https://www.indiamart.com/dee-kay-traders-panipat/?pos=206&kwd=baby cotton pillow&tags=BB||||8747.203|Price|product|||NA|rsf:gd-|-stype:attr=1|qr_nm:gd|res:RC4|com-cf:nl|ptrs:na|ktp:N0|mc:191315|mtp:S|qry_typ:P|lang:en|wc:3|cs:8885|v=4,False,,Panipat,"Pooja Vihar Colony,Jatal Road,Roshan Properties,Near Gaushala Jattal Road B W Both Rivers,Panipat,Pa, Panipat - 132103, Dist.Panipat, Haryana",8069033769,516
U Baby Cotton Pillow,https://www.indiamart.com/proddetail/baby-cotton-pillow-2852128212312.html?pos=207&kwd=baby cotton pillow&tags=CC||||8747.203||product|||TS|rsf:gd-|-stype:attr=1|qr_nm:gd|res:RC4|com-cf:nl|ptrs:na|ktp:N0|mc:191315|mtp:S|qry_typ:P|lang:en|wc:3|cs:8885|v=4,Karunamayi Textiles,https://www.indiamart.com/karunamayitextiles/?pos=207&kwd=baby cotton pillow&tags=CC||||8747.203||product|||TS|rsf:gd-|-stype:attr=1|qr_nm:gd|res:RC4|com-cf:nl|ptrs:na|ktp:N0|mc:191315|mtp:S|qry_typ:P|lang:en|wc:3|cs:8885|v=4,False,Netaji Colony,Panipat,"19/7, Sethi Road, Netaji Colony, Panipat - 132103, Dist.Panipat, Haryana",8043891244,
"Toytales Plush Linea Baby Pillow, 3-12 Months",https://www.indiamart.com/proddetail/linea-baby-pillow-15304884991.html?pos=208&kwd=baby cotton pillow&tags=CC||||8752.144|Price|product|||TS|rsf:gd-|-stype:attr=1|qr_nm:gd|res:RC4|com-cf:nl|ptrs:na|ktp:N0|mc:191315|mtp:S|qry_typ:P|lang:en|wc:3|cs:8885|v=4,G. G. Enterprises,https://www.ggenterprisestoys.com/?pos=208&kwd=baby cotton pillow&tags=CC||||8752.144|Price|product|||TS|rsf:gd-|-stype:attr=1|qr_nm:gd|res:RC4|com-cf:nl|ptrs:na|ktp:N0|mc:191315|mtp:S|qry_typ:P|lang:en|wc:3|cs:8885|v=4,False,Badli,New Delhi,"Khasra No. 28/24/8, Badli Village, Badli, New Delhi - 110042, Dist.Delhi, Delhi",8048958529,
White U Baby Feeding Pillow,https://www.indiamart.com/proddetail/baby-feeding-pillow-25521932430.html?pos=209&kwd=baby cotton pillow&tags=CC||||8584.299|Price|product|||TS|rsf:gd-|-stype:attr=1|qr_nm:gd|res:RC4|com-cf:nl|ptrs:na|ktp:N0|mc:191315|mtp:S|qry_typ:P|lang:en|wc:3|cs:8885|v=4,Monigaa Shree Bed House,https://www.cosybedandpillowmsbh.com/?pos=209&kwd=baby cotton pillow&tags=CC||||8584.299|Price|product|||TS|rsf:gd-|-stype:attr=1|qr_nm:gd|res:RC4|com-cf:nl|ptrs:na|ktp:N0|mc:191315|mtp:S|qry_typ:P|lang:en|wc:3|cs:8885|v=4,False,Urumandampalayan,Coimbatore,"No. 28-D, 10/162, Sri Ragavendra Colony, GN Mill Post, Urumandampalayan, Coimbatore - 641029, Dist.Coimbatore, Tamil Nadu",8048610786,
"Fur Baby Pink Pillow, Packaging Type: Packet",https://www.indiamart.com/proddetail/baby-pink-pillow-19823393812.html?pos=210&kwd=baby cotton pillow&tags=CC||||8752.144|Price|product|||TS|rsf:gd-|-stype:attr=1|qr_nm:gd|res:RC4|com-cf:nl|ptrs:na|ktp:N0|mc:191315|mtp:S|qry_typ:P|lang:en|wc:3|cs:8885|v=4,Shaifali Traders,https://www.shopphiez.com/?pos=210&kwd=baby cotton pillow&tags=CC||||8752.144|Price|product|||TS|rsf:gd-|-stype:attr=1|qr_nm:gd|res:RC4|com-cf:nl|ptrs:na|ktp:N0|mc:191315|mtp:S|qry_typ:P|lang:en|wc:3|cs:8885|v=4,False,PATPARGANJ,New Delhi,"Plot No 10, main road patparganj ganj, PATPARGANJ, New Delhi - 110091, Dist.Delhi, Delhi",8046033629,
