product_title,product_link,company_name,company_link,is_verified_exporter,city_region,city,address_details,phone_number,phone_number_extension
"Size: Double Velvet White Heart Printed Baby Sleeping Mattress, Thickness: 6 inch",https://www.indiamart.com/proddetail/white-heart-printed-baby-sleeping-mattress-2853733310188.html?pos=1&kwd=baby mattress&tags=A||||8230.883|Price|product|||TS|rsf:gd-|-stype:attr=1|qr_nm:gd|res:RC4|com-cf:nl|ptrs:na|ktp:N0|mc:45465|mtp:S|qry_typ:P|lang:en|wc:2|flavl:0|cs:9603|v=4,Concept Enterprise,https://www.cartforbaby.com/?pos=1&kwd=baby mattress&tags=A||||8230.883|Price|product|||TS|rsf:gd-|-stype:attr=1|qr_nm:gd|res:RC4|com-cf:nl|ptrs:na|ktp:N0|mc:45465|mtp:S|qry_typ:P|lang:en|wc:2|flavl:0|cs:9603|v=4,False,Dabholi,Surat,"17, Bhumi Park Society, Near Dabholi Road, Katargam, Dabholi, Surat - 395004, Dist.Surat, Gujarat",8047546659,
Thickness: 4 Inches Size: Single Newborn Baby Mattress,https://www.indiamart.com/proddetail/newborn-baby-mattress-2850867731788.html?pos=2&kwd=baby mattress&tags=A||||8230.883|Price|product|||TS|rsf:gd-|-stype:attr=1|qr_nm:gd|res:RC4|com-cf:nl|ptrs:na|ktp:N0|mc:45465|mtp:S|qry_typ:P|lang:en|wc:2|flavl:0|cs:9603|v=4,Maa Kiran Handloom & Jiyana,https://www.indiamart.com/maakiranhandloomjiyana/?pos=2&kwd=baby mattress&tags=A||||8230.883|Price|product|||TS|rsf:gd-|-stype:attr=1|qr_nm:gd|res:RC4|com-cf:nl|ptrs:na|ktp:N0|mc:45465|mtp:S|qry_typ:P|lang:en|wc:2|flavl:0|cs:9603|v=4,False,Udhana,Surat,"Shop No.17, Ground Floor, Astha Business Centre, Canal Road,, Udhana, Surat - 394185, Dist.Surat, Gujarat",7942788374,
Rectangular Cotton Baby Mattress,https://www.indiamart.com/proddetail/new-born-baby-mattress-2854880856055.html?pos=3&kwd=baby mattress&tags=A||||8230.883|Price|product|||MDC|rsf:gd-|-stype:attr=1|qr_nm:gd|res:RC4|com-cf:nl|ptrs:na|ktp:N0|mc:45465|mtp:S|qry_typ:P|lang:en|wc:2|flavl:0|cs:9603|v=4,Whopssy International,https://www.indiamart.com/whopssy-international/?pos=3&kwd=baby mattress&tags=A||||8230.883|Price|product|||MDC|rsf:gd-|-stype:attr=1|qr_nm:gd|res:RC4|com-cf:nl|ptrs:na|ktp:N0|mc:45465|mtp:S|qry_typ:P|lang:en|wc:2|flavl:0|cs:9603|v=4,False,,Surat,"First Floor, Plot No. 377, Ram Vatika V-2, Near Rangoli Chowkdi, Sayan Road, Velenja Gam, Sayan, Surat - 394150, Dist.Surat, Gujarat",7949340041,
Cotton Baby Mattress Baby Gym,https://www.indiamart.com/proddetail/baby-mattress-baby-gym-2854098705088.html?pos=4&kwd=baby mattress&tags=A||||8230.883|Price|product|||TS|rsf:gd-|-stype:attr=1|qr_nm:gd|res:RC4|com-cf:nl|ptrs:na|ktp:N0|mc:45465|mtp:S|qry_typ:P|lang:en|wc:2|flavl:0|cs:9603|v=4,Onward Toys,https://www.indiamart.com/onwardtoys/?pos=4&kwd=baby mattress&tags=A||||8230.883|Price|product|||TS|rsf:gd-|-stype:attr=1|qr_nm:gd|res:RC4|com-cf:nl|ptrs:na|ktp:N0|mc:45465|mtp:S|qry_typ:P|lang:en|wc:2|flavl:0|cs:9603|v=4,False,Kamrej,Surat,"Plot No-82, Sidhdhivinayak Ind Estate, Kholvad, Sub Post Office, Kamrej,, Kamrej, Surat - 394180, Dist.Surat, Gujarat",8044561719,
Multicolor Cotton Newborn Baby Mattress,https://www.indiamart.com/proddetail/newborn-baby-mattress-2854900388648.html?pos=5&kwd=baby mattress&tags=A||||8230.883||product|||TS|rsf:gd-|-stype:attr=1|qr_nm:gd|res:RC4|com-cf:nl|ptrs:na|ktp:N0|mc:45465|mtp:S|qry_typ:P|lang:en|wc:2|flavl:0|cs:9603|v=4,Jani Collection,https://www.indiamart.com/janicollection/?pos=5&kwd=baby mattress&tags=A||||8230.883||product|||TS|rsf:gd-|-stype:attr=1|qr_nm:gd|res:RC4|com-cf:nl|ptrs:na|ktp:N0|mc:45465|mtp:S|qry_typ:P|lang:en|wc:2|flavl:0|cs:9603|v=4,False,Katargam,Surat,"H.No. F.F., Plot 30-31, Parsottam Nagar, Idghawad, B/h Manavdharam Ashram, Gotalawadi, Katargam, Surat - 395003, Dist.Surat, Gujarat",8044562060,
Size: Single Baby Mattress With Net,https://www.indiamart.com/proddetail/baby-mattress-with-net-2853097318088.html?pos=6&kwd=baby mattress&tags=A||||9839.57|Price|product|||MDC|rsf:gd-|-stype:attr=1|qr_nm:gd|res:RC4|com-cf:nl|ptrs:na|ktp:N0|mc:45465|mtp:S|qry_typ:P|lang:en|wc:2|flavl:0|cs:9603|v=4,Suman Mosquito Net,https://www.indiamart.com/suman-mosquito-net/?pos=6&kwd=baby mattress&tags=A||||9839.57|Price|product|||MDC|rsf:gd-|-stype:attr=1|qr_nm:gd|res:RC4|com-cf:nl|ptrs:na|ktp:N0|mc:45465|mtp:S|qry_typ:P|lang:en|wc:2|flavl:0|cs:9603|v=4,False,Hadia,Kolkata,"58/2/409, East Bidyadharpur, Shyamnagar North Twenty Four Parganas, Hadia, Kolkata - 743127, Dist.Kolkata, West Bengal",8047621063,
"Thick Fibre Fill Cotton Baby Mattress Set, Packaging Type: Plastic Bag, Model Name/number: Chevron Stripe",https://www.indiamart.com/proddetail/baby-mattress-set-13874961055.html?pos=7&kwd=baby mattress&tags=BA||||8778.123|Price|product|||TS|rsf:gd-|-stype:attr=1|qr_nm:gd|res:RC4|com-cf:nl|ptrs:na|ktp:N0|mc:45465|mtp:S|qry_typ:P|lang:en|wc:2|flavl:0|cs:9603|v=4,Oscar Overseas,https://www.oscar-india.com/?pos=7&kwd=baby mattress&tags=BA||||8778.123|Price|product|||TS|rsf:gd-|-stype:attr=1|qr_nm:gd|res:RC4|com-cf:nl|ptrs:na|ktp:N0|mc:45465|mtp:S|qry_typ:P|lang:en|wc:2|flavl:0|cs:9603|v=4,False,,Noida,"A-99 Sector 5, Noida - 201301, Dist.Gautam Budh Nagar, Uttar Pradesh",8046058290,
Size: Single Cotton Baby Mattress Set,https://www.indiamart.com/proddetail/baby-mattress-set-2853000621955.html?pos=8&kwd=baby mattress&tags=A||||8228.275||product|||MDC|rsf:gd-|-stype:attr=1|qr_nm:gd|res:RC4|com-cf:nl|ptrs:na|ktp:N0|mc:45465|mtp:S|qry_typ:P|lang:en|wc:2|flavl:0|cs:9603|v=4,Mahalaxmi Babycare Products LLP,https://www.indiamart.com/mahalaxmibabycareproducts/?pos=8&kwd=baby mattress&tags=A||||8228.275||product|||MDC|rsf:gd-|-stype:attr=1|qr_nm:gd|res:RC4|com-cf:nl|ptrs:na|ktp:N0|mc:45465|mtp:S|qry_typ:P|lang:en|wc:2|flavl:0|cs:9603|v=4,False,Bapunagar,Ahmedabad,"Survey No. 00697/4585, B No 697/4585 Gujarat Hou Board, Bapunagar, Bapunagar, Ahmedabad - 382424, Dist.Ahmedabad, Gujarat",8047787256,
"Cotton Baby Sleeping Mattress, Newly Born",https://www.indiamart.com/proddetail/green-cotton-baby-sleeping-mattress-2854921946448.html?pos=9&kwd=baby mattress&tags=A||||8876.815|Price|product|||MDC|rsf:gd-|-stype:attr=1|qr_nm:gd|res:RC4|com-cf:nl|ptrs:na|ktp:N0|mc:45465|mtp:S|qry_typ:P|lang:en|wc:2|flavl:0|cs:9603|v=4,Good Luck Trading,https://www.indiamart.com/goodlucktrading-nagpur/?pos=9&kwd=baby mattress&tags=A||||8876.815|Price|product|||MDC|rsf:gd-|-stype:attr=1|qr_nm:gd|res:RC4|com-cf:nl|ptrs:na|ktp:N0|mc:45465|mtp:S|qry_typ:P|lang:en|wc:2|flavl:0|cs:9603|v=4,False,,Nagpur,"Plot No. 807, Dharamchaya Fawara Chowk Builing, Nikalas Mandir Road, Itwari, Nagpur - 440002, Dist.Nagpur, Maharashtra",8041014474,
"Size: Single Cotton Soft Baby Sleeping Mattress Set, Thickness: 2 inch",https://www.indiamart.com/proddetail/cotton-soft-baby-sleeping-mattress-set-2853455163455.html?pos=10&kwd=baby mattress&tags=A||||8230.883|Price|product|||MDC|rsf:gd-|-stype:attr=1|qr_nm:gd|res:RC4|com-cf:nl|ptrs:na|ktp:N0|mc:45465|mtp:S|qry_typ:P|lang:en|wc:2|flavl:0|cs:9603|v=4,Riyo Enterprise,https://www.indiamart.com/riyo-enterprise-surat/?pos=10&kwd=baby mattress&tags=A||||8230.883|Price|product|||MDC|rsf:gd-|-stype:attr=1|qr_nm:gd|res:RC4|com-cf:nl|ptrs:na|ktp:N0|mc:45465|mtp:S|qry_typ:P|lang:en|wc:2|flavl:0|cs:9603|v=4,False,Punagam,Surat,"Ground Floor, A-228, Narayannagar Society, Punagam Road, Nalanda Vidhyalay, Punagam, Punagam, Surat - 395010, Dist.Surat, Gujarat",8045910533,
Newborn Baby Mattress,https://www.indiamart.com/proddetail/newborn-baby-mattress-2854231963173.html?pos=11&kwd=baby mattress&tags=A||||8230.883|Price|product|||TS|rsf:gd-|-stype:attr=1|qr_nm:gd|res:RC4|com-cf:nl|ptrs:na|ktp:N0|mc:45465|mtp:S|qry_typ:P|lang:en|wc:2|flavl:0|cs:9603|v=4,BABYHOLIC,https://www.babyholic.in/?pos=11&kwd=baby mattress&tags=A||||8230.883|Price|product|||TS|rsf:gd-|-stype:attr=1|qr_nm:gd|res:RC4|com-cf:nl|ptrs:na|ktp:N0|mc:45465|mtp:S|qry_typ:P|lang:en|wc:2|flavl:0|cs:9603|v=4,False,,Surat,"Ground Floor, Plot No. F/56/, And F/57, Laxmi Narayan Industrial Estate, Udhana, Kailash Fashion, Surat - 394210, Dist.Surat, Gujarat",8045732096,
Blue Rectangular Baby Gadda Mattress Sets,https://www.indiamart.com/proddetail/baby-gadda-mattress-sets-20096327955.html?pos=12&kwd=baby mattress&tags=A||||8752.144|Price|product|||TS|rsf:gd-|-stype:attr=1|qr_nm:gd|res:RC4|com-cf:nl|ptrs:na|ktp:N0|mc:45465|mtp:S|qry_typ:P|lang:en|wc:2|flavl:0|cs:9603|v=4,Gyasi Ram & Sons,https://www.indiamart.com/gyasi-ram-sons/?pos=12&kwd=baby mattress&tags=A||||8752.144|Price|product|||TS|rsf:gd-|-stype:attr=1|qr_nm:gd|res:RC4|com-cf:nl|ptrs:na|ktp:N0|mc:45465|mtp:S|qry_typ:P|lang:en|wc:2|flavl:0|cs:9603|v=4,False,Sadar Bazaar,New Delhi,"No. 459, Main Road, Sadar Bazar, Sadar Bazaar, New Delhi - 110006, Dist.Delhi, Delhi",8043865798,
Knitted Baby Mattress,https://www.indiamart.com/proddetail/knitted-baby-mattress-2853931458530.html?pos=13&kwd=baby mattress&tags=A||||8228.275|Price|product|||MDC|rsf:gd-|-stype:attr=1|qr_nm:gd|res:RC4|com-cf:nl|ptrs:na|ktp:N0|mc:45465|mtp:S|qry_typ:P|lang:en|wc:2|flavl:0|cs:9603|v=4,Srinath Knitting,https://www.indiamart.com/srinath-knitting/?pos=13&kwd=baby mattress&tags=A||||8228.275|Price|product|||MDC|rsf:gd-|-stype:attr=1|qr_nm:gd|res:RC4|com-cf:nl|ptrs:na|ktp:N0|mc:45465|mtp:S|qry_typ:P|lang:en|wc:2|flavl:0|cs:9603|v=4,False,Kuber Nagar,Ahmedabad,"Shop No 69, Saijpur Bhoga, New Bunglow Area, A- Ward, Kuber Nagar, Ahmedabad - 382340, Dist.Ahmedabad, Gujarat",8044561219,
Thickness: 4 Inches Single Bed Baby Cotton Mattress,https://www.indiamart.com/proddetail/baby-cotton-mattress-2850616641812.html?pos=14&kwd=baby mattress&tags=BA||||8211.142||product|||TS|rsf:gd-|-stype:attr=1|qr_nm:gd|res:RC4|com-cf:nl|ptrs:na|ktp:N0|mc:45465|mtp:S|qry_typ:P|lang:en|wc:2|flavl:0|cs:9603|v=4,Child King Creation,https://www.indiamart.com/childkingcreation-mumbai/?pos=14&kwd=baby mattress&tags=BA||||8211.142||product|||TS|rsf:gd-|-stype:attr=1|qr_nm:gd|res:RC4|com-cf:nl|ptrs:na|ktp:N0|mc:45465|mtp:S|qry_typ:P|lang:en|wc:2|flavl:0|cs:9603|v=4,False,Malad West,Mumbai,"B 705, Seven Floor, Jagmagia Centre, Mamlatdar Wadi EXTN Road Nahar Nagar, Malad West, Suburban, Malad West, Mumbai - 400064, Dist.Mumbai, Maharashtra",8043805922,
Cotton Square Peach Baby Mattress,https://www.indiamart.com/proddetail/peach-baby-mattress-2854493369030.html?pos=15&kwd=baby mattress&tags=BA||||8747.203|Price|product|||MDC|rsf:gd-|-stype:attr=1|qr_nm:gd|res:RC4|com-cf:nl|ptrs:na|ktp:N0|mc:45465|mtp:S|qry_typ:P|lang:en|wc:2|cs:8840|v=4,Gandhi Wooltex,https://www.indiamart.com/gandhiwooltex/?pos=15&kwd=baby mattress&tags=BA||||8747.203|Price|product|||MDC|rsf:gd-|-stype:attr=1|qr_nm:gd|res:RC4|com-cf:nl|ptrs:na|ktp:N0|mc:45465|mtp:S|qry_typ:P|lang:en|wc:2|cs:8840|v=4,False,,Panipat,"H No. 538, Sector 12, Huda, Panipat - 132103, Dist.Panipat, Haryana",7949338841,
Baby Soft Mattress,https://www.indiamart.com/proddetail/baby-soft-mattress-2852769427788.html?pos=16&kwd=baby mattress&tags=BA||||8307.81||product|||MDC|rsf:gd-|-stype:attr=1|qr_nm:gd|res:RC4|com-cf:nl|ptrs:na|ktp:N0|mc:45465|mtp:S|qry_typ:P|lang:en|wc:2|cs:8840|v=4,Shakti Mattresses,https://www.indiamart.com/shakti-mattresses/?pos=16&kwd=baby mattress&tags=BA||||8307.81||product|||MDC|rsf:gd-|-stype:attr=1|qr_nm:gd|res:RC4|com-cf:nl|ptrs:na|ktp:N0|mc:45465|mtp:S|qry_typ:P|lang:en|wc:2|cs:8840|v=4,False,Undri,Pune,"Hissa No 2B/E, Inamdar Nagar, Survey No 63, Hadapsar, Undri, Pune - 411028, Dist.Pune, Maharashtra",7942708150,
"Cotton Baby Mattress, Packaging Type: Plastic Bag",https://www.indiamart.com/proddetail/cotton-baby-mattress-24284112833.html?pos=17&kwd=baby mattress&tags=BA||||8228.275|Price|product|||TS|rsf:gd-|-stype:attr=1|qr_nm:gd|res:RC4|com-cf:nl|ptrs:na|ktp:N0|mc:45465|mtp:S|qry_typ:P|lang:en|wc:2|cs:8840|v=4,Panchratna Handicraft,https://www.indiamart.com/panchratnahadicraft/?pos=17&kwd=baby mattress&tags=BA||||8228.275|Price|product|||TS|rsf:gd-|-stype:attr=1|qr_nm:gd|res:RC4|com-cf:nl|ptrs:na|ktp:N0|mc:45465|mtp:S|qry_typ:P|lang:en|wc:2|cs:8840|v=4,False,Nikol,Ahmedabad,"33, Ishwarkrupa Society, Opposite Jivanwadi, Nikol Gam Road, Nikol, Nikol, Ahmedabad - 382350, Dist.Ahmedabad, Gujarat",8048980894,
Thickness: 4 Inches Size: Single Hello Kitty Printed Baby Mattress,https://www.indiamart.com/proddetail/hello-kitty-printed-baby-mattress-2851012562955.html?pos=18&kwd=baby mattress&tags=BA||||9571.5205|Price|product|||MDC|rsf:gd-|-stype:attr=1|qr_nm:gd|res:RC4|com-cf:nl|ptrs:na|ktp:N0|mc:45465|mtp:S|qry_typ:P|lang:en|wc:2|cs:8840|v=4,Aroma Industries,https://www.indiamart.com/aromaindustriespuri/?pos=18&kwd=baby mattress&tags=BA||||9571.5205|Price|product|||MDC|rsf:gd-|-stype:attr=1|qr_nm:gd|res:RC4|com-cf:nl|ptrs:na|ktp:N0|mc:45465|mtp:S|qry_typ:P|lang:en|wc:2|cs:8840|v=4,False,Siula,Puri,"Dandamakundapur, Pipili, Siula, Puri - 752104, Dist.Puri, Odisha",7942828760,
"Printed Newborn Baby Cotton Sheet, Mix colour",https://www.indiamart.com/proddetail/newborn-baby-cotton-sheet-24326784962.html?pos=19&kwd=baby mattress&tags=A||||9140.514|Price|product|||MDC|rsf:gd-|-stype:attr=1|qr_nm:gd|res:RC4|com-cf:nl|ptrs:na|ktp:N0|mc:45465|mtp:S|qry_typ:P|lang:en|wc:2|cs:8840|v=4,Shivay Trading & Manufacturing,https://www.indiamart.com/shivaytradingmanufacturing/?pos=19&kwd=baby mattress&tags=A||||9140.514|Price|product|||MDC|rsf:gd-|-stype:attr=1|qr_nm:gd|res:RC4|com-cf:nl|ptrs:na|ktp:N0|mc:45465|mtp:S|qry_typ:P|lang:en|wc:2|cs:8840|v=4,False,Pandri,Raipur,"Plot No.94, First Floor, Indira Gandhi Vyavsayik Parisar, Cloth Market, Pandri, Pandri, Raipur - 492001, Chhattisgarh",8044012762,
"Plain Cotton Baby Dry Sheet Waterproof Medium Size, Blue",https://www.indiamart.com/proddetail/cotton-baby-dry-sheet-waterproof-medium-size-2850468131755.html?pos=20&kwd=baby mattress&tags=BA||||8752.144|Price|product|||TS|rsf:gd-|-stype:attr=1|qr_nm:gd|res:RC4|com-cf:nl|ptrs:na|ktp:N0|mc:45465|mtp:S|qry_typ:P|lang:en|wc:2|cs:8840|v=4,R B Enterprises,https://www.indiamart.com/rbenterpriseskondalinewdelhi/?pos=20&kwd=baby mattress&tags=BA||||8752.144|Price|product|||TS|rsf:gd-|-stype:attr=1|qr_nm:gd|res:RC4|com-cf:nl|ptrs:na|ktp:N0|mc:45465|mtp:S|qry_typ:P|lang:en|wc:2|cs:8840|v=4,False,Gharoli,New Delhi,"Ground, 58 F/F/R/S Brahman Basti, Kondli Main Road, Kondli Gharoli,, Gharoli, New Delhi - 110094, Dist.Delhi, Delhi",7942535965,
Cotton Baby Mattress Mosquito Net,https://www.indiamart.com/proddetail/baby-mattress-mosquito-net-24885844388.html?pos=21&kwd=baby mattress&tags=BA||||8954.051|Price|product|||MDC|rsf:gd-|-stype:attr=1|qr_nm:gd|res:RC4|com-cf:nl|ptrs:na|ktp:N0|mc:45465|mtp:S|qry_typ:P|lang:en|wc:2|cs:8840|v=4,Adhoniyah,https://www.indiamart.com/adhoniyah/?pos=21&kwd=baby mattress&tags=BA||||8954.051|Price|product|||MDC|rsf:gd-|-stype:attr=1|qr_nm:gd|res:RC4|com-cf:nl|ptrs:na|ktp:N0|mc:45465|mtp:S|qry_typ:P|lang:en|wc:2|cs:8840|v=4,False,Jamalia,Chennai,"Ground Floor,5/4,Strahans Road I St Street,Otteri, Jamalia, Chennai - 600012, Dist.Chennai, Tamil Nadu",8048274134,
3 Colours Baby Mattress Set,https://www.indiamart.com/proddetail/baby-mattress-set-4498191630.html?pos=22&kwd=baby mattress&tags=BA||||8211.142|Price|product|||TS|rsf:gd-|-stype:attr=1|qr_nm:gd|res:RC4|com-cf:nl|ptrs:na|ktp:N0|mc:45465|mtp:S|qry_typ:P|lang:en|wc:2|cs:8840|v=4,Dhrupti Creation,https://www.indiamart.com/littlecare/?pos=22&kwd=baby mattress&tags=BA||||8211.142|Price|product|||TS|rsf:gd-|-stype:attr=1|qr_nm:gd|res:RC4|com-cf:nl|ptrs:na|ktp:N0|mc:45465|mtp:S|qry_typ:P|lang:en|wc:2|cs:8840|v=4,False,Malad East,Mumbai,"Gala No. 3, Jignesh Diamond House, Near Vaishnavdevi Mandir, Subhash Lane, Malad East, Malad East, Mumbai - 400097, Dist.Mumbai, Maharashtra",8048970316,
Comfort Female Baby Bed Mattress,https://www.indiamart.com/proddetail/baby-bed-mattress-21353228488.html?pos=23&kwd=baby mattress&tags=BA||||8211.142|Price|product|||TS|rsf:gd-|-stype:attr=1|qr_nm:gd|res:RC4|com-cf:nl|ptrs:na|ktp:N0|mc:45465|mtp:S|qry_typ:P|lang:en|wc:2|cs:8840|v=4,Comfort Mattresses Mfg.Co.,https://www.comfortfoam.co.in/?pos=23&kwd=baby mattress&tags=BA||||8211.142|Price|product|||TS|rsf:gd-|-stype:attr=1|qr_nm:gd|res:RC4|com-cf:nl|ptrs:na|ktp:N0|mc:45465|mtp:S|qry_typ:P|lang:en|wc:2|cs:8840|v=4,False,Masjid Bandar,Mumbai,"63/65,COMMERCIAL CHAMBERS, Commercial Chamber, Ground Floor, Masjid Bandar, Mumbai - 400003, Dist.Mumbai, Maharashtra",8046044530,
"Baby Soft Mattress, 1-2 Years",https://www.indiamart.com/proddetail/baby-soft-mattress-2851939420573.html?pos=24&kwd=baby mattress&tags=BA||||8211.142|Price|product|||TS|rsf:gd-|-stype:attr=1|qr_nm:gd|res:RC4|com-cf:nl|ptrs:na|ktp:N0|mc:45465|mtp:S|qry_typ:P|lang:en|wc:2|cs:8840|v=4,White House Toys,https://www.indiamart.com/whitehousetoys/?pos=24&kwd=baby mattress&tags=BA||||8211.142|Price|product|||TS|rsf:gd-|-stype:attr=1|qr_nm:gd|res:RC4|com-cf:nl|ptrs:na|ktp:N0|mc:45465|mtp:S|qry_typ:P|lang:en|wc:2|cs:8840|v=4,False,Town Hall,Mumbai,"95 bhaji Pala lane shop No.3 Ground Floor Opp.cosmo MKT.ABDU REHMANS STREET,CROSS LANE, MUMBAI Modern Toy Mumbai, Town Hall, Mumbai - 400001, Dist.Mumbai, Maharashtra",7942869160,
"Cradle size POLYFILL Baby Gadda Mattress Set, Packaging Type: PVC BAG WITH ZIPPER, Model Name/Number: 908",https://www.indiamart.com/proddetail/baby-gadda-mattress-set-24420385333.html?pos=25&kwd=baby mattress&tags=BB||||8752.144|Price|product|||TS|rsf:gd-|-stype:attr=1|qr_nm:gd|res:RC4|com-cf:nl|ptrs:na|ktp:N0|mc:45465|mtp:S|qry_typ:P|lang:en|wc:2|cs:8840|v=4,Man Singh & Sons Private Limited,https://www.babyproductsmanufacturer.com/?pos=25&kwd=baby mattress&tags=BB||||8752.144|Price|product|||TS|rsf:gd-|-stype:attr=1|qr_nm:gd|res:RC4|com-cf:nl|ptrs:na|ktp:N0|mc:45465|mtp:S|qry_typ:P|lang:en|wc:2|cs:8840|v=4,False,Karol Bagh,New Delhi,"No. 13/24, 1st Floor, W. E. A., Karol Bagh, Karol Bagh, New Delhi - 110005, Dist.Delhi, Delhi",8048978579,
Single Bed Foam Baby Mosquito Net Foldable Mattress,https://www.indiamart.com/proddetail/baby-mosquito-net-foldable-mattress-11906892412.html?pos=26&kwd=baby mattress&tags=BB||||8752.144|Price|product|||TS|rsf:gd-|-stype:attr=1|qr_nm:gd|res:RC4|com-cf:nl|ptrs:na|ktp:N0|mc:45465|mtp:S|qry_typ:P|lang:en|wc:2|cs:8840|v=4,Chinmay Kids,https://www.indiamart.com/chinmaykids/?pos=26&kwd=baby mattress&tags=BB||||8752.144|Price|product|||TS|rsf:gd-|-stype:attr=1|qr_nm:gd|res:RC4|com-cf:nl|ptrs:na|ktp:N0|mc:45465|mtp:S|qry_typ:P|lang:en|wc:2|cs:8840|v=4,False,Nayagaon,New Delhi,"C-99, Street No. 4, First Pusta, Nayagaon, New Delhi - 110053, Dist.Delhi, Delhi",8046054858,
Plastic & Fabric Baby Tent Mattress,https://www.indiamart.com/proddetail/baby-tent-mattress-23771653391.html?pos=27&kwd=baby mattress&tags=BA||||8752.144|Price|product|||TS|rsf:gd-|-stype:attr=1|qr_nm:gd|res:RC4|com-cf:nl|ptrs:na|ktp:N0|mc:45465|mtp:S|qry_typ:P|lang:en|wc:2|cs:8840|v=4,National Overseas,https://www.indiamart.com/nationaltraders-vishwashnagar/?pos=27&kwd=baby mattress&tags=BA||||8752.144|Price|product|||TS|rsf:gd-|-stype:attr=1|qr_nm:gd|res:RC4|com-cf:nl|ptrs:na|ktp:N0|mc:45465|mtp:S|qry_typ:P|lang:en|wc:2|cs:8840|v=4,False,Shahdara,New Delhi,"1/99, Gali No. 3, Vishwas Nagar, Shahdara, New Delhi - 110032, Dist.Delhi, Delhi",8046047673,
Baby Mattress In Bangalore,https://www.indiamart.com/proddetail/baby-mattress-in-bangalore-20828030333.html?pos=28&kwd=baby mattress&tags=BB||||8663.873||product|||TS|rsf:gd-|-stype:attr=1|qr_nm:gd|res:RC4|com-cf:nl|ptrs:na|ktp:N0|mc:45465|mtp:S|qry_typ:P|lang:en|wc:2|cs:8840|v=4,Karnataka Mattress And Furnishing,https://www.indiamart.com/karnatakafurnishings/?pos=28&kwd=baby mattress&tags=BB||||8663.873||product|||TS|rsf:gd-|-stype:attr=1|qr_nm:gd|res:RC4|com-cf:nl|ptrs:na|ktp:N0|mc:45465|mtp:S|qry_typ:P|lang:en|wc:2|cs:8840|v=4,False,Adugodi,Bengaluru,"No. 66/3-2, Laskar Hosur Main Road, Adugodi, Bengaluru - 560030, Dist.Bengaluru, Karnataka",8046048553,
Tiger scin print baby gadda,https://www.indiamart.com/proddetail/tiger-scin-print-baby-gadda-2853322602562.html?pos=29&kwd=baby mattress&tags=BA||||8752.144|Price|product|||TS|rsf:gd-|-stype:attr=1|qr_nm:gd|res:RC4|com-cf:nl|ptrs:na|ktp:N0|mc:45465|mtp:S|qry_typ:P|lang:en|wc:2|cs:8840|v=4,Bankey Bihari Enterprises,https://www.indiamart.com/bankey-bihari-enterprisesnewdelhi/?pos=29&kwd=baby mattress&tags=BA||||8752.144|Price|product|||TS|rsf:gd-|-stype:attr=1|qr_nm:gd|res:RC4|com-cf:nl|ptrs:na|ktp:N0|mc:45465|mtp:S|qry_typ:P|lang:en|wc:2|cs:8840|v=4,False,Jahangirpuri,New Delhi,"Plot No 51 First Floor Street No 11 Harijan Colony Village Bhalsva, Jahangirpuri, New Delhi - 110033, Dist.Delhi, Delhi",7942825166,
Baby Mattress,https://www.indiamart.com/proddetail/baby-mattress-2854218794912.html?pos=30&kwd=baby mattress&tags=BA||||8661.854|Price|product|||MDC|rsf:gd-|-stype:attr=1|qr_nm:gd|res:RC4|com-cf:nl|ptrs:na|ktp:N0|mc:45465|mtp:S|qry_typ:P|lang:en|wc:2|cs:8840|v=4,Raj Industries,https://www.indiamart.com/raj-industries-punjab/?pos=30&kwd=baby mattress&tags=BA||||8661.854|Price|product|||MDC|rsf:gd-|-stype:attr=1|qr_nm:gd|res:RC4|com-cf:nl|ptrs:na|ktp:N0|mc:45465|mtp:S|qry_typ:P|lang:en|wc:2|cs:8840|v=4,False,,Ludhiana,"H. No B 12 629, Kucha Anayat, Nr Div No 2 Brown Road, Ludhiana - 141008, Dist.Ludhiana, Punjab",7942800347,
"Pan Godadi Baby Mattress, Size: Single",https://www.indiamart.com/proddetail/pan-godadi-baby-mattress-2853987290562.html?pos=31&kwd=baby mattress&tags=BA||||8228.275|Price|product|||MDC|rsf:gd-|-stype:attr=1|qr_nm:gd|res:RC4|com-cf:nl|ptrs:na|ktp:N0|mc:45465|mtp:S|qry_typ:P|lang:en|wc:2|cs:8840|v=4,Fashionmart India,https://www.indiamart.com/fashionmart-india/?pos=31&kwd=baby mattress&tags=BA||||8228.275|Price|product|||MDC|rsf:gd-|-stype:attr=1|qr_nm:gd|res:RC4|com-cf:nl|ptrs:na|ktp:N0|mc:45465|mtp:S|qry_typ:P|lang:en|wc:2|cs:8840|v=4,False,Parshwanath Township,Ahmedabad,"BH-Rajiv Park, On Canal, Krishna Nagar, 10, Narnarayan Park, Nala Road, Amul Milk, Naroda, Parshwanath Township, Ahmedabad - 382345, Dist.Ahmedabad, Gujarat",8044564853,
Cotton Newborn Baby Mattress,https://www.indiamart.com/proddetail/newborn-baby-mattress-24316594688.html?pos=32&kwd=baby mattress&tags=BA||||8228.275|Price|product|||MDC|rsf:gd-|-stype:attr=1|qr_nm:gd|res:RC4|com-cf:nl|ptrs:na|ktp:N0|mc:45465|mtp:S|qry_typ:P|lang:en|wc:2|cs:8840|v=4,Sanskriti Inc,https://www.indiamart.com/sanskriti-inc/?pos=32&kwd=baby mattress&tags=BA||||8228.275|Price|product|||MDC|rsf:gd-|-stype:attr=1|qr_nm:gd|res:RC4|com-cf:nl|ptrs:na|ktp:N0|mc:45465|mtp:S|qry_typ:P|lang:en|wc:2|cs:8840|v=4,False,Nikol,Ahmedabad,"Shop No-26, Surjit Co Op H Soc Ltd, Nr. India Colony, Nikol Road, Nikol, Ahmedabad - 382350, Dist.Ahmedabad, Gujarat",8046047726,
Size: Single Baby Bed Mattress,https://www.indiamart.com/proddetail/baby-bed-mattress-2852735255891.html?pos=33&kwd=baby mattress&tags=BA||||8752.144|Price|product|||MDC|rsf:gd-|-stype:attr=1|qr_nm:gd|res:RC4|com-cf:nl|ptrs:na|ktp:N0|mc:45465|mtp:S|qry_typ:P|lang:en|wc:2|cs:8840|v=4,Rajlaxmi Foam Enterprises,https://www.indiamart.com/rajlaxmifoamenterprises/?pos=33&kwd=baby mattress&tags=BA||||8752.144|Price|product|||MDC|rsf:gd-|-stype:attr=1|qr_nm:gd|res:RC4|com-cf:nl|ptrs:na|ktp:N0|mc:45465|mtp:S|qry_typ:P|lang:en|wc:2|cs:8840|v=4,False,Karawal Nagar,New Delhi,"121, Maha Laxmi Vihar Main Road Karawal Nagar, Karawal Nagar, New Delhi - 110094, Dist.Delhi, Delhi",8048954221,
Thickness: 4 inch Size/Dimension: 4x6 feet Classic Printed Mattress,https://www.indiamart.com/proddetail/classic-printed-mattress-24128946397.html?pos=34&kwd=baby mattress&tags=BA||||8210.732|Price|product|||TS|rsf:gd-|-stype:attr=1|qr_nm:gd|res:RC4|com-cf:nl|ptrs:na|ktp:N0|mc:45465|mtp:S|qry_typ:P|lang:en|wc:2|cs:8840|v=4,Mayur Steel,https://www.mayursteel.in/?pos=34&kwd=baby mattress&tags=BA||||8210.732|Price|product|||TS|rsf:gd-|-stype:attr=1|qr_nm:gd|res:RC4|com-cf:nl|ptrs:na|ktp:N0|mc:45465|mtp:S|qry_typ:P|lang:en|wc:2|cs:8840|v=4,False,Nalasopara East,Vasai,"Narayan Building, Dhamelpada Vasai East, Nalasopara East, Vasai - 401208, Dist.Thane, Maharashtra",8048968950,
"Beddy Nest Mattress, Thickness: 4 Inch, Model Number: BN001",https://www.indiamart.com/proddetail/beddy-nest-mattress-20879840473.html?pos=35&kwd=baby mattress&tags=BB||||8788.159|Price|product|||TS|rsf:gd-|-stype:attr=1|qr_nm:gd|res:RC4|com-cf:nl|ptrs:na|ktp:N0|mc:45465|mtp:S|qry_typ:P|lang:en|wc:2|cs:8840|v=4,Poonam Enterprriz,https://www.poonamenterprriz.com/?pos=35&kwd=baby mattress&tags=BB||||8788.159|Price|product|||TS|rsf:gd-|-stype:attr=1|qr_nm:gd|res:RC4|com-cf:nl|ptrs:na|ktp:N0|mc:45465|mtp:S|qry_typ:P|lang:en|wc:2|cs:8840|v=4,False,East Marredpally,Secunderabad,"Shop No. G/6, Ground Floor, Laxmi Plaza, East Marredpally, Secunderabad - 500015, Dist.Hyderabad, Telangana",8048954363,
"Size: Single Newborn Cotton Baby Mattress, Thickness: 4 inch",https://www.indiamart.com/proddetail/newborn-cotton-baby-mattress-2853906021797.html?pos=36&kwd=baby mattress&tags=BA||||8226.563|Price|product|||MDC|rsf:gd-|-stype:attr=1|qr_nm:gd|res:RC4|com-cf:nl|ptrs:na|ktp:N0|mc:45465|mtp:S|qry_typ:P|lang:en|wc:2|cs:8840|v=4,Vanbon Clothing Co.,https://www.indiamart.com/vanbon-clothing-co/?pos=36&kwd=baby mattress&tags=BA||||8226.563|Price|product|||MDC|rsf:gd-|-stype:attr=1|qr_nm:gd|res:RC4|com-cf:nl|ptrs:na|ktp:N0|mc:45465|mtp:S|qry_typ:P|lang:en|wc:2|cs:8840|v=4,False,Vashi (Thane),Navi Mumbai,"1st Floor Ofice No.16, Plot No.73, D Wing Vallabh Bhai Patel Marg, Vashi (Thane), Navi Mumbai - 400703, Dist.Thane, Maharashtra",8044012603,
"Size: Single Cotton Pink Printed Baby Mattress, Thickness: 4 inch",https://www.indiamart.com/proddetail/pink-printed-baby-mattress-2854133509262.html?pos=37&kwd=baby mattress&tags=BA||||8584.299|Price|product|||MDC|rsf:gd-|-stype:attr=1|qr_nm:gd|res:RC4|com-cf:nl|ptrs:na|ktp:N0|mc:45465|mtp:S|qry_typ:P|lang:en|wc:2|cs:8840|v=4,Ramesh Marketing,https://www.indiamart.com/ramesh-marketing-coimbatore/?pos=37&kwd=baby mattress&tags=BA||||8584.299|Price|product|||MDC|rsf:gd-|-stype:attr=1|qr_nm:gd|res:RC4|com-cf:nl|ptrs:na|ktp:N0|mc:45465|mtp:S|qry_typ:P|lang:en|wc:2|cs:8840|v=4,False,East Oppanakara Street Area,Coimbatore,"110, Nawab Hakeem Road, East Oppanakara Street Area, East Oppanakara Street Area, Coimbatore - 641001, Dist.Coimbatore, Tamil Nadu",8045731416,
"Baby Cot With Mattress, Powder coated",https://www.indiamart.com/proddetail/baby-cot-with-mattress-2854320187233.html?pos=38&kwd=baby mattress&tags=BA||||8752.144|Price|product|||MDC|rsf:gd-|-stype:attr=1|qr_nm:gd|res:RC4|com-cf:nl|ptrs:na|ktp:N0|mc:45465|mtp:S|qry_typ:P|lang:en|wc:2|cs:8840|v=4,Medicom International,https://www.indiamart.com/medicominternational/?pos=38&kwd=baby mattress&tags=BA||||8752.144|Price|product|||MDC|rsf:gd-|-stype:attr=1|qr_nm:gd|res:RC4|com-cf:nl|ptrs:na|ktp:N0|mc:45465|mtp:S|qry_typ:P|lang:en|wc:2|cs:8840|v=4,False,,New Delhi,"Third Floor Plot No 121,Vani Vihar, Uttam Nagar,West Delhi, New Delhi - 110059, Dist.Delhi, Delhi",8045729241,
"Cotton Kolar India Baby Custom Mattress With Mosquito Net, Size: 33x18x19 Inch",https://www.indiamart.com/proddetail/baby-custom-mattress-with-mosquito-net-20960044533.html?pos=39&kwd=baby mattress&tags=BA||||9839.57|Price|product|||MDC|rsf:gd-|-stype:attr=1|qr_nm:gd|res:RC4|com-cf:nl|ptrs:na|ktp:N0|mc:45465|mtp:S|qry_typ:P|lang:en|wc:2|cs:8840|v=4,Kolar India,https://www.indiamart.com/kolarindia/?pos=39&kwd=baby mattress&tags=BA||||9839.57|Price|product|||MDC|rsf:gd-|-stype:attr=1|qr_nm:gd|res:RC4|com-cf:nl|ptrs:na|ktp:N0|mc:45465|mtp:S|qry_typ:P|lang:en|wc:2|cs:8840|v=4,False,Strand Road,Kolkata,"56, Jamunalal Bajaj Street, 1st Floor, Strand Road, Kolkata - 700007, Dist.Kolkata, West Bengal",8048261979,
New Born Baby Cotton Mattress Set,https://www.indiamart.com/proddetail/new-born-baby-cotton-mattress-set-2853098914273.html?pos=40&kwd=baby mattress&tags=BA||||8321.587|Price|product|||MDC|rsf:gd-|-stype:attr=1|qr_nm:gd|res:RC4|com-cf:nl|ptrs:na|ktp:N0|mc:45465|mtp:S|qry_typ:P|lang:en|wc:2|cs:8840|v=4,Abhinav Distributors,https://www.indiamart.com/abhinav-distributors/?pos=40&kwd=baby mattress&tags=BA||||8321.587|Price|product|||MDC|rsf:gd-|-stype:attr=1|qr_nm:gd|res:RC4|com-cf:nl|ptrs:na|ktp:N0|mc:45465|mtp:S|qry_typ:P|lang:en|wc:2|cs:8840|v=4,False,Shirala,Shirala,"Kapari Road, Shirala, Shirala - 415408, Dist.Sangli, Maharashtra",7942962451,
"Thickness: 4 Inches Fiber White Baby Bed Mattress Pillow Set, For Home, 700gm",https://www.indiamart.com/proddetail/white-baby-bed-mattress-pillow-set-21524288712.html?pos=41&kwd=baby mattress&tags=BA||||8622.665|Price|product|||MDC|rsf:gd-|-stype:attr=1|qr_nm:gd|res:RC4|com-cf:nl|ptrs:na|ktp:N0|mc:45465|mtp:S|qry_typ:P|lang:en|wc:2|cs:8840|v=4,Kapok India,https://www.indiamart.com/kapokindia/?pos=41&kwd=baby mattress&tags=BA||||8622.665|Price|product|||MDC|rsf:gd-|-stype:attr=1|qr_nm:gd|res:RC4|com-cf:nl|ptrs:na|ktp:N0|mc:45465|mtp:S|qry_typ:P|lang:en|wc:2|cs:8840|v=4,False,Ammankulam,Bodinayakanur,"161, Paramasivan Koil Street Theni, Ammankulam, Bodinayakanur - 625513, Tamil Nadu",8047680998,
"Polar fleece polyester Baby Mattress, Packaging Type: Plastic Bag, Model Name/Number: Asur Dry Sheet",https://www.indiamart.com/proddetail/baby-mattress-24225837048.html?pos=42&kwd=baby mattress&tags=BB||||8626.744|Price|product|||MDC|rsf:gd-|-stype:attr=1|qr_nm:gd|res:RC4|com-cf:nl|ptrs:na|ktp:N0|mc:45465|mtp:S|qry_typ:P|lang:en|wc:2|cs:8840|v=4,Fashion Tech Industries,https://www.indiamart.com/fashiontech-industries/?pos=42&kwd=baby mattress&tags=BB||||8626.744|Price|product|||MDC|rsf:gd-|-stype:attr=1|qr_nm:gd|res:RC4|com-cf:nl|ptrs:na|ktp:N0|mc:45465|mtp:S|qry_typ:P|lang:en|wc:2|cs:8840|v=4,False,Nallur,Tiruppur,"98, Jai Nagar, 1st East Street, 2nd Cross, Rakkiyapallayam Kankeyam Road, Nallur, Tiruppur - 641606, Dist.Coimbatore, Tamil Nadu",8046033259,
"Size: Single Newborn Cotton Baby Mattress, Thickness: 4 inch",https://www.indiamart.com/proddetail/newborn-cotton-baby-mattress-2853906021797.html?pos=43&kwd=baby mattress&tags=BA||||8226.563|Price|product|||MDC|rsf:gd-|-stype:attr=1|qr_nm:gd|res:RC4|com-cf:nl|ptrs:na|ktp:N0|mc:45465|mtp:S|qry_typ:P|lang:en|wc:2|cs:8840|v=4,Vanbon Clothing Co.,https://www.indiamart.com/vanbon-clothing-co/?pos=43&kwd=baby mattress&tags=BA||||8226.563|Price|product|||MDC|rsf:gd-|-stype:attr=1|qr_nm:gd|res:RC4|com-cf:nl|ptrs:na|ktp:N0|mc:45465|mtp:S|qry_typ:P|lang:en|wc:2|cs:8840|v=4,False,Vashi (Thane),Navi Mumbai,"1st Floor Ofice No.16, Plot No.73, D Wing Vallabh Bhai Patel Marg, Vashi (Thane), Navi Mumbai - 400703, Dist.Thane, Maharashtra",8044012603,
"Size: Single Cotton Pink Printed Baby Mattress, Thickness: 4 inch",https://www.indiamart.com/proddetail/pink-printed-baby-mattress-2854133509262.html?pos=44&kwd=baby mattress&tags=BA||||8584.299|Price|product|||MDC|rsf:gd-|-stype:attr=1|qr_nm:gd|res:RC4|com-cf:nl|ptrs:na|ktp:N0|mc:45465|mtp:S|qry_typ:P|lang:en|wc:2|cs:8840|v=4,Ramesh Marketing,https://www.indiamart.com/ramesh-marketing-coimbatore/?pos=44&kwd=baby mattress&tags=BA||||8584.299|Price|product|||MDC|rsf:gd-|-stype:attr=1|qr_nm:gd|res:RC4|com-cf:nl|ptrs:na|ktp:N0|mc:45465|mtp:S|qry_typ:P|lang:en|wc:2|cs:8840|v=4,False,East Oppanakara Street Area,Coimbatore,"110, Nawab Hakeem Road, East Oppanakara Street Area, East Oppanakara Street Area, Coimbatore - 641001, Dist.Coimbatore, Tamil Nadu",8045731416,
"Baby Cot With Mattress, Powder coated",https://www.indiamart.com/proddetail/baby-cot-with-mattress-2854320187233.html?pos=45&kwd=baby mattress&tags=BA||||8752.144|Price|product|||MDC|rsf:gd-|-stype:attr=1|qr_nm:gd|res:RC4|com-cf:nl|ptrs:na|ktp:N0|mc:45465|mtp:S|qry_typ:P|lang:en|wc:2|cs:8840|v=4,Medicom International,https://www.indiamart.com/medicominternational/?pos=45&kwd=baby mattress&tags=BA||||8752.144|Price|product|||MDC|rsf:gd-|-stype:attr=1|qr_nm:gd|res:RC4|com-cf:nl|ptrs:na|ktp:N0|mc:45465|mtp:S|qry_typ:P|lang:en|wc:2|cs:8840|v=4,False,,New Delhi,"Third Floor Plot No 121,Vani Vihar, Uttam Nagar,West Delhi, New Delhi - 110059, Dist.Delhi, Delhi",8045729241,
Cortez Baby Cradle Bed Mattress,https://www.indiamart.com/proddetail/cortez-baby-cradle-bed-mattress-26003213330.html?pos=46&kwd=baby mattress&tags=BB||||8584.299|Price|product|||MDC|rsf:gd-|-stype:attr=1|qr_nm:gd|res:RC4|com-cf:nl|ptrs:na|ktp:N0|mc:45465|mtp:S|qry_typ:P|lang:en|wc:2|cs:8840|v=4,Britex,https://www.indiamart.com/britex-coimbatore/?pos=46&kwd=baby mattress&tags=BB||||8584.299|Price|product|||MDC|rsf:gd-|-stype:attr=1|qr_nm:gd|res:RC4|com-cf:nl|ptrs:na|ktp:N0|mc:45465|mtp:S|qry_typ:P|lang:en|wc:2|cs:8840|v=4,False,Sanath Nagar,Coimbatore,"No.1/155A, Mottukaran Thottam, Pathuvampalli , Annur,, Sanath Nagar, Coimbatore - 641659, Dist.Coimbatore, Tamil Nadu",8043853672,
Rectangular Cotton Printed Baby Mattress,https://www.indiamart.com/proddetail/rectangular-cotton-printed-baby-mattress-2852670388097.html?pos=47&kwd=baby mattress&tags=BA||||8230.883|Price|product|||MDC|rsf:gd-|-stype:attr=1|qr_nm:gd|res:RC4|com-cf:nl|ptrs:na|ktp:N0|mc:45465|mtp:S|qry_typ:P|lang:en|wc:2|cs:8840|v=4,Shri Shri Fashion,https://www.indiamart.com/shri-shri-fashion/?pos=47&kwd=baby mattress&tags=BA||||8230.883|Price|product|||MDC|rsf:gd-|-stype:attr=1|qr_nm:gd|res:RC4|com-cf:nl|ptrs:na|ktp:N0|mc:45465|mtp:S|qry_typ:P|lang:en|wc:2|cs:8840|v=4,False,Varachha,Surat,"A-231, Narayan Nagar, Near Nalanda School, Punagam,, Varachha, Surat - 395010, Dist.Surat, Gujarat",7942712235,
"Cotton Kolar India Baby Custom Mattress With Mosquito Net, Size: 33x18x19 Inch",https://www.indiamart.com/proddetail/baby-custom-mattress-with-mosquito-net-20960044533.html?pos=48&kwd=baby mattress&tags=BA||||9839.57|Price|product|||MDC|rsf:gd-|-stype:attr=1|qr_nm:gd|res:RC4|com-cf:nl|ptrs:na|ktp:N0|mc:45465|mtp:S|qry_typ:P|lang:en|wc:2|cs:8840|v=4,Kolar India,https://www.indiamart.com/kolarindia/?pos=48&kwd=baby mattress&tags=BA||||9839.57|Price|product|||MDC|rsf:gd-|-stype:attr=1|qr_nm:gd|res:RC4|com-cf:nl|ptrs:na|ktp:N0|mc:45465|mtp:S|qry_typ:P|lang:en|wc:2|cs:8840|v=4,False,Strand Road,Kolkata,"56, Jamunalal Bajaj Street, 1st Floor, Strand Road, Kolkata - 700007, Dist.Kolkata, West Bengal",8048261979,
New Born Baby Cotton Mattress Set,https://www.indiamart.com/proddetail/new-born-baby-cotton-mattress-set-2853098914273.html?pos=49&kwd=baby mattress&tags=BA||||8321.587|Price|product|||MDC|rsf:gd-|-stype:attr=1|qr_nm:gd|res:RC4|com-cf:nl|ptrs:na|ktp:N0|mc:45465|mtp:S|qry_typ:P|lang:en|wc:2|cs:8840|v=4,Abhinav Distributors,https://www.indiamart.com/abhinav-distributors/?pos=49&kwd=baby mattress&tags=BA||||8321.587|Price|product|||MDC|rsf:gd-|-stype:attr=1|qr_nm:gd|res:RC4|com-cf:nl|ptrs:na|ktp:N0|mc:45465|mtp:S|qry_typ:P|lang:en|wc:2|cs:8840|v=4,False,Shirala,Shirala,"Kapari Road, Shirala, Shirala - 415408, Dist.Sangli, Maharashtra",7942962451,
"Thickness: 4 Inches Fiber White Baby Bed Mattress Pillow Set, For Home, 700gm",https://www.indiamart.com/proddetail/white-baby-bed-mattress-pillow-set-21524288712.html?pos=50&kwd=baby mattress&tags=BA||||8622.665|Price|product|||MDC|rsf:gd-|-stype:attr=1|qr_nm:gd|res:RC4|com-cf:nl|ptrs:na|ktp:N0|mc:45465|mtp:S|qry_typ:P|lang:en|wc:2|cs:8840|v=4,Kapok India,https://www.indiamart.com/kapokindia/?pos=50&kwd=baby mattress&tags=BA||||8622.665|Price|product|||MDC|rsf:gd-|-stype:attr=1|qr_nm:gd|res:RC4|com-cf:nl|ptrs:na|ktp:N0|mc:45465|mtp:S|qry_typ:P|lang:en|wc:2|cs:8840|v=4,False,Ammankulam,Bodinayakanur,"161, Paramasivan Koil Street Theni, Ammankulam, Bodinayakanur - 625513, Tamil Nadu",8047680998,
Babymoo Mattress Set,https://www.indiamart.com/proddetail/babymoo-mattress-set-2854722814762.html?pos=51&kwd=baby mattress&tags=BA||||8211.142|Price|product|||MDC|rsf:gd-|-stype:attr=1|qr_nm:gd|res:RC4|com-cf:nl|ptrs:na|ktp:N0|mc:45465|mtp:S|qry_typ:P|lang:en|wc:2|cs:8840|v=4,Apple Kids,https://www.indiamart.com/applekids-mumbai/?pos=51&kwd=baby mattress&tags=BA||||8211.142|Price|product|||MDC|rsf:gd-|-stype:attr=1|qr_nm:gd|res:RC4|com-cf:nl|ptrs:na|ktp:N0|mc:45465|mtp:S|qry_typ:P|lang:en|wc:2|cs:8840|v=4,False,,Mumbai,"Room No 1,211/4, Janu Seth Chawl, Puspa Park, Daftary Road, Malad East Suburban, Mumbai - 400097, Dist.Mumbai, Maharashtra",7949326883,
Cotton Baby Godadi,https://www.indiamart.com/proddetail/cotton-baby-godadi-2854231050355.html?pos=52&kwd=baby mattress&tags=BA||||8230.883|Price|product|||MDC|rsf:gd-|-stype:attr=1|qr_nm:gd|res:RC4|com-cf:nl|ptrs:na|ktp:N0|mc:45465|mtp:S|qry_typ:P|lang:en|wc:2|cs:8840|v=4,Mahant Enterprise,https://www.indiamart.com/mahantenterprisegujarat/?pos=52&kwd=baby mattress&tags=BA||||8230.883|Price|product|||MDC|rsf:gd-|-stype:attr=1|qr_nm:gd|res:RC4|com-cf:nl|ptrs:na|ktp:N0|mc:45465|mtp:S|qry_typ:P|lang:en|wc:2|cs:8840|v=4,False,Dabholi Village,Surat,"12, Ground Floor, Ankita Park Society, Unnamed Road, Ved Road, Dabholi Village, Surat - 395004, Dist.Surat, Gujarat",7942828700,
NOVEL baby-mattress-set,,Novel Tissues Private Limited,https://www.indiamart.com/noveltissues/?pos=53&kwd=baby mattress&tags=BA||||8556.61|Price|product|||MDC|rsf:gd-|-stype:attr=1|qr_nm:gd|res:RC4|com-cf:nl|ptrs:na|ktp:N0|mc:45465|mtp:S|qry_typ:P|lang:en|wc:2|cs:8840|v=4,False,Hootagalli,Mysore,"65A, KIADB Industrial Area, Hootagalli, Mysore - 570018, Dist.Mysuru, Karnataka",8047641097,
Foam ALM Baby Mattress,https://www.indiamart.com/proddetail/alm-baby-mattress-21129146048.html?pos=54&kwd=baby mattress&tags=BA||||8226.563|Price|product|||TS|rsf:gd-|-stype:attr=1|qr_nm:gd|res:RC4|com-cf:nl|ptrs:na|ktp:N0|mc:45465|mtp:S|qry_typ:P|lang:en|wc:2|cs:8840|v=4,Aurk Vision,https://www.indiamart.com/aurkvision/?pos=54&kwd=baby mattress&tags=BA||||8226.563|Price|product|||TS|rsf:gd-|-stype:attr=1|qr_nm:gd|res:RC4|com-cf:nl|ptrs:na|ktp:N0|mc:45465|mtp:S|qry_typ:P|lang:en|wc:2|cs:8840|v=4,False,Pawne,Navi Mumbai,"1st Floor, A-501, Mahape MIDC, TTC Industrial Area, Pawne, Navi Mumbai - 400710, Dist.Thane, Maharashtra",8048956847,
Size: Single 4 Inches Peps Mattress,https://www.indiamart.com/proddetail/4-inches-peps-mattress-2850613968848.html?pos=55&kwd=baby mattress&tags=BA||||8211.142||product|||TS|rsf:gd-|-stype:attr=1|qr_nm:gd|res:RC4|com-cf:nl|ptrs:na|ktp:N0|mc:45465|mtp:S|qry_typ:P|lang:en|wc:2|cs:8840|v=4,Zen Mattresses Private Limited,https://www.backrestmattresses.in/?pos=55&kwd=baby mattress&tags=BA||||8211.142||product|||TS|rsf:gd-|-stype:attr=1|qr_nm:gd|res:RC4|com-cf:nl|ptrs:na|ktp:N0|mc:45465|mtp:S|qry_typ:P|lang:en|wc:2|cs:8840|v=4,False,Borivali West,Mumbai,"301, Pooja Residency, Near Kora Kendra Ground Derasar Lane Borivali West, Borivali West, Mumbai - 400092, Dist.Mumbai, Maharashtra",8047546184,
"HR Foam and Memory Foam Libra Kids Mattress Mattress, Size/Dimension: 72x36 Inch, Thickness: 5 Inch",https://www.indiamart.com/proddetail/libra-kids-mattress-mattress-23445383630.html?pos=56&kwd=baby mattress&tags=BA||||8752.144|Price|product|||TS|rsf:gd-|-stype:attr=1|qr_nm:gd|res:RC4|com-cf:nl|ptrs:na|ktp:N0|mc:45465|mtp:S|qry_typ:P|lang:en|wc:2|cs:8840|v=4,Ved Foam House,https://www.indiamart.com/ved-foam-house/?pos=56&kwd=baby mattress&tags=BA||||8752.144|Price|product|||TS|rsf:gd-|-stype:attr=1|qr_nm:gd|res:RC4|com-cf:nl|ptrs:na|ktp:N0|mc:45465|mtp:S|qry_typ:P|lang:en|wc:2|cs:8840|v=4,False,Karol Bagh,New Delhi,"5812/4B, Ved Foam House, Pyare Lal Road, Karol Bagh, New Delhi - 110005, Dist.Delhi, Delhi",8048609515,
Solid Orange Soft Plain Velvet Baby Bedding Set For Home,https://www.indiamart.com/proddetail/orange-soft-plain-velvet-baby-bedding-set-23674848212.html?pos=57&kwd=baby mattress&tags=BA||||8752.144|Price|product|||TS|rsf:gd-|-stype:attr=1|qr_nm:gd|res:RC4|com-cf:nl|ptrs:na|ktp:N0|mc:45465|mtp:S|qry_typ:P|lang:en|wc:2|cs:8840|v=4,ASW Retail Corporation,https://www.indiamart.com/aswretailcorporation/?pos=57&kwd=baby mattress&tags=BA||||8752.144|Price|product|||TS|rsf:gd-|-stype:attr=1|qr_nm:gd|res:RC4|com-cf:nl|ptrs:na|ktp:N0|mc:45465|mtp:S|qry_typ:P|lang:en|wc:2|cs:8840|v=4,False,Naraina,New Delhi,"B-62/6 3rd Floor Phase II, Naraina Industrial Area, Naraina, New Delhi - 110032, Dist.Delhi, Delhi",8046060075,
"Multicolor Cotton Baby Sleeping Bags, Newly Born",https://www.indiamart.com/proddetail/baby-sleeping-bags-2853931538873.html?pos=58&kwd=baby mattress&tags=BB||||8752.144|Price|product|||TS|rsf:gd-|-stype:attr=1|qr_nm:gd|res:RC4|com-cf:nl|ptrs:na|ktp:N0|mc:45465|mtp:S|qry_typ:P|lang:en|wc:2|cs:8840|v=4,Mom & Son,https://www.theindianchoice.com/?pos=58&kwd=baby mattress&tags=BB||||8752.144|Price|product|||TS|rsf:gd-|-stype:attr=1|qr_nm:gd|res:RC4|com-cf:nl|ptrs:na|ktp:N0|mc:45465|mtp:S|qry_typ:P|lang:en|wc:2|cs:8840|v=4,False,Karawal Nagar,New Delhi,"B-57 Gali Number-1 Mukund Vihar, Near Pnb Bank, Karawal Nagar, New Delhi - 110094, Dist.Delhi, Delhi",7942565509,
"Baby Mosquito Net Mattress, Size: Jumbo",https://www.indiamart.com/proddetail/baby-mosquito-net-mattress-19561704762.html?pos=59&kwd=baby mattress&tags=BA||||8211.142|Price|product|||MDC|rsf:gd-|-stype:attr=1|qr_nm:gd|res:RC4|com-cf:nl|ptrs:na|ktp:N0|mc:45465|mtp:S|qry_typ:P|lang:en|wc:2|cs:8840|v=4,Padam Kids,https://www.indiamart.com/padam-kids/?pos=59&kwd=baby mattress&tags=BA||||8211.142|Price|product|||MDC|rsf:gd-|-stype:attr=1|qr_nm:gd|res:RC4|com-cf:nl|ptrs:na|ktp:N0|mc:45465|mtp:S|qry_typ:P|lang:en|wc:2|cs:8840|v=4,False,,Mumbai,"CKP Colony, Near Dargah, Behind Dr. Manish Bhatt Eksar Road, Borivali West, Mumbai - 400092, Dist.Mumbai, Maharashtra",8046057613,
"Baby Cot With Mattress, Powder coated",https://www.indiamart.com/proddetail/baby-cot-with-mattress-2854320187233.html?pos=60&kwd=baby mattress&tags=BA||||8752.144|Price|product|||MDC|rsf:gd-|-stype:attr=1|qr_nm:gd|res:RC4|com-cf:nl|ptrs:na|ktp:N0|mc:45465|mtp:S|qry_typ:P|lang:en|wc:2|cs:8840|v=4,Medicom International,https://www.indiamart.com/medicominternational/?pos=60&kwd=baby mattress&tags=BA||||8752.144|Price|product|||MDC|rsf:gd-|-stype:attr=1|qr_nm:gd|res:RC4|com-cf:nl|ptrs:na|ktp:N0|mc:45465|mtp:S|qry_typ:P|lang:en|wc:2|cs:8840|v=4,False,,New Delhi,"Third Floor Plot No 121,Vani Vihar, Uttam Nagar,West Delhi, New Delhi - 110059, Dist.Delhi, Delhi",8045729241,
Baby Soft Mattress,https://www.indiamart.com/proddetail/baby-soft-mattress-2852769427788.html?pos=61&kwd=baby mattress&tags=BA||||8307.81||product|||MDC|rsf:gd-|-stype:attr=1|qr_nm:gd|res:RC4|com-cf:nl|ptrs:na|ktp:N0|mc:45465|mtp:S|qry_typ:P|lang:en|wc:2|cs:8840|v=4,Shakti Mattresses,https://www.indiamart.com/shakti-mattresses/?pos=61&kwd=baby mattress&tags=BA||||8307.81||product|||MDC|rsf:gd-|-stype:attr=1|qr_nm:gd|res:RC4|com-cf:nl|ptrs:na|ktp:N0|mc:45465|mtp:S|qry_typ:P|lang:en|wc:2|cs:8840|v=4,False,Undri,Pune,"Hissa No 2B/E, Inamdar Nagar, Survey No 63, Hadapsar, Undri, Pune - 411028, Dist.Pune, Maharashtra",7942708150,
Baby Rajai Gadda Set,,Kidz Creation,https://www.indiamart.com/kidzcreation/?pos=62&kwd=baby mattress&tags=BB||||8752.144|Price|product|||MDC|rsf:gd-|-stype:attr=1|qr_nm:gd|res:RC4|com-cf:nl|ptrs:na|ktp:N0|mc:45465|mtp:S|qry_typ:P|lang:en|wc:2|cs:8840|v=4,False,,New Delhi,"Shop No. 279/517,Sabharwal Market, Tolia Wali Gali Sadar Bazar, North Delhi,, New Delhi - 110006, Dist.Delhi, Delhi",8047679212,
White b(Base) Round Baby Chhathi Gaddi Set,https://www.indiamart.com/proddetail/baby-chhathi-mattress-set-2854722400133.html?pos=63&kwd=baby mattress&tags=A||||8228.275|Price|product|||NA|rsf:gd-|-stype:attr=1|qr_nm:gd|res:RC4|com-cf:nl|ptrs:na|ktp:N0|mc:45465|mtp:S|qry_typ:P|lang:en|wc:2|cs:8840|v=4,Shishu Apparels,https://www.indiamart.com/shishu-apparels/?pos=63&kwd=baby mattress&tags=A||||8228.275|Price|product|||NA|rsf:gd-|-stype:attr=1|qr_nm:gd|res:RC4|com-cf:nl|ptrs:na|ktp:N0|mc:45465|mtp:S|qry_typ:P|lang:en|wc:2|cs:8840|v=4,False,,Ahmedabad,"62, Laxmi Vishnu Market, Gheekanta Road, Ghee Kanta, Ahmedabad - 380001, Dist.Ahmedabad, Gujarat",7949322683,
Baby Mattress,,Aabha The Fashion Destination,https://www.indiamart.com/aabha-the-fashion-destination/?pos=64&kwd=baby mattress&tags=A||||8230.883||product|||NA|rsf:gd-|-stype:attr=1|qr_nm:gd|res:RC4|com-cf:nl|ptrs:na|ktp:N0|mc:45465|mtp:S|qry_typ:P|lang:en|wc:2|cs:8840|v=4,False,Utran,Surat,"Abhinandan Residency Nr. Utran Railway Station, Utran, Surat - 394105, Dist.Surat, Gujarat",8069017401,764
Rectangular Cotton Baby Mattress,https://www.indiamart.com/proddetail/baby-mattress-2854758174562.html?pos=65&kwd=baby mattress&tags=BB||||9032.581|Price|product|||NA|rsf:gd-|-stype:attr=1|qr_nm:gd|res:RC4|com-cf:nl|ptrs:na|ktp:N0|mc:45465|mtp:S|qry_typ:P|lang:en|wc:2|cs:8840|v=4,New Laxmi Cycle Store,https://www.indiamart.com/new-laxmi-cycle-store/?pos=65&kwd=baby mattress&tags=BB||||9032.581|Price|product|||NA|rsf:gd-|-stype:attr=1|qr_nm:gd|res:RC4|com-cf:nl|ptrs:na|ktp:N0|mc:45465|mtp:S|qry_typ:P|lang:en|wc:2|cs:8840|v=4,False,,Katni,"Katni, Near Mukti Dham, Nadi Par Ram Manohar Lohiya Ward, Katni, Katni - 483501, Dist.Katni, Madhya Pradesh",8048370732,7584
Baby Mattress,https://www.indiamart.com/proddetail/baby-mattress-22625978991.html?pos=66&kwd=baby mattress&tags=BB||||8253.564|Price|product|||NA|rsf:gd-|-stype:attr=1|qr_nm:gd|res:RC4|com-cf:nl|ptrs:na|ktp:N0|mc:45465|mtp:S|qry_typ:P|lang:en|wc:2|cs:8840|v=4,Patel Plastic Textile,https://www.indiamart.com/patel-plastic-textile/?pos=66&kwd=baby mattress&tags=BB||||8253.564|Price|product|||NA|rsf:gd-|-stype:attr=1|qr_nm:gd|res:RC4|com-cf:nl|ptrs:na|ktp:N0|mc:45465|mtp:S|qry_typ:P|lang:en|wc:2|cs:8840|v=4,False,Uttarsanda,Nadiad,"Shriji Society, Uttarsanda, Nadiad - 387370, Dist.Kheda, Gujarat",8048371774,583
Size: Single Cotton Baby Mattress,https://www.indiamart.com/proddetail/baby-mattress-2852569261155.html?pos=67&kwd=baby mattress&tags=BA||||8230.883|Price|product|||NA|rsf:gd-|-stype:attr=1|qr_nm:gd|res:RC4|com-cf:nl|ptrs:na|ktp:N0|mc:45465|mtp:S|qry_typ:P|lang:en|wc:2|cs:8840|v=4,Hanumant Enterprise,https://www.indiamart.com/hanumantenterprise-163406246/?pos=67&kwd=baby mattress&tags=BA||||8230.883|Price|product|||NA|rsf:gd-|-stype:attr=1|qr_nm:gd|res:RC4|com-cf:nl|ptrs:na|ktp:N0|mc:45465|mtp:S|qry_typ:P|lang:en|wc:2|cs:8840|v=4,False,,Surat,"31 Kamrej Road Vedant Bhumi Society, Surat - 394185, Dist.Surat, Gujarat",8048371981,817
Baby Mattress,https://www.indiamart.com/proddetail/baby-mattress-14972394188.html?pos=68&kwd=baby mattress&tags=BB||||8752.144|Price|product|||NA|rsf:gd-|-stype:attr=1|qr_nm:gd|res:RC4|com-cf:nl|ptrs:na|ktp:N0|mc:45465|mtp:S|qry_typ:P|lang:en|wc:2|cs:8840|v=4,Manan Traders,https://www.indiamart.com/manantraders/?pos=68&kwd=baby mattress&tags=BB||||8752.144|Price|product|||NA|rsf:gd-|-stype:attr=1|qr_nm:gd|res:RC4|com-cf:nl|ptrs:na|ktp:N0|mc:45465|mtp:S|qry_typ:P|lang:en|wc:2|cs:8840|v=4,False,Gandhi Nagar,New Delhi,"X660, Street No. 6, Raghubar Pura No. 1, Gandhi Nagar, New Delhi - 110031, Dist.Delhi, Delhi",8047839962,
"Cotton Baby Mattress , Packaging Type: Plastic Bag",https://www.indiamart.com/proddetail/baby-mattress-24574615348.html?pos=69&kwd=baby mattress&tags=BB||||8876.815|Price|product|||NA|rsf:gd-|-stype:attr=1|qr_nm:gd|res:RC4|com-cf:nl|ptrs:na|ktp:N0|mc:45465|mtp:S|qry_typ:P|lang:en|wc:2|cs:8840|v=4,Shikha Infant Wear,https://www.indiamart.com/shikha-infant-wear/?pos=69&kwd=baby mattress&tags=BB||||8876.815|Price|product|||NA|rsf:gd-|-stype:attr=1|qr_nm:gd|res:RC4|com-cf:nl|ptrs:na|ktp:N0|mc:45465|mtp:S|qry_typ:P|lang:en|wc:2|cs:8840|v=4,False,,Nagpur,"Shop No. A1, Jeevan Kanaiya Complex, Pavarpura, Nagpur - 440002, Dist.Nagpur, Maharashtra",8045907248,
Teniyu White Baby Mattress,https://www.indiamart.com/proddetail/baby-mattress-2850229244648.html?pos=70&kwd=baby mattress&tags=BA||||8230.883|Price|product|||NA|rsf:gd-|-stype:attr=1|qr_nm:gd|res:RC4|com-cf:nl|ptrs:na|ktp:N0|mc:45465|mtp:S|qry_typ:P|lang:en|wc:2|cs:8840|v=4,Janki Jiyana House,https://www.indiamart.com/jankijiyana-house/?pos=70&kwd=baby mattress&tags=BA||||8230.883|Price|product|||NA|rsf:gd-|-stype:attr=1|qr_nm:gd|res:RC4|com-cf:nl|ptrs:na|ktp:N0|mc:45465|mtp:S|qry_typ:P|lang:en|wc:2|cs:8840|v=4,False,,Surat,"Shop No 10, 1st Floor, Sahyog Park, Opp. Mansarovar Circle, Amroli,, Surat - 394107, Dist.Surat, Gujarat",7942803964,
Single Bed Cotton Baby Godadi Mattress,https://www.indiamart.com/proddetail/baby-godadi-mattress-24829381688.html?pos=71&kwd=baby mattress&tags=BA||||8228.275|Price|product|||NA|rsf:gd-|-stype:attr=1|qr_nm:gd|res:RC4|com-cf:nl|ptrs:na|ktp:N0|mc:45465|mtp:S|qry_typ:P|lang:en|wc:2|cs:8840|v=4,Shiv Shakti Products,https://www.indiamart.com/shiv-shakti-products-ahmedabad/?pos=71&kwd=baby mattress&tags=BA||||8228.275|Price|product|||NA|rsf:gd-|-stype:attr=1|qr_nm:gd|res:RC4|com-cf:nl|ptrs:na|ktp:N0|mc:45465|mtp:S|qry_typ:P|lang:en|wc:2|cs:8840|v=4,False,Thakkarbapa Nagar,Ahmedabad,"1014, B Tkakarbapanagar, Nr Indrajit Tenament India Colony Mahavir Nagar, Thakkarbapa Nagar, Ahmedabad - 382350, Dist.Ahmedabad, Gujarat",8043882140,
Cotton Leaf Shape Baby Mattress,https://www.indiamart.com/proddetail/leaf-shape-baby-mattress-26017653091.html?pos=72&kwd=baby mattress&tags=BA||||7991.571|Price|product|||NA|rsf:gd-|-stype:attr=1|qr_nm:gd|res:RC4|com-cf:nl|ptrs:na|ktp:N0|mc:45465|mtp:S|qry_typ:P|lang:en|wc:2|cs:8840|v=4,Natkhat Enterprise,https://www.indiamart.com/natkhatenterprise/?pos=72&kwd=baby mattress&tags=BA||||7991.571|Price|product|||NA|rsf:gd-|-stype:attr=1|qr_nm:gd|res:RC4|com-cf:nl|ptrs:na|ktp:N0|mc:45465|mtp:S|qry_typ:P|lang:en|wc:2|cs:8840|v=4,False,Mangnath Road,Junagadh,"Tribhuvan Complex, First Floor Shop 1 -2, Mangnath Road, Junagadh - 362001, Dist.Junagadh, Gujarat",8043851522,
"White Kutchi Work Baby Mattress, Thickness: 2 mm",https://www.indiamart.com/proddetail/white-kutchi-work-baby-mattress-25111312762.html?pos=73&kwd=baby mattress&tags=BB||||8038.093||product|||NA|rsf:gd-|-stype:attr=1|qr_nm:gd|res:RC4|com-cf:nl|ptrs:na|ktp:N0|mc:45465|mtp:S|qry_typ:P|lang:en|wc:2|cs:8840|v=4,Fabric Master,https://www.indiamart.com/fabric-master-rajkot/?pos=73&kwd=baby mattress&tags=BB||||8038.093||product|||NA|rsf:gd-|-stype:attr=1|qr_nm:gd|res:RC4|com-cf:nl|ptrs:na|ktp:N0|mc:45465|mtp:S|qry_typ:P|lang:en|wc:2|cs:8840|v=4,False,,Rajkot,"Ankur Nana Mava Road, 117 Radha Nagar, Rajkot - 360004, Dist.Rajkot, Gujarat",8047301139,
Thickness: 4 Inches Single Bed Baby Rectangular Mattress,https://www.indiamart.com/proddetail/baby-rectangular-mattress-2849707588912.html?pos=74&kwd=baby mattress&tags=BB||||8228.275|Price|product|||NA|rsf:gd-|-stype:attr=1|qr_nm:gd|res:RC4|com-cf:nl|ptrs:na|ktp:N0|mc:45465|mtp:S|qry_typ:P|lang:en|wc:2|cs:8840|v=4,Krishna Handloom,https://www.indiamart.com/krishnahandloom-ahmedabad/?pos=74&kwd=baby mattress&tags=BB||||8228.275|Price|product|||NA|rsf:gd-|-stype:attr=1|qr_nm:gd|res:RC4|com-cf:nl|ptrs:na|ktp:N0|mc:45465|mtp:S|qry_typ:P|lang:en|wc:2|cs:8840|v=4,False,,Ahmedabad,"FF 19/1, Muktidham Industrial Estate, OPP Danev Park, Nicol, Ahmedabad - 382350, Dist.Ahmedabad, Gujarat",8047850241,
Newborn Baby Mattress,https://www.indiamart.com/proddetail/newborn-baby-mattress-25945917055.html?pos=75&kwd=baby mattress&tags=BB||||8230.883|Price|product|||NA|rsf:gd-|-stype:attr=1|qr_nm:gd|res:RC4|com-cf:nl|ptrs:na|ktp:N0|mc:45465|mtp:S|qry_typ:P|lang:en|wc:2|cs:8840|v=4,Chirag Pravinbhai Malani,https://www.indiamart.com/chirag-pravinbhai-malani/?pos=75&kwd=baby mattress&tags=BB||||8230.883|Price|product|||NA|rsf:gd-|-stype:attr=1|qr_nm:gd|res:RC4|com-cf:nl|ptrs:na|ktp:N0|mc:45465|mtp:S|qry_typ:P|lang:en|wc:2|cs:8840|v=4,False,Near national park sociery,Surat,"0 Sarthana Jakatnaka Mansarovar Soc Gate No -3, Near national park sociery, Surat - 395006, Dist.Surat, Gujarat",8069013094,206
green Rectangular Baby Mattress Set,https://www.indiamart.com/proddetail/baby-mattress-set-2854350646433.html?pos=76&kwd=baby mattress&tags=BA||||8230.883|Price|product|||NA|rsf:gd-|-stype:attr=1|qr_nm:gd|res:RC4|com-cf:nl|ptrs:na|ktp:N0|mc:45465|mtp:S|qry_typ:P|lang:en|wc:2|cs:8840|v=4,Rainbow Exports,https://www.indiamart.com/company/225060466/?pos=76&kwd=baby mattress&tags=BA||||8230.883|Price|product|||NA|rsf:gd-|-stype:attr=1|qr_nm:gd|res:RC4|com-cf:nl|ptrs:na|ktp:N0|mc:45465|mtp:S|qry_typ:P|lang:en|wc:2|cs:8840|v=4,False,,Surat,"C-1304, Murlidhar Heights, Sudama Chowk,, Surat - 394105, Dist.Surat, Gujarat",8048370723,6167
"Multicolor Foam Newborn Baby Mattress Set, For Used For Babies, Size/Dimension: 24.41 X 15.75 cm",https://www.indiamart.com/proddetail/newborn-baby-mattress-set-26022976148.html?pos=77&kwd=baby mattress&tags=BA||||8230.883|Price|product|||NA|rsf:gd-|-stype:attr=1|qr_nm:gd|res:RC4|com-cf:nl|ptrs:na|ktp:N0|mc:45465|mtp:S|qry_typ:P|lang:en|wc:2|cs:8840|v=4,LADLI FASHION,https://www.indiamart.com/ladli-fashion-gujarat/?pos=77&kwd=baby mattress&tags=BA||||8230.883|Price|product|||NA|rsf:gd-|-stype:attr=1|qr_nm:gd|res:RC4|com-cf:nl|ptrs:na|ktp:N0|mc:45465|mtp:S|qry_typ:P|lang:en|wc:2|cs:8840|v=4,False,,Surat,"4, Ground Floor, Sona Appartment, Magan Nagar-2, Dhanmora Road, Katargam, Surat - 395004, Dist.Surat, Gujarat",8048210850,
Size: Single Cotton Baby Mattress,https://www.indiamart.com/proddetail/baby-mattress-16357924388.html?pos=78&kwd=baby mattress&tags=BA||||8211.142|Price|product|||NA|rsf:gd-|-stype:attr=1|qr_nm:gd|res:RC4|com-cf:nl|ptrs:na|ktp:N0|mc:45465|mtp:S|qry_typ:P|lang:en|wc:2|cs:8840|v=4,Baby World,https://www.indiamart.com/babyworld/?pos=78&kwd=baby mattress&tags=BA||||8211.142|Price|product|||NA|rsf:gd-|-stype:attr=1|qr_nm:gd|res:RC4|com-cf:nl|ptrs:na|ktp:N0|mc:45465|mtp:S|qry_typ:P|lang:en|wc:2|cs:8840|v=4,False,Masjid Bandar,Mumbai,"12, Gorund Floor, Fatimabai Building, Dharamashala Street, Umerkhadi, Chinchbunder, Masjid Bandar, Mumbai - 400009, Dist.Mumbai, Maharashtra",7942539685,
"Single Bed Cotton Baby Bedding Mattress, Model Name/Number: LKC-Bedding-Mattress-3",https://www.indiamart.com/proddetail/baby-bedding-mattress-22390120873.html?pos=79&kwd=baby mattress&tags=BB||||8601.347|Price|product|||NA|rsf:gd-|-stype:attr=1|qr_nm:gd|res:RC4|com-cf:nl|ptrs:na|ktp:N0|mc:45465|mtp:S|qry_typ:P|lang:en|wc:2|cs:8840|v=4,Lakshay Kid'S Collection,https://www.indiamart.com/lakshaykids-collection/?pos=79&kwd=baby mattress&tags=BB||||8601.347|Price|product|||NA|rsf:gd-|-stype:attr=1|qr_nm:gd|res:RC4|com-cf:nl|ptrs:na|ktp:N0|mc:45465|mtp:S|qry_typ:P|lang:en|wc:2|cs:8840|v=4,False,,Jaipur,"3/882, Malviya Nagar, Jaipur - 302017, Dist.Jaipur, Rajasthan",8048614670,
Baby Cartoon Mattress,,Vihan Creation,https://www.indiamart.com/vihan-creation-ankleshwar/?pos=80&kwd=baby mattress&tags=BA||||8255.478||product|||NA|rsf:gd-|-stype:attr=1|qr_nm:gd|res:RC4|com-cf:nl|ptrs:na|ktp:N0|mc:45465|mtp:S|qry_typ:P|lang:en|wc:2|cs:8840|v=4,False,jaldhara chokdi,Ankleshwar,"shahaj complex treet gopal derry, jaldhara chokdi, Ankleshwar - 395010, Dist.Bharuch, Gujarat",8069033737,287
"Single Bed White Baby Foam Mattress, Thickness: 5inch",https://www.indiamart.com/proddetail/white-baby-foam-mattress-20914696830.html?pos=81&kwd=baby mattress&tags=BB||||8663.873||product|||NA|rsf:gd-|-stype:attr=1|qr_nm:gd|res:RC4|com-cf:nl|ptrs:na|ktp:N0|mc:45465|mtp:S|qry_typ:P|lang:en|wc:2|cs:8840|v=4,RBG Trading And Ecommerce Private Limited,https://www.indiamart.com/rbg-trading-ecommerce/?pos=81&kwd=baby mattress&tags=BB||||8663.873||product|||NA|rsf:gd-|-stype:attr=1|qr_nm:gd|res:RC4|com-cf:nl|ptrs:na|ktp:N0|mc:45465|mtp:S|qry_typ:P|lang:en|wc:2|cs:8840|v=4,False,,Bengaluru,"Ground Floor Flat No 002 Site Number 1347 Pavan Height, Bengaluru - 560037, Dist.Bengaluru, Karnataka",8046056106,
Cotton Baby Printed Mattress Set,https://www.indiamart.com/proddetail/baby-printed-mattress-set-2850548192297.html?pos=82&kwd=baby mattress&tags=BB||||8211.142|Price|product|||NA|rsf:gd-|-stype:attr=1|qr_nm:gd|res:RC4|com-cf:nl|ptrs:na|ktp:N0|mc:45465|mtp:S|qry_typ:P|lang:en|wc:2|cs:8840|v=4,Colours Baby Clothing Co.,https://www.indiamart.com/coloursbabyclothing/?pos=82&kwd=baby mattress&tags=BB||||8211.142|Price|product|||NA|rsf:gd-|-stype:attr=1|qr_nm:gd|res:RC4|com-cf:nl|ptrs:na|ktp:N0|mc:45465|mtp:S|qry_typ:P|lang:en|wc:2|cs:8840|v=4,False,,Mumbai,"1st Floor Gandhi Industrial Estates Poomi Ka Road, Villlage Mohali, Mumbai - 400070, Dist.Mumbai, Maharashtra",8047785453,
Thickness: 4 Inches Single Bed Baby Mattress Pillow Set,https://www.indiamart.com/proddetail/baby-mattress-pillow-set-2849765942555.html?pos=83&kwd=baby mattress&tags=BA||||8601.347||product|||NA|rsf:gd-|-stype:attr=1|qr_nm:gd|res:RC4|com-cf:nl|ptrs:na|ktp:N0|mc:45465|mtp:S|qry_typ:P|lang:en|wc:2|cs:8840|v=4,Bhagwati Enterprises,https://www.indiamart.com/bhagwati-enterprisesrajasthan/?pos=83&kwd=baby mattress&tags=BA||||8601.347||product|||NA|rsf:gd-|-stype:attr=1|qr_nm:gd|res:RC4|com-cf:nl|ptrs:na|ktp:N0|mc:45465|mtp:S|qry_typ:P|lang:en|wc:2|cs:8840|v=4,False,,Jaipur,"Ground Floor, ARG Murli Heights, Moti Doongri Road, Jaipur - 302004, Dist.Jaipur, Rajasthan",7942795447,
"Cotton Printed Oval Shape Baby Mattress, 3-12 Months",https://www.indiamart.com/proddetail/oval-shape-baby-mattress-12171158497.html?pos=84&kwd=baby mattress&tags=BB||||8779.266|Price|product|||NA|rsf:gd-|-stype:attr=1|qr_nm:gd|res:RC4|com-cf:nl|ptrs:na|ktp:N0|mc:45465|mtp:S|qry_typ:P|lang:en|wc:2|cs:8840|v=4,Anita Fashions,https://www.indiamart.com/anitafashions/?pos=84&kwd=baby mattress&tags=BB||||8779.266|Price|product|||NA|rsf:gd-|-stype:attr=1|qr_nm:gd|res:RC4|com-cf:nl|ptrs:na|ktp:N0|mc:45465|mtp:S|qry_typ:P|lang:en|wc:2|cs:8840|v=4,False,Lawi Khurd,Solan,"Shop No. 4, Anand Cinema Complex, Lawi Khurd, Solan - 173212, Dist.Solan, Himachal Pradesh",8048614729,
Cotton Baby Printed Mattress Set,https://www.indiamart.com/proddetail/baby-printed-mattress-set-2850548192297.html?pos=85&kwd=baby mattress&tags=BB||||8211.142|Price|product|||NA|rsf:gd-|-stype:attr=1|qr_nm:gd|res:RC4|com-cf:nl|ptrs:na|ktp:N0|mc:45465|mtp:S|qry_typ:P|lang:en|wc:2|cs:8840|v=4,Colours Baby Clothing Co.,https://www.indiamart.com/coloursbabyclothing/?pos=85&kwd=baby mattress&tags=BB||||8211.142|Price|product|||NA|rsf:gd-|-stype:attr=1|qr_nm:gd|res:RC4|com-cf:nl|ptrs:na|ktp:N0|mc:45465|mtp:S|qry_typ:P|lang:en|wc:2|cs:8840|v=4,False,,Mumbai,"1st Floor Gandhi Industrial Estates Poomi Ka Road, Villlage Mohali, Mumbai - 400070, Dist.Mumbai, Maharashtra",8047785453,
Thickness: 5mm Size/Dimension: 6 x 3 inch Plain Baby Cot Mattress,https://www.indiamart.com/proddetail/plain-baby-cot-mattress-26227138230.html?pos=86&kwd=baby mattress&tags=BB||||9839.57|Price|product|||NA|rsf:gd-|-stype:attr=1|qr_nm:gd|res:RC4|com-cf:nl|ptrs:na|ktp:N0|mc:45465|mtp:S|qry_typ:P|lang:en|wc:2|cs:8840|v=4,Jisan Enterprise,https://www.indiamart.com/jisan-enterprise/?pos=86&kwd=baby mattress&tags=BB||||9839.57|Price|product|||NA|rsf:gd-|-stype:attr=1|qr_nm:gd|res:RC4|com-cf:nl|ptrs:na|ktp:N0|mc:45465|mtp:S|qry_typ:P|lang:en|wc:2|cs:8840|v=4,False,,Kolkata,"Ist Floor 236 Bepin Behary Ganguly Street, Kolkata - 700012, Dist.Kolkata, West Bengal",8043833222,
Thickness: 4 Inches Single Bed Baby Mattress Pillow Set,https://www.indiamart.com/proddetail/baby-mattress-pillow-set-2849765942555.html?pos=87&kwd=baby mattress&tags=BA||||8601.347||product|||NA|rsf:gd-|-stype:attr=1|qr_nm:gd|res:RC4|com-cf:nl|ptrs:na|ktp:N0|mc:45465|mtp:S|qry_typ:P|lang:en|wc:2|cs:8840|v=4,Bhagwati Enterprises,https://www.indiamart.com/bhagwati-enterprisesrajasthan/?pos=87&kwd=baby mattress&tags=BA||||8601.347||product|||NA|rsf:gd-|-stype:attr=1|qr_nm:gd|res:RC4|com-cf:nl|ptrs:na|ktp:N0|mc:45465|mtp:S|qry_typ:P|lang:en|wc:2|cs:8840|v=4,False,,Jaipur,"Ground Floor, ARG Murli Heights, Moti Doongri Road, Jaipur - 302004, Dist.Jaipur, Rajasthan",7942795447,
"Cotton Printed Oval Shape Baby Mattress, 3-12 Months",https://www.indiamart.com/proddetail/oval-shape-baby-mattress-12171158497.html?pos=88&kwd=baby mattress&tags=BB||||8779.266|Price|product|||NA|rsf:gd-|-stype:attr=1|qr_nm:gd|res:RC4|com-cf:nl|ptrs:na|ktp:N0|mc:45465|mtp:S|qry_typ:P|lang:en|wc:2|cs:8840|v=4,Anita Fashions,https://www.indiamart.com/anitafashions/?pos=88&kwd=baby mattress&tags=BB||||8779.266|Price|product|||NA|rsf:gd-|-stype:attr=1|qr_nm:gd|res:RC4|com-cf:nl|ptrs:na|ktp:N0|mc:45465|mtp:S|qry_typ:P|lang:en|wc:2|cs:8840|v=4,False,Lawi Khurd,Solan,"Shop No. 4, Anand Cinema Complex, Lawi Khurd, Solan - 173212, Dist.Solan, Himachal Pradesh",8048614729,
"Recron Cotton Baby Mattress With Net, Packaging Type: Plastic Bag",https://www.indiamart.com/proddetail/baby-mattress-with-net-25019809891.html?pos=89&kwd=baby mattress&tags=BB||||8302.941|Price|product|||NA|rsf:gd-|-stype:attr=1|qr_nm:gd|res:RC4|com-cf:nl|ptrs:na|ktp:N0|mc:45465|mtp:S|qry_typ:P|lang:en|wc:2|cs:8840|v=4,Nadaf Mattresses And Furniture,https://www.indiamart.com/nadaf-mattresses-furniture/?pos=89&kwd=baby mattress&tags=BB||||8302.941|Price|product|||NA|rsf:gd-|-stype:attr=1|qr_nm:gd|res:RC4|com-cf:nl|ptrs:na|ktp:N0|mc:45465|mtp:S|qry_typ:P|lang:en|wc:2|cs:8840|v=4,False,Nigdi,Pimpri Chinchwad,"Shop No.3 Gat.no-2 Ekta Chowk Rupeenagar Shramik Housing Society Pimpri Chinchwad Nigdi, Pune, Nigdi, Pimpri Chinchwad - 411062, Maharashtra",7949085628,
"Single Bed Cotton Baby Mattress (Woolen) (Godari), Packaging Type: Standard",https://www.indiamart.com/proddetail/baby-mattress-woolen-godari-23993060262.html?pos=90&kwd=baby mattress&tags=BB||||8228.275||product|||NA|rsf:gd-|-stype:attr=1|qr_nm:gd|res:RC4|com-cf:nl|ptrs:na|ktp:N0|mc:45465|mtp:S|qry_typ:P|lang:en|wc:2|cs:8840|v=4,V K Products,https://www.indiamart.com/vkproductsahmedabad/?pos=90&kwd=baby mattress&tags=BB||||8228.275||product|||NA|rsf:gd-|-stype:attr=1|qr_nm:gd|res:RC4|com-cf:nl|ptrs:na|ktp:N0|mc:45465|mtp:S|qry_typ:P|lang:en|wc:2|cs:8840|v=4,False,Bapunagar,Ahmedabad,"Ahmedabad, Bapunagar, Ahmedabad - 380024, Dist.Ahmedabad, Gujarat",8048987069,
Nagar international Blue Baby Toddler Mattress By Nagar,https://www.indiamart.com/proddetail/baby-toddler-mattress-by-nagar-16850131788.html?pos=91&kwd=baby mattress&tags=BB||||8788.382|Price|product|||NA|rsf:gd-|-stype:attr=1|qr_nm:gd|res:RC4|com-cf:nl|ptrs:na|ktp:N0|mc:45465|mtp:S|qry_typ:P|lang:en|wc:2|cs:8840|v=4,Nagar International,https://www.indiamart.com/nagar-international/?pos=91&kwd=baby mattress&tags=BB||||8788.382|Price|product|||NA|rsf:gd-|-stype:attr=1|qr_nm:gd|res:RC4|com-cf:nl|ptrs:na|ktp:N0|mc:45465|mtp:S|qry_typ:P|lang:en|wc:2|cs:8840|v=4,False,Jaypee Greens,Greater Noida,"SHOP NO 05,NEAR CORPORATION BANK, PRATAP PLAZA, MAIN KASNA PARI CHOWK ROAD,KASNA GREATER NOIDA Shop No 05, Main Kasna Pari Chowk Road, Pratap Plaza,201308,Greater Noida, Jaypee Greens, Greater Noida - 201306, Dist.Gautam Budh Nagar, Uttar Pradesh",8047813510,
Thickness: 4 Inches Cotton New Born Baby Bed Mattress,https://www.indiamart.com/proddetail/new-born-baby-bed-mattress-22162722648.html?pos=92&kwd=baby mattress&tags=BB||||8211.142|Price|product|||NA|rsf:gd-|-stype:attr=1|qr_nm:gd|res:RC4|com-cf:nl|ptrs:na|ktp:N0|mc:45465|mtp:S|qry_typ:P|lang:en|wc:2|cs:8840|v=4,Mahavir Baby,https://www.indiamart.com/mahavirbaby/?pos=92&kwd=baby mattress&tags=BB||||8211.142|Price|product|||NA|rsf:gd-|-stype:attr=1|qr_nm:gd|res:RC4|com-cf:nl|ptrs:na|ktp:N0|mc:45465|mtp:S|qry_typ:P|lang:en|wc:2|cs:8840|v=4,False,,Mumbai,"Room No. 8, Prabha Sadan, 198 2 Datta Mandir X Road, Malad East Suburban, Mumbai - 400097, Dist.Mumbai, Maharashtra",7942821207,
"Newborn Baby Cotton Soft Mattress, Packaging Type: Packet",https://www.indiamart.com/proddetail/newborn-baby-cotton-soft-mattress-23132590197.html?pos=93&kwd=baby mattress&tags=BB||||8228.275|Price|product|||NA|rsf:gd-|-stype:attr=1|qr_nm:gd|res:RC4|com-cf:nl|ptrs:na|ktp:N0|mc:45465|mtp:S|qry_typ:P|lang:en|wc:2|cs:8840|v=4,Sanjay Traders,https://www.indiamart.com/sanjaytradersahmedabad/?pos=93&kwd=baby mattress&tags=BB||||8228.275|Price|product|||NA|rsf:gd-|-stype:attr=1|qr_nm:gd|res:RC4|com-cf:nl|ptrs:na|ktp:N0|mc:45465|mtp:S|qry_typ:P|lang:en|wc:2|cs:8840|v=4,False,,Ahmedabad,"1,PARAS NAGAR PART-II, NR JETHABHAI NI VAVA,ISANPUR Opp. Jyoti Vidhyalay Parasnagar 2,382445,Ahmedabad, Ahmedabad - 382443, Dist.Ahmedabad, Gujarat",8046045819,
Thickness: 5 Inches Size: Single 56 GSM Cotton Baby Mattress,https://www.indiamart.com/proddetail/56-gsm-cotton-baby-mattress-23861036748.html?pos=94&kwd=baby mattress&tags=BB||||8211.142|Price|product|||NA|rsf:gd-|-stype:attr=1|qr_nm:gd|res:RC4|com-cf:nl|ptrs:na|ktp:N0|mc:45465|mtp:S|qry_typ:P|lang:en|wc:2|cs:8840|v=4,Star Creation,https://www.indiamart.com/starcreation-maharashtra/?pos=94&kwd=baby mattress&tags=BB||||8211.142|Price|product|||NA|rsf:gd-|-stype:attr=1|qr_nm:gd|res:RC4|com-cf:nl|ptrs:na|ktp:N0|mc:45465|mtp:S|qry_typ:P|lang:en|wc:2|cs:8840|v=4,False,Sonapur Bhandup West,Mumbai,"Gala No.5, Kamraj Chawl Azad Nagar Dara Cross Road, Sonapur Bhandup West, Mumbai - 400078, Dist.Mumbai, Maharashtra",8048612883,
Thickness: 4 Inches Cotton Baby Sky Blue Box Mattress Set,https://www.indiamart.com/proddetail/baby-sky-blue-box-mattress-set-2849671957712.html?pos=95&kwd=baby mattress&tags=BB||||8032.138||product|||NA|rsf:gd-|-stype:attr=1|qr_nm:gd|res:RC4|com-cf:nl|ptrs:na|ktp:N0|mc:45465|mtp:S|qry_typ:P|lang:en|wc:2|cs:8840|v=4,Ambition Of Creativity,https://www.indiamart.com/ambitionofcreativitygondal/?pos=95&kwd=baby mattress&tags=BB||||8032.138||product|||NA|rsf:gd-|-stype:attr=1|qr_nm:gd|res:RC4|com-cf:nl|ptrs:na|ktp:N0|mc:45465|mtp:S|qry_typ:P|lang:en|wc:2|cs:8840|v=4,False,Rajkot,Gondal,"Raiyaraj, Chokshi Nagar, Umvada Road,, Rajkot, Gondal - 360311, Dist.Rajkot, Gujarat",7942791225,
"Polyester Baby Breathable Waterproof Mattress Protector, 0.5 X 0.7 Meter, Thickness: 2 Mm",https://www.indiamart.com/proddetail/baby-breathable-waterproof-mattress-protector-22613790930.html?pos=96&kwd=baby mattress&tags=BB||||8211.142|Price|product|||NA|rsf:gd-|-stype:attr=1|qr_nm:gd|res:RC4|com-cf:nl|ptrs:na|ktp:N0|mc:45465|mtp:S|qry_typ:P|lang:en|wc:2|cs:8840|v=4,Richa Traders,https://www.indiamart.com/richatraders-maharashtra/?pos=96&kwd=baby mattress&tags=BB||||8211.142|Price|product|||NA|rsf:gd-|-stype:attr=1|qr_nm:gd|res:RC4|com-cf:nl|ptrs:na|ktp:N0|mc:45465|mtp:S|qry_typ:P|lang:en|wc:2|cs:8840|v=4,False,Dadar West,Mumbai,"20, Pearl Centre, Zarapkar Building Senapati Bapat Marg,, Dadar West, Mumbai - 400028, Dist.Mumbai, Maharashtra",8048961097,
Baby Pillow Luxury Baby Mattress Bed Sleeper,https://www.indiamart.com/proddetail/baby-pillow-luxury-baby-mattress-bed-sleeper-2853383347212.html?pos=97&kwd=baby mattress&tags=BA||||8234.203|Price|product|||NA|rsf:gd-|-stype:attr=1|qr_nm:gd|res:RC4|com-cf:nl|ptrs:na|ktp:N0|mc:45465|mtp:S|qry_typ:P|lang:en|wc:2|cs:8840|v=4,Inspire Hype,https://www.indiamart.com/inspirehype/?pos=97&kwd=baby mattress&tags=BA||||8234.203|Price|product|||NA|rsf:gd-|-stype:attr=1|qr_nm:gd|res:RC4|com-cf:nl|ptrs:na|ktp:N0|mc:45465|mtp:S|qry_typ:P|lang:en|wc:2|cs:8840|v=4,False,Denap,Visnagar,"4-B, C H Complex, Denap Tran Rasta Mahesana, Denap, Visnagar - 384315, Dist.Mehsana, Gujarat",7949224033,
Thickness: 5 Inches Size: Single Baby Pink Printed Mosquito Net Mattress,https://www.indiamart.com/proddetail/baby-pink-printed-mosquito-net-mattress-2852056111662.html?pos=98&kwd=baby mattress&tags=BA||||9837.182|Price|product|||NA|rsf:gd-|-stype:attr=1|qr_nm:gd|res:RC4|com-cf:nl|ptrs:na|ktp:N0|mc:45465|mtp:S|qry_typ:P|lang:en|wc:2|cs:8840|v=4,Shishu Bedding,https://www.indiamart.com/shishubedding/?pos=98&kwd=baby mattress&tags=BA||||9837.182|Price|product|||NA|rsf:gd-|-stype:attr=1|qr_nm:gd|res:RC4|com-cf:nl|ptrs:na|ktp:N0|mc:45465|mtp:S|qry_typ:P|lang:en|wc:2|cs:8840|v=4,False,Serampore,Serampore,"23 Parshi Lane, Hooghly, Serampore, Serampore - 712201, Dist.Hooghly, West Bengal",7942866832,
Blue Homecute Baby Bedding Set Foldable Mattress,https://www.indiamart.com/proddetail/homecute-baby-bedding-set-foldable-mattress-22217055188.html?pos=99&kwd=baby mattress&tags=BB||||9847.294|Price|product|||NA|rsf:gd-|-stype:attr=1|qr_nm:gd|res:RC4|com-cf:nl|ptrs:na|ktp:N0|mc:45465|mtp:S|qry_typ:P|lang:en|wc:2|cs:8840|v=4,Soumya Enterprise,https://www.indiamart.com/soumya-enter/?pos=99&kwd=baby mattress&tags=BB||||9847.294|Price|product|||NA|rsf:gd-|-stype:attr=1|qr_nm:gd|res:RC4|com-cf:nl|ptrs:na|ktp:N0|mc:45465|mtp:S|qry_typ:P|lang:en|wc:2|cs:8840|v=4,False,Madanpur,Kalyani,"1 No Anandanagar 1 No Anandanagar Anandanagar 1 No Anandanagar, Madanpur, Kalyani - 741245, Dist.Nadia, West Bengal",7942536820,
chadu Baby Net Mattress Bedding Set Mattress with Mosquito Net (0-12 months) Grey color,https://www.indiamart.com/proddetail/chadu-baby-net-mattress-bedding-set-mattress-with-mosquito-net-0-12-months-grey-color-2854186074448.html?pos=100&kwd=baby mattress&tags=BB||||8663.873|Price|product|||NA|rsf:gd-|-stype:attr=1|qr_nm:gd|res:RC4|com-cf:nl|ptrs:na|ktp:N0|mc:45465|mtp:S|qry_typ:P|lang:en|wc:2|cs:8840|v=4,Chadu,https://www.indiamart.com/chadu/?pos=100&kwd=baby mattress&tags=BB||||8663.873|Price|product|||NA|rsf:gd-|-stype:attr=1|qr_nm:gd|res:RC4|com-cf:nl|ptrs:na|ktp:N0|mc:45465|mtp:S|qry_typ:P|lang:en|wc:2|cs:8840|v=4,False,,Bengaluru,", Bengaluru - 560032, Dist.Bengaluru, Karnataka",8048370717,5972
NEW BORN BABY BEDDING SET/ NEW BORN BABY REVERSIBLE MATTRESS WITH PILLOW,https://www.indiamart.com/proddetail/new-born-baby-bedding-set-new-born-baby-reversible-mattress-with-pillow-2850659043948.html?pos=101&kwd=baby mattress&tags=BA||||8236.946|Price|product|||NA|rsf:gd-|-stype:attr=1|qr_nm:gd|res:RC4|com-cf:nl|ptrs:na|ktp:N0|mc:45465|mtp:S|qry_typ:P|lang:en|wc:2|cs:8840|v=4,Pranita Textile,https://www.indiamart.com/pranita-textile/?pos=101&kwd=baby mattress&tags=BA||||8236.946|Price|product|||NA|rsf:gd-|-stype:attr=1|qr_nm:gd|res:RC4|com-cf:nl|ptrs:na|ktp:N0|mc:45465|mtp:S|qry_typ:P|lang:en|wc:2|cs:8840|v=4,False,,Raigad,"Unit No 206, 2nd Fioor, Silver Springs, Taloja Midc, Taloja Panchanand, Raigad., Raigad - 410208, Maharashtra",8043855238,
"White Kutchi Work Baby Mattress, Thickness: 2 mm",https://www.indiamart.com/proddetail/white-kutchi-work-baby-mattress-25111312762.html?pos=102&kwd=baby mattress&tags=BB||||8038.093||product|||NA|rsf:gd-|-stype:attr=1|qr_nm:gd|res:RC4|com-cf:nl|ptrs:na|ktp:N0|mc:45465|mtp:S|qry_typ:P|lang:en|wc:2|cs:8840|v=4,Fabric Master,https://www.indiamart.com/fabric-master-rajkot/?pos=102&kwd=baby mattress&tags=BB||||8038.093||product|||NA|rsf:gd-|-stype:attr=1|qr_nm:gd|res:RC4|com-cf:nl|ptrs:na|ktp:N0|mc:45465|mtp:S|qry_typ:P|lang:en|wc:2|cs:8840|v=4,False,,Rajkot,"Ankur Nana Mava Road, 117 Radha Nagar, Rajkot - 360004, Dist.Rajkot, Gujarat",8047301139,
Size: Single Cotton Baby Mattress,https://www.indiamart.com/proddetail/baby-mattress-16357924388.html?pos=103&kwd=baby mattress&tags=BA||||8211.142|Price|product|||NA|rsf:gd-|-stype:attr=1|qr_nm:gd|res:RC4|com-cf:nl|ptrs:na|ktp:N0|mc:45465|mtp:S|qry_typ:P|lang:en|wc:2|cs:8840|v=4,Baby World,https://www.indiamart.com/babyworld/?pos=103&kwd=baby mattress&tags=BA||||8211.142|Price|product|||NA|rsf:gd-|-stype:attr=1|qr_nm:gd|res:RC4|com-cf:nl|ptrs:na|ktp:N0|mc:45465|mtp:S|qry_typ:P|lang:en|wc:2|cs:8840|v=4,False,Masjid Bandar,Mumbai,"12, Gorund Floor, Fatimabai Building, Dharamashala Street, Umerkhadi, Chinchbunder, Masjid Bandar, Mumbai - 400009, Dist.Mumbai, Maharashtra",7942539685,
Cotton Baby Goddi,https://www.indiamart.com/proddetail/baby-goddi-2853484645933.html?pos=104&kwd=baby mattress&tags=BA||||8168.6484|Price|product|||NA|rsf:gd-|-stype:attr=1|qr_nm:gd|res:RC4|com-cf:nl|ptrs:na|ktp:N0|mc:45465|mtp:S|qry_typ:P|lang:en|wc:2|cs:8840|v=4,Mahi Katpis ( Patnawala ),https://www.indiamart.com/mahikatpispatnawala-bhavnagar/?pos=104&kwd=baby mattress&tags=BA||||8168.6484|Price|product|||NA|rsf:gd-|-stype:attr=1|qr_nm:gd|res:RC4|com-cf:nl|ptrs:na|ktp:N0|mc:45465|mtp:S|qry_typ:P|lang:en|wc:2|cs:8840|v=4,False,kaliyabid,Bhavnagar,"virani sircle, kaliyabid, Bhavnagar - 364001, Dist.Bhavnagar, Gujarat",8047311012,3129
"Size: Single Cotton Baby Matress With Net, Thickness: 2 inch",https://www.indiamart.com/proddetail/baby-matress-with-net-26173205297.html?pos=105&kwd=baby mattress&tags=BA||||8228.275||product|||NA|rsf:gd-|-stype:attr=1|qr_nm:gd|res:RC4|com-cf:nl|ptrs:na|ktp:N0|mc:45465|mtp:S|qry_typ:P|lang:en|wc:2|cs:8840|v=4,Meet Collection,https://www.indiamart.com/meetcollection-ahmedabad/?pos=105&kwd=baby mattress&tags=BA||||8228.275||product|||NA|rsf:gd-|-stype:attr=1|qr_nm:gd|res:RC4|com-cf:nl|ptrs:na|ktp:N0|mc:45465|mtp:S|qry_typ:P|lang:en|wc:2|cs:8840|v=4,False,,Ahmedabad,"2404/a Nr Parbaram Mandir C Ward Kubernagar, Ahmedabad - 382340, Dist.Ahmedabad, Gujarat",8046032091,
TPU Membrane Laminated Baby Mat,https://www.indiamart.com/proddetail/tpu-membrane-laminated-baby-mat-3903158597.html?pos=106&kwd=baby mattress&tags=BB||||8211.142||product|||NA|rsf:gd-|-stype:attr=1|qr_nm:gd|res:RC4|com-cf:nl|ptrs:na|ktp:N0|mc:45465|mtp:S|qry_typ:P|lang:en|wc:2|cs:8840|v=4,Dharmin Creation,https://www.indiamart.com/payal-creation/?pos=106&kwd=baby mattress&tags=BB||||8211.142||product|||NA|rsf:gd-|-stype:attr=1|qr_nm:gd|res:RC4|com-cf:nl|ptrs:na|ktp:N0|mc:45465|mtp:S|qry_typ:P|lang:en|wc:2|cs:8840|v=4,False,Mazgaon,Mumbai,"BUILDING NO.01,MEHTA MANSION,DR.BABASAHEB AMBEDKAR ROAD,LALBAUG Laxmiwadi Shed, Besides Maruti Suzuki Showroom,400033,Mumbai, Mazgaon, Mumbai - 400012, Dist.Mumbai, Maharashtra",8047668721,
"Single Bed Cotton Baby Gadda Booster Set, Packaging Type: Plastic Bag",https://www.indiamart.com/proddetail/baby-gadda-booster-set-2851784886033.html?pos=107&kwd=baby mattress&tags=BB||||8752.144||product|||NA|rsf:gd-|-stype:attr=1|qr_nm:gd|res:RC4|com-cf:nl|ptrs:na|ktp:N0|mc:45465|mtp:S|qry_typ:P|lang:en|wc:2|cs:8840|v=4,Anu Creations,https://www.indiamart.com/anucreations-delhi/?pos=107&kwd=baby mattress&tags=BB||||8752.144||product|||NA|rsf:gd-|-stype:attr=1|qr_nm:gd|res:RC4|com-cf:nl|ptrs:na|ktp:N0|mc:45465|mtp:S|qry_typ:P|lang:en|wc:2|cs:8840|v=4,False,Karol Bagh,New Delhi,"4312, 2nd Floor, Gali Bahuji, Bahadur Garh Road, Sadar Bazar, Central Delhi, Karol Bagh, New Delhi - 110006, Dist.Delhi, Delhi",8047657412,
Size: Single Cotton Baby Waterproof Mattresses / Godadi,https://www.indiamart.com/proddetail/baby-waterproof-mattresses-godadi-2851965883655.html?pos=110&kwd=baby mattress&tags=BA||||8230.883|Price|product|||NA|rsf:gd-|-stype:attr=1|qr_nm:gd|res:RC4|com-cf:nl|ptrs:na|ktp:N0|mc:45465|mtp:S|qry_typ:P|lang:en|wc:2|cs:8840|v=4,Kiran Handicraft,https://www.indiamart.com/kiran-handicraft-surat/?pos=110&kwd=baby mattress&tags=BA||||8230.883|Price|product|||NA|rsf:gd-|-stype:attr=1|qr_nm:gd|res:RC4|com-cf:nl|ptrs:na|ktp:N0|mc:45465|mtp:S|qry_typ:P|lang:en|wc:2|cs:8840|v=4,False,Sanjay Nagar,Surat,"Plot No.-44, 45, Ground Floor And 1st Floor, Siddhi Vinayak Industrial Estate, Laskana, Sanjay Nagar, Surat - 395006, Dist.Surat, Gujarat",8047308089,
Godadi Dhaga,https://www.indiamart.com/proddetail/godadi-dhaga-2854773851373.html?pos=109&kwd=baby mattress&tags=BB||||8559.269|Price|product|||NA|rsf:gd-|-stype:attr=1|qr_nm:gd|res:RC4|com-cf:nl|ptrs:na|ktp:N0|mc:45465|mtp:S|qry_typ:P|lang:en|wc:2|cs:8840|v=4,Ma Chamunda Paper Tube,https://www.indiamart.com/ma-chamunda-paper-tube/?pos=109&kwd=baby mattress&tags=BB||||8559.269|Price|product|||NA|rsf:gd-|-stype:attr=1|qr_nm:gd|res:RC4|com-cf:nl|ptrs:na|ktp:N0|mc:45465|mtp:S|qry_typ:P|lang:en|wc:2|cs:8840|v=4,False,Nayta Mundla,Indore,"New Rto Road, Patthar Mundla Indore, Nayta Mundla, Indore - 452001, Dist.Indore, Madhya Pradesh",8048372772,380
Size: Single Cotton Baby Waterproof Mattresses / Godadi,https://www.indiamart.com/proddetail/baby-waterproof-mattresses-godadi-2851965883655.html?pos=110&kwd=baby mattress&tags=BA||||8230.883|Price|product|||NA|rsf:gd-|-stype:attr=1|qr_nm:gd|res:RC4|com-cf:nl|ptrs:na|ktp:N0|mc:45465|mtp:S|qry_typ:P|lang:en|wc:2|cs:8840|v=4,Kiran Handicraft,https://www.indiamart.com/kiran-handicraft-surat/?pos=110&kwd=baby mattress&tags=BA||||8230.883|Price|product|||NA|rsf:gd-|-stype:attr=1|qr_nm:gd|res:RC4|com-cf:nl|ptrs:na|ktp:N0|mc:45465|mtp:S|qry_typ:P|lang:en|wc:2|cs:8840|v=4,False,Sanjay Nagar,Surat,"Plot No.-44, 45, Ground Floor And 1st Floor, Siddhi Vinayak Industrial Estate, Laskana, Sanjay Nagar, Surat - 395006, Dist.Surat, Gujarat",8047308089,
Rectangular Cotton Baby Mattress,https://www.indiamart.com/proddetail/baby-mattress-2854758174562.html?pos=111&kwd=baby mattress&tags=BB||||9032.581|Price|product|||NA|rsf:gd-|-stype:attr=1|qr_nm:gd|res:RC4|com-cf:nl|ptrs:na|ktp:N0|mc:45465|mtp:S|qry_typ:P|lang:en|wc:2|cs:8840|v=4,New Laxmi Cycle Store,https://www.indiamart.com/new-laxmi-cycle-store/?pos=111&kwd=baby mattress&tags=BB||||9032.581|Price|product|||NA|rsf:gd-|-stype:attr=1|qr_nm:gd|res:RC4|com-cf:nl|ptrs:na|ktp:N0|mc:45465|mtp:S|qry_typ:P|lang:en|wc:2|cs:8840|v=4,False,,Katni,"Katni, Near Mukti Dham, Nadi Par Ram Manohar Lohiya Ward, Katni, Katni - 483501, Dist.Katni, Madhya Pradesh",8048370732,7584
"Cotton Multiple,Mix New Born Baby Bedding, 390 Gm, Infant,Baby",https://www.indiamart.com/proddetail/new-born-baby-bedding-2850561921348.html?pos=112&kwd=baby mattress&tags=BB||||8228.275||product|||NA|rsf:gd-|-stype:attr=1|qr_nm:gd|res:RC4|com-cf:nl|ptrs:na|ktp:N0|mc:45465|mtp:S|qry_typ:P|lang:en|wc:2|cs:8840|v=4,Vinayak Enterprise,https://www.indiamart.com/vinayakenterprise-186905971/?pos=112&kwd=baby mattress&tags=BB||||8228.275||product|||NA|rsf:gd-|-stype:attr=1|qr_nm:gd|res:RC4|com-cf:nl|ptrs:na|ktp:N0|mc:45465|mtp:S|qry_typ:P|lang:en|wc:2|cs:8840|v=4,False,,Ahmedabad,"B/4 Bus Stand Isanpur Road Shrijivan L I C Staff Co Op H Soc Ltd, Ahmedabad - 382443, Dist.Ahmedabad, Gujarat",8069264810,400
Thickness: 4 Inches Single Bed Baby Mattress Pillow Set,https://www.indiamart.com/proddetail/baby-mattress-pillow-set-2849765942555.html?pos=113&kwd=baby mattress&tags=BA||||8601.347||product|||NA|rsf:gd-|-stype:attr=1|qr_nm:gd|res:RC4|com-cf:nl|ptrs:na|ktp:N0|mc:45465|mtp:S|qry_typ:P|lang:en|wc:2|cs:8840|v=4,Bhagwati Enterprises,https://www.indiamart.com/bhagwati-enterprisesrajasthan/?pos=113&kwd=baby mattress&tags=BA||||8601.347||product|||NA|rsf:gd-|-stype:attr=1|qr_nm:gd|res:RC4|com-cf:nl|ptrs:na|ktp:N0|mc:45465|mtp:S|qry_typ:P|lang:en|wc:2|cs:8840|v=4,False,,Jaipur,"Ground Floor, ARG Murli Heights, Moti Doongri Road, Jaipur - 302004, Dist.Jaipur, Rajasthan",7942795447,
Baby Mattress,,Khodiyar Garments,https://www.indiamart.com/khodiyar-enterpirise/?pos=114&kwd=baby mattress&tags=BA||||8223.731|Price|product|||NA|rsf:gd-|-stype:attr=1|qr_nm:gd|res:RC4|com-cf:nl|ptrs:na|ktp:N0|mc:45465|mtp:S|qry_typ:P|lang:en|wc:2|cs:8840|v=4,False,KHAMBHAT,Khambhat,"f0152 Mochiwad Khambhat, KHAMBHAT, Khambhat - 388620, Dist.Anand, Gujarat",8069023915,158
Baby Mattress,,Chandulal K Shah,https://www.indiamart.com/chandulal-k-shah/?pos=115&kwd=baby mattress&tags=BB||||8316.457||product|||NA|rsf:gd-|-stype:attr=1|qr_nm:gd|res:RC4|com-cf:nl|ptrs:na|ktp:N0|mc:45465|mtp:S|qry_typ:P|lang:en|wc:2|cs:8840|v=4,False,Shalimar,Nashik,"1096, Main Road, Shalimar, Nashik - 422001, Dist.Nashik, Maharashtra",8047844086,
Baby Mattress,,Indico Soft Bed Works,https://www.indiamart.com/indico-soft-bed-works/?pos=116&kwd=baby mattress&tags=BB||||8706.587||product|||NA|rsf:gd-|-stype:attr=1|qr_nm:gd|res:RC4|com-cf:nl|ptrs:na|ktp:N0|mc:45465|mtp:S|qry_typ:P|lang:en|wc:2|cs:8840|v=4,False,,Madurai,"1st Floor,D No 6,Ramamoorthy Street,Chokkikulam,Madurai,Madurai, Madurai - 625002, Dist.Madurai, Tamil Nadu",8048370719,9025
Baby Mattress,,St Hardware,https://www.indiamart.com/st-hardware/?pos=117&kwd=baby mattress&tags=BB||||8626.744|Price|product|||NA|rsf:gd-|-stype:attr=1|qr_nm:gd|res:RC4|com-cf:nl|ptrs:na|ktp:N0|mc:45465|mtp:S|qry_typ:P|lang:en|wc:2|cs:8840|v=4,False,,Tiruppur,"palladam, Tiruppur - 641602, Dist.Coimbatore, Tamil Nadu",8048247089,5597
Baby Mattress,,Dev'S Enterprise,https://www.indiamart.com/devkunj-baby-mattress/?pos=118&kwd=baby mattress&tags=BA||||8230.883||product|||NA|rsf:gd-|-stype:attr=1|qr_nm:gd|res:RC4|com-cf:nl|ptrs:na|ktp:N0|mc:45465|mtp:S|qry_typ:P|lang:en|wc:2|cs:8840|v=4,False,Katargam,Surat,"Plot No.5, 1st Floor,backside, Magan Nagar-1, Katargam Singanpore Road,nr.dhanmora, Katargam, Katargam, Surat - 395004, Dist.Surat, Gujarat",8048250430,909
Kid Mattress,,Mahavir Enterprises,https://www.indiamart.com/mahavir-enterprismumbai/?pos=119&kwd=baby mattress&tags=BB||||8211.142||product|||NA|rsf:gd-|-stype:attr=1|qr_nm:gd|res:RC4|com-cf:nl|ptrs:na|ktp:N0|mc:45465|mtp:S|qry_typ:P|lang:en|wc:2|cs:8840|v=4,False,Malad East,Mumbai,"1 B, Hara Hira Mahal D 1, Malad East, Mumbai - 400097, Dist.Mumbai, Maharashtra",8048372080,497
Baby Mattress,,Mohini Shopee,https://www.indiamart.com/mohini-shopee/?pos=120&kwd=baby mattress&tags=BB||||8747.203|Price|product|||NA|rsf:gd-|-stype:attr=1|qr_nm:gd|res:RC4|com-cf:nl|ptrs:na|ktp:N0|mc:45465|mtp:S|qry_typ:P|lang:en|wc:2|cs:8840|v=4,False,,Panipat,"Insar Chowk Devi Mandir Road Panipat Panipat, Panipat - 132103, Dist.Panipat, Haryana",8048370182,6148
Baby Mattress,,Sanjay Furniture,https://www.indiamart.com/sanjay-marketing-madurai/?pos=121&kwd=baby mattress&tags=BB||||8706.587|Price|product|||NA|rsf:gd-|-stype:attr=1|qr_nm:gd|res:RC4|com-cf:nl|ptrs:na|ktp:N0|mc:45465|mtp:S|qry_typ:P|lang:en|wc:2|cs:8840|v=4,False,,Madurai,"no 111/1 Munichalai road near pandiyarajan hospital Madurai 625009, Madurai - 625018, Dist.Madurai, Tamil Nadu",7942650532,
Cotton Baby Mattress,,PATEL MATTRESSES AND TRADING,https://www.indiamart.com/patel-mattresses-and-trading/?pos=122&kwd=baby mattress&tags=B||||8230.883|Price|product|||NA|rsf:gd-|-stype:attr=1|qr_nm:gd|res:RC4|com-cf:nl|ptrs:na|ktp:N0|mc:45465|mtp:S|qry_typ:P|lang:en|wc:2|cs:8840|v=4,False,Kodiyar Nagar,Surat,"99 A K Road Diwalibaug Ind Eastate Surat City Surat Gujarat 395008, Kodiyar Nagar, Surat - 395008, Dist.Surat, Gujarat",8069707379,966
Newborn Baby Mattress,,Baby Toes,https://www.indiamart.com/baby-toes/?pos=123&kwd=baby mattress&tags=BA||||8307.81||product|||NA|rsf:gd-|-stype:attr=1|qr_nm:gd|res:RC4|com-cf:nl|ptrs:na|ktp:N0|mc:45465|mtp:S|qry_typ:P|lang:en|wc:2|cs:8840|v=4,False,Pune,Pune,"Lane No 03 Sr No 14/1 Thite Wasti Shivanjali Niwas Kharadi, Pune, Pune - 411014, Dist.Pune, Maharashtra",8062245975,656
Nagar international Blue Baby Toddler Mattress By Nagar,https://www.indiamart.com/proddetail/baby-toddler-mattress-by-nagar-16850131788.html?pos=124&kwd=baby mattress&tags=BB||||8788.382|Price|product|||NA|rsf:gd-|-stype:attr=1|qr_nm:gd|res:RC4|com-cf:nl|ptrs:na|ktp:N0|mc:45465|mtp:S|qry_typ:P|lang:en|wc:2|cs:8840|v=4,Nagar International,https://www.indiamart.com/nagar-international/?pos=124&kwd=baby mattress&tags=BB||||8788.382|Price|product|||NA|rsf:gd-|-stype:attr=1|qr_nm:gd|res:RC4|com-cf:nl|ptrs:na|ktp:N0|mc:45465|mtp:S|qry_typ:P|lang:en|wc:2|cs:8840|v=4,False,Jaypee Greens,Greater Noida,"SHOP NO 05,NEAR CORPORATION BANK, PRATAP PLAZA, MAIN KASNA PARI CHOWK ROAD,KASNA GREATER NOIDA Shop No 05, Main Kasna Pari Chowk Road, Pratap Plaza,201308,Greater Noida, Jaypee Greens, Greater Noida - 201306, Dist.Gautam Budh Nagar, Uttar Pradesh",8047813510,
Godadi,,Khodal Art,https://www.indiamart.com/khodal-art-junagadh/?pos=125&kwd=baby mattress&tags=BA||||7991.571|Price|product|||NA|rsf:gd-|-stype:attr=1|qr_nm:gd|res:RC4|com-cf:nl|ptrs:na|ktp:N0|mc:45465|mtp:S|qry_typ:P|lang:en|wc:2|cs:8840|v=4,False,,Junagadh,"Plot No 6 Nr Marketing Yard Maheshwari Nagar Dolatpara Junagadh Surat, Junagadh - 362037, Dist.Junagadh, Gujarat",8069728233,756
Baby Godadi,,Tara Ladies Tailors,https://www.indiamart.com/tara-ladies-tailors/?pos=126&kwd=baby mattress&tags=BB||||8331.224||product|||NA|rsf:gd-|-stype:attr=1|qr_nm:gd|res:RC4|com-cf:nl|ptrs:na|ktp:N0|mc:45465|mtp:S|qry_typ:P|lang:en|wc:2|cs:8840|v=4,False,Chinchwad Karveer,Kolhapur,"House No- 486 Ugare Galli, Chinchwad Karveer, Kolhapur - 416119, Dist.Kolhapur, Maharashtra",8047798304,
Baby Cotton Godadi,,S.H.Bags,https://www.indiamart.com/sh-bags-ahmedabad/?pos=127&kwd=baby mattress&tags=BB||||8228.275|Price|product|||NA|rsf:gd-|-stype:attr=1|qr_nm:gd|res:RC4|com-cf:nl|ptrs:na|ktp:N0|mc:45465|mtp:S|qry_typ:P|lang:en|wc:2|cs:8840|v=4,False,NAVA NARODA,Ahmedabad,"SHIV GANGA RESIDENCY A/5, GOPAL CHOWK OPP. DHARTI VIDHYALAY NAVA NARODA, NAVA NARODA, Ahmedabad - 382330, Dist.Ahmedabad, Gujarat",8043831137,
BABY GODADI,,ABHINANDAN ENTERPRISE,https://www.indiamart.com/abhinandan-enterprises-bhavnagar/?pos=128&kwd=baby mattress&tags=BB||||8168.6484||product|||NA|rsf:gd-|-stype:attr=1|qr_nm:gd|res:RC4|com-cf:nl|ptrs:na|ktp:N0|mc:45465|mtp:S|qry_typ:P|lang:en|wc:2|cs:8840|v=4,False,NR. KHARGATE,Bhavnagar,"NR. SACHI DEVI MANDIR, VORA STREET,, NR. KHARGATE, Bhavnagar - 364001, Dist.Bhavnagar, Gujarat",8069728306,452
Baby Godadi,,Rivaan Enterprise,https://www.indiamart.com/company/202154207/?pos=129&kwd=baby mattress&tags=BB||||8230.883|Price|product|||NA|rsf:gd-|-stype:attr=1|qr_nm:gd|res:RC4|com-cf:nl|ptrs:na|ktp:N0|mc:45465|mtp:S|qry_typ:P|lang:en|wc:2|cs:8840|v=4,False,Amroli,Surat,"First Floor, 109, 99 Shoping Center, Amroli Sayan Road, Amroli, Surat - 394107, Dist.Surat, Gujarat",8048247104,9716
Baby Gadda,,Suresh Garments,https://www.indiamart.com/sg-moti-chowk-triooliya-bazar-jodhpur/?pos=130&kwd=baby mattress&tags=BB||||8319.425|Price|product|||NA|rsf:gd-|-stype:attr=1|qr_nm:gd|res:RC4|com-cf:nl|ptrs:na|ktp:N0|mc:45465|mtp:S|qry_typ:P|lang:en|wc:2|cs:8840|v=4,False,,Jodhpur,"17E/179,,CHOPASNI HOUSING BOARD,JODHPUR Tripolia Bazar, Rawaton Ka Bass,342001,Jodhpur, Jodhpur - 342008, Dist.Jodhpur, Rajasthan",8048247120,2170
Baby Gadda Net,https://www.indiamart.com/proddetail/baby-gadda-net-10354207188.html?pos=131&kwd=baby mattress&tags=||||8752.144|Price|product|||TS|rsf:gd-|-stype:attr=1|qr_nm:gd|res:RC4|com-cf:nl|ptrs:na|ktp:N0|mc:45465|mtp:S|qry_typ:P|lang:en|wc:2|cs:8840|v=4,Gyasi Ram & Associates,https://www.indiamart.com/gyasiram/?pos=131&kwd=baby mattress&tags=||||8752.144|Price|product|||TS|rsf:gd-|-stype:attr=1|qr_nm:gd|res:RC4|com-cf:nl|ptrs:na|ktp:N0|mc:45465|mtp:S|qry_typ:P|lang:en|wc:2|cs:8840|v=4,False,Delhi Sadar Bazar,New Delhi,"458, Main Road, Sadar Bazar Near Bara Tooti Chowk, Delhi Sadar Bazar, New Delhi - 110006, Dist.Delhi, Delhi",8046043034,
"Baby Mattress With Mosquito Net, Bedding Set With Thick Base, Soft Pillow And Zip Closure",https://www.indiamart.com/proddetail/baby-mattress-with-mosquito-net-bedding-set-with-thick-base-soft-pillow-and-zip-closure-24622567912.html?pos=132&kwd=baby mattress&tags=||||9842.824|Price|product|||TS|rsf:gd-|-stype:attr=1|qr_nm:gd|res:RC4|com-cf:nl|ptrs:na|ktp:N0|mc:45465|mtp:S|qry_typ:P|lang:en|wc:2|cs:8840|v=4,Indilittle Global Export,https://www.indiamart.com/indilittleglobalexport/?pos=132&kwd=baby mattress&tags=||||9842.824|Price|product|||TS|rsf:gd-|-stype:attr=1|qr_nm:gd|res:RC4|com-cf:nl|ptrs:na|ktp:N0|mc:45465|mtp:S|qry_typ:P|lang:en|wc:2|cs:8840|v=4,False,Haripal,Hooghly,"BRAHMANPARA, NALIKUL PASCHIM, HARIPAL, Haripal, Hooghly - 712405, Dist.Hooghly, West Bengal",8048977919,
"White Kids Mattress Protector Waterproof, Machine wash, Thickness: 3mm",https://www.indiamart.com/proddetail/kids-mattress-protector-waterproof-2853119192662.html?pos=133&kwd=baby mattress&tags=||||8601.347|Price|product|||TS|rsf:gd-|-stype:attr=1|qr_nm:gd|res:RC4|com-cf:nl|ptrs:na|ktp:N0|mc:45465|mtp:S|qry_typ:P|lang:en|wc:2|cs:8840|v=4,C9 International Private Limited,https://www.cnineshop.com/?pos=133&kwd=baby mattress&tags=||||8601.347|Price|product|||TS|rsf:gd-|-stype:attr=1|qr_nm:gd|res:RC4|com-cf:nl|ptrs:na|ktp:N0|mc:45465|mtp:S|qry_typ:P|lang:en|wc:2|cs:8840|v=4,True,Mansarovar,Jaipur,"158 Sachivalay Nager Jaipur Jaipur 158 Sachivalay Nager, Mansarovar, Jaipur - 302015, Dist.Jaipur, Rajasthan",7942955323,
Thickness: 4 Inches Size: Single Bed Mattress For Hostels,https://www.indiamart.com/proddetail/bed-mattress-for-hostels-2852333651812.html?pos=134&kwd=baby mattress&tags=||||8823.154|Price|product|||TS|rsf:gd-|-stype:attr=1|qr_nm:gd|res:RC4|com-cf:nl|ptrs:na|ktp:N0|mc:45465|mtp:S|qry_typ:P|lang:en|wc:2|cs:8840|v=4,Liberty Foams Private Limited,https://www.indiamart.com/liberty-foams/?pos=134&kwd=baby mattress&tags=||||8823.154|Price|product|||TS|rsf:gd-|-stype:attr=1|qr_nm:gd|res:RC4|com-cf:nl|ptrs:na|ktp:N0|mc:45465|mtp:S|qry_typ:P|lang:en|wc:2|cs:8840|v=4,False,Sanjay Place,Agra,"Block No. 7, Office No. 6-11 Sanjay Place, Sanjay Place, Agra - 282001, Dist.Agra, Uttar Pradesh",8047664836,
"Single Bed Foam Shree Rubber Medium Sleeping Rapid Dry Mat, Packaging Type: Roll",https://www.indiamart.com/proddetail/shree-rubber-medium-sleeping-rapid-dry-mat-13113489091.html?pos=135&kwd=baby mattress&tags=CC||||8954.051|Price|product|||SSlc|rsf:gd-|-stype:attr=1|qr_nm:gd|res:RC4|com-cf:nl|ptrs:na|ktp:N0|mc:45465|mtp:S|qry_typ:P|lang:en|wc:2|cs:8840|v=4,Hindustan Industries,https://www.indiamart.com/hindustanindustries-chennai/?pos=135&kwd=baby mattress&tags=CC||||8954.051|Price|product|||SSlc|rsf:gd-|-stype:attr=1|qr_nm:gd|res:RC4|com-cf:nl|ptrs:na|ktp:N0|mc:45465|mtp:S|qry_typ:P|lang:en|wc:2|cs:8840|v=4,False,Seven Wells,Chennai,"No. 10/40, Mangammal Street Seven Wells, Seven Wells, Chennai - 600001, Dist.Chennai, Tamil Nadu",8046071147,
"Blue Rectangular Hospital Baby Mattress, Material: PU Foam",https://www.indiamart.com/proddetail/hospital-baby-mattress-2854748649673.html?pos=136&kwd=baby mattress&tags=||||8663.873|Price|product|||MDC|rsf:gd-|-stype:attr=1|qr_nm:gd|res:RC4|com-cf:nl|ptrs:na|ktp:N0|mc:45465|mtp:S|qry_typ:P|lang:en|wc:2|cs:8840|v=4,Sri Benaka Surgicals,https://www.indiamart.com/sribenakasurgicals/?pos=136&kwd=baby mattress&tags=||||8663.873|Price|product|||MDC|rsf:gd-|-stype:attr=1|qr_nm:gd|res:RC4|com-cf:nl|ptrs:na|ktp:N0|mc:45465|mtp:S|qry_typ:P|lang:en|wc:2|cs:8840|v=4,False,,Bengaluru,"Survey No 46, 412, Khatha No 16-54-412, 1st Main Road, Kamala Nagar, Bengaluru - 560079, Dist.Bengaluru, Karnataka",7949326348,
Brown Cotton Baby Waterproof Mattresses,https://www.indiamart.com/proddetail/baby-waterproof-mattresses-2854552278033.html?pos=137&kwd=baby mattress&tags=CC||||8747.203|Price|product|||TS|rsf:gd-|-stype:attr=1|qr_nm:gd|res:RC4|com-cf:nl|ptrs:na|ktp:N0|mc:45465|mtp:S|qry_typ:P|lang:en|wc:2|cs:8840|v=4,Vinayak Enterprises,https://www.vinayakenterprisesind.com/?pos=137&kwd=baby mattress&tags=CC||||8747.203|Price|product|||TS|rsf:gd-|-stype:attr=1|qr_nm:gd|res:RC4|com-cf:nl|ptrs:na|ktp:N0|mc:45465|mtp:S|qry_typ:P|lang:en|wc:2|cs:8840|v=4,False,,Panipat,"611/24 Opp. Goyal Petrol Pump Kishan Pura, Panipat - 132103, Dist.Panipat, Haryana",8045907780,
Baby Mattress,https://www.indiamart.com/proddetail/baby-mattress-2852104196148.html?pos=138&kwd=baby mattress&tags=CC||||8601.347|Price|product|||TS|rsf:gd-|-stype:attr=1|qr_nm:gd|res:RC4|com-cf:nl|ptrs:na|ktp:N0|mc:45465|mtp:S|qry_typ:P|lang:en|wc:2|cs:8840|v=4,Priya Enterprises,https://www.indiamart.com/priyaenterprisesjaipur/?pos=138&kwd=baby mattress&tags=CC||||8601.347|Price|product|||TS|rsf:gd-|-stype:attr=1|qr_nm:gd|res:RC4|com-cf:nl|ptrs:na|ktp:N0|mc:45465|mtp:S|qry_typ:P|lang:en|wc:2|cs:8840|v=4,False,Nehru Nagar,Jaipur,"G-210, Sitapura Industrial Area, Nehru Nagar, Jaipur - 302021, Dist.Jaipur, Rajasthan",8043859301,
"Size: Single Baby Cotton Mattress, Thickness: 2 inch",https://www.indiamart.com/proddetail/baby-cotton-mattress-2854047477012.html?pos=139&kwd=baby mattress&tags=CC||||8717.363|Price|product|||TS|rsf:gd-|-stype:attr=1|qr_nm:gd|res:RC4|com-cf:nl|ptrs:na|ktp:N0|mc:45465|mtp:S|qry_typ:P|lang:en|wc:2|cs:8840|v=4,Hublot Impex,https://www.hublotimpex.in/?pos=139&kwd=baby mattress&tags=CC||||8717.363|Price|product|||TS|rsf:gd-|-stype:attr=1|qr_nm:gd|res:RC4|com-cf:nl|ptrs:na|ktp:N0|mc:45465|mtp:S|qry_typ:P|lang:en|wc:2|cs:8840|v=4,False,Swamy Nagar,Namakkal,"Second Floor 3/227e5/2d West Street, Nalipalayam Bypass Road K J Complex Nallipalayam, Swamy Nagar, Namakkal - 637003, Dist.Namakkal, Tamil Nadu",8048600000,
"Single Bed Canvas Baby Soft Mattress, Packaging Type: Roll",https://www.indiamart.com/proddetail/baby-soft-mattress-11937616248.html?pos=140&kwd=baby mattress&tags=CC||||8752.144||product|||TS|rsf:gd-|-stype:attr=1|qr_nm:gd|res:RC4|com-cf:nl|ptrs:na|ktp:N0|mc:45465|mtp:S|qry_typ:P|lang:en|wc:2|cs:8840|v=4,SMC Mattresses Pvt. Ltd.,https://www.indiamart.com/smcmattresses-delhi/?pos=140&kwd=baby mattress&tags=CC||||8752.144||product|||TS|rsf:gd-|-stype:attr=1|qr_nm:gd|res:RC4|com-cf:nl|ptrs:na|ktp:N0|mc:45465|mtp:S|qry_typ:P|lang:en|wc:2|cs:8840|v=4,False,Bali Nagar,New Delhi,"C-49 Bali Nagar, Bali Nagar, New Delhi - 110015, Dist.Delhi, Delhi",8046071631,
"Size: Single Children Mattress, Material: Foam, Thickness: 5 inch",https://www.indiamart.com/proddetail/children-mattress-2852334096788.html?pos=141&kwd=baby mattress&tags=CC||||8601.347||product|||TS|rsf:gd-|-stype:attr=1|qr_nm:gd|res:RC4|com-cf:nl|ptrs:na|ktp:N0|mc:45465|mtp:S|qry_typ:P|lang:en|wc:2|cs:8840|v=4,Shagun Decor,https://www.shagundecorindia.com/?pos=141&kwd=baby mattress&tags=CC||||8601.347||product|||TS|rsf:gd-|-stype:attr=1|qr_nm:gd|res:RC4|com-cf:nl|ptrs:na|ktp:N0|mc:45465|mtp:S|qry_typ:P|lang:en|wc:2|cs:8840|v=4,False,Mansarovar,Jaipur,"No. 33/32, Shiprapath, Mansarovar, Mansarovar, Jaipur - 302020, Dist.Jaipur, Rajasthan",8046044420,
"Vama Coir and Foam Baby Soft Mattress, For Home, Thickness: 2-3 Inch",https://www.indiamart.com/proddetail/baby-soft-mattress-21177624897.html?pos=145&kwd=baby mattress&tags=||||8307.81|Price|product|||TS|rsf:gd-|-stype:attr=1|qr_nm:gd|res:RC4|com-cf:nl|ptrs:na|ktp:N0|mc:45465|mtp:S|qry_typ:P|lang:en|wc:2|cs:8840|v=4,Vama Home Furnishings,https://www.vamahomefurnishings.com/?pos=145&kwd=baby mattress&tags=||||8307.81|Price|product|||TS|rsf:gd-|-stype:attr=1|qr_nm:gd|res:RC4|com-cf:nl|ptrs:na|ktp:N0|mc:45465|mtp:S|qry_typ:P|lang:en|wc:2|cs:8840|v=4,False,Baner,Pune,"Shop No. 3 & 5, Aditi Samruddhi, S. No. 173/4, Baner, Pune - 411045, Dist.Pune, Maharashtra",8046032089,
"Thickness: 5 Inches Size: Double Newborn Baby Mattress, Packaging Type: Packet",https://www.indiamart.com/proddetail/newborn-baby-mattress-24930586630.html?pos=143&kwd=baby mattress&tags=CC||||8778.123|Price|product|||TS|rsf:gd-|-stype:attr=1|qr_nm:gd|res:RC4|com-cf:nl|ptrs:na|ktp:N0|mc:45465|mtp:S|qry_typ:P|lang:en|wc:2|cs:8840|v=4,AR Industries,https://www.indiamart.com/ar-industriesnoida/?pos=143&kwd=baby mattress&tags=CC||||8778.123|Price|product|||TS|rsf:gd-|-stype:attr=1|qr_nm:gd|res:RC4|com-cf:nl|ptrs:na|ktp:N0|mc:45465|mtp:S|qry_typ:P|lang:en|wc:2|cs:8840|v=4,False,Sector 5,Noida,"Ground Floor, A-37, Sec-5, Sector 5, Noida - 201301, Dist.Gautam Budh Nagar, Uttar Pradesh",8046056449,
Cuddle Cloud Baby Foam Mattress With Mattress Protector,https://www.indiamart.com/proddetail/cuddle-cloud-baby-foam-mattress-with-mattress-protector-2853597674948.html?pos=144&kwd=baby mattress&tags=CC||||8752.144|Price|product|||TS|rsf:gd-|-stype:attr=1|qr_nm:gd|res:RC4|com-cf:nl|ptrs:na|ktp:N0|mc:45465|mtp:S|qry_typ:P|lang:en|wc:2|cs:8840|v=4,Coir Comfort Industries (India) Pvt Ltd,https://www.indiamart.com/coir-comfort-industriesindia/?pos=144&kwd=baby mattress&tags=CC||||8752.144|Price|product|||TS|rsf:gd-|-stype:attr=1|qr_nm:gd|res:RC4|com-cf:nl|ptrs:na|ktp:N0|mc:45465|mtp:S|qry_typ:P|lang:en|wc:2|cs:8840|v=4,False,Najafgarh,New Delhi,"Prop No-196, Khasra No-196/2, Ground Floor, Najafgarh Road, Najafgarh, New Delhi - 110043, Dist.Delhi, Delhi",8043819437,
"Vama Coir and Foam Baby Soft Mattress, For Home, Thickness: 2-3 Inch",https://www.indiamart.com/proddetail/baby-soft-mattress-21177624897.html?pos=145&kwd=baby mattress&tags=||||8307.81|Price|product|||TS|rsf:gd-|-stype:attr=1|qr_nm:gd|res:RC4|com-cf:nl|ptrs:na|ktp:N0|mc:45465|mtp:S|qry_typ:P|lang:en|wc:2|cs:8840|v=4,Vama Home Furnishings,https://www.vamahomefurnishings.com/?pos=145&kwd=baby mattress&tags=||||8307.81|Price|product|||TS|rsf:gd-|-stype:attr=1|qr_nm:gd|res:RC4|com-cf:nl|ptrs:na|ktp:N0|mc:45465|mtp:S|qry_typ:P|lang:en|wc:2|cs:8840|v=4,False,Baner,Pune,"Shop No. 3 & 5, Aditi Samruddhi, S. No. 173/4, Baner, Pune - 411045, Dist.Pune, Maharashtra",8046032089,
"Baby Sleeping Bed Mattress with Anti-Flat Head, Single",https://www.indiamart.com/proddetail/baby-sleeping-bed-mattress-with-anti-flat-head-2852832370288.html?pos=146&kwd=baby mattress&tags=CC||||8211.142|Price|product|||TS|rsf:gd-|-stype:attr=1|qr_nm:gd|res:RC4|com-cf:nl|ptrs:na|ktp:N0|mc:45465|mtp:S|qry_typ:P|lang:en|wc:2|cs:8840|v=4,Homenity,https://www.homenity.in/?pos=146&kwd=baby mattress&tags=CC||||8211.142|Price|product|||TS|rsf:gd-|-stype:attr=1|qr_nm:gd|res:RC4|com-cf:nl|ptrs:na|ktp:N0|mc:45465|mtp:S|qry_typ:P|lang:en|wc:2|cs:8840|v=4,False,Masjid Bandar,Mumbai,"203, 2nd Floor, Plot-13a Mehajabeen Arcade, Chakala Cross Lane, Mumbai, Mumbai, Maharashtra, Masjid Bandar, Mumbai - 400003, Dist.Mumbai, Maharashtra",8047673711,
Size: Single Baby Saftey Foam - 2Meter,https://www.indiamart.com/proddetail/baby-saftey-foam-2meter-2853633275648.html?pos=147&kwd=baby mattress&tags=CC||||7964.7354|Price|product|||TS|rsf:gd-|-stype:attr=1|qr_nm:gd|res:RC4|com-cf:nl|ptrs:na|ktp:N0|mc:45465|mtp:S|qry_typ:P|lang:en|wc:2|cs:8840|v=4,Nineup Exim Private Limited,https://www.nineupexim.com/?pos=147&kwd=baby mattress&tags=CC||||7964.7354|Price|product|||TS|rsf:gd-|-stype:attr=1|qr_nm:gd|res:RC4|com-cf:nl|ptrs:na|ktp:N0|mc:45465|mtp:S|qry_typ:P|lang:en|wc:2|cs:8840|v=4,False,Patel Colony,Jamnagar,"5 Patel Colony Matru Chhaya Near Rangmati Apartment Road No 2/3 Jamnagar, Patel Colony, Jamnagar - 361008, Dist.Jamnagar, Gujarat",8047517606,
Thickness: 4 Inches Size: Single Baby Cotton Mattress,https://www.indiamart.com/proddetail/baby-cotton-mattress-27457896512.html?pos=148&kwd=baby mattress&tags=CC||||8706.587|Price|product|||MDC|rsf:gd-|-stype:attr=1|qr_nm:gd|res:RC4|com-cf:nl|ptrs:na|ktp:N0|mc:45465|mtp:S|qry_typ:P|lang:en|wc:2|cs:8840|v=4,Sri Sai Silks & Readymades,https://www.indiamart.com/srisai-silks-readymades/?pos=148&kwd=baby mattress&tags=CC||||8706.587|Price|product|||MDC|rsf:gd-|-stype:attr=1|qr_nm:gd|res:RC4|com-cf:nl|ptrs:na|ktp:N0|mc:45465|mtp:S|qry_typ:P|lang:en|wc:2|cs:8840|v=4,False,Narimedu,Madurai,"24/1, Jampuropuram 2nd Street, d, Narimedu, Madurai - 625002, Dist.Madurai, Tamil Nadu",7942675876,
Baby Elephant Mattress,https://www.indiamart.com/proddetail/baby-elephant-mattress-2853510308448.html?pos=149&kwd=baby mattress&tags=CC||||8230.883|Price|product|||MDC|rsf:gd-|-stype:attr=1|qr_nm:gd|res:RC4|com-cf:nl|ptrs:na|ktp:N0|mc:45465|mtp:S|qry_typ:P|lang:en|wc:2|cs:8840|v=4,Coolma Therapy,https://www.indiamart.com/coolmatherapy/?pos=149&kwd=baby mattress&tags=CC||||8230.883|Price|product|||MDC|rsf:gd-|-stype:attr=1|qr_nm:gd|res:RC4|com-cf:nl|ptrs:na|ktp:N0|mc:45465|mtp:S|qry_typ:P|lang:en|wc:2|cs:8840|v=4,False,Ashok Colony,Surat,"4, 1st Floor, Bhavani Society, L.H.Road Sai Nath Traders, Varachha, Ashok Colony, Surat - 395006, Dist.Surat, Gujarat",8047852005,
"Size: Single Cotton Newborn Baby Mattress, Thickness: 2 inch",https://www.indiamart.com/proddetail/cotton-newborn-baby-mattress-2854043358462.html?pos=150&kwd=baby mattress&tags=CC||||8752.144|Price|product|||MDC|rsf:gd-|-stype:attr=1|qr_nm:gd|res:RC4|com-cf:nl|ptrs:na|ktp:N0|mc:45465|mtp:S|qry_typ:P|lang:en|wc:2|cs:8840|v=4,A.D. Enterprises,https://www.indiamart.com/adenterprises-burari-newdelhi/?pos=150&kwd=baby mattress&tags=CC||||8752.144|Price|product|||MDC|rsf:gd-|-stype:attr=1|qr_nm:gd|res:RC4|com-cf:nl|ptrs:na|ktp:N0|mc:45465|mtp:S|qry_typ:P|lang:en|wc:2|cs:8840|v=4,False,North,New Delhi,"K.No-12/1, Main 25 FT. Road, Near Shyam Sweets, Uttranchal Enclave ,Kamal Pur, Burari, North, New Delhi - 110084, Dist.Delhi, Delhi",8044565004,
Single Cotton Baby So Jao Mattress,https://www.indiamart.com/proddetail/baby-so-jao-mattress-2852821577233.html?pos=151&kwd=baby mattress&tags=CC||||8661.854|Price|product|||MDC|rsf:gd-|-stype:attr=1|qr_nm:gd|res:RC4|com-cf:nl|ptrs:na|ktp:N0|mc:45465|mtp:S|qry_typ:P|lang:en|wc:2|cs:8840|v=4,Goodwill Pharmacy,https://www.indiamart.com/goodwill-pharmacy-punjab/?pos=151&kwd=baby mattress&tags=CC||||8661.854|Price|product|||MDC|rsf:gd-|-stype:attr=1|qr_nm:gd|res:RC4|com-cf:nl|ptrs:na|ktp:N0|mc:45465|mtp:S|qry_typ:P|lang:en|wc:2|cs:8840|v=4,False,Indl Colony,Ludhiana,"Shop No. 2, Guru Angad Dev Market, Janakpuri Chowk, Indl Colony, Ludhiana - 141003, Dist.Ludhiana, Punjab",8043873315,
Size: Single 6 Inch Cotton Newborn Baby Mattress,https://www.indiamart.com/proddetail/6-inch-cotton-newborn-baby-mattress-2852547247262.html?pos=152&kwd=baby mattress&tags=CC||||8774.064|Price|product|||MDC|rsf:gd-|-stype:attr=1|qr_nm:gd|res:RC4|com-cf:nl|ptrs:na|ktp:N0|mc:45465|mtp:S|qry_typ:P|lang:en|wc:2|cs:8840|v=4,You We Care,https://www.indiamart.com/you-we-care/?pos=152&kwd=baby mattress&tags=CC||||8774.064|Price|product|||MDC|rsf:gd-|-stype:attr=1|qr_nm:gd|res:RC4|com-cf:nl|ptrs:na|ktp:N0|mc:45465|mtp:S|qry_typ:P|lang:en|wc:2|cs:8840|v=4,False,Nagamangalam,Tiruchirappalli,"137, Vatc Nagar, Alampatti Road, Nagamangalam, Nagamangalam, Tiruchirappalli - 620012, Dist.Tiruchirappalli, Tamil Nadu",7942649406,
Zipper PVC Baby Mattress Mosquito Net Set,https://www.indiamart.com/proddetail/baby-mattress-mosquito-net-set-19828450112.html?pos=153&kwd=baby mattress&tags=CC||||8752.144|Price|product|||TS|rsf:gd-|-stype:attr=1|qr_nm:gd|res:RC4|com-cf:nl|ptrs:na|ktp:N0|mc:45465|mtp:S|qry_typ:P|lang:en|wc:2|cs:8840|v=4,Shaifali Traders,https://www.shopphiez.com/?pos=153&kwd=baby mattress&tags=CC||||8752.144|Price|product|||TS|rsf:gd-|-stype:attr=1|qr_nm:gd|res:RC4|com-cf:nl|ptrs:na|ktp:N0|mc:45465|mtp:S|qry_typ:P|lang:en|wc:2|cs:8840|v=4,False,PATPARGANJ,New Delhi,"Plot No 10, main road patparganj ganj, PATPARGANJ, New Delhi - 110091, Dist.Delhi, Delhi",8046033629,
"PVC Plain Little Monkeys Baby Dry Sheet, Blue",https://www.indiamart.com/proddetail/little-monkeys-baby-dry-sheet-2851497283230.html?pos=154&kwd=baby mattress&tags=CC||||8752.144|Price|product|||TS|rsf:gd-|-stype:attr=1|qr_nm:gd|res:RC4|com-cf:nl|ptrs:na|ktp:N0|mc:45465|mtp:S|qry_typ:P|lang:en|wc:2|cs:8840|v=4,Ekta Overseas,https://www.indiamart.com/ektaoverseas-newdelhi/?pos=154&kwd=baby mattress&tags=CC||||8752.144|Price|product|||TS|rsf:gd-|-stype:attr=1|qr_nm:gd|res:RC4|com-cf:nl|ptrs:na|ktp:N0|mc:45465|mtp:S|qry_typ:P|lang:en|wc:2|cs:8840|v=4,False,Shahdara,New Delhi,"1/95, Gali No.3, Near Navjeevan Phisical Center, Vishwas Nagar, Shahdara,, Shahdara, New Delhi - 110032, Dist.Delhi, Delhi",7942628926,
"Baby Mattress With Mosquito Net, For Home, Size: Medium",https://www.indiamart.com/proddetail/baby-mattress-with-mosquito-net-2851564424391.html?pos=155&kwd=baby mattress&tags=CC||||10180.86|Price|product|||MDC|rsf:gd-|-stype:attr=1|qr_nm:gd|res:RC4|com-cf:nl|ptrs:na|ktp:N0|mc:45465|mtp:S|qry_typ:P|lang:en|wc:2|cs:8840|v=4,Jyoti Enterprise,https://www.indiamart.com/jyoti-enterprise-assam/?pos=155&kwd=baby mattress&tags=CC||||10180.86|Price|product|||MDC|rsf:gd-|-stype:attr=1|qr_nm:gd|res:RC4|com-cf:nl|ptrs:na|ktp:N0|mc:45465|mtp:S|qry_typ:P|lang:en|wc:2|cs:8840|v=4,False,Bharalumukh,Guwahati,"House No. 15, K.R.C Road, Kumarpara, Rupnagar, Kamrup, Metropolitan, Bharalumukh, Guwahati - 781009, Dist.Kamrup, Assam",8043852875,
"Cotton Printed Sleeping Bag For New Born Baby / Newborn baby Godi bag, 0-6 Months",https://www.indiamart.com/proddetail/sleeping-bag-for-new-born-baby-newborn-baby-carry-bag-2853249999830.html?pos=156&kwd=baby mattress&tags=CC||||8559.269|Price|product|||MDC|rsf:gd-|-stype:attr=1|qr_nm:gd|res:RC4|com-cf:nl|ptrs:na|ktp:N0|mc:45465|mtp:S|qry_typ:P|lang:en|wc:2|cs:8840|v=4,Sheza Enterprises,https://www.indiamart.com/shezaenterprises/?pos=156&kwd=baby mattress&tags=CC||||8559.269|Price|product|||MDC|rsf:gd-|-stype:attr=1|qr_nm:gd|res:RC4|com-cf:nl|ptrs:na|ktp:N0|mc:45465|mtp:S|qry_typ:P|lang:en|wc:2|cs:8840|v=4,False,,Indore,"Alif House, 5, Khajrana Main Road, Opposite HP Petrol Pump,, Indore - 452001, Dist.Indore, Madhya Pradesh",7948547068,
"Size: Single Cotton Newborn Baby Mattress, Thickness: 2 inch",https://www.indiamart.com/proddetail/cotton-newborn-baby-mattress-2854043358462.html?pos=157&kwd=baby mattress&tags=CC||||8752.144|Price|product|||MDC|rsf:gd-|-stype:attr=1|qr_nm:gd|res:RC4|com-cf:nl|ptrs:na|ktp:N0|mc:45465|mtp:S|qry_typ:P|lang:en|wc:2|cs:8840|v=4,A.D. Enterprises,https://www.indiamart.com/adenterprises-burari-newdelhi/?pos=157&kwd=baby mattress&tags=CC||||8752.144|Price|product|||MDC|rsf:gd-|-stype:attr=1|qr_nm:gd|res:RC4|com-cf:nl|ptrs:na|ktp:N0|mc:45465|mtp:S|qry_typ:P|lang:en|wc:2|cs:8840|v=4,False,North,New Delhi,"K.No-12/1, Main 25 FT. Road, Near Shyam Sweets, Uttranchal Enclave ,Kamal Pur, Burari, North, New Delhi - 110084, Dist.Delhi, Delhi",8044565004,
"Zipper White Baby Gadda Mosquito Net, For Home",https://www.indiamart.com/proddetail/baby-gadda-mosquito-net-22385143830.html?pos=158&kwd=baby mattress&tags=||||8752.144|Price|product|||TS|rsf:gd-|-stype:attr=1|qr_nm:gd|res:RC4|com-cf:nl|ptrs:na|ktp:N0|mc:45465|mtp:S|qry_typ:P|lang:en|wc:2|cs:8840|v=4,Joginder Singh & Sons,https://www.indiamart.com/jogindersinghsons-delhi/?pos=158&kwd=baby mattress&tags=||||8752.144|Price|product|||TS|rsf:gd-|-stype:attr=1|qr_nm:gd|res:RC4|com-cf:nl|ptrs:na|ktp:N0|mc:45465|mtp:S|qry_typ:P|lang:en|wc:2|cs:8840|v=4,False,Lahori Gate,New Delhi,"5167,Lahori Gate,,Lahori Gate, Lahori Gate, New Delhi - 110006, Dist.Delhi, Delhi",8046030807,
"Single Bed Canvas Baby Soft Mattress, Packaging Type: Roll",https://www.indiamart.com/proddetail/baby-soft-mattress-11937616248.html?pos=159&kwd=baby mattress&tags=||||8752.144||product|||TS|rsf:gd-|-stype:attr=1|qr_nm:gd|res:RC4|com-cf:nl|ptrs:na|ktp:N0|mc:45465|mtp:S|qry_typ:P|lang:en|wc:2|cs:8840|v=4,SMC Mattresses Pvt. Ltd.,https://www.indiamart.com/smcmattresses-delhi/?pos=159&kwd=baby mattress&tags=||||8752.144||product|||TS|rsf:gd-|-stype:attr=1|qr_nm:gd|res:RC4|com-cf:nl|ptrs:na|ktp:N0|mc:45465|mtp:S|qry_typ:P|lang:en|wc:2|cs:8840|v=4,False,Bali Nagar,New Delhi,"C-49 Bali Nagar, Bali Nagar, New Delhi - 110015, Dist.Delhi, Delhi",8046071631,
"Size: Single Children Mattress, Material: Foam, Thickness: 5 inch",https://www.indiamart.com/proddetail/children-mattress-2852334096788.html?pos=160&kwd=baby mattress&tags=||||8601.347||product|||TS|rsf:gd-|-stype:attr=1|qr_nm:gd|res:RC4|com-cf:nl|ptrs:na|ktp:N0|mc:45465|mtp:S|qry_typ:P|lang:en|wc:2|cs:8840|v=4,Shagun Decor,https://www.shagundecorindia.com/?pos=160&kwd=baby mattress&tags=||||8601.347||product|||TS|rsf:gd-|-stype:attr=1|qr_nm:gd|res:RC4|com-cf:nl|ptrs:na|ktp:N0|mc:45465|mtp:S|qry_typ:P|lang:en|wc:2|cs:8840|v=4,False,Mansarovar,Jaipur,"No. 33/32, Shiprapath, Mansarovar, Mansarovar, Jaipur - 302020, Dist.Jaipur, Rajasthan",8046044420,
Baby Mattress,https://www.indiamart.com/proddetail/baby-mattress-2852104196148.html?pos=161&kwd=baby mattress&tags=||||8601.347|Price|product|||TS|rsf:gd-|-stype:attr=1|qr_nm:gd|res:RC4|com-cf:nl|ptrs:na|ktp:N0|mc:45465|mtp:S|qry_typ:P|lang:en|wc:2|cs:8840|v=4,Priya Enterprises,https://www.indiamart.com/priyaenterprisesjaipur/?pos=161&kwd=baby mattress&tags=||||8601.347|Price|product|||TS|rsf:gd-|-stype:attr=1|qr_nm:gd|res:RC4|com-cf:nl|ptrs:na|ktp:N0|mc:45465|mtp:S|qry_typ:P|lang:en|wc:2|cs:8840|v=4,False,Nehru Nagar,Jaipur,"G-210, Sitapura Industrial Area, Nehru Nagar, Jaipur - 302021, Dist.Jaipur, Rajasthan",8043859301,
Multicolor Baby Gadda Set,https://www.indiamart.com/proddetail/baby-gadda-set-8863455573.html?pos=162&kwd=baby mattress&tags=||||8211.142|Price|product|||TS|rsf:gd-|-stype:attr=1|qr_nm:gd|res:RC4|com-cf:nl|ptrs:na|ktp:N0|mc:45465|mtp:S|qry_typ:P|lang:en|wc:2|cs:8840|v=4,Welcome Enterprise,https://www.welcomeenterprise.in/?pos=162&kwd=baby mattress&tags=||||8211.142|Price|product|||TS|rsf:gd-|-stype:attr=1|qr_nm:gd|res:RC4|com-cf:nl|ptrs:na|ktp:N0|mc:45465|mtp:S|qry_typ:P|lang:en|wc:2|cs:8840|v=4,False,Santacruz West,Mumbai,"1,Gulam Rasul Chawl No. 149,Khot Wadi, Besant Road,Santacruz West, Santacruz West, Mumbai - 400054, Dist.Mumbai, Maharashtra",8048601972,
"Lifeline pure foam Children Mattress, Size/Dimension: 36x72x4"", Thickness: 4",https://www.indiamart.com/proddetail/children-mattress-24036284088.html?pos=163&kwd=baby mattress&tags=||||8876.815|Price|product|||TS|rsf:gd-|-stype:attr=1|qr_nm:gd|res:RC4|com-cf:nl|ptrs:na|ktp:N0|mc:45465|mtp:S|qry_typ:P|lang:en|wc:2|cs:8840|v=4,Spring Air,https://www.indiamart.com/springair/?pos=163&kwd=baby mattress&tags=||||8876.815|Price|product|||TS|rsf:gd-|-stype:attr=1|qr_nm:gd|res:RC4|com-cf:nl|ptrs:na|ktp:N0|mc:45465|mtp:S|qry_typ:P|lang:en|wc:2|cs:8840|v=4,False,Shanti Nagar,Nagpur,"Zehra Appti,Plot No.1004,Shanti Nagar,Nagpur City, Shanti Nagar, Nagpur - 440002, Dist.Nagpur, Maharashtra",8048953238,
"Floral Print Century White Children Mattress, Size/Dimension: 72x36 mm, Thickness: 3 To 5",https://www.indiamart.com/proddetail/century-white-children-mattress-22896451848.html?pos=164&kwd=baby mattress&tags=||||8223.226|Price|product|||TS|rsf:gd-|-stype:attr=1|qr_nm:gd|res:RC4|com-cf:nl|ptrs:na|ktp:N0|mc:45465|mtp:S|qry_typ:P|lang:en|wc:2|cs:8840|v=4,Jai Gopal Steel/The Full Cart,https://www.jaigopalsteel.co.in/?pos=164&kwd=baby mattress&tags=||||8223.226|Price|product|||TS|rsf:gd-|-stype:attr=1|qr_nm:gd|res:RC4|com-cf:nl|ptrs:na|ktp:N0|mc:45465|mtp:S|qry_typ:P|lang:en|wc:2|cs:8840|v=4,False,Manpada,Thane,"Near Sukur Garden, Kolshet Road, Dhokali, Manpada, Thane - 400607, Dist.Thane, Maharashtra",8047634515,
"Blue Baby Mattress Protector, Material: Terry Cotton, Dry clean",https://www.indiamart.com/proddetail/baby-mattress-protector-2854324731997.html?pos=165&kwd=baby mattress&tags=||||8786.56|Price|product|||MDC|rsf:gd-|-stype:attr=1|qr_nm:gd|res:RC4|com-cf:nl|ptrs:na|ktp:N0|mc:45465|mtp:S|qry_typ:P|lang:en|wc:2|cs:8840|v=4,Gingham Texofab,https://www.indiamart.com/gingham-texofab/?pos=165&kwd=baby mattress&tags=||||8786.56|Price|product|||MDC|rsf:gd-|-stype:attr=1|qr_nm:gd|res:RC4|com-cf:nl|ptrs:na|ktp:N0|mc:45465|mtp:S|qry_typ:P|lang:en|wc:2|cs:8840|v=4,False,,Hyderabad,"2-22-307, Plot No 36, KPHB Colony, Bhagyanagar Colony, Medchal Malkajgiri,, Hyderabad - 500072, Dist.Hyderabad, Telangana",8045736297,
"Size: Single Children Bed Mattress, Material: Cotton, Thickness: 2 inch",https://www.indiamart.com/proddetail/children-bed-mattress-24000132391.html?pos=166&kwd=baby mattress&tags=||||8752.144||product|||MDC|rsf:gd-|-stype:attr=1|qr_nm:gd|res:RC4|com-cf:nl|ptrs:na|ktp:N0|mc:45465|mtp:S|qry_typ:P|lang:en|wc:2|cs:8840|v=4,Goel Enterprises,https://www.indiamart.com/goelentp/?pos=166&kwd=baby mattress&tags=||||8752.144||product|||MDC|rsf:gd-|-stype:attr=1|qr_nm:gd|res:RC4|com-cf:nl|ptrs:na|ktp:N0|mc:45465|mtp:S|qry_typ:P|lang:en|wc:2|cs:8840|v=4,False,Rohini Avantika Sector 1,New Delhi,"B-385, Sector 1, Rohini, Avantika, Rohini Avantika Sector 1, New Delhi - 110085, Dist.Delhi, Delhi",8046061000,
Single Cotton Baby So Jao Mattress,https://www.indiamart.com/proddetail/baby-so-jao-mattress-2852821577233.html?pos=167&kwd=baby mattress&tags=||||8661.854|Price|product|||MDC|rsf:gd-|-stype:attr=1|qr_nm:gd|res:RC4|com-cf:nl|ptrs:na|ktp:N0|mc:45465|mtp:S|qry_typ:P|lang:en|wc:2|cs:8840|v=4,Goodwill Pharmacy,https://www.indiamart.com/goodwill-pharmacy-punjab/?pos=167&kwd=baby mattress&tags=||||8661.854|Price|product|||MDC|rsf:gd-|-stype:attr=1|qr_nm:gd|res:RC4|com-cf:nl|ptrs:na|ktp:N0|mc:45465|mtp:S|qry_typ:P|lang:en|wc:2|cs:8840|v=4,False,Indl Colony,Ludhiana,"Shop No. 2, Guru Angad Dev Market, Janakpuri Chowk, Indl Colony, Ludhiana - 141003, Dist.Ludhiana, Punjab",8043873315,
"Baby Bedding Mattress Polyester Mosquito Net, For Home",https://www.indiamart.com/proddetail/baby-bedding-mattress-polyester-mosquito-net-2854336760173.html?pos=168&kwd=baby mattress&tags=||||9045.955|Price|product|||MDC|rsf:gd-|-stype:attr=1|qr_nm:gd|res:RC4|com-cf:nl|ptrs:na|ktp:N0|mc:45465|mtp:S|qry_typ:P|lang:en|wc:2|cs:8840|v=4,Swadeshi Dengue Net Traders,https://www.indiamart.com/swadeshidenguenettraders/?pos=168&kwd=baby mattress&tags=||||9045.955|Price|product|||MDC|rsf:gd-|-stype:attr=1|qr_nm:gd|res:RC4|com-cf:nl|ptrs:na|ktp:N0|mc:45465|mtp:S|qry_typ:P|lang:en|wc:2|cs:8840|v=4,False,Pipauri,Kanpur,"Mardan Pur, Pipauri, Kanpur Nagar, Pipauri, Kanpur - 208001, Uttar Pradesh",8045736196,
"Baby Bedding Mattress Polyester Mosquito Net, For Home",https://www.indiamart.com/proddetail/baby-bedding-mattress-polyester-mosquito-net-2854336760173.html?pos=169&kwd=baby mattress&tags=||||9045.955|Price|product|||MDC|rsf:gd-|-stype:attr=1|qr_nm:gd|res:RC4|com-cf:nl|ptrs:na|ktp:N0|mc:45465|mtp:S|qry_typ:P|lang:en|wc:2|cs:8840|v=4,Swadeshi Dengue Net Traders,https://www.indiamart.com/swadeshidenguenettraders/?pos=169&kwd=baby mattress&tags=||||9045.955|Price|product|||MDC|rsf:gd-|-stype:attr=1|qr_nm:gd|res:RC4|com-cf:nl|ptrs:na|ktp:N0|mc:45465|mtp:S|qry_typ:P|lang:en|wc:2|cs:8840|v=4,False,Pipauri,Kanpur,"Mardan Pur, Pipauri, Kanpur Nagar, Pipauri, Kanpur - 208001, Uttar Pradesh",8045736196,
"Fleece Plain Drysheet for baby bed water proof bed protector mat - Medium Size, Maroon",https://www.indiamart.com/proddetail/drysheet-for-baby-bed-water-proof-bed-protector-mat-medium-size-2852588632373.html?pos=170&kwd=baby mattress&tags=||||8752.144|Price|product|||TS|rsf:gd-|-stype:attr=1|qr_nm:gd|res:RC4|com-cf:nl|ptrs:na|ktp:N0|mc:45465|mtp:S|qry_typ:P|lang:en|wc:2|cs:8840|v=4,Poshak Mandir,https://www.indiamart.com/phoshak-mandir/?pos=170&kwd=baby mattress&tags=||||8752.144|Price|product|||TS|rsf:gd-|-stype:attr=1|qr_nm:gd|res:RC4|com-cf:nl|ptrs:na|ktp:N0|mc:45465|mtp:S|qry_typ:P|lang:en|wc:2|cs:8840|v=4,False,Nangloi,New Delhi,"S/F D-41, Aman Puri, Najafgarh Road, Nangloi, Nangloi, New Delhi - 110041, Dist.Delhi, Delhi",7942628055,
"Single Metal bunk bed, Without Storage, Suitable For: Kids & Adults",https://www.indiamart.com/proddetail/metal-bunk-bed-2854082242012.html?pos=171&kwd=baby mattress&tags=||||8663.873|Price|product|||TS|rsf:gd-|-stype:attr=1|qr_nm:gd|res:RC4|com-cf:nl|ptrs:na|ktp:N0|mc:45465|mtp:S|qry_typ:P|lang:en|wc:2|cs:8840|v=4,Star Furniture,https://www.indiamart.com/starfurniture-karnataka/?pos=171&kwd=baby mattress&tags=||||8663.873|Price|product|||TS|rsf:gd-|-stype:attr=1|qr_nm:gd|res:RC4|com-cf:nl|ptrs:na|ktp:N0|mc:45465|mtp:S|qry_typ:P|lang:en|wc:2|cs:8840|v=4,False,,Bengaluru,"1st Floor, NO.9, 3rd Stage, Raiway Layout, Pillanna Garden, Bengaluru - 560045, Dist.Bengaluru, Karnataka",8048970458,
"Size: Double Bed Mattress, Thickness: 7 inch",https://www.indiamart.com/proddetail/bed-mattress-2854040486988.html?pos=172&kwd=baby mattress&tags=||||8663.873|Price|product|||TS|rsf:gd-|-stype:attr=1|qr_nm:gd|res:RC4|com-cf:nl|ptrs:na|ktp:N0|mc:45465|mtp:S|qry_typ:P|lang:en|wc:2|cs:8840|v=4,Shivan Tex Traders,https://www.indiamart.com/shivan-tex-traders/?pos=172&kwd=baby mattress&tags=||||8663.873|Price|product|||TS|rsf:gd-|-stype:attr=1|qr_nm:gd|res:RC4|com-cf:nl|ptrs:na|ktp:N0|mc:45465|mtp:S|qry_typ:P|lang:en|wc:2|cs:8840|v=4,False,Bettahalasur,Bengaluru,"Survey No 225/5, Shop No 2, Betahalsoor, ,Bangalore North, Bettahalasur, Bengaluru - 562157, Dist.Bengaluru, Karnataka",8047302471,
"Material: Cotton Printed Baby bommby sheet, Size: Medium",https://www.indiamart.com/proddetail/baby-bommby-sheet-2851226490688.html?pos=173&kwd=baby mattress&tags=D||||8752.144||proxy|||MDC|rsf:gd-|-stype:attr=1|qr_nm:gd|res:RC4|com-cf:nl|ptrs:na|ktp:N0|mc:45465|mtp:S|qry_typ:P|lang:en|wc:2|cs:8840|v=4,Prince And Princess,https://www.indiamart.com/prince-princess-delhi/?pos=173&kwd=baby mattress&tags=D||||8752.144||proxy|||MDC|rsf:gd-|-stype:attr=1|qr_nm:gd|res:RC4|com-cf:nl|ptrs:na|ktp:N0|mc:45465|mtp:S|qry_typ:P|lang:en|wc:2|cs:8840|v=4,False,Gulabi Bagh,New Delhi,"Ground Floor, Garage No - 74, Gulabi Bagh Road,, Gulabi Bagh, New Delhi - 110007, Dist.Delhi, Delhi",8047629125,
Baby Dry Sheet,https://www.indiamart.com/proddetail/baby-dry-sheet-2853409349097.html?pos=174&kwd=baby mattress&tags=||||8752.144|Price|proxy|||TS|rsf:gd-|-stype:attr=1|qr_nm:gd|res:RC4|com-cf:nl|ptrs:na|ktp:N0|mc:45465|mtp:S|qry_typ:P|lang:en|wc:2|cs:8840|v=4,Verma Enterprises,https://www.styaloindia.com/?pos=174&kwd=baby mattress&tags=||||8752.144|Price|proxy|||TS|rsf:gd-|-stype:attr=1|qr_nm:gd|res:RC4|com-cf:nl|ptrs:na|ktp:N0|mc:45465|mtp:S|qry_typ:P|lang:en|wc:2|cs:8840|v=4,False,Samaypur,New Delhi,"Plot No.180/1-B, Kh.No. 955/1, 1st, Block-C, Raja Vihar, Siraspur, Badli, North West Delhi, Samaypur, New Delhi - 110042, Dist.Delhi, Delhi",8047654672,
U 200 TC Baby Bedding with Mattress Set and Pillow,https://www.indiamart.com/proddetail/200-tc-baby-bedding-with-mattress-set-and-pillow-2853593929012.html?pos=175&kwd=baby mattress&tags=||||8747.203|Price|product|||TS|rsf:gd-|-stype:attr=1|qr_nm:gd|res:RC4|com-cf:nl|ptrs:na|ktp:N0|mc:45465|mtp:S|qry_typ:P|lang:en|wc:2|cs:8840|v=4,National Woollen & Finishers,https://www.nationalwoollen.com/?pos=175&kwd=baby mattress&tags=||||8747.203|Price|product|||TS|rsf:gd-|-stype:attr=1|qr_nm:gd|res:RC4|com-cf:nl|ptrs:na|ktp:N0|mc:45465|mtp:S|qry_typ:P|lang:en|wc:2|cs:8840|v=4,True,Huda,Panipat,"Plot No. 302, Industrial Area, Sector 29, Part II, Huda, Panipat - 132103, Dist.Panipat, Haryana",8048601812,
Baby Sheet Fabric,https://www.indiamart.com/proddetail/baby-sheet-fabric-2850811956955.html?pos=176&kwd=baby mattress&tags=||||8661.854|Price|proxy|||TS|rsf:gd-|-stype:attr=1|qr_nm:gd|res:RC4|com-cf:nl|ptrs:na|ktp:N0|mc:45465|mtp:S|qry_typ:P|lang:en|wc:2|cs:8840|v=4,A K Dyeing,https://www.akdyeing.co.in/?pos=176&kwd=baby mattress&tags=||||8661.854|Price|proxy|||TS|rsf:gd-|-stype:attr=1|qr_nm:gd|res:RC4|com-cf:nl|ptrs:na|ktp:N0|mc:45465|mtp:S|qry_typ:P|lang:en|wc:2|cs:8840|v=4,False,Puneet Nagar,Ludhiana,"tajpur Road Jaswal Complex Bhamian Kalan Brs Nagar Opp Central Jail, Puneet Nagar, Ludhiana - 141001, Dist.Ludhiana, Punjab",8046032681,
"Rubber Plain Cotton Baby Dry Sheet, Multicolor",https://www.indiamart.com/proddetail/cotton-baby-dry-sheet-2852775024630.html?pos=177&kwd=baby mattress&tags=||||8601.347|Price|proxy|||TS|rsf:gd-|-stype:attr=1|qr_nm:gd|res:RC4|com-cf:nl|ptrs:na|ktp:N0|mc:45465|mtp:S|qry_typ:P|lang:en|wc:2|cs:8840|v=4,Guru Sales,https://www.indiamart.com/gurusales/?pos=177&kwd=baby mattress&tags=||||8601.347|Price|proxy|||TS|rsf:gd-|-stype:attr=1|qr_nm:gd|res:RC4|com-cf:nl|ptrs:na|ktp:N0|mc:45465|mtp:S|qry_typ:P|lang:en|wc:2|cs:8840|v=4,False,,Jaipur,"Plot No. -19, Ashish Nagar Charan Nadi, By Pass, Murlipura, Jaipur - 302039, Dist.Jaipur, Rajasthan",8047690131,
"Yellow Micro Elastic Mattress Protector, Thickness: 1 Cm",https://www.indiamart.com/proddetail/elastic-mattress-protector-20935016191.html?pos=178&kwd=baby mattress&tags=||||8601.347|Price|proxy|||TS|rsf:gd-|-stype:attr=1|qr_nm:gd|res:RC4|com-cf:nl|ptrs:na|ktp:N0|mc:45465|mtp:S|qry_typ:P|lang:en|wc:2|cs:8840|v=4,Vicky Garments,https://www.hotellinenmanufacturer.com/?pos=178&kwd=baby mattress&tags=||||8601.347|Price|proxy|||TS|rsf:gd-|-stype:attr=1|qr_nm:gd|res:RC4|com-cf:nl|ptrs:na|ktp:N0|mc:45465|mtp:S|qry_typ:P|lang:en|wc:2|cs:8840|v=4,False,Jhotwara,Jaipur,"No. 82, Ganga Vihar Colony, Nagal Jaisa Bohra Dadi Ka Phatak, Jhotwara, Jaipur - 302012, Dist.Jaipur, Rajasthan",8046042378,
Polar Fleece Fabric Plain Baby Pink Cotton Drysheet,https://www.indiamart.com/proddetail/baby-pink-cotton-drysheet-2850964011688.html?pos=179&kwd=baby mattress&tags=||||8601.347|Price|proxy|||TS|rsf:gd-|-stype:attr=1|qr_nm:gd|res:RC4|com-cf:nl|ptrs:na|ktp:N0|mc:45465|mtp:S|qry_typ:P|lang:en|wc:2|cs:8840|v=4,Avi Sales,https://www.avisales.in/?pos=179&kwd=baby mattress&tags=||||8601.347|Price|proxy|||TS|rsf:gd-|-stype:attr=1|qr_nm:gd|res:RC4|com-cf:nl|ptrs:na|ktp:N0|mc:45465|mtp:S|qry_typ:P|lang:en|wc:2|cs:8840|v=4,False,Murlipura,Jaipur,"C/o M/s Biyani Aloise, SP 818G, Basement Road No. 14 Opposite Rochis Watches Factory, Vishwakarma Industrial Area, Murlipura, Jaipur - 302013, Dist.Jaipur, Rajasthan",8047630710,
Chhote Janab 5 Piece Baby Bedding Set,https://www.indiamart.com/proddetail/5-piece-baby-bedding-set-19619250130.html?pos=180&kwd=baby mattress&tags=||||8752.144|Price|proxy|||TS|rsf:gd-|-stype:attr=1|qr_nm:gd|res:RC4|com-cf:nl|ptrs:na|ktp:N0|mc:45465|mtp:S|qry_typ:P|lang:en|wc:2|cs:8840|v=4,Shree Balaji Infant Wear,https://www.indiamart.com/chhotejanab/?pos=180&kwd=baby mattress&tags=||||8752.144|Price|proxy|||TS|rsf:gd-|-stype:attr=1|qr_nm:gd|res:RC4|com-cf:nl|ptrs:na|ktp:N0|mc:45465|mtp:S|qry_typ:P|lang:en|wc:2|cs:8840|v=4,False,Pahari Dhiraj,New Delhi,"1583- 84, Hathi Khana, Aziz Ganj, Bahadur Garh Road, Pahari Dhiraj, New Delhi - 110006, Dist.Delhi, Delhi",8047639754,
Baby Mosquito Net Bed,,Swing 'N' Fly (A Brand of Zen Marketing),https://www.indiamart.com/zenmarketing-sahibabad/?pos=181&kwd=baby mattress&tags=||||8752.144|Price|proxy|||TS|rsf:gd-|-stype:attr=1|qr_nm:gd|res:RC4|com-cf:nl|ptrs:na|ktp:N0|mc:45465|mtp:S|qry_typ:P|lang:en|wc:2|cs:8840|v=4,False,Alipur,New Delhi,"Ground Floor, Kh No 55/17/2, Pawan Triveni Colony, Village Bakhtawarpur triveni colony, Alipur, New Delhi - 110036, Dist.Delhi, Delhi",7942559295,
Cotton Red Baby Mosquito Net Bed,https://www.indiamart.com/proddetail/baby-mosquito-net-bed-2853941099188.html?pos=182&kwd=baby mattress&tags=||||8281.036|Price|proxy|||TS|rsf:gd-|-stype:attr=1|qr_nm:gd|res:RC4|com-cf:nl|ptrs:na|ktp:N0|mc:45465|mtp:S|qry_typ:P|lang:en|wc:2|cs:8840|v=4,Classic Mosquito Net ( A Brand of Prayosha Expo Pvt. Ltd ),https://www.classicmosquitonet.co.in/?pos=182&kwd=baby mattress&tags=||||8281.036|Price|proxy|||TS|rsf:gd-|-stype:attr=1|qr_nm:gd|res:RC4|com-cf:nl|ptrs:na|ktp:N0|mc:45465|mtp:S|qry_typ:P|lang:en|wc:2|cs:8840|v=4,False,Industrial Estate,Vadodara,"C1B/267 Gidc, Opp. Prakruti Tiles, Makarpura Industrial Estate,, Industrial Estate, Vadodara - 390010, Dist.Vadodara, Gujarat",8046052164,
Rohit Purse Industries,,Rohit Purse Industries,https://www.indiamart.com/rohit-purse-industries/?pos=183&kwd=baby mattress&tags=D||||8752.144||bl|||TS|rsf:gd-|-stype:attr=1|qr_nm:gd|res:RC4|com-cf:nl|ptrs:na|ktp:N0|mc:45465|mtp:S|qry_typ:P|lang:en|wc:2|cs:8840|v=4,False,Delhi Sadar Bazar,New Delhi,"Ground, 2892/5, Qutab Road, Singhara Chowk, Delhi Sadar Bazar, New Delhi - 110006, Dist.Delhi, Delhi",8046059753,
"Activity Matress, Size: Double, Thickness: 5 Inches",https://www.indiamart.com/proddetail/activity-matress-21651893973.html?pos=184&kwd=baby mattress&tags=||||8954.051|Price|product|||TS|rsf:gd-|-stype:attr=1|qr_nm:gd|res:RC4|com-cf:nl|ptrs:na|ktp:N0|mc:45465|mtp:S|qry_typ:P|lang:en|wc:2|cs:8840|v=4,Sigma Medicare Systems,https://www.indiamart.com/sigma-medicaresystems/?pos=184&kwd=baby mattress&tags=||||8954.051|Price|product|||TS|rsf:gd-|-stype:attr=1|qr_nm:gd|res:RC4|com-cf:nl|ptrs:na|ktp:N0|mc:45465|mtp:S|qry_typ:P|lang:en|wc:2|cs:8840|v=4,False,Jaffarkhanpet,Chennai,"217, Gandhi Street, Pari Nagar, Jafferkhan Pet,, Jaffarkhanpet, Chennai - 600083, Dist.Chennai, Tamil Nadu",8046055890,
Double Luxury Memory Foam Mattress,https://www.indiamart.com/proddetail/luxury-memory-foam-mattress-2853083906291.html?pos=185&kwd=baby mattress&tags=||||8228.275|Price|proxy|||TS|rsf:gd-|-stype:attr=1|qr_nm:gd|res:RC4|com-cf:nl|ptrs:na|ktp:N0|mc:45465|mtp:S|qry_typ:P|lang:en|wc:2|cs:8840|v=4,Sona Mattresses,https://www.indiamart.com/sonamattresses/?pos=185&kwd=baby mattress&tags=||||8228.275|Price|proxy|||TS|rsf:gd-|-stype:attr=1|qr_nm:gd|res:RC4|com-cf:nl|ptrs:na|ktp:N0|mc:45465|mtp:S|qry_typ:P|lang:en|wc:2|cs:8840|v=4,False,Ahmedabad,Ahmedabad,"01, Radhika Enterprises, Undrel Undrel Branch Post Office, Ahmedabad, Ahmedabad - 382433, Dist.Ahmedabad, Gujarat",7942627987,
7 Inches IndoSleep Memory Foam Mattress,https://www.indiamart.com/proddetail/indosleep-memory-foam-mattress-23837876873.html?pos=186&kwd=baby mattress&tags=||||8769.508|Price|proxy|||TS|rsf:gd-|-stype:attr=1|qr_nm:gd|res:RC4|com-cf:nl|ptrs:na|ktp:N0|mc:45465|mtp:S|qry_typ:P|lang:en|wc:2|cs:8840|v=4,NKT Global INC,https://www.nktglobalinc.com/?pos=186&kwd=baby mattress&tags=||||8769.508|Price|proxy|||TS|rsf:gd-|-stype:attr=1|qr_nm:gd|res:RC4|com-cf:nl|ptrs:na|ktp:N0|mc:45465|mtp:S|qry_typ:P|lang:en|wc:2|cs:8840|v=4,False,Piyala,Faridabad,"Sikri Piyala Road Near Shiv Ram Dharam Kanta, Piyala, Faridabad - 121004, Dist.Faridabad, Haryana",8048263697,
"Cotton, Polycotton Mattress Protector",https://www.indiamart.com/proddetail/mattress-protector-10838008333.html?pos=187&kwd=baby mattress&tags=||||8307.81|Price|product|||TS|rsf:gd-|-stype:attr=1|qr_nm:gd|res:RC4|com-cf:nl|ptrs:na|ktp:N0|mc:45465|mtp:S|qry_typ:P|lang:en|wc:2|cs:8840|v=4,Srisa Enterprises,https://www.srisatextiles.in/?pos=187&kwd=baby mattress&tags=||||8307.81|Price|product|||TS|rsf:gd-|-stype:attr=1|qr_nm:gd|res:RC4|com-cf:nl|ptrs:na|ktp:N0|mc:45465|mtp:S|qry_typ:P|lang:en|wc:2|cs:8840|v=4,False,Erandwane,Pune,"No. 3, Aasmant, CTS No. 2A, F. P. No. 1/4, Near Rescon Factory Off Karve Road, Erandwane,, Erandwane, Pune - 411004, Dist.Pune, Maharashtra",8046054092,
Material: Polyester Plain Baby Cotton Dry Sheet,https://www.indiamart.com/proddetail/baby-cotton-dry-sheet-2853366324773.html?pos=188&kwd=baby mattress&tags=||||8601.347|Price|proxy|||MDC|rsf:gd-|-stype:attr=1|qr_nm:gd|res:RC4|com-cf:nl|ptrs:na|ktp:N0|mc:45465|mtp:S|qry_typ:P|lang:en|wc:2|cs:8840|v=4,Home Decor And Lifestyle,https://www.indiamart.com/homedecor-lifestyle/?pos=188&kwd=baby mattress&tags=||||8601.347|Price|proxy|||MDC|rsf:gd-|-stype:attr=1|qr_nm:gd|res:RC4|com-cf:nl|ptrs:na|ktp:N0|mc:45465|mtp:S|qry_typ:P|lang:en|wc:2|cs:8840|v=4,False,Amer,Jaipur,"Dukan No 02, Plot No 18, Power House Ke Pass, Ashok Vatika, Amer, Jaipur - 302017, Dist.Jaipur, Rajasthan",7949226452,
"Nylon Pink Baby Mosquito Net Bed, Size: Medium",https://www.indiamart.com/proddetail/pink-baby-mosquito-net-bed-2853389260948.html?pos=189&kwd=baby mattress&tags=||||9842.824|Price|proxy|||MDC|rsf:gd-|-stype:attr=1|qr_nm:gd|res:RC4|com-cf:nl|ptrs:na|ktp:N0|mc:45465|mtp:S|qry_typ:P|lang:en|wc:2|cs:8840|v=4,P. K. Enterprise,https://www.indiamart.com/pk-enterprise-hooghly/?pos=189&kwd=baby mattress&tags=||||9842.824|Price|proxy|||MDC|rsf:gd-|-stype:attr=1|qr_nm:gd|res:RC4|com-cf:nl|ptrs:na|ktp:N0|mc:45465|mtp:S|qry_typ:P|lang:en|wc:2|cs:8840|v=4,False,Subhash Nagar,Hooghly,"Bandel Station Road, 1 No Gandhi Colony, P.S - Chinsurah, P.O, Subhash Nagar, Hooghly - 712103, Dist.Hooghly, West Bengal",7949222298,
"Cotton Baby Mosquito Net, For Home, Size: Medium",https://www.indiamart.com/proddetail/baby-mosquito-net-2854902091073.html?pos=190&kwd=baby mattress&tags=||||9045.955|Price|proxy|||MDC|rsf:gd-|-stype:attr=1|qr_nm:gd|res:RC4|com-cf:nl|ptrs:na|ktp:N0|mc:45465|mtp:S|qry_typ:P|lang:en|wc:2|cs:8840|v=4,Bhanvareshvar,https://www.indiamart.com/bhanvareshvarkanpur/?pos=190&kwd=baby mattress&tags=||||9045.955|Price|proxy|||MDC|rsf:gd-|-stype:attr=1|qr_nm:gd|res:RC4|com-cf:nl|ptrs:na|ktp:N0|mc:45465|mtp:S|qry_typ:P|lang:en|wc:2|cs:8840|v=4,False,,Kanpur,"5/219 A, Purana, Kanpur - 208002, Uttar Pradesh",7949326672,
Baby Mattress,https://www.indiamart.com/proddetail/baby-mattress-7130582930.html?pos=191&kwd=baby mattress&tags=CA||||8307.81||product|||NA|rsf:gd-|-stype:attr=1|qr_nm:gd|res:RC4|com-cf:nl|ptrs:na|ktp:N0|mc:45465|mtp:S|qry_typ:P|lang:en|wc:2|cs:8840|v=4,Yashdeep Enterprises,https://www.indiamart.com/yashdeepenterprises/?pos=191&kwd=baby mattress&tags=CA||||8307.81||product|||NA|rsf:gd-|-stype:attr=1|qr_nm:gd|res:RC4|com-cf:nl|ptrs:na|ktp:N0|mc:45465|mtp:S|qry_typ:P|lang:en|wc:2|cs:8840|v=4,False,Maharshi Nagar,Pune,"85/678, Maharshi Nagar, Maharshi Nagar, Pune - 411037, Dist.Pune, Maharashtra",7942666269,
Baby Mattress,https://www.indiamart.com/proddetail/baby-mattress-15594477648.html?pos=192&kwd=baby mattress&tags=CA||||8211.142|Price|product|||NA|rsf:gd-|-stype:attr=1|qr_nm:gd|res:RC4|com-cf:nl|ptrs:na|ktp:N0|mc:45465|mtp:S|qry_typ:P|lang:en|wc:2|cs:8840|v=4,Tini Mini Care,https://www.indiamart.com/tini-mini-care-mumbai/?pos=192&kwd=baby mattress&tags=CA||||8211.142|Price|product|||NA|rsf:gd-|-stype:attr=1|qr_nm:gd|res:RC4|com-cf:nl|ptrs:na|ktp:N0|mc:45465|mtp:S|qry_typ:P|lang:en|wc:2|cs:8840|v=4,False,Malad East,Mumbai,"18,GAUTAM CO-OP SOCIETY, MAHANT ROAD, NEAR RUIA SCHOOL,VILEPARLE EAST No. 3, 1st Floor, Yeuvabial Colony, Datta Mandir Road, Malad East,400097,Mumbai, Malad East, Mumbai - 400057, Dist.Mumbai, Maharashtra",8062245146,268
Velvet Baby Mattress,https://www.indiamart.com/proddetail/velvet-baby-mattress-20515777855.html?pos=193&kwd=baby mattress&tags=CA||||8211.142||product|||NA|rsf:gd-|-stype:attr=1|qr_nm:gd|res:RC4|com-cf:nl|ptrs:na|ktp:N0|mc:45465|mtp:S|qry_typ:P|lang:en|wc:2|cs:8840|v=4,Orbit Enterprises,https://www.indiamart.com/orbit-ent/?pos=193&kwd=baby mattress&tags=CA||||8211.142||product|||NA|rsf:gd-|-stype:attr=1|qr_nm:gd|res:RC4|com-cf:nl|ptrs:na|ktp:N0|mc:45465|mtp:S|qry_typ:P|lang:en|wc:2|cs:8840|v=4,False,,Mumbai,"Gali No. 5, 2nd Floor, Diamond Shivagiri House, Khairani Road Nair Wadi Sakinaka, Mumbai - 400072, Dist.Mumbai, Maharashtra",8048372790,681
"Mother Love Cotton Baby Mattress, 2-3 Kg, 3-12 Months",https://www.indiamart.com/proddetail/baby-mattress-20257794691.html?pos=194&kwd=baby mattress&tags=CA||||9045.955|Price|product|||NA|rsf:gd-|-stype:attr=1|qr_nm:gd|res:RC4|com-cf:nl|ptrs:na|ktp:N0|mc:45465|mtp:S|qry_typ:P|lang:en|wc:2|cs:8840|v=4,Mother Love,https://www.indiamart.com/motherlove/?pos=194&kwd=baby mattress&tags=CA||||9045.955|Price|product|||NA|rsf:gd-|-stype:attr=1|qr_nm:gd|res:RC4|com-cf:nl|ptrs:na|ktp:N0|mc:45465|mtp:S|qry_typ:P|lang:en|wc:2|cs:8840|v=4,False,,Kanpur,"101/4, Colonal Ganj, Kanpur - 208001, Uttar Pradesh",8069013891,837
Baby Mattress,https://www.indiamart.com/proddetail/baby-mattress-13733541148.html?pos=195&kwd=baby mattress&tags=CA||||8211.142||product|||NA|rsf:gd-|-stype:attr=1|qr_nm:gd|res:RC4|com-cf:nl|ptrs:na|ktp:N0|mc:45465|mtp:S|qry_typ:P|lang:en|wc:2|cs:8840|v=4,Advance Baby Products LLP,https://www.indiamart.com/advance-baby-products-llp-mumbai/?pos=195&kwd=baby mattress&tags=CA||||8211.142||product|||NA|rsf:gd-|-stype:attr=1|qr_nm:gd|res:RC4|com-cf:nl|ptrs:na|ktp:N0|mc:45465|mtp:S|qry_typ:P|lang:en|wc:2|cs:8840|v=4,False,Dadar West,Mumbai,"C-26,Antophill warehousing,vidya lankar college marg,wadala, Dadar West, Mumbai - 400028, Dist.Mumbai, Maharashtra",8069023912,425
"Red Plain Baby Dry Sheet, For Home",https://www.indiamart.com/proddetail/baby-dry-sheet-2851273165962.html?pos=196&kwd=baby mattress&tags=||||8211.142|Price|product|||TS|rsf:gd-|-stype:attr=1|qr_nm:gd|res:RC4|com-cf:nl|ptrs:na|ktp:N0|mc:45465|mtp:S|qry_typ:P|lang:en|wc:2|cs:8840|v=4,Sidhshlok Enterprises,https://www.indiamart.com/sidhshlokenterprises/?pos=196&kwd=baby mattress&tags=||||8211.142|Price|product|||TS|rsf:gd-|-stype:attr=1|qr_nm:gd|res:RC4|com-cf:nl|ptrs:na|ktp:N0|mc:45465|mtp:S|qry_typ:P|lang:en|wc:2|cs:8840|v=4,False,Mulund West,Mumbai,"A-9, Chagpar Khimaji, R R T Road, Mumbai Suburban, Mulund West, Mumbai - 400080, Dist.Mumbai, Maharashtra",7942832648,
Baby Mattress Set,,Krivi Kids,https://www.indiamart.com/krivi-kids/?pos=197&kwd=baby mattress&tags=CA||||8954.051||product|||NA|rsf:gd-|-stype:attr=1|qr_nm:gd|res:RC4|com-cf:nl|ptrs:na|ktp:N0|mc:45465|mtp:S|qry_typ:P|lang:en|wc:2|cs:8840|v=4,False,Adyar Shastri Nagar,Chennai,"Flat No.4, Old No.10, New No. 26, Sri Saikrupa Apartments, 1st Cross Street, Shastri Nagar, Adyar, Adyar Shastri Nagar, Chennai - 600020, Dist.Chennai, Tamil Nadu",8048249959,211
Cotton Baby Mattress Set,https://www.indiamart.com/proddetail/cotton-baby-mattress-set-12646952648.html?pos=198&kwd=baby mattress&tags=CA||||8752.144|Price|product|||NA|rsf:gd-|-stype:attr=1|qr_nm:gd|res:RC4|com-cf:nl|ptrs:na|ktp:N0|mc:45465|mtp:S|qry_typ:P|lang:en|wc:2|cs:8840|v=4,Mittal Manufacturing Company,https://www.indiamart.com/mittalmanufacturingco/?pos=198&kwd=baby mattress&tags=CA||||8752.144|Price|product|||NA|rsf:gd-|-stype:attr=1|qr_nm:gd|res:RC4|com-cf:nl|ptrs:na|ktp:N0|mc:45465|mtp:S|qry_typ:P|lang:en|wc:2|cs:8840|v=4,False,Sadar Bazaar,New Delhi,"4273, IIIrd Floor, Gali Bahuji, Pahari Dhiraj, Sadar Bazaar, New Delhi - 110006, Dist.Delhi, Delhi",8048372748,189
Customized Baby Mattress,https://www.indiamart.com/proddetail/customized-baby-mattress-4221403673.html?pos=201&kwd=baby mattress&tags=CA||||9839.57||product|||NA|rsf:gd-|-stype:attr=1|qr_nm:gd|res:RC4|com-cf:nl|ptrs:na|ktp:N0|mc:45465|mtp:S|qry_typ:P|lang:en|wc:2|cs:8840|v=4,Deblok Industries Private Limited,https://www.indiamart.com/deblok-industries/?pos=201&kwd=baby mattress&tags=CA||||9839.57||product|||NA|rsf:gd-|-stype:attr=1|qr_nm:gd|res:RC4|com-cf:nl|ptrs:na|ktp:N0|mc:45465|mtp:S|qry_typ:P|lang:en|wc:2|cs:8840|v=4,False,Prafulla Kanan,Kolkata,"A. B. 65, Prafulla Kanan West, Near Kestopur Junction, V. I. P. Road Crossing, Prafulla Kanan, Kolkata - 700101, Dist.Kolkata, West Bengal",8043800713,
Abracadabra Multicolor Whale Baby Mattress Set,https://www.indiamart.com/proddetail/whale-baby-mattress-set-15237251033.html?pos=200&kwd=baby mattress&tags=CA||||9839.57|Price|product|||NA|rsf:gd-|-stype:attr=1|qr_nm:gd|res:RC4|com-cf:nl|ptrs:na|ktp:N0|mc:45465|mtp:S|qry_typ:P|lang:en|wc:2|cs:8840|v=4,ARS Abundance,https://www.indiamart.com/ars-abundance-kolkata/?pos=200&kwd=baby mattress&tags=CA||||9839.57|Price|product|||NA|rsf:gd-|-stype:attr=1|qr_nm:gd|res:RC4|com-cf:nl|ptrs:na|ktp:N0|mc:45465|mtp:S|qry_typ:P|lang:en|wc:2|cs:8840|v=4,False,Ballygunge,Kolkata,"1 A, Cornfield Road, Ballygunge, Kolkata - 700019, Dist.Kolkata, West Bengal",8048247130,1419
Customized Baby Mattress,https://www.indiamart.com/proddetail/customized-baby-mattress-4221403673.html?pos=201&kwd=baby mattress&tags=CA||||9839.57||product|||NA|rsf:gd-|-stype:attr=1|qr_nm:gd|res:RC4|com-cf:nl|ptrs:na|ktp:N0|mc:45465|mtp:S|qry_typ:P|lang:en|wc:2|cs:8840|v=4,Deblok Industries Private Limited,https://www.indiamart.com/deblok-industries/?pos=201&kwd=baby mattress&tags=CA||||9839.57||product|||NA|rsf:gd-|-stype:attr=1|qr_nm:gd|res:RC4|com-cf:nl|ptrs:na|ktp:N0|mc:45465|mtp:S|qry_typ:P|lang:en|wc:2|cs:8840|v=4,False,Prafulla Kanan,Kolkata,"A. B. 65, Prafulla Kanan West, Near Kestopur Junction, V. I. P. Road Crossing, Prafulla Kanan, Kolkata - 700101, Dist.Kolkata, West Bengal",8043800713,
"Polyester Baby Mosquito Net Bed, For Home, Size: Medium",https://www.indiamart.com/proddetail/baby-bed-mosquito-net-2854246883962.html?pos=202&kwd=baby mattress&tags=||||9829.308|Price|proxy|||MDC|rsf:gd-|-stype:attr=1|qr_nm:gd|res:RC4|com-cf:nl|ptrs:na|ktp:N0|mc:45465|mtp:S|qry_typ:P|lang:en|wc:2|cs:8840|v=4,Alena Enterprise,https://www.indiamart.com/alenaenterprise/?pos=202&kwd=baby mattress&tags=||||9829.308|Price|proxy|||MDC|rsf:gd-|-stype:attr=1|qr_nm:gd|res:RC4|com-cf:nl|ptrs:na|ktp:N0|mc:45465|mtp:S|qry_typ:P|lang:en|wc:2|cs:8840|v=4,False,,Howrah,"Kantagachi, Naul, Shyampur, Howrah - 711312, Dist.Howrah, West Bengal",7949325353,
"Size: Single Fleece Newly Born Baby Sheet, For Home, Blue",https://www.indiamart.com/proddetail/newly-born-baby-sheet-2853044047433.html?pos=203&kwd=baby mattress&tags=||||8752.144|Price|proxy|||TS|rsf:gd-|-stype:attr=1|qr_nm:gd|res:RC4|com-cf:nl|ptrs:na|ktp:N0|mc:45465|mtp:S|qry_typ:P|lang:en|wc:2|cs:8840|v=4,ViVa Plast Private Limited,https://www.pvcworld.in/?pos=203&kwd=baby mattress&tags=||||8752.144|Price|proxy|||TS|rsf:gd-|-stype:attr=1|qr_nm:gd|res:RC4|com-cf:nl|ptrs:na|ktp:N0|mc:45465|mtp:S|qry_typ:P|lang:en|wc:2|cs:8840|v=4,False,Jhandewalan,New Delhi,"No. 10795, 2nd Floor, Rexine Bazar, Jhandewalan Road Nabi Karim, Paharganj, Jhandewalan, New Delhi - 110055, Dist.Delhi, Delhi",8048983197,
"Nylon Brown 6 Taar Sattan Umbrella Baby Mosquito Net, For Home",https://www.indiamart.com/proddetail/brown-6-taar-sattan-umbrella-baby-mosquito-net-2854414291530.html?pos=204&kwd=baby mattress&tags=||||8752.144|Price|proxy|||MDC|rsf:gd-|-stype:attr=1|qr_nm:gd|res:RC4|com-cf:nl|ptrs:na|ktp:N0|mc:45465|mtp:S|qry_typ:P|lang:en|wc:2|cs:8840|v=4,Shri Raj Parnami,https://www.indiamart.com/shri-raj-parnami/?pos=204&kwd=baby mattress&tags=||||8752.144|Price|proxy|||MDC|rsf:gd-|-stype:attr=1|qr_nm:gd|res:RC4|com-cf:nl|ptrs:na|ktp:N0|mc:45465|mtp:S|qry_typ:P|lang:en|wc:2|cs:8840|v=4,False,,New Delhi,"Shop No.406, Main Road, Azad Market, Central Delhi,, New Delhi - 110006, Dist.Delhi, Delhi",7949338213,
Good Quality Cotton Baby Bedding Set,https://www.indiamart.com/proddetail/baby-bedding-set-22261401388.html?pos=205&kwd=baby mattress&tags=||||9829.308|Price|proxy|||TS|rsf:gd-|-stype:attr=1|qr_nm:gd|res:RC4|com-cf:nl|ptrs:na|ktp:N0|mc:45465|mtp:S|qry_typ:P|lang:en|wc:2|cs:8840|v=4,Yash Garment,https://www.indiamart.com/yash-garment/?pos=205&kwd=baby mattress&tags=||||9829.308|Price|proxy|||TS|rsf:gd-|-stype:attr=1|qr_nm:gd|res:RC4|com-cf:nl|ptrs:na|ktp:N0|mc:45465|mtp:S|qry_typ:P|lang:en|wc:2|cs:8840|v=4,False,Ross Road,Howrah,"Gali No.38/25, Ross Road, Howrah - 711101, Dist.Howrah, West Bengal",7942556350,
"upto 4 Waterproof Mattress Protector, Material: Terry Cotton, Machine wash",https://www.indiamart.com/proddetail/waterproof-mattress-protector-2853525311430.html?pos=206&kwd=baby mattress&tags=||||8228.275|Price|proxy|||TS|rsf:gd-|-stype:attr=1|qr_nm:gd|res:RC4|com-cf:nl|ptrs:na|ktp:N0|mc:45465|mtp:S|qry_typ:P|lang:en|wc:2|cs:8840|v=4,Kalptaru Traders,https://www.kalpatarutraders.com/?pos=206&kwd=baby mattress&tags=||||8228.275|Price|proxy|||TS|rsf:gd-|-stype:attr=1|qr_nm:gd|res:RC4|com-cf:nl|ptrs:na|ktp:N0|mc:45465|mtp:S|qry_typ:P|lang:en|wc:2|cs:8840|v=4,False,Darwaja,Ahmedabad,"A/2, Kadia Ni Wadi, Panchkuva Darwaja, Darwaja, Ahmedabad - 380001, Dist.Ahmedabad, Gujarat",8046077862,
"Epe Bonded Mattress 4 Inch, Size: Single",https://www.indiamart.com/proddetail/epe-bonded-mattress-4-inch-2854246302197.html?pos=207&kwd=baby mattress&tags=||||9045.955|Price|proxy|||MDC|rsf:gd-|-stype:attr=1|qr_nm:gd|res:RC4|com-cf:nl|ptrs:na|ktp:N0|mc:45465|mtp:S|qry_typ:P|lang:en|wc:2|cs:8840|v=4,The Mattress Company,https://www.indiamart.com/themattresscompany/?pos=207&kwd=baby mattress&tags=||||9045.955|Price|proxy|||MDC|rsf:gd-|-stype:attr=1|qr_nm:gd|res:RC4|com-cf:nl|ptrs:na|ktp:N0|mc:45465|mtp:S|qry_typ:P|lang:en|wc:2|cs:8840|v=4,False,,Kanpur,"PIS3/G/70, Industrial Estate Panki, Kanpur Nagar, Kanpur - 208020, Uttar Pradesh",7949340830,
Wakefit Baby Crib Mattress,https://www.indiamart.com/proddetail/wakefit-baby-crib-mattress-2852666969373.html?pos=208&kwd=baby mattress&tags=||||8663.873|Price|product|||MDC|rsf:gd-|-stype:attr=1|qr_nm:gd|res:RC4|com-cf:nl|ptrs:na|ktp:N0|mc:45465|mtp:S|qry_typ:P|lang:en|wc:2|cs:8840|v=4,Naturespace Interior,https://www.indiamart.com/naturespace-interior/?pos=208&kwd=baby mattress&tags=||||8663.873|Price|product|||MDC|rsf:gd-|-stype:attr=1|qr_nm:gd|res:RC4|com-cf:nl|ptrs:na|ktp:N0|mc:45465|mtp:S|qry_typ:P|lang:en|wc:2|cs:8840|v=4,False,Yelahanka,Bengaluru,"1st Floor, No 15 and 16, Khatha No 58, Doddaballapuar Main Road, Yelahanka Hobli, Opp to Godrej Aven, Yelahanka, Bengaluru - 560064, Dist.Bengaluru, Karnataka",7942714711,
"White Baby Bed Mattress Protector, Material: Polyester, Handwash",https://www.indiamart.com/proddetail/baby-bed-mattress-protector-2853644017373.html?pos=209&kwd=baby mattress&tags=||||8206.45|Price|product|||MDC|rsf:gd-|-stype:attr=1|qr_nm:gd|res:RC4|com-cf:nl|ptrs:na|ktp:N0|mc:45465|mtp:S|qry_typ:P|lang:en|wc:2|cs:8840|v=4,APDD E Commerce India LLP,https://www.indiamart.com/apddecommerceindia/?pos=209&kwd=baby mattress&tags=||||8206.45|Price|product|||MDC|rsf:gd-|-stype:attr=1|qr_nm:gd|res:RC4|com-cf:nl|ptrs:na|ktp:N0|mc:45465|mtp:S|qry_typ:P|lang:en|wc:2|cs:8840|v=4,False,Vishnu Nagar,Palghar,"2ndFloor, Block No.301,D-Wing, Jivadani Complex, Mahim Road, National Cooperative Bank, Vishnu Nagar, Vishnu Nagar, Palghar - 401404, Dist.Thane, Maharashtra",8047307898,
"Red Quick Dry Baby Bed Mattress Protector, Material: Polyester, Handwash",https://www.indiamart.com/proddetail/quick-dry-baby-bed-mattress-protector-2853426298848.html?pos=210&kwd=baby mattress&tags=||||9618.383|Price|product|||MDC|rsf:gd-|-stype:attr=1|qr_nm:gd|res:RC4|com-cf:nl|ptrs:na|ktp:N0|mc:45465|mtp:S|qry_typ:P|lang:en|wc:2|cs:8840|v=4,Texco,https://www.indiamart.com/texco/?pos=210&kwd=baby mattress&tags=||||9618.383|Price|product|||MDC|rsf:gd-|-stype:attr=1|qr_nm:gd|res:RC4|com-cf:nl|ptrs:na|ktp:N0|mc:45465|mtp:S|qry_typ:P|lang:en|wc:2|cs:8840|v=4,False,Bistupur,Jamshedpur,"Shop No. 2, Main Road, Bistupur, Bistupur, Jamshedpur - 831001, Dist.East Singhbhum, Jharkhand",7949092933,
