product_title,product_link,company_name,company_link,is_verified_exporter,city_region,city,address_details,phone_number,phone_number_extension
"Flannel Unisex Pink Printed Newborn Baby Hospital Kit, Age Group: 0-3 Months",https://www.indiamart.com/proddetail/pink-printed-newborn-baby-hospital-kit-2851752512197.html?pos=1&kwd=baby healthcare kit&tags=A||||8559.269|Price|product|||TS|rsf:gd-|-stype:attr=1|qr_nm:gd|res:RC3|com-cf:nl|ptrs:na|ktp:N0|mc:45463|mtp:S|qry_typ:P|lang:en|wc:3|flavl:0-1|cs:9695|v=4,Guild Corporation,https://www.indiamart.com/guildcorporation/?pos=1&kwd=baby healthcare kit&tags=A||||8559.269|Price|product|||TS|rsf:gd-|-stype:attr=1|qr_nm:gd|res:RC3|com-cf:nl|ptrs:na|ktp:N0|mc:45463|mtp:S|qry_typ:P|lang:en|wc:3|flavl:0-1|cs:9695|v=4,False,Sanwariya Nagar,Indore,"32, Bijasan Colony, Airport Road, Sanwariya Nagar, Indore - 452005, Dist.Indore, Madhya Pradesh",8047662733,
"Blue Pink Baby Care Kit, Box Packing",https://www.indiamart.com/proddetail/baby-care-kit-2852872270833.html?pos=2&kwd=baby healthcare kit&tags=A||||8752.144|Price|product|||TS|rsf:gd-|-stype:attr=1|qr_nm:gd|res:RC3|com-cf:nl|ptrs:na|ktp:N0|mc:45463|mtp:S|qry_typ:P|lang:en|wc:3|flavl:0-1|cs:9695|v=4,Urbancube,https://www.indiamart.com/urbancube/?pos=2&kwd=baby healthcare kit&tags=A||||8752.144|Price|product|||TS|rsf:gd-|-stype:attr=1|qr_nm:gd|res:RC3|com-cf:nl|ptrs:na|ktp:N0|mc:45463|mtp:S|qry_typ:P|lang:en|wc:3|flavl:0-1|cs:9695|v=4,False,Kamla Nagar,New Delhi,"Ground Floor, 14 UA, Jawahar Nagar, Kamla Nagar, New Delhi - 110007, Dist.Delhi, Delhi",8048980014,
New Born Baby Kits New Born Baby Kits New Born Baby KitsNew Born Baby KitsNew Born Baby Kits,https://www.indiamart.com/proddetail/new-born-baby-kits-new-born-baby-kits-new-born-baby-kitsnew-born-baby-kitsnew-born-baby-kits-22364815673.html?pos=3&kwd=baby healthcare kit&tags=BA||||8559.269|Price|product|||TS|rsf:gd-|-stype:attr=1|qr_nm:gd|res:RC3|com-cf:nl|ptrs:na|ktp:N0|mc:45463|mtp:S|qry_typ:P|lang:en|wc:3|flavl:0-1|cs:9695|v=4,A R Enterprises,https://www.indiamart.com/vinaytextilesindore/?pos=3&kwd=baby healthcare kit&tags=BA||||8559.269|Price|product|||TS|rsf:gd-|-stype:attr=1|qr_nm:gd|res:RC3|com-cf:nl|ptrs:na|ktp:N0|mc:45463|mtp:S|qry_typ:P|lang:en|wc:3|flavl:0-1|cs:9695|v=4,False,Tilak Nagar,Indore,"81, Tilak Nagar Extension, Tilak Nagar, Indore - 452018, Dist.Indore, Madhya Pradesh",8048972129,
"Asha hbyc kit, Child Age Group: 0-3 Yrs",https://www.indiamart.com/proddetail/asha-hbyc-kit-2852773563991.html?pos=4&kwd=baby healthcare kit&tags=A||||8810.737|Price|product|||TS|rsf:gd-|-stype:attr=1|qr_nm:gd|res:RC3|com-cf:nl|ptrs:na|ktp:N0|mc:45463|mtp:S|qry_typ:P|lang:en|wc:3|flavl:0-1|cs:9695|v=4,Shah Wooden Arts,https://www.shahwoodenarts.com/?pos=4&kwd=baby healthcare kit&tags=A||||8810.737|Price|product|||TS|rsf:gd-|-stype:attr=1|qr_nm:gd|res:RC3|com-cf:nl|ptrs:na|ktp:N0|mc:45463|mtp:S|qry_typ:P|lang:en|wc:3|flavl:0-1|cs:9695|v=4,False,Saharanpur,Saharanpur,"Plot No. 36, Near Hojkhedi Road, Aamwala, Saharanpur, Saharanpur - 247001, Dist.Saharanpur, Uttar Pradesh",7942960054,
"Baby Kit Premium 7 Piece Set (White), For Gifting",https://www.indiamart.com/proddetail/baby-kit-premium-7-piece-set-white-2854885190233.html?pos=5&kwd=baby healthcare kit&tags=A||||8228.275|Price|product|||TS|rsf:gd-|-stype:attr=1|qr_nm:gd|res:RC3|com-cf:nl|ptrs:na|ktp:N0|mc:45463|mtp:S|qry_typ:P|lang:en|wc:3|flavl:0-1|cs:9695|v=4,Patoliya Exports Private Limited,https://www.indiamart.com/patoliya-exports-ahmedabad/?pos=5&kwd=baby healthcare kit&tags=A||||8228.275|Price|product|||TS|rsf:gd-|-stype:attr=1|qr_nm:gd|res:RC3|com-cf:nl|ptrs:na|ktp:N0|mc:45463|mtp:S|qry_typ:P|lang:en|wc:3|flavl:0-1|cs:9695|v=4,False,OPP GVMM,Ahmedabad,"B-62, Bileshwar Industrial Estate, OPP GVMM, Ahmedabad - 382415, Dist.Ahmedabad, Gujarat",8044458925,
Baby Care Kit Set,https://www.indiamart.com/proddetail/baby-care-kit-set-2854218696712.html?pos=6&kwd=baby healthcare kit&tags=A||||8230.883|Price|product|||TS|rsf:gd-|-stype:attr=1|qr_nm:gd|res:RC3|com-cf:nl|ptrs:na|ktp:N0|mc:45463|mtp:S|qry_typ:P|lang:en|wc:3|flavl:0-1|cs:9695|v=4,BABYHOLIC,https://www.babyholic.in/?pos=6&kwd=baby healthcare kit&tags=A||||8230.883|Price|product|||TS|rsf:gd-|-stype:attr=1|qr_nm:gd|res:RC3|com-cf:nl|ptrs:na|ktp:N0|mc:45463|mtp:S|qry_typ:P|lang:en|wc:3|flavl:0-1|cs:9695|v=4,False,,Surat,"Ground Floor, Plot No. F/56/, And F/57, Laxmi Narayan Industrial Estate, Udhana, Kailash Fashion, Surat - 394210, Dist.Surat, Gujarat",8045732096,
"Asha Programme, Ecd Kits, Hbyc Kit, Hbnc Kit, For Personal, Child Age Group: 0-3 Yrs",https://www.indiamart.com/proddetail/asha-programme-ecd-kits-hbyc-kit-hbnc-kit-2851902132362.html?pos=7&kwd=baby healthcare kit&tags=A||||8752.144|Price|product|||LSnp|rsf:gd-|-stype:attr=1|qr_nm:gd|res:RC3|com-cf:nl|ptrs:na|ktp:N0|mc:45463|mtp:S|qry_typ:P|lang:en|wc:3|flavl:0-1|cs:9695|v=4,OSR Medplus,https://www.indiamart.com/osr-medplus/?pos=7&kwd=baby healthcare kit&tags=A||||8752.144|Price|product|||LSnp|rsf:gd-|-stype:attr=1|qr_nm:gd|res:RC3|com-cf:nl|ptrs:na|ktp:N0|mc:45463|mtp:S|qry_typ:P|lang:en|wc:3|flavl:0-1|cs:9695|v=4,False,Badli,New Delhi,"Kh.No-22/25/2,Gali No-4, Industrial Area Village, Samaipur, Badli, New Delhi - 110042, Dist.Delhi, Delhi",8046056352,
Girl & Boy Newly Born Baby Care Kit ICDS,https://www.indiamart.com/proddetail/baby-care-kit-icds-5360693430.html?pos=8&kwd=baby healthcare kit&tags=A||||8601.347||product|||TS|rsf:gd-|-stype:attr=1|qr_nm:gd|res:RC3|com-cf:nl|ptrs:na|ktp:N0|mc:45463|mtp:S|qry_typ:P|lang:en|wc:3|flavl:0-1|cs:9695|v=4,Jackson Care Product,https://www.jacksoncare.in/?pos=8&kwd=baby healthcare kit&tags=A||||8601.347||product|||TS|rsf:gd-|-stype:attr=1|qr_nm:gd|res:RC3|com-cf:nl|ptrs:na|ktp:N0|mc:45463|mtp:S|qry_typ:P|lang:en|wc:3|flavl:0-1|cs:9695|v=4,False,Jaisinghpura Khor,Jaipur,"No. 199, Rishi Galav Nagar, Jaisinghpura Khor, Jaipur - 302002, Dist.Jaipur, Rajasthan",8048965113,
TEN piece plastic baby grooming and healthcare kit in a gift pack medium sized packaging,https://www.indiamart.com/proddetail/ten-piece-plastic-baby-grooming-and-healthcare-kit-in-a-gift-pack-medium-sized-packaging-2854983287433.html?pos=9&kwd=baby healthcare kit&tags=A||||8663.873|Price|product|||MDC|rsf:gd-|-stype:attr=1|qr_nm:gd|res:RC3|com-cf:nl|ptrs:na|ktp:N0|mc:45463|mtp:S|qry_typ:P|lang:en|wc:3|flavl:0-1|cs:9695|v=4,Nipika Vrapped Gifting,https://www.indiamart.com/nipika-vrapped-gifting/?pos=9&kwd=baby healthcare kit&tags=A||||8663.873|Price|product|||MDC|rsf:gd-|-stype:attr=1|qr_nm:gd|res:RC3|com-cf:nl|ptrs:na|ktp:N0|mc:45463|mtp:S|qry_typ:P|lang:en|wc:3|flavl:0-1|cs:9695|v=4,False,Bengaluru Urban,Bengaluru,"9/1, 23rd Cross Road, Magadi Road, KP Agrahara, Bengaluru Urban, Bengaluru - 560023, Dist.Bengaluru, Karnataka",7949328723,
Baby Care Kit 10 pcs,https://www.indiamart.com/proddetail/baby-care-kit-10-pcs-2854721492697.html?pos=10&kwd=baby healthcare kit&tags=BA||||8741.812|Price|product|||TS|rsf:gd-|-stype:attr=1|qr_nm:gd|res:RC3|com-cf:nl|ptrs:na|ktp:N0|mc:45463|mtp:S|qry_typ:P|lang:en|wc:3|flavl:0-1|cs:9695|v=4,Om Deal Online,https://www.indiamart.com/om-deal-online/?pos=10&kwd=baby healthcare kit&tags=BA||||8741.812|Price|product|||TS|rsf:gd-|-stype:attr=1|qr_nm:gd|res:RC3|com-cf:nl|ptrs:na|ktp:N0|mc:45463|mtp:S|qry_typ:P|lang:en|wc:3|flavl:0-1|cs:9695|v=4,False,Sector 93,Gurugram,"114, IMT Road, Government High School, Hayatpur, Sector 93, Gurugram - 122505, Dist.Gurgaon, Haryana",7942836824,
"Multicolor 10 PCS Baby Care Kit, Packaging Type: Box",https://www.indiamart.com/proddetail/10-pcs-baby-care-kit-2853692995797.html?pos=11&kwd=baby healthcare kit&tags=A||||8230.883|Price|product|||TS|rsf:gd-|-stype:attr=1|qr_nm:gd|res:RC3|com-cf:nl|ptrs:na|ktp:N0|mc:45463|mtp:S|qry_typ:P|lang:en|wc:3|flavl:0-1|cs:9695|v=4,Valam Enterprise,https://www.valamenterprise.com/?pos=11&kwd=baby healthcare kit&tags=A||||8230.883|Price|product|||TS|rsf:gd-|-stype:attr=1|qr_nm:gd|res:RC3|com-cf:nl|ptrs:na|ktp:N0|mc:45463|mtp:S|qry_typ:P|lang:en|wc:3|flavl:0-1|cs:9695|v=4,False,Dabholi,Surat,"First Floor 37 Nr Bapa Sitaram Chowk Gopinath Society-3 Katargam, Dabholi, Surat - 395004, Dist.Surat, Gujarat",8046058398,
Baby care kit 10 pcs,https://www.indiamart.com/proddetail/baby-care-kit-10-pcs-2852052825373.html?pos=12&kwd=baby healthcare kit&tags=A||||8230.883|Price|product|||TS|rsf:gd-|-stype:attr=1|qr_nm:gd|res:RC3|com-cf:nl|ptrs:na|ktp:N0|mc:45463|mtp:S|qry_typ:P|lang:en|wc:3|flavl:0-1|cs:9695|v=4,Seaspirit(A Brand Of Spirit Enterprise),https://www.indiamart.com/spiritenterprisesurat/?pos=12&kwd=baby healthcare kit&tags=A||||8230.883|Price|product|||TS|rsf:gd-|-stype:attr=1|qr_nm:gd|res:RC3|com-cf:nl|ptrs:na|ktp:N0|mc:45463|mtp:S|qry_typ:P|lang:en|wc:3|flavl:0-1|cs:9695|v=4,False,Dabholi,Surat,"HOLIDAY GATE NO.1, Shop No.1 - HOLIDAY, OPP SHREENATHDWARA SOCIETY, B/S NEW DELUX MOTORS, NEAR CANCER HOSPITAL, Dabholi Road, KATARGAM, Dabholi, Surat - 395004, Dist.Surat, Gujarat",8046069933,
Hbyc kit ( ASHA KIT),https://www.indiamart.com/proddetail/hbyc-kit-asha-kit-2853711524591.html?pos=13&kwd=baby healthcare kit&tags=A||||8692.544|Price|product|||TS|rsf:gd-|-stype:attr=1|qr_nm:gd|res:RC3|com-cf:nl|ptrs:na|ktp:N0|mc:45463|mtp:S|qry_typ:P|lang:en|wc:3|flavl:0-1|cs:9695|v=4,Tiwari Enterprises,https://www.indiamart.com/tiwarienterprises-alwar-rajasthan/?pos=13&kwd=baby healthcare kit&tags=A||||8692.544|Price|product|||TS|rsf:gd-|-stype:attr=1|qr_nm:gd|res:RC3|com-cf:nl|ptrs:na|ktp:N0|mc:45463|mtp:S|qry_typ:P|lang:en|wc:3|flavl:0-1|cs:9695|v=4,False,Tijara,Alwar,"Unnamed Road, Baliyawas, Tijara, Alwar - 301411, Dist.Alwar, Rajasthan",7942630952,
"pink Baby care ket, Packaging Type: Box",https://www.indiamart.com/proddetail/baby-care-ket-2852560141697.html?pos=14&kwd=baby healthcare kit&tags=A||||8752.144|Price|product|||TS|rsf:gd-|-stype:attr=1|qr_nm:gd|res:RC3|com-cf:nl|ptrs:na|ktp:N0|mc:45463|mtp:S|qry_typ:P|lang:en|wc:3|flavl:0-1|cs:9695|v=4,J L Trading Company,https://www.jltrading.in/?pos=14&kwd=baby healthcare kit&tags=A||||8752.144|Price|product|||TS|rsf:gd-|-stype:attr=1|qr_nm:gd|res:RC3|com-cf:nl|ptrs:na|ktp:N0|mc:45463|mtp:S|qry_typ:P|lang:en|wc:3|flavl:0-1|cs:9695|v=4,False,Shastri Nagar,New Delhi,"E2/253, 3rd Floor, ICICI Bank Building, Shastri Nagar, New Delhi - 110052, Dist.Delhi, Delhi",8048956600,
"Plastic 10pc Baby Grooming & Healthcare kit in Gift Pack, Packaging Size: Medium",https://www.indiamart.com/proddetail/10pc-baby-grooming-healthcare-kit-in-gift-pack-2852559367830.html?pos=15&kwd=baby healthcare kit&tags=BA||||8230.883|Price|product|||TS|rsf:gd-|-stype:attr=1|qr_nm:gd|res:RC3|com-cf:nl|ptrs:na|ktp:N0|mc:45463|mtp:S|qry_typ:P|lang:en|wc:3|cs:8838|v=4,RJ Enterprise,https://www.indiamart.com/rj-enterprise-surat/?pos=15&kwd=baby healthcare kit&tags=BA||||8230.883|Price|product|||TS|rsf:gd-|-stype:attr=1|qr_nm:gd|res:RC3|com-cf:nl|ptrs:na|ktp:N0|mc:45463|mtp:S|qry_typ:P|lang:en|wc:3|cs:8838|v=4,False,Katargam,Surat,"134, Sahjanand Society, N/R Arogyakendra, Katargam, Katargam, Surat - 395004, Dist.Surat, Gujarat",7942555306,
Baby Care Kit,https://www.indiamart.com/proddetail/baby-care-kit-2854912657397.html?pos=16&kwd=baby healthcare kit&tags=A||||8230.883|Price|product|||MDC|rsf:gd-|-stype:attr=1|qr_nm:gd|res:RC3|com-cf:nl|ptrs:na|ktp:N0|mc:45463|mtp:S|qry_typ:P|lang:en|wc:3|cs:8838|v=4,SN Enterprise,https://www.indiamart.com/snenterprise-surat/?pos=16&kwd=baby healthcare kit&tags=A||||8230.883|Price|product|||MDC|rsf:gd-|-stype:attr=1|qr_nm:gd|res:RC3|com-cf:nl|ptrs:na|ktp:N0|mc:45463|mtp:S|qry_typ:P|lang:en|wc:3|cs:8838|v=4,False,,Surat,"Plot 130/131, 2nd Floor, Flat 201, Balaji Nagar SOC-1, Shri Siddhi Vinayak Place, Surat - 395004, Dist.Surat, Gujarat",8041015777,
"PINK Baby Healthcare and Grooming Kit, Packaging Type: Box, 3-12 Months",https://www.indiamart.com/proddetail/baby-healthcare-and-grooming-kit-2852059991391.html?pos=17&kwd=baby healthcare kit&tags=BA||||8752.144|Price|product|||TS|rsf:gd-|-stype:attr=1|qr_nm:gd|res:RC3|com-cf:nl|ptrs:na|ktp:N0|mc:45463|mtp:S|qry_typ:P|lang:en|wc:3|cs:8838|v=4,Jainone Hub,https://www.indiamart.com/jainonehub/?pos=17&kwd=baby healthcare kit&tags=BA||||8752.144|Price|product|||TS|rsf:gd-|-stype:attr=1|qr_nm:gd|res:RC3|com-cf:nl|ptrs:na|ktp:N0|mc:45463|mtp:S|qry_typ:P|lang:en|wc:3|cs:8838|v=4,False,Mandoli,New Delhi,"J- 8, Near Frooti Godown, Gali No. 4, Melaram Farm House Mandoli Sewadham Road, Mandoli, New Delhi - 110093, Dist.Delhi, Delhi",8048963941,
50 PCS BABY ESSENTIAL KIT,https://www.indiamart.com/proddetail/50-pcs-baby-essential-kit-2854301621788.html?pos=18&kwd=baby healthcare kit&tags=BA||||8307.81|Price|product|||MDC|rsf:gd-|-stype:attr=1|qr_nm:gd|res:RC3|com-cf:nl|ptrs:na|ktp:N0|mc:45463|mtp:S|qry_typ:P|lang:en|wc:3|cs:8838|v=4,Tabaria Baby Mall,https://www.indiamart.com/tabaria-baby-mallpune/?pos=18&kwd=baby healthcare kit&tags=BA||||8307.81|Price|product|||MDC|rsf:gd-|-stype:attr=1|qr_nm:gd|res:RC3|com-cf:nl|ptrs:na|ktp:N0|mc:45463|mtp:S|qry_typ:P|lang:en|wc:3|cs:8838|v=4,False,Raviwar Peth,Pune,"1088,Manish Market,Raviwar Peth, Raviwar Peth, Pune - 411002, Dist.Pune, Maharashtra",7949092418,
Baby Grooming nail Kit - PINK,https://www.indiamart.com/proddetail/baby-grooming-nail-kit-pink-2852512629012.html?pos=19&kwd=baby healthcare kit&tags=A||||8752.144|Price|product|||TS|rsf:gd-|-stype:attr=1|qr_nm:gd|res:RC3|com-cf:nl|ptrs:na|ktp:N0|mc:45463|mtp:S|qry_typ:P|lang:en|wc:3|cs:8838|v=4,Ekta Overseas,https://www.indiamart.com/ektaoverseas-newdelhi/?pos=19&kwd=baby healthcare kit&tags=A||||8752.144|Price|product|||TS|rsf:gd-|-stype:attr=1|qr_nm:gd|res:RC3|com-cf:nl|ptrs:na|ktp:N0|mc:45463|mtp:S|qry_typ:P|lang:en|wc:3|cs:8838|v=4,False,Shahdara,New Delhi,"1/95, Gali No.3, Near Navjeevan Phisical Center, Vishwas Nagar, Shahdara,, Shahdara, New Delhi - 110032, Dist.Delhi, Delhi",7942628926,
"THE FLORABLE Baby Healthcare kit, Medium",https://www.indiamart.com/proddetail/baby-healthcare-kit-25871987497.html?pos=20&kwd=baby healthcare kit&tags=BA||||8230.883|Price|product|||TS|rsf:gd-|-stype:attr=1|qr_nm:gd|res:RC3|com-cf:nl|ptrs:na|ktp:N0|mc:45463|mtp:S|qry_typ:P|lang:en|wc:3|cs:8838|v=4,The Florable,https://www.indiamart.com/theflorable/?pos=20&kwd=baby healthcare kit&tags=BA||||8230.883|Price|product|||TS|rsf:gd-|-stype:attr=1|qr_nm:gd|res:RC3|com-cf:nl|ptrs:na|ktp:N0|mc:45463|mtp:S|qry_typ:P|lang:en|wc:3|cs:8838|v=4,False,Archana Society,Surat,"GR Floor, SY No-54, Plot-New-47, Old-49, Archana Society, Surat - 395004, Dist.Surat, Gujarat",8046057332,
"Claoberry Multicolor Baby Healthcare Kit, Packaging Type: Box",https://www.indiamart.com/proddetail/baby-healthcare-kit-2853307396862.html?pos=21&kwd=baby healthcare kit&tags=BA||||8785.791|Price|product|||TS|rsf:gd-|-stype:attr=1|qr_nm:gd|res:RC3|com-cf:nl|ptrs:na|ktp:N0|mc:45463|mtp:S|qry_typ:P|lang:en|wc:3|cs:8838|v=4,Paras Enterprises,https://www.claoberry.com/?pos=21&kwd=baby healthcare kit&tags=BA||||8785.791|Price|product|||TS|rsf:gd-|-stype:attr=1|qr_nm:gd|res:RC3|com-cf:nl|ptrs:na|ktp:N0|mc:45463|mtp:S|qry_typ:P|lang:en|wc:3|cs:8838|v=4,False,Raj Nagar Extension,Ghaziabad,"KH.NO.-2565,VILLAGE KARHERA,MOHAN NAGAR,Ghaziabad, Raj Nagar Extension, Ghaziabad - 201007, Dist.Ghaziabad, Uttar Pradesh",8043862487,
"Syga Pink Baby Healthcare Kit, Packaging Type: Box",https://www.indiamart.com/proddetail/baby-healthcare-kit-19811576730.html?pos=22&kwd=baby healthcare kit&tags=BA||||8228.275|Price|product|||TS|rsf:gd-|-stype:attr=1|qr_nm:gd|res:RC3|com-cf:nl|ptrs:na|ktp:N0|mc:45463|mtp:S|qry_typ:P|lang:en|wc:3|cs:8838|v=4,Syga Home Furnishing,https://www.indiamart.com/sygahomefurnishing/?pos=22&kwd=baby healthcare kit&tags=BA||||8228.275|Price|product|||TS|rsf:gd-|-stype:attr=1|qr_nm:gd|res:RC3|com-cf:nl|ptrs:na|ktp:N0|mc:45463|mtp:S|qry_typ:P|lang:en|wc:3|cs:8838|v=4,False,Navrangpura,Ahmedabad,"A-503, Samudra Complex, Near Girish Cold Drinks C. G. Road, Navrangpura, Navrangpura, Ahmedabad - 380009, Dist.Ahmedabad, Gujarat",8048985837,
Baby Healthcare Kit,https://www.indiamart.com/proddetail/baby-healthcare-kit-2854781739112.html?pos=23&kwd=baby healthcare kit&tags=BA||||8211.142|Price|product|||TS|rsf:gd-|-stype:attr=1|qr_nm:gd|res:RC3|com-cf:nl|ptrs:na|ktp:N0|mc:45463|mtp:S|qry_typ:P|lang:en|wc:3|cs:8838|v=4,P For Panda Baby Products Private Limited,https://www.p4pandababyproducts.com/?pos=23&kwd=baby healthcare kit&tags=BA||||8211.142|Price|product|||TS|rsf:gd-|-stype:attr=1|qr_nm:gd|res:RC3|com-cf:nl|ptrs:na|ktp:N0|mc:45463|mtp:S|qry_typ:P|lang:en|wc:3|cs:8838|v=4,False,Goregaon West,Mumbai,"904 A Wing,9 Th Floor,Triple S Heights,Jakeria Road, Goregaon West, Mumbai - 400064, Dist.Mumbai, Maharashtra",7942710871,
"AMARA IMPEX Multicolor Baby Grooming & Healthcare kit, 15 X 20 X 3 cm, 1-3 YEARS",https://www.indiamart.com/proddetail/baby-grooming-healthcare-kit-2852153349755.html?pos=24&kwd=baby healthcare kit&tags=BA||||8230.883|Price|product|||TS|rsf:gd-|-stype:attr=1|qr_nm:gd|res:RC3|com-cf:nl|ptrs:na|ktp:N0|mc:45463|mtp:S|qry_typ:P|lang:en|wc:3|cs:8838|v=4,Amara Impex,https://www.amaraimpex.in/?pos=24&kwd=baby healthcare kit&tags=BA||||8230.883|Price|product|||TS|rsf:gd-|-stype:attr=1|qr_nm:gd|res:RC3|com-cf:nl|ptrs:na|ktp:N0|mc:45463|mtp:S|qry_typ:P|lang:en|wc:3|cs:8838|v=4,False,Katargam,Surat,"148, Haridham Society, Amabatalavdi Road, Katargam,, Katargam, Surat - 395004, Dist.Surat, Gujarat",8048613226,
Baby Kit,https://www.indiamart.com/proddetail/baby-kit-2854864362948.html?pos=25&kwd=baby healthcare kit&tags=BB||||8211.142|Price|product|||TS|rsf:gd-|-stype:attr=1|qr_nm:gd|res:RC3|com-cf:nl|ptrs:na|ktp:N0|mc:45463|mtp:S|qry_typ:P|lang:en|wc:3|cs:8838|v=4,Freed Pharma LLP,https://www.freedpharma.com/?pos=25&kwd=baby healthcare kit&tags=BB||||8211.142|Price|product|||TS|rsf:gd-|-stype:attr=1|qr_nm:gd|res:RC3|com-cf:nl|ptrs:na|ktp:N0|mc:45463|mtp:S|qry_typ:P|lang:en|wc:3|cs:8838|v=4,True,Worli,Mumbai,"8, Plot-316, Ground Floor, Pragati Industrial Estate, N M Joshi Marg, Jacob Circle Lower Parel, Worli, Mumbai - 400011, Dist.Mumbai, Maharashtra",7942717496,
"Tablet Dream Baby Kit, Truworth Health Care, 2*30 Tab Pack",https://www.indiamart.com/proddetail/dream-baby-kit-22146078762.html?pos=26&kwd=baby healthcare kit&tags=BA||||8706.508||product|||TS|rsf:gd-|-stype:attr=1|qr_nm:gd|res:RC3|com-cf:nl|ptrs:na|ktp:N0|mc:45463|mtp:S|qry_typ:P|lang:en|wc:3|cs:8838|v=4,Truworth Healthcare,https://www.truworthindia.com/?pos=26&kwd=baby healthcare kit&tags=BA||||8706.508||product|||TS|rsf:gd-|-stype:attr=1|qr_nm:gd|res:RC3|com-cf:nl|ptrs:na|ktp:N0|mc:45463|mtp:S|qry_typ:P|lang:en|wc:3|cs:8838|v=4,False,JP Colony,Rohtak,"Plot No 167 Hisar Road, JP Colony, Rohtak - 124001, Dist.Rohtak, Haryana",8048613679,
Baby Care Kit,https://www.indiamart.com/proddetail/baby-care-kit-2854267467448.html?pos=27&kwd=baby healthcare kit&tags=BA||||8778.123|Price|product|||SSnp|rsf:gd-|-stype:attr=1|qr_nm:gd|res:RC3|com-cf:nl|ptrs:na|ktp:N0|mc:45463|mtp:S|qry_typ:P|lang:en|wc:3|cs:8838|v=4,HK Imports,https://www.indiamart.com/hkimports/?pos=27&kwd=baby healthcare kit&tags=BA||||8778.123|Price|product|||SSnp|rsf:gd-|-stype:attr=1|qr_nm:gd|res:RC3|com-cf:nl|ptrs:na|ktp:N0|mc:45463|mtp:S|qry_typ:P|lang:en|wc:3|cs:8838|v=4,False,Sector 65,Noida,"H-370,3rd floor,H block,gaur grandeur,sec119, Sector 65, Noida - 201305, Dist.Gautam Budh Nagar, Uttar Pradesh",8048972263,
"MIX BABY CARE KIT, Packaging Type: NEW",https://www.indiamart.com/proddetail/baby-care-kit-2854108643055.html?pos=28&kwd=baby healthcare kit&tags=BA||||8211.142|Price|product|||TS|rsf:gd-|-stype:attr=1|qr_nm:gd|res:RC3|com-cf:nl|ptrs:na|ktp:N0|mc:45463|mtp:S|qry_typ:P|lang:en|wc:3|cs:8838|v=4,Sam Cart,https://www.indiamart.com/sam-cart/?pos=28&kwd=baby healthcare kit&tags=BA||||8211.142|Price|product|||TS|rsf:gd-|-stype:attr=1|qr_nm:gd|res:RC3|com-cf:nl|ptrs:na|ktp:N0|mc:45463|mtp:S|qry_typ:P|lang:en|wc:3|cs:8838|v=4,False,Town Hall,Mumbai,"Ground Floor,18/19, 5,B, M, C Dormitory Building Saboo Siddik,Road, Musafir Khana Fort,, Town Hall, Mumbai - 400001, Dist.Mumbai, Maharashtra",8048609217,
Baby Care KIt,https://www.indiamart.com/proddetail/baby-care-kit-2854100604791.html?pos=29&kwd=baby healthcare kit&tags=BA||||8211.142|Price|product|||TS|rsf:gd-|-stype:attr=1|qr_nm:gd|res:RC3|com-cf:nl|ptrs:na|ktp:N0|mc:45463|mtp:S|qry_typ:P|lang:en|wc:3|cs:8838|v=4,Sameer Collection,https://www.sameercollection.in/?pos=29&kwd=baby healthcare kit&tags=BA||||8211.142|Price|product|||TS|rsf:gd-|-stype:attr=1|qr_nm:gd|res:RC3|com-cf:nl|ptrs:na|ktp:N0|mc:45463|mtp:S|qry_typ:P|lang:en|wc:3|cs:8838|v=4,False,Princess Dock,Mumbai,"A-1901, Ansari Heights, Umar Kokil Marg, Princess Dock, Mumbai - 400009, Dist.Mumbai, Maharashtra",8046070689,
Newborn Baby Care Kits,https://www.indiamart.com/proddetail/newborn-baby-care-kits-2853148443512.html?pos=30&kwd=baby healthcare kit&tags=BA||||8752.144|Price|product|||TS|rsf:gd-|-stype:attr=1|qr_nm:gd|res:RC3|com-cf:nl|ptrs:na|ktp:N0|mc:45463|mtp:S|qry_typ:P|lang:en|wc:3|cs:8838|v=4,Inquantity,https://www.indiamart.com/inquantity/?pos=30&kwd=baby healthcare kit&tags=BA||||8752.144|Price|product|||TS|rsf:gd-|-stype:attr=1|qr_nm:gd|res:RC3|com-cf:nl|ptrs:na|ktp:N0|mc:45463|mtp:S|qry_typ:P|lang:en|wc:3|cs:8838|v=4,False,Shahdara,New Delhi,"1/6258, East Rohtash Nagar, Shahdara, Shahdara, New Delhi - 110032, Dist.Delhi, Delhi",8047620719,
Baby care kit,https://www.indiamart.com/proddetail/baby-care-kit-2851452443533.html?pos=31&kwd=baby healthcare kit&tags=BA||||8752.144|Price|product|||TS|rsf:gd-|-stype:attr=1|qr_nm:gd|res:RC3|com-cf:nl|ptrs:na|ktp:N0|mc:45463|mtp:S|qry_typ:P|lang:en|wc:3|cs:8838|v=4,House Of Luxury,https://www.theholworld.net/?pos=31&kwd=baby healthcare kit&tags=BA||||8752.144|Price|product|||TS|rsf:gd-|-stype:attr=1|qr_nm:gd|res:RC3|com-cf:nl|ptrs:na|ktp:N0|mc:45463|mtp:S|qry_typ:P|lang:en|wc:3|cs:8838|v=4,False,Budh Vihar,New Delhi,"Plot No - 5, Kh. No. - 89/10/2, 1, Block No. - I-1, Budh Vihar Phase 1, Delhi, North West Delhi, Del, Budh Vihar, New Delhi - 110086, Dist.Delhi, Delhi",7942819716,
Printed Cotton Newborn Baby Hospital Kit,https://www.indiamart.com/proddetail/newborn-baby-hospital-kit-16519675555.html?pos=32&kwd=baby healthcare kit&tags=BB||||8601.347|Price|product|||TS|rsf:gd-|-stype:attr=1|qr_nm:gd|res:RC3|com-cf:nl|ptrs:na|ktp:N0|mc:45463|mtp:S|qry_typ:P|lang:en|wc:3|cs:8838|v=4,Global Enterprises,https://www.hospitalgarments.in/?pos=32&kwd=baby healthcare kit&tags=BB||||8601.347|Price|product|||TS|rsf:gd-|-stype:attr=1|qr_nm:gd|res:RC3|com-cf:nl|ptrs:na|ktp:N0|mc:45463|mtp:S|qry_typ:P|lang:en|wc:3|cs:8838|v=4,False,Mahapura,Jaipur,"Kachi Basti, Mahapura, Sanganer, Mahapura, Jaipur - 302026, Dist.Jaipur, Rajasthan",8046032418,
Baby Care Kit Set,https://www.indiamart.com/proddetail/baby-care-kit-set-2854015830362.html?pos=33&kwd=baby healthcare kit&tags=BA||||8752.144|Price|product|||TS|rsf:gd-|-stype:attr=1|qr_nm:gd|res:RC3|com-cf:nl|ptrs:na|ktp:N0|mc:45463|mtp:S|qry_typ:P|lang:en|wc:3|cs:8838|v=4,Sneakdawg Apparel India Private Limited,https://www.indiamart.com/sneakdawgapparelindia/?pos=33&kwd=baby healthcare kit&tags=BA||||8752.144|Price|product|||TS|rsf:gd-|-stype:attr=1|qr_nm:gd|res:RC3|com-cf:nl|ptrs:na|ktp:N0|mc:45463|mtp:S|qry_typ:P|lang:en|wc:3|cs:8838|v=4,False,Tagore Garden,New Delhi,"Ad-1, Upper G/f Tagore Garden West, Tagore Garden, New Delhi - 110027, Dist.Delhi, Delhi",7942713547,
Born Baby Health Care Kit,https://www.indiamart.com/proddetail/born-baby-health-care-kit-2852869650497.html?pos=34&kwd=baby healthcare kit&tags=BA||||8584.299|Price|product|||TS|rsf:gd-|-stype:attr=1|qr_nm:gd|res:RC3|com-cf:nl|ptrs:na|ktp:N0|mc:45463|mtp:S|qry_typ:P|lang:en|wc:3|cs:8838|v=4,BKH Enterprises,https://www.bkhenterprises.net/?pos=34&kwd=baby healthcare kit&tags=BA||||8584.299|Price|product|||TS|rsf:gd-|-stype:attr=1|qr_nm:gd|res:RC3|com-cf:nl|ptrs:na|ktp:N0|mc:45463|mtp:S|qry_typ:P|lang:en|wc:3|cs:8838|v=4,False,Annai Indra Nagar,Coimbatore,"45,West Subramaniam Street,RS Puram, Annai Indra Nagar, Coimbatore - 641001, Dist.Coimbatore, Tamil Nadu",8046066722,
Baby Care Kit Box Packing,https://www.indiamart.com/proddetail/baby-care-kit-box-packing-2853313154188.html?pos=35&kwd=baby healthcare kit&tags=BA||||8624.416|Price|product|||TS|rsf:gd-|-stype:attr=1|qr_nm:gd|res:RC3|com-cf:nl|ptrs:na|ktp:N0|mc:45463|mtp:S|qry_typ:P|lang:en|wc:3|cs:8838|v=4,AV Traders,https://www.bbeauty4u.com/?pos=35&kwd=baby healthcare kit&tags=BA||||8624.416|Price|product|||TS|rsf:gd-|-stype:attr=1|qr_nm:gd|res:RC3|com-cf:nl|ptrs:na|ktp:N0|mc:45463|mtp:S|qry_typ:P|lang:en|wc:3|cs:8838|v=4,False,,Hisar,"17/11-A, Shanti Nagar, Near Water Tank, Hisar - 125001, Dist.Hisar, Haryana",8048605781,
"Exclusive New born Baby care Kit, Gift Packing",https://www.indiamart.com/proddetail/exclusive-new-born-baby-care-kit-22032791088.html?pos=36&kwd=baby healthcare kit&tags=BA||||8601.347|Price|product|||TS|rsf:gd-|-stype:attr=1|qr_nm:gd|res:RC3|com-cf:nl|ptrs:na|ktp:N0|mc:45463|mtp:S|qry_typ:P|lang:en|wc:3|cs:8838|v=4,Ritvik Enterprises,https://www.indiamart.com/ritvikenterprises-jaipur/?pos=36&kwd=baby healthcare kit&tags=BA||||8601.347|Price|product|||TS|rsf:gd-|-stype:attr=1|qr_nm:gd|res:RC3|com-cf:nl|ptrs:na|ktp:N0|mc:45463|mtp:S|qry_typ:P|lang:en|wc:3|cs:8838|v=4,False,Mansarovar,Jaipur,"117/678, Agarwal Farm, Mansarovar, Jaipur - 302020, Dist.Jaipur, Rajasthan",7942545190,
CMB533 BABY CARE KIT PACK OF 7,https://www.indiamart.com/proddetail/cmb533-baby-care-kit-pack-of-7-2853131876655.html?pos=37&kwd=baby healthcare kit&tags=BA||||8752.144|Price|product|||TS|rsf:gd-|-stype:attr=1|qr_nm:gd|res:RC3|com-cf:nl|ptrs:na|ktp:N0|mc:45463|mtp:S|qry_typ:P|lang:en|wc:3|cs:8838|v=4,Briota Brands Private Limited,https://www.indiamart.com/briota-brands/?pos=37&kwd=baby healthcare kit&tags=BA||||8752.144|Price|product|||TS|rsf:gd-|-stype:attr=1|qr_nm:gd|res:RC3|com-cf:nl|ptrs:na|ktp:N0|mc:45463|mtp:S|qry_typ:P|lang:en|wc:3|cs:8838|v=4,False,Pitampura,New Delhi,"50, 1st Floor, Sharda Niketan Pitampura, Pitampura, New Delhi - 110034, Dist.Delhi, Delhi",8043843967,
Agnihotra Baby Care Kit - ( Nirmal Plus Baby Care Oil + Nirmal Plus Baby Care Lotion Pack Of 2 ),https://www.indiamart.com/proddetail/agnihotra-baby-care-kit-nirmal-plus-baby-care-oil-nirmal-plus-baby-care-lotion-pack-of-2-27145912973.html?pos=38&kwd=baby healthcare kit&tags=BA||||8307.81|Price|product|||TS|rsf:gd-|-stype:attr=1|qr_nm:gd|res:RC3|com-cf:nl|ptrs:na|ktp:N0|mc:45463|mtp:S|qry_typ:P|lang:en|wc:3|cs:8838|v=4,M/S Vishwa Holistic Solution Private Limited,https://www.vishwaholisticsolution.com/?pos=38&kwd=baby healthcare kit&tags=BA||||8307.81|Price|product|||TS|rsf:gd-|-stype:attr=1|qr_nm:gd|res:RC3|com-cf:nl|ptrs:na|ktp:N0|mc:45463|mtp:S|qry_typ:P|lang:en|wc:3|cs:8838|v=4,False,Baner Road,Pune,"Flat No 101, Success Tower F 2, Baner Road, State Bank Ngr HSG SOC, Baner Road, Pune - 411008, Dist.Pune, Maharashtra",8047301587,
Baby Nail Trimmer Nail Polish Grooming Kit Safe for Infant Toddler Kids or Women,https://www.indiamart.com/proddetail/baby-nail-trimmer-nail-polish-grooming-kit-safe-for-infant-toddler-kids-or-women-2849756511833.html?pos=39&kwd=baby healthcare kit&tags=BB||||8230.883|Price|product|||TS|rsf:gd-|-stype:attr=1|qr_nm:gd|res:RC3|com-cf:nl|ptrs:na|ktp:N0|mc:45463|mtp:S|qry_typ:P|lang:en|wc:3|cs:8838|v=4,M. Khodiyar Fashion,https://www.mkhodiyarfashion.com/?pos=39&kwd=baby healthcare kit&tags=BB||||8230.883|Price|product|||TS|rsf:gd-|-stype:attr=1|qr_nm:gd|res:RC3|com-cf:nl|ptrs:na|ktp:N0|mc:45463|mtp:S|qry_typ:P|lang:en|wc:3|cs:8838|v=4,False,Singanpor,Surat,"243-244, GR FL, Shree Krushna Nagar SOC, NR. Multy Purpose Hall, Singanpore Road, Singanpor, Surat - 395004, Dist.Surat, Gujarat",7942791367,
"sonocare Mamta Kits, Packaging Type: loose packing, Newly Born",https://www.indiamart.com/proddetail/mamta-kits-23777674333.html?pos=40&kwd=baby healthcare kit&tags=BA||||8228.275|Price|product|||TS|rsf:gd-|-stype:attr=1|qr_nm:gd|res:RC3|com-cf:nl|ptrs:na|ktp:N0|mc:45463|mtp:S|qry_typ:P|lang:en|wc:3|cs:8838|v=4,Hi-Tech Surgical & Fitness,https://www.indiamart.com/hi-tech-surgicalfitnessahmedabad/?pos=40&kwd=baby healthcare kit&tags=BA||||8228.275|Price|product|||TS|rsf:gd-|-stype:attr=1|qr_nm:gd|res:RC3|com-cf:nl|ptrs:na|ktp:N0|mc:45463|mtp:S|qry_typ:P|lang:en|wc:3|cs:8838|v=4,False,Jahangirpura,Ahmedabad,"Aust Mangal Estate Impireal Soda F, 101 1st Floor Survey No 4698, Compound Nr Ginnin Mill Nr Asarvabrdige, Asarva, Jahangirpura, Ahmedabad - 380016, Dist.Ahmedabad, Gujarat",8048959172,
"Multicolor Newborn Baby Care Kits, Packaging Type: Box",https://www.indiamart.com/proddetail/newborn-baby-care-kits-2853692993855.html?pos=41&kwd=baby healthcare kit&tags=BA||||8230.883|Price|product|||TS|rsf:gd-|-stype:attr=1|qr_nm:gd|res:RC3|com-cf:nl|ptrs:na|ktp:N0|mc:45463|mtp:S|qry_typ:P|lang:en|wc:3|cs:8838|v=4,Alpyog Marketing,https://www.alpyogmarketing.com/?pos=41&kwd=baby healthcare kit&tags=BA||||8230.883|Price|product|||TS|rsf:gd-|-stype:attr=1|qr_nm:gd|res:RC3|com-cf:nl|ptrs:na|ktp:N0|mc:45463|mtp:S|qry_typ:P|lang:en|wc:3|cs:8838|v=4,False,Singanpor,Surat,"SY No,1-36, 1st Floor, Talav Falia, Rear Side, Post Siganpore, Katargam, Singanpor, Surat - 395004, Dist.Surat, Gujarat",8048968669,
Community Health Kit,https://www.indiamart.com/proddetail/community-health-kit-2855079332533.html?pos=42&kwd=baby healthcare kit&tags=BB||||8785.791|Price|product|||TS|rsf:gd-|-stype:attr=1|qr_nm:gd|res:RC3|com-cf:nl|ptrs:na|ktp:N0|mc:45463|mtp:S|qry_typ:P|lang:en|wc:3|cs:8838|v=4,MEDIGUARD (A Brand Of Jalandhar Enterprises Surgical Industries),https://www.mediguardindia.com/?pos=42&kwd=baby healthcare kit&tags=BB||||8785.791|Price|product|||TS|rsf:gd-|-stype:attr=1|qr_nm:gd|res:RC3|com-cf:nl|ptrs:na|ktp:N0|mc:45463|mtp:S|qry_typ:P|lang:en|wc:3|cs:8838|v=4,False,Sahibabad Industrial Area,Ghaziabad,"15/4/3 Site - Iv, Sahibabad Industrial Area Sahibabad, Sahibabad Industrial Area, Ghaziabad - 201010, Dist.Ghaziabad, Uttar Pradesh",7942711397,
"Multicolor Newborn Baby Care Kits, Packaging Type: Box",https://www.indiamart.com/proddetail/newborn-baby-care-kits-2853692993855.html?pos=43&kwd=baby healthcare kit&tags=BA||||8230.883|Price|product|||TS|rsf:gd-|-stype:attr=1|qr_nm:gd|res:RC3|com-cf:nl|ptrs:na|ktp:N0|mc:45463|mtp:S|qry_typ:P|lang:en|wc:3|cs:8838|v=4,Alpyog Marketing,https://www.alpyogmarketing.com/?pos=43&kwd=baby healthcare kit&tags=BA||||8230.883|Price|product|||TS|rsf:gd-|-stype:attr=1|qr_nm:gd|res:RC3|com-cf:nl|ptrs:na|ktp:N0|mc:45463|mtp:S|qry_typ:P|lang:en|wc:3|cs:8838|v=4,False,Singanpor,Surat,"SY No,1-36, 1st Floor, Talav Falia, Rear Side, Post Siganpore, Katargam, Singanpor, Surat - 395004, Dist.Surat, Gujarat",8048968669,
Community Health Kit,https://www.indiamart.com/proddetail/community-health-kit-2855079332533.html?pos=44&kwd=baby healthcare kit&tags=BB||||8785.791|Price|product|||TS|rsf:gd-|-stype:attr=1|qr_nm:gd|res:RC3|com-cf:nl|ptrs:na|ktp:N0|mc:45463|mtp:S|qry_typ:P|lang:en|wc:3|cs:8838|v=4,MEDIGUARD (A Brand Of Jalandhar Enterprises Surgical Industries),https://www.mediguardindia.com/?pos=44&kwd=baby healthcare kit&tags=BB||||8785.791|Price|product|||TS|rsf:gd-|-stype:attr=1|qr_nm:gd|res:RC3|com-cf:nl|ptrs:na|ktp:N0|mc:45463|mtp:S|qry_typ:P|lang:en|wc:3|cs:8838|v=4,False,Sahibabad Industrial Area,Ghaziabad,"15/4/3 Site - Iv, Sahibabad Industrial Area Sahibabad, Sahibabad Industrial Area, Ghaziabad - 201010, Dist.Ghaziabad, Uttar Pradesh",7942711397,
Community Health Kit,https://www.indiamart.com/proddetail/community-health-kit-2855079185555.html?pos=45&kwd=baby healthcare kit&tags=BB||||8752.144|Price|product|||TS|rsf:gd-|-stype:attr=1|qr_nm:gd|res:RC3|com-cf:nl|ptrs:na|ktp:N0|mc:45463|mtp:S|qry_typ:P|lang:en|wc:3|cs:8838|v=4,Jullundur Enterprises,https://www.surgicalinstrumentsindia.com/?pos=45&kwd=baby healthcare kit&tags=BB||||8752.144|Price|product|||TS|rsf:gd-|-stype:attr=1|qr_nm:gd|res:RC3|com-cf:nl|ptrs:na|ktp:N0|mc:45463|mtp:S|qry_typ:P|lang:en|wc:3|cs:8838|v=4,False,Chandni Chowk,New Delhi,"1568 A / G 22-23,,Bhagirath Palace,Bhagirath Palace, Chandni Chowk, New Delhi - 110006, Dist.Delhi, Delhi",8047636714,
Mamaearth Party Perfect Kit,https://www.indiamart.com/proddetail/mamaearth-party-perfect-kit-2853473842055.html?pos=46&kwd=baby healthcare kit&tags=BA||||8211.142|Price|product|||TS|rsf:gd-|-stype:attr=1|qr_nm:gd|res:RC3|com-cf:nl|ptrs:na|ktp:N0|mc:45463|mtp:S|qry_typ:P|lang:en|wc:3|cs:8838|v=4,Sawariya Beauty,https://www.indiamart.com/sawariya-beauty/?pos=46&kwd=baby healthcare kit&tags=BA||||8211.142|Price|product|||TS|rsf:gd-|-stype:attr=1|qr_nm:gd|res:RC3|com-cf:nl|ptrs:na|ktp:N0|mc:45463|mtp:S|qry_typ:P|lang:en|wc:3|cs:8838|v=4,False,Kurla West,Mumbai,"Mezbaan House, Shop No. 79/A, Pipe Road, Kurla West, Kurla West, Mumbai - 400070, Dist.Mumbai, Maharashtra",8045168381,
Blue And White Disposable Newborn Baby Healthcare Hospital Kit,https://www.indiamart.com/proddetail/disposable-newborn-baby-healthcare-hospital-kit-2850967159648.html?pos=47&kwd=baby healthcare kit&tags=BA||||8542.848|Price|product|||MDC|rsf:gd-|-stype:attr=1|qr_nm:gd|res:RC3|com-cf:nl|ptrs:na|ktp:N0|mc:45463|mtp:S|qry_typ:P|lang:en|wc:3|cs:8838|v=4,Bonven,https://www.indiamart.com/bonven-ernakulam/?pos=47&kwd=baby healthcare kit&tags=BA||||8542.848|Price|product|||MDC|rsf:gd-|-stype:attr=1|qr_nm:gd|res:RC3|com-cf:nl|ptrs:na|ktp:N0|mc:45463|mtp:S|qry_typ:P|lang:en|wc:3|cs:8838|v=4,False,Vedimara,Paravur,"8/399-A, Ground Floor, Fyma Building, Mannam Manjaly Road, North Paravur, Ernakulam, Vedimara, Paravur - 683520, Dist.Ernakulam, Kerala",7942827971,
"Pink (Base) Baby Care Kit, Packaging Type: Box, 3-12 Months",https://www.indiamart.com/proddetail/baby-care-kit-2852081514497.html?pos=48&kwd=baby healthcare kit&tags=BA||||8624.416|Price|product|||MDC|rsf:gd-|-stype:attr=1|qr_nm:gd|res:RC3|com-cf:nl|ptrs:na|ktp:N0|mc:45463|mtp:S|qry_typ:P|lang:en|wc:3|cs:8838|v=4,Dayawanti Traders,https://www.indiamart.com/dayawati-trader/?pos=48&kwd=baby healthcare kit&tags=BA||||8624.416|Price|product|||MDC|rsf:gd-|-stype:attr=1|qr_nm:gd|res:RC3|com-cf:nl|ptrs:na|ktp:N0|mc:45463|mtp:S|qry_typ:P|lang:en|wc:3|cs:8838|v=4,False,Indira Colony,Hisar,"Plot No. 137 Dhani Kishandutt, Near Asha High School, Nancy Beauty Parlour, Indira Colony, Indira Colony, Hisar - 125001, Dist.Hisar, Haryana",7942701403,
"baby ovil kit, 250 mL",https://www.indiamart.com/proddetail/baby-ovil-kit-2854862015691.html?pos=49&kwd=baby healthcare kit&tags=BB||||8624.416|Price|product|||MDC|rsf:gd-|-stype:attr=1|qr_nm:gd|res:RC3|com-cf:nl|ptrs:na|ktp:N0|mc:45463|mtp:S|qry_typ:P|lang:en|wc:3|cs:8838|v=4,Nagpal Cosmetics,https://www.indiamart.com/nagpal-cosmetics/?pos=49&kwd=baby healthcare kit&tags=BB||||8624.416|Price|product|||MDC|rsf:gd-|-stype:attr=1|qr_nm:gd|res:RC3|com-cf:nl|ptrs:na|ktp:N0|mc:45463|mtp:S|qry_typ:P|lang:en|wc:3|cs:8838|v=4,False,,Hisar,"First Floor, House No. 123, Kunj Lal Garden, Shanti Nagar, Hisar - 125001, Dist.Hisar, Haryana",8045738316,
Baby Hospital Kit,https://www.indiamart.com/proddetail/baby-hospital-kit-2849608852255.html?pos=50&kwd=baby healthcare kit&tags=BA||||8954.051|Price|product|||MDC|rsf:gd-|-stype:attr=1|qr_nm:gd|res:RC3|com-cf:nl|ptrs:na|ktp:N0|mc:45463|mtp:S|qry_typ:P|lang:en|wc:3|cs:8838|v=4,Madhu Knitters,https://www.indiamart.com/madhuknitters/?pos=50&kwd=baby healthcare kit&tags=BA||||8954.051|Price|product|||MDC|rsf:gd-|-stype:attr=1|qr_nm:gd|res:RC3|com-cf:nl|ptrs:na|ktp:N0|mc:45463|mtp:S|qry_typ:P|lang:en|wc:3|cs:8838|v=4,False,Royapettah,Chennai,"Flat No. 204, Meridian Heights, 156 Peters Road, Royapettah, Royapettah, Chennai - 600014, Dist.Chennai, Tamil Nadu",8048952268,
BABY GROOMING(CARE) KIT,https://www.indiamart.com/proddetail/baby-grooming-care-kit-2854887441848.html?pos=51&kwd=baby healthcare kit&tags=BB||||8230.883|Price|product|||MDC|rsf:gd-|-stype:attr=1|qr_nm:gd|res:RC3|com-cf:nl|ptrs:na|ktp:N0|mc:45463|mtp:S|qry_typ:P|lang:en|wc:3|cs:8838|v=4,Balar Corporation,https://www.indiamart.com/balar-corporation/?pos=51&kwd=baby healthcare kit&tags=BB||||8230.883|Price|product|||MDC|rsf:gd-|-stype:attr=1|qr_nm:gd|res:RC3|com-cf:nl|ptrs:na|ktp:N0|mc:45463|mtp:S|qry_typ:P|lang:en|wc:3|cs:8838|v=4,False,,Surat,"C-504, Rameshvaram Regency, Utran, Surat - 394105, Dist.Surat, Gujarat",8045734410,
Born Baby Care Kit,https://www.indiamart.com/proddetail/born-baby-care-kit-2854342495148.html?pos=52&kwd=baby healthcare kit&tags=BA||||9197.934|Price|product|||MDC|rsf:gd-|-stype:attr=1|qr_nm:gd|res:RC3|com-cf:nl|ptrs:na|ktp:N0|mc:45463|mtp:S|qry_typ:P|lang:en|wc:3|cs:8838|v=4,Shukla Enterprises,https://www.indiamart.com/shukla-enterprises-bilaspur/?pos=52&kwd=baby healthcare kit&tags=BA||||9197.934|Price|product|||MDC|rsf:gd-|-stype:attr=1|qr_nm:gd|res:RC3|com-cf:nl|ptrs:na|ktp:N0|mc:45463|mtp:S|qry_typ:P|lang:en|wc:3|cs:8838|v=4,False,,Bilaspur,"Ring Road No 02 Ameri Raod, Bilaspur - 495001, Chhattisgarh",8045736179,
10 PCS BABY CARE KIT,https://www.indiamart.com/proddetail/10-pcs-baby-care-kit-2853979998030.html?pos=53&kwd=baby healthcare kit&tags=BA||||8230.883|Price|product|||MDC|rsf:gd-|-stype:attr=1|qr_nm:gd|res:RC3|com-cf:nl|ptrs:na|ktp:N0|mc:45463|mtp:S|qry_typ:P|lang:en|wc:3|cs:8838|v=4,Krishna Enterprise,https://www.indiamart.com/krishnaenterprise-surat-gujaratindia/?pos=53&kwd=baby healthcare kit&tags=BA||||8230.883|Price|product|||MDC|rsf:gd-|-stype:attr=1|qr_nm:gd|res:RC3|com-cf:nl|ptrs:na|ktp:N0|mc:45463|mtp:S|qry_typ:P|lang:en|wc:3|cs:8838|v=4,False,Mankna,Surat,"Plot No-3 Block No.278 Krishna Residency Vibhag-2 Mankna, Mankna, Surat - 394325, Dist.Surat, Gujarat",7942708926,
Baby Care Kit 6 pcs 8 pcs 10 pcs,,Prince And Princess,https://www.indiamart.com/prince-princess-delhi/?pos=54&kwd=baby healthcare kit&tags=BB||||8752.144||product|||MDC|rsf:gd-|-stype:attr=1|qr_nm:gd|res:RC3|com-cf:nl|ptrs:na|ktp:N0|mc:45463|mtp:S|qry_typ:P|lang:en|wc:3|cs:8838|v=4,False,Gulabi Bagh,New Delhi,"Ground Floor, Garage No - 74, Gulabi Bagh Road,, Gulabi Bagh, New Delhi - 110007, Dist.Delhi, Delhi",8047629125,
Effective Gut Health Solution for Livestock,https://www.indiamart.com/proddetail/effective-gut-health-solution-for-livestock-2854777505788.html?pos=55&kwd=baby healthcare kit&tags=BB||||8307.81||product|||MDC|rsf:gd-|-stype:attr=1|qr_nm:gd|res:RC3|com-cf:nl|ptrs:na|ktp:N0|mc:45463|mtp:S|qry_typ:P|lang:en|wc:3|cs:8838|v=4,Team One Biotech LLP,https://www.indiamart.com/teamonebiotech/?pos=55&kwd=baby healthcare kit&tags=BB||||8307.81||product|||MDC|rsf:gd-|-stype:attr=1|qr_nm:gd|res:RC3|com-cf:nl|ptrs:na|ktp:N0|mc:45463|mtp:S|qry_typ:P|lang:en|wc:3|cs:8838|v=4,False,Ambegaon,Pune,"FL No K 103, S No 11, Sai Mystique, Ambegaon BK, Ambegaon, Pune - 411046, Dist.Pune, Maharashtra",8048272212,
D Care Mother Mama Kit,https://www.indiamart.com/proddetail/mother-mama-kit-18178047097.html?pos=56&kwd=baby healthcare kit&tags=BA||||8204.559|Price|product|||MDC|rsf:gd-|-stype:attr=1|qr_nm:gd|res:RC3|com-cf:nl|ptrs:na|ktp:N0|mc:45463|mtp:S|qry_typ:P|lang:en|wc:3|cs:8838|v=4,DNP Enterprise,https://www.indiamart.com/dnpenterprise/?pos=56&kwd=baby healthcare kit&tags=BA||||8204.559|Price|product|||MDC|rsf:gd-|-stype:attr=1|qr_nm:gd|res:RC3|com-cf:nl|ptrs:na|ktp:N0|mc:45463|mtp:S|qry_typ:P|lang:en|wc:3|cs:8838|v=4,False,BAVLA DISTRICT AHMEDABAD,Bavla,"A-5 To 9, Orchid Industrial Park, Bavla- Sanand Road, BAVLA DISTRICT AHMEDABAD, Bavla - 382220, Dist.Ahmedabad, Gujarat",7949087470,
"Brown Vinarghya Premium Bal Ghuti, Packaging Type: Box",https://www.indiamart.com/proddetail/vinarghya-premium-bal-ghuti-2853367639333.html?pos=57&kwd=baby healthcare kit&tags=BA||||8574.766|Price|product|||MDC|rsf:gd-|-stype:attr=1|qr_nm:gd|res:RC3|com-cf:nl|ptrs:na|ktp:N0|mc:45463|mtp:S|qry_typ:P|lang:en|wc:3|cs:8838|v=4,Vinarghya Pharmaceuticals,https://www.indiamart.com/vinarghya-pharmaceuticals/?pos=57&kwd=baby healthcare kit&tags=BA||||8574.766|Price|product|||MDC|rsf:gd-|-stype:attr=1|qr_nm:gd|res:RC3|com-cf:nl|ptrs:na|ktp:N0|mc:45463|mtp:S|qry_typ:P|lang:en|wc:3|cs:8838|v=4,False,Gudadhi,Motala,"Birla Gate No. 1 Ramdaspeth, Gudadhi, Motala - 443103, Dist.Buldhana, Maharashtra",8044014580,
"Round 4-in-1 Grooming Kit/Manicure Kit for Babies., Packaging Size: Box",https://www.indiamart.com/proddetail/4-in-1-grooming-kit-manicure-kit-for-babies-25383873412.html?pos=58&kwd=baby healthcare kit&tags=BA||||8752.144|Price|product|||MDC|rsf:gd-|-stype:attr=1|qr_nm:gd|res:RC3|com-cf:nl|ptrs:na|ktp:N0|mc:45463|mtp:S|qry_typ:P|lang:en|wc:3|cs:8838|v=4,B-Qube Enterprises,https://www.indiamart.com/bqube-enterprises/?pos=58&kwd=baby healthcare kit&tags=BA||||8752.144|Price|product|||MDC|rsf:gd-|-stype:attr=1|qr_nm:gd|res:RC3|com-cf:nl|ptrs:na|ktp:N0|mc:45463|mtp:S|qry_typ:P|lang:en|wc:3|cs:8838|v=4,False,Karol Bagh,New Delhi,"303, Iiird Floor,13/4, W.E.A.,Karol Bagh, Karol Bagh, New Delhi - 110005, Dist.Delhi, Delhi",8047313183,
"Plastic 10pc Baby Grooming & Healthcare kit in Gift Pack, Packaging Size: Medium",https://www.indiamart.com/proddetail/10pc-baby-grooming-healthcare-kit-in-gift-pack-2852559367830.html?pos=59&kwd=baby healthcare kit&tags=BA||||8230.883|Price|product|||TS|rsf:gd-|-stype:attr=1|qr_nm:gd|res:RC3|com-cf:nl|ptrs:na|ktp:N0|mc:45463|mtp:S|qry_typ:P|lang:en|wc:3|cs:8838|v=4,RJ Enterprise,https://www.indiamart.com/rj-enterprise-surat/?pos=59&kwd=baby healthcare kit&tags=BA||||8230.883|Price|product|||TS|rsf:gd-|-stype:attr=1|qr_nm:gd|res:RC3|com-cf:nl|ptrs:na|ktp:N0|mc:45463|mtp:S|qry_typ:P|lang:en|wc:3|cs:8838|v=4,False,Katargam,Surat,"134, Sahjanand Society, N/R Arogyakendra, Katargam, Katargam, Surat - 395004, Dist.Surat, Gujarat",7942555306,
"UMA ENTERPRISE 10pc Baby Grooming & Healthcare kit in Gift Pack, Packaging Type: Box",https://www.indiamart.com/proddetail/10pc-baby-grooming-healthcare-kit-in-gift-pack-2852954124862.html?pos=60&kwd=baby healthcare kit&tags=BA||||8230.883|Price|product|||MDC|rsf:gd-|-stype:attr=1|qr_nm:gd|res:RC3|com-cf:nl|ptrs:na|ktp:N0|mc:45463|mtp:S|qry_typ:P|lang:en|wc:3|cs:8838|v=4,Uma Enterprise,https://www.indiamart.com/umaenterprisesurat/?pos=60&kwd=baby healthcare kit&tags=BA||||8230.883|Price|product|||MDC|rsf:gd-|-stype:attr=1|qr_nm:gd|res:RC3|com-cf:nl|ptrs:na|ktp:N0|mc:45463|mtp:S|qry_typ:P|lang:en|wc:3|cs:8838|v=4,False,Majura Gate,Surat,"72, Hari Ichchha Industrial Co Op Society, A K Road, Majura Gate, Surat - 395008, Dist.Surat, Gujarat",7942713138,
"KE Baby Grooming KIt, Newly Born",https://www.indiamart.com/proddetail/ke-baby-grooming-kit-2854764618748.html?pos=61&kwd=baby healthcare kit&tags=BB||||8752.144|Price|product|||MDC|rsf:gd-|-stype:attr=1|qr_nm:gd|res:RC3|com-cf:nl|ptrs:na|ktp:N0|mc:45463|mtp:S|qry_typ:P|lang:en|wc:3|cs:8838|v=4,L T Textiles,https://www.indiamart.com/lttextiles/?pos=61&kwd=baby healthcare kit&tags=BB||||8752.144|Price|product|||MDC|rsf:gd-|-stype:attr=1|qr_nm:gd|res:RC3|com-cf:nl|ptrs:na|ktp:N0|mc:45463|mtp:S|qry_typ:P|lang:en|wc:3|cs:8838|v=4,False,Pahari Dhiraj,New Delhi,"5189-90 Main Road, Sadar Bazar, Pahari Dhiraj, New Delhi - 110006, Dist.Delhi, Delhi",7942958455,
"Electric Nail File Drill For Baby No Sharp Claws Hurt, 6 In 1 Safety Cutter Trimmer For Toes",https://www.indiamart.com/proddetail/electric-nail-file-drill-for-baby-no-sharp-claws-hurt-6-in-1-safety-cutter-trimmer-for-toes-2854758762597.html?pos=62&kwd=baby healthcare kit&tags=BB||||8230.883|Price|product|||MDC|rsf:gd-|-stype:attr=1|qr_nm:gd|res:RC3|com-cf:nl|ptrs:na|ktp:N0|mc:45463|mtp:S|qry_typ:P|lang:en|wc:3|cs:8838|v=4,Brahma Wholesaler,https://www.indiamart.com/brahma-wholesaler/?pos=62&kwd=baby healthcare kit&tags=BB||||8230.883|Price|product|||MDC|rsf:gd-|-stype:attr=1|qr_nm:gd|res:RC3|com-cf:nl|ptrs:na|ktp:N0|mc:45463|mtp:S|qry_typ:P|lang:en|wc:3|cs:8838|v=4,False,,Surat,"Ground Floor, 123, Harekrishna SOC, Katargam Road, Shreeji Provision Store, Surat - 395004, Dist.Surat, Gujarat",7949331498,
Baby Care Kit,,R M Traders,https://www.indiamart.com/rm-tradersghaziabad/?pos=63&kwd=baby healthcare kit&tags=BA||||8785.791|Price|product|||MDC|rsf:gd-|-stype:attr=1|qr_nm:gd|res:RC3|com-cf:nl|ptrs:na|ktp:N0|mc:45463|mtp:S|qry_typ:P|lang:en|wc:3|cs:8838|v=4,False,,Ghaziabad,"H.No-77 Naveen Kunj Loni, Ghaziabad - 201102, Dist.Ghaziabad, Uttar Pradesh",8047676934,
Uniger India,,Uniger India,https://www.indiamart.com/unigerindia/?pos=64&kwd=baby healthcare kit&tags=A||||8752.144||bl|||MDC|rsf:gd-|-stype:attr=1|qr_nm:gd|res:RC3|com-cf:nl|ptrs:na|ktp:N0|mc:45463|mtp:S|qry_typ:P|lang:en|wc:3|cs:8838|v=4,False,Jamia Nagar,New Delhi,"First Floor, Left Portion, F-59-A, Abul Fazal Enclave-2, Shaheen Bagh, Jamia Nagar, Okhla, Jamia Nagar, New Delhi - 110025, Dist.Delhi, Delhi",8044015689,
Mymeet Newborn Baby Health Care Kit,https://www.indiamart.com/proddetail/newborn-baby-health-care-kit-2853199364473.html?pos=65&kwd=baby healthcare kit&tags=A||||8228.275|Price|product|||NA|rsf:gd-|-stype:attr=1|qr_nm:gd|res:RC3|com-cf:nl|ptrs:na|ktp:N0|mc:45463|mtp:S|qry_typ:P|lang:en|wc:3|cs:8838|v=4,Meet Collection,https://www.indiamart.com/meetcollection-ahmedabad/?pos=65&kwd=baby healthcare kit&tags=A||||8228.275|Price|product|||NA|rsf:gd-|-stype:attr=1|qr_nm:gd|res:RC3|com-cf:nl|ptrs:na|ktp:N0|mc:45463|mtp:S|qry_typ:P|lang:en|wc:3|cs:8838|v=4,False,,Ahmedabad,"2404/a Nr Parbaram Mandir C Ward Kubernagar, Ahmedabad - 382340, Dist.Ahmedabad, Gujarat",8046032091,
"Plastic Blue Baby Grooming Kit, For Kids",https://www.indiamart.com/proddetail/baby-grooming-kit-25899394448.html?pos=66&kwd=baby healthcare kit&tags=BB||||8752.144|Price|product|||NA|rsf:gd-|-stype:attr=1|qr_nm:gd|res:RC3|com-cf:nl|ptrs:na|ktp:N0|mc:45463|mtp:S|qry_typ:P|lang:en|wc:3|cs:8838|v=4,Topgifties,https://www.indiamart.com/topgifties/?pos=66&kwd=baby healthcare kit&tags=BB||||8752.144|Price|product|||NA|rsf:gd-|-stype:attr=1|qr_nm:gd|res:RC3|com-cf:nl|ptrs:na|ktp:N0|mc:45463|mtp:S|qry_typ:P|lang:en|wc:3|cs:8838|v=4,False,,New Delhi,"4/1752, Mahavir Block, Shahdara, New Delhi - 110032, Dist.Delhi, Delhi",8047676503,
BABY KIT,https://www.indiamart.com/proddetail/baby-kit-23366452930.html?pos=67&kwd=baby healthcare kit&tags=BB||||9045.955|Price|product|||NA|rsf:gd-|-stype:attr=1|qr_nm:gd|res:RC3|com-cf:nl|ptrs:na|ktp:N0|mc:45463|mtp:S|qry_typ:P|lang:en|wc:3|cs:8838|v=4,USS Enterprise,https://www.indiamart.com/uss-enterprise/?pos=67&kwd=baby healthcare kit&tags=BB||||9045.955|Price|product|||NA|rsf:gd-|-stype:attr=1|qr_nm:gd|res:RC3|com-cf:nl|ptrs:na|ktp:N0|mc:45463|mtp:S|qry_typ:P|lang:en|wc:3|cs:8838|v=4,False,Sharda Nagar,Kanpur,"117/26, Q Block Sharda Nagar, Kanpur, Sharda Nagar, Kanpur - 208025, Uttar Pradesh",8048371799,256
Baby kit,,sumit enterprises,https://www.indiamart.com/sumitenterprises-amritsar/?pos=68&kwd=baby healthcare kit&tags=BB||||8580.032|Price|product|||NA|rsf:gd-|-stype:attr=1|qr_nm:gd|res:RC3|com-cf:nl|ptrs:na|ktp:N0|mc:45463|mtp:S|qry_typ:P|lang:en|wc:3|cs:8838|v=4,False,,Amritsar,"Outside Lahori Gate,Amritsar,Amritsar,Amritsar, Amritsar - 143001, Dist.Amritsar, Punjab",8048370281,3695
"Abs Plastic Baby Grooming Kit, Packaging Size: Box",https://www.indiamart.com/proddetail/baby-grooming-kit-2853811803173.html?pos=69&kwd=baby healthcare kit&tags=BA||||8752.144|Price|product|||NA|rsf:gd-|-stype:attr=1|qr_nm:gd|res:RC3|com-cf:nl|ptrs:na|ktp:N0|mc:45463|mtp:S|qry_typ:P|lang:en|wc:3|cs:8838|v=4,Moyokart,https://www.indiamart.com/moyokart/?pos=69&kwd=baby healthcare kit&tags=BA||||8752.144|Price|product|||NA|rsf:gd-|-stype:attr=1|qr_nm:gd|res:RC3|com-cf:nl|ptrs:na|ktp:N0|mc:45463|mtp:S|qry_typ:P|lang:en|wc:3|cs:8838|v=4,False,Dwarka,New Delhi,"1st Floor,Plot No 39-40/3, KH. No.547,Gali No-8,Block-R, Karan Vihar PH-6 Village Kirari Suleman N, Dwarka, New Delhi - 110086, Dist.Delhi, Delhi",7949087206,
Baby Care Kit,https://www.indiamart.com/proddetail/baby-care-kit-2854641820012.html?pos=70&kwd=baby healthcare kit&tags=BB||||8647.052|Price|product|||NA|rsf:gd-|-stype:attr=1|qr_nm:gd|res:RC3|com-cf:nl|ptrs:na|ktp:N0|mc:45463|mtp:S|qry_typ:P|lang:en|wc:3|cs:8838|v=4,Shopper'S Point,https://www.indiamart.com/shoppers-point-hansi/?pos=70&kwd=baby healthcare kit&tags=BB||||8647.052|Price|product|||NA|rsf:gd-|-stype:attr=1|qr_nm:gd|res:RC3|com-cf:nl|ptrs:na|ktp:N0|mc:45463|mtp:S|qry_typ:P|lang:en|wc:3|cs:8838|v=4,False,,Hansi,"H.No.230/11 Jagdish Colony Hansi Dist, Hansi - 125033, Dist.Hisar, Haryana",8069017211,149
"Blue,Pink Baby Care Products Kit, Packaging Type: Box",https://www.indiamart.com/proddetail/baby-care-products-kit-2850225177033.html?pos=71&kwd=baby healthcare kit&tags=BB||||8752.144|Price|product|||NA|rsf:gd-|-stype:attr=1|qr_nm:gd|res:RC3|com-cf:nl|ptrs:na|ktp:N0|mc:45463|mtp:S|qry_typ:P|lang:en|wc:3|cs:8838|v=4,Gupta Creations,https://www.indiamart.com/guptacreations-134727805/?pos=71&kwd=baby healthcare kit&tags=BB||||8752.144|Price|product|||NA|rsf:gd-|-stype:attr=1|qr_nm:gd|res:RC3|com-cf:nl|ptrs:na|ktp:N0|mc:45463|mtp:S|qry_typ:P|lang:en|wc:3|cs:8838|v=4,False,Near Sport Sun,New Delhi,"B-977 Shastri Nagar New Delhi, Near Sport Sun, New Delhi - 110052, Dist.Delhi, Delhi",8069023939,192
"Santulan Baby Care Kit, 426g",https://www.indiamart.com/proddetail/santulan-baby-care-kit-23115283630.html?pos=72&kwd=baby healthcare kit&tags=BB||||8211.142|Price|product|||NA|rsf:gd-|-stype:attr=1|qr_nm:gd|res:RC3|com-cf:nl|ptrs:na|ktp:N0|mc:45463|mtp:S|qry_typ:P|lang:en|wc:3|cs:8838|v=4,Himani Health Care,https://www.indiamart.com/himani-health-care/?pos=72&kwd=baby healthcare kit&tags=BB||||8211.142|Price|product|||NA|rsf:gd-|-stype:attr=1|qr_nm:gd|res:RC3|com-cf:nl|ptrs:na|ktp:N0|mc:45463|mtp:S|qry_typ:P|lang:en|wc:3|cs:8838|v=4,False,Princess Street,Mumbai,"212,Anand Bhuvan 17,Babu Genu Road, Princess Street, Mumbai - 400002, Dist.Mumbai, Maharashtra",8048372447,283
"Praanapoorna Baby Care Kit, Packaging Type: Glass",https://www.indiamart.com/proddetail/praanapoorna-baby-care-kit-2850017103630.html?pos=73&kwd=baby healthcare kit&tags=BA||||8663.873|Price|product|||NA|rsf:gd-|-stype:attr=1|qr_nm:gd|res:RC3|com-cf:nl|ptrs:na|ktp:N0|mc:45463|mtp:S|qry_typ:P|lang:en|wc:3|cs:8838|v=4,Praanapoorna Collective,https://www.indiamart.com/praanapoorna-collective/?pos=73&kwd=baby healthcare kit&tags=BA||||8663.873|Price|product|||NA|rsf:gd-|-stype:attr=1|qr_nm:gd|res:RC3|com-cf:nl|ptrs:na|ktp:N0|mc:45463|mtp:S|qry_typ:P|lang:en|wc:3|cs:8838|v=4,False,Rajarajeshwari Nagar,Bengaluru,"Rajarajeshwari Nagar, Rajarajeshwari Nagar, Bengaluru - 560098, Dist.Bengaluru, Karnataka",8048952659,
BABY CARE KIT 10 PCS,https://www.indiamart.com/proddetail/baby-care-kit-10-pcs-2854996946233.html?pos=74&kwd=baby healthcare kit&tags=BB||||8230.883|Price|product|||NA|rsf:gd-|-stype:attr=1|qr_nm:gd|res:RC3|com-cf:nl|ptrs:na|ktp:N0|mc:45463|mtp:S|qry_typ:P|lang:en|wc:3|cs:8838|v=4,Ucrow Textile,https://www.indiamart.com/ucrow-textile/?pos=74&kwd=baby healthcare kit&tags=BB||||8230.883|Price|product|||NA|rsf:gd-|-stype:attr=1|qr_nm:gd|res:RC3|com-cf:nl|ptrs:na|ktp:N0|mc:45463|mtp:S|qry_typ:P|lang:en|wc:3|cs:8838|v=4,False,,Surat,"Ground Floor, Plot No.4305/3, 4 No Road, Sachin Gidc, Surat - 394230, Dist.Surat, Gujarat",8048249738,7535
10pcs beby care kit,https://www.indiamart.com/proddetail/10pcs-beby-care-kit-2854205842348.html?pos=75&kwd=baby healthcare kit&tags=BA||||8230.883|Price|product|||NA|rsf:gd-|-stype:attr=1|qr_nm:gd|res:RC3|com-cf:nl|ptrs:na|ktp:N0|mc:45463|mtp:S|qry_typ:P|lang:en|wc:3|cs:8838|v=4,Indosellers,https://www.indiamart.com/indosellers/?pos=75&kwd=baby healthcare kit&tags=BA||||8230.883|Price|product|||NA|rsf:gd-|-stype:attr=1|qr_nm:gd|res:RC3|com-cf:nl|ptrs:na|ktp:N0|mc:45463|mtp:S|qry_typ:P|lang:en|wc:3|cs:8838|v=4,False,Katargam,Surat,"A/158, Shiv Chhaya Soc, B/H Akhand Anand College, Ved Road, Katargam, Surat - 395004, Dist.Surat, Gujarat",7942817925,
Multicolor Kids Asha HBYC Healthcare Kits,https://www.indiamart.com/proddetail/kids-asha-hbyc-healthcare-kits-22113835648.html?pos=76&kwd=baby healthcare kit&tags=BA||||9045.955|Price|product|||NA|rsf:gd-|-stype:attr=1|qr_nm:gd|res:RC3|com-cf:nl|ptrs:na|ktp:N0|mc:45463|mtp:S|qry_typ:P|lang:en|wc:3|cs:8838|v=4,R D Enterprises,https://www.indiamart.com/rd-enterpriseskanpur/?pos=76&kwd=baby healthcare kit&tags=BA||||9045.955|Price|product|||NA|rsf:gd-|-stype:attr=1|qr_nm:gd|res:RC3|com-cf:nl|ptrs:na|ktp:N0|mc:45463|mtp:S|qry_typ:P|lang:en|wc:3|cs:8838|v=4,False,Kidwai Nagar,Kanpur,"17/52 B-4, Nawab Compound, Ram Narain Bazar, Patka Pur, Kidwai Nagar, Kanpur - 208001, Uttar Pradesh",8044564183,
Baby Grooming Kit / Baby Care Kit,,Vasdev Traders Hisar,https://www.indiamart.com/vasdev-traders-hisar/?pos=77&kwd=baby healthcare kit&tags=A||||8624.416|Price|product|||NA|rsf:gd-|-stype:attr=1|qr_nm:gd|res:RC3|com-cf:nl|ptrs:na|ktp:N0|mc:45463|mtp:S|qry_typ:P|lang:en|wc:3|cs:8838|v=4,False,,Hisar,"Jindal chowk , Hisar, Hisar - 125005, Dist.Hisar, Haryana",8048249961,237
Plastic Baby Comb,https://www.indiamart.com/proddetail/baby-comb-2851510873630.html?pos=78&kwd=baby healthcare kit&tags=BA||||8647.052|Price|product|||NA|rsf:gd-|-stype:attr=1|qr_nm:gd|res:RC3|com-cf:nl|ptrs:na|ktp:N0|mc:45463|mtp:S|qry_typ:P|lang:en|wc:3|cs:8838|v=4,Vinayaka Corporation,https://www.indiamart.com/vinayaka-corporation-hansi/?pos=78&kwd=baby healthcare kit&tags=BA||||8647.052|Price|product|||NA|rsf:gd-|-stype:attr=1|qr_nm:gd|res:RC3|com-cf:nl|ptrs:na|ktp:N0|mc:45463|mtp:S|qry_typ:P|lang:en|wc:3|cs:8838|v=4,False,,Hansi,"1319/11 Main Road Hansi Hisar, Hansi - 125033, Dist.Hisar, Haryana",8048249686,2771
Baby Kit,,NKSS Enterprises,https://www.indiamart.com/nkss-enterprises/?pos=79&kwd=baby healthcare kit&tags=BB||||9097.53|Price|product|||NA|rsf:gd-|-stype:attr=1|qr_nm:gd|res:RC3|com-cf:nl|ptrs:na|ktp:N0|mc:45463|mtp:S|qry_typ:P|lang:en|wc:3|cs:8838|v=4,False,,Fatehpur,", Fatehpur - 212601, Uttar Pradesh",8069023795,880
Baby Kit,,Kashish Handloom,https://www.indiamart.com/kashish-handloom/?pos=80&kwd=baby healthcare kit&tags=BB||||8747.203||product|||NA|rsf:gd-|-stype:attr=1|qr_nm:gd|res:RC3|com-cf:nl|ptrs:na|ktp:N0|mc:45463|mtp:S|qry_typ:P|lang:en|wc:3|cs:8838|v=4,False,,Panipat,"748/4 Pachranga Bazar Panipat near shiv mandir, Panipat - 132103, Dist.Panipat, Haryana",8069013437,705
Baby Kit,,Medipal Textiles,https://www.indiamart.com/nikhil-enterprizez/?pos=81&kwd=baby healthcare kit&tags=BB||||9301.656||product|||NA|rsf:gd-|-stype:attr=1|qr_nm:gd|res:RC3|com-cf:nl|ptrs:na|ktp:N0|mc:45463|mtp:S|qry_typ:P|lang:en|wc:3|cs:8838|v=4,False,,Varanasi,"Deuara Kashipur Kachnar Deura, Varanasi - 221311, Dist.Varanasi, Uttar Pradesh",8048371979,675
Baby Care Kit,,Namra Traders,https://www.indiamart.com/namra-traders-mehnagar/?pos=82&kwd=baby healthcare kit&tags=BA||||9318.406||product|||NA|rsf:gd-|-stype:attr=1|qr_nm:gd|res:RC3|com-cf:nl|ptrs:na|ktp:N0|mc:45463|mtp:S|qry_typ:P|lang:en|wc:3|cs:8838|v=4,False,,Mehnagar,"N/A,Ranipur Razmo,Mehnagar,Azamgarh, Mehnagar - 276204, Dist.Azamgarh, Uttar Pradesh",8045849064,2897
Himalaya Baby Kit,,Shree Mahaveer Medicals,https://www.indiamart.com/shree-mahaveer-medicals-mysore/?pos=83&kwd=baby healthcare kit&tags=BB||||8556.61||product|||NA|rsf:gd-|-stype:attr=1|qr_nm:gd|res:RC3|com-cf:nl|ptrs:na|ktp:N0|mc:45463|mtp:S|qry_typ:P|lang:en|wc:3|cs:8838|v=4,False,mysore,Mysore,"Nazarbad Main Road, Opp to park, Mysore ( Near mylari Hotel) Mysore, mysore, Mysore - 570010, Dist.Mysuru, Karnataka",8048371985,949
Baby Care Kit,,Meet Import And Export,https://www.indiamart.com/meet-imports-and-exports/?pos=84&kwd=baby healthcare kit&tags=BB||||8230.883||product|||NA|rsf:gd-|-stype:attr=1|qr_nm:gd|res:RC3|com-cf:nl|ptrs:na|ktp:N0|mc:45463|mtp:S|qry_typ:P|lang:en|wc:3|cs:8838|v=4,False,Surat,Surat,"105 Bombay Market Aadatiya Aawas Umarwada, Surat, Surat - 395002, Dist.Surat, Gujarat",8069051306,481
Baby Care Kit,,nn trading co.,https://www.indiamart.com/m-kumarbengaluru/?pos=85&kwd=baby healthcare kit&tags=BA||||8663.873||product|||NA|rsf:gd-|-stype:attr=1|qr_nm:gd|res:RC3|com-cf:nl|ptrs:na|ktp:N0|mc:45463|mtp:S|qry_typ:P|lang:en|wc:3|cs:8838|v=4,False,Virupakshapura,Bengaluru,"no.475,1st floor, rajeev gandhi nagar, Virupakshapura, Bengaluru - 560092, Dist.Bengaluru, Karnataka",8062270227,193
Baby Care Kit,,Bala Ji Enterprises,https://www.indiamart.com/company/23814936/?pos=86&kwd=baby healthcare kit&tags=BB||||8624.416|Price|product|||NA|rsf:gd-|-stype:attr=1|qr_nm:gd|res:RC3|com-cf:nl|ptrs:na|ktp:N0|mc:45463|mtp:S|qry_typ:P|lang:en|wc:3|cs:8838|v=4,False,,Hisar,"310 Unnamed Road, Hisar - 125001, Dist.Hisar, Haryana",8045849099,4539
Baby Care Kit,,Akshita Enterprises,https://www.indiamart.com/akshitaenterprises-224266556/?pos=87&kwd=baby healthcare kit&tags=BA||||8752.144|Price|product|||NA|rsf:gd-|-stype:attr=1|qr_nm:gd|res:RC3|com-cf:nl|ptrs:na|ktp:N0|mc:45463|mtp:S|qry_typ:P|lang:en|wc:3|cs:8838|v=4,False,Swami Shraddhanand Park,New Delhi,"Ground Floor, House No Pvt-525 Plot No 79 KH. No. 19/20, Block E, Street No. 11, Swami Shraddhanand Park, New Delhi - 110042, Dist.Delhi, Delhi",8048247104,6020
Baby Care Kit Regular,,Wehandlefix Wefix Private Limited,https://www.indiamart.com/wehandlefix-wefix-private-limited/?pos=88&kwd=baby healthcare kit&tags=BB||||8721.05|Price|product|||NA|rsf:gd-|-stype:attr=1|qr_nm:gd|res:RC3|com-cf:nl|ptrs:na|ktp:N0|mc:45463|mtp:S|qry_typ:P|lang:en|wc:3|cs:8838|v=4,False,,Bhiwadi,"2nd Floor No- 2/239 Uit Colony, Bhiwadi - 301019, Rajasthan",8048370730,5418
Post Natal Care Kit New Baby,,Dev Amrut Clinic,https://www.indiamart.com/dev-amrut-clinic/?pos=89&kwd=baby healthcare kit&tags=BB||||8228.275||product|||NA|rsf:gd-|-stype:attr=1|qr_nm:gd|res:RC3|com-cf:nl|ptrs:na|ktp:N0|mc:45463|mtp:S|qry_typ:P|lang:en|wc:3|cs:8838|v=4,False,,Ahmedabad,"S. F. A-202 Opp. Arvind Mill,naroada Road Atria Business Zone Naroda, Ahmedabad - 382345, Dist.Ahmedabad, Gujarat",8048371639,905
"Falalen Unisex New Born Baby Kit, Age Group: 0-3 Months, Size: Free",https://www.indiamart.com/proddetail/new-born-baby-kit-2851825412873.html?pos=90&kwd=baby healthcare kit&tags=CC||||8559.269|Price|product|||TS|rsf:gd-|-stype:attr=1|qr_nm:gd|res:RC3|com-cf:nl|ptrs:na|ktp:N0|mc:45463|mtp:S|qry_typ:P|lang:en|wc:3|cs:8838|v=4,Labhansh Industries,https://www.indiamart.com/labhansh-industries/?pos=90&kwd=baby healthcare kit&tags=CC||||8559.269|Price|product|||TS|rsf:gd-|-stype:attr=1|qr_nm:gd|res:RC3|com-cf:nl|ptrs:na|ktp:N0|mc:45463|mtp:S|qry_typ:P|lang:en|wc:3|cs:8838|v=4,False,Sukhlia,Indore,"414/11/2,Agrawal Compound,Khatipura, Sukhlia, Indore - 452001, Dist.Indore, Madhya Pradesh",7942874363,
Silicon Baby nails grooming kit,https://www.indiamart.com/proddetail/baby-nails-grooming-kit-2854599021955.html?pos=91&kwd=baby healthcare kit&tags=CC||||8823.154|Price|product|||TS|rsf:gd-|-stype:attr=1|qr_nm:gd|res:RC3|com-cf:nl|ptrs:na|ktp:N0|mc:45463|mtp:S|qry_typ:P|lang:en|wc:3|cs:8838|v=4,Shri Anant International,https://www.indiamart.com/shrianantinternational/?pos=91&kwd=baby healthcare kit&tags=CC||||8823.154|Price|product|||TS|rsf:gd-|-stype:attr=1|qr_nm:gd|res:RC3|com-cf:nl|ptrs:na|ktp:N0|mc:45463|mtp:S|qry_typ:P|lang:en|wc:3|cs:8838|v=4,False,DayalBagh,Agra,"No.02,House 2,Alkapuri Phase Ii,Agra, DayalBagh, Agra - 282005, Dist.Agra, Uttar Pradesh",7942721451,
"Unisex Hospitlization Newborn Baby Kits, Age Group: 0-1yr",https://www.indiamart.com/proddetail/newborn-baby-kits-23563960430.html?pos=92&kwd=baby healthcare kit&tags=CC||||9301.656|Price|product|||MDC|rsf:gd-|-stype:attr=1|qr_nm:gd|res:RC3|com-cf:nl|ptrs:na|ktp:N0|mc:45463|mtp:S|qry_typ:P|lang:en|wc:3|cs:8838|v=4,Komal Drug And Surgical Agency,https://www.indiamart.com/komaldrug-surgicalagency/?pos=92&kwd=baby healthcare kit&tags=CC||||9301.656|Price|product|||MDC|rsf:gd-|-stype:attr=1|qr_nm:gd|res:RC3|com-cf:nl|ptrs:na|ktp:N0|mc:45463|mtp:S|qry_typ:P|lang:en|wc:3|cs:8838|v=4,False,Luxa,Varanasi,"D 56/7A, Meerbagh Aurangabad, Luxa, Varanasi - 221010, Dist.Varanasi, Uttar Pradesh",8046065889,
"10 PCS Baby Healthcare Grooming Kits, Packaging Type: Box",https://www.indiamart.com/proddetail/10-pcs-baby-healthcare-grooming-kits-2853224051212.html?pos=93&kwd=baby healthcare kit&tags=CC||||8230.883|Price|product|||TS|rsf:gd-|-stype:attr=1|qr_nm:gd|res:RC3|com-cf:nl|ptrs:na|ktp:N0|mc:45463|mtp:S|qry_typ:P|lang:en|wc:3|cs:8838|v=4,Rozzby,https://www.cheaperzonetoys.com/?pos=93&kwd=baby healthcare kit&tags=CC||||8230.883|Price|product|||TS|rsf:gd-|-stype:attr=1|qr_nm:gd|res:RC3|com-cf:nl|ptrs:na|ktp:N0|mc:45463|mtp:S|qry_typ:P|lang:en|wc:3|cs:8838|v=4,False,Kosam,Surat,"1st Floor D-2,103 Vip Circle Shlok Recidency Utran, Kosam, Surat - 394105, Dist.Surat, Gujarat",8047622002,
Baby Care Kit,https://www.indiamart.com/proddetail/baby-care-kit-14177983273.html?pos=94&kwd=baby healthcare kit&tags=CC||||8752.144|Price|product|||TS|rsf:gd-|-stype:attr=1|qr_nm:gd|res:RC3|com-cf:nl|ptrs:na|ktp:N0|mc:45463|mtp:S|qry_typ:P|lang:en|wc:3|cs:8838|v=4,Fairbizps,https://www.indiamart.com/fairbizps/?pos=94&kwd=baby healthcare kit&tags=CC||||8752.144|Price|product|||TS|rsf:gd-|-stype:attr=1|qr_nm:gd|res:RC3|com-cf:nl|ptrs:na|ktp:N0|mc:45463|mtp:S|qry_typ:P|lang:en|wc:3|cs:8838|v=4,True,Laxmi Nagar,New Delhi,"No. 348/4A, Asha Ram, Street No. 4, Subedar Chowk Mandawali, Laxmi Nagar, New Delhi - 110092, Dist.Delhi, Delhi",8048610174,
Baby Care Kit Set,https://www.indiamart.com/proddetail/baby-care-kit-set-2854040441548.html?pos=95&kwd=baby healthcare kit&tags=CC||||8230.883|Price|product|||TS|rsf:gd-|-stype:attr=1|qr_nm:gd|res:RC3|com-cf:nl|ptrs:na|ktp:N0|mc:45463|mtp:S|qry_typ:P|lang:en|wc:3|cs:8838|v=4,Godfather Medicare Agency,https://www.godfatherimpex.com/?pos=95&kwd=baby healthcare kit&tags=CC||||8230.883|Price|product|||TS|rsf:gd-|-stype:attr=1|qr_nm:gd|res:RC3|com-cf:nl|ptrs:na|ktp:N0|mc:45463|mtp:S|qry_typ:P|lang:en|wc:3|cs:8838|v=4,False,,Surat,"165, Shubhlaxmi Society, Nana Varachha, Surat - 395006, Dist.Surat, Gujarat",8044456116,
Multicolor Baby Care Kit Set,https://www.indiamart.com/proddetail/baby-care-kit-set-2853722732497.html?pos=96&kwd=baby healthcare kit&tags=CC||||8230.883|Price|product|||TS|rsf:gd-|-stype:attr=1|qr_nm:gd|res:RC3|com-cf:nl|ptrs:na|ktp:N0|mc:45463|mtp:S|qry_typ:P|lang:en|wc:3|cs:8838|v=4,Indiab2btrade,https://www.indiab2btrade.com/?pos=96&kwd=baby healthcare kit&tags=CC||||8230.883|Price|product|||TS|rsf:gd-|-stype:attr=1|qr_nm:gd|res:RC3|com-cf:nl|ptrs:na|ktp:N0|mc:45463|mtp:S|qry_typ:P|lang:en|wc:3|cs:8838|v=4,False,Mota Varachha,Surat,"Ground Floor, Shop No. F/22, Shivdhara Complex, L.P Savani School,Near To Maharaja Farm,, Mota Varachha, Surat - 394105, Dist.Surat, Gujarat",8043816125,
"Broselow kit child, Packaging Type: Box",https://www.indiamart.com/proddetail/broselow-kit-child-11909567212.html?pos=97&kwd=baby healthcare kit&tags=CC||||8723.301|Price|product|||TS|rsf:gd-|-stype:attr=1|qr_nm:gd|res:RC3|com-cf:nl|ptrs:na|ktp:N0|mc:45463|mtp:S|qry_typ:P|lang:en|wc:3|cs:8838|v=4,Virtual Healthcare,https://www.indiamart.com/virtualhealthcare/?pos=97&kwd=baby healthcare kit&tags=CC||||8723.301|Price|product|||TS|rsf:gd-|-stype:attr=1|qr_nm:gd|res:RC3|com-cf:nl|ptrs:na|ktp:N0|mc:45463|mtp:S|qry_typ:P|lang:en|wc:3|cs:8838|v=4,False,subhash nagar,Bhopal,"H.NO.HIG-64, NEAR SHAKTI MANDIR, OLD SUBHASH NAGAR, Old Subhash Nagar BHOPAL, Bhopal, Madhya Pradesh, subhash nagar, Bhopal - 462023, Dist.Bhopal, Madhya Pradesh",8047659629,
Blue DB-537 Baby Healthcare Kit,https://www.indiamart.com/proddetail/blue-db-537-baby-healthcare-kit-2854163606197.html?pos=98&kwd=baby healthcare kit&tags=CC||||8693.162||product|||MDC|rsf:gd-|-stype:attr=1|qr_nm:gd|res:RC3|com-cf:nl|ptrs:na|ktp:N0|mc:45463|mtp:S|qry_typ:P|lang:en|wc:3|cs:8838|v=4,Dear Baby,https://www.indiamart.com/dearbaby/?pos=98&kwd=baby healthcare kit&tags=CC||||8693.162||product|||MDC|rsf:gd-|-stype:attr=1|qr_nm:gd|res:RC3|com-cf:nl|ptrs:na|ktp:N0|mc:45463|mtp:S|qry_typ:P|lang:en|wc:3|cs:8838|v=4,False,Begambur,Dindigul,"2nd Floor, No 7, Ahmad Appartment, S P Nagar, Begambur, Begambur, Dindigul - 624002, Dist.Dindigul, Tamil Nadu",8045731862,
"multy BABY CARE KIT 10 PCS, Packaging Type: Box",https://www.indiamart.com/proddetail/baby-care-kit-10-pcs-2853470434855.html?pos=99&kwd=baby healthcare kit&tags=CC||||8230.883|Price|product|||MDC|rsf:gd-|-stype:attr=1|qr_nm:gd|res:RC3|com-cf:nl|ptrs:na|ktp:N0|mc:45463|mtp:S|qry_typ:P|lang:en|wc:3|cs:8838|v=4,Kitchenware Zone,https://www.indiamart.com/kitchenwarezone/?pos=99&kwd=baby healthcare kit&tags=CC||||8230.883|Price|product|||MDC|rsf:gd-|-stype:attr=1|qr_nm:gd|res:RC3|com-cf:nl|ptrs:na|ktp:N0|mc:45463|mtp:S|qry_typ:P|lang:en|wc:3|cs:8838|v=4,False,Nana Varachha,Surat,"Ground Floor, Shop No.09, The Galleria, Yogi Chowk, Nana Varachha, Surat - 395010, Dist.Surat, Gujarat",7949222469,
Radhe Krishna Single Automatic Baby Cradle Kit,https://www.indiamart.com/proddetail/automatic-baby-cradle-kit-23395780491.html?pos=100&kwd=baby healthcare kit&tags=CC||||8228.275|Price|product|||TS|rsf:gd-|-stype:attr=1|qr_nm:gd|res:RC3|com-cf:nl|ptrs:na|ktp:N0|mc:45463|mtp:S|qry_typ:P|lang:en|wc:3|cs:8838|v=4,RADHEKRISHNA ENTERPRISE,https://www.radhekrishnaenterprise.com/?pos=100&kwd=baby healthcare kit&tags=CC||||8228.275|Price|product|||TS|rsf:gd-|-stype:attr=1|qr_nm:gd|res:RC3|com-cf:nl|ptrs:na|ktp:N0|mc:45463|mtp:S|qry_typ:P|lang:en|wc:3|cs:8838|v=4,False,Rakhial,Ahmedabad,"1/5, Jalaram Estate, Near Keval Kanta,, Rakhial, Ahmedabad - 380023, Dist.Ahmedabad, Gujarat",8046053661,
"Baby Lotion, Packaging Size: 200ML",https://www.indiamart.com/proddetail/baby-lotion-2851933939055.html?pos=101&kwd=baby healthcare kit&tags=CC||||8741.987|Price|product|||TS|rsf:gd-|-stype:attr=1|qr_nm:gd|res:RC3|com-cf:nl|ptrs:na|ktp:N0|mc:45463|mtp:S|qry_typ:P|lang:en|wc:3|cs:8838|v=4,Croodle Care,https://www.indiamart.com/crodle-care-ambala/?pos=101&kwd=baby healthcare kit&tags=CC||||8741.987|Price|product|||TS|rsf:gd-|-stype:attr=1|qr_nm:gd|res:RC3|com-cf:nl|ptrs:na|ktp:N0|mc:45463|mtp:S|qry_typ:P|lang:en|wc:3|cs:8838|v=4,False,Mahavir Nagar,Ambala,"4 Khasra No.15-15/3/3 Rajendra Nagar, Mahavir Nagar, Ambala - 133004, Dist.Ambala, Haryana",7942816764,
"Baby Care Kit, Luxury Manicure Grooming Kit for New Born Baby",https://www.indiamart.com/proddetail/baby-care-kit-luxury-manicure-grooming-kit-for-new-born-baby-2853751304362.html?pos=102&kwd=baby healthcare kit&tags=CC||||8230.883|Price|product|||MDC|rsf:gd-|-stype:attr=1|qr_nm:gd|res:RC3|com-cf:nl|ptrs:na|ktp:N0|mc:45463|mtp:S|qry_typ:P|lang:en|wc:3|cs:8838|v=4,Jnsm Spark,https://www.indiamart.com/jnsm-spark/?pos=102&kwd=baby healthcare kit&tags=CC||||8230.883|Price|product|||MDC|rsf:gd-|-stype:attr=1|qr_nm:gd|res:RC3|com-cf:nl|ptrs:na|ktp:N0|mc:45463|mtp:S|qry_typ:P|lang:en|wc:3|cs:8838|v=4,False,Dabholi,Surat,"3rd Floor Flat-302, Shukan Valley BLDG-F, OPP Hari Darshan, Dabholi Road, Dabholi, Surat - 395004, Dist.Surat, Gujarat",8045166587,
DHOLKI STYLE HBYC KIT,https://www.indiamart.com/proddetail/dholki-style-hbyc-kit-2854474353912.html?pos=103&kwd=baby healthcare kit&tags=CC||||9110.092||product|||MDC|rsf:gd-|-stype:attr=1|qr_nm:gd|res:RC3|com-cf:nl|ptrs:na|ktp:N0|mc:45463|mtp:S|qry_typ:P|lang:en|wc:3|cs:8838|v=4,Teggnet Private Limited,https://www.indiamart.com/teggnet/?pos=103&kwd=baby healthcare kit&tags=CC||||9110.092||product|||MDC|rsf:gd-|-stype:attr=1|qr_nm:gd|res:RC3|com-cf:nl|ptrs:na|ktp:N0|mc:45463|mtp:S|qry_typ:P|lang:en|wc:3|cs:8838|v=4,False,,Lucknow,"1/27, VIP, G.N, NA, Vipul Khand, Lucknow - 226010, Dist.Lucknow, Uttar Pradesh",8045734204,
"Baby And Mother Care Kit Third Party Manufacturers, Newly Born",https://www.indiamart.com/proddetail/baby-and-mother-care-kit-third-party-manufacturers-2853670482433.html?pos=104&kwd=baby healthcare kit&tags=||||8785.791|Price|product|||TS|rsf:gd-|-stype:attr=1|qr_nm:gd|res:RC3|com-cf:nl|ptrs:na|ktp:N0|mc:45463|mtp:S|qry_typ:P|lang:en|wc:3|cs:8838|v=4,Aarnav Global Exports,https://www.aarnavglobal.com/?pos=104&kwd=baby healthcare kit&tags=||||8785.791|Price|product|||TS|rsf:gd-|-stype:attr=1|qr_nm:gd|res:RC3|com-cf:nl|ptrs:na|ktp:N0|mc:45463|mtp:S|qry_typ:P|lang:en|wc:3|cs:8838|v=4,True,Jhandapur,Ghaziabad,"Basement, Plot No 51/1/6, Site-4 Industrial Area, Sahibabad, Jhandapur, Ghaziabad - 201010, Dist.Ghaziabad, Uttar Pradesh",8047637465,
"Paraben Free Products Newborn Baby Kit 5 Piece Set, For Gift Purpose",https://www.indiamart.com/proddetail/newborn-baby-kit-5-piece-set-2851787540655.html?pos=105&kwd=baby healthcare kit&tags=||||8211.142|Price|product|||TS|rsf:gd-|-stype:attr=1|qr_nm:gd|res:RC3|com-cf:nl|ptrs:na|ktp:N0|mc:45463|mtp:S|qry_typ:P|lang:en|wc:3|cs:8838|v=4,Babuline Pharma Pvt. Ltd.,https://www.babuline.net/?pos=105&kwd=baby healthcare kit&tags=||||8211.142|Price|product|||TS|rsf:gd-|-stype:attr=1|qr_nm:gd|res:RC3|com-cf:nl|ptrs:na|ktp:N0|mc:45463|mtp:S|qry_typ:P|lang:en|wc:3|cs:8838|v=4,False,Mazgaon,Mumbai,"406, 4th Floor, Gulab Building, 237 P D Mello Road, Fort, Mazgaon, Mumbai - 400001, Dist.Mumbai, Maharashtra",8048964178,
"Blue Baby Nail Trimmer Kit, Manual, Newly Born",https://www.indiamart.com/proddetail/baby-nail-trimmer-kit-2854246898873.html?pos=106&kwd=baby healthcare kit&tags=||||8228.275|Price|product|||MDC|rsf:gd-|-stype:attr=1|qr_nm:gd|res:RC3|com-cf:nl|ptrs:na|ktp:N0|mc:45463|mtp:S|qry_typ:P|lang:en|wc:3|cs:8838|v=4,Div Systems LLP,https://www.indiamart.com/divsystem/?pos=106&kwd=baby healthcare kit&tags=||||8228.275|Price|product|||MDC|rsf:gd-|-stype:attr=1|qr_nm:gd|res:RC3|com-cf:nl|ptrs:na|ktp:N0|mc:45463|mtp:S|qry_typ:P|lang:en|wc:3|cs:8838|v=4,False,,Ahmedabad,"504, Vinayak Elegance, Opp J P Farm, Vill. Ghuma, Dascroi,, Ahmedabad - 380058, Dist.Ahmedabad, Gujarat",8045729839,
Silicone Baby Toothbrush,https://www.indiamart.com/proddetail/silicone-baby-toothbrush-2854238911348.html?pos=107&kwd=baby healthcare kit&tags=||||8752.144|Price|product|||TS|rsf:gd-|-stype:attr=1|qr_nm:gd|res:RC3|com-cf:nl|ptrs:na|ktp:N0|mc:45463|mtp:S|qry_typ:P|lang:en|wc:3|cs:8838|v=4,VN Enterprise,https://www.indiamart.com/vn-enterprise-new-delhi/?pos=107&kwd=baby healthcare kit&tags=||||8752.144|Price|product|||TS|rsf:gd-|-stype:attr=1|qr_nm:gd|res:RC3|com-cf:nl|ptrs:na|ktp:N0|mc:45463|mtp:S|qry_typ:P|lang:en|wc:3|cs:8838|v=4,False,,New Delhi,"Wz-1013d, Gali No-13, Sadh Nagar, Palam Colony, New Delhi - 110045, Dist.Delhi, Delhi",8045734282,
Guru Corporation,,Guru Corporation,https://www.refractoryproduct.com/?pos=108&kwd=baby healthcare kit&tags=D||||8228.275||bl|||TS|rsf:gd-|-stype:attr=1|qr_nm:gd|res:RC3|com-cf:nl|ptrs:na|ktp:N0|mc:45463|mtp:S|qry_typ:P|lang:en|wc:3|cs:8838|v=4,True,Corporate Road,Ahmedabad,"B-906, Infinity Tower, Corporate Road Near Hotel Ramada, Corporate Road, Ahmedabad - 380015, Dist.Ahmedabad, Gujarat",8048603151,
Multicolor Baby Nail Cutter,https://www.indiamart.com/proddetail/baby-nail-cutter-2852775645048.html?pos=109&kwd=baby healthcare kit&tags=||||8230.883|Price|product|||TS|rsf:gd-|-stype:attr=1|qr_nm:gd|res:RC3|com-cf:nl|ptrs:na|ktp:N0|mc:45463|mtp:S|qry_typ:P|lang:en|wc:3|cs:8838|v=4,Crazy Deal,https://www.ecomdeal.net/?pos=109&kwd=baby healthcare kit&tags=||||8230.883|Price|product|||TS|rsf:gd-|-stype:attr=1|qr_nm:gd|res:RC3|com-cf:nl|ptrs:na|ktp:N0|mc:45463|mtp:S|qry_typ:P|lang:en|wc:3|cs:8838|v=4,False,Uttran,Surat,"3rd Floor, Shop No 303, Nr. Bhagyoday Residency, Raghuvir Textiles Mall, Magob, Uttran, Surat - 395010, Dist.Surat, Gujarat",8047815429,
Baby Healthcare Kit,,Ramdev Traders,https://www.indiamart.com/rising-star-babycare/?pos=110&kwd=baby healthcare kit&tags=CA||||8211.142||product|||NA|rsf:gd-|-stype:attr=1|qr_nm:gd|res:RC3|com-cf:nl|ptrs:na|ktp:N0|mc:45463|mtp:S|qry_typ:P|lang:en|wc:3|cs:8838|v=4,False,Motilal Nagar,Mumbai,"Gala No 202/b, 2nd Floor, Parmar Industrial Mall Bldg, Gokhivare, Vasai East, Palghar, Goregaon West, Motilal Nagar, Mumbai - 401208, Dist.Mumbai, Maharashtra",8048249701,9240
"Unisex Casual Wear Newborn Baby Kit, Age Group: 0-3 Months",https://www.indiamart.com/proddetail/newborn-baby-kit-2854451132191.html?pos=111&kwd=baby healthcare kit&tags=||||9110.092|Price|product|||TS|rsf:gd-|-stype:attr=1|qr_nm:gd|res:RC3|com-cf:nl|ptrs:na|ktp:N0|mc:45463|mtp:S|qry_typ:P|lang:en|wc:3|cs:8838|v=4,Nirman Enterprises,https://www.indiamart.com/nirman-enterprises-lucknow/?pos=111&kwd=baby healthcare kit&tags=||||9110.092|Price|product|||TS|rsf:gd-|-stype:attr=1|qr_nm:gd|res:RC3|com-cf:nl|ptrs:na|ktp:N0|mc:45463|mtp:S|qry_typ:P|lang:en|wc:3|cs:8838|v=4,False,Kanausi,Lucknow,"548gh/171, Teji Khera, Manak Nagar, Rjpm1, Kanausi, Lucknow - 226017, Dist.Lucknow, Uttar Pradesh",8048974867,
"BEYOND UNIQUE BLUE Baby Nail Trimmer Kit for Kids Safe & Effective Baby Nail Trimmer, Packaging Type: Box, 1-2 Years",https://www.indiamart.com/proddetail/baby-nail-trimmer-kit-for-kids-safe-effective-baby-nail-trimmer-2853162916748.html?pos=112&kwd=baby healthcare kit&tags=||||8230.883|Price|product|||MDC|rsf:gd-|-stype:attr=1|qr_nm:gd|res:RC3|com-cf:nl|ptrs:na|ktp:N0|mc:45463|mtp:S|qry_typ:P|lang:en|wc:3|cs:8838|v=4,Beyond Unique Enterprises,https://www.indiamart.com/beyonduniqueenterprises/?pos=112&kwd=baby healthcare kit&tags=||||8230.883|Price|product|||MDC|rsf:gd-|-stype:attr=1|qr_nm:gd|res:RC3|com-cf:nl|ptrs:na|ktp:N0|mc:45463|mtp:S|qry_typ:P|lang:en|wc:3|cs:8838|v=4,False,Katargam,Surat,"180, Bhagwan Nagar Society, Ved Nagar Char Rasta, Magan Nagar 2 Ni Pachhal, Katargam, Katargam, Surat - 395004, Dist.Surat, Gujarat",8047527253,
"Baby Nail Trimmer Grooming Scissors & Nail Clipper Set/Kit, Manicure (Set of 4 Pcs) with Box",https://www.indiamart.com/proddetail/baby-nail-trimmer-grooming-scissors-nail-clipper-set-kit-manicure-set-of-4-pcs-with-box-2853216517291.html?pos=113&kwd=baby healthcare kit&tags=||||8752.144|Price|product|||TS|rsf:gd-|-stype:attr=1|qr_nm:gd|res:RC3|com-cf:nl|ptrs:na|ktp:N0|mc:45463|mtp:S|qry_typ:P|lang:en|wc:3|cs:8838|v=4,Katyani Traders,https://www.indiamart.com/katyanitraders-new-delhi/?pos=113&kwd=baby healthcare kit&tags=||||8752.144|Price|product|||TS|rsf:gd-|-stype:attr=1|qr_nm:gd|res:RC3|com-cf:nl|ptrs:na|ktp:N0|mc:45463|mtp:S|qry_typ:P|lang:en|wc:3|cs:8838|v=4,False,Mayapuri,New Delhi,"Phase-1, B-125, Mayapuri Industrial Area, West Delhi, Mayapuri, New Delhi - 110064, Dist.Delhi, Delhi",8047529131,
Silicone Water Filled Teether,https://www.indiamart.com/proddetail/water-filled-teether-2854704196333.html?pos=114&kwd=baby healthcare kit&tags=||||8752.144|Price|product|||TS|rsf:gd-|-stype:attr=1|qr_nm:gd|res:RC3|com-cf:nl|ptrs:na|ktp:N0|mc:45463|mtp:S|qry_typ:P|lang:en|wc:3|cs:8838|v=4,Indial Premium Products,https://www.indiamart.com/indial-premium-products/?pos=114&kwd=baby healthcare kit&tags=||||8752.144|Price|product|||TS|rsf:gd-|-stype:attr=1|qr_nm:gd|res:RC3|com-cf:nl|ptrs:na|ktp:N0|mc:45463|mtp:S|qry_typ:P|lang:en|wc:3|cs:8838|v=4,False,,New Delhi,"68, K Block, Jahangirpuri North West Delhi, New Delhi - 110033, Dist.Delhi, Delhi",8045732973,
"Feonnaa Baby Care Box, For Bathing",https://www.indiamart.com/proddetail/baby-care-box-21853082212.html?pos=115&kwd=baby healthcare kit&tags=CC||||10225.793|Price|product|||NA|rsf:gd-|-stype:attr=1|qr_nm:gd|res:RC3|com-cf:nl|ptrs:na|ktp:N0|mc:45463|mtp:S|qry_typ:P|lang:en|wc:3|cs:8838|v=4,Mahi Herbals And Varities,https://www.indiamart.com/mahiherbalsandvarities/?pos=115&kwd=baby healthcare kit&tags=CC||||10225.793|Price|product|||NA|rsf:gd-|-stype:attr=1|qr_nm:gd|res:RC3|com-cf:nl|ptrs:na|ktp:N0|mc:45463|mtp:S|qry_typ:P|lang:en|wc:3|cs:8838|v=4,False,North Tripura,Dharmanagar,"129 Chital Dahar Bishnupur, North Tripura, Dharmanagar - 799261, Dist.North Tripura, Tripura",8043807873,
"Unisex Newborn Baby Hospital Kit, Age Group: 0-3 Months",https://www.indiamart.com/proddetail/newborn-baby-hospital-kit-2854993270512.html?pos=116&kwd=baby healthcare kit&tags=||||8242.731||product|||TS|rsf:gd-|-stype:attr=1|qr_nm:gd|res:RC3|com-cf:nl|ptrs:na|ktp:N0|mc:45463|mtp:S|qry_typ:P|lang:en|wc:3|cs:8838|v=4,Om Traders,https://www.indiamart.com/omtraders-maharashtra/?pos=116&kwd=baby healthcare kit&tags=||||8242.731||product|||TS|rsf:gd-|-stype:attr=1|qr_nm:gd|res:RC3|com-cf:nl|ptrs:na|ktp:N0|mc:45463|mtp:S|qry_typ:P|lang:en|wc:3|cs:8838|v=4,False,Siru Chowk,Ulhasnagar,"Sant Chellaram Market, Shop No.19, 1st Floor, Siru Chowk, Ulhasnagar - 421002, Dist.Thane, Maharashtra",7942553425,
"Utility Baby Kits, Individual",https://www.indiamart.com/proddetail/utility-baby-kits-23551125888.html?pos=117&kwd=baby healthcare kit&tags=||||8476.868|Price|product|||TS|rsf:gd-|-stype:attr=1|qr_nm:gd|res:RC3|com-cf:nl|ptrs:na|ktp:N0|mc:45463|mtp:S|qry_typ:P|lang:en|wc:3|cs:8838|v=4,The Total Health Care,https://www.totalhealthcare.in/?pos=117&kwd=baby healthcare kit&tags=||||8476.868|Price|product|||TS|rsf:gd-|-stype:attr=1|qr_nm:gd|res:RC3|com-cf:nl|ptrs:na|ktp:N0|mc:45463|mtp:S|qry_typ:P|lang:en|wc:3|cs:8838|v=4,False,Ramanand Colony,Aurangabad,"G-16, Anand Plaza Complex, Opposite Hotel Amarpreet Doodh Diary Signal, Ramanand Colony, Aurangabad - 431005, Maharashtra",8048957811,
Cotton Baby Kit Falalen Set,https://www.indiamart.com/proddetail/baby-kit-falalen-set-2854852500088.html?pos=118&kwd=baby healthcare kit&tags=||||8559.269|Price|product|||MDC|rsf:gd-|-stype:attr=1|qr_nm:gd|res:RC3|com-cf:nl|ptrs:na|ktp:N0|mc:45463|mtp:S|qry_typ:P|lang:en|wc:3|cs:8838|v=4,Samrat Surgical Linen Co.,https://www.indiamart.com/samratsurgicallinenco-indore/?pos=118&kwd=baby healthcare kit&tags=||||8559.269|Price|product|||MDC|rsf:gd-|-stype:attr=1|qr_nm:gd|res:RC3|com-cf:nl|ptrs:na|ktp:N0|mc:45463|mtp:S|qry_typ:P|lang:en|wc:3|cs:8838|v=4,False,,Indore,"01, Hawa Bangla, Ahir Khedi,, Indore - 452009, Dist.Indore, Madhya Pradesh",7949322832,
Baby Hospital Kit,https://www.indiamart.com/proddetail/baby-hospital-kit-2849608852255.html?pos=119&kwd=baby healthcare kit&tags=||||8954.051|Price|product|||MDC|rsf:gd-|-stype:attr=1|qr_nm:gd|res:RC3|com-cf:nl|ptrs:na|ktp:N0|mc:45463|mtp:S|qry_typ:P|lang:en|wc:3|cs:8838|v=4,Madhu Knitters,https://www.indiamart.com/madhuknitters/?pos=119&kwd=baby healthcare kit&tags=||||8954.051|Price|product|||MDC|rsf:gd-|-stype:attr=1|qr_nm:gd|res:RC3|com-cf:nl|ptrs:na|ktp:N0|mc:45463|mtp:S|qry_typ:P|lang:en|wc:3|cs:8838|v=4,False,Royapettah,Chennai,"Flat No. 204, Meridian Heights, 156 Peters Road, Royapettah, Royapettah, Chennai - 600014, Dist.Chennai, Tamil Nadu",8048952268,
"Newborn Baby Kit, For Gift Purpose",https://www.indiamart.com/proddetail/newborn-baby-kit-27071510091.html?pos=120&kwd=baby healthcare kit&tags=||||8626.744|Price|product|||TS|rsf:gd-|-stype:attr=1|qr_nm:gd|res:RC3|com-cf:nl|ptrs:na|ktp:N0|mc:45463|mtp:S|qry_typ:P|lang:en|wc:3|cs:8838|v=4,Sudarshaan Impex,https://www.sudarshaanimpex.com/?pos=120&kwd=baby healthcare kit&tags=||||8626.744|Price|product|||TS|rsf:gd-|-stype:attr=1|qr_nm:gd|res:RC3|com-cf:nl|ptrs:na|ktp:N0|mc:45463|mtp:S|qry_typ:P|lang:en|wc:3|cs:8838|v=4,False,Jeeva Nagar,Tiruppur,"No.8/398C, Selvalakshmi nagar, 1st street, Angeri palayam , Tirupur - 641603., Jeeva Nagar, Tiruppur - 641603, Dist.Coimbatore, Tamil Nadu",8047630683,
"FLANNEL Unisex Newborn Baby Kit For Hospital, Age Group: 0-3 Months",https://www.indiamart.com/proddetail/newborn-baby-kit-for-hospital-2850556065448.html?pos=121&kwd=baby healthcare kit&tags=||||8601.347|Price|product|||TS|rsf:gd-|-stype:attr=1|qr_nm:gd|res:RC3|com-cf:nl|ptrs:na|ktp:N0|mc:45463|mtp:S|qry_typ:P|lang:en|wc:3|cs:8838|v=4,Universal Enterprises,https://www.indiamart.com/universal-enterprises-jaipur/?pos=121&kwd=baby healthcare kit&tags=||||8601.347|Price|product|||TS|rsf:gd-|-stype:attr=1|qr_nm:gd|res:RC3|com-cf:nl|ptrs:na|ktp:N0|mc:45463|mtp:S|qry_typ:P|lang:en|wc:3|cs:8838|v=4,False,Purani Basti,Jaipur,"1328 A, Shri Govind Kripa, Near Shahpura House 3rd Crossing,, Purani Basti, Jaipur - 302001, Dist.Jaipur, Rajasthan",8047643918,
Multicolor Baby Grooming Kit/nail Clipper/Nail cutter Kit For baby,https://www.indiamart.com/proddetail/baby-grooming-kit-nail-clipper-nail-cutter-kit-for-baby-2851871287091.html?pos=122&kwd=baby healthcare kit&tags=||||8752.144|Price|product|||TS|rsf:gd-|-stype:attr=1|qr_nm:gd|res:RC3|com-cf:nl|ptrs:na|ktp:N0|mc:45463|mtp:S|qry_typ:P|lang:en|wc:3|cs:8838|v=4,Shri Shyam Enterprises,https://www.indiamart.com/shrishyamenterprisesnewdelhi/?pos=122&kwd=baby healthcare kit&tags=||||8752.144|Price|product|||TS|rsf:gd-|-stype:attr=1|qr_nm:gd|res:RC3|com-cf:nl|ptrs:na|ktp:N0|mc:45463|mtp:S|qry_typ:P|lang:en|wc:3|cs:8838|v=4,False,Tajpur Kalan,New Delhi,"House No.392, First Floor, Village Tajpur Kalan, North Delhi, Tajpur Kalan, New Delhi - 110036, Dist.Delhi, Delhi",8048212783,
Multicolor Baby Nail Cutter Kit,https://www.indiamart.com/proddetail/baby-nail-cutter-kit-2849626297773.html?pos=123&kwd=baby healthcare kit&tags=||||8230.883|Price|product|||TS|rsf:gd-|-stype:attr=1|qr_nm:gd|res:RC3|com-cf:nl|ptrs:na|ktp:N0|mc:45463|mtp:S|qry_typ:P|lang:en|wc:3|cs:8838|v=4,Shreeji Retails,https://www.thesajanihouse.com/?pos=123&kwd=baby healthcare kit&tags=||||8230.883|Price|product|||TS|rsf:gd-|-stype:attr=1|qr_nm:gd|res:RC3|com-cf:nl|ptrs:na|ktp:N0|mc:45463|mtp:S|qry_typ:P|lang:en|wc:3|cs:8838|v=4,False,Alankar Society,Surat,"PLOT NO- 17, OM SATYAM NAGAR SOC., DABHOLI CHAR RASTA, VED ROAD, Alankar Society, Surat - 395004, Dist.Surat, Gujarat",8047654270,
Multicolor Baby Nail Clippers Kit,https://www.indiamart.com/proddetail/baby-nail-clippers-kit-21902797748.html?pos=124&kwd=baby healthcare kit&tags=||||8752.144|Price|product|||TS|rsf:gd-|-stype:attr=1|qr_nm:gd|res:RC3|com-cf:nl|ptrs:na|ktp:N0|mc:45463|mtp:S|qry_typ:P|lang:en|wc:3|cs:8838|v=4,Mom & Son,https://www.theindianchoice.com/?pos=124&kwd=baby healthcare kit&tags=||||8752.144|Price|product|||TS|rsf:gd-|-stype:attr=1|qr_nm:gd|res:RC3|com-cf:nl|ptrs:na|ktp:N0|mc:45463|mtp:S|qry_typ:P|lang:en|wc:3|cs:8838|v=4,False,Karawal Nagar,New Delhi,"B-57 Gali Number-1 Mukund Vihar, Near Pnb Bank, Karawal Nagar, New Delhi - 110094, Dist.Delhi, Delhi",7942565509,
Modulyss Baby Nail Trimmer Safe Nail Trimmer Kit Baby Manicure Tools Baby Electric Grooming kit,https://www.indiamart.com/proddetail/modulyss-baby-nail-trimmer-safe-nail-trimmer-kit-baby-manicure-tools-baby-electric-grooming-kit-2849885008062.html?pos=125&kwd=baby healthcare kit&tags=||||8230.883|Price|product|||TS|rsf:gd-|-stype:attr=1|qr_nm:gd|res:RC3|com-cf:nl|ptrs:na|ktp:N0|mc:45463|mtp:S|qry_typ:P|lang:en|wc:3|cs:8838|v=4,Modulyss,https://www.modulyss.in/?pos=125&kwd=baby healthcare kit&tags=||||8230.883|Price|product|||TS|rsf:gd-|-stype:attr=1|qr_nm:gd|res:RC3|com-cf:nl|ptrs:na|ktp:N0|mc:45463|mtp:S|qry_typ:P|lang:en|wc:3|cs:8838|v=4,False,Katargam,Surat,"Modulyss OFFICE NO :- 2 BASEMENT-1, SUNDAY HUB, NEAR AMBA TALAVDI, OPP ANKUR SCHOOL, KATARGAM, SURAT, Katargam, Surat - 395004, Dist.Surat, Gujarat",7942792869,
"6 in 1 Baby nail drill and Pedicure Kit (Pedicure 811-5), For Household",https://www.indiamart.com/proddetail/6-in-1-baby-nail-drill-and-pedicure-kit-pedicure-811-5-26419269712.html?pos=126&kwd=baby healthcare kit&tags=||||8752.144|Price|product|||TS|rsf:gd-|-stype:attr=1|qr_nm:gd|res:RC3|com-cf:nl|ptrs:na|ktp:N0|mc:45463|mtp:S|qry_typ:P|lang:en|wc:3|cs:8838|v=4,Gtglobal Trade India Private Limited,https://www.gtcglobal.in/?pos=126&kwd=baby healthcare kit&tags=||||8752.144|Price|product|||TS|rsf:gd-|-stype:attr=1|qr_nm:gd|res:RC3|com-cf:nl|ptrs:na|ktp:N0|mc:45463|mtp:S|qry_typ:P|lang:en|wc:3|cs:8838|v=4,False,Swaroop Nagar,New Delhi,"Plot No 144/145 , Kh. No.16/10, Gali No-7 Swaroop Nagar Extension, Swaroop Nagar, New Delhi - 110042, Dist.Delhi, Delhi",8048960531,
"TLISMI Baby Nail Trimmer, Electric Safe Baby Nail Clippers Manicure Set Trim Polish Grooming kit .",https://www.indiamart.com/proddetail/tlismi-baby-nail-trimmer-electric-safe-baby-nail-clippers-manicure-set-trim-polish-grooming-kit-2853897437648.html?pos=127&kwd=baby healthcare kit&tags=||||8752.144|Price|product|||TS|rsf:gd-|-stype:attr=1|qr_nm:gd|res:RC3|com-cf:nl|ptrs:na|ktp:N0|mc:45463|mtp:S|qry_typ:P|lang:en|wc:3|cs:8838|v=4,Tlismi Products Private Limited,https://www.indiamart.com/tlismi-products/?pos=127&kwd=baby healthcare kit&tags=||||8752.144|Price|product|||TS|rsf:gd-|-stype:attr=1|qr_nm:gd|res:RC3|com-cf:nl|ptrs:na|ktp:N0|mc:45463|mtp:S|qry_typ:P|lang:en|wc:3|cs:8838|v=4,False,Sector 135,New Delhi,"Ground Plot No. C1/19, Kh. No. 63/9 Front Right Portion BUDH VIHAR PHASE 1, New Delhi, North West Delhi, Sector 135, New Delhi - 110086, Dist.Delhi, Delhi",8044562411,
"Himalaya Baby Care Kit, 1-2 Years",https://www.indiamart.com/proddetail/himalaya-baby-care-kit-2854552650112.html?pos=128&kwd=baby healthcare kit&tags=||||8556.86|Price|product|||MDC|rsf:gd-|-stype:attr=1|qr_nm:gd|res:RC3|com-cf:nl|ptrs:na|ktp:N0|mc:45463|mtp:S|qry_typ:P|lang:en|wc:3|cs:8838|v=4,Kridha Enterprises,https://www.indiamart.com/kridha-enterprises-ujjain/?pos=128&kwd=baby healthcare kit&tags=||||8556.86|Price|product|||MDC|rsf:gd-|-stype:attr=1|qr_nm:gd|res:RC3|com-cf:nl|ptrs:na|ktp:N0|mc:45463|mtp:S|qry_typ:P|lang:en|wc:3|cs:8838|v=4,False,,Ujjain,"Office No. 310, 27/1 Navkar Complex, Teen Batti Square, Ujjain - 456010, Dist.Ujjain, Madhya Pradesh",7949325614,
"none Multicolor Baby Nail Cutter Kit, Packaging Type: Plastic Bottle, Above 3 Month",https://www.indiamart.com/proddetail/baby-nail-cutter-kit-2853083264773.html?pos=129&kwd=baby healthcare kit&tags=||||9189.305|Price|product|||MDC|rsf:gd-|-stype:attr=1|qr_nm:gd|res:RC3|com-cf:nl|ptrs:na|ktp:N0|mc:45463|mtp:S|qry_typ:P|lang:en|wc:3|cs:8838|v=4,Sudhanjali Enterprises,https://www.indiamart.com/sudhanjalienterprises/?pos=129&kwd=baby healthcare kit&tags=||||9189.305|Price|product|||MDC|rsf:gd-|-stype:attr=1|qr_nm:gd|res:RC3|com-cf:nl|ptrs:na|ktp:N0|mc:45463|mtp:S|qry_typ:P|lang:en|wc:3|cs:8838|v=4,False,,Prayagraj,"H No-10/7, Basahi, Nataka Babura, Khain, Prayagraj - 212307, Dist.Allahabad, Uttar Pradesh",7942964273,
"Baby Care Products Kit, 3-12 Months",,Shubham Enterprises,https://www.indiamart.com/shubhamenterprises-ratia/?pos=130&kwd=baby healthcare kit&tags=||||8617.287|Price|product|||MDC|rsf:gd-|-stype:attr=1|qr_nm:gd|res:RC3|com-cf:nl|ptrs:na|ktp:N0|mc:45463|mtp:S|qry_typ:P|lang:en|wc:3|cs:8838|v=4,False,,Ratia,"Ward No. 02, Purana Bazar, Bharti Niketan High School, Ratia - 125051, Dist.Fatehabad, Haryana",7949330115,
"White Chicco Baby Care Kit, Packaging Type: Box, Newly Born",https://www.indiamart.com/proddetail/chicco-baby-care-kit-2853659170062.html?pos=131&kwd=baby healthcare kit&tags=||||8595.936|Price|product|||MDC|rsf:gd-|-stype:attr=1|qr_nm:gd|res:RC3|com-cf:nl|ptrs:na|ktp:N0|mc:45463|mtp:S|qry_typ:P|lang:en|wc:3|cs:8838|v=4,Jagdambay Sales Corp,https://www.indiamart.com/jagdambay-sales-corp/?pos=131&kwd=baby healthcare kit&tags=||||8595.936|Price|product|||MDC|rsf:gd-|-stype:attr=1|qr_nm:gd|res:RC3|com-cf:nl|ptrs:na|ktp:N0|mc:45463|mtp:S|qry_typ:P|lang:en|wc:3|cs:8838|v=4,False,Talab Tillo,Jammu,"D/6, Jagdambay Sales Corp, Vasant Vihar, Oyo Hotel, Talab Tillo, Talab Tillo, Jammu - 180002, Dist.Jammu, Jammu & Kashmir",7949090526,
Baby Nail Clippers Safe For Newborn Toddler Adult Toes Fingernails Care Trim Kit 6 Grinding Heads.,https://www.indiamart.com/proddetail/baby-nail-clippers-safe-for-newborn-toddler-adult-toes-fingernails-care-trim-kit-6-grinding-heads-2854245819230.html?pos=132&kwd=baby healthcare kit&tags=||||8230.883|Price|product|||TS|rsf:gd-|-stype:attr=1|qr_nm:gd|res:RC3|com-cf:nl|ptrs:na|ktp:N0|mc:45463|mtp:S|qry_typ:P|lang:en|wc:3|cs:8838|v=4,River Velly Enterprise,https://www.indiamart.com/rivervellyenterprise/?pos=132&kwd=baby healthcare kit&tags=||||8230.883|Price|product|||TS|rsf:gd-|-stype:attr=1|qr_nm:gd|res:RC3|com-cf:nl|ptrs:na|ktp:N0|mc:45463|mtp:S|qry_typ:P|lang:en|wc:3|cs:8838|v=4,False,Dimond Park,Surat,"Plot-22, Yamuna Nagar Society, Near Ganga Jamana Soc., Nana Varachha, Dimond Park, Surat - 395006, Dist.Surat, Gujarat",8047811801,
Mitsico Electric Baby Nail Trimmer Polish Trim File Kit Safe Nail Clippers for Newborn or Toddler,https://www.indiamart.com/proddetail/mitsico-electric-baby-nail-trimmer-polish-trim-file-kit-safe-nail-clippers-for-newborn-or-toddler-2854515050688.html?pos=133&kwd=baby healthcare kit&tags=||||8230.883|Price|product|||TS|rsf:gd-|-stype:attr=1|qr_nm:gd|res:RC3|com-cf:nl|ptrs:na|ktp:N0|mc:45463|mtp:S|qry_typ:P|lang:en|wc:3|cs:8838|v=4,Mitsico,https://www.mitsico.in/?pos=133&kwd=baby healthcare kit&tags=||||8230.883|Price|product|||TS|rsf:gd-|-stype:attr=1|qr_nm:gd|res:RC3|com-cf:nl|ptrs:na|ktp:N0|mc:45463|mtp:S|qry_typ:P|lang:en|wc:3|cs:8838|v=4,False,KATARGAM,Surat,"Basement-1, Shop No.- A1, Sunday Hub Shopping Center, Amba Talavadi, Opp. Shree Vinayak Residency, KATARGAM, Surat - 395004, Dist.Surat, Gujarat",8047649165,
Baby Nail Trimmer Filer for New Born Electric with 6 Grinding Heads Safe for Kids Manicure Kit,https://www.indiamart.com/proddetail/baby-nail-trimmer-filer-for-new-born-electric-with-6-grinding-heads-safe-for-kids-manicure-kit-2852001488612.html?pos=134&kwd=baby healthcare kit&tags=||||8223.226|Price|product|||TS|rsf:gd-|-stype:attr=1|qr_nm:gd|res:RC3|com-cf:nl|ptrs:na|ktp:N0|mc:45463|mtp:S|qry_typ:P|lang:en|wc:3|cs:8838|v=4,Jenico World,https://www.jenicoworld.com/?pos=134&kwd=baby healthcare kit&tags=||||8223.226|Price|product|||TS|rsf:gd-|-stype:attr=1|qr_nm:gd|res:RC3|com-cf:nl|ptrs:na|ktp:N0|mc:45463|mtp:S|qry_typ:P|lang:en|wc:3|cs:8838|v=4,False,Mira Road,Thane,"ndra Maternity And Surgical Nursing Home, GROUND FLOOR, D-8, FLAT NO - 002, Panchami Cooperative Housing Society Ltd, SECTOR - 7, Shanti Nagar,, Mira Road, Thane - 401107, Dist.Thane, Maharashtra",8043855594,
"Cotton Unisex Hospital Baby Kit Dress, Age Group: 0-3 Months",https://www.indiamart.com/proddetail/hospital-baby-kit-dress-25748982533.html?pos=135&kwd=baby healthcare kit&tags=||||8601.347|Price|product|||TS|rsf:gd-|-stype:attr=1|qr_nm:gd|res:RC3|com-cf:nl|ptrs:na|ktp:N0|mc:45463|mtp:S|qry_typ:P|lang:en|wc:3|cs:8838|v=4,Eternal Surgical Solutions,https://www.indiamart.com/eternalsurgicalsolutions/?pos=135&kwd=baby healthcare kit&tags=||||8601.347|Price|product|||TS|rsf:gd-|-stype:attr=1|qr_nm:gd|res:RC3|com-cf:nl|ptrs:na|ktp:N0|mc:45463|mtp:S|qry_typ:P|lang:en|wc:3|cs:8838|v=4,False,Mansarovar,Jaipur,"F-77 6-D, Engineers Colony, Manyawas, Mansarovar, Mansarovar, Jaipur - 302020, Dist.Jaipur, Rajasthan",8047654197,
Baby Nail File Electric Trimmer cutter Kit with Light and 5 Grinding Heads and 4 Speed Control Modes,https://www.indiamart.com/proddetail/baby-nail-file-electric-trimmer-cutter-kit-with-light-and-5-grinding-heads-and-4-speed-control-modes-2852507956188.html?pos=136&kwd=baby healthcare kit&tags=||||8230.883|Price|product|||TS|rsf:gd-|-stype:attr=1|qr_nm:gd|res:RC3|com-cf:nl|ptrs:na|ktp:N0|mc:45463|mtp:S|qry_typ:P|lang:en|wc:3|cs:8838|v=4,Hirpara Tech Enterprise,https://www.indiamart.com/hirparatechenterprise/?pos=136&kwd=baby healthcare kit&tags=||||8230.883|Price|product|||TS|rsf:gd-|-stype:attr=1|qr_nm:gd|res:RC3|com-cf:nl|ptrs:na|ktp:N0|mc:45463|mtp:S|qry_typ:P|lang:en|wc:3|cs:8838|v=4,False,Pal Bhatha,Surat,"First Floor, 141-142, Bellissimo Hub, Gaurav Path Road, Nr Time Square, Limla, Pal Bhatha, Surat - 394510, Dist.Surat, Gujarat",7942866035,
"Baby Care Products, Packaging Type: Box, 3-12 Months",https://www.indiamart.com/proddetail/baby-care-products-2853095649648.html?pos=137&kwd=baby healthcare kit&tags=||||8954.051||product|||TS|rsf:gd-|-stype:attr=1|qr_nm:gd|res:RC3|com-cf:nl|ptrs:na|ktp:N0|mc:45463|mtp:S|qry_typ:P|lang:en|wc:3|cs:8838|v=4,New Rathna Stores,https://www.indiamart.com/newrathna-stores-chennai/?pos=137&kwd=baby healthcare kit&tags=||||8954.051||product|||TS|rsf:gd-|-stype:attr=1|qr_nm:gd|res:RC3|com-cf:nl|ptrs:na|ktp:N0|mc:45463|mtp:S|qry_typ:P|lang:en|wc:3|cs:8838|v=4,False,Vadapalani,Chennai,"No,158 Vadapalani, Vadapalani, Chennai - 600026, Dist.Chennai, Tamil Nadu",7942658654,
"China Multicolor Silicone Baby Toothbrush, Packaging Type: Box, 3-12 Months baby mouth brush",https://www.indiamart.com/proddetail/china-multicolor-silicone-baby-toothbrush-packaging-type-box-3-12-months-baby-mouth-brush-25962111973.html?pos=138&kwd=baby healthcare kit&tags=||||8752.144|Price|product|||TS|rsf:gd-|-stype:attr=1|qr_nm:gd|res:RC3|com-cf:nl|ptrs:na|ktp:N0|mc:45463|mtp:S|qry_typ:P|lang:en|wc:3|cs:8838|v=4,Shiv Darshan Sansthan,https://www.shivdarshansansthan.com/?pos=138&kwd=baby healthcare kit&tags=||||8752.144|Price|product|||TS|rsf:gd-|-stype:attr=1|qr_nm:gd|res:RC3|com-cf:nl|ptrs:na|ktp:N0|mc:45463|mtp:S|qry_typ:P|lang:en|wc:3|cs:8838|v=4,False,Pandav Nagar,New Delhi,"Bunglow, Plot No. 10, Pandav Nagar, New Delhi - 110092, Dist.Delhi, Delhi",8048984990,
"Baby Toothpaste, Packaging Type: Tube, 1-2 Years",https://www.indiamart.com/proddetail/baby-toothpaste-24760901830.html?pos=139&kwd=baby healthcare kit&tags=||||8228.275|Price|product|||TS|rsf:gd-|-stype:attr=1|qr_nm:gd|res:RC3|com-cf:nl|ptrs:na|ktp:N0|mc:45463|mtp:S|qry_typ:P|lang:en|wc:3|cs:8838|v=4,Hcp Wellness Private Limited,https://www.cosmeticmanufacturers.com/?pos=139&kwd=baby healthcare kit&tags=||||8228.275|Price|product|||TS|rsf:gd-|-stype:attr=1|qr_nm:gd|res:RC3|com-cf:nl|ptrs:na|ktp:N0|mc:45463|mtp:S|qry_typ:P|lang:en|wc:3|cs:8838|v=4,False,Thaltej,Ahmedabad,"403 Opp. Global Hospital, Sindhubhavan Road, Bodakdev Elanza Vertex Sindhu Bhavan Road, S. G. Highway, Thaltej, Ahmedabad - 380059, Dist.Ahmedabad, Gujarat",8048980123,
"Multicolor Baby Nail Trimmer, For Babby Nails",https://www.indiamart.com/proddetail/baby-nail-trimmer-2851740241555.html?pos=140&kwd=baby healthcare kit&tags=||||8752.144|Price|product|||TS|rsf:gd-|-stype:attr=1|qr_nm:gd|res:RC3|com-cf:nl|ptrs:na|ktp:N0|mc:45463|mtp:S|qry_typ:P|lang:en|wc:3|cs:8838|v=4,Style Line Enterprises,https://www.indiamart.com/stylelineenterprises/?pos=140&kwd=baby healthcare kit&tags=||||8752.144|Price|product|||TS|rsf:gd-|-stype:attr=1|qr_nm:gd|res:RC3|com-cf:nl|ptrs:na|ktp:N0|mc:45463|mtp:S|qry_typ:P|lang:en|wc:3|cs:8838|v=4,False,Chandni Chowk,New Delhi,"419/16, Gopal Rai Market, hotel tara place Esplanade Road, Chandni Chowk, New Delhi - 110006, Dist.Delhi, Delhi",8048977111,
"Himalaya Baby Kits Gift Pack, Newly Born, Packaging Size: Box",https://www.indiamart.com/proddetail/himalaya-baby-kits-gift-pack-2852106532833.html?pos=141&kwd=baby healthcare kit&tags=||||9520.041|Price|product|||TS|rsf:gd-|-stype:attr=1|qr_nm:gd|res:RC3|com-cf:nl|ptrs:na|ktp:N0|mc:45463|mtp:S|qry_typ:P|lang:en|wc:3|cs:8838|v=4,Ambe Traders,https://www.ambetraders.com/?pos=141&kwd=baby healthcare kit&tags=||||9520.041|Price|product|||TS|rsf:gd-|-stype:attr=1|qr_nm:gd|res:RC3|com-cf:nl|ptrs:na|ktp:N0|mc:45463|mtp:S|qry_typ:P|lang:en|wc:3|cs:8838|v=4,False,Hajiganj,Patna,"Kila Road,Hajiganj, Chowk, Hajiganj, Patna - 800008, Dist.Patna, Bihar",8047624689,
Blue Kids Manicure Kit,https://www.indiamart.com/proddetail/kids-manicure-kit-2850840130230.html?pos=142&kwd=baby healthcare kit&tags=||||8230.883|Price|product|||TS|rsf:gd-|-stype:attr=1|qr_nm:gd|res:RC3|com-cf:nl|ptrs:na|ktp:N0|mc:45463|mtp:S|qry_typ:P|lang:en|wc:3|cs:8838|v=4,Victory International,https://www.indiamart.com/victory-intl-surat/?pos=142&kwd=baby healthcare kit&tags=||||8230.883|Price|product|||TS|rsf:gd-|-stype:attr=1|qr_nm:gd|res:RC3|com-cf:nl|ptrs:na|ktp:N0|mc:45463|mtp:S|qry_typ:P|lang:en|wc:3|cs:8838|v=4,False,Bhavani Estate,Surat,"LAND MARK EMPIRE, B G 39, OPP VAKIL VADI, NR PUNA JAKATNAKA, Bhavani Estate, Surat - 395010, Dist.Surat, Gujarat",7942636905,
"Soft White Littloo Baby Finger Tooth Brush, Packaging Type: Box",https://www.indiamart.com/proddetail/littloo-baby-finger-tooth-brush-21930505797.html?pos=143&kwd=baby healthcare kit&tags=||||8752.144|Price|product|||TS|rsf:gd-|-stype:attr=1|qr_nm:gd|res:RC3|com-cf:nl|ptrs:na|ktp:N0|mc:45463|mtp:S|qry_typ:P|lang:en|wc:3|cs:8838|v=4,Salvia Cosmeceuticals Private Limited,https://www.salviacosmeceuticals.in/?pos=143&kwd=baby healthcare kit&tags=||||8752.144|Price|product|||TS|rsf:gd-|-stype:attr=1|qr_nm:gd|res:RC3|com-cf:nl|ptrs:na|ktp:N0|mc:45463|mtp:S|qry_typ:P|lang:en|wc:3|cs:8838|v=4,False,Ashok Vihar,New Delhi,"301-A, Prop. No.48, Second Floor, Rama Road, Najafgarh Road Industrial Area, Kirti Nagar, New Delhi,, Ashok Vihar, New Delhi - 110052, Dist.Delhi, Delhi",7942559667,
"Baby Nail Trimmer Electric, Safe Baby Nail File,Baby Nail Clippers with Light",https://www.indiamart.com/proddetail/baby-nail-trimmer-electric-safe-baby-nail-file-baby-nail-clippers-with-light-2853662613573.html?pos=144&kwd=baby healthcare kit&tags=||||8228.275|Price|product|||TS|rsf:gd-|-stype:attr=1|qr_nm:gd|res:RC3|com-cf:nl|ptrs:na|ktp:N0|mc:45463|mtp:S|qry_typ:P|lang:en|wc:3|cs:8838|v=4,Vishwas Enterprise,https://www.indiamart.com/vishwasenterprise/?pos=144&kwd=baby healthcare kit&tags=||||8228.275|Price|product|||TS|rsf:gd-|-stype:attr=1|qr_nm:gd|res:RC3|com-cf:nl|ptrs:na|ktp:N0|mc:45463|mtp:S|qry_typ:P|lang:en|wc:3|cs:8838|v=4,False,NIKOL,Ahmedabad,"70 Sahjanand Businesses Park Opp Plam Hotel, Behind Shree Marutinandan Restaurants, NIKOL, Ahmedabad - 382350, Dist.Ahmedabad, Gujarat",7942536201,
"Cotton PinKit Baby Apron Bib Fast Dry-Waterproof, Super Soft, 3-12 Months",https://www.indiamart.com/proddetail/pinkit-baby-apron-bib-fast-dry-waterproof-super-soft-2854517017888.html?pos=145&kwd=baby healthcare kit&tags=||||8752.144|Price|product|||TS|rsf:gd-|-stype:attr=1|qr_nm:gd|res:RC3|com-cf:nl|ptrs:na|ktp:N0|mc:45463|mtp:S|qry_typ:P|lang:en|wc:3|cs:8838|v=4,Pee Kay Traders,https://www.pinkit.in/?pos=145&kwd=baby healthcare kit&tags=||||8752.144|Price|product|||TS|rsf:gd-|-stype:attr=1|qr_nm:gd|res:RC3|com-cf:nl|ptrs:na|ktp:N0|mc:45463|mtp:S|qry_typ:P|lang:en|wc:3|cs:8838|v=4,False,Shastri Nagar,New Delhi,"House No. 73, 1st Floor, A- Block, Shastri Nagar, New Delhi - 110052, Dist.Delhi, Delhi",8048982340,
"LuvLap Stylish Infant Hair Brush and Comb Kit, Suitable from Birth 0+month baby (White) 18607",https://www.indiamart.com/proddetail/luvlap-stylish-infant-hair-brush-and-comb-kit-suitable-from-birth-0-month-baby-white-18607-2853231074673.html?pos=146&kwd=baby healthcare kit&tags=||||8614.241|Price|product|||MDC|rsf:gd-|-stype:attr=1|qr_nm:gd|res:RC3|com-cf:nl|ptrs:na|ktp:N0|mc:45463|mtp:S|qry_typ:P|lang:en|wc:3|cs:8838|v=4,M.M. Toy World,https://www.indiamart.com/mmtoyworld/?pos=146&kwd=baby healthcare kit&tags=||||8614.241|Price|product|||MDC|rsf:gd-|-stype:attr=1|qr_nm:gd|res:RC3|com-cf:nl|ptrs:na|ktp:N0|mc:45463|mtp:S|qry_typ:P|lang:en|wc:3|cs:8838|v=4,False,Achli Gate,Batala,"M.M. Toys World, Bedian Gali, Khujari Gate, Gurdaspur, Achli Gate, Batala - 143505, Dist.Gurdaspur, Punjab",,
10 Gm Baby Sky Blue Breast Nursing Pad,https://www.indiamart.com/proddetail/baby-sky-blue-breast-nursing-pad-2851855631073.html?pos=147&kwd=baby healthcare kit&tags=||||8785.791|Price|product|||MDC|rsf:gd-|-stype:attr=1|qr_nm:gd|res:RC3|com-cf:nl|ptrs:na|ktp:N0|mc:45463|mtp:S|qry_typ:P|lang:en|wc:3|cs:8838|v=4,Osail Corporation,https://www.indiamart.com/osail-corporation-india/?pos=147&kwd=baby healthcare kit&tags=||||8785.791|Price|product|||MDC|rsf:gd-|-stype:attr=1|qr_nm:gd|res:RC3|com-cf:nl|ptrs:na|ktp:N0|mc:45463|mtp:S|qry_typ:P|lang:en|wc:3|cs:8838|v=4,False,Maharajpur,Ghaziabad,"First Floor 38/2/20 Site 4, Sahibabad, Industrial Area, Maharajpur, Ghaziabad - 201010, Dist.Ghaziabad, Uttar Pradesh",8043837117,
Silicone Rattle Handle Baby Teether,https://www.indiamart.com/proddetail/silicone-rattle-handle-baby-teether-2852749434462.html?pos=148&kwd=baby healthcare kit&tags=||||8752.144|Price|product|||MDC|rsf:gd-|-stype:attr=1|qr_nm:gd|res:RC3|com-cf:nl|ptrs:na|ktp:N0|mc:45463|mtp:S|qry_typ:P|lang:en|wc:3|cs:8838|v=4,DR. Nigams Clinic Private Limited,https://www.indiamart.com/drdad-newdelhi/?pos=148&kwd=baby healthcare kit&tags=||||8752.144|Price|product|||MDC|rsf:gd-|-stype:attr=1|qr_nm:gd|res:RC3|com-cf:nl|ptrs:na|ktp:N0|mc:45463|mtp:S|qry_typ:P|lang:en|wc:3|cs:8838|v=4,False,Kailash Hill,New Delhi,"107 G/F F/F, Kailash Hills, Near OBS Bank, Kailash Hill, New Delhi - 110065, Dist.Delhi, Delhi",7942716962,
Silicone Baby Gum Cleaner,https://www.indiamart.com/proddetail/silicone-baby-gum-cleaner-12782306830.html?pos=149&kwd=baby healthcare kit&tags=||||8223.226|Price|product|||MDC|rsf:gd-|-stype:attr=1|qr_nm:gd|res:RC3|com-cf:nl|ptrs:na|ktp:N0|mc:45463|mtp:S|qry_typ:P|lang:en|wc:3|cs:8838|v=4,Wecare Solutions,https://www.indiamart.com/wecare-solutions/?pos=149&kwd=baby healthcare kit&tags=||||8223.226|Price|product|||MDC|rsf:gd-|-stype:attr=1|qr_nm:gd|res:RC3|com-cf:nl|ptrs:na|ktp:N0|mc:45463|mtp:S|qry_typ:P|lang:en|wc:3|cs:8838|v=4,False,Valiv,Thane,"Gala No. F-19-20, 1st Floor, Rajprabha Anand Industrial Estate Naikpada, Waliv, Valiv, Thane - 401208, Dist.Thane, Maharashtra",8047631791,
Baby Plastic Grooming Toy Set,https://www.indiamart.com/proddetail/baby-plastic-grooming-toy-set-25736131391.html?pos=150&kwd=baby healthcare kit&tags=||||8752.144|Price|product|||MDC|rsf:gd-|-stype:attr=1|qr_nm:gd|res:RC3|com-cf:nl|ptrs:na|ktp:N0|mc:45463|mtp:S|qry_typ:P|lang:en|wc:3|cs:8838|v=4,Little Kingdom Baby Product,https://www.indiamart.com/little-kingdombaby-product/?pos=150&kwd=baby healthcare kit&tags=||||8752.144|Price|product|||MDC|rsf:gd-|-stype:attr=1|qr_nm:gd|res:RC3|com-cf:nl|ptrs:na|ktp:N0|mc:45463|mtp:S|qry_typ:P|lang:en|wc:3|cs:8838|v=4,False,Bawana,New Delhi,"Plot No. 16, PKT-G, Sector-3, DSIIDC, Bawana, North West Delhi, Bawana, New Delhi - 110039, Dist.Delhi, Delhi",8047648589,
"White Silicone Baby Toothbrush, 3-12 Months",https://www.indiamart.com/proddetail/silicone-baby-toothbrush-2852724173633.html?pos=151&kwd=baby healthcare kit&tags=||||8752.144|Price|product|||MDC|rsf:gd-|-stype:attr=1|qr_nm:gd|res:RC3|com-cf:nl|ptrs:na|ktp:N0|mc:45463|mtp:S|qry_typ:P|lang:en|wc:3|cs:8838|v=4,Soni India Traders,https://www.indiamart.com/soniindiatraders/?pos=151&kwd=baby healthcare kit&tags=||||8752.144|Price|product|||MDC|rsf:gd-|-stype:attr=1|qr_nm:gd|res:RC3|com-cf:nl|ptrs:na|ktp:N0|mc:45463|mtp:S|qry_typ:P|lang:en|wc:3|cs:8838|v=4,False,Khureji Khas,New Delhi,"First Floor A-4 Street No.3 New Brij Puri Khureji Khas, Khureji Khas, New Delhi - 110051, Dist.Delhi, Delhi",7942720625,
"Mee Mee Mild Toddler Toothpaste, 1-2 Years",https://www.indiamart.com/proddetail/mee-mee-mild-toddler-toothpaste-2854593348188.html?pos=152&kwd=baby healthcare kit&tags=||||8661.854|Price|product|||MDC|rsf:gd-|-stype:attr=1|qr_nm:gd|res:RC3|com-cf:nl|ptrs:na|ktp:N0|mc:45463|mtp:S|qry_typ:P|lang:en|wc:3|cs:8838|v=4,Yashika Enterprises,https://www.indiamart.com/yashikaenterprisespunjab/?pos=152&kwd=baby healthcare kit&tags=||||8661.854|Price|product|||MDC|rsf:gd-|-stype:attr=1|qr_nm:gd|res:RC3|com-cf:nl|ptrs:na|ktp:N0|mc:45463|mtp:S|qry_typ:P|lang:en|wc:3|cs:8838|v=4,False,,Ludhiana,"Backisde Luminous Battery Godown,10-A, Brinda Vihar, Haider Enclave, Ludhiana - 141008, Dist.Ludhiana, Punjab",7949324098,
"Cotton Unisex Hospital Newborn Baby Essential Kit Clothes, Age Group: 0-3 Months",https://www.indiamart.com/proddetail/hospital-newborn-baby-essential-kit-clothes-2852169076597.html?pos=153&kwd=baby healthcare kit&tags=||||8706.263|Price|product|||TS|rsf:gd-|-stype:attr=1|qr_nm:gd|res:RC3|com-cf:nl|ptrs:na|ktp:N0|mc:45463|mtp:S|qry_typ:P|lang:en|wc:3|cs:8838|v=4,Mercury Weavers,https://www.indiamart.com/mercuryweavers/?pos=153&kwd=baby healthcare kit&tags=||||8706.263|Price|product|||TS|rsf:gd-|-stype:attr=1|qr_nm:gd|res:RC3|com-cf:nl|ptrs:na|ktp:N0|mc:45463|mtp:S|qry_typ:P|lang:en|wc:3|cs:8838|v=4,False,Gowripuram,Karur,"35/3, 2nd Floor, Gandhi Nagar 3rd Cross, Karur Town, Gowripuram, Karur - 639001, Dist.Karur, Tamil Nadu",8047641180,
"Unisex Casual Wear Newborn Baby Kit, Age Group: 0-3 Months",https://www.indiamart.com/proddetail/newborn-baby-kit-2854730830548.html?pos=154&kwd=baby healthcare kit&tags=||||8785.791|Price|product|||TS|rsf:gd-|-stype:attr=1|qr_nm:gd|res:RC3|com-cf:nl|ptrs:na|ktp:N0|mc:45463|mtp:S|qry_typ:P|lang:en|wc:3|cs:8838|v=4,Shubhagya Creation,https://www.indiamart.com/shubhagyacreation/?pos=154&kwd=baby healthcare kit&tags=||||8785.791|Price|product|||TS|rsf:gd-|-stype:attr=1|qr_nm:gd|res:RC3|com-cf:nl|ptrs:na|ktp:N0|mc:45463|mtp:S|qry_typ:P|lang:en|wc:3|cs:8838|v=4,False,Indirapuram,Ghaziabad,"Amrapali Village Am Block Flat No 604 6th Floor Indirapuram Village Makanpur Nayaykhand Ii, Indirapuram, Ghaziabad - 201014, Dist.Ghaziabad, Uttar Pradesh",7942613379,
Pink/blue GOLDEN PHOENIX Baby Healthcare Kit,https://www.indiamart.com/proddetail/baby-healthcare-kit-15646918691.html?pos=155&kwd=baby healthcare kit&tags=CC||||8038.093||product|||NA|rsf:gd-|-stype:attr=1|qr_nm:gd|res:RC3|com-cf:nl|ptrs:na|ktp:N0|mc:45463|mtp:S|qry_typ:P|lang:en|wc:3|cs:8838|v=4,Panther Overseas,https://www.indiamart.com/panther-overseas/?pos=155&kwd=baby healthcare kit&tags=CC||||8038.093||product|||NA|rsf:gd-|-stype:attr=1|qr_nm:gd|res:RC3|com-cf:nl|ptrs:na|ktp:N0|mc:45463|mtp:S|qry_typ:P|lang:en|wc:3|cs:8838|v=4,False,Sadhu Vaswani Road,Rajkot,"SADHUVASHVANI ROAD, Rajkot, Gujarat, 360005, Sadhu Vaswani Road, Rajkot - 360005, Dist.Rajkot, Gujarat",8048372628,763
"Baby Healthcare Kit, Box",https://www.indiamart.com/proddetail/baby-healthcare-kit-23022367488.html?pos=156&kwd=baby healthcare kit&tags=CC||||8230.883|Price|product|||NA|rsf:gd-|-stype:attr=1|qr_nm:gd|res:RC3|com-cf:nl|ptrs:na|ktp:N0|mc:45463|mtp:S|qry_typ:P|lang:en|wc:3|cs:8838|v=4,G K Star,https://www.indiamart.com/g-k-star/?pos=156&kwd=baby healthcare kit&tags=CC||||8230.883|Price|product|||NA|rsf:gd-|-stype:attr=1|qr_nm:gd|res:RC3|com-cf:nl|ptrs:na|ktp:N0|mc:45463|mtp:S|qry_typ:P|lang:en|wc:3|cs:8838|v=4,False,,Surat,"LAXMIWADI SOCIETY 68 VED ROAD NEAR NANI VED, Surat - 395004, Dist.Surat, Gujarat",8048372659,289
"Purple Baby Healthcare Kit, For Babies Grooming, Type Of Packaging: Plastic Bottle",https://www.indiamart.com/proddetail/baby-healthcare-kit-26451063755.html?pos=157&kwd=baby healthcare kit&tags=CC||||8915.672||product|||NA|rsf:gd-|-stype:attr=1|qr_nm:gd|res:RC3|com-cf:nl|ptrs:na|ktp:N0|mc:45463|mtp:S|qry_typ:P|lang:en|wc:3|cs:8838|v=4,The Little Lookers,https://www.indiamart.com/thelittlelookers-moradabad/?pos=157&kwd=baby healthcare kit&tags=CC||||8915.672||product|||NA|rsf:gd-|-stype:attr=1|qr_nm:gd|res:RC3|com-cf:nl|ptrs:na|ktp:N0|mc:45463|mtp:S|qry_typ:P|lang:en|wc:3|cs:8838|v=4,False,,Moradabad,"4-B-145, Buddhi Vihar Yozna Mbd, Moradabad - 244001, Dist.Moradabad, Uttar Pradesh",8047655658,
Safety 1st Baby Healthcare Grooming Kit,https://www.indiamart.com/proddetail/baby-healthcare-grooming-kit-21087144188.html?pos=158&kwd=baby healthcare kit&tags=CC||||8752.144|Price|product|||NA|rsf:gd-|-stype:attr=1|qr_nm:gd|res:RC3|com-cf:nl|ptrs:na|ktp:N0|mc:45463|mtp:S|qry_typ:P|lang:en|wc:3|cs:8838|v=4,Satguru Traders,https://www.indiamart.com/shopuskart/?pos=158&kwd=baby healthcare kit&tags=CC||||8752.144|Price|product|||NA|rsf:gd-|-stype:attr=1|qr_nm:gd|res:RC3|com-cf:nl|ptrs:na|ktp:N0|mc:45463|mtp:S|qry_typ:P|lang:en|wc:3|cs:8838|v=4,False,,New Delhi,"B 617, B Block, Jahangir Puri, New Delhi - 110033, Dist.Delhi, Delhi",8048249780,5591
Baby Kit,https://www.indiamart.com/proddetail/baby-kit-10765504397.html?pos=159&kwd=baby healthcare kit&tags=CC||||8635.896||product|||NA|rsf:gd-|-stype:attr=1|qr_nm:gd|res:RC3|com-cf:nl|ptrs:na|ktp:N0|mc:45463|mtp:S|qry_typ:P|lang:en|wc:3|cs:8838|v=4,ABR Hygiene Products & Surgicals,https://www.indiamart.com/abr-hygieneproducts-surgicals/?pos=159&kwd=baby healthcare kit&tags=CC||||8635.896||product|||NA|rsf:gd-|-stype:attr=1|qr_nm:gd|res:RC3|com-cf:nl|ptrs:na|ktp:N0|mc:45463|mtp:S|qry_typ:P|lang:en|wc:3|cs:8838|v=4,False,Nagercoil,Kanyakumari,"No. 15, Med Street, WCC Road, Nagercoil, Nagercoil, Kanyakumari - 629001, Dist.Kanyakumari, Tamil Nadu",8048371594,248
Saw sales Baby kit,https://www.indiamart.com/proddetail/baby-kit-2850156695348.html?pos=160&kwd=baby healthcare kit&tags=CC||||9642.308|Price|product|||NA|rsf:gd-|-stype:attr=1|qr_nm:gd|res:RC3|com-cf:nl|ptrs:na|ktp:N0|mc:45463|mtp:S|qry_typ:P|lang:en|wc:3|cs:8838|v=4,Saw Sales,https://www.indiamart.com/saw-sales/?pos=160&kwd=baby healthcare kit&tags=CC||||9642.308|Price|product|||NA|rsf:gd-|-stype:attr=1|qr_nm:gd|res:RC3|com-cf:nl|ptrs:na|ktp:N0|mc:45463|mtp:S|qry_typ:P|lang:en|wc:3|cs:8838|v=4,False,Jharia Jharkhand,Jharia,"Khata No - 11 At - Dharleto, Jharia Jharkhand, Jharia - 815302, Dist.Dhanbad, Jharkhand",8048250167,356
BABY KIT,,Sakshi Enterprises,https://www.indiamart.com/sakshi-enterprises-gulabpura/?pos=161&kwd=baby healthcare kit&tags=CC||||8476.825|Price|product|||NA|rsf:gd-|-stype:attr=1|qr_nm:gd|res:RC3|com-cf:nl|ptrs:na|ktp:N0|mc:45463|mtp:S|qry_typ:P|lang:en|wc:3|cs:8838|v=4,False,,Gulabpura,"2,Arihant,Teja Chowk,Sindhi Colony,Gulabpura,Bhilwara 2 Arihant, Sindhi Colony, Teja Chowk, Gulabpura - 311021, Dist.Bhilwara, Rajasthan",8048371681,984
Cotton Baby Kit,https://www.indiamart.com/proddetail/baby-kit-14505089648.html?pos=162&kwd=baby healthcare kit&tags=CC||||9045.955|Price|product|||NA|rsf:gd-|-stype:attr=1|qr_nm:gd|res:RC3|com-cf:nl|ptrs:na|ktp:N0|mc:45463|mtp:S|qry_typ:P|lang:en|wc:3|cs:8838|v=4,Senior Enterprises,https://www.indiamart.com/seniorenterprises-kanpur/?pos=162&kwd=baby healthcare kit&tags=CC||||9045.955|Price|product|||NA|rsf:gd-|-stype:attr=1|qr_nm:gd|res:RC3|com-cf:nl|ptrs:na|ktp:N0|mc:45463|mtp:S|qry_typ:P|lang:en|wc:3|cs:8838|v=4,False,80 Feet Road,Kanpur,"Shop No. 107/267 A, Brahm Nagar Chauraha, 80 Feet Road, Kanpur - 208012, Uttar Pradesh",8046074355,
Baby Kit,https://www.indiamart.com/proddetail/baby-kit-6831408912.html?pos=163&kwd=baby healthcare kit&tags=CC||||8954.051||product|||NA|rsf:gd-|-stype:attr=1|qr_nm:gd|res:RC3|com-cf:nl|ptrs:na|ktp:N0|mc:45463|mtp:S|qry_typ:P|lang:en|wc:3|cs:8838|v=4,Jose And Doss Surgicals,https://www.indiamart.com/jose-and-doss-surgicals/?pos=163&kwd=baby healthcare kit&tags=CC||||8954.051||product|||NA|rsf:gd-|-stype:attr=1|qr_nm:gd|res:RC3|com-cf:nl|ptrs:na|ktp:N0|mc:45463|mtp:S|qry_typ:P|lang:en|wc:3|cs:8838|v=4,False,Virugambakkam,Chennai,"NA NO.271 ARCOT ROAD, VIRUGAMBAKKAM, Virugambakkam, Chennai - 600092, Dist.Chennai, Tamil Nadu",8069264811,183
Baby Kit,https://www.indiamart.com/proddetail/baby-kit-23016494262.html?pos=164&kwd=baby healthcare kit&tags=CC||||8461.862||product|||NA|rsf:gd-|-stype:attr=1|qr_nm:gd|res:RC3|com-cf:nl|ptrs:na|ktp:N0|mc:45463|mtp:S|qry_typ:P|lang:en|wc:3|cs:8838|v=4,Uma Medical Agencies,https://www.indiamart.com/umamedicalagencies/?pos=164&kwd=baby healthcare kit&tags=CC||||8461.862||product|||NA|rsf:gd-|-stype:attr=1|qr_nm:gd|res:RC3|com-cf:nl|ptrs:na|ktp:N0|mc:45463|mtp:S|qry_typ:P|lang:en|wc:3|cs:8838|v=4,False,VSP Nagar,Bhilwara,"A1, Vijay Singh, Pathik Nagar, VSP Nagar, Bhilwara - 311001, Dist.Bhilwara, Rajasthan",8047687605,
Glaciers Baby Kit,https://www.indiamart.com/proddetail/glaciers-baby-kit-4321181097.html?pos=165&kwd=baby healthcare kit&tags=CC||||8661.854||product|||NA|rsf:gd-|-stype:attr=1|qr_nm:gd|res:RC3|com-cf:nl|ptrs:na|ktp:N0|mc:45463|mtp:S|qry_typ:P|lang:en|wc:3|cs:8838|v=4,Ashish Jain Textile Mills (Regd),https://www.indiamart.com/ashishjain-textile-mills/?pos=165&kwd=baby healthcare kit&tags=CC||||8661.854||product|||NA|rsf:gd-|-stype:attr=1|qr_nm:gd|res:RC3|com-cf:nl|ptrs:na|ktp:N0|mc:45463|mtp:S|qry_typ:P|lang:en|wc:3|cs:8838|v=4,False,New Shivpuri,Ludhiana,"B-25-G-4/440.,ASHISH JAIN TEXTILES MILLS, GALI NO.8-1/2 GANESH PURI,NEW SHIV PURI B-25, G-4/440, Gali No. 8-1/2,,141008,Ludhiana, New Shivpuri, Ludhiana - 141001, Dist.Ludhiana, Punjab",8048372043,501
Himalaya Baby Kit,,Shakti Surgicals,https://www.indiamart.com/shakti-surgicals-moradabad/?pos=166&kwd=baby healthcare kit&tags=CC||||8915.672|Price|product|||NA|rsf:gd-|-stype:attr=1|qr_nm:gd|res:RC3|com-cf:nl|ptrs:na|ktp:N0|mc:45463|mtp:S|qry_typ:P|lang:en|wc:3|cs:8838|v=4,False,,Moradabad,"Sri Ram Market Opposite Mata Mandir Linepar,, Moradabad - 244001, Dist.Moradabad, Uttar Pradesh",8048372097,887
Baby Care Kit,https://www.indiamart.com/proddetail/baby-care-kit-14202486397.html?pos=167&kwd=baby healthcare kit&tags=CC||||8319.425|Price|product|||NA|rsf:gd-|-stype:attr=1|qr_nm:gd|res:RC3|com-cf:nl|ptrs:na|ktp:N0|mc:45463|mtp:S|qry_typ:P|lang:en|wc:3|cs:8838|v=4,Sai Care Products,https://www.indiamart.com/sai-care-product/?pos=167&kwd=baby healthcare kit&tags=CC||||8319.425|Price|product|||NA|rsf:gd-|-stype:attr=1|qr_nm:gd|res:RC3|com-cf:nl|ptrs:na|ktp:N0|mc:45463|mtp:S|qry_typ:P|lang:en|wc:3|cs:8838|v=4,False,Ram Nagar,Jodhpur,"Ram Nagar, Near PF Office, Ram Nagar, Jodhpur - 342001, Dist.Jodhpur, Rajasthan",8046067806,
Mothercare Baby Kit,https://www.indiamart.com/proddetail/mothercare-baby-kit-2852704580255.html?pos=168&kwd=baby healthcare kit&tags=CC||||8230.883|Price|product|||NA|rsf:gd-|-stype:attr=1|qr_nm:gd|res:RC3|com-cf:nl|ptrs:na|ktp:N0|mc:45463|mtp:S|qry_typ:P|lang:en|wc:3|cs:8838|v=4,24 Care Health & Hygiene,https://www.indiamart.com/24carehealthhygiene/?pos=168&kwd=baby healthcare kit&tags=CC||||8230.883|Price|product|||NA|rsf:gd-|-stype:attr=1|qr_nm:gd|res:RC3|com-cf:nl|ptrs:na|ktp:N0|mc:45463|mtp:S|qry_typ:P|lang:en|wc:3|cs:8838|v=4,False,surat,Surat,"2 Near Maharaja Farm Radhika Residency Mota Varachha, surat, Surat - 394101, Dist.Surat, Gujarat",8046054872,
Classic Baby Kit,https://www.indiamart.com/proddetail/classic-baby-kit-23512959330.html?pos=169&kwd=baby healthcare kit&tags=CC||||8984.809|Price|product|||NA|rsf:gd-|-stype:attr=1|qr_nm:gd|res:RC3|com-cf:nl|ptrs:na|ktp:N0|mc:45463|mtp:S|qry_typ:P|lang:en|wc:3|cs:8838|v=4,Ujjwal Creation,https://www.indiamart.com/ujjwal-creation/?pos=169&kwd=baby healthcare kit&tags=CC||||8984.809|Price|product|||NA|rsf:gd-|-stype:attr=1|qr_nm:gd|res:RC3|com-cf:nl|ptrs:na|ktp:N0|mc:45463|mtp:S|qry_typ:P|lang:en|wc:3|cs:8838|v=4,False,GD complex,Jabalpur,"7 2897 Madhatal G D Complex Teen Patti Chowk, GD complex, Jabalpur - 482002, Dist.Jabalpur, Madhya Pradesh",8048361367,116
"MOTHERCARE BABY KIT, 300ML, 1-2 Years",https://www.indiamart.com/proddetail/mothercare-baby-kit-2852524519288.html?pos=170&kwd=baby healthcare kit&tags=CC||||8230.883||product|||NA|rsf:gd-|-stype:attr=1|qr_nm:gd|res:RC3|com-cf:nl|ptrs:na|ktp:N0|mc:45463|mtp:S|qry_typ:P|lang:en|wc:3|cs:8838|v=4,Om Sales Agency,https://www.indiamart.com/om-sales-agencies-surat/?pos=170&kwd=baby healthcare kit&tags=CC||||8230.883||product|||NA|rsf:gd-|-stype:attr=1|qr_nm:gd|res:RC3|com-cf:nl|ptrs:na|ktp:N0|mc:45463|mtp:S|qry_typ:P|lang:en|wc:3|cs:8838|v=4,False,Varachha Road,Surat,"Ground Floor Plot No.26 Varachha Road, Hirabag Anjana Society, Varachha Road, Surat - 395006, Dist.Surat, Gujarat",7948219692,
1-2 Years Baby Care Kit Set,https://www.indiamart.com/proddetail/baby-care-kit-set-21993351573.html?pos=171&kwd=baby healthcare kit&tags=CC||||8413.825|Price|product|||NA|rsf:gd-|-stype:attr=1|qr_nm:gd|res:RC3|com-cf:nl|ptrs:na|ktp:N0|mc:45463|mtp:S|qry_typ:P|lang:en|wc:3|cs:8838|v=4,Tot'S Trunk,https://www.indiamart.com/tot-strunk-private-limited/?pos=171&kwd=baby healthcare kit&tags=CC||||8413.825|Price|product|||NA|rsf:gd-|-stype:attr=1|qr_nm:gd|res:RC3|com-cf:nl|ptrs:na|ktp:N0|mc:45463|mtp:S|qry_typ:P|lang:en|wc:3|cs:8838|v=4,False,,Hubli,"Navanagar Road, Hubli - 580025, Dist.Dharwad, Karnataka",8048371754,172
Plastic Baby Medical Tool Kit,https://www.indiamart.com/proddetail/baby-medical-tool-kit-20693673273.html?pos=172&kwd=baby healthcare kit&tags=CC||||8752.144|Price|product|||NA|rsf:gd-|-stype:attr=1|qr_nm:gd|res:RC3|com-cf:nl|ptrs:na|ktp:N0|mc:45463|mtp:S|qry_typ:P|lang:en|wc:3|cs:8838|v=4,Tirupati Traders,https://www.indiamart.com/tirupatitraders-new-delhi/?pos=172&kwd=baby healthcare kit&tags=CC||||8752.144|Price|product|||NA|rsf:gd-|-stype:attr=1|qr_nm:gd|res:RC3|com-cf:nl|ptrs:na|ktp:N0|mc:45463|mtp:S|qry_typ:P|lang:en|wc:3|cs:8838|v=4,False,,New Delhi,"350, Sadar Bazar, Mata Wali Gali, New Delhi - 110006, Dist.Delhi, Delhi",7942615708,
Himalaya Baby Grooming Kit,,Sharma Enterprises,https://www.indiamart.com/sharma-enterprises-bhusawal/?pos=173&kwd=baby healthcare kit&tags=CB||||8536.012||product|||NA|rsf:gd-|-stype:attr=1|qr_nm:gd|res:RC3|com-cf:nl|ptrs:na|ktp:N0|mc:45463|mtp:S|qry_typ:P|lang:en|wc:3|cs:8838|v=4,False,Bhajiya Galli,Bhusawal,"Saraf Bazar, Bhajiya Galli, Bhajiya Galli, Bhusawal - 425201, Dist.Jalgaon, Maharashtra",8048371537,646
Santulan Baby Care Kit,https://www.indiamart.com/proddetail/santulan-baby-care-kit-21195660688.html?pos=174&kwd=baby healthcare kit&tags=CC||||8211.142|Price|product|||NA|rsf:gd-|-stype:attr=1|qr_nm:gd|res:RC3|com-cf:nl|ptrs:na|ktp:N0|mc:45463|mtp:S|qry_typ:P|lang:en|wc:3|cs:8838|v=4,Jan Aushadhi Store Ghatkopar,https://www.indiamart.com/jan-aushadhistore/?pos=174&kwd=baby healthcare kit&tags=CC||||8211.142|Price|product|||NA|rsf:gd-|-stype:attr=1|qr_nm:gd|res:RC3|com-cf:nl|ptrs:na|ktp:N0|mc:45463|mtp:S|qry_typ:P|lang:en|wc:3|cs:8838|v=4,False,Ghatkopar East,Mumbai,",Ghatkopar Seva Sangh,L. B. S. Marg,Near Harijan Niwas,Ghatkopar West,,,, Ghatkopar East, Mumbai - 400086, Dist.Mumbai, Maharashtra",7942710014,
Plastic Baby Medical Tool Kit,https://www.indiamart.com/proddetail/baby-medical-tool-kit-19576673273.html?pos=175&kwd=baby healthcare kit&tags=CC||||8752.144|Price|product|||NA|rsf:gd-|-stype:attr=1|qr_nm:gd|res:RC3|com-cf:nl|ptrs:na|ktp:N0|mc:45463|mtp:S|qry_typ:P|lang:en|wc:3|cs:8838|v=4,A.R.Collections,https://www.indiamart.com/arcollections/?pos=175&kwd=baby healthcare kit&tags=CC||||8752.144|Price|product|||NA|rsf:gd-|-stype:attr=1|qr_nm:gd|res:RC3|com-cf:nl|ptrs:na|ktp:N0|mc:45463|mtp:S|qry_typ:P|lang:en|wc:3|cs:8838|v=4,False,Sadar Bazaar,New Delhi,"345-346, Press Street Sadar Bazar, Sadar Bazaar, New Delhi - 110006, Dist.Delhi, Delhi",8047668421,
Baby Hand Casting Kit,https://www.indiamart.com/proddetail/baby-hand-casting-kit-2854594961012.html?pos=176&kwd=baby healthcare kit&tags=CC||||8860.933|Price|product|||NA|rsf:gd-|-stype:attr=1|qr_nm:gd|res:RC3|com-cf:nl|ptrs:na|ktp:N0|mc:45463|mtp:S|qry_typ:P|lang:en|wc:3|cs:8838|v=4,Gaura Hand Casting Studio,https://www.indiamart.com/gaura-hand-casting-studio/?pos=176&kwd=baby healthcare kit&tags=CC||||8860.933|Price|product|||NA|rsf:gd-|-stype:attr=1|qr_nm:gd|res:RC3|com-cf:nl|ptrs:na|ktp:N0|mc:45463|mtp:S|qry_typ:P|lang:en|wc:3|cs:8838|v=4,False,,Dehradun,"H.no-174 Ballupur Road-3, Dehradun - 248001, Dist.Dehradun, Uttarakhand",8048370733,2857
"Unisex New Born Baby Kit, Age Group: 0-3 Months",https://www.indiamart.com/proddetail/new-born-baby-kit-2849174049488.html?pos=177&kwd=baby healthcare kit&tags=CC||||8752.144|Price|product|||NA|rsf:gd-|-stype:attr=1|qr_nm:gd|res:RC3|com-cf:nl|ptrs:na|ktp:N0|mc:45463|mtp:S|qry_typ:P|lang:en|wc:3|cs:8838|v=4,Medimesh Enterprise,https://www.indiamart.com/lakshitatrading-newdelhi/?pos=177&kwd=baby healthcare kit&tags=CC||||8752.144|Price|product|||NA|rsf:gd-|-stype:attr=1|qr_nm:gd|res:RC3|com-cf:nl|ptrs:na|ktp:N0|mc:45463|mtp:S|qry_typ:P|lang:en|wc:3|cs:8838|v=4,False,South West Delhi,New Delhi,"RZ B-56, Dev Kunj Raj Nagar, II Palam New Delhi, South West Delhi, New Delhi - 110077, Dist.Delhi, Delhi",8047551884,
"White SBL Baby Care Kit, Packaging Type: Box",https://www.indiamart.com/proddetail/sbl-baby-care-kit-2852756992662.html?pos=178&kwd=baby healthcare kit&tags=CC||||8752.144|Price|product|||NA|rsf:gd-|-stype:attr=1|qr_nm:gd|res:RC3|com-cf:nl|ptrs:na|ktp:N0|mc:45463|mtp:S|qry_typ:P|lang:en|wc:3|cs:8838|v=4,Arya Homoeopathic Pharmacy,https://www.indiamart.com/arya-homoeopathicpharmacy/?pos=178&kwd=baby healthcare kit&tags=CC||||8752.144|Price|product|||NA|rsf:gd-|-stype:attr=1|qr_nm:gd|res:RC3|com-cf:nl|ptrs:na|ktp:N0|mc:45463|mtp:S|qry_typ:P|lang:en|wc:3|cs:8838|v=4,False,Darya Ganj,New Delhi,"4933, Near Hotal Flora, Dayanand Road, Darya Ganj, Darya Ganj, New Delhi - 110002, Dist.Delhi, Delhi",7942715890,
Baby Care Products Kit,https://www.indiamart.com/proddetail/baby-care-products-kit-20880022997.html?pos=179&kwd=baby healthcare kit&tags=CC||||8268.494|Price|product|||NA|rsf:gd-|-stype:attr=1|qr_nm:gd|res:RC3|com-cf:nl|ptrs:na|ktp:N0|mc:45463|mtp:S|qry_typ:P|lang:en|wc:3|cs:8838|v=4,Ksecret Herbal Cosmetic,https://www.indiamart.com/k-secret/?pos=179&kwd=baby healthcare kit&tags=CC||||8268.494|Price|product|||NA|rsf:gd-|-stype:attr=1|qr_nm:gd|res:RC3|com-cf:nl|ptrs:na|ktp:N0|mc:45463|mtp:S|qry_typ:P|lang:en|wc:3|cs:8838|v=4,False,Rico,Abu Road,"G-116, Growth Center, Phase 2, Mawal, Rico, Abu Road - 307026, Dist.Sirohi, Rajasthan",8047816256,
"Blue,Pink BABY CARE KIT 10 PCS, Packaging Type: Box",https://www.indiamart.com/proddetail/baby-care-kit-10-pcs-2854068829955.html?pos=180&kwd=baby healthcare kit&tags=CC||||8230.883|Price|product|||NA|rsf:gd-|-stype:attr=1|qr_nm:gd|res:RC3|com-cf:nl|ptrs:na|ktp:N0|mc:45463|mtp:S|qry_typ:P|lang:en|wc:3|cs:8838|v=4,Professor Enterprises,https://www.indiamart.com/professor-enterprises-surat/?pos=180&kwd=baby healthcare kit&tags=CC||||8230.883|Price|product|||NA|rsf:gd-|-stype:attr=1|qr_nm:gd|res:RC3|com-cf:nl|ptrs:na|ktp:N0|mc:45463|mtp:S|qry_typ:P|lang:en|wc:3|cs:8838|v=4,False,,Surat,"Gr Floor Pl 157 Shop Sayan Road Shrushti Row House V-2 Kosad Surat, Surat - 394107, Dist.Surat, Gujarat",8041012884,
Pink Cotton Baby Kit For Newborn Used In Hospitals,https://www.indiamart.com/proddetail/baby-kit-for-newborn-used-in-hospitals-20345351055.html?pos=181&kwd=baby healthcare kit&tags=CB||||8488.448|Price|product|||NA|rsf:gd-|-stype:attr=1|qr_nm:gd|res:RC3|com-cf:nl|ptrs:na|ktp:N0|mc:45463|mtp:S|qry_typ:P|lang:en|wc:3|cs:8838|v=4,Signature Knit Products,https://www.indiamart.com/signature-knit-products/?pos=181&kwd=baby healthcare kit&tags=CB||||8488.448|Price|product|||NA|rsf:gd-|-stype:attr=1|qr_nm:gd|res:RC3|com-cf:nl|ptrs:na|ktp:N0|mc:45463|mtp:S|qry_typ:P|lang:en|wc:3|cs:8838|v=4,False,,Malappuram,"Arukizhaya, Malappuram - 676121, Dist.Malappuram, Kerala",8062270230,843
KitschKitsch Both baby safety set 41 pieces,https://www.indiamart.com/proddetail/kitschkitsch-baby-safety-set-41-pieces-19752873973.html?pos=182&kwd=baby healthcare kit&tags=CC||||8663.873||product|||NA|rsf:gd-|-stype:attr=1|qr_nm:gd|res:RC3|com-cf:nl|ptrs:na|ktp:N0|mc:45463|mtp:S|qry_typ:P|lang:en|wc:3|cs:8838|v=4,Vrksh Marketing LLP,https://www.indiamart.com/vrksh-marketing/?pos=182&kwd=baby healthcare kit&tags=CC||||8663.873||product|||NA|rsf:gd-|-stype:attr=1|qr_nm:gd|res:RC3|com-cf:nl|ptrs:na|ktp:N0|mc:45463|mtp:S|qry_typ:P|lang:en|wc:3|cs:8838|v=4,False,R.V. Road,Bengaluru,"Ground Floor, 171/1 \'Prerana\' R.V. Road, R.V. Road, Bengaluru - 560004, Dist.Bengaluru, Karnataka",8048372597,276
"Mother And Child Care Kit, Packaging Type: PACK",https://www.indiamart.com/proddetail/mother-and-child-care-kit-2850327301988.html?pos=183&kwd=baby healthcare kit&tags=CC||||9520.041|Price|product|||NA|rsf:gd-|-stype:attr=1|qr_nm:gd|res:RC3|com-cf:nl|ptrs:na|ktp:N0|mc:45463|mtp:S|qry_typ:P|lang:en|wc:3|cs:8838|v=4,Charak Sales International,https://www.indiamart.com/charak-slaes-international/?pos=183&kwd=baby healthcare kit&tags=CC||||9520.041|Price|product|||NA|rsf:gd-|-stype:attr=1|qr_nm:gd|res:RC3|com-cf:nl|ptrs:na|ktp:N0|mc:45463|mtp:S|qry_typ:P|lang:en|wc:3|cs:8838|v=4,False,,Patna,"7,8 Surya Tower Raja Bazar Baily Road, Patna - 800014, Dist.Patna, Bihar",8048249729,5687
Children Health Health Care Service,,Fast Food Centre,https://www.indiamart.com/herbalife-international-thane/?pos=184&kwd=baby healthcare kit&tags=CC||||8223.226||product|||NA|rsf:gd-|-stype:attr=1|qr_nm:gd|res:RC3|com-cf:nl|ptrs:na|ktp:N0|mc:45463|mtp:S|qry_typ:P|lang:en|wc:3|cs:8838|v=4,False,Uthalsar,Thane,"Heramb Sankul, Opposite School No. 7, Uthalsar Road, Thane West, Uthalsar, Thane - 400601, Dist.Thane, Maharashtra",8048250198,663
"pink,blue baby care kit,, 0-2 year",https://www.indiamart.com/proddetail/baby-care-kit-2852101270433.html?pos=185&kwd=baby healthcare kit&tags=CC||||8752.144|Price|product|||NA|rsf:gd-|-stype:attr=1|qr_nm:gd|res:RC3|com-cf:nl|ptrs:na|ktp:N0|mc:45463|mtp:S|qry_typ:P|lang:en|wc:3|cs:8838|v=4,Lilli First.,https://www.indiamart.com/lilli-first/?pos=185&kwd=baby healthcare kit&tags=CC||||8752.144|Price|product|||NA|rsf:gd-|-stype:attr=1|qr_nm:gd|res:RC3|com-cf:nl|ptrs:na|ktp:N0|mc:45463|mtp:S|qry_typ:P|lang:en|wc:3|cs:8838|v=4,False,Okhla,New Delhi,"R-129 Joga Bai Extn, Batla House Jamia Nagar Street No.6, Okhla, New Delhi - 110025, Dist.Delhi, Delhi",8048260844,950
Piramal Healthcare Products,https://www.indiamart.com/proddetail/piramal-healthcare-products-16685018233.html?pos=186&kwd=baby healthcare kit&tags=CC||||8503.868||product|||NA|rsf:gd-|-stype:attr=1|qr_nm:gd|res:RC3|com-cf:nl|ptrs:na|ktp:N0|mc:45463|mtp:S|qry_typ:P|lang:en|wc:3|cs:8838|v=4,Arushi Traders,https://www.indiamart.com/arushitraders/?pos=186&kwd=baby healthcare kit&tags=CC||||8503.868||product|||NA|rsf:gd-|-stype:attr=1|qr_nm:gd|res:RC3|com-cf:nl|ptrs:na|ktp:N0|mc:45463|mtp:S|qry_typ:P|lang:en|wc:3|cs:8838|v=4,False,Edapally,Kochi,"CC- 50 / 840 B,,CHANGAMPUZHA SAMATHI ROAD 50,EDAPPALLY CC- 50 / 840 B, Arushi Villa, Samadhi Road,686024,Ernakulam, Edapally, Kochi - 682024, Dist.Ernakulam, Kerala",7942645905,
Kids Berry Nursury Combo Kit,,Children Choice Publication Private Limited,https://www.indiamart.com/children-choice-publication/?pos=187&kwd=baby healthcare kit&tags=CC||||8813.969||product|||NA|rsf:gd-|-stype:attr=1|qr_nm:gd|res:RC3|com-cf:nl|ptrs:na|ktp:N0|mc:45463|mtp:S|qry_typ:P|lang:en|wc:3|cs:8838|v=4,False,Mohkampur,Meerut,"No. 55-56, Mohkampur, Industrial Area Phase 2, Delhi Road, Mohkampur, Meerut - 250103, Dist.Meerut, Uttar Pradesh",7942667284,
Life Care Kits,https://www.indiamart.com/proddetail/life-care-kits-19828211591.html?pos=188&kwd=baby healthcare kit&tags=CC||||8752.144||product|||NA|rsf:gd-|-stype:attr=1|qr_nm:gd|res:RC3|com-cf:nl|ptrs:na|ktp:N0|mc:45463|mtp:S|qry_typ:P|lang:en|wc:3|cs:8838|v=4,Life Care Pharmacy,https://www.indiamart.com/life-care-pharmacy-jaipur/?pos=188&kwd=baby healthcare kit&tags=CC||||8752.144||product|||NA|rsf:gd-|-stype:attr=1|qr_nm:gd|res:RC3|com-cf:nl|ptrs:na|ktp:N0|mc:45463|mtp:S|qry_typ:P|lang:en|wc:3|cs:8838|v=4,False,,Delhi,"Vijay City, Trimurti Apartment, Ahinsa Circle, C Scheme, Delhi - 302001, Dist.Delhi, Delhi",8048372272,804
Postnatal Care,https://www.indiamart.com/proddetail/postnatal-care-6864086248.html?pos=189&kwd=baby healthcare kit&tags=CC||||8663.873||product|||NA|rsf:gd-|-stype:attr=1|qr_nm:gd|res:RC3|com-cf:nl|ptrs:na|ktp:N0|mc:45463|mtp:S|qry_typ:P|lang:en|wc:3|cs:8838|v=4,Tamara Hospital,https://www.indiamart.com/tamara-hospital/?pos=189&kwd=baby healthcare kit&tags=CC||||8663.873||product|||NA|rsf:gd-|-stype:attr=1|qr_nm:gd|res:RC3|com-cf:nl|ptrs:na|ktp:N0|mc:45463|mtp:S|qry_typ:P|lang:en|wc:3|cs:8838|v=4,False,,Bengaluru,"34/3, 10th Cross 1st N Block Rajajinagar, Bengaluru - 560010, Dist.Bengaluru, Karnataka",8047520718,
Mother Care,https://www.indiamart.com/proddetail/mother-care-10074356362.html?pos=190&kwd=baby healthcare kit&tags=CC||||8601.347||product|||NA|rsf:gd-|-stype:attr=1|qr_nm:gd|res:RC3|com-cf:nl|ptrs:na|ktp:N0|mc:45463|mtp:S|qry_typ:P|lang:en|wc:3|cs:8838|v=4,Shri Nidaan Hospital & Hopefertility Centre,https://www.indiamart.com/shri-nidaan-hospital/?pos=190&kwd=baby healthcare kit&tags=CC||||8601.347||product|||NA|rsf:gd-|-stype:attr=1|qr_nm:gd|res:RC3|com-cf:nl|ptrs:na|ktp:N0|mc:45463|mtp:S|qry_typ:P|lang:en|wc:3|cs:8838|v=4,False,,Jaipur,"27-28, Vidhyut Nagar-A Vaishali Nager,Ajmer Road, Jaipur - 302021, Dist.Jaipur, Rajasthan",8048261666,265
K-Men Health Kit,https://www.indiamart.com/proddetail/k-men-health-kit-20576441788.html?pos=191&kwd=baby healthcare kit&tags=CC||||8923.821|Price|product|||NA|rsf:gd-|-stype:attr=1|qr_nm:gd|res:RC3|com-cf:nl|ptrs:na|ktp:N0|mc:45463|mtp:S|qry_typ:P|lang:en|wc:3|cs:8838|v=4,K-Link Healthcare (India) Private Limited,https://www.indiamart.com/k-link-healthcare-india-private-limited/?pos=191&kwd=baby healthcare kit&tags=CC||||8923.821|Price|product|||NA|rsf:gd-|-stype:attr=1|qr_nm:gd|res:RC3|com-cf:nl|ptrs:na|ktp:N0|mc:45463|mtp:S|qry_typ:P|lang:en|wc:3|cs:8838|v=4,False,bijnor,Mainpuri,"272 alambagh kashigang, bijnor, Mainpuri - 209287, Dist.Mainpuri, Uttar Pradesh",8048372622,687
Maxbupa Health Insurance Maternity Plan,https://www.indiamart.com/proddetail/maxbupa-health-insurance-maternity-plan-20428387312.html?pos=192&kwd=baby healthcare kit&tags=CC||||8307.81|Price|product|||NA|rsf:gd-|-stype:attr=1|qr_nm:gd|res:RC3|com-cf:nl|ptrs:na|ktp:N0|mc:45463|mtp:S|qry_typ:P|lang:en|wc:3|cs:8838|v=4,Pension Bima Consultancy Services,https://www.indiamart.com/pension-bima-consultancy-services/?pos=192&kwd=baby healthcare kit&tags=CC||||8307.81|Price|product|||NA|rsf:gd-|-stype:attr=1|qr_nm:gd|res:RC3|com-cf:nl|ptrs:na|ktp:N0|mc:45463|mtp:S|qry_typ:P|lang:en|wc:3|cs:8838|v=4,False,Wakad,Pune,"Dhayari, Wakad, Pune - 411041, Dist.Pune, Maharashtra",8048372335,354
"Health Safety Welfare Kit, 13x7x3",https://www.indiamart.com/proddetail/health-safety-welfare-kit-22288222748.html?pos=193&kwd=baby healthcare kit&tags=CC||||8601.347|Price|product|||NA|rsf:gd-|-stype:attr=1|qr_nm:gd|res:RC3|com-cf:nl|ptrs:na|ktp:N0|mc:45463|mtp:S|qry_typ:P|lang:en|wc:3|cs:8838|v=4,Fanusta Global Private Limited,https://www.indiamart.com/fanustaglobal/?pos=193&kwd=baby healthcare kit&tags=CC||||8601.347|Price|product|||NA|rsf:gd-|-stype:attr=1|qr_nm:gd|res:RC3|com-cf:nl|ptrs:na|ktp:N0|mc:45463|mtp:S|qry_typ:P|lang:en|wc:3|cs:8838|v=4,False,,Jaipur,"96, Officers Campus, Sirsi Road, Vaishali Nagar, Jaipur - 302021, Dist.Jaipur, Rajasthan",8048616032,
SH&WK Health And Wellness Kit,https://www.indiamart.com/proddetail/sh-wk-health-and-wellness-kit-22127531933.html?pos=194&kwd=baby healthcare kit&tags=CC||||8228.275|Price|product|||NA|rsf:gd-|-stype:attr=1|qr_nm:gd|res:RC3|com-cf:nl|ptrs:na|ktp:N0|mc:45463|mtp:S|qry_typ:P|lang:en|wc:3|cs:8838|v=4,Satej Global Science,https://www.indiamart.com/shivakrishna-consaltancy/?pos=194&kwd=baby healthcare kit&tags=CC||||8228.275|Price|product|||NA|rsf:gd-|-stype:attr=1|qr_nm:gd|res:RC3|com-cf:nl|ptrs:na|ktp:N0|mc:45463|mtp:S|qry_typ:P|lang:en|wc:3|cs:8838|v=4,False,Thaltej,Ahmedabad,"C8,HARIOMNAGAR SUVAS APARTMENT, OPP GULAB TOWER,THALTEJ C-8, Suvas Apartment,380059,Ahmedabad, Thaltej, Ahmedabad - 380054, Dist.Ahmedabad, Gujarat",7942617078,
"Pink Grooming Safety Babycare Kit, Packaging Type: Box",https://www.indiamart.com/proddetail/grooming-safety-babycare-kit-2849227527897.html?pos=195&kwd=baby healthcare kit&tags=CC||||8357.81|Price|product|||NA|rsf:gd-|-stype:attr=1|qr_nm:gd|res:RC3|com-cf:nl|ptrs:na|ktp:N0|mc:45463|mtp:S|qry_typ:P|lang:en|wc:3|cs:8838|v=4,Girija Healthcare And Surgicals,https://www.indiamart.com/girija-healthcaresurgical/?pos=195&kwd=baby healthcare kit&tags=CC||||8357.81|Price|product|||NA|rsf:gd-|-stype:attr=1|qr_nm:gd|res:RC3|com-cf:nl|ptrs:na|ktp:N0|mc:45463|mtp:S|qry_typ:P|lang:en|wc:3|cs:8838|v=4,False,Udupi,Udupi,"Door No.9-3-112, Sham Prasad Mukharjee Road, Guru Nithyananda Credit Coop Society, Udupi, Udupi - 576101, Dist.Udupi, Karnataka",8047831475,
Family Essentials Kit,https://www.indiamart.com/proddetail/family-essentials-kit-22317102991.html?pos=196&kwd=baby healthcare kit&tags=CC||||8752.144|Price|product|||NA|rsf:gd-|-stype:attr=1|qr_nm:gd|res:RC3|com-cf:nl|ptrs:na|ktp:N0|mc:45463|mtp:S|qry_typ:P|lang:en|wc:3|cs:8838|v=4,Goldsouk Infrastructure Private Limited,https://www.indiamart.com/goldsoukinfrastructure/?pos=196&kwd=baby healthcare kit&tags=CC||||8752.144|Price|product|||NA|rsf:gd-|-stype:attr=1|qr_nm:gd|res:RC3|com-cf:nl|ptrs:na|ktp:N0|mc:45463|mtp:S|qry_typ:P|lang:en|wc:3|cs:8838|v=4,False,Sharda Niketen,New Delhi,"WEDDING SOUK PLOT NO.1 LOCAL SHOPPIMG CENTRE SHARDA NIKETAN, PITAMPURA, Sharda Niketen, New Delhi - 110034, Dist.Delhi, Delhi",8069017481,258
Baby Medicine Kits,https://www.indiamart.com/proddetail/baby-medicine-kits-20810287288.html?pos=197&kwd=baby healthcare kit&tags=CC||||8601.347|Price|product|||NA|rsf:gd-|-stype:attr=1|qr_nm:gd|res:RC3|com-cf:nl|ptrs:na|ktp:N0|mc:45463|mtp:S|qry_typ:P|lang:en|wc:3|cs:8838|v=4,Mamma Mia,https://www.indiamart.com/mammamia/?pos=197&kwd=baby healthcare kit&tags=CC||||8601.347|Price|product|||NA|rsf:gd-|-stype:attr=1|qr_nm:gd|res:RC3|com-cf:nl|ptrs:na|ktp:N0|mc:45463|mtp:S|qry_typ:P|lang:en|wc:3|cs:8838|v=4,False,,Jaipur,"D 192-a, Moti Marg, Bapu Nagar, Jaipur - 302015, Dist.Jaipur, Rajasthan",8069013895,120
Babyrex 500 ml,https://www.indiamart.com/proddetail/babyrex-500-ml-2850579907933.html?pos=198&kwd=baby healthcare kit&tags=CC||||9842.824|Price|product|||NA|rsf:gd-|-stype:attr=1|qr_nm:gd|res:RC3|com-cf:nl|ptrs:na|ktp:N0|mc:45463|mtp:S|qry_typ:P|lang:en|wc:3|cs:8838|v=4,Jai Maa Tara Distributors,https://www.indiamart.com/jai-maatara-homeohall/?pos=198&kwd=baby healthcare kit&tags=CC||||9842.824|Price|product|||NA|rsf:gd-|-stype:attr=1|qr_nm:gd|res:RC3|com-cf:nl|ptrs:na|ktp:N0|mc:45463|mtp:S|qry_typ:P|lang:en|wc:3|cs:8838|v=4,False,DR A K JHA CLINIC,Hooghly,"No. 674, Sri Krishna Nagar, Rishra, P. O. Pravashnagar, Near Jhaji Mor, Hooghly, West Bengal 712249 Rishra, DR A K JHA CLINIC, Hooghly - 712249, Dist.Hooghly, West Bengal",8047763809,
Child Health Care,https://www.indiamart.com/proddetail/child-health-care-11874509597.html?pos=199&kwd=baby healthcare kit&tags=CC||||8211.142||product|||NA|rsf:gd-|-stype:attr=1|qr_nm:gd|res:RC3|com-cf:nl|ptrs:na|ktp:N0|mc:45463|mtp:S|qry_typ:P|lang:en|wc:3|cs:8838|v=4,Vishwa Care,https://www.indiamart.com/vishwa-care/?pos=199&kwd=baby healthcare kit&tags=CC||||8211.142||product|||NA|rsf:gd-|-stype:attr=1|qr_nm:gd|res:RC3|com-cf:nl|ptrs:na|ktp:N0|mc:45463|mtp:S|qry_typ:P|lang:en|wc:3|cs:8838|v=4,False,Vileeparle East,Mumbai,"Vishwacare Clinic, Tilak Polyclinic, No.10, Ram Mandir Road Near Mahalaxmi Temple, Vile Parle East, Vileeparle East, Mumbai - 400057, Dist.Mumbai, Maharashtra",8048247108,6073
"Mold Your Memories New Born Baby Impression Kit, For Gift",https://www.indiamart.com/proddetail/mold-your-memories-new-born-baby-impression-kit-2854702475948.html?pos=200&kwd=baby healthcare kit&tags=||||8211.142|Price|product|||MDC|rsf:gd-|-stype:attr=1|qr_nm:gd|res:RC3|com-cf:nl|ptrs:na|ktp:N0|mc:45463|mtp:S|qry_typ:P|lang:en|wc:3|cs:8838|v=4,Bawy Inc,https://www.indiamart.com/bawyinc/?pos=200&kwd=baby healthcare kit&tags=||||8211.142|Price|product|||MDC|rsf:gd-|-stype:attr=1|qr_nm:gd|res:RC3|com-cf:nl|ptrs:na|ktp:N0|mc:45463|mtp:S|qry_typ:P|lang:en|wc:3|cs:8838|v=4,False,,Mumbai,"A/602, JVS Plot B Building ,Saptarshi Marg, LBS Marg, Mulund, Mumbai - 400080, Dist.Mumbai, Maharashtra",7949322159,
"Blue / Pink Baby Grooming Kit With Scissor, Packaging Type: Box, 1-2 Years",https://www.indiamart.com/proddetail/baby-grooming-kit-with-scissor-2852136017697.html?pos=201&kwd=baby healthcare kit&tags=CC||||8752.144|Price|product|||NA|rsf:gd-|-stype:attr=1|qr_nm:gd|res:RC3|com-cf:nl|ptrs:na|ktp:N0|mc:45463|mtp:S|qry_typ:P|lang:en|wc:3|cs:8838|v=4,Tiana Enterprises,https://www.indiamart.com/company/76311576/?pos=201&kwd=baby healthcare kit&tags=CC||||8752.144|Price|product|||NA|rsf:gd-|-stype:attr=1|qr_nm:gd|res:RC3|com-cf:nl|ptrs:na|ktp:N0|mc:45463|mtp:S|qry_typ:P|lang:en|wc:3|cs:8838|v=4,False,,New Delhi,"Kishan Ganj 482 Malka Ganj Nai Basti Delhi North, New Delhi - 110007, Dist.Delhi, Delhi",8069264838,774
Baby Grooming Baby Healthcare Kit Newborn Baby Care Accessories Baby Health Care Set Baby Nail Clipper Scissors Hair Comb Brush Nose Cleaner Safety For Toddler Infant Nursing Grooming(pack Of 6 Pc),https://www.indiamart.com/proddetail/baby-grooming-baby-healthcare-kit-newborn-baby-care-accessories-baby-health-care-set-baby-nail-clipper-scissors-hair-comb-brush-nose-cleaner-safety-for-toddler-infant-nursing-grooming-pack-of-6-pc-2854244501191.html?pos=202&kwd=baby healthcare kit&tags=CC||||8752.144|Price|product|||NA|rsf:gd-|-stype:attr=1|qr_nm:gd|res:RC3|com-cf:nl|ptrs:na|ktp:N0|mc:45463|mtp:S|qry_typ:P|lang:en|wc:3|cs:8838|v=4,Aflipshop,https://www.indiamart.com/aflipshopin/?pos=202&kwd=baby healthcare kit&tags=CC||||8752.144|Price|product|||NA|rsf:gd-|-stype:attr=1|qr_nm:gd|res:RC3|com-cf:nl|ptrs:na|ktp:N0|mc:45463|mtp:S|qry_typ:P|lang:en|wc:3|cs:8838|v=4,False,,New Delhi,"P-9, C/o Innovative E Business Service Llp Mayur Vihar Phase 1 Jp Complex New Delhi, New Delhi - 110091, Dist.Delhi, Delhi",,
Medical International Baby Health Care Service,https://www.indiamart.com/proddetail/international-baby-health-care-service-23789750362.html?pos=203&kwd=baby healthcare kit&tags=CC||||8307.81||product|||NA|rsf:gd-|-stype:attr=1|qr_nm:gd|res:RC3|com-cf:nl|ptrs:na|ktp:N0|mc:45463|mtp:S|qry_typ:P|lang:en|wc:3|cs:8838|v=4,Maharashtra Nursing Bureau International,https://www.indiamart.com/maharashtranursingbureauinternational/?pos=203&kwd=baby healthcare kit&tags=CC||||8307.81||product|||NA|rsf:gd-|-stype:attr=1|qr_nm:gd|res:RC3|com-cf:nl|ptrs:na|ktp:N0|mc:45463|mtp:S|qry_typ:P|lang:en|wc:3|cs:8838|v=4,False,Narhe,Pune,"Varad Vinayak Complex, Office No. A-202, Sr. No.26/1, Narhe Next To Shree Cantrol Chowk, Narhe, Pune - 411041, Dist.Pune, Maharashtra",8048988782,
Baby Lotion,https://www.indiamart.com/proddetail/baby-lotion-12816729033.html?pos=204&kwd=baby healthcare kit&tags=CC||||8307.81|Price|product|||NA|rsf:gd-|-stype:attr=1|qr_nm:gd|res:RC3|com-cf:nl|ptrs:na|ktp:N0|mc:45463|mtp:S|qry_typ:P|lang:en|wc:3|cs:8838|v=4,Ayurved Agencies,https://www.indiamart.com/ayurved-agencies/?pos=204&kwd=baby healthcare kit&tags=CC||||8307.81|Price|product|||NA|rsf:gd-|-stype:attr=1|qr_nm:gd|res:RC3|com-cf:nl|ptrs:na|ktp:N0|mc:45463|mtp:S|qry_typ:P|lang:en|wc:3|cs:8838|v=4,False,Kasba Peth,Pune,"Survey No. 261, Venkateshwar House, Rasta Peth Road, Rasta Peth, Kasba Peth, Pune - 411011, Dist.Pune, Maharashtra",8047670464,
Newborn Baby Kit For Hospital,https://www.indiamart.com/proddetail/newborn-baby-kit-for-hospital-2854230921473.html?pos=205&kwd=baby healthcare kit&tags=||||8228.275|Price|product|||MDC|rsf:gd-|-stype:attr=1|qr_nm:gd|res:RC3|com-cf:nl|ptrs:na|ktp:N0|mc:45463|mtp:S|qry_typ:P|lang:en|wc:3|cs:8838|v=4,H P Enterprise,https://www.indiamart.com/hpenterpriseahmedabad/?pos=205&kwd=baby healthcare kit&tags=||||8228.275|Price|product|||MDC|rsf:gd-|-stype:attr=1|qr_nm:gd|res:RC3|com-cf:nl|ptrs:na|ktp:N0|mc:45463|mtp:S|qry_typ:P|lang:en|wc:3|cs:8838|v=4,False,Kubernagar,Ahmedabad,"A/4 Opp Sukhramdas Darbar Bunglow Area Kavaram Park Kubernagar, Kubernagar, Ahmedabad - 382340, Dist.Ahmedabad, Gujarat",7949224579,
"Falalen Unisex New Born Baby Hospital Kit, Age Group: 0-3 Months",https://www.indiamart.com/proddetail/unisex-new-born-baby-hospital-kit-age-group-0-3-months-2853711292712.html?pos=206&kwd=baby healthcare kit&tags=||||8559.269|Price|product|||MDC|rsf:gd-|-stype:attr=1|qr_nm:gd|res:RC3|com-cf:nl|ptrs:na|ktp:N0|mc:45463|mtp:S|qry_typ:P|lang:en|wc:3|cs:8838|v=4,Sheza Enterprises,https://www.indiamart.com/shezaenterprises/?pos=206&kwd=baby healthcare kit&tags=||||8559.269|Price|product|||MDC|rsf:gd-|-stype:attr=1|qr_nm:gd|res:RC3|com-cf:nl|ptrs:na|ktp:N0|mc:45463|mtp:S|qry_typ:P|lang:en|wc:3|cs:8838|v=4,False,,Indore,"Alif House, 5, Khajrana Main Road, Opposite HP Petrol Pump,, Indore - 452001, Dist.Indore, Madhya Pradesh",7948547068,
"Cotton Unisex Newborn Baby Kit, Age Group: 0-3 Months",https://www.indiamart.com/proddetail/newborn-baby-kit-2851802027948.html?pos=207&kwd=baby healthcare kit&tags=||||9520.041|Price|product|||TS|rsf:gd-|-stype:attr=1|qr_nm:gd|res:RC3|com-cf:nl|ptrs:na|ktp:N0|mc:45463|mtp:S|qry_typ:P|lang:en|wc:3|cs:8838|v=4,Nidat Health Private Limited,https://www.indiamart.com/nidathealth/?pos=207&kwd=baby healthcare kit&tags=||||9520.041|Price|product|||TS|rsf:gd-|-stype:attr=1|qr_nm:gd|res:RC3|com-cf:nl|ptrs:na|ktp:N0|mc:45463|mtp:S|qry_typ:P|lang:en|wc:3|cs:8838|v=4,False,Lohia Nagar,Patna,"A/228, 1ST Floor West, P C Colony, Modern Hospital, Lohia Nagar, Patna - 800020, Dist.Patna, Bihar",7942870212,
"Cotton mix Unisex Baby Dress Kit, Age Group: 6-9 Months",https://www.indiamart.com/proddetail/baby-dress-kit-24690317488.html?pos=208&kwd=baby healthcare kit&tags=||||8891.556|Price|product|||MDC|rsf:gd-|-stype:attr=1|qr_nm:gd|res:RC3|com-cf:nl|ptrs:na|ktp:N0|mc:45463|mtp:S|qry_typ:P|lang:en|wc:3|cs:8838|v=4,Nallandi Mudaliyar & Co,https://www.indiamart.com/nallandi-mudaliyar-corporation/?pos=208&kwd=baby healthcare kit&tags=||||8891.556|Price|product|||MDC|rsf:gd-|-stype:attr=1|qr_nm:gd|res:RC3|com-cf:nl|ptrs:na|ktp:N0|mc:45463|mtp:S|qry_typ:P|lang:en|wc:3|cs:8838|v=4,False,Ayyampettai,Kancheepuram,"16/2,,PERIYA STREET,THIMMAIYANPETTAI, Ayyampettai, Kancheepuram - 631601, Dist.Kanchipuram, Tamil Nadu",8046064910,
"Unisex Casual Wear New Born Baby Cloth Hospital Kit, Age Group: 0-1yr",https://www.indiamart.com/proddetail/new-born-baby-cloth-hospital-kit-23895762488.html?pos=209&kwd=baby healthcare kit&tags=||||8626.744|Price|product|||MDC|rsf:gd-|-stype:attr=1|qr_nm:gd|res:RC3|com-cf:nl|ptrs:na|ktp:N0|mc:45463|mtp:S|qry_typ:P|lang:en|wc:3|cs:8838|v=4,Mother Sports,https://www.indiamart.com/mothersports/?pos=209&kwd=baby healthcare kit&tags=||||8626.744|Price|product|||MDC|rsf:gd-|-stype:attr=1|qr_nm:gd|res:RC3|com-cf:nl|ptrs:na|ktp:N0|mc:45463|mtp:S|qry_typ:P|lang:en|wc:3|cs:8838|v=4,False,,Tiruppur,"1-241,,Arivozhi Nagar,Thottiya Mannarai, Tiruppur - 641607, Dist.Coimbatore, Tamil Nadu",8046050975,
Intarlok Cotton New Bron Baby Kit Hospital Gift Set Dress 6pis,https://www.indiamart.com/proddetail/new-bron-baby-kit-hospital-gift-set-dress-6pis-25725577933.html?pos=210&kwd=baby healthcare kit&tags=||||8211.142|Price|product|||MDC|rsf:gd-|-stype:attr=1|qr_nm:gd|res:RC3|com-cf:nl|ptrs:na|ktp:N0|mc:45463|mtp:S|qry_typ:P|lang:en|wc:3|cs:8838|v=4,Om Sai Hosiery,https://www.indiamart.com/omsaihosierymumbai/?pos=210&kwd=baby healthcare kit&tags=||||8211.142|Price|product|||MDC|rsf:gd-|-stype:attr=1|qr_nm:gd|res:RC3|com-cf:nl|ptrs:na|ktp:N0|mc:45463|mtp:S|qry_typ:P|lang:en|wc:3|cs:8838|v=4,False,Vikhroli west,Mumbai,"Ground Floor Room No -3 LBS Marg Jai Bhawani Chawl, Kranti Maidan Surya Nagar, Vikhroli west, Mumbai - 400083, Dist.Mumbai, Maharashtra",8048989297,
