product_title,product_link,company_name,company_link,is_verified_exporter,city_region,city,address_details,phone_number,phone_number_extension
Baby Silicone Teether,https://www.indiamart.com/proddetail/baby-silicone-teether-2852304894348.html?pos=1&kwd=baby care products&tags=A|PL|||8211.142|Price|product|||SSlc|rsf:pl-|-stype:attr=1|qr_nm:gd|res:RC4|com-cf:nl|ptrs:na|ktp:N0|mc:137678|mtp:G|qry_typ:P|lang:en|wc:3|flavl:10|cs:9697|v=4,P For Panda Baby Products Private Limited,https://www.p4pandababyproducts.com/?pos=1&kwd=baby care products&tags=A|PL|||8211.142|Price|product|||SSlc|rsf:pl-|-stype:attr=1|qr_nm:gd|res:RC4|com-cf:nl|ptrs:na|ktp:N0|mc:137678|mtp:G|qry_typ:P|lang:en|wc:3|flavl:10|cs:9697|v=4,FALSE,Goregaon West,Mumbai,"904 A Wing,9 Th Floor,Triple S Heights,Jakeria Road, Goregaon West, Mumbai - 400064, Dist.Mumbai, Maharashtra",7942710871,
"Lecole White Baby Care Products, Packaging Type: Bottle, 2 Year",https://www.indiamart.com/proddetail/baby-care-products-2851691005291.html?pos=2&kwd=baby care products&tags=A||||8741.987|Price|product|||SSnp|rsf:gd-|-stype:attr=1|qr_nm:gd|res:RC4|com-cf:nl|ptrs:na|ktp:N0|mc:137678|mtp:G|qry_typ:P|lang:en|wc:3|flavl:10|cs:9697|v=4,Lecole India (OPC) Private Limited,https://www.lecole.in/?pos=2&kwd=baby care products&tags=A||||8741.987|Price|product|||SSnp|rsf:gd-|-stype:attr=1|qr_nm:gd|res:RC4|com-cf:nl|ptrs:na|ktp:N0|mc:137678|mtp:G|qry_typ:P|lang:en|wc:3|flavl:10|cs:9697|v=4,FALSE,Nanhera,Ambala,"15/3, Kuldeep Nagar, Nanhera Road, Nanhera, Ambala Cantt, Nanhera, Ambala - 133004, Dist.Ambala, Haryana",8045909824,
Private Label Plastic Baby Care Products,https://www.indiamart.com/proddetail/baby-care-products-25557698191.html?pos=3&kwd=baby care products&tags=A||||8817.752|Price|product|||TS|rsf:gd-|-stype:attr=1|qr_nm:gd|res:RC4|com-cf:nl|ptrs:na|ktp:N0|mc:137678|mtp:G|qry_typ:P|lang:en|wc:3|flavl:10|cs:9697|v=4,Sage Herbals Private Limited,https://www.sageherbals.in/?pos=3&kwd=baby care products&tags=A||||8817.752|Price|product|||TS|rsf:gd-|-stype:attr=1|qr_nm:gd|res:RC4|com-cf:nl|ptrs:na|ktp:N0|mc:137678|mtp:G|qry_typ:P|lang:en|wc:3|flavl:10|cs:9697|v=4,TRUE,Colony,Hapur,"A-8, Upsidc Industrial Area, M.g.road, Phase-ii Nimri Colony,, Colony, Hapur - 245101, Dist.Hapur, Uttar Pradesh",8046031505,
"Baby Care Products Third Party Manufacturing, 1-2 Years",https://www.indiamart.com/proddetail/baby-care-products-third-party-manufacturing-26471424662.html?pos=4&kwd=baby care products&tags=A||||8741.987|Price|product|||TS|rsf:gd-|-stype:attr=1|qr_nm:gd|res:RC4|com-cf:nl|ptrs:na|ktp:N0|mc:137678|mtp:G|qry_typ:P|lang:en|wc:3|flavl:10|cs:9697|v=4,Harrods Health Private Limited,https://www.indiamart.com/harrods-health/?pos=4&kwd=baby care products&tags=A||||8741.987|Price|product|||TS|rsf:gd-|-stype:attr=1|qr_nm:gd|res:RC4|com-cf:nl|ptrs:na|ktp:N0|mc:137678|mtp:G|qry_typ:P|lang:en|wc:3|flavl:10|cs:9697|v=4,FALSE,Baldev Nagar,Ambala,"237/6 Sultanpur Chowk Jadot Road,Sultanpur Chowk Jadot Road Ambala City,237/6 Sultan Pur Chowk Jadot Road, Baldev Nagar, Ambala - 134007, Dist.Ambala, Haryana",8048979184,
"Baby Oil, Packaging Type: Bottle",https://www.indiamart.com/proddetail/baby-oil-17483057788.html?pos=5&kwd=baby care products&tags=A||||8741.812|Price|product|||TS|rsf:gd-|-stype:attr=1|qr_nm:gd|res:RC4|com-cf:nl|ptrs:na|ktp:N0|mc:137678|mtp:G|qry_typ:P|lang:en|wc:3|flavl:10|cs:9697|v=4,Bo International,https://www.boessentialoil.com/?pos=5&kwd=baby care products&tags=A||||8741.812|Price|product|||TS|rsf:gd-|-stype:attr=1|qr_nm:gd|res:RC4|com-cf:nl|ptrs:na|ktp:N0|mc:137678|mtp:G|qry_typ:P|lang:en|wc:3|flavl:10|cs:9697|v=4,TRUE,Udyog Vihar Phase 5,Gurugram,"884, Udyog Vihar, Sector 19, Udyog Vihar Phase 5, Udyog Vihar Phase 5, Gurugram - 122016, Dist.Gurgaon, Haryana",8048960874,
"Cream Lotion Kids Personal Care, Packaging Size: 100 gm",https://www.indiamart.com/proddetail/kids-personal-care-2853004106312.html?pos=6&kwd=baby care products&tags=A||||8228.275|Price|product|||TS|rsf:gd-|-stype:attr=1|qr_nm:gd|res:RC4|com-cf:nl|ptrs:na|ktp:N0|mc:137678|mtp:G|qry_typ:P|lang:en|wc:3|flavl:10|cs:9697|v=4,Healthbest Private Limited,https://www.indiamart.com/healthbest/?pos=6&kwd=baby care products&tags=A||||8228.275|Price|product|||TS|rsf:gd-|-stype:attr=1|qr_nm:gd|res:RC4|com-cf:nl|ptrs:na|ktp:N0|mc:137678|mtp:G|qry_typ:P|lang:en|wc:3|flavl:10|cs:9697|v=4,FALSE,Makarba,Ahmedabad,"Ground Floor, Office no. 10, Palladium, Block B, Corporate Road, Makarba, Makarba, Ahmedabad - 382210, Dist.Ahmedabad, Gujarat",8048213932,
Baby Care Products Third Party Manufacturing,https://www.indiamart.com/proddetail/baby-care-products-third-party-manufacturing-21623502573.html?pos=7&kwd=baby care products&tags=A||||8752.144|Price|product|||TS|rsf:gd-|-stype:attr=1|qr_nm:gd|res:RC4|com-cf:nl|ptrs:na|ktp:N0|mc:137678|mtp:G|qry_typ:P|lang:en|wc:3|flavl:10|cs:9697|v=4,Pharmakon Health And Beauty Care Private Limited,https://www.cosmeticthirdpartymanufacturer.com/?pos=7&kwd=baby care products&tags=A||||8752.144|Price|product|||TS|rsf:gd-|-stype:attr=1|qr_nm:gd|res:RC4|com-cf:nl|ptrs:na|ktp:N0|mc:137678|mtp:G|qry_typ:P|lang:en|wc:3|flavl:10|cs:9697|v=4,FALSE,Bawana,New Delhi,"Floor Ground, Plot No. 159, PKT F Sec 3, Dsidc Bhawana, Bawana, New Delhi - 110039, Dist.Delhi, Delhi",8048967800,
"Herbal Baby Skin Care, Packaging Size: 100 mL",https://www.indiamart.com/proddetail/herbal-baby-skin-care-2850821564248.html?pos=8&kwd=baby care products&tags=A||||8223.226|Price|product|||TS|rsf:gd-|-stype:attr=1|qr_nm:gd|res:RC4|com-cf:nl|ptrs:na|ktp:N0|mc:137678|mtp:G|qry_typ:P|lang:en|wc:3|flavl:10|cs:9697|v=4,Nikole Kozmetics Private Limited,https://www.indiamart.com/nikolekozmetics/?pos=8&kwd=baby care products&tags=A||||8223.226|Price|product|||TS|rsf:gd-|-stype:attr=1|qr_nm:gd|res:RC4|com-cf:nl|ptrs:na|ktp:N0|mc:137678|mtp:G|qry_typ:P|lang:en|wc:3|flavl:10|cs:9697|v=4,FALSE,,Thane,"Bunglow No 4, Landmark Complex, Service Road , Louiswadi, Thane - 400604, Dist.Thane, Maharashtra",8047631491,
"Life Purified White Herbal Baby Care, Packaging Type: Bottle, Newly Born",https://www.indiamart.com/proddetail/herbal-baby-care-2853296582230.html?pos=9&kwd=baby care products&tags=A||||8663.873||product|||TS|rsf:gd-|-stype:attr=1|qr_nm:gd|res:RC4|com-cf:nl|ptrs:na|ktp:N0|mc:137678|mtp:G|qry_typ:P|lang:en|wc:3|flavl:10|cs:9697|v=4,Sririshya Naturals,https://www.indiamart.com/sririshya-naturals-bengaluru/?pos=9&kwd=baby care products&tags=A||||8663.873||product|||TS|rsf:gd-|-stype:attr=1|qr_nm:gd|res:RC4|com-cf:nl|ptrs:na|ktp:N0|mc:137678|mtp:G|qry_typ:P|lang:en|wc:3|flavl:10|cs:9697|v=4,FALSE,Mico Layout,Bengaluru,"B3-604, L & T South City, Bannerghatta Road, Arekere, Mico Layout, Urban,, Mico Layout, Bengaluru - 560076, Dist.Bengaluru, Karnataka",7942962540,
"White ICEBERG BABY WIPES, 3-12 Months",https://www.indiamart.com/proddetail/iceberg-baby-wipes-27572431488.html?pos=10&kwd=baby care products&tags=A||||8228.275|Price|product|||TS|rsf:gd-|-stype:attr=1|qr_nm:gd|res:RC4|com-cf:nl|ptrs:na|ktp:N0|mc:137678|mtp:G|qry_typ:P|lang:en|wc:3|flavl:10|cs:9697|v=4,Rush Products,https://www.icebergwetwipe.com/?pos=10&kwd=baby care products&tags=A||||8228.275|Price|product|||TS|rsf:gd-|-stype:attr=1|qr_nm:gd|res:RC4|com-cf:nl|ptrs:na|ktp:N0|mc:137678|mtp:G|qry_typ:P|lang:en|wc:3|flavl:10|cs:9697|v=4,FALSE,Industrial Estate,Ahmedabad,"77-78,GOPALCHARAN INDUSTRIAL GLOBE ROAD NO : 5, Industrial Estate, Ahmedabad - 382430, Dist.Ahmedabad, Gujarat",8046043334,
"Blue Pink Baby Care Kit, Box Packing",https://www.indiamart.com/proddetail/baby-care-kit-2852872270833.html?pos=11&kwd=baby care products&tags=A||||8752.144|Price|product|||TS|rsf:gd-|-stype:attr=1|qr_nm:gd|res:RC4|com-cf:nl|ptrs:na|ktp:N0|mc:137678|mtp:G|qry_typ:P|lang:en|wc:3|flavl:10|cs:9697|v=4,Urbancube,https://www.indiamart.com/urbancube/?pos=11&kwd=baby care products&tags=A||||8752.144|Price|product|||TS|rsf:gd-|-stype:attr=1|qr_nm:gd|res:RC4|com-cf:nl|ptrs:na|ktp:N0|mc:137678|mtp:G|qry_typ:P|lang:en|wc:3|flavl:10|cs:9697|v=4,FALSE,Kamla Nagar,New Delhi,"Ground Floor, 14 UA, Jawahar Nagar, Kamla Nagar, New Delhi - 110007, Dist.Delhi, Delhi",8048980014,
Made In Cotton Fabric Rectangular Infant Utility Box,https://www.indiamart.com/proddetail/infant-utility-box-13265296355.html?pos=12&kwd=baby care products&tags=A||||8778.123|Price|product|||TS|rsf:gd-|-stype:attr=1|qr_nm:gd|res:RC4|com-cf:nl|ptrs:na|ktp:N0|mc:137678|mtp:G|qry_typ:P|lang:en|wc:3|flavl:10|cs:9697|v=4,Oscar Overseas,https://www.oscar-india.com/?pos=12&kwd=baby care products&tags=A||||8778.123|Price|product|||TS|rsf:gd-|-stype:attr=1|qr_nm:gd|res:RC4|com-cf:nl|ptrs:na|ktp:N0|mc:137678|mtp:G|qry_typ:P|lang:en|wc:3|flavl:10|cs:9697|v=4,FALSE,,Noida,"A-99 Sector 5, Noida - 201301, Dist.Gautam Budh Nagar, Uttar Pradesh",8046058290,
"Brown Vinarghya Premium Bal Ghuti, Packaging Type: Box",https://www.indiamart.com/proddetail/vinarghya-premium-bal-ghuti-2853367639333.html?pos=13&kwd=baby care products&tags=A||||8574.766|Price|product|||MDC|rsf:gd-|-stype:attr=1|qr_nm:gd|res:RC4|com-cf:nl|ptrs:na|ktp:N0|mc:137678|mtp:G|qry_typ:P|lang:en|wc:3|flavl:10|cs:9697|v=4,Vinarghya Pharmaceuticals,https://www.indiamart.com/vinarghya-pharmaceuticals/?pos=13&kwd=baby care products&tags=A||||8574.766|Price|product|||MDC|rsf:gd-|-stype:attr=1|qr_nm:gd|res:RC4|com-cf:nl|ptrs:na|ktp:N0|mc:137678|mtp:G|qry_typ:P|lang:en|wc:3|flavl:10|cs:9697|v=4,FALSE,Gudadhi,Motala,"Birla Gate No. 1 Ramdaspeth, Gudadhi, Motala - 443103, Dist.Buldhana, Maharashtra",8044014580,
"Baby Care Products, 3-12 Months",https://www.indiamart.com/proddetail/baby-care-products-2854160850555.html?pos=14&kwd=baby care products&tags=A||||8281.036|Price|product|||TS|rsf:gd-|-stype:attr=1|qr_nm:gd|res:RC4|com-cf:nl|ptrs:na|ktp:N0|mc:137678|mtp:G|qry_typ:P|lang:en|wc:3|flavl:10|cs:9697|v=4,TYMK Health & Wellness Private Limited,https://www.indiamart.com/tymkhealthandwellness/?pos=14&kwd=baby care products&tags=A||||8281.036|Price|product|||TS|rsf:gd-|-stype:attr=1|qr_nm:gd|res:RC4|com-cf:nl|ptrs:na|ktp:N0|mc:137678|mtp:G|qry_typ:P|lang:en|wc:3|flavl:10|cs:9697|v=4,TRUE,Alkapuri,Vadodara,"614 Opp Circuit House Shreeram Chamber Vadodara, Alkapuri, Vadodara - 390005, Dist.Vadodara, Gujarat",8048978037,
"Baby Cream Lotion, Packaging Type: Bottle, Newly Born",https://www.indiamart.com/proddetail/baby-cream-lotion-24727404591.html?pos=15&kwd=baby care products&tags=A||||8237.554|Price|product|||TS|rsf:gd-|-stype:attr=1|qr_nm:gd|res:RC4|com-cf:nl|ptrs:na|ktp:N0|mc:137678|mtp:G|qry_typ:P|lang:en|wc:3|flavl:10|cs:9697|v=4,Arise Enterprise,https://www.indiamart.com/ariseenterprise-gandhinagar/?pos=15&kwd=baby care products&tags=A||||8237.554|Price|product|||TS|rsf:gd-|-stype:attr=1|qr_nm:gd|res:RC4|com-cf:nl|ptrs:na|ktp:N0|mc:137678|mtp:G|qry_typ:P|lang:en|wc:3|flavl:10|cs:9697|v=4,FALSE,Sector 24,Gandhinagar,"Plot No, B 40, Gidc Electronic Zone, Sector 15, Sector 24, Gandhinagar - 382024, Gujarat",8048982119,
Baby Care Products Manufacturer,,jishan herbal,https://www.jishanherbal.in/?pos=15&kwd=baby care products&tags=A||||8038.093||product|||TS|rsf:gd-|-stype:attr=1|qr_nm:gd|res:RC4|com-cf:nl|ptrs:na|ktp:N0|mc:137678|mtp:G|qry_typ:P|lang:en|wc:3|cs:8885|v=4,TRUE,Rajkot,Rajkot,"Bhagvati Industrial Area, Survey No.46/1, Sub Plot No.1/3 Of Plot No.1, Shed No.1c Vill. Chhapra, Talukalodhika, Rajkot, Rajkot - 360021, Dist.Rajkot, Gujarat",8048615730,
"White Baby Care Products, Packaging Type: Bottle, Newly Born",https://www.indiamart.com/proddetail/baby-care-products-2853464283791.html?pos=16&kwd=baby care products&tags=A||||8751.045|Price|product|||TS|rsf:gd-|-stype:attr=1|qr_nm:gd|res:RC4|com-cf:nl|ptrs:na|ktp:N0|mc:137678|mtp:G|qry_typ:P|lang:en|wc:3|cs:8885|v=4,Jasco Labs Private Limited,https://www.pharmamonopolyindia.com/?pos=16&kwd=baby care products&tags=A||||8751.045|Price|product|||TS|rsf:gd-|-stype:attr=1|qr_nm:gd|res:RC4|com-cf:nl|ptrs:na|ktp:N0|mc:137678|mtp:G|qry_typ:P|lang:en|wc:3|cs:8885|v=4,FALSE,Karuwana,Baddi,"Village Deonghat, Saproon, Karuwana, Baddi - 173205, Dist.Solan, Himachal Pradesh",8048952979,
"Baby Care Products Kit, 1-2 Years",https://www.indiamart.com/proddetail/baby-care-products-kit-2854221224733.html?pos=17&kwd=baby care products&tags=A||||8230.883|Price|product|||TS|rsf:gd-|-stype:attr=1|qr_nm:gd|res:RC4|com-cf:nl|ptrs:na|ktp:N0|mc:137678|mtp:G|qry_typ:P|lang:en|wc:3|cs:8885|v=4,BABYHOLIC,https://www.babyholic.in/?pos=17&kwd=baby care products&tags=A||||8230.883|Price|product|||TS|rsf:gd-|-stype:attr=1|qr_nm:gd|res:RC4|com-cf:nl|ptrs:na|ktp:N0|mc:137678|mtp:G|qry_typ:P|lang:en|wc:3|cs:8885|v=4,FALSE,,Surat,"Ground Floor, Plot No. F/56/, And F/57, Laxmi Narayan Industrial Estate, Udhana, Kailash Fashion, Surat - 394210, Dist.Surat, Gujarat",8045732096,
Mother Sparsh Baby Care Products,,Auro Mira Medi Aids,https://www.indiamart.com/auromiramediaids/?pos=18&kwd=baby care products&tags=A||||8954.051||product|||TS|rsf:gd-|-stype:attr=1|qr_nm:gd|res:RC4|com-cf:nl|ptrs:na|ktp:N0|mc:137678|mtp:G|qry_typ:P|lang:en|wc:3|cs:8885|v=4,FALSE,Adyar,Chennai,"New No. 36, Old No. 32, Shriram Nagar Main Road, Adyar, Chennai - 600113, Dist.Chennai, Tamil Nadu",8048988682,
"Plastic LITTLE MONKEYS BABY MILK POWDER CONTAINER, Type: Non Disposable",https://www.indiamart.com/proddetail/little-monkeys-baby-milk-powder-container-2854118718933.html?pos=19&kwd=baby care products&tags=A||||8752.144|Price|product|||TS|rsf:gd-|-stype:attr=1|qr_nm:gd|res:RC4|com-cf:nl|ptrs:na|ktp:N0|mc:137678|mtp:G|qry_typ:P|lang:en|wc:3|cs:8885|v=4,Ekta Overseas,https://www.indiamart.com/ektaoverseas-newdelhi/?pos=19&kwd=baby care products&tags=A||||8752.144|Price|product|||TS|rsf:gd-|-stype:attr=1|qr_nm:gd|res:RC4|com-cf:nl|ptrs:na|ktp:N0|mc:137678|mtp:G|qry_typ:P|lang:en|wc:3|cs:8885|v=4,FALSE,Shahdara,New Delhi,"1/95, Gali No.3, Near Navjeevan Phisical Center, Vishwas Nagar, Shahdara,, Shahdara, New Delhi - 110032, Dist.Delhi, Delhi",7942628926,
"Baby Care Products Contract Manufacturers, Packaging Size: 100 mL",https://www.indiamart.com/proddetail/baby-care-products-contract-manufacturers-2852505988055.html?pos=20&kwd=baby care products&tags=BA||||8228.275|Price|product|||TS|rsf:gd-|-stype:attr=1|qr_nm:gd|res:RC4|com-cf:nl|ptrs:na|ktp:N0|mc:137678|mtp:G|qry_typ:P|lang:en|wc:3|cs:8885|v=4,Orchid Lifesciences,https://www.orchidlifesciences.in/?pos=20&kwd=baby care products&tags=BA||||8228.275|Price|product|||TS|rsf:gd-|-stype:attr=1|qr_nm:gd|res:RC4|com-cf:nl|ptrs:na|ktp:N0|mc:137678|mtp:G|qry_typ:P|lang:en|wc:3|cs:8885|v=4,FALSE,Industrial Estate,Ahmedabad,"68-72, Tribhuvan Industrial Estate, Road No. 11, Nr. Kathwada GIDC, Kathwada, Industrial Estate, Ahmedabad - 382430, Dist.Ahmedabad, Gujarat",8047794905,
Mother and Baby Care Third Party Manufacturers,https://www.indiamart.com/proddetail/mother-and-baby-care-third-party-manufacturers-2853670650891.html?pos=21&kwd=baby care products&tags=BA||||8785.791|Price|product|||TS|rsf:gd-|-stype:attr=1|qr_nm:gd|res:RC4|com-cf:nl|ptrs:na|ktp:N0|mc:137678|mtp:G|qry_typ:P|lang:en|wc:3|cs:8885|v=4,Aarnav Global Exports,https://www.aarnavglobal.com/?pos=21&kwd=baby care products&tags=BA||||8785.791|Price|product|||TS|rsf:gd-|-stype:attr=1|qr_nm:gd|res:RC4|com-cf:nl|ptrs:na|ktp:N0|mc:137678|mtp:G|qry_typ:P|lang:en|wc:3|cs:8885|v=4,TRUE,Jhandapur,Ghaziabad,"Basement, Plot No 51/1/6, Site-4 Industrial Area, Sahibabad, Jhandapur, Ghaziabad - 201010, Dist.Ghaziabad, Uttar Pradesh",8047637465,
"Arshu Baby Lotion, Bottle, Packaging Size: 200 Ml",https://www.indiamart.com/proddetail/baby-lotion-21932351948.html?pos=22&kwd=baby care products&tags=A||||8740.707|Price|product|||TS|rsf:gd-|-stype:attr=1|qr_nm:gd|res:RC4|com-cf:nl|ptrs:na|ktp:N0|mc:137678|mtp:G|qry_typ:P|lang:en|wc:3|cs:8885|v=4,Zoic Pharmaceuticals,https://www.indiamart.com/zoicpharmaceuticals/?pos=22&kwd=baby care products&tags=A||||8740.707|Price|product|||TS|rsf:gd-|-stype:attr=1|qr_nm:gd|res:RC4|com-cf:nl|ptrs:na|ktp:N0|mc:137678|mtp:G|qry_typ:P|lang:en|wc:3|cs:8885|v=4,FALSE,Sector 8,Sas Nagar,"Plot No. 194, Industrial Area, Sector 8, Sas Nagar - 160055, Dist.Mohali, Punjab",8046035758,
LOOSE Nonwoven L Size Baby Diapers,https://www.indiamart.com/proddetail/l-size-baby-diapers-2849772980330.html?pos=23&kwd=baby care products&tags=BA||||8230.883|Price|product|||TS|rsf:gd-|-stype:attr=1|qr_nm:gd|res:RC4|com-cf:nl|ptrs:na|ktp:N0|mc:137678|mtp:G|qry_typ:P|lang:en|wc:3|cs:8885|v=4,M. D. Hygiene Private Limited,https://www.mdhygieneindia.com/?pos=23&kwd=baby care products&tags=BA||||8230.883|Price|product|||TS|rsf:gd-|-stype:attr=1|qr_nm:gd|res:RC4|com-cf:nl|ptrs:na|ktp:N0|mc:137678|mtp:G|qry_typ:P|lang:en|wc:3|cs:8885|v=4,TRUE,Tadkeshwar,Surat,"Block No. 959, Kim Mandvi Road, Tadkeshwar, Surat - 394170, Dist.Surat, Gujarat",8046050788,
3 to 4 colors Printed Baby Swaddle Wrap,https://www.indiamart.com/proddetail/baby-swaddle-wrap-2852665414655.html?pos=24&kwd=baby care products&tags=BA||||8211.142|Price|product|||TS|rsf:gd-|-stype:attr=1|qr_nm:gd|res:RC4|com-cf:nl|ptrs:na|ktp:N0|mc:137678|mtp:G|qry_typ:P|lang:en|wc:3|cs:8885|v=4,Parass Trading,https://www.indiamart.com/parasstrading/?pos=24&kwd=baby care products&tags=BA||||8211.142|Price|product|||TS|rsf:gd-|-stype:attr=1|qr_nm:gd|res:RC4|com-cf:nl|ptrs:na|ktp:N0|mc:137678|mtp:G|qry_typ:P|lang:en|wc:3|cs:8885|v=4,FALSE,Chembur,Mumbai,"Room no 3, First Floor, Plot no 39, Next to Shivaji Nagar police station,Kherwadi Plot no 39, Chembur, Mumbai - 400071, Dist.Mumbai, Maharashtra",8047631170,
"Body Care Products, Packaging Size: 100 gm",https://www.indiamart.com/proddetail/body-care-products-2854792958412.html?pos=25&kwd=baby care products&tags=BB||||8778.123|Price|product|||MDC|rsf:gd-|-stype:attr=1|qr_nm:gd|res:RC4|com-cf:nl|ptrs:na|ktp:N0|mc:137678|mtp:G|qry_typ:P|lang:en|wc:3|cs:8885|v=4,Aaranyam Natural Cosmetic Private Limited,https://www.indiamart.com/aaranyamnaturalcosmetic/?pos=25&kwd=baby care products&tags=BB||||8778.123|Price|product|||MDC|rsf:gd-|-stype:attr=1|qr_nm:gd|res:RC4|com-cf:nl|ptrs:na|ktp:N0|mc:137678|mtp:G|qry_typ:P|lang:en|wc:3|cs:8885|v=4,FALSE,,Noida,"B,71, Sector 65, Noida, Noida - 201301, Dist.Gautam Budh Nagar, Uttar Pradesh",8048961194,
"Baby Care Products, More than 12 months",https://www.indiamart.com/proddetail/baby-care-products-2854402307548.html?pos=26&kwd=baby care products&tags=A||||8204.559|Price|product|||TS|rsf:gd-|-stype:attr=1|qr_nm:gd|res:RC4|com-cf:nl|ptrs:na|ktp:N0|mc:137678|mtp:G|qry_typ:P|lang:en|wc:3|cs:8885|v=4,Girnar Ayurvedic Pharmacy Private Limited,https://www.girnarayurvedic.net/?pos=26&kwd=baby care products&tags=A||||8204.559|Price|product|||TS|rsf:gd-|-stype:attr=1|qr_nm:gd|res:RC4|com-cf:nl|ptrs:na|ktp:N0|mc:137678|mtp:G|qry_typ:P|lang:en|wc:3|cs:8885|v=4,FALSE,Chiada,Bavla,"At Zekda, Survey No 59, Tal Bavla, Dist Ahmedabad, Chiada, Bavla - 382220, Dist.Ahmedabad, Gujarat",8046031347,
"Baby Care Pack - Cough Syrup, Massage Oil, Gripe Water,baby Cream, 1-2 Years",,Lexine Technochem Private Limited,https://www.lexine.in/?pos=27&kwd=baby care products&tags=A||||8281.036||product|||TS|rsf:gd-|-stype:attr=1|qr_nm:gd|res:RC4|com-cf:nl|ptrs:na|ktp:N0|mc:137678|mtp:G|qry_typ:P|lang:en|wc:3|cs:8885|v=4,TRUE,Sayajigunj,Vadodara,"Opposite World Trade Center, 202, 2nd Flower, Sayajigunj, Sayajigunj, Vadodara - 390005, Dist.Vadodara, Gujarat",7942564658,
"Printed Unisex Newborn Baby Towels, 0-3",https://www.indiamart.com/proddetail/newborn-baby-towels-23538380848.html?pos=29&kwd=baby care products&tags=BA||||8706.263|Price|product|||TS|rsf:gd-|-stype:attr=1|qr_nm:gd|res:RC4|com-cf:nl|ptrs:na|ktp:N0|mc:137678|mtp:G|qry_typ:P|lang:en|wc:3|cs:8885|v=4,Mercury Weavers,https://www.indiamart.com/mercuryweavers/?pos=29&kwd=baby care products&tags=BA||||8706.263|Price|product|||TS|rsf:gd-|-stype:attr=1|qr_nm:gd|res:RC4|com-cf:nl|ptrs:na|ktp:N0|mc:137678|mtp:G|qry_typ:P|lang:en|wc:3|cs:8885|v=4,FALSE,Gowripuram,Karur,"35/3, 2nd Floor, Gandhi Nagar 3rd Cross, Karur Town, Gowripuram, Karur - 639001, Dist.Karur, Tamil Nadu",8047641180,
"MADHAV ENTERORISE Pink Baby Nail Clippers, Packaging Type: Box, 1-2 Years",https://www.indiamart.com/proddetail/baby-nail-clippers-2852515332891.html?pos=30&kwd=baby care products&tags=A||||8230.883|Price|product|||TS|rsf:gd-|-stype:attr=1|qr_nm:gd|res:RC4|com-cf:nl|ptrs:na|ktp:N0|mc:137678|mtp:G|qry_typ:P|lang:en|wc:3|cs:8885|v=4,Preet Enterprise,https://www.indiamart.com/preetenterprise/?pos=30&kwd=baby care products&tags=A||||8230.883|Price|product|||TS|rsf:gd-|-stype:attr=1|qr_nm:gd|res:RC4|com-cf:nl|ptrs:na|ktp:N0|mc:137678|mtp:G|qry_typ:P|lang:en|wc:3|cs:8885|v=4,FALSE,Dabholi,Surat,"Plot No. 143/144, 1st Floor, Krushnanagar Society, Singanpur Road, Dabholi, Surat - 395004, Dist.Surat, Gujarat",8043885554,
Plastic Baby Piano Play Gym,https://www.indiamart.com/proddetail/baby-piano-play-gym-2854444998788.html?pos=31&kwd=baby care products&tags=A||||8752.144|Price|product|||TS|rsf:gd-|-stype:attr=1|qr_nm:gd|res:RC4|com-cf:nl|ptrs:na|ktp:N0|mc:137678|mtp:G|qry_typ:P|lang:en|wc:3|cs:8885|v=4,Indial Premium Products,https://www.indiamart.com/indial-premium-products/?pos=31&kwd=baby care products&tags=A||||8752.144|Price|product|||TS|rsf:gd-|-stype:attr=1|qr_nm:gd|res:RC4|com-cf:nl|ptrs:na|ktp:N0|mc:137678|mtp:G|qry_typ:P|lang:en|wc:3|cs:8885|v=4,FALSE,,New Delhi,"68, K Block, Jahangirpuri North West Delhi, New Delhi - 110033, Dist.Delhi, Delhi",8045732973,
"Baby Care Products Kit 10 Pieces, More than 12 months",https://www.indiamart.com/proddetail/baby-care-products-kit-10-pieces-2854846597255.html?pos=32&kwd=baby care products&tags=A||||8752.144|Price|product|||MDC|rsf:gd-|-stype:attr=1|qr_nm:gd|res:RC4|com-cf:nl|ptrs:na|ktp:N0|mc:137678|mtp:G|qry_typ:P|lang:en|wc:3|cs:8885|v=4,B-Qube Enterprises,https://www.indiamart.com/bqube-enterprises/?pos=32&kwd=baby care products&tags=A||||8752.144|Price|product|||MDC|rsf:gd-|-stype:attr=1|qr_nm:gd|res:RC4|com-cf:nl|ptrs:na|ktp:N0|mc:137678|mtp:G|qry_typ:P|lang:en|wc:3|cs:8885|v=4,FALSE,Karol Bagh,New Delhi,"303, Iiird Floor,13/4, W.E.A.,Karol Bagh, Karol Bagh, New Delhi - 110005, Dist.Delhi, Delhi",8047313183,
"Oasis Derma Baby Wet Wipes Manufacturer, GMP, Packaging Size: Costomised",https://www.indiamart.com/proddetail/baby-wet-wipes-manufacturer-2848950292088.html?pos=33&kwd=baby care products&tags=BA||||8228.275|Price|product|||TS|rsf:gd-|-stype:attr=1|qr_nm:gd|res:RC4|com-cf:nl|ptrs:na|ktp:N0|mc:137678|mtp:G|qry_typ:P|lang:en|wc:3|cs:8885|v=4,Jina Cosmetics Private Limited,https://www.jinaindia.in/?pos=33&kwd=baby care products&tags=BA||||8228.275|Price|product|||TS|rsf:gd-|-stype:attr=1|qr_nm:gd|res:RC4|com-cf:nl|ptrs:na|ktp:N0|mc:137678|mtp:G|qry_typ:P|lang:en|wc:3|cs:8885|v=4,TRUE,Sanand,Ahmedabad,"Plot no. 22 to 25, Sonal Industrial Estate, Sanand Sanand- Viramgam Highway,, Sanand, Ahmedabad - 382110, Dist.Ahmedabad, Gujarat",8047648163,
Wall Mounted Baby Protection Safety Seat,https://www.indiamart.com/proddetail/wall-mounted-baby-protection-safety-seat-2852047264362.html?pos=34&kwd=baby care products&tags=A||||8211.142|Price|product|||TS|rsf:gd-|-stype:attr=1|qr_nm:gd|res:RC4|com-cf:nl|ptrs:na|ktp:N0|mc:137678|mtp:G|qry_typ:P|lang:en|wc:3|cs:8885|v=4,Orchids International,https://www.indiamart.com/orchid-international-maharashtra/?pos=34&kwd=baby care products&tags=A||||8211.142|Price|product|||TS|rsf:gd-|-stype:attr=1|qr_nm:gd|res:RC4|com-cf:nl|ptrs:na|ktp:N0|mc:137678|mtp:G|qry_typ:P|lang:en|wc:3|cs:8885|v=4,FALSE,Mahim,Mumbai,"2 Floor, Gala No 209, Allied Industrial Premises Co-Op. Soc. Ltd, Ram Panjawani Marg, Mahim -W, Mahim, Mumbai - 400016, Dist.Mumbai, Maharashtra",7942708611,
"Paraben Free Products Newborn Baby Kit 5 Piece Set, For Gift Purpose",https://www.indiamart.com/proddetail/newborn-baby-kit-5-piece-set-2851787540655.html?pos=35&kwd=baby care products&tags=A||||8211.142|Price|product|||TS|rsf:gd-|-stype:attr=1|qr_nm:gd|res:RC4|com-cf:nl|ptrs:na|ktp:N0|mc:137678|mtp:G|qry_typ:P|lang:en|wc:3|cs:8885|v=4,Babuline Pharma Pvt. Ltd.,https://www.babuline.net/?pos=35&kwd=baby care products&tags=A||||8211.142|Price|product|||TS|rsf:gd-|-stype:attr=1|qr_nm:gd|res:RC4|com-cf:nl|ptrs:na|ktp:N0|mc:137678|mtp:G|qry_typ:P|lang:en|wc:3|cs:8885|v=4,FALSE,Mazgaon,Mumbai,"406, 4th Floor, Gulab Building, 237 P D Mello Road, Fort, Mazgaon, Mumbai - 400001, Dist.Mumbai, Maharashtra",8048964178,
Mothercare All We Know Baby Milk Bath 300ml,https://www.indiamart.com/proddetail/mothercare-all-we-know-baby-milk-bath-300ml-2854845171297.html?pos=36&kwd=baby care products&tags=A||||8230.883||product|||TS|rsf:gd-|-stype:attr=1|qr_nm:gd|res:RC4|com-cf:nl|ptrs:na|ktp:N0|mc:137678|mtp:G|qry_typ:P|lang:en|wc:3|cs:8885|v=4,Eravat Trading Co.,https://www.eravattradingco.in/?pos=36&kwd=baby care products&tags=A||||8230.883||product|||TS|rsf:gd-|-stype:attr=1|qr_nm:gd|res:RC4|com-cf:nl|ptrs:na|ktp:N0|mc:137678|mtp:G|qry_typ:P|lang:en|wc:3|cs:8885|v=4,FALSE,,Surat,"2nd Floor Plot 1, Shop No 1 Matawadi Ghael Estate Varachha, Surat - 395006, Dist.Surat, Gujarat",8047530467,
"Asha Programme, Ecd Kits, Hbyc Kit, Hbnc Kit, For Personal, Child Age Group: 0-3 Yrs",https://www.indiamart.com/proddetail/asha-programme-ecd-kits-hbyc-kit-hbnc-kit-2851902132362.html?pos=37&kwd=baby care products&tags=A||||8752.144|Price|product|||TS|rsf:gd-|-stype:attr=1|qr_nm:gd|res:RC4|com-cf:nl|ptrs:na|ktp:N0|mc:137678|mtp:G|qry_typ:P|lang:en|wc:3|cs:8885|v=4,OSR Medplus,https://www.indiamart.com/osr-medplus/?pos=37&kwd=baby care products&tags=A||||8752.144|Price|product|||TS|rsf:gd-|-stype:attr=1|qr_nm:gd|res:RC4|com-cf:nl|ptrs:na|ktp:N0|mc:137678|mtp:G|qry_typ:P|lang:en|wc:3|cs:8885|v=4,FALSE,Badli,New Delhi,"Kh.No-22/25/2,Gali No-4, Industrial Area Village, Samaipur, Badli, New Delhi - 110042, Dist.Delhi, Delhi",8046056352,
Sia Baby Care Shampoo,https://www.indiamart.com/proddetail/sia-baby-care-shampoo-2854218504797.html?pos=38&kwd=baby care products&tags=A||||8876.815|Price|product|||MDC|rsf:gd-|-stype:attr=1|qr_nm:gd|res:RC4|com-cf:nl|ptrs:na|ktp:N0|mc:137678|mtp:G|qry_typ:P|lang:en|wc:3|cs:8885|v=4,Triveni Pharmaceutical,https://www.indiamart.com/triveni-pharmaceutical-nagpur/?pos=38&kwd=baby care products&tags=A||||8876.815|Price|product|||MDC|rsf:gd-|-stype:attr=1|qr_nm:gd|res:RC4|com-cf:nl|ptrs:na|ktp:N0|mc:137678|mtp:G|qry_typ:P|lang:en|wc:3|cs:8885|v=4,FALSE,Wathoda Power,Nagpur,"Shop No.01, Vatsalya Bhoomi Bridge, Nagpur Rural, Wathoda Power, Wathoda Power, Nagpur - 440008, Dist.Nagpur, Maharashtra",8041015969,
Silicone Baby Toothbrush,https://www.indiamart.com/proddetail/silicone-baby-toothbrush-2854238911348.html?pos=39&kwd=baby care products&tags=BB||||8752.144|Price|product|||TS|rsf:gd-|-stype:attr=1|qr_nm:gd|res:RC4|com-cf:nl|ptrs:na|ktp:N0|mc:137678|mtp:G|qry_typ:P|lang:en|wc:3|cs:8885|v=4,VN Enterprise,https://www.indiamart.com/vn-enterprise-new-delhi/?pos=39&kwd=baby care products&tags=BB||||8752.144|Price|product|||TS|rsf:gd-|-stype:attr=1|qr_nm:gd|res:RC4|com-cf:nl|ptrs:na|ktp:N0|mc:137678|mtp:G|qry_typ:P|lang:en|wc:3|cs:8885|v=4,FALSE,,New Delhi,"Wz-1013d, Gali No-13, Sadh Nagar, Palam Colony, New Delhi - 110045, Dist.Delhi, Delhi",8045734282,
"White Baby Care Products, Packaging Type: Bottle, 3-12 Months",https://www.indiamart.com/proddetail/baby-care-products-2852975354062.html?pos=40&kwd=baby care products&tags=A||||8741.987|Price|product|||TS|rsf:gd-|-stype:attr=1|qr_nm:gd|res:RC4|com-cf:nl|ptrs:na|ktp:N0|mc:137678|mtp:G|qry_typ:P|lang:en|wc:3|cs:8885|v=4,Pine Herbals India,https://www.pineherbalsindia.com/?pos=40&kwd=baby care products&tags=A||||8741.987|Price|product|||TS|rsf:gd-|-stype:attr=1|qr_nm:gd|res:RC4|com-cf:nl|ptrs:na|ktp:N0|mc:137678|mtp:G|qry_typ:P|lang:en|wc:3|cs:8885|v=4,FALSE,Tharwa,Ambala,"H.b. 182 Unnamed Road Mirzapur, Tharwa, Ambala - 133004, Dist.Ambala, Haryana",7942706441,
250 gm Rashee Cares Herbal Delicate Skin Baby Bath Powder,https://www.indiamart.com/proddetail/250-gm-rashee-cares-herbal-delicate-skin-baby-bath-powder-2853477063162.html?pos=41&kwd=baby care products&tags=BA||||8954.051|Price|product|||MDC|rsf:gd-|-stype:attr=1|qr_nm:gd|res:RC4|com-cf:nl|ptrs:na|ktp:N0|mc:137678|mtp:G|qry_typ:P|lang:en|wc:3|cs:8885|v=4,Rashee Cares,https://www.indiamart.com/rashee-cares/?pos=41&kwd=baby care products&tags=BA||||8954.051|Price|product|||MDC|rsf:gd-|-stype:attr=1|qr_nm:gd|res:RC4|com-cf:nl|ptrs:na|ktp:N0|mc:137678|mtp:G|qry_typ:P|lang:en|wc:3|cs:8885|v=4,FALSE,Vivekananthar Nagar 3rd Main Road,Chennai,"1, 9th Cross Street, Pallikaranai, Vivekananthar Nagar 3rd Main Road, Chennai - 600100, Dist.Chennai, Tamil Nadu",7949092851,
Drip Irrigation Water Timer Digital Controller Fully Automatic Adapters Batteries Included Child Lock Feature Programmable Garden Lawn Hose Faucet System Auto & Manual Mode 3Inch Large Screen,https://www.indiamart.com/proddetail/drip-irrigation-water-timer-digital-controller-fully-automatic-adapters-batteries-included-child-lock-feature-programmable-garden-lawn-hose-faucet-system-auto-manual-mode-3inch-large-screen-2853635381630.html?pos=42&kwd=baby care products&tags=A||||8211.142|Price|product|||TS|rsf:gd-|-stype:attr=1|qr_nm:gd|res:RC4|com-cf:nl|ptrs:na|ktp:N0|mc:137678|mtp:G|qry_typ:P|lang:en|wc:3|cs:8885|v=4,Bombay Electronics,https://www.indiamart.com/bombayelectronics-mumbai/?pos=42&kwd=baby care products&tags=A||||8211.142|Price|product|||TS|rsf:gd-|-stype:attr=1|qr_nm:gd|res:RC4|com-cf:nl|ptrs:na|ktp:N0|mc:137678|mtp:G|qry_typ:P|lang:en|wc:3|cs:8885|v=4,FALSE,Grant Road,Mumbai,"13- B Shamrao Vithal Marg Off Lamington Road, Grant Road, Mumbai - 400007, Dist.Mumbai, Maharashtra",,
250ml Baby Hair Oil (BULK ORDERS ONLY),https://www.indiamart.com/proddetail/250ml-baby-hair-oil-bulk-orders-only-2853038125055.html?pos=43&kwd=baby care products&tags=A||||8769.508|Price|product|||TS|rsf:gd-|-stype:attr=1|qr_nm:gd|res:RC4|com-cf:nl|ptrs:na|ktp:N0|mc:137678|mtp:G|qry_typ:P|lang:en|wc:3|cs:8885|v=4,Babi Beauty Cosmetics,https://www.indiamart.com/babi-beauty-cosmetics/?pos=43&kwd=baby care products&tags=A||||8769.508|Price|product|||TS|rsf:gd-|-stype:attr=1|qr_nm:gd|res:RC4|com-cf:nl|ptrs:na|ktp:N0|mc:137678|mtp:G|qry_typ:P|lang:en|wc:3|cs:8885|v=4,FALSE,Tilpat,Faridabad,"Floor 3, Plot No 2, 14/3, Mathura Road, Tilpat, Faridabad - 121003, Dist.Faridabad, Haryana",7942964701,
"Baby Care Products, Newly Born",https://www.indiamart.com/proddetail/baby-care-products-2854364545091.html?pos=44&kwd=baby care products&tags=A||||8752.144|Price|product|||MDC|rsf:gd-|-stype:attr=1|qr_nm:gd|res:RC4|com-cf:nl|ptrs:na|ktp:N0|mc:137678|mtp:G|qry_typ:P|lang:en|wc:3|cs:8885|v=4,Shopindia,https://www.indiamart.com/shopindia-delhi/?pos=44&kwd=baby care products&tags=A||||8752.144|Price|product|||MDC|rsf:gd-|-stype:attr=1|qr_nm:gd|res:RC4|com-cf:nl|ptrs:na|ktp:N0|mc:137678|mtp:G|qry_typ:P|lang:en|wc:3|cs:8885|v=4,FALSE,Khyala,New Delhi,"F/F, RZ-129 Old No.RZ-57, West Block, Vishnu Garden, Khyala, New Delhi - 110018, Dist.Delhi, Delhi",8047832403,
Bos Medicare Baby Nipple,https://www.indiamart.com/proddetail/bos-medicare-baby-nipple-25013868873.html?pos=45&kwd=baby care products&tags=BA||||8752.144|Price|product|||TS|rsf:gd-|-stype:attr=1|qr_nm:gd|res:RC4|com-cf:nl|ptrs:na|ktp:N0|mc:137678|mtp:G|qry_typ:P|lang:en|wc:3|cs:8885|v=4,Bos Medicare Surgical,https://www.bosmedicare.com/?pos=45&kwd=baby care products&tags=BA||||8752.144|Price|product|||TS|rsf:gd-|-stype:attr=1|qr_nm:gd|res:RC4|com-cf:nl|ptrs:na|ktp:N0|mc:137678|mtp:G|qry_typ:P|lang:en|wc:3|cs:8885|v=4,FALSE,Kishan Ganj,New Delhi,"Shop No 155, Kishan Ganj Market, Old Rohtak Road, Kishan Ganj, Kishan Ganj, New Delhi - 110007, Dist.Delhi, Delhi",7942826425,
"REVERA NATURALS BABY BATH GENTLE & MOISTURIZING BABY SOAP, Packaging Type: Box, 1-2 Years",https://www.indiamart.com/proddetail/baby-bath-gentle-moisturizing-baby-soap-2853016604948.html?pos=46&kwd=baby care products&tags=BA||||8038.093|Price|product|||LSlc|rsf:gd-|-stype:attr=1|qr_nm:gd|res:RC4|com-cf:nl|ptrs:na|ktp:N0|mc:137678|mtp:G|qry_typ:P|lang:en|wc:3|cs:8885|v=4,Elegant Cosmed Private Limited,https://www.elegantcosmed.co.in/?pos=46&kwd=baby care products&tags=BA||||8038.093|Price|product|||LSlc|rsf:gd-|-stype:attr=1|qr_nm:gd|res:RC4|com-cf:nl|ptrs:na|ktp:N0|mc:137678|mtp:G|qry_typ:P|lang:en|wc:3|cs:8885|v=4,FALSE,Kuvadava,Rajkot,"Plot No. 32 & 33, G. I. D. C. Estate Kuvadava, Kuvadava, Rajkot - 360023, Dist.Rajkot, Gujarat",8046059176,
"Bello Baby Shampoo, 100 ml, 3-12 Months",https://www.indiamart.com/proddetail/bello-baby-shampoo-22649076962.html?pos=47&kwd=baby care products&tags=A||||8786.56|Price|product|||TS|rsf:gd-|-stype:attr=1|qr_nm:gd|res:RC4|com-cf:nl|ptrs:na|ktp:N0|mc:137678|mtp:G|qry_typ:P|lang:en|wc:3|cs:8885|v=4,Syndy Pharma,https://www.indiamart.com/syndypharma/?pos=47&kwd=baby care products&tags=A||||8786.56|Price|product|||TS|rsf:gd-|-stype:attr=1|qr_nm:gd|res:RC4|com-cf:nl|ptrs:na|ktp:N0|mc:137678|mtp:G|qry_typ:P|lang:en|wc:3|cs:8885|v=4,FALSE,,Hyderabad,"159/C, Syndy Pharma, Phase - II, IDA Cherlapally, Medchal Malkajgiri, Hyderabad - 500051, Dist.Hyderabad, Telangana",8046078274,
Gentle Baby Shampoo,https://www.indiamart.com/proddetail/gentle-baby-shampoo-2854196668962.html?pos=48&kwd=baby care products&tags=A||||8038.093|Price|product|||TS|rsf:gd-|-stype:attr=1|qr_nm:gd|res:RC4|com-cf:nl|ptrs:na|ktp:N0|mc:137678|mtp:G|qry_typ:P|lang:en|wc:3|cs:8885|v=4,Alday Healthcare,https://www.alday.in/?pos=48&kwd=baby care products&tags=A||||8038.093|Price|product|||TS|rsf:gd-|-stype:attr=1|qr_nm:gd|res:RC4|com-cf:nl|ptrs:na|ktp:N0|mc:137678|mtp:G|qry_typ:P|lang:en|wc:3|cs:8885|v=4,FALSE,Mavadi Industrial Area,Rajkot,"Plot no.15, Umiya ind. zone-4, National Highway 27 Opp. Umiya steel, At. Ribda, Nr. Shapar,, Mavadi Industrial Area, Rajkot - 360004, Dist.Rajkot, Gujarat",8048951814,
"Liquid Red Baby Care Products, Packaging Type: Bottle, Packaging Size: 100 ml",https://www.indiamart.com/proddetail/baby-care-products-22649858248.html?pos=49&kwd=baby care products&tags=A||||8778.123|Price|product|||TS|rsf:gd-|-stype:attr=1|qr_nm:gd|res:RC4|com-cf:nl|ptrs:na|ktp:N0|mc:137678|mtp:G|qry_typ:P|lang:en|wc:3|cs:8885|v=4,A.G Industries,https://www.agindustries.net/?pos=49&kwd=baby care products&tags=A||||8778.123|Price|product|||TS|rsf:gd-|-stype:attr=1|qr_nm:gd|res:RC4|com-cf:nl|ptrs:na|ktp:N0|mc:137678|mtp:G|qry_typ:P|lang:en|wc:3|cs:8885|v=4,TRUE,Sector 85,Noida,"Ground, C 11 Sector 85, Sector 85, Noida - 201305, Dist.Gautam Budh Nagar, Uttar Pradesh",8046035112,
"Upto 2 Years Santulan Baby Cream, Packaging Type: Tube, Packaging Size: 50 Gm",https://www.indiamart.com/proddetail/santulan-baby-cream-20845140133.html?pos=50&kwd=baby care products&tags=A||||8307.81|Price|product|||MDC|rsf:gd-|-stype:attr=1|qr_nm:gd|res:RC4|com-cf:nl|ptrs:na|ktp:N0|mc:137678|mtp:G|qry_typ:P|lang:en|wc:3|cs:8885|v=4,Shatayu Ayurved,https://www.indiamart.com/satayuayurved/?pos=50&kwd=baby care products&tags=A||||8307.81|Price|product|||MDC|rsf:gd-|-stype:attr=1|qr_nm:gd|res:RC4|com-cf:nl|ptrs:na|ktp:N0|mc:137678|mtp:G|qry_typ:P|lang:en|wc:3|cs:8885|v=4,FALSE,Sant Nagar,Pune,"Shop No. 1, 2, Saisadan Apartment, Sant Nagar, Pune - 411009, Dist.Pune, Maharashtra",8047632746,
"Herbal Orange 200 ml Tripushp Stop Bed Wet Syrup For Baby Bed Wet, Non prescription, Treatment: Natural",https://www.indiamart.com/proddetail/200-ml-tripushp-stop-bed-wet-syrup-for-baby-bed-wet-22307757748.html?pos=51&kwd=baby care products&tags=A||||8717.056|Price|product|||MDC|rsf:gd-|-stype:attr=1|qr_nm:gd|res:RC4|com-cf:nl|ptrs:na|ktp:N0|mc:137678|mtp:G|qry_typ:P|lang:en|wc:3|cs:8885|v=4,Angel Voice Center,https://www.indiamart.com/angel-voice-center/?pos=51&kwd=baby care products&tags=A||||8717.056|Price|product|||MDC|rsf:gd-|-stype:attr=1|qr_nm:gd|res:RC4|com-cf:nl|ptrs:na|ktp:N0|mc:137678|mtp:G|qry_typ:P|lang:en|wc:3|cs:8885|v=4,FALSE,,Salem,"113/2, Shankar Nagar, 1st Floor, Rajiv Gandhi Road, Salem - 636007, Dist.Salem, Tamil Nadu",8046057769,
"White Silicone Baby Toothbrush, 3-12 Months",https://www.indiamart.com/proddetail/silicone-baby-toothbrush-2852724173633.html?pos=52&kwd=baby care products&tags=A||||8752.144|Price|product|||MDC|rsf:gd-|-stype:attr=1|qr_nm:gd|res:RC4|com-cf:nl|ptrs:na|ktp:N0|mc:137678|mtp:G|qry_typ:P|lang:en|wc:3|cs:8885|v=4,Soni India Traders,https://www.indiamart.com/soniindiatraders/?pos=52&kwd=baby care products&tags=A||||8752.144|Price|product|||MDC|rsf:gd-|-stype:attr=1|qr_nm:gd|res:RC4|com-cf:nl|ptrs:na|ktp:N0|mc:137678|mtp:G|qry_typ:P|lang:en|wc:3|cs:8885|v=4,FALSE,Khureji Khas,New Delhi,"First Floor A-4 Street No.3 New Brij Puri Khureji Khas, Khureji Khas, New Delhi - 110051, Dist.Delhi, Delhi",7942720625,
"Baby Message Cream skin care, Packaging Type: Bottle, Packaging Size: 200ml",https://www.indiamart.com/proddetail/baby-message-cream-skin-care-2851933820112.html?pos=53&kwd=baby care products&tags=BA||||8741.987|Price|product|||TS|rsf:gd-|-stype:attr=1|qr_nm:gd|res:RC4|com-cf:nl|ptrs:na|ktp:N0|mc:137678|mtp:G|qry_typ:P|lang:en|wc:3|cs:8885|v=4,Croodle Care,https://www.indiamart.com/crodle-care-ambala/?pos=53&kwd=baby care products&tags=BA||||8741.987|Price|product|||TS|rsf:gd-|-stype:attr=1|qr_nm:gd|res:RC4|com-cf:nl|ptrs:na|ktp:N0|mc:137678|mtp:G|qry_typ:P|lang:en|wc:3|cs:8885|v=4,FALSE,Mahavir Nagar,Ambala,"4 Khasra No.15-15/3/3 Rajendra Nagar, Mahavir Nagar, Ambala - 133004, Dist.Ambala, Haryana",7942816764,
"baby shower cap, 3-12 Months",https://www.indiamart.com/proddetail/baby-shower-cap-2854921957633.html?pos=54&kwd=baby care products&tags=BA||||8230.883|Price|product|||MDC|rsf:gd-|-stype:attr=1|qr_nm:gd|res:RC4|com-cf:nl|ptrs:na|ktp:N0|mc:137678|mtp:G|qry_typ:P|lang:en|wc:3|cs:8885|v=4,V S Enterprise,https://www.indiamart.com/vsenterprise-gujarat/?pos=54&kwd=baby care products&tags=BA||||8230.883|Price|product|||MDC|rsf:gd-|-stype:attr=1|qr_nm:gd|res:RC4|com-cf:nl|ptrs:na|ktp:N0|mc:137678|mtp:G|qry_typ:P|lang:en|wc:3|cs:8885|v=4,FALSE,Katargam,Surat,"B/501, Buil- B Sahstrafana Saubhagya Residency, Opp Western Somchintamani, Pal, Katargam, Surat - 395009, Dist.Surat, Gujarat",8048971602,
"Baby Gard Oil, Packaging Type: Box, Packaging Size: 100ml",https://www.indiamart.com/proddetail/baby-gard-oil-22862615812.html?pos=55&kwd=baby care products&tags=BA||||8704.343|Price|product|||MDC|rsf:gd-|-stype:attr=1|qr_nm:gd|res:RC4|com-cf:nl|ptrs:na|ktp:N0|mc:137678|mtp:G|qry_typ:P|lang:en|wc:3|cs:8885|v=4,Kirat Pharmatech,https://www.indiamart.com/kirat-pharmatech/?pos=55&kwd=baby care products&tags=BA||||8704.343|Price|product|||MDC|rsf:gd-|-stype:attr=1|qr_nm:gd|res:RC4|com-cf:nl|ptrs:na|ktp:N0|mc:137678|mtp:G|qry_typ:P|lang:en|wc:3|cs:8885|v=4,FALSE,Bagichi Het Ram,Patiala,"Shop No. 1, Near Pacific Resort, Factory Area, Bagichi Het Ram, Patiala - 147001, Dist.Patiala, Punjab",8046064814,
Baby Care Products,https://www.indiamart.com/proddetail/baby-care-products-2854296335833.html?pos=57&kwd=baby care products&tags=BA||||8741.987|Price|product|||TS|rsf:gd-|-stype:attr=1|qr_nm:gd|res:RC4|com-cf:nl|ptrs:na|ktp:N0|mc:137678|mtp:G|qry_typ:P|lang:en|wc:3|cs:8885|v=4,G.T.B. Soaps,https://www.indiamart.com/gtb-soaps/?pos=57&kwd=baby care products&tags=BA||||8741.987|Price|product|||TS|rsf:gd-|-stype:attr=1|qr_nm:gd|res:RC4|com-cf:nl|ptrs:na|ktp:N0|mc:137678|mtp:G|qry_typ:P|lang:en|wc:3|cs:8885|v=4,FALSE,Cantt,Ambala,"Shop No. 16-17, Village Mohra, Dukheri Road, Ambala Cantt, Cantt, Ambala - 133001, Dist.Ambala, Haryana",8046077675,
"Multicolor Touch Baby Care Set, Packaging Type: Packet, Newly Born",https://www.indiamart.com/proddetail/touch-baby-care-set-2853197067148.html?pos=58&kwd=baby care products&tags=BA||||9839.57|Price|product|||TS|rsf:gd-|-stype:attr=1|qr_nm:gd|res:RC4|com-cf:nl|ptrs:na|ktp:N0|mc:137678|mtp:G|qry_typ:P|lang:en|wc:3|cs:8885|v=4,Add Life Human Care Private Limited,https://www.indiamart.com/addlife-human-care/?pos=58&kwd=baby care products&tags=BA||||9839.57|Price|product|||TS|rsf:gd-|-stype:attr=1|qr_nm:gd|res:RC4|com-cf:nl|ptrs:na|ktp:N0|mc:137678|mtp:G|qry_typ:P|lang:en|wc:3|cs:8885|v=4,FALSE,Beleghata East,Kolkata,"26/H/4 Barwari Tala Road Beliaghata, Beleghata East, Kolkata - 700010, Dist.Kolkata, West Bengal",7949220551,
"Glint Baby Shampoo, Packaging Type: Pet Bottle, Liquid",https://www.indiamart.com/proddetail/baby-shampoo-4898652730.html?pos=59&kwd=baby care products&tags=BA||||8226.563|Price|product|||LSlc|rsf:gd-|-stype:attr=1|qr_nm:gd|res:RC4|com-cf:nl|ptrs:na|ktp:N0|mc:137678|mtp:G|qry_typ:P|lang:en|wc:3|cs:8885|v=4,Glint Cosmetics Private Limited,https://www.glintcosmeticsindia.com/?pos=59&kwd=baby care products&tags=BA||||8226.563|Price|product|||LSlc|rsf:gd-|-stype:attr=1|qr_nm:gd|res:RC4|com-cf:nl|ptrs:na|ktp:N0|mc:137678|mtp:G|qry_typ:P|lang:en|wc:3|cs:8885|v=4,FALSE,Midc,Navi Mumbai,"C 216-217-218, T. T. C. Industrial Area, M. I. D. C., Midc, Navi Mumbai - 400705, Dist.Thane, Maharashtra",8048981940,
FROG SHAPE FOLDABLE BABY WASH BASIN 17513,https://www.indiamart.com/proddetail/frog-shape-foldable-baby-wash-basin-17513-2853690145462.html?pos=60&kwd=baby care products&tags=BA||||8038.093|Price|product|||TS|rsf:gd-|-stype:attr=1|qr_nm:gd|res:RC4|com-cf:nl|ptrs:na|ktp:N0|mc:137678|mtp:G|qry_typ:P|lang:en|wc:3|cs:8885|v=4,Deodap,https://www.indiamart.com/deodap/?pos=60&kwd=baby care products&tags=BA||||8038.093|Price|product|||TS|rsf:gd-|-stype:attr=1|qr_nm:gd|res:RC4|com-cf:nl|ptrs:na|ktp:N0|mc:137678|mtp:G|qry_typ:P|lang:en|wc:3|cs:8885|v=4,FALSE,Rajkot,Rajkot,"plot No. 9 Behind Patanjali Werhouse, Ruda Transport, Saat Hanuman Ahemdabad Road, Rajkot, Rajkot - 360005, Dist.Rajkot, Gujarat",8048972316,
Mee Mee Products,https://www.indiamart.com/proddetail/mee-mee-products-23085426788.html?pos=61&kwd=baby care products&tags=BA||||10180.86|Price|product|||TS|rsf:gd-|-stype:attr=1|qr_nm:gd|res:RC4|com-cf:nl|ptrs:na|ktp:N0|mc:137678|mtp:G|qry_typ:P|lang:en|wc:3|cs:8885|v=4,THE NORTH EAST REGION VENDING SOLUTION (NERVS),https://www.indiamart.com/nervs/?pos=61&kwd=baby care products&tags=BA||||10180.86|Price|product|||TS|rsf:gd-|-stype:attr=1|qr_nm:gd|res:RC4|com-cf:nl|ptrs:na|ktp:N0|mc:137678|mtp:G|qry_typ:P|lang:en|wc:3|cs:8885|v=4,FALSE,Bharalumukh,Guwahati,"HOUSE NUMBER 53 , NEAR RAILWAY GATE NUMBER 8, BHARALUMUKH, KRC ROAD, Bharalumukh, Guwahati - 781005, Dist.Kamrup, Assam",7942538832,
Kid- Pack of 1- BPA Free Silicone Liquid Medicine Feeder/Dropper for Baby with Box Transparent,https://www.indiamart.com/proddetail/kid-pack-of-1-bpa-free-silicone-liquid-medicine-feeder-dropper-for-baby-with-box-transparent-2853217658791.html?pos=62&kwd=baby care products&tags=BA||||8230.883|Price|product|||TS|rsf:gd-|-stype:attr=1|qr_nm:gd|res:RC4|com-cf:nl|ptrs:na|ktp:N0|mc:137678|mtp:G|qry_typ:P|lang:en|wc:3|cs:8885|v=4,Rozzby,https://www.cheaperzonetoys.com/?pos=62&kwd=baby care products&tags=BA||||8230.883|Price|product|||TS|rsf:gd-|-stype:attr=1|qr_nm:gd|res:RC4|com-cf:nl|ptrs:na|ktp:N0|mc:137678|mtp:G|qry_typ:P|lang:en|wc:3|cs:8885|v=4,FALSE,Kosam,Surat,"1st Floor D-2,103 Vip Circle Shlok Recidency Utran, Kosam, Surat - 394105, Dist.Surat, Gujarat",8047622002,
"YourBrand BABY SOAP, 75GM, Packaging Size: 75-100 Gram",https://www.indiamart.com/proddetail/yourbrand-baby-soap-23010059888.html?pos=63&kwd=baby care products&tags=BA||||8741.987|Price|product|||TS|rsf:gd-|-stype:attr=1|qr_nm:gd|res:RC4|com-cf:nl|ptrs:na|ktp:N0|mc:137678|mtp:G|qry_typ:P|lang:en|wc:3|cs:8885|v=4,Tres Manos India Private Limited,https://www.indiamart.com/tresmanosindia/?pos=63&kwd=baby care products&tags=BA||||8741.987|Price|product|||TS|rsf:gd-|-stype:attr=1|qr_nm:gd|res:RC4|com-cf:nl|ptrs:na|ktp:N0|mc:137678|mtp:G|qry_typ:P|lang:en|wc:3|cs:8885|v=4,FALSE,Kuldeep Nagar,Ambala,"Po Kuldeep Nagar Nanhera, Kuldeep Nagar, Ambala - 133004, Dist.Ambala, Haryana",7942548451,
"Baby Care Products, Packaging Type: Bottle, 3-12 Months",,The Good Karma Co.,https://www.indiamart.com/the-good-karma-co/?pos=64&kwd=baby care products&tags=BA||||8741.812||product|||MDC|rsf:gd-|-stype:attr=1|qr_nm:gd|res:RC4|com-cf:nl|ptrs:na|ktp:N0|mc:137678|mtp:G|qry_typ:P|lang:en|wc:3|cs:8885|v=4,FALSE,Sector 44,Gurgaon,"PLOT NO 28 SECTOR 33 GURGAON, Sector 44, Gurgaon - 122003, Dist.Gurgaon, Haryana",7942552565,
"Krushan White Baby Care Products, Packaging Type: Box, Newly Born",https://www.indiamart.com/proddetail/baby-care-products-2851596413055.html?pos=65&kwd=baby care products&tags=BA||||8038.093|Price|product|||MDC|rsf:gd-|-stype:attr=1|qr_nm:gd|res:RC4|com-cf:nl|ptrs:na|ktp:N0|mc:137678|mtp:G|qry_typ:P|lang:en|wc:3|cs:8885|v=4,Krusan Incorporation,https://www.indiamart.com/krusan-incorporation/?pos=65&kwd=baby care products&tags=BA||||8038.093|Price|product|||MDC|rsf:gd-|-stype:attr=1|qr_nm:gd|res:RC4|com-cf:nl|ptrs:na|ktp:N0|mc:137678|mtp:G|qry_typ:P|lang:en|wc:3|cs:8885|v=4,FALSE,Sadar,Rajkot,"Plot No. 1P, Ravki RS No. 206P5 New 327, Shed No. 4, Balaji Industrial Area, Ravki, Sadar, Rajkot - 360022, Dist.Rajkot, Gujarat",7942800736,
"Baby Care Products Kit, 3-12 Months",,Shubham Enterprises,https://www.indiamart.com/shubhamenterprises-ratia/?pos=66&kwd=baby care products&tags=BB||||8617.287|Price|product|||MDC|rsf:gd-|-stype:attr=1|qr_nm:gd|res:RC4|com-cf:nl|ptrs:na|ktp:N0|mc:137678|mtp:G|qry_typ:P|lang:en|wc:3|cs:8885|v=4,FALSE,,Ratia,"Ward No. 02, Purana Bazar, Bharti Niketan High School, Ratia - 125051, Dist.Fatehabad, Haryana",7949330115,
"Totil Palaga Wooden Baby Products, Packaging Type: 12pcs pack, 3-12 Months",https://www.indiamart.com/proddetail/baby-products-2851066226848.html?pos=67&kwd=baby care products&tags=BA||||8954.051|Price|product|||MDC|rsf:gd-|-stype:attr=1|qr_nm:gd|res:RC4|com-cf:nl|ptrs:na|ktp:N0|mc:137678|mtp:G|qry_typ:P|lang:en|wc:3|cs:8885|v=4,Sri Piyush Enterprises,https://www.indiamart.com/sri-piyush-enterprises/?pos=67&kwd=baby care products&tags=BA||||8954.051|Price|product|||MDC|rsf:gd-|-stype:attr=1|qr_nm:gd|res:RC4|com-cf:nl|ptrs:na|ktp:N0|mc:137678|mtp:G|qry_typ:P|lang:en|wc:3|cs:8885|v=4,FALSE,Sowcarpet,Chennai,"19/21, Pamidi Complex, Kasi Chetty Street, Sowcarpet,, Sowcarpet, Chennai - 600079, Dist.Chennai, Tamil Nadu",8043860290,
"Himalaya Gentle Baby Soap 125gm, Packaging Type: Box",https://www.indiamart.com/proddetail/himalaya-gentle-baby-soap-125gm-2853687296788.html?pos=68&kwd=baby care products&tags=BA||||8331.224|Price|product|||MDC|rsf:gd-|-stype:attr=1|qr_nm:gd|res:RC4|com-cf:nl|ptrs:na|ktp:N0|mc:137678|mtp:G|qry_typ:P|lang:en|wc:3|cs:8885|v=4,Shri Siddhivinayak Distributors,https://www.indiamart.com/shrisiddhivinayak-distributors/?pos=68&kwd=baby care products&tags=BA||||8331.224|Price|product|||MDC|rsf:gd-|-stype:attr=1|qr_nm:gd|res:RC4|com-cf:nl|ptrs:na|ktp:N0|mc:137678|mtp:G|qry_typ:P|lang:en|wc:3|cs:8885|v=4,FALSE,New Shahupuri,Kolhapur,"Cs No 372/3, E Ward, Ghoarpade Galli, New Shahupuri, Kolhapur - 416003, Dist.Kolhapur, Maharashtra",7949095151,
"White Mothercare Baby Milk Bath, Packaging Type: Bottle, Newly Born",https://www.indiamart.com/proddetail/mothercare-baby-milk-bath-2853403211662.html?pos=69&kwd=baby care products&tags=BA||||9618.383|Price|product|||MDC|rsf:gd-|-stype:attr=1|qr_nm:gd|res:RC4|com-cf:nl|ptrs:na|ktp:N0|mc:137678|mtp:G|qry_typ:P|lang:en|wc:3|cs:8885|v=4,Texco,https://www.indiamart.com/texco/?pos=69&kwd=baby care products&tags=BA||||9618.383|Price|product|||MDC|rsf:gd-|-stype:attr=1|qr_nm:gd|res:RC4|com-cf:nl|ptrs:na|ktp:N0|mc:137678|mtp:G|qry_typ:P|lang:en|wc:3|cs:8885|v=4,FALSE,Bistupur,Jamshedpur,"Shop No. 2, Main Road, Bistupur, Bistupur, Jamshedpur - 831001, Dist.East Singhbhum, Jharkhand",7949092933,
"UMA ENTERPRISE MULTY BABY KNEE PAD, Packaging Type: Box, 3-12 Months",https://www.indiamart.com/proddetail/baby-knee-pad-2852954235233.html?pos=70&kwd=baby care products&tags=BA||||8230.883|Price|product|||MDC|rsf:gd-|-stype:attr=1|qr_nm:gd|res:RC4|com-cf:nl|ptrs:na|ktp:N0|mc:137678|mtp:G|qry_typ:P|lang:en|wc:3|cs:8885|v=4,Uma Enterprise,https://www.indiamart.com/umaenterprisesurat/?pos=70&kwd=baby care products&tags=BA||||8230.883|Price|product|||MDC|rsf:gd-|-stype:attr=1|qr_nm:gd|res:RC4|com-cf:nl|ptrs:na|ktp:N0|mc:137678|mtp:G|qry_typ:P|lang:en|wc:3|cs:8885|v=4,FALSE,Majura Gate,Surat,"72, Hari Ichchha Industrial Co Op Society, A K Road, Majura Gate, Surat - 395008, Dist.Surat, Gujarat",7942713138,
"New Products Inin, Newly Born",https://www.indiamart.com/proddetail/new-products-inin-2854517941762.html?pos=71&kwd=baby care products&tags=BA||||8663.873|Price|product|||MDC|rsf:gd-|-stype:attr=1|qr_nm:gd|res:RC4|com-cf:nl|ptrs:na|ktp:N0|mc:137678|mtp:G|qry_typ:P|lang:en|wc:3|cs:8885|v=4,Rajeshwar Industries,https://www.indiamart.com/rajeshwar-industries/?pos=71&kwd=baby care products&tags=BA||||8663.873|Price|product|||MDC|rsf:gd-|-stype:attr=1|qr_nm:gd|res:RC4|com-cf:nl|ptrs:na|ktp:N0|mc:137678|mtp:G|qry_typ:P|lang:en|wc:3|cs:8885|v=4,FALSE,Seegehalli,Bengaluru,"Sy No. 16, No 92/15, Seegehalli, Seegehalli, Bengaluru - 560091, Dist.Bengaluru, Karnataka",8046068623,
Baby head protector,,Kapil Enterprises,https://www.indiamart.com/kapilenterprisesnew-delhi/?pos=72&kwd=baby care products&tags=A||||8752.144|Price|product|||MDC|rsf:gd-|-stype:attr=1|qr_nm:gd|res:RC4|com-cf:nl|ptrs:na|ktp:N0|mc:137678|mtp:G|qry_typ:P|lang:en|wc:3|cs:8885|v=4,FALSE,Vijay Vihar,New Delhi,"Ground Floor, E-25, Vijay Vihar, Near Badi Masjid, Rohini Sector 7, North West Delhi, Vijay Vihar, New Delhi - 110085, Dist.Delhi, Delhi",7949092118,
Baby Care Kit,https://www.indiamart.com/proddetail/baby-care-kit-14177983273.html?pos=73&kwd=baby care products&tags=BB||||8752.144|Price|product|||TS|rsf:gd-|-stype:attr=1|qr_nm:gd|res:RC4|com-cf:nl|ptrs:na|ktp:N0|mc:137678|mtp:G|qry_typ:P|lang:en|wc:3|cs:8885|v=4,Fairbizps,https://www.indiamart.com/fairbizps/?pos=73&kwd=baby care products&tags=BB||||8752.144|Price|product|||TS|rsf:gd-|-stype:attr=1|qr_nm:gd|res:RC4|com-cf:nl|ptrs:na|ktp:N0|mc:137678|mtp:G|qry_typ:P|lang:en|wc:3|cs:8885|v=4,TRUE,Laxmi Nagar,New Delhi,"No. 348/4A, Asha Ram, Street No. 4, Subedar Chowk Mandawali, Laxmi Nagar, New Delhi - 110092, Dist.Delhi, Delhi",8048610174,
"Multicolor Newborn Baby Care Kits, Packaging Type: Box",https://www.indiamart.com/proddetail/newborn-baby-care-kits-2853692993855.html?pos=74&kwd=baby care products&tags=BA||||8230.883|Price|product|||TS|rsf:gd-|-stype:attr=1|qr_nm:gd|res:RC4|com-cf:nl|ptrs:na|ktp:N0|mc:137678|mtp:G|qry_typ:P|lang:en|wc:3|cs:8885|v=4,Alpyog Marketing,https://www.alpyogmarketing.com/?pos=74&kwd=baby care products&tags=BA||||8230.883|Price|product|||TS|rsf:gd-|-stype:attr=1|qr_nm:gd|res:RC4|com-cf:nl|ptrs:na|ktp:N0|mc:137678|mtp:G|qry_typ:P|lang:en|wc:3|cs:8885|v=4,FALSE,Singanpor,Surat,"SY No,1-36, 1st Floor, Talav Falia, Rear Side, Post Siganpore, Katargam, Singanpor, Surat - 395004, Dist.Surat, Gujarat",8048968669,
Baby Nail Trimmer,,Trizen Enterprises,https://www.indiamart.com/trizenenterprises/?pos=75&kwd=baby care products&tags=BA||||8211.142||product|||TS|rsf:gd-|-stype:attr=1|qr_nm:gd|res:RC4|com-cf:nl|ptrs:na|ktp:N0|mc:137678|mtp:G|qry_typ:P|lang:en|wc:3|cs:8885|v=4,FALSE,Town Hall,Mumbai,"9, Ground Floor, Madina Building, Musafirkhana Road, Crawford Market, Next to Sara Market Gate, Town Hall, Mumbai - 400001, Dist.Mumbai, Maharashtra",8046070421,
"Natural Diaper Rash Cream, Packaging Size: 50GM, Normal Skin",https://www.indiamart.com/proddetail/baby-diaper-rash-cream-2853049717288.html?pos=76&kwd=baby care products&tags=BA||||8791.36|Price|product|||TS|rsf:gd-|-stype:attr=1|qr_nm:gd|res:RC4|com-cf:nl|ptrs:na|ktp:N0|mc:137678|mtp:G|qry_typ:P|lang:en|wc:3|cs:8885|v=4,Royal Industries,https://www.royalindustries.in.net/?pos=76&kwd=baby care products&tags=BA||||8791.36|Price|product|||TS|rsf:gd-|-stype:attr=1|qr_nm:gd|res:RC4|com-cf:nl|ptrs:na|ktp:N0|mc:137678|mtp:G|qry_typ:P|lang:en|wc:3|cs:8885|v=4,FALSE,Rawli Road,Muradnagar,"Khasra No - 103,,Krishna Sagar Hotel, MURAD NAGAR,Ghaziabad, Rawli Road, Muradnagar - 201206, Dist.Ghaziabad, Uttar Pradesh",8048272564,
Cotton Baby Embroidered Bib,https://www.indiamart.com/proddetail/baby-embroidered-bib-2852542446973.html?pos=77&kwd=baby care products&tags=BA||||8752.144|Price|product|||TS|rsf:gd-|-stype:attr=1|qr_nm:gd|res:RC4|com-cf:nl|ptrs:na|ktp:N0|mc:137678|mtp:G|qry_typ:P|lang:en|wc:3|cs:8885|v=4,Man Singh & Sons Private Limited,https://www.babyproductsmanufacturer.com/?pos=77&kwd=baby care products&tags=BA||||8752.144|Price|product|||TS|rsf:gd-|-stype:attr=1|qr_nm:gd|res:RC4|com-cf:nl|ptrs:na|ktp:N0|mc:137678|mtp:G|qry_typ:P|lang:en|wc:3|cs:8885|v=4,FALSE,Karol Bagh,New Delhi,"No. 13/24, 1st Floor, W. E. A., Karol Bagh, Karol Bagh, New Delhi - 110005, Dist.Delhi, Delhi",8048978579,
Baby Body Oils,https://www.indiamart.com/proddetail/baby-body-oils-25653566373.html?pos=78&kwd=baby care products&tags=BA||||8752.144|Price|product|||TS|rsf:gd-|-stype:attr=1|qr_nm:gd|res:RC4|com-cf:nl|ptrs:na|ktp:N0|mc:137678|mtp:G|qry_typ:P|lang:en|wc:3|cs:8885|v=4,AMBROSIA HERBALS,https://www.indiamart.com/ambrosia-herbals/?pos=78&kwd=baby care products&tags=BA||||8752.144|Price|product|||TS|rsf:gd-|-stype:attr=1|qr_nm:gd|res:RC4|com-cf:nl|ptrs:na|ktp:N0|mc:137678|mtp:G|qry_typ:P|lang:en|wc:3|cs:8885|v=4,FALSE,,New Delhi,"B-18/5, B-Block, Jhilmil Industrial Area, Shahdara, New Delhi - 110095, Dist.Delhi, Delhi",8048986694,
"Syga Pink Baby Healthcare Kit, Packaging Type: Box",https://www.indiamart.com/proddetail/baby-healthcare-kit-19811576730.html?pos=79&kwd=baby care products&tags=BA||||8228.275|Price|product|||TS|rsf:gd-|-stype:attr=1|qr_nm:gd|res:RC4|com-cf:nl|ptrs:na|ktp:N0|mc:137678|mtp:G|qry_typ:P|lang:en|wc:3|cs:8885|v=4,Syga Home Furnishing,https://www.indiamart.com/sygahomefurnishing/?pos=79&kwd=baby care products&tags=BA||||8228.275|Price|product|||TS|rsf:gd-|-stype:attr=1|qr_nm:gd|res:RC4|com-cf:nl|ptrs:na|ktp:N0|mc:137678|mtp:G|qry_typ:P|lang:en|wc:3|cs:8885|v=4,FALSE,Navrangpura,Ahmedabad,"A-503, Samudra Complex, Near Girish Cold Drinks C. G. Road, Navrangpura, Navrangpura, Ahmedabad - 380009, Dist.Ahmedabad, Gujarat",8048985837,
Multicolor Silicone Suction Plate,https://www.indiamart.com/proddetail/silicone-suction-plate-27503133048.html?pos=80&kwd=baby care products&tags=BB||||8038.093|Price|product|||TS|rsf:gd-|-stype:attr=1|qr_nm:gd|res:RC4|com-cf:nl|ptrs:na|ktp:N0|mc:137678|mtp:G|qry_typ:P|lang:en|wc:3|cs:8885|v=4,Aditi Techno LLP,https://www.indiamart.com/adititechno/?pos=80&kwd=baby care products&tags=BB||||8038.093|Price|product|||TS|rsf:gd-|-stype:attr=1|qr_nm:gd|res:RC4|com-cf:nl|ptrs:na|ktp:N0|mc:137678|mtp:G|qry_typ:P|lang:en|wc:3|cs:8885|v=4,FALSE,Metoda,Rajkot,"Plot No-2628/3, Gate No-1, Main Road, Metoda GIDC,, Metoda, Rajkot - 360021, Dist.Rajkot, Gujarat",8046041944,
Mitsico Cotton Summer Baby Knee Pads Kids Anti Slip Crawl Necessary Knee Protector Baby Leg,https://www.indiamart.com/proddetail/mitsico-cotton-summer-baby-knee-pads-kids-anti-slip-crawl-necessary-knee-protector-baby-leg-25534087430.html?pos=81&kwd=baby care products&tags=BA||||8230.883|Price|product|||TS|rsf:gd-|-stype:attr=1|qr_nm:gd|res:RC4|com-cf:nl|ptrs:na|ktp:N0|mc:137678|mtp:G|qry_typ:P|lang:en|wc:3|cs:8885|v=4,Mitsico,https://www.mitsico.in/?pos=81&kwd=baby care products&tags=BA||||8230.883|Price|product|||TS|rsf:gd-|-stype:attr=1|qr_nm:gd|res:RC4|com-cf:nl|ptrs:na|ktp:N0|mc:137678|mtp:G|qry_typ:P|lang:en|wc:3|cs:8885|v=4,FALSE,KATARGAM,Surat,"Basement-1, Shop No.- A1, Sunday Hub Shopping Center, Amba Talavadi, Opp. Shree Vinayak Residency, KATARGAM, Surat - 395004, Dist.Surat, Gujarat",8047649165,
Gadhiya impex Plastic baby cap bath,https://www.indiamart.com/proddetail/baby-cap-bath-2850540678830.html?pos=82&kwd=baby care products&tags=BA||||8230.883|Price|product|||TS|rsf:gd-|-stype:attr=1|qr_nm:gd|res:RC4|com-cf:nl|ptrs:na|ktp:N0|mc:137678|mtp:G|qry_typ:P|lang:en|wc:3|cs:8885|v=4,Gadhiya Impex.,https://www.gadhiyaimpex.com/?pos=82&kwd=baby care products&tags=BA||||8230.883|Price|product|||TS|rsf:gd-|-stype:attr=1|qr_nm:gd|res:RC4|com-cf:nl|ptrs:na|ktp:N0|mc:137678|mtp:G|qry_typ:P|lang:en|wc:3|cs:8885|v=4,FALSE,Katargam,Surat,"8th, 804, Variav Road, Panchshila Sky, Katargam, Surat - 394520, Dist.Surat, Gujarat",8047619805,
"Multicolor Cotton 3 In 1 Baby Sleeping Bag, Newly Born, 3-12 Months",https://www.indiamart.com/proddetail/cotton-3-in-1-baby-sleeping-bag-newly-born-2855059597333.html?pos=83&kwd=baby care products&tags=BB||||8230.883|Price|product|||TS|rsf:gd-|-stype:attr=1|qr_nm:gd|res:RC4|com-cf:nl|ptrs:na|ktp:N0|mc:137678|mtp:G|qry_typ:P|lang:en|wc:3|cs:8885|v=4,Hemiza Enterprise,https://www.hemiza.in/?pos=83&kwd=baby care products&tags=BB||||8230.883|Price|product|||TS|rsf:gd-|-stype:attr=1|qr_nm:gd|res:RC4|com-cf:nl|ptrs:na|ktp:N0|mc:137678|mtp:G|qry_typ:P|lang:en|wc:3|cs:8885|v=4,FALSE,Katargam,Surat,"71, Ground Floor, Shubhash Nagar Society Near Shakti Nagar Ni Vadi, Katargam, Surat - 395004, Dist.Surat, Gujarat",8048976391,
Baby Massage Oil,https://www.indiamart.com/proddetail/baby-massage-oil-2854884256912.html?pos=85&kwd=baby care products&tags=B||||8754.115|Price|product|||TS|rsf:gd-|-stype:attr=1|qr_nm:gd|res:RC4|com-cf:nl|ptrs:na|ktp:N0|mc:137678|mtp:G|qry_typ:P|lang:en|wc:3|cs:8885|v=4,Bendic Health Care Private Limited,https://www.bendichealthcare.co.in/?pos=85&kwd=baby care products&tags=B||||8754.115|Price|product|||TS|rsf:gd-|-stype:attr=1|qr_nm:gd|res:RC4|com-cf:nl|ptrs:na|ktp:N0|mc:137678|mtp:G|qry_typ:P|lang:en|wc:3|cs:8885|v=4,FALSE,,Panchkula,"PLOT NO 217A,,Phase 2,Panchkula PLOT NO 217A, FIRST FLOOR, Phase 2, Panchkula, Panchkula, Haryana, 134113,134113,, Panchkula - 134113, Dist.Panchkula, Haryana",8044459751,
Stright LLDP plastic Little Fingers gambola,https://www.indiamart.com/proddetail/little-fingers-gambola-2853663965430.html?pos=86&kwd=baby care products&tags=BA||||8537.336|Price|product|||TS|rsf:gd-|-stype:attr=1|qr_nm:gd|res:RC4|com-cf:nl|ptrs:na|ktp:N0|mc:137678|mtp:G|qry_typ:P|lang:en|wc:3|cs:8885|v=4,F & F Amusement Ride Industries,https://www.fandfamusementride.com/?pos=86&kwd=baby care products&tags=BA||||8537.336|Price|product|||TS|rsf:gd-|-stype:attr=1|qr_nm:gd|res:RC4|com-cf:nl|ptrs:na|ktp:N0|mc:137678|mtp:G|qry_typ:P|lang:en|wc:3|cs:8885|v=4,FALSE,Ayathil,Kollam,"VP XIII 734N, Near Munnanikulam, Puliyathumukku -Thekkekavu Temple Road, Ayathil, Kollam - 691021, Dist.Kollam, Kerala",8048953486,
"White Sebamed Baby Produts, Packaging Type: Box, Newly Born",https://www.indiamart.com/proddetail/sebamed-baby-produts-24683761473.html?pos=87&kwd=baby care products&tags=BA||||8954.051|Price|product|||TS|rsf:gd-|-stype:attr=1|qr_nm:gd|res:RC4|com-cf:nl|ptrs:na|ktp:N0|mc:137678|mtp:G|qry_typ:P|lang:en|wc:3|cs:8885|v=4,Murugan Surgicals,https://www.murugansurgicals.co.in/?pos=87&kwd=baby care products&tags=BA||||8954.051|Price|product|||TS|rsf:gd-|-stype:attr=1|qr_nm:gd|res:RC4|com-cf:nl|ptrs:na|ktp:N0|mc:137678|mtp:G|qry_typ:P|lang:en|wc:3|cs:8885|v=4,FALSE,Mint Building,Chennai,"Old No.34/35 Newno.87, Walltax Road, Mint Building, Chennai - 600001, Dist.Chennai, Tamil Nadu",8048974268,
"Baby Toothpaste, Packaging Type: Tube, 1-2 Years",https://www.indiamart.com/proddetail/baby-toothpaste-24760901830.html?pos=88&kwd=baby care products&tags=BA||||8228.275|Price|product|||TS|rsf:gd-|-stype:attr=1|qr_nm:gd|res:RC4|com-cf:nl|ptrs:na|ktp:N0|mc:137678|mtp:G|qry_typ:P|lang:en|wc:3|cs:8885|v=4,Hcp Wellness Private Limited,https://www.cosmeticmanufacturers.com/?pos=88&kwd=baby care products&tags=BA||||8228.275|Price|product|||TS|rsf:gd-|-stype:attr=1|qr_nm:gd|res:RC4|com-cf:nl|ptrs:na|ktp:N0|mc:137678|mtp:G|qry_typ:P|lang:en|wc:3|cs:8885|v=4,FALSE,Thaltej,Ahmedabad,"403 Opp. Global Hospital, Sindhubhavan Road, Bodakdev Elanza Vertex Sindhu Bhavan Road, S. G. Highway, Thaltej, Ahmedabad - 380059, Dist.Ahmedabad, Gujarat",8048980123,
Baby Protection Seat,https://www.indiamart.com/proddetail/baby-protection-seat-25303609162.html?pos=89&kwd=baby care products&tags=BB||||8211.142|Price|product|||TS|rsf:gd-|-stype:attr=1|qr_nm:gd|res:RC4|com-cf:nl|ptrs:na|ktp:N0|mc:137678|mtp:G|qry_typ:P|lang:en|wc:3|cs:8885|v=4,Orchids Tissue Paper Products,https://www.indiamart.com/orchidstissuepaperproducts/?pos=89&kwd=baby care products&tags=BB||||8211.142|Price|product|||TS|rsf:gd-|-stype:attr=1|qr_nm:gd|res:RC4|com-cf:nl|ptrs:na|ktp:N0|mc:137678|mtp:G|qry_typ:P|lang:en|wc:3|cs:8885|v=4,FALSE,Mahim,Mumbai,"Shop No 209/210, Allied Industrial Estate, Ram Panjwani Road, Mahim, Mahim, Mumbai - 400016, Dist.Mumbai, Maharashtra",8046045706,
"Multivoiz Multivitamin Multimineral Drops, 30 ml, Prescription",https://www.indiamart.com/proddetail/multivitamin-multimineral-drops-21796880173.html?pos=90&kwd=baby care products&tags=BA||||8754.115|Price|product|||TS|rsf:gd-|-stype:attr=1|qr_nm:gd|res:RC4|com-cf:nl|ptrs:na|ktp:N0|mc:137678|mtp:G|qry_typ:P|lang:en|wc:3|cs:8885|v=4,Voizmed Pharma Private Limited,https://www.voizmed.co.in/?pos=90&kwd=baby care products&tags=BA||||8754.115|Price|product|||TS|rsf:gd-|-stype:attr=1|qr_nm:gd|res:RC4|com-cf:nl|ptrs:na|ktp:N0|mc:137678|mtp:G|qry_typ:P|lang:en|wc:3|cs:8885|v=4,FALSE,Panchkula Industrial Area Phase 1,Panchkula,"PLOT NO 363 II FLOOR,IND AREA,PHASE II, Panchkula Industrial Area Phase 1, Panchkula - 134113, Dist.Panchkula, Haryana",7942551103,
Cosmetic Products,https://www.indiamart.com/proddetail/cosmetic-products-2853620683697.html?pos=91&kwd=baby care products&tags=BB||||8754.115|Price|product|||TS|rsf:gd-|-stype:attr=1|qr_nm:gd|res:RC4|com-cf:nl|ptrs:na|ktp:N0|mc:137678|mtp:G|qry_typ:P|lang:en|wc:3|cs:8885|v=4,Iretus Biotech Private Limited,https://www.iretusbiotech.com/?pos=91&kwd=baby care products&tags=BB||||8754.115|Price|product|||TS|rsf:gd-|-stype:attr=1|qr_nm:gd|res:RC4|com-cf:nl|ptrs:na|ktp:N0|mc:137678|mtp:G|qry_typ:P|lang:en|wc:3|cs:8885|v=4,FALSE,Budhanpur,Panchkula,"First Floor, Plot No. 151 Industrial Area, Phase 1, Budhanpur, Panchkula - 134113, Dist.Panchkula, Haryana",8048268767,
Multicolor Baby Care Kit Set,https://www.indiamart.com/proddetail/baby-care-kit-set-2853722732497.html?pos=92&kwd=baby care products&tags=B||||8230.883|Price|product|||TS|rsf:gd-|-stype:attr=1|qr_nm:gd|res:RC4|com-cf:nl|ptrs:na|ktp:N0|mc:137678|mtp:G|qry_typ:P|lang:en|wc:3|cs:8885|v=4,Indiab2btrade,https://www.indiab2btrade.com/?pos=92&kwd=baby care products&tags=B||||8230.883|Price|product|||TS|rsf:gd-|-stype:attr=1|qr_nm:gd|res:RC4|com-cf:nl|ptrs:na|ktp:N0|mc:137678|mtp:G|qry_typ:P|lang:en|wc:3|cs:8885|v=4,FALSE,Mota Varachha,Surat,"Ground Floor, Shop No. F/22, Shivdhara Complex, L.P Savani School,Near To Maharaja Farm,, Mota Varachha, Surat - 394105, Dist.Surat, Gujarat",8043816125,
"Baby Soap, Packaging Type: Box, Packaging Size: 75 g",https://www.indiamart.com/proddetail/baby-soap-2854849367473.html?pos=93&kwd=baby care products&tags=BA||||8754.115|Price|product|||TS|rsf:gd-|-stype:attr=1|qr_nm:gd|res:RC4|com-cf:nl|ptrs:na|ktp:N0|mc:137678|mtp:G|qry_typ:P|lang:en|wc:3|cs:8885|v=4,Medplex Biotech Private Limited,https://www.indiamart.com/medplexbiotech/?pos=93&kwd=baby care products&tags=BA||||8754.115|Price|product|||TS|rsf:gd-|-stype:attr=1|qr_nm:gd|res:RC4|com-cf:nl|ptrs:na|ktp:N0|mc:137678|mtp:G|qry_typ:P|lang:en|wc:3|cs:8885|v=4,FALSE,,Panchkula,"Sec No-10, Sector 12-A, Chaudhary Complex Verma, Panchkula - 134112, Dist.Panchkula, Haryana",8047530833,
"Modulyss Adjustable Safe Shampoo Shower Bathing Protection Bath Cap For Toddler, Baby",https://www.indiamart.com/proddetail/modulyss-adjustable-safe-shampoo-shower-bathing-protection-bath-cap-for-toddler-baby-2850158719312.html?pos=94&kwd=baby care products&tags=BA||||8230.883|Price|product|||TS|rsf:gd-|-stype:attr=1|qr_nm:gd|res:RC4|com-cf:nl|ptrs:na|ktp:N0|mc:137678|mtp:G|qry_typ:P|lang:en|wc:3|cs:8885|v=4,Modulyss,https://www.modulyss.in/?pos=94&kwd=baby care products&tags=BA||||8230.883|Price|product|||TS|rsf:gd-|-stype:attr=1|qr_nm:gd|res:RC4|com-cf:nl|ptrs:na|ktp:N0|mc:137678|mtp:G|qry_typ:P|lang:en|wc:3|cs:8885|v=4,FALSE,Katargam,Surat,"Modulyss OFFICE NO :- 2 BASEMENT-1, SUNDAY HUB, NEAR AMBA TALAVDI, OPP ANKUR SCHOOL, KATARGAM, SURAT, Katargam, Surat - 395004, Dist.Surat, Gujarat",7942792869,
"1-2 Years Eurosoft Baby Moisturizing Lotion, Packaging Size: 100 ML",https://www.indiamart.com/proddetail/eurosoft-baby-moisturizing-lotion-2852954778173.html?pos=95&kwd=baby care products&tags=BA||||8601.347|Price|product|||TS|rsf:gd-|-stype:attr=1|qr_nm:gd|res:RC4|com-cf:nl|ptrs:na|ktp:N0|mc:137678|mtp:G|qry_typ:P|lang:en|wc:3|cs:8885|v=4,Steris Healthcare,https://www.sterispharma.in/?pos=95&kwd=baby care products&tags=BA||||8601.347|Price|product|||TS|rsf:gd-|-stype:attr=1|qr_nm:gd|res:RC4|com-cf:nl|ptrs:na|ktp:N0|mc:137678|mtp:G|qry_typ:P|lang:en|wc:3|cs:8885|v=4,FALSE,Shanti Nagar Colony,Jaipur,"A-69 Bhandari Nagar Swage Farm, Shanti Nagar Colony, Jaipur - 302006, Dist.Jaipur, Rajasthan",8047658299,
"Soft White Littloo Baby Finger Tooth Brush, Packaging Type: Box",https://www.indiamart.com/proddetail/littloo-baby-finger-tooth-brush-21930505797.html?pos=96&kwd=baby care products&tags=BA||||8752.144|Price|product|||TS|rsf:gd-|-stype:attr=1|qr_nm:gd|res:RC4|com-cf:nl|ptrs:na|ktp:N0|mc:137678|mtp:G|qry_typ:P|lang:en|wc:3|cs:8885|v=4,Salvia Cosmeceuticals Private Limited,https://www.salviacosmeceuticals.in/?pos=96&kwd=baby care products&tags=BA||||8752.144|Price|product|||TS|rsf:gd-|-stype:attr=1|qr_nm:gd|res:RC4|com-cf:nl|ptrs:na|ktp:N0|mc:137678|mtp:G|qry_typ:P|lang:en|wc:3|cs:8885|v=4,FALSE,Ashok Vihar,New Delhi,"301-A, Prop. No.48, Second Floor, Rama Road, Najafgarh Road Industrial Area, Kirti Nagar, New Delhi,, Ashok Vihar, New Delhi - 110052, Dist.Delhi, Delhi",7942559667,
Chhote Janab Designer Baby Bibs,https://www.indiamart.com/proddetail/chhote-janab-designer-baby-bibs-19619719962.html?pos=97&kwd=baby care products&tags=BA||||8752.144|Price|product|||TS|rsf:gd-|-stype:attr=1|qr_nm:gd|res:RC4|com-cf:nl|ptrs:na|ktp:N0|mc:137678|mtp:G|qry_typ:P|lang:en|wc:3|cs:8885|v=4,Shree Balaji Infant Wear,https://www.indiamart.com/chhotejanab/?pos=97&kwd=baby care products&tags=BA||||8752.144|Price|product|||TS|rsf:gd-|-stype:attr=1|qr_nm:gd|res:RC4|com-cf:nl|ptrs:na|ktp:N0|mc:137678|mtp:G|qry_typ:P|lang:en|wc:3|cs:8885|v=4,FALSE,Pahari Dhiraj,New Delhi,"1583- 84, Hathi Khana, Aziz Ganj, Bahadur Garh Road, Pahari Dhiraj, New Delhi - 110006, Dist.Delhi, Delhi",8047639754,
"Gentle Baby Shampoo(Glycerine, Citric Acid), 75ML",https://www.indiamart.com/proddetail/gentle-baby-shampoo-glycerine-citric-acid-24142255055.html?pos=98&kwd=baby care products&tags=BA||||8706.587|Price|product|||TS|rsf:gd-|-stype:attr=1|qr_nm:gd|res:RC4|com-cf:nl|ptrs:na|ktp:N0|mc:137678|mtp:G|qry_typ:P|lang:en|wc:3|cs:8885|v=4,Sri Vela Pharmacy,https://www.srivelapharmacy.in/?pos=98&kwd=baby care products&tags=BA||||8706.587|Price|product|||TS|rsf:gd-|-stype:attr=1|qr_nm:gd|res:RC4|com-cf:nl|ptrs:na|ktp:N0|mc:137678|mtp:G|qry_typ:P|lang:en|wc:3|cs:8885|v=4,FALSE,Anna Nagar,Madurai,"HIG-28, 80 Feet, Main Road, Anna Nagar, Anna Nagar, Madurai - 625020, Dist.Madurai, Tamil Nadu",8048617702,
"Olitop Baby Soap, Packaging Type: Box, Packaging Size: 75 Gm",https://www.indiamart.com/proddetail/baby-soap-23358304648.html?pos=99&kwd=baby care products&tags=BA||||8708.909|Price|product|||TS|rsf:gd-|-stype:attr=1|qr_nm:gd|res:RC4|com-cf:nl|ptrs:na|ktp:N0|mc:137678|mtp:G|qry_typ:P|lang:en|wc:3|cs:8885|v=4,Swisskem Healthcare,https://www.swisskemhealthcare.com/?pos=99&kwd=baby care products&tags=BA||||8708.909|Price|product|||TS|rsf:gd-|-stype:attr=1|qr_nm:gd|res:RC4|com-cf:nl|ptrs:na|ktp:N0|mc:137678|mtp:G|qry_typ:P|lang:en|wc:3|cs:8885|v=4,FALSE,BATHRI,Una,"Khasra No. 77/3, Bathri Teh. Haroli, Near Goushala, BATHRI, Una - 174301, Himachal Pradesh",8046054672,
"Hemico Adjustable Safe Shampoo Shower Bathing Protection Bath Cap For Toddler, Baby, Kids, Children",https://www.indiamart.com/proddetail/hemico-adjustable-safe-shampoo-shower-bathing-protection-bath-cap-for-toddler-baby-kids-children-25999980191.html?pos=100&kwd=baby care products&tags=BB||||8230.883|Price|product|||TS|rsf:gd-|-stype:attr=1|qr_nm:gd|res:RC4|com-cf:nl|ptrs:na|ktp:N0|mc:137678|mtp:G|qry_typ:P|lang:en|wc:3|cs:8885|v=4,Hemico,https://www.hemico.in/?pos=100&kwd=baby care products&tags=BB||||8230.883|Price|product|||TS|rsf:gd-|-stype:attr=1|qr_nm:gd|res:RC4|com-cf:nl|ptrs:na|ktp:N0|mc:137678|mtp:G|qry_typ:P|lang:en|wc:3|cs:8885|v=4,FALSE,Katargam,Surat,"Basement Shop No.-1, Sunday Hub Shopping Center, Ambatalavdi Road KATARGAM, Katargam, Surat - 395004, Dist.Surat, Gujarat",7942544294,
Baby care kit,https://www.indiamart.com/proddetail/baby-care-kit-2851452443533.html?pos=101&kwd=baby care products&tags=BA||||8752.144|Price|product|||TS|rsf:gd-|-stype:attr=1|qr_nm:gd|res:RC4|com-cf:nl|ptrs:na|ktp:N0|mc:137678|mtp:G|qry_typ:P|lang:en|wc:3|cs:8885|v=4,House Of Luxury,https://www.theholworld.net/?pos=101&kwd=baby care products&tags=BA||||8752.144|Price|product|||TS|rsf:gd-|-stype:attr=1|qr_nm:gd|res:RC4|com-cf:nl|ptrs:na|ktp:N0|mc:137678|mtp:G|qry_typ:P|lang:en|wc:3|cs:8885|v=4,FALSE,Budh Vihar,New Delhi,"Plot No - 5, Kh. No. - 89/10/2, 1, Block No. - I-1, Budh Vihar Phase 1, Delhi, North West Delhi, Del, Budh Vihar, New Delhi - 110086, Dist.Delhi, Delhi",7942819716,
"Baby Nail Trimmer, Baby Nail Clippers, for Newborn Infant Toddler Kids Fingernails Care Trim Polish",https://www.indiamart.com/proddetail/baby-nail-trimmer-baby-nail-clippers-for-newborn-infant-toddler-kids-fingernails-care-trim-polish-2850943266091.html?pos=102&kwd=baby care products&tags=BA||||8230.883|Price|product|||TS|rsf:gd-|-stype:attr=1|qr_nm:gd|res:RC4|com-cf:nl|ptrs:na|ktp:N0|mc:137678|mtp:G|qry_typ:P|lang:en|wc:3|cs:8885|v=4,Trusthaven,https://www.indiamart.com/ankush-international-surat/?pos=102&kwd=baby care products&tags=BA||||8230.883|Price|product|||TS|rsf:gd-|-stype:attr=1|qr_nm:gd|res:RC4|com-cf:nl|ptrs:na|ktp:N0|mc:137678|mtp:G|qry_typ:P|lang:en|wc:3|cs:8885|v=4,FALSE,Varni palace near rasi circle,Surat,"Buil-B, Flat No. B/501, Opp. Western Somchintamani, Sahstrafana Saubhagya Residency, Pal Katargam, Varni palace near rasi circle, Surat - 395009, Dist.Surat, Gujarat",8048964329,
"Cosmetic products manufacturer in Bharat, Packaging Size: 250 ml",https://www.indiamart.com/proddetail/cosmetic-products-manufacturer-in-bharat-2854861764730.html?pos=103&kwd=baby care products&tags=BA||||8281.036|Price|product|||TS|rsf:gd-|-stype:attr=1|qr_nm:gd|res:RC4|com-cf:nl|ptrs:na|ktp:N0|mc:137678|mtp:G|qry_typ:P|lang:en|wc:3|cs:8885|v=4,Satyam Health Care,https://www.satyamhealthcare.co.in/?pos=103&kwd=baby care products&tags=BA||||8281.036|Price|product|||TS|rsf:gd-|-stype:attr=1|qr_nm:gd|res:RC4|com-cf:nl|ptrs:na|ktp:N0|mc:137678|mtp:G|qry_typ:P|lang:en|wc:3|cs:8885|v=4,FALSE,Vadsar,Vadodara,"A-69/anand Nagar 2,, Opp. Makarpura Water Tank,, Gidc - Vadsar Road., Gidc, Vadsar, Vadodara - 390010, Dist.Vadodara, Gujarat",8046045456,
"Dagdu Teli Bal Janam Ghutti, Packaging Type: Box, Packaging Size: 1 Nos",https://www.indiamart.com/proddetail/bal-janam-ghutti-19013063091.html?pos=104&kwd=baby care products&tags=BA||||8316.457|Price|product|||TS|rsf:gd-|-stype:attr=1|qr_nm:gd|res:RC4|com-cf:nl|ptrs:na|ktp:N0|mc:137678|mtp:G|qry_typ:P|lang:en|wc:3|cs:8885|v=4,Dagdu Teli Chandwadkar Trading Company,https://www.indiamart.com/dagdutelichandwadkartradingcompany/?pos=104&kwd=baby care products&tags=BA||||8316.457|Price|product|||TS|rsf:gd-|-stype:attr=1|qr_nm:gd|res:RC4|com-cf:nl|ptrs:na|ktp:N0|mc:137678|mtp:G|qry_typ:P|lang:en|wc:3|cs:8885|v=4,FALSE,Panchavati,Nashik,"No. 672, Harikrupa, Teli Lane, Panchavati, Nashik - 422001, Dist.Nashik, Maharashtra",8048616184,
"Arogya total Arogyatotal Gripe Water, Packaging Type: Plastic Bottle",https://www.indiamart.com/proddetail/arogyatotal-gripe-water-21907574333.html?pos=105&kwd=baby care products&tags=BA||||8754.115|Price|product|||TS|rsf:gd-|-stype:attr=1|qr_nm:gd|res:RC4|com-cf:nl|ptrs:na|ktp:N0|mc:137678|mtp:G|qry_typ:P|lang:en|wc:3|cs:8885|v=4,SWASTIK LIFESCIENCES,https://www.swisschemhealthcare.com/?pos=105&kwd=baby care products&tags=BA||||8754.115|Price|product|||TS|rsf:gd-|-stype:attr=1|qr_nm:gd|res:RC4|com-cf:nl|ptrs:na|ktp:N0|mc:137678|mtp:G|qry_typ:P|lang:en|wc:3|cs:8885|v=4,FALSE,Panchkula Industrial Area Phase 1,Panchkula,"Plot No-295, Phase-2 Industrial Area, Panchkula Industrial Area Phase 1, Panchkula - 134113, Dist.Panchkula, Haryana",8046036035,
"Plastic 10pc Baby Grooming & Healthcare kit in Gift Pack, Packaging Size: Medium",https://www.indiamart.com/proddetail/10pc-baby-grooming-healthcare-kit-in-gift-pack-2852559367830.html?pos=106&kwd=baby care products&tags=BA||||8230.883|Price|product|||TS|rsf:gd-|-stype:attr=1|qr_nm:gd|res:RC4|com-cf:nl|ptrs:na|ktp:N0|mc:137678|mtp:G|qry_typ:P|lang:en|wc:3|cs:8885|v=4,RJ Enterprise,https://www.indiamart.com/rj-enterprise-surat/?pos=106&kwd=baby care products&tags=BA||||8230.883|Price|product|||TS|rsf:gd-|-stype:attr=1|qr_nm:gd|res:RC4|com-cf:nl|ptrs:na|ktp:N0|mc:137678|mtp:G|qry_typ:P|lang:en|wc:3|cs:8885|v=4,FALSE,Katargam,Surat,"134, Sahjanand Society, N/R Arogyakendra, Katargam, Katargam, Surat - 395004, Dist.Surat, Gujarat",7942555306,
"White BABY PRODUCTS, Packaging Type: Bottle, 3-12 Months",https://www.indiamart.com/proddetail/baby-products-2853868188848.html?pos=107&kwd=baby care products&tags=BA||||8224.965|Price|product|||MDC|rsf:gd-|-stype:attr=1|qr_nm:gd|res:RC4|com-cf:nl|ptrs:na|ktp:N0|mc:137678|mtp:G|qry_typ:P|lang:en|wc:3|cs:8885|v=4,Sifora Life Science,https://www.indiamart.com/sifora-life-science/?pos=107&kwd=baby care products&tags=BA||||8224.965|Price|product|||MDC|rsf:gd-|-stype:attr=1|qr_nm:gd|res:RC4|com-cf:nl|ptrs:na|ktp:N0|mc:137678|mtp:G|qry_typ:P|lang:en|wc:3|cs:8885|v=4,FALSE,Khatraj Cross Road Kalol Road,Kalol,"Plot No. 7, Parishram Industrial Estate, OPP. Arvind Mill, Near Indian Oil Petrol Pump Gandhinagar, Khatraj Cross Road Kalol Road, Kalol - 382721, Dist.Gandhi Nagar, Gujarat",8045168154,
"your brand Natural Herbal Baby Care Lotion, Packaging Size: 200 ml",https://www.indiamart.com/proddetail/herbal-baby-care-lotion-25349007748.html?pos=108&kwd=baby care products&tags=BA||||8754.115|Price|product|||MDC|rsf:gd-|-stype:attr=1|qr_nm:gd|res:RC4|com-cf:nl|ptrs:na|ktp:N0|mc:137678|mtp:G|qry_typ:P|lang:en|wc:3|cs:8885|v=4,ALICANTO BIOTECH PRIVATE LIMITED,https://www.indiamart.com/alicanto-biotech/?pos=108&kwd=baby care products&tags=BA||||8754.115|Price|product|||MDC|rsf:gd-|-stype:attr=1|qr_nm:gd|res:RC4|com-cf:nl|ptrs:na|ktp:N0|mc:137678|mtp:G|qry_typ:P|lang:en|wc:3|cs:8885|v=4,FALSE,Panchkula Industrial Area Phase 1,Panchkula,"Plot No. 159 Phase 2, Industrial Area, Panchkula Industrial Area Phase 1, Panchkula - 134113, Dist.Panchkula, Haryana",8047306547,
"Baby Care Kit, Luxury Manicure Grooming Kit for New Born Baby",https://www.indiamart.com/proddetail/baby-care-kit-luxury-manicure-grooming-kit-for-new-born-baby-2853751351230.html?pos=109&kwd=baby care products&tags=BA||||8230.883|Price|product|||MDC|rsf:gd-|-stype:attr=1|qr_nm:gd|res:RC4|com-cf:nl|ptrs:na|ktp:N0|mc:137678|mtp:G|qry_typ:P|lang:en|wc:3|cs:8885|v=4,Jnsm Spark,https://www.indiamart.com/jnsm-spark/?pos=109&kwd=baby care products&tags=BA||||8230.883|Price|product|||MDC|rsf:gd-|-stype:attr=1|qr_nm:gd|res:RC4|com-cf:nl|ptrs:na|ktp:N0|mc:137678|mtp:G|qry_typ:P|lang:en|wc:3|cs:8885|v=4,FALSE,Dabholi,Surat,"3rd Floor Flat-302, Shukan Valley BLDG-F, OPP Hari Darshan, Dabholi Road, Dabholi, Surat - 395004, Dist.Surat, Gujarat",8045166587,
Earth Lap Pacifier Baby Wipe,https://www.indiamart.com/proddetail/pacifier-baby-wipe-2853407572855.html?pos=110&kwd=baby care products&tags=BA||||8230.883||product|||MDC|rsf:gd-|-stype:attr=1|qr_nm:gd|res:RC4|com-cf:nl|ptrs:na|ktp:N0|mc:137678|mtp:G|qry_typ:P|lang:en|wc:3|cs:8885|v=4,Indian Health And Hygienics Corporation,https://www.indiamart.com/indianhealth-hygienicscorporation/?pos=110&kwd=baby care products&tags=BA||||8230.883||product|||MDC|rsf:gd-|-stype:attr=1|qr_nm:gd|res:RC4|com-cf:nl|ptrs:na|ktp:N0|mc:137678|mtp:G|qry_typ:P|lang:en|wc:3|cs:8885|v=4,FALSE,Mankna,Surat,"Ground Floor 62 To 64, Subham Industrial Estate, Kamrej, Mankna, Mankna, Surat - 394325, Dist.Surat, Gujarat",7949224360,
baby goat milk bath bar,https://www.indiamart.com/proddetail/baby-goat-milk-bath-bar-2854754489897.html?pos=111&kwd=baby care products&tags=BA||||8626.744|Price|product|||MDC|rsf:gd-|-stype:attr=1|qr_nm:gd|res:RC4|com-cf:nl|ptrs:na|ktp:N0|mc:137678|mtp:G|qry_typ:P|lang:en|wc:3|cs:8885|v=4,Ashokaz Agency,https://www.indiamart.com/ashokaz-agency-tiruppur/?pos=111&kwd=baby care products&tags=BA||||8626.744|Price|product|||MDC|rsf:gd-|-stype:attr=1|qr_nm:gd|res:RC4|com-cf:nl|ptrs:na|ktp:N0|mc:137678|mtp:G|qry_typ:P|lang:en|wc:3|cs:8885|v=4,FALSE,63 Velampalayam,Tiruppur,"133, Pillaiyar Kovil Street, 63 Velampalayam, Palladam, 63 Velampalayam, Tiruppur - 641663, Dist.Coimbatore, Tamil Nadu",8045168818,
"Looz cosmactic PRODUCT, Packaging Size: 50 gm",https://www.indiamart.com/proddetail/looz-cosmactic-product-2852169634448.html?pos=113&kwd=baby care products&tags=BA||||8562.157|Price|product|||MDC|rsf:gd-|-stype:attr=1|qr_nm:gd|res:RC4|com-cf:nl|ptrs:na|ktp:N0|mc:137678|mtp:G|qry_typ:P|lang:en|wc:3|cs:8885|v=4,Viko Life Ayurveda Private Limited,https://www.indiamart.com/vikolife-ayurveda/?pos=113&kwd=baby care products&tags=BA||||8562.157|Price|product|||MDC|rsf:gd-|-stype:attr=1|qr_nm:gd|res:RC4|com-cf:nl|ptrs:na|ktp:N0|mc:137678|mtp:G|qry_typ:P|lang:en|wc:3|cs:8885|v=4,FALSE,Raniya,Sirsa,"0,Viko Life Ayurveda Private Limited,0,Bahia,, Raniya, Sirsa - 125075, Haryana",7942703759,
"Electric Nail File Drill For Baby No Sharp Claws Hurt, 6 In 1 Safety Cutter Trimmer For Toes",https://www.indiamart.com/proddetail/electric-nail-file-drill-for-baby-no-sharp-claws-hurt-6-in-1-safety-cutter-trimmer-for-toes-2854758762597.html?pos=114&kwd=baby care products&tags=BA||||8230.883|Price|product|||MDC|rsf:gd-|-stype:attr=1|qr_nm:gd|res:RC4|com-cf:nl|ptrs:na|ktp:N0|mc:137678|mtp:G|qry_typ:P|lang:en|wc:3|cs:8885|v=4,Brahma Wholesaler,https://www.indiamart.com/brahma-wholesaler/?pos=114&kwd=baby care products&tags=BA||||8230.883|Price|product|||MDC|rsf:gd-|-stype:attr=1|qr_nm:gd|res:RC4|com-cf:nl|ptrs:na|ktp:N0|mc:137678|mtp:G|qry_typ:P|lang:en|wc:3|cs:8885|v=4,FALSE,,Surat,"Ground Floor, 123, Harekrishna SOC, Katargam Road, Shreeji Provision Store, Surat - 395004, Dist.Surat, Gujarat",7949331498,
Baby Body Wash,https://www.indiamart.com/proddetail/baby-body-wash-2853998882388.html?pos=115&kwd=baby care products&tags=BA||||8741.987|Price|product|||MDC|rsf:gd-|-stype:attr=1|qr_nm:gd|res:RC4|com-cf:nl|ptrs:na|ktp:N0|mc:137678|mtp:G|qry_typ:P|lang:en|wc:3|cs:8885|v=4,K.H Company,https://www.indiamart.com/kh-company/?pos=115&kwd=baby care products&tags=BA||||8741.987|Price|product|||MDC|rsf:gd-|-stype:attr=1|qr_nm:gd|res:RC4|com-cf:nl|ptrs:na|ktp:N0|mc:137678|mtp:G|qry_typ:P|lang:en|wc:3|cs:8885|v=4,FALSE,Mahesh Nagar,Ambala,"505, Pooja Vihar, Cantt,, Mahesh Nagar, Ambala - 133001, Dist.Ambala, Haryana",7942842959,
Seba Med Baby Products,,Shiva International,https://www.indiamart.com/shivainternational-krishnanagar/?pos=116&kwd=baby care products&tags=BA||||8752.144|Price|product|||MDC|rsf:gd-|-stype:attr=1|qr_nm:gd|res:RC4|com-cf:nl|ptrs:na|ktp:N0|mc:137678|mtp:G|qry_typ:P|lang:en|wc:3|cs:8885|v=4,FALSE,,New Delhi,"First, F-10/24, Krishna Nagar, East Delhi, New Delhi - 110051, Dist.Delhi, Delhi",8044457283,
Sonal Mandap Tailors,,Sonal Mandap Tailors,https://www.indiamart.com/sonal-mandap-tailors/?pos=117&kwd=baby care products&tags=A||||8228.275||bl|||TS|rsf:gd-|-stype:attr=1|qr_nm:gd|res:RC4|com-cf:nl|ptrs:na|ktp:N0|mc:137678|mtp:G|qry_typ:P|lang:en|wc:3|cs:8885|v=4,FALSE,Motera,Ahmedabad,"Thakorvas 253 Motera Koteshwar, Motera, Ahmedabad - 380005, Dist.Ahmedabad, Gujarat",7942544361,
Himalaya Baby Massage Oil 100 Ml,,Hinirog Healthtech Private Limited,https://www.theayurvedicmedicine.com/?pos=118&kwd=baby care products&tags=BA||||8752.144||proxy|||TS|rsf:gd-|-stype:attr=1|qr_nm:gd|res:RC4|com-cf:nl|ptrs:na|ktp:N0|mc:137678|mtp:G|qry_typ:P|lang:en|wc:3|cs:8885|v=4,FALSE,Pushp Vihar Saket New Delhi South Delhi,New Delhi,"5th Floor, Tower - 4, NBCC Plaza, Pushp Vihar Saket New Delhi South Delhi, New Delhi - 110017, Dist.Delhi, Delhi",7949329022,
"Baby care, 3-12 Months",https://www.indiamart.com/proddetail/baby-care-2848965208788.html?pos=119&kwd=baby care products&tags=BB||||8242.731|Price|product|||NA|rsf:gd-|-stype:attr=1|qr_nm:gd|res:RC4|com-cf:nl|ptrs:na|ktp:N0|mc:137678|mtp:G|qry_typ:P|lang:en|wc:3|cs:8885|v=4,Gopal Furnitures,https://www.indiamart.com/total-care-24/?pos=119&kwd=baby care products&tags=BB||||8242.731|Price|product|||NA|rsf:gd-|-stype:attr=1|qr_nm:gd|res:RC4|com-cf:nl|ptrs:na|ktp:N0|mc:137678|mtp:G|qry_typ:P|lang:en|wc:3|cs:8885|v=4,FALSE,,Ulhasnagar,"Shop No.530, Furniture Bazar, Near New Era High School bail bazar Kalyan West, Ulhasnagar - 421003, Dist.Thane, Maharashtra",8047665816,
"White Baby Care Products Contract Manufacturer, Packaging Type: Bottle, 3-12 Months",https://www.indiamart.com/proddetail/baby-care-products-contract-manufacturer-25562571862.html?pos=120&kwd=baby care products&tags=BA||||8778.123|Price|product|||NA|rsf:gd-|-stype:attr=1|qr_nm:gd|res:RC4|com-cf:nl|ptrs:na|ktp:N0|mc:137678|mtp:G|qry_typ:P|lang:en|wc:3|cs:8885|v=4,Purify Naturals Co.,https://www.indiamart.com/purify-naturals-co/?pos=120&kwd=baby care products&tags=BA||||8778.123|Price|product|||NA|rsf:gd-|-stype:attr=1|qr_nm:gd|res:RC4|com-cf:nl|ptrs:na|ktp:N0|mc:137678|mtp:G|qry_typ:P|lang:en|wc:3|cs:8885|v=4,FALSE,Sector 59,Noida,"B - 2, Sector - 59 Purify Naturals Co. Noida Gautam Buddha Nagar, Sector 59, Noida - 203202, Dist.Gautam Budh Nagar, Uttar Pradesh",8047650745,
"Cotton Baby Care Products, 1-2 Years",https://www.indiamart.com/proddetail/baby-care-products-26731219291.html?pos=121&kwd=baby care products&tags=BB||||8230.883|Price|product|||NA|rsf:gd-|-stype:attr=1|qr_nm:gd|res:RC4|com-cf:nl|ptrs:na|ktp:N0|mc:137678|mtp:G|qry_typ:P|lang:en|wc:3|cs:8885|v=4,Bhaveshbhai Parsottambhai Koladiya,https://www.indiamart.com/bhaveshbhai-parsottambhai-koladiya/?pos=121&kwd=baby care products&tags=BB||||8230.883|Price|product|||NA|rsf:gd-|-stype:attr=1|qr_nm:gd|res:RC4|com-cf:nl|ptrs:na|ktp:N0|mc:137678|mtp:G|qry_typ:P|lang:en|wc:3|cs:8885|v=4,FALSE,umiyanagar kharvar nagar udhna surat.,Surat,"D-7, 1st floor, umiya nagar, behind Mahindra showroom, near chochath jogni mata mandir, udhna, Surat, umiyanagar kharvar nagar udhna surat., Surat - 395008, Dist.Surat, Gujarat",8069017086,551
"Blue Baby Care Products, 3-12 Months",https://www.indiamart.com/proddetail/baby-care-products-2853146074230.html?pos=122&kwd=baby care products&tags=BA||||8752.144|Price|product|||NA|rsf:gd-|-stype:attr=1|qr_nm:gd|res:RC4|com-cf:nl|ptrs:na|ktp:N0|mc:137678|mtp:G|qry_typ:P|lang:en|wc:3|cs:8885|v=4,New Jagdamba Collection,https://www.indiamart.com/new-jagdamba-collection/?pos=122&kwd=baby care products&tags=BA||||8752.144|Price|product|||NA|rsf:gd-|-stype:attr=1|qr_nm:gd|res:RC4|com-cf:nl|ptrs:na|ktp:N0|mc:137678|mtp:G|qry_typ:P|lang:en|wc:3|cs:8885|v=4,FALSE,,New Delhi,"2ND FLOOR, C-186/187, Shiv Mandir Road, YADAV DAIRY, SWAROOP NAGAR, New Delhi, North Delhi, Delhi, 1, New Delhi - 110042, Dist.Delhi, Delhi",8048250587,654
"Baby Care Products, Packaging Type: Mix, Newly Born",https://www.indiamart.com/proddetail/baby-care-products-26745794455.html?pos=123&kwd=baby care products&tags=BA||||8211.142|Price|product|||NA|rsf:gd-|-stype:attr=1|qr_nm:gd|res:RC4|com-cf:nl|ptrs:na|ktp:N0|mc:137678|mtp:G|qry_typ:P|lang:en|wc:3|cs:8885|v=4,Big Smile Baby,https://www.indiamart.com/bigsmilebaby/?pos=123&kwd=baby care products&tags=BA||||8211.142|Price|product|||NA|rsf:gd-|-stype:attr=1|qr_nm:gd|res:RC4|com-cf:nl|ptrs:na|ktp:N0|mc:137678|mtp:G|qry_typ:P|lang:en|wc:3|cs:8885|v=4,FALSE,Malad East,Mumbai,"Room no.2, Seva Nagar Chawl, yoginwas,santaram pada, Nr. WE Highway , Malad east, Malad East, Mumbai - 400097, Dist.Mumbai, Maharashtra",8048209441,
"baby care cosmetics products, Packaging Type: according to your choice, 1-18",https://www.indiamart.com/proddetail/baby-care-cosmetics-products-2851555997112.html?pos=124&kwd=baby care products&tags=BA||||8754.115||product|||NA|rsf:gd-|-stype:attr=1|qr_nm:gd|res:RC4|com-cf:nl|ptrs:na|ktp:N0|mc:137678|mtp:G|qry_typ:P|lang:en|wc:3|cs:8885|v=4,Cosmetify,https://www.indiamart.com/cosmetify/?pos=124&kwd=baby care products&tags=BA||||8754.115||product|||NA|rsf:gd-|-stype:attr=1|qr_nm:gd|res:RC4|com-cf:nl|ptrs:na|ktp:N0|mc:137678|mtp:G|qry_typ:P|lang:en|wc:3|cs:8885|v=4,FALSE,,Panchkula,"Industrial Area Plot No. 396 Phase - 1 Cosmetify, Panchkula - 134113, Dist.Panchkula, Haryana",8048954239,
"White Baby Products, Packaging Type: Box",https://www.indiamart.com/proddetail/baby-products-2849501845455.html?pos=125&kwd=baby care products&tags=BB||||9839.57|Price|product|||NA|rsf:gd-|-stype:attr=1|qr_nm:gd|res:RC4|com-cf:nl|ptrs:na|ktp:N0|mc:137678|mtp:G|qry_typ:P|lang:en|wc:3|cs:8885|v=4,BAGANI DRESSES,https://www.indiamart.com/baganidresses/?pos=125&kwd=baby care products&tags=BB||||9839.57|Price|product|||NA|rsf:gd-|-stype:attr=1|qr_nm:gd|res:RC4|com-cf:nl|ptrs:na|ktp:N0|mc:137678|mtp:G|qry_typ:P|lang:en|wc:3|cs:8885|v=4,FALSE,,Kolkata,"Y-325, Panchpara Lane, Burtala South Twenty Four Parganas, Kolkata - 700018, Dist.Kolkata, West Bengal",7942786184,
Mee mee Baby Products,https://www.indiamart.com/proddetail/baby-products-2853943323697.html?pos=126&kwd=baby care products&tags=BB||||10424.789|Price|product|||NA|rsf:gd-|-stype:attr=1|qr_nm:gd|res:RC4|com-cf:nl|ptrs:na|ktp:N0|mc:137678|mtp:G|qry_typ:P|lang:en|wc:3|cs:8885|v=4,Raj Garments,https://www.indiamart.com/raj-garments-jorhat/?pos=126&kwd=baby care products&tags=BB||||10424.789|Price|product|||NA|rsf:gd-|-stype:attr=1|qr_nm:gd|res:RC4|com-cf:nl|ptrs:na|ktp:N0|mc:137678|mtp:G|qry_typ:P|lang:en|wc:3|cs:8885|v=4,FALSE,,Jorhat,"125,Gar Ali,Gar Ali,Jorhat, Jorhat - 785001, Dist.Jorhat, Assam",8048370708,4443
"Baby Products, 3-12 Months",,MFS Fashions,https://www.indiamart.com/mfsfashions/?pos=127&kwd=baby care products&tags=BB||||8954.051|Price|product|||NA|rsf:gd-|-stype:attr=1|qr_nm:gd|res:RC4|com-cf:nl|ptrs:na|ktp:N0|mc:137678|mtp:G|qry_typ:P|lang:en|wc:3|cs:8885|v=4,FALSE,Perambur,Chennai,"New No. 42/2, Old No. 15/2, Venkatraman Street, Perambur, Perambur, Chennai - 600011, Dist.Chennai, Tamil Nadu",8043804409,
"baby seesaw skincare products, Newly Born",https://www.indiamart.com/proddetail/baby-seesaw-skincare-products-2854728104212.html?pos=128&kwd=baby care products&tags=BA||||8786.56|Price|product|||NA|rsf:gd-|-stype:attr=1|qr_nm:gd|res:RC4|com-cf:nl|ptrs:na|ktp:N0|mc:137678|mtp:G|qry_typ:P|lang:en|wc:3|cs:8885|v=4,Alkanet Formulations (OPC) Private Limited,https://www.indiamart.com/alkanet-formulations-opc-private-limited/?pos=128&kwd=baby care products&tags=BA||||8786.56|Price|product|||NA|rsf:gd-|-stype:attr=1|qr_nm:gd|res:RC4|com-cf:nl|ptrs:na|ktp:N0|mc:137678|mtp:G|qry_typ:P|lang:en|wc:3|cs:8885|v=4,FALSE,,Hyderabad,"5 Suvey No 504/a/flat No 501 Venkata Ramana Colony Dega, Hyderabad - 500050, Dist.Hyderabad, Telangana",8048249781,5118
"All Baby Care Product, Newly Born",,Sri Samartha Traders,https://www.indiamart.com/sri-samartha-traders-bengaluru/?pos=129&kwd=baby care products&tags=BB||||8663.873||product|||NA|rsf:gd-|-stype:attr=1|qr_nm:gd|res:RC4|com-cf:nl|ptrs:na|ktp:N0|mc:137678|mtp:G|qry_typ:P|lang:en|wc:3|cs:8885|v=4,FALSE,,Bengaluru,"plot No 12,4th Main Road,13th Cross,Bhuvaneshwarinagar,K P Agrahara,, Bengaluru - 560023, Dist.Bengaluru, Karnataka",8045849967,930
"SBL Baby Care Kit, Packaging Type: Box, 375g",https://www.indiamart.com/proddetail/sbl-baby-care-kit-2852668584597.html?pos=130&kwd=baby care products&tags=BA||||8706.587|Price|product|||NA|rsf:gd-|-stype:attr=1|qr_nm:gd|res:RC4|com-cf:nl|ptrs:na|ktp:N0|mc:137678|mtp:G|qry_typ:P|lang:en|wc:3|cs:8885|v=4,Aravindh Homeo Pharmaceuticals,https://www.indiamart.com/aravindh-homeo-pharmaceuticals/?pos=130&kwd=baby care products&tags=BA||||8706.587|Price|product|||NA|rsf:gd-|-stype:attr=1|qr_nm:gd|res:RC4|com-cf:nl|ptrs:na|ktp:N0|mc:137678|mtp:G|qry_typ:P|lang:en|wc:3|cs:8885|v=4,FALSE,Ponmeni,Madurai,"Ground Floor And First Floor, Plot No.2, Aravindh Homoeo Pharmaceuticals DSP Nagar 3rd Street, Ponmeni, Byepass Road, Ponmeni, Madurai - 625016, Dist.Madurai, Tamil Nadu",7942714290,
All Types Of Baby Products,https://www.indiamart.com/proddetail/all-types-of-baby-products-24182091548.html?pos=131&kwd=baby care products&tags=BB||||8601.347|Price|product|||NA|rsf:gd-|-stype:attr=1|qr_nm:gd|res:RC4|com-cf:nl|ptrs:na|ktp:N0|mc:137678|mtp:G|qry_typ:P|lang:en|wc:3|cs:8885|v=4,Venus Group,https://www.indiamart.com/venus-group-jaipur/?pos=131&kwd=baby care products&tags=BB||||8601.347|Price|product|||NA|rsf:gd-|-stype:attr=1|qr_nm:gd|res:RC4|com-cf:nl|ptrs:na|ktp:N0|mc:137678|mtp:G|qry_typ:P|lang:en|wc:3|cs:8885|v=4,FALSE,,Jaipur,"Pn 71, Nemi Nagar Vaishali Nagar, Jaipur - 302021, Dist.Jaipur, Rajasthan",8048372938,912
"Kids Sebamed Skin Care Powder, Packaging Size: 200gm",https://www.indiamart.com/proddetail/kids-sebamed-skin-care-powder-2852611929733.html?pos=132&kwd=baby care products&tags=BA||||8740.707|Price|product|||NA|rsf:gd-|-stype:attr=1|qr_nm:gd|res:RC4|com-cf:nl|ptrs:na|ktp:N0|mc:137678|mtp:G|qry_typ:P|lang:en|wc:3|cs:8885|v=4,Shoppers Delight,https://www.indiamart.com/shoppersdelight/?pos=132&kwd=baby care products&tags=BA||||8740.707|Price|product|||NA|rsf:gd-|-stype:attr=1|qr_nm:gd|res:RC4|com-cf:nl|ptrs:na|ktp:N0|mc:137678|mtp:G|qry_typ:P|lang:en|wc:3|cs:8885|v=4,FALSE,,Mohali,"Ground And Basement, Booth No 14, Shoppers Delight, Clockton Market Omaxe Phase 1 Unique Brew, Sector 13, New Chandigarh, Sas Nagar, Mohali - 140901, Dist.Mohali, Punjab",8043877997,
Sebamed,,Health Forever Medical Services India LLP,https://www.indiamart.com/healthforever-medicalservices-india/?pos=133&kwd=baby care products&tags=BB||||8236.946||product|||NA|rsf:gd-|-stype:attr=1|qr_nm:gd|res:RC4|com-cf:nl|ptrs:na|ktp:N0|mc:137678|mtp:G|qry_typ:P|lang:en|wc:3|cs:8885|v=4,FALSE,Secotr 13,Raigad,"Shop No 8/ A The Pacific Plot No 229, Secotr 13, Raigad - 410210, Maharashtra",8048372934,516
"USV White Sebamed, Packaging Type: Box, 3-12 Months",https://www.indiamart.com/proddetail/sebamed-2852963207262.html?pos=134&kwd=baby care products&tags=BB||||8663.873|Price|product|||NA|rsf:gd-|-stype:attr=1|qr_nm:gd|res:RC4|com-cf:nl|ptrs:na|ktp:N0|mc:137678|mtp:G|qry_typ:P|lang:en|wc:3|cs:8885|v=4,D R Pharmaceutical,https://www.indiamart.com/d-r-pharmaceutical/?pos=134&kwd=baby care products&tags=BB||||8663.873|Price|product|||NA|rsf:gd-|-stype:attr=1|qr_nm:gd|res:RC4|com-cf:nl|ptrs:na|ktp:N0|mc:137678|mtp:G|qry_typ:P|lang:en|wc:3|cs:8885|v=4,FALSE,,Bengaluru,"No 25 1st Cross,1st Main Sri Maruthi Badavane, Bengaluru - 560073, Dist.Bengaluru, Karnataka",8047311016,2720
Mothercare Products,,SPS Traders,https://www.indiamart.com/sps-traders-roorkee/?pos=135&kwd=baby care products&tags=BA||||8841.674||product|||NA|rsf:gd-|-stype:attr=1|qr_nm:gd|res:RC4|com-cf:nl|ptrs:na|ktp:N0|mc:137678|mtp:G|qry_typ:P|lang:en|wc:3|cs:8885|v=4,FALSE,nagar,Roorkee,"new adarsh, nagar, Roorkee - 247667, Dist.Haridwar, Uttarakhand",8047677780,
Aveeno Baby Daily Moisturizing Bath,https://www.indiamart.com/proddetail/aveeno-baby-daily-moisturizing-bath-2853681350648.html?pos=136&kwd=baby care products&tags=BA||||8047.7524|Price|product|||NA|rsf:gd-|-stype:attr=1|qr_nm:gd|res:RC4|com-cf:nl|ptrs:na|ktp:N0|mc:137678|mtp:G|qry_typ:P|lang:en|wc:3|cs:8885|v=4,Saviour Drug House,https://www.indiamart.com/saviour-drughouse/?pos=136&kwd=baby care products&tags=BA||||8047.7524|Price|product|||NA|rsf:gd-|-stype:attr=1|qr_nm:gd|res:RC4|com-cf:nl|ptrs:na|ktp:N0|mc:137678|mtp:G|qry_typ:P|lang:en|wc:3|cs:8885|v=4,FALSE,Shyam 1,Morbi,"Third Floor, City Survey No. 2283 P, Word No.1, Sheet No.174, Shop No. 304, Shreeji Compex, Shyam 1, Morbi - 363641, Dist.Rajkot, Gujarat",7949082049,
"Baby Safety Electric Socket Plug Cover Guards (Pack of 12, Made in India)",https://www.indiamart.com/proddetail/baby-safety-electric-socket-plug-cover-guards-pack-of-12-made-in-india-21785883888.html?pos=137&kwd=baby care products&tags=BB||||8230.883|Price|product|||NA|rsf:gd-|-stype:attr=1|qr_nm:gd|res:RC4|com-cf:nl|ptrs:na|ktp:N0|mc:137678|mtp:G|qry_typ:P|lang:en|wc:3|cs:8885|v=4,Payal Industry,https://www.indiamart.com/payal-industri/?pos=137&kwd=baby care products&tags=BB||||8230.883|Price|product|||NA|rsf:gd-|-stype:attr=1|qr_nm:gd|res:RC4|com-cf:nl|ptrs:na|ktp:N0|mc:137678|mtp:G|qry_typ:P|lang:en|wc:3|cs:8885|v=4,FALSE,Ichchhapore Pal- Hazira Road,Surat,"537, RJD Textile Park Near Sayan Textile Park, Ichchhapore Pal- Hazira Road, Surat - 395010, Dist.Surat, Gujarat",7942644128,
"Santulan Baal Guti, 1-2 Years",https://www.indiamart.com/proddetail/santulan-baal-guti-2851638863030.html?pos=138&kwd=baby care products&tags=BB||||8239.3955|Price|product|||NA|rsf:gd-|-stype:attr=1|qr_nm:gd|res:RC4|com-cf:nl|ptrs:na|ktp:N0|mc:137678|mtp:G|qry_typ:P|lang:en|wc:3|cs:8885|v=4,Dhanlaxmi Enterprises,https://www.indiamart.com/dhanlaxmi-ayurveda/?pos=138&kwd=baby care products&tags=BB||||8239.3955|Price|product|||NA|rsf:gd-|-stype:attr=1|qr_nm:gd|res:RC4|com-cf:nl|ptrs:na|ktp:N0|mc:137678|mtp:G|qry_typ:P|lang:en|wc:3|cs:8885|v=4,FALSE,Chakki Naka,Kalyan,",kolshewadi,ganesh Nagar,,venubai Niwas,kolshewadi, Kalyan Regency Park, Chakki Naka, Kalyan - 421306, Dist.Thane, Maharashtra",8062245130,138
"Mamaearth Baby Product, 0-5 years",,Fire Fashion,https://www.indiamart.com/fire-fashion-surat/?pos=139&kwd=baby care products&tags=BB||||8230.883||product|||NA|rsf:gd-|-stype:attr=1|qr_nm:gd|res:RC4|com-cf:nl|ptrs:na|ktp:N0|mc:137678|mtp:G|qry_typ:P|lang:en|wc:3|cs:8885|v=4,FALSE,,Surat,"73-74, Ambikapark-2, Near Tirupati Row House, Dindoli, Surat - 394210, Dist.Surat, Gujarat",8047627915,
"Praanapoorna White Healing Baby Balm, Packaging Type: Bottle, 0-12 years",https://www.indiamart.com/proddetail/healing-baby-balm-23748677497.html?pos=141&kwd=baby care products&tags=BA||||8663.873|Price|product|||NA|rsf:gd-|-stype:attr=1|qr_nm:gd|res:RC4|com-cf:nl|ptrs:na|ktp:N0|mc:137678|mtp:G|qry_typ:P|lang:en|wc:3|cs:8885|v=4,Praanapoorna Collective,https://www.indiamart.com/praanapoorna-collective/?pos=141&kwd=baby care products&tags=BA||||8663.873|Price|product|||NA|rsf:gd-|-stype:attr=1|qr_nm:gd|res:RC4|com-cf:nl|ptrs:na|ktp:N0|mc:137678|mtp:G|qry_typ:P|lang:en|wc:3|cs:8885|v=4,FALSE,Rajarajeshwari Nagar,Bengaluru,"Rajarajeshwari Nagar, Rajarajeshwari Nagar, Bengaluru - 560098, Dist.Bengaluru, Karnataka",8048952659,
"Suvarna Prashan, 10 ml",https://www.indiamart.com/proddetail/suvarna-prashan-24118594688.html?pos=142&kwd=baby care products&tags=BB||||8230.883|Price|product|||NA|rsf:gd-|-stype:attr=1|qr_nm:gd|res:RC4|com-cf:nl|ptrs:na|ktp:N0|mc:137678|mtp:G|qry_typ:P|lang:en|wc:3|cs:8885|v=4,Swadeshibandhu,https://www.indiamart.com/swadeshibandhu-surat/?pos=142&kwd=baby care products&tags=BB||||8230.883|Price|product|||NA|rsf:gd-|-stype:attr=1|qr_nm:gd|res:RC4|com-cf:nl|ptrs:na|ktp:N0|mc:137678|mtp:G|qry_typ:P|lang:en|wc:3|cs:8885|v=4,FALSE,,Surat,"Hall No-306, 3rd Floor, Sunrise Commerical Center, Near Savji Korat Bridge, Mota Varachha,, Surat - 394101, Dist.Surat, Gujarat",8047843493,
"Women Mamaearth Products, Packaging Type: Plastic Bottle",https://www.indiamart.com/proddetail/mamaearth-products-2851663014433.html?pos=143&kwd=baby care products&tags=BB||||10180.86|Price|product|||NA|rsf:gd-|-stype:attr=1|qr_nm:gd|res:RC4|com-cf:nl|ptrs:na|ktp:N0|mc:137678|mtp:G|qry_typ:P|lang:en|wc:3|cs:8885|v=4,BT Company,https://www.indiamart.com/bt-company-guwahati/?pos=143&kwd=baby care products&tags=BB||||10180.86|Price|product|||NA|rsf:gd-|-stype:attr=1|qr_nm:gd|res:RC4|com-cf:nl|ptrs:na|ktp:N0|mc:137678|mtp:G|qry_typ:P|lang:en|wc:3|cs:8885|v=4,FALSE,Fatasil Ambari,Guwahati,"bhaskar nagar block b fatasil ambari chocolate factory, Fatasil Ambari, Guwahati - 781018, Dist.Kamrup, Assam",8069264891,231
Multi Color Newly Born And 3-12 Months Musical Merry Go Round,https://www.indiamart.com/proddetail/musical-merry-go-round-20234125291.html?pos=144&kwd=baby care products&tags=BB||||9839.57|Price|product|||NA|rsf:gd-|-stype:attr=1|qr_nm:gd|res:RC4|com-cf:nl|ptrs:na|ktp:N0|mc:137678|mtp:G|qry_typ:P|lang:en|wc:3|cs:8885|v=4,Sanjoy Toys,https://www.indiamart.com/sanjay-toys-kolkata/?pos=144&kwd=baby care products&tags=BB||||9839.57|Price|product|||NA|rsf:gd-|-stype:attr=1|qr_nm:gd|res:RC4|com-cf:nl|ptrs:na|ktp:N0|mc:137678|mtp:G|qry_typ:P|lang:en|wc:3|cs:8885|v=4,FALSE,,Kolkata,"26, Amartalla Street, 1st Floor, Kolkata - 700001, Dist.Kolkata, West Bengal",8069728271,374
"Pigeon Baby Bathing Bar For Baby's Sensitive Bathing Bar Soap, 75 G Pack Of 3 (4902508240086)",https://www.indiamart.com/proddetail/pigeon-baby-bathing-bar-for-baby-s-sensitive-bathing-bar-soap-75-g-pack-of-3-4902508240086-2853788151155.html?pos=145&kwd=baby care products&tags=BA||||8663.873|Price|product|||NA|rsf:gd-|-stype:attr=1|qr_nm:gd|res:RC4|com-cf:nl|ptrs:na|ktp:N0|mc:137678|mtp:G|qry_typ:P|lang:en|wc:3|cs:8885|v=4,Wellnex,https://www.indiamart.com/wellnex/?pos=145&kwd=baby care products&tags=BA||||8663.873|Price|product|||NA|rsf:gd-|-stype:attr=1|qr_nm:gd|res:RC4|com-cf:nl|ptrs:na|ktp:N0|mc:137678|mtp:G|qry_typ:P|lang:en|wc:3|cs:8885|v=4,FALSE,Bangalore,Bengaluru,"NO.25 9TH CROSS, 1ST MAIN, MAGADI ROAD PRASHANTH NAGAR 9th cross, Prashant Nagar, Bangalore, Bengaluru - 560079, Dist.Bengaluru, Karnataka",8046033558,
"Gixufix adhesive high quality product , daily use products, 1-2 Years",https://www.indiamart.com/proddetail/gixufix-adhesive-high-quality-product-daily-use-products-2855074304830.html?pos=146&kwd=baby care products&tags=BB||||9704.348|Price|product|||NA|rsf:gd-|-stype:attr=1|qr_nm:gd|res:RC4|com-cf:nl|ptrs:na|ktp:N0|mc:137678|mtp:G|qry_typ:P|lang:en|wc:3|cs:8885|v=4,Yes Time Plus,https://www.indiamart.com/amrit-gold/?pos=146&kwd=baby care products&tags=BB||||9704.348|Price|product|||NA|rsf:gd-|-stype:attr=1|qr_nm:gd|res:RC4|com-cf:nl|ptrs:na|ktp:N0|mc:137678|mtp:G|qry_typ:P|lang:en|wc:3|cs:8885|v=4,FALSE,,Bhagalpur,"Zone No. 1,Holding No.-Bmc362111046603, E-Satyanarayan PD. Sah,W-Badri Mandal,N-Pvt Property,S-Road S/O- Gopal Prasad Sah, Dixon Road, Bhagalpur - 812001, Dist.Bhagalpur, Bihar",8048371700,637
"White Baby Care Powder, Newly Born, Packaging Size: 50 G",https://www.indiamart.com/proddetail/baby-care-powder-27111130497.html?pos=147&kwd=baby care products&tags=BA||||8228.275|Price|product|||NA|rsf:gd-|-stype:attr=1|qr_nm:gd|res:RC4|com-cf:nl|ptrs:na|ktp:N0|mc:137678|mtp:G|qry_typ:P|lang:en|wc:3|cs:8885|v=4,Shreejee Remedies,https://www.indiamart.com/shreejeeremedies/?pos=147&kwd=baby care products&tags=BA||||8228.275|Price|product|||NA|rsf:gd-|-stype:attr=1|qr_nm:gd|res:RC4|com-cf:nl|ptrs:na|ktp:N0|mc:137678|mtp:G|qry_typ:P|lang:en|wc:3|cs:8885|v=4,FALSE,,Ahmedabad,"D 9 2 B, Diamond Park, GIDC, Naroda, Ahmedabad - 382330, Dist.Ahmedabad, Gujarat",8043820898,
"Santulan Baby Care Kit, 426g",https://www.indiamart.com/proddetail/santulan-baby-care-kit-23115283630.html?pos=148&kwd=baby care products&tags=BB||||8211.142|Price|product|||NA|rsf:gd-|-stype:attr=1|qr_nm:gd|res:RC4|com-cf:nl|ptrs:na|ktp:N0|mc:137678|mtp:G|qry_typ:P|lang:en|wc:3|cs:8885|v=4,Himani Health Care,https://www.indiamart.com/himani-health-care/?pos=148&kwd=baby care products&tags=BB||||8211.142|Price|product|||NA|rsf:gd-|-stype:attr=1|qr_nm:gd|res:RC4|com-cf:nl|ptrs:na|ktp:N0|mc:137678|mtp:G|qry_typ:P|lang:en|wc:3|cs:8885|v=4,FALSE,Princess Street,Mumbai,"212,Anand Bhuvan 17,Babu Genu Road, Princess Street, Mumbai - 400002, Dist.Mumbai, Maharashtra",8048372447,283
"White 7 Days - 5 Years Sebamed Baby Body Lotion, Packaging Size: 100 ml",https://www.indiamart.com/proddetail/sebamed-baby-body-lotion-2850642956097.html?pos=149&kwd=baby care products&tags=BB||||8706.263|Price|product|||NA|rsf:gd-|-stype:attr=1|qr_nm:gd|res:RC4|com-cf:nl|ptrs:na|ktp:N0|mc:137678|mtp:G|qry_typ:P|lang:en|wc:3|cs:8885|v=4,R K Enterprises,https://www.indiamart.com/rkenterprises-karur/?pos=149&kwd=baby care products&tags=BB||||8706.263|Price|product|||NA|rsf:gd-|-stype:attr=1|qr_nm:gd|res:RC4|com-cf:nl|ptrs:na|ktp:N0|mc:137678|mtp:G|qry_typ:P|lang:en|wc:3|cs:8885|v=4,FALSE,,Karur,"979, First Floor, S.P.N. Complex, Covai Road, Karur - 639001, Dist.Karur, Tamil Nadu",7942959159,
"Baby O Multipurpose Balm, For Personal, Ingredients: Herbal",https://www.indiamart.com/proddetail/baby-o-multipurpose-balm-2850111976097.html?pos=150&kwd=baby care products&tags=BB||||8717.056|Price|product|||NA|rsf:gd-|-stype:attr=1|qr_nm:gd|res:RC4|com-cf:nl|ptrs:na|ktp:N0|mc:137678|mtp:G|qry_typ:P|lang:en|wc:3|cs:8885|v=4,Heron Travels,https://www.indiamart.com/heron-travels-tamilnadu/?pos=150&kwd=baby care products&tags=BB||||8717.056|Price|product|||NA|rsf:gd-|-stype:attr=1|qr_nm:gd|res:RC4|com-cf:nl|ptrs:na|ktp:N0|mc:137678|mtp:G|qry_typ:P|lang:en|wc:3|cs:8885|v=4,FALSE,,Salem,"Door No-107/180, First Floor Nambikkai Munai, Salem Bypass, Salem - 636005, Dist.Salem, Tamil Nadu",7942801326,
"Rajanyadi Choornam, 150 Grams",https://www.indiamart.com/proddetail/rajanyadi-choornam-25812295848.html?pos=151&kwd=baby care products&tags=BB||||8571.301|Price|product|||NA|rsf:gd-|-stype:attr=1|qr_nm:gd|res:RC4|com-cf:nl|ptrs:na|ktp:N0|mc:137678|mtp:G|qry_typ:P|lang:en|wc:3|cs:8885|v=4,Triveva,https://www.indiamart.com/triveva/?pos=151&kwd=baby care products&tags=BB||||8571.301|Price|product|||NA|rsf:gd-|-stype:attr=1|qr_nm:gd|res:RC4|com-cf:nl|ptrs:na|ktp:N0|mc:137678|mtp:G|qry_typ:P|lang:en|wc:3|cs:8885|v=4,FALSE,,Thiruvananthapuram,"T.C 82/4767, Mbrra 25, Sreesankara Mangalam, Mathrubhoomi Road, Vanchiyoor, Thiruvananthapuram - 695035, Dist.Thiruvananthapuram, Kerala",8047304727,
Lana Baby Shampoo,https://www.indiamart.com/proddetail/baby-shampoo-12412870830.html?pos=152&kwd=baby care products&tags=BB||||8211.142|Price|product|||NA|rsf:gd-|-stype:attr=1|qr_nm:gd|res:RC4|com-cf:nl|ptrs:na|ktp:N0|mc:137678|mtp:G|qry_typ:P|lang:en|wc:3|cs:8885|v=4,Kismat Corporation / Elegant Global Cosmetics,https://www.indiamart.com/elegantglobalcosmetics/?pos=152&kwd=baby care products&tags=BB||||8211.142|Price|product|||NA|rsf:gd-|-stype:attr=1|qr_nm:gd|res:RC4|com-cf:nl|ptrs:na|ktp:N0|mc:137678|mtp:G|qry_typ:P|lang:en|wc:3|cs:8885|v=4,FALSE,Kalher,Mumbai,"Shree Arihant Complex, Building No. C14 Gala No. 10, 11, Kalher, Kalher, Mumbai - 421302, Dist.Mumbai, Maharashtra",8069033846,545
"Himalaya Baby Oil, More than 12 months",,Akshoy Medical,https://www.indiamart.com/akshoy-medical/?pos=153&kwd=baby care products&tags=BB||||9829.308|Price|product|||NA|rsf:gd-|-stype:attr=1|qr_nm:gd|res:RC4|com-cf:nl|ptrs:na|ktp:N0|mc:137678|mtp:G|qry_typ:P|lang:en|wc:3|cs:8885|v=4,FALSE,,Howrah,"146,D D C Road Dum Dum Kolkata North 24 Parganas, Howrah - 700074, Dist.Howrah, West Bengal",8069857325,196
"Solid Glowvia Dermisoft Baby Shop, Packaging Type: Box, 75g",https://www.indiamart.com/proddetail/glowvia-dermisoft-baby-shop-27456467030.html?pos=154&kwd=baby care products&tags=BB||||9839.57|Price|product|||NA|rsf:gd-|-stype:attr=1|qr_nm:gd|res:RC4|com-cf:nl|ptrs:na|ktp:N0|mc:137678|mtp:G|qry_typ:P|lang:en|wc:3|cs:8885|v=4,Promitect (OPC) Private Limited,https://www.indiamart.com/promitectopc/?pos=154&kwd=baby care products&tags=BB||||9839.57|Price|product|||NA|rsf:gd-|-stype:attr=1|qr_nm:gd|res:RC4|com-cf:nl|ptrs:na|ktp:N0|mc:137678|mtp:G|qry_typ:P|lang:en|wc:3|cs:8885|v=4,FALSE,Paschim Putiary,Kolkata,"No. 31/G, Putiary, Panchanantala Rd, Paschim Putiary, Kolkata - 700041, Dist.Kolkata, West Bengal",8047549935,
"White Cuddables Baby Cream, 10 Year, Packaging Size: 200 ml",https://www.indiamart.com/proddetail/cuddables-baby-cream-2852165186733.html?pos=155&kwd=baby care products&tags=BA||||8740.707|Price|product|||NA|rsf:gd-|-stype:attr=1|qr_nm:gd|res:RC4|com-cf:nl|ptrs:na|ktp:N0|mc:137678|mtp:G|qry_typ:P|lang:en|wc:3|cs:8885|v=4,Prakriti Essentials LLP,https://www.indiamart.com/prakriti-essentials/?pos=155&kwd=baby care products&tags=BA||||8740.707|Price|product|||NA|rsf:gd-|-stype:attr=1|qr_nm:gd|res:RC4|com-cf:nl|ptrs:na|ktp:N0|mc:137678|mtp:G|qry_typ:P|lang:en|wc:3|cs:8885|v=4,FALSE,,Sas Nagar,"6th Floor D-179 Industrial Area, Sas Nagar - 160055, Dist.Mohali, Punjab",7942704102,
Child Care,https://www.indiamart.com/proddetail/child-care-9790094797.html?pos=156&kwd=baby care products&tags=BA||||8550.327||product|||NA|rsf:gd-|-stype:attr=1|qr_nm:gd|res:RC4|com-cf:nl|ptrs:na|ktp:N0|mc:137678|mtp:G|qry_typ:P|lang:en|wc:3|cs:8885|v=4,Amrutha Home Nursing,https://www.indiamart.com/amrutha-home-nursing/?pos=156&kwd=baby care products&tags=BA||||8550.327||product|||NA|rsf:gd-|-stype:attr=1|qr_nm:gd|res:RC4|com-cf:nl|ptrs:na|ktp:N0|mc:137678|mtp:G|qry_typ:P|lang:en|wc:3|cs:8885|v=4,FALSE,,Palakkad,"Hajees Nokia Complex, English Church Road, Near Mission Schools, Palakkad - 678001, Dist.Palakkad, Kerala",8043803129,
Baby Body Lotion Contract Manufacturing,https://www.indiamart.com/proddetail/baby-body-lotion-contract-manufacturing-2853333583533.html?pos=157&kwd=baby care products&tags=BA||||8228.275|Price|product|||NA|rsf:gd-|-stype:attr=1|qr_nm:gd|res:RC4|com-cf:nl|ptrs:na|ktp:N0|mc:137678|mtp:G|qry_typ:P|lang:en|wc:3|cs:8885|v=4,Prihan Life Science,https://www.indiamart.com/prihanlifescience/?pos=157&kwd=baby care products&tags=BA||||8228.275|Price|product|||NA|rsf:gd-|-stype:attr=1|qr_nm:gd|res:RC4|com-cf:nl|ptrs:na|ktp:N0|mc:137678|mtp:G|qry_typ:P|lang:en|wc:3|cs:8885|v=4,FALSE,Kathwada,Ahmedabad,"203 Kathwada, Villag Singarva, Tal Daskroi Fortune Industrial Park, Kathwada, Ahmedabad - 382430, Dist.Ahmedabad, Gujarat",8048973871,
Blue Baby Electric Nail Trimmer,https://www.indiamart.com/proddetail/baby-electric-nail-trimmer-2850140940548.html?pos=158&kwd=baby care products&tags=BA||||8661.854|Price|product|||NA|rsf:gd-|-stype:attr=1|qr_nm:gd|res:RC4|com-cf:nl|ptrs:na|ktp:N0|mc:137678|mtp:G|qry_typ:P|lang:en|wc:3|cs:8885|v=4,Legit Appliances And Electronics Private Limited,https://www.indiamart.com/legit-appliances-andelectronics/?pos=158&kwd=baby care products&tags=BA||||8661.854|Price|product|||NA|rsf:gd-|-stype:attr=1|qr_nm:gd|res:RC4|com-cf:nl|ptrs:na|ktp:N0|mc:137678|mtp:G|qry_typ:P|lang:en|wc:3|cs:8885|v=4,FALSE,G.T. Road,Ludhiana,"BXXX-57, Opp Hero Cycle, G.T. Road, G.T. Road, Ludhiana - 141010, Dist.Ludhiana, Punjab",8048985866,
"Nebesa Baby Glow Oil, Packaging Type: Bottle",https://www.indiamart.com/proddetail/nebesa-baby-glow-oil-2851887902233.html?pos=159&kwd=baby care products&tags=BB||||8752.144|Price|product|||NA|rsf:gd-|-stype:attr=1|qr_nm:gd|res:RC4|com-cf:nl|ptrs:na|ktp:N0|mc:137678|mtp:G|qry_typ:P|lang:en|wc:3|cs:8885|v=4,Nebesa Organics Private Limited,https://www.indiamart.com/nebesa-organics/?pos=159&kwd=baby care products&tags=BB||||8752.144|Price|product|||NA|rsf:gd-|-stype:attr=1|qr_nm:gd|res:RC4|com-cf:nl|ptrs:na|ktp:N0|mc:137678|mtp:G|qry_typ:P|lang:en|wc:3|cs:8885|v=4,FALSE,Rana Pratap Bagh,New Delhi,"Property No.-D-35, Rana Pratap Bagh Road, Rana Pratap Bagh Sub Post Office, Rana Pratap Bagh, Central Delhi, Rana Pratap Bagh, New Delhi - 110007, Dist.Delhi, Delhi",8047306730,
"Baby Powder Case, For Household, Medium",https://www.indiamart.com/proddetail/baby-powder-case-12500137397.html?pos=160&kwd=baby care products&tags=BB||||9839.57||product|||NA|rsf:gd-|-stype:attr=1|qr_nm:gd|res:RC4|com-cf:nl|ptrs:na|ktp:N0|mc:137678|mtp:G|qry_typ:P|lang:en|wc:3|cs:8885|v=4,Saroj International Trading Co.,https://www.indiamart.com/sarojinternationaltradingco/?pos=160&kwd=baby care products&tags=BB||||9839.57||product|||NA|rsf:gd-|-stype:attr=1|qr_nm:gd|res:RC4|com-cf:nl|ptrs:na|ktp:N0|mc:137678|mtp:G|qry_typ:P|lang:en|wc:3|cs:8885|v=4,FALSE,,Kolkata,"7B C Tiljala Road Park Circus, Kolkata - 700046, Dist.Kolkata, West Bengal",8047646422,
"Baby Massage Oil Contract Manufacturing, Packaging Type: Bottle, Packaging Size: 20ml To 500ml",https://www.indiamart.com/proddetail/baby-massage-oil-contract-manufacturing-2850216802912.html?pos=161&kwd=baby care products&tags=BA||||8228.275|Price|product|||NA|rsf:gd-|-stype:attr=1|qr_nm:gd|res:RC4|com-cf:nl|ptrs:na|ktp:N0|mc:137678|mtp:G|qry_typ:P|lang:en|wc:3|cs:8885|v=4,Satvah Surfactants Private Limited,https://www.indiamart.com/satvah-surfactants-private-limited/?pos=161&kwd=baby care products&tags=BA||||8228.275|Price|product|||NA|rsf:gd-|-stype:attr=1|qr_nm:gd|res:RC4|com-cf:nl|ptrs:na|ktp:N0|mc:137678|mtp:G|qry_typ:P|lang:en|wc:3|cs:8885|v=4,FALSE,Kathwada,Ahmedabad,"4, First Floor, Rameshwar Complex,, Kathwada, Ahmedabad - 382430, Dist.Ahmedabad, Gujarat",7942817213,
Newborn Baby And Mother Care,,Ridhi Sidhi Enterprises,https://www.indiamart.com/ridhisidhienterprises-chandigarh/?pos=162&kwd=baby care products&tags=BB||||8740.707|Price|product|||NA|rsf:gd-|-stype:attr=1|qr_nm:gd|res:RC4|com-cf:nl|ptrs:na|ktp:N0|mc:137678|mtp:G|qry_typ:P|lang:en|wc:3|cs:8885|v=4,FALSE,,Sas Nagar,"Plot No 744, JLPL Industrial Park, Sector 82 Mohali,, Sas Nagar - 160055, Dist.Mohali, Punjab",8046074140,
"Cotton Kangasling ( Kangaroo Mother Care) Bag, Newly Born",https://www.indiamart.com/proddetail/kangasling-kangaroo-mother-care-bag-2854248016088.html?pos=163&kwd=baby care products&tags=BB||||8786.56|Price|product|||NA|rsf:gd-|-stype:attr=1|qr_nm:gd|res:RC4|com-cf:nl|ptrs:na|ktp:N0|mc:137678|mtp:G|qry_typ:P|lang:en|wc:3|cs:8885|v=4,Anviee Medi Solutions Private Limited,https://www.indiamart.com/anviee-medi-solutions-private-limited/?pos=163&kwd=baby care products&tags=BB||||8786.56|Price|product|||NA|rsf:gd-|-stype:attr=1|qr_nm:gd|res:RC4|com-cf:nl|ptrs:na|ktp:N0|mc:137678|mtp:G|qry_typ:P|lang:en|wc:3|cs:8885|v=4,FALSE,KPHB,Hyderabad,"15-29-1000/hig-230/a Dhanalaxmi Center Vaishnavi Nilayam, KPHB, Hyderabad - 500072, Dist.Hyderabad, Telangana",8048370724,9968
Cotton Baby Cot Mobile,https://www.indiamart.com/proddetail/baby-cot-mobile-2849149001197.html?pos=164&kwd=baby care products&tags=BB||||9077.513|Price|product|||NA|rsf:gd-|-stype:attr=1|qr_nm:gd|res:RC4|com-cf:nl|ptrs:na|ktp:N0|mc:137678|mtp:G|qry_typ:P|lang:en|wc:3|cs:8885|v=4,The Rui,https://www.indiamart.com/rui-handicrafts-kolkata/?pos=164&kwd=baby care products&tags=BB||||9077.513|Price|product|||NA|rsf:gd-|-stype:attr=1|qr_nm:gd|res:RC4|com-cf:nl|ptrs:na|ktp:N0|mc:137678|mtp:G|qry_typ:P|lang:en|wc:3|cs:8885|v=4,FALSE,,Rajnandgaon,"248/K, Baldeo Bagh, Rajnandgaon, Rajnandgaon - 491441, Dist.Rajnandgaon, Chhattisgarh",8069857364,417
Rubber 6 Month Baby Shampoo Shower Cap,https://www.indiamart.com/proddetail/baby-shampoo-shower-cap-2852450250762.html?pos=165&kwd=baby care products&tags=BA||||9848.189||product|||NA|rsf:gd-|-stype:attr=1|qr_nm:gd|res:RC4|com-cf:nl|ptrs:na|ktp:N0|mc:137678|mtp:G|qry_typ:P|lang:en|wc:3|cs:8885|v=4,R S Venture,https://www.indiamart.com/rsventure/?pos=165&kwd=baby care products&tags=BA||||9848.189||product|||NA|rsf:gd-|-stype:attr=1|qr_nm:gd|res:RC4|com-cf:nl|ptrs:na|ktp:N0|mc:137678|mtp:G|qry_typ:P|lang:en|wc:3|cs:8885|v=4,FALSE,Mahananda Para,Siliguri,"Basement, Holding No.153/9/197/1/N, Golden Plaza, Burdwan Road, Indusind Bank, Mahananda Para Ward 4 Darjeeling, Mahananda Para, Siliguri - 734001, Dist.Darjiling, West Bengal",8048206752,
"JINX Baby Care Baby Powder, Packaging Size: 50gr To 625gr",https://www.indiamart.com/proddetail/baby-powder-10407991648.html?pos=166&kwd=baby care products&tags=BB||||8223.226|Price|product|||NA|rsf:gd-|-stype:attr=1|qr_nm:gd|res:RC4|com-cf:nl|ptrs:na|ktp:N0|mc:137678|mtp:G|qry_typ:P|lang:en|wc:3|cs:8885|v=4,Jin-X Healthcare Private Limited,https://www.indiamart.com/jinxhealthcaremumbai/?pos=166&kwd=baby care products&tags=BB||||8223.226|Price|product|||NA|rsf:gd-|-stype:attr=1|qr_nm:gd|res:RC4|com-cf:nl|ptrs:na|ktp:N0|mc:137678|mtp:G|qry_typ:P|lang:en|wc:3|cs:8885|v=4,FALSE,Thane West,Thane,"G1, Dharmkuti Kharkar Ali, Thane West, Thane - 400601, Dist.Thane, Maharashtra",8046065306,
Blue Soft Fabric TWO WHEELER BABY CARRIER,https://www.indiamart.com/proddetail/two-wheeler-baby-carrier-25960786273.html?pos=167&kwd=baby care products&tags=BB||||8228.275|Price|product|||NA|rsf:gd-|-stype:attr=1|qr_nm:gd|res:RC4|com-cf:nl|ptrs:na|ktp:N0|mc:137678|mtp:G|qry_typ:P|lang:en|wc:3|cs:8885|v=4,Eclat Globalbiz LLP,https://www.indiamart.com/eclatglobalbiz/?pos=167&kwd=baby care products&tags=BB||||8228.275|Price|product|||NA|rsf:gd-|-stype:attr=1|qr_nm:gd|res:RC4|com-cf:nl|ptrs:na|ktp:N0|mc:137678|mtp:G|qry_typ:P|lang:en|wc:3|cs:8885|v=4,FALSE,,Ahmedabad,"Shilp Zaveri, Ahmedabad - 380004, Dist.Ahmedabad, Gujarat",8047627244,
"Mild Steel Adjustable Bed Rail Guard, Polished, Size: 60 X 17 Inch (l X H)",https://www.indiamart.com/proddetail/adjustable-bed-rail-guard-2850160565388.html?pos=169&kwd=baby care products&tags=BA||||8230.883|Price|product|||NA|rsf:gd-|-stype:attr=1|qr_nm:gd|res:RC4|com-cf:nl|ptrs:na|ktp:N0|mc:137678|mtp:G|qry_typ:P|lang:en|wc:3|cs:8885|v=4,A Kapadiya Enterprise,https://www.indiamart.com/akapadiya-enterprise-surat/?pos=169&kwd=baby care products&tags=BA||||8230.883|Price|product|||NA|rsf:gd-|-stype:attr=1|qr_nm:gd|res:RC4|com-cf:nl|ptrs:na|ktp:N0|mc:137678|mtp:G|qry_typ:P|lang:en|wc:3|cs:8885|v=4,FALSE,,Surat,"Plot No. 64, Ground Floor, Siddhi Vinayak Industrial Estate, At. Kholvad, Surat - 394190, Dist.Surat, Gujarat",7942804130,
Baby Care Products,,Delta Trading,https://www.indiamart.com/deltatrading-mumbai/?pos=170&kwd=baby care products&tags=BA||||8211.142||product|||NA|rsf:gd-|-stype:attr=1|qr_nm:gd|res:RC4|com-cf:nl|ptrs:na|ktp:N0|mc:137678|mtp:G|qry_typ:P|lang:en|wc:3|cs:8885|v=4,FALSE,,Mumbai,"Room No-1, Plot No-138, Subechha Chs, RSC 13, Charkop, Kandivali West,, Mumbai - 400067, Dist.Mumbai, Maharashtra",7942532134,
"White Mee Mee Breathable Premium Baby Diaper Pants - Small, 32 Pcs, Packaging Type: pack, Newly Born",https://www.indiamart.com/proddetail/mee-mee-breathable-premium-baby-diaper-pants-small-32-pcs-2852121301788.html?pos=171&kwd=baby care products&tags=BB||||8316.457|Price|product|||NA|rsf:gd-|-stype:attr=1|qr_nm:gd|res:RC4|com-cf:nl|ptrs:na|ktp:N0|mc:137678|mtp:G|qry_typ:P|lang:en|wc:3|cs:8885|v=4,Kihama Toys LLP,https://www.indiamart.com/kihamatoys/?pos=171&kwd=baby care products&tags=BB||||8316.457|Price|product|||NA|rsf:gd-|-stype:attr=1|qr_nm:gd|res:RC4|com-cf:nl|ptrs:na|ktp:N0|mc:137678|mtp:G|qry_typ:P|lang:en|wc:3|cs:8885|v=4,FALSE,Gangapur Road,Nashik,"A Wing, Office No 1A, Rushiraj Riviers, Gangapur Road, Near Bhonsla Military School, Gangapur Road, Nashik - 422013, Dist.Nashik, Maharashtra",7942837923,
Baby Silicon Finger Toothbrush,https://www.indiamart.com/proddetail/baby-silicon-finger-toothbrush-2854975697673.html?pos=172&kwd=baby care products&tags=BB||||8752.144|Price|product|||NA|rsf:gd-|-stype:attr=1|qr_nm:gd|res:RC4|com-cf:nl|ptrs:na|ktp:N0|mc:137678|mtp:G|qry_typ:P|lang:en|wc:3|cs:8885|v=4,Virenika Industries,https://www.indiamart.com/virenika-industries/?pos=172&kwd=baby care products&tags=BB||||8752.144|Price|product|||NA|rsf:gd-|-stype:attr=1|qr_nm:gd|res:RC4|com-cf:nl|ptrs:na|ktp:N0|mc:137678|mtp:G|qry_typ:P|lang:en|wc:3|cs:8885|v=4,FALSE,,New Delhi,"A-61, indirapark , masudabad , najafgarh najafgarh, New Delhi - 110053, Dist.Delhi, Delhi",8047662058,
"Baby Diaper (Aiwibi Australia Baby Products) (Diaper, Pants, Wipes Etc...)",https://www.indiamart.com/proddetail/baby-diaper-aiwibi-australia-baby-products-diaper-pants-wipes-etc-26933513433.html?pos=173&kwd=baby care products&tags=BB||||8230.883|Price|product|||NA|rsf:gd-|-stype:attr=1|qr_nm:gd|res:RC4|com-cf:nl|ptrs:na|ktp:N0|mc:137678|mtp:G|qry_typ:P|lang:en|wc:3|cs:8885|v=4,SDK Enterprise,https://www.indiamart.com/sdk-enterprise/?pos=173&kwd=baby care products&tags=BB||||8230.883|Price|product|||NA|rsf:gd-|-stype:attr=1|qr_nm:gd|res:RC4|com-cf:nl|ptrs:na|ktp:N0|mc:137678|mtp:G|qry_typ:P|lang:en|wc:3|cs:8885|v=4,FALSE,,Surat,"63, Sarita Vihar Co-Op House, Nr. Shantivan Soc., Sarthana, Varachha Road, Surat - 395006, Dist.Surat, Gujarat",8047658855,
Offspring Baby Bath Bed,https://www.indiamart.com/proddetail/offspring-baby-bath-bed-20121033148.html?pos=174&kwd=baby care products&tags=BB||||8211.142|Price|product|||NA|rsf:gd-|-stype:attr=1|qr_nm:gd|res:RC4|com-cf:nl|ptrs:na|ktp:N0|mc:137678|mtp:G|qry_typ:P|lang:en|wc:3|cs:8885|v=4,Offspring,https://www.indiamart.com/offspring/?pos=174&kwd=baby care products&tags=BB||||8211.142|Price|product|||NA|rsf:gd-|-stype:attr=1|qr_nm:gd|res:RC4|com-cf:nl|ptrs:na|ktp:N0|mc:137678|mtp:G|qry_typ:P|lang:en|wc:3|cs:8885|v=4,FALSE,Ghatkopar West,Mumbai,"No. 316, Subhash Nagar, Dutt Nagar J. M. Mandir Road, Asalpha, Ghatkopar West, Ghatkopar West, Mumbai - 400084, Dist.Mumbai, Maharashtra",8047629614,
"Mamaearth Baby Product, Packaging Type: Bottle, 1-2 Years",https://www.indiamart.com/proddetail/mamaearth-baby-product-23978679648.html?pos=175&kwd=baby care products&tags=BA||||8752.144|Price|product|||NA|rsf:gd-|-stype:attr=1|qr_nm:gd|res:RC4|com-cf:nl|ptrs:na|ktp:N0|mc:137678|mtp:G|qry_typ:P|lang:en|wc:3|cs:8885|v=4,Fashion Gali,https://www.indiamart.com/fashion-gali-delhi/?pos=175&kwd=baby care products&tags=BA||||8752.144|Price|product|||NA|rsf:gd-|-stype:attr=1|qr_nm:gd|res:RC4|com-cf:nl|ptrs:na|ktp:N0|mc:137678|mtp:G|qry_typ:P|lang:en|wc:3|cs:8885|v=4,FALSE,NEW DELHI,New Delhi,"235 SHOP NO 235 MONASTERY 2ND FLOOR, NEW DELHI, New Delhi - 110034, Dist.Delhi, Delhi",8043826796,
"Aveeno Baby Eczema Therapy Nighttime Balm, Skin Protectant For Eczema Relief, 11Oz",,Kanbi Ventures,https://www.indiamart.com/chandi-venture/?pos=176&kwd=baby care products&tags=BB||||8226.563||product|||NA|rsf:gd-|-stype:attr=1|qr_nm:gd|res:RC4|com-cf:nl|ptrs:na|ktp:N0|mc:137678|mtp:G|qry_typ:P|lang:en|wc:3|cs:8885|v=4,FALSE,,Navi Mumbai,"-, Navi Mumbai - 400706, Dist.Thane, Maharashtra",8048370704,7191
hy New Product,,Bharat EV,https://www.indiamart.com/bharat-ev/?pos=177&kwd=baby care products&tags=BA||||9771.577||product|||NA|rsf:gd-|-stype:attr=1|qr_nm:gd|res:RC4|com-cf:nl|ptrs:na|ktp:N0|mc:137678|mtp:G|qry_typ:P|lang:en|wc:3|cs:8885|v=4,FALSE,,Bolpur,"Bharat EV, Pravat Sarani, Opposite SDO Office, Beside Reliance Smart Superstore, Bandhgora, Bolpur Shantiniketan, Bolpur - 731204, Dist.Birbhum, West Bengal",8047805068,
"TRANSPARENT 200ml Baby Shampoo, Packaging Type: Bottle, 0 Plus Months",https://www.indiamart.com/proddetail/200ml-baby-shampoo-24419459191.html?pos=178&kwd=baby care products&tags=BA||||8752.144|Price|product|||NA|rsf:gd-|-stype:attr=1|qr_nm:gd|res:RC4|com-cf:nl|ptrs:na|ktp:N0|mc:137678|mtp:G|qry_typ:P|lang:en|wc:3|cs:8885|v=4,Narula Overseas Industries Private Limited,https://www.indiamart.com/narulaoverseasindustries/?pos=178&kwd=baby care products&tags=BA||||8752.144|Price|product|||NA|rsf:gd-|-stype:attr=1|qr_nm:gd|res:RC4|com-cf:nl|ptrs:na|ktp:N0|mc:137678|mtp:G|qry_typ:P|lang:en|wc:3|cs:8885|v=4,FALSE,,New Delhi,"First Floor,70/A-48,Rama Road, Industrial Area,Moti Nagar, New Delhi - 110015, Dist.Delhi, Delhi",7942541501,
Baby Grooming Kit / Baby Care Kit,,Vasdev Traders Hisar,https://www.indiamart.com/vasdev-traders-hisar/?pos=179&kwd=baby care products&tags=A||||8624.416|Price|product|||NA|rsf:gd-|-stype:attr=1|qr_nm:gd|res:RC4|com-cf:nl|ptrs:na|ktp:N0|mc:137678|mtp:G|qry_typ:P|lang:en|wc:3|cs:8885|v=4,FALSE,,Hisar,"Jindal chowk , Hisar, Hisar - 125005, Dist.Hisar, Haryana",8048249961,237
Baby Care,,I Care Home Services,https://www.indiamart.com/i-care-home-services-guwahati/?pos=180&kwd=baby care products&tags=BB||||10180.86|Price|product|||NA|rsf:gd-|-stype:attr=1|qr_nm:gd|res:RC4|com-cf:nl|ptrs:na|ktp:N0|mc:137678|mtp:G|qry_typ:P|lang:en|wc:3|cs:8885|v=4,FALSE,BELTOLA TINIALI,Guwahati,"1ST FLOOR,AASHIYANA BELTOLA TINIALI,GUWAHATI-781028 H/No.02,Beltola Tiniali Bus stop, BELTOLA TINIALI, Guwahati - 781028, Dist.Kamrup, Assam",8048370716,9441
baby care,,Jaipur Health Care,https://www.indiamart.com/jaipur-health-care/?pos=181&kwd=baby care products&tags=BB||||8601.347|Price|product|||NA|rsf:gd-|-stype:attr=1|qr_nm:gd|res:RC4|com-cf:nl|ptrs:na|ktp:N0|mc:137678|mtp:G|qry_typ:P|lang:en|wc:3|cs:8885|v=4,FALSE,,Jaipur,", Jaipur - 302017, Dist.Jaipur, Rajasthan",8048249739,1629
Baby Care,,Primecare Pharmaceutical Unit Of Primecare Pharma Pvt. Ltd.,https://www.indiamart.com/primecare-pharmaceutical-unit-of-primecare-pharma-pvt-ltd/?pos=182&kwd=baby care products&tags=B||||8663.873||product|||NA|rsf:gd-|-stype:attr=1|qr_nm:gd|res:RC4|com-cf:nl|ptrs:na|ktp:N0|mc:137678|mtp:G|qry_typ:P|lang:en|wc:3|cs:8885|v=4,FALSE,,Bengaluru,"No.450/19 3rd Cross, Wilson Garden, Bengaluru - 560027, Dist.Bengaluru, Karnataka",8048370667,8232
Baby Care Products,,Santhosh Elite,https://www.indiamart.com/santhosh-elite-chennai/?pos=183&kwd=baby care products&tags=BA||||8954.051|Price|product|||NA|rsf:gd-|-stype:attr=1|qr_nm:gd|res:RC4|com-cf:nl|ptrs:na|ktp:N0|mc:137678|mtp:G|qry_typ:P|lang:en|wc:3|cs:8885|v=4,FALSE,Annanagar,Chennai,"18th Main Road, Near Santhosh Store, Annanagar, Annanagar, Chennai - 600040, Dist.Chennai, Tamil Nadu",8069051304,756
Baby Care Products,,Mantoos Super Store,https://www.indiamart.com/mantoos-super-store/?pos=184&kwd=baby care products&tags=BB||||9110.092||product|||NA|rsf:gd-|-stype:attr=1|qr_nm:gd|res:RC4|com-cf:nl|ptrs:na|ktp:N0|mc:137678|mtp:G|qry_typ:P|lang:en|wc:3|cs:8885|v=4,FALSE,Mahanagar,Lucknow,"vijay Khand,2/12-c,gomti Nagar C I D COLONY, Mahanagar, Lucknow - 226010, Dist.Lucknow, Uttar Pradesh",8048250457,139
Baby Care Products,,Base Medi Super Market,https://www.indiamart.com/base-medi-super-market/?pos=185&kwd=baby care products&tags=BB||||8488.448||product|||NA|rsf:gd-|-stype:attr=1|qr_nm:gd|res:RC4|com-cf:nl|ptrs:na|ktp:N0|mc:137678|mtp:G|qry_typ:P|lang:en|wc:3|cs:8885|v=4,FALSE,,Malappuram,", Malappuram - 676501, Dist.Malappuram, Kerala",8048370721,4877
Baby Care Products,,kastur chemical,https://www.indiamart.com/company/227193248/?pos=186&kwd=baby care products&tags=B||||8788.382||product|||NA|rsf:gd-|-stype:attr=1|qr_nm:gd|res:RC4|com-cf:nl|ptrs:na|ktp:N0|mc:137678|mtp:G|qry_typ:P|lang:en|wc:3|cs:8885|v=4,FALSE,,Greater Noida,"332, Greater Noida - 201306, Dist.Gautam Budh Nagar, Uttar Pradesh",8045374815,1412
Baby Care Products,,MN Toys Gallery,https://www.indiamart.com/mn-toys-gallery/?pos=187&kwd=baby care products&tags=BB||||8838.804||product|||NA|rsf:gd-|-stype:attr=1|qr_nm:gd|res:RC4|com-cf:nl|ptrs:na|ktp:N0|mc:137678|mtp:G|qry_typ:P|lang:en|wc:3|cs:8885|v=4,FALSE,,Aligarh,"01,R L Road,Miri Lal Ki Piaau,Aligarh, Aligarh - 202001, Uttar Pradesh",8047308900,4712
Baby Care Products,,Maa Tarini Trading,https://www.indiamart.com/maa-tarini-trading-bhubaneswar/?pos=188&kwd=baby care products&tags=BA||||9572.14|Price|product|||NA|rsf:gd-|-stype:attr=1|qr_nm:gd|res:RC4|com-cf:nl|ptrs:na|ktp:N0|mc:137678|mtp:G|qry_typ:P|lang:en|wc:3|cs:8885|v=4,FALSE,Khordha,Bhubaneswar,"Konark Nagar Pallahat, Khordha, Bhubaneswar - 752055, Dist.Khorda, Odisha",8069051315,943
Baby Care Products,,Anitha Plastics Prop P.Karuppaya,https://www.indiamart.com/anitha-plastics-karur/?pos=189&kwd=baby care products&tags=BA||||8706.263|Price|product|||NA|rsf:gd-|-stype:attr=1|qr_nm:gd|res:RC4|com-cf:nl|ptrs:na|ktp:N0|mc:137678|mtp:G|qry_typ:P|lang:en|wc:3|cs:8885|v=4,FALSE,S. Vellapatty (PO),Karur,"Shop No. 61B/3, Thillai Nagar East Narikattiyur Road, S. Vellapatty (PO), Karur - 639004, Dist.Karur, Tamil Nadu",7949343074,
Mamaearth Baby Care Products,,Gupta Medical Corner,https://www.indiamart.com/gupta-medical-corner-byasanagar/?pos=190&kwd=baby care products&tags=B||||9604.593|Price|product|||NA|rsf:gd-|-stype:attr=1|qr_nm:gd|res:RC4|com-cf:nl|ptrs:na|ktp:N0|mc:137678|mtp:G|qry_typ:P|lang:en|wc:3|cs:8885|v=4,FALSE,,Byasanagar,"Plot No-1679/2661,Khata No-643/702,Mouza-Bhatia Unit-4,Jajpur Road,In Front Of Reliance Trends,Gopab, Byasanagar - 755019, Odisha",8048370712,4540
Baby Products,,Surat Anand Saree Centre,https://www.indiamart.com/surat-anand-saree-centre/?pos=191&kwd=baby care products&tags=BB||||8806.049|Price|product|||NA|rsf:gd-|-stype:attr=1|qr_nm:gd|res:RC4|com-cf:nl|ptrs:na|ktp:N0|mc:137678|mtp:G|qry_typ:P|lang:en|wc:3|cs:8885|v=4,FALSE,,Kallkurichi,"#26, Kamarajar Salai, Kachirayapalayam, Kallkurichi - 606207, Tamil Nadu",8069033731,594
Baby Products,,Yash Enterprise,https://www.indiamart.com/yashenterprise-148009393/?pos=192&kwd=baby care products&tags=BB||||8228.275||product|||NA|rsf:gd-|-stype:attr=1|qr_nm:gd|res:RC4|com-cf:nl|ptrs:na|ktp:N0|mc:137678|mtp:G|qry_typ:P|lang:en|wc:3|cs:8885|v=4,FALSE,near safal 1,Ahmedabad,"Fifth Floor E-506 Iscon complex (Vip market)Nr safal 1, near safal 1, Ahmedabad - 380021, Dist.Ahmedabad, Gujarat",8069033739,236
Baby Products,,A K Traders,https://www.indiamart.com/ak-traderstelangana/?pos=193&kwd=baby care products&tags=BA||||8786.56||product|||NA|rsf:gd-|-stype:attr=1|qr_nm:gd|res:RC4|com-cf:nl|ptrs:na|ktp:N0|mc:137678|mtp:G|qry_typ:P|lang:en|wc:3|cs:8885|v=4,FALSE,Darulshifa,Hyderabad,"22-8-143/A, Raheem Complex, Behind Nayaab Hotel, Chatta Bazar, Darulshifa, Hyderabad - 500002, Dist.Hyderabad, Telangana",8062245971,152
Baby Products,,Maxx Clothes,https://www.indiamart.com/maxx-clothes/?pos=194&kwd=baby care products&tags=BB||||8810.737|Price|product|||NA|rsf:gd-|-stype:attr=1|qr_nm:gd|res:RC4|com-cf:nl|ptrs:na|ktp:N0|mc:137678|mtp:G|qry_typ:P|lang:en|wc:3|cs:8885|v=4,FALSE,P.O-Saharanpur,Saharanpur,"4/330 Shiv Vihar Colony, P.O-Saharanpur, Saharanpur - 247001, Dist.Saharanpur, Uttar Pradesh",8048370044,1102
Baby Products,,Khushi Daiper House,https://www.indiamart.com/khushi-daiper-house/?pos=195&kwd=baby care products&tags=BB||||8295.25||product|||NA|rsf:gd-|-stype:attr=1|qr_nm:gd|res:RC4|com-cf:nl|ptrs:na|ktp:N0|mc:137678|mtp:G|qry_typ:P|lang:en|wc:3|cs:8885|v=4,FALSE,,Ponda,"shop no 8,domnic plaza tisk usgaon ponda goa 403 406, Ponda - 403406, Dist.South Goa, Goa",8048249781,1515
Baby Products,,Nakoda Medicals,https://www.indiamart.com/nakodamedicals-bengaluru/?pos=197&kwd=baby care products&tags=B||||8663.873|Price|product|||NA|rsf:gd-|-stype:attr=1|qr_nm:gd|res:RC4|com-cf:nl|ptrs:na|ktp:N0|mc:137678|mtp:G|qry_typ:P|lang:en|wc:3|cs:8885|v=4,FALSE,,Bengaluru,"Ground Floor 818 9th Main Road,Near Rpc Layout Busstand Hampi Nagar Hampi Nagar,Vijayanagar Bengaluru (Bangalore) Urban, Bengaluru - 560040, Dist.Bengaluru, Karnataka",8047308882,4394
BABY PRODUCTS,,Panchsheel Garment,https://www.indiamart.com/company/229430837/?pos=198&kwd=baby care products&tags=BB||||8663.873|Price|product|||NA|rsf:gd-|-stype:attr=1|qr_nm:gd|res:RC4|com-cf:nl|ptrs:na|ktp:N0|mc:137678|mtp:G|qry_typ:P|lang:en|wc:3|cs:8885|v=4,FALSE,,Bengaluru,"Ground Floor, 19,M, H Plaza Mamulpet,, Bengaluru - 560053, Dist.Bengaluru, Karnataka",8048247092,9782
Baby Products,,JJ Pharmacy,https://www.indiamart.com/jj-pharmacy/?pos=199&kwd=baby care products&tags=BA||||8786.56||product|||NA|rsf:gd-|-stype:attr=1|qr_nm:gd|res:RC4|com-cf:nl|ptrs:na|ktp:N0|mc:137678|mtp:G|qry_typ:P|lang:en|wc:3|cs:8885|v=4,FALSE,Asif Nagar,Hyderabad,"Mahdipatnam, Asif Nagar, Hyderabad - 500028, Dist.Hyderabad, Telangana",8048371753,163
Baby Products,,Narang Plastics Private Limited,https://www.indiamart.com/narang-plastics-private-limited/?pos=200&kwd=baby care products&tags=B||||8663.873||product|||NA|rsf:gd-|-stype:attr=1|qr_nm:gd|res:RC4|com-cf:nl|ptrs:na|ktp:N0|mc:137678|mtp:G|qry_typ:P|lang:en|wc:3|cs:8885|v=4,FALSE,,Bengaluru,"No. 303, 4th Phase, 5th Main, Peenya Industrial Area, Bengaluru - 560058, Dist.Bengaluru, Karnataka",8047311027,6433
Baby Products,,Mahadev Enterprises,https://www.indiamart.com/mahadeventps-bengaluru/?pos=201&kwd=baby care products&tags=BA||||8663.873|Price|product|||NA|rsf:gd-|-stype:attr=1|qr_nm:gd|res:RC4|com-cf:nl|ptrs:na|ktp:N0|mc:137678|mtp:G|qry_typ:P|lang:en|wc:3|cs:8885|v=4,FALSE,Cubbonpet Main Road,Bengaluru,"32, 1st Floor, 13th Cross, Cubbonpet Main Road, Bengaluru - 560001, Dist.Bengaluru, Karnataka",8047690378,
Baby Product,,Kiddies,https://www.indiamart.com/kiddies-company/?pos=202&kwd=baby care products&tags=BB||||8281.036||product|||NA|rsf:gd-|-stype:attr=1|qr_nm:gd|res:RC4|com-cf:nl|ptrs:na|ktp:N0|mc:137678|mtp:G|qry_typ:P|lang:en|wc:3|cs:8885|v=4,FALSE,harni road,Vadodara,"107 vedant complex meera char rasta harni road HARNI ROAD BAORDA, harni road, Vadodara - 390005, Dist.Vadodara, Gujarat",8047791180,
Baby Care Kit,,Rays Pharmacy,https://www.indiamart.com/rays-pharmacy/?pos=203&kwd=baby care products&tags=B||||9189.305||product|||NA|rsf:gd-|-stype:attr=1|qr_nm:gd|res:RC4|com-cf:nl|ptrs:na|ktp:N0|mc:137678|mtp:G|qry_typ:P|lang:en|wc:3|cs:8885|v=4,FALSE,PHULPUR,Prayagraj,"Na Shuklana Phulpur Allahabad PHULPUR, PHULPUR, Prayagraj - 212402, Dist.Allahabad, Uttar Pradesh",8069023901,550
Baby Care Product,,S.H.Bags,https://www.indiamart.com/sh-bags-ahmedabad/?pos=204&kwd=baby care products&tags=BB||||8228.275|Price|product|||NA|rsf:gd-|-stype:attr=1|qr_nm:gd|res:RC4|com-cf:nl|ptrs:na|ktp:N0|mc:137678|mtp:G|qry_typ:P|lang:en|wc:3|cs:8885|v=4,FALSE,NAVA NARODA,Ahmedabad,"SHIV GANGA RESIDENCY A/5, GOPAL CHOWK OPP. DHARTI VIDHYALAY NAVA NARODA, NAVA NARODA, Ahmedabad - 382330, Dist.Ahmedabad, Gujarat",8043831137,
Home Baby Care Service,,Home Care Baby Sitting,https://www.indiamart.com/home-care-baby-sitting/?pos=205&kwd=baby care products&tags=B||||8211.142||product|||NA|rsf:gd-|-stype:attr=1|qr_nm:gd|res:RC4|com-cf:nl|ptrs:na|ktp:N0|mc:137678|mtp:G|qry_typ:P|lang:en|wc:3|cs:8885|v=4,FALSE,road no 4,Mumbai,"near indraprastha bildding,motilal nagar no1 trikoni maidan, goregaon west, road no 4, Mumbai - 400104, Dist.Mumbai, Maharashtra",8048262233,927
Newborn Baby And Mother Care,,Coleus Health India Private Limited,https://www.indiamart.com/coleus-health-india-private-limited/?pos=206&kwd=baby care products&tags=BA||||8663.873||product|||NA|rsf:gd-|-stype:attr=1|qr_nm:gd|res:RC4|com-cf:nl|ptrs:na|ktp:N0|mc:137678|mtp:G|qry_typ:P|lang:en|wc:3|cs:8885|v=4,FALSE,,Bengaluru,"No 64 2nd Main Road 5/3, 4th Floor, Kundanahalli Gate, Varthur Rd, opposite SKR Convention Hall, BEML Layout, Brookefiel, Bengaluru - 560079, Dist.Bengaluru, Karnataka",8062245991,769
Mamaearth Baby Product,,Nari Shrungar,https://www.indiamart.com/shubham-retail-shop/?pos=207&kwd=baby care products&tags=BB||||8996.244||product|||NA|rsf:gd-|-stype:attr=1|qr_nm:gd|res:RC4|com-cf:nl|ptrs:na|ktp:N0|mc:137678|mtp:G|qry_typ:P|lang:en|wc:3|cs:8885|v=4,FALSE,,Gondia,"Lakhani Complex Ansari Ward Khoja Masjid Chowk Masjid Chowk,, Gondia - 441601, Dist.Gondia, Maharashtra",7949361160,
Newborn Baby Product,,Jabalpur Doorment Centre,https://www.indiamart.com/jabulpur-doormat-center/?pos=208&kwd=baby care products&tags=BA||||8984.809||product|||NA|rsf:gd-|-stype:attr=1|qr_nm:gd|res:RC4|com-cf:nl|ptrs:na|ktp:N0|mc:137678|mtp:G|qry_typ:P|lang:en|wc:3|cs:8885|v=4,FALSE,ghamandi chowk bada fuhara,Jabalpur,"Dukan No 893, New Ramnagar Sai Parisar Ke Andar Ward 75, Ghamndi Chouk Adhartal Bhawandi Chowk, ghamandi chowk bada fuhara, Jabalpur - 482004, Dist.Jabalpur, Madhya Pradesh",8069017416,440
Mamaearth Products,,Beauty Secrets Enterprises & Services,https://www.indiamart.com/beauty-secrets-enterprises-services/?pos=209&kwd=baby care products&tags=BB||||8383.113||product|||NA|rsf:gd-|-stype:attr=1|qr_nm:gd|res:RC4|com-cf:nl|ptrs:na|ktp:N0|mc:137678|mtp:G|qry_typ:P|lang:en|wc:3|cs:8885|v=4,FALSE,,Moodbidri,"4-197 13,Lavantha Complex,Moodbidri Yedapadavu Road,Mudbidri,Dakshina Kannada, Moodbidri - 574227, Karnataka",8069728212,555
Baby Mother-care Product,,Kanchan Kids,https://www.indiamart.com/kanchan-kids/?pos=210&kwd=baby care products&tags=BB||||8211.142||product|||NA|rsf:gd-|-stype:attr=1|qr_nm:gd|res:RC4|com-cf:nl|ptrs:na|ktp:N0|mc:137678|mtp:G|qry_typ:P|lang:en|wc:3|cs:8885|v=4,FALSE,Malad West,Mumbai,"Shop No. 22, A1, Natraj Market, Durga Galli, S V Road, Malad West, Mumbai - 400064, Dist.Mumbai, Maharashtra",8043823511,
