product_title,product_link,company_name,company_link,is_verified_exporter,city_region,city,address_details,phone_number,phone_number_extension
Baby's Bedding set ( Pack of 6),https://www.indiamart.com/proddetail/baby-s-bedding-set-pack-of-6-2853400548430.html?pos=1&kwd=baby bedding set&tags=A||||8211.142|Price|product|||TS|rsf:gd-|-stype:attr=1|qr_nm:gd|res:RC4|com-cf:nl|ptrs:na|ktp:N0|mc:49627|mtp:S|qry_typ:P|lang:en|wc:3|flavl:0-1|cs:9702|v=4,Sidhshlok Enterprises,https://www.indiamart.com/sidhshlokenterprises/?pos=1&kwd=baby bedding set&tags=A||||8211.142|Price|product|||TS|rsf:gd-|-stype:attr=1|qr_nm:gd|res:RC4|com-cf:nl|ptrs:na|ktp:N0|mc:49627|mtp:S|qry_typ:P|lang:en|wc:3|flavl:0-1|cs:9702|v=4,False,Mulund West,Mumbai,"A-9, Chagpar Khimaji, R R T Road, Mumbai Suburban, Mulund West, Mumbai - 400080, Dist.Mumbai, Maharashtra",7942832648,
"Multicolor Rectangular Baby Bedding Set, Cotton",https://www.indiamart.com/proddetail/baby-bedding-set-2854924535773.html?pos=2&kwd=baby bedding set&tags=A||||8752.144|Price|product|||TS|rsf:gd-|-stype:attr=1|qr_nm:gd|res:RC4|com-cf:nl|ptrs:na|ktp:N0|mc:49627|mtp:S|qry_typ:P|lang:en|wc:3|flavl:0-1|cs:9702|v=4,Verma Enterprises,https://www.styaloindia.com/?pos=2&kwd=baby bedding set&tags=A||||8752.144|Price|product|||TS|rsf:gd-|-stype:attr=1|qr_nm:gd|res:RC4|com-cf:nl|ptrs:na|ktp:N0|mc:49627|mtp:S|qry_typ:P|lang:en|wc:3|flavl:0-1|cs:9702|v=4,False,Samaypur,New Delhi,"Plot No.180/1-B, Kh.No. 955/1, 1st, Block-C, Raja Vihar, Siraspur, Badli, North West Delhi, Samaypur, New Delhi - 110042, Dist.Delhi, Delhi",8047654672,
Baby Mosquito Net Bed,https://www.indiamart.com/proddetail/baby-mosquito-net-bed-2850586699791.html?pos=3&kwd=baby bedding set&tags=A||||8230.883|Price|product|||TS|rsf:gd-|-stype:attr=1|qr_nm:gd|res:RC4|com-cf:nl|ptrs:na|ktp:N0|mc:49627|mtp:S|qry_typ:P|lang:en|wc:3|flavl:0-1|cs:9702|v=4,Concept Enterprise,https://www.cartforbaby.com/?pos=3&kwd=baby bedding set&tags=A||||8230.883|Price|product|||TS|rsf:gd-|-stype:attr=1|qr_nm:gd|res:RC4|com-cf:nl|ptrs:na|ktp:N0|mc:49627|mtp:S|qry_typ:P|lang:en|wc:3|flavl:0-1|cs:9702|v=4,False,Dabholi,Surat,"17, Bhumi Park Society, Near Dabholi Road, Katargam, Dabholi, Surat - 395004, Dist.Surat, Gujarat",8047546659,
"Cotton Multicolor Premium Quality Handblock Printed Bedding Set, Size: Double",https://www.indiamart.com/proddetail/premium-quality-handblock-printed-bedding-set-2853318463562.html?pos=4&kwd=baby bedding set&tags=A||||8601.347|Price|product|||TS|rsf:gd-|-stype:attr=1|qr_nm:gd|res:RC4|com-cf:nl|ptrs:na|ktp:N0|mc:49627|mtp:S|qry_typ:P|lang:en|wc:3|flavl:0-1|cs:9702|v=4,Indus Art And Emporium,https://www.indusart.in/?pos=4&kwd=baby bedding set&tags=A||||8601.347|Price|product|||TS|rsf:gd-|-stype:attr=1|qr_nm:gd|res:RC4|com-cf:nl|ptrs:na|ktp:N0|mc:49627|mtp:S|qry_typ:P|lang:en|wc:3|flavl:0-1|cs:9702|v=4,True,Mansarovar,Jaipur,"H/3, First Floor, RIICO Industrial Area, Mansarovar, Jaipur - 302020, Dist.Jaipur, Rajasthan",8048956816,
"Classic Mosquito Net Polyester Kids Baby Bed, Size: Small",https://www.indiamart.com/proddetail/classic-mosquito-net-polyester-kids-baby-bed-2853661286930.html?pos=5&kwd=baby bedding set&tags=A||||8281.036|Price|product|||TS|rsf:gd-|-stype:attr=1|qr_nm:gd|res:RC4|com-cf:nl|ptrs:na|ktp:N0|mc:49627|mtp:S|qry_typ:P|lang:en|wc:3|flavl:0-1|cs:9702|v=4,Classic Mosquito Net ( A Brand of Prayosha Expo Pvt. Ltd ),https://www.classicmosquitonet.co.in/?pos=5&kwd=baby bedding set&tags=A||||8281.036|Price|product|||TS|rsf:gd-|-stype:attr=1|qr_nm:gd|res:RC4|com-cf:nl|ptrs:na|ktp:N0|mc:49627|mtp:S|qry_typ:P|lang:en|wc:3|flavl:0-1|cs:9702|v=4,False,Industrial Estate,Vadodara,"C1B/267 Gidc, Opp. Prakruti Tiles, Makarpura Industrial Estate,, Industrial Estate, Vadodara - 390010, Dist.Vadodara, Gujarat",8046052164,
"Eco friendly soft fabric Applique Embroidered Kids Bedding Set, For Home or Gifting, Multi",https://www.indiamart.com/proddetail/kids-bedding-set-13265304891.html?pos=6&kwd=baby bedding set&tags=A||||8778.123|Price|product|||TS|rsf:gd-|-stype:attr=1|qr_nm:gd|res:RC4|com-cf:nl|ptrs:na|ktp:N0|mc:49627|mtp:S|qry_typ:P|lang:en|wc:3|flavl:0-1|cs:9702|v=4,Oscar Overseas,https://www.oscar-india.com/?pos=6&kwd=baby bedding set&tags=A||||8778.123|Price|product|||TS|rsf:gd-|-stype:attr=1|qr_nm:gd|res:RC4|com-cf:nl|ptrs:na|ktp:N0|mc:49627|mtp:S|qry_typ:P|lang:en|wc:3|flavl:0-1|cs:9702|v=4,False,,Noida,"A-99 Sector 5, Noida - 201301, Dist.Gautam Budh Nagar, Uttar Pradesh",8046058290,
"Printed Safe n cute Light Pink new born baby cotton Baby Bedding quilt Set, For Home",https://www.indiamart.com/proddetail/safe-n-cute-light-pink-new-born-baby-cotton-baby-bedding-quilt-set-2852528084412.html?pos=7&kwd=baby bedding set&tags=A||||8580.032|Price|product|||TS|rsf:gd-|-stype:attr=1|qr_nm:gd|res:RC4|com-cf:nl|ptrs:na|ktp:N0|mc:49627|mtp:S|qry_typ:P|lang:en|wc:3|flavl:0-1|cs:9702|v=4,Ritu Infants Care,https://www.indiamart.com/ritu-infants-care/?pos=7&kwd=baby bedding set&tags=A||||8580.032|Price|product|||TS|rsf:gd-|-stype:attr=1|qr_nm:gd|res:RC4|com-cf:nl|ptrs:na|ktp:N0|mc:49627|mtp:S|qry_typ:P|lang:en|wc:3|flavl:0-1|cs:9702|v=4,False,Sunder Nagar,Amritsar,"232, Tilak Nagar, Shivala Colony, Sunder Nagar, Amritsar - 143001, Dist.Amritsar, Punjab",7942712512,
"Plain Velvet Baby Bedding Set, 500g",https://www.indiamart.com/proddetail/velvet-baby-bedding-set-24888025148.html?pos=8&kwd=baby bedding set&tags=A||||8954.051|Price|product|||MDC|rsf:gd-|-stype:attr=1|qr_nm:gd|res:RC4|com-cf:nl|ptrs:na|ktp:N0|mc:49627|mtp:S|qry_typ:P|lang:en|wc:3|flavl:0-1|cs:9702|v=4,Adhoniyah,https://www.indiamart.com/adhoniyah/?pos=8&kwd=baby bedding set&tags=A||||8954.051|Price|product|||MDC|rsf:gd-|-stype:attr=1|qr_nm:gd|res:RC4|com-cf:nl|ptrs:na|ktp:N0|mc:49627|mtp:S|qry_typ:P|lang:en|wc:3|flavl:0-1|cs:9702|v=4,False,Jamalia,Chennai,"Ground Floor,5/4,Strahans Road I St Street,Otteri, Jamalia, Chennai - 600012, Dist.Chennai, Tamil Nadu",8048274134,
PVC Pink Baby Bedding With Mosquito Net,https://www.indiamart.com/proddetail/baby-bedding-with-mosquito-net-23034287530.html?pos=9&kwd=baby bedding set&tags=A||||9734.213||product|||MDC|rsf:gd-|-stype:attr=1|qr_nm:gd|res:RC4|com-cf:nl|ptrs:na|ktp:N0|mc:49627|mtp:S|qry_typ:P|lang:en|wc:3|flavl:0-1|cs:9702|v=4,Routh Textile,https://www.indiamart.com/routhtextile/?pos=9&kwd=baby bedding set&tags=A||||9734.213||product|||MDC|rsf:gd-|-stype:attr=1|qr_nm:gd|res:RC4|com-cf:nl|ptrs:na|ktp:N0|mc:49627|mtp:S|qry_typ:P|lang:en|wc:3|flavl:0-1|cs:9702|v=4,False,,Narayangarh,"Kedar High School, Routh Textile, Routh Bhawan, Unnamed Road, Kedar, Narayangarh - 721445, West Bengal",7949368454,
"Baby Bedding Set, For Home",https://www.indiamart.com/proddetail/baby-bedding-set-2849902792491.html?pos=10&kwd=baby bedding set&tags=A||||8752.144|Price|product|||TS|rsf:gd-|-stype:attr=1|qr_nm:gd|res:RC4|com-cf:nl|ptrs:na|ktp:N0|mc:49627|mtp:S|qry_typ:P|lang:en|wc:3|flavl:0-1|cs:9702|v=4,National Overseas,https://www.indiamart.com/nationaltraders-vishwashnagar/?pos=10&kwd=baby bedding set&tags=A||||8752.144|Price|product|||TS|rsf:gd-|-stype:attr=1|qr_nm:gd|res:RC4|com-cf:nl|ptrs:na|ktp:N0|mc:49627|mtp:S|qry_typ:P|lang:en|wc:3|flavl:0-1|cs:9702|v=4,False,Shahdara,New Delhi,"1/99, Gali No. 3, Vishwas Nagar, Shahdara, New Delhi - 110032, Dist.Delhi, Delhi",8046047673,
baby bading set (gadala set),https://www.indiamart.com/proddetail/baby-bading-set-gadala-set-2853717060588.html?pos=11&kwd=baby bedding set&tags=A||||8230.883|Price|product|||TS|rsf:gd-|-stype:attr=1|qr_nm:gd|res:RC4|com-cf:nl|ptrs:na|ktp:N0|mc:49627|mtp:S|qry_typ:P|lang:en|wc:3|flavl:0-1|cs:9702|v=4,Maa Kiran Handloom & Jiyana,https://www.indiamart.com/maakiranhandloomjiyana/?pos=11&kwd=baby bedding set&tags=A||||8230.883|Price|product|||TS|rsf:gd-|-stype:attr=1|qr_nm:gd|res:RC4|com-cf:nl|ptrs:na|ktp:N0|mc:49627|mtp:S|qry_typ:P|lang:en|wc:3|flavl:0-1|cs:9702|v=4,False,Udhana,Surat,"Shop No.17, Ground Floor, Astha Business Centre, Canal Road,, Udhana, Surat - 394185, Dist.Surat, Gujarat",7942788374,
"Solid Baby Bedding Set, Red",https://www.indiamart.com/proddetail/baby-bedding-set-2853013683388.html?pos=12&kwd=baby bedding set&tags=A||||8747.203|Price|product|||TS|rsf:gd-|-stype:attr=1|qr_nm:gd|res:RC4|com-cf:nl|ptrs:na|ktp:N0|mc:49627|mtp:S|qry_typ:P|lang:en|wc:3|flavl:0-1|cs:9702|v=4,Satya Textile,https://www.indiamart.com/satyatextile/?pos=12&kwd=baby bedding set&tags=A||||8747.203|Price|product|||TS|rsf:gd-|-stype:attr=1|qr_nm:gd|res:RC4|com-cf:nl|ptrs:na|ktp:N0|mc:49627|mtp:S|qry_typ:P|lang:en|wc:3|flavl:0-1|cs:9702|v=4,False,Netaji Colony,Panipat,"SHOP No. 324/7, SETHI Chowk,NEAR LOTUS HOSPITAL FACTORY KUTANI ROAD, Netaji Colony, Panipat - 132103, Dist.Panipat, Haryana",8046062202,
Cotton Printed Round reversiable Baby Bedding Set,https://www.indiamart.com/proddetail/round-reversiable-baby-bedding-set-2853244163773.html?pos=13&kwd=baby bedding set&tags=A||||8559.269|Price|product|||MDC|rsf:gd-|-stype:attr=1|qr_nm:gd|res:RC4|com-cf:nl|ptrs:na|ktp:N0|mc:49627|mtp:S|qry_typ:P|lang:en|wc:3|flavl:0-1|cs:9702|v=4,Sheza Enterprises,https://www.indiamart.com/shezaenterprises/?pos=13&kwd=baby bedding set&tags=A||||8559.269|Price|product|||MDC|rsf:gd-|-stype:attr=1|qr_nm:gd|res:RC4|com-cf:nl|ptrs:na|ktp:N0|mc:49627|mtp:S|qry_typ:P|lang:en|wc:3|flavl:0-1|cs:9702|v=4,False,,Indore,"Alif House, 5, Khajrana Main Road, Opposite HP Petrol Pump,, Indore - 452001, Dist.Indore, Madhya Pradesh",7948547068,
"Bedding Set Thick Base, Foldable Mattress, Colorful Pillow And Both Side Zip Closure Mosquito Net",https://www.indiamart.com/proddetail/bedding-set-thick-base-foldable-mattress-colorful-pillow-and-both-side-zip-closure-mosquito-net-24622598930.html?pos=14&kwd=baby bedding set&tags=A||||9842.824|Price|product|||TS|rsf:gd-|-stype:attr=1|qr_nm:gd|res:RC4|com-cf:nl|ptrs:na|ktp:N0|mc:49627|mtp:S|qry_typ:P|lang:en|wc:3|flavl:0-1|cs:9702|v=4,Indilittle Global Export,https://www.indiamart.com/indilittleglobalexport/?pos=14&kwd=baby bedding set&tags=A||||9842.824|Price|product|||TS|rsf:gd-|-stype:attr=1|qr_nm:gd|res:RC4|com-cf:nl|ptrs:na|ktp:N0|mc:49627|mtp:S|qry_typ:P|lang:en|wc:3|flavl:0-1|cs:9702|v=4,False,Haripal,Hooghly,"BRAHMANPARA, NALIKUL PASCHIM, HARIPAL, Haripal, Hooghly - 712405, Dist.Hooghly, West Bengal",8048977919,
Unisex Kids Chillax Printed Hoodies Track Pant Set,https://www.indiamart.com/proddetail/kids-chillax-printed-hoodies-track-pant-set-2854036171030.html?pos=15&kwd=baby bedding set&tags=A||||8230.883|Price|product|||TS|rsf:gd-|-stype:attr=1|qr_nm:gd|res:RC4|com-cf:nl|ptrs:na|ktp:N0|mc:49627|mtp:S|qry_typ:P|lang:en|wc:3|cs:8845|v=4,Jani Collection,https://www.indiamart.com/janicollection/?pos=15&kwd=baby bedding set&tags=A||||8230.883|Price|product|||TS|rsf:gd-|-stype:attr=1|qr_nm:gd|res:RC4|com-cf:nl|ptrs:na|ktp:N0|mc:49627|mtp:S|qry_typ:P|lang:en|wc:3|cs:8845|v=4,False,Katargam,Surat,"H.No. F.F., Plot 30-31, Parsottam Nagar, Idghawad, B/h Manavdharam Ashram, Gotalawadi, Katargam, Surat - 395003, Dist.Surat, Gujarat",8044562060,
"Cotton Multicolor Baby Bedding Set Manufacturer, For Home",https://www.indiamart.com/proddetail/baby-bedding-set-manufacturer-24284380555.html?pos=16&kwd=baby bedding set&tags=A||||8228.275||product|||TS|rsf:gd-|-stype:attr=1|qr_nm:gd|res:RC4|com-cf:nl|ptrs:na|ktp:N0|mc:49627|mtp:S|qry_typ:P|lang:en|wc:3|cs:8845|v=4,Panchratna Handicraft,https://www.indiamart.com/panchratnahadicraft/?pos=16&kwd=baby bedding set&tags=A||||8228.275||product|||TS|rsf:gd-|-stype:attr=1|qr_nm:gd|res:RC4|com-cf:nl|ptrs:na|ktp:N0|mc:49627|mtp:S|qry_typ:P|lang:en|wc:3|cs:8845|v=4,False,Nikol,Ahmedabad,"33, Ishwarkrupa Society, Opposite Jivanwadi, Nikol Gam Road, Nikol, Nikol, Ahmedabad - 382350, Dist.Ahmedabad, Gujarat",8048980894,
Chhote Janab 5 Piece Baby Bedding Set,https://www.indiamart.com/proddetail/5-piece-baby-bedding-set-19619250130.html?pos=17&kwd=baby bedding set&tags=A||||8752.144|Price|product|||TS|rsf:gd-|-stype:attr=1|qr_nm:gd|res:RC4|com-cf:nl|ptrs:na|ktp:N0|mc:49627|mtp:S|qry_typ:P|lang:en|wc:3|cs:8845|v=4,Shree Balaji Infant Wear,https://www.indiamart.com/chhotejanab/?pos=17&kwd=baby bedding set&tags=A||||8752.144|Price|product|||TS|rsf:gd-|-stype:attr=1|qr_nm:gd|res:RC4|com-cf:nl|ptrs:na|ktp:N0|mc:49627|mtp:S|qry_typ:P|lang:en|wc:3|cs:8845|v=4,False,Pahari Dhiraj,New Delhi,"1583- 84, Hathi Khana, Aziz Ganj, Bahadur Garh Road, Pahari Dhiraj, New Delhi - 110006, Dist.Delhi, Delhi",8047639754,
"Blue Baby Bedding Set, Cotton",https://www.indiamart.com/proddetail/blue-baby-bedding-set-2854147655330.html?pos=18&kwd=baby bedding set&tags=A||||8507.67|Price|product|||MDC|rsf:gd-|-stype:attr=1|qr_nm:gd|res:RC4|com-cf:nl|ptrs:na|ktp:N0|mc:49627|mtp:S|qry_typ:P|lang:en|wc:3|cs:8845|v=4,Ruby Traders And Distributors,https://www.indiamart.com/ruby-traders-distributors/?pos=18&kwd=baby bedding set&tags=A||||8507.67|Price|product|||MDC|rsf:gd-|-stype:attr=1|qr_nm:gd|res:RC4|com-cf:nl|ptrs:na|ktp:N0|mc:49627|mtp:S|qry_typ:P|lang:en|wc:3|cs:8845|v=4,False,,Ernakulam,"Ground, 70/2535 A, Ruby Traders And Distributors, Deshabhimani Road, Near Bsnl Exchange, Desha Kochi, Ernakulam - 682017, Dist.Ernakulam, Kerala",8041015821,
"Cotton Baby Blue Bedding Set, Printed",https://www.indiamart.com/proddetail/baby-blue-bedding-set-22553510055.html?pos=19&kwd=baby bedding set&tags=A||||8752.144|Price|product|||MDC|rsf:gd-|-stype:attr=1|qr_nm:gd|res:RC4|com-cf:nl|ptrs:na|ktp:N0|mc:49627|mtp:S|qry_typ:P|lang:en|wc:3|cs:8845|v=4,Kidz Creation,https://www.indiamart.com/kidzcreation/?pos=19&kwd=baby bedding set&tags=A||||8752.144|Price|product|||MDC|rsf:gd-|-stype:attr=1|qr_nm:gd|res:RC4|com-cf:nl|ptrs:na|ktp:N0|mc:49627|mtp:S|qry_typ:P|lang:en|wc:3|cs:8845|v=4,False,,New Delhi,"Shop No. 279/517,Sabharwal Market, Tolia Wali Gali Sadar Bazar, North Delhi,, New Delhi - 110006, Dist.Delhi, Delhi",8047679212,
"Foam Pillow Rectangular Lilac Baby Bedding Set, Cotton",https://www.indiamart.com/proddetail/lilac-baby-bedding-set-2854492866812.html?pos=20&kwd=baby bedding set&tags=A||||8747.203|Price|product|||MDC|rsf:gd-|-stype:attr=1|qr_nm:gd|res:RC4|com-cf:nl|ptrs:na|ktp:N0|mc:49627|mtp:S|qry_typ:P|lang:en|wc:3|cs:8845|v=4,Gandhi Wooltex,https://www.indiamart.com/gandhiwooltex/?pos=20&kwd=baby bedding set&tags=A||||8747.203|Price|product|||MDC|rsf:gd-|-stype:attr=1|qr_nm:gd|res:RC4|com-cf:nl|ptrs:na|ktp:N0|mc:49627|mtp:S|qry_typ:P|lang:en|wc:3|cs:8845|v=4,False,,Panipat,"H No. 538, Sector 12, Huda, Panipat - 132103, Dist.Panipat, Haryana",7949338841,
Printed Blue And White Baby Round Cotton Velvet Bedding Set,https://www.indiamart.com/proddetail/baby-round-cotton-velvet-bedding-set-2853219434597.html?pos=21&kwd=baby bedding set&tags=A||||8752.144|Price|product|||MDC|rsf:gd-|-stype:attr=1|qr_nm:gd|res:RC4|com-cf:nl|ptrs:na|ktp:N0|mc:49627|mtp:S|qry_typ:P|lang:en|wc:3|cs:8845|v=4,Kapil Enterprises,https://www.indiamart.com/kapilenterprisesnew-delhi/?pos=21&kwd=baby bedding set&tags=A||||8752.144|Price|product|||MDC|rsf:gd-|-stype:attr=1|qr_nm:gd|res:RC4|com-cf:nl|ptrs:na|ktp:N0|mc:49627|mtp:S|qry_typ:P|lang:en|wc:3|cs:8845|v=4,False,Vijay Vihar,New Delhi,"Ground Floor, E-25, Vijay Vihar, Near Badi Masjid, Rohini Sector 7, North West Delhi, Vijay Vihar, New Delhi - 110085, Dist.Delhi, Delhi",7949092118,
"Red Printed Cotton Baby Bedding Set, For Home",https://www.indiamart.com/proddetail/cotton-baby-bedding-set-22828838748.html?pos=22&kwd=baby bedding set&tags=A||||8601.347|Price|product|||TS|rsf:gd-|-stype:attr=1|qr_nm:gd|res:RC4|com-cf:nl|ptrs:na|ktp:N0|mc:49627|mtp:S|qry_typ:P|lang:en|wc:3|cs:8845|v=4,Meera Handicrafts,https://www.meerahandicrafts.in/?pos=22&kwd=baby bedding set&tags=A||||8601.347|Price|product|||TS|rsf:gd-|-stype:attr=1|qr_nm:gd|res:RC4|com-cf:nl|ptrs:na|ktp:N0|mc:49627|mtp:S|qry_typ:P|lang:en|wc:3|cs:8845|v=4,True,Govind Nagar,Jaipur,"Govind Nagar Vistar, Plot No 54b, Dussehra Kothi, Amer Road, Govind Nagar, Jaipur - 302002, Dist.Jaipur, Rajasthan",8048618585,
"Cotton Hand Block Printed Baby Bedding Set, Off White",https://www.indiamart.com/proddetail/hand-block-printed-baby-bedding-set-2850171132633.html?pos=23&kwd=baby bedding set&tags=BA||||8601.347|Price|product|||TS|rsf:gd-|-stype:attr=1|qr_nm:gd|res:RC4|com-cf:nl|ptrs:na|ktp:N0|mc:49627|mtp:S|qry_typ:P|lang:en|wc:3|cs:8845|v=4,Mohit Handicrafts And Textile,https://www.indiamart.com/mohit-handicrafts-and-textile/?pos=23&kwd=baby bedding set&tags=BA||||8601.347|Price|product|||TS|rsf:gd-|-stype:attr=1|qr_nm:gd|res:RC4|com-cf:nl|ptrs:na|ktp:N0|mc:49627|mtp:S|qry_typ:P|lang:en|wc:3|cs:8845|v=4,True,,Jaipur,"Sitarampuri, 50, Amer Road, Jaipur - 302002, Dist.Jaipur, Rajasthan",8043859041,
Newborn Baby Woolen Set,https://www.indiamart.com/proddetail/newborn-baby-woolen-set-2854859393348.html?pos=24&kwd=baby bedding set&tags=BB||||8954.051|Price|product|||TS|rsf:gd-|-stype:attr=1|qr_nm:gd|res:RC4|com-cf:nl|ptrs:na|ktp:N0|mc:49627|mtp:S|qry_typ:P|lang:en|wc:3|cs:8845|v=4,Sundar Garments,https://www.sundargarment.com/?pos=24&kwd=baby bedding set&tags=BB||||8954.051|Price|product|||TS|rsf:gd-|-stype:attr=1|qr_nm:gd|res:RC4|com-cf:nl|ptrs:na|ktp:N0|mc:49627|mtp:S|qry_typ:P|lang:en|wc:3|cs:8845|v=4,False,Kondithop,Chennai,"No-9 Murugesan Street Near Kondithope Park, Kondithop, Chennai - 600079, Dist.Chennai, Tamil Nadu",8048266539,
Good Quality Cotton Baby Bedding Set,https://www.indiamart.com/proddetail/baby-bedding-set-22261401388.html?pos=25&kwd=baby bedding set&tags=A||||9829.308|Price|product|||TS|rsf:gd-|-stype:attr=1|qr_nm:gd|res:RC4|com-cf:nl|ptrs:na|ktp:N0|mc:49627|mtp:S|qry_typ:P|lang:en|wc:3|cs:8845|v=4,Yash Garment,https://www.indiamart.com/yash-garment/?pos=25&kwd=baby bedding set&tags=A||||9829.308|Price|product|||TS|rsf:gd-|-stype:attr=1|qr_nm:gd|res:RC4|com-cf:nl|ptrs:na|ktp:N0|mc:49627|mtp:S|qry_typ:P|lang:en|wc:3|cs:8845|v=4,False,Ross Road,Howrah,"Gali No.38/25, Ross Road, Howrah - 711101, Dist.Howrah, West Bengal",7942556350,
"White Hand Block Printed Cotton Baby Bedding Sets, For Home",https://www.indiamart.com/proddetail/hand-block-printed-cotton-baby-bedding-sets-26476482097.html?pos=26&kwd=baby bedding set&tags=BA||||8601.347|Price|product|||TS|rsf:gd-|-stype:attr=1|qr_nm:gd|res:RC4|com-cf:nl|ptrs:na|ktp:N0|mc:49627|mtp:S|qry_typ:P|lang:en|wc:3|cs:8845|v=4,Veer Handircrafts,https://www.veerhandicrafts.com/?pos=26&kwd=baby bedding set&tags=BA||||8601.347|Price|product|||TS|rsf:gd-|-stype:attr=1|qr_nm:gd|res:RC4|com-cf:nl|ptrs:na|ktp:N0|mc:49627|mtp:S|qry_typ:P|lang:en|wc:3|cs:8845|v=4,True,Shyam Nagar,Jaipur,"Basement, 192/331, Sector 19, Kumbha Marg, Shyam Nagar, Jaipur - 302029, Dist.Jaipur, Rajasthan",8043851762,
Cotton Cream (Base) Baby Printed Carry Bed Set,https://www.indiamart.com/proddetail/baby-printed-bedding-set-2854977854055.html?pos=27&kwd=baby bedding set&tags=A||||8786.56|Price|product|||MDC|rsf:gd-|-stype:attr=1|qr_nm:gd|res:RC4|com-cf:nl|ptrs:na|ktp:N0|mc:49627|mtp:S|qry_typ:P|lang:en|wc:3|cs:8845|v=4,Vinod And Company,https://www.indiamart.com/vinodcompany-hyderabad/?pos=27&kwd=baby bedding set&tags=A||||8786.56|Price|product|||MDC|rsf:gd-|-stype:attr=1|qr_nm:gd|res:RC4|com-cf:nl|ptrs:na|ktp:N0|mc:49627|mtp:S|qry_typ:P|lang:en|wc:3|cs:8845|v=4,False,Feelkhana,Hyderabad,"15/8/514/1/D, Feelkhana, Begum Bazar, Feelkhana, Hyderabad - 500012, Dist.Hyderabad, Telangana",7949086154,
"Cotton Zipper little monkeys Baby Bed Set and Baby Play Gym with Mosquito Net, For Home, Size: Medium",https://www.indiamart.com/proddetail/little-monkeys-baby-bed-set-and-baby-play-gym-with-mosquito-net-2851497240588.html?pos=28&kwd=baby bedding set&tags=BA||||8752.144|Price|product|||TS|rsf:gd-|-stype:attr=1|qr_nm:gd|res:RC4|com-cf:nl|ptrs:na|ktp:N0|mc:49627|mtp:S|qry_typ:P|lang:en|wc:3|cs:8845|v=4,Ekta Overseas,https://www.indiamart.com/ektaoverseas-newdelhi/?pos=28&kwd=baby bedding set&tags=BA||||8752.144|Price|product|||TS|rsf:gd-|-stype:attr=1|qr_nm:gd|res:RC4|com-cf:nl|ptrs:na|ktp:N0|mc:49627|mtp:S|qry_typ:P|lang:en|wc:3|cs:8845|v=4,False,Shahdara,New Delhi,"1/95, Gali No.3, Near Navjeevan Phisical Center, Vishwas Nagar, Shahdara,, Shahdara, New Delhi - 110032, Dist.Delhi, Delhi",7942628926,
Baby Bidding,,Prince And Princess,https://www.indiamart.com/prince-princess-delhi/?pos=29&kwd=baby bedding set&tags=A||||8752.144||product|||MDC|rsf:gd-|-stype:attr=1|qr_nm:gd|res:RC4|com-cf:nl|ptrs:na|ktp:N0|mc:49627|mtp:S|qry_typ:P|lang:en|wc:3|cs:8845|v=4,False,Gulabi Bagh,New Delhi,"Ground Floor, Garage No - 74, Gulabi Bagh Road,, Gulabi Bagh, New Delhi - 110007, Dist.Delhi, Delhi",8047629125,
"100% Cotton Multicolor Block Printed Baby Bedding Set, Size: 44 X44 Inches Quilt & Doher",https://www.indiamart.com/proddetail/block-printed-baby-bedding-set-22426577555.html?pos=30&kwd=baby bedding set&tags=A||||8601.347|Price|product|||TS|rsf:gd-|-stype:attr=1|qr_nm:gd|res:RC4|com-cf:nl|ptrs:na|ktp:N0|mc:49627|mtp:S|qry_typ:P|lang:en|wc:3|cs:8845|v=4,Shree Ganesh Handicrafts & Textiles,https://www.shreeganeshhandicrafts.com/?pos=30&kwd=baby bedding set&tags=A||||8601.347|Price|product|||TS|rsf:gd-|-stype:attr=1|qr_nm:gd|res:RC4|com-cf:nl|ptrs:na|ktp:N0|mc:49627|mtp:S|qry_typ:P|lang:en|wc:3|cs:8845|v=4,True,Amer Road,Jaipur,"Govind Nagar Vistar, Plot No 54b, Dussehra Kothi, Amer Road, Amer Road, Jaipur - 302002, Dist.Jaipur, Rajasthan",8046036982,
"Kids Velvet Bedding Set, For Gift Purpose",https://www.indiamart.com/proddetail/kids-velvet-bedding-set-2849665787455.html?pos=31&kwd=baby bedding set&tags=A||||8823.154|Price|product|||TS|rsf:gd-|-stype:attr=1|qr_nm:gd|res:RC4|com-cf:nl|ptrs:na|ktp:N0|mc:49627|mtp:S|qry_typ:P|lang:en|wc:3|cs:8845|v=4,Basant Bahar Hosiery,https://www.angelsoftindia.in/?pos=31&kwd=baby bedding set&tags=A||||8823.154|Price|product|||TS|rsf:gd-|-stype:attr=1|qr_nm:gd|res:RC4|com-cf:nl|ptrs:na|ktp:N0|mc:49627|mtp:S|qry_typ:P|lang:en|wc:3|cs:8845|v=4,False,Mantola,Agra,"Plot No. 29/294, Katra Hazi Hassan, Mantola, Agra - 282003, Dist.Agra, Uttar Pradesh",8047643394,
Velvet Solid Baby Bedding Set With Mosquito Net,https://www.indiamart.com/proddetail/baby-bedding-set-with-mosquito-net-2850453837612.html?pos=32&kwd=baby bedding set&tags=A||||8747.203|Price|product|||TS|rsf:gd-|-stype:attr=1|qr_nm:gd|res:RC4|com-cf:nl|ptrs:na|ktp:N0|mc:49627|mtp:S|qry_typ:P|lang:en|wc:3|cs:8845|v=4,Clovis Krafts,https://www.cloviskrafts.com/?pos=32&kwd=baby bedding set&tags=A||||8747.203|Price|product|||TS|rsf:gd-|-stype:attr=1|qr_nm:gd|res:RC4|com-cf:nl|ptrs:na|ktp:N0|mc:49627|mtp:S|qry_typ:P|lang:en|wc:3|cs:8845|v=4,False,Tehsil Camp,Panipat,"Vikas Nagar 314 Tehsil Camp Near Ram Mandir, Tehsil Camp, Panipat - 132103, Dist.Panipat, Haryana",8047313394,
U 200 TC Baby Bedding with Mattress Set and Pillow,https://www.indiamart.com/proddetail/200-tc-baby-bedding-with-mattress-set-and-pillow-2853593929012.html?pos=33&kwd=baby bedding set&tags=A||||8747.203|Price|product|||TS|rsf:gd-|-stype:attr=1|qr_nm:gd|res:RC4|com-cf:nl|ptrs:na|ktp:N0|mc:49627|mtp:S|qry_typ:P|lang:en|wc:3|cs:8845|v=4,National Woollen & Finishers,https://www.nationalwoollen.com/?pos=33&kwd=baby bedding set&tags=A||||8747.203|Price|product|||TS|rsf:gd-|-stype:attr=1|qr_nm:gd|res:RC4|com-cf:nl|ptrs:na|ktp:N0|mc:49627|mtp:S|qry_typ:P|lang:en|wc:3|cs:8845|v=4,True,Huda,Panipat,"Plot No. 302, Industrial Area, Sector 29, Part II, Huda, Panipat - 132103, Dist.Panipat, Haryana",8048601812,
"Blue Rectangular Baby Sleeping Bed Set, Cotton",https://www.indiamart.com/proddetail/baby-sleeping-bed-set-19259131230.html?pos=34&kwd=baby bedding set&tags=A||||8752.144|Price|product|||TS|rsf:gd-|-stype:attr=1|qr_nm:gd|res:RC4|com-cf:nl|ptrs:na|ktp:N0|mc:49627|mtp:S|qry_typ:P|lang:en|wc:3|cs:8845|v=4,Gyasi Ram & Sons,https://www.indiamart.com/gyasi-ram-sons/?pos=34&kwd=baby bedding set&tags=A||||8752.144|Price|product|||TS|rsf:gd-|-stype:attr=1|qr_nm:gd|res:RC4|com-cf:nl|ptrs:na|ktp:N0|mc:49627|mtp:S|qry_typ:P|lang:en|wc:3|cs:8845|v=4,False,Sadar Bazaar,New Delhi,"No. 459, Main Road, Sadar Bazar, Sadar Bazaar, New Delhi - 110006, Dist.Delhi, Delhi",8043865798,
"Neck Pillow Rectangular Baby Bedding Set, Polyester",https://www.indiamart.com/proddetail/baby-bedding-set-2854985203391.html?pos=35&kwd=baby bedding set&tags=A||||8307.81|Price|product|||MDC|rsf:gd-|-stype:attr=1|qr_nm:gd|res:RC4|com-cf:nl|ptrs:na|ktp:N0|mc:49627|mtp:S|qry_typ:P|lang:en|wc:3|cs:8845|v=4,Manish Dresses,https://www.indiamart.com/manish-dresses-pune/?pos=35&kwd=baby bedding set&tags=A||||8307.81|Price|product|||MDC|rsf:gd-|-stype:attr=1|qr_nm:gd|res:RC4|com-cf:nl|ptrs:na|ktp:N0|mc:49627|mtp:S|qry_typ:P|lang:en|wc:3|cs:8845|v=4,False,,Pune,"384, Budhwar Peth,, Pune - 411030, Dist.Pune, Maharashtra",7949312436,
"Multicolor Baby Foldable Bedding Set, Cotton",https://www.indiamart.com/proddetail/baby-foldable-bedding-set-2854459419230.html?pos=36&kwd=baby bedding set&tags=A||||8752.144|Price|product|||MDC|rsf:gd-|-stype:attr=1|qr_nm:gd|res:RC4|com-cf:nl|ptrs:na|ktp:N0|mc:49627|mtp:S|qry_typ:P|lang:en|wc:3|cs:8845|v=4,R K Enterprises,https://www.indiamart.com/r-kenterprisesnorthnewdelhi/?pos=36&kwd=baby bedding set&tags=A||||8752.144|Price|product|||MDC|rsf:gd-|-stype:attr=1|qr_nm:gd|res:RC4|com-cf:nl|ptrs:na|ktp:N0|mc:49627|mtp:S|qry_typ:P|lang:en|wc:3|cs:8845|v=4,False,North Delhi,New Delhi,"House No-235, Yadav Nagar, Block-E, Samaypur, North Delhi, New Delhi - 110042, Dist.Delhi, Delhi",7949337344,
"Neck Pillow Blue Newborn Baby Bedding Set, Cotton",https://www.indiamart.com/proddetail/newborn-baby-bedding-set-2854875439255.html?pos=37&kwd=baby bedding set&tags=A||||9813.14|Price|product|||MDC|rsf:gd-|-stype:attr=1|qr_nm:gd|res:RC4|com-cf:nl|ptrs:na|ktp:N0|mc:49627|mtp:S|qry_typ:P|lang:en|wc:3|cs:8845|v=4,Simply Sahab,https://www.indiamart.com/simplysahab/?pos=37&kwd=baby bedding set&tags=A||||9813.14|Price|product|||MDC|rsf:gd-|-stype:attr=1|qr_nm:gd|res:RC4|com-cf:nl|ptrs:na|ktp:N0|mc:49627|mtp:S|qry_typ:P|lang:en|wc:3|cs:8845|v=4,False,Kolkata,Jagatballavpur,"Jagatballavpur, Rajdaria, Kolkata, Jagatballavpur - 711408, Dist.Howrah, West Bengal",8041015046,
Baby Carry Bed,https://www.indiamart.com/proddetail/baby-carry-bed-2854012203388.html?pos=38&kwd=baby bedding set&tags=BA||||8559.269|Price|product|||TS|rsf:gd-|-stype:attr=1|qr_nm:gd|res:RC4|com-cf:nl|ptrs:na|ktp:N0|mc:49627|mtp:S|qry_typ:P|lang:en|wc:3|cs:8845|v=4,Central India Fabrics,https://www.centralindiafabrics.net/?pos=38&kwd=baby bedding set&tags=BA||||8559.269|Price|product|||TS|rsf:gd-|-stype:attr=1|qr_nm:gd|res:RC4|com-cf:nl|ptrs:na|ktp:N0|mc:49627|mtp:S|qry_typ:P|lang:en|wc:3|cs:8845|v=4,True,Avantika Nagar,Indore,"2/A/C, Sector D, Sanwer Road Opposite Bandganga Police Station, Avantika Nagar, Indore - 452015, Dist.Indore, Madhya Pradesh",8048965370,
"100% Natural Organic Cotton Printed Stylish Animal Print Baby Bedding Set, For Hotel, Multi",https://www.indiamart.com/proddetail/stylish-animal-print-baby-bedding-set-2850392580733.html?pos=39&kwd=baby bedding set&tags=BA||||8601.347|Price|product|||TS|rsf:gd-|-stype:attr=1|qr_nm:gd|res:RC4|com-cf:nl|ptrs:na|ktp:N0|mc:49627|mtp:S|qry_typ:P|lang:en|wc:3|cs:8845|v=4,Trade Star Exports,https://www.tradestar.co.in/?pos=39&kwd=baby bedding set&tags=BA||||8601.347|Price|product|||TS|rsf:gd-|-stype:attr=1|qr_nm:gd|res:RC4|com-cf:nl|ptrs:na|ktp:N0|mc:49627|mtp:S|qry_typ:P|lang:en|wc:3|cs:8845|v=4,True,,Jaipur,"H 1 1256, Riico Industrial Area, Sitapura,, Jaipur - 302022, Dist.Jaipur, Rajasthan",8046033994,
"Parmi Textile Sky Blue Printed Baby Cotton Quilts, Size: 44 X 44inch",https://www.indiamart.com/proddetail/sky-blue-printed-baby-cotton-quilts-2849902171930.html?pos=40&kwd=baby bedding set&tags=BA||||8601.347|Price|product|||TS|rsf:gd-|-stype:attr=1|qr_nm:gd|res:RC4|com-cf:nl|ptrs:na|ktp:N0|mc:49627|mtp:S|qry_typ:P|lang:en|wc:3|cs:8845|v=4,Parmi Textile,https://www.parmitextile.com/?pos=40&kwd=baby bedding set&tags=BA||||8601.347|Price|product|||TS|rsf:gd-|-stype:attr=1|qr_nm:gd|res:RC4|com-cf:nl|ptrs:na|ktp:N0|mc:49627|mtp:S|qry_typ:P|lang:en|wc:3|cs:8845|v=4,False,Sanganer,Jaipur,"192/331, Janki Devi Road, Sanganer, Jaipur - 302033, Dist.Jaipur, Rajasthan",7942801178,
"Cotton Baby 6 Pcs Set, For Gift Purpose, pp Packing",https://www.indiamart.com/proddetail/baby-6-pcs-set-2853573829733.html?pos=41&kwd=baby bedding set&tags=BB||||8747.203|Price|product|||TS|rsf:gd-|-stype:attr=1|qr_nm:gd|res:RC4|com-cf:nl|ptrs:na|ktp:N0|mc:49627|mtp:S|qry_typ:P|lang:en|wc:3|cs:8845|v=4,Shiv Textiles,https://www.indiamart.com/shivtextilespanipat/?pos=41&kwd=baby bedding set&tags=BB||||8747.203|Price|product|||TS|rsf:gd-|-stype:attr=1|qr_nm:gd|res:RC4|com-cf:nl|ptrs:na|ktp:N0|mc:49627|mtp:S|qry_typ:P|lang:en|wc:3|cs:8845|v=4,False,Jagjivan Ram Colony,Panipat,"Shop No.19-C, Aggarwal Gali Number 1, Gohana Road, Jagjivan Ram Colony, Panipat - 132103, Dist.Panipat, Haryana",7942665530,
"RRC Cotton Baby Set for new Born Baby, For Gifting",https://www.indiamart.com/proddetail/rrc-cotton-baby-set-for-new-born-baby-2853871529088.html?pos=42&kwd=baby bedding set&tags=BA||||8601.347|Price|product|||TS|rsf:gd-|-stype:attr=1|qr_nm:gd|res:RC4|com-cf:nl|ptrs:na|ktp:N0|mc:49627|mtp:S|qry_typ:P|lang:en|wc:3|cs:8845|v=4,RR Creations,https://www.rrcreation.co.in/?pos=42&kwd=baby bedding set&tags=BA||||8601.347|Price|product|||TS|rsf:gd-|-stype:attr=1|qr_nm:gd|res:RC4|com-cf:nl|ptrs:na|ktp:N0|mc:49627|mtp:S|qry_typ:P|lang:en|wc:3|cs:8845|v=4,False,Raghunathgarh,Jaipur,"A7D, Raghunath Colony, Galta Gate, Raghunathgarh, Jaipur - 302003, Dist.Jaipur, Rajasthan",8047620731,
"Multicolor Baby Foldable Bedding Set, Cotton",https://www.indiamart.com/proddetail/baby-foldable-bedding-set-2854459419230.html?pos=43&kwd=baby bedding set&tags=A||||8752.144|Price|product|||MDC|rsf:gd-|-stype:attr=1|qr_nm:gd|res:RC4|com-cf:nl|ptrs:na|ktp:N0|mc:49627|mtp:S|qry_typ:P|lang:en|wc:3|cs:8845|v=4,R K Enterprises,https://www.indiamart.com/r-kenterprisesnorthnewdelhi/?pos=43&kwd=baby bedding set&tags=A||||8752.144|Price|product|||MDC|rsf:gd-|-stype:attr=1|qr_nm:gd|res:RC4|com-cf:nl|ptrs:na|ktp:N0|mc:49627|mtp:S|qry_typ:P|lang:en|wc:3|cs:8845|v=4,False,North Delhi,New Delhi,"House No-235, Yadav Nagar, Block-E, Samaypur, North Delhi, New Delhi - 110042, Dist.Delhi, Delhi",7949337344,
"Neck Pillow Blue Newborn Baby Bedding Set, Cotton",https://www.indiamart.com/proddetail/newborn-baby-bedding-set-2854875439255.html?pos=44&kwd=baby bedding set&tags=A||||9813.14|Price|product|||MDC|rsf:gd-|-stype:attr=1|qr_nm:gd|res:RC4|com-cf:nl|ptrs:na|ktp:N0|mc:49627|mtp:S|qry_typ:P|lang:en|wc:3|cs:8845|v=4,Simply Sahab,https://www.indiamart.com/simplysahab/?pos=44&kwd=baby bedding set&tags=A||||9813.14|Price|product|||MDC|rsf:gd-|-stype:attr=1|qr_nm:gd|res:RC4|com-cf:nl|ptrs:na|ktp:N0|mc:49627|mtp:S|qry_typ:P|lang:en|wc:3|cs:8845|v=4,False,Kolkata,Jagatballavpur,"Jagatballavpur, Rajdaria, Kolkata, Jagatballavpur - 711408, Dist.Howrah, West Bengal",8041015046,
Baby Carry Bed,https://www.indiamart.com/proddetail/baby-carry-bed-2854012203388.html?pos=45&kwd=baby bedding set&tags=BA||||8559.269|Price|product|||TS|rsf:gd-|-stype:attr=1|qr_nm:gd|res:RC4|com-cf:nl|ptrs:na|ktp:N0|mc:49627|mtp:S|qry_typ:P|lang:en|wc:3|cs:8845|v=4,Central India Fabrics,https://www.centralindiafabrics.net/?pos=45&kwd=baby bedding set&tags=BA||||8559.269|Price|product|||TS|rsf:gd-|-stype:attr=1|qr_nm:gd|res:RC4|com-cf:nl|ptrs:na|ktp:N0|mc:49627|mtp:S|qry_typ:P|lang:en|wc:3|cs:8845|v=4,True,Avantika Nagar,Indore,"2/A/C, Sector D, Sanwer Road Opposite Bandganga Police Station, Avantika Nagar, Indore - 452015, Dist.Indore, Madhya Pradesh",8048965370,
"100% Natural Organic Cotton Printed Stylish Animal Print Baby Bedding Set, For Hotel, Multi",https://www.indiamart.com/proddetail/stylish-animal-print-baby-bedding-set-2850392580733.html?pos=56&kwd=baby bedding set&tags=BA||||8601.347|Price|product|||TS|rsf:gd-|-stype:attr=1|qr_nm:gd|res:RC4|com-cf:nl|ptrs:na|ktp:N0|mc:49627|mtp:S|qry_typ:P|lang:en|wc:3|cs:8845|v=4,Trade Star Exports,https://www.tradestar.co.in/?pos=56&kwd=baby bedding set&tags=BA||||8601.347|Price|product|||TS|rsf:gd-|-stype:attr=1|qr_nm:gd|res:RC4|com-cf:nl|ptrs:na|ktp:N0|mc:49627|mtp:S|qry_typ:P|lang:en|wc:3|cs:8845|v=4,True,,Jaipur,"H 1 1256, Riico Industrial Area, Sitapura,, Jaipur - 302022, Dist.Jaipur, Rajasthan",8046033994,
"Parmi Textile Sky Blue Printed Baby Cotton Quilts, Size: 44 X 44inch",https://www.indiamart.com/proddetail/sky-blue-printed-baby-cotton-quilts-2849902171930.html?pos=50&kwd=baby bedding set&tags=BA||||8601.347|Price|product|||TS|rsf:gd-|-stype:attr=1|qr_nm:gd|res:RC4|com-cf:nl|ptrs:na|ktp:N0|mc:49627|mtp:S|qry_typ:P|lang:en|wc:3|cs:8845|v=4,Parmi Textile,https://www.parmitextile.com/?pos=50&kwd=baby bedding set&tags=BA||||8601.347|Price|product|||TS|rsf:gd-|-stype:attr=1|qr_nm:gd|res:RC4|com-cf:nl|ptrs:na|ktp:N0|mc:49627|mtp:S|qry_typ:P|lang:en|wc:3|cs:8845|v=4,False,Sanganer,Jaipur,"192/331, Janki Devi Road, Sanganer, Jaipur - 302033, Dist.Jaipur, Rajasthan",7942801178,
"Cotton Baby 6 Pcs Set, For Gift Purpose, pp Packing",https://www.indiamart.com/proddetail/baby-6-pcs-set-2853573829733.html?pos=48&kwd=baby bedding set&tags=BB||||8747.203|Price|product|||TS|rsf:gd-|-stype:attr=1|qr_nm:gd|res:RC4|com-cf:nl|ptrs:na|ktp:N0|mc:49627|mtp:S|qry_typ:P|lang:en|wc:3|cs:8845|v=4,Shiv Textiles,https://www.indiamart.com/shivtextilespanipat/?pos=48&kwd=baby bedding set&tags=BB||||8747.203|Price|product|||TS|rsf:gd-|-stype:attr=1|qr_nm:gd|res:RC4|com-cf:nl|ptrs:na|ktp:N0|mc:49627|mtp:S|qry_typ:P|lang:en|wc:3|cs:8845|v=4,False,Jagjivan Ram Colony,Panipat,"Shop No.19-C, Aggarwal Gali Number 1, Gohana Road, Jagjivan Ram Colony, Panipat - 132103, Dist.Panipat, Haryana",7942665530,
"RRC Cotton Baby Set for new Born Baby, For Gifting",https://www.indiamart.com/proddetail/rrc-cotton-baby-set-for-new-born-baby-2853871529088.html?pos=49&kwd=baby bedding set&tags=BA||||8601.347|Price|product|||TS|rsf:gd-|-stype:attr=1|qr_nm:gd|res:RC4|com-cf:nl|ptrs:na|ktp:N0|mc:49627|mtp:S|qry_typ:P|lang:en|wc:3|cs:8845|v=4,RR Creations,https://www.rrcreation.co.in/?pos=49&kwd=baby bedding set&tags=BA||||8601.347|Price|product|||TS|rsf:gd-|-stype:attr=1|qr_nm:gd|res:RC4|com-cf:nl|ptrs:na|ktp:N0|mc:49627|mtp:S|qry_typ:P|lang:en|wc:3|cs:8845|v=4,False,Raghunathgarh,Jaipur,"A7D, Raghunath Colony, Galta Gate, Raghunathgarh, Jaipur - 302003, Dist.Jaipur, Rajasthan",8047620731,
"Parmi Textile Sky Blue Printed Baby Cotton Quilts, Size: 44 X 44inch",https://www.indiamart.com/proddetail/sky-blue-printed-baby-cotton-quilts-2849902171930.html?pos=50&kwd=baby bedding set&tags=BA||||8601.347|Price|product|||TS|rsf:gd-|-stype:attr=1|qr_nm:gd|res:RC4|com-cf:nl|ptrs:na|ktp:N0|mc:49627|mtp:S|qry_typ:P|lang:en|wc:3|cs:8845|v=4,Parmi Textile,https://www.parmitextile.com/?pos=50&kwd=baby bedding set&tags=BA||||8601.347|Price|product|||TS|rsf:gd-|-stype:attr=1|qr_nm:gd|res:RC4|com-cf:nl|ptrs:na|ktp:N0|mc:49627|mtp:S|qry_typ:P|lang:en|wc:3|cs:8845|v=4,False,Sanganer,Jaipur,"192/331, Janki Devi Road, Sanganer, Jaipur - 302033, Dist.Jaipur, Rajasthan",7942801178,
Fleece Plain Baby Bedding Set,https://www.indiamart.com/proddetail/baby-bedding-set-20880184897.html?pos=51&kwd=baby bedding set&tags=BA||||8747.203|Price|product|||TS|rsf:gd-|-stype:attr=1|qr_nm:gd|res:RC4|com-cf:nl|ptrs:na|ktp:N0|mc:49627|mtp:S|qry_typ:P|lang:en|wc:3|cs:8845|v=4,Paras Blanket,https://www.parasblanket.com/?pos=51&kwd=baby bedding set&tags=BA||||8747.203|Price|product|||TS|rsf:gd-|-stype:attr=1|qr_nm:gd|res:RC4|com-cf:nl|ptrs:na|ktp:N0|mc:49627|mtp:S|qry_typ:P|lang:en|wc:3|cs:8845|v=4,False,Old Housing Board Colony,Panipat,"Shop No. 1, 2, 3, New Pachranga Market Pachranga Bazar, Old Housing Board Colony, Panipat - 132103, Dist.Panipat, Haryana",8048968656,
"100% Organic Cotton Printed Newborn Baby Bedding Set, For Home",https://www.indiamart.com/proddetail/newborn-baby-bedding-set-22954502097.html?pos=52&kwd=baby bedding set&tags=BA||||8663.873|Price|product|||TS|rsf:gd-|-stype:attr=1|qr_nm:gd|res:RC4|com-cf:nl|ptrs:na|ktp:N0|mc:49627|mtp:S|qry_typ:P|lang:en|wc:3|cs:8845|v=4,Alpha Organics Clothing India,https://www.indiamart.com/alphaorganicsclothingindia/?pos=52&kwd=baby bedding set&tags=BA||||8663.873|Price|product|||TS|rsf:gd-|-stype:attr=1|qr_nm:gd|res:RC4|com-cf:nl|ptrs:na|ktp:N0|mc:49627|mtp:S|qry_typ:P|lang:en|wc:3|cs:8845|v=4,True,Indiranagar,Bengaluru,"NO.3037,INDIRANAGAR,8TH MAIN ROAD, HAL 2ND STAGE,BANGALORE, Indiranagar, Bengaluru - 560038, Dist.Bengaluru, Karnataka",7942540831,
Printed Cotton Baby Bedding Set,https://www.indiamart.com/proddetail/cotton-baby-bedding-set-23778794062.html?pos=53&kwd=baby bedding set&tags=BA||||8747.203|Price|product|||TS|rsf:gd-|-stype:attr=1|qr_nm:gd|res:RC4|com-cf:nl|ptrs:na|ktp:N0|mc:49627|mtp:S|qry_typ:P|lang:en|wc:3|cs:8845|v=4,Samraj Home Decor,https://www.samrajhomedecor.com/?pos=53&kwd=baby bedding set&tags=BA||||8747.203|Price|product|||TS|rsf:gd-|-stype:attr=1|qr_nm:gd|res:RC4|com-cf:nl|ptrs:na|ktp:N0|mc:49627|mtp:S|qry_typ:P|lang:en|wc:3|cs:8845|v=4,False,Chowk,Panipat,"945/8, Sanoli Road, Near Bhim Goda Chowk, Chowk, Panipat - 132103, Dist.Panipat, Haryana",8046065498,
"Foam Pillow Multicolor Femfairy Baby Bedding Set, For Home",https://www.indiamart.com/proddetail/femfairy-baby-bedding-set-2849863760891.html?pos=54&kwd=baby bedding set&tags=BA||||8747.203|Price|product|||TS|rsf:gd-|-stype:attr=1|qr_nm:gd|res:RC4|com-cf:nl|ptrs:na|ktp:N0|mc:49627|mtp:S|qry_typ:P|lang:en|wc:3|cs:8845|v=4,ANB Handlooms,https://www.femfairy.com/?pos=54&kwd=baby bedding set&tags=BA||||8747.203|Price|product|||TS|rsf:gd-|-stype:attr=1|qr_nm:gd|res:RC4|com-cf:nl|ptrs:na|ktp:N0|mc:49627|mtp:S|qry_typ:P|lang:en|wc:3|cs:8845|v=4,False,Chadau Mohalla,Panipat,"455/9, Sanoli Road, Chadau Mohalla, Panipat - 132103, Dist.Panipat, Haryana",7942544537,
"Cotton Baby Zipper Net Bedding Set, Size: Small",https://www.indiamart.com/proddetail/baby-zipper-net-bedding-set-2853223865797.html?pos=55&kwd=baby bedding set&tags=BA||||8211.142|Price|product|||MDC|rsf:gd-|-stype:attr=1|qr_nm:gd|res:RC4|com-cf:nl|ptrs:na|ktp:N0|mc:49627|mtp:S|qry_typ:P|lang:en|wc:3|cs:8845|v=4,Baby Boutique,https://www.indiamart.com/baby-boutiquemumbai/?pos=55&kwd=baby bedding set&tags=BA||||8211.142|Price|product|||MDC|rsf:gd-|-stype:attr=1|qr_nm:gd|res:RC4|com-cf:nl|ptrs:na|ktp:N0|mc:49627|mtp:S|qry_typ:P|lang:en|wc:3|cs:8845|v=4,False,Masjid Bandar,Mumbai,"7th, 95/99 Flat No. 701, Noori Tower, Sherriff Devi Street, Mandvi, Masjid Bandar, West Mumbai, Masjid Bandar, Mumbai - 400003, Dist.Mumbai, Maharashtra",7942960570,
"100% Natural Organic Cotton Printed Stylish Animal Print Baby Bedding Set, For Hotel, Multi",https://www.indiamart.com/proddetail/stylish-animal-print-baby-bedding-set-2850392580733.html?pos=56&kwd=baby bedding set&tags=BA||||8601.347|Price|product|||TS|rsf:gd-|-stype:attr=1|qr_nm:gd|res:RC4|com-cf:nl|ptrs:na|ktp:N0|mc:49627|mtp:S|qry_typ:P|lang:en|wc:3|cs:8845|v=4,Trade Star Exports,https://www.tradestar.co.in/?pos=56&kwd=baby bedding set&tags=BA||||8601.347|Price|product|||TS|rsf:gd-|-stype:attr=1|qr_nm:gd|res:RC4|com-cf:nl|ptrs:na|ktp:N0|mc:49627|mtp:S|qry_typ:P|lang:en|wc:3|cs:8845|v=4,True,,Jaipur,"H 1 1256, Riico Industrial Area, Sitapura,, Jaipur - 302022, Dist.Jaipur, Rajasthan",8046033994,
"Cotton Zipper little monkeys Baby Bed Set and Baby Play Gym with Mosquito Net, For Home, Size: Medium",https://www.indiamart.com/proddetail/little-monkeys-baby-bed-set-and-baby-play-gym-with-mosquito-net-2851497240588.html?pos=57&kwd=baby bedding set&tags=BA||||8752.144|Price|product|||TS|rsf:gd-|-stype:attr=1|qr_nm:gd|res:RC4|com-cf:nl|ptrs:na|ktp:N0|mc:49627|mtp:S|qry_typ:P|lang:en|wc:3|cs:8845|v=4,Ekta Overseas,https://www.indiamart.com/ektaoverseas-newdelhi/?pos=57&kwd=baby bedding set&tags=BA||||8752.144|Price|product|||TS|rsf:gd-|-stype:attr=1|qr_nm:gd|res:RC4|com-cf:nl|ptrs:na|ktp:N0|mc:49627|mtp:S|qry_typ:P|lang:en|wc:3|cs:8845|v=4,False,Shahdara,New Delhi,"1/95, Gali No.3, Near Navjeevan Phisical Center, Vishwas Nagar, Shahdara,, Shahdara, New Delhi - 110032, Dist.Delhi, Delhi",7942628926,
"Cotton Hand Block Printed Baby Bedding Set, Off White",https://www.indiamart.com/proddetail/hand-block-printed-baby-bedding-set-2850171132633.html?pos=58&kwd=baby bedding set&tags=BA||||8601.347|Price|product|||TS|rsf:gd-|-stype:attr=1|qr_nm:gd|res:RC4|com-cf:nl|ptrs:na|ktp:N0|mc:49627|mtp:S|qry_typ:P|lang:en|wc:3|cs:8845|v=4,Mohit Handicrafts And Textile,https://www.indiamart.com/mohit-handicrafts-and-textile/?pos=58&kwd=baby bedding set&tags=BA||||8601.347|Price|product|||TS|rsf:gd-|-stype:attr=1|qr_nm:gd|res:RC4|com-cf:nl|ptrs:na|ktp:N0|mc:49627|mtp:S|qry_typ:P|lang:en|wc:3|cs:8845|v=4,True,,Jaipur,"Sitarampuri, 50, Amer Road, Jaipur - 302002, Dist.Jaipur, Rajasthan",8043859041,
"Cotton Red Sleeping Monkey Printed Baby Bedding Set, For Home",https://www.indiamart.com/proddetail/red-sleeping-monkey-printed-baby-bedding-set-23705242112.html?pos=59&kwd=baby bedding set&tags=BA||||8752.144|Price|product|||TS|rsf:gd-|-stype:attr=1|qr_nm:gd|res:RC4|com-cf:nl|ptrs:na|ktp:N0|mc:49627|mtp:S|qry_typ:P|lang:en|wc:3|cs:8845|v=4,ASW Retail Corporation,https://www.indiamart.com/aswretailcorporation/?pos=59&kwd=baby bedding set&tags=BA||||8752.144|Price|product|||TS|rsf:gd-|-stype:attr=1|qr_nm:gd|res:RC4|com-cf:nl|ptrs:na|ktp:N0|mc:49627|mtp:S|qry_typ:P|lang:en|wc:3|cs:8845|v=4,False,Naraina,New Delhi,"B-62/6 3rd Floor Phase II, Naraina Industrial Area, Naraina, New Delhi - 110032, Dist.Delhi, Delhi",8046060075,
"Multicolor Printed Fish Print Cotton Baby Bedding Set With Bag, For Home",https://www.indiamart.com/proddetail/fish-print-cotton-baby-bedding-set-with-bag-23708029733.html?pos=60&kwd=baby bedding set&tags=BA||||8601.347|Price|product|||TS|rsf:gd-|-stype:attr=1|qr_nm:gd|res:RC4|com-cf:nl|ptrs:na|ktp:N0|mc:49627|mtp:S|qry_typ:P|lang:en|wc:3|cs:8845|v=4,Vandana Handicraft,https://www.vandanahandicraft.net/?pos=60&kwd=baby bedding set&tags=BA||||8601.347|Price|product|||TS|rsf:gd-|-stype:attr=1|qr_nm:gd|res:RC4|com-cf:nl|ptrs:na|ktp:N0|mc:49627|mtp:S|qry_typ:P|lang:en|wc:3|cs:8845|v=4,True,Sitapura Industrial Area,Jaipur,"Plot No. H-1167, Sitapura Industrial Area, Phase III, Sitapura Industrial Area, Jaipur - 302022, Dist.Jaipur, Rajasthan",8046049036,
Little Innocents Various Baby Bed Set,https://www.indiamart.com/proddetail/baby-bed-set-18999351833.html?pos=63&kwd=baby bedding set&tags=BA||||8211.142|Price|product|||TS|rsf:gd-|-stype:attr=1|qr_nm:gd|res:RC4|com-cf:nl|ptrs:na|ktp:N0|mc:49627|mtp:S|qry_typ:P|lang:en|wc:3|cs:8845|v=4,Welcome Enterprise,https://www.welcomeenterprise.in/?pos=63&kwd=baby bedding set&tags=BA||||8211.142|Price|product|||TS|rsf:gd-|-stype:attr=1|qr_nm:gd|res:RC4|com-cf:nl|ptrs:na|ktp:N0|mc:49627|mtp:S|qry_typ:P|lang:en|wc:3|cs:8845|v=4,False,Santacruz West,Mumbai,"1,Gulam Rasul Chawl No. 149,Khot Wadi, Besant Road,Santacruz West, Santacruz West, Mumbai - 400054, Dist.Mumbai, Maharashtra",8048601972,
Standard Baby Bedding Set,https://www.indiamart.com/proddetail/baby-bedding-set-11680907048.html?pos=62&kwd=baby bedding set&tags=BA||||8211.142|Price|product|||TS|rsf:gd-|-stype:attr=1|qr_nm:gd|res:RC4|com-cf:nl|ptrs:na|ktp:N0|mc:49627|mtp:S|qry_typ:P|lang:en|wc:3|cs:8845|v=4,Dhrupti Creation,https://www.indiamart.com/littlecare/?pos=62&kwd=baby bedding set&tags=BA||||8211.142|Price|product|||TS|rsf:gd-|-stype:attr=1|qr_nm:gd|res:RC4|com-cf:nl|ptrs:na|ktp:N0|mc:49627|mtp:S|qry_typ:P|lang:en|wc:3|cs:8845|v=4,False,Malad East,Mumbai,"Gala No. 3, Jignesh Diamond House, Near Vaishnavdevi Mandir, Subhash Lane, Malad East, Malad East, Mumbai - 400097, Dist.Mumbai, Maharashtra",8048970316,
Little Innocents Various Baby Bed Set,https://www.indiamart.com/proddetail/baby-bed-set-18999351833.html?pos=63&kwd=baby bedding set&tags=BA||||8211.142|Price|product|||TS|rsf:gd-|-stype:attr=1|qr_nm:gd|res:RC4|com-cf:nl|ptrs:na|ktp:N0|mc:49627|mtp:S|qry_typ:P|lang:en|wc:3|cs:8845|v=4,Welcome Enterprise,https://www.welcomeenterprise.in/?pos=63&kwd=baby bedding set&tags=BA||||8211.142|Price|product|||TS|rsf:gd-|-stype:attr=1|qr_nm:gd|res:RC4|com-cf:nl|ptrs:na|ktp:N0|mc:49627|mtp:S|qry_typ:P|lang:en|wc:3|cs:8845|v=4,False,Santacruz West,Mumbai,"1,Gulam Rasul Chawl No. 149,Khot Wadi, Besant Road,Santacruz West, Santacruz West, Mumbai - 400054, Dist.Mumbai, Maharashtra",8048601972,
"Stripe Baby Bedding Set, For Home, White",https://www.indiamart.com/proddetail/baby-bedding-set-2852819297673.html?pos=64&kwd=baby bedding set&tags=BA||||9848.189|Price|product|||TS|rsf:gd-|-stype:attr=1|qr_nm:gd|res:RC4|com-cf:nl|ptrs:na|ktp:N0|mc:49627|mtp:S|qry_typ:P|lang:en|wc:3|cs:8845|v=4,Laxmi Agency,https://www.indiamart.com/laxmi-agency-siliguri/?pos=64&kwd=baby bedding set&tags=BA||||9848.189|Price|product|||TS|rsf:gd-|-stype:attr=1|qr_nm:gd|res:RC4|com-cf:nl|ptrs:na|ktp:N0|mc:49627|mtp:S|qry_typ:P|lang:en|wc:3|cs:8845|v=4,False,Shanti Nagar,Siliguri,"Holding No- 10/67, Ground Floor, Shanti Nagar, Bou Bazar, Darjeeling, Shanti Nagar, Siliguri - 734004, Dist.Darjiling, West Bengal",7942802309,
"Pink Heart Baby Bedding Set, Polyester",https://www.indiamart.com/proddetail/baby-bedding-set-2852127049788.html?pos=65&kwd=baby bedding set&tags=BB||||8747.203|Price|product|||TS|rsf:gd-|-stype:attr=1|qr_nm:gd|res:RC4|com-cf:nl|ptrs:na|ktp:N0|mc:49627|mtp:S|qry_typ:P|lang:en|wc:3|cs:8845|v=4,Gupta Enterprises,https://www.pvcbagshouse.com/?pos=65&kwd=baby bedding set&tags=BB||||8747.203|Price|product|||TS|rsf:gd-|-stype:attr=1|qr_nm:gd|res:RC4|com-cf:nl|ptrs:na|ktp:N0|mc:49627|mtp:S|qry_typ:P|lang:en|wc:3|cs:8845|v=4,False,Manmohan Nagar,Panipat,"Ward No. 6, Gali no. 2, Durga Colony, Babail Road, Manmohan Nagar, Panipat - 132103, Dist.Panipat, Haryana",8048211763,
Baby bedding set,https://www.indiamart.com/proddetail/baby-bedding-set-25418737662.html?pos=66&kwd=baby bedding set&tags=BA||||8747.203|Price|product|||TS|rsf:gd-|-stype:attr=1|qr_nm:gd|res:RC4|com-cf:nl|ptrs:na|ktp:N0|mc:49627|mtp:S|qry_typ:P|lang:en|wc:3|cs:8845|v=4,Krishna Texo Fab,https://www.indiamart.com/krishna-texo-fab/?pos=66&kwd=baby bedding set&tags=BA||||8747.203|Price|product|||TS|rsf:gd-|-stype:attr=1|qr_nm:gd|res:RC4|com-cf:nl|ptrs:na|ktp:N0|mc:49627|mtp:S|qry_typ:P|lang:en|wc:3|cs:8845|v=4,False,Old Housing Board Colony,Panipat,"1091/3 Pachranga Bazar, Old Housing Board Colony, Panipat - 132103, Dist.Panipat, Haryana",8048960024,
Multicolor Rectangular Baby Bedding Set Manufacturer,https://www.indiamart.com/proddetail/baby-bedding-set-manufacturer-2853931582673.html?pos=67&kwd=baby bedding set&tags=BA||||8752.144|Price|product|||TS|rsf:gd-|-stype:attr=1|qr_nm:gd|res:RC4|com-cf:nl|ptrs:na|ktp:N0|mc:49627|mtp:S|qry_typ:P|lang:en|wc:3|cs:8845|v=4,Mom & Son,https://www.theindianchoice.com/?pos=67&kwd=baby bedding set&tags=BA||||8752.144|Price|product|||TS|rsf:gd-|-stype:attr=1|qr_nm:gd|res:RC4|com-cf:nl|ptrs:na|ktp:N0|mc:49627|mtp:S|qry_typ:P|lang:en|wc:3|cs:8845|v=4,False,Karawal Nagar,New Delhi,"B-57 Gali Number-1 Mukund Vihar, Near Pnb Bank, Karawal Nagar, New Delhi - 110094, Dist.Delhi, Delhi",7942565509,
"Red Printed Velvet Baby Bedding Set, For Home",https://www.indiamart.com/proddetail/velvet-baby-bedding-set-23724583333.html?pos=68&kwd=baby bedding set&tags=BB||||8752.144|Price|product|||MDC|rsf:gd-|-stype:attr=1|qr_nm:gd|res:RC4|com-cf:nl|ptrs:na|ktp:N0|mc:49627|mtp:S|qry_typ:P|lang:en|wc:3|cs:8845|v=4,Nagar Mal And Co.,https://www.indiamart.com/nagarmalandco/?pos=68&kwd=baby bedding set&tags=BB||||8752.144|Price|product|||MDC|rsf:gd-|-stype:attr=1|qr_nm:gd|res:RC4|com-cf:nl|ptrs:na|ktp:N0|mc:49627|mtp:S|qry_typ:P|lang:en|wc:3|cs:8845|v=4,False,,New Delhi,"4581, Cloth Market mahavir bazaar chandni chowk, New Delhi - 110006, Dist.Delhi, Delhi",8046053529,
Baby Bedding Set With Mosquito Net,https://www.indiamart.com/proddetail/baby-bedding-set-with-mosquito-net-2851252792373.html?pos=69&kwd=baby bedding set&tags=BA||||8559.269|Price|product|||TS|rsf:gd-|-stype:attr=1|qr_nm:gd|res:RC4|com-cf:nl|ptrs:na|ktp:N0|mc:49627|mtp:S|qry_typ:P|lang:en|wc:3|cs:8845|v=4,Preeti Textiles,https://www.indiamart.com/preetitextiles/?pos=69&kwd=baby bedding set&tags=BA||||8559.269|Price|product|||TS|rsf:gd-|-stype:attr=1|qr_nm:gd|res:RC4|com-cf:nl|ptrs:na|ktp:N0|mc:49627|mtp:S|qry_typ:P|lang:en|wc:3|cs:8845|v=4,False,Vyankatesh Nagar,Indore,"133-134, 2nd Floor, Muchhal Chamber, MT Cloth Market, Vyankatesh Nagar, Indore - 452009, Dist.Indore, Madhya Pradesh",8048600421,
Baby Bedding Set No. 1,https://www.indiamart.com/proddetail/baby-bedding-set-no-1-12810024333.html?pos=70&kwd=baby bedding set&tags=BA||||8223.226|Price|product|||MDC|rsf:gd-|-stype:attr=1|qr_nm:gd|res:RC4|com-cf:nl|ptrs:na|ktp:N0|mc:49627|mtp:S|qry_typ:P|lang:en|wc:3|cs:8845|v=4,Wecare Solutions,https://www.indiamart.com/wecare-solutions/?pos=70&kwd=baby bedding set&tags=BA||||8223.226|Price|product|||MDC|rsf:gd-|-stype:attr=1|qr_nm:gd|res:RC4|com-cf:nl|ptrs:na|ktp:N0|mc:49627|mtp:S|qry_typ:P|lang:en|wc:3|cs:8845|v=4,False,Valiv,Thane,"Gala No. F-19-20, 1st Floor, Rajprabha Anand Industrial Estate Naikpada, Waliv, Valiv, Thane - 401208, Dist.Thane, Maharashtra",8047631791,
Pink (Base) Printed Cotton Baby Bedding Set,https://www.indiamart.com/proddetail/printed-cotton-baby-bedding-set-2850650074573.html?pos=71&kwd=baby bedding set&tags=BB||||8752.144|Price|product|||MDC|rsf:gd-|-stype:attr=1|qr_nm:gd|res:RC4|com-cf:nl|ptrs:na|ktp:N0|mc:49627|mtp:S|qry_typ:P|lang:en|wc:3|cs:8845|v=4,L T Textiles,https://www.indiamart.com/lttextiles/?pos=71&kwd=baby bedding set&tags=BB||||8752.144|Price|product|||MDC|rsf:gd-|-stype:attr=1|qr_nm:gd|res:RC4|com-cf:nl|ptrs:na|ktp:N0|mc:49627|mtp:S|qry_typ:P|lang:en|wc:3|cs:8845|v=4,False,Pahari Dhiraj,New Delhi,"5189-90 Main Road, Sadar Bazar, Pahari Dhiraj, New Delhi - 110006, Dist.Delhi, Delhi",7942958455,
Pink Printed Cotton Baby Bedding Set,https://www.indiamart.com/proddetail/pink-printed-cotton-baby-bedding-set-20858050548.html?pos=72&kwd=baby bedding set&tags=BA||||8663.873|Price|product|||TS|rsf:gd-|-stype:attr=1|qr_nm:gd|res:RC4|com-cf:nl|ptrs:na|ktp:N0|mc:49627|mtp:S|qry_typ:P|lang:en|wc:3|cs:8845|v=4,Kids International,https://www.indiamart.com/kidsinternational/?pos=72&kwd=baby bedding set&tags=BA||||8663.873|Price|product|||TS|rsf:gd-|-stype:attr=1|qr_nm:gd|res:RC4|com-cf:nl|ptrs:na|ktp:N0|mc:49627|mtp:S|qry_typ:P|lang:en|wc:3|cs:8845|v=4,False,Malleswaram,Bengaluru,"Ground Floor, No-18, Yellappa Garden 10Th Cross, Malleswaram,Urban,, Malleswaram, Bengaluru - 560003, Dist.Bengaluru, Karnataka",8044013916,
"100% Natural Organic Cotton Printed Stylish Animal Print Baby Bedding Set, For Hotel, Multi",https://www.indiamart.com/proddetail/stylish-animal-print-baby-bedding-set-2850392580733.html?pos=73&kwd=baby bedding set&tags=BA||||8601.347|Price|product|||TS|rsf:gd-|-stype:attr=1|qr_nm:gd|res:RC4|com-cf:nl|ptrs:na|ktp:N0|mc:49627|mtp:S|qry_typ:P|lang:en|wc:3|cs:8845|v=4,Trade Star Exports,https://www.tradestar.co.in/?pos=73&kwd=baby bedding set&tags=BA||||8601.347|Price|product|||TS|rsf:gd-|-stype:attr=1|qr_nm:gd|res:RC4|com-cf:nl|ptrs:na|ktp:N0|mc:49627|mtp:S|qry_typ:P|lang:en|wc:3|cs:8845|v=4,True,,Jaipur,"H 1 1256, Riico Industrial Area, Sitapura,, Jaipur - 302022, Dist.Jaipur, Rajasthan",8046033994,
"Cotton Red Sleeping Monkey Printed Baby Bedding Set, For Home",https://www.indiamart.com/proddetail/red-sleeping-monkey-printed-baby-bedding-set-23705242112.html?pos=74&kwd=baby bedding set&tags=BA||||8752.144|Price|product|||TS|rsf:gd-|-stype:attr=1|qr_nm:gd|res:RC4|com-cf:nl|ptrs:na|ktp:N0|mc:49627|mtp:S|qry_typ:P|lang:en|wc:3|cs:8845|v=4,ASW Retail Corporation,https://www.indiamart.com/aswretailcorporation/?pos=74&kwd=baby bedding set&tags=BA||||8752.144|Price|product|||TS|rsf:gd-|-stype:attr=1|qr_nm:gd|res:RC4|com-cf:nl|ptrs:na|ktp:N0|mc:49627|mtp:S|qry_typ:P|lang:en|wc:3|cs:8845|v=4,False,Naraina,New Delhi,"B-62/6 3rd Floor Phase II, Naraina Industrial Area, Naraina, New Delhi - 110032, Dist.Delhi, Delhi",8046060075,
"Baby Bed Set, Printed",https://www.indiamart.com/proddetail/baby-bed-set-9417562673.html?pos=83&kwd=baby bedding set&tags=BA||||8211.142|Price|product|||MDC|rsf:gd-|-stype:attr=1|qr_nm:gd|res:RC4|com-cf:nl|ptrs:na|ktp:N0|mc:49627|mtp:S|qry_typ:P|lang:en|wc:3|cs:8845|v=4,Milee Fashion,https://www.indiamart.com/mileefashion/?pos=83&kwd=baby bedding set&tags=BA||||8211.142|Price|product|||MDC|rsf:gd-|-stype:attr=1|qr_nm:gd|res:RC4|com-cf:nl|ptrs:na|ktp:N0|mc:49627|mtp:S|qry_typ:P|lang:en|wc:3|cs:8845|v=4,False,Chedda Nagar,Mumbai,"Veer Sambhaji Nagar, Near Hanuman Mandir PL Lokhande Marg, Chembur, Chedda Nagar, Mumbai - 400089, Dist.Mumbai, Maharashtra",8048966118,
"Printed Kids club pure cotton infants bedding set, For Home",https://www.indiamart.com/proddetail/kids-club-pure-cotton-infants-bedding-set-2851937878830.html?pos=76&kwd=baby bedding set&tags=BA||||8747.203||product|||TS|rsf:gd-|-stype:attr=1|qr_nm:gd|res:RC4|com-cf:nl|ptrs:na|ktp:N0|mc:49627|mtp:S|qry_typ:P|lang:en|wc:3|cs:8845|v=4,Mokshay (A Brand Of S P Wooltex),https://www.mokshay.in/?pos=76&kwd=baby bedding set&tags=BA||||8747.203||product|||TS|rsf:gd-|-stype:attr=1|qr_nm:gd|res:RC4|com-cf:nl|ptrs:na|ktp:N0|mc:49627|mtp:S|qry_typ:P|lang:en|wc:3|cs:8845|v=4,False,Huda,Panipat,"Opp. Sardar Jali Wala, Ganesh Nagar, Sanoli Road,, Huda, Panipat - 132103, Dist.Panipat, Haryana",7942870300,
Cradle Togs Available in multiple colors Rollover Baby Bed Set,https://www.indiamart.com/proddetail/rollover-baby-bed-set-16964351030.html?pos=77&kwd=baby bedding set&tags=BB||||8752.144|Price|product|||TS|rsf:gd-|-stype:attr=1|qr_nm:gd|res:RC4|com-cf:nl|ptrs:na|ktp:N0|mc:49627|mtp:S|qry_typ:P|lang:en|wc:3|cs:8845|v=4,Man Singh & Sons Private Limited,https://www.babyproductsmanufacturer.com/?pos=77&kwd=baby bedding set&tags=BB||||8752.144|Price|product|||TS|rsf:gd-|-stype:attr=1|qr_nm:gd|res:RC4|com-cf:nl|ptrs:na|ktp:N0|mc:49627|mtp:S|qry_typ:P|lang:en|wc:3|cs:8845|v=4,False,Karol Bagh,New Delhi,"No. 13/24, 1st Floor, W. E. A., Karol Bagh, Karol Bagh, New Delhi - 110005, Dist.Delhi, Delhi",8048978579,
"Babyzone Soft And Comfortable New Born Baby Bedding Set With Protective Mosquito Net, Light Pink",https://www.indiamart.com/proddetail/babyzone-soft-and-comfortable-new-born-baby-bedding-set-with-protective-mosquito-net-light-pink-2851500066055.html?pos=78&kwd=baby bedding set&tags=BA||||8661.854|Price|product|||TS|rsf:gd-|-stype:attr=1|qr_nm:gd|res:RC4|com-cf:nl|ptrs:na|ktp:N0|mc:49627|mtp:S|qry_typ:P|lang:en|wc:3|cs:8845|v=4,Aggarwal Creations,https://www.aggarwalcreations.com/?pos=78&kwd=baby bedding set&tags=BA||||8661.854|Price|product|||TS|rsf:gd-|-stype:attr=1|qr_nm:gd|res:RC4|com-cf:nl|ptrs:na|ktp:N0|mc:49627|mtp:S|qry_typ:P|lang:en|wc:3|cs:8845|v=4,False,Ramesh Nagar,Ludhiana,"Geeta Nagar, Street No. 7, Tajpur Road, Ramesh Nagar, Ludhiana - 141008, Dist.Ludhiana, Punjab",8048962321,
PINK Printed XL Foldable Baby Bed Set (One Pillow),https://www.indiamart.com/proddetail/xl-foldable-baby-bed-set-one-pillow-21253019233.html?pos=79&kwd=baby bedding set&tags=BA||||9842.824|Price|product|||TS|rsf:gd-|-stype:attr=1|qr_nm:gd|res:RC4|com-cf:nl|ptrs:na|ktp:N0|mc:49627|mtp:S|qry_typ:P|lang:en|wc:3|cs:8845|v=4,Baby Mosquito Net Seller,https://www.indiamart.com/babymosquitonetseller/?pos=79&kwd=baby bedding set&tags=BA||||9842.824|Price|product|||TS|rsf:gd-|-stype:attr=1|qr_nm:gd|res:RC4|com-cf:nl|ptrs:na|ktp:N0|mc:49627|mtp:S|qry_typ:P|lang:en|wc:3|cs:8845|v=4,False,Kailash Nagar,Hooghly,"Paulpara, P. O. Bandel, Kailash Nagar, Hooghly - 712103, Dist.Hooghly, West Bengal",8048953197,
"Cotton Rop Swing Wishing Cloud Newborn baby hanging bed, 3.2KG, New Born -5",https://www.indiamart.com/proddetail/wishing-cloud-newborn-baby-hanging-bed-26034968730.html?pos=80&kwd=baby bedding set&tags=BA||||8307.81|Price|product|||TS|rsf:gd-|-stype:attr=1|qr_nm:gd|res:RC4|com-cf:nl|ptrs:na|ktp:N0|mc:49627|mtp:S|qry_typ:P|lang:en|wc:3|cs:8845|v=4,Bizbee Techologies Llp,https://www.indiamart.com/bizbee-technologies-pune/?pos=80&kwd=baby bedding set&tags=BA||||8307.81|Price|product|||TS|rsf:gd-|-stype:attr=1|qr_nm:gd|res:RC4|com-cf:nl|ptrs:na|ktp:N0|mc:49627|mtp:S|qry_typ:P|lang:en|wc:3|cs:8845|v=4,False,Maharshi Nagar,Pune,"C/O Laxmi Warehousing Survey Number 2329 Dhani Road, Wagholi Ganga Club Road, Maharshi Nagar, Pune - 412207, Dist.Pune, Maharashtra",8046054477,
Foam Pillow Pink Baby Bedding Sets,https://www.indiamart.com/proddetail/baby-bedding-sets-14206230973.html?pos=81&kwd=baby bedding set&tags=BA||||8747.203|Price|product|||TS|rsf:gd-|-stype:attr=1|qr_nm:gd|res:RC4|com-cf:nl|ptrs:na|ktp:N0|mc:49627|mtp:S|qry_typ:P|lang:en|wc:3|cs:8845|v=4,Shiv Shakti Handloom Industries,https://www.shivshaktihandloomindustries.com/?pos=81&kwd=baby bedding set&tags=BA||||8747.203|Price|product|||TS|rsf:gd-|-stype:attr=1|qr_nm:gd|res:RC4|com-cf:nl|ptrs:na|ktp:N0|mc:49627|mtp:S|qry_typ:P|lang:en|wc:3|cs:8845|v=4,False,Panipat City,Panipat,"Shop 12, Krishna Market, Pachranga Bazar, Panipat City, Panipat - 132103, Dist.Panipat, Haryana",8048970618,
"New Born Baby Cradle With Folding Washable Bed,Side Window.3 Pillow Set,Folding Stick Attachment.",https://www.indiamart.com/proddetail/new-born-baby-cradle-with-folding-washable-bed-side-window-3-pillow-set-folding-stick-attachment-22382057830.html?pos=82&kwd=baby bedding set&tags=BA||||8223.731||product|||TS|rsf:gd-|-stype:attr=1|qr_nm:gd|res:RC4|com-cf:nl|ptrs:na|ktp:N0|mc:49627|mtp:S|qry_typ:P|lang:en|wc:3|cs:8845|v=4,Maitri Export,https://www.maitriexport.in/?pos=82&kwd=baby bedding set&tags=BA||||8223.731||product|||TS|rsf:gd-|-stype:attr=1|qr_nm:gd|res:RC4|com-cf:nl|ptrs:na|ktp:N0|mc:49627|mtp:S|qry_typ:P|lang:en|wc:3|cs:8845|v=4,False,Lambi Oty,Khambhat,"Kh-0199A, Khichdiya Ni Khadki,Ladwado, Near Jain Upashray, Lambi Oty, Khambhat - 388620, Dist.Anand, Gujarat",8046054414,
"Baby Bed Set, Printed",https://www.indiamart.com/proddetail/baby-bed-set-9417562673.html?pos=83&kwd=baby bedding set&tags=BA||||8211.142|Price|product|||MDC|rsf:gd-|-stype:attr=1|qr_nm:gd|res:RC4|com-cf:nl|ptrs:na|ktp:N0|mc:49627|mtp:S|qry_typ:P|lang:en|wc:3|cs:8845|v=4,Milee Fashion,https://www.indiamart.com/mileefashion/?pos=83&kwd=baby bedding set&tags=BA||||8211.142|Price|product|||MDC|rsf:gd-|-stype:attr=1|qr_nm:gd|res:RC4|com-cf:nl|ptrs:na|ktp:N0|mc:49627|mtp:S|qry_typ:P|lang:en|wc:3|cs:8845|v=4,False,Chedda Nagar,Mumbai,"Veer Sambhaji Nagar, Near Hanuman Mandir PL Lokhande Marg, Chembur, Chedda Nagar, Mumbai - 400089, Dist.Mumbai, Maharashtra",8048966118,
"Printed Baby Bedding Set, For Anywhere, Multicolor",https://www.indiamart.com/proddetail/baby-bedding-set-2852229486291.html?pos=84&kwd=baby bedding set&tags=BA||||9045.955||product|||MDC|rsf:gd-|-stype:attr=1|qr_nm:gd|res:RC4|com-cf:nl|ptrs:na|ktp:N0|mc:49627|mtp:S|qry_typ:P|lang:en|wc:3|cs:8845|v=4,The Textiles,https://www.indiamart.com/textiles-kanpur/?pos=84&kwd=baby bedding set&tags=BA||||9045.955||product|||MDC|rsf:gd-|-stype:attr=1|qr_nm:gd|res:RC4|com-cf:nl|ptrs:na|ktp:N0|mc:49627|mtp:S|qry_typ:P|lang:en|wc:3|cs:8845|v=4,False,Meerpur Cantt,Kanpur,"66, Faithful Ganj Kanpur Nagar, Meerpur Cantt, Kanpur - 208004, Uttar Pradesh",7942865242,
Baby Bedding Set,https://www.indiamart.com/proddetail/baby-bedding-set-2854023970712.html?pos=85&kwd=baby bedding set&tags=BA||||8228.275|Price|product|||MDC|rsf:gd-|-stype:attr=1|qr_nm:gd|res:RC4|com-cf:nl|ptrs:na|ktp:N0|mc:49627|mtp:S|qry_typ:P|lang:en|wc:3|cs:8845|v=4,Mahalaxmi Babycare Products LLP,https://www.indiamart.com/mahalaxmibabycareproducts/?pos=85&kwd=baby bedding set&tags=BA||||8228.275|Price|product|||MDC|rsf:gd-|-stype:attr=1|qr_nm:gd|res:RC4|com-cf:nl|ptrs:na|ktp:N0|mc:49627|mtp:S|qry_typ:P|lang:en|wc:3|cs:8845|v=4,False,Bapunagar,Ahmedabad,"Survey No. 00697/4585, B No 697/4585 Gujarat Hou Board, Bapunagar, Bapunagar, Ahmedabad - 382424, Dist.Ahmedabad, Gujarat",8047787256,
Pink Round Newborn Baby Bedding Set,https://www.indiamart.com/proddetail/newborn-baby-bedding-set-2853624598362.html?pos=86&kwd=baby bedding set&tags=BA||||9839.57|Price|product|||MDC|rsf:gd-|-stype:attr=1|qr_nm:gd|res:RC4|com-cf:nl|ptrs:na|ktp:N0|mc:49627|mtp:S|qry_typ:P|lang:en|wc:3|cs:8845|v=4,Shree Shyam Enterprises,https://www.indiamart.com/shreeshyamenterpriseswestbengal/?pos=86&kwd=baby bedding set&tags=BA||||9839.57|Price|product|||MDC|rsf:gd-|-stype:attr=1|qr_nm:gd|res:RC4|com-cf:nl|ptrs:na|ktp:N0|mc:49627|mtp:S|qry_typ:P|lang:en|wc:3|cs:8845|v=4,False,B.B.D. Bagh,Kolkata,"Groun Floor, 2, Digambar Jain Temple ,Raod, B.B.D. Bagh, Kolkata - 700007, Dist.Kolkata, West Bengal",7949082896,
"Red Printed Velvet Baby Bedding Set, For Home",https://www.indiamart.com/proddetail/velvet-baby-bedding-set-23724583333.html?pos=87&kwd=baby bedding set&tags=BB||||8752.144|Price|product|||MDC|rsf:gd-|-stype:attr=1|qr_nm:gd|res:RC4|com-cf:nl|ptrs:na|ktp:N0|mc:49627|mtp:S|qry_typ:P|lang:en|wc:3|cs:8845|v=4,Nagar Mal And Co.,https://www.indiamart.com/nagarmalandco/?pos=87&kwd=baby bedding set&tags=BB||||8752.144|Price|product|||MDC|rsf:gd-|-stype:attr=1|qr_nm:gd|res:RC4|com-cf:nl|ptrs:na|ktp:N0|mc:49627|mtp:S|qry_typ:P|lang:en|wc:3|cs:8845|v=4,False,,New Delhi,"4581, Cloth Market mahavir bazaar chandni chowk, New Delhi - 110006, Dist.Delhi, Delhi",8046053529,
White(base) Baby Printed Bedding Set,https://www.indiamart.com/proddetail/baby-printed-bedding-set-2854105491191.html?pos=88&kwd=baby bedding set&tags=BA||||8230.883|Price|product|||MDC|rsf:gd-|-stype:attr=1|qr_nm:gd|res:RC4|com-cf:nl|ptrs:na|ktp:N0|mc:49627|mtp:S|qry_typ:P|lang:en|wc:3|cs:8845|v=4,Shree Fab,https://www.indiamart.com/shree-fab-gujarat/?pos=88&kwd=baby bedding set&tags=BA||||8230.883|Price|product|||MDC|rsf:gd-|-stype:attr=1|qr_nm:gd|res:RC4|com-cf:nl|ptrs:na|ktp:N0|mc:49627|mtp:S|qry_typ:P|lang:en|wc:3|cs:8845|v=4,False,Dharati Society,Surat,"Plot-65 GR, Ground+ 1st Floor, Gothan Industrial SOC, A. K. Road, Jay Ambey Textile, Varachha, Dharati Society, Surat - 395006, Dist.Surat, Gujarat",8045732311,
Pink (Base) Rectangular Baby Printed Bedding Set,https://www.indiamart.com/proddetail/baby-printed-bedding-set-2853208089773.html?pos=89&kwd=baby bedding set&tags=BA||||9829.308|Price|product|||MDC|rsf:gd-|-stype:attr=1|qr_nm:gd|res:RC4|com-cf:nl|ptrs:na|ktp:N0|mc:49627|mtp:S|qry_typ:P|lang:en|wc:3|cs:8845|v=4,Asha Garments,https://www.indiamart.com/ashagarments-howrah/?pos=89&kwd=baby bedding set&tags=BA||||9829.308|Price|product|||MDC|rsf:gd-|-stype:attr=1|qr_nm:gd|res:RC4|com-cf:nl|ptrs:na|ktp:N0|mc:49627|mtp:S|qry_typ:P|lang:en|wc:3|cs:8845|v=4,False,Ross Road,Howrah,"50/1,, Fakir Bagan Lane,, Ross Road, Howrah - 711101, Dist.Howrah, West Bengal",7942784108,
Cotton Printed Green White Baby Bedding Set,https://www.indiamart.com/proddetail/cotton-printed-green-white-baby-bedding-set-2851601962962.html?pos=90&kwd=baby bedding set&tags=BA||||8663.873|Price|product|||MDC|rsf:gd-|-stype:attr=1|qr_nm:gd|res:RC4|com-cf:nl|ptrs:na|ktp:N0|mc:49627|mtp:S|qry_typ:P|lang:en|wc:3|cs:8845|v=4,Activekidss Retail Private Limited,https://www.indiamart.com/activekidssretail/?pos=90&kwd=baby bedding set&tags=BA||||8663.873|Price|product|||MDC|rsf:gd-|-stype:attr=1|qr_nm:gd|res:RC4|com-cf:nl|ptrs:na|ktp:N0|mc:49627|mtp:S|qry_typ:P|lang:en|wc:3|cs:8845|v=4,False,Urban,Bengaluru,"58/1 Plot No - 3, NH-7 Hosur Main Road, Singasandra, Urban, Bengaluru - 560068, Dist.Bengaluru, Karnataka",8043874205,
"Foam Multicolor Baby Printed Bedding Set, For Home",https://www.indiamart.com/proddetail/baby-printed-bedding-set-2850806166933.html?pos=91&kwd=baby bedding set&tags=BA||||8752.144|Price|product|||MDC|rsf:gd-|-stype:attr=1|qr_nm:gd|res:RC4|com-cf:nl|ptrs:na|ktp:N0|mc:49627|mtp:S|qry_typ:P|lang:en|wc:3|cs:8845|v=4,Mahi Hosiery,https://www.indiamart.com/mahi-hosierydelhi/?pos=91&kwd=baby bedding set&tags=BA||||8752.144|Price|product|||MDC|rsf:gd-|-stype:attr=1|qr_nm:gd|res:RC4|com-cf:nl|ptrs:na|ktp:N0|mc:49627|mtp:S|qry_typ:P|lang:en|wc:3|cs:8845|v=4,False,Shastri Nagar,New Delhi,"144, Second Floor, Gali No-5, New Main Road, New Lahore Colony, Shastri Nagar, Shastri Nagar, New Delhi - 110031, Dist.Delhi, Delhi",8047699176,
"Blue Rectangular Printed Baby Bedding Set, Cotton",https://www.indiamart.com/proddetail/printed-baby-bedding-set-2854715386597.html?pos=92&kwd=baby bedding set&tags=BA||||8663.873|Price|product|||MDC|rsf:gd-|-stype:attr=1|qr_nm:gd|res:RC4|com-cf:nl|ptrs:na|ktp:N0|mc:49627|mtp:S|qry_typ:P|lang:en|wc:3|cs:8845|v=4,Nipika Vrapped Gifting,https://www.indiamart.com/nipika-vrapped-gifting/?pos=92&kwd=baby bedding set&tags=BA||||8663.873|Price|product|||MDC|rsf:gd-|-stype:attr=1|qr_nm:gd|res:RC4|com-cf:nl|ptrs:na|ktp:N0|mc:49627|mtp:S|qry_typ:P|lang:en|wc:3|cs:8845|v=4,False,Bengaluru Urban,Bengaluru,"9/1, 23rd Cross Road, Magadi Road, KP Agrahara, Bengaluru Urban, Bengaluru - 560023, Dist.Bengaluru, Karnataka",7949328723,
"White(Base) Rectangular Polka Dots Baby Nest Bedding Set, Cotton",https://www.indiamart.com/proddetail/polka-dots-baby-nest-bedding-set-2854561666530.html?pos=93&kwd=baby bedding set&tags=BA||||8663.873|Price|product|||MDC|rsf:gd-|-stype:attr=1|qr_nm:gd|res:RC4|com-cf:nl|ptrs:na|ktp:N0|mc:49627|mtp:S|qry_typ:P|lang:en|wc:3|cs:8845|v=4,AQ Corporation,https://www.indiamart.com/aqcorporation/?pos=93&kwd=baby bedding set&tags=BA||||8663.873|Price|product|||MDC|rsf:gd-|-stype:attr=1|qr_nm:gd|res:RC4|com-cf:nl|ptrs:na|ktp:N0|mc:49627|mtp:S|qry_typ:P|lang:en|wc:3|cs:8845|v=4,False,,Bengaluru,"Ground And First Floor, No 88, 2nd Cross, 4th Main, NGEF Layout, Nagashetty Halli, Sanjaynagar Bengaluru Urban, Bengaluru - 560094, Dist.Bengaluru, Karnataka",7949325043,
White Rectangular Baby Cotton Bedding Bed Pillow Set,https://www.indiamart.com/proddetail/baby-cotton-bedding-bed-pillow-set-2854412796312.html?pos=94&kwd=baby bedding set&tags=BA||||8752.144|Price|product|||MDC|rsf:gd-|-stype:attr=1|qr_nm:gd|res:RC4|com-cf:nl|ptrs:na|ktp:N0|mc:49627|mtp:S|qry_typ:P|lang:en|wc:3|cs:8845|v=4,Aakash Kumar,https://www.indiamart.com/aakashkumarnewdelhi/?pos=94&kwd=baby bedding set&tags=BA||||8752.144|Price|product|||MDC|rsf:gd-|-stype:attr=1|qr_nm:gd|res:RC4|com-cf:nl|ptrs:na|ktp:N0|mc:49627|mtp:S|qry_typ:P|lang:en|wc:3|cs:8845|v=4,False,South Delhi,New Delhi,"L-188/35, Sangam Vihar Road, Sangam Vihar, South Delhi, New Delhi - 110062, Dist.Delhi, Delhi",7949336442,
Multicolor Baby Bedding Set With Mosquito Net,https://www.indiamart.com/proddetail/baby-bedding-set-with-mosquito-net-2853606689297.html?pos=95&kwd=baby bedding set&tags=BA||||8737.904|Price|product|||MDC|rsf:gd-|-stype:attr=1|qr_nm:gd|res:RC4|com-cf:nl|ptrs:na|ktp:N0|mc:49627|mtp:S|qry_typ:P|lang:en|wc:3|cs:8845|v=4,PB Enterprises,https://www.indiamart.com/pb-enterprises-asankhurd/?pos=95&kwd=baby bedding set&tags=BA||||8737.904|Price|product|||MDC|rsf:gd-|-stype:attr=1|qr_nm:gd|res:RC4|com-cf:nl|ptrs:na|ktp:N0|mc:49627|mtp:S|qry_typ:P|lang:en|wc:3|cs:8845|v=4,False,Panipat Thermal Project,Asankhurd,"Na 736/3 Oppt. Pandit Ji Sweet , Sondhapur Colony Hari Om, Panipat Thermal Project, Asankhurd - 132105, Haryana",7949092975,
Cotton Girl Baby Garments,https://www.indiamart.com/proddetail/baby-waffle-set-2853782212330.html?pos=96&kwd=baby bedding set&tags=BB||||8752.144|Price|product|||MDC|rsf:gd-|-stype:attr=1|qr_nm:gd|res:RC4|com-cf:nl|ptrs:na|ktp:N0|mc:49627|mtp:S|qry_typ:P|lang:en|wc:3|cs:8845|v=4,G. R. Creations & Exports,https://www.indiamart.com/grcreations-exports/?pos=96&kwd=baby bedding set&tags=BB||||8752.144|Price|product|||MDC|rsf:gd-|-stype:attr=1|qr_nm:gd|res:RC4|com-cf:nl|ptrs:na|ktp:N0|mc:49627|mtp:S|qry_typ:P|lang:en|wc:3|cs:8845|v=4,False,Rohini Sector 16,New Delhi,"51,Block C3,Sector 11 Rohini,New Delhi, Rohini Sector 16, New Delhi - 110085, Dist.Delhi, Delhi",8043858759,
VIPL Double Tuzki Print Baby Bedding Sets,https://www.indiamart.com/proddetail/tuzki-print-baby-bedding-sets-19936623555.html?pos=97&kwd=baby bedding set&tags=BB||||8747.203|Price|product|||MDC|rsf:gd-|-stype:attr=1|qr_nm:gd|res:RC4|com-cf:nl|ptrs:na|ktp:N0|mc:49627|mtp:S|qry_typ:P|lang:en|wc:3|cs:8845|v=4,Varindavan Impex Private Limited,https://www.indiamart.com/varindavan-impex/?pos=97&kwd=baby bedding set&tags=BB||||8747.203|Price|product|||MDC|rsf:gd-|-stype:attr=1|qr_nm:gd|res:RC4|com-cf:nl|ptrs:na|ktp:N0|mc:49627|mtp:S|qry_typ:P|lang:en|wc:3|cs:8845|v=4,False,,Panipat,"Plot No-110,Sector-25,Huda, Part-2,Panipat, Panipat - 132103, Dist.Panipat, Haryana",8046035175,
"Cotton Multicolor Baby Cot Bed Set, For Home",https://www.indiamart.com/proddetail/baby-cot-bed-set-25619496212.html?pos=98&kwd=baby bedding set&tags=BA||||8741.812|Price|product|||MDC|rsf:gd-|-stype:attr=1|qr_nm:gd|res:RC4|com-cf:nl|ptrs:na|ktp:N0|mc:49627|mtp:S|qry_typ:P|lang:en|wc:3|cs:8845|v=4,Linen Design Company Private Limited,https://www.indiamart.com/linen-design-company/?pos=98&kwd=baby bedding set&tags=BA||||8741.812|Price|product|||MDC|rsf:gd-|-stype:attr=1|qr_nm:gd|res:RC4|com-cf:nl|ptrs:na|ktp:N0|mc:49627|mtp:S|qry_typ:P|lang:en|wc:3|cs:8845|v=4,False,Mohyal Colony,Gurgaon,"141-142-143, Mohyal Colony Opposite Sector 31, Mohyal Colony, Gurgaon - 122003, Dist.Gurgaon, Haryana",8046073097,
Foam Pillow Pink Baby Bedding Sets,https://www.indiamart.com/proddetail/baby-bedding-sets-14206230973.html?pos=99&kwd=baby bedding set&tags=BA||||8747.203|Price|product|||TS|rsf:gd-|-stype:attr=1|qr_nm:gd|res:RC4|com-cf:nl|ptrs:na|ktp:N0|mc:49627|mtp:S|qry_typ:P|lang:en|wc:3|cs:8845|v=4,Shiv Shakti Handloom Industries,https://www.shivshaktihandloomindustries.com/?pos=99&kwd=baby bedding set&tags=BA||||8747.203|Price|product|||TS|rsf:gd-|-stype:attr=1|qr_nm:gd|res:RC4|com-cf:nl|ptrs:na|ktp:N0|mc:49627|mtp:S|qry_typ:P|lang:en|wc:3|cs:8845|v=4,False,Panipat City,Panipat,"Shop 12, Krishna Market, Pachranga Bazar, Panipat City, Panipat - 132103, Dist.Panipat, Haryana",8048970618,
"Cotton Rop Swing Wishing Cloud Newborn baby hanging bed, 3.2KG, New Born -5",https://www.indiamart.com/proddetail/wishing-cloud-newborn-baby-hanging-bed-26034968730.html?pos=100&kwd=baby bedding set&tags=BA||||8307.81|Price|product|||TS|rsf:gd-|-stype:attr=1|qr_nm:gd|res:RC4|com-cf:nl|ptrs:na|ktp:N0|mc:49627|mtp:S|qry_typ:P|lang:en|wc:3|cs:8845|v=4,Bizbee Techologies Llp,https://www.indiamart.com/bizbee-technologies-pune/?pos=100&kwd=baby bedding set&tags=BA||||8307.81|Price|product|||TS|rsf:gd-|-stype:attr=1|qr_nm:gd|res:RC4|com-cf:nl|ptrs:na|ktp:N0|mc:49627|mtp:S|qry_typ:P|lang:en|wc:3|cs:8845|v=4,False,Maharshi Nagar,Pune,"C/O Laxmi Warehousing Survey Number 2329 Dhani Road, Wagholi Ganga Club Road, Maharshi Nagar, Pune - 412207, Dist.Pune, Maharashtra",8046054477,
Cradle Togs Available in multiple colors Rollover Baby Bed Set,https://www.indiamart.com/proddetail/rollover-baby-bed-set-16964351030.html?pos=101&kwd=baby bedding set&tags=BB||||8752.144|Price|product|||TS|rsf:gd-|-stype:attr=1|qr_nm:gd|res:RC4|com-cf:nl|ptrs:na|ktp:N0|mc:49627|mtp:S|qry_typ:P|lang:en|wc:3|cs:8845|v=4,Man Singh & Sons Private Limited,https://www.babyproductsmanufacturer.com/?pos=101&kwd=baby bedding set&tags=BB||||8752.144|Price|product|||TS|rsf:gd-|-stype:attr=1|qr_nm:gd|res:RC4|com-cf:nl|ptrs:na|ktp:N0|mc:49627|mtp:S|qry_typ:P|lang:en|wc:3|cs:8845|v=4,False,Karol Bagh,New Delhi,"No. 13/24, 1st Floor, W. E. A., Karol Bagh, Karol Bagh, New Delhi - 110005, Dist.Delhi, Delhi",8048978579,
Multicolor Rectangular Baby Bedding Set Manufacturer,https://www.indiamart.com/proddetail/baby-bedding-set-manufacturer-2853931582673.html?pos=102&kwd=baby bedding set&tags=BA||||8752.144|Price|product|||TS|rsf:gd-|-stype:attr=1|qr_nm:gd|res:RC4|com-cf:nl|ptrs:na|ktp:N0|mc:49627|mtp:S|qry_typ:P|lang:en|wc:3|cs:8845|v=4,Mom & Son,https://www.theindianchoice.com/?pos=102&kwd=baby bedding set&tags=BA||||8752.144|Price|product|||TS|rsf:gd-|-stype:attr=1|qr_nm:gd|res:RC4|com-cf:nl|ptrs:na|ktp:N0|mc:49627|mtp:S|qry_typ:P|lang:en|wc:3|cs:8845|v=4,False,Karawal Nagar,New Delhi,"B-57 Gali Number-1 Mukund Vihar, Near Pnb Bank, Karawal Nagar, New Delhi - 110094, Dist.Delhi, Delhi",7942565509,
"Cotton Square LOREM BABY BED BB06, For Home",https://www.indiamart.com/proddetail/lorem-baby-bed-bb06-2848974329148.html?pos=111&kwd=baby bedding set&tags=BA||||8230.883|Price|product|||TS|rsf:gd-|-stype:attr=1|qr_nm:gd|res:RC4|com-cf:nl|ptrs:na|ktp:N0|mc:49627|mtp:S|qry_typ:P|lang:en|wc:3|cs:8845|v=4,S J Fashion,https://www.indiamart.com/sjfashion/?pos=111&kwd=baby bedding set&tags=BA||||8230.883|Price|product|||TS|rsf:gd-|-stype:attr=1|qr_nm:gd|res:RC4|com-cf:nl|ptrs:na|ktp:N0|mc:49627|mtp:S|qry_typ:P|lang:en|wc:3|cs:8845|v=4,False,Punagam,Surat,"B4, Basement, Polaris Mall Punagam BRTS canal Road,, Punagam, Surat - 395010, Dist.Surat, Gujarat",8048958543,
"Ply Wood Stripe Kids Bedding Set, For Home",https://www.indiamart.com/proddetail/kids-bedding-set-25520738548.html?pos=104&kwd=baby bedding set&tags=BA||||8211.142|Price|product|||TS|rsf:gd-|-stype:attr=1|qr_nm:gd|res:RC4|com-cf:nl|ptrs:na|ktp:N0|mc:49627|mtp:S|qry_typ:P|lang:en|wc:3|cs:8845|v=4,Vivan Enterprises Private Limited,https://www.vivanenterprises.co.in/?pos=104&kwd=baby bedding set&tags=BA||||8211.142|Price|product|||TS|rsf:gd-|-stype:attr=1|qr_nm:gd|res:RC4|com-cf:nl|ptrs:na|ktp:N0|mc:49627|mtp:S|qry_typ:P|lang:en|wc:3|cs:8845|v=4,False,Malad West,Mumbai,"RCC 33, Old Sonal Industrial Estate, Kanchpada, Link Road, Malad West, Mumbai - 400064, Dist.Mumbai, Maharashtra",8048980682,
Baby Bedding,https://www.indiamart.com/proddetail/baby-bedding-20276318288.html?pos=105&kwd=baby bedding set&tags=BA||||8752.144|Price|product|||TS|rsf:gd-|-stype:attr=1|qr_nm:gd|res:RC4|com-cf:nl|ptrs:na|ktp:N0|mc:49627|mtp:S|qry_typ:P|lang:en|wc:3|cs:8845|v=4,Gyasi Ram & Associates,https://www.indiamart.com/gyasiram/?pos=105&kwd=baby bedding set&tags=BA||||8752.144|Price|product|||TS|rsf:gd-|-stype:attr=1|qr_nm:gd|res:RC4|com-cf:nl|ptrs:na|ktp:N0|mc:49627|mtp:S|qry_typ:P|lang:en|wc:3|cs:8845|v=4,False,Delhi Sadar Bazar,New Delhi,"458, Main Road, Sadar Bazar Near Bara Tooti Chowk, Delhi Sadar Bazar, New Delhi - 110006, Dist.Delhi, Delhi",8046043034,
Ultra soft suede Plain CraftX Baby Sofa Bedding,https://www.indiamart.com/proddetail/craftx-baby-sofa-bedding-21789225891.html?pos=106&kwd=baby bedding set&tags=BA||||8752.144|Price|product|||TS|rsf:gd-|-stype:attr=1|qr_nm:gd|res:RC4|com-cf:nl|ptrs:na|ktp:N0|mc:49627|mtp:S|qry_typ:P|lang:en|wc:3|cs:8845|v=4,Craftx Inc,https://www.indiamart.com/missru-trading-company/?pos=106&kwd=baby bedding set&tags=BA||||8752.144|Price|product|||TS|rsf:gd-|-stype:attr=1|qr_nm:gd|res:RC4|com-cf:nl|ptrs:na|ktp:N0|mc:49627|mtp:S|qry_typ:P|lang:en|wc:3|cs:8845|v=4,False,Bawana,New Delhi,"N-191, Sec-02, Bawana Industrial Area, Bawana, New Delhi - 110084, Dist.Delhi, Delhi",8048952385,
COTTON Stripe New Born Baby Bedding,https://www.indiamart.com/proddetail/new-born-baby-bedding-27595217662.html?pos=107&kwd=baby bedding set&tags=BA||||8706.263|Price|product|||TS|rsf:gd-|-stype:attr=1|qr_nm:gd|res:RC4|com-cf:nl|ptrs:na|ktp:N0|mc:49627|mtp:S|qry_typ:P|lang:en|wc:3|cs:8845|v=4,Karur Export Company,https://www.karurexportcompany.in/?pos=107&kwd=baby bedding set&tags=BA||||8706.263|Price|product|||TS|rsf:gd-|-stype:attr=1|qr_nm:gd|res:RC4|com-cf:nl|ptrs:na|ktp:N0|mc:49627|mtp:S|qry_typ:P|lang:en|wc:3|cs:8845|v=4,True,Sri Poonkuyil Nagar,Karur,"41, 43, Kuluthu Palayam Road, Vengamedu, Sri Poonkuyil Nagar, Karur - 639006, Dist.Karur, Tamil Nadu",8048600914,
"Cotton Baby 6 Pcs Set, For Gift Purpose, pp Packing",https://www.indiamart.com/proddetail/baby-6-pcs-set-2853573829733.html?pos=108&kwd=baby bedding set&tags=BB||||8747.203|Price|product|||TS|rsf:gd-|-stype:attr=1|qr_nm:gd|res:RC4|com-cf:nl|ptrs:na|ktp:N0|mc:49627|mtp:S|qry_typ:P|lang:en|wc:3|cs:8845|v=4,Shiv Textiles,https://www.indiamart.com/shivtextilespanipat/?pos=108&kwd=baby bedding set&tags=BB||||8747.203|Price|product|||TS|rsf:gd-|-stype:attr=1|qr_nm:gd|res:RC4|com-cf:nl|ptrs:na|ktp:N0|mc:49627|mtp:S|qry_typ:P|lang:en|wc:3|cs:8845|v=4,False,Jagjivan Ram Colony,Panipat,"Shop No.19-C, Aggarwal Gali Number 1, Gohana Road, Jagjivan Ram Colony, Panipat - 132103, Dist.Panipat, Haryana",7942665530,
"RRC Cotton Baby Set for new Born Baby, For Gifting",https://www.indiamart.com/proddetail/rrc-cotton-baby-set-for-new-born-baby-2853871529088.html?pos=109&kwd=baby bedding set&tags=BA||||8601.347|Price|product|||TS|rsf:gd-|-stype:attr=1|qr_nm:gd|res:RC4|com-cf:nl|ptrs:na|ktp:N0|mc:49627|mtp:S|qry_typ:P|lang:en|wc:3|cs:8845|v=4,RR Creations,https://www.rrcreation.co.in/?pos=109&kwd=baby bedding set&tags=BA||||8601.347|Price|product|||TS|rsf:gd-|-stype:attr=1|qr_nm:gd|res:RC4|com-cf:nl|ptrs:na|ktp:N0|mc:49627|mtp:S|qry_typ:P|lang:en|wc:3|cs:8845|v=4,False,Raghunathgarh,Jaipur,"A7D, Raghunath Colony, Galta Gate, Raghunathgarh, Jaipur - 302003, Dist.Jaipur, Rajasthan",8047620731,
"imported Baby Care Products, 3-12 Months",https://www.indiamart.com/proddetail/baby-care-products-2849563394797.html?pos=110&kwd=baby bedding set&tags=BB||||8752.144|Price|product|||TS|rsf:gd-|-stype:attr=1|qr_nm:gd|res:RC4|com-cf:nl|ptrs:na|ktp:N0|mc:49627|mtp:S|qry_typ:P|lang:en|wc:3|cs:8845|v=4,Amarcom,https://www.indiamart.com/amarcom-newdelhi/?pos=110&kwd=baby bedding set&tags=BB||||8752.144|Price|product|||TS|rsf:gd-|-stype:attr=1|qr_nm:gd|res:RC4|com-cf:nl|ptrs:na|ktp:N0|mc:49627|mtp:S|qry_typ:P|lang:en|wc:3|cs:8845|v=4,False,Punjabi Bagh,New Delhi,"63, West Avenue Road, West Punjabi Bagh, New Delhi, Punjabi Bagh, New Delhi - 110026, Dist.Delhi, Delhi",8043869162,
"Cotton Square LOREM BABY BED BB06, For Home",https://www.indiamart.com/proddetail/lorem-baby-bed-bb06-2848974329148.html?pos=111&kwd=baby bedding set&tags=BA||||8230.883|Price|product|||TS|rsf:gd-|-stype:attr=1|qr_nm:gd|res:RC4|com-cf:nl|ptrs:na|ktp:N0|mc:49627|mtp:S|qry_typ:P|lang:en|wc:3|cs:8845|v=4,S J Fashion,https://www.indiamart.com/sjfashion/?pos=111&kwd=baby bedding set&tags=BA||||8230.883|Price|product|||TS|rsf:gd-|-stype:attr=1|qr_nm:gd|res:RC4|com-cf:nl|ptrs:na|ktp:N0|mc:49627|mtp:S|qry_typ:P|lang:en|wc:3|cs:8845|v=4,False,Punagam,Surat,"B4, Basement, Polaris Mall Punagam BRTS canal Road,, Punagam, Surat - 395010, Dist.Surat, Gujarat",8048958543,
"Blue KIdS Rocket Print Bedding Set-VIBRO502, For Home",https://www.indiamart.com/proddetail/kids-rocket-print-bedding-set-vibro502-17622435588.html?pos=112&kwd=baby bedding set&tags=BB||||8601.347|Price|product|||TS|rsf:gd-|-stype:attr=1|qr_nm:gd|res:RC4|com-cf:nl|ptrs:na|ktp:N0|mc:49627|mtp:S|qry_typ:P|lang:en|wc:3|cs:8845|v=4,Little India,https://www.littleindiajaipur.com/?pos=112&kwd=baby bedding set&tags=BB||||8601.347|Price|product|||TS|rsf:gd-|-stype:attr=1|qr_nm:gd|res:RC4|com-cf:nl|ptrs:na|ktp:N0|mc:49627|mtp:S|qry_typ:P|lang:en|wc:3|cs:8845|v=4,False,Jawahar Nagar,Jaipur,"2/593, Jawahar Nagar, Jawahar Nagar, Jaipur - 302004, Dist.Jaipur, Rajasthan",8048600641,
Velvet Baby Bedding Set,https://www.indiamart.com/proddetail/velvet-baby-bedding-set-2853890029855.html?pos=113&kwd=baby bedding set&tags=BA||||8747.203|Price|product|||MDC|rsf:gd-|-stype:attr=1|qr_nm:gd|res:RC4|com-cf:nl|ptrs:na|ktp:N0|mc:49627|mtp:S|qry_typ:P|lang:en|wc:3|cs:8845|v=4,Sai Impex,https://www.indiamart.com/sai-impex-panipat/?pos=113&kwd=baby bedding set&tags=BA||||8747.203|Price|product|||MDC|rsf:gd-|-stype:attr=1|qr_nm:gd|res:RC4|com-cf:nl|ptrs:na|ktp:N0|mc:49627|mtp:S|qry_typ:P|lang:en|wc:3|cs:8845|v=4,False,,Panipat,"581/4, Circular Road, Near Amar, Bhawan Chowk,, Panipat - 132103, Dist.Panipat, Haryana",7949329674,
"Pink Baby Carry Bedding Bed, 2 Year",https://www.indiamart.com/proddetail/baby-carry-bedding-bed-24422576473.html?pos=114&kwd=baby bedding set&tags=BA||||8954.051|Price|product|||MDC|rsf:gd-|-stype:attr=1|qr_nm:gd|res:RC4|com-cf:nl|ptrs:na|ktp:N0|mc:49627|mtp:S|qry_typ:P|lang:en|wc:3|cs:8845|v=4,Upkar Agency,https://www.indiamart.com/upkaragency/?pos=114&kwd=baby bedding set&tags=BA||||8954.051|Price|product|||MDC|rsf:gd-|-stype:attr=1|qr_nm:gd|res:RC4|com-cf:nl|ptrs:na|ktp:N0|mc:49627|mtp:S|qry_typ:P|lang:en|wc:3|cs:8845|v=4,False,Sowcarpet,Chennai,",30,Strotten Muthiah Mudali Street,,Sowcarpet,,, Sowcarpet, Chennai - 600001, Dist.Chennai, Tamil Nadu",7942549213,
"Rectangular Baby Godadi Set, Cotton",https://www.indiamart.com/proddetail/baby-godadi-set-2854677827773.html?pos=115&kwd=baby bedding set&tags=BB||||8230.883|Price|product|||MDC|rsf:gd-|-stype:attr=1|qr_nm:gd|res:RC4|com-cf:nl|ptrs:na|ktp:N0|mc:49627|mtp:S|qry_typ:P|lang:en|wc:3|cs:8845|v=4,Grow More Enterprise,https://www.indiamart.com/growmoreenterprise-surat/?pos=115&kwd=baby bedding set&tags=BB||||8230.883|Price|product|||MDC|rsf:gd-|-stype:attr=1|qr_nm:gd|res:RC4|com-cf:nl|ptrs:na|ktp:N0|mc:49627|mtp:S|qry_typ:P|lang:en|wc:3|cs:8845|v=4,False,Punagam,Surat,"C 38, Matrushakti Society, Punagam, Punagam, Surat - 395010, Dist.Surat, Gujarat",7942722776,
Stylish Baby Sleeping Bag,https://www.indiamart.com/proddetail/stylish-baby-sleeping-bag-2853603638748.html?pos=116&kwd=baby bedding set&tags=BA||||8230.883|Price|product|||MDC|rsf:gd-|-stype:attr=1|qr_nm:gd|res:RC4|com-cf:nl|ptrs:na|ktp:N0|mc:49627|mtp:S|qry_typ:P|lang:en|wc:3|cs:8845|v=4,Shri Shri Fashion,https://www.indiamart.com/shri-shri-fashion/?pos=116&kwd=baby bedding set&tags=BA||||8230.883|Price|product|||MDC|rsf:gd-|-stype:attr=1|qr_nm:gd|res:RC4|com-cf:nl|ptrs:na|ktp:N0|mc:49627|mtp:S|qry_typ:P|lang:en|wc:3|cs:8845|v=4,False,Varachha,Surat,"A-231, Narayan Nagar, Near Nalanda School, Punagam,, Varachha, Surat - 395010, Dist.Surat, Gujarat",7942712235,
"Size: Single Cotton Kids Printed Bed Sheet, For Home",https://www.indiamart.com/proddetail/kids-printed-bed-sheet-2850708442733.html?pos=117&kwd=baby bedding set&tags=BA||||8584.299|Price|product|||MDC|rsf:gd-|-stype:attr=1|qr_nm:gd|res:RC4|com-cf:nl|ptrs:na|ktp:N0|mc:49627|mtp:S|qry_typ:P|lang:en|wc:3|cs:8845|v=4,Coimbatore Vandana Beds,https://www.indiamart.com/coimbatore-vandana-beds/?pos=117&kwd=baby bedding set&tags=BA||||8584.299|Price|product|||MDC|rsf:gd-|-stype:attr=1|qr_nm:gd|res:RC4|com-cf:nl|ptrs:na|ktp:N0|mc:49627|mtp:S|qry_typ:P|lang:en|wc:3|cs:8845|v=4,False,Town Hall,Coimbatore,"394, Oppanakara Street, Town Hall, Coimbatore - 641001, Dist.Coimbatore, Tamil Nadu",8047697480,
baby bedding set,,Neo Polly Pillow,https://www.indiamart.com/neo-polly-pillow/?pos=118&kwd=baby bedding set&tags=BA||||8211.142|Price|product|||TS|rsf:gd-|-stype:attr=1|qr_nm:gd|res:RC4|com-cf:nl|ptrs:na|ktp:N0|mc:49627|mtp:S|qry_typ:P|lang:en|wc:3|cs:8845|v=4,False,Ghatkopar West,Mumbai,"D-4, Ashapura Estate, Jungleshwar Mandir Road, Subhash Nagar Asalpha, Ghatkopar West, Mumbai - 400084, Dist.Mumbai, Maharashtra",8046071532,
"Cotton Red Baby Bedding Set, For Home",https://www.indiamart.com/proddetail/baby-bedding-set-26076365662.html?pos=119&kwd=baby bedding set&tags=BB||||8747.203|Price|product|||NA|rsf:gd-|-stype:attr=1|qr_nm:gd|res:RC4|com-cf:nl|ptrs:na|ktp:N0|mc:49627|mtp:S|qry_typ:P|lang:en|wc:3|cs:8845|v=4,Mahaluxmi Enterprises,https://www.indiamart.com/mahaluxmi-enterprisespanipat/?pos=119&kwd=baby bedding set&tags=BB||||8747.203|Price|product|||NA|rsf:gd-|-stype:attr=1|qr_nm:gd|res:RC4|com-cf:nl|ptrs:na|ktp:N0|mc:49627|mtp:S|qry_typ:P|lang:en|wc:3|cs:8845|v=4,False,,Panipat,"H.No-280/14, Mahalaxmi Enterprises Ganga Puri Road,, Panipat - 132103, Dist.Panipat, Haryana",8043859681,
"Harender Enterprises Rose Printed Royal Blue Velvet Baby Bedding Set, For Home",https://www.indiamart.com/proddetail/rose-printed-royal-blue-velvet-baby-bedding-set-2849897687488.html?pos=120&kwd=baby bedding set&tags=BA||||8752.144|Price|product|||NA|rsf:gd-|-stype:attr=1|qr_nm:gd|res:RC4|com-cf:nl|ptrs:na|ktp:N0|mc:49627|mtp:S|qry_typ:P|lang:en|wc:3|cs:8845|v=4,Harender Enterprises,https://www.indiamart.com/harender-enterprises/?pos=120&kwd=baby bedding set&tags=BA||||8752.144|Price|product|||NA|rsf:gd-|-stype:attr=1|qr_nm:gd|res:RC4|com-cf:nl|ptrs:na|ktp:N0|mc:49627|mtp:S|qry_typ:P|lang:en|wc:3|cs:8845|v=4,False,Raghu Nagar,New Delhi,"RZ 173 B, Gali No 12, Durga Park, Nasirpur Road, South West Delhi, Raghu Nagar, New Delhi - 110045, Dist.Delhi, Delhi",7942797895,
"Mumma Mall Cotton Yellow Baby Bedding Set, For Home, Size: 39x39x5 Inches",https://www.indiamart.com/proddetail/yellow-baby-bedding-set-2849671619973.html?pos=126&kwd=baby bedding set&tags=BB||||8032.138||product|||NA|rsf:gd-|-stype:attr=1|qr_nm:gd|res:RC4|com-cf:nl|ptrs:na|ktp:N0|mc:49627|mtp:S|qry_typ:P|lang:en|wc:3|cs:8845|v=4,Ambition Of Creativity,https://www.indiamart.com/ambitionofcreativitygondal/?pos=126&kwd=baby bedding set&tags=BB||||8032.138||product|||NA|rsf:gd-|-stype:attr=1|qr_nm:gd|res:RC4|com-cf:nl|ptrs:na|ktp:N0|mc:49627|mtp:S|qry_typ:P|lang:en|wc:3|cs:8845|v=4,False,Rajkot,Gondal,"Raiyaraj, Chokshi Nagar, Umvada Road,, Rajkot, Gondal - 360311, Dist.Rajkot, Gujarat",7942791225,
Multicolor Rectangular Baby bed sized cotton bedding set,https://www.indiamart.com/proddetail/baby-bed-sized-cotton-bedding-set-2853281465055.html?pos=122&kwd=baby bedding set&tags=BA||||8734.695|Price|product|||NA|rsf:gd-|-stype:attr=1|qr_nm:gd|res:RC4|com-cf:nl|ptrs:na|ktp:N0|mc:49627|mtp:S|qry_typ:P|lang:en|wc:3|cs:8845|v=4,K Joon Exports,https://www.indiamart.com/k-joon-exports/?pos=122&kwd=baby bedding set&tags=BA||||8734.695|Price|product|||NA|rsf:gd-|-stype:attr=1|qr_nm:gd|res:RC4|com-cf:nl|ptrs:na|ktp:N0|mc:49627|mtp:S|qry_typ:P|lang:en|wc:3|cs:8845|v=4,False,Sarai Aurangabad,Bahadurgarh,"H No 151, VPO Nuna Majra, Tehsil Bahadurgarh, Jhajjar, Sarai Aurangabad, Bahadurgarh - 124507, Dist.Jhajjar, Haryana",8047662139,
Baby Printed Bedding Set,https://www.indiamart.com/proddetail/baby-printed-bedding-set-22426634173.html?pos=123&kwd=baby bedding set&tags=BB||||8500.97|Price|product|||NA|rsf:gd-|-stype:attr=1|qr_nm:gd|res:RC4|com-cf:nl|ptrs:na|ktp:N0|mc:49627|mtp:S|qry_typ:P|lang:en|wc:3|cs:8845|v=4,G.K. Tradings,https://www.indiamart.com/g-k-tradings/?pos=123&kwd=baby bedding set&tags=BB||||8500.97|Price|product|||NA|rsf:gd-|-stype:attr=1|qr_nm:gd|res:RC4|com-cf:nl|ptrs:na|ktp:N0|mc:49627|mtp:S|qry_typ:P|lang:en|wc:3|cs:8845|v=4,False,Thriprayar,Thrissur,"Ix/626,627, 628 Triprayar Nattika, Thriprayar, Thrissur - 680566, Dist.Thrissur, Kerala",7942560526,
"Cotton White And Red Newborn Baby Bedding Set, For Home",https://www.indiamart.com/proddetail/newborn-baby-bedding-set-25500451433.html?pos=124&kwd=baby bedding set&tags=BA||||8230.883|Price|product|||NA|rsf:gd-|-stype:attr=1|qr_nm:gd|res:RC4|com-cf:nl|ptrs:na|ktp:N0|mc:49627|mtp:S|qry_typ:P|lang:en|wc:3|cs:8845|v=4,Kiran Handicraft,https://www.indiamart.com/kiran-handicraft-surat/?pos=124&kwd=baby bedding set&tags=BA||||8230.883|Price|product|||NA|rsf:gd-|-stype:attr=1|qr_nm:gd|res:RC4|com-cf:nl|ptrs:na|ktp:N0|mc:49627|mtp:S|qry_typ:P|lang:en|wc:3|cs:8845|v=4,False,Sanjay Nagar,Surat,"Plot No.-44, 45, Ground Floor And 1st Floor, Siddhi Vinayak Industrial Estate, Laskana, Sanjay Nagar, Surat - 395006, Dist.Surat, Gujarat",8047308089,
"Cotton Printed Yellow Baby Bedding Set, For Home",https://www.indiamart.com/proddetail/yellow-baby-bedding-set-20650328855.html?pos=125&kwd=baby bedding set&tags=BA||||8211.142|Price|product|||NA|rsf:gd-|-stype:attr=1|qr_nm:gd|res:RC4|com-cf:nl|ptrs:na|ktp:N0|mc:49627|mtp:S|qry_typ:P|lang:en|wc:3|cs:8845|v=4,Baby World,https://www.indiamart.com/babyworld/?pos=125&kwd=baby bedding set&tags=BA||||8211.142|Price|product|||NA|rsf:gd-|-stype:attr=1|qr_nm:gd|res:RC4|com-cf:nl|ptrs:na|ktp:N0|mc:49627|mtp:S|qry_typ:P|lang:en|wc:3|cs:8845|v=4,False,Masjid Bandar,Mumbai,"12, Gorund Floor, Fatimabai Building, Dharamashala Street, Umerkhadi, Chinchbunder, Masjid Bandar, Mumbai - 400009, Dist.Mumbai, Maharashtra",7942539685,
"Mumma Mall Cotton Yellow Baby Bedding Set, For Home, Size: 39x39x5 Inches",https://www.indiamart.com/proddetail/yellow-baby-bedding-set-2849671619973.html?pos=126&kwd=baby bedding set&tags=BB||||8032.138||product|||NA|rsf:gd-|-stype:attr=1|qr_nm:gd|res:RC4|com-cf:nl|ptrs:na|ktp:N0|mc:49627|mtp:S|qry_typ:P|lang:en|wc:3|cs:8845|v=4,Ambition Of Creativity,https://www.indiamart.com/ambitionofcreativitygondal/?pos=126&kwd=baby bedding set&tags=BB||||8032.138||product|||NA|rsf:gd-|-stype:attr=1|qr_nm:gd|res:RC4|com-cf:nl|ptrs:na|ktp:N0|mc:49627|mtp:S|qry_typ:P|lang:en|wc:3|cs:8845|v=4,False,Rajkot,Gondal,"Raiyaraj, Chokshi Nagar, Umvada Road,, Rajkot, Gondal - 360311, Dist.Rajkot, Gujarat",7942791225,
"Embroidered Printed Baby Cotton Bedding Set, For Home",https://www.indiamart.com/proddetail/baby-cotton-bedding-set-22237751573.html?pos=127&kwd=baby bedding set&tags=BB||||9839.57|Price|product|||NA|rsf:gd-|-stype:attr=1|qr_nm:gd|res:RC4|com-cf:nl|ptrs:na|ktp:N0|mc:49627|mtp:S|qry_typ:P|lang:en|wc:3|cs:8845|v=4,Eden Home Decor,https://www.indiamart.com/eden-home-decor/?pos=127&kwd=baby bedding set&tags=BB||||9839.57|Price|product|||NA|rsf:gd-|-stype:attr=1|qr_nm:gd|res:RC4|com-cf:nl|ptrs:na|ktp:N0|mc:49627|mtp:S|qry_typ:P|lang:en|wc:3|cs:8845|v=4,False,Uluberia,Kolkata,"1 St Floor Birshibpur, Uluberia, Kolkata - 711316, Dist.Kolkata, West Bengal",7949346435,
Baby Printed Bedding Set,https://www.indiamart.com/proddetail/baby-printed-bedding-set-22426634173.html?pos=128&kwd=baby bedding set&tags=BB||||8500.97|Price|product|||NA|rsf:gd-|-stype:attr=1|qr_nm:gd|res:RC4|com-cf:nl|ptrs:na|ktp:N0|mc:49627|mtp:S|qry_typ:P|lang:en|wc:3|cs:8845|v=4,G.K. Tradings,https://www.indiamart.com/g-k-tradings/?pos=128&kwd=baby bedding set&tags=BB||||8500.97|Price|product|||NA|rsf:gd-|-stype:attr=1|qr_nm:gd|res:RC4|com-cf:nl|ptrs:na|ktp:N0|mc:49627|mtp:S|qry_typ:P|lang:en|wc:3|cs:8845|v=4,False,Thriprayar,Thrissur,"Ix/626,627, 628 Triprayar Nattika, Thriprayar, Thrissur - 680566, Dist.Thrissur, Kerala",7942560526,
"Cotton White And Red Newborn Baby Bedding Set, For Home",https://www.indiamart.com/proddetail/newborn-baby-bedding-set-25500451433.html?pos=129&kwd=baby bedding set&tags=BA||||8230.883|Price|product|||NA|rsf:gd-|-stype:attr=1|qr_nm:gd|res:RC4|com-cf:nl|ptrs:na|ktp:N0|mc:49627|mtp:S|qry_typ:P|lang:en|wc:3|cs:8845|v=4,Kiran Handicraft,https://www.indiamart.com/kiran-handicraft-surat/?pos=129&kwd=baby bedding set&tags=BA||||8230.883|Price|product|||NA|rsf:gd-|-stype:attr=1|qr_nm:gd|res:RC4|com-cf:nl|ptrs:na|ktp:N0|mc:49627|mtp:S|qry_typ:P|lang:en|wc:3|cs:8845|v=4,False,Sanjay Nagar,Surat,"Plot No.-44, 45, Ground Floor And 1st Floor, Siddhi Vinayak Industrial Estate, Laskana, Sanjay Nagar, Surat - 395006, Dist.Surat, Gujarat",8047308089,
"Cotton Printed Yellow Baby Bedding Set, For Home",https://www.indiamart.com/proddetail/yellow-baby-bedding-set-20650328855.html?pos=130&kwd=baby bedding set&tags=BA||||8211.142|Price|product|||NA|rsf:gd-|-stype:attr=1|qr_nm:gd|res:RC4|com-cf:nl|ptrs:na|ktp:N0|mc:49627|mtp:S|qry_typ:P|lang:en|wc:3|cs:8845|v=4,Baby World,https://www.indiamart.com/babyworld/?pos=130&kwd=baby bedding set&tags=BA||||8211.142|Price|product|||NA|rsf:gd-|-stype:attr=1|qr_nm:gd|res:RC4|com-cf:nl|ptrs:na|ktp:N0|mc:49627|mtp:S|qry_typ:P|lang:en|wc:3|cs:8845|v=4,False,Masjid Bandar,Mumbai,"12, Gorund Floor, Fatimabai Building, Dharamashala Street, Umerkhadi, Chinchbunder, Masjid Bandar, Mumbai - 400009, Dist.Mumbai, Maharashtra",7942539685,
"Mumma Mall Cotton Yellow Baby Bedding Set, For Home, Size: 39x39x5 Inches",https://www.indiamart.com/proddetail/yellow-baby-bedding-set-2849671619973.html?pos=131&kwd=baby bedding set&tags=BB||||8032.138||product|||NA|rsf:gd-|-stype:attr=1|qr_nm:gd|res:RC4|com-cf:nl|ptrs:na|ktp:N0|mc:49627|mtp:S|qry_typ:P|lang:en|wc:3|cs:8845|v=4,Ambition Of Creativity,https://www.indiamart.com/ambitionofcreativitygondal/?pos=131&kwd=baby bedding set&tags=BB||||8032.138||product|||NA|rsf:gd-|-stype:attr=1|qr_nm:gd|res:RC4|com-cf:nl|ptrs:na|ktp:N0|mc:49627|mtp:S|qry_typ:P|lang:en|wc:3|cs:8845|v=4,False,Rajkot,Gondal,"Raiyaraj, Chokshi Nagar, Umvada Road,, Rajkot, Gondal - 360311, Dist.Rajkot, Gujarat",7942791225,
Printed Red Baby Bedding Set,https://www.indiamart.com/proddetail/red-baby-bedding-set-22220307033.html?pos=132&kwd=baby bedding set&tags=BB||||8601.347|Price|product|||NA|rsf:gd-|-stype:attr=1|qr_nm:gd|res:RC4|com-cf:nl|ptrs:na|ktp:N0|mc:49627|mtp:S|qry_typ:P|lang:en|wc:3|cs:8845|v=4,Lakshay Kid'S Collection,https://www.indiamart.com/lakshaykids-collection/?pos=132&kwd=baby bedding set&tags=BB||||8601.347|Price|product|||NA|rsf:gd-|-stype:attr=1|qr_nm:gd|res:RC4|com-cf:nl|ptrs:na|ktp:N0|mc:49627|mtp:S|qry_typ:P|lang:en|wc:3|cs:8845|v=4,False,,Jaipur,"3/882, Malviya Nagar, Jaipur - 302017, Dist.Jaipur, Rajasthan",8048614670,
"COTTON PRINTED FABRIC Newborn Baby Bedding Set / Baby Gadda Set, For Home",https://www.indiamart.com/proddetail/newborn-baby-bedding-set-baby-gadda-set-27508407155.html?pos=133&kwd=baby bedding set&tags=BA||||8236.946|Price|product|||NA|rsf:gd-|-stype:attr=1|qr_nm:gd|res:RC4|com-cf:nl|ptrs:na|ktp:N0|mc:49627|mtp:S|qry_typ:P|lang:en|wc:3|cs:8845|v=4,Pranita Textile,https://www.indiamart.com/pranita-textile/?pos=133&kwd=baby bedding set&tags=BA||||8236.946|Price|product|||NA|rsf:gd-|-stype:attr=1|qr_nm:gd|res:RC4|com-cf:nl|ptrs:na|ktp:N0|mc:49627|mtp:S|qry_typ:P|lang:en|wc:3|cs:8845|v=4,False,,Raigad,"Unit No 206, 2nd Fioor, Silver Springs, Taloja Midc, Taloja Panchanand, Raigad., Raigad - 410208, Maharashtra",8043855238,
Cotton White Baby bedding set,https://www.indiamart.com/proddetail/baby-bedding-set-26004027062.html?pos=134&kwd=baby bedding set&tags=BA||||8255.478||product|||NA|rsf:gd-|-stype:attr=1|qr_nm:gd|res:RC4|com-cf:nl|ptrs:na|ktp:N0|mc:49627|mtp:S|qry_typ:P|lang:en|wc:3|cs:8845|v=4,Vihan Creation,https://www.indiamart.com/vihan-creation-ankleshwar/?pos=134&kwd=baby bedding set&tags=BA||||8255.478||product|||NA|rsf:gd-|-stype:attr=1|qr_nm:gd|res:RC4|com-cf:nl|ptrs:na|ktp:N0|mc:49627|mtp:S|qry_typ:P|lang:en|wc:3|cs:8845|v=4,False,jaldhara chokdi,Ankleshwar,"shahaj complex treet gopal derry, jaldhara chokdi, Ankleshwar - 395010, Dist.Bharuch, Gujarat",8069033737,287
New Born Baby Bedding Set ..( Sky Navy),https://www.indiamart.com/proddetail/new-born-baby-bedding-set-sky-navy-19376049873.html?pos=135&kwd=baby bedding set&tags=BB||||8580.032|Price|product|||NA|rsf:gd-|-stype:attr=1|qr_nm:gd|res:RC4|com-cf:nl|ptrs:na|ktp:N0|mc:49627|mtp:S|qry_typ:P|lang:en|wc:3|cs:8845|v=4,Dhawan Enterprises,https://www.indiamart.com/pinksblues/?pos=135&kwd=baby bedding set&tags=BB||||8580.032|Price|product|||NA|rsf:gd-|-stype:attr=1|qr_nm:gd|res:RC4|com-cf:nl|ptrs:na|ktp:N0|mc:49627|mtp:S|qry_typ:P|lang:en|wc:3|cs:8845|v=4,False,,Amritsar,"26, MODEL TOWN, street no.1,, Amritsar - 143001, Dist.Amritsar, Punjab",8048371873,595
"Printed 4 Piece Baby Bedding Set, For Home, Blue (base)",https://www.indiamart.com/proddetail/4-piece-baby-bedding-set-2852118879091.html?pos=136&kwd=baby bedding set&tags=BA||||8559.269|Price|product|||NA|rsf:gd-|-stype:attr=1|qr_nm:gd|res:RC4|com-cf:nl|ptrs:na|ktp:N0|mc:49627|mtp:S|qry_typ:P|lang:en|wc:3|cs:8845|v=4,Navkar Traders,https://www.indiamart.com/navkar-tradersindore/?pos=136&kwd=baby bedding set&tags=BA||||8559.269|Price|product|||NA|rsf:gd-|-stype:attr=1|qr_nm:gd|res:RC4|com-cf:nl|ptrs:na|ktp:N0|mc:49627|mtp:S|qry_typ:P|lang:en|wc:3|cs:8845|v=4,False,Sukhlia,Indore,"304, Shyam Bhatika Ke Pass, Shyam Nagar,, Sukhlia, Indore - 452010, Dist.Indore, Madhya Pradesh",7942962327,
Rectangular Dark Blue Flannel Newborn Baby Bedding Set,https://www.indiamart.com/proddetail/dark-blue-flannel-newborn-baby-bedding-set-2853456822888.html?pos=137&kwd=baby bedding set&tags=BA||||8747.203|Price|product|||NA|rsf:gd-|-stype:attr=1|qr_nm:gd|res:RC4|com-cf:nl|ptrs:na|ktp:N0|mc:49627|mtp:S|qry_typ:P|lang:en|wc:3|cs:8845|v=4,Shine Creation,https://www.indiamart.com/shine-creation-panipat/?pos=137&kwd=baby bedding set&tags=BA||||8747.203|Price|product|||NA|rsf:gd-|-stype:attr=1|qr_nm:gd|res:RC4|com-cf:nl|ptrs:na|ktp:N0|mc:49627|mtp:S|qry_typ:P|lang:en|wc:3|cs:8845|v=4,False,Rajiv Colony,Panipat,"Property No 63, Ground Floor, Rajiv Colony, Panipat, Rajiv Colony, Panipat - 132103, Dist.Panipat, Haryana",8045909148,
Kids Bedding Set,https://www.indiamart.com/proddetail/kids-bedding-set-21296732088.html?pos=138&kwd=baby bedding set&tags=BB||||8228.275|Price|product|||NA|rsf:gd-|-stype:attr=1|qr_nm:gd|res:RC4|com-cf:nl|ptrs:na|ktp:N0|mc:49627|mtp:S|qry_typ:P|lang:en|wc:3|cs:8845|v=4,Vinod Handloom,https://www.indiamart.com/vinod-handloom/?pos=138&kwd=baby bedding set&tags=BB||||8228.275|Price|product|||NA|rsf:gd-|-stype:attr=1|qr_nm:gd|res:RC4|com-cf:nl|ptrs:na|ktp:N0|mc:49627|mtp:S|qry_typ:P|lang:en|wc:3|cs:8845|v=4,False,Jahangirpura,Ahmedabad,"F-5 Idghah Circle, Asarwa City Centre, Jahangirpura, Ahmedabad - 380016, Dist.Ahmedabad, Gujarat",8048267447,
"Harender Enterprises Rose Printed Royal Blue Velvet Baby Bedding Set, For Home",https://www.indiamart.com/proddetail/rose-printed-royal-blue-velvet-baby-bedding-set-2849897687488.html?pos=139&kwd=baby bedding set&tags=BA||||8752.144|Price|product|||NA|rsf:gd-|-stype:attr=1|qr_nm:gd|res:RC4|com-cf:nl|ptrs:na|ktp:N0|mc:49627|mtp:S|qry_typ:P|lang:en|wc:3|cs:8845|v=4,Harender Enterprises,https://www.indiamart.com/harender-enterprises/?pos=139&kwd=baby bedding set&tags=BA||||8752.144|Price|product|||NA|rsf:gd-|-stype:attr=1|qr_nm:gd|res:RC4|com-cf:nl|ptrs:na|ktp:N0|mc:49627|mtp:S|qry_typ:P|lang:en|wc:3|cs:8845|v=4,False,Raghu Nagar,New Delhi,"RZ 173 B, Gali No 12, Durga Park, Nasirpur Road, South West Delhi, Raghu Nagar, New Delhi - 110045, Dist.Delhi, Delhi",7942797895,
Sea Green Printed Baby Bed Set,https://www.indiamart.com/proddetail/sea-green-printed-baby-bed-set-23917506712.html?pos=140&kwd=baby bedding set&tags=BB||||8668.838|Price|product|||NA|rsf:gd-|-stype:attr=1|qr_nm:gd|res:RC4|com-cf:nl|ptrs:na|ktp:N0|mc:49627|mtp:S|qry_typ:P|lang:en|wc:3|cs:8845|v=4,Nowfa Traders,https://www.indiamart.com/nowfa-traders/?pos=140&kwd=baby bedding set&tags=BB||||8668.838|Price|product|||NA|rsf:gd-|-stype:attr=1|qr_nm:gd|res:RC4|com-cf:nl|ptrs:na|ktp:N0|mc:49627|mtp:S|qry_typ:P|lang:en|wc:3|cs:8845|v=4,False,,Erode,"112/4, Janaki Ammal Layout, Karungalpalayam, Erode - 638003, Dist.Erode, Tamil Nadu",8047835044,
Baby Bedding Set,https://www.indiamart.com/proddetail/baby-bedding-set-2849145104462.html?pos=141&kwd=baby bedding set&tags=BB||||8785.791|Price|product|||NA|rsf:gd-|-stype:attr=1|qr_nm:gd|res:RC4|com-cf:nl|ptrs:na|ktp:N0|mc:49627|mtp:S|qry_typ:P|lang:en|wc:3|cs:8845|v=4,Krishna Hosiery Industries,https://www.indiamart.com/krishnahosieryindustries/?pos=141&kwd=baby bedding set&tags=BB||||8785.791|Price|product|||NA|rsf:gd-|-stype:attr=1|qr_nm:gd|res:RC4|com-cf:nl|ptrs:na|ktp:N0|mc:49627|mtp:S|qry_typ:P|lang:en|wc:3|cs:8845|v=4,False,DLF Ankur Vihar,Ghaziabad,"A-155, Sector A-4, DLF Ankur Vihar, Ghaziabad - 201102, Dist.Ghaziabad, Uttar Pradesh",8047788950,
"Red Printed Baby Bedding Set, For Home",https://www.indiamart.com/proddetail/baby-bedding-set-27019814473.html?pos=142&kwd=baby bedding set&tags=BA||||8752.144||product|||NA|rsf:gd-|-stype:attr=1|qr_nm:gd|res:RC4|com-cf:nl|ptrs:na|ktp:N0|mc:49627|mtp:S|qry_typ:P|lang:en|wc:3|cs:8845|v=4,Siddharth Enterprises,https://www.indiamart.com/siddharth-enterprises-bawana/?pos=142&kwd=baby bedding set&tags=BA||||8752.144||product|||NA|rsf:gd-|-stype:attr=1|qr_nm:gd|res:RC4|com-cf:nl|ptrs:na|ktp:N0|mc:49627|mtp:S|qry_typ:P|lang:en|wc:3|cs:8845|v=4,False,Bawana,New Delhi,"Plot No. 53 - Pocket P Sector-3, Bawana, New Delhi - 110039, Dist.Delhi, Delhi",8047653708,
"Multicolor Rectangular Baby Bedding Set, Cotton",https://www.indiamart.com/proddetail/baby-bedding-set-2854424317662.html?pos=143&kwd=baby bedding set&tags=BA||||8230.883|Price|product|||NA|rsf:gd-|-stype:attr=1|qr_nm:gd|res:RC4|com-cf:nl|ptrs:na|ktp:N0|mc:49627|mtp:S|qry_typ:P|lang:en|wc:3|cs:8845|v=4,Rainbow Exports,https://www.indiamart.com/company/225060466/?pos=143&kwd=baby bedding set&tags=BA||||8230.883|Price|product|||NA|rsf:gd-|-stype:attr=1|qr_nm:gd|res:RC4|com-cf:nl|ptrs:na|ktp:N0|mc:49627|mtp:S|qry_typ:P|lang:en|wc:3|cs:8845|v=4,False,,Surat,"C-1304, Murlidhar Heights, Sudama Chowk,, Surat - 394105, Dist.Surat, Gujarat",8048370723,6167
Red Baby Bedding Set,https://www.indiamart.com/proddetail/baby-bedding-set-2854001466688.html?pos=144&kwd=baby bedding set&tags=BA||||8723.301|Price|product|||NA|rsf:gd-|-stype:attr=1|qr_nm:gd|res:RC4|com-cf:nl|ptrs:na|ktp:N0|mc:49627|mtp:S|qry_typ:P|lang:en|wc:3|cs:8845|v=4,Lotus Marketing,https://www.indiamart.com/lotusmarketing-bhopal/?pos=144&kwd=baby bedding set&tags=BA||||8723.301|Price|product|||NA|rsf:gd-|-stype:attr=1|qr_nm:gd|res:RC4|com-cf:nl|ptrs:na|ktp:N0|mc:49627|mtp:S|qry_typ:P|lang:en|wc:3|cs:8845|v=4,False,Vardhman Green City,Bhopal,"Near Durga Chowk M No-274, Narela Shankery, Vardhman Green City, Bhopal - 462041, Dist.Bhopal, Madhya Pradesh",8044015628,
"Pure Malmal Cotton Printed Baby Bedding Set, For Home",https://www.indiamart.com/proddetail/baby-bedding-set-2850963223612.html?pos=145&kwd=baby bedding set&tags=BA||||8601.347||product|||NA|rsf:gd-|-stype:attr=1|qr_nm:gd|res:RC4|com-cf:nl|ptrs:na|ktp:N0|mc:49627|mtp:S|qry_typ:P|lang:en|wc:3|cs:8845|v=4,Satvik Handicrafts,https://www.indiamart.com/satvik-handicrafts/?pos=145&kwd=baby bedding set&tags=BA||||8601.347||product|||NA|rsf:gd-|-stype:attr=1|qr_nm:gd|res:RC4|com-cf:nl|ptrs:na|ktp:N0|mc:49627|mtp:S|qry_typ:P|lang:en|wc:3|cs:8845|v=4,False,Chaksu,Jaipur,"Ward No-18, B-39, Araihant Kunj Vihar, Chaksu, Chaksu, Jaipur - 303901, Dist.Jaipur, Rajasthan",8043888775,
Solid Baby Bedding Set,https://www.indiamart.com/proddetail/baby-bedding-set-2852360882791.html?pos=146&kwd=baby bedding set&tags=BA||||8723.301|Price|product|||NA|rsf:gd-|-stype:attr=1|qr_nm:gd|res:RC4|com-cf:nl|ptrs:na|ktp:N0|mc:49627|mtp:S|qry_typ:P|lang:en|wc:3|cs:8845|v=4,Furniculture India,https://www.indiamart.com/textile-overseas/?pos=146&kwd=baby bedding set&tags=BA||||8723.301|Price|product|||NA|rsf:gd-|-stype:attr=1|qr_nm:gd|res:RC4|com-cf:nl|ptrs:na|ktp:N0|mc:49627|mtp:S|qry_typ:P|lang:en|wc:3|cs:8845|v=4,False,Bhopal,Bhopal,"HIG 3/164 Arvind Vihar, Baghmugaliya, Bhopal, Bhopal, Bhopal - 462043, Dist.Bhopal, Madhya Pradesh",7949084962,
Baby Printed Bedding Set,https://www.indiamart.com/proddetail/baby-printed-bedding-set-22426634173.html?pos=147&kwd=baby bedding set&tags=BB||||8500.97|Price|product|||NA|rsf:gd-|-stype:attr=1|qr_nm:gd|res:RC4|com-cf:nl|ptrs:na|ktp:N0|mc:49627|mtp:S|qry_typ:P|lang:en|wc:3|cs:8845|v=4,G.K. Tradings,https://www.indiamart.com/g-k-tradings/?pos=147&kwd=baby bedding set&tags=BB||||8500.97|Price|product|||NA|rsf:gd-|-stype:attr=1|qr_nm:gd|res:RC4|com-cf:nl|ptrs:na|ktp:N0|mc:49627|mtp:S|qry_typ:P|lang:en|wc:3|cs:8845|v=4,False,Thriprayar,Thrissur,"Ix/626,627, 628 Triprayar Nattika, Thriprayar, Thrissur - 680566, Dist.Thrissur, Kerala",7942560526,
"Polyester Zipper Baby Bedding Set, Size: Medium",https://www.indiamart.com/proddetail/baby-bedding-set-2849765820430.html?pos=148&kwd=baby bedding set&tags=BA||||8601.347||product|||NA|rsf:gd-|-stype:attr=1|qr_nm:gd|res:RC4|com-cf:nl|ptrs:na|ktp:N0|mc:49627|mtp:S|qry_typ:P|lang:en|wc:3|cs:8845|v=4,Bhagwati Enterprises,https://www.indiamart.com/bhagwati-enterprisesrajasthan/?pos=148&kwd=baby bedding set&tags=BA||||8601.347||product|||NA|rsf:gd-|-stype:attr=1|qr_nm:gd|res:RC4|com-cf:nl|ptrs:na|ktp:N0|mc:49627|mtp:S|qry_typ:P|lang:en|wc:3|cs:8845|v=4,False,,Jaipur,"Ground Floor, ARG Murli Heights, Moti Doongri Road, Jaipur - 302004, Dist.Jaipur, Rajasthan",7942795447,
"yellow Round baby Bed sets, For Home",https://www.indiamart.com/proddetail/round-baby-bed-sets-22902076362.html?pos=149&kwd=baby bedding set&tags=BB||||8032.138|Price|product|||NA|rsf:gd-|-stype:attr=1|qr_nm:gd|res:RC4|com-cf:nl|ptrs:na|ktp:N0|mc:49627|mtp:S|qry_typ:P|lang:en|wc:3|cs:8845|v=4,S.K.Traders,https://www.indiamart.com/sk-traders-gondal/?pos=149&kwd=baby bedding set&tags=BB||||8032.138|Price|product|||NA|rsf:gd-|-stype:attr=1|qr_nm:gd|res:RC4|com-cf:nl|ptrs:na|ktp:N0|mc:49627|mtp:S|qry_typ:P|lang:en|wc:3|cs:8845|v=4,False,Bhvnath,Gondal,",-,Bhavnath Nagar-2, Street No-4, Near Angan,S.K.Traders,Gondal,,Rajkot, Bhvnath, Gondal - 360311, Dist.Rajkot, Gujarat",8047831529,
"Size: Single Cotton Sky Blue Baby Bedding Set, Thickness: 3 inch",https://www.indiamart.com/proddetail/sky-blue-baby-bedding-set-2853142194448.html?pos=150&kwd=baby bedding set&tags=BA||||8752.144|Price|product|||NA|rsf:gd-|-stype:attr=1|qr_nm:gd|res:RC4|com-cf:nl|ptrs:na|ktp:N0|mc:49627|mtp:S|qry_typ:P|lang:en|wc:3|cs:8845|v=4,A.K Creation,https://www.indiamart.com/akcreation-new-delhi/?pos=150&kwd=baby bedding set&tags=BA||||8752.144|Price|product|||NA|rsf:gd-|-stype:attr=1|qr_nm:gd|res:RC4|com-cf:nl|ptrs:na|ktp:N0|mc:49627|mtp:S|qry_typ:P|lang:en|wc:3|cs:8845|v=4,False,Laxmi Nagar,New Delhi,"Basement, R-103/2, Ramesh Park, Laxmi Nagar, East, Laxmi Nagar, New Delhi - 110092, Dist.Delhi, Delhi",7949086474,
Baby bedding set,,G K Enterprises,https://www.indiamart.com/gk-enterprises-india/?pos=151&kwd=baby bedding set&tags=BB||||8747.203|Price|product|||NA|rsf:gd-|-stype:attr=1|qr_nm:gd|res:RC4|com-cf:nl|ptrs:na|ktp:N0|mc:49627|mtp:S|qry_typ:P|lang:en|wc:3|cs:8845|v=4,False,,Panipat,"Batra Colony 7373 Kutani Road, Panipat - 132103, Dist.Panipat, Haryana",7942621938,
Cotton White Baby Bedding Gaddi Set,https://www.indiamart.com/proddetail/baby-bedding-gaddi-set-23316189930.html?pos=152&kwd=baby bedding set&tags=BB||||8559.269|Price|product|||NA|rsf:gd-|-stype:attr=1|qr_nm:gd|res:RC4|com-cf:nl|ptrs:na|ktp:N0|mc:49627|mtp:S|qry_typ:P|lang:en|wc:3|cs:8845|v=4,Hari Har Creations,https://www.indiamart.com/harihar-creations/?pos=152&kwd=baby bedding set&tags=BB||||8559.269|Price|product|||NA|rsf:gd-|-stype:attr=1|qr_nm:gd|res:RC4|com-cf:nl|ptrs:na|ktp:N0|mc:49627|mtp:S|qry_typ:P|lang:en|wc:3|cs:8845|v=4,False,,Indore,"16 Nanda Nagar 7, Indore - 452011, Dist.Indore, Madhya Pradesh",8048607461,
Multicolor Printed Micro Cotton Baby Bedding Set,https://www.indiamart.com/proddetail/micro-cotton-baby-bedding-set-25987317348.html?pos=153&kwd=baby bedding set&tags=BB||||8747.203|Price|product|||NA|rsf:gd-|-stype:attr=1|qr_nm:gd|res:RC4|com-cf:nl|ptrs:na|ktp:N0|mc:49627|mtp:S|qry_typ:P|lang:en|wc:3|cs:8845|v=4,Yash Wooltex,https://www.indiamart.com/yashwooltex/?pos=153&kwd=baby bedding set&tags=BB||||8747.203|Price|product|||NA|rsf:gd-|-stype:attr=1|qr_nm:gd|res:RC4|com-cf:nl|ptrs:na|ktp:N0|mc:49627|mtp:S|qry_typ:P|lang:en|wc:3|cs:8845|v=4,False,,Panipat,"Opp Shivam Furnishings, Hotel Wali Gali, Kutani Road, Panipat - 132103, Dist.Panipat, Haryana",8043854666,
"Printed 4 Piece Baby Bedding Set, For Home, Blue (base)",https://www.indiamart.com/proddetail/4-piece-baby-bedding-set-2852118879091.html?pos=154&kwd=baby bedding set&tags=BA||||8559.269|Price|product|||NA|rsf:gd-|-stype:attr=1|qr_nm:gd|res:RC4|com-cf:nl|ptrs:na|ktp:N0|mc:49627|mtp:S|qry_typ:P|lang:en|wc:3|cs:8845|v=4,Navkar Traders,https://www.indiamart.com/navkar-tradersindore/?pos=154&kwd=baby bedding set&tags=BA||||8559.269|Price|product|||NA|rsf:gd-|-stype:attr=1|qr_nm:gd|res:RC4|com-cf:nl|ptrs:na|ktp:N0|mc:49627|mtp:S|qry_typ:P|lang:en|wc:3|cs:8845|v=4,False,Sukhlia,Indore,"304, Shyam Bhatika Ke Pass, Shyam Nagar,, Sukhlia, Indore - 452010, Dist.Indore, Madhya Pradesh",7942962327,
"Cotton Printed 5Pc baby bedding set, For Home",https://www.indiamart.com/proddetail/5pc-baby-bedding-set-2850828294455.html?pos=155&kwd=baby bedding set&tags=BB||||8747.203|Price|product|||NA|rsf:gd-|-stype:attr=1|qr_nm:gd|res:RC4|com-cf:nl|ptrs:na|ktp:N0|mc:49627|mtp:S|qry_typ:P|lang:en|wc:3|cs:8845|v=4,R.B. Enterprises,https://www.indiamart.com/rbenterprisespanipat/?pos=155&kwd=baby bedding set&tags=BB||||8747.203|Price|product|||NA|rsf:gd-|-stype:attr=1|qr_nm:gd|res:RC4|com-cf:nl|ptrs:na|ktp:N0|mc:49627|mtp:S|qry_typ:P|lang:en|wc:3|cs:8845|v=4,False,,Panipat,"House No. 325/3 Ward No.3, Panipat - 132103, Dist.Panipat, Haryana",8047807384,
Cotton Yellow(Base) Baby Printed Bedding Set,https://www.indiamart.com/proddetail/baby-printed-bedding-set-2851578186430.html?pos=156&kwd=baby bedding set&tags=BA||||8559.269|Price|product|||NA|rsf:gd-|-stype:attr=1|qr_nm:gd|res:RC4|com-cf:nl|ptrs:na|ktp:N0|mc:49627|mtp:S|qry_typ:P|lang:en|wc:3|cs:8845|v=4,AG Industries,https://www.indiamart.com/ag-industries-indore/?pos=156&kwd=baby bedding set&tags=BA||||8559.269|Price|product|||NA|rsf:gd-|-stype:attr=1|qr_nm:gd|res:RC4|com-cf:nl|ptrs:na|ktp:N0|mc:49627|mtp:S|qry_typ:P|lang:en|wc:3|cs:8845|v=4,False,,Indore,"16/7 Unnamed Road, Indore - 452011, Dist.Indore, Madhya Pradesh",7942834845,
Rectangular Dark Blue Flannel Newborn Baby Bedding Set,https://www.indiamart.com/proddetail/dark-blue-flannel-newborn-baby-bedding-set-2853456822888.html?pos=157&kwd=baby bedding set&tags=BA||||8747.203|Price|product|||NA|rsf:gd-|-stype:attr=1|qr_nm:gd|res:RC4|com-cf:nl|ptrs:na|ktp:N0|mc:49627|mtp:S|qry_typ:P|lang:en|wc:3|cs:8845|v=4,Shine Creation,https://www.indiamart.com/shine-creation-panipat/?pos=157&kwd=baby bedding set&tags=BA||||8747.203|Price|product|||NA|rsf:gd-|-stype:attr=1|qr_nm:gd|res:RC4|com-cf:nl|ptrs:na|ktp:N0|mc:49627|mtp:S|qry_typ:P|lang:en|wc:3|cs:8845|v=4,False,Rajiv Colony,Panipat,"Property No 63, Ground Floor, Rajiv Colony, Panipat, Rajiv Colony, Panipat - 132103, Dist.Panipat, Haryana",8045909148,
"Cotton Multicolor Newborn Baby Bedding Set, For Home",https://www.indiamart.com/proddetail/newborn-baby-bedding-set-2850327750733.html?pos=158&kwd=baby bedding set&tags=BB||||8661.854|Price|product|||NA|rsf:gd-|-stype:attr=1|qr_nm:gd|res:RC4|com-cf:nl|ptrs:na|ktp:N0|mc:49627|mtp:S|qry_typ:P|lang:en|wc:3|cs:8845|v=4,Charu Enterprises,https://www.indiamart.com/charu-enterprises-punjab/?pos=158&kwd=baby bedding set&tags=BB||||8661.854|Price|product|||NA|rsf:gd-|-stype:attr=1|qr_nm:gd|res:RC4|com-cf:nl|ptrs:na|ktp:N0|mc:49627|mtp:S|qry_typ:P|lang:en|wc:3|cs:8845|v=4,False,,Ludhiana,"6729, Street No.4, Jassian Road, Naveen Nagar, Haibowal Kalan, Ludhiana - 141008, Dist.Ludhiana, Punjab",7942817239,
"Embroidered Printed Baby Cotton Bedding Set, For Home",https://www.indiamart.com/proddetail/baby-cotton-bedding-set-22237751573.html?pos=159&kwd=baby bedding set&tags=BB||||9839.57|Price|product|||NA|rsf:gd-|-stype:attr=1|qr_nm:gd|res:RC4|com-cf:nl|ptrs:na|ktp:N0|mc:49627|mtp:S|qry_typ:P|lang:en|wc:3|cs:8845|v=4,Eden Home Decor,https://www.indiamart.com/eden-home-decor/?pos=159&kwd=baby bedding set&tags=BB||||9839.57|Price|product|||NA|rsf:gd-|-stype:attr=1|qr_nm:gd|res:RC4|com-cf:nl|ptrs:na|ktp:N0|mc:49627|mtp:S|qry_typ:P|lang:en|wc:3|cs:8845|v=4,False,Uluberia,Kolkata,"1 St Floor Birshibpur, Uluberia, Kolkata - 711316, Dist.Kolkata, West Bengal",7949346435,
"Cotton Printed Pink Baby Bedding Set, For Home",https://www.indiamart.com/proddetail/pink-baby-bedding-set-23030476355.html?pos=160&kwd=baby bedding set&tags=BA||||8752.144|Price|product|||NA|rsf:gd-|-stype:attr=1|qr_nm:gd|res:RC4|com-cf:nl|ptrs:na|ktp:N0|mc:49627|mtp:S|qry_typ:P|lang:en|wc:3|cs:8845|v=4,Anu Creations,https://www.indiamart.com/anucreations-delhi/?pos=160&kwd=baby bedding set&tags=BA||||8752.144|Price|product|||NA|rsf:gd-|-stype:attr=1|qr_nm:gd|res:RC4|com-cf:nl|ptrs:na|ktp:N0|mc:49627|mtp:S|qry_typ:P|lang:en|wc:3|cs:8845|v=4,False,Karol Bagh,New Delhi,"4312, 2nd Floor, Gali Bahuji, Bahadur Garh Road, Sadar Bazar, Central Delhi, Karol Bagh, New Delhi - 110006, Dist.Delhi, Delhi",8047657412,
"Cotton White And Red Newborn Baby Bedding Set, For Home",https://www.indiamart.com/proddetail/newborn-baby-bedding-set-25500451433.html?pos=161&kwd=baby bedding set&tags=BA||||8230.883|Price|product|||NA|rsf:gd-|-stype:attr=1|qr_nm:gd|res:RC4|com-cf:nl|ptrs:na|ktp:N0|mc:49627|mtp:S|qry_typ:P|lang:en|wc:3|cs:8845|v=4,Kiran Handicraft,https://www.indiamart.com/kiran-handicraft-surat/?pos=161&kwd=baby bedding set&tags=BA||||8230.883|Price|product|||NA|rsf:gd-|-stype:attr=1|qr_nm:gd|res:RC4|com-cf:nl|ptrs:na|ktp:N0|mc:49627|mtp:S|qry_typ:P|lang:en|wc:3|cs:8845|v=4,False,Sanjay Nagar,Surat,"Plot No.-44, 45, Ground Floor And 1st Floor, Siddhi Vinayak Industrial Estate, Laskana, Sanjay Nagar, Surat - 395006, Dist.Surat, Gujarat",8047308089,
Printed Red Baby Bedding Set,https://www.indiamart.com/proddetail/red-baby-bedding-set-22220307033.html?pos=162&kwd=baby bedding set&tags=BB||||8601.347|Price|product|||NA|rsf:gd-|-stype:attr=1|qr_nm:gd|res:RC4|com-cf:nl|ptrs:na|ktp:N0|mc:49627|mtp:S|qry_typ:P|lang:en|wc:3|cs:8845|v=4,Lakshay Kid'S Collection,https://www.indiamart.com/lakshaykids-collection/?pos=162&kwd=baby bedding set&tags=BB||||8601.347|Price|product|||NA|rsf:gd-|-stype:attr=1|qr_nm:gd|res:RC4|com-cf:nl|ptrs:na|ktp:N0|mc:49627|mtp:S|qry_typ:P|lang:en|wc:3|cs:8845|v=4,False,,Jaipur,"3/882, Malviya Nagar, Jaipur - 302017, Dist.Jaipur, Rajasthan",8048614670,
"Cotton Printed Yellow Baby Bedding Set, For Home",https://www.indiamart.com/proddetail/yellow-baby-bedding-set-20650328855.html?pos=163&kwd=baby bedding set&tags=BA||||8211.142|Price|product|||NA|rsf:gd-|-stype:attr=1|qr_nm:gd|res:RC4|com-cf:nl|ptrs:na|ktp:N0|mc:49627|mtp:S|qry_typ:P|lang:en|wc:3|cs:8845|v=4,Baby World,https://www.indiamart.com/babyworld/?pos=163&kwd=baby bedding set&tags=BA||||8211.142|Price|product|||NA|rsf:gd-|-stype:attr=1|qr_nm:gd|res:RC4|com-cf:nl|ptrs:na|ktp:N0|mc:49627|mtp:S|qry_typ:P|lang:en|wc:3|cs:8845|v=4,False,Masjid Bandar,Mumbai,"12, Gorund Floor, Fatimabai Building, Dharamashala Street, Umerkhadi, Chinchbunder, Masjid Bandar, Mumbai - 400009, Dist.Mumbai, Maharashtra",7942539685,
"Mumma Mall Cotton Yellow Baby Bedding Set, For Home, Size: 39x39x5 Inches",https://www.indiamart.com/proddetail/yellow-baby-bedding-set-2849671619973.html?pos=164&kwd=baby bedding set&tags=BB||||8032.138||product|||NA|rsf:gd-|-stype:attr=1|qr_nm:gd|res:RC4|com-cf:nl|ptrs:na|ktp:N0|mc:49627|mtp:S|qry_typ:P|lang:en|wc:3|cs:8845|v=4,Ambition Of Creativity,https://www.indiamart.com/ambitionofcreativitygondal/?pos=164&kwd=baby bedding set&tags=BB||||8032.138||product|||NA|rsf:gd-|-stype:attr=1|qr_nm:gd|res:RC4|com-cf:nl|ptrs:na|ktp:N0|mc:49627|mtp:S|qry_typ:P|lang:en|wc:3|cs:8845|v=4,False,Rajkot,Gondal,"Raiyaraj, Chokshi Nagar, Umvada Road,, Rajkot, Gondal - 360311, Dist.Rajkot, Gujarat",7942791225,
Newborn Baby Bedding Set,https://www.indiamart.com/proddetail/newborn-baby-bedding-set-22597331155.html?pos=165&kwd=baby bedding set&tags=BB||||8752.144|Price|product|||NA|rsf:gd-|-stype:attr=1|qr_nm:gd|res:RC4|com-cf:nl|ptrs:na|ktp:N0|mc:49627|mtp:S|qry_typ:P|lang:en|wc:3|cs:8845|v=4,Ekanthika Enterprises,https://www.indiamart.com/ekanthika-enterprises/?pos=165&kwd=baby bedding set&tags=BB||||8752.144|Price|product|||NA|rsf:gd-|-stype:attr=1|qr_nm:gd|res:RC4|com-cf:nl|ptrs:na|ktp:N0|mc:49627|mtp:S|qry_typ:P|lang:en|wc:3|cs:8845|v=4,False,North West Delhi,New Delhi,"C-51/B, S No. 21, Second Floor, Khasra No. 214/2 Sector 07, North West Delhi, New Delhi - 110085, Dist.Delhi, Delhi",8048371865,554
"Bedding sets Baby Bedding Set (Camel Chocolate), Warranty: No Warranty",https://www.indiamart.com/proddetail/baby-bedding-set-camel-chocolate-19376070030.html?pos=166&kwd=baby bedding set&tags=BB||||8580.032|Price|product|||NA|rsf:gd-|-stype:attr=1|qr_nm:gd|res:RC4|com-cf:nl|ptrs:na|ktp:N0|mc:49627|mtp:S|qry_typ:P|lang:en|wc:3|cs:8845|v=4,Dhawan Enterprises,https://www.indiamart.com/pinksblues-amritsar/?pos=166&kwd=baby bedding set&tags=BB||||8580.032|Price|product|||NA|rsf:gd-|-stype:attr=1|qr_nm:gd|res:RC4|com-cf:nl|ptrs:na|ktp:N0|mc:49627|mtp:S|qry_typ:P|lang:en|wc:3|cs:8845|v=4,False,,Amritsar,"26,MODEL TOWN,,street no.1 26 MODEL TOWN street no.1,141001,Amritsar, Amritsar - 143001, Dist.Amritsar, Punjab",8048249687,2391
"Cotton Blue Printed Baby Bedding Set, For Home",https://www.indiamart.com/proddetail/blue-printed-baby-bedding-set-25883460330.html?pos=167&kwd=baby bedding set&tags=BB||||9839.57|Price|product|||NA|rsf:gd-|-stype:attr=1|qr_nm:gd|res:RC4|com-cf:nl|ptrs:na|ktp:N0|mc:49627|mtp:S|qry_typ:P|lang:en|wc:3|cs:8845|v=4,Mini Master,https://www.indiamart.com/mini-master-kolkata/?pos=167&kwd=baby bedding set&tags=BB||||9839.57|Price|product|||NA|rsf:gd-|-stype:attr=1|qr_nm:gd|res:RC4|com-cf:nl|ptrs:na|ktp:N0|mc:49627|mtp:S|qry_typ:P|lang:en|wc:3|cs:8845|v=4,False,,Kolkata,"64, Collin Street, Kolkata - 700016, Dist.Kolkata, West Bengal",8043852186,
Rectangular Purple Cotton Printed Baby Bedding Set,https://www.indiamart.com/proddetail/purple-cotton-printed-baby-bedding-set-2853492220130.html?pos=168&kwd=baby bedding set&tags=BA||||8747.203|Price|product|||NA|rsf:gd-|-stype:attr=1|qr_nm:gd|res:RC4|com-cf:nl|ptrs:na|ktp:N0|mc:49627|mtp:S|qry_typ:P|lang:en|wc:3|cs:8845|v=4,Dakshita Trading Co.,https://www.indiamart.com/dakshita-tradingco/?pos=168&kwd=baby bedding set&tags=BA||||8747.203|Price|product|||NA|rsf:gd-|-stype:attr=1|qr_nm:gd|res:RC4|com-cf:nl|ptrs:na|ktp:N0|mc:49627|mtp:S|qry_typ:P|lang:en|wc:3|cs:8845|v=4,False,Chawla Colony,Panipat,"Dalbir Nagar, Ward No. 6, Chawla Colony, Panipat - 132103, Dist.Panipat, Haryana",7949091045,
New Supersoft Baby Bedding Set,,Saraswati Textiles,https://www.indiamart.com/saraswatitextiles-panipat/?pos=169&kwd=baby bedding set&tags=BB||||8747.203|Price|product|||NA|rsf:gd-|-stype:attr=1|qr_nm:gd|res:RC4|com-cf:nl|ptrs:na|ktp:N0|mc:49627|mtp:S|qry_typ:P|lang:en|wc:3|cs:8845|v=4,False,opp geeta market panipat,Panipat,"0 Kutani Road Near Dcb Biscuit Factory Panipat, opp geeta market panipat, Panipat - 132103, Dist.Panipat, Haryana",8069033797,938
Baby Pink Round Bedding Set,https://www.indiamart.com/proddetail/baby-pink-round-bedding-set-2853725767262.html?pos=170&kwd=baby bedding set&tags=BA||||8032.138|Price|product|||NA|rsf:gd-|-stype:attr=1|qr_nm:gd|res:RC4|com-cf:nl|ptrs:na|ktp:N0|mc:49627|mtp:S|qry_typ:P|lang:en|wc:3|cs:8845|v=4,Pankhulit Enterprise,https://www.indiamart.com/pankhulitenterprise-gujarat/?pos=170&kwd=baby bedding set&tags=BA||||8032.138|Price|product|||NA|rsf:gd-|-stype:attr=1|qr_nm:gd|res:RC4|com-cf:nl|ptrs:na|ktp:N0|mc:49627|mtp:S|qry_typ:P|lang:en|wc:3|cs:8845|v=4,False,,Gondal,"Ground Floor, Shop No 3, Rameshwar Residency, Railway Station Road, Nagakda Road, Gondal - 360311, Dist.Rajkot, Gujarat",7949087207,
"COTTON PRINTED FABRIC Newborn Baby Bedding Set / Baby Gadda Set, For Home",https://www.indiamart.com/proddetail/newborn-baby-bedding-set-baby-gadda-set-27508407155.html?pos=171&kwd=baby bedding set&tags=BA||||8236.946|Price|product|||NA|rsf:gd-|-stype:attr=1|qr_nm:gd|res:RC4|com-cf:nl|ptrs:na|ktp:N0|mc:49627|mtp:S|qry_typ:P|lang:en|wc:3|cs:8845|v=4,Pranita Textile,https://www.indiamart.com/pranita-textile/?pos=171&kwd=baby bedding set&tags=BA||||8236.946|Price|product|||NA|rsf:gd-|-stype:attr=1|qr_nm:gd|res:RC4|com-cf:nl|ptrs:na|ktp:N0|mc:49627|mtp:S|qry_typ:P|lang:en|wc:3|cs:8845|v=4,False,,Raigad,"Unit No 206, 2nd Fioor, Silver Springs, Taloja Midc, Taloja Panchanand, Raigad., Raigad - 410208, Maharashtra",8043855238,
Kids Bedding Set,https://www.indiamart.com/proddetail/kids-bedding-set-21296732088.html?pos=172&kwd=baby bedding set&tags=BB||||8228.275|Price|product|||NA|rsf:gd-|-stype:attr=1|qr_nm:gd|res:RC4|com-cf:nl|ptrs:na|ktp:N0|mc:49627|mtp:S|qry_typ:P|lang:en|wc:3|cs:8845|v=4,Vinod Handloom,https://www.indiamart.com/vinod-handloom/?pos=172&kwd=baby bedding set&tags=BB||||8228.275|Price|product|||NA|rsf:gd-|-stype:attr=1|qr_nm:gd|res:RC4|com-cf:nl|ptrs:na|ktp:N0|mc:49627|mtp:S|qry_typ:P|lang:en|wc:3|cs:8845|v=4,False,Jahangirpura,Ahmedabad,"F-5 Idghah Circle, Asarwa City Centre, Jahangirpura, Ahmedabad - 380016, Dist.Ahmedabad, Gujarat",8048267447,
Cotton Pink Baby Bedding Set With Mosquito Net,https://www.indiamart.com/proddetail/baby-bedding-set-with-mosquito-net-25801348112.html?pos=173&kwd=baby bedding set&tags=BB||||8230.883|Price|product|||NA|rsf:gd-|-stype:attr=1|qr_nm:gd|res:RC4|com-cf:nl|ptrs:na|ktp:N0|mc:49627|mtp:S|qry_typ:P|lang:en|wc:3|cs:8845|v=4,Samip Silk,https://www.indiamart.com/samip-silk/?pos=173&kwd=baby bedding set&tags=BB||||8230.883|Price|product|||NA|rsf:gd-|-stype:attr=1|qr_nm:gd|res:RC4|com-cf:nl|ptrs:na|ktp:N0|mc:49627|mtp:S|qry_typ:P|lang:en|wc:3|cs:8845|v=4,False,Umarawada,Surat,"Ground Floor T-25, Old Bombay Market, Umarawada, Umarawada, Surat - 395010, Dist.Surat, Gujarat",8047308866,3753
"Velvet Blue Baby Bedding Set with Protective Mosquito, For Home",https://www.indiamart.com/proddetail/baby-bedding-set-with-protective-mosquito-2850804720348.html?pos=174&kwd=baby bedding set&tags=BB||||8747.203|Price|product|||NA|rsf:gd-|-stype:attr=1|qr_nm:gd|res:RC4|com-cf:nl|ptrs:na|ktp:N0|mc:49627|mtp:S|qry_typ:P|lang:en|wc:3|cs:8845|v=4,Gurunanak Homes,https://www.indiamart.com/gurunanakhomes-panipat/?pos=174&kwd=baby bedding set&tags=BB||||8747.203|Price|product|||NA|rsf:gd-|-stype:attr=1|qr_nm:gd|res:RC4|com-cf:nl|ptrs:na|ktp:N0|mc:49627|mtp:S|qry_typ:P|lang:en|wc:3|cs:8845|v=4,False,,Panipat,"434/10, Near New Subzi Mandi, Panipat - 132103, Dist.Panipat, Haryana",7942564912,
Multicolor Rectangular Baby bed sized cotton bedding set,https://www.indiamart.com/proddetail/baby-bed-sized-cotton-bedding-set-2853281465055.html?pos=175&kwd=baby bedding set&tags=BA||||8734.695|Price|product|||NA|rsf:gd-|-stype:attr=1|qr_nm:gd|res:RC4|com-cf:nl|ptrs:na|ktp:N0|mc:49627|mtp:S|qry_typ:P|lang:en|wc:3|cs:8845|v=4,K Joon Exports,https://www.indiamart.com/k-joon-exports/?pos=175&kwd=baby bedding set&tags=BA||||8734.695|Price|product|||NA|rsf:gd-|-stype:attr=1|qr_nm:gd|res:RC4|com-cf:nl|ptrs:na|ktp:N0|mc:49627|mtp:S|qry_typ:P|lang:en|wc:3|cs:8845|v=4,False,Sarai Aurangabad,Bahadurgarh,"H No 151, VPO Nuna Majra, Tehsil Bahadurgarh, Jhajjar, Sarai Aurangabad, Bahadurgarh - 124507, Dist.Jhajjar, Haryana",8047662139,
"Cotton Printed Baby Bedding Set With Mosquito Net, Multicolor",https://www.indiamart.com/proddetail/baby-bedding-set-with-mosquito-net-27299130755.html?pos=176&kwd=baby bedding set&tags=BA||||8228.275|Price|product|||NA|rsf:gd-|-stype:attr=1|qr_nm:gd|res:RC4|com-cf:nl|ptrs:na|ktp:N0|mc:49627|mtp:S|qry_typ:P|lang:en|wc:3|cs:8845|v=4,V K Products,https://www.indiamart.com/vkproductsahmedabad/?pos=176&kwd=baby bedding set&tags=BA||||8228.275|Price|product|||NA|rsf:gd-|-stype:attr=1|qr_nm:gd|res:RC4|com-cf:nl|ptrs:na|ktp:N0|mc:49627|mtp:S|qry_typ:P|lang:en|wc:3|cs:8845|v=4,False,Bapunagar,Ahmedabad,"Ahmedabad, Bapunagar, Ahmedabad - 380024, Dist.Ahmedabad, Gujarat",8048987069,
Baby Bedding Set Baby Bedding Set With Mosquito Net And Baby Play Gym With Mosquito Net,https://www.indiamart.com/proddetail/baby-bedding-set-baby-bedding-set-with-mosquito-net-and-baby-play-gym-with-mosquito-net-2852387564233.html?pos=177&kwd=baby bedding set&tags=BB||||8734.695|Price|product|||NA|rsf:gd-|-stype:attr=1|qr_nm:gd|res:RC4|com-cf:nl|ptrs:na|ktp:N0|mc:49627|mtp:S|qry_typ:P|lang:en|wc:3|cs:8845|v=4,Shree RK Enterprise,https://www.indiamart.com/shreerk-enterprise/?pos=177&kwd=baby bedding set&tags=BB||||8734.695|Price|product|||NA|rsf:gd-|-stype:attr=1|qr_nm:gd|res:RC4|com-cf:nl|ptrs:na|ktp:N0|mc:49627|mtp:S|qry_typ:P|lang:en|wc:3|cs:8845|v=4,False,,Bahadurgarh,"Second Floor, 644, Ward No 8, Shastri Nagar, Line Par, Bahadurgarh, Bahadurgarh - 124507, Dist.Jhajjar, Haryana",7942564104,
"Pink Cotton New Bone Printed Baby Bedding Set, For Home",https://www.indiamart.com/proddetail/cotton-new-bone-printed-baby-bedding-set-26493088130.html?pos=178&kwd=baby bedding set&tags=BB||||8794.294||product|||NA|rsf:gd-|-stype:attr=1|qr_nm:gd|res:RC4|com-cf:nl|ptrs:na|ktp:N0|mc:49627|mtp:S|qry_typ:P|lang:en|wc:3|cs:8845|v=4,Darshan Handlooms,https://www.indiamart.com/darshanhandlooms/?pos=178&kwd=baby bedding set&tags=BB||||8794.294||product|||NA|rsf:gd-|-stype:attr=1|qr_nm:gd|res:RC4|com-cf:nl|ptrs:na|ktp:N0|mc:49627|mtp:S|qry_typ:P|lang:en|wc:3|cs:8845|v=4,False,,Dadri,"Shahid Bhagat Singh Marg, Railway Road, Dadri, Dadri - 203207, Dist.Gautam Budh Nagar, Uttar Pradesh",8048208944,
"Harender Enterprises Rose Printed Royal Blue Velvet Baby Bedding Set, For Home",https://www.indiamart.com/proddetail/rose-printed-royal-blue-velvet-baby-bedding-set-2849897687488.html?pos=179&kwd=baby bedding set&tags=BA||||8752.144|Price|product|||NA|rsf:gd-|-stype:attr=1|qr_nm:gd|res:RC4|com-cf:nl|ptrs:na|ktp:N0|mc:49627|mtp:S|qry_typ:P|lang:en|wc:3|cs:8845|v=4,Harender Enterprises,https://www.indiamart.com/harender-enterprises/?pos=179&kwd=baby bedding set&tags=BA||||8752.144|Price|product|||NA|rsf:gd-|-stype:attr=1|qr_nm:gd|res:RC4|com-cf:nl|ptrs:na|ktp:N0|mc:49627|mtp:S|qry_typ:P|lang:en|wc:3|cs:8845|v=4,False,Raghu Nagar,New Delhi,"RZ 173 B, Gali No 12, Durga Park, Nasirpur Road, South West Delhi, Raghu Nagar, New Delhi - 110045, Dist.Delhi, Delhi",7942797895,
Baby Bedding Set - Mosquito Net And Sleeping Bag,,DL Enterprises,https://www.indiamart.com/dlenterprises-143767761/?pos=180&kwd=baby bedding set&tags=BB||||8559.269||product|||NA|rsf:gd-|-stype:attr=1|qr_nm:gd|res:RC4|com-cf:nl|ptrs:na|ktp:N0|mc:49627|mtp:S|qry_typ:P|lang:en|wc:3|cs:8845|v=4,False,Near MR 10,Indore,"Shop No-e1/102 Swayam Bhangad Road Near Water Treatment Plant Shalimaar, Near MR 10, Indore - 452010, Dist.Indore, Madhya Pradesh",8047308788,1926
Cotton Blue Homecute Baby Bedding Set Foldable Mattress Mosquito Net & Pillow,https://www.indiamart.com/proddetail/homecute-baby-bedding-set-foldable-mattress-mosquito-net-pillow-22217484248.html?pos=181&kwd=baby bedding set&tags=BB||||9847.294|Price|product|||NA|rsf:gd-|-stype:attr=1|qr_nm:gd|res:RC4|com-cf:nl|ptrs:na|ktp:N0|mc:49627|mtp:S|qry_typ:P|lang:en|wc:3|cs:8845|v=4,Soumya Enterprise,https://www.indiamart.com/soumya-enter/?pos=181&kwd=baby bedding set&tags=BB||||9847.294|Price|product|||NA|rsf:gd-|-stype:attr=1|qr_nm:gd|res:RC4|com-cf:nl|ptrs:na|ktp:N0|mc:49627|mtp:S|qry_typ:P|lang:en|wc:3|cs:8845|v=4,False,Madanpur,Kalyani,"1 No Anandanagar 1 No Anandanagar Anandanagar 1 No Anandanagar, Madanpur, Kalyani - 741245, Dist.Nadia, West Bengal",7942536820,
Cotton Printed Baby Gadi Set,https://www.indiamart.com/proddetail/baby-gadi-set-22658272733.html?pos=182&kwd=baby bedding set&tags=BB||||8206.534|Price|product|||NA|rsf:gd-|-stype:attr=1|qr_nm:gd|res:RC4|com-cf:nl|ptrs:na|ktp:N0|mc:49627|mtp:S|qry_typ:P|lang:en|wc:3|cs:8845|v=4,Navkar Traders,https://www.indiamart.com/naukar-traders/?pos=182&kwd=baby bedding set&tags=BB||||8206.534|Price|product|||NA|rsf:gd-|-stype:attr=1|qr_nm:gd|res:RC4|com-cf:nl|ptrs:na|ktp:N0|mc:49627|mtp:S|qry_typ:P|lang:en|wc:3|cs:8845|v=4,False,,Virar,"Kamath Park, Virar - 401303, Dist.Thane, Maharashtra",8048372242,609
Baby Sleeping Set,https://www.indiamart.com/proddetail/baby-sleeping-set-1640022862.html?pos=183&kwd=baby bedding set&tags=BB||||10180.86||product|||NA|rsf:gd-|-stype:attr=1|qr_nm:gd|res:RC4|com-cf:nl|ptrs:na|ktp:N0|mc:49627|mtp:S|qry_typ:P|lang:en|wc:3|cs:8845|v=4,K.B.H. Infra Services Pvt. Ltd.,https://www.indiamart.com/kbh-infraservices/?pos=183&kwd=baby bedding set&tags=BB||||10180.86||product|||NA|rsf:gd-|-stype:attr=1|qr_nm:gd|res:RC4|com-cf:nl|ptrs:na|ktp:N0|mc:49627|mtp:S|qry_typ:P|lang:en|wc:3|cs:8845|v=4,False,Ambikagirinagar,Guwahati,"1-A, Magnolia Apartment, Hatigarh Chariali, Zoo Narangi Road, Ambikagirinagar, Guwahati - 781021, Dist.Kamrup, Assam",8048950819,
Baby Woolen Set,https://www.indiamart.com/proddetail/baby-woolen-set-2852144010748.html?pos=184&kwd=baby bedding set&tags=BB||||8793.1455|Price|product|||NA|rsf:gd-|-stype:attr=1|qr_nm:gd|res:RC4|com-cf:nl|ptrs:na|ktp:N0|mc:49627|mtp:S|qry_typ:P|lang:en|wc:3|cs:8845|v=4,Devotional Fabrics Private Limited,https://www.indiamart.com/devotional-fabric/?pos=184&kwd=baby bedding set&tags=BB||||8793.1455|Price|product|||NA|rsf:gd-|-stype:attr=1|qr_nm:gd|res:RC4|com-cf:nl|ptrs:na|ktp:N0|mc:49627|mtp:S|qry_typ:P|lang:en|wc:3|cs:8845|v=4,False,Raman Reiti,Vrindavan,"508 Mathura Vrindavan Mathura Near Nidhivan Temple Retiya Market, Raman Reiti, Vrindavan - 281121, Uttar Pradesh",7942873864,
Customized Baby Parniya Set,,Nikita Ranpariya,https://www.indiamart.com/jiya-art/?pos=185&kwd=baby bedding set&tags=BB||||8038.093|Price|product|||NA|rsf:gd-|-stype:attr=1|qr_nm:gd|res:RC4|com-cf:nl|ptrs:na|ktp:N0|mc:49627|mtp:S|qry_typ:P|lang:en|wc:3|cs:8845|v=4,False,Village Vavdi,Rajkot,"Aadarsh Exotica, B-202, 80 Feet Road, Nr. Matuki Restaurant,, Village Vavdi, Rajkot - 360004, Dist.Rajkot, Gujarat",8048372218,887
"Cotton Multicolor Pillow Set Baby Mattress, For Home",https://www.indiamart.com/proddetail/pillow-set-baby-mattress-25111302030.html?pos=186&kwd=baby bedding set&tags=BB||||8038.093|Price|product|||NA|rsf:gd-|-stype:attr=1|qr_nm:gd|res:RC4|com-cf:nl|ptrs:na|ktp:N0|mc:49627|mtp:S|qry_typ:P|lang:en|wc:3|cs:8845|v=4,Fabric Master,https://www.indiamart.com/fabric-master-rajkot/?pos=186&kwd=baby bedding set&tags=BB||||8038.093|Price|product|||NA|rsf:gd-|-stype:attr=1|qr_nm:gd|res:RC4|com-cf:nl|ptrs:na|ktp:N0|mc:49627|mtp:S|qry_typ:P|lang:en|wc:3|cs:8845|v=4,False,,Rajkot,"Ankur Nana Mava Road, 117 Radha Nagar, Rajkot - 360004, Dist.Rajkot, Gujarat",8047301139,
Baby Cradle Bed Set,,S.Y Traders,https://www.indiamart.com/sy-traders-mumbai/?pos=187&kwd=baby bedding set&tags=BB||||8211.142|Price|product|||NA|rsf:gd-|-stype:attr=1|qr_nm:gd|res:RC4|com-cf:nl|ptrs:na|ktp:N0|mc:49627|mtp:S|qry_typ:P|lang:en|wc:3|cs:8845|v=4,False,Umerkhadi,Mumbai,"Al Aziz Palace, 3rd Floor, No. 309, Dongri Jail Road, Bhawani Gallery Opp Simla Colddrink, Umerkhadi, Mumbai - 400009, Dist.Mumbai, Maharashtra",8048247110,3486
baby velvet 2pc set,https://www.indiamart.com/proddetail/baby-velvet-2pc-set-2855003636597.html?pos=188&kwd=baby bedding set&tags=BB||||8752.144|Price|product|||NA|rsf:gd-|-stype:attr=1|qr_nm:gd|res:RC4|com-cf:nl|ptrs:na|ktp:N0|mc:49627|mtp:S|qry_typ:P|lang:en|wc:3|cs:8845|v=4,Sift Enterprises,https://www.indiamart.com/sift-enterprises/?pos=188&kwd=baby bedding set&tags=BB||||8752.144|Price|product|||NA|rsf:gd-|-stype:attr=1|qr_nm:gd|res:RC4|com-cf:nl|ptrs:na|ktp:N0|mc:49627|mtp:S|qry_typ:P|lang:en|wc:3|cs:8845|v=4,False,,New Delhi,"First Floor, 1051, Pan Mandi, New Delhi - 110006, Dist.Delhi, Delhi",8048247104,6373
Sea Green Printed Baby Bed Set,https://www.indiamart.com/proddetail/sea-green-printed-baby-bed-set-23917506712.html?pos=189&kwd=baby bedding set&tags=BB||||8668.838|Price|product|||NA|rsf:gd-|-stype:attr=1|qr_nm:gd|res:RC4|com-cf:nl|ptrs:na|ktp:N0|mc:49627|mtp:S|qry_typ:P|lang:en|wc:3|cs:8845|v=4,Nowfa Traders,https://www.indiamart.com/nowfa-traders/?pos=189&kwd=baby bedding set&tags=BB||||8668.838|Price|product|||NA|rsf:gd-|-stype:attr=1|qr_nm:gd|res:RC4|com-cf:nl|ptrs:na|ktp:N0|mc:49627|mtp:S|qry_typ:P|lang:en|wc:3|cs:8845|v=4,False,,Erode,"112/4, Janaki Ammal Layout, Karungalpalayam, Erode - 638003, Dist.Erode, Tamil Nadu",8047835044,
Baby Bedding Set,,Dhanlaxmi Traders,https://www.indiamart.com/dhanlaxmi-tradersahmedabad/?pos=190&kwd=baby bedding set&tags=BA||||8228.275||product|||NA|rsf:gd-|-stype:attr=1|qr_nm:gd|res:RC4|com-cf:nl|ptrs:na|ktp:N0|mc:49627|mtp:S|qry_typ:P|lang:en|wc:3|cs:8845|v=4,False,Kalupur,Ahmedabad,"2, Sagar Mension Azad Gali, Revadi Bazaar, Kalupur, Ahmedabad - 380001, Dist.Ahmedabad, Gujarat",8046037453,
100% Cotton Knitted Baby 5 Pcs Set Packed in a Bag,https://www.indiamart.com/proddetail/baby-5-pcs-set-packed-in-a-bag-20192132788.html?pos=191&kwd=baby bedding set&tags=BB||||8626.744|Price|product|||NA|rsf:gd-|-stype:attr=1|qr_nm:gd|res:RC4|com-cf:nl|ptrs:na|ktp:N0|mc:49627|mtp:S|qry_typ:P|lang:en|wc:3|cs:8845|v=4,Aruljothi Knits,https://www.indiamart.com/aruljothiknits/?pos=191&kwd=baby bedding set&tags=BB||||8626.744|Price|product|||NA|rsf:gd-|-stype:attr=1|qr_nm:gd|res:RC4|com-cf:nl|ptrs:na|ktp:N0|mc:49627|mtp:S|qry_typ:P|lang:en|wc:3|cs:8845|v=4,False,Thilagar Nagar,Tiruppur,"Door No. 24 A 1, Thilagar Nagar, Tiruppur - 641652, Dist.Coimbatore, Tamil Nadu",8047780644,
Baby Master Bed Sets,https://www.indiamart.com/proddetail/baby-master-bed-sets-12548757233.html?pos=192&kwd=baby bedding set&tags=BB||||8211.142|Price|product|||NA|rsf:gd-|-stype:attr=1|qr_nm:gd|res:RC4|com-cf:nl|ptrs:na|ktp:N0|mc:49627|mtp:S|qry_typ:P|lang:en|wc:3|cs:8845|v=4,Mohini Impex,https://www.indiamart.com/mohini-stores/?pos=192&kwd=baby bedding set&tags=BB||||8211.142|Price|product|||NA|rsf:gd-|-stype:attr=1|qr_nm:gd|res:RC4|com-cf:nl|ptrs:na|ktp:N0|mc:49627|mtp:S|qry_typ:P|lang:en|wc:3|cs:8845|v=4,False,Bandra West,Mumbai,"213,SILVER PEAARL,Waterfield Road,Mumbai 1, Silver Pearl Ground Floor,401208,Palghar, Bandra West, Mumbai - 400050, Dist.Mumbai, Maharashtra",8048361276,799
Ees Ees Cotton Red Baby Feeding Bed,https://www.indiamart.com/proddetail/red-baby-feeding-bed-22924522448.html?pos=193&kwd=baby bedding set&tags=BB||||8706.263|Price|product|||NA|rsf:gd-|-stype:attr=1|qr_nm:gd|res:RC4|com-cf:nl|ptrs:na|ktp:N0|mc:49627|mtp:S|qry_typ:P|lang:en|wc:3|cs:8845|v=4,K. Saravanan Prop Ees Ees Agencies,https://www.indiamart.com/k-saravananprop-eesees-agencies/?pos=193&kwd=baby bedding set&tags=BB||||8706.263|Price|product|||NA|rsf:gd-|-stype:attr=1|qr_nm:gd|res:RC4|com-cf:nl|ptrs:na|ktp:N0|mc:49627|mtp:S|qry_typ:P|lang:en|wc:3|cs:8845|v=4,False,KARUR,Karur,"KUMARAPALAYAM PUDHUR VELLIYANAI NORTH, KARUR, Karur - 639118, Dist.Karur, Tamil Nadu",7942665369,
"Size: Double Bed Sheet Pillow Cover Set, For Home",https://www.indiamart.com/proddetail/bed-sheet-pillow-cover-set-2850353435588.html?pos=194&kwd=baby bedding set&tags=BB||||8601.347|Price|product|||NA|rsf:gd-|-stype:attr=1|qr_nm:gd|res:RC4|com-cf:nl|ptrs:na|ktp:N0|mc:49627|mtp:S|qry_typ:P|lang:en|wc:3|cs:8845|v=4,Maa Ambey Textiles,https://www.indiamart.com/maaambeytextiles-jaipur/?pos=194&kwd=baby bedding set&tags=BB||||8601.347|Price|product|||NA|rsf:gd-|-stype:attr=1|qr_nm:gd|res:RC4|com-cf:nl|ptrs:na|ktp:N0|mc:49627|mtp:S|qry_typ:P|lang:en|wc:3|cs:8845|v=4,False,,Jaipur,"3,Amer Road,Behind Golimaar Garden, Jaipur - 302002, Dist.Jaipur, Rajasthan",7942818582,
Cotton Printed Digital godadi,https://www.indiamart.com/proddetail/digital-godadi-2851759035873.html?pos=195&kwd=baby bedding set&tags=BA||||8230.883||product|||NA|rsf:gd-|-stype:attr=1|qr_nm:gd|res:RC4|com-cf:nl|ptrs:na|ktp:N0|mc:49627|mtp:S|qry_typ:P|lang:en|wc:3|cs:8845|v=4,Adinath Hosiery,https://www.indiamart.com/adinath-hosiery/?pos=195&kwd=baby bedding set&tags=BA||||8230.883||product|||NA|rsf:gd-|-stype:attr=1|qr_nm:gd|res:RC4|com-cf:nl|ptrs:na|ktp:N0|mc:49627|mtp:S|qry_typ:P|lang:en|wc:3|cs:8845|v=4,False,Adjani Surat,Surat,"3/A102,GALIYARA SHERI,RUWALA TEKRA,BHAGAL Adinath Hosiery,395009,Surat, Adjani Surat, Surat - 395003, Dist.Surat, Gujarat",8048250389,639
"Baby Bed Attached With Net, Polyester",https://www.indiamart.com/proddetail/baby-bed-attached-with-net-2853284415433.html?pos=196&kwd=baby bedding set&tags=BA||||9837.093|Price|product|||NA|rsf:gd-|-stype:attr=1|qr_nm:gd|res:RC4|com-cf:nl|ptrs:na|ktp:N0|mc:49627|mtp:S|qry_typ:P|lang:en|wc:3|cs:8845|v=4,Ruwanka Enterprise,https://www.indiamart.com/ruwanka-enterprise-uttarpara-kotrung/?pos=196&kwd=baby bedding set&tags=BA||||9837.093|Price|product|||NA|rsf:gd-|-stype:attr=1|qr_nm:gd|res:RC4|com-cf:nl|ptrs:na|ktp:N0|mc:49627|mtp:S|qry_typ:P|lang:en|wc:3|cs:8845|v=4,False,,Uttarpara Kotrung,"220 Rajendra Avenue, Uttarpara Kotrung - 712258, West Bengal",8048370693,8421
baby bedding set,,Chota babu Infants Wear,https://www.indiamart.com/infants-wear/?pos=197&kwd=baby bedding set&tags=BB||||8752.144|Price|product|||NA|rsf:gd-|-stype:attr=1|qr_nm:gd|res:RC4|com-cf:nl|ptrs:na|ktp:N0|mc:49627|mtp:S|qry_typ:P|lang:en|wc:3|cs:8845|v=4,False,Geeta Colony,New Delhi,"3/74, Geeta Colony, Geeta Colony, New Delhi - 110031, Dist.Delhi, Delhi",8069728248,447
"Pure Cotton Round Baby Tub Bed, 1 Kg, 1 Year",https://www.indiamart.com/proddetail/round-baby-tub-bed-23307613748.html?pos=198&kwd=baby bedding set&tags=BB||||8954.051|Price|product|||NA|rsf:gd-|-stype:attr=1|qr_nm:gd|res:RC4|com-cf:nl|ptrs:na|ktp:N0|mc:49627|mtp:S|qry_typ:P|lang:en|wc:3|cs:8845|v=4,DJP Trading Company,https://www.indiamart.com/djp-trading-company/?pos=198&kwd=baby bedding set&tags=BB||||8954.051|Price|product|||NA|rsf:gd-|-stype:attr=1|qr_nm:gd|res:RC4|com-cf:nl|ptrs:na|ktp:N0|mc:49627|mtp:S|qry_typ:P|lang:en|wc:3|cs:8845|v=4,False,,Chennai,"7/132, Ayodhya Nagar, Triplicane, Chennai - 600005, Dist.Chennai, Tamil Nadu",8048976947,
Cotton Multicolor Baby Bed In A Bag,https://www.indiamart.com/proddetail/baby-bed-in-a-bag-2851741038448.html?pos=199&kwd=baby bedding set&tags=BA||||8211.142|Price|product|||NA|rsf:gd-|-stype:attr=1|qr_nm:gd|res:RC4|com-cf:nl|ptrs:na|ktp:N0|mc:49627|mtp:S|qry_typ:P|lang:en|wc:3|cs:8845|v=4,Dee Bee & Co.,https://www.indiamart.com/me-nmoms/?pos=199&kwd=baby bedding set&tags=BA||||8211.142|Price|product|||NA|rsf:gd-|-stype:attr=1|qr_nm:gd|res:RC4|com-cf:nl|ptrs:na|ktp:N0|mc:49627|mtp:S|qry_typ:P|lang:en|wc:3|cs:8845|v=4,False,,Mumbai,"A-202, 2nd floor, Aaradhya Nalanda, R B Mehta Marg, Mumbai, Mumbai Suburban, Mumbai - 400077, Dist.Mumbai, Maharashtra",7942792773,
Goodmunchkins Baby Bed Polycotton (34x19x16),,Goodmunchkins Private Limited,https://www.indiamart.com/goodmunchkins/?pos=200&kwd=baby bedding set&tags=BB||||8830.079|Price|product|||NA|rsf:gd-|-stype:attr=1|qr_nm:gd|res:RC4|com-cf:nl|ptrs:na|ktp:N0|mc:49627|mtp:S|qry_typ:P|lang:en|wc:3|cs:8845|v=4,False,Gandhi Nagar,Vellore,"No.31, Ground Floor, Jaganathan Nagar Main Road, Gandhi Nagar, Vellore - 632006, Dist.Vellore, Tamil Nadu",7942555990,
"Rectangular Infant White Printed Godadi Set, Cotton",https://www.indiamart.com/proddetail/infant-white-printed-godadi-set-2854718948362.html?pos=201&kwd=baby bedding set&tags=BA||||8228.275|Price|product|||NA|rsf:gd-|-stype:attr=1|qr_nm:gd|res:RC4|com-cf:nl|ptrs:na|ktp:N0|mc:49627|mtp:S|qry_typ:P|lang:en|wc:3|cs:8845|v=4,Shishu Apparels,https://www.indiamart.com/shishu-apparels/?pos=201&kwd=baby bedding set&tags=BA||||8228.275|Price|product|||NA|rsf:gd-|-stype:attr=1|qr_nm:gd|res:RC4|com-cf:nl|ptrs:na|ktp:N0|mc:49627|mtp:S|qry_typ:P|lang:en|wc:3|cs:8845|v=4,False,,Ahmedabad,"62, Laxmi Vishnu Market, Gheekanta Road, Ghee Kanta, Ahmedabad - 380001, Dist.Ahmedabad, Gujarat",7949322683,
Plain Bed Sets,https://www.indiamart.com/proddetail/plain-bed-sets-3935919355.html?pos=202&kwd=baby bedding set&tags=BB||||9839.57||product|||NA|rsf:gd-|-stype:attr=1|qr_nm:gd|res:RC4|com-cf:nl|ptrs:na|ktp:N0|mc:49627|mtp:S|qry_typ:P|lang:en|wc:3|cs:8845|v=4,Ambika Traders,https://www.indiamart.com/bebworld/?pos=202&kwd=baby bedding set&tags=BB||||9839.57||product|||NA|rsf:gd-|-stype:attr=1|qr_nm:gd|res:RC4|com-cf:nl|ptrs:na|ktp:N0|mc:49627|mtp:S|qry_typ:P|lang:en|wc:3|cs:8845|v=4,False,Munshi Sadruddin Lane,Kolkata,"No. 7, 3rd Floor, Munshi Sadruddin Lane, Kolkata - 700007, Dist.Kolkata, West Bengal",8048372775,590
"Polyester Zipper Baby Bedding Set, Size: Medium",https://www.indiamart.com/proddetail/baby-bedding-set-2849765820430.html?pos=203&kwd=baby bedding set&tags=BA||||8601.347||product|||NA|rsf:gd-|-stype:attr=1|qr_nm:gd|res:RC4|com-cf:nl|ptrs:na|ktp:N0|mc:49627|mtp:S|qry_typ:P|lang:en|wc:3|cs:8845|v=4,Bhagwati Enterprises,https://www.indiamart.com/bhagwati-enterprisesrajasthan/?pos=203&kwd=baby bedding set&tags=BA||||8601.347||product|||NA|rsf:gd-|-stype:attr=1|qr_nm:gd|res:RC4|com-cf:nl|ptrs:na|ktp:N0|mc:49627|mtp:S|qry_typ:P|lang:en|wc:3|cs:8845|v=4,False,,Jaipur,"Ground Floor, ARG Murli Heights, Moti Doongri Road, Jaipur - 302004, Dist.Jaipur, Rajasthan",7942795447,
Printed Baby bedding set,https://www.indiamart.com/proddetail/baby-bedding-set-2851058903133.html?pos=204&kwd=baby bedding set&tags=BA||||8752.144|Price|product|||NA|rsf:gd-|-stype:attr=1|qr_nm:gd|res:RC4|com-cf:nl|ptrs:na|ktp:N0|mc:49627|mtp:S|qry_typ:P|lang:en|wc:3|cs:8845|v=4,Sunrise Traders,https://www.indiamart.com/sunrisetraders/?pos=204&kwd=baby bedding set&tags=BA||||8752.144|Price|product|||NA|rsf:gd-|-stype:attr=1|qr_nm:gd|res:RC4|com-cf:nl|ptrs:na|ktp:N0|mc:49627|mtp:S|qry_typ:P|lang:en|wc:3|cs:8845|v=4,False,Kishan Ganj,New Delhi,"g/f H.no-8 Rama Park Kishan Ganj, Kishan Ganj, New Delhi - 110007, Dist.Delhi, Delhi",8048372043,954
"Cotton Printed Baby Bedding Set With Mosquito Net, Multicolor",https://www.indiamart.com/proddetail/baby-bedding-set-with-mosquito-net-27299130755.html?pos=205&kwd=baby bedding set&tags=BA||||8228.275|Price|product|||NA|rsf:gd-|-stype:attr=1|qr_nm:gd|res:RC4|com-cf:nl|ptrs:na|ktp:N0|mc:49627|mtp:S|qry_typ:P|lang:en|wc:3|cs:8845|v=4,V K Products,https://www.indiamart.com/vkproductsahmedabad/?pos=205&kwd=baby bedding set&tags=BA||||8228.275|Price|product|||NA|rsf:gd-|-stype:attr=1|qr_nm:gd|res:RC4|com-cf:nl|ptrs:na|ktp:N0|mc:49627|mtp:S|qry_typ:P|lang:en|wc:3|cs:8845|v=4,False,Bapunagar,Ahmedabad,"Ahmedabad, Bapunagar, Ahmedabad - 380024, Dist.Ahmedabad, Gujarat",8048987069,
"Blue Cotton Baby Sleeping Bag, Newly Born",https://www.indiamart.com/proddetail/baby-sleeping-bag-2854581658697.html?pos=206&kwd=baby bedding set&tags=BA||||9032.581|Price|product|||NA|rsf:gd-|-stype:attr=1|qr_nm:gd|res:RC4|com-cf:nl|ptrs:na|ktp:N0|mc:49627|mtp:S|qry_typ:P|lang:en|wc:3|cs:8845|v=4,New Laxmi Cycle Store,https://www.indiamart.com/new-laxmi-cycle-store/?pos=206&kwd=baby bedding set&tags=BA||||9032.581|Price|product|||NA|rsf:gd-|-stype:attr=1|qr_nm:gd|res:RC4|com-cf:nl|ptrs:na|ktp:N0|mc:49627|mtp:S|qry_typ:P|lang:en|wc:3|cs:8845|v=4,False,,Katni,"Katni, Near Mukti Dham, Nadi Par Ram Manohar Lohiya Ward, Katni, Katni - 483501, Dist.Katni, Madhya Pradesh",8048370732,7584
Cotton Printed Baby Bedding With Apron,https://www.indiamart.com/proddetail/baby-bedding-with-apron-8861717373.html?pos=207&kwd=baby bedding set&tags=BB||||8774.064|Price|product|||NA|rsf:gd-|-stype:attr=1|qr_nm:gd|res:RC4|com-cf:nl|ptrs:na|ktp:N0|mc:49627|mtp:S|qry_typ:P|lang:en|wc:3|cs:8845|v=4,Sree Alagar Enterprises,https://www.indiamart.com/sreealagarenterprises/?pos=207&kwd=baby bedding set&tags=BB||||8774.064|Price|product|||NA|rsf:gd-|-stype:attr=1|qr_nm:gd|res:RC4|com-cf:nl|ptrs:na|ktp:N0|mc:49627|mtp:S|qry_typ:P|lang:en|wc:3|cs:8845|v=4,False,,Tiruchirappalli,"No 7, Professer Colony, Subramaniyapuram ., Tiruchirappalli - 620020, Dist.Tiruchirappalli, Tamil Nadu",8046044233,
Chadu Baby Net Mattress Bedding Set Mattress with Mosquito Net (0-12 months),https://www.indiamart.com/proddetail/chadu-baby-net-mattress-bedding-set-mattress-with-mosquito-net-0-12-months-2854186048491.html?pos=208&kwd=baby bedding set&tags=BB||||8663.873|Price|product|||NA|rsf:gd-|-stype:attr=1|qr_nm:gd|res:RC4|com-cf:nl|ptrs:na|ktp:N0|mc:49627|mtp:S|qry_typ:P|lang:en|wc:3|cs:8845|v=4,Chadu,https://www.indiamart.com/chadu/?pos=208&kwd=baby bedding set&tags=BB||||8663.873|Price|product|||NA|rsf:gd-|-stype:attr=1|qr_nm:gd|res:RC4|com-cf:nl|ptrs:na|ktp:N0|mc:49627|mtp:S|qry_typ:P|lang:en|wc:3|cs:8845|v=4,False,,Bengaluru,", Bengaluru - 560032, Dist.Bengaluru, Karnataka",8048370717,5972
Honda Velvet Zipper Baby Bed,https://www.indiamart.com/proddetail/velvet-zipper-baby-bed-26582794530.html?pos=209&kwd=baby bedding set&tags=BA||||8662.111|Price|product|||NA|rsf:gd-|-stype:attr=1|qr_nm:gd|res:RC4|com-cf:nl|ptrs:na|ktp:N0|mc:49627|mtp:S|qry_typ:P|lang:en|wc:3|cs:8845|v=4,Gandhimathi Agencies,https://www.indiamart.com/gandhimathi-agencies-tirunelveli/?pos=209&kwd=baby bedding set&tags=BA||||8662.111|Price|product|||NA|rsf:gd-|-stype:attr=1|qr_nm:gd|res:RC4|com-cf:nl|ptrs:na|ktp:N0|mc:49627|mtp:S|qry_typ:P|lang:en|wc:3|cs:8845|v=4,False,Tirunelveli Junction,Tirunelveli,"43,44 Sivanthi Nagar North Bye Pass Road, Tirunelveli Junction, Tirunelveli - 627001, Dist.Tirunelveli, Tamil Nadu",8062245059,719
"160x50 cm Cross Zipper Baby Carry Bed, 3-12 Months",https://www.indiamart.com/proddetail/160x50-cm-cross-zipper-baby-carry-bed-2850659021088.html?pos=210&kwd=baby bedding set&tags=BB||||8954.051|Price|product|||NA|rsf:gd-|-stype:attr=1|qr_nm:gd|res:RC4|com-cf:nl|ptrs:na|ktp:N0|mc:49627|mtp:S|qry_typ:P|lang:en|wc:3|cs:8845|v=4,Baby Doll Traders,https://www.indiamart.com/baby-doll-traders/?pos=210&kwd=baby bedding set&tags=BB||||8954.051|Price|product|||NA|rsf:gd-|-stype:attr=1|qr_nm:gd|res:RC4|com-cf:nl|ptrs:na|ktp:N0|mc:49627|mtp:S|qry_typ:P|lang:en|wc:3|cs:8845|v=4,False,,Chennai,"7/64, Pillaiyar Koil Street, Eadapalayam, Alamathi, Chennai - 600052, Dist.Chennai, Tamil Nadu",7942958583,
