product_title,product_link,company_name,company_link,is_verified_exporter,city_region,city,address_details,phone_number,phone_number_extension
"Hdpe Super Fine Reliance Fibre Zipper Portable Baby Mosquito Net, Size: Small",https://www.indiamart.com/proddetail/portable-baby-mosquito-net-25926932673.html?pos=1&kwd=baby mosquito net&tags=A||||8752.144|Price|product|||SSnp|rsf:gd-|-qr_nm:gd|res:RC5|com-cf:nl|ptrs:na|ktp:N0|mc:22723|mtp:S|qry_typ:P|lang:en|wc:3|flavl:0|cs:8297|v=4,Verma Enterprises,https://www.styaloindia.com/?pos=1&kwd=baby mosquito net&tags=A||||8752.144|Price|product|||SSnp|rsf:gd-|-qr_nm:gd|res:RC5|com-cf:nl|ptrs:na|ktp:N0|mc:22723|mtp:S|qry_typ:P|lang:en|wc:3|flavl:0|cs:8297|v=4,False,Samaypur,New Delhi,"Plot No.180/1-B, Kh.No. 955/1, 1st, Block-C, Raja Vihar, Siraspur, Badli, North West Delhi, Samaypur, New Delhi - 110042, Dist.Delhi, Delhi",8047654672,
Poly Cotton Foldable Mosquito Net,https://www.indiamart.com/proddetail/baby-mosquito-net-2854414928955.html?pos=2&kwd=baby mosquito net&tags=A||||8752.144||product|||MDC|rsf:gd-|-qr_nm:gd|res:RC5|com-cf:nl|ptrs:na|ktp:N0|mc:22723|mtp:S|qry_typ:P|lang:en|wc:3|flavl:0|cs:8297|v=4,Topscotch Enterprises,https://www.indiamart.com/topscotch-enterprises-newdelhi/?pos=2&kwd=baby mosquito net&tags=A||||8752.144||product|||MDC|rsf:gd-|-qr_nm:gd|res:RC5|com-cf:nl|ptrs:na|ktp:N0|mc:22723|mtp:S|qry_typ:P|lang:en|wc:3|flavl:0|cs:8297|v=4,False,North Delhi,New Delhi,"Street No 7 BLKB, Kadipur Ground Floor Plot No 99-A,KH. No. 1311 Swaroop Vihar, North Delhi, New Delhi - 110036, Dist.Delhi, Delhi",8044564980,
"Poly Cotton Baby mosquito net, For Home, Size: XL",https://www.indiamart.com/proddetail/baby-mosquito-net-2849605716833.html?pos=3&kwd=baby mosquito net&tags=A||||8954.051|Price|product|||MDC|rsf:gd-|-qr_nm:gd|res:RC5|com-cf:nl|ptrs:na|ktp:N0|mc:22723|mtp:S|qry_typ:P|lang:en|wc:3|flavl:0|cs:8297|v=4,Adhoniyah,https://www.indiamart.com/adhoniyah/?pos=3&kwd=baby mosquito net&tags=A||||8954.051|Price|product|||MDC|rsf:gd-|-qr_nm:gd|res:RC5|com-cf:nl|ptrs:na|ktp:N0|mc:22723|mtp:S|qry_typ:P|lang:en|wc:3|flavl:0|cs:8297|v=4,False,Jamalia,Chennai,"Ground Floor,5/4,Strahans Road I St Street,Otteri, Jamalia, Chennai - 600012, Dist.Chennai, Tamil Nadu",8048274134,
Baby Mosquito Net Bed,https://www.indiamart.com/proddetail/baby-mosquito-net-bed-19620366812.html?pos=4&kwd=baby mosquito net&tags=A||||8752.144|Price|product|||TS|rsf:gd-|-qr_nm:gd|res:RC5|com-cf:nl|ptrs:na|ktp:N0|mc:22723|mtp:S|qry_typ:P|lang:en|wc:3|flavl:0|cs:8297|v=4,Shree Balaji Infant Wear,https://www.indiamart.com/chhotejanab/?pos=4&kwd=baby mosquito net&tags=A||||8752.144|Price|product|||TS|rsf:gd-|-qr_nm:gd|res:RC5|com-cf:nl|ptrs:na|ktp:N0|mc:22723|mtp:S|qry_typ:P|lang:en|wc:3|flavl:0|cs:8297|v=4,False,Pahari Dhiraj,New Delhi,"1583- 84, Hathi Khana, Aziz Ganj, Bahadur Garh Road, Pahari Dhiraj, New Delhi - 110006, Dist.Delhi, Delhi",8047639754,
"Floral Poly Cotton 6 Sticks baby Mosquito Net, Packaging Type: Plastic Bag, Shape: OVAL",https://www.indiamart.com/proddetail/6-sticks-baby-mosquito-net-16106335212.html?pos=5&kwd=baby mosquito net&tags=A||||9842.824|Price|product|||TS|rsf:gd-|-qr_nm:gd|res:RC5|com-cf:nl|ptrs:na|ktp:N0|mc:22723|mtp:S|qry_typ:P|lang:en|wc:3|flavl:0|cs:8297|v=4,Baby Mosquito Net Seller,https://www.indiamart.com/babymosquitonetseller/?pos=5&kwd=baby mosquito net&tags=A||||9842.824|Price|product|||TS|rsf:gd-|-qr_nm:gd|res:RC5|com-cf:nl|ptrs:na|ktp:N0|mc:22723|mtp:S|qry_typ:P|lang:en|wc:3|flavl:0|cs:8297|v=4,False,Kailash Nagar,Hooghly,"Paulpara, P. O. Bandel, Kailash Nagar, Hooghly - 712103, Dist.Hooghly, West Bengal",8048953197,
Foldable Baby Mosquito Net,https://www.indiamart.com/proddetail/foldable-baby-mosquito-net-2854990049597.html?pos=6&kwd=baby mosquito net&tags=A||||8230.883|Price|product|||TS|rsf:gd-|-qr_nm:gd|res:RC5|com-cf:nl|ptrs:na|ktp:N0|mc:22723|mtp:S|qry_typ:P|lang:en|wc:3|flavl:0|cs:8297|v=4,Concept Enterprise,https://www.cartforbaby.com/?pos=6&kwd=baby mosquito net&tags=A||||8230.883|Price|product|||TS|rsf:gd-|-qr_nm:gd|res:RC5|com-cf:nl|ptrs:na|ktp:N0|mc:22723|mtp:S|qry_typ:P|lang:en|wc:3|flavl:0|cs:8297|v=4,False,Dabholi,Surat,"17, Bhumi Park Society, Near Dabholi Road, Katargam, Dabholi, Surat - 395004, Dist.Surat, Gujarat",8047546659,
Cotton Red Baby Mosquito Net Bed,https://www.indiamart.com/proddetail/baby-mosquito-net-bed-2853941099188.html?pos=7&kwd=baby mosquito net&tags=A||||8281.036|Price|product|||TS|rsf:gd-|-qr_nm:gd|res:RC5|com-cf:nl|ptrs:na|ktp:N0|mc:22723|mtp:S|qry_typ:P|lang:en|wc:3|flavl:0|cs:8297|v=4,Classic Mosquito Net ( A Brand of Prayosha Expo Pvt. Ltd ),https://www.classicmosquitonet.co.in/?pos=7&kwd=baby mosquito net&tags=A||||8281.036|Price|product|||TS|rsf:gd-|-qr_nm:gd|res:RC5|com-cf:nl|ptrs:na|ktp:N0|mc:22723|mtp:S|qry_typ:P|lang:en|wc:3|flavl:0|cs:8297|v=4,False,Industrial Estate,Vadodara,"C1B/267 Gidc, Opp. Prakruti Tiles, Makarpura Industrial Estate,, Industrial Estate, Vadodara - 390010, Dist.Vadodara, Gujarat",8046052164,
"Synthetic Baby Fancy Canopy Mosquito Net, Size: 6x3 Feet, 6x4 Feet",https://www.indiamart.com/proddetail/baby-fancy-canopy-mosquito-net-14164621012.html?pos=8&kwd=baby mosquito net&tags=A||||9839.57|Price|product|||TS|rsf:gd-|-qr_nm:gd|res:RC5|com-cf:nl|ptrs:na|ktp:N0|mc:22723|mtp:S|qry_typ:P|lang:en|wc:3|flavl:0|cs:8297|v=4,D. Saurabh Trexim Private Limited,https://www.indiamart.com/d-saurabh-trexim/?pos=8&kwd=baby mosquito net&tags=A||||9839.57|Price|product|||TS|rsf:gd-|-qr_nm:gd|res:RC5|com-cf:nl|ptrs:na|ktp:N0|mc:22723|mtp:S|qry_typ:P|lang:en|wc:3|flavl:0|cs:8297|v=4,False,Burrabazar,Kolkata,"Ground Floor, 19, Manohar Das Street, Burrabazar, Burrabazar, Kolkata - 700007, Dist.Kolkata, West Bengal",8043808936,
"Cotton Baby Mosquito Net, For Home, Size: Medium",https://www.indiamart.com/proddetail/baby-mosquito-net-2854902091073.html?pos=9&kwd=baby mosquito net&tags=A||||9045.955|Price|product|||MDC|rsf:gd-|-qr_nm:gd|res:RC5|com-cf:nl|ptrs:na|ktp:N0|mc:22723|mtp:S|qry_typ:P|lang:en|wc:3|flavl:0|cs:8297|v=4,Bhanvareshvar,https://www.indiamart.com/bhanvareshvarkanpur/?pos=9&kwd=baby mosquito net&tags=A||||9045.955|Price|product|||MDC|rsf:gd-|-qr_nm:gd|res:RC5|com-cf:nl|ptrs:na|ktp:N0|mc:22723|mtp:S|qry_typ:P|lang:en|wc:3|flavl:0|cs:8297|v=4,False,,Kanpur,"5/219 A, Purana, Kanpur - 208002, Uttar Pradesh",7949326672,
"Cooton Baby Mosquito Net Bed, Size: Xxl",https://www.indiamart.com/proddetail/baby-mosquito-net-bed-2851253734348.html?pos=10&kwd=baby mosquito net&tags=A||||8752.144||product|||MDC|rsf:gd-|-qr_nm:gd|res:RC5|com-cf:nl|ptrs:na|ktp:N0|mc:22723|mtp:S|qry_typ:P|lang:en|wc:3|flavl:0|cs:8297|v=4,Prince And Princess,https://www.indiamart.com/prince-princess-delhi/?pos=10&kwd=baby mosquito net&tags=A||||8752.144||product|||MDC|rsf:gd-|-qr_nm:gd|res:RC5|com-cf:nl|ptrs:na|ktp:N0|mc:22723|mtp:S|qry_typ:P|lang:en|wc:3|flavl:0|cs:8297|v=4,False,Gulabi Bagh,New Delhi,"Ground Floor, Garage No - 74, Gulabi Bagh Road,, Gulabi Bagh, New Delhi - 110007, Dist.Delhi, Delhi",8047629125,
"Nylon Pink Baby Mosquito Net Bed, Size: Medium",https://www.indiamart.com/proddetail/pink-baby-mosquito-net-bed-2853389260948.html?pos=11&kwd=baby mosquito net&tags=A||||9842.824|Price|product|||MDC|rsf:gd-|-qr_nm:gd|res:RC5|com-cf:nl|ptrs:na|ktp:N0|mc:22723|mtp:S|qry_typ:P|lang:en|wc:3|flavl:0|cs:8297|v=4,P. K. Enterprise,https://www.indiamart.com/pk-enterprise-hooghly/?pos=11&kwd=baby mosquito net&tags=A||||9842.824|Price|product|||MDC|rsf:gd-|-qr_nm:gd|res:RC5|com-cf:nl|ptrs:na|ktp:N0|mc:22723|mtp:S|qry_typ:P|lang:en|wc:3|flavl:0|cs:8297|v=4,False,Subhash Nagar,Hooghly,"Bandel Station Road, 1 No Gandhi Colony, P.S - Chinsurah, P.O, Subhash Nagar, Hooghly - 712103, Dist.Hooghly, West Bengal",7949222298,
Cotton Baby Umbrella Mosquito Net,https://www.indiamart.com/proddetail/baby-umbrella-mosquito-net-23042754930.html?pos=12&kwd=baby mosquito net&tags=A||||9734.213|Price|product|||MDC|rsf:gd-|-qr_nm:gd|res:RC5|com-cf:nl|ptrs:na|ktp:N0|mc:22723|mtp:S|qry_typ:P|lang:en|wc:3|flavl:0|cs:8297|v=4,Routh Textile,https://www.indiamart.com/routhtextile/?pos=12&kwd=baby mosquito net&tags=A||||9734.213|Price|product|||MDC|rsf:gd-|-qr_nm:gd|res:RC5|com-cf:nl|ptrs:na|ktp:N0|mc:22723|mtp:S|qry_typ:P|lang:en|wc:3|flavl:0|cs:8297|v=4,False,,Narayangarh,"Kedar High School, Routh Textile, Routh Bhawan, Unnamed Road, Kedar, Narayangarh - 721445, West Bengal",7949368454,
"PINK - Cotton BABY Mosquito Net, For Home, Size: Medium",https://www.indiamart.com/proddetail/pink-cotton-baby-mosquito-net-2853694378030.html?pos=13&kwd=baby mosquito net&tags=A||||8752.144|Price|product|||TS|rsf:gd-|-qr_nm:gd|res:RC5|com-cf:nl|ptrs:na|ktp:N0|mc:22723|mtp:S|qry_typ:P|lang:en|wc:3|flavl:0|cs:8297|v=4,Ekta Overseas,https://www.indiamart.com/ektaoverseas-newdelhi/?pos=13&kwd=baby mosquito net&tags=A||||8752.144|Price|product|||TS|rsf:gd-|-qr_nm:gd|res:RC5|com-cf:nl|ptrs:na|ktp:N0|mc:22723|mtp:S|qry_typ:P|lang:en|wc:3|flavl:0|cs:8297|v=4,False,Shahdara,New Delhi,"1/95, Gali No.3, Near Navjeevan Phisical Center, Vishwas Nagar, Shahdara,, Shahdara, New Delhi - 110032, Dist.Delhi, Delhi",7942628926,
Rectangular Baby Bed With Mosquito Net,https://www.indiamart.com/proddetail/baby-bed-with-mosquito-net-2853628235430.html?pos=14&kwd=baby mosquito net&tags=A||||8662.111|Price|product|||TS|rsf:gd-|-qr_nm:gd|res:RC5|com-cf:nl|ptrs:na|ktp:N0|mc:22723|mtp:S|qry_typ:P|lang:en|wc:3|flavl:0|cs:8297|v=4,Rovee Garments,https://www.indiamart.com/rovee-garments/?pos=14&kwd=baby mosquito net&tags=A||||8662.111|Price|product|||TS|rsf:gd-|-qr_nm:gd|res:RC5|com-cf:nl|ptrs:na|ktp:N0|mc:22723|mtp:S|qry_typ:P|lang:en|wc:3|flavl:0|cs:8297|v=4,False,State Bank Colony,Tirunelveli,"70, State Bank Colony, Ezhil Nagar, Ngo A Colony, State Bank Colony, Tirunelveli - 627007, Dist.Tirunelveli, Tamil Nadu",7942840922,
"Polyester Baby Mosquito Net Bed, For Home, Size: Medium",https://www.indiamart.com/proddetail/baby-bed-mosquito-net-2854246883962.html?pos=15&kwd=baby mosquito net&tags=A||||9829.308|Price|product|||MDC|rsf:gd-|-qr_nm:gd|res:RC5|com-cf:nl|ptrs:na|ktp:N0|mc:22723|mtp:S|qry_typ:P|lang:en|wc:3|cs:7534|v=4,Alena Enterprise,https://www.indiamart.com/alenaenterprise/?pos=15&kwd=baby mosquito net&tags=A||||9829.308|Price|product|||MDC|rsf:gd-|-qr_nm:gd|res:RC5|com-cf:nl|ptrs:na|ktp:N0|mc:22723|mtp:S|qry_typ:P|lang:en|wc:3|cs:7534|v=4,False,,Howrah,"Kantagachi, Naul, Shyampur, Howrah - 711312, Dist.Howrah, West Bengal",7949325353,
"Cotton Bed Newborn Baby Mosquito Net, Size: Medium",https://www.indiamart.com/proddetail/bed-newborn-baby-mosquito-net-2854722842391.html?pos=16&kwd=baby mosquito net&tags=A||||8211.142|Price|product|||MDC|rsf:gd-|-qr_nm:gd|res:RC5|com-cf:nl|ptrs:na|ktp:N0|mc:22723|mtp:S|qry_typ:P|lang:en|wc:3|cs:7534|v=4,Apple Kids,https://www.indiamart.com/applekids-mumbai/?pos=16&kwd=baby mosquito net&tags=A||||8211.142|Price|product|||MDC|rsf:gd-|-qr_nm:gd|res:RC5|com-cf:nl|ptrs:na|ktp:N0|mc:22723|mtp:S|qry_typ:P|lang:en|wc:3|cs:7534|v=4,False,,Mumbai,"Room No 1,211/4, Janu Seth Chawl, Puspa Park, Daftary Road, Malad East Suburban, Mumbai - 400097, Dist.Mumbai, Maharashtra",7949326883,
"Baby Mosquito Net, For Home, Size: Medium",https://www.indiamart.com/proddetail/baby-mosquito-net-23403493262.html?pos=17&kwd=baby mosquito net&tags=A||||8752.144|Price|product|||TS|rsf:gd-|-qr_nm:gd|res:RC5|com-cf:nl|ptrs:na|ktp:N0|mc:22723|mtp:S|qry_typ:P|lang:en|wc:3|cs:7534|v=4,National Overseas,https://www.indiamart.com/nationaltraders-vishwashnagar/?pos=17&kwd=baby mosquito net&tags=A||||8752.144|Price|product|||TS|rsf:gd-|-qr_nm:gd|res:RC5|com-cf:nl|ptrs:na|ktp:N0|mc:22723|mtp:S|qry_typ:P|lang:en|wc:3|cs:7534|v=4,False,Shahdara,New Delhi,"1/99, Gali No. 3, Vishwas Nagar, Shahdara, New Delhi - 110032, Dist.Delhi, Delhi",8046047673,
Baby Mosquito Net Beds,https://www.indiamart.com/proddetail/baby-mosquito-net-beds-20147719230.html?pos=18&kwd=baby mosquito net&tags=A||||8752.144|Price|product|||TS|rsf:gd-|-qr_nm:gd|res:RC5|com-cf:nl|ptrs:na|ktp:N0|mc:22723|mtp:S|qry_typ:P|lang:en|wc:3|cs:7534|v=4,Gyasi Ram & Associates,https://www.indiamart.com/gyasiram/?pos=18&kwd=baby mosquito net&tags=A||||8752.144|Price|product|||TS|rsf:gd-|-qr_nm:gd|res:RC5|com-cf:nl|ptrs:na|ktp:N0|mc:22723|mtp:S|qry_typ:P|lang:en|wc:3|cs:7534|v=4,False,Delhi Sadar Bazar,New Delhi,"458, Main Road, Sadar Bazar Near Bara Tooti Chowk, Delhi Sadar Bazar, New Delhi - 110006, Dist.Delhi, Delhi",8046043034,
"Cotton Newborn Baby Mosquito Net With Bed, For Home, Size: Medium",https://www.indiamart.com/proddetail/newborn-baby-mosquito-net-with-bed-2852563761191.html?pos=19&kwd=baby mosquito net&tags=A||||8580.032|Price|product|||TS|rsf:gd-|-qr_nm:gd|res:RC5|com-cf:nl|ptrs:na|ktp:N0|mc:22723|mtp:S|qry_typ:P|lang:en|wc:3|cs:7534|v=4,Ritu Infants Care,https://www.indiamart.com/ritu-infants-care/?pos=19&kwd=baby mosquito net&tags=A||||8580.032|Price|product|||TS|rsf:gd-|-qr_nm:gd|res:RC5|com-cf:nl|ptrs:na|ktp:N0|mc:22723|mtp:S|qry_typ:P|lang:en|wc:3|cs:7534|v=4,False,Sunder Nagar,Amritsar,"232, Tilak Nagar, Shivala Colony, Sunder Nagar, Amritsar - 143001, Dist.Amritsar, Punjab",7942712512,
"Cotton Baby mosquito net, Size: XL",https://www.indiamart.com/proddetail/baby-mosquito-net-2852719917848.html?pos=20&kwd=baby mosquito net&tags=A||||8752.144|Price|product|||MDC|rsf:gd-|-qr_nm:gd|res:RC5|com-cf:nl|ptrs:na|ktp:N0|mc:22723|mtp:S|qry_typ:P|lang:en|wc:3|cs:7534|v=4,M.K. Manufacturer,https://www.indiamart.com/mk-manufacturer-delhi/?pos=20&kwd=baby mosquito net&tags=A||||8752.144|Price|product|||MDC|rsf:gd-|-qr_nm:gd|res:RC5|com-cf:nl|ptrs:na|ktp:N0|mc:22723|mtp:S|qry_typ:P|lang:en|wc:3|cs:7534|v=4,False,,New Delhi,"S/F, E-468, Kh No. 539, Gali No. 11, Subhash Vihar, North Ghonda, North East, New Delhi - 110053, Dist.Delhi, Delhi",8047648752,
"Polyester Orange Baby Mosquito Net, For Home, Size: 80*20cm",https://www.indiamart.com/proddetail/orange-baby-mosquito-net-19271852733.html?pos=21&kwd=baby mosquito net&tags=A||||8752.144|Price|product|||TS|rsf:gd-|-qr_nm:gd|res:RC5|com-cf:nl|ptrs:na|ktp:N0|mc:22723|mtp:S|qry_typ:P|lang:en|wc:3|cs:7534|v=4,Gehloth Enterprises,https://www.indiamart.com/gehloth-emporium/?pos=21&kwd=baby mosquito net&tags=A||||8752.144|Price|product|||TS|rsf:gd-|-qr_nm:gd|res:RC5|com-cf:nl|ptrs:na|ktp:N0|mc:22723|mtp:S|qry_typ:P|lang:en|wc:3|cs:7534|v=4,False,Hazrat Nizamuddin,New Delhi,"Galib Road, Hazrat Nizamuddin, New Delhi - 110013, Dist.Delhi, Delhi",8047634612,
Foldable Baby Mosquito Net,https://www.indiamart.com/proddetail/foldable-baby-mosquito-net-2853311759012.html?pos=22&kwd=baby mosquito net&tags=A||||8939.562|Price|product|||TS|rsf:gd-|-qr_nm:gd|res:RC5|com-cf:nl|ptrs:na|ktp:N0|mc:22723|mtp:S|qry_typ:P|lang:en|wc:3|cs:7534|v=4,Sami Enterprises,https://www.samimosquitonet.com/?pos=22&kwd=baby mosquito net&tags=A||||8939.562|Price|product|||TS|rsf:gd-|-qr_nm:gd|res:RC5|com-cf:nl|ptrs:na|ktp:N0|mc:22723|mtp:S|qry_typ:P|lang:en|wc:3|cs:7534|v=4,False,,Rampur,"Bazar Nasrulla Khan, Rampur - 244901, Uttar Pradesh",8043806758,
"Baby Mosquito Net, For Home, Size: Medium",https://www.indiamart.com/proddetail/baby-mosquito-net-2854700420673.html?pos=23&kwd=baby mosquito net&tags=A||||8813.969|Price|product|||TS|rsf:gd-|-qr_nm:gd|res:RC5|com-cf:nl|ptrs:na|ktp:N0|mc:22723|mtp:S|qry_typ:P|lang:en|wc:3|cs:7534|v=4,S.K.Enterprises,https://www.indiamart.com/skenterprisesmeerututtarpradesh/?pos=23&kwd=baby mosquito net&tags=A||||8813.969|Price|product|||TS|rsf:gd-|-qr_nm:gd|res:RC5|com-cf:nl|ptrs:na|ktp:N0|mc:22723|mtp:S|qry_typ:P|lang:en|wc:3|cs:7534|v=4,False,Ahmad Nagar,Meerut,"Khasra No-3623 H.No-2386 Zakir Colony Road, Dr Shameen Khan Clinic,, Ahmad Nagar, Meerut - 250002, Dist.Meerut, Uttar Pradesh",7942966042,
"Polyester Baby Foldable Mosquito Net, For Home",https://www.indiamart.com/proddetail/baby-foldable-mosquito-net-2854336759630.html?pos=24&kwd=baby mosquito net&tags=A||||9045.955|Price|product|||MDC|rsf:gd-|-qr_nm:gd|res:RC5|com-cf:nl|ptrs:na|ktp:N0|mc:22723|mtp:S|qry_typ:P|lang:en|wc:3|cs:7534|v=4,Swadeshi Dengue Net Traders,https://www.indiamart.com/swadeshidenguenettraders/?pos=24&kwd=baby mosquito net&tags=A||||9045.955|Price|product|||MDC|rsf:gd-|-qr_nm:gd|res:RC5|com-cf:nl|ptrs:na|ktp:N0|mc:22723|mtp:S|qry_typ:P|lang:en|wc:3|cs:7534|v=4,False,Pipauri,Kanpur,"Mardan Pur, Pipauri, Kanpur Nagar, Pipauri, Kanpur - 208001, Uttar Pradesh",8045736196,
"Cotton Newborn Baby Hanging Mosquito Net, For Home, Size: Medium",https://www.indiamart.com/proddetail/newborn-baby-hanging-mosquito-net-2854895020173.html?pos=25&kwd=baby mosquito net&tags=A||||8661.854|Price|product|||MDC|rsf:gd-|-qr_nm:gd|res:RC5|com-cf:nl|ptrs:na|ktp:N0|mc:22723|mtp:S|qry_typ:P|lang:en|wc:3|cs:7534|v=4,Nishkarsh Appreal,https://www.indiamart.com/nishkarshappreal/?pos=25&kwd=baby mosquito net&tags=A||||8661.854|Price|product|||MDC|rsf:gd-|-qr_nm:gd|res:RC5|com-cf:nl|ptrs:na|ktp:N0|mc:22723|mtp:S|qry_typ:P|lang:en|wc:3|cs:7534|v=4,False,,Ludhiana,"Hall No1, Nishkarsh Appreal, 8093 ST No 1 New Shastri Nagar, Basti Jodhewal, Ludhiana - 141007, Dist.Ludhiana, Punjab",8044458136,
"Nylon Brown 6 Taar Sattan Umbrella Baby Mosquito Net, For Home",https://www.indiamart.com/proddetail/brown-6-taar-sattan-umbrella-baby-mosquito-net-2854414291530.html?pos=26&kwd=baby mosquito net&tags=A||||8752.144|Price|product|||MDC|rsf:gd-|-qr_nm:gd|res:RC5|com-cf:nl|ptrs:na|ktp:N0|mc:22723|mtp:S|qry_typ:P|lang:en|wc:3|cs:7534|v=4,Shri Raj Parnami,https://www.indiamart.com/shri-raj-parnami/?pos=26&kwd=baby mosquito net&tags=A||||8752.144|Price|product|||MDC|rsf:gd-|-qr_nm:gd|res:RC5|com-cf:nl|ptrs:na|ktp:N0|mc:22723|mtp:S|qry_typ:P|lang:en|wc:3|cs:7534|v=4,False,,New Delhi,"Shop No.406, Main Road, Azad Market, Central Delhi,, New Delhi - 110006, Dist.Delhi, Delhi",7949338213,
"Plain Baby Mosquito Net, For Home, Size: XL",https://www.indiamart.com/proddetail/plain-baby-mosquito-net-2853481949655.html?pos=27&kwd=baby mosquito net&tags=A||||8211.142|Price|product|||TS|rsf:gd-|-qr_nm:gd|res:RC5|com-cf:nl|ptrs:na|ktp:N0|mc:22723|mtp:S|qry_typ:P|lang:en|wc:3|cs:7534|v=4,P For Panda Baby Products Private Limited,https://www.p4pandababyproducts.com/?pos=27&kwd=baby mosquito net&tags=A||||8211.142|Price|product|||TS|rsf:gd-|-qr_nm:gd|res:RC5|com-cf:nl|ptrs:na|ktp:N0|mc:22723|mtp:S|qry_typ:P|lang:en|wc:3|cs:7534|v=4,False,Goregaon West,Mumbai,"904 A Wing,9 Th Floor,Triple S Heights,Jakeria Road, Goregaon West, Mumbai - 400064, Dist.Mumbai, Maharashtra",7942710871,
Multicolor Cotton Newborn Baby Mattress,https://www.indiamart.com/proddetail/newborn-baby-mattress-2854900388648.html?pos=28&kwd=baby mosquito net&tags=A||||8230.883||product|||TS|rsf:gd-|-qr_nm:gd|res:RC5|com-cf:nl|ptrs:na|ktp:N0|mc:22723|mtp:S|qry_typ:P|lang:en|wc:3|cs:7534|v=4,Jani Collection,https://www.indiamart.com/janicollection/?pos=28&kwd=baby mosquito net&tags=A||||8230.883||product|||TS|rsf:gd-|-qr_nm:gd|res:RC5|com-cf:nl|ptrs:na|ktp:N0|mc:22723|mtp:S|qry_typ:P|lang:en|wc:3|cs:7534|v=4,False,Katargam,Surat,"H.No. F.F., Plot 30-31, Parsottam Nagar, Idghawad, B/h Manavdharam Ashram, Gotalawadi, Katargam, Surat - 395003, Dist.Surat, Gujarat",8044562060,
"Baby Mattress With Mosquito Net, Bedding Set With Thick Base, Soft Pillow And Zip Closure",https://www.indiamart.com/proddetail/baby-mattress-with-mosquito-net-bedding-set-with-thick-base-soft-pillow-and-zip-closure-24622567912.html?pos=29&kwd=baby mosquito net&tags=A||||9842.824|Price|product|||TS|rsf:gd-|-qr_nm:gd|res:RC5|com-cf:nl|ptrs:na|ktp:N0|mc:22723|mtp:S|qry_typ:P|lang:en|wc:3|cs:7534|v=4,Indilittle Global Export,https://www.indiamart.com/indilittleglobalexport/?pos=29&kwd=baby mosquito net&tags=A||||9842.824|Price|product|||TS|rsf:gd-|-qr_nm:gd|res:RC5|com-cf:nl|ptrs:na|ktp:N0|mc:22723|mtp:S|qry_typ:P|lang:en|wc:3|cs:7534|v=4,False,Haripal,Hooghly,"BRAHMANPARA, NALIKUL PASCHIM, HARIPAL, Haripal, Hooghly - 712405, Dist.Hooghly, West Bengal",8048977919,
"Cotton Baby Mosquito Net, For Home, Size: Small",https://www.indiamart.com/proddetail/newborn-baby-mosquito-net-2854983883262.html?pos=30&kwd=baby mosquito net&tags=A||||8747.203|Price|product|||MDC|rsf:gd-|-qr_nm:gd|res:RC5|com-cf:nl|ptrs:na|ktp:N0|mc:22723|mtp:S|qry_typ:P|lang:en|wc:3|cs:7534|v=4,VVD Home Decor,https://www.indiamart.com/vvd-home-decor/?pos=30&kwd=baby mosquito net&tags=A||||8747.203|Price|product|||MDC|rsf:gd-|-qr_nm:gd|res:RC5|com-cf:nl|ptrs:na|ktp:N0|mc:22723|mtp:S|qry_typ:P|lang:en|wc:3|cs:7534|v=4,False,,Panipat,"388, NR. Sarkari School, Government Primary School, Mahadev Colony, Panipat - 132103, Dist.Panipat, Haryana",8041015044,
"Zipper Blue Plain Baby Mosquito Net Bed, Size: Medium",https://www.indiamart.com/proddetail/blue-plain-baby-mosquito-net-bed-25450374833.html?pos=31&kwd=baby mosquito net&tags=A||||9839.57|Price|product|||MDC|rsf:gd-|-qr_nm:gd|res:RC5|com-cf:nl|ptrs:na|ktp:N0|mc:22723|mtp:S|qry_typ:P|lang:en|wc:3|cs:7534|v=4,Suman Mosquito Net,https://www.indiamart.com/suman-mosquito-net/?pos=31&kwd=baby mosquito net&tags=A||||9839.57|Price|product|||MDC|rsf:gd-|-qr_nm:gd|res:RC5|com-cf:nl|ptrs:na|ktp:N0|mc:22723|mtp:S|qry_typ:P|lang:en|wc:3|cs:7534|v=4,False,Hadia,Kolkata,"58/2/409, East Bidyadharpur, Shyamnagar North Twenty Four Parganas, Hadia, Kolkata - 743127, Dist.Kolkata, West Bengal",8047621063,
"Cotton New born baby mosquito net with bed / Newborn baby mosquito net bed, Size: Medium",https://www.indiamart.com/proddetail/newborn-baby-mosquito-net-with-bed-2853243912055.html?pos=32&kwd=baby mosquito net&tags=A||||8559.269|Price|product|||MDC|rsf:gd-|-qr_nm:gd|res:RC5|com-cf:nl|ptrs:na|ktp:N0|mc:22723|mtp:S|qry_typ:P|lang:en|wc:3|cs:7534|v=4,Sheza Enterprises,https://www.indiamart.com/shezaenterprises/?pos=32&kwd=baby mosquito net&tags=A||||8559.269|Price|product|||MDC|rsf:gd-|-qr_nm:gd|res:RC5|com-cf:nl|ptrs:na|ktp:N0|mc:22723|mtp:S|qry_typ:P|lang:en|wc:3|cs:7534|v=4,False,,Indore,"Alif House, 5, Khajrana Main Road, Opposite HP Petrol Pump,, Indore - 452001, Dist.Indore, Madhya Pradesh",7948547068,
"Cotton Baby Mosquito Net, Size: XL",https://www.indiamart.com/proddetail/baby-mosquito-net-22564788762.html?pos=33&kwd=baby mosquito net&tags=A||||9829.308||product|||TS|rsf:gd-|-qr_nm:gd|res:RC5|com-cf:nl|ptrs:na|ktp:N0|mc:22723|mtp:S|qry_typ:P|lang:en|wc:3|cs:7534|v=4,Yash Garment,https://www.indiamart.com/yash-garment/?pos=33&kwd=baby mosquito net&tags=A||||9829.308||product|||TS|rsf:gd-|-qr_nm:gd|res:RC5|com-cf:nl|ptrs:na|ktp:N0|mc:22723|mtp:S|qry_typ:P|lang:en|wc:3|cs:7534|v=4,False,Ross Road,Howrah,"Gali No.38/25, Ross Road, Howrah - 711101, Dist.Howrah, West Bengal",7942556350,
"Load Pillow Baby Mosquito Net Bed, Size: Small",https://www.indiamart.com/proddetail/load-pillow-baby-mosquito-net-bed-2854922953691.html?pos=34&kwd=baby mosquito net&tags=A||||8876.815|Price|product|||MDC|rsf:gd-|-qr_nm:gd|res:RC5|com-cf:nl|ptrs:na|ktp:N0|mc:22723|mtp:S|qry_typ:P|lang:en|wc:3|cs:7534|v=4,Good Luck Trading,https://www.indiamart.com/goodlucktrading-nagpur/?pos=34&kwd=baby mosquito net&tags=A||||8876.815|Price|product|||MDC|rsf:gd-|-qr_nm:gd|res:RC5|com-cf:nl|ptrs:na|ktp:N0|mc:22723|mtp:S|qry_typ:P|lang:en|wc:3|cs:7534|v=4,False,,Nagpur,"Plot No. 807, Dharamchaya Fawara Chowk Builing, Nikalas Mandir Road, Itwari, Nagpur - 440002, Dist.Nagpur, Maharashtra",8041014474,
"Baby Mosquito Net Play Gym, For Home",https://www.indiamart.com/proddetail/baby-mosquito-net-play-gym-2849905149791.html?pos=35&kwd=baby mosquito net&tags=A||||8752.144|Price|product|||MDC|rsf:gd-|-qr_nm:gd|res:RC5|com-cf:nl|ptrs:na|ktp:N0|mc:22723|mtp:S|qry_typ:P|lang:en|wc:3|cs:7534|v=4,Kalra Traders,https://www.indiamart.com/kalra-traders-delhi/?pos=35&kwd=baby mosquito net&tags=A||||8752.144|Price|product|||MDC|rsf:gd-|-qr_nm:gd|res:RC5|com-cf:nl|ptrs:na|ktp:N0|mc:22723|mtp:S|qry_typ:P|lang:en|wc:3|cs:7534|v=4,False,Hari Nagar,New Delhi,"6056/18, Ground Floor, Bari Market Sadar Bazar, Hari Nagar, New Delhi - 110006, Dist.Delhi, Delhi",7942797732,
"Sky Blue Cotton Baby Mosquito Net, Size: Medium",https://www.indiamart.com/proddetail/sky-blue-cotton-baby-mosquito-net-2854178036533.html?pos=36&kwd=baby mosquito net&tags=A||||8752.144|Price|product|||MDC|rsf:gd-|-qr_nm:gd|res:RC5|com-cf:nl|ptrs:na|ktp:N0|mc:22723|mtp:S|qry_typ:P|lang:en|wc:3|cs:7534|v=4,Komal Embroidery,https://www.indiamart.com/komal-embroidery-newdelhi/?pos=36&kwd=baby mosquito net&tags=A||||8752.144|Price|product|||MDC|rsf:gd-|-qr_nm:gd|res:RC5|com-cf:nl|ptrs:na|ktp:N0|mc:22723|mtp:S|qry_typ:P|lang:en|wc:3|cs:7534|v=4,False,Rithala,New Delhi,"Ground Floor, Shop No. PVT-3, KH No. 1203, Lal Doora Village Rithala Near Surya Hotel, Rithala, New Delhi - 110085, Dist.Delhi, Delhi",8045730251,
For Home Umbrella Mosquito Net For Baby,https://www.indiamart.com/proddetail/umbrella-mosquito-net-for-baby-23748752233.html?pos=37&kwd=baby mosquito net&tags=A||||8223.226|Price|product|||TS|rsf:gd-|-qr_nm:gd|res:RC5|com-cf:nl|ptrs:na|ktp:N0|mc:22723|mtp:S|qry_typ:P|lang:en|wc:3|cs:7534|v=4,Yogesh M Anandpara,https://www.mosquitobednet.com/?pos=37&kwd=baby mosquito net&tags=A||||8223.226|Price|product|||TS|rsf:gd-|-qr_nm:gd|res:RC5|com-cf:nl|ptrs:na|ktp:N0|mc:22723|mtp:S|qry_typ:P|lang:en|wc:3|cs:7534|v=4,False,Bhayandar East,Thane,"8, Tanveer Apartment, Cabin Road, Bhayander East, Bhayandar East, Thane - 401105, Dist.Thane, Maharashtra",8046045118,
"Blue And Pink Polyester Baby Mosquito Net, Size: 25 Inch To 30 Inch",https://www.indiamart.com/proddetail/baby-mosquito-net-19077754597.html?pos=38&kwd=baby mosquito net&tags=A||||8752.144|Price|product|||TS|rsf:gd-|-qr_nm:gd|res:RC5|com-cf:nl|ptrs:na|ktp:N0|mc:22723|mtp:S|qry_typ:P|lang:en|wc:3|cs:7534|v=4,Gyasi Ram & Sons,https://www.indiamart.com/gyasi-ram-sons/?pos=38&kwd=baby mosquito net&tags=A||||8752.144|Price|product|||TS|rsf:gd-|-qr_nm:gd|res:RC5|com-cf:nl|ptrs:na|ktp:N0|mc:22723|mtp:S|qry_typ:P|lang:en|wc:3|cs:7534|v=4,False,Sadar Bazaar,New Delhi,"No. 459, Main Road, Sadar Bazar, Sadar Bazaar, New Delhi - 110006, Dist.Delhi, Delhi",8043865798,
"Poly Cotton Kids Mosquito Net, Size: Medium",https://www.indiamart.com/proddetail/kids-mosquito-net-2852318420891.html?pos=39&kwd=baby mosquito net&tags=A||||8747.203|Price|product|||TS|rsf:gd-|-qr_nm:gd|res:RC5|com-cf:nl|ptrs:na|ktp:N0|mc:22723|mtp:S|qry_typ:P|lang:en|wc:3|cs:7534|v=4,Tulsi Handicraft,https://www.indiamart.com/tulsihandicraftpanipat/?pos=39&kwd=baby mosquito net&tags=A||||8747.203|Price|product|||TS|rsf:gd-|-qr_nm:gd|res:RC5|com-cf:nl|ptrs:na|ktp:N0|mc:22723|mtp:S|qry_typ:P|lang:en|wc:3|cs:7534|v=4,False,Netaji Colony,Panipat,"10, Gangapuri Road, Netaji Colony, Panipat - 132103, Dist.Panipat, Haryana",7942837797,
"Polyester BABY Cotton Mosquito Net PRINT BLUE, For Window, Size: Small",https://www.indiamart.com/proddetail/baby-cotton-mosquito-net-print-blue-2850303099388.html?pos=40&kwd=baby mosquito net&tags=A||||8584.299|Price|product|||TS|rsf:gd-|-qr_nm:gd|res:RC5|com-cf:nl|ptrs:na|ktp:N0|mc:22723|mtp:S|qry_typ:P|lang:en|wc:3|cs:7534|v=4,Mas Click Factory & Trading,https://www.banglestand.in/?pos=40&kwd=baby mosquito net&tags=A||||8584.299|Price|product|||TS|rsf:gd-|-qr_nm:gd|res:RC5|com-cf:nl|ptrs:na|ktp:N0|mc:22723|mtp:S|qry_typ:P|lang:en|wc:3|cs:7534|v=4,False,Madukkarai,Coimbatore,"No.533/1A3, Site No 6, Golden Avenue Seerapalayam, Madukkarai, Madukkarai, Coimbatore - 641105, Dist.Coimbatore, Tamil Nadu",7942795272,
"Baby Mosquito Net Bed, Size: Small",https://www.indiamart.com/proddetail/baby-mosquito-net-2854041429162.html?pos=41&kwd=baby mosquito net&tags=A||||9140.514|Price|product|||MDC|rsf:gd-|-qr_nm:gd|res:RC5|com-cf:nl|ptrs:na|ktp:N0|mc:22723|mtp:S|qry_typ:P|lang:en|wc:3|cs:7534|v=4,Shivay Trading & Manufacturing,https://www.indiamart.com/shivaytradingmanufacturing/?pos=41&kwd=baby mosquito net&tags=A||||9140.514|Price|product|||MDC|rsf:gd-|-qr_nm:gd|res:RC5|com-cf:nl|ptrs:na|ktp:N0|mc:22723|mtp:S|qry_typ:P|lang:en|wc:3|cs:7534|v=4,False,Pandri,Raipur,"Plot No.94, First Floor, Indira Gandhi Vyavsayik Parisar, Cloth Market, Pandri, Pandri, Raipur - 492001, Chhattisgarh",8044012762,
"Cotton Green Baby Mosquito Net, For Home, Size: Small",https://www.indiamart.com/proddetail/green-baby-mosquito-net-2854493690391.html?pos=42&kwd=baby mosquito net&tags=A||||8747.203|Price|product|||MDC|rsf:gd-|-qr_nm:gd|res:RC5|com-cf:nl|ptrs:na|ktp:N0|mc:22723|mtp:S|qry_typ:P|lang:en|wc:3|cs:7534|v=4,Gandhi Wooltex,https://www.indiamart.com/gandhiwooltex/?pos=42&kwd=baby mosquito net&tags=A||||8747.203|Price|product|||MDC|rsf:gd-|-qr_nm:gd|res:RC5|com-cf:nl|ptrs:na|ktp:N0|mc:22723|mtp:S|qry_typ:P|lang:en|wc:3|cs:7534|v=4,False,,Panipat,"H No. 538, Sector 12, Huda, Panipat - 132103, Dist.Panipat, Haryana",7949338841,
"Sky Blue Cotton Baby Mosquito Net, Size: Medium",https://www.indiamart.com/proddetail/sky-blue-cotton-baby-mosquito-net-2854178036533.html?pos=43&kwd=baby mosquito net&tags=A||||8752.144|Price|product|||MDC|rsf:gd-|-qr_nm:gd|res:RC5|com-cf:nl|ptrs:na|ktp:N0|mc:22723|mtp:S|qry_typ:P|lang:en|wc:3|cs:7534|v=4,Komal Embroidery,https://www.indiamart.com/komal-embroidery-newdelhi/?pos=43&kwd=baby mosquito net&tags=A||||8752.144|Price|product|||MDC|rsf:gd-|-qr_nm:gd|res:RC5|com-cf:nl|ptrs:na|ktp:N0|mc:22723|mtp:S|qry_typ:P|lang:en|wc:3|cs:7534|v=4,False,Rithala,New Delhi,"Ground Floor, Shop No. PVT-3, KH No. 1203, Lal Doora Village Rithala Near Surya Hotel, Rithala, New Delhi - 110085, Dist.Delhi, Delhi",8045730251,
For Home Umbrella Mosquito Net For Baby,https://www.indiamart.com/proddetail/umbrella-mosquito-net-for-baby-23748752233.html?pos=44&kwd=baby mosquito net&tags=A||||8223.226|Price|product|||TS|rsf:gd-|-qr_nm:gd|res:RC5|com-cf:nl|ptrs:na|ktp:N0|mc:22723|mtp:S|qry_typ:P|lang:en|wc:3|cs:7534|v=4,Yogesh M Anandpara,https://www.mosquitobednet.com/?pos=44&kwd=baby mosquito net&tags=A||||8223.226|Price|product|||TS|rsf:gd-|-qr_nm:gd|res:RC5|com-cf:nl|ptrs:na|ktp:N0|mc:22723|mtp:S|qry_typ:P|lang:en|wc:3|cs:7534|v=4,False,Bhayandar East,Thane,"8, Tanveer Apartment, Cabin Road, Bhayander East, Bhayandar East, Thane - 401105, Dist.Thane, Maharashtra",8046045118,
"Blue And Pink Polyester Baby Mosquito Net, Size: 25 Inch To 30 Inch",https://www.indiamart.com/proddetail/baby-mosquito-net-19077754597.html?pos=45&kwd=baby mosquito net&tags=A||||8752.144|Price|product|||TS|rsf:gd-|-qr_nm:gd|res:RC5|com-cf:nl|ptrs:na|ktp:N0|mc:22723|mtp:S|qry_typ:P|lang:en|wc:3|cs:7534|v=4,Gyasi Ram & Sons,https://www.indiamart.com/gyasi-ram-sons/?pos=45&kwd=baby mosquito net&tags=A||||8752.144|Price|product|||TS|rsf:gd-|-qr_nm:gd|res:RC5|com-cf:nl|ptrs:na|ktp:N0|mc:22723|mtp:S|qry_typ:P|lang:en|wc:3|cs:7534|v=4,False,Sadar Bazaar,New Delhi,"No. 459, Main Road, Sadar Bazar, Sadar Bazaar, New Delhi - 110006, Dist.Delhi, Delhi",8043865798,
"Polyester BABY Cotton Mosquito Net PRINT BLUE, For Window, Size: Small",https://www.indiamart.com/proddetail/baby-cotton-mosquito-net-print-blue-2850303099388.html?pos=46&kwd=baby mosquito net&tags=A||||8584.299|Price|product|||TS|rsf:gd-|-qr_nm:gd|res:RC5|com-cf:nl|ptrs:na|ktp:N0|mc:22723|mtp:S|qry_typ:P|lang:en|wc:3|cs:7534|v=4,Mas Click Factory & Trading,https://www.banglestand.in/?pos=46&kwd=baby mosquito net&tags=A||||8584.299|Price|product|||TS|rsf:gd-|-qr_nm:gd|res:RC5|com-cf:nl|ptrs:na|ktp:N0|mc:22723|mtp:S|qry_typ:P|lang:en|wc:3|cs:7534|v=4,False,Madukkarai,Coimbatore,"No.533/1A3, Site No 6, Golden Avenue Seerapalayam, Madukkarai, Madukkarai, Coimbatore - 641105, Dist.Coimbatore, Tamil Nadu",7942795272,
"Poly Cotton Kids Mosquito Net, Size: Medium",https://www.indiamart.com/proddetail/kids-mosquito-net-2852318420891.html?pos=47&kwd=baby mosquito net&tags=A||||8747.203|Price|product|||TS|rsf:gd-|-qr_nm:gd|res:RC5|com-cf:nl|ptrs:na|ktp:N0|mc:22723|mtp:S|qry_typ:P|lang:en|wc:3|cs:7534|v=4,Tulsi Handicraft,https://www.indiamart.com/tulsihandicraftpanipat/?pos=47&kwd=baby mosquito net&tags=A||||8747.203|Price|product|||TS|rsf:gd-|-qr_nm:gd|res:RC5|com-cf:nl|ptrs:na|ktp:N0|mc:22723|mtp:S|qry_typ:P|lang:en|wc:3|cs:7534|v=4,False,Netaji Colony,Panipat,"10, Gangapuri Road, Netaji Colony, Panipat - 132103, Dist.Panipat, Haryana",7942837797,
"Baby Mosquito Net Bed, Size: Small",https://www.indiamart.com/proddetail/baby-mosquito-net-2854041429162.html?pos=48&kwd=baby mosquito net&tags=A||||9140.514|Price|product|||MDC|rsf:gd-|-qr_nm:gd|res:RC5|com-cf:nl|ptrs:na|ktp:N0|mc:22723|mtp:S|qry_typ:P|lang:en|wc:3|cs:7534|v=4,Shivay Trading & Manufacturing,https://www.indiamart.com/shivaytradingmanufacturing/?pos=48&kwd=baby mosquito net&tags=A||||9140.514|Price|product|||MDC|rsf:gd-|-qr_nm:gd|res:RC5|com-cf:nl|ptrs:na|ktp:N0|mc:22723|mtp:S|qry_typ:P|lang:en|wc:3|cs:7534|v=4,False,Pandri,Raipur,"Plot No.94, First Floor, Indira Gandhi Vyavsayik Parisar, Cloth Market, Pandri, Pandri, Raipur - 492001, Chhattisgarh",8044012762,
"Cotton Green Baby Mosquito Net, For Home, Size: Small",https://www.indiamart.com/proddetail/green-baby-mosquito-net-2854493690391.html?pos=49&kwd=baby mosquito net&tags=A||||8747.203|Price|product|||MDC|rsf:gd-|-qr_nm:gd|res:RC5|com-cf:nl|ptrs:na|ktp:N0|mc:22723|mtp:S|qry_typ:P|lang:en|wc:3|cs:7534|v=4,Gandhi Wooltex,https://www.indiamart.com/gandhiwooltex/?pos=49&kwd=baby mosquito net&tags=A||||8747.203|Price|product|||MDC|rsf:gd-|-qr_nm:gd|res:RC5|com-cf:nl|ptrs:na|ktp:N0|mc:22723|mtp:S|qry_typ:P|lang:en|wc:3|cs:7534|v=4,False,,Panipat,"H No. 538, Sector 12, Huda, Panipat - 132103, Dist.Panipat, Haryana",7949338841,
Baby Mosquito Net Bed,,Swing 'N' Fly (A Brand of Zen Marketing),https://www.indiamart.com/zenmarketing-sahibabad/?pos=50&kwd=baby mosquito net&tags=A||||8752.144|Price|product|||TS|rsf:gd-|-qr_nm:gd|res:RC5|com-cf:nl|ptrs:na|ktp:N0|mc:22723|mtp:S|qry_typ:P|lang:en|wc:3|cs:7534|v=4,False,Alipur,New Delhi,"Ground Floor, Kh No 55/17/2, Pawan Triveni Colony, Village Bakhtawarpur triveni colony, Alipur, New Delhi - 110036, Dist.Delhi, Delhi",7942559295,
Cotton Pink Baby Bed With Mosquito Net,https://www.indiamart.com/proddetail/cotton-pink-baby-bed-with-mosquito-net-20598743891.html?pos=51&kwd=baby mosquito net&tags=A||||8663.873|Price|product|||TS|rsf:gd-|-qr_nm:gd|res:RC5|com-cf:nl|ptrs:na|ktp:N0|mc:22723|mtp:S|qry_typ:P|lang:en|wc:3|cs:7534|v=4,Kids International,https://www.indiamart.com/kidsinternational/?pos=51&kwd=baby mosquito net&tags=A||||8663.873|Price|product|||TS|rsf:gd-|-qr_nm:gd|res:RC5|com-cf:nl|ptrs:na|ktp:N0|mc:22723|mtp:S|qry_typ:P|lang:en|wc:3|cs:7534|v=4,False,Malleswaram,Bengaluru,"Ground Floor, No-18, Yellappa Garden 10Th Cross, Malleswaram,Urban,, Malleswaram, Bengaluru - 560003, Dist.Bengaluru, Karnataka",8044013916,
"Baby Mosquito Net, Size: 25 Inch To 30 Inch",https://www.indiamart.com/proddetail/baby-mosquito-net-16117798973.html?pos=52&kwd=baby mosquito net&tags=A||||8752.144|Price|product|||TS|rsf:gd-|-qr_nm:gd|res:RC5|com-cf:nl|ptrs:na|ktp:N0|mc:22723|mtp:S|qry_typ:P|lang:en|wc:3|cs:7534|v=4,Surya Umbrella,https://www.suryaumbrella.com/?pos=52&kwd=baby mosquito net&tags=A||||8752.144|Price|product|||TS|rsf:gd-|-qr_nm:gd|res:RC5|com-cf:nl|ptrs:na|ktp:N0|mc:22723|mtp:S|qry_typ:P|lang:en|wc:3|cs:7534|v=4,False,Delhi Sadar Bazar,New Delhi,"Ground Floor, 998 Pan Mandi, Delhi Sadar Bazar, New Delhi - 110006, Dist.Delhi, Delhi",8048953754,
"Polyester Baby Mosquito Net, Size: Medium",https://www.indiamart.com/proddetail/baby-mosquito-net-2854715383348.html?pos=53&kwd=baby mosquito net&tags=A||||8663.873|Price|product|||MDC|rsf:gd-|-qr_nm:gd|res:RC5|com-cf:nl|ptrs:na|ktp:N0|mc:22723|mtp:S|qry_typ:P|lang:en|wc:3|cs:7534|v=4,Nipika Vrapped Gifting,https://www.indiamart.com/nipika-vrapped-gifting/?pos=53&kwd=baby mosquito net&tags=A||||8663.873|Price|product|||MDC|rsf:gd-|-qr_nm:gd|res:RC5|com-cf:nl|ptrs:na|ktp:N0|mc:22723|mtp:S|qry_typ:P|lang:en|wc:3|cs:7534|v=4,False,Bengaluru Urban,Bengaluru,"9/1, 23rd Cross Road, Magadi Road, KP Agrahara, Bengaluru Urban, Bengaluru - 560023, Dist.Bengaluru, Karnataka",7949328723,
"Baby Mosquito Net, For Home, Size: Medium",https://www.indiamart.com/proddetail/baby-mosquito-net-2854978155373.html?pos=54&kwd=baby mosquito net&tags=A||||8786.56|Price|product|||MDC|rsf:gd-|-qr_nm:gd|res:RC5|com-cf:nl|ptrs:na|ktp:N0|mc:22723|mtp:S|qry_typ:P|lang:en|wc:3|cs:7534|v=4,Vinod And Company,https://www.indiamart.com/vinodcompany-hyderabad/?pos=54&kwd=baby mosquito net&tags=A||||8786.56|Price|product|||MDC|rsf:gd-|-qr_nm:gd|res:RC5|com-cf:nl|ptrs:na|ktp:N0|mc:22723|mtp:S|qry_typ:P|lang:en|wc:3|cs:7534|v=4,False,Feelkhana,Hyderabad,"15/8/514/1/D, Feelkhana, Begum Bazar, Feelkhana, Hyderabad - 500012, Dist.Hyderabad, Telangana",7949086154,
"Polyester Blue Baby Mosquito Net, For Home",https://www.indiamart.com/proddetail/polyester-blue-baby-mosquito-net-2853616852230.html?pos=55&kwd=baby mosquito net&tags=A||||8813.969|Price|product|||MDC|rsf:gd-|-qr_nm:gd|res:RC5|com-cf:nl|ptrs:na|ktp:N0|mc:22723|mtp:S|qry_typ:P|lang:en|wc:3|cs:7534|v=4,Bharat Enterprises,https://www.indiamart.com/bharat-enterprisesmeerut/?pos=55&kwd=baby mosquito net&tags=A||||8813.969|Price|product|||MDC|rsf:gd-|-qr_nm:gd|res:RC5|com-cf:nl|ptrs:na|ktp:N0|mc:22723|mtp:S|qry_typ:P|lang:en|wc:3|cs:7534|v=4,False,Near,Meerut,"Khasra No 380,Affan Garden Noor Nagar , Near Buter Farm, Near, Meerut - 250002, Dist.Meerut, Uttar Pradesh",8045167715,
"Polyester Poly Cotton Baby Mosquito Net, For Home, Size: Medium",https://www.indiamart.com/proddetail/poly-cotton-baby-mosquito-net-2853321816862.html?pos=56&kwd=baby mosquito net&tags=A||||8706.263|Price|product|||MDC|rsf:gd-|-qr_nm:gd|res:RC5|com-cf:nl|ptrs:na|ktp:N0|mc:22723|mtp:S|qry_typ:P|lang:en|wc:3|cs:7534|v=4,Jothika Fabrics Prop G. Velusamy,https://www.indiamart.com/jothika-fabrics/?pos=56&kwd=baby mosquito net&tags=A||||8706.263|Price|product|||MDC|rsf:gd-|-qr_nm:gd|res:RC5|com-cf:nl|ptrs:na|ktp:N0|mc:22723|mtp:S|qry_typ:P|lang:en|wc:3|cs:7534|v=4,False,Sengunthapuram,Karur,"45, Gandhipuram, Sengunthapuram Post, Sengunthapuram, Karur - 639002, Dist.Karur, Tamil Nadu",7942708602,
"Cotton Red Portable Baby Mosquito Net, For Home",https://www.indiamart.com/proddetail/portable-baby-mosquito-net-24207953391.html?pos=57&kwd=baby mosquito net&tags=A||||8747.203|Price|product|||TS|rsf:gd-|-qr_nm:gd|res:RC5|com-cf:nl|ptrs:na|ktp:N0|mc:22723|mtp:S|qry_typ:P|lang:en|wc:3|cs:7534|v=4,Ambay Enterprises,https://www.crafteal.in/?pos=57&kwd=baby mosquito net&tags=A||||8747.203|Price|product|||TS|rsf:gd-|-qr_nm:gd|res:RC5|com-cf:nl|ptrs:na|ktp:N0|mc:22723|mtp:S|qry_typ:P|lang:en|wc:3|cs:7534|v=4,False,Colony,Panipat,"Near Guru Medical Store H/N 2270 Wadhawa Ram Colony, Colony, Panipat - 132103, Dist.Panipat, Haryana",7949092116,
"polyester AL-UQBA Folding Baby Mosquito Net size 5 years baby, For Home, Size: Small",https://www.indiamart.com/proddetail/al-uqba-folding-baby-mosquito-net-size-5-years-baby-27154900712.html?pos=58&kwd=baby mosquito net&tags=A||||8752.144|Price|product|||TS|rsf:gd-|-qr_nm:gd|res:RC5|com-cf:nl|ptrs:na|ktp:N0|mc:22723|mtp:S|qry_typ:P|lang:en|wc:3|cs:7534|v=4,Al-Uqba,https://www.indiamart.com/al-uqba/?pos=58&kwd=baby mosquito net&tags=A||||8752.144|Price|product|||TS|rsf:gd-|-qr_nm:gd|res:RC5|com-cf:nl|ptrs:na|ktp:N0|mc:22723|mtp:S|qry_typ:P|lang:en|wc:3|cs:7534|v=4,False,Jasola Vihar,New Delhi,"E-136, First Floor, Old Jasola Village, Near Kohinoor Masjid, Jasola Vihar, New Delhi - 110025, Dist.Delhi, Delhi",7942539818,
Cotton Pink Baby Bed With Mosquito Net,https://www.indiamart.com/proddetail/cotton-pink-baby-bed-with-mosquito-net-20598743891.html?pos=59&kwd=baby mosquito net&tags=A||||8663.873|Price|product|||TS|rsf:gd-|-qr_nm:gd|res:RC5|com-cf:nl|ptrs:na|ktp:N0|mc:22723|mtp:S|qry_typ:P|lang:en|wc:3|cs:7534|v=4,Kids International,https://www.indiamart.com/kidsinternational/?pos=59&kwd=baby mosquito net&tags=A||||8663.873|Price|product|||TS|rsf:gd-|-qr_nm:gd|res:RC5|com-cf:nl|ptrs:na|ktp:N0|mc:22723|mtp:S|qry_typ:P|lang:en|wc:3|cs:7534|v=4,False,Malleswaram,Bengaluru,"Ground Floor, No-18, Yellappa Garden 10Th Cross, Malleswaram,Urban,, Malleswaram, Bengaluru - 560003, Dist.Bengaluru, Karnataka",8044013916,
Heart Print Baby Mosquito Net Bed,https://www.indiamart.com/proddetail/heart-print-baby-mosquito-net-bed-2854290141312.html?pos=60&kwd=baby mosquito net&tags=A||||8813.969|Price|product|||TS|rsf:gd-|-qr_nm:gd|res:RC5|com-cf:nl|ptrs:na|ktp:N0|mc:22723|mtp:S|qry_typ:P|lang:en|wc:3|cs:7534|v=4,A.M Enterprises,https://www.indiamart.com/a-menterprises-meerut/?pos=60&kwd=baby mosquito net&tags=A||||8813.969|Price|product|||TS|rsf:gd-|-qr_nm:gd|res:RC5|com-cf:nl|ptrs:na|ktp:N0|mc:22723|mtp:S|qry_typ:P|lang:en|wc:3|cs:7534|v=4,False,,Meerut,"3600,Zakhir Colony,Hapur Road,Zakhir Colony,Meerut,Meerut, Meerut - 250002, Dist.Meerut, Uttar Pradesh",7949328384,
"Poly Cotton Pink Baby Mosquito Net, Size: Medium",https://www.indiamart.com/proddetail/pink-baby-mosquito-net-2850656856912.html?pos=61&kwd=baby mosquito net&tags=A||||8747.203|Price|product|||MDC|rsf:gd-|-qr_nm:gd|res:RC5|com-cf:nl|ptrs:na|ktp:N0|mc:22723|mtp:S|qry_typ:P|lang:en|wc:3|cs:7534|v=4,Shri Radhe Enterprises,https://www.indiamart.com/shri-radheenterprisespanipat/?pos=61&kwd=baby mosquito net&tags=A||||8747.203|Price|product|||MDC|rsf:gd-|-qr_nm:gd|res:RC5|com-cf:nl|ptrs:na|ktp:N0|mc:22723|mtp:S|qry_typ:P|lang:en|wc:3|cs:7534|v=4,False,,Panipat,"455/7, Gurudwara Road, Amar Bhawan Chowk,, Panipat - 132103, Dist.Panipat, Haryana",7949367862,
"Poly Cotton Baby Mosquito Net Bed, For Home",https://www.indiamart.com/proddetail/baby-mosquito-net-bed-2853290974048.html?pos=62&kwd=baby mosquito net&tags=A||||8211.142|Price|product|||MDC|rsf:gd-|-qr_nm:gd|res:RC5|com-cf:nl|ptrs:na|ktp:N0|mc:22723|mtp:S|qry_typ:P|lang:en|wc:3|cs:7534|v=4,Baby Boutique,https://www.indiamart.com/baby-boutiquemumbai/?pos=62&kwd=baby mosquito net&tags=A||||8211.142|Price|product|||MDC|rsf:gd-|-qr_nm:gd|res:RC5|com-cf:nl|ptrs:na|ktp:N0|mc:22723|mtp:S|qry_typ:P|lang:en|wc:3|cs:7534|v=4,False,Masjid Bandar,Mumbai,"7th, 95/99 Flat No. 701, Noori Tower, Sherriff Devi Street, Mandvi, Masjid Bandar, West Mumbai, Masjid Bandar, Mumbai - 400003, Dist.Mumbai, Maharashtra",7942960570,
"Polyester Pink Foldable Baby Mosquito Net Bed, Size: Small",https://www.indiamart.com/proddetail/pink-foldable-baby-mosquito-net-bed-2853680507033.html?pos=63&kwd=baby mosquito net&tags=A||||8752.144|Price|product|||MDC|rsf:gd-|-qr_nm:gd|res:RC5|com-cf:nl|ptrs:na|ktp:N0|mc:22723|mtp:S|qry_typ:P|lang:en|wc:3|cs:7534|v=4,R.S. International,https://www.indiamart.com/rsinternational-newdelhi/?pos=63&kwd=baby mosquito net&tags=A||||8752.144|Price|product|||MDC|rsf:gd-|-qr_nm:gd|res:RC5|com-cf:nl|ptrs:na|ktp:N0|mc:22723|mtp:S|qry_typ:P|lang:en|wc:3|cs:7534|v=4,False,Tagore Garden,New Delhi,"G/floor, B-21, Tagore Garden Shopping Centre 402 Azad Market New Delhi, Tagore Garden, New Delhi - 110027, Dist.Delhi, Delhi",7949082452,
"Cotton Baby Mosquito Net.big, For Home, Size: Medium",https://www.indiamart.com/proddetail/baby-mosquito-net-big-2854407139073.html?pos=64&kwd=baby mosquito net&tags=A||||9790.672|Price|product|||MDC|rsf:gd-|-qr_nm:gd|res:RC5|com-cf:nl|ptrs:na|ktp:N0|mc:22723|mtp:S|qry_typ:P|lang:en|wc:3|cs:7534|v=4,Riyen Bag Factory,https://www.indiamart.com/riyenbagfactory/?pos=64&kwd=baby mosquito net&tags=A||||9790.672|Price|product|||MDC|rsf:gd-|-qr_nm:gd|res:RC5|com-cf:nl|ptrs:na|ktp:N0|mc:22723|mtp:S|qry_typ:P|lang:en|wc:3|cs:7534|v=4,False,Bhadiswar,Murarai,"P.S.- Murarai, P.o.- Malaypur, Dakhin Para, Baliara, Bhadiswar, Murarai - 731219, Dist.Birbhum, West Bengal",8044011586,
Baby Mosquito Net,,V P Product,https://www.indiamart.com/vpproduct/?pos=65&kwd=baby mosquito net&tags=A||||8752.144|Price|product|||MDC|rsf:gd-|-qr_nm:gd|res:RC5|com-cf:nl|ptrs:na|ktp:N0|mc:22723|mtp:S|qry_typ:P|lang:en|wc:3|cs:7534|v=4,False,,New Delhi,"Ground Floor, H.No.- E-5/139, Gali No. - 5, East Gokal Pur, North East Delhi, New Delhi - 110094, Dist.Delhi, Delhi",8044460681,
Newborn Baby Folding Mosquito Net Portable Cots Foldable Crib Bottomless Bed - Blue,https://www.indiamart.com/proddetail/newborn-baby-folding-mosquito-net-portable-cots-foldable-crib-bottomless-bed-blue-2852641470762.html?pos=66&kwd=baby mosquito net&tags=BA||||8663.873|Price|product|||TS|rsf:gd-|-qr_nm:gd|res:RC5|com-cf:nl|ptrs:na|ktp:N0|mc:22723|mtp:S|qry_typ:P|lang:en|wc:3|cs:7534|v=4,Color Myles,https://www.indiamart.com/colormyleskarnataka/?pos=66&kwd=baby mosquito net&tags=BA||||8663.873|Price|product|||TS|rsf:gd-|-qr_nm:gd|res:RC5|com-cf:nl|ptrs:na|ktp:N0|mc:22723|mtp:S|qry_typ:P|lang:en|wc:3|cs:7534|v=4,False,Krishnarajapuram,Bengaluru,"No. 96, Basavanapura Main Road, Krishnarajapuram, Bengaluru - 560036, Dist.Bengaluru, Karnataka",8046044317,
"Wosebal fiber Bavy Baby Mosquito Net, Size: Small",https://www.indiamart.com/proddetail/baby-mosquito-net-23149228162.html?pos=69&kwd=baby mosquito net&tags=A||||8228.275|Price|product|||TS|rsf:gd-|-qr_nm:gd|res:RC5|com-cf:nl|ptrs:na|ktp:N0|mc:22723|mtp:S|qry_typ:P|lang:en|wc:3|cs:7534|v=4,Tulsi Jiyana,https://www.indiamart.com/tulsijiyana/?pos=69&kwd=baby mosquito net&tags=A||||8228.275|Price|product|||TS|rsf:gd-|-qr_nm:gd|res:RC5|com-cf:nl|ptrs:na|ktp:N0|mc:22723|mtp:S|qry_typ:P|lang:en|wc:3|cs:7534|v=4,False,Nikol,Ahmedabad,"C/14, Parishram Park Society Opposite Sun City, Nikol, Ahmedabad - 380001, Dist.Ahmedabad, Gujarat",8046078640,
"Nylon White Baby Mosquito Bed Net, For Home",https://www.indiamart.com/proddetail/white-baby-mosquito-bed-net-2850179728330.html?pos=68&kwd=baby mosquito net&tags=A||||8752.144|Price|product|||MDC|rsf:gd-|-qr_nm:gd|res:RC5|com-cf:nl|ptrs:na|ktp:N0|mc:22723|mtp:S|qry_typ:P|lang:en|wc:3|cs:7534|v=4,Kidz Creation,https://www.indiamart.com/kidzcreation/?pos=68&kwd=baby mosquito net&tags=A||||8752.144|Price|product|||MDC|rsf:gd-|-qr_nm:gd|res:RC5|com-cf:nl|ptrs:na|ktp:N0|mc:22723|mtp:S|qry_typ:P|lang:en|wc:3|cs:7534|v=4,False,,New Delhi,"Shop No. 279/517,Sabharwal Market, Tolia Wali Gali Sadar Bazar, North Delhi,, New Delhi - 110006, Dist.Delhi, Delhi",8047679212,
"Wosebal fiber Bavy Baby Mosquito Net, Size: Small",https://www.indiamart.com/proddetail/baby-mosquito-net-23149228162.html?pos=69&kwd=baby mosquito net&tags=A||||8228.275|Price|product|||TS|rsf:gd-|-qr_nm:gd|res:RC5|com-cf:nl|ptrs:na|ktp:N0|mc:22723|mtp:S|qry_typ:P|lang:en|wc:3|cs:7534|v=4,Tulsi Jiyana,https://www.indiamart.com/tulsijiyana/?pos=69&kwd=baby mosquito net&tags=A||||8228.275|Price|product|||TS|rsf:gd-|-qr_nm:gd|res:RC5|com-cf:nl|ptrs:na|ktp:N0|mc:22723|mtp:S|qry_typ:P|lang:en|wc:3|cs:7534|v=4,False,Nikol,Ahmedabad,"C/14, Parishram Park Society Opposite Sun City, Nikol, Ahmedabad - 380001, Dist.Ahmedabad, Gujarat",8046078640,
"Baby Mosquito Net, Size: 1.5 X 1.5 Feet",https://www.indiamart.com/proddetail/baby-mosquito-net-16504415148.html?pos=70&kwd=baby mosquito net&tags=A||||8603.455|Price|product|||TS|rsf:gd-|-qr_nm:gd|res:RC5|com-cf:nl|ptrs:na|ktp:N0|mc:22723|mtp:S|qry_typ:P|lang:en|wc:3|cs:7534|v=4,Shree Bala Ji Niwar Factory,https://www.indiamart.com/shribalajiniwarfactory/?pos=70&kwd=baby mosquito net&tags=A||||8603.455|Price|product|||TS|rsf:gd-|-qr_nm:gd|res:RC5|com-cf:nl|ptrs:na|ktp:N0|mc:22723|mtp:S|qry_typ:P|lang:en|wc:3|cs:7534|v=4,False,Maturam Colony,Fatehabad,"4 Km Stone, Sirsa Road Near By Pass, Maturam Colony, Fatehabad - 125050, Haryana",8048961386,
Baby Mosquito Net,https://www.indiamart.com/proddetail/baby-mosquito-net-12300141155.html?pos=71&kwd=baby mosquito net&tags=BA||||9829.308|Price|product|||MDC|rsf:gd-|-qr_nm:gd|res:RC5|com-cf:nl|ptrs:na|ktp:N0|mc:22723|mtp:S|qry_typ:P|lang:en|wc:3|cs:7534|v=4,Rajib Marketing Trade India,https://www.indiamart.com/rajibmarketing/?pos=71&kwd=baby mosquito net&tags=BA||||9829.308|Price|product|||MDC|rsf:gd-|-qr_nm:gd|res:RC5|com-cf:nl|ptrs:na|ktp:N0|mc:22723|mtp:S|qry_typ:P|lang:en|wc:3|cs:7534|v=4,False,Panchanantala Road,Howrah,"547 G. T. Road (South), Panchanantala Road, Howrah - 711101, Dist.Howrah, West Bengal",8048981617,
"Cotton Baby Cradle Mosquito Net, For Home, Size: Medium",https://www.indiamart.com/proddetail/cotton-baby-cradle-mosquito-net-23547512712.html?pos=72&kwd=baby mosquito net&tags=A||||8706.263|Price|product|||TS|rsf:gd-|-qr_nm:gd|res:RC5|com-cf:nl|ptrs:na|ktp:N0|mc:22723|mtp:S|qry_typ:P|lang:en|wc:3|cs:7534|v=4,Sankari Plastic,https://www.spmosquitonet.com/?pos=72&kwd=baby mosquito net&tags=A||||8706.263|Price|product|||TS|rsf:gd-|-qr_nm:gd|res:RC5|com-cf:nl|ptrs:na|ktp:N0|mc:22723|mtp:S|qry_typ:P|lang:en|wc:3|cs:7534|v=4,False,Karur,Karur,"No. 59/A3, Thillai Nagar East, Karur, Karur - 639005, Dist.Karur, Tamil Nadu",8048954769,
"Cotton Lavender Mosquito Net Baby Net, Size: Medium",https://www.indiamart.com/proddetail/lavender-mosquito-net-baby-net-2854147630855.html?pos=73&kwd=baby mosquito net&tags=A||||8792.661|Price|product|||MDC|rsf:gd-|-qr_nm:gd|res:RC5|com-cf:nl|ptrs:na|ktp:N0|mc:22723|mtp:S|qry_typ:P|lang:en|wc:3|cs:7534|v=4,Aadhi Vetrivel Textiles,https://www.indiamart.com/aadhi-vetrivel-textiles/?pos=73&kwd=baby mosquito net&tags=A||||8792.661|Price|product|||MDC|rsf:gd-|-qr_nm:gd|res:RC5|com-cf:nl|ptrs:na|ktp:N0|mc:22723|mtp:S|qry_typ:P|lang:en|wc:3|cs:7534|v=4,False,Kachirapalayam,Vadakkanandal,"0, SF NO 69/4, VIP Garden,Near Fire Office, Kachirapalayam Road, Kallakuruchi, Kachirapalayam, Vadakkanandal - 606207, Dist.Villupuram, Tamil Nadu",8045732300,
"Polyester Baby Mosquito Net Bed, For Home, Size: Small",https://www.indiamart.com/proddetail/baby-mosquito-net-bed-2853993466773.html?pos=81&kwd=baby mosquito net&tags=A||||8752.144|Price|product|||MDC|rsf:gd-|-qr_nm:gd|res:RC5|com-cf:nl|ptrs:na|ktp:N0|mc:22723|mtp:S|qry_typ:P|lang:en|wc:3|cs:7534|v=4,A.D. Enterprises,https://www.indiamart.com/adenterprises-burari-newdelhi/?pos=81&kwd=baby mosquito net&tags=A||||8752.144|Price|product|||MDC|rsf:gd-|-qr_nm:gd|res:RC5|com-cf:nl|ptrs:na|ktp:N0|mc:22723|mtp:S|qry_typ:P|lang:en|wc:3|cs:7534|v=4,False,North,New Delhi,"K.No-12/1, Main 25 FT. Road, Near Shyam Sweets, Uttranchal Enclave ,Kamal Pur, Burari, North, New Delhi - 110084, Dist.Delhi, Delhi",8044565004,
"Polyester Baby Mosquito Net Bed, For Home, Size: Medium",https://www.indiamart.com/proddetail/baby-mosquito-net-bed-2854985195730.html?pos=75&kwd=baby mosquito net&tags=A||||8307.81|Price|product|||MDC|rsf:gd-|-qr_nm:gd|res:RC5|com-cf:nl|ptrs:na|ktp:N0|mc:22723|mtp:S|qry_typ:P|lang:en|wc:3|cs:7534|v=4,Manish Dresses,https://www.indiamart.com/manish-dresses-pune/?pos=75&kwd=baby mosquito net&tags=A||||8307.81|Price|product|||MDC|rsf:gd-|-qr_nm:gd|res:RC5|com-cf:nl|ptrs:na|ktp:N0|mc:22723|mtp:S|qry_typ:P|lang:en|wc:3|cs:7534|v=4,False,,Pune,"384, Budhwar Peth,, Pune - 411030, Dist.Pune, Maharashtra",7949312436,
"Cotton Baby Mosquito Net Bed, For Home, Size: Medium",https://www.indiamart.com/proddetail/baby-mosquito-net-bed-2855061502348.html?pos=76&kwd=baby mosquito net&tags=A||||8752.144|Price|product|||MDC|rsf:gd-|-qr_nm:gd|res:RC5|com-cf:nl|ptrs:na|ktp:N0|mc:22723|mtp:S|qry_typ:P|lang:en|wc:3|cs:7534|v=4,Dealsup,https://www.indiamart.com/dealsup-north-delhi/?pos=76&kwd=baby mosquito net&tags=A||||8752.144|Price|product|||MDC|rsf:gd-|-qr_nm:gd|res:RC5|com-cf:nl|ptrs:na|ktp:N0|mc:22723|mtp:S|qry_typ:P|lang:en|wc:3|cs:7534|v=4,False,,New Delhi,"Kamal Pur Majra, Khasra No. 7/14, Kamal Vihar, Village Burari North Delhi, New Delhi - 110084, Dist.Delhi, Delhi",7942532252,
"Folding Umbrella Type Blue Mosquito Baby Net, For Home, Size: Medium",https://www.indiamart.com/proddetail/blue-mosquito-baby-net-23339357812.html?pos=77&kwd=baby mosquito net&tags=BA||||8228.275|Price|product|||TS|rsf:gd-|-qr_nm:gd|res:RC5|com-cf:nl|ptrs:na|ktp:N0|mc:22723|mtp:S|qry_typ:P|lang:en|wc:3|cs:7534|v=4,King Enterprise,https://www.kingenterpriseindia.com/?pos=77&kwd=baby mosquito net&tags=BA||||8228.275|Price|product|||TS|rsf:gd-|-qr_nm:gd|res:RC5|com-cf:nl|ptrs:na|ktp:N0|mc:22723|mtp:S|qry_typ:P|lang:en|wc:3|cs:7534|v=4,False,Opp. Haripura Bus Stand,Ahmedabad,"Block- E 28, Ground Floor, Abhishek Estate-1, Opp. Haripura Bus Stand, Ahmedabad - 380016, Dist.Ahmedabad, Gujarat",8047632934,
"Poly Cotton Baby Mosquito Net, For Home, Size: Medium",https://www.indiamart.com/proddetail/baby-mosquito-net-2853438626433.html?pos=78&kwd=baby mosquito net&tags=BA||||8584.299|Price|product|||MDC|rsf:gd-|-qr_nm:gd|res:RC5|com-cf:nl|ptrs:na|ktp:N0|mc:22723|mtp:S|qry_typ:P|lang:en|wc:3|cs:7534|v=4,Coimbatore Vandana Beds,https://www.indiamart.com/coimbatore-vandana-beds/?pos=78&kwd=baby mosquito net&tags=BA||||8584.299|Price|product|||MDC|rsf:gd-|-qr_nm:gd|res:RC5|com-cf:nl|ptrs:na|ktp:N0|mc:22723|mtp:S|qry_typ:P|lang:en|wc:3|cs:7534|v=4,False,Town Hall,Coimbatore,"394, Oppanakara Street, Town Hall, Coimbatore - 641001, Dist.Coimbatore, Tamil Nadu",8047697480,
"Wosebal fiber Bavy Baby Mosquito Net, Size: Small",https://www.indiamart.com/proddetail/baby-mosquito-net-23149228162.html?pos=79&kwd=baby mosquito net&tags=A||||8228.275|Price|product|||TS|rsf:gd-|-qr_nm:gd|res:RC5|com-cf:nl|ptrs:na|ktp:N0|mc:22723|mtp:S|qry_typ:P|lang:en|wc:3|cs:7534|v=4,Tulsi Jiyana,https://www.indiamart.com/tulsijiyana/?pos=79&kwd=baby mosquito net&tags=A||||8228.275|Price|product|||TS|rsf:gd-|-qr_nm:gd|res:RC5|com-cf:nl|ptrs:na|ktp:N0|mc:22723|mtp:S|qry_typ:P|lang:en|wc:3|cs:7534|v=4,False,Nikol,Ahmedabad,"C/14, Parishram Park Society Opposite Sun City, Nikol, Ahmedabad - 380001, Dist.Ahmedabad, Gujarat",8046078640,
"Red Cotton Baby Mosquito Net, Size: Medium",https://www.indiamart.com/proddetail/red-cotton-baby-mosquito-net-8973032355.html?pos=80&kwd=baby mosquito net&tags=BA||||9839.57|Price|product|||MDC|rsf:gd-|-qr_nm:gd|res:RC5|com-cf:nl|ptrs:na|ktp:N0|mc:22723|mtp:S|qry_typ:P|lang:en|wc:3|cs:7534|v=4,Himalayan Packaging,https://www.indiamart.com/himalayan-packaging/?pos=80&kwd=baby mosquito net&tags=BA||||9839.57|Price|product|||MDC|rsf:gd-|-qr_nm:gd|res:RC5|com-cf:nl|ptrs:na|ktp:N0|mc:22723|mtp:S|qry_typ:P|lang:en|wc:3|cs:7534|v=4,False,Haltu,Kolkata,"Flat No. 2A, Block D, 2nd Floor, Louise Garden, 111/1 P Mazumder Road, Haltu, Kolkata - 700078, Dist.Kolkata, West Bengal",8047624557,
"Polyester Baby Mosquito Net Bed, For Home, Size: Small",https://www.indiamart.com/proddetail/baby-mosquito-net-bed-2853993466773.html?pos=81&kwd=baby mosquito net&tags=A||||8752.144|Price|product|||MDC|rsf:gd-|-qr_nm:gd|res:RC5|com-cf:nl|ptrs:na|ktp:N0|mc:22723|mtp:S|qry_typ:P|lang:en|wc:3|cs:7534|v=4,A.D. Enterprises,https://www.indiamart.com/adenterprises-burari-newdelhi/?pos=81&kwd=baby mosquito net&tags=A||||8752.144|Price|product|||MDC|rsf:gd-|-qr_nm:gd|res:RC5|com-cf:nl|ptrs:na|ktp:N0|mc:22723|mtp:S|qry_typ:P|lang:en|wc:3|cs:7534|v=4,False,North,New Delhi,"K.No-12/1, Main 25 FT. Road, Near Shyam Sweets, Uttranchal Enclave ,Kamal Pur, Burari, North, New Delhi - 110084, Dist.Delhi, Delhi",8044565004,
Zipper Plush Soft Fabric Baby Mosquito Net,https://www.indiamart.com/proddetail/baby-mosquito-net-21231601330.html?pos=82&kwd=baby mosquito net&tags=BA||||8778.123|Price|product|||TS|rsf:gd-|-qr_nm:gd|res:RC5|com-cf:nl|ptrs:na|ktp:N0|mc:22723|mtp:S|qry_typ:P|lang:en|wc:3|cs:7534|v=4,Oscar Overseas,https://www.oscar-india.com/?pos=82&kwd=baby mosquito net&tags=BA||||8778.123|Price|product|||TS|rsf:gd-|-qr_nm:gd|res:RC5|com-cf:nl|ptrs:na|ktp:N0|mc:22723|mtp:S|qry_typ:P|lang:en|wc:3|cs:7534|v=4,False,,Noida,"A-99 Sector 5, Noida - 201301, Dist.Gautam Budh Nagar, Uttar Pradesh",8046058290,
"Polyester Zip Closure Red Baby Mosquito Net, Size: Medium",https://www.indiamart.com/proddetail/red-baby-mosquito-net-2850954051373.html?pos=83&kwd=baby mosquito net&tags=BB||||8747.203|Price|product|||TS|rsf:gd-|-qr_nm:gd|res:RC5|com-cf:nl|ptrs:na|ktp:N0|mc:22723|mtp:S|qry_typ:P|lang:en|wc:3|cs:7534|v=4,N.K Handloom,https://www.indiamart.com/nk-handloom-panipat/?pos=83&kwd=baby mosquito net&tags=BB||||8747.203|Price|product|||TS|rsf:gd-|-qr_nm:gd|res:RC5|com-cf:nl|ptrs:na|ktp:N0|mc:22723|mtp:S|qry_typ:P|lang:en|wc:3|cs:7534|v=4,False,Pachranga Bazar,Panipat,"613/4, Near Valmiki Mandir, Pachranga Bazar, Pachranga Bazar, Panipat - 132103, Dist.Panipat, Haryana",7942827823,
For Home Nylon Baby Mosquito Net,https://www.indiamart.com/proddetail/baby-mosquito-net-22426812691.html?pos=84&kwd=baby mosquito net&tags=BB||||8601.347|Price|product|||TS|rsf:gd-|-qr_nm:gd|res:RC5|com-cf:nl|ptrs:na|ktp:N0|mc:22723|mtp:S|qry_typ:P|lang:en|wc:3|cs:7534|v=4,Pacicorp Organics Private Limited,https://www.pacificcorporation.in/?pos=84&kwd=baby mosquito net&tags=BB||||8601.347|Price|product|||TS|rsf:gd-|-qr_nm:gd|res:RC5|com-cf:nl|ptrs:na|ktp:N0|mc:22723|mtp:S|qry_typ:P|lang:en|wc:3|cs:7534|v=4,False,Barhmohanpura,Jaipur,"11-B, Sachivalaya Vihar, Opposite RIICO Industrial Area New Sanganer Road, Barhmohanpura, Jaipur - 302020, Dist.Jaipur, Rajasthan",8048986197,
"Newborn Baby Mosquito Net, For Home, Size: Small",https://www.indiamart.com/proddetail/newborn-baby-mosquito-net-2852128325362.html?pos=85&kwd=baby mosquito net&tags=BA||||8747.203||product|||TS|rsf:gd-|-qr_nm:gd|res:RC5|com-cf:nl|ptrs:na|ktp:N0|mc:22723|mtp:S|qry_typ:P|lang:en|wc:3|cs:7534|v=4,Karunamayi Textiles,https://www.indiamart.com/karunamayitextiles/?pos=85&kwd=baby mosquito net&tags=BA||||8747.203||product|||TS|rsf:gd-|-qr_nm:gd|res:RC5|com-cf:nl|ptrs:na|ktp:N0|mc:22723|mtp:S|qry_typ:P|lang:en|wc:3|cs:7534|v=4,False,Netaji Colony,Panipat,"19/7, Sethi Road, Netaji Colony, Panipat - 132103, Dist.Panipat, Haryana",8043891244,
"Baby Mosquito Net, For Home, Size: Medium",https://www.indiamart.com/proddetail/baby-mosquito-net-2852922503448.html?pos=86&kwd=baby mosquito net&tags=BA||||8752.144|Price|product|||TS|rsf:gd-|-qr_nm:gd|res:RC5|com-cf:nl|ptrs:na|ktp:N0|mc:22723|mtp:S|qry_typ:P|lang:en|wc:3|cs:7534|v=4,Dua Traders,https://www.indiamart.com/duatraders-delhi/?pos=86&kwd=baby mosquito net&tags=BA||||8752.144|Price|product|||TS|rsf:gd-|-qr_nm:gd|res:RC5|com-cf:nl|ptrs:na|ktp:N0|mc:22723|mtp:S|qry_typ:P|lang:en|wc:3|cs:7534|v=4,False,Mandoli,New Delhi,"Plot No. 8, Kh No. 4/24, Mela Ram Vatika, E-block, JR Complex No. 4, Mandoli, Sevadham, Mandoli, New Delhi - 110093, Dist.Delhi, Delhi",8048971741,
"T/C Zip Baby Mosquito Net, Size: Medium",https://www.indiamart.com/proddetail/baby-mosquito-net-24421201230.html?pos=87&kwd=baby mosquito net&tags=BB||||8752.144|Price|product|||TS|rsf:gd-|-qr_nm:gd|res:RC5|com-cf:nl|ptrs:na|ktp:N0|mc:22723|mtp:S|qry_typ:P|lang:en|wc:3|cs:7534|v=4,Man Singh & Sons Private Limited,https://www.babyproductsmanufacturer.com/?pos=87&kwd=baby mosquito net&tags=BB||||8752.144|Price|product|||TS|rsf:gd-|-qr_nm:gd|res:RC5|com-cf:nl|ptrs:na|ktp:N0|mc:22723|mtp:S|qry_typ:P|lang:en|wc:3|cs:7534|v=4,False,Karol Bagh,New Delhi,"No. 13/24, 1st Floor, W. E. A., Karol Bagh, Karol Bagh, New Delhi - 110005, Dist.Delhi, Delhi",8048978579,
"Polyester Baby Mosquito Net, For Home, Size: S M L",https://www.indiamart.com/proddetail/baby-mosquito-net-2852682698262.html?pos=88&kwd=baby mosquito net&tags=BA||||8211.142|Price|product|||TS|rsf:gd-|-qr_nm:gd|res:RC5|com-cf:nl|ptrs:na|ktp:N0|mc:22723|mtp:S|qry_typ:P|lang:en|wc:3|cs:7534|v=4,Parass Trading,https://www.indiamart.com/parasstrading/?pos=88&kwd=baby mosquito net&tags=BA||||8211.142|Price|product|||TS|rsf:gd-|-qr_nm:gd|res:RC5|com-cf:nl|ptrs:na|ktp:N0|mc:22723|mtp:S|qry_typ:P|lang:en|wc:3|cs:7534|v=4,False,Chembur,Mumbai,"Room no 3, First Floor, Plot no 39, Next to Shivaji Nagar police station,Kherwadi Plot no 39, Chembur, Mumbai - 400071, Dist.Mumbai, Maharashtra",8047631170,
Zipper Plush Soft Fabric Baby Mosquito Net,https://www.indiamart.com/proddetail/baby-mosquito-net-21231601330.html?pos=89&kwd=baby mosquito net&tags=BA||||8778.123|Price|product|||TS|rsf:gd-|-qr_nm:gd|res:RC5|com-cf:nl|ptrs:na|ktp:N0|mc:22723|mtp:S|qry_typ:P|lang:en|wc:3|cs:7534|v=4,Oscar Overseas,https://www.oscar-india.com/?pos=89&kwd=baby mosquito net&tags=BA||||8778.123|Price|product|||TS|rsf:gd-|-qr_nm:gd|res:RC5|com-cf:nl|ptrs:na|ktp:N0|mc:22723|mtp:S|qry_typ:P|lang:en|wc:3|cs:7534|v=4,False,,Noida,"A-99 Sector 5, Noida - 201301, Dist.Gautam Budh Nagar, Uttar Pradesh",8046058290,
"Polyester,And Foam( Mattress) Zipper Printed Baby Mosquito Net Bed, Size: Medium",https://www.indiamart.com/proddetail/printed-baby-mosquito-net-bed-22825079655.html?pos=90&kwd=baby mosquito net&tags=BA||||8211.142|Price|product|||TS|rsf:gd-|-qr_nm:gd|res:RC5|com-cf:nl|ptrs:na|ktp:N0|mc:22723|mtp:S|qry_typ:P|lang:en|wc:3|cs:7534|v=4,Child King Creation,https://www.indiamart.com/childkingcreation-mumbai/?pos=90&kwd=baby mosquito net&tags=BA||||8211.142|Price|product|||TS|rsf:gd-|-qr_nm:gd|res:RC5|com-cf:nl|ptrs:na|ktp:N0|mc:22723|mtp:S|qry_typ:P|lang:en|wc:3|cs:7534|v=4,False,Malad West,Mumbai,"B 705, Seven Floor, Jagmagia Centre, Mamlatdar Wadi EXTN Road Nahar Nagar, Malad West, Suburban, Malad West, Mumbai - 400064, Dist.Mumbai, Maharashtra",8043805922,
"Foldable Baby Mosquito Net, For Home, Size: Small",https://www.indiamart.com/proddetail/foldable-baby-mosquito-net-2850055701791.html?pos=91&kwd=baby mosquito net&tags=BB||||8741.987|Price|product|||TS|rsf:gd-|-qr_nm:gd|res:RC5|com-cf:nl|ptrs:na|ktp:N0|mc:22723|mtp:S|qry_typ:P|lang:en|wc:3|cs:7534|v=4,Raghav Traders,https://www.raghavtraders.com/?pos=91&kwd=baby mosquito net&tags=BB||||8741.987|Price|product|||TS|rsf:gd-|-qr_nm:gd|res:RC5|com-cf:nl|ptrs:na|ktp:N0|mc:22723|mtp:S|qry_typ:P|lang:en|wc:3|cs:7534|v=4,False,Rk Colony,Ambala,"111/12, Railway Road, Near Government College, Rk Colony, Ambala - 133001, Dist.Ambala, Haryana",8047307147,
Baby Mosquito Net Bed/ Baby Mosquito Net Bed With Pillow/ Newborn Baby Mosquito Net,https://www.indiamart.com/proddetail/baby-mosquito-net-bed-baby-mosquito-net-bed-with-pillow-newborn-baby-mosquito-net-2851064602412.html?pos=92&kwd=baby mosquito net&tags=BA||||8752.144|Price|product|||TS|rsf:gd-|-qr_nm:gd|res:RC5|com-cf:nl|ptrs:na|ktp:N0|mc:22723|mtp:S|qry_typ:P|lang:en|wc:3|cs:7534|v=4,Mom & Son,https://www.theindianchoice.com/?pos=92&kwd=baby mosquito net&tags=BA||||8752.144|Price|product|||TS|rsf:gd-|-qr_nm:gd|res:RC5|com-cf:nl|ptrs:na|ktp:N0|mc:22723|mtp:S|qry_typ:P|lang:en|wc:3|cs:7534|v=4,False,Karawal Nagar,New Delhi,"B-57 Gali Number-1 Mukund Vihar, Near Pnb Bank, Karawal Nagar, New Delhi - 110094, Dist.Delhi, Delhi",7942565509,
Baby Mosquito Net,https://www.indiamart.com/proddetail/baby-mosquito-net-2854133957962.html?pos=93&kwd=baby mosquito net&tags=BA||||8230.883|Price|product|||TS|rsf:gd-|-qr_nm:gd|res:RC5|com-cf:nl|ptrs:na|ktp:N0|mc:22723|mtp:S|qry_typ:P|lang:en|wc:3|cs:7534|v=4,Shreeji Retails,https://www.thesajanihouse.com/?pos=93&kwd=baby mosquito net&tags=BA||||8230.883|Price|product|||TS|rsf:gd-|-qr_nm:gd|res:RC5|com-cf:nl|ptrs:na|ktp:N0|mc:22723|mtp:S|qry_typ:P|lang:en|wc:3|cs:7534|v=4,False,Alankar Society,Surat,"PLOT NO- 17, OM SATYAM NAGAR SOC., DABHOLI CHAR RASTA, VED ROAD, Alankar Society, Surat - 395004, Dist.Surat, Gujarat",8047654270,
"Cotton Newborn Baby Foldable Mosquito Net, Size: Medium",https://www.indiamart.com/proddetail/newborn-baby-foldable-mosquito-net-2854060766555.html?pos=94&kwd=baby mosquito net&tags=BA||||8752.144|Price|product|||TS|rsf:gd-|-qr_nm:gd|res:RC5|com-cf:nl|ptrs:na|ktp:N0|mc:22723|mtp:S|qry_typ:P|lang:en|wc:3|cs:7534|v=4,Fun Play Enterprises,https://www.funplayenterprises.in/?pos=94&kwd=baby mosquito net&tags=BA||||8752.144|Price|product|||TS|rsf:gd-|-qr_nm:gd|res:RC5|com-cf:nl|ptrs:na|ktp:N0|mc:22723|mtp:S|qry_typ:P|lang:en|wc:3|cs:7534|v=4,False,Karala,New Delhi,"G Floor, KH No 72/20, Block B, Utsav Vihar, Village Karala, North West Delhi, Karala, New Delhi - 110081, Dist.Delhi, Delhi",7942829879,
"Polyester Baby Mosquito Net, For Window, Size: Small",https://www.indiamart.com/proddetail/baby-mosquito-net-2850368390830.html?pos=95&kwd=baby mosquito net&tags=BA||||8752.144||product|||TS|rsf:gd-|-qr_nm:gd|res:RC5|com-cf:nl|ptrs:na|ktp:N0|mc:22723|mtp:S|qry_typ:P|lang:en|wc:3|cs:7534|v=4,ANC Manufacturers,https://www.indiamart.com/anc-manufacturers/?pos=95&kwd=baby mosquito net&tags=BA||||8752.144||product|||TS|rsf:gd-|-qr_nm:gd|res:RC5|com-cf:nl|ptrs:na|ktp:N0|mc:22723|mtp:S|qry_typ:P|lang:en|wc:3|cs:7534|v=4,False,Janakpuri,New Delhi,"RZ-9 Second Floor, Pankha Road, Janakpuri, New Delhi - 110045, Dist.Delhi, Delhi",8047547991,
"Polyester Zip Closure Red Baby Mosquito Net, Size: Medium",https://www.indiamart.com/proddetail/red-baby-mosquito-net-2850954051373.html?pos=96&kwd=baby mosquito net&tags=BB||||8747.203|Price|product|||TS|rsf:gd-|-qr_nm:gd|res:RC5|com-cf:nl|ptrs:na|ktp:N0|mc:22723|mtp:S|qry_typ:P|lang:en|wc:3|cs:7534|v=4,N.K Handloom,https://www.indiamart.com/nk-handloom-panipat/?pos=96&kwd=baby mosquito net&tags=BB||||8747.203|Price|product|||TS|rsf:gd-|-qr_nm:gd|res:RC5|com-cf:nl|ptrs:na|ktp:N0|mc:22723|mtp:S|qry_typ:P|lang:en|wc:3|cs:7534|v=4,False,Pachranga Bazar,Panipat,"613/4, Near Valmiki Mandir, Pachranga Bazar, Pachranga Bazar, Panipat - 132103, Dist.Panipat, Haryana",7942827823,
Baby Mosquito Net Beds,https://www.indiamart.com/proddetail/baby-mosquito-net-beds-3544868630.html?pos=97&kwd=baby mosquito net&tags=BA||||8211.142|Price|product|||TS|rsf:gd-|-qr_nm:gd|res:RC5|com-cf:nl|ptrs:na|ktp:N0|mc:22723|mtp:S|qry_typ:P|lang:en|wc:3|cs:7534|v=4,Dhrupti Creation,https://www.indiamart.com/littlecare/?pos=97&kwd=baby mosquito net&tags=BA||||8211.142|Price|product|||TS|rsf:gd-|-qr_nm:gd|res:RC5|com-cf:nl|ptrs:na|ktp:N0|mc:22723|mtp:S|qry_typ:P|lang:en|wc:3|cs:7534|v=4,False,Malad East,Mumbai,"Gala No. 3, Jignesh Diamond House, Near Vaishnavdevi Mandir, Subhash Lane, Malad East, Malad East, Mumbai - 400097, Dist.Mumbai, Maharashtra",8048970316,
"Polyester (Net), Mattress (Cotton) New Born Baby Foldable Mosquito Net, For Home",https://www.indiamart.com/proddetail/new-born-baby-foldable-mosquito-net-22043625888.html?pos=98&kwd=baby mosquito net&tags=BA||||8752.144|Price|product|||TS|rsf:gd-|-qr_nm:gd|res:RC5|com-cf:nl|ptrs:na|ktp:N0|mc:22723|mtp:S|qry_typ:P|lang:en|wc:3|cs:7534|v=4,Joginder Singh & Sons,https://www.indiamart.com/jogindersinghsons-delhi/?pos=98&kwd=baby mosquito net&tags=BA||||8752.144|Price|product|||TS|rsf:gd-|-qr_nm:gd|res:RC5|com-cf:nl|ptrs:na|ktp:N0|mc:22723|mtp:S|qry_typ:P|lang:en|wc:3|cs:7534|v=4,False,Lahori Gate,New Delhi,"5167,Lahori Gate,,Lahori Gate, Lahori Gate, New Delhi - 110006, Dist.Delhi, Delhi",8046030807,
"Fiber Zipper Baby Mosquito Net Bed, Size: Medium",https://www.indiamart.com/proddetail/baby-mosquito-net-bed-22170553791.html?pos=99&kwd=baby mosquito net&tags=BA||||8584.299|Price|product|||TS|rsf:gd-|-qr_nm:gd|res:RC5|com-cf:nl|ptrs:na|ktp:N0|mc:22723|mtp:S|qry_typ:P|lang:en|wc:3|cs:7534|v=4,Vimal Associates,https://www.vimalfibres.com/?pos=99&kwd=baby mosquito net&tags=BA||||8584.299|Price|product|||TS|rsf:gd-|-qr_nm:gd|res:RC5|com-cf:nl|ptrs:na|ktp:N0|mc:22723|mtp:S|qry_typ:P|lang:en|wc:3|cs:7534|v=4,False,Ganapathy,Coimbatore,"1 A, Kasthuribai 3rd Street., Ganapathy, Coimbatore - 641006, Dist.Coimbatore, Tamil Nadu",7942565591,
Poly Cotton Baby Mosquito Net,https://www.indiamart.com/proddetail/poly-cotton-baby-mosquito-net-22140825412.html?pos=100&kwd=baby mosquito net&tags=BB||||8778.123||product|||TS|rsf:gd-|-qr_nm:gd|res:RC5|com-cf:nl|ptrs:na|ktp:N0|mc:22723|mtp:S|qry_typ:P|lang:en|wc:3|cs:7534|v=4,Shri Ram Textile,https://www.indiamart.com/shri-ram-textile/?pos=100&kwd=baby mosquito net&tags=BB||||8778.123||product|||TS|rsf:gd-|-qr_nm:gd|res:RC5|com-cf:nl|ptrs:na|ktp:N0|mc:22723|mtp:S|qry_typ:P|lang:en|wc:3|cs:7534|v=4,False,Sector 4,Noida,"Shop No. 7, Chauhan Market, Near Petrol Pump, Chhalera, Sector 44, GB Nagar, Sector 4, Noida - 201301, Dist.Gautam Budh Nagar, Uttar Pradesh",7942552502,
Baby Mosquito Net Bed,,Preeti Textiles,https://www.indiamart.com/preetitextiles/?pos=101&kwd=baby mosquito net&tags=BA||||8559.269|Price|product|||TS|rsf:gd-|-qr_nm:gd|res:RC5|com-cf:nl|ptrs:na|ktp:N0|mc:22723|mtp:S|qry_typ:P|lang:en|wc:3|cs:7534|v=4,False,Vyankatesh Nagar,Indore,"133-134, 2nd Floor, Muchhal Chamber, MT Cloth Market, Vyankatesh Nagar, Indore - 452009, Dist.Indore, Madhya Pradesh",8048600421,
"Cotton,Net Zipper Baby Mosquito Net Bed",https://www.indiamart.com/proddetail/baby-mosquito-net-bed-23059827888.html?pos=102&kwd=baby mosquito net&tags=BA||||8281.036|Price|product|||TS|rsf:gd-|-qr_nm:gd|res:RC5|com-cf:nl|ptrs:na|ktp:N0|mc:22723|mtp:S|qry_typ:P|lang:en|wc:3|cs:7534|v=4,New Era,https://www.indiamart.com/new-era-vadodara/?pos=102&kwd=baby mosquito net&tags=BA||||8281.036|Price|product|||TS|rsf:gd-|-qr_nm:gd|res:RC5|com-cf:nl|ptrs:na|ktp:N0|mc:22723|mtp:S|qry_typ:P|lang:en|wc:3|cs:7534|v=4,False,Bapunagar,Vadodara,"G-59 Warasia Ring Road Chaturbhai Park Society Warshiya Main Road, Bapunagar, Vadodara - 390006, Dist.Vadodara, Gujarat",8047768024,
Zipper Baby Sleeping Mosquito Net,https://www.indiamart.com/proddetail/baby-sleeping-mosquito-net-11906880097.html?pos=103&kwd=baby mosquito net&tags=BA||||8752.144|Price|product|||TS|rsf:gd-|-qr_nm:gd|res:RC5|com-cf:nl|ptrs:na|ktp:N0|mc:22723|mtp:S|qry_typ:P|lang:en|wc:3|cs:7534|v=4,Chinmay Kids,https://www.indiamart.com/chinmaykids/?pos=103&kwd=baby mosquito net&tags=BA||||8752.144|Price|product|||TS|rsf:gd-|-qr_nm:gd|res:RC5|com-cf:nl|ptrs:na|ktp:N0|mc:22723|mtp:S|qry_typ:P|lang:en|wc:3|cs:7534|v=4,False,Nayagaon,New Delhi,"C-99, Street No. 4, First Pusta, Nayagaon, New Delhi - 110053, Dist.Delhi, Delhi",8046054858,
"Polyester Baby Mosquito Net Bed, For Home",https://www.indiamart.com/proddetail/baby-mosquito-net-bed-27280157848.html?pos=104&kwd=baby mosquito net&tags=BA||||8752.144|Price|product|||TS|rsf:gd-|-qr_nm:gd|res:RC5|com-cf:nl|ptrs:na|ktp:N0|mc:22723|mtp:S|qry_typ:P|lang:en|wc:3|cs:7534|v=4,Taj Cap House,https://www.alummatcap.com/?pos=104&kwd=baby mosquito net&tags=BA||||8752.144|Price|product|||TS|rsf:gd-|-qr_nm:gd|res:RC5|com-cf:nl|ptrs:na|ktp:N0|mc:22723|mtp:S|qry_typ:P|lang:en|wc:3|cs:7534|v=4,False,Nizamuddin West,New Delhi,"T-396, Floor, Basti Nizamuddin, South Delhi, Nizamuddin West, New Delhi - 110013, Dist.Delhi, Delhi",8047632322,
"Polyester Fibers Cotton Baby Mosquito Net Beds, Size: XL",https://www.indiamart.com/proddetail/baby-mosquito-net-beds-22933608197.html?pos=105&kwd=baby mosquito net&tags=BA||||8584.299|Price|product|||TS|rsf:gd-|-qr_nm:gd|res:RC5|com-cf:nl|ptrs:na|ktp:N0|mc:22723|mtp:S|qry_typ:P|lang:en|wc:3|cs:7534|v=4,Sag Industries,https://www.sagbabygro.com/?pos=105&kwd=baby mosquito net&tags=BA||||8584.299|Price|product|||TS|rsf:gd-|-qr_nm:gd|res:RC5|com-cf:nl|ptrs:na|ktp:N0|mc:22723|mtp:S|qry_typ:P|lang:en|wc:3|cs:7534|v=4,False,Ashok Nagar,Coimbatore,"59,,SRI KRISHNA NAGAR,CHOKKAMPUDUR ROAD, Ashok Nagar, Coimbatore - 641001, Dist.Coimbatore, Tamil Nadu",8048959921,
"Newborn Baby Mosquito Net With Bed, For Home, Size: Medium",https://www.indiamart.com/proddetail/newborn-baby-mosquito-net-with-bed-26212068055.html?pos=106&kwd=baby mosquito net&tags=BA||||8747.203|Price|product|||TS|rsf:gd-|-qr_nm:gd|res:RC5|com-cf:nl|ptrs:na|ktp:N0|mc:22723|mtp:S|qry_typ:P|lang:en|wc:3|cs:7534|v=4,Samraj Home Decor,https://www.samrajhomedecor.com/?pos=106&kwd=baby mosquito net&tags=BA||||8747.203|Price|product|||TS|rsf:gd-|-qr_nm:gd|res:RC5|com-cf:nl|ptrs:na|ktp:N0|mc:22723|mtp:S|qry_typ:P|lang:en|wc:3|cs:7534|v=4,False,Chowk,Panipat,"945/8, Sanoli Road, Near Bhim Goda Chowk, Chowk, Panipat - 132103, Dist.Panipat, Haryana",8046065498,
Cotton Baby Bed With Mosquito Net,https://www.indiamart.com/proddetail/baby-bed-with-mosquito-net-4314637348.html?pos=107&kwd=baby mosquito net&tags=BA||||8785.791|Price|product|||TS|rsf:gd-|-qr_nm:gd|res:RC5|com-cf:nl|ptrs:na|ktp:N0|mc:22723|mtp:S|qry_typ:P|lang:en|wc:3|cs:7534|v=4,Ilaki Intercraft (India),https://www.indiamart.com/ilakiintercraft/?pos=107&kwd=baby mosquito net&tags=BA||||8785.791|Price|product|||TS|rsf:gd-|-qr_nm:gd|res:RC5|com-cf:nl|ptrs:na|ktp:N0|mc:22723|mtp:S|qry_typ:P|lang:en|wc:3|cs:7534|v=4,False,Tronica City,Ghaziabad,"D-69 Sector D-1 Tronica City, Tronica City, Ghaziabad - 201103, Dist.Ghaziabad, Uttar Pradesh",7942552124,
Red Cotton Baby Printed Mosquito Net Bed,https://www.indiamart.com/proddetail/baby-printed-mosquito-net-bed-20687881648.html?pos=108&kwd=baby mosquito net&tags=BB||||8559.269|Price|product|||TS|rsf:gd-|-qr_nm:gd|res:RC5|com-cf:nl|ptrs:na|ktp:N0|mc:22723|mtp:S|qry_typ:P|lang:en|wc:3|cs:7534|v=4,Daga Impex,https://www.dagaimpex.co.in/?pos=108&kwd=baby mosquito net&tags=BB||||8559.269|Price|product|||TS|rsf:gd-|-qr_nm:gd|res:RC5|com-cf:nl|ptrs:na|ktp:N0|mc:22723|mtp:S|qry_typ:P|lang:en|wc:3|cs:7534|v=4,False,Rajwada,Indore,"No. 214, Tilak Path, Near Maruti Hanuman Mandir, Rajwada, Indore - 452007, Dist.Indore, Madhya Pradesh",8046030945,
"Cotton Babyzone Mosquito Net cum Bedding Mosquito Net For Baby Boys and Girls, For Home, Size: Free",https://www.indiamart.com/proddetail/baby-mosquito-net-cum-bedding-set-2851596108591.html?pos=109&kwd=baby mosquito net&tags=BA||||8661.854|Price|product|||TS|rsf:gd-|-qr_nm:gd|res:RC5|com-cf:nl|ptrs:na|ktp:N0|mc:22723|mtp:S|qry_typ:P|lang:en|wc:3|cs:7534|v=4,Aggarwal Creations,https://www.aggarwalcreations.com/?pos=109&kwd=baby mosquito net&tags=BA||||8661.854|Price|product|||TS|rsf:gd-|-qr_nm:gd|res:RC5|com-cf:nl|ptrs:na|ktp:N0|mc:22723|mtp:S|qry_typ:P|lang:en|wc:3|cs:7534|v=4,False,Ramesh Nagar,Ludhiana,"Geeta Nagar, Street No. 7, Tajpur Road, Ramesh Nagar, Ludhiana - 141008, Dist.Ludhiana, Punjab",8048962321,
Cotton Foldable Baby Bedding With Pillow & Mosquito Net,https://www.indiamart.com/proddetail/baby-bedding-with-pillow-mosquito-net-21581327897.html?pos=110&kwd=baby mosquito net&tags=BA||||8752.144|Price|product|||TS|rsf:gd-|-qr_nm:gd|res:RC5|com-cf:nl|ptrs:na|ktp:N0|mc:22723|mtp:S|qry_typ:P|lang:en|wc:3|cs:7534|v=4,Giriraj Enterprises,https://www.indiamart.com/giriraj-enterprises-delhi/?pos=110&kwd=baby mosquito net&tags=BA||||8752.144|Price|product|||TS|rsf:gd-|-qr_nm:gd|res:RC5|com-cf:nl|ptrs:na|ktp:N0|mc:22723|mtp:S|qry_typ:P|lang:en|wc:3|cs:7534|v=4,False,Shakurpur,New Delhi,"WZ 313 A, Shakurpur Village, Shakurpur, New Delhi - 110034, Dist.Delhi, Delhi",8048262415,
Blue Folding Kids Mosquito Net,https://www.indiamart.com/proddetail/blue-folding-kids-mosquito-net-15897752073.html?pos=111&kwd=baby mosquito net&tags=BA||||8230.883|Price|product|||TS|rsf:gd-|-qr_nm:gd|res:RC5|com-cf:nl|ptrs:na|ktp:N0|mc:22723|mtp:S|qry_typ:P|lang:en|wc:3|cs:7534|v=4,Young India Impex,https://www.youngindiaimpex.in/?pos=111&kwd=baby mosquito net&tags=BA||||8230.883|Price|product|||TS|rsf:gd-|-qr_nm:gd|res:RC5|com-cf:nl|ptrs:na|ktp:N0|mc:22723|mtp:S|qry_typ:P|lang:en|wc:3|cs:7534|v=4,False,L.P.Savani,Surat,"Anekant, B - 15, Surbhi Society, Near L. P. Savani School Honey Park Road, Adajan, L.P.Savani, Surat - 395005, Dist.Surat, Gujarat",8047631985,
Baby Mosquito Net,,Bankey Bihari Enterprises,https://www.indiamart.com/bankey-bihari-enterprisesnewdelhi/?pos=112&kwd=baby mosquito net&tags=BA||||8752.144|Price|product|||TS|rsf:gd-|-qr_nm:gd|res:RC5|com-cf:nl|ptrs:na|ktp:N0|mc:22723|mtp:S|qry_typ:P|lang:en|wc:3|cs:7534|v=4,False,Jahangirpuri,New Delhi,"Plot No 51 First Floor Street No 11 Harijan Colony Village Bhalsva, Jahangirpuri, New Delhi - 110033, Dist.Delhi, Delhi",7942825166,
"Zipper Cotton Baby Net Bed, Size: Small",https://www.indiamart.com/proddetail/baby-net-bed-20995612248.html?pos=113&kwd=baby mosquito net&tags=BB||||8752.144|Price|product|||TS|rsf:gd-|-qr_nm:gd|res:RC5|com-cf:nl|ptrs:na|ktp:N0|mc:22723|mtp:S|qry_typ:P|lang:en|wc:3|cs:7534|v=4,NK Enterprises,https://www.smartonlineselling.com/?pos=113&kwd=baby mosquito net&tags=BB||||8752.144|Price|product|||TS|rsf:gd-|-qr_nm:gd|res:RC5|com-cf:nl|ptrs:na|ktp:N0|mc:22723|mtp:S|qry_typ:P|lang:en|wc:3|cs:7534|v=4,False,Nangloi,New Delhi,"F-29, DSIDC Complex, Main Rohtak Road, Nangloi, New Delhi - 110041, Dist.Delhi, Delhi",8048611321,
"Organic Cotton Baby Cradle Mosquito Net Manufacturer from India, Normal Weight",https://www.indiamart.com/proddetail/organic-cotton-baby-cradle-mosquito-net-manufacturer-from-india-20972417873.html?pos=114&kwd=baby mosquito net&tags=BA||||8668.838|Price|product|||TS|rsf:gd-|-qr_nm:gd|res:RC5|com-cf:nl|ptrs:na|ktp:N0|mc:22723|mtp:S|qry_typ:P|lang:en|wc:3|cs:7534|v=4,Sri Kalyan Export Private Limited,https://www.firstinbabydress.com/?pos=114&kwd=baby mosquito net&tags=BA||||8668.838|Price|product|||TS|rsf:gd-|-qr_nm:gd|res:RC5|com-cf:nl|ptrs:na|ktp:N0|mc:22723|mtp:S|qry_typ:P|lang:en|wc:3|cs:7534|v=4,False,Vilarasampatti,Erode,"192/4, Ishwarya Garden, Sengodampalayam, Villarasampatti Post, Erode,, Vilarasampatti, Erode - 638107, Dist.Erode, Tamil Nadu",8046030291,
Newborn Baby Sleeping Mat Bedding Set With Mosquito Net New Born Infants Machardani Sleeping Bed,https://www.indiamart.com/proddetail/newborn-baby-sleeping-mat-bedding-set-with-mosquito-net-new-born-infants-machardani-sleeping-bed-25694664297.html?pos=115&kwd=baby mosquito net&tags=BA||||8752.144|Price|product|||TS|rsf:gd-|-qr_nm:gd|res:RC5|com-cf:nl|ptrs:na|ktp:N0|mc:22723|mtp:S|qry_typ:P|lang:en|wc:3|cs:7534|v=4,Ashish Trading Co.,https://www.indiamart.com/ashish-trading/?pos=115&kwd=baby mosquito net&tags=BA||||8752.144|Price|product|||TS|rsf:gd-|-qr_nm:gd|res:RC5|com-cf:nl|ptrs:na|ktp:N0|mc:22723|mtp:S|qry_typ:P|lang:en|wc:3|cs:7534|v=4,False,Shalimar Bagh,New Delhi,"BC- 67 A, East Shalimar Bagh, Kela Godown Road Shalimar, Shalimar Bagh, New Delhi - 110088, Dist.Delhi, Delhi",8048979347,
"For Window Mosquito Nets Bed, Size: Medium",,Lal G Accessories,https://www.indiamart.com/lalgaccessories/?pos=116&kwd=baby mosquito net&tags=BB||||8752.144|Price|product|||TS|rsf:gd-|-qr_nm:gd|res:RC5|com-cf:nl|ptrs:na|ktp:N0|mc:22723|mtp:S|qry_typ:P|lang:en|wc:3|cs:7534|v=4,False,Karol Bagh,New Delhi,"No. 1469/24, Naiwala, Karol Bagh In No. 24 Street, Karol Bagh, New Delhi - 110005, Dist.Delhi, Delhi",8048952856,
Crib Netting Cover Easy Installation Baby Nets Cover for Newborn Toddler Kids Blue,https://www.indiamart.com/proddetail/crib-netting-cover-easy-installation-baby-nets-cover-for-newborn-toddler-kids-blue-2854080629948.html?pos=117&kwd=baby mosquito net&tags=BA||||8211.142|Price|product|||TS|rsf:gd-|-qr_nm:gd|res:RC5|com-cf:nl|ptrs:na|ktp:N0|mc:22723|mtp:S|qry_typ:P|lang:en|wc:3|cs:7534|v=4,Burhani Novelties,https://www.burhaninovelties.in/?pos=117&kwd=baby mosquito net&tags=BA||||8211.142|Price|product|||TS|rsf:gd-|-qr_nm:gd|res:RC5|com-cf:nl|ptrs:na|ktp:N0|mc:22723|mtp:S|qry_typ:P|lang:en|wc:3|cs:7534|v=4,False,Mandvi,Mumbai,"Shop - 2, Grd Floor, Bhaji Pala Lane, 53, Burhani House, Shaikh Mohammed Ali, Allabux Road Nagdevi, Mandvi, Mandvi, Mumbai - 400003, Dist.Mumbai, Maharashtra",8043891100,
Baby Mosquito Net,https://www.indiamart.com/proddetail/baby-mosquito-net-2853860016733.html?pos=118&kwd=baby mosquito net&tags=BA||||8559.269||product|||MDC|rsf:gd-|-qr_nm:gd|res:RC5|com-cf:nl|ptrs:na|ktp:N0|mc:22723|mtp:S|qry_typ:P|lang:en|wc:3|cs:7534|v=4,Indore Fabricators,https://www.indiamart.com/indore-fabricators/?pos=118&kwd=baby mosquito net&tags=BA||||8559.269||product|||MDC|rsf:gd-|-qr_nm:gd|res:RC5|com-cf:nl|ptrs:na|ktp:N0|mc:22723|mtp:S|qry_typ:P|lang:en|wc:3|cs:7534|v=4,False,Kalani Nagar,Indore,"570, Kalani Nagar, Kalani Nagar, Indore - 452005, Dist.Indore, Madhya Pradesh",7949373628,
Cotton Baby Playgym with Mosquito Net,https://www.indiamart.com/proddetail/baby-playgym-with-mosquito-net-2853514453133.html?pos=119&kwd=baby mosquito net&tags=BA||||8307.81|Price|product|||MDC|rsf:gd-|-qr_nm:gd|res:RC5|com-cf:nl|ptrs:na|ktp:N0|mc:22723|mtp:S|qry_typ:P|lang:en|wc:3|cs:7534|v=4,Tabaria Baby Mall,https://www.indiamart.com/tabaria-baby-mallpune/?pos=119&kwd=baby mosquito net&tags=BA||||8307.81|Price|product|||MDC|rsf:gd-|-qr_nm:gd|res:RC5|com-cf:nl|ptrs:na|ktp:N0|mc:22723|mtp:S|qry_typ:P|lang:en|wc:3|cs:7534|v=4,False,Raviwar Peth,Pune,"1088,Manish Market,Raviwar Peth, Raviwar Peth, Pune - 411002, Dist.Pune, Maharashtra",7949092418,
Foldable Baby Mosquito Net,https://www.indiamart.com/proddetail/foldable-baby-mosquito-net-16881291788.html?pos=120&kwd=baby mosquito net&tags=BA||||8813.969|Price|product|||MDC|rsf:gd-|-qr_nm:gd|res:RC5|com-cf:nl|ptrs:na|ktp:N0|mc:22723|mtp:S|qry_typ:P|lang:en|wc:3|cs:7534|v=4,Ayan Readymade,https://www.indiamart.com/ayanreadymade/?pos=120&kwd=baby mosquito net&tags=BA||||8813.969|Price|product|||MDC|rsf:gd-|-qr_nm:gd|res:RC5|com-cf:nl|ptrs:na|ktp:N0|mc:22723|mtp:S|qry_typ:P|lang:en|wc:3|cs:7534|v=4,False,Bajaut,Meerut,"H No 755, Gali No. 4, Mmin Nagar,, Bajaut, Meerut - 250002, Dist.Meerut, Uttar Pradesh",8046066727,
"Polyester Baby Mosquito Net, For Home, Size: Medium",https://www.indiamart.com/proddetail/baby-mosquito-net-25453142812.html?pos=121&kwd=baby mosquito net&tags=BA||||8223.226|Price|product|||MDC|rsf:gd-|-qr_nm:gd|res:RC5|com-cf:nl|ptrs:na|ktp:N0|mc:22723|mtp:S|qry_typ:P|lang:en|wc:3|cs:7534|v=4,Wecare Solutions,https://www.indiamart.com/wecare-solutions/?pos=121&kwd=baby mosquito net&tags=BA||||8223.226|Price|product|||MDC|rsf:gd-|-qr_nm:gd|res:RC5|com-cf:nl|ptrs:na|ktp:N0|mc:22723|mtp:S|qry_typ:P|lang:en|wc:3|cs:7534|v=4,False,Valiv,Thane,"Gala No. F-19-20, 1st Floor, Rajprabha Anand Industrial Estate Naikpada, Waliv, Valiv, Thane - 401208, Dist.Thane, Maharashtra",8047631791,
Baby Mosquito Net,https://www.indiamart.com/proddetail/baby-mosquito-net-2854131870730.html?pos=122&kwd=baby mosquito net&tags=BA||||8230.883|Price|product|||MDC|rsf:gd-|-qr_nm:gd|res:RC5|com-cf:nl|ptrs:na|ktp:N0|mc:22723|mtp:S|qry_typ:P|lang:en|wc:3|cs:7534|v=4,Krishna Enterprise,https://www.indiamart.com/krishnaenterprise-surat-gujaratindia/?pos=122&kwd=baby mosquito net&tags=BA||||8230.883|Price|product|||MDC|rsf:gd-|-qr_nm:gd|res:RC5|com-cf:nl|ptrs:na|ktp:N0|mc:22723|mtp:S|qry_typ:P|lang:en|wc:3|cs:7534|v=4,False,Mankna,Surat,"Plot No-3 Block No.278 Krishna Residency Vibhag-2 Mankna, Mankna, Surat - 394325, Dist.Surat, Gujarat",7942708926,
"Kolar India Polyester Baby Mosquito Net, Size: 42x28x13.5 Inch",https://www.indiamart.com/proddetail/baby-mosquito-net-20959600091.html?pos=123&kwd=baby mosquito net&tags=BA||||9839.57|Price|product|||MDC|rsf:gd-|-qr_nm:gd|res:RC5|com-cf:nl|ptrs:na|ktp:N0|mc:22723|mtp:S|qry_typ:P|lang:en|wc:3|cs:7534|v=4,Kolar India,https://www.indiamart.com/kolarindia/?pos=123&kwd=baby mosquito net&tags=BA||||9839.57|Price|product|||MDC|rsf:gd-|-qr_nm:gd|res:RC5|com-cf:nl|ptrs:na|ktp:N0|mc:22723|mtp:S|qry_typ:P|lang:en|wc:3|cs:7534|v=4,False,Strand Road,Kolkata,"56, Jamunalal Bajaj Street, 1st Floor, Strand Road, Kolkata - 700007, Dist.Kolkata, West Bengal",8048261979,
Baby Mosquito Net,https://www.indiamart.com/proddetail/baby-mosquito-net-20701032488.html?pos=124&kwd=baby mosquito net&tags=BA||||8545.6045|Price|product|||MDC|rsf:gd-|-qr_nm:gd|res:RC5|com-cf:nl|ptrs:na|ktp:N0|mc:22723|mtp:S|qry_typ:P|lang:en|wc:3|cs:7534|v=4,Shri Siddhivinayak Traders,https://www.indiamart.com/shrisiddhivinayaktraders-firozpur/?pos=124&kwd=baby mosquito net&tags=BA||||8545.6045|Price|product|||MDC|rsf:gd-|-qr_nm:gd|res:RC5|com-cf:nl|ptrs:na|ktp:N0|mc:22723|mtp:S|qry_typ:P|lang:en|wc:3|cs:7534|v=4,False,Basti Nizamdin,Firozpur,"No.94, Anand Avenue, Backside Marked Office, Malwal Road, Firozpur City, Basti Nizamdin, Firozpur - 152002, Dist.Firozpur, Punjab",8046066644,
Portable Baby Mosquito Net,https://www.indiamart.com/proddetail/portable-baby-mosquito-net-2853523189755.html?pos=125&kwd=baby mosquito net&tags=BA||||8752.144|Price|product|||MDC|rsf:gd-|-qr_nm:gd|res:RC5|com-cf:nl|ptrs:na|ktp:N0|mc:22723|mtp:S|qry_typ:P|lang:en|wc:3|cs:7534|v=4,Santosh Enterprises,https://www.indiamart.com/santosh-enterprises-delhiindia/?pos=125&kwd=baby mosquito net&tags=BA||||8752.144|Price|product|||MDC|rsf:gd-|-qr_nm:gd|res:RC5|com-cf:nl|ptrs:na|ktp:N0|mc:22723|mtp:S|qry_typ:P|lang:en|wc:3|cs:7534|v=4,False,North Delhi,New Delhi,"Ground Floor A 44 Khera Garhi Colony Gali No 01, North Delhi, New Delhi - 110082, Dist.Delhi, Delhi",8047837949,
"Baby Mosquito Net, Size: Medium",,Mahi Hosiery,https://www.indiamart.com/mahi-hosierydelhi/?pos=126&kwd=baby mosquito net&tags=BA||||8752.144|Price|product|||MDC|rsf:gd-|-qr_nm:gd|res:RC5|com-cf:nl|ptrs:na|ktp:N0|mc:22723|mtp:S|qry_typ:P|lang:en|wc:3|cs:7534|v=4,False,Shastri Nagar,New Delhi,"144, Second Floor, Gali No-5, New Main Road, New Lahore Colony, Shastri Nagar, Shastri Nagar, New Delhi - 110031, Dist.Delhi, Delhi",8047699176,
"Cotton Baby Mosquito Net, Size: Small",https://www.indiamart.com/proddetail/baby-mosquito-net-2853606701288.html?pos=127&kwd=baby mosquito net&tags=BA||||8737.904|Price|product|||MDC|rsf:gd-|-qr_nm:gd|res:RC5|com-cf:nl|ptrs:na|ktp:N0|mc:22723|mtp:S|qry_typ:P|lang:en|wc:3|cs:7534|v=4,PB Enterprises,https://www.indiamart.com/pb-enterprises-asankhurd/?pos=127&kwd=baby mosquito net&tags=BA||||8737.904|Price|product|||MDC|rsf:gd-|-qr_nm:gd|res:RC5|com-cf:nl|ptrs:na|ktp:N0|mc:22723|mtp:S|qry_typ:P|lang:en|wc:3|cs:7534|v=4,False,Panipat Thermal Project,Asankhurd,"Na 736/3 Oppt. Pandit Ji Sweet , Sondhapur Colony Hari Om, Panipat Thermal Project, Asankhurd - 132105, Haryana",7949092975,
"Folding Umbrella Type Blue Mosquito Baby Net, For Home, Size: Medium",https://www.indiamart.com/proddetail/blue-mosquito-baby-net-23339357812.html?pos=128&kwd=baby mosquito net&tags=BA||||8228.275|Price|product|||TS|rsf:gd-|-qr_nm:gd|res:RC5|com-cf:nl|ptrs:na|ktp:N0|mc:22723|mtp:S|qry_typ:P|lang:en|wc:3|cs:7534|v=4,King Enterprise,https://www.kingenterpriseindia.com/?pos=128&kwd=baby mosquito net&tags=BA||||8228.275|Price|product|||TS|rsf:gd-|-qr_nm:gd|res:RC5|com-cf:nl|ptrs:na|ktp:N0|mc:22723|mtp:S|qry_typ:P|lang:en|wc:3|cs:7534|v=4,False,Opp. Haripura Bus Stand,Ahmedabad,"Block- E 28, Ground Floor, Abhishek Estate-1, Opp. Haripura Bus Stand, Ahmedabad - 380016, Dist.Ahmedabad, Gujarat",8047632934,
"Cotton Self Supporting Net Umbrella Baby Mosquito Net,, Size: Small",https://www.indiamart.com/proddetail/umbrella-baby-mosquito-net-27454859462.html?pos=129&kwd=baby mosquito net&tags=BB||||9839.57|Price|product|||MDC|rsf:gd-|-qr_nm:gd|res:RC5|com-cf:nl|ptrs:na|ktp:N0|mc:22723|mtp:S|qry_typ:P|lang:en|wc:3|cs:7534|v=4,Chatterjee Enterprise,https://www.indiamart.com/chatterjee-enterprise-wb/?pos=129&kwd=baby mosquito net&tags=BB||||9839.57|Price|product|||MDC|rsf:gd-|-qr_nm:gd|res:RC5|com-cf:nl|ptrs:na|ktp:N0|mc:22723|mtp:S|qry_typ:P|lang:en|wc:3|cs:7534|v=4,False,Fingapara,Kolkata,"165, Kantadanga Road, Fingapara Kankinara, North Twenty Four Parganas, Fingapara, Kolkata - 743129, Dist.Kolkata, West Bengal",7942673743,
Cotton Printed Baby Mosquito Net,https://www.indiamart.com/proddetail/printed-baby-mosquito-net-2854558641873.html?pos=130&kwd=baby mosquito net&tags=BA||||8752.144|Price|product|||MDC|rsf:gd-|-qr_nm:gd|res:RC5|com-cf:nl|ptrs:na|ktp:N0|mc:22723|mtp:S|qry_typ:P|lang:en|wc:3|cs:7534|v=4,Newgen Partners,https://www.indiamart.com/newgenpartners/?pos=130&kwd=baby mosquito net&tags=BA||||8752.144|Price|product|||MDC|rsf:gd-|-qr_nm:gd|res:RC5|com-cf:nl|ptrs:na|ktp:N0|mc:22723|mtp:S|qry_typ:P|lang:en|wc:3|cs:7534|v=4,False,,New Delhi,"Jawahar Park, E-34A, Ground Floor, Laxmi Nagar, East Delhi,, New Delhi - 110092, Dist.Delhi, Delhi",8048213363,
Poly Cotton Baby Mosquito Net Bed,https://www.indiamart.com/proddetail/baby-mosquito-net-bed-20089873573.html?pos=131&kwd=baby mosquito net&tags=BA||||8211.142|Price|product|||MDC|rsf:gd-|-qr_nm:gd|res:RC5|com-cf:nl|ptrs:na|ktp:N0|mc:22723|mtp:S|qry_typ:P|lang:en|wc:3|cs:7534|v=4,Padam Kids,https://www.indiamart.com/padam-kids/?pos=131&kwd=baby mosquito net&tags=BA||||8211.142|Price|product|||MDC|rsf:gd-|-qr_nm:gd|res:RC5|com-cf:nl|ptrs:na|ktp:N0|mc:22723|mtp:S|qry_typ:P|lang:en|wc:3|cs:7534|v=4,False,,Mumbai,"CKP Colony, Near Dargah, Behind Dr. Manish Bhatt Eksar Road, Borivali West, Mumbai - 400092, Dist.Mumbai, Maharashtra",8046057613,
"Polyester Portable Baby Mosquito Net, For Home, Size: XL",https://www.indiamart.com/proddetail/portable-baby-mosquito-net-26158695912.html?pos=132&kwd=baby mosquito net&tags=BA||||8752.144|Price|product|||MDC|rsf:gd-|-qr_nm:gd|res:RC5|com-cf:nl|ptrs:na|ktp:N0|mc:22723|mtp:S|qry_typ:P|lang:en|wc:3|cs:7534|v=4,A.R.Emporium,https://www.indiamart.com/aremporium/?pos=132&kwd=baby mosquito net&tags=BA||||8752.144|Price|product|||MDC|rsf:gd-|-qr_nm:gd|res:RC5|com-cf:nl|ptrs:na|ktp:N0|mc:22723|mtp:S|qry_typ:P|lang:en|wc:3|cs:7534|v=4,False,Jaitpur,New Delhi,"E-210, Ground Floor, Shop No. 1, L Type, 25 Foota Road, Jaitpur Extension Part 2, Jaitpur, New Delhi - 110044, Dist.Delhi, Delhi",7942561145,
Baby Mosquito Net Bed,https://www.indiamart.com/proddetail/baby-mosquito-net-bed-2852900952262.html?pos=133&kwd=baby mosquito net&tags=BA||||8716.212|Price|product|||MDC|rsf:gd-|-qr_nm:gd|res:RC5|com-cf:nl|ptrs:na|ktp:N0|mc:22723|mtp:S|qry_typ:P|lang:en|wc:3|cs:7534|v=4,Pizzlys India,https://www.indiamart.com/pizzlys-india/?pos=133&kwd=baby mosquito net&tags=BA||||8716.212|Price|product|||MDC|rsf:gd-|-qr_nm:gd|res:RC5|com-cf:nl|ptrs:na|ktp:N0|mc:22723|mtp:S|qry_typ:P|lang:en|wc:3|cs:7534|v=4,False,Gurugram,Dharuhera,"1, Dharuhera, Rewari Sohna Road, HSIIDC Dharuhera, Gurugram, Dharuhera - 123106, Dist.Rewari, Haryana",8047675691,
"Kids Mosquito Net, Size: XL",https://www.indiamart.com/proddetail/kids-mosquito-net-2853426299197.html?pos=134&kwd=baby mosquito net&tags=BA||||9618.383|Price|product|||MDC|rsf:gd-|-qr_nm:gd|res:RC5|com-cf:nl|ptrs:na|ktp:N0|mc:22723|mtp:S|qry_typ:P|lang:en|wc:3|cs:7534|v=4,Texco,https://www.indiamart.com/texco/?pos=134&kwd=baby mosquito net&tags=BA||||9618.383|Price|product|||MDC|rsf:gd-|-qr_nm:gd|res:RC5|com-cf:nl|ptrs:na|ktp:N0|mc:22723|mtp:S|qry_typ:P|lang:en|wc:3|cs:7534|v=4,False,Bistupur,Jamshedpur,"Shop No. 2, Main Road, Bistupur, Bistupur, Jamshedpur - 831001, Dist.East Singhbhum, Jharkhand",7949092933,
"Baby mosquito net folding frame, For Home, Size: XL",https://www.indiamart.com/proddetail/baby-mosquito-net-folding-frame-2850956408588.html?pos=135&kwd=baby mosquito net&tags=BA||||9839.57|Price|product|||MDC|rsf:gd-|-qr_nm:gd|res:RC5|com-cf:nl|ptrs:na|ktp:N0|mc:22723|mtp:S|qry_typ:P|lang:en|wc:3|cs:7534|v=4,Century Umbrella Industries,https://www.indiamart.com/centuryumbrellaindustries/?pos=135&kwd=baby mosquito net&tags=BA||||9839.57|Price|product|||MDC|rsf:gd-|-qr_nm:gd|res:RC5|com-cf:nl|ptrs:na|ktp:N0|mc:22723|mtp:S|qry_typ:P|lang:en|wc:3|cs:7534|v=4,False,B.B.D. Bagh,Kolkata,"4th Floor Room No. 42 121 Netaji Subhas Road, B.B.D. Bagh, Kolkata - 700001, Dist.Kolkata, West Bengal",8046037238,
"Polyester Green Baby Mosquito Net, For Home, Size: Small",https://www.indiamart.com/proddetail/green-baby-mosquito-net-2854163839373.html?pos=136&kwd=baby mosquito net&tags=BA||||8693.162||product|||MDC|rsf:gd-|-qr_nm:gd|res:RC5|com-cf:nl|ptrs:na|ktp:N0|mc:22723|mtp:S|qry_typ:P|lang:en|wc:3|cs:7534|v=4,Dear Baby,https://www.indiamart.com/dearbaby/?pos=136&kwd=baby mosquito net&tags=BA||||8693.162||product|||MDC|rsf:gd-|-qr_nm:gd|res:RC5|com-cf:nl|ptrs:na|ktp:N0|mc:22723|mtp:S|qry_typ:P|lang:en|wc:3|cs:7534|v=4,False,Begambur,Dindigul,"2nd Floor, No 7, Ahmad Appartment, S P Nagar, Begambur, Begambur, Dindigul - 624002, Dist.Dindigul, Tamil Nadu",8045731862,
"Baby Polyester Mosquito Net, For Home",https://www.indiamart.com/proddetail/baby-polyester-mosquito-net-2853208098988.html?pos=137&kwd=baby mosquito net&tags=BA||||9829.308|Price|product|||MDC|rsf:gd-|-qr_nm:gd|res:RC5|com-cf:nl|ptrs:na|ktp:N0|mc:22723|mtp:S|qry_typ:P|lang:en|wc:3|cs:7534|v=4,Asha Garments,https://www.indiamart.com/ashagarments-howrah/?pos=137&kwd=baby mosquito net&tags=BA||||9829.308|Price|product|||MDC|rsf:gd-|-qr_nm:gd|res:RC5|com-cf:nl|ptrs:na|ktp:N0|mc:22723|mtp:S|qry_typ:P|lang:en|wc:3|cs:7534|v=4,False,Ross Road,Howrah,"50/1,, Fakir Bagan Lane,, Ross Road, Howrah - 711101, Dist.Howrah, West Bengal",7942784108,
"Cotton Beige Baby Mosquito Net, For Home, Size: Medium",https://www.indiamart.com/proddetail/beige-baby-mosquito-net-2854233544612.html?pos=138&kwd=baby mosquito net&tags=BA||||8223.226|Price|product|||MDC|rsf:gd-|-qr_nm:gd|res:RC5|com-cf:nl|ptrs:na|ktp:N0|mc:22723|mtp:S|qry_typ:P|lang:en|wc:3|cs:7534|v=4,Royal Baby,https://www.indiamart.com/royal-baby-thane/?pos=138&kwd=baby mosquito net&tags=BA||||8223.226|Price|product|||MDC|rsf:gd-|-qr_nm:gd|res:RC5|com-cf:nl|ptrs:na|ktp:N0|mc:22723|mtp:S|qry_typ:P|lang:en|wc:3|cs:7534|v=4,False,,Thane,"Ground Floor, Shop No. 03, Savitri Niwas Mumbai Pune Road, Amrutnagar, Sub Post Office, Mumbra, Thane - 400612, Dist.Thane, Maharashtra",8045734604,
"Cotton Small Baby Mosquito Net, For Home",https://www.indiamart.com/proddetail/small-baby-mosquito-net-2854482873562.html?pos=139&kwd=baby mosquito net&tags=BA||||8954.051|Price|product|||MDC|rsf:gd-|-qr_nm:gd|res:RC5|com-cf:nl|ptrs:na|ktp:N0|mc:22723|mtp:S|qry_typ:P|lang:en|wc:3|cs:7534|v=4,National Bag,https://www.indiamart.com/national-bag-chennai/?pos=139&kwd=baby mosquito net&tags=BA||||8954.051|Price|product|||MDC|rsf:gd-|-qr_nm:gd|res:RC5|com-cf:nl|ptrs:na|ktp:N0|mc:22723|mtp:S|qry_typ:P|lang:en|wc:3|cs:7534|v=4,False,,Chennai,"2nd Floor, 49 Narayana Mudali Street, Sowcarpet, Chennai - 600079, Dist.Chennai, Tamil Nadu",7949336940,
"Cotton Foldable Baby Mosquito Net, Size: 135 x 65 x 65cm (LXWXH)",https://www.indiamart.com/proddetail/foldable-baby-mosquito-net-2853251866255.html?pos=140&kwd=baby mosquito net&tags=BA||||9520.041|Price|product|||MDC|rsf:gd-|-qr_nm:gd|res:RC5|com-cf:nl|ptrs:na|ktp:N0|mc:22723|mtp:S|qry_typ:P|lang:en|wc:3|cs:7534|v=4,Sri Krishna Store,https://www.indiamart.com/srikrishnastore-bihar/?pos=140&kwd=baby mosquito net&tags=BA||||9520.041|Price|product|||MDC|rsf:gd-|-qr_nm:gd|res:RC5|com-cf:nl|ptrs:na|ktp:N0|mc:22723|mtp:S|qry_typ:P|lang:en|wc:3|cs:7534|v=4,False,Bakarganj,Patna,"3rd Floor, 304, Raghunath Sri Appartment, Dariyapur Kadam Kuan,, Bakarganj, Patna - 800003, Dist.Patna, Bihar",7949220797,
"Cotton Newborn Baby Mosquito Net, Size: Small",https://www.indiamart.com/proddetail/printed-baby-mosquito-net-2854564277688.html?pos=141&kwd=baby mosquito net&tags=BA||||8747.203|Price|product|||MDC|rsf:gd-|-qr_nm:gd|res:RC5|com-cf:nl|ptrs:na|ktp:N0|mc:22723|mtp:S|qry_typ:P|lang:en|wc:3|cs:7534|v=4,Sai Impex,https://www.indiamart.com/sai-impex-panipat/?pos=141&kwd=baby mosquito net&tags=BA||||8747.203|Price|product|||MDC|rsf:gd-|-qr_nm:gd|res:RC5|com-cf:nl|ptrs:na|ktp:N0|mc:22723|mtp:S|qry_typ:P|lang:en|wc:3|cs:7534|v=4,False,,Panipat,"581/4, Circular Road, Near Amar, Bhawan Chowk,, Panipat - 132103, Dist.Panipat, Haryana",7949329674,
"Polyester Open Mount Printed Baby Mosquito Net, For Home, Size: 50x55 cm",https://www.indiamart.com/proddetail/printed-baby-mosquito-net-2851612580933.html?pos=142&kwd=baby mosquito net&tags=BA||||8661.854|Price|product|||MDC|rsf:gd-|-qr_nm:gd|res:RC5|com-cf:nl|ptrs:na|ktp:N0|mc:22723|mtp:S|qry_typ:P|lang:en|wc:3|cs:7534|v=4,Raj Industries,https://www.indiamart.com/raj-industries-punjab/?pos=142&kwd=baby mosquito net&tags=BA||||8661.854|Price|product|||MDC|rsf:gd-|-qr_nm:gd|res:RC5|com-cf:nl|ptrs:na|ktp:N0|mc:22723|mtp:S|qry_typ:P|lang:en|wc:3|cs:7534|v=4,False,,Ludhiana,"H. No B 12 629, Kucha Anayat, Nr Div No 2 Brown Road, Ludhiana - 141008, Dist.Ludhiana, Punjab",7942800347,
Zip Small Baby Mosquito Net,https://www.indiamart.com/proddetail/small-baby-mosquito-net-24264258733.html?pos=143&kwd=baby mosquito net&tags=BA||||8228.275|Price|product|||MDC|rsf:gd-|-qr_nm:gd|res:RC5|com-cf:nl|ptrs:na|ktp:N0|mc:22723|mtp:S|qry_typ:P|lang:en|wc:3|cs:7534|v=4,Sanskriti Inc,https://www.indiamart.com/sanskriti-inc/?pos=143&kwd=baby mosquito net&tags=BA||||8228.275|Price|product|||MDC|rsf:gd-|-qr_nm:gd|res:RC5|com-cf:nl|ptrs:na|ktp:N0|mc:22723|mtp:S|qry_typ:P|lang:en|wc:3|cs:7534|v=4,False,Nikol,Ahmedabad,"Shop No-26, Surjit Co Op H Soc Ltd, Nr. India Colony, Nikol Road, Nikol, Ahmedabad - 382350, Dist.Ahmedabad, Gujarat",8046047726,
"Cotton Heart Print Mosquito Net Baby Bedding, Size: Small",https://www.indiamart.com/proddetail/heart-print-mosquito-net-baby-bedding-2854523098912.html?pos=144&kwd=baby mosquito net&tags=BA||||8663.873|Price|product|||MDC|rsf:gd-|-qr_nm:gd|res:RC5|com-cf:nl|ptrs:na|ktp:N0|mc:22723|mtp:S|qry_typ:P|lang:en|wc:3|cs:7534|v=4,AQ Corporation,https://www.indiamart.com/aqcorporation/?pos=144&kwd=baby mosquito net&tags=BA||||8663.873|Price|product|||MDC|rsf:gd-|-qr_nm:gd|res:RC5|com-cf:nl|ptrs:na|ktp:N0|mc:22723|mtp:S|qry_typ:P|lang:en|wc:3|cs:7534|v=4,False,,Bengaluru,"Ground And First Floor, No 88, 2nd Cross, 4th Main, NGEF Layout, Nagashetty Halli, Sanjaynagar Bengaluru Urban, Bengaluru - 560094, Dist.Bengaluru, Karnataka",7949325043,
"Brown Baby Mosquito Net Set, Size: Small",https://www.indiamart.com/proddetail/brown-baby-mosquito-net-set-2853473249912.html?pos=145&kwd=baby mosquito net&tags=BA||||8230.883|Price|product|||MDC|rsf:gd-|-qr_nm:gd|res:RC5|com-cf:nl|ptrs:na|ktp:N0|mc:22723|mtp:S|qry_typ:P|lang:en|wc:3|cs:7534|v=4,Riyo Enterprise,https://www.indiamart.com/riyo-enterprise-surat/?pos=145&kwd=baby mosquito net&tags=BA||||8230.883|Price|product|||MDC|rsf:gd-|-qr_nm:gd|res:RC5|com-cf:nl|ptrs:na|ktp:N0|mc:22723|mtp:S|qry_typ:P|lang:en|wc:3|cs:7534|v=4,False,Punagam,Surat,"Ground Floor, A-228, Narayannagar Society, Punagam Road, Nalanda Vidhyalay, Punagam, Punagam, Surat - 395010, Dist.Surat, Gujarat",8045910533,
"Baby Mattress With Mosquito Net, For Home, Size: Medium",https://www.indiamart.com/proddetail/baby-mattress-with-mosquito-net-2851564424391.html?pos=146&kwd=baby mosquito net&tags=BA||||10180.86|Price|product|||MDC|rsf:gd-|-qr_nm:gd|res:RC5|com-cf:nl|ptrs:na|ktp:N0|mc:22723|mtp:S|qry_typ:P|lang:en|wc:3|cs:7534|v=4,Jyoti Enterprise,https://www.indiamart.com/jyoti-enterprise-assam/?pos=146&kwd=baby mosquito net&tags=BA||||10180.86|Price|product|||MDC|rsf:gd-|-qr_nm:gd|res:RC5|com-cf:nl|ptrs:na|ktp:N0|mc:22723|mtp:S|qry_typ:P|lang:en|wc:3|cs:7534|v=4,False,Bharalumukh,Guwahati,"House No. 15, K.R.C Road, Kumarpara, Rupnagar, Kamrup, Metropolitan, Bharalumukh, Guwahati - 781009, Dist.Kamrup, Assam",8043852875,
"Cotton Baby Blue Mosquito Net Bed, Size: XL",https://www.indiamart.com/proddetail/baby-blue-mosquito-net-bed-2853468608633.html?pos=147&kwd=baby mosquito net&tags=BA||||8752.144|Price|product|||MDC|rsf:gd-|-qr_nm:gd|res:RC5|com-cf:nl|ptrs:na|ktp:N0|mc:22723|mtp:S|qry_typ:P|lang:en|wc:3|cs:7534|v=4,Kapil Enterprises,https://www.indiamart.com/kapilenterprisesnew-delhi/?pos=147&kwd=baby mosquito net&tags=BA||||8752.144|Price|product|||MDC|rsf:gd-|-qr_nm:gd|res:RC5|com-cf:nl|ptrs:na|ktp:N0|mc:22723|mtp:S|qry_typ:P|lang:en|wc:3|cs:7534|v=4,False,Vijay Vihar,New Delhi,"Ground Floor, E-25, Vijay Vihar, Near Badi Masjid, Rohini Sector 7, North West Delhi, Vijay Vihar, New Delhi - 110085, Dist.Delhi, Delhi",7949092118,
"Poly Cotton Baby Mosquito Net Bedding Set, For Home, Size: Small",https://www.indiamart.com/proddetail/baby-mosquito-net-bedding-set-22915389762.html?pos=148&kwd=baby mosquito net&tags=BA||||8785.791|Price|product|||MDC|rsf:gd-|-qr_nm:gd|res:RC5|com-cf:nl|ptrs:na|ktp:N0|mc:22723|mtp:S|qry_typ:P|lang:en|wc:3|cs:7534|v=4,Navjal Enterprises,https://www.indiamart.com/navjal-enterprises/?pos=148&kwd=baby mosquito net&tags=BA||||8785.791|Price|product|||MDC|rsf:gd-|-qr_nm:gd|res:RC5|com-cf:nl|ptrs:na|ktp:N0|mc:22723|mtp:S|qry_typ:P|lang:en|wc:3|cs:7534|v=4,False,Loni,Ghaziabad,"Plot No. F-30, Khasra No. 250, Ram Park, Dye House, Pargana, Loni, Lutfulapur Navada, Loni, Ghaziabad - 201102, Dist.Ghaziabad, Uttar Pradesh",8043878298,
"Kids Mosquito Net, For Home, Size: Small",https://www.indiamart.com/proddetail/kids-mosquito-net-2853277821730.html?pos=149&kwd=baby mosquito net&tags=BA||||8752.144|Price|product|||MDC|rsf:gd-|-qr_nm:gd|res:RC5|com-cf:nl|ptrs:na|ktp:N0|mc:22723|mtp:S|qry_typ:P|lang:en|wc:3|cs:7534|v=4,Shree Tirupati Sports,https://www.indiamart.com/shreetirupatisports/?pos=149&kwd=baby mosquito net&tags=BA||||8752.144|Price|product|||MDC|rsf:gd-|-qr_nm:gd|res:RC5|com-cf:nl|ptrs:na|ktp:N0|mc:22723|mtp:S|qry_typ:P|lang:en|wc:3|cs:7534|v=4,False,Chandni Chowk,New Delhi,"GF812/3, Chappal Market, Pan Mandi, Sadar Bazar, Chandni Chowk, Central Delhi, Chandni Chowk, New Delhi - 110006, Dist.Delhi, Delhi",7949221627,
"Steel Wire+polyester Zipper Kids Mosquito Net, Size: Small",https://www.indiamart.com/proddetail/kids-mosquito-net-22878204562.html?pos=150&kwd=baby mosquito net&tags=BA||||8747.203|Price|product|||MDC|rsf:gd-|-qr_nm:gd|res:RC5|com-cf:nl|ptrs:na|ktp:N0|mc:22723|mtp:S|qry_typ:P|lang:en|wc:3|cs:7534|v=4,Nav Jyoti Creations,https://www.indiamart.com/nav-jyoti-creations/?pos=150&kwd=baby mosquito net&tags=BA||||8747.203|Price|product|||MDC|rsf:gd-|-qr_nm:gd|res:RC5|com-cf:nl|ptrs:na|ktp:N0|mc:22723|mtp:S|qry_typ:P|lang:en|wc:3|cs:7534|v=4,False,Panipat N.S.M.,Panipat,"Shop No. 2, Dev Puri Road, Panipat N.S.M., Panipat - 132103, Dist.Panipat, Haryana",8046049761,
Polyester Pink Kids Mosquito Net,https://www.indiamart.com/proddetail/pink-kids-mosquito-net-2854022576930.html?pos=151&kwd=baby mosquito net&tags=BA||||8752.144|Price|product|||MDC|rsf:gd-|-qr_nm:gd|res:RC5|com-cf:nl|ptrs:na|ktp:N0|mc:22723|mtp:S|qry_typ:P|lang:en|wc:3|cs:7534|v=4,Use & Rely,https://www.indiamart.com/use-rely-newdelhi/?pos=151&kwd=baby mosquito net&tags=BA||||8752.144|Price|product|||MDC|rsf:gd-|-qr_nm:gd|res:RC5|com-cf:nl|ptrs:na|ktp:N0|mc:22723|mtp:S|qry_typ:P|lang:en|wc:3|cs:7534|v=4,False,Beholpur Bangar,New Delhi,"160, Gali Gadaryan, Near Karim Restaurant, Basti Hazrat, Nizamuddin, South Delhi, Beholpur Bangar, New Delhi - 110013, Dist.Delhi, Delhi",8044565061,
Rectangular Baby Gadda Set with Mosquito Net,https://www.indiamart.com/proddetail/baby-gadda-set-with-mosquito-net-8863479662.html?pos=152&kwd=baby mosquito net&tags=BA||||8211.142|Price|product|||TS|rsf:gd-|-qr_nm:gd|res:RC5|com-cf:nl|ptrs:na|ktp:N0|mc:22723|mtp:S|qry_typ:P|lang:en|wc:3|cs:7534|v=4,Welcome Enterprise,https://www.welcomeenterprise.in/?pos=152&kwd=baby mosquito net&tags=BA||||8211.142|Price|product|||TS|rsf:gd-|-qr_nm:gd|res:RC5|com-cf:nl|ptrs:na|ktp:N0|mc:22723|mtp:S|qry_typ:P|lang:en|wc:3|cs:7534|v=4,False,Santacruz West,Mumbai,"1,Gulam Rasul Chawl No. 149,Khot Wadi, Besant Road,Santacruz West, Santacruz West, Mumbai - 400054, Dist.Mumbai, Maharashtra",8048601972,
"Sky Blue Baby Mosquito Bed Nets, Size: Small",https://www.indiamart.com/proddetail/baby-mosquito-bed-nets-2527958262.html?pos=153&kwd=baby mosquito net&tags=BA||||9520.041|Price|product|||MDC|rsf:gd-|-qr_nm:gd|res:RC5|com-cf:nl|ptrs:na|ktp:N0|mc:22723|mtp:S|qry_typ:P|lang:en|wc:3|cs:7534|v=4,Pragati Enterprises,https://www.indiamart.com/pragati-enterprises-bihar/?pos=153&kwd=baby mosquito net&tags=BA||||9520.041|Price|product|||MDC|rsf:gd-|-qr_nm:gd|res:RC5|com-cf:nl|ptrs:na|ktp:N0|mc:22723|mtp:S|qry_typ:P|lang:en|wc:3|cs:7534|v=4,False,Dariyapur Gola,Patna,"0,Dariyapur Gola,Kadamkuan, Dariyapur Gola, Patna - 800004, Dist.Patna, Bihar",8048977786,
"My Cradle Hammock for 0 to 3 Year Baby Car Joli, Adjustable Belt, Hangers with Mosquito Net",https://www.indiamart.com/proddetail/my-cradle-hammock-for-0-to-3-year-baby-car-joli-adjustable-belt-hangers-with-mosquito-net-2853400075330.html?pos=154&kwd=baby mosquito net&tags=BB||||8281.036|Price|product|||MDC|rsf:gd-|-qr_nm:gd|res:RC5|com-cf:nl|ptrs:na|ktp:N0|mc:22723|mtp:S|qry_typ:P|lang:en|wc:3|cs:7534|v=4,Keshav Engineering,https://www.indiamart.com/keshavengineeringvadodara/?pos=154&kwd=baby mosquito net&tags=BB||||8281.036|Price|product|||MDC|rsf:gd-|-qr_nm:gd|res:RC5|com-cf:nl|ptrs:na|ktp:N0|mc:22723|mtp:S|qry_typ:P|lang:en|wc:3|cs:7534|v=4,False,Makarpura,Vadodara,"893/1, GIDC Estate, Makarpura, Makarpura, Vadodara - 390010, Dist.Vadodara, Gujarat",7949227668,
Baby Mosquito Net Beds,https://www.indiamart.com/proddetail/baby-mosquito-net-beds-3544868630.html?pos=155&kwd=baby mosquito net&tags=BA||||8211.142|Price|product|||TS|rsf:gd-|-qr_nm:gd|res:RC5|com-cf:nl|ptrs:na|ktp:N0|mc:22723|mtp:S|qry_typ:P|lang:en|wc:3|cs:7534|v=4,Dhrupti Creation,https://www.indiamart.com/littlecare/?pos=155&kwd=baby mosquito net&tags=BA||||8211.142|Price|product|||TS|rsf:gd-|-qr_nm:gd|res:RC5|com-cf:nl|ptrs:na|ktp:N0|mc:22723|mtp:S|qry_typ:P|lang:en|wc:3|cs:7534|v=4,False,Malad East,Mumbai,"Gala No. 3, Jignesh Diamond House, Near Vaishnavdevi Mandir, Subhash Lane, Malad East, Malad East, Mumbai - 400097, Dist.Mumbai, Maharashtra",8048970316,
Poly Cotton Baby Mosquito Net,https://www.indiamart.com/proddetail/poly-cotton-baby-mosquito-net-22140825412.html?pos=156&kwd=baby mosquito net&tags=BB||||8778.123||product|||TS|rsf:gd-|-qr_nm:gd|res:RC5|com-cf:nl|ptrs:na|ktp:N0|mc:22723|mtp:S|qry_typ:P|lang:en|wc:3|cs:7534|v=4,Shri Ram Textile,https://www.indiamart.com/shri-ram-textile/?pos=156&kwd=baby mosquito net&tags=BB||||8778.123||product|||TS|rsf:gd-|-qr_nm:gd|res:RC5|com-cf:nl|ptrs:na|ktp:N0|mc:22723|mtp:S|qry_typ:P|lang:en|wc:3|cs:7534|v=4,False,Sector 4,Noida,"Shop No. 7, Chauhan Market, Near Petrol Pump, Chhalera, Sector 44, GB Nagar, Sector 4, Noida - 201301, Dist.Gautam Budh Nagar, Uttar Pradesh",7942552502,
"Newborn Baby Mosquito Net With Bed, For Home, Size: Medium",https://www.indiamart.com/proddetail/newborn-baby-mosquito-net-with-bed-26212068055.html?pos=157&kwd=baby mosquito net&tags=BA||||8747.203|Price|product|||TS|rsf:gd-|-qr_nm:gd|res:RC5|com-cf:nl|ptrs:na|ktp:N0|mc:22723|mtp:S|qry_typ:P|lang:en|wc:3|cs:7534|v=4,Samraj Home Decor,https://www.samrajhomedecor.com/?pos=157&kwd=baby mosquito net&tags=BA||||8747.203|Price|product|||TS|rsf:gd-|-qr_nm:gd|res:RC5|com-cf:nl|ptrs:na|ktp:N0|mc:22723|mtp:S|qry_typ:P|lang:en|wc:3|cs:7534|v=4,False,Chowk,Panipat,"945/8, Sanoli Road, Near Bhim Goda Chowk, Chowk, Panipat - 132103, Dist.Panipat, Haryana",8046065498,
"Polyester Green Baby Mosquito Net, For Home, Size: Small",https://www.indiamart.com/proddetail/green-baby-mosquito-net-2854163839373.html?pos=158&kwd=baby mosquito net&tags=BA||||8693.162||product|||MDC|rsf:gd-|-qr_nm:gd|res:RC5|com-cf:nl|ptrs:na|ktp:N0|mc:22723|mtp:S|qry_typ:P|lang:en|wc:3|cs:7534|v=4,Dear Baby,https://www.indiamart.com/dearbaby/?pos=158&kwd=baby mosquito net&tags=BA||||8693.162||product|||MDC|rsf:gd-|-qr_nm:gd|res:RC5|com-cf:nl|ptrs:na|ktp:N0|mc:22723|mtp:S|qry_typ:P|lang:en|wc:3|cs:7534|v=4,False,Begambur,Dindigul,"2nd Floor, No 7, Ahmad Appartment, S P Nagar, Begambur, Begambur, Dindigul - 624002, Dist.Dindigul, Tamil Nadu",8045731862,
"Cotton Beige Baby Mosquito Net, For Home, Size: Medium",https://www.indiamart.com/proddetail/beige-baby-mosquito-net-2854233544612.html?pos=159&kwd=baby mosquito net&tags=BA||||8223.226|Price|product|||MDC|rsf:gd-|-qr_nm:gd|res:RC5|com-cf:nl|ptrs:na|ktp:N0|mc:22723|mtp:S|qry_typ:P|lang:en|wc:3|cs:7534|v=4,Royal Baby,https://www.indiamart.com/royal-baby-thane/?pos=159&kwd=baby mosquito net&tags=BA||||8223.226|Price|product|||MDC|rsf:gd-|-qr_nm:gd|res:RC5|com-cf:nl|ptrs:na|ktp:N0|mc:22723|mtp:S|qry_typ:P|lang:en|wc:3|cs:7534|v=4,False,,Thane,"Ground Floor, Shop No. 03, Savitri Niwas Mumbai Pune Road, Amrutnagar, Sub Post Office, Mumbra, Thane - 400612, Dist.Thane, Maharashtra",8045734604,
"Baby Polyester Mosquito Net, For Home",https://www.indiamart.com/proddetail/baby-polyester-mosquito-net-2853208098988.html?pos=160&kwd=baby mosquito net&tags=BA||||9829.308|Price|product|||MDC|rsf:gd-|-qr_nm:gd|res:RC5|com-cf:nl|ptrs:na|ktp:N0|mc:22723|mtp:S|qry_typ:P|lang:en|wc:3|cs:7534|v=4,Asha Garments,https://www.indiamart.com/ashagarments-howrah/?pos=160&kwd=baby mosquito net&tags=BA||||9829.308|Price|product|||MDC|rsf:gd-|-qr_nm:gd|res:RC5|com-cf:nl|ptrs:na|ktp:N0|mc:22723|mtp:S|qry_typ:P|lang:en|wc:3|cs:7534|v=4,False,Ross Road,Howrah,"50/1,, Fakir Bagan Lane,, Ross Road, Howrah - 711101, Dist.Howrah, West Bengal",7942784108,
Poly Cotton Baby Mosquito Net Bed,https://www.indiamart.com/proddetail/baby-mosquito-net-bed-20089873573.html?pos=161&kwd=baby mosquito net&tags=BA||||8211.142|Price|product|||MDC|rsf:gd-|-qr_nm:gd|res:RC5|com-cf:nl|ptrs:na|ktp:N0|mc:22723|mtp:S|qry_typ:P|lang:en|wc:3|cs:7534|v=4,Padam Kids,https://www.indiamart.com/padam-kids/?pos=161&kwd=baby mosquito net&tags=BA||||8211.142|Price|product|||MDC|rsf:gd-|-qr_nm:gd|res:RC5|com-cf:nl|ptrs:na|ktp:N0|mc:22723|mtp:S|qry_typ:P|lang:en|wc:3|cs:7534|v=4,False,,Mumbai,"CKP Colony, Near Dargah, Behind Dr. Manish Bhatt Eksar Road, Borivali West, Mumbai - 400092, Dist.Mumbai, Maharashtra",8046057613,
"Cotton Self Supporting Net Umbrella Baby Mosquito Net,, Size: Small",https://www.indiamart.com/proddetail/umbrella-baby-mosquito-net-27454859462.html?pos=162&kwd=baby mosquito net&tags=BB||||9839.57|Price|product|||MDC|rsf:gd-|-qr_nm:gd|res:RC5|com-cf:nl|ptrs:na|ktp:N0|mc:22723|mtp:S|qry_typ:P|lang:en|wc:3|cs:7534|v=4,Chatterjee Enterprise,https://www.indiamart.com/chatterjee-enterprise-wb/?pos=162&kwd=baby mosquito net&tags=BB||||9839.57|Price|product|||MDC|rsf:gd-|-qr_nm:gd|res:RC5|com-cf:nl|ptrs:na|ktp:N0|mc:22723|mtp:S|qry_typ:P|lang:en|wc:3|cs:7534|v=4,False,Fingapara,Kolkata,"165, Kantadanga Road, Fingapara Kankinara, North Twenty Four Parganas, Fingapara, Kolkata - 743129, Dist.Kolkata, West Bengal",7942673743,
"Cotton Small Baby Mosquito Net, For Home",https://www.indiamart.com/proddetail/small-baby-mosquito-net-2854482873562.html?pos=163&kwd=baby mosquito net&tags=BA||||8954.051|Price|product|||MDC|rsf:gd-|-qr_nm:gd|res:RC5|com-cf:nl|ptrs:na|ktp:N0|mc:22723|mtp:S|qry_typ:P|lang:en|wc:3|cs:7534|v=4,National Bag,https://www.indiamart.com/national-bag-chennai/?pos=163&kwd=baby mosquito net&tags=BA||||8954.051|Price|product|||MDC|rsf:gd-|-qr_nm:gd|res:RC5|com-cf:nl|ptrs:na|ktp:N0|mc:22723|mtp:S|qry_typ:P|lang:en|wc:3|cs:7534|v=4,False,,Chennai,"2nd Floor, 49 Narayana Mudali Street, Sowcarpet, Chennai - 600079, Dist.Chennai, Tamil Nadu",7949336940,
"Cotton Heart Print Mosquito Net Baby Bedding, Size: Small",https://www.indiamart.com/proddetail/heart-print-mosquito-net-baby-bedding-2854523098912.html?pos=164&kwd=baby mosquito net&tags=BA||||8663.873|Price|product|||MDC|rsf:gd-|-qr_nm:gd|res:RC5|com-cf:nl|ptrs:na|ktp:N0|mc:22723|mtp:S|qry_typ:P|lang:en|wc:3|cs:7534|v=4,AQ Corporation,https://www.indiamart.com/aqcorporation/?pos=164&kwd=baby mosquito net&tags=BA||||8663.873|Price|product|||MDC|rsf:gd-|-qr_nm:gd|res:RC5|com-cf:nl|ptrs:na|ktp:N0|mc:22723|mtp:S|qry_typ:P|lang:en|wc:3|cs:7534|v=4,False,,Bengaluru,"Ground And First Floor, No 88, 2nd Cross, 4th Main, NGEF Layout, Nagashetty Halli, Sanjaynagar Bengaluru Urban, Bengaluru - 560094, Dist.Bengaluru, Karnataka",7949325043,
"Cotton Baby Blue Mosquito Net Bed, Size: XL",https://www.indiamart.com/proddetail/baby-blue-mosquito-net-bed-2853468608633.html?pos=165&kwd=baby mosquito net&tags=BA||||8752.144|Price|product|||MDC|rsf:gd-|-qr_nm:gd|res:RC5|com-cf:nl|ptrs:na|ktp:N0|mc:22723|mtp:S|qry_typ:P|lang:en|wc:3|cs:7534|v=4,Kapil Enterprises,https://www.indiamart.com/kapilenterprisesnew-delhi/?pos=165&kwd=baby mosquito net&tags=BA||||8752.144|Price|product|||MDC|rsf:gd-|-qr_nm:gd|res:RC5|com-cf:nl|ptrs:na|ktp:N0|mc:22723|mtp:S|qry_typ:P|lang:en|wc:3|cs:7534|v=4,False,Vijay Vihar,New Delhi,"Ground Floor, E-25, Vijay Vihar, Near Badi Masjid, Rohini Sector 7, North West Delhi, Vijay Vihar, New Delhi - 110085, Dist.Delhi, Delhi",7949092118,
"Steel Wire+polyester Zipper Kids Mosquito Net, Size: Small",https://www.indiamart.com/proddetail/kids-mosquito-net-22878204562.html?pos=166&kwd=baby mosquito net&tags=BA||||8747.203|Price|product|||MDC|rsf:gd-|-qr_nm:gd|res:RC5|com-cf:nl|ptrs:na|ktp:N0|mc:22723|mtp:S|qry_typ:P|lang:en|wc:3|cs:7534|v=4,Nav Jyoti Creations,https://www.indiamart.com/nav-jyoti-creations/?pos=166&kwd=baby mosquito net&tags=BA||||8747.203|Price|product|||MDC|rsf:gd-|-qr_nm:gd|res:RC5|com-cf:nl|ptrs:na|ktp:N0|mc:22723|mtp:S|qry_typ:P|lang:en|wc:3|cs:7534|v=4,False,Panipat N.S.M.,Panipat,"Shop No. 2, Dev Puri Road, Panipat N.S.M., Panipat - 132103, Dist.Panipat, Haryana",8046049761,
"Organic Cotton Baby Cradle Mosquito Net Manufacturer from India, Normal Weight",https://www.indiamart.com/proddetail/organic-cotton-baby-cradle-mosquito-net-manufacturer-from-india-20972417873.html?pos=167&kwd=baby mosquito net&tags=BA||||8668.838|Price|product|||TS|rsf:gd-|-qr_nm:gd|res:RC5|com-cf:nl|ptrs:na|ktp:N0|mc:22723|mtp:S|qry_typ:P|lang:en|wc:3|cs:7534|v=4,Sri Kalyan Export Private Limited,https://www.firstinbabydress.com/?pos=167&kwd=baby mosquito net&tags=BA||||8668.838|Price|product|||TS|rsf:gd-|-qr_nm:gd|res:RC5|com-cf:nl|ptrs:na|ktp:N0|mc:22723|mtp:S|qry_typ:P|lang:en|wc:3|cs:7534|v=4,False,Vilarasampatti,Erode,"192/4, Ishwarya Garden, Sengodampalayam, Villarasampatti Post, Erode,, Vilarasampatti, Erode - 638107, Dist.Erode, Tamil Nadu",8046030291,
"Plain Baby Pink Net Fabric, For Home",https://www.indiamart.com/proddetail/baby-pink-net-fabric-2854151372473.html?pos=168&kwd=baby mosquito net&tags=BB||||8580.032|Price|product|||TS|rsf:gd-|-qr_nm:gd|res:RC5|com-cf:nl|ptrs:na|ktp:N0|mc:22723|mtp:S|qry_typ:P|lang:en|wc:3|cs:7534|v=4,Jai Shankar Knit Fab,https://www.jaishankerknitfab.com/?pos=168&kwd=baby mosquito net&tags=BB||||8580.032|Price|product|||TS|rsf:gd-|-qr_nm:gd|res:RC5|com-cf:nl|ptrs:na|ktp:N0|mc:22723|mtp:S|qry_typ:P|lang:en|wc:3|cs:7534|v=4,False,New Jhawar Nagar,Amritsar,"Gali Murgi Khana, Batala Road, New Jhawar Nagar, Amritsar - 143001, Dist.Amritsar, Punjab",8047639484,
Portable Baby Mosquito Net,https://www.indiamart.com/proddetail/portable-baby-mosquito-net-2853523189755.html?pos=169&kwd=baby mosquito net&tags=BA||||8752.144|Price|product|||MDC|rsf:gd-|-qr_nm:gd|res:RC5|com-cf:nl|ptrs:na|ktp:N0|mc:22723|mtp:S|qry_typ:P|lang:en|wc:3|cs:7534|v=4,Santosh Enterprises,https://www.indiamart.com/santosh-enterprises-delhiindia/?pos=169&kwd=baby mosquito net&tags=BA||||8752.144|Price|product|||MDC|rsf:gd-|-qr_nm:gd|res:RC5|com-cf:nl|ptrs:na|ktp:N0|mc:22723|mtp:S|qry_typ:P|lang:en|wc:3|cs:7534|v=4,False,North Delhi,New Delhi,"Ground Floor A 44 Khera Garhi Colony Gali No 01, North Delhi, New Delhi - 110082, Dist.Delhi, Delhi",8047837949,
For Home Baby Umbrella Mosquito Net,https://www.indiamart.com/proddetail/baby-umbrella-mosquito-net-26025217688.html?pos=170&kwd=baby mosquito net&tags=BA||||8954.051|Price|product|||MDC|rsf:gd-|-qr_nm:gd|res:RC5|com-cf:nl|ptrs:na|ktp:N0|mc:22723|mtp:S|qry_typ:P|lang:en|wc:3|cs:7534|v=4,Sri Piyush Enterprises,https://www.indiamart.com/sri-piyush-enterprises/?pos=170&kwd=baby mosquito net&tags=BA||||8954.051|Price|product|||MDC|rsf:gd-|-qr_nm:gd|res:RC5|com-cf:nl|ptrs:na|ktp:N0|mc:22723|mtp:S|qry_typ:P|lang:en|wc:3|cs:7534|v=4,False,Sowcarpet,Chennai,"19/21, Pamidi Complex, Kasi Chetty Street, Sowcarpet,, Sowcarpet, Chennai - 600079, Dist.Chennai, Tamil Nadu",8043860290,
"Purple Nylon Baby Mosquito Bed Nets, Size: Medium",https://www.indiamart.com/proddetail/purple-nylon-baby-mosquito-bed-nets-2854534248955.html?pos=172&kwd=baby mosquito net&tags=BA||||8752.144|Price|product|||MDC|rsf:gd-|-qr_nm:gd|res:RC5|com-cf:nl|ptrs:na|ktp:N0|mc:22723|mtp:S|qry_typ:P|lang:en|wc:3|cs:7534|v=4,Bharat Umbrella,https://www.indiamart.com/bharatumbrella/?pos=172&kwd=baby mosquito net&tags=BA||||8752.144|Price|product|||MDC|rsf:gd-|-qr_nm:gd|res:RC5|com-cf:nl|ptrs:na|ktp:N0|mc:22723|mtp:S|qry_typ:P|lang:en|wc:3|cs:7534|v=4,False,,New Delhi,"Ground Floor, 811/2, Chappal Market, Sadar Bazar, New Delhi - 110006, Dist.Delhi, Delhi",7949322997,
"Purple Nylon Baby Mosquito Bed Nets, Size: Medium",https://www.indiamart.com/proddetail/purple-nylon-baby-mosquito-bed-nets-2854534248955.html?pos=172&kwd=baby mosquito net&tags=BA||||8752.144|Price|product|||MDC|rsf:gd-|-qr_nm:gd|res:RC5|com-cf:nl|ptrs:na|ktp:N0|mc:22723|mtp:S|qry_typ:P|lang:en|wc:3|cs:7534|v=4,Bharat Umbrella,https://www.indiamart.com/bharatumbrella/?pos=172&kwd=baby mosquito net&tags=BA||||8752.144|Price|product|||MDC|rsf:gd-|-qr_nm:gd|res:RC5|com-cf:nl|ptrs:na|ktp:N0|mc:22723|mtp:S|qry_typ:P|lang:en|wc:3|cs:7534|v=4,False,,New Delhi,"Ground Floor, 811/2, Chappal Market, Sadar Bazar, New Delhi - 110006, Dist.Delhi, Delhi",7949322997,
Rectangular Baby Gadda Set with Mosquito Net,https://www.indiamart.com/proddetail/baby-gadda-set-with-mosquito-net-8863479662.html?pos=173&kwd=baby mosquito net&tags=BA||||8211.142|Price|product|||TS|rsf:gd-|-qr_nm:gd|res:RC5|com-cf:nl|ptrs:na|ktp:N0|mc:22723|mtp:S|qry_typ:P|lang:en|wc:3|cs:7534|v=4,Welcome Enterprise,https://www.welcomeenterprise.in/?pos=173&kwd=baby mosquito net&tags=BA||||8211.142|Price|product|||TS|rsf:gd-|-qr_nm:gd|res:RC5|com-cf:nl|ptrs:na|ktp:N0|mc:22723|mtp:S|qry_typ:P|lang:en|wc:3|cs:7534|v=4,False,Santacruz West,Mumbai,"1,Gulam Rasul Chawl No. 149,Khot Wadi, Besant Road,Santacruz West, Santacruz West, Mumbai - 400054, Dist.Mumbai, Maharashtra",8048601972,
"Baby Learning Blue Pillow Book for Your Little Children, Child Age Group: 4-6 Yrs",https://www.indiamart.com/proddetail/baby-learning-blue-pillow-book-for-your-little-children-2853429850148.html?pos=174&kwd=baby mosquito net&tags=BA||||8230.883|Price|product|||MDC|rsf:gd-|-qr_nm:gd|res:RC5|com-cf:nl|ptrs:na|ktp:N0|mc:22723|mtp:S|qry_typ:P|lang:en|wc:3|cs:7534|v=4,Shri Shri Fashion,https://www.indiamart.com/shri-shri-fashion/?pos=174&kwd=baby mosquito net&tags=BA||||8230.883|Price|product|||MDC|rsf:gd-|-qr_nm:gd|res:RC5|com-cf:nl|ptrs:na|ktp:N0|mc:22723|mtp:S|qry_typ:P|lang:en|wc:3|cs:7534|v=4,False,Varachha,Surat,"A-231, Narayan Nagar, Near Nalanda School, Punagam,, Varachha, Surat - 395010, Dist.Surat, Gujarat",7942712235,
Baby Machardani,,Shiv Shakti Tirpal,https://www.indiamart.com/shivshakti-tirpal/?pos=175&kwd=baby mosquito net&tags=BB||||9045.955||product|||TS|rsf:gd-|-qr_nm:gd|res:RC5|com-cf:nl|ptrs:na|ktp:N0|mc:22723|mtp:S|qry_typ:P|lang:en|wc:3|cs:7534|v=4,False,Shyam Nagar,Kanpur,"133/276, Transport Nagar,, Shyam Nagar, Kanpur - 208011, Uttar Pradesh",7942540967,
Baby Mosquito net,,Krishna Cradle,https://www.indiamart.com/krishnacradle/?pos=176&kwd=baby mosquito net&tags=BB||||8228.275|Price|product|||MDC|rsf:gd-|-qr_nm:gd|res:RC5|com-cf:nl|ptrs:na|ktp:N0|mc:22723|mtp:S|qry_typ:P|lang:en|wc:3|cs:7534|v=4,False,Odhav,Ahmedabad,"B/85, Shree Ram Estate -B, Near Bileshwar Estate, odhav, Odhav, Ahmedabad - 382415, Dist.Ahmedabad, Gujarat",8046077010,
A.B. Enterprise,,A.B. Enterprise,https://www.indiamart.com/ab-enterprise-india/?pos=177&kwd=baby mosquito net&tags=A||||9839.57||bl|||MDC|rsf:gd-|-qr_nm:gd|res:RC5|com-cf:nl|ptrs:na|ktp:N0|mc:22723|mtp:S|qry_typ:P|lang:en|wc:3|cs:7534|v=4,False,,Kolkata,"33 Prabartak Pally Kamarhati, Kolkata - 700056, Dist.Kolkata, West Bengal",8044460688,
"Cotton Baby Blue Mosquito Net, For Home, Size: Small",https://www.indiamart.com/proddetail/baby-blue-mosquito-net-2853351861012.html?pos=178&kwd=baby mosquito net&tags=A||||8210.732|Price|product|||NA|rsf:gd-|-qr_nm:gd|res:RC5|com-cf:nl|ptrs:na|ktp:N0|mc:22723|mtp:S|qry_typ:P|lang:en|wc:3|cs:7534|v=4,MRB Creation,https://www.indiamart.com/mrb-creation-maharashtra/?pos=178&kwd=baby mosquito net&tags=A||||8210.732|Price|product|||NA|rsf:gd-|-qr_nm:gd|res:RC5|com-cf:nl|ptrs:na|ktp:N0|mc:22723|mtp:S|qry_typ:P|lang:en|wc:3|cs:7534|v=4,False,Vasai East,Vasai Virar,"Ground Floor Shop A-001 Anand Nagar Laxmi Tower West, Vasai East, Vasai Virar - 401202, Dist.Thane, Maharashtra",7949222433,
"Valvet Zadik Baby Bed Mosquito Net Baby Bed Cartoon, Size: Small",https://www.indiamart.com/proddetail/zadik-baby-bed-mosquito-net-baby-bed-cartoon-2850464767588.html?pos=179&kwd=baby mosquito net&tags=A||||8747.203|Price|product|||NA|rsf:gd-|-qr_nm:gd|res:RC5|com-cf:nl|ptrs:na|ktp:N0|mc:22723|mtp:S|qry_typ:P|lang:en|wc:3|cs:7534|v=4,Khatu Shyam Enterprises,https://www.indiamart.com/khatushyamenterprisesharyana/?pos=179&kwd=baby mosquito net&tags=A||||8747.203|Price|product|||NA|rsf:gd-|-qr_nm:gd|res:RC5|com-cf:nl|ptrs:na|ktp:N0|mc:22723|mtp:S|qry_typ:P|lang:en|wc:3|cs:7534|v=4,False,Jali Wala Karkhana,Panipat,"House Num 452, Rajiv Colony, Jali Wala Karkhana, Panipat - 132103, Dist.Panipat, Haryana",7942710513,
Woolen Size: Single Pv New Born Baby Blanket,https://www.indiamart.com/proddetail/pv-new-born-baby-blanket-2854715122955.html?pos=180&kwd=baby mosquito net&tags=BA||||8661.854|Price|proxy|||MDC|rsf:gd-|-qr_nm:gd|res:RC5|com-cf:nl|ptrs:na|ktp:N0|mc:22723|mtp:S|qry_typ:P|lang:en|wc:3|cs:7534|v=4,Miglani Hosiery Factory,https://www.indiamart.com/miglani-hosiery-factory/?pos=180&kwd=baby mosquito net&tags=BA||||8661.854|Price|proxy|||MDC|rsf:gd-|-qr_nm:gd|res:RC5|com-cf:nl|ptrs:na|ktp:N0|mc:22723|mtp:S|qry_typ:P|lang:en|wc:3|cs:7534|v=4,False,,Ludhiana,"B-IV-524, Pansari Bazar, Ludhiana - 141008, Dist.Ludhiana, Punjab",7949324357,
"Cotton Zip Baby Mosquito Net Bed, Size: XL",https://www.indiamart.com/proddetail/baby-mosquito-net-bed-2850658961612.html?pos=181&kwd=baby mosquito net&tags=BB||||8954.051|Price|product|||NA|rsf:gd-|-qr_nm:gd|res:RC5|com-cf:nl|ptrs:na|ktp:N0|mc:22723|mtp:S|qry_typ:P|lang:en|wc:3|cs:7534|v=4,Baby Doll Traders,https://www.indiamart.com/baby-doll-traders/?pos=181&kwd=baby mosquito net&tags=BB||||8954.051|Price|product|||NA|rsf:gd-|-qr_nm:gd|res:RC5|com-cf:nl|ptrs:na|ktp:N0|mc:22723|mtp:S|qry_typ:P|lang:en|wc:3|cs:7534|v=4,False,,Chennai,"7/64, Pillaiyar Koil Street, Eadapalayam, Alamathi, Chennai - 600052, Dist.Chennai, Tamil Nadu",7942958583,
"Cotton White Baby Mosquito Net, For Home, Size: Medium",https://www.indiamart.com/proddetail/white-baby-mosquito-net-2853397412655.html?pos=182&kwd=baby mosquito net&tags=BA||||8234.203|Price|product|||NA|rsf:gd-|-qr_nm:gd|res:RC5|com-cf:nl|ptrs:na|ktp:N0|mc:22723|mtp:S|qry_typ:P|lang:en|wc:3|cs:7534|v=4,Inspire Hype,https://www.indiamart.com/inspirehype/?pos=182&kwd=baby mosquito net&tags=BA||||8234.203|Price|product|||NA|rsf:gd-|-qr_nm:gd|res:RC5|com-cf:nl|ptrs:na|ktp:N0|mc:22723|mtp:S|qry_typ:P|lang:en|wc:3|cs:7534|v=4,False,Denap,Visnagar,"4-B, C H Complex, Denap Tran Rasta Mahesana, Denap, Visnagar - 384315, Dist.Mehsana, Gujarat",7949224033,
"Cotton Chain Net Baby Mosquito Net, For Home, Size: XXL",https://www.indiamart.com/proddetail/net-baby-mosquito-net-2850341045930.html?pos=183&kwd=baby mosquito net&tags=BB||||8734.695|Price|product|||NA|rsf:gd-|-qr_nm:gd|res:RC5|com-cf:nl|ptrs:na|ktp:N0|mc:22723|mtp:S|qry_typ:P|lang:en|wc:3|cs:7534|v=4,Hanu Enterprises,https://www.indiamart.com/hanuenterprisesindia/?pos=183&kwd=baby mosquito net&tags=BB||||8734.695|Price|product|||NA|rsf:gd-|-qr_nm:gd|res:RC5|com-cf:nl|ptrs:na|ktp:N0|mc:22723|mtp:S|qry_typ:P|lang:en|wc:3|cs:7534|v=4,False,,Bahadurgarh,"House No 24/194 Dhola Kua, Bombay Wali Gali, Bahadurgarh - 124507, Dist.Jhajjar, Haryana",8046064096,
"Poly Cotton Baby Mosquito Net, Size: Small",https://www.indiamart.com/proddetail/baby-mosquito-net-24824473248.html?pos=184&kwd=baby mosquito net&tags=BB||||8228.275|Price|product|||NA|rsf:gd-|-qr_nm:gd|res:RC5|com-cf:nl|ptrs:na|ktp:N0|mc:22723|mtp:S|qry_typ:P|lang:en|wc:3|cs:7534|v=4,Shiv Shakti Products,https://www.indiamart.com/shiv-shakti-products-ahmedabad/?pos=184&kwd=baby mosquito net&tags=BB||||8228.275|Price|product|||NA|rsf:gd-|-qr_nm:gd|res:RC5|com-cf:nl|ptrs:na|ktp:N0|mc:22723|mtp:S|qry_typ:P|lang:en|wc:3|cs:7534|v=4,False,Thakkarbapa Nagar,Ahmedabad,"1014, B Tkakarbapanagar, Nr Indrajit Tenament India Colony Mahavir Nagar, Thakkarbapa Nagar, Ahmedabad - 382350, Dist.Ahmedabad, Gujarat",8043882140,
"Nylon Zipper Baby Mosquito Net, Size: Small",https://www.indiamart.com/proddetail/baby-mosquito-net-26172358912.html?pos=185&kwd=baby mosquito net&tags=BB||||9045.955|Price|product|||NA|rsf:gd-|-qr_nm:gd|res:RC5|com-cf:nl|ptrs:na|ktp:N0|mc:22723|mtp:S|qry_typ:P|lang:en|wc:3|cs:7534|v=4,A.K. Traders,https://www.indiamart.com/ak-traderskanpur/?pos=185&kwd=baby mosquito net&tags=BB||||9045.955|Price|product|||NA|rsf:gd-|-qr_nm:gd|res:RC5|com-cf:nl|ptrs:na|ktp:N0|mc:22723|mtp:S|qry_typ:P|lang:en|wc:3|cs:7534|v=4,False,,Kanpur,"42/53, Bisati Bazar, Meston Road, Kanpur Dehat, Kanpur - 208001, Uttar Pradesh",8043855761,
"Nylon Tent Baby Mosquito Net, For Home",https://www.indiamart.com/proddetail/baby-mosquito-net-2850594259491.html?pos=186&kwd=baby mosquito net&tags=BB||||8813.969|Price|product|||NA|rsf:gd-|-qr_nm:gd|res:RC5|com-cf:nl|ptrs:na|ktp:N0|mc:22723|mtp:S|qry_typ:P|lang:en|wc:3|cs:7534|v=4,Shree Vinayak Industries,https://www.indiamart.com/shree-vinayak-industries-meerut/?pos=186&kwd=baby mosquito net&tags=BB||||8813.969|Price|product|||NA|rsf:gd-|-qr_nm:gd|res:RC5|com-cf:nl|ptrs:na|ktp:N0|mc:22723|mtp:S|qry_typ:P|lang:en|wc:3|cs:7534|v=4,False,Suraj Kund,Meerut,"138 Suraj Kund Gandhi Nagar, Suraj Kund, Meerut - 250002, Dist.Meerut, Uttar Pradesh",8048250441,135
"Baby Mosquito Net, Size: Small,Medium & XL",https://www.indiamart.com/proddetail/baby-mosquito-net-23048220712.html?pos=187&kwd=baby mosquito net&tags=BA||||8275.613|Price|product|||NA|rsf:gd-|-qr_nm:gd|res:RC5|com-cf:nl|ptrs:na|ktp:N0|mc:22723|mtp:S|qry_typ:P|lang:en|wc:3|cs:7534|v=4,K K Kids Wear,https://www.indiamart.com/kkkidswear/?pos=187&kwd=baby mosquito net&tags=BA||||8275.613|Price|product|||NA|rsf:gd-|-qr_nm:gd|res:RC5|com-cf:nl|ptrs:na|ktp:N0|mc:22723|mtp:S|qry_typ:P|lang:en|wc:3|cs:7534|v=4,False,Near Ram Temple,Mapusa,"H NO 18/5,,RAM NAGAR,COLVALE H No 18/5, Ram Nagar, Colvale, North Goa,403513,Mapusa, Near Ram Temple, Mapusa - 403502, Dist.North Goa, Goa",8047835522,
"Cotan Sqare Baby Mosquito Net, Size: Medium",https://www.indiamart.com/proddetail/baby-mosquito-net-21487296533.html?pos=188&kwd=baby mosquito net&tags=BB||||8229.666||product|||NA|rsf:gd-|-qr_nm:gd|res:RC5|com-cf:nl|ptrs:na|ktp:N0|mc:22723|mtp:S|qry_typ:P|lang:en|wc:3|cs:7534|v=4,Shree Nathji Net House,https://www.indiamart.com/shree-nathji-net/?pos=188&kwd=baby mosquito net&tags=BB||||8229.666||product|||NA|rsf:gd-|-qr_nm:gd|res:RC5|com-cf:nl|ptrs:na|ktp:N0|mc:22723|mtp:S|qry_typ:P|lang:en|wc:3|cs:7534|v=4,False,GIDC,Vapi,"Plot Number- 297/12, 1st Floor ravi endistrial compound, GIDC, Vapi - 396195, Dist.Valsad, Gujarat",8048372772,985
Green Polyester Baby Mosquito Net,https://www.indiamart.com/proddetail/baby-mosquito-net-20590782573.html?pos=189&kwd=baby mosquito net&tags=BB||||8741.812|Price|product|||NA|rsf:gd-|-qr_nm:gd|res:RC5|com-cf:nl|ptrs:na|ktp:N0|mc:22723|mtp:S|qry_typ:P|lang:en|wc:3|cs:7534|v=4,Dream Mosquito Nets,https://www.indiamart.com/dreammosquito-nets/?pos=189&kwd=baby mosquito net&tags=BB||||8741.812|Price|product|||NA|rsf:gd-|-qr_nm:gd|res:RC5|com-cf:nl|ptrs:na|ktp:N0|mc:22723|mtp:S|qry_typ:P|lang:en|wc:3|cs:7534|v=4,False,Sector 25,Gurugram,"APTT 102 FF BLOCK 49,,HERITAGE CITY,GURGAON Heritage City, Below MG Road, Metro Station,122002,Gurgaon, Sector 25, Gurugram - 122015, Dist.Gurgaon, Haryana",8048371944,570
Foldable Baby Mosquito Net Bed,https://www.indiamart.com/proddetail/foldable-baby-mosquito-net-bed-16922378433.html?pos=190&kwd=baby mosquito net&tags=BB||||8752.144|Price|product|||NA|rsf:gd-|-qr_nm:gd|res:RC5|com-cf:nl|ptrs:na|ktp:N0|mc:22723|mtp:S|qry_typ:P|lang:en|wc:3|cs:7534|v=4,L.K. Child Care,https://www.indiamart.com/lkchildcare/?pos=190&kwd=baby mosquito net&tags=BB||||8752.144|Price|product|||NA|rsf:gd-|-qr_nm:gd|res:RC5|com-cf:nl|ptrs:na|ktp:N0|mc:22723|mtp:S|qry_typ:P|lang:en|wc:3|cs:7534|v=4,False,Dilshad Garden,New Delhi,"G4/14,Sundar Nagri, Dilshad Garden, New Delhi - 110093, Dist.Delhi, Delhi",8069033741,713
"Baby Mosquito Net, For Home, Size: Medium",https://www.indiamart.com/proddetail/baby-mosquito-net-26744668348.html?pos=191&kwd=baby mosquito net&tags=BB||||8752.144|Price|product|||NA|rsf:gd-|-qr_nm:gd|res:RC5|com-cf:nl|ptrs:na|ktp:N0|mc:22723|mtp:S|qry_typ:P|lang:en|wc:3|cs:7534|v=4,Arora Traders,https://www.indiamart.com/aroratraders-newdelhi-india/?pos=191&kwd=baby mosquito net&tags=BB||||8752.144|Price|product|||NA|rsf:gd-|-qr_nm:gd|res:RC5|com-cf:nl|ptrs:na|ktp:N0|mc:22723|mtp:S|qry_typ:P|lang:en|wc:3|cs:7534|v=4,False,Near Shri Ram Mandir,New Delhi,"389,Azad Market, Near Shri Ram Mandir, New Delhi - 110006, Dist.Delhi, Delhi",8047531717,
"Folding Umbrella Type Soft Baby Mosquito Net, Size: Small",https://www.indiamart.com/proddetail/baby-mosquito-net-25635634562.html?pos=192&kwd=baby mosquito net&tags=BB||||8747.203|Price|product|||NA|rsf:gd-|-qr_nm:gd|res:RC5|com-cf:nl|ptrs:na|ktp:N0|mc:22723|mtp:S|qry_typ:P|lang:en|wc:3|cs:7534|v=4,Online Vonline,https://www.indiamart.com/online-vonline/?pos=192&kwd=baby mosquito net&tags=BB||||8747.203|Price|product|||NA|rsf:gd-|-qr_nm:gd|res:RC5|com-cf:nl|ptrs:na|ktp:N0|mc:22723|mtp:S|qry_typ:P|lang:en|wc:3|cs:7534|v=4,False,rajeev colony,Panipat,"1643/11, Street No.6 opp. g.n vidya mandir school, rajeev colony, Panipat - 132103, Dist.Panipat, Haryana",8047655064,
"Print Baby mosquito net, Size: Small",https://www.indiamart.com/proddetail/print-baby-mosquito-net-22216119633.html?pos=193&kwd=baby mosquito net&tags=BA||||8813.969|Price|product|||NA|rsf:gd-|-qr_nm:gd|res:RC5|com-cf:nl|ptrs:na|ktp:N0|mc:22723|mtp:S|qry_typ:P|lang:en|wc:3|cs:7534|v=4,A. P. Enterprises,https://www.indiamart.com/apenterprises-meerut/?pos=193&kwd=baby mosquito net&tags=BA||||8813.969|Price|product|||NA|rsf:gd-|-qr_nm:gd|res:RC5|com-cf:nl|ptrs:na|ktp:N0|mc:22723|mtp:S|qry_typ:P|lang:en|wc:3|cs:7534|v=4,False,humayu nagar,Meerut,"192/2, Hapur Road, Iqbal Nagar Rasool Nagar, Near Bharat Gas Godam, humayu nagar, Meerut - 250002, Dist.Meerut, Uttar Pradesh",8048372855,832
"Polyester White Baby Mosquito Net, Size: Small",https://www.indiamart.com/proddetail/white-baby-mosquito-net-27372173755.html?pos=194&kwd=baby mosquito net&tags=BA||||8559.269|Price|product|||NA|rsf:gd-|-qr_nm:gd|res:RC5|com-cf:nl|ptrs:na|ktp:N0|mc:22723|mtp:S|qry_typ:P|lang:en|wc:3|cs:7534|v=4,Ganesh Textiles,https://www.indiamart.com/ganesh-textiles-indore/?pos=194&kwd=baby mosquito net&tags=BA||||8559.269|Price|product|||NA|rsf:gd-|-qr_nm:gd|res:RC5|com-cf:nl|ptrs:na|ktp:N0|mc:22723|mtp:S|qry_typ:P|lang:en|wc:3|cs:7534|v=4,False,,Indore,"442, Krishnapura, M.G. Road, Indore - 452001, Dist.Indore, Madhya Pradesh",7949224991,
Baby Mosquito Net,,Nysa Traders,https://www.indiamart.com/nysa-traders/?pos=195&kwd=baby mosquito net&tags=BB||||8747.203|Price|product|||NA|rsf:gd-|-qr_nm:gd|res:RC5|com-cf:nl|ptrs:na|ktp:N0|mc:22723|mtp:S|qry_typ:P|lang:en|wc:3|cs:7534|v=4,False,Panipat,Panipat,"Virat Nagar Tower Chowk Sakhi Darbar, Panipat, Panipat - 132103, Dist.Panipat, Haryana",8047308777,6464
Zipper Cloth Baby Mosquito Net,https://www.indiamart.com/proddetail/baby-mosquito-net-22523028188.html?pos=196&kwd=baby mosquito net&tags=BB||||8778.123|Price|product|||NA|rsf:gd-|-qr_nm:gd|res:RC5|com-cf:nl|ptrs:na|ktp:N0|mc:22723|mtp:S|qry_typ:P|lang:en|wc:3|cs:7534|v=4,Silk Route Retail,https://www.indiamart.com/amazing-hind/?pos=196&kwd=baby mosquito net&tags=BB||||8778.123|Price|product|||NA|rsf:gd-|-qr_nm:gd|res:RC5|com-cf:nl|ptrs:na|ktp:N0|mc:22723|mtp:S|qry_typ:P|lang:en|wc:3|cs:7534|v=4,False,,Noida,"GROUND FLOOR,D - 325,SECTOR - 63, Noida - 201301, Dist.Gautam Budh Nagar, Uttar Pradesh",8048954429,
"Baby Mosquito Net, Size: Small",https://www.indiamart.com/proddetail/baby-mosquito-net-22860383873.html?pos=197&kwd=baby mosquito net&tags=BA||||8253.564|Price|product|||NA|rsf:gd-|-qr_nm:gd|res:RC5|com-cf:nl|ptrs:na|ktp:N0|mc:22723|mtp:S|qry_typ:P|lang:en|wc:3|cs:7534|v=4,Patel Plastic Textile,https://www.indiamart.com/patel-plastic-textile/?pos=197&kwd=baby mosquito net&tags=BA||||8253.564|Price|product|||NA|rsf:gd-|-qr_nm:gd|res:RC5|com-cf:nl|ptrs:na|ktp:N0|mc:22723|mtp:S|qry_typ:P|lang:en|wc:3|cs:7534|v=4,False,Uttarsanda,Nadiad,"Shriji Society, Uttarsanda, Nadiad - 387370, Dist.Kheda, Gujarat",8048371774,583
"Poly Cotton Baby mosquito net, For Window, Size: XL",https://www.indiamart.com/proddetail/baby-mosquito-net-2854784340548.html?pos=198&kwd=baby mosquito net&tags=BB||||8210.732|Price|product|||NA|rsf:gd-|-qr_nm:gd|res:RC5|com-cf:nl|ptrs:na|ktp:N0|mc:22723|mtp:S|qry_typ:P|lang:en|wc:3|cs:7534|v=4,Sahreen Creation,https://www.indiamart.com/sahreen-creation-vasai-virar/?pos=198&kwd=baby mosquito net&tags=BB||||8210.732|Price|product|||NA|rsf:gd-|-qr_nm:gd|res:RC5|com-cf:nl|ptrs:na|ktp:N0|mc:22723|mtp:S|qry_typ:P|lang:en|wc:3|cs:7534|v=4,False,,Vasai Virar,"1st Floor Gala No 108 Cts Number 14 Delta Industrial Estate Building No 2 Village Gokhivare,, Vasai Virar - 401208, Dist.Thane, Maharashtra",8047308889,8411
"Cotton Baby Mosquito Net, For Home, Size: Medium",https://www.indiamart.com/proddetail/baby-mosquito-net-2852924923791.html?pos=199&kwd=baby mosquito net&tags=BA||||8228.275||product|||NA|rsf:gd-|-qr_nm:gd|res:RC5|com-cf:nl|ptrs:na|ktp:N0|mc:22723|mtp:S|qry_typ:P|lang:en|wc:3|cs:7534|v=4,Meet Collection,https://www.indiamart.com/meetcollection-ahmedabad/?pos=199&kwd=baby mosquito net&tags=BA||||8228.275||product|||NA|rsf:gd-|-qr_nm:gd|res:RC5|com-cf:nl|ptrs:na|ktp:N0|mc:22723|mtp:S|qry_typ:P|lang:en|wc:3|cs:7534|v=4,False,,Ahmedabad,"2404/a Nr Parbaram Mandir C Ward Kubernagar, Ahmedabad - 382340, Dist.Ahmedabad, Gujarat",8046032091,
Cotton Baby Mosquito Net Bedding,https://www.indiamart.com/proddetail/baby-mosquito-net-bedding-22884032730.html?pos=200&kwd=baby mosquito net&tags=BB||||8230.883|Price|product|||NA|rsf:gd-|-qr_nm:gd|res:RC5|com-cf:nl|ptrs:na|ktp:N0|mc:22723|mtp:S|qry_typ:P|lang:en|wc:3|cs:7534|v=4,Pavitramantra Creation,https://www.indiamart.com/jalpeshbhai-keshubhai-hirpara/?pos=200&kwd=baby mosquito net&tags=BB||||8230.883|Price|product|||NA|rsf:gd-|-qr_nm:gd|res:RC5|com-cf:nl|ptrs:na|ktp:N0|mc:22723|mtp:S|qry_typ:P|lang:en|wc:3|cs:7534|v=4,False,PUNAGAM,Surat,"34 Chhaprabhatha Kosad Road Dwarrkadhish Soc. Kosad, PUNAGAM, Surat - 394107, Dist.Surat, Gujarat",8047625885,
"Baby Mosquito Net, For Home, Size: Small",https://www.indiamart.com/proddetail/baby-mosquito-net-2850832938912.html?pos=201&kwd=baby mosquito net&tags=BB||||8552.925|Price|product|||NA|rsf:gd-|-qr_nm:gd|res:RC5|com-cf:nl|ptrs:na|ktp:N0|mc:22723|mtp:S|qry_typ:P|lang:en|wc:3|cs:7534|v=4,Pooh Creation,https://www.indiamart.com/pooh-creation-rau/?pos=201&kwd=baby mosquito net&tags=BB||||8552.925|Price|product|||NA|rsf:gd-|-qr_nm:gd|res:RC5|com-cf:nl|ptrs:na|ktp:N0|mc:22723|mtp:S|qry_typ:P|lang:en|wc:3|cs:7534|v=4,False,,Rau,"Flat No 405 A-13 Sanskriti Royal Park, Rau Shiv Elite Indore, Rau - 453331, Dist.Indore, Madhya Pradesh",7942824952,
"Cotton Baby Mosquito Net, Size: XL",https://www.indiamart.com/proddetail/baby-mosquito-net-2854579246555.html?pos=202&kwd=baby mosquito net&tags=BB||||8230.883|Price|product|||NA|rsf:gd-|-qr_nm:gd|res:RC5|com-cf:nl|ptrs:na|ktp:N0|mc:22723|mtp:S|qry_typ:P|lang:en|wc:3|cs:7534|v=4,Pooja Enterprise,https://www.indiamart.com/poojaenterprise-159125404/?pos=202&kwd=baby mosquito net&tags=BB||||8230.883|Price|product|||NA|rsf:gd-|-qr_nm:gd|res:RC5|com-cf:nl|ptrs:na|ktp:N0|mc:22723|mtp:S|qry_typ:P|lang:en|wc:3|cs:7534|v=4,False,,Surat,"G4, Achkan Bazaar Baroda Prestige, Varachha, Surat, Surat - 395006, Dist.Surat, Gujarat",8041011891,
"Polyester Baby Mosquito Net, Size: Medium",https://www.indiamart.com/proddetail/baby-mosquito-net-2854582257933.html?pos=203&kwd=baby mosquito net&tags=BA||||8858.621|Price|product|||NA|rsf:gd-|-qr_nm:gd|res:RC5|com-cf:nl|ptrs:na|ktp:N0|mc:22723|mtp:S|qry_typ:P|lang:en|wc:3|cs:7534|v=4,B B Enterprises,https://www.indiamart.com/b-b-enterprises-dibai/?pos=203&kwd=baby mosquito net&tags=BA||||8858.621|Price|product|||NA|rsf:gd-|-qr_nm:gd|res:RC5|com-cf:nl|ptrs:na|ktp:N0|mc:22723|mtp:S|qry_typ:P|lang:en|wc:3|cs:7534|v=4,False,,Dibai,"1st Floor Bada Bazar Dayal Complex Debai Bulandshahr, Dibai - 203393, Uttar Pradesh",8048370732,7695
"Poly Cotton Zipper Baby Mosquito Net, Size: 4 x 2 x 2.5 feet",https://www.indiamart.com/proddetail/baby-mosquito-net-2851511647091.html?pos=204&kwd=baby mosquito net&tags=BA||||8813.969|Price|product|||NA|rsf:gd-|-qr_nm:gd|res:RC5|com-cf:nl|ptrs:na|ktp:N0|mc:22723|mtp:S|qry_typ:P|lang:en|wc:3|cs:7534|v=4,Herkel Expo Private Limited,https://www.indiamart.com/herkel-expo/?pos=204&kwd=baby mosquito net&tags=BA||||8813.969|Price|product|||NA|rsf:gd-|-qr_nm:gd|res:RC5|com-cf:nl|ptrs:na|ktp:N0|mc:22723|mtp:S|qry_typ:P|lang:en|wc:3|cs:7534|v=4,False,,Meerut,"No 47, Neta Hakeemuddin Colony hapur road, Meerut - 250002, Dist.Meerut, Uttar Pradesh",7942658664,
"Steel Wire & Polyester Baby Mosquito Net, For Home, Size: Medium",https://www.indiamart.com/proddetail/baby-mosquito-net-2850804720412.html?pos=205&kwd=baby mosquito net&tags=BB||||8747.203|Price|product|||NA|rsf:gd-|-qr_nm:gd|res:RC5|com-cf:nl|ptrs:na|ktp:N0|mc:22723|mtp:S|qry_typ:P|lang:en|wc:3|cs:7534|v=4,Gurunanak Homes,https://www.indiamart.com/gurunanakhomes-panipat/?pos=205&kwd=baby mosquito net&tags=BB||||8747.203|Price|product|||NA|rsf:gd-|-qr_nm:gd|res:RC5|com-cf:nl|ptrs:na|ktp:N0|mc:22723|mtp:S|qry_typ:P|lang:en|wc:3|cs:7534|v=4,False,,Panipat,"434/10, Near New Subzi Mandi, Panipat - 132103, Dist.Panipat, Haryana",7942564912,
Zipper Cotton Net Large Baby Mosquito Net Bed,https://www.indiamart.com/proddetail/large-baby-mosquito-net-bed-20649841373.html?pos=206&kwd=baby mosquito net&tags=BB||||8413.825|Price|product|||NA|rsf:gd-|-qr_nm:gd|res:RC5|com-cf:nl|ptrs:na|ktp:N0|mc:22723|mtp:S|qry_typ:P|lang:en|wc:3|cs:7534|v=4,JMK Industries,https://www.indiamart.com/jmkbabyitems/?pos=206&kwd=baby mosquito net&tags=BB||||8413.825|Price|product|||NA|rsf:gd-|-qr_nm:gd|res:RC5|com-cf:nl|ptrs:na|ktp:N0|mc:22723|mtp:S|qry_typ:P|lang:en|wc:3|cs:7534|v=4,False,,Hubli,"No.1,,Beside RSS Keshav Kunj, Netaji Colony,HUBLI Beside RSS Keshav Kunj, Netaji Colony,580030,Hubli, Hubli - 580023, Dist.Dharwad, Karnataka",7942661552,
"Cotton Zipper Baby Mosquito Net, For Home, Size: Large",https://www.indiamart.com/proddetail/baby-mosquito-net-2850313184355.html?pos=207&kwd=baby mosquito net&tags=BB||||8661.854|Price|product|||NA|rsf:gd-|-qr_nm:gd|res:RC5|com-cf:nl|ptrs:na|ktp:N0|mc:22723|mtp:S|qry_typ:P|lang:en|wc:3|cs:7534|v=4,Charu Enterprises,https://www.indiamart.com/charu-enterprises-punjab/?pos=207&kwd=baby mosquito net&tags=BB||||8661.854|Price|product|||NA|rsf:gd-|-qr_nm:gd|res:RC5|com-cf:nl|ptrs:na|ktp:N0|mc:22723|mtp:S|qry_typ:P|lang:en|wc:3|cs:7534|v=4,False,,Ludhiana,"6729, Street No.4, Jassian Road, Naveen Nagar, Haibowal Kalan, Ludhiana - 141008, Dist.Ludhiana, Punjab",7942817239,
"Cotton Baby Mosquito Net, For Home, Size: Medium",https://www.indiamart.com/proddetail/baby-mosquito-net-2852162379330.html?pos=208&kwd=baby mosquito net&tags=BA||||8974.737|Price|product|||NA|rsf:gd-|-qr_nm:gd|res:RC5|com-cf:nl|ptrs:na|ktp:N0|mc:22723|mtp:S|qry_typ:P|lang:en|wc:3|cs:7534|v=4,Shamsh General Store,https://www.indiamart.com/ms-shamsh-general-store/?pos=208&kwd=baby mosquito net&tags=BA||||8974.737|Price|product|||NA|rsf:gd-|-qr_nm:gd|res:RC5|com-cf:nl|ptrs:na|ktp:N0|mc:22723|mtp:S|qry_typ:P|lang:en|wc:3|cs:7534|v=4,False,,Bareilly,"Pakeeza Market Sailani Old City, Bareilly - 243001, Dist.Bareilly, Uttar Pradesh",8041012041,
"Cotton Zip Closure Baby Mosquito Net, Size: Small",https://www.indiamart.com/proddetail/baby-mosquito-net-2849603403391.html?pos=209&kwd=baby mosquito net&tags=BB||||8307.81|Price|product|||NA|rsf:gd-|-qr_nm:gd|res:RC5|com-cf:nl|ptrs:na|ktp:N0|mc:22723|mtp:S|qry_typ:P|lang:en|wc:3|cs:7534|v=4,Swati Sales,https://www.indiamart.com/swatisalespune/?pos=209&kwd=baby mosquito net&tags=BB||||8307.81|Price|product|||NA|rsf:gd-|-qr_nm:gd|res:RC5|com-cf:nl|ptrs:na|ktp:N0|mc:22723|mtp:S|qry_typ:P|lang:en|wc:3|cs:7534|v=4,False,,Pune,"325, Opposite Shrikrishna Talkies,Budhwar Peth, Pune - 411002, Dist.Pune, Maharashtra",8047698562,
"Baby Mosquito Net, Size: Medium",https://www.indiamart.com/proddetail/baby-mosquito-net-2850260820388.html?pos=210&kwd=baby mosquito net&tags=BA||||8706.263|Price|product|||NA|rsf:gd-|-qr_nm:gd|res:RC5|com-cf:nl|ptrs:na|ktp:N0|mc:22723|mtp:S|qry_typ:P|lang:en|wc:3|cs:7534|v=4,Anitha Plastics Prop P.Karuppaya,https://www.indiamart.com/anitha-plastics-karur/?pos=210&kwd=baby mosquito net&tags=BA||||8706.263|Price|product|||NA|rsf:gd-|-qr_nm:gd|res:RC5|com-cf:nl|ptrs:na|ktp:N0|mc:22723|mtp:S|qry_typ:P|lang:en|wc:3|cs:7534|v=4,False,S. Vellapatty (PO),Karur,"Shop No. 61B/3, Thillai Nagar East Narikattiyur Road, S. Vellapatty (PO), Karur - 639004, Dist.Karur, Tamil Nadu",7949343074,
