product_title,product_link,company_name,company_link,is_verified_exporter,city_region,city,address_details,phone_number,phone_number_extension
Printed Baby Hooded Towel,https://www.indiamart.com/proddetail/baby-hooded-towel-23483473888.html?pos=1&kwd=baby towel&tags=|PL|||8228.275|Price|product|||SSlc|rsf:pl-|-stype:attr=1|qr_nm:gd|res:RC5|com-cf:nl|ptrs:na|ktp:N0|mc:50260|mtp:S|qry_typ:P|lang:en|wc:2|flavl:3|cs:9596|v=4,King Enterprise,https://www.kingenterpriseindia.com/?pos=1&kwd=baby towel&tags=|PL|||8228.275|Price|product|||SSlc|rsf:pl-|-stype:attr=1|qr_nm:gd|res:RC5|com-cf:nl|ptrs:na|ktp:N0|mc:50260|mtp:S|qry_typ:P|lang:en|wc:2|flavl:3|cs:9596|v=4,False,Opp. Haripura Bus Stand,Ahmedabad,"Block- E 28, Ground Floor, Abhishek Estate-1, Opp. Haripura Bus Stand, Ahmedabad - 380016, Dist.Ahmedabad, Gujarat",8047632934,
Embroidered Baby Bath towel,https://www.indiamart.com/proddetail/embroidered-baby-bath-towel-2850674200830.html?pos=2&kwd=baby towel&tags=BA|PL|||8661.854|Price|product|||SSlc|rsf:pl-|-stype:attr=1|qr_nm:gd|res:RC5|com-cf:nl|ptrs:na|ktp:N0|mc:50260|mtp:S|qry_typ:P|lang:en|wc:2|flavl:3|cs:9596|v=4,Aggarwal Creations,https://www.aggarwalcreations.com/?pos=2&kwd=baby towel&tags=BA|PL|||8661.854|Price|product|||SSlc|rsf:pl-|-stype:attr=1|qr_nm:gd|res:RC5|com-cf:nl|ptrs:na|ktp:N0|mc:50260|mtp:S|qry_typ:P|lang:en|wc:2|flavl:3|cs:9596|v=4,False,Ramesh Nagar,Ludhiana,"Geeta Nagar, Street No. 7, Tajpur Road, Ramesh Nagar, Ludhiana - 141008, Dist.Ludhiana, Punjab",8048962321,
"Multi Use Printed Baby Bath Towel, Newly Born",https://www.indiamart.com/proddetail/baby-bath-towel-2853749803448.html?pos=3&kwd=baby towel&tags=A||||8211.142|Price|product|||SSnp|rsf:gd-|-stype:attr=1|qr_nm:gd|res:RC5|com-cf:nl|ptrs:na|ktp:N0|mc:50260|mtp:S|qry_typ:P|lang:en|wc:2|flavl:3|cs:9596|v=4,Parass Trading,https://www.indiamart.com/parasstrading/?pos=3&kwd=baby towel&tags=A||||8211.142|Price|product|||SSnp|rsf:gd-|-stype:attr=1|qr_nm:gd|res:RC5|com-cf:nl|ptrs:na|ktp:N0|mc:50260|mtp:S|qry_typ:P|lang:en|wc:2|flavl:3|cs:9596|v=4,False,Chembur,Mumbai,"Room no 3, First Floor, Plot no 39, Next to Shivaji Nagar police station,Kherwadi Plot no 39, Chembur, Mumbai - 400071, Dist.Mumbai, Maharashtra",8047631170,
Baby Kids Towel,https://www.indiamart.com/proddetail/baby-kids-towel-2853883798212.html?pos=4&kwd=baby towel&tags=A||||8211.142|Price|product|||TS|rsf:gd-|-stype:attr=1|qr_nm:gd|res:RC5|com-cf:nl|ptrs:na|ktp:N0|mc:50260|mtp:S|qry_typ:P|lang:en|wc:2|flavl:3|cs:9596|v=4,P For Panda Baby Products Private Limited,https://www.p4pandababyproducts.com/?pos=4&kwd=baby towel&tags=A||||8211.142|Price|product|||TS|rsf:gd-|-stype:attr=1|qr_nm:gd|res:RC5|com-cf:nl|ptrs:na|ktp:N0|mc:50260|mtp:S|qry_typ:P|lang:en|wc:2|flavl:3|cs:9596|v=4,False,Goregaon West,Mumbai,"904 A Wing,9 Th Floor,Triple S Heights,Jakeria Road, Goregaon West, Mumbai - 400064, Dist.Mumbai, Maharashtra",7942710871,
Printed 6 colour Baby Towel,https://www.indiamart.com/proddetail/baby-towel-2852168746197.html?pos=5&kwd=baby towel&tags=A||||8626.744|Price|product|||TS|rsf:gd-|-stype:attr=1|qr_nm:gd|res:RC5|com-cf:nl|ptrs:na|ktp:N0|mc:50260|mtp:S|qry_typ:P|lang:en|wc:2|flavl:3|cs:9596|v=4,Prido Apparel,https://www.indiamart.com/prido-apparel/?pos=5&kwd=baby towel&tags=A||||8626.744|Price|product|||TS|rsf:gd-|-stype:attr=1|qr_nm:gd|res:RC5|com-cf:nl|ptrs:na|ktp:N0|mc:50260|mtp:S|qry_typ:P|lang:en|wc:2|flavl:3|cs:9596|v=4,False,Poyampalayam,Tiruppur,"324-A, Dr.Radhakrishnan Nagar North, Pitchampalayam Pudur, P.N.Road, Poyampalayam, Tiruppur - 641603, Dist.Coimbatore, Tamil Nadu",7942867055,
Female Muslin Baby Towel,https://www.indiamart.com/proddetail/muslin-baby-towel-2851565208573.html?pos=6&kwd=baby towel&tags=A||||8668.838|Price|product|||TS|rsf:gd-|-stype:attr=1|qr_nm:gd|res:RC5|com-cf:nl|ptrs:na|ktp:N0|mc:50260|mtp:S|qry_typ:P|lang:en|wc:2|flavl:3|cs:9596|v=4,Meenu's Manchesters,https://www.hotelbedsheet.in/?pos=6&kwd=baby towel&tags=A||||8668.838|Price|product|||TS|rsf:gd-|-stype:attr=1|qr_nm:gd|res:RC5|com-cf:nl|ptrs:na|ktp:N0|mc:50260|mtp:S|qry_typ:P|lang:en|wc:2|flavl:3|cs:9596|v=4,False,Edayankattuvalsu,Erode,"26, Nggo Colony, 1, Edayankattuvalsu, Erode - 638009, Dist.Erode, Tamil Nadu",8048609221,
"Cotton Printed Kids Fancy Towel, For Home",https://www.indiamart.com/proddetail/kids-fancy-towel-20270683888.html?pos=7&kwd=baby towel&tags=A||||8752.144|Price|product|||TS|rsf:gd-|-stype:attr=1|qr_nm:gd|res:RC5|com-cf:nl|ptrs:na|ktp:N0|mc:50260|mtp:S|qry_typ:P|lang:en|wc:2|flavl:3|cs:9596|v=4,Krishna Handloom,https://www.krishnahandloom.co.in/?pos=7&kwd=baby towel&tags=A||||8752.144|Price|product|||TS|rsf:gd-|-stype:attr=1|qr_nm:gd|res:RC5|com-cf:nl|ptrs:na|ktp:N0|mc:50260|mtp:S|qry_typ:P|lang:en|wc:2|flavl:3|cs:9596|v=4,False,Tilak Nagar,New Delhi,"First Floor, 54/9, Ashok Nagar Opposite Jankie Vaishno Dhaba, Tilak Nagar, New Delhi - 110018, Dist.Delhi, Delhi",8048982699,
"Printed White Organic Cotton Baby Muslin Swaddle, 0-2 Years, Size: 110 X 100 cm (l X W)",https://www.indiamart.com/proddetail/organic-cotton-baby-muslin-swaddle-21734108973.html?pos=8&kwd=baby towel&tags=A||||8706.263|Price|product|||TS|rsf:gd-|-stype:attr=1|qr_nm:gd|res:RC5|com-cf:nl|ptrs:na|ktp:N0|mc:50260|mtp:S|qry_typ:P|lang:en|wc:2|flavl:3|cs:9596|v=4,Sivam Export,https://www.indiamart.com/sivamexport-karur/?pos=8&kwd=baby towel&tags=A||||8706.263|Price|product|||TS|rsf:gd-|-stype:attr=1|qr_nm:gd|res:RC5|com-cf:nl|ptrs:na|ktp:N0|mc:50260|mtp:S|qry_typ:P|lang:en|wc:2|flavl:3|cs:9596|v=4,False,,Karur,"6/1 Thiru Nagar,3rd Street, Karur - 639002, Dist.Karur, Tamil Nadu",8046050918,
"MondoV Home And Out Door Newborn Baby Hooded Towel, For Sleeping Purpose",https://www.indiamart.com/proddetail/newborn-baby-hooded-towel-23538380362.html?pos=9&kwd=baby towel&tags=A||||8706.263|Price|product|||TS|rsf:gd-|-stype:attr=1|qr_nm:gd|res:RC5|com-cf:nl|ptrs:na|ktp:N0|mc:50260|mtp:S|qry_typ:P|lang:en|wc:2|flavl:3|cs:9596|v=4,Mercury Weavers,https://www.indiamart.com/mercuryweavers/?pos=9&kwd=baby towel&tags=A||||8706.263|Price|product|||TS|rsf:gd-|-stype:attr=1|qr_nm:gd|res:RC5|com-cf:nl|ptrs:na|ktp:N0|mc:50260|mtp:S|qry_typ:P|lang:en|wc:2|flavl:3|cs:9596|v=4,False,Gowripuram,Karur,"35/3, 2nd Floor, Gandhi Nagar 3rd Cross, Karur Town, Gowripuram, Karur - 639001, Dist.Karur, Tamil Nadu",8047641180,
"Blue Microfiber Baby Towel, For Home, Size: 70x140 cm",https://www.indiamart.com/proddetail/baby-towel-2852646656791.html?pos=10&kwd=baby towel&tags=A||||8752.144|Price|product|||TS|rsf:gd-|-stype:attr=1|qr_nm:gd|res:RC5|com-cf:nl|ptrs:na|ktp:N0|mc:50260|mtp:S|qry_typ:P|lang:en|wc:2|flavl:3|cs:9596|v=4,Iota International,https://www.indiamart.com/iota/?pos=10&kwd=baby towel&tags=A||||8752.144|Price|product|||TS|rsf:gd-|-stype:attr=1|qr_nm:gd|res:RC5|com-cf:nl|ptrs:na|ktp:N0|mc:50260|mtp:S|qry_typ:P|lang:en|wc:2|flavl:3|cs:9596|v=4,False,Uttam Nagar,New Delhi,"B 47, East Uttam Nagar, Uttam Nagar, New Delhi - 110059, Dist.Delhi, Delhi",8048965610,
Newly Born Printed Muslin Baby Towels,https://www.indiamart.com/proddetail/newly-born-printed-muslin-baby-towels-2855018737030.html?pos=11&kwd=baby towel&tags=A||||8626.744|Price|product|||MDC|rsf:gd-|-stype:attr=1|qr_nm:gd|res:RC5|com-cf:nl|ptrs:na|ktp:N0|mc:50260|mtp:S|qry_typ:P|lang:en|wc:2|flavl:3|cs:9596|v=4,Bawse Baby,https://www.indiamart.com/bawseebaby/?pos=11&kwd=baby towel&tags=A||||8626.744|Price|product|||MDC|rsf:gd-|-stype:attr=1|qr_nm:gd|res:RC5|com-cf:nl|ptrs:na|ktp:N0|mc:50260|mtp:S|qry_typ:P|lang:en|wc:2|flavl:3|cs:9596|v=4,False,,Tiruppur,"1/125A Semmetuth Thottam, Kulathuputhur, Andipalayam, Tiruppur - 641687, Dist.Coimbatore, Tamil Nadu",8047552265,
Printed Multicolor Baby Hooded Towel,https://www.indiamart.com/proddetail/baby-hooded-towel-23936751233.html?pos=12&kwd=baby towel&tags=A||||8954.051|Price|product|||TS|rsf:gd-|-stype:attr=1|qr_nm:gd|res:RC5|com-cf:nl|ptrs:na|ktp:N0|mc:50260|mtp:S|qry_typ:P|lang:en|wc:2|flavl:3|cs:9596|v=4,Sundar Garments,https://www.sundargarment.com/?pos=12&kwd=baby towel&tags=A||||8954.051|Price|product|||TS|rsf:gd-|-stype:attr=1|qr_nm:gd|res:RC5|com-cf:nl|ptrs:na|ktp:N0|mc:50260|mtp:S|qry_typ:P|lang:en|wc:2|flavl:3|cs:9596|v=4,False,Kondithop,Chennai,"No-9 Murugesan Street Near Kondithope Park, Kondithop, Chennai - 600079, Dist.Chennai, Tamil Nadu",8048266539,
Plain Multicolor Trendbell Baby Hooded Towel,https://www.indiamart.com/proddetail/trendbell-baby-hooded-towel-25752602412.html?pos=13&kwd=baby towel&tags=A||||8741.812|Price|product|||TS|rsf:gd-|-stype:attr=1|qr_nm:gd|res:RC5|com-cf:nl|ptrs:na|ktp:N0|mc:50260|mtp:S|qry_typ:P|lang:en|wc:2|flavl:3|cs:9596|v=4,TrendBell Global,https://www.trendbellglobal.in/?pos=13&kwd=baby towel&tags=A||||8741.812|Price|product|||TS|rsf:gd-|-stype:attr=1|qr_nm:gd|res:RC5|com-cf:nl|ptrs:na|ktp:N0|mc:50260|mtp:S|qry_typ:P|lang:en|wc:2|flavl:3|cs:9596|v=4,True,Sector 57,Gurgaon,"Sector - 56, Sector 57, Gurgaon - 122011, Dist.Gurgaon, Haryana",8046063207,
Printed Baby Hooded Towel,https://www.indiamart.com/proddetail/printed-baby-hooded-towel-4669878891.html?pos=14&kwd=baby towel&tags=A||||8752.144|Price|product|||TS|rsf:gd-|-stype:attr=1|qr_nm:gd|res:RC5|com-cf:nl|ptrs:na|ktp:N0|mc:50260|mtp:S|qry_typ:P|lang:en|wc:2|flavl:3|cs:9596|v=4,Prem Chand Brothers,https://www.premchandbrothers.com/?pos=14&kwd=baby towel&tags=A||||8752.144|Price|product|||TS|rsf:gd-|-stype:attr=1|qr_nm:gd|res:RC5|com-cf:nl|ptrs:na|ktp:N0|mc:50260|mtp:S|qry_typ:P|lang:en|wc:2|flavl:3|cs:9596|v=4,False,Delhi Sadar Bazar,New Delhi,"No. 5733, Gandhi Market, Bara Gate Sadar Bazar, Delhi Sadar Bazar, New Delhi - 110006, Dist.Delhi, Delhi",8047631281,
Printed Multicolor Baby Cotton Muslin Hooded Towel,https://www.indiamart.com/proddetail/baby-cotton-muslin-hooded-towel-2852519070930.html?pos=15&kwd=baby towel&tags=A||||8668.838|Price|product|||MDC|rsf:gd-|-stype:attr=1|qr_nm:gd|res:RC5|com-cf:nl|ptrs:na|ktp:N0|mc:50260|mtp:S|qry_typ:P|lang:en|wc:2|cs:8830|v=4,Rakshita Exports,https://www.indiamart.com/rakshita-exports/?pos=15&kwd=baby towel&tags=A||||8668.838|Price|product|||MDC|rsf:gd-|-stype:attr=1|qr_nm:gd|res:RC5|com-cf:nl|ptrs:na|ktp:N0|mc:50260|mtp:S|qry_typ:P|lang:en|wc:2|cs:8830|v=4,False,erode,Erode,"95/1, Bagiya Complex, Nasiyanur Road, Ondikkaranpalayam, erode, Erode - 638107, Dist.Erode, Tamil Nadu",7942708189,
Cotton Unisex Mini Berry Baby Hooded Towel,https://www.indiamart.com/proddetail/mini-berry-baby-hooded-towel-21114147733.html?pos=16&kwd=baby towel&tags=A||||8663.873|Price|product|||MDC|rsf:gd-|-stype:attr=1|qr_nm:gd|res:RC5|com-cf:nl|ptrs:na|ktp:N0|mc:50260|mtp:S|qry_typ:P|lang:en|wc:2|cs:8830|v=4,Mini Berry,https://www.indiamart.com/miniberry/?pos=16&kwd=baby towel&tags=A||||8663.873|Price|product|||MDC|rsf:gd-|-stype:attr=1|qr_nm:gd|res:RC5|com-cf:nl|ptrs:na|ktp:N0|mc:50260|mtp:S|qry_typ:P|lang:en|wc:2|cs:8830|v=4,False,Vidyaranyapura,Bengaluru,"2, Navratna Complex, 2nd Floor, Vidyaranyapura, Bengaluru - 560097, Dist.Bengaluru, Karnataka",8046069832,
"Printed Unisex Baby Bath Towel, New Born",https://www.indiamart.com/proddetail/baby-bath-towel-24314642497.html?pos=17&kwd=baby towel&tags=A||||8228.275|Price|product|||MDC|rsf:gd-|-stype:attr=1|qr_nm:gd|res:RC5|com-cf:nl|ptrs:na|ktp:N0|mc:50260|mtp:S|qry_typ:P|lang:en|wc:2|cs:8830|v=4,Sanskriti Inc,https://www.indiamart.com/sanskriti-inc/?pos=17&kwd=baby towel&tags=A||||8228.275|Price|product|||MDC|rsf:gd-|-stype:attr=1|qr_nm:gd|res:RC5|com-cf:nl|ptrs:na|ktp:N0|mc:50260|mtp:S|qry_typ:P|lang:en|wc:2|cs:8830|v=4,False,Nikol,Ahmedabad,"Shop No-26, Surjit Co Op H Soc Ltd, Nr. India Colony, Nikol Road, Nikol, Ahmedabad - 382350, Dist.Ahmedabad, Gujarat",8046047726,
Newborn Baby Towel,https://www.indiamart.com/proddetail/newborn-baby-towel-2852979185330.html?pos=18&kwd=baby towel&tags=A||||8626.744|Price|product|||TS|rsf:gd-|-stype:attr=1|qr_nm:gd|res:RC5|com-cf:nl|ptrs:na|ktp:N0|mc:50260|mtp:S|qry_typ:P|lang:en|wc:2|cs:8830|v=4,Richie International,https://www.indiamart.com/richieinternational/?pos=18&kwd=baby towel&tags=A||||8626.744|Price|product|||TS|rsf:gd-|-stype:attr=1|qr_nm:gd|res:RC5|com-cf:nl|ptrs:na|ktp:N0|mc:50260|mtp:S|qry_typ:P|lang:en|wc:2|cs:8830|v=4,False,Nallur,Tiruppur,"48 Csi Colony, Nallur, Vijayapuram Post vijayapuram kangayam road, Nallur, Tiruppur - 641606, Dist.Coimbatore, Tamil Nadu",8047698456,
Cotton Newborn Baby Hooded Towel-60x75 cm,https://www.indiamart.com/proddetail/cotton-newborn-baby-hooded-towel-60x75-cm-2854845838497.html?pos=19&kwd=baby towel&tags=A||||8706.263|Price|product|||TS|rsf:gd-|-stype:attr=1|qr_nm:gd|res:RC5|com-cf:nl|ptrs:na|ktp:N0|mc:50260|mtp:S|qry_typ:P|lang:en|wc:2|cs:8830|v=4,Shree Garments,https://www.indiamart.com/shree-garments-karur/?pos=19&kwd=baby towel&tags=A||||8706.263|Price|product|||TS|rsf:gd-|-stype:attr=1|qr_nm:gd|res:RC5|com-cf:nl|ptrs:na|ktp:N0|mc:50260|mtp:S|qry_typ:P|lang:en|wc:2|cs:8830|v=4,False,Vengamedu,Karur,"6, Maruthamuthu Thottam, Opp To Sp Colony, Vengameduvengamedu,, Vengamedu, Karur - 639006, Dist.Karur, Tamil Nadu",7942719649,
Baby Hooded Towel,https://www.indiamart.com/proddetail/baby-hooded-towel-2851209756533.html?pos=20&kwd=baby towel&tags=BA||||8668.838|Price|product|||TS|rsf:gd-|-stype:attr=1|qr_nm:gd|res:RC5|com-cf:nl|ptrs:na|ktp:N0|mc:50260|mtp:S|qry_typ:P|lang:en|wc:2|cs:8830|v=4,Ram Textiles,https://www.indiamart.com/ram-textiles/?pos=20&kwd=baby towel&tags=BA||||8668.838|Price|product|||TS|rsf:gd-|-stype:attr=1|qr_nm:gd|res:RC5|com-cf:nl|ptrs:na|ktp:N0|mc:50260|mtp:S|qry_typ:P|lang:en|wc:2|cs:8830|v=4,False,Veerappanchatram,Erode,"No. 131, M. G. R. Street-1, Veerappanchatram, Veerappanchatram, Erode - 638004, Dist.Erode, Tamil Nadu",8048611846,
Cotton Printed Baby Soft Bath Towel,https://www.indiamart.com/proddetail/baby-bath-towel-19619238955.html?pos=21&kwd=baby towel&tags=A||||8752.144|Price|product|||TS|rsf:gd-|-stype:attr=1|qr_nm:gd|res:RC5|com-cf:nl|ptrs:na|ktp:N0|mc:50260|mtp:S|qry_typ:P|lang:en|wc:2|cs:8830|v=4,Shree Balaji Infant Wear,https://www.indiamart.com/chhotejanab/?pos=21&kwd=baby towel&tags=A||||8752.144|Price|product|||TS|rsf:gd-|-stype:attr=1|qr_nm:gd|res:RC5|com-cf:nl|ptrs:na|ktp:N0|mc:50260|mtp:S|qry_typ:P|lang:en|wc:2|cs:8830|v=4,False,Pahari Dhiraj,New Delhi,"1583- 84, Hathi Khana, Aziz Ganj, Bahadur Garh Road, Pahari Dhiraj, New Delhi - 110006, Dist.Delhi, Delhi",8047639754,
"Baby White Muslin Cotton Swaddle ,Towel",https://www.indiamart.com/proddetail/baby-white-muslin-cotton-swaddle-towel-2854138792248.html?pos=22&kwd=baby towel&tags=A||||8706.263|Price|product|||MDC|rsf:gd-|-stype:attr=1|qr_nm:gd|res:RC5|com-cf:nl|ptrs:na|ktp:N0|mc:50260|mtp:S|qry_typ:P|lang:en|wc:2|cs:8830|v=4,RKND Traders,https://www.indiamart.com/rknd-traders/?pos=22&kwd=baby towel&tags=A||||8706.263|Price|product|||MDC|rsf:gd-|-stype:attr=1|qr_nm:gd|res:RC5|com-cf:nl|ptrs:na|ktp:N0|mc:50260|mtp:S|qry_typ:P|lang:en|wc:2|cs:8830|v=4,False,,Karur,"No.86/66, Mettu Street, Karur - 639001, Dist.Karur, Tamil Nadu",8045730806,
Baby Hooded Towel,,Mahi Hosiery,https://www.indiamart.com/mahi-hosierydelhi/?pos=23&kwd=baby towel&tags=A||||8752.144|Price|product|||MDC|rsf:gd-|-stype:attr=1|qr_nm:gd|res:RC5|com-cf:nl|ptrs:na|ktp:N0|mc:50260|mtp:S|qry_typ:P|lang:en|wc:2|cs:8830|v=4,False,Shastri Nagar,New Delhi,"144, Second Floor, Gali No-5, New Main Road, New Lahore Colony, Shastri Nagar, Shastri Nagar, New Delhi - 110031, Dist.Delhi, Delhi",8047699176,
"Rectangle Cotton Baby Bath Towel, GSM: 100 GSM",https://www.indiamart.com/proddetail/rectangle-cotton-baby-bath-towel-2851233766248.html?pos=24&kwd=baby towel&tags=A||||8515.687|Price|product|||MDC|rsf:gd-|-stype:attr=1|qr_nm:gd|res:RC5|com-cf:nl|ptrs:na|ktp:N0|mc:50260|mtp:S|qry_typ:P|lang:en|wc:2|cs:8830|v=4,Pamu Textiles,https://www.indiamart.com/pamu-textiles/?pos=24&kwd=baby towel&tags=A||||8515.687|Price|product|||MDC|rsf:gd-|-stype:attr=1|qr_nm:gd|res:RC5|com-cf:nl|ptrs:na|ktp:N0|mc:50260|mtp:S|qry_typ:P|lang:en|wc:2|cs:8830|v=4,False,,Solapur,"PT 11, Asha Nagar, Solapur North, Kumbhari, Solapur - 413006, Dist.Solapur, Maharashtra",7949329534,
"Cotton Waffle yellow Baby Printed Towel, For Home, 10 12 Yrs",https://www.indiamart.com/proddetail/baby-printed-towel-2850954245155.html?pos=25&kwd=baby towel&tags=BA||||8601.347|Price|product|||TS|rsf:gd-|-stype:attr=1|qr_nm:gd|res:RC5|com-cf:nl|ptrs:na|ktp:N0|mc:50260|mtp:S|qry_typ:P|lang:en|wc:2|cs:8830|v=4,Veer Handircrafts,https://www.veerhandicrafts.com/?pos=25&kwd=baby towel&tags=BA||||8601.347|Price|product|||TS|rsf:gd-|-stype:attr=1|qr_nm:gd|res:RC5|com-cf:nl|ptrs:na|ktp:N0|mc:50260|mtp:S|qry_typ:P|lang:en|wc:2|cs:8830|v=4,True,Shyam Nagar,Jaipur,"Basement, 192/331, Sector 19, Kumbha Marg, Shyam Nagar, Jaipur - 302029, Dist.Jaipur, Rajasthan",8043851762,
"Firstin Baby Towel - Need Agent, Online B2b, Distributor, Dealer, Wholesaler, Trader",https://www.indiamart.com/proddetail/firstin-baby-towel-need-agent-online-b2b-distributor-dealer-wholesaler-trader-21796397955.html?pos=26&kwd=baby towel&tags=BA||||8668.838|Price|product|||TS|rsf:gd-|-stype:attr=1|qr_nm:gd|res:RC5|com-cf:nl|ptrs:na|ktp:N0|mc:50260|mtp:S|qry_typ:P|lang:en|wc:2|cs:8830|v=4,Sri Kalyan Export Private Limited,https://www.firstinbabydress.com/?pos=26&kwd=baby towel&tags=BA||||8668.838|Price|product|||TS|rsf:gd-|-stype:attr=1|qr_nm:gd|res:RC5|com-cf:nl|ptrs:na|ktp:N0|mc:50260|mtp:S|qry_typ:P|lang:en|wc:2|cs:8830|v=4,False,Vilarasampatti,Erode,"192/4, Ishwarya Garden, Sengodampalayam, Villarasampatti Post, Erode,, Vilarasampatti, Erode - 638107, Dist.Erode, Tamil Nadu",8046030291,
Printed Fabric: Cotton Baby Hooded Bath Towel,https://www.indiamart.com/proddetail/baby-hooded-bath-towel-2854518802448.html?pos=27&kwd=baby towel&tags=A||||8230.883|Price|product|||TS|rsf:gd-|-stype:attr=1|qr_nm:gd|res:RC5|com-cf:nl|ptrs:na|ktp:N0|mc:50260|mtp:S|qry_typ:P|lang:en|wc:2|cs:8830|v=4,BABYHOLIC,https://www.babyholic.in/?pos=27&kwd=baby towel&tags=A||||8230.883|Price|product|||TS|rsf:gd-|-stype:attr=1|qr_nm:gd|res:RC5|com-cf:nl|ptrs:na|ktp:N0|mc:50260|mtp:S|qry_typ:P|lang:en|wc:2|cs:8830|v=4,False,,Surat,"Ground Floor, Plot No. F/56/, And F/57, Laxmi Narayan Industrial Estate, Udhana, Kailash Fashion, Surat - 394210, Dist.Surat, Gujarat",8045732096,
"Microfiber Baby Towel, 3-12 Months",https://www.indiamart.com/proddetail/microfiber-baby-towel-2854474917988.html?pos=28&kwd=baby towel&tags=A||||8752.144|Price|product|||MDC|rsf:gd-|-stype:attr=1|qr_nm:gd|res:RC5|com-cf:nl|ptrs:na|ktp:N0|mc:50260|mtp:S|qry_typ:P|lang:en|wc:2|cs:8830|v=4,Daulat Ram And Sons,https://www.indiamart.com/daulatramsonsindia/?pos=28&kwd=baby towel&tags=A||||8752.144|Price|product|||MDC|rsf:gd-|-stype:attr=1|qr_nm:gd|res:RC5|com-cf:nl|ptrs:na|ktp:N0|mc:50260|mtp:S|qry_typ:P|lang:en|wc:2|cs:8830|v=4,False,Central Delhi Sadar Bazar 110006,New Delhi,"5509, GF, Gandhi Market, Central Delhi Sadar Bazar 110006, New Delhi - 110006, Dist.Delhi, Delhi",7949323816,
Fabric: Cotton Printed Baby Hooded Bath Towel,https://www.indiamart.com/proddetail/printed-baby-hooded-bath-towel-2855068232373.html?pos=29&kwd=baby towel&tags=A||||8752.144|Price|product|||MDC|rsf:gd-|-stype:attr=1|qr_nm:gd|res:RC5|com-cf:nl|ptrs:na|ktp:N0|mc:50260|mtp:S|qry_typ:P|lang:en|wc:2|cs:8830|v=4,Madhav Hosiery,https://www.indiamart.com/madhav-hosiery-newdelhi/?pos=29&kwd=baby towel&tags=A||||8752.144|Price|product|||MDC|rsf:gd-|-stype:attr=1|qr_nm:gd|res:RC5|com-cf:nl|ptrs:na|ktp:N0|mc:50260|mtp:S|qry_typ:P|lang:en|wc:2|cs:8830|v=4,False,,New Delhi,"First Floor, 106, 1, Sunder Park, Shastri Nagar, East Delhi, New Delhi - 110031, Dist.Delhi, Delhi",7949307518,
"Cotton Muslin Baby Towel, Newly Born",https://www.indiamart.com/proddetail/muslin-baby-towel-2854158235655.html?pos=30&kwd=baby towel&tags=A||||8954.051|Price|product|||TS|rsf:gd-|-stype:attr=1|qr_nm:gd|res:RC5|com-cf:nl|ptrs:na|ktp:N0|mc:50260|mtp:S|qry_typ:P|lang:en|wc:2|cs:8830|v=4,Tetra Clothing,https://www.tetraclothing.in/?pos=30&kwd=baby towel&tags=A||||8954.051|Price|product|||TS|rsf:gd-|-stype:attr=1|qr_nm:gd|res:RC5|com-cf:nl|ptrs:na|ktp:N0|mc:50260|mtp:S|qry_typ:P|lang:en|wc:2|cs:8830|v=4,True,Gopichettipalaiyam,Chennai,"No. 59/28, Balu Building, Gopichettipalaiyam, Chennai - 638476, Dist.Chennai, Tamil Nadu",8048957951,
Visibath Bed Bath Towel (10 N Per Pack) Set Of 10 Packs.,https://www.indiamart.com/proddetail/visibath-bed-bath-towel-10-n-per-pack-set-of-10-packs-22149399830.html?pos=31&kwd=baby towel&tags=BA||||8752.144|Price|product|||TS|rsf:gd-|-stype:attr=1|qr_nm:gd|res:RC5|com-cf:nl|ptrs:na|ktp:N0|mc:50260|mtp:S|qry_typ:P|lang:en|wc:2|cs:8830|v=4,NRV Global Solutions & Services,https://www.visionwetwipes.com/?pos=31&kwd=baby towel&tags=BA||||8752.144|Price|product|||TS|rsf:gd-|-stype:attr=1|qr_nm:gd|res:RC5|com-cf:nl|ptrs:na|ktp:N0|mc:50260|mtp:S|qry_typ:P|lang:en|wc:2|cs:8830|v=4,False,Hari Nagar,New Delhi,"F-47B, MIG Flats, Hari Nagar, Hari Nagar, New Delhi - 110064, Dist.Delhi, Delhi",8048964379,
Pink Cotton Baby Hooded Towels,https://www.indiamart.com/proddetail/cotton-baby-hooded-towels-24733791388.html?pos=32&kwd=baby towel&tags=A||||8752.144|Price|product|||TS|rsf:gd-|-stype:attr=1|qr_nm:gd|res:RC5|com-cf:nl|ptrs:na|ktp:N0|mc:50260|mtp:S|qry_typ:P|lang:en|wc:2|cs:8830|v=4,Swastik Enterprises,https://www.indiamart.com/swastikentpndelhi/?pos=32&kwd=baby towel&tags=A||||8752.144|Price|product|||TS|rsf:gd-|-stype:attr=1|qr_nm:gd|res:RC5|com-cf:nl|ptrs:na|ktp:N0|mc:50260|mtp:S|qry_typ:P|lang:en|wc:2|cs:8830|v=4,False,Shastri Nagar,New Delhi,"M 29, Shastri Nagar, Street No. 1, Shastri Nagar, New Delhi - 110052, Dist.Delhi, Delhi",8048607766,
Printed Baby Towel,https://www.indiamart.com/proddetail/printed-baby-towel-25460171288.html?pos=33&kwd=baby towel&tags=A||||8211.142|Price|product|||TS|rsf:gd-|-stype:attr=1|qr_nm:gd|res:RC5|com-cf:nl|ptrs:na|ktp:N0|mc:50260|mtp:S|qry_typ:P|lang:en|wc:2|cs:8830|v=4,Ali & Hassan Exports,https://www.indiamart.com/ali-hassanexports/?pos=33&kwd=baby towel&tags=A||||8211.142|Price|product|||TS|rsf:gd-|-stype:attr=1|qr_nm:gd|res:RC5|com-cf:nl|ptrs:na|ktp:N0|mc:50260|mtp:S|qry_typ:P|lang:en|wc:2|cs:8830|v=4,False,Mazgaon,Mumbai,"Gala No. 11/12, Next To Gloria Girls School, St. Savta Marg Byculla East, Mazgaon, Mumbai - 400027, Dist.Mumbai, Maharashtra",8046070995,
BABY TOWEL,https://www.indiamart.com/proddetail/baby-towel-21852789633.html?pos=34&kwd=baby towel&tags=A||||9839.57|Price|product|||TS|rsf:gd-|-stype:attr=1|qr_nm:gd|res:RC5|com-cf:nl|ptrs:na|ktp:N0|mc:50260|mtp:S|qry_typ:P|lang:en|wc:2|cs:8830|v=4,Guru Ram Das Store,https://www.indiamart.com/gururamdasstore/?pos=34&kwd=baby towel&tags=A||||9839.57|Price|product|||TS|rsf:gd-|-stype:attr=1|qr_nm:gd|res:RC5|com-cf:nl|ptrs:na|ktp:N0|mc:50260|mtp:S|qry_typ:P|lang:en|wc:2|cs:8830|v=4,False,Machua,Kolkata,"1st FRL, FL-1B, 162/1B, Muktaram Babu Street, Machua, Kolkata - 700007, Dist.Kolkata, West Bengal",7942550681,
"Printed Baby Soft Towels, Packaging Type: packet, 12 -15",https://www.indiamart.com/proddetail/baby-soft-towels-25942717173.html?pos=35&kwd=baby towel&tags=A||||9839.57|Price|product|||MDC|rsf:gd-|-stype:attr=1|qr_nm:gd|res:RC5|com-cf:nl|ptrs:na|ktp:N0|mc:50260|mtp:S|qry_typ:P|lang:en|wc:2|cs:8830|v=4,Raunak,https://www.indiamart.com/raunakkolkatta/?pos=35&kwd=baby towel&tags=A||||9839.57|Price|product|||MDC|rsf:gd-|-stype:attr=1|qr_nm:gd|res:RC5|com-cf:nl|ptrs:na|ktp:N0|mc:50260|mtp:S|qry_typ:P|lang:en|wc:2|cs:8830|v=4,False,Tangra,Kolkata,"164, 2nd Floor, Mahatma Gandhi Road, Burra Bazar, Tangra, Kolkata - 700007, Dist.Kolkata, West Bengal",8047676518,
"Plain Blue Baby Velvet Towel Sheet, Upto 12 Months",https://www.indiamart.com/proddetail/baby-velvet-towel-sheet-2851636205148.html?pos=36&kwd=baby towel&tags=A||||8752.144|Price|product|||TS|rsf:gd-|-stype:attr=1|qr_nm:gd|res:RC5|com-cf:nl|ptrs:na|ktp:N0|mc:50260|mtp:S|qry_typ:P|lang:en|wc:2|cs:8830|v=4,National Overseas,https://www.indiamart.com/nationaltraders-vishwashnagar/?pos=36&kwd=baby towel&tags=A||||8752.144|Price|product|||TS|rsf:gd-|-stype:attr=1|qr_nm:gd|res:RC5|com-cf:nl|ptrs:na|ktp:N0|mc:50260|mtp:S|qry_typ:P|lang:en|wc:2|cs:8830|v=4,False,Shahdara,New Delhi,"1/99, Gali No. 3, Vishwas Nagar, Shahdara, New Delhi - 110032, Dist.Delhi, Delhi",8046047673,
"Printed GREY Imported Cotton Towel For Baby's., Packaging Type: POLY BAG",https://www.indiamart.com/proddetail/imported-cotton-towel-for-baby-s-2853743181433.html?pos=37&kwd=baby towel&tags=A||||8259.31|Price|product|||TS|rsf:gd-|-stype:attr=1|qr_nm:gd|res:RC5|com-cf:nl|ptrs:na|ktp:N0|mc:50260|mtp:S|qry_typ:P|lang:en|wc:2|cs:8830|v=4,Padhariya International,https://www.padhariyainternational.in/?pos=37&kwd=baby towel&tags=A||||8259.31|Price|product|||TS|rsf:gd-|-stype:attr=1|qr_nm:gd|res:RC5|com-cf:nl|ptrs:na|ktp:N0|mc:50260|mtp:S|qry_typ:P|lang:en|wc:2|cs:8830|v=4,False,Abhiram Nagar,Bardoli,"A-30, Abhiram Nagar Society, Nr Bhuvenseshwari Baug , Bardoli,, Abhiram Nagar, Bardoli - 394601, Dist.Surat, Gujarat",8044011879,
Baby Bath Towel,https://www.indiamart.com/proddetail/baby-bath-towel-2854848143433.html?pos=38&kwd=baby towel&tags=A||||8747.203|Price|product|||MDC|rsf:gd-|-stype:attr=1|qr_nm:gd|res:RC5|com-cf:nl|ptrs:na|ktp:N0|mc:50260|mtp:S|qry_typ:P|lang:en|wc:2|cs:8830|v=4,Delite Home Furnishings,https://www.indiamart.com/delitehomefurnishings/?pos=38&kwd=baby towel&tags=A||||8747.203|Price|product|||MDC|rsf:gd-|-stype:attr=1|qr_nm:gd|res:RC5|com-cf:nl|ptrs:na|ktp:N0|mc:50260|mtp:S|qry_typ:P|lang:en|wc:2|cs:8830|v=4,False,Chowk,Panipat,"First Floor, H.No 1629, SEC 11, Near Sai Baba Chowk, Back Side of Pruthi Hospital, NHBC Sector 11, Chowk, Panipat - 132103, Dist.Panipat, Haryana",7942969606,
Printed Multicolor Kids Bath Towel,https://www.indiamart.com/proddetail/kids-bath-towel-23588449012.html?pos=39&kwd=baby towel&tags=A||||8515.687|Price|product|||TS|rsf:gd-|-stype:attr=1|qr_nm:gd|res:RC5|com-cf:nl|ptrs:na|ktp:N0|mc:50260|mtp:S|qry_typ:P|lang:en|wc:2|cs:8830|v=4,Ranka Trade Centre,https://www.indiamart.com/ranka-trade-centre/?pos=39&kwd=baby towel&tags=A||||8515.687|Price|product|||TS|rsf:gd-|-stype:attr=1|qr_nm:gd|res:RC5|com-cf:nl|ptrs:na|ktp:N0|mc:50260|mtp:S|qry_typ:P|lang:en|wc:2|cs:8830|v=4,False,Mangalwar Peth,Solapur,"35/36/37, Ground, Mahavir Market, Phaltan Galli, West Mangalwar Peth, Mangalwar Peth, Solapur - 413002, Dist.Solapur, Maharashtra",8048975996,
Baby Bath Towel,https://www.indiamart.com/proddetail/baby-bath-towel-2853427078433.html?pos=40&kwd=baby towel&tags=A||||8747.203||product|||TS|rsf:gd-|-stype:attr=1|qr_nm:gd|res:RC5|com-cf:nl|ptrs:na|ktp:N0|mc:50260|mtp:S|qry_typ:P|lang:en|wc:2|cs:8830|v=4,Anand International,https://www.bestvaluewholesale.co.in/?pos=40&kwd=baby towel&tags=A||||8747.203||product|||TS|rsf:gd-|-stype:attr=1|qr_nm:gd|res:RC5|com-cf:nl|ptrs:na|ktp:N0|mc:50260|mtp:S|qry_typ:P|lang:en|wc:2|cs:8830|v=4,False,Shiv Nagar,Panipat,"Plot No-181, Anand International, Sec-25 Part-2, Huda,, Shiv Nagar, Panipat - 132103, Dist.Panipat, Haryana",8047314578,
Aop Printed Fabric Unisex Baby Carry Towel,https://www.indiamart.com/proddetail/baby-carry-towel-11312771348.html?pos=41&kwd=baby towel&tags=A||||8626.744|Price|product|||TS|rsf:gd-|-stype:attr=1|qr_nm:gd|res:RC5|com-cf:nl|ptrs:na|ktp:N0|mc:50260|mtp:S|qry_typ:P|lang:en|wc:2|cs:8830|v=4,Sudarshaan Impex,https://www.indiamart.com/sudarshaan-impex/?pos=41&kwd=baby towel&tags=A||||8626.744|Price|product|||TS|rsf:gd-|-stype:attr=1|qr_nm:gd|res:RC5|com-cf:nl|ptrs:na|ktp:N0|mc:50260|mtp:S|qry_typ:P|lang:en|wc:2|cs:8830|v=4,False,Jeeva Nagar,Tiruppur,"No.8/398C, Selvalakshmi nagar, 1st street, Angeri palayam, Jeeva Nagar, Tiruppur - 641603, Dist.Coimbatore, Tamil Nadu",8046077280,
"Vandana Handicraft Multicolor Cotton Printed Born Baby Towel Supplier, Packaging Type: Poly Bag",https://www.indiamart.com/proddetail/cotton-printed-born-baby-towel-supplier-23701874488.html?pos=42&kwd=baby towel&tags=A||||8601.347|Price|product|||TS|rsf:gd-|-stype:attr=1|qr_nm:gd|res:RC5|com-cf:nl|ptrs:na|ktp:N0|mc:50260|mtp:S|qry_typ:P|lang:en|wc:2|cs:8830|v=4,Vandana Handicraft,https://www.vandanahandicraft.net/?pos=42&kwd=baby towel&tags=A||||8601.347|Price|product|||TS|rsf:gd-|-stype:attr=1|qr_nm:gd|res:RC5|com-cf:nl|ptrs:na|ktp:N0|mc:50260|mtp:S|qry_typ:P|lang:en|wc:2|cs:8830|v=4,True,Sitapura Industrial Area,Jaipur,"Plot No. H-1167, Sitapura Industrial Area, Phase III, Sitapura Industrial Area, Jaipur - 302022, Dist.Jaipur, Rajasthan",8046049036,
"Printed Baby Soft Towels, Packaging Type: packet, 12 -15",https://www.indiamart.com/proddetail/baby-soft-towels-25942717173.html?pos=43&kwd=baby towel&tags=A||||9839.57|Price|product|||MDC|rsf:gd-|-stype:attr=1|qr_nm:gd|res:RC5|com-cf:nl|ptrs:na|ktp:N0|mc:50260|mtp:S|qry_typ:P|lang:en|wc:2|cs:8830|v=4,Raunak,https://www.indiamart.com/raunakkolkatta/?pos=43&kwd=baby towel&tags=A||||9839.57|Price|product|||MDC|rsf:gd-|-stype:attr=1|qr_nm:gd|res:RC5|com-cf:nl|ptrs:na|ktp:N0|mc:50260|mtp:S|qry_typ:P|lang:en|wc:2|cs:8830|v=4,False,Tangra,Kolkata,"164, 2nd Floor, Mahatma Gandhi Road, Burra Bazar, Tangra, Kolkata - 700007, Dist.Kolkata, West Bengal",8047676518,
Pink Cotton Baby Hooded Towels,https://www.indiamart.com/proddetail/cotton-baby-hooded-towels-24733791388.html?pos=44&kwd=baby towel&tags=A||||8752.144|Price|product|||TS|rsf:gd-|-stype:attr=1|qr_nm:gd|res:RC5|com-cf:nl|ptrs:na|ktp:N0|mc:50260|mtp:S|qry_typ:P|lang:en|wc:2|cs:8830|v=4,Swastik Enterprises,https://www.indiamart.com/swastikentpndelhi/?pos=44&kwd=baby towel&tags=A||||8752.144|Price|product|||TS|rsf:gd-|-stype:attr=1|qr_nm:gd|res:RC5|com-cf:nl|ptrs:na|ktp:N0|mc:50260|mtp:S|qry_typ:P|lang:en|wc:2|cs:8830|v=4,False,Shastri Nagar,New Delhi,"M 29, Shastri Nagar, Street No. 1, Shastri Nagar, New Delhi - 110052, Dist.Delhi, Delhi",8048607766,
"Plain Blue Baby Velvet Towel Sheet, Upto 12 Months",https://www.indiamart.com/proddetail/baby-velvet-towel-sheet-2851636205148.html?pos=45&kwd=baby towel&tags=A||||8752.144|Price|product|||TS|rsf:gd-|-stype:attr=1|qr_nm:gd|res:RC5|com-cf:nl|ptrs:na|ktp:N0|mc:50260|mtp:S|qry_typ:P|lang:en|wc:2|cs:8830|v=4,National Overseas,https://www.indiamart.com/nationaltraders-vishwashnagar/?pos=45&kwd=baby towel&tags=A||||8752.144|Price|product|||TS|rsf:gd-|-stype:attr=1|qr_nm:gd|res:RC5|com-cf:nl|ptrs:na|ktp:N0|mc:50260|mtp:S|qry_typ:P|lang:en|wc:2|cs:8830|v=4,False,Shahdara,New Delhi,"1/99, Gali No. 3, Vishwas Nagar, Shahdara, New Delhi - 110032, Dist.Delhi, Delhi",8046047673,
"Printed GREY Imported Cotton Towel For Baby's., Packaging Type: POLY BAG",https://www.indiamart.com/proddetail/imported-cotton-towel-for-baby-s-2853743181433.html?pos=46&kwd=baby towel&tags=A||||8259.31|Price|product|||TS|rsf:gd-|-stype:attr=1|qr_nm:gd|res:RC5|com-cf:nl|ptrs:na|ktp:N0|mc:50260|mtp:S|qry_typ:P|lang:en|wc:2|cs:8830|v=4,Padhariya International,https://www.padhariyainternational.in/?pos=46&kwd=baby towel&tags=A||||8259.31|Price|product|||TS|rsf:gd-|-stype:attr=1|qr_nm:gd|res:RC5|com-cf:nl|ptrs:na|ktp:N0|mc:50260|mtp:S|qry_typ:P|lang:en|wc:2|cs:8830|v=4,False,Abhiram Nagar,Bardoli,"A-30, Abhiram Nagar Society, Nr Bhuvenseshwari Baug , Bardoli,, Abhiram Nagar, Bardoli - 394601, Dist.Surat, Gujarat",8044011879,
Baby Bath Towel,https://www.indiamart.com/proddetail/baby-bath-towel-2854848143433.html?pos=47&kwd=baby towel&tags=A||||8747.203|Price|product|||MDC|rsf:gd-|-stype:attr=1|qr_nm:gd|res:RC5|com-cf:nl|ptrs:na|ktp:N0|mc:50260|mtp:S|qry_typ:P|lang:en|wc:2|cs:8830|v=4,Delite Home Furnishings,https://www.indiamart.com/delitehomefurnishings/?pos=47&kwd=baby towel&tags=A||||8747.203|Price|product|||MDC|rsf:gd-|-stype:attr=1|qr_nm:gd|res:RC5|com-cf:nl|ptrs:na|ktp:N0|mc:50260|mtp:S|qry_typ:P|lang:en|wc:2|cs:8830|v=4,False,Chowk,Panipat,"First Floor, H.No 1629, SEC 11, Near Sai Baba Chowk, Back Side of Pruthi Hospital, NHBC Sector 11, Chowk, Panipat - 132103, Dist.Panipat, Haryana",7942969606,
Embroidered Baby Bath towel,https://www.indiamart.com/proddetail/embroidered-baby-bath-towel-2850674200830.html?pos=48&kwd=baby towel&tags=BA||||8661.854|Price|product|||SSlc|rsf:gd-|-stype:attr=1|qr_nm:gd|res:RC5|com-cf:nl|ptrs:na|ktp:N0|mc:50260|mtp:S|qry_typ:P|lang:en|wc:2|cs:8830|v=4,Aggarwal Creations,https://www.aggarwalcreations.com/?pos=48&kwd=baby towel&tags=BA||||8661.854|Price|product|||SSlc|rsf:gd-|-stype:attr=1|qr_nm:gd|res:RC5|com-cf:nl|ptrs:na|ktp:N0|mc:50260|mtp:S|qry_typ:P|lang:en|wc:2|cs:8830|v=4,False,Ramesh Nagar,Ludhiana,"Geeta Nagar, Street No. 7, Tajpur Road, Ramesh Nagar, Ludhiana - 141008, Dist.Ludhiana, Punjab",8048962321,
Printed Multicolor Kids Bath Towel,https://www.indiamart.com/proddetail/kids-bath-towel-23588449012.html?pos=49&kwd=baby towel&tags=A||||8515.687|Price|product|||TS|rsf:gd-|-stype:attr=1|qr_nm:gd|res:RC5|com-cf:nl|ptrs:na|ktp:N0|mc:50260|mtp:S|qry_typ:P|lang:en|wc:2|cs:8830|v=4,Ranka Trade Centre,https://www.indiamart.com/ranka-trade-centre/?pos=49&kwd=baby towel&tags=A||||8515.687|Price|product|||TS|rsf:gd-|-stype:attr=1|qr_nm:gd|res:RC5|com-cf:nl|ptrs:na|ktp:N0|mc:50260|mtp:S|qry_typ:P|lang:en|wc:2|cs:8830|v=4,False,Mangalwar Peth,Solapur,"35/36/37, Ground, Mahavir Market, Phaltan Galli, West Mangalwar Peth, Mangalwar Peth, Solapur - 413002, Dist.Solapur, Maharashtra",8048975996,
Cotton Unisex Mini Berry Baby Hooded Towel,https://www.indiamart.com/proddetail/mini-berry-baby-hooded-towel-21114147733.html?pos=50&kwd=baby towel&tags=A||||8663.873|Price|product|||MDC|rsf:gd-|-stype:attr=1|qr_nm:gd|res:RC5|com-cf:nl|ptrs:na|ktp:N0|mc:50260|mtp:S|qry_typ:P|lang:en|wc:2|cs:8830|v=4,Mini Berry,https://www.indiamart.com/miniberry/?pos=50&kwd=baby towel&tags=A||||8663.873|Price|product|||MDC|rsf:gd-|-stype:attr=1|qr_nm:gd|res:RC5|com-cf:nl|ptrs:na|ktp:N0|mc:50260|mtp:S|qry_typ:P|lang:en|wc:2|cs:8830|v=4,False,Vidyaranyapura,Bengaluru,"2, Navratna Complex, 2nd Floor, Vidyaranyapura, Bengaluru - 560097, Dist.Bengaluru, Karnataka",8046069832,
Printed Fabric: Cotton Baby Hooded Bath Towel,https://www.indiamart.com/proddetail/baby-hooded-bath-towel-2854518802448.html?pos=51&kwd=baby towel&tags=A||||8230.883|Price|product|||TS|rsf:gd-|-stype:attr=1|qr_nm:gd|res:RC5|com-cf:nl|ptrs:na|ktp:N0|mc:50260|mtp:S|qry_typ:P|lang:en|wc:2|cs:8830|v=4,BABYHOLIC,https://www.babyholic.in/?pos=51&kwd=baby towel&tags=A||||8230.883|Price|product|||TS|rsf:gd-|-stype:attr=1|qr_nm:gd|res:RC5|com-cf:nl|ptrs:na|ktp:N0|mc:50260|mtp:S|qry_typ:P|lang:en|wc:2|cs:8830|v=4,False,,Surat,"Ground Floor, Plot No. F/56/, And F/57, Laxmi Narayan Industrial Estate, Udhana, Kailash Fashion, Surat - 394210, Dist.Surat, Gujarat",8045732096,
"Vandana Handicraft Multicolor Cotton Printed Born Baby Towel Supplier, Packaging Type: Poly Bag",https://www.indiamart.com/proddetail/cotton-printed-born-baby-towel-supplier-23701874488.html?pos=52&kwd=baby towel&tags=A||||8601.347|Price|product|||TS|rsf:gd-|-stype:attr=1|qr_nm:gd|res:RC5|com-cf:nl|ptrs:na|ktp:N0|mc:50260|mtp:S|qry_typ:P|lang:en|wc:2|cs:8830|v=4,Vandana Handicraft,https://www.vandanahandicraft.net/?pos=52&kwd=baby towel&tags=A||||8601.347|Price|product|||TS|rsf:gd-|-stype:attr=1|qr_nm:gd|res:RC5|com-cf:nl|ptrs:na|ktp:N0|mc:50260|mtp:S|qry_typ:P|lang:en|wc:2|cs:8830|v=4,True,Sitapura Industrial Area,Jaipur,"Plot No. H-1167, Sitapura Industrial Area, Phase III, Sitapura Industrial Area, Jaipur - 302022, Dist.Jaipur, Rajasthan",8046049036,
Cotton Baby Towel,https://www.indiamart.com/proddetail/cotton-baby-towel-2854997788055.html?pos=53&kwd=baby towel&tags=A||||8752.144|Price|product|||MDC|rsf:gd-|-stype:attr=1|qr_nm:gd|res:RC5|com-cf:nl|ptrs:na|ktp:N0|mc:50260|mtp:S|qry_typ:P|lang:en|wc:2|cs:8830|v=4,Revika Furnishing,https://www.indiamart.com/revika-furnishing/?pos=53&kwd=baby towel&tags=A||||8752.144|Price|product|||MDC|rsf:gd-|-stype:attr=1|qr_nm:gd|res:RC5|com-cf:nl|ptrs:na|ktp:N0|mc:50260|mtp:S|qry_typ:P|lang:en|wc:2|cs:8830|v=4,False,,New Delhi,"5265, Kolhapur House, Kamla Nagar, North East Delhi,, New Delhi - 110007, Dist.Delhi, Delhi",8041011011,
Baby Bath Towel,https://www.indiamart.com/proddetail/baby-bath-towel-2853427078433.html?pos=54&kwd=baby towel&tags=A||||8747.203||product|||TS|rsf:gd-|-stype:attr=1|qr_nm:gd|res:RC5|com-cf:nl|ptrs:na|ktp:N0|mc:50260|mtp:S|qry_typ:P|lang:en|wc:2|cs:8830|v=4,Anand International,https://www.bestvaluewholesale.co.in/?pos=54&kwd=baby towel&tags=A||||8747.203||product|||TS|rsf:gd-|-stype:attr=1|qr_nm:gd|res:RC5|com-cf:nl|ptrs:na|ktp:N0|mc:50260|mtp:S|qry_typ:P|lang:en|wc:2|cs:8830|v=4,False,Shiv Nagar,Panipat,"Plot No-181, Anand International, Sec-25 Part-2, Huda,, Shiv Nagar, Panipat - 132103, Dist.Panipat, Haryana",8047314578,
Aop Printed Fabric Unisex Baby Carry Towel,https://www.indiamart.com/proddetail/baby-carry-towel-11312771348.html?pos=55&kwd=baby towel&tags=A||||8626.744|Price|product|||TS|rsf:gd-|-stype:attr=1|qr_nm:gd|res:RC5|com-cf:nl|ptrs:na|ktp:N0|mc:50260|mtp:S|qry_typ:P|lang:en|wc:2|cs:8830|v=4,Sudarshaan Impex,https://www.indiamart.com/sudarshaan-impex/?pos=55&kwd=baby towel&tags=A||||8626.744|Price|product|||TS|rsf:gd-|-stype:attr=1|qr_nm:gd|res:RC5|com-cf:nl|ptrs:na|ktp:N0|mc:50260|mtp:S|qry_typ:P|lang:en|wc:2|cs:8830|v=4,False,Jeeva Nagar,Tiruppur,"No.8/398C, Selvalakshmi nagar, 1st street, Angeri palayam, Jeeva Nagar, Tiruppur - 641603, Dist.Coimbatore, Tamil Nadu",8046077280,
Cotton Microfiber Poncho Towel For Kids Hooded Bath Towels,https://www.indiamart.com/proddetail/microfiber-poncho-towel-for-kids-hooded-bath-towels-2854701695197.html?pos=56&kwd=baby towel&tags=BA||||8752.144|Price|product|||TS|rsf:gd-|-stype:attr=1|qr_nm:gd|res:RC5|com-cf:nl|ptrs:na|ktp:N0|mc:50260|mtp:S|qry_typ:P|lang:en|wc:2|cs:8830|v=4,Instabuyz,https://www.indiamart.com/instabuyz/?pos=56&kwd=baby towel&tags=BA||||8752.144|Price|product|||TS|rsf:gd-|-stype:attr=1|qr_nm:gd|res:RC5|com-cf:nl|ptrs:na|ktp:N0|mc:50260|mtp:S|qry_typ:P|lang:en|wc:2|cs:8830|v=4,False,Paschim Vihar,New Delhi,"GH-4/319, Meera Apartments, Paschim Vihar, West Delhi, Paschim Vihar, New Delhi - 110063, Dist.Delhi, Delhi",8047696143,
Cotton Baby Towel,https://www.indiamart.com/proddetail/cotton-baby-towel-2854997788055.html?pos=57&kwd=baby towel&tags=A||||8752.144|Price|product|||MDC|rsf:gd-|-stype:attr=1|qr_nm:gd|res:RC5|com-cf:nl|ptrs:na|ktp:N0|mc:50260|mtp:S|qry_typ:P|lang:en|wc:2|cs:8830|v=4,Revika Furnishing,https://www.indiamart.com/revika-furnishing/?pos=57&kwd=baby towel&tags=A||||8752.144|Price|product|||MDC|rsf:gd-|-stype:attr=1|qr_nm:gd|res:RC5|com-cf:nl|ptrs:na|ktp:N0|mc:50260|mtp:S|qry_typ:P|lang:en|wc:2|cs:8830|v=4,False,,New Delhi,"5265, Kolhapur House, Kamla Nagar, North East Delhi,, New Delhi - 110007, Dist.Delhi, Delhi",8041011011,
"Baby Cotton Cap Towel, Newly Born",https://www.indiamart.com/proddetail/baby-cotton-cap-towel-2854978086562.html?pos=58&kwd=baby towel&tags=A||||8786.56|Price|product|||MDC|rsf:gd-|-stype:attr=1|qr_nm:gd|res:RC5|com-cf:nl|ptrs:na|ktp:N0|mc:50260|mtp:S|qry_typ:P|lang:en|wc:2|cs:8830|v=4,Vinod And Company,https://www.indiamart.com/vinodcompany-hyderabad/?pos=58&kwd=baby towel&tags=A||||8786.56|Price|product|||MDC|rsf:gd-|-stype:attr=1|qr_nm:gd|res:RC5|com-cf:nl|ptrs:na|ktp:N0|mc:50260|mtp:S|qry_typ:P|lang:en|wc:2|cs:8830|v=4,False,Feelkhana,Hyderabad,"15/8/514/1/D, Feelkhana, Begum Bazar, Feelkhana, Hyderabad - 500012, Dist.Hyderabad, Telangana",7949086154,
"Plain White Three Layer Muslin Crinkle Baby Towel, Newly Born",https://www.indiamart.com/proddetail/three-layer-muslin-crinkle-baby-towel-2851789298255.html?pos=59&kwd=baby towel&tags=BA||||8706.263|Price|product|||TS|rsf:gd-|-stype:attr=1|qr_nm:gd|res:RC5|com-cf:nl|ptrs:na|ktp:N0|mc:50260|mtp:S|qry_typ:P|lang:en|wc:2|cs:8830|v=4,Bowerbird Interios,https://www.organicfabricmanufacturer.com/?pos=59&kwd=baby towel&tags=BA||||8706.263|Price|product|||TS|rsf:gd-|-stype:attr=1|qr_nm:gd|res:RC5|com-cf:nl|ptrs:na|ktp:N0|mc:50260|mtp:S|qry_typ:P|lang:en|wc:2|cs:8830|v=4,False,Ramanujam Nagar,Karur,"1/137, Covai Road South, Ramanujam Nagar, Karur - 639002, Dist.Karur, Tamil Nadu",8048971552,
"Unisex Yellow Baby Printed Towel, New Born",https://www.indiamart.com/proddetail/baby-printed-towel-2850616640948.html?pos=60&kwd=baby towel&tags=BA||||8211.142|Price|product|||TS|rsf:gd-|-stype:attr=1|qr_nm:gd|res:RC5|com-cf:nl|ptrs:na|ktp:N0|mc:50260|mtp:S|qry_typ:P|lang:en|wc:2|cs:8830|v=4,Child King Creation,https://www.indiamart.com/childkingcreation-mumbai/?pos=60&kwd=baby towel&tags=BA||||8211.142|Price|product|||TS|rsf:gd-|-stype:attr=1|qr_nm:gd|res:RC5|com-cf:nl|ptrs:na|ktp:N0|mc:50260|mtp:S|qry_typ:P|lang:en|wc:2|cs:8830|v=4,False,Malad West,Mumbai,"B 705, Seven Floor, Jagmagia Centre, Mamlatdar Wadi EXTN Road Nahar Nagar, Malad West, Suburban, Malad West, Mumbai - 400064, Dist.Mumbai, Maharashtra",8043805922,
Baby Towel Sheet,https://www.indiamart.com/proddetail/baby-towel-sheet-22654306473.html?pos=61&kwd=baby towel&tags=BA||||8752.144|Price|product|||TS|rsf:gd-|-stype:attr=1|qr_nm:gd|res:RC5|com-cf:nl|ptrs:na|ktp:N0|mc:50260|mtp:S|qry_typ:P|lang:en|wc:2|cs:8830|v=4,Gyasi Ram & Associates,https://www.indiamart.com/gyasiram/?pos=61&kwd=baby towel&tags=BA||||8752.144|Price|product|||TS|rsf:gd-|-stype:attr=1|qr_nm:gd|res:RC5|com-cf:nl|ptrs:na|ktp:N0|mc:50260|mtp:S|qry_typ:P|lang:en|wc:2|cs:8830|v=4,False,Delhi Sadar Bazar,New Delhi,"458, Main Road, Sadar Bazar Near Bara Tooti Chowk, Delhi Sadar Bazar, New Delhi - 110006, Dist.Delhi, Delhi",8046043034,
Green Parrot Hooded Baby Blanket Cum Towel Soft & Gentle Fabric for Babies,https://www.indiamart.com/proddetail/green-parrot-hooded-baby-blanket-cum-towel-soft-gentle-fabric-for-babies-2854947267097.html?pos=62&kwd=baby towel&tags=BB||||8661.854|Price|product|||TS|rsf:gd-|-stype:attr=1|qr_nm:gd|res:RC5|com-cf:nl|ptrs:na|ktp:N0|mc:50260|mtp:S|qry_typ:P|lang:en|wc:2|cs:8830|v=4,Adwaita Export,https://www.indiamart.com/adwaitaexport/?pos=62&kwd=baby towel&tags=BB||||8661.854|Price|product|||TS|rsf:gd-|-stype:attr=1|qr_nm:gd|res:RC5|com-cf:nl|ptrs:na|ktp:N0|mc:50260|mtp:S|qry_typ:P|lang:en|wc:2|cs:8830|v=4,False,Joshi Nagar,Ludhiana,"B-34-3912,,DURGA PURI,HAIBOWAL KALAN LUDHIANA, Joshi Nagar, Ludhiana - 141001, Dist.Ludhiana, Punjab",8044015715,
"Firstin Baby Towel - Need Agent, Online B2b, Distributor, Dealer, Wholesaler, Trader",https://www.indiamart.com/proddetail/firstin-baby-towel-need-agent-online-b2b-distributor-dealer-wholesaler-trader-21796397955.html?pos=63&kwd=baby towel&tags=BA||||8668.838|Price|product|||TS|rsf:gd-|-stype:attr=1|qr_nm:gd|res:RC5|com-cf:nl|ptrs:na|ktp:N0|mc:50260|mtp:S|qry_typ:P|lang:en|wc:2|cs:8830|v=4,Sri Kalyan Export Private Limited,https://www.firstinbabydress.com/?pos=63&kwd=baby towel&tags=BA||||8668.838|Price|product|||TS|rsf:gd-|-stype:attr=1|qr_nm:gd|res:RC5|com-cf:nl|ptrs:na|ktp:N0|mc:50260|mtp:S|qry_typ:P|lang:en|wc:2|cs:8830|v=4,False,Vilarasampatti,Erode,"192/4, Ishwarya Garden, Sengodampalayam, Villarasampatti Post, Erode,, Vilarasampatti, Erode - 638107, Dist.Erode, Tamil Nadu",8046030291,
"Cotton Poncho Towel, 1-2 Years",https://www.indiamart.com/proddetail/poncho-towel-2854241668788.html?pos=64&kwd=baby towel&tags=A||||8788.382||product|||MDC|rsf:gd-|-stype:attr=1|qr_nm:gd|res:RC5|com-cf:nl|ptrs:na|ktp:N0|mc:50260|mtp:S|qry_typ:P|lang:en|wc:2|cs:8830|v=4,Indira Expo International,https://www.indiamart.com/indiraexpointernational/?pos=64&kwd=baby towel&tags=A||||8788.382||product|||MDC|rsf:gd-|-stype:attr=1|qr_nm:gd|res:RC5|com-cf:nl|ptrs:na|ktp:N0|mc:50260|mtp:S|qry_typ:P|lang:en|wc:2|cs:8830|v=4,False,,Greater Noida,"Basement, A-159, Sector - 83, Phase - II, Noida, Greater Noida - 201306, Dist.Gautam Budh Nagar, Uttar Pradesh",8047675485,
Cotton Microfiber Poncho Towel For Kids Hooded Bath Towels,https://www.indiamart.com/proddetail/microfiber-poncho-towel-for-kids-hooded-bath-towels-2854701695197.html?pos=65&kwd=baby towel&tags=BA||||8752.144|Price|product|||TS|rsf:gd-|-stype:attr=1|qr_nm:gd|res:RC5|com-cf:nl|ptrs:na|ktp:N0|mc:50260|mtp:S|qry_typ:P|lang:en|wc:2|cs:8830|v=4,Instabuyz,https://www.indiamart.com/instabuyz/?pos=65&kwd=baby towel&tags=BA||||8752.144|Price|product|||TS|rsf:gd-|-stype:attr=1|qr_nm:gd|res:RC5|com-cf:nl|ptrs:na|ktp:N0|mc:50260|mtp:S|qry_typ:P|lang:en|wc:2|cs:8830|v=4,False,Paschim Vihar,New Delhi,"GH-4/319, Meera Apartments, Paschim Vihar, West Delhi, Paschim Vihar, New Delhi - 110063, Dist.Delhi, Delhi",8047696143,
White Printed Baby Towel,https://www.indiamart.com/proddetail/printed-baby-towel-2854872747091.html?pos=66&kwd=baby towel&tags=BA||||9839.57|Price|product|||MDC|rsf:gd-|-stype:attr=1|qr_nm:gd|res:RC5|com-cf:nl|ptrs:na|ktp:N0|mc:50260|mtp:S|qry_typ:P|lang:en|wc:2|cs:8830|v=4,Titan Giftknit,https://www.indiamart.com/titan-giftknit/?pos=66&kwd=baby towel&tags=BA||||9839.57|Price|product|||MDC|rsf:gd-|-stype:attr=1|qr_nm:gd|res:RC5|com-cf:nl|ptrs:na|ktp:N0|mc:50260|mtp:S|qry_typ:P|lang:en|wc:2|cs:8830|v=4,False,Burrabazar,Kolkata,"56, Parbati Ghosh Lane, Burrabazar, Kolkata - 700007, Dist.Kolkata, West Bengal",7949325351,
"Cool Dino Bamboo Kids Bath Towel, GSM: 450 GSM",https://www.indiamart.com/proddetail/cool-dino-bamboo-kids-bath-towel-2854357087773.html?pos=67&kwd=baby towel&tags=BB||||8954.051|Price|product|||TS|rsf:gd-|-stype:attr=1|qr_nm:gd|res:RC5|com-cf:nl|ptrs:na|ktp:N0|mc:50260|mtp:S|qry_typ:P|lang:en|wc:2|cs:8830|v=4,Ecovians,https://www.indiamart.com/ecovians-chennai/?pos=67&kwd=baby towel&tags=BB||||8954.051|Price|product|||TS|rsf:gd-|-stype:attr=1|qr_nm:gd|res:RC5|com-cf:nl|ptrs:na|ktp:N0|mc:50260|mtp:S|qry_typ:P|lang:en|wc:2|cs:8830|v=4,False,,Chennai,"Ground Floor Part, No 37, Vannaskathi Nagar, Murugan Koil Street, Chennai, Chennai - 600099, Dist.Chennai, Tamil Nadu",7942720862,
Embroidered Baby Hood Towel,https://www.indiamart.com/proddetail/baby-hood-towel-26057880362.html?pos=68&kwd=baby towel&tags=BA||||8752.144|Price|product|||MDC|rsf:gd-|-stype:attr=1|qr_nm:gd|res:RC5|com-cf:nl|ptrs:na|ktp:N0|mc:50260|mtp:S|qry_typ:P|lang:en|wc:2|cs:8830|v=4,TGB Marketing,https://www.indiamart.com/tgb-marketing/?pos=68&kwd=baby towel&tags=BA||||8752.144|Price|product|||MDC|rsf:gd-|-stype:attr=1|qr_nm:gd|res:RC5|com-cf:nl|ptrs:na|ktp:N0|mc:50260|mtp:S|qry_typ:P|lang:en|wc:2|cs:8830|v=4,False,Chandni Chowk,New Delhi,"101, Second Floor, Khursid Market, Chandni Chowk, New Delhi - 110006, Dist.Delhi, Delhi",8046075932,
"Baby Cotton Cloth Towel, 1-2 Years",https://www.indiamart.com/proddetail/baby-cotton-cloth-towel-2854719995491.html?pos=69&kwd=baby towel&tags=BA||||8954.051|Price|product|||MDC|rsf:gd-|-stype:attr=1|qr_nm:gd|res:RC5|com-cf:nl|ptrs:na|ktp:N0|mc:50260|mtp:S|qry_typ:P|lang:en|wc:2|cs:8830|v=4,Tender Babe,https://www.indiamart.com/tenderbabe-chennai/?pos=69&kwd=baby towel&tags=BA||||8954.051|Price|product|||MDC|rsf:gd-|-stype:attr=1|qr_nm:gd|res:RC5|com-cf:nl|ptrs:na|ktp:N0|mc:50260|mtp:S|qry_typ:P|lang:en|wc:2|cs:8830|v=4,False,Tiruvallur,Chennai,"196/2A, Annai Teresa Street, Kavarapalayam Main Road,, Siranjivi Nagar, Avadi,, Tiruvallur, Chennai - 600054, Dist.Chennai, Tamil Nadu",7949323914,
Plain Fabric: Cotton New Born Hospital Hooded Towel,https://www.indiamart.com/proddetail/new-born-baby-cotton-hooded-towel-26877531073.html?pos=70&kwd=baby towel&tags=BA||||8626.744|Price|product|||MDC|rsf:gd-|-stype:attr=1|qr_nm:gd|res:RC5|com-cf:nl|ptrs:na|ktp:N0|mc:50260|mtp:S|qry_typ:P|lang:en|wc:2|cs:8830|v=4,Senthoor Tex,https://www.indiamart.com/senthoor-tex/?pos=70&kwd=baby towel&tags=BA||||8626.744|Price|product|||MDC|rsf:gd-|-stype:attr=1|qr_nm:gd|res:RC5|com-cf:nl|ptrs:na|ktp:N0|mc:50260|mtp:S|qry_typ:P|lang:en|wc:2|cs:8830|v=4,False,Tiruppur North,Tiruppur,"8/1465B RS Puram, 1 Street, Pandiyan Nagar, Puluvupatti PO, Tiruppur North, Tiruppur - 641602, Dist.Coimbatore, Tamil Nadu",8045729718,
Printed Plain Baby Hooded Towel,https://www.indiamart.com/proddetail/plain-baby-hooded-towel-2850017369188.html?pos=74&kwd=baby towel&tags=A||||8626.744|Price|product|||MDC|rsf:gd-|-stype:attr=1|qr_nm:gd|res:RC5|com-cf:nl|ptrs:na|ktp:N0|mc:50260|mtp:S|qry_typ:P|lang:en|wc:2|cs:8830|v=4,Dharshan Fashions,https://www.indiamart.com/dharshan-fashions/?pos=74&kwd=baby towel&tags=A||||8626.744|Price|product|||MDC|rsf:gd-|-stype:attr=1|qr_nm:gd|res:RC5|com-cf:nl|ptrs:na|ktp:N0|mc:50260|mtp:S|qry_typ:P|lang:en|wc:2|cs:8830|v=4,False,chellam nagar,Tiruppur,"SF 123 Sivasakthi Nagar, 5th Street, chellam nagar, Tiruppur - 641604, Dist.Coimbatore, Tamil Nadu",7942797825,
Fabric: Cotton Newborn Baby Hooded Towel,https://www.indiamart.com/proddetail/newborn-baby-hooded-towel-2854992342562.html?pos=72&kwd=baby towel&tags=A||||8242.731||product|||TS|rsf:gd-|-stype:attr=1|qr_nm:gd|res:RC5|com-cf:nl|ptrs:na|ktp:N0|mc:50260|mtp:S|qry_typ:P|lang:en|wc:2|cs:8830|v=4,Om Traders,https://www.indiamart.com/omtraders-maharashtra/?pos=72&kwd=baby towel&tags=A||||8242.731||product|||TS|rsf:gd-|-stype:attr=1|qr_nm:gd|res:RC5|com-cf:nl|ptrs:na|ktp:N0|mc:50260|mtp:S|qry_typ:P|lang:en|wc:2|cs:8830|v=4,False,Siru Chowk,Ulhasnagar,"Sant Chellaram Market, Shop No.19, 1st Floor, Siru Chowk, Ulhasnagar - 421002, Dist.Thane, Maharashtra",7942553425,
Microfiber Printed Baby Regular Hood Towel,https://www.indiamart.com/proddetail/baby-regular-hood-towel-12821309197.html?pos=73&kwd=baby towel&tags=A||||8223.226|Price|product|||MDC|rsf:gd-|-stype:attr=1|qr_nm:gd|res:RC5|com-cf:nl|ptrs:na|ktp:N0|mc:50260|mtp:S|qry_typ:P|lang:en|wc:2|cs:8830|v=4,Wecare Solutions,https://www.indiamart.com/wecare-solutions/?pos=73&kwd=baby towel&tags=A||||8223.226|Price|product|||MDC|rsf:gd-|-stype:attr=1|qr_nm:gd|res:RC5|com-cf:nl|ptrs:na|ktp:N0|mc:50260|mtp:S|qry_typ:P|lang:en|wc:2|cs:8830|v=4,False,Valiv,Thane,"Gala No. F-19-20, 1st Floor, Rajprabha Anand Industrial Estate Naikpada, Waliv, Valiv, Thane - 401208, Dist.Thane, Maharashtra",8047631791,
Printed Plain Baby Hooded Towel,https://www.indiamart.com/proddetail/plain-baby-hooded-towel-2850017369188.html?pos=74&kwd=baby towel&tags=A||||8626.744|Price|product|||MDC|rsf:gd-|-stype:attr=1|qr_nm:gd|res:RC5|com-cf:nl|ptrs:na|ktp:N0|mc:50260|mtp:S|qry_typ:P|lang:en|wc:2|cs:8830|v=4,Dharshan Fashions,https://www.indiamart.com/dharshan-fashions/?pos=74&kwd=baby towel&tags=A||||8626.744|Price|product|||MDC|rsf:gd-|-stype:attr=1|qr_nm:gd|res:RC5|com-cf:nl|ptrs:na|ktp:N0|mc:50260|mtp:S|qry_typ:P|lang:en|wc:2|cs:8830|v=4,False,chellam nagar,Tiruppur,"SF 123 Sivasakthi Nagar, 5th Street, chellam nagar, Tiruppur - 641604, Dist.Coimbatore, Tamil Nadu",7942797825,
"White Cotton Baby Mini Towel Bib Set, 1-2 Years",https://www.indiamart.com/proddetail/white-cotton-baby-mini-towel-bib-set-2854984894997.html?pos=75&kwd=baby towel&tags=A||||8668.838|Price|product|||MDC|rsf:gd-|-stype:attr=1|qr_nm:gd|res:RC5|com-cf:nl|ptrs:na|ktp:N0|mc:50260|mtp:S|qry_typ:P|lang:en|wc:2|cs:8830|v=4,S M Weaves,https://www.indiamart.com/s-mweaves/?pos=75&kwd=baby towel&tags=A||||8668.838|Price|product|||MDC|rsf:gd-|-stype:attr=1|qr_nm:gd|res:RC5|com-cf:nl|ptrs:na|ktp:N0|mc:50260|mtp:S|qry_typ:P|lang:en|wc:2|cs:8830|v=4,False,,Erode,"388, Muniappan Kovil Street, Manikampalayam, Veerappanchatiram, Erode - 638004, Dist.Erode, Tamil Nadu",8041014822,
"Printed White Baby Hooded Towel, For Kids",https://www.indiamart.com/proddetail/baby-hooded-towel-2852332983330.html?pos=76&kwd=baby towel&tags=BA||||8747.203|Price|product|||TS|rsf:gd-|-stype:attr=1|qr_nm:gd|res:RC5|com-cf:nl|ptrs:na|ktp:N0|mc:50260|mtp:S|qry_typ:P|lang:en|wc:2|cs:8830|v=4,Jm International,https://www.jminternationalpvt.com/?pos=76&kwd=baby towel&tags=BA||||8747.203|Price|product|||TS|rsf:gd-|-stype:attr=1|qr_nm:gd|res:RC5|com-cf:nl|ptrs:na|ktp:N0|mc:50260|mtp:S|qry_typ:P|lang:en|wc:2|cs:8830|v=4,False,Ekta Vihar,Panipat,"Ground Floor Plot No 1743 Sec 24 Huda, Ekta Vihar, Panipat - 132103, Dist.Panipat, Haryana",8045910638,
"White (Base) 175 GSM Printed Waffle Cotton Baby Towel, Size: 30 X 60inch",https://www.indiamart.com/proddetail/175-gsm-printed-waffle-cotton-baby-towel-2849902017573.html?pos=77&kwd=baby towel&tags=BA||||8601.347|Price|product|||TS|rsf:gd-|-stype:attr=1|qr_nm:gd|res:RC5|com-cf:nl|ptrs:na|ktp:N0|mc:50260|mtp:S|qry_typ:P|lang:en|wc:2|cs:8830|v=4,Parmi Textile,https://www.parmitextile.com/?pos=77&kwd=baby towel&tags=BA||||8601.347|Price|product|||TS|rsf:gd-|-stype:attr=1|qr_nm:gd|res:RC5|com-cf:nl|ptrs:na|ktp:N0|mc:50260|mtp:S|qry_typ:P|lang:en|wc:2|cs:8830|v=4,False,Sanganer,Jaipur,"192/331, Janki Devi Road, Sanganer, Jaipur - 302033, Dist.Jaipur, Rajasthan",7942801178,
Printed Multicolor Baby Hooded Towel,https://www.indiamart.com/proddetail/baby-hooded-towel-2851893470848.html?pos=78&kwd=baby towel&tags=BA||||8752.144|Price|product|||MDC|rsf:gd-|-stype:attr=1|qr_nm:gd|res:RC5|com-cf:nl|ptrs:na|ktp:N0|mc:50260|mtp:S|qry_typ:P|lang:en|wc:2|cs:8830|v=4,L T Textiles,https://www.indiamart.com/lttextiles/?pos=78&kwd=baby towel&tags=BA||||8752.144|Price|product|||MDC|rsf:gd-|-stype:attr=1|qr_nm:gd|res:RC5|com-cf:nl|ptrs:na|ktp:N0|mc:50260|mtp:S|qry_typ:P|lang:en|wc:2|cs:8830|v=4,False,Pahari Dhiraj,New Delhi,"5189-90 Main Road, Sadar Bazar, Pahari Dhiraj, New Delhi - 110006, Dist.Delhi, Delhi",7942958455,
Terry Fabric Plain Simple Hooded Baby Towel,https://www.indiamart.com/proddetail/simple-hooded-baby-towel-11906670412.html?pos=79&kwd=baby towel&tags=BA||||8752.144|Price|product|||TS|rsf:gd-|-stype:attr=1|qr_nm:gd|res:RC5|com-cf:nl|ptrs:na|ktp:N0|mc:50260|mtp:S|qry_typ:P|lang:en|wc:2|cs:8830|v=4,Chinmay Kids,https://www.indiamart.com/chinmaykids/?pos=79&kwd=baby towel&tags=BA||||8752.144|Price|product|||TS|rsf:gd-|-stype:attr=1|qr_nm:gd|res:RC5|com-cf:nl|ptrs:na|ktp:N0|mc:50260|mtp:S|qry_typ:P|lang:en|wc:2|cs:8830|v=4,False,Nayagaon,New Delhi,"C-99, Street No. 4, First Pusta, Nayagaon, New Delhi - 110053, Dist.Delhi, Delhi",8046054858,
"Fallalene Fabric Plain Baby Towel Single Layer Cap, Packaging Type: Loose",https://www.indiamart.com/proddetail/baby-towel-single-layer-cap-24658317073.html?pos=80&kwd=baby towel&tags=BB||||9528.781|Price|product|||TS|rsf:gd-|-stype:attr=1|qr_nm:gd|res:RC5|com-cf:nl|ptrs:na|ktp:N0|mc:50260|mtp:S|qry_typ:P|lang:en|wc:2|cs:8830|v=4,Radheshyam Manojkumar,https://www.indiamart.com/radheshyammanojkumar/?pos=80&kwd=baby towel&tags=BB||||9528.781|Price|product|||TS|rsf:gd-|-stype:attr=1|qr_nm:gd|res:RC5|com-cf:nl|ptrs:na|ktp:N0|mc:50260|mtp:S|qry_typ:P|lang:en|wc:2|cs:8830|v=4,False,UPPER BAZAR,Ranchi,"Ground Floor Kali Babu Street Choba Babu Lane Ranchi, UPPER BAZAR, Ranchi - 834001, Dist.Ranchi, Jharkhand",8046078710,
Wholesalers Jaipuri Hand Block Baby Towel,https://www.indiamart.com/proddetail/wholesalers-jaipuri-hand-block-baby-towel-24224029533.html?pos=81&kwd=baby towel&tags=BA||||8601.347|Price|product|||TS|rsf:gd-|-stype:attr=1|qr_nm:gd|res:RC5|com-cf:nl|ptrs:na|ktp:N0|mc:50260|mtp:S|qry_typ:P|lang:en|wc:2|cs:8830|v=4,Shree Ganesh Handicrafts & Textiles,https://www.shreeganeshhandicrafts.com/?pos=81&kwd=baby towel&tags=BA||||8601.347|Price|product|||TS|rsf:gd-|-stype:attr=1|qr_nm:gd|res:RC5|com-cf:nl|ptrs:na|ktp:N0|mc:50260|mtp:S|qry_typ:P|lang:en|wc:2|cs:8830|v=4,True,Amer Road,Jaipur,"Govind Nagar Vistar, Plot No 54b, Dussehra Kothi, Amer Road, Amer Road, Jaipur - 302002, Dist.Jaipur, Rajasthan",8046036982,
"CRADLE TOGS Printed Baby Hooded Towel, For Bathing",https://www.indiamart.com/proddetail/baby-hooded-towel-3807206462.html?pos=82&kwd=baby towel&tags=BA||||8752.144|Price|product|||TS|rsf:gd-|-stype:attr=1|qr_nm:gd|res:RC5|com-cf:nl|ptrs:na|ktp:N0|mc:50260|mtp:S|qry_typ:P|lang:en|wc:2|cs:8830|v=4,Man Singh & Sons Private Limited,https://www.babyproductsmanufacturer.com/?pos=82&kwd=baby towel&tags=BA||||8752.144|Price|product|||TS|rsf:gd-|-stype:attr=1|qr_nm:gd|res:RC5|com-cf:nl|ptrs:na|ktp:N0|mc:50260|mtp:S|qry_typ:P|lang:en|wc:2|cs:8830|v=4,False,Karol Bagh,New Delhi,"No. 13/24, 1st Floor, W. E. A., Karol Bagh, Karol Bagh, New Delhi - 110005, Dist.Delhi, Delhi",8048978579,
"Rrc Baby Towels, Kids Towael With Baby Cap On Corner",https://www.indiamart.com/proddetail/rrc-baby-towels-kids-towael-with-baby-cap-on-corner-27182073412.html?pos=83&kwd=baby towel&tags=BA||||8601.347|Price|product|||TS|rsf:gd-|-stype:attr=1|qr_nm:gd|res:RC5|com-cf:nl|ptrs:na|ktp:N0|mc:50260|mtp:S|qry_typ:P|lang:en|wc:2|cs:8830|v=4,RR Creations,https://www.rrcreation.co.in/?pos=83&kwd=baby towel&tags=BA||||8601.347|Price|product|||TS|rsf:gd-|-stype:attr=1|qr_nm:gd|res:RC5|com-cf:nl|ptrs:na|ktp:N0|mc:50260|mtp:S|qry_typ:P|lang:en|wc:2|cs:8830|v=4,False,Raghunathgarh,Jaipur,"A7D, Raghunath Colony, Galta Gate, Raghunathgarh, Jaipur - 302003, Dist.Jaipur, Rajasthan",8047620731,
Baby Hooded Towel,https://www.indiamart.com/proddetail/baby-hooded-towel-2853386437133.html?pos=84&kwd=baby towel&tags=BA||||8626.744|Price|product|||MDC|rsf:gd-|-stype:attr=1|qr_nm:gd|res:RC5|com-cf:nl|ptrs:na|ktp:N0|mc:50260|mtp:S|qry_typ:P|lang:en|wc:2|cs:8830|v=4,Ucan International,https://www.indiamart.com/ucan-international/?pos=84&kwd=baby towel&tags=BA||||8626.744|Price|product|||MDC|rsf:gd-|-stype:attr=1|qr_nm:gd|res:RC5|com-cf:nl|ptrs:na|ktp:N0|mc:50260|mtp:S|qry_typ:P|lang:en|wc:2|cs:8830|v=4,False,Poyampalayam,Tiruppur,"363, Pappa Nagar,Cottonn, Mill Road Tirupur,, Poyampalayam, Tiruppur - 641603, Dist.Coimbatore, Tamil Nadu",7942712470,
"Microfiber Baby Face Towels, 3-12 Months",https://www.indiamart.com/proddetail/microfiber-baby-face-towels-2854299777262.html?pos=85&kwd=baby towel&tags=BA||||8601.347|Price|product|||MDC|rsf:gd-|-stype:attr=1|qr_nm:gd|res:RC5|com-cf:nl|ptrs:na|ktp:N0|mc:50260|mtp:S|qry_typ:P|lang:en|wc:2|cs:8830|v=4,Radhakrishan Enterprises,https://www.indiamart.com/radhakrishanenterprisesjaipur/?pos=85&kwd=baby towel&tags=BA||||8601.347|Price|product|||MDC|rsf:gd-|-stype:attr=1|qr_nm:gd|res:RC5|com-cf:nl|ptrs:na|ktp:N0|mc:50260|mtp:S|qry_typ:P|lang:en|wc:2|cs:8830|v=4,False,,Jaipur,"Ekta Vihar, 20-21, Govind Nagar West, Amer Road, Tripoliya Bazar, Jaipur - 302002, Dist.Jaipur, Rajasthan",8045738991,
Cotton Pure Muslin kids towel,https://www.indiamart.com/proddetail/pure-muslin-kids-towel-2853885425688.html?pos=86&kwd=baby towel&tags=BA||||8584.299|Price|product|||MDC|rsf:gd-|-stype:attr=1|qr_nm:gd|res:RC5|com-cf:nl|ptrs:na|ktp:N0|mc:50260|mtp:S|qry_typ:P|lang:en|wc:2|cs:8830|v=4,Prince N Princess,https://www.indiamart.com/prince-nprincess-coimbatore/?pos=86&kwd=baby towel&tags=BA||||8584.299|Price|product|||MDC|rsf:gd-|-stype:attr=1|qr_nm:gd|res:RC5|com-cf:nl|ptrs:na|ktp:N0|mc:50260|mtp:S|qry_typ:P|lang:en|wc:2|cs:8830|v=4,False,Vivekananda Nagar,Coimbatore,"10C, Vasantha Nagar,Singanallur Behind Jai Shanthi Theatre, Vivekananda Nagar, Coimbatore - 641005, Dist.Coimbatore, Tamil Nadu",7942875075,
"Pink,White Hooded Baby Towel",https://www.indiamart.com/proddetail/hooded-baby-towel-4405601991.html?pos=87&kwd=baby towel&tags=BA||||8785.791|Price|product|||TS|rsf:gd-|-stype:attr=1|qr_nm:gd|res:RC5|com-cf:nl|ptrs:na|ktp:N0|mc:50260|mtp:S|qry_typ:P|lang:en|wc:2|cs:8830|v=4,Ilaki Intercraft (India),https://www.indiamart.com/ilakiintercraft/?pos=87&kwd=baby towel&tags=BA||||8785.791|Price|product|||TS|rsf:gd-|-stype:attr=1|qr_nm:gd|res:RC5|com-cf:nl|ptrs:na|ktp:N0|mc:50260|mtp:S|qry_typ:P|lang:en|wc:2|cs:8830|v=4,False,Tronica City,Ghaziabad,"D-69 Sector D-1 Tronica City, Tronica City, Ghaziabad - 201103, Dist.Ghaziabad, Uttar Pradesh",7942552124,
"Newborn Baby Towel, Newly Born",https://www.indiamart.com/proddetail/newborn-baby-towel-2852664935030.html?pos=88&kwd=baby towel&tags=BB||||8626.744||product|||TS|rsf:gd-|-stype:attr=1|qr_nm:gd|res:RC5|com-cf:nl|ptrs:na|ktp:N0|mc:50260|mtp:S|qry_typ:P|lang:en|wc:2|cs:8830|v=4,Srie K.S.K. Tex,https://www.indiamart.com/srieksktex-tiruppur/?pos=88&kwd=baby towel&tags=BB||||8626.744||product|||TS|rsf:gd-|-stype:attr=1|qr_nm:gd|res:RC5|com-cf:nl|ptrs:na|ktp:N0|mc:50260|mtp:S|qry_typ:P|lang:en|wc:2|cs:8830|v=4,False,Radha Nagar,Tiruppur,"28A, NA, Sv Colony, 6th Street, PN Road,Coimbatore, Radha Nagar, Tiruppur - 641602, Dist.Coimbatore, Tamil Nadu",8047850887,
Printed Available in 4 color Kids Bath Towel,https://www.indiamart.com/proddetail/kids-bath-towel-2851271226448.html?pos=89&kwd=baby towel&tags=BA||||8747.223|Price|product|||TS|rsf:gd-|-stype:attr=1|qr_nm:gd|res:RC5|com-cf:nl|ptrs:na|ktp:N0|mc:50260|mtp:S|qry_typ:P|lang:en|wc:2|cs:8830|v=4,Rangoli Furnishings Private Limited,https://www.indiamart.com/rangolifurnishings/?pos=89&kwd=baby towel&tags=BA||||8747.223|Price|product|||TS|rsf:gd-|-stype:attr=1|qr_nm:gd|res:RC5|com-cf:nl|ptrs:na|ktp:N0|mc:50260|mtp:S|qry_typ:P|lang:en|wc:2|cs:8830|v=4,False,Sector 53,Sonipat,"300C, EPIP, Phase 2, HSIIDC Industrial Estate Kundli, GT Karnal Road, NH1, Sector 53, Sonipat - 131028, Dist.Sonipat, Haryana",8046068428,
"Plain White Three Layer Muslin Crinkle Baby Towel, Newly Born",https://www.indiamart.com/proddetail/three-layer-muslin-crinkle-baby-towel-2851789298255.html?pos=90&kwd=baby towel&tags=BA||||8706.263|Price|product|||TS|rsf:gd-|-stype:attr=1|qr_nm:gd|res:RC5|com-cf:nl|ptrs:na|ktp:N0|mc:50260|mtp:S|qry_typ:P|lang:en|wc:2|cs:8830|v=4,Bowerbird Interios,https://www.organicfabricmanufacturer.com/?pos=90&kwd=baby towel&tags=BA||||8706.263|Price|product|||TS|rsf:gd-|-stype:attr=1|qr_nm:gd|res:RC5|com-cf:nl|ptrs:na|ktp:N0|mc:50260|mtp:S|qry_typ:P|lang:en|wc:2|cs:8830|v=4,False,Ramanujam Nagar,Karur,"1/137, Covai Road South, Ramanujam Nagar, Karur - 639002, Dist.Karur, Tamil Nadu",8048971552,
"Plain Unisex Baby Bath Towel, 3-12 Months",https://www.indiamart.com/proddetail/baby-bath-towel-2853908140873.html?pos=91&kwd=baby towel&tags=BB||||8752.144|Price|product|||TS|rsf:gd-|-stype:attr=1|qr_nm:gd|res:RC5|com-cf:nl|ptrs:na|ktp:N0|mc:50260|mtp:S|qry_typ:P|lang:en|wc:2|cs:8830|v=4,Sabse Sasta Store,https://www.indiamart.com/sabsesastastorenewdelhi/?pos=91&kwd=baby towel&tags=BB||||8752.144|Price|product|||TS|rsf:gd-|-stype:attr=1|qr_nm:gd|res:RC5|com-cf:nl|ptrs:na|ktp:N0|mc:50260|mtp:S|qry_typ:P|lang:en|wc:2|cs:8830|v=4,False,North West,New Delhi,"Ground Floor, BLK-C, House No.2/1, Village Mohamadpur Mazri, Near Main Kanjhawala, Rama Vihar, North West, New Delhi - 110081, Dist.Delhi, Delhi",7942721280,
"Baby Wrap Towel, Newly Born",https://www.indiamart.com/proddetail/baby-wrap-towel-2853328014873.html?pos=92&kwd=baby towel&tags=BA||||8747.203||product|||TS|rsf:gd-|-stype:attr=1|qr_nm:gd|res:RC5|com-cf:nl|ptrs:na|ktp:N0|mc:50260|mtp:S|qry_typ:P|lang:en|wc:2|cs:8830|v=4,Paras Blanket,https://www.parasblanket.com/?pos=92&kwd=baby towel&tags=BA||||8747.203||product|||TS|rsf:gd-|-stype:attr=1|qr_nm:gd|res:RC5|com-cf:nl|ptrs:na|ktp:N0|mc:50260|mtp:S|qry_typ:P|lang:en|wc:2|cs:8830|v=4,False,Old Housing Board Colony,Panipat,"Shop No. 1, 2, 3, New Pachranga Market Pachranga Bazar, Old Housing Board Colony, Panipat - 132103, Dist.Panipat, Haryana",8048968656,
"Baby Hooded Towel, 1-2 Years",https://www.indiamart.com/proddetail/baby-hooded-towel-2850377947048.html?pos=93&kwd=baby towel&tags=BA||||9839.57|Price|product|||TS|rsf:gd-|-stype:attr=1|qr_nm:gd|res:RC5|com-cf:nl|ptrs:na|ktp:N0|mc:50260|mtp:S|qry_typ:P|lang:en|wc:2|cs:8830|v=4,Feelit Apparels Private Limited,https://www.indiamart.com/feelit-apparels/?pos=93&kwd=baby towel&tags=BA||||9839.57|Price|product|||TS|rsf:gd-|-stype:attr=1|qr_nm:gd|res:RC5|com-cf:nl|ptrs:na|ktp:N0|mc:50260|mtp:S|qry_typ:P|lang:en|wc:2|cs:8830|v=4,False,Alipore,Kolkata,"8/A, Ground Floor, Sen Lane, Ahiritola, Alipore, Kolkata - 700005, Dist.Kolkata, West Bengal",8047653523,
Terry Fabric Plain Simple Hooded Baby Towel,https://www.indiamart.com/proddetail/simple-hooded-baby-towel-11906670412.html?pos=94&kwd=baby towel&tags=BA||||8752.144|Price|product|||TS|rsf:gd-|-stype:attr=1|qr_nm:gd|res:RC5|com-cf:nl|ptrs:na|ktp:N0|mc:50260|mtp:S|qry_typ:P|lang:en|wc:2|cs:8830|v=4,Chinmay Kids,https://www.indiamart.com/chinmaykids/?pos=94&kwd=baby towel&tags=BA||||8752.144|Price|product|||TS|rsf:gd-|-stype:attr=1|qr_nm:gd|res:RC5|com-cf:nl|ptrs:na|ktp:N0|mc:50260|mtp:S|qry_typ:P|lang:en|wc:2|cs:8830|v=4,False,Nayagaon,New Delhi,"C-99, Street No. 4, First Pusta, Nayagaon, New Delhi - 110053, Dist.Delhi, Delhi",8046054858,
"Unisex Plain Newborn Baby Towels, Packaging Type: Poly, Newly Born",https://www.indiamart.com/proddetail/newborn-baby-towels-21991210330.html?pos=95&kwd=baby towel&tags=BA||||8601.347|Price|product|||TS|rsf:gd-|-stype:attr=1|qr_nm:gd|res:RC5|com-cf:nl|ptrs:na|ktp:N0|mc:50260|mtp:S|qry_typ:P|lang:en|wc:2|cs:8830|v=4,Ritvik Enterprises,https://www.indiamart.com/ritvikenterprises-jaipur/?pos=95&kwd=baby towel&tags=BA||||8601.347|Price|product|||TS|rsf:gd-|-stype:attr=1|qr_nm:gd|res:RC5|com-cf:nl|ptrs:na|ktp:N0|mc:50260|mtp:S|qry_typ:P|lang:en|wc:2|cs:8830|v=4,False,Mansarovar,Jaipur,"117/678, Agarwal Farm, Mansarovar, Jaipur - 302020, Dist.Jaipur, Rajasthan",7942545190,
Cotton Printed Baby Terry Towel,https://www.indiamart.com/proddetail/baby-terry-towel-11301587262.html?pos=96&kwd=baby towel&tags=BA||||8626.744|Price|product|||TS|rsf:gd-|-stype:attr=1|qr_nm:gd|res:RC5|com-cf:nl|ptrs:na|ktp:N0|mc:50260|mtp:S|qry_typ:P|lang:en|wc:2|cs:8830|v=4,Midas Clothing Company,https://www.indiamart.com/midasclothing-company/?pos=96&kwd=baby towel&tags=BA||||8626.744|Price|product|||TS|rsf:gd-|-stype:attr=1|qr_nm:gd|res:RC5|com-cf:nl|ptrs:na|ktp:N0|mc:50260|mtp:S|qry_typ:P|lang:en|wc:2|cs:8830|v=4,False,Pooluvapatti,Tiruppur,"Ground Floor , A1, 8/1682, Thiru Nagar,pandian Nagar, P N Road,nerupperichal Village, Pooluvapatti, Tiruppur - 641602, Dist.Coimbatore, Tamil Nadu",8047640475,
"Microfiber Baby Bath Towel, 1-2 Years",https://www.indiamart.com/proddetail/baby-bath-towel-2854407305148.html?pos=97&kwd=baby towel&tags=BA||||8230.883|Price|product|||TS|rsf:gd-|-stype:attr=1|qr_nm:gd|res:RC5|com-cf:nl|ptrs:na|ktp:N0|mc:50260|mtp:S|qry_typ:P|lang:en|wc:2|cs:8830|v=4,Mahant,https://www.themahant.com/?pos=97&kwd=baby towel&tags=BA||||8230.883|Price|product|||TS|rsf:gd-|-stype:attr=1|qr_nm:gd|res:RC5|com-cf:nl|ptrs:na|ktp:N0|mc:50260|mtp:S|qry_typ:P|lang:en|wc:2|cs:8830|v=4,False,Katargam,Surat,"E-1103, Shukan Heights, Opp, Kantareshwar Hanuman Temple, Singanpore, Katargam, Surat - 395004, Dist.Surat, Gujarat",8048954505,
Cotton Printed Baby Towel,https://www.indiamart.com/proddetail/printed-baby-towel-22134360388.html?pos=98&kwd=baby towel&tags=BA||||8752.144|Price|product|||TS|rsf:gd-|-stype:attr=1|qr_nm:gd|res:RC5|com-cf:nl|ptrs:na|ktp:N0|mc:50260|mtp:S|qry_typ:P|lang:en|wc:2|cs:8830|v=4,Motilal Navish Kumar Jain,https://www.indiamart.com/motilal-navish-kumarjain/?pos=98&kwd=baby towel&tags=BA||||8752.144|Price|product|||TS|rsf:gd-|-stype:attr=1|qr_nm:gd|res:RC5|com-cf:nl|ptrs:na|ktp:N0|mc:50260|mtp:S|qry_typ:P|lang:en|wc:2|cs:8830|v=4,False,Pahari Dhiraj,New Delhi,"4736, 37 Pahari Dhiraj North, Pahari Dhiraj, New Delhi - 110006, Dist.Delhi, Delhi",7949226857,
"Cotton Type Embroidered Baby Bath Towel, 1-10 year",https://www.indiamart.com/proddetail/baby-bath-towel-2852828177491.html?pos=99&kwd=baby towel&tags=BA||||8230.883|Price|product|||TS|rsf:gd-|-stype:attr=1|qr_nm:gd|res:RC5|com-cf:nl|ptrs:na|ktp:N0|mc:50260|mtp:S|qry_typ:P|lang:en|wc:2|cs:8830|v=4,A M Cut-Piece,https://www.classiccottonsuits.com/?pos=99&kwd=baby towel&tags=BA||||8230.883|Price|product|||TS|rsf:gd-|-stype:attr=1|qr_nm:gd|res:RC5|com-cf:nl|ptrs:na|ktp:N0|mc:50260|mtp:S|qry_typ:P|lang:en|wc:2|cs:8830|v=4,False,Rander,Surat,"201, 2nd Floor, Aman Co Op Housing Society-2, Kausar Manzil, Anjana, Rander, Surat - 395002, Dist.Surat, Gujarat",8047623540,
Cotton Cartoon Printed Baby Towels,https://www.indiamart.com/proddetail/cartoon-printed-baby-towels-19995679855.html?pos=100&kwd=baby towel&tags=BA||||9839.57|Price|product|||TS|rsf:gd-|-stype:attr=1|qr_nm:gd|res:RC5|com-cf:nl|ptrs:na|ktp:N0|mc:50260|mtp:S|qry_typ:P|lang:en|wc:2|cs:8830|v=4,Ichhalal Prahaladdas,https://www.indiamart.com/ichhalalprahaladdas/?pos=100&kwd=baby towel&tags=BA||||9839.57|Price|product|||TS|rsf:gd-|-stype:attr=1|qr_nm:gd|res:RC5|com-cf:nl|ptrs:na|ktp:N0|mc:50260|mtp:S|qry_typ:P|lang:en|wc:2|cs:8830|v=4,False,Kalakar Street,Kolkata,"3, Digambar Jain Temple Road, Chinni Patti, Kalakar Street, Kolkata - 700007, Dist.Kolkata, West Bengal",8047647596,
"Cotton Baby Small Towel, For Home, 0-2",https://www.indiamart.com/proddetail/baby-small-towel-26309822633.html?pos=101&kwd=baby towel&tags=BA||||8668.838|Price|product|||TS|rsf:gd-|-stype:attr=1|qr_nm:gd|res:RC5|com-cf:nl|ptrs:na|ktp:N0|mc:50260|mtp:S|qry_typ:P|lang:en|wc:2|cs:8830|v=4,Rajam Tex,https://www.rajamtex.com/?pos=101&kwd=baby towel&tags=BA||||8668.838|Price|product|||TS|rsf:gd-|-stype:attr=1|qr_nm:gd|res:RC5|com-cf:nl|ptrs:na|ktp:N0|mc:50260|mtp:S|qry_typ:P|lang:en|wc:2|cs:8830|v=4,False,Jaganathapuram,Erode,"No. 13/5-1, Parry Nagar, 2nd Street, Perundurai Main Road Perundurai Main Road, Jaganathapuram, Erode - 638011, Dist.Erode, Tamil Nadu",8047647306,
Baby Muslin Towel,https://www.indiamart.com/proddetail/baby-muslin-towel-2854888149273.html?pos=102&kwd=baby towel&tags=BB||||8220.031|Price|product|||TS|rsf:gd-|-stype:attr=1|qr_nm:gd|res:RC5|com-cf:nl|ptrs:na|ktp:N0|mc:50260|mtp:S|qry_typ:P|lang:en|wc:2|cs:8830|v=4,Fab Ellite,https://www.indiamart.com/fab-ellite/?pos=102&kwd=baby towel&tags=BB||||8220.031|Price|product|||TS|rsf:gd-|-stype:attr=1|qr_nm:gd|res:RC5|com-cf:nl|ptrs:na|ktp:N0|mc:50260|mtp:S|qry_typ:P|lang:en|wc:2|cs:8830|v=4,False,Patel Estate,Sidhpur,"Milkat No 8/7/61, Patel Estate, Sidhpur, Patan,, Patel Estate, Sidhpur - 384151, Dist.Patan, Gujarat",8044012906,
"Printed Unisex Baby bath towel, For Babies, 0 To 8years",https://www.indiamart.com/proddetail/baby-bath-towel-2850210084330.html?pos=103&kwd=baby towel&tags=BA||||8626.744|Price|product|||TS|rsf:gd-|-stype:attr=1|qr_nm:gd|res:RC5|com-cf:nl|ptrs:na|ktp:N0|mc:50260|mtp:S|qry_typ:P|lang:en|wc:2|cs:8830|v=4,K. M. S. Tex,https://www.indiamart.com/kms-tex/?pos=103&kwd=baby towel&tags=BA||||8626.744|Price|product|||TS|rsf:gd-|-stype:attr=1|qr_nm:gd|res:RC5|com-cf:nl|ptrs:na|ktp:N0|mc:50260|mtp:S|qry_typ:P|lang:en|wc:2|cs:8830|v=4,False,Samundipuram,Tiruppur,"11-12, ECR Complex, Samundipuram, 15 Velampalayam,, Samundipuram, Tiruppur - 641603, Dist.Coimbatore, Tamil Nadu",7942533174,
"Printed Baby Girls Towel, For Bathing, Packaging Type: packet",https://www.indiamart.com/proddetail/baby-girls-towel-14258681933.html?pos=104&kwd=baby towel&tags=BA||||8515.687|Price|product|||TS|rsf:gd-|-stype:attr=1|qr_nm:gd|res:RC5|com-cf:nl|ptrs:na|ktp:N0|mc:50260|mtp:S|qry_typ:P|lang:en|wc:2|cs:8830|v=4,Mandhania Weaving Mill,https://www.indiamart.com/mandhania-weaving-mill/?pos=104&kwd=baby towel&tags=BA||||8515.687|Price|product|||TS|rsf:gd-|-stype:attr=1|qr_nm:gd|res:RC5|com-cf:nl|ptrs:na|ktp:N0|mc:50260|mtp:S|qry_typ:P|lang:en|wc:2|cs:8830|v=4,False,Mangalwar Peth,Solapur,"No. 155/4, Gandhi Nagar, Akkalkot Road,, Mangalwar Peth, Solapur - 413006, Dist.Solapur, Maharashtra",8046035675,
New born baby towel,https://www.indiamart.com/proddetail/new-born-baby-towel-2855074846562.html?pos=105&kwd=baby towel&tags=BB||||8706.263||product|||TS|rsf:gd-|-stype:attr=1|qr_nm:gd|res:RC5|com-cf:nl|ptrs:na|ktp:N0|mc:50260|mtp:S|qry_typ:P|lang:en|wc:2|cs:8830|v=4,S.Rajkumar Prop.Water Pure Systems,https://www.indiamart.com/srajkumarprop-waterpure-systems/?pos=105&kwd=baby towel&tags=BB||||8706.263||product|||TS|rsf:gd-|-stype:attr=1|qr_nm:gd|res:RC5|com-cf:nl|ptrs:na|ktp:N0|mc:50260|mtp:S|qry_typ:P|lang:en|wc:2|cs:8830|v=4,False,Madavilagam,Karur,"NO 21, Sengunthapuram Main Road, Vaiyapuri Salai, Opp Aarthi Eye Hospital, Madavilagam, Karur - 639002, Dist.Karur, Tamil Nadu",7942791426,
Fabric: Cotton Baby Hooded Bath Towel,https://www.indiamart.com/proddetail/baby-hooded-bath-towel-2854234559173.html?pos=106&kwd=baby towel&tags=BA||||8706.263|Price|product|||TS|rsf:gd-|-stype:attr=1|qr_nm:gd|res:RC5|com-cf:nl|ptrs:na|ktp:N0|mc:50260|mtp:S|qry_typ:P|lang:en|wc:2|cs:8830|v=4,L S Textiles And Exports Private Limited,https://www.indiamart.com/lstextiles/?pos=106&kwd=baby towel&tags=BA||||8706.263|Price|product|||TS|rsf:gd-|-stype:attr=1|qr_nm:gd|res:RC5|com-cf:nl|ptrs:na|ktp:N0|mc:50260|mtp:S|qry_typ:P|lang:en|wc:2|cs:8830|v=4,True,Punnam,Karur,"S.F.No.141/13 South Punnam Village, Pugalur Taluk Palamapuram, Punnam, Karur - 639136, Dist.Karur, Tamil Nadu",8047851645,
"Fallalene Fabric Plain Baby Towel Single Layer Cap, Packaging Type: Loose",https://www.indiamart.com/proddetail/baby-towel-single-layer-cap-24658317073.html?pos=107&kwd=baby towel&tags=BB||||9528.781|Price|product|||TS|rsf:gd-|-stype:attr=1|qr_nm:gd|res:RC5|com-cf:nl|ptrs:na|ktp:N0|mc:50260|mtp:S|qry_typ:P|lang:en|wc:2|cs:8830|v=4,Radheshyam Manojkumar,https://www.indiamart.com/radheshyammanojkumar/?pos=107&kwd=baby towel&tags=BB||||9528.781|Price|product|||TS|rsf:gd-|-stype:attr=1|qr_nm:gd|res:RC5|com-cf:nl|ptrs:na|ktp:N0|mc:50260|mtp:S|qry_typ:P|lang:en|wc:2|cs:8830|v=4,False,UPPER BAZAR,Ranchi,"Ground Floor Kali Babu Street Choba Babu Lane Ranchi, UPPER BAZAR, Ranchi - 834001, Dist.Ranchi, Jharkhand",8046078710,
Plain Terry Hooded Baby Bath Towel Single Colour,https://www.indiamart.com/proddetail/terry-hooded-baby-bath-towel-single-colour-2852771945497.html?pos=108&kwd=baby towel&tags=BA||||8626.744|Price|product|||TS|rsf:gd-|-stype:attr=1|qr_nm:gd|res:RC5|com-cf:nl|ptrs:na|ktp:N0|mc:50260|mtp:S|qry_typ:P|lang:en|wc:2|cs:8830|v=4,Polotrendz,https://www.indiamart.com/polotrendz-tamilnadu/?pos=108&kwd=baby towel&tags=BA||||8626.744|Price|product|||TS|rsf:gd-|-stype:attr=1|qr_nm:gd|res:RC5|com-cf:nl|ptrs:na|ktp:N0|mc:50260|mtp:S|qry_typ:P|lang:en|wc:2|cs:8830|v=4,False,Rakkiapalayam,Tiruppur,"44, Swarnapuri Mullai Nagar, Rakkiapalayam, Avinashi Road, Rakkiapalayam, Tiruppur - 641654, Dist.Coimbatore, Tamil Nadu",8046071285,
"Plain Unisex BA212 MINI BABY TOWEL SET 4, 1-2 Years",https://www.indiamart.com/proddetail/ba212-mini-baby-towel-set-4-2853104075530.html?pos=109&kwd=baby towel&tags=BA||||8752.144||product|||TS|rsf:gd-|-stype:attr=1|qr_nm:gd|res:RC5|com-cf:nl|ptrs:na|ktp:N0|mc:50260|mtp:S|qry_typ:P|lang:en|wc:2|cs:8830|v=4,Briota Brands Private Limited,https://www.indiamart.com/briota-brands/?pos=109&kwd=baby towel&tags=BA||||8752.144||product|||TS|rsf:gd-|-stype:attr=1|qr_nm:gd|res:RC5|com-cf:nl|ptrs:na|ktp:N0|mc:50260|mtp:S|qry_typ:P|lang:en|wc:2|cs:8830|v=4,False,Pitampura,New Delhi,"50, 1st Floor, Sharda Niketan Pitampura, Pitampura, New Delhi - 110034, Dist.Delhi, Delhi",8043843967,
Wholesalers Jaipuri Hand Block Baby Towel,https://www.indiamart.com/proddetail/wholesalers-jaipuri-hand-block-baby-towel-24224029533.html?pos=110&kwd=baby towel&tags=BA||||8601.347|Price|product|||TS|rsf:gd-|-stype:attr=1|qr_nm:gd|res:RC5|com-cf:nl|ptrs:na|ktp:N0|mc:50260|mtp:S|qry_typ:P|lang:en|wc:2|cs:8830|v=4,Shree Ganesh Handicrafts & Textiles,https://www.shreeganeshhandicrafts.com/?pos=110&kwd=baby towel&tags=BA||||8601.347|Price|product|||TS|rsf:gd-|-stype:attr=1|qr_nm:gd|res:RC5|com-cf:nl|ptrs:na|ktp:N0|mc:50260|mtp:S|qry_typ:P|lang:en|wc:2|cs:8830|v=4,True,Amer Road,Jaipur,"Govind Nagar Vistar, Plot No 54b, Dussehra Kothi, Amer Road, Amer Road, Jaipur - 302002, Dist.Jaipur, Rajasthan",8046036982,
"CRADLE TOGS Printed Baby Hooded Towel, For Bathing",https://www.indiamart.com/proddetail/baby-hooded-towel-3807206462.html?pos=111&kwd=baby towel&tags=BA||||8752.144|Price|product|||TS|rsf:gd-|-stype:attr=1|qr_nm:gd|res:RC5|com-cf:nl|ptrs:na|ktp:N0|mc:50260|mtp:S|qry_typ:P|lang:en|wc:2|cs:8830|v=4,Man Singh & Sons Private Limited,https://www.babyproductsmanufacturer.com/?pos=111&kwd=baby towel&tags=BA||||8752.144|Price|product|||TS|rsf:gd-|-stype:attr=1|qr_nm:gd|res:RC5|com-cf:nl|ptrs:na|ktp:N0|mc:50260|mtp:S|qry_typ:P|lang:en|wc:2|cs:8830|v=4,False,Karol Bagh,New Delhi,"No. 13/24, 1st Floor, W. E. A., Karol Bagh, Karol Bagh, New Delhi - 110005, Dist.Delhi, Delhi",8048978579,
"Rrc Baby Towels, Kids Towael With Baby Cap On Corner",https://www.indiamart.com/proddetail/rrc-baby-towels-kids-towael-with-baby-cap-on-corner-27182073412.html?pos=112&kwd=baby towel&tags=BA||||8601.347|Price|product|||TS|rsf:gd-|-stype:attr=1|qr_nm:gd|res:RC5|com-cf:nl|ptrs:na|ktp:N0|mc:50260|mtp:S|qry_typ:P|lang:en|wc:2|cs:8830|v=4,RR Creations,https://www.rrcreation.co.in/?pos=112&kwd=baby towel&tags=BA||||8601.347|Price|product|||TS|rsf:gd-|-stype:attr=1|qr_nm:gd|res:RC5|com-cf:nl|ptrs:na|ktp:N0|mc:50260|mtp:S|qry_typ:P|lang:en|wc:2|cs:8830|v=4,False,Raghunathgarh,Jaipur,"A7D, Raghunath Colony, Galta Gate, Raghunathgarh, Jaipur - 302003, Dist.Jaipur, Rajasthan",8047620731,
Baby Hooded Towel,https://www.indiamart.com/proddetail/baby-hooded-towel-2853386437133.html?pos=113&kwd=baby towel&tags=BA||||8626.744|Price|product|||MDC|rsf:gd-|-stype:attr=1|qr_nm:gd|res:RC5|com-cf:nl|ptrs:na|ktp:N0|mc:50260|mtp:S|qry_typ:P|lang:en|wc:2|cs:8830|v=4,Ucan International,https://www.indiamart.com/ucan-international/?pos=113&kwd=baby towel&tags=BA||||8626.744|Price|product|||MDC|rsf:gd-|-stype:attr=1|qr_nm:gd|res:RC5|com-cf:nl|ptrs:na|ktp:N0|mc:50260|mtp:S|qry_typ:P|lang:en|wc:2|cs:8830|v=4,False,Poyampalayam,Tiruppur,"363, Pappa Nagar,Cottonn, Mill Road Tirupur,, Poyampalayam, Tiruppur - 641603, Dist.Coimbatore, Tamil Nadu",7942712470,
Baby Bath Towel,,Nagpal Cosmetics,https://www.indiamart.com/nagpal-cosmetics/?pos=114&kwd=baby towel&tags=BB||||8624.416|Price|product|||MDC|rsf:gd-|-stype:attr=1|qr_nm:gd|res:RC5|com-cf:nl|ptrs:na|ktp:N0|mc:50260|mtp:S|qry_typ:P|lang:en|wc:2|cs:8830|v=4,False,,Hisar,"First Floor, House No. 123, Kunj Lal Garden, Shanti Nagar, Hisar - 125001, Dist.Hisar, Haryana",8045738316,
"Printed Pink Baby Hooded Towel, For 100% Cotton Interlock 180 Gsm",https://www.indiamart.com/proddetail/baby-hooded-towel-2852086028130.html?pos=115&kwd=baby towel&tags=BA||||8663.873|Price|product|||MDC|rsf:gd-|-stype:attr=1|qr_nm:gd|res:RC5|com-cf:nl|ptrs:na|ktp:N0|mc:50260|mtp:S|qry_typ:P|lang:en|wc:2|cs:8830|v=4,Activekidss Retail Private Limited,https://www.indiamart.com/activekidssretail/?pos=115&kwd=baby towel&tags=BA||||8663.873|Price|product|||MDC|rsf:gd-|-stype:attr=1|qr_nm:gd|res:RC5|com-cf:nl|ptrs:na|ktp:N0|mc:50260|mtp:S|qry_typ:P|lang:en|wc:2|cs:8830|v=4,False,Urban,Bengaluru,"58/1 Plot No - 3, NH-7 Hosur Main Road, Singasandra, Urban, Bengaluru - 560068, Dist.Bengaluru, Karnataka",8043874205,
Baby towel,https://www.indiamart.com/proddetail/baby-towel-2851420667297.html?pos=116&kwd=baby towel&tags=BA||||8752.144||product|||MDC|rsf:gd-|-stype:attr=1|qr_nm:gd|res:RC5|com-cf:nl|ptrs:na|ktp:N0|mc:50260|mtp:S|qry_typ:P|lang:en|wc:2|cs:8830|v=4,Prince And Princess,https://www.indiamart.com/prince-princess-delhi/?pos=116&kwd=baby towel&tags=BA||||8752.144||product|||MDC|rsf:gd-|-stype:attr=1|qr_nm:gd|res:RC5|com-cf:nl|ptrs:na|ktp:N0|mc:50260|mtp:S|qry_typ:P|lang:en|wc:2|cs:8830|v=4,False,Gulabi Bagh,New Delhi,"Ground Floor, Garage No - 74, Gulabi Bagh Road,, Gulabi Bagh, New Delhi - 110007, Dist.Delhi, Delhi",8047629125,
Printed Multicolor Kids Hooded Bath Towel,https://www.indiamart.com/proddetail/kids-hooded-bath-towel-2850166925288.html?pos=117&kwd=baby towel&tags=BA||||8747.203|Price|product|||MDC|rsf:gd-|-stype:attr=1|qr_nm:gd|res:RC5|com-cf:nl|ptrs:na|ktp:N0|mc:50260|mtp:S|qry_typ:P|lang:en|wc:2|cs:8830|v=4,Golden International Private Limited,https://www.indiamart.com/goldennternational/?pos=117&kwd=baby towel&tags=BA||||8747.203|Price|product|||MDC|rsf:gd-|-stype:attr=1|qr_nm:gd|res:RC5|com-cf:nl|ptrs:na|ktp:N0|mc:50260|mtp:S|qry_typ:P|lang:en|wc:2|cs:8830|v=4,False,Shastri Colony,Panipat,"G T Road Near Hotel Mid Town, Shastri Colony, Panipat - 132103, Dist.Panipat, Haryana",7942798689,
"Printed Unisex Baby Towel, Packaging Type: 3 PCS PKG., Newly Born",https://www.indiamart.com/proddetail/baby-towel-2852557268355.html?pos=118&kwd=baby towel&tags=BA||||8228.275|Price|product|||MDC|rsf:gd-|-stype:attr=1|qr_nm:gd|res:RC5|com-cf:nl|ptrs:na|ktp:N0|mc:50260|mtp:S|qry_typ:P|lang:en|wc:2|cs:8830|v=4,Jay Julelal,https://www.indiamart.com/jayjulelal/?pos=118&kwd=baby towel&tags=BA||||8228.275|Price|product|||MDC|rsf:gd-|-stype:attr=1|qr_nm:gd|res:RC5|com-cf:nl|ptrs:na|ktp:N0|mc:50260|mtp:S|qry_typ:P|lang:en|wc:2|cs:8830|v=4,False,Kubernagar,Ahmedabad,"Sur 2934/A/1 And 2935/A/1, B/H Raj Hosiery, Rajaveer Circle Kubernagar, Kubernagar, Ahmedabad - 382340, Dist.Ahmedabad, Gujarat",7942626643,
Plain Pink Hooded Baby Towel,https://www.indiamart.com/proddetail/pink-hooded-baby-towel-2850870794497.html?pos=119&kwd=baby towel&tags=BA||||8747.203|Price|product|||MDC|rsf:gd-|-stype:attr=1|qr_nm:gd|res:RC5|com-cf:nl|ptrs:na|ktp:N0|mc:50260|mtp:S|qry_typ:P|lang:en|wc:2|cs:8830|v=4,Devi Handloom,https://www.indiamart.com/devi-handloom/?pos=119&kwd=baby towel&tags=BA||||8747.203|Price|product|||MDC|rsf:gd-|-stype:attr=1|qr_nm:gd|res:RC5|com-cf:nl|ptrs:na|ktp:N0|mc:50260|mtp:S|qry_typ:P|lang:en|wc:2|cs:8830|v=4,False,Netaji Colony,Panipat,"Adarsh Colony, Near Tilak Factory, Devi Handloom, Near Devpuri Road, Netaji Colony, Panipat - 132103, Dist.Panipat, Haryana",7942722076,
"Atfal Embroidered Baby Hooded Towel, For Home, 3 Years",https://www.indiamart.com/proddetail/baby-hooded-towel-24910745833.html?pos=120&kwd=baby towel&tags=BA||||8954.051|Price|product|||MDC|rsf:gd-|-stype:attr=1|qr_nm:gd|res:RC5|com-cf:nl|ptrs:na|ktp:N0|mc:50260|mtp:S|qry_typ:P|lang:en|wc:2|cs:8830|v=4,Bismillah Creation,https://www.indiamart.com/bismillah-creationchennai/?pos=120&kwd=baby towel&tags=BA||||8954.051|Price|product|||MDC|rsf:gd-|-stype:attr=1|qr_nm:gd|res:RC5|com-cf:nl|ptrs:na|ktp:N0|mc:50260|mtp:S|qry_typ:P|lang:en|wc:2|cs:8830|v=4,False,Selaivayal,Chennai,"No-31/1, Na, Vedhantha Murugappa Street, Selavoyal, Vedhantha Murugappa Street, Selaivayal, Chennai - 600051, Dist.Chennai, Tamil Nadu",8047309398,
Fabric: Cotton Printed Baby Hooded Towel,https://www.indiamart.com/proddetail/printed-baby-hooded-towel-2854163725430.html?pos=121&kwd=baby towel&tags=BA||||8693.162||product|||MDC|rsf:gd-|-stype:attr=1|qr_nm:gd|res:RC5|com-cf:nl|ptrs:na|ktp:N0|mc:50260|mtp:S|qry_typ:P|lang:en|wc:2|cs:8830|v=4,Dear Baby,https://www.indiamart.com/dearbaby/?pos=121&kwd=baby towel&tags=BA||||8693.162||product|||MDC|rsf:gd-|-stype:attr=1|qr_nm:gd|res:RC5|com-cf:nl|ptrs:na|ktp:N0|mc:50260|mtp:S|qry_typ:P|lang:en|wc:2|cs:8830|v=4,False,Begambur,Dindigul,"2nd Floor, No 7, Ahmad Appartment, S P Nagar, Begambur, Begambur, Dindigul - 624002, Dist.Dindigul, Tamil Nadu",8045731862,
"Baby Cotton Towel, Newly Born",https://www.indiamart.com/proddetail/baby-cotton-towel-2853955028291.html?pos=122&kwd=baby towel&tags=BA||||8228.275|Price|product|||MDC|rsf:gd-|-stype:attr=1|qr_nm:gd|res:RC5|com-cf:nl|ptrs:na|ktp:N0|mc:50260|mtp:S|qry_typ:P|lang:en|wc:2|cs:8830|v=4,Ramchand Tilumal,https://www.indiamart.com/ramchandtilumal/?pos=122&kwd=baby towel&tags=BA||||8228.275|Price|product|||MDC|rsf:gd-|-stype:attr=1|qr_nm:gd|res:RC5|com-cf:nl|ptrs:na|ktp:N0|mc:50260|mtp:S|qry_typ:P|lang:en|wc:2|cs:8830|v=4,False,Kalupur,Ahmedabad,"S-117, Sindhi Market, Revdi Bazar, Kalupur, Kalupur, Ahmedabad - 380001, Dist.Ahmedabad, Gujarat",8045731988,
"Printed White (Base Color) Newborn Baby Hooded Towel, For Kids",https://www.indiamart.com/proddetail/newborn-baby-hooded-towel-2853403186588.html?pos=123&kwd=baby towel&tags=BA||||8230.883|Price|product|||MDC|rsf:gd-|-stype:attr=1|qr_nm:gd|res:RC5|com-cf:nl|ptrs:na|ktp:N0|mc:50260|mtp:S|qry_typ:P|lang:en|wc:2|cs:8830|v=4,P & C Enterprise,https://www.indiamart.com/pc-enterprisesurat/?pos=123&kwd=baby towel&tags=BA||||8230.883|Price|product|||MDC|rsf:gd-|-stype:attr=1|qr_nm:gd|res:RC5|com-cf:nl|ptrs:na|ktp:N0|mc:50260|mtp:S|qry_typ:P|lang:en|wc:2|cs:8830|v=4,False,Punagam,Surat,"4TH, L-11, Shubh Plaza NR. Bhaiya Nagar, Satguru Mobile, Punagam, Surat - 395010, Dist.Surat, Gujarat",7949222404,
"Cotton Baby Towel ., Newly Born",https://www.indiamart.com/proddetail/baby-towel-24015610188.html?pos=124&kwd=baby towel&tags=BA||||8954.051|Price|product|||MDC|rsf:gd-|-stype:attr=1|qr_nm:gd|res:RC5|com-cf:nl|ptrs:na|ktp:N0|mc:50260|mtp:S|qry_typ:P|lang:en|wc:2|cs:8830|v=4,Madhu Knitters,https://www.indiamart.com/madhuknitters/?pos=124&kwd=baby towel&tags=BA||||8954.051|Price|product|||MDC|rsf:gd-|-stype:attr=1|qr_nm:gd|res:RC5|com-cf:nl|ptrs:na|ktp:N0|mc:50260|mtp:S|qry_typ:P|lang:en|wc:2|cs:8830|v=4,False,Royapettah,Chennai,"Flat No. 204, Meridian Heights, 156 Peters Road, Royapettah, Royapettah, Chennai - 600014, Dist.Chennai, Tamil Nadu",8048952268,
"Printed Unisex Baby Newborn Baby Cotton Towel, Newly Born",https://www.indiamart.com/proddetail/baby-newborn-baby-cotton-towel-2854059204333.html?pos=125&kwd=baby towel&tags=BA||||8752.144|Price|product|||MDC|rsf:gd-|-stype:attr=1|qr_nm:gd|res:RC5|com-cf:nl|ptrs:na|ktp:N0|mc:50260|mtp:S|qry_typ:P|lang:en|wc:2|cs:8830|v=4,A.D. Enterprises,https://www.indiamart.com/adenterprises-burari-newdelhi/?pos=125&kwd=baby towel&tags=BA||||8752.144|Price|product|||MDC|rsf:gd-|-stype:attr=1|qr_nm:gd|res:RC5|com-cf:nl|ptrs:na|ktp:N0|mc:50260|mtp:S|qry_typ:P|lang:en|wc:2|cs:8830|v=4,False,North,New Delhi,"K.No-12/1, Main 25 FT. Road, Near Shyam Sweets, Uttranchal Enclave ,Kamal Pur, Burari, North, New Delhi - 110084, Dist.Delhi, Delhi",8044565004,
"Printed Violet Baby Muslin Towel ( Single Layer ), Packaging Type: Box, Newly Born",https://www.indiamart.com/proddetail/baby-muslin-towel-single-layer-2853695795362.html?pos=126&kwd=baby towel&tags=BA||||8626.744|Price|product|||MDC|rsf:gd-|-stype:attr=1|qr_nm:gd|res:RC5|com-cf:nl|ptrs:na|ktp:N0|mc:50260|mtp:S|qry_typ:P|lang:en|wc:2|cs:8830|v=4,Trident Tex,https://www.indiamart.com/trident-tex-tiruppur/?pos=126&kwd=baby towel&tags=BA||||8626.744|Price|product|||MDC|rsf:gd-|-stype:attr=1|qr_nm:gd|res:RC5|com-cf:nl|ptrs:na|ktp:N0|mc:50260|mtp:S|qry_typ:P|lang:en|wc:2|cs:8830|v=4,False,Pitchampalayam Pudur,Tiruppur,"No.229/5a K G Nagar, Kilakku Thottam Pitchampalayam Pudhur Post, Pitchampalayam Pudur, Tiruppur - 641603, Dist.Coimbatore, Tamil Nadu",7942717834,
Baby Hooded Towel,https://www.indiamart.com/proddetail/baby-hooded-towel-26217801097.html?pos=127&kwd=baby towel&tags=BA||||8785.791|Price|product|||MDC|rsf:gd-|-stype:attr=1|qr_nm:gd|res:RC5|com-cf:nl|ptrs:na|ktp:N0|mc:50260|mtp:S|qry_typ:P|lang:en|wc:2|cs:8830|v=4,First Smile Enterprises,https://www.indiamart.com/firstsmileenterprises/?pos=127&kwd=baby towel&tags=BA||||8785.791|Price|product|||MDC|rsf:gd-|-stype:attr=1|qr_nm:gd|res:RC5|com-cf:nl|ptrs:na|ktp:N0|mc:50260|mtp:S|qry_typ:P|lang:en|wc:2|cs:8830|v=4,False,Ahmed Nagar Nawada,Ghaziabad,"Khasra No 263, New Anand Vihar, Loni,, Ahmed Nagar Nawada, Ghaziabad - 201102, Dist.Ghaziabad, Uttar Pradesh",8043850100,
"Plain Unisex Newborn Baby Bath Towel, 3 Months",https://www.indiamart.com/proddetail/newborn-baby-bath-towel-2852544605112.html?pos=128&kwd=baby towel&tags=BA||||8752.144|Price|product|||MDC|rsf:gd-|-stype:attr=1|qr_nm:gd|res:RC5|com-cf:nl|ptrs:na|ktp:N0|mc:50260|mtp:S|qry_typ:P|lang:en|wc:2|cs:8830|v=4,B N Hosiery,https://www.indiamart.com/bnhosiery/?pos=128&kwd=baby towel&tags=BA||||8752.144|Price|product|||MDC|rsf:gd-|-stype:attr=1|qr_nm:gd|res:RC5|com-cf:nl|ptrs:na|ktp:N0|mc:50260|mtp:S|qry_typ:P|lang:en|wc:2|cs:8830|v=4,False,Ashok Vihar,New Delhi,"House No 130l, Block-E, Phase-1,Ashok, Vihar, Ashok Vihar, New Delhi - 110052, Dist.Delhi, Delhi",7942706809,
Baby towel big size,https://www.indiamart.com/proddetail/baby-towel-big-size-2853107445348.html?pos=129&kwd=baby towel&tags=BB||||8706.508|Price|product|||MDC|rsf:gd-|-stype:attr=1|qr_nm:gd|res:RC5|com-cf:nl|ptrs:na|ktp:N0|mc:50260|mtp:S|qry_typ:P|lang:en|wc:2|cs:8830|v=4,Young Vision,https://www.indiamart.com/young-vision-rohtak/?pos=129&kwd=baby towel&tags=BB||||8706.508|Price|product|||MDC|rsf:gd-|-stype:attr=1|qr_nm:gd|res:RC5|com-cf:nl|ptrs:na|ktp:N0|mc:50260|mtp:S|qry_typ:P|lang:en|wc:2|cs:8830|v=4,False,Janta Colony,Rohtak,"949/31 Azad Nagar, Janta Colony, Rohtak - 124001, Dist.Rohtak, Haryana",8047688329,
Cotton Pure Muslin kids towel,https://www.indiamart.com/proddetail/pure-muslin-kids-towel-2853885425688.html?pos=130&kwd=baby towel&tags=BA||||8584.299|Price|product|||MDC|rsf:gd-|-stype:attr=1|qr_nm:gd|res:RC5|com-cf:nl|ptrs:na|ktp:N0|mc:50260|mtp:S|qry_typ:P|lang:en|wc:2|cs:8830|v=4,Prince N Princess,https://www.indiamart.com/prince-nprincess-coimbatore/?pos=130&kwd=baby towel&tags=BA||||8584.299|Price|product|||MDC|rsf:gd-|-stype:attr=1|qr_nm:gd|res:RC5|com-cf:nl|ptrs:na|ktp:N0|mc:50260|mtp:S|qry_typ:P|lang:en|wc:2|cs:8830|v=4,False,Vivekananda Nagar,Coimbatore,"10C, Vasantha Nagar,Singanallur Behind Jai Shanthi Theatre, Vivekananda Nagar, Coimbatore - 641005, Dist.Coimbatore, Tamil Nadu",7942875075,
Plain Fabric: Cotton Baby Beige Hooded Towel,https://www.indiamart.com/proddetail/baby-beige-hooded-towel-23009558933.html?pos=131&kwd=baby towel&tags=BA||||8747.203|Price|product|||MDC|rsf:gd-|-stype:attr=1|qr_nm:gd|res:RC5|com-cf:nl|ptrs:na|ktp:N0|mc:50260|mtp:S|qry_typ:P|lang:en|wc:2|cs:8830|v=4,Sai Impex,https://www.indiamart.com/sai-impex-panipat/?pos=131&kwd=baby towel&tags=BA||||8747.203|Price|product|||MDC|rsf:gd-|-stype:attr=1|qr_nm:gd|res:RC5|com-cf:nl|ptrs:na|ktp:N0|mc:50260|mtp:S|qry_typ:P|lang:en|wc:2|cs:8830|v=4,False,,Panipat,"581/4, Circular Road, Near Amar, Bhawan Chowk,, Panipat - 132103, Dist.Panipat, Haryana",7949329674,
"Microfiber Baby Face Towels, 3-12 Months",https://www.indiamart.com/proddetail/microfiber-baby-face-towels-2854299777262.html?pos=132&kwd=baby towel&tags=BA||||8601.347|Price|product|||MDC|rsf:gd-|-stype:attr=1|qr_nm:gd|res:RC5|com-cf:nl|ptrs:na|ktp:N0|mc:50260|mtp:S|qry_typ:P|lang:en|wc:2|cs:8830|v=4,Radhakrishan Enterprises,https://www.indiamart.com/radhakrishanenterprisesjaipur/?pos=132&kwd=baby towel&tags=BA||||8601.347|Price|product|||MDC|rsf:gd-|-stype:attr=1|qr_nm:gd|res:RC5|com-cf:nl|ptrs:na|ktp:N0|mc:50260|mtp:S|qry_typ:P|lang:en|wc:2|cs:8830|v=4,False,,Jaipur,"Ekta Vihar, 20-21, Govind Nagar West, Amer Road, Tripoliya Bazar, Jaipur - 302002, Dist.Jaipur, Rajasthan",8045738991,
"Pink,White Hooded Baby Towel",https://www.indiamart.com/proddetail/hooded-baby-towel-4405601991.html?pos=133&kwd=baby towel&tags=BA||||8785.791|Price|product|||TS|rsf:gd-|-stype:attr=1|qr_nm:gd|res:RC5|com-cf:nl|ptrs:na|ktp:N0|mc:50260|mtp:S|qry_typ:P|lang:en|wc:2|cs:8830|v=4,Ilaki Intercraft (India),https://www.indiamart.com/ilakiintercraft/?pos=133&kwd=baby towel&tags=BA||||8785.791|Price|product|||TS|rsf:gd-|-stype:attr=1|qr_nm:gd|res:RC5|com-cf:nl|ptrs:na|ktp:N0|mc:50260|mtp:S|qry_typ:P|lang:en|wc:2|cs:8830|v=4,False,Tronica City,Ghaziabad,"D-69 Sector D-1 Tronica City, Tronica City, Ghaziabad - 201103, Dist.Ghaziabad, Uttar Pradesh",7942552124,
Plain Terry Hooded Baby Bath Towel Single Colour,https://www.indiamart.com/proddetail/terry-hooded-baby-bath-towel-single-colour-2852771945497.html?pos=134&kwd=baby towel&tags=BA||||8626.744|Price|product|||TS|rsf:gd-|-stype:attr=1|qr_nm:gd|res:RC5|com-cf:nl|ptrs:na|ktp:N0|mc:50260|mtp:S|qry_typ:P|lang:en|wc:2|cs:8830|v=4,Polotrendz,https://www.indiamart.com/polotrendz-tamilnadu/?pos=134&kwd=baby towel&tags=BA||||8626.744|Price|product|||TS|rsf:gd-|-stype:attr=1|qr_nm:gd|res:RC5|com-cf:nl|ptrs:na|ktp:N0|mc:50260|mtp:S|qry_typ:P|lang:en|wc:2|cs:8830|v=4,False,Rakkiapalayam,Tiruppur,"44, Swarnapuri Mullai Nagar, Rakkiapalayam, Avinashi Road, Rakkiapalayam, Tiruppur - 641654, Dist.Coimbatore, Tamil Nadu",8046071285,
Printed Cotton Kids Hooded Bath Towel,https://www.indiamart.com/proddetail/kids-hooded-bath-towel-12533826612.html?pos=135&kwd=baby towel&tags=BB||||8211.142|Price|product|||TS|rsf:gd-|-stype:attr=1|qr_nm:gd|res:RC5|com-cf:nl|ptrs:na|ktp:N0|mc:50260|mtp:S|qry_typ:P|lang:en|wc:2|cs:8830|v=4,Shreeji Marketing,https://www.indiamart.com/shree-jimarketing/?pos=135&kwd=baby towel&tags=BB||||8211.142|Price|product|||TS|rsf:gd-|-stype:attr=1|qr_nm:gd|res:RC5|com-cf:nl|ptrs:na|ktp:N0|mc:50260|mtp:S|qry_typ:P|lang:en|wc:2|cs:8830|v=4,False,Mangaldas Market,Mumbai,"42, Kitchen Garden Lane, Mangaldas Building No. 5, Ground Floor Mangaldas Market, Mangaldas Market, Mumbai - 400002, Dist.Mumbai, Maharashtra",8047639359,
White Printed Baby Towel,https://www.indiamart.com/proddetail/printed-baby-towel-2854872747091.html?pos=136&kwd=baby towel&tags=BA||||9839.57|Price|product|||MDC|rsf:gd-|-stype:attr=1|qr_nm:gd|res:RC5|com-cf:nl|ptrs:na|ktp:N0|mc:50260|mtp:S|qry_typ:P|lang:en|wc:2|cs:8830|v=4,Titan Giftknit,https://www.indiamart.com/titan-giftknit/?pos=136&kwd=baby towel&tags=BA||||9839.57|Price|product|||MDC|rsf:gd-|-stype:attr=1|qr_nm:gd|res:RC5|com-cf:nl|ptrs:na|ktp:N0|mc:50260|mtp:S|qry_typ:P|lang:en|wc:2|cs:8830|v=4,False,Burrabazar,Kolkata,"56, Parbati Ghosh Lane, Burrabazar, Kolkata - 700007, Dist.Kolkata, West Bengal",7949325351,
"Printed White (Base Color) Newborn Baby Hooded Towel, For Kids",https://www.indiamart.com/proddetail/newborn-baby-hooded-towel-2853403186588.html?pos=137&kwd=baby towel&tags=BA||||8230.883|Price|product|||MDC|rsf:gd-|-stype:attr=1|qr_nm:gd|res:RC5|com-cf:nl|ptrs:na|ktp:N0|mc:50260|mtp:S|qry_typ:P|lang:en|wc:2|cs:8830|v=4,P & C Enterprise,https://www.indiamart.com/pc-enterprisesurat/?pos=137&kwd=baby towel&tags=BA||||8230.883|Price|product|||MDC|rsf:gd-|-stype:attr=1|qr_nm:gd|res:RC5|com-cf:nl|ptrs:na|ktp:N0|mc:50260|mtp:S|qry_typ:P|lang:en|wc:2|cs:8830|v=4,False,Punagam,Surat,"4TH, L-11, Shubh Plaza NR. Bhaiya Nagar, Satguru Mobile, Punagam, Surat - 395010, Dist.Surat, Gujarat",7949222404,
Plain Pink Hooded Baby Towel,https://www.indiamart.com/proddetail/pink-hooded-baby-towel-2850870794497.html?pos=138&kwd=baby towel&tags=BA||||8747.203|Price|product|||MDC|rsf:gd-|-stype:attr=1|qr_nm:gd|res:RC5|com-cf:nl|ptrs:na|ktp:N0|mc:50260|mtp:S|qry_typ:P|lang:en|wc:2|cs:8830|v=4,Devi Handloom,https://www.indiamart.com/devi-handloom/?pos=138&kwd=baby towel&tags=BA||||8747.203|Price|product|||MDC|rsf:gd-|-stype:attr=1|qr_nm:gd|res:RC5|com-cf:nl|ptrs:na|ktp:N0|mc:50260|mtp:S|qry_typ:P|lang:en|wc:2|cs:8830|v=4,False,Netaji Colony,Panipat,"Adarsh Colony, Near Tilak Factory, Devi Handloom, Near Devpuri Road, Netaji Colony, Panipat - 132103, Dist.Panipat, Haryana",7942722076,
Embroidered Baby Hooded Towel,https://www.indiamart.com/proddetail/baby-hooded-towel-2849780124730.html?pos=139&kwd=baby towel&tags=BA||||8769.508|Price|product|||SSnp|rsf:gd-|-stype:attr=1|qr_nm:gd|res:RC5|com-cf:nl|ptrs:na|ktp:N0|mc:50260|mtp:S|qry_typ:P|lang:en|wc:2|cs:8830|v=4,Mauria Udyog Limited,https://www.indiamart.com/mauriaudyog-delhi/?pos=139&kwd=baby towel&tags=BA||||8769.508|Price|product|||SSnp|rsf:gd-|-stype:attr=1|qr_nm:gd|res:RC5|com-cf:nl|ptrs:na|ktp:N0|mc:50260|mtp:S|qry_typ:P|lang:en|wc:2|cs:8830|v=4,False,Ballabhgarh,Faridabad,"Mauria Udyog Limited Sohna Road Sector-25, Ballabhgarh, Faridabad - 121004, Dist.Faridabad, Haryana",8048964009,
"Unisex White Baby Hooded Towel, 0-6 Months",https://www.indiamart.com/proddetail/baby-hooded-towel-11829368755.html?pos=140&kwd=baby towel&tags=BA||||8778.123|Price|product|||TS|rsf:gd-|-stype:attr=1|qr_nm:gd|res:RC5|com-cf:nl|ptrs:na|ktp:N0|mc:50260|mtp:S|qry_typ:P|lang:en|wc:2|cs:8830|v=4,Oscar Overseas,https://www.oscar-india.com/?pos=140&kwd=baby towel&tags=BA||||8778.123|Price|product|||TS|rsf:gd-|-stype:attr=1|qr_nm:gd|res:RC5|com-cf:nl|ptrs:na|ktp:N0|mc:50260|mtp:S|qry_typ:P|lang:en|wc:2|cs:8830|v=4,False,,Noida,"A-99 Sector 5, Noida - 201301, Dist.Gautam Budh Nagar, Uttar Pradesh",8046058290,
Printed Fabric: Cotton Muslin Baby Towel Hooded,https://www.indiamart.com/proddetail/muslin-baby-towel-hooded-2854264179312.html?pos=141&kwd=baby towel&tags=BA||||8668.838|Price|product|||TS|rsf:gd-|-stype:attr=1|qr_nm:gd|res:RC5|com-cf:nl|ptrs:na|ktp:N0|mc:50260|mtp:S|qry_typ:P|lang:en|wc:2|cs:8830|v=4,New Asia Textiles,https://www.indiamart.com/new-asia-textiles/?pos=141&kwd=baby towel&tags=BA||||8668.838|Price|product|||TS|rsf:gd-|-stype:attr=1|qr_nm:gd|res:RC5|com-cf:nl|ptrs:na|ktp:N0|mc:50260|mtp:S|qry_typ:P|lang:en|wc:2|cs:8830|v=4,False,,Erode,"42, Mosikeeranar Street-4 indra nagar, Erode - 638003, Dist.Erode, Tamil Nadu",8046070169,
"White Cotton Face Towel, For Home",https://www.indiamart.com/proddetail/cotton-face-towel-2852553540230.html?pos=142&kwd=baby towel&tags=BB||||8817.752|Price|product|||TS|rsf:gd-|-stype:attr=1|qr_nm:gd|res:RC5|com-cf:nl|ptrs:na|ktp:N0|mc:50260|mtp:S|qry_typ:P|lang:en|wc:2|cs:8830|v=4,A.R. Handloom,https://www.indiamart.com/ar-handloom-ghaziabad/?pos=142&kwd=baby towel&tags=BB||||8817.752|Price|product|||TS|rsf:gd-|-stype:attr=1|qr_nm:gd|res:RC5|com-cf:nl|ptrs:na|ktp:N0|mc:50260|mtp:S|qry_typ:P|lang:en|wc:2|cs:8830|v=4,False,Arya Nagar,Hapur,"Shivaji Nagar,Pilkhuwa,Hapur, Arya Nagar, Hapur - 245304, Dist.Hapur, Uttar Pradesh",7942715920,
"Multicolor Printed Kids Cotton Towel, For Home",https://www.indiamart.com/proddetail/kids-cotton-towel-24972427362.html?pos=143&kwd=baby towel&tags=BA||||8706.263||product|||TS|rsf:gd-|-stype:attr=1|qr_nm:gd|res:RC5|com-cf:nl|ptrs:na|ktp:N0|mc:50260|mtp:S|qry_typ:P|lang:en|wc:2|cs:8830|v=4,M.S.K.Looms Prop P.m.subbarayan,https://www.indiamart.com/msklooms/?pos=143&kwd=baby towel&tags=BA||||8706.263||product|||TS|rsf:gd-|-stype:attr=1|qr_nm:gd|res:RC5|com-cf:nl|ptrs:na|ktp:N0|mc:50260|mtp:S|qry_typ:P|lang:en|wc:2|cs:8830|v=4,False,Manmangalam,Karur,"118/3, 7&8, Arumaikkaranpudur, Thoolipatty, Kadambankurichy Village, Manmangalam, Karur - 639006, Dist.Karur, Tamil Nadu",7942561852,
Organic Cotton Baby Hooded Towel,https://www.indiamart.com/proddetail/organic-cotton-baby-hooded-towel-23554057088.html?pos=144&kwd=baby towel&tags=BB||||8676.986|Price|product|||MDC|rsf:gd-|-stype:attr=1|qr_nm:gd|res:RC5|com-cf:nl|ptrs:na|ktp:N0|mc:50260|mtp:S|qry_typ:P|lang:en|wc:2|cs:8830|v=4,Redbox Fashions,https://www.indiamart.com/redboxfashions/?pos=144&kwd=baby towel&tags=BB||||8676.986|Price|product|||MDC|rsf:gd-|-stype:attr=1|qr_nm:gd|res:RC5|com-cf:nl|ptrs:na|ktp:N0|mc:50260|mtp:S|qry_typ:P|lang:en|wc:2|cs:8830|v=4,False,Kovilpatti North,Kovilpatti,"14/2, Jeyameena complex, Kovilpatti North, Kovilpatti - 628502, Dist.Tuticorin, Tamil Nadu",8046074779,
"Green Microfiber Baby Bath Towel, 350 GSM, Size: 70x140 Cm",https://www.indiamart.com/proddetail/green-microfiber-baby-bath-towel-2851959243448.html?pos=145&kwd=baby towel&tags=BA||||9045.955|Price|product|||MDC|rsf:gd-|-stype:attr=1|qr_nm:gd|res:RC5|com-cf:nl|ptrs:na|ktp:N0|mc:50260|mtp:S|qry_typ:P|lang:en|wc:2|cs:8830|v=4,Atul Brothers,https://www.indiamart.com/atulbrothers-kanpur/?pos=145&kwd=baby towel&tags=BA||||9045.955|Price|product|||MDC|rsf:gd-|-stype:attr=1|qr_nm:gd|res:RC5|com-cf:nl|ptrs:na|ktp:N0|mc:50260|mtp:S|qry_typ:P|lang:en|wc:2|cs:8830|v=4,False,,Kanpur,"55/39, General Ganj, Kanpur - 208001, Uttar Pradesh",7949338686,
Handmade Baby Towel,,Shree Radhe Creations,https://www.indiamart.com/shreeradhe-creations/?pos=146&kwd=baby towel&tags=BB||||8601.347|Price|product|||TS|rsf:gd-|-stype:attr=1|qr_nm:gd|res:RC5|com-cf:nl|ptrs:na|ktp:N0|mc:50260|mtp:S|qry_typ:P|lang:en|wc:2|cs:8830|v=4,False,,Jaipur,"S-8, Amer Road, Golimar Garden Yojna, Nagar Nigam Colony, Jaipur - 302002, Dist.Jaipur, Rajasthan",8045734317,
Embroidered Fabric: Cotton Baby Hooded Towel,https://www.indiamart.com/proddetail/baby-hooded-towel-2854718947912.html?pos=147&kwd=baby towel&tags=A||||8228.275|Price|product|||NA|rsf:gd-|-stype:attr=1|qr_nm:gd|res:RC5|com-cf:nl|ptrs:na|ktp:N0|mc:50260|mtp:S|qry_typ:P|lang:en|wc:2|cs:8830|v=4,Shishu Apparels,https://www.indiamart.com/shishu-apparels/?pos=147&kwd=baby towel&tags=A||||8228.275|Price|product|||NA|rsf:gd-|-stype:attr=1|qr_nm:gd|res:RC5|com-cf:nl|ptrs:na|ktp:N0|mc:50260|mtp:S|qry_typ:P|lang:en|wc:2|cs:8830|v=4,False,,Ahmedabad,"62, Laxmi Vishnu Market, Gheekanta Road, Ghee Kanta, Ahmedabad - 380001, Dist.Ahmedabad, Gujarat",7949322683,
Plain Blue Baby Towel,https://www.indiamart.com/proddetail/blue-baby-towel-26308709055.html?pos=148&kwd=baby towel&tags=BB||||8823.154|Price|product|||NA|rsf:gd-|-stype:attr=1|qr_nm:gd|res:RC5|com-cf:nl|ptrs:na|ktp:N0|mc:50260|mtp:S|qry_typ:P|lang:en|wc:2|cs:8830|v=4,Care Plus,https://www.indiamart.com/care-plusagra/?pos=148&kwd=baby towel&tags=BB||||8823.154|Price|product|||NA|rsf:gd-|-stype:attr=1|qr_nm:gd|res:RC5|com-cf:nl|ptrs:na|ktp:N0|mc:50260|mtp:S|qry_typ:P|lang:en|wc:2|cs:8830|v=4,False,,Agra,"31/182/1B, Sanjay Nagar, Near Navjot Public School, Ukkahara, Agra - 282001, Dist.Agra, Uttar Pradesh",8043865020,
Plain Blue Baby Hooded Terry Towels,https://www.indiamart.com/proddetail/baby-hooded-terry-towels-2850338923030.html?pos=149&kwd=baby towel&tags=BA||||8661.854|Price|product|||NA|rsf:gd-|-stype:attr=1|qr_nm:gd|res:RC5|com-cf:nl|ptrs:na|ktp:N0|mc:50260|mtp:S|qry_typ:P|lang:en|wc:2|cs:8830|v=4,Charu Enterprises,https://www.indiamart.com/charu-enterprises-punjab/?pos=149&kwd=baby towel&tags=BA||||8661.854|Price|product|||NA|rsf:gd-|-stype:attr=1|qr_nm:gd|res:RC5|com-cf:nl|ptrs:na|ktp:N0|mc:50260|mtp:S|qry_typ:P|lang:en|wc:2|cs:8830|v=4,False,,Ludhiana,"6729, Street No.4, Jassian Road, Naveen Nagar, Haibowal Kalan, Ludhiana - 141008, Dist.Ludhiana, Punjab",7942817239,
Printed Unisex Baby Muslin Bath Towel,https://www.indiamart.com/proddetail/baby-muslin-bath-towel-2851670533173.html?pos=150&kwd=baby towel&tags=BA||||8584.299||product|||NA|rsf:gd-|-stype:attr=1|qr_nm:gd|res:RC5|com-cf:nl|ptrs:na|ktp:N0|mc:50260|mtp:S|qry_typ:P|lang:en|wc:2|cs:8830|v=4,Buttercup Baby Clothing,https://www.indiamart.com/buttercup-baby-clothing/?pos=150&kwd=baby towel&tags=BA||||8584.299||product|||NA|rsf:gd-|-stype:attr=1|qr_nm:gd|res:RC5|com-cf:nl|ptrs:na|ktp:N0|mc:50260|mtp:S|qry_typ:P|lang:en|wc:2|cs:8830|v=4,False,,Coimbatore,"33-8, East Ponnurangam Road, RS Puram, Coimbatore - 641002, Dist.Coimbatore, Tamil Nadu",8043824974,
"Kiddiehug Cotton Organic Muslin Swaddles, Unisex, Size: 100*100",https://www.indiamart.com/proddetail/organic-muslin-swaddles-2849766321162.html?pos=151&kwd=baby towel&tags=BA||||8550.327|Price|product|||NA|rsf:gd-|-stype:attr=1|qr_nm:gd|res:RC5|com-cf:nl|ptrs:na|ktp:N0|mc:50260|mtp:S|qry_typ:P|lang:en|wc:2|cs:8830|v=4,Aadheerkh Clothing,https://www.indiamart.com/kiddiehug/?pos=151&kwd=baby towel&tags=BA||||8550.327|Price|product|||NA|rsf:gd-|-stype:attr=1|qr_nm:gd|res:RC5|com-cf:nl|ptrs:na|ktp:N0|mc:50260|mtp:S|qry_typ:P|lang:en|wc:2|cs:8830|v=4,False,,Palakkad,"4/550 Valarapalam Nattukkal, Palakkad - 678554, Dist.Palakkad, Kerala",7942787711,
Shree Durga Enterprises,,Shree Durga Enterprises,https://www.indiamart.com/shree-durgaenterprises-nagpur/?pos=152&kwd=baby towel&tags=BA||||8876.815||bl|||MDC|rsf:gd-|-stype:attr=1|qr_nm:gd|res:RC5|com-cf:nl|ptrs:na|ktp:N0|mc:50260|mtp:S|qry_typ:P|lang:en|wc:2|cs:8830|v=4,False,East Vardhman Nagar,Nagpur,"Ground Flor, Plot No. 87, Shree Durga Enterprises, Gangabai Ghat Road, Opposite Baba Nanak School Juna Bagad Ganj, East Vardhman Nagar, Nagpur - 440008, Dist.Nagpur, Maharashtra",7942962967,
"Cotton Baby Towel, 250-350 GSM",https://www.indiamart.com/proddetail/baby-towel-23306173733.html?pos=153&kwd=baby towel&tags=BB||||8752.144|Price|product|||NA|rsf:gd-|-stype:attr=1|qr_nm:gd|res:RC5|com-cf:nl|ptrs:na|ktp:N0|mc:50260|mtp:S|qry_typ:P|lang:en|wc:2|cs:8830|v=4,Jain Trendz,https://www.indiamart.com/jaintrendznewdelhi/?pos=153&kwd=baby towel&tags=BB||||8752.144|Price|product|||NA|rsf:gd-|-stype:attr=1|qr_nm:gd|res:RC5|com-cf:nl|ptrs:na|ktp:N0|mc:50260|mtp:S|qry_typ:P|lang:en|wc:2|cs:8830|v=4,False,near Pacific Mall,New Delhi,"4/66 Sahibabad Industrial area Site 4 Ghaziabad, near Pacific Mall, New Delhi - 110029, Dist.Delhi, Delhi",8048609979,
Printed Baby Muslin Towel,,Shri Sainath Store,https://www.indiamart.com/shri-sainath-store/?pos=154&kwd=baby towel&tags=BB||||8211.142||product|||NA|rsf:gd-|-stype:attr=1|qr_nm:gd|res:RC5|com-cf:nl|ptrs:na|ktp:N0|mc:50260|mtp:S|qry_typ:P|lang:en|wc:2|cs:8830|v=4,False,Malad West,Mumbai,"Shop No.-16/ A, Natraj Market, Malad West, Mumbai - 400064, Dist.Mumbai, Maharashtra",8048247120,4517
Printed Unisex Baby Muslin Bath Towel,https://www.indiamart.com/proddetail/baby-muslin-bath-towel-2851670533173.html?pos=155&kwd=baby towel&tags=BA||||8584.299||product|||NA|rsf:gd-|-stype:attr=1|qr_nm:gd|res:RC5|com-cf:nl|ptrs:na|ktp:N0|mc:50260|mtp:S|qry_typ:P|lang:en|wc:2|cs:8830|v=4,Buttercup Baby Clothing,https://www.indiamart.com/buttercup-baby-clothing/?pos=155&kwd=baby towel&tags=BA||||8584.299||product|||NA|rsf:gd-|-stype:attr=1|qr_nm:gd|res:RC5|com-cf:nl|ptrs:na|ktp:N0|mc:50260|mtp:S|qry_typ:P|lang:en|wc:2|cs:8830|v=4,False,,Coimbatore,"33-8, East Ponnurangam Road, RS Puram, Coimbatore - 641002, Dist.Coimbatore, Tamil Nadu",8043824974,
"Green Plain Softspun Microfiber Baby Care Towel, Size: 40*60 cm",https://www.indiamart.com/proddetail/softspun-microfiber-baby-care-towel-17784498488.html?pos=156&kwd=baby towel&tags=BB||||8752.144|Price|product|||NA|rsf:gd-|-stype:attr=1|qr_nm:gd|res:RC5|com-cf:nl|ptrs:na|ktp:N0|mc:50260|mtp:S|qry_typ:P|lang:en|wc:2|cs:8830|v=4,Icc Chemtec Private Limited(Techem India (P) Ltd.,https://www.indiamart.com/iccchemtec/?pos=156&kwd=baby towel&tags=BB||||8752.144|Price|product|||NA|rsf:gd-|-stype:attr=1|qr_nm:gd|res:RC5|com-cf:nl|ptrs:na|ktp:N0|mc:50260|mtp:S|qry_typ:P|lang:en|wc:2|cs:8830|v=4,False,,New Delhi,"C-67, Indira Enclave, New Delhi - 110068, Dist.Delhi, Delhi",8048959572,
"Printed Multicolor New Born Baby Rectangle Cotton Towel, 6 Month",https://www.indiamart.com/proddetail/new-born-baby-rectangle-cotton-towel-2851553742791.html?pos=157&kwd=baby towel&tags=BB||||8752.144|Price|product|||NA|rsf:gd-|-stype:attr=1|qr_nm:gd|res:RC5|com-cf:nl|ptrs:na|ktp:N0|mc:50260|mtp:S|qry_typ:P|lang:en|wc:2|cs:8830|v=4,Dolly Enterprises,https://www.indiamart.com/dollyenterprisesnewdelhi/?pos=157&kwd=baby towel&tags=BB||||8752.144|Price|product|||NA|rsf:gd-|-stype:attr=1|qr_nm:gd|res:RC5|com-cf:nl|ptrs:na|ktp:N0|mc:50260|mtp:S|qry_typ:P|lang:en|wc:2|cs:8830|v=4,False,Ashok Vihar,New Delhi,"C-3/12,,RANA PRATAB BAGH,New Delhi, Ashok Vihar, New Delhi - 110007, Dist.Delhi, Delhi",7942837638,
"Organic Cotton Muslin Baby Face Towel, Newly Born",https://www.indiamart.com/proddetail/organic-cotton-muslin-baby-face-towel-2854314912791.html?pos=158&kwd=baby towel&tags=BA||||8230.883|Price|product|||NA|rsf:gd-|-stype:attr=1|qr_nm:gd|res:RC5|com-cf:nl|ptrs:na|ktp:N0|mc:50260|mtp:S|qry_typ:P|lang:en|wc:2|cs:8830|v=4,Arete Fashion,https://www.indiamart.com/arete-fashion/?pos=158&kwd=baby towel&tags=BA||||8230.883|Price|product|||NA|rsf:gd-|-stype:attr=1|qr_nm:gd|res:RC5|com-cf:nl|ptrs:na|ktp:N0|mc:50260|mtp:S|qry_typ:P|lang:en|wc:2|cs:8830|v=4,False,Udhana,Surat,"Saffron House, Sai Ashish Industrial Estate, New 120ft. Bamroli road, near raika Circle, Surat Gujar Saffron House, Sai Ashish Industrial Estate, New 120ft. Bamroli road, near raika Circle, Surat Gujar, Udhana, Surat - 395010, Dist.Surat, Gujarat",8062245968,406
"Btag Baby Bath Towel for Infants, New Born Babies and Toddlers, Soft Cotton",https://www.indiamart.com/proddetail/btag-baby-bath-towel-for-infants-new-born-babies-and-toddlers-soft-cotton-2855058791530.html?pos=159&kwd=baby towel&tags=BB||||8746.929||product|||NA|rsf:gd-|-stype:attr=1|qr_nm:gd|res:RC5|com-cf:nl|ptrs:na|ktp:N0|mc:50260|mtp:S|qry_typ:P|lang:en|wc:2|cs:8830|v=4,Bimla Traders,https://www.indiamart.com/bimla-traders-chandigarh/?pos=159&kwd=baby towel&tags=BB||||8746.929||product|||NA|rsf:gd-|-stype:attr=1|qr_nm:gd|res:RC5|com-cf:nl|ptrs:na|ktp:N0|mc:50260|mtp:S|qry_typ:P|lang:en|wc:2|cs:8830|v=4,False,Chandigarh,Chandigarh,"Sco 62 Dakshan Marg Sector 20C, Chandigarh, Chandigarh - 160020, Chandigarh",8048370714,7954
"Kids Disney Towel, Size: 70*140cm, Rectangular",https://www.indiamart.com/proddetail/kids-disney-towel-21296732533.html?pos=160&kwd=baby towel&tags=BB||||8228.275|Price|product|||NA|rsf:gd-|-stype:attr=1|qr_nm:gd|res:RC5|com-cf:nl|ptrs:na|ktp:N0|mc:50260|mtp:S|qry_typ:P|lang:en|wc:2|cs:8830|v=4,Vinod Handloom,https://www.indiamart.com/vinod-handloom/?pos=160&kwd=baby towel&tags=BB||||8228.275|Price|product|||NA|rsf:gd-|-stype:attr=1|qr_nm:gd|res:RC5|com-cf:nl|ptrs:na|ktp:N0|mc:50260|mtp:S|qry_typ:P|lang:en|wc:2|cs:8830|v=4,False,Jahangirpura,Ahmedabad,"F-5 Idghah Circle, Asarwa City Centre, Jahangirpura, Ahmedabad - 380016, Dist.Ahmedabad, Gujarat",8048267447,
Nylon Printed Baby Hood Towel Set,https://www.indiamart.com/proddetail/baby-hood-towel-set-18393905312.html?pos=161&kwd=baby towel&tags=BB||||8515.687|Price|product|||NA|rsf:gd-|-stype:attr=1|qr_nm:gd|res:RC5|com-cf:nl|ptrs:na|ktp:N0|mc:50260|mtp:S|qry_typ:P|lang:en|wc:2|cs:8830|v=4,Towelwala Fabrics,https://www.indiamart.com/towelwala/?pos=161&kwd=baby towel&tags=BB||||8515.687|Price|product|||NA|rsf:gd-|-stype:attr=1|qr_nm:gd|res:RC5|com-cf:nl|ptrs:na|ktp:N0|mc:50260|mtp:S|qry_typ:P|lang:en|wc:2|cs:8830|v=4,False,MIDC,Solapur,"C-30/12, Shri Nagnath Lagu Udyog Sanstha Behind Yallaling Math, Akkalkot Road, MIDC, Solapur - 413006, Dist.Solapur, Maharashtra",8048963085,
Printed Hooded Baby Towel,https://www.indiamart.com/proddetail/hooded-baby-towel-22976810388.html?pos=162&kwd=baby towel&tags=BB||||8485.943|Price|product|||NA|rsf:gd-|-stype:attr=1|qr_nm:gd|res:RC5|com-cf:nl|ptrs:na|ktp:N0|mc:50260|mtp:S|qry_typ:P|lang:en|wc:2|cs:8830|v=4,Zanz Baby,https://www.indiamart.com/zanz-baby-kunnamkulam/?pos=162&kwd=baby towel&tags=BB||||8485.943|Price|product|||NA|rsf:gd-|-stype:attr=1|qr_nm:gd|res:RC5|com-cf:nl|ptrs:na|ktp:N0|mc:50260|mtp:S|qry_typ:P|lang:en|wc:2|cs:8830|v=4,False,Kanippayur,Kunnamkulam,"Kunnamkulam Thrissur Road, Kanippayur, Kunnamkulam - 680517, Dist.Thrissur, Kerala",8048372558,253
Baby Hooded Towel,,Ohms Fusion Knitwear India Private Limited,https://www.indiamart.com/ohms-fusion-knitwear/?pos=163&kwd=baby towel&tags=BB||||8626.744|Price|product|||NA|rsf:gd-|-stype:attr=1|qr_nm:gd|res:RC5|com-cf:nl|ptrs:na|ktp:N0|mc:50260|mtp:S|qry_typ:P|lang:en|wc:2|cs:8830|v=4,False,Kangayam Road,Tiruppur,"7A, Semmedu Thottam, Kangayam Road, Tiruppur - 641604, Dist.Coimbatore, Tamil Nadu",7942631345,
"Baby towel, 0-10",https://www.indiamart.com/proddetail/baby-towel-2850463696388.html?pos=164&kwd=baby towel&tags=BB||||8752.144|Price|product|||NA|rsf:gd-|-stype:attr=1|qr_nm:gd|res:RC5|com-cf:nl|ptrs:na|ktp:N0|mc:50260|mtp:S|qry_typ:P|lang:en|wc:2|cs:8830|v=4,Yogesh Booties,https://www.indiamart.com/yogesh-booties/?pos=164&kwd=baby towel&tags=BB||||8752.144|Price|product|||NA|rsf:gd-|-stype:attr=1|qr_nm:gd|res:RC5|com-cf:nl|ptrs:na|ktp:N0|mc:50260|mtp:S|qry_typ:P|lang:en|wc:2|cs:8830|v=4,False,Krishan Vihar,Delhi,"Block No.5, Krishan Vihar, Delhi - 110086, Dist.Delhi, Delhi",8043877166,
"Baby towel, New Born",,Natkhat Enterprise,https://www.indiamart.com/natkhatenterprise/?pos=165&kwd=baby towel&tags=BB||||7991.571|Price|product|||NA|rsf:gd-|-stype:attr=1|qr_nm:gd|res:RC5|com-cf:nl|ptrs:na|ktp:N0|mc:50260|mtp:S|qry_typ:P|lang:en|wc:2|cs:8830|v=4,False,Mangnath Road,Junagadh,"Tribhuvan Complex, First Floor Shop 1 -2, Mangnath Road, Junagadh - 362001, Dist.Junagadh, Gujarat",8043851522,
"Plain Unisex Baby Towel, Packaging Type: Packet, 3-12 Months",https://www.indiamart.com/proddetail/baby-towel-21460028891.html?pos=166&kwd=baby towel&tags=BB||||8954.051|Price|product|||NA|rsf:gd-|-stype:attr=1|qr_nm:gd|res:RC5|com-cf:nl|ptrs:na|ktp:N0|mc:50260|mtp:S|qry_typ:P|lang:en|wc:2|cs:8830|v=4,Medizones,https://www.indiamart.com/medizones/?pos=166&kwd=baby towel&tags=BB||||8954.051|Price|product|||NA|rsf:gd-|-stype:attr=1|qr_nm:gd|res:RC5|com-cf:nl|ptrs:na|ktp:N0|mc:50260|mtp:S|qry_typ:P|lang:en|wc:2|cs:8830|v=4,False,George Town,Chennai,"Door No. 110, Shop No. 8, 1st Floor, Park Town, George Town, Chennai - 600003, Dist.Chennai, Tamil Nadu",8046074819,
"Cotton Baby Towel, 250-350 GSM",https://www.indiamart.com/proddetail/baby-towel-23306173733.html?pos=167&kwd=baby towel&tags=BB||||8752.144|Price|product|||NA|rsf:gd-|-stype:attr=1|qr_nm:gd|res:RC5|com-cf:nl|ptrs:na|ktp:N0|mc:50260|mtp:S|qry_typ:P|lang:en|wc:2|cs:8830|v=4,Jain Trendz,https://www.indiamart.com/jaintrendznewdelhi/?pos=167&kwd=baby towel&tags=BB||||8752.144|Price|product|||NA|rsf:gd-|-stype:attr=1|qr_nm:gd|res:RC5|com-cf:nl|ptrs:na|ktp:N0|mc:50260|mtp:S|qry_typ:P|lang:en|wc:2|cs:8830|v=4,False,near Pacific Mall,New Delhi,"4/66 Sahibabad Industrial area Site 4 Ghaziabad, near Pacific Mall, New Delhi - 110029, Dist.Delhi, Delhi",8048609979,
Terry Baby Towel,https://www.indiamart.com/proddetail/baby-towel-14972652091.html?pos=168&kwd=baby towel&tags=BB||||8752.144|Price|product|||NA|rsf:gd-|-stype:attr=1|qr_nm:gd|res:RC5|com-cf:nl|ptrs:na|ktp:N0|mc:50260|mtp:S|qry_typ:P|lang:en|wc:2|cs:8830|v=4,Manan Traders,https://www.indiamart.com/manantraders/?pos=168&kwd=baby towel&tags=BB||||8752.144|Price|product|||NA|rsf:gd-|-stype:attr=1|qr_nm:gd|res:RC5|com-cf:nl|ptrs:na|ktp:N0|mc:50260|mtp:S|qry_typ:P|lang:en|wc:2|cs:8830|v=4,False,Gandhi Nagar,New Delhi,"X660, Street No. 6, Raghubar Pura No. 1, Gandhi Nagar, New Delhi - 110031, Dist.Delhi, Delhi",8047839962,
Blue BABY HOODED TOWEL - PLAIN COLOURS,https://www.indiamart.com/proddetail/baby-hooded-towel-plain-colours-2854885510573.html?pos=169&kwd=baby towel&tags=BA||||8626.744|Price|product|||NA|rsf:gd-|-stype:attr=1|qr_nm:gd|res:RC5|com-cf:nl|ptrs:na|ktp:N0|mc:50260|mtp:S|qry_typ:P|lang:en|wc:2|cs:8830|v=4,Neptune Knitting Works,https://www.indiamart.com/neptune-knitting-works/?pos=169&kwd=baby towel&tags=BA||||8626.744|Price|product|||NA|rsf:gd-|-stype:attr=1|qr_nm:gd|res:RC5|com-cf:nl|ptrs:na|ktp:N0|mc:50260|mtp:S|qry_typ:P|lang:en|wc:2|cs:8830|v=4,False,,Tiruppur,"359,Avinashi Road, Tiruppur - 641603, Dist.Coimbatore, Tamil Nadu",7942668659,
Printed Unisex Baby Muslin Bath Towel,https://www.indiamart.com/proddetail/baby-muslin-bath-towel-2851670533173.html?pos=170&kwd=baby towel&tags=BA||||8584.299||product|||NA|rsf:gd-|-stype:attr=1|qr_nm:gd|res:RC5|com-cf:nl|ptrs:na|ktp:N0|mc:50260|mtp:S|qry_typ:P|lang:en|wc:2|cs:8830|v=4,Buttercup Baby Clothing,https://www.indiamart.com/buttercup-baby-clothing/?pos=170&kwd=baby towel&tags=BA||||8584.299||product|||NA|rsf:gd-|-stype:attr=1|qr_nm:gd|res:RC5|com-cf:nl|ptrs:na|ktp:N0|mc:50260|mtp:S|qry_typ:P|lang:en|wc:2|cs:8830|v=4,False,,Coimbatore,"33-8, East Ponnurangam Road, RS Puram, Coimbatore - 641002, Dist.Coimbatore, Tamil Nadu",8043824974,
"Fleece Green Baby Cartoon Towel, 12 Month",https://www.indiamart.com/proddetail/baby-cartoon-towel-23710467273.html?pos=171&kwd=baby towel&tags=BB||||8747.203|Price|product|||NA|rsf:gd-|-stype:attr=1|qr_nm:gd|res:RC5|com-cf:nl|ptrs:na|ktp:N0|mc:50260|mtp:S|qry_typ:P|lang:en|wc:2|cs:8830|v=4,Cloudy India Home Furnishing,https://www.indiamart.com/cloudyindia-home-furnishing/?pos=171&kwd=baby towel&tags=BB||||8747.203|Price|product|||NA|rsf:gd-|-stype:attr=1|qr_nm:gd|res:RC5|com-cf:nl|ptrs:na|ktp:N0|mc:50260|mtp:S|qry_typ:P|lang:en|wc:2|cs:8830|v=4,False,,Panipat,"Khewat No. 274, Village Kurar, Bapoli, Panipat - 132103, Dist.Panipat, Haryana",8048986408,
"Printed Unisex Grey Baby Terry Towel, For Home, 3 Years",https://www.indiamart.com/proddetail/grey-baby-terry-towel-2850465757148.html?pos=172&kwd=baby towel&tags=BB||||8626.744|Price|product|||NA|rsf:gd-|-stype:attr=1|qr_nm:gd|res:RC5|com-cf:nl|ptrs:na|ktp:N0|mc:50260|mtp:S|qry_typ:P|lang:en|wc:2|cs:8830|v=4,GSR Traders,https://www.indiamart.com/gsrtraders-tiruppur/?pos=172&kwd=baby towel&tags=BB||||8626.744|Price|product|||NA|rsf:gd-|-stype:attr=1|qr_nm:gd|res:RC5|com-cf:nl|ptrs:na|ktp:N0|mc:50260|mtp:S|qry_typ:P|lang:en|wc:2|cs:8830|v=4,False,,Tiruppur,"5/231A,Mangalam,Vanjipalayam,Tiruppur, Tiruppur - 641663, Dist.Coimbatore, Tamil Nadu",7942823269,
Baby Towel,,Baby Arise,https://www.indiamart.com/baby-arise/?pos=173&kwd=baby towel&tags=BA||||8220.031|Price|product|||NA|rsf:gd-|-stype:attr=1|qr_nm:gd|res:RC5|com-cf:nl|ptrs:na|ktp:N0|mc:50260|mtp:S|qry_typ:P|lang:en|wc:2|cs:8830|v=4,False,milkat No.- 8/7/37,Sidhpur,"House No.- 37 , Ground Floor, milkat No.- 8/7/37, Sidhpur - 384151, Dist.Patan, Gujarat",8048249728,4892
"Blue Plastic Baby Towel Combo Of Sheet, Size: 24X36 Inch",https://www.indiamart.com/proddetail/baby-towel-combo-of-plastic-sheet-18426426948.html?pos=174&kwd=baby towel&tags=BA||||8752.144|Price|product|||NA|rsf:gd-|-stype:attr=1|qr_nm:gd|res:RC5|com-cf:nl|ptrs:na|ktp:N0|mc:50260|mtp:S|qry_typ:P|lang:en|wc:2|cs:8830|v=4,R.D. Enterprises,https://www.indiamart.com/rdenterprise-delhi/?pos=174&kwd=baby towel&tags=BA||||8752.144|Price|product|||NA|rsf:gd-|-stype:attr=1|qr_nm:gd|res:RC5|com-cf:nl|ptrs:na|ktp:N0|mc:50260|mtp:S|qry_typ:P|lang:en|wc:2|cs:8830|v=4,False,Karawal Nagar,New Delhi,"B-184, Street No. 2, Sadatpur Colony, Karawal Nagar,, Karawal Nagar, New Delhi - 110094, Dist.Delhi, Delhi",7942660330,
"Printed Unisex Baby Cotton Towel, Packaging Type: Packet, 4 Years",https://www.indiamart.com/proddetail/baby-cotton-towel-2848942641655.html?pos=175&kwd=baby towel&tags=BB||||9839.57|Price|product|||NA|rsf:gd-|-stype:attr=1|qr_nm:gd|res:RC5|com-cf:nl|ptrs:na|ktp:N0|mc:50260|mtp:S|qry_typ:P|lang:en|wc:2|cs:8830|v=4,Suraj Prasad Kripashankar,https://www.indiamart.com/surajprasadkripashankar/?pos=175&kwd=baby towel&tags=BB||||9839.57|Price|product|||NA|rsf:gd-|-stype:attr=1|qr_nm:gd|res:RC5|com-cf:nl|ptrs:na|ktp:N0|mc:50260|mtp:S|qry_typ:P|lang:en|wc:2|cs:8830|v=4,False,,Kolkata,"174, Mahatma Gandhi Road, Burrabazar, Kolkata - 700007, Dist.Kolkata, West Bengal",8047820520,
"Printed Unisex Baby Bath Towel, Packaging Type: Polybag, 0-5 Years",https://www.indiamart.com/proddetail/baby-bath-towel-2853396715291.html?pos=176&kwd=baby towel&tags=BA||||8207.956|Price|product|||NA|rsf:gd-|-stype:attr=1|qr_nm:gd|res:RC5|com-cf:nl|ptrs:na|ktp:N0|mc:50260|mtp:S|qry_typ:P|lang:en|wc:2|cs:8830|v=4,Daivya Enterprise,https://www.indiamart.com/daivya-enterprise-sanand/?pos=176&kwd=baby towel&tags=BA||||8207.956|Price|product|||NA|rsf:gd-|-stype:attr=1|qr_nm:gd|res:RC5|com-cf:nl|ptrs:na|ktp:N0|mc:50260|mtp:S|qry_typ:P|lang:en|wc:2|cs:8830|v=4,False,Bol,Sanand,"Shop No-1, Survey No-885, Near Motipura Bus Stand, Bol ,Sanad, GIDC, Bol, Sanand - 382170, Dist.Ahmedabad, Gujarat",7949224901,
Microfiber Baby Bath Towel,https://www.indiamart.com/proddetail/baby-bath-towel-2854716573112.html?pos=177&kwd=baby towel&tags=BB||||8211.142|Price|product|||NA|rsf:gd-|-stype:attr=1|qr_nm:gd|res:RC5|com-cf:nl|ptrs:na|ktp:N0|mc:50260|mtp:S|qry_typ:P|lang:en|wc:2|cs:8830|v=4,Baby Care,https://www.indiamart.com/babycare-227325739/?pos=177&kwd=baby towel&tags=BB||||8211.142|Price|product|||NA|rsf:gd-|-stype:attr=1|qr_nm:gd|res:RC5|com-cf:nl|ptrs:na|ktp:N0|mc:50260|mtp:S|qry_typ:P|lang:en|wc:2|cs:8830|v=4,False,,Mumbai,"Ground Floor Shop No 4 Upper Govind Nagar Road Dhruv Heights Chs Ltd, Mumbai - 400097, Dist.Mumbai, Maharashtra",8048249780,9707
baby bath towel,https://www.indiamart.com/proddetail/baby-bath-towel-2854827057162.html?pos=178&kwd=baby towel&tags=BB||||8823.154|Price|product|||NA|rsf:gd-|-stype:attr=1|qr_nm:gd|res:RC5|com-cf:nl|ptrs:na|ktp:N0|mc:50260|mtp:S|qry_typ:P|lang:en|wc:2|cs:8830|v=4,Innovationcrfts India,https://www.indiamart.com/company/230303926/?pos=178&kwd=baby towel&tags=BB||||8823.154|Price|product|||NA|rsf:gd-|-stype:attr=1|qr_nm:gd|res:RC5|com-cf:nl|ptrs:na|ktp:N0|mc:50260|mtp:S|qry_typ:P|lang:en|wc:2|cs:8830|v=4,False,,Agra,"28/140, Katra Gokul Pura Raja Mandi Agra, Agra - 282002, Dist.Agra, Uttar Pradesh",8048247089,2659
Plain Baby Hooded Towel,,Growup Baby Caare,https://www.indiamart.com/vn-clothes/?pos=179&kwd=baby towel&tags=BB||||8626.744|Price|product|||NA|rsf:gd-|-stype:attr=1|qr_nm:gd|res:RC5|com-cf:nl|ptrs:na|ktp:N0|mc:50260|mtp:S|qry_typ:P|lang:en|wc:2|cs:8830|v=4,False,T.N.K Puram,Tiruppur,"7,S.V.COLONY, 5TH STREET, RAJ NAGAR,TIRUPUR shop no 2/3A, T.N.K Puram, Tiruppur,641603,Tiruppur, T.N.K Puram, Tiruppur - 641602, Dist.Coimbatore, Tamil Nadu",8047840217,
"Unisex Cotton Baby Towels, Packaging Type: Display Poly Pack",https://www.indiamart.com/proddetail/baby-towels-19088754888.html?pos=180&kwd=baby towel&tags=BA||||8211.142|Price|product|||NA|rsf:gd-|-stype:attr=1|qr_nm:gd|res:RC5|com-cf:nl|ptrs:na|ktp:N0|mc:50260|mtp:S|qry_typ:P|lang:en|wc:2|cs:8830|v=4,Rachna Creation,https://www.indiamart.com/rachna-creation/?pos=180&kwd=baby towel&tags=BA||||8211.142|Price|product|||NA|rsf:gd-|-stype:attr=1|qr_nm:gd|res:RC5|com-cf:nl|ptrs:na|ktp:N0|mc:50260|mtp:S|qry_typ:P|lang:en|wc:2|cs:8830|v=4,False,Dadar (East),Mumbai,"Plot No. 155, Tarwala House, Shop No. 5 Saint Paul Street, Hindmata, Dadar (East), Mumbai - 400014, Dist.Mumbai, Maharashtra",8047681234,
"Printed Unisex Baby Bath Towel, Newly Born",https://www.indiamart.com/proddetail/baby-bath-towel-2850330901333.html?pos=181&kwd=baby towel&tags=BB||||8626.744|Price|product|||NA|rsf:gd-|-stype:attr=1|qr_nm:gd|res:RC5|com-cf:nl|ptrs:na|ktp:N0|mc:50260|mtp:S|qry_typ:P|lang:en|wc:2|cs:8830|v=4,Thanshika Fashions,https://www.indiamart.com/thanshika-fashions/?pos=181&kwd=baby towel&tags=BB||||8626.744|Price|product|||NA|rsf:gd-|-stype:attr=1|qr_nm:gd|res:RC5|com-cf:nl|ptrs:na|ktp:N0|mc:50260|mtp:S|qry_typ:P|lang:en|wc:2|cs:8830|v=4,False,,Tiruppur,"4/10-1,Tirupuran Thottam, KG Palayam Road, Tiruppur - 641605, Dist.Coimbatore, Tamil Nadu",7942817223,
Plain Blue Baby Towel,https://www.indiamart.com/proddetail/blue-baby-towel-26308709055.html?pos=182&kwd=baby towel&tags=BB||||8823.154|Price|product|||NA|rsf:gd-|-stype:attr=1|qr_nm:gd|res:RC5|com-cf:nl|ptrs:na|ktp:N0|mc:50260|mtp:S|qry_typ:P|lang:en|wc:2|cs:8830|v=4,Care Plus,https://www.indiamart.com/care-plusagra/?pos=182&kwd=baby towel&tags=BB||||8823.154|Price|product|||NA|rsf:gd-|-stype:attr=1|qr_nm:gd|res:RC5|com-cf:nl|ptrs:na|ktp:N0|mc:50260|mtp:S|qry_typ:P|lang:en|wc:2|cs:8830|v=4,False,,Agra,"31/182/1B, Sanjay Nagar, Near Navjot Public School, Ukkahara, Agra - 282001, Dist.Agra, Uttar Pradesh",8043865020,
"Embroidered Wrapper_red_angry HOODED BABY TOWEL RED, For Mild Winter",https://www.indiamart.com/proddetail/hooded-baby-towel-red-2850113271788.html?pos=183&kwd=baby towel&tags=BA||||8661.854|Price|product|||NA|rsf:gd-|-stype:attr=1|qr_nm:gd|res:RC5|com-cf:nl|ptrs:na|ktp:N0|mc:50260|mtp:S|qry_typ:P|lang:en|wc:2|cs:8830|v=4,K.G.N. International,https://www.indiamart.com/kgn-internationalludhiana/?pos=183&kwd=baby towel&tags=BA||||8661.854|Price|product|||NA|rsf:gd-|-stype:attr=1|qr_nm:gd|res:RC5|com-cf:nl|ptrs:na|ktp:N0|mc:50260|mtp:S|qry_typ:P|lang:en|wc:2|cs:8830|v=4,False,Haibowal Kalan,Ludhiana,"House No 18, Street No 5 Ajit Nagar, Haibowal Kalan, Ludhiana - 141001, Dist.Ludhiana, Punjab",7942802358,
Plain Hooded Cotton Baby Towel,https://www.indiamart.com/proddetail/cotton-baby-towel-2853254896462.html?pos=184&kwd=baby towel&tags=BA||||8211.142|Price|product|||NA|rsf:gd-|-stype:attr=1|qr_nm:gd|res:RC5|com-cf:nl|ptrs:na|ktp:N0|mc:50260|mtp:S|qry_typ:P|lang:en|wc:2|cs:8830|v=4,Silver Signature Surgical Co.,https://www.indiamart.com/silver-signature-surgicalco/?pos=184&kwd=baby towel&tags=BA||||8211.142|Price|product|||NA|rsf:gd-|-stype:attr=1|qr_nm:gd|res:RC5|com-cf:nl|ptrs:na|ktp:N0|mc:50260|mtp:S|qry_typ:P|lang:en|wc:2|cs:8830|v=4,False,Masjid,Mumbai,"Ground Floor, Shop No. 9, Jaan Mohammad Apartment, Aqsa Masjid Road, State Bank of India Jogeshwari West, Mumbai Suburban, Masjid, Mumbai - 400102, Dist.Mumbai, Maharashtra",7942562661,
Cotton Printed Kids Bath Towel,https://www.indiamart.com/proddetail/kids-bath-towel-2851211126762.html?pos=185&kwd=baby towel&tags=BB||||8601.347|Price|product|||NA|rsf:gd-|-stype:attr=1|qr_nm:gd|res:RC5|com-cf:nl|ptrs:na|ktp:N0|mc:50260|mtp:S|qry_typ:P|lang:en|wc:2|cs:8830|v=4,Satvik Handicrafts,https://www.indiamart.com/satvik-handicrafts/?pos=185&kwd=baby towel&tags=BB||||8601.347|Price|product|||NA|rsf:gd-|-stype:attr=1|qr_nm:gd|res:RC5|com-cf:nl|ptrs:na|ktp:N0|mc:50260|mtp:S|qry_typ:P|lang:en|wc:2|cs:8830|v=4,False,Chaksu,Jaipur,"Ward No-18, B-39, Araihant Kunj Vihar, Chaksu, Chaksu, Jaipur - 303901, Dist.Jaipur, Rajasthan",8043888775,
"Alex's Printed Baby Face Towel, Size: 12x18 Inches",https://www.indiamart.com/proddetail/baby-face-towel-22380341133.html?pos=186&kwd=baby towel&tags=BB||||8500.97|Price|product|||NA|rsf:gd-|-stype:attr=1|qr_nm:gd|res:RC5|com-cf:nl|ptrs:na|ktp:N0|mc:50260|mtp:S|qry_typ:P|lang:en|wc:2|cs:8830|v=4,G.K. Tradings,https://www.indiamart.com/g-k-tradings/?pos=186&kwd=baby towel&tags=BB||||8500.97|Price|product|||NA|rsf:gd-|-stype:attr=1|qr_nm:gd|res:RC5|com-cf:nl|ptrs:na|ktp:N0|mc:50260|mtp:S|qry_typ:P|lang:en|wc:2|cs:8830|v=4,False,Thriprayar,Thrissur,"Ix/626,627, 628 Triprayar Nattika, Thriprayar, Thrissur - 680566, Dist.Thrissur, Kerala",7942560526,
"Printed Multicolor Quilted Baby Towel, Packaging Type: Box, 0 Ro 6 Months",https://www.indiamart.com/proddetail/quilted-baby-towel-27072250697.html?pos=187&kwd=baby towel&tags=BB||||8626.744|Price|product|||NA|rsf:gd-|-stype:attr=1|qr_nm:gd|res:RC5|com-cf:nl|ptrs:na|ktp:N0|mc:50260|mtp:S|qry_typ:P|lang:en|wc:2|cs:8830|v=4,M.G.Akash,https://www.indiamart.com/mgakash/?pos=187&kwd=baby towel&tags=BB||||8626.744|Price|product|||NA|rsf:gd-|-stype:attr=1|qr_nm:gd|res:RC5|com-cf:nl|ptrs:na|ktp:N0|mc:50260|mtp:S|qry_typ:P|lang:en|wc:2|cs:8830|v=4,False,,Tiruppur,"Sudukadu Street,Thiyagi Palanisamy Nagar, Samundipuram,, Tiruppur - 641654, Dist.Coimbatore, Tamil Nadu",8043807968,
"Plain Unisex Pink Baby Towel, For Bathing, Newly Born",https://www.indiamart.com/proddetail/pink-baby-towel-2852419171333.html?pos=188&kwd=baby towel&tags=BA||||8211.142|Price|product|||NA|rsf:gd-|-stype:attr=1|qr_nm:gd|res:RC5|com-cf:nl|ptrs:na|ktp:N0|mc:50260|mtp:S|qry_typ:P|lang:en|wc:2|cs:8830|v=4,Baby World,https://www.indiamart.com/babyworlds/?pos=188&kwd=baby towel&tags=BA||||8211.142|Price|product|||NA|rsf:gd-|-stype:attr=1|qr_nm:gd|res:RC5|com-cf:nl|ptrs:na|ktp:N0|mc:50260|mtp:S|qry_typ:P|lang:en|wc:2|cs:8830|v=4,False,,Mumbai,"Groung Floor, Shop No 4-A, 37, Hawa Mansion, Shaikh Memon Street, Pinjara Street, Mandvi, Mumbai - 400003, Dist.Mumbai, Maharashtra",8048981354,
Baby Hooded Towel,,Janki Jiyana House,https://www.indiamart.com/jankijiyana-house/?pos=189&kwd=baby towel&tags=BB||||8230.883|Price|product|||NA|rsf:gd-|-stype:attr=1|qr_nm:gd|res:RC5|com-cf:nl|ptrs:na|ktp:N0|mc:50260|mtp:S|qry_typ:P|lang:en|wc:2|cs:8830|v=4,False,,Surat,"Shop No 10, 1st Floor, Sahyog Park, Opp. Mansarovar Circle, Amroli,, Surat - 394107, Dist.Surat, Gujarat",7942803964,
"Terrycloth Mix colours Newborn Baby Towel, For Bath Towel,Baby Wrapping Cloth, Size: Regular Size",https://www.indiamart.com/proddetail/newborn-baby-towel-2854690633688.html?pos=190&kwd=baby towel&tags=BB||||8211.142|Price|product|||NA|rsf:gd-|-stype:attr=1|qr_nm:gd|res:RC5|com-cf:nl|ptrs:na|ktp:N0|mc:50260|mtp:S|qry_typ:P|lang:en|wc:2|cs:8830|v=4,Shruti Enterprises,https://www.indiamart.com/shrutienterprises-228159964/?pos=190&kwd=baby towel&tags=BB||||8211.142|Price|product|||NA|rsf:gd-|-stype:attr=1|qr_nm:gd|res:RC5|com-cf:nl|ptrs:na|ktp:N0|mc:50260|mtp:S|qry_typ:P|lang:en|wc:2|cs:8830|v=4,False,,Mumbai,"1,Dhaniram Chawl,Bhattipada,Mumbai, Mumbai - 400078, Dist.Mumbai, Maharashtra",8048249780,1717
"Printed Baby Towel, For Bathing, 0-12 Months",https://www.indiamart.com/proddetail/printed-baby-towel-21436758591.html?pos=191&kwd=baby towel&tags=BA||||8211.142|Price|product|||NA|rsf:gd-|-stype:attr=1|qr_nm:gd|res:RC5|com-cf:nl|ptrs:na|ktp:N0|mc:50260|mtp:S|qry_typ:P|lang:en|wc:2|cs:8830|v=4,Keval Enterprises,https://www.indiamart.com/keval-enterprises-mumbai/?pos=191&kwd=baby towel&tags=BA||||8211.142|Price|product|||NA|rsf:gd-|-stype:attr=1|qr_nm:gd|res:RC5|com-cf:nl|ptrs:na|ktp:N0|mc:50260|mtp:S|qry_typ:P|lang:en|wc:2|cs:8830|v=4,False,Dadar West,Mumbai,"Shop No. 20, Madhani Industrial Estate Senapati Bapat Marg, Dadar West, Mumbai - 400028, Dist.Mumbai, Maharashtra",8048951266,
"Printed Blue Muslin Baby Towel, Packaging Type: Box, New Born",https://www.indiamart.com/proddetail/muslin-baby-towel-2850556016188.html?pos=192&kwd=baby towel&tags=BA||||8954.051|Price|product|||NA|rsf:gd-|-stype:attr=1|qr_nm:gd|res:RC5|com-cf:nl|ptrs:na|ktp:N0|mc:50260|mtp:S|qry_typ:P|lang:en|wc:2|cs:8830|v=4,MFS Fashions,https://www.indiamart.com/mfsfashions/?pos=192&kwd=baby towel&tags=BA||||8954.051|Price|product|||NA|rsf:gd-|-stype:attr=1|qr_nm:gd|res:RC5|com-cf:nl|ptrs:na|ktp:N0|mc:50260|mtp:S|qry_typ:P|lang:en|wc:2|cs:8830|v=4,False,Perambur,Chennai,"New No. 42/2, Old No. 15/2, Venkatraman Street, Perambur, Perambur, Chennai - 600011, Dist.Chennai, Tamil Nadu",8043804409,
Printed Pink Hooded Baby Towel,https://www.indiamart.com/proddetail/pink-hooded-baby-towel-2853152011033.html?pos=193&kwd=baby towel&tags=BA||||8211.142|Price|product|||NA|rsf:gd-|-stype:attr=1|qr_nm:gd|res:RC5|com-cf:nl|ptrs:na|ktp:N0|mc:50260|mtp:S|qry_typ:P|lang:en|wc:2|cs:8830|v=4,Moms' Nest,https://www.indiamart.com/moms-nest/?pos=193&kwd=baby towel&tags=BA||||8211.142|Price|product|||NA|rsf:gd-|-stype:attr=1|qr_nm:gd|res:RC5|com-cf:nl|ptrs:na|ktp:N0|mc:50260|mtp:S|qry_typ:P|lang:en|wc:2|cs:8830|v=4,False,Saki Naka,Mumbai,"2nd Floor, 202, Vaz Villa, I C Colony, Borivali West, Mumbai Suburban, Saki Naka, Mumbai - 400103, Dist.Mumbai, Maharashtra",7942960731,
Unibee Printed Baby Hooded Towel,https://www.indiamart.com/proddetail/baby-hooded-towel-23476819255.html?pos=194&kwd=baby towel&tags=BB||||8954.051|Price|product|||NA|rsf:gd-|-stype:attr=1|qr_nm:gd|res:RC5|com-cf:nl|ptrs:na|ktp:N0|mc:50260|mtp:S|qry_typ:P|lang:en|wc:2|cs:8830|v=4,Ray India Inc,https://www.indiamart.com/rayindia-inc/?pos=194&kwd=baby towel&tags=BB||||8954.051|Price|product|||NA|rsf:gd-|-stype:attr=1|qr_nm:gd|res:RC5|com-cf:nl|ptrs:na|ktp:N0|mc:50260|mtp:S|qry_typ:P|lang:en|wc:2|cs:8830|v=4,False,,Chennai,"37/88, CYS Road, Samiyar Madam, Mangalapuram, Perambur, Chennai - 600012, Dist.Chennai, Tamil Nadu",7942563640,
"Printed Baby Cotton Bath Towel, For Bathroom, Size: 24 X 36inch",https://www.indiamart.com/proddetail/baby-cotton-bath-towel-25975206448.html?pos=195&kwd=baby towel&tags=BA||||8752.144|Price|product|||NA|rsf:gd-|-stype:attr=1|qr_nm:gd|res:RC5|com-cf:nl|ptrs:na|ktp:N0|mc:50260|mtp:S|qry_typ:P|lang:en|wc:2|cs:8830|v=4,Aashia Fashion,https://www.indiamart.com/aashia-fashion/?pos=195&kwd=baby towel&tags=BA||||8752.144|Price|product|||NA|rsf:gd-|-stype:attr=1|qr_nm:gd|res:RC5|com-cf:nl|ptrs:na|ktp:N0|mc:50260|mtp:S|qry_typ:P|lang:en|wc:2|cs:8830|v=4,False,,New Delhi,"A-21 Shiv Vihar, Vikas Nagar Near Rama Sweets, Uttam Nagar, New Delhi - 110059, Dist.Delhi, Delhi",8047676001,
Printed Cotton Baby Bath Towel,https://www.indiamart.com/proddetail/printed-cotton-baby-bath-towel-2850156317648.html?pos=196&kwd=baby towel&tags=BB||||8562.157|Price|product|||NA|rsf:gd-|-stype:attr=1|qr_nm:gd|res:RC5|com-cf:nl|ptrs:na|ktp:N0|mc:50260|mtp:S|qry_typ:P|lang:en|wc:2|cs:8830|v=4,Satguru Traders,https://www.indiamart.com/satguru-trader-sirsa/?pos=196&kwd=baby towel&tags=BB||||8562.157|Price|product|||NA|rsf:gd-|-stype:attr=1|qr_nm:gd|res:RC5|com-cf:nl|ptrs:na|ktp:N0|mc:50260|mtp:S|qry_typ:P|lang:en|wc:2|cs:8830|v=4,False,,Sirsa,"1st Floor Of B-5/588, B-5/588, M/s Satguru Traders, Chandani Chowk,, Sirsa - 125055, Haryana",7942803342,
Microfiber Patch Work Baby super soft Towel,https://www.indiamart.com/proddetail/baby-super-soft-towel-2851082380230.html?pos=197&kwd=baby towel&tags=BB||||8821.238|Price|product|||NA|rsf:gd-|-stype:attr=1|qr_nm:gd|res:RC5|com-cf:nl|ptrs:na|ktp:N0|mc:50260|mtp:S|qry_typ:P|lang:en|wc:2|cs:8830|v=4,Subhan Traders,https://www.indiamart.com/subhan-trades/?pos=197&kwd=baby towel&tags=BB||||8821.238|Price|product|||NA|rsf:gd-|-stype:attr=1|qr_nm:gd|res:RC5|com-cf:nl|ptrs:na|ktp:N0|mc:50260|mtp:S|qry_typ:P|lang:en|wc:2|cs:8830|v=4,False,Bulandshahr Tehsil,Bulandshahr,"262, Rukan Sarai, Peerwali Gali, Bulandshahr Tehsil, Bulandshahr - 203001, Dist.Bulandshahr, Uttar Pradesh",8047552977,
"Baby Printed Cotton Towel, For Babies, 3 Years",https://www.indiamart.com/proddetail/baby-printed-cotton-towel-26793706055.html?pos=198&kwd=baby towel&tags=BB||||8747.203|Price|product|||NA|rsf:gd-|-stype:attr=1|qr_nm:gd|res:RC5|com-cf:nl|ptrs:na|ktp:N0|mc:50260|mtp:S|qry_typ:P|lang:en|wc:2|cs:8830|v=4,Vaishnavi International,https://www.indiamart.com/vaishnaviinternational-panipat/?pos=198&kwd=baby towel&tags=BB||||8747.203|Price|product|||NA|rsf:gd-|-stype:attr=1|qr_nm:gd|res:RC5|com-cf:nl|ptrs:na|ktp:N0|mc:50260|mtp:S|qry_typ:P|lang:en|wc:2|cs:8830|v=4,False,,Panipat,"273, Amar Bhawan Chowk Road, Panipat - 132103, Dist.Panipat, Haryana",8043890810,
Yellow(Base) Yellow Printed Baby Towel,https://www.indiamart.com/proddetail/yellow-printed-baby-towel-2851052082897.html?pos=199&kwd=baby towel&tags=BB||||8747.203|Price|product|||NA|rsf:gd-|-stype:attr=1|qr_nm:gd|res:RC5|com-cf:nl|ptrs:na|ktp:N0|mc:50260|mtp:S|qry_typ:P|lang:en|wc:2|cs:8830|v=4,J B G Home Store,https://www.indiamart.com/jbghomestore/?pos=199&kwd=baby towel&tags=BB||||8747.203|Price|product|||NA|rsf:gd-|-stype:attr=1|qr_nm:gd|res:RC5|com-cf:nl|ptrs:na|ktp:N0|mc:50260|mtp:S|qry_typ:P|lang:en|wc:2|cs:8830|v=4,False,,Panipat,"596/7, First Floor, Dayanand Road, Amar Bhawan Chowk, Panipat - 132103, Dist.Panipat, Haryana",8048979553,
Printed Baby Hooded Towel,https://www.indiamart.com/proddetail/baby-hooded-towel-2851948018888.html?pos=200&kwd=baby towel&tags=BB||||8493.708|Price|product|||NA|rsf:gd-|-stype:attr=1|qr_nm:gd|res:RC5|com-cf:nl|ptrs:na|ktp:N0|mc:50260|mtp:S|qry_typ:P|lang:en|wc:2|cs:8830|v=4,Emmicare Industries Private Limited,https://www.indiamart.com/emmicare-industries-kerala/?pos=200&kwd=baby towel&tags=BB||||8493.708|Price|product|||NA|rsf:gd-|-stype:attr=1|qr_nm:gd|res:RC5|com-cf:nl|ptrs:na|ktp:N0|mc:50260|mtp:S|qry_typ:P|lang:en|wc:2|cs:8830|v=4,False,Vadakkangara,Manjeri,"7/162 ,B-Square Estate, Mankada Road, Koottilangadi,, Vadakkangara, Manjeri - 679324, Dist.Malappuram, Kerala",7942803958,
Plain Blue Baby Hooded Terry Towels,https://www.indiamart.com/proddetail/baby-hooded-terry-towels-2850338923030.html?pos=201&kwd=baby towel&tags=BA||||8661.854|Price|product|||NA|rsf:gd-|-stype:attr=1|qr_nm:gd|res:RC5|com-cf:nl|ptrs:na|ktp:N0|mc:50260|mtp:S|qry_typ:P|lang:en|wc:2|cs:8830|v=4,Charu Enterprises,https://www.indiamart.com/charu-enterprises-punjab/?pos=201&kwd=baby towel&tags=BA||||8661.854|Price|product|||NA|rsf:gd-|-stype:attr=1|qr_nm:gd|res:RC5|com-cf:nl|ptrs:na|ktp:N0|mc:50260|mtp:S|qry_typ:P|lang:en|wc:2|cs:8830|v=4,False,,Ludhiana,"6729, Street No.4, Jassian Road, Naveen Nagar, Haibowal Kalan, Ludhiana - 141008, Dist.Ludhiana, Punjab",7942817239,
"Plain Blue Baby Hooded Towel, 3 Years",https://www.indiamart.com/proddetail/blue-baby-hooded-towel-2851325437991.html?pos=202&kwd=baby towel&tags=BB||||8752.144|Price|product|||NA|rsf:gd-|-stype:attr=1|qr_nm:gd|res:RC5|com-cf:nl|ptrs:na|ktp:N0|mc:50260|mtp:S|qry_typ:P|lang:en|wc:2|cs:8830|v=4,S.B. Wipping Clothes,https://www.indiamart.com/sb-wipping-clothesdelhi/?pos=202&kwd=baby towel&tags=BB||||8752.144|Price|product|||NA|rsf:gd-|-stype:attr=1|qr_nm:gd|res:RC5|com-cf:nl|ptrs:na|ktp:N0|mc:50260|mtp:S|qry_typ:P|lang:en|wc:2|cs:8830|v=4,False,,New Delhi,"Ground Floor, House No. 21 Khasra No. 74/21/1 And 73/25, Block- A, Budh Vihar Phase- 2, North West, New Delhi - 110086, Dist.Delhi, Delhi",7942844332,
"Printed Unisex Baby And Kids Towel, 1 To 10 Year",https://www.indiamart.com/proddetail/baby-and-kids-towel-2849987129033.html?pos=203&kwd=baby towel&tags=BA||||8211.142||product|||NA|rsf:gd-|-stype:attr=1|qr_nm:gd|res:RC5|com-cf:nl|ptrs:na|ktp:N0|mc:50260|mtp:S|qry_typ:P|lang:en|wc:2|cs:8830|v=4,Kids Care,https://www.indiamart.com/kidscare-94743488/?pos=203&kwd=baby towel&tags=BA||||8211.142||product|||NA|rsf:gd-|-stype:attr=1|qr_nm:gd|res:RC5|com-cf:nl|ptrs:na|ktp:N0|mc:50260|mtp:S|qry_typ:P|lang:en|wc:2|cs:8830|v=4,False,kherwadi,Mumbai,"Ground Floor 2/4 Amrut Nagar, kherwadi, Mumbai - 400051, Dist.Mumbai, Maharashtra",8048372714,239
"Printed Newborn Baby Hosiery Towel, Rectangular",https://www.indiamart.com/proddetail/newborn-baby-hosiery-towel-22610129088.html?pos=204&kwd=baby towel&tags=BB||||8211.142|Price|product|||NA|rsf:gd-|-stype:attr=1|qr_nm:gd|res:RC5|com-cf:nl|ptrs:na|ktp:N0|mc:50260|mtp:S|qry_typ:P|lang:en|wc:2|cs:8830|v=4,Richa Traders,https://www.indiamart.com/richatraders-maharashtra/?pos=204&kwd=baby towel&tags=BB||||8211.142|Price|product|||NA|rsf:gd-|-stype:attr=1|qr_nm:gd|res:RC5|com-cf:nl|ptrs:na|ktp:N0|mc:50260|mtp:S|qry_typ:P|lang:en|wc:2|cs:8830|v=4,False,Dadar West,Mumbai,"20, Pearl Centre, Zarapkar Building Senapati Bapat Marg,, Dadar West, Mumbai - 400028, Dist.Mumbai, Maharashtra",8048961097,
"Microfiber Unisex Printed Baby Bath Towel, 0-8",https://www.indiamart.com/proddetail/printed-baby-bath-towel-2851033831862.html?pos=205&kwd=baby towel&tags=BA||||8752.144|Price|product|||NA|rsf:gd-|-stype:attr=1|qr_nm:gd|res:RC5|com-cf:nl|ptrs:na|ktp:N0|mc:50260|mtp:S|qry_typ:P|lang:en|wc:2|cs:8830|v=4,Darbar Handlooms,https://www.indiamart.com/darbar-handlooms-delhi/?pos=205&kwd=baby towel&tags=BA||||8752.144|Price|product|||NA|rsf:gd-|-stype:attr=1|qr_nm:gd|res:RC5|com-cf:nl|ptrs:na|ktp:N0|mc:50260|mtp:S|qry_typ:P|lang:en|wc:2|cs:8830|v=4,False,Delhi Sadar Bazar,New Delhi,"978, Pan Mandi, Sadar Bazar, North Delhi, Delhi Sadar Bazar, New Delhi - 110006, Dist.Delhi, Delhi",7942827958,
"Plain Unisex New Born Baby Towel, For Bath, 3 Year",https://www.indiamart.com/proddetail/new-born-baby-towel-2850351780862.html?pos=206&kwd=baby towel&tags=BB||||8350.861|Price|product|||NA|rsf:gd-|-stype:attr=1|qr_nm:gd|res:RC5|com-cf:nl|ptrs:na|ktp:N0|mc:50260|mtp:S|qry_typ:P|lang:en|wc:2|cs:8830|v=4,Importikah,https://www.indiamart.com/importikah/?pos=206&kwd=baby towel&tags=BB||||8350.861|Price|product|||NA|rsf:gd-|-stype:attr=1|qr_nm:gd|res:RC5|com-cf:nl|ptrs:na|ktp:N0|mc:50260|mtp:S|qry_typ:P|lang:en|wc:2|cs:8830|v=4,False,,Belgaum,"H.No.31, 4th Cross, Shivaji Nagar, Belagavi, Belgaum - 590016, Dist.Belgaum, Karnataka",7942821639,
"Green Plain Softspun Microfiber Baby Care Towel, Size: 40*60 cm",https://www.indiamart.com/proddetail/softspun-microfiber-baby-care-towel-17784498488.html?pos=207&kwd=baby towel&tags=BB||||8752.144|Price|product|||NA|rsf:gd-|-stype:attr=1|qr_nm:gd|res:RC5|com-cf:nl|ptrs:na|ktp:N0|mc:50260|mtp:S|qry_typ:P|lang:en|wc:2|cs:8830|v=4,Icc Chemtec Private Limited(Techem India (P) Ltd.,https://www.indiamart.com/iccchemtec/?pos=207&kwd=baby towel&tags=BB||||8752.144|Price|product|||NA|rsf:gd-|-stype:attr=1|qr_nm:gd|res:RC5|com-cf:nl|ptrs:na|ktp:N0|mc:50260|mtp:S|qry_typ:P|lang:en|wc:2|cs:8830|v=4,False,,New Delhi,"C-67, Indira Enclave, New Delhi - 110068, Dist.Delhi, Delhi",8048959572,
"Embroidered Girl And Boy MUM's World Terry Baby Cap Towel, Packaging Type: Poly Cover",https://www.indiamart.com/proddetail/mum-s-world-terry-baby-cap-towel-22093042891.html?pos=208&kwd=baby towel&tags=BB||||8954.051|Price|product|||NA|rsf:gd-|-stype:attr=1|qr_nm:gd|res:RC5|com-cf:nl|ptrs:na|ktp:N0|mc:50260|mtp:S|qry_typ:P|lang:en|wc:2|cs:8830|v=4,Aayu Enterprises,https://www.indiamart.com/aayu-enterpriseschennai/?pos=208&kwd=baby towel&tags=BB||||8954.051|Price|product|||NA|rsf:gd-|-stype:attr=1|qr_nm:gd|res:RC5|com-cf:nl|ptrs:na|ktp:N0|mc:50260|mtp:S|qry_typ:P|lang:en|wc:2|cs:8830|v=4,False,Sowcarpet,Chennai,"Shree Centre Complex, Old No. 130, New No. 269, Shop No. 7, Mint Street, Sowcarpet, Chennai - 600079, Dist.Chennai, Tamil Nadu",7942539228,
"Printed Multicolor New Born Baby Rectangle Cotton Towel, 6 Month",https://www.indiamart.com/proddetail/new-born-baby-rectangle-cotton-towel-2851553742791.html?pos=209&kwd=baby towel&tags=BB||||8752.144|Price|product|||NA|rsf:gd-|-stype:attr=1|qr_nm:gd|res:RC5|com-cf:nl|ptrs:na|ktp:N0|mc:50260|mtp:S|qry_typ:P|lang:en|wc:2|cs:8830|v=4,Dolly Enterprises,https://www.indiamart.com/dollyenterprisesnewdelhi/?pos=209&kwd=baby towel&tags=BB||||8752.144|Price|product|||NA|rsf:gd-|-stype:attr=1|qr_nm:gd|res:RC5|com-cf:nl|ptrs:na|ktp:N0|mc:50260|mtp:S|qry_typ:P|lang:en|wc:2|cs:8830|v=4,False,Ashok Vihar,New Delhi,"C-3/12,,RANA PRATAB BAGH,New Delhi, Ashok Vihar, New Delhi - 110007, Dist.Delhi, Delhi",7942837638,
"Cotton Printed Sunbaby White Cocoon Swaddle Baby Bath Towel, For Bed",https://www.indiamart.com/proddetail/sunbaby-white-cocoon-swaddle-baby-bath-towel-24759009930.html?pos=210&kwd=baby towel&tags=BA||||8752.144|Price|product|||NA|rsf:gd-|-stype:attr=1|qr_nm:gd|res:RC5|com-cf:nl|ptrs:na|ktp:N0|mc:50260|mtp:S|qry_typ:P|lang:en|wc:2|cs:8830|v=4,Krona Liquatec Ltd.,https://www.indiamart.com/kronaliquatec/?pos=210&kwd=baby towel&tags=BA||||8752.144|Price|product|||NA|rsf:gd-|-stype:attr=1|qr_nm:gd|res:RC5|com-cf:nl|ptrs:na|ktp:N0|mc:50260|mtp:S|qry_typ:P|lang:en|wc:2|cs:8830|v=4,False,,New Delhi,"B Ii/96, M.C.I.E, Badarpur, South Delhi, New Delhi - 110044, Dist.Delhi, Delhi",8047303429,
