product_title,product_link,company_name,company_link,is_verified_exporter,city_region,city,address_details,phone_number,phone_number_extension
"Cotton Baby Hooded Wrapper, Size: Medium",https://www.indiamart.com/proddetail/baby-hooded-wrapper-2851308925355.html?pos=1&kwd=baby wraps&tags=A||||8747.203|Price|product|||TS|rsf:gd-|-stype:attr=1|qr_nm:gd|res:RC4|com-cf:nl|ptrs:na|ktp:N0|mc:22737|mtp:S|qry_typ:P|lang:en|wc:2|flavl:4|cs:9604|v=4,Vardan Home Furnishings,https://www.vardanhomefurnishings.com/?pos=1&kwd=baby wraps&tags=A||||8747.203|Price|product|||TS|rsf:gd-|-stype:attr=1|qr_nm:gd|res:RC4|com-cf:nl|ptrs:na|ktp:N0|mc:22737|mtp:S|qry_typ:P|lang:en|wc:2|flavl:4|cs:9604|v=4,False,Chowk,Panipat,"Pehlwan Chowk, Vardan Home Furnishings, Kutani Road, Chowk, Panipat - 132103, Dist.Panipat, Haryana",7942957417,
"Sivam Export Printed Canada Muslin Swaddles, 0 - 2 Years, Size: 120 X 120 cm",https://www.indiamart.com/proddetail/canada-muslin-swaddles-23927365855.html?pos=2&kwd=baby wraps&tags=A||||8706.263|Price|product|||TS|rsf:gd-|-stype:attr=1|qr_nm:gd|res:RC4|com-cf:nl|ptrs:na|ktp:N0|mc:22737|mtp:S|qry_typ:P|lang:en|wc:2|flavl:4|cs:9604|v=4,Sivam Export,https://www.indiamart.com/sivamexport-karur/?pos=2&kwd=baby wraps&tags=A||||8706.263|Price|product|||TS|rsf:gd-|-stype:attr=1|qr_nm:gd|res:RC4|com-cf:nl|ptrs:na|ktp:N0|mc:22737|mtp:S|qry_typ:P|lang:en|wc:2|flavl:4|cs:9604|v=4,False,,Karur,"6/1 Thiru Nagar,3rd Street, Karur - 639002, Dist.Karur, Tamil Nadu",8046050918,
"Multicolor Kolaco swaddle - Cotton - easy to wrap velcro swaddle, Size: Medium",https://www.indiamart.com/proddetail/kolaco-swaddle-cotton-easy-to-wrap-velcro-swaddle-2854307149848.html?pos=3&kwd=baby wraps&tags=A||||8211.142|Price|product|||TS|rsf:gd-|-stype:attr=1|qr_nm:gd|res:RC4|com-cf:nl|ptrs:na|ktp:N0|mc:22737|mtp:S|qry_typ:P|lang:en|wc:2|flavl:4|cs:9604|v=4,Sidhshlok Enterprises,https://www.indiamart.com/sidhshlokenterprises/?pos=3&kwd=baby wraps&tags=A||||8211.142|Price|product|||TS|rsf:gd-|-stype:attr=1|qr_nm:gd|res:RC4|com-cf:nl|ptrs:na|ktp:N0|mc:22737|mtp:S|qry_typ:P|lang:en|wc:2|flavl:4|cs:9604|v=4,False,Mulund West,Mumbai,"A-9, Chagpar Khimaji, R R T Road, Mumbai Suburban, Mulund West, Mumbai - 400080, Dist.Mumbai, Maharashtra",7942832648,
Multicolor Organic Muslin Baby Swaddle Wrap,https://www.indiamart.com/proddetail/organic-muslin-baby-swaddle-wrap-23850865191.html?pos=4&kwd=baby wraps&tags=A||||8668.838|Price|product|||TS|rsf:gd-|-stype:attr=1|qr_nm:gd|res:RC4|com-cf:nl|ptrs:na|ktp:N0|mc:22737|mtp:S|qry_typ:P|lang:en|wc:2|flavl:4|cs:9604|v=4,Meenu's Manchesters,https://www.hotelbedsheet.in/?pos=4&kwd=baby wraps&tags=A||||8668.838|Price|product|||TS|rsf:gd-|-stype:attr=1|qr_nm:gd|res:RC4|com-cf:nl|ptrs:na|ktp:N0|mc:22737|mtp:S|qry_typ:P|lang:en|wc:2|flavl:4|cs:9604|v=4,False,Edayankattuvalsu,Erode,"26, Nggo Colony, 1, Edayankattuvalsu, Erode - 638009, Dist.Erode, Tamil Nadu",8048609221,
"mix color Baby Muslin Wraps, Size: Medium",https://www.indiamart.com/proddetail/baby-muslin-wraps-2854017934812.html?pos=5&kwd=baby wraps&tags=A||||8211.142|Price|product|||TS|rsf:gd-|-stype:attr=1|qr_nm:gd|res:RC4|com-cf:nl|ptrs:na|ktp:N0|mc:22737|mtp:S|qry_typ:P|lang:en|wc:2|flavl:4|cs:9604|v=4,Parass Trading,https://www.indiamart.com/parasstrading/?pos=5&kwd=baby wraps&tags=A||||8211.142|Price|product|||TS|rsf:gd-|-stype:attr=1|qr_nm:gd|res:RC4|com-cf:nl|ptrs:na|ktp:N0|mc:22737|mtp:S|qry_typ:P|lang:en|wc:2|flavl:4|cs:9604|v=4,False,Chembur,Mumbai,"Room no 3, First Floor, Plot no 39, Next to Shivaji Nagar police station,Kherwadi Plot no 39, Chembur, Mumbai - 400071, Dist.Mumbai, Maharashtra",8047631170,
"Multicolor Baby Cotton Muslin Swaddle, Size: Singe",https://www.indiamart.com/proddetail/baby-cotton-muslin-swaddle-2849329098130.html?pos=6&kwd=baby wraps&tags=A||||8211.142|Price|product|||TS|rsf:gd-|-stype:attr=1|qr_nm:gd|res:RC4|com-cf:nl|ptrs:na|ktp:N0|mc:22737|mtp:S|qry_typ:P|lang:en|wc:2|flavl:4|cs:9604|v=4,ShanBuyers,https://www.indiamart.com/shanbuyers/?pos=6&kwd=baby wraps&tags=A||||8211.142|Price|product|||TS|rsf:gd-|-stype:attr=1|qr_nm:gd|res:RC4|com-cf:nl|ptrs:na|ktp:N0|mc:22737|mtp:S|qry_typ:P|lang:en|wc:2|flavl:4|cs:9604|v=4,False,Dahisar East,Mumbai,"316, Floor No. 3rd, Sarita Building, Prabhat Ind Complex, Road Western Express Highway, Toll Naka, Dahisar, Dahisar East, Mumbai - 400068, Dist.Mumbai, Maharashtra",8047670828,
"Cotton Soft Fabric Kids Wrapper Set, Size: Medium",https://www.indiamart.com/proddetail/kids-wrapper-set-2852890103497.html?pos=7&kwd=baby wraps&tags=A||||8211.142|Price|product|||TS|rsf:gd-|-stype:attr=1|qr_nm:gd|res:RC4|com-cf:nl|ptrs:na|ktp:N0|mc:22737|mtp:S|qry_typ:P|lang:en|wc:2|flavl:4|cs:9604|v=4,World 4 Kids,https://www.world4kids.in/?pos=7&kwd=baby wraps&tags=A||||8211.142|Price|product|||TS|rsf:gd-|-stype:attr=1|qr_nm:gd|res:RC4|com-cf:nl|ptrs:na|ktp:N0|mc:22737|mtp:S|qry_typ:P|lang:en|wc:2|flavl:4|cs:9604|v=4,False,Masjid,Mumbai,"Shop No 32 Sheriff Devji Street, Chakla, Masjid, Mumbai - 400003, Dist.Mumbai, Maharashtra",8048965492,
"Multicolor Cotton Baby Sleeping Bags, Packaging Type: Box",https://www.indiamart.com/proddetail/baby-sleeping-bags-15275273933.html?pos=8&kwd=baby wraps&tags=A||||8706.263||product|||TS|rsf:gd-|-stype:attr=1|qr_nm:gd|res:RC4|com-cf:nl|ptrs:na|ktp:N0|mc:22737|mtp:S|qry_typ:P|lang:en|wc:2|flavl:4|cs:9604|v=4,Saravana Traders,https://www.indiamart.com/saravana-traders-karur/?pos=8&kwd=baby wraps&tags=A||||8706.263||product|||TS|rsf:gd-|-stype:attr=1|qr_nm:gd|res:RC4|com-cf:nl|ptrs:na|ktp:N0|mc:22737|mtp:S|qry_typ:P|lang:en|wc:2|flavl:4|cs:9604|v=4,True,Lvb Nagar,Karur,"No. 71, Lvb Nagar, Karur - 639002, Dist.Karur, Tamil Nadu",8048958966,
"Muslin White Newborn Baby Swaddle Wrap, Size: Medium",https://www.indiamart.com/proddetail/newborn-baby-swaddle-wrap-2855090864148.html?pos=9&kwd=baby wraps&tags=A||||8954.051|Price|product|||TS|rsf:gd-|-stype:attr=1|qr_nm:gd|res:RC4|com-cf:nl|ptrs:na|ktp:N0|mc:22737|mtp:S|qry_typ:P|lang:en|wc:2|flavl:4|cs:9604|v=4,Tetra Clothing,https://www.tetraclothing.in/?pos=9&kwd=baby wraps&tags=A||||8954.051|Price|product|||TS|rsf:gd-|-stype:attr=1|qr_nm:gd|res:RC4|com-cf:nl|ptrs:na|ktp:N0|mc:22737|mtp:S|qry_typ:P|lang:en|wc:2|flavl:4|cs:9604|v=4,True,Gopichettipalaiyam,Chennai,"No. 59/28, Balu Building, Gopichettipalaiyam, Chennai - 638476, Dist.Chennai, Tamil Nadu",8048957951,
"Print NEWBORN Cotton Muslin Blanket, Size: Singe",https://www.indiamart.com/proddetail/newborn-cotton-muslin-blanket-2853644302412.html?pos=10&kwd=baby wraps&tags=A||||8231.259|Price|product|||MDC|rsf:gd-|-stype:attr=1|qr_nm:gd|res:RC4|com-cf:nl|ptrs:na|ktp:N0|mc:22737|mtp:S|qry_typ:P|lang:en|wc:2|flavl:4|cs:9604|v=4,Hemp Ecotex,https://www.indiamart.com/hempecotex/?pos=10&kwd=baby wraps&tags=A||||8231.259|Price|product|||MDC|rsf:gd-|-stype:attr=1|qr_nm:gd|res:RC4|com-cf:nl|ptrs:na|ktp:N0|mc:22737|mtp:S|qry_typ:P|lang:en|wc:2|flavl:4|cs:9604|v=4,False,Val,Bhiwandi,"1st Floor, H. No 1661/12 Gala No 106, BL-K, Dharam Complex, Phase-I, Rahnal Village, Val, Bhiwandi - 421302, Maharashtra",7949092530,
Piece Cotton Baby Wraps,https://www.indiamart.com/proddetail/baby-wraps-22452955555.html?pos=11&kwd=baby wraps&tags=A||||8663.873|Price|product|||TS|rsf:gd-|-stype:attr=1|qr_nm:gd|res:RC4|com-cf:nl|ptrs:na|ktp:N0|mc:22737|mtp:S|qry_typ:P|lang:en|wc:2|flavl:4|cs:9604|v=4,Alpha Organics Clothing India,https://www.indiamart.com/alphaorganicsclothingindia/?pos=11&kwd=baby wraps&tags=A||||8663.873|Price|product|||TS|rsf:gd-|-stype:attr=1|qr_nm:gd|res:RC4|com-cf:nl|ptrs:na|ktp:N0|mc:22737|mtp:S|qry_typ:P|lang:en|wc:2|flavl:4|cs:9604|v=4,True,Indiranagar,Bengaluru,"NO.3037,INDIRANAGAR,8TH MAIN ROAD, HAL 2ND STAGE,BANGALORE, Indiranagar, Bengaluru - 560038, Dist.Bengaluru, Karnataka",7942540831,
Cotton Muslin Baby Swaddles,https://www.indiamart.com/proddetail/cotton-muslin-baby-swaddles-7287363962.html?pos=12&kwd=baby wraps&tags=A||||8559.269|Price|product|||TS|rsf:gd-|-stype:attr=1|qr_nm:gd|res:RC4|com-cf:nl|ptrs:na|ktp:N0|mc:22737|mtp:S|qry_typ:P|lang:en|wc:2|flavl:4|cs:9604|v=4,Central India Fabrics,https://www.centralindiafabrics.net/?pos=12&kwd=baby wraps&tags=A||||8559.269|Price|product|||TS|rsf:gd-|-stype:attr=1|qr_nm:gd|res:RC4|com-cf:nl|ptrs:na|ktp:N0|mc:22737|mtp:S|qry_typ:P|lang:en|wc:2|flavl:4|cs:9604|v=4,True,Avantika Nagar,Indore,"2/A/C, Sector D, Sanwer Road Opposite Bandganga Police Station, Avantika Nagar, Indore - 452015, Dist.Indore, Madhya Pradesh",8048965370,
"Navy blue Solid Muslin Baby Swaddle, Size: Double",https://www.indiamart.com/proddetail/solid-muslin-baby-swaddle-2853678901112.html?pos=13&kwd=baby wraps&tags=A||||8706.263|Price|product|||TS|rsf:gd-|-stype:attr=1|qr_nm:gd|res:RC4|com-cf:nl|ptrs:na|ktp:N0|mc:22737|mtp:S|qry_typ:P|lang:en|wc:2|flavl:4|cs:9604|v=4,L S Textiles And Exports Private Limited,https://www.indiamart.com/lstextiles/?pos=13&kwd=baby wraps&tags=A||||8706.263|Price|product|||TS|rsf:gd-|-stype:attr=1|qr_nm:gd|res:RC4|com-cf:nl|ptrs:na|ktp:N0|mc:22737|mtp:S|qry_typ:P|lang:en|wc:2|flavl:4|cs:9604|v=4,True,Punnam,Karur,"S.F.No.141/13 South Punnam Village, Pugalur Taluk Palamapuram, Punnam, Karur - 639136, Dist.Karur, Tamil Nadu",8047851645,
"Red,Black Cotton Baby Swaddle Material Wrapper Muslin Organics cloth Made Jabla",https://www.indiamart.com/proddetail/baby-swaddle-material-wrapper-muslin-organics-cloth-made-jabla-24012479633.html?pos=14&kwd=baby wraps&tags=A||||8706.263|Price|product|||TS|rsf:gd-|-stype:attr=1|qr_nm:gd|res:RC4|com-cf:nl|ptrs:na|ktp:N0|mc:22737|mtp:S|qry_typ:P|lang:en|wc:2|flavl:4|cs:9604|v=4,Mercury Weavers,https://www.indiamart.com/mercuryweavers/?pos=14&kwd=baby wraps&tags=A||||8706.263|Price|product|||TS|rsf:gd-|-stype:attr=1|qr_nm:gd|res:RC4|com-cf:nl|ptrs:na|ktp:N0|mc:22737|mtp:S|qry_typ:P|lang:en|wc:2|flavl:4|cs:9604|v=4,False,Gowripuram,Karur,"35/3, 2nd Floor, Gandhi Nagar 3rd Cross, Karur Town, Gowripuram, Karur - 639001, Dist.Karur, Tamil Nadu",8047641180,
Cotton Baby wrapper,https://www.indiamart.com/proddetail/baby-wrapper-20089869591.html?pos=15&kwd=baby wraps&tags=A||||8211.142|Price|product|||MDC|rsf:gd-|-stype:attr=1|qr_nm:gd|res:RC4|com-cf:nl|ptrs:na|ktp:N0|mc:22737|mtp:S|qry_typ:P|lang:en|wc:2|cs:8837|v=4,Padam Kids,https://www.indiamart.com/padam-kids/?pos=15&kwd=baby wraps&tags=A||||8211.142|Price|product|||MDC|rsf:gd-|-stype:attr=1|qr_nm:gd|res:RC4|com-cf:nl|ptrs:na|ktp:N0|mc:22737|mtp:S|qry_typ:P|lang:en|wc:2|cs:8837|v=4,False,,Mumbai,"CKP Colony, Near Dargah, Behind Dr. Manish Bhatt Eksar Road, Borivali West, Mumbai - 400092, Dist.Mumbai, Maharashtra",8046057613,
"Many Colour Available Printed Baby Wrap Blanket, 0-12 Months",https://www.indiamart.com/proddetail/baby-wrap-blanket-22683937473.html?pos=16&kwd=baby wraps&tags=BA||||8752.144|Price|product|||TS|rsf:gd-|-stype:attr=1|qr_nm:gd|res:RC4|com-cf:nl|ptrs:na|ktp:N0|mc:22737|mtp:S|qry_typ:P|lang:en|wc:2|cs:8837|v=4,Shree Balaji Infant Wear,https://www.indiamart.com/chhotejanab/?pos=16&kwd=baby wraps&tags=BA||||8752.144|Price|product|||TS|rsf:gd-|-stype:attr=1|qr_nm:gd|res:RC4|com-cf:nl|ptrs:na|ktp:N0|mc:22737|mtp:S|qry_typ:P|lang:en|wc:2|cs:8837|v=4,False,Pahari Dhiraj,New Delhi,"1583- 84, Hathi Khana, Aziz Ganj, Bahadur Garh Road, Pahari Dhiraj, New Delhi - 110006, Dist.Delhi, Delhi",8047639754,
"Plain Soft Quality Knitted Fabric Hooded Baby Blanket, 0-9 Months, Size: 27",https://www.indiamart.com/proddetail/hooded-baby-blanket-14276816655.html?pos=17&kwd=baby wraps&tags=BA||||8778.123|Price|product|||TS|rsf:gd-|-stype:attr=1|qr_nm:gd|res:RC4|com-cf:nl|ptrs:na|ktp:N0|mc:22737|mtp:S|qry_typ:P|lang:en|wc:2|cs:8837|v=4,Oscar Overseas,https://www.oscar-india.com/?pos=17&kwd=baby wraps&tags=BA||||8778.123|Price|product|||TS|rsf:gd-|-stype:attr=1|qr_nm:gd|res:RC4|com-cf:nl|ptrs:na|ktp:N0|mc:22737|mtp:S|qry_typ:P|lang:en|wc:2|cs:8837|v=4,False,,Noida,"A-99 Sector 5, Noida - 201301, Dist.Gautam Budh Nagar, Uttar Pradesh",8046058290,
"Cotton Pink Baby Swaddle Material Wrapper Muslin Organic Cloth Made Jabla, Size: Small",https://www.indiamart.com/proddetail/baby-swaddle-material-wrapper-muslin-organic-cloth-made-jabla-2853036323833.html?pos=18&kwd=baby wraps&tags=A||||8706.263|Price|product|||TS|rsf:gd-|-stype:attr=1|qr_nm:gd|res:RC4|com-cf:nl|ptrs:na|ktp:N0|mc:22737|mtp:S|qry_typ:P|lang:en|wc:2|cs:8837|v=4,Taruna Tex,https://www.indiamart.com/taruna-tex-karur/?pos=18&kwd=baby wraps&tags=A||||8706.263|Price|product|||TS|rsf:gd-|-stype:attr=1|qr_nm:gd|res:RC4|com-cf:nl|ptrs:na|ktp:N0|mc:22737|mtp:S|qry_typ:P|lang:en|wc:2|cs:8837|v=4,True,Veluswamypuram,Karur,"137, Nanthavana Street, Velusamypuram IV Cross, Andankoil West, Veluswamypuram, Karur - 639002, Dist.Karur, Tamil Nadu",7942874999,
"Red Cotton Baby Wrap, Size: Small",https://www.indiamart.com/proddetail/baby-wrap-23267235130.html?pos=19&kwd=baby wraps&tags=BA||||8661.854|Price|product|||TS|rsf:gd-|-stype:attr=1|qr_nm:gd|res:RC4|com-cf:nl|ptrs:na|ktp:N0|mc:22737|mtp:S|qry_typ:P|lang:en|wc:2|cs:8837|v=4,Aggarwal Creations,https://www.aggarwalcreations.com/?pos=19&kwd=baby wraps&tags=BA||||8661.854|Price|product|||TS|rsf:gd-|-stype:attr=1|qr_nm:gd|res:RC4|com-cf:nl|ptrs:na|ktp:N0|mc:22737|mtp:S|qry_typ:P|lang:en|wc:2|cs:8837|v=4,False,Ramesh Nagar,Ludhiana,"Geeta Nagar, Street No. 7, Tajpur Road, Ramesh Nagar, Ludhiana - 141008, Dist.Ludhiana, Punjab",8048962321,
Newborn Baby Sleeping Bags,https://www.indiamart.com/proddetail/newborn-baby-sleeping-bags-2854880931588.html?pos=20&kwd=baby wraps&tags=BB||||8230.883|Price|product|||MDC|rsf:gd-|-stype:attr=1|qr_nm:gd|res:RC4|com-cf:nl|ptrs:na|ktp:N0|mc:22737|mtp:S|qry_typ:P|lang:en|wc:2|cs:8837|v=4,Whopssy International,https://www.indiamart.com/whopssy-international/?pos=20&kwd=baby wraps&tags=BB||||8230.883|Price|product|||MDC|rsf:gd-|-stype:attr=1|qr_nm:gd|res:RC4|com-cf:nl|ptrs:na|ktp:N0|mc:22737|mtp:S|qry_typ:P|lang:en|wc:2|cs:8837|v=4,False,,Surat,"First Floor, Plot No. 377, Ram Vatika V-2, Near Rangoli Chowkdi, Sayan Road, Velenja Gam, Sayan, Surat - 394150, Dist.Surat, Gujarat",7949340041,
Cotton Baby Swaddle Wrap,https://www.indiamart.com/proddetail/baby-swaddle-wrap-2852400531755.html?pos=21&kwd=baby wraps&tags=A||||8747.203|Price|product|||TS|rsf:gd-|-stype:attr=1|qr_nm:gd|res:RC4|com-cf:nl|ptrs:na|ktp:N0|mc:22737|mtp:S|qry_typ:P|lang:en|wc:2|cs:8837|v=4,Tulsi Handicraft,https://www.indiamart.com/tulsihandicraftpanipat/?pos=21&kwd=baby wraps&tags=A||||8747.203|Price|product|||TS|rsf:gd-|-stype:attr=1|qr_nm:gd|res:RC4|com-cf:nl|ptrs:na|ktp:N0|mc:22737|mtp:S|qry_typ:P|lang:en|wc:2|cs:8837|v=4,False,Netaji Colony,Panipat,"10, Gangapuri Road, Netaji Colony, Panipat - 132103, Dist.Panipat, Haryana",7942837797,
Multicolor Hand Block Cotton Baby Wrap,https://www.indiamart.com/proddetail/hand-block-cotton-baby-wrap-26254831291.html?pos=22&kwd=baby wraps&tags=BA||||8601.347|Price|product|||TS|rsf:gd-|-stype:attr=1|qr_nm:gd|res:RC4|com-cf:nl|ptrs:na|ktp:N0|mc:22737|mtp:S|qry_typ:P|lang:en|wc:2|cs:8837|v=4,Veer Handircrafts,https://www.veerhandicrafts.com/?pos=22&kwd=baby wraps&tags=BA||||8601.347|Price|product|||TS|rsf:gd-|-stype:attr=1|qr_nm:gd|res:RC4|com-cf:nl|ptrs:na|ktp:N0|mc:22737|mtp:S|qry_typ:P|lang:en|wc:2|cs:8837|v=4,True,Shyam Nagar,Jaipur,"Basement, 192/331, Sector 19, Kumbha Marg, Shyam Nagar, Jaipur - 302029, Dist.Jaipur, Rajasthan",8043851762,
"Cotton Multicolor Baby Swaddle Wrap, Size: Large",https://www.indiamart.com/proddetail/baby-swaddle-wrap-2854324851630.html?pos=23&kwd=baby wraps&tags=A||||8706.263|Price|product|||TS|rsf:gd-|-stype:attr=1|qr_nm:gd|res:RC4|com-cf:nl|ptrs:na|ktp:N0|mc:22737|mtp:S|qry_typ:P|lang:en|wc:2|cs:8837|v=4,Shree Garments,https://www.indiamart.com/shree-garments-karur/?pos=23&kwd=baby wraps&tags=A||||8706.263|Price|product|||TS|rsf:gd-|-stype:attr=1|qr_nm:gd|res:RC4|com-cf:nl|ptrs:na|ktp:N0|mc:22737|mtp:S|qry_typ:P|lang:en|wc:2|cs:8837|v=4,False,Vengamedu,Karur,"6, Maruthamuthu Thottam, Opp To Sp Colony, Vengameduvengamedu,, Vengamedu, Karur - 639006, Dist.Karur, Tamil Nadu",7942719649,
Muslin Multicolor Baby Swaddle Wrap,https://www.indiamart.com/proddetail/baby-swaddle-wrap-2853640727655.html?pos=24&kwd=baby wraps&tags=BA||||8706.263|Price|product|||TS|rsf:gd-|-stype:attr=1|qr_nm:gd|res:RC4|com-cf:nl|ptrs:na|ktp:N0|mc:22737|mtp:S|qry_typ:P|lang:en|wc:2|cs:8837|v=4,Bowerbird Interios,https://www.organicfabricmanufacturer.com/?pos=24&kwd=baby wraps&tags=BA||||8706.263|Price|product|||TS|rsf:gd-|-stype:attr=1|qr_nm:gd|res:RC4|com-cf:nl|ptrs:na|ktp:N0|mc:22737|mtp:S|qry_typ:P|lang:en|wc:2|cs:8837|v=4,False,Ramanujam Nagar,Karur,"1/137, Covai Road South, Ramanujam Nagar, Karur - 639002, Dist.Karur, Tamil Nadu",8048971552,
"Cotton Light Peach Newborn Baby Swaddle Wrap, Size: Small",https://www.indiamart.com/proddetail/newborn-baby-swaddle-wrap-2854696483548.html?pos=25&kwd=baby wraps&tags=A||||9839.57|Price|product|||MDC|rsf:gd-|-stype:attr=1|qr_nm:gd|res:RC4|com-cf:nl|ptrs:na|ktp:N0|mc:22737|mtp:S|qry_typ:P|lang:en|wc:2|cs:8837|v=4,Titan Giftknit,https://www.indiamart.com/titan-giftknit/?pos=25&kwd=baby wraps&tags=A||||9839.57|Price|product|||MDC|rsf:gd-|-stype:attr=1|qr_nm:gd|res:RC4|com-cf:nl|ptrs:na|ktp:N0|mc:22737|mtp:S|qry_typ:P|lang:en|wc:2|cs:8837|v=4,False,Burrabazar,Kolkata,"56, Parbati Ghosh Lane, Burrabazar, Kolkata - 700007, Dist.Kolkata, West Bengal",7949325351,
"muliti Muslin Baby Wrap, Size: Small",https://www.indiamart.com/proddetail/muslin-baby-wrap-2854286376162.html?pos=26&kwd=baby wraps&tags=A||||8706.263|Price|product|||MDC|rsf:gd-|-stype:attr=1|qr_nm:gd|res:RC4|com-cf:nl|ptrs:na|ktp:N0|mc:22737|mtp:S|qry_typ:P|lang:en|wc:2|cs:8837|v=4,RKND Traders,https://www.indiamart.com/rknd-traders/?pos=26&kwd=baby wraps&tags=A||||8706.263|Price|product|||MDC|rsf:gd-|-stype:attr=1|qr_nm:gd|res:RC4|com-cf:nl|ptrs:na|ktp:N0|mc:22737|mtp:S|qry_typ:P|lang:en|wc:2|cs:8837|v=4,False,,Karur,"No.86/66, Mettu Street, Karur - 639001, Dist.Karur, Tamil Nadu",8045730806,
Multicolor Printed Baby Muslin Swaddles,https://www.indiamart.com/proddetail/baby-swaddle-wrap-2854720231197.html?pos=27&kwd=baby wraps&tags=A||||8954.051|Price|product|||MDC|rsf:gd-|-stype:attr=1|qr_nm:gd|res:RC4|com-cf:nl|ptrs:na|ktp:N0|mc:22737|mtp:S|qry_typ:P|lang:en|wc:2|cs:8837|v=4,Tender Babe,https://www.indiamart.com/tenderbabe-chennai/?pos=27&kwd=baby wraps&tags=A||||8954.051|Price|product|||MDC|rsf:gd-|-stype:attr=1|qr_nm:gd|res:RC4|com-cf:nl|ptrs:na|ktp:N0|mc:22737|mtp:S|qry_typ:P|lang:en|wc:2|cs:8837|v=4,False,Tiruvallur,Chennai,"196/2A, Annai Teresa Street, Kavarapalayam Main Road,, Siranjivi Nagar, Avadi,, Tiruvallur, Chennai - 600054, Dist.Chennai, Tamil Nadu",7949323914,
"Polyester Newborn Baby Brown Hooded Wrapper Towel, Size: Medium",https://www.indiamart.com/proddetail/newborn-baby-brown-hooded-wrapper-towel-2852544604291.html?pos=28&kwd=baby wraps&tags=A||||8752.144|Price|product|||MDC|rsf:gd-|-stype:attr=1|qr_nm:gd|res:RC4|com-cf:nl|ptrs:na|ktp:N0|mc:22737|mtp:S|qry_typ:P|lang:en|wc:2|cs:8837|v=4,B N Hosiery,https://www.indiamart.com/bnhosiery/?pos=28&kwd=baby wraps&tags=A||||8752.144|Price|product|||MDC|rsf:gd-|-stype:attr=1|qr_nm:gd|res:RC4|com-cf:nl|ptrs:na|ktp:N0|mc:22737|mtp:S|qry_typ:P|lang:en|wc:2|cs:8837|v=4,False,Ashok Vihar,New Delhi,"House No 130l, Block-E, Phase-1,Ashok, Vihar, Ashok Vihar, New Delhi - 110052, Dist.Delhi, Delhi",7942706809,
Polyester Pink Baby Comforter in Prints and colors,https://www.indiamart.com/proddetail/baby-comforter-in-prints-and-colors-2854225168473.html?pos=29&kwd=baby wraps&tags=BA||||8668.838|Price|product|||TS|rsf:gd-|-stype:attr=1|qr_nm:gd|res:RC4|com-cf:nl|ptrs:na|ktp:N0|mc:22737|mtp:S|qry_typ:P|lang:en|wc:2|cs:8837|v=4,Manish Mills,https://www.manishmills.in/?pos=29&kwd=baby wraps&tags=BA||||8668.838|Price|product|||TS|rsf:gd-|-stype:attr=1|qr_nm:gd|res:RC4|com-cf:nl|ptrs:na|ktp:N0|mc:22737|mtp:S|qry_typ:P|lang:en|wc:2|cs:8837|v=4,False,Erode Fort,Erode,"Suki Towers, No. 261, Easwaran Koil Street, Erode Fort, Erode - 638001, Dist.Erode, Tamil Nadu",8048961063,
Sleeping Bag For New Born Baby,https://www.indiamart.com/proddetail/sleeping-bag-for-new-born-baby-2853277653288.html?pos=30&kwd=baby wraps&tags=BA||||8559.269|Price|product|||MDC|rsf:gd-|-stype:attr=1|qr_nm:gd|res:RC4|com-cf:nl|ptrs:na|ktp:N0|mc:22737|mtp:S|qry_typ:P|lang:en|wc:2|cs:8837|v=4,Sheza Enterprises,https://www.indiamart.com/shezaenterprises/?pos=30&kwd=baby wraps&tags=BA||||8559.269|Price|product|||MDC|rsf:gd-|-stype:attr=1|qr_nm:gd|res:RC4|com-cf:nl|ptrs:na|ktp:N0|mc:22737|mtp:S|qry_typ:P|lang:en|wc:2|cs:8837|v=4,False,,Indore,"Alif House, 5, Khajrana Main Road, Opposite HP Petrol Pump,, Indore - 452001, Dist.Indore, Madhya Pradesh",7948547068,
"Pink And Purple Cotton 570gm Baby Swaddle Cloth Wraps, Size/Dimension: Small",https://www.indiamart.com/proddetail/570gm-baby-swaddle-cloth-wraps-22719521448.html?pos=31&kwd=baby wraps&tags=A||||8307.81|Price|product|||TS|rsf:gd-|-stype:attr=1|qr_nm:gd|res:RC4|com-cf:nl|ptrs:na|ktp:N0|mc:22737|mtp:S|qry_typ:P|lang:en|wc:2|cs:8837|v=4,Lazytoddler Solutions Private Limited,https://www.indiamart.com/lazytoddler-solutions/?pos=31&kwd=baby wraps&tags=A||||8307.81|Price|product|||TS|rsf:gd-|-stype:attr=1|qr_nm:gd|res:RC4|com-cf:nl|ptrs:na|ktp:N0|mc:22737|mtp:S|qry_typ:P|lang:en|wc:2|cs:8837|v=4,False,Wakad,Pune,"A2-1001, Fl-A1, Behind Madhuban Hotel, S.No-40, Armada Parkhe Wasti, Wakad, Wakad, Pune - 411057, Dist.Pune, Maharashtra",8043819563,
Newborn Baby Towel - baby Swaddle - Born baby Wrap - Muslin Wrap - Muslin Towel,https://www.indiamart.com/proddetail/newborn-baby-towel-baby-swaddle-born-baby-wrap-muslin-wrap-muslin-towel-2851209756088.html?pos=32&kwd=baby wraps&tags=A||||8668.838|Price|product|||TS|rsf:gd-|-stype:attr=1|qr_nm:gd|res:RC4|com-cf:nl|ptrs:na|ktp:N0|mc:22737|mtp:S|qry_typ:P|lang:en|wc:2|cs:8837|v=4,Ram Textiles,https://www.indiamart.com/ram-textiles/?pos=32&kwd=baby wraps&tags=A||||8668.838|Price|product|||TS|rsf:gd-|-stype:attr=1|qr_nm:gd|res:RC4|com-cf:nl|ptrs:na|ktp:N0|mc:22737|mtp:S|qry_typ:P|lang:en|wc:2|cs:8837|v=4,False,Veerappanchatram,Erode,"No. 131, M. G. R. Street-1, Veerappanchatram, Veerappanchatram, Erode - 638004, Dist.Erode, Tamil Nadu",8048611846,
Yellow And Black Polyester Baby Carrier Wrap,https://www.indiamart.com/proddetail/polyester-baby-carrier-wrap-2850650074355.html?pos=33&kwd=baby wraps&tags=A||||8752.144|Price|product|||MDC|rsf:gd-|-stype:attr=1|qr_nm:gd|res:RC4|com-cf:nl|ptrs:na|ktp:N0|mc:22737|mtp:S|qry_typ:P|lang:en|wc:2|cs:8837|v=4,L T Textiles,https://www.indiamart.com/lttextiles/?pos=33&kwd=baby wraps&tags=A||||8752.144|Price|product|||MDC|rsf:gd-|-stype:attr=1|qr_nm:gd|res:RC4|com-cf:nl|ptrs:na|ktp:N0|mc:22737|mtp:S|qry_typ:P|lang:en|wc:2|cs:8837|v=4,False,Pahari Dhiraj,New Delhi,"5189-90 Main Road, Sadar Bazar, Pahari Dhiraj, New Delhi - 110006, Dist.Delhi, Delhi",7942958455,
"Organic Cotton Muslin Swaddle Clothes Wrap Blankets, Size: Singe",https://www.indiamart.com/proddetail/organic-cotton-muslin-swaddle-clothes-wrap-blankets-2852450285891.html?pos=34&kwd=baby wraps&tags=BA||||8228.275|Price|product|||TS|rsf:gd-|-stype:attr=1|qr_nm:gd|res:RC4|com-cf:nl|ptrs:na|ktp:N0|mc:22737|mtp:S|qry_typ:P|lang:en|wc:2|cs:8837|v=4,King Enterprise,https://www.kingenterpriseindia.com/?pos=34&kwd=baby wraps&tags=BA||||8228.275|Price|product|||TS|rsf:gd-|-stype:attr=1|qr_nm:gd|res:RC4|com-cf:nl|ptrs:na|ktp:N0|mc:22737|mtp:S|qry_typ:P|lang:en|wc:2|cs:8837|v=4,False,Opp. Haripura Bus Stand,Ahmedabad,"Block- E 28, Ground Floor, Abhishek Estate-1, Opp. Haripura Bus Stand, Ahmedabad - 380016, Dist.Ahmedabad, Gujarat",8047632934,
"100% Organic Cotton Muslin Swaddle Wrap for Newborn Babies - Extra Soft Baby Blanket, Unisex",https://www.indiamart.com/proddetail/100-organic-cotton-muslin-swaddle-wrap-for-newborn-babies-extra-soft-baby-blanket-unisex-21327552062.html?pos=35&kwd=baby wraps&tags=A||||8668.838|Price|product|||TS|rsf:gd-|-stype:attr=1|qr_nm:gd|res:RC4|com-cf:nl|ptrs:na|ktp:N0|mc:22737|mtp:S|qry_typ:P|lang:en|wc:2|cs:8837|v=4,Sri Kalyan Export Private Limited,https://www.firstinbabydress.com/?pos=35&kwd=baby wraps&tags=A||||8668.838|Price|product|||TS|rsf:gd-|-stype:attr=1|qr_nm:gd|res:RC4|com-cf:nl|ptrs:na|ktp:N0|mc:22737|mtp:S|qry_typ:P|lang:en|wc:2|cs:8837|v=4,False,Vilarasampatti,Erode,"192/4, Ishwarya Garden, Sengodampalayam, Villarasampatti Post, Erode,, Vilarasampatti, Erode - 638107, Dist.Erode, Tamil Nadu",8046030291,
Newborn Baby Wrapping Clothes,https://www.indiamart.com/proddetail/newborn-baby-wrapping-clothes-2854232037048.html?pos=36&kwd=baby wraps&tags=A||||8230.883|Price|product|||TS|rsf:gd-|-stype:attr=1|qr_nm:gd|res:RC4|com-cf:nl|ptrs:na|ktp:N0|mc:22737|mtp:S|qry_typ:P|lang:en|wc:2|cs:8837|v=4,BABYHOLIC,https://www.babyholic.in/?pos=36&kwd=baby wraps&tags=A||||8230.883|Price|product|||TS|rsf:gd-|-stype:attr=1|qr_nm:gd|res:RC4|com-cf:nl|ptrs:na|ktp:N0|mc:22737|mtp:S|qry_typ:P|lang:en|wc:2|cs:8837|v=4,False,,Surat,"Ground Floor, Plot No. F/56/, And F/57, Laxmi Narayan Industrial Estate, Udhana, Kailash Fashion, Surat - 394210, Dist.Surat, Gujarat",8045732096,
White Cotton Muslin Baby Wraps,https://www.indiamart.com/proddetail/white-cotton-muslin-baby-wraps-25739579388.html?pos=37&kwd=baby wraps&tags=A||||8626.744|Price|product|||MDC|rsf:gd-|-stype:attr=1|qr_nm:gd|res:RC4|com-cf:nl|ptrs:na|ktp:N0|mc:22737|mtp:S|qry_typ:P|lang:en|wc:2|cs:8837|v=4,Thoni Eswar Exports,https://www.indiamart.com/thoni-eswar-exports/?pos=37&kwd=baby wraps&tags=A||||8626.744|Price|product|||MDC|rsf:gd-|-stype:attr=1|qr_nm:gd|res:RC4|com-cf:nl|ptrs:na|ktp:N0|mc:22737|mtp:S|qry_typ:P|lang:en|wc:2|cs:8837|v=4,False,,Tiruppur,"5/7, Church Street, Avinashi Road, Tiruppur - 641603, Dist.Coimbatore, Tamil Nadu",7942621102,
White (Base) Baby Printed Cotton Wrap,https://www.indiamart.com/proddetail/baby-printed-cotton-wrap-24512708412.html?pos=38&kwd=baby wraps&tags=A||||8752.144|Price|product|||MDC|rsf:gd-|-stype:attr=1|qr_nm:gd|res:RC4|com-cf:nl|ptrs:na|ktp:N0|mc:22737|mtp:S|qry_typ:P|lang:en|wc:2|cs:8837|v=4,Kidz Creation,https://www.indiamart.com/kidzcreation/?pos=38&kwd=baby wraps&tags=A||||8752.144|Price|product|||MDC|rsf:gd-|-stype:attr=1|qr_nm:gd|res:RC4|com-cf:nl|ptrs:na|ktp:N0|mc:22737|mtp:S|qry_typ:P|lang:en|wc:2|cs:8837|v=4,False,,New Delhi,"Shop No. 279/517,Sabharwal Market, Tolia Wali Gali Sadar Bazar, North Delhi,, New Delhi - 110006, Dist.Delhi, Delhi",8047679212,
Cotton Baby Wrap Sheet,https://www.indiamart.com/proddetail/baby-wrap-sheet-2851600939573.html?pos=39&kwd=baby wraps&tags=A||||8752.144||product|||MDC|rsf:gd-|-stype:attr=1|qr_nm:gd|res:RC4|com-cf:nl|ptrs:na|ktp:N0|mc:22737|mtp:S|qry_typ:P|lang:en|wc:2|cs:8837|v=4,Prince And Princess,https://www.indiamart.com/prince-princess-delhi/?pos=39&kwd=baby wraps&tags=A||||8752.144||product|||MDC|rsf:gd-|-stype:attr=1|qr_nm:gd|res:RC4|com-cf:nl|ptrs:na|ktp:N0|mc:22737|mtp:S|qry_typ:P|lang:en|wc:2|cs:8837|v=4,False,Gulabi Bagh,New Delhi,"Ground Floor, Garage No - 74, Gulabi Bagh Road,, Gulabi Bagh, New Delhi - 110007, Dist.Delhi, Delhi",8047629125,
Fleece Mix print Newborn Baby Blanket,https://www.indiamart.com/proddetail/newborn-baby-blanket-23011019462.html?pos=40&kwd=baby wraps&tags=A||||8954.051||product|||TS|rsf:gd-|-stype:attr=1|qr_nm:gd|res:RC4|com-cf:nl|ptrs:na|ktp:N0|mc:22737|mtp:S|qry_typ:P|lang:en|wc:2|cs:8837|v=4,Sundar Garments,https://www.sundargarment.com/?pos=40&kwd=baby wraps&tags=A||||8954.051||product|||TS|rsf:gd-|-stype:attr=1|qr_nm:gd|res:RC4|com-cf:nl|ptrs:na|ktp:N0|mc:22737|mtp:S|qry_typ:P|lang:en|wc:2|cs:8837|v=4,False,Kondithop,Chennai,"No-9 Murugesan Street Near Kondithope Park, Kondithop, Chennai - 600079, Dist.Chennai, Tamil Nadu",8048266539,
Newly Born Printed Muslin Baby Towels,https://www.indiamart.com/proddetail/newly-born-printed-muslin-baby-towels-2855018737030.html?pos=41&kwd=baby wraps&tags=B||||8626.744|Price|product|||MDC|rsf:gd-|-stype:attr=1|qr_nm:gd|res:RC4|com-cf:nl|ptrs:na|ktp:N0|mc:22737|mtp:S|qry_typ:P|lang:en|wc:2|cs:8837|v=4,Bawse Baby,https://www.indiamart.com/bawseebaby/?pos=41&kwd=baby wraps&tags=B||||8626.744|Price|product|||MDC|rsf:gd-|-stype:attr=1|qr_nm:gd|res:RC4|com-cf:nl|ptrs:na|ktp:N0|mc:22737|mtp:S|qry_typ:P|lang:en|wc:2|cs:8837|v=4,False,,Tiruppur,"1/125A Semmetuth Thottam, Kulathuputhur, Andipalayam, Tiruppur - 641687, Dist.Coimbatore, Tamil Nadu",8047552265,
Cotton Multicolor New Born Baby Wrapper Blanket,https://www.indiamart.com/proddetail/new-born-baby-wrapper-blanket-2853123375062.html?pos=42&kwd=baby wraps&tags=A||||8662.111|Price|product|||TS|rsf:gd-|-stype:attr=1|qr_nm:gd|res:RC4|com-cf:nl|ptrs:na|ktp:N0|mc:22737|mtp:S|qry_typ:P|lang:en|wc:2|cs:8837|v=4,Rovee Garments,https://www.indiamart.com/rovee-garments/?pos=42&kwd=baby wraps&tags=A||||8662.111|Price|product|||TS|rsf:gd-|-stype:attr=1|qr_nm:gd|res:RC4|com-cf:nl|ptrs:na|ktp:N0|mc:22737|mtp:S|qry_typ:P|lang:en|wc:2|cs:8837|v=4,False,State Bank Colony,Tirunelveli,"70, State Bank Colony, Ezhil Nagar, Ngo A Colony, State Bank Colony, Tirunelveli - 627007, Dist.Tirunelveli, Tamil Nadu",7942840922,
"Organic Cotton Muslin Swaddle Clothes Wrap Blankets, Size: Singe",https://www.indiamart.com/proddetail/organic-cotton-muslin-swaddle-clothes-wrap-blankets-2852450285891.html?pos=43&kwd=baby wraps&tags=BA||||8228.275|Price|product|||TS|rsf:gd-|-stype:attr=1|qr_nm:gd|res:RC4|com-cf:nl|ptrs:na|ktp:N0|mc:22737|mtp:S|qry_typ:P|lang:en|wc:2|cs:8837|v=4,King Enterprise,https://www.kingenterpriseindia.com/?pos=43&kwd=baby wraps&tags=BA||||8228.275|Price|product|||TS|rsf:gd-|-stype:attr=1|qr_nm:gd|res:RC4|com-cf:nl|ptrs:na|ktp:N0|mc:22737|mtp:S|qry_typ:P|lang:en|wc:2|cs:8837|v=4,False,Opp. Haripura Bus Stand,Ahmedabad,"Block- E 28, Ground Floor, Abhishek Estate-1, Opp. Haripura Bus Stand, Ahmedabad - 380016, Dist.Ahmedabad, Gujarat",8047632934,
"Polyester Newborn Baby Brown Hooded Wrapper Towel, Size: Medium",https://www.indiamart.com/proddetail/newborn-baby-brown-hooded-wrapper-towel-2852544604291.html?pos=44&kwd=baby wraps&tags=A||||8752.144|Price|product|||MDC|rsf:gd-|-stype:attr=1|qr_nm:gd|res:RC4|com-cf:nl|ptrs:na|ktp:N0|mc:22737|mtp:S|qry_typ:P|lang:en|wc:2|cs:8837|v=4,B N Hosiery,https://www.indiamart.com/bnhosiery/?pos=44&kwd=baby wraps&tags=A||||8752.144|Price|product|||MDC|rsf:gd-|-stype:attr=1|qr_nm:gd|res:RC4|com-cf:nl|ptrs:na|ktp:N0|mc:22737|mtp:S|qry_typ:P|lang:en|wc:2|cs:8837|v=4,False,Ashok Vihar,New Delhi,"House No 130l, Block-E, Phase-1,Ashok, Vihar, Ashok Vihar, New Delhi - 110052, Dist.Delhi, Delhi",7942706809,
Sleeping Bag For New Born Baby,https://www.indiamart.com/proddetail/sleeping-bag-for-new-born-baby-2853277653288.html?pos=45&kwd=baby wraps&tags=BA||||8559.269|Price|product|||MDC|rsf:gd-|-stype:attr=1|qr_nm:gd|res:RC4|com-cf:nl|ptrs:na|ktp:N0|mc:22737|mtp:S|qry_typ:P|lang:en|wc:2|cs:8837|v=4,Sheza Enterprises,https://www.indiamart.com/shezaenterprises/?pos=45&kwd=baby wraps&tags=BA||||8559.269|Price|product|||MDC|rsf:gd-|-stype:attr=1|qr_nm:gd|res:RC4|com-cf:nl|ptrs:na|ktp:N0|mc:22737|mtp:S|qry_typ:P|lang:en|wc:2|cs:8837|v=4,False,,Indore,"Alif House, 5, Khajrana Main Road, Opposite HP Petrol Pump,, Indore - 452001, Dist.Indore, Madhya Pradesh",7948547068,
"100% Organic Cotton Muslin Swaddle Wrap for Newborn Babies - Extra Soft Baby Blanket, Unisex",https://www.indiamart.com/proddetail/100-organic-cotton-muslin-swaddle-wrap-for-newborn-babies-extra-soft-baby-blanket-unisex-21327552062.html?pos=46&kwd=baby wraps&tags=A||||8668.838|Price|product|||TS|rsf:gd-|-stype:attr=1|qr_nm:gd|res:RC4|com-cf:nl|ptrs:na|ktp:N0|mc:22737|mtp:S|qry_typ:P|lang:en|wc:2|cs:8837|v=4,Sri Kalyan Export Private Limited,https://www.firstinbabydress.com/?pos=46&kwd=baby wraps&tags=A||||8668.838|Price|product|||TS|rsf:gd-|-stype:attr=1|qr_nm:gd|res:RC4|com-cf:nl|ptrs:na|ktp:N0|mc:22737|mtp:S|qry_typ:P|lang:en|wc:2|cs:8837|v=4,False,Vilarasampatti,Erode,"192/4, Ishwarya Garden, Sengodampalayam, Villarasampatti Post, Erode,, Vilarasampatti, Erode - 638107, Dist.Erode, Tamil Nadu",8046030291,
Newborn Baby Wrapping Clothes,https://www.indiamart.com/proddetail/newborn-baby-wrapping-clothes-2854232037048.html?pos=47&kwd=baby wraps&tags=A||||8230.883|Price|product|||TS|rsf:gd-|-stype:attr=1|qr_nm:gd|res:RC4|com-cf:nl|ptrs:na|ktp:N0|mc:22737|mtp:S|qry_typ:P|lang:en|wc:2|cs:8837|v=4,BABYHOLIC,https://www.babyholic.in/?pos=47&kwd=baby wraps&tags=A||||8230.883|Price|product|||TS|rsf:gd-|-stype:attr=1|qr_nm:gd|res:RC4|com-cf:nl|ptrs:na|ktp:N0|mc:22737|mtp:S|qry_typ:P|lang:en|wc:2|cs:8837|v=4,False,,Surat,"Ground Floor, Plot No. F/56/, And F/57, Laxmi Narayan Industrial Estate, Udhana, Kailash Fashion, Surat - 394210, Dist.Surat, Gujarat",8045732096,
Multicolor Hand Block Cotton Baby Wrap,https://www.indiamart.com/proddetail/hand-block-cotton-baby-wrap-26254831291.html?pos=48&kwd=baby wraps&tags=BA||||8601.347|Price|product|||TS|rsf:gd-|-stype:attr=1|qr_nm:gd|res:RC4|com-cf:nl|ptrs:na|ktp:N0|mc:22737|mtp:S|qry_typ:P|lang:en|wc:2|cs:8837|v=4,Veer Handircrafts,https://www.veerhandicrafts.com/?pos=48&kwd=baby wraps&tags=BA||||8601.347|Price|product|||TS|rsf:gd-|-stype:attr=1|qr_nm:gd|res:RC4|com-cf:nl|ptrs:na|ktp:N0|mc:22737|mtp:S|qry_typ:P|lang:en|wc:2|cs:8837|v=4,True,Shyam Nagar,Jaipur,"Basement, 192/331, Sector 19, Kumbha Marg, Shyam Nagar, Jaipur - 302029, Dist.Jaipur, Rajasthan",8043851762,
White Cotton Muslin Baby Wraps,https://www.indiamart.com/proddetail/white-cotton-muslin-baby-wraps-25739579388.html?pos=49&kwd=baby wraps&tags=A||||8626.744|Price|product|||MDC|rsf:gd-|-stype:attr=1|qr_nm:gd|res:RC4|com-cf:nl|ptrs:na|ktp:N0|mc:22737|mtp:S|qry_typ:P|lang:en|wc:2|cs:8837|v=4,Thoni Eswar Exports,https://www.indiamart.com/thoni-eswar-exports/?pos=49&kwd=baby wraps&tags=A||||8626.744|Price|product|||MDC|rsf:gd-|-stype:attr=1|qr_nm:gd|res:RC4|com-cf:nl|ptrs:na|ktp:N0|mc:22737|mtp:S|qry_typ:P|lang:en|wc:2|cs:8837|v=4,False,,Tiruppur,"5/7, Church Street, Avinashi Road, Tiruppur - 641603, Dist.Coimbatore, Tamil Nadu",7942621102,
White (Base) Baby Printed Cotton Wrap,https://www.indiamart.com/proddetail/baby-printed-cotton-wrap-24512708412.html?pos=50&kwd=baby wraps&tags=A||||8752.144|Price|product|||MDC|rsf:gd-|-stype:attr=1|qr_nm:gd|res:RC4|com-cf:nl|ptrs:na|ktp:N0|mc:22737|mtp:S|qry_typ:P|lang:en|wc:2|cs:8837|v=4,Kidz Creation,https://www.indiamart.com/kidzcreation/?pos=50&kwd=baby wraps&tags=A||||8752.144|Price|product|||MDC|rsf:gd-|-stype:attr=1|qr_nm:gd|res:RC4|com-cf:nl|ptrs:na|ktp:N0|mc:22737|mtp:S|qry_typ:P|lang:en|wc:2|cs:8837|v=4,False,,New Delhi,"Shop No. 279/517,Sabharwal Market, Tolia Wali Gali Sadar Bazar, North Delhi,, New Delhi - 110006, Dist.Delhi, Delhi",8047679212,
Cotton Baby Wrap Sheet,https://www.indiamart.com/proddetail/baby-wrap-sheet-2851600939573.html?pos=51&kwd=baby wraps&tags=A||||8752.144||product|||MDC|rsf:gd-|-stype:attr=1|qr_nm:gd|res:RC4|com-cf:nl|ptrs:na|ktp:N0|mc:22737|mtp:S|qry_typ:P|lang:en|wc:2|cs:8837|v=4,Prince And Princess,https://www.indiamart.com/prince-princess-delhi/?pos=51&kwd=baby wraps&tags=A||||8752.144||product|||MDC|rsf:gd-|-stype:attr=1|qr_nm:gd|res:RC4|com-cf:nl|ptrs:na|ktp:N0|mc:22737|mtp:S|qry_typ:P|lang:en|wc:2|cs:8837|v=4,False,Gulabi Bagh,New Delhi,"Ground Floor, Garage No - 74, Gulabi Bagh Road,, Gulabi Bagh, New Delhi - 110007, Dist.Delhi, Delhi",8047629125,
"Pink And Purple Cotton 570gm Baby Swaddle Cloth Wraps, Size/Dimension: Small",https://www.indiamart.com/proddetail/570gm-baby-swaddle-cloth-wraps-22719521448.html?pos=52&kwd=baby wraps&tags=A||||8307.81|Price|product|||TS|rsf:gd-|-stype:attr=1|qr_nm:gd|res:RC4|com-cf:nl|ptrs:na|ktp:N0|mc:22737|mtp:S|qry_typ:P|lang:en|wc:2|cs:8837|v=4,Lazytoddler Solutions Private Limited,https://www.indiamart.com/lazytoddler-solutions/?pos=52&kwd=baby wraps&tags=A||||8307.81|Price|product|||TS|rsf:gd-|-stype:attr=1|qr_nm:gd|res:RC4|com-cf:nl|ptrs:na|ktp:N0|mc:22737|mtp:S|qry_typ:P|lang:en|wc:2|cs:8837|v=4,False,Wakad,Pune,"A2-1001, Fl-A1, Behind Madhuban Hotel, S.No-40, Armada Parkhe Wasti, Wakad, Wakad, Pune - 411057, Dist.Pune, Maharashtra",8043819563,
Fleece Mix print Newborn Baby Blanket,https://www.indiamart.com/proddetail/newborn-baby-blanket-23011019462.html?pos=53&kwd=baby wraps&tags=A||||8954.051||product|||TS|rsf:gd-|-stype:attr=1|qr_nm:gd|res:RC4|com-cf:nl|ptrs:na|ktp:N0|mc:22737|mtp:S|qry_typ:P|lang:en|wc:2|cs:8837|v=4,Sundar Garments,https://www.sundargarment.com/?pos=53&kwd=baby wraps&tags=A||||8954.051||product|||TS|rsf:gd-|-stype:attr=1|qr_nm:gd|res:RC4|com-cf:nl|ptrs:na|ktp:N0|mc:22737|mtp:S|qry_typ:P|lang:en|wc:2|cs:8837|v=4,False,Kondithop,Chennai,"No-9 Murugesan Street Near Kondithope Park, Kondithop, Chennai - 600079, Dist.Chennai, Tamil Nadu",8048266539,
Newly Born Printed Muslin Baby Towels,https://www.indiamart.com/proddetail/newly-born-printed-muslin-baby-towels-2855018737030.html?pos=54&kwd=baby wraps&tags=B||||8626.744|Price|product|||MDC|rsf:gd-|-stype:attr=1|qr_nm:gd|res:RC4|com-cf:nl|ptrs:na|ktp:N0|mc:22737|mtp:S|qry_typ:P|lang:en|wc:2|cs:8837|v=4,Bawse Baby,https://www.indiamart.com/bawseebaby/?pos=54&kwd=baby wraps&tags=B||||8626.744|Price|product|||MDC|rsf:gd-|-stype:attr=1|qr_nm:gd|res:RC4|com-cf:nl|ptrs:na|ktp:N0|mc:22737|mtp:S|qry_typ:P|lang:en|wc:2|cs:8837|v=4,False,,Tiruppur,"1/125A Semmetuth Thottam, Kulathuputhur, Andipalayam, Tiruppur - 641687, Dist.Coimbatore, Tamil Nadu",8047552265,
"Cotton Multicolor Baby Swaddle Wrap, Size: Large",https://www.indiamart.com/proddetail/baby-swaddle-wrap-2854324851630.html?pos=55&kwd=baby wraps&tags=A||||8706.263|Price|product|||TS|rsf:gd-|-stype:attr=1|qr_nm:gd|res:RC4|com-cf:nl|ptrs:na|ktp:N0|mc:22737|mtp:S|qry_typ:P|lang:en|wc:2|cs:8837|v=4,Shree Garments,https://www.indiamart.com/shree-garments-karur/?pos=55&kwd=baby wraps&tags=A||||8706.263|Price|product|||TS|rsf:gd-|-stype:attr=1|qr_nm:gd|res:RC4|com-cf:nl|ptrs:na|ktp:N0|mc:22737|mtp:S|qry_typ:P|lang:en|wc:2|cs:8837|v=4,False,Vengamedu,Karur,"6, Maruthamuthu Thottam, Opp To Sp Colony, Vengameduvengamedu,, Vengamedu, Karur - 639006, Dist.Karur, Tamil Nadu",7942719649,
Cotton Multicolor New Born Baby Wrapper Blanket,https://www.indiamart.com/proddetail/new-born-baby-wrapper-blanket-2853123375062.html?pos=56&kwd=baby wraps&tags=A||||8662.111|Price|product|||TS|rsf:gd-|-stype:attr=1|qr_nm:gd|res:RC4|com-cf:nl|ptrs:na|ktp:N0|mc:22737|mtp:S|qry_typ:P|lang:en|wc:2|cs:8837|v=4,Rovee Garments,https://www.indiamart.com/rovee-garments/?pos=56&kwd=baby wraps&tags=A||||8662.111|Price|product|||TS|rsf:gd-|-stype:attr=1|qr_nm:gd|res:RC4|com-cf:nl|ptrs:na|ktp:N0|mc:22737|mtp:S|qry_typ:P|lang:en|wc:2|cs:8837|v=4,False,State Bank Colony,Tirunelveli,"70, State Bank Colony, Ezhil Nagar, Ngo A Colony, State Bank Colony, Tirunelveli - 627007, Dist.Tirunelveli, Tamil Nadu",7942840922,
"Muslin Baby Wrap Cloth Swaddles - Fairtrade, Oeko-Tex, ISO, Sedex Newborn Baby Apparel Supplier",https://www.indiamart.com/proddetail/muslin-baby-wrap-cloth-swaddles-fairtrade-oeko-tex-iso-sedex-newborn-baby-apparel-supplier-15054835873.html?pos=58&kwd=baby wraps&tags=A||||8668.838|Price|product|||TS|rsf:gd-|-stype:attr=1|qr_nm:gd|res:RC4|com-cf:nl|ptrs:na|ktp:N0|mc:22737|mtp:S|qry_typ:P|lang:en|wc:2|cs:8837|v=4,Sri Kalyan Export Private Limited,https://www.organictextileindia.com/?pos=58&kwd=baby wraps&tags=A||||8668.838|Price|product|||TS|rsf:gd-|-stype:attr=1|qr_nm:gd|res:RC4|com-cf:nl|ptrs:na|ktp:N0|mc:22737|mtp:S|qry_typ:P|lang:en|wc:2|cs:8837|v=4,False,Vilarasampatti,Erode,"192/4, Iswarya Garden, Vilarasampatti, Erode - 638107, Dist.Erode, Tamil Nadu",8048974551,
"Muslin Baby Wrap Cloth Swaddles - Fairtrade, Oeko-Tex, ISO, Sedex Newborn Baby Apparel Supplier",https://www.indiamart.com/proddetail/muslin-baby-wrap-cloth-swaddles-fairtrade-oeko-tex-iso-sedex-newborn-baby-apparel-supplier-15054835873.html?pos=58&kwd=baby wraps&tags=A||||8668.838|Price|product|||TS|rsf:gd-|-stype:attr=1|qr_nm:gd|res:RC4|com-cf:nl|ptrs:na|ktp:N0|mc:22737|mtp:S|qry_typ:P|lang:en|wc:2|cs:8837|v=4,Sri Kalyan Export Private Limited,https://www.organictextileindia.com/?pos=58&kwd=baby wraps&tags=A||||8668.838|Price|product|||TS|rsf:gd-|-stype:attr=1|qr_nm:gd|res:RC4|com-cf:nl|ptrs:na|ktp:N0|mc:22737|mtp:S|qry_typ:P|lang:en|wc:2|cs:8837|v=4,False,Vilarasampatti,Erode,"192/4, Iswarya Garden, Vilarasampatti, Erode - 638107, Dist.Erode, Tamil Nadu",8048974551,
Newborn Baby Wrapping Clothes,https://www.indiamart.com/proddetail/newborn-baby-wrapping-clothes-2854232037048.html?pos=59&kwd=baby wraps&tags=A||||8230.883|Price|product|||TS|rsf:gd-|-stype:attr=1|qr_nm:gd|res:RC4|com-cf:nl|ptrs:na|ktp:N0|mc:22737|mtp:S|qry_typ:P|lang:en|wc:2|cs:8837|v=4,BABYHOLIC,https://www.babyholic.in/?pos=59&kwd=baby wraps&tags=A||||8230.883|Price|product|||TS|rsf:gd-|-stype:attr=1|qr_nm:gd|res:RC4|com-cf:nl|ptrs:na|ktp:N0|mc:22737|mtp:S|qry_typ:P|lang:en|wc:2|cs:8837|v=4,False,,Surat,"Ground Floor, Plot No. F/56/, And F/57, Laxmi Narayan Industrial Estate, Udhana, Kailash Fashion, Surat - 394210, Dist.Surat, Gujarat",8045732096,
Blue & White Cotton 3D Mesh Baby Wraps Carrier,https://www.indiamart.com/proddetail/3d-mesh-baby-wraps-carrier-2852154884197.html?pos=60&kwd=baby wraps&tags=BA||||8230.883|Price|product|||TS|rsf:gd-|-stype:attr=1|qr_nm:gd|res:RC4|com-cf:nl|ptrs:na|ktp:N0|mc:22737|mtp:S|qry_typ:P|lang:en|wc:2|cs:8837|v=4,Trendeasy,https://www.indiamart.com/trendeasy/?pos=60&kwd=baby wraps&tags=BA||||8230.883|Price|product|||TS|rsf:gd-|-stype:attr=1|qr_nm:gd|res:RC4|com-cf:nl|ptrs:na|ktp:N0|mc:22737|mtp:S|qry_typ:P|lang:en|wc:2|cs:8837|v=4,False,Katargam,Surat,"Flat No. E/108, 1st Floor, Suman Sath, Ews-14, B/S Ambyvalley Heights, Utran, Katargam, Surat - 394101, Dist.Surat, Gujarat",8048272248,
Polyester Multicolor Baby Wrap Sheet,https://www.indiamart.com/proddetail/baby-wrap-sheet-2853328014262.html?pos=61&kwd=baby wraps&tags=BA||||8747.203||product|||TS|rsf:gd-|-stype:attr=1|qr_nm:gd|res:RC4|com-cf:nl|ptrs:na|ktp:N0|mc:22737|mtp:S|qry_typ:P|lang:en|wc:2|cs:8837|v=4,Paras Blanket,https://www.parasblanket.com/?pos=61&kwd=baby wraps&tags=BA||||8747.203||product|||TS|rsf:gd-|-stype:attr=1|qr_nm:gd|res:RC4|com-cf:nl|ptrs:na|ktp:N0|mc:22737|mtp:S|qry_typ:P|lang:en|wc:2|cs:8837|v=4,False,Old Housing Board Colony,Panipat,"Shop No. 1, 2, 3, New Pachranga Market Pachranga Bazar, Old Housing Board Colony, Panipat - 132103, Dist.Panipat, Haryana",8048968656,
Baby Carrier Sling Wrap Baby Carrier Newborn to Toddler Ergonomic 3D Mesh Baby Wraps Carrier,https://www.indiamart.com/proddetail/baby-carrier-sling-wrap-baby-carrier-newborn-to-toddler-ergonomic-3d-mesh-baby-wraps-carrier-2852872411612.html?pos=62&kwd=baby wraps&tags=BA||||8230.883|Price|product|||TS|rsf:gd-|-stype:attr=1|qr_nm:gd|res:RC4|com-cf:nl|ptrs:na|ktp:N0|mc:22737|mtp:S|qry_typ:P|lang:en|wc:2|cs:8837|v=4,Pocket Simple,https://www.pocketsimple.in/?pos=62&kwd=baby wraps&tags=BA||||8230.883|Price|product|||TS|rsf:gd-|-stype:attr=1|qr_nm:gd|res:RC4|com-cf:nl|ptrs:na|ktp:N0|mc:22737|mtp:S|qry_typ:P|lang:en|wc:2|cs:8837|v=4,False,KATARGAM,Surat,"Gr.Floor, Shop No-20, Pramukh Residency,Omkar Soc, Ved Road, KATARGAM, Surat - 395004, Dist.Surat, Gujarat",7942720597,
Baby Velvet Fur Dry Robes,https://www.indiamart.com/proddetail/baby-velvet-fur-dry-robes-11806440197.html?pos=63&kwd=baby wraps&tags=BA||||8211.142|Price|product|||TS|rsf:gd-|-stype:attr=1|qr_nm:gd|res:RC4|com-cf:nl|ptrs:na|ktp:N0|mc:22737|mtp:S|qry_typ:P|lang:en|wc:2|cs:8837|v=4,Dhrupti Creation,https://www.indiamart.com/littlecare/?pos=63&kwd=baby wraps&tags=BA||||8211.142|Price|product|||TS|rsf:gd-|-stype:attr=1|qr_nm:gd|res:RC4|com-cf:nl|ptrs:na|ktp:N0|mc:22737|mtp:S|qry_typ:P|lang:en|wc:2|cs:8837|v=4,False,Malad East,Mumbai,"Gala No. 3, Jignesh Diamond House, Near Vaishnavdevi Mandir, Subhash Lane, Malad East, Malad East, Mumbai - 400097, Dist.Mumbai, Maharashtra",8048970316,
Baby Swaddle Wrapper Muslin,https://www.indiamart.com/proddetail/baby-swaddle-wrapper-muslin-2854992087312.html?pos=64&kwd=baby wraps&tags=BB||||8242.731||product|||TS|rsf:gd-|-stype:attr=1|qr_nm:gd|res:RC4|com-cf:nl|ptrs:na|ktp:N0|mc:22737|mtp:S|qry_typ:P|lang:en|wc:2|cs:8837|v=4,Om Traders,https://www.indiamart.com/omtraders-maharashtra/?pos=64&kwd=baby wraps&tags=BB||||8242.731||product|||TS|rsf:gd-|-stype:attr=1|qr_nm:gd|res:RC4|com-cf:nl|ptrs:na|ktp:N0|mc:22737|mtp:S|qry_typ:P|lang:en|wc:2|cs:8837|v=4,False,Siru Chowk,Ulhasnagar,"Sant Chellaram Market, Shop No.19, 1st Floor, Siru Chowk, Ulhasnagar - 421002, Dist.Thane, Maharashtra",7942553425,
"White Printed Baby Cotton Muslin Swaddle, Size: Singe",https://www.indiamart.com/proddetail/baby-cotton-muslin-swaddle-2850900517748.html?pos=65&kwd=baby wraps&tags=BA||||8717.363|Price|product|||TS|rsf:gd-|-stype:attr=1|qr_nm:gd|res:RC4|com-cf:nl|ptrs:na|ktp:N0|mc:22737|mtp:S|qry_typ:P|lang:en|wc:2|cs:8837|v=4,Hublot Impex,https://www.hublotimpex.in/?pos=65&kwd=baby wraps&tags=BA||||8717.363|Price|product|||TS|rsf:gd-|-stype:attr=1|qr_nm:gd|res:RC4|com-cf:nl|ptrs:na|ktp:N0|mc:22737|mtp:S|qry_typ:P|lang:en|wc:2|cs:8837|v=4,False,Swamy Nagar,Namakkal,"Second Floor 3/227e5/2d West Street, Nalipalayam Bypass Road K J Complex Nallipalayam, Swamy Nagar, Namakkal - 637003, Dist.Namakkal, Tamil Nadu",8048600000,
Baby Wrapper With Hood,https://www.indiamart.com/proddetail/baby-wrapper-with-hood-22458276655.html?pos=66&kwd=baby wraps&tags=BB||||8876.815|Price|product|||TS|rsf:gd-|-stype:attr=1|qr_nm:gd|res:RC4|com-cf:nl|ptrs:na|ktp:N0|mc:22737|mtp:S|qry_typ:P|lang:en|wc:2|cs:8837|v=4,Sakar Fair Trade Incorporated,https://www.indiamart.com/sakarfair-trade-incorporated/?pos=66&kwd=baby wraps&tags=BB||||8876.815|Price|product|||TS|rsf:gd-|-stype:attr=1|qr_nm:gd|res:RC4|com-cf:nl|ptrs:na|ktp:N0|mc:22737|mtp:S|qry_typ:P|lang:en|wc:2|cs:8837|v=4,False,Wadi,Nagpur,"Ground floor, Shop No. 22, 8A, Laxmi Vaibhav, Laxmi Nagar Chowk, Wadi, Nagpur - 440010, Dist.Nagpur, Maharashtra",7942541012,
"Cotton Turquoise Baby Wrap, Size: Small",https://www.indiamart.com/proddetail/turquoise-baby-wrap-2852546713348.html?pos=67&kwd=baby wraps&tags=BA||||8580.032|Price|product|||TS|rsf:gd-|-stype:attr=1|qr_nm:gd|res:RC4|com-cf:nl|ptrs:na|ktp:N0|mc:22737|mtp:S|qry_typ:P|lang:en|wc:2|cs:8837|v=4,Ritu Infants Care,https://www.indiamart.com/ritu-infants-care/?pos=67&kwd=baby wraps&tags=BA||||8580.032|Price|product|||TS|rsf:gd-|-stype:attr=1|qr_nm:gd|res:RC4|com-cf:nl|ptrs:na|ktp:N0|mc:22737|mtp:S|qry_typ:P|lang:en|wc:2|cs:8837|v=4,False,Sunder Nagar,Amritsar,"232, Tilak Nagar, Shivala Colony, Sunder Nagar, Amritsar - 143001, Dist.Amritsar, Punjab",7942712512,
Cotton Baby Wrap Sheet,https://www.indiamart.com/proddetail/baby-wrap-sheet-3807438373.html?pos=68&kwd=baby wraps&tags=BA||||8752.144|Price|product|||TS|rsf:gd-|-stype:attr=1|qr_nm:gd|res:RC4|com-cf:nl|ptrs:na|ktp:N0|mc:22737|mtp:S|qry_typ:P|lang:en|wc:2|cs:8837|v=4,Man Singh & Sons Private Limited,https://www.babyproductsmanufacturer.com/?pos=68&kwd=baby wraps&tags=BA||||8752.144|Price|product|||TS|rsf:gd-|-stype:attr=1|qr_nm:gd|res:RC4|com-cf:nl|ptrs:na|ktp:N0|mc:22737|mtp:S|qry_typ:P|lang:en|wc:2|cs:8837|v=4,False,Karol Bagh,New Delhi,"No. 13/24, 1st Floor, W. E. A., Karol Bagh, Karol Bagh, New Delhi - 110005, Dist.Delhi, Delhi",8048978579,
Baby Wrap Sheet,https://www.indiamart.com/proddetail/baby-wrap-sheet-2853976509530.html?pos=69&kwd=baby wraps&tags=BA||||8211.142||product|||TS|rsf:gd-|-stype:attr=1|qr_nm:gd|res:RC4|com-cf:nl|ptrs:na|ktp:N0|mc:22737|mtp:S|qry_typ:P|lang:en|wc:2|cs:8837|v=4,Universal Medical Instruments Mumbai,https://www.universalmedicalinstrument.com/?pos=69&kwd=baby wraps&tags=BA||||8211.142||product|||TS|rsf:gd-|-stype:attr=1|qr_nm:gd|res:RC4|com-cf:nl|ptrs:na|ktp:N0|mc:22737|mtp:S|qry_typ:P|lang:en|wc:2|cs:8837|v=4,False,Goregaon East,Mumbai,"302,3rd Floor,M U Chamber,Ekhar Village,Opp Goregaon Station East,Mumbai,Mumbai Suburban 3RD FLOOR, 302 , M.U CHAMBER , EKHAR VILLAGE, Goregaon East, Mumbai - 400063, Dist.Mumbai, Maharashtra",8047834326,
"Cotton Blue Baby Swaddles Blanket Wrap, Size: Medium",https://www.indiamart.com/proddetail/baby-swaddles-blanket-wrap-2851261763097.html?pos=70&kwd=baby wraps&tags=BA||||8211.142||product|||TS|rsf:gd-|-stype:attr=1|qr_nm:gd|res:RC4|com-cf:nl|ptrs:na|ktp:N0|mc:22737|mtp:S|qry_typ:P|lang:en|wc:2|cs:8837|v=4,Mansvi Artts,https://www.indiamart.com/mansvi-artts/?pos=70&kwd=baby wraps&tags=BA||||8211.142||product|||TS|rsf:gd-|-stype:attr=1|qr_nm:gd|res:RC4|com-cf:nl|ptrs:na|ktp:N0|mc:22737|mtp:S|qry_typ:P|lang:en|wc:2|cs:8837|v=4,False,Malad East,Mumbai,"Room No.39 Kurar Village Sai Darshan Niwas, Shiv Shakti Colony, Malad East, Mumbai - 400097, Dist.Mumbai, Maharashtra",8047551199,
"Printed DVK Handicraft shell design baby swaddle soft baby wrap, Size: 40*40 Inches,40x60""",https://www.indiamart.com/proddetail/dvk-handicraft-shell-design-baby-swaddle-soft-baby-wrap-19188047530.html?pos=71&kwd=baby wraps&tags=BA||||8601.347|Price|product|||TS|rsf:gd-|-stype:attr=1|qr_nm:gd|res:RC4|com-cf:nl|ptrs:na|ktp:N0|mc:22737|mtp:S|qry_typ:P|lang:en|wc:2|cs:8837|v=4,DVK Handicraft Private Limited,https://www.dvkhandicraft.net/?pos=71&kwd=baby wraps&tags=BA||||8601.347|Price|product|||TS|rsf:gd-|-stype:attr=1|qr_nm:gd|res:RC4|com-cf:nl|ptrs:na|ktp:N0|mc:22737|mtp:S|qry_typ:P|lang:en|wc:2|cs:8837|v=4,True,Vaishali Nagar,Jaipur,"B-24, Ground Floor Lalrpura Aayodhya Nagar Vaisha Gandhi Path, Vaishali Nagar, Vaishali Nagar, Jaipur - 302021, Dist.Jaipur, Rajasthan",8048608928,
Gray Cotton Newborn Baby Swaddle Wrap,https://www.indiamart.com/proddetail/newborn-baby-swaddle-wrap-2849909944412.html?pos=72&kwd=baby wraps&tags=BA||||8601.347|Price|product|||TS|rsf:gd-|-stype:attr=1|qr_nm:gd|res:RC4|com-cf:nl|ptrs:na|ktp:N0|mc:22737|mtp:S|qry_typ:P|lang:en|wc:2|cs:8837|v=4,Vandana Handicraft,https://www.vandanahandicraft.net/?pos=72&kwd=baby wraps&tags=BA||||8601.347|Price|product|||TS|rsf:gd-|-stype:attr=1|qr_nm:gd|res:RC4|com-cf:nl|ptrs:na|ktp:N0|mc:22737|mtp:S|qry_typ:P|lang:en|wc:2|cs:8837|v=4,True,Sitapura Industrial Area,Jaipur,"Plot No. H-1167, Sitapura Industrial Area, Phase III, Sitapura Industrial Area, Jaipur - 302022, Dist.Jaipur, Rajasthan",8046049036,
Blue Soft Fabric Baby Swaddle Wrapper Muslin,https://www.indiamart.com/proddetail/baby-swaddle-wrapper-muslin-24733666391.html?pos=73&kwd=baby wraps&tags=BA||||8752.144|Price|product|||TS|rsf:gd-|-stype:attr=1|qr_nm:gd|res:RC4|com-cf:nl|ptrs:na|ktp:N0|mc:22737|mtp:S|qry_typ:P|lang:en|wc:2|cs:8837|v=4,Swastik Enterprises,https://www.indiamart.com/swastikentpndelhi/?pos=73&kwd=baby wraps&tags=BA||||8752.144|Price|product|||TS|rsf:gd-|-stype:attr=1|qr_nm:gd|res:RC4|com-cf:nl|ptrs:na|ktp:N0|mc:22737|mtp:S|qry_typ:P|lang:en|wc:2|cs:8837|v=4,False,Shastri Nagar,New Delhi,"M 29, Shastri Nagar, Street No. 1, Shastri Nagar, New Delhi - 110052, Dist.Delhi, Delhi",8048607766,
Printed Multicolor Baby Swaddle Wrap,https://www.indiamart.com/proddetail/baby-swaddle-wrap-26892466333.html?pos=74&kwd=baby wraps&tags=BA||||8559.269|Price|product|||TS|rsf:gd-|-stype:attr=1|qr_nm:gd|res:RC4|com-cf:nl|ptrs:na|ktp:N0|mc:22737|mtp:S|qry_typ:P|lang:en|wc:2|cs:8837|v=4,Nayak Textile Private Limited,https://www.flannelmanufacturer.com/?pos=74&kwd=baby wraps&tags=BA||||8559.269|Price|product|||TS|rsf:gd-|-stype:attr=1|qr_nm:gd|res:RC4|com-cf:nl|ptrs:na|ktp:N0|mc:22737|mtp:S|qry_typ:P|lang:en|wc:2|cs:8837|v=4,False,Industrial Area,Indore,"100,Industrial Area,Sector F,Sanwer Road,Indore, Industrial Area, Indore - 452015, Dist.Indore, Madhya Pradesh",7942789323,
Warm Baby Wrap,https://www.indiamart.com/proddetail/baby-wrap-22805105288.html?pos=75&kwd=baby wraps&tags=BA||||8747.203|Price|product|||TS|rsf:gd-|-stype:attr=1|qr_nm:gd|res:RC4|com-cf:nl|ptrs:na|ktp:N0|mc:22737|mtp:S|qry_typ:P|lang:en|wc:2|cs:8837|v=4,Muskan Collections,https://www.indiamart.com/muskan-collections-haryana/?pos=75&kwd=baby wraps&tags=BA||||8747.203|Price|product|||TS|rsf:gd-|-stype:attr=1|qr_nm:gd|res:RC4|com-cf:nl|ptrs:na|ktp:N0|mc:22737|mtp:S|qry_typ:P|lang:en|wc:2|cs:8837|v=4,False,Kabul Bagh,Panipat,"GALI NO 3 UGRA KHERI MOD, Kabul Bagh, Panipat - 132103, Dist.Panipat, Haryana",8047633020,
"Cotton White Baby Swaddle Wrap, Size: Medium",https://www.indiamart.com/proddetail/baby-swaddle-wrap-2853100102555.html?pos=76&kwd=baby wraps&tags=BA||||8734.695|Price|product|||TS|rsf:gd-|-stype:attr=1|qr_nm:gd|res:RC4|com-cf:nl|ptrs:na|ktp:N0|mc:22737|mtp:S|qry_typ:P|lang:en|wc:2|cs:8837|v=4,Welcome Polymers India Private Limited,https://www.welcomepolymers.com/?pos=76&kwd=baby wraps&tags=BA||||8734.695|Price|product|||TS|rsf:gd-|-stype:attr=1|qr_nm:gd|res:RC4|com-cf:nl|ptrs:na|ktp:N0|mc:22737|mtp:S|qry_typ:P|lang:en|wc:2|cs:8837|v=4,False,Sector 17,Bahadurgarh,"Plot No.270, Sector 17, Sector 17, Bahadurgarh - 124507, Dist.Jhajjar, Haryana",8048986357,
Polyester MIX Baby Carrier Wrap,https://www.indiamart.com/proddetail/baby-carrier-wrap-2852204757762.html?pos=77&kwd=baby wraps&tags=BA||||8211.142|Price|product|||TS|rsf:gd-|-stype:attr=1|qr_nm:gd|res:RC4|com-cf:nl|ptrs:na|ktp:N0|mc:22737|mtp:S|qry_typ:P|lang:en|wc:2|cs:8837|v=4,Burhani Novelties,https://www.burhaninovelties.in/?pos=77&kwd=baby wraps&tags=BA||||8211.142|Price|product|||TS|rsf:gd-|-stype:attr=1|qr_nm:gd|res:RC4|com-cf:nl|ptrs:na|ktp:N0|mc:22737|mtp:S|qry_typ:P|lang:en|wc:2|cs:8837|v=4,False,Mandvi,Mumbai,"Shop - 2, Grd Floor, Bhaji Pala Lane, 53, Burhani House, Shaikh Mohammed Ali, Allabux Road Nagdevi, Mandvi, Mandvi, Mumbai - 400003, Dist.Mumbai, Maharashtra",8043891100,
"Sivam Export Printed Canada Muslin Swaddles, 0 - 2 Years, Size: 120 X 120 cm",https://www.indiamart.com/proddetail/canada-muslin-swaddles-23927365855.html?pos=78&kwd=baby wraps&tags=A||||8706.263|Price|product|||TS|rsf:gd-|-stype:attr=1|qr_nm:gd|res:RC4|com-cf:nl|ptrs:na|ktp:N0|mc:22737|mtp:S|qry_typ:P|lang:en|wc:2|cs:8837|v=4,Sivam Export,https://www.indiamart.com/sivamexport-karur/?pos=78&kwd=baby wraps&tags=A||||8706.263|Price|product|||TS|rsf:gd-|-stype:attr=1|qr_nm:gd|res:RC4|com-cf:nl|ptrs:na|ktp:N0|mc:22737|mtp:S|qry_typ:P|lang:en|wc:2|cs:8837|v=4,False,,Karur,"6/1 Thiru Nagar,3rd Street, Karur - 639002, Dist.Karur, Tamil Nadu",8046050918,
"White Baby Printed Cotton Wraps, Size: Large",https://www.indiamart.com/proddetail/baby-printed-cotton-wraps-2854494067930.html?pos=79&kwd=baby wraps&tags=BA||||8954.051|Price|product|||MDC|rsf:gd-|-stype:attr=1|qr_nm:gd|res:RC4|com-cf:nl|ptrs:na|ktp:N0|mc:22737|mtp:S|qry_typ:P|lang:en|wc:2|cs:8837|v=4,Earthwise Collective Private Limited,https://www.indiamart.com/earthwise-collective/?pos=79&kwd=baby wraps&tags=BA||||8954.051|Price|product|||MDC|rsf:gd-|-stype:attr=1|qr_nm:gd|res:RC4|com-cf:nl|ptrs:na|ktp:N0|mc:22737|mtp:S|qry_typ:P|lang:en|wc:2|cs:8837|v=4,False,,Chennai,"9/2, 35/2, Bagirathiammal Street, T Nagar,, Chennai - 600017, Dist.Chennai, Tamil Nadu",7942801118,
"Kids Wrap Around, Size: Free size",https://www.indiamart.com/proddetail/kids-wrap-around-2853310971562.html?pos=80&kwd=baby wraps&tags=A||||8785.791|Price|product|||TS|rsf:gd-|-stype:attr=1|qr_nm:gd|res:RC4|com-cf:nl|ptrs:na|ktp:N0|mc:22737|mtp:S|qry_typ:P|lang:en|wc:2|cs:8837|v=4,Shubhagya Creation,https://www.indiamart.com/shubhagyacreation/?pos=80&kwd=baby wraps&tags=A||||8785.791|Price|product|||TS|rsf:gd-|-stype:attr=1|qr_nm:gd|res:RC4|com-cf:nl|ptrs:na|ktp:N0|mc:22737|mtp:S|qry_typ:P|lang:en|wc:2|cs:8837|v=4,False,Indirapuram,Ghaziabad,"Amrapali Village Am Block Flat No 604 6th Floor Indirapuram Village Makanpur Nayaykhand Ii, Indirapuram, Ghaziabad - 201014, Dist.Ghaziabad, Uttar Pradesh",7942613379,
Newborn Baby Towel - baby Swaddle - Born baby Wrap - Muslin Wrap - Muslin Towel,https://www.indiamart.com/proddetail/newborn-baby-towel-baby-swaddle-born-baby-wrap-muslin-wrap-muslin-towel-2851209756088.html?pos=81&kwd=baby wraps&tags=A||||8668.838|Price|product|||TS|rsf:gd-|-stype:attr=1|qr_nm:gd|res:RC4|com-cf:nl|ptrs:na|ktp:N0|mc:22737|mtp:S|qry_typ:P|lang:en|wc:2|cs:8837|v=4,Ram Textiles,https://www.indiamart.com/ram-textiles/?pos=81&kwd=baby wraps&tags=A||||8668.838|Price|product|||TS|rsf:gd-|-stype:attr=1|qr_nm:gd|res:RC4|com-cf:nl|ptrs:na|ktp:N0|mc:22737|mtp:S|qry_typ:P|lang:en|wc:2|cs:8837|v=4,False,Veerappanchatram,Erode,"No. 131, M. G. R. Street-1, Veerappanchatram, Veerappanchatram, Erode - 638004, Dist.Erode, Tamil Nadu",8048611846,
"Wrapping Printed Baby Hooded Wrapper, Newly Born, Size: Small",https://www.indiamart.com/proddetail/baby-hooded-wrapper-2853905627762.html?pos=82&kwd=baby wraps&tags=BA||||8226.563|Price|product|||MDC|rsf:gd-|-stype:attr=1|qr_nm:gd|res:RC4|com-cf:nl|ptrs:na|ktp:N0|mc:22737|mtp:S|qry_typ:P|lang:en|wc:2|cs:8837|v=4,Vanbon Clothing Co.,https://www.indiamart.com/vanbon-clothing-co/?pos=82&kwd=baby wraps&tags=BA||||8226.563|Price|product|||MDC|rsf:gd-|-stype:attr=1|qr_nm:gd|res:RC4|com-cf:nl|ptrs:na|ktp:N0|mc:22737|mtp:S|qry_typ:P|lang:en|wc:2|cs:8837|v=4,False,Vashi (Thane),Navi Mumbai,"1st Floor Ofice No.16, Plot No.73, D Wing Vallabh Bhai Patel Marg, Vashi (Thane), Navi Mumbai - 400703, Dist.Thane, Maharashtra",8044012603,
Cotton Hooded Baby Wraps Blanket,https://www.indiamart.com/proddetail/cotton-hooded-baby-wraps-blanket-2853514590962.html?pos=83&kwd=baby wraps&tags=BA||||8307.81|Price|product|||MDC|rsf:gd-|-stype:attr=1|qr_nm:gd|res:RC4|com-cf:nl|ptrs:na|ktp:N0|mc:22737|mtp:S|qry_typ:P|lang:en|wc:2|cs:8837|v=4,Tabaria Baby Mall,https://www.indiamart.com/tabaria-baby-mallpune/?pos=83&kwd=baby wraps&tags=BA||||8307.81|Price|product|||MDC|rsf:gd-|-stype:attr=1|qr_nm:gd|res:RC4|com-cf:nl|ptrs:na|ktp:N0|mc:22737|mtp:S|qry_typ:P|lang:en|wc:2|cs:8837|v=4,False,Raviwar Peth,Pune,"1088,Manish Market,Raviwar Peth, Raviwar Peth, Pune - 411002, Dist.Pune, Maharashtra",7949092418,
"Pink Cotton Baby Wrap, Size: Medium",https://www.indiamart.com/proddetail/pink-cotton-baby-wrap-2854497770048.html?pos=84&kwd=baby wraps&tags=BA||||8747.203|Price|product|||MDC|rsf:gd-|-stype:attr=1|qr_nm:gd|res:RC4|com-cf:nl|ptrs:na|ktp:N0|mc:22737|mtp:S|qry_typ:P|lang:en|wc:2|cs:8837|v=4,Gandhi Wooltex,https://www.indiamart.com/gandhiwooltex/?pos=84&kwd=baby wraps&tags=BA||||8747.203|Price|product|||MDC|rsf:gd-|-stype:attr=1|qr_nm:gd|res:RC4|com-cf:nl|ptrs:na|ktp:N0|mc:22737|mtp:S|qry_typ:P|lang:en|wc:2|cs:8837|v=4,False,,Panipat,"H No. 538, Sector 12, Huda, Panipat - 132103, Dist.Panipat, Haryana",7949338841,
"Blue,Pink Newborn Baby Cotton Wrappers, Size: Small",https://www.indiamart.com/proddetail/newborn-baby-cotton-wrappers-2853262387212.html?pos=85&kwd=baby wraps&tags=BB||||8752.144|Price|product|||MDC|rsf:gd-|-stype:attr=1|qr_nm:gd|res:RC4|com-cf:nl|ptrs:na|ktp:N0|mc:22737|mtp:S|qry_typ:P|lang:en|wc:2|cs:8837|v=4,A.D. Enterprises,https://www.indiamart.com/adenterprises-burari-newdelhi/?pos=85&kwd=baby wraps&tags=BB||||8752.144|Price|product|||MDC|rsf:gd-|-stype:attr=1|qr_nm:gd|res:RC4|com-cf:nl|ptrs:na|ktp:N0|mc:22737|mtp:S|qry_typ:P|lang:en|wc:2|cs:8837|v=4,False,North,New Delhi,"K.No-12/1, Main 25 FT. Road, Near Shyam Sweets, Uttranchal Enclave ,Kamal Pur, Burari, North, New Delhi - 110084, Dist.Delhi, Delhi",8044565004,
"Polyester Baby Hooded Wrapper, Size: Medium",https://www.indiamart.com/proddetail/baby-hooded-wrapper-2853665305362.html?pos=86&kwd=baby wraps&tags=BA||||8752.144|Price|product|||MDC|rsf:gd-|-stype:attr=1|qr_nm:gd|res:RC4|com-cf:nl|ptrs:na|ktp:N0|mc:22737|mtp:S|qry_typ:P|lang:en|wc:2|cs:8837|v=4,S.N. Enterprises,https://www.indiamart.com/sn-enterprisesnew-delhi/?pos=86&kwd=baby wraps&tags=BA||||8752.144|Price|product|||MDC|rsf:gd-|-stype:attr=1|qr_nm:gd|res:RC4|com-cf:nl|ptrs:na|ktp:N0|mc:22737|mtp:S|qry_typ:P|lang:en|wc:2|cs:8837|v=4,False,Daryaganj,New Delhi,"Shop No. 16, Sabharwal Market, Sabharwal Lane, Sadar Bazar, North, Daryaganj, New Delhi - 110006, Dist.Delhi, Delhi",8045166377,
Pink And White Printed Baby Wrap Dry Robe,https://www.indiamart.com/proddetail/baby-wrap-dry-robe-12821246112.html?pos=87&kwd=baby wraps&tags=BA||||8223.226|Price|product|||MDC|rsf:gd-|-stype:attr=1|qr_nm:gd|res:RC4|com-cf:nl|ptrs:na|ktp:N0|mc:22737|mtp:S|qry_typ:P|lang:en|wc:2|cs:8837|v=4,Wecare Solutions,https://www.indiamart.com/wecare-solutions/?pos=87&kwd=baby wraps&tags=BA||||8223.226|Price|product|||MDC|rsf:gd-|-stype:attr=1|qr_nm:gd|res:RC4|com-cf:nl|ptrs:na|ktp:N0|mc:22737|mtp:S|qry_typ:P|lang:en|wc:2|cs:8837|v=4,False,Valiv,Thane,"Gala No. F-19-20, 1st Floor, Rajprabha Anand Industrial Estate Naikpada, Waliv, Valiv, Thane - 401208, Dist.Thane, Maharashtra",8047631791,
Polyester Baby Wrapper,https://www.indiamart.com/proddetail/baby-wrapper-2854950794055.html?pos=88&kwd=baby wraps&tags=BA||||8747.203|Price|product|||MDC|rsf:gd-|-stype:attr=1|qr_nm:gd|res:RC4|com-cf:nl|ptrs:na|ktp:N0|mc:22737|mtp:S|qry_typ:P|lang:en|wc:2|cs:8837|v=4,Kanha Trading Company,https://www.indiamart.com/kanhatrading-company-panipat/?pos=88&kwd=baby wraps&tags=BA||||8747.203|Price|product|||MDC|rsf:gd-|-stype:attr=1|qr_nm:gd|res:RC4|com-cf:nl|ptrs:na|ktp:N0|mc:22737|mtp:S|qry_typ:P|lang:en|wc:2|cs:8837|v=4,False,Pachranga Bazar,Panipat,"708/4, Near Valmiki Basti, Pachranga Bazar, Pachranga Bazar, Panipat - 132103, Dist.Panipat, Haryana",7949373029,
Soft Fabric Cotton Yellow Baby Wrapper,https://www.indiamart.com/proddetail/cotton-yellow-baby-wrapper-2850422663962.html?pos=89&kwd=baby wraps&tags=BB||||8211.142|Price|product|||MDC|rsf:gd-|-stype:attr=1|qr_nm:gd|res:RC4|com-cf:nl|ptrs:na|ktp:N0|mc:22737|mtp:S|qry_typ:P|lang:en|wc:2|cs:8837|v=4,Induspider,https://www.indiamart.com/induspider/?pos=89&kwd=baby wraps&tags=BB||||8211.142|Price|product|||MDC|rsf:gd-|-stype:attr=1|qr_nm:gd|res:RC4|com-cf:nl|ptrs:na|ktp:N0|mc:22737|mtp:S|qry_typ:P|lang:en|wc:2|cs:8837|v=4,False,,Mumbai,"Krantiveer Sanjay Chawl, Kajupada, 1-A, Gaondevi Road, Poisar, Kandivali- East Mumbai Suburban, Mumbai - 400101, Dist.Mumbai, Maharashtra",7948219563,
White Size: Single Cloudy Baby blanket 500gm SIZE 70x100cm,https://www.indiamart.com/proddetail/cloudy-baby-blanket-500gm-size-70x100cm-2854848140955.html?pos=90&kwd=baby wraps&tags=BB||||8747.203|Price|product|||MDC|rsf:gd-|-stype:attr=1|qr_nm:gd|res:RC4|com-cf:nl|ptrs:na|ktp:N0|mc:22737|mtp:S|qry_typ:P|lang:en|wc:2|cs:8837|v=4,Delite Home Furnishings,https://www.indiamart.com/delitehomefurnishings/?pos=90&kwd=baby wraps&tags=BB||||8747.203|Price|product|||MDC|rsf:gd-|-stype:attr=1|qr_nm:gd|res:RC4|com-cf:nl|ptrs:na|ktp:N0|mc:22737|mtp:S|qry_typ:P|lang:en|wc:2|cs:8837|v=4,False,Chowk,Panipat,"First Floor, H.No 1629, SEC 11, Near Sai Baba Chowk, Back Side of Pruthi Hospital, NHBC Sector 11, Chowk, Panipat - 132103, Dist.Panipat, Haryana",7942969606,
"White Baby Swaddle Wrap, Size: Medium",https://www.indiamart.com/proddetail/baby-swaddle-wrap-2853184895962.html?pos=91&kwd=baby wraps&tags=BA||||8413.825|Price|product|||MDC|rsf:gd-|-stype:attr=1|qr_nm:gd|res:RC4|com-cf:nl|ptrs:na|ktp:N0|mc:22737|mtp:S|qry_typ:P|lang:en|wc:2|cs:8837|v=4,Urban Hive,https://www.indiamart.com/urbanhive/?pos=91&kwd=baby wraps&tags=BA||||8413.825|Price|product|||MDC|rsf:gd-|-stype:attr=1|qr_nm:gd|res:RC4|com-cf:nl|ptrs:na|ktp:N0|mc:22737|mtp:S|qry_typ:P|lang:en|wc:2|cs:8837|v=4,False,Vidya Nagar,Hubli,"First Floor, 26/3549/B, Ramakrishna Layout, Near Shirur Park, More Supermarket, Ramakrishna ,Dharwad, Vidya Nagar, Hubli - 580031, Dist.Dharwad, Karnataka",7942962352,
"Round Cotton Roti Wrap Cloth, Size: 28 cm X 28 cm (lxb)",https://www.indiamart.com/proddetail/cotton-roti-wrap-cloth-25785894462.html?pos=92&kwd=baby wraps&tags=BA||||8876.815|Price|product|||MDC|rsf:gd-|-stype:attr=1|qr_nm:gd|res:RC4|com-cf:nl|ptrs:na|ktp:N0|mc:22737|mtp:S|qry_typ:P|lang:en|wc:2|cs:8837|v=4,Devanshi Enterprises,https://www.indiamart.com/devanshienterprisesnagpur/?pos=92&kwd=baby wraps&tags=BA||||8876.815|Price|product|||MDC|rsf:gd-|-stype:attr=1|qr_nm:gd|res:RC4|com-cf:nl|ptrs:na|ktp:N0|mc:22737|mtp:S|qry_typ:P|lang:en|wc:2|cs:8837|v=4,False,Itwari,Nagpur,"221A, Khapripura Itwari, Itwari, Nagpur - 440002, Dist.Nagpur, Maharashtra",7942662391,
"Babymoon Rayon Newborn Baby Swaddle Wrap Photography Prop, 0-3 Months, Size: 152 X 48 X 0.1 cm",https://www.indiamart.com/proddetail/newborn-baby-swaddle-wrap-photography-prop-19518443997.html?pos=93&kwd=baby wraps&tags=BA||||8228.275|Price|product|||MDC|rsf:gd-|-stype:attr=1|qr_nm:gd|res:RC4|com-cf:nl|ptrs:na|ktp:N0|mc:22737|mtp:S|qry_typ:P|lang:en|wc:2|cs:8837|v=4,Dream Works,https://www.indiamart.com/dreamworks-ahmedabad/?pos=93&kwd=baby wraps&tags=BA||||8228.275|Price|product|||MDC|rsf:gd-|-stype:attr=1|qr_nm:gd|res:RC4|com-cf:nl|ptrs:na|ktp:N0|mc:22737|mtp:S|qry_typ:P|lang:en|wc:2|cs:8837|v=4,False,Sanathal,Ahmedabad,"5,Chanakya Bunglows,Nr Lad Society Common Plot,Vastrapur, Sanathal, Ahmedabad - 380054, Dist.Ahmedabad, Gujarat",8047663803,
Cotton Newly Born Baby Wrap,https://www.indiamart.com/proddetail/newly-born-baby-wrap-2854269045233.html?pos=94&kwd=baby wraps&tags=BA||||8838.804|Price|product|||MDC|rsf:gd-|-stype:attr=1|qr_nm:gd|res:RC4|com-cf:nl|ptrs:na|ktp:N0|mc:22737|mtp:S|qry_typ:P|lang:en|wc:2|cs:8837|v=4,Fabric Fusion,https://www.indiamart.com/fabric-fusion-up/?pos=94&kwd=baby wraps&tags=BA||||8838.804|Price|product|||MDC|rsf:gd-|-stype:attr=1|qr_nm:gd|res:RC4|com-cf:nl|ptrs:na|ktp:N0|mc:22737|mtp:S|qry_typ:P|lang:en|wc:2|cs:8837|v=4,False,,Aligarh,"Duplex No 1, Next to Green Park Masjid, Green Park Colony, Aligarh - 202001, Uttar Pradesh",8044560687,
Alphabet Printed Baby Wrap Blanket,https://www.indiamart.com/proddetail/alphabet-printed-baby-wrap-blanket-2854158251797.html?pos=95&kwd=baby wraps&tags=BA||||8661.854|Price|product|||MDC|rsf:gd-|-stype:attr=1|qr_nm:gd|res:RC4|com-cf:nl|ptrs:na|ktp:N0|mc:22737|mtp:S|qry_typ:P|lang:en|wc:2|cs:8837|v=4,Sai Trading Company,https://www.indiamart.com/sai-tradingcompany-ludhiana/?pos=95&kwd=baby wraps&tags=BA||||8661.854|Price|product|||MDC|rsf:gd-|-stype:attr=1|qr_nm:gd|res:RC4|com-cf:nl|ptrs:na|ktp:N0|mc:22737|mtp:S|qry_typ:P|lang:en|wc:2|cs:8837|v=4,False,Chaura Bazar Area,Ludhiana,"Mochpura Bazar, No. 139 Block Viii, Rajesh Shawls, Chaura Bazar Area, Ludhiana - 141008, Dist.Ludhiana, Punjab",8045736579,
"Cartoon Printed 4Pc Baby Wrapping Sheet, Mat Size: 30x 30 Inch (l X W)",https://www.indiamart.com/proddetail/4pc-baby-wrapping-sheet-2853488928873.html?pos=96&kwd=baby wraps&tags=BA||||8785.791|Price|product|||MDC|rsf:gd-|-stype:attr=1|qr_nm:gd|res:RC4|com-cf:nl|ptrs:na|ktp:N0|mc:22737|mtp:S|qry_typ:P|lang:en|wc:2|cs:8837|v=4,Navjal Enterprises,https://www.indiamart.com/navjal-enterprises/?pos=96&kwd=baby wraps&tags=BA||||8785.791|Price|product|||MDC|rsf:gd-|-stype:attr=1|qr_nm:gd|res:RC4|com-cf:nl|ptrs:na|ktp:N0|mc:22737|mtp:S|qry_typ:P|lang:en|wc:2|cs:8837|v=4,False,Loni,Ghaziabad,"Plot No. F-30, Khasra No. 250, Ram Park, Dye House, Pargana, Loni, Lutfulapur Navada, Loni, Ghaziabad - 201102, Dist.Ghaziabad, Uttar Pradesh",8043878298,
Baby wrapper,,GSK,https://www.indiamart.com/gsk-alappuzha/?pos=97&kwd=baby wraps&tags=BB||||8509.724|Price|product|||MDC|rsf:gd-|-stype:attr=1|qr_nm:gd|res:RC4|com-cf:nl|ptrs:na|ktp:N0|mc:22737|mtp:S|qry_typ:P|lang:en|wc:2|cs:8837|v=4,False,Chungam,Alappuzha,"26/996 A, Vinayaka Bhavan, Mo Ward, Alappuzha, Chungam, Alappuzha - 688011, Dist.Alappuzha, Kerala",8048614702,
Unisex Baby cover cloth,https://www.indiamart.com/proddetail/baby-cover-cloth-25433765188.html?pos=98&kwd=baby wraps&tags=BB||||8559.269||product|||TS|rsf:gd-|-stype:attr=1|qr_nm:gd|res:RC4|com-cf:nl|ptrs:na|ktp:N0|mc:22737|mtp:S|qry_typ:P|lang:en|wc:2|cs:8837|v=4,M/s K. Kumar Fabrics,https://www.indiamart.com/kkumar-fabrics/?pos=98&kwd=baby wraps&tags=BB||||8559.269||product|||TS|rsf:gd-|-stype:attr=1|qr_nm:gd|res:RC4|com-cf:nl|ptrs:na|ktp:N0|mc:22737|mtp:S|qry_typ:P|lang:en|wc:2|cs:8837|v=4,False,Indore Takshashila,Indore,"near Rajkumar bridge 47/1, Sheelnath Camp, Indore Takshashila, Indore - 452001, Dist.Indore, Madhya Pradesh",8048955536,
"Cotton White Baby Swaddle Wrap, Size: Medium",https://www.indiamart.com/proddetail/baby-swaddle-wrap-2853100102555.html?pos=99&kwd=baby wraps&tags=BA||||8734.695|Price|product|||TS|rsf:gd-|-stype:attr=1|qr_nm:gd|res:RC4|com-cf:nl|ptrs:na|ktp:N0|mc:22737|mtp:S|qry_typ:P|lang:en|wc:2|cs:8837|v=4,Welcome Polymers India Private Limited,https://www.welcomepolymers.com/?pos=99&kwd=baby wraps&tags=BA||||8734.695|Price|product|||TS|rsf:gd-|-stype:attr=1|qr_nm:gd|res:RC4|com-cf:nl|ptrs:na|ktp:N0|mc:22737|mtp:S|qry_typ:P|lang:en|wc:2|cs:8837|v=4,False,Sector 17,Bahadurgarh,"Plot No.270, Sector 17, Sector 17, Bahadurgarh - 124507, Dist.Jhajjar, Haryana",8048986357,
"Babymoon Rayon Newborn Baby Swaddle Wrap Photography Prop, 0-3 Months, Size: 152 X 48 X 0.1 cm",https://www.indiamart.com/proddetail/newborn-baby-swaddle-wrap-photography-prop-19518443997.html?pos=100&kwd=baby wraps&tags=BA||||8228.275|Price|product|||MDC|rsf:gd-|-stype:attr=1|qr_nm:gd|res:RC4|com-cf:nl|ptrs:na|ktp:N0|mc:22737|mtp:S|qry_typ:P|lang:en|wc:2|cs:8837|v=4,Dream Works,https://www.indiamart.com/dreamworks-ahmedabad/?pos=100&kwd=baby wraps&tags=BA||||8228.275|Price|product|||MDC|rsf:gd-|-stype:attr=1|qr_nm:gd|res:RC4|com-cf:nl|ptrs:na|ktp:N0|mc:22737|mtp:S|qry_typ:P|lang:en|wc:2|cs:8837|v=4,False,Sanathal,Ahmedabad,"5,Chanakya Bunglows,Nr Lad Society Common Plot,Vastrapur, Sanathal, Ahmedabad - 380054, Dist.Ahmedabad, Gujarat",8047663803,
"Blue,Pink Newborn Baby Cotton Wrappers, Size: Small",https://www.indiamart.com/proddetail/newborn-baby-cotton-wrappers-2853262387212.html?pos=101&kwd=baby wraps&tags=BB||||8752.144|Price|product|||MDC|rsf:gd-|-stype:attr=1|qr_nm:gd|res:RC4|com-cf:nl|ptrs:na|ktp:N0|mc:22737|mtp:S|qry_typ:P|lang:en|wc:2|cs:8837|v=4,A.D. Enterprises,https://www.indiamart.com/adenterprises-burari-newdelhi/?pos=101&kwd=baby wraps&tags=BB||||8752.144|Price|product|||MDC|rsf:gd-|-stype:attr=1|qr_nm:gd|res:RC4|com-cf:nl|ptrs:na|ktp:N0|mc:22737|mtp:S|qry_typ:P|lang:en|wc:2|cs:8837|v=4,False,North,New Delhi,"K.No-12/1, Main 25 FT. Road, Near Shyam Sweets, Uttranchal Enclave ,Kamal Pur, Burari, North, New Delhi - 110084, Dist.Delhi, Delhi",8044565004,
"White Baby Swaddle Wrap, Size: Medium",https://www.indiamart.com/proddetail/baby-swaddle-wrap-2853184895962.html?pos=102&kwd=baby wraps&tags=BA||||8413.825|Price|product|||MDC|rsf:gd-|-stype:attr=1|qr_nm:gd|res:RC4|com-cf:nl|ptrs:na|ktp:N0|mc:22737|mtp:S|qry_typ:P|lang:en|wc:2|cs:8837|v=4,Urban Hive,https://www.indiamart.com/urbanhive/?pos=102&kwd=baby wraps&tags=BA||||8413.825|Price|product|||MDC|rsf:gd-|-stype:attr=1|qr_nm:gd|res:RC4|com-cf:nl|ptrs:na|ktp:N0|mc:22737|mtp:S|qry_typ:P|lang:en|wc:2|cs:8837|v=4,False,Vidya Nagar,Hubli,"First Floor, 26/3549/B, Ramakrishna Layout, Near Shirur Park, More Supermarket, Ramakrishna ,Dharwad, Vidya Nagar, Hubli - 580031, Dist.Dharwad, Karnataka",7942962352,
Alphabet Printed Baby Wrap Blanket,https://www.indiamart.com/proddetail/alphabet-printed-baby-wrap-blanket-2854158251797.html?pos=103&kwd=baby wraps&tags=BA||||8661.854|Price|product|||MDC|rsf:gd-|-stype:attr=1|qr_nm:gd|res:RC4|com-cf:nl|ptrs:na|ktp:N0|mc:22737|mtp:S|qry_typ:P|lang:en|wc:2|cs:8837|v=4,Sai Trading Company,https://www.indiamart.com/sai-tradingcompany-ludhiana/?pos=103&kwd=baby wraps&tags=BA||||8661.854|Price|product|||MDC|rsf:gd-|-stype:attr=1|qr_nm:gd|res:RC4|com-cf:nl|ptrs:na|ktp:N0|mc:22737|mtp:S|qry_typ:P|lang:en|wc:2|cs:8837|v=4,False,Chaura Bazar Area,Ludhiana,"Mochpura Bazar, No. 139 Block Viii, Rajesh Shawls, Chaura Bazar Area, Ludhiana - 141008, Dist.Ludhiana, Punjab",8045736579,
Baby Velvet Fur Dry Robes,https://www.indiamart.com/proddetail/baby-velvet-fur-dry-robes-11806440197.html?pos=104&kwd=baby wraps&tags=BA||||8211.142|Price|product|||TS|rsf:gd-|-stype:attr=1|qr_nm:gd|res:RC4|com-cf:nl|ptrs:na|ktp:N0|mc:22737|mtp:S|qry_typ:P|lang:en|wc:2|cs:8837|v=4,Dhrupti Creation,https://www.indiamart.com/littlecare/?pos=104&kwd=baby wraps&tags=BA||||8211.142|Price|product|||TS|rsf:gd-|-stype:attr=1|qr_nm:gd|res:RC4|com-cf:nl|ptrs:na|ktp:N0|mc:22737|mtp:S|qry_typ:P|lang:en|wc:2|cs:8837|v=4,False,Malad East,Mumbai,"Gala No. 3, Jignesh Diamond House, Near Vaishnavdevi Mandir, Subhash Lane, Malad East, Malad East, Mumbai - 400097, Dist.Mumbai, Maharashtra",8048970316,
"Red Cotton Baby Wrap, Size: Small",https://www.indiamart.com/proddetail/baby-wrap-23267235130.html?pos=105&kwd=baby wraps&tags=BA||||8661.854|Price|product|||TS|rsf:gd-|-stype:attr=1|qr_nm:gd|res:RC4|com-cf:nl|ptrs:na|ktp:N0|mc:22737|mtp:S|qry_typ:P|lang:en|wc:2|cs:8837|v=4,Aggarwal Creations,https://www.aggarwalcreations.com/?pos=105&kwd=baby wraps&tags=BA||||8661.854|Price|product|||TS|rsf:gd-|-stype:attr=1|qr_nm:gd|res:RC4|com-cf:nl|ptrs:na|ktp:N0|mc:22737|mtp:S|qry_typ:P|lang:en|wc:2|cs:8837|v=4,False,Ramesh Nagar,Ludhiana,"Geeta Nagar, Street No. 7, Tajpur Road, Ramesh Nagar, Ludhiana - 141008, Dist.Ludhiana, Punjab",8048962321,
Gray Cotton Newborn Baby Swaddle Wrap,https://www.indiamart.com/proddetail/newborn-baby-swaddle-wrap-2849909944412.html?pos=106&kwd=baby wraps&tags=BA||||8601.347|Price|product|||TS|rsf:gd-|-stype:attr=1|qr_nm:gd|res:RC4|com-cf:nl|ptrs:na|ktp:N0|mc:22737|mtp:S|qry_typ:P|lang:en|wc:2|cs:8837|v=4,Vandana Handicraft,https://www.vandanahandicraft.net/?pos=106&kwd=baby wraps&tags=BA||||8601.347|Price|product|||TS|rsf:gd-|-stype:attr=1|qr_nm:gd|res:RC4|com-cf:nl|ptrs:na|ktp:N0|mc:22737|mtp:S|qry_typ:P|lang:en|wc:2|cs:8837|v=4,True,Sitapura Industrial Area,Jaipur,"Plot No. H-1167, Sitapura Industrial Area, Phase III, Sitapura Industrial Area, Jaipur - 302022, Dist.Jaipur, Rajasthan",8046049036,
Multicolor 1 Pc 120x120 Cm Baby Swaddle,https://www.indiamart.com/proddetail/baby-swaddle-22405004812.html?pos=107&kwd=baby wraps&tags=BA||||8799.744|Price|product|||TS|rsf:gd-|-stype:attr=1|qr_nm:gd|res:RC4|com-cf:nl|ptrs:na|ktp:N0|mc:22737|mtp:S|qry_typ:P|lang:en|wc:2|cs:8837|v=4,National Fashion,https://www.indiamart.com/nationalfashion-uttarpradesh/?pos=107&kwd=baby wraps&tags=BA||||8799.744|Price|product|||TS|rsf:gd-|-stype:attr=1|qr_nm:gd|res:RC4|com-cf:nl|ptrs:na|ktp:N0|mc:22737|mtp:S|qry_typ:P|lang:en|wc:2|cs:8837|v=4,False,Bank Colony,Modinagar,"95, Bank Colony, Bank Colony, Modinagar - 201204, Dist.Ghaziabad, Uttar Pradesh",8048963005,
Child Carrier Wrap Multipurpose Baby Carrier Ring Sling Fir Baby Toddler.,https://www.indiamart.com/proddetail/child-carrier-wrap-multipurpose-baby-carrier-ring-sling-fir-baby-toddler-2852304756933.html?pos=108&kwd=baby wraps&tags=BA||||8211.142|Price|product|||TS|rsf:gd-|-stype:attr=1|qr_nm:gd|res:RC4|com-cf:nl|ptrs:na|ktp:N0|mc:22737|mtp:S|qry_typ:P|lang:en|wc:2|cs:8837|v=4,Homenity,https://www.homenity.in/?pos=108&kwd=baby wraps&tags=BA||||8211.142|Price|product|||TS|rsf:gd-|-stype:attr=1|qr_nm:gd|res:RC4|com-cf:nl|ptrs:na|ktp:N0|mc:22737|mtp:S|qry_typ:P|lang:en|wc:2|cs:8837|v=4,False,Masjid Bandar,Mumbai,"203, 2nd Floor, Plot-13a Mehajabeen Arcade, Chakala Cross Lane, Mumbai, Mumbai, Maharashtra, Masjid Bandar, Mumbai - 400003, Dist.Mumbai, Maharashtra",8047673711,
"100% Cotton Black Sleeping Bag, Packaging Type: Box, 1-2 Years",https://www.indiamart.com/proddetail/sleeping-bag-10610284948.html?pos=109&kwd=baby wraps&tags=BA||||8601.347|Price|product|||TS|rsf:gd-|-stype:attr=1|qr_nm:gd|res:RC4|com-cf:nl|ptrs:na|ktp:N0|mc:22737|mtp:S|qry_typ:P|lang:en|wc:2|cs:8837|v=4,Myyra,https://www.indiamart.com/myyra-jaipur/?pos=109&kwd=baby wraps&tags=BA||||8601.347|Price|product|||TS|rsf:gd-|-stype:attr=1|qr_nm:gd|res:RC4|com-cf:nl|ptrs:na|ktp:N0|mc:22737|mtp:S|qry_typ:P|lang:en|wc:2|cs:8837|v=4,False,Barh Shyopur,Jaipur,"E-966, 3rd Phase, RIICO, Barh Shyopur, Jaipur - 302022, Dist.Jaipur, Rajasthan",8046071280,
"mix Cotton Organic Muslin Baby Swaddle Wrap, Size: Small",https://www.indiamart.com/proddetail/organic-muslin-baby-swaddle-wrap-2852736202262.html?pos=110&kwd=baby wraps&tags=BA||||8211.142|Price|product|||TS|rsf:gd-|-stype:attr=1|qr_nm:gd|res:RC4|com-cf:nl|ptrs:na|ktp:N0|mc:22737|mtp:S|qry_typ:P|lang:en|wc:2|cs:8837|v=4,P For Panda Baby Products Private Limited,https://www.p4pandababyproducts.com/?pos=110&kwd=baby wraps&tags=BA||||8211.142|Price|product|||TS|rsf:gd-|-stype:attr=1|qr_nm:gd|res:RC4|com-cf:nl|ptrs:na|ktp:N0|mc:22737|mtp:S|qry_typ:P|lang:en|wc:2|cs:8837|v=4,False,Goregaon West,Mumbai,"904 A Wing,9 Th Floor,Triple S Heights,Jakeria Road, Goregaon West, Mumbai - 400064, Dist.Mumbai, Maharashtra",7942710871,
Double Ply Baby Blanket,https://www.indiamart.com/proddetail/double-ply-baby-blanket-2853305880955.html?pos=111&kwd=baby wraps&tags=BA||||8580.032|Price|product|||TS|rsf:gd-|-stype:attr=1|qr_nm:gd|res:RC4|com-cf:nl|ptrs:na|ktp:N0|mc:22737|mtp:S|qry_typ:P|lang:en|wc:2|cs:8837|v=4,Popli Textile Mills,https://www.indiamart.com/popli-textile-mills/?pos=111&kwd=baby wraps&tags=BA||||8580.032|Price|product|||TS|rsf:gd-|-stype:attr=1|qr_nm:gd|res:RC4|com-cf:nl|ptrs:na|ktp:N0|mc:22737|mtp:S|qry_typ:P|lang:en|wc:2|cs:8837|v=4,False,Market,Amritsar,"5 Rama Market, Market, Amritsar - 143001, Dist.Amritsar, Punjab",7942618743,
Plain Baby Bamboo hooded Towels / Wrap,https://www.indiamart.com/proddetail/baby-bamboo-hooded-towels-wrap-27432085955.html?pos=112&kwd=baby wraps&tags=BB||||8387.344|Price|product|||TS|rsf:gd-|-stype:attr=1|qr_nm:gd|res:RC4|com-cf:nl|ptrs:na|ktp:N0|mc:22737|mtp:S|qry_typ:P|lang:en|wc:2|cs:8837|v=4,Gokak Textiles Limited,https://www.indiamart.com/gokak-textiles/?pos=112&kwd=baby wraps&tags=BB||||8387.344|Price|product|||TS|rsf:gd-|-stype:attr=1|qr_nm:gd|res:RC4|com-cf:nl|ptrs:na|ktp:N0|mc:22737|mtp:S|qry_typ:P|lang:en|wc:2|cs:8837|v=4,False,Gokak Falls,Gokak,"Gokak Falls, Gokak, 591, 308, Gokak Falls, Gokak - 591308, Dist.Belgaum, Karnataka",8047644154,
"100% Cotton Black Sleeping Bag, Packaging Type: Box, 1-2 Years",https://www.indiamart.com/proddetail/sleeping-bag-10610284948.html?pos=113&kwd=baby wraps&tags=BA||||8601.347|Price|product|||TS|rsf:gd-|-stype:attr=1|qr_nm:gd|res:RC4|com-cf:nl|ptrs:na|ktp:N0|mc:22737|mtp:S|qry_typ:P|lang:en|wc:2|cs:8837|v=4,Myyra,https://www.indiamart.com/myyra-jaipur/?pos=113&kwd=baby wraps&tags=BA||||8601.347|Price|product|||TS|rsf:gd-|-stype:attr=1|qr_nm:gd|res:RC4|com-cf:nl|ptrs:na|ktp:N0|mc:22737|mtp:S|qry_typ:P|lang:en|wc:2|cs:8837|v=4,False,Barh Shyopur,Jaipur,"E-966, 3rd Phase, RIICO, Barh Shyopur, Jaipur - 302022, Dist.Jaipur, Rajasthan",8046071280,
"Printed DVK Handicraft shell design baby swaddle soft baby wrap, Size: 40*40 Inches,40x60""",https://www.indiamart.com/proddetail/dvk-handicraft-shell-design-baby-swaddle-soft-baby-wrap-19188047530.html?pos=114&kwd=baby wraps&tags=BA||||8601.347|Price|product|||TS|rsf:gd-|-stype:attr=1|qr_nm:gd|res:RC4|com-cf:nl|ptrs:na|ktp:N0|mc:22737|mtp:S|qry_typ:P|lang:en|wc:2|cs:8837|v=4,DVK Handicraft Private Limited,https://www.dvkhandicraft.net/?pos=114&kwd=baby wraps&tags=BA||||8601.347|Price|product|||TS|rsf:gd-|-stype:attr=1|qr_nm:gd|res:RC4|com-cf:nl|ptrs:na|ktp:N0|mc:22737|mtp:S|qry_typ:P|lang:en|wc:2|cs:8837|v=4,True,Vaishali Nagar,Jaipur,"B-24, Ground Floor Lalrpura Aayodhya Nagar Vaisha Gandhi Path, Vaishali Nagar, Vaishali Nagar, Jaipur - 302021, Dist.Jaipur, Rajasthan",8048608928,
"Fleece Multicolor Baby Blankets, Size: Singe",https://www.indiamart.com/proddetail/baby-blankets-2854209931488.html?pos=115&kwd=baby wraps&tags=A||||8752.144|Price|proxy|||TS|rsf:gd-|-stype:attr=1|qr_nm:gd|res:RC4|com-cf:nl|ptrs:na|ktp:N0|mc:22737|mtp:S|qry_typ:P|lang:en|wc:2|cs:8837|v=4,Verma Enterprises,https://www.styaloindia.com/?pos=115&kwd=baby wraps&tags=A||||8752.144|Price|proxy|||TS|rsf:gd-|-stype:attr=1|qr_nm:gd|res:RC4|com-cf:nl|ptrs:na|ktp:N0|mc:22737|mtp:S|qry_typ:P|lang:en|wc:2|cs:8837|v=4,False,Samaypur,New Delhi,"Plot No.180/1-B, Kh.No. 955/1, 1st, Block-C, Raja Vihar, Siraspur, Badli, North West Delhi, Samaypur, New Delhi - 110042, Dist.Delhi, Delhi",8047654672,
"Cotton Multicolor Baby Hooded Wrap, Size: Large",https://www.indiamart.com/proddetail/baby-hooded-wrap-2854718947862.html?pos=116&kwd=baby wraps&tags=BA||||8228.275|Price|product|||NA|rsf:gd-|-stype:attr=1|qr_nm:gd|res:RC4|com-cf:nl|ptrs:na|ktp:N0|mc:22737|mtp:S|qry_typ:P|lang:en|wc:2|cs:8837|v=4,Shishu Apparels,https://www.indiamart.com/shishu-apparels/?pos=116&kwd=baby wraps&tags=BA||||8228.275|Price|product|||NA|rsf:gd-|-stype:attr=1|qr_nm:gd|res:RC4|com-cf:nl|ptrs:na|ktp:N0|mc:22737|mtp:S|qry_typ:P|lang:en|wc:2|cs:8837|v=4,False,,Ahmedabad,"62, Laxmi Vishnu Market, Gheekanta Road, Ghee Kanta, Ahmedabad - 380001, Dist.Ahmedabad, Gujarat",7949322683,
"Multicolor Cotton Soft Mulmul Baby Swaddle wrap, Size: Medium",https://www.indiamart.com/proddetail/soft-mulmul-baby-swaddle-wrap-2851325379797.html?pos=117&kwd=baby wraps&tags=A||||8810.737|Price|product|||NA|rsf:gd-|-stype:attr=1|qr_nm:gd|res:RC4|com-cf:nl|ptrs:na|ktp:N0|mc:22737|mtp:S|qry_typ:P|lang:en|wc:2|cs:8837|v=4,Mifa Handlooms,https://www.indiamart.com/mifa-handlooms/?pos=117&kwd=baby wraps&tags=A||||8810.737|Price|product|||NA|rsf:gd-|-stype:attr=1|qr_nm:gd|res:RC4|com-cf:nl|ptrs:na|ktp:N0|mc:22737|mtp:S|qry_typ:P|lang:en|wc:2|cs:8837|v=4,False,,Saharanpur,"Opp- Zakiya Masjid Near Rashid Garden,Vardhman Colony,Chilkana Road,Saharanpur,Saharanpur, Saharanpur - 247001, Dist.Saharanpur, Uttar Pradesh",8069033754,858
White Girl & Boy Baby Swaddle Wrap Cloth,https://www.indiamart.com/proddetail/baby-swaddle-wrap-cloth-21948908291.html?pos=120&kwd=baby wraps&tags=A||||8211.142|Price|product|||NA|rsf:gd-|-stype:attr=1|qr_nm:gd|res:RC4|com-cf:nl|ptrs:na|ktp:N0|mc:22737|mtp:S|qry_typ:P|lang:en|wc:2|cs:8837|v=4,Rachna Creation,https://www.indiamart.com/rachna-creation/?pos=120&kwd=baby wraps&tags=A||||8211.142|Price|product|||NA|rsf:gd-|-stype:attr=1|qr_nm:gd|res:RC4|com-cf:nl|ptrs:na|ktp:N0|mc:22737|mtp:S|qry_typ:P|lang:en|wc:2|cs:8837|v=4,False,Dadar (East),Mumbai,"Plot No. 155, Tarwala House, Shop No. 5 Saint Paul Street, Hindmata, Dadar (East), Mumbai - 400014, Dist.Mumbai, Maharashtra",8047681234,
Aara Exports,,Aara Exports,https://www.indiamart.com/aara-exports-erode/?pos=119&kwd=baby wraps&tags=BA||||8668.838||bl|||TS|rsf:gd-|-stype:attr=1|qr_nm:gd|res:RC4|com-cf:nl|ptrs:na|ktp:N0|mc:22737|mtp:S|qry_typ:P|lang:en|wc:2|cs:8837|v=4,False,Karungalpalayam,Erode,"193/4, Ramamoorthi Nagar, Karungalpalayam, Karungalpalayam, Erode - 638003, Dist.Erode, Tamil Nadu",7949372457,
White Girl & Boy Baby Swaddle Wrap Cloth,https://www.indiamart.com/proddetail/baby-swaddle-wrap-cloth-21948908291.html?pos=120&kwd=baby wraps&tags=A||||8211.142|Price|product|||NA|rsf:gd-|-stype:attr=1|qr_nm:gd|res:RC4|com-cf:nl|ptrs:na|ktp:N0|mc:22737|mtp:S|qry_typ:P|lang:en|wc:2|cs:8837|v=4,Rachna Creation,https://www.indiamart.com/rachna-creation/?pos=120&kwd=baby wraps&tags=A||||8211.142|Price|product|||NA|rsf:gd-|-stype:attr=1|qr_nm:gd|res:RC4|com-cf:nl|ptrs:na|ktp:N0|mc:22737|mtp:S|qry_typ:P|lang:en|wc:2|cs:8837|v=4,False,Dadar (East),Mumbai,"Plot No. 155, Tarwala House, Shop No. 5 Saint Paul Street, Hindmata, Dadar (East), Mumbai - 400014, Dist.Mumbai, Maharashtra",8047681234,
Hooded Star Printed Baby Wrap Wearable Blanket For Baby Boys and Girls,https://www.indiamart.com/proddetail/hooded-star-printed-baby-wrap-wearable-blanket-for-baby-boys-and-girls-2854434392188.html?pos=121&kwd=baby wraps&tags=BA||||8661.854|Price|proxy|||MDC|rsf:gd-|-stype:attr=1|qr_nm:gd|res:RC4|com-cf:nl|ptrs:na|ktp:N0|mc:22737|mtp:S|qry_typ:P|lang:en|wc:2|cs:8837|v=4,S.R Woollen Textile,https://www.indiamart.com/srwoollentextile/?pos=121&kwd=baby wraps&tags=BA||||8661.854|Price|proxy|||MDC|rsf:gd-|-stype:attr=1|qr_nm:gd|res:RC4|com-cf:nl|ptrs:na|ktp:N0|mc:22737|mtp:S|qry_typ:P|lang:en|wc:2|cs:8837|v=4,False,Old Ludhiana,Ludhiana,"435, Chauri Sarak, Bazzrian Mohalla, Old Ludhiana, Ludhiana - 141008, Dist.Ludhiana, Punjab",7942873909,
Cotton Baby Wraps,https://www.indiamart.com/proddetail/baby-wraps-2854769947973.html?pos=122&kwd=baby wraps&tags=BB||||8624.416|Price|product|||NA|rsf:gd-|-stype:attr=1|qr_nm:gd|res:RC4|com-cf:nl|ptrs:na|ktp:N0|mc:22737|mtp:S|qry_typ:P|lang:en|wc:2|cs:8837|v=4,Bachpan Kids Collection,https://www.indiamart.com/company/58229368/?pos=122&kwd=baby wraps&tags=BB||||8624.416|Price|product|||NA|rsf:gd-|-stype:attr=1|qr_nm:gd|res:RC4|com-cf:nl|ptrs:na|ktp:N0|mc:22737|mtp:S|qry_typ:P|lang:en|wc:2|cs:8837|v=4,False,,Hisar,"Shop No. 2, Near Bala Ji Hospital, Opposite Silver Square Complex, Kanahaiya Complex, Hisar, Hisar - 125001, Dist.Hisar, Haryana",8048370676,3438
Pink Cotton Newborn Baby Wraps,https://www.indiamart.com/proddetail/newborn-baby-wraps-23735027491.html?pos=123&kwd=baby wraps&tags=BB||||8416.376|Price|product|||NA|rsf:gd-|-stype:attr=1|qr_nm:gd|res:RC4|com-cf:nl|ptrs:na|ktp:N0|mc:22737|mtp:S|qry_typ:P|lang:en|wc:2|cs:8837|v=4,JM Lifestyle,https://www.indiamart.com/jmlifestyle/?pos=123&kwd=baby wraps&tags=BB||||8416.376|Price|product|||NA|rsf:gd-|-stype:attr=1|qr_nm:gd|res:RC4|com-cf:nl|ptrs:na|ktp:N0|mc:22737|mtp:S|qry_typ:P|lang:en|wc:2|cs:8837|v=4,False,,Kannur,"5/78C, Po. Pathayakunnu ,Valliyayi, Thalassery, Pathipalam,, Kannur - 670691, Dist.Kannur, Kerala",8069033743,375
Orange Cotton Printed Baby Wraps,https://www.indiamart.com/proddetail/printed-baby-wraps-24037280448.html?pos=124&kwd=baby wraps&tags=BB||||9839.57|Price|product|||NA|rsf:gd-|-stype:attr=1|qr_nm:gd|res:RC4|com-cf:nl|ptrs:na|ktp:N0|mc:22737|mtp:S|qry_typ:P|lang:en|wc:2|cs:8837|v=4,Parents Care,https://www.indiamart.com/parentscare-kolkata/?pos=124&kwd=baby wraps&tags=BB||||9839.57|Price|product|||NA|rsf:gd-|-stype:attr=1|qr_nm:gd|res:RC4|com-cf:nl|ptrs:na|ktp:N0|mc:22737|mtp:S|qry_typ:P|lang:en|wc:2|cs:8837|v=4,False,,Kolkata,"10H/2, Bibi Bagan Lane, Kolkata - 700015, Dist.Kolkata, West Bengal",8048969289,
Cotton Baby Muslin Wraps Clothes,https://www.indiamart.com/proddetail/baby-muslin-wraps-clothes-24150379288.html?pos=125&kwd=baby wraps&tags=BB||||8954.051|Price|product|||NA|rsf:gd-|-stype:attr=1|qr_nm:gd|res:RC4|com-cf:nl|ptrs:na|ktp:N0|mc:22737|mtp:S|qry_typ:P|lang:en|wc:2|cs:8837|v=4,Deepak Brothers,https://www.indiamart.com/deepakbrothers-chennai/?pos=125&kwd=baby wraps&tags=BB||||8954.051|Price|product|||NA|rsf:gd-|-stype:attr=1|qr_nm:gd|res:RC4|com-cf:nl|ptrs:na|ktp:N0|mc:22737|mtp:S|qry_typ:P|lang:en|wc:2|cs:8837|v=4,False,Mogappair East,Chennai,"335, Pugalenthi Salai, Mogappair East, Chennai - 600037, Dist.Chennai, Tamil Nadu",8048984728,
"Cotton Baby Muslin Wraps Cloths, Age Group: Newly Born",https://www.indiamart.com/proddetail/baby-muslin-wraps-cloths-21648463491.html?pos=126&kwd=baby wraps&tags=BB||||8211.142|Price|product|||NA|rsf:gd-|-stype:attr=1|qr_nm:gd|res:RC4|com-cf:nl|ptrs:na|ktp:N0|mc:22737|mtp:S|qry_typ:P|lang:en|wc:2|cs:8837|v=4,Dhitta Apparel,https://www.indiamart.com/raj-apparelsmaharashtra/?pos=126&kwd=baby wraps&tags=BB||||8211.142|Price|product|||NA|rsf:gd-|-stype:attr=1|qr_nm:gd|res:RC4|com-cf:nl|ptrs:na|ktp:N0|mc:22737|mtp:S|qry_typ:P|lang:en|wc:2|cs:8837|v=4,False,,Mumbai,"7th Floor B 702 Yogi Nagar, Eksar Road Royal Accord, Mumbai - 400091, Dist.Mumbai, Maharashtra",8043889456,
Pink blue and yellow Plan malmal baby wraps,https://www.indiamart.com/proddetail/plan-malmal-baby-wraps-2850558756333.html?pos=127&kwd=baby wraps&tags=BA||||8211.142|Price|product|||NA|rsf:gd-|-stype:attr=1|qr_nm:gd|res:RC4|com-cf:nl|ptrs:na|ktp:N0|mc:22737|mtp:S|qry_typ:P|lang:en|wc:2|cs:8837|v=4,Keval Enterprises,https://www.indiamart.com/keval-enterprises-mumbai/?pos=127&kwd=baby wraps&tags=BA||||8211.142|Price|product|||NA|rsf:gd-|-stype:attr=1|qr_nm:gd|res:RC4|com-cf:nl|ptrs:na|ktp:N0|mc:22737|mtp:S|qry_typ:P|lang:en|wc:2|cs:8837|v=4,False,Dadar West,Mumbai,"Shop No. 20, Madhani Industrial Estate Senapati Bapat Marg, Dadar West, Mumbai - 400028, Dist.Mumbai, Maharashtra",8048951266,
white Cotton Baby Wrap,https://www.indiamart.com/proddetail/baby-wrap-2850178319212.html?pos=128&kwd=baby wraps&tags=BA||||8706.263||product|||NA|rsf:gd-|-stype:attr=1|qr_nm:gd|res:RC4|com-cf:nl|ptrs:na|ktp:N0|mc:22737|mtp:S|qry_typ:P|lang:en|wc:2|cs:8837|v=4,Aarthia Impex,https://www.indiamart.com/aathia-impex/?pos=128&kwd=baby wraps&tags=BA||||8706.263||product|||NA|rsf:gd-|-stype:attr=1|qr_nm:gd|res:RC4|com-cf:nl|ptrs:na|ktp:N0|mc:22737|mtp:S|qry_typ:P|lang:en|wc:2|cs:8837|v=4,False,Vivekananda Nagar,Karur,",6-A,,VIVEKANANDHA NAGAR,SENGUNTHAPURAM 11TH CROSS,, Vivekananda Nagar, Karur - 639002, Dist.Karur, Tamil Nadu",8069013454,970
Muslin Swaddle,https://www.indiamart.com/proddetail/muslin-swaddle-26899787112.html?pos=129&kwd=baby wraps&tags=BB||||8706.263|Price|product|||NA|rsf:gd-|-stype:attr=1|qr_nm:gd|res:RC4|com-cf:nl|ptrs:na|ktp:N0|mc:22737|mtp:S|qry_typ:P|lang:en|wc:2|cs:8837|v=4,Bliss Beauty Soap,https://www.indiamart.com/bliss-beauty-soap/?pos=129&kwd=baby wraps&tags=BB||||8706.263|Price|product|||NA|rsf:gd-|-stype:attr=1|qr_nm:gd|res:RC4|com-cf:nl|ptrs:na|ktp:N0|mc:22737|mtp:S|qry_typ:P|lang:en|wc:2|cs:8837|v=4,False,LGB Nagar,Karur,"LGB Nagar, LGB Nagar, Karur - 639001, Dist.Karur, Tamil Nadu",8045849773,168
Cotton Unisex Baby Swaddle Wrap,https://www.indiamart.com/proddetail/baby-swaddle-wrap-2854632597488.html?pos=130&kwd=baby wraps&tags=BB||||8752.144|Price|product|||NA|rsf:gd-|-stype:attr=1|qr_nm:gd|res:RC4|com-cf:nl|ptrs:na|ktp:N0|mc:22737|mtp:S|qry_typ:P|lang:en|wc:2|cs:8837|v=4,Aurusco Traders,https://www.indiamart.com/company/85889684/?pos=130&kwd=baby wraps&tags=BB||||8752.144|Price|product|||NA|rsf:gd-|-stype:attr=1|qr_nm:gd|res:RC4|com-cf:nl|ptrs:na|ktp:N0|mc:22737|mtp:S|qry_typ:P|lang:en|wc:2|cs:8837|v=4,False,Lajpat Nagar 2,New Delhi,", Lajpat Nagar 2, New Delhi - 110024, Dist.Delhi, Delhi",8048249727,4549
White And Yellow Baby Cotton Wrapper,https://www.indiamart.com/proddetail/baby-cotton-wrapper-23047688933.html?pos=131&kwd=baby wraps&tags=BB||||8275.613|Price|product|||NA|rsf:gd-|-stype:attr=1|qr_nm:gd|res:RC4|com-cf:nl|ptrs:na|ktp:N0|mc:22737|mtp:S|qry_typ:P|lang:en|wc:2|cs:8837|v=4,K K Kids Wear,https://www.indiamart.com/kkkidswear/?pos=131&kwd=baby wraps&tags=BB||||8275.613|Price|product|||NA|rsf:gd-|-stype:attr=1|qr_nm:gd|res:RC4|com-cf:nl|ptrs:na|ktp:N0|mc:22737|mtp:S|qry_typ:P|lang:en|wc:2|cs:8837|v=4,False,Near Ram Temple,Mapusa,"H NO 18/5,,RAM NAGAR,COLVALE H No 18/5, Ram Nagar, Colvale, North Goa,403513,Mapusa, Near Ram Temple, Mapusa - 403502, Dist.North Goa, Goa",8047835522,
"Soft Fabric Blue,White And Pink Baby Wrapper Cloth",https://www.indiamart.com/proddetail/baby-wrapper-cloth-25635696412.html?pos=132&kwd=baby wraps&tags=BB||||8747.203|Price|product|||NA|rsf:gd-|-stype:attr=1|qr_nm:gd|res:RC4|com-cf:nl|ptrs:na|ktp:N0|mc:22737|mtp:S|qry_typ:P|lang:en|wc:2|cs:8837|v=4,Online Vonline,https://www.indiamart.com/online-vonline/?pos=132&kwd=baby wraps&tags=BB||||8747.203|Price|product|||NA|rsf:gd-|-stype:attr=1|qr_nm:gd|res:RC4|com-cf:nl|ptrs:na|ktp:N0|mc:22737|mtp:S|qry_typ:P|lang:en|wc:2|cs:8837|v=4,False,rajeev colony,Panipat,"1643/11, Street No.6 opp. g.n vidya mandir school, rajeev colony, Panipat - 132103, Dist.Panipat, Haryana",8047655064,
White (Base) Printed 100%Cotton Baby Muslin Swaddle Cloth- Pack of 3 pieces,https://www.indiamart.com/proddetail/100-cotton-baby-muslin-swaddle-cloth-pack-of-3-pieces-23697152197.html?pos=133&kwd=baby wraps&tags=BB||||8663.873|Price|product|||NA|rsf:gd-|-stype:attr=1|qr_nm:gd|res:RC4|com-cf:nl|ptrs:na|ktp:N0|mc:22737|mtp:S|qry_typ:P|lang:en|wc:2|cs:8837|v=4,Easyfaind,https://www.indiamart.com/easyfaind/?pos=133&kwd=baby wraps&tags=BB||||8663.873|Price|product|||NA|rsf:gd-|-stype:attr=1|qr_nm:gd|res:RC4|com-cf:nl|ptrs:na|ktp:N0|mc:22737|mtp:S|qry_typ:P|lang:en|wc:2|cs:8837|v=4,False,Maratalli,Bengaluru,"986, 2nd Cross Road, 7th Main Road, Tulasi Theatre Road Chowdeshwari Layout, Maratalli, North Urban, Maratalli, Bengaluru - 560037, Dist.Bengaluru, Karnataka",8047623471,
Muslin Swaddle,https://www.indiamart.com/proddetail/muslin-swaddle-2854719829973.html?pos=134&kwd=baby wraps&tags=BB||||8211.142|Price|product|||NA|rsf:gd-|-stype:attr=1|qr_nm:gd|res:RC4|com-cf:nl|ptrs:na|ktp:N0|mc:22737|mtp:S|qry_typ:P|lang:en|wc:2|cs:8837|v=4,Baby Care,https://www.indiamart.com/babycare-227325739/?pos=134&kwd=baby wraps&tags=BB||||8211.142|Price|product|||NA|rsf:gd-|-stype:attr=1|qr_nm:gd|res:RC4|com-cf:nl|ptrs:na|ktp:N0|mc:22737|mtp:S|qry_typ:P|lang:en|wc:2|cs:8837|v=4,False,,Mumbai,"Ground Floor Shop No 4 Upper Govind Nagar Road Dhruv Heights Chs Ltd, Mumbai - 400097, Dist.Mumbai, Maharashtra",8048249780,9707
Cotton Pink Baby wrapper,https://www.indiamart.com/proddetail/baby-wrapper-2854867805930.html?pos=135&kwd=baby wraps&tags=BB||||8319.425|Price|product|||NA|rsf:gd-|-stype:attr=1|qr_nm:gd|res:RC4|com-cf:nl|ptrs:na|ktp:N0|mc:22737|mtp:S|qry_typ:P|lang:en|wc:2|cs:8837|v=4,Vikas Fashion Agency,https://www.indiamart.com/vikas-fashion-agency/?pos=135&kwd=baby wraps&tags=BB||||8319.425|Price|product|||NA|rsf:gd-|-stype:attr=1|qr_nm:gd|res:RC4|com-cf:nl|ptrs:na|ktp:N0|mc:22737|mtp:S|qry_typ:P|lang:en|wc:2|cs:8837|v=4,False,,Jodhpur,"45 Amrit Nagar Pal Road Jodhpur Jodhpur, Jodhpur - 342001, Dist.Jodhpur, Rajasthan",8048370641,4212
"White Baby Swaddle Wrapper Muslin, Size: Medium",https://www.indiamart.com/proddetail/baby-swaddle-wrapper-muslin-2853698901491.html?pos=136&kwd=baby wraps&tags=BA||||8230.883|Price|product|||NA|rsf:gd-|-stype:attr=1|qr_nm:gd|res:RC4|com-cf:nl|ptrs:na|ktp:N0|mc:22737|mtp:S|qry_typ:P|lang:en|wc:2|cs:8837|v=4,Pooja Enterprise,https://www.indiamart.com/poojaenterprise-159125404/?pos=136&kwd=baby wraps&tags=BA||||8230.883|Price|product|||NA|rsf:gd-|-stype:attr=1|qr_nm:gd|res:RC4|com-cf:nl|ptrs:na|ktp:N0|mc:22737|mtp:S|qry_typ:P|lang:en|wc:2|cs:8837|v=4,False,,Surat,"G4, Achkan Bazaar Baroda Prestige, Varachha, Surat, Surat - 395006, Dist.Surat, Gujarat",8041011891,
Cotton Wrapping Cloth,https://www.indiamart.com/proddetail/cotton-wrapping-cloth-23216645662.html?pos=137&kwd=baby wraps&tags=BA||||8211.142|Price|product|||NA|rsf:gd-|-stype:attr=1|qr_nm:gd|res:RC4|com-cf:nl|ptrs:na|ktp:N0|mc:22737|mtp:S|qry_typ:P|lang:en|wc:2|cs:8837|v=4,Siddi Creation,https://www.indiamart.com/siddhicreation-76285775/?pos=137&kwd=baby wraps&tags=BA||||8211.142|Price|product|||NA|rsf:gd-|-stype:attr=1|qr_nm:gd|res:RC4|com-cf:nl|ptrs:na|ktp:N0|mc:22737|mtp:S|qry_typ:P|lang:en|wc:2|cs:8837|v=4,False,,Mumbai,"7/17 Near Jay Shastri Nagar, Mulund Colony New Rahul Nagar Mulund West, Mumbai - 400082, Dist.Mumbai, Maharashtra",8047841034,
"Multicolor Single Layer Baby Cotton Hood Wrapper, Size: Medium",https://www.indiamart.com/proddetail/single-layer-baby-cotton-hood-wrapper-2853374996348.html?pos=138&kwd=baby wraps&tags=BA||||8207.956|Price|product|||NA|rsf:gd-|-stype:attr=1|qr_nm:gd|res:RC4|com-cf:nl|ptrs:na|ktp:N0|mc:22737|mtp:S|qry_typ:P|lang:en|wc:2|cs:8837|v=4,Daivya Enterprise,https://www.indiamart.com/daivya-enterprise-sanand/?pos=138&kwd=baby wraps&tags=BA||||8207.956|Price|product|||NA|rsf:gd-|-stype:attr=1|qr_nm:gd|res:RC4|com-cf:nl|ptrs:na|ktp:N0|mc:22737|mtp:S|qry_typ:P|lang:en|wc:2|cs:8837|v=4,False,Bol,Sanand,"Shop No-1, Survey No-885, Near Motipura Bus Stand, Bol ,Sanad, GIDC, Bol, Sanand - 382170, Dist.Ahmedabad, Gujarat",7949224901,
Baby Hooded Wrappers,https://www.indiamart.com/proddetail/baby-hooded-wrappers-22427551830.html?pos=139&kwd=baby wraps&tags=BA||||8663.873|Price|product|||NA|rsf:gd-|-stype:attr=1|qr_nm:gd|res:RC4|com-cf:nl|ptrs:na|ktp:N0|mc:22737|mtp:S|qry_typ:P|lang:en|wc:2|cs:8837|v=4,Mahabir Trading,https://www.indiamart.com/mahabir-trading-bengaluru/?pos=139&kwd=baby wraps&tags=BA||||8663.873|Price|product|||NA|rsf:gd-|-stype:attr=1|qr_nm:gd|res:RC4|com-cf:nl|ptrs:na|ktp:N0|mc:22737|mtp:S|qry_typ:P|lang:en|wc:2|cs:8837|v=4,False,Yelahanka,Bengaluru,"# 16 , Ishaaq Layout Doddaballapur Main Road, Yelahanka, Bengaluru - 560064, Dist.Bengaluru, Karnataka",8047688843,
Muslin Swaddle Wrap,https://www.indiamart.com/proddetail/muslin-swaddle-wrap-21399912330.html?pos=140&kwd=baby wraps&tags=BB||||8211.142|Price|product|||NA|rsf:gd-|-stype:attr=1|qr_nm:gd|res:RC4|com-cf:nl|ptrs:na|ktp:N0|mc:22737|mtp:S|qry_typ:P|lang:en|wc:2|cs:8837|v=4,Supreme Apparels,https://www.indiamart.com/supremeapparels-mumbai/?pos=140&kwd=baby wraps&tags=BB||||8211.142|Price|product|||NA|rsf:gd-|-stype:attr=1|qr_nm:gd|res:RC4|com-cf:nl|ptrs:na|ktp:N0|mc:22737|mtp:S|qry_typ:P|lang:en|wc:2|cs:8837|v=4,False,kandvali east,Mumbai,"FLAT NO- 305,,SHREE VALLABH KUNJ,MATHURADAS ROAD,,KANDIVALI WEST m d road,400001,Mumbai, kandvali east, Mumbai - 400067, Dist.Mumbai, Maharashtra",8046054755,
White Cotton Organic muslin baby wrap swaddle cloth,https://www.indiamart.com/proddetail/organic-muslin-baby-wrap-swaddle-cloth-24209089712.html?pos=141&kwd=baby wraps&tags=BB||||8661.854||product|||NA|rsf:gd-|-stype:attr=1|qr_nm:gd|res:RC4|com-cf:nl|ptrs:na|ktp:N0|mc:22737|mtp:S|qry_typ:P|lang:en|wc:2|cs:8837|v=4,Gopal Darshan Textile,https://www.indiamart.com/gopal-darshan-textiles/?pos=141&kwd=baby wraps&tags=BB||||8661.854||product|||NA|rsf:gd-|-stype:attr=1|qr_nm:gd|res:RC4|com-cf:nl|ptrs:na|ktp:N0|mc:22737|mtp:S|qry_typ:P|lang:en|wc:2|cs:8837|v=4,False,,Ludhiana,"3929/3 Hargobind Pura 4, Ludhiana - 141008, Dist.Ludhiana, Punjab",8048956657,
"Plain 100% COTTON SOFT Newborn Baby Wrapper Cover, White and Pink",https://www.indiamart.com/proddetail/100-cotton-soft-newborn-baby-wrapper-cover-26234512148.html?pos=142&kwd=baby wraps&tags=BB||||8823.154|Price|product|||NA|rsf:gd-|-stype:attr=1|qr_nm:gd|res:RC4|com-cf:nl|ptrs:na|ktp:N0|mc:22737|mtp:S|qry_typ:P|lang:en|wc:2|cs:8837|v=4,Care Plus,https://www.indiamart.com/care-plusagra/?pos=142&kwd=baby wraps&tags=BB||||8823.154|Price|product|||NA|rsf:gd-|-stype:attr=1|qr_nm:gd|res:RC4|com-cf:nl|ptrs:na|ktp:N0|mc:22737|mtp:S|qry_typ:P|lang:en|wc:2|cs:8837|v=4,False,,Agra,"31/182/1B, Sanjay Nagar, Near Navjot Public School, Ukkahara, Agra - 282001, Dist.Agra, Uttar Pradesh",8043865020,
white Cotton Printed Muslin Swaddles,https://www.indiamart.com/proddetail/printed-muslin-swaddles-24006956133.html?pos=143&kwd=baby wraps&tags=BB||||8457.459|Price|product|||NA|rsf:gd-|-stype:attr=1|qr_nm:gd|res:RC4|com-cf:nl|ptrs:na|ktp:N0|mc:22737|mtp:S|qry_typ:P|lang:en|wc:2|cs:8837|v=4,Knead Your Dream,https://www.indiamart.com/knead-your-dream/?pos=143&kwd=baby wraps&tags=BB||||8457.459|Price|product|||NA|rsf:gd-|-stype:attr=1|qr_nm:gd|res:RC4|com-cf:nl|ptrs:na|ktp:N0|mc:22737|mtp:S|qry_typ:P|lang:en|wc:2|cs:8837|v=4,False,Kakkur,Kozhikode,"586 Kakkur Kakkuparambath Chelannur, Kakkur, Kozhikode - 673613, Dist.Kozhikode, Kerala",8043885486,
White & Grey Cotton Baby Swaddle Wrap,https://www.indiamart.com/proddetail/baby-swaddle-wrap-2849665618697.html?pos=144&kwd=baby wraps&tags=BB||||8626.744|Price|product|||NA|rsf:gd-|-stype:attr=1|qr_nm:gd|res:RC4|com-cf:nl|ptrs:na|ktp:N0|mc:22737|mtp:S|qry_typ:P|lang:en|wc:2|cs:8837|v=4,Sedulous Clothings,https://www.indiamart.com/sedulous-clothings/?pos=144&kwd=baby wraps&tags=BB||||8626.744|Price|product|||NA|rsf:gd-|-stype:attr=1|qr_nm:gd|res:RC4|com-cf:nl|ptrs:na|ktp:N0|mc:22737|mtp:S|qry_typ:P|lang:en|wc:2|cs:8837|v=4,False,,Tiruppur,"1/402 KNP Colony Post K Chettipalayam Dharapuram Road, Tiruppur - 641608, Dist.Coimbatore, Tamil Nadu",7942794994,
SHERPA FLANNEL STAR WINTER WRAPPER FOR BABY,https://www.indiamart.com/proddetail/sherpa-flannel-star-winter-wrapper-for-baby-2852328643955.html?pos=145&kwd=baby wraps&tags=BB||||8661.854|Price|product|||NA|rsf:gd-|-stype:attr=1|qr_nm:gd|res:RC4|com-cf:nl|ptrs:na|ktp:N0|mc:22737|mtp:S|qry_typ:P|lang:en|wc:2|cs:8837|v=4,DAYAL DASS TRADERS,https://www.indiamart.com/dayaldasstraders/?pos=145&kwd=baby wraps&tags=BB||||8661.854|Price|product|||NA|rsf:gd-|-stype:attr=1|qr_nm:gd|res:RC4|com-cf:nl|ptrs:na|ktp:N0|mc:22737|mtp:S|qry_typ:P|lang:en|wc:2|cs:8837|v=4,False,,Ludhiana,"123, New Raj Guru Nagar,, Ludhiana - 141001, Dist.Ludhiana, Punjab",8047650977,
Baby Wrap,,Saraswati Textiles,https://www.indiamart.com/saraswatitextiles-panipat/?pos=146&kwd=baby wraps&tags=BA||||8747.203|Price|product|||NA|rsf:gd-|-stype:attr=1|qr_nm:gd|res:RC4|com-cf:nl|ptrs:na|ktp:N0|mc:22737|mtp:S|qry_typ:P|lang:en|wc:2|cs:8837|v=4,False,opp geeta market panipat,Panipat,"0 Kutani Road Near Dcb Biscuit Factory Panipat, opp geeta market panipat, Panipat - 132103, Dist.Panipat, Haryana",8069033797,938
Pink Cotton Stripes Baby Wrap,https://www.indiamart.com/proddetail/stripes-baby-wrap-23030409888.html?pos=147&kwd=baby wraps&tags=BB||||8752.144|Price|product|||NA|rsf:gd-|-stype:attr=1|qr_nm:gd|res:RC4|com-cf:nl|ptrs:na|ktp:N0|mc:22737|mtp:S|qry_typ:P|lang:en|wc:2|cs:8837|v=4,Anu Creations,https://www.indiamart.com/anucreations-delhi/?pos=147&kwd=baby wraps&tags=BB||||8752.144|Price|product|||NA|rsf:gd-|-stype:attr=1|qr_nm:gd|res:RC4|com-cf:nl|ptrs:na|ktp:N0|mc:22737|mtp:S|qry_typ:P|lang:en|wc:2|cs:8837|v=4,False,Karol Bagh,New Delhi,"4312, 2nd Floor, Gali Bahuji, Bahadur Garh Road, Sadar Bazar, Central Delhi, Karol Bagh, New Delhi - 110006, Dist.Delhi, Delhi",8047657412,
Baby Hodded Wreper Blacked Soft Cotton,https://www.indiamart.com/proddetail/baby-hodded-wreper-blacked-soft-cotton-2849268949148.html?pos=148&kwd=baby wraps&tags=BB||||8223.226|Price|product|||NA|rsf:gd-|-stype:attr=1|qr_nm:gd|res:RC4|com-cf:nl|ptrs:na|ktp:N0|mc:22737|mtp:S|qry_typ:P|lang:en|wc:2|cs:8837|v=4,Faruki Business House,https://www.indiamart.com/farukibusinesshouse/?pos=148&kwd=baby wraps&tags=BB||||8223.226|Price|product|||NA|rsf:gd-|-stype:attr=1|qr_nm:gd|res:RC4|com-cf:nl|ptrs:na|ktp:N0|mc:22737|mtp:S|qry_typ:P|lang:en|wc:2|cs:8837|v=4,False,,Thane,"2a/604 Monarch&Qureshi Proposed Soc Ltd,Sra Scheme Qureshi Comp Patelwadi Behram Baug Jogeshwari Wes, Thane - 400102, Dist.Thane, Maharashtra",7942789411,
Printed Baby Swaddle Wrap,https://www.indiamart.com/proddetail/baby-swaddle-wrap-22378052012.html?pos=149&kwd=baby wraps&tags=BB||||8500.97|Price|product|||NA|rsf:gd-|-stype:attr=1|qr_nm:gd|res:RC4|com-cf:nl|ptrs:na|ktp:N0|mc:22737|mtp:S|qry_typ:P|lang:en|wc:2|cs:8837|v=4,G.K. Tradings,https://www.indiamart.com/g-k-tradings/?pos=149&kwd=baby wraps&tags=BB||||8500.97|Price|product|||NA|rsf:gd-|-stype:attr=1|qr_nm:gd|res:RC4|com-cf:nl|ptrs:na|ktp:N0|mc:22737|mtp:S|qry_typ:P|lang:en|wc:2|cs:8837|v=4,False,Thriprayar,Thrissur,"Ix/626,627, 628 Triprayar Nattika, Thriprayar, Thrissur - 680566, Dist.Thrissur, Kerala",7942560526,
MOMISY Baby Photography Props Cotton Blanket Swaddle Wrap with Cap (Geometric)-White and Blue,https://www.indiamart.com/proddetail/momisy-baby-photography-props-cotton-blanket-swaddle-wrap-with-cap-geometric-white-and-blue-2853059986255.html?pos=150&kwd=baby wraps&tags=BA||||8228.275|Price|product|||NA|rsf:gd-|-stype:attr=1|qr_nm:gd|res:RC4|com-cf:nl|ptrs:na|ktp:N0|mc:22737|mtp:S|qry_typ:P|lang:en|wc:2|cs:8837|v=4,Momisy,https://www.indiamart.com/momisy/?pos=150&kwd=baby wraps&tags=BA||||8228.275|Price|product|||NA|rsf:gd-|-stype:attr=1|qr_nm:gd|res:RC4|com-cf:nl|ptrs:na|ktp:N0|mc:22737|mtp:S|qry_typ:P|lang:en|wc:2|cs:8837|v=4,False,,Ahmedabad,"A/50 Opp Motilal Park Jaysuvarna Flat Navrangpura,, Ahmedabad - 380009, Dist.Ahmedabad, Gujarat",8043828333,
Multicolor Polka Tots Organic Cotton Baby Swaddle Wrap,https://www.indiamart.com/proddetail/polka-tots-organic-cotton-baby-swaddle-wrap-22953630791.html?pos=151&kwd=baby wraps&tags=BA||||8228.275|Price|product|||NA|rsf:gd-|-stype:attr=1|qr_nm:gd|res:RC4|com-cf:nl|ptrs:na|ktp:N0|mc:22737|mtp:S|qry_typ:P|lang:en|wc:2|cs:8837|v=4,Eclat Globalbiz LLP,https://www.indiamart.com/eclatglobalbiz/?pos=151&kwd=baby wraps&tags=BA||||8228.275|Price|product|||NA|rsf:gd-|-stype:attr=1|qr_nm:gd|res:RC4|com-cf:nl|ptrs:na|ktp:N0|mc:22737|mtp:S|qry_typ:P|lang:en|wc:2|cs:8837|v=4,False,,Ahmedabad,"Shilp Zaveri, Ahmedabad - 380004, Dist.Ahmedabad, Gujarat",8047627244,
"Multicolor Cotton New Born Baby Wrap, Size: Large",https://www.indiamart.com/proddetail/new-born-baby-wrap-2850971669497.html?pos=152&kwd=baby wraps&tags=BA||||8601.347|Price|product|||NA|rsf:gd-|-stype:attr=1|qr_nm:gd|res:RC4|com-cf:nl|ptrs:na|ktp:N0|mc:22737|mtp:S|qry_typ:P|lang:en|wc:2|cs:8837|v=4,Bhagwati Enterprises,https://www.indiamart.com/bhagwati-enterprisesrajasthan/?pos=152&kwd=baby wraps&tags=BA||||8601.347|Price|product|||NA|rsf:gd-|-stype:attr=1|qr_nm:gd|res:RC4|com-cf:nl|ptrs:na|ktp:N0|mc:22737|mtp:S|qry_typ:P|lang:en|wc:2|cs:8837|v=4,False,,Jaipur,"Ground Floor, ARG Murli Heights, Moti Doongri Road, Jaipur - 302004, Dist.Jaipur, Rajasthan",7942795447,
pink blue peach green Little Cubs Cotton Baby Swaddle Cum Wrapper,https://www.indiamart.com/proddetail/little-cubs-cotton-baby-swaddle-cum-wrapper-23714661733.html?pos=153&kwd=baby wraps&tags=BB||||8752.144|Price|product|||NA|rsf:gd-|-stype:attr=1|qr_nm:gd|res:RC4|com-cf:nl|ptrs:na|ktp:N0|mc:22737|mtp:S|qry_typ:P|lang:en|wc:2|cs:8837|v=4,Navkaar Traders,https://www.indiamart.com/navkaartraders/?pos=153&kwd=baby wraps&tags=BB||||8752.144|Price|product|||NA|rsf:gd-|-stype:attr=1|qr_nm:gd|res:RC4|com-cf:nl|ptrs:na|ktp:N0|mc:22737|mtp:S|qry_typ:P|lang:en|wc:2|cs:8837|v=4,False,Mahendru Enclave,New Delhi,"C-37, 1st Floor, Gali No. 3, Mahendru Enclave, Mahendru Enclave, New Delhi - 110033, Dist.Delhi, Delhi",7942532296,
"Velvet & Cotton Newborn Baby Wrapper, 0 To 6 Months",https://www.indiamart.com/proddetail/newborn-baby-wrapper-19412589730.html?pos=154&kwd=baby wraps&tags=BA||||8211.142|Price|product|||NA|rsf:gd-|-stype:attr=1|qr_nm:gd|res:RC4|com-cf:nl|ptrs:na|ktp:N0|mc:22737|mtp:S|qry_typ:P|lang:en|wc:2|cs:8837|v=4,Baby World,https://www.indiamart.com/babyworld/?pos=154&kwd=baby wraps&tags=BA||||8211.142|Price|product|||NA|rsf:gd-|-stype:attr=1|qr_nm:gd|res:RC4|com-cf:nl|ptrs:na|ktp:N0|mc:22737|mtp:S|qry_typ:P|lang:en|wc:2|cs:8837|v=4,False,Masjid Bandar,Mumbai,"12, Gorund Floor, Fatimabai Building, Dharamashala Street, Umerkhadi, Chinchbunder, Masjid Bandar, Mumbai - 400009, Dist.Mumbai, Maharashtra",7942539685,
Baby Wrap Sheet,,Janki Jiyana House,https://www.indiamart.com/jankijiyana-house/?pos=155&kwd=baby wraps&tags=BB||||8230.883|Price|product|||NA|rsf:gd-|-stype:attr=1|qr_nm:gd|res:RC4|com-cf:nl|ptrs:na|ktp:N0|mc:22737|mtp:S|qry_typ:P|lang:en|wc:2|cs:8837|v=4,False,,Surat,"Shop No 10, 1st Floor, Sahyog Park, Opp. Mansarovar Circle, Amroli,, Surat - 394107, Dist.Surat, Gujarat",7942803964,
Pink Blue Yellow Baby Velvet Wrapper,https://www.indiamart.com/proddetail/baby-velvet-wrapper-20306485388.html?pos=156&kwd=baby wraps&tags=BB||||8663.873|Price|product|||NA|rsf:gd-|-stype:attr=1|qr_nm:gd|res:RC4|com-cf:nl|ptrs:na|ktp:N0|mc:22737|mtp:S|qry_typ:P|lang:en|wc:2|cs:8837|v=4,Mahadev Enterprises,https://www.indiamart.com/mahadeventps-bengaluru/?pos=156&kwd=baby wraps&tags=BB||||8663.873|Price|product|||NA|rsf:gd-|-stype:attr=1|qr_nm:gd|res:RC4|com-cf:nl|ptrs:na|ktp:N0|mc:22737|mtp:S|qry_typ:P|lang:en|wc:2|cs:8837|v=4,False,Cubbonpet Main Road,Bengaluru,"32, 1st Floor, 13th Cross, Cubbonpet Main Road, Bengaluru - 560001, Dist.Bengaluru, Karnataka",8047690378,
"Cotton 5 colours Baby Hooded Jacquard Wrapper, Size: Small",https://www.indiamart.com/proddetail/baby-hooded-jacquard-wrapper-2854745247112.html?pos=157&kwd=baby wraps&tags=BA||||8626.744|Price|product|||NA|rsf:gd-|-stype:attr=1|qr_nm:gd|res:RC4|com-cf:nl|ptrs:na|ktp:N0|mc:22737|mtp:S|qry_typ:P|lang:en|wc:2|cs:8837|v=4,Neptune Knitting Works,https://www.indiamart.com/neptune-knitting-works/?pos=157&kwd=baby wraps&tags=BA||||8626.744|Price|product|||NA|rsf:gd-|-stype:attr=1|qr_nm:gd|res:RC4|com-cf:nl|ptrs:na|ktp:N0|mc:22737|mtp:S|qry_typ:P|lang:en|wc:2|cs:8837|v=4,False,,Tiruppur,"359,Avinashi Road, Tiruppur - 641603, Dist.Coimbatore, Tamil Nadu",7942668659,
Red (Base) And White Lycra Baby Wrap,https://www.indiamart.com/proddetail/lycra-baby-wrap-2850011725833.html?pos=158&kwd=baby wraps&tags=BB||||8228.275|Price|product|||NA|rsf:gd-|-stype:attr=1|qr_nm:gd|res:RC4|com-cf:nl|ptrs:na|ktp:N0|mc:22737|mtp:S|qry_typ:P|lang:en|wc:2|cs:8837|v=4,Easy Peasy,https://www.indiamart.com/easy-peasy-gujarat/?pos=158&kwd=baby wraps&tags=BB||||8228.275|Price|product|||NA|rsf:gd-|-stype:attr=1|qr_nm:gd|res:RC4|com-cf:nl|ptrs:na|ktp:N0|mc:22737|mtp:S|qry_typ:P|lang:en|wc:2|cs:8837|v=4,False,,Ahmedabad,"C-1107+1108, Rajyash Rise, B/S. Vishala, Nr. Apmc Market, Ahmedabad - 380007, Dist.Ahmedabad, Gujarat",7942801564,
"White base Muslin Baby Swaddle Wrap, Size: Large",https://www.indiamart.com/proddetail/baby-swaddle-wrap-2851745340148.html?pos=159&kwd=baby wraps&tags=BB||||8584.299||product|||NA|rsf:gd-|-stype:attr=1|qr_nm:gd|res:RC4|com-cf:nl|ptrs:na|ktp:N0|mc:22737|mtp:S|qry_typ:P|lang:en|wc:2|cs:8837|v=4,Buttercup Baby Clothing,https://www.indiamart.com/buttercup-baby-clothing/?pos=159&kwd=baby wraps&tags=BB||||8584.299||product|||NA|rsf:gd-|-stype:attr=1|qr_nm:gd|res:RC4|com-cf:nl|ptrs:na|ktp:N0|mc:22737|mtp:S|qry_typ:P|lang:en|wc:2|cs:8837|v=4,False,,Coimbatore,"33-8, East Ponnurangam Road, RS Puram, Coimbatore - 641002, Dist.Coimbatore, Tamil Nadu",8043824974,
Baby Swaddle Wrap,https://www.indiamart.com/proddetail/baby-swaddle-wrap-2854613415262.html?pos=160&kwd=baby wraps&tags=BB||||8281.036|Price|product|||NA|rsf:gd-|-stype:attr=1|qr_nm:gd|res:RC4|com-cf:nl|ptrs:na|ktp:N0|mc:22737|mtp:S|qry_typ:P|lang:en|wc:2|cs:8837|v=4,Blueshield Textiles LLP,https://www.indiamart.com/blueshield-textiles-llp/?pos=160&kwd=baby wraps&tags=BB||||8281.036|Price|product|||NA|rsf:gd-|-stype:attr=1|qr_nm:gd|res:RC4|com-cf:nl|ptrs:na|ktp:N0|mc:22737|mtp:S|qry_typ:P|lang:en|wc:2|cs:8837|v=4,False,MAKARPURA ROAD,Vadodara,"408/2-3 GIDC GIDC, MAKARPURA ROAD, Vadodara - 390010, Dist.Vadodara, Gujarat",8046053134,
Baby Cotton Wrapper,https://www.indiamart.com/proddetail/baby-cotton-wrapper-24224272430.html?pos=161&kwd=baby wraps&tags=BB||||8211.142||product|||NA|rsf:gd-|-stype:attr=1|qr_nm:gd|res:RC4|com-cf:nl|ptrs:na|ktp:N0|mc:22737|mtp:S|qry_typ:P|lang:en|wc:2|cs:8837|v=4,Sagar Traders,https://www.indiamart.com/sagartraders-borivali/?pos=161&kwd=baby wraps&tags=BB||||8211.142||product|||NA|rsf:gd-|-stype:attr=1|qr_nm:gd|res:RC4|com-cf:nl|ptrs:na|ktp:N0|mc:22737|mtp:S|qry_typ:P|lang:en|wc:2|cs:8837|v=4,False,,Mumbai,"Office No. 3, Wing -C, Raj Hill 2 Chs Ltd, Dattapada Road, Near Amba Mata Mandir, Borivali, Mumbai - 400066, Dist.Mumbai, Maharashtra",8046050823,
Bamboo Swaddle,https://www.indiamart.com/proddetail/bamboo-swaddle-2852308054688.html?pos=162&kwd=baby wraps&tags=BB||||8741.812|Price|product|||NA|rsf:gd-|-stype:attr=1|qr_nm:gd|res:RC4|com-cf:nl|ptrs:na|ktp:N0|mc:22737|mtp:S|qry_typ:P|lang:en|wc:2|cs:8837|v=4,Keta Anjani Impex,https://www.indiamart.com/ketaanjaniimpex/?pos=162&kwd=baby wraps&tags=BB||||8741.812|Price|product|||NA|rsf:gd-|-stype:attr=1|qr_nm:gd|res:RC4|com-cf:nl|ptrs:na|ktp:N0|mc:22737|mtp:S|qry_typ:P|lang:en|wc:2|cs:8837|v=4,False,Sector 90,Gurugram,"SF-221, 2nd Floor, IT Complex JMD Megapolis, Village Tikri, Sohna Road, Sector 90, Gurugram - 122001, Dist.Gurgaon, Haryana",,
Cotton Multicolor Baby carrier wrap,https://www.indiamart.com/proddetail/baby-carrier-wrap-2852722681155.html?pos=163&kwd=baby wraps&tags=BA||||8211.142|Price|product|||NA|rsf:gd-|-stype:attr=1|qr_nm:gd|res:RC4|com-cf:nl|ptrs:na|ktp:N0|mc:22737|mtp:S|qry_typ:P|lang:en|wc:2|cs:8837|v=4,Sonal Communication,https://www.indiamart.com/sonal-communication-mumbai/?pos=163&kwd=baby wraps&tags=BA||||8211.142|Price|product|||NA|rsf:gd-|-stype:attr=1|qr_nm:gd|res:RC4|com-cf:nl|ptrs:na|ktp:N0|mc:22737|mtp:S|qry_typ:P|lang:en|wc:2|cs:8837|v=4,False,,Mumbai,"B/602, Comet Building, Bhakti Park, Near Imax Cinema, Wadala,, Mumbai - 400037, Dist.Mumbai, Maharashtra",8047656217,
"Cotton Printed Quick Dry Baby Kangaroo Wrapper, Blue, Size: Small",https://www.indiamart.com/proddetail/quick-dry-baby-kangaroo-wrapper-24330256897.html?pos=164&kwd=baby wraps&tags=BA||||9644.414|Price|product|||NA|rsf:gd-|-stype:attr=1|qr_nm:gd|res:RC4|com-cf:nl|ptrs:na|ktp:N0|mc:22737|mtp:S|qry_typ:P|lang:en|wc:2|cs:8837|v=4,Kanhaiya Enterprises,https://www.indiamart.com/kanhaiya-enterprises-dhanbad/?pos=164&kwd=baby wraps&tags=BA||||9644.414|Price|product|||NA|rsf:gd-|-stype:attr=1|qr_nm:gd|res:RC4|com-cf:nl|ptrs:na|ktp:N0|mc:22737|mtp:S|qry_typ:P|lang:en|wc:2|cs:8837|v=4,False,,Dhanbad,"Ratanji Road, Purana Bazar, Dhanbad - 826001, Dist.Dhanbad, Jharkhand",8046043892,
Baby Printed Wrappers,https://www.indiamart.com/proddetail/baby-printed-wrappers-3936017373.html?pos=165&kwd=baby wraps&tags=BB||||9839.57||product|||NA|rsf:gd-|-stype:attr=1|qr_nm:gd|res:RC4|com-cf:nl|ptrs:na|ktp:N0|mc:22737|mtp:S|qry_typ:P|lang:en|wc:2|cs:8837|v=4,Ambika Traders,https://www.indiamart.com/bebworld/?pos=165&kwd=baby wraps&tags=BB||||9839.57||product|||NA|rsf:gd-|-stype:attr=1|qr_nm:gd|res:RC4|com-cf:nl|ptrs:na|ktp:N0|mc:22737|mtp:S|qry_typ:P|lang:en|wc:2|cs:8837|v=4,False,Munshi Sadruddin Lane,Kolkata,"No. 7, 3rd Floor, Munshi Sadruddin Lane, Kolkata - 700007, Dist.Kolkata, West Bengal",8048372775,590
"BRANDONN New Born Supersoft Wearable Designer Baby boys, Baby Girls Sleeping Bag For Babies Pack of 2",https://www.indiamart.com/proddetail/brandonn-new-born-supersoft-wearable-designer-baby-boys-baby-girls-sleeping-bag-for-babies-pack-of-2-2853322354155.html?pos=166&kwd=baby wraps&tags=BA||||8786.56|Price|product|||NA|rsf:gd-|-stype:attr=1|qr_nm:gd|res:RC4|com-cf:nl|ptrs:na|ktp:N0|mc:22737|mtp:S|qry_typ:P|lang:en|wc:2|cs:8837|v=4,Springkart,https://www.indiamart.com/springkart/?pos=166&kwd=baby wraps&tags=BA||||8786.56|Price|product|||NA|rsf:gd-|-stype:attr=1|qr_nm:gd|res:RC4|com-cf:nl|ptrs:na|ktp:N0|mc:22737|mtp:S|qry_typ:P|lang:en|wc:2|cs:8837|v=4,False,Moula Ali,Hyderabad,"Flat No. 103, Saipriya Residency, M. J. Colony, Moula Ali, Hyderabad - 500080, Dist.Hyderabad, Telangana",,
Baby Swaddle Wrap,https://www.indiamart.com/proddetail/baby-swaddle-wrap-2852709795548.html?pos=167&kwd=baby wraps&tags=BA||||8211.142|Price|product|||NA|rsf:gd-|-stype:attr=1|qr_nm:gd|res:RC4|com-cf:nl|ptrs:na|ktp:N0|mc:22737|mtp:S|qry_typ:P|lang:en|wc:2|cs:8837|v=4,Baby House,https://www.indiamart.com/babyhouse/?pos=167&kwd=baby wraps&tags=BA||||8211.142|Price|product|||NA|rsf:gd-|-stype:attr=1|qr_nm:gd|res:RC4|com-cf:nl|ptrs:na|ktp:N0|mc:22737|mtp:S|qry_typ:P|lang:en|wc:2|cs:8837|v=4,False,Kalbadevi,Mumbai,"Baby House Ist Floor 214/216 Nag Devi Street, Kalbadevi, Mumbai - 400002, Dist.Mumbai, Maharashtra",7942714120,
"Baby Towel Printed Navy Zone single layer hooded wrapper, For Bathing, 0-9month",https://www.indiamart.com/proddetail/navy-zone-single-layer-hooded-wrapper-2851262715455.html?pos=168&kwd=baby wraps&tags=BA||||8663.873|Price|product|||NA|rsf:gd-|-stype:attr=1|qr_nm:gd|res:RC4|com-cf:nl|ptrs:na|ktp:N0|mc:22737|mtp:S|qry_typ:P|lang:en|wc:2|cs:8837|v=4,Namdev Trade Links,https://www.indiamart.com/namdevtradelinks/?pos=168&kwd=baby wraps&tags=BA||||8663.873|Price|product|||NA|rsf:gd-|-stype:attr=1|qr_nm:gd|res:RC4|com-cf:nl|ptrs:na|ktp:N0|mc:22737|mtp:S|qry_typ:P|lang:en|wc:2|cs:8837|v=4,False,,Bengaluru,"No 330 Nti Layout, 1st Phase, Rajivgandhinagar, Sahakarnagar, Bengaluru - 560092, Dist.Bengaluru, Karnataka",7942833608,
Cotton Unisex Baby Swaddle Wrap,https://www.indiamart.com/proddetail/baby-swaddle-wrap-2854632597488.html?pos=169&kwd=baby wraps&tags=BB||||8752.144|Price|product|||NA|rsf:gd-|-stype:attr=1|qr_nm:gd|res:RC4|com-cf:nl|ptrs:na|ktp:N0|mc:22737|mtp:S|qry_typ:P|lang:en|wc:2|cs:8837|v=4,Aurusco Traders,https://www.indiamart.com/company/85889684/?pos=169&kwd=baby wraps&tags=BB||||8752.144|Price|product|||NA|rsf:gd-|-stype:attr=1|qr_nm:gd|res:RC4|com-cf:nl|ptrs:na|ktp:N0|mc:22737|mtp:S|qry_typ:P|lang:en|wc:2|cs:8837|v=4,False,Lajpat Nagar 2,New Delhi,", Lajpat Nagar 2, New Delhi - 110024, Dist.Delhi, Delhi",8048249727,4549
Cotton Baby Muslin Wraps Clothes,https://www.indiamart.com/proddetail/baby-muslin-wraps-clothes-24150379288.html?pos=170&kwd=baby wraps&tags=BB||||8954.051|Price|product|||NA|rsf:gd-|-stype:attr=1|qr_nm:gd|res:RC4|com-cf:nl|ptrs:na|ktp:N0|mc:22737|mtp:S|qry_typ:P|lang:en|wc:2|cs:8837|v=4,Deepak Brothers,https://www.indiamart.com/deepakbrothers-chennai/?pos=170&kwd=baby wraps&tags=BB||||8954.051|Price|product|||NA|rsf:gd-|-stype:attr=1|qr_nm:gd|res:RC4|com-cf:nl|ptrs:na|ktp:N0|mc:22737|mtp:S|qry_typ:P|lang:en|wc:2|cs:8837|v=4,False,Mogappair East,Chennai,"335, Pugalenthi Salai, Mogappair East, Chennai - 600037, Dist.Chennai, Tamil Nadu",8048984728,
"Star Printed Cotton Baby Hooded Blanket, 0-12 Months, Size: 68 X 76cm (lxw)",https://www.indiamart.com/proddetail/star-printed-cotton-baby-hooded-blanket-2849666722048.html?pos=171&kwd=baby wraps&tags=BA||||8747.203|Price|product|||NA|rsf:gd-|-stype:attr=1|qr_nm:gd|res:RC4|com-cf:nl|ptrs:na|ktp:N0|mc:22737|mtp:S|qry_typ:P|lang:en|wc:2|cs:8837|v=4,Kirpa Enterprise,https://www.indiamart.com/kirpa-enterprise-panipat/?pos=171&kwd=baby wraps&tags=BA||||8747.203|Price|product|||NA|rsf:gd-|-stype:attr=1|qr_nm:gd|res:RC4|com-cf:nl|ptrs:na|ktp:N0|mc:22737|mtp:S|qry_typ:P|lang:en|wc:2|cs:8837|v=4,False,,Panipat,"879,11, Ward No.11, Panipat - 132103, Dist.Panipat, Haryana",7942795917,
New Born Baby Blanket / Baby Wrap / Baby Swaddler,https://www.indiamart.com/proddetail/new-born-baby-blanket-baby-wrap-baby-swaddler-2853623534812.html?pos=172&kwd=baby wraps&tags=BB||||8624.416|Price|product|||NA|rsf:gd-|-stype:attr=1|qr_nm:gd|res:RC4|com-cf:nl|ptrs:na|ktp:N0|mc:22737|mtp:S|qry_typ:P|lang:en|wc:2|cs:8837|v=4,Vasdev Traders Hisar,https://www.indiamart.com/vasdev-traders-hisar/?pos=172&kwd=baby wraps&tags=BB||||8624.416|Price|product|||NA|rsf:gd-|-stype:attr=1|qr_nm:gd|res:RC4|com-cf:nl|ptrs:na|ktp:N0|mc:22737|mtp:S|qry_typ:P|lang:en|wc:2|cs:8837|v=4,False,,Hisar,"Jindal chowk , Hisar, Hisar - 125005, Dist.Hisar, Haryana",8048249961,237
Sea Green Cotton Baby Carrier,https://www.indiamart.com/proddetail/sea-green-cotton-baby-carrier-2850164078091.html?pos=173&kwd=baby wraps&tags=BA||||8331.224|Price|product|||NA|rsf:gd-|-stype:attr=1|qr_nm:gd|res:RC4|com-cf:nl|ptrs:na|ktp:N0|mc:22737|mtp:S|qry_typ:P|lang:en|wc:2|cs:8837|v=4,Minakshi Garments,https://www.indiamart.com/minakshi-garments-kolhapur/?pos=173&kwd=baby wraps&tags=BA||||8331.224|Price|product|||NA|rsf:gd-|-stype:attr=1|qr_nm:gd|res:RC4|com-cf:nl|ptrs:na|ktp:N0|mc:22737|mtp:S|qry_typ:P|lang:en|wc:2|cs:8837|v=4,False,Tarabai Park,Kolhapur,"Gala No 14 B Parvati Plaza, Main Market Road Swastik Market, Gandhinagar, Tarabai Park, Kolhapur - 416119, Dist.Kolhapur, Maharashtra",7942670858,
Floral Print Cotton Baby Fleece Blanket,https://www.indiamart.com/proddetail/baby-fleece-blanket-2853051270448.html?pos=174&kwd=baby wraps&tags=BA||||9140.514|Price|product|||NA|rsf:gd-|-stype:attr=1|qr_nm:gd|res:RC4|com-cf:nl|ptrs:na|ktp:N0|mc:22737|mtp:S|qry_typ:P|lang:en|wc:2|cs:8837|v=4,Narayani Collection,https://www.indiamart.com/narayanicollection-raipur/?pos=174&kwd=baby wraps&tags=BA||||9140.514|Price|product|||NA|rsf:gd-|-stype:attr=1|qr_nm:gd|res:RC4|com-cf:nl|ptrs:na|ktp:N0|mc:22737|mtp:S|qry_typ:P|lang:en|wc:2|cs:8837|v=4,False,Pandri,Raipur,"Jaihind Readymade Market, Mauja 25, Pandri, Pandri, Raipur - 492001, Chhattisgarh",7942868161,
"Printed 100% Organic Cotton Muslin Swaddle, Size: One meter 100*150cm, New Born Baby",https://www.indiamart.com/proddetail/muslin-swaddle-22346870673.html?pos=175&kwd=baby wraps&tags=BA||||8954.051|Price|product|||NA|rsf:gd-|-stype:attr=1|qr_nm:gd|res:RC4|com-cf:nl|ptrs:na|ktp:N0|mc:22737|mtp:S|qry_typ:P|lang:en|wc:2|cs:8837|v=4,MFS Fashions,https://www.indiamart.com/mfsfashions/?pos=175&kwd=baby wraps&tags=BA||||8954.051|Price|product|||NA|rsf:gd-|-stype:attr=1|qr_nm:gd|res:RC4|com-cf:nl|ptrs:na|ktp:N0|mc:22737|mtp:S|qry_typ:P|lang:en|wc:2|cs:8837|v=4,False,Perambur,Chennai,"New No. 42/2, Old No. 15/2, Venkatraman Street, Perambur, Perambur, Chennai - 600011, Dist.Chennai, Tamil Nadu",8043804409,
Muslin Swaddle,,Avira Associates,https://www.indiamart.com/avira-associates/?pos=176&kwd=baby wraps&tags=BB||||8626.744|Price|product|||NA|rsf:gd-|-stype:attr=1|qr_nm:gd|res:RC4|com-cf:nl|ptrs:na|ktp:N0|mc:22737|mtp:S|qry_typ:P|lang:en|wc:2|cs:8837|v=4,False,,Tiruppur,"65/37-38 1st Street, Tiruppur - 641604, Dist.Coimbatore, Tamil Nadu",8048370714,5276
"Cotton Baby Muslin Wraps Cloths, Age Group: Newly Born",https://www.indiamart.com/proddetail/baby-muslin-wraps-cloths-21648463491.html?pos=177&kwd=baby wraps&tags=BB||||8211.142|Price|product|||NA|rsf:gd-|-stype:attr=1|qr_nm:gd|res:RC4|com-cf:nl|ptrs:na|ktp:N0|mc:22737|mtp:S|qry_typ:P|lang:en|wc:2|cs:8837|v=4,Dhitta Apparel,https://www.indiamart.com/raj-apparelsmaharashtra/?pos=177&kwd=baby wraps&tags=BB||||8211.142|Price|product|||NA|rsf:gd-|-stype:attr=1|qr_nm:gd|res:RC4|com-cf:nl|ptrs:na|ktp:N0|mc:22737|mtp:S|qry_typ:P|lang:en|wc:2|cs:8837|v=4,False,,Mumbai,"7th Floor B 702 Yogi Nagar, Eksar Road Royal Accord, Mumbai - 400091, Dist.Mumbai, Maharashtra",8043889456,
Printed Baby Swaddle Wrap,https://www.indiamart.com/proddetail/baby-swaddle-wrap-22378052012.html?pos=178&kwd=baby wraps&tags=BB||||8500.97|Price|product|||NA|rsf:gd-|-stype:attr=1|qr_nm:gd|res:RC4|com-cf:nl|ptrs:na|ktp:N0|mc:22737|mtp:S|qry_typ:P|lang:en|wc:2|cs:8837|v=4,G.K. Tradings,https://www.indiamart.com/g-k-tradings/?pos=178&kwd=baby wraps&tags=BB||||8500.97|Price|product|||NA|rsf:gd-|-stype:attr=1|qr_nm:gd|res:RC4|com-cf:nl|ptrs:na|ktp:N0|mc:22737|mtp:S|qry_typ:P|lang:en|wc:2|cs:8837|v=4,False,Thriprayar,Thrissur,"Ix/626,627, 628 Triprayar Nattika, Thriprayar, Thrissur - 680566, Dist.Thrissur, Kerala",7942560526,
Pink blue and yellow Plan malmal baby wraps,https://www.indiamart.com/proddetail/plan-malmal-baby-wraps-2850558756333.html?pos=179&kwd=baby wraps&tags=BA||||8211.142|Price|product|||NA|rsf:gd-|-stype:attr=1|qr_nm:gd|res:RC4|com-cf:nl|ptrs:na|ktp:N0|mc:22737|mtp:S|qry_typ:P|lang:en|wc:2|cs:8837|v=4,Keval Enterprises,https://www.indiamart.com/keval-enterprises-mumbai/?pos=179&kwd=baby wraps&tags=BA||||8211.142|Price|product|||NA|rsf:gd-|-stype:attr=1|qr_nm:gd|res:RC4|com-cf:nl|ptrs:na|ktp:N0|mc:22737|mtp:S|qry_typ:P|lang:en|wc:2|cs:8837|v=4,False,Dadar West,Mumbai,"Shop No. 20, Madhani Industrial Estate Senapati Bapat Marg, Dadar West, Mumbai - 400028, Dist.Mumbai, Maharashtra",8048951266,
white Cotton Baby Wrap,https://www.indiamart.com/proddetail/baby-wrap-2850178319212.html?pos=180&kwd=baby wraps&tags=BA||||8706.263||product|||NA|rsf:gd-|-stype:attr=1|qr_nm:gd|res:RC4|com-cf:nl|ptrs:na|ktp:N0|mc:22737|mtp:S|qry_typ:P|lang:en|wc:2|cs:8837|v=4,Aarthia Impex,https://www.indiamart.com/aathia-impex/?pos=180&kwd=baby wraps&tags=BA||||8706.263||product|||NA|rsf:gd-|-stype:attr=1|qr_nm:gd|res:RC4|com-cf:nl|ptrs:na|ktp:N0|mc:22737|mtp:S|qry_typ:P|lang:en|wc:2|cs:8837|v=4,False,Vivekananda Nagar,Karur,",6-A,,VIVEKANANDHA NAGAR,SENGUNTHAPURAM 11TH CROSS,, Vivekananda Nagar, Karur - 639002, Dist.Karur, Tamil Nadu",8069013454,970
"White Baby Swaddle Wrapper Muslin, Size: Medium",https://www.indiamart.com/proddetail/baby-swaddle-wrapper-muslin-2853698901491.html?pos=181&kwd=baby wraps&tags=BA||||8230.883|Price|product|||NA|rsf:gd-|-stype:attr=1|qr_nm:gd|res:RC4|com-cf:nl|ptrs:na|ktp:N0|mc:22737|mtp:S|qry_typ:P|lang:en|wc:2|cs:8837|v=4,Pooja Enterprise,https://www.indiamart.com/poojaenterprise-159125404/?pos=181&kwd=baby wraps&tags=BA||||8230.883|Price|product|||NA|rsf:gd-|-stype:attr=1|qr_nm:gd|res:RC4|com-cf:nl|ptrs:na|ktp:N0|mc:22737|mtp:S|qry_typ:P|lang:en|wc:2|cs:8837|v=4,False,,Surat,"G4, Achkan Bazaar Baroda Prestige, Varachha, Surat, Surat - 395006, Dist.Surat, Gujarat",8041011891,
Baby Wraps,,Baby World,https://www.indiamart.com/baby-world-mumbai/?pos=182&kwd=baby wraps&tags=BB||||8211.142||product|||NA|rsf:gd-|-stype:attr=1|qr_nm:gd|res:RC4|com-cf:nl|ptrs:na|ktp:N0|mc:22737|mtp:S|qry_typ:P|lang:en|wc:2|cs:8837|v=4,False,Mira Road East,Mumbai,"Shop No. 2, New Vasundra, Nr. Vijay Park, Next To Amber Plaza Hall, Mira Road (East), Mira Road East, Mumbai - 401107, Dist.Mumbai, Maharashtra",8048249778,3284
Floral Print Cotton Baby Fleece Blanket,https://www.indiamart.com/proddetail/baby-fleece-blanket-2853051270448.html?pos=183&kwd=baby wraps&tags=BA||||9140.514|Price|product|||NA|rsf:gd-|-stype:attr=1|qr_nm:gd|res:RC4|com-cf:nl|ptrs:na|ktp:N0|mc:22737|mtp:S|qry_typ:P|lang:en|wc:2|cs:8837|v=4,Narayani Collection,https://www.indiamart.com/narayanicollection-raipur/?pos=183&kwd=baby wraps&tags=BA||||9140.514|Price|product|||NA|rsf:gd-|-stype:attr=1|qr_nm:gd|res:RC4|com-cf:nl|ptrs:na|ktp:N0|mc:22737|mtp:S|qry_typ:P|lang:en|wc:2|cs:8837|v=4,False,Pandri,Raipur,"Jaihind Readymade Market, Mauja 25, Pandri, Pandri, Raipur - 492001, Chhattisgarh",7942868161,
Cotton Unisex Baby Swaddle Wrap,https://www.indiamart.com/proddetail/baby-swaddle-wrap-2854632597488.html?pos=184&kwd=baby wraps&tags=BB||||8752.144|Price|product|||NA|rsf:gd-|-stype:attr=1|qr_nm:gd|res:RC4|com-cf:nl|ptrs:na|ktp:N0|mc:22737|mtp:S|qry_typ:P|lang:en|wc:2|cs:8837|v=4,Aurusco Traders,https://www.indiamart.com/company/85889684/?pos=184&kwd=baby wraps&tags=BB||||8752.144|Price|product|||NA|rsf:gd-|-stype:attr=1|qr_nm:gd|res:RC4|com-cf:nl|ptrs:na|ktp:N0|mc:22737|mtp:S|qry_typ:P|lang:en|wc:2|cs:8837|v=4,False,Lajpat Nagar 2,New Delhi,", Lajpat Nagar 2, New Delhi - 110024, Dist.Delhi, Delhi",8048249727,4549
"Plain 100% COTTON SOFT Newborn Baby Wrapper Cover, White and Pink",https://www.indiamart.com/proddetail/100-cotton-soft-newborn-baby-wrapper-cover-26234512148.html?pos=185&kwd=baby wraps&tags=BB||||8823.154|Price|product|||NA|rsf:gd-|-stype:attr=1|qr_nm:gd|res:RC4|com-cf:nl|ptrs:na|ktp:N0|mc:22737|mtp:S|qry_typ:P|lang:en|wc:2|cs:8837|v=4,Care Plus,https://www.indiamart.com/care-plusagra/?pos=185&kwd=baby wraps&tags=BB||||8823.154|Price|product|||NA|rsf:gd-|-stype:attr=1|qr_nm:gd|res:RC4|com-cf:nl|ptrs:na|ktp:N0|mc:22737|mtp:S|qry_typ:P|lang:en|wc:2|cs:8837|v=4,False,,Agra,"31/182/1B, Sanjay Nagar, Near Navjot Public School, Ukkahara, Agra - 282001, Dist.Agra, Uttar Pradesh",8043865020,
Multicolor Polka Tots Organic Cotton Baby Swaddle Wrap,https://www.indiamart.com/proddetail/polka-tots-organic-cotton-baby-swaddle-wrap-22953630791.html?pos=186&kwd=baby wraps&tags=BA||||8228.275|Price|product|||NA|rsf:gd-|-stype:attr=1|qr_nm:gd|res:RC4|com-cf:nl|ptrs:na|ktp:N0|mc:22737|mtp:S|qry_typ:P|lang:en|wc:2|cs:8837|v=4,Eclat Globalbiz LLP,https://www.indiamart.com/eclatglobalbiz/?pos=186&kwd=baby wraps&tags=BA||||8228.275|Price|product|||NA|rsf:gd-|-stype:attr=1|qr_nm:gd|res:RC4|com-cf:nl|ptrs:na|ktp:N0|mc:22737|mtp:S|qry_typ:P|lang:en|wc:2|cs:8837|v=4,False,,Ahmedabad,"Shilp Zaveri, Ahmedabad - 380004, Dist.Ahmedabad, Gujarat",8047627244,
Anmol Light Pink Hybrid Wrap,,Anmol Baby,https://www.indiamart.com/anmol-baby-mumbai/?pos=193&kwd=baby wraps&tags=BA||||8211.142||product|||NA|rsf:gd-|-stype:attr=1|qr_nm:gd|res:RC4|com-cf:nl|ptrs:na|ktp:N0|mc:22737|mtp:S|qry_typ:P|lang:en|wc:2|cs:8837|v=4,False,,Mumbai,"3303, Lal Bahadur Shastri Marg, Runwal Anthurium Tower - 3, Mulund, Mumbai - 400080, Dist.Mumbai, Maharashtra",8047309008,1555
Organic Swaddle Wrap,,Jash Apparels,https://www.indiamart.com/jash-apparels/?pos=188&kwd=baby wraps&tags=BB||||8663.873||product|||NA|rsf:gd-|-stype:attr=1|qr_nm:gd|res:RC4|com-cf:nl|ptrs:na|ktp:N0|mc:22737|mtp:S|qry_typ:P|lang:en|wc:2|cs:8837|v=4,False,,Bengaluru,"3rd Floor 11 2nd Cross Chikkana Layout Mahadevapura Post, Bengaluru - 560048, Dist.Bengaluru, Karnataka",8048250271,779
Baby Swaddle Clothes,,Abhilasha,https://www.indiamart.com/abhilasha-valsad/?pos=189&kwd=baby wraps&tags=BB||||8234.609||product|||NA|rsf:gd-|-stype:attr=1|qr_nm:gd|res:RC4|com-cf:nl|ptrs:na|ktp:N0|mc:22737|mtp:S|qry_typ:P|lang:en|wc:2|cs:8837|v=4,False,Khatriwad,Valsad,"NANA KHATRIWAD, Khatriwad, Valsad - 396001, Dist.Valsad, Gujarat",8048371574,900
Baby Velcro Wrapper,,Shikha Infant Wear,https://www.indiamart.com/shikha-infant-wear/?pos=190&kwd=baby wraps&tags=BB||||8876.815|Price|product|||NA|rsf:gd-|-stype:attr=1|qr_nm:gd|res:RC4|com-cf:nl|ptrs:na|ktp:N0|mc:22737|mtp:S|qry_typ:P|lang:en|wc:2|cs:8837|v=4,False,,Nagpur,"Shop No. A1, Jeevan Kanaiya Complex, Pavarpura, Nagpur - 440002, Dist.Nagpur, Maharashtra",8045907248,
Baby Wrapper,,Melisa baby needs,https://www.indiamart.com/littlechamps-sanvordem/?pos=191&kwd=baby wraps&tags=BB||||8295.25|Price|product|||NA|rsf:gd-|-stype:attr=1|qr_nm:gd|res:RC4|com-cf:nl|ptrs:na|ktp:N0|mc:22737|mtp:S|qry_typ:P|lang:en|wc:2|cs:8837|v=4,False,Silvanagar,Ponda,"Silva Nagar, Silvanagar, Ponda - 403401, Dist.South Goa, Goa",8048247126,1021
"Velvet Maroon Newborn Baby Blanket, Size: 30x30inch",https://www.indiamart.com/proddetail/newborn-baby-blanket-26018631988.html?pos=192&kwd=baby wraps&tags=BB||||7991.571|Price|product|||NA|rsf:gd-|-stype:attr=1|qr_nm:gd|res:RC4|com-cf:nl|ptrs:na|ktp:N0|mc:22737|mtp:S|qry_typ:P|lang:en|wc:2|cs:8837|v=4,Natkhat Enterprise,https://www.indiamart.com/natkhatenterprise/?pos=192&kwd=baby wraps&tags=BB||||7991.571|Price|product|||NA|rsf:gd-|-stype:attr=1|qr_nm:gd|res:RC4|com-cf:nl|ptrs:na|ktp:N0|mc:22737|mtp:S|qry_typ:P|lang:en|wc:2|cs:8837|v=4,False,Mangnath Road,Junagadh,"Tribhuvan Complex, First Floor Shop 1 -2, Mangnath Road, Junagadh - 362001, Dist.Junagadh, Gujarat",8043851522,
Anmol Light Pink Hybrid Wrap,,Anmol Baby,https://www.indiamart.com/anmol-baby-mumbai/?pos=193&kwd=baby wraps&tags=BA||||8211.142||product|||NA|rsf:gd-|-stype:attr=1|qr_nm:gd|res:RC4|com-cf:nl|ptrs:na|ktp:N0|mc:22737|mtp:S|qry_typ:P|lang:en|wc:2|cs:8837|v=4,False,,Mumbai,"3303, Lal Bahadur Shastri Marg, Runwal Anthurium Tower - 3, Mulund, Mumbai - 400080, Dist.Mumbai, Maharashtra",8047309008,1555
"Blue Baby Sleeping Bag Cum Baby Carry Bag, Newly Born",https://www.indiamart.com/proddetail/baby-sleeping-bag-cum-baby-carry-bag-2852435958855.html?pos=194&kwd=baby wraps&tags=||||8230.883|Price|product|||TS|rsf:gd-|-stype:attr=1|qr_nm:gd|res:RC4|com-cf:nl|ptrs:na|ktp:N0|mc:22737|mtp:S|qry_typ:P|lang:en|wc:2|cs:8837|v=4,Concept Enterprise,https://www.cartforbaby.com/?pos=194&kwd=baby wraps&tags=||||8230.883|Price|product|||TS|rsf:gd-|-stype:attr=1|qr_nm:gd|res:RC4|com-cf:nl|ptrs:na|ktp:N0|mc:22737|mtp:S|qry_typ:P|lang:en|wc:2|cs:8837|v=4,False,Dabholi,Surat,"17, Bhumi Park Society, Near Dabholi Road, Katargam, Dabholi, Surat - 395004, Dist.Surat, Gujarat",8047546659,
"Blue And White Plain Velvet Hooded Baby Blanket, 1 Year, Size: 65x65cm",https://www.indiamart.com/proddetail/plain-velvet-hooded-baby-blanket-2851612204748.html?pos=195&kwd=baby wraps&tags=||||8661.854|Price|product|||MDC|rsf:gd-|-stype:attr=1|qr_nm:gd|res:RC4|com-cf:nl|ptrs:na|ktp:N0|mc:22737|mtp:S|qry_typ:P|lang:en|wc:2|cs:8837|v=4,Raj Industries,https://www.indiamart.com/raj-industries-punjab/?pos=195&kwd=baby wraps&tags=||||8661.854|Price|product|||MDC|rsf:gd-|-stype:attr=1|qr_nm:gd|res:RC4|com-cf:nl|ptrs:na|ktp:N0|mc:22737|mtp:S|qry_typ:P|lang:en|wc:2|cs:8837|v=4,False,,Ludhiana,"H. No B 12 629, Kucha Anayat, Nr Div No 2 Brown Road, Ludhiana - 141008, Dist.Ludhiana, Punjab",7942800347,
White Multi Color Muslin New Born Baby Wrap,https://www.indiamart.com/proddetail/multi-color-muslin-new-born-baby-wrap-2850012453397.html?pos=196&kwd=baby wraps&tags=CA||||8228.275|Price|product|||MDC|rsf:gd-|-stype:attr=1|qr_nm:gd|res:RC4|com-cf:nl|ptrs:na|ktp:N0|mc:22737|mtp:S|qry_typ:P|lang:en|wc:2|cs:8837|v=4,Eco Shakti,https://www.indiamart.com/ecoshakti/?pos=196&kwd=baby wraps&tags=CA||||8228.275|Price|product|||MDC|rsf:gd-|-stype:attr=1|qr_nm:gd|res:RC4|com-cf:nl|ptrs:na|ktp:N0|mc:22737|mtp:S|qry_typ:P|lang:en|wc:2|cs:8837|v=4,False,Vastral,Ahmedabad,"41, Samrajya Nagar Society, Mahadev Nagar, Vastral, Vastral, Ahmedabad - 382418, Dist.Ahmedabad, Gujarat",7942802736,
"Multicolor Bamboo Cotton ( Muslin Cotton) Hooded Baby Blanket, Size: Singe",https://www.indiamart.com/proddetail/hooded-baby-blanket-2854212150173.html?pos=197&kwd=baby wraps&tags=||||8752.144|Price|product|||TS|rsf:gd-|-stype:attr=1|qr_nm:gd|res:RC4|com-cf:nl|ptrs:na|ktp:N0|mc:22737|mtp:S|qry_typ:P|lang:en|wc:2|cs:8837|v=4,Verma Enterprises,https://www.styaloindia.com/?pos=197&kwd=baby wraps&tags=||||8752.144|Price|product|||TS|rsf:gd-|-stype:attr=1|qr_nm:gd|res:RC4|com-cf:nl|ptrs:na|ktp:N0|mc:22737|mtp:S|qry_typ:P|lang:en|wc:2|cs:8837|v=4,False,Samaypur,New Delhi,"Plot No.180/1-B, Kh.No. 955/1, 1st, Block-C, Raja Vihar, Siraspur, Badli, North West Delhi, Samaypur, New Delhi - 110042, Dist.Delhi, Delhi",8047654672,
Velvet Size: Double Baby Blankets,https://www.indiamart.com/proddetail/baby-blankets-2854715411062.html?pos=198&kwd=baby wraps&tags=||||8661.854|Price|product|||MDC|rsf:gd-|-stype:attr=1|qr_nm:gd|res:RC4|com-cf:nl|ptrs:na|ktp:N0|mc:22737|mtp:S|qry_typ:P|lang:en|wc:2|cs:8837|v=4,Universal Traders,https://www.indiamart.com/universaltraderspunjab/?pos=198&kwd=baby wraps&tags=||||8661.854|Price|product|||MDC|rsf:gd-|-stype:attr=1|qr_nm:gd|res:RC4|com-cf:nl|ptrs:na|ktp:N0|mc:22737|mtp:S|qry_typ:P|lang:en|wc:2|cs:8837|v=4,False,Iqbal Ganj,Ludhiana,"B-X- 435, Telian Street, Near Iqbal Ganj Chowk, Iqbal Ganj, Ludhiana - 141008, Dist.Ludhiana, Punjab",8045731865,
Unisex Baby Carry Nest/Baby Sleeping Bag/Baby Wrap for Newborn Baby Boys Girls (0-3 Months),https://www.indiamart.com/proddetail/unisex-baby-carry-nest-baby-sleeping-bag-baby-wrap-for-newborn-baby-boys-girls-0-3-months-2852997270755.html?pos=199&kwd=baby wraps&tags=||||9842.824|Price|product|||TS|rsf:gd-|-stype:attr=1|qr_nm:gd|res:RC4|com-cf:nl|ptrs:na|ktp:N0|mc:22737|mtp:S|qry_typ:P|lang:en|wc:2|cs:8837|v=4,Indilittle Global Export,https://www.indiamart.com/indilittleglobalexport/?pos=199&kwd=baby wraps&tags=||||9842.824|Price|product|||TS|rsf:gd-|-stype:attr=1|qr_nm:gd|res:RC4|com-cf:nl|ptrs:na|ktp:N0|mc:22737|mtp:S|qry_typ:P|lang:en|wc:2|cs:8837|v=4,False,Haripal,Hooghly,"BRAHMANPARA, NALIKUL PASCHIM, HARIPAL, Haripal, Hooghly - 712405, Dist.Hooghly, West Bengal",8048977919,
Baby Multi Cotton Bedding And Carrying Sleeping Bag,https://www.indiamart.com/proddetail/baby-multi-cotton-bedding-and-carrying-sleeping-bag-20710817088.html?pos=202&kwd=baby wraps&tags=||||8752.144|Price|product|||TS|rsf:gd-|-stype:attr=1|qr_nm:gd|res:RC4|com-cf:nl|ptrs:na|ktp:N0|mc:22737|mtp:S|qry_typ:P|lang:en|wc:2|cs:8837|v=4,National Overseas,https://www.indiamart.com/nationaltraders-vishwashnagar/?pos=202&kwd=baby wraps&tags=||||8752.144|Price|product|||TS|rsf:gd-|-stype:attr=1|qr_nm:gd|res:RC4|com-cf:nl|ptrs:na|ktp:N0|mc:22737|mtp:S|qry_typ:P|lang:en|wc:2|cs:8837|v=4,False,Shahdara,New Delhi,"1/99, Gali No. 3, Vishwas Nagar, Shahdara, New Delhi - 110032, Dist.Delhi, Delhi",8046047673,
"Cartoon Baby Hooded Blanket, Size: Singe, 0-2",https://www.indiamart.com/proddetail/baby-hooded-blanket-2851789151030.html?pos=201&kwd=baby wraps&tags=||||8661.854||product|||TS|rsf:gd-|-stype:attr=1|qr_nm:gd|res:RC4|com-cf:nl|ptrs:na|ktp:N0|mc:22737|mtp:S|qry_typ:P|lang:en|wc:2|cs:8837|v=4,A K Davinder Hosiery,https://www.nnhgroups.com/?pos=201&kwd=baby wraps&tags=||||8661.854||product|||TS|rsf:gd-|-stype:attr=1|qr_nm:gd|res:RC4|com-cf:nl|ptrs:na|ktp:N0|mc:22737|mtp:S|qry_typ:P|lang:en|wc:2|cs:8837|v=4,False,Madhopuri,Ludhiana,"873, Tilak Nagar, (Ganji Chhapri), Madhopuri, Ludhiana - 141008, Dist.Ludhiana, Punjab",8048607076,
Baby Multi Cotton Bedding And Carrying Sleeping Bag,https://www.indiamart.com/proddetail/baby-multi-cotton-bedding-and-carrying-sleeping-bag-20710817088.html?pos=202&kwd=baby wraps&tags=||||8752.144|Price|product|||TS|rsf:gd-|-stype:attr=1|qr_nm:gd|res:RC4|com-cf:nl|ptrs:na|ktp:N0|mc:22737|mtp:S|qry_typ:P|lang:en|wc:2|cs:8837|v=4,National Overseas,https://www.indiamart.com/nationaltraders-vishwashnagar/?pos=202&kwd=baby wraps&tags=||||8752.144|Price|product|||TS|rsf:gd-|-stype:attr=1|qr_nm:gd|res:RC4|com-cf:nl|ptrs:na|ktp:N0|mc:22737|mtp:S|qry_typ:P|lang:en|wc:2|cs:8837|v=4,False,Shahdara,New Delhi,"1/99, Gali No. 3, Vishwas Nagar, Shahdara, New Delhi - 110032, Dist.Delhi, Delhi",8046047673,
"little monkeys jumbo size baby cotton mosquito net bed, For Home, Size: XL",https://www.indiamart.com/proddetail/little-monkeys-jumbo-size-baby-cotton-mosquito-net-bed-2851532198888.html?pos=203&kwd=baby wraps&tags=||||8752.144|Price|product|||TS|rsf:gd-|-stype:attr=1|qr_nm:gd|res:RC4|com-cf:nl|ptrs:na|ktp:N0|mc:22737|mtp:S|qry_typ:P|lang:en|wc:2|cs:8837|v=4,Ekta Overseas,https://www.indiamart.com/ektaoverseas-newdelhi/?pos=203&kwd=baby wraps&tags=||||8752.144|Price|product|||TS|rsf:gd-|-stype:attr=1|qr_nm:gd|res:RC4|com-cf:nl|ptrs:na|ktp:N0|mc:22737|mtp:S|qry_typ:P|lang:en|wc:2|cs:8837|v=4,False,Shahdara,New Delhi,"1/95, Gali No.3, Near Navjeevan Phisical Center, Vishwas Nagar, Shahdara,, Shahdara, New Delhi - 110032, Dist.Delhi, Delhi",7942628926,
Cotton Baby Swaddle Wrap,https://www.indiamart.com/proddetail/baby-swaddle-wrap-2852400531755.html?pos=204&kwd=baby wraps&tags=||||8747.203|Price|product|||TS|rsf:gd-|-stype:attr=1|qr_nm:gd|res:RC4|com-cf:nl|ptrs:na|ktp:N0|mc:22737|mtp:S|qry_typ:P|lang:en|wc:2|cs:8837|v=4,Tulsi Handicraft,https://www.indiamart.com/tulsihandicraftpanipat/?pos=204&kwd=baby wraps&tags=||||8747.203|Price|product|||TS|rsf:gd-|-stype:attr=1|qr_nm:gd|res:RC4|com-cf:nl|ptrs:na|ktp:N0|mc:22737|mtp:S|qry_typ:P|lang:en|wc:2|cs:8837|v=4,False,Netaji Colony,Panipat,"10, Gangapuri Road, Netaji Colony, Panipat - 132103, Dist.Panipat, Haryana",7942837797,
Purpal And Black Fancy Baby Carrier,https://www.indiamart.com/proddetail/fancy-baby-carrier-19916199888.html?pos=205&kwd=baby wraps&tags=||||8752.144|Price|product|||TS|rsf:gd-|-stype:attr=1|qr_nm:gd|res:RC4|com-cf:nl|ptrs:na|ktp:N0|mc:22737|mtp:S|qry_typ:P|lang:en|wc:2|cs:8837|v=4,Nimesh Enterprises,https://www.indiamart.com/nimesh-enterprises/?pos=205&kwd=baby wraps&tags=||||8752.144|Price|product|||TS|rsf:gd-|-stype:attr=1|qr_nm:gd|res:RC4|com-cf:nl|ptrs:na|ktp:N0|mc:22737|mtp:S|qry_typ:P|lang:en|wc:2|cs:8837|v=4,False,Rajpur Khurd,New Delhi,"A- 8, Rajpur Khurd, Tivoli Garden, Rajpur Khurd, New Delhi - 110068, Dist.Delhi, Delhi",8047634050,
Baby Carrier Bag,https://www.indiamart.com/proddetail/baby-carrier-bag-23160857688.html?pos=206&kwd=baby wraps&tags=||||8752.144|Price|product|||TS|rsf:gd-|-stype:attr=1|qr_nm:gd|res:RC4|com-cf:nl|ptrs:na|ktp:N0|mc:22737|mtp:S|qry_typ:P|lang:en|wc:2|cs:8837|v=4,Melvis,https://www.indiamart.com/melvis/?pos=206&kwd=baby wraps&tags=||||8752.144|Price|product|||TS|rsf:gd-|-stype:attr=1|qr_nm:gd|res:RC4|com-cf:nl|ptrs:na|ktp:N0|mc:22737|mtp:S|qry_typ:P|lang:en|wc:2|cs:8837|v=4,False,Swaroop Nagar,New Delhi,"First Floor, House Number 185/12, Block-B, Yadav Market Road Chowk, Swaroop Nagar,, Swaroop Nagar, New Delhi - 110042, Dist.Delhi, Delhi",8047632851,
Multicolor Cotton New born baby sleeping Bag,https://www.indiamart.com/proddetail/new-born-baby-sleeping-bag-2854193141248.html?pos=207&kwd=baby wraps&tags=||||9189.305|Price|product|||MDC|rsf:gd-|-stype:attr=1|qr_nm:gd|res:RC4|com-cf:nl|ptrs:na|ktp:N0|mc:22737|mtp:S|qry_typ:P|lang:en|wc:2|cs:8837|v=4,Sudhanjali Enterprises,https://www.indiamart.com/sudhanjalienterprises/?pos=207&kwd=baby wraps&tags=||||9189.305|Price|product|||MDC|rsf:gd-|-stype:attr=1|qr_nm:gd|res:RC4|com-cf:nl|ptrs:na|ktp:N0|mc:22737|mtp:S|qry_typ:P|lang:en|wc:2|cs:8837|v=4,False,,Prayagraj,"H No-10/7, Basahi, Nataka Babura, Khain, Prayagraj - 212307, Dist.Allahabad, Uttar Pradesh",7942964273,
Pink Newborn Baby Folding Cradle,https://www.indiamart.com/proddetail/pink-newborn-baby-folding-cradle-2854851661297.html?pos=208&kwd=baby wraps&tags=||||8752.144|Price|product|||MDC|rsf:gd-|-stype:attr=1|qr_nm:gd|res:RC4|com-cf:nl|ptrs:na|ktp:N0|mc:22737|mtp:S|qry_typ:P|lang:en|wc:2|cs:8837|v=4,V P Product,https://www.indiamart.com/vpproduct/?pos=208&kwd=baby wraps&tags=||||8752.144|Price|product|||MDC|rsf:gd-|-stype:attr=1|qr_nm:gd|res:RC4|com-cf:nl|ptrs:na|ktp:N0|mc:22737|mtp:S|qry_typ:P|lang:en|wc:2|cs:8837|v=4,False,,New Delhi,"Ground Floor, H.No.- E-5/139, Gali No. - 5, East Gokal Pur, North East Delhi, New Delhi - 110094, Dist.Delhi, Delhi",8044460681,
"Multicolor Cotton Baby Carrier, Age Group: 3-12 Months, Packaging Type: Plastic Bag",https://www.indiamart.com/proddetail/cotton-baby-carrier-2853670550673.html?pos=209&kwd=baby wraps&tags=||||8663.873|Price|product|||MDC|rsf:gd-|-stype:attr=1|qr_nm:gd|res:RC4|com-cf:nl|ptrs:na|ktp:N0|mc:22737|mtp:S|qry_typ:P|lang:en|wc:2|cs:8837|v=4,Nipika Vrapped Gifting,https://www.indiamart.com/nipika-vrapped-gifting/?pos=209&kwd=baby wraps&tags=||||8663.873|Price|product|||MDC|rsf:gd-|-stype:attr=1|qr_nm:gd|res:RC4|com-cf:nl|ptrs:na|ktp:N0|mc:22737|mtp:S|qry_typ:P|lang:en|wc:2|cs:8837|v=4,False,Bengaluru Urban,Bengaluru,"9/1, 23rd Cross Road, Magadi Road, KP Agrahara, Bengaluru Urban, Bengaluru - 560023, Dist.Bengaluru, Karnataka",7949328723,
Firozi Polyester Kangaroo Style Baby Carrier,https://www.indiamart.com/proddetail/polyester-kangaroo-style-baby-carrier-27455195630.html?pos=210&kwd=baby wraps&tags=||||8752.144|Price|product|||MDC|rsf:gd-|-stype:attr=1|qr_nm:gd|res:RC4|com-cf:nl|ptrs:na|ktp:N0|mc:22737|mtp:S|qry_typ:P|lang:en|wc:2|cs:8837|v=4,Priyanshi International,https://www.indiamart.com/priyanshi-international-uttarpradesh/?pos=210&kwd=baby wraps&tags=||||8752.144|Price|product|||MDC|rsf:gd-|-stype:attr=1|qr_nm:gd|res:RC4|com-cf:nl|ptrs:na|ktp:N0|mc:22737|mtp:S|qry_typ:P|lang:en|wc:2|cs:8837|v=4,False,,New Delhi,"3,PROP NO S228,SCHOOL BLOCK,SHAKARPUR UGF, 3, Prop No S228, School Block, Shakarpur,110092, New Delhi - 110092, Dist.Delhi, Delhi",7942676139,
