product_title,product_link,company_name,company_link,is_verified_exporter,city_region,city,address_details,phone_number,phone_number_extension
White On Printed Cotton Baby New Born Nappies,https://www.indiamart.com/proddetail/baby-new-born-nappies-2851565208048.html?pos=1&kwd=baby cotton nappies&tags=A||||8668.838|Price|product|||TS|rsf:gd-|-stype:attr=1|qr_nm:gd|res:RC4|com-cf:nl|ptrs:na|ktp:N0|mc:98606|mtp:S|qry_typ:P|lang:en|wc:3|flavl:0|cs:9609|v=4,Meenu's Manchesters,https://www.hotelbedsheet.in/?pos=1&kwd=baby cotton nappies&tags=A||||8668.838|Price|product|||TS|rsf:gd-|-stype:attr=1|qr_nm:gd|res:RC4|com-cf:nl|ptrs:na|ktp:N0|mc:98606|mtp:S|qry_typ:P|lang:en|wc:3|flavl:0|cs:9609|v=4,False,Edayankattuvalsu,Erode,"26, Nggo Colony, 1, Edayankattuvalsu, Erode - 638009, Dist.Erode, Tamil Nadu",8048609221,
"Cotton Hosiery Nappy, Langot U-SHAPE - YELLOW, Size: Medium, Age Group: 3to12 Months",https://www.indiamart.com/proddetail/cotton-hosiery-nappy-langot-u-shape-yellow-2853679642455.html?pos=2&kwd=baby cotton nappies&tags=A||||8752.144|Price|product|||TS|rsf:gd-|-stype:attr=1|qr_nm:gd|res:RC4|com-cf:nl|ptrs:na|ktp:N0|mc:98606|mtp:S|qry_typ:P|lang:en|wc:3|flavl:0|cs:9609|v=4,Ekta Overseas,https://www.indiamart.com/ektaoverseas-newdelhi/?pos=2&kwd=baby cotton nappies&tags=A||||8752.144|Price|product|||TS|rsf:gd-|-stype:attr=1|qr_nm:gd|res:RC4|com-cf:nl|ptrs:na|ktp:N0|mc:98606|mtp:S|qry_typ:P|lang:en|wc:3|flavl:0|cs:9609|v=4,False,Shahdara,New Delhi,"1/95, Gali No.3, Near Navjeevan Phisical Center, Vishwas Nagar, Shahdara,, Shahdara, New Delhi - 110032, Dist.Delhi, Delhi",7942628926,
Muslin Soft Touch Cotton Made Reusable Diaper With 2 Pads Open Diaper Nappies,https://www.indiamart.com/proddetail/muslin-soft-touch-cotton-made-reusable-diaper-with-2-pads-open-diaper-nappies-23932670512.html?pos=3&kwd=baby cotton nappies&tags=A||||8706.263|Price|product|||TS|rsf:gd-|-stype:attr=1|qr_nm:gd|res:RC4|com-cf:nl|ptrs:na|ktp:N0|mc:98606|mtp:S|qry_typ:P|lang:en|wc:3|flavl:0|cs:9609|v=4,Mercury Weavers,https://www.indiamart.com/mercuryweavers/?pos=3&kwd=baby cotton nappies&tags=A||||8706.263|Price|product|||TS|rsf:gd-|-stype:attr=1|qr_nm:gd|res:RC4|com-cf:nl|ptrs:na|ktp:N0|mc:98606|mtp:S|qry_typ:P|lang:en|wc:3|flavl:0|cs:9609|v=4,False,Gowripuram,Karur,"35/3, 2nd Floor, Gandhi Nagar 3rd Cross, Karur Town, Gowripuram, Karur - 639001, Dist.Karur, Tamil Nadu",8047641180,
"Male Printed Baby Cotton Nappies, Large, Age Group: Newly Born",https://www.indiamart.com/proddetail/printed-baby-cotton-nappies-27405070933.html?pos=4&kwd=baby cotton nappies&tags=A||||8228.275|Price|product|||MDC|rsf:gd-|-stype:attr=1|qr_nm:gd|res:RC4|com-cf:nl|ptrs:na|ktp:N0|mc:98606|mtp:S|qry_typ:P|lang:en|wc:3|flavl:0|cs:9609|v=4,Born Baby,https://www.indiamart.com/born-baby-ahmedabad/?pos=4&kwd=baby cotton nappies&tags=A||||8228.275|Price|product|||MDC|rsf:gd-|-stype:attr=1|qr_nm:gd|res:RC4|com-cf:nl|ptrs:na|ktp:N0|mc:98606|mtp:S|qry_typ:P|lang:en|wc:3|flavl:0|cs:9609|v=4,False,,Ahmedabad,"708, Mahalaxmi Complex, Gheekanta GPO, Ahmedabad - 380001, Dist.Ahmedabad, Gujarat",7949331255,
Baby Cotton Nappies,https://www.indiamart.com/proddetail/baby-cotton-nappies-2853697892148.html?pos=5&kwd=baby cotton nappies&tags=A||||8211.142|Price|product|||TS|rsf:gd-|-stype:attr=1|qr_nm:gd|res:RC4|com-cf:nl|ptrs:na|ktp:N0|mc:98606|mtp:S|qry_typ:P|lang:en|wc:3|flavl:0|cs:9609|v=4,P For Panda Baby Products Private Limited,https://www.p4pandababyproducts.com/?pos=5&kwd=baby cotton nappies&tags=A||||8211.142|Price|product|||TS|rsf:gd-|-stype:attr=1|qr_nm:gd|res:RC4|com-cf:nl|ptrs:na|ktp:N0|mc:98606|mtp:S|qry_typ:P|lang:en|wc:3|flavl:0|cs:9609|v=4,False,Goregaon West,Mumbai,"904 A Wing,9 Th Floor,Triple S Heights,Jakeria Road, Goregaon West, Mumbai - 400064, Dist.Mumbai, Maharashtra",7942710871,
"100% Cotton Baby Nappies, Small",,Sidhshlok Enterprises,https://www.indiamart.com/sidhshlokenterprises/?pos=6&kwd=baby cotton nappies&tags=A||||8211.142|Price|product|||TS|rsf:gd-|-stype:attr=1|qr_nm:gd|res:RC4|com-cf:nl|ptrs:na|ktp:N0|mc:98606|mtp:S|qry_typ:P|lang:en|wc:3|flavl:0|cs:9609|v=4,False,Mulund West,Mumbai,"A-9, Chagpar Khimaji, R R T Road, Mumbai Suburban, Mulund West, Mumbai - 400080, Dist.Mumbai, Maharashtra",7942832648,
"Cotton Baby Diapers, Size: Large",https://www.indiamart.com/proddetail/cotton-baby-diapers-2851284044891.html?pos=7&kwd=baby cotton nappies&tags=A||||8830.388|Price|product|||TS|rsf:gd-|-stype:attr=1|qr_nm:gd|res:RC4|com-cf:nl|ptrs:na|ktp:N0|mc:98606|mtp:S|qry_typ:P|lang:en|wc:3|flavl:0|cs:9609|v=4,Easeplus Healthcare Private Limited,https://www.ezoyplus.in/?pos=7&kwd=baby cotton nappies&tags=A||||8830.388|Price|product|||TS|rsf:gd-|-stype:attr=1|qr_nm:gd|res:RC4|com-cf:nl|ptrs:na|ktp:N0|mc:98606|mtp:S|qry_typ:P|lang:en|wc:3|flavl:0|cs:9609|v=4,False,DD Nagar,Gwalior,"T 1298 K-61,Vrikampur Chouraha,Satabdipuram D D Nagar,Gwalior, DD Nagar, Gwalior - 474005, Dist.Gwalior, Madhya Pradesh",8048265864,
Chhote Janab Baby Nappy,https://www.indiamart.com/proddetail/chhote-janab-baby-nappy-19499716655.html?pos=8&kwd=baby cotton nappies&tags=A||||8752.144|Price|product|||TS|rsf:gd-|-stype:attr=1|qr_nm:gd|res:RC4|com-cf:nl|ptrs:na|ktp:N0|mc:98606|mtp:S|qry_typ:P|lang:en|wc:3|flavl:0|cs:9609|v=4,Shree Balaji Infant Wear,https://www.indiamart.com/chhotejanab/?pos=8&kwd=baby cotton nappies&tags=A||||8752.144|Price|product|||TS|rsf:gd-|-stype:attr=1|qr_nm:gd|res:RC4|com-cf:nl|ptrs:na|ktp:N0|mc:98606|mtp:S|qry_typ:P|lang:en|wc:3|flavl:0|cs:9609|v=4,False,Pahari Dhiraj,New Delhi,"1583- 84, Hathi Khana, Aziz Ganj, Bahadur Garh Road, Pahari Dhiraj, New Delhi - 110006, Dist.Delhi, Delhi",8047639754,
Baby Cotton Nappies,https://www.indiamart.com/proddetail/baby-cotton-nappies-2854722512097.html?pos=9&kwd=baby cotton nappies&tags=A||||8211.142|Price|product|||MDC|rsf:gd-|-stype:attr=1|qr_nm:gd|res:RC4|com-cf:nl|ptrs:na|ktp:N0|mc:98606|mtp:S|qry_typ:P|lang:en|wc:3|flavl:0|cs:9609|v=4,Krish Fashion Show,https://www.indiamart.com/krish-fashion-show/?pos=9&kwd=baby cotton nappies&tags=A||||8211.142|Price|product|||MDC|rsf:gd-|-stype:attr=1|qr_nm:gd|res:RC4|com-cf:nl|ptrs:na|ktp:N0|mc:98606|mtp:S|qry_typ:P|lang:en|wc:3|flavl:0|cs:9609|v=4,False,,Mumbai,"R No. 17, Sutar Chawl, Surya Nagar Ambewadi, LBS Marg Vikhroli, W HCC, Mumbai - 400083, Dist.Mumbai, Maharashtra",8045729834,
"Newborn Baby Cotton Nappies Langot, Small",https://www.indiamart.com/proddetail/newborn-baby-cotton-nappies-langot-2854851080691.html?pos=10&kwd=baby cotton nappies&tags=A||||8752.144|Price|product|||MDC|rsf:gd-|-stype:attr=1|qr_nm:gd|res:RC4|com-cf:nl|ptrs:na|ktp:N0|mc:98606|mtp:S|qry_typ:P|lang:en|wc:3|flavl:0|cs:9609|v=4,B N Hosiery,https://www.indiamart.com/bnhosiery/?pos=10&kwd=baby cotton nappies&tags=A||||8752.144|Price|product|||MDC|rsf:gd-|-stype:attr=1|qr_nm:gd|res:RC4|com-cf:nl|ptrs:na|ktp:N0|mc:98606|mtp:S|qry_typ:P|lang:en|wc:3|flavl:0|cs:9609|v=4,False,Ashok Vihar,New Delhi,"House No 130l, Block-E, Phase-1,Ashok, Vihar, Ashok Vihar, New Delhi - 110052, Dist.Delhi, Delhi",7942706809,
Pink (base) Nonwoven Newborn Baby Cotton Nappies Langot,https://www.indiamart.com/proddetail/newborn-baby-cotton-nappies-langot-2850807088688.html?pos=11&kwd=baby cotton nappies&tags=A||||8752.144|Price|product|||MDC|rsf:gd-|-stype:attr=1|qr_nm:gd|res:RC4|com-cf:nl|ptrs:na|ktp:N0|mc:98606|mtp:S|qry_typ:P|lang:en|wc:3|flavl:0|cs:9609|v=4,Mahi Hosiery,https://www.indiamart.com/mahi-hosierydelhi/?pos=11&kwd=baby cotton nappies&tags=A||||8752.144|Price|product|||MDC|rsf:gd-|-stype:attr=1|qr_nm:gd|res:RC4|com-cf:nl|ptrs:na|ktp:N0|mc:98606|mtp:S|qry_typ:P|lang:en|wc:3|flavl:0|cs:9609|v=4,False,Shastri Nagar,New Delhi,"144, Second Floor, Gali No-5, New Main Road, New Lahore Colony, Shastri Nagar, Shastri Nagar, New Delhi - 110031, Dist.Delhi, Delhi",8047699176,
Baby Cotton Nappies,https://www.indiamart.com/proddetail/baby-cotton-nappies-2849545362012.html?pos=12&kwd=baby cotton nappies&tags=A||||8307.81|Price|product|||TS|rsf:gd-|-stype:attr=1|qr_nm:gd|res:RC4|com-cf:nl|ptrs:na|ktp:N0|mc:98606|mtp:S|qry_typ:P|lang:en|wc:3|flavl:0|cs:9609|v=4,Lazytoddler Solutions Private Limited,https://www.indiamart.com/lazytoddler-solutions/?pos=12&kwd=baby cotton nappies&tags=A||||8307.81|Price|product|||TS|rsf:gd-|-stype:attr=1|qr_nm:gd|res:RC4|com-cf:nl|ptrs:na|ktp:N0|mc:98606|mtp:S|qry_typ:P|lang:en|wc:3|flavl:0|cs:9609|v=4,False,Wakad,Pune,"A2-1001, Fl-A1, Behind Madhuban Hotel, S.No-40, Armada Parkhe Wasti, Wakad, Wakad, Pune - 411057, Dist.Pune, Maharashtra",8043819563,
Multicolor Unisex Baby Cotton Nappies,https://www.indiamart.com/proddetail/baby-cotton-nappies-20731128397.html?pos=13&kwd=baby cotton nappies&tags=A||||8752.144|Price|product|||TS|rsf:gd-|-stype:attr=1|qr_nm:gd|res:RC4|com-cf:nl|ptrs:na|ktp:N0|mc:98606|mtp:S|qry_typ:P|lang:en|wc:3|flavl:0|cs:9609|v=4,National Overseas,https://www.indiamart.com/nationaltraders-vishwashnagar/?pos=13&kwd=baby cotton nappies&tags=A||||8752.144|Price|product|||TS|rsf:gd-|-stype:attr=1|qr_nm:gd|res:RC4|com-cf:nl|ptrs:na|ktp:N0|mc:98606|mtp:S|qry_typ:P|lang:en|wc:3|flavl:0|cs:9609|v=4,False,Shahdara,New Delhi,"1/99, Gali No. 3, Vishwas Nagar, Shahdara, New Delhi - 110032, Dist.Delhi, Delhi",8046047673,
Cotton Baby Diapers,https://www.indiamart.com/proddetail/cotton-baby-diapers-2852631439355.html?pos=14&kwd=baby cotton nappies&tags=A||||9501.713|Price|product|||TS|rsf:gd-|-stype:attr=1|qr_nm:gd|res:RC4|com-cf:nl|ptrs:na|ktp:N0|mc:98606|mtp:S|qry_typ:P|lang:en|wc:3|flavl:0|cs:9609|v=4,No.1 Health Care,https://www.indiamart.com/no1-healthcare/?pos=14&kwd=baby cotton nappies&tags=A||||9501.713|Price|product|||TS|rsf:gd-|-stype:attr=1|qr_nm:gd|res:RC4|com-cf:nl|ptrs:na|ktp:N0|mc:98606|mtp:S|qry_typ:P|lang:en|wc:3|flavl:0|cs:9609|v=4,False,Musahri,Motihari,"Baluwa,Malahi Panchbalua,Paharpur,Purbi Champaran, Musahri, Motihari - 845422, Dist.East Champaran, Bihar",8048981915,
"Baby Langots Nappies, Small",https://www.indiamart.com/proddetail/baby-langots-nappies-2854991872012.html?pos=15&kwd=baby cotton nappies&tags=A||||8242.731||product|||TS|rsf:gd-|-stype:attr=1|qr_nm:gd|res:RC4|com-cf:nl|ptrs:na|ktp:N0|mc:98606|mtp:S|qry_typ:P|lang:en|wc:3|cs:8846|v=4,Om Traders,https://www.indiamart.com/omtraders-maharashtra/?pos=15&kwd=baby cotton nappies&tags=A||||8242.731||product|||TS|rsf:gd-|-stype:attr=1|qr_nm:gd|res:RC4|com-cf:nl|ptrs:na|ktp:N0|mc:98606|mtp:S|qry_typ:P|lang:en|wc:3|cs:8846|v=4,False,Siru Chowk,Ulhasnagar,"Sant Chellaram Market, Shop No.19, 1st Floor, Siru Chowk, Ulhasnagar - 421002, Dist.Thane, Maharashtra",7942553425,
"Dumbledo Quick Absorbent Baby Cotton Nappy, Small, Age Group: Newly Born",https://www.indiamart.com/proddetail/dumbledo-quick-absorbent-baby-cotton-nappy-2854254006648.html?pos=16&kwd=baby cotton nappies&tags=A||||8211.142|Price|product|||MDC|rsf:gd-|-stype:attr=1|qr_nm:gd|res:RC4|com-cf:nl|ptrs:na|ktp:N0|mc:98606|mtp:S|qry_typ:P|lang:en|wc:3|cs:8846|v=4,Dumbledo,https://www.indiamart.com/dumbledo-mumbai/?pos=16&kwd=baby cotton nappies&tags=A||||8211.142|Price|product|||MDC|rsf:gd-|-stype:attr=1|qr_nm:gd|res:RC4|com-cf:nl|ptrs:na|ktp:N0|mc:98606|mtp:S|qry_typ:P|lang:en|wc:3|cs:8846|v=4,False,,Mumbai,"1st Floor, B/105, Bhoomi Valley, Thakur Village Road, Mumbai - 400101, Dist.Mumbai, Maharashtra",8044560722,
"7 soft 36 Months Cotton Disposable Baby Diaper Pant, Size: Large, Packaging Size: 30 Pieces",https://www.indiamart.com/proddetail/cotton-disposable-baby-diaper-pant-26442407162.html?pos=17&kwd=baby cotton nappies&tags=A||||8230.883|Price|product|||TS|rsf:gd-|-stype:attr=1|qr_nm:gd|res:RC4|com-cf:nl|ptrs:na|ktp:N0|mc:98606|mtp:S|qry_typ:P|lang:en|wc:3|cs:8846|v=4,M. D. Hygiene Private Limited,https://www.mdhygieneindia.com/?pos=17&kwd=baby cotton nappies&tags=A||||8230.883|Price|product|||TS|rsf:gd-|-stype:attr=1|qr_nm:gd|res:RC4|com-cf:nl|ptrs:na|ktp:N0|mc:98606|mtp:S|qry_typ:P|lang:en|wc:3|cs:8846|v=4,True,Tadkeshwar,Surat,"Block No. 959, Kim Mandvi Road, Tadkeshwar, Surat - 394170, Dist.Surat, Gujarat",8046050788,
Toddlers Baby Diapers Open Style Pack Of 2 Large,https://www.indiamart.com/proddetail/toddlers-baby-diapers-open-style-pack-of-2-large-20269975712.html?pos=18&kwd=baby cotton nappies&tags=A||||8786.56|Price|product|||TS|rsf:gd-|-stype:attr=1|qr_nm:gd|res:RC4|com-cf:nl|ptrs:na|ktp:N0|mc:98606|mtp:S|qry_typ:P|lang:en|wc:3|cs:8846|v=4,ADML(ADROIT MOLECULES),https://www.adroitmolecules.com/?pos=18&kwd=baby cotton nappies&tags=A||||8786.56|Price|product|||TS|rsf:gd-|-stype:attr=1|qr_nm:gd|res:RC4|com-cf:nl|ptrs:na|ktp:N0|mc:98606|mtp:S|qry_typ:P|lang:en|wc:3|cs:8846|v=4,False,Annaram,Hyderabad,"Plot No. 523/2 Dundigal Village , Medchal, Malkajgiri, Near Marri Laxman Reddy Engineering College, Annaram, Hyderabad - 500043, Dist.Hyderabad, Telangana",8046057643,
White Cotton Baby Diaper,https://www.indiamart.com/proddetail/cotton-baby-diaper-2851257306162.html?pos=19&kwd=baby cotton nappies&tags=A||||8954.051|Price|product|||TS|rsf:gd-|-stype:attr=1|qr_nm:gd|res:RC4|com-cf:nl|ptrs:na|ktp:N0|mc:98606|mtp:S|qry_typ:P|lang:en|wc:3|cs:8846|v=4,The Exultant Enterprises,https://www.theexultantenterprises.com/?pos=19&kwd=baby cotton nappies&tags=A||||8954.051|Price|product|||TS|rsf:gd-|-stype:attr=1|qr_nm:gd|res:RC4|com-cf:nl|ptrs:na|ktp:N0|mc:98606|mtp:S|qry_typ:P|lang:en|wc:3|cs:8846|v=4,False,Velacheri,Chennai,"Building No. 13, New Secreterary Colony 6th Street,, Velacheri, Chennai - 600042, Dist.Chennai, Tamil Nadu",8048960064,
"Cotton Baby Reusable Diapers, Medium",https://www.indiamart.com/proddetail/baby-reusable-diapers-2853333487048.html?pos=20&kwd=baby cotton nappies&tags=A||||8823.154|Price|product|||TS|rsf:gd-|-stype:attr=1|qr_nm:gd|res:RC4|com-cf:nl|ptrs:na|ktp:N0|mc:98606|mtp:S|qry_typ:P|lang:en|wc:3|cs:8846|v=4,Shri Anant International,https://www.indiamart.com/shrianantinternational/?pos=20&kwd=baby cotton nappies&tags=A||||8823.154|Price|product|||TS|rsf:gd-|-stype:attr=1|qr_nm:gd|res:RC4|com-cf:nl|ptrs:na|ktp:N0|mc:98606|mtp:S|qry_typ:P|lang:en|wc:3|cs:8846|v=4,False,DayalBagh,Agra,"No.02,House 2,Alkapuri Phase Ii,Agra, DayalBagh, Agra - 282005, Dist.Agra, Uttar Pradesh",7942721451,
"Cotton Blend Reusable Cloth Baby Diapers, Size: Medium",https://www.indiamart.com/proddetail/reusable-cloth-baby-diapers-2849509005197.html?pos=21&kwd=baby cotton nappies&tags=A||||8752.144|Price|product|||TS|rsf:gd-|-stype:attr=1|qr_nm:gd|res:RC4|com-cf:nl|ptrs:na|ktp:N0|mc:98606|mtp:S|qry_typ:P|lang:en|wc:3|cs:8846|v=4,R B Enterprises,https://www.indiamart.com/rbenterpriseskondalinewdelhi/?pos=21&kwd=baby cotton nappies&tags=A||||8752.144|Price|product|||TS|rsf:gd-|-stype:attr=1|qr_nm:gd|res:RC4|com-cf:nl|ptrs:na|ktp:N0|mc:98606|mtp:S|qry_typ:P|lang:en|wc:3|cs:8846|v=4,False,Gharoli,New Delhi,"Ground, 58 F/F/R/S Brahman Basti, Kondli Main Road, Kondli Gharoli,, Gharoli, New Delhi - 110094, Dist.Delhi, Delhi",7942535965,
"Nonwoven Disposable Newborn Baby Diaper, Age Group: Newly Born, Packaging Size: 24",https://www.indiamart.com/proddetail/baby-diaper-newborn-22990172433.html?pos=22&kwd=baby cotton nappies&tags=A||||9870.655|Price|product|||TS|rsf:gd-|-stype:attr=1|qr_nm:gd|res:RC4|com-cf:nl|ptrs:na|ktp:N0|mc:98606|mtp:S|qry_typ:P|lang:en|wc:3|cs:8846|v=4,Bengal Feminine Care,https://www.indiamart.com/bengal-feminine-care/?pos=22&kwd=baby cotton nappies&tags=A||||9870.655|Price|product|||TS|rsf:gd-|-stype:attr=1|qr_nm:gd|res:RC4|com-cf:nl|ptrs:na|ktp:N0|mc:98606|mtp:S|qry_typ:P|lang:en|wc:3|cs:8846|v=4,False,Barasat,Habra,"Habra, No. 2 ,Railway Gate, District North 24 Parganas, Barasat, Habra - 743263, Dist.North 24 Parganas, West Bengal",8046062955,
Nonwoven Baby Diaper,https://www.indiamart.com/proddetail/nonwoven-baby-diaper-2852539928348.html?pos=23&kwd=baby cotton nappies&tags=A||||8038.093|Price|product|||TS|rsf:gd-|-stype:attr=1|qr_nm:gd|res:RC4|com-cf:nl|ptrs:na|ktp:N0|mc:98606|mtp:S|qry_typ:P|lang:en|wc:3|cs:8846|v=4,Glowlyf Tradelink Private Limited,https://www.indiamart.com/glowlyftradelinkprivatelimited/?pos=23&kwd=baby cotton nappies&tags=A||||8038.093|Price|product|||TS|rsf:gd-|-stype:attr=1|qr_nm:gd|res:RC4|com-cf:nl|ptrs:na|ktp:N0|mc:98606|mtp:S|qry_typ:P|lang:en|wc:3|cs:8846|v=4,False,GIDC,Rajkot,"Gidc 2, Plot No 136, Opp. R M Steel, Aji Industrial Estate, Rajkot Industrial Area Dhamalpar, GIDC, Rajkot - 360003, Dist.Rajkot, Gujarat",7942711689,
"Disposable Cotton Baby Diapers, Age Group: 3to12 Months, Size: Medium",https://www.indiamart.com/proddetail/disposable-cotton-baby-diapers-2853884351097.html?pos=24&kwd=baby cotton nappies&tags=A||||9110.092|Price|product|||MDC|rsf:gd-|-stype:attr=1|qr_nm:gd|res:RC4|com-cf:nl|ptrs:na|ktp:N0|mc:98606|mtp:S|qry_typ:P|lang:en|wc:3|cs:8846|v=4,King Import And Export,https://www.indiamart.com/kingimportexport/?pos=24&kwd=baby cotton nappies&tags=A||||9110.092|Price|product|||MDC|rsf:gd-|-stype:attr=1|qr_nm:gd|res:RC4|com-cf:nl|ptrs:na|ktp:N0|mc:98606|mtp:S|qry_typ:P|lang:en|wc:3|cs:8846|v=4,False,Hind Nagar,Lucknow,"F-489, Lucknow Bypass, Parking No 9, Transport Nagar, Hind Nagar, Lucknow - 226012, Dist.Lucknow, Uttar Pradesh",7949086924,
"Cotton Kids Reusable Diaper, Small",https://www.indiamart.com/proddetail/kids-reusable-diaper-2855085866388.html?pos=25&kwd=baby cotton nappies&tags=A||||8626.744|Price|product|||MDC|rsf:gd-|-stype:attr=1|qr_nm:gd|res:RC4|com-cf:nl|ptrs:na|ktp:N0|mc:98606|mtp:S|qry_typ:P|lang:en|wc:3|cs:8846|v=4,Rich Plus Garment,https://www.indiamart.com/rich-plus-garment/?pos=25&kwd=baby cotton nappies&tags=A||||8626.744|Price|product|||MDC|rsf:gd-|-stype:attr=1|qr_nm:gd|res:RC4|com-cf:nl|ptrs:na|ktp:N0|mc:98606|mtp:S|qry_typ:P|lang:en|wc:3|cs:8846|v=4,False,Rayapuram,Tiruppur,"22, 2/92 B Kumarappapuram 2nd Street, Rayapuram, Tiruppur - 641601, Dist.Coimbatore, Tamil Nadu",7949092088,
"Cradle Togs Pvc Cotton Diaper With Terry Lining, Age Group: 3-12 Months, Packaging Size: 6 Pc In One Polypack",https://www.indiamart.com/proddetail/diaper-with-terry-lining-10164536691.html?pos=26&kwd=baby cotton nappies&tags=A||||8752.144|Price|product|||TS|rsf:gd-|-stype:attr=1|qr_nm:gd|res:RC4|com-cf:nl|ptrs:na|ktp:N0|mc:98606|mtp:S|qry_typ:P|lang:en|wc:3|cs:8846|v=4,Man Singh & Sons Private Limited,https://www.babyproductsmanufacturer.com/?pos=26&kwd=baby cotton nappies&tags=A||||8752.144|Price|product|||TS|rsf:gd-|-stype:attr=1|qr_nm:gd|res:RC4|com-cf:nl|ptrs:na|ktp:N0|mc:98606|mtp:S|qry_typ:P|lang:en|wc:3|cs:8846|v=4,False,Karol Bagh,New Delhi,"No. 13/24, 1st Floor, W. E. A., Karol Bagh, Karol Bagh, New Delhi - 110005, Dist.Delhi, Delhi",8048978579,
"Pink Printed Baby Cloth Cotton Diaper, Medium, Age Group: 3to12 Months",https://www.indiamart.com/proddetail/pink-printed-baby-cloth-cotton-diaper-2854709640548.html?pos=27&kwd=baby cotton nappies&tags=A||||8626.744|Price|product|||MDC|rsf:gd-|-stype:attr=1|qr_nm:gd|res:RC4|com-cf:nl|ptrs:na|ktp:N0|mc:98606|mtp:S|qry_typ:P|lang:en|wc:3|cs:8846|v=4,Hugbae Kidswear Manufacturers,https://www.indiamart.com/hugbae-kidswearmanufacturers/?pos=27&kwd=baby cotton nappies&tags=A||||8626.744|Price|product|||MDC|rsf:gd-|-stype:attr=1|qr_nm:gd|res:RC4|com-cf:nl|ptrs:na|ktp:N0|mc:98606|mtp:S|qry_typ:P|lang:en|wc:3|cs:8846|v=4,False,,Tiruppur,"2/301A, 2/301B,2/301C, 2/301D, SRC Nagar, Palladam Taluk, Ganapathipalayam, Tiruppur - 641605, Dist.Coimbatore, Tamil Nadu",8044460250,
"Reusable baby Nappies, Medium, Age Group: Newly Born",https://www.indiamart.com/proddetail/reusable-baby-nappies-2854731658297.html?pos=28&kwd=baby cotton nappies&tags=A||||8559.269|Price|product|||MDC|rsf:gd-|-stype:attr=1|qr_nm:gd|res:RC4|com-cf:nl|ptrs:na|ktp:N0|mc:98606|mtp:S|qry_typ:P|lang:en|wc:3|cs:8846|v=4,Sheza Enterprises,https://www.indiamart.com/shezaenterprises/?pos=28&kwd=baby cotton nappies&tags=A||||8559.269|Price|product|||MDC|rsf:gd-|-stype:attr=1|qr_nm:gd|res:RC4|com-cf:nl|ptrs:na|ktp:N0|mc:98606|mtp:S|qry_typ:P|lang:en|wc:3|cs:8846|v=4,False,,Indore,"Alif House, 5, Khajrana Main Road, Opposite HP Petrol Pump,, Indore - 452001, Dist.Indore, Madhya Pradesh",7948547068,
"Best Muslin Cotton Baby Langot, Nappy Wholesale Supplier & Manufacturer from Firstin Brand in India",https://www.indiamart.com/proddetail/best-muslin-cotton-baby-langot-nappy-wholesale-supplier-manufacturer-from-firstin-brand-in-india-20970853733.html?pos=29&kwd=baby cotton nappies&tags=BA||||8668.838|Price|product|||TS|rsf:gd-|-stype:attr=1|qr_nm:gd|res:RC4|com-cf:nl|ptrs:na|ktp:N0|mc:98606|mtp:S|qry_typ:P|lang:en|wc:3|cs:8846|v=4,Sri Kalyan Export Private Limited,https://www.firstinbabydress.com/?pos=29&kwd=baby cotton nappies&tags=BA||||8668.838|Price|product|||TS|rsf:gd-|-stype:attr=1|qr_nm:gd|res:RC4|com-cf:nl|ptrs:na|ktp:N0|mc:98606|mtp:S|qry_typ:P|lang:en|wc:3|cs:8846|v=4,False,Vilarasampatti,Erode,"192/4, Ishwarya Garden, Sengodampalayam, Villarasampatti Post, Erode,, Vilarasampatti, Erode - 638107, Dist.Erode, Tamil Nadu",8046030291,
Baby Flannel Nappy,https://www.indiamart.com/proddetail/baby-flannel-nappy-2854165420088.html?pos=30&kwd=baby cotton nappies&tags=BB||||8559.269|Price|product|||TS|rsf:gd-|-stype:attr=1|qr_nm:gd|res:RC4|com-cf:nl|ptrs:na|ktp:N0|mc:98606|mtp:S|qry_typ:P|lang:en|wc:3|cs:8846|v=4,Nayak Textile Private Limited,https://www.flannelmanufacturer.com/?pos=30&kwd=baby cotton nappies&tags=BB||||8559.269|Price|product|||TS|rsf:gd-|-stype:attr=1|qr_nm:gd|res:RC4|com-cf:nl|ptrs:na|ktp:N0|mc:98606|mtp:S|qry_typ:P|lang:en|wc:3|cs:8846|v=4,False,Industrial Area,Indore,"100,Industrial Area,Sector F,Sanwer Road,Indore, Industrial Area, Indore - 452015, Dist.Indore, Madhya Pradesh",7942789323,
Yellow Baby Reusable Cotton Nappy,https://www.indiamart.com/proddetail/baby-reusable-cotton-nappy-15147038333.html?pos=31&kwd=baby cotton nappies&tags=A||||8211.142|Price|product|||TS|rsf:gd-|-stype:attr=1|qr_nm:gd|res:RC4|com-cf:nl|ptrs:na|ktp:N0|mc:98606|mtp:S|qry_typ:P|lang:en|wc:3|cs:8846|v=4,Child King Creation,https://www.indiamart.com/childkingcreation-mumbai/?pos=31&kwd=baby cotton nappies&tags=A||||8211.142|Price|product|||TS|rsf:gd-|-stype:attr=1|qr_nm:gd|res:RC4|com-cf:nl|ptrs:na|ktp:N0|mc:98606|mtp:S|qry_typ:P|lang:en|wc:3|cs:8846|v=4,False,Malad West,Mumbai,"B 705, Seven Floor, Jagmagia Centre, Mamlatdar Wadi EXTN Road Nahar Nagar, Malad West, Suburban, Malad West, Mumbai - 400064, Dist.Mumbai, Maharashtra",8043805922,
Multicolor Cotton Baby Cotton Nappies,https://www.indiamart.com/proddetail/cotton-baby-cotton-nappies-14179190973.html?pos=32&kwd=baby cotton nappies&tags=A||||8211.142|Price|product|||MDC|rsf:gd-|-stype:attr=1|qr_nm:gd|res:RC4|com-cf:nl|ptrs:na|ktp:N0|mc:98606|mtp:S|qry_typ:P|lang:en|wc:3|cs:8846|v=4,Padam Kids,https://www.indiamart.com/padam-kids/?pos=32&kwd=baby cotton nappies&tags=A||||8211.142|Price|product|||MDC|rsf:gd-|-stype:attr=1|qr_nm:gd|res:RC4|com-cf:nl|ptrs:na|ktp:N0|mc:98606|mtp:S|qry_typ:P|lang:en|wc:3|cs:8846|v=4,False,,Mumbai,"CKP Colony, Near Dargah, Behind Dr. Manish Bhatt Eksar Road, Borivali West, Mumbai - 400092, Dist.Mumbai, Maharashtra",8046057613,
"Baby Cotton Nappies, Medium, Age Group: 3to12 Months",https://www.indiamart.com/proddetail/baby-cotton-nappies-2854287335791.html?pos=33&kwd=baby cotton nappies&tags=A||||8223.226|Price|product|||MDC|rsf:gd-|-stype:attr=1|qr_nm:gd|res:RC4|com-cf:nl|ptrs:na|ktp:N0|mc:98606|mtp:S|qry_typ:P|lang:en|wc:3|cs:8846|v=4,Royal Baby,https://www.indiamart.com/royal-baby-thane/?pos=33&kwd=baby cotton nappies&tags=A||||8223.226|Price|product|||MDC|rsf:gd-|-stype:attr=1|qr_nm:gd|res:RC4|com-cf:nl|ptrs:na|ktp:N0|mc:98606|mtp:S|qry_typ:P|lang:en|wc:3|cs:8846|v=4,False,,Thane,"Ground Floor, Shop No. 03, Savitri Niwas Mumbai Pune Road, Amrutnagar, Sub Post Office, Mumbra, Thane - 400612, Dist.Thane, Maharashtra",8045734604,
Baby's Pride Male Newborn Baby Nappy,https://www.indiamart.com/proddetail/newborn-baby-nappy-11312771948.html?pos=34&kwd=baby cotton nappies&tags=A||||8626.744|Price|product|||TS|rsf:gd-|-stype:attr=1|qr_nm:gd|res:RC4|com-cf:nl|ptrs:na|ktp:N0|mc:98606|mtp:S|qry_typ:P|lang:en|wc:3|cs:8846|v=4,Sudarshaan Impex,https://www.indiamart.com/sudarshaan-impex/?pos=34&kwd=baby cotton nappies&tags=A||||8626.744|Price|product|||TS|rsf:gd-|-stype:attr=1|qr_nm:gd|res:RC4|com-cf:nl|ptrs:na|ktp:N0|mc:98606|mtp:S|qry_typ:P|lang:en|wc:3|cs:8846|v=4,False,Jeeva Nagar,Tiruppur,"No.8/398C, Selvalakshmi nagar, 1st street, Angeri palayam, Jeeva Nagar, Tiruppur - 641603, Dist.Coimbatore, Tamil Nadu",8046077280,
Muslin Baby Nappies,https://www.indiamart.com/proddetail/muslin-baby-nappies-2851209756391.html?pos=35&kwd=baby cotton nappies&tags=A||||8668.838|Price|product|||TS|rsf:gd-|-stype:attr=1|qr_nm:gd|res:RC4|com-cf:nl|ptrs:na|ktp:N0|mc:98606|mtp:S|qry_typ:P|lang:en|wc:3|cs:8846|v=4,Ram Textiles,https://www.indiamart.com/ram-textiles/?pos=35&kwd=baby cotton nappies&tags=A||||8668.838|Price|product|||TS|rsf:gd-|-stype:attr=1|qr_nm:gd|res:RC4|com-cf:nl|ptrs:na|ktp:N0|mc:98606|mtp:S|qry_typ:P|lang:en|wc:3|cs:8846|v=4,False,Veerappanchatram,Erode,"No. 131, M. G. R. Street-1, Veerappanchatram, Veerappanchatram, Erode - 638004, Dist.Erode, Tamil Nadu",8048611846,
"Baby Printed Cotton Nappies, Small, Age Group: Newly Born",https://www.indiamart.com/proddetail/baby-printed-cotton-nappies-2850164539562.html?pos=36&kwd=baby cotton nappies&tags=A||||8752.144|Price|product|||MDC|rsf:gd-|-stype:attr=1|qr_nm:gd|res:RC4|com-cf:nl|ptrs:na|ktp:N0|mc:98606|mtp:S|qry_typ:P|lang:en|wc:3|cs:8846|v=4,Kidz Creation,https://www.indiamart.com/kidzcreation/?pos=36&kwd=baby cotton nappies&tags=A||||8752.144|Price|product|||MDC|rsf:gd-|-stype:attr=1|qr_nm:gd|res:RC4|com-cf:nl|ptrs:na|ktp:N0|mc:98606|mtp:S|qry_typ:P|lang:en|wc:3|cs:8846|v=4,False,,New Delhi,"Shop No. 279/517,Sabharwal Market, Tolia Wali Gali Sadar Bazar, North Delhi,, New Delhi - 110006, Dist.Delhi, Delhi",8047679212,
White (base) Baby Cotton Muslin Nappies,https://www.indiamart.com/proddetail/baby-cotton-muslin-nappies-2852519071912.html?pos=37&kwd=baby cotton nappies&tags=A||||8668.838|Price|product|||MDC|rsf:gd-|-stype:attr=1|qr_nm:gd|res:RC4|com-cf:nl|ptrs:na|ktp:N0|mc:98606|mtp:S|qry_typ:P|lang:en|wc:3|cs:8846|v=4,Rakshita Exports,https://www.indiamart.com/rakshita-exports/?pos=37&kwd=baby cotton nappies&tags=A||||8668.838|Price|product|||MDC|rsf:gd-|-stype:attr=1|qr_nm:gd|res:RC4|com-cf:nl|ptrs:na|ktp:N0|mc:98606|mtp:S|qry_typ:P|lang:en|wc:3|cs:8846|v=4,False,erode,Erode,"95/1, Bagiya Complex, Nasiyanur Road, Ondikkaranpalayam, erode, Erode - 638107, Dist.Erode, Tamil Nadu",7942708189,
"Off White Disposable Cotton Muslin Nappies, Medium",https://www.indiamart.com/proddetail/cotton-muslin-nappies-25739579448.html?pos=38&kwd=baby cotton nappies&tags=A||||8626.744|Price|product|||MDC|rsf:gd-|-stype:attr=1|qr_nm:gd|res:RC4|com-cf:nl|ptrs:na|ktp:N0|mc:98606|mtp:S|qry_typ:P|lang:en|wc:3|cs:8846|v=4,Thoni Eswar Exports,https://www.indiamart.com/thoni-eswar-exports/?pos=38&kwd=baby cotton nappies&tags=A||||8626.744|Price|product|||MDC|rsf:gd-|-stype:attr=1|qr_nm:gd|res:RC4|com-cf:nl|ptrs:na|ktp:N0|mc:98606|mtp:S|qry_typ:P|lang:en|wc:3|cs:8846|v=4,False,,Tiruppur,"5/7, Church Street, Avinashi Road, Tiruppur - 641603, Dist.Coimbatore, Tamil Nadu",7942621102,
"Hosiery Plain Langot With Pad, Small",https://www.indiamart.com/proddetail/hosiery-plain-langot-with-pad-2854986902691.html?pos=39&kwd=baby cotton nappies&tags=A||||8876.815|Price|product|||MDC|rsf:gd-|-stype:attr=1|qr_nm:gd|res:RC4|com-cf:nl|ptrs:na|ktp:N0|mc:98606|mtp:S|qry_typ:P|lang:en|wc:3|cs:8846|v=4,Good Luck Trading,https://www.indiamart.com/goodlucktrading-nagpur/?pos=39&kwd=baby cotton nappies&tags=A||||8876.815|Price|product|||MDC|rsf:gd-|-stype:attr=1|qr_nm:gd|res:RC4|com-cf:nl|ptrs:na|ktp:N0|mc:98606|mtp:S|qry_typ:P|lang:en|wc:3|cs:8846|v=4,False,,Nagpur,"Plot No. 807, Dharamchaya Fawara Chowk Builing, Nikalas Mandir Road, Itwari, Nagpur - 440002, Dist.Nagpur, Maharashtra",8041014474,
"Cotton Baby Diapers, Medium",https://www.indiamart.com/proddetail/cotton-baby-diapers-2854236951330.html?pos=40&kwd=baby cotton nappies&tags=A||||8778.123|Price|product|||TS|rsf:gd-|-stype:attr=1|qr_nm:gd|res:RC4|com-cf:nl|ptrs:na|ktp:N0|mc:98606|mtp:S|qry_typ:P|lang:en|wc:3|cs:8846|v=4,Pleasure Paradise,https://www.wonderfeel.in/?pos=40&kwd=baby cotton nappies&tags=A||||8778.123|Price|product|||TS|rsf:gd-|-stype:attr=1|qr_nm:gd|res:RC4|com-cf:nl|ptrs:na|ktp:N0|mc:98606|mtp:S|qry_typ:P|lang:en|wc:3|cs:8846|v=4,False,Sector 137,Noida,"11, T12 1105, Paras Tierea, Sector 137, Sector 137, Noida - 201301, Dist.Gautam Budh Nagar, Uttar Pradesh",8048612980,
"Orange Baby Sinkar Cotton Lagot/nappy, Size: 0-6 Month",https://www.indiamart.com/proddetail/baby-sinkar-cotton-lagot-nappy-23269302091.html?pos=41&kwd=baby cotton nappies&tags=A||||8211.142|Price|product|||MDC|rsf:gd-|-stype:attr=1|qr_nm:gd|res:RC4|com-cf:nl|ptrs:na|ktp:N0|mc:98606|mtp:S|qry_typ:P|lang:en|wc:3|cs:8846|v=4,Om Sai Hosiery,https://www.indiamart.com/omsaihosierymumbai/?pos=41&kwd=baby cotton nappies&tags=A||||8211.142|Price|product|||MDC|rsf:gd-|-stype:attr=1|qr_nm:gd|res:RC4|com-cf:nl|ptrs:na|ktp:N0|mc:98606|mtp:S|qry_typ:P|lang:en|wc:3|cs:8846|v=4,False,Vikhroli west,Mumbai,"Ground Floor Room No -3 LBS Marg Jai Bhawani Chawl, Kranti Maidan Surya Nagar, Vikhroli west, Mumbai - 400083, Dist.Mumbai, Maharashtra",8048989297,
Cotton Baby Diapers,https://www.indiamart.com/proddetail/cotton-baby-diapers-26161807062.html?pos=42&kwd=baby cotton nappies&tags=A||||8752.144|Price|product|||TS|rsf:gd-|-stype:attr=1|qr_nm:gd|res:RC4|com-cf:nl|ptrs:na|ktp:N0|mc:98606|mtp:S|qry_typ:P|lang:en|wc:3|cs:8846|v=4,Jai Shree Industries ( Regd.),https://www.jaishreeindustries.in/?pos=42&kwd=baby cotton nappies&tags=A||||8752.144|Price|product|||TS|rsf:gd-|-stype:attr=1|qr_nm:gd|res:RC4|com-cf:nl|ptrs:na|ktp:N0|mc:98606|mtp:S|qry_typ:P|lang:en|wc:3|cs:8846|v=4,False,Karam Pura,New Delhi,"No. 107, Magnum House II, First Floor, Karampura Commercial Complex, Karam Pura, New Delhi - 110015, Dist.Delhi, Delhi",8048981957,
White Cotton Baby Diaper,https://www.indiamart.com/proddetail/cotton-baby-diaper-2851580167930.html?pos=43&kwd=baby cotton nappies&tags=A||||8559.269|Price|product|||TS|rsf:gd-|-stype:attr=1|qr_nm:gd|res:RC4|com-cf:nl|ptrs:na|ktp:N0|mc:98606|mtp:S|qry_typ:P|lang:en|wc:3|cs:8846|v=4,Pulkit Enterprises,https://www.indiamart.com/pulkitenterprises-indor/?pos=43&kwd=baby cotton nappies&tags=A||||8559.269|Price|product|||TS|rsf:gd-|-stype:attr=1|qr_nm:gd|res:RC4|com-cf:nl|ptrs:na|ktp:N0|mc:98606|mtp:S|qry_typ:P|lang:en|wc:3|cs:8846|v=4,False,,Indore,"505, Kalpana Apartment, 1, 7,South Tukoganj, Indore - 452001, Dist.Indore, Madhya Pradesh",8048961141,
"Cotton Baby Nappies, Medium, Age Group: Newly Born",https://www.indiamart.com/proddetail/cotton-baby-nappies-2854722706188.html?pos=44&kwd=baby cotton nappies&tags=A||||8211.142|Price|product|||MDC|rsf:gd-|-stype:attr=1|qr_nm:gd|res:RC4|com-cf:nl|ptrs:na|ktp:N0|mc:98606|mtp:S|qry_typ:P|lang:en|wc:3|cs:8846|v=4,Apple Kids,https://www.indiamart.com/applekids-mumbai/?pos=44&kwd=baby cotton nappies&tags=A||||8211.142|Price|product|||MDC|rsf:gd-|-stype:attr=1|qr_nm:gd|res:RC4|com-cf:nl|ptrs:na|ktp:N0|mc:98606|mtp:S|qry_typ:P|lang:en|wc:3|cs:8846|v=4,False,,Mumbai,"Room No 1,211/4, Janu Seth Chawl, Puspa Park, Daftary Road, Malad East Suburban, Mumbai - 400097, Dist.Mumbai, Maharashtra",7949326883,
"Green Baby Cotton Nappies, Small, Age Group: Newly Born",https://www.indiamart.com/proddetail/green-baby-cotton-nappies-2854780834373.html?pos=45&kwd=baby cotton nappies&tags=A||||8476.868|Price|product|||MDC|rsf:gd-|-stype:attr=1|qr_nm:gd|res:RC4|com-cf:nl|ptrs:na|ktp:N0|mc:98606|mtp:S|qry_typ:P|lang:en|wc:3|cs:8846|v=4,Grey Fabric Ideas,https://www.indiamart.com/greyfabric-ideas/?pos=45&kwd=baby cotton nappies&tags=A||||8476.868|Price|product|||MDC|rsf:gd-|-stype:attr=1|qr_nm:gd|res:RC4|com-cf:nl|ptrs:na|ktp:N0|mc:98606|mtp:S|qry_typ:P|lang:en|wc:3|cs:8846|v=4,False,,Aurangabad,"Plot No.02 Ground Floor Shahashokta Colony, Shahashokta Dargha, Qabristan Office, Aurangabad Midc Chhatrapati Sambhajinagar, Aurangabad - 431005, Maharashtra",7949329361,
"Newborn Baby Cotton Nappies, Size: Small, Age Group: Newly Born",https://www.indiamart.com/proddetail/newborn-baby-cotton-nappies-2854041066897.html?pos=46&kwd=baby cotton nappies&tags=A||||9140.514|Price|product|||MDC|rsf:gd-|-stype:attr=1|qr_nm:gd|res:RC4|com-cf:nl|ptrs:na|ktp:N0|mc:98606|mtp:S|qry_typ:P|lang:en|wc:3|cs:8846|v=4,Shivay Trading & Manufacturing,https://www.indiamart.com/shivaytradingmanufacturing/?pos=46&kwd=baby cotton nappies&tags=A||||9140.514|Price|product|||MDC|rsf:gd-|-stype:attr=1|qr_nm:gd|res:RC4|com-cf:nl|ptrs:na|ktp:N0|mc:98606|mtp:S|qry_typ:P|lang:en|wc:3|cs:8846|v=4,False,Pandri,Raipur,"Plot No.94, First Floor, Indira Gandhi Vyavsayik Parisar, Cloth Market, Pandri, Pandri, Raipur - 492001, Chhattisgarh",8044012762,
"Orange Baby Sinkar Cotton Lagot/nappy, Size: 0-6 Month",https://www.indiamart.com/proddetail/baby-sinkar-cotton-lagot-nappy-23269302091.html?pos=47&kwd=baby cotton nappies&tags=A||||8211.142|Price|product|||MDC|rsf:gd-|-stype:attr=1|qr_nm:gd|res:RC4|com-cf:nl|ptrs:na|ktp:N0|mc:98606|mtp:S|qry_typ:P|lang:en|wc:3|cs:8846|v=4,Om Sai Hosiery,https://www.indiamart.com/omsaihosierymumbai/?pos=47&kwd=baby cotton nappies&tags=A||||8211.142|Price|product|||MDC|rsf:gd-|-stype:attr=1|qr_nm:gd|res:RC4|com-cf:nl|ptrs:na|ktp:N0|mc:98606|mtp:S|qry_typ:P|lang:en|wc:3|cs:8846|v=4,False,Vikhroli west,Mumbai,"Ground Floor Room No -3 LBS Marg Jai Bhawani Chawl, Kranti Maidan Surya Nagar, Vikhroli west, Mumbai - 400083, Dist.Mumbai, Maharashtra",8048989297,
"Disposable Small Cotton Baby Diaper, Age Group: Newly Born",https://www.indiamart.com/proddetail/disposable-small-cotton-baby-diaper-2853312333612.html?pos=48&kwd=baby cotton nappies&tags=A||||8584.299|Price|product|||MDC|rsf:gd-|-stype:attr=1|qr_nm:gd|res:RC4|com-cf:nl|ptrs:na|ktp:N0|mc:98606|mtp:S|qry_typ:P|lang:en|wc:3|cs:8846|v=4,Herbalica Pads,https://www.indiamart.com/herbalica-pads/?pos=48&kwd=baby cotton nappies&tags=A||||8584.299|Price|product|||MDC|rsf:gd-|-stype:attr=1|qr_nm:gd|res:RC4|com-cf:nl|ptrs:na|ktp:N0|mc:98606|mtp:S|qry_typ:P|lang:en|wc:3|cs:8846|v=4,False,Vilankurichi,Coimbatore,"27, Bankars Colony Phase II, Kongu Managar, India Post Payments Bank, Vilankurichi, Vilankurichi, Coimbatore - 641035, Dist.Coimbatore, Tamil Nadu",8044015874,
White(base) Large Cotton Baby Diaper,https://www.indiamart.com/proddetail/large-cotton-baby-diaper-2852467355433.html?pos=49&kwd=baby cotton nappies&tags=A||||8601.347|Price|product|||MDC|rsf:gd-|-stype:attr=1|qr_nm:gd|res:RC4|com-cf:nl|ptrs:na|ktp:N0|mc:98606|mtp:S|qry_typ:P|lang:en|wc:3|cs:8846|v=4,Smilemax Hygiene Pvt. Ltd.,https://www.indiamart.com/smilemaxhygiene/?pos=49&kwd=baby cotton nappies&tags=A||||8601.347|Price|product|||MDC|rsf:gd-|-stype:attr=1|qr_nm:gd|res:RC4|com-cf:nl|ptrs:na|ktp:N0|mc:98606|mtp:S|qry_typ:P|lang:en|wc:3|cs:8846|v=4,False,Ashok Nagar,Jaipur,"C-61A C-Scheme Sarojini Marg, Ashok Nagar, Jaipur - 302001, Dist.Jaipur, Rajasthan",7942711844,
Cotton Baby Diapers,https://www.indiamart.com/proddetail/cotton-baby-diapers-2852061467330.html?pos=50&kwd=baby cotton nappies&tags=BA||||8307.81|Price|product|||TS|rsf:gd-|-stype:attr=1|qr_nm:gd|res:RC4|com-cf:nl|ptrs:na|ktp:N0|mc:98606|mtp:S|qry_typ:P|lang:en|wc:3|cs:8846|v=4,SMILEPAD HYGIENE INDIA PVT. LTD.,https://www.indiamart.com/smilepadhygiene/?pos=50&kwd=baby cotton nappies&tags=BA||||8307.81|Price|product|||TS|rsf:gd-|-stype:attr=1|qr_nm:gd|res:RC4|com-cf:nl|ptrs:na|ktp:N0|mc:98606|mtp:S|qry_typ:P|lang:en|wc:3|cs:8846|v=4,False,Mohammed Wadi,Pune,"SR.NO.284/01 Bhadale Nagar Uruli Devachi, Mohammed Wadi, Pune - 411060, Dist.Pune, Maharashtra",8048601512,
XL White Cotton Adult Diapers,https://www.indiamart.com/proddetail/xl-white-cotton-adult-diapers-2853596816948.html?pos=51&kwd=baby cotton nappies&tags=BA||||8767.009|Price|product|||TS|rsf:gd-|-stype:attr=1|qr_nm:gd|res:RC4|com-cf:nl|ptrs:na|ktp:N0|mc:98606|mtp:S|qry_typ:P|lang:en|wc:3|cs:8846|v=4,Dakshu Enterprise,https://www.indiamart.com/dakshu-enterprise/?pos=51&kwd=baby cotton nappies&tags=BA||||8767.009|Price|product|||TS|rsf:gd-|-stype:attr=1|qr_nm:gd|res:RC4|com-cf:nl|ptrs:na|ktp:N0|mc:98606|mtp:S|qry_typ:P|lang:en|wc:3|cs:8846|v=4,False,,Baghpat,"0,,Delhi Saharanpur road,Baghpat, Baghpat - 250609, Dist.Bagpat, Uttar Pradesh",7949339950,
New Born Baby Diapers,https://www.indiamart.com/proddetail/new-born-baby-diapers-2854228376012.html?pos=52&kwd=baby cotton nappies&tags=BA||||8747.223|Price|product|||TS|rsf:gd-|-stype:attr=1|qr_nm:gd|res:RC4|com-cf:nl|ptrs:na|ktp:N0|mc:98606|mtp:S|qry_typ:P|lang:en|wc:3|cs:8846|v=4,Pioneer Hygiene Industries LLP,https://www.pioneerhygiene.co.in/?pos=52&kwd=baby cotton nappies&tags=BA||||8747.223|Price|product|||TS|rsf:gd-|-stype:attr=1|qr_nm:gd|res:RC4|com-cf:nl|ptrs:na|ktp:N0|mc:98606|mtp:S|qry_typ:P|lang:en|wc:3|cs:8846|v=4,True,,Sonipat,"Kila No. 95//1/1, 12/13, 19 And 22/1/1, Akbarpur Barota, Sonipat - 131103, Dist.Sonipat, Haryana",8045731181,
"Multicolour Baby Cotton Nappies, Medium, Age Group: 3to12 Months",https://www.indiamart.com/proddetail/multicolour-baby-cotton-cloth-nappies-2854719970155.html?pos=53&kwd=baby cotton nappies&tags=BA||||8954.051|Price|product|||MDC|rsf:gd-|-stype:attr=1|qr_nm:gd|res:RC4|com-cf:nl|ptrs:na|ktp:N0|mc:98606|mtp:S|qry_typ:P|lang:en|wc:3|cs:8846|v=4,Tender Babe,https://www.indiamart.com/tenderbabe-chennai/?pos=53&kwd=baby cotton nappies&tags=BA||||8954.051|Price|product|||MDC|rsf:gd-|-stype:attr=1|qr_nm:gd|res:RC4|com-cf:nl|ptrs:na|ktp:N0|mc:98606|mtp:S|qry_typ:P|lang:en|wc:3|cs:8846|v=4,False,Tiruvallur,Chennai,"196/2A, Annai Teresa Street, Kavarapalayam Main Road,, Siranjivi Nagar, Avadi,, Tiruvallur, Chennai - 600054, Dist.Chennai, Tamil Nadu",7949323914,
Pink Printed Baby Cotton Nappies,https://www.indiamart.com/proddetail/printed-baby-cotton-nappies-26049967212.html?pos=54&kwd=baby cotton nappies&tags=A||||8785.791|Price|product|||MDC|rsf:gd-|-stype:attr=1|qr_nm:gd|res:RC4|com-cf:nl|ptrs:na|ktp:N0|mc:98606|mtp:S|qry_typ:P|lang:en|wc:3|cs:8846|v=4,First Smile Enterprises,https://www.indiamart.com/firstsmileenterprises/?pos=54&kwd=baby cotton nappies&tags=A||||8785.791|Price|product|||MDC|rsf:gd-|-stype:attr=1|qr_nm:gd|res:RC4|com-cf:nl|ptrs:na|ktp:N0|mc:98606|mtp:S|qry_typ:P|lang:en|wc:3|cs:8846|v=4,False,Ahmed Nagar Nawada,Ghaziabad,"Khasra No 263, New Anand Vihar, Loni,, Ahmed Nagar Nawada, Ghaziabad - 201102, Dist.Ghaziabad, Uttar Pradesh",8043850100,
Cotton Baby Diaper,https://www.indiamart.com/proddetail/cotton-baby-diaper-2850833650033.html?pos=55&kwd=baby cotton nappies&tags=BA||||8752.144|Price|product|||TS|rsf:gd-|-stype:attr=1|qr_nm:gd|res:RC4|com-cf:nl|ptrs:na|ktp:N0|mc:98606|mtp:S|qry_typ:P|lang:en|wc:3|cs:8846|v=4,Midas Touch,https://www.indiamart.com/midastouchnewdelhi/?pos=55&kwd=baby cotton nappies&tags=BA||||8752.144|Price|product|||TS|rsf:gd-|-stype:attr=1|qr_nm:gd|res:RC4|com-cf:nl|ptrs:na|ktp:N0|mc:98606|mtp:S|qry_typ:P|lang:en|wc:3|cs:8846|v=4,False,Shalimar Bagh,New Delhi,"Upper Ground Plot No-423 Near Raghunath Mandir Bh Shalimar Bagh East Delhi, Shalimar Bagh, New Delhi - 110088, Dist.Delhi, Delhi",7942825260,
Unisex Reusable Baby bio cotton Nappies,https://www.indiamart.com/proddetail/reusable-baby-bio-cotton-nappies-2851512102962.html?pos=56&kwd=baby cotton nappies&tags=A||||8662.111|Price|product|||TS|rsf:gd-|-stype:attr=1|qr_nm:gd|res:RC4|com-cf:nl|ptrs:na|ktp:N0|mc:98606|mtp:S|qry_typ:P|lang:en|wc:3|cs:8846|v=4,Rovee Garments,https://www.indiamart.com/rovee-garments/?pos=56&kwd=baby cotton nappies&tags=A||||8662.111|Price|product|||TS|rsf:gd-|-stype:attr=1|qr_nm:gd|res:RC4|com-cf:nl|ptrs:na|ktp:N0|mc:98606|mtp:S|qry_typ:P|lang:en|wc:3|cs:8846|v=4,False,State Bank Colony,Tirunelveli,"70, State Bank Colony, Ezhil Nagar, Ngo A Colony, State Bank Colony, Tirunelveli - 627007, Dist.Tirunelveli, Tamil Nadu",7942840922,
"Cotton Baby Diapers, Size: Small",https://www.indiamart.com/proddetail/cotton-baby-diapers-2852538372148.html?pos=57&kwd=baby cotton nappies&tags=A||||8482.679||product|||TS|rsf:gd-|-stype:attr=1|qr_nm:gd|res:RC4|com-cf:nl|ptrs:na|ktp:N0|mc:98606|mtp:S|qry_typ:P|lang:en|wc:3|cs:8846|v=4,On The Spot Infra.,https://www.indiamart.com/onthe-spotinfra/?pos=57&kwd=baby cotton nappies&tags=A||||8482.679||product|||TS|rsf:gd-|-stype:attr=1|qr_nm:gd|res:RC4|com-cf:nl|ptrs:na|ktp:N0|mc:98606|mtp:S|qry_typ:P|lang:en|wc:3|cs:8846|v=4,False,Bangrod,Ratlam,"Bangrod, Bangrod, Ratlam - 457001, Dist.Ratlam, Madhya Pradesh",7942559398,
White & Mixed Natural Cotton Baby Diapers,https://www.indiamart.com/proddetail/natural-cotton-baby-diapers-23304371448.html?pos=58&kwd=baby cotton nappies&tags=A||||8584.299|Price|product|||TS|rsf:gd-|-stype:attr=1|qr_nm:gd|res:RC4|com-cf:nl|ptrs:na|ktp:N0|mc:98606|mtp:S|qry_typ:P|lang:en|wc:3|cs:8846|v=4,Naturo-Health Organic Enterprises,https://www.indiamart.com/naturohealthorganicenterprises/?pos=58&kwd=baby cotton nappies&tags=A||||8584.299|Price|product|||TS|rsf:gd-|-stype:attr=1|qr_nm:gd|res:RC4|com-cf:nl|ptrs:na|ktp:N0|mc:98606|mtp:S|qry_typ:P|lang:en|wc:3|cs:8846|v=4,False,Edayarpalayam,Coimbatore,"B83, Anna Nagar, Housing Unit Edayarpalayam, Edayarpalayam, Coimbatore - 641025, Dist.Coimbatore, Tamil Nadu",8047632292,
Baby Reusable Cotton Printed Pocket Diapers With 1 Inserts,https://www.indiamart.com/proddetail/baby-reusable-cotton-printed-pocket-diapers-with-1-inserts-2853971759788.html?pos=59&kwd=baby cotton nappies&tags=A||||8230.883|Price|product|||TS|rsf:gd-|-stype:attr=1|qr_nm:gd|res:RC4|com-cf:nl|ptrs:na|ktp:N0|mc:98606|mtp:S|qry_typ:P|lang:en|wc:3|cs:8846|v=4,Nika Enterprise,https://www.nikaenterprise.in/?pos=59&kwd=baby cotton nappies&tags=A||||8230.883|Price|product|||TS|rsf:gd-|-stype:attr=1|qr_nm:gd|res:RC4|com-cf:nl|ptrs:na|ktp:N0|mc:98606|mtp:S|qry_typ:P|lang:en|wc:3|cs:8846|v=4,False,,Surat,"1st Floor,, Flat No-102, Plot No-173/174/175, Rs-109,504,, Vitthal Nagar Soc, Dabholi Char Rasta, Katargam, Surat - 395004, Dist.Surat, Gujarat",8047550715,
"Baby Cotton Nappies, Medium",https://www.indiamart.com/proddetail/baby-cotton-nappies-2854912293297.html?pos=60&kwd=baby cotton nappies&tags=A||||8817.752||product|||MDC|rsf:gd-|-stype:attr=1|qr_nm:gd|res:RC4|com-cf:nl|ptrs:na|ktp:N0|mc:98606|mtp:S|qry_typ:P|lang:en|wc:3|cs:8846|v=4,Bhagwati Collection,https://www.indiamart.com/bhagwati-collection-hapur/?pos=60&kwd=baby cotton nappies&tags=A||||8817.752||product|||MDC|rsf:gd-|-stype:attr=1|qr_nm:gd|res:RC4|com-cf:nl|ptrs:na|ktp:N0|mc:98606|mtp:S|qry_typ:P|lang:en|wc:3|cs:8846|v=4,False,,Hapur,"Mukesh Garg, Krishna Gali, Khurja Pech Doymi Opp Ram Tent House, Hapur - 245101, Dist.Hapur, Uttar Pradesh",8041015469,
"Baby Cotton Nappies, Size: Medium",https://www.indiamart.com/proddetail/baby-cotton-nappies-2853882853533.html?pos=61&kwd=baby cotton nappies&tags=A||||8559.269|Price|product|||MDC|rsf:gd-|-stype:attr=1|qr_nm:gd|res:RC4|com-cf:nl|ptrs:na|ktp:N0|mc:98606|mtp:S|qry_typ:P|lang:en|wc:3|cs:8846|v=4,Macsona Industries,https://www.indiamart.com/macsonaindustries/?pos=61&kwd=baby cotton nappies&tags=A||||8559.269|Price|product|||MDC|rsf:gd-|-stype:attr=1|qr_nm:gd|res:RC4|com-cf:nl|ptrs:na|ktp:N0|mc:98606|mtp:S|qry_typ:P|lang:en|wc:3|cs:8846|v=4,False,Bhagyashree Colony,Indore,"Scheme No 53, 36 Scheme N 53, Medanta Hospital, Bhagyashree Colony, Indore - 452010, Dist.Indore, Madhya Pradesh",7942825123,
Baby Cotton Nappies,https://www.indiamart.com/proddetail/baby-cotton-nappies-2854907453697.html?pos=62&kwd=baby cotton nappies&tags=A||||8741.812|Price|product|||MDC|rsf:gd-|-stype:attr=1|qr_nm:gd|res:RC4|com-cf:nl|ptrs:na|ktp:N0|mc:98606|mtp:S|qry_typ:P|lang:en|wc:3|cs:8846|v=4,Meesha Enterprises,https://www.indiamart.com/meeshaenterprises-gurugram/?pos=62&kwd=baby cotton nappies&tags=A||||8741.812|Price|product|||MDC|rsf:gd-|-stype:attr=1|qr_nm:gd|res:RC4|com-cf:nl|ptrs:na|ktp:N0|mc:98606|mtp:S|qry_typ:P|lang:en|wc:3|cs:8846|v=4,False,,Gurugram,"2nd, 2061A, C Block, Sushant Lok 1,, Gurugram - 122002, Dist.Gurgaon, Haryana",8041015150,
Babelois Diaper Cotton,https://www.indiamart.com/proddetail/babelois-diaper-cotton-2850650883273.html?pos=63&kwd=baby cotton nappies&tags=A||||8785.791|Price|product|||TS|rsf:gd-|-stype:attr=1|qr_nm:gd|res:RC4|com-cf:nl|ptrs:na|ktp:N0|mc:98606|mtp:S|qry_typ:P|lang:en|wc:3|cs:8846|v=4,Kshristi Enterprises,https://www.indiamart.com/kshristi-enterprises/?pos=63&kwd=baby cotton nappies&tags=A||||8785.791|Price|product|||TS|rsf:gd-|-stype:attr=1|qr_nm:gd|res:RC4|com-cf:nl|ptrs:na|ktp:N0|mc:98606|mtp:S|qry_typ:P|lang:en|wc:3|cs:8846|v=4,False,Sahibabad,Ghaziabad,"S 57 Harsha campound mohan nagar industrial area Ghaziabad Uttar Pradesh, Sahibabad, Ghaziabad - 201005, Dist.Ghaziabad, Uttar Pradesh",8046078120,
Cotton Littlecare Baby Diapers,https://www.indiamart.com/proddetail/littlecare-baby-diapers-2851051815291.html?pos=64&kwd=baby cotton nappies&tags=A||||8038.093|Price|product|||TS|rsf:gd-|-stype:attr=1|qr_nm:gd|res:RC4|com-cf:nl|ptrs:na|ktp:N0|mc:98606|mtp:S|qry_typ:P|lang:en|wc:3|cs:8846|v=4,Floway Pumps,https://www.flowaypumps.in/?pos=64&kwd=baby cotton nappies&tags=A||||8038.093|Price|product|||TS|rsf:gd-|-stype:attr=1|qr_nm:gd|res:RC4|com-cf:nl|ptrs:na|ktp:N0|mc:98606|mtp:S|qry_typ:P|lang:en|wc:3|cs:8846|v=4,False,Main Road,Rajkot,"Shree Ram Park, Street No.-9,shrivallbha,b/h Balaji Hall, 150 Feet Ring Road,, Main Road, Rajkot - 360003, Dist.Rajkot, Gujarat",8046079276,
"Newborn Baby Cotton Nappies, Size: Small, Age Group: Newly Born",https://www.indiamart.com/proddetail/newborn-baby-cotton-nappies-2853610892155.html?pos=65&kwd=baby cotton nappies&tags=A||||8228.275|Price|product|||MDC|rsf:gd-|-stype:attr=1|qr_nm:gd|res:RC4|com-cf:nl|ptrs:na|ktp:N0|mc:98606|mtp:S|qry_typ:P|lang:en|wc:3|cs:8846|v=4,H P Enterprise,https://www.indiamart.com/hpenterpriseahmedabad/?pos=65&kwd=baby cotton nappies&tags=A||||8228.275|Price|product|||MDC|rsf:gd-|-stype:attr=1|qr_nm:gd|res:RC4|com-cf:nl|ptrs:na|ktp:N0|mc:98606|mtp:S|qry_typ:P|lang:en|wc:3|cs:8846|v=4,False,Kubernagar,Ahmedabad,"A/4 Opp Sukhramdas Darbar Bunglow Area Kavaram Park Kubernagar, Kubernagar, Ahmedabad - 382340, Dist.Ahmedabad, Gujarat",7949224579,
"Pure Cotton Baby Nappies, Large, Age Group: Newly Born",https://www.indiamart.com/proddetail/pure-cotton-baby-nappies-2854335465112.html?pos=66&kwd=baby cotton nappies&tags=A||||8500.97|Price|product|||MDC|rsf:gd-|-stype:attr=1|qr_nm:gd|res:RC4|com-cf:nl|ptrs:na|ktp:N0|mc:98606|mtp:S|qry_typ:P|lang:en|wc:3|cs:8846|v=4,Rozann-House Of Ideas,https://www.indiamart.com/rozann-houseideas/?pos=66&kwd=baby cotton nappies&tags=A||||8500.97|Price|product|||MDC|rsf:gd-|-stype:attr=1|qr_nm:gd|res:RC4|com-cf:nl|ptrs:na|ktp:N0|mc:98606|mtp:S|qry_typ:P|lang:en|wc:3|cs:8846|v=4,False,,Thrissur,"IX/47-1A, Rozann House Of Ideas, Avenue Road, Thrissur East, Thrissur - 680005, Dist.Thrissur, Kerala",8044563476,
"Baby Cotton Nappies, Small, Age Group: Newly Born",https://www.indiamart.com/proddetail/light-yellow-baby-cotton-nappies-2854954312197.html?pos=67&kwd=baby cotton nappies&tags=A||||8626.744|Price|product|||MDC|rsf:gd-|-stype:attr=1|qr_nm:gd|res:RC4|com-cf:nl|ptrs:na|ktp:N0|mc:98606|mtp:S|qry_typ:P|lang:en|wc:3|cs:8846|v=4,Bawse Baby,https://www.indiamart.com/bawseebaby/?pos=67&kwd=baby cotton nappies&tags=A||||8626.744|Price|product|||MDC|rsf:gd-|-stype:attr=1|qr_nm:gd|res:RC4|com-cf:nl|ptrs:na|ktp:N0|mc:98606|mtp:S|qry_typ:P|lang:en|wc:3|cs:8846|v=4,False,,Tiruppur,"1/125A Semmetuth Thottam, Kulathuputhur, Andipalayam, Tiruppur - 641687, Dist.Coimbatore, Tamil Nadu",8047552265,
Pink Printed Baby Cotton Nappies,https://www.indiamart.com/proddetail/printed-baby-cotton-nappies-26049967212.html?pos=68&kwd=baby cotton nappies&tags=A||||8785.791|Price|product|||MDC|rsf:gd-|-stype:attr=1|qr_nm:gd|res:RC4|com-cf:nl|ptrs:na|ktp:N0|mc:98606|mtp:S|qry_typ:P|lang:en|wc:3|cs:8846|v=4,First Smile Enterprises,https://www.indiamart.com/firstsmileenterprises/?pos=68&kwd=baby cotton nappies&tags=A||||8785.791|Price|product|||MDC|rsf:gd-|-stype:attr=1|qr_nm:gd|res:RC4|com-cf:nl|ptrs:na|ktp:N0|mc:98606|mtp:S|qry_typ:P|lang:en|wc:3|cs:8846|v=4,False,Ahmed Nagar Nawada,Ghaziabad,"Khasra No 263, New Anand Vihar, Loni,, Ahmed Nagar Nawada, Ghaziabad - 201102, Dist.Ghaziabad, Uttar Pradesh",8043850100,
"Baby Printed Cotton Nappies, Small, Age Group: Newly Born",https://www.indiamart.com/proddetail/baby-printed-cotton-nappies-2855064942755.html?pos=69&kwd=baby cotton nappies&tags=A||||8752.144|Price|product|||MDC|rsf:gd-|-stype:attr=1|qr_nm:gd|res:RC4|com-cf:nl|ptrs:na|ktp:N0|mc:98606|mtp:S|qry_typ:P|lang:en|wc:3|cs:8846|v=4,Madhav Hosiery,https://www.indiamart.com/madhav-hosiery-newdelhi/?pos=69&kwd=baby cotton nappies&tags=A||||8752.144|Price|product|||MDC|rsf:gd-|-stype:attr=1|qr_nm:gd|res:RC4|com-cf:nl|ptrs:na|ktp:N0|mc:98606|mtp:S|qry_typ:P|lang:en|wc:3|cs:8846|v=4,False,,New Delhi,"First Floor, 106, 1, Sunder Park, Shastri Nagar, East Delhi, New Delhi - 110031, Dist.Delhi, Delhi",7949307518,
"Baby Cotton Langot Nappy, Medium, Age Group: Newly Born",https://www.indiamart.com/proddetail/baby-cotton-langot-nappy-2854985174388.html?pos=70&kwd=baby cotton nappies&tags=A||||8307.81|Price|product|||MDC|rsf:gd-|-stype:attr=1|qr_nm:gd|res:RC4|com-cf:nl|ptrs:na|ktp:N0|mc:98606|mtp:S|qry_typ:P|lang:en|wc:3|cs:8846|v=4,Manish Dresses,https://www.indiamart.com/manish-dresses-pune/?pos=70&kwd=baby cotton nappies&tags=A||||8307.81|Price|product|||MDC|rsf:gd-|-stype:attr=1|qr_nm:gd|res:RC4|com-cf:nl|ptrs:na|ktp:N0|mc:98606|mtp:S|qry_typ:P|lang:en|wc:3|cs:8846|v=4,False,,Pune,"384, Budhwar Peth,, Pune - 411030, Dist.Pune, Maharashtra",7949312436,
Multicolor New Born Baby Cotton U Shape Langot Nappy Resuable Washable,https://www.indiamart.com/proddetail/new-born-baby-cotton-u-shape-langot-nappy-resuable-washable-27538820530.html?pos=71&kwd=baby cotton nappies&tags=A||||8752.144|Price|product|||MDC|rsf:gd-|-stype:attr=1|qr_nm:gd|res:RC4|com-cf:nl|ptrs:na|ktp:N0|mc:98606|mtp:S|qry_typ:P|lang:en|wc:3|cs:8846|v=4,Priyanshi International,https://www.indiamart.com/priyanshi-international-uttarpradesh/?pos=71&kwd=baby cotton nappies&tags=A||||8752.144|Price|product|||MDC|rsf:gd-|-stype:attr=1|qr_nm:gd|res:RC4|com-cf:nl|ptrs:na|ktp:N0|mc:98606|mtp:S|qry_typ:P|lang:en|wc:3|cs:8846|v=4,False,,New Delhi,"3,PROP NO S228,SCHOOL BLOCK,SHAKARPUR UGF, 3, Prop No S228, School Block, Shakarpur,110092, New Delhi - 110092, Dist.Delhi, Delhi",7942676139,
"Kids Langot, Size: Medium, Age Group: Newly Born",https://www.indiamart.com/proddetail/kids-langot-2854172865555.html?pos=72&kwd=baby cotton nappies&tags=A||||8626.744|Price|product|||MDC|rsf:gd-|-stype:attr=1|qr_nm:gd|res:RC4|com-cf:nl|ptrs:na|ktp:N0|mc:98606|mtp:S|qry_typ:P|lang:en|wc:3|cs:8846|v=4,Sri Shanmugavadivel Tex,https://www.indiamart.com/srishanmugavadiveltex/?pos=72&kwd=baby cotton nappies&tags=A||||8626.744|Price|product|||MDC|rsf:gd-|-stype:attr=1|qr_nm:gd|res:RC4|com-cf:nl|ptrs:na|ktp:N0|mc:98606|mtp:S|qry_typ:P|lang:en|wc:3|cs:8846|v=4,False,East,Tiruppur,"3c 4th streer moorthi nagar Nrk puram road extension, East, Tiruppur - 641607, Dist.Coimbatore, Tamil Nadu",8048619178,
Nonwoven Baby Diapers,,Rajput Enterprises,https://www.indiamart.com/rajputenterprises-uttarpradesh/?pos=73&kwd=baby cotton nappies&tags=A||||8785.791|Price|product|||MDC|rsf:gd-|-stype:attr=1|qr_nm:gd|res:RC4|com-cf:nl|ptrs:na|ktp:N0|mc:98606|mtp:S|qry_typ:P|lang:en|wc:3|cs:8846|v=4,False,Vaishali,Ghaziabad,"5/598, Vaishali, Ghaziabad, Vaishali, Ghaziabad - 201019, Dist.Ghaziabad, Uttar Pradesh",7942800806,
Medium Heart Printed Baby Cotton Nappies,https://www.indiamart.com/proddetail/medium-heart-printed-baby-cotton-nappies-2853489094433.html?pos=74&kwd=baby cotton nappies&tags=BA||||8785.791|Price|product|||MDC|rsf:gd-|-stype:attr=1|qr_nm:gd|res:RC4|com-cf:nl|ptrs:na|ktp:N0|mc:98606|mtp:S|qry_typ:P|lang:en|wc:3|cs:8846|v=4,Navjal Enterprises,https://www.indiamart.com/navjal-enterprises/?pos=74&kwd=baby cotton nappies&tags=BA||||8785.791|Price|product|||MDC|rsf:gd-|-stype:attr=1|qr_nm:gd|res:RC4|com-cf:nl|ptrs:na|ktp:N0|mc:98606|mtp:S|qry_typ:P|lang:en|wc:3|cs:8846|v=4,False,Loni,Ghaziabad,"Plot No. F-30, Khasra No. 250, Ram Park, Dye House, Pargana, Loni, Lutfulapur Navada, Loni, Ghaziabad - 201102, Dist.Ghaziabad, Uttar Pradesh",8043878298,
Baby White Cotton Nappies,https://www.indiamart.com/proddetail/baby-white-cotton-nappies-2851855631591.html?pos=75&kwd=baby cotton nappies&tags=BA||||8785.791|Price|product|||MDC|rsf:gd-|-stype:attr=1|qr_nm:gd|res:RC4|com-cf:nl|ptrs:na|ktp:N0|mc:98606|mtp:S|qry_typ:P|lang:en|wc:3|cs:8846|v=4,Osail Corporation,https://www.indiamart.com/osail-corporation-india/?pos=75&kwd=baby cotton nappies&tags=BA||||8785.791|Price|product|||MDC|rsf:gd-|-stype:attr=1|qr_nm:gd|res:RC4|com-cf:nl|ptrs:na|ktp:N0|mc:98606|mtp:S|qry_typ:P|lang:en|wc:3|cs:8846|v=4,False,Maharajpur,Ghaziabad,"First Floor 38/2/20 Site 4, Sahibabad, Industrial Area, Maharajpur, Ghaziabad - 201010, Dist.Ghaziabad, Uttar Pradesh",8043837117,
"Flannel Cotton Baby Nappy, Size: Small, Age Group: Newly Born",https://www.indiamart.com/proddetail/flannel-cotton-baby-nappy-2853147594330.html?pos=76&kwd=baby cotton nappies&tags=BA||||8559.269|Price|product|||MDC|rsf:gd-|-stype:attr=1|qr_nm:gd|res:RC4|com-cf:nl|ptrs:na|ktp:N0|mc:98606|mtp:S|qry_typ:P|lang:en|wc:3|cs:8846|v=4,Akash Enterprises,https://www.indiamart.com/akashenterprises-indoremadhyapradesh/?pos=76&kwd=baby cotton nappies&tags=BA||||8559.269|Price|product|||MDC|rsf:gd-|-stype:attr=1|qr_nm:gd|res:RC4|com-cf:nl|ptrs:na|ktp:N0|mc:98606|mtp:S|qry_typ:P|lang:en|wc:3|cs:8846|v=4,False,Sudama Nagar,Indore,"1058K Sudama Nagar, Sudama Nagar, Indore - 452009, Dist.Indore, Madhya Pradesh",7942720321,
White Cotton Baby Diaper,https://www.indiamart.com/proddetail/cotton-baby-diaper-2849669686273.html?pos=77&kwd=baby cotton nappies&tags=A||||8823.154|Price|product|||TS|rsf:gd-|-stype:attr=1|qr_nm:gd|res:RC4|com-cf:nl|ptrs:na|ktp:N0|mc:98606|mtp:S|qry_typ:P|lang:en|wc:3|cs:8846|v=4,Sahaj Enterprises,https://www.compulsory.co.in/?pos=77&kwd=baby cotton nappies&tags=A||||8823.154|Price|product|||TS|rsf:gd-|-stype:attr=1|qr_nm:gd|res:RC4|com-cf:nl|ptrs:na|ktp:N0|mc:98606|mtp:S|qry_typ:P|lang:en|wc:3|cs:8846|v=4,False,Sikandra,Agra,"13/18-A, Avas Vikas Colony, Sikandra, Sikandra, Agra - 282007, Dist.Agra, Uttar Pradesh",8047639490,
Hello Sweety Cotton White Baby Diapers,https://www.indiamart.com/proddetail/hello-sweety-cotton-white-baby-diapers-2852720156891.html?pos=78&kwd=baby cotton nappies&tags=A||||8559.269|Price|product|||TS|rsf:gd-|-stype:attr=1|qr_nm:gd|res:RC4|com-cf:nl|ptrs:na|ktp:N0|mc:98606|mtp:S|qry_typ:P|lang:en|wc:3|cs:8846|v=4,Aadaarsh Enterprise,https://www.hellosweetybabydaiper.com/?pos=78&kwd=baby cotton nappies&tags=A||||8559.269|Price|product|||TS|rsf:gd-|-stype:attr=1|qr_nm:gd|res:RC4|com-cf:nl|ptrs:na|ktp:N0|mc:98606|mtp:S|qry_typ:P|lang:en|wc:3|cs:8846|v=4,False,,Indore,"2,Sher Shah Suri Nagar B, Khajrana, Indore - 452001, Dist.Indore, Madhya Pradesh",8043879050,
White Organic Muslin Baby Cotton Nappy,https://www.indiamart.com/proddetail/baby-cotton-nappy-2852915578412.html?pos=79&kwd=baby cotton nappies&tags=BA||||8626.744|Price|product|||TS|rsf:gd-|-stype:attr=1|qr_nm:gd|res:RC4|com-cf:nl|ptrs:na|ktp:N0|mc:98606|mtp:S|qry_typ:P|lang:en|wc:3|cs:8846|v=4,ESS ARR Kay,https://www.essarrkaygarments.com/?pos=79&kwd=baby cotton nappies&tags=BA||||8626.744|Price|product|||TS|rsf:gd-|-stype:attr=1|qr_nm:gd|res:RC4|com-cf:nl|ptrs:na|ktp:N0|mc:98606|mtp:S|qry_typ:P|lang:en|wc:3|cs:8846|v=4,False,Poyampalayam,Tiruppur,"217, DR.RADHA KRISHNAN NAGAR,, PITCHAMPALAYAM PUDUR PN road, Poyampalayam, Tiruppur - 641603, Dist.Coimbatore, Tamil Nadu",7942563096,
2-3 Colours Muslin Nappies For Newborn,https://www.indiamart.com/proddetail/4-layers-nappies-for-newborn-babies-langot-2851526499873.html?pos=80&kwd=baby cotton nappies&tags=BA||||8211.142||product|||TS|rsf:gd-|-stype:attr=1|qr_nm:gd|res:RC4|com-cf:nl|ptrs:na|ktp:N0|mc:98606|mtp:S|qry_typ:P|lang:en|wc:3|cs:8846|v=4,Mansvi Artts,https://www.indiamart.com/mansvi-artts/?pos=80&kwd=baby cotton nappies&tags=BA||||8211.142||product|||TS|rsf:gd-|-stype:attr=1|qr_nm:gd|res:RC4|com-cf:nl|ptrs:na|ktp:N0|mc:98606|mtp:S|qry_typ:P|lang:en|wc:3|cs:8846|v=4,False,Malad East,Mumbai,"Room No.39 Kurar Village Sai Darshan Niwas, Shiv Shakti Colony, Malad East, Mumbai - 400097, Dist.Mumbai, Maharashtra",8047551199,
Cotton Pant Type Adult Diaper Pants (Pack of 10),https://www.indiamart.com/proddetail/adult-diaper-pants-pack-of-10-15520233862.html?pos=81&kwd=baby cotton nappies&tags=BA||||8211.142|Price|product|||TS|rsf:gd-|-stype:attr=1|qr_nm:gd|res:RC4|com-cf:nl|ptrs:na|ktp:N0|mc:98606|mtp:S|qry_typ:P|lang:en|wc:3|cs:8846|v=4,I Touch Surgical,https://www.itouchsurgical.co.in/?pos=81&kwd=baby cotton nappies&tags=BA||||8211.142|Price|product|||TS|rsf:gd-|-stype:attr=1|qr_nm:gd|res:RC4|com-cf:nl|ptrs:na|ktp:N0|mc:98606|mtp:S|qry_typ:P|lang:en|wc:3|cs:8846|v=4,False,Goregaon,Mumbai,"4, Ekta Suprabhat, Siddharth Nagar, Goregaon West, Goregaon, Mumbai - 400104, Dist.Mumbai, Maharashtra",8048962190,
Disposable Cotton Baby Diaper,https://www.indiamart.com/proddetail/disposable-cotton-baby-diaper-2852329299097.html?pos=82&kwd=baby cotton nappies&tags=BA||||8307.81|Price|product|||MDC|rsf:gd-|-stype:attr=1|qr_nm:gd|res:RC4|com-cf:nl|ptrs:na|ktp:N0|mc:98606|mtp:S|qry_typ:P|lang:en|wc:3|cs:8846|v=4,Ashstylo Collection,https://www.indiamart.com/ashstylocollection/?pos=82&kwd=baby cotton nappies&tags=BA||||8307.81|Price|product|||MDC|rsf:gd-|-stype:attr=1|qr_nm:gd|res:RC4|com-cf:nl|ptrs:na|ktp:N0|mc:98606|mtp:S|qry_typ:P|lang:en|wc:3|cs:8846|v=4,False,Kondhwa,Pune,"Kamaldeep Garden, A/26, Kondhwa, Kondhwa, Pune - 411048, Dist.Pune, Maharashtra",7942712072,
"76 Baby Diaper Loose, Size: Medium",https://www.indiamart.com/proddetail/baby-diaper-loose-2853676974030.html?pos=83&kwd=baby cotton nappies&tags=BA||||8230.883|Price|product|||MDC|rsf:gd-|-stype:attr=1|qr_nm:gd|res:RC4|com-cf:nl|ptrs:na|ktp:N0|mc:98606|mtp:S|qry_typ:P|lang:en|wc:3|cs:8846|v=4,Zainab Enterprise,https://www.indiamart.com/zainabenterprise-surat/?pos=83&kwd=baby cotton nappies&tags=BA||||8230.883|Price|product|||MDC|rsf:gd-|-stype:attr=1|qr_nm:gd|res:RC4|com-cf:nl|ptrs:na|ktp:N0|mc:98606|mtp:S|qry_typ:P|lang:en|wc:3|cs:8846|v=4,False,Begampura,Surat,"Shop No.5,Ground Floor,Al Meena Appt.,,2210 - Zapabazar,Zampa Surat Surat City, Begampura, Surat - 395003, Dist.Surat, Gujarat",8048956780,
"Multy Color Baby Cotton Nappies, Size: Medium",https://www.indiamart.com/proddetail/baby-cotton-nappies-2853660027762.html?pos=84&kwd=baby cotton nappies&tags=BA||||8785.791|Price|product|||TS|rsf:gd-|-stype:attr=1|qr_nm:gd|res:RC4|com-cf:nl|ptrs:na|ktp:N0|mc:98606|mtp:S|qry_typ:P|lang:en|wc:3|cs:8846|v=4,Ilaki Intercraft (India),https://www.indiamart.com/ilakiintercraft/?pos=84&kwd=baby cotton nappies&tags=BA||||8785.791|Price|product|||TS|rsf:gd-|-stype:attr=1|qr_nm:gd|res:RC4|com-cf:nl|ptrs:na|ktp:N0|mc:98606|mtp:S|qry_typ:P|lang:en|wc:3|cs:8846|v=4,False,Tronica City,Ghaziabad,"D-69 Sector D-1 Tronica City, Tronica City, Ghaziabad - 201103, Dist.Ghaziabad, Uttar Pradesh",7942552124,
"Cotton Baby Nappy, Medium",https://www.indiamart.com/proddetail/baby-cotton-nappies-2850138149197.html?pos=85&kwd=baby cotton nappies&tags=BA||||8228.275|Price|product|||TS|rsf:gd-|-stype:attr=1|qr_nm:gd|res:RC4|com-cf:nl|ptrs:na|ktp:N0|mc:98606|mtp:S|qry_typ:P|lang:en|wc:3|cs:8846|v=4,Ranibaa,https://www.indiamart.com/ranibaa-ahmedabad/?pos=85&kwd=baby cotton nappies&tags=BA||||8228.275|Price|product|||TS|rsf:gd-|-stype:attr=1|qr_nm:gd|res:RC4|com-cf:nl|ptrs:na|ktp:N0|mc:98606|mtp:S|qry_typ:P|lang:en|wc:3|cs:8846|v=4,False,Nikol,Ahmedabad,"G 62, Sahajanand Business Park,me.keshavam Estate,sp Ring Road, Nikol,, Nikol, Ahmedabad - 382350, Dist.Ahmedabad, Gujarat",7942800620,
Chinmay Kids Pink Baby Cotton Nappies Set,https://www.indiamart.com/proddetail/baby-cotton-nappies-set-24194880148.html?pos=86&kwd=baby cotton nappies&tags=BA||||8752.144||product|||TS|rsf:gd-|-stype:attr=1|qr_nm:gd|res:RC4|com-cf:nl|ptrs:na|ktp:N0|mc:98606|mtp:S|qry_typ:P|lang:en|wc:3|cs:8846|v=4,Chinmay Kids,https://www.indiamart.com/chinmaykids/?pos=86&kwd=baby cotton nappies&tags=BA||||8752.144||product|||TS|rsf:gd-|-stype:attr=1|qr_nm:gd|res:RC4|com-cf:nl|ptrs:na|ktp:N0|mc:98606|mtp:S|qry_typ:P|lang:en|wc:3|cs:8846|v=4,False,Nayagaon,New Delhi,"C-99, Street No. 4, First Pusta, Nayagaon, New Delhi - 110053, Dist.Delhi, Delhi",8046054858,
Baby Cotton Nappies,https://www.indiamart.com/proddetail/baby-cotton-nappies-23254870912.html?pos=87&kwd=baby cotton nappies&tags=BB||||8752.144|Price|product|||TS|rsf:gd-|-stype:attr=1|qr_nm:gd|res:RC4|com-cf:nl|ptrs:na|ktp:N0|mc:98606|mtp:S|qry_typ:P|lang:en|wc:3|cs:8846|v=4,Shaifali Traders,https://www.shopphiez.com/?pos=87&kwd=baby cotton nappies&tags=BB||||8752.144|Price|product|||TS|rsf:gd-|-stype:attr=1|qr_nm:gd|res:RC4|com-cf:nl|ptrs:na|ktp:N0|mc:98606|mtp:S|qry_typ:P|lang:en|wc:3|cs:8846|v=4,False,PATPARGANJ,New Delhi,"Plot No 10, main road patparganj ganj, PATPARGANJ, New Delhi - 110091, Dist.Delhi, Delhi",8046033629,
Baby Cotton Nappies,https://www.indiamart.com/proddetail/baby-cotton-nappies-2854901416433.html?pos=88&kwd=baby cotton nappies&tags=BA||||8954.051|Price|product|||TS|rsf:gd-|-stype:attr=1|qr_nm:gd|res:RC4|com-cf:nl|ptrs:na|ktp:N0|mc:98606|mtp:S|qry_typ:P|lang:en|wc:3|cs:8846|v=4,Tetra Clothing,https://www.tetraclothing.in/?pos=88&kwd=baby cotton nappies&tags=BA||||8954.051|Price|product|||TS|rsf:gd-|-stype:attr=1|qr_nm:gd|res:RC4|com-cf:nl|ptrs:na|ktp:N0|mc:98606|mtp:S|qry_typ:P|lang:en|wc:3|cs:8846|v=4,True,Gopichettipalaiyam,Chennai,"No. 59/28, Balu Building, Gopichettipalaiyam, Chennai - 638476, Dist.Chennai, Tamil Nadu",8048957951,
Newborn Baby Cotton Nappies,https://www.indiamart.com/proddetail/newborn-baby-cotton-nappies-22603642712.html?pos=89&kwd=baby cotton nappies&tags=BA||||8281.036|Price|product|||TS|rsf:gd-|-stype:attr=1|qr_nm:gd|res:RC4|com-cf:nl|ptrs:na|ktp:N0|mc:98606|mtp:S|qry_typ:P|lang:en|wc:3|cs:8846|v=4,New Era,https://www.indiamart.com/new-era-vadodara/?pos=89&kwd=baby cotton nappies&tags=BA||||8281.036|Price|product|||TS|rsf:gd-|-stype:attr=1|qr_nm:gd|res:RC4|com-cf:nl|ptrs:na|ktp:N0|mc:98606|mtp:S|qry_typ:P|lang:en|wc:3|cs:8846|v=4,False,Bapunagar,Vadodara,"G-59 Warasia Ring Road Chaturbhai Park Society Warshiya Main Road, Bapunagar, Vadodara - 390006, Dist.Vadodara, Gujarat",8047768024,
"Male 75pcs Baby Cotton Nappies, Size: Medium, Age Group: 3to12 Months",https://www.indiamart.com/proddetail/75pcs-baby-cotton-nappies-2853717100297.html?pos=90&kwd=baby cotton nappies&tags=BA||||8752.144|Price|product|||TS|rsf:gd-|-stype:attr=1|qr_nm:gd|res:RC4|com-cf:nl|ptrs:na|ktp:N0|mc:98606|mtp:S|qry_typ:P|lang:en|wc:3|cs:8846|v=4,Sri Rajbhan Enterprises,https://www.indiamart.com/srirajbhanenterprises/?pos=90&kwd=baby cotton nappies&tags=BA||||8752.144|Price|product|||TS|rsf:gd-|-stype:attr=1|qr_nm:gd|res:RC4|com-cf:nl|ptrs:na|ktp:N0|mc:98606|mtp:S|qry_typ:P|lang:en|wc:3|cs:8846|v=4,False,,New Delhi,"Flat No 18, Ganga Apartment, Alaknanda, New Delhi - 110019, Dist.Delhi, Delhi",7942956951,
"Muslin Cotton Nappies Padded, Size: Medium, Age Group: 3to12 Months",https://www.indiamart.com/proddetail/muslin-cotton-nappies-padded-2854175280291.html?pos=91&kwd=baby cotton nappies&tags=BA||||8668.838|Price|product|||TS|rsf:gd-|-stype:attr=1|qr_nm:gd|res:RC4|com-cf:nl|ptrs:na|ktp:N0|mc:98606|mtp:S|qry_typ:P|lang:en|wc:3|cs:8846|v=4,New Asia Textiles,https://www.indiamart.com/new-asia-textiles/?pos=91&kwd=baby cotton nappies&tags=BA||||8668.838|Price|product|||TS|rsf:gd-|-stype:attr=1|qr_nm:gd|res:RC4|com-cf:nl|ptrs:na|ktp:N0|mc:98606|mtp:S|qry_typ:P|lang:en|wc:3|cs:8846|v=4,False,,Erode,"42, Mosikeeranar Street-4 indra nagar, Erode - 638003, Dist.Erode, Tamil Nadu",8046070169,
"White Cotton Baby Printed Nappies, Size: Zero",https://www.indiamart.com/proddetail/baby-printed-nappies-20687967312.html?pos=92&kwd=baby cotton nappies&tags=BB||||8559.269|Price|product|||TS|rsf:gd-|-stype:attr=1|qr_nm:gd|res:RC4|com-cf:nl|ptrs:na|ktp:N0|mc:98606|mtp:S|qry_typ:P|lang:en|wc:3|cs:8846|v=4,Daga Impex,https://www.dagaimpex.co.in/?pos=92&kwd=baby cotton nappies&tags=BB||||8559.269|Price|product|||TS|rsf:gd-|-stype:attr=1|qr_nm:gd|res:RC4|com-cf:nl|ptrs:na|ktp:N0|mc:98606|mtp:S|qry_typ:P|lang:en|wc:3|cs:8846|v=4,False,Rajwada,Indore,"No. 214, Tilak Path, Near Maruti Hanuman Mandir, Rajwada, Indore - 452007, Dist.Indore, Madhya Pradesh",8046030945,
2-3 Colours Muslin Nappies For Newborn,https://www.indiamart.com/proddetail/4-layers-nappies-for-newborn-babies-langot-2851526499873.html?pos=93&kwd=baby cotton nappies&tags=BA||||8211.142||product|||TS|rsf:gd-|-stype:attr=1|qr_nm:gd|res:RC4|com-cf:nl|ptrs:na|ktp:N0|mc:98606|mtp:S|qry_typ:P|lang:en|wc:3|cs:8846|v=4,Mansvi Artts,https://www.indiamart.com/mansvi-artts/?pos=93&kwd=baby cotton nappies&tags=BA||||8211.142||product|||TS|rsf:gd-|-stype:attr=1|qr_nm:gd|res:RC4|com-cf:nl|ptrs:na|ktp:N0|mc:98606|mtp:S|qry_typ:P|lang:en|wc:3|cs:8846|v=4,False,Malad East,Mumbai,"Room No.39 Kurar Village Sai Darshan Niwas, Shiv Shakti Colony, Malad East, Mumbai - 400097, Dist.Mumbai, Maharashtra",8047551199,
"bibosa Printed Baby Cotton Nappy, Packaging Type: Pp Bag",https://www.indiamart.com/proddetail/baby-cotton-nappy-20076693355.html?pos=94&kwd=baby cotton nappies&tags=BB||||8626.744|Price|product|||TS|rsf:gd-|-stype:attr=1|qr_nm:gd|res:RC4|com-cf:nl|ptrs:na|ktp:N0|mc:98606|mtp:S|qry_typ:P|lang:en|wc:3|cs:8846|v=4,Bibosa Retail,https://www.indiamart.com/bibosa-retail/?pos=94&kwd=baby cotton nappies&tags=BB||||8626.744|Price|product|||TS|rsf:gd-|-stype:attr=1|qr_nm:gd|res:RC4|com-cf:nl|ptrs:na|ktp:N0|mc:98606|mtp:S|qry_typ:P|lang:en|wc:3|cs:8846|v=4,False,Sathya Colony,Tiruppur,"koothampalayam piruv.Peramanallur Road, Sathya Colony, Tiruppur - 641602, Dist.Coimbatore, Tamil Nadu",8047641062,
White Cotton Baby Diapers,https://www.indiamart.com/proddetail/cotton-baby-diapers-2849667036833.html?pos=95&kwd=baby cotton nappies&tags=BA||||8954.051|Price|product|||TS|rsf:gd-|-stype:attr=1|qr_nm:gd|res:RC4|com-cf:nl|ptrs:na|ktp:N0|mc:98606|mtp:S|qry_typ:P|lang:en|wc:3|cs:8846|v=4,Immanlyn Old Age Traders,https://www.immanlyn.in/?pos=95&kwd=baby cotton nappies&tags=BA||||8954.051|Price|product|||TS|rsf:gd-|-stype:attr=1|qr_nm:gd|res:RC4|com-cf:nl|ptrs:na|ktp:N0|mc:98606|mtp:S|qry_typ:P|lang:en|wc:3|cs:8846|v=4,False,T Nagar,Chennai,"Old No 6 New No 15, Saravana Street, T Nagar, T Nagar, Chennai - 600017, Dist.Chennai, Tamil Nadu",8046053387,
"Male Newborn Baby Cotton Langot, Small, Age Group: Newly Born",https://www.indiamart.com/proddetail/newborn-baby-cotton-langot-2854712408362.html?pos=96&kwd=baby cotton nappies&tags=BA||||8626.744|Price|product|||TS|rsf:gd-|-stype:attr=1|qr_nm:gd|res:RC4|com-cf:nl|ptrs:na|ktp:N0|mc:98606|mtp:S|qry_typ:P|lang:en|wc:3|cs:8846|v=4,Richie International,https://www.indiamart.com/richieinternational/?pos=96&kwd=baby cotton nappies&tags=BA||||8626.744|Price|product|||TS|rsf:gd-|-stype:attr=1|qr_nm:gd|res:RC4|com-cf:nl|ptrs:na|ktp:N0|mc:98606|mtp:S|qry_typ:P|lang:en|wc:3|cs:8846|v=4,False,Nallur,Tiruppur,"48 Csi Colony, Nallur, Vijayapuram Post vijayapuram kangayam road, Nallur, Tiruppur - 641606, Dist.Coimbatore, Tamil Nadu",8047698456,
"L Size Cotton Baby Diapers, Large",https://www.indiamart.com/proddetail/l-size-cotton-baby-diapers-2851735278730.html?pos=97&kwd=baby cotton nappies&tags=BA||||8230.883|Price|product|||TS|rsf:gd-|-stype:attr=1|qr_nm:gd|res:RC4|com-cf:nl|ptrs:na|ktp:N0|mc:98606|mtp:S|qry_typ:P|lang:en|wc:3|cs:8846|v=4,VR Hygiene Care,https://www.indiamart.com/vrhygienecare/?pos=97&kwd=baby cotton nappies&tags=BA||||8230.883|Price|product|||TS|rsf:gd-|-stype:attr=1|qr_nm:gd|res:RC4|com-cf:nl|ptrs:na|ktp:N0|mc:98606|mtp:S|qry_typ:P|lang:en|wc:3|cs:8846|v=4,False,Saniya Hemad,Surat,"A-12, Subham Ind.-1, Saniya Hemad, Saniya Hemad, Surat - 395006, Dist.Surat, Gujarat",8048969848,
150 GSM Baby Kids Printed Cotton Nappy,https://www.indiamart.com/proddetail/150-gsm-baby-kids-printed-cotton-nappy-23705648133.html?pos=98&kwd=baby cotton nappies&tags=BA||||8752.144|Price|product|||TS|rsf:gd-|-stype:attr=1|qr_nm:gd|res:RC4|com-cf:nl|ptrs:na|ktp:N0|mc:98606|mtp:S|qry_typ:P|lang:en|wc:3|cs:8846|v=4,ASW Retail Corporation,https://www.indiamart.com/aswretailcorporation/?pos=98&kwd=baby cotton nappies&tags=BA||||8752.144|Price|product|||TS|rsf:gd-|-stype:attr=1|qr_nm:gd|res:RC4|com-cf:nl|ptrs:na|ktp:N0|mc:98606|mtp:S|qry_typ:P|lang:en|wc:3|cs:8846|v=4,False,Naraina,New Delhi,"B-62/6 3rd Floor Phase II, Naraina Industrial Area, Naraina, New Delhi - 110032, Dist.Delhi, Delhi",8046060075,
Sanchi Creation Triangle Shape Nappy For New Born Baby - Organic Cotton,https://www.indiamart.com/proddetail/sanchi-creation-triangle-shape-nappy-for-new-born-baby-organic-cotton-22540031991.html?pos=99&kwd=baby cotton nappies&tags=BA||||8281.036|Price|product|||TS|rsf:gd-|-stype:attr=1|qr_nm:gd|res:RC4|com-cf:nl|ptrs:na|ktp:N0|mc:98606|mtp:S|qry_typ:P|lang:en|wc:3|cs:8846|v=4,Sanchi Creation,https://www.indiamart.com/sanchi-creation-vadodara/?pos=99&kwd=baby cotton nappies&tags=BA||||8281.036|Price|product|||TS|rsf:gd-|-stype:attr=1|qr_nm:gd|res:RC4|com-cf:nl|ptrs:na|ktp:N0|mc:98606|mtp:S|qry_typ:P|lang:en|wc:3|cs:8846|v=4,False,H Chaturbhai Park Warasia Ring Road Vadodara,Vadodara,"Kalamandir Lane, Mangal Bazar, H Chaturbhai Park Warasia Ring Road Vadodara, Vadodara - 390006, Dist.Vadodara, Gujarat",8047632435,
"Newly Born Baby Cotton Nappies, Small",https://www.indiamart.com/proddetail/newly-born-baby-cotton-nappies-2854540432491.html?pos=100&kwd=baby cotton nappies&tags=BA||||9825.052|Price|product|||MDC|rsf:gd-|-stype:attr=1|qr_nm:gd|res:RC4|com-cf:nl|ptrs:na|ktp:N0|mc:98606|mtp:S|qry_typ:P|lang:en|wc:3|cs:8846|v=4,Iffat Collection,https://www.indiamart.com/iffatcollection/?pos=100&kwd=baby cotton nappies&tags=BA||||9825.052|Price|product|||MDC|rsf:gd-|-stype:attr=1|qr_nm:gd|res:RC4|com-cf:nl|ptrs:na|ktp:N0|mc:98606|mtp:S|qry_typ:P|lang:en|wc:3|cs:8846|v=4,False,Kolorah,Domjur,"P.S- Domjur, P.o- Kolorah, Vill- Kolorah, Natibpur, Kolorah, Domjur - 711411, Dist.Howrah, West Bengal",7949323255,
"Cotton Baby Nappies, Size: Medium, Age Group: Newly Born",https://www.indiamart.com/proddetail/cotton-baby-nappies-2854169605088.html?pos=101&kwd=baby cotton nappies&tags=BA||||8661.854|Price|product|||MDC|rsf:gd-|-stype:attr=1|qr_nm:gd|res:RC4|com-cf:nl|ptrs:na|ktp:N0|mc:98606|mtp:S|qry_typ:P|lang:en|wc:3|cs:8846|v=4,Rajiv Traders,https://www.indiamart.com/rajiv-traders-punjab/?pos=101&kwd=baby cotton nappies&tags=BA||||8661.854|Price|product|||MDC|rsf:gd-|-stype:attr=1|qr_nm:gd|res:RC4|com-cf:nl|ptrs:na|ktp:N0|mc:98606|mtp:S|qry_typ:P|lang:en|wc:3|cs:8846|v=4,False,Field Ganj,Ludhiana,"423, Kucha No- 6 Rajiv Traders, Field Ganj, Field Ganj, Ludhiana - 141008, Dist.Ludhiana, Punjab",8045734279,
Muslin SQUARE NAPPY COLOUR PRINTED KT-103,https://www.indiamart.com/proddetail/square-nappy-colour-printed-kt-103-2852772750288.html?pos=102&kwd=baby cotton nappies&tags=BA||||8626.744||product|||TS|rsf:gd-|-stype:attr=1|qr_nm:gd|res:RC4|com-cf:nl|ptrs:na|ktp:N0|mc:98606|mtp:S|qry_typ:P|lang:en|wc:3|cs:8846|v=4,Polotrendz,https://www.indiamart.com/polotrendz-tamilnadu/?pos=102&kwd=baby cotton nappies&tags=BA||||8626.744||product|||TS|rsf:gd-|-stype:attr=1|qr_nm:gd|res:RC4|com-cf:nl|ptrs:na|ktp:N0|mc:98606|mtp:S|qry_typ:P|lang:en|wc:3|cs:8846|v=4,False,Rakkiapalayam,Tiruppur,"44, Swarnapuri Mullai Nagar, Rakkiapalayam, Avinashi Road, Rakkiapalayam, Tiruppur - 641654, Dist.Coimbatore, Tamil Nadu",8046071285,
"Cotton NEW BORN BABY LANGOT, Small",https://www.indiamart.com/proddetail/new-born-baby-langot-2854253582833.html?pos=103&kwd=baby cotton nappies&tags=BA||||8228.275|Price|product|||TS|rsf:gd-|-stype:attr=1|qr_nm:gd|res:RC4|com-cf:nl|ptrs:na|ktp:N0|mc:98606|mtp:S|qry_typ:P|lang:en|wc:3|cs:8846|v=4,Tulsi Jiyana,https://www.indiamart.com/tulsijiyana/?pos=103&kwd=baby cotton nappies&tags=BA||||8228.275|Price|product|||TS|rsf:gd-|-stype:attr=1|qr_nm:gd|res:RC4|com-cf:nl|ptrs:na|ktp:N0|mc:98606|mtp:S|qry_typ:P|lang:en|wc:3|cs:8846|v=4,False,Nikol,Ahmedabad,"C/14, Parishram Park Society Opposite Sun City, Nikol, Ahmedabad - 380001, Dist.Ahmedabad, Gujarat",8046078640,
Cotton REAL CARE BABY DIAPERS-NEW BORN,https://www.indiamart.com/proddetail/real-care-baby-diapers-new-born-2850551480391.html?pos=104&kwd=baby cotton nappies&tags=BA||||8954.051|Price|product|||TS|rsf:gd-|-stype:attr=1|qr_nm:gd|res:RC4|com-cf:nl|ptrs:na|ktp:N0|mc:98606|mtp:S|qry_typ:P|lang:en|wc:3|cs:8846|v=4,Chris Merchant Private Limited,https://www.chrismerchant.co.in/?pos=104&kwd=baby cotton nappies&tags=BA||||8954.051|Price|product|||TS|rsf:gd-|-stype:attr=1|qr_nm:gd|res:RC4|com-cf:nl|ptrs:na|ktp:N0|mc:98606|mtp:S|qry_typ:P|lang:en|wc:3|cs:8846|v=4,False,Koyambedu,Chennai,"No. 5, Poonamalee High Road, Koyambedu, Chennai - 600107, Dist.Chennai, Tamil Nadu",8048956521,
Baby Washable Diapers/ Baby Reusable Diaper/ Baby Cloth Diaper/ Baby Washable Diaper,https://www.indiamart.com/proddetail/baby-washable-diapers-baby-reusable-diaper-baby-cloth-diaper-baby-washable-diaper-21889209430.html?pos=105&kwd=baby cotton nappies&tags=BA||||8752.144|Price|product|||TS|rsf:gd-|-stype:attr=1|qr_nm:gd|res:RC4|com-cf:nl|ptrs:na|ktp:N0|mc:98606|mtp:S|qry_typ:P|lang:en|wc:3|cs:8846|v=4,Mom & Son,https://www.theindianchoice.com/?pos=105&kwd=baby cotton nappies&tags=BA||||8752.144|Price|product|||TS|rsf:gd-|-stype:attr=1|qr_nm:gd|res:RC4|com-cf:nl|ptrs:na|ktp:N0|mc:98606|mtp:S|qry_typ:P|lang:en|wc:3|cs:8846|v=4,False,Karawal Nagar,New Delhi,"B-57 Gali Number-1 Mukund Vihar, Near Pnb Bank, Karawal Nagar, New Delhi - 110094, Dist.Delhi, Delhi",7942565509,
Light Green And White Baby Plain Cotton Nappies,https://www.indiamart.com/proddetail/baby-plain-cotton-nappies-2852597891148.html?pos=106&kwd=baby cotton nappies&tags=BA||||8255.478|Price|product|||MDC|rsf:gd-|-stype:attr=1|qr_nm:gd|res:RC4|com-cf:nl|ptrs:na|ktp:N0|mc:98606|mtp:S|qry_typ:P|lang:en|wc:3|cs:8846|v=4,Adinath Hosiery,https://www.indiamart.com/adinath-hosiery-gujarat/?pos=106&kwd=baby cotton nappies&tags=BA||||8255.478|Price|product|||MDC|rsf:gd-|-stype:attr=1|qr_nm:gd|res:RC4|com-cf:nl|ptrs:na|ktp:N0|mc:98606|mtp:S|qry_typ:P|lang:en|wc:3|cs:8846|v=4,False,Ankleshwar GIDC,Ankleshwar,"B 7, Mahavir Market, GIDC, Bharuch, Ankleshwar GIDC, Ankleshwar - 393002, Dist.Bharuch, Gujarat",7942712723,
"DB-313 Baby Cotton Nappies, Size: Small, Age Group: Newly Born",https://www.indiamart.com/proddetail/db-313-baby-cotton-nappies-2854163317962.html?pos=107&kwd=baby cotton nappies&tags=BA||||8693.162||product|||MDC|rsf:gd-|-stype:attr=1|qr_nm:gd|res:RC4|com-cf:nl|ptrs:na|ktp:N0|mc:98606|mtp:S|qry_typ:P|lang:en|wc:3|cs:8846|v=4,Dear Baby,https://www.indiamart.com/dearbaby/?pos=107&kwd=baby cotton nappies&tags=BA||||8693.162||product|||MDC|rsf:gd-|-stype:attr=1|qr_nm:gd|res:RC4|com-cf:nl|ptrs:na|ktp:N0|mc:98606|mtp:S|qry_typ:P|lang:en|wc:3|cs:8846|v=4,False,Begambur,Dindigul,"2nd Floor, No 7, Ahmad Appartment, S P Nagar, Begambur, Begambur, Dindigul - 624002, Dist.Dindigul, Tamil Nadu",8045731862,
"Newborn Baby Printed Cotton Nappies, Size: Small, Age Group: Newly Born",https://www.indiamart.com/proddetail/newborn-baby-printed-cotton-nappies-2854059160712.html?pos=108&kwd=baby cotton nappies&tags=BA||||8752.144|Price|product|||MDC|rsf:gd-|-stype:attr=1|qr_nm:gd|res:RC4|com-cf:nl|ptrs:na|ktp:N0|mc:98606|mtp:S|qry_typ:P|lang:en|wc:3|cs:8846|v=4,A.D. Enterprises,https://www.indiamart.com/adenterprises-burari-newdelhi/?pos=108&kwd=baby cotton nappies&tags=BA||||8752.144|Price|product|||MDC|rsf:gd-|-stype:attr=1|qr_nm:gd|res:RC4|com-cf:nl|ptrs:na|ktp:N0|mc:98606|mtp:S|qry_typ:P|lang:en|wc:3|cs:8846|v=4,False,North,New Delhi,"K.No-12/1, Main 25 FT. Road, Near Shyam Sweets, Uttranchal Enclave ,Kamal Pur, Burari, North, New Delhi - 110084, Dist.Delhi, Delhi",8044565004,
"Cotton Baby Padded Nappies, Size: Small, Age Group: Newly Born",https://www.indiamart.com/proddetail/cotton-baby-padded-nappies-2853403138362.html?pos=109&kwd=baby cotton nappies&tags=BA||||8230.883|Price|product|||MDC|rsf:gd-|-stype:attr=1|qr_nm:gd|res:RC4|com-cf:nl|ptrs:na|ktp:N0|mc:98606|mtp:S|qry_typ:P|lang:en|wc:3|cs:8846|v=4,P & C Enterprise,https://www.indiamart.com/pc-enterprisesurat/?pos=109&kwd=baby cotton nappies&tags=BA||||8230.883|Price|product|||MDC|rsf:gd-|-stype:attr=1|qr_nm:gd|res:RC4|com-cf:nl|ptrs:na|ktp:N0|mc:98606|mtp:S|qry_typ:P|lang:en|wc:3|cs:8846|v=4,False,Punagam,Surat,"4TH, L-11, Shubh Plaza NR. Bhaiya Nagar, Satguru Mobile, Punagam, Surat - 395010, Dist.Surat, Gujarat",7949222404,
"Pink Baby Cotton Nappies, Age Group: Newly Born",https://www.indiamart.com/proddetail/pink-baby-cotton-nappies-23414144512.html?pos=110&kwd=baby cotton nappies&tags=BA||||8747.203|Price|product|||MDC|rsf:gd-|-stype:attr=1|qr_nm:gd|res:RC4|com-cf:nl|ptrs:na|ktp:N0|mc:98606|mtp:S|qry_typ:P|lang:en|wc:3|cs:8846|v=4,Sai Impex,https://www.indiamart.com/sai-impex-panipat/?pos=110&kwd=baby cotton nappies&tags=BA||||8747.203|Price|product|||MDC|rsf:gd-|-stype:attr=1|qr_nm:gd|res:RC4|com-cf:nl|ptrs:na|ktp:N0|mc:98606|mtp:S|qry_typ:P|lang:en|wc:3|cs:8846|v=4,False,,Panipat,"581/4, Circular Road, Near Amar, Bhawan Chowk,, Panipat - 132103, Dist.Panipat, Haryana",7949329674,
Beige (base) Baby Printed Cotton Nappies,https://www.indiamart.com/proddetail/baby-printed-cotton-nappies-2850668902473.html?pos=111&kwd=baby cotton nappies&tags=BA||||8228.275|Price|product|||MDC|rsf:gd-|-stype:attr=1|qr_nm:gd|res:RC4|com-cf:nl|ptrs:na|ktp:N0|mc:98606|mtp:S|qry_typ:P|lang:en|wc:3|cs:8846|v=4,Mahalaxmi Babycare Products LLP,https://www.indiamart.com/mahalaxmibabycareproducts/?pos=111&kwd=baby cotton nappies&tags=BA||||8228.275|Price|product|||MDC|rsf:gd-|-stype:attr=1|qr_nm:gd|res:RC4|com-cf:nl|ptrs:na|ktp:N0|mc:98606|mtp:S|qry_typ:P|lang:en|wc:3|cs:8846|v=4,False,Bapunagar,Ahmedabad,"Survey No. 00697/4585, B No 697/4585 Gujarat Hou Board, Bapunagar, Bapunagar, Ahmedabad - 382424, Dist.Ahmedabad, Gujarat",8047787256,
Multicolor Newborn Baby Cotton Nappies (langot),https://www.indiamart.com/proddetail/newborn-baby-cotton-nappies-langot-23261958730.html?pos=112&kwd=baby cotton nappies&tags=BB||||8752.144|Price|product|||MDC|rsf:gd-|-stype:attr=1|qr_nm:gd|res:RC4|com-cf:nl|ptrs:na|ktp:N0|mc:98606|mtp:S|qry_typ:P|lang:en|wc:3|cs:8846|v=4,Jsr Cart,https://www.indiamart.com/jsrcart-delhi/?pos=112&kwd=baby cotton nappies&tags=BB||||8752.144|Price|product|||MDC|rsf:gd-|-stype:attr=1|qr_nm:gd|res:RC4|com-cf:nl|ptrs:na|ktp:N0|mc:98606|mtp:S|qry_typ:P|lang:en|wc:3|cs:8846|v=4,False,Rajouri Garden,New Delhi,"Rajouri Garden, Rajouri Garden, New Delhi - 110027, Dist.Delhi, Delhi",8047300446,
"Newborn Baby Hosiery Cotton Cloth Nappies, Age Group: 1to2 Years",https://www.indiamart.com/proddetail/newborn-baby-hosiery-cotton-cloth-nappies-2853083359330.html?pos=113&kwd=baby cotton nappies&tags=BA||||9189.305|Price|product|||MDC|rsf:gd-|-stype:attr=1|qr_nm:gd|res:RC4|com-cf:nl|ptrs:na|ktp:N0|mc:98606|mtp:S|qry_typ:P|lang:en|wc:3|cs:8846|v=4,Sudhanjali Enterprises,https://www.indiamart.com/sudhanjalienterprises/?pos=113&kwd=baby cotton nappies&tags=BA||||9189.305|Price|product|||MDC|rsf:gd-|-stype:attr=1|qr_nm:gd|res:RC4|com-cf:nl|ptrs:na|ktp:N0|mc:98606|mtp:S|qry_typ:P|lang:en|wc:3|cs:8846|v=4,False,,Prayagraj,"H No-10/7, Basahi, Nataka Babura, Khain, Prayagraj - 212307, Dist.Allahabad, Uttar Pradesh",7942964273,
White (base) Cotton Tinynest Baby Nappies,https://www.indiamart.com/proddetail/tinynest-baby-nappies-2852638158491.html?pos=114&kwd=baby cotton nappies&tags=BA||||8230.883|Price|product|||MDC|rsf:gd-|-stype:attr=1|qr_nm:gd|res:RC4|com-cf:nl|ptrs:na|ktp:N0|mc:98606|mtp:S|qry_typ:P|lang:en|wc:3|cs:8846|v=4,Jay Impex,https://www.indiamart.com/jayimpexsurat/?pos=114&kwd=baby cotton nappies&tags=BA||||8230.883|Price|product|||MDC|rsf:gd-|-stype:attr=1|qr_nm:gd|res:RC4|com-cf:nl|ptrs:na|ktp:N0|mc:98606|mtp:S|qry_typ:P|lang:en|wc:3|cs:8846|v=4,False,Athwa,Surat,"1st Floor, 77, Narmad Nagar Soc, Hirabaug,, Athwa, Surat - 395006, Dist.Surat, Gujarat",7942713335,
"300+ Times Cotton Baby Diaper, Size: Medium, Age Group: 3 Years",https://www.indiamart.com/proddetail/cotton-baby-diaper-24199961448.html?pos=115&kwd=baby cotton nappies&tags=BA||||8662.111|Price|product|||MDC|rsf:gd-|-stype:attr=1|qr_nm:gd|res:RC4|com-cf:nl|ptrs:na|ktp:N0|mc:98606|mtp:S|qry_typ:P|lang:en|wc:3|cs:8846|v=4,Habibi,https://www.indiamart.com/habibi/?pos=115&kwd=baby cotton nappies&tags=BA||||8662.111|Price|product|||MDC|rsf:gd-|-stype:attr=1|qr_nm:gd|res:RC4|com-cf:nl|ptrs:na|ktp:N0|mc:98606|mtp:S|qry_typ:P|lang:en|wc:3|cs:8846|v=4,False,Melapalayam,Tirunelveli,"No.12/16E/2F Hameempuram North Street Palayamkottai, Melapalayam, Tirunelveli - 627005, Dist.Tirunelveli, Tamil Nadu",7942547388,
Baby Cotton Langot,https://www.indiamart.com/proddetail/baby-cotton-langot-2853591915373.html?pos=116&kwd=baby cotton nappies&tags=BA||||8307.81|Price|product|||MDC|rsf:gd-|-stype:attr=1|qr_nm:gd|res:RC4|com-cf:nl|ptrs:na|ktp:N0|mc:98606|mtp:S|qry_typ:P|lang:en|wc:3|cs:8846|v=4,Tabaria Baby Mall,https://www.indiamart.com/tabaria-baby-mallpune/?pos=116&kwd=baby cotton nappies&tags=BA||||8307.81|Price|product|||MDC|rsf:gd-|-stype:attr=1|qr_nm:gd|res:RC4|com-cf:nl|ptrs:na|ktp:N0|mc:98606|mtp:S|qry_typ:P|lang:en|wc:3|cs:8846|v=4,False,Raviwar Peth,Pune,"1088,Manish Market,Raviwar Peth, Raviwar Peth, Pune - 411002, Dist.Pune, Maharashtra",7949092418,
"Cotton Baby Diapers, Small, Age Group: Newly Born",https://www.indiamart.com/proddetail/cotton-baby-diapers-2854653030762.html?pos=117&kwd=baby cotton nappies&tags=BB||||8038.093|Price|product|||MDC|rsf:gd-|-stype:attr=1|qr_nm:gd|res:RC4|com-cf:nl|ptrs:na|ktp:N0|mc:98606|mtp:S|qry_typ:P|lang:en|wc:3|cs:8846|v=4,Rudransh International,https://www.indiamart.com/rudransh-international-rajkot/?pos=117&kwd=baby cotton nappies&tags=BB||||8038.093|Price|product|||MDC|rsf:gd-|-stype:attr=1|qr_nm:gd|res:RC4|com-cf:nl|ptrs:na|ktp:N0|mc:98606|mtp:S|qry_typ:P|lang:en|wc:3|cs:8846|v=4,False,,Rajkot,"3-indira Nagar Laxmi Nivas Kothariya Main Road Near Bhavnath Temple, Rajkot - 360002, Dist.Rajkot, Gujarat",7949323742,
"Cotton With Gel Regular Cotton Baby Diaper, Age Group: 3-12 Months",https://www.indiamart.com/proddetail/regular-cotton-baby-diaper-20973820055.html?pos=118&kwd=baby cotton nappies&tags=BA||||8752.144|Price|product|||MDC|rsf:gd-|-stype:attr=1|qr_nm:gd|res:RC4|com-cf:nl|ptrs:na|ktp:N0|mc:98606|mtp:S|qry_typ:P|lang:en|wc:3|cs:8846|v=4,Balaji Entreprise,https://www.indiamart.com/balaji-entreprise/?pos=118&kwd=baby cotton nappies&tags=BA||||8752.144|Price|product|||MDC|rsf:gd-|-stype:attr=1|qr_nm:gd|res:RC4|com-cf:nl|ptrs:na|ktp:N0|mc:98606|mtp:S|qry_typ:P|lang:en|wc:3|cs:8846|v=4,False,Budh Vihar,New Delhi,"A-1/29, Budh Vihar, Phase 2, Rohini, Budh Vihar, New Delhi - 110086, Dist.Delhi, Delhi",8048974223,
"Safex Cotton Baby Diaper, Age Group: Newly Born, Packaging Size: 1 Piece",https://www.indiamart.com/proddetail/safex-cotton-baby-diaper-11893006062.html?pos=119&kwd=baby cotton nappies&tags=BA||||8584.299|Price|product|||MDC|rsf:gd-|-stype:attr=1|qr_nm:gd|res:RC4|com-cf:nl|ptrs:na|ktp:N0|mc:98606|mtp:S|qry_typ:P|lang:en|wc:3|cs:8846|v=4,Safex Hygiene Care,https://www.indiamart.com/safex-hygiene-care/?pos=119&kwd=baby cotton nappies&tags=BA||||8584.299|Price|product|||MDC|rsf:gd-|-stype:attr=1|qr_nm:gd|res:RC4|com-cf:nl|ptrs:na|ktp:N0|mc:98606|mtp:S|qry_typ:P|lang:en|wc:3|cs:8846|v=4,False,Kalveerampalayam,Coimbatore,"50/51, Thoppil Nagar, Kalveerampalyam, Kalveerampalayam, Coimbatore - 641046, Dist.Coimbatore, Tamil Nadu",8046037064,
Pink Printed Cotton Baby Nappy,https://www.indiamart.com/proddetail/printed-cotton-baby-nappy-24317035233.html?pos=120&kwd=baby cotton nappies&tags=BB||||8228.275|Price|product|||MDC|rsf:gd-|-stype:attr=1|qr_nm:gd|res:RC4|com-cf:nl|ptrs:na|ktp:N0|mc:98606|mtp:S|qry_typ:P|lang:en|wc:3|cs:8846|v=4,Sanskriti Inc,https://www.indiamart.com/sanskriti-inc/?pos=120&kwd=baby cotton nappies&tags=BB||||8228.275|Price|product|||MDC|rsf:gd-|-stype:attr=1|qr_nm:gd|res:RC4|com-cf:nl|ptrs:na|ktp:N0|mc:98606|mtp:S|qry_typ:P|lang:en|wc:3|cs:8846|v=4,False,Nikol,Ahmedabad,"Shop No-26, Surjit Co Op H Soc Ltd, Nr. India Colony, Nikol Road, Nikol, Ahmedabad - 382350, Dist.Ahmedabad, Gujarat",8046047726,
Printed Pink Baby Cotton Nappy,https://www.indiamart.com/proddetail/printed-pink-baby-cotton-nappy-23970426530.html?pos=121&kwd=baby cotton nappies&tags=BA||||8752.144|Price|product|||MDC|rsf:gd-|-stype:attr=1|qr_nm:gd|res:RC4|com-cf:nl|ptrs:na|ktp:N0|mc:98606|mtp:S|qry_typ:P|lang:en|wc:3|cs:8846|v=4,Shopindia,https://www.indiamart.com/shopindia-delhi/?pos=121&kwd=baby cotton nappies&tags=BA||||8752.144|Price|product|||MDC|rsf:gd-|-stype:attr=1|qr_nm:gd|res:RC4|com-cf:nl|ptrs:na|ktp:N0|mc:98606|mtp:S|qry_typ:P|lang:en|wc:3|cs:8846|v=4,False,Khyala,New Delhi,"F/F, RZ-129 Old No.RZ-57, West Block, Vishnu Garden, Khyala, New Delhi - 110018, Dist.Delhi, Delhi",8047832403,
"Baby Cotton Washable Soft Cloth Nappy, Size: Medium, Age Group: Newly Born",https://www.indiamart.com/proddetail/baby-cotton-washable-soft-cloth-nappy-2853905660373.html?pos=122&kwd=baby cotton nappies&tags=BA||||8226.563|Price|product|||MDC|rsf:gd-|-stype:attr=1|qr_nm:gd|res:RC4|com-cf:nl|ptrs:na|ktp:N0|mc:98606|mtp:S|qry_typ:P|lang:en|wc:3|cs:8846|v=4,Vanbon Clothing Co.,https://www.indiamart.com/vanbon-clothing-co/?pos=122&kwd=baby cotton nappies&tags=BA||||8226.563|Price|product|||MDC|rsf:gd-|-stype:attr=1|qr_nm:gd|res:RC4|com-cf:nl|ptrs:na|ktp:N0|mc:98606|mtp:S|qry_typ:P|lang:en|wc:3|cs:8846|v=4,False,Vashi (Thane),Navi Mumbai,"1st Floor Ofice No.16, Plot No.73, D Wing Vallabh Bhai Patel Marg, Vashi (Thane), Navi Mumbai - 400703, Dist.Thane, Maharashtra",8044012603,
Sanchi Creation Triangle Shape Nappy For New Born Baby - Organic Cotton,https://www.indiamart.com/proddetail/sanchi-creation-triangle-shape-nappy-for-new-born-baby-organic-cotton-22540031991.html?pos=123&kwd=baby cotton nappies&tags=BA||||8281.036|Price|product|||TS|rsf:gd-|-stype:attr=1|qr_nm:gd|res:RC4|com-cf:nl|ptrs:na|ktp:N0|mc:98606|mtp:S|qry_typ:P|lang:en|wc:3|cs:8846|v=4,Sanchi Creation,https://www.indiamart.com/sanchi-creation-vadodara/?pos=123&kwd=baby cotton nappies&tags=BA||||8281.036|Price|product|||TS|rsf:gd-|-stype:attr=1|qr_nm:gd|res:RC4|com-cf:nl|ptrs:na|ktp:N0|mc:98606|mtp:S|qry_typ:P|lang:en|wc:3|cs:8846|v=4,False,H Chaturbhai Park Warasia Ring Road Vadodara,Vadodara,"Kalamandir Lane, Mangal Bazar, H Chaturbhai Park Warasia Ring Road Vadodara, Vadodara - 390006, Dist.Vadodara, Gujarat",8047632435,
"Cotton Baby Nappy, Medium",https://www.indiamart.com/proddetail/baby-cotton-nappies-2850138149197.html?pos=124&kwd=baby cotton nappies&tags=BA||||8228.275|Price|product|||TS|rsf:gd-|-stype:attr=1|qr_nm:gd|res:RC4|com-cf:nl|ptrs:na|ktp:N0|mc:98606|mtp:S|qry_typ:P|lang:en|wc:3|cs:8846|v=4,Ranibaa,https://www.indiamart.com/ranibaa-ahmedabad/?pos=124&kwd=baby cotton nappies&tags=BA||||8228.275|Price|product|||TS|rsf:gd-|-stype:attr=1|qr_nm:gd|res:RC4|com-cf:nl|ptrs:na|ktp:N0|mc:98606|mtp:S|qry_typ:P|lang:en|wc:3|cs:8846|v=4,False,Nikol,Ahmedabad,"G 62, Sahajanand Business Park,me.keshavam Estate,sp Ring Road, Nikol,, Nikol, Ahmedabad - 382350, Dist.Ahmedabad, Gujarat",7942800620,
White(base) Plain Nyano Large Size Premium Baby Diaper Pants,https://www.indiamart.com/proddetail/nyano-large-size-premium-baby-diaper-pants-2850590885812.html?pos=125&kwd=baby cotton nappies&tags=BA||||9839.57|Price|product|||MDC|rsf:gd-|-stype:attr=1|qr_nm:gd|res:RC4|com-cf:nl|ptrs:na|ktp:N0|mc:98606|mtp:S|qry_typ:P|lang:en|wc:3|cs:8846|v=4,A.S. International,https://www.indiamart.com/as-international-westbengal/?pos=125&kwd=baby cotton nappies&tags=BA||||9839.57|Price|product|||MDC|rsf:gd-|-stype:attr=1|qr_nm:gd|res:RC4|com-cf:nl|ptrs:na|ktp:N0|mc:98606|mtp:S|qry_typ:P|lang:en|wc:3|cs:8846|v=4,False,Topsia,Kolkata,"15a/1, Golam Jilani Khan Road, 2nd Floor Block - C, Topsia, Kolkata, Topsia, Kolkata - 700039, Dist.Kolkata, West Bengal",7942957749,
"Interlock Hosiery Baby Velcro Nappy, Size: Xs,S, M, L, Age Group: 0 TO 2 YEARS",https://www.indiamart.com/proddetail/baby-velcro-nappy-24910745230.html?pos=126&kwd=baby cotton nappies&tags=BA||||8954.051|Price|product|||MDC|rsf:gd-|-stype:attr=1|qr_nm:gd|res:RC4|com-cf:nl|ptrs:na|ktp:N0|mc:98606|mtp:S|qry_typ:P|lang:en|wc:3|cs:8846|v=4,Bismillah Creation,https://www.indiamart.com/bismillah-creationchennai/?pos=126&kwd=baby cotton nappies&tags=BA||||8954.051|Price|product|||MDC|rsf:gd-|-stype:attr=1|qr_nm:gd|res:RC4|com-cf:nl|ptrs:na|ktp:N0|mc:98606|mtp:S|qry_typ:P|lang:en|wc:3|cs:8846|v=4,False,Selaivayal,Chennai,"No-31/1, Na, Vedhantha Murugappa Street, Selavoyal, Vedhantha Murugappa Street, Selaivayal, Chennai - 600051, Dist.Chennai, Tamil Nadu",8047309398,
"Baby Nappi Pads Re Useable, Age Group: Newly Born",https://www.indiamart.com/proddetail/baby-nappi-pads-re-useable-2854045053191.html?pos=127&kwd=baby cotton nappies&tags=BA||||8626.744|Price|product|||MDC|rsf:gd-|-stype:attr=1|qr_nm:gd|res:RC4|com-cf:nl|ptrs:na|ktp:N0|mc:98606|mtp:S|qry_typ:P|lang:en|wc:3|cs:8846|v=4,Vanakkam Garments,https://www.indiamart.com/vanakkamgarments-tiruppur/?pos=127&kwd=baby cotton nappies&tags=BA||||8626.744|Price|product|||MDC|rsf:gd-|-stype:attr=1|qr_nm:gd|res:RC4|com-cf:nl|ptrs:na|ktp:N0|mc:98606|mtp:S|qry_typ:P|lang:en|wc:3|cs:8846|v=4,False,Rayapuram,Tiruppur,"80/106 A Rayapuram Main Road, Rayapuram, Tiruppur - 641601, Dist.Coimbatore, Tamil Nadu",7942800276,
MOONMOM REGULAR L SIZE,https://www.indiamart.com/proddetail/moonmom-regular-l-size-2854032683562.html?pos=128&kwd=baby cotton nappies&tags=BB||||8974.737|Price|product|||MDC|rsf:gd-|-stype:attr=1|qr_nm:gd|res:RC4|com-cf:nl|ptrs:na|ktp:N0|mc:98606|mtp:S|qry_typ:P|lang:en|wc:3|cs:8846|v=4,Rdaaap Innovation Private Limited,https://www.indiamart.com/rdaaap-innovation-bareilly/?pos=128&kwd=baby cotton nappies&tags=BB||||8974.737|Price|product|||MDC|rsf:gd-|-stype:attr=1|qr_nm:gd|res:RC4|com-cf:nl|ptrs:na|ktp:N0|mc:98606|mtp:S|qry_typ:P|lang:en|wc:3|cs:8846|v=4,False,Faridpur,Bareilly,"Mohalla- Kanoon Goyan, Near Jagat Coaching Center, Faridpur, Faridpur, Bareilly - 243503, Dist.Bareilly, Uttar Pradesh",8044012786,
"Regular XL Size Disposable Baby Diaper, Age Group: 3 Years",https://www.indiamart.com/proddetail/regular-xl-size-disposable-baby-diaper-2852703131455.html?pos=129&kwd=baby cotton nappies&tags=BA||||8230.883|Price|product|||MDC|rsf:gd-|-stype:attr=1|qr_nm:gd|res:RC4|com-cf:nl|ptrs:na|ktp:N0|mc:98606|mtp:S|qry_typ:P|lang:en|wc:3|cs:8846|v=4,A To Z Hygiene,https://www.indiamart.com/atozhygiene/?pos=129&kwd=baby cotton nappies&tags=BA||||8230.883|Price|product|||MDC|rsf:gd-|-stype:attr=1|qr_nm:gd|res:RC4|com-cf:nl|ptrs:na|ktp:N0|mc:98606|mtp:S|qry_typ:P|lang:en|wc:3|cs:8846|v=4,False,Amroli,Surat,"Flat No. B/1, 101, Part E/7, R.S. No-68, Block No. 89, Shreeji Residency, -, Chhaprabhatha, Amroli, Surat - 394107, Dist.Surat, Gujarat",7942716862,
"Unisex Casual Wear Newborn Baby Cotton Dress, Age Group: 0-3 Months",https://www.indiamart.com/proddetail/newborn-baby-cotton-dress-25223864562.html?pos=130&kwd=baby cotton nappies&tags=BA||||8717.056|Price|product|||TS|rsf:gd-|-stype:attr=1|qr_nm:gd|res:RC4|com-cf:nl|ptrs:na|ktp:N0|mc:98606|mtp:S|qry_typ:P|lang:en|wc:3|cs:8846|v=4,SKT Textile Service India Private Limited,https://www.textilemanufacturersintamilnadu.com/?pos=130&kwd=baby cotton nappies&tags=BA||||8717.056|Price|product|||TS|rsf:gd-|-stype:attr=1|qr_nm:gd|res:RC4|com-cf:nl|ptrs:na|ktp:N0|mc:98606|mtp:S|qry_typ:P|lang:en|wc:3|cs:8846|v=4,False,Vellalagundam,Salem,"RST Number 3/288, 343 South Land, Vellalagundam, Salem - 636111, Dist.Salem, Tamil Nadu",8047631524,
Newborn Baby Cotton Nappies,https://www.indiamart.com/proddetail/newborn-baby-cotton-nappies-2850833659348.html?pos=131&kwd=baby cotton nappies&tags=BA||||8752.144|Price|product|||TS|rsf:gd-|-stype:attr=1|qr_nm:gd|res:RC4|com-cf:nl|ptrs:na|ktp:N0|mc:98606|mtp:S|qry_typ:P|lang:en|wc:3|cs:8846|v=4,Manvi Wellness India Private Limited,https://www.manviwellness.com/?pos=131&kwd=baby cotton nappies&tags=BA||||8752.144|Price|product|||TS|rsf:gd-|-stype:attr=1|qr_nm:gd|res:RC4|com-cf:nl|ptrs:na|ktp:N0|mc:98606|mtp:S|qry_typ:P|lang:en|wc:3|cs:8846|v=4,False,Narela,New Delhi,"E 910, Dsidc Narela, Narela, New Delhi - 110040, Dist.Delhi, Delhi",7942832529,
"RangResha Cloth Diaper Soft Cotton Baby Nappy, Size: Medium, Age Group: Newly Born",https://www.indiamart.com/proddetail/soft-cotton-baby-nappy-22462700162.html?pos=132&kwd=baby cotton nappies&tags=BA||||8876.815|Price|product|||TS|rsf:gd-|-stype:attr=1|qr_nm:gd|res:RC4|com-cf:nl|ptrs:na|ktp:N0|mc:98606|mtp:S|qry_typ:P|lang:en|wc:3|cs:8846|v=4,Sakar Fair Trade Incorporated,https://www.indiamart.com/sakarfair-trade-incorporated/?pos=132&kwd=baby cotton nappies&tags=BA||||8876.815|Price|product|||TS|rsf:gd-|-stype:attr=1|qr_nm:gd|res:RC4|com-cf:nl|ptrs:na|ktp:N0|mc:98606|mtp:S|qry_typ:P|lang:en|wc:3|cs:8846|v=4,False,Wadi,Nagpur,"Ground floor, Shop No. 22, 8A, Laxmi Vaibhav, Laxmi Nagar Chowk, Wadi, Nagpur - 440010, Dist.Nagpur, Maharashtra",7942541012,
Moonbaby Baby Cotton Nappies,https://www.indiamart.com/proddetail/baby-cotton-nappies-17448713855.html?pos=133&kwd=baby cotton nappies&tags=BB||||8545.6045|Price|product|||MDC|rsf:gd-|-stype:attr=1|qr_nm:gd|res:RC4|com-cf:nl|ptrs:na|ktp:N0|mc:98606|mtp:S|qry_typ:P|lang:en|wc:3|cs:8846|v=4,Shraddha Saburi,https://www.indiamart.com/shraddhasaburi/?pos=133&kwd=baby cotton nappies&tags=BB||||8545.6045|Price|product|||MDC|rsf:gd-|-stype:attr=1|qr_nm:gd|res:RC4|com-cf:nl|ptrs:na|ktp:N0|mc:98606|mtp:S|qry_typ:P|lang:en|wc:3|cs:8846|v=4,False,Cantonment Area,Firozpur,"263, Suji Bazar, M/s Shraddha Saburi, Ferozepur Cantt, Cantonment Area, Firozpur - 152001, Dist.Firozpur, Punjab",8048979628,
Baby Langoot,https://www.indiamart.com/proddetail/baby-langoot-19022065712.html?pos=134&kwd=baby cotton nappies&tags=BA||||8626.744||product|||TS|rsf:gd-|-stype:attr=1|qr_nm:gd|res:RC4|com-cf:nl|ptrs:na|ktp:N0|mc:98606|mtp:S|qry_typ:P|lang:en|wc:3|cs:8846|v=4,Sun Shine Merchantising,https://www.sunshinemerchantising.com/?pos=134&kwd=baby cotton nappies&tags=BA||||8626.744||product|||TS|rsf:gd-|-stype:attr=1|qr_nm:gd|res:RC4|com-cf:nl|ptrs:na|ktp:N0|mc:98606|mtp:S|qry_typ:P|lang:en|wc:3|cs:8846|v=4,False,15 Velampalayam,Tiruppur,"No.21, Iswarya Garden, Rakkiapalayam Road,, Rakkiyapalayam Po Ammapalayam Tirupur,, 15 Velampalayam, Tiruppur - 641652, Dist.Coimbatore, Tamil Nadu",8048958441,
Cotton Loose Baby Diapers Pants,https://www.indiamart.com/proddetail/loose-baby-diapers-pants-2851851346291.html?pos=135&kwd=baby cotton nappies&tags=BA||||8047.7524|Price|product|||TS|rsf:gd-|-stype:attr=1|qr_nm:gd|res:RC4|com-cf:nl|ptrs:na|ktp:N0|mc:98606|mtp:S|qry_typ:P|lang:en|wc:3|cs:8846|v=4,Proctus Lifecare LLP,https://www.indiamart.com/proctuslifecarellp-morbi/?pos=135&kwd=baby cotton nappies&tags=BA||||8047.7524|Price|product|||TS|rsf:gd-|-stype:attr=1|qr_nm:gd|res:RC4|com-cf:nl|ptrs:na|ktp:N0|mc:98606|mtp:S|qry_typ:P|lang:en|wc:3|cs:8846|v=4,False,Bagathala,Morbi,"Survey No 350, Railway Crossing No 48, Khakhrala Bagathala Road, Plot No 3 and 4 Navlakhi Highway, Khakhrala, Morbi, Bagathala, Morbi - 363641, Dist.Rajkot, Gujarat",8048212116,
"Bamboo Cotton Pampers Baby Diaper, Size: Small",https://www.indiamart.com/proddetail/pampers-baby-diaper-2852978323888.html?pos=136&kwd=baby cotton nappies&tags=BA||||9110.092|Price|product|||MDC|rsf:gd-|-stype:attr=1|qr_nm:gd|res:RC4|com-cf:nl|ptrs:na|ktp:N0|mc:98606|mtp:S|qry_typ:P|lang:en|wc:3|cs:8846|v=4,Hygiene Health Care,https://www.indiamart.com/hygiene-health-care/?pos=136&kwd=baby cotton nappies&tags=BA||||9110.092|Price|product|||MDC|rsf:gd-|-stype:attr=1|qr_nm:gd|res:RC4|com-cf:nl|ptrs:na|ktp:N0|mc:98606|mtp:S|qry_typ:P|lang:en|wc:3|cs:8846|v=4,False,Husainabad,Lucknow,"390/29/01, Rustam Nagar Near Bagh Wali Masjid Saadat Ganj, Lucknow, Husainabad, Lucknow - 226003, Dist.Lucknow, Uttar Pradesh",7942866266,
Cotton Baby Diapers Pants Small Size,https://www.indiamart.com/proddetail/baby-diapers-pants-small-size-2852801860397.html?pos=137&kwd=baby cotton nappies&tags=BA||||8786.56|Price|product|||MDC|rsf:gd-|-stype:attr=1|qr_nm:gd|res:RC4|com-cf:nl|ptrs:na|ktp:N0|mc:98606|mtp:S|qry_typ:P|lang:en|wc:3|cs:8846|v=4,Aaraniyar Enterprises,https://www.indiamart.com/aaraniyar-enterprises-hyderabad/?pos=137&kwd=baby cotton nappies&tags=BA||||8786.56|Price|product|||MDC|rsf:gd-|-stype:attr=1|qr_nm:gd|res:RC4|com-cf:nl|ptrs:na|ktp:N0|mc:98606|mtp:S|qry_typ:P|lang:en|wc:3|cs:8846|v=4,False,Amberpet,Hyderabad,"3-14-36/8/10, Near Yaadaiah Hotel,Vivek Nagar, Amberpet, Ramanthapur, Amberpet, Hyderabad - 500013, Dist.Hyderabad, Telangana",7942717866,
"Fresh Feeling Cotton Baby Diaper, Small",https://www.indiamart.com/proddetail/fresh-feeling-cotton-baby-diaper-2853173358588.html?pos=138&kwd=baby cotton nappies&tags=BA||||7964.7354|Price|product|||MDC|rsf:gd-|-stype:attr=1|qr_nm:gd|res:RC4|com-cf:nl|ptrs:na|ktp:N0|mc:98606|mtp:S|qry_typ:P|lang:en|wc:3|cs:8846|v=4,Mahalaxmi Enterprises,https://www.indiamart.com/mahalaxmienterprisesjamnagar/?pos=138&kwd=baby cotton nappies&tags=BA||||7964.7354|Price|product|||MDC|rsf:gd-|-stype:attr=1|qr_nm:gd|res:RC4|com-cf:nl|ptrs:na|ktp:N0|mc:98606|mtp:S|qry_typ:P|lang:en|wc:3|cs:8846|v=4,False,Mangal Bag,Jamnagar,"Ground Floor, C-34, Saru Section Road, Near Modi School, M.P. Shah Udhyognagar, Bedi, Mangal Bag, Jamnagar - 361002, Dist.Jamnagar, Gujarat",8045732864,
"Baby Cotton Nappies, Size: Small, Age Group: Newly Born",https://www.indiamart.com/proddetail/baby-cotton-nappies-2853351860355.html?pos=139&kwd=baby cotton nappies&tags=BA||||8210.732|Price|product|||NA|rsf:gd-|-stype:attr=1|qr_nm:gd|res:RC4|com-cf:nl|ptrs:na|ktp:N0|mc:98606|mtp:S|qry_typ:P|lang:en|wc:3|cs:8846|v=4,MRB Creation,https://www.indiamart.com/mrb-creation-maharashtra/?pos=139&kwd=baby cotton nappies&tags=BA||||8210.732|Price|product|||NA|rsf:gd-|-stype:attr=1|qr_nm:gd|res:RC4|com-cf:nl|ptrs:na|ktp:N0|mc:98606|mtp:S|qry_typ:P|lang:en|wc:3|cs:8846|v=4,False,Vasai East,Vasai Virar,"Ground Floor Shop A-001 Anand Nagar Laxmi Tower West, Vasai East, Vasai Virar - 401202, Dist.Thane, Maharashtra",7949222433,
"White Cotton Baby Diaper, Medium",https://www.indiamart.com/proddetail/white-cotton-baby-diaper-2854445454530.html?pos=140&kwd=baby cotton nappies&tags=A||||8823.154|Price|product|||NA|rsf:gd-|-stype:attr=1|qr_nm:gd|res:RC4|com-cf:nl|ptrs:na|ktp:N0|mc:98606|mtp:S|qry_typ:P|lang:en|wc:3|cs:8846|v=4,Anshika Enterprises,https://www.indiamart.com/anshika-enterprisesagra/?pos=140&kwd=baby cotton nappies&tags=A||||8823.154|Price|product|||NA|rsf:gd-|-stype:attr=1|qr_nm:gd|res:RC4|com-cf:nl|ptrs:na|ktp:N0|mc:98606|mtp:S|qry_typ:P|lang:en|wc:3|cs:8846|v=4,False,,Agra,"Khasra No. 28, Fatehpur Sikri Road, Agra Jaipur Highway, Sahara, Agra - 283105, Dist.Agra, Uttar Pradesh",7949341145,
New Born Baby Cotton Nappies Set,https://www.indiamart.com/proddetail/new-born-baby-cotton-nappies-set-2849173938548.html?pos=141&kwd=baby cotton nappies&tags=BA||||8230.883|Price|product|||NA|rsf:gd-|-stype:attr=1|qr_nm:gd|res:RC4|com-cf:nl|ptrs:na|ktp:N0|mc:98606|mtp:S|qry_typ:P|lang:en|wc:3|cs:8846|v=4,Satani Enterprise,https://www.indiamart.com/satani-enterprise-surat/?pos=141&kwd=baby cotton nappies&tags=BA||||8230.883|Price|product|||NA|rsf:gd-|-stype:attr=1|qr_nm:gd|res:RC4|com-cf:nl|ptrs:na|ktp:N0|mc:98606|mtp:S|qry_typ:P|lang:en|wc:3|cs:8846|v=4,False,Katargam,Surat,"Ground Floor, G-4, Indra Puri Apartment, Bhaichand Nagar Society, Near Parash Police Chowky, Katargam, Katargam, Surat - 395004, Dist.Surat, Gujarat",7942711793,
Multicolor Cotton Baby Langots Nappies,https://www.indiamart.com/proddetail/baby-langots-nappies-2849910569188.html?pos=142&kwd=baby cotton nappies&tags=BB||||8584.299|Price|product|||NA|rsf:gd-|-stype:attr=1|qr_nm:gd|res:RC4|com-cf:nl|ptrs:na|ktp:N0|mc:98606|mtp:S|qry_typ:P|lang:en|wc:3|cs:8846|v=4,Vandana,https://www.indiamart.com/vandana-coimbatore/?pos=142&kwd=baby cotton nappies&tags=BB||||8584.299|Price|product|||NA|rsf:gd-|-stype:attr=1|qr_nm:gd|res:RC4|com-cf:nl|ptrs:na|ktp:N0|mc:98606|mtp:S|qry_typ:P|lang:en|wc:3|cs:8846|v=4,False,,Coimbatore,"395, Pankaja Mill Road, Ramasami Nagar, Ramanathapuram, Coimbatore - 641045, Dist.Coimbatore, Tamil Nadu",7942672048,
Multicolor newborn Kids Baby Hosiery Cotton Nappies Langot,https://www.indiamart.com/proddetail/newborn-kids-baby-hosiery-cotton-nappies-langot-2850410903191.html?pos=143&kwd=baby cotton nappies&tags=BA||||8228.275|Price|product|||NA|rsf:gd-|-stype:attr=1|qr_nm:gd|res:RC4|com-cf:nl|ptrs:na|ktp:N0|mc:98606|mtp:S|qry_typ:P|lang:en|wc:3|cs:8846|v=4,Shivam Enterprise,https://www.indiamart.com/shivamenterprise-61035678/?pos=143&kwd=baby cotton nappies&tags=BA||||8228.275|Price|product|||NA|rsf:gd-|-stype:attr=1|qr_nm:gd|res:RC4|com-cf:nl|ptrs:na|ktp:N0|mc:98606|mtp:S|qry_typ:P|lang:en|wc:3|cs:8846|v=4,False,meghaninaghar,Ahmedabad,"14,jyotidarshan society, gate no 4 near pooja hospital,meghaninaghar jyotidarshan society meghaninaghar,382345,Ahmedabad, meghaninaghar, Ahmedabad - 380016, Dist.Ahmedabad, Gujarat",8043873480,
Dowin 100% Cotton Baby Pajami - Pack of 6 - Assorted Colours,https://www.indiamart.com/proddetail/dowin-100-cotton-baby-pajami-pack-of-6-assorted-colours-2854674318173.html?pos=144&kwd=baby cotton nappies&tags=BB||||8746.929||product|||NA|rsf:gd-|-stype:attr=1|qr_nm:gd|res:RC4|com-cf:nl|ptrs:na|ktp:N0|mc:98606|mtp:S|qry_typ:P|lang:en|wc:3|cs:8846|v=4,Bimla Traders,https://www.indiamart.com/bimla-traders-chandigarh/?pos=144&kwd=baby cotton nappies&tags=BB||||8746.929||product|||NA|rsf:gd-|-stype:attr=1|qr_nm:gd|res:RC4|com-cf:nl|ptrs:na|ktp:N0|mc:98606|mtp:S|qry_typ:P|lang:en|wc:3|cs:8846|v=4,False,Chandigarh,Chandigarh,"Sco 62 Dakshan Marg Sector 20C, Chandigarh, Chandigarh - 160020, Chandigarh",8048370714,7954
"Organic Cotton Muslin Padded Nappies/Langot, Small, Age Group: Newly Born",https://www.indiamart.com/proddetail/organic-cotton-muslin-padded-nappies-langot-2854282320248.html?pos=145&kwd=baby cotton nappies&tags=BA||||8230.883|Price|product|||NA|rsf:gd-|-stype:attr=1|qr_nm:gd|res:RC4|com-cf:nl|ptrs:na|ktp:N0|mc:98606|mtp:S|qry_typ:P|lang:en|wc:3|cs:8846|v=4,Arete Fashion,https://www.indiamart.com/arete-fashion/?pos=145&kwd=baby cotton nappies&tags=BA||||8230.883|Price|product|||NA|rsf:gd-|-stype:attr=1|qr_nm:gd|res:RC4|com-cf:nl|ptrs:na|ktp:N0|mc:98606|mtp:S|qry_typ:P|lang:en|wc:3|cs:8846|v=4,False,Udhana,Surat,"Saffron House, Sai Ashish Industrial Estate, New 120ft. Bamroli road, near raika Circle, Surat Gujar Saffron House, Sai Ashish Industrial Estate, New 120ft. Bamroli road, near raika Circle, Surat Gujar, Udhana, Surat - 395010, Dist.Surat, Gujarat",8062245968,406
Cream Baby Cotton Nappies,https://www.indiamart.com/proddetail/baby-cotton-nappies-26018410097.html?pos=146&kwd=baby cotton nappies&tags=BB||||7991.571|Price|product|||NA|rsf:gd-|-stype:attr=1|qr_nm:gd|res:RC4|com-cf:nl|ptrs:na|ktp:N0|mc:98606|mtp:S|qry_typ:P|lang:en|wc:3|cs:8846|v=4,Natkhat Enterprise,https://www.indiamart.com/natkhatenterprise/?pos=146&kwd=baby cotton nappies&tags=BB||||7991.571|Price|product|||NA|rsf:gd-|-stype:attr=1|qr_nm:gd|res:RC4|com-cf:nl|ptrs:na|ktp:N0|mc:98606|mtp:S|qry_typ:P|lang:en|wc:3|cs:8846|v=4,False,Mangnath Road,Junagadh,"Tribhuvan Complex, First Floor Shop 1 -2, Mangnath Road, Junagadh - 362001, Dist.Junagadh, Gujarat",8043851522,
Multicolor Baby Cotton Nappies,https://www.indiamart.com/proddetail/baby-cotton-nappies-26026214933.html?pos=147&kwd=baby cotton nappies&tags=BB||||9839.57|Price|product|||NA|rsf:gd-|-stype:attr=1|qr_nm:gd|res:RC4|com-cf:nl|ptrs:na|ktp:N0|mc:98606|mtp:S|qry_typ:P|lang:en|wc:3|cs:8846|v=4,Mini Master,https://www.indiamart.com/mini-master-kolkata/?pos=147&kwd=baby cotton nappies&tags=BB||||9839.57|Price|product|||NA|rsf:gd-|-stype:attr=1|qr_nm:gd|res:RC4|com-cf:nl|ptrs:na|ktp:N0|mc:98606|mtp:S|qry_typ:P|lang:en|wc:3|cs:8846|v=4,False,,Kolkata,"64, Collin Street, Kolkata - 700016, Dist.Kolkata, West Bengal",8043852186,
Baby Cotton Nappies,https://www.indiamart.com/proddetail/baby-cotton-nappies-2849145036562.html?pos=148&kwd=baby cotton nappies&tags=BA||||8785.791|Price|product|||NA|rsf:gd-|-stype:attr=1|qr_nm:gd|res:RC4|com-cf:nl|ptrs:na|ktp:N0|mc:98606|mtp:S|qry_typ:P|lang:en|wc:3|cs:8846|v=4,Krishna Hosiery Industries,https://www.indiamart.com/krishnahosieryindustries/?pos=148&kwd=baby cotton nappies&tags=BA||||8785.791|Price|product|||NA|rsf:gd-|-stype:attr=1|qr_nm:gd|res:RC4|com-cf:nl|ptrs:na|ktp:N0|mc:98606|mtp:S|qry_typ:P|lang:en|wc:3|cs:8846|v=4,False,DLF Ankur Vihar,Ghaziabad,"A-155, Sector A-4, DLF Ankur Vihar, Ghaziabad - 201102, Dist.Ghaziabad, Uttar Pradesh",8047788950,
Baby Cotton Nappies,https://www.indiamart.com/proddetail/baby-cotton-nappies-23207605188.html?pos=149&kwd=baby cotton nappies&tags=BB||||8476.868|Price|product|||NA|rsf:gd-|-stype:attr=1|qr_nm:gd|res:RC4|com-cf:nl|ptrs:na|ktp:N0|mc:98606|mtp:S|qry_typ:P|lang:en|wc:3|cs:8846|v=4,Prince And Princess,https://www.indiamart.com/prince-princess-aurangabad/?pos=149&kwd=baby cotton nappies&tags=BB||||8476.868|Price|product|||NA|rsf:gd-|-stype:attr=1|qr_nm:gd|res:RC4|com-cf:nl|ptrs:na|ktp:N0|mc:98606|mtp:S|qry_typ:P|lang:en|wc:3|cs:8846|v=4,False,Aurangabad,Aurangabad,"Ground Plot No 05 Shanurwadi Road Vivekanand Housing Society Aurangabad, Aurangabad, Aurangabad - 431001, Maharashtra",8048987607,
"Baby Cotton Nappies, Medium",https://www.indiamart.com/proddetail/baby-cotton-nappies-2854774646055.html?pos=150&kwd=baby cotton nappies&tags=BA||||8786.56|Price|product|||NA|rsf:gd-|-stype:attr=1|qr_nm:gd|res:RC4|com-cf:nl|ptrs:na|ktp:N0|mc:98606|mtp:S|qry_typ:P|lang:en|wc:3|cs:8846|v=4,Sri Kanakadurga Industry,https://www.indiamart.com/srikanakadurgaindustry/?pos=150&kwd=baby cotton nappies&tags=BA||||8786.56|Price|product|||NA|rsf:gd-|-stype:attr=1|qr_nm:gd|res:RC4|com-cf:nl|ptrs:na|ktp:N0|mc:98606|mtp:S|qry_typ:P|lang:en|wc:3|cs:8846|v=4,False,,Hyderabad,"Teachers Prtu Colony, Plot No 87, Balapur Mandal, Meerpet, Rangareddy, Hyderabad - 500097, Dist.Hyderabad, Telangana",7949330619,
Multicolor Baby Cotton Nappies,https://www.indiamart.com/proddetail/baby-cotton-nappies-23030472091.html?pos=151&kwd=baby cotton nappies&tags=BB||||8752.144|Price|product|||NA|rsf:gd-|-stype:attr=1|qr_nm:gd|res:RC4|com-cf:nl|ptrs:na|ktp:N0|mc:98606|mtp:S|qry_typ:P|lang:en|wc:3|cs:8846|v=4,Anu Creations,https://www.indiamart.com/anucreations-delhi/?pos=151&kwd=baby cotton nappies&tags=BB||||8752.144|Price|product|||NA|rsf:gd-|-stype:attr=1|qr_nm:gd|res:RC4|com-cf:nl|ptrs:na|ktp:N0|mc:98606|mtp:S|qry_typ:P|lang:en|wc:3|cs:8846|v=4,False,Karol Bagh,New Delhi,"4312, 2nd Floor, Gali Bahuji, Bahadur Garh Road, Sadar Bazar, Central Delhi, Karol Bagh, New Delhi - 110006, Dist.Delhi, Delhi",8047657412,
"Cotton Baby Nappies, Age Group: Newly Born",https://www.indiamart.com/proddetail/cotton-baby-nappies-2854456345188.html?pos=152&kwd=baby cotton nappies&tags=BA||||8830.388|Price|product|||NA|rsf:gd-|-stype:attr=1|qr_nm:gd|res:RC4|com-cf:nl|ptrs:na|ktp:N0|mc:98606|mtp:S|qry_typ:P|lang:en|wc:3|cs:8846|v=4,Prayas Mahila Udhyog,https://www.indiamart.com/prayasmahilaudhyog/?pos=152&kwd=baby cotton nappies&tags=BA||||8830.388|Price|product|||NA|rsf:gd-|-stype:attr=1|qr_nm:gd|res:RC4|com-cf:nl|ptrs:na|ktp:N0|mc:98606|mtp:S|qry_typ:P|lang:en|wc:3|cs:8846|v=4,False,,Gwalior,"72/3, R J Puram Bhind Road, Gole Ka Mandir, Gwalior - 474005, Dist.Gwalior, Madhya Pradesh",7942718045,
Multicolor Baby Nappies Cotton,https://www.indiamart.com/proddetail/baby-nappies-cotton-24138816588.html?pos=153&kwd=baby cotton nappies&tags=BB||||8601.347|Price|product|||NA|rsf:gd-|-stype:attr=1|qr_nm:gd|res:RC4|com-cf:nl|ptrs:na|ktp:N0|mc:98606|mtp:S|qry_typ:P|lang:en|wc:3|cs:8846|v=4,Lakshay Kid'S Collection,https://www.indiamart.com/lakshaykids-collection/?pos=153&kwd=baby cotton nappies&tags=BB||||8601.347|Price|product|||NA|rsf:gd-|-stype:attr=1|qr_nm:gd|res:RC4|com-cf:nl|ptrs:na|ktp:N0|mc:98606|mtp:S|qry_typ:P|lang:en|wc:3|cs:8846|v=4,False,,Jaipur,"3/882, Malviya Nagar, Jaipur - 302017, Dist.Jaipur, Rajasthan",8048614670,
"Baby Cotton Nappies, Size: Medium, Age Group: Newly Born",https://www.indiamart.com/proddetail/baby-cotton-nappies-2853645055662.html?pos=154&kwd=baby cotton nappies&tags=BA||||8752.144|Price|product|||NA|rsf:gd-|-stype:attr=1|qr_nm:gd|res:RC4|com-cf:nl|ptrs:na|ktp:N0|mc:98606|mtp:S|qry_typ:P|lang:en|wc:3|cs:8846|v=4,Badal Trading Enterprises,https://www.indiamart.com/badaltradingenterprises/?pos=154&kwd=baby cotton nappies&tags=BA||||8752.144|Price|product|||NA|rsf:gd-|-stype:attr=1|qr_nm:gd|res:RC4|com-cf:nl|ptrs:na|ktp:N0|mc:98606|mtp:S|qry_typ:P|lang:en|wc:3|cs:8846|v=4,False,Tilak Nagar,New Delhi,"Ground Floor, Shop At 16/32, Prakash Shopping Complex, Tilak Nagar, West, Tilak Nagar, New Delhi - 110018, Dist.Delhi, Delhi",7949095301,
"Green(base) Baby Cotton Nappies, Size: Medium",https://www.indiamart.com/proddetail/baby-cotton-nappies-2852667074830.html?pos=155&kwd=baby cotton nappies&tags=BA||||8307.81|Price|product|||NA|rsf:gd-|-stype:attr=1|qr_nm:gd|res:RC4|com-cf:nl|ptrs:na|ktp:N0|mc:98606|mtp:S|qry_typ:P|lang:en|wc:3|cs:8846|v=4,Simply Soft,https://www.indiamart.com/simplysoftthane/?pos=155&kwd=baby cotton nappies&tags=BA||||8307.81|Price|product|||NA|rsf:gd-|-stype:attr=1|qr_nm:gd|res:RC4|com-cf:nl|ptrs:na|ktp:N0|mc:98606|mtp:S|qry_typ:P|lang:en|wc:3|cs:8846|v=4,False,,Pune,"F-1505,Western Avenue, Mumbai Pune Bypass, Wakad, Pune, Pune - 411057, Dist.Pune, Maharashtra",7942718617,
Multicolor Printed Baby Cotton Nappies,https://www.indiamart.com/proddetail/printed-baby-cotton-nappies-20537849988.html?pos=156&kwd=baby cotton nappies&tags=BA||||9843.627|Price|product|||NA|rsf:gd-|-stype:attr=1|qr_nm:gd|res:RC4|com-cf:nl|ptrs:na|ktp:N0|mc:98606|mtp:S|qry_typ:P|lang:en|wc:3|cs:8846|v=4,Roy Traders,https://www.indiamart.com/roy-traders-kolkata/?pos=156&kwd=baby cotton nappies&tags=BA||||9843.627|Price|product|||NA|rsf:gd-|-stype:attr=1|qr_nm:gd|res:RC4|com-cf:nl|ptrs:na|ktp:N0|mc:98606|mtp:S|qry_typ:P|lang:en|wc:3|cs:8846|v=4,False,Nimta,North 24 Parganas,"44/1, Majherhatti, 2nd Lane, Nimta, Nimta, North 24 Parganas - 700049, Dist.North 24 Parganas, West Bengal",8043814583,
White (base) Baby Cotton Hosiery Nappies,https://www.indiamart.com/proddetail/baby-cotton-hosiery-nappies-2852892276433.html?pos=157&kwd=baby cotton nappies&tags=BA||||8626.744|Price|product|||NA|rsf:gd-|-stype:attr=1|qr_nm:gd|res:RC4|com-cf:nl|ptrs:na|ktp:N0|mc:98606|mtp:S|qry_typ:P|lang:en|wc:3|cs:8846|v=4,Rifma Apparels,https://www.indiamart.com/rifma-apparels/?pos=157&kwd=baby cotton nappies&tags=BA||||8626.744|Price|product|||NA|rsf:gd-|-stype:attr=1|qr_nm:gd|res:RC4|com-cf:nl|ptrs:na|ktp:N0|mc:98606|mtp:S|qry_typ:P|lang:en|wc:3|cs:8846|v=4,False,Pudur Privu,Tiruppur,"1 Floor, 4/10 1, Rifma Apparels, Palladam Road, Opp To Sri Sai Sweets And Snacks, K Chettipalayam, Pudur Privu, Tiruppur - 641605, Dist.Coimbatore, Tamil Nadu",7942967841,
Light Orange Plain Baby Cotton Nappies,https://www.indiamart.com/proddetail/plain-baby-cotton-nappies-12875787791.html?pos=158&kwd=baby cotton nappies&tags=BB||||8307.81|Price|product|||NA|rsf:gd-|-stype:attr=1|qr_nm:gd|res:RC4|com-cf:nl|ptrs:na|ktp:N0|mc:98606|mtp:S|qry_typ:P|lang:en|wc:3|cs:8846|v=4,Nav Vaibhav,https://www.indiamart.com/navvaibhav/?pos=158&kwd=baby cotton nappies&tags=BB||||8307.81|Price|product|||NA|rsf:gd-|-stype:attr=1|qr_nm:gd|res:RC4|com-cf:nl|ptrs:na|ktp:N0|mc:98606|mtp:S|qry_typ:P|lang:en|wc:3|cs:8846|v=4,False,,Pune,"717, Laxmi Road, Narayan Peth, Pune - 411030, Dist.Pune, Maharashtra",8047543216,
Blue Newborn Baby Cotton Nappies,https://www.indiamart.com/proddetail/newborn-baby-cotton-nappies-23311839655.html?pos=159&kwd=baby cotton nappies&tags=BA||||8228.275|Price|product|||NA|rsf:gd-|-stype:attr=1|qr_nm:gd|res:RC4|com-cf:nl|ptrs:na|ktp:N0|mc:98606|mtp:S|qry_typ:P|lang:en|wc:3|cs:8846|v=4,Meet Collection,https://www.indiamart.com/meetcollection-ahmedabad/?pos=159&kwd=baby cotton nappies&tags=BA||||8228.275|Price|product|||NA|rsf:gd-|-stype:attr=1|qr_nm:gd|res:RC4|com-cf:nl|ptrs:na|ktp:N0|mc:98606|mtp:S|qry_typ:P|lang:en|wc:3|cs:8846|v=4,False,,Ahmedabad,"2404/a Nr Parbaram Mandir C Ward Kubernagar, Ahmedabad - 382340, Dist.Ahmedabad, Gujarat",8046032091,
Multicolor Newborn Baby Cotton Nappies,https://www.indiamart.com/proddetail/newborn-baby-cotton-nappies-2850328003673.html?pos=160&kwd=baby cotton nappies&tags=BB||||8661.854|Price|product|||NA|rsf:gd-|-stype:attr=1|qr_nm:gd|res:RC4|com-cf:nl|ptrs:na|ktp:N0|mc:98606|mtp:S|qry_typ:P|lang:en|wc:3|cs:8846|v=4,Charu Enterprises,https://www.indiamart.com/charu-enterprises-punjab/?pos=160&kwd=baby cotton nappies&tags=BB||||8661.854|Price|product|||NA|rsf:gd-|-stype:attr=1|qr_nm:gd|res:RC4|com-cf:nl|ptrs:na|ktp:N0|mc:98606|mtp:S|qry_typ:P|lang:en|wc:3|cs:8846|v=4,False,,Ludhiana,"6729, Street No.4, Jassian Road, Naveen Nagar, Haibowal Kalan, Ludhiana - 141008, Dist.Ludhiana, Punjab",7942817239,
Multicolor Cotton Nappies Born Baby,https://www.indiamart.com/proddetail/cotton-nappies-born-baby-26463309433.html?pos=161&kwd=baby cotton nappies&tags=BB||||8230.883|Price|product|||NA|rsf:gd-|-stype:attr=1|qr_nm:gd|res:RC4|com-cf:nl|ptrs:na|ktp:N0|mc:98606|mtp:S|qry_typ:P|lang:en|wc:3|cs:8846|v=4,LADLI FASHION,https://www.indiamart.com/ladli-fashion-gujarat/?pos=161&kwd=baby cotton nappies&tags=BB||||8230.883|Price|product|||NA|rsf:gd-|-stype:attr=1|qr_nm:gd|res:RC4|com-cf:nl|ptrs:na|ktp:N0|mc:98606|mtp:S|qry_typ:P|lang:en|wc:3|cs:8846|v=4,False,,Surat,"4, Ground Floor, Sona Appartment, Magan Nagar-2, Dhanmora Road, Katargam, Surat - 395004, Dist.Surat, Gujarat",8048210850,
"Newborn Baby Cotton Nappies, Size: Medium, Age Group: Newly Born",https://www.indiamart.com/proddetail/newborn-baby-cotton-nappies-2853337321673.html?pos=162&kwd=baby cotton nappies&tags=BA||||8785.791|Price|product|||NA|rsf:gd-|-stype:attr=1|qr_nm:gd|res:RC4|com-cf:nl|ptrs:na|ktp:N0|mc:98606|mtp:S|qry_typ:P|lang:en|wc:3|cs:8846|v=4,V V S Fashions,https://www.indiamart.com/vvsfashions/?pos=162&kwd=baby cotton nappies&tags=BA||||8785.791|Price|product|||NA|rsf:gd-|-stype:attr=1|qr_nm:gd|res:RC4|com-cf:nl|ptrs:na|ktp:N0|mc:98606|mtp:S|qry_typ:P|lang:en|wc:3|cs:8846|v=4,False,,Ghaziabad,"Plot No.-10/6, Flat No M-4, Sector-3, Rajendra Nagar, Sahibabad, Uttar Pradesh, 201005, Ghaziabad - 201005, Dist.Ghaziabad, Uttar Pradesh",7949227527,
Beige Newly Born Baby Cotton Nappy,https://www.indiamart.com/proddetail/newly-born-baby-cotton-nappy-2850171152912.html?pos=163&kwd=baby cotton nappies&tags=BA||||8331.224|Price|product|||NA|rsf:gd-|-stype:attr=1|qr_nm:gd|res:RC4|com-cf:nl|ptrs:na|ktp:N0|mc:98606|mtp:S|qry_typ:P|lang:en|wc:3|cs:8846|v=4,Minakshi Garments,https://www.indiamart.com/minakshi-garments-kolhapur/?pos=163&kwd=baby cotton nappies&tags=BA||||8331.224|Price|product|||NA|rsf:gd-|-stype:attr=1|qr_nm:gd|res:RC4|com-cf:nl|ptrs:na|ktp:N0|mc:98606|mtp:S|qry_typ:P|lang:en|wc:3|cs:8846|v=4,False,Tarabai Park,Kolhapur,"Gala No 14 B Parvati Plaza, Main Market Road Swastik Market, Gandhinagar, Tarabai Park, Kolhapur - 416119, Dist.Kolhapur, Maharashtra",7942670858,
Orange Plain Baby Cotton Nappies,https://www.indiamart.com/proddetail/plain-baby-cotton-nappies-26467870491.html?pos=164&kwd=baby cotton nappies&tags=BA||||8211.142|Price|product|||NA|rsf:gd-|-stype:attr=1|qr_nm:gd|res:RC4|com-cf:nl|ptrs:na|ktp:N0|mc:98606|mtp:S|qry_typ:P|lang:en|wc:3|cs:8846|v=4,Big Smile Baby,https://www.indiamart.com/bigsmilebaby/?pos=164&kwd=baby cotton nappies&tags=BA||||8211.142|Price|product|||NA|rsf:gd-|-stype:attr=1|qr_nm:gd|res:RC4|com-cf:nl|ptrs:na|ktp:N0|mc:98606|mtp:S|qry_typ:P|lang:en|wc:3|cs:8846|v=4,False,Malad East,Mumbai,"Room no.2, Seva Nagar Chawl, yoginwas,santaram pada, Nr. WE Highway , Malad east, Malad East, Mumbai - 400097, Dist.Mumbai, Maharashtra",8048209441,
"Purple,Blue And Peach Baby Cotton Nappies Set",https://www.indiamart.com/proddetail/baby-cotton-nappies-set-2852176067762.html?pos=165&kwd=baby cotton nappies&tags=BA||||8954.051|Price|product|||NA|rsf:gd-|-stype:attr=1|qr_nm:gd|res:RC4|com-cf:nl|ptrs:na|ktp:N0|mc:98606|mtp:S|qry_typ:P|lang:en|wc:3|cs:8846|v=4,Radhe Kids Mart,https://www.indiamart.com/radhekidsmartchennai/?pos=165&kwd=baby cotton nappies&tags=BA||||8954.051|Price|product|||NA|rsf:gd-|-stype:attr=1|qr_nm:gd|res:RC4|com-cf:nl|ptrs:na|ktp:N0|mc:98606|mtp:S|qry_typ:P|lang:en|wc:3|cs:8846|v=4,False,Purasawalkam,Chennai,"Door No 51 B Saravana Perumal Street Purasawalkam, Purasawalkam, Chennai - 600084, Dist.Chennai, Tamil Nadu",7942656302,
"Baby Printed Cotton Nappy, Size: XL, Age Group: 0-1 Years",https://www.indiamart.com/proddetail/baby-printed-cotton-nappy-21188255891.html?pos=166&kwd=baby cotton nappies&tags=BB||||8752.144|Price|product|||NA|rsf:gd-|-stype:attr=1|qr_nm:gd|res:RC4|com-cf:nl|ptrs:na|ktp:N0|mc:98606|mtp:S|qry_typ:P|lang:en|wc:3|cs:8846|v=4,Mandeep Enterprises,https://www.indiamart.com/mandeep-enterprises-newdelhi/?pos=166&kwd=baby cotton nappies&tags=BB||||8752.144|Price|product|||NA|rsf:gd-|-stype:attr=1|qr_nm:gd|res:RC4|com-cf:nl|ptrs:na|ktp:N0|mc:98606|mtp:S|qry_typ:P|lang:en|wc:3|cs:8846|v=4,False,New Lahore Colony,New Delhi,"157 B, G Floor, Gali No. 5 Shastri Nagar, New Lahore Colony, New Delhi - 110031, Dist.Delhi, Delhi",8043800135,
Plain Baby Cotton Nappies,https://www.indiamart.com/proddetail/plain-baby-cotton-nappies-22610005491.html?pos=167&kwd=baby cotton nappies&tags=BB||||8211.142|Price|product|||NA|rsf:gd-|-stype:attr=1|qr_nm:gd|res:RC4|com-cf:nl|ptrs:na|ktp:N0|mc:98606|mtp:S|qry_typ:P|lang:en|wc:3|cs:8846|v=4,Richa Traders,https://www.indiamart.com/richatraders-maharashtra/?pos=167&kwd=baby cotton nappies&tags=BB||||8211.142|Price|product|||NA|rsf:gd-|-stype:attr=1|qr_nm:gd|res:RC4|com-cf:nl|ptrs:na|ktp:N0|mc:98606|mtp:S|qry_typ:P|lang:en|wc:3|cs:8846|v=4,False,Dadar West,Mumbai,"20, Pearl Centre, Zarapkar Building Senapati Bapat Marg,, Dadar West, Mumbai - 400028, Dist.Mumbai, Maharashtra",8048961097,
"Baby Cotton Hosiery Padded Nappies, Size: Small, Age Group: 3-12 Months",https://www.indiamart.com/proddetail/baby-cotton-hosiery-padded-nappies-2853139045891.html?pos=168&kwd=baby cotton nappies&tags=BA||||8223.226|Price|product|||NA|rsf:gd-|-stype:attr=1|qr_nm:gd|res:RC4|com-cf:nl|ptrs:na|ktp:N0|mc:98606|mtp:S|qry_typ:P|lang:en|wc:3|cs:8846|v=4,Khushi Enterprises,https://www.indiamart.com/khushi-enterprisespanchapakhadi/?pos=168&kwd=baby cotton nappies&tags=BA||||8223.226|Price|product|||NA|rsf:gd-|-stype:attr=1|qr_nm:gd|res:RC4|com-cf:nl|ptrs:na|ktp:N0|mc:98606|mtp:S|qry_typ:P|lang:en|wc:3|cs:8846|v=4,False,Jekegram,Thane,"Ground Floor Shop No D/2 Aradhana Nagar Panchapakhadi, Jekegram, Thane - 400606, Dist.Thane, Maharashtra",7942710008,
Sky Blue (base) Infant Baby Reusable Printed Cotton Nappies,https://www.indiamart.com/proddetail/infant-baby-reusable-printed-cotton-nappies-2849483711030.html?pos=169&kwd=baby cotton nappies&tags=BA||||8550.327|Price|product|||NA|rsf:gd-|-stype:attr=1|qr_nm:gd|res:RC4|com-cf:nl|ptrs:na|ktp:N0|mc:98606|mtp:S|qry_typ:P|lang:en|wc:3|cs:8846|v=4,Aadheerkh Clothing,https://www.indiamart.com/kiddiehug/?pos=169&kwd=baby cotton nappies&tags=BA||||8550.327|Price|product|||NA|rsf:gd-|-stype:attr=1|qr_nm:gd|res:RC4|com-cf:nl|ptrs:na|ktp:N0|mc:98606|mtp:S|qry_typ:P|lang:en|wc:3|cs:8846|v=4,False,,Palakkad,"4/550 Valarapalam Nattukkal, Palakkad - 678554, Dist.Palakkad, Kerala",7942787711,
"New Born Baby Cotton Cloth Nappies, Small",https://www.indiamart.com/proddetail/new-born-baby-cotton-cloth-nappies-23674595755.html?pos=170&kwd=baby cotton nappies&tags=BA||||8242.731|Price|product|||NA|rsf:gd-|-stype:attr=1|qr_nm:gd|res:RC4|com-cf:nl|ptrs:na|ktp:N0|mc:98606|mtp:S|qry_typ:P|lang:en|wc:3|cs:8846|v=4,Raju Garment,https://www.indiamart.com/rajugarment-ulhasnagar/?pos=170&kwd=baby cotton nappies&tags=BA||||8242.731|Price|product|||NA|rsf:gd-|-stype:attr=1|qr_nm:gd|res:RC4|com-cf:nl|ptrs:na|ktp:N0|mc:98606|mtp:S|qry_typ:P|lang:en|wc:3|cs:8846|v=4,False,,Ulhasnagar,"3rd Floor, Shop No. 302, Manish Complex, Opp. Dholuram Darbar, Ulhasnagar - 421002, Dist.Thane, Maharashtra",8043882107,
White (base) Baby Nappy Cotton Reusable Washable,https://www.indiamart.com/proddetail/baby-nappy-cotton-reusable-washable-26194792830.html?pos=171&kwd=baby cotton nappies&tags=BB||||9835.129|Price|product|||NA|rsf:gd-|-stype:attr=1|qr_nm:gd|res:RC4|com-cf:nl|ptrs:na|ktp:N0|mc:98606|mtp:S|qry_typ:P|lang:en|wc:3|cs:8846|v=4,Adgrain Apparel,https://www.indiamart.com/adgrain-apparel/?pos=171&kwd=baby cotton nappies&tags=BB||||9835.129|Price|product|||NA|rsf:gd-|-stype:attr=1|qr_nm:gd|res:RC4|com-cf:nl|ptrs:na|ktp:N0|mc:98606|mtp:S|qry_typ:P|lang:en|wc:3|cs:8846|v=4,False,,Konnagar,"39/V/18, 5, Shatabdi Apartment, Motilal Mukherjee Garden Lane,, Konnagar - 712235, Dist.Hooghly, West Bengal",8043858737,
Cotton Cloth Diaper New Born Baby Nappies,https://www.indiamart.com/proddetail/new-born-baby-nappies-22380947533.html?pos=172&kwd=baby cotton nappies&tags=BB||||8275.613|Price|product|||NA|rsf:gd-|-stype:attr=1|qr_nm:gd|res:RC4|com-cf:nl|ptrs:na|ktp:N0|mc:98606|mtp:S|qry_typ:P|lang:en|wc:3|cs:8846|v=4,K K Kids Wear,https://www.indiamart.com/kkkidswear/?pos=172&kwd=baby cotton nappies&tags=BB||||8275.613|Price|product|||NA|rsf:gd-|-stype:attr=1|qr_nm:gd|res:RC4|com-cf:nl|ptrs:na|ktp:N0|mc:98606|mtp:S|qry_typ:P|lang:en|wc:3|cs:8846|v=4,False,Near Ram Temple,Mapusa,"H NO 18/5,,RAM NAGAR,COLVALE H No 18/5, Ram Nagar, Colvale, North Goa,403513,Mapusa, Near Ram Temple, Mapusa - 403502, Dist.North Goa, Goa",8047835522,
"Unisex Casual Wear Newborn Baby Hosiery Cotton Nappies, Age Group: Newly Born, Size: Small",https://www.indiamart.com/proddetail/newborn-baby-hosiery-cotton-nappies-2853257374691.html?pos=173&kwd=baby cotton nappies&tags=BA||||8228.275|Price|product|||NA|rsf:gd-|-stype:attr=1|qr_nm:gd|res:RC4|com-cf:nl|ptrs:na|ktp:N0|mc:98606|mtp:S|qry_typ:P|lang:en|wc:3|cs:8846|v=4,Devasya Enterprises,https://www.indiamart.com/devasya-enterprises/?pos=173&kwd=baby cotton nappies&tags=BA||||8228.275|Price|product|||NA|rsf:gd-|-stype:attr=1|qr_nm:gd|res:RC4|com-cf:nl|ptrs:na|ktp:N0|mc:98606|mtp:S|qry_typ:P|lang:en|wc:3|cs:8846|v=4,False,Kuber Nagar,Ahmedabad,"Ground Floor B-3 Radha Swami Road Rajesh Park Society, Kuber Nagar, Ahmedabad - 382480, Dist.Ahmedabad, Gujarat",7942794972,
"White Cotton Inside Terry Nappy New Born, Size: Medium",https://www.indiamart.com/proddetail/inside-terry-nappy-new-born-24533806273.html?pos=174&kwd=baby cotton nappies&tags=BB||||8223.226|Price|product|||NA|rsf:gd-|-stype:attr=1|qr_nm:gd|res:RC4|com-cf:nl|ptrs:na|ktp:N0|mc:98606|mtp:S|qry_typ:P|lang:en|wc:3|cs:8846|v=4,Babys Choice,https://www.indiamart.com/babys-choice-mumbai/?pos=174&kwd=baby cotton nappies&tags=BB||||8223.226|Price|product|||NA|rsf:gd-|-stype:attr=1|qr_nm:gd|res:RC4|com-cf:nl|ptrs:na|ktp:N0|mc:98606|mtp:S|qry_typ:P|lang:en|wc:3|cs:8846|v=4,False,Mumbai Suburan,Thane,"7,Sonal Darshan, Gaushala Road Mulund, Mumbai Suburan, Thane - 400080, Dist.Thane, Maharashtra",7942538240,
"Male Baby Cotton Diaper, Medium, Age Group: Newly Born",https://www.indiamart.com/proddetail/baby-cotton-diaper-2854591006555.html?pos=175&kwd=baby cotton nappies&tags=BB||||8584.299|Price|product|||NA|rsf:gd-|-stype:attr=1|qr_nm:gd|res:RC4|com-cf:nl|ptrs:na|ktp:N0|mc:98606|mtp:S|qry_typ:P|lang:en|wc:3|cs:8846|v=4,Tia Naturals,https://www.indiamart.com/tia-naturals/?pos=175&kwd=baby cotton nappies&tags=BB||||8584.299|Price|product|||NA|rsf:gd-|-stype:attr=1|qr_nm:gd|res:RC4|com-cf:nl|ptrs:na|ktp:N0|mc:98606|mtp:S|qry_typ:P|lang:en|wc:3|cs:8846|v=4,False,Eswara Nagar West,Coimbatore,"Ground Floor 1St Street,, Eswara Nagar West, Coimbatore - 641017, Dist.Coimbatore, Tamil Nadu",8045374947,5895
Multicolor Baby Cotton Nappy fabric,https://www.indiamart.com/proddetail/baby-cotton-nappy-2850138278288.html?pos=176&kwd=baby cotton nappies&tags=BA||||8752.144|Price|product|||NA|rsf:gd-|-stype:attr=1|qr_nm:gd|res:RC4|com-cf:nl|ptrs:na|ktp:N0|mc:98606|mtp:S|qry_typ:P|lang:en|wc:3|cs:8846|v=4,Meet Novelty,https://www.indiamart.com/meetnovelty/?pos=176&kwd=baby cotton nappies&tags=BA||||8752.144|Price|product|||NA|rsf:gd-|-stype:attr=1|qr_nm:gd|res:RC4|com-cf:nl|ptrs:na|ktp:N0|mc:98606|mtp:S|qry_typ:P|lang:en|wc:3|cs:8846|v=4,False,,New Delhi,"46, New Lahore Colony, Shastri Nagar, East, New Delhi - 110051, Dist.Delhi, Delhi",7942802861,
Baby Cotton Diaper,https://www.indiamart.com/proddetail/baby-cotton-diaper-2853995446688.html?pos=177&kwd=baby cotton nappies&tags=BA||||8723.301|Price|product|||NA|rsf:gd-|-stype:attr=1|qr_nm:gd|res:RC4|com-cf:nl|ptrs:na|ktp:N0|mc:98606|mtp:S|qry_typ:P|lang:en|wc:3|cs:8846|v=4,Lotus Marketing,https://www.indiamart.com/lotusmarketing-bhopal/?pos=177&kwd=baby cotton nappies&tags=BA||||8723.301|Price|product|||NA|rsf:gd-|-stype:attr=1|qr_nm:gd|res:RC4|com-cf:nl|ptrs:na|ktp:N0|mc:98606|mtp:S|qry_typ:P|lang:en|wc:3|cs:8846|v=4,False,Vardhman Green City,Bhopal,"Near Durga Chowk M No-274, Narela Shankery, Vardhman Green City, Bhopal - 462041, Dist.Bhopal, Madhya Pradesh",8044015628,
"White Cotton Baby Diapers, Size: Medium",https://www.indiamart.com/proddetail/cotton-baby-diapers-2854047927012.html?pos=178&kwd=baby cotton nappies&tags=BA||||8752.144|Price|product|||NA|rsf:gd-|-stype:attr=1|qr_nm:gd|res:RC4|com-cf:nl|ptrs:na|ktp:N0|mc:98606|mtp:S|qry_typ:P|lang:en|wc:3|cs:8846|v=4,Rizlife Healthcare,https://www.indiamart.com/rizlife-healthcare/?pos=178&kwd=baby cotton nappies&tags=BA||||8752.144|Price|product|||NA|rsf:gd-|-stype:attr=1|qr_nm:gd|res:RC4|com-cf:nl|ptrs:na|ktp:N0|mc:98606|mtp:S|qry_typ:P|lang:en|wc:3|cs:8846|v=4,False,Okhla Industrial Estate Phase 1,New Delhi,"First Floor, D-58, Office- 1, Okhla Industrial Area Phase-1, South Delhi, Okhla Industrial Estate Phase 1, New Delhi - 110020, Dist.Delhi, Delhi",7949087800,
"Moms Care White Cotton Baby Diapers, Size: Newborn to XL",https://www.indiamart.com/proddetail/cotton-baby-diapers-25440098055.html?pos=179&kwd=baby cotton nappies&tags=BB||||8768.45|Price|product|||NA|rsf:gd-|-stype:attr=1|qr_nm:gd|res:RC4|com-cf:nl|ptrs:na|ktp:N0|mc:98606|mtp:S|qry_typ:P|lang:en|wc:3|cs:8846|v=4,The Sparvvy,https://www.indiamart.com/thesparvvy/?pos=179&kwd=baby cotton nappies&tags=BB||||8768.45|Price|product|||NA|rsf:gd-|-stype:attr=1|qr_nm:gd|res:RC4|com-cf:nl|ptrs:na|ktp:N0|mc:98606|mtp:S|qry_typ:P|lang:en|wc:3|cs:8846|v=4,False,gaziabad,Tronica City,"C-17, Param Hans Vihar, Loni, gaziabad, Tronica City - 201102, Dist.Ghaziabad, Uttar Pradesh",7942535962,
White 1st Step Muslin Washable Baby Nappies,https://www.indiamart.com/proddetail/1st-step-muslin-washable-baby-nappies-2849456230730.html?pos=180&kwd=baby cotton nappies&tags=BB||||8954.051|Price|product|||NA|rsf:gd-|-stype:attr=1|qr_nm:gd|res:RC4|com-cf:nl|ptrs:na|ktp:N0|mc:98606|mtp:S|qry_typ:P|lang:en|wc:3|cs:8846|v=4,Rhythm Distributors,https://www.indiamart.com/rhythmdistributors/?pos=180&kwd=baby cotton nappies&tags=BB||||8954.051|Price|product|||NA|rsf:gd-|-stype:attr=1|qr_nm:gd|res:RC4|com-cf:nl|ptrs:na|ktp:N0|mc:98606|mtp:S|qry_typ:P|lang:en|wc:3|cs:8846|v=4,False,,Chennai,"109, 2, Rainbow Plaza, Audiappa Naicken Street, Chennai - 600079, Dist.Chennai, Tamil Nadu",7942787909,
"White Cotton Baby Diaper, Size: Large",https://www.indiamart.com/proddetail/white-cotton-baby-diaper-2853060749097.html?pos=181&kwd=baby cotton nappies&tags=BA||||8499.219|Price|product|||NA|rsf:gd-|-stype:attr=1|qr_nm:gd|res:RC4|com-cf:nl|ptrs:na|ktp:N0|mc:98606|mtp:S|qry_typ:P|lang:en|wc:3|cs:8846|v=4,Fragile Wellbeing Group,https://www.indiamart.com/fragilewellbeinggroupindia/?pos=181&kwd=baby cotton nappies&tags=BA||||8499.219|Price|product|||NA|rsf:gd-|-stype:attr=1|qr_nm:gd|res:RC4|com-cf:nl|ptrs:na|ktp:N0|mc:98606|mtp:S|qry_typ:P|lang:en|wc:3|cs:8846|v=4,False,,Rawatsar,"Ward No 18 Rawatsar Hanumangarh Road, Rawatsar - 335524, Dist.Hanumangarh, Rajasthan",7942553667,
Balloon Baby Cotton Newborn Baby Nappy,https://www.indiamart.com/proddetail/cotton-newborn-baby-nappy-21278608973.html?pos=182&kwd=baby cotton nappies&tags=BB||||8211.142|Price|product|||NA|rsf:gd-|-stype:attr=1|qr_nm:gd|res:RC4|com-cf:nl|ptrs:na|ktp:N0|mc:98606|mtp:S|qry_typ:P|lang:en|wc:3|cs:8846|v=4,Dhitta Apparel,https://www.indiamart.com/raj-apparelsmaharashtra/?pos=182&kwd=baby cotton nappies&tags=BB||||8211.142|Price|product|||NA|rsf:gd-|-stype:attr=1|qr_nm:gd|res:RC4|com-cf:nl|ptrs:na|ktp:N0|mc:98606|mtp:S|qry_typ:P|lang:en|wc:3|cs:8846|v=4,False,,Mumbai,"7th Floor B 702 Yogi Nagar, Eksar Road Royal Accord, Mumbai - 400091, Dist.Mumbai, Maharashtra",8043889456,
"Cotton Pink Reusable Baby Diaper, Age Group: 3-12 Months",https://www.indiamart.com/proddetail/cotton-pink-reusable-baby-diaper-2851604301948.html?pos=183&kwd=baby cotton nappies&tags=BA||||8752.144|Price|product|||NA|rsf:gd-|-stype:attr=1|qr_nm:gd|res:RC4|com-cf:nl|ptrs:na|ktp:N0|mc:98606|mtp:S|qry_typ:P|lang:en|wc:3|cs:8846|v=4,R D Brother's,https://www.indiamart.com/rd-brothers-newdelhi/?pos=183&kwd=baby cotton nappies&tags=BA||||8752.144|Price|product|||NA|rsf:gd-|-stype:attr=1|qr_nm:gd|res:RC4|com-cf:nl|ptrs:na|ktp:N0|mc:98606|mtp:S|qry_typ:P|lang:en|wc:3|cs:8846|v=4,False,Nangloi,New Delhi,"Plot No A -28 G/F, KH No 48/19, Block P & T Rajdhani Park Extn, Mundka, Nangloi, New Delhi - 110041, Dist.Delhi, Delhi",7942969022,
"Printed Cotton Baby Diapers Pants, Size: Small",https://www.indiamart.com/proddetail/cotton-baby-diapers-pants-2852947425173.html?pos=184&kwd=baby cotton nappies&tags=BA||||8785.791|Price|product|||NA|rsf:gd-|-stype:attr=1|qr_nm:gd|res:RC4|com-cf:nl|ptrs:na|ktp:N0|mc:98606|mtp:S|qry_typ:P|lang:en|wc:3|cs:8846|v=4,Bansal Trading Co.,https://www.indiamart.com/bansaltrading-co-ghaziabad/?pos=184&kwd=baby cotton nappies&tags=BA||||8785.791|Price|product|||NA|rsf:gd-|-stype:attr=1|qr_nm:gd|res:RC4|com-cf:nl|ptrs:na|ktp:N0|mc:98606|mtp:S|qry_typ:P|lang:en|wc:3|cs:8846|v=4,False,,Ghaziabad,"R-41, Advocate Colony, Sector-12, Pratap Vihar, Ghaziabad - 201009, Dist.Ghaziabad, Uttar Pradesh",7942969210,
Newborn Baby Cotton Langot,https://www.indiamart.com/proddetail/newborn-baby-cotton-langot-23216645512.html?pos=185&kwd=baby cotton nappies&tags=BA||||8211.142|Price|product|||NA|rsf:gd-|-stype:attr=1|qr_nm:gd|res:RC4|com-cf:nl|ptrs:na|ktp:N0|mc:98606|mtp:S|qry_typ:P|lang:en|wc:3|cs:8846|v=4,Siddi Creation,https://www.indiamart.com/siddhicreation-76285775/?pos=185&kwd=baby cotton nappies&tags=BA||||8211.142|Price|product|||NA|rsf:gd-|-stype:attr=1|qr_nm:gd|res:RC4|com-cf:nl|ptrs:na|ktp:N0|mc:98606|mtp:S|qry_typ:P|lang:en|wc:3|cs:8846|v=4,False,,Mumbai,"7/17 Near Jay Shastri Nagar, Mulund Colony New Rahul Nagar Mulund West, Mumbai - 400082, Dist.Mumbai, Maharashtra",8047841034,
White Disposable Cotton Baby Diapers,https://www.indiamart.com/proddetail/disposable-cotton-baby-diapers-2851265973591.html?pos=186&kwd=baby cotton nappies&tags=BB||||9045.955|Price|product|||NA|rsf:gd-|-stype:attr=1|qr_nm:gd|res:RC4|com-cf:nl|ptrs:na|ktp:N0|mc:98606|mtp:S|qry_typ:P|lang:en|wc:3|cs:8846|v=4,Jivion Industries Private Limited,https://www.indiamart.com/jivion-industries/?pos=186&kwd=baby cotton nappies&tags=BB||||9045.955|Price|product|||NA|rsf:gd-|-stype:attr=1|qr_nm:gd|res:RC4|com-cf:nl|ptrs:na|ktp:N0|mc:98606|mtp:S|qry_typ:P|lang:en|wc:3|cs:8846|v=4,False,,Kanpur,"Barra, Kanpur - 208017, Uttar Pradesh",7942840429,
"Newly Born Newborn Baby Cotton Nappie, Packaging Type: Packet",https://www.indiamart.com/proddetail/newborn-baby-cotton-nappie-21779957988.html?pos=187&kwd=baby cotton nappies&tags=BA||||8954.051|Price|product|||NA|rsf:gd-|-stype:attr=1|qr_nm:gd|res:RC4|com-cf:nl|ptrs:na|ktp:N0|mc:98606|mtp:S|qry_typ:P|lang:en|wc:3|cs:8846|v=4,M.D. & Sons,https://www.indiamart.com/mdsonschennai/?pos=187&kwd=baby cotton nappies&tags=BA||||8954.051|Price|product|||NA|rsf:gd-|-stype:attr=1|qr_nm:gd|res:RC4|com-cf:nl|ptrs:na|ktp:N0|mc:98606|mtp:S|qry_typ:P|lang:en|wc:3|cs:8846|v=4,False,George Town,Chennai,"No. 130, Mint Street, Shree Centre Complex, Ground Floor, Shop No. 5, Sowcarpet, George Town, Chennai - 600079, Dist.Chennai, Tamil Nadu",8046033559,
Cotton Peach Baby Nappy,https://www.indiamart.com/proddetail/cotton-peach-baby-nappy-2851740488188.html?pos=188&kwd=baby cotton nappies&tags=BA||||8228.275|Price|product|||NA|rsf:gd-|-stype:attr=1|qr_nm:gd|res:RC4|com-cf:nl|ptrs:na|ktp:N0|mc:98606|mtp:S|qry_typ:P|lang:en|wc:3|cs:8846|v=4,M Marketing,https://www.indiamart.com/mmarketing/?pos=188&kwd=baby cotton nappies&tags=BA||||8228.275|Price|product|||NA|rsf:gd-|-stype:attr=1|qr_nm:gd|res:RC4|com-cf:nl|ptrs:na|ktp:N0|mc:98606|mtp:S|qry_typ:P|lang:en|wc:3|cs:8846|v=4,False,,Ahmedabad,"TF/301, Karnavati Archade, Near Gheekanta, Ahmedabad - 380001, Dist.Ahmedabad, Gujarat",7942868797,
Pant Diapers XL Cotton Baby Diaper,https://www.indiamart.com/proddetail/xl-cotton-baby-diaper-25296343312.html?pos=189&kwd=baby cotton nappies&tags=BB||||8752.144|Price|product|||NA|rsf:gd-|-stype:attr=1|qr_nm:gd|res:RC4|com-cf:nl|ptrs:na|ktp:N0|mc:98606|mtp:S|qry_typ:P|lang:en|wc:3|cs:8846|v=4,Cross Hooks Mother-Baby Care Product,https://www.indiamart.com/crosshooks-motherbaby-careproduct/?pos=189&kwd=baby cotton nappies&tags=BB||||8752.144|Price|product|||NA|rsf:gd-|-stype:attr=1|qr_nm:gd|res:RC4|com-cf:nl|ptrs:na|ktp:N0|mc:98606|mtp:S|qry_typ:P|lang:en|wc:3|cs:8846|v=4,False,,New Delhi,"Block - A-2 No 4,5,24,25 Khasra No 83/6 Utsav Vihar Village Karala, New Delhi - 110081, Dist.Delhi, Delhi",7942658885,
Cotton Days Baby Diapers,https://www.indiamart.com/proddetail/days-baby-diapers-22554154633.html?pos=190&kwd=baby cotton nappies&tags=BA||||8786.56|Price|product|||NA|rsf:gd-|-stype:attr=1|qr_nm:gd|res:RC4|com-cf:nl|ptrs:na|ktp:N0|mc:98606|mtp:S|qry_typ:P|lang:en|wc:3|cs:8846|v=4,Patil Traders,https://www.indiamart.com/patil-traders-hyderabad/?pos=190&kwd=baby cotton nappies&tags=BA||||8786.56|Price|product|||NA|rsf:gd-|-stype:attr=1|qr_nm:gd|res:RC4|com-cf:nl|ptrs:na|ktp:N0|mc:98606|mtp:S|qry_typ:P|lang:en|wc:3|cs:8846|v=4,False,Kachiguda,Hyderabad,"No 3-3-835/A/2, Kutbiguda,, Kachiguda, Kachiguda, Hyderabad - 500027, Dist.Hyderabad, Telangana",8048203040,
"V.B.K White And Blue Baby Cotton Langot Nappy, Age Group: 0 - 12 Months",https://www.indiamart.com/proddetail/baby-cotton-langot-nappy-23837167812.html?pos=191&kwd=baby cotton nappies&tags=BA||||8228.275|Price|product|||NA|rsf:gd-|-stype:attr=1|qr_nm:gd|res:RC4|com-cf:nl|ptrs:na|ktp:N0|mc:98606|mtp:S|qry_typ:P|lang:en|wc:3|cs:8846|v=4,V K Products,https://www.indiamart.com/vkproductsahmedabad/?pos=191&kwd=baby cotton nappies&tags=BA||||8228.275|Price|product|||NA|rsf:gd-|-stype:attr=1|qr_nm:gd|res:RC4|com-cf:nl|ptrs:na|ktp:N0|mc:98606|mtp:S|qry_typ:P|lang:en|wc:3|cs:8846|v=4,False,Bapunagar,Ahmedabad,"Ahmedabad, Bapunagar, Ahmedabad - 380024, Dist.Ahmedabad, Gujarat",8048987069,
Tiger Printed Cotton Baby Diaper,https://www.indiamart.com/proddetail/tiger-printed-cotton-baby-diaper-25867682191.html?pos=192&kwd=baby cotton nappies&tags=BB||||8752.144|Price|product|||NA|rsf:gd-|-stype:attr=1|qr_nm:gd|res:RC4|com-cf:nl|ptrs:na|ktp:N0|mc:98606|mtp:S|qry_typ:P|lang:en|wc:3|cs:8846|v=4,Chandani Garments,https://www.indiamart.com/chandanigarments/?pos=192&kwd=baby cotton nappies&tags=BB||||8752.144|Price|product|||NA|rsf:gd-|-stype:attr=1|qr_nm:gd|res:RC4|com-cf:nl|ptrs:na|ktp:N0|mc:98606|mtp:S|qry_typ:P|lang:en|wc:3|cs:8846|v=4,False,,New Delhi,"X-3664, Gali-4, Shanti Mohalla Gandhi Nagar, East Delhi, New Delhi - 110031, Dist.Delhi, Delhi",8047674508,
"Snuggy Cotton Baby Diaper, Large",https://www.indiamart.com/proddetail/snuggy-cotton-baby-diaper-2853687301133.html?pos=193&kwd=baby cotton nappies&tags=BA||||9140.514|Price|product|||NA|rsf:gd-|-stype:attr=1|qr_nm:gd|res:RC4|com-cf:nl|ptrs:na|ktp:N0|mc:98606|mtp:S|qry_typ:P|lang:en|wc:3|cs:8846|v=4,R.B.Tradelink,https://www.indiamart.com/rbtradelink/?pos=193&kwd=baby cotton nappies&tags=BA||||9140.514|Price|product|||NA|rsf:gd-|-stype:attr=1|qr_nm:gd|res:RC4|com-cf:nl|ptrs:na|ktp:N0|mc:98606|mtp:S|qry_typ:P|lang:en|wc:3|cs:8846|v=4,False,Raipur,Raipur,"Shri Rishabh Banerjee,Ho No -240 Sec-B-07,Vallabh Nagar,Priyadarrshini Nagar, Raipur, Raipur - 492005, Chhattisgarh",8045165291,
"White Cotton Extra Care Ultra Slim Baby Diaper, Size: Small",https://www.indiamart.com/proddetail/extra-care-ultra-slim-baby-diaper-2852557960333.html?pos=194&kwd=baby cotton nappies&tags=BA||||8559.269|Price|product|||NA|rsf:gd-|-stype:attr=1|qr_nm:gd|res:RC4|com-cf:nl|ptrs:na|ktp:N0|mc:98606|mtp:S|qry_typ:P|lang:en|wc:3|cs:8846|v=4,Shivam Health And Hygiene,https://www.indiamart.com/shivamhealth-hygiene/?pos=194&kwd=baby cotton nappies&tags=BA||||8559.269|Price|product|||NA|rsf:gd-|-stype:attr=1|qr_nm:gd|res:RC4|com-cf:nl|ptrs:na|ktp:N0|mc:98606|mtp:S|qry_typ:P|lang:en|wc:3|cs:8846|v=4,False,Old Agarwal Nagar,Indore,"112, B. M. Tower, Sapna Sangeeta Road, Old Agarwal Nagar, Indore - 452001, Dist.Indore, Madhya Pradesh",7942707717,
"White Cotton Printed Baby Diaper, Age Group: Newly Born",https://www.indiamart.com/proddetail/white-cotton-printed-baby-diaper-2848991552488.html?pos=195&kwd=baby cotton nappies&tags=BB||||8752.144|Price|product|||NA|rsf:gd-|-stype:attr=1|qr_nm:gd|res:RC4|com-cf:nl|ptrs:na|ktp:N0|mc:98606|mtp:S|qry_typ:P|lang:en|wc:3|cs:8846|v=4,JD Enterprises,https://www.indiamart.com/delhi-jdenterprises/?pos=195&kwd=baby cotton nappies&tags=BB||||8752.144|Price|product|||NA|rsf:gd-|-stype:attr=1|qr_nm:gd|res:RC4|com-cf:nl|ptrs:na|ktp:N0|mc:98606|mtp:S|qry_typ:P|lang:en|wc:3|cs:8846|v=4,False,,New Delhi,"H.No-509/4, Ground Floor, Kh No-41, Gali No-6, Vijay Park, Maujpur , East, New Delhi - 110053, Dist.Delhi, Delhi",8047549131,
Multicolor New born baby Topi Hosiary Cotton,https://www.indiamart.com/proddetail/new-born-baby-topi-hosiary-cotton-26738462562.html?pos=196&kwd=baby cotton nappies&tags=BB||||8230.883|Price|product|||NA|rsf:gd-|-stype:attr=1|qr_nm:gd|res:RC4|com-cf:nl|ptrs:na|ktp:N0|mc:98606|mtp:S|qry_typ:P|lang:en|wc:3|cs:8846|v=4,Savan Enterprise,https://www.indiamart.com/savanenterprise-111288849/?pos=196&kwd=baby cotton nappies&tags=BB||||8230.883|Price|product|||NA|rsf:gd-|-stype:attr=1|qr_nm:gd|res:RC4|com-cf:nl|ptrs:na|ktp:N0|mc:98606|mtp:S|qry_typ:P|lang:en|wc:3|cs:8846|v=4,False,Katargam,Surat,"Ground Floor Flate No.g-4 Bhaichandnagar Society Indrapuri Appartment Katargam, Katargam, Surat - 395004, Dist.Surat, Gujarat",8048249734,3471
Blue New Born Infant Baby Cotton Nappy,https://www.indiamart.com/proddetail/new-born-infant-baby-cotton-nappy-26234479533.html?pos=197&kwd=baby cotton nappies&tags=BB||||8823.154|Price|product|||NA|rsf:gd-|-stype:attr=1|qr_nm:gd|res:RC4|com-cf:nl|ptrs:na|ktp:N0|mc:98606|mtp:S|qry_typ:P|lang:en|wc:3|cs:8846|v=4,Care Plus,https://www.indiamart.com/care-plusagra/?pos=197&kwd=baby cotton nappies&tags=BB||||8823.154|Price|product|||NA|rsf:gd-|-stype:attr=1|qr_nm:gd|res:RC4|com-cf:nl|ptrs:na|ktp:N0|mc:98606|mtp:S|qry_typ:P|lang:en|wc:3|cs:8846|v=4,False,,Agra,"31/182/1B, Sanjay Nagar, Near Navjot Public School, Ukkahara, Agra - 282001, Dist.Agra, Uttar Pradesh",8043865020,
85 GSM Green Baby Cotton Nappy,https://www.indiamart.com/proddetail/85-gsm-green-baby-cotton-nappy-26374856591.html?pos=198&kwd=baby cotton nappies&tags=BB||||8752.144|Price|product|||NA|rsf:gd-|-stype:attr=1|qr_nm:gd|res:RC4|com-cf:nl|ptrs:na|ktp:N0|mc:98606|mtp:S|qry_typ:P|lang:en|wc:3|cs:8846|v=4,Hopshoptop E-Commerce (OPC) Private Limited,https://www.indiamart.com/hopshoptop-e-commerce/?pos=198&kwd=baby cotton nappies&tags=BB||||8752.144|Price|product|||NA|rsf:gd-|-stype:attr=1|qr_nm:gd|res:RC4|com-cf:nl|ptrs:na|ktp:N0|mc:98606|mtp:S|qry_typ:P|lang:en|wc:3|cs:8846|v=4,False,,New Delhi,"H. No 64, Bank Vihar, Pitampura, North West Delhi, New Delhi - 110034, Dist.Delhi, Delhi",8047681265,
"White Cotton Ammy Kids Kool Baby Diaper, Size: Medium",https://www.indiamart.com/proddetail/cotton-ammy-kids-kool-baby-diaper-2853490767491.html?pos=199&kwd=baby cotton nappies&tags=BA||||8651.144|Price|product|||NA|rsf:gd-|-stype:attr=1|qr_nm:gd|res:RC4|com-cf:nl|ptrs:na|ktp:N0|mc:98606|mtp:S|qry_typ:P|lang:en|wc:3|cs:8846|v=4,Mittal Enterprises,https://www.indiamart.com/mittal-enterprises-sangrur/?pos=199&kwd=baby cotton nappies&tags=BA||||8651.144|Price|product|||NA|rsf:gd-|-stype:attr=1|qr_nm:gd|res:RC4|com-cf:nl|ptrs:na|ktp:N0|mc:98606|mtp:S|qry_typ:P|lang:en|wc:3|cs:8846|v=4,False,,Sangrur,"Shop No. 3, Jain Colony, Bhawanigarh,, Sangrur - 148026, Dist.Sangrur, Punjab",7949091577,
"Cotton New Born Baby Reusable Diaper pads, Medium",https://www.indiamart.com/proddetail/cotton-new-born-baby-reusable-diaper-pads-2853147777812.html?pos=200&kwd=baby cotton nappies&tags=BA||||8211.142|Price|product|||NA|rsf:gd-|-stype:attr=1|qr_nm:gd|res:RC4|com-cf:nl|ptrs:na|ktp:N0|mc:98606|mtp:S|qry_typ:P|lang:en|wc:3|cs:8846|v=4,Moms' Nest,https://www.indiamart.com/moms-nest/?pos=200&kwd=baby cotton nappies&tags=BA||||8211.142|Price|product|||NA|rsf:gd-|-stype:attr=1|qr_nm:gd|res:RC4|com-cf:nl|ptrs:na|ktp:N0|mc:98606|mtp:S|qry_typ:P|lang:en|wc:3|cs:8846|v=4,False,Saki Naka,Mumbai,"2nd Floor, 202, Vaz Villa, I C Colony, Borivali West, Mumbai Suburban, Saki Naka, Mumbai - 400103, Dist.Mumbai, Maharashtra",7942960731,
"White Mybud Soft Cotton Diaper, Nappy, Langot For New Born Baby",https://www.indiamart.com/proddetail/mybud-soft-cotton-diaper-nappy-langot-for-new-born-baby-25740050030.html?pos=201&kwd=baby cotton nappies&tags=BA||||8503.868|Price|product|||NA|rsf:gd-|-stype:attr=1|qr_nm:gd|res:RC4|com-cf:nl|ptrs:na|ktp:N0|mc:98606|mtp:S|qry_typ:P|lang:en|wc:3|cs:8846|v=4,My Bud,https://www.indiamart.com/my-bud/?pos=201&kwd=baby cotton nappies&tags=BA||||8503.868|Price|product|||NA|rsf:gd-|-stype:attr=1|qr_nm:gd|res:RC4|com-cf:nl|ptrs:na|ktp:N0|mc:98606|mtp:S|qry_typ:P|lang:en|wc:3|cs:8846|v=4,False,,Kochi,"DD Bazar, broadway, near market Road, Kochi - 683579, Dist.Ernakulam, Kerala",8048361355,649
Baby double layer cotton langot/ nappies,,Geet Trading,https://www.indiamart.com/geet-trading/?pos=202&kwd=baby cotton nappies&tags=BA||||8752.144|Price|product|||NA|rsf:gd-|-stype:attr=1|qr_nm:gd|res:RC4|com-cf:nl|ptrs:na|ktp:N0|mc:98606|mtp:S|qry_typ:P|lang:en|wc:3|cs:8846|v=4,False,,New Delhi,"46 New Lahore Colony Shastri Nagar East Delhi geeta colony, New Delhi - 110031, Dist.Delhi, Delhi",8069728343,304
"New Born baby Hosiery Cotton Printed Leggings Pack of 04 , Multocolures",https://www.indiamart.com/proddetail/new-born-baby-hosiery-cotton-printed-leggings-pack-of-04-multocolures-2854897622291.html?pos=203&kwd=baby cotton nappies&tags=BB||||8211.142|Price|product|||NA|rsf:gd-|-stype:attr=1|qr_nm:gd|res:RC4|com-cf:nl|ptrs:na|ktp:N0|mc:98606|mtp:S|qry_typ:P|lang:en|wc:3|cs:8846|v=4,Bhavesh Enterprises,https://www.indiamart.com/company/68549603/?pos=203&kwd=baby cotton nappies&tags=BB||||8211.142|Price|product|||NA|rsf:gd-|-stype:attr=1|qr_nm:gd|res:RC4|com-cf:nl|ptrs:na|ktp:N0|mc:98606|mtp:S|qry_typ:P|lang:en|wc:3|cs:8846|v=4,False,,Mumbai,"6/9, Shivneri Chwal, Indira Nagar, Sainath Nagar Marg, Mumbai - 400086, Dist.Mumbai, Maharashtra",8048247090,3727
Dowin 100% Cotton Baby Pajami - Pack of 6 - Assorted Colours,https://www.indiamart.com/proddetail/dowin-100-cotton-baby-pajami-pack-of-6-assorted-colours-2854674318173.html?pos=204&kwd=baby cotton nappies&tags=BB||||8746.929||product|||NA|rsf:gd-|-stype:attr=1|qr_nm:gd|res:RC4|com-cf:nl|ptrs:na|ktp:N0|mc:98606|mtp:S|qry_typ:P|lang:en|wc:3|cs:8846|v=4,Bimla Traders,https://www.indiamart.com/bimla-traders-chandigarh/?pos=204&kwd=baby cotton nappies&tags=BB||||8746.929||product|||NA|rsf:gd-|-stype:attr=1|qr_nm:gd|res:RC4|com-cf:nl|ptrs:na|ktp:N0|mc:98606|mtp:S|qry_typ:P|lang:en|wc:3|cs:8846|v=4,False,Chandigarh,Chandigarh,"Sco 62 Dakshan Marg Sector 20C, Chandigarh, Chandigarh - 160020, Chandigarh",8048370714,7954
100% Hosiery Cotton Printed Baby Nappy (Colour Base),https://www.indiamart.com/proddetail/printed-baby-nappy-colour-base-19944194012.html?pos=205&kwd=baby cotton nappies&tags=BB||||9839.57|Price|product|||NA|rsf:gd-|-stype:attr=1|qr_nm:gd|res:RC4|com-cf:nl|ptrs:na|ktp:N0|mc:98606|mtp:S|qry_typ:P|lang:en|wc:3|cs:8846|v=4,R. F. C. Garments,https://www.indiamart.com/rfcgarments/?pos=205&kwd=baby cotton nappies&tags=BB||||9839.57|Price|product|||NA|rsf:gd-|-stype:attr=1|qr_nm:gd|res:RC4|com-cf:nl|ptrs:na|ktp:N0|mc:98606|mtp:S|qry_typ:P|lang:en|wc:3|cs:8846|v=4,False,Burrabazar,Kolkata,"24/ 25, Rupchand Roy Street, 3rd Floor, Burrabazar, Kolkata - 700007, Dist.Kolkata, West Bengal",8047784536,
"Baby Infant Nappy Set, Medium",https://www.indiamart.com/proddetail/baby-infant-nappy-set-25388267262.html?pos=206&kwd=baby cotton nappies&tags=BA||||8651.144|Price|product|||NA|rsf:gd-|-stype:attr=1|qr_nm:gd|res:RC4|com-cf:nl|ptrs:na|ktp:N0|mc:98606|mtp:S|qry_typ:P|lang:en|wc:3|cs:8846|v=4,Ashriti Wardrobe,https://www.indiamart.com/ashriti-wardrobe/?pos=206&kwd=baby cotton nappies&tags=BA||||8651.144|Price|product|||NA|rsf:gd-|-stype:attr=1|qr_nm:gd|res:RC4|com-cf:nl|ptrs:na|ktp:N0|mc:98606|mtp:S|qry_typ:P|lang:en|wc:3|cs:8846|v=4,False,,Sangrur,"Bxi 1862 New Grain Market Road, Opposite FCI Godowns, Barnala, Sangrur - 148101, Dist.Sangrur, Punjab",8069416034,700
Newborn Muslin Nappy,https://www.indiamart.com/proddetail/newborn-muslin-nappy-25524377062.html?pos=207&kwd=baby cotton nappies&tags=BA||||8626.744|Price|product|||NA|rsf:gd-|-stype:attr=1|qr_nm:gd|res:RC4|com-cf:nl|ptrs:na|ktp:N0|mc:98606|mtp:S|qry_typ:P|lang:en|wc:3|cs:8846|v=4,Saras Clothing,https://www.indiamart.com/saras-clothing/?pos=207&kwd=baby cotton nappies&tags=BA||||8626.744|Price|product|||NA|rsf:gd-|-stype:attr=1|qr_nm:gd|res:RC4|com-cf:nl|ptrs:na|ktp:N0|mc:98606|mtp:S|qry_typ:P|lang:en|wc:3|cs:8846|v=4,False,Eduvai,Tiruppur,"2/10, Eduvai, Eduvai, Tiruppur - 641687, Dist.Coimbatore, Tamil Nadu",8048372466,404
"Chocopie Infant Cotton Coloured Nappy, Age Group: 3-12 Months, Packaging Size: 12 Pcs",https://www.indiamart.com/proddetail/infant-cotton-coloured-nappy-21718582630.html?pos=208&kwd=baby cotton nappies&tags=BB||||8211.142|Price|product|||NA|rsf:gd-|-stype:attr=1|qr_nm:gd|res:RC4|com-cf:nl|ptrs:na|ktp:N0|mc:98606|mtp:S|qry_typ:P|lang:en|wc:3|cs:8846|v=4,Lalit Enterprise,https://www.indiamart.com/lalit-enterprise/?pos=208&kwd=baby cotton nappies&tags=BB||||8211.142|Price|product|||NA|rsf:gd-|-stype:attr=1|qr_nm:gd|res:RC4|com-cf:nl|ptrs:na|ktp:N0|mc:98606|mtp:S|qry_typ:P|lang:en|wc:3|cs:8846|v=4,False,,Mumbai,"303, Gorai Kinara Chs, Plot No.115, Rsc 37, Gorai 2, Borivali West,, Mumbai - 400092, Dist.Mumbai, Maharashtra",8048956887,
"White Absorbent Cotton BABY NAPPY INSERT LINER PAD / REUSABLE BABY DIAPER INSERT PADS, Size: 30 X 11 CM",https://www.indiamart.com/proddetail/baby-nappy-insert-liner-pad-reusable-baby-diaper-insert-pads-2850659349212.html?pos=209&kwd=baby cotton nappies&tags=BB||||8236.946|Price|product|||NA|rsf:gd-|-stype:attr=1|qr_nm:gd|res:RC4|com-cf:nl|ptrs:na|ktp:N0|mc:98606|mtp:S|qry_typ:P|lang:en|wc:3|cs:8846|v=4,Pranita Textile,https://www.indiamart.com/pranita-textile/?pos=209&kwd=baby cotton nappies&tags=BB||||8236.946|Price|product|||NA|rsf:gd-|-stype:attr=1|qr_nm:gd|res:RC4|com-cf:nl|ptrs:na|ktp:N0|mc:98606|mtp:S|qry_typ:P|lang:en|wc:3|cs:8846|v=4,False,,Raigad,"Unit No 206, 2nd Fioor, Silver Springs, Taloja Midc, Taloja Panchanand, Raigad., Raigad - 410208, Maharashtra",8043855238,
Super Langot,https://www.indiamart.com/proddetail/super-langot-2853144704655.html?pos=210&kwd=baby cotton nappies&tags=BA||||8239.3955|Price|product|||NA|rsf:gd-|-stype:attr=1|qr_nm:gd|res:RC4|com-cf:nl|ptrs:na|ktp:N0|mc:98606|mtp:S|qry_typ:P|lang:en|wc:3|cs:8846|v=4,Krishna Enterprise,https://www.indiamart.com/krishnaenterprises-103093057/?pos=210&kwd=baby cotton nappies&tags=BA||||8239.3955|Price|product|||NA|rsf:gd-|-stype:attr=1|qr_nm:gd|res:RC4|com-cf:nl|ptrs:na|ktp:N0|mc:98606|mtp:S|qry_typ:P|lang:en|wc:3|cs:8846|v=4,False,,Kalyan,"Barack No 91,Room No 1,Kalyan Shahad Road,Shiv Road,Ulhasnagar 1,Thane, Kalyan - 421001, Dist.Thane, Maharashtra",8069728266,107
