product_title,product_link,company_name,company_link,is_verified_exporter,city_region,city,address_details,phone_number,phone_number_extension
Velvet Mix Newborn Baby blanket,https://www.indiamart.com/proddetail/newborn-baby-blanket-27262907730.html?pos=1&kwd=baby cellular blanket&tags=A||||8954.051|Price|product|||TS|rsf:gd-|-stype:attr=1|qr_nm:gd|res:RC4|com-cf:nl|ptrs:na|ktp:N0|mc:99818|mtp:S|qry_typ:P|lang:en|wc:3|flavl:0|cs:9615|v=4,Sundar Garments,https://www.sundargarment.com/?pos=1&kwd=baby cellular blanket&tags=A||||8954.051|Price|product|||TS|rsf:gd-|-stype:attr=1|qr_nm:gd|res:RC4|com-cf:nl|ptrs:na|ktp:N0|mc:99818|mtp:S|qry_typ:P|lang:en|wc:3|flavl:0|cs:9615|v=4,False,Kondithop,Chennai,"No-9 Murugesan Street Near Kondithope Park, Kondithop, Chennai - 600079, Dist.Chennai, Tamil Nadu",8048266539,
"Multicolor Baby Cotton Muslin Swaddle, Size: Singe",https://www.indiamart.com/proddetail/baby-cotton-muslin-swaddle-2849329098130.html?pos=2&kwd=baby cellular blanket&tags=BA||||8211.142|Price|product|||TS|rsf:gd-|-stype:attr=1|qr_nm:gd|res:RC4|com-cf:nl|ptrs:na|ktp:N0|mc:99818|mtp:S|qry_typ:P|lang:en|wc:3|flavl:0|cs:9615|v=4,ShanBuyers,https://www.indiamart.com/shanbuyers/?pos=2&kwd=baby cellular blanket&tags=BA||||8211.142|Price|product|||TS|rsf:gd-|-stype:attr=1|qr_nm:gd|res:RC4|com-cf:nl|ptrs:na|ktp:N0|mc:99818|mtp:S|qry_typ:P|lang:en|wc:3|flavl:0|cs:9615|v=4,False,Dahisar East,Mumbai,"316, Floor No. 3rd, Sarita Building, Prabhat Ind Complex, Road Western Express Highway, Toll Naka, Dahisar, Dahisar East, Mumbai - 400068, Dist.Mumbai, Maharashtra",8047670828,
"Cellular Baby Blankets, Length:30 - 60 Inch",https://www.indiamart.com/proddetail/cellular-baby-blanket-12429961862.html?pos=3&kwd=baby cellular blanket&tags=BB||||8747.203|Price|product|||TS|rsf:gd-|-stype:attr=1|qr_nm:gd|res:RC4|com-cf:nl|ptrs:na|ktp:N0|mc:99818|mtp:S|qry_typ:P|lang:en|wc:3|flavl:0|cs:9615|v=4,Harshit International,https://www.indiamart.com/harshitinternational/?pos=3&kwd=baby cellular blanket&tags=BB||||8747.203|Price|product|||TS|rsf:gd-|-stype:attr=1|qr_nm:gd|res:RC4|com-cf:nl|ptrs:na|ktp:N0|mc:99818|mtp:S|qry_typ:P|lang:en|wc:3|flavl:0|cs:9615|v=4,False,Huda,Panipat,"Urban Estate, Sector- 12, 600, Near SD Vidya Mandir, Huda, Panipat - 132103, Dist.Panipat, Haryana",8046047820,
"Velvet 6 colours Baby Blanket, Size: Singe, 1 Yr To 5 Yr",https://www.indiamart.com/proddetail/baby-blanket-2851815080288.html?pos=4&kwd=baby cellular blanket&tags=BB||||8559.269|Price|product|||TS|rsf:gd-|-stype:attr=1|qr_nm:gd|res:RC4|com-cf:nl|ptrs:na|ktp:N0|mc:99818|mtp:S|qry_typ:P|lang:en|wc:3|flavl:0|cs:9615|v=4,EEDDO,https://www.indiamart.com/eeddo/?pos=4&kwd=baby cellular blanket&tags=BB||||8559.269|Price|product|||TS|rsf:gd-|-stype:attr=1|qr_nm:gd|res:RC4|com-cf:nl|ptrs:na|ktp:N0|mc:99818|mtp:S|qry_typ:P|lang:en|wc:3|flavl:0|cs:9615|v=4,False,Chhipa Bakhal,Indore,"23/1, 2nd Floor, Chhipa Bakhal, Chhipa Bakhal, Indore - 452002, Dist.Indore, Madhya Pradesh",8048212052,
"Oscar Pink Baby Blanket, 0-18 Months",https://www.indiamart.com/proddetail/baby-blanket-22609165355.html?pos=5&kwd=baby cellular blanket&tags=BA||||8778.123|Price|product|||TS|rsf:gd-|-stype:attr=1|qr_nm:gd|res:RC4|com-cf:nl|ptrs:na|ktp:N0|mc:99818|mtp:S|qry_typ:P|lang:en|wc:3|flavl:0|cs:9615|v=4,Oscar Overseas,https://www.oscar-india.com/?pos=5&kwd=baby cellular blanket&tags=BA||||8778.123|Price|product|||TS|rsf:gd-|-stype:attr=1|qr_nm:gd|res:RC4|com-cf:nl|ptrs:na|ktp:N0|mc:99818|mtp:S|qry_typ:P|lang:en|wc:3|flavl:0|cs:9615|v=4,False,,Noida,"A-99 Sector 5, Noida - 201301, Dist.Gautam Budh Nagar, Uttar Pradesh",8046058290,
"Many Colour Available Printed Baby Wrap Blanket, 0-12 Months",https://www.indiamart.com/proddetail/baby-wrap-blanket-22683937473.html?pos=6&kwd=baby cellular blanket&tags=BA||||8752.144|Price|product|||TS|rsf:gd-|-stype:attr=1|qr_nm:gd|res:RC4|com-cf:nl|ptrs:na|ktp:N0|mc:99818|mtp:S|qry_typ:P|lang:en|wc:3|flavl:0|cs:9615|v=4,Shree Balaji Infant Wear,https://www.indiamart.com/chhotejanab/?pos=6&kwd=baby cellular blanket&tags=BA||||8752.144|Price|product|||TS|rsf:gd-|-stype:attr=1|qr_nm:gd|res:RC4|com-cf:nl|ptrs:na|ktp:N0|mc:99818|mtp:S|qry_typ:P|lang:en|wc:3|flavl:0|cs:9615|v=4,False,Pahari Dhiraj,New Delhi,"1583- 84, Hathi Khana, Aziz Ganj, Bahadur Garh Road, Pahari Dhiraj, New Delhi - 110006, Dist.Delhi, Delhi",8047639754,
"Pink Plain Polo Fabric Hooded Baby Blanket, Size: 30x36cm(LXW)",https://www.indiamart.com/proddetail/polo-fabric-hooded-baby-blanket-2851749099073.html?pos=7&kwd=baby cellular blanket&tags=BA||||8661.854|Price|product|||MDC|rsf:gd-|-stype:attr=1|qr_nm:gd|res:RC4|com-cf:nl|ptrs:na|ktp:N0|mc:99818|mtp:S|qry_typ:P|lang:en|wc:3|flavl:0|cs:9615|v=4,S.R Woollen Textile,https://www.indiamart.com/srwoollentextile/?pos=7&kwd=baby cellular blanket&tags=BA||||8661.854|Price|product|||MDC|rsf:gd-|-stype:attr=1|qr_nm:gd|res:RC4|com-cf:nl|ptrs:na|ktp:N0|mc:99818|mtp:S|qry_typ:P|lang:en|wc:3|flavl:0|cs:9615|v=4,False,Old Ludhiana,Ludhiana,"435, Chauri Sarak, Bazzrian Mohalla, Old Ludhiana, Ludhiana - 141008, Dist.Ludhiana, Punjab",7942873909,
"White Cotton Baby Monthly Milestone Blanket, Size: Singe",https://www.indiamart.com/proddetail/baby-monthly-milestone-blanket-2853493000373.html?pos=8&kwd=baby cellular blanket&tags=BA||||8230.883|Price|product|||MDC|rsf:gd-|-stype:attr=1|qr_nm:gd|res:RC4|com-cf:nl|ptrs:na|ktp:N0|mc:99818|mtp:S|qry_typ:P|lang:en|wc:3|flavl:0|cs:9615|v=4,Shri Shri Fashion,https://www.indiamart.com/shri-shri-fashion/?pos=8&kwd=baby cellular blanket&tags=BA||||8230.883|Price|product|||MDC|rsf:gd-|-stype:attr=1|qr_nm:gd|res:RC4|com-cf:nl|ptrs:na|ktp:N0|mc:99818|mtp:S|qry_typ:P|lang:en|wc:3|flavl:0|cs:9615|v=4,False,Varachha,Surat,"A-231, Narayan Nagar, Near Nalanda School, Punagam,, Varachha, Surat - 395010, Dist.Surat, Gujarat",7942712235,
Cellular Baby Blanket,,Uncle Benit Global Inc,https://www.indiamart.com/unclebenitglobal/?pos=9&kwd=baby cellular blanket&tags=BA||||8661.854||product|||TS|rsf:gd-|-stype:attr=1|qr_nm:gd|res:RC4|com-cf:nl|ptrs:na|ktp:N0|mc:99818|mtp:S|qry_typ:P|lang:en|wc:3|flavl:0|cs:9615|v=4,False,Mundian,Ludhiana,"Opposite Fortis Hospital, NH-95 Chandigarh Road, Mundian Khurd, Mundian, Ludhiana - 141110, Dist.Ludhiana, Punjab",8046075831,
Fleece Polar Baby Blanket,https://www.indiamart.com/proddetail/fleece-polar-baby-blanket-15783938388.html?pos=10&kwd=baby cellular blanket&tags=BB||||8661.854|Price|product|||NA|rsf:gd-|-stype:attr=1|qr_nm:gd|res:RC4|com-cf:nl|ptrs:na|ktp:N0|mc:99818|mtp:S|qry_typ:P|lang:en|wc:3|flavl:0|cs:9615|v=4,Gopal Darshan Textile,https://www.indiamart.com/gopal-darshan-textiles/?pos=10&kwd=baby cellular blanket&tags=BB||||8661.854|Price|product|||NA|rsf:gd-|-stype:attr=1|qr_nm:gd|res:RC4|com-cf:nl|ptrs:na|ktp:N0|mc:99818|mtp:S|qry_typ:P|lang:en|wc:3|flavl:0|cs:9615|v=4,False,,Ludhiana,"3929/3 Hargobind Pura 4, Ludhiana - 141008, Dist.Ludhiana, Punjab",8048956657,
Baby Milk Blankets,,Arihant Woollen Mills,https://www.indiamart.com/arihant-woollen-mills/?pos=11&kwd=baby cellular blanket&tags=BB||||8747.203||product|||NA|rsf:gd-|-stype:attr=1|qr_nm:gd|res:RC4|com-cf:nl|ptrs:na|ktp:N0|mc:99818|mtp:S|qry_typ:P|lang:en|wc:3|flavl:0|cs:9615|v=4,False,Pachranga Bazar,Panipat,"11 Commiitte Market ,Pachranga Bazar Panipat, Pachranga Bazar, Panipat - 132103, Dist.Panipat, Haryana",8048372069,731
Plain Woven Ara Warm Cellular Blanket,https://www.indiamart.com/proddetail/ara-warm-cellular-blanket-5701493612.html?pos=12&kwd=baby cellular blanket&tags=CC||||8752.144|Price|product|||TS|rsf:gd-|-stype:attr=1|qr_nm:gd|res:RC4|com-cf:nl|ptrs:na|ktp:N0|mc:99818|mtp:S|qry_typ:P|lang:en|wc:3|flavl:0|cs:9615|v=4,Ara India,https://www.araindia.in/?pos=12&kwd=baby cellular blanket&tags=CC||||8752.144|Price|product|||TS|rsf:gd-|-stype:attr=1|qr_nm:gd|res:RC4|com-cf:nl|ptrs:na|ktp:N0|mc:99818|mtp:S|qry_typ:P|lang:en|wc:3|flavl:0|cs:9615|v=4,True,Vikaspuri,New Delhi,"C-472, Ground Floor, Vikaspuri, New Delhi - 110018, Dist.Delhi, Delhi",8046049586,
"Multicolor Printed Organic Cotton Baby Blanket, Size: Double",https://www.indiamart.com/proddetail/organic-cotton-baby-blanket-2850900517991.html?pos=13&kwd=baby cellular blanket&tags=CC||||8717.363|Price|product|||TS|rsf:gd-|-stype:attr=1|qr_nm:gd|res:RC4|com-cf:nl|ptrs:na|ktp:N0|mc:99818|mtp:S|qry_typ:P|lang:en|wc:3|flavl:0|cs:9615|v=4,Hublot Impex,https://www.hublotimpex.in/?pos=13&kwd=baby cellular blanket&tags=CC||||8717.363|Price|product|||TS|rsf:gd-|-stype:attr=1|qr_nm:gd|res:RC4|com-cf:nl|ptrs:na|ktp:N0|mc:99818|mtp:S|qry_typ:P|lang:en|wc:3|flavl:0|cs:9615|v=4,False,Swamy Nagar,Namakkal,"Second Floor 3/227e5/2d West Street, Nalipalayam Bypass Road K J Complex Nallipalayam, Swamy Nagar, Namakkal - 637003, Dist.Namakkal, Tamil Nadu",8048600000,
Floral Print Velvet Baby Fleece Blanket,https://www.indiamart.com/proddetail/baby-fleece-blanket-26275248388.html?pos=14&kwd=baby cellular blanket&tags=||||8752.144|Price|product|||TS|rsf:gd-|-stype:attr=1|qr_nm:gd|res:RC4|com-cf:nl|ptrs:na|ktp:N0|mc:99818|mtp:S|qry_typ:P|lang:en|wc:3|flavl:0|cs:9615|v=4,Verma Enterprises,https://www.styaloindia.com/?pos=14&kwd=baby cellular blanket&tags=||||8752.144|Price|product|||TS|rsf:gd-|-stype:attr=1|qr_nm:gd|res:RC4|com-cf:nl|ptrs:na|ktp:N0|mc:99818|mtp:S|qry_typ:P|lang:en|wc:3|flavl:0|cs:9615|v=4,False,Samaypur,New Delhi,"Plot No.180/1-B, Kh.No. 955/1, 1st, Block-C, Raja Vihar, Siraspur, Badli, North West Delhi, Samaypur, New Delhi - 110042, Dist.Delhi, Delhi",8047654672,
Velvet Baby Wrap Blanket,https://www.indiamart.com/proddetail/baby-wrap-blanket-2852308135773.html?pos=15&kwd=baby cellular blanket&tags=||||8747.203|Price|product|||TS|rsf:gd-|-stype:attr=1|qr_nm:gd|res:RC4|com-cf:nl|ptrs:na|ktp:N0|mc:99818|mtp:S|qry_typ:P|lang:en|wc:3|cs:8852|v=4,Tulsi Handicraft,https://www.indiamart.com/tulsihandicraftpanipat/?pos=15&kwd=baby cellular blanket&tags=||||8747.203|Price|product|||TS|rsf:gd-|-stype:attr=1|qr_nm:gd|res:RC4|com-cf:nl|ptrs:na|ktp:N0|mc:99818|mtp:S|qry_typ:P|lang:en|wc:3|cs:8852|v=4,False,Netaji Colony,Panipat,"10, Gangapuri Road, Netaji Colony, Panipat - 132103, Dist.Panipat, Haryana",7942837797,
Babyzone Polyester Hooded Baby Blanket Zipper,https://www.indiamart.com/proddetail/hooded-baby-blanket-zipper-23895210691.html?pos=16&kwd=baby cellular blanket&tags=||||8661.854|Price|product|||TS|rsf:gd-|-stype:attr=1|qr_nm:gd|res:RC4|com-cf:nl|ptrs:na|ktp:N0|mc:99818|mtp:S|qry_typ:P|lang:en|wc:3|cs:8852|v=4,Aggarwal Creations,https://www.aggarwalcreations.com/?pos=16&kwd=baby cellular blanket&tags=||||8661.854|Price|product|||TS|rsf:gd-|-stype:attr=1|qr_nm:gd|res:RC4|com-cf:nl|ptrs:na|ktp:N0|mc:99818|mtp:S|qry_typ:P|lang:en|wc:3|cs:8852|v=4,False,Ramesh Nagar,Ludhiana,"Geeta Nagar, Street No. 7, Tajpur Road, Ramesh Nagar, Ludhiana - 141008, Dist.Ludhiana, Punjab",8048962321,
"Meenu's Manchesters White 100 percent premium cotton Swaddles, Size: Singe, New Born Babies",https://www.indiamart.com/proddetail/100-percent-premium-cotton-swaddles-2851565208891.html?pos=17&kwd=baby cellular blanket&tags=||||8668.838|Price|product|||TS|rsf:gd-|-stype:attr=1|qr_nm:gd|res:RC4|com-cf:nl|ptrs:na|ktp:N0|mc:99818|mtp:S|qry_typ:P|lang:en|wc:3|cs:8852|v=4,Meenu's Manchesters,https://www.hotelbedsheet.in/?pos=17&kwd=baby cellular blanket&tags=||||8668.838|Price|product|||TS|rsf:gd-|-stype:attr=1|qr_nm:gd|res:RC4|com-cf:nl|ptrs:na|ktp:N0|mc:99818|mtp:S|qry_typ:P|lang:en|wc:3|cs:8852|v=4,False,Edayankattuvalsu,Erode,"26, Nggo Colony, 1, Edayankattuvalsu, Erode - 638009, Dist.Erode, Tamil Nadu",8048609221,
"Cotton Multicolor Baby Soft Flannel Blankets set, Size/Dimension: Large, 750 Gm",https://www.indiamart.com/proddetail/baby-soft-flannel-blankets-set-22496604473.html?pos=18&kwd=baby cellular blanket&tags=||||8307.81|Price|product|||TS|rsf:gd-|-stype:attr=1|qr_nm:gd|res:RC4|com-cf:nl|ptrs:na|ktp:N0|mc:99818|mtp:S|qry_typ:P|lang:en|wc:3|cs:8852|v=4,Lazytoddler Solutions Private Limited,https://www.indiamart.com/lazytoddler-solutions/?pos=18&kwd=baby cellular blanket&tags=||||8307.81|Price|product|||TS|rsf:gd-|-stype:attr=1|qr_nm:gd|res:RC4|com-cf:nl|ptrs:na|ktp:N0|mc:99818|mtp:S|qry_typ:P|lang:en|wc:3|cs:8852|v=4,False,Wakad,Pune,"A2-1001, Fl-A1, Behind Madhuban Hotel, S.No-40, Armada Parkhe Wasti, Wakad, Wakad, Pune - 411057, Dist.Pune, Maharashtra",8043819563,
Hooded Baby Blanket,https://www.indiamart.com/proddetail/hooded-baby-blanket-2852379491662.html?pos=19&kwd=baby cellular blanket&tags=||||8211.142|Price|product|||TS|rsf:gd-|-stype:attr=1|qr_nm:gd|res:RC4|com-cf:nl|ptrs:na|ktp:N0|mc:99818|mtp:S|qry_typ:P|lang:en|wc:3|cs:8852|v=4,P For Panda Baby Products Private Limited,https://www.p4pandababyproducts.com/?pos=19&kwd=baby cellular blanket&tags=||||8211.142|Price|product|||TS|rsf:gd-|-stype:attr=1|qr_nm:gd|res:RC4|com-cf:nl|ptrs:na|ktp:N0|mc:99818|mtp:S|qry_typ:P|lang:en|wc:3|cs:8852|v=4,False,Goregaon West,Mumbai,"904 A Wing,9 Th Floor,Triple S Heights,Jakeria Road, Goregaon West, Mumbai - 400064, Dist.Mumbai, Maharashtra",7942710871,
White (Base) Cotton Muslin Swaddle Blanket,https://www.indiamart.com/proddetail/cotton-muslin-swaddle-blanket-23904997948.html?pos=20&kwd=baby cellular blanket&tags=||||8231.259|Price|product|||MDC|rsf:gd-|-stype:attr=1|qr_nm:gd|res:RC4|com-cf:nl|ptrs:na|ktp:N0|mc:99818|mtp:S|qry_typ:P|lang:en|wc:3|cs:8852|v=4,Hemp Ecotex,https://www.indiamart.com/hempecotex/?pos=20&kwd=baby cellular blanket&tags=||||8231.259|Price|product|||MDC|rsf:gd-|-stype:attr=1|qr_nm:gd|res:RC4|com-cf:nl|ptrs:na|ktp:N0|mc:99818|mtp:S|qry_typ:P|lang:en|wc:3|cs:8852|v=4,False,Val,Bhiwandi,"1st Floor, H. No 1661/12 Gala No 106, BL-K, Dharam Complex, Phase-I, Rahnal Village, Val, Bhiwandi - 421302, Maharashtra",7949092530,
Baby Blanket Manufactures,https://www.indiamart.com/proddetail/baby-blanket-manufactures-2854173527491.html?pos=21&kwd=baby cellular blanket&tags=||||8747.203||product|||TS|rsf:gd-|-stype:attr=1|qr_nm:gd|res:RC4|com-cf:nl|ptrs:na|ktp:N0|mc:99818|mtp:S|qry_typ:P|lang:en|wc:3|cs:8852|v=4,Krishna Texo Fab,https://www.indiamart.com/krishna-texo-fab/?pos=21&kwd=baby cellular blanket&tags=||||8747.203||product|||TS|rsf:gd-|-stype:attr=1|qr_nm:gd|res:RC4|com-cf:nl|ptrs:na|ktp:N0|mc:99818|mtp:S|qry_typ:P|lang:en|wc:3|cs:8852|v=4,False,Old Housing Board Colony,Panipat,"1091/3 Pachranga Bazar, Old Housing Board Colony, Panipat - 132103, Dist.Panipat, Haryana",8048960024,
Red Fleece Kids Blanket,https://www.indiamart.com/proddetail/fleece-kids-blanket-23885551988.html?pos=22&kwd=baby cellular blanket&tags=||||8752.144|Price|product|||TS|rsf:gd-|-stype:attr=1|qr_nm:gd|res:RC4|com-cf:nl|ptrs:na|ktp:N0|mc:99818|mtp:S|qry_typ:P|lang:en|wc:3|cs:8852|v=4,Krishna Handloom,https://www.krishnahandloom.co.in/?pos=22&kwd=baby cellular blanket&tags=||||8752.144|Price|product|||TS|rsf:gd-|-stype:attr=1|qr_nm:gd|res:RC4|com-cf:nl|ptrs:na|ktp:N0|mc:99818|mtp:S|qry_typ:P|lang:en|wc:3|cs:8852|v=4,False,Tilak Nagar,New Delhi,"First Floor, 54/9, Ashok Nagar Opposite Jankie Vaishno Dhaba, Tilak Nagar, New Delhi - 110018, Dist.Delhi, Delhi",8048982699,
Cotton White base printed Hooded Baby Blanket,https://www.indiamart.com/proddetail/hooded-baby-blanket-2851209756255.html?pos=23&kwd=baby cellular blanket&tags=||||8668.838|Price|product|||TS|rsf:gd-|-stype:attr=1|qr_nm:gd|res:RC4|com-cf:nl|ptrs:na|ktp:N0|mc:99818|mtp:S|qry_typ:P|lang:en|wc:3|cs:8852|v=4,Ram Textiles,https://www.indiamart.com/ram-textiles/?pos=23&kwd=baby cellular blanket&tags=||||8668.838|Price|product|||TS|rsf:gd-|-stype:attr=1|qr_nm:gd|res:RC4|com-cf:nl|ptrs:na|ktp:N0|mc:99818|mtp:S|qry_typ:P|lang:en|wc:3|cs:8852|v=4,False,Veerappanchatram,Erode,"No. 131, M. G. R. Street-1, Veerappanchatram, Veerappanchatram, Erode - 638004, Dist.Erode, Tamil Nadu",8048611846,
"Pink Cotton Baby Sleeping bag, 3-12 Months",https://www.indiamart.com/proddetail/baby-sleeping-bag-2851102122262.html?pos=24&kwd=baby cellular blanket&tags=||||8752.144|Price|product|||TS|rsf:gd-|-stype:attr=1|qr_nm:gd|res:RC4|com-cf:nl|ptrs:na|ktp:N0|mc:99818|mtp:S|qry_typ:P|lang:en|wc:3|cs:8852|v=4,National Overseas,https://www.indiamart.com/nationaltraders-vishwashnagar/?pos=24&kwd=baby cellular blanket&tags=||||8752.144|Price|product|||TS|rsf:gd-|-stype:attr=1|qr_nm:gd|res:RC4|com-cf:nl|ptrs:na|ktp:N0|mc:99818|mtp:S|qry_typ:P|lang:en|wc:3|cs:8852|v=4,False,Shahdara,New Delhi,"1/99, Gali No. 3, Vishwas Nagar, Shahdara, New Delhi - 110032, Dist.Delhi, Delhi",8046047673,
White Plain Muslin Swaddle Blankets,https://www.indiamart.com/proddetail/muslin-swaddle-blankets-2854117916091.html?pos=25&kwd=baby cellular blanket&tags=||||8706.263|Price|product|||TS|rsf:gd-|-stype:attr=1|qr_nm:gd|res:RC4|com-cf:nl|ptrs:na|ktp:N0|mc:99818|mtp:S|qry_typ:P|lang:en|wc:3|cs:8852|v=4,P.R.Cottons,https://www.indiamart.com/prcottons/?pos=25&kwd=baby cellular blanket&tags=||||8706.263|Price|product|||TS|rsf:gd-|-stype:attr=1|qr_nm:gd|res:RC4|com-cf:nl|ptrs:na|ktp:N0|mc:99818|mtp:S|qry_typ:P|lang:en|wc:3|cs:8852|v=4,True,Near,Karur,"Ground Floor Room No.1, Door No.79/1, Vaiyapurinagar Ist Cross, Near, Karur - 639002, Dist.Karur, Tamil Nadu",8048608767,
Cotton Multicolor Hand Block Baby Blanket,https://www.indiamart.com/proddetail/hand-block-baby-blanket-26438743348.html?pos=26&kwd=baby cellular blanket&tags=||||8601.347|Price|product|||TS|rsf:gd-|-stype:attr=1|qr_nm:gd|res:RC4|com-cf:nl|ptrs:na|ktp:N0|mc:99818|mtp:S|qry_typ:P|lang:en|wc:3|cs:8852|v=4,Veer Handircrafts,https://www.veerhandicrafts.com/?pos=26&kwd=baby cellular blanket&tags=||||8601.347|Price|product|||TS|rsf:gd-|-stype:attr=1|qr_nm:gd|res:RC4|com-cf:nl|ptrs:na|ktp:N0|mc:99818|mtp:S|qry_typ:P|lang:en|wc:3|cs:8852|v=4,True,Shyam Nagar,Jaipur,"Basement, 192/331, Sector 19, Kumbha Marg, Shyam Nagar, Jaipur - 302029, Dist.Jaipur, Rajasthan",8043851762,
"Pink Cotton Baby sleeping bag, Packaging Type: Plastic cover, Newly Born",https://www.indiamart.com/proddetail/baby-sleeping-bag-2849605699691.html?pos=27&kwd=baby cellular blanket&tags=||||8954.051|Price|product|||MDC|rsf:gd-|-stype:attr=1|qr_nm:gd|res:RC4|com-cf:nl|ptrs:na|ktp:N0|mc:99818|mtp:S|qry_typ:P|lang:en|wc:3|cs:8852|v=4,Adhoniyah,https://www.indiamart.com/adhoniyah/?pos=27&kwd=baby cellular blanket&tags=||||8954.051|Price|product|||MDC|rsf:gd-|-stype:attr=1|qr_nm:gd|res:RC4|com-cf:nl|ptrs:na|ktp:N0|mc:99818|mtp:S|qry_typ:P|lang:en|wc:3|cs:8852|v=4,False,Jamalia,Chennai,"Ground Floor,5/4,Strahans Road I St Street,Otteri, Jamalia, Chennai - 600012, Dist.Chennai, Tamil Nadu",8048274134,
"mix colors Fleece With Radium baby warm glowing blanket, Size: Singe",https://www.indiamart.com/proddetail/baby-warm-glowing-blanket-2854537909397.html?pos=28&kwd=baby cellular blanket&tags=||||8211.142|Price|product|||TS|rsf:gd-|-stype:attr=1|qr_nm:gd|res:RC4|com-cf:nl|ptrs:na|ktp:N0|mc:99818|mtp:S|qry_typ:P|lang:en|wc:3|cs:8852|v=4,Parass Trading,https://www.indiamart.com/parasstrading/?pos=28&kwd=baby cellular blanket&tags=||||8211.142|Price|product|||TS|rsf:gd-|-stype:attr=1|qr_nm:gd|res:RC4|com-cf:nl|ptrs:na|ktp:N0|mc:99818|mtp:S|qry_typ:P|lang:en|wc:3|cs:8852|v=4,False,Chembur,Mumbai,"Room no 3, First Floor, Plot no 39, Next to Shivaji Nagar police station,Kherwadi Plot no 39, Chembur, Mumbai - 400071, Dist.Mumbai, Maharashtra",8047631170,
"Cotton Baby Plain Blanket, 3 To 24 Months, Size: 30 X 40 Inch",https://www.indiamart.com/proddetail/baby-plain-blanket-23409013630.html?pos=29&kwd=baby cellular blanket&tags=||||8706.263|Price|product|||TS|rsf:gd-|-stype:attr=1|qr_nm:gd|res:RC4|com-cf:nl|ptrs:na|ktp:N0|mc:99818|mtp:S|qry_typ:P|lang:en|wc:3|cs:8852|v=4,Sivam Export,https://www.indiamart.com/sivamexport-karur/?pos=29&kwd=baby cellular blanket&tags=||||8706.263|Price|product|||TS|rsf:gd-|-stype:attr=1|qr_nm:gd|res:RC4|com-cf:nl|ptrs:na|ktp:N0|mc:99818|mtp:S|qry_typ:P|lang:en|wc:3|cs:8852|v=4,False,,Karur,"6/1 Thiru Nagar,3rd Street, Karur - 639002, Dist.Karur, Tamil Nadu",8046050918,
Printed Baby Fleece Blanket,https://www.indiamart.com/proddetail/printed-baby-fleece-blanket-26110388462.html?pos=30&kwd=baby cellular blanket&tags=||||8661.854|Price|product|||TS|rsf:gd-|-stype:attr=1|qr_nm:gd|res:RC4|com-cf:nl|ptrs:na|ktp:N0|mc:99818|mtp:S|qry_typ:P|lang:en|wc:3|cs:8852|v=4,J.S Ahuja Hosiery Works,https://www.indiamart.com/jsahujahosieryworks/?pos=30&kwd=baby cellular blanket&tags=||||8661.854|Price|product|||TS|rsf:gd-|-stype:attr=1|qr_nm:gd|res:RC4|com-cf:nl|ptrs:na|ktp:N0|mc:99818|mtp:S|qry_typ:P|lang:en|wc:3|cs:8852|v=4,False,Sector 39-A,Ludhiana,"B-XXX-3983, St. No.2, Hargobind Pura, Near Samrala Chowk, Sector 39-A, Ludhiana - 141008, Dist.Ludhiana, Punjab",8043859618,
"White Muslin Baby Blanket, Size: Double",https://www.indiamart.com/proddetail/muslin-baby-blanket-2852594380133.html?pos=31&kwd=baby cellular blanket&tags=||||8954.051|Price|product|||TS|rsf:gd-|-stype:attr=1|qr_nm:gd|res:RC4|com-cf:nl|ptrs:na|ktp:N0|mc:99818|mtp:S|qry_typ:P|lang:en|wc:3|cs:8852|v=4,Tetra Clothing,https://www.tetraclothing.in/?pos=31&kwd=baby cellular blanket&tags=||||8954.051|Price|product|||TS|rsf:gd-|-stype:attr=1|qr_nm:gd|res:RC4|com-cf:nl|ptrs:na|ktp:N0|mc:99818|mtp:S|qry_typ:P|lang:en|wc:3|cs:8852|v=4,True,Gopichettipalaiyam,Chennai,"No. 59/28, Balu Building, Gopichettipalaiyam, Chennai - 638476, Dist.Chennai, Tamil Nadu",8048957951,
Polyester Size: Single Baby Blanket,https://www.indiamart.com/proddetail/baby-blanket-2854864899273.html?pos=32&kwd=baby cellular blanket&tags=||||8747.203||product|||TS|rsf:gd-|-stype:attr=1|qr_nm:gd|res:RC4|com-cf:nl|ptrs:na|ktp:N0|mc:99818|mtp:S|qry_typ:P|lang:en|wc:3|cs:8852|v=4,Arihant Handloom Industries,https://www.indiamart.com/arihant-handloom-industries/?pos=32&kwd=baby cellular blanket&tags=||||8747.203||product|||TS|rsf:gd-|-stype:attr=1|qr_nm:gd|res:RC4|com-cf:nl|ptrs:na|ktp:N0|mc:99818|mtp:S|qry_typ:P|lang:en|wc:3|cs:8852|v=4,False,Old Housing Board Colony,Panipat,"Opposite R.K. Public School,Chawla Colony, Kutani Road,Panipat, Old Housing Board Colony, Panipat - 132103, Dist.Panipat, Haryana",7942784484,
Velvet Size: Double Baby Blankets,https://www.indiamart.com/proddetail/baby-blankets-2854715411062.html?pos=33&kwd=baby cellular blanket&tags=||||8661.854|Price|product|||MDC|rsf:gd-|-stype:attr=1|qr_nm:gd|res:RC4|com-cf:nl|ptrs:na|ktp:N0|mc:99818|mtp:S|qry_typ:P|lang:en|wc:3|cs:8852|v=4,Universal Traders,https://www.indiamart.com/universaltraderspunjab/?pos=33&kwd=baby cellular blanket&tags=||||8661.854|Price|product|||MDC|rsf:gd-|-stype:attr=1|qr_nm:gd|res:RC4|com-cf:nl|ptrs:na|ktp:N0|mc:99818|mtp:S|qry_typ:P|lang:en|wc:3|cs:8852|v=4,False,Iqbal Ganj,Ludhiana,"B-X- 435, Telian Street, Near Iqbal Ganj Chowk, Iqbal Ganj, Ludhiana - 141008, Dist.Ludhiana, Punjab",8045731865,
Flannel Baby Blankets,https://www.indiamart.com/proddetail/flannel-baby-blankets-2358651973.html?pos=34&kwd=baby cellular blanket&tags=||||8559.269|Price|product|||TS|rsf:gd-|-stype:attr=1|qr_nm:gd|res:RC4|com-cf:nl|ptrs:na|ktp:N0|mc:99818|mtp:S|qry_typ:P|lang:en|wc:3|cs:8852|v=4,Central India Fabrics,https://www.centralindiafabrics.net/?pos=34&kwd=baby cellular blanket&tags=||||8559.269|Price|product|||TS|rsf:gd-|-stype:attr=1|qr_nm:gd|res:RC4|com-cf:nl|ptrs:na|ktp:N0|mc:99818|mtp:S|qry_typ:P|lang:en|wc:3|cs:8852|v=4,True,Avantika Nagar,Indore,"2/A/C, Sector D, Sanwer Road Opposite Bandganga Police Station, Avantika Nagar, Indore - 452015, Dist.Indore, Madhya Pradesh",8048965370,
"Mix Cotton Blankets For Kids, Size: Singe",https://www.indiamart.com/proddetail/blankets-for-kids-2851925676355.html?pos=35&kwd=baby cellular blanket&tags=||||8747.203|Price|product|||TS|rsf:gd-|-stype:attr=1|qr_nm:gd|res:RC4|com-cf:nl|ptrs:na|ktp:N0|mc:99818|mtp:S|qry_typ:P|lang:en|wc:3|cs:8852|v=4,Vardan Home Furnishings,https://www.vardanhomefurnishings.com/?pos=35&kwd=baby cellular blanket&tags=||||8747.203|Price|product|||TS|rsf:gd-|-stype:attr=1|qr_nm:gd|res:RC4|com-cf:nl|ptrs:na|ktp:N0|mc:99818|mtp:S|qry_typ:P|lang:en|wc:3|cs:8852|v=4,False,Chowk,Panipat,"Pehlwan Chowk, Vardan Home Furnishings, Kutani Road, Chowk, Panipat - 132103, Dist.Panipat, Haryana",7942957417,
Multicolor Baby Comforter,https://www.indiamart.com/proddetail/baby-comforter-2854456693933.html?pos=36&kwd=baby cellular blanket&tags=||||8747.203|Price|product|||TS|rsf:gd-|-stype:attr=1|qr_nm:gd|res:RC4|com-cf:nl|ptrs:na|ktp:N0|mc:99818|mtp:S|qry_typ:P|lang:en|wc:3|cs:8852|v=4,Pawansut Enterprises,https://www.indiamart.com/pawansutenterprises-panipat/?pos=36&kwd=baby cellular blanket&tags=||||8747.203|Price|product|||TS|rsf:gd-|-stype:attr=1|qr_nm:gd|res:RC4|com-cf:nl|ptrs:na|ktp:N0|mc:99818|mtp:S|qry_typ:P|lang:en|wc:3|cs:8852|v=4,False,Netaji Colony,Panipat,"179 Virat Nagar,,Model Town,Panipat, Netaji Colony, Panipat - 132103, Dist.Panipat, Haryana",7942956898,
Alphabet Printed Baby Wrap Blanket,https://www.indiamart.com/proddetail/alphabet-printed-baby-wrap-blanket-2854158251797.html?pos=37&kwd=baby cellular blanket&tags=||||8661.854|Price|product|||MDC|rsf:gd-|-stype:attr=1|qr_nm:gd|res:RC4|com-cf:nl|ptrs:na|ktp:N0|mc:99818|mtp:S|qry_typ:P|lang:en|wc:3|cs:8852|v=4,Sai Trading Company,https://www.indiamart.com/sai-tradingcompany-ludhiana/?pos=37&kwd=baby cellular blanket&tags=||||8661.854|Price|product|||MDC|rsf:gd-|-stype:attr=1|qr_nm:gd|res:RC4|com-cf:nl|ptrs:na|ktp:N0|mc:99818|mtp:S|qry_typ:P|lang:en|wc:3|cs:8852|v=4,False,Chaura Bazar Area,Ludhiana,"Mochpura Bazar, No. 139 Block Viii, Rajesh Shawls, Chaura Bazar Area, Ludhiana - 141008, Dist.Ludhiana, Punjab",8045736579,
Baby Pillow Cum Blanket,https://www.indiamart.com/proddetail/baby-pillow-cum-blanket-2854338251788.html?pos=38&kwd=baby cellular blanket&tags=||||8747.203|Price|product|||MDC|rsf:gd-|-stype:attr=1|qr_nm:gd|res:RC4|com-cf:nl|ptrs:na|ktp:N0|mc:99818|mtp:S|qry_typ:P|lang:en|wc:3|cs:8852|v=4,Sabmix,https://www.indiamart.com/sabmix/?pos=38&kwd=baby cellular blanket&tags=||||8747.203|Price|product|||MDC|rsf:gd-|-stype:attr=1|qr_nm:gd|res:RC4|com-cf:nl|ptrs:na|ktp:N0|mc:99818|mtp:S|qry_typ:P|lang:en|wc:3|cs:8852|v=4,False,Jattal,Panipat,"Nehar By-Pass Near Jattal Road, Near Deshwal Petrol Pump, Jattal, Panipat - 132103, Dist.Panipat, Haryana",8045165458,
"Sage Green Baby Fleece Blanket, 1 Year, Size: 30x30 cm",https://www.indiamart.com/proddetail/sage-green-baby-fleece-blanket-2851612834697.html?pos=39&kwd=baby cellular blanket&tags=||||8661.854|Price|product|||MDC|rsf:gd-|-stype:attr=1|qr_nm:gd|res:RC4|com-cf:nl|ptrs:na|ktp:N0|mc:99818|mtp:S|qry_typ:P|lang:en|wc:3|cs:8852|v=4,Raj Industries,https://www.indiamart.com/raj-industries-punjab/?pos=39&kwd=baby cellular blanket&tags=||||8661.854|Price|product|||MDC|rsf:gd-|-stype:attr=1|qr_nm:gd|res:RC4|com-cf:nl|ptrs:na|ktp:N0|mc:99818|mtp:S|qry_typ:P|lang:en|wc:3|cs:8852|v=4,False,,Ludhiana,"H. No B 12 629, Kucha Anayat, Nr Div No 2 Brown Road, Ludhiana - 141008, Dist.Ludhiana, Punjab",7942800347,
Plain Fur Sling Bag,https://www.indiamart.com/proddetail/fur-sling-bag-2851971331512.html?pos=40&kwd=baby cellular blanket&tags=||||8307.81|Price|product|||MDC|rsf:gd-|-stype:attr=1|qr_nm:gd|res:RC4|com-cf:nl|ptrs:na|ktp:N0|mc:99818|mtp:S|qry_typ:P|lang:en|wc:3|cs:8852|v=4,Neharsh Collection,https://www.indiamart.com/neharsh-collection/?pos=40&kwd=baby cellular blanket&tags=||||8307.81|Price|product|||MDC|rsf:gd-|-stype:attr=1|qr_nm:gd|res:RC4|com-cf:nl|ptrs:na|ktp:N0|mc:99818|mtp:S|qry_typ:P|lang:en|wc:3|cs:8852|v=4,False,Moshi,Pune,"C-1202 Survey No. 669 Nakshtra Land, Moshi Alandi Road, Moshi Chowk, Moshi, Pune - 412105, Dist.Pune, Maharashtra",8048604456,
"Cotton Multicolor baby godri / new born baby razai / baby quilt / bedding for cot, Single Bed, Printed",https://www.indiamart.com/proddetail/new-born-baby-blanket-baby-quilt-bedding-for-cot-baby-godri-2853243927388.html?pos=41&kwd=baby cellular blanket&tags=||||8559.269|Price|product|||MDC|rsf:gd-|-stype:attr=1|qr_nm:gd|res:RC4|com-cf:nl|ptrs:na|ktp:N0|mc:99818|mtp:S|qry_typ:P|lang:en|wc:3|cs:8852|v=4,Sheza Enterprises,https://www.indiamart.com/shezaenterprises/?pos=41&kwd=baby cellular blanket&tags=||||8559.269|Price|product|||MDC|rsf:gd-|-stype:attr=1|qr_nm:gd|res:RC4|com-cf:nl|ptrs:na|ktp:N0|mc:99818|mtp:S|qry_typ:P|lang:en|wc:3|cs:8852|v=4,False,,Indore,"Alif House, 5, Khajrana Main Road, Opposite HP Petrol Pump,, Indore - 452001, Dist.Indore, Madhya Pradesh",7948547068,
Printed Newborn Infant Baby Swaddle Blanket Sleeping Swaddle With Bag,https://www.indiamart.com/proddetail/newborn-infant-baby-swaddle-blanket-sleeping-swaddle-with-bag-23761603991.html?pos=42&kwd=baby cellular blanket&tags=||||8601.347|Price|product|||TS|rsf:gd-|-stype:attr=1|qr_nm:gd|res:RC4|com-cf:nl|ptrs:na|ktp:N0|mc:99818|mtp:S|qry_typ:P|lang:en|wc:3|cs:8852|v=4,Gopali Arts,https://www.gopaliarts.in/?pos=42&kwd=baby cellular blanket&tags=||||8601.347|Price|product|||TS|rsf:gd-|-stype:attr=1|qr_nm:gd|res:RC4|com-cf:nl|ptrs:na|ktp:N0|mc:99818|mtp:S|qry_typ:P|lang:en|wc:3|cs:8852|v=4,False,G1-652 Sitapura Phase-1,Jaipur,"G1-652, Sitapura Phase-1, G1-652 Sitapura Phase-1, Jaipur - 302022, Dist.Jaipur, Rajasthan",8048264082,
Hooded Baby Blanket,https://www.indiamart.com/proddetail/hooded-baby-blanket-2852379491662.html?pos=43&kwd=baby cellular blanket&tags=||||8211.142|Price|product|||TS|rsf:gd-|-stype:attr=1|qr_nm:gd|res:RC4|com-cf:nl|ptrs:na|ktp:N0|mc:99818|mtp:S|qry_typ:P|lang:en|wc:3|cs:8852|v=4,P For Panda Baby Products Private Limited,https://www.p4pandababyproducts.com/?pos=43&kwd=baby cellular blanket&tags=||||8211.142|Price|product|||TS|rsf:gd-|-stype:attr=1|qr_nm:gd|res:RC4|com-cf:nl|ptrs:na|ktp:N0|mc:99818|mtp:S|qry_typ:P|lang:en|wc:3|cs:8852|v=4,False,Goregaon West,Mumbai,"904 A Wing,9 Th Floor,Triple S Heights,Jakeria Road, Goregaon West, Mumbai - 400064, Dist.Mumbai, Maharashtra",7942710871,
Polyester Size: Single Baby Blanket,https://www.indiamart.com/proddetail/baby-blanket-2854864899273.html?pos=44&kwd=baby cellular blanket&tags=||||8747.203||product|||TS|rsf:gd-|-stype:attr=1|qr_nm:gd|res:RC4|com-cf:nl|ptrs:na|ktp:N0|mc:99818|mtp:S|qry_typ:P|lang:en|wc:3|cs:8852|v=4,Arihant Handloom Industries,https://www.indiamart.com/arihant-handloom-industries/?pos=44&kwd=baby cellular blanket&tags=||||8747.203||product|||TS|rsf:gd-|-stype:attr=1|qr_nm:gd|res:RC4|com-cf:nl|ptrs:na|ktp:N0|mc:99818|mtp:S|qry_typ:P|lang:en|wc:3|cs:8852|v=4,False,Old Housing Board Colony,Panipat,"Opposite R.K. Public School,Chawla Colony, Kutani Road,Panipat, Old Housing Board Colony, Panipat - 132103, Dist.Panipat, Haryana",7942784484,
Velvet Size: Double Baby Blankets,https://www.indiamart.com/proddetail/baby-blankets-2854715411062.html?pos=45&kwd=baby cellular blanket&tags=||||8661.854|Price|product|||MDC|rsf:gd-|-stype:attr=1|qr_nm:gd|res:RC4|com-cf:nl|ptrs:na|ktp:N0|mc:99818|mtp:S|qry_typ:P|lang:en|wc:3|cs:8852|v=4,Universal Traders,https://www.indiamart.com/universaltraderspunjab/?pos=45&kwd=baby cellular blanket&tags=||||8661.854|Price|product|||MDC|rsf:gd-|-stype:attr=1|qr_nm:gd|res:RC4|com-cf:nl|ptrs:na|ktp:N0|mc:99818|mtp:S|qry_typ:P|lang:en|wc:3|cs:8852|v=4,False,Iqbal Ganj,Ludhiana,"B-X- 435, Telian Street, Near Iqbal Ganj Chowk, Iqbal Ganj, Ludhiana - 141008, Dist.Ludhiana, Punjab",8045731865,
Flannel Baby Blankets,https://www.indiamart.com/proddetail/flannel-baby-blankets-2358651973.html?pos=46&kwd=baby cellular blanket&tags=||||8559.269|Price|product|||TS|rsf:gd-|-stype:attr=1|qr_nm:gd|res:RC4|com-cf:nl|ptrs:na|ktp:N0|mc:99818|mtp:S|qry_typ:P|lang:en|wc:3|cs:8852|v=4,Central India Fabrics,https://www.centralindiafabrics.net/?pos=46&kwd=baby cellular blanket&tags=||||8559.269|Price|product|||TS|rsf:gd-|-stype:attr=1|qr_nm:gd|res:RC4|com-cf:nl|ptrs:na|ktp:N0|mc:99818|mtp:S|qry_typ:P|lang:en|wc:3|cs:8852|v=4,True,Avantika Nagar,Indore,"2/A/C, Sector D, Sanwer Road Opposite Bandganga Police Station, Avantika Nagar, Indore - 452015, Dist.Indore, Madhya Pradesh",8048965370,
Babyzone Polyester Hooded Baby Blanket Zipper,https://www.indiamart.com/proddetail/hooded-baby-blanket-zipper-23895210691.html?pos=47&kwd=baby cellular blanket&tags=||||8661.854|Price|product|||TS|rsf:gd-|-stype:attr=1|qr_nm:gd|res:RC4|com-cf:nl|ptrs:na|ktp:N0|mc:99818|mtp:S|qry_typ:P|lang:en|wc:3|cs:8852|v=4,Aggarwal Creations,https://www.aggarwalcreations.com/?pos=47&kwd=baby cellular blanket&tags=||||8661.854|Price|product|||TS|rsf:gd-|-stype:attr=1|qr_nm:gd|res:RC4|com-cf:nl|ptrs:na|ktp:N0|mc:99818|mtp:S|qry_typ:P|lang:en|wc:3|cs:8852|v=4,False,Ramesh Nagar,Ludhiana,"Geeta Nagar, Street No. 7, Tajpur Road, Ramesh Nagar, Ludhiana - 141008, Dist.Ludhiana, Punjab",8048962321,
"Mix Cotton Blankets For Kids, Size: Singe",https://www.indiamart.com/proddetail/blankets-for-kids-2851925676355.html?pos=48&kwd=baby cellular blanket&tags=||||8747.203|Price|product|||TS|rsf:gd-|-stype:attr=1|qr_nm:gd|res:RC4|com-cf:nl|ptrs:na|ktp:N0|mc:99818|mtp:S|qry_typ:P|lang:en|wc:3|cs:8852|v=4,Vardan Home Furnishings,https://www.vardanhomefurnishings.com/?pos=48&kwd=baby cellular blanket&tags=||||8747.203|Price|product|||TS|rsf:gd-|-stype:attr=1|qr_nm:gd|res:RC4|com-cf:nl|ptrs:na|ktp:N0|mc:99818|mtp:S|qry_typ:P|lang:en|wc:3|cs:8852|v=4,False,Chowk,Panipat,"Pehlwan Chowk, Vardan Home Furnishings, Kutani Road, Chowk, Panipat - 132103, Dist.Panipat, Haryana",7942957417,
Multicolor Baby Comforter,https://www.indiamart.com/proddetail/baby-comforter-2854456693933.html?pos=49&kwd=baby cellular blanket&tags=||||8747.203|Price|product|||TS|rsf:gd-|-stype:attr=1|qr_nm:gd|res:RC4|com-cf:nl|ptrs:na|ktp:N0|mc:99818|mtp:S|qry_typ:P|lang:en|wc:3|cs:8852|v=4,Pawansut Enterprises,https://www.indiamart.com/pawansutenterprises-panipat/?pos=49&kwd=baby cellular blanket&tags=||||8747.203|Price|product|||TS|rsf:gd-|-stype:attr=1|qr_nm:gd|res:RC4|com-cf:nl|ptrs:na|ktp:N0|mc:99818|mtp:S|qry_typ:P|lang:en|wc:3|cs:8852|v=4,False,Netaji Colony,Panipat,"179 Virat Nagar,,Model Town,Panipat, Netaji Colony, Panipat - 132103, Dist.Panipat, Haryana",7942956898,
Baby Pillow Cum Blanket,https://www.indiamart.com/proddetail/baby-pillow-cum-blanket-2854338251788.html?pos=50&kwd=baby cellular blanket&tags=||||8747.203|Price|product|||MDC|rsf:gd-|-stype:attr=1|qr_nm:gd|res:RC4|com-cf:nl|ptrs:na|ktp:N0|mc:99818|mtp:S|qry_typ:P|lang:en|wc:3|cs:8852|v=4,Sabmix,https://www.indiamart.com/sabmix/?pos=50&kwd=baby cellular blanket&tags=||||8747.203|Price|product|||MDC|rsf:gd-|-stype:attr=1|qr_nm:gd|res:RC4|com-cf:nl|ptrs:na|ktp:N0|mc:99818|mtp:S|qry_typ:P|lang:en|wc:3|cs:8852|v=4,False,Jattal,Panipat,"Nehar By-Pass Near Jattal Road, Near Deshwal Petrol Pump, Jattal, Panipat - 132103, Dist.Panipat, Haryana",8045165458,
Plain Fur Sling Bag,https://www.indiamart.com/proddetail/fur-sling-bag-2851971331512.html?pos=51&kwd=baby cellular blanket&tags=||||8307.81|Price|product|||MDC|rsf:gd-|-stype:attr=1|qr_nm:gd|res:RC4|com-cf:nl|ptrs:na|ktp:N0|mc:99818|mtp:S|qry_typ:P|lang:en|wc:3|cs:8852|v=4,Neharsh Collection,https://www.indiamart.com/neharsh-collection/?pos=51&kwd=baby cellular blanket&tags=||||8307.81|Price|product|||MDC|rsf:gd-|-stype:attr=1|qr_nm:gd|res:RC4|com-cf:nl|ptrs:na|ktp:N0|mc:99818|mtp:S|qry_typ:P|lang:en|wc:3|cs:8852|v=4,False,Moshi,Pune,"C-1202 Survey No. 669 Nakshtra Land, Moshi Alandi Road, Moshi Chowk, Moshi, Pune - 412105, Dist.Pune, Maharashtra",8048604456,
"Cotton Multicolor baby godri / new born baby razai / baby quilt / bedding for cot, Single Bed, Printed",https://www.indiamart.com/proddetail/new-born-baby-blanket-baby-quilt-bedding-for-cot-baby-godri-2853243927388.html?pos=52&kwd=baby cellular blanket&tags=||||8559.269|Price|product|||MDC|rsf:gd-|-stype:attr=1|qr_nm:gd|res:RC4|com-cf:nl|ptrs:na|ktp:N0|mc:99818|mtp:S|qry_typ:P|lang:en|wc:3|cs:8852|v=4,Sheza Enterprises,https://www.indiamart.com/shezaenterprises/?pos=52&kwd=baby cellular blanket&tags=||||8559.269|Price|product|||MDC|rsf:gd-|-stype:attr=1|qr_nm:gd|res:RC4|com-cf:nl|ptrs:na|ktp:N0|mc:99818|mtp:S|qry_typ:P|lang:en|wc:3|cs:8852|v=4,False,,Indore,"Alif House, 5, Khajrana Main Road, Opposite HP Petrol Pump,, Indore - 452001, Dist.Indore, Madhya Pradesh",7948547068,
Printed Newborn Infant Baby Swaddle Blanket Sleeping Swaddle With Bag,https://www.indiamart.com/proddetail/newborn-infant-baby-swaddle-blanket-sleeping-swaddle-with-bag-23761603991.html?pos=53&kwd=baby cellular blanket&tags=||||8601.347|Price|product|||TS|rsf:gd-|-stype:attr=1|qr_nm:gd|res:RC4|com-cf:nl|ptrs:na|ktp:N0|mc:99818|mtp:S|qry_typ:P|lang:en|wc:3|cs:8852|v=4,Gopali Arts,https://www.gopaliarts.in/?pos=53&kwd=baby cellular blanket&tags=||||8601.347|Price|product|||TS|rsf:gd-|-stype:attr=1|qr_nm:gd|res:RC4|com-cf:nl|ptrs:na|ktp:N0|mc:99818|mtp:S|qry_typ:P|lang:en|wc:3|cs:8852|v=4,False,G1-652 Sitapura Phase-1,Jaipur,"G1-652, Sitapura Phase-1, G1-652 Sitapura Phase-1, Jaipur - 302022, Dist.Jaipur, Rajasthan",8048264082,
Baby Fleece Blanket,https://www.indiamart.com/proddetail/baby-fleece-blanket-2852599397655.html?pos=54&kwd=baby cellular blanket&tags=||||8747.203|Price|product|||TS|rsf:gd-|-stype:attr=1|qr_nm:gd|res:RC4|com-cf:nl|ptrs:na|ktp:N0|mc:99818|mtp:S|qry_typ:P|lang:en|wc:3|cs:8852|v=4,Vidya Sagar Textiles,https://www.vidyasagartextiles.com/?pos=54&kwd=baby cellular blanket&tags=||||8747.203|Price|product|||TS|rsf:gd-|-stype:attr=1|qr_nm:gd|res:RC4|com-cf:nl|ptrs:na|ktp:N0|mc:99818|mtp:S|qry_typ:P|lang:en|wc:3|cs:8852|v=4,False,Mal Godown Road,Panipat,"6, Mal Godam Road, Near Sangeet Cinema Gate, Mal Godown Road, Panipat - 132103, Dist.Panipat, Haryana",8047308149,
"little monkeys jumbo size baby cotton mosquito net bed, For Home, Size: XL",https://www.indiamart.com/proddetail/little-monkeys-jumbo-size-baby-cotton-mosquito-net-bed-2851532198888.html?pos=55&kwd=baby cellular blanket&tags=||||8752.144|Price|product|||TS|rsf:gd-|-stype:attr=1|qr_nm:gd|res:RC4|com-cf:nl|ptrs:na|ktp:N0|mc:99818|mtp:S|qry_typ:P|lang:en|wc:3|cs:8852|v=4,Ekta Overseas,https://www.indiamart.com/ektaoverseas-newdelhi/?pos=55&kwd=baby cellular blanket&tags=||||8752.144|Price|product|||TS|rsf:gd-|-stype:attr=1|qr_nm:gd|res:RC4|com-cf:nl|ptrs:na|ktp:N0|mc:99818|mtp:S|qry_typ:P|lang:en|wc:3|cs:8852|v=4,False,Shahdara,New Delhi,"1/95, Gali No.3, Near Navjeevan Phisical Center, Vishwas Nagar, Shahdara,, Shahdara, New Delhi - 110032, Dist.Delhi, Delhi",7942628926,
Printed Multicolor Micro Kids Print Comforter,https://www.indiamart.com/proddetail/micro-kids-print-comforter-12299912491.html?pos=56&kwd=baby cellular blanket&tags=||||8601.347|Price|product|||TS|rsf:gd-|-stype:attr=1|qr_nm:gd|res:RC4|com-cf:nl|ptrs:na|ktp:N0|mc:99818|mtp:S|qry_typ:P|lang:en|wc:3|cs:8852|v=4,Vicky Garments,https://www.hotellinenmanufacturer.com/?pos=56&kwd=baby cellular blanket&tags=||||8601.347|Price|product|||TS|rsf:gd-|-stype:attr=1|qr_nm:gd|res:RC4|com-cf:nl|ptrs:na|ktp:N0|mc:99818|mtp:S|qry_typ:P|lang:en|wc:3|cs:8852|v=4,False,Jhotwara,Jaipur,"No. 82, Ganga Vihar Colony, Nagal Jaisa Bohra Dadi Ka Phatak, Jhotwara, Jaipur - 302012, Dist.Jaipur, Rajasthan",8046042378,
"Cotton Multicolor Baby Soft Flannel Blankets set, Size/Dimension: Large, 750 Gm",https://www.indiamart.com/proddetail/baby-soft-flannel-blankets-set-22496604473.html?pos=57&kwd=baby cellular blanket&tags=||||8307.81|Price|product|||TS|rsf:gd-|-stype:attr=1|qr_nm:gd|res:RC4|com-cf:nl|ptrs:na|ktp:N0|mc:99818|mtp:S|qry_typ:P|lang:en|wc:3|cs:8852|v=4,Lazytoddler Solutions Private Limited,https://www.indiamart.com/lazytoddler-solutions/?pos=57&kwd=baby cellular blanket&tags=||||8307.81|Price|product|||TS|rsf:gd-|-stype:attr=1|qr_nm:gd|res:RC4|com-cf:nl|ptrs:na|ktp:N0|mc:99818|mtp:S|qry_typ:P|lang:en|wc:3|cs:8852|v=4,False,Wakad,Pune,"A2-1001, Fl-A1, Behind Madhuban Hotel, S.No-40, Armada Parkhe Wasti, Wakad, Wakad, Pune - 411057, Dist.Pune, Maharashtra",8043819563,
White Size: Single 3 layered 100% cotton muslin baby blanket,https://www.indiamart.com/proddetail/3-layered-100-cotton-muslin-baby-blanket-2854613184112.html?pos=58&kwd=baby cellular blanket&tags=||||8211.142|Price|product|||TS|rsf:gd-|-stype:attr=1|qr_nm:gd|res:RC4|com-cf:nl|ptrs:na|ktp:N0|mc:99818|mtp:S|qry_typ:P|lang:en|wc:3|cs:8852|v=4,Sidhshlok Enterprises,https://www.indiamart.com/sidhshlokenterprises/?pos=58&kwd=baby cellular blanket&tags=||||8211.142|Price|product|||TS|rsf:gd-|-stype:attr=1|qr_nm:gd|res:RC4|com-cf:nl|ptrs:na|ktp:N0|mc:99818|mtp:S|qry_typ:P|lang:en|wc:3|cs:8852|v=4,False,Mulund West,Mumbai,"A-9, Chagpar Khimaji, R R T Road, Mumbai Suburban, Mulund West, Mumbai - 400080, Dist.Mumbai, Maharashtra",7942832648,
"Cotton Red Baby Fleece Blanket, For Home, Size: Singe",https://www.indiamart.com/proddetail/baby-fleece-blanket-25350322973.html?pos=59&kwd=baby cellular blanket&tags=||||8747.203|Price|product|||TS|rsf:gd-|-stype:attr=1|qr_nm:gd|res:RC4|com-cf:nl|ptrs:na|ktp:N0|mc:99818|mtp:S|qry_typ:P|lang:en|wc:3|cs:8852|v=4,Anand International,https://www.bestvaluewholesale.co.in/?pos=59&kwd=baby cellular blanket&tags=||||8747.203|Price|product|||TS|rsf:gd-|-stype:attr=1|qr_nm:gd|res:RC4|com-cf:nl|ptrs:na|ktp:N0|mc:99818|mtp:S|qry_typ:P|lang:en|wc:3|cs:8852|v=4,False,Shiv Nagar,Panipat,"Plot No-181, Anand International, Sec-25 Part-2, Huda,, Shiv Nagar, Panipat - 132103, Dist.Panipat, Haryana",8047314578,
"Voile Multicolor Manufacturer of Handblock Printed Baby Quilts, Size: 40""x60""/60""x90""",https://www.indiamart.com/proddetail/manufacturer-of-handblock-printed-baby-quilts-2850761678862.html?pos=60&kwd=baby cellular blanket&tags=||||8601.347|Price|product|||TS|rsf:gd-|-stype:attr=1|qr_nm:gd|res:RC4|com-cf:nl|ptrs:na|ktp:N0|mc:99818|mtp:S|qry_typ:P|lang:en|wc:3|cs:8852|v=4,Indus Art And Emporium,https://www.indusart.in/?pos=60&kwd=baby cellular blanket&tags=||||8601.347|Price|product|||TS|rsf:gd-|-stype:attr=1|qr_nm:gd|res:RC4|com-cf:nl|ptrs:na|ktp:N0|mc:99818|mtp:S|qry_typ:P|lang:en|wc:3|cs:8852|v=4,True,Mansarovar,Jaipur,"H/3, First Floor, RIICO Industrial Area, Mansarovar, Jaipur - 302020, Dist.Jaipur, Rajasthan",8048956816,
Baby Fleece Blanket,https://www.indiamart.com/proddetail/baby-fleece-blanket-2852599397655.html?pos=61&kwd=baby cellular blanket&tags=||||8747.203|Price|product|||TS|rsf:gd-|-stype:attr=1|qr_nm:gd|res:RC4|com-cf:nl|ptrs:na|ktp:N0|mc:99818|mtp:S|qry_typ:P|lang:en|wc:3|cs:8852|v=4,Vidya Sagar Textiles,https://www.vidyasagartextiles.com/?pos=61&kwd=baby cellular blanket&tags=||||8747.203|Price|product|||TS|rsf:gd-|-stype:attr=1|qr_nm:gd|res:RC4|com-cf:nl|ptrs:na|ktp:N0|mc:99818|mtp:S|qry_typ:P|lang:en|wc:3|cs:8852|v=4,False,Mal Godown Road,Panipat,"6, Mal Godam Road, Near Sangeet Cinema Gate, Mal Godown Road, Panipat - 132103, Dist.Panipat, Haryana",8047308149,
"Cotton Grey Printed Baby Blanket, Size: 18x22inch",https://www.indiamart.com/proddetail/printed-baby-blanket-24314819091.html?pos=62&kwd=baby cellular blanket&tags=||||8228.275|Price|product|||MDC|rsf:gd-|-stype:attr=1|qr_nm:gd|res:RC4|com-cf:nl|ptrs:na|ktp:N0|mc:99818|mtp:S|qry_typ:P|lang:en|wc:3|cs:8852|v=4,Sanskriti Inc,https://www.indiamart.com/sanskriti-inc/?pos=62&kwd=baby cellular blanket&tags=||||8228.275|Price|product|||MDC|rsf:gd-|-stype:attr=1|qr_nm:gd|res:RC4|com-cf:nl|ptrs:na|ktp:N0|mc:99818|mtp:S|qry_typ:P|lang:en|wc:3|cs:8852|v=4,False,Nikol,Ahmedabad,"Shop No-26, Surjit Co Op H Soc Ltd, Nr. India Colony, Nikol Road, Nikol, Ahmedabad - 382350, Dist.Ahmedabad, Gujarat",8046047726,
Dvk Handicraft 100% Cotton Reversible Rainbow Kantha Cot Quilt Baby Blanket,https://www.indiamart.com/proddetail/reversible-rainbow-kantha-cot-quilt-baby-blanket-13906344055.html?pos=63&kwd=baby cellular blanket&tags=||||8601.347|Price|product|||TS|rsf:gd-|-stype:attr=1|qr_nm:gd|res:RC4|com-cf:nl|ptrs:na|ktp:N0|mc:99818|mtp:S|qry_typ:P|lang:en|wc:3|cs:8852|v=4,DVK Handicraft Private Limited,https://www.dvkhandicraft.net/?pos=63&kwd=baby cellular blanket&tags=||||8601.347|Price|product|||TS|rsf:gd-|-stype:attr=1|qr_nm:gd|res:RC4|com-cf:nl|ptrs:na|ktp:N0|mc:99818|mtp:S|qry_typ:P|lang:en|wc:3|cs:8852|v=4,True,Vaishali Nagar,Jaipur,"B-24, Ground Floor Lalrpura Aayodhya Nagar Vaisha Gandhi Path, Vaishali Nagar, Vaishali Nagar, Jaipur - 302021, Dist.Jaipur, Rajasthan",8048608928,
Unisex Baby Carry Nest/Baby Sleeping Bag/Baby Wrap for Newborn Baby Boys Girls (0-3 Months),https://www.indiamart.com/proddetail/unisex-baby-carry-nest-baby-sleeping-bag-baby-wrap-for-newborn-baby-boys-girls-0-3-months-2852997270755.html?pos=64&kwd=baby cellular blanket&tags=||||9842.824|Price|product|||TS|rsf:gd-|-stype:attr=1|qr_nm:gd|res:RC4|com-cf:nl|ptrs:na|ktp:N0|mc:99818|mtp:S|qry_typ:P|lang:en|wc:3|cs:8852|v=4,Indilittle Global Export,https://www.indiamart.com/indilittleglobalexport/?pos=64&kwd=baby cellular blanket&tags=||||9842.824|Price|product|||TS|rsf:gd-|-stype:attr=1|qr_nm:gd|res:RC4|com-cf:nl|ptrs:na|ktp:N0|mc:99818|mtp:S|qry_typ:P|lang:en|wc:3|cs:8852|v=4,False,Haripal,Hooghly,"BRAHMANPARA, NALIKUL PASCHIM, HARIPAL, Haripal, Hooghly - 712405, Dist.Hooghly, West Bengal",8048977919,
"Pink Butterthief Elephant Printed Flannel Kids AC Blanket, 8 Year, Size: 100x140 cm",https://www.indiamart.com/proddetail/butterthief-elephant-printed-flannel-kids-ac-blanket-2851237206955.html?pos=65&kwd=baby cellular blanket&tags=||||8752.144|Price|product|||TS|rsf:gd-|-stype:attr=1|qr_nm:gd|res:RC4|com-cf:nl|ptrs:na|ktp:N0|mc:99818|mtp:S|qry_typ:P|lang:en|wc:3|cs:8852|v=4,Instabuyz,https://www.indiamart.com/instabuyz/?pos=65&kwd=baby cellular blanket&tags=||||8752.144|Price|product|||TS|rsf:gd-|-stype:attr=1|qr_nm:gd|res:RC4|com-cf:nl|ptrs:na|ktp:N0|mc:99818|mtp:S|qry_typ:P|lang:en|wc:3|cs:8852|v=4,False,Paschim Vihar,New Delhi,"GH-4/319, Meera Apartments, Paschim Vihar, West Delhi, Paschim Vihar, New Delhi - 110063, Dist.Delhi, Delhi",8047696143,
White (Base) Cotton Muslin Swaddle Blanket,https://www.indiamart.com/proddetail/cotton-muslin-swaddle-blanket-23904997948.html?pos=66&kwd=baby cellular blanket&tags=||||8231.259|Price|product|||MDC|rsf:gd-|-stype:attr=1|qr_nm:gd|res:RC4|com-cf:nl|ptrs:na|ktp:N0|mc:99818|mtp:S|qry_typ:P|lang:en|wc:3|cs:8852|v=4,Hemp Ecotex,https://www.indiamart.com/hempecotex/?pos=66&kwd=baby cellular blanket&tags=||||8231.259|Price|product|||MDC|rsf:gd-|-stype:attr=1|qr_nm:gd|res:RC4|com-cf:nl|ptrs:na|ktp:N0|mc:99818|mtp:S|qry_typ:P|lang:en|wc:3|cs:8852|v=4,False,Val,Bhiwandi,"1st Floor, H. No 1661/12 Gala No 106, BL-K, Dharam Complex, Phase-I, Rahnal Village, Val, Bhiwandi - 421302, Maharashtra",7949092530,
"Pink Cotton Newborn Baby Sleeping Bags, Newly Born",https://www.indiamart.com/proddetail/newborn-baby-sleeping-bags-2854892034255.html?pos=67&kwd=baby cellular blanket&tags=||||8230.883|Price|product|||MDC|rsf:gd-|-stype:attr=1|qr_nm:gd|res:RC4|com-cf:nl|ptrs:na|ktp:N0|mc:99818|mtp:S|qry_typ:P|lang:en|wc:3|cs:8852|v=4,Whopssy International,https://www.indiamart.com/whopssy-international/?pos=67&kwd=baby cellular blanket&tags=||||8230.883|Price|product|||MDC|rsf:gd-|-stype:attr=1|qr_nm:gd|res:RC4|com-cf:nl|ptrs:na|ktp:N0|mc:99818|mtp:S|qry_typ:P|lang:en|wc:3|cs:8852|v=4,False,,Surat,"First Floor, Plot No. 377, Ram Vatika V-2, Near Rangoli Chowkdi, Sayan Road, Velenja Gam, Sayan, Surat - 394150, Dist.Surat, Gujarat",7949340041,
"Cloth Orange Baby Carry Bag, Age Group: 1-2 Years, Packaging Type: Transparent",https://www.indiamart.com/proddetail/baby-carry-bag-2851743097562.html?pos=68&kwd=baby cellular blanket&tags=||||8783.355|Price|product|||MDC|rsf:gd-|-stype:attr=1|qr_nm:gd|res:RC4|com-cf:nl|ptrs:na|ktp:N0|mc:99818|mtp:S|qry_typ:P|lang:en|wc:3|cs:8852|v=4,Om Shiv International,https://www.indiamart.com/omshivinternational/?pos=68&kwd=baby cellular blanket&tags=||||8783.355|Price|product|||MDC|rsf:gd-|-stype:attr=1|qr_nm:gd|res:RC4|com-cf:nl|ptrs:na|ktp:N0|mc:99818|mtp:S|qry_typ:P|lang:en|wc:3|cs:8852|v=4,False,Baghpat,Aminagar Sarai,"170, Gauspur, Baghpat, Baghpat, Aminagar Sarai - 250606, Dist.Bagpat, Uttar Pradesh",8048616452,
"Mercury Printed New Born Baby 100% Cotton Soft Hooded Baby Blanket, 0- 12 Months",https://www.indiamart.com/proddetail/new-born-baby-100-cotton-soft-hooded-baby-blanket-22290033655.html?pos=69&kwd=baby cellular blanket&tags=||||8706.263|Price|product|||TS|rsf:gd-|-stype:attr=1|qr_nm:gd|res:RC4|com-cf:nl|ptrs:na|ktp:N0|mc:99818|mtp:S|qry_typ:P|lang:en|wc:3|cs:8852|v=4,Mercury Weavers,https://www.indiamart.com/mercuryweavers/?pos=69&kwd=baby cellular blanket&tags=||||8706.263|Price|product|||TS|rsf:gd-|-stype:attr=1|qr_nm:gd|res:RC4|com-cf:nl|ptrs:na|ktp:N0|mc:99818|mtp:S|qry_typ:P|lang:en|wc:3|cs:8852|v=4,False,Gowripuram,Karur,"35/3, 2nd Floor, Gandhi Nagar 3rd Cross, Karur Town, Gowripuram, Karur - 639001, Dist.Karur, Tamil Nadu",8047641180,
Printed Floral Print Baby Blanket,https://www.indiamart.com/proddetail/floral-print-baby-blanket-24686439030.html?pos=70&kwd=baby cellular blanket&tags=||||8230.883|Price|product|||MDC|rsf:gd-|-stype:attr=1|qr_nm:gd|res:RC4|com-cf:nl|ptrs:na|ktp:N0|mc:99818|mtp:S|qry_typ:P|lang:en|wc:3|cs:8852|v=4,Dharmnandan Creation,https://www.indiamart.com/dharmnandancreation/?pos=70&kwd=baby cellular blanket&tags=||||8230.883|Price|product|||MDC|rsf:gd-|-stype:attr=1|qr_nm:gd|res:RC4|com-cf:nl|ptrs:na|ktp:N0|mc:99818|mtp:S|qry_typ:P|lang:en|wc:3|cs:8852|v=4,False,Udhana,Surat,"Plot No. A/10, City Ind. Estate, Udhana, Udhan Road,, Udhana, Surat - 394210, Dist.Surat, Gujarat",7942543669,
"Cotton Multicolor Baby Printed Blanket, 7 Years",https://www.indiamart.com/proddetail/baby-printed-blanket-17848671930.html?pos=71&kwd=baby cellular blanket&tags=||||8752.144|Price|product|||TS|rsf:gd-|-stype:attr=1|qr_nm:gd|res:RC4|com-cf:nl|ptrs:na|ktp:N0|mc:99818|mtp:S|qry_typ:P|lang:en|wc:3|cs:8852|v=4,Royal Rose International,https://www.indiamart.com/royal-rose-international/?pos=71&kwd=baby cellular blanket&tags=||||8752.144|Price|product|||TS|rsf:gd-|-stype:attr=1|qr_nm:gd|res:RC4|com-cf:nl|ptrs:na|ktp:N0|mc:99818|mtp:S|qry_typ:P|lang:en|wc:3|cs:8852|v=4,False,Rajindra Place,New Delhi,"27, Ground Floor, Rajindra Park, Pusa Road, Rajindra Place, New Delhi - 110060, Dist.Delhi, Delhi",8047619163,
Multicolor Baby Mink Blanket,https://www.indiamart.com/proddetail/baby-mink-blanket-2853156955255.html?pos=72&kwd=baby cellular blanket&tags=||||8747.203|Price|product|||TS|rsf:gd-|-stype:attr=1|qr_nm:gd|res:RC4|com-cf:nl|ptrs:na|ktp:N0|mc:99818|mtp:S|qry_typ:P|lang:en|wc:3|cs:8852|v=4,Avior Industries Private Limited,https://www.aviorindustries.net/?pos=72&kwd=baby cellular blanket&tags=||||8747.203|Price|product|||TS|rsf:gd-|-stype:attr=1|qr_nm:gd|res:RC4|com-cf:nl|ptrs:na|ktp:N0|mc:99818|mtp:S|qry_typ:P|lang:en|wc:3|cs:8852|v=4,False,Part-1,Panipat,"Plot No. 60, Sector-29 Part-1, Part-1, Panipat - 132103, Dist.Panipat, Haryana",7942843848,
Red Fleece Kids Blanket,https://www.indiamart.com/proddetail/fleece-kids-blanket-23885551988.html?pos=73&kwd=baby cellular blanket&tags=||||8752.144|Price|product|||TS|rsf:gd-|-stype:attr=1|qr_nm:gd|res:RC4|com-cf:nl|ptrs:na|ktp:N0|mc:99818|mtp:S|qry_typ:P|lang:en|wc:3|cs:8852|v=4,Krishna Handloom,https://www.krishnahandloom.co.in/?pos=73&kwd=baby cellular blanket&tags=||||8752.144|Price|product|||TS|rsf:gd-|-stype:attr=1|qr_nm:gd|res:RC4|com-cf:nl|ptrs:na|ktp:N0|mc:99818|mtp:S|qry_typ:P|lang:en|wc:3|cs:8852|v=4,False,Tilak Nagar,New Delhi,"First Floor, 54/9, Ashok Nagar Opposite Jankie Vaishno Dhaba, Tilak Nagar, New Delhi - 110018, Dist.Delhi, Delhi",8048982699,
Cotton White base printed Hooded Baby Blanket,https://www.indiamart.com/proddetail/hooded-baby-blanket-2851209756255.html?pos=74&kwd=baby cellular blanket&tags=||||8668.838|Price|product|||TS|rsf:gd-|-stype:attr=1|qr_nm:gd|res:RC4|com-cf:nl|ptrs:na|ktp:N0|mc:99818|mtp:S|qry_typ:P|lang:en|wc:3|cs:8852|v=4,Ram Textiles,https://www.indiamart.com/ram-textiles/?pos=74&kwd=baby cellular blanket&tags=||||8668.838|Price|product|||TS|rsf:gd-|-stype:attr=1|qr_nm:gd|res:RC4|com-cf:nl|ptrs:na|ktp:N0|mc:99818|mtp:S|qry_typ:P|lang:en|wc:3|cs:8852|v=4,False,Veerappanchatram,Erode,"No. 131, M. G. R. Street-1, Veerappanchatram, Veerappanchatram, Erode - 638004, Dist.Erode, Tamil Nadu",8048611846,
Cotton Multicolor Hand Block Baby Blanket,https://www.indiamart.com/proddetail/hand-block-baby-blanket-26438743348.html?pos=75&kwd=baby cellular blanket&tags=||||8601.347|Price|product|||TS|rsf:gd-|-stype:attr=1|qr_nm:gd|res:RC4|com-cf:nl|ptrs:na|ktp:N0|mc:99818|mtp:S|qry_typ:P|lang:en|wc:3|cs:8852|v=4,Veer Handircrafts,https://www.veerhandicrafts.com/?pos=75&kwd=baby cellular blanket&tags=||||8601.347|Price|product|||TS|rsf:gd-|-stype:attr=1|qr_nm:gd|res:RC4|com-cf:nl|ptrs:na|ktp:N0|mc:99818|mtp:S|qry_typ:P|lang:en|wc:3|cs:8852|v=4,True,Shyam Nagar,Jaipur,"Basement, 192/331, Sector 19, Kumbha Marg, Shyam Nagar, Jaipur - 302029, Dist.Jaipur, Rajasthan",8043851762,
White Plain Muslin Swaddle Blankets,https://www.indiamart.com/proddetail/muslin-swaddle-blankets-2854117916091.html?pos=76&kwd=baby cellular blanket&tags=||||8706.263|Price|product|||TS|rsf:gd-|-stype:attr=1|qr_nm:gd|res:RC4|com-cf:nl|ptrs:na|ktp:N0|mc:99818|mtp:S|qry_typ:P|lang:en|wc:3|cs:8852|v=4,P.R.Cottons,https://www.indiamart.com/prcottons/?pos=76&kwd=baby cellular blanket&tags=||||8706.263|Price|product|||TS|rsf:gd-|-stype:attr=1|qr_nm:gd|res:RC4|com-cf:nl|ptrs:na|ktp:N0|mc:99818|mtp:S|qry_typ:P|lang:en|wc:3|cs:8852|v=4,True,Near,Karur,"Ground Floor Room No.1, Door No.79/1, Vaiyapurinagar Ist Cross, Near, Karur - 639002, Dist.Karur, Tamil Nadu",8048608767,
"Pink Cotton Baby Sleeping bag, 3-12 Months",https://www.indiamart.com/proddetail/baby-sleeping-bag-2851102122262.html?pos=77&kwd=baby cellular blanket&tags=||||8752.144|Price|product|||TS|rsf:gd-|-stype:attr=1|qr_nm:gd|res:RC4|com-cf:nl|ptrs:na|ktp:N0|mc:99818|mtp:S|qry_typ:P|lang:en|wc:3|cs:8852|v=4,National Overseas,https://www.indiamart.com/nationaltraders-vishwashnagar/?pos=77&kwd=baby cellular blanket&tags=||||8752.144|Price|product|||TS|rsf:gd-|-stype:attr=1|qr_nm:gd|res:RC4|com-cf:nl|ptrs:na|ktp:N0|mc:99818|mtp:S|qry_typ:P|lang:en|wc:3|cs:8852|v=4,False,Shahdara,New Delhi,"1/99, Gali No. 3, Vishwas Nagar, Shahdara, New Delhi - 110032, Dist.Delhi, Delhi",8046047673,
mix Velour Baby Embroidered Blanket,https://www.indiamart.com/proddetail/baby-embroidered-blanket-24370209997.html?pos=78&kwd=baby cellular blanket&tags=||||8752.144|Price|product|||TS|rsf:gd-|-stype:attr=1|qr_nm:gd|res:RC4|com-cf:nl|ptrs:na|ktp:N0|mc:99818|mtp:S|qry_typ:P|lang:en|wc:3|cs:8852|v=4,Man Singh & Sons Private Limited,https://www.babyproductsmanufacturer.com/?pos=78&kwd=baby cellular blanket&tags=||||8752.144|Price|product|||TS|rsf:gd-|-stype:attr=1|qr_nm:gd|res:RC4|com-cf:nl|ptrs:na|ktp:N0|mc:99818|mtp:S|qry_typ:P|lang:en|wc:3|cs:8852|v=4,False,Karol Bagh,New Delhi,"No. 13/24, 1st Floor, W. E. A., Karol Bagh, Karol Bagh, New Delhi - 110005, Dist.Delhi, Delhi",8048978579,
"Cotton Multicolor Printed Baby Blanket, Size: Singe",https://www.indiamart.com/proddetail/printed-baby-blanket-2850870920488.html?pos=79&kwd=baby cellular blanket&tags=||||8747.203|Price|product|||TS|rsf:gd-|-stype:attr=1|qr_nm:gd|res:RC4|com-cf:nl|ptrs:na|ktp:N0|mc:99818|mtp:S|qry_typ:P|lang:en|wc:3|cs:8852|v=4,Siya Ram Enterprises,https://www.indiamart.com/siyaram-enterprises-panipat/?pos=79&kwd=baby cellular blanket&tags=||||8747.203|Price|product|||TS|rsf:gd-|-stype:attr=1|qr_nm:gd|res:RC4|com-cf:nl|ptrs:na|ktp:N0|mc:99818|mtp:S|qry_typ:P|lang:en|wc:3|cs:8852|v=4,False,Huda,Panipat,"Gali Number 3, Near Ahuja Furniture Sanoli Road, Huda, Panipat - 132103, Dist.Panipat, Haryana",8048959822,
Pink Soft Baby Blanket,https://www.indiamart.com/proddetail/soft-baby-blanket-22756878488.html?pos=80&kwd=baby cellular blanket&tags=||||8747.203|Price|product|||TS|rsf:gd-|-stype:attr=1|qr_nm:gd|res:RC4|com-cf:nl|ptrs:na|ktp:N0|mc:99818|mtp:S|qry_typ:P|lang:en|wc:3|cs:8852|v=4,Muskan Collections,https://www.indiamart.com/muskan-collections-haryana/?pos=80&kwd=baby cellular blanket&tags=||||8747.203|Price|product|||TS|rsf:gd-|-stype:attr=1|qr_nm:gd|res:RC4|com-cf:nl|ptrs:na|ktp:N0|mc:99818|mtp:S|qry_typ:P|lang:en|wc:3|cs:8852|v=4,False,Kabul Bagh,Panipat,"GALI NO 3 UGRA KHERI MOD, Kabul Bagh, Panipat - 132103, Dist.Panipat, Haryana",8047633020,
Printed Baby Fleece Blanket,https://www.indiamart.com/proddetail/baby-fleece-blanket-20967303055.html?pos=81&kwd=baby cellular blanket&tags=||||8747.203|Price|product|||TS|rsf:gd-|-stype:attr=1|qr_nm:gd|res:RC4|com-cf:nl|ptrs:na|ktp:N0|mc:99818|mtp:S|qry_typ:P|lang:en|wc:3|cs:8852|v=4,Mahalaxmi Woollen Processors,https://www.mahalaxmiwoollen.in/?pos=81&kwd=baby cellular blanket&tags=||||8747.203|Price|product|||TS|rsf:gd-|-stype:attr=1|qr_nm:gd|res:RC4|com-cf:nl|ptrs:na|ktp:N0|mc:99818|mtp:S|qry_typ:P|lang:en|wc:3|cs:8852|v=4,False,Desraj Colony,Panipat,"Desraj Colony, Desraj Colony, Panipat - 132103, Dist.Panipat, Haryana",8047645393,
Cotton Plain Baby Sleeping Bag,https://www.indiamart.com/proddetail/cotton-plain-baby-sleeping-bag-2854922515955.html?pos=82&kwd=baby cellular blanket&tags=||||8876.815|Price|product|||MDC|rsf:gd-|-stype:attr=1|qr_nm:gd|res:RC4|com-cf:nl|ptrs:na|ktp:N0|mc:99818|mtp:S|qry_typ:P|lang:en|wc:3|cs:8852|v=4,Good Luck Trading,https://www.indiamart.com/goodlucktrading-nagpur/?pos=82&kwd=baby cellular blanket&tags=||||8876.815|Price|product|||MDC|rsf:gd-|-stype:attr=1|qr_nm:gd|res:RC4|com-cf:nl|ptrs:na|ktp:N0|mc:99818|mtp:S|qry_typ:P|lang:en|wc:3|cs:8852|v=4,False,,Nagpur,"Plot No. 807, Dharamchaya Fawara Chowk Builing, Nikalas Mandir Road, Itwari, Nagpur - 440002, Dist.Nagpur, Maharashtra",8041014474,
"Cotton Baby Blue Sleeping Bags, Newly Born",https://www.indiamart.com/proddetail/baby-sleeping-bags-2854674347530.html?pos=83&kwd=baby cellular blanket&tags=||||8211.142|Price|product|||MDC|rsf:gd-|-stype:attr=1|qr_nm:gd|res:RC4|com-cf:nl|ptrs:na|ktp:N0|mc:99818|mtp:S|qry_typ:P|lang:en|wc:3|cs:8852|v=4,Apple Kids,https://www.indiamart.com/applekids-mumbai/?pos=83&kwd=baby cellular blanket&tags=||||8211.142|Price|product|||MDC|rsf:gd-|-stype:attr=1|qr_nm:gd|res:RC4|com-cf:nl|ptrs:na|ktp:N0|mc:99818|mtp:S|qry_typ:P|lang:en|wc:3|cs:8852|v=4,False,,Mumbai,"Room No 1,211/4, Janu Seth Chawl, Puspa Park, Daftary Road, Malad East Suburban, Mumbai - 400097, Dist.Mumbai, Maharashtra",7949326883,
TexKing Multicolor Kids Single Bed Cotton Comforter/ Bag Packing Best For Gift,https://www.indiamart.com/proddetail/kids-single-bed-cotton-comforter-bag-packing-best-for-gift-2854267015333.html?pos=84&kwd=baby cellular blanket&tags=||||8747.203|Price|product|||TS|rsf:gd-|-stype:attr=1|qr_nm:gd|res:RC4|com-cf:nl|ptrs:na|ktp:N0|mc:99818|mtp:S|qry_typ:P|lang:en|wc:3|cs:8852|v=4,Sri Siddhivinayak Associates,https://www.indiamart.com/sri-siddhivinayak-associates-panipat/?pos=84&kwd=baby cellular blanket&tags=||||8747.203|Price|product|||TS|rsf:gd-|-stype:attr=1|qr_nm:gd|res:RC4|com-cf:nl|ptrs:na|ktp:N0|mc:99818|mtp:S|qry_typ:P|lang:en|wc:3|cs:8852|v=4,False,,Panipat,"7,Hali Park Shopping Complex,Industrial Area,Panipat, Panipat - 132103, Dist.Panipat, Haryana",8045736424,
"Pink Cotton Baby Sleeping bag, 3-12 Months",https://www.indiamart.com/proddetail/baby-sleeping-bag-2851102122262.html?pos=85&kwd=baby cellular blanket&tags=||||8752.144|Price|product|||TS|rsf:gd-|-stype:attr=1|qr_nm:gd|res:RC4|com-cf:nl|ptrs:na|ktp:N0|mc:99818|mtp:S|qry_typ:P|lang:en|wc:3|cs:8852|v=4,National Overseas,https://www.indiamart.com/nationaltraders-vishwashnagar/?pos=85&kwd=baby cellular blanket&tags=||||8752.144|Price|product|||TS|rsf:gd-|-stype:attr=1|qr_nm:gd|res:RC4|com-cf:nl|ptrs:na|ktp:N0|mc:99818|mtp:S|qry_typ:P|lang:en|wc:3|cs:8852|v=4,False,Shahdara,New Delhi,"1/99, Gali No. 3, Vishwas Nagar, Shahdara, New Delhi - 110032, Dist.Delhi, Delhi",8046047673,
mix Velour Baby Embroidered Blanket,https://www.indiamart.com/proddetail/baby-embroidered-blanket-24370209997.html?pos=86&kwd=baby cellular blanket&tags=||||8752.144|Price|product|||TS|rsf:gd-|-stype:attr=1|qr_nm:gd|res:RC4|com-cf:nl|ptrs:na|ktp:N0|mc:99818|mtp:S|qry_typ:P|lang:en|wc:3|cs:8852|v=4,Man Singh & Sons Private Limited,https://www.babyproductsmanufacturer.com/?pos=86&kwd=baby cellular blanket&tags=||||8752.144|Price|product|||TS|rsf:gd-|-stype:attr=1|qr_nm:gd|res:RC4|com-cf:nl|ptrs:na|ktp:N0|mc:99818|mtp:S|qry_typ:P|lang:en|wc:3|cs:8852|v=4,False,Karol Bagh,New Delhi,"No. 13/24, 1st Floor, W. E. A., Karol Bagh, Karol Bagh, New Delhi - 110005, Dist.Delhi, Delhi",8048978579,
"Cotton Multicolor Printed Baby Blanket, Size: Singe",https://www.indiamart.com/proddetail/printed-baby-blanket-2850870920488.html?pos=87&kwd=baby cellular blanket&tags=||||8747.203|Price|product|||TS|rsf:gd-|-stype:attr=1|qr_nm:gd|res:RC4|com-cf:nl|ptrs:na|ktp:N0|mc:99818|mtp:S|qry_typ:P|lang:en|wc:3|cs:8852|v=4,Siya Ram Enterprises,https://www.indiamart.com/siyaram-enterprises-panipat/?pos=87&kwd=baby cellular blanket&tags=||||8747.203|Price|product|||TS|rsf:gd-|-stype:attr=1|qr_nm:gd|res:RC4|com-cf:nl|ptrs:na|ktp:N0|mc:99818|mtp:S|qry_typ:P|lang:en|wc:3|cs:8852|v=4,False,Huda,Panipat,"Gali Number 3, Near Ahuja Furniture Sanoli Road, Huda, Panipat - 132103, Dist.Panipat, Haryana",8048959822,
Pink Soft Baby Blanket,https://www.indiamart.com/proddetail/soft-baby-blanket-22756878488.html?pos=88&kwd=baby cellular blanket&tags=||||8747.203|Price|product|||TS|rsf:gd-|-stype:attr=1|qr_nm:gd|res:RC4|com-cf:nl|ptrs:na|ktp:N0|mc:99818|mtp:S|qry_typ:P|lang:en|wc:3|cs:8852|v=4,Muskan Collections,https://www.indiamart.com/muskan-collections-haryana/?pos=88&kwd=baby cellular blanket&tags=||||8747.203|Price|product|||TS|rsf:gd-|-stype:attr=1|qr_nm:gd|res:RC4|com-cf:nl|ptrs:na|ktp:N0|mc:99818|mtp:S|qry_typ:P|lang:en|wc:3|cs:8852|v=4,False,Kabul Bagh,Panipat,"GALI NO 3 UGRA KHERI MOD, Kabul Bagh, Panipat - 132103, Dist.Panipat, Haryana",8047633020,
Printed Baby Fleece Blanket,https://www.indiamart.com/proddetail/baby-fleece-blanket-20967303055.html?pos=89&kwd=baby cellular blanket&tags=||||8747.203|Price|product|||TS|rsf:gd-|-stype:attr=1|qr_nm:gd|res:RC4|com-cf:nl|ptrs:na|ktp:N0|mc:99818|mtp:S|qry_typ:P|lang:en|wc:3|cs:8852|v=4,Mahalaxmi Woollen Processors,https://www.mahalaxmiwoollen.in/?pos=89&kwd=baby cellular blanket&tags=||||8747.203|Price|product|||TS|rsf:gd-|-stype:attr=1|qr_nm:gd|res:RC4|com-cf:nl|ptrs:na|ktp:N0|mc:99818|mtp:S|qry_typ:P|lang:en|wc:3|cs:8852|v=4,False,Desraj Colony,Panipat,"Desraj Colony, Desraj Colony, Panipat - 132103, Dist.Panipat, Haryana",8047645393,
Cotton Plain Baby Sleeping Bag,https://www.indiamart.com/proddetail/cotton-plain-baby-sleeping-bag-2854922515955.html?pos=90&kwd=baby cellular blanket&tags=||||8876.815|Price|product|||MDC|rsf:gd-|-stype:attr=1|qr_nm:gd|res:RC4|com-cf:nl|ptrs:na|ktp:N0|mc:99818|mtp:S|qry_typ:P|lang:en|wc:3|cs:8852|v=4,Good Luck Trading,https://www.indiamart.com/goodlucktrading-nagpur/?pos=90&kwd=baby cellular blanket&tags=||||8876.815|Price|product|||MDC|rsf:gd-|-stype:attr=1|qr_nm:gd|res:RC4|com-cf:nl|ptrs:na|ktp:N0|mc:99818|mtp:S|qry_typ:P|lang:en|wc:3|cs:8852|v=4,False,,Nagpur,"Plot No. 807, Dharamchaya Fawara Chowk Builing, Nikalas Mandir Road, Itwari, Nagpur - 440002, Dist.Nagpur, Maharashtra",8041014474,
"Cotton Baby Blue Sleeping Bags, Newly Born",https://www.indiamart.com/proddetail/baby-sleeping-bags-2854674347530.html?pos=91&kwd=baby cellular blanket&tags=||||8211.142|Price|product|||MDC|rsf:gd-|-stype:attr=1|qr_nm:gd|res:RC4|com-cf:nl|ptrs:na|ktp:N0|mc:99818|mtp:S|qry_typ:P|lang:en|wc:3|cs:8852|v=4,Apple Kids,https://www.indiamart.com/applekids-mumbai/?pos=91&kwd=baby cellular blanket&tags=||||8211.142|Price|product|||MDC|rsf:gd-|-stype:attr=1|qr_nm:gd|res:RC4|com-cf:nl|ptrs:na|ktp:N0|mc:99818|mtp:S|qry_typ:P|lang:en|wc:3|cs:8852|v=4,False,,Mumbai,"Room No 1,211/4, Janu Seth Chawl, Puspa Park, Daftary Road, Malad East Suburban, Mumbai - 400097, Dist.Mumbai, Maharashtra",7949326883,
TexKing Multicolor Kids Single Bed Cotton Comforter/ Bag Packing Best For Gift,https://www.indiamart.com/proddetail/kids-single-bed-cotton-comforter-bag-packing-best-for-gift-2854267015333.html?pos=92&kwd=baby cellular blanket&tags=||||8747.203|Price|product|||TS|rsf:gd-|-stype:attr=1|qr_nm:gd|res:RC4|com-cf:nl|ptrs:na|ktp:N0|mc:99818|mtp:S|qry_typ:P|lang:en|wc:3|cs:8852|v=4,Sri Siddhivinayak Associates,https://www.indiamart.com/sri-siddhivinayak-associates-panipat/?pos=92&kwd=baby cellular blanket&tags=||||8747.203|Price|product|||TS|rsf:gd-|-stype:attr=1|qr_nm:gd|res:RC4|com-cf:nl|ptrs:na|ktp:N0|mc:99818|mtp:S|qry_typ:P|lang:en|wc:3|cs:8852|v=4,False,,Panipat,"7,Hali Park Shopping Complex,Industrial Area,Panipat, Panipat - 132103, Dist.Panipat, Haryana",8045736424,
"Pink Cotton-muslin Home Printed Crib Swaddling Baby Blanket for AC Room, Size: Singe",https://www.indiamart.com/proddetail/home-printed-crib-swaddling-baby-blanket-for-ac-room-2853776874555.html?pos=93&kwd=baby cellular blanket&tags=||||8706.263|Price|product|||TS|rsf:gd-|-stype:attr=1|qr_nm:gd|res:RC4|com-cf:nl|ptrs:na|ktp:N0|mc:99818|mtp:S|qry_typ:P|lang:en|wc:3|cs:8852|v=4,Shree Garments,https://www.indiamart.com/shree-garments-karur/?pos=93&kwd=baby cellular blanket&tags=||||8706.263|Price|product|||TS|rsf:gd-|-stype:attr=1|qr_nm:gd|res:RC4|com-cf:nl|ptrs:na|ktp:N0|mc:99818|mtp:S|qry_typ:P|lang:en|wc:3|cs:8852|v=4,False,Vengamedu,Karur,"6, Maruthamuthu Thottam, Opp To Sp Colony, Vengameduvengamedu,, Vengamedu, Karur - 639006, Dist.Karur, Tamil Nadu",7942719649,
Polyester Multicolor Flannel Baby Blanket,https://www.indiamart.com/proddetail/flannel-baby-blanket-2854310014391.html?pos=94&kwd=baby cellular blanket&tags=||||8747.203||product|||MDC|rsf:gd-|-stype:attr=1|qr_nm:gd|res:RC4|com-cf:nl|ptrs:na|ktp:N0|mc:99818|mtp:S|qry_typ:P|lang:en|wc:3|cs:8852|v=4,Aman Furnishings,https://www.indiamart.com/amanfurnishings/?pos=94&kwd=baby cellular blanket&tags=||||8747.203||product|||MDC|rsf:gd-|-stype:attr=1|qr_nm:gd|res:RC4|com-cf:nl|ptrs:na|ktp:N0|mc:99818|mtp:S|qry_typ:P|lang:en|wc:3|cs:8852|v=4,False,Chawla Colony,Panipat,"OPP Kanta Fabrics, Gali No. 6, Ganesh Nagar Welfare Society, Sanoli Road, Chawla Colony, Panipat - 132103, Dist.Panipat, Haryana",8044012199,
Woolen Printed Baby Blanket,https://www.indiamart.com/proddetail/printed-baby-blanket-2854728183773.html?pos=95&kwd=baby cellular blanket&tags=||||8661.854|Price|product|||TS|rsf:gd-|-stype:attr=1|qr_nm:gd|res:RC4|com-cf:nl|ptrs:na|ktp:N0|mc:99818|mtp:S|qry_typ:P|lang:en|wc:3|cs:8852|v=4,Royal Blanket,https://www.indiamart.com/royalblanket/?pos=95&kwd=baby cellular blanket&tags=||||8661.854|Price|product|||TS|rsf:gd-|-stype:attr=1|qr_nm:gd|res:RC4|com-cf:nl|ptrs:na|ktp:N0|mc:99818|mtp:S|qry_typ:P|lang:en|wc:3|cs:8852|v=4,False,Harbans Pura,Ludhiana,"B-24.H.No.4211,Street No.2, New Madho Puri, Harbans Pura, Ludhiana - 141008, Dist.Ludhiana, Punjab",8046059378,
Multicolor Baby Comforter,https://www.indiamart.com/proddetail/baby-comforter-2854456693933.html?pos=96&kwd=baby cellular blanket&tags=||||8747.203|Price|product|||TS|rsf:gd-|-stype:attr=1|qr_nm:gd|res:RC4|com-cf:nl|ptrs:na|ktp:N0|mc:99818|mtp:S|qry_typ:P|lang:en|wc:3|cs:8852|v=4,Pawansut Enterprises,https://www.indiamart.com/pawansutenterprises-panipat/?pos=96&kwd=baby cellular blanket&tags=||||8747.203|Price|product|||TS|rsf:gd-|-stype:attr=1|qr_nm:gd|res:RC4|com-cf:nl|ptrs:na|ktp:N0|mc:99818|mtp:S|qry_typ:P|lang:en|wc:3|cs:8852|v=4,False,Netaji Colony,Panipat,"179 Virat Nagar,,Model Town,Panipat, Netaji Colony, Panipat - 132103, Dist.Panipat, Haryana",7942956898,
Printed Floral Print Baby Blanket,https://www.indiamart.com/proddetail/floral-print-baby-blanket-24686439030.html?pos=97&kwd=baby cellular blanket&tags=||||8230.883|Price|product|||MDC|rsf:gd-|-stype:attr=1|qr_nm:gd|res:RC4|com-cf:nl|ptrs:na|ktp:N0|mc:99818|mtp:S|qry_typ:P|lang:en|wc:3|cs:8852|v=4,Dharmnandan Creation,https://www.indiamart.com/dharmnandancreation/?pos=97&kwd=baby cellular blanket&tags=||||8230.883|Price|product|||MDC|rsf:gd-|-stype:attr=1|qr_nm:gd|res:RC4|com-cf:nl|ptrs:na|ktp:N0|mc:99818|mtp:S|qry_typ:P|lang:en|wc:3|cs:8852|v=4,False,Udhana,Surat,"Plot No. A/10, City Ind. Estate, Udhana, Udhan Road,, Udhana, Surat - 394210, Dist.Surat, Gujarat",7942543669,
Woolen Size: Single Pv New Born Baby Blanket,https://www.indiamart.com/proddetail/pv-new-born-baby-blanket-2854715122955.html?pos=98&kwd=baby cellular blanket&tags=||||8661.854|Price|product|||MDC|rsf:gd-|-stype:attr=1|qr_nm:gd|res:RC4|com-cf:nl|ptrs:na|ktp:N0|mc:99818|mtp:S|qry_typ:P|lang:en|wc:3|cs:8852|v=4,Miglani Hosiery Factory,https://www.indiamart.com/miglani-hosiery-factory/?pos=98&kwd=baby cellular blanket&tags=||||8661.854|Price|product|||MDC|rsf:gd-|-stype:attr=1|qr_nm:gd|res:RC4|com-cf:nl|ptrs:na|ktp:N0|mc:99818|mtp:S|qry_typ:P|lang:en|wc:3|cs:8852|v=4,False,,Ludhiana,"B-IV-524, Pansari Bazar, Ludhiana - 141008, Dist.Ludhiana, Punjab",7949324357,
"100% Organic Cotton Printed Baby Fleece Blanket, New Born To 3 Yrs, Size: 120X120",https://www.indiamart.com/proddetail/baby-fleece-blanket-22954589855.html?pos=99&kwd=baby cellular blanket&tags=||||8663.873|Price|product|||TS|rsf:gd-|-stype:attr=1|qr_nm:gd|res:RC4|com-cf:nl|ptrs:na|ktp:N0|mc:99818|mtp:S|qry_typ:P|lang:en|wc:3|cs:8852|v=4,Alpha Organics Clothing India,https://www.indiamart.com/alphaorganicsclothingindia/?pos=99&kwd=baby cellular blanket&tags=||||8663.873|Price|product|||TS|rsf:gd-|-stype:attr=1|qr_nm:gd|res:RC4|com-cf:nl|ptrs:na|ktp:N0|mc:99818|mtp:S|qry_typ:P|lang:en|wc:3|cs:8852|v=4,True,Indiranagar,Bengaluru,"NO.3037,INDIRANAGAR,8TH MAIN ROAD, HAL 2ND STAGE,BANGALORE, Indiranagar, Bengaluru - 560038, Dist.Bengaluru, Karnataka",7942540831,
Cotton Multicolor Baby Receiving Blanket,https://www.indiamart.com/proddetail/baby-receiving-blanket-23352378462.html?pos=100&kwd=baby cellular blanket&tags=||||8228.275|Price|product|||TS|rsf:gd-|-stype:attr=1|qr_nm:gd|res:RC4|com-cf:nl|ptrs:na|ktp:N0|mc:99818|mtp:S|qry_typ:P|lang:en|wc:3|cs:8852|v=4,King Enterprise,https://www.kingenterpriseindia.com/?pos=100&kwd=baby cellular blanket&tags=||||8228.275|Price|product|||TS|rsf:gd-|-stype:attr=1|qr_nm:gd|res:RC4|com-cf:nl|ptrs:na|ktp:N0|mc:99818|mtp:S|qry_typ:P|lang:en|wc:3|cs:8852|v=4,False,Opp. Haripura Bus Stand,Ahmedabad,"Block- E 28, Ground Floor, Abhishek Estate-1, Opp. Haripura Bus Stand, Ahmedabad - 380016, Dist.Ahmedabad, Gujarat",8047632934,
"Cartoon Baby Hooded Blanket, Size: Singe, 0-2",https://www.indiamart.com/proddetail/baby-hooded-blanket-2851789151030.html?pos=101&kwd=baby cellular blanket&tags=||||8661.854||product|||TS|rsf:gd-|-stype:attr=1|qr_nm:gd|res:RC4|com-cf:nl|ptrs:na|ktp:N0|mc:99818|mtp:S|qry_typ:P|lang:en|wc:3|cs:8852|v=4,A K Davinder Hosiery,https://www.nnhgroups.com/?pos=101&kwd=baby cellular blanket&tags=||||8661.854||product|||TS|rsf:gd-|-stype:attr=1|qr_nm:gd|res:RC4|com-cf:nl|ptrs:na|ktp:N0|mc:99818|mtp:S|qry_typ:P|lang:en|wc:3|cs:8852|v=4,False,Madhopuri,Ludhiana,"873, Tilak Nagar, (Ganji Chhapri), Madhopuri, Ludhiana - 141008, Dist.Ludhiana, Punjab",8048607076,
"Cloudy Baby Blanket, Size: Singe",https://www.indiamart.com/proddetail/cloudy-baby-blanket-2851877609388.html?pos=102&kwd=baby cellular blanket&tags=||||8747.203|Price|product|||TS|rsf:gd-|-stype:attr=1|qr_nm:gd|res:RC4|com-cf:nl|ptrs:na|ktp:N0|mc:99818|mtp:S|qry_typ:P|lang:en|wc:3|cs:8852|v=4,Shivam Handloom,https://www.indiamart.com/shivamhandloompanipat/?pos=102&kwd=baby cellular blanket&tags=||||8747.203|Price|product|||TS|rsf:gd-|-stype:attr=1|qr_nm:gd|res:RC4|com-cf:nl|ptrs:na|ktp:N0|mc:99818|mtp:S|qry_typ:P|lang:en|wc:3|cs:8852|v=4,False,Sethi Chowk Area,Panipat,"Near Ramlilla Ground, Dawar Colony, Sethi Chowk Area, Panipat - 132103, Dist.Panipat, Haryana",7942544231,
"Cotton Pink Flannel Baby Blanket, Size: Singe",https://www.indiamart.com/proddetail/flannel-baby-blanket-2852593477333.html?pos=103&kwd=baby cellular blanket&tags=||||8747.203||product|||TS|rsf:gd-|-stype:attr=1|qr_nm:gd|res:RC4|com-cf:nl|ptrs:na|ktp:N0|mc:99818|mtp:S|qry_typ:P|lang:en|wc:3|cs:8852|v=4,Supercloudy Fashion World Private Limited,https://www.indiamart.com/supercloudyfashionworld/?pos=103&kwd=baby cellular blanket&tags=||||8747.203||product|||TS|rsf:gd-|-stype:attr=1|qr_nm:gd|res:RC4|com-cf:nl|ptrs:na|ktp:N0|mc:99818|mtp:S|qry_typ:P|lang:en|wc:3|cs:8852|v=4,False,Huda,Panipat,"Vpo Kurar, Near Jagmehar Hatchery, Huda, Panipat - 132103, Dist.Panipat, Haryana",8047303410,
Grey Polyester King Size Mink Blanket,https://www.indiamart.com/proddetail/king-size-mink-blanket-2853298634562.html?pos=104&kwd=baby cellular blanket&tags=||||8747.203|Price|product|||MDC|rsf:gd-|-stype:attr=1|qr_nm:gd|res:RC4|com-cf:nl|ptrs:na|ktp:N0|mc:99818|mtp:S|qry_typ:P|lang:en|wc:3|cs:8852|v=4,Four Seasons Handloom,https://www.indiamart.com/fourseasons-handloom/?pos=104&kwd=baby cellular blanket&tags=||||8747.203|Price|product|||MDC|rsf:gd-|-stype:attr=1|qr_nm:gd|res:RC4|com-cf:nl|ptrs:na|ktp:N0|mc:99818|mtp:S|qry_typ:P|lang:en|wc:3|cs:8852|v=4,False,Chowk,Panipat,"Shop No. R-182, Near Ram Mandir Gali, Amar Bhawan Chowk, Chowk, Panipat - 132103, Dist.Panipat, Haryana",7942707762,
"Cotton Baby White Sleeping Bag, Newly Born",https://www.indiamart.com/proddetail/baby-white-sleeping-bag-2853468608188.html?pos=105&kwd=baby cellular blanket&tags=||||8752.144|Price|product|||MDC|rsf:gd-|-stype:attr=1|qr_nm:gd|res:RC4|com-cf:nl|ptrs:na|ktp:N0|mc:99818|mtp:S|qry_typ:P|lang:en|wc:3|cs:8852|v=4,Kapil Enterprises,https://www.indiamart.com/kapilenterprisesnew-delhi/?pos=105&kwd=baby cellular blanket&tags=||||8752.144|Price|product|||MDC|rsf:gd-|-stype:attr=1|qr_nm:gd|res:RC4|com-cf:nl|ptrs:na|ktp:N0|mc:99818|mtp:S|qry_typ:P|lang:en|wc:3|cs:8852|v=4,False,Vijay Vihar,New Delhi,"Ground Floor, E-25, Vijay Vihar, Near Badi Masjid, Rohini Sector 7, North West Delhi, Vijay Vihar, New Delhi - 110085, Dist.Delhi, Delhi",7949092118,
Plain Varahaa Exports Purple Single Bed Blanket,https://www.indiamart.com/proddetail/varahaa-exports-purple-single-bed-blanket-21579594873.html?pos=106&kwd=baby cellular blanket&tags=||||8752.144|Price|product|||MDC|rsf:gd-|-stype:attr=1|qr_nm:gd|res:RC4|com-cf:nl|ptrs:na|ktp:N0|mc:99818|mtp:S|qry_typ:P|lang:en|wc:3|cs:8852|v=4,Varahaa Exports India Private Limited,https://www.indiamart.com/varahaa-exports-india/?pos=106&kwd=baby cellular blanket&tags=||||8752.144|Price|product|||MDC|rsf:gd-|-stype:attr=1|qr_nm:gd|res:RC4|com-cf:nl|ptrs:na|ktp:N0|mc:99818|mtp:S|qry_typ:P|lang:en|wc:3|cs:8852|v=4,False,Sunder Vihar,New Delhi,"Ground Floor, H. No. 409, Block-12, Sunder Vihar and Paschim Vihar, Outer Ring Road, West Delhi, Sunder Vihar, New Delhi - 110087, Dist.Delhi, Delhi",8046040566,
Woolen Size: Single Pv New Born Baby Blanket,https://www.indiamart.com/proddetail/pv-new-born-baby-blanket-2854715122955.html?pos=107&kwd=baby cellular blanket&tags=||||8661.854|Price|product|||MDC|rsf:gd-|-stype:attr=1|qr_nm:gd|res:RC4|com-cf:nl|ptrs:na|ktp:N0|mc:99818|mtp:S|qry_typ:P|lang:en|wc:3|cs:8852|v=4,Miglani Hosiery Factory,https://www.indiamart.com/miglani-hosiery-factory/?pos=107&kwd=baby cellular blanket&tags=||||8661.854|Price|product|||MDC|rsf:gd-|-stype:attr=1|qr_nm:gd|res:RC4|com-cf:nl|ptrs:na|ktp:N0|mc:99818|mtp:S|qry_typ:P|lang:en|wc:3|cs:8852|v=4,False,,Ludhiana,"B-IV-524, Pansari Bazar, Ludhiana - 141008, Dist.Ludhiana, Punjab",7949324357,
"Meera Handicrafts Cotton Baby Fur Blanket Dohra, Size: 44*44 Inch",https://www.indiamart.com/proddetail/baby-fur-blanket-dohra-22831584797.html?pos=108&kwd=baby cellular blanket&tags=||||8601.347|Price|product|||TS|rsf:gd-|-stype:attr=1|qr_nm:gd|res:RC4|com-cf:nl|ptrs:na|ktp:N0|mc:99818|mtp:S|qry_typ:P|lang:en|wc:3|cs:8852|v=4,Meera Handicrafts,https://www.meerahandicrafts.in/?pos=108&kwd=baby cellular blanket&tags=||||8601.347|Price|product|||TS|rsf:gd-|-stype:attr=1|qr_nm:gd|res:RC4|com-cf:nl|ptrs:na|ktp:N0|mc:99818|mtp:S|qry_typ:P|lang:en|wc:3|cs:8852|v=4,True,Govind Nagar,Jaipur,"Govind Nagar Vistar, Plot No 54b, Dussehra Kothi, Amer Road, Govind Nagar, Jaipur - 302002, Dist.Jaipur, Rajasthan",8048618585,
Printed Baby Blanket,https://www.indiamart.com/proddetail/baby-blanket-22286603488.html?pos=109&kwd=baby cellular blanket&tags=||||8211.142|Price|product|||TS|rsf:gd-|-stype:attr=1|qr_nm:gd|res:RC4|com-cf:nl|ptrs:na|ktp:N0|mc:99818|mtp:S|qry_typ:P|lang:en|wc:3|cs:8852|v=4,Mahalaxmi Textiles,https://www.indiamart.com/mahalaxmitextiles-maharashtra/?pos=109&kwd=baby cellular blanket&tags=||||8211.142|Price|product|||TS|rsf:gd-|-stype:attr=1|qr_nm:gd|res:RC4|com-cf:nl|ptrs:na|ktp:N0|mc:99818|mtp:S|qry_typ:P|lang:en|wc:3|cs:8852|v=4,False,Kalbadevi,Mumbai,"R. No. 11, 1st Floor, 23 Lohia Sadan, Kalbadevi Road Borana, Kalbadevi, Mumbai - 400002, Dist.Mumbai, Maharashtra",7942535985,
Baby bedding quilt blanket set5in one,https://www.indiamart.com/proddetail/baby-bedding-quilt-blanket-set5in-one-2852624913733.html?pos=110&kwd=baby cellular blanket&tags=||||8580.032|Price|product|||TS|rsf:gd-|-stype:attr=1|qr_nm:gd|res:RC4|com-cf:nl|ptrs:na|ktp:N0|mc:99818|mtp:S|qry_typ:P|lang:en|wc:3|cs:8852|v=4,Ritu Infants Care,https://www.indiamart.com/ritu-infants-care/?pos=110&kwd=baby cellular blanket&tags=||||8580.032|Price|product|||TS|rsf:gd-|-stype:attr=1|qr_nm:gd|res:RC4|com-cf:nl|ptrs:na|ktp:N0|mc:99818|mtp:S|qry_typ:P|lang:en|wc:3|cs:8852|v=4,False,Sunder Nagar,Amritsar,"232, Tilak Nagar, Shivala Colony, Sunder Nagar, Amritsar - 143001, Dist.Amritsar, Punjab",7942712512,
Pink Soft Baby Blanket,https://www.indiamart.com/proddetail/soft-baby-blanket-22756878488.html?pos=111&kwd=baby cellular blanket&tags=||||8747.203|Price|product|||TS|rsf:gd-|-stype:attr=1|qr_nm:gd|res:RC4|com-cf:nl|ptrs:na|ktp:N0|mc:99818|mtp:S|qry_typ:P|lang:en|wc:3|cs:8852|v=4,Muskan Collections,https://www.indiamart.com/muskan-collections-haryana/?pos=111&kwd=baby cellular blanket&tags=||||8747.203|Price|product|||TS|rsf:gd-|-stype:attr=1|qr_nm:gd|res:RC4|com-cf:nl|ptrs:na|ktp:N0|mc:99818|mtp:S|qry_typ:P|lang:en|wc:3|cs:8852|v=4,False,Kabul Bagh,Panipat,"GALI NO 3 UGRA KHERI MOD, Kabul Bagh, Panipat - 132103, Dist.Panipat, Haryana",8047633020,
Unisex Baby Carry Nest/Baby Sleeping Bag/Baby Wrap for Newborn Baby Boys Girls (0-3 Months),https://www.indiamart.com/proddetail/unisex-baby-carry-nest-baby-sleeping-bag-baby-wrap-for-newborn-baby-boys-girls-0-3-months-2852997270755.html?pos=112&kwd=baby cellular blanket&tags=||||9842.824|Price|product|||TS|rsf:gd-|-stype:attr=1|qr_nm:gd|res:RC4|com-cf:nl|ptrs:na|ktp:N0|mc:99818|mtp:S|qry_typ:P|lang:en|wc:3|cs:8852|v=4,Indilittle Global Export,https://www.indiamart.com/indilittleglobalexport/?pos=112&kwd=baby cellular blanket&tags=||||9842.824|Price|product|||TS|rsf:gd-|-stype:attr=1|qr_nm:gd|res:RC4|com-cf:nl|ptrs:na|ktp:N0|mc:99818|mtp:S|qry_typ:P|lang:en|wc:3|cs:8852|v=4,False,Haripal,Hooghly,"BRAHMANPARA, NALIKUL PASCHIM, HARIPAL, Haripal, Hooghly - 712405, Dist.Hooghly, West Bengal",8048977919,
"Meera Handicrafts Cotton Baby Fur Blanket Dohra, Size: 44*44 Inch",https://www.indiamart.com/proddetail/baby-fur-blanket-dohra-22831584797.html?pos=113&kwd=baby cellular blanket&tags=||||8601.347|Price|product|||TS|rsf:gd-|-stype:attr=1|qr_nm:gd|res:RC4|com-cf:nl|ptrs:na|ktp:N0|mc:99818|mtp:S|qry_typ:P|lang:en|wc:3|cs:8852|v=4,Meera Handicrafts,https://www.meerahandicrafts.in/?pos=113&kwd=baby cellular blanket&tags=||||8601.347|Price|product|||TS|rsf:gd-|-stype:attr=1|qr_nm:gd|res:RC4|com-cf:nl|ptrs:na|ktp:N0|mc:99818|mtp:S|qry_typ:P|lang:en|wc:3|cs:8852|v=4,True,Govind Nagar,Jaipur,"Govind Nagar Vistar, Plot No 54b, Dussehra Kothi, Amer Road, Govind Nagar, Jaipur - 302002, Dist.Jaipur, Rajasthan",8048618585,
Printed Baby Blanket,https://www.indiamart.com/proddetail/baby-blanket-22286603488.html?pos=114&kwd=baby cellular blanket&tags=||||8211.142|Price|product|||TS|rsf:gd-|-stype:attr=1|qr_nm:gd|res:RC4|com-cf:nl|ptrs:na|ktp:N0|mc:99818|mtp:S|qry_typ:P|lang:en|wc:3|cs:8852|v=4,Mahalaxmi Textiles,https://www.indiamart.com/mahalaxmitextiles-maharashtra/?pos=114&kwd=baby cellular blanket&tags=||||8211.142|Price|product|||TS|rsf:gd-|-stype:attr=1|qr_nm:gd|res:RC4|com-cf:nl|ptrs:na|ktp:N0|mc:99818|mtp:S|qry_typ:P|lang:en|wc:3|cs:8852|v=4,False,Kalbadevi,Mumbai,"R. No. 11, 1st Floor, 23 Lohia Sadan, Kalbadevi Road Borana, Kalbadevi, Mumbai - 400002, Dist.Mumbai, Maharashtra",7942535985,
Baby bedding quilt blanket set5in one,https://www.indiamart.com/proddetail/baby-bedding-quilt-blanket-set5in-one-2852624913733.html?pos=115&kwd=baby cellular blanket&tags=||||8580.032|Price|product|||TS|rsf:gd-|-stype:attr=1|qr_nm:gd|res:RC4|com-cf:nl|ptrs:na|ktp:N0|mc:99818|mtp:S|qry_typ:P|lang:en|wc:3|cs:8852|v=4,Ritu Infants Care,https://www.indiamart.com/ritu-infants-care/?pos=115&kwd=baby cellular blanket&tags=||||8580.032|Price|product|||TS|rsf:gd-|-stype:attr=1|qr_nm:gd|res:RC4|com-cf:nl|ptrs:na|ktp:N0|mc:99818|mtp:S|qry_typ:P|lang:en|wc:3|cs:8852|v=4,False,Sunder Nagar,Amritsar,"232, Tilak Nagar, Shivala Colony, Sunder Nagar, Amritsar - 143001, Dist.Amritsar, Punjab",7942712512,
Pink Soft Baby Blanket,https://www.indiamart.com/proddetail/soft-baby-blanket-22756878488.html?pos=116&kwd=baby cellular blanket&tags=||||8747.203|Price|product|||TS|rsf:gd-|-stype:attr=1|qr_nm:gd|res:RC4|com-cf:nl|ptrs:na|ktp:N0|mc:99818|mtp:S|qry_typ:P|lang:en|wc:3|cs:8852|v=4,Muskan Collections,https://www.indiamart.com/muskan-collections-haryana/?pos=116&kwd=baby cellular blanket&tags=||||8747.203|Price|product|||TS|rsf:gd-|-stype:attr=1|qr_nm:gd|res:RC4|com-cf:nl|ptrs:na|ktp:N0|mc:99818|mtp:S|qry_typ:P|lang:en|wc:3|cs:8852|v=4,False,Kabul Bagh,Panipat,"GALI NO 3 UGRA KHERI MOD, Kabul Bagh, Panipat - 132103, Dist.Panipat, Haryana",8047633020,
Unisex Baby Carry Nest/Baby Sleeping Bag/Baby Wrap for Newborn Baby Boys Girls (0-3 Months),https://www.indiamart.com/proddetail/unisex-baby-carry-nest-baby-sleeping-bag-baby-wrap-for-newborn-baby-boys-girls-0-3-months-2852997270755.html?pos=117&kwd=baby cellular blanket&tags=||||9842.824|Price|product|||TS|rsf:gd-|-stype:attr=1|qr_nm:gd|res:RC4|com-cf:nl|ptrs:na|ktp:N0|mc:99818|mtp:S|qry_typ:P|lang:en|wc:3|cs:8852|v=4,Indilittle Global Export,https://www.indiamart.com/indilittleglobalexport/?pos=117&kwd=baby cellular blanket&tags=||||9842.824|Price|product|||TS|rsf:gd-|-stype:attr=1|qr_nm:gd|res:RC4|com-cf:nl|ptrs:na|ktp:N0|mc:99818|mtp:S|qry_typ:P|lang:en|wc:3|cs:8852|v=4,False,Haripal,Hooghly,"BRAHMANPARA, NALIKUL PASCHIM, HARIPAL, Haripal, Hooghly - 712405, Dist.Hooghly, West Bengal",8048977919,
Cotton Baby wrapper,https://www.indiamart.com/proddetail/baby-wrapper-20089869591.html?pos=118&kwd=baby cellular blanket&tags=||||8211.142|Price|product|||MDC|rsf:gd-|-stype:attr=1|qr_nm:gd|res:RC4|com-cf:nl|ptrs:na|ktp:N0|mc:99818|mtp:S|qry_typ:P|lang:en|wc:3|cs:8852|v=4,Padam Kids,https://www.indiamart.com/padam-kids/?pos=118&kwd=baby cellular blanket&tags=||||8211.142|Price|product|||MDC|rsf:gd-|-stype:attr=1|qr_nm:gd|res:RC4|com-cf:nl|ptrs:na|ktp:N0|mc:99818|mtp:S|qry_typ:P|lang:en|wc:3|cs:8852|v=4,False,,Mumbai,"CKP Colony, Near Dargah, Behind Dr. Manish Bhatt Eksar Road, Borivali West, Mumbai - 400092, Dist.Mumbai, Maharashtra",8046057613,
"Polyester Newborn Baby Brown Hooded Wrapper Towel, Size: Medium",https://www.indiamart.com/proddetail/newborn-baby-brown-hooded-wrapper-towel-2852544604291.html?pos=119&kwd=baby cellular blanket&tags=||||8752.144|Price|product|||MDC|rsf:gd-|-stype:attr=1|qr_nm:gd|res:RC4|com-cf:nl|ptrs:na|ktp:N0|mc:99818|mtp:S|qry_typ:P|lang:en|wc:3|cs:8852|v=4,B N Hosiery,https://www.indiamart.com/bnhosiery/?pos=119&kwd=baby cellular blanket&tags=||||8752.144|Price|product|||MDC|rsf:gd-|-stype:attr=1|qr_nm:gd|res:RC4|com-cf:nl|ptrs:na|ktp:N0|mc:99818|mtp:S|qry_typ:P|lang:en|wc:3|cs:8852|v=4,False,Ashok Vihar,New Delhi,"House No 130l, Block-E, Phase-1,Ashok, Vihar, Ashok Vihar, New Delhi - 110052, Dist.Delhi, Delhi",7942706809,
Navy Blue Velvet Baby Carry Bed,https://www.indiamart.com/proddetail/navy-blue-velvet-baby-carry-bed-2854853218233.html?pos=120&kwd=baby cellular blanket&tags=||||8752.144|Price|product|||MDC|rsf:gd-|-stype:attr=1|qr_nm:gd|res:RC4|com-cf:nl|ptrs:na|ktp:N0|mc:99818|mtp:S|qry_typ:P|lang:en|wc:3|cs:8852|v=4,V P Product,https://www.indiamart.com/vpproduct/?pos=120&kwd=baby cellular blanket&tags=||||8752.144|Price|product|||MDC|rsf:gd-|-stype:attr=1|qr_nm:gd|res:RC4|com-cf:nl|ptrs:na|ktp:N0|mc:99818|mtp:S|qry_typ:P|lang:en|wc:3|cs:8852|v=4,False,,New Delhi,"Ground Floor, H.No.- E-5/139, Gali No. - 5, East Gokal Pur, North East Delhi, New Delhi - 110094, Dist.Delhi, Delhi",8044460681,
"Multicolor Cotton Baby Sleeping Bags, Newly Born",https://www.indiamart.com/proddetail/baby-sleeping-bags-2853966594733.html?pos=121&kwd=baby cellular blanket&tags=||||8228.275|Price|product|||MDC|rsf:gd-|-stype:attr=1|qr_nm:gd|res:RC4|com-cf:nl|ptrs:na|ktp:N0|mc:99818|mtp:S|qry_typ:P|lang:en|wc:3|cs:8852|v=4,Mahalaxmi Babycare Products LLP,https://www.indiamart.com/mahalaxmibabycareproducts/?pos=121&kwd=baby cellular blanket&tags=||||8228.275|Price|product|||MDC|rsf:gd-|-stype:attr=1|qr_nm:gd|res:RC4|com-cf:nl|ptrs:na|ktp:N0|mc:99818|mtp:S|qry_typ:P|lang:en|wc:3|cs:8852|v=4,False,Bapunagar,Ahmedabad,"Survey No. 00697/4585, B No 697/4585 Gujarat Hou Board, Bapunagar, Bapunagar, Ahmedabad - 382424, Dist.Ahmedabad, Gujarat",8047787256,
Printed Size: Single Organic Muslin Swaddles 100-100cms,https://www.indiamart.com/proddetail/muslin-printed-baby-blanket-2848990627133.html?pos=122&kwd=baby cellular blanket&tags=||||8626.744|Price|product|||MDC|rsf:gd-|-stype:attr=1|qr_nm:gd|res:RC4|com-cf:nl|ptrs:na|ktp:N0|mc:99818|mtp:S|qry_typ:P|lang:en|wc:3|cs:8852|v=4,Bawse Baby,https://www.indiamart.com/bawseebaby/?pos=122&kwd=baby cellular blanket&tags=||||8626.744|Price|product|||MDC|rsf:gd-|-stype:attr=1|qr_nm:gd|res:RC4|com-cf:nl|ptrs:na|ktp:N0|mc:99818|mtp:S|qry_typ:P|lang:en|wc:3|cs:8852|v=4,False,,Tiruppur,"1/125A Semmetuth Thottam, Kulathuputhur, Andipalayam, Tiruppur - 641687, Dist.Coimbatore, Tamil Nadu",8047552265,
"Charlie Printed Hooded Baby Blanket, Size: Large",https://www.indiamart.com/proddetail/hooded-baby-blanket-16496894130.html?pos=123&kwd=baby cellular blanket&tags=||||8747.203|Price|product|||TS|rsf:gd-|-stype:attr=1|qr_nm:gd|res:RC4|com-cf:nl|ptrs:na|ktp:N0|mc:99818|mtp:S|qry_typ:P|lang:en|wc:3|cs:8852|v=4,Hari Anchal Handloom,https://www.indiamart.com/harianchal-handloom/?pos=123&kwd=baby cellular blanket&tags=||||8747.203|Price|product|||TS|rsf:gd-|-stype:attr=1|qr_nm:gd|res:RC4|com-cf:nl|ptrs:na|ktp:N0|mc:99818|mtp:S|qry_typ:P|lang:en|wc:3|cs:8852|v=4,False,Panipat,Panipat,"No. 814/3, Near Prem Mandir, Pachranga Bazar 814/3, Near Prem Mandir Panipat, Panipat, Panipat - 132103, Dist.Panipat, Haryana",8048961474,
"Pink Fleece POLO D/P BABY BLANKET, Size: Singe",https://www.indiamart.com/proddetail/polo-d-p-baby-blanket-2850415615630.html?pos=124&kwd=baby cellular blanket&tags=||||8747.203|Price|product|||TS|rsf:gd-|-stype:attr=1|qr_nm:gd|res:RC4|com-cf:nl|ptrs:na|ktp:N0|mc:99818|mtp:S|qry_typ:P|lang:en|wc:3|cs:8852|v=4,Paras Blanket,https://www.parasblanket.com/?pos=124&kwd=baby cellular blanket&tags=||||8747.203|Price|product|||TS|rsf:gd-|-stype:attr=1|qr_nm:gd|res:RC4|com-cf:nl|ptrs:na|ktp:N0|mc:99818|mtp:S|qry_typ:P|lang:en|wc:3|cs:8852|v=4,False,Old Housing Board Colony,Panipat,"Shop No. 1, 2, 3, New Pachranga Market Pachranga Bazar, Old Housing Board Colony, Panipat - 132103, Dist.Panipat, Haryana",8048968656,
Printed Multicolor Kids Baby Blanket,https://www.indiamart.com/proddetail/kids-baby-blanket-24419932297.html?pos=125&kwd=baby cellular blanket&tags=||||8788.382|Price|product|||TS|rsf:gd-|-stype:attr=1|qr_nm:gd|res:RC4|com-cf:nl|ptrs:na|ktp:N0|mc:99818|mtp:S|qry_typ:P|lang:en|wc:3|cs:8852|v=4,CLOVER (A Brand of Delhi Garments Private Limited),https://www.indiamart.com/delhigarments/?pos=125&kwd=baby cellular blanket&tags=||||8788.382|Price|product|||TS|rsf:gd-|-stype:attr=1|qr_nm:gd|res:RC4|com-cf:nl|ptrs:na|ktp:N0|mc:99818|mtp:S|qry_typ:P|lang:en|wc:3|cs:8852|v=4,False,,Greater Noida,"43 Block C Sector 88, Greater Noida - 201306, Dist.Gautam Budh Nagar, Uttar Pradesh",8048265597,
Red Size: Single Printed Woolen Baby Blanket,https://www.indiamart.com/proddetail/printed-woolen-baby-blanket-26719394888.html?pos=126&kwd=baby cellular blanket&tags=||||8790.945|Price|product|||MDC|rsf:gd-|-stype:attr=1|qr_nm:gd|res:RC4|com-cf:nl|ptrs:na|ktp:N0|mc:99818|mtp:S|qry_typ:P|lang:en|wc:3|cs:8852|v=4,Luxmi Cloth House,https://www.indiamart.com/luxmi-cloth-housebilaspur/?pos=126&kwd=baby cellular blanket&tags=||||8790.945|Price|product|||MDC|rsf:gd-|-stype:attr=1|qr_nm:gd|res:RC4|com-cf:nl|ptrs:na|ktp:N0|mc:99818|mtp:S|qry_typ:P|lang:en|wc:3|cs:8852|v=4,False,,Bilaspur,"Main Bazar, Bilaspur - 135102, Haryana",8041015143,
Printed Baby Fleece Blanket,https://www.indiamart.com/proddetail/baby-fleece-blanket-20967303055.html?pos=127&kwd=baby cellular blanket&tags=||||8747.203|Price|product|||TS|rsf:gd-|-stype:attr=1|qr_nm:gd|res:RC4|com-cf:nl|ptrs:na|ktp:N0|mc:99818|mtp:S|qry_typ:P|lang:en|wc:3|cs:8852|v=4,Mahalaxmi Woollen Processors,https://www.mahalaxmiwoollen.in/?pos=127&kwd=baby cellular blanket&tags=||||8747.203|Price|product|||TS|rsf:gd-|-stype:attr=1|qr_nm:gd|res:RC4|com-cf:nl|ptrs:na|ktp:N0|mc:99818|mtp:S|qry_typ:P|lang:en|wc:3|cs:8852|v=4,False,Desraj Colony,Panipat,"Desraj Colony, Desraj Colony, Panipat - 132103, Dist.Panipat, Haryana",8047645393,
"satya Pink Printed Baby Blanket, 5, Size: 50/150",https://www.indiamart.com/proddetail/baby-printed-blanket-23527179391.html?pos=128&kwd=baby cellular blanket&tags=||||8747.203|Price|product|||TS|rsf:gd-|-stype:attr=1|qr_nm:gd|res:RC4|com-cf:nl|ptrs:na|ktp:N0|mc:99818|mtp:S|qry_typ:P|lang:en|wc:3|cs:8852|v=4,Satya Textile,https://www.indiamart.com/satyatextile/?pos=128&kwd=baby cellular blanket&tags=||||8747.203|Price|product|||TS|rsf:gd-|-stype:attr=1|qr_nm:gd|res:RC4|com-cf:nl|ptrs:na|ktp:N0|mc:99818|mtp:S|qry_typ:P|lang:en|wc:3|cs:8852|v=4,False,Netaji Colony,Panipat,"SHOP No. 324/7, SETHI Chowk,NEAR LOTUS HOSPITAL FACTORY KUTANI ROAD, Netaji Colony, Panipat - 132103, Dist.Panipat, Haryana",8046062202,
TexKing Multicolor Kids Single Bed Cotton Comforter/ Bag Packing Best For Gift,https://www.indiamart.com/proddetail/kids-single-bed-cotton-comforter-bag-packing-best-for-gift-2854267015333.html?pos=129&kwd=baby cellular blanket&tags=||||8747.203|Price|product|||TS|rsf:gd-|-stype:attr=1|qr_nm:gd|res:RC4|com-cf:nl|ptrs:na|ktp:N0|mc:99818|mtp:S|qry_typ:P|lang:en|wc:3|cs:8852|v=4,Sri Siddhivinayak Associates,https://www.indiamart.com/sri-siddhivinayak-associates-panipat/?pos=129&kwd=baby cellular blanket&tags=||||8747.203|Price|product|||TS|rsf:gd-|-stype:attr=1|qr_nm:gd|res:RC4|com-cf:nl|ptrs:na|ktp:N0|mc:99818|mtp:S|qry_typ:P|lang:en|wc:3|cs:8852|v=4,False,,Panipat,"7,Hali Park Shopping Complex,Industrial Area,Panipat, Panipat - 132103, Dist.Panipat, Haryana",8045736424,
Multicolor Kid's Mink Blankets,https://www.indiamart.com/proddetail/kid-s-mink-blankets-27465645833.html?pos=130&kwd=baby cellular blanket&tags=||||8747.203|Price|product|||TS|rsf:gd-|-stype:attr=1|qr_nm:gd|res:RC4|com-cf:nl|ptrs:na|ktp:N0|mc:99818|mtp:S|qry_typ:P|lang:en|wc:3|cs:8852|v=4,Bagma Overseas,https://www.indiamart.com/bagmaoverseas/?pos=130&kwd=baby cellular blanket&tags=||||8747.203|Price|product|||TS|rsf:gd-|-stype:attr=1|qr_nm:gd|res:RC4|com-cf:nl|ptrs:na|ktp:N0|mc:99818|mtp:S|qry_typ:P|lang:en|wc:3|cs:8852|v=4,False,Shiv Nagar,Panipat,"Shiv Nagar, Gali Number 4, Shiv Nagar, Panipat - 132103, Dist.Panipat, Haryana",8048961713,
"Cotton Soft Fabric Kids Wrapper Set, Size: Medium",https://www.indiamart.com/proddetail/kids-wrapper-set-2852890103497.html?pos=131&kwd=baby cellular blanket&tags=||||8211.142|Price|product|||TS|rsf:gd-|-stype:attr=1|qr_nm:gd|res:RC4|com-cf:nl|ptrs:na|ktp:N0|mc:99818|mtp:S|qry_typ:P|lang:en|wc:3|cs:8852|v=4,World 4 Kids,https://www.world4kids.in/?pos=131&kwd=baby cellular blanket&tags=||||8211.142|Price|product|||TS|rsf:gd-|-stype:attr=1|qr_nm:gd|res:RC4|com-cf:nl|ptrs:na|ktp:N0|mc:99818|mtp:S|qry_typ:P|lang:en|wc:3|cs:8852|v=4,False,Masjid,Mumbai,"Shop No 32 Sheriff Devji Street, Chakla, Masjid, Mumbai - 400003, Dist.Mumbai, Maharashtra",8048965492,
Pink Size: Single Baby Blankets,https://www.indiamart.com/proddetail/baby-blankets-20187683248.html?pos=132&kwd=baby cellular blanket&tags=||||8752.144|Price|product|||TS|rsf:gd-|-stype:attr=1|qr_nm:gd|res:RC4|com-cf:nl|ptrs:na|ktp:N0|mc:99818|mtp:S|qry_typ:P|lang:en|wc:3|cs:8852|v=4,Gyasi Ram & Sons,https://www.indiamart.com/gyasi-ram-sons/?pos=132&kwd=baby cellular blanket&tags=||||8752.144|Price|product|||TS|rsf:gd-|-stype:attr=1|qr_nm:gd|res:RC4|com-cf:nl|ptrs:na|ktp:N0|mc:99818|mtp:S|qry_typ:P|lang:en|wc:3|cs:8852|v=4,False,Sadar Bazaar,New Delhi,"No. 459, Main Road, Sadar Bazar, Sadar Bazaar, New Delhi - 110006, Dist.Delhi, Delhi",8043865798,
"Pink Cotton-muslin Home Printed Crib Swaddling Baby Blanket for AC Room, Size: Singe",https://www.indiamart.com/proddetail/home-printed-crib-swaddling-baby-blanket-for-ac-room-2853776874555.html?pos=133&kwd=baby cellular blanket&tags=||||8706.263|Price|product|||TS|rsf:gd-|-stype:attr=1|qr_nm:gd|res:RC4|com-cf:nl|ptrs:na|ktp:N0|mc:99818|mtp:S|qry_typ:P|lang:en|wc:3|cs:8852|v=4,Shree Garments,https://www.indiamart.com/shree-garments-karur/?pos=133&kwd=baby cellular blanket&tags=||||8706.263|Price|product|||TS|rsf:gd-|-stype:attr=1|qr_nm:gd|res:RC4|com-cf:nl|ptrs:na|ktp:N0|mc:99818|mtp:S|qry_typ:P|lang:en|wc:3|cs:8852|v=4,False,Vengamedu,Karur,"6, Maruthamuthu Thottam, Opp To Sp Colony, Vengameduvengamedu,, Vengamedu, Karur - 639006, Dist.Karur, Tamil Nadu",7942719649,
Polyester Multicolor Flannel Baby Blanket,https://www.indiamart.com/proddetail/flannel-baby-blanket-2854310014391.html?pos=134&kwd=baby cellular blanket&tags=||||8747.203||product|||MDC|rsf:gd-|-stype:attr=1|qr_nm:gd|res:RC4|com-cf:nl|ptrs:na|ktp:N0|mc:99818|mtp:S|qry_typ:P|lang:en|wc:3|cs:8852|v=4,Aman Furnishings,https://www.indiamart.com/amanfurnishings/?pos=134&kwd=baby cellular blanket&tags=||||8747.203||product|||MDC|rsf:gd-|-stype:attr=1|qr_nm:gd|res:RC4|com-cf:nl|ptrs:na|ktp:N0|mc:99818|mtp:S|qry_typ:P|lang:en|wc:3|cs:8852|v=4,False,Chawla Colony,Panipat,"OPP Kanta Fabrics, Gali No. 6, Ganesh Nagar Welfare Society, Sanoli Road, Chawla Colony, Panipat - 132103, Dist.Panipat, Haryana",8044012199,
Fleece Blue Printed Baby Blanket,https://www.indiamart.com/proddetail/printed-baby-blanket-27278242362.html?pos=135&kwd=baby cellular blanket&tags=||||8228.275|Price|product|||MDC|rsf:gd-|-stype:attr=1|qr_nm:gd|res:RC4|com-cf:nl|ptrs:na|ktp:N0|mc:99818|mtp:S|qry_typ:P|lang:en|wc:3|cs:8852|v=4,Kashyap Enterprise,https://www.indiamart.com/kashyap-enterprise-ahmedabad/?pos=135&kwd=baby cellular blanket&tags=||||8228.275|Price|product|||MDC|rsf:gd-|-stype:attr=1|qr_nm:gd|res:RC4|com-cf:nl|ptrs:na|ktp:N0|mc:99818|mtp:S|qry_typ:P|lang:en|wc:3|cs:8852|v=4,False,,Ahmedabad,"4th Floor, 432, Block - F, Sumel -6, Jupiter Mill Compound, Dudheshwar, Ahmedabad - 380004, Dist.Ahmedabad, Gujarat",8044460052,
Cartoon Blue Printed Baby Blanket,https://www.indiamart.com/proddetail/blue-printed-baby-blanket-23897595133.html?pos=136&kwd=baby cellular blanket&tags=||||8752.144|Price|product|||MDC|rsf:gd-|-stype:attr=1|qr_nm:gd|res:RC4|com-cf:nl|ptrs:na|ktp:N0|mc:99818|mtp:S|qry_typ:P|lang:en|wc:3|cs:8852|v=4,Kidz Creation,https://www.indiamart.com/kidzcreation/?pos=136&kwd=baby cellular blanket&tags=||||8752.144|Price|product|||MDC|rsf:gd-|-stype:attr=1|qr_nm:gd|res:RC4|com-cf:nl|ptrs:na|ktp:N0|mc:99818|mtp:S|qry_typ:P|lang:en|wc:3|cs:8852|v=4,False,,New Delhi,"Shop No. 279/517,Sabharwal Market, Tolia Wali Gali Sadar Bazar, North Delhi,, New Delhi - 110006, Dist.Delhi, Delhi",8047679212,
Baby bedding quilt blanket set5in one,https://www.indiamart.com/proddetail/baby-bedding-quilt-blanket-set5in-one-2852624913733.html?pos=137&kwd=baby cellular blanket&tags=||||8580.032|Price|product|||TS|rsf:gd-|-stype:attr=1|qr_nm:gd|res:RC4|com-cf:nl|ptrs:na|ktp:N0|mc:99818|mtp:S|qry_typ:P|lang:en|wc:3|cs:8852|v=4,Ritu Infants Care,https://www.indiamart.com/ritu-infants-care/?pos=137&kwd=baby cellular blanket&tags=||||8580.032|Price|product|||TS|rsf:gd-|-stype:attr=1|qr_nm:gd|res:RC4|com-cf:nl|ptrs:na|ktp:N0|mc:99818|mtp:S|qry_typ:P|lang:en|wc:3|cs:8852|v=4,False,Sunder Nagar,Amritsar,"232, Tilak Nagar, Shivala Colony, Sunder Nagar, Amritsar - 143001, Dist.Amritsar, Punjab",7942712512,
Ankit International Presents Red Non Woven Blanket Cover Transparent With Handel,https://www.indiamart.com/proddetail/ankit-international-presents-red-non-woven-blanket-cover-transparent-with-handel-24145089791.html?pos=138&kwd=baby cellular blanket&tags=||||8601.347|Price|product|||TS|rsf:gd-|-stype:attr=1|qr_nm:gd|res:RC4|com-cf:nl|ptrs:na|ktp:N0|mc:99818|mtp:S|qry_typ:P|lang:en|wc:3|cs:8852|v=4,Ankit International,https://www.indiamart.com/ankit-international-jaipur/?pos=138&kwd=baby cellular blanket&tags=||||8601.347|Price|product|||TS|rsf:gd-|-stype:attr=1|qr_nm:gd|res:RC4|com-cf:nl|ptrs:na|ktp:N0|mc:99818|mtp:S|qry_typ:P|lang:en|wc:3|cs:8852|v=4,False,Jhotwara,Jaipur,"Plot No 4, Om Durge Colony,near Gulab Badi, Factory Area Road, Jhotwara, Jhotwara, Jaipur - 302012, Dist.Jaipur, Rajasthan",8048954848,
"Organic Cotton Baby Muslin Swaddle, 0-2 Years, Mat Size: Custom",https://www.indiamart.com/proddetail/organic-cotton-baby-muslin-swaddle-14116291897.html?pos=139&kwd=baby cellular blanket&tags=||||8668.838|Price|product|||TS|rsf:gd-|-stype:attr=1|qr_nm:gd|res:RC4|com-cf:nl|ptrs:na|ktp:N0|mc:99818|mtp:S|qry_typ:P|lang:en|wc:3|cs:8852|v=4,Sri Kalyan Export Private Limited,https://www.kitchenlinens.in/?pos=139&kwd=baby cellular blanket&tags=||||8668.838|Price|product|||TS|rsf:gd-|-stype:attr=1|qr_nm:gd|res:RC4|com-cf:nl|ptrs:na|ktp:N0|mc:99818|mtp:S|qry_typ:P|lang:en|wc:3|cs:8852|v=4,True,Vilarasampatti,Erode,"No. 192/4, Iswarya Garden Sengodanpalayam, Vilarasampatti, Erode - 638107, Dist.Erode, Tamil Nadu",8048983341,
"Cotton White Baby Swaddle Wrap, Size: Medium",https://www.indiamart.com/proddetail/baby-swaddle-wrap-2853100102555.html?pos=140&kwd=baby cellular blanket&tags=||||8734.695|Price|product|||TS|rsf:gd-|-stype:attr=1|qr_nm:gd|res:RC4|com-cf:nl|ptrs:na|ktp:N0|mc:99818|mtp:S|qry_typ:P|lang:en|wc:3|cs:8852|v=4,Welcome Polymers India Private Limited,https://www.welcomepolymers.com/?pos=140&kwd=baby cellular blanket&tags=||||8734.695|Price|product|||TS|rsf:gd-|-stype:attr=1|qr_nm:gd|res:RC4|com-cf:nl|ptrs:na|ktp:N0|mc:99818|mtp:S|qry_typ:P|lang:en|wc:3|cs:8852|v=4,False,Sector 17,Bahadurgarh,"Plot No.270, Sector 17, Sector 17, Bahadurgarh - 124507, Dist.Jhajjar, Haryana",8048986357,
"Cotton Baby Wrapper, Newly Born",https://www.indiamart.com/proddetail/baby-wrapper-2854122325091.html?pos=141&kwd=baby cellular blanket&tags=||||8626.744|Price|product|||TS|rsf:gd-|-stype:attr=1|qr_nm:gd|res:RC4|com-cf:nl|ptrs:na|ktp:N0|mc:99818|mtp:S|qry_typ:P|lang:en|wc:3|cs:8852|v=4,Richie International,https://www.indiamart.com/richieinternational/?pos=141&kwd=baby cellular blanket&tags=||||8626.744|Price|product|||TS|rsf:gd-|-stype:attr=1|qr_nm:gd|res:RC4|com-cf:nl|ptrs:na|ktp:N0|mc:99818|mtp:S|qry_typ:P|lang:en|wc:3|cs:8852|v=4,False,Nallur,Tiruppur,"48 Csi Colony, Nallur, Vijayapuram Post vijayapuram kangayam road, Nallur, Tiruppur - 641606, Dist.Coimbatore, Tamil Nadu",8047698456,
Baby Sleeping Bag,,Swing 'N' Fly (A Brand of Zen Marketing),https://www.indiamart.com/zenmarketing-sahibabad/?pos=142&kwd=baby cellular blanket&tags=||||8752.144|Price|product|||TS|rsf:gd-|-stype:attr=1|qr_nm:gd|res:RC4|com-cf:nl|ptrs:na|ktp:N0|mc:99818|mtp:S|qry_typ:P|lang:en|wc:3|cs:8852|v=4,False,Alipur,New Delhi,"Ground Floor, Kh No 55/17/2, Pawan Triveni Colony, Village Bakhtawarpur triveni colony, Alipur, New Delhi - 110036, Dist.Delhi, Delhi",7942559295,
"Pink Cotton Baby Wrap, Size: Medium",https://www.indiamart.com/proddetail/pink-cotton-baby-wrap-2854497770048.html?pos=143&kwd=baby cellular blanket&tags=||||8747.203|Price|product|||MDC|rsf:gd-|-stype:attr=1|qr_nm:gd|res:RC4|com-cf:nl|ptrs:na|ktp:N0|mc:99818|mtp:S|qry_typ:P|lang:en|wc:3|cs:8852|v=4,Gandhi Wooltex,https://www.indiamart.com/gandhiwooltex/?pos=143&kwd=baby cellular blanket&tags=||||8747.203|Price|product|||MDC|rsf:gd-|-stype:attr=1|qr_nm:gd|res:RC4|com-cf:nl|ptrs:na|ktp:N0|mc:99818|mtp:S|qry_typ:P|lang:en|wc:3|cs:8852|v=4,False,,Panipat,"H No. 538, Sector 12, Huda, Panipat - 132103, Dist.Panipat, Haryana",7949338841,
"Multicolor Polyester Signature Plush Mink TWO PLY Blanket, Size: Double",https://www.indiamart.com/proddetail/signature-plush-mink-two-ply-blanket-2852692273012.html?pos=144&kwd=baby cellular blanket&tags=||||8752.144|Price|product|||MDC|rsf:gd-|-stype:attr=1|qr_nm:gd|res:RC4|com-cf:nl|ptrs:na|ktp:N0|mc:99818|mtp:S|qry_typ:P|lang:en|wc:3|cs:8852|v=4,Kataria Textorium,https://www.indiamart.com/kataria-textorium-newdelhi/?pos=144&kwd=baby cellular blanket&tags=||||8752.144|Price|product|||MDC|rsf:gd-|-stype:attr=1|qr_nm:gd|res:RC4|com-cf:nl|ptrs:na|ktp:N0|mc:99818|mtp:S|qry_typ:P|lang:en|wc:3|cs:8852|v=4,False,Tilak Nagar,New Delhi,"Wz - 10A Krishna Puri Tilak Nagar, Tilak Nagar, New Delhi - 110018, Dist.Delhi, Delhi",8048618039,
Cotton Colorful Kuddle-Up Flannel Baby Blankets(Dinosaur Print),https://www.indiamart.com/proddetail/kuddle-up-flannel-baby-blankets-dinosaur-print-2853771378812.html?pos=145&kwd=baby cellular blanket&tags=||||8307.81||product|||MDC|rsf:gd-|-stype:attr=1|qr_nm:gd|res:RC4|com-cf:nl|ptrs:na|ktp:N0|mc:99818|mtp:S|qry_typ:P|lang:en|wc:3|cs:8852|v=4,Medline Healthcare Industries Private Limited,https://www.indiamart.com/medlinehealthcareindustries/?pos=145&kwd=baby cellular blanket&tags=||||8307.81||product|||MDC|rsf:gd-|-stype:attr=1|qr_nm:gd|res:RC4|com-cf:nl|ptrs:na|ktp:N0|mc:99818|mtp:S|qry_typ:P|lang:en|wc:3|cs:8852|v=4,False,Viman Nagar,Pune,"101, Garnets Bay, Next To Hotel Four Points By Sheraton Viman Nagar, Ahmednagar Road, Viman Nagar, Pune - 411014, Dist.Pune, Maharashtra",8048958807,
Multicolor Printed Baby Muslin Swaddles,https://www.indiamart.com/proddetail/baby-swaddle-wrap-2854720231197.html?pos=146&kwd=baby cellular blanket&tags=||||8954.051|Price|product|||MDC|rsf:gd-|-stype:attr=1|qr_nm:gd|res:RC4|com-cf:nl|ptrs:na|ktp:N0|mc:99818|mtp:S|qry_typ:P|lang:en|wc:3|cs:8852|v=4,Tender Babe,https://www.indiamart.com/tenderbabe-chennai/?pos=146&kwd=baby cellular blanket&tags=||||8954.051|Price|product|||MDC|rsf:gd-|-stype:attr=1|qr_nm:gd|res:RC4|com-cf:nl|ptrs:na|ktp:N0|mc:99818|mtp:S|qry_typ:P|lang:en|wc:3|cs:8852|v=4,False,Tiruvallur,Chennai,"196/2A, Annai Teresa Street, Kavarapalayam Main Road,, Siranjivi Nagar, Avadi,, Tiruvallur, Chennai - 600054, Dist.Chennai, Tamil Nadu",7949323914,
violet (Base) Velvet Zipper Baby Carry Bed,https://www.indiamart.com/proddetail/velvet-zipper-baby-carry-bed-2854482918648.html?pos=147&kwd=baby cellular blanket&tags=||||8954.051|Price|product|||MDC|rsf:gd-|-stype:attr=1|qr_nm:gd|res:RC4|com-cf:nl|ptrs:na|ktp:N0|mc:99818|mtp:S|qry_typ:P|lang:en|wc:3|cs:8852|v=4,National Bag,https://www.indiamart.com/national-bag-chennai/?pos=147&kwd=baby cellular blanket&tags=||||8954.051|Price|product|||MDC|rsf:gd-|-stype:attr=1|qr_nm:gd|res:RC4|com-cf:nl|ptrs:na|ktp:N0|mc:99818|mtp:S|qry_typ:P|lang:en|wc:3|cs:8852|v=4,False,,Chennai,"2nd Floor, 49 Narayana Mudali Street, Sowcarpet, Chennai - 600079, Dist.Chennai, Tamil Nadu",7949336940,
"Multicolor Baby Muslin Swaddles, Size: Medium",https://www.indiamart.com/proddetail/baby-muslin-swaddles-2854292514530.html?pos=148&kwd=baby cellular blanket&tags=||||8706.263|Price|product|||MDC|rsf:gd-|-stype:attr=1|qr_nm:gd|res:RC4|com-cf:nl|ptrs:na|ktp:N0|mc:99818|mtp:S|qry_typ:P|lang:en|wc:3|cs:8852|v=4,RKND Traders,https://www.indiamart.com/rknd-traders/?pos=148&kwd=baby cellular blanket&tags=||||8706.263|Price|product|||MDC|rsf:gd-|-stype:attr=1|qr_nm:gd|res:RC4|com-cf:nl|ptrs:na|ktp:N0|mc:99818|mtp:S|qry_typ:P|lang:en|wc:3|cs:8852|v=4,False,,Karur,"No.86/66, Mettu Street, Karur - 639001, Dist.Karur, Tamil Nadu",8045730806,
Pure Cotton Baby Wrap,https://www.indiamart.com/proddetail/pure-cotton-baby-wrap-2854269033962.html?pos=149&kwd=baby cellular blanket&tags=||||8838.804|Price|product|||MDC|rsf:gd-|-stype:attr=1|qr_nm:gd|res:RC4|com-cf:nl|ptrs:na|ktp:N0|mc:99818|mtp:S|qry_typ:P|lang:en|wc:3|cs:8852|v=4,Fabric Fusion,https://www.indiamart.com/fabric-fusion-up/?pos=149&kwd=baby cellular blanket&tags=||||8838.804|Price|product|||MDC|rsf:gd-|-stype:attr=1|qr_nm:gd|res:RC4|com-cf:nl|ptrs:na|ktp:N0|mc:99818|mtp:S|qry_typ:P|lang:en|wc:3|cs:8852|v=4,False,,Aligarh,"Duplex No 1, Next to Green Park Masjid, Green Park Colony, Aligarh - 202001, Uttar Pradesh",8044560687,
Multicolor Baby Cotton Muslin Swaddles,https://www.indiamart.com/proddetail/baby-cotton-muslin-swaddles-2852518940088.html?pos=150&kwd=baby cellular blanket&tags=||||8668.838|Price|product|||MDC|rsf:gd-|-stype:attr=1|qr_nm:gd|res:RC4|com-cf:nl|ptrs:na|ktp:N0|mc:99818|mtp:S|qry_typ:P|lang:en|wc:3|cs:8852|v=4,Rakshita Exports,https://www.indiamart.com/rakshita-exports/?pos=150&kwd=baby cellular blanket&tags=||||8668.838|Price|product|||MDC|rsf:gd-|-stype:attr=1|qr_nm:gd|res:RC4|com-cf:nl|ptrs:na|ktp:N0|mc:99818|mtp:S|qry_typ:P|lang:en|wc:3|cs:8852|v=4,False,erode,Erode,"95/1, Bagiya Complex, Nasiyanur Road, Ondikkaranpalayam, erode, Erode - 638107, Dist.Erode, Tamil Nadu",7942708189,
"Pink Fleece POLO D/P BABY BLANKET, Size: Singe",https://www.indiamart.com/proddetail/polo-d-p-baby-blanket-2850415615630.html?pos=151&kwd=baby cellular blanket&tags=||||8747.203|Price|product|||TS|rsf:gd-|-stype:attr=1|qr_nm:gd|res:RC4|com-cf:nl|ptrs:na|ktp:N0|mc:99818|mtp:S|qry_typ:P|lang:en|wc:3|cs:8852|v=4,Paras Blanket,https://www.parasblanket.com/?pos=151&kwd=baby cellular blanket&tags=||||8747.203|Price|product|||TS|rsf:gd-|-stype:attr=1|qr_nm:gd|res:RC4|com-cf:nl|ptrs:na|ktp:N0|mc:99818|mtp:S|qry_typ:P|lang:en|wc:3|cs:8852|v=4,False,Old Housing Board Colony,Panipat,"Shop No. 1, 2, 3, New Pachranga Market Pachranga Bazar, Old Housing Board Colony, Panipat - 132103, Dist.Panipat, Haryana",8048968656,
Cotton New Born Baby Hooded Wrapper Blanket,https://www.indiamart.com/proddetail/new-born-baby-hooded-wrapper-blanket-2853459918362.html?pos=152&kwd=baby cellular blanket&tags=||||8662.111|Price|product|||TS|rsf:gd-|-stype:attr=1|qr_nm:gd|res:RC4|com-cf:nl|ptrs:na|ktp:N0|mc:99818|mtp:S|qry_typ:P|lang:en|wc:3|cs:8852|v=4,Rovee Garments,https://www.indiamart.com/rovee-garments/?pos=152&kwd=baby cellular blanket&tags=||||8662.111|Price|product|||TS|rsf:gd-|-stype:attr=1|qr_nm:gd|res:RC4|com-cf:nl|ptrs:na|ktp:N0|mc:99818|mtp:S|qry_typ:P|lang:en|wc:3|cs:8852|v=4,False,State Bank Colony,Tirunelveli,"70, State Bank Colony, Ezhil Nagar, Ngo A Colony, State Bank Colony, Tirunelveli - 627007, Dist.Tirunelveli, Tamil Nadu",7942840922,
Pink Baby Muslin Swaddles,https://www.indiamart.com/proddetail/baby-muslin-swaddles-2853954058412.html?pos=153&kwd=baby cellular blanket&tags=||||8706.263|Price|product|||TS|rsf:gd-|-stype:attr=1|qr_nm:gd|res:RC4|com-cf:nl|ptrs:na|ktp:N0|mc:99818|mtp:S|qry_typ:P|lang:en|wc:3|cs:8852|v=4,L S Textiles And Exports Private Limited,https://www.indiamart.com/lstextiles/?pos=153&kwd=baby cellular blanket&tags=||||8706.263|Price|product|||TS|rsf:gd-|-stype:attr=1|qr_nm:gd|res:RC4|com-cf:nl|ptrs:na|ktp:N0|mc:99818|mtp:S|qry_typ:P|lang:en|wc:3|cs:8852|v=4,True,Punnam,Karur,"S.F.No.141/13 South Punnam Village, Pugalur Taluk Palamapuram, Punnam, Karur - 639136, Dist.Karur, Tamil Nadu",8047851645,
Plastic Baby Play Gym Hanging Toys,https://www.indiamart.com/proddetail/baby-play-gym-hanging-toys-2854208428973.html?pos=154&kwd=baby cellular blanket&tags=||||8752.144|Price|product|||TS|rsf:gd-|-stype:attr=1|qr_nm:gd|res:RC4|com-cf:nl|ptrs:na|ktp:N0|mc:99818|mtp:S|qry_typ:P|lang:en|wc:3|cs:8852|v=4,Indial Premium Products,https://www.indiamart.com/indial-premium-products/?pos=154&kwd=baby cellular blanket&tags=||||8752.144|Price|product|||TS|rsf:gd-|-stype:attr=1|qr_nm:gd|res:RC4|com-cf:nl|ptrs:na|ktp:N0|mc:99818|mtp:S|qry_typ:P|lang:en|wc:3|cs:8852|v=4,False,,New Delhi,"68, K Block, Jahangirpuri North West Delhi, New Delhi - 110033, Dist.Delhi, Delhi",8045732973,
Blue (Base) Size: Single Baby Printed Velvet Blanket,https://www.indiamart.com/proddetail/baby-printed-velvet-blanket-2854978172091.html?pos=155&kwd=baby cellular blanket&tags=||||8786.56|Price|product|||MDC|rsf:gd-|-stype:attr=1|qr_nm:gd|res:RC4|com-cf:nl|ptrs:na|ktp:N0|mc:99818|mtp:S|qry_typ:P|lang:en|wc:3|cs:8852|v=4,Vinod And Company,https://www.indiamart.com/vinodcompany-hyderabad/?pos=155&kwd=baby cellular blanket&tags=||||8786.56|Price|product|||MDC|rsf:gd-|-stype:attr=1|qr_nm:gd|res:RC4|com-cf:nl|ptrs:na|ktp:N0|mc:99818|mtp:S|qry_typ:P|lang:en|wc:3|cs:8852|v=4,False,Feelkhana,Hyderabad,"15/8/514/1/D, Feelkhana, Begum Bazar, Feelkhana, Hyderabad - 500012, Dist.Hyderabad, Telangana",7949086154,
"Charlie Printed Hooded Baby Blanket, Size: Large",https://www.indiamart.com/proddetail/hooded-baby-blanket-16496894130.html?pos=156&kwd=baby cellular blanket&tags=||||8747.203|Price|product|||TS|rsf:gd-|-stype:attr=1|qr_nm:gd|res:RC4|com-cf:nl|ptrs:na|ktp:N0|mc:99818|mtp:S|qry_typ:P|lang:en|wc:3|cs:8852|v=4,Hari Anchal Handloom,https://www.indiamart.com/harianchal-handloom/?pos=156&kwd=baby cellular blanket&tags=||||8747.203|Price|product|||TS|rsf:gd-|-stype:attr=1|qr_nm:gd|res:RC4|com-cf:nl|ptrs:na|ktp:N0|mc:99818|mtp:S|qry_typ:P|lang:en|wc:3|cs:8852|v=4,False,Panipat,Panipat,"No. 814/3, Near Prem Mandir, Pachranga Bazar 814/3, Near Prem Mandir Panipat, Panipat, Panipat - 132103, Dist.Panipat, Haryana",8048961474,
"Pink Printed Baby Blanket, Size: Singe",https://www.indiamart.com/proddetail/printed-baby-blanket-22006672888.html?pos=157&kwd=baby cellular blanket&tags=||||8752.144|Price|product|||TS|rsf:gd-|-stype:attr=1|qr_nm:gd|res:RC4|com-cf:nl|ptrs:na|ktp:N0|mc:99818|mtp:S|qry_typ:P|lang:en|wc:3|cs:8852|v=4,Dua Traders,https://www.indiamart.com/duatraders-delhi/?pos=157&kwd=baby cellular blanket&tags=||||8752.144|Price|product|||TS|rsf:gd-|-stype:attr=1|qr_nm:gd|res:RC4|com-cf:nl|ptrs:na|ktp:N0|mc:99818|mtp:S|qry_typ:P|lang:en|wc:3|cs:8852|v=4,False,Mandoli,New Delhi,"Plot No. 8, Kh No. 4/24, Mela Ram Vatika, E-block, JR Complex No. 4, Mandoli, Sevadham, Mandoli, New Delhi - 110093, Dist.Delhi, Delhi",8048971741,
"Velvet Blue Baby Mink Blanket, Size: Singe",https://www.indiamart.com/proddetail/baby-mink-blanket-2852958199997.html?pos=158&kwd=baby cellular blanket&tags=||||8601.347|Price|product|||TS|rsf:gd-|-stype:attr=1|qr_nm:gd|res:RC4|com-cf:nl|ptrs:na|ktp:N0|mc:99818|mtp:S|qry_typ:P|lang:en|wc:3|cs:8852|v=4,Sunil Ji Kapde Wale,https://www.ssigrunsamikshagupta.com/?pos=158&kwd=baby cellular blanket&tags=||||8601.347|Price|product|||TS|rsf:gd-|-stype:attr=1|qr_nm:gd|res:RC4|com-cf:nl|ptrs:na|ktp:N0|mc:99818|mtp:S|qry_typ:P|lang:en|wc:3|cs:8852|v=4,False,Madrampur,Jaipur,"12,Shahar House,Barwara House Colony,Ajmer Road,Jaipur,Jaipur, Madrampur, Jaipur - 302006, Dist.Jaipur, Rajasthan",7942635712,
Printed Multicolor Kids Baby Blanket,https://www.indiamart.com/proddetail/kids-baby-blanket-24419932297.html?pos=159&kwd=baby cellular blanket&tags=||||8788.382|Price|product|||TS|rsf:gd-|-stype:attr=1|qr_nm:gd|res:RC4|com-cf:nl|ptrs:na|ktp:N0|mc:99818|mtp:S|qry_typ:P|lang:en|wc:3|cs:8852|v=4,CLOVER (A Brand of Delhi Garments Private Limited),https://www.indiamart.com/delhigarments/?pos=159&kwd=baby cellular blanket&tags=||||8788.382|Price|product|||TS|rsf:gd-|-stype:attr=1|qr_nm:gd|res:RC4|com-cf:nl|ptrs:na|ktp:N0|mc:99818|mtp:S|qry_typ:P|lang:en|wc:3|cs:8852|v=4,False,,Greater Noida,"43 Block C Sector 88, Greater Noida - 201306, Dist.Gautam Budh Nagar, Uttar Pradesh",8048265597,
"kidofash mixcolor Baby Cotton Blanket, Size: Singe, 0-4 Yr",https://www.indiamart.com/proddetail/baby-cotton-blanket-2851226919062.html?pos=160&kwd=baby cellular blanket&tags=||||8752.144|Price|product|||TS|rsf:gd-|-stype:attr=1|qr_nm:gd|res:RC4|com-cf:nl|ptrs:na|ktp:N0|mc:99818|mtp:S|qry_typ:P|lang:en|wc:3|cs:8852|v=4,Swastik Enterprises,https://www.indiamart.com/swastikentpndelhi/?pos=160&kwd=baby cellular blanket&tags=||||8752.144|Price|product|||TS|rsf:gd-|-stype:attr=1|qr_nm:gd|res:RC4|com-cf:nl|ptrs:na|ktp:N0|mc:99818|mtp:S|qry_typ:P|lang:en|wc:3|cs:8852|v=4,False,Shastri Nagar,New Delhi,"M 29, Shastri Nagar, Street No. 1, Shastri Nagar, New Delhi - 110052, Dist.Delhi, Delhi",8048607766,
"Cotton White Block Printed Baby Blanket Baby Quilt, Single Bed",https://www.indiamart.com/proddetail/block-printed-baby-blanket-baby-quilt-27468856612.html?pos=161&kwd=baby cellular blanket&tags=||||8601.347|Price|product|||TS|rsf:gd-|-stype:attr=1|qr_nm:gd|res:RC4|com-cf:nl|ptrs:na|ktp:N0|mc:99818|mtp:S|qry_typ:P|lang:en|wc:3|cs:8852|v=4,Mohit Handicrafts And Textile,https://www.indiamart.com/mohit-handicrafts-and-textile/?pos=161&kwd=baby cellular blanket&tags=||||8601.347|Price|product|||TS|rsf:gd-|-stype:attr=1|qr_nm:gd|res:RC4|com-cf:nl|ptrs:na|ktp:N0|mc:99818|mtp:S|qry_typ:P|lang:en|wc:3|cs:8852|v=4,True,,Jaipur,"Sitarampuri, 50, Amer Road, Jaipur - 302002, Dist.Jaipur, Rajasthan",8043859041,
Mink Hetvik Enterprises Baby Blanket,https://www.indiamart.com/proddetail/hetvik-enterprises-baby-blanket-24680021597.html?pos=162&kwd=baby cellular blanket&tags=||||8747.203|Price|product|||TS|rsf:gd-|-stype:attr=1|qr_nm:gd|res:RC4|com-cf:nl|ptrs:na|ktp:N0|mc:99818|mtp:S|qry_typ:P|lang:en|wc:3|cs:8852|v=4,Hetvik Enterprise,https://www.indiamart.com/hetvik-enterprise/?pos=162&kwd=baby cellular blanket&tags=||||8747.203|Price|product|||TS|rsf:gd-|-stype:attr=1|qr_nm:gd|res:RC4|com-cf:nl|ptrs:na|ktp:N0|mc:99818|mtp:S|qry_typ:P|lang:en|wc:3|cs:8852|v=4,False,Kawi,Panipat,"Office No-1, Basement, Preet Tower, Tau Devi Lal Complex,, Kawi, Panipat - 132103, Dist.Panipat, Haryana",8046065237,
varenyam Baby Pillow Cum Blanket,https://www.indiamart.com/proddetail/baby-pillow-cum-blanket-2851955196248.html?pos=163&kwd=baby cellular blanket&tags=||||8747.203|Price|product|||TS|rsf:gd-|-stype:attr=1|qr_nm:gd|res:RC4|com-cf:nl|ptrs:na|ktp:N0|mc:99818|mtp:S|qry_typ:P|lang:en|wc:3|cs:8852|v=4,Bhagat Trading Co.,https://www.indiamart.com/bhagat-trading-co-panipat/?pos=163&kwd=baby cellular blanket&tags=||||8747.203|Price|product|||TS|rsf:gd-|-stype:attr=1|qr_nm:gd|res:RC4|com-cf:nl|ptrs:na|ktp:N0|mc:99818|mtp:S|qry_typ:P|lang:en|wc:3|cs:8852|v=4,False,Near,Panipat,"367/7, Bhagat Trading Co., Near Ram Mandir, Sanoli Road, Near, Panipat - 132103, Dist.Panipat, Haryana",7942818365,
Baby Blanket,https://www.indiamart.com/proddetail/baby-blanket-2854713267291.html?pos=164&kwd=baby cellular blanket&tags=||||8747.203|Price|product|||MDC|rsf:gd-|-stype:attr=1|qr_nm:gd|res:RC4|com-cf:nl|ptrs:na|ktp:N0|mc:99818|mtp:S|qry_typ:P|lang:en|wc:3|cs:8852|v=4,Kings Texo Fab,https://www.indiamart.com/kingstexo-fab-haryana/?pos=164&kwd=baby cellular blanket&tags=||||8747.203|Price|product|||MDC|rsf:gd-|-stype:attr=1|qr_nm:gd|res:RC4|com-cf:nl|ptrs:na|ktp:N0|mc:99818|mtp:S|qry_typ:P|lang:en|wc:3|cs:8852|v=4,False,Huda,Panipat,"First Floor, Factory No 497,Sector 25 Part II Huda, Huda, Panipat - 132103, Dist.Panipat, Haryana",8044565915,
Woolen Purple Hooded Baby Blanket,https://www.indiamart.com/proddetail/purple-hooded-baby-blanket-2853685519612.html?pos=165&kwd=baby cellular blanket&tags=||||9848.189|Price|product|||TS|rsf:gd-|-stype:attr=1|qr_nm:gd|res:RC4|com-cf:nl|ptrs:na|ktp:N0|mc:99818|mtp:S|qry_typ:P|lang:en|wc:3|cs:8852|v=4,Balaji Stores,https://www.indiamart.com/balajistores-siliguri/?pos=165&kwd=baby cellular blanket&tags=||||9848.189|Price|product|||TS|rsf:gd-|-stype:attr=1|qr_nm:gd|res:RC4|com-cf:nl|ptrs:na|ktp:N0|mc:99818|mtp:S|qry_typ:P|lang:en|wc:3|cs:8852|v=4,False,,Siliguri,"H/22/8/188/273/737,,B ROAD WARD NO 12 P.O SILIGURI,Siliguri, Siliguri - 734001, Dist.Darjiling, West Bengal",8045734046,
"Plain Cotton Baby Blanket, 1-2 Year, Size: 100 X 150 Cm",https://www.indiamart.com/proddetail/baby-blanket-6947898091.html?pos=166&kwd=baby cellular blanket&tags=||||8747.203|Price|product|||TS|rsf:gd-|-stype:attr=1|qr_nm:gd|res:RC4|com-cf:nl|ptrs:na|ktp:N0|mc:99818|mtp:S|qry_typ:P|lang:en|wc:3|cs:8852|v=4,Vaibhav Overseas,https://www.vaibhavoverseas.net/?pos=166&kwd=baby cellular blanket&tags=||||8747.203|Price|product|||TS|rsf:gd-|-stype:attr=1|qr_nm:gd|res:RC4|com-cf:nl|ptrs:na|ktp:N0|mc:99818|mtp:S|qry_typ:P|lang:en|wc:3|cs:8852|v=4,False,Huda,Panipat,"60, M/S Vaibhav Overseas, Sector-29,Part-I, Huda, Huda, Panipat - 132103, Dist.Panipat, Haryana",8046051980,
Cotton Hooded Baby Wraps Blanket,https://www.indiamart.com/proddetail/cotton-hooded-baby-wraps-blanket-2853514590962.html?pos=167&kwd=baby cellular blanket&tags=||||8307.81|Price|product|||MDC|rsf:gd-|-stype:attr=1|qr_nm:gd|res:RC4|com-cf:nl|ptrs:na|ktp:N0|mc:99818|mtp:S|qry_typ:P|lang:en|wc:3|cs:8852|v=4,Tabaria Baby Mall,https://www.indiamart.com/tabaria-baby-mallpune/?pos=167&kwd=baby cellular blanket&tags=||||8307.81|Price|product|||MDC|rsf:gd-|-stype:attr=1|qr_nm:gd|res:RC4|com-cf:nl|ptrs:na|ktp:N0|mc:99818|mtp:S|qry_typ:P|lang:en|wc:3|cs:8852|v=4,False,Raviwar Peth,Pune,"1088,Manish Market,Raviwar Peth, Raviwar Peth, Pune - 411002, Dist.Pune, Maharashtra",7949092418,
Hooded Baby Blanket,https://www.indiamart.com/proddetail/hooded-baby-blanket-2854848143312.html?pos=168&kwd=baby cellular blanket&tags=||||8747.203|Price|product|||MDC|rsf:gd-|-stype:attr=1|qr_nm:gd|res:RC4|com-cf:nl|ptrs:na|ktp:N0|mc:99818|mtp:S|qry_typ:P|lang:en|wc:3|cs:8852|v=4,Delite Home Furnishings,https://www.indiamart.com/delitehomefurnishings/?pos=168&kwd=baby cellular blanket&tags=||||8747.203|Price|product|||MDC|rsf:gd-|-stype:attr=1|qr_nm:gd|res:RC4|com-cf:nl|ptrs:na|ktp:N0|mc:99818|mtp:S|qry_typ:P|lang:en|wc:3|cs:8852|v=4,False,Chowk,Panipat,"First Floor, H.No 1629, SEC 11, Near Sai Baba Chowk, Back Side of Pruthi Hospital, NHBC Sector 11, Chowk, Panipat - 132103, Dist.Panipat, Haryana",7942969606,
Double Cloth Muslin Children Blanket Printed Design Garment Wholesaler & Supplier,https://www.indiamart.com/proddetail/double-cloth-muslin-children-blanket-printed-design-garment-wholesaler-supplier-15055058155.html?pos=169&kwd=baby cellular blanket&tags=||||8668.838|Price|product|||TS|rsf:gd-|-stype:attr=1|qr_nm:gd|res:RC4|com-cf:nl|ptrs:na|ktp:N0|mc:99818|mtp:S|qry_typ:P|lang:en|wc:3|cs:8852|v=4,Sri Kalyan Export Private Limited,https://www.organictextileindia.com/?pos=169&kwd=baby cellular blanket&tags=||||8668.838|Price|product|||TS|rsf:gd-|-stype:attr=1|qr_nm:gd|res:RC4|com-cf:nl|ptrs:na|ktp:N0|mc:99818|mtp:S|qry_typ:P|lang:en|wc:3|cs:8852|v=4,False,Vilarasampatti,Erode,"192/4, Iswarya Garden, Vilarasampatti, Erode - 638107, Dist.Erode, Tamil Nadu",8048974551,
Floral Print Woolen Baby Fleece Blanket,https://www.indiamart.com/proddetail/baby-fleece-blanket-2854865810291.html?pos=170&kwd=baby cellular blanket&tags=||||8747.203||product|||TS|rsf:gd-|-stype:attr=1|qr_nm:gd|res:RC4|com-cf:nl|ptrs:na|ktp:N0|mc:99818|mtp:S|qry_typ:P|lang:en|wc:3|cs:8852|v=4,Ram Han Textiles,https://www.indiamart.com/ram-han-textiles/?pos=170&kwd=baby cellular blanket&tags=||||8747.203||product|||TS|rsf:gd-|-stype:attr=1|qr_nm:gd|res:RC4|com-cf:nl|ptrs:na|ktp:N0|mc:99818|mtp:S|qry_typ:P|lang:en|wc:3|cs:8852|v=4,False,Chawla Colony,Panipat,"295, 0, Ramhan Textiles, 11 Ward,, Chawla Colony, Panipat - 132103, Dist.Panipat, Haryana",7942563360,
ananda Mix Flannel Baby Blanket,https://www.indiamart.com/proddetail/flannel-baby-blanket-2849707585412.html?pos=171&kwd=baby cellular blanket&tags=||||8747.203|Price|product|||TS|rsf:gd-|-stype:attr=1|qr_nm:gd|res:RC4|com-cf:nl|ptrs:na|ktp:N0|mc:99818|mtp:S|qry_typ:P|lang:en|wc:3|cs:8852|v=4,Anand Fabrics,https://www.indiamart.com/anandfabricspanipat/?pos=171&kwd=baby cellular blanket&tags=||||8747.203|Price|product|||TS|rsf:gd-|-stype:attr=1|qr_nm:gd|res:RC4|com-cf:nl|ptrs:na|ktp:N0|mc:99818|mtp:S|qry_typ:P|lang:en|wc:3|cs:8852|v=4,False,Huda,Panipat,"104, SD College Road, Huda, Panipat - 132103, Dist.Panipat, Haryana",7942556232,
Hooded Baby Blanket,https://www.indiamart.com/proddetail/hooded-baby-blanket-2853640744362.html?pos=172&kwd=baby cellular blanket&tags=||||8228.275|Price|product|||TS|rsf:gd-|-stype:attr=1|qr_nm:gd|res:RC4|com-cf:nl|ptrs:na|ktp:N0|mc:99818|mtp:S|qry_typ:P|lang:en|wc:3|cs:8852|v=4,JSPM Traders,https://www.jspmtraders.com/?pos=172&kwd=baby cellular blanket&tags=||||8228.275|Price|product|||TS|rsf:gd-|-stype:attr=1|qr_nm:gd|res:RC4|com-cf:nl|ptrs:na|ktp:N0|mc:99818|mtp:S|qry_typ:P|lang:en|wc:3|cs:8852|v=4,False,Dudheshwar,Ahmedabad,"407, 4th, Block-B, Sumel Business Park-9, Dudheshwar, Dudheshwar, Ahmedabad - 380004, Dist.Ahmedabad, Gujarat",8045908277,
spykar New Baby Fleece Blanket,https://www.indiamart.com/proddetail/baby-fleece-blanket-19376472148.html?pos=173&kwd=baby cellular blanket&tags=||||8747.203|Price|product|||TS|rsf:gd-|-stype:attr=1|qr_nm:gd|res:RC4|com-cf:nl|ptrs:na|ktp:N0|mc:99818|mtp:S|qry_typ:P|lang:en|wc:3|cs:8852|v=4,Spykar Woollens,https://www.spykarwoollens.com/?pos=173&kwd=baby cellular blanket&tags=||||8747.203|Price|product|||TS|rsf:gd-|-stype:attr=1|qr_nm:gd|res:RC4|com-cf:nl|ptrs:na|ktp:N0|mc:99818|mtp:S|qry_typ:P|lang:en|wc:3|cs:8852|v=4,False,Colony,Panipat,"No. 576, circular road, Colony, Panipat - 132103, Dist.Panipat, Haryana",8046040181,
Hooded Baby Blanket,,Chinmay Kids,https://www.indiamart.com/chinmaykids/?pos=174&kwd=baby cellular blanket&tags=||||8752.144|Price|product|||TS|rsf:gd-|-stype:attr=1|qr_nm:gd|res:RC4|com-cf:nl|ptrs:na|ktp:N0|mc:99818|mtp:S|qry_typ:P|lang:en|wc:3|cs:8852|v=4,False,Nayagaon,New Delhi,"C-99, Street No. 4, First Pusta, Nayagaon, New Delhi - 110053, Dist.Delhi, Delhi",8046054858,
Hooded Baby Blanket,https://www.indiamart.com/proddetail/hooded-baby-blanket-2854274518312.html?pos=175&kwd=baby cellular blanket&tags=||||8752.144|Price|product|||TS|rsf:gd-|-stype:attr=1|qr_nm:gd|res:RC4|com-cf:nl|ptrs:na|ktp:N0|mc:99818|mtp:S|qry_typ:P|lang:en|wc:3|cs:8852|v=4,Mahi Enterprises,https://www.indiamart.com/mahi-entpdelhi/?pos=175&kwd=baby cellular blanket&tags=||||8752.144|Price|product|||TS|rsf:gd-|-stype:attr=1|qr_nm:gd|res:RC4|com-cf:nl|ptrs:na|ktp:N0|mc:99818|mtp:S|qry_typ:P|lang:en|wc:3|cs:8852|v=4,False,Kirari Suleman Nagar,New Delhi,"C-164,Pratap Vihar, Kirari Suleman Nagar, New Delhi - 110085, Dist.Delhi, Delhi",8046042788,
Cartoon Character Multicolor Baby Fleece Blanket,https://www.indiamart.com/proddetail/baby-fleece-blanket-27138451397.html?pos=176&kwd=baby cellular blanket&tags=||||8747.203|Price|product|||TS|rsf:gd-|-stype:attr=1|qr_nm:gd|res:RC4|com-cf:nl|ptrs:na|ktp:N0|mc:99818|mtp:S|qry_typ:P|lang:en|wc:3|cs:8852|v=4,M/S M A Textiles,https://www.matextiles.in/?pos=176&kwd=baby cellular blanket&tags=||||8747.203|Price|product|||TS|rsf:gd-|-stype:attr=1|qr_nm:gd|res:RC4|com-cf:nl|ptrs:na|ktp:N0|mc:99818|mtp:S|qry_typ:P|lang:en|wc:3|cs:8852|v=4,False,Huda,Panipat,"0 Kutani Road Ashok Vihar, Colony Panipat, Huda, Panipat - 132103, Dist.Panipat, Haryana",8047532068,
La Realeza New Flano Baby Blanket,https://www.indiamart.com/proddetail/flano-baby-blanket-13602703033.html?pos=177&kwd=baby cellular blanket&tags=||||8747.203|Price|product|||TS|rsf:gd-|-stype:attr=1|qr_nm:gd|res:RC4|com-cf:nl|ptrs:na|ktp:N0|mc:99818|mtp:S|qry_typ:P|lang:en|wc:3|cs:8852|v=4,Siddharth Texstyles,https://www.textilefabricsindia.com/?pos=177&kwd=baby cellular blanket&tags=||||8747.203|Price|product|||TS|rsf:gd-|-stype:attr=1|qr_nm:gd|res:RC4|com-cf:nl|ptrs:na|ktp:N0|mc:99818|mtp:S|qry_typ:P|lang:en|wc:3|cs:8852|v=4,False,,Panipat,"41, Old Housing Board Colony, Panipat, Panipat - 132103, Dist.Panipat, Haryana",8048603694,
Fleece Multicolor Printed Baby Blanket,https://www.indiamart.com/proddetail/printed-baby-blanket-2853713691355.html?pos=178&kwd=baby cellular blanket&tags=||||8747.203|Price|product|||TS|rsf:gd-|-stype:attr=1|qr_nm:gd|res:RC4|com-cf:nl|ptrs:na|ktp:N0|mc:99818|mtp:S|qry_typ:P|lang:en|wc:3|cs:8852|v=4,Cotton Bolls Textiles,https://www.indiamart.com/cottonbollstextilespanipat/?pos=178&kwd=baby cellular blanket&tags=||||8747.203|Price|product|||TS|rsf:gd-|-stype:attr=1|qr_nm:gd|res:RC4|com-cf:nl|ptrs:na|ktp:N0|mc:99818|mtp:S|qry_typ:P|lang:en|wc:3|cs:8852|v=4,False,Huda,Panipat,"House No - 485 Sector 13-17, Huda, Panipat - 132103, Dist.Panipat, Haryana",8043855324,
Printed Baby Fleece Blanket,https://www.indiamart.com/proddetail/printed-baby-fleece-blanket-26110388462.html?pos=179&kwd=baby cellular blanket&tags=||||8661.854|Price|product|||TS|rsf:gd-|-stype:attr=1|qr_nm:gd|res:RC4|com-cf:nl|ptrs:na|ktp:N0|mc:99818|mtp:S|qry_typ:P|lang:en|wc:3|cs:8852|v=4,J.S Ahuja Hosiery Works,https://www.indiamart.com/jsahujahosieryworks/?pos=179&kwd=baby cellular blanket&tags=||||8661.854|Price|product|||TS|rsf:gd-|-stype:attr=1|qr_nm:gd|res:RC4|com-cf:nl|ptrs:na|ktp:N0|mc:99818|mtp:S|qry_typ:P|lang:en|wc:3|cs:8852|v=4,False,Sector 39-A,Ludhiana,"B-XXX-3983, St. No.2, Hargobind Pura, Near Samrala Chowk, Sector 39-A, Ludhiana - 141008, Dist.Ludhiana, Punjab",8043859618,
"Soft Material Printed Hooded Baby Blanket, 0-5",https://www.indiamart.com/proddetail/hooded-baby-blanket-2850047389573.html?pos=180&kwd=baby cellular blanket&tags=||||8747.203|Price|product|||TS|rsf:gd-|-stype:attr=1|qr_nm:gd|res:RC4|com-cf:nl|ptrs:na|ktp:N0|mc:99818|mtp:S|qry_typ:P|lang:en|wc:3|cs:8852|v=4,Shri Ram Handloom Industries,https://www.shriramhandloomindustries.in/?pos=180&kwd=baby cellular blanket&tags=||||8747.203|Price|product|||TS|rsf:gd-|-stype:attr=1|qr_nm:gd|res:RC4|com-cf:nl|ptrs:na|ktp:N0|mc:99818|mtp:S|qry_typ:P|lang:en|wc:3|cs:8852|v=4,False,Model Town,Panipat,"2, Bal Mukund Market, Pachranga Bazar, Model Town, Panipat - 132103, Dist.Panipat, Haryana",8048262156,
Fleece Blue Flannel Baby Blanket,https://www.indiamart.com/proddetail/flannel-baby-blanket-23811017473.html?pos=181&kwd=baby cellular blanket&tags=||||8747.203|Price|product|||TS|rsf:gd-|-stype:attr=1|qr_nm:gd|res:RC4|com-cf:nl|ptrs:na|ktp:N0|mc:99818|mtp:S|qry_typ:P|lang:en|wc:3|cs:8852|v=4,Shiv Shakti Handloom Industries,https://www.shivshaktihandloomindustries.com/?pos=181&kwd=baby cellular blanket&tags=||||8747.203|Price|product|||TS|rsf:gd-|-stype:attr=1|qr_nm:gd|res:RC4|com-cf:nl|ptrs:na|ktp:N0|mc:99818|mtp:S|qry_typ:P|lang:en|wc:3|cs:8852|v=4,False,Panipat City,Panipat,"Shop 12, Krishna Market, Pachranga Bazar, Panipat City, Panipat - 132103, Dist.Panipat, Haryana",8048970618,
Cotton Hooded Baby Blanket,https://www.indiamart.com/proddetail/hooded-baby-blanket-2853962564191.html?pos=182&kwd=baby cellular blanket&tags=||||8661.854|Price|product|||TS|rsf:gd-|-stype:attr=1|qr_nm:gd|res:RC4|com-cf:nl|ptrs:na|ktp:N0|mc:99818|mtp:S|qry_typ:P|lang:en|wc:3|cs:8852|v=4,Pruthi Exports,https://www.indiamart.com/pruthiexports/?pos=182&kwd=baby cellular blanket&tags=||||8661.854|Price|product|||TS|rsf:gd-|-stype:attr=1|qr_nm:gd|res:RC4|com-cf:nl|ptrs:na|ktp:N0|mc:99818|mtp:S|qry_typ:P|lang:en|wc:3|cs:8852|v=4,True,Gobind Pura,Ludhiana,"741/7B , B Xxxii Bhadur Ke Road Bhadur Ke Road, Gobind Pura, Ludhiana - 141008, Dist.Ludhiana, Punjab",8044563703,
"Plain Cotton Baby Blanket, 1-2 Year, Size: 100 X 150 Cm",https://www.indiamart.com/proddetail/baby-blanket-6947898091.html?pos=183&kwd=baby cellular blanket&tags=||||8747.203|Price|product|||TS|rsf:gd-|-stype:attr=1|qr_nm:gd|res:RC4|com-cf:nl|ptrs:na|ktp:N0|mc:99818|mtp:S|qry_typ:P|lang:en|wc:3|cs:8852|v=4,Vaibhav Overseas,https://www.vaibhavoverseas.net/?pos=183&kwd=baby cellular blanket&tags=||||8747.203|Price|product|||TS|rsf:gd-|-stype:attr=1|qr_nm:gd|res:RC4|com-cf:nl|ptrs:na|ktp:N0|mc:99818|mtp:S|qry_typ:P|lang:en|wc:3|cs:8852|v=4,False,Huda,Panipat,"60, M/S Vaibhav Overseas, Sector-29,Part-I, Huda, Huda, Panipat - 132103, Dist.Panipat, Haryana",8046051980,
Cotton Hooded Baby Wraps Blanket,https://www.indiamart.com/proddetail/cotton-hooded-baby-wraps-blanket-2853514590962.html?pos=184&kwd=baby cellular blanket&tags=||||8307.81|Price|product|||MDC|rsf:gd-|-stype:attr=1|qr_nm:gd|res:RC4|com-cf:nl|ptrs:na|ktp:N0|mc:99818|mtp:S|qry_typ:P|lang:en|wc:3|cs:8852|v=4,Tabaria Baby Mall,https://www.indiamart.com/tabaria-baby-mallpune/?pos=184&kwd=baby cellular blanket&tags=||||8307.81|Price|product|||MDC|rsf:gd-|-stype:attr=1|qr_nm:gd|res:RC4|com-cf:nl|ptrs:na|ktp:N0|mc:99818|mtp:S|qry_typ:P|lang:en|wc:3|cs:8852|v=4,False,Raviwar Peth,Pune,"1088,Manish Market,Raviwar Peth, Raviwar Peth, Pune - 411002, Dist.Pune, Maharashtra",7949092418,
Hooded Baby Blanket,https://www.indiamart.com/proddetail/hooded-baby-blanket-2854848143312.html?pos=185&kwd=baby cellular blanket&tags=||||8747.203|Price|product|||MDC|rsf:gd-|-stype:attr=1|qr_nm:gd|res:RC4|com-cf:nl|ptrs:na|ktp:N0|mc:99818|mtp:S|qry_typ:P|lang:en|wc:3|cs:8852|v=4,Delite Home Furnishings,https://www.indiamart.com/delitehomefurnishings/?pos=185&kwd=baby cellular blanket&tags=||||8747.203|Price|product|||MDC|rsf:gd-|-stype:attr=1|qr_nm:gd|res:RC4|com-cf:nl|ptrs:na|ktp:N0|mc:99818|mtp:S|qry_typ:P|lang:en|wc:3|cs:8852|v=4,False,Chowk,Panipat,"First Floor, H.No 1629, SEC 11, Near Sai Baba Chowk, Back Side of Pruthi Hospital, NHBC Sector 11, Chowk, Panipat - 132103, Dist.Panipat, Haryana",7942969606,
Fleece White Baby Flannel Blankets,https://www.indiamart.com/proddetail/baby-flannel-blankets-23262378673.html?pos=186&kwd=baby cellular blanket&tags=||||8752.144|Price|product|||MDC|rsf:gd-|-stype:attr=1|qr_nm:gd|res:RC4|com-cf:nl|ptrs:na|ktp:N0|mc:99818|mtp:S|qry_typ:P|lang:en|wc:3|cs:8852|v=4,TGB Marketing,https://www.indiamart.com/tgb-marketing/?pos=186&kwd=baby cellular blanket&tags=||||8752.144|Price|product|||MDC|rsf:gd-|-stype:attr=1|qr_nm:gd|res:RC4|com-cf:nl|ptrs:na|ktp:N0|mc:99818|mtp:S|qry_typ:P|lang:en|wc:3|cs:8852|v=4,False,Chandni Chowk,New Delhi,"101, Second Floor, Khursid Market, Chandni Chowk, New Delhi - 110006, Dist.Delhi, Delhi",8046075932,
Double Cloth Muslin Children Blanket Printed Design Garment Wholesaler & Supplier,https://www.indiamart.com/proddetail/double-cloth-muslin-children-blanket-printed-design-garment-wholesaler-supplier-15055058155.html?pos=187&kwd=baby cellular blanket&tags=||||8668.838|Price|product|||TS|rsf:gd-|-stype:attr=1|qr_nm:gd|res:RC4|com-cf:nl|ptrs:na|ktp:N0|mc:99818|mtp:S|qry_typ:P|lang:en|wc:3|cs:8852|v=4,Sri Kalyan Export Private Limited,https://www.organictextileindia.com/?pos=187&kwd=baby cellular blanket&tags=||||8668.838|Price|product|||TS|rsf:gd-|-stype:attr=1|qr_nm:gd|res:RC4|com-cf:nl|ptrs:na|ktp:N0|mc:99818|mtp:S|qry_typ:P|lang:en|wc:3|cs:8852|v=4,False,Vilarasampatti,Erode,"192/4, Iswarya Garden, Vilarasampatti, Erode - 638107, Dist.Erode, Tamil Nadu",8048974551,
Cotton Blue Comforter Baby Blanket,https://www.indiamart.com/proddetail/comforter-baby-blanket-2851521441633.html?pos=188&kwd=baby cellular blanket&tags=||||8869.224|Price|product|||TS|rsf:gd-|-stype:attr=1|qr_nm:gd|res:RC4|com-cf:nl|ptrs:na|ktp:N0|mc:99818|mtp:S|qry_typ:P|lang:en|wc:3|cs:8852|v=4,Raj Enterprises,https://www.indiamart.com/rajenterprisesharidwar/?pos=188&kwd=baby cellular blanket&tags=||||8869.224|Price|product|||TS|rsf:gd-|-stype:attr=1|qr_nm:gd|res:RC4|com-cf:nl|ptrs:na|ktp:N0|mc:99818|mtp:S|qry_typ:P|lang:en|wc:3|cs:8852|v=4,False,Shivalik Nagar,Haridwar,"P No - 23, Sec-8B,LIE, SIDCUL,, Shivalik Nagar, Haridwar - 249403, Dist.Haridwar, Uttarakhand",7942843224,
"Raymond Home Printed Flannel Baby Blanket, Size: 60*90 Inch",https://www.indiamart.com/proddetail/flannel-baby-blanket-19445179948.html?pos=189&kwd=baby cellular blanket&tags=||||8236.946|Price|product|||TS|rsf:gd-|-stype:attr=1|qr_nm:gd|res:RC4|com-cf:nl|ptrs:na|ktp:N0|mc:99818|mtp:S|qry_typ:P|lang:en|wc:3|cs:8852|v=4,Ashraj Handlooms,https://www.indiamart.com/ashrajhandlooms/?pos=189&kwd=baby cellular blanket&tags=||||8236.946|Price|product|||TS|rsf:gd-|-stype:attr=1|qr_nm:gd|res:RC4|com-cf:nl|ptrs:na|ktp:N0|mc:99818|mtp:S|qry_typ:P|lang:en|wc:3|cs:8852|v=4,False,Khanda Colony,Raigad,"Plot No. 90, CKT Road, Khanda Colony, Raigad - 410206, Maharashtra",8047641387,
Floral Print Woolen Baby Fleece Blanket,https://www.indiamart.com/proddetail/baby-fleece-blanket-2854865810291.html?pos=190&kwd=baby cellular blanket&tags=||||8747.203||product|||TS|rsf:gd-|-stype:attr=1|qr_nm:gd|res:RC4|com-cf:nl|ptrs:na|ktp:N0|mc:99818|mtp:S|qry_typ:P|lang:en|wc:3|cs:8852|v=4,Ram Han Textiles,https://www.indiamart.com/ram-han-textiles/?pos=190&kwd=baby cellular blanket&tags=||||8747.203||product|||TS|rsf:gd-|-stype:attr=1|qr_nm:gd|res:RC4|com-cf:nl|ptrs:na|ktp:N0|mc:99818|mtp:S|qry_typ:P|lang:en|wc:3|cs:8852|v=4,False,Chawla Colony,Panipat,"295, 0, Ramhan Textiles, 11 Ward,, Chawla Colony, Panipat - 132103, Dist.Panipat, Haryana",7942563360,
ananda Mix Flannel Baby Blanket,https://www.indiamart.com/proddetail/flannel-baby-blanket-2849707585412.html?pos=191&kwd=baby cellular blanket&tags=||||8747.203|Price|product|||TS|rsf:gd-|-stype:attr=1|qr_nm:gd|res:RC4|com-cf:nl|ptrs:na|ktp:N0|mc:99818|mtp:S|qry_typ:P|lang:en|wc:3|cs:8852|v=4,Anand Fabrics,https://www.indiamart.com/anandfabricspanipat/?pos=191&kwd=baby cellular blanket&tags=||||8747.203|Price|product|||TS|rsf:gd-|-stype:attr=1|qr_nm:gd|res:RC4|com-cf:nl|ptrs:na|ktp:N0|mc:99818|mtp:S|qry_typ:P|lang:en|wc:3|cs:8852|v=4,False,Huda,Panipat,"104, SD College Road, Huda, Panipat - 132103, Dist.Panipat, Haryana",7942556232,
Hooded Baby Blanket,https://www.indiamart.com/proddetail/hooded-baby-blanket-2853640744362.html?pos=192&kwd=baby cellular blanket&tags=||||8228.275|Price|product|||TS|rsf:gd-|-stype:attr=1|qr_nm:gd|res:RC4|com-cf:nl|ptrs:na|ktp:N0|mc:99818|mtp:S|qry_typ:P|lang:en|wc:3|cs:8852|v=4,JSPM Traders,https://www.jspmtraders.com/?pos=192&kwd=baby cellular blanket&tags=||||8228.275|Price|product|||TS|rsf:gd-|-stype:attr=1|qr_nm:gd|res:RC4|com-cf:nl|ptrs:na|ktp:N0|mc:99818|mtp:S|qry_typ:P|lang:en|wc:3|cs:8852|v=4,False,Dudheshwar,Ahmedabad,"407, 4th, Block-B, Sumel Business Park-9, Dudheshwar, Dudheshwar, Ahmedabad - 380004, Dist.Ahmedabad, Gujarat",8045908277,
spykar New Baby Fleece Blanket,https://www.indiamart.com/proddetail/baby-fleece-blanket-19376472148.html?pos=193&kwd=baby cellular blanket&tags=||||8747.203|Price|product|||TS|rsf:gd-|-stype:attr=1|qr_nm:gd|res:RC4|com-cf:nl|ptrs:na|ktp:N0|mc:99818|mtp:S|qry_typ:P|lang:en|wc:3|cs:8852|v=4,Spykar Woollens,https://www.spykarwoollens.com/?pos=193&kwd=baby cellular blanket&tags=||||8747.203|Price|product|||TS|rsf:gd-|-stype:attr=1|qr_nm:gd|res:RC4|com-cf:nl|ptrs:na|ktp:N0|mc:99818|mtp:S|qry_typ:P|lang:en|wc:3|cs:8852|v=4,False,Colony,Panipat,"No. 576, circular road, Colony, Panipat - 132103, Dist.Panipat, Haryana",8046040181,
Hooded Baby Blanket,,Chinmay Kids,https://www.indiamart.com/chinmaykids/?pos=194&kwd=baby cellular blanket&tags=||||8752.144|Price|product|||TS|rsf:gd-|-stype:attr=1|qr_nm:gd|res:RC4|com-cf:nl|ptrs:na|ktp:N0|mc:99818|mtp:S|qry_typ:P|lang:en|wc:3|cs:8852|v=4,False,Nayagaon,New Delhi,"C-99, Street No. 4, First Pusta, Nayagaon, New Delhi - 110053, Dist.Delhi, Delhi",8046054858,
Hooded Baby Blanket,https://www.indiamart.com/proddetail/hooded-baby-blanket-2854274518312.html?pos=195&kwd=baby cellular blanket&tags=||||8752.144|Price|product|||TS|rsf:gd-|-stype:attr=1|qr_nm:gd|res:RC4|com-cf:nl|ptrs:na|ktp:N0|mc:99818|mtp:S|qry_typ:P|lang:en|wc:3|cs:8852|v=4,Mahi Enterprises,https://www.indiamart.com/mahi-entpdelhi/?pos=195&kwd=baby cellular blanket&tags=||||8752.144|Price|product|||TS|rsf:gd-|-stype:attr=1|qr_nm:gd|res:RC4|com-cf:nl|ptrs:na|ktp:N0|mc:99818|mtp:S|qry_typ:P|lang:en|wc:3|cs:8852|v=4,False,Kirari Suleman Nagar,New Delhi,"C-164,Pratap Vihar, Kirari Suleman Nagar, New Delhi - 110085, Dist.Delhi, Delhi",8046042788,
Cartoon Character Multicolor Baby Fleece Blanket,https://www.indiamart.com/proddetail/baby-fleece-blanket-27138451397.html?pos=196&kwd=baby cellular blanket&tags=||||8747.203|Price|product|||TS|rsf:gd-|-stype:attr=1|qr_nm:gd|res:RC4|com-cf:nl|ptrs:na|ktp:N0|mc:99818|mtp:S|qry_typ:P|lang:en|wc:3|cs:8852|v=4,M/S M A Textiles,https://www.matextiles.in/?pos=196&kwd=baby cellular blanket&tags=||||8747.203|Price|product|||TS|rsf:gd-|-stype:attr=1|qr_nm:gd|res:RC4|com-cf:nl|ptrs:na|ktp:N0|mc:99818|mtp:S|qry_typ:P|lang:en|wc:3|cs:8852|v=4,False,Huda,Panipat,"0 Kutani Road Ashok Vihar, Colony Panipat, Huda, Panipat - 132103, Dist.Panipat, Haryana",8047532068,
La Realeza New Flano Baby Blanket,https://www.indiamart.com/proddetail/flano-baby-blanket-13602703033.html?pos=197&kwd=baby cellular blanket&tags=||||8747.203|Price|product|||TS|rsf:gd-|-stype:attr=1|qr_nm:gd|res:RC4|com-cf:nl|ptrs:na|ktp:N0|mc:99818|mtp:S|qry_typ:P|lang:en|wc:3|cs:8852|v=4,Siddharth Texstyles,https://www.textilefabricsindia.com/?pos=197&kwd=baby cellular blanket&tags=||||8747.203|Price|product|||TS|rsf:gd-|-stype:attr=1|qr_nm:gd|res:RC4|com-cf:nl|ptrs:na|ktp:N0|mc:99818|mtp:S|qry_typ:P|lang:en|wc:3|cs:8852|v=4,False,,Panipat,"41, Old Housing Board Colony, Panipat, Panipat - 132103, Dist.Panipat, Haryana",8048603694,
Fleece Multicolor Printed Baby Blanket,https://www.indiamart.com/proddetail/printed-baby-blanket-2853713691355.html?pos=198&kwd=baby cellular blanket&tags=||||8747.203|Price|product|||TS|rsf:gd-|-stype:attr=1|qr_nm:gd|res:RC4|com-cf:nl|ptrs:na|ktp:N0|mc:99818|mtp:S|qry_typ:P|lang:en|wc:3|cs:8852|v=4,Cotton Bolls Textiles,https://www.indiamart.com/cottonbollstextilespanipat/?pos=198&kwd=baby cellular blanket&tags=||||8747.203|Price|product|||TS|rsf:gd-|-stype:attr=1|qr_nm:gd|res:RC4|com-cf:nl|ptrs:na|ktp:N0|mc:99818|mtp:S|qry_typ:P|lang:en|wc:3|cs:8852|v=4,False,Huda,Panipat,"House No - 485 Sector 13-17, Huda, Panipat - 132103, Dist.Panipat, Haryana",8043855324,
Printed Baby Fleece Blanket,https://www.indiamart.com/proddetail/printed-baby-fleece-blanket-26110388462.html?pos=199&kwd=baby cellular blanket&tags=||||8661.854|Price|product|||TS|rsf:gd-|-stype:attr=1|qr_nm:gd|res:RC4|com-cf:nl|ptrs:na|ktp:N0|mc:99818|mtp:S|qry_typ:P|lang:en|wc:3|cs:8852|v=4,J.S Ahuja Hosiery Works,https://www.indiamart.com/jsahujahosieryworks/?pos=199&kwd=baby cellular blanket&tags=||||8661.854|Price|product|||TS|rsf:gd-|-stype:attr=1|qr_nm:gd|res:RC4|com-cf:nl|ptrs:na|ktp:N0|mc:99818|mtp:S|qry_typ:P|lang:en|wc:3|cs:8852|v=4,False,Sector 39-A,Ludhiana,"B-XXX-3983, St. No.2, Hargobind Pura, Near Samrala Chowk, Sector 39-A, Ludhiana - 141008, Dist.Ludhiana, Punjab",8043859618,
"Soft Material Printed Hooded Baby Blanket, 0-5",https://www.indiamart.com/proddetail/hooded-baby-blanket-2850047389573.html?pos=200&kwd=baby cellular blanket&tags=||||8747.203|Price|product|||TS|rsf:gd-|-stype:attr=1|qr_nm:gd|res:RC4|com-cf:nl|ptrs:na|ktp:N0|mc:99818|mtp:S|qry_typ:P|lang:en|wc:3|cs:8852|v=4,Shri Ram Handloom Industries,https://www.shriramhandloomindustries.in/?pos=200&kwd=baby cellular blanket&tags=||||8747.203|Price|product|||TS|rsf:gd-|-stype:attr=1|qr_nm:gd|res:RC4|com-cf:nl|ptrs:na|ktp:N0|mc:99818|mtp:S|qry_typ:P|lang:en|wc:3|cs:8852|v=4,False,Model Town,Panipat,"2, Bal Mukund Market, Pachranga Bazar, Model Town, Panipat - 132103, Dist.Panipat, Haryana",8048262156,
Fleece Blue Flannel Baby Blanket,https://www.indiamart.com/proddetail/flannel-baby-blanket-23811017473.html?pos=201&kwd=baby cellular blanket&tags=||||8747.203|Price|product|||TS|rsf:gd-|-stype:attr=1|qr_nm:gd|res:RC4|com-cf:nl|ptrs:na|ktp:N0|mc:99818|mtp:S|qry_typ:P|lang:en|wc:3|cs:8852|v=4,Shiv Shakti Handloom Industries,https://www.shivshaktihandloomindustries.com/?pos=201&kwd=baby cellular blanket&tags=||||8747.203|Price|product|||TS|rsf:gd-|-stype:attr=1|qr_nm:gd|res:RC4|com-cf:nl|ptrs:na|ktp:N0|mc:99818|mtp:S|qry_typ:P|lang:en|wc:3|cs:8852|v=4,False,Panipat City,Panipat,"Shop 12, Krishna Market, Pachranga Bazar, Panipat City, Panipat - 132103, Dist.Panipat, Haryana",8048970618,
Cotton Hooded Baby Blanket,https://www.indiamart.com/proddetail/hooded-baby-blanket-2853962564191.html?pos=202&kwd=baby cellular blanket&tags=||||8661.854|Price|product|||TS|rsf:gd-|-stype:attr=1|qr_nm:gd|res:RC4|com-cf:nl|ptrs:na|ktp:N0|mc:99818|mtp:S|qry_typ:P|lang:en|wc:3|cs:8852|v=4,Pruthi Exports,https://www.indiamart.com/pruthiexports/?pos=202&kwd=baby cellular blanket&tags=||||8661.854|Price|product|||TS|rsf:gd-|-stype:attr=1|qr_nm:gd|res:RC4|com-cf:nl|ptrs:na|ktp:N0|mc:99818|mtp:S|qry_typ:P|lang:en|wc:3|cs:8852|v=4,True,Gobind Pura,Ludhiana,"741/7B , B Xxxii Bhadur Ke Road Bhadur Ke Road, Gobind Pura, Ludhiana - 141008, Dist.Ludhiana, Punjab",8044563703,
Woolen Pink Hooded Baby Blanket,https://www.indiamart.com/proddetail/hooded-baby-blanket-2852555608273.html?pos=203&kwd=baby cellular blanket&tags=||||8747.203|Price|product|||TS|rsf:gd-|-stype:attr=1|qr_nm:gd|res:RC4|com-cf:nl|ptrs:na|ktp:N0|mc:99818|mtp:S|qry_typ:P|lang:en|wc:3|cs:8852|v=4,Luxmi Textiles,https://www.luxmitextiles.com/?pos=203&kwd=baby cellular blanket&tags=||||8747.203|Price|product|||TS|rsf:gd-|-stype:attr=1|qr_nm:gd|res:RC4|com-cf:nl|ptrs:na|ktp:N0|mc:99818|mtp:S|qry_typ:P|lang:en|wc:3|cs:8852|v=4,False,Ugra Kheri,Panipat,"Ugra Kheri, Ugra Kheri, Panipat - 132103, Dist.Panipat, Haryana",8048950632,
"Micro Blue Cloudy Baby Blankets, 0-5 Years, Size: 30*40 Inch",https://www.indiamart.com/proddetail/cloudy-baby-blankets-24037042162.html?pos=204&kwd=baby cellular blanket&tags=||||8747.203|Price|product|||TS|rsf:gd-|-stype:attr=1|qr_nm:gd|res:RC4|com-cf:nl|ptrs:na|ktp:N0|mc:99818|mtp:S|qry_typ:P|lang:en|wc:3|cs:8852|v=4,M L Textile,https://www.indiamart.com/ml-textile/?pos=204&kwd=baby cellular blanket&tags=||||8747.203|Price|product|||TS|rsf:gd-|-stype:attr=1|qr_nm:gd|res:RC4|com-cf:nl|ptrs:na|ktp:N0|mc:99818|mtp:S|qry_typ:P|lang:en|wc:3|cs:8852|v=4,False,Jattal,Panipat,"8 Marla Colony Jattal Road Near Siti Cable, Jattal, Panipat - 132103, Dist.Panipat, Haryana",8046074237,
Velvet Baby Fur Blanket,,Satyam Cottex India Pvt. Ltd.,https://www.indiamart.com/satyam-cottex-india/?pos=205&kwd=baby cellular blanket&tags=||||8747.203|Price|product|||TS|rsf:gd-|-stype:attr=1|qr_nm:gd|res:RC4|com-cf:nl|ptrs:na|ktp:N0|mc:99818|mtp:S|qry_typ:P|lang:en|wc:3|cs:8852|v=4,False,,Panipat,"Opp. Baba Peer, G.T. Road, Sewah, Panipat - 132103, Dist.Panipat, Haryana",8045729152,
"Multicolor Cartoon Baby Fleece Blanket, 0-5 Years, Size: 110*150. cm",https://www.indiamart.com/proddetail/baby-fleece-blanket-26424143473.html?pos=206&kwd=baby cellular blanket&tags=||||8747.203|Price|product|||TS|rsf:gd-|-stype:attr=1|qr_nm:gd|res:RC4|com-cf:nl|ptrs:na|ktp:N0|mc:99818|mtp:S|qry_typ:P|lang:en|wc:3|cs:8852|v=4,ANB Handlooms,https://www.femfairy.com/?pos=206&kwd=baby cellular blanket&tags=||||8747.203|Price|product|||TS|rsf:gd-|-stype:attr=1|qr_nm:gd|res:RC4|com-cf:nl|ptrs:na|ktp:N0|mc:99818|mtp:S|qry_typ:P|lang:en|wc:3|cs:8852|v=4,False,Chadau Mohalla,Panipat,"455/9, Sanoli Road, Chadau Mohalla, Panipat - 132103, Dist.Panipat, Haryana",7942544537,
Woolen Multicolor Baby Hooded Blanket,https://www.indiamart.com/proddetail/baby-hooded-blanket-26925623055.html?pos=207&kwd=baby cellular blanket&tags=||||8747.203|Price|product|||TS|rsf:gd-|-stype:attr=1|qr_nm:gd|res:RC4|com-cf:nl|ptrs:na|ktp:N0|mc:99818|mtp:S|qry_typ:P|lang:en|wc:3|cs:8852|v=4,Pavitra Textile,https://www.pavitratextile.com/?pos=207&kwd=baby cellular blanket&tags=||||8747.203|Price|product|||TS|rsf:gd-|-stype:attr=1|qr_nm:gd|res:RC4|com-cf:nl|ptrs:na|ktp:N0|mc:99818|mtp:S|qry_typ:P|lang:en|wc:3|cs:8852|v=4,False,Panipat N.S.M.,Panipat,"1560/10, Sanoli Road Pujara Sweets, Panipat N.S.M., Panipat - 132103, Dist.Panipat, Haryana",8047655734,
Velvet 7-8 COLORS Baby Hooded Blanket,https://www.indiamart.com/proddetail/baby-hooded-blanket-2853305819373.html?pos=208&kwd=baby cellular blanket&tags=||||8580.032|Price|product|||TS|rsf:gd-|-stype:attr=1|qr_nm:gd|res:RC4|com-cf:nl|ptrs:na|ktp:N0|mc:99818|mtp:S|qry_typ:P|lang:en|wc:3|cs:8852|v=4,Popli Textile Mills,https://www.indiamart.com/popli-textile-mills/?pos=208&kwd=baby cellular blanket&tags=||||8580.032|Price|product|||TS|rsf:gd-|-stype:attr=1|qr_nm:gd|res:RC4|com-cf:nl|ptrs:na|ktp:N0|mc:99818|mtp:S|qry_typ:P|lang:en|wc:3|cs:8852|v=4,False,Market,Amritsar,"5 Rama Market, Market, Amritsar - 143001, Dist.Amritsar, Punjab",7942618743,
"Cotton Blue Baby Fur Blanket, Size: 55x90 cm",https://www.indiamart.com/proddetail/baby-fur-blanket-27594117097.html?pos=209&kwd=baby cellular blanket&tags=||||8706.263|Price|product|||TS|rsf:gd-|-stype:attr=1|qr_nm:gd|res:RC4|com-cf:nl|ptrs:na|ktp:N0|mc:99818|mtp:S|qry_typ:P|lang:en|wc:3|cs:8852|v=4,Karur Export Company,https://www.karurexportcompany.in/?pos=209&kwd=baby cellular blanket&tags=||||8706.263|Price|product|||TS|rsf:gd-|-stype:attr=1|qr_nm:gd|res:RC4|com-cf:nl|ptrs:na|ktp:N0|mc:99818|mtp:S|qry_typ:P|lang:en|wc:3|cs:8852|v=4,True,Sri Poonkuyil Nagar,Karur,"41, 43, Kuluthu Palayam Road, Vengamedu, Sri Poonkuyil Nagar, Karur - 639006, Dist.Karur, Tamil Nadu",8048600914,
Plain Blue Fleece Baby Blanket,https://www.indiamart.com/proddetail/fleece-baby-blanket-2851448053262.html?pos=210&kwd=baby cellular blanket&tags=||||8747.203|Price|product|||TS|rsf:gd-|-stype:attr=1|qr_nm:gd|res:RC4|com-cf:nl|ptrs:na|ktp:N0|mc:99818|mtp:S|qry_typ:P|lang:en|wc:3|cs:8852|v=4,Ambey Spinning Mills,https://www.indiamart.com/ambey-spinning-mill/?pos=210&kwd=baby cellular blanket&tags=||||8747.203|Price|product|||TS|rsf:gd-|-stype:attr=1|qr_nm:gd|res:RC4|com-cf:nl|ptrs:na|ktp:N0|mc:99818|mtp:S|qry_typ:P|lang:en|wc:3|cs:8852|v=4,False,Kabri,Panipat,"Behind Shri Ram Dharam Kanta, Near Prem Petrol Pump Pakka Fatak, Kabri Road, Kabri, Panipat - 132103, Dist.Panipat, Haryana",8048601302,
