product_title,product_link,company_name,company_link,is_verified_exporter,city_region,city,address_details,phone_number,phone_number_extension
"Stainless Steel Sauce Bottle Warmer, For Restaurant",https://www.indiamart.com/proddetail/sauce-bottle-warmer-2854144899991.html?pos=1&kwd=baby bottle warmer&tags=A||||8752.144|Price|product|||TS|rsf:gd-|-stype:attr=1|qr_nm:gd|res:RC4|com-cf:nl|ptrs:na|ktp:N0|mc:22705|mtp:S|qry_typ:P|lang:en|wc:3|flavl:0|cs:9596|v=4,Yuaan Enterprises,https://www.indiamart.com/yuaanenterprises-newdelhi/?pos=1&kwd=baby bottle warmer&tags=A||||8752.144|Price|product|||TS|rsf:gd-|-stype:attr=1|qr_nm:gd|res:RC4|com-cf:nl|ptrs:na|ktp:N0|mc:22705|mtp:S|qry_typ:P|lang:en|wc:3|flavl:0|cs:9596|v=4,False,Darya Ganj,New Delhi,"1120,Ground Floor,Katra Dhobiyan,Kalan Mahal,Darya Ganj, Darya Ganj, New Delhi - 110002, Dist.Delhi, Delhi",8047635296,
"White Stainless Steel Sauce Bottle Warmer, Capacity: 200 mL",https://www.indiamart.com/proddetail/sauce-bottle-warmer-2854138494755.html?pos=2&kwd=baby bottle warmer&tags=A||||8752.144|Price|product|||TS|rsf:gd-|-stype:attr=1|qr_nm:gd|res:RC4|com-cf:nl|ptrs:na|ktp:N0|mc:22705|mtp:S|qry_typ:P|lang:en|wc:3|flavl:0|cs:9596|v=4,Javvad Enterprises,https://www.indiamart.com/javvadenterprises/?pos=2&kwd=baby bottle warmer&tags=A||||8752.144|Price|product|||TS|rsf:gd-|-stype:attr=1|qr_nm:gd|res:RC4|com-cf:nl|ptrs:na|ktp:N0|mc:22705|mtp:S|qry_typ:P|lang:en|wc:3|flavl:0|cs:9596|v=4,False,Chandni Mahal,New Delhi,"808,Ground Floor,Kamra Bangash,Chandni Mahal,Darya Ganj, Chandni Mahal, New Delhi - 110002, Dist.Delhi, Delhi",8048265703,
BKT2819 BABY BOTTLE WARMER,https://www.indiamart.com/proddetail/bkt2819-baby-bottle-warmer-2852809749662.html?pos=3&kwd=baby bottle warmer&tags=BA||||8741.812|Price|product|||TS|rsf:gd-|-stype:attr=1|qr_nm:gd|res:RC4|com-cf:nl|ptrs:na|ktp:N0|mc:22705|mtp:S|qry_typ:P|lang:en|wc:3|flavl:0|cs:9596|v=4,Blacktie Ecom Private Limited,https://www.indiamart.com/blacktieecom/?pos=3&kwd=baby bottle warmer&tags=BA||||8741.812|Price|product|||TS|rsf:gd-|-stype:attr=1|qr_nm:gd|res:RC4|com-cf:nl|ptrs:na|ktp:N0|mc:22705|mtp:S|qry_typ:P|lang:en|wc:3|flavl:0|cs:9596|v=4,False,Gurgaon South City Ii,Gurgaon,"CABIN 210 B 38 OLD DLF COLONY, Gurgaon South City Ii, Gurgaon - 122018, Dist.Gurgaon, Haryana",8046052578,
Portable Milk Bottle Warmer,https://www.indiamart.com/proddetail/portable-milk-bottle-warmer-2853708813662.html?pos=4&kwd=baby bottle warmer&tags=BA||||9097.53|Price|product|||TS|rsf:gd-|-stype:attr=1|qr_nm:gd|res:RC4|com-cf:nl|ptrs:na|ktp:N0|mc:22705|mtp:S|qry_typ:P|lang:en|wc:3|flavl:0|cs:9596|v=4,My Bear Hugs,https://www.indiamart.com/bear-hugs/?pos=4&kwd=baby bottle warmer&tags=BA||||9097.53|Price|product|||TS|rsf:gd-|-stype:attr=1|qr_nm:gd|res:RC4|com-cf:nl|ptrs:na|ktp:N0|mc:22705|mtp:S|qry_typ:P|lang:en|wc:3|flavl:0|cs:9596|v=4,False,,Fatehpur,"44/38,,CHAUDHARANA,Fatehpur Ist Floor 44/38 Chaudharana,212601,, Fatehpur - 212601, Uttar Pradesh",,
Phoenix Baby Bottle Warmer,https://www.indiamart.com/proddetail/phoenix-baby-bottle-warmer-2854253302455.html?pos=5&kwd=baby bottle warmer&tags=BA||||8238.463|Price|product|||MDC|rsf:gd-|-stype:attr=1|qr_nm:gd|res:RC4|com-cf:nl|ptrs:na|ktp:N0|mc:22705|mtp:S|qry_typ:P|lang:en|wc:3|flavl:0|cs:9596|v=4,Sun Imports,https://www.indiamart.com/sun-imports-silvassa/?pos=5&kwd=baby bottle warmer&tags=BA||||8238.463|Price|product|||MDC|rsf:gd-|-stype:attr=1|qr_nm:gd|res:RC4|com-cf:nl|ptrs:na|ktp:N0|mc:22705|mtp:S|qry_typ:P|lang:en|wc:3|flavl:0|cs:9596|v=4,False,,Silvassa,"16, Commercial Complex, Green Park, Tokarkhada, Silvassa - 396230, Dist.Dadra and Nagar Haveli and Daman and Diu, Dadra and Nagar Haveli and Daman and Diu",8045730354,
"Babby Warmar FRP Baby Warmer Machine, For Nicu",https://www.indiamart.com/proddetail/baby-warmer-machine-2851327093712.html?pos=6&kwd=baby bottle warmer&tags=BA||||9839.57|Price|product|||TS|rsf:gd-|-stype:attr=1|qr_nm:gd|res:RC4|com-cf:nl|ptrs:na|ktp:N0|mc:22705|mtp:S|qry_typ:P|lang:en|wc:3|flavl:0|cs:9596|v=4,Home Healthcare Services Company,https://www.tvmindia.co.in/?pos=6&kwd=baby bottle warmer&tags=BA||||9839.57|Price|product|||TS|rsf:gd-|-stype:attr=1|qr_nm:gd|res:RC4|com-cf:nl|ptrs:na|ktp:N0|mc:22705|mtp:S|qry_typ:P|lang:en|wc:3|flavl:0|cs:9596|v=4,False,Dum Dum,Kolkata,"4/12a, Hari Mohan Dutta Road,, Dum Dum, Kolkata - 700028, Dist.Kolkata, West Bengal",8046038022,
USB Charging Bottle Warmer Bottle Insulation Cover Heating Bottle for Warm Water,https://www.indiamart.com/proddetail/usb-charging-bottle-warmer-bottle-insulation-cover-heating-bottle-for-warm-water-2853107696891.html?pos=7&kwd=baby bottle warmer&tags=BA||||8230.883|Price|product|||TS|rsf:gd-|-stype:attr=1|qr_nm:gd|res:RC4|com-cf:nl|ptrs:na|ktp:N0|mc:22705|mtp:S|qry_typ:P|lang:en|wc:3|flavl:0|cs:9596|v=4,Tallin Sales,https://www.indiamart.com/tallin-sales/?pos=7&kwd=baby bottle warmer&tags=BA||||8230.883|Price|product|||TS|rsf:gd-|-stype:attr=1|qr_nm:gd|res:RC4|com-cf:nl|ptrs:na|ktp:N0|mc:22705|mtp:S|qry_typ:P|lang:en|wc:3|flavl:0|cs:9596|v=4,False,Singanpor,Surat,"Lakshmi Enclave Basement near Gajera School, Singanpor, Surat - 395004, Dist.Surat, Gujarat",7942542891,
Plastic Baby Bottle Warmer,https://www.indiamart.com/proddetail/baby-bottle-warmer-22987845155.html?pos=8&kwd=baby bottle warmer&tags=BB||||8747.203|Price|product|||NA|rsf:gd-|-stype:attr=1|qr_nm:gd|res:RC4|com-cf:nl|ptrs:na|ktp:N0|mc:22705|mtp:S|qry_typ:P|lang:en|wc:3|flavl:0|cs:9596|v=4,Pooja Furnishings,https://www.indiamart.com/pooja-furnishing-panipat/?pos=8&kwd=baby bottle warmer&tags=BB||||8747.203|Price|product|||NA|rsf:gd-|-stype:attr=1|qr_nm:gd|res:RC4|com-cf:nl|ptrs:na|ktp:N0|mc:22705|mtp:S|qry_typ:P|lang:en|wc:3|flavl:0|cs:9596|v=4,False,,Panipat,"H.No.56 Sawan Park Model Town, Panipat - 132103, Dist.Panipat, Haryana",8043880505,
Baby Bottle Warmer,https://www.indiamart.com/proddetail/baby-bottle-warmer-2850019770912.html?pos=9&kwd=baby bottle warmer&tags=BB||||9839.57|Price|product|||NA|rsf:gd-|-stype:attr=1|qr_nm:gd|res:RC4|com-cf:nl|ptrs:na|ktp:N0|mc:22705|mtp:S|qry_typ:P|lang:en|wc:3|flavl:0|cs:9596|v=4,Sri Ganesh Enterprise,https://www.indiamart.com/sriganeshenterprise/?pos=9&kwd=baby bottle warmer&tags=BB||||9839.57|Price|product|||NA|rsf:gd-|-stype:attr=1|qr_nm:gd|res:RC4|com-cf:nl|ptrs:na|ktp:N0|mc:22705|mtp:S|qry_typ:P|lang:en|wc:3|flavl:0|cs:9596|v=4,False,,Kolkata,"8, 2nd Floor, Ashyana Building, Ram Lochan Mullick Street, Kolkata - 700007, Dist.Kolkata, West Bengal",8047668863,
"Cotton USB Baby Bottle Warmer Kit, Capacity: 54 Ounces",https://www.indiamart.com/proddetail/usb-baby-bottle-warmer-kit-2852468829755.html?pos=10&kwd=baby bottle warmer&tags=BA||||9848.189||product|||NA|rsf:gd-|-stype:attr=1|qr_nm:gd|res:RC4|com-cf:nl|ptrs:na|ktp:N0|mc:22705|mtp:S|qry_typ:P|lang:en|wc:3|flavl:0|cs:9596|v=4,R S Venture,https://www.indiamart.com/rsventure/?pos=10&kwd=baby bottle warmer&tags=BA||||9848.189||product|||NA|rsf:gd-|-stype:attr=1|qr_nm:gd|res:RC4|com-cf:nl|ptrs:na|ktp:N0|mc:22705|mtp:S|qry_typ:P|lang:en|wc:3|flavl:0|cs:9596|v=4,False,Mahananda Para,Siliguri,"Basement, Holding No.153/9/197/1/N, Golden Plaza, Burdwan Road, Indusind Bank, Mahananda Para Ward 4 Darjeeling, Mahananda Para, Siliguri - 734001, Dist.Darjiling, West Bengal",8048206752,
Bottel Warmer,,Global Traders,https://www.indiamart.com/global-traders-howrah/?pos=11&kwd=baby bottle warmer&tags=BB||||9829.308||product|||NA|rsf:gd-|-stype:attr=1|qr_nm:gd|res:RC4|com-cf:nl|ptrs:na|ktp:N0|mc:22705|mtp:S|qry_typ:P|lang:en|wc:3|flavl:0|cs:9596|v=4,False,Dhappa Kolkata,Howrah,"54/7b Debendra Chandra Dey Road, Dhappa Kolkata, Howrah - 700015, Dist.Howrah, West Bengal",8069033745,685
"Mild Steel Baby Bottle Warmer, For Hospital",https://www.indiamart.com/proddetail/baby-bottle-warmer-22488847730.html?pos=12&kwd=baby bottle warmer&tags=CC||||9110.092|Price|product|||TS|rsf:gd-|-stype:attr=1|qr_nm:gd|res:RC4|com-cf:nl|ptrs:na|ktp:N0|mc:22705|mtp:S|qry_typ:P|lang:en|wc:3|flavl:0|cs:9596|v=4,Amraa Enterprises,https://www.amraaenterprises.com/?pos=12&kwd=baby bottle warmer&tags=CC||||9110.092|Price|product|||TS|rsf:gd-|-stype:attr=1|qr_nm:gd|res:RC4|com-cf:nl|ptrs:na|ktp:N0|mc:22705|mtp:S|qry_typ:P|lang:en|wc:3|flavl:0|cs:9596|v=4,False,Rajajipuram,Lucknow,"Plot No. 16, Devpur, Kesari Khera Ward, Rajajipuram, Rajajipuram, Lucknow - 226017, Dist.Lucknow, Uttar Pradesh",7942539974,
Philips Plastic Baby Bottle Warmer,https://www.indiamart.com/proddetail/baby-bottle-warmer-2091779088.html?pos=13&kwd=baby bottle warmer&tags=CC||||8954.051|Price|product|||TS|rsf:gd-|-stype:attr=1|qr_nm:gd|res:RC4|com-cf:nl|ptrs:na|ktp:N0|mc:22705|mtp:S|qry_typ:P|lang:en|wc:3|flavl:0|cs:9596|v=4,Right Med Bio System,https://www.rightmedbiosystem.com/?pos=13&kwd=baby bottle warmer&tags=CC||||8954.051|Price|product|||TS|rsf:gd-|-stype:attr=1|qr_nm:gd|res:RC4|com-cf:nl|ptrs:na|ktp:N0|mc:22705|mtp:S|qry_typ:P|lang:en|wc:3|flavl:0|cs:9596|v=4,False,Kovilambakkam,Chennai,"Plot No. 28, Ground Floor 1st Street, Devi Karumari Amman Nagar, Kovilambakkam, Chennai - 600129, Dist.Chennai, Tamil Nadu",8048965404,
B-Well Bottle Warmer,https://www.indiamart.com/proddetail/b-well-bottle-warmer-6281485162.html?pos=14&kwd=baby bottle warmer&tags=CC||||8211.142|Price|product|||TS|rsf:gd-|-stype:attr=1|qr_nm:gd|res:RC4|com-cf:nl|ptrs:na|ktp:N0|mc:22705|mtp:S|qry_typ:P|lang:en|wc:3|flavl:0|cs:9596|v=4,Seward Systems Inc,https://www.indiamart.com/seward-systems/?pos=14&kwd=baby bottle warmer&tags=CC||||8211.142|Price|product|||TS|rsf:gd-|-stype:attr=1|qr_nm:gd|res:RC4|com-cf:nl|ptrs:na|ktp:N0|mc:22705|mtp:S|qry_typ:P|lang:en|wc:3|flavl:0|cs:9596|v=4,False,Borivali East,Mumbai,"No. 302, Triveni Krupa Building, Carter Road, No. 3, Borivali East, Mumbai - 400066, Dist.Mumbai, Maharashtra",8048602086,
Stainless Steel Baby Bottle Warmer,https://www.indiamart.com/proddetail/baby-bottle-warmer-2852703371762.html?pos=15&kwd=baby bottle warmer&tags=CC||||8663.873|Price|product|||MDC|rsf:gd-|-stype:attr=1|qr_nm:gd|res:RC4|com-cf:nl|ptrs:na|ktp:N0|mc:22705|mtp:S|qry_typ:P|lang:en|wc:3|cs:8833|v=4,Transit Bio Medicals,https://www.indiamart.com/transit-bio-medicals/?pos=15&kwd=baby bottle warmer&tags=CC||||8663.873|Price|product|||MDC|rsf:gd-|-stype:attr=1|qr_nm:gd|res:RC4|com-cf:nl|ptrs:na|ktp:N0|mc:22705|mtp:S|qry_typ:P|lang:en|wc:3|cs:8833|v=4,False,Sunkadakatte,Bengaluru,"No-24/93, Ground Floor, 40 Feet Road, KTG College, Srigandha Nagar, Hegganahalli Cross,, Sunkadakatte, Bengaluru - 560091, Dist.Bengaluru, Karnataka",8045910834,
"White PVC Extra Care Baby Bottle Warmer, Capacity: 100 mL",https://www.indiamart.com/proddetail/extra-care-baby-bottle-warmer-2853686229355.html?pos=16&kwd=baby bottle warmer&tags=CC||||8752.144|Price|product|||MDC|rsf:gd-|-stype:attr=1|qr_nm:gd|res:RC4|com-cf:nl|ptrs:na|ktp:N0|mc:22705|mtp:S|qry_typ:P|lang:en|wc:3|cs:8833|v=4,J V M Thermometer Industries,https://www.indiamart.com/jvm-thermometer-industries/?pos=16&kwd=baby bottle warmer&tags=CC||||8752.144|Price|product|||MDC|rsf:gd-|-stype:attr=1|qr_nm:gd|res:RC4|com-cf:nl|ptrs:na|ktp:N0|mc:22705|mtp:S|qry_typ:P|lang:en|wc:3|cs:8833|v=4,False,Naraina,New Delhi,"1st Floor, B-103/5, Naraina Industrial Area, Phase-I, South West Delhi, Naraina, New Delhi - 110028, Dist.Delhi, Delhi",7942622289,
Stainless Steel Single Posner Bottle Warmer,https://www.indiamart.com/proddetail/single-posner-bottle-warmer-27018656191.html?pos=17&kwd=baby bottle warmer&tags=CC||||8538.78|Price|product|||MDC|rsf:gd-|-stype:attr=1|qr_nm:gd|res:RC4|com-cf:nl|ptrs:na|ktp:N0|mc:22705|mtp:S|qry_typ:P|lang:en|wc:3|cs:8833|v=4,JANATHA MACHINES,https://www.indiamart.com/janathamachines/?pos=17&kwd=baby bottle warmer&tags=CC||||8538.78|Price|product|||MDC|rsf:gd-|-stype:attr=1|qr_nm:gd|res:RC4|com-cf:nl|ptrs:na|ktp:N0|mc:22705|mtp:S|qry_typ:P|lang:en|wc:3|cs:8833|v=4,False,Kollakadavu,Chengannur,"Shed No C 16 A And B Kollakadavu Industrial Estate JANATHA MACHINES Kallimel PO Alappuzha a,, Kollakadavu, Chengannur - 690509, Dist.Alappuzha, Kerala",8043894517,
Pigeon Electric Bottle Warmer,https://www.indiamart.com/proddetail/pigeon-electric-bottle-warmer-2852326697033.html?pos=18&kwd=baby bottle warmer&tags=CC||||8307.81|Price|product|||MDC|rsf:gd-|-stype:attr=1|qr_nm:gd|res:RC4|com-cf:nl|ptrs:na|ktp:N0|mc:22705|mtp:S|qry_typ:P|lang:en|wc:3|cs:8833|v=4,Bhavana Agency,https://www.indiamart.com/bhavana-agency/?pos=18&kwd=baby bottle warmer&tags=CC||||8307.81|Price|product|||MDC|rsf:gd-|-stype:attr=1|qr_nm:gd|res:RC4|com-cf:nl|ptrs:na|ktp:N0|mc:22705|mtp:S|qry_typ:P|lang:en|wc:3|cs:8833|v=4,False,Sadashiv Peth,Pune,"S No 4, 841/1, Asset Gold, Sadashiv Peth, Sadashiv Peth, Pune - 411030, Dist.Pune, Maharashtra",8047788291,
Ideal Surgical Mild Steel Infant Warmer,https://www.indiamart.com/proddetail/infant-warmer-10829803433.html?pos=19&kwd=baby bottle warmer&tags=CC||||8954.051|Price|product|||TS|rsf:gd-|-stype:attr=1|qr_nm:gd|res:RC4|com-cf:nl|ptrs:na|ktp:N0|mc:22705|mtp:S|qry_typ:P|lang:en|wc:3|cs:8833|v=4,Ideal Surgical Company,https://www.idealsurgicalcompany.com/?pos=19&kwd=baby bottle warmer&tags=CC||||8954.051|Price|product|||TS|rsf:gd-|-stype:attr=1|qr_nm:gd|res:RC4|com-cf:nl|ptrs:na|ktp:N0|mc:22705|mtp:S|qry_typ:P|lang:en|wc:3|cs:8833|v=4,False,Chinthadripet,Chennai,"No. 840, Mount Road opp Anna Statue, Chinthadripet, Chennai - 600002, Dist.Chennai, Tamil Nadu",8048963463,
Stainless Steel Bottle Warmer Machine,https://www.indiamart.com/proddetail/bottle-warmer-machine-7010038497.html?pos=20&kwd=baby bottle warmer&tags=||||8226.563||product|||MDC|rsf:gd-|-stype:attr=1|qr_nm:gd|res:RC4|com-cf:nl|ptrs:na|ktp:N0|mc:22705|mtp:S|qry_typ:P|lang:en|wc:3|cs:8833|v=4,AVS Pack Tech,https://www.indiamart.com/avs-packtech/?pos=20&kwd=baby bottle warmer&tags=||||8226.563||product|||MDC|rsf:gd-|-stype:attr=1|qr_nm:gd|res:RC4|com-cf:nl|ptrs:na|ktp:N0|mc:22705|mtp:S|qry_typ:P|lang:en|wc:3|cs:8833|v=4,False,Airoli,Navi Mumbai,"Flat No-202, Shree Ram Darshan C.H.S, Sector-8, Plot No.12,Airoli,, Airoli, Navi Mumbai - 400708, Dist.Thane, Maharashtra",8047651530,
Radiant Warmers FRP Eco Baby Warmer Single Sensor,https://www.indiamart.com/proddetail/eco-baby-warmer-single-sensor-2854078615955.html?pos=21&kwd=baby bottle warmer&tags=||||8788.382|Price|product|||TS|rsf:gd-|-stype:attr=1|qr_nm:gd|res:RC4|com-cf:nl|ptrs:na|ktp:N0|mc:22705|mtp:S|qry_typ:P|lang:en|wc:3|cs:8833|v=4,Nareena Lifesciences Private Limited,https://www.nareenalifesciences.in/?pos=21&kwd=baby bottle warmer&tags=||||8788.382|Price|product|||TS|rsf:gd-|-stype:attr=1|qr_nm:gd|res:RC4|com-cf:nl|ptrs:na|ktp:N0|mc:22705|mtp:S|qry_typ:P|lang:en|wc:3|cs:8833|v=4,False,Surajpur,Greater Noida,"I-23, Site C, Industrial Area, Surajpur, G. B. Nagar District, Surajpur, Greater Noida - 201308, Dist.Gautam Budh Nagar, Uttar Pradesh",8048961950,
"Mild Steel Round Baby Warmer, For Hospital, Model Name/Number: Bs 9999",https://www.indiamart.com/proddetail/round-baby-warmer-25883304433.html?pos=22&kwd=baby bottle warmer&tags=||||8601.347|Price|product|||TS|rsf:gd-|-stype:attr=1|qr_nm:gd|res:RC4|com-cf:nl|ptrs:na|ktp:N0|mc:22705|mtp:S|qry_typ:P|lang:en|wc:3|cs:8833|v=4,B. S. Care,https://www.bscare.in/?pos=22&kwd=baby bottle warmer&tags=||||8601.347|Price|product|||TS|rsf:gd-|-stype:attr=1|qr_nm:gd|res:RC4|com-cf:nl|ptrs:na|ktp:N0|mc:22705|mtp:S|qry_typ:P|lang:en|wc:3|cs:8833|v=4,False,Harmada,Jaipur,"Shop no -3,2503, New Khoti ,Near Anand Vihar,, Harmada, Jaipur - 302012, Dist.Jaipur, Rajasthan",8047677057,
Radiant Warmers Mild Steel Baby Warmer Machine,https://www.indiamart.com/proddetail/baby-warmer-machine-2854050110548.html?pos=23&kwd=baby bottle warmer&tags=||||8752.144|Price|product|||TS|rsf:gd-|-stype:attr=1|qr_nm:gd|res:RC4|com-cf:nl|ptrs:na|ktp:N0|mc:22705|mtp:S|qry_typ:P|lang:en|wc:3|cs:8833|v=4,Ativeer Surgical Emporium,https://www.ativeersurgical.com/?pos=23&kwd=baby bottle warmer&tags=||||8752.144|Price|product|||TS|rsf:gd-|-stype:attr=1|qr_nm:gd|res:RC4|com-cf:nl|ptrs:na|ktp:N0|mc:22705|mtp:S|qry_typ:P|lang:en|wc:3|cs:8833|v=4,False,,New Delhi,"Ground Floor, B 21, Krishna Nagar, New Delhi - 110051, Dist.Delhi, Delhi",8046054177,
Inspiration Healthcare Radiant Warmers Baby Warmer For Hospital,https://www.indiamart.com/proddetail/baby-warmer-for-hospital-15781936433.html?pos=24&kwd=baby bottle warmer&tags=||||8740.707|Price|product|||TS|rsf:gd-|-stype:attr=1|qr_nm:gd|res:RC4|com-cf:nl|ptrs:na|ktp:N0|mc:22705|mtp:S|qry_typ:P|lang:en|wc:3|cs:8833|v=4,Cardio Care,https://www.indiamart.com/cardio-care-mohali/?pos=24&kwd=baby bottle warmer&tags=||||8740.707|Price|product|||TS|rsf:gd-|-stype:attr=1|qr_nm:gd|res:RC4|com-cf:nl|ptrs:na|ktp:N0|mc:22705|mtp:S|qry_typ:P|lang:en|wc:3|cs:8833|v=4,True,Papri Village,Mohali,"Plot 197 Jlpl Ind Park Sec 82 Cardio Care Jlpl Ind Park Sec 82, Papri Village, Mohali - 140306, Dist.Mohali, Punjab",8048973649,
"Ms Infant Baby Warmer, For Hospital",https://www.indiamart.com/proddetail/infant-baby-warmer-21341657133.html?pos=25&kwd=baby bottle warmer&tags=||||8752.144|Price|product|||TS|rsf:gd-|-stype:attr=1|qr_nm:gd|res:RC4|com-cf:nl|ptrs:na|ktp:N0|mc:22705|mtp:S|qry_typ:P|lang:en|wc:3|cs:8833|v=4,Anya Surgical & Helthcare Enterprises,https://www.anyasurgicalhealthcare.com/?pos=25&kwd=baby bottle warmer&tags=||||8752.144|Price|product|||TS|rsf:gd-|-stype:attr=1|qr_nm:gd|res:RC4|com-cf:nl|ptrs:na|ktp:N0|mc:22705|mtp:S|qry_typ:P|lang:en|wc:3|cs:8833|v=4,False,Gulistanpur,New Delhi,"B-9,Dda Market,Rajouri Garden,Tagore Garden, Gulistanpur, New Delhi - 110027, Dist.Delhi, Delhi",8048263787,
Infant Baby Warmer,https://www.indiamart.com/proddetail/infant-baby-warmer-2854692748430.html?pos=26&kwd=baby bottle warmer&tags=||||8785.791|Price|product|||TS|rsf:gd-|-stype:attr=1|qr_nm:gd|res:RC4|com-cf:nl|ptrs:na|ktp:N0|mc:22705|mtp:S|qry_typ:P|lang:en|wc:3|cs:8833|v=4,Medplus Hospital Solutions,https://www.medplushospital.in/?pos=26&kwd=baby bottle warmer&tags=||||8785.791|Price|product|||TS|rsf:gd-|-stype:attr=1|qr_nm:gd|res:RC4|com-cf:nl|ptrs:na|ktp:N0|mc:22705|mtp:S|qry_typ:P|lang:en|wc:3|cs:8833|v=4,False,Sahibabad,Ghaziabad,"Naveen Park 3, Plot No - 24, F- II Floor, Sahibabad, Sahibabad, Ghaziabad - 201005, Dist.Ghaziabad, Uttar Pradesh",8047530873,
"Radiant Baby Warmer, For Hospital, For Nicu",https://www.indiamart.com/proddetail/radiant-baby-warmer-20218936297.html?pos=27&kwd=baby bottle warmer&tags=||||8230.883|Price|product|||TS|rsf:gd-|-stype:attr=1|qr_nm:gd|res:RC4|com-cf:nl|ptrs:na|ktp:N0|mc:22705|mtp:S|qry_typ:P|lang:en|wc:3|cs:8833|v=4,Monarch Meditech,https://www.monarchmeditech.net/?pos=27&kwd=baby bottle warmer&tags=||||8230.883|Price|product|||TS|rsf:gd-|-stype:attr=1|qr_nm:gd|res:RC4|com-cf:nl|ptrs:na|ktp:N0|mc:22705|mtp:S|qry_typ:P|lang:en|wc:3|cs:8833|v=4,False,VARACHHA,Surat,"A-112, Ruby Trade Centre ,Nr.Rajhans point, VARACHHA, Surat - 395006, Dist.Surat, Gujarat",8048602789,
Radiant Warmers Stainless Steel Baby Warmer,https://www.indiamart.com/proddetail/stainless-steel-baby-warmer-2854085455091.html?pos=28&kwd=baby bottle warmer&tags=||||8580.032|Price|product|||TS|rsf:gd-|-stype:attr=1|qr_nm:gd|res:RC4|com-cf:nl|ptrs:na|ktp:N0|mc:22705|mtp:S|qry_typ:P|lang:en|wc:3|cs:8833|v=4,Chopra Enterprises,https://www.indiamart.com/chopraenterprisesamritsar/?pos=28&kwd=baby bottle warmer&tags=||||8580.032|Price|product|||TS|rsf:gd-|-stype:attr=1|qr_nm:gd|res:RC4|com-cf:nl|ptrs:na|ktp:N0|mc:22705|mtp:S|qry_typ:P|lang:en|wc:3|cs:8833|v=4,False,Joshi Colony,Amritsar,"51, Chopra Enterprises, Joshi Colony, Mall Road, Joshi Colony, Amritsar - 143001, Dist.Amritsar, Punjab",8044010970,
Mild Steel Infant Radiant Baby Warmer,https://www.indiamart.com/proddetail/infant-radiant-baby-warmer-2853097294433.html?pos=29&kwd=baby bottle warmer&tags=||||9110.092|Price|product|||TS|rsf:gd-|-stype:attr=1|qr_nm:gd|res:RC4|com-cf:nl|ptrs:na|ktp:N0|mc:22705|mtp:S|qry_typ:P|lang:en|wc:3|cs:8833|v=4,Life Care Medical Equipment & Services,https://www.indiamart.com/lifecaremedicalequipmentservices/?pos=29&kwd=baby bottle warmer&tags=||||9110.092|Price|product|||TS|rsf:gd-|-stype:attr=1|qr_nm:gd|res:RC4|com-cf:nl|ptrs:na|ktp:N0|mc:22705|mtp:S|qry_typ:P|lang:en|wc:3|cs:8833|v=4,False,Habibpur,Lucknow,"366/159 Campwell Road Kishore Ganj, Habibpur, Lucknow - 226003, Dist.Lucknow, Uttar Pradesh",7942818081,
Metal Infant Radiant Baby Warmer,https://www.indiamart.com/proddetail/infant-radiant-baby-warmer-23133349391.html?pos=30&kwd=baby bottle warmer&tags=||||8211.142|Price|product|||TS|rsf:gd-|-stype:attr=1|qr_nm:gd|res:RC4|com-cf:nl|ptrs:na|ktp:N0|mc:22705|mtp:S|qry_typ:P|lang:en|wc:3|cs:8833|v=4,Aps Embedded Systems,https://www.apsembeddedsystems.com/?pos=30&kwd=baby bottle warmer&tags=||||8211.142|Price|product|||TS|rsf:gd-|-stype:attr=1|qr_nm:gd|res:RC4|com-cf:nl|ptrs:na|ktp:N0|mc:22705|mtp:S|qry_typ:P|lang:en|wc:3|cs:8833|v=4,False,Kandivali West,Mumbai,"Gala No 5, 1 St Floor,, Neelam Industrial Estate, Shantilal Modi, Kandivali West, Mumbai - 400067, Dist.Mumbai, Maharashtra",8048953297,
Mild Steel Infant Radiant Baby Warmer,https://www.indiamart.com/proddetail/infant-radiant-baby-warmer-2850435790588.html?pos=31&kwd=baby bottle warmer&tags=||||8747.203|Price|product|||TS|rsf:gd-|-stype:attr=1|qr_nm:gd|res:RC4|com-cf:nl|ptrs:na|ktp:N0|mc:22705|mtp:S|qry_typ:P|lang:en|wc:3|cs:8833|v=4,Luft India,https://www.indiamart.com/luft-india/?pos=31&kwd=baby bottle warmer&tags=||||8747.203|Price|product|||TS|rsf:gd-|-stype:attr=1|qr_nm:gd|res:RC4|com-cf:nl|ptrs:na|ktp:N0|mc:22705|mtp:S|qry_typ:P|lang:en|wc:3|cs:8833|v=4,False,,Panipat,"KHEWAT NO. 158,GRAM MOHIDINPUR,THIRANA ,MADLAUDA,PANIPAT, Panipat - 132103, Dist.Panipat, Haryana",7942820401,
"Infant Radiant Baby Warmer, For Hospital, Model Name/Number: Essential Series",https://www.indiamart.com/proddetail/infant-radiant-baby-warmer-2850143259230.html?pos=32&kwd=baby bottle warmer&tags=||||8752.144||product|||TS|rsf:gd-|-stype:attr=1|qr_nm:gd|res:RC4|com-cf:nl|ptrs:na|ktp:N0|mc:22705|mtp:S|qry_typ:P|lang:en|wc:3|cs:8833|v=4,Mahika Medical Private Limited,https://www.indiamart.com/mahikamedical/?pos=32&kwd=baby bottle warmer&tags=||||8752.144||product|||TS|rsf:gd-|-stype:attr=1|qr_nm:gd|res:RC4|com-cf:nl|ptrs:na|ktp:N0|mc:22705|mtp:S|qry_typ:P|lang:en|wc:3|cs:8833|v=4,False,Patparganj Industrial Area,New Delhi,"51, First Floor, Functional Industrial Area, Patparganj, Patparganj Industrial Area, New Delhi - 110092, Dist.Delhi, Delhi",8046031733,
"Mild Steel KORRIDA BABY WARMER WITH PHOTOTHERAPHY, For Nicu",https://www.indiamart.com/proddetail/korrida-baby-warmer-with-phototheraphy-2851871247812.html?pos=33&kwd=baby bottle warmer&tags=||||8230.883|Price|product|||TS|rsf:gd-|-stype:attr=1|qr_nm:gd|res:RC4|com-cf:nl|ptrs:na|ktp:N0|mc:22705|mtp:S|qry_typ:P|lang:en|wc:3|cs:8833|v=4,korrida medical systems,https://www.korrida.in/?pos=33&kwd=baby bottle warmer&tags=||||8230.883|Price|product|||TS|rsf:gd-|-stype:attr=1|qr_nm:gd|res:RC4|com-cf:nl|ptrs:na|ktp:N0|mc:22705|mtp:S|qry_typ:P|lang:en|wc:3|cs:8833|v=4,False,Umarwada,Surat,"No. 376, Ranuja Dham Society, Bombay Market To Puna Gam Road Near Archna School, Umarwada, Surat - 395010, Dist.Surat, Gujarat",8047631084,
"FRP Infant Baby Warmer, For Hospital, Model Name/Number: Nice 5000",https://www.indiamart.com/proddetail/infant-baby-warmer-20750994262.html?pos=34&kwd=baby bottle warmer&tags=||||8307.81|Price|product|||TS|rsf:gd-|-stype:attr=1|qr_nm:gd|res:RC4|com-cf:nl|ptrs:na|ktp:N0|mc:22705|mtp:S|qry_typ:P|lang:en|wc:3|cs:8833|v=4,Angel Medical Equipments,https://www.indiamart.com/angel-medical/?pos=34&kwd=baby bottle warmer&tags=||||8307.81|Price|product|||TS|rsf:gd-|-stype:attr=1|qr_nm:gd|res:RC4|com-cf:nl|ptrs:na|ktp:N0|mc:22705|mtp:S|qry_typ:P|lang:en|wc:3|cs:8833|v=4,False,Hadapsar,Pune,"Sr. No. 59/3, H. no. 7, Azad Nagar Nr. Kroot School, Hadapsar, Pune - 411028, Dist.Pune, Maharashtra",8048951108,
Radiant Baby Warmer For Hospital,https://www.indiamart.com/proddetail/radiant-baby-warmer-14547767462.html?pos=35&kwd=baby bottle warmer&tags=||||8752.144|Price|product|||TS|rsf:gd-|-stype:attr=1|qr_nm:gd|res:RC4|com-cf:nl|ptrs:na|ktp:N0|mc:22705|mtp:S|qry_typ:P|lang:en|wc:3|cs:8833|v=4,Martand Medical Services,https://www.indiamart.com/martand-medical-services/?pos=35&kwd=baby bottle warmer&tags=||||8752.144|Price|product|||TS|rsf:gd-|-stype:attr=1|qr_nm:gd|res:RC4|com-cf:nl|ptrs:na|ktp:N0|mc:22705|mtp:S|qry_typ:P|lang:en|wc:3|cs:8833|v=4,True,Dabri,New Delhi,"F-21,Block-F,Dwarka Puri, Dabri, New Delhi - 110045, Dist.Delhi, Delhi",8048963184,
Radiant Warmers Mild Steel Baby Warmer Single / Dual Sensor,https://www.indiamart.com/proddetail/baby-warmer-single-dual-sensor-26660056888.html?pos=36&kwd=baby bottle warmer&tags=||||9110.092|Price|product|||TS|rsf:gd-|-stype:attr=1|qr_nm:gd|res:RC4|com-cf:nl|ptrs:na|ktp:N0|mc:22705|mtp:S|qry_typ:P|lang:en|wc:3|cs:8833|v=4,M/s Limra Healthcare,https://www.indiamart.com/limrahealthcare-lucknow/?pos=36&kwd=baby bottle warmer&tags=||||9110.092|Price|product|||TS|rsf:gd-|-stype:attr=1|qr_nm:gd|res:RC4|com-cf:nl|ptrs:na|ktp:N0|mc:22705|mtp:S|qry_typ:P|lang:en|wc:3|cs:8833|v=4,False,Lalbagh,Lucknow,"UGF-10, Ahsan Plaza C/O Harmain Opticals 126/31, B N Road, Lalbagh, Lucknow - 226001, Dist.Lucknow, Uttar Pradesh",8046067705,
"FRP Infant Radiant Heat baby Warmer Single Sensor, For Hospital, Model Name/Number: DNS-524",https://www.indiamart.com/proddetail/infant-radiant-heat-baby-warmer-single-sensor-21304582462.html?pos=37&kwd=baby bottle warmer&tags=||||8752.144|Price|product|||TS|rsf:gd-|-stype:attr=1|qr_nm:gd|res:RC4|com-cf:nl|ptrs:na|ktp:N0|mc:22705|mtp:S|qry_typ:P|lang:en|wc:3|cs:8833|v=4,Surgical Hub,https://www.dnssurgicalhub.com/?pos=37&kwd=baby bottle warmer&tags=||||8752.144|Price|product|||TS|rsf:gd-|-stype:attr=1|qr_nm:gd|res:RC4|com-cf:nl|ptrs:na|ktp:N0|mc:22705|mtp:S|qry_typ:P|lang:en|wc:3|cs:8833|v=4,False,Bawana,New Delhi,"No. K-218, DSIIDC Industrial Area Bawana, Bawana, New Delhi - 110039, Dist.Delhi, Delhi",7942560227,
Mild Steel Infant Radiant Baby Warmer,https://www.indiamart.com/proddetail/infant-radiant-baby-warmer-2850480573230.html?pos=38&kwd=baby bottle warmer&tags=||||8230.883|Price|product|||TS|rsf:gd-|-stype:attr=1|qr_nm:gd|res:RC4|com-cf:nl|ptrs:na|ktp:N0|mc:22705|mtp:S|qry_typ:P|lang:en|wc:3|cs:8833|v=4,VD Bio Medisystems,https://www.indiamart.com/vd-bio-medisystems/?pos=38&kwd=baby bottle warmer&tags=||||8230.883|Price|product|||TS|rsf:gd-|-stype:attr=1|qr_nm:gd|res:RC4|com-cf:nl|ptrs:na|ktp:N0|mc:22705|mtp:S|qry_typ:P|lang:en|wc:3|cs:8833|v=4,False,Varachha Road,Surat,"Shop No B 19 Jamna Chember, Second Floor, Jamna Chember, Varachha Road, Varachha Road, Surat - 395006, Dist.Surat, Gujarat",7942821961,
Mild Steel Radiant Baby Warmer With Inbuilt PhotoTherapy (Model: iCore 300),https://www.indiamart.com/proddetail/radiant-baby-warmer-with-inbuilt-phototherapy-model-icore-300-2853461909188.html?pos=39&kwd=baby bottle warmer&tags=||||8507.67|Price|product|||TS|rsf:gd-|-stype:attr=1|qr_nm:gd|res:RC4|com-cf:nl|ptrs:na|ktp:N0|mc:22705|mtp:S|qry_typ:P|lang:en|wc:3|cs:8833|v=4,IBIS Medical Equipment & Systems Private Limited,https://www.indiamart.com/ibismedicalequipmentsystems/?pos=39&kwd=baby bottle warmer&tags=||||8507.67|Price|product|||TS|rsf:gd-|-stype:attr=1|qr_nm:gd|res:RC4|com-cf:nl|ptrs:na|ktp:N0|mc:22705|mtp:S|qry_typ:P|lang:en|wc:3|cs:8833|v=4,False,Thammanam,Ernakulam,"45/279, Koothappady Road, Anjumari, PO Thammanam, Thammanam, Ernakulam - 682032, Dist.Ernakulam, Kerala",8046063671,
FRP Hybrid Radiant Baby Warmer,https://www.indiamart.com/proddetail/hybrid-radiant-baby-warmer-2852658968048.html?pos=40&kwd=baby bottle warmer&tags=||||8955.158|Price|product|||MDC|rsf:gd-|-stype:attr=1|qr_nm:gd|res:RC4|com-cf:nl|ptrs:na|ktp:N0|mc:22705|mtp:S|qry_typ:P|lang:en|wc:3|cs:8833|v=4,BYTO MED India,https://www.indiamart.com/bytomedindia/?pos=40&kwd=baby bottle warmer&tags=||||8955.158|Price|product|||MDC|rsf:gd-|-stype:attr=1|qr_nm:gd|res:RC4|com-cf:nl|ptrs:na|ktp:N0|mc:22705|mtp:S|qry_typ:P|lang:en|wc:3|cs:8833|v=4,False,Aonla,Aonla,"Mohalla Gher Sitab Ray Khera, Aonla Bareilly, Aonla, Aonla - 243301, Uttar Pradesh",7949086930,
Radiant Warmers Mild Steel Zeal Baby Warmer model 2100,https://www.indiamart.com/proddetail/zeal-baby-warmer-model-2100-2854875736948.html?pos=41&kwd=baby bottle warmer&tags=||||8752.144|Price|product|||TS|rsf:gd-|-stype:attr=1|qr_nm:gd|res:RC4|com-cf:nl|ptrs:na|ktp:N0|mc:22705|mtp:S|qry_typ:P|lang:en|wc:3|cs:8833|v=4,MediGen Solutions,https://www.indiamart.com/medigen-solutions/?pos=41&kwd=baby bottle warmer&tags=||||8752.144|Price|product|||TS|rsf:gd-|-stype:attr=1|qr_nm:gd|res:RC4|com-cf:nl|ptrs:na|ktp:N0|mc:22705|mtp:S|qry_typ:P|lang:en|wc:3|cs:8833|v=4,False,Shakarpur,New Delhi,"A 164, Aruna Park, Shakarpur, New Delhi - 110092, Dist.Delhi, Delhi",8046079002,
Mild Steel Radiant Baby Warmer,https://www.indiamart.com/proddetail/radiant-baby-warmer-2854098286888.html?pos=42&kwd=baby bottle warmer&tags=||||8307.81|Price|product|||TS|rsf:gd-|-stype:attr=1|qr_nm:gd|res:RC4|com-cf:nl|ptrs:na|ktp:N0|mc:22705|mtp:S|qry_typ:P|lang:en|wc:3|cs:8833|v=4,Prime Plus Distribution,https://www.prime-plus.in/?pos=42&kwd=baby bottle warmer&tags=||||8307.81|Price|product|||TS|rsf:gd-|-stype:attr=1|qr_nm:gd|res:RC4|com-cf:nl|ptrs:na|ktp:N0|mc:22705|mtp:S|qry_typ:P|lang:en|wc:3|cs:8833|v=4,False,Bibwewadi,Pune,"Shop No. 108,1st Floor,Purple Plaza,Bibwewadi,Pune, Bibwewadi, Pune - 411037, Dist.Pune, Maharashtra",8048979406,
"Mild Steel Dev Electromedical Baby Heat Warmer, For Hospital",https://www.indiamart.com/proddetail/dev-electromedical-baby-heat-warmer-2850220493430.html?pos=43&kwd=baby bottle warmer&tags=||||7981.8203|Price|product|||MDC|rsf:gd-|-stype:attr=1|qr_nm:gd|res:RC4|com-cf:nl|ptrs:na|ktp:N0|mc:22705|mtp:S|qry_typ:P|lang:en|wc:3|cs:8833|v=4,Dev Electromedical,https://www.indiamart.com/develectromedical/?pos=43&kwd=baby bottle warmer&tags=||||7981.8203|Price|product|||MDC|rsf:gd-|-stype:attr=1|qr_nm:gd|res:RC4|com-cf:nl|ptrs:na|ktp:N0|mc:22705|mtp:S|qry_typ:P|lang:en|wc:3|cs:8833|v=4,False,Piplana,Shapar,"Opp. Anmol Vidhyalay, Block 2 , Rajkot, Piplana, Shapar - 360024, Gujarat",7942959996,
NICU Mild Steel MEDFOX Radiant Baby Warmer double sensor,https://www.indiamart.com/proddetail/medfox-radiant-baby-warmer-double-sensor-2850650607491.html?pos=44&kwd=baby bottle warmer&tags=||||8752.144|Price|product|||TS|rsf:gd-|-stype:attr=1|qr_nm:gd|res:RC4|com-cf:nl|ptrs:na|ktp:N0|mc:22705|mtp:S|qry_typ:P|lang:en|wc:3|cs:8833|v=4,Illumix Led Lightning Private Limited,https://www.indiamart.com/illumix-led-lightning/?pos=44&kwd=baby bottle warmer&tags=||||8752.144|Price|product|||TS|rsf:gd-|-stype:attr=1|qr_nm:gd|res:RC4|com-cf:nl|ptrs:na|ktp:N0|mc:22705|mtp:S|qry_typ:P|lang:en|wc:3|cs:8833|v=4,False,Kanjhawala,New Delhi,"Plot No.580/1 Kanjhawala Industrial Area, Kanjhawala, New Delhi - 110081, Dist.Delhi, Delhi",8047828849,
"Nicu Product Mild Steel Technocrats Baby Warmer, Model Name/Number: TW1",https://www.indiamart.com/proddetail/technocrats-baby-warmer-26184185730.html?pos=45&kwd=baby bottle warmer&tags=||||9110.092|Price|product|||TS|rsf:gd-|-stype:attr=1|qr_nm:gd|res:RC4|com-cf:nl|ptrs:na|ktp:N0|mc:22705|mtp:S|qry_typ:P|lang:en|wc:3|cs:8833|v=4,Technocrats Healthcare,https://www.indiamart.com/technocrats-services/?pos=45&kwd=baby bottle warmer&tags=||||9110.092|Price|product|||TS|rsf:gd-|-stype:attr=1|qr_nm:gd|res:RC4|com-cf:nl|ptrs:na|ktp:N0|mc:22705|mtp:S|qry_typ:P|lang:en|wc:3|cs:8833|v=4,False,Narain Nagar,Lucknow,"123, Maruti Puram, Indianagar, Narain Nagar, Lucknow - 226016, Dist.Lucknow, Uttar Pradesh",8048973016,
Radiant Warmers Baby Open Care Warmer Machine,https://www.indiamart.com/proddetail/baby-open-care-warmer-machine-2854624363597.html?pos=46&kwd=baby bottle warmer&tags=||||8752.144|Price|product|||TS|rsf:gd-|-stype:attr=1|qr_nm:gd|res:RC4|com-cf:nl|ptrs:na|ktp:N0|mc:22705|mtp:S|qry_typ:P|lang:en|wc:3|cs:8833|v=4,Jain Surgical Traders (P) Ltd.,https://www.jainsurgicaltraders.in/?pos=46&kwd=baby bottle warmer&tags=||||8752.144|Price|product|||TS|rsf:gd-|-stype:attr=1|qr_nm:gd|res:RC4|com-cf:nl|ptrs:na|ktp:N0|mc:22705|mtp:S|qry_typ:P|lang:en|wc:3|cs:8833|v=4,False,Chandni Chowk,New Delhi,"No. 1568, A/ G 37-38-39, Amar Sachdeva Building Bhagirath Palace, Chandni Chowk, New Delhi - 110006, Dist.Delhi, Delhi",8047786533,
Radiant Warmers Mild Steel Baby Warmer SIL-TMS,https://www.indiamart.com/proddetail/baby-warmer-sil-tms-2853187145688.html?pos=47&kwd=baby bottle warmer&tags=||||8228.275|Price|product|||TS|rsf:gd-|-stype:attr=1|qr_nm:gd|res:RC4|com-cf:nl|ptrs:na|ktp:N0|mc:22705|mtp:S|qry_typ:P|lang:en|wc:3|cs:8833|v=4,True Meditech Solution,https://www.truemeditech.com/?pos=47&kwd=baby bottle warmer&tags=||||8228.275|Price|product|||TS|rsf:gd-|-stype:attr=1|qr_nm:gd|res:RC4|com-cf:nl|ptrs:na|ktp:N0|mc:22705|mtp:S|qry_typ:P|lang:en|wc:3|cs:8833|v=4,True,Saraspur,Ahmedabad,"Block-e, Shed No 89, Pushpdeep Industrial Hub And Arcade, B/s City Gold Cinema Nutan Mill Compound, Saraspur,, Saraspur, Ahmedabad - 380018, Dist.Ahmedabad, Gujarat",8046043930,
Mild Steel Infant Care Unit Radiant Heat Warmer OEM SET,https://www.indiamart.com/proddetail/infant-care-unit-radiant-heat-warmer-oem-set-26768773988.html?pos=48&kwd=baby bottle warmer&tags=||||8230.883|Price|product|||TS|rsf:gd-|-stype:attr=1|qr_nm:gd|res:RC4|com-cf:nl|ptrs:na|ktp:N0|mc:22705|mtp:S|qry_typ:P|lang:en|wc:3|cs:8833|v=4,Doctroid India Private Limited,https://www.indiamart.com/doctroidhealthcare/?pos=48&kwd=baby bottle warmer&tags=||||8230.883|Price|product|||TS|rsf:gd-|-stype:attr=1|qr_nm:gd|res:RC4|com-cf:nl|ptrs:na|ktp:N0|mc:22705|mtp:S|qry_typ:P|lang:en|wc:3|cs:8833|v=4,False,Puna Gam,Surat,"1st Floor, C Bldg Shop No 8 Puna Gam Shubham Residency Saniya Hemad, Gujarat 395006, Puna Gam, Surat - 395010, Dist.Surat, Gujarat",8048974076,
"SMC -179 Radiant Heat Warmer, For Hospital",https://www.indiamart.com/proddetail/smc-179-radiant-heat-warmer-20392317155.html?pos=49&kwd=baby bottle warmer&tags=||||8823.154|Price|product|||TS|rsf:gd-|-stype:attr=1|qr_nm:gd|res:RC4|com-cf:nl|ptrs:na|ktp:N0|mc:22705|mtp:S|qry_typ:P|lang:en|wc:3|cs:8833|v=4,Singhsa Medicare Corporation,https://www.singhsamedicare.com/?pos=49&kwd=baby bottle warmer&tags=||||8823.154|Price|product|||TS|rsf:gd-|-stype:attr=1|qr_nm:gd|res:RC4|com-cf:nl|ptrs:na|ktp:N0|mc:22705|mtp:S|qry_typ:P|lang:en|wc:3|cs:8833|v=4,False,Kalindi Vihar,Agra,"H.No.- 11,Krishna Paradise,Mauja Naraich Kalindi Vihar,Agra, Kalindi Vihar, Agra - 282006, Dist.Agra, Uttar Pradesh",8048976302,
"GE Healthcare Lullaby Warmer, For Hospital",https://www.indiamart.com/proddetail/ge-healthcare-lullaby-warmer-7692238062.html?pos=50&kwd=baby bottle warmer&tags=||||8663.873||product|||TS|rsf:gd-|-stype:attr=1|qr_nm:gd|res:RC4|com-cf:nl|ptrs:na|ktp:N0|mc:22705|mtp:S|qry_typ:P|lang:en|wc:3|cs:8833|v=4,Wipro Ge Healthcare Pvt.ltd.,https://www.indiamart.com/wiprogehealthcare-lcs/?pos=50&kwd=baby bottle warmer&tags=||||8663.873||product|||TS|rsf:gd-|-stype:attr=1|qr_nm:gd|res:RC4|com-cf:nl|ptrs:na|ktp:N0|mc:22705|mtp:S|qry_typ:P|lang:en|wc:3|cs:8833|v=4,False,Kadugodi,Bengaluru,"Plot No 4, Kadugodi Sadaramangala Industrial Area, Kadugodi, Bengaluru - 560067, Dist.Bengaluru, Karnataka",8046069783,
Radiant Warmer Trolley& Under Surface Phototheraphy,https://www.indiamart.com/proddetail/radiant-warmer-trolley-under-surface-phototheraphy-2850041774133.html?pos=51&kwd=baby bottle warmer&tags=||||8747.203|Price|product|||TS|rsf:gd-|-stype:attr=1|qr_nm:gd|res:RC4|com-cf:nl|ptrs:na|ktp:N0|mc:22705|mtp:S|qry_typ:P|lang:en|wc:3|cs:8833|v=4,Biomed Services,https://www.biomedservices.net/?pos=51&kwd=baby bottle warmer&tags=||||8747.203|Price|product|||TS|rsf:gd-|-stype:attr=1|qr_nm:gd|res:RC4|com-cf:nl|ptrs:na|ktp:N0|mc:22705|mtp:S|qry_typ:P|lang:en|wc:3|cs:8833|v=4,False,Samalkha,Panipat,"Gali No. 1, Opposite NH-1, Near Samalkha City Mall, Samalkha, Samalkha, Panipat - 132101, Dist.Panipat, Haryana",8046032772,
"Infant Radiant Warmer, For Hospital, Model Name/Number: ANP1411",https://www.indiamart.com/proddetail/infant-radiant-warmer-21374941288.html?pos=52&kwd=baby bottle warmer&tags=||||8741.812|Price|product|||TS|rsf:gd-|-stype:attr=1|qr_nm:gd|res:RC4|com-cf:nl|ptrs:na|ktp:N0|mc:22705|mtp:S|qry_typ:P|lang:en|wc:3|cs:8833|v=4,Apothecaries Sundries Mfg. Private Limited,https://www.ascoindia.com/?pos=52&kwd=baby bottle warmer&tags=||||8741.812|Price|product|||TS|rsf:gd-|-stype:attr=1|qr_nm:gd|res:RC4|com-cf:nl|ptrs:na|ktp:N0|mc:22705|mtp:S|qry_typ:P|lang:en|wc:3|cs:8833|v=4,True,Sector 18,Gurugram,"Plot No. 229, Udyog Vihar, Phase-IV, Sector 18, Gurugram - 122015, Dist.Gurgaon, Haryana",8048968234,
RHW1105B Radiant Heat Warmer,https://www.indiamart.com/proddetail/rhw1105b-radiant-heat-warmer-16860588188.html?pos=53&kwd=baby bottle warmer&tags=||||8211.142|Price|product|||TS|rsf:gd-|-stype:attr=1|qr_nm:gd|res:RC4|com-cf:nl|ptrs:na|ktp:N0|mc:22705|mtp:S|qry_typ:P|lang:en|wc:3|cs:8833|v=4,Zeal Medical Private Limited,https://www.indiamart.com/zealmedical/?pos=53&kwd=baby bottle warmer&tags=||||8211.142|Price|product|||TS|rsf:gd-|-stype:attr=1|qr_nm:gd|res:RC4|com-cf:nl|ptrs:na|ktp:N0|mc:22705|mtp:S|qry_typ:P|lang:en|wc:3|cs:8833|v=4,False,Goregaon West,Mumbai,"4/19-A, Piramal Industrial Estate, S. V. Road Goregaon West, Goregaon West, Mumbai - 400062, Dist.Mumbai, Maharashtra",8048980312,
"Mild Steel Infant Radiant warmer, For Nicu, Model Name/Number: AIRQUILT-300DC",https://www.indiamart.com/proddetail/infant-radiant-warmer-27207036597.html?pos=54&kwd=baby bottle warmer&tags=||||8752.144||product|||TS|rsf:gd-|-stype:attr=1|qr_nm:gd|res:RC4|com-cf:nl|ptrs:na|ktp:N0|mc:22705|mtp:S|qry_typ:P|lang:en|wc:3|cs:8833|v=4,SoClean (Brand Of Hail Mediproducts Private Limited),https://www.soclean.in/?pos=54&kwd=baby bottle warmer&tags=||||8752.144||product|||TS|rsf:gd-|-stype:attr=1|qr_nm:gd|res:RC4|com-cf:nl|ptrs:na|ktp:N0|mc:22705|mtp:S|qry_typ:P|lang:en|wc:3|cs:8833|v=4,True,Mayapuri,New Delhi,"W H-2, First Floor, Phase 1 Mayapuri Industrial Area, Mayapuri, New Delhi - 110064, Dist.Delhi, Delhi",8048615132,
"Infant Radiant Warmer With Phototherapy, For Hospital",https://www.indiamart.com/proddetail/infant-radiant-warmer-with-phototherapy-17320875033.html?pos=55&kwd=baby bottle warmer&tags=||||8954.051|Price|product|||TS|rsf:gd-|-stype:attr=1|qr_nm:gd|res:RC4|com-cf:nl|ptrs:na|ktp:N0|mc:22705|mtp:S|qry_typ:P|lang:en|wc:3|cs:8833|v=4,Olives India,https://www.indiamart.com/olives-india-chennai/?pos=55&kwd=baby bottle warmer&tags=||||8954.051|Price|product|||TS|rsf:gd-|-stype:attr=1|qr_nm:gd|res:RC4|com-cf:nl|ptrs:na|ktp:N0|mc:22705|mtp:S|qry_typ:P|lang:en|wc:3|cs:8833|v=4,False,Ashok Nagar Sri Devi Colony,Chennai,"No. 61, VGP, Parijatham Estates, 100 Feet Road, 1st Avenue, Ashok Nagar Sri Devi Colony, Chennai - 600083, Dist.Chennai, Tamil Nadu",8046042589,
"Mild Steel Innova Fixed Bassinet Phototherapy Radiant Heat Warmer, For Nicu, Model Name/Number: BMRHWINV-04",https://www.indiamart.com/proddetail/innova-fixed-bassinet-phototherapy-radiant-heat-warmer-1949442312.html?pos=56&kwd=baby bottle warmer&tags=||||8210.732|Price|product|||TS|rsf:gd-|-stype:attr=1|qr_nm:gd|res:RC4|com-cf:nl|ptrs:na|ktp:N0|mc:22705|mtp:S|qry_typ:P|lang:en|wc:3|cs:8833|v=4,Bird Meditech,https://www.indiamart.com/birdmeditech/?pos=56&kwd=baby bottle warmer&tags=||||8210.732|Price|product|||TS|rsf:gd-|-stype:attr=1|qr_nm:gd|res:RC4|com-cf:nl|ptrs:na|ktp:N0|mc:22705|mtp:S|qry_typ:P|lang:en|wc:3|cs:8833|v=4,False,Vasai East,Vasai,"in109/110, Nidhi dustrial Estate, N.H.No.8, Waliv, East Distt. Palghar, Vasai East, Vasai - 401208, Dist.Thane, Maharashtra",8048611666,
"Mild Steel Infant Radiant Warmer, For Hospital, Model Name/Number: Neonest Rwat",https://www.indiamart.com/proddetail/infant-radiant-warmer-23560207255.html?pos=57&kwd=baby bottle warmer&tags=||||8663.873||product|||TS|rsf:gd-|-stype:attr=1|qr_nm:gd|res:RC4|com-cf:nl|ptrs:na|ktp:N0|mc:22705|mtp:S|qry_typ:P|lang:en|wc:3|cs:8833|v=4,Healkeren Medtronics Private Limited,https://www.indiamart.com/v-care-meditech/?pos=57&kwd=baby bottle warmer&tags=||||8663.873||product|||TS|rsf:gd-|-stype:attr=1|qr_nm:gd|res:RC4|com-cf:nl|ptrs:na|ktp:N0|mc:22705|mtp:S|qry_typ:P|lang:en|wc:3|cs:8833|v=4,False,Abbigere,Bengaluru,"No.4, 2nd Cross, Lakshmipura Main Road Krishnappa Industrial Estate, Abbigere, Bengaluru - 560090, Dist.Bengaluru, Karnataka",8047636703,
"Mild Steel Infant radiant warmer with drawers, For Nicu, Model Name/Number: SH-F300",https://www.indiamart.com/proddetail/infant-radiant-warmer-with-drawers-22735822173.html?pos=58&kwd=baby bottle warmer&tags=||||8752.144|Price|product|||TS|rsf:gd-|-stype:attr=1|qr_nm:gd|res:RC4|com-cf:nl|ptrs:na|ktp:N0|mc:22705|mtp:S|qry_typ:P|lang:en|wc:3|cs:8833|v=4,Stylus Healthcare,https://www.indiamart.com/stylushealthcare/?pos=58&kwd=baby bottle warmer&tags=||||8752.144|Price|product|||TS|rsf:gd-|-stype:attr=1|qr_nm:gd|res:RC4|com-cf:nl|ptrs:na|ktp:N0|mc:22705|mtp:S|qry_typ:P|lang:en|wc:3|cs:8833|v=4,False,Uttam Nagar,New Delhi,"518-A,Pocket-D,Industrial Area,Hastsal, Uttam Nagar, New Delhi - 110059, Dist.Delhi, Delhi",7942544362,
"Technocare Medisysteam Nicu Hospital Intensive Care Radiant Warmer, Model: TM-WR01",https://www.indiamart.com/proddetail/intensive-care-radiant-warmer-11287278630.html?pos=59&kwd=baby bottle warmer&tags=||||8230.883|Price|product|||TS|rsf:gd-|-stype:attr=1|qr_nm:gd|res:RC4|com-cf:nl|ptrs:na|ktp:N0|mc:22705|mtp:S|qry_typ:P|lang:en|wc:3|cs:8833|v=4,Technocare Medisystems,https://www.technocarem.com/?pos=59&kwd=baby bottle warmer&tags=||||8230.883|Price|product|||TS|rsf:gd-|-stype:attr=1|qr_nm:gd|res:RC4|com-cf:nl|ptrs:na|ktp:N0|mc:22705|mtp:S|qry_typ:P|lang:en|wc:3|cs:8833|v=4,False,Umarwada,Surat,"No. C-1310/11, Umarwada, Umarwada, Surat - 395010, Dist.Surat, Gujarat",8048976048,
Infant Radiant Warmer,https://www.indiamart.com/proddetail/infant-radiant-warmer-2853950837088.html?pos=60&kwd=baby bottle warmer&tags=||||8752.144|Price|product|||TS|rsf:gd-|-stype:attr=1|qr_nm:gd|res:RC4|com-cf:nl|ptrs:na|ktp:N0|mc:22705|mtp:S|qry_typ:P|lang:en|wc:3|cs:8833|v=4,B.R. Surgical,https://www.indiamart.com/brsurgical/?pos=60&kwd=baby bottle warmer&tags=||||8752.144|Price|product|||TS|rsf:gd-|-stype:attr=1|qr_nm:gd|res:RC4|com-cf:nl|ptrs:na|ktp:N0|mc:22705|mtp:S|qry_typ:P|lang:en|wc:3|cs:8833|v=4,False,Patel Nagar West,New Delhi,"Ground Floor, H. No. 244, Gali No. 6, Nehru Nagar, Central Delhi, Patel Nagar West, New Delhi - 110008, Dist.Delhi, Delhi",7942556434,
Neonatal Heated Ventilator Circuit compatible,https://www.indiamart.com/proddetail/neonatal-heated-ventilator-circuit-compatible-23239541062.html?pos=61&kwd=baby bottle warmer&tags=||||8752.144|Price|product|||TS|rsf:gd-|-stype:attr=1|qr_nm:gd|res:RC4|com-cf:nl|ptrs:na|ktp:N0|mc:22705|mtp:S|qry_typ:P|lang:en|wc:3|cs:8833|v=4,Medi Bank Systems,https://www.indiamart.com/medibank-systems/?pos=61&kwd=baby bottle warmer&tags=||||8752.144|Price|product|||TS|rsf:gd-|-stype:attr=1|qr_nm:gd|res:RC4|com-cf:nl|ptrs:na|ktp:N0|mc:22705|mtp:S|qry_typ:P|lang:en|wc:3|cs:8833|v=4,False,Mayapuri,New Delhi,"B-86,Second Floor, Front Portion,Block-B, Mayapuri, New Delhi - 110064, Dist.Delhi, Delhi",8046069791,
"Stainless Steel Infant Baby Warmer, For Nicu, Model Name/Number: MM-biw",https://www.indiamart.com/proddetail/infant-baby-warmer-23431696762.html?pos=62&kwd=baby bottle warmer&tags=||||8230.883|Price|product|||TS|rsf:gd-|-stype:attr=1|qr_nm:gd|res:RC4|com-cf:nl|ptrs:na|ktp:N0|mc:22705|mtp:S|qry_typ:P|lang:en|wc:3|cs:8833|v=4,Heartbeat Medical Technologies,https://www.heartbeatmedical.in/?pos=62&kwd=baby bottle warmer&tags=||||8230.883|Price|product|||TS|rsf:gd-|-stype:attr=1|qr_nm:gd|res:RC4|com-cf:nl|ptrs:na|ktp:N0|mc:22705|mtp:S|qry_typ:P|lang:en|wc:3|cs:8833|v=4,False,Nana Varachha,Surat,"424 ABHISHEK ARCADE YOGI CHOWK SURAT, Nana Varachha, Surat - 394510, Dist.Surat, Gujarat",8048983728,
Radiant Warmers FRP Infant Baby Warmer,https://www.indiamart.com/proddetail/infant-baby-warmer-2849746041148.html?pos=63&kwd=baby bottle warmer&tags=||||9520.041|Price|product|||TS|rsf:gd-|-stype:attr=1|qr_nm:gd|res:RC4|com-cf:nl|ptrs:na|ktp:N0|mc:22705|mtp:S|qry_typ:P|lang:en|wc:3|cs:8833|v=4,Live Tech Equipment Private Limited,https://www.livetechequipment.in/?pos=63&kwd=baby bottle warmer&tags=||||9520.041|Price|product|||TS|rsf:gd-|-stype:attr=1|qr_nm:gd|res:RC4|com-cf:nl|ptrs:na|ktp:N0|mc:22705|mtp:S|qry_typ:P|lang:en|wc:3|cs:8833|v=4,False,Kankarbagh,Patna,"No. 202, LN Tower, Opposite KFC, Near Petrol Pump, Main Road Kankarbagh, Kankarbagh, Patna - 800020, Dist.Patna, Bihar",8047643256,
"Mild Steel Innova BMRHWINV Phototherapy Radiant Heat Warmer, For Hospital",https://www.indiamart.com/proddetail/innova-bmrhwinv-phototherapy-radiant-heat-warmer-2851315784697.html?pos=64&kwd=baby bottle warmer&tags=||||9544.876|Price|product|||TS|rsf:gd-|-stype:attr=1|qr_nm:gd|res:RC4|com-cf:nl|ptrs:na|ktp:N0|mc:22705|mtp:S|qry_typ:P|lang:en|wc:3|cs:8833|v=4,Livcare Medical System,https://www.indiamart.com/livcare-medical-system/?pos=64&kwd=baby bottle warmer&tags=||||9544.876|Price|product|||TS|rsf:gd-|-stype:attr=1|qr_nm:gd|res:RC4|com-cf:nl|ptrs:na|ktp:N0|mc:22705|mtp:S|qry_typ:P|lang:en|wc:3|cs:8833|v=4,False,Maripur,Muzaffarpur,"M.I.T Sadar,Bibiganj Ward No-7, Maripur, Muzaffarpur - 842003, Dist.Muzaffarpur, Bihar",8047805207,
"Mild Steel Infant Radiant Baby Warmer - Neonice 3D, For Nicu",https://www.indiamart.com/proddetail/infant-radiant-baby-warmer-neonice-3d-25532276488.html?pos=65&kwd=baby bottle warmer&tags=||||8663.873|Price|product|||TS|rsf:gd-|-stype:attr=1|qr_nm:gd|res:RC4|com-cf:nl|ptrs:na|ktp:N0|mc:22705|mtp:S|qry_typ:P|lang:en|wc:3|cs:8833|v=4,C Cube Advanced Technologies,https://www.indiamart.com/ccubeadvancedtechnologies/?pos=65&kwd=baby bottle warmer&tags=||||8663.873|Price|product|||TS|rsf:gd-|-stype:attr=1|qr_nm:gd|res:RC4|com-cf:nl|ptrs:na|ktp:N0|mc:22705|mtp:S|qry_typ:P|lang:en|wc:3|cs:8833|v=4,False,Arehalli,Bengaluru,"16/1, Arehalli 9th Main Road, Arehalli, 4th Cross Subramanyapura Post, Banashankari, 3rd Stage, Arehalli, Bengaluru - 560061, Dist.Bengaluru, Karnataka",8048979060,
Stainless Steel Infant Radiant Heat Warmer,https://www.indiamart.com/proddetail/infant-radiant-heat-warmer-2853890042912.html?pos=66&kwd=baby bottle warmer&tags=||||8778.123|Price|product|||MDC|rsf:gd-|-stype:attr=1|qr_nm:gd|res:RC4|com-cf:nl|ptrs:na|ktp:N0|mc:22705|mtp:S|qry_typ:P|lang:en|wc:3|cs:8833|v=4,Alxa Medical Technology,https://www.indiamart.com/alxa-medical-technology/?pos=66&kwd=baby bottle warmer&tags=||||8778.123|Price|product|||MDC|rsf:gd-|-stype:attr=1|qr_nm:gd|res:RC4|com-cf:nl|ptrs:na|ktp:N0|mc:22705|mtp:S|qry_typ:P|lang:en|wc:3|cs:8833|v=4,False,Aghapur,Noida,"House No 57 Gali No-2, Setor 41, Village Aghapur, Aghapur, Noida - 201303, Dist.Gautam Budh Nagar, Uttar Pradesh",8044012265,
"Portable ABS Plastic AVI Healthcare IW6000 Infant Warmer, For Hospital",https://www.indiamart.com/proddetail/avi-healthcare-iw6000-infant-warmer-2850112637748.html?pos=67&kwd=baby bottle warmer&tags=||||8752.144|Price|product|||MDC|rsf:gd-|-stype:attr=1|qr_nm:gd|res:RC4|com-cf:nl|ptrs:na|ktp:N0|mc:22705|mtp:S|qry_typ:P|lang:en|wc:3|cs:8833|v=4,SAMPARK MEDICARE,https://www.indiamart.com/samparkmedicare-delhi/?pos=67&kwd=baby bottle warmer&tags=||||8752.144|Price|product|||MDC|rsf:gd-|-stype:attr=1|qr_nm:gd|res:RC4|com-cf:nl|ptrs:na|ktp:N0|mc:22705|mtp:S|qry_typ:P|lang:en|wc:3|cs:8833|v=4,False,Karol Bagh,New Delhi,"11/1B, Pusa Road , Central, Karol Bagh, New Delhi - 110005, Dist.Delhi, Delhi",7942617232,
Servo Controlled Mild Steel Baby Warmer For Hospital,https://www.indiamart.com/proddetail/baby-warmer-for-hospital-26431133555.html?pos=68&kwd=baby bottle warmer&tags=||||8230.883||product|||TS|rsf:gd-|-stype:attr=1|qr_nm:gd|res:RC4|com-cf:nl|ptrs:na|ktp:N0|mc:22705|mtp:S|qry_typ:P|lang:en|wc:3|cs:8833|v=4,Hindustan MediTech,https://www.hindustanmeditech.co.in/?pos=68&kwd=baby bottle warmer&tags=||||8230.883||product|||TS|rsf:gd-|-stype:attr=1|qr_nm:gd|res:RC4|com-cf:nl|ptrs:na|ktp:N0|mc:22705|mtp:S|qry_typ:P|lang:en|wc:3|cs:8833|v=4,False,Nana Varachha,Surat,"A/403, 4TH FLOOR, UTSAV COMPLEX, GALANI PARK SOCIETY, NANA VARACHHA, Nana Varachha, Surat - 395013, Dist.Surat, Gujarat",8048951096,
"FRP Baby Warmer Machine, For Hospital",https://www.indiamart.com/proddetail/frp-baby-warmer-machine-2849499817288.html?pos=69&kwd=baby bottle warmer&tags=||||9233.661|Price|product|||TS|rsf:gd-|-stype:attr=1|qr_nm:gd|res:RC4|com-cf:nl|ptrs:na|ktp:N0|mc:22705|mtp:S|qry_typ:P|lang:en|wc:3|cs:8833|v=4,Anshika Healthcare Sales And Services,https://www.indiamart.com/anshika-healthcare-salesservices/?pos=69&kwd=baby bottle warmer&tags=||||9233.661|Price|product|||TS|rsf:gd-|-stype:attr=1|qr_nm:gd|res:RC4|com-cf:nl|ptrs:na|ktp:N0|mc:22705|mtp:S|qry_typ:P|lang:en|wc:3|cs:8833|v=4,False,Faizabad,Ayodhya,"0, Bharat Kund Road, Akbara, Faizabad, Ayodhya - 224201, Dist.Ambedkar Nagar, Uttar Pradesh",7942790837,
Phototherapy Warmers ABS Open Care System,https://www.indiamart.com/proddetail/open-care-system-2853512537397.html?pos=70&kwd=baby bottle warmer&tags=||||8785.791|Price|product|||TS|rsf:gd-|-stype:attr=1|qr_nm:gd|res:RC4|com-cf:nl|ptrs:na|ktp:N0|mc:22705|mtp:S|qry_typ:P|lang:en|wc:3|cs:8833|v=4,Hospian Equipments Private Limited,https://www.icubed.in/?pos=70&kwd=baby bottle warmer&tags=||||8785.791|Price|product|||TS|rsf:gd-|-stype:attr=1|qr_nm:gd|res:RC4|com-cf:nl|ptrs:na|ktp:N0|mc:22705|mtp:S|qry_typ:P|lang:en|wc:3|cs:8833|v=4,False,Behta Hajipur,Ghaziabad,"Shop No-3 Khasra No 1706/7 Krishna Vihar Behta Hajipur, Behta Hajipur, Ghaziabad - 201102, Dist.Ghaziabad, Uttar Pradesh",7942721283,
Mild Steel Infant Radiant Heat Warmer,https://www.indiamart.com/proddetail/infant-radiant-heat-warmer-2854223825797.html?pos=71&kwd=baby bottle warmer&tags=||||9704.348|Price|product|||MDC|rsf:gd-|-stype:attr=1|qr_nm:gd|res:RC4|com-cf:nl|ptrs:na|ktp:N0|mc:22705|mtp:S|qry_typ:P|lang:en|wc:3|cs:8833|v=4,Frigate Surgicals And Equipments Private Limited,https://www.indiamart.com/frigatesurgicals-equipments/?pos=71&kwd=baby bottle warmer&tags=||||9704.348|Price|product|||MDC|rsf:gd-|-stype:attr=1|qr_nm:gd|res:RC4|com-cf:nl|ptrs:na|ktp:N0|mc:22705|mtp:S|qry_typ:P|lang:en|wc:3|cs:8833|v=4,False,,Bhagalpur,"Haque Apartment, Shujaat Complex, Pani Tanki, Opp. Masjid, PS. Habibpur, Puraini, Bhagalpur - 812005, Dist.Bhagalpur, Bihar",8045737838,
"240 V Mild Steel Baby Warmer, For Hospital",https://www.indiamart.com/proddetail/240-v-mild-steel-baby-warmer-26427707055.html?pos=72&kwd=baby bottle warmer&tags=||||9276.678|Price|product|||TS|rsf:gd-|-stype:attr=1|qr_nm:gd|res:RC4|com-cf:nl|ptrs:na|ktp:N0|mc:22705|mtp:S|qry_typ:P|lang:en|wc:3|cs:8833|v=4,S.S. Surgical,https://www.indiamart.com/ss-surgical-uttarpradesh/?pos=72&kwd=baby bottle warmer&tags=||||9276.678|Price|product|||TS|rsf:gd-|-stype:attr=1|qr_nm:gd|res:RC4|com-cf:nl|ptrs:na|ktp:N0|mc:22705|mtp:S|qry_typ:P|lang:en|wc:3|cs:8833|v=4,False,Olandganj,Jaunpur,"sector 4 Airoli Navi Mumbai Near s.d.v. school Q 163, Olandganj, Jaunpur - 222002, Dist.Jaunpur, Uttar Pradesh",7942867595,
Infant Radiant Heat Warmer With Phototherapy,https://www.indiamart.com/proddetail/infant-radiant-heat-warmer-with-phototherapy-2850329800030.html?pos=73&kwd=baby bottle warmer&tags=||||9520.041|Price|product|||TS|rsf:gd-|-stype:attr=1|qr_nm:gd|res:RC4|com-cf:nl|ptrs:na|ktp:N0|mc:22705|mtp:S|qry_typ:P|lang:en|wc:3|cs:8833|v=4,Goodvel Technologies Private Limited,https://www.goodveltech.com/?pos=73&kwd=baby bottle warmer&tags=||||9520.041|Price|product|||TS|rsf:gd-|-stype:attr=1|qr_nm:gd|res:RC4|com-cf:nl|ptrs:na|ktp:N0|mc:22705|mtp:S|qry_typ:P|lang:en|wc:3|cs:8833|v=4,False,bairia,Patna,"Factory - Plot No 417 near rice mill, bairia, Patna - 800007, Dist.Patna, Bihar",7942787154,
Radiant Warmers Mild Steel Baby Warmer Machine,https://www.indiamart.com/proddetail/baby-warmer-machine-2850638709062.html?pos=74&kwd=baby bottle warmer&tags=||||8752.144|Price|product|||MDC|rsf:gd-|-stype:attr=1|qr_nm:gd|res:RC4|com-cf:nl|ptrs:na|ktp:N0|mc:22705|mtp:S|qry_typ:P|lang:en|wc:3|cs:8833|v=4,Medi2surgical,https://www.indiamart.com/medi-2-surgical/?pos=74&kwd=baby bottle warmer&tags=||||8752.144|Price|product|||MDC|rsf:gd-|-stype:attr=1|qr_nm:gd|res:RC4|com-cf:nl|ptrs:na|ktp:N0|mc:22705|mtp:S|qry_typ:P|lang:en|wc:3|cs:8833|v=4,False,Tomar Colony,New Delhi,"Street No 2, 3rd Extended Lal Dora Maurya Enclave, Left Portion 3rd Floor , New Delhi ,, Tomar Colony, New Delhi - 110084, Dist.Delhi, Delhi",7942797979,
Mild Steel Baby Warmer,https://www.indiamart.com/proddetail/baby-warmer-2852158815033.html?pos=75&kwd=baby bottle warmer&tags=||||8211.142|Price|product|||TS|rsf:gd-|-stype:attr=1|qr_nm:gd|res:RC4|com-cf:nl|ptrs:na|ktp:N0|mc:22705|mtp:S|qry_typ:P|lang:en|wc:3|cs:8833|v=4,Modern Healthcare Pvt.Ltd.,https://www.indiamart.com/modern-healthcare-maharashtra/?pos=75&kwd=baby bottle warmer&tags=||||8211.142|Price|product|||TS|rsf:gd-|-stype:attr=1|qr_nm:gd|res:RC4|com-cf:nl|ptrs:na|ktp:N0|mc:22705|mtp:S|qry_typ:P|lang:en|wc:3|cs:8833|v=4,False,Bandra East,Mumbai,"4th Floor 39/34 MK Amin Road Building No. 8 Fort, Bandra East, Mumbai - 400001, Dist.Mumbai, Maharashtra",8048987438,
"baby warmer, For Hospital",https://www.indiamart.com/proddetail/baby-warmer-25556170233.html?pos=76&kwd=baby bottle warmer&tags=||||9349.906|Price|product|||TS|rsf:gd-|-stype:attr=1|qr_nm:gd|res:RC4|com-cf:nl|ptrs:na|ktp:N0|mc:22705|mtp:S|qry_typ:P|lang:en|wc:3|cs:8833|v=4,Ms Prime Meditech,https://www.indiamart.com/primemeditech/?pos=76&kwd=baby bottle warmer&tags=||||9349.906|Price|product|||TS|rsf:gd-|-stype:attr=1|qr_nm:gd|res:RC4|com-cf:nl|ptrs:na|ktp:N0|mc:22705|mtp:S|qry_typ:P|lang:en|wc:3|cs:8833|v=4,False,Abu Baza,Gorakhpur,"0, First Floor Shop No.1, Yadav Complex, Alahdadpur, Sadar Gorakhpur, Abu Baza, Gorakhpur - 273001, Dist.Gorakhpur, Uttar Pradesh",8048264152,
"MEDIVION Mild Steel Infant Radiant Warmer, For Nicu, Model Name/Number: Neo 1001",https://www.indiamart.com/proddetail/infant-radiant-warmer-18767950748.html?pos=77&kwd=baby bottle warmer&tags=||||9839.57|Price|product|||TS|rsf:gd-|-stype:attr=1|qr_nm:gd|res:RC4|com-cf:nl|ptrs:na|ktp:N0|mc:22705|mtp:S|qry_typ:P|lang:en|wc:3|cs:8833|v=4,Meditech Systems (India),https://www.indiamart.com/meditechsystemsindia/?pos=77&kwd=baby bottle warmer&tags=||||9839.57|Price|product|||TS|rsf:gd-|-stype:attr=1|qr_nm:gd|res:RC4|com-cf:nl|ptrs:na|ktp:N0|mc:22705|mtp:S|qry_typ:P|lang:en|wc:3|cs:8833|v=4,False,Kalabagan,Kolkata,"265, Roy Bahadur Road, Kalabagan, Kolkata - 700053, Dist.Kolkata, West Bengal",8048973960,
Phototherapy Warmers Mild Steel Rhw1102A Radiant Heat Baby Warmer,https://www.indiamart.com/proddetail/rhw1102a-radiant-heat-baby-warmer-2850708798230.html?pos=78&kwd=baby bottle warmer&tags=||||9010.878|Price|product|||MDC|rsf:gd-|-stype:attr=1|qr_nm:gd|res:RC4|com-cf:nl|ptrs:na|ktp:N0|mc:22705|mtp:S|qry_typ:P|lang:en|wc:3|cs:8833|v=4,Hetro Medi Systems,https://www.indiamart.com/hetro-medi-systems/?pos=78&kwd=baby bottle warmer&tags=||||9010.878|Price|product|||MDC|rsf:gd-|-stype:attr=1|qr_nm:gd|res:RC4|com-cf:nl|ptrs:na|ktp:N0|mc:22705|mtp:S|qry_typ:P|lang:en|wc:3|cs:8833|v=4,False,Flim Colony,Vijayawada,"Door No 59-6-19,2nd Floor,Kanchukota Vari Street,Near Benz Circle,Krishna, Flim Colony, Vijayawada - 520008, Dist.Krishna, Andhra Pradesh",7942959390,
Phototherapy Warmers Mild Steel Baby Warmer Machine,https://www.indiamart.com/proddetail/baby-warmer-machine-25311994588.html?pos=79&kwd=baby bottle warmer&tags=||||8785.791|Price|product|||TS|rsf:gd-|-stype:attr=1|qr_nm:gd|res:RC4|com-cf:nl|ptrs:na|ktp:N0|mc:22705|mtp:S|qry_typ:P|lang:en|wc:3|cs:8833|v=4,M/s.Star Health Care,https://www.indiamart.com/starhealthcare/?pos=79&kwd=baby bottle warmer&tags=||||8785.791|Price|product|||TS|rsf:gd-|-stype:attr=1|qr_nm:gd|res:RC4|com-cf:nl|ptrs:na|ktp:N0|mc:22705|mtp:S|qry_typ:P|lang:en|wc:3|cs:8833|v=4,False,Lajpat Nagar Sector 4,Ghaziabad,"D-362 Ghaziabad, Lajpat Nagar Sector 4, Ghaziabad - 201005, Dist.Ghaziabad, Uttar Pradesh",8046039427,
"SS Infant Radiant Baby Warmer, For Hospital, Model Name/Number: NAC2",https://www.indiamart.com/proddetail/infant-radiant-baby-warmer-22897669555.html?pos=80&kwd=baby bottle warmer&tags=||||8752.144|Price|product|||TS|rsf:gd-|-stype:attr=1|qr_nm:gd|res:RC4|com-cf:nl|ptrs:na|ktp:N0|mc:22705|mtp:S|qry_typ:P|lang:en|wc:3|cs:8833|v=4,M F India,https://www.indiamart.com/mfindia/?pos=80&kwd=baby bottle warmer&tags=||||8752.144|Price|product|||TS|rsf:gd-|-stype:attr=1|qr_nm:gd|res:RC4|com-cf:nl|ptrs:na|ktp:N0|mc:22705|mtp:S|qry_typ:P|lang:en|wc:3|cs:8833|v=4,False,Jamia Nagar,New Delhi,"4, J-41/B, Abul Fazal Enclave 1, Okhla Village, Jamia Nagar, New Delhi - 110025, Dist.Delhi, Delhi",8046051706,
"Mild Steel Bird Meditech Fixed Bassinet Innova Warmer, For Hospital",https://www.indiamart.com/proddetail/bird-meditech-fixed-bassinet-innova-warmer-23650225230.html?pos=81&kwd=baby bottle warmer&tags=||||8752.144||product|||TS|rsf:gd-|-stype:attr=1|qr_nm:gd|res:RC4|com-cf:nl|ptrs:na|ktp:N0|mc:22705|mtp:S|qry_typ:P|lang:en|wc:3|cs:8833|v=4,Medical Systems & Services,https://www.indiamart.com/medical-systems-services/?pos=81&kwd=baby bottle warmer&tags=||||8752.144||product|||TS|rsf:gd-|-stype:attr=1|qr_nm:gd|res:RC4|com-cf:nl|ptrs:na|ktp:N0|mc:22705|mtp:S|qry_typ:P|lang:en|wc:3|cs:8833|v=4,False,Ashok Vihar,New Delhi,"101, 1st Floor, Express Building, Ashok Vihar, New Delhi - 110052, Dist.Delhi, Delhi",8048973082,
"Mild Steel Infant Warmer, For Hospital, Model Name/Number: IW-1",https://www.indiamart.com/proddetail/infant-warmer-27093693873.html?pos=82&kwd=baby bottle warmer&tags=||||8778.123|Price|product|||TS|rsf:gd-|-stype:attr=1|qr_nm:gd|res:RC4|com-cf:nl|ptrs:na|ktp:N0|mc:22705|mtp:S|qry_typ:P|lang:en|wc:3|cs:8833|v=4,Indian Surgical Industries,https://www.indiansurgicalindustries.com/?pos=82&kwd=baby bottle warmer&tags=||||8778.123|Price|product|||TS|rsf:gd-|-stype:attr=1|qr_nm:gd|res:RC4|com-cf:nl|ptrs:na|ktp:N0|mc:22705|mtp:S|qry_typ:P|lang:en|wc:3|cs:8833|v=4,False,Sector 3,Noida,"A-49, Sector-64, Sector 3, Noida - 201301, Dist.Gautam Budh Nagar, Uttar Pradesh",8048970095,
"BPL Sunflower Warmer, For Hospital",https://www.indiamart.com/proddetail/bpl-sunflower-warmer-27103176491.html?pos=83&kwd=baby bottle warmer&tags=||||8663.873||product|||TS|rsf:gd-|-stype:attr=1|qr_nm:gd|res:RC4|com-cf:nl|ptrs:na|ktp:N0|mc:22705|mtp:S|qry_typ:P|lang:en|wc:3|cs:8833|v=4,BPL Medical Technologies Private Limited,https://www.indiamart.com/bplmedicaltechnologies/?pos=83&kwd=baby bottle warmer&tags=||||8663.873||product|||TS|rsf:gd-|-stype:attr=1|qr_nm:gd|res:RC4|com-cf:nl|ptrs:na|ktp:N0|mc:22705|mtp:S|qry_typ:P|lang:en|wc:3|cs:8833|v=4,False,Bannerghatta Road,Bengaluru,"11th KM, Arakere Bengaluru Urban, Bannerghatta Road, Bengaluru - 560076, Dist.Bengaluru, Karnataka",8048615851,
"Stainless Steel Infant Radiant Warmer at Patna, Bihar",https://www.indiamart.com/proddetail/infant-radiant-warmer-at-patna-bihar-2854098481355.html?pos=84&kwd=baby bottle warmer&tags=||||8752.144|Price|product|||TS|rsf:gd-|-stype:attr=1|qr_nm:gd|res:RC4|com-cf:nl|ptrs:na|ktp:N0|mc:22705|mtp:S|qry_typ:P|lang:en|wc:3|cs:8833|v=4,Vgyanis Consulting Services Private Limited,https://www.indiamart.com/vgyanisconsulting-service/?pos=84&kwd=baby bottle warmer&tags=||||8752.144|Price|product|||TS|rsf:gd-|-stype:attr=1|qr_nm:gd|res:RC4|com-cf:nl|ptrs:na|ktp:N0|mc:22705|mtp:S|qry_typ:P|lang:en|wc:3|cs:8833|v=4,False,Begampur,New Delhi,"Plot No. 146-A, Kh No. 5-23, Ground Floor, Vill-Kirari, Suleman Nagar, Vikash Vihar, Rohini North West Delhi, Begampur, New Delhi - 110086, Dist.Delhi, Delhi",8043863940,
Radiant Warmers Mild Steel Baby Warmer,https://www.indiamart.com/proddetail/baby-warmer-2852922067797.html?pos=85&kwd=baby bottle warmer&tags=||||8752.144|Price|product|||MDC|rsf:gd-|-stype:attr=1|qr_nm:gd|res:RC4|com-cf:nl|ptrs:na|ktp:N0|mc:22705|mtp:S|qry_typ:P|lang:en|wc:3|cs:8833|v=4,A.K.Medicaid,https://www.indiamart.com/ak-medicaid/?pos=85&kwd=baby bottle warmer&tags=||||8752.144|Price|product|||MDC|rsf:gd-|-stype:attr=1|qr_nm:gd|res:RC4|com-cf:nl|ptrs:na|ktp:N0|mc:22705|mtp:S|qry_typ:P|lang:en|wc:3|cs:8833|v=4,False,Shastri Nagar,New Delhi,"A-916, Shastri Nagar, Near Uddam Singh School, Shastri Nagar, New Delhi - 110052, Dist.Delhi, Delhi",8043864094,
Mild Steel Infant Radiant Baby Warmer,https://www.indiamart.com/proddetail/infant-radiant-baby-warmer-2854374552712.html?pos=86&kwd=baby bottle warmer&tags=||||8580.032|Price|product|||MDC|rsf:gd-|-stype:attr=1|qr_nm:gd|res:RC4|com-cf:nl|ptrs:na|ktp:N0|mc:22705|mtp:S|qry_typ:P|lang:en|wc:3|cs:8833|v=4,Goodwill Enterprises,https://www.indiamart.com/goodwill-enterprises-punjab/?pos=86&kwd=baby bottle warmer&tags=||||8580.032|Price|product|||MDC|rsf:gd-|-stype:attr=1|qr_nm:gd|res:RC4|com-cf:nl|ptrs:na|ktp:N0|mc:22705|mtp:S|qry_typ:P|lang:en|wc:3|cs:8833|v=4,False,,Amritsar,"M/s Goodwill Enterprises Near Ice Factory Pati Behani Wal, Amritsar - 143001, Dist.Amritsar, Punjab",7949340695,
"Mild Steel Baby warmer, For Hospital",https://www.indiamart.com/proddetail/baby-warmer-25891344188.html?pos=87&kwd=baby bottle warmer&tags=||||8752.144|Price|product|||TS|rsf:gd-|-stype:attr=1|qr_nm:gd|res:RC4|com-cf:nl|ptrs:na|ktp:N0|mc:22705|mtp:S|qry_typ:P|lang:en|wc:3|cs:8833|v=4,Ium Surgical Private Limited,https://www.indiamart.com/ium-surgical/?pos=87&kwd=baby bottle warmer&tags=||||8752.144|Price|product|||TS|rsf:gd-|-stype:attr=1|qr_nm:gd|res:RC4|com-cf:nl|ptrs:na|ktp:N0|mc:22705|mtp:S|qry_typ:P|lang:en|wc:3|cs:8833|v=4,False,Maksudabad,New Delhi,"Plot No.5, Kh No.28/2, Near Pole No. C 963 Deepak Vihar, Maksudabad, New Delhi - 110043, Dist.Delhi, Delhi",8047652447,
Radiant Warmers Mild Steel Bay Warmer Machine,https://www.indiamart.com/proddetail/mild-steel-bay-warmer-machine-2854011615848.html?pos=88&kwd=baby bottle warmer&tags=||||9301.656|Price|product|||MDC|rsf:gd-|-stype:attr=1|qr_nm:gd|res:RC4|com-cf:nl|ptrs:na|ktp:N0|mc:22705|mtp:S|qry_typ:P|lang:en|wc:3|cs:8833|v=4,Standard Surgical,https://www.indiamart.com/standard-surgical-varanasi/?pos=88&kwd=baby bottle warmer&tags=||||9301.656|Price|product|||MDC|rsf:gd-|-stype:attr=1|qr_nm:gd|res:RC4|com-cf:nl|ptrs:na|ktp:N0|mc:22705|mtp:S|qry_typ:P|lang:en|wc:3|cs:8833|v=4,False,Awaleshpur,Varanasi,"Akhari Bypass Road GT Road, Chitaipur Chunar Road, Baroda UP Bank, Akhari, Awaleshpur, Varanasi - 221011, Dist.Varanasi, Uttar Pradesh",8044015073,
FRP Infant Radiant Warmer,https://www.indiamart.com/proddetail/infant-radiant-warmer-2853366739630.html?pos=89&kwd=baby bottle warmer&tags=||||9520.041|Price|product|||TS|rsf:gd-|-stype:attr=1|qr_nm:gd|res:RC4|com-cf:nl|ptrs:na|ktp:N0|mc:22705|mtp:S|qry_typ:P|lang:en|wc:3|cs:8833|v=4,Hospito Care,https://www.indiamart.com/hospitocare/?pos=89&kwd=baby bottle warmer&tags=||||9520.041|Price|product|||TS|rsf:gd-|-stype:attr=1|qr_nm:gd|res:RC4|com-cf:nl|ptrs:na|ktp:N0|mc:22705|mtp:S|qry_typ:P|lang:en|wc:3|cs:8833|v=4,False,Sandalpur,Patna,"505, 5th Floor, Shiv Laxmi Plaza, Kankerbagh Main Road Rajendar Nagar Terminal, Sandalpur, Patna - 800006, Dist.Patna, Bihar",8048951298,
Radiant Warmers RAKSHAK DUAL PROBE INFANT CERMAIC Warmer,https://www.indiamart.com/proddetail/rakshak-dual-probe-infant-cermaic-warmer-2849601063648.html?pos=90&kwd=baby bottle warmer&tags=||||8226.563|Price|product|||TS|rsf:gd-|-stype:attr=1|qr_nm:gd|res:RC4|com-cf:nl|ptrs:na|ktp:N0|mc:22705|mtp:S|qry_typ:P|lang:en|wc:3|cs:8833|v=4,Technotronics Global Security Solution Private Limited,https://www.indiamart.com/technotronics-global-security-system/?pos=90&kwd=baby bottle warmer&tags=||||8226.563|Price|product|||TS|rsf:gd-|-stype:attr=1|qr_nm:gd|res:RC4|com-cf:nl|ptrs:na|ktp:N0|mc:22705|mtp:S|qry_typ:P|lang:en|wc:3|cs:8833|v=4,False,Sanpada,Navi Mumbai,"G-167, The Secretary Apmc Bombay, New Market Mafco Post Turbhe ,Vashi, Sector-19, Sanpada, Navi Mumbai - 400705, Dist.Thane, Maharashtra",7942561178,
"Infant Radiant Heat Warmer, For Hospital, Model Name/Number: Jain Surgical",https://www.indiamart.com/proddetail/infant-radiant-heat-warmer-27148849848.html?pos=91&kwd=baby bottle warmer&tags=||||8752.144|Price|product|||TS|rsf:gd-|-stype:attr=1|qr_nm:gd|res:RC4|com-cf:nl|ptrs:na|ktp:N0|mc:22705|mtp:S|qry_typ:P|lang:en|wc:3|cs:8833|v=4,Jain Surgical Health Private Limited,https://www.jainsurgicalhealth.com/?pos=91&kwd=baby bottle warmer&tags=||||8752.144|Price|product|||TS|rsf:gd-|-stype:attr=1|qr_nm:gd|res:RC4|com-cf:nl|ptrs:na|ktp:N0|mc:22705|mtp:S|qry_typ:P|lang:en|wc:3|cs:8833|v=4,False,Mob - 88-6034-2030,New Delhi,"P-110 Shankar Nagar Main Road, Mob - 88-6034-2030, New Delhi - 110051, Dist.Delhi, Delhi",7942542478,
Messco Matura 5020 Infant Radiant Baby Warmer,https://www.indiamart.com/proddetail/messco-matura-5020-infant-radiant-baby-warmer-2853891106288.html?pos=92&kwd=baby bottle warmer&tags=||||8954.051|Price|product|||MDC|rsf:gd-|-stype:attr=1|qr_nm:gd|res:RC4|com-cf:nl|ptrs:na|ktp:N0|mc:22705|mtp:S|qry_typ:P|lang:en|wc:3|cs:8833|v=4,Medical Equipment Supplying & Servicing Co.,https://www.indiamart.com/medicalequipment-supplying-servicingco/?pos=92&kwd=baby bottle warmer&tags=||||8954.051|Price|product|||MDC|rsf:gd-|-stype:attr=1|qr_nm:gd|res:RC4|com-cf:nl|ptrs:na|ktp:N0|mc:22705|mtp:S|qry_typ:P|lang:en|wc:3|cs:8833|v=4,False,Padi,Chennai,"17a,Messco House,Mugappair Road,Mannurpet, Padi, Padi, Chennai - 600050, Dist.Chennai, Tamil Nadu",8044011769,
"Plastic Baby Wide Neck Bottle, Age Group: 3-12 Months",https://www.indiamart.com/proddetail/plastic-baby-wide-neck-bottle-23634188891.html?pos=93&kwd=baby bottle warmer&tags=||||8741.812|Price|product|||MDC|rsf:gd-|-stype:attr=1|qr_nm:gd|res:RC4|com-cf:nl|ptrs:na|ktp:N0|mc:22705|mtp:S|qry_typ:P|lang:en|wc:3|cs:8833|v=4,Royal Baby Products (India),https://www.indiamart.com/royal-baby-products/?pos=93&kwd=baby bottle warmer&tags=||||8741.812|Price|product|||MDC|rsf:gd-|-stype:attr=1|qr_nm:gd|res:RC4|com-cf:nl|ptrs:na|ktp:N0|mc:22705|mtp:S|qry_typ:P|lang:en|wc:3|cs:8833|v=4,False,Sarhaul,Gurugram,"Ground Floor, M-2/22, Dlf City Phase II, Dlf City Phase II, Sarhaul, Gurugram - 122008, Dist.Gurgaon, Haryana",8048613476,
Radiant Infant Warmers,https://www.indiamart.com/proddetail/radiant-infant-warmers-26194380730.html?pos=94&kwd=baby bottle warmer&tags=||||9110.092|Price|product|||MDC|rsf:gd-|-stype:attr=1|qr_nm:gd|res:RC4|com-cf:nl|ptrs:na|ktp:N0|mc:22705|mtp:S|qry_typ:P|lang:en|wc:3|cs:8833|v=4,Limra Lifecare,https://www.indiamart.com/limra-lifecare/?pos=94&kwd=baby bottle warmer&tags=||||9110.092|Price|product|||MDC|rsf:gd-|-stype:attr=1|qr_nm:gd|res:RC4|com-cf:nl|ptrs:na|ktp:N0|mc:22705|mtp:S|qry_typ:P|lang:en|wc:3|cs:8833|v=4,False,Eldico Udyan I,Lucknow,"LGF- 18 Fountain plaza Eldeco Udyan-1, Eldico Udyan I, Lucknow - 226002, Dist.Lucknow, Uttar Pradesh",8043858814,
Mild Steel Medical Baby Warmer,https://www.indiamart.com/proddetail/medical-baby-warmer-2853973537897.html?pos=95&kwd=baby bottle warmer&tags=||||8752.144|Price|product|||MDC|rsf:gd-|-stype:attr=1|qr_nm:gd|res:RC4|com-cf:nl|ptrs:na|ktp:N0|mc:22705|mtp:S|qry_typ:P|lang:en|wc:3|cs:8833|v=4,Shree Shyam Surgicals,https://www.indiamart.com/shreeshyamsurgicals/?pos=95&kwd=baby bottle warmer&tags=||||8752.144|Price|product|||MDC|rsf:gd-|-stype:attr=1|qr_nm:gd|res:RC4|com-cf:nl|ptrs:na|ktp:N0|mc:22705|mtp:S|qry_typ:P|lang:en|wc:3|cs:8833|v=4,False,Shakarpur,New Delhi,"Ground Floor, Shop No. 22, Khaneja Complex, Rita Block, Mangalam, Shakarpur, East Delhi, Shakarpur, New Delhi - 110092, Dist.Delhi, Delhi",7949086949,
Clinical Incubators Or Infant Warmers,https://www.indiamart.com/proddetail/clinical-incubators-or-infant-warmers-2854537439630.html?pos=96&kwd=baby bottle warmer&tags=||||8230.883|Price|product|||TS|rsf:gd-|-stype:attr=1|qr_nm:gd|res:RC4|com-cf:nl|ptrs:na|ktp:N0|mc:22705|mtp:S|qry_typ:P|lang:en|wc:3|cs:8833|v=4,Silicon Meditech Private Limited,https://www.indiamart.com/silicon-meditechsurat/?pos=96&kwd=baby bottle warmer&tags=||||8230.883|Price|product|||TS|rsf:gd-|-stype:attr=1|qr_nm:gd|res:RC4|com-cf:nl|ptrs:na|ktp:N0|mc:22705|mtp:S|qry_typ:P|lang:en|wc:3|cs:8833|v=4,False,Bhatar,Surat,"9, Hari Om industrial Estate, Santinath mill street 9, Harim Om Industrial Estate' Santinath mill Street, Bhatar, Surat - 394510, Dist.Surat, Gujarat",8045733733,
Nicu Stainless Steel Rediant Heat Warmer,https://www.indiamart.com/proddetail/rediant-heat-warmer-27631837130.html?pos=97&kwd=baby bottle warmer&tags=||||8752.144|Price|product|||TS|rsf:gd-|-stype:attr=1|qr_nm:gd|res:RC4|com-cf:nl|ptrs:na|ktp:N0|mc:22705|mtp:S|qry_typ:P|lang:en|wc:3|cs:8833|v=4,Shikha Surgical,https://www.shikhasurgicals.com/?pos=97&kwd=baby bottle warmer&tags=||||8752.144|Price|product|||TS|rsf:gd-|-stype:attr=1|qr_nm:gd|res:RC4|com-cf:nl|ptrs:na|ktp:N0|mc:22705|mtp:S|qry_typ:P|lang:en|wc:3|cs:8833|v=4,False,Bawana,New Delhi,"F-193, Sector 3, DSIDC Industrial Area, Bawana, New Delhi - 110039, Dist.Delhi, Delhi",8048962939,
Baby Bottle Warmer,https://www.indiamart.com/proddetail/baby-bottle-warmer-4367890873.html?pos=98&kwd=baby bottle warmer&tags=CC||||8663.873||product|||NA|rsf:gd-|-stype:attr=1|qr_nm:gd|res:RC4|com-cf:nl|ptrs:na|ktp:N0|mc:22705|mtp:S|qry_typ:P|lang:en|wc:3|cs:8833|v=4,Narang Plastics Private Limited,https://www.indiamart.com/narang-plastics-pvtltd/?pos=98&kwd=baby bottle warmer&tags=CC||||8663.873||product|||NA|rsf:gd-|-stype:attr=1|qr_nm:gd|res:RC4|com-cf:nl|ptrs:na|ktp:N0|mc:22705|mtp:S|qry_typ:P|lang:en|wc:3|cs:8833|v=4,False,Peenya,Bengaluru,"No. 303, 4th Phase, 5th Main, Peenya Industrial Area, Peenya, Bengaluru - 560058, Dist.Bengaluru, Karnataka",8043820740,
IMPORTED MULTI BABY BOTTLE WARMER,https://www.indiamart.com/proddetail/baby-bottle-warmer-19981242962.html?pos=99&kwd=baby bottle warmer&tags=CC||||8223.226|Price|product|||NA|rsf:gd-|-stype:attr=1|qr_nm:gd|res:RC4|com-cf:nl|ptrs:na|ktp:N0|mc:22705|mtp:S|qry_typ:P|lang:en|wc:3|cs:8833|v=4,Kreative Gifts,https://www.indiamart.com/kreativegifts-mumbai/?pos=99&kwd=baby bottle warmer&tags=CC||||8223.226|Price|product|||NA|rsf:gd-|-stype:attr=1|qr_nm:gd|res:RC4|com-cf:nl|ptrs:na|ktp:N0|mc:22705|mtp:S|qry_typ:P|lang:en|wc:3|cs:8833|v=4,False,Vashi,Thane,"Maitri Tower, 1101, Nerul, Vashi, Thane - 400703, Dist.Thane, Maharashtra",7942656365,
Baby Bottle Warmer,https://www.indiamart.com/proddetail/baby-bottle-warmer-2854599180112.html?pos=100&kwd=baby bottle warmer&tags=CC||||9110.092|Price|product|||NA|rsf:gd-|-stype:attr=1|qr_nm:gd|res:RC4|com-cf:nl|ptrs:na|ktp:N0|mc:22705|mtp:S|qry_typ:P|lang:en|wc:3|cs:8833|v=4,Bala Ji Medical Service Solutions,https://www.indiamart.com/balajimedical-servicesolutions/?pos=100&kwd=baby bottle warmer&tags=CC||||9110.092|Price|product|||NA|rsf:gd-|-stype:attr=1|qr_nm:gd|res:RC4|com-cf:nl|ptrs:na|ktp:N0|mc:22705|mtp:S|qry_typ:P|lang:en|wc:3|cs:8833|v=4,False,,Lucknow,"Plot No/17 Adil Nagar, Joshi Niwas, Kursi Road, Bhuiyan Devi Mandir, Lucknow - 226022, Dist.Lucknow, Uttar Pradesh",7949326116,
Baby Bottle Warmer,https://www.indiamart.com/proddetail/baby-bottle-warmer-12172150991.html?pos=101&kwd=baby bottle warmer&tags=CC||||8211.142|Price|product|||NA|rsf:gd-|-stype:attr=1|qr_nm:gd|res:RC4|com-cf:nl|ptrs:na|ktp:N0|mc:22705|mtp:S|qry_typ:P|lang:en|wc:3|cs:8833|v=4,Mani Sales,https://www.indiamart.com/manisales/?pos=101&kwd=baby bottle warmer&tags=CC||||8211.142|Price|product|||NA|rsf:gd-|-stype:attr=1|qr_nm:gd|res:RC4|com-cf:nl|ptrs:na|ktp:N0|mc:22705|mtp:S|qry_typ:P|lang:en|wc:3|cs:8833|v=4,False,,Mumbai,"Shop No. 5, Oppsite Vijay Park, Mumbai - 401107, Dist.Mumbai, Maharashtra",8048247131,4134
"4 color available Baby Fruit Feeder, 3-12 Months",https://www.indiamart.com/proddetail/baby-fruit-feeder-27602749412.html?pos=102&kwd=baby bottle warmer&tags=||||8752.144|Price|product|||TS|rsf:gd-|-stype:attr=1|qr_nm:gd|res:RC4|com-cf:nl|ptrs:na|ktp:N0|mc:22705|mtp:S|qry_typ:P|lang:en|wc:3|cs:8833|v=4,Urbancube,https://www.indiamart.com/urbancube/?pos=102&kwd=baby bottle warmer&tags=||||8752.144|Price|product|||TS|rsf:gd-|-stype:attr=1|qr_nm:gd|res:RC4|com-cf:nl|ptrs:na|ktp:N0|mc:22705|mtp:S|qry_typ:P|lang:en|wc:3|cs:8833|v=4,False,Kamla Nagar,New Delhi,"Ground Floor, 14 UA, Jawahar Nagar, Kamla Nagar, New Delhi - 110007, Dist.Delhi, Delhi",8048980014,
"AAditya White Baby Silicone Nipple, Packaging Type: Box, 1-2 Years",https://www.indiamart.com/proddetail/baby-silicone-nipple-22513633397.html?pos=103&kwd=baby bottle warmer&tags=||||8210.732|Price|product|||TS|rsf:gd-|-stype:attr=1|qr_nm:gd|res:RC4|com-cf:nl|ptrs:na|ktp:N0|mc:22705|mtp:S|qry_typ:P|lang:en|wc:3|cs:8833|v=4,Aditya Polymers,https://www.aadityapolymers.com/?pos=103&kwd=baby bottle warmer&tags=||||8210.732|Price|product|||TS|rsf:gd-|-stype:attr=1|qr_nm:gd|res:RC4|com-cf:nl|ptrs:na|ktp:N0|mc:22705|mtp:S|qry_typ:P|lang:en|wc:3|cs:8833|v=4,False,Gokhiware,Vasai,"106, A V Udhyog No. 3, Near Rajprabha Near Golani, Gokhiware, Vasai - 401208, Dist.Thane, Maharashtra",8048987383,
"Baby Bottle Warmer ,Steamer, Milk & Food warmer",https://www.indiamart.com/proddetail/baby-bottle-warmer-steamer-milk-food-warmer-22649200473.html?pos=104&kwd=baby bottle warmer&tags=CB||||8752.144|Price|product|||NA|rsf:gd-|-stype:attr=1|qr_nm:gd|res:RC4|com-cf:nl|ptrs:na|ktp:N0|mc:22705|mtp:S|qry_typ:P|lang:en|wc:3|cs:8833|v=4,Luvkush Enterprises,https://www.indiamart.com/luvkush-enterprises-delhi/?pos=104&kwd=baby bottle warmer&tags=CB||||8752.144|Price|product|||NA|rsf:gd-|-stype:attr=1|qr_nm:gd|res:RC4|com-cf:nl|ptrs:na|ktp:N0|mc:22705|mtp:S|qry_typ:P|lang:en|wc:3|cs:8833|v=4,False,BADLI,New Delhi,"LUVKUSH ENTERPRISES LIBASPUR,, BADLI, New Delhi - 110042, Dist.Delhi, Delhi",8048372605,619
Deluxe Bottle Warmer,https://www.indiamart.com/proddetail/deluxe-bottle-warmer-18057652873.html?pos=105&kwd=baby bottle warmer&tags=CC||||8954.051||product|||NA|rsf:gd-|-stype:attr=1|qr_nm:gd|res:RC4|com-cf:nl|ptrs:na|ktp:N0|mc:22705|mtp:S|qry_typ:P|lang:en|wc:3|cs:8833|v=4,Dr Browns USAs,https://www.indiamart.com/dr-browns-chennai/?pos=105&kwd=baby bottle warmer&tags=CC||||8954.051||product|||NA|rsf:gd-|-stype:attr=1|qr_nm:gd|res:RC4|com-cf:nl|ptrs:na|ktp:N0|mc:22705|mtp:S|qry_typ:P|lang:en|wc:3|cs:8833|v=4,False,,Chennai,"D.p New Life Healthcare Pvt. Ltd, No 14, G1, Royal Suite Apartments, Saravana Street T. Nagar, Chennai - 600017, Dist.Chennai, Tamil Nadu",8069017073,218
Automatic Bottle Warmer,https://www.indiamart.com/proddetail/automatic-bottle-warmer-2233537591.html?pos=106&kwd=baby bottle warmer&tags=CC||||8752.144||product|||NA|rsf:gd-|-stype:attr=1|qr_nm:gd|res:RC4|com-cf:nl|ptrs:na|ktp:N0|mc:22705|mtp:S|qry_typ:P|lang:en|wc:3|cs:8833|v=4,S S Packaging Industries,https://www.indiamart.com/ss-packaging-industries-new-delhi/?pos=106&kwd=baby bottle warmer&tags=CC||||8752.144||product|||NA|rsf:gd-|-stype:attr=1|qr_nm:gd|res:RC4|com-cf:nl|ptrs:na|ktp:N0|mc:22705|mtp:S|qry_typ:P|lang:en|wc:3|cs:8833|v=4,False,New Delhi,New Delhi,"No. 9/ 53, Kirti Nagar Industrial Area Kirti Nagar Industrial Area, New Delhi, New Delhi - 110015, Dist.Delhi, Delhi",8048371953,712
"Metal Electric Bottle Warmer, Capacity: 1 Ltr",https://www.indiamart.com/proddetail/electric-bottle-warmer-2851650384562.html?pos=107&kwd=baby bottle warmer&tags=CC||||8752.144|Price|product|||NA|rsf:gd-|-stype:attr=1|qr_nm:gd|res:RC4|com-cf:nl|ptrs:na|ktp:N0|mc:22705|mtp:S|qry_typ:P|lang:en|wc:3|cs:8833|v=4,dont call i m trainee at floor 6,https://www.indiamart.com/rishabhenterprises-124983505/?pos=107&kwd=baby bottle warmer&tags=CC||||8752.144|Price|product|||NA|rsf:gd-|-stype:attr=1|qr_nm:gd|res:RC4|com-cf:nl|ptrs:na|ktp:N0|mc:22705|mtp:S|qry_typ:P|lang:en|wc:3|cs:8833|v=4,False,,New Delhi,", New Delhi - 110030, Dist.Delhi, Delhi",8048370710,8705
Avent Electric Bottle Warmer,https://www.indiamart.com/proddetail/avent-electric-bottle-warmer-5670307873.html?pos=108&kwd=baby bottle warmer&tags=CC||||8838.804||product|||NA|rsf:gd-|-stype:attr=1|qr_nm:gd|res:RC4|com-cf:nl|ptrs:na|ktp:N0|mc:22705|mtp:S|qry_typ:P|lang:en|wc:3|cs:8833|v=4,Q M S Surgicals,https://www.indiamart.com/qms-surgicals/?pos=108&kwd=baby bottle warmer&tags=CC||||8838.804||product|||NA|rsf:gd-|-stype:attr=1|qr_nm:gd|res:RC4|com-cf:nl|ptrs:na|ktp:N0|mc:22705|mtp:S|qry_typ:P|lang:en|wc:3|cs:8833|v=4,False,Rehmat Bano Market,Aligarh,"Medical Road, Rehmat Bano Market, Aligarh - 202001, Uttar Pradesh",8043880468,
Philips Avent Bottle Warmer,https://www.indiamart.com/proddetail/philips-avent-bottle-warmer-20090948130.html?pos=109&kwd=baby bottle warmer&tags=CC||||8786.56|Price|product|||NA|rsf:gd-|-stype:attr=1|qr_nm:gd|res:RC4|com-cf:nl|ptrs:na|ktp:N0|mc:22705|mtp:S|qry_typ:P|lang:en|wc:3|cs:8833|v=4,Hygiene Surgicals,https://www.indiamart.com/hygienesurgicals/?pos=109&kwd=baby bottle warmer&tags=CC||||8786.56|Price|product|||NA|rsf:gd-|-stype:attr=1|qr_nm:gd|res:RC4|com-cf:nl|ptrs:na|ktp:N0|mc:22705|mtp:S|qry_typ:P|lang:en|wc:3|cs:8833|v=4,False,Nampally,Hyderabad,"14-1-1/5,,King Koti,Koti 14-2-332/19/1, Gyan Bagh Colony, Aghapura,500012,Hyderabad, Nampally, Hyderabad - 500001, Dist.Hyderabad, Telangana",8048207349,
Avent Fast Bottle Warmer,https://www.indiamart.com/proddetail/avent-fast-bottle-warmer-11921688162.html?pos=110&kwd=baby bottle warmer&tags=CC||||8307.81|Price|product|||NA|rsf:gd-|-stype:attr=1|qr_nm:gd|res:RC4|com-cf:nl|ptrs:na|ktp:N0|mc:22705|mtp:S|qry_typ:P|lang:en|wc:3|cs:8833|v=4,Madhura Medical Equipments,https://www.indiamart.com/madhuramedical/?pos=110&kwd=baby bottle warmer&tags=CC||||8307.81|Price|product|||NA|rsf:gd-|-stype:attr=1|qr_nm:gd|res:RC4|com-cf:nl|ptrs:na|ktp:N0|mc:22705|mtp:S|qry_typ:P|lang:en|wc:3|cs:8833|v=4,False,Mangalwar Peth,Pune,"office no 2,Floor 1st, mahesh galaxy, nr sinhgad school,Pune Shop no 1, sihagad road mahesh galexy Vadgaon,411011,Pune, Mangalwar Peth, Pune - 411041, Dist.Pune, Maharashtra",8048274709,
Baby Warmer Controllers,https://www.indiamart.com/proddetail/baby-warmer-controllers-1662196355.html?pos=111&kwd=baby bottle warmer&tags=CC||||8307.81||product|||NA|rsf:gd-|-stype:attr=1|qr_nm:gd|res:RC4|com-cf:nl|ptrs:na|ktp:N0|mc:22705|mtp:S|qry_typ:P|lang:en|wc:3|cs:8833|v=4,Akshay Embedded Systems Private Limited,https://www.indiamart.com/akshay-electronics-pune/?pos=111&kwd=baby bottle warmer&tags=CC||||8307.81||product|||NA|rsf:gd-|-stype:attr=1|qr_nm:gd|res:RC4|com-cf:nl|ptrs:na|ktp:N0|mc:22705|mtp:S|qry_typ:P|lang:en|wc:3|cs:8833|v=4,False,Mhalunge- Baner Road,Pune,"S No 131/1b/3/2, Ram Indu Park Lane, Behind State Bank Of Mhaisur Baner Pune, Baner Ram Indu Park Lane, Mhalunge- Baner Road, Pune - 411045, Dist.Pune, Maharashtra",7949368847,
Baby Brezza Safe + Smart Baby Bottle Warmer,https://www.indiamart.com/proddetail/baby-brezza-safe-smart-baby-bottle-warmer-2853237181755.html?pos=112&kwd=baby bottle warmer&tags=CC||||8752.144|Price|product|||NA|rsf:gd-|-stype:attr=1|qr_nm:gd|res:RC4|com-cf:nl|ptrs:na|ktp:N0|mc:22705|mtp:S|qry_typ:P|lang:en|wc:3|cs:8833|v=4,BD Impex,https://www.indiamart.com/company/2395482/?pos=112&kwd=baby bottle warmer&tags=CC||||8752.144|Price|product|||NA|rsf:gd-|-stype:attr=1|qr_nm:gd|res:RC4|com-cf:nl|ptrs:na|ktp:N0|mc:22705|mtp:S|qry_typ:P|lang:en|wc:3|cs:8833|v=4,False,,New Delhi,"The Moms Darling - Baby Shop 163, Kapil Vihar, Pitampura, New Delhi - 110034, Dist.Delhi, Delhi",,
Step Double Bottle Warmer Orange,https://www.indiamart.com/proddetail/step-double-bottle-warmer-orange-3794221691.html?pos=113&kwd=baby bottle warmer&tags=CC||||8230.883||product|||NA|rsf:gd-|-stype:attr=1|qr_nm:gd|res:RC4|com-cf:nl|ptrs:na|ktp:N0|mc:22705|mtp:S|qry_typ:P|lang:en|wc:3|cs:8833|v=4,Yapaa Dot Com,https://www.indiamart.com/yapaa-dsurat/?pos=113&kwd=baby bottle warmer&tags=CC||||8230.883||product|||NA|rsf:gd-|-stype:attr=1|qr_nm:gd|res:RC4|com-cf:nl|ptrs:na|ktp:N0|mc:22705|mtp:S|qry_typ:P|lang:en|wc:3|cs:8833|v=4,False,,Surat,"Ghod Dod Road, Surat - 395007, Dist.Surat, Gujarat",8047308899,7252
Little Coro Bottle Warmer 1pc,https://www.indiamart.com/proddetail/little-coro-bottle-warmer-1pc-19002860391.html?pos=114&kwd=baby bottle warmer&tags=CC||||8876.815||product|||NA|rsf:gd-|-stype:attr=1|qr_nm:gd|res:RC4|com-cf:nl|ptrs:na|ktp:N0|mc:22705|mtp:S|qry_typ:P|lang:en|wc:3|cs:8833|v=4,Reeti Lifestyle Mall,https://www.indiamart.com/reeti-lifestyle-mall/?pos=114&kwd=baby bottle warmer&tags=CC||||8876.815||product|||NA|rsf:gd-|-stype:attr=1|qr_nm:gd|res:RC4|com-cf:nl|ptrs:na|ktp:N0|mc:22705|mtp:S|qry_typ:P|lang:en|wc:3|cs:8833|v=4,False,Nagpur,Nagpur,"Plot No 46, Gandhi Grane Market, Nagpur, Nagpur - 440008, Dist.Nagpur, Maharashtra",8048247115,7834
Baby Food And Bottle Warmer JBY - 52,https://www.indiamart.com/proddetail/baby-food-and-bottle-warmer-jby-52-8728349997.html?pos=115&kwd=baby bottle warmer&tags=CC||||8211.142|Price|product|||NA|rsf:gd-|-stype:attr=1|qr_nm:gd|res:RC4|com-cf:nl|ptrs:na|ktp:N0|mc:22705|mtp:S|qry_typ:P|lang:en|wc:3|cs:8833|v=4,Klik Aha,https://www.indiamart.com/klik-ahamumbai/?pos=115&kwd=baby bottle warmer&tags=CC||||8211.142|Price|product|||NA|rsf:gd-|-stype:attr=1|qr_nm:gd|res:RC4|com-cf:nl|ptrs:na|ktp:N0|mc:22705|mtp:S|qry_typ:P|lang:en|wc:3|cs:8833|v=4,False,,Mumbai,"203, Sahakar Bhavan, LBS Marg, Ghatkopar West, Mumbai - 400086, Dist.Mumbai, Maharashtra",8062245010,866
Naturally Express - Bottle & Baby Food Warmer,https://www.indiamart.com/proddetail/naturally-express-bottle-baby-food-warmer-6331124691.html?pos=116&kwd=baby bottle warmer&tags=CC||||8752.144||product|||NA|rsf:gd-|-stype:attr=1|qr_nm:gd|res:RC4|com-cf:nl|ptrs:na|ktp:N0|mc:22705|mtp:S|qry_typ:P|lang:en|wc:3|cs:8833|v=4,Goyal Knitting Industies,https://www.indiamart.com/goyal-knitting-industriesdelhi/?pos=116&kwd=baby bottle warmer&tags=CC||||8752.144||product|||NA|rsf:gd-|-stype:attr=1|qr_nm:gd|res:RC4|com-cf:nl|ptrs:na|ktp:N0|mc:22705|mtp:S|qry_typ:P|lang:en|wc:3|cs:8833|v=4,False,Shastri Nagar,New Delhi,",F-44,SHASTRI NAGAR,, Shastri Nagar, New Delhi - 110052, Dist.Delhi, Delhi",8047671909,
New Kids Bottle Warmer cum Steamer,https://www.indiamart.com/proddetail/new-kids-bottle-warmer-cum-steamer-2853645054812.html?pos=117&kwd=baby bottle warmer&tags=CC||||8752.144|Price|product|||NA|rsf:gd-|-stype:attr=1|qr_nm:gd|res:RC4|com-cf:nl|ptrs:na|ktp:N0|mc:22705|mtp:S|qry_typ:P|lang:en|wc:3|cs:8833|v=4,Gauba Traders,https://www.indiamart.com/gauba-traders/?pos=117&kwd=baby bottle warmer&tags=CC||||8752.144|Price|product|||NA|rsf:gd-|-stype:attr=1|qr_nm:gd|res:RC4|com-cf:nl|ptrs:na|ktp:N0|mc:22705|mtp:S|qry_typ:P|lang:en|wc:3|cs:8833|v=4,False,Shahdara,New Delhi,"Building Number- 358 A /1, Teliwara, Shahdara, New Delhi - 110032, Dist.Delhi, Delhi",,
Mee Mee Portable Baby Bottle Warmer With Quick USB Charging,https://www.indiamart.com/proddetail/mee-mee-portable-baby-bottle-warmer-with-quick-usb-charging-2851751635612.html?pos=118&kwd=baby bottle warmer&tags=CC||||8612.732|Price|product|||NA|rsf:gd-|-stype:attr=1|qr_nm:gd|res:RC4|com-cf:nl|ptrs:na|ktp:N0|mc:22705|mtp:S|qry_typ:P|lang:en|wc:3|cs:8833|v=4,Swift Healthcare & Hygiene Private Limited,https://www.indiamart.com/swift-healthcare-hygiene-private-limited-srinagar/?pos=118&kwd=baby bottle warmer&tags=CC||||8612.732|Price|product|||NA|rsf:gd-|-stype:attr=1|qr_nm:gd|res:RC4|com-cf:nl|ptrs:na|ktp:N0|mc:22705|mtp:S|qry_typ:P|lang:en|wc:3|cs:8833|v=4,False,Pampore,Srinagar,"1 1 Shiraz Road Srinagar Srinagar, Pampore, Srinagar - 190003, Dist.Srinagar, Jammu & Kashmir",,
Plastic Instant Bottle Warmer 4 in 1 Single Pc Veporiser,https://www.indiamart.com/proddetail/instant-bottle-warmer-4-in-1-single-pc-veporiser-22919604533.html?pos=119&kwd=baby bottle warmer&tags=CC||||8752.144|Price|product|||NA|rsf:gd-|-stype:attr=1|qr_nm:gd|res:RC4|com-cf:nl|ptrs:na|ktp:N0|mc:22705|mtp:S|qry_typ:P|lang:en|wc:3|cs:8833|v=4,M M Electrical & Fittings,https://www.indiamart.com/mm-electricals-fittings/?pos=119&kwd=baby bottle warmer&tags=CC||||8752.144|Price|product|||NA|rsf:gd-|-stype:attr=1|qr_nm:gd|res:RC4|com-cf:nl|ptrs:na|ktp:N0|mc:22705|mtp:S|qry_typ:P|lang:en|wc:3|cs:8833|v=4,False,siraspur,New Delhi,"Khasra no 558 Gali No 23, siraspur, New Delhi - 110042, Dist.Delhi, Delhi",8048372825,591
Radiant Warmers Mild Steel Baby Warmer,https://www.indiamart.com/proddetail/baby-warmer-2852205059633.html?pos=120&kwd=baby bottle warmer&tags=||||8230.883||product|||TS|rsf:gd-|-stype:attr=1|qr_nm:gd|res:RC4|com-cf:nl|ptrs:na|ktp:N0|mc:22705|mtp:S|qry_typ:P|lang:en|wc:3|cs:8833|v=4,Pathey Healthcare,https://www.indiamart.com/pathey-healthcare/?pos=120&kwd=baby bottle warmer&tags=||||8230.883||product|||TS|rsf:gd-|-stype:attr=1|qr_nm:gd|res:RC4|com-cf:nl|ptrs:na|ktp:N0|mc:22705|mtp:S|qry_typ:P|lang:en|wc:3|cs:8833|v=4,False,Katargam,Surat,"A/134, First Floor, Vaikunthdham Society, Laxmikant Asharam Road, Katargam, Surat - 395004, Dist.Surat, Gujarat",7942790383,
Radiant Warmers Mild Steel Baby Warmer,https://www.indiamart.com/proddetail/baby-warmer-2854437039297.html?pos=121&kwd=baby bottle warmer&tags=||||9301.656|Price|product|||TS|rsf:gd-|-stype:attr=1|qr_nm:gd|res:RC4|com-cf:nl|ptrs:na|ktp:N0|mc:22705|mtp:S|qry_typ:P|lang:en|wc:3|cs:8833|v=4,Super Surgical System,https://www.indiamart.com/supersurgicalsystem/?pos=121&kwd=baby bottle warmer&tags=||||9301.656|Price|product|||TS|rsf:gd-|-stype:attr=1|qr_nm:gd|res:RC4|com-cf:nl|ptrs:na|ktp:N0|mc:22705|mtp:S|qry_typ:P|lang:en|wc:3|cs:8833|v=4,False,Lahartara,Varanasi,"Bajrang Nagar Colony, Chandpur, Lahartara, Varanasi - 221106, Dist.Varanasi, Uttar Pradesh",7942539923,
"Mild Steel Baby Warmer, For Hospital",https://www.indiamart.com/proddetail/baby-warmer-20024813248.html?pos=122&kwd=baby bottle warmer&tags=||||8228.275|Price|product|||TS|rsf:gd-|-stype:attr=1|qr_nm:gd|res:RC4|com-cf:nl|ptrs:na|ktp:N0|mc:22705|mtp:S|qry_typ:P|lang:en|wc:3|cs:8833|v=4,Limra Meditech,https://www.limrahealthcare.com/?pos=122&kwd=baby bottle warmer&tags=||||8228.275|Price|product|||TS|rsf:gd-|-stype:attr=1|qr_nm:gd|res:RC4|com-cf:nl|ptrs:na|ktp:N0|mc:22705|mtp:S|qry_typ:P|lang:en|wc:3|cs:8833|v=4,False,Vishala circle Ahmedabad,Ahmedabad,"A-126, 1st Floor, Sumel Business Park-6LIMRA CREATION Dudheswar Circle, Vishala circle Ahmedabad, Ahmedabad - 380004, Dist.Ahmedabad, Gujarat",8047630787,
Portable Baby Bottle Warmer 10 Mins to Warm Baby Milk Using with Quick USB Charging (Blue),https://www.indiamart.com/proddetail/portable-baby-bottle-warmer-10-mins-to-warm-baby-milk-using-with-quick-usb-charging-blue-2853633116073.html?pos=123&kwd=baby bottle warmer&tags=CC||||8307.81|Price|product|||NA|rsf:gd-|-stype:attr=1|qr_nm:gd|res:RC4|com-cf:nl|ptrs:na|ktp:N0|mc:22705|mtp:S|qry_typ:P|lang:en|wc:3|cs:8833|v=4,Afferent Wearable Tech Private Limit,https://www.indiamart.com/ms-afferent-wearable-tech-private-limit/?pos=123&kwd=baby bottle warmer&tags=CC||||8307.81|Price|product|||NA|rsf:gd-|-stype:attr=1|qr_nm:gd|res:RC4|com-cf:nl|ptrs:na|ktp:N0|mc:22705|mtp:S|qry_typ:P|lang:en|wc:3|cs:8833|v=4,False,Balewadi,Pune,"Wh 5/2 Bhiwandi, Thane K-square Industrial And Logistics Park, Balewadi, Pune - 411045, Dist.Pune, Maharashtra",8048249721,9200
"Pigeon Bottle & Food Warmer VDE Plug,3 Heating Nodes For Heating Baby Food (4902508262217)",https://www.indiamart.com/proddetail/pigeon-bottle-food-warmer-vde-plug-3-heating-nodes-for-heating-baby-food-4902508262217-2853720813533.html?pos=124&kwd=baby bottle warmer&tags=CC||||8663.873|Price|product|||NA|rsf:gd-|-stype:attr=1|qr_nm:gd|res:RC4|com-cf:nl|ptrs:na|ktp:N0|mc:22705|mtp:S|qry_typ:P|lang:en|wc:3|cs:8833|v=4,Wellnex,https://www.indiamart.com/wellnex/?pos=124&kwd=baby bottle warmer&tags=CC||||8663.873|Price|product|||NA|rsf:gd-|-stype:attr=1|qr_nm:gd|res:RC4|com-cf:nl|ptrs:na|ktp:N0|mc:22705|mtp:S|qry_typ:P|lang:en|wc:3|cs:8833|v=4,False,Bangalore,Bengaluru,"NO.25 9TH CROSS, 1ST MAIN, MAGADI ROAD PRASHANTH NAGAR 9th cross, Prashant Nagar, Bangalore, Bengaluru - 560079, Dist.Bengaluru, Karnataka",8046033558,
"BPA Free Baby Fast Flow Nipples, Packaging Type: Box, 3-12 Months",https://www.indiamart.com/proddetail/bpa-free-baby-fast-flow-nipples-2851497399230.html?pos=125&kwd=baby bottle warmer&tags=||||8752.144|Price|product|||TS|rsf:gd-|-stype:attr=1|qr_nm:gd|res:RC4|com-cf:nl|ptrs:na|ktp:N0|mc:22705|mtp:S|qry_typ:P|lang:en|wc:3|cs:8833|v=4,Ekta Overseas,https://www.indiamart.com/ektaoverseas-newdelhi/?pos=125&kwd=baby bottle warmer&tags=||||8752.144|Price|product|||TS|rsf:gd-|-stype:attr=1|qr_nm:gd|res:RC4|com-cf:nl|ptrs:na|ktp:N0|mc:22705|mtp:S|qry_typ:P|lang:en|wc:3|cs:8833|v=4,False,Shahdara,New Delhi,"1/95, Gali No.3, Near Navjeevan Phisical Center, Vishwas Nagar, Shahdara,, Shahdara, New Delhi - 110032, Dist.Delhi, Delhi",7942628926,
Hybrid Warmers Stainless Steel Infant Radiant Baby Warmer,https://www.indiamart.com/proddetail/infant-radiant-baby-warmer-2849390862897.html?pos=126&kwd=baby bottle warmer&tags=||||9301.656|Price|product|||TS|rsf:gd-|-stype:attr=1|qr_nm:gd|res:RC4|com-cf:nl|ptrs:na|ktp:N0|mc:22705|mtp:S|qry_typ:P|lang:en|wc:3|cs:8833|v=4,Life Care Co,https://www.indiamart.com/lifecareco/?pos=126&kwd=baby bottle warmer&tags=||||9301.656|Price|product|||TS|rsf:gd-|-stype:attr=1|qr_nm:gd|res:RC4|com-cf:nl|ptrs:na|ktp:N0|mc:22705|mtp:S|qry_typ:P|lang:en|wc:3|cs:8833|v=4,False,Jaitpura,Varanasi,"J15/65 F-1, Chowka Ghat, Near Kashi Gomti Bank, Jaitpura, Varanasi - 221002, Dist.Varanasi, Uttar Pradesh",8047644342,
"Mild Steel Zeal Baby Warmer, For Nicu",https://www.indiamart.com/proddetail/zeal-baby-warmer-23074385462.html?pos=127&kwd=baby bottle warmer&tags=||||9839.57|Price|product|||TS|rsf:gd-|-stype:attr=1|qr_nm:gd|res:RC4|com-cf:nl|ptrs:na|ktp:N0|mc:22705|mtp:S|qry_typ:P|lang:en|wc:3|cs:8833|v=4,Innovation Surgical Company,https://www.indiamart.com/innovation-surgical-company/?pos=127&kwd=baby bottle warmer&tags=||||9839.57|Price|product|||TS|rsf:gd-|-stype:attr=1|qr_nm:gd|res:RC4|com-cf:nl|ptrs:na|ktp:N0|mc:22705|mtp:S|qry_typ:P|lang:en|wc:3|cs:8833|v=4,False,Balitikuri,Kolkata,"2 Manik Pirtala Lane Balitikuri Howrah, Balitikuri, Kolkata - 711113, Dist.Kolkata, West Bengal",8046031320,
"Baby Warmer Machine, For Nicu",https://www.indiamart.com/proddetail/baby-warmer-machine-27132849555.html?pos=128&kwd=baby bottle warmer&tags=||||8813.969|Price|product|||TS|rsf:gd-|-stype:attr=1|qr_nm:gd|res:RC4|com-cf:nl|ptrs:na|ktp:N0|mc:22705|mtp:S|qry_typ:P|lang:en|wc:3|cs:8833|v=4,Medipoint,https://www.indiamart.com/medipoint-meerut/?pos=128&kwd=baby bottle warmer&tags=||||8813.969|Price|product|||TS|rsf:gd-|-stype:attr=1|qr_nm:gd|res:RC4|com-cf:nl|ptrs:na|ktp:N0|mc:22705|mtp:S|qry_typ:P|lang:en|wc:3|cs:8833|v=4,False,Kalyan Nagar,Meerut,"11,12 S2S Aspire. Garh Road, Kalyan Nagar, Meerut - 250003, Dist.Meerut, Uttar Pradesh",8048212660,
Mild Steel Baby Warmer Machine,https://www.indiamart.com/proddetail/baby-warmer-machine-2854378739633.html?pos=129&kwd=baby bottle warmer&tags=||||8641.487|Price|product|||TS|rsf:gd-|-stype:attr=1|qr_nm:gd|res:RC4|com-cf:nl|ptrs:na|ktp:N0|mc:22705|mtp:S|qry_typ:P|lang:en|wc:3|cs:8833|v=4,Royal International,https://www.indiamart.com/royal-international/?pos=129&kwd=baby bottle warmer&tags=||||8641.487|Price|product|||TS|rsf:gd-|-stype:attr=1|qr_nm:gd|res:RC4|com-cf:nl|ptrs:na|ktp:N0|mc:22705|mtp:S|qry_typ:P|lang:en|wc:3|cs:8833|v=4,True,Guru Ram Das Nagar,Jalandhar,"115- A,,WARYANA INDUSTRIAL COMPLEX,KAPURTHALA ROAD, Guru Ram Das Nagar, Jalandhar - 144021, Dist.Jalandhar, Punjab",8046037115,
"FRP IW 5200 Infant Baby Warmer, For Hospital",https://www.indiamart.com/proddetail/iw-5200-infant-baby-warmer-24262114748.html?pos=130&kwd=baby bottle warmer&tags=||||8747.203|Price|product|||TS|rsf:gd-|-stype:attr=1|qr_nm:gd|res:RC4|com-cf:nl|ptrs:na|ktp:N0|mc:22705|mtp:S|qry_typ:P|lang:en|wc:3|cs:8833|v=4,Yes Medi Pulse,https://www.yesmedipulse.com/?pos=130&kwd=baby bottle warmer&tags=||||8747.203|Price|product|||TS|rsf:gd-|-stype:attr=1|qr_nm:gd|res:RC4|com-cf:nl|ptrs:na|ktp:N0|mc:22705|mtp:S|qry_typ:P|lang:en|wc:3|cs:8833|v=4,False,Sat Kartar Nagar,Panipat,"New Mukhija Colony, Unique Public School Wali Gali, Jattal Road, Sat Kartar Nagar, Panipat - 132103, Dist.Panipat, Haryana",7942548764,
Radiant Warmers FRP Baby Warmer Machine,https://www.indiamart.com/proddetail/baby-warmer-machine-2852913914591.html?pos=131&kwd=baby bottle warmer&tags=||||9839.57|Price|product|||TS|rsf:gd-|-stype:attr=1|qr_nm:gd|res:RC4|com-cf:nl|ptrs:na|ktp:N0|mc:22705|mtp:S|qry_typ:P|lang:en|wc:3|cs:8833|v=4,Carecraft Healthcare Private Limited,https://www.carecraft.in/?pos=131&kwd=baby bottle warmer&tags=||||9839.57|Price|product|||TS|rsf:gd-|-stype:attr=1|qr_nm:gd|res:RC4|com-cf:nl|ptrs:na|ktp:N0|mc:22705|mtp:S|qry_typ:P|lang:en|wc:3|cs:8833|v=4,False,Jadavpur,Kolkata,"67A/1/1B, 1st Floor, Shivangan Apartment. Baderaipur Road, Jadavpur,, Jadavpur, Kolkata - 700032, Dist.Kolkata, West Bengal",8045908531,
"Mild Steel Baby Warmer Phototherapy, For Hospital, Model: VS-100",https://www.indiamart.com/proddetail/baby-warmer-phototherapy-20538557362.html?pos=132&kwd=baby bottle warmer&tags=||||8663.873|Price|product|||TS|rsf:gd-|-stype:attr=1|qr_nm:gd|res:RC4|com-cf:nl|ptrs:na|ktp:N0|mc:22705|mtp:S|qry_typ:P|lang:en|wc:3|cs:8833|v=4,V Smart Health Care Device,https://www.indiamart.com/vsmarthealthcare/?pos=132&kwd=baby bottle warmer&tags=||||8663.873|Price|product|||TS|rsf:gd-|-stype:attr=1|qr_nm:gd|res:RC4|com-cf:nl|ptrs:na|ktp:N0|mc:22705|mtp:S|qry_typ:P|lang:en|wc:3|cs:8833|v=4,False,Sunkadakatte,Bengaluru,"128, 129,,2nd Floor,Bengaluru (Bangalore) Urban,Karnataka,560091,Sri Gandhadakaval Sunkadakatte Sunkadakatte, Behind Vijayachandra Kalyana Mantap, Sunkadakatte, Bengaluru - 560091, Dist.Bengaluru, Karnataka",8048969296,
Resuscitation Warmers FRP Baby Warmer Machine,https://www.indiamart.com/proddetail/baby-warmer-machine-2850512185673.html?pos=133&kwd=baby bottle warmer&tags=||||8752.144|Price|product|||TS|rsf:gd-|-stype:attr=1|qr_nm:gd|res:RC4|com-cf:nl|ptrs:na|ktp:N0|mc:22705|mtp:S|qry_typ:P|lang:en|wc:3|cs:8833|v=4,Attraction Surgical Industry,https://www.indiamart.com/attractionsurgicalindustries/?pos=133&kwd=baby bottle warmer&tags=||||8752.144|Price|product|||TS|rsf:gd-|-stype:attr=1|qr_nm:gd|res:RC4|com-cf:nl|ptrs:na|ktp:N0|mc:22705|mtp:S|qry_typ:P|lang:en|wc:3|cs:8833|v=4,False,Dilshad Garden,New Delhi,"M-31/B-1, Jhilmil, Dilshad Garden, Dilshad Garden, New Delhi - 110095, Dist.Delhi, Delhi",8047642965,
"4 Wheel Adjustable Mild Steel Baby Warmer Machine, For Nicu",https://www.indiamart.com/proddetail/baby-warmer-machine-19767821962.html?pos=134&kwd=baby bottle warmer&tags=||||9349.906|Price|product|||TS|rsf:gd-|-stype:attr=1|qr_nm:gd|res:RC4|com-cf:nl|ptrs:na|ktp:N0|mc:22705|mtp:S|qry_typ:P|lang:en|wc:3|cs:8833|v=4,M/s- New Wave Medical Solution,https://www.indiamart.com/newwavemedicalsolution/?pos=134&kwd=baby bottle warmer&tags=||||9349.906|Price|product|||TS|rsf:gd-|-stype:attr=1|qr_nm:gd|res:RC4|com-cf:nl|ptrs:na|ktp:N0|mc:22705|mtp:S|qry_typ:P|lang:en|wc:3|cs:8833|v=4,False,Anandnagar,Gorakhpur,"gorakhpur anand nagar, Anandnagar, Gorakhpur - 273155, Dist.Gorakhpur, Uttar Pradesh",8046051525,
"Bottle Warmer, Bottle Warmer, Milk Warmer, Easy to Roll, Baby",https://www.indiamart.com/proddetail/bottle-warmer-bottle-warmer-milk-warmer-easy-to-roll-2854039184491.html?pos=135&kwd=baby bottle warmer&tags=CC||||8741.812|Price|product|||NA|rsf:gd-|-stype:attr=1|qr_nm:gd|res:RC4|com-cf:nl|ptrs:na|ktp:N0|mc:22705|mtp:S|qry_typ:P|lang:en|wc:3|cs:8833|v=4,Amateurs Trading Private Limited,https://www.indiamart.com/amateurs-trading-private-limited/?pos=135&kwd=baby bottle warmer&tags=CC||||8741.812|Price|product|||NA|rsf:gd-|-stype:attr=1|qr_nm:gd|res:RC4|com-cf:nl|ptrs:na|ktp:N0|mc:22705|mtp:S|qry_typ:P|lang:en|wc:3|cs:8833|v=4,False,,Gurugram,"Plot No. 76 D Udyog Vihar Phase-4 Sector-18 UDYOG VIHAR, Gurugram - 122001, Dist.Gurgaon, Haryana",8041013713,
Steam Bottle Warmers,https://www.indiamart.com/proddetail/steam-bottle-warmers-20808921862.html?pos=136&kwd=baby bottle warmer&tags=CC||||8601.347|Price|product|||NA|rsf:gd-|-stype:attr=1|qr_nm:gd|res:RC4|com-cf:nl|ptrs:na|ktp:N0|mc:22705|mtp:S|qry_typ:P|lang:en|wc:3|cs:8833|v=4,Mamma Mia,https://www.indiamart.com/mammamia/?pos=136&kwd=baby bottle warmer&tags=CC||||8601.347|Price|product|||NA|rsf:gd-|-stype:attr=1|qr_nm:gd|res:RC4|com-cf:nl|ptrs:na|ktp:N0|mc:22705|mtp:S|qry_typ:P|lang:en|wc:3|cs:8833|v=4,False,,Jaipur,"D 192-a, Moti Marg, Bapu Nagar, Jaipur - 302015, Dist.Jaipur, Rajasthan",8069013895,120
Mee Mee Food Warmer,https://www.indiamart.com/proddetail/mee-mee-food-warmer-10738082691.html?pos=137&kwd=baby bottle warmer&tags=CC||||8786.56|Price|product|||NA|rsf:gd-|-stype:attr=1|qr_nm:gd|res:RC4|com-cf:nl|ptrs:na|ktp:N0|mc:22705|mtp:S|qry_typ:P|lang:en|wc:3|cs:8833|v=4,Yash Agencies,https://www.indiamart.com/yashagencies-hyderabad/?pos=137&kwd=baby bottle warmer&tags=CC||||8786.56|Price|product|||NA|rsf:gd-|-stype:attr=1|qr_nm:gd|res:RC4|com-cf:nl|ptrs:na|ktp:N0|mc:22705|mtp:S|qry_typ:P|lang:en|wc:3|cs:8833|v=4,False,Ameerpet,Hyderabad,"Door No. 6-3-850/1 & 9/7, Sirisha Plaza, Opposite Sheeshmahal Theatre, Ameerpet, Mahesh Bank, Ameerpet, Hyderabad - 500016, Dist.Hyderabad, Telangana",8043838007,
IRW - 1803F IRW 1803F Gemi Radiant Warmer,https://www.indiamart.com/proddetail/irw-1803f-gemi-radiant-warmer-20615925573.html?pos=138&kwd=baby bottle warmer&tags=||||8223.226||product|||TS|rsf:gd-|-stype:attr=1|qr_nm:gd|res:RC4|com-cf:nl|ptrs:na|ktp:N0|mc:22705|mtp:S|qry_typ:P|lang:en|wc:3|cs:8833|v=4,Maharashtra Enterprises,https://www.indiamart.com/maharashtraenterprisesmumbai/?pos=138&kwd=baby bottle warmer&tags=||||8223.226||product|||TS|rsf:gd-|-stype:attr=1|qr_nm:gd|res:RC4|com-cf:nl|ptrs:na|ktp:N0|mc:22705|mtp:S|qry_typ:P|lang:en|wc:3|cs:8833|v=4,False,,Thane,"B-3 Mumbai Pune Road Adarsh Rajani Gandha Chs Near Ashok Garage, Kalwa, Thane - 400605, Dist.Thane, Maharashtra",8048973736,
Mild Steel JPSI-MM Janson Baby Radiant Warmer,https://www.indiamart.com/proddetail/jpsi-mm-janson-baby-radiant-warmer-2852867058648.html?pos=139&kwd=baby bottle warmer&tags=||||8752.144|Price|product|||TS|rsf:gd-|-stype:attr=1|qr_nm:gd|res:RC4|com-cf:nl|ptrs:na|ktp:N0|mc:22705|mtp:S|qry_typ:P|lang:en|wc:3|cs:8833|v=4,Janson's Patent Scale Industries,https://www.indiamart.com/jansonspatentscaleindustries/?pos=139&kwd=baby bottle warmer&tags=||||8752.144|Price|product|||TS|rsf:gd-|-stype:attr=1|qr_nm:gd|res:RC4|com-cf:nl|ptrs:na|ktp:N0|mc:22705|mtp:S|qry_typ:P|lang:en|wc:3|cs:8833|v=4,False,Mundka,New Delhi,"Ground Floor, KH. 58/9, North Mundka Road, Mundka, Mundka, New Delhi - 110041, Dist.Delhi, Delhi",7942968155,
"Baby Fruit Soother, 3-12 Months",https://www.indiamart.com/proddetail/baby-fruit-soother-26199826173.html?pos=140&kwd=baby bottle warmer&tags=||||8785.791|Price|product|||TS|rsf:gd-|-stype:attr=1|qr_nm:gd|res:RC4|com-cf:nl|ptrs:na|ktp:N0|mc:22705|mtp:S|qry_typ:P|lang:en|wc:3|cs:8833|v=4,Paras Enterprises,https://www.claoberry.com/?pos=140&kwd=baby bottle warmer&tags=||||8785.791|Price|product|||TS|rsf:gd-|-stype:attr=1|qr_nm:gd|res:RC4|com-cf:nl|ptrs:na|ktp:N0|mc:22705|mtp:S|qry_typ:P|lang:en|wc:3|cs:8833|v=4,False,Raj Nagar Extension,Ghaziabad,"KH.NO.-2565,VILLAGE KARHERA,MOHAN NAGAR,Ghaziabad, Raj Nagar Extension, Ghaziabad - 201007, Dist.Ghaziabad, Uttar Pradesh",8043862487,
"Mild Steel 6086 Infra Red Radiant Baby Warmer, For Hospital",https://www.indiamart.com/proddetail/6086-infra-red-radiant-baby-warmer-22590346955.html?pos=141&kwd=baby bottle warmer&tags=||||8641.487|Price|product|||TS|rsf:gd-|-stype:attr=1|qr_nm:gd|res:RC4|com-cf:nl|ptrs:na|ktp:N0|mc:22705|mtp:S|qry_typ:P|lang:en|wc:3|cs:8833|v=4,Modern Surgical House,https://www.modernsurgicalhouse.in/?pos=141&kwd=baby bottle warmer&tags=||||8641.487|Price|product|||TS|rsf:gd-|-stype:attr=1|qr_nm:gd|res:RC4|com-cf:nl|ptrs:na|ktp:N0|mc:22705|mtp:S|qry_typ:P|lang:en|wc:3|cs:8833|v=4,True,Fentonganj,Jalandhar,"G. T Road, Near Old Jail Road, Fentonganj, Jalandhar - 144001, Dist.Jalandhar, Punjab",7942536995,
Radiant Warmers Mild Steel Baby Warmer Machine,https://www.indiamart.com/proddetail/baby-warmer-machine-2853413361573.html?pos=142&kwd=baby bottle warmer&tags=||||8307.81|Price|product|||MDC|rsf:gd-|-stype:attr=1|qr_nm:gd|res:RC4|com-cf:nl|ptrs:na|ktp:N0|mc:22705|mtp:S|qry_typ:P|lang:en|wc:3|cs:8833|v=4,Govind Hospital Solution,https://www.indiamart.com/govind-hospital-solution/?pos=142&kwd=baby bottle warmer&tags=||||8307.81|Price|product|||MDC|rsf:gd-|-stype:attr=1|qr_nm:gd|res:RC4|com-cf:nl|ptrs:na|ktp:N0|mc:22705|mtp:S|qry_typ:P|lang:en|wc:3|cs:8833|v=4,False,Chinchwad,Pune,"2nd Floor, Flat No. 12, Chandan Housing Society, Tanaji Nagar , Near Shivaji Uday Mandal Pimpri Chinchwad, Chinchwad, Pune - 411033, Dist.Pune, Maharashtra",7949227556,
Radiant Warmers Mild Steel Baby Warmer Machine,https://www.indiamart.com/proddetail/baby-warmer-machine-2852203835273.html?pos=143&kwd=baby bottle warmer&tags=||||8228.275|Price|product|||MDC|rsf:gd-|-stype:attr=1|qr_nm:gd|res:RC4|com-cf:nl|ptrs:na|ktp:N0|mc:22705|mtp:S|qry_typ:P|lang:en|wc:3|cs:8833|v=4,Global Surgical,https://www.indiamart.com/global-surgical-ahmedabad/?pos=143&kwd=baby bottle warmer&tags=||||8228.275|Price|product|||MDC|rsf:gd-|-stype:attr=1|qr_nm:gd|res:RC4|com-cf:nl|ptrs:na|ktp:N0|mc:22705|mtp:S|qry_typ:P|lang:en|wc:3|cs:8833|v=4,False,Bopal,Ahmedabad,"3rd Floor, Office No. 301, Gala Hub Anx, Near Basant Bahar - 1,, Bopal, Ahmedabad - 380058, Dist.Ahmedabad, Gujarat",7942840790,
"MS Infant baby warmer, Model Name/Number: Tiana Dx",https://www.indiamart.com/proddetail/infant-baby-warmer-23314940773.html?pos=144&kwd=baby bottle warmer&tags=||||9520.041|Price|product|||MDC|rsf:gd-|-stype:attr=1|qr_nm:gd|res:RC4|com-cf:nl|ptrs:na|ktp:N0|mc:22705|mtp:S|qry_typ:P|lang:en|wc:3|cs:8833|v=4,Surgimed Impex Devices,https://www.indiamart.com/surgimedimpexdevices/?pos=144&kwd=baby bottle warmer&tags=||||9520.041|Price|product|||MDC|rsf:gd-|-stype:attr=1|qr_nm:gd|res:RC4|com-cf:nl|ptrs:na|ktp:N0|mc:22705|mtp:S|qry_typ:P|lang:en|wc:3|cs:8833|v=4,False,Pahari,Patna,"House of Jayanti Devi, First Floor, Patna-Gaya Main Road, South of ISBT, Zakariyapur, Azimabad, Badi Pahadi, Patna Sadar, Pahari, Patna - 800007, Dist.Patna, Bihar",8048610232,
"Mild Steel Medical Baby Warmer, For Hospital",https://www.indiamart.com/proddetail/medical-baby-warmer-2850794593433.html?pos=145&kwd=baby bottle warmer&tags=||||8723.301|Price|product|||MDC|rsf:gd-|-stype:attr=1|qr_nm:gd|res:RC4|com-cf:nl|ptrs:na|ktp:N0|mc:22705|mtp:S|qry_typ:P|lang:en|wc:3|cs:8833|v=4,Supreme Hospital Furniture,https://www.indiamart.com/supremehospitalfurniture/?pos=145&kwd=baby bottle warmer&tags=||||8723.301|Price|product|||MDC|rsf:gd-|-stype:attr=1|qr_nm:gd|res:RC4|com-cf:nl|ptrs:na|ktp:N0|mc:22705|mtp:S|qry_typ:P|lang:en|wc:3|cs:8833|v=4,False,TT Nagar,Bhopal,"Flat No.08, Second Floor, Tapti Apartment, GTB Complex TT Nagar, TT Nagar, Bhopal - 462003, Dist.Bhopal, Madhya Pradesh",8043883795,
Mild Steel Airquilt-300FC RADIANT WARMER WITH FIXED BABY CRADLE,https://www.indiamart.com/proddetail/airquilt-300fc-radiant-warmer-with-fixed-baby-cradle-2853367615712.html?pos=146&kwd=baby bottle warmer&tags=||||8307.81|Price|product|||TS|rsf:gd-|-stype:attr=1|qr_nm:gd|res:RC4|com-cf:nl|ptrs:na|ktp:N0|mc:22705|mtp:S|qry_typ:P|lang:en|wc:3|cs:8833|v=4,Procare,https://www.procareindia.co.in/?pos=146&kwd=baby bottle warmer&tags=||||8307.81|Price|product|||TS|rsf:gd-|-stype:attr=1|qr_nm:gd|res:RC4|com-cf:nl|ptrs:na|ktp:N0|mc:22705|mtp:S|qry_typ:P|lang:en|wc:3|cs:8833|v=4,False,Chikhali,Pune,"Gat No 197/198, Dehu Alandi Road, Jadhavwadi, Chikhali, Pimpri Chinchwad, Chikhali, Pune - 411062, Dist.Pune, Maharashtra",7942800254,
Phototherapy Warmers Mild Steel Baby Warmer,https://www.indiamart.com/proddetail/mild-steel-baby-warmer-2854350652191.html?pos=147&kwd=baby bottle warmer&tags=||||9839.57||product|||MDC|rsf:gd-|-stype:attr=1|qr_nm:gd|res:RC4|com-cf:nl|ptrs:na|ktp:N0|mc:22705|mtp:S|qry_typ:P|lang:en|wc:3|cs:8833|v=4,Shreyansh Biomedical LLP,https://www.indiamart.com/shreyanshbiomedical/?pos=147&kwd=baby bottle warmer&tags=||||9839.57||product|||MDC|rsf:gd-|-stype:attr=1|qr_nm:gd|res:RC4|com-cf:nl|ptrs:na|ktp:N0|mc:22705|mtp:S|qry_typ:P|lang:en|wc:3|cs:8833|v=4,False,,Kolkata,"72, Roy Bahadur Road, New Alipore, Kolkata - 700053, Dist.Kolkata, West Bengal",7949339897,
Bonny Products Transparent Bonne Bottle Nipples,https://www.indiamart.com/proddetail/bonne-bottle-nipples-10699311312.html?pos=148&kwd=baby bottle warmer&tags=||||8778.123|Price|product|||TS|rsf:gd-|-stype:attr=1|qr_nm:gd|res:RC4|com-cf:nl|ptrs:na|ktp:N0|mc:22705|mtp:S|qry_typ:P|lang:en|wc:3|cs:8833|v=4,Bonny Products Private Limited,https://www.feedingbottles.com/?pos=148&kwd=baby bottle warmer&tags=||||8778.123|Price|product|||TS|rsf:gd-|-stype:attr=1|qr_nm:gd|res:RC4|com-cf:nl|ptrs:na|ktp:N0|mc:22705|mtp:S|qry_typ:P|lang:en|wc:3|cs:8833|v=4,False,Sector 63,Noida,"D240, Sector 63, Sector 63, Noida - 201307, Dist.Gautam Budh Nagar, Uttar Pradesh",8046040824,
Silicone Baby Fruit Feeder,https://www.indiamart.com/proddetail/silicone-baby-fruit-feeder-2854142797091.html?pos=149&kwd=baby bottle warmer&tags=||||8211.142|Price|product|||TS|rsf:gd-|-stype:attr=1|qr_nm:gd|res:RC4|com-cf:nl|ptrs:na|ktp:N0|mc:22705|mtp:S|qry_typ:P|lang:en|wc:3|cs:8833|v=4,P For Panda Baby Products Private Limited,https://www.p4pandababyproducts.com/?pos=149&kwd=baby bottle warmer&tags=||||8211.142|Price|product|||TS|rsf:gd-|-stype:attr=1|qr_nm:gd|res:RC4|com-cf:nl|ptrs:na|ktp:N0|mc:22705|mtp:S|qry_typ:P|lang:en|wc:3|cs:8833|v=4,False,Goregaon West,Mumbai,"904 A Wing,9 Th Floor,Triple S Heights,Jakeria Road, Goregaon West, Mumbai - 400064, Dist.Mumbai, Maharashtra",7942710871,
"Mild Steel Radiant Heat Warmer, For Hospital",https://www.indiamart.com/proddetail/radiant-heat-warmer-24008329012.html?pos=150&kwd=baby bottle warmer&tags=||||8559.269|Price|product|||MDC|rsf:gd-|-stype:attr=1|qr_nm:gd|res:RC4|com-cf:nl|ptrs:na|ktp:N0|mc:22705|mtp:S|qry_typ:P|lang:en|wc:3|cs:8833|v=4,Neo Expert Private Limited,https://www.indiamart.com/neo-expert/?pos=150&kwd=baby bottle warmer&tags=||||8559.269|Price|product|||MDC|rsf:gd-|-stype:attr=1|qr_nm:gd|res:RC4|com-cf:nl|ptrs:na|ktp:N0|mc:22705|mtp:S|qry_typ:P|lang:en|wc:3|cs:8833|v=4,False,Indore Takshashila,Indore,"518/41 -B, Gokuldas Compound, Shilnath Camp, Indore Takshashila, Indore - 452001, Dist.Indore, Madhya Pradesh",8046077113,
Stainless Steel Neokraft Radiant Heat Baby Warmer,https://www.indiamart.com/proddetail/neokraft-radiant-heat-baby-warmer-2854243058962.html?pos=151&kwd=baby bottle warmer&tags=||||9110.092|Price|product|||MDC|rsf:gd-|-stype:attr=1|qr_nm:gd|res:RC4|com-cf:nl|ptrs:na|ktp:N0|mc:22705|mtp:S|qry_typ:P|lang:en|wc:3|cs:8833|v=4,Digital Medical Health Care Company,https://www.indiamart.com/digitalmedicalhealthcarecompany/?pos=151&kwd=baby bottle warmer&tags=||||9110.092|Price|product|||MDC|rsf:gd-|-stype:attr=1|qr_nm:gd|res:RC4|com-cf:nl|ptrs:na|ktp:N0|mc:22705|mtp:S|qry_typ:P|lang:en|wc:3|cs:8833|v=4,False,,Lucknow,"Bagh No. 2 Behasa, Lucknow Sarojani Nagar,, Lucknow - 226008, Dist.Lucknow, Uttar Pradesh",8045731387,
Baby milk bottle pacifier,https://www.indiamart.com/proddetail/baby-milk-bottle-pacifier-2854639589273.html?pos=152&kwd=baby bottle warmer&tags=||||8038.093|Price|product|||MDC|rsf:gd-|-stype:attr=1|qr_nm:gd|res:RC4|com-cf:nl|ptrs:na|ktp:N0|mc:22705|mtp:S|qry_typ:P|lang:en|wc:3|cs:8833|v=4,Creative Automation,https://www.indiamart.com/creativeautomationrajkot/?pos=152&kwd=baby bottle warmer&tags=||||8038.093|Price|product|||MDC|rsf:gd-|-stype:attr=1|qr_nm:gd|res:RC4|com-cf:nl|ptrs:na|ktp:N0|mc:22705|mtp:S|qry_typ:P|lang:en|wc:3|cs:8833|v=4,False,Rajkot,Rajkot,"Plot No.19, kailash Manu, Sidhdheshwar Griding, Atika ndustrial, Street No.3, Dhebar Road South Near Jaydev Foundry, Rajkot, Rajkot - 360002, Dist.Rajkot, Gujarat",7942570968,
Baby Silicone rattle feeder,https://www.indiamart.com/proddetail/baby-silicone-rattle-feeder-2854560953097.html?pos=153&kwd=baby bottle warmer&tags=||||8752.144|Price|product|||MDC|rsf:gd-|-stype:attr=1|qr_nm:gd|res:RC4|com-cf:nl|ptrs:na|ktp:N0|mc:22705|mtp:S|qry_typ:P|lang:en|wc:3|cs:8833|v=4,HS Enterprises,https://www.indiamart.com/hsenterprisesindia/?pos=153&kwd=baby bottle warmer&tags=||||8752.144|Price|product|||MDC|rsf:gd-|-stype:attr=1|qr_nm:gd|res:RC4|com-cf:nl|ptrs:na|ktp:N0|mc:22705|mtp:S|qry_typ:P|lang:en|wc:3|cs:8833|v=4,False,,New Delhi,"EE-496, Gali No. 10, North Delhi, New Delhi - 110042, Dist.Delhi, Delhi",7949329375,
"Baby Nibbler Fruit Feeder, Capacity: 50 mL",https://www.indiamart.com/proddetail/baby-nibbler-fruit-feeder-2854854688173.html?pos=154&kwd=baby bottle warmer&tags=||||8752.144|Price|product|||TS|rsf:gd-|-stype:attr=1|qr_nm:gd|res:RC4|com-cf:nl|ptrs:na|ktp:N0|mc:22705|mtp:S|qry_typ:P|lang:en|wc:3|cs:8833|v=4,Dua Traders,https://www.indiamart.com/duatraders-delhi/?pos=154&kwd=baby bottle warmer&tags=||||8752.144|Price|product|||TS|rsf:gd-|-stype:attr=1|qr_nm:gd|res:RC4|com-cf:nl|ptrs:na|ktp:N0|mc:22705|mtp:S|qry_typ:P|lang:en|wc:3|cs:8833|v=4,False,Mandoli,New Delhi,"Plot No. 8, Kh No. 4/24, Mela Ram Vatika, E-block, JR Complex No. 4, Mandoli, Sevadham, Mandoli, New Delhi - 110093, Dist.Delhi, Delhi",8048971741,
Baby Fruit Feeder,https://www.indiamart.com/proddetail/baby-fruit-feeder-2854075887973.html?pos=155&kwd=baby bottle warmer&tags=||||8823.154|Price|product|||TS|rsf:gd-|-stype:attr=1|qr_nm:gd|res:RC4|com-cf:nl|ptrs:na|ktp:N0|mc:22705|mtp:S|qry_typ:P|lang:en|wc:3|cs:8833|v=4,Shri Anant International,https://www.indiamart.com/shrianantinternational/?pos=155&kwd=baby bottle warmer&tags=||||8823.154|Price|product|||TS|rsf:gd-|-stype:attr=1|qr_nm:gd|res:RC4|com-cf:nl|ptrs:na|ktp:N0|mc:22705|mtp:S|qry_typ:P|lang:en|wc:3|cs:8833|v=4,False,DayalBagh,Agra,"No.02,House 2,Alkapuri Phase Ii,Agra, DayalBagh, Agra - 282005, Dist.Agra, Uttar Pradesh",7942721451,
"Mild Steel Baby Warmer, Model First Care, For Nicu",https://www.indiamart.com/proddetail/baby-warmer-model-first-care-27295604955.html?pos=156&kwd=baby bottle warmer&tags=||||8307.81||product|||TS|rsf:gd-|-stype:attr=1|qr_nm:gd|res:RC4|com-cf:nl|ptrs:na|ktp:N0|mc:22705|mtp:S|qry_typ:P|lang:en|wc:3|cs:8833|v=4,Shreeyash Electro Medicals,https://www.indiamart.com/shreeyashelectro-medicals/?pos=156&kwd=baby bottle warmer&tags=||||8307.81||product|||TS|rsf:gd-|-stype:attr=1|qr_nm:gd|res:RC4|com-cf:nl|ptrs:na|ktp:N0|mc:22705|mtp:S|qry_typ:P|lang:en|wc:3|cs:8833|v=4,False,Katraj,Pune,"SR. No. 49, Plot No. 22, Shri Sai Industrial Estate Gujarwadi Phata, Katraj, Katraj, Pune - 411046, Dist.Pune, Maharashtra",8048975762,
Phototherapy Warmers FRP Infant Radiant Warmer (Model: IMS IRW 201 DLX),https://www.indiamart.com/proddetail/infant-radiant-warmer-model-ims-irw-201-dlx-2853905107812.html?pos=157&kwd=baby bottle warmer&tags=||||8752.144|Price|product|||TS|rsf:gd-|-stype:attr=1|qr_nm:gd|res:RC4|com-cf:nl|ptrs:na|ktp:N0|mc:22705|mtp:S|qry_typ:P|lang:en|wc:3|cs:8833|v=4,Indian Medical System,https://www.indianmedicalsystem.com/?pos=157&kwd=baby bottle warmer&tags=||||8752.144|Price|product|||TS|rsf:gd-|-stype:attr=1|qr_nm:gd|res:RC4|com-cf:nl|ptrs:na|ktp:N0|mc:22705|mtp:S|qry_typ:P|lang:en|wc:3|cs:8833|v=4,False,Jhilmil,New Delhi,"B-12 Jhilmil Industrial Area Shahdara Shahdara, Jhilmil, New Delhi - 110095, Dist.Delhi, Delhi",8044564165,
Mild Steel Infant Radiant Warmer,https://www.indiamart.com/proddetail/infant-radiant-warmer-2849526165891.html?pos=158&kwd=baby bottle warmer&tags=||||8316.457|Price|product|||TS|rsf:gd-|-stype:attr=1|qr_nm:gd|res:RC4|com-cf:nl|ptrs:na|ktp:N0|mc:22705|mtp:S|qry_typ:P|lang:en|wc:3|cs:8833|v=4,JDL Impexworld,https://www.indiamart.com/jdl-impexworld/?pos=158&kwd=baby bottle warmer&tags=||||8316.457|Price|product|||TS|rsf:gd-|-stype:attr=1|qr_nm:gd|res:RC4|com-cf:nl|ptrs:na|ktp:N0|mc:22705|mtp:S|qry_typ:P|lang:en|wc:3|cs:8833|v=4,False,Matale Nagar,Nashik,"Office No B 227 Vraj Capital Above Shree Eknath Car Decor Shingada Talav Nashik Maharashtra, Matale Nagar, Nashik - 422008, Dist.Nashik, Maharashtra",8046057064,
"Steelnes steel dal warmer, For Commercial, Capacity: 30 Ltr",https://www.indiamart.com/proddetail/steelnes-steel-dal-warmer-2854612446248.html?pos=159&kwd=baby bottle warmer&tags=||||8741.987|Price|product|||TS|rsf:gd-|-stype:attr=1|qr_nm:gd|res:RC4|com-cf:nl|ptrs:na|ktp:N0|mc:22705|mtp:S|qry_typ:P|lang:en|wc:3|cs:8833|v=4,Maa Mansa Enterprises,https://www.indiamart.com/maa-mansa-enterprisesambala/?pos=159&kwd=baby bottle warmer&tags=||||8741.987|Price|product|||TS|rsf:gd-|-stype:attr=1|qr_nm:gd|res:RC4|com-cf:nl|ptrs:na|ktp:N0|mc:22705|mtp:S|qry_typ:P|lang:en|wc:3|cs:8833|v=4,False,Sham Nagar,Ambala,"134, OPP.Shree Ram Hardware, Babyal Road, Sham Nagar, Ambala - 133001, Dist.Ambala, Haryana",7942955394,
Giraffe Warmer Heat Engine,https://www.indiamart.com/proddetail/giraffe-warmer-heat-engine-2854441865597.html?pos=160&kwd=baby bottle warmer&tags=||||8752.144|Price|product|||TS|rsf:gd-|-stype:attr=1|qr_nm:gd|res:RC4|com-cf:nl|ptrs:na|ktp:N0|mc:22705|mtp:S|qry_typ:P|lang:en|wc:3|cs:8833|v=4,Touch India (OPC) Private Limited,https://www.indiamart.com/touch-india-opc/?pos=160&kwd=baby bottle warmer&tags=||||8752.144|Price|product|||TS|rsf:gd-|-stype:attr=1|qr_nm:gd|res:RC4|com-cf:nl|ptrs:na|ktp:N0|mc:22705|mtp:S|qry_typ:P|lang:en|wc:3|cs:8833|v=4,False,Madhu Vihar,New Delhi,"C-36 Madhu Vihar, Madhu Vihar, New Delhi - 110059, Dist.Delhi, Delhi",8047652811,
ASI-191 Radiat warmer,https://www.indiamart.com/proddetail/radiat-warmer-25693887055.html?pos=161&kwd=baby bottle warmer&tags=||||8752.144|Price|product|||TS|rsf:gd-|-stype:attr=1|qr_nm:gd|res:RC4|com-cf:nl|ptrs:na|ktp:N0|mc:22705|mtp:S|qry_typ:P|lang:en|wc:3|cs:8833|v=4,Anand Surgical Industries (India),https://www.anandsurgical.co.in/?pos=161&kwd=baby bottle warmer&tags=||||8752.144|Price|product|||TS|rsf:gd-|-stype:attr=1|qr_nm:gd|res:RC4|com-cf:nl|ptrs:na|ktp:N0|mc:22705|mtp:S|qry_typ:P|lang:en|wc:3|cs:8833|v=4,False,Patparganj Industrial Area,New Delhi,"267, Fie Patparganj Industrial Area, Patparganj Industrial Area, New Delhi - 110092, Dist.Delhi, Delhi",8047656405,
Radiant Warmers Mild Steel Baby Warmer,https://www.indiamart.com/proddetail/baby-warmer-2852945050312.html?pos=162&kwd=baby bottle warmer&tags=CC||||9672.527|Price|product|||NA|rsf:gd-|-stype:attr=1|qr_nm:gd|res:RC4|com-cf:nl|ptrs:na|ktp:N0|mc:22705|mtp:S|qry_typ:P|lang:en|wc:3|cs:8833|v=4,Shankar Pharmaceuticals & Otc,https://www.indiamart.com/sankar-pharmacitcal-saand-otc/?pos=162&kwd=baby bottle warmer&tags=CC||||9672.527|Price|product|||NA|rsf:gd-|-stype:attr=1|qr_nm:gd|res:RC4|com-cf:nl|ptrs:na|ktp:N0|mc:22705|mtp:S|qry_typ:P|lang:en|wc:3|cs:8833|v=4,False,Baripada,Baripada,"Plot No 434/1692,435/1691, Khata No 191/940, Jamunadeipur, Mayurbhanj, 191/940, JAMUNADEIPUR, BARIPADA, Baripada, Baripada - 757002, Dist.Mayurbhanj, Odisha",8069728306,869
Radiant Warmers FRP Baby Warmer,https://www.indiamart.com/proddetail/baby-warmer-2855008994712.html?pos=163&kwd=baby bottle warmer&tags=||||9829.308|Price|product|||TS|rsf:gd-|-stype:attr=1|qr_nm:gd|res:RC4|com-cf:nl|ptrs:na|ktp:N0|mc:22705|mtp:S|qry_typ:P|lang:en|wc:3|cs:8833|v=4,S A Enterprise,https://www.indiamart.com/saenterprise-kolkata-westbengal/?pos=163&kwd=baby bottle warmer&tags=||||9829.308|Price|product|||TS|rsf:gd-|-stype:attr=1|qr_nm:gd|res:RC4|com-cf:nl|ptrs:na|ktp:N0|mc:22705|mtp:S|qry_typ:P|lang:en|wc:3|cs:8833|v=4,False,Unsani,Howrah,"Unsani, Garpa Musalmanpara, Jagacha, Unsani, Howrah - 711302, Dist.Howrah, West Bengal",8043876929,
Mild Steel Baby warmer,https://www.indiamart.com/proddetail/baby-warmer-27450234955.html?pos=164&kwd=baby bottle warmer&tags=||||8210.732|Price|product|||TS|rsf:gd-|-stype:attr=1|qr_nm:gd|res:RC4|com-cf:nl|ptrs:na|ktp:N0|mc:22705|mtp:S|qry_typ:P|lang:en|wc:3|cs:8833|v=4,Bright Star Equipment,https://www.indiamart.com/brightstarequipment/?pos=164&kwd=baby bottle warmer&tags=||||8210.732|Price|product|||TS|rsf:gd-|-stype:attr=1|qr_nm:gd|res:RC4|com-cf:nl|ptrs:na|ktp:N0|mc:22705|mtp:S|qry_typ:P|lang:en|wc:3|cs:8833|v=4,False,Gokhiware,Vasai,"Gala No 11, Fanaspada Opp, Relience Book, Waliv Naka, Vasai, Gokhiware, Vasai - 401208, Dist.Thane, Maharashtra",8046050435,
"Avi Healthcare Stainless Steel Infant Baby Warmer Iw4200 ( Warmer Double Temperature Probe), For Hospital, 250watt",https://www.indiamart.com/proddetail/infant-baby-warmer-iw4200-warmer-double-temperature-probe-22077530288.html?pos=165&kwd=baby bottle warmer&tags=||||9110.092|Price|product|||TS|rsf:gd-|-stype:attr=1|qr_nm:gd|res:RC4|com-cf:nl|ptrs:na|ktp:N0|mc:22705|mtp:S|qry_typ:P|lang:en|wc:3|cs:8833|v=4,Mark.inc,https://www.indiamart.com/markinc/?pos=165&kwd=baby bottle warmer&tags=||||9110.092|Price|product|||TS|rsf:gd-|-stype:attr=1|qr_nm:gd|res:RC4|com-cf:nl|ptrs:na|ktp:N0|mc:22705|mtp:S|qry_typ:P|lang:en|wc:3|cs:8833|v=4,False,Ruchi Khand I,Lucknow,"House No. 10-A, Sharda Encalve, New Sainik Nagar, Rbl Road, Sharda Encalve New Sainik Nagar, Ruchi Khand I, Lucknow - 226002, Dist.Lucknow, Uttar Pradesh",8046053196,
"FRP Baby Warmer, For Hospital, Model Name/Number: IW4200",https://www.indiamart.com/proddetail/baby-warmer-25738396912.html?pos=166&kwd=baby bottle warmer&tags=||||8747.203|Price|product|||TS|rsf:gd-|-stype:attr=1|qr_nm:gd|res:RC4|com-cf:nl|ptrs:na|ktp:N0|mc:22705|mtp:S|qry_typ:P|lang:en|wc:3|cs:8833|v=4,Ted-med Equipments Private Limited,https://www.ted-medequipments.com/?pos=166&kwd=baby bottle warmer&tags=||||8747.203|Price|product|||TS|rsf:gd-|-stype:attr=1|qr_nm:gd|res:RC4|com-cf:nl|ptrs:na|ktp:N0|mc:22705|mtp:S|qry_typ:P|lang:en|wc:3|cs:8833|v=4,False,Sat Kartar Nagar,Panipat,"Ward-17 Near Unique Public School New Mukhija Colony, Sat Kartar Nagar, Panipat - 132103, Dist.Panipat, Haryana",8047642515,
"Stainless Steel Baby Warmer, For Hospital, Model Name/Number: Tm",https://www.indiamart.com/proddetail/baby-warmer-23528442473.html?pos=167&kwd=baby bottle warmer&tags=||||8774.064|Price|product|||TS|rsf:gd-|-stype:attr=1|qr_nm:gd|res:RC4|com-cf:nl|ptrs:na|ktp:N0|mc:22705|mtp:S|qry_typ:P|lang:en|wc:3|cs:8833|v=4,Suloshan Healthcare And Services,https://www.indiamart.com/suloshan-healthcareandservices/?pos=167&kwd=baby bottle warmer&tags=||||8774.064|Price|product|||TS|rsf:gd-|-stype:attr=1|qr_nm:gd|res:RC4|com-cf:nl|ptrs:na|ktp:N0|mc:22705|mtp:S|qry_typ:P|lang:en|wc:3|cs:8833|v=4,False,Manachanalloor,Tiruchirappalli,"No. 6/32,Geetha Nagar,Vayalur road,Tirchy, Manachanalloor, Tiruchirappalli - 621005, Dist.Tiruchirappalli, Tamil Nadu",7942544779,
"Neocraft baby warmer, For Hospital",,Imporium Medical Device Private Limited,https://www.indiamart.com/imporium-medical-device-private-limited/?pos=168&kwd=baby bottle warmer&tags=CC||||9704.348|Price|product|||NA|rsf:gd-|-stype:attr=1|qr_nm:gd|res:RC4|com-cf:nl|ptrs:na|ktp:N0|mc:22705|mtp:S|qry_typ:P|lang:en|wc:3|cs:8833|v=4,False,Bhagalpur,Bhagalpur,"House No 4a/1 Barari Road Bhagalpur Bhagalpur Housing board chowk Barari Bhagalpur Bihar 812003, Bhagalpur, Bhagalpur - 812003, Dist.Bhagalpur, Bihar",8048371760,197
Infant Baby Warmer,https://www.indiamart.com/proddetail/infant-baby-warmer-20026900791.html?pos=169&kwd=baby bottle warmer&tags=CC||||9110.092|Price|product|||NA|rsf:gd-|-stype:attr=1|qr_nm:gd|res:RC4|com-cf:nl|ptrs:na|ktp:N0|mc:22705|mtp:S|qry_typ:P|lang:en|wc:3|cs:8833|v=4,Allied Surgical Emporium,https://www.indiamart.com/allied-surgical-emporium/?pos=169&kwd=baby bottle warmer&tags=CC||||9110.092|Price|product|||NA|rsf:gd-|-stype:attr=1|qr_nm:gd|res:RC4|com-cf:nl|ptrs:na|ktp:N0|mc:22705|mtp:S|qry_typ:P|lang:en|wc:3|cs:8833|v=4,False,Lalbagh,Lucknow,"Lal Bagh, Opposite Daya Nidhan Park, Lalbagh, Lucknow - 226001, Dist.Lucknow, Uttar Pradesh",8047671703,
Cooling Tunnel or Bottle Warmer,https://www.indiamart.com/proddetail/cooling-tunnel-or-bottle-warmer-14637474597.html?pos=170&kwd=baby bottle warmer&tags=CC||||8785.791||product|||NA|rsf:gd-|-stype:attr=1|qr_nm:gd|res:RC4|com-cf:nl|ptrs:na|ktp:N0|mc:22705|mtp:S|qry_typ:P|lang:en|wc:3|cs:8833|v=4,Rattan Industrial India Pvt. Ltd.,https://www.indiamart.com/rattanindustrialindia/?pos=170&kwd=baby bottle warmer&tags=CC||||8785.791||product|||NA|rsf:gd-|-stype:attr=1|qr_nm:gd|res:RC4|com-cf:nl|ptrs:na|ktp:N0|mc:22705|mtp:S|qry_typ:P|lang:en|wc:3|cs:8833|v=4,False,Mohan Nagar,Ghaziabad,"Building No. 47, Anand Industrial Estate, Mohan Nagar, Ghaziabad - 201007, Dist.Ghaziabad, Uttar Pradesh",8048614008,
"Plastic Baby Dolphin Fruit and Food Feeder cum Nibbler, 3-12 Months",https://www.indiamart.com/proddetail/baby-dolphin-fruit-and-food-feeder-cum-nibbler-2851323978248.html?pos=171&kwd=baby bottle warmer&tags=||||8752.144|Price|product|||TS|rsf:gd-|-stype:attr=1|qr_nm:gd|res:RC4|com-cf:nl|ptrs:na|ktp:N0|mc:22705|mtp:S|qry_typ:P|lang:en|wc:3|cs:8833|v=4,Dolphin Baby Product,https://www.dolphinbabyproducts.com/?pos=171&kwd=baby bottle warmer&tags=||||8752.144|Price|product|||TS|rsf:gd-|-stype:attr=1|qr_nm:gd|res:RC4|com-cf:nl|ptrs:na|ktp:N0|mc:22705|mtp:S|qry_typ:P|lang:en|wc:3|cs:8833|v=4,False,Inderlok,New Delhi,"No. 488, 1st Floor, Shahzada Bagh, Industrial Area Phase 1, Inderlok, New Delhi - 110035, Dist.Delhi, Delhi",8048965296,
Mild Steel Radiant Baby Warmer,https://www.indiamart.com/proddetail/radiant-baby-warmer-2853253180197.html?pos=172&kwd=baby bottle warmer&tags=||||9349.906|Price|product|||TS|rsf:gd-|-stype:attr=1|qr_nm:gd|res:RC4|com-cf:nl|ptrs:na|ktp:N0|mc:22705|mtp:S|qry_typ:P|lang:en|wc:3|cs:8833|v=4,Platinum Medical Solution,https://www.indiamart.com/platinum-medical-solution/?pos=172&kwd=baby bottle warmer&tags=||||9349.906|Price|product|||TS|rsf:gd-|-stype:attr=1|qr_nm:gd|res:RC4|com-cf:nl|ptrs:na|ktp:N0|mc:22705|mtp:S|qry_typ:P|lang:en|wc:3|cs:8833|v=4,False,Golghar,Gorakhpur,"2 Floor Shop No 10 Golghar Gda Tower, Golghar, Gorakhpur - 273001, Dist.Gorakhpur, Uttar Pradesh",8047671255,
"Mild Steel Baby warmer double sensor, For Hospital, Model Name/Number: Ge-warmer",https://www.indiamart.com/proddetail/baby-warmer-double-sensor-24798044891.html?pos=173&kwd=baby bottle warmer&tags=||||9110.092|Price|product|||TS|rsf:gd-|-stype:attr=1|qr_nm:gd|res:RC4|com-cf:nl|ptrs:na|ktp:N0|mc:22705|mtp:S|qry_typ:P|lang:en|wc:3|cs:8833|v=4,Gomti Enterprises,https://www.gomtienterprises.net/?pos=173&kwd=baby bottle warmer&tags=||||9110.092|Price|product|||TS|rsf:gd-|-stype:attr=1|qr_nm:gd|res:RC4|com-cf:nl|ptrs:na|ktp:N0|mc:22705|mtp:S|qry_typ:P|lang:en|wc:3|cs:8833|v=4,False,Rajajipuram,Lucknow,"Doctor Kheda, 545/KA/ND-64, Rajajipuram, Lucknow - 226101, Dist.Lucknow, Uttar Pradesh",7942535463,
Baby Warmer Machine,https://www.indiamart.com/proddetail/baby-warmer-machine-19039813730.html?pos=174&kwd=baby bottle warmer&tags=||||9289.285|Price|product|||TS|rsf:gd-|-stype:attr=1|qr_nm:gd|res:RC4|com-cf:nl|ptrs:na|ktp:N0|mc:22705|mtp:S|qry_typ:P|lang:en|wc:3|cs:8833|v=4,Sri Krishna Medical Services,https://www.indiamart.com/shrikrishnamedicalservices/?pos=174&kwd=baby bottle warmer&tags=||||9289.285|Price|product|||TS|rsf:gd-|-stype:attr=1|qr_nm:gd|res:RC4|com-cf:nl|ptrs:na|ktp:N0|mc:22705|mtp:S|qry_typ:P|lang:en|wc:3|cs:8833|v=4,False,Maddilapalem,Visakhapatnam,"54-12-38, Bhanu Nagar, Middila Palem, Near Krishna College, Maddilapalem, Visakhapatnam - 530022, Dist.Visakhapatnam, Andhra Pradesh",8046035401,
"Mild Steel MS Baby Warmer, For Hospital",https://www.indiamart.com/proddetail/ms-baby-warmer-26278522955.html?pos=175&kwd=baby bottle warmer&tags=||||8752.144|Price|product|||TS|rsf:gd-|-stype:attr=1|qr_nm:gd|res:RC4|com-cf:nl|ptrs:na|ktp:N0|mc:22705|mtp:S|qry_typ:P|lang:en|wc:3|cs:8833|v=4,Ramara Medical Solutions,https://www.ramaramedicalsolutions.com/?pos=175&kwd=baby bottle warmer&tags=||||8752.144|Price|product|||TS|rsf:gd-|-stype:attr=1|qr_nm:gd|res:RC4|com-cf:nl|ptrs:na|ktp:N0|mc:22705|mtp:S|qry_typ:P|lang:en|wc:3|cs:8833|v=4,False,Gautam Nagar,New Delhi,"H No-114, F/f, R/p ,r/s, Gautam Nagar, Gautam Nagar,, Gautam Nagar, New Delhi - 110049, Dist.Delhi, Delhi",7942533714,
"Mild Steel Baby Warmer Machine, For Nicu",https://www.indiamart.com/proddetail/baby-warmer-machine-2849120313073.html?pos=176&kwd=baby bottle warmer&tags=||||8307.81|Price|product|||TS|rsf:gd-|-stype:attr=1|qr_nm:gd|res:RC4|com-cf:nl|ptrs:na|ktp:N0|mc:22705|mtp:S|qry_typ:P|lang:en|wc:3|cs:8833|v=4,Paramount Hospital Furniture And Equipments,https://www.paramountfurniture.in/?pos=176&kwd=baby bottle warmer&tags=||||8307.81|Price|product|||TS|rsf:gd-|-stype:attr=1|qr_nm:gd|res:RC4|com-cf:nl|ptrs:na|ktp:N0|mc:22705|mtp:S|qry_typ:P|lang:en|wc:3|cs:8833|v=4,False,Kondhwa,Pune,"3RD Floor, Flat No 13, Aaisaheb Construction, Lane Number 27, Kondhwa, Pune - 411048, Dist.Pune, Maharashtra",8047547404,
New Radiant Baby Warmer In Hyderabad,https://www.indiamart.com/proddetail/new-radiant-baby-warmer-in-hyderabad-2853519017912.html?pos=177&kwd=baby bottle warmer&tags=||||8786.56|Price|product|||TS|rsf:gd-|-stype:attr=1|qr_nm:gd|res:RC4|com-cf:nl|ptrs:na|ktp:N0|mc:22705|mtp:S|qry_typ:P|lang:en|wc:3|cs:8833|v=4,JSR Medical Systems,https://www.indiamart.com/jsr-medical-systems/?pos=177&kwd=baby bottle warmer&tags=||||8786.56|Price|product|||TS|rsf:gd-|-stype:attr=1|qr_nm:gd|res:RC4|com-cf:nl|ptrs:na|ktp:N0|mc:22705|mtp:S|qry_typ:P|lang:en|wc:3|cs:8833|v=4,False,Malkajgiri,Hyderabad,"Malkajgiri, Malkajgiri, Hyderabad - 500047, Dist.Hyderabad, Telangana",8047630532,
"Mild Steel Radiant Baby Warmer With LED Photo therapy, For Hospital",https://www.indiamart.com/proddetail/radiant-baby-warmer-with-led-photo-therapy-22295234888.html?pos=178&kwd=baby bottle warmer&tags=||||9839.57|Price|product|||TS|rsf:gd-|-stype:attr=1|qr_nm:gd|res:RC4|com-cf:nl|ptrs:na|ktp:N0|mc:22705|mtp:S|qry_typ:P|lang:en|wc:3|cs:8833|v=4,Bijoy Enterprises,https://www.indiamart.com/bijoy-enterprises/?pos=178&kwd=baby bottle warmer&tags=||||9839.57|Price|product|||TS|rsf:gd-|-stype:attr=1|qr_nm:gd|res:RC4|com-cf:nl|ptrs:na|ktp:N0|mc:22705|mtp:S|qry_typ:P|lang:en|wc:3|cs:8833|v=4,False,Simla,Kolkata,"No. 2, B Sankar Ghosh Lane, Simla, Kolkata - 700006, Dist.Kolkata, West Bengal",8046064973,
Radiant Warmers Mild Steel Baby Warmer Machine,https://www.indiamart.com/proddetail/baby-warmer-machine-2854601488288.html?pos=179&kwd=baby bottle warmer&tags=||||8601.347|Price|product|||TS|rsf:gd-|-stype:attr=1|qr_nm:gd|res:RC4|com-cf:nl|ptrs:na|ktp:N0|mc:22705|mtp:S|qry_typ:P|lang:en|wc:3|cs:8833|v=4,R H Enterprises,https://www.rhmedicare.com/?pos=179&kwd=baby bottle warmer&tags=||||8601.347|Price|product|||TS|rsf:gd-|-stype:attr=1|qr_nm:gd|res:RC4|com-cf:nl|ptrs:na|ktp:N0|mc:22705|mtp:S|qry_typ:P|lang:en|wc:3|cs:8833|v=4,False,Gopal Pura Mode,Jaipur,"Flat No.S-1 Plot No. 37C , Triveni Nagar Choraha, Gopal Pura Mode, Jaipur - 302015, Dist.Jaipur, Rajasthan",7942957534,
Hospital Baby Warmer,https://www.indiamart.com/proddetail/hospital-baby-warmer-20160659912.html?pos=180&kwd=baby bottle warmer&tags=||||10180.86|Price|product|||TS|rsf:gd-|-stype:attr=1|qr_nm:gd|res:RC4|com-cf:nl|ptrs:na|ktp:N0|mc:22705|mtp:S|qry_typ:P|lang:en|wc:3|cs:8833|v=4,Diamond Instruments,https://www.diamondinstruments.in/?pos=180&kwd=baby bottle warmer&tags=||||10180.86|Price|product|||TS|rsf:gd-|-stype:attr=1|qr_nm:gd|res:RC4|com-cf:nl|ptrs:na|ktp:N0|mc:22705|mtp:S|qry_typ:P|lang:en|wc:3|cs:8833|v=4,False,Khanapara,Guwahati,"House No 17, Chandra K Dihingia, Jana Path, Khanapara, Guwahati - 781022, Dist.Kamrup, Assam",8047639427,
"Infra Red Radiant Baby Warmer, For Hospital",https://www.indiamart.com/proddetail/infra-red-radiant-baby-warmer-2850506610930.html?pos=181&kwd=baby bottle warmer&tags=||||8752.144|Price|product|||TS|rsf:gd-|-stype:attr=1|qr_nm:gd|res:RC4|com-cf:nl|ptrs:na|ktp:N0|mc:22705|mtp:S|qry_typ:P|lang:en|wc:3|cs:8833|v=4,Surgical Wholesale Mart Private Limited,https://www.surgicalwholesalemart.co.in/?pos=181&kwd=baby bottle warmer&tags=||||8752.144|Price|product|||TS|rsf:gd-|-stype:attr=1|qr_nm:gd|res:RC4|com-cf:nl|ptrs:na|ktp:N0|mc:22705|mtp:S|qry_typ:P|lang:en|wc:3|cs:8833|v=4,True,kapashera,New Delhi,"Ground Floor Kh. 75/02 Sri Sai Complex, kapashera, New Delhi - 110037, Dist.Delhi, Delhi",7942959571,
Mild Steel Baby Warmer Machine,https://www.indiamart.com/proddetail/baby-warmer-machine-26327072355.html?pos=182&kwd=baby bottle warmer&tags=||||9520.041|Price|product|||TS|rsf:gd-|-stype:attr=1|qr_nm:gd|res:RC4|com-cf:nl|ptrs:na|ktp:N0|mc:22705|mtp:S|qry_typ:P|lang:en|wc:3|cs:8833|v=4,I.D. Meditech,https://www.idmeditech.co.in/?pos=182&kwd=baby bottle warmer&tags=||||9520.041|Price|product|||TS|rsf:gd-|-stype:attr=1|qr_nm:gd|res:RC4|com-cf:nl|ptrs:na|ktp:N0|mc:22705|mtp:S|qry_typ:P|lang:en|wc:3|cs:8833|v=4,False,Bakarganj,Patna,"0, Opp- Abu Fakhruddin Plaza, D.N.Das Lane, Langetoli, Bangali Akhara Road, Bakarganj, Patna - 800004, Dist.Patna, Bihar",8047619660,
"Infant Radiant Baby Warmer, For Nicu, Model Name/Number: Phonix Nwc 100",https://www.indiamart.com/proddetail/infant-radiant-baby-warmer-2851120817473.html?pos=183&kwd=baby bottle warmer&tags=||||8211.142|Price|product|||TS|rsf:gd-|-stype:attr=1|qr_nm:gd|res:RC4|com-cf:nl|ptrs:na|ktp:N0|mc:22705|mtp:S|qry_typ:P|lang:en|wc:3|cs:8833|v=4,Mubarak Enterprise,https://www.indiamart.com/mubarakenterprise-mumbai/?pos=183&kwd=baby bottle warmer&tags=||||8211.142|Price|product|||TS|rsf:gd-|-stype:attr=1|qr_nm:gd|res:RC4|com-cf:nl|ptrs:na|ktp:N0|mc:22705|mtp:S|qry_typ:P|lang:en|wc:3|cs:8833|v=4,False,Kurla,Mumbai,"1603, B-Wing, Sayba Heights, Nehru Nagar, Kurla, Kurla, Mumbai - 400024, Dist.Mumbai, Maharashtra",8047648165,
"Infant Radiant Baby Warmer, For Hospital",https://www.indiamart.com/proddetail/infant-radiant-baby-warmer-22544746788.html?pos=184&kwd=baby bottle warmer&tags=||||8813.969|Price|product|||TS|rsf:gd-|-stype:attr=1|qr_nm:gd|res:RC4|com-cf:nl|ptrs:na|ktp:N0|mc:22705|mtp:S|qry_typ:P|lang:en|wc:3|cs:8833|v=4,RK Enterprises,https://www.indiamart.com/rk-entp-meerut/?pos=184&kwd=baby bottle warmer&tags=||||8813.969|Price|product|||TS|rsf:gd-|-stype:attr=1|qr_nm:gd|res:RC4|com-cf:nl|ptrs:na|ktp:N0|mc:22705|mtp:S|qry_typ:P|lang:en|wc:3|cs:8833|v=4,False,Ganga Nagar,Meerut,"Shop No. HC- 360, I Block Chauraha, Ganga Nagar, Mawana Road, Meerut, Ganga Nagar, Meerut - 250001, Dist.Meerut, Uttar Pradesh",8046055318,
"Mild Steel AVI Healthcare IW5000 Infant Warmer, For Hospital",https://www.indiamart.com/proddetail/avi-healthcare-iw5000-infant-warmer-2851253845733.html?pos=185&kwd=baby bottle warmer&tags=||||9189.305|Price|product|||MDC|rsf:gd-|-stype:attr=1|qr_nm:gd|res:RC4|com-cf:nl|ptrs:na|ktp:N0|mc:22705|mtp:S|qry_typ:P|lang:en|wc:3|cs:8833|v=4,Avya Enterprises,https://www.indiamart.com/avya-enterprises-prayagraj/?pos=185&kwd=baby bottle warmer&tags=||||9189.305|Price|product|||MDC|rsf:gd-|-stype:attr=1|qr_nm:gd|res:RC4|com-cf:nl|ptrs:na|ktp:N0|mc:22705|mtp:S|qry_typ:P|lang:en|wc:3|cs:8833|v=4,False,Jhunsi,Prayagraj,"Haveliya Jhunsi , Allahabad, Jhunsi, Prayagraj - 211019, Dist.Allahabad, Uttar Pradesh",8047690509,
"Mild Steel Radiant Heat Warmer, For Nicu, Model Name/Number: Fixed Cradel",https://www.indiamart.com/proddetail/radiant-heat-warmer-22211545630.html?pos=186&kwd=baby bottle warmer&tags=||||8601.347|Price|product|||MDC|rsf:gd-|-stype:attr=1|qr_nm:gd|res:RC4|com-cf:nl|ptrs:na|ktp:N0|mc:22705|mtp:S|qry_typ:P|lang:en|wc:3|cs:8833|v=4,Innomed Systems,https://www.indiamart.com/innomedsystems-jaipur/?pos=186&kwd=baby bottle warmer&tags=||||8601.347|Price|product|||MDC|rsf:gd-|-stype:attr=1|qr_nm:gd|res:RC4|com-cf:nl|ptrs:na|ktp:N0|mc:22705|mtp:S|qry_typ:P|lang:en|wc:3|cs:8833|v=4,False,Hathoj,Jaipur,"32-A, Govind Nagar A, Kalwar Road, Hathoj, Hathoj, Jaipur - 302012, Dist.Jaipur, Rajasthan",7942557506,
"Stainless Steel Zeal Warmer, For Nicu, Model Name/Number: RHW5001",https://www.indiamart.com/proddetail/zeal-warmer-2851115588212.html?pos=187&kwd=baby bottle warmer&tags=||||9110.092|Price|product|||MDC|rsf:gd-|-stype:attr=1|qr_nm:gd|res:RC4|com-cf:nl|ptrs:na|ktp:N0|mc:22705|mtp:S|qry_typ:P|lang:en|wc:3|cs:8833|v=4,Swastik Customer Care Centre,https://www.indiamart.com/swastik-customer-carecentre/?pos=187&kwd=baby bottle warmer&tags=||||9110.092|Price|product|||MDC|rsf:gd-|-stype:attr=1|qr_nm:gd|res:RC4|com-cf:nl|ptrs:na|ktp:N0|mc:22705|mtp:S|qry_typ:P|lang:en|wc:3|cs:8833|v=4,False,Aliganj,Lucknow,"A-1/3, Sector-H, Aliganj, Aliganj, Lucknow - 226024, Dist.Lucknow, Uttar Pradesh",7942826628,
"Mild Steel GE Healthcare Baby Warmer Machine, For Hospital",https://www.indiamart.com/proddetail/ge-healthcare-baby-warmer-machine-23172222962.html?pos=188&kwd=baby bottle warmer&tags=||||8331.898|Price|product|||TS|rsf:gd-|-stype:attr=1|qr_nm:gd|res:RC4|com-cf:nl|ptrs:na|ktp:N0|mc:22705|mtp:S|qry_typ:P|lang:en|wc:3|cs:8833|v=4,Horizon Medical Systems,https://www.horizonmedicalsystems.com/?pos=188&kwd=baby bottle warmer&tags=||||8331.898|Price|product|||TS|rsf:gd-|-stype:attr=1|qr_nm:gd|res:RC4|com-cf:nl|ptrs:na|ktp:N0|mc:22705|mtp:S|qry_typ:P|lang:en|wc:3|cs:8833|v=4,False,Papde Wasti,Karad,"84/01 AP WATHAR KARAD Satara, Papde Wasti, Karad - 415539, Dist.Satara, Maharashtra",8048613851,
Radiant Warmers Mild Steel Baby Warmer,https://www.indiamart.com/proddetail/baby-warmer-2854097139630.html?pos=189&kwd=baby bottle warmer&tags=||||9110.092|Price|product|||MDC|rsf:gd-|-stype:attr=1|qr_nm:gd|res:RC4|com-cf:nl|ptrs:na|ktp:N0|mc:22705|mtp:S|qry_typ:P|lang:en|wc:3|cs:8833|v=4,S&K Mediquipments,https://www.indiamart.com/mediquipments-lucknow/?pos=189&kwd=baby bottle warmer&tags=||||9110.092|Price|product|||MDC|rsf:gd-|-stype:attr=1|qr_nm:gd|res:RC4|com-cf:nl|ptrs:na|ktp:N0|mc:22705|mtp:S|qry_typ:P|lang:en|wc:3|cs:8833|v=4,False,Butler Colony,Lucknow,"Shop No.31, Basement, Vishwas Market, Near Nehru Enclave, Butler Colony, Lucknow - 226010, Dist.Lucknow, Uttar Pradesh",7942785288,
Baby Warmer,https://www.indiamart.com/proddetail/baby-warmer-22051475512.html?pos=190&kwd=baby bottle warmer&tags=||||8547.131||product|||MDC|rsf:gd-|-stype:attr=1|qr_nm:gd|res:RC4|com-cf:nl|ptrs:na|ktp:N0|mc:22705|mtp:S|qry_typ:P|lang:en|wc:3|cs:8833|v=4,Ambaa & Sons,https://www.indiamart.com/ambaaandsons/?pos=190&kwd=baby bottle warmer&tags=||||8547.131||product|||MDC|rsf:gd-|-stype:attr=1|qr_nm:gd|res:RC4|com-cf:nl|ptrs:na|ktp:N0|mc:22705|mtp:S|qry_typ:P|lang:en|wc:3|cs:8833|v=4,False,Akvn Industrial Area,Mhow,"264 Umariya Colony Umariya Mhow, Akvn Industrial Area, Mhow - 453441, Dist.Indore, Madhya Pradesh",8046039551,
Resuscitation Warmers Mild Steel FLORET 100 INFANT BABY WARMER BPL,https://www.indiamart.com/proddetail/floret-100-infant-baby-warmer-bpl-2852667752048.html?pos=191&kwd=baby bottle warmer&tags=||||8223.226|Price|product|||TS|rsf:gd-|-stype:attr=1|qr_nm:gd|res:RC4|com-cf:nl|ptrs:na|ktp:N0|mc:22705|mtp:S|qry_typ:P|lang:en|wc:3|cs:8833|v=4,D.N. Surgicals & Dressings,https://www.indiamart.com/dnsurgicals-dressings/?pos=191&kwd=baby bottle warmer&tags=||||8223.226|Price|product|||TS|rsf:gd-|-stype:attr=1|qr_nm:gd|res:RC4|com-cf:nl|ptrs:na|ktp:N0|mc:22705|mtp:S|qry_typ:P|lang:en|wc:3|cs:8833|v=4,False,Mira,Thane,"Shop No. 7, L 1-2-3 Poonam Vihar Chs Ltd, Poonam Vihar, Mira Road East, Mira Bhayandar, Mira, Thane - 401107, Dist.Thane, Maharashtra",7942797333,
Silicone Baby Fruit Feeder,https://www.indiamart.com/proddetail/silicone-baby-fruit-feeder-2852001275312.html?pos=192&kwd=baby bottle warmer&tags=||||8624.416|Price|product|||MDC|rsf:gd-|-stype:attr=1|qr_nm:gd|res:RC4|com-cf:nl|ptrs:na|ktp:N0|mc:22705|mtp:S|qry_typ:P|lang:en|wc:3|cs:8833|v=4,Dayawanti Traders,https://www.indiamart.com/dayawati-trader/?pos=192&kwd=baby bottle warmer&tags=||||8624.416|Price|product|||MDC|rsf:gd-|-stype:attr=1|qr_nm:gd|res:RC4|com-cf:nl|ptrs:na|ktp:N0|mc:22705|mtp:S|qry_typ:P|lang:en|wc:3|cs:8833|v=4,False,Indira Colony,Hisar,"Plot No. 137 Dhani Kishandutt, Near Asha High School, Nancy Beauty Parlour, Indira Colony, Indira Colony, Hisar - 125001, Dist.Hisar, Haryana",7942701403,
Electric Baby Warmer Machine,https://www.indiamart.com/proddetail/electric-baby-warmer-machine-2853569894430.html?pos=193&kwd=baby bottle warmer&tags=||||8228.275|Price|product|||MDC|rsf:gd-|-stype:attr=1|qr_nm:gd|res:RC4|com-cf:nl|ptrs:na|ktp:N0|mc:22705|mtp:S|qry_typ:P|lang:en|wc:3|cs:8833|v=4,Beyond Healthcare,https://www.indiamart.com/beyond-healthcare/?pos=193&kwd=baby bottle warmer&tags=||||8228.275|Price|product|||MDC|rsf:gd-|-stype:attr=1|qr_nm:gd|res:RC4|com-cf:nl|ptrs:na|ktp:N0|mc:22705|mtp:S|qry_typ:P|lang:en|wc:3|cs:8833|v=4,False,Bopal,Ahmedabad,"Shop/Office No.08,Second Floor, Satyam Complex, Opp.Aabad Nagar, Bopal, Bopal, Ahmedabad - 380058, Dist.Ahmedabad, Gujarat",8045167990,
Radiant Warmers Mild Steel Baby Warmer Machine,https://www.indiamart.com/proddetail/baby-warmer-machine-2854770278348.html?pos=194&kwd=baby bottle warmer&tags=||||8307.81|Price|product|||MDC|rsf:gd-|-stype:attr=1|qr_nm:gd|res:RC4|com-cf:nl|ptrs:na|ktp:N0|mc:22705|mtp:S|qry_typ:P|lang:en|wc:3|cs:8833|v=4,Alpha Meditech System,https://www.indiamart.com/alpha-meditech-system/?pos=194&kwd=baby bottle warmer&tags=||||8307.81|Price|product|||MDC|rsf:gd-|-stype:attr=1|qr_nm:gd|res:RC4|com-cf:nl|ptrs:na|ktp:N0|mc:22705|mtp:S|qry_typ:P|lang:en|wc:3|cs:8833|v=4,False,,Pune,"Ground Floor, Shop No. G-08, Sainath Complex Survey Number 12/4B Singhad Road Near Lagad Transport, Nanded City Pune, Pune - 411030, Dist.Pune, Maharashtra",8044016109,
Radiant Warmers Stainless Steel Baby Warmer Machine,https://www.indiamart.com/proddetail/baby-warmer-machine-2852577175130.html?pos=195&kwd=baby bottle warmer&tags=||||9520.041|Price|product|||MDC|rsf:gd-|-stype:attr=1|qr_nm:gd|res:RC4|com-cf:nl|ptrs:na|ktp:N0|mc:22705|mtp:S|qry_typ:P|lang:en|wc:3|cs:8833|v=4,Medi Mart,https://www.indiamart.com/medi-mart-patna/?pos=195&kwd=baby bottle warmer&tags=||||9520.041|Price|product|||MDC|rsf:gd-|-stype:attr=1|qr_nm:gd|res:RC4|com-cf:nl|ptrs:na|ktp:N0|mc:22705|mtp:S|qry_typ:P|lang:en|wc:3|cs:8833|v=4,False,Mourya Vihar,Patna,"Holding-103/464/311 Ward-55 Circle-50b,Na,C/O Ram Prit Prasad,Mourya Vihar Colony,Transport Nagar Patna, Mourya Vihar, Patna - 800026, Dist.Patna, Bihar",8043878481,
Radiant Baby Warmer,https://www.indiamart.com/proddetail/radiant-baby-warmer-2853018453433.html?pos=196&kwd=baby bottle warmer&tags=||||9672.743|Price|product|||MDC|rsf:gd-|-stype:attr=1|qr_nm:gd|res:RC4|com-cf:nl|ptrs:na|ktp:N0|mc:22705|mtp:S|qry_typ:P|lang:en|wc:3|cs:8833|v=4,Rudra Medical Sales & Services,https://www.indiamart.com/rudra-medical-sales/?pos=196&kwd=baby bottle warmer&tags=||||9672.743|Price|product|||MDC|rsf:gd-|-stype:attr=1|qr_nm:gd|res:RC4|com-cf:nl|ptrs:na|ktp:N0|mc:22705|mtp:S|qry_typ:P|lang:en|wc:3|cs:8833|v=4,False,Belabagan,Deoghar,"Near Post Office, Belabagan, Belabagan, Deoghar - 814112, Dist.Deoghar, Jharkhand",7942966201,
Mild Steel Neosmart Radiant Baby Warmer,https://www.indiamart.com/proddetail/neosmart-radiant-baby-warmer-2851735911973.html?pos=197&kwd=baby bottle warmer&tags=||||8786.56|Price|product|||MDC|rsf:gd-|-stype:attr=1|qr_nm:gd|res:RC4|com-cf:nl|ptrs:na|ktp:N0|mc:22705|mtp:S|qry_typ:P|lang:en|wc:3|cs:8833|v=4,Laaswika Enterprises,https://www.indiamart.com/laaswika-enterprises/?pos=197&kwd=baby bottle warmer&tags=||||8786.56|Price|product|||MDC|rsf:gd-|-stype:attr=1|qr_nm:gd|res:RC4|com-cf:nl|ptrs:na|ktp:N0|mc:22705|mtp:S|qry_typ:P|lang:en|wc:3|cs:8833|v=4,False,Kukatpally,Hyderabad,"Plot No. 424, Near Reliance Fresh, Vivekananda Nagar, Kukatpally,, Kukatpally, Hyderabad - 500072, Dist.Hyderabad, Telangana",8047788468,
"Mild Steel Radiant Baby Warmer With Detachable Trolley, For Hospital",https://www.indiamart.com/proddetail/radiant-baby-warmer-with-detachable-trolley-22700805155.html?pos=198&kwd=baby bottle warmer&tags=||||8876.815|Price|product|||MDC|rsf:gd-|-stype:attr=1|qr_nm:gd|res:RC4|com-cf:nl|ptrs:na|ktp:N0|mc:22705|mtp:S|qry_typ:P|lang:en|wc:3|cs:8833|v=4,Medi World Health Care Services,https://www.indiamart.com/mediworldhealthcareservices/?pos=198&kwd=baby bottle warmer&tags=||||8876.815|Price|product|||MDC|rsf:gd-|-stype:attr=1|qr_nm:gd|res:RC4|com-cf:nl|ptrs:na|ktp:N0|mc:22705|mtp:S|qry_typ:P|lang:en|wc:3|cs:8833|v=4,False,Rahate Colony,Nagpur,"3rd Floor, Navprbhat Chember, Rahate Colony, Nagpur - 440010, Dist.Nagpur, Maharashtra",8048602025,
Radiant Warmers Stainless Steel 5 Feet Baby Warmer,https://www.indiamart.com/proddetail/5-feet-baby-warmer-25123677330.html?pos=199&kwd=baby bottle warmer&tags=||||9045.955|Price|product|||MDC|rsf:gd-|-stype:attr=1|qr_nm:gd|res:RC4|com-cf:nl|ptrs:na|ktp:N0|mc:22705|mtp:S|qry_typ:P|lang:en|wc:3|cs:8833|v=4,Shiv Enterprises,https://www.indiamart.com/shiventerpriseskanpur/?pos=199&kwd=baby bottle warmer&tags=||||9045.955|Price|product|||MDC|rsf:gd-|-stype:attr=1|qr_nm:gd|res:RC4|com-cf:nl|ptrs:na|ktp:N0|mc:22705|mtp:S|qry_typ:P|lang:en|wc:3|cs:8833|v=4,False,Kalyanpur,Kanpur,"G-724, Awsh Vikash-01, Kalyanpur Nagar, Kalyanpur, Kanpur - 208019, Uttar Pradesh",7942798275,
Mild Steel Infant Radiant Baby Warmer,https://www.indiamart.com/proddetail/infant-radiant-baby-warmer-2851949921048.html?pos=200&kwd=baby bottle warmer&tags=||||8785.791|Price|product|||MDC|rsf:gd-|-stype:attr=1|qr_nm:gd|res:RC4|com-cf:nl|ptrs:na|ktp:N0|mc:22705|mtp:S|qry_typ:P|lang:en|wc:3|cs:8833|v=4,Sambhavi Pediacare,https://www.indiamart.com/sambhavipediacare/?pos=200&kwd=baby bottle warmer&tags=||||8785.791|Price|product|||MDC|rsf:gd-|-stype:attr=1|qr_nm:gd|res:RC4|com-cf:nl|ptrs:na|ktp:N0|mc:22705|mtp:S|qry_typ:P|lang:en|wc:3|cs:8833|v=4,False,Loni,Ghaziabad,"A-2, Vikas Kunj, Unnamed Road, Loni Dehat, Loni, Loni, Ghaziabad - 201102, Dist.Ghaziabad, Uttar Pradesh",7942867070,
FRP Radiant Baby Warmer,https://www.indiamart.com/proddetail/frp-radiant-baby-warmer-2854585140548.html?pos=201&kwd=baby bottle warmer&tags=||||8737.904|Price|product|||MDC|rsf:gd-|-stype:attr=1|qr_nm:gd|res:RC4|com-cf:nl|ptrs:na|ktp:N0|mc:22705|mtp:S|qry_typ:P|lang:en|wc:3|cs:8833|v=4,Paramed Tech,https://www.indiamart.com/paramedtech/?pos=201&kwd=baby bottle warmer&tags=||||8737.904|Price|product|||MDC|rsf:gd-|-stype:attr=1|qr_nm:gd|res:RC4|com-cf:nl|ptrs:na|ktp:N0|mc:22705|mtp:S|qry_typ:P|lang:en|wc:3|cs:8833|v=4,False,,Asankhurd,"283 A, Jatal Road, Virat Nagar Phase 3, Asankhurd - 132105, Haryana",7949327077,
"Baby Warmer / Open Care Incubator - Care Plus Basic, For NICU",https://www.indiamart.com/proddetail/baby-warmer-open-care-incubator-care-plus-basic-22710572988.html?pos=202&kwd=baby bottle warmer&tags=||||8786.56|Price|product|||TS|rsf:gd-|-stype:attr=1|qr_nm:gd|res:RC4|com-cf:nl|ptrs:na|ktp:N0|mc:22705|mtp:S|qry_typ:P|lang:en|wc:3|cs:8833|v=4,Apex Hospicare Systems,https://www.indiamart.com/apexhospicare-systems/?pos=202&kwd=baby bottle warmer&tags=||||8786.56|Price|product|||TS|rsf:gd-|-stype:attr=1|qr_nm:gd|res:RC4|com-cf:nl|ptrs:na|ktp:N0|mc:22705|mtp:S|qry_typ:P|lang:en|wc:3|cs:8833|v=4,False,Ac Guard,Hyderabad,"10-1-812, Veer Nagar, AC Guards, Nampally, Ac Guard, Hyderabad - 500004, Dist.Hyderabad, Telangana",8048984624,
"Stainless Steel Infant Radiant Heat Baby Warmer, For Hospital",https://www.indiamart.com/proddetail/infant-radiant-heat-baby-warmer-22183934712.html?pos=203&kwd=baby bottle warmer&tags=||||8281.036|Price|product|||MDC|rsf:gd-|-stype:attr=1|qr_nm:gd|res:RC4|com-cf:nl|ptrs:na|ktp:N0|mc:22705|mtp:S|qry_typ:P|lang:en|wc:3|cs:8833|v=4,Caremarque Enterprise,https://www.indiamart.com/caremarque-enterprise/?pos=203&kwd=baby bottle warmer&tags=||||8281.036|Price|product|||MDC|rsf:gd-|-stype:attr=1|qr_nm:gd|res:RC4|com-cf:nl|ptrs:na|ktp:N0|mc:22705|mtp:S|qry_typ:P|lang:en|wc:3|cs:8833|v=4,False,Divya Darshan Park,Vadodara,"302, Third Floor, Everest Hub, Opp. Narayan Gardens, Opp. Yash Complex, 30 Mtr Road, Gorti, Divya Darshan Park, Vadodara - 390021, Dist.Vadodara, Gujarat",8045906824,
Radiant Warmers BPL Baby Warmer Floret-1000 Series,https://www.indiamart.com/proddetail/bpl-baby-warmer-floret-1000-series-2853911351633.html?pos=204&kwd=baby bottle warmer&tags=||||9110.092|Price|product|||MDC|rsf:gd-|-stype:attr=1|qr_nm:gd|res:RC4|com-cf:nl|ptrs:na|ktp:N0|mc:22705|mtp:S|qry_typ:P|lang:en|wc:3|cs:8833|v=4,Meditechnology,https://www.indiamart.com/meditechnology/?pos=204&kwd=baby bottle warmer&tags=||||9110.092|Price|product|||MDC|rsf:gd-|-stype:attr=1|qr_nm:gd|res:RC4|com-cf:nl|ptrs:na|ktp:N0|mc:22705|mtp:S|qry_typ:P|lang:en|wc:3|cs:8833|v=4,False,Chinhat,Lucknow,"5E-4/22, Vrindavan Yojna, Raebareilly Road, Telibagh, Chinhat, Lucknow - 226029, Dist.Lucknow, Uttar Pradesh",7942834081,
"Neokraft Neo 300 Infant Baby Warmer Cradle Machine, For Hospital",https://www.indiamart.com/proddetail/neokraft-neo-300-infant-baby-warmer-cradle-machine-24693476333.html?pos=205&kwd=baby bottle warmer&tags=||||8662.111|Price|product|||MDC|rsf:gd-|-stype:attr=1|qr_nm:gd|res:RC4|com-cf:nl|ptrs:na|ktp:N0|mc:22705|mtp:S|qry_typ:P|lang:en|wc:3|cs:8833|v=4,Fog Healthcare,https://www.indiamart.com/fog-healthcare-palayamkottai/?pos=205&kwd=baby bottle warmer&tags=||||8662.111|Price|product|||MDC|rsf:gd-|-stype:attr=1|qr_nm:gd|res:RC4|com-cf:nl|ptrs:na|ktp:N0|mc:22705|mtp:S|qry_typ:P|lang:en|wc:3|cs:8833|v=4,False,Gem Star Nagar,Tirunelveli,"150, Engineer Colony, Reddurpattai Road,, Gem Star Nagar, Tirunelveli - 627007, Dist.Tirunelveli, Tamil Nadu",8048269816,
"MEDITRIC Radiant Heat Warmer Single Sensor, For Hospital",https://www.indiamart.com/proddetail/radiant-heat-warmer-single-sensor-19627345648.html?pos=206&kwd=baby bottle warmer&tags=||||8752.144|Price|product|||TS|rsf:gd-|-stype:attr=1|qr_nm:gd|res:RC4|com-cf:nl|ptrs:na|ktp:N0|mc:22705|mtp:S|qry_typ:P|lang:en|wc:3|cs:8833|v=4,X Ray Electromedicare Company,https://www.indiamart.com/xray-electromedicare/?pos=206&kwd=baby bottle warmer&tags=||||8752.144|Price|product|||TS|rsf:gd-|-stype:attr=1|qr_nm:gd|res:RC4|com-cf:nl|ptrs:na|ktp:N0|mc:22705|mtp:S|qry_typ:P|lang:en|wc:3|cs:8833|v=4,False,BAWANA,New Delhi,"Plot No. I-205, Sector 3, DSIIDC, BAWANA, New Delhi - 110039, Dist.Delhi, Delhi",8047640469,
Portable IOB FORCED AIR WARMING SYSTEM,https://www.indiamart.com/proddetail/iob-forced-air-warming-system-2853874256691.html?pos=207&kwd=baby bottle warmer&tags=||||8559.269|Price|product|||TS|rsf:gd-|-stype:attr=1|qr_nm:gd|res:RC4|com-cf:nl|ptrs:na|ktp:N0|mc:22705|mtp:S|qry_typ:P|lang:en|wc:3|cs:8833|v=4,DNHS Healthcare Devices Private Limited,https://www.indiamart.com/dnhs-healthcare-devices/?pos=207&kwd=baby bottle warmer&tags=||||8559.269|Price|product|||TS|rsf:gd-|-stype:attr=1|qr_nm:gd|res:RC4|com-cf:nl|ptrs:na|ktp:N0|mc:22705|mtp:S|qry_typ:P|lang:en|wc:3|cs:8833|v=4,False,Chhawni,Indore,"Office No G 8, Royal House, Nr Bright School, 11/3, Ushaganj Chhawni Jaora, Chhawni, Indore - 452001, Dist.Indore, Madhya Pradesh",7949224995,
Mild Steel Infant Radiant Warmer,https://www.indiamart.com/proddetail/infant-radiant-warmer-2854376194497.html?pos=208&kwd=baby bottle warmer&tags=||||8316.457|Price|product|||TS|rsf:gd-|-stype:attr=1|qr_nm:gd|res:RC4|com-cf:nl|ptrs:na|ktp:N0|mc:22705|mtp:S|qry_typ:P|lang:en|wc:3|cs:8833|v=4,Hospicare Equipments,https://www.hospicare.in/?pos=208&kwd=baby bottle warmer&tags=||||8316.457|Price|product|||TS|rsf:gd-|-stype:attr=1|qr_nm:gd|res:RC4|com-cf:nl|ptrs:na|ktp:N0|mc:22705|mtp:S|qry_typ:P|lang:en|wc:3|cs:8833|v=4,False,Shinde,Nashik,"Plot No. 39, Survey No. 466 A 1& 4, 466, B-P-1, Shinde Industrial Area Naygaon Road, Shinde, Nashik - 422101, Dist.Nashik, Maharashtra",8046046123,
"Intensive Care Warmer Radiant Warmar, For Nicu",https://www.indiamart.com/proddetail/radiant-warmar-13296656873.html?pos=209&kwd=baby bottle warmer&tags=||||8228.275|Price|product|||TS|rsf:gd-|-stype:attr=1|qr_nm:gd|res:RC4|com-cf:nl|ptrs:na|ktp:N0|mc:22705|mtp:S|qry_typ:P|lang:en|wc:3|cs:8833|v=4,Aussin Intensive Care Private Limited,https://www.indiamart.com/aussinintensivecare/?pos=209&kwd=baby bottle warmer&tags=||||8228.275|Price|product|||TS|rsf:gd-|-stype:attr=1|qr_nm:gd|res:RC4|com-cf:nl|ptrs:na|ktp:N0|mc:22705|mtp:S|qry_typ:P|lang:en|wc:3|cs:8833|v=4,False,Sola,Ahmedabad,"607, Satyamev Eminence, B/s Saptak Bunglows, Nr Shukan Mall, Science City Road, Sola, Sola, Ahmedabad - 380060, Dist.Ahmedabad, Gujarat",8046031089,
"Stainless Steel Innova Fixed Bassinet Phototherapy Radiant Heat Warmer, For Hospital",https://www.indiamart.com/proddetail/innova-fixed-bassinet-phototherapy-radiant-heat-warmer-25089216788.html?pos=210&kwd=baby bottle warmer&tags=||||8230.331|Price|product|||TS|rsf:gd-|-stype:attr=1|qr_nm:gd|res:RC4|com-cf:nl|ptrs:na|ktp:N0|mc:22705|mtp:S|qry_typ:P|lang:en|wc:3|cs:8833|v=4,Haas Marketing,https://www.indiamart.com/haasmarketing-palanpur/?pos=210&kwd=baby bottle warmer&tags=||||8230.331|Price|product|||TS|rsf:gd-|-stype:attr=1|qr_nm:gd|res:RC4|com-cf:nl|ptrs:na|ktp:N0|mc:22705|mtp:S|qry_typ:P|lang:en|wc:3|cs:8833|v=4,False,Sanskar Society,Palanpur,"24, Ground Floor, Aroma Arcade, Nr Cozy Tower, Opp Jilla Panchayt, Banaskantha, Sanskar Society, Palanpur - 385001, Dist.Banaskantha, Gujarat",8047309921,
