product_title,product_link,company_name,company_link,is_verified_exporter,city_region,city,address_details,phone_number,phone_number_extension
"Baby Bottle Cover Set, Capacity: 120ml",https://www.indiamart.com/proddetail/baby-bottle-cover-set-2850945538973.html?pos=1&kwd=baby bottle cover&tags=A||||8778.123|Price|product|||TS|rsf:gd-|-stype:attr=1|qr_nm:gd|res:RC4|com-cf:nl|ptrs:na|ktp:N0|mc:179457|mtp:S|qry_typ:P|lang:en|wc:3|flavl:0|cs:9661|v=4,Radiant Enterprises,https://www.indiamart.com/radiant-enterprisesgautam-budhnagar/?pos=1&kwd=baby bottle cover&tags=A||||8778.123|Price|product|||TS|rsf:gd-|-stype:attr=1|qr_nm:gd|res:RC4|com-cf:nl|ptrs:na|ktp:N0|mc:179457|mtp:S|qry_typ:P|lang:en|wc:3|flavl:0|cs:9661|v=4,False,,Noida,"Tower-3,Flat-2601,Lotus 300,Noida,Gautam Buddha Nagar, Noida - 201304, Dist.Gautam Budh Nagar, Uttar Pradesh",7942828511,
Baby Bottle Cover,https://www.indiamart.com/proddetail/baby-bottle-cover-2853867068897.html?pos=2&kwd=baby bottle cover&tags=A||||8752.144|Price|product|||MDC|rsf:gd-|-stype:attr=1|qr_nm:gd|res:RC4|com-cf:nl|ptrs:na|ktp:N0|mc:179457|mtp:S|qry_typ:P|lang:en|wc:3|flavl:0|cs:9661|v=4,Shopindia,https://www.indiamart.com/shopindia-delhi/?pos=2&kwd=baby bottle cover&tags=A||||8752.144|Price|product|||MDC|rsf:gd-|-stype:attr=1|qr_nm:gd|res:RC4|com-cf:nl|ptrs:na|ktp:N0|mc:179457|mtp:S|qry_typ:P|lang:en|wc:3|flavl:0|cs:9661|v=4,False,Khyala,New Delhi,"F/F, RZ-129 Old No.RZ-57, West Block, Vishnu Garden, Khyala, New Delhi - 110018, Dist.Delhi, Delhi",8047832403,
Baby Feeding Bottle Cover,https://www.indiamart.com/proddetail/baby-feeding-bottle-cover-2854279715712.html?pos=3&kwd=baby bottle cover&tags=A||||9189.305|Price|product|||MDC|rsf:gd-|-stype:attr=1|qr_nm:gd|res:RC4|com-cf:nl|ptrs:na|ktp:N0|mc:179457|mtp:S|qry_typ:P|lang:en|wc:3|flavl:0|cs:9661|v=4,Sudhanjali Enterprises,https://www.indiamart.com/sudhanjalienterprises/?pos=3&kwd=baby bottle cover&tags=A||||9189.305|Price|product|||MDC|rsf:gd-|-stype:attr=1|qr_nm:gd|res:RC4|com-cf:nl|ptrs:na|ktp:N0|mc:179457|mtp:S|qry_typ:P|lang:en|wc:3|flavl:0|cs:9661|v=4,False,,Prayagraj,"H No-10/7, Basahi, Nataka Babura, Khain, Prayagraj - 212307, Dist.Allahabad, Uttar Pradesh",7942964273,
Multicolor Baby Bottle Cover,https://www.indiamart.com/proddetail/baby-bottle-cover-20711904155.html?pos=4&kwd=baby bottle cover&tags=A||||8752.144|Price|product|||TS|rsf:gd-|-stype:attr=1|qr_nm:gd|res:RC4|com-cf:nl|ptrs:na|ktp:N0|mc:179457|mtp:S|qry_typ:P|lang:en|wc:3|flavl:0|cs:9661|v=4,National Overseas,https://www.indiamart.com/nationaltraders-vishwashnagar/?pos=4&kwd=baby bottle cover&tags=A||||8752.144|Price|product|||TS|rsf:gd-|-stype:attr=1|qr_nm:gd|res:RC4|com-cf:nl|ptrs:na|ktp:N0|mc:179457|mtp:S|qry_typ:P|lang:en|wc:3|flavl:0|cs:9661|v=4,False,Shahdara,New Delhi,"1/99, Gali No. 3, Vishwas Nagar, Shahdara, New Delhi - 110032, Dist.Delhi, Delhi",8046047673,
Baby Bottle Cover,https://www.indiamart.com/proddetail/baby-bottle-cover-2853107459255.html?pos=5&kwd=baby bottle cover&tags=A||||8706.508|Price|product|||MDC|rsf:gd-|-stype:attr=1|qr_nm:gd|res:RC4|com-cf:nl|ptrs:na|ktp:N0|mc:179457|mtp:S|qry_typ:P|lang:en|wc:3|flavl:0|cs:9661|v=4,Young Vision,https://www.indiamart.com/young-vision-rohtak/?pos=5&kwd=baby bottle cover&tags=A||||8706.508|Price|product|||MDC|rsf:gd-|-stype:attr=1|qr_nm:gd|res:RC4|com-cf:nl|ptrs:na|ktp:N0|mc:179457|mtp:S|qry_typ:P|lang:en|wc:3|flavl:0|cs:9661|v=4,False,Janta Colony,Rohtak,"949/31 Azad Nagar, Janta Colony, Rohtak - 124001, Dist.Rohtak, Haryana",8047688329,
"Baby Feeding Bottle Cover, Capacity: 250ml",https://www.indiamart.com/proddetail/baby-feeding-bottle-cover-2851755433162.html?pos=6&kwd=baby bottle cover&tags=A||||8752.144|Price|product|||MDC|rsf:gd-|-stype:attr=1|qr_nm:gd|res:RC4|com-cf:nl|ptrs:na|ktp:N0|mc:179457|mtp:S|qry_typ:P|lang:en|wc:3|flavl:0|cs:9661|v=4,B-Qube Enterprises,https://www.indiamart.com/bqube-enterprises/?pos=6&kwd=baby bottle cover&tags=A||||8752.144|Price|product|||MDC|rsf:gd-|-stype:attr=1|qr_nm:gd|res:RC4|com-cf:nl|ptrs:na|ktp:N0|mc:179457|mtp:S|qry_typ:P|lang:en|wc:3|flavl:0|cs:9661|v=4,False,Karol Bagh,New Delhi,"303, Iiird Floor,13/4, W.E.A.,Karol Bagh, Karol Bagh, New Delhi - 110005, Dist.Delhi, Delhi",8047313183,
Baby Infant Bottle Covers,https://www.indiamart.com/proddetail/baby-infant-bottle-covers-2855016951030.html?pos=7&kwd=baby bottle cover&tags=A||||8752.144|Price|product|||MDC|rsf:gd-|-stype:attr=1|qr_nm:gd|res:RC4|com-cf:nl|ptrs:na|ktp:N0|mc:179457|mtp:S|qry_typ:P|lang:en|wc:3|flavl:0|cs:9661|v=4,A.S.Enterprises,https://www.indiamart.com/a-senterprisesdelhi-india/?pos=7&kwd=baby bottle cover&tags=A||||8752.144|Price|product|||MDC|rsf:gd-|-stype:attr=1|qr_nm:gd|res:RC4|com-cf:nl|ptrs:na|ktp:N0|mc:179457|mtp:S|qry_typ:P|lang:en|wc:3|flavl:0|cs:9661|v=4,False,,New Delhi,"G F, 816, Pan Mandi, Near Press Street Sadar Bazar Area, Central Delhi, New Delhi - 110006, Dist.Delhi, Delhi",7942537259,
Animal COW Baby Bottle Cover - PINK,https://www.indiamart.com/proddetail/animal-cow-baby-bottle-cover-pink-2852507082162.html?pos=8&kwd=baby bottle cover&tags=BA||||8752.144|Price|product|||TS|rsf:gd-|-stype:attr=1|qr_nm:gd|res:RC4|com-cf:nl|ptrs:na|ktp:N0|mc:179457|mtp:S|qry_typ:P|lang:en|wc:3|flavl:0|cs:9661|v=4,Ekta Overseas,https://www.indiamart.com/ektaoverseas-newdelhi/?pos=8&kwd=baby bottle cover&tags=BA||||8752.144|Price|product|||TS|rsf:gd-|-stype:attr=1|qr_nm:gd|res:RC4|com-cf:nl|ptrs:na|ktp:N0|mc:179457|mtp:S|qry_typ:P|lang:en|wc:3|flavl:0|cs:9661|v=4,False,Shahdara,New Delhi,"1/95, Gali No.3, Near Navjeevan Phisical Center, Vishwas Nagar, Shahdara,, Shahdara, New Delhi - 110032, Dist.Delhi, Delhi",7942628926,
PVC Baby Feeder Cover,https://www.indiamart.com/proddetail/pvc-baby-feeder-cover-12790841430.html?pos=9&kwd=baby bottle cover&tags=BA||||8223.226|Price|product|||MDC|rsf:gd-|-stype:attr=1|qr_nm:gd|res:RC4|com-cf:nl|ptrs:na|ktp:N0|mc:179457|mtp:S|qry_typ:P|lang:en|wc:3|flavl:0|cs:9661|v=4,Wecare Solutions,https://www.indiamart.com/wecare-solutions/?pos=9&kwd=baby bottle cover&tags=BA||||8223.226|Price|product|||MDC|rsf:gd-|-stype:attr=1|qr_nm:gd|res:RC4|com-cf:nl|ptrs:na|ktp:N0|mc:179457|mtp:S|qry_typ:P|lang:en|wc:3|flavl:0|cs:9661|v=4,False,Valiv,Thane,"Gala No. F-19-20, 1st Floor, Rajprabha Anand Industrial Estate Naikpada, Waliv, Valiv, Thane - 401208, Dist.Thane, Maharashtra",8047631791,
Feeder Cover,https://www.indiamart.com/proddetail/feeder-cover-16235956188.html?pos=10&kwd=baby bottle cover&tags=BA||||8545.6045|Price|product|||MDC|rsf:gd-|-stype:attr=1|qr_nm:gd|res:RC4|com-cf:nl|ptrs:na|ktp:N0|mc:179457|mtp:S|qry_typ:P|lang:en|wc:3|flavl:0|cs:9661|v=4,Shraddha Saburi,https://www.indiamart.com/shraddhasaburi/?pos=10&kwd=baby bottle cover&tags=BA||||8545.6045|Price|product|||MDC|rsf:gd-|-stype:attr=1|qr_nm:gd|res:RC4|com-cf:nl|ptrs:na|ktp:N0|mc:179457|mtp:S|qry_typ:P|lang:en|wc:3|flavl:0|cs:9661|v=4,False,Cantonment Area,Firozpur,"263, Suji Bazar, M/s Shraddha Saburi, Ferozepur Cantt, Cantonment Area, Firozpur - 152001, Dist.Firozpur, Punjab",8048979628,
Baby Bottle Cover,https://www.indiamart.com/proddetail/baby-bottle-cover-4325215673.html?pos=11&kwd=baby bottle cover&tags=BB||||8785.791|Price|product|||TS|rsf:gd-|-stype:attr=1|qr_nm:gd|res:RC4|com-cf:nl|ptrs:na|ktp:N0|mc:179457|mtp:S|qry_typ:P|lang:en|wc:3|flavl:0|cs:9661|v=4,Ilaki Intercraft (India),https://www.indiamart.com/ilakiintercraft/?pos=11&kwd=baby bottle cover&tags=BB||||8785.791|Price|product|||TS|rsf:gd-|-stype:attr=1|qr_nm:gd|res:RC4|com-cf:nl|ptrs:na|ktp:N0|mc:179457|mtp:S|qry_typ:P|lang:en|wc:3|flavl:0|cs:9661|v=4,False,Tronica City,Ghaziabad,"D-69 Sector D-1 Tronica City, Tronica City, Ghaziabad - 201103, Dist.Ghaziabad, Uttar Pradesh",7942552124,
Baby Bottle Cover,https://www.indiamart.com/proddetail/baby-bottle-cover-2853353408412.html?pos=12&kwd=baby bottle cover&tags=BA||||8211.142|Price|product|||TS|rsf:gd-|-stype:attr=1|qr_nm:gd|res:RC4|com-cf:nl|ptrs:na|ktp:N0|mc:179457|mtp:S|qry_typ:P|lang:en|wc:3|flavl:0|cs:9661|v=4,Parass Trading,https://www.indiamart.com/parasstrading/?pos=12&kwd=baby bottle cover&tags=BA||||8211.142|Price|product|||TS|rsf:gd-|-stype:attr=1|qr_nm:gd|res:RC4|com-cf:nl|ptrs:na|ktp:N0|mc:179457|mtp:S|qry_typ:P|lang:en|wc:3|flavl:0|cs:9661|v=4,False,Chembur,Mumbai,"Room no 3, First Floor, Plot no 39, Next to Shivaji Nagar police station,Kherwadi Plot no 39, Chembur, Mumbai - 400071, Dist.Mumbai, Maharashtra",8047631170,
mix Baby Feeding Bottle Cover,https://www.indiamart.com/proddetail/baby-feeding-bottle-cover-3807488573.html?pos=13&kwd=baby bottle cover&tags=BA||||8752.144|Price|product|||TS|rsf:gd-|-stype:attr=1|qr_nm:gd|res:RC4|com-cf:nl|ptrs:na|ktp:N0|mc:179457|mtp:S|qry_typ:P|lang:en|wc:3|flavl:0|cs:9661|v=4,Man Singh & Sons Private Limited,https://www.babyproductsmanufacturer.com/?pos=13&kwd=baby bottle cover&tags=BA||||8752.144|Price|product|||TS|rsf:gd-|-stype:attr=1|qr_nm:gd|res:RC4|com-cf:nl|ptrs:na|ktp:N0|mc:179457|mtp:S|qry_typ:P|lang:en|wc:3|flavl:0|cs:9661|v=4,False,Karol Bagh,New Delhi,"No. 13/24, 1st Floor, W. E. A., Karol Bagh, Karol Bagh, New Delhi - 110005, Dist.Delhi, Delhi",8048978579,
"Silicon Baby Bottle Cover, Size/Dimension: 6 Inch",https://www.indiamart.com/proddetail/silicon-baby-bottle-cover-24337902433.html?pos=14&kwd=baby bottle cover&tags=BA||||8752.144|Price|product|||TS|rsf:gd-|-stype:attr=1|qr_nm:gd|res:RC4|com-cf:nl|ptrs:na|ktp:N0|mc:179457|mtp:S|qry_typ:P|lang:en|wc:3|flavl:0|cs:9661|v=4,Moonstar Enterprisrs,https://www.hamaarishop.com/?pos=14&kwd=baby bottle cover&tags=BA||||8752.144|Price|product|||TS|rsf:gd-|-stype:attr=1|qr_nm:gd|res:RC4|com-cf:nl|ptrs:na|ktp:N0|mc:179457|mtp:S|qry_typ:P|lang:en|wc:3|flavl:0|cs:9661|v=4,False,,New Delhi,"House No 258,Gali No 7 Block B Ph 2 Landmark Prem Nagar,Delhi, New Delhi - 110041, Dist.Delhi, Delhi",7942538796,
Baby Feeding Bottle Cover,https://www.indiamart.com/proddetail/baby-feeding-bottle-cover-2586362788.html?pos=15&kwd=baby bottle cover&tags=BA||||8752.144|Price|product|||TS|rsf:gd-|-stype:attr=1|qr_nm:gd|res:RC4|com-cf:nl|ptrs:na|ktp:N0|mc:179457|mtp:S|qry_typ:P|lang:en|wc:3|cs:8898|v=4,Dolphin Baby Product,https://www.dolphinbabyproducts.com/?pos=15&kwd=baby bottle cover&tags=BA||||8752.144|Price|product|||TS|rsf:gd-|-stype:attr=1|qr_nm:gd|res:RC4|com-cf:nl|ptrs:na|ktp:N0|mc:179457|mtp:S|qry_typ:P|lang:en|wc:3|cs:8898|v=4,False,Inderlok,New Delhi,"No. 488, 1st Floor, Shahzada Bagh, Industrial Area Phase 1, Inderlok, New Delhi - 110035, Dist.Delhi, Delhi",8048965296,
"Mom & Son Velvet Baby Bottle Cover, 1-2 Years",https://www.indiamart.com/proddetail/velvet-baby-bottle-cover-21888876748.html?pos=16&kwd=baby bottle cover&tags=BA||||8752.144|Price|product|||TS|rsf:gd-|-stype:attr=1|qr_nm:gd|res:RC4|com-cf:nl|ptrs:na|ktp:N0|mc:179457|mtp:S|qry_typ:P|lang:en|wc:3|cs:8898|v=4,Mom & Son,https://www.theindianchoice.com/?pos=16&kwd=baby bottle cover&tags=BA||||8752.144|Price|product|||TS|rsf:gd-|-stype:attr=1|qr_nm:gd|res:RC4|com-cf:nl|ptrs:na|ktp:N0|mc:179457|mtp:S|qry_typ:P|lang:en|wc:3|cs:8898|v=4,False,Karawal Nagar,New Delhi,"B-57 Gali Number-1 Mukund Vihar, Near Pnb Bank, Karawal Nagar, New Delhi - 110094, Dist.Delhi, Delhi",7942565509,
Baby bottle feeder covers,https://www.indiamart.com/proddetail/baby-bottle-feeder-covers-2852721530773.html?pos=17&kwd=baby bottle cover&tags=BA||||8580.032|Price|product|||TS|rsf:gd-|-stype:attr=1|qr_nm:gd|res:RC4|com-cf:nl|ptrs:na|ktp:N0|mc:179457|mtp:S|qry_typ:P|lang:en|wc:3|cs:8898|v=4,Ritu Infants Care,https://www.indiamart.com/ritu-infants-care/?pos=17&kwd=baby bottle cover&tags=BA||||8580.032|Price|product|||TS|rsf:gd-|-stype:attr=1|qr_nm:gd|res:RC4|com-cf:nl|ptrs:na|ktp:N0|mc:179457|mtp:S|qry_typ:P|lang:en|wc:3|cs:8898|v=4,False,Sunder Nagar,Amritsar,"232, Tilak Nagar, Shivala Colony, Sunder Nagar, Amritsar - 143001, Dist.Amritsar, Punjab",7942712512,
Chhote Janab Baby Fancy Feeding Bottle Cover,https://www.indiamart.com/proddetail/baby-fancy-feeding-bottle-cover-19619920933.html?pos=18&kwd=baby bottle cover&tags=BA||||8752.144|Price|product|||TS|rsf:gd-|-stype:attr=1|qr_nm:gd|res:RC4|com-cf:nl|ptrs:na|ktp:N0|mc:179457|mtp:S|qry_typ:P|lang:en|wc:3|cs:8898|v=4,Shree Balaji Infant Wear,https://www.indiamart.com/chhotejanab/?pos=18&kwd=baby bottle cover&tags=BA||||8752.144|Price|product|||TS|rsf:gd-|-stype:attr=1|qr_nm:gd|res:RC4|com-cf:nl|ptrs:na|ktp:N0|mc:179457|mtp:S|qry_typ:P|lang:en|wc:3|cs:8898|v=4,False,Pahari Dhiraj,New Delhi,"1583- 84, Hathi Khana, Aziz Ganj, Bahadur Garh Road, Pahari Dhiraj, New Delhi - 110006, Dist.Delhi, Delhi",8047639754,
Feeding Bottle Cover,https://www.indiamart.com/proddetail/feeding-bottle-cover-20704308033.html?pos=19&kwd=baby bottle cover&tags=BB||||8559.269|Price|product|||TS|rsf:gd-|-stype:attr=1|qr_nm:gd|res:RC4|com-cf:nl|ptrs:na|ktp:N0|mc:179457|mtp:S|qry_typ:P|lang:en|wc:3|cs:8898|v=4,Daga Impex,https://www.dagaimpex.co.in/?pos=19&kwd=baby bottle cover&tags=BB||||8559.269|Price|product|||TS|rsf:gd-|-stype:attr=1|qr_nm:gd|res:RC4|com-cf:nl|ptrs:na|ktp:N0|mc:179457|mtp:S|qry_typ:P|lang:en|wc:3|cs:8898|v=4,False,Rajwada,Indore,"No. 214, Tilak Path, Near Maruti Hanuman Mandir, Rajwada, Indore - 452007, Dist.Indore, Madhya Pradesh",8046030945,
Baby Feeding Bottle Cover,https://www.indiamart.com/proddetail/baby-feeding-bottle-cover-2854493964512.html?pos=20&kwd=baby bottle cover&tags=BB||||8954.051|Price|product|||MDC|rsf:gd-|-stype:attr=1|qr_nm:gd|res:RC4|com-cf:nl|ptrs:na|ktp:N0|mc:179457|mtp:S|qry_typ:P|lang:en|wc:3|cs:8898|v=4,Earthwise Collective Private Limited,https://www.indiamart.com/earthwise-collective/?pos=20&kwd=baby bottle cover&tags=BB||||8954.051|Price|product|||MDC|rsf:gd-|-stype:attr=1|qr_nm:gd|res:RC4|com-cf:nl|ptrs:na|ktp:N0|mc:179457|mtp:S|qry_typ:P|lang:en|wc:3|cs:8898|v=4,False,,Chennai,"9/2, 35/2, Bagirathiammal Street, T Nagar,, Chennai - 600017, Dist.Chennai, Tamil Nadu",7942801118,
Velvet Baby Feeding Bottle Cover,https://www.indiamart.com/proddetail/velvet-baby-feeding-bottle-cover-2854287431612.html?pos=21&kwd=baby bottle cover&tags=BA||||8223.226|Price|product|||MDC|rsf:gd-|-stype:attr=1|qr_nm:gd|res:RC4|com-cf:nl|ptrs:na|ktp:N0|mc:179457|mtp:S|qry_typ:P|lang:en|wc:3|cs:8898|v=4,Royal Baby,https://www.indiamart.com/royal-baby-thane/?pos=21&kwd=baby bottle cover&tags=BA||||8223.226|Price|product|||MDC|rsf:gd-|-stype:attr=1|qr_nm:gd|res:RC4|com-cf:nl|ptrs:na|ktp:N0|mc:179457|mtp:S|qry_typ:P|lang:en|wc:3|cs:8898|v=4,False,,Thane,"Ground Floor, Shop No. 03, Savitri Niwas Mumbai Pune Road, Amrutnagar, Sub Post Office, Mumbra, Thane - 400612, Dist.Thane, Maharashtra",8045734604,
Baby Milk Bottle Cover,https://www.indiamart.com/proddetail/baby-milk-bottle-cover-2853993469773.html?pos=22&kwd=baby bottle cover&tags=BA||||8752.144|Price|product|||MDC|rsf:gd-|-stype:attr=1|qr_nm:gd|res:RC4|com-cf:nl|ptrs:na|ktp:N0|mc:179457|mtp:S|qry_typ:P|lang:en|wc:3|cs:8898|v=4,A.D. Enterprises,https://www.indiamart.com/adenterprises-burari-newdelhi/?pos=22&kwd=baby bottle cover&tags=BA||||8752.144|Price|product|||MDC|rsf:gd-|-stype:attr=1|qr_nm:gd|res:RC4|com-cf:nl|ptrs:na|ktp:N0|mc:179457|mtp:S|qry_typ:P|lang:en|wc:3|cs:8898|v=4,False,North,New Delhi,"K.No-12/1, Main 25 FT. Road, Near Shyam Sweets, Uttranchal Enclave ,Kamal Pur, Burari, North, New Delhi - 110084, Dist.Delhi, Delhi",8044565004,
Baby Milk Bottle Cover,https://www.indiamart.com/proddetail/baby-milk-bottle-cover-2850164874730.html?pos=23&kwd=baby bottle cover&tags=BA||||8752.144|Price|product|||MDC|rsf:gd-|-stype:attr=1|qr_nm:gd|res:RC4|com-cf:nl|ptrs:na|ktp:N0|mc:179457|mtp:S|qry_typ:P|lang:en|wc:3|cs:8898|v=4,Kidz Creation,https://www.indiamart.com/kidzcreation/?pos=23&kwd=baby bottle cover&tags=BA||||8752.144|Price|product|||MDC|rsf:gd-|-stype:attr=1|qr_nm:gd|res:RC4|com-cf:nl|ptrs:na|ktp:N0|mc:179457|mtp:S|qry_typ:P|lang:en|wc:3|cs:8898|v=4,False,,New Delhi,"Shop No. 279/517,Sabharwal Market, Tolia Wali Gali Sadar Bazar, North Delhi,, New Delhi - 110006, Dist.Delhi, Delhi",8047679212,
"Baby Bottle Printed Cover, Size/Dimension: 7inch (l), Capacity: 150ml",https://www.indiamart.com/proddetail/baby-bottle-printed-cover-2850650074273.html?pos=24&kwd=baby bottle cover&tags=BA||||8752.144|Price|product|||MDC|rsf:gd-|-stype:attr=1|qr_nm:gd|res:RC4|com-cf:nl|ptrs:na|ktp:N0|mc:179457|mtp:S|qry_typ:P|lang:en|wc:3|cs:8898|v=4,L T Textiles,https://www.indiamart.com/lttextiles/?pos=24&kwd=baby bottle cover&tags=BA||||8752.144|Price|product|||MDC|rsf:gd-|-stype:attr=1|qr_nm:gd|res:RC4|com-cf:nl|ptrs:na|ktp:N0|mc:179457|mtp:S|qry_typ:P|lang:en|wc:3|cs:8898|v=4,False,Pahari Dhiraj,New Delhi,"5189-90 Main Road, Sadar Bazar, Pahari Dhiraj, New Delhi - 110006, Dist.Delhi, Delhi",7942958455,
5 Piece Baby Feeder Cover Set,https://www.indiamart.com/proddetail/5-piece-baby-feeder-cover-set-24001290712.html?pos=25&kwd=baby bottle cover&tags=BA||||8785.791|Price|product|||MDC|rsf:gd-|-stype:attr=1|qr_nm:gd|res:RC4|com-cf:nl|ptrs:na|ktp:N0|mc:179457|mtp:S|qry_typ:P|lang:en|wc:3|cs:8898|v=4,Navjal Enterprises,https://www.indiamart.com/navjal-enterprises/?pos=25&kwd=baby bottle cover&tags=BA||||8785.791|Price|product|||MDC|rsf:gd-|-stype:attr=1|qr_nm:gd|res:RC4|com-cf:nl|ptrs:na|ktp:N0|mc:179457|mtp:S|qry_typ:P|lang:en|wc:3|cs:8898|v=4,False,Loni,Ghaziabad,"Plot No. F-30, Khasra No. 250, Ram Park, Dye House, Pargana, Loni, Lutfulapur Navada, Loni, Ghaziabad - 201102, Dist.Ghaziabad, Uttar Pradesh",8043878298,
"Newborn Baby Bottle Cover, 240 ml size",https://www.indiamart.com/proddetail/newborn-baby-bottle-cover-240-ml-size-2852544605791.html?pos=26&kwd=baby bottle cover&tags=BA||||8752.144|Price|product|||MDC|rsf:gd-|-stype:attr=1|qr_nm:gd|res:RC4|com-cf:nl|ptrs:na|ktp:N0|mc:179457|mtp:S|qry_typ:P|lang:en|wc:3|cs:8898|v=4,B N Hosiery,https://www.indiamart.com/bnhosiery/?pos=26&kwd=baby bottle cover&tags=BA||||8752.144|Price|product|||MDC|rsf:gd-|-stype:attr=1|qr_nm:gd|res:RC4|com-cf:nl|ptrs:na|ktp:N0|mc:179457|mtp:S|qry_typ:P|lang:en|wc:3|cs:8898|v=4,False,Ashok Vihar,New Delhi,"House No 130l, Block-E, Phase-1,Ashok, Vihar, Ashok Vihar, New Delhi - 110052, Dist.Delhi, Delhi",7942706809,
COTTON BOTTLE COVER,https://www.indiamart.com/proddetail/cotton-bottle-cover-2854216039962.html?pos=27&kwd=baby bottle cover&tags=BA||||8601.347|Price|product|||TS|rsf:gd-|-stype:attr=1|qr_nm:gd|res:RC4|com-cf:nl|ptrs:na|ktp:N0|mc:179457|mtp:S|qry_typ:P|lang:en|wc:3|cs:8898|v=4,Lucky Handicraft,https://www.luckyhandicraft.in/?pos=27&kwd=baby bottle cover&tags=BA||||8601.347|Price|product|||TS|rsf:gd-|-stype:attr=1|qr_nm:gd|res:RC4|com-cf:nl|ptrs:na|ktp:N0|mc:179457|mtp:S|qry_typ:P|lang:en|wc:3|cs:8898|v=4,False,Govind Nagar,Jaipur,"190, Govind Nagar East, Amer Road, Govind Nagar, Jaipur - 302002, Dist.Jaipur, Rajasthan",8046067577,
Steel bottle silicone cover,https://www.indiamart.com/proddetail/steel-bottle-silicone-cover-2854333698830.html?pos=28&kwd=baby bottle cover&tags=A||||8211.142|Price|product|||NA|rsf:gd-|-stype:attr=1|qr_nm:gd|res:RC4|com-cf:nl|ptrs:na|ktp:N0|mc:179457|mtp:S|qry_typ:P|lang:en|wc:3|cs:8898|v=4,Satardekar Enterprises,https://www.indiamart.com/satardekar-enterprises/?pos=28&kwd=baby bottle cover&tags=A||||8211.142|Price|product|||NA|rsf:gd-|-stype:attr=1|qr_nm:gd|res:RC4|com-cf:nl|ptrs:na|ktp:N0|mc:179457|mtp:S|qry_typ:P|lang:en|wc:3|cs:8898|v=4,False,Goregaon,Mumbai,"A-501, Swapnakiran, Opp. Swapnalok Building, Off Filmcity Road, Goregaon, Mumbai - 400097, Dist.Mumbai, Maharashtra",7942785220,
Baby Cover Bottle,https://www.indiamart.com/proddetail/baby-cover-bottle-24409779262.html?pos=29&kwd=baby bottle cover&tags=BA||||8752.144|Price|product|||NA|rsf:gd-|-stype:attr=1|qr_nm:gd|res:RC4|com-cf:nl|ptrs:na|ktp:N0|mc:179457|mtp:S|qry_typ:P|lang:en|wc:3|cs:8898|v=4,Gautam Traders,https://www.indiamart.com/karmagroup-delhi/?pos=29&kwd=baby bottle cover&tags=BA||||8752.144|Price|product|||NA|rsf:gd-|-stype:attr=1|qr_nm:gd|res:RC4|com-cf:nl|ptrs:na|ktp:N0|mc:179457|mtp:S|qry_typ:P|lang:en|wc:3|cs:8898|v=4,False,Johripur,New Delhi,"Hno. 65,Gali No 3 Tunda Nagar, Johripur, New Delhi - 110094, Dist.Delhi, Delhi",8047837511,
"Kids Bottle Cover, 3-12 Months, Size: Medium",https://www.indiamart.com/proddetail/kids-bottle-cover-22409386155.html?pos=30&kwd=baby bottle cover&tags=BB||||8752.144|Price|product|||NA|rsf:gd-|-stype:attr=1|qr_nm:gd|res:RC4|com-cf:nl|ptrs:na|ktp:N0|mc:179457|mtp:S|qry_typ:P|lang:en|wc:3|cs:8898|v=4,S S Impex,https://www.indiamart.com/ssimpex-40851751/?pos=30&kwd=baby bottle cover&tags=BB||||8752.144|Price|product|||NA|rsf:gd-|-stype:attr=1|qr_nm:gd|res:RC4|com-cf:nl|ptrs:na|ktp:N0|mc:179457|mtp:S|qry_typ:P|lang:en|wc:3|cs:8898|v=4,False,New Ashok Nagar,New Delhi,"C-374-B New Ashok Nagar, New Ashok Nagar, New Delhi - 110096, Dist.Delhi, Delhi",7942613897,
Mansi Pink Baby Bottle Cover,https://www.indiamart.com/proddetail/baby-bottle-cover-18240199697.html?pos=31&kwd=baby bottle cover&tags=BB||||8211.142|Price|product|||NA|rsf:gd-|-stype:attr=1|qr_nm:gd|res:RC4|com-cf:nl|ptrs:na|ktp:N0|mc:179457|mtp:S|qry_typ:P|lang:en|wc:3|cs:8898|v=4,Mansi Industries,https://www.indiamart.com/mansiindustries-mumbai/?pos=31&kwd=baby bottle cover&tags=BB||||8211.142|Price|product|||NA|rsf:gd-|-stype:attr=1|qr_nm:gd|res:RC4|com-cf:nl|ptrs:na|ktp:N0|mc:179457|mtp:S|qry_typ:P|lang:en|wc:3|cs:8898|v=4,False,,Mumbai,"Room No. 2, Dattaray Chawl No 6, Sainath Nagar Road, Indira Nagar Ghatkopar W Mumbai, Mumbai - 400086, Dist.Mumbai, Maharashtra",8048372627,184
Multicolor Female Baby Bottle Cover,https://www.indiamart.com/proddetail/baby-bottle-cover-20771115373.html?pos=32&kwd=baby bottle cover&tags=BB||||8752.144||product|||NA|rsf:gd-|-stype:attr=1|qr_nm:gd|res:RC4|com-cf:nl|ptrs:na|ktp:N0|mc:179457|mtp:S|qry_typ:P|lang:en|wc:3|cs:8898|v=4,Shri Impex,https://www.indiamart.com/shriimpex-delhi/?pos=32&kwd=baby bottle cover&tags=BB||||8752.144||product|||NA|rsf:gd-|-stype:attr=1|qr_nm:gd|res:RC4|com-cf:nl|ptrs:na|ktp:N0|mc:179457|mtp:S|qry_typ:P|lang:en|wc:3|cs:8898|v=4,False,Pitampura,New Delhi,"469 SAINIK VIHAR PITAMPURA, Pitampura, New Delhi - 110006, Dist.Delhi, Delhi",8048371525,340
"Baby Bottle Cover, Size/Dimension: 2x3inch, Capacity: 20ml",https://www.indiamart.com/proddetail/baby-bottle-cover-25377488073.html?pos=33&kwd=baby bottle cover&tags=BB||||8810.737|Price|product|||NA|rsf:gd-|-stype:attr=1|qr_nm:gd|res:RC4|com-cf:nl|ptrs:na|ktp:N0|mc:179457|mtp:S|qry_typ:P|lang:en|wc:3|cs:8898|v=4,Nanhi Duniya,https://www.indiamart.com/nanhiduniya/?pos=33&kwd=baby bottle cover&tags=BB||||8810.737|Price|product|||NA|rsf:gd-|-stype:attr=1|qr_nm:gd|res:RC4|com-cf:nl|ptrs:na|ktp:N0|mc:179457|mtp:S|qry_typ:P|lang:en|wc:3|cs:8898|v=4,False,Nawabganj,Saharanpur,"5/343, Mohalla Mishran Khalapar, Near Dwarikadeesh Mandir, Nawabganj, Saharanpur - 247001, Dist.Saharanpur, Uttar Pradesh",7942544938,
"Happy Days Hoisery Hosiery Baby Feeding Bottle Cover, Capacity: 250 ml, Size: Small",https://www.indiamart.com/proddetail/hosiery-baby-feeding-bottle-cover-23030397691.html?pos=34&kwd=baby bottle cover&tags=BB||||8752.144|Price|product|||NA|rsf:gd-|-stype:attr=1|qr_nm:gd|res:RC4|com-cf:nl|ptrs:na|ktp:N0|mc:179457|mtp:S|qry_typ:P|lang:en|wc:3|cs:8898|v=4,Anu Creations,https://www.indiamart.com/anucreations-delhi/?pos=34&kwd=baby bottle cover&tags=BB||||8752.144|Price|product|||NA|rsf:gd-|-stype:attr=1|qr_nm:gd|res:RC4|com-cf:nl|ptrs:na|ktp:N0|mc:179457|mtp:S|qry_typ:P|lang:en|wc:3|cs:8898|v=4,False,Karol Bagh,New Delhi,"4312, 2nd Floor, Gali Bahuji, Bahadur Garh Road, Sadar Bazar, Central Delhi, Karol Bagh, New Delhi - 110006, Dist.Delhi, Delhi",8047657412,
Baby Bottle Cover,https://www.indiamart.com/proddetail/baby-bottle-cover-2853060008555.html?pos=35&kwd=baby bottle cover&tags=BA||||8785.791|Price|product|||NA|rsf:gd-|-stype:attr=1|qr_nm:gd|res:RC4|com-cf:nl|ptrs:na|ktp:N0|mc:179457|mtp:S|qry_typ:P|lang:en|wc:3|cs:8898|v=4,Ecom Fashion Hub,https://www.indiamart.com/ecomfashionhub/?pos=35&kwd=baby bottle cover&tags=BA||||8785.791|Price|product|||NA|rsf:gd-|-stype:attr=1|qr_nm:gd|res:RC4|com-cf:nl|ptrs:na|ktp:N0|mc:179457|mtp:S|qry_typ:P|lang:en|wc:3|cs:8898|v=4,False,Raispur,Ghaziabad,"E-42/06, Madhuban Bapudham, Sadarpur, Raispur, Ghaziabad - 201013, Dist.Ghaziabad, Uttar Pradesh",8047671986,
"Green Printed Baby Bottle Cover, Size/Dimension: 10x20 cm (dxh), Capacity: 150ml",https://www.indiamart.com/proddetail/green-printed-baby-bottle-cover-2849765768262.html?pos=36&kwd=baby bottle cover&tags=BA||||8601.347|Price|product|||NA|rsf:gd-|-stype:attr=1|qr_nm:gd|res:RC4|com-cf:nl|ptrs:na|ktp:N0|mc:179457|mtp:S|qry_typ:P|lang:en|wc:3|cs:8898|v=4,Bhagwati Enterprises,https://www.indiamart.com/bhagwati-enterprisesrajasthan/?pos=36&kwd=baby bottle cover&tags=BA||||8601.347|Price|product|||NA|rsf:gd-|-stype:attr=1|qr_nm:gd|res:RC4|com-cf:nl|ptrs:na|ktp:N0|mc:179457|mtp:S|qry_typ:P|lang:en|wc:3|cs:8898|v=4,False,,Jaipur,"Ground Floor, ARG Murli Heights, Moti Doongri Road, Jaipur - 302004, Dist.Jaipur, Rajasthan",7942795447,
"Baby Feeding Bottle Cover, 3-12 Months",https://www.indiamart.com/proddetail/baby-feeding-bottle-cover-21937649262.html?pos=37&kwd=baby bottle cover&tags=BA||||8779.266|Price|product|||NA|rsf:gd-|-stype:attr=1|qr_nm:gd|res:RC4|com-cf:nl|ptrs:na|ktp:N0|mc:179457|mtp:S|qry_typ:P|lang:en|wc:3|cs:8898|v=4,Anita Fashions,https://www.indiamart.com/anitafashions/?pos=37&kwd=baby bottle cover&tags=BA||||8779.266|Price|product|||NA|rsf:gd-|-stype:attr=1|qr_nm:gd|res:RC4|com-cf:nl|ptrs:na|ktp:N0|mc:179457|mtp:S|qry_typ:P|lang:en|wc:3|cs:8898|v=4,False,Lawi Khurd,Solan,"Shop No. 4, Anand Cinema Complex, Lawi Khurd, Solan - 173212, Dist.Solan, Himachal Pradesh",8048614729,
"Sheetal Designer Baby Bottle Cover, Upto 6 Month",https://www.indiamart.com/proddetail/designer-baby-bottle-cover-22692222755.html?pos=38&kwd=baby bottle cover&tags=BA||||8752.144|Price|product|||NA|rsf:gd-|-stype:attr=1|qr_nm:gd|res:RC4|com-cf:nl|ptrs:na|ktp:N0|mc:179457|mtp:S|qry_typ:P|lang:en|wc:3|cs:8898|v=4,Sheetal Enterprises,https://www.indiamart.com/sheetalenterprisesdelhi/?pos=38&kwd=baby bottle cover&tags=BA||||8752.144|Price|product|||NA|rsf:gd-|-stype:attr=1|qr_nm:gd|res:RC4|com-cf:nl|ptrs:na|ktp:N0|mc:179457|mtp:S|qry_typ:P|lang:en|wc:3|cs:8898|v=4,False,Mandoli,New Delhi,"D Block House Number 5 ,Gali No. 6 Diwaan Complex, Mandoli, New Delhi - 110093, Dist.Delhi, Delhi",8048372100,725
Baby Muslin Bottle Cover,https://www.indiamart.com/proddetail/baby-muslin-bottle-cover-2852695223273.html?pos=39&kwd=baby bottle cover&tags=BA||||8220.031|Price|product|||NA|rsf:gd-|-stype:attr=1|qr_nm:gd|res:RC4|com-cf:nl|ptrs:na|ktp:N0|mc:179457|mtp:S|qry_typ:P|lang:en|wc:3|cs:8898|v=4,Baby Arise,https://www.indiamart.com/baby-arise/?pos=39&kwd=baby bottle cover&tags=BA||||8220.031|Price|product|||NA|rsf:gd-|-stype:attr=1|qr_nm:gd|res:RC4|com-cf:nl|ptrs:na|ktp:N0|mc:179457|mtp:S|qry_typ:P|lang:en|wc:3|cs:8898|v=4,False,milkat No.- 8/7/37,Sidhpur,"House No.- 37 , Ground Floor, milkat No.- 8/7/37, Sidhpur - 384151, Dist.Patan, Gujarat",8048249728,4892
"Baby Feeding Bottle Cover, Size/Dimension: H-8"", Capacity: 250ml",https://www.indiamart.com/proddetail/baby-feeding-bottle-cover-2851124429430.html?pos=40&kwd=baby bottle cover&tags=BA||||8211.142|Price|product|||NA|rsf:gd-|-stype:attr=1|qr_nm:gd|res:RC4|com-cf:nl|ptrs:na|ktp:N0|mc:179457|mtp:S|qry_typ:P|lang:en|wc:3|cs:8898|v=4,Vinihama Business Ventures Llp,https://www.indiamart.com/vinihamabusiness-ventures/?pos=40&kwd=baby bottle cover&tags=BA||||8211.142|Price|product|||NA|rsf:gd-|-stype:attr=1|qr_nm:gd|res:RC4|com-cf:nl|ptrs:na|ktp:N0|mc:179457|mtp:S|qry_typ:P|lang:en|wc:3|cs:8898|v=4,False,,Mumbai,"Flat No-102/6-C, Spring Leaf, Akurli Road, Suburban, Mumbai - 400101, Dist.Mumbai, Maharashtra",8047544687,
"Rope Baby Cotton Bottle Cover, Capacity: 250mL",https://www.indiamart.com/proddetail/baby-cotton-bottle-cover-26031219455.html?pos=41&kwd=baby bottle cover&tags=BB||||9839.57|Price|product|||NA|rsf:gd-|-stype:attr=1|qr_nm:gd|res:RC4|com-cf:nl|ptrs:na|ktp:N0|mc:179457|mtp:S|qry_typ:P|lang:en|wc:3|cs:8898|v=4,Mini Master,https://www.indiamart.com/mini-master-kolkata/?pos=41&kwd=baby bottle cover&tags=BB||||9839.57|Price|product|||NA|rsf:gd-|-stype:attr=1|qr_nm:gd|res:RC4|com-cf:nl|ptrs:na|ktp:N0|mc:179457|mtp:S|qry_typ:P|lang:en|wc:3|cs:8898|v=4,False,,Kolkata,"64, Collin Street, Kolkata - 700016, Dist.Kolkata, West Bengal",8043852186,
Baby Milk Bottle Cover,https://www.indiamart.com/proddetail/baby-milk-bottle-cover-26437119533.html?pos=42&kwd=baby bottle cover&tags=BB||||8915.672||product|||NA|rsf:gd-|-stype:attr=1|qr_nm:gd|res:RC4|com-cf:nl|ptrs:na|ktp:N0|mc:179457|mtp:S|qry_typ:P|lang:en|wc:3|cs:8898|v=4,The Little Lookers,https://www.indiamart.com/thelittlelookers-moradabad/?pos=42&kwd=baby bottle cover&tags=BB||||8915.672||product|||NA|rsf:gd-|-stype:attr=1|qr_nm:gd|res:RC4|com-cf:nl|ptrs:na|ktp:N0|mc:179457|mtp:S|qry_typ:P|lang:en|wc:3|cs:8898|v=4,False,,Moradabad,"4-B-145, Buddhi Vihar Yozna Mbd, Moradabad - 244001, Dist.Moradabad, Uttar Pradesh",8047655658,
"Baby Feeding Bottle Cover, Size/Dimension: H-8"", Capacity: 250ml",https://www.indiamart.com/proddetail/baby-feeding-bottle-cover-2851124429430.html?pos=43&kwd=baby bottle cover&tags=BA||||8211.142|Price|product|||NA|rsf:gd-|-stype:attr=1|qr_nm:gd|res:RC4|com-cf:nl|ptrs:na|ktp:N0|mc:179457|mtp:S|qry_typ:P|lang:en|wc:3|cs:8898|v=4,Vinihama Business Ventures Llp,https://www.indiamart.com/vinihamabusiness-ventures/?pos=43&kwd=baby bottle cover&tags=BA||||8211.142|Price|product|||NA|rsf:gd-|-stype:attr=1|qr_nm:gd|res:RC4|com-cf:nl|ptrs:na|ktp:N0|mc:179457|mtp:S|qry_typ:P|lang:en|wc:3|cs:8898|v=4,False,,Mumbai,"Flat No-102/6-C, Spring Leaf, Akurli Road, Suburban, Mumbai - 400101, Dist.Mumbai, Maharashtra",8047544687,
"Rope Baby Cotton Bottle Cover, Capacity: 250mL",https://www.indiamart.com/proddetail/baby-cotton-bottle-cover-26031219455.html?pos=44&kwd=baby bottle cover&tags=BB||||9839.57|Price|product|||NA|rsf:gd-|-stype:attr=1|qr_nm:gd|res:RC4|com-cf:nl|ptrs:na|ktp:N0|mc:179457|mtp:S|qry_typ:P|lang:en|wc:3|cs:8898|v=4,Mini Master,https://www.indiamart.com/mini-master-kolkata/?pos=44&kwd=baby bottle cover&tags=BB||||9839.57|Price|product|||NA|rsf:gd-|-stype:attr=1|qr_nm:gd|res:RC4|com-cf:nl|ptrs:na|ktp:N0|mc:179457|mtp:S|qry_typ:P|lang:en|wc:3|cs:8898|v=4,False,,Kolkata,"64, Collin Street, Kolkata - 700016, Dist.Kolkata, West Bengal",8043852186,
Baby Milk Bottle Cover,https://www.indiamart.com/proddetail/baby-milk-bottle-cover-26437119533.html?pos=50&kwd=baby bottle cover&tags=BB||||8915.672||product|||NA|rsf:gd-|-stype:attr=1|qr_nm:gd|res:RC4|com-cf:nl|ptrs:na|ktp:N0|mc:179457|mtp:S|qry_typ:P|lang:en|wc:3|cs:8898|v=4,The Little Lookers,https://www.indiamart.com/thelittlelookers-moradabad/?pos=50&kwd=baby bottle cover&tags=BB||||8915.672||product|||NA|rsf:gd-|-stype:attr=1|qr_nm:gd|res:RC4|com-cf:nl|ptrs:na|ktp:N0|mc:179457|mtp:S|qry_typ:P|lang:en|wc:3|cs:8898|v=4,False,,Moradabad,"4-B-145, Buddhi Vihar Yozna Mbd, Moradabad - 244001, Dist.Moradabad, Uttar Pradesh",8047655658,
"Baby Bottle Feeder Cover, Size/Dimension: 8 Inch (length), Capacity: 150ml",https://www.indiamart.com/proddetail/baby-bottle-feeder-cover-2850327540297.html?pos=46&kwd=baby bottle cover&tags=BB||||8661.854|Price|product|||NA|rsf:gd-|-stype:attr=1|qr_nm:gd|res:RC4|com-cf:nl|ptrs:na|ktp:N0|mc:179457|mtp:S|qry_typ:P|lang:en|wc:3|cs:8898|v=4,Charu Enterprises,https://www.indiamart.com/charu-enterprises-punjab/?pos=46&kwd=baby bottle cover&tags=BB||||8661.854|Price|product|||NA|rsf:gd-|-stype:attr=1|qr_nm:gd|res:RC4|com-cf:nl|ptrs:na|ktp:N0|mc:179457|mtp:S|qry_typ:P|lang:en|wc:3|cs:8898|v=4,False,,Ludhiana,"6729, Street No.4, Jassian Road, Naveen Nagar, Haibowal Kalan, Ludhiana - 141008, Dist.Ludhiana, Punjab",7942817239,
"Velvet Baby Feeding Bottle Cover, Size/Dimension: 10inch, Capacity: 500ml",https://www.indiamart.com/proddetail/velvet-baby-feeding-bottle-cover-25968825712.html?pos=47&kwd=baby bottle cover&tags=BB||||8752.144|Price|product|||NA|rsf:gd-|-stype:attr=1|qr_nm:gd|res:RC4|com-cf:nl|ptrs:na|ktp:N0|mc:179457|mtp:S|qry_typ:P|lang:en|wc:3|cs:8898|v=4,Aashia Fashion,https://www.indiamart.com/aashia-fashion/?pos=47&kwd=baby bottle cover&tags=BB||||8752.144|Price|product|||NA|rsf:gd-|-stype:attr=1|qr_nm:gd|res:RC4|com-cf:nl|ptrs:na|ktp:N0|mc:179457|mtp:S|qry_typ:P|lang:en|wc:3|cs:8898|v=4,False,,New Delhi,"A-21 Shiv Vihar, Vikas Nagar Near Rama Sweets, Uttam Nagar, New Delhi - 110059, Dist.Delhi, Delhi",8047676001,
Baby milk bottle cover ( 250ml ),https://www.indiamart.com/proddetail/baby-milk-bottle-cover-250ml-2854693523397.html?pos=48&kwd=baby bottle cover&tags=BB||||8752.144|Price|product|||NA|rsf:gd-|-stype:attr=1|qr_nm:gd|res:RC4|com-cf:nl|ptrs:na|ktp:N0|mc:179457|mtp:S|qry_typ:P|lang:en|wc:3|cs:8898|v=4,Moonlab Technologies Private Limited,https://www.indiamart.com/moonlab-technologies-private-limited/?pos=48&kwd=baby bottle cover&tags=BB||||8752.144|Price|product|||NA|rsf:gd-|-stype:attr=1|qr_nm:gd|res:RC4|com-cf:nl|ptrs:na|ktp:N0|mc:179457|mtp:S|qry_typ:P|lang:en|wc:3|cs:8898|v=4,False,LADO SARAI,New Delhi,"2/27 W.h.s. Kirti Nagar South, LADO SARAI, New Delhi - 110015, Dist.Delhi, Delhi",8069033738,135
Kite feeding cover manufacturers,,Priya Creations,https://www.indiamart.com/priyacreations-jaipur/?pos=49&kwd=baby bottle cover&tags=BB||||8601.347|Price|product|||NA|rsf:gd-|-stype:attr=1|qr_nm:gd|res:RC4|com-cf:nl|ptrs:na|ktp:N0|mc:179457|mtp:S|qry_typ:P|lang:en|wc:3|cs:8898|v=4,False,,Jaipur,"A-1, Shyam Vihar Samod Road, Chomu, Jaipur - 303702, Dist.Jaipur, Rajasthan",8048371818,443
Baby Milk Bottle Cover,https://www.indiamart.com/proddetail/baby-milk-bottle-cover-26437119533.html?pos=50&kwd=baby bottle cover&tags=BB||||8915.672||product|||NA|rsf:gd-|-stype:attr=1|qr_nm:gd|res:RC4|com-cf:nl|ptrs:na|ktp:N0|mc:179457|mtp:S|qry_typ:P|lang:en|wc:3|cs:8898|v=4,The Little Lookers,https://www.indiamart.com/thelittlelookers-moradabad/?pos=50&kwd=baby bottle cover&tags=BB||||8915.672||product|||NA|rsf:gd-|-stype:attr=1|qr_nm:gd|res:RC4|com-cf:nl|ptrs:na|ktp:N0|mc:179457|mtp:S|qry_typ:P|lang:en|wc:3|cs:8898|v=4,False,,Moradabad,"4-B-145, Buddhi Vihar Yozna Mbd, Moradabad - 244001, Dist.Moradabad, Uttar Pradesh",8047655658,
Baby Bottle Cover,,Handcrafts,https://www.indiamart.com/handcrafts-bhiwandi/?pos=51&kwd=baby bottle cover&tags=BB||||8231.259|Price|product|||NA|rsf:gd-|-stype:attr=1|qr_nm:gd|res:RC4|com-cf:nl|ptrs:na|ktp:N0|mc:179457|mtp:S|qry_typ:P|lang:en|wc:3|cs:8898|v=4,False,Abdul Wahhab,Bhiwandi,"2nd Floor A Wing Greenparknear Goal Bilding Nizampur, Abdul Wahhab, Bhiwandi - 421302, Maharashtra",8069707321,519
Bottle cover baby,,Yogesh Booties,https://www.indiamart.com/yogesh-booties/?pos=52&kwd=baby bottle cover&tags=BB||||8752.144|Price|product|||NA|rsf:gd-|-stype:attr=1|qr_nm:gd|res:RC4|com-cf:nl|ptrs:na|ktp:N0|mc:179457|mtp:S|qry_typ:P|lang:en|wc:3|cs:8898|v=4,False,Krishan Vihar,Delhi,"Block No.5, Krishan Vihar, Delhi - 110086, Dist.Delhi, Delhi",8043877166,
Baby Feeding Bottle Cover,,First Smile,https://www.indiamart.com/first-smile-kolkata/?pos=53&kwd=baby bottle cover&tags=BB||||9839.57||product|||NA|rsf:gd-|-stype:attr=1|qr_nm:gd|res:RC4|com-cf:nl|ptrs:na|ktp:N0|mc:179457|mtp:S|qry_typ:P|lang:en|wc:3|cs:8898|v=4,False,,Kolkata,"7B,C Tiljala Road Park Circus, Kolkata - 700026, Dist.Kolkata, West Bengal",8048372036,609
Baby Feeding Bottle Cover,,Aarav Creation,https://www.indiamart.com/aaravcreation-delhi/?pos=54&kwd=baby bottle cover&tags=BA||||8752.144||product|||NA|rsf:gd-|-stype:attr=1|qr_nm:gd|res:RC4|com-cf:nl|ptrs:na|ktp:N0|mc:179457|mtp:S|qry_typ:P|lang:en|wc:3|cs:8898|v=4,False,Saboli,Delhi,"Main Road, East Gokulpur, Meet Nagar, Saboli, Delhi, Dist.Delhi, Delhi",8048361390,830
Baby Velvet Feeding Bottle Cover,,Madhura Enterprises,https://www.indiamart.com/madhura-enterprises-mumbai/?pos=55&kwd=baby bottle cover&tags=BB||||8211.142|Price|product|||NA|rsf:gd-|-stype:attr=1|qr_nm:gd|res:RC4|com-cf:nl|ptrs:na|ktp:N0|mc:179457|mtp:S|qry_typ:P|lang:en|wc:3|cs:8898|v=4,False,,Mumbai,"Room No-10 5 Sub Plot No 111, L-ward, Asalpha, Ghatkopar West Dattashree Chs Ltd, Mumbai - 400086, Dist.Mumbai, Maharashtra",8048372243,522
Feeding Cover,,Momo Traders,https://www.indiamart.com/momo-traders/?pos=56&kwd=baby bottle cover&tags=B||||8488.621||product|||NA|rsf:gd-|-stype:attr=1|qr_nm:gd|res:RC4|com-cf:nl|ptrs:na|ktp:N0|mc:179457|mtp:S|qry_typ:P|lang:en|wc:3|cs:8898|v=4,False,,Akathiyoor,"1/376/2,Cheruvathani,Vadutala,Kunnamkulam,Thrissur, Akathiyoor - 680523, Kerala",8048370722,4857
Feeder Cover,,Shamsh General Store,https://www.indiamart.com/ms-shamsh-general-store/?pos=57&kwd=baby bottle cover&tags=BB||||8974.737||product|||NA|rsf:gd-|-stype:attr=1|qr_nm:gd|res:RC4|com-cf:nl|ptrs:na|ktp:N0|mc:179457|mtp:S|qry_typ:P|lang:en|wc:3|cs:8898|v=4,False,,Bareilly,"Pakeeza Market Sailani Old City, Bareilly - 243001, Dist.Bareilly, Uttar Pradesh",8041012041,
Baby Bottle Cover,,Chinmay Kids,https://www.indiamart.com/chinmaykids/?pos=58&kwd=baby bottle cover&tags=CC||||8752.144|Price|product|||TS|rsf:gd-|-stype:attr=1|qr_nm:gd|res:RC4|com-cf:nl|ptrs:na|ktp:N0|mc:179457|mtp:S|qry_typ:P|lang:en|wc:3|cs:8898|v=4,False,Nayagaon,New Delhi,"C-99, Street No. 4, First Pusta, Nayagaon, New Delhi - 110053, Dist.Delhi, Delhi",8046054858,
Baby Bottle Cotton Cover,https://www.indiamart.com/proddetail/baby-bottle-cotton-cover-2852538329712.html?pos=59&kwd=baby bottle cover&tags=CC||||8823.154|Price|product|||TS|rsf:gd-|-stype:attr=1|qr_nm:gd|res:RC4|com-cf:nl|ptrs:na|ktp:N0|mc:179457|mtp:S|qry_typ:P|lang:en|wc:3|cs:8898|v=4,Shri Anant International,https://www.indiamart.com/shrianantinternational/?pos=59&kwd=baby bottle cover&tags=CC||||8823.154|Price|product|||TS|rsf:gd-|-stype:attr=1|qr_nm:gd|res:RC4|com-cf:nl|ptrs:na|ktp:N0|mc:179457|mtp:S|qry_typ:P|lang:en|wc:3|cs:8898|v=4,False,DayalBagh,Agra,"No.02,House 2,Alkapuri Phase Ii,Agra, DayalBagh, Agra - 282005, Dist.Agra, Uttar Pradesh",7942721451,
"Cotton Printed Baby Bottle Cover Set, 3-12 Months",https://www.indiamart.com/proddetail/cotton-printed-baby-bottle-cover-set-22827236997.html?pos=60&kwd=baby bottle cover&tags=CC||||8211.142|Price|product|||TS|rsf:gd-|-stype:attr=1|qr_nm:gd|res:RC4|com-cf:nl|ptrs:na|ktp:N0|mc:179457|mtp:S|qry_typ:P|lang:en|wc:3|cs:8898|v=4,Child King Creation,https://www.indiamart.com/childkingcreation-mumbai/?pos=60&kwd=baby bottle cover&tags=CC||||8211.142|Price|product|||TS|rsf:gd-|-stype:attr=1|qr_nm:gd|res:RC4|com-cf:nl|ptrs:na|ktp:N0|mc:179457|mtp:S|qry_typ:P|lang:en|wc:3|cs:8898|v=4,False,Malad West,Mumbai,"B 705, Seven Floor, Jagmagia Centre, Mamlatdar Wadi EXTN Road Nahar Nagar, Malad West, Suburban, Malad West, Mumbai - 400064, Dist.Mumbai, Maharashtra",8043805922,
Baby Bottle Cover,https://www.indiamart.com/proddetail/baby-bottle-cover-25672772255.html?pos=61&kwd=baby bottle cover&tags=CC||||8741.812|Price|product|||MDC|rsf:gd-|-stype:attr=1|qr_nm:gd|res:RC4|com-cf:nl|ptrs:na|ktp:N0|mc:179457|mtp:S|qry_typ:P|lang:en|wc:3|cs:8898|v=4,Linen Design Company Private Limited,https://www.indiamart.com/linen-design-company/?pos=61&kwd=baby bottle cover&tags=CC||||8741.812|Price|product|||MDC|rsf:gd-|-stype:attr=1|qr_nm:gd|res:RC4|com-cf:nl|ptrs:na|ktp:N0|mc:179457|mtp:S|qry_typ:P|lang:en|wc:3|cs:8898|v=4,False,Mohyal Colony,Gurgaon,"141-142-143, Mohyal Colony Opposite Sector 31, Mohyal Colony, Gurgaon - 122003, Dist.Gurgaon, Haryana",8046073097,
"Baby Milk Bottle Cover, Capacity: 200 ML",https://www.indiamart.com/proddetail/baby-milk-bottle-cover-24910746097.html?pos=62&kwd=baby bottle cover&tags=CC||||8954.051|Price|product|||MDC|rsf:gd-|-stype:attr=1|qr_nm:gd|res:RC4|com-cf:nl|ptrs:na|ktp:N0|mc:179457|mtp:S|qry_typ:P|lang:en|wc:3|cs:8898|v=4,Bismillah Creation,https://www.indiamart.com/bismillah-creationchennai/?pos=62&kwd=baby bottle cover&tags=CC||||8954.051|Price|product|||MDC|rsf:gd-|-stype:attr=1|qr_nm:gd|res:RC4|com-cf:nl|ptrs:na|ktp:N0|mc:179457|mtp:S|qry_typ:P|lang:en|wc:3|cs:8898|v=4,False,Selaivayal,Chennai,"No-31/1, Na, Vedhantha Murugappa Street, Selavoyal, Vedhantha Murugappa Street, Selaivayal, Chennai - 600051, Dist.Chennai, Tamil Nadu",8047309398,
Pink Baby Bottle Cover,https://www.indiamart.com/proddetail/pink-baby-bottle-cover-2854160637488.html?pos=63&kwd=baby bottle cover&tags=CC||||8693.162||product|||MDC|rsf:gd-|-stype:attr=1|qr_nm:gd|res:RC4|com-cf:nl|ptrs:na|ktp:N0|mc:179457|mtp:S|qry_typ:P|lang:en|wc:3|cs:8898|v=4,Dear Baby,https://www.indiamart.com/dearbaby/?pos=63&kwd=baby bottle cover&tags=CC||||8693.162||product|||MDC|rsf:gd-|-stype:attr=1|qr_nm:gd|res:RC4|com-cf:nl|ptrs:na|ktp:N0|mc:179457|mtp:S|qry_typ:P|lang:en|wc:3|cs:8898|v=4,False,Begambur,Dindigul,"2nd Floor, No 7, Ahmad Appartment, S P Nagar, Begambur, Begambur, Dindigul - 624002, Dist.Dindigul, Tamil Nadu",8045731862,
Cotton Baby Bottle Cover,https://www.indiamart.com/proddetail/cotton-baby-bottle-cover-2854410237412.html?pos=64&kwd=baby bottle cover&tags=CC||||9045.955|Price|product|||MDC|rsf:gd-|-stype:attr=1|qr_nm:gd|res:RC4|com-cf:nl|ptrs:na|ktp:N0|mc:179457|mtp:S|qry_typ:P|lang:en|wc:3|cs:8898|v=4,Kesharwani Caps & Gloves,https://www.indiamart.com/kesharwani-caps-gloves/?pos=64&kwd=baby bottle cover&tags=CC||||9045.955|Price|product|||MDC|rsf:gd-|-stype:attr=1|qr_nm:gd|res:RC4|com-cf:nl|ptrs:na|ktp:N0|mc:179457|mtp:S|qry_typ:P|lang:en|wc:3|cs:8898|v=4,False,Meston Road,Kanpur,"33/80, Kesharwani Caps And Gloves, Topi Bazar, Chowk, Meston Road, Kanpur - 208001, Uttar Pradesh",7949336314,
Cotton Printed Baby Bottle Cover,https://www.indiamart.com/proddetail/cotton-printed-baby-bottle-cover-2853514566855.html?pos=65&kwd=baby bottle cover&tags=CC||||8307.81|Price|product|||MDC|rsf:gd-|-stype:attr=1|qr_nm:gd|res:RC4|com-cf:nl|ptrs:na|ktp:N0|mc:179457|mtp:S|qry_typ:P|lang:en|wc:3|cs:8898|v=4,Tabaria Baby Mall,https://www.indiamart.com/tabaria-baby-mallpune/?pos=65&kwd=baby bottle cover&tags=CC||||8307.81|Price|product|||MDC|rsf:gd-|-stype:attr=1|qr_nm:gd|res:RC4|com-cf:nl|ptrs:na|ktp:N0|mc:179457|mtp:S|qry_typ:P|lang:en|wc:3|cs:8898|v=4,False,Raviwar Peth,Pune,"1088,Manish Market,Raviwar Peth, Raviwar Peth, Pune - 411002, Dist.Pune, Maharashtra",7949092418,
"Baby Fancy Feeder Cover, 0-2 Year",https://www.indiamart.com/proddetail/baby-fancy-feeder-cover-16998367297.html?pos=66&kwd=baby bottle cover&tags=CB||||8545.6045|Price|product|||MDC|rsf:gd-|-stype:attr=1|qr_nm:gd|res:RC4|com-cf:nl|ptrs:na|ktp:N0|mc:179457|mtp:S|qry_typ:P|lang:en|wc:3|cs:8898|v=4,Shri Siddhivinayak Traders,https://www.indiamart.com/shrisiddhivinayaktraders-firozpur/?pos=66&kwd=baby bottle cover&tags=CB||||8545.6045|Price|product|||MDC|rsf:gd-|-stype:attr=1|qr_nm:gd|res:RC4|com-cf:nl|ptrs:na|ktp:N0|mc:179457|mtp:S|qry_typ:P|lang:en|wc:3|cs:8898|v=4,False,Basti Nizamdin,Firozpur,"No.94, Anand Avenue, Backside Marked Office, Malwal Road, Firozpur City, Basti Nizamdin, Firozpur - 152002, Dist.Firozpur, Punjab",8046066644,
"Jute Bottle Cover, Capacity: Standard",https://www.indiamart.com/proddetail/jute-bottle-cover-25563450533.html?pos=67&kwd=baby bottle cover&tags=CC||||8752.144|Price|product|||MDC|rsf:gd-|-stype:attr=1|qr_nm:gd|res:RC4|com-cf:nl|ptrs:na|ktp:N0|mc:179457|mtp:S|qry_typ:P|lang:en|wc:3|cs:8898|v=4,Jaggi Bag Store,https://www.indiamart.com/jaggibagstore/?pos=67&kwd=baby bottle cover&tags=CC||||8752.144|Price|product|||MDC|rsf:gd-|-stype:attr=1|qr_nm:gd|res:RC4|com-cf:nl|ptrs:na|ktp:N0|mc:179457|mtp:S|qry_typ:P|lang:en|wc:3|cs:8898|v=4,False,Nabi Karim,New Delhi,"6009, Gali Satnaryan Mandir Nabi Karim Central Delhi, Nabi Karim, New Delhi - 110055, Dist.Delhi, Delhi",7942563521,
"Cotton Water Bottle Bags, Capacity: 2 L",https://www.indiamart.com/proddetail/cotton-water-bottle-bags-25940852262.html?pos=68&kwd=baby bottle cover&tags=||||8230.883|Price|product|||TS|rsf:gd-|-stype:attr=1|qr_nm:gd|res:RC4|com-cf:nl|ptrs:na|ktp:N0|mc:179457|mtp:S|qry_typ:P|lang:en|wc:3|cs:8898|v=4,I Khodal Bag Private Limited,https://www.ikhodalbag.in/?pos=68&kwd=baby bottle cover&tags=||||8230.883|Price|product|||TS|rsf:gd-|-stype:attr=1|qr_nm:gd|res:RC4|com-cf:nl|ptrs:na|ktp:N0|mc:179457|mtp:S|qry_typ:P|lang:en|wc:3|cs:8898|v=4,True,Kholvad,Surat,"62 Siddhi Vinayak Ind, Opp Opera Palace, Kholvad Road, Laskana, Kholvad, Surat - 394190, Dist.Surat, Gujarat",8047672317,
Wine Bottle Cover,https://www.indiamart.com/proddetail/wine-bottle-cover-2854908508997.html?pos=69&kwd=baby bottle cover&tags=||||8769.508|Price|product|||MDC|rsf:gd-|-stype:attr=1|qr_nm:gd|res:RC4|com-cf:nl|ptrs:na|ktp:N0|mc:179457|mtp:S|qry_typ:P|lang:en|wc:3|cs:8898|v=4,Koozy Up,https://www.indiamart.com/koozyup/?pos=69&kwd=baby bottle cover&tags=||||8769.508|Price|product|||MDC|rsf:gd-|-stype:attr=1|qr_nm:gd|res:RC4|com-cf:nl|ptrs:na|ktp:N0|mc:179457|mtp:S|qry_typ:P|lang:en|wc:3|cs:8898|v=4,False,,Faridabad,"Plot No E/61, Sanjay Colony, Faridabad - 121005, Dist.Faridabad, Haryana",7942701361,
Pvc Non Wooven 20 Litre Water Dispenser Bottle Cover,https://www.indiamart.com/proddetail/20-litre-water-dispenser-bottle-cover-27424881091.html?pos=70&kwd=baby bottle cover&tags=||||8752.144|Price|product|||TS|rsf:gd-|-stype:attr=1|qr_nm:gd|res:RC4|com-cf:nl|ptrs:na|ktp:N0|mc:179457|mtp:S|qry_typ:P|lang:en|wc:3|cs:8898|v=4,ViVa Plast Private Limited,https://www.pvcworld.in/?pos=70&kwd=baby bottle cover&tags=||||8752.144|Price|product|||TS|rsf:gd-|-stype:attr=1|qr_nm:gd|res:RC4|com-cf:nl|ptrs:na|ktp:N0|mc:179457|mtp:S|qry_typ:P|lang:en|wc:3|cs:8898|v=4,False,Jhandewalan,New Delhi,"No. 10795, 2nd Floor, Rexine Bazar, Jhandewalan Road Nabi Karim, Paharganj, Jhandewalan, New Delhi - 110055, Dist.Delhi, Delhi",8048983197,
Polyester 20L Coffee Dispenser Bottle Cover,https://www.indiamart.com/proddetail/20l-coffee-dispenser-bottle-cover-2853483402073.html?pos=71&kwd=baby bottle cover&tags=||||8752.144|Price|product|||MDC|rsf:gd-|-stype:attr=1|qr_nm:gd|res:RC4|com-cf:nl|ptrs:na|ktp:N0|mc:179457|mtp:S|qry_typ:P|lang:en|wc:3|cs:8898|v=4,Vyapower Enterprises,https://www.indiamart.com/vyapowerenterprises/?pos=71&kwd=baby bottle cover&tags=||||8752.144|Price|product|||MDC|rsf:gd-|-stype:attr=1|qr_nm:gd|res:RC4|com-cf:nl|ptrs:na|ktp:N0|mc:179457|mtp:S|qry_typ:P|lang:en|wc:3|cs:8898|v=4,False,Trilokpuri,New Delhi,"H. No. 84-85, Block No. 3 Subhash Market Trilokpuri East Delhi, Trilokpuri, New Delhi - 110091, Dist.Delhi, Delhi",7949092849,
Birthday Return Gift For Kids,https://www.indiamart.com/proddetail/birthday-return-gift-for-kids-2851925428530.html?pos=72&kwd=baby bottle cover&tags=||||8899.625|Price|product|||TS|rsf:gd-|-stype:attr=1|qr_nm:gd|res:RC4|com-cf:nl|ptrs:na|ktp:N0|mc:179457|mtp:S|qry_typ:P|lang:en|wc:3|cs:8898|v=4,Pixel Bags,https://www.indiamart.com/pixel-bags-pondicherry/?pos=72&kwd=baby bottle cover&tags=||||8899.625|Price|product|||TS|rsf:gd-|-stype:attr=1|qr_nm:gd|res:RC4|com-cf:nl|ptrs:na|ktp:N0|mc:179457|mtp:S|qry_typ:P|lang:en|wc:3|cs:8898|v=4,False,Marie Oulgaret,Pondicherry,"No. 7A, Second Floor, Daffodils Apartment, Main Road, Gnanapragasam Nagar,, Marie Oulgaret, Pondicherry - 605008, Dist.Pondicherry, Pondicherry",7942803013,
Bottle Jute Bag,https://www.indiamart.com/proddetail/bottle-jute-bag-2853215249455.html?pos=73&kwd=baby bottle cover&tags=||||8954.051|Price|product|||TS|rsf:gd-|-stype:attr=1|qr_nm:gd|res:RC4|com-cf:nl|ptrs:na|ktp:N0|mc:179457|mtp:S|qry_typ:P|lang:en|wc:3|cs:8898|v=4,Sri Sai Bags,https://www.indiamart.com/srisaibags/?pos=73&kwd=baby bottle cover&tags=||||8954.051|Price|product|||TS|rsf:gd-|-stype:attr=1|qr_nm:gd|res:RC4|com-cf:nl|ptrs:na|ktp:N0|mc:179457|mtp:S|qry_typ:P|lang:en|wc:3|cs:8898|v=4,False,West Mambalam,Chennai,"First Floor No.46/62 Gandhi Street, West Mambalam, West Mambalam, Chennai - 600033, Dist.Chennai, Tamil Nadu",7942537379,
Polyester 6 Litre Milk Delivery Bag,https://www.indiamart.com/proddetail/6-litre-milk-delivery-bag-21940100830.html?pos=74&kwd=baby bottle cover&tags=||||8211.142|Price|product|||TS|rsf:gd-|-stype:attr=1|qr_nm:gd|res:RC4|com-cf:nl|ptrs:na|ktp:N0|mc:179457|mtp:S|qry_typ:P|lang:en|wc:3|cs:8898|v=4,Shree Suppliers,https://www.delivery-kart.com/?pos=74&kwd=baby bottle cover&tags=||||8211.142|Price|product|||TS|rsf:gd-|-stype:attr=1|qr_nm:gd|res:RC4|com-cf:nl|ptrs:na|ktp:N0|mc:179457|mtp:S|qry_typ:P|lang:en|wc:3|cs:8898|v=4,True,Mulund West,Mumbai,"Gala No. 1, New Unique Industrial Estate Jawahar Industrial Estate Opp Jawahar Talkies, Mulund West, Mumbai - 400080, Dist.Mumbai, Maharashtra",8046033400,
Rope Handle Plain Jute Bottle cover,https://www.indiamart.com/proddetail/jute-bottle-cover-22206506362.html?pos=75&kwd=baby bottle cover&tags=||||8228.275|Price|product|||TS|rsf:gd-|-stype:attr=1|qr_nm:gd|res:RC4|com-cf:nl|ptrs:na|ktp:N0|mc:179457|mtp:S|qry_typ:P|lang:en|wc:3|cs:8898|v=4,Royal Fabric Bags,https://www.royalfabricbags.com/?pos=75&kwd=baby bottle cover&tags=||||8228.275|Price|product|||TS|rsf:gd-|-stype:attr=1|qr_nm:gd|res:RC4|com-cf:nl|ptrs:na|ktp:N0|mc:179457|mtp:S|qry_typ:P|lang:en|wc:3|cs:8898|v=4,False,,Ahmedabad,"247/2, 247, 30, 61/D, Block-N, Sumel Business Park 5, Chamunda Flyover, Asarva, Ahmedabad - 380016, Dist.Ahmedabad, Gujarat",8048955488,
"Assorted Acrylic Heart Shape Colorful Pom Pom, Size: 5cm",https://www.indiamart.com/proddetail/heart-shape-colorful-pom-pom-3896816833.html?pos=76&kwd=baby bottle cover&tags=||||8785.791|Price|product|||TS|rsf:gd-|-stype:attr=1|qr_nm:gd|res:RC4|com-cf:nl|ptrs:na|ktp:N0|mc:179457|mtp:S|qry_typ:P|lang:en|wc:3|cs:8898|v=4,Refratex India Private Limited,https://www.refratexindia.com/?pos=76&kwd=baby bottle cover&tags=||||8785.791|Price|product|||TS|rsf:gd-|-stype:attr=1|qr_nm:gd|res:RC4|com-cf:nl|ptrs:na|ktp:N0|mc:179457|mtp:S|qry_typ:P|lang:en|wc:3|cs:8898|v=4,True,Jhandapur,Ghaziabad,"Plot No.318, Jhandapur,, Jhandapur, Ghaziabad - 201010, Dist.Ghaziabad, Uttar Pradesh",8048970592,
"White(base) 3Kg Printed Paper Bottle Bag, Size/Dimension: 15x8 Inch(lxw)",https://www.indiamart.com/proddetail/3kg-printed-paper-bottle-bag-2852092740455.html?pos=77&kwd=baby bottle cover&tags=||||8559.269|Price|product|||TS|rsf:gd-|-stype:attr=1|qr_nm:gd|res:RC4|com-cf:nl|ptrs:na|ktp:N0|mc:179457|mtp:S|qry_typ:P|lang:en|wc:3|cs:8898|v=4,Himani Enterprises,https://www.himanipaperbag.com/?pos=77&kwd=baby bottle cover&tags=||||8559.269|Price|product|||TS|rsf:gd-|-stype:attr=1|qr_nm:gd|res:RC4|com-cf:nl|ptrs:na|ktp:N0|mc:179457|mtp:S|qry_typ:P|lang:en|wc:3|cs:8898|v=4,False,Sukhlia,Indore,"Patwari Halka No. 05 Sukhliya Gram14, Chaudhari Compound, Sanwer Road,, Sukhlia, Indore - 452015, Dist.Indore, Madhya Pradesh",7942652347,
"Cotton Without Handle Water Dispenser Bottle Cover, For Home, Capacity: 20 L",https://www.indiamart.com/proddetail/water-dispenser-bottle-cover-24510633748.html?pos=78&kwd=baby bottle cover&tags=||||8752.144|Price|product|||TS|rsf:gd-|-stype:attr=1|qr_nm:gd|res:RC4|com-cf:nl|ptrs:na|ktp:N0|mc:179457|mtp:S|qry_typ:P|lang:en|wc:3|cs:8898|v=4,Coxco International,https://www.indiamart.com/coxco-international/?pos=78&kwd=baby bottle cover&tags=||||8752.144|Price|product|||TS|rsf:gd-|-stype:attr=1|qr_nm:gd|res:RC4|com-cf:nl|ptrs:na|ktp:N0|mc:179457|mtp:S|qry_typ:P|lang:en|wc:3|cs:8898|v=4,False,Palam Sadh Nagar,New Delhi,"First Floor, E 65, Street No 17 Sadh Nagar, Palam Colony, Palam Sadh Nagar, New Delhi - 110045, Dist.Delhi, Delhi",7942535736,
Multi colour baby glass bottle with silicon cover,,Priyanshi International,https://www.indiamart.com/priyanshi-international-uttarpradesh/?pos=79&kwd=baby bottle cover&tags=||||8752.144|Price|product|||MDC|rsf:gd-|-stype:attr=1|qr_nm:gd|res:RC4|com-cf:nl|ptrs:na|ktp:N0|mc:179457|mtp:S|qry_typ:P|lang:en|wc:3|cs:8898|v=4,False,,New Delhi,"3,PROP NO S228,SCHOOL BLOCK,SHAKARPUR UGF, 3, Prop No S228, School Block, Shakarpur,110092, New Delhi - 110092, Dist.Delhi, Delhi",7942676139,
"Printed Drawstring Bottle Bag, 50g",https://www.indiamart.com/proddetail/drawstring-bottle-bag-2854777181088.html?pos=80&kwd=baby bottle cover&tags=||||8228.275|Price|product|||MDC|rsf:gd-|-stype:attr=1|qr_nm:gd|res:RC4|com-cf:nl|ptrs:na|ktp:N0|mc:179457|mtp:S|qry_typ:P|lang:en|wc:3|cs:8898|v=4,Indivaan,https://www.indiamart.com/indivaan/?pos=80&kwd=baby bottle cover&tags=||||8228.275|Price|product|||MDC|rsf:gd-|-stype:attr=1|qr_nm:gd|res:RC4|com-cf:nl|ptrs:na|ktp:N0|mc:179457|mtp:S|qry_typ:P|lang:en|wc:3|cs:8898|v=4,False,,Ahmedabad,"B-501, Kalpatru Residency, Opp Ratanpura Lake Vastral, Ahmedabad - 382418, Dist.Ahmedabad, Gujarat",8044457060,
20l Water Dispenser Bottle Cover Non Woven Different Colors,https://www.indiamart.com/proddetail/20l-water-dispenser-bottle-cover-non-woven-different-colors-27017298162.html?pos=81&kwd=baby bottle cover&tags=||||8752.144|Price|product|||TS|rsf:gd-|-stype:attr=1|qr_nm:gd|res:RC4|com-cf:nl|ptrs:na|ktp:N0|mc:179457|mtp:S|qry_typ:P|lang:en|wc:3|cs:8898|v=4,JJ Enterprises,https://www.indiamart.com/j-jenterprises-delhi/?pos=81&kwd=baby bottle cover&tags=||||8752.144|Price|product|||TS|rsf:gd-|-stype:attr=1|qr_nm:gd|res:RC4|com-cf:nl|ptrs:na|ktp:N0|mc:179457|mtp:S|qry_typ:P|lang:en|wc:3|cs:8898|v=4,False,Mandoli,New Delhi,"J-8, GATE NO-4, 2ND FLOOR MELA RAM FARM HOUSE SEWADHAM ROAD MANDOLI, Mandoli, New Delhi - 110093, Dist.Delhi, Delhi",8048605736,
"White Loop Handle Double R Canvas Travel Tote Bag, Size/Dimension: 12 X 6 X 3 cm",https://www.indiamart.com/proddetail/double-r-canvas-travel-tote-bag-23534184062.html?pos=82&kwd=baby bottle cover&tags=||||8785.791|Price|product|||TS|rsf:gd-|-stype:attr=1|qr_nm:gd|res:RC4|com-cf:nl|ptrs:na|ktp:N0|mc:179457|mtp:S|qry_typ:P|lang:en|wc:3|cs:8898|v=4,M/s Ram Lal Ram Chander (india) Ltd.,https://www.indiamart.com/ramlal-ram-chander-india/?pos=82&kwd=baby bottle cover&tags=||||8785.791|Price|product|||TS|rsf:gd-|-stype:attr=1|qr_nm:gd|res:RC4|com-cf:nl|ptrs:na|ktp:N0|mc:179457|mtp:S|qry_typ:P|lang:en|wc:3|cs:8898|v=4,False,Trans Delhi Signature City,Ghaziabad,"A-8, Sec A-3 Tronica City, Loni, Trans Delhi Signature City, Ghaziabad - 201102, Dist.Ghaziabad, Uttar Pradesh",8048952398,
"Loop Handle Plain Green Bottle Jute Bag, Capacity: 6 kg",https://www.indiamart.com/proddetail/green-bottle-jute-bag-23855116291.html?pos=83&kwd=baby bottle cover&tags=||||9839.57|Price|product|||TS|rsf:gd-|-stype:attr=1|qr_nm:gd|res:RC4|com-cf:nl|ptrs:na|ktp:N0|mc:179457|mtp:S|qry_typ:P|lang:en|wc:3|cs:8898|v=4,Earthyy Bags,https://www.jutecottonbags.in/?pos=83&kwd=baby bottle cover&tags=||||9839.57|Price|product|||TS|rsf:gd-|-stype:attr=1|qr_nm:gd|res:RC4|com-cf:nl|ptrs:na|ktp:N0|mc:179457|mtp:S|qry_typ:P|lang:en|wc:3|cs:8898|v=4,True,Shakespeare Sarani,Kolkata,"2, Suite No-2b, Gajraj Point, 209a, A J C Bose Road, A J C Bose Road, Shakespeare Sarani, Kolkata - 700017, Dist.Kolkata, West Bengal",8048976587,
Polyester Plain Water Bottle Cover,https://www.indiamart.com/proddetail/plain-water-bottle-cover-17523582433.html?pos=84&kwd=baby bottle cover&tags=||||8752.144|Price|product|||TS|rsf:gd-|-stype:attr=1|qr_nm:gd|res:RC4|com-cf:nl|ptrs:na|ktp:N0|mc:179457|mtp:S|qry_typ:P|lang:en|wc:3|cs:8898|v=4,Dream Care Furnishings Private Limited,https://www.indiamart.com/dreamcare/?pos=84&kwd=baby bottle cover&tags=||||8752.144|Price|product|||TS|rsf:gd-|-stype:attr=1|qr_nm:gd|res:RC4|com-cf:nl|ptrs:na|ktp:N0|mc:179457|mtp:S|qry_typ:P|lang:en|wc:3|cs:8898|v=4,False,Patparganj Industrial Area,New Delhi,"44, Patparganj Industrial Area, New Delhi - 110092, Dist.Delhi, Delhi",8048969333,
Polyester Dispenser Water Bottle Cover,https://www.indiamart.com/proddetail/dispenser-water-bottle-cover-2851304799962.html?pos=85&kwd=baby bottle cover&tags=||||8752.144|Price|product|||MDC|rsf:gd-|-stype:attr=1|qr_nm:gd|res:RC4|com-cf:nl|ptrs:na|ktp:N0|mc:179457|mtp:S|qry_typ:P|lang:en|wc:3|cs:8898|v=4,AK Trader Center,https://www.indiamart.com/ak-trader-center/?pos=85&kwd=baby bottle cover&tags=||||8752.144|Price|product|||MDC|rsf:gd-|-stype:attr=1|qr_nm:gd|res:RC4|com-cf:nl|ptrs:na|ktp:N0|mc:179457|mtp:S|qry_typ:P|lang:en|wc:3|cs:8898|v=4,False,Malka Ganj,New Delhi,"1st Floor, 627, Kabir Basti, Central, Malka Ganj, New Delhi - 110007, Dist.Delhi, Delhi",7942837216,
Water Bottle Cover,https://www.indiamart.com/proddetail/water-bottle-cover-2851653293212.html?pos=86&kwd=baby bottle cover&tags=||||8752.144|Price|product|||MDC|rsf:gd-|-stype:attr=1|qr_nm:gd|res:RC4|com-cf:nl|ptrs:na|ktp:N0|mc:179457|mtp:S|qry_typ:P|lang:en|wc:3|cs:8898|v=4,S.R. Bags,https://www.indiamart.com/sr-bags-newdelhi/?pos=86&kwd=baby bottle cover&tags=||||8752.144|Price|product|||MDC|rsf:gd-|-stype:attr=1|qr_nm:gd|res:RC4|com-cf:nl|ptrs:na|ktp:N0|mc:179457|mtp:S|qry_typ:P|lang:en|wc:3|cs:8898|v=4,False,Burari,New Delhi,"A-178, Nathu Pura, Burari, North Delhi,, Burari, New Delhi - 110084, Dist.Delhi, Delhi",7942841558,
Brown PVC Dispensers Bottle Cover,https://www.indiamart.com/proddetail/pvc-dispensers-bottle-cover-2854355340930.html?pos=87&kwd=baby bottle cover&tags=||||8752.144|Price|product|||MDC|rsf:gd-|-stype:attr=1|qr_nm:gd|res:RC4|com-cf:nl|ptrs:na|ktp:N0|mc:179457|mtp:S|qry_typ:P|lang:en|wc:3|cs:8898|v=4,Vaibhav Laxmi Handloom,https://www.indiamart.com/vaibhav-laxmi-handloom/?pos=87&kwd=baby bottle cover&tags=||||8752.144|Price|product|||MDC|rsf:gd-|-stype:attr=1|qr_nm:gd|res:RC4|com-cf:nl|ptrs:na|ktp:N0|mc:179457|mtp:S|qry_typ:P|lang:en|wc:3|cs:8898|v=4,False,,New Delhi,"F/f, A-274, New Sanjay Amar Colony, Gali No 6, Shahdara, New Delhi - 110032, Dist.Delhi, Delhi",7949338442,
Natural Loop Handle Jute Water Bottle Bag,https://www.indiamart.com/proddetail/jute-water-bottle-bag-27205184291.html?pos=88&kwd=baby bottle cover&tags=||||8223.226|Price|product|||TS|rsf:gd-|-stype:attr=1|qr_nm:gd|res:RC4|com-cf:nl|ptrs:na|ktp:N0|mc:179457|mtp:S|qry_typ:P|lang:en|wc:3|cs:8898|v=4,Tanisha Graphics,https://www.indiamart.com/tanisha-graphics/?pos=88&kwd=baby bottle cover&tags=||||8223.226|Price|product|||TS|rsf:gd-|-stype:attr=1|qr_nm:gd|res:RC4|com-cf:nl|ptrs:na|ktp:N0|mc:179457|mtp:S|qry_typ:P|lang:en|wc:3|cs:8898|v=4,False,Thane West,Thane,"Gala No 108,109,First Fllor,Shiv Anand Udyog Sankul,L B S Road,Makhmali Talao Thane West, Thane West, Thane - 400601, Dist.Thane, Maharashtra",7942565902,
"Brown Water Bottle Jute Bag, Capacity: 1.5 Letter, Size: 1.5 Lter",https://www.indiamart.com/proddetail/water-bottle-jute-bag-2850672558555.html?pos=89&kwd=baby bottle cover&tags=||||8778.123|Price|product|||TS|rsf:gd-|-stype:attr=1|qr_nm:gd|res:RC4|com-cf:nl|ptrs:na|ktp:N0|mc:179457|mtp:S|qry_typ:P|lang:en|wc:3|cs:8898|v=4,Savi Goodness Enterprises,https://www.saviebags.in/?pos=89&kwd=baby bottle cover&tags=||||8778.123|Price|product|||TS|rsf:gd-|-stype:attr=1|qr_nm:gd|res:RC4|com-cf:nl|ptrs:na|ktp:N0|mc:179457|mtp:S|qry_typ:P|lang:en|wc:3|cs:8898|v=4,False,Sector 63,Noida,"G/F Half Portion, G-89, Sector-63, Sector 63, Noida - 201301, Dist.Gautam Budh Nagar, Uttar Pradesh",8043859869,
Feeder Cover,https://www.indiamart.com/proddetail/feeder-cover-16235956188.html?pos=90&kwd=baby bottle cover&tags=||||8545.6045|Price|product|||MDC|rsf:gd-|-stype:attr=1|qr_nm:gd|res:RC4|com-cf:nl|ptrs:na|ktp:N0|mc:179457|mtp:S|qry_typ:P|lang:en|wc:3|cs:8898|v=4,Shraddha Saburi,https://www.indiamart.com/shraddhasaburi/?pos=90&kwd=baby bottle cover&tags=||||8545.6045|Price|product|||MDC|rsf:gd-|-stype:attr=1|qr_nm:gd|res:RC4|com-cf:nl|ptrs:na|ktp:N0|mc:179457|mtp:S|qry_typ:P|lang:en|wc:3|cs:8898|v=4,False,Cantonment Area,Firozpur,"263, Suji Bazar, M/s Shraddha Saburi, Ferozepur Cantt, Cantonment Area, Firozpur - 152001, Dist.Firozpur, Punjab",8048979628,
Baby Feeding Bottle Cover,https://www.indiamart.com/proddetail/baby-feeding-bottle-cover-2586362788.html?pos=91&kwd=baby bottle cover&tags=||||8752.144|Price|product|||TS|rsf:gd-|-stype:attr=1|qr_nm:gd|res:RC4|com-cf:nl|ptrs:na|ktp:N0|mc:179457|mtp:S|qry_typ:P|lang:en|wc:3|cs:8898|v=4,Dolphin Baby Product,https://www.dolphinbabyproducts.com/?pos=91&kwd=baby bottle cover&tags=||||8752.144|Price|product|||TS|rsf:gd-|-stype:attr=1|qr_nm:gd|res:RC4|com-cf:nl|ptrs:na|ktp:N0|mc:179457|mtp:S|qry_typ:P|lang:en|wc:3|cs:8898|v=4,False,Inderlok,New Delhi,"No. 488, 1st Floor, Shahzada Bagh, Industrial Area Phase 1, Inderlok, New Delhi - 110035, Dist.Delhi, Delhi",8048965296,
"Cotton Water Bottle Bags, Capacity: 2 L",https://www.indiamart.com/proddetail/cotton-water-bottle-bags-25940852262.html?pos=92&kwd=baby bottle cover&tags=||||8230.883|Price|product|||TS|rsf:gd-|-stype:attr=1|qr_nm:gd|res:RC4|com-cf:nl|ptrs:na|ktp:N0|mc:179457|mtp:S|qry_typ:P|lang:en|wc:3|cs:8898|v=4,I Khodal Bag Private Limited,https://www.ikhodalbag.in/?pos=92&kwd=baby bottle cover&tags=||||8230.883|Price|product|||TS|rsf:gd-|-stype:attr=1|qr_nm:gd|res:RC4|com-cf:nl|ptrs:na|ktp:N0|mc:179457|mtp:S|qry_typ:P|lang:en|wc:3|cs:8898|v=4,True,Kholvad,Surat,"62 Siddhi Vinayak Ind, Opp Opera Palace, Kholvad Road, Laskana, Kholvad, Surat - 394190, Dist.Surat, Gujarat",8047672317,
Bottle Canvas Bag,https://www.indiamart.com/proddetail/bottle-canvas-bag-2852629922573.html?pos=93&kwd=baby bottle cover&tags=||||9839.57|Price|product|||MDC|rsf:gd-|-stype:attr=1|qr_nm:gd|res:RC4|com-cf:nl|ptrs:na|ktp:N0|mc:179457|mtp:S|qry_typ:P|lang:en|wc:3|cs:8898|v=4,Labito,https://www.indiamart.com/labito/?pos=93&kwd=baby bottle cover&tags=||||9839.57|Price|product|||MDC|rsf:gd-|-stype:attr=1|qr_nm:gd|res:RC4|com-cf:nl|ptrs:na|ktp:N0|mc:179457|mtp:S|qry_typ:P|lang:en|wc:3|cs:8898|v=4,False,Tangra,Kolkata,"54/10 Debendra Chandra Dey Road Tangra (near dhapa road), Tangra, Kolkata - 700015, Dist.Kolkata, West Bengal",8048613380,
Loop Handle 40X25X15cm Rexine Baby Bottle Bag,https://www.indiamart.com/proddetail/40x25x15cm-rexine-baby-bottle-bag-25932795912.html?pos=94&kwd=baby bottle cover&tags=||||8752.144|Price|product|||MDC|rsf:gd-|-stype:attr=1|qr_nm:gd|res:RC4|com-cf:nl|ptrs:na|ktp:N0|mc:179457|mtp:S|qry_typ:P|lang:en|wc:3|cs:8898|v=4,Akhlaq Bags Industry,https://www.indiamart.com/akhlaqbagsindustry/?pos=94&kwd=baby bottle cover&tags=||||8752.144|Price|product|||MDC|rsf:gd-|-stype:attr=1|qr_nm:gd|res:RC4|com-cf:nl|ptrs:na|ktp:N0|mc:179457|mtp:S|qry_typ:P|lang:en|wc:3|cs:8898|v=4,False,Khazoori Khas,New Delhi,"Kh No 106, First Floor, Gali No B-17, Vill Khajoori Khas, New Delhi, Khazoori Khas, New Delhi - 110094, Dist.Delhi, Delhi",8047676498,
Nitasha 20l Water Dispenser Bottle Cover,https://www.indiamart.com/proddetail/nitasha-20l-water-dispenser-bottle-cover-23280633730.html?pos=95&kwd=baby bottle cover&tags=||||8785.791|Price|product|||TS|rsf:gd-|-stype:attr=1|qr_nm:gd|res:RC4|com-cf:nl|ptrs:na|ktp:N0|mc:179457|mtp:S|qry_typ:P|lang:en|wc:3|cs:8898|v=4,Nitasha Enterprises,https://www.jndecorhome.com/?pos=95&kwd=baby bottle cover&tags=||||8785.791|Price|product|||TS|rsf:gd-|-stype:attr=1|qr_nm:gd|res:RC4|com-cf:nl|ptrs:na|ktp:N0|mc:179457|mtp:S|qry_typ:P|lang:en|wc:3|cs:8898|v=4,False,Sahibabad,Ghaziabad,"Ground Floor Plot No G-1 Lajpat Nagar ,Sahibabad, Sahibabad, Ghaziabad - 201005, Dist.Ghaziabad, Uttar Pradesh",8048977834,
Cotton Water Bottle Cover,,Utkarsh Corporation,https://www.indiamart.com/utkarsh-corporation/?pos=96&kwd=baby bottle cover&tags=||||9045.955|Price|product|||MDC|rsf:gd-|-stype:attr=1|qr_nm:gd|res:RC4|com-cf:nl|ptrs:na|ktp:N0|mc:179457|mtp:S|qry_typ:P|lang:en|wc:3|cs:8898|v=4,False,Acharyanagar,Kanpur,"Shri Bankey Bihari Dharmkanta Ke Bagal Me, 84/60 Lal Bankey Street, G.T.Road, Acharyanagar, Kanpur - 208003, Uttar Pradesh",7942815630,
Single Bottle Jute Wine Bag,https://www.indiamart.com/proddetail/single-bottle-jute-wine-bag-2853439944533.html?pos=97&kwd=baby bottle cover&tags=||||10180.86|Price|product|||TS|rsf:gd-|-stype:attr=1|qr_nm:gd|res:RC4|com-cf:nl|ptrs:na|ktp:N0|mc:179457|mtp:S|qry_typ:P|lang:en|wc:3|cs:8898|v=4,Bafa Bags India Private Limited,https://www.burlapmart.in/?pos=97&kwd=baby bottle cover&tags=||||10180.86|Price|product|||TS|rsf:gd-|-stype:attr=1|qr_nm:gd|res:RC4|com-cf:nl|ptrs:na|ktp:N0|mc:179457|mtp:S|qry_typ:P|lang:en|wc:3|cs:8898|v=4,True,,Guwahati,"11, Panjabari, Ward 31, Ambari, Guwahati - 781037, Dist.Kamrup, Assam",7948547066,
Brown Jute Water Bottle Bag,https://www.indiamart.com/proddetail/jute-water-bottle-bag-2852786798688.html?pos=98&kwd=baby bottle cover&tags=||||8813.969|Price|product|||TS|rsf:gd-|-stype:attr=1|qr_nm:gd|res:RC4|com-cf:nl|ptrs:na|ktp:N0|mc:179457|mtp:S|qry_typ:P|lang:en|wc:3|cs:8898|v=4,R.R. Enterprises,https://www.totel.co.in/?pos=98&kwd=baby bottle cover&tags=||||8813.969|Price|product|||TS|rsf:gd-|-stype:attr=1|qr_nm:gd|res:RC4|com-cf:nl|ptrs:na|ktp:N0|mc:179457|mtp:S|qry_typ:P|lang:en|wc:3|cs:8898|v=4,False,Panchli Khurd,Meerut,"A-1, Vishwakarma, Panchli Industrial Area, Meerut,, Panchli Khurd, Meerut - 250002, Dist.Meerut, Uttar Pradesh",8046054649,
Rope Handle Plain Water Bottle Jute Bag,https://www.indiamart.com/proddetail/water-bottle-jute-bag-22888327262.html?pos=99&kwd=baby bottle cover&tags=||||8752.144|Price|product|||TS|rsf:gd-|-stype:attr=1|qr_nm:gd|res:RC4|com-cf:nl|ptrs:na|ktp:N0|mc:179457|mtp:S|qry_typ:P|lang:en|wc:3|cs:8898|v=4,Nuzhat Jute Bags Factory Private Limited,https://www.nuzhatjutebags.com/?pos=99&kwd=baby bottle cover&tags=||||8752.144|Price|product|||TS|rsf:gd-|-stype:attr=1|qr_nm:gd|res:RC4|com-cf:nl|ptrs:na|ktp:N0|mc:179457|mtp:S|qry_typ:P|lang:en|wc:3|cs:8898|v=4,False,New Mustafabad,New Delhi,"No 45.1/3, Ground Floor, D-Block, Nehru Vihar, New Mustafabad, New Delhi - 110094, Dist.Delhi, Delhi",8048616509,
PVC Stylista Water Dispenser Bottle Cover,https://www.indiamart.com/proddetail/stylista-water-dispenser-bottle-cover-2854426860073.html?pos=100&kwd=baby bottle cover&tags=||||8752.144|Price|product|||MDC|rsf:gd-|-stype:attr=1|qr_nm:gd|res:RC4|com-cf:nl|ptrs:na|ktp:N0|mc:179457|mtp:S|qry_typ:P|lang:en|wc:3|cs:8898|v=4,Meena Enterprises,https://www.indiamart.com/meenaenterprises-new-delhi/?pos=100&kwd=baby bottle cover&tags=||||8752.144|Price|product|||MDC|rsf:gd-|-stype:attr=1|qr_nm:gd|res:RC4|com-cf:nl|ptrs:na|ktp:N0|mc:179457|mtp:S|qry_typ:P|lang:en|wc:3|cs:8898|v=4,False,Tehkhand,New Delhi,"Z-25, First Floor, Okhla Industrial Area, Phase-2, Tehkhand, New Delhi - 110020, Dist.Delhi, Delhi",7942671196,
"Natural Cotton Canvas Water Bottle, 1 kg, Size: 13""*7""",https://www.indiamart.com/proddetail/cotton-canvas-water-bottle-20190848773.html?pos=101&kwd=baby bottle cover&tags=||||8626.744|Price|product|||TS|rsf:gd-|-stype:attr=1|qr_nm:gd|res:RC4|com-cf:nl|ptrs:na|ktp:N0|mc:179457|mtp:S|qry_typ:P|lang:en|wc:3|cs:8898|v=4,SSS Sourcings,https://www.sssecobags.com/?pos=101&kwd=baby bottle cover&tags=||||8626.744|Price|product|||TS|rsf:gd-|-stype:attr=1|qr_nm:gd|res:RC4|com-cf:nl|ptrs:na|ktp:N0|mc:179457|mtp:S|qry_typ:P|lang:en|wc:3|cs:8898|v=4,False,Karuvampalayam,Tiruppur,"8-1 5a, K.r.r.layout Ist Street, Opp. Diamond Theatre, Karuvampalayam, Tiruppur - 641604, Dist.Coimbatore, Tamil Nadu",8048264913,
Natural Loop Handle Water Bottle Jute Bag,https://www.indiamart.com/proddetail/water-bottle-jute-bag-2853463630633.html?pos=102&kwd=baby bottle cover&tags=||||8861.147|Price|product|||MDC|rsf:gd-|-stype:attr=1|qr_nm:gd|res:RC4|com-cf:nl|ptrs:na|ktp:N0|mc:179457|mtp:S|qry_typ:P|lang:en|wc:3|cs:8898|v=4,Rockson Services & Solutions,https://www.indiamart.com/rockson-services-solutions/?pos=102&kwd=baby bottle cover&tags=||||8861.147|Price|product|||MDC|rsf:gd-|-stype:attr=1|qr_nm:gd|res:RC4|com-cf:nl|ptrs:na|ktp:N0|mc:179457|mtp:S|qry_typ:P|lang:en|wc:3|cs:8898|v=4,False,Purani Mandi,Firozabad,"Gali No 21,kohinoor Road, Noor Nagar,, Purani Mandi, Firozabad - 283203, Dist.Firozabad, Uttar Pradesh",8043841794,
Neoprene Bottle Cover,https://www.indiamart.com/proddetail/neoprene-bottle-cover-2854130777773.html?pos=103&kwd=baby bottle cover&tags=||||8876.815|Price|product|||TS|rsf:gd-|-stype:attr=1|qr_nm:gd|res:RC4|com-cf:nl|ptrs:na|ktp:N0|mc:179457|mtp:S|qry_typ:P|lang:en|wc:3|cs:8898|v=4,Vision Bags,https://www.indiamart.com/visionbags-novelties/?pos=103&kwd=baby bottle cover&tags=||||8876.815|Price|product|||TS|rsf:gd-|-stype:attr=1|qr_nm:gd|res:RC4|com-cf:nl|ptrs:na|ktp:N0|mc:179457|mtp:S|qry_typ:P|lang:en|wc:3|cs:8898|v=4,True,Malipura,Nagpur,"Sangharsh Nagar Square, wathoda Ring road,, Malipura, Nagpur - 440009, Dist.Nagpur, Maharashtra",8048954849,
Red Bottle Jute Bag,https://www.indiamart.com/proddetail/bottle-jute-bag-2850442222133.html?pos=104&kwd=baby bottle cover&tags=||||8752.144|Price|product|||TS|rsf:gd-|-stype:attr=1|qr_nm:gd|res:RC4|com-cf:nl|ptrs:na|ktp:N0|mc:179457|mtp:S|qry_typ:P|lang:en|wc:3|cs:8898|v=4,Chatta Canvas Co.,https://www.delhibagfactory.com/?pos=104&kwd=baby bottle cover&tags=||||8752.144|Price|product|||TS|rsf:gd-|-stype:attr=1|qr_nm:gd|res:RC4|com-cf:nl|ptrs:na|ktp:N0|mc:179457|mtp:S|qry_typ:P|lang:en|wc:3|cs:8898|v=4,False,Teliwara,New Delhi,"Shop No. 179-180 & 375, Azad Market, Teliwara, New Delhi - 110006, Dist.Delhi, Delhi",7942562737,
Canvas Water Bottle Bag,https://www.indiamart.com/proddetail/canvas-water-bottle-bag-2851569796855.html?pos=105&kwd=baby bottle cover&tags=||||8353.853|Price|product|||TS|rsf:gd-|-stype:attr=1|qr_nm:gd|res:RC4|com-cf:nl|ptrs:na|ktp:N0|mc:179457|mtp:S|qry_typ:P|lang:en|wc:3|cs:8898|v=4,Prabhu Naidu Private Limited,https://www.indiamart.com/happy-soap-making/?pos=105&kwd=baby bottle cover&tags=||||8353.853|Price|product|||TS|rsf:gd-|-stype:attr=1|qr_nm:gd|res:RC4|com-cf:nl|ptrs:na|ktp:N0|mc:179457|mtp:S|qry_typ:P|lang:en|wc:3|cs:8898|v=4,True,Mumbai,Ichalakaranji,"Gat No. 524 F No. B - 11 Radhakrishnan Market Ichalkaranji, Hatkanangale Kolhapur Maharashtra, Mumbai, Ichalakaranji - 416115, Maharashtra",8048982055,
PVC Water Dispenser Bottle Cover,https://www.indiamart.com/proddetail/water-dispenser-bottle-cover-2854162136848.html?pos=106&kwd=baby bottle cover&tags=||||8752.144|Price|product|||TS|rsf:gd-|-stype:attr=1|qr_nm:gd|res:RC4|com-cf:nl|ptrs:na|ktp:N0|mc:179457|mtp:S|qry_typ:P|lang:en|wc:3|cs:8898|v=4,VK Enterprises,https://www.indiamart.com/vkenterprises-newdelhi-india/?pos=106&kwd=baby bottle cover&tags=||||8752.144|Price|product|||TS|rsf:gd-|-stype:attr=1|qr_nm:gd|res:RC4|com-cf:nl|ptrs:na|ktp:N0|mc:179457|mtp:S|qry_typ:P|lang:en|wc:3|cs:8898|v=4,False,Mohan Garden,New Delhi,"House No-66, Blk-R3-A3 Mohan Garden, West Delhi, Mohan Garden, New Delhi - 110059, Dist.Delhi, Delhi",8047658467,
"Rubber Blue, Red EQUINOX HOT WATER BOTTLE WITH COVER, Size: 1 L",https://www.indiamart.com/proddetail/equinox-hot-water-bottle-with-cover-17862707233.html?pos=107&kwd=baby bottle cover&tags=||||8954.051|Price|product|||TS|rsf:gd-|-stype:attr=1|qr_nm:gd|res:RC4|com-cf:nl|ptrs:na|ktp:N0|mc:179457|mtp:S|qry_typ:P|lang:en|wc:3|cs:8898|v=4,Sterling Diagnostics & Therapy Equipments Private Limited,https://www.indiamart.com/sterlingdiagnostics-therapy/?pos=107&kwd=baby bottle cover&tags=||||8954.051|Price|product|||TS|rsf:gd-|-stype:attr=1|qr_nm:gd|res:RC4|com-cf:nl|ptrs:na|ktp:N0|mc:179457|mtp:S|qry_typ:P|lang:en|wc:3|cs:8898|v=4,False,Arumbakkam,Chennai,"F2-B, Raksha Towers, No. 600/601, P. H. Road, Arumbakkam, Chennai - 600106, Dist.Chennai, Tamil Nadu",8046071223,
Black (Base) Rope Handle Printed Bottle Jute Bag,https://www.indiamart.com/proddetail/printed-bottle-jute-bag-2854901137897.html?pos=108&kwd=baby bottle cover&tags=||||9842.824|Price|product|||MDC|rsf:gd-|-stype:attr=1|qr_nm:gd|res:RC4|com-cf:nl|ptrs:na|ktp:N0|mc:179457|mtp:S|qry_typ:P|lang:en|wc:3|cs:8898|v=4,Rapidoes,https://www.indiamart.com/rapidoes/?pos=108&kwd=baby bottle cover&tags=||||9842.824|Price|product|||MDC|rsf:gd-|-stype:attr=1|qr_nm:gd|res:RC4|com-cf:nl|ptrs:na|ktp:N0|mc:179457|mtp:S|qry_typ:P|lang:en|wc:3|cs:8898|v=4,False,,Hooghly,"Bara Bahera, Shashtri Nagar, Uttarpara, Hooghly - 712246, Dist.Hooghly, West Bengal",8048602077,
"Brown Jute Bottle Bag, Capacity: 15 Lt",https://www.indiamart.com/proddetail/jute-bottle-bag-19855854191.html?pos=109&kwd=baby bottle cover&tags=||||8228.275|Price|product|||TS|rsf:gd-|-stype:attr=1|qr_nm:gd|res:RC4|com-cf:nl|ptrs:na|ktp:N0|mc:179457|mtp:S|qry_typ:P|lang:en|wc:3|cs:8898|v=4,Blivus Trade Link,https://www.indiamart.com/blivustradelink-rajkot/?pos=109&kwd=baby bottle cover&tags=||||8228.275|Price|product|||TS|rsf:gd-|-stype:attr=1|qr_nm:gd|res:RC4|com-cf:nl|ptrs:na|ktp:N0|mc:179457|mtp:S|qry_typ:P|lang:en|wc:3|cs:8898|v=4,False,Odhav,Ahmedabad,"H-302, Sumal-7, Soni in chawl, Odhav, National Highway Rakhial Fly Over, 8, Narol - Naroda Rd, Odhav, Ahmedabad - 382350, Dist.Ahmedabad, Gujarat",8047642183,
Jute Bottle Bag,https://www.indiamart.com/proddetail/jute-bottle-bag-2854385535273.html?pos=110&kwd=baby bottle cover&tags=||||8211.142|Price|product|||TS|rsf:gd-|-stype:attr=1|qr_nm:gd|res:RC4|com-cf:nl|ptrs:na|ktp:N0|mc:179457|mtp:S|qry_typ:P|lang:en|wc:3|cs:8898|v=4,Rainbow Packaging,https://www.therainbowpackaging.com/?pos=110&kwd=baby bottle cover&tags=||||8211.142|Price|product|||TS|rsf:gd-|-stype:attr=1|qr_nm:gd|res:RC4|com-cf:nl|ptrs:na|ktp:N0|mc:179457|mtp:S|qry_typ:P|lang:en|wc:3|cs:8898|v=4,False,Ghatkopar (East),Mumbai,"A/110, Kanara Business Centre, Laxmi Nagar, Link Road, Ghatkopar (East), Ghatkopar (East), Mumbai - 400075, Dist.Mumbai, Maharashtra",8045729658,
Loop Handle Bottle Jute Bag,https://www.indiamart.com/proddetail/bottle-jute-bag-2854453679691.html?pos=111&kwd=baby bottle cover&tags=||||9843.627|Price|product|||TS|rsf:gd-|-stype:attr=1|qr_nm:gd|res:RC4|com-cf:nl|ptrs:na|ktp:N0|mc:179457|mtp:S|qry_typ:P|lang:en|wc:3|cs:8898|v=4,Rajyashree Jute Udyog,https://www.indiamart.com/rajyashree-jute-udyog/?pos=111&kwd=baby bottle cover&tags=||||9843.627|Price|product|||TS|rsf:gd-|-stype:attr=1|qr_nm:gd|res:RC4|com-cf:nl|ptrs:na|ktp:N0|mc:179457|mtp:S|qry_typ:P|lang:en|wc:3|cs:8898|v=4,False,,North 24 Parganas,"Ground-fl Fl-g-a, 99, Viveknagar, Near Indian Petrol Pump, Titagarh, Titagarh, North 24 Parganas - 700119, Dist.North 24 Parganas, West Bengal",7949337139,
Loop Handle DOUBLE BOTTLE JUTE BAG ASSORTED PRINTS,https://www.indiamart.com/proddetail/double-bottle-jute-bag-assorted-prints-2854301259848.html?pos=112&kwd=baby bottle cover&tags=||||8211.142|Price|product|||TS|rsf:gd-|-stype:attr=1|qr_nm:gd|res:RC4|com-cf:nl|ptrs:na|ktp:N0|mc:179457|mtp:S|qry_typ:P|lang:en|wc:3|cs:8898|v=4,Shree Shyam Baba Textiles,https://www.indiamart.com/shreeshyambabatextiles/?pos=112&kwd=baby bottle cover&tags=||||8211.142|Price|product|||TS|rsf:gd-|-stype:attr=1|qr_nm:gd|res:RC4|com-cf:nl|ptrs:na|ktp:N0|mc:179457|mtp:S|qry_typ:P|lang:en|wc:3|cs:8898|v=4,False,Malad West,Mumbai,"Shop No. 39, Malad Shopping Center, S. V. Road Malad West, Malad West, Mumbai - 400064, Dist.Mumbai, Maharashtra",8048970849,
White And Red Jute Bottle Bag,https://www.indiamart.com/proddetail/jute-bottle-bag-19244528333.html?pos=113&kwd=baby bottle cover&tags=||||9839.57|Price|product|||TS|rsf:gd-|-stype:attr=1|qr_nm:gd|res:RC4|com-cf:nl|ptrs:na|ktp:N0|mc:179457|mtp:S|qry_typ:P|lang:en|wc:3|cs:8898|v=4,Basu Jutex Private Limited,https://www.basujutex.com/?pos=113&kwd=baby bottle cover&tags=||||9839.57|Price|product|||TS|rsf:gd-|-stype:attr=1|qr_nm:gd|res:RC4|com-cf:nl|ptrs:na|ktp:N0|mc:179457|mtp:S|qry_typ:P|lang:en|wc:3|cs:8898|v=4,True,Rahara,Kolkata,"No. 116/99/1, Madaripur Pally, Post Rahara District 24 Parganas North, Rahara, Kolkata - 700118, Dist.Kolkata, West Bengal",8048971529,
Eiffel Textiles White Cotton Bottle Cover,https://www.indiamart.com/proddetail/cotton-bottle-cover-20974019388.html?pos=114&kwd=baby bottle cover&tags=||||8747.203|Price|product|||TS|rsf:gd-|-stype:attr=1|qr_nm:gd|res:RC4|com-cf:nl|ptrs:na|ktp:N0|mc:179457|mtp:S|qry_typ:P|lang:en|wc:3|cs:8898|v=4,Radhika Industries,https://www.indiamart.com/radhika-industries-panipat/?pos=114&kwd=baby bottle cover&tags=||||8747.203|Price|product|||TS|rsf:gd-|-stype:attr=1|qr_nm:gd|res:RC4|com-cf:nl|ptrs:na|ktp:N0|mc:179457|mtp:S|qry_typ:P|lang:en|wc:3|cs:8898|v=4,False,Model Town,Panipat,"No. 326- L, Model Town, Panipat - 132103, Dist.Panipat, Haryana",8046042935,
Baby First Step Baby Bottle Cover,https://www.indiamart.com/proddetail/baby-bottle-cover-16904231812.html?pos=115&kwd=baby bottle cover&tags=CA||||8211.142|Price|product|||NA|rsf:gd-|-stype:attr=1|qr_nm:gd|res:RC4|com-cf:nl|ptrs:na|ktp:N0|mc:179457|mtp:S|qry_typ:P|lang:en|wc:3|cs:8898|v=4,Baby First Step,https://www.indiamart.com/babyfirststep/?pos=115&kwd=baby bottle cover&tags=CA||||8211.142|Price|product|||NA|rsf:gd-|-stype:attr=1|qr_nm:gd|res:RC4|com-cf:nl|ptrs:na|ktp:N0|mc:179457|mtp:S|qry_typ:P|lang:en|wc:3|cs:8898|v=4,False,Umerkhadi,Mumbai,"DP 13 TEEN DONGRI PREM NGR,SHIV SHANKAR WELFARE SOCIETY, UNNAT NAGAR ROAD 2,GOREGAON WEST DP 13, 3 Dongri Prem Nagar, Shiv Shankar Welfare Society, Unnat Nagar Road 2,400063,Mumbai, Umerkhadi, Mumbai - 400062, Dist.Mumbai, Maharashtra",8048371815,292
Baby Feeding Bottle Cover with Zip Closure,https://www.indiamart.com/proddetail/baby-feeding-bottle-cover-with-zip-closure-20563272948.html?pos=116&kwd=baby bottle cover&tags=CA||||8601.347||product|||NA|rsf:gd-|-stype:attr=1|qr_nm:gd|res:RC4|com-cf:nl|ptrs:na|ktp:N0|mc:179457|mtp:S|qry_typ:P|lang:en|wc:3|cs:8898|v=4,Gurukripa Dresses,https://www.indiamart.com/guru-kripa-dresses-jaipur/?pos=116&kwd=baby bottle cover&tags=CA||||8601.347||product|||NA|rsf:gd-|-stype:attr=1|qr_nm:gd|res:RC4|com-cf:nl|ptrs:na|ktp:N0|mc:179457|mtp:S|qry_typ:P|lang:en|wc:3|cs:8898|v=4,False,Sitapura,Jaipur,"185/51, Pratap Nagar, Sitapura, Jaipur - 302033, Dist.Jaipur, Rajasthan",8048207293,
Multicolor Baby Fancy Feeding Bottle Covers,https://www.indiamart.com/proddetail/baby-fancy-feeding-bottle-covers-19769499555.html?pos=117&kwd=baby bottle cover&tags=CA||||8230.331|Price|product|||NA|rsf:gd-|-stype:attr=1|qr_nm:gd|res:RC4|com-cf:nl|ptrs:na|ktp:N0|mc:179457|mtp:S|qry_typ:P|lang:en|wc:3|cs:8898|v=4,Lifeline Medical And Provision Store,https://www.indiamart.com/lifelinemedicalprovisionstores/?pos=117&kwd=baby bottle cover&tags=CA||||8230.331|Price|product|||NA|rsf:gd-|-stype:attr=1|qr_nm:gd|res:RC4|com-cf:nl|ptrs:na|ktp:N0|mc:179457|mtp:S|qry_typ:P|lang:en|wc:3|cs:8898|v=4,False,Kanodar,Palanpur,"Opposite Bakri Building, Main Bazar, Kanodar, Palanpur - 385520, Dist.Banaskantha, Gujarat",8048371869,968
"Matte And Nonwoven Loop Handle Water Bottle Cover Insulated, Capacity: 1 Litre",https://www.indiamart.com/proddetail/water-bottle-cover-insulated-2851978360333.html?pos=118&kwd=baby bottle cover&tags=||||8752.144|Price|product|||TS|rsf:gd-|-stype:attr=1|qr_nm:gd|res:RC4|com-cf:nl|ptrs:na|ktp:N0|mc:179457|mtp:S|qry_typ:P|lang:en|wc:3|cs:8898|v=4,Myra Enterprises,https://www.indiamart.com/myraenterprises-new-delhi/?pos=118&kwd=baby bottle cover&tags=||||8752.144|Price|product|||TS|rsf:gd-|-stype:attr=1|qr_nm:gd|res:RC4|com-cf:nl|ptrs:na|ktp:N0|mc:179457|mtp:S|qry_typ:P|lang:en|wc:3|cs:8898|v=4,False,Sunder Nagri,New Delhi,"E-117/19,, Sunder Nagri, New Delhi - 110093, Dist.Delhi, Delhi",8043814642,
Baby Bottle Covers,https://www.indiamart.com/proddetail/baby-bottle-covers-8510060012.html?pos=119&kwd=baby bottle cover&tags=CA||||8752.144||product|||NA|rsf:gd-|-stype:attr=1|qr_nm:gd|res:RC4|com-cf:nl|ptrs:na|ktp:N0|mc:179457|mtp:S|qry_typ:P|lang:en|wc:3|cs:8898|v=4,Divyanshi International,https://www.indiamart.com/tinypetals/?pos=119&kwd=baby bottle cover&tags=CA||||8752.144||product|||NA|rsf:gd-|-stype:attr=1|qr_nm:gd|res:RC4|com-cf:nl|ptrs:na|ktp:N0|mc:179457|mtp:S|qry_typ:P|lang:en|wc:3|cs:8898|v=4,False,,New Delhi,"FIRST FLOOR,D-114,,NEAR C BLOCK TEMPLE,WEST PATEL NAGAR,Delhi,110008, New Delhi - 110008, Dist.Delhi, Delhi",8047825955,
Baby Bottle Covers,,Dhawan Enterprises,https://www.indiamart.com/pinksblues/?pos=120&kwd=baby bottle cover&tags=CA||||8580.032||product|||NA|rsf:gd-|-stype:attr=1|qr_nm:gd|res:RC4|com-cf:nl|ptrs:na|ktp:N0|mc:179457|mtp:S|qry_typ:P|lang:en|wc:3|cs:8898|v=4,False,,Amritsar,"26, MODEL TOWN, street no.1,, Amritsar - 143001, Dist.Amritsar, Punjab",8048371873,595
Multicolor Loop Handle Jute Bottle Bag,https://www.indiamart.com/proddetail/jute-bottle-bag-24636928930.html?pos=121&kwd=baby bottle cover&tags=||||9839.57|Price|product|||MDC|rsf:gd-|-stype:attr=1|qr_nm:gd|res:RC4|com-cf:nl|ptrs:na|ktp:N0|mc:179457|mtp:S|qry_typ:P|lang:en|wc:3|cs:8898|v=4,Flyeve,https://www.indiamart.com/flyeve-kolkata/?pos=121&kwd=baby bottle cover&tags=||||9839.57|Price|product|||MDC|rsf:gd-|-stype:attr=1|qr_nm:gd|res:RC4|com-cf:nl|ptrs:na|ktp:N0|mc:179457|mtp:S|qry_typ:P|lang:en|wc:3|cs:8898|v=4,False,,Kolkata,"32, B.M. Banerjee Road, North Twenty Four Parganas, Kolkata - 700056, Dist.Kolkata, West Bengal",7942559803,
Six Bottle Jute Bag,https://www.indiamart.com/proddetail/six-bottle-jute-bag-2853480790755.html?pos=122&kwd=baby bottle cover&tags=||||9839.57||product|||MDC|rsf:gd-|-stype:attr=1|qr_nm:gd|res:RC4|com-cf:nl|ptrs:na|ktp:N0|mc:179457|mtp:S|qry_typ:P|lang:en|wc:3|cs:8898|v=4,Tamkor Export Private Limited,https://www.indiamart.com/tamkorexport/?pos=122&kwd=baby bottle cover&tags=||||9839.57||product|||MDC|rsf:gd-|-stype:attr=1|qr_nm:gd|res:RC4|com-cf:nl|ptrs:na|ktp:N0|mc:179457|mtp:S|qry_typ:P|lang:en|wc:3|cs:8898|v=4,False,Barabazar Market,Kolkata,"2nd 56E/35A, Stephen House, Hemanta Basu Sarani, Barabazar Market, Kolkata - 700001, Dist.Kolkata, West Bengal",7949091865,
"Polyster Water Dispenser Bottle Cover, For Home",https://www.indiamart.com/proddetail/water-dispenser-bottle-cover-2850949146691.html?pos=123&kwd=baby bottle cover&tags=||||8752.144|Price|product|||MDC|rsf:gd-|-stype:attr=1|qr_nm:gd|res:RC4|com-cf:nl|ptrs:na|ktp:N0|mc:179457|mtp:S|qry_typ:P|lang:en|wc:3|cs:8898|v=4,ARIF Enterprises,https://www.indiamart.com/arifenterprisesdelhi-india/?pos=123&kwd=baby bottle cover&tags=||||8752.144|Price|product|||MDC|rsf:gd-|-stype:attr=1|qr_nm:gd|res:RC4|com-cf:nl|ptrs:na|ktp:N0|mc:179457|mtp:S|qry_typ:P|lang:en|wc:3|cs:8898|v=4,False,Chauhan Bangar,New Delhi,"A-10/7C, KH No-241, G No-5, Chauhan Banger Near Inshallah Masjid, North East Delhi, Chauhan Bangar, New Delhi - 110053, Dist.Delhi, Delhi",8047304918,
"Brown Jutehuggr Short Padded Jute Carry Bag, Weight Capacity: 3 KG",https://www.indiamart.com/proddetail/jutehuggr-short-padded-jute-carry-bag-2852958772288.html?pos=124&kwd=baby bottle cover&tags=||||9839.57||product|||MDC|rsf:gd-|-stype:attr=1|qr_nm:gd|res:RC4|com-cf:nl|ptrs:na|ktp:N0|mc:179457|mtp:S|qry_typ:P|lang:en|wc:3|cs:8898|v=4,Better Earth,https://www.indiamart.com/better-earth-kolkata/?pos=124&kwd=baby bottle cover&tags=||||9839.57||product|||MDC|rsf:gd-|-stype:attr=1|qr_nm:gd|res:RC4|com-cf:nl|ptrs:na|ktp:N0|mc:179457|mtp:S|qry_typ:P|lang:en|wc:3|cs:8898|v=4,False,,Kolkata,"5th 83 Devi Darshan Building S P Mukherjee Road, Kolkata - 700026, Dist.Kolkata, West Bengal",7942722882,
Water Bottle Cover,https://www.indiamart.com/proddetail/water-bottle-cover-2854320994091.html?pos=125&kwd=baby bottle cover&tags=||||8211.142|Price|product|||TS|rsf:gd-|-stype:attr=1|qr_nm:gd|res:RC4|com-cf:nl|ptrs:na|ktp:N0|mc:179457|mtp:S|qry_typ:P|lang:en|wc:3|cs:8898|v=4,Tycoon Creation,https://www.tycooncreation.in/?pos=125&kwd=baby bottle cover&tags=||||8211.142|Price|product|||TS|rsf:gd-|-stype:attr=1|qr_nm:gd|res:RC4|com-cf:nl|ptrs:na|ktp:N0|mc:179457|mtp:S|qry_typ:P|lang:en|wc:3|cs:8898|v=4,False,Dharavi,Mumbai,"Ground Floor, Room No.13, Morland Road, Amar Chawl, 65, Mumbai City, Dharavi, Mumbai - 400008, Dist.Mumbai, Maharashtra",8048613775,
Canvas Water Bottle Cover,https://www.indiamart.com/proddetail/water-bottle-cover-2854324630462.html?pos=126&kwd=baby bottle cover&tags=||||8601.347|Price|product|||TS|rsf:gd-|-stype:attr=1|qr_nm:gd|res:RC4|com-cf:nl|ptrs:na|ktp:N0|mc:179457|mtp:S|qry_typ:P|lang:en|wc:3|cs:8898|v=4,Aradhya Eccotex,https://www.aradhyaeccotex.com/?pos=126&kwd=baby bottle cover&tags=||||8601.347|Price|product|||TS|rsf:gd-|-stype:attr=1|qr_nm:gd|res:RC4|com-cf:nl|ptrs:na|ktp:N0|mc:179457|mtp:S|qry_typ:P|lang:en|wc:3|cs:8898|v=4,False,,Jaipur,"PLOT NO. 194,,SHIV NAGAR FIRST,Jaipur PLOT NO. 194, SHIV NAGAR FIRST, MURLIPURA SCHEME, Jaipur, Jaipur, Rajasthan, 302039,302039, Jaipur - 302039, Dist.Jaipur, Rajasthan",8045733042,
Ivory Cotton Water Bottle Cover,https://www.indiamart.com/proddetail/cotton-water-bottle-cover-21683666991.html?pos=127&kwd=baby bottle cover&tags=||||8211.142|Price|product|||TS|rsf:gd-|-stype:attr=1|qr_nm:gd|res:RC4|com-cf:nl|ptrs:na|ktp:N0|mc:179457|mtp:S|qry_typ:P|lang:en|wc:3|cs:8898|v=4,Magnas,https://www.indiamart.com/magnas/?pos=127&kwd=baby bottle cover&tags=||||8211.142|Price|product|||TS|rsf:gd-|-stype:attr=1|qr_nm:gd|res:RC4|com-cf:nl|ptrs:na|ktp:N0|mc:179457|mtp:S|qry_typ:P|lang:en|wc:3|cs:8898|v=4,False,Andheri East,Mumbai,"Room No. 3, Damu Hari Sawant Chawl, Chimatpada, Marol Naka, Andheri East, Andheri East, Mumbai - 400059, Dist.Mumbai, Maharashtra",8048985152,
Water Dispenser Bottle Cover,https://www.indiamart.com/proddetail/water-dispenser-bottle-cover-2853704568248.html?pos=128&kwd=baby bottle cover&tags=||||8752.144|Price|product|||TS|rsf:gd-|-stype:attr=1|qr_nm:gd|res:RC4|com-cf:nl|ptrs:na|ktp:N0|mc:179457|mtp:S|qry_typ:P|lang:en|wc:3|cs:8898|v=4,Satyam Enterprises,https://www.indiamart.com/satyam-enterprisesnew-delhi/?pos=128&kwd=baby bottle cover&tags=||||8752.144|Price|product|||TS|rsf:gd-|-stype:attr=1|qr_nm:gd|res:RC4|com-cf:nl|ptrs:na|ktp:N0|mc:179457|mtp:S|qry_typ:P|lang:en|wc:3|cs:8898|v=4,False,Anand Parbat,New Delhi,"3rd Floor Flat No.5A, Gali No.4, Anand Parbat Industrail Area Central Delhi, Anand Parbat, New Delhi - 110005, Dist.Delhi, Delhi",7949091713,
Bottle Covers,https://www.indiamart.com/proddetail/bottle-covers-2854369894412.html?pos=129&kwd=baby bottle cover&tags=||||8752.144|Price|product|||TS|rsf:gd-|-stype:attr=1|qr_nm:gd|res:RC4|com-cf:nl|ptrs:na|ktp:N0|mc:179457|mtp:S|qry_typ:P|lang:en|wc:3|cs:8898|v=4,Greenest Jute Works Private Limited,https://www.indiamart.com/greenest-jute-works/?pos=129&kwd=baby bottle cover&tags=||||8752.144|Price|product|||TS|rsf:gd-|-stype:attr=1|qr_nm:gd|res:RC4|com-cf:nl|ptrs:na|ktp:N0|mc:179457|mtp:S|qry_typ:P|lang:en|wc:3|cs:8898|v=4,False,Khazoori Khas,New Delhi,"F-575,KH.NO.153/111/2,Gali Number 18,New Delhi, Khazoori Khas, New Delhi - 110094, Dist.Delhi, Delhi",7942702796,
Baby Bottles Covers,https://www.indiamart.com/proddetail/baby-bottles-covers-8632240173.html?pos=130&kwd=baby bottle cover&tags=CA||||8752.144||product|||NA|rsf:gd-|-stype:attr=1|qr_nm:gd|res:RC4|com-cf:nl|ptrs:na|ktp:N0|mc:179457|mtp:S|qry_typ:P|lang:en|wc:3|cs:8898|v=4,H K Grover & Co.,https://www.indiamart.com/hkgrovercompany/?pos=130&kwd=baby bottle cover&tags=CA||||8752.144||product|||NA|rsf:gd-|-stype:attr=1|qr_nm:gd|res:RC4|com-cf:nl|ptrs:na|ktp:N0|mc:179457|mtp:S|qry_typ:P|lang:en|wc:3|cs:8898|v=4,False,Sadar Bazar,New Delhi,",279/2,POST OFFICE STREET,,TOLIAYA WALI GALI SADAR BAZAR DE, Sadar Bazar, New Delhi - 110006, Dist.Delhi, Delhi",8047308700,8592
Rubber Hot Water Bottle With Woollen Cover,https://www.indiamart.com/proddetail/rubber-hot-water-bottle-with-woollen-cover-2852701029388.html?pos=131&kwd=baby bottle cover&tags=||||8752.144|Price|product|||TS|rsf:gd-|-stype:attr=1|qr_nm:gd|res:RC4|com-cf:nl|ptrs:na|ktp:N0|mc:179457|mtp:S|qry_typ:P|lang:en|wc:3|cs:8898|v=4,Noble Healthcare,https://www.derbyhealthcare.in/?pos=131&kwd=baby bottle cover&tags=||||8752.144|Price|product|||TS|rsf:gd-|-stype:attr=1|qr_nm:gd|res:RC4|com-cf:nl|ptrs:na|ktp:N0|mc:179457|mtp:S|qry_typ:P|lang:en|wc:3|cs:8898|v=4,False,Subhash Nagar,New Delhi,"Shop No. 14/127, Ground Floor, Subhash Nagar, Subhash Nagar, New Delhi - 110027, Dist.Delhi, Delhi",8048955013,
cover for rubber hot water bottle,https://www.indiamart.com/proddetail/cover-for-rubber-hot-water-bottle-2852691307797.html?pos=132&kwd=baby bottle cover&tags=||||8752.144|Price|product|||MDC|rsf:gd-|-stype:attr=1|qr_nm:gd|res:RC4|com-cf:nl|ptrs:na|ktp:N0|mc:179457|mtp:S|qry_typ:P|lang:en|wc:3|cs:8898|v=4,Vicco Agencies Private Limited,https://www.indiamart.com/viccoagencies/?pos=132&kwd=baby bottle cover&tags=||||8752.144|Price|product|||MDC|rsf:gd-|-stype:attr=1|qr_nm:gd|res:RC4|com-cf:nl|ptrs:na|ktp:N0|mc:179457|mtp:S|qry_typ:P|lang:en|wc:3|cs:8898|v=4,False,Shastri Nagar,New Delhi,"M-88, 1st Floor, Street Number 5, Shastri Nagar, Central Delhi, Shastri Nagar, New Delhi - 110052, Dist.Delhi, Delhi",8047795310,
Printed Jute Water Bottle Bag,https://www.indiamart.com/proddetail/jute-water-bottle-bag-20112992555.html?pos=133&kwd=baby bottle cover&tags=||||8786.56|Price|product|||TS|rsf:gd-|-stype:attr=1|qr_nm:gd|res:RC4|com-cf:nl|ptrs:na|ktp:N0|mc:179457|mtp:S|qry_typ:P|lang:en|wc:3|cs:8898|v=4,Saavi Creations,https://www.indiamart.com/saavicreations/?pos=133&kwd=baby bottle cover&tags=||||8786.56|Price|product|||TS|rsf:gd-|-stype:attr=1|qr_nm:gd|res:RC4|com-cf:nl|ptrs:na|ktp:N0|mc:179457|mtp:S|qry_typ:P|lang:en|wc:3|cs:8898|v=4,False,Boduppal,Hyderabad,"Prasanth Nagar, Boduppal, Hyderabad - 500092, Dist.Hyderabad, Telangana",8047637394,
"Rope Handle Printed Jute Bottle Bag, Capacity: 1 Ltr",https://www.indiamart.com/proddetail/jute-bottle-bag-23356608788.html?pos=134&kwd=baby bottle cover&tags=||||8954.051|Price|product|||TS|rsf:gd-|-stype:attr=1|qr_nm:gd|res:RC4|com-cf:nl|ptrs:na|ktp:N0|mc:179457|mtp:S|qry_typ:P|lang:en|wc:3|cs:8898|v=4,The Jute Palace,https://www.jutepalace.co.in/?pos=134&kwd=baby bottle cover&tags=||||8954.051|Price|product|||TS|rsf:gd-|-stype:attr=1|qr_nm:gd|res:RC4|com-cf:nl|ptrs:na|ktp:N0|mc:179457|mtp:S|qry_typ:P|lang:en|wc:3|cs:8898|v=4,False,Choolaimedu,Chennai,"82-a Bajanai Koil Street Choolaimedu, Choolaimedu, Chennai - 600094, Dist.Chennai, Tamil Nadu",7942559752,
"Bamboo JuteCover Glass Bottle, Capacity: 500 mL",https://www.indiamart.com/proddetail/jutecover-glass-bottle-2854526524673.html?pos=135&kwd=baby bottle cover&tags=||||8752.144|Price|product|||TS|rsf:gd-|-stype:attr=1|qr_nm:gd|res:RC4|com-cf:nl|ptrs:na|ktp:N0|mc:179457|mtp:S|qry_typ:P|lang:en|wc:3|cs:8898|v=4,Star Gift Productions,https://www.stargiftproductions.com/?pos=135&kwd=baby bottle cover&tags=||||8752.144|Price|product|||TS|rsf:gd-|-stype:attr=1|qr_nm:gd|res:RC4|com-cf:nl|ptrs:na|ktp:N0|mc:179457|mtp:S|qry_typ:P|lang:en|wc:3|cs:8898|v=4,False,,New Delhi,"6-B,,Junk Market,New Delhi GROUND FLOOR 6-B JUNK MARKET New Delhi Central Delhi Delhi 110005,110005, New Delhi - 110005, Dist.Delhi, Delhi",7949326452,
"Brown Bottle Jute Bag, Capacity: 1 kg",https://www.indiamart.com/proddetail/bottle-jute-bag-2850362370197.html?pos=136&kwd=baby bottle cover&tags=||||8211.142|Price|product|||TS|rsf:gd-|-stype:attr=1|qr_nm:gd|res:RC4|com-cf:nl|ptrs:na|ktp:N0|mc:179457|mtp:S|qry_typ:P|lang:en|wc:3|cs:8898|v=4,M S Enterprises,https://www.msenterprisesgift.in/?pos=136&kwd=baby bottle cover&tags=||||8211.142|Price|product|||TS|rsf:gd-|-stype:attr=1|qr_nm:gd|res:RC4|com-cf:nl|ptrs:na|ktp:N0|mc:179457|mtp:S|qry_typ:P|lang:en|wc:3|cs:8898|v=4,False,Dharavi,Mumbai,"1st Floor, Plot-19, Dabbawala Compound, Dharavi Main Road, Dharavi, Mumbai - 400017, Dist.Mumbai, Maharashtra",8048989613,
"Brown Saturn dori Perfume bottle bag, Size/Dimension: 7-3",https://www.indiamart.com/proddetail/perfume-bottle-bag-23312485691.html?pos=137&kwd=baby bottle cover&tags=||||8778.123||product|||TS|rsf:gd-|-stype:attr=1|qr_nm:gd|res:RC4|com-cf:nl|ptrs:na|ktp:N0|mc:179457|mtp:S|qry_typ:P|lang:en|wc:3|cs:8898|v=4,Crazy Craft,https://www.indiamart.com/crazycraftnoida/?pos=137&kwd=baby bottle cover&tags=||||8778.123||product|||TS|rsf:gd-|-stype:attr=1|qr_nm:gd|res:RC4|com-cf:nl|ptrs:na|ktp:N0|mc:179457|mtp:S|qry_typ:P|lang:en|wc:3|cs:8898|v=4,False,Phase-2,Noida,"Gr. noida, Phase-2, Noida - 201301, Dist.Gautam Budh Nagar, Uttar Pradesh",8048951916,
Natural Rope Handle Jute Water Bottle Carry Bags,https://www.indiamart.com/proddetail/jute-water-bottle-carry-bags-26337121048.html?pos=138&kwd=baby bottle cover&tags=||||8723.301|Price|product|||TS|rsf:gd-|-stype:attr=1|qr_nm:gd|res:RC4|com-cf:nl|ptrs:na|ktp:N0|mc:179457|mtp:S|qry_typ:P|lang:en|wc:3|cs:8898|v=4,Urban Eco Bags,https://www.indiamart.com/urbanecobags/?pos=138&kwd=baby bottle cover&tags=||||8723.301|Price|product|||TS|rsf:gd-|-stype:attr=1|qr_nm:gd|res:RC4|com-cf:nl|ptrs:na|ktp:N0|mc:179457|mtp:S|qry_typ:P|lang:en|wc:3|cs:8898|v=4,False,C.T.T.Nagar,Bhopal,"Ground, Priyadarshini Nagar, Narmada Bhawan, Main Road Number 2 State Bank Of India, C.T.T.Nagar, Bhopal - 462003, Dist.Bhopal, Madhya Pradesh",7942711938,
SAFFRON BOTTLE BAGS,https://www.indiamart.com/proddetail/saffron-bottle-bags-2851551708973.html?pos=139&kwd=baby bottle cover&tags=||||8663.873|Price|product|||TS|rsf:gd-|-stype:attr=1|qr_nm:gd|res:RC4|com-cf:nl|ptrs:na|ktp:N0|mc:179457|mtp:S|qry_typ:P|lang:en|wc:3|cs:8898|v=4,Saffron Decor,https://www.indiamart.com/saffrondecor/?pos=139&kwd=baby bottle cover&tags=||||8663.873|Price|product|||TS|rsf:gd-|-stype:attr=1|qr_nm:gd|res:RC4|com-cf:nl|ptrs:na|ktp:N0|mc:179457|mtp:S|qry_typ:P|lang:en|wc:3|cs:8898|v=4,False,Girinagar,Bengaluru,"4000, T-103, 3rd Floor, PTN Arcade, 4th Phase, 80 Feet Road, Girinagar, Girinagar, Bengaluru - 560085, Dist.Bengaluru, Karnataka",8047649215,
Multicolor Cotton Water Bottle Jute Bags,https://www.indiamart.com/proddetail/water-bottle-jute-bags-2854223416633.html?pos=140&kwd=baby bottle cover&tags=||||8706.263||product|||TS|rsf:gd-|-stype:attr=1|qr_nm:gd|res:RC4|com-cf:nl|ptrs:na|ktp:N0|mc:179457|mtp:S|qry_typ:P|lang:en|wc:3|cs:8898|v=4,Adhavaa Bags,https://www.indiamart.com/adhavaa-bags/?pos=140&kwd=baby bottle cover&tags=||||8706.263||product|||TS|rsf:gd-|-stype:attr=1|qr_nm:gd|res:RC4|com-cf:nl|ptrs:na|ktp:N0|mc:179457|mtp:S|qry_typ:P|lang:en|wc:3|cs:8898|v=4,False,Sakthinagar,Karur,"63 Ehillai Nagar S Bellalapti Post Industrial Estate, Sakthinagar, Karur - 639004, Dist.Karur, Tamil Nadu",8048209662,
Rope Handle Jute Water Bottle Bag,https://www.indiamart.com/proddetail/jute-water-bottle-bag-2854518815662.html?pos=141&kwd=baby bottle cover&tags=||||8584.299|Price|product|||TS|rsf:gd-|-stype:attr=1|qr_nm:gd|res:RC4|com-cf:nl|ptrs:na|ktp:N0|mc:179457|mtp:S|qry_typ:P|lang:en|wc:3|cs:8898|v=4,Real Creators,https://www.indiamart.com/real-creators/?pos=141&kwd=baby bottle cover&tags=||||8584.299|Price|product|||TS|rsf:gd-|-stype:attr=1|qr_nm:gd|res:RC4|com-cf:nl|ptrs:na|ktp:N0|mc:179457|mtp:S|qry_typ:P|lang:en|wc:3|cs:8898|v=4,False,Coimbatore,Coimbatore,"No 291/3, Sathyam Towers First Floor, Gandhipuram 2nd Street 1/F, Cross Cut Road, Coimbatore, Coimbatore - 641012, Dist.Coimbatore, Tamil Nadu",8048272856,
Wine Bottle Jute Bag,https://www.indiamart.com/proddetail/wine-bottle-jute-bag-22422094833.html?pos=142&kwd=baby bottle cover&tags=||||8752.144|Price|product|||TS|rsf:gd-|-stype:attr=1|qr_nm:gd|res:RC4|com-cf:nl|ptrs:na|ktp:N0|mc:179457|mtp:S|qry_typ:P|lang:en|wc:3|cs:8898|v=4,Craftstages International Private Limited,https://www.craftstagesinternational.com/?pos=142&kwd=baby bottle cover&tags=||||8752.144|Price|product|||TS|rsf:gd-|-stype:attr=1|qr_nm:gd|res:RC4|com-cf:nl|ptrs:na|ktp:N0|mc:179457|mtp:S|qry_typ:P|lang:en|wc:3|cs:8898|v=4,True,,New Delhi,"Ground Floor, C-9/83, Road Number B5, New Delhi - 110085, Dist.Delhi, Delhi",8048617162,
Beer Bottle Carry Bag,https://www.indiamart.com/proddetail/beer-bottle-carry-bag-25450584088.html?pos=143&kwd=baby bottle cover&tags=||||9839.57|Price|product|||TS|rsf:gd-|-stype:attr=1|qr_nm:gd|res:RC4|com-cf:nl|ptrs:na|ktp:N0|mc:179457|mtp:S|qry_typ:P|lang:en|wc:3|cs:8898|v=4,Silverline Gifts,https://www.armeeinternational.com/?pos=143&kwd=baby bottle cover&tags=||||9839.57|Price|product|||TS|rsf:gd-|-stype:attr=1|qr_nm:gd|res:RC4|com-cf:nl|ptrs:na|ktp:N0|mc:179457|mtp:S|qry_typ:P|lang:en|wc:3|cs:8898|v=4,False,Yogayog Bhawan,Kolkata,"3A,Bow Street, 94, 3rd Floor, Phears Lane, Yogayog Bhawan, Kolkata - 700012, Dist.Kolkata, West Bengal",7942556098,
Non woven bottle bag,https://www.indiamart.com/proddetail/non-woven-bottle-bag-2852886854755.html?pos=144&kwd=baby bottle cover&tags=||||10180.86|Price|product|||TS|rsf:gd-|-stype:attr=1|qr_nm:gd|res:RC4|com-cf:nl|ptrs:na|ktp:N0|mc:179457|mtp:S|qry_typ:P|lang:en|wc:3|cs:8898|v=4,M B Enterprise,https://www.indiamart.com/mb-enterpriseassam/?pos=144&kwd=baby bottle cover&tags=||||10180.86|Price|product|||TS|rsf:gd-|-stype:attr=1|qr_nm:gd|res:RC4|com-cf:nl|ptrs:na|ktp:N0|mc:179457|mtp:S|qry_typ:P|lang:en|wc:3|cs:8898|v=4,False,Bharalumukh,Guwahati,"Bharalumukh, Bharalumukh, Guwahati - 781009, Dist.Kamrup, Assam",8047649765,
"Brown Rope Handle Printed Jute Bottle Bag, Size/Dimension: 12x3 Inch",https://www.indiamart.com/proddetail/printed-jute-bottle-bag-27538635888.html?pos=145&kwd=baby bottle cover&tags=||||9839.57|Price|product|||TS|rsf:gd-|-stype:attr=1|qr_nm:gd|res:RC4|com-cf:nl|ptrs:na|ktp:N0|mc:179457|mtp:S|qry_typ:P|lang:en|wc:3|cs:8898|v=4,Naturegenix Exim LLP,https://www.jutecottonbags.co.in/?pos=145&kwd=baby bottle cover&tags=||||9839.57|Price|product|||TS|rsf:gd-|-stype:attr=1|qr_nm:gd|res:RC4|com-cf:nl|ptrs:na|ktp:N0|mc:179457|mtp:S|qry_typ:P|lang:en|wc:3|cs:8898|v=4,True,Tangra,Kolkata,"5b Pushpanjali Chambers. 9/2A TOPSIA ROAD SOUTH, Tangra, Kolkata - 700046, Dist.Kolkata, West Bengal",8047548065,
Loop Handle Brown Jute Bottle Holders,https://www.indiamart.com/proddetail/brown-jute-bottle-holders-2854411464097.html?pos=146&kwd=baby bottle cover&tags=||||9829.308|Price|product|||TS|rsf:gd-|-stype:attr=1|qr_nm:gd|res:RC4|com-cf:nl|ptrs:na|ktp:N0|mc:179457|mtp:S|qry_typ:P|lang:en|wc:3|cs:8898|v=4,Banerjee Udyog,https://www.banerjeeudyog.in/?pos=146&kwd=baby bottle cover&tags=||||9829.308|Price|product|||TS|rsf:gd-|-stype:attr=1|qr_nm:gd|res:RC4|com-cf:nl|ptrs:na|ktp:N0|mc:179457|mtp:S|qry_typ:P|lang:en|wc:3|cs:8898|v=4,False,Shibpur,Howrah,"22/6 Balai Mistry Lane, Shibpur, Shibpur, Howrah - 711103, Dist.Howrah, West Bengal",8047651356,
Jute Wine Bag,https://www.indiamart.com/proddetail/jute-wine-bag-2850955480991.html?pos=147&kwd=baby bottle cover&tags=||||8752.144|Price|product|||TS|rsf:gd-|-stype:attr=1|qr_nm:gd|res:RC4|com-cf:nl|ptrs:na|ktp:N0|mc:179457|mtp:S|qry_typ:P|lang:en|wc:3|cs:8898|v=4,Parnami & Co.,https://www.declanbags.com/?pos=147&kwd=baby bottle cover&tags=||||8752.144|Price|product|||TS|rsf:gd-|-stype:attr=1|qr_nm:gd|res:RC4|com-cf:nl|ptrs:na|ktp:N0|mc:179457|mtp:S|qry_typ:P|lang:en|wc:3|cs:8898|v=4,False,Paharganj,New Delhi,"Ground floor 5903/7 shankar piao, nabi karim, pahar ganj, Paharganj, New Delhi - 110055, Dist.Delhi, Delhi",8047632329,
"Natural Rope Handle Jute Bottle Bag, Size/Dimension: 4.5*11*4""",https://www.indiamart.com/proddetail/jute-bottle-bag-27462956055.html?pos=148&kwd=baby bottle cover&tags=||||8785.791|Price|product|||TS|rsf:gd-|-stype:attr=1|qr_nm:gd|res:RC4|com-cf:nl|ptrs:na|ktp:N0|mc:179457|mtp:S|qry_typ:P|lang:en|wc:3|cs:8898|v=4,Gobamboos Private Limited,https://www.indiamart.com/gobamboos-private-limited/?pos=148&kwd=baby bottle cover&tags=||||8785.791|Price|product|||TS|rsf:gd-|-stype:attr=1|qr_nm:gd|res:RC4|com-cf:nl|ptrs:na|ktp:N0|mc:179457|mtp:S|qry_typ:P|lang:en|wc:3|cs:8898|v=4,False,Indirapuram,Ghaziabad,"Shipra Riviera 127b Indrapuram, Near Main Market Gyan Khand 3 Ghaziabad Gyan Khand 3, Indirapueam, Indirapuram, Ghaziabad - 201014, Dist.Ghaziabad, Uttar Pradesh",8046049397,
Jute Wine Bottle Bag,https://www.indiamart.com/proddetail/jute-wine-bottle-bag-2850263123533.html?pos=149&kwd=baby bottle cover&tags=||||9839.57|Price|product|||TS|rsf:gd-|-stype:attr=1|qr_nm:gd|res:RC4|com-cf:nl|ptrs:na|ktp:N0|mc:179457|mtp:S|qry_typ:P|lang:en|wc:3|cs:8898|v=4,S. R. Jute Packagers Pvt. Ltd.,https://www.indiamart.com/srjutepackagers/?pos=149&kwd=baby bottle cover&tags=||||9839.57|Price|product|||TS|rsf:gd-|-stype:attr=1|qr_nm:gd|res:RC4|com-cf:nl|ptrs:na|ktp:N0|mc:179457|mtp:S|qry_typ:P|lang:en|wc:3|cs:8898|v=4,False,Barabazar,Kolkata,"No. 159, Rabindra Sarani, 2nd Floor Near MG Road Crossing, Barabazar, Kolkata - 700007, Dist.Kolkata, West Bengal",8046035194,
"Printed & Plain Jute Single Bottle Bag, Up To 2 L",https://www.indiamart.com/proddetail/jute-single-bottle-bag-20472978155.html?pos=150&kwd=baby bottle cover&tags=||||9839.57|Price|product|||TS|rsf:gd-|-stype:attr=1|qr_nm:gd|res:RC4|com-cf:nl|ptrs:na|ktp:N0|mc:179457|mtp:S|qry_typ:P|lang:en|wc:3|cs:8898|v=4,Green Jute Impex Private Limited,https://www.indiamart.com/greenjuteimpex/?pos=150&kwd=baby bottle cover&tags=||||9839.57|Price|product|||TS|rsf:gd-|-stype:attr=1|qr_nm:gd|res:RC4|com-cf:nl|ptrs:na|ktp:N0|mc:179457|mtp:S|qry_typ:P|lang:en|wc:3|cs:8898|v=4,False,Yogayog Bhawan,Kolkata,"36C, LU Shun Sarani, Yogayog Bhawan, Kolkata - 700012, Dist.Kolkata, West Bengal",8048988663,
Polyester Bottle Cover,https://www.indiamart.com/proddetail/polyester-bottle-cover-21510918430.html?pos=151&kwd=baby bottle cover&tags=||||8281.036|Price|product|||TS|rsf:gd-|-stype:attr=1|qr_nm:gd|res:RC4|com-cf:nl|ptrs:na|ktp:N0|mc:179457|mtp:S|qry_typ:P|lang:en|wc:3|cs:8898|v=4,Sanchi Creation,https://www.indiamart.com/sanchi-creation-vadodara/?pos=151&kwd=baby bottle cover&tags=||||8281.036|Price|product|||TS|rsf:gd-|-stype:attr=1|qr_nm:gd|res:RC4|com-cf:nl|ptrs:na|ktp:N0|mc:179457|mtp:S|qry_typ:P|lang:en|wc:3|cs:8898|v=4,False,H Chaturbhai Park Warasia Ring Road Vadodara,Vadodara,"Kalamandir Lane, Mangal Bazar, H Chaturbhai Park Warasia Ring Road Vadodara, Vadodara - 390006, Dist.Vadodara, Gujarat",8047632435,
Blue And Natural RYNA FLOWER Print Jute Bottle Bags,https://www.indiamart.com/proddetail/ryna-flower-print-jute-bottle-bags-22969600697.html?pos=152&kwd=baby bottle cover&tags=||||8752.144|Price|product|||TS|rsf:gd-|-stype:attr=1|qr_nm:gd|res:RC4|com-cf:nl|ptrs:na|ktp:N0|mc:179457|mtp:S|qry_typ:P|lang:en|wc:3|cs:8898|v=4,RAYNA ENTERPRISES,https://www.indiamart.com/rynaenterprises/?pos=152&kwd=baby bottle cover&tags=||||8752.144|Price|product|||TS|rsf:gd-|-stype:attr=1|qr_nm:gd|res:RC4|com-cf:nl|ptrs:na|ktp:N0|mc:179457|mtp:S|qry_typ:P|lang:en|wc:3|cs:8898|v=4,False,Tilak Nagar,New Delhi,"5A, 15, Tilak Nagar, Tilak Nagar, New Delhi - 110018, Dist.Delhi, Delhi",8046049340,
Maroon Loop Handle Jute Bottle Bag,https://www.indiamart.com/proddetail/jute-bottle-bag-27066883612.html?pos=153&kwd=baby bottle cover&tags=||||8954.051|Price|product|||TS|rsf:gd-|-stype:attr=1|qr_nm:gd|res:RC4|com-cf:nl|ptrs:na|ktp:N0|mc:179457|mtp:S|qry_typ:P|lang:en|wc:3|cs:8898|v=4,Rambo Enterprises,https://www.indiamart.com/rambo-enterprises/?pos=153&kwd=baby bottle cover&tags=||||8954.051|Price|product|||TS|rsf:gd-|-stype:attr=1|qr_nm:gd|res:RC4|com-cf:nl|ptrs:na|ktp:N0|mc:179457|mtp:S|qry_typ:P|lang:en|wc:3|cs:8898|v=4,False,Madhavaram,Chennai,"55, Rajaji Street Madhavaram, Madhavaram, Chennai - 600060, Dist.Chennai, Tamil Nadu",8043894461,
Jute Wine Bag,https://www.indiamart.com/proddetail/jute-wine-bag-22585325362.html?pos=154&kwd=baby bottle cover&tags=||||8752.144|Price|product|||TS|rsf:gd-|-stype:attr=1|qr_nm:gd|res:RC4|com-cf:nl|ptrs:na|ktp:N0|mc:179457|mtp:S|qry_typ:P|lang:en|wc:3|cs:8898|v=4,Sanchit Silk Mills,https://www.sanchitsilkmills.in/?pos=154&kwd=baby bottle cover&tags=||||8752.144|Price|product|||TS|rsf:gd-|-stype:attr=1|qr_nm:gd|res:RC4|com-cf:nl|ptrs:na|ktp:N0|mc:179457|mtp:S|qry_typ:P|lang:en|wc:3|cs:8898|v=4,True,,New Delhi,"G/F, 4/1755 Old No 48, Mahavir Block Bhola Nath Nagar, Gali No 3, New Delhi - 110032, Dist.Delhi, Delhi",7942558792,
"assorted Rope Handle Jute bottle bag, Capacity: 2 Ltrs, Size/Dimension: 4*11 Inch",https://www.indiamart.com/proddetail/jute-bottle-bag-2851571384433.html?pos=155&kwd=baby bottle cover&tags=||||9301.656|Price|product|||TS|rsf:gd-|-stype:attr=1|qr_nm:gd|res:RC4|com-cf:nl|ptrs:na|ktp:N0|mc:179457|mtp:S|qry_typ:P|lang:en|wc:3|cs:8898|v=4,Kashi Jute Creations Industries Private Limited,https://www.kashijute.com/?pos=155&kwd=baby bottle cover&tags=||||9301.656|Price|product|||TS|rsf:gd-|-stype:attr=1|qr_nm:gd|res:RC4|com-cf:nl|ptrs:na|ktp:N0|mc:179457|mtp:S|qry_typ:P|lang:en|wc:3|cs:8898|v=4,False,Koshalpuri Colony,Varanasi,"0, Vivekanand Pur, Mahamanapuri,, Koshalpuri Colony, Varanasi - 221005, Dist.Varanasi, Uttar Pradesh",8047621960,
"Packpr Black Insulated Bottle Carrier Bag, Capacity: 1000 mL",https://www.indiamart.com/proddetail/insulated-bottle-carrier-bag-11803293673.html?pos=156&kwd=baby bottle cover&tags=||||8752.144|Price|product|||TS|rsf:gd-|-stype:attr=1|qr_nm:gd|res:RC4|com-cf:nl|ptrs:na|ktp:N0|mc:179457|mtp:S|qry_typ:P|lang:en|wc:3|cs:8898|v=4,PR Enterprises,https://www.packpr.com/?pos=156&kwd=baby bottle cover&tags=||||8752.144|Price|product|||TS|rsf:gd-|-stype:attr=1|qr_nm:gd|res:RC4|com-cf:nl|ptrs:na|ktp:N0|mc:179457|mtp:S|qry_typ:P|lang:en|wc:3|cs:8898|v=4,False,Mundka,New Delhi,"Plot No. A 37, Swarn Park Industrial Area Nangloi, Mundka, New Delhi - 110041, Dist.Delhi, Delhi",7942800399,
Wine Jute Bag,https://www.indiamart.com/proddetail/wine-jute-bag-20534971630.html?pos=157&kwd=baby bottle cover&tags=||||9848.899|Price|product|||TS|rsf:gd-|-stype:attr=1|qr_nm:gd|res:RC4|com-cf:nl|ptrs:na|ktp:N0|mc:179457|mtp:S|qry_typ:P|lang:en|wc:3|cs:8898|v=4,Indigo Green,https://www.indiamart.com/indigogreen/?pos=157&kwd=baby bottle cover&tags=||||9848.899|Price|product|||TS|rsf:gd-|-stype:attr=1|qr_nm:gd|res:RC4|com-cf:nl|ptrs:na|ktp:N0|mc:179457|mtp:S|qry_typ:P|lang:en|wc:3|cs:8898|v=4,False,Chandpur,Rajarhat Gopalpur,"NIL PASCHIM RAJBATI DEARA, Chandpur, Rajarhat Gopalpur - 700135, Dist.North 24 Parganas, West Bengal",8047632884,
Green Bottle Rope Handle Jute Bag,https://www.indiamart.com/proddetail/green-bottle-rope-handle-jute-bag-2854403527433.html?pos=158&kwd=baby bottle cover&tags=||||8706.587|Price|product|||TS|rsf:gd-|-stype:attr=1|qr_nm:gd|res:RC4|com-cf:nl|ptrs:na|ktp:N0|mc:179457|mtp:S|qry_typ:P|lang:en|wc:3|cs:8898|v=4,Ainol Bags,https://www.indiamart.com/ainol-bags/?pos=158&kwd=baby bottle cover&tags=||||8706.587|Price|product|||TS|rsf:gd-|-stype:attr=1|qr_nm:gd|res:RC4|com-cf:nl|ptrs:na|ktp:N0|mc:179457|mtp:S|qry_typ:P|lang:en|wc:3|cs:8898|v=4,False,,Madurai,"First Floor,Door No.24a,Nehruji Street, Thirunagar 5th Stop,Harveypatti, Madurai - 625006, Dist.Madurai, Tamil Nadu",7949339450,
"Plain Black Milk Bottle Carry Bag, Capacity: 48 Bottles Of 1 L, Size: 23"" X 13"" X 13"" (l X W X H)",https://www.indiamart.com/proddetail/milk-bottle-carry-bag-21154501591.html?pos=159&kwd=baby bottle cover&tags=||||8228.275|Price|product|||TS|rsf:gd-|-stype:attr=1|qr_nm:gd|res:RC4|com-cf:nl|ptrs:na|ktp:N0|mc:179457|mtp:S|qry_typ:P|lang:en|wc:3|cs:8898|v=4,Dhruvraj Syndicate,https://www.dhruvrajsyndicate.com/?pos=159&kwd=baby bottle cover&tags=||||8228.275|Price|product|||TS|rsf:gd-|-stype:attr=1|qr_nm:gd|res:RC4|com-cf:nl|ptrs:na|ktp:N0|mc:179457|mtp:S|qry_typ:P|lang:en|wc:3|cs:8898|v=4,False,Makarba,Ahmedabad,"202, Abhijyot Square, SG Highway-Makarba Road Corporate Road, Makarba, Ahmedabad - 380051, Dist.Ahmedabad, Gujarat",8048981612,
"Brown Jute Bottle Bag, Capacity: 200 Gm",https://www.indiamart.com/proddetail/jute-bottle-bag-19450567812.html?pos=160&kwd=baby bottle cover&tags=||||8785.791|Price|product|||TS|rsf:gd-|-stype:attr=1|qr_nm:gd|res:RC4|com-cf:nl|ptrs:na|ktp:N0|mc:179457|mtp:S|qry_typ:P|lang:en|wc:3|cs:8898|v=4,Jai Balaji Impex,https://www.jutebagmanufacturer.com/?pos=160&kwd=baby bottle cover&tags=||||8785.791|Price|product|||TS|rsf:gd-|-stype:attr=1|qr_nm:gd|res:RC4|com-cf:nl|ptrs:na|ktp:N0|mc:179457|mtp:S|qry_typ:P|lang:en|wc:3|cs:8898|v=4,False,Tulsi Niketan,Ghaziabad,"D-95, Gali No. 1, Gagan Vihar Street No. 1, Tulsi Niketan, Ghaziabad - 201005, Dist.Ghaziabad, Uttar Pradesh",8048965928,
"Natural Loop Handle Jute Bottle, Capacity: 1 Ltr, Size/dimension: 15 X 5",https://www.indiamart.com/proddetail/jute-bottle-25216652588.html?pos=161&kwd=baby bottle cover&tags=||||8979.31|Price|product|||MDC|rsf:gd-|-stype:attr=1|qr_nm:gd|res:RC4|com-cf:nl|ptrs:na|ktp:N0|mc:179457|mtp:S|qry_typ:P|lang:en|wc:3|cs:8898|v=4,Sanvi Enterprises,https://www.indiamart.com/sanvienterpriseshaldwani/?pos=161&kwd=baby bottle cover&tags=||||8979.31|Price|product|||MDC|rsf:gd-|-stype:attr=1|qr_nm:gd|res:RC4|com-cf:nl|ptrs:na|ktp:N0|mc:179457|mtp:S|qry_typ:P|lang:en|wc:3|cs:8898|v=4,False,Bhurarani,Rudrapur,"Khet No. 165/2/2, Graund Floor, Fajalpur Mahrool, Fajalpur Mahrool,, Bhurarani, Rudrapur - 263153, Uttarakhand",8047309954,
Black Rope Handle Jute Water Bottle Bag,https://www.indiamart.com/proddetail/jute-water-bottle-bag-2854870827891.html?pos=162&kwd=baby bottle cover&tags=||||9839.57|Price|product|||MDC|rsf:gd-|-stype:attr=1|qr_nm:gd|res:RC4|com-cf:nl|ptrs:na|ktp:N0|mc:179457|mtp:S|qry_typ:P|lang:en|wc:3|cs:8898|v=4,Sonali Manufacturing Private Limited,https://www.indiamart.com/sonali-manufacturing/?pos=162&kwd=baby bottle cover&tags=||||9839.57|Price|product|||MDC|rsf:gd-|-stype:attr=1|qr_nm:gd|res:RC4|com-cf:nl|ptrs:na|ktp:N0|mc:179457|mtp:S|qry_typ:P|lang:en|wc:3|cs:8898|v=4,False,Bengal Enamel,Kolkata,"209/8, Ghoshpara Road, PO-Bengal Enamel, Palta, North Twenty Four, Bengal Enamel, Kolkata - 743122, Dist.Kolkata, West Bengal",8044563205,
Multicolor Printed Bottle Jute Bag,https://www.indiamart.com/proddetail/printed-bottle-jute-bag-2854614601648.html?pos=163&kwd=baby bottle cover&tags=||||9831.75|Price|product|||MDC|rsf:gd-|-stype:attr=1|qr_nm:gd|res:RC4|com-cf:nl|ptrs:na|ktp:N0|mc:179457|mtp:S|qry_typ:P|lang:en|wc:3|cs:8898|v=4,Aroma Enterprise,https://www.indiamart.com/aroma-enterprise-berhampore/?pos=163&kwd=baby bottle cover&tags=||||9831.75|Price|product|||MDC|rsf:gd-|-stype:attr=1|qr_nm:gd|res:RC4|com-cf:nl|ptrs:na|ktp:N0|mc:179457|mtp:S|qry_typ:P|lang:en|wc:3|cs:8898|v=4,False,,Berhampore,"8, Karbala Road, Cossimbazar, Berhampore - 742102, Dist.Murshidabad, West Bengal",7949331575,
"mix Rope Handle Jute Bottle Bag, Capacity: 1 Ltr, Size/Dimension: 14*5*4",https://www.indiamart.com/proddetail/jute-bottle-bag-2851069357697.html?pos=164&kwd=baby bottle cover&tags=||||8307.81|Price|product|||MDC|rsf:gd-|-stype:attr=1|qr_nm:gd|res:RC4|com-cf:nl|ptrs:na|ktp:N0|mc:179457|mtp:S|qry_typ:P|lang:en|wc:3|cs:8898|v=4,Maru Ventures,https://www.indiamart.com/maru-ventures/?pos=164&kwd=baby bottle cover&tags=||||8307.81|Price|product|||MDC|rsf:gd-|-stype:attr=1|qr_nm:gd|res:RC4|com-cf:nl|ptrs:na|ktp:N0|mc:179457|mtp:S|qry_typ:P|lang:en|wc:3|cs:8898|v=4,False,Pimple Saudagar,Pune,"A2 602 Shivar Chock, Nr Rainbow Plaza Dwarka Lords Pimple Saudagar, Pimple Saudagar, Pune - 411027, Dist.Pune, Maharashtra",8046047179,
"White,Blue And Orange Loop Handle 14cm Bottle Jute Bag",https://www.indiamart.com/proddetail/14cm-bottle-jute-bag-2854276129862.html?pos=165&kwd=baby bottle cover&tags=||||8820.5625|Price|product|||MDC|rsf:gd-|-stype:attr=1|qr_nm:gd|res:RC4|com-cf:nl|ptrs:na|ktp:N0|mc:179457|mtp:S|qry_typ:P|lang:en|wc:3|cs:8898|v=4,Korutla Jute Bags,https://www.indiamart.com/korutlajutebags/?pos=165&kwd=baby bottle cover&tags=||||8820.5625|Price|product|||MDC|rsf:gd-|-stype:attr=1|qr_nm:gd|res:RC4|com-cf:nl|ptrs:na|ktp:N0|mc:179457|mtp:S|qry_typ:P|lang:en|wc:3|cs:8898|v=4,False,,Koratla,"1-1-80/1, Jagtial Armur Road, TRS Party Office,, Koratla - 505326, Dist.Karim Nagar, Telangana",8045737320,
Brown Water Bottle Jute Bag,https://www.indiamart.com/proddetail/water-bottle-jute-bag-2853954463148.html?pos=166&kwd=baby bottle cover&tags=||||9520.041|Price|product|||MDC|rsf:gd-|-stype:attr=1|qr_nm:gd|res:RC4|com-cf:nl|ptrs:na|ktp:N0|mc:179457|mtp:S|qry_typ:P|lang:en|wc:3|cs:8898|v=4,Urmisha Paper Products Private Limited,https://www.indiamart.com/urmisha-paper-products/?pos=166&kwd=baby bottle cover&tags=||||9520.041|Price|product|||MDC|rsf:gd-|-stype:attr=1|qr_nm:gd|res:RC4|com-cf:nl|ptrs:na|ktp:N0|mc:179457|mtp:S|qry_typ:P|lang:en|wc:3|cs:8898|v=4,False,Bhagawan Pur,Patna,"A/74, A.G Colony, Asiyana ,Board Colony, Bhagawan Pur, Patna - 800025, Dist.Patna, Bihar",7942957126,
"Brown and Black Loop Handle Printed Bottle Jute Bag, Capacity: 2 L, Size/Dimension: 12.7 X 11.43 X 38.1cm",https://www.indiamart.com/proddetail/printed-bottle-jute-bag-25390811891.html?pos=167&kwd=baby bottle cover&tags=||||8211.142|Price|product|||MDC|rsf:gd-|-stype:attr=1|qr_nm:gd|res:RC4|com-cf:nl|ptrs:na|ktp:N0|mc:179457|mtp:S|qry_typ:P|lang:en|wc:3|cs:8898|v=4,Maimoon Enterprises,https://www.indiamart.com/maimoon-enterprisesmumbai/?pos=167&kwd=baby bottle cover&tags=||||8211.142|Price|product|||MDC|rsf:gd-|-stype:attr=1|qr_nm:gd|res:RC4|com-cf:nl|ptrs:na|ktp:N0|mc:179457|mtp:S|qry_typ:P|lang:en|wc:3|cs:8898|v=4,False,Kandivali West,Mumbai,"Flat No.1, Mariya Villa Bldg,Sant Savta Marg X Lane 2, Opp Masina Hospital, Kandivali West, Mumbai - 400067, Dist.Mumbai, Maharashtra",8048269258,
Designer Jute Wine Bag,https://www.indiamart.com/proddetail/designer-jute-wine-bag-15481974697.html?pos=168&kwd=baby bottle cover&tags=||||8752.144|Price|product|||MDC|rsf:gd-|-stype:attr=1|qr_nm:gd|res:RC4|com-cf:nl|ptrs:na|ktp:N0|mc:179457|mtp:S|qry_typ:P|lang:en|wc:3|cs:8898|v=4,The Azad Hind Handloom,https://www.indiamart.com/the-azad-hindhandloom/?pos=168&kwd=baby bottle cover&tags=||||8752.144|Price|product|||MDC|rsf:gd-|-stype:attr=1|qr_nm:gd|res:RC4|com-cf:nl|ptrs:na|ktp:N0|mc:179457|mtp:S|qry_typ:P|lang:en|wc:3|cs:8898|v=4,False,Krishna Nagar,New Delhi,"D/271, Mashjid Road, Khureji Patparganj Road, Krishna Nagar, New Delhi - 110051, Dist.Delhi, Delhi",8043875083,
Natural Rope Handle Jute Bottle Bag with Print Size 12x5x5 inch,https://www.indiamart.com/proddetail/jute-bottle-bag-with-print-size-12x5x5-inch-2852094563948.html?pos=169&kwd=baby bottle cover&tags=||||9848.189|Price|product|||MDC|rsf:gd-|-stype:attr=1|qr_nm:gd|res:RC4|com-cf:nl|ptrs:na|ktp:N0|mc:179457|mtp:S|qry_typ:P|lang:en|wc:3|cs:8898|v=4,AZM Enterprises,https://www.indiamart.com/azm-enterprisesiliguri/?pos=169&kwd=baby bottle cover&tags=||||9848.189|Price|product|||MDC|rsf:gd-|-stype:attr=1|qr_nm:gd|res:RC4|com-cf:nl|ptrs:na|ktp:N0|mc:179457|mtp:S|qry_typ:P|lang:en|wc:3|cs:8898|v=4,False,Siliguri Kolkata,Siliguri,"Ghokklajote, Patharghata Road,Ananta Society Gate, Matigara, Siliguri Kolkata, Siliguri - 734010, Dist.Darjiling, West Bengal",7942843349,
Brown Jute Wine Bag,https://www.indiamart.com/proddetail/brown-jute-wine-bag-2854946764662.html?pos=170&kwd=baby bottle cover&tags=||||9839.863|Price|product|||MDC|rsf:gd-|-stype:attr=1|qr_nm:gd|res:RC4|com-cf:nl|ptrs:na|ktp:N0|mc:179457|mtp:S|qry_typ:P|lang:en|wc:3|cs:8898|v=4,Vivaan Lifestyle Private Limited,https://www.indiamart.com/vivaanlifestyle/?pos=170&kwd=baby bottle cover&tags=||||9839.863|Price|product|||MDC|rsf:gd-|-stype:attr=1|qr_nm:gd|res:RC4|com-cf:nl|ptrs:na|ktp:N0|mc:179457|mtp:S|qry_typ:P|lang:en|wc:3|cs:8898|v=4,False,,Chandannagar,"Unit Victoria Jute Mill, C/O RDB Textiles Limited, 19, R.P.M. Street, Telinipara, Bhadreswar, Chandannagar - 712125, Dist.Hooghly, West Bengal",8044456580,
Plain Loop Handle Bottle Jute Bag,https://www.indiamart.com/proddetail/loop-handle-bottle-jute-bag-21411794597.html?pos=171&kwd=baby bottle cover&tags=||||9839.57|Price|product|||MDC|rsf:gd-|-stype:attr=1|qr_nm:gd|res:RC4|com-cf:nl|ptrs:na|ktp:N0|mc:179457|mtp:S|qry_typ:P|lang:en|wc:3|cs:8898|v=4,Bhajanka Enterprise,https://www.indiamart.com/bhajanka-enterprises/?pos=171&kwd=baby bottle cover&tags=||||9839.57|Price|product|||MDC|rsf:gd-|-stype:attr=1|qr_nm:gd|res:RC4|com-cf:nl|ptrs:na|ktp:N0|mc:179457|mtp:S|qry_typ:P|lang:en|wc:3|cs:8898|v=4,False,,Kolkata,"133, Cotton Street, 2nd Floor, Burrabazar, Kolkata - 700007, Dist.Kolkata, West Bengal",8045730512,
"Plain Unisex Transparent Window Bottle Bag, Size/Dimension: 34 H X 32 W X 12 Cm",https://www.indiamart.com/proddetail/transparent-window-bottle-bag-21079672912.html?pos=172&kwd=baby bottle cover&tags=||||9829.308|Price|product|||MDC|rsf:gd-|-stype:attr=1|qr_nm:gd|res:RC4|com-cf:nl|ptrs:na|ktp:N0|mc:179457|mtp:S|qry_typ:P|lang:en|wc:3|cs:8898|v=4,Tokra Impex,https://www.indiamart.com/tokraimpex/?pos=172&kwd=baby bottle cover&tags=||||9829.308|Price|product|||MDC|rsf:gd-|-stype:attr=1|qr_nm:gd|res:RC4|com-cf:nl|ptrs:na|ktp:N0|mc:179457|mtp:S|qry_typ:P|lang:en|wc:3|cs:8898|v=4,False,Bakultala,Howrah,"C/o Manik Bhawan, 160 Badal Bose Sarani, Bakultala, Howrah - 711109, Dist.Howrah, West Bengal",7942558468,
Mixed Colour Loop Handle Printed Bottle Jute Bag,https://www.indiamart.com/proddetail/printed-bottle-jute-bag-2854375608591.html?pos=173&kwd=baby bottle cover&tags=||||10180.86|Price|product|||MDC|rsf:gd-|-stype:attr=1|qr_nm:gd|res:RC4|com-cf:nl|ptrs:na|ktp:N0|mc:179457|mtp:S|qry_typ:P|lang:en|wc:3|cs:8898|v=4,S.B. Enterprises,https://www.indiamart.com/sbenterprises-guwahati/?pos=173&kwd=baby bottle cover&tags=||||10180.86|Price|product|||MDC|rsf:gd-|-stype:attr=1|qr_nm:gd|res:RC4|com-cf:nl|ptrs:na|ktp:N0|mc:179457|mtp:S|qry_typ:P|lang:en|wc:3|cs:8898|v=4,False,Metropolitan,Guwahati,"Ground Floor, House No 13, Sreebumi Nagar, Bye Lane-3 Left Side, Adagudam, Udalbakra, Metropolitan, Guwahati - 781034, Dist.Kamrup, Assam",7949336691,
Brown(Base) Printed Bottle Jute Bag,https://www.indiamart.com/proddetail/printed-bottle-jute-bag-2854907067155.html?pos=174&kwd=baby bottle cover&tags=||||9843.627|Price|product|||MDC|rsf:gd-|-stype:attr=1|qr_nm:gd|res:RC4|com-cf:nl|ptrs:na|ktp:N0|mc:179457|mtp:S|qry_typ:P|lang:en|wc:3|cs:8898|v=4,Prime Pulse Enterprise,https://www.indiamart.com/prime-pulse-enterprise/?pos=174&kwd=baby bottle cover&tags=||||9843.627|Price|product|||MDC|rsf:gd-|-stype:attr=1|qr_nm:gd|res:RC4|com-cf:nl|ptrs:na|ktp:N0|mc:179457|mtp:S|qry_typ:P|lang:en|wc:3|cs:8898|v=4,False,,North 24 Parganas,"10, Surya Apartment, Bangur Avenue, Kolkata, North 24 Parganas - 700055, Dist.North 24 Parganas, West Bengal",7949330298,
"Rectangular Silicone Hand Sanitizer Bottle Cover, Capacity: 500 ml",https://www.indiamart.com/proddetail/rectangular-silicone-hand-sanitizer-bottle-cover-25370041273.html?pos=175&kwd=baby bottle cover&tags=||||8211.142|Price|product|||TS|rsf:gd-|-stype:attr=1|qr_nm:gd|res:RC4|com-cf:nl|ptrs:na|ktp:N0|mc:179457|mtp:S|qry_typ:P|lang:en|wc:3|cs:8898|v=4,Pyrex Plastics,https://www.pyrexplastics.in/?pos=175&kwd=baby bottle cover&tags=||||8211.142|Price|product|||TS|rsf:gd-|-stype:attr=1|qr_nm:gd|res:RC4|com-cf:nl|ptrs:na|ktp:N0|mc:179457|mtp:S|qry_typ:P|lang:en|wc:3|cs:8898|v=4,False,Andheri East,Mumbai,"A2,106 Subh Innovate Industrial east vasai east, Andheri East, Mumbai - 400058, Dist.Mumbai, Maharashtra",8047636033,
"Plastic Baby Water Bottle, Capacity: 250 mL",https://www.indiamart.com/proddetail/baby-water-bottle-2852515272933.html?pos=176&kwd=baby bottle cover&tags=||||8211.142|Price|product|||TS|rsf:gd-|-stype:attr=1|qr_nm:gd|res:RC4|com-cf:nl|ptrs:na|ktp:N0|mc:179457|mtp:S|qry_typ:P|lang:en|wc:3|cs:8898|v=4,P For Panda Baby Products Private Limited,https://www.p4pandababyproducts.com/?pos=176&kwd=baby bottle cover&tags=||||8211.142|Price|product|||TS|rsf:gd-|-stype:attr=1|qr_nm:gd|res:RC4|com-cf:nl|ptrs:na|ktp:N0|mc:179457|mtp:S|qry_typ:P|lang:en|wc:3|cs:8898|v=4,False,Goregaon West,Mumbai,"904 A Wing,9 Th Floor,Triple S Heights,Jakeria Road, Goregaon West, Mumbai - 400064, Dist.Mumbai, Maharashtra",7942710871,
Natural Loop Handle Bottle Cover,https://www.indiamart.com/proddetail/bottle-cover-2852053629030.html?pos=177&kwd=baby bottle cover&tags=||||8601.347|Price|product|||TS|rsf:gd-|-stype:attr=1|qr_nm:gd|res:RC4|com-cf:nl|ptrs:na|ktp:N0|mc:179457|mtp:S|qry_typ:P|lang:en|wc:3|cs:8898|v=4,Vikalp Advertising,https://www.vikalpadvertising.com/?pos=177&kwd=baby bottle cover&tags=||||8601.347|Price|product|||TS|rsf:gd-|-stype:attr=1|qr_nm:gd|res:RC4|com-cf:nl|ptrs:na|ktp:N0|mc:179457|mtp:S|qry_typ:P|lang:en|wc:3|cs:8898|v=4,False,Ashok Nagar,Jaipur,"No. 114-115, First Floor, Samodia Tower, Dudu Bagh, Loha Mandi S.C. Road, Ashok Nagar, Jaipur - 302001, Dist.Jaipur, Rajasthan",8046063844,
Bottle Cover,https://www.indiamart.com/proddetail/bottle-cover-17715118791.html?pos=178&kwd=baby bottle cover&tags=||||8228.275|Price|product|||TS|rsf:gd-|-stype:attr=1|qr_nm:gd|res:RC4|com-cf:nl|ptrs:na|ktp:N0|mc:179457|mtp:S|qry_typ:P|lang:en|wc:3|cs:8898|v=4,Nirman Bags,https://www.indiamart.com/nirmanbags/?pos=178&kwd=baby bottle cover&tags=||||8228.275|Price|product|||TS|rsf:gd-|-stype:attr=1|qr_nm:gd|res:RC4|com-cf:nl|ptrs:na|ktp:N0|mc:179457|mtp:S|qry_typ:P|lang:en|wc:3|cs:8898|v=4,False,Saraspur,Ahmedabad,"D-348, Sumel Business Park 4, Saraspur, Ahmedabad - 380018, Dist.Ahmedabad, Gujarat",8048963711,
Brown Rope Handle Jute Bottle Cover,https://www.indiamart.com/proddetail/jute-bottle-cover-2853899285830.html?pos=179&kwd=baby bottle cover&tags=||||8752.144|Price|product|||TS|rsf:gd-|-stype:attr=1|qr_nm:gd|res:RC4|com-cf:nl|ptrs:na|ktp:N0|mc:179457|mtp:S|qry_typ:P|lang:en|wc:3|cs:8898|v=4,Sarfraaz Jute Handicrafts,https://www.indiamart.com/sarfraaz-jutehandicrafts/?pos=179&kwd=baby bottle cover&tags=||||8752.144|Price|product|||TS|rsf:gd-|-stype:attr=1|qr_nm:gd|res:RC4|com-cf:nl|ptrs:na|ktp:N0|mc:179457|mtp:S|qry_typ:P|lang:en|wc:3|cs:8898|v=4,False,DELHI POLICE,New Delhi,"B-110 New B-193 Gali No.3 Shri Ram Colony Rajiv Nagar Khajuri, DELHI POLICE, New Delhi - 110094, Dist.Delhi, Delhi",8044010206,
Black Bottle Cover Bag,https://www.indiamart.com/proddetail/bottle-cover-bag-21187789897.html?pos=180&kwd=baby bottle cover&tags=||||8281.036|Price|product|||TS|rsf:gd-|-stype:attr=1|qr_nm:gd|res:RC4|com-cf:nl|ptrs:na|ktp:N0|mc:179457|mtp:S|qry_typ:P|lang:en|wc:3|cs:8898|v=4,Shree Narmada Enterprise,https://www.dollybags.co.in/?pos=180&kwd=baby bottle cover&tags=||||8281.036|Price|product|||TS|rsf:gd-|-stype:attr=1|qr_nm:gd|res:RC4|com-cf:nl|ptrs:na|ktp:N0|mc:179457|mtp:S|qry_typ:P|lang:en|wc:3|cs:8898|v=4,False,Kalupura,Vadodara,"0, Amarapur Bhavan, Nr. Vayudevta Temple,Bajwada Main Road,, Kalupura, Vadodara - 390001, Dist.Vadodara, Gujarat",8046039256,
"Black Zipper Bottle Cover, Capacity: 500 Ml",https://www.indiamart.com/proddetail/black-zipper-bottle-cover-23248824488.html?pos=181&kwd=baby bottle cover&tags=||||8281.036|Price|product|||TS|rsf:gd-|-stype:attr=1|qr_nm:gd|res:RC4|com-cf:nl|ptrs:na|ktp:N0|mc:179457|mtp:S|qry_typ:P|lang:en|wc:3|cs:8898|v=4,New Era,https://www.indiamart.com/new-era-vadodara/?pos=181&kwd=baby bottle cover&tags=||||8281.036|Price|product|||TS|rsf:gd-|-stype:attr=1|qr_nm:gd|res:RC4|com-cf:nl|ptrs:na|ktp:N0|mc:179457|mtp:S|qry_typ:P|lang:en|wc:3|cs:8898|v=4,False,Bapunagar,Vadodara,"G-59 Warasia Ring Road Chaturbhai Park Society Warshiya Main Road, Bapunagar, Vadodara - 390006, Dist.Vadodara, Gujarat",8047768024,
"Full Cover Bottle, Capacity: 6 ml",https://www.indiamart.com/proddetail/full-cover-bottle-22193536748.html?pos=182&kwd=baby bottle cover&tags=||||8210.732|Price|product|||TS|rsf:gd-|-stype:attr=1|qr_nm:gd|res:RC4|com-cf:nl|ptrs:na|ktp:N0|mc:179457|mtp:S|qry_typ:P|lang:en|wc:3|cs:8898|v=4,Iconics Aluplast India Pvt. Ltd.,https://www.iconicsaluplast.in/?pos=182&kwd=baby bottle cover&tags=||||8210.732|Price|product|||TS|rsf:gd-|-stype:attr=1|qr_nm:gd|res:RC4|com-cf:nl|ptrs:na|ktp:N0|mc:179457|mtp:S|qry_typ:P|lang:en|wc:3|cs:8898|v=4,False,Vasai East,Vasai,"Unit No. 113, Apex Commercial Premises, Nh 8, Opp. Golden Chariot Hotel, Vasai East, Vasai - 401208, Dist.Thane, Maharashtra",8048964769,
PVC Water Bottle Cover,https://www.indiamart.com/proddetail/water-bottle-cover-2853515742773.html?pos=183&kwd=baby bottle cover&tags=||||8747.203|Price|product|||TS|rsf:gd-|-stype:attr=1|qr_nm:gd|res:RC4|com-cf:nl|ptrs:na|ktp:N0|mc:179457|mtp:S|qry_typ:P|lang:en|wc:3|cs:8898|v=4,Keshav Furnishing,https://www.realdreamdecor.com/?pos=183&kwd=baby bottle cover&tags=||||8747.203|Price|product|||TS|rsf:gd-|-stype:attr=1|qr_nm:gd|res:RC4|com-cf:nl|ptrs:na|ktp:N0|mc:179457|mtp:S|qry_typ:P|lang:en|wc:3|cs:8898|v=4,False,Colony,Panipat,"M/S Keshav Furnishing Wadhwa Ram Colony, Colony, Panipat - 132103, Dist.Panipat, Haryana",8043873577,
Long Shoulder Length Zipper Jute Water Bottle Carry Bags,https://www.indiamart.com/proddetail/jute-water-bottle-carry-bags-25737269091.html?pos=184&kwd=baby bottle cover&tags=||||8752.144|Price|product|||TS|rsf:gd-|-stype:attr=1|qr_nm:gd|res:RC4|com-cf:nl|ptrs:na|ktp:N0|mc:179457|mtp:S|qry_typ:P|lang:en|wc:3|cs:8898|v=4,Krishna Enterprises,https://www.oofyjute.in/?pos=184&kwd=baby bottle cover&tags=||||8752.144|Price|product|||TS|rsf:gd-|-stype:attr=1|qr_nm:gd|res:RC4|com-cf:nl|ptrs:na|ktp:N0|mc:179457|mtp:S|qry_typ:P|lang:en|wc:3|cs:8898|v=4,False,Shastri Nagar,New Delhi,"B-942, Second Floor, Shastri Nagar, Shastri Nagar, New Delhi - 110052, Dist.Delhi, Delhi",8047658397,
Water Bottle Cover,https://www.indiamart.com/proddetail/water-bottle-cover-22246436597.html?pos=185&kwd=baby bottle cover&tags=||||8752.144|Price|product|||TS|rsf:gd-|-stype:attr=1|qr_nm:gd|res:RC4|com-cf:nl|ptrs:na|ktp:N0|mc:179457|mtp:S|qry_typ:P|lang:en|wc:3|cs:8898|v=4,Clean India Solutions,https://www.cleanindiasolutions.com/?pos=185&kwd=baby bottle cover&tags=||||8752.144|Price|product|||TS|rsf:gd-|-stype:attr=1|qr_nm:gd|res:RC4|com-cf:nl|ptrs:na|ktp:N0|mc:179457|mtp:S|qry_typ:P|lang:en|wc:3|cs:8898|v=4,False,Rohini Sector 15,New Delhi,"Block No. D-5/12, Rohini, Sec-15, Rohini Sector 15, New Delhi - 110089, Dist.Delhi, Delhi",8047632009,
Polyester Water Bottle Cover,https://www.indiamart.com/proddetail/water-bottle-cover-2853128714962.html?pos=186&kwd=baby bottle cover&tags=||||8752.144|Price|product|||TS|rsf:gd-|-stype:attr=1|qr_nm:gd|res:RC4|com-cf:nl|ptrs:na|ktp:N0|mc:179457|mtp:S|qry_typ:P|lang:en|wc:3|cs:8898|v=4,Roshi Enterprises,https://www.roshienterprises.com/?pos=186&kwd=baby bottle cover&tags=||||8752.144|Price|product|||TS|rsf:gd-|-stype:attr=1|qr_nm:gd|res:RC4|com-cf:nl|ptrs:na|ktp:N0|mc:179457|mtp:S|qry_typ:P|lang:en|wc:3|cs:8898|v=4,False,Wazirabad,New Delhi,"Flat No. Pvt-28,Front Portion 1st Floor, Plot No 28/1-A ,Kh.No. 269/228/173,Gali Number 9,Wazirbad Central, Wazirabad, New Delhi - 110084, Dist.Delhi, Delhi",7942720164,
"Shoulder Water Bottle Cover, Size/Dimension: 14-6 Inch, Capacity: 1 Liter",https://www.indiamart.com/proddetail/water-bottle-cover-2849636311691.html?pos=187&kwd=baby bottle cover&tags=||||8785.791|Price|product|||TS|rsf:gd-|-stype:attr=1|qr_nm:gd|res:RC4|com-cf:nl|ptrs:na|ktp:N0|mc:179457|mtp:S|qry_typ:P|lang:en|wc:3|cs:8898|v=4,House Of Pouch,https://www.houseofpouch.com/?pos=187&kwd=baby bottle cover&tags=||||8785.791|Price|product|||TS|rsf:gd-|-stype:attr=1|qr_nm:gd|res:RC4|com-cf:nl|ptrs:na|ktp:N0|mc:179457|mtp:S|qry_typ:P|lang:en|wc:3|cs:8898|v=4,False,Vaishali,Ghaziabad,"Lower Ground Floor, Plot No. 884, Vaishali, Sector 5, Vaishali, Ghaziabad - 201010, Dist.Ghaziabad, Uttar Pradesh",7942553082,
Bottle Cover Bag,https://www.indiamart.com/proddetail/bottle-cover-bag-14555125012.html?pos=188&kwd=baby bottle cover&tags=||||8813.969|Price|product|||TS|rsf:gd-|-stype:attr=1|qr_nm:gd|res:RC4|com-cf:nl|ptrs:na|ktp:N0|mc:179457|mtp:S|qry_typ:P|lang:en|wc:3|cs:8898|v=4,Ajanta Bags,https://www.ajantabags.in/?pos=188&kwd=baby bottle cover&tags=||||8813.969|Price|product|||TS|rsf:gd-|-stype:attr=1|qr_nm:gd|res:RC4|com-cf:nl|ptrs:na|ktp:N0|mc:179457|mtp:S|qry_typ:P|lang:en|wc:3|cs:8898|v=4,False,Naval Vihar,Meerut,"123, Tirupati Industrial Area, Mohkampur Delhi Road, Naval Vihar, Meerut - 250002, Dist.Meerut, Uttar Pradesh",8048959925,
BLUE Jute Bottle Cover,https://www.indiamart.com/proddetail/jute-bottle-cover-2853195346673.html?pos=189&kwd=baby bottle cover&tags=||||8752.144|Price|product|||TS|rsf:gd-|-stype:attr=1|qr_nm:gd|res:RC4|com-cf:nl|ptrs:na|ktp:N0|mc:179457|mtp:S|qry_typ:P|lang:en|wc:3|cs:8898|v=4,Tayal Trading Company,https://www.indiamart.com/tayaltradingcompany/?pos=189&kwd=baby bottle cover&tags=||||8752.144|Price|product|||TS|rsf:gd-|-stype:attr=1|qr_nm:gd|res:RC4|com-cf:nl|ptrs:na|ktp:N0|mc:179457|mtp:S|qry_typ:P|lang:en|wc:3|cs:8898|v=4,False,Chandni Chowk,New Delhi,"No. 2495, Chatta Shahji, Chawri Bazar, Chandni Chowk, New Delhi - 110006, Dist.Delhi, Delhi",8048972064,
"Natural Jute Multicolor Water Bottle Cover, For Personal and office and home",https://www.indiamart.com/proddetail/water-bottle-cover-22377370833.html?pos=190&kwd=baby bottle cover&tags=||||8226.563|Price|product|||TS|rsf:gd-|-stype:attr=1|qr_nm:gd|res:RC4|com-cf:nl|ptrs:na|ktp:N0|mc:179457|mtp:S|qry_typ:P|lang:en|wc:3|cs:8898|v=4,Unroutine Social Enterprises,https://www.indiamart.com/unroutine/?pos=190&kwd=baby bottle cover&tags=||||8226.563|Price|product|||TS|rsf:gd-|-stype:attr=1|qr_nm:gd|res:RC4|com-cf:nl|ptrs:na|ktp:N0|mc:179457|mtp:S|qry_typ:P|lang:en|wc:3|cs:8898|v=4,False,Kharghar,Navi Mumbai,"B2802 Sai Miracle Sector-35E, Kharghar, Navi Mumbai - 410210, Dist.Thane, Maharashtra",8048261512,
Canvas Water Bottle Cover,https://www.indiamart.com/proddetail/water-bottle-cover-19957721162.html?pos=191&kwd=baby bottle cover&tags=||||8752.144|Price|product|||TS|rsf:gd-|-stype:attr=1|qr_nm:gd|res:RC4|com-cf:nl|ptrs:na|ktp:N0|mc:179457|mtp:S|qry_typ:P|lang:en|wc:3|cs:8898|v=4,Jolly Bag Manufacturers,https://www.indiamart.com/jolly-bag-mfrs/?pos=191&kwd=baby bottle cover&tags=||||8752.144|Price|product|||TS|rsf:gd-|-stype:attr=1|qr_nm:gd|res:RC4|com-cf:nl|ptrs:na|ktp:N0|mc:179457|mtp:S|qry_typ:P|lang:en|wc:3|cs:8898|v=4,False,Sadar Bazaar,New Delhi,"2892/4, Singhara Chowk,,Nabi Karim, Sadar Bazaar, New Delhi - 110056, Dist.Delhi, Delhi",7948548532,
Silicone Bottle Cover,https://www.indiamart.com/proddetail/silicone-bottle-cover-2854126138691.html?pos=192&kwd=baby bottle cover&tags=||||8210.732|Price|product|||TS|rsf:gd-|-stype:attr=1|qr_nm:gd|res:RC4|com-cf:nl|ptrs:na|ktp:N0|mc:179457|mtp:S|qry_typ:P|lang:en|wc:3|cs:8898|v=4,A One Lables,https://www.indiamart.com/a-one-lables/?pos=192&kwd=baby bottle cover&tags=||||8210.732|Price|product|||TS|rsf:gd-|-stype:attr=1|qr_nm:gd|res:RC4|com-cf:nl|ptrs:na|ktp:N0|mc:179457|mtp:S|qry_typ:P|lang:en|wc:3|cs:8898|v=4,False,Bapane,Vasai Virar,"Gala No118,1st Floor,Arvind Indl Est,Vasai Virar City M Corp,Vasai,Palghar, Bapane, Vasai Virar - 401202, Dist.Thane, Maharashtra",8044564723,
Water Bottle Cover,https://www.indiamart.com/proddetail/water-bottle-cover-12630546673.html?pos=193&kwd=baby bottle cover&tags=||||8752.144|Price|product|||TS|rsf:gd-|-stype:attr=1|qr_nm:gd|res:RC4|com-cf:nl|ptrs:na|ktp:N0|mc:179457|mtp:S|qry_typ:P|lang:en|wc:3|cs:8898|v=4,Kishan Enterprises,https://www.indiamart.com/kishanenterprises-delhi/?pos=193&kwd=baby bottle cover&tags=||||8752.144|Price|product|||TS|rsf:gd-|-stype:attr=1|qr_nm:gd|res:RC4|com-cf:nl|ptrs:na|ktp:N0|mc:179457|mtp:S|qry_typ:P|lang:en|wc:3|cs:8898|v=4,False,Hari Nagar,New Delhi,"A-40, 3rd Floor, Hari Nagar, Hari Nagar, New Delhi - 110064, Dist.Delhi, Delhi",8047646224,
"Off White Loop Handle Water Bottle Cover, Size/Dimension: 4x14 Inches, Capacity: 1 Liter",https://www.indiamart.com/proddetail/water-bottle-cover-2850474537633.html?pos=194&kwd=baby bottle cover&tags=||||9110.092|Price|product|||TS|rsf:gd-|-stype:attr=1|qr_nm:gd|res:RC4|com-cf:nl|ptrs:na|ktp:N0|mc:179457|mtp:S|qry_typ:P|lang:en|wc:3|cs:8898|v=4,Shivkriti Enterprises,https://www.indiamart.com/shivkriti-enterprises/?pos=194&kwd=baby bottle cover&tags=||||9110.092|Price|product|||TS|rsf:gd-|-stype:attr=1|qr_nm:gd|res:RC4|com-cf:nl|ptrs:na|ktp:N0|mc:179457|mtp:S|qry_typ:P|lang:en|wc:3|cs:8898|v=4,False,Gomti Nagar,Lucknow,"2/65,Viswaskhand, Gomti Nagar, Gomti Nagar, Lucknow - 226010, Dist.Lucknow, Uttar Pradesh",7942561296,
"Green Plastic Baby Bottle, Capacity: 100 mL, Age Group: Newly Born",https://www.indiamart.com/proddetail/plastic-baby-bottle-22001007833.html?pos=195&kwd=baby bottle cover&tags=||||8752.144|Price|product|||TS|rsf:gd-|-stype:attr=1|qr_nm:gd|res:RC4|com-cf:nl|ptrs:na|ktp:N0|mc:179457|mtp:S|qry_typ:P|lang:en|wc:3|cs:8898|v=4,Dua Traders,https://www.indiamart.com/duatraders-delhi/?pos=195&kwd=baby bottle cover&tags=||||8752.144|Price|product|||TS|rsf:gd-|-stype:attr=1|qr_nm:gd|res:RC4|com-cf:nl|ptrs:na|ktp:N0|mc:179457|mtp:S|qry_typ:P|lang:en|wc:3|cs:8898|v=4,False,Mandoli,New Delhi,"Plot No. 8, Kh No. 4/24, Mela Ram Vatika, E-block, JR Complex No. 4, Mandoli, Sevadham, Mandoli, New Delhi - 110093, Dist.Delhi, Delhi",8048971741,
"Plastic Baby Wide Neck Bottle, Age Group: 3-12 Months",https://www.indiamart.com/proddetail/plastic-baby-wide-neck-bottle-23634188891.html?pos=196&kwd=baby bottle cover&tags=||||8741.812|Price|product|||MDC|rsf:gd-|-stype:attr=1|qr_nm:gd|res:RC4|com-cf:nl|ptrs:na|ktp:N0|mc:179457|mtp:S|qry_typ:P|lang:en|wc:3|cs:8898|v=4,Royal Baby Products (India),https://www.indiamart.com/royal-baby-products/?pos=196&kwd=baby bottle cover&tags=||||8741.812|Price|product|||MDC|rsf:gd-|-stype:attr=1|qr_nm:gd|res:RC4|com-cf:nl|ptrs:na|ktp:N0|mc:179457|mtp:S|qry_typ:P|lang:en|wc:3|cs:8898|v=4,False,Sarhaul,Gurugram,"Ground Floor, M-2/22, Dlf City Phase II, Dlf City Phase II, Sarhaul, Gurugram - 122008, Dist.Gurgaon, Haryana",8048613476,
Polyester 1L Water Bottle Cover,https://www.indiamart.com/proddetail/1l-water-bottle-cover-2853333635548.html?pos=197&kwd=baby bottle cover&tags=||||8747.223|Price|product|||TS|rsf:gd-|-stype:attr=1|qr_nm:gd|res:RC4|com-cf:nl|ptrs:na|ktp:N0|mc:179457|mtp:S|qry_typ:P|lang:en|wc:3|cs:8898|v=4,Bright Moulding Works,https://www.indiamart.com/brightmouldingworks/?pos=197&kwd=baby bottle cover&tags=||||8747.223|Price|product|||TS|rsf:gd-|-stype:attr=1|qr_nm:gd|res:RC4|com-cf:nl|ptrs:na|ktp:N0|mc:179457|mtp:S|qry_typ:P|lang:en|wc:3|cs:8898|v=4,False,Sector 38,Sonipat,"2092, HSIIDC Industrial Estate Phase 2, Rai Industrial Area, Sector 38, Sonipat - 131029, Dist.Sonipat, Haryana",7942557550,
"Cotton Black Bisleri Water Bottle Cover, Size/Dimension: 43 X40 cm, Capacity: 18 L",https://www.indiamart.com/proddetail/bisleri-water-bottle-cover-2849256158330.html?pos=198&kwd=baby bottle cover&tags=||||8769.508|Price|product|||TS|rsf:gd-|-stype:attr=1|qr_nm:gd|res:RC4|com-cf:nl|ptrs:na|ktp:N0|mc:179457|mtp:S|qry_typ:P|lang:en|wc:3|cs:8898|v=4,S.G Enterprises,https://www.indiamart.com/sg-enterprises-haryana/?pos=198&kwd=baby bottle cover&tags=||||8769.508|Price|product|||TS|rsf:gd-|-stype:attr=1|qr_nm:gd|res:RC4|com-cf:nl|ptrs:na|ktp:N0|mc:179457|mtp:S|qry_typ:P|lang:en|wc:3|cs:8898|v=4,False,Agwanpur Village,Faridabad,"Plot No-146, Subhash Colony, Suraj Kund Road, Shiv Durga Vihar Lakkarpur, Agwanpur Village, Faridabad - 121009, Dist.Faridabad, Haryana",8043808714,
"Polyester Red Magnetic Water Bottle Cover, For Bottles",https://www.indiamart.com/proddetail/magnetic-water-bottle-cover-26341172430.html?pos=199&kwd=baby bottle cover&tags=||||8316.457|Price|product|||TS|rsf:gd-|-stype:attr=1|qr_nm:gd|res:RC4|com-cf:nl|ptrs:na|ktp:N0|mc:179457|mtp:S|qry_typ:P|lang:en|wc:3|cs:8898|v=4,Unique Product Suppliers,https://www.uniqueproductsuppliers.com/?pos=199&kwd=baby bottle cover&tags=||||8316.457|Price|product|||TS|rsf:gd-|-stype:attr=1|qr_nm:gd|res:RC4|com-cf:nl|ptrs:na|ktp:N0|mc:179457|mtp:S|qry_typ:P|lang:en|wc:3|cs:8898|v=4,False,Nashik Road,Nashik,"2nd Floor, Near Pekhle Hospital, Deolali Gaon, M. G. Road, Nashik Road, Nashik Road, Nashik - 422101, Dist.Nashik, Maharashtra",8043851339,
Glass SKY BLUE ARS-73-A-Gass Bottle Silicon Cover,https://www.indiamart.com/proddetail/ars-73-a-glass-bottle-silicon-cover-23284143212.html?pos=200&kwd=baby bottle cover&tags=||||8752.144|Price|product|||TS|rsf:gd-|-stype:attr=1|qr_nm:gd|res:RC4|com-cf:nl|ptrs:na|ktp:N0|mc:179457|mtp:S|qry_typ:P|lang:en|wc:3|cs:8898|v=4,Vishal Vastu Bhandar,https://www.batliwale.in/?pos=200&kwd=baby bottle cover&tags=||||8752.144|Price|product|||TS|rsf:gd-|-stype:attr=1|qr_nm:gd|res:RC4|com-cf:nl|ptrs:na|ktp:N0|mc:179457|mtp:S|qry_typ:P|lang:en|wc:3|cs:8898|v=4,False,Delhi Sadar Bazar,New Delhi,"Shop No. 89, Crockery Market, Sadar Bazar, Delhi Sadar Bazar, New Delhi - 110006, Dist.Delhi, Delhi",8047642126,
Jute Customize Bottle Cover,https://www.indiamart.com/proddetail/jute-customize-bottle-cover-2851674303948.html?pos=201&kwd=baby bottle cover&tags=||||8915.672|Price|product|||TS|rsf:gd-|-stype:attr=1|qr_nm:gd|res:RC4|com-cf:nl|ptrs:na|ktp:N0|mc:179457|mtp:S|qry_typ:P|lang:en|wc:3|cs:8898|v=4,Design Magnifique,https://www.indiamart.com/design-magnifique/?pos=201&kwd=baby bottle cover&tags=||||8915.672|Price|product|||TS|rsf:gd-|-stype:attr=1|qr_nm:gd|res:RC4|com-cf:nl|ptrs:na|ktp:N0|mc:179457|mtp:S|qry_typ:P|lang:en|wc:3|cs:8898|v=4,False,Rehmat Nagar,Moradabad,"Gali No 8, Rehmat Nagar, Karula, Rehmat Nagar, Moradabad - 244001, Dist.Moradabad, Uttar Pradesh",8046068069,
Hot Water Bottle Cover,https://www.indiamart.com/proddetail/hot-water-bottle-cover-23025864788.html?pos=202&kwd=baby bottle cover&tags=||||8038.093|Price|product|||TS|rsf:gd-|-stype:attr=1|qr_nm:gd|res:RC4|com-cf:nl|ptrs:na|ktp:N0|mc:179457|mtp:S|qry_typ:P|lang:en|wc:3|cs:8898|v=4,Saumya Meditech,https://www.indiamart.com/saumya-meditech/?pos=202&kwd=baby bottle cover&tags=||||8038.093|Price|product|||TS|rsf:gd-|-stype:attr=1|qr_nm:gd|res:RC4|com-cf:nl|ptrs:na|ktp:N0|mc:179457|mtp:S|qry_typ:P|lang:en|wc:3|cs:8898|v=4,False,Rajkot,Rajkot,"5th Floor, D 503, Pujya Mahatma Gandhi Township, Speedwell Partyplot to Kankot Road, Opp Orbit Garden Appartment, Near Sanidhya Green Appartment, Rajkot, Rajkot - 360005, Dist.Rajkot, Gujarat",8046071103,
Astara Sanitizer Bottle Cover,https://www.indiamart.com/proddetail/astara-sanitizer-bottle-cover-22628024712.html?pos=203&kwd=baby bottle cover&tags=||||8752.144||product|||TS|rsf:gd-|-stype:attr=1|qr_nm:gd|res:RC4|com-cf:nl|ptrs:na|ktp:N0|mc:179457|mtp:S|qry_typ:P|lang:en|wc:3|cs:8898|v=4,Ara India,https://www.araindia.in/?pos=203&kwd=baby bottle cover&tags=||||8752.144||product|||TS|rsf:gd-|-stype:attr=1|qr_nm:gd|res:RC4|com-cf:nl|ptrs:na|ktp:N0|mc:179457|mtp:S|qry_typ:P|lang:en|wc:3|cs:8898|v=4,True,Vikaspuri,New Delhi,"C-472, Ground Floor, Vikaspuri, New Delhi - 110018, Dist.Delhi, Delhi",8046049586,
Jute Wine Bottle Cover,https://www.indiamart.com/proddetail/jute-wine-bottle-cover-21972932112.html?pos=204&kwd=baby bottle cover&tags=||||8752.144|Price|product|||TS|rsf:gd-|-stype:attr=1|qr_nm:gd|res:RC4|com-cf:nl|ptrs:na|ktp:N0|mc:179457|mtp:S|qry_typ:P|lang:en|wc:3|cs:8898|v=4,Bag Craft India Private Limited,https://www.bagcraftindia.in/?pos=204&kwd=baby bottle cover&tags=||||8752.144|Price|product|||TS|rsf:gd-|-stype:attr=1|qr_nm:gd|res:RC4|com-cf:nl|ptrs:na|ktp:N0|mc:179457|mtp:S|qry_typ:P|lang:en|wc:3|cs:8898|v=4,False,Shahdara,New Delhi,"6/56, IIIrd Floor Street No. 3, 60 Feet Road, Vishwas Nagar, Shahdara, New Delhi - 110032, Dist.Delhi, Delhi",8048958061,
Polyester Blue Water Dispenser Bottle Cover,https://www.indiamart.com/proddetail/water-dispenser-bottle-cover-20846028912.html?pos=205&kwd=baby bottle cover&tags=||||8228.275|Price|product|||TS|rsf:gd-|-stype:attr=1|qr_nm:gd|res:RC4|com-cf:nl|ptrs:na|ktp:N0|mc:179457|mtp:S|qry_typ:P|lang:en|wc:3|cs:8898|v=4,Nilkanth Enterprise,https://www.nilkanthenterprise.net/?pos=205&kwd=baby bottle cover&tags=||||8228.275|Price|product|||TS|rsf:gd-|-stype:attr=1|qr_nm:gd|res:RC4|com-cf:nl|ptrs:na|ktp:N0|mc:179457|mtp:S|qry_typ:P|lang:en|wc:3|cs:8898|v=4,False,Sarkhej,Ahmedabad,"16, Patel Estate, Near Ujala Circle, b/h patel Transport, Sarkhej, Ahmedabad - 382210, Dist.Ahmedabad, Gujarat",8047643307,
Nylon Hot Water Bottle Cover,https://www.indiamart.com/proddetail/hot-water-bottle-cover-2853669081712.html?pos=206&kwd=baby bottle cover&tags=||||8211.142|Price|product|||TS|rsf:gd-|-stype:attr=1|qr_nm:gd|res:RC4|com-cf:nl|ptrs:na|ktp:N0|mc:179457|mtp:S|qry_typ:P|lang:en|wc:3|cs:8898|v=4,Mahak Trenzs,https://www.indiamart.com/mahaktrenzs/?pos=206&kwd=baby bottle cover&tags=||||8211.142|Price|product|||TS|rsf:gd-|-stype:attr=1|qr_nm:gd|res:RC4|com-cf:nl|ptrs:na|ktp:N0|mc:179457|mtp:S|qry_typ:P|lang:en|wc:3|cs:8898|v=4,False,Dharavi,Mumbai,"144, Ashok Mill Compound, Gala No. C/8, Gr. Floor Sant Rohidas Marg, Kalla Killa, Dharavi, Mumbai - 400017, Dist.Mumbai, Maharashtra",8047643721,
Water Bottle Cover Leather,https://www.indiamart.com/proddetail/water-bottle-cover-leather-2854302573562.html?pos=207&kwd=baby bottle cover&tags=||||8211.142|Price|product|||TS|rsf:gd-|-stype:attr=1|qr_nm:gd|res:RC4|com-cf:nl|ptrs:na|ktp:N0|mc:179457|mtp:S|qry_typ:P|lang:en|wc:3|cs:8898|v=4,Hari Om Leather,https://www.hariomleather.com/?pos=207&kwd=baby bottle cover&tags=||||8211.142|Price|product|||TS|rsf:gd-|-stype:attr=1|qr_nm:gd|res:RC4|com-cf:nl|ptrs:na|ktp:N0|mc:179457|mtp:S|qry_typ:P|lang:en|wc:3|cs:8898|v=4,False,Dharavi,Mumbai,"D/53, Kalpatru CHS, Sion Bandra Link Road, Dharavi, Dharavi, Mumbai - 400017, Dist.Mumbai, Maharashtra",8047630927,
"500 mL Glass Bottle With Cover, For Beverage",https://www.indiamart.com/proddetail/glass-bottle-with-cover-2851811444533.html?pos=208&kwd=baby bottle cover&tags=||||8752.144|Price|product|||TS|rsf:gd-|-stype:attr=1|qr_nm:gd|res:RC4|com-cf:nl|ptrs:na|ktp:N0|mc:179457|mtp:S|qry_typ:P|lang:en|wc:3|cs:8898|v=4,Case Mantra,https://www.casemantra.co.in/?pos=208&kwd=baby bottle cover&tags=||||8752.144|Price|product|||TS|rsf:gd-|-stype:attr=1|qr_nm:gd|res:RC4|com-cf:nl|ptrs:na|ktp:N0|mc:179457|mtp:S|qry_typ:P|lang:en|wc:3|cs:8898|v=4,False,Karol Bagh,New Delhi,"11795,SAT NAGAR,6,KAROL BAGH, Karol Bagh, New Delhi - 110005, Dist.Delhi, Delhi",8047667724,
"Baby Fancy Feeder Cover, 0-2 Year",https://www.indiamart.com/proddetail/baby-fancy-feeder-cover-16998367297.html?pos=209&kwd=baby bottle cover&tags=||||8545.6045|Price|product|||MDC|rsf:gd-|-stype:attr=1|qr_nm:gd|res:RC4|com-cf:nl|ptrs:na|ktp:N0|mc:179457|mtp:S|qry_typ:P|lang:en|wc:3|cs:8898|v=4,Shri Siddhivinayak Traders,https://www.indiamart.com/shrisiddhivinayaktraders-firozpur/?pos=209&kwd=baby bottle cover&tags=||||8545.6045|Price|product|||MDC|rsf:gd-|-stype:attr=1|qr_nm:gd|res:RC4|com-cf:nl|ptrs:na|ktp:N0|mc:179457|mtp:S|qry_typ:P|lang:en|wc:3|cs:8898|v=4,False,Basti Nizamdin,Firozpur,"No.94, Anand Avenue, Backside Marked Office, Malwal Road, Firozpur City, Basti Nizamdin, Firozpur - 152002, Dist.Firozpur, Punjab",8046066644,
"Rectangular Silicone Hand Sanitizer Bottle Cover, Capacity: 500 ml",https://www.indiamart.com/proddetail/rectangular-silicone-hand-sanitizer-bottle-cover-25370041273.html?pos=210&kwd=baby bottle cover&tags=||||8211.142|Price|product|||TS|rsf:gd-|-stype:attr=1|qr_nm:gd|res:RC4|com-cf:nl|ptrs:na|ktp:N0|mc:179457|mtp:S|qry_typ:P|lang:en|wc:3|cs:8898|v=4,Pyrex Plastics,https://www.pyrexplastics.in/?pos=210&kwd=baby bottle cover&tags=||||8211.142|Price|product|||TS|rsf:gd-|-stype:attr=1|qr_nm:gd|res:RC4|com-cf:nl|ptrs:na|ktp:N0|mc:179457|mtp:S|qry_typ:P|lang:en|wc:3|cs:8898|v=4,False,Andheri East,Mumbai,"A2,106 Subh Innovate Industrial east vasai east, Andheri East, Mumbai - 400058, Dist.Mumbai, Maharashtra",8047636033,
