product_title,product_link,company_name,company_link,is_verified_exporter,city_region,city,address_details,phone_number,phone_number_extension
"AAditya White Baby Silicone Nipple, Packaging Type: Box, 1-2 Years",https://www.indiamart.com/proddetail/baby-silicone-nipple-22513633397.html?pos=1&kwd=baby nipples&tags=A||||8210.732|Price|product|||TS|rsf:gd-|-stype:attr=1|qr_nm:gd|res:RC3|com-cf:nl|ptrs:na|ktp:N0|mc:55653|mtp:G|qry_typ:P|lang:en|wc:2|flavl:6|cs:9596|v=4,Aditya Polymers,https://www.aadityapolymers.com/?pos=1&kwd=baby nipples&tags=A||||8210.732|Price|product|||TS|rsf:gd-|-stype:attr=1|qr_nm:gd|res:RC3|com-cf:nl|ptrs:na|ktp:N0|mc:55653|mtp:G|qry_typ:P|lang:en|wc:2|flavl:6|cs:9596|v=4,False,Gokhiware,Vasai,"106, A V Udhyog No. 3, Near Rajprabha Near Golani, Gokhiware, Vasai - 401208, Dist.Thane, Maharashtra",8048987383,
Bonny Products Transparent Bonne Bottle Nipples,https://www.indiamart.com/proddetail/bonne-bottle-nipples-10699311312.html?pos=2&kwd=baby nipples&tags=A||||8778.123|Price|product|||TS|rsf:gd-|-stype:attr=1|qr_nm:gd|res:RC3|com-cf:nl|ptrs:na|ktp:N0|mc:55653|mtp:G|qry_typ:P|lang:en|wc:2|flavl:6|cs:9596|v=4,Bonny Products Private Limited,https://www.feedingbottles.com/?pos=2&kwd=baby nipples&tags=A||||8778.123|Price|product|||TS|rsf:gd-|-stype:attr=1|qr_nm:gd|res:RC3|com-cf:nl|ptrs:na|ktp:N0|mc:55653|mtp:G|qry_typ:P|lang:en|wc:2|flavl:6|cs:9596|v=4,False,Sector 63,Noida,"D240, Sector 63, Sector 63, Noida - 201307, Dist.Gautam Budh Nagar, Uttar Pradesh",8046040824,
Transparent Baby Dolphin Anti Colic Nipples for Baby,https://www.indiamart.com/proddetail/baby-dolphin-anti-colic-nipples-for-baby-2853639925873.html?pos=3&kwd=baby nipples&tags=A||||8752.144|Price|product|||TS|rsf:gd-|-stype:attr=1|qr_nm:gd|res:RC3|com-cf:nl|ptrs:na|ktp:N0|mc:55653|mtp:G|qry_typ:P|lang:en|wc:2|flavl:6|cs:9596|v=4,Dolphin Baby Product,https://www.dolphinbabyproducts.com/?pos=3&kwd=baby nipples&tags=A||||8752.144|Price|product|||TS|rsf:gd-|-stype:attr=1|qr_nm:gd|res:RC3|com-cf:nl|ptrs:na|ktp:N0|mc:55653|mtp:G|qry_typ:P|lang:en|wc:2|flavl:6|cs:9596|v=4,False,Inderlok,New Delhi,"No. 488, 1st Floor, Shahzada Bagh, Industrial Area Phase 1, Inderlok, New Delhi - 110035, Dist.Delhi, Delhi",8048965296,
Silicone Baby Fruit Feeder,https://www.indiamart.com/proddetail/silicone-baby-fruit-feeder-2852001275312.html?pos=4&kwd=baby nipples&tags=A||||8624.416|Price|product|||MDC|rsf:gd-|-stype:attr=1|qr_nm:gd|res:RC3|com-cf:nl|ptrs:na|ktp:N0|mc:55653|mtp:G|qry_typ:P|lang:en|wc:2|flavl:6|cs:9596|v=4,Dayawanti Traders,https://www.indiamart.com/dayawati-trader/?pos=4&kwd=baby nipples&tags=A||||8624.416|Price|product|||MDC|rsf:gd-|-stype:attr=1|qr_nm:gd|res:RC3|com-cf:nl|ptrs:na|ktp:N0|mc:55653|mtp:G|qry_typ:P|lang:en|wc:2|flavl:6|cs:9596|v=4,False,Indira Colony,Hisar,"Plot No. 137 Dhani Kishandutt, Near Asha High School, Nancy Beauty Parlour, Indira Colony, Indira Colony, Hisar - 125001, Dist.Hisar, Haryana",7942701403,
"White Baby Feeding Silicone Nipple, 3 Months",https://www.indiamart.com/proddetail/baby-feeding-silicone-nipple-25599636191.html?pos=5&kwd=baby nipples&tags=A||||8211.142|Price|product|||TS|rsf:gd-|-stype:attr=1|qr_nm:gd|res:RC3|com-cf:nl|ptrs:na|ktp:N0|mc:55653|mtp:G|qry_typ:P|lang:en|wc:2|flavl:6|cs:9596|v=4,Silicone Products (India),https://www.indiamart.com/silicone-products-india/?pos=5&kwd=baby nipples&tags=A||||8211.142|Price|product|||TS|rsf:gd-|-stype:attr=1|qr_nm:gd|res:RC3|com-cf:nl|ptrs:na|ktp:N0|mc:55653|mtp:G|qry_typ:P|lang:en|wc:2|flavl:6|cs:9596|v=4,False,Borivali,Mumbai,"102, Aadinath Park Chs, 51 St Road, Shimpoli, Borivali West, Mumbai Suburban, Borivali, Mumbai - 400092, Dist.Mumbai, Maharashtra",8047652110,
Bos Medicare Baby Nipple,https://www.indiamart.com/proddetail/bos-medicare-baby-nipple-25013868873.html?pos=6&kwd=baby nipples&tags=A||||8752.144|Price|product|||TS|rsf:gd-|-stype:attr=1|qr_nm:gd|res:RC3|com-cf:nl|ptrs:na|ktp:N0|mc:55653|mtp:G|qry_typ:P|lang:en|wc:2|flavl:6|cs:9596|v=4,Bos Medicare Surgical,https://www.bosmedicare.com/?pos=6&kwd=baby nipples&tags=A||||8752.144|Price|product|||TS|rsf:gd-|-stype:attr=1|qr_nm:gd|res:RC3|com-cf:nl|ptrs:na|ktp:N0|mc:55653|mtp:G|qry_typ:P|lang:en|wc:2|flavl:6|cs:9596|v=4,False,Kishan Ganj,New Delhi,"Shop No 155, Kishan Ganj Market, Old Rohtak Road, Kishan Ganj, Kishan Ganj, New Delhi - 110007, Dist.Delhi, Delhi",7942826425,
"Claoberry Transparent Wide Mouth Nipple, Packaging Type: Box, Newly Born",https://www.indiamart.com/proddetail/wide-mouth-nipple-2852884150212.html?pos=7&kwd=baby nipples&tags=A||||8785.791|Price|product|||TS|rsf:gd-|-stype:attr=1|qr_nm:gd|res:RC3|com-cf:nl|ptrs:na|ktp:N0|mc:55653|mtp:G|qry_typ:P|lang:en|wc:2|flavl:6|cs:9596|v=4,Paras Enterprises,https://www.claoberry.com/?pos=7&kwd=baby nipples&tags=A||||8785.791|Price|product|||TS|rsf:gd-|-stype:attr=1|qr_nm:gd|res:RC3|com-cf:nl|ptrs:na|ktp:N0|mc:55653|mtp:G|qry_typ:P|lang:en|wc:2|flavl:6|cs:9596|v=4,False,Raj Nagar Extension,Ghaziabad,"KH.NO.-2565,VILLAGE KARHERA,MOHAN NAGAR,Ghaziabad, Raj Nagar Extension, Ghaziabad - 201007, Dist.Ghaziabad, Uttar Pradesh",8043862487,
"Royal Baby Baby Nipple, 3-12 Months",https://www.indiamart.com/proddetail/royal-baby-baby-nipple-23634256855.html?pos=8&kwd=baby nipples&tags=BA||||8741.812|Price|product|||MDC|rsf:gd-|-stype:attr=1|qr_nm:gd|res:RC3|com-cf:nl|ptrs:na|ktp:N0|mc:55653|mtp:G|qry_typ:P|lang:en|wc:2|flavl:6|cs:9596|v=4,Royal Baby Products (India),https://www.indiamart.com/royal-baby-products/?pos=8&kwd=baby nipples&tags=BA||||8741.812|Price|product|||MDC|rsf:gd-|-stype:attr=1|qr_nm:gd|res:RC3|com-cf:nl|ptrs:na|ktp:N0|mc:55653|mtp:G|qry_typ:P|lang:en|wc:2|flavl:6|cs:9596|v=4,False,Sarhaul,Gurugram,"Ground Floor, M-2/22, Dlf City Phase II, Dlf City Phase II, Sarhaul, Gurugram - 122008, Dist.Gurgaon, Haryana",8048613476,
"BPA Free Baby Fast Flow Nipples, Packaging Type: Box, 3-12 Months",https://www.indiamart.com/proddetail/bpa-free-baby-fast-flow-nipples-2851497399230.html?pos=9&kwd=baby nipples&tags=A||||8752.144|Price|product|||TS|rsf:gd-|-stype:attr=1|qr_nm:gd|res:RC3|com-cf:nl|ptrs:na|ktp:N0|mc:55653|mtp:G|qry_typ:P|lang:en|wc:2|flavl:6|cs:9596|v=4,Ekta Overseas,https://www.indiamart.com/ektaoverseas-newdelhi/?pos=9&kwd=baby nipples&tags=A||||8752.144|Price|product|||TS|rsf:gd-|-stype:attr=1|qr_nm:gd|res:RC3|com-cf:nl|ptrs:na|ktp:N0|mc:55653|mtp:G|qry_typ:P|lang:en|wc:2|flavl:6|cs:9596|v=4,False,Shahdara,New Delhi,"1/95, Gali No.3, Near Navjeevan Phisical Center, Vishwas Nagar, Shahdara,, Shahdara, New Delhi - 110032, Dist.Delhi, Delhi",7942628926,
Baby Peristaltic Nipple,https://www.indiamart.com/proddetail/baby-peristaltic-nipple-13989028488.html?pos=10&kwd=baby nipples&tags=A||||8211.142|Price|product|||TS|rsf:gd-|-stype:attr=1|qr_nm:gd|res:RC3|com-cf:nl|ptrs:na|ktp:N0|mc:55653|mtp:G|qry_typ:P|lang:en|wc:2|flavl:6|cs:9596|v=4,Gujarat Polymers,https://www.indiamart.com/gujaratpolymers-maharashtra/?pos=10&kwd=baby nipples&tags=A||||8211.142|Price|product|||TS|rsf:gd-|-stype:attr=1|qr_nm:gd|res:RC3|com-cf:nl|ptrs:na|ktp:N0|mc:55653|mtp:G|qry_typ:P|lang:en|wc:2|flavl:6|cs:9596|v=4,False,Andheri West,Mumbai,"No. 602, Centre Square, SV Road, Andheri West, Andheri West, Mumbai - 400058, Dist.Mumbai, Maharashtra",8046078043,
NIPPLE SOOTHER KENA CLASSIC 1*1 PCS,,Medilio Enterprise Private Limited,https://www.indiamart.com/mediloenterprise/?pos=11&kwd=baby nipples&tags=A||||8230.883|Price|product|||TS|rsf:gd-|-stype:attr=1|qr_nm:gd|res:RC3|com-cf:nl|ptrs:na|ktp:N0|mc:55653|mtp:G|qry_typ:P|lang:en|wc:2|flavl:6|cs:9596|v=4,False,Magob,Surat,"Shop No 428,417,418, 4th Floor Raghuvir Trade Center, Surat-Bardoli Road, Magob, Surat - 395010, Dist.Surat, Gujarat",,
"Silicone Fruit Feeder Nibbler, Capacity: 100 mL",https://www.indiamart.com/proddetail/silicone-fruit-feeder-nibbler-2854560551873.html?pos=12&kwd=baby nipples&tags=A||||8752.144|Price|product|||MDC|rsf:gd-|-stype:attr=1|qr_nm:gd|res:RC3|com-cf:nl|ptrs:na|ktp:N0|mc:55653|mtp:G|qry_typ:P|lang:en|wc:2|flavl:6|cs:9596|v=4,HS Enterprises,https://www.indiamart.com/hsenterprisesindia/?pos=12&kwd=baby nipples&tags=A||||8752.144|Price|product|||MDC|rsf:gd-|-stype:attr=1|qr_nm:gd|res:RC3|com-cf:nl|ptrs:na|ktp:N0|mc:55653|mtp:G|qry_typ:P|lang:en|wc:2|flavl:6|cs:9596|v=4,False,,New Delhi,"EE-496, Gali No. 10, North Delhi, New Delhi - 110042, Dist.Delhi, Delhi",7949329375,
Silicone Baby Nibbler Fruit Feeder,https://www.indiamart.com/proddetail/baby-nibbler-fruit-feeder-2854077723955.html?pos=13&kwd=baby nipples&tags=BA||||8752.144|Price|product|||MDC|rsf:gd-|-stype:attr=1|qr_nm:gd|res:RC3|com-cf:nl|ptrs:na|ktp:N0|mc:55653|mtp:G|qry_typ:P|lang:en|wc:2|flavl:6|cs:9596|v=4,Shubh Shakti Traders,https://www.indiamart.com/shubhshaktitraders/?pos=13&kwd=baby nipples&tags=BA||||8752.144|Price|product|||MDC|rsf:gd-|-stype:attr=1|qr_nm:gd|res:RC3|com-cf:nl|ptrs:na|ktp:N0|mc:55653|mtp:G|qry_typ:P|lang:en|wc:2|flavl:6|cs:9596|v=4,False,Wazirpur,New Delhi,"Ground Floor, House No.51, DSIDC Complex. Wazirpur Indl. Area, Landmark Old SBI Building, North West, Wazirpur, New Delhi - 110052, Dist.Delhi, Delhi",7949224945,
"Mamta Silicon Nipple For Baby Feeding Bottle, 3-12 Months",https://www.indiamart.com/proddetail/mamta-silicon-nipple-for-baby-feeding-bottle-2852403703648.html?pos=14&kwd=baby nipples&tags=A||||9839.57|Price|product|||TS|rsf:gd-|-stype:attr=1|qr_nm:gd|res:RC3|com-cf:nl|ptrs:na|ktp:N0|mc:55653|mtp:G|qry_typ:P|lang:en|wc:2|flavl:6|cs:9596|v=4,Soni Brothers,https://www.indiamart.com/soni-brothers-kolkata/?pos=14&kwd=baby nipples&tags=A||||9839.57|Price|product|||TS|rsf:gd-|-stype:attr=1|qr_nm:gd|res:RC3|com-cf:nl|ptrs:na|ktp:N0|mc:55653|mtp:G|qry_typ:P|lang:en|wc:2|flavl:6|cs:9596|v=4,False,Vaishya Sabha,Kolkata,"15, Ram Mohan Mullick Lane, Vaishya Sabha, Kolkata - 700007, Dist.Kolkata, West Bengal",8048963399,
"Transparent Wide Neck Baby Nipples, 0-2 Years",https://www.indiamart.com/proddetail/wide-neck-baby-nipples-21668433148.html?pos=15&kwd=baby nipples&tags=A||||8545.6045|Price|product|||MDC|rsf:gd-|-stype:attr=1|qr_nm:gd|res:RC3|com-cf:nl|ptrs:na|ktp:N0|mc:55653|mtp:G|qry_typ:P|lang:en|wc:2|cs:8827|v=4,Shri Siddhivinayak Traders,https://www.indiamart.com/shrisiddhivinayaktraders-firozpur/?pos=15&kwd=baby nipples&tags=A||||8545.6045|Price|product|||MDC|rsf:gd-|-stype:attr=1|qr_nm:gd|res:RC3|com-cf:nl|ptrs:na|ktp:N0|mc:55653|mtp:G|qry_typ:P|lang:en|wc:2|cs:8827|v=4,False,Basti Nizamdin,Firozpur,"No.94, Anand Avenue, Backside Marked Office, Malwal Road, Firozpur City, Basti Nizamdin, Firozpur - 152002, Dist.Firozpur, Punjab",8046066644,
Kids Silicone Nipple,https://www.indiamart.com/proddetail/kids-silicone-nipple-2854178112230.html?pos=16&kwd=baby nipples&tags=A||||8624.416|Price|product|||MDC|rsf:gd-|-stype:attr=1|qr_nm:gd|res:RC3|com-cf:nl|ptrs:na|ktp:N0|mc:55653|mtp:G|qry_typ:P|lang:en|wc:2|cs:8827|v=4,Nagpal Cosmetics,https://www.indiamart.com/nagpal-cosmetics/?pos=16&kwd=baby nipples&tags=A||||8624.416|Price|product|||MDC|rsf:gd-|-stype:attr=1|qr_nm:gd|res:RC3|com-cf:nl|ptrs:na|ktp:N0|mc:55653|mtp:G|qry_typ:P|lang:en|wc:2|cs:8827|v=4,False,,Hisar,"First Floor, House No. 123, Kunj Lal Garden, Shanti Nagar, Hisar - 125001, Dist.Hisar, Haryana",8045738316,
"White Philips Avent Anti Colic Baby Nipple, Capacity: 100 mL",https://www.indiamart.com/proddetail/philips-avent-anti-colic-baby-nipple-2854878990097.html?pos=17&kwd=baby nipples&tags=A||||8584.299|Price|product|||MDC|rsf:gd-|-stype:attr=1|qr_nm:gd|res:RC3|com-cf:nl|ptrs:na|ktp:N0|mc:55653|mtp:G|qry_typ:P|lang:en|wc:2|cs:8827|v=4,Vino Mani Enterprises,https://www.indiamart.com/vino-mani-enterprises/?pos=17&kwd=baby nipples&tags=A||||8584.299|Price|product|||MDC|rsf:gd-|-stype:attr=1|qr_nm:gd|res:RC3|com-cf:nl|ptrs:na|ktp:N0|mc:55653|mtp:G|qry_typ:P|lang:en|wc:2|cs:8827|v=4,False,,Coimbatore,"No 89A, NA, Azad Road, R S Puram, Coimbatore - 641002, Dist.Coimbatore, Tamil Nadu",7942546353,
A Brite Silicone Baby Nipple,https://www.indiamart.com/proddetail/a-brite-silicone-baby-nipple-2854875474588.html?pos=18&kwd=baby nipples&tags=A||||8211.142|Price|product|||MDC|rsf:gd-|-stype:attr=1|qr_nm:gd|res:RC3|com-cf:nl|ptrs:na|ktp:N0|mc:55653|mtp:G|qry_typ:P|lang:en|wc:2|cs:8827|v=4,Champion Traders,https://www.indiamart.com/champion-traders-mumbai/?pos=18&kwd=baby nipples&tags=A||||8211.142|Price|product|||MDC|rsf:gd-|-stype:attr=1|qr_nm:gd|res:RC3|com-cf:nl|ptrs:na|ktp:N0|mc:55653|mtp:G|qry_typ:P|lang:en|wc:2|cs:8827|v=4,False,,Mumbai,"1st Floor, Room No 25, 27, Ismail Building, Sutar Chawl, Abdul Rehman Street, Kalbadevi,, Mumbai - 400002, Dist.Mumbai, Maharashtra",8044459818,
"Transparent Luvlap Essential Teat Nipple, Baby",https://www.indiamart.com/proddetail/luvlap-essential-teat-nipple-2855071760830.html?pos=19&kwd=baby nipples&tags=A||||8786.56|Price|product|||MDC|rsf:gd-|-stype:attr=1|qr_nm:gd|res:RC3|com-cf:nl|ptrs:na|ktp:N0|mc:55653|mtp:G|qry_typ:P|lang:en|wc:2|cs:8827|v=4,Maruthi Drugs,https://www.indiamart.com/maruthi-drugs/?pos=19&kwd=baby nipples&tags=A||||8786.56|Price|product|||MDC|rsf:gd-|-stype:attr=1|qr_nm:gd|res:RC3|com-cf:nl|ptrs:na|ktp:N0|mc:55653|mtp:G|qry_typ:P|lang:en|wc:2|cs:8827|v=4,False,Nimboli Adda,Hyderabad,"Ground floor, 3-2-371/B, Sri Nilayam Kachiguda Road, Opposite To Priyas Aqua RO Water Solution, Nimboli Adda, Hyderabad - 500027, Dist.Hyderabad, Telangana",7949304578,
"Transparent Budds Buddy 3 Month Plus Smooth Flow Anti Colic Nipple, Capacity: 50 mL, New Born Baby",https://www.indiamart.com/proddetail/budds-buddy-3-month-plus-smooth-flow-anti-colic-nipple-2854382182333.html?pos=20&kwd=baby nipples&tags=A||||9110.092|Price|product|||MDC|rsf:gd-|-stype:attr=1|qr_nm:gd|res:RC3|com-cf:nl|ptrs:na|ktp:N0|mc:55653|mtp:G|qry_typ:P|lang:en|wc:2|cs:8827|v=4,Jai Maa Laxmi Agency,https://www.indiamart.com/jaimaalaxmiagency/?pos=20&kwd=baby nipples&tags=A||||9110.092|Price|product|||MDC|rsf:gd-|-stype:attr=1|qr_nm:gd|res:RC3|com-cf:nl|ptrs:na|ktp:N0|mc:55653|mtp:G|qry_typ:P|lang:en|wc:2|cs:8827|v=4,False,,Lucknow,"E-2468,Rajajipuram,Near Rupam Tailor,, Lucknow - 226017, Dist.Lucknow, Uttar Pradesh",7949339166,
"Littles Big Hug Silicon Nipple, Capacity: 50 mL, New Born Baby",https://www.indiamart.com/proddetail/littles-big-hug-silicon-nipple-2855001164162.html?pos=21&kwd=baby nipples&tags=A||||8752.144|Price|product|||MDC|rsf:gd-|-stype:attr=1|qr_nm:gd|res:RC3|com-cf:nl|ptrs:na|ktp:N0|mc:55653|mtp:G|qry_typ:P|lang:en|wc:2|cs:8827|v=4,Curepills Healthcare Private Limited,https://www.indiamart.com/curepillshealthcare/?pos=21&kwd=baby nipples&tags=A||||8752.144|Price|product|||MDC|rsf:gd-|-stype:attr=1|qr_nm:gd|res:RC3|com-cf:nl|ptrs:na|ktp:N0|mc:55653|mtp:G|qry_typ:P|lang:en|wc:2|cs:8827|v=4,False,,New Delhi,"Second Floor, B-37, DDA Shed, Okhla Industrial Estate Phase 2, South East Delhi, New Delhi - 110020, Dist.Delhi, Delhi",7949308749,
"Auto Flow Liquid Silicone Nipple, New Born Baby",https://www.indiamart.com/proddetail/auto-flow-liquid-silicone-nipple-2854534826088.html?pos=22&kwd=baby nipples&tags=BA||||8038.093|Price|product|||MDC|rsf:gd-|-stype:attr=1|qr_nm:gd|res:RC3|com-cf:nl|ptrs:na|ktp:N0|mc:55653|mtp:G|qry_typ:P|lang:en|wc:2|cs:8827|v=4,My Medicine,https://www.indiamart.com/mymedicinerajkot/?pos=22&kwd=baby nipples&tags=BA||||8038.093|Price|product|||MDC|rsf:gd-|-stype:attr=1|qr_nm:gd|res:RC3|com-cf:nl|ptrs:na|ktp:N0|mc:55653|mtp:G|qry_typ:P|lang:en|wc:2|cs:8827|v=4,False,,Rajkot,"8, Git Gurjari Scoiety, My Medicine, Air Port Road, Opp. Nilkant Mahadev Temple, Rajkot - 360007, Dist.Rajkot, Gujarat",7949336599,
Auto Flow Liquid Silicone Nipple,https://www.indiamart.com/proddetail/auto-flow-liquid-silicone-nipple-2854915111133.html?pos=23&kwd=baby nipples&tags=A||||8663.873|Price|product|||MDC|rsf:gd-|-stype:attr=1|qr_nm:gd|res:RC3|com-cf:nl|ptrs:na|ktp:N0|mc:55653|mtp:G|qry_typ:P|lang:en|wc:2|cs:8827|v=4,Mahadev Enterprise,https://www.indiamart.com/mahadeventerprisebengaluru/?pos=23&kwd=baby nipples&tags=A||||8663.873|Price|product|||MDC|rsf:gd-|-stype:attr=1|qr_nm:gd|res:RC3|com-cf:nl|ptrs:na|ktp:N0|mc:55653|mtp:G|qry_typ:P|lang:en|wc:2|cs:8827|v=4,False,,Bengaluru,"No 14, 3rd Main 6th Cross Gururaja Layout, Doddanekundi Marathalli Urban, Bengaluru - 560037, Dist.Bengaluru, Karnataka",8044456382,
"Candy Jar With Nipple, For FEEDING",https://www.indiamart.com/proddetail/candy-jar-with-nipple-23207421330.html?pos=24&kwd=baby nipples&tags=BB||||8752.144|Price|product|||TS|rsf:gd-|-stype:attr=1|qr_nm:gd|res:RC3|com-cf:nl|ptrs:na|ktp:N0|mc:55653|mtp:G|qry_typ:P|lang:en|wc:2|cs:8827|v=4,Dua Traders,https://www.indiamart.com/duatraders-delhi/?pos=24&kwd=baby nipples&tags=BB||||8752.144|Price|product|||TS|rsf:gd-|-stype:attr=1|qr_nm:gd|res:RC3|com-cf:nl|ptrs:na|ktp:N0|mc:55653|mtp:G|qry_typ:P|lang:en|wc:2|cs:8827|v=4,False,Mandoli,New Delhi,"Plot No. 8, Kh No. 4/24, Mela Ram Vatika, E-block, JR Complex No. 4, Mandoli, Sevadham, Mandoli, New Delhi - 110093, Dist.Delhi, Delhi",8048971741,
"Women's Medela Calma Solitaire, Size: Resizable",https://www.indiamart.com/proddetail/medela-calma-solitaire-15472493433.html?pos=25&kwd=baby nipples&tags=BA||||8954.051|Price|product|||TS|rsf:gd-|-stype:attr=1|qr_nm:gd|res:RC3|com-cf:nl|ptrs:na|ktp:N0|mc:55653|mtp:G|qry_typ:P|lang:en|wc:2|cs:8827|v=4,Auro Mira Medi Aids,https://www.indiamart.com/auromiramediaids/?pos=25&kwd=baby nipples&tags=BA||||8954.051|Price|product|||TS|rsf:gd-|-stype:attr=1|qr_nm:gd|res:RC3|com-cf:nl|ptrs:na|ktp:N0|mc:55653|mtp:G|qry_typ:P|lang:en|wc:2|cs:8827|v=4,False,Adyar,Chennai,"New No. 36, Old No. 32, Shriram Nagar Main Road, Adyar, Chennai - 600113, Dist.Chennai, Tamil Nadu",8048988682,
Transparent Bonne Liquid Silicone Nipple,https://www.indiamart.com/proddetail/bonne-liquid-silicone-nipple-2851569082088.html?pos=26&kwd=baby nipples&tags=BA||||8559.269|Price|product|||TS|rsf:gd-|-stype:attr=1|qr_nm:gd|res:RC3|com-cf:nl|ptrs:na|ktp:N0|mc:55653|mtp:G|qry_typ:P|lang:en|wc:2|cs:8827|v=4,Subhash Stores,https://www.indiamart.com/subhash-stores/?pos=26&kwd=baby nipples&tags=BA||||8559.269|Price|product|||TS|rsf:gd-|-stype:attr=1|qr_nm:gd|res:RC3|com-cf:nl|ptrs:na|ktp:N0|mc:55653|mtp:G|qry_typ:P|lang:en|wc:2|cs:8827|v=4,False,Gadi Adda,Indore,"77, RANIPURA MAIN ROAD INDORE, Gadi Adda, Indore - 452001, Dist.Indore, Madhya Pradesh",8047698960,
"TRASPERENT LSR BABY NIPPLE, Packaging Type: SINGLR PACK, 3-12 Months",https://www.indiamart.com/proddetail/lsr-baby-nipple-27424494855.html?pos=27&kwd=baby nipples&tags=BA||||8228.275|Price|product|||TS|rsf:gd-|-stype:attr=1|qr_nm:gd|res:RC3|com-cf:nl|ptrs:na|ktp:N0|mc:55653|mtp:G|qry_typ:P|lang:en|wc:2|cs:8827|v=4,Kesarinandan Rubber Company,https://www.indiamart.com/kesarirubbercompany/?pos=27&kwd=baby nipples&tags=BA||||8228.275|Price|product|||TS|rsf:gd-|-stype:attr=1|qr_nm:gd|res:RC3|com-cf:nl|ptrs:na|ktp:N0|mc:55653|mtp:G|qry_typ:P|lang:en|wc:2|cs:8827|v=4,False,Daskroi,Ahmedabad,"35, Chaitanya Industrial Plots Bhavada Patiya, Daskroi, Ahmedabad - 382433, Dist.Ahmedabad, Gujarat",8048989169,
"DERBY Transparent Liquid Silicon Baby Nipple, Packaging Type: Pouch pack",https://www.indiamart.com/proddetail/liquid-silicon-baby-nipple-23632477773.html?pos=28&kwd=baby nipples&tags=BA||||8752.144|Price|product|||TS|rsf:gd-|-stype:attr=1|qr_nm:gd|res:RC3|com-cf:nl|ptrs:na|ktp:N0|mc:55653|mtp:G|qry_typ:P|lang:en|wc:2|cs:8827|v=4,Noble Healthcare,https://www.derbyhealthcare.in/?pos=28&kwd=baby nipples&tags=BA||||8752.144|Price|product|||TS|rsf:gd-|-stype:attr=1|qr_nm:gd|res:RC3|com-cf:nl|ptrs:na|ktp:N0|mc:55653|mtp:G|qry_typ:P|lang:en|wc:2|cs:8827|v=4,False,Subhash Nagar,New Delhi,"Shop No. 14/127, Ground Floor, Subhash Nagar, Subhash Nagar, New Delhi - 110027, Dist.Delhi, Delhi",8048955013,
"Baby Bottle Silicone Nipple, Newly Born",https://www.indiamart.com/proddetail/baby-bottle-silicone-nipple-2853127386433.html?pos=29&kwd=baby nipples&tags=BA||||8210.732||product|||MDC|rsf:gd-|-stype:attr=1|qr_nm:gd|res:RC3|com-cf:nl|ptrs:na|ktp:N0|mc:55653|mtp:G|qry_typ:P|lang:en|wc:2|cs:8827|v=4,Mamta Rubber,https://www.indiamart.com/mamtaengineeringvasaivirar/?pos=29&kwd=baby nipples&tags=BA||||8210.732||product|||MDC|rsf:gd-|-stype:attr=1|qr_nm:gd|res:RC3|com-cf:nl|ptrs:na|ktp:N0|mc:55653|mtp:G|qry_typ:P|lang:en|wc:2|cs:8827|v=4,False,Valiv,Vasai,"Gala No 10 Building No C-9 Sagar Ind Estate Dhumal Nagar Waliv Vasai East, Valiv, Vasai - 401208, Dist.Thane, Maharashtra",8047690588,
"White Avent BPA Free Natural Medium Flow Nipples, Baby",https://www.indiamart.com/proddetail/avent-bpa-free-natural-medium-flow-nipples-2853684135197.html?pos=30&kwd=baby nipples&tags=BA||||8331.224|Price|product|||MDC|rsf:gd-|-stype:attr=1|qr_nm:gd|res:RC3|com-cf:nl|ptrs:na|ktp:N0|mc:55653|mtp:G|qry_typ:P|lang:en|wc:2|cs:8827|v=4,Shri Siddhivinayak Distributors,https://www.indiamart.com/shrisiddhivinayak-distributors/?pos=30&kwd=baby nipples&tags=BA||||8331.224|Price|product|||MDC|rsf:gd-|-stype:attr=1|qr_nm:gd|res:RC3|com-cf:nl|ptrs:na|ktp:N0|mc:55653|mtp:G|qry_typ:P|lang:en|wc:2|cs:8827|v=4,False,New Shahupuri,Kolhapur,"Cs No 372/3, E Ward, Ghoarpade Galli, New Shahupuri, Kolhapur - 416003, Dist.Kolhapur, Maharashtra",7949095151,
"Transparent Auto Flow Liquid Silicon Nipple, Capacity: 50 mL, Newly Born",https://www.indiamart.com/proddetail/auto-flow-liquid-silicon-nipple-2853299390688.html?pos=31&kwd=baby nipples&tags=BA||||8211.142|Price|product|||MDC|rsf:gd-|-stype:attr=1|qr_nm:gd|res:RC3|com-cf:nl|ptrs:na|ktp:N0|mc:55653|mtp:G|qry_typ:P|lang:en|wc:2|cs:8827|v=4,National Baby Products,https://www.indiamart.com/nationalbabyproducts/?pos=31&kwd=baby nipples&tags=BA||||8211.142|Price|product|||MDC|rsf:gd-|-stype:attr=1|qr_nm:gd|res:RC3|com-cf:nl|ptrs:na|ktp:N0|mc:55653|mtp:G|qry_typ:P|lang:en|wc:2|cs:8827|v=4,False,Sewri,Mumbai,"3rd Floor, D 22/23, Acme Industrial Estate, Sewri East, Sewri, Mumbai - 400015, Dist.Mumbai, Maharashtra",7948548024,
"Latex Baby Nipple Shield, Packaging Type: Box",https://www.indiamart.com/proddetail/latex-baby-nipple-shield-12782640362.html?pos=32&kwd=baby nipples&tags=BA||||8223.226|Price|product|||MDC|rsf:gd-|-stype:attr=1|qr_nm:gd|res:RC3|com-cf:nl|ptrs:na|ktp:N0|mc:55653|mtp:G|qry_typ:P|lang:en|wc:2|cs:8827|v=4,Wecare Solutions,https://www.indiamart.com/wecare-solutions/?pos=32&kwd=baby nipples&tags=BA||||8223.226|Price|product|||MDC|rsf:gd-|-stype:attr=1|qr_nm:gd|res:RC3|com-cf:nl|ptrs:na|ktp:N0|mc:55653|mtp:G|qry_typ:P|lang:en|wc:2|cs:8827|v=4,False,Valiv,Thane,"Gala No. F-19-20, 1st Floor, Rajprabha Anand Industrial Estate Naikpada, Waliv, Valiv, Thane - 401208, Dist.Thane, Maharashtra",8047631791,
"Transparent Priya nipple sale, Capacity: 100 mL, Baby",https://www.indiamart.com/proddetail/priya-nipple-sale-2853273993391.html?pos=33&kwd=baby nipples&tags=BA||||8706.587|Price|product|||MDC|rsf:gd-|-stype:attr=1|qr_nm:gd|res:RC3|com-cf:nl|ptrs:na|ktp:N0|mc:55653|mtp:G|qry_typ:P|lang:en|wc:2|cs:8827|v=4,Gouri Agencies,https://www.indiamart.com/gouri-agencies-madurai/?pos=33&kwd=baby nipples&tags=BA||||8706.587|Price|product|||MDC|rsf:gd-|-stype:attr=1|qr_nm:gd|res:RC3|com-cf:nl|ptrs:na|ktp:N0|mc:55653|mtp:G|qry_typ:P|lang:en|wc:2|cs:8827|v=4,False,Madurai Bazaar,Madurai,"1, Big Valayalkara Street, Near Meenakshi Amman Temple, Madurai Bazaar, Madurai - 625001, Dist.Madurai, Tamil Nadu",8048269694,
LSR Silicone Nipples,https://www.indiamart.com/proddetail/lsr-silicone-nipples-16225504091.html?pos=34&kwd=baby nipples&tags=BA||||8545.6045|Price|product|||MDC|rsf:gd-|-stype:attr=1|qr_nm:gd|res:RC3|com-cf:nl|ptrs:na|ktp:N0|mc:55653|mtp:G|qry_typ:P|lang:en|wc:2|cs:8827|v=4,Shraddha Saburi,https://www.indiamart.com/shraddhasaburi/?pos=34&kwd=baby nipples&tags=BA||||8545.6045|Price|product|||MDC|rsf:gd-|-stype:attr=1|qr_nm:gd|res:RC3|com-cf:nl|ptrs:na|ktp:N0|mc:55653|mtp:G|qry_typ:P|lang:en|wc:2|cs:8827|v=4,False,Cantonment Area,Firozpur,"263, Suji Bazar, M/s Shraddha Saburi, Ferozepur Cantt, Cantonment Area, Firozpur - 152001, Dist.Firozpur, Punjab",8048979628,
"Transparent Silicone Soft Baby Fast Flow Nipple, 3-12 Months",https://www.indiamart.com/proddetail/silicone-soft-baby-fast-flow-nipple-22224660655.html?pos=35&kwd=baby nipples&tags=A||||8752.144|Price|product|||TS|rsf:gd-|-stype:attr=1|qr_nm:gd|res:RC3|com-cf:nl|ptrs:na|ktp:N0|mc:55653|mtp:G|qry_typ:P|lang:en|wc:2|cs:8827|v=4,Chinmay Kids,https://www.indiamart.com/chinmaykids/?pos=35&kwd=baby nipples&tags=A||||8752.144|Price|product|||TS|rsf:gd-|-stype:attr=1|qr_nm:gd|res:RC3|com-cf:nl|ptrs:na|ktp:N0|mc:55653|mtp:G|qry_typ:P|lang:en|wc:2|cs:8827|v=4,False,Nayagaon,New Delhi,"C-99, Street No. 4, First Pusta, Nayagaon, New Delhi - 110053, Dist.Delhi, Delhi",8046054858,
Baby Fruit Nipple,,LBM Import India,https://www.indiamart.com/lbmimportindia/?pos=36&kwd=baby nipples&tags=A||||8752.144|Price|product|||TS|rsf:gd-|-stype:attr=1|qr_nm:gd|res:RC3|com-cf:nl|ptrs:na|ktp:N0|mc:55653|mtp:G|qry_typ:P|lang:en|wc:2|cs:8827|v=4,False,Shastri Nagar,New Delhi,"House No. 253, Block E-2, Shastri Nagar, New Delhi - 110052, Dist.Delhi, Delhi",8046032633,
Bonne Liquid Silicone Nipple,https://www.indiamart.com/proddetail/liquid-silicone-nipple-20555314630.html?pos=37&kwd=baby nipples&tags=BA||||8752.144|Price|product|||TS|rsf:gd-|-stype:attr=1|qr_nm:gd|res:RC3|com-cf:nl|ptrs:na|ktp:N0|mc:55653|mtp:G|qry_typ:P|lang:en|wc:2|cs:8827|v=4,Bhatia & Sons,https://www.indiamart.com/bhatia-sons/?pos=37&kwd=baby nipples&tags=BA||||8752.144|Price|product|||TS|rsf:gd-|-stype:attr=1|qr_nm:gd|res:RC3|com-cf:nl|ptrs:na|ktp:N0|mc:55653|mtp:G|qry_typ:P|lang:en|wc:2|cs:8827|v=4,False,Baratooti,New Delhi,"5439 A, New Market, Sadar Bazar, Baratooti, New Delhi - 110006, Dist.Delhi, Delhi",8048265479,
"White MOTHERCARE FEEDING BOTTLE, Age Group: Newly Born, Capacity: 150 ML",https://www.indiamart.com/proddetail/mothercare-feeding-bottle-2849914312112.html?pos=38&kwd=baby nipples&tags=BB||||8740.707|Price|product|||TS|rsf:gd-|-stype:attr=1|qr_nm:gd|res:RC3|com-cf:nl|ptrs:na|ktp:N0|mc:55653|mtp:G|qry_typ:P|lang:en|wc:2|cs:8827|v=4,Arihant Solutions,https://www.indiamart.com/arihantsolutions/?pos=38&kwd=baby nipples&tags=BB||||8740.707|Price|product|||TS|rsf:gd-|-stype:attr=1|qr_nm:gd|res:RC3|com-cf:nl|ptrs:na|ktp:N0|mc:55653|mtp:G|qry_typ:P|lang:en|wc:2|cs:8827|v=4,False,JLPL Industrial Area,Sas Nagar,"First Floor Plot No. 1250 JLPL, Sector 82, JLPL Industrial Area, Sas Nagar - 160055, Dist.Mohali, Punjab",8047645834,
Shashico Nipple Shield,https://www.indiamart.com/proddetail/shashico-nipple-shield-2852490722773.html?pos=39&kwd=baby nipples&tags=BA||||8752.144|Price|product|||TS|rsf:gd-|-stype:attr=1|qr_nm:gd|res:RC3|com-cf:nl|ptrs:na|ktp:N0|mc:55653|mtp:G|qry_typ:P|lang:en|wc:2|cs:8827|v=4,A.D.Enterprises,https://www.indiamart.com/adenterprises-shahdara/?pos=39&kwd=baby nipples&tags=BA||||8752.144|Price|product|||TS|rsf:gd-|-stype:attr=1|qr_nm:gd|res:RC3|com-cf:nl|ptrs:na|ktp:N0|mc:55653|mtp:G|qry_typ:P|lang:en|wc:2|cs:8827|v=4,False,Shahdara,New Delhi,"S/F, 1/5113, Gali No.5, Balbir Nagar, Shahdara, Shahdara, New Delhi - 110032, Dist.Delhi, Delhi",7942707293,
Transparent LSR Baby Bottle Nipple,https://www.indiamart.com/proddetail/lsr-baby-bottle-nipple-20399513712.html?pos=40&kwd=baby nipples&tags=BA||||8211.906|Price|product|||TS|rsf:gd-|-stype:attr=1|qr_nm:gd|res:RC3|com-cf:nl|ptrs:na|ktp:N0|mc:55653|mtp:G|qry_typ:P|lang:en|wc:2|cs:8827|v=4,Punamiya Exim Private Limited,https://www.punamiyaexim.co.in/?pos=40&kwd=baby nipples&tags=BA||||8211.906|Price|product|||TS|rsf:gd-|-stype:attr=1|qr_nm:gd|res:RC3|com-cf:nl|ptrs:na|ktp:N0|mc:55653|mtp:G|qry_typ:P|lang:en|wc:2|cs:8827|v=4,False,Umargam,Umargam,"Near To Sonal Plastic, Plot No 828 A GIDC, Plot No 828 A GIDC, Umbergaon Station Road, GIDC, Umargam, Umargam - 396171, Dist.Valsad, Gujarat",8048976705,
"Baby Natural Fruit & Food Feeder, Baby Food Feeder, Baby Food Pacifier, Silicone Food Nibbler",https://www.indiamart.com/proddetail/baby-natural-fruit-food-feeder-baby-food-feeder-baby-food-pacifier-silicone-food-nibbler-26009692948.html?pos=41&kwd=baby nipples&tags=BA||||8230.883|Price|product|||TS|rsf:gd-|-stype:attr=1|qr_nm:gd|res:RC3|com-cf:nl|ptrs:na|ktp:N0|mc:55653|mtp:G|qry_typ:P|lang:en|wc:2|cs:8827|v=4,Dynamic Import & Export,https://www.dynamicimportandexport.com/?pos=41&kwd=baby nipples&tags=BA||||8230.883|Price|product|||TS|rsf:gd-|-stype:attr=1|qr_nm:gd|res:RC3|com-cf:nl|ptrs:na|ktp:N0|mc:55653|mtp:G|qry_typ:P|lang:en|wc:2|cs:8827|v=4,False,Punagam,Surat,"Shade No 4, Besides B4Bakers, Opp Ami Park Society, Manishnagar Market Road, Dabholi, Katargam, Punagam, Surat - 395010, Dist.Surat, Gujarat",8046030878,
Bonne Silicone Nipple,https://www.indiamart.com/proddetail/bonne-silicone-nipple-25164957112.html?pos=42&kwd=baby nipples&tags=BB||||8752.144|Price|product|||MDC|rsf:gd-|-stype:attr=1|qr_nm:gd|res:RC3|com-cf:nl|ptrs:na|ktp:N0|mc:55653|mtp:G|qry_typ:P|lang:en|wc:2|cs:8827|v=4,Rattan Traders,https://www.indiamart.com/rattan-traders/?pos=42&kwd=baby nipples&tags=BB||||8752.144|Price|product|||MDC|rsf:gd-|-stype:attr=1|qr_nm:gd|res:RC3|com-cf:nl|ptrs:na|ktp:N0|mc:55653|mtp:G|qry_typ:P|lang:en|wc:2|cs:8827|v=4,False,Delhi Sadar Bazar,New Delhi,"SHOP NO - 5451 , GANDHI MARKET, SADAR BAZAR,DELHI, Delhi Sadar Bazar, New Delhi - 110006, Dist.Delhi, Delhi",7942537922,
"Bonney Nipple Bonne Bottle Nipples, Packaging Type: Box, 3-12 Months",https://www.indiamart.com/proddetail/bonne-bottle-nipples-21586848088.html?pos=43&kwd=baby nipples&tags=BB||||8819.914|Price|product|||MDC|rsf:gd-|-stype:attr=1|qr_nm:gd|res:RC3|com-cf:nl|ptrs:na|ktp:N0|mc:55653|mtp:G|qry_typ:P|lang:en|wc:2|cs:8827|v=4,Sharda Trading,https://www.indiamart.com/shardatradingmuzaffarnagar/?pos=43&kwd=baby nipples&tags=BB||||8819.914|Price|product|||MDC|rsf:gd-|-stype:attr=1|qr_nm:gd|res:RC3|com-cf:nl|ptrs:na|ktp:N0|mc:55653|mtp:G|qry_typ:P|lang:en|wc:2|cs:8827|v=4,False,Miranpur,Muzaffarnagar,"Main Road, Miranpur, Miranpur, Muzaffarnagar - 251315, Dist.Muzaffarnagar, Uttar Pradesh",8046031151,
Rubber Lact Flow Nipple Shield,https://www.indiamart.com/proddetail/lact-flow-nipple-shield-2854621687148.html?pos=44&kwd=baby nipples&tags=BA||||8331.224|Price|product|||MDC|rsf:gd-|-stype:attr=1|qr_nm:gd|res:RC3|com-cf:nl|ptrs:na|ktp:N0|mc:55653|mtp:G|qry_typ:P|lang:en|wc:2|cs:8827|v=4,Khandekar Medicals,https://www.indiamart.com/khandekar-medicals/?pos=44&kwd=baby nipples&tags=BA||||8331.224|Price|product|||MDC|rsf:gd-|-stype:attr=1|qr_nm:gd|res:RC3|com-cf:nl|ptrs:na|ktp:N0|mc:55653|mtp:G|qry_typ:P|lang:en|wc:2|cs:8827|v=4,False,,Kolhapur,"695 E Ward, 3RD Lane, ShahupuriI, Kolhapur - 416001, Dist.Kolhapur, Maharashtra",7949330880,
"Transparent Plastic baby Silicone Food/Fruit Nibbler, Baby Food and Fruit Feeder",https://www.indiamart.com/proddetail/baby-silicone-food-fruit-nibbler-baby-food-and-fruit-feeder-2854794185648.html?pos=45&kwd=baby nipples&tags=BB||||8230.883|Price|product|||MDC|rsf:gd-|-stype:attr=1|qr_nm:gd|res:RC3|com-cf:nl|ptrs:na|ktp:N0|mc:55653|mtp:G|qry_typ:P|lang:en|wc:2|cs:8827|v=4,P G Impex,https://www.indiamart.com/pg-impex-surat/?pos=45&kwd=baby nipples&tags=BB||||8230.883|Price|product|||MDC|rsf:gd-|-stype:attr=1|qr_nm:gd|res:RC3|com-cf:nl|ptrs:na|ktp:N0|mc:55653|mtp:G|qry_typ:P|lang:en|wc:2|cs:8827|v=4,False,,Surat,"3rd Floor, 304, Sarjan Residency Wing-A, Sunganpor Road, Katargam, Surat - 395004, Dist.Surat, Gujarat",7949322822,
Baby Nipple Shield,https://www.indiamart.com/proddetail/baby-nipple-shield-25736159630.html?pos=46&kwd=baby nipples&tags=BA||||8752.144|Price|product|||MDC|rsf:gd-|-stype:attr=1|qr_nm:gd|res:RC3|com-cf:nl|ptrs:na|ktp:N0|mc:55653|mtp:G|qry_typ:P|lang:en|wc:2|cs:8827|v=4,Little Kingdom Baby Product,https://www.indiamart.com/little-kingdombaby-product/?pos=46&kwd=baby nipples&tags=BA||||8752.144|Price|product|||MDC|rsf:gd-|-stype:attr=1|qr_nm:gd|res:RC3|com-cf:nl|ptrs:na|ktp:N0|mc:55653|mtp:G|qry_typ:P|lang:en|wc:2|cs:8827|v=4,False,Bawana,New Delhi,"Plot No. 16, PKT-G, Sector-3, DSIIDC, Bawana, North West Delhi, Bawana, New Delhi - 110039, Dist.Delhi, Delhi",8047648589,
Silicone Baby Nipples,https://www.indiamart.com/proddetail/silicone-baby-nipples-5663610555.html?pos=47&kwd=baby nipples&tags=A||||8228.275|Price|product|||NA|rsf:gd-|-stype:attr=1|qr_nm:gd|res:RC3|com-cf:nl|ptrs:na|ktp:N0|mc:55653|mtp:G|qry_typ:P|lang:en|wc:2|cs:8827|v=4,Motiba Silicone Private Limited,https://www.indiamart.com/motibasilicone/?pos=47&kwd=baby nipples&tags=A||||8228.275|Price|product|||NA|rsf:gd-|-stype:attr=1|qr_nm:gd|res:RC3|com-cf:nl|ptrs:na|ktp:N0|mc:55653|mtp:G|qry_typ:P|lang:en|wc:2|cs:8827|v=4,False,Bhandup West,Ahmedabad,"Ground Floor,Plot, No. 1a Survey, No.139-140 Paiki Behind, Divya Bhaskar Press Off, Ahmedabad Rajkot Highway, Chacharwadi Vasna, Taluka Sanand, Bhandup West, Ahmedabad - 382213, Dist.Ahmedabad, Gujarat",8047631391,
"Tumpy Natural Soother, Packaging Type: Box, 3-12 Months",https://www.indiamart.com/proddetail/natural-soother-23794528933.html?pos=48&kwd=baby nipples&tags=BB||||8590.934||product|||NA|rsf:gd-|-stype:attr=1|qr_nm:gd|res:RC3|com-cf:nl|ptrs:na|ktp:N0|mc:55653|mtp:G|qry_typ:P|lang:en|wc:2|cs:8827|v=4,Nestona Healthcare,https://www.indiamart.com/nestona-healthcare-latur/?pos=48&kwd=baby nipples&tags=BB||||8590.934||product|||NA|rsf:gd-|-stype:attr=1|qr_nm:gd|res:RC3|com-cf:nl|ptrs:na|ktp:N0|mc:55653|mtp:G|qry_typ:P|lang:en|wc:2|cs:8827|v=4,False,MIDC,Latur,"A-28, Add MIDC, Latur, MIDC, Latur - 413512, Dist.Latur, Maharashtra",8047526562,
"Fruit Feeder Nipple, Baby",https://www.indiamart.com/proddetail/fruit-feeder-nipple-2854900879062.html?pos=49&kwd=baby nipples&tags=BB||||8624.416|Price|product|||NA|rsf:gd-|-stype:attr=1|qr_nm:gd|res:RC3|com-cf:nl|ptrs:na|ktp:N0|mc:55653|mtp:G|qry_typ:P|lang:en|wc:2|cs:8827|v=4,Prem Enterprises,https://www.indiamart.com/ms-prem-enterprises-hisar/?pos=49&kwd=baby nipples&tags=BB||||8624.416|Price|product|||NA|rsf:gd-|-stype:attr=1|qr_nm:gd|res:RC3|com-cf:nl|ptrs:na|ktp:N0|mc:55653|mtp:G|qry_typ:P|lang:en|wc:2|cs:8827|v=4,False,,Hisar,"M/s Prem Enterprises, Near. Vishwas School, Main Bazar, Ward No. 10, Hisar - 125039, Dist.Hisar, Haryana",8069728343,732
Baby Liquid Feeding Nipple,https://www.indiamart.com/proddetail/baby-liquid-feeding-nipple-2853912727655.html?pos=50&kwd=baby nipples&tags=BA||||8785.791|Price|product|||NA|rsf:gd-|-stype:attr=1|qr_nm:gd|res:RC3|com-cf:nl|ptrs:na|ktp:N0|mc:55653|mtp:G|qry_typ:P|lang:en|wc:2|cs:8827|v=4,Million Minds Traders,https://www.indiamart.com/million-minds-traders/?pos=50&kwd=baby nipples&tags=BA||||8785.791|Price|product|||NA|rsf:gd-|-stype:attr=1|qr_nm:gd|res:RC3|com-cf:nl|ptrs:na|ktp:N0|mc:55653|mtp:G|qry_typ:P|lang:en|wc:2|cs:8827|v=4,False,Indirapuram,Ghaziabad,"Basement, Khasra No-1042/2A, Indirapuram, Indirapuram, Ghaziabad - 201014, Dist.Ghaziabad, Uttar Pradesh",8044563092,
"Sutter Sea Green Baby Nipple, 3-12 Months",https://www.indiamart.com/proddetail/sutter-sea-green-baby-nipple-2852746802612.html?pos=51&kwd=baby nipples&tags=BA||||8245.243|Price|product|||NA|rsf:gd-|-stype:attr=1|qr_nm:gd|res:RC3|com-cf:nl|ptrs:na|ktp:N0|mc:55653|mtp:G|qry_typ:P|lang:en|wc:2|cs:8827|v=4,Sara Cosmetics,https://www.indiamart.com/sara-cosmetics/?pos=51&kwd=baby nipples&tags=BA||||8245.243|Price|product|||NA|rsf:gd-|-stype:attr=1|qr_nm:gd|res:RC3|com-cf:nl|ptrs:na|ktp:N0|mc:55653|mtp:G|qry_typ:P|lang:en|wc:2|cs:8827|v=4,False,Ambernath,Ambarnath,"First Floor, Plot No 30 Unit No 121, Globe Business Park, Kalyan Badlapur Road, OPP Shastri Hindi Vidyalaya, MIDC Industrial Area,, Ambernath, Ambarnath - 421501, Dist.Thane, Maharashtra",8047807820,
"Bonne Liquid Silicone Nipple, 0-2yr",https://www.indiamart.com/proddetail/bonne-liquid-silicone-nipple-2849664617748.html?pos=52&kwd=baby nipples&tags=BB||||9444.79|Price|product|||NA|rsf:gd-|-stype:attr=1|qr_nm:gd|res:RC3|com-cf:nl|ptrs:na|ktp:N0|mc:55653|mtp:G|qry_typ:P|lang:en|wc:2|cs:8827|v=4,Babyzone,https://www.indiamart.com/baby-zone-siwan/?pos=52&kwd=baby nipples&tags=BB||||9444.79|Price|product|||NA|rsf:gd-|-stype:attr=1|qr_nm:gd|res:RC3|com-cf:nl|ptrs:na|ktp:N0|mc:55653|mtp:G|qry_typ:P|lang:en|wc:2|cs:8827|v=4,False,Makhdum Sarai,Siwan,"BARANWAL BHAWAN,MAKHDUM, Makhdum Sarai, Siwan - 841226, Dist.Siwan, Bihar",7942661205,
"White Silicone Baby Nipple, 1 TO 5 YEARS",https://www.indiamart.com/proddetail/silicone-baby-nipple-2849037738248.html?pos=53&kwd=baby nipples&tags=BB||||8954.051|Price|product|||NA|rsf:gd-|-stype:attr=1|qr_nm:gd|res:RC3|com-cf:nl|ptrs:na|ktp:N0|mc:55653|mtp:G|qry_typ:P|lang:en|wc:2|cs:8827|v=4,M/S BISMILLAH RUBBER WORKS,https://www.indiamart.com/bismillah-rubber-works/?pos=53&kwd=baby nipples&tags=BB||||8954.051|Price|product|||NA|rsf:gd-|-stype:attr=1|qr_nm:gd|res:RC3|com-cf:nl|ptrs:na|ktp:N0|mc:55653|mtp:G|qry_typ:P|lang:en|wc:2|cs:8827|v=4,False,,Chennai,"NO 69,THIAGAPPA CHETTY STREET,KORRUKUPET,, Chennai - 600021, Dist.Chennai, Tamil Nadu",8048272250,
Baby Honey Nipple / BABY HONEY PACIFIER,https://www.indiamart.com/proddetail/baby-honey-nipple-baby-honey-pacifier-2853975704797.html?pos=54&kwd=baby nipples&tags=BA||||8788.159|Price|product|||NA|rsf:gd-|-stype:attr=1|qr_nm:gd|res:RC3|com-cf:nl|ptrs:na|ktp:N0|mc:55653|mtp:G|qry_typ:P|lang:en|wc:2|cs:8827|v=4,Yammani International,https://www.indiamart.com/yammani-international/?pos=54&kwd=baby nipples&tags=BA||||8788.159|Price|product|||NA|rsf:gd-|-stype:attr=1|qr_nm:gd|res:RC3|com-cf:nl|ptrs:na|ktp:N0|mc:55653|mtp:G|qry_typ:P|lang:en|wc:2|cs:8827|v=4,False,,Secunderabad,"VENKATAPURAM, Secunderabad - 500015, Dist.Hyderabad, Telangana",8047311011,9034
"15 Pack Jessica Bonne Liquid Silicone Nipple, New Born Baby",https://www.indiamart.com/proddetail/15-pack-jessica-bonne-liquid-silicone-nipple-2854050585697.html?pos=55&kwd=baby nipples&tags=BA||||8752.144|Price|product|||NA|rsf:gd-|-stype:attr=1|qr_nm:gd|res:RC3|com-cf:nl|ptrs:na|ktp:N0|mc:55653|mtp:G|qry_typ:P|lang:en|wc:2|cs:8827|v=4,Paul Manufacturing Co.,https://www.indiamart.com/paulmanufacturingco/?pos=55&kwd=baby nipples&tags=BA||||8752.144|Price|product|||NA|rsf:gd-|-stype:attr=1|qr_nm:gd|res:RC3|com-cf:nl|ptrs:na|ktp:N0|mc:55653|mtp:G|qry_typ:P|lang:en|wc:2|cs:8827|v=4,False,Mayapuri,New Delhi,"C-278, Phase II, Mayapuri Industrial Area, West Delhi, Mayapuri, New Delhi - 110064, Dist.Delhi, Delhi",8044562548,
"Synthetic Baby Nipple shild, 3-12 Months",https://www.indiamart.com/proddetail/synthetic-baby-nipple-shild-23019015973.html?pos=56&kwd=baby nipples&tags=BA||||8752.144|Price|product|||NA|rsf:gd-|-stype:attr=1|qr_nm:gd|res:RC3|com-cf:nl|ptrs:na|ktp:N0|mc:55653|mtp:G|qry_typ:P|lang:en|wc:2|cs:8827|v=4,Limras Surgicals,https://www.indiamart.com/limrassurgical/?pos=56&kwd=baby nipples&tags=BA||||8752.144|Price|product|||NA|rsf:gd-|-stype:attr=1|qr_nm:gd|res:RC3|com-cf:nl|ptrs:na|ktp:N0|mc:55653|mtp:G|qry_typ:P|lang:en|wc:2|cs:8827|v=4,False,Ashok Vihar,New Delhi,"Ground Floor House No 607a/38 Onkar Nagar-c, Ashok Vihar, New Delhi - 110035, Dist.Delhi, Delhi",8047626646,
"Disney Kidz Orange Baby Soother Nipple, Packaging Type: Box, Newly Born",https://www.indiamart.com/proddetail/baby-soother-nipple-2852544159491.html?pos=57&kwd=baby nipples&tags=BA||||8230.883|Price|product|||NA|rsf:gd-|-stype:attr=1|qr_nm:gd|res:RC3|com-cf:nl|ptrs:na|ktp:N0|mc:55653|mtp:G|qry_typ:P|lang:en|wc:2|cs:8827|v=4,G M Exim,https://www.indiamart.com/gmexim-surat/?pos=57&kwd=baby nipples&tags=BA||||8230.883|Price|product|||NA|rsf:gd-|-stype:attr=1|qr_nm:gd|res:RC3|com-cf:nl|ptrs:na|ktp:N0|mc:55653|mtp:G|qry_typ:P|lang:en|wc:2|cs:8827|v=4,False,Shraddha Society,Surat,"Ground Floor, Shop No-22, Vikas Shoppers, Varachha Main Road, Near By Swastik Tower, Sarthana Jakatnaka, Shraddha Society, Surat - 395006, Dist.Surat, Gujarat",7942712190,
"White Bonne Liquid Silicone Nipple, Packaging Type: Box",https://www.indiamart.com/proddetail/bonne-liquid-silicone-nipple-2849302154291.html?pos=58&kwd=baby nipples&tags=BB||||8611.162|Price|product|||NA|rsf:gd-|-stype:attr=1|qr_nm:gd|res:RC3|com-cf:nl|ptrs:na|ktp:N0|mc:55653|mtp:G|qry_typ:P|lang:en|wc:2|cs:8827|v=4,Mehta Enterprises,https://www.indiamart.com/mehtaenterprises-gulbarga/?pos=58&kwd=baby nipples&tags=BB||||8611.162|Price|product|||NA|rsf:gd-|-stype:attr=1|qr_nm:gd|res:RC3|com-cf:nl|ptrs:na|ktp:N0|mc:55653|mtp:G|qry_typ:P|lang:en|wc:2|cs:8827|v=4,False,,Gulbarga,"CIS No-3193 Sheet No-1611ST Block No-6, 1st Station Bazar, Kalaburgi, Gulbarga - 585102, Dist.Kalaburagi, Karnataka",8047787114,
Silicone Baby Soother,https://www.indiamart.com/proddetail/silicone-baby-soother-2854778191930.html?pos=59&kwd=baby nipples&tags=BB||||8307.81|Price|product|||NA|rsf:gd-|-stype:attr=1|qr_nm:gd|res:RC3|com-cf:nl|ptrs:na|ktp:N0|mc:55653|mtp:G|qry_typ:P|lang:en|wc:2|cs:8827|v=4,Afifa Life Science,https://www.indiamart.com/afifa-life-science-pune/?pos=59&kwd=baby nipples&tags=BB||||8307.81|Price|product|||NA|rsf:gd-|-stype:attr=1|qr_nm:gd|res:RC3|com-cf:nl|ptrs:na|ktp:N0|mc:55653|mtp:G|qry_typ:P|lang:en|wc:2|cs:8827|v=4,False,,Pune,"S. No. 53/8/1, Kalepadal, Opp. Havale Engineering, Hadapsar,, Pune - 411028, Dist.Pune, Maharashtra",8069051319,314
Baby Silicone Nipples,https://www.indiamart.com/proddetail/baby-silicone-nipples-2309341088.html?pos=60&kwd=baby nipples&tags=BB||||8663.873||product|||NA|rsf:gd-|-stype:attr=1|qr_nm:gd|res:RC3|com-cf:nl|ptrs:na|ktp:N0|mc:55653|mtp:G|qry_typ:P|lang:en|wc:2|cs:8827|v=4,Narang Plastics Private Limited,https://www.indiamart.com/narang-plastics-pvtltd/?pos=60&kwd=baby nipples&tags=BB||||8663.873||product|||NA|rsf:gd-|-stype:attr=1|qr_nm:gd|res:RC3|com-cf:nl|ptrs:na|ktp:N0|mc:55653|mtp:G|qry_typ:P|lang:en|wc:2|cs:8827|v=4,False,Peenya,Bengaluru,"No. 303, 4th Phase, 5th Main, Peenya Industrial Area, Peenya, Bengaluru - 560058, Dist.Bengaluru, Karnataka",8043820740,
Silicone Baby Nipple,https://www.indiamart.com/proddetail/silicone-baby-nipple-23381963488.html?pos=61&kwd=baby nipples&tags=BB||||8752.144|Price|product|||NA|rsf:gd-|-stype:attr=1|qr_nm:gd|res:RC3|com-cf:nl|ptrs:na|ktp:N0|mc:55653|mtp:G|qry_typ:P|lang:en|wc:2|cs:8827|v=4,Metro Wholesale,https://www.indiamart.com/metro-wholesale/?pos=61&kwd=baby nipples&tags=BB||||8752.144|Price|product|||NA|rsf:gd-|-stype:attr=1|qr_nm:gd|res:RC3|com-cf:nl|ptrs:na|ktp:N0|mc:55653|mtp:G|qry_typ:P|lang:en|wc:2|cs:8827|v=4,False,Sadar Bazar,New Delhi,"Near Paan Mandi Sadar Bazar Sadar Bazar, Sadar Bazar, New Delhi - 110006, Dist.Delhi, Delhi",8046037716,
"Orange (Ring) Silicone Baby Pacifier Nipple, 2 Year",https://www.indiamart.com/proddetail/silicone-baby-pacifier-nipple-2852419100312.html?pos=62&kwd=baby nipples&tags=BB||||8734.695|Price|product|||NA|rsf:gd-|-stype:attr=1|qr_nm:gd|res:RC3|com-cf:nl|ptrs:na|ktp:N0|mc:55653|mtp:G|qry_typ:P|lang:en|wc:2|cs:8827|v=4,Shree RK Enterprise,https://www.indiamart.com/shreerk-enterprise/?pos=62&kwd=baby nipples&tags=BB||||8734.695|Price|product|||NA|rsf:gd-|-stype:attr=1|qr_nm:gd|res:RC3|com-cf:nl|ptrs:na|ktp:N0|mc:55653|mtp:G|qry_typ:P|lang:en|wc:2|cs:8827|v=4,False,,Bahadurgarh,"Second Floor, 644, Ward No 8, Shastri Nagar, Line Par, Bahadurgarh, Bahadurgarh - 124507, Dist.Jhajjar, Haryana",7942564104,
Chicco New Nipple Shields Silicone,https://www.indiamart.com/proddetail/chicco-new-nipple-shields-silicone-26216159897.html?pos=63&kwd=baby nipples&tags=BB||||8307.81|Price|product|||NA|rsf:gd-|-stype:attr=1|qr_nm:gd|res:RC3|com-cf:nl|ptrs:na|ktp:N0|mc:55653|mtp:G|qry_typ:P|lang:en|wc:2|cs:8827|v=4,A V Traders,https://www.indiamart.com/avtraders-pune/?pos=63&kwd=baby nipples&tags=BB||||8307.81|Price|product|||NA|rsf:gd-|-stype:attr=1|qr_nm:gd|res:RC3|com-cf:nl|ptrs:na|ktp:N0|mc:55653|mtp:G|qry_typ:P|lang:en|wc:2|cs:8827|v=4,False,,Pune,"1131 Plot No 102 Bhopatkar Road Vishnu Prasad Society Sadashiv Peth, Pune - 411030, Dist.Pune, Maharashtra",8047683868,
"Dr Gym Blue And Green Baby Silicone Teether, Packaging Type: Pack, Newly Born",https://www.indiamart.com/proddetail/baby-silicone-teether-2850171218862.html?pos=64&kwd=baby nipples&tags=BB||||8331.224|Price|product|||NA|rsf:gd-|-stype:attr=1|qr_nm:gd|res:RC3|com-cf:nl|ptrs:na|ktp:N0|mc:55653|mtp:G|qry_typ:P|lang:en|wc:2|cs:8827|v=4,Minakshi Garments,https://www.indiamart.com/minakshi-garments-kolhapur/?pos=64&kwd=baby nipples&tags=BB||||8331.224|Price|product|||NA|rsf:gd-|-stype:attr=1|qr_nm:gd|res:RC3|com-cf:nl|ptrs:na|ktp:N0|mc:55653|mtp:G|qry_typ:P|lang:en|wc:2|cs:8827|v=4,False,Tarabai Park,Kolhapur,"Gala No 14 B Parvati Plaza, Main Market Road Swastik Market, Gandhinagar, Tarabai Park, Kolhapur - 416119, Dist.Kolhapur, Maharashtra",7942670858,
"Baby Liquid Silicone Nipple, Packaging Type: card pack",https://www.indiamart.com/proddetail/baby-liquid-silicone-nipple-24419480933.html?pos=65&kwd=baby nipples&tags=BA||||8752.144|Price|product|||NA|rsf:gd-|-stype:attr=1|qr_nm:gd|res:RC3|com-cf:nl|ptrs:na|ktp:N0|mc:55653|mtp:G|qry_typ:P|lang:en|wc:2|cs:8827|v=4,Narula Overseas Industries Private Limited,https://www.indiamart.com/narulaoverseasindustries/?pos=65&kwd=baby nipples&tags=BA||||8752.144|Price|product|||NA|rsf:gd-|-stype:attr=1|qr_nm:gd|res:RC3|com-cf:nl|ptrs:na|ktp:N0|mc:55653|mtp:G|qry_typ:P|lang:en|wc:2|cs:8827|v=4,False,,New Delhi,"First Floor,70/A-48,Rama Road, Industrial Area,Moti Nagar, New Delhi - 110015, Dist.Delhi, Delhi",7942541501,
Baby Nipples,,Ganapathi Shoppiee,https://www.indiamart.com/ganapathi-shoppiee-chennai/?pos=66&kwd=baby nipples&tags=BA||||8954.051|Price|product|||NA|rsf:gd-|-stype:attr=1|qr_nm:gd|res:RC3|com-cf:nl|ptrs:na|ktp:N0|mc:55653|mtp:G|qry_typ:P|lang:en|wc:2|cs:8827|v=4,False,Ambattur,Chennai,"NO 14 /74 A Rukumani Street Krishnapuram, Ambattur, Chennai - 600053, Dist.Chennai, Tamil Nadu",8048372490,188
Baby Nipples,,Kavya Sales,https://www.indiamart.com/kavya-sales-ahmedabad/?pos=67&kwd=baby nipples&tags=BB||||8228.275||product|||NA|rsf:gd-|-stype:attr=1|qr_nm:gd|res:RC3|com-cf:nl|ptrs:na|ktp:N0|mc:55653|mtp:G|qry_typ:P|lang:en|wc:2|cs:8827|v=4,False,Rakhial,Ahmedabad,"253,BALABHAI CHAGANBHAI NI CHALI,B/H RAIPUR MILS, RAKHIYAL ROAD,AHMEDABAD 253/balabhai chaganlal chowl nr raipur mill,380018,Ahmedabad, Rakhial, Ahmedabad - 380021, Dist.Ahmedabad, Gujarat",8043837082,
Baby Nipples,,A.J.Traders,https://www.indiamart.com/ajtraderspunjab/?pos=68&kwd=baby nipples&tags=BA||||8580.032||product|||NA|rsf:gd-|-stype:attr=1|qr_nm:gd|res:RC3|com-cf:nl|ptrs:na|ktp:N0|mc:55653|mtp:G|qry_typ:P|lang:en|wc:2|cs:8827|v=4,False,Guru Amar Dass Nagar,Amritsar,"137, Krishna Nagar, Tarn Taran Road, Guru Amar Dass Nagar, Amritsar - 143001, Dist.Amritsar, Punjab",7942551590,
Bonne Tender Kare,,Balaji Medical store,https://www.indiamart.com/balajimedicalstore-193109113/?pos=69&kwd=baby nipples&tags=BB||||8823.154|Price|product|||NA|rsf:gd-|-stype:attr=1|qr_nm:gd|res:RC3|com-cf:nl|ptrs:na|ktp:N0|mc:55653|mtp:G|qry_typ:P|lang:en|wc:2|cs:8827|v=4,False,,Agra,"sikandra 282007, Agra - 282007, Dist.Agra, Uttar Pradesh",8047311013,8717
Baby Nipple,,Nashra Traders,https://www.indiamart.com/nashra-traders/?pos=70&kwd=baby nipples&tags=BA||||8786.56||product|||NA|rsf:gd-|-stype:attr=1|qr_nm:gd|res:RC3|com-cf:nl|ptrs:na|ktp:N0|mc:55653|mtp:G|qry_typ:P|lang:en|wc:2|cs:8827|v=4,False,,Hyderabad,"22-6-707/1, BESIDE CRYSTAL FURNITURE, PANJAYSHAH ETEBAR CHOWK, CHARMINAR 22-6-707/1,Beside Crystal Furniture,Panjayshah Etebar Chowk,Charminar,Hyderabad, 500002, Hyderabad, Hyderabad - 500002, Dist.Hyderabad, Telangana",8069264826,383
Bonne Nipple,,Shree Siddhivinayak Medical Store,https://www.indiamart.com/shree-siddhivinayak-medical-store/?pos=71&kwd=baby nipples&tags=BB||||9034.368||product|||NA|rsf:gd-|-stype:attr=1|qr_nm:gd|res:RC3|com-cf:nl|ptrs:na|ktp:N0|mc:55653|mtp:G|qry_typ:P|lang:en|wc:2|cs:8827|v=4,False,,Hardoi,"Pitamber Ganj, Railway Ganj, Hardoi - 241001, Dist.Hardoi, Uttar Pradesh",8048361357,851
Bonne Nipple,,Neha Traders,https://www.indiamart.com/neha-traders-agra/?pos=72&kwd=baby nipples&tags=BA||||8823.154||product|||NA|rsf:gd-|-stype:attr=1|qr_nm:gd|res:RC3|com-cf:nl|ptrs:na|ktp:N0|mc:55653|mtp:G|qry_typ:P|lang:en|wc:2|cs:8827|v=4,False,Rawatpara,Agra,"shop no,G-7pipal Mandi, Rawatpara, Agra - 282004, Dist.Agra, Uttar Pradesh",8062245009,802
Feeding Nipple,,AJ Enterprises,https://www.indiamart.com/aj-enterprises-madurai/?pos=73&kwd=baby nipples&tags=BB||||8706.587||product|||NA|rsf:gd-|-stype:attr=1|qr_nm:gd|res:RC3|com-cf:nl|ptrs:na|ktp:N0|mc:55653|mtp:G|qry_typ:P|lang:en|wc:2|cs:8827|v=4,False,Avaniyapuram Bypass,Madurai,"A5, Gladway City ,1st Avenue,, Avaniyapuram Bypass, Madurai - 625012, Dist.Madurai, Tamil Nadu",8048249700,6817
Bonne Glasso,,New Awadh Pharmacy,https://www.indiamart.com/new-awadh-pharmacy/?pos=74&kwd=baby nipples&tags=B||||9110.092||product|||NA|rsf:gd-|-stype:attr=1|qr_nm:gd|res:RC3|com-cf:nl|ptrs:na|ktp:N0|mc:55653|mtp:G|qry_typ:P|lang:en|wc:2|cs:8827|v=4,False,,Lucknow,"Ground Floor 194/77 Iqbaal Manzil,aminabad Shop No-, Lucknow - 226018, Dist.Lucknow, Uttar Pradesh",8045374956,5815
Tender Kare Baby Milk NIPPLE,,Mahakal Pharma,https://www.indiamart.com/mahakal-pharma-indore/?pos=75&kwd=baby nipples&tags=BB||||8559.269|Price|product|||NA|rsf:gd-|-stype:attr=1|qr_nm:gd|res:RC3|com-cf:nl|ptrs:na|ktp:N0|mc:55653|mtp:G|qry_typ:P|lang:en|wc:2|cs:8827|v=4,False,,Indore,"350, 1ST FLOOR, DAWA BAZAR, 13-14 RNT MARG, INDORE, Indore - 452001, Dist.Indore, Madhya Pradesh",8069033830,262
Baby Nipple,,Ramban Patent Depot,https://www.indiamart.com/shreehari-pharma/?pos=76&kwd=baby nipples&tags=BB||||8228.275|Price|product|||NA|rsf:gd-|-stype:attr=1|qr_nm:gd|res:RC3|com-cf:nl|ptrs:na|ktp:N0|mc:55653|mtp:G|qry_typ:P|lang:en|wc:2|cs:8827|v=4,False,sarkhej bavla road,Ahmedabad,"A/35,pushkar industrial & logistics park,Ne satyam mall Behind Shivam-4, sarkhej bavla road, Ahmedabad - 380004, Dist.Ahmedabad, Gujarat",8047842188,
Baby Nipple Feeder,,Shiv Dayal Gupta & Sons,https://www.indiamart.com/shiv-dayal-gupta-sons/?pos=77&kwd=baby nipples&tags=BA||||9045.955|Price|product|||NA|rsf:gd-|-stype:attr=1|qr_nm:gd|res:RC3|com-cf:nl|ptrs:na|ktp:N0|mc:55653|mtp:G|qry_typ:P|lang:en|wc:2|cs:8827|v=4,False,Kanpur,Kanpur,"81/63, Coolie Bazar, Dhankutti 81/63 subzi mandi, Kanpur, Kanpur - 208001, Uttar Pradesh",7949369685,
"Blue (Cap) Silicone Baby Nipple, Newly Born",https://www.indiamart.com/proddetail/silicone-baby-nipple-2851562710330.html?pos=78&kwd=baby nipples&tags=BB||||8752.144|Price|product|||NA|rsf:gd-|-stype:attr=1|qr_nm:gd|res:RC3|com-cf:nl|ptrs:na|ktp:N0|mc:55653|mtp:G|qry_typ:P|lang:en|wc:2|cs:8827|v=4,PKLO,https://www.indiamart.com/pklo/?pos=78&kwd=baby nipples&tags=BB||||8752.144|Price|product|||NA|rsf:gd-|-stype:attr=1|qr_nm:gd|res:RC3|com-cf:nl|ptrs:na|ktp:N0|mc:55653|mtp:G|qry_typ:P|lang:en|wc:2|cs:8827|v=4,False,,New Delhi,"Second Floor, R.Z.B-35, Gurudwara Road Mahavir Enclave, Palam,, New Delhi - 110045, Dist.Delhi, Delhi",7942834919,
Little's Nipple,,Avinandan Stationary,https://www.indiamart.com/avinandan-stationary/?pos=79&kwd=baby nipples&tags=BA||||9520.041|Price|product|||NA|rsf:gd-|-stype:attr=1|qr_nm:gd|res:RC3|com-cf:nl|ptrs:na|ktp:N0|mc:55653|mtp:G|qry_typ:P|lang:en|wc:2|cs:8827|v=4,False,patna city patna 800008,Patna,"M/s Avinandan Stationary patna city bank of baroda city chowk patna 800008 Radha krishna market opp janta hotel chowk patna city, patna city patna 800008, Patna - 800008, Dist.Patna, Bihar",8062245989,180
"Plastic Baby Fruit Nipple, Newly Born",https://www.indiamart.com/proddetail/baby-fruit-nipple-27526115630.html?pos=80&kwd=baby nipples&tags=||||8752.144|Price|product|||TS|rsf:gd-|-stype:attr=1|qr_nm:gd|res:RC3|com-cf:nl|ptrs:na|ktp:N0|mc:55653|mtp:G|qry_typ:P|lang:en|wc:2|cs:8827|v=4,Urbancube,https://www.indiamart.com/urbancube/?pos=80&kwd=baby nipples&tags=||||8752.144|Price|product|||TS|rsf:gd-|-stype:attr=1|qr_nm:gd|res:RC3|com-cf:nl|ptrs:na|ktp:N0|mc:55653|mtp:G|qry_typ:P|lang:en|wc:2|cs:8827|v=4,False,Kamla Nagar,New Delhi,"Ground Floor, 14 UA, Jawahar Nagar, Kamla Nagar, New Delhi - 110007, Dist.Delhi, Delhi",8048980014,
Baby milk bottle pacifier,https://www.indiamart.com/proddetail/baby-milk-bottle-pacifier-2854639589273.html?pos=81&kwd=baby nipples&tags=||||8038.093|Price|product|||MDC|rsf:gd-|-stype:attr=1|qr_nm:gd|res:RC3|com-cf:nl|ptrs:na|ktp:N0|mc:55653|mtp:G|qry_typ:P|lang:en|wc:2|cs:8827|v=4,Creative Automation,https://www.indiamart.com/creativeautomationrajkot/?pos=81&kwd=baby nipples&tags=||||8038.093|Price|product|||MDC|rsf:gd-|-stype:attr=1|qr_nm:gd|res:RC3|com-cf:nl|ptrs:na|ktp:N0|mc:55653|mtp:G|qry_typ:P|lang:en|wc:2|cs:8827|v=4,False,Rajkot,Rajkot,"Plot No.19, kailash Manu, Sidhdheshwar Griding, Atika ndustrial, Street No.3, Dhebar Road South Near Jaydev Foundry, Rajkot, Rajkot - 360002, Dist.Rajkot, Gujarat",7942570968,
Baby Feeder,https://www.indiamart.com/proddetail/baby-feeder-2854294274873.html?pos=82&kwd=baby nipples&tags=||||8778.123|Price|product|||TS|rsf:gd-|-stype:attr=1|qr_nm:gd|res:RC3|com-cf:nl|ptrs:na|ktp:N0|mc:55653|mtp:G|qry_typ:P|lang:en|wc:2|cs:8827|v=4,Radiant Enterprises,https://www.indiamart.com/radiant-enterprisesgautam-budhnagar/?pos=82&kwd=baby nipples&tags=||||8778.123|Price|product|||TS|rsf:gd-|-stype:attr=1|qr_nm:gd|res:RC3|com-cf:nl|ptrs:na|ktp:N0|mc:55653|mtp:G|qry_typ:P|lang:en|wc:2|cs:8827|v=4,False,,Noida,"Tower-3,Flat-2601,Lotus 300,Noida,Gautam Buddha Nagar, Noida - 201304, Dist.Gautam Budh Nagar, Uttar Pradesh",7942828511,
Baby Soother .,https://www.indiamart.com/proddetail/baby-soother-2853570013930.html?pos=83&kwd=baby nipples&tags=||||8228.275|Price|product|||TS|rsf:gd-|-stype:attr=1|qr_nm:gd|res:RC3|com-cf:nl|ptrs:na|ktp:N0|mc:55653|mtp:G|qry_typ:P|lang:en|wc:2|cs:8827|v=4,Smonkare Impex Private Limited,https://www.psychiatricmedicines.com/?pos=83&kwd=baby nipples&tags=||||8228.275|Price|product|||TS|rsf:gd-|-stype:attr=1|qr_nm:gd|res:RC3|com-cf:nl|ptrs:na|ktp:N0|mc:55653|mtp:G|qry_typ:P|lang:en|wc:2|cs:8827|v=4,False,Chanakyapuri,Ahmedabad,"1st Floor,1,2, Malhar Complex, Near Sola Railway Overbridge Science City Road, Chanakyapuri, Ahmedabad - 380060, Dist.Ahmedabad, Gujarat",8048985231,
"Blue Plastic Baby Fruit Nipple, Capacity: 100 mL",https://www.indiamart.com/proddetail/baby-fruit-nipple-26739716997.html?pos=84&kwd=baby nipples&tags=||||8752.144|Price|product|||TS|rsf:gd-|-stype:attr=1|qr_nm:gd|res:RC3|com-cf:nl|ptrs:na|ktp:N0|mc:55653|mtp:G|qry_typ:P|lang:en|wc:2|cs:8827|v=4,Anand Garments Pvt Ltd,https://www.indiamart.com/anand-garments-newdelhi/?pos=84&kwd=baby nipples&tags=||||8752.144|Price|product|||TS|rsf:gd-|-stype:attr=1|qr_nm:gd|res:RC3|com-cf:nl|ptrs:na|ktp:N0|mc:55653|mtp:G|qry_typ:P|lang:en|wc:2|cs:8827|v=4,False,mundka,New Delhi,"Plot No-276, Area Pocket-m Sector-1, Dsiidc Bawana,, mundka, New Delhi - 110039, Dist.Delhi, Delhi",8048262855,
"Blue ABS Plastic Baby Pacifier, Capacity: 50 mL",https://www.indiamart.com/proddetail/abs-plastic-baby-pacifier-24273995997.html?pos=85&kwd=baby nipples&tags=||||8752.144|Price|product|||MDC|rsf:gd-|-stype:attr=1|qr_nm:gd|res:RC3|com-cf:nl|ptrs:na|ktp:N0|mc:55653|mtp:G|qry_typ:P|lang:en|wc:2|cs:8827|v=4,Drishti E-Commerce,https://www.indiamart.com/drishti-e-commerce/?pos=85&kwd=baby nipples&tags=||||8752.144|Price|product|||MDC|rsf:gd-|-stype:attr=1|qr_nm:gd|res:RC3|com-cf:nl|ptrs:na|ktp:N0|mc:55653|mtp:G|qry_typ:P|lang:en|wc:2|cs:8827|v=4,False,Jahangirpura,New Delhi,"B-29, Ground Floor, Kh No-238/2, Gali No-5/12, Gurunanak Dev Colony, Bhalswa, North Delhi, Jahangirpura, New Delhi - 110042, Dist.Delhi, Delhi",7949082368,
Red Silicon Chewing BAR Baby Teethers Feeders Soothers 100% Safe BPA Free,https://www.indiamart.com/proddetail/red-silicon-chewing-bar-baby-teethers-feeders-soothers-100-safe-bpa-free-2852714730255.html?pos=86&kwd=baby nipples&tags=||||8778.123|Price|product|||TS|rsf:gd-|-stype:attr=1|qr_nm:gd|res:RC3|com-cf:nl|ptrs:na|ktp:N0|mc:55653|mtp:G|qry_typ:P|lang:en|wc:2|cs:8827|v=4,GM'S Speechgears Private Limited,https://www.indiamart.com/gmsspeechgears/?pos=86&kwd=baby nipples&tags=||||8778.123|Price|product|||TS|rsf:gd-|-stype:attr=1|qr_nm:gd|res:RC3|com-cf:nl|ptrs:na|ktp:N0|mc:55653|mtp:G|qry_typ:P|lang:en|wc:2|cs:8827|v=4,False,Sector 65,Noida,"1st Floor, A-77, Sector-65, Gautambuddha Nagar, Sector 65, Noida - 201301, Dist.Gautam Budh Nagar, Uttar Pradesh",7942713454,
Baby Pacifier,https://www.indiamart.com/proddetail/baby-pacifier-2854229389888.html?pos=87&kwd=baby nipples&tags=||||8230.883|Price|product|||TS|rsf:gd-|-stype:attr=1|qr_nm:gd|res:RC3|com-cf:nl|ptrs:na|ktp:N0|mc:55653|mtp:G|qry_typ:P|lang:en|wc:2|cs:8827|v=4,BABYHOLIC,https://www.babyholic.in/?pos=87&kwd=baby nipples&tags=||||8230.883|Price|product|||TS|rsf:gd-|-stype:attr=1|qr_nm:gd|res:RC3|com-cf:nl|ptrs:na|ktp:N0|mc:55653|mtp:G|qry_typ:P|lang:en|wc:2|cs:8827|v=4,False,,Surat,"Ground Floor, Plot No. F/56/, And F/57, Laxmi Narayan Industrial Estate, Udhana, Kailash Fashion, Surat - 394210, Dist.Surat, Gujarat",8045732096,
Sagar Nipple Shield Silicon,https://www.indiamart.com/proddetail/sagar-nipple-shield-silicon-23233535662.html?pos=88&kwd=baby nipples&tags=||||8752.144|Price|product|||TS|rsf:gd-|-stype:attr=1|qr_nm:gd|res:RC3|com-cf:nl|ptrs:na|ktp:N0|mc:55653|mtp:G|qry_typ:P|lang:en|wc:2|cs:8827|v=4,Kapoor Agencies,https://www.sagarproducts.co.in/?pos=88&kwd=baby nipples&tags=||||8752.144|Price|product|||TS|rsf:gd-|-stype:attr=1|qr_nm:gd|res:RC3|com-cf:nl|ptrs:na|ktp:N0|mc:55653|mtp:G|qry_typ:P|lang:en|wc:2|cs:8827|v=4,False,Shahdara,New Delhi,"Iv/1697,Mahavir Block,Bhola Nath Nagar,Shahdar, Shahdara, New Delhi - 110032, Dist.Delhi, Delhi",8046069171,
"Transparent Plastic Baby Fruit Feeder, Capacity: 50 mL, 1-2 Years",https://www.indiamart.com/proddetail/baby-fruit-feeder-2852986153812.html?pos=89&kwd=baby nipples&tags=||||8752.144|Price|product|||TS|rsf:gd-|-stype:attr=1|qr_nm:gd|res:RC3|com-cf:nl|ptrs:na|ktp:N0|mc:55653|mtp:G|qry_typ:P|lang:en|wc:2|cs:8827|v=4,TUF & Fit,https://www.indiamart.com/tuf-fit/?pos=89&kwd=baby nipples&tags=||||8752.144|Price|product|||TS|rsf:gd-|-stype:attr=1|qr_nm:gd|res:RC3|com-cf:nl|ptrs:na|ktp:N0|mc:55653|mtp:G|qry_typ:P|lang:en|wc:2|cs:8827|v=4,False,Shalimar Bagh,New Delhi,"badli extension. near Laxmi Dhar kanta, Shalimar Bagh, New Delhi - 110084, Dist.Delhi, Delhi",8048262266,
Baby Fruit Feeder Pacifier,https://www.indiamart.com/proddetail/baby-fruit-feeder-pacifier-2850904609097.html?pos=90&kwd=baby nipples&tags=||||8752.144|Price|product|||TS|rsf:gd-|-stype:attr=1|qr_nm:gd|res:RC3|com-cf:nl|ptrs:na|ktp:N0|mc:55653|mtp:G|qry_typ:P|lang:en|wc:2|cs:8827|v=4,Aman Impex,https://www.myamanimpex.com/?pos=90&kwd=baby nipples&tags=||||8752.144|Price|product|||TS|rsf:gd-|-stype:attr=1|qr_nm:gd|res:RC3|com-cf:nl|ptrs:na|ktp:N0|mc:55653|mtp:G|qry_typ:P|lang:en|wc:2|cs:8827|v=4,False,Paschim Vihar,New Delhi,"Flat No. 681, S/F Janta Flats, Pocket-II, Paschim Puri, Paschim Vihar, New Delhi - 110063, Dist.Delhi, Delhi",8048600148,
"Plastic Baby Spoon Feeder, Capacity: 125 ml",https://www.indiamart.com/proddetail/baby-spoon-feeder-2854075887497.html?pos=91&kwd=baby nipples&tags=||||8823.154|Price|product|||TS|rsf:gd-|-stype:attr=1|qr_nm:gd|res:RC3|com-cf:nl|ptrs:na|ktp:N0|mc:55653|mtp:G|qry_typ:P|lang:en|wc:2|cs:8827|v=4,Shri Anant International,https://www.indiamart.com/shrianantinternational/?pos=91&kwd=baby nipples&tags=||||8823.154|Price|product|||TS|rsf:gd-|-stype:attr=1|qr_nm:gd|res:RC3|com-cf:nl|ptrs:na|ktp:N0|mc:55653|mtp:G|qry_typ:P|lang:en|wc:2|cs:8827|v=4,False,DayalBagh,Agra,"No.02,House 2,Alkapuri Phase Ii,Agra, DayalBagh, Agra - 282005, Dist.Agra, Uttar Pradesh",7942721451,
Silicone Baby Fresh Fruit Food Feeder/Pacifier / Nibbler,https://www.indiamart.com/proddetail/silicone-baby-fresh-fruit-food-feeder-pacifier-nibbler-2854404687512.html?pos=92&kwd=baby nipples&tags=||||8752.144|Price|product|||MDC|rsf:gd-|-stype:attr=1|qr_nm:gd|res:RC3|com-cf:nl|ptrs:na|ktp:N0|mc:55653|mtp:G|qry_typ:P|lang:en|wc:2|cs:8827|v=4,JMC Enterprises,https://www.indiamart.com/jmc-enterprises-newdelhi/?pos=92&kwd=baby nipples&tags=||||8752.144|Price|product|||MDC|rsf:gd-|-stype:attr=1|qr_nm:gd|res:RC3|com-cf:nl|ptrs:na|ktp:N0|mc:55653|mtp:G|qry_typ:P|lang:en|wc:2|cs:8827|v=4,False,,New Delhi,"H.No. A-49 Ph-1, Block-A, Harsukh Prem Nagar -1, North West Delhi, New Delhi - 110086, Dist.Delhi, Delhi",8045735053,
Silicone Silicon Fruit Baby Pacifier,https://www.indiamart.com/proddetail/silicon-fruit-baby-pacifier-2854104996197.html?pos=93&kwd=baby nipples&tags=||||8038.093|Price|product|||MDC|rsf:gd-|-stype:attr=1|qr_nm:gd|res:RC3|com-cf:nl|ptrs:na|ktp:N0|mc:55653|mtp:G|qry_typ:P|lang:en|wc:2|cs:8827|v=4,Kemlin International,https://www.indiamart.com/kemlin-international/?pos=93&kwd=baby nipples&tags=||||8038.093|Price|product|||MDC|rsf:gd-|-stype:attr=1|qr_nm:gd|res:RC3|com-cf:nl|ptrs:na|ktp:N0|mc:55653|mtp:G|qry_typ:P|lang:en|wc:2|cs:8827|v=4,False,Sant Bhojaram Society,Rajkot,"Shed No. 2, Plot No. 17, R.s. No. 264, Kothariya, Sant Bhojaram Society, Rajkot - 360002, Dist.Rajkot, Gujarat",8044560767,
Baby Love Appeasing Nipple,https://www.indiamart.com/proddetail/baby-love-appeasing-nipple-2854084778233.html?pos=94&kwd=baby nipples&tags=||||8752.144|Price|product|||MDC|rsf:gd-|-stype:attr=1|qr_nm:gd|res:RC3|com-cf:nl|ptrs:na|ktp:N0|mc:55653|mtp:G|qry_typ:P|lang:en|wc:2|cs:8827|v=4,Kidz Creation,https://www.indiamart.com/kidzcreation/?pos=94&kwd=baby nipples&tags=||||8752.144|Price|product|||MDC|rsf:gd-|-stype:attr=1|qr_nm:gd|res:RC3|com-cf:nl|ptrs:na|ktp:N0|mc:55653|mtp:G|qry_typ:P|lang:en|wc:2|cs:8827|v=4,False,,New Delhi,"Shop No. 279/517,Sabharwal Market, Tolia Wali Gali Sadar Bazar, North Delhi,, New Delhi - 110006, Dist.Delhi, Delhi",8047679212,
Silicone Synthetic Baby Nipple Shield,https://www.indiamart.com/proddetail/synthetic-baby-nipple-shield-2854721717412.html?pos=95&kwd=baby nipples&tags=||||8752.144|Price|product|||MDC|rsf:gd-|-stype:attr=1|qr_nm:gd|res:RC3|com-cf:nl|ptrs:na|ktp:N0|mc:55653|mtp:G|qry_typ:P|lang:en|wc:2|cs:8827|v=4,Rachna Enterprises,https://www.indiamart.com/rachnaenterprisesnewdelhi/?pos=95&kwd=baby nipples&tags=||||8752.144|Price|product|||MDC|rsf:gd-|-stype:attr=1|qr_nm:gd|res:RC3|com-cf:nl|ptrs:na|ktp:N0|mc:55653|mtp:G|qry_typ:P|lang:en|wc:2|cs:8827|v=4,False,West Delhi,New Delhi,"Ground Floor, House No. RZ-123, Vishwas Park Main Road, T-Extn., Uttam Nagar, West Delhi, New Delhi - 110059, Dist.Delhi, Delhi",8041011216,
Ardo Nipple Sheild Large (2 Pcs),https://www.indiamart.com/proddetail/ardo-nipple-sheild-large-2-pcs-25419323473.html?pos=96&kwd=baby nipples&tags=||||8307.81|Price|product|||MDC|rsf:gd-|-stype:attr=1|qr_nm:gd|res:RC3|com-cf:nl|ptrs:na|ktp:N0|mc:55653|mtp:G|qry_typ:P|lang:en|wc:2|cs:8827|v=4,Sleep Solutions,https://www.indiamart.com/sleepsolutionspune/?pos=96&kwd=baby nipples&tags=||||8307.81|Price|product|||MDC|rsf:gd-|-stype:attr=1|qr_nm:gd|res:RC3|com-cf:nl|ptrs:na|ktp:N0|mc:55653|mtp:G|qry_typ:P|lang:en|wc:2|cs:8827|v=4,False,Fatima Nagar,Pune,"SHOP NO.17 LEGEND PRESTIGE BEHIND CROMA CENTER BT KAWADE RD BEHIND BUS STOP PUNE, Fatima Nagar, Pune - 411040, Dist.Pune, Maharashtra",8048271036,
Baby Pacifier Silicone Fresh Fruit Teether,https://www.indiamart.com/proddetail/baby-pacifier-silicone-fresh-fruit-teether-2854957104812.html?pos=97&kwd=baby nipples&tags=||||8752.144|Price|product|||MDC|rsf:gd-|-stype:attr=1|qr_nm:gd|res:RC3|com-cf:nl|ptrs:na|ktp:N0|mc:55653|mtp:G|qry_typ:P|lang:en|wc:2|cs:8827|v=4,Yami Enterprises,https://www.indiamart.com/yamienterprises/?pos=97&kwd=baby nipples&tags=||||8752.144|Price|product|||MDC|rsf:gd-|-stype:attr=1|qr_nm:gd|res:RC3|com-cf:nl|ptrs:na|ktp:N0|mc:55653|mtp:G|qry_typ:P|lang:en|wc:2|cs:8827|v=4,False,,New Delhi,"B-85, Prem Nagar 2, Kirari Suleman Nagar, North West Delhi, New Delhi - 110086, Dist.Delhi, Delhi",8045734447,
"LuvLap Silicone Food/Fruit Nibbler with Extra Mesh, Soft Pacifier/Feeder, Teether for Infant Baby, BPA Free( 18599)",https://www.indiamart.com/proddetail/luvlap-silicone-food-fruit-nibbler-with-extra-mesh-soft-pacifier-feeder-teether-for-infant-baby-bpa-free-18599-2851553138273.html?pos=98&kwd=baby nipples&tags=CC||||8614.241|Price|product|||MDC|rsf:gd-|-stype:attr=1|qr_nm:gd|res:RC3|com-cf:nl|ptrs:na|ktp:N0|mc:55653|mtp:G|qry_typ:P|lang:en|wc:2|cs:8827|v=4,M.M. Toy World,https://www.indiamart.com/mmtoyworld/?pos=98&kwd=baby nipples&tags=CC||||8614.241|Price|product|||MDC|rsf:gd-|-stype:attr=1|qr_nm:gd|res:RC3|com-cf:nl|ptrs:na|ktp:N0|mc:55653|mtp:G|qry_typ:P|lang:en|wc:2|cs:8827|v=4,False,Achli Gate,Batala,"M.M. Toys World, Bedian Gali, Khujari Gate, Gurdaspur, Achli Gate, Batala - 143505, Dist.Gurdaspur, Punjab",,
"White Plastic LuvLap Natura Flo Nipple, Capacity: 100 mL, Newly Born",https://www.indiamart.com/proddetail/luvlap-natura-flo-nipple-2853174564333.html?pos=99&kwd=baby nipples&tags=CC||||9839.57|Price|product|||MDC|rsf:gd-|-stype:attr=1|qr_nm:gd|res:RC3|com-cf:nl|ptrs:na|ktp:N0|mc:55653|mtp:G|qry_typ:P|lang:en|wc:2|cs:8827|v=4,S.G.Enterprise,https://www.indiamart.com/sg-enterprise-bahadur/?pos=99&kwd=baby nipples&tags=CC||||9839.57|Price|product|||MDC|rsf:gd-|-stype:attr=1|qr_nm:gd|res:RC3|com-cf:nl|ptrs:na|ktp:N0|mc:55653|mtp:G|qry_typ:P|lang:en|wc:2|cs:8827|v=4,False,Behala,Kolkata,"222 Roy Bahadur Road Behala South Twenty Four Parganas, Behala, Kolkata - 700053, Dist.Kolkata, West Bengal",7948549197,
Mini cover silicon nipple,https://www.indiamart.com/proddetail/mini-cover-silicon-nipple-26854447288.html?pos=100&kwd=baby nipples&tags=||||8228.275|Price|product|||TS|rsf:gd-|-stype:attr=1|qr_nm:gd|res:RC3|com-cf:nl|ptrs:na|ktp:N0|mc:55653|mtp:G|qry_typ:P|lang:en|wc:2|cs:8827|v=4,Only Women,https://www.indiamart.com/onlywomen/?pos=100&kwd=baby nipples&tags=||||8228.275|Price|product|||TS|rsf:gd-|-stype:attr=1|qr_nm:gd|res:RC3|com-cf:nl|ptrs:na|ktp:N0|mc:55653|mtp:G|qry_typ:P|lang:en|wc:2|cs:8827|v=4,False,Teen Darwaza,Ahmedabad,"Shop No 17,tutorial Market,three Gate,pankore Naka,, Teen Darwaza, Ahmedabad - 380001, Dist.Ahmedabad, Gujarat",8046031790,
Rubber Medigold Nipple Shield,https://www.indiamart.com/proddetail/medigold-nipple-shield-13479730597.html?pos=101&kwd=baby nipples&tags=||||8752.144|Price|product|||TS|rsf:gd-|-stype:attr=1|qr_nm:gd|res:RC3|com-cf:nl|ptrs:na|ktp:N0|mc:55653|mtp:G|qry_typ:P|lang:en|wc:2|cs:8827|v=4,Vagmine Healthcare,https://www.indiamart.com/vagmine-healthcare/?pos=101&kwd=baby nipples&tags=||||8752.144|Price|product|||TS|rsf:gd-|-stype:attr=1|qr_nm:gd|res:RC3|com-cf:nl|ptrs:na|ktp:N0|mc:55653|mtp:G|qry_typ:P|lang:en|wc:2|cs:8827|v=4,False,Vivek Vihar,New Delhi,"5/4 B,Damodar, Park Dilshad, Garden Shahdara,, Vivek Vihar, New Delhi - 110095, Dist.Delhi, Delhi",8048614274,
Medela Contact Silicone Nipple Shields,https://www.indiamart.com/proddetail/medela-contact-silicone-nipple-shields-25611440248.html?pos=102&kwd=baby nipples&tags=||||8601.347|Price|product|||TS|rsf:gd-|-stype:attr=1|qr_nm:gd|res:RC3|com-cf:nl|ptrs:na|ktp:N0|mc:55653|mtp:G|qry_typ:P|lang:en|wc:2|cs:8827|v=4,Pioneer Medical Devices,https://www.indiamart.com/pioneermedicaldevices/?pos=102&kwd=baby nipples&tags=||||8601.347|Price|product|||TS|rsf:gd-|-stype:attr=1|qr_nm:gd|res:RC3|com-cf:nl|ptrs:na|ktp:N0|mc:55653|mtp:G|qry_typ:P|lang:en|wc:2|cs:8827|v=4,False,Rajasthan Police Academy,Jaipur,"Shop No. 41-42, Kalptaru Shopping Center, Rajasthan Police Academy, Jaipur - 302023, Dist.Jaipur, Rajasthan",8047674856,
Medigold Nipple Shield,https://www.indiamart.com/proddetail/medigold-nipple-shield-25698811488.html?pos=103&kwd=baby nipples&tags=||||8752.144|Price|product|||TS|rsf:gd-|-stype:attr=1|qr_nm:gd|res:RC3|com-cf:nl|ptrs:na|ktp:N0|mc:55653|mtp:G|qry_typ:P|lang:en|wc:2|cs:8827|v=4,JAS Enterprises,https://www.indiamart.com/jasenterprisesnewdelhi/?pos=103&kwd=baby nipples&tags=||||8752.144|Price|product|||TS|rsf:gd-|-stype:attr=1|qr_nm:gd|res:RC3|com-cf:nl|ptrs:na|ktp:N0|mc:55653|mtp:G|qry_typ:P|lang:en|wc:2|cs:8827|v=4,False,Chandni Chowk,New Delhi,"1521-A Bhagirath Palace Chandni Chowk, Chandni Chowk, New Delhi - 110006, Dist.Delhi, Delhi",8047658253,
Silicon Nipple In Delhi,https://www.indiamart.com/proddetail/silicon-nipple-in-delhi-2852582021262.html?pos=104&kwd=baby nipples&tags=||||8752.144|Price|product|||TS|rsf:gd-|-stype:attr=1|qr_nm:gd|res:RC3|com-cf:nl|ptrs:na|ktp:N0|mc:55653|mtp:G|qry_typ:P|lang:en|wc:2|cs:8827|v=4,H.M.Enterprises,https://www.indiamart.com/hmentps-delhi/?pos=104&kwd=baby nipples&tags=||||8752.144|Price|product|||TS|rsf:gd-|-stype:attr=1|qr_nm:gd|res:RC3|com-cf:nl|ptrs:na|ktp:N0|mc:55653|mtp:G|qry_typ:P|lang:en|wc:2|cs:8827|v=4,False,Pahari Dhiraj,New Delhi,"Building No. 3, First Floor Sadar Thana Road,New Delhi, Pahari Dhiraj, New Delhi - 110006, Dist.Delhi, Delhi",7942541332,
Baby Silicone Nipple,https://www.indiamart.com/proddetail/baby-silicone-nipple-10789253097.html?pos=105&kwd=baby nipples&tags=||||8211.142|Price|product|||TS|rsf:gd-|-stype:attr=1|qr_nm:gd|res:RC3|com-cf:nl|ptrs:na|ktp:N0|mc:55653|mtp:G|qry_typ:P|lang:en|wc:2|cs:8827|v=4,Adinath Engineering Co.,https://www.adinathengineering.com/?pos=105&kwd=baby nipples&tags=||||8211.142|Price|product|||TS|rsf:gd-|-stype:attr=1|qr_nm:gd|res:RC3|com-cf:nl|ptrs:na|ktp:N0|mc:55653|mtp:G|qry_typ:P|lang:en|wc:2|cs:8827|v=4,False,Mulund West,Mumbai,"501, Tarangan Building, V. P. Road Mulund West, Mulund West, Mumbai - 400080, Dist.Mumbai, Maharashtra",8048966949,
Brass Baby Nipple,https://www.indiamart.com/proddetail/brass-baby-nipple-1180607473.html?pos=106&kwd=baby nipples&tags=CC||||8915.672||product|||TS|rsf:gd-|-stype:attr=1|qr_nm:gd|res:RC3|com-cf:nl|ptrs:na|ktp:N0|mc:55653|mtp:G|qry_typ:P|lang:en|wc:2|cs:8827|v=4,White Daisy,https://www.whitedaisyintl.net/?pos=106&kwd=baby nipples&tags=CC||||8915.672||product|||TS|rsf:gd-|-stype:attr=1|qr_nm:gd|res:RC3|com-cf:nl|ptrs:na|ktp:N0|mc:55653|mtp:G|qry_typ:P|lang:en|wc:2|cs:8827|v=4,False,Ghurathy,Moradabad,"No. 101, Kothiwal Nagar, Near Highland Building, Ghurathy, Moradabad - 244001, Dist.Moradabad, Uttar Pradesh",8046053484,
Silicone Nipple Shield,https://www.indiamart.com/proddetail/silicone-nipple-shield-25569663088.html?pos=107&kwd=baby nipples&tags=||||8500.97|Price|product|||TS|rsf:gd-|-stype:attr=1|qr_nm:gd|res:RC3|com-cf:nl|ptrs:na|ktp:N0|mc:55653|mtp:G|qry_typ:P|lang:en|wc:2|cs:8827|v=4,Arambans Exporters Private Limited,https://www.indiamart.com/arambansexporters/?pos=107&kwd=baby nipples&tags=||||8500.97|Price|product|||TS|rsf:gd-|-stype:attr=1|qr_nm:gd|res:RC3|com-cf:nl|ptrs:na|ktp:N0|mc:55653|mtp:G|qry_typ:P|lang:en|wc:2|cs:8827|v=4,False,Kuriachira,Thrissur,"Attokaran, TT Road, Kuriachira PO, Kuriachira, Thrissur - 680006, Dist.Thrissur, Kerala",8046058355,
JIALTO Silicone Nipple for Breastfeeding with Latch Difficulties,https://www.indiamart.com/proddetail/jialto-silicone-nipple-for-breastfeeding-with-latch-difficulties-27181638455.html?pos=108&kwd=baby nipples&tags=||||8230.331|Price|product|||TS|rsf:gd-|-stype:attr=1|qr_nm:gd|res:RC3|com-cf:nl|ptrs:na|ktp:N0|mc:55653|mtp:G|qry_typ:P|lang:en|wc:2|cs:8827|v=4,Zexmon,https://www.indiamart.com/boniry/?pos=108&kwd=baby nipples&tags=||||8230.331|Price|product|||TS|rsf:gd-|-stype:attr=1|qr_nm:gd|res:RC3|com-cf:nl|ptrs:na|ktp:N0|mc:55653|mtp:G|qry_typ:P|lang:en|wc:2|cs:8827|v=4,False,Chadotar,Palanpur,"s No. 454 P 1 Bin Kheti Milkat No 2789/2 Patravalo Shed Gam Chadotar Akesan Road, Chadotar, Palanpur - 385001, Dist.Banaskantha, Gujarat",8048979536,
De-Breaking Nipple Line End Kit,https://www.indiamart.com/proddetail/nipple-line-end-kit-16017309733.html?pos=109&kwd=baby nipples&tags=||||8307.81|Price|product|||TS|rsf:gd-|-stype:attr=1|qr_nm:gd|res:RC3|com-cf:nl|ptrs:na|ktp:N0|mc:55653|mtp:G|qry_typ:P|lang:en|wc:2|cs:8827|v=4,Shree Marketing,https://www.shreemarketing.in/?pos=109&kwd=baby nipples&tags=||||8307.81|Price|product|||TS|rsf:gd-|-stype:attr=1|qr_nm:gd|res:RC3|com-cf:nl|ptrs:na|ktp:N0|mc:55653|mtp:G|qry_typ:P|lang:en|wc:2|cs:8827|v=4,False,Kesnand,Pune,"Swami Dhan, Shanti Park, Gate No. 1103 Wagholi Kesnand Road, Wagholi, Kesnand, Pune - 412207, Dist.Pune, Maharashtra",8048957609,
Contact Nipple Shields,https://www.indiamart.com/proddetail/contact-nipple-shields-6230563955.html?pos=110&kwd=baby nipples&tags=||||8211.142|Price|product|||TS|rsf:gd-|-stype:attr=1|qr_nm:gd|res:RC3|com-cf:nl|ptrs:na|ktp:N0|mc:55653|mtp:G|qry_typ:P|lang:en|wc:2|cs:8827|v=4,Seward Systems Inc,https://www.indiamart.com/seward-systems/?pos=110&kwd=baby nipples&tags=||||8211.142|Price|product|||TS|rsf:gd-|-stype:attr=1|qr_nm:gd|res:RC3|com-cf:nl|ptrs:na|ktp:N0|mc:55653|mtp:G|qry_typ:P|lang:en|wc:2|cs:8827|v=4,False,Borivali East,Mumbai,"No. 302, Triveni Krupa Building, Carter Road, No. 3, Borivali East, Mumbai - 400066, Dist.Mumbai, Maharashtra",8048602086,
"SYGA Green Medium Fresh Food Nibbler Fruit Feeder Nipple Pacifiers Bottles, 3-12 Months",https://www.indiamart.com/proddetail/medium-fresh-food-nibbler-fruit-feeder-nipple-pacifiers-bottles-2851498333588.html?pos=111&kwd=baby nipples&tags=||||8228.275|Price|product|||TS|rsf:gd-|-stype:attr=1|qr_nm:gd|res:RC3|com-cf:nl|ptrs:na|ktp:N0|mc:55653|mtp:G|qry_typ:P|lang:en|wc:2|cs:8827|v=4,Syga Home Furnishing,https://www.indiamart.com/sygahomefurnishing/?pos=111&kwd=baby nipples&tags=||||8228.275|Price|product|||TS|rsf:gd-|-stype:attr=1|qr_nm:gd|res:RC3|com-cf:nl|ptrs:na|ktp:N0|mc:55653|mtp:G|qry_typ:P|lang:en|wc:2|cs:8827|v=4,False,Navrangpura,Ahmedabad,"A-503, Samudra Complex, Near Girish Cold Drinks C. G. Road, Navrangpura, Navrangpura, Ahmedabad - 380009, Dist.Ahmedabad, Gujarat",8048985837,
Wooden Baby Pacifier Clip and baby teether,https://www.indiamart.com/proddetail/baby-pacifier-clip-and-baby-teether-2854473070530.html?pos=112&kwd=baby nipples&tags=||||7981.7773|Price|product|||TS|rsf:gd-|-stype:attr=1|qr_nm:gd|res:RC3|com-cf:nl|ptrs:na|ktp:N0|mc:55653|mtp:G|qry_typ:P|lang:en|wc:2|cs:8827|v=4,Shreeji Enterprise,https://www.indiamart.com/shreejienterprisegandhidham/?pos=112&kwd=baby nipples&tags=||||7981.7773|Price|product|||TS|rsf:gd-|-stype:attr=1|qr_nm:gd|res:RC3|com-cf:nl|ptrs:na|ktp:N0|mc:55653|mtp:G|qry_typ:P|lang:en|wc:2|cs:8827|v=4,False,Golden Heights,Gandhidham,"108, Golden Height, Opposite Hotel Shiv Grand, Behind Petrol Pump, Golden Heights, Gandhidham - 370201, Dist.Kachchh, Gujarat",7942553471,
Baby Pacifier Baby Fruit Nipple,https://www.indiamart.com/proddetail/baby-pacifier-baby-fruit-nipple-2854862075791.html?pos=113&kwd=baby nipples&tags=||||8752.144|Price|product|||TS|rsf:gd-|-stype:attr=1|qr_nm:gd|res:RC3|com-cf:nl|ptrs:na|ktp:N0|mc:55653|mtp:G|qry_typ:P|lang:en|wc:2|cs:8827|v=4,M A Enterprises,https://www.maenterprisess.com/?pos=113&kwd=baby nipples&tags=||||8752.144|Price|product|||TS|rsf:gd-|-stype:attr=1|qr_nm:gd|res:RC3|com-cf:nl|ptrs:na|ktp:N0|mc:55653|mtp:G|qry_typ:P|lang:en|wc:2|cs:8827|v=4,False,azadpur delhi,New Delhi,"Plot No 32b bassment Rameswar nagar Azadpur, azadpur delhi, New Delhi - 110033, Dist.Delhi, Delhi",7949326748,
Silicone Baby Fruit Feeder,https://www.indiamart.com/proddetail/silicone-baby-fruit-feeder-2854426311197.html?pos=114&kwd=baby nipples&tags=||||8752.144|Price|product|||TS|rsf:gd-|-stype:attr=1|qr_nm:gd|res:RC3|com-cf:nl|ptrs:na|ktp:N0|mc:55653|mtp:G|qry_typ:P|lang:en|wc:2|cs:8827|v=4,Vinayak Import,https://www.indiamart.com/vinayakimport/?pos=114&kwd=baby nipples&tags=||||8752.144|Price|product|||TS|rsf:gd-|-stype:attr=1|qr_nm:gd|res:RC3|com-cf:nl|ptrs:na|ktp:N0|mc:55653|mtp:G|qry_typ:P|lang:en|wc:2|cs:8827|v=4,False,Prem Nagar,New Delhi,"X 387, Bharat Vihar, Prem Nagar II, Kirari Suleman Nagar, North West, Prem Nagar, New Delhi - 110086, Dist.Delhi, Delhi",7942969894,
Baby Silicone Teether,https://www.indiamart.com/proddetail/baby-silicone-teether-2854773891091.html?pos=115&kwd=baby nipples&tags=||||8038.093|Price|product|||TS|rsf:gd-|-stype:attr=1|qr_nm:gd|res:RC3|com-cf:nl|ptrs:na|ktp:N0|mc:55653|mtp:G|qry_typ:P|lang:en|wc:2|cs:8827|v=4,Aditi Techno LLP,https://www.indiamart.com/adititechno/?pos=115&kwd=baby nipples&tags=||||8038.093|Price|product|||TS|rsf:gd-|-stype:attr=1|qr_nm:gd|res:RC3|com-cf:nl|ptrs:na|ktp:N0|mc:55653|mtp:G|qry_typ:P|lang:en|wc:2|cs:8827|v=4,False,Metoda,Rajkot,"Plot No-2628/3, Gate No-1, Main Road, Metoda GIDC,, Metoda, Rajkot - 360021, Dist.Rajkot, Gujarat",8046041944,
GANESH STAINLESS STEEL BABY FEEDING BOTTLE 8173,https://www.indiamart.com/proddetail/ganesh-stainless-steel-baby-feeding-bottle-8173-2853904304062.html?pos=116&kwd=baby nipples&tags=||||8038.093|Price|product|||TS|rsf:gd-|-stype:attr=1|qr_nm:gd|res:RC3|com-cf:nl|ptrs:na|ktp:N0|mc:55653|mtp:G|qry_typ:P|lang:en|wc:2|cs:8827|v=4,Deodap,https://www.indiamart.com/deodap/?pos=116&kwd=baby nipples&tags=||||8038.093|Price|product|||TS|rsf:gd-|-stype:attr=1|qr_nm:gd|res:RC3|com-cf:nl|ptrs:na|ktp:N0|mc:55653|mtp:G|qry_typ:P|lang:en|wc:2|cs:8827|v=4,False,Rajkot,Rajkot,"plot No. 9 Behind Patanjali Werhouse, Ruda Transport, Saat Hanuman Ahemdabad Road, Rajkot, Rajkot - 360005, Dist.Rajkot, Gujarat",8048972316,
"Plastic Silicone Baby Fruit Feeder, 3-12 Months",https://www.indiamart.com/proddetail/silicone-baby-fruit-feeder-25744967512.html?pos=117&kwd=baby nipples&tags=||||8752.144|Price|product|||TS|rsf:gd-|-stype:attr=1|qr_nm:gd|res:RC3|com-cf:nl|ptrs:na|ktp:N0|mc:55653|mtp:G|qry_typ:P|lang:en|wc:2|cs:8827|v=4,Aryan Collection,https://www.aryancollections.com/?pos=117&kwd=baby nipples&tags=||||8752.144|Price|product|||TS|rsf:gd-|-stype:attr=1|qr_nm:gd|res:RC3|com-cf:nl|ptrs:na|ktp:N0|mc:55653|mtp:G|qry_typ:P|lang:en|wc:2|cs:8827|v=4,False,Nangloi,New Delhi,"Kh No 9/1,,Village Kamruddin Nagar,Nangloi Near Daulat Ram School, Nangloi, New Delhi - 110041, Dist.Delhi, Delhi",8048609299,
Chemical Nylon Baby Water Pad Baby Slapped Pad,https://www.indiamart.com/proddetail/chemical-nylon-baby-water-pad-baby-slapped-pad-25956933073.html?pos=118&kwd=baby nipples&tags=||||8752.144|Price|product|||TS|rsf:gd-|-stype:attr=1|qr_nm:gd|res:RC3|com-cf:nl|ptrs:na|ktp:N0|mc:55653|mtp:G|qry_typ:P|lang:en|wc:2|cs:8827|v=4,Shiv Darshan Sansthan,https://www.shivdarshansansthan.com/?pos=118&kwd=baby nipples&tags=||||8752.144|Price|product|||TS|rsf:gd-|-stype:attr=1|qr_nm:gd|res:RC3|com-cf:nl|ptrs:na|ktp:N0|mc:55653|mtp:G|qry_typ:P|lang:en|wc:2|cs:8827|v=4,False,Pandav Nagar,New Delhi,"Bunglow, Plot No. 10, Pandav Nagar, New Delhi - 110092, Dist.Delhi, Delhi",8048984990,
Silicon Baby Fruit Feeder,https://www.indiamart.com/proddetail/silicon-baby-fruit-feeder-24272064473.html?pos=119&kwd=baby nipples&tags=||||8752.144|Price|product|||TS|rsf:gd-|-stype:attr=1|qr_nm:gd|res:RC3|com-cf:nl|ptrs:na|ktp:N0|mc:55653|mtp:G|qry_typ:P|lang:en|wc:2|cs:8827|v=4,Melvis,https://www.indiamart.com/melvis/?pos=119&kwd=baby nipples&tags=||||8752.144|Price|product|||TS|rsf:gd-|-stype:attr=1|qr_nm:gd|res:RC3|com-cf:nl|ptrs:na|ktp:N0|mc:55653|mtp:G|qry_typ:P|lang:en|wc:2|cs:8827|v=4,False,Swaroop Nagar,New Delhi,"First Floor, House Number 185/12, Block-B, Yadav Market Road Chowk, Swaroop Nagar,, Swaroop Nagar, New Delhi - 110042, Dist.Delhi, Delhi",8047632851,
BKT608 Empty 6.45ml nipple pacifier milk baby bottle shape lip gloss container liquid lipstick,https://www.indiamart.com/proddetail/bkt608-empty-6-45ml-nipple-pacifier-milk-baby-bottle-shape-lip-gloss-container-liquid-lipstick-2854395982533.html?pos=120&kwd=baby nipples&tags=||||8741.812|Price|product|||TS|rsf:gd-|-stype:attr=1|qr_nm:gd|res:RC3|com-cf:nl|ptrs:na|ktp:N0|mc:55653|mtp:G|qry_typ:P|lang:en|wc:2|cs:8827|v=4,Blacktie Ecom Private Limited,https://www.indiamart.com/blacktieecom/?pos=120&kwd=baby nipples&tags=||||8741.812|Price|product|||TS|rsf:gd-|-stype:attr=1|qr_nm:gd|res:RC3|com-cf:nl|ptrs:na|ktp:N0|mc:55653|mtp:G|qry_typ:P|lang:en|wc:2|cs:8827|v=4,False,Gurgaon South City Ii,Gurgaon,"CABIN 210 B 38 OLD DLF COLONY, Gurgaon South City Ii, Gurgaon - 122018, Dist.Gurgaon, Haryana",8046052578,
"Multicolor rattle neebler/Fruit Feeder for Kids (bb-8), 3-12 Months",https://www.indiamart.com/proddetail/multicolor-rattle-neebler-fruit-feeder-for-kids-bb-8-2852149912130.html?pos=121&kwd=baby nipples&tags=||||8752.144|Price|product|||TS|rsf:gd-|-stype:attr=1|qr_nm:gd|res:RC3|com-cf:nl|ptrs:na|ktp:N0|mc:55653|mtp:G|qry_typ:P|lang:en|wc:2|cs:8827|v=4,Gtglobal Trade India Private Limited,https://www.gtcglobal.in/?pos=121&kwd=baby nipples&tags=||||8752.144|Price|product|||TS|rsf:gd-|-stype:attr=1|qr_nm:gd|res:RC3|com-cf:nl|ptrs:na|ktp:N0|mc:55653|mtp:G|qry_typ:P|lang:en|wc:2|cs:8827|v=4,False,Swaroop Nagar,New Delhi,"Plot No 144/145 , Kh. No.16/10, Gali No-7 Swaroop Nagar Extension, Swaroop Nagar, New Delhi - 110042, Dist.Delhi, Delhi",8048960531,
Chic Buddy Silicone Baby Fruit Feeder,https://www.indiamart.com/proddetail/chic-buddy-silicone-baby-fruit-feeder-24186074391.html?pos=122&kwd=baby nipples&tags=||||8786.56|Price|product|||TS|rsf:gd-|-stype:attr=1|qr_nm:gd|res:RC3|com-cf:nl|ptrs:na|ktp:N0|mc:55653|mtp:G|qry_typ:P|lang:en|wc:2|cs:8827|v=4,Totcase Services Private Limited,https://www.totcase.com/?pos=122&kwd=baby nipples&tags=||||8786.56|Price|product|||TS|rsf:gd-|-stype:attr=1|qr_nm:gd|res:RC3|com-cf:nl|ptrs:na|ktp:N0|mc:55653|mtp:G|qry_typ:P|lang:en|wc:2|cs:8827|v=4,False,Alwal,Hyderabad,"1-4-177/ A13/402 Shivasai Residency Greenwood Colony Old Alwal, Alwal, Hyderabad - 500010, Dist.Hyderabad, Telangana",8045910096,
"HIAKAN Nipple Shield, Packaging Type: Box, Size: Free Size",https://www.indiamart.com/proddetail/nipple-shield-20893066597.html?pos=123&kwd=baby nipples&tags=||||8785.791|Price|product|||TS|rsf:gd-|-stype:attr=1|qr_nm:gd|res:RC3|com-cf:nl|ptrs:na|ktp:N0|mc:55653|mtp:G|qry_typ:P|lang:en|wc:2|cs:8827|v=4,Hiakan International,https://www.hiakan.com/?pos=123&kwd=baby nipples&tags=||||8785.791|Price|product|||TS|rsf:gd-|-stype:attr=1|qr_nm:gd|res:RC3|com-cf:nl|ptrs:na|ktp:N0|mc:55653|mtp:G|qry_typ:P|lang:en|wc:2|cs:8827|v=4,False,Rajendra Nagar,Ghaziabad,"Kh No.-3539, Raghubeer Enclave,Paragana Loni,, Rajendra Nagar, Ghaziabad - 201005, Dist.Ghaziabad, Uttar Pradesh",8047645889,
Silicone Nipple Shield,https://www.indiamart.com/proddetail/silicone-nipple-shield-2851827460991.html?pos=124&kwd=baby nipples&tags=||||8230.883|Price|product|||TS|rsf:gd-|-stype:attr=1|qr_nm:gd|res:RC3|com-cf:nl|ptrs:na|ktp:N0|mc:55653|mtp:G|qry_typ:P|lang:en|wc:2|cs:8827|v=4,Shanti Medicare,https://www.indiamart.com/shanti-medicare/?pos=124&kwd=baby nipples&tags=||||8230.883|Price|product|||TS|rsf:gd-|-stype:attr=1|qr_nm:gd|res:RC3|com-cf:nl|ptrs:na|ktp:N0|mc:55653|mtp:G|qry_typ:P|lang:en|wc:2|cs:8827|v=4,False,126 shardha row row house,Surat,"S 20, Swastik Plaza, Yogi Chowk,, 126 shardha row row house, Surat - 395010, Dist.Surat, Gujarat",7942835980,
Baby Fruit Feeder,https://www.indiamart.com/proddetail/baby-fruit-feeder-27118477091.html?pos=125&kwd=baby nipples&tags=||||8211.142|Price|product|||TS|rsf:gd-|-stype:attr=1|qr_nm:gd|res:RC3|com-cf:nl|ptrs:na|ktp:N0|mc:55653|mtp:G|qry_typ:P|lang:en|wc:2|cs:8827|v=4,Itsyyboo,https://www.indiamart.com/nontoxic/?pos=125&kwd=baby nipples&tags=||||8211.142|Price|product|||TS|rsf:gd-|-stype:attr=1|qr_nm:gd|res:RC3|com-cf:nl|ptrs:na|ktp:N0|mc:55653|mtp:G|qry_typ:P|lang:en|wc:2|cs:8827|v=4,False,Borivali East,Mumbai,"201, Kusum Bharti CHS Ltd, Dattapada Road, Opp Tata Steel, Borivali East, Mumbai, Borivali East, Mumbai - 400066, Dist.Mumbai, Maharashtra",8046065186,
Philips Avent SCF041/27 Natural 2. 0 Teat for Newborn 0 Month+ (Set of 2 Units),https://www.indiamart.com/proddetail/philips-avent-scf041-27-natural-2-0-teat-for-newborn-0-month-set-of-2-units-2850954196491.html?pos=126&kwd=baby nipples&tags=||||8752.144|Price|product|||TS|rsf:gd-|-stype:attr=1|qr_nm:gd|res:RC3|com-cf:nl|ptrs:na|ktp:N0|mc:55653|mtp:G|qry_typ:P|lang:en|wc:2|cs:8827|v=4,Sai Global,https://www.saiglobalindia.in/?pos=126&kwd=baby nipples&tags=||||8752.144|Price|product|||TS|rsf:gd-|-stype:attr=1|qr_nm:gd|res:RC3|com-cf:nl|ptrs:na|ktp:N0|mc:55653|mtp:G|qry_typ:P|lang:en|wc:2|cs:8827|v=4,False,Dwarka Sector 16c,New Delhi,"Property No-114, Basement, Pocket C-8, Sector-17, Dwarka, Dwarka Sector 16c, New Delhi - 110075, Dist.Delhi, Delhi",7942559122,
"Multicolor Plastic Baby Fruit Feeder, 3-12 Months",https://www.indiamart.com/proddetail/baby-fruit-feeder-2851667210797.html?pos=127&kwd=baby nipples&tags=||||8124.6323|Price|product|||TS|rsf:gd-|-stype:attr=1|qr_nm:gd|res:RC3|com-cf:nl|ptrs:na|ktp:N0|mc:55653|mtp:G|qry_typ:P|lang:en|wc:2|cs:8827|v=4,6 Zero 7 Zero Mart,https://www.6zero7zeromart.com/?pos=127&kwd=baby nipples&tags=||||8124.6323|Price|product|||TS|rsf:gd-|-stype:attr=1|qr_nm:gd|res:RC3|com-cf:nl|ptrs:na|ktp:N0|mc:55653|mtp:G|qry_typ:P|lang:en|wc:2|cs:8827|v=4,False,Mohan Nagar,Botad,"01, Mohan Nagar, Dhakniya Road, Botad, Botad, Gujarat, 364710, Mohan Nagar, Botad - 364710, Dist.Bhavnagar, Gujarat",7942620760,
"FOOD GRADE NIPPLE, 3-12 Months",https://www.indiamart.com/proddetail/food-grade-nipple-2852173760330.html?pos=128&kwd=baby nipples&tags=CC||||8211.142||product|||TS|rsf:gd-|-stype:attr=1|qr_nm:gd|res:RC3|com-cf:nl|ptrs:na|ktp:N0|mc:55653|mtp:G|qry_typ:P|lang:en|wc:2|cs:8827|v=4,Ashok Rubber Works / Shivam Rubber Industries,https://www.indiamart.com/shivamrubber-industries/?pos=128&kwd=baby nipples&tags=CC||||8211.142||product|||TS|rsf:gd-|-stype:attr=1|qr_nm:gd|res:RC3|com-cf:nl|ptrs:na|ktp:N0|mc:55653|mtp:G|qry_typ:P|lang:en|wc:2|cs:8827|v=4,False,Goregaon East,Mumbai,"Gala No.2, 1st Floor, Mehta House, Walbhat Road, Near Vivek Industrial Estate, Opp. Ambe Mata Mandir Anna Nagar, Goregaon East, Goregaon East, Mumbai - 400063, Dist.Mumbai, Maharashtra",8048610706,
"Pink Silicone Baby Food Feeder, Capacity: 100 mL, 1-2 Years",https://www.indiamart.com/proddetail/pink-silicone-baby-food-feeder-2852573042291.html?pos=129&kwd=baby nipples&tags=||||8752.144|Price|product|||TS|rsf:gd-|-stype:attr=1|qr_nm:gd|res:RC3|com-cf:nl|ptrs:na|ktp:N0|mc:55653|mtp:G|qry_typ:P|lang:en|wc:2|cs:8827|v=4,Swaroop Interior,https://www.indiamart.com/swaroop-interior-newdelhi/?pos=129&kwd=baby nipples&tags=||||8752.144|Price|product|||TS|rsf:gd-|-stype:attr=1|qr_nm:gd|res:RC3|com-cf:nl|ptrs:na|ktp:N0|mc:55653|mtp:G|qry_typ:P|lang:en|wc:2|cs:8827|v=4,False,Tri Nagar,New Delhi,"3rd Floor, C6/31B, Keshav Puram Lawrence Road, North West, Tri Nagar, New Delhi - 110035, Dist.Delhi, Delhi",7942715460,
Baby Silicone Pacifier,https://www.indiamart.com/proddetail/baby-silicone-pacifier-2850629011255.html?pos=130&kwd=baby nipples&tags=||||8752.144|Price|product|||TS|rsf:gd-|-stype:attr=1|qr_nm:gd|res:RC3|com-cf:nl|ptrs:na|ktp:N0|mc:55653|mtp:G|qry_typ:P|lang:en|wc:2|cs:8827|v=4,Mom & Son,https://www.theindianchoice.com/?pos=130&kwd=baby nipples&tags=||||8752.144|Price|product|||TS|rsf:gd-|-stype:attr=1|qr_nm:gd|res:RC3|com-cf:nl|ptrs:na|ktp:N0|mc:55653|mtp:G|qry_typ:P|lang:en|wc:2|cs:8827|v=4,False,Karawal Nagar,New Delhi,"B-57 Gali Number-1 Mukund Vihar, Near Pnb Bank, Karawal Nagar, New Delhi - 110094, Dist.Delhi, Delhi",7942565509,
Philips Avent Ultra Air Soother 2 Pack - BPA-Free Soother for Babies Aged 6-18 Months,https://www.indiamart.com/proddetail/philips-avent-ultra-air-soother-2-pack-bpa-free-soother-for-babies-aged-6-18-months-2852769354588.html?pos=131&kwd=baby nipples&tags=||||8752.144||product|||TS|rsf:gd-|-stype:attr=1|qr_nm:gd|res:RC3|com-cf:nl|ptrs:na|ktp:N0|mc:55653|mtp:G|qry_typ:P|lang:en|wc:2|cs:8827|v=4,MS Enterprises,https://www.themayansh.com/?pos=131&kwd=baby nipples&tags=||||8752.144||product|||TS|rsf:gd-|-stype:attr=1|qr_nm:gd|res:RC3|com-cf:nl|ptrs:na|ktp:N0|mc:55653|mtp:G|qry_typ:P|lang:en|wc:2|cs:8827|v=4,False,Shakurpur,New Delhi,"3503, Block WZ, Raja Park, Shakur Basti,North West, Shakurpur, New Delhi - 110034, Dist.Delhi, Delhi",8047650795,
"Chhote Janab White Fruit Feeder Baby, Packaging Type: Box, Newly Born",https://www.indiamart.com/proddetail/fruit-feeder-baby-21790594548.html?pos=132&kwd=baby nipples&tags=||||8752.144|Price|product|||TS|rsf:gd-|-stype:attr=1|qr_nm:gd|res:RC3|com-cf:nl|ptrs:na|ktp:N0|mc:55653|mtp:G|qry_typ:P|lang:en|wc:2|cs:8827|v=4,Shree Balaji Infant Wear,https://www.indiamart.com/chhotejanab/?pos=132&kwd=baby nipples&tags=||||8752.144|Price|product|||TS|rsf:gd-|-stype:attr=1|qr_nm:gd|res:RC3|com-cf:nl|ptrs:na|ktp:N0|mc:55653|mtp:G|qry_typ:P|lang:en|wc:2|cs:8827|v=4,False,Pahari Dhiraj,New Delhi,"1583- 84, Hathi Khana, Aziz Ganj, Bahadur Garh Road, Pahari Dhiraj, New Delhi - 110006, Dist.Delhi, Delhi",8047639754,
Baby Food Feeder Fruit Feeder Pacifier Fruit Soft Silicone Fruit Teether for Babies,https://www.indiamart.com/proddetail/baby-food-feeder-fruit-feeder-pacifier-fruit-soft-silicone-fruit-teether-for-babies-2850835547288.html?pos=133&kwd=baby nipples&tags=||||8752.144|Price|product|||TS|rsf:gd-|-stype:attr=1|qr_nm:gd|res:RC3|com-cf:nl|ptrs:na|ktp:N0|mc:55653|mtp:G|qry_typ:P|lang:en|wc:2|cs:8827|v=4,RV Enterprises,https://www.indiamart.com/r-v-enterprisesdelhi/?pos=133&kwd=baby nipples&tags=||||8752.144|Price|product|||TS|rsf:gd-|-stype:attr=1|qr_nm:gd|res:RC3|com-cf:nl|ptrs:na|ktp:N0|mc:55653|mtp:G|qry_typ:P|lang:en|wc:2|cs:8827|v=4,False,,New Delhi,"Kh. No.9/21, Shop No-3 Ground Floor, Kaushik Enclave, Block-B, New Delhi, North East Delhi, New Delhi - 110084, Dist.Delhi, Delhi",7942795485,
"Silicone Food/Fruit Nibbler, Pacifier, Feeder, Teether for Infant Baby",https://www.indiamart.com/proddetail/silicone-food-fruit-nibbler-pacifier-feeder-teether-for-infant-baby-2850422217697.html?pos=134&kwd=baby nipples&tags=||||8752.144|Price|product|||TS|rsf:gd-|-stype:attr=1|qr_nm:gd|res:RC3|com-cf:nl|ptrs:na|ktp:N0|mc:55653|mtp:G|qry_typ:P|lang:en|wc:2|cs:8827|v=4,Jainone Hub,https://www.indiamart.com/jainonehub/?pos=134&kwd=baby nipples&tags=||||8752.144|Price|product|||TS|rsf:gd-|-stype:attr=1|qr_nm:gd|res:RC3|com-cf:nl|ptrs:na|ktp:N0|mc:55653|mtp:G|qry_typ:P|lang:en|wc:2|cs:8827|v=4,False,Mandoli,New Delhi,"J- 8, Near Frooti Godown, Gali No. 4, Melaram Farm House Mandoli Sewadham Road, Mandoli, New Delhi - 110093, Dist.Delhi, Delhi",8048963941,
Silicone Food And Fruit Nibbler (Aark Teething Feeder),https://www.indiamart.com/proddetail/silicone-food-and-fruit-nibbler-aark-teething-feeder-4130215897.html?pos=135&kwd=baby nipples&tags=||||8752.144|Price|product|||TS|rsf:gd-|-stype:attr=1|qr_nm:gd|res:RC3|com-cf:nl|ptrs:na|ktp:N0|mc:55653|mtp:G|qry_typ:P|lang:en|wc:2|cs:8827|v=4,BVM Meditech Pvt Ltd,https://www.indiamart.com/bvm-meditech/?pos=135&kwd=baby nipples&tags=||||8752.144|Price|product|||TS|rsf:gd-|-stype:attr=1|qr_nm:gd|res:RC3|com-cf:nl|ptrs:na|ktp:N0|mc:55653|mtp:G|qry_typ:P|lang:en|wc:2|cs:8827|v=4,False,Dilshad Garden,New Delhi,"No. 306, 3rd Floor, Local Shopping Complex Pocket B & E, Mantri Arcade, Dilshad Garden, New Delhi - 110095, Dist.Delhi, Delhi",8048958395,
METKING Stainless Steel Baby Feeding Bottle -Anti Colic Nipple Slim Neck Steel Bottle- 220 ml,https://www.indiamart.com/proddetail/metking-stainless-steel-baby-feeding-bottle-anti-colic-nipple-slim-neck-steel-bottle-220-ml-2853615623488.html?pos=136&kwd=baby nipples&tags=CC||||8601.347|Price|product|||TS|rsf:gd-|-stype:attr=1|qr_nm:gd|res:RC3|com-cf:nl|ptrs:na|ktp:N0|mc:55653|mtp:G|qry_typ:P|lang:en|wc:2|cs:8827|v=4,Ashoka Metals,https://www.themetking.com/?pos=136&kwd=baby nipples&tags=CC||||8601.347|Price|product|||TS|rsf:gd-|-stype:attr=1|qr_nm:gd|res:RC3|com-cf:nl|ptrs:na|ktp:N0|mc:55653|mtp:G|qry_typ:P|lang:en|wc:2|cs:8827|v=4,False,Gurudham Colony,Jaipur,"0,Basement,Ashoka Plaza,Bus Stand, Chomu, Gurudham Colony, Jaipur - 303702, Dist.Jaipur, Rajasthan",8047833469,
1600 Silicone Sink Handle Extender For Children-baby,https://www.indiamart.com/proddetail/1600-silicone-sink-handle-extender-for-children-baby-24225163312.html?pos=137&kwd=baby nipples&tags=||||8239.3955|Price|product|||TS|rsf:gd-|-stype:attr=1|qr_nm:gd|res:RC3|com-cf:nl|ptrs:na|ktp:N0|mc:55653|mtp:G|qry_typ:P|lang:en|wc:2|cs:8827|v=4,Shopmania Retail Private Limited,https://www.indiamart.com/shopmania-retail/?pos=137&kwd=baby nipples&tags=||||8239.3955|Price|product|||TS|rsf:gd-|-stype:attr=1|qr_nm:gd|res:RC3|com-cf:nl|ptrs:na|ktp:N0|mc:55653|mtp:G|qry_typ:P|lang:en|wc:2|cs:8827|v=4,False,Shahad,Kalyan,"C/o Birendra Pratap R Singh, Dobhighat Kamla Nehru Nagar Ulhasnagar, Shahad, Kalyan - 421103, Dist.Thane, Maharashtra",8048969397,
"EARTH ENTERPRISE Transparent BABY NIPAL LIUQVID SILICONE, Packaging Type: Box, 3-12 Months",https://www.indiamart.com/proddetail/baby-nipal-liuqvid-silicone-2849744459488.html?pos=138&kwd=baby nipples&tags=||||8230.883|Price|product|||TS|rsf:gd-|-stype:attr=1|qr_nm:gd|res:RC3|com-cf:nl|ptrs:na|ktp:N0|mc:55653|mtp:G|qry_typ:P|lang:en|wc:2|cs:8827|v=4,Earth Enterprise,https://www.indiamart.com/earthenterprisesurat/?pos=138&kwd=baby nipples&tags=||||8230.883|Price|product|||TS|rsf:gd-|-stype:attr=1|qr_nm:gd|res:RC3|com-cf:nl|ptrs:na|ktp:N0|mc:55653|mtp:G|qry_typ:P|lang:en|wc:2|cs:8827|v=4,False,Punagam,Surat,"421, 4th Floor, Nilkanth Plaza, Near Kiran Chowk, Punagam, Punagam, Surat - 395010, Dist.Surat, Gujarat",8048272735,
Silicone Nipple Shields,https://www.indiamart.com/proddetail/nipple-shields-2854128577112.html?pos=139&kwd=baby nipples&tags=||||8752.144|Price|product|||TS|rsf:gd-|-stype:attr=1|qr_nm:gd|res:RC3|com-cf:nl|ptrs:na|ktp:N0|mc:55653|mtp:G|qry_typ:P|lang:en|wc:2|cs:8827|v=4,BEN Meditechnology,https://www.benmeditech.com/?pos=139&kwd=baby nipples&tags=||||8752.144|Price|product|||TS|rsf:gd-|-stype:attr=1|qr_nm:gd|res:RC3|com-cf:nl|ptrs:na|ktp:N0|mc:55653|mtp:G|qry_typ:P|lang:en|wc:2|cs:8827|v=4,False,Nasirpur,New Delhi,"Flat No 101, Eil Appartment, Plot No 13, Pocket-6, Dwarka Sector 1A, Palam Village, Dabri, South West, Nasirpur, New Delhi - 110045, Dist.Delhi, Delhi",7942825969,
Nipple Shield,https://www.indiamart.com/proddetail/nipple-shield-25368195512.html?pos=140&kwd=baby nipples&tags=||||8238.463|Price|product|||TS|rsf:gd-|-stype:attr=1|qr_nm:gd|res:RC3|com-cf:nl|ptrs:na|ktp:N0|mc:55653|mtp:G|qry_typ:P|lang:en|wc:2|cs:8827|v=4,Chemco Plastic Industries Pvt. Ltd.,https://www.indiamart.com/chemcoplastic/?pos=140&kwd=baby nipples&tags=||||8238.463|Price|product|||TS|rsf:gd-|-stype:attr=1|qr_nm:gd|res:RC3|com-cf:nl|ptrs:na|ktp:N0|mc:55653|mtp:G|qry_typ:P|lang:en|wc:2|cs:8827|v=4,False,Colaba,Silvassa,"Survey No 227/1/1, Chemco Complex, Silvassa Sayali Road, Colaba, Silvassa - 396230, Dist.Dadra and Nagar Haveli and Daman and Diu, Dadra and Nagar Haveli and Daman and Diu",8048616523,
Nipple Butter Cream,https://www.indiamart.com/proddetail/nipple-butter-cream-2852055619762.html?pos=141&kwd=baby nipples&tags=||||8741.987|Price|product|||TS|rsf:gd-|-stype:attr=1|qr_nm:gd|res:RC3|com-cf:nl|ptrs:na|ktp:N0|mc:55653|mtp:G|qry_typ:P|lang:en|wc:2|cs:8827|v=4,Croodle Care,https://www.indiamart.com/crodle-care-ambala/?pos=141&kwd=baby nipples&tags=||||8741.987|Price|product|||TS|rsf:gd-|-stype:attr=1|qr_nm:gd|res:RC3|com-cf:nl|ptrs:na|ktp:N0|mc:55653|mtp:G|qry_typ:P|lang:en|wc:2|cs:8827|v=4,False,Mahavir Nagar,Ambala,"4 Khasra No.15-15/3/3 Rajendra Nagar, Mahavir Nagar, Ambala - 133004, Dist.Ambala, Haryana",7942816764,
PSM Silicone Nipple Shield,https://www.indiamart.com/proddetail/silicone-nipple-shield-14261189773.html?pos=142&kwd=baby nipples&tags=||||8785.791|Price|product|||TS|rsf:gd-|-stype:attr=1|qr_nm:gd|res:RC3|com-cf:nl|ptrs:na|ktp:N0|mc:55653|mtp:G|qry_typ:P|lang:en|wc:2|cs:8827|v=4,Pal Surgical And Medical,https://www.psmworld.in/?pos=142&kwd=baby nipples&tags=||||8785.791|Price|product|||TS|rsf:gd-|-stype:attr=1|qr_nm:gd|res:RC3|com-cf:nl|ptrs:na|ktp:N0|mc:55653|mtp:G|qry_typ:P|lang:en|wc:2|cs:8827|v=4,True,Loni,Ghaziabad,"Near Petrol Pump, ., Pathsala Road Khekra Baghpat, Loni, Loni, Ghaziabad - 201102, Dist.Ghaziabad, Uttar Pradesh",8048989622,
Silicone Nipple Shield,https://www.indiamart.com/proddetail/nipple-shield-8836579173.html?pos=143&kwd=baby nipples&tags=||||8752.144|Price|product|||TS|rsf:gd-|-stype:attr=1|qr_nm:gd|res:RC3|com-cf:nl|ptrs:na|ktp:N0|mc:55653|mtp:G|qry_typ:P|lang:en|wc:2|cs:8827|v=4,Pal Surgical Works,https://www.medicalequipmentsupply.in/?pos=143&kwd=baby nipples&tags=||||8752.144|Price|product|||TS|rsf:gd-|-stype:attr=1|qr_nm:gd|res:RC3|com-cf:nl|ptrs:na|ktp:N0|mc:55653|mtp:G|qry_typ:P|lang:en|wc:2|cs:8827|v=4,True,Delhi,New Delhi,"Khasra No.9/13, H.No.5, Street No.2, Sonu Farm House, Jawahar Nagar, Delhi, New Delhi - 110094, Dist.Delhi, Delhi",8048969369,
Best Quality Cheapest Price Disposable Cotton Nipple Cover - Supplier in Delhi - 5 PAIR PACK,https://www.indiamart.com/proddetail/best-quality-cheapest-price-disposable-cotton-nipple-cover-supplier-in-delhi-5-pair-pack-2854605391130.html?pos=144&kwd=baby nipples&tags=||||8752.144|Price|product|||TS|rsf:gd-|-stype:attr=1|qr_nm:gd|res:RC3|com-cf:nl|ptrs:na|ktp:N0|mc:55653|mtp:G|qry_typ:P|lang:en|wc:2|cs:8827|v=4,Alpha Enterprise,https://www.snuggfit.in/?pos=144&kwd=baby nipples&tags=||||8752.144|Price|product|||TS|rsf:gd-|-stype:attr=1|qr_nm:gd|res:RC3|com-cf:nl|ptrs:na|ktp:N0|mc:55653|mtp:G|qry_typ:P|lang:en|wc:2|cs:8827|v=4,False,Rohini Sector 2,New Delhi,"D - 45 - Krishan Vihar, Near Heera Sweets, Main Kanjhawala Road, New Delhi, Rohini Sector 2, New Delhi - 110085, Dist.Delhi, Delhi",8048263570,
Chicco Nipple Shield,https://www.indiamart.com/proddetail/chicco-nipple-shield-2849898902830.html?pos=145&kwd=baby nipples&tags=||||8663.873|Price|product|||MDC|rsf:gd-|-stype:attr=1|qr_nm:gd|res:RC3|com-cf:nl|ptrs:na|ktp:N0|mc:55653|mtp:G|qry_typ:P|lang:en|wc:2|cs:8827|v=4,Dev Pharma,https://www.indiamart.com/dev-pharma-bengaluru/?pos=145&kwd=baby nipples&tags=||||8663.873|Price|product|||MDC|rsf:gd-|-stype:attr=1|qr_nm:gd|res:RC3|com-cf:nl|ptrs:na|ktp:N0|mc:55653|mtp:G|qry_typ:P|lang:en|wc:2|cs:8827|v=4,False,Chamrajpet,Bengaluru,"129/1 9th Cross, 3rd Main Road, Urban, Chamrajpet, Bengaluru - 560018, Dist.Bengaluru, Karnataka",7942817674,
Pigeon soft latch nipple feeding bottle,https://www.indiamart.com/proddetail/pigeon-soft-latch-nipple-feeding-bottle-2854245965755.html?pos=146&kwd=baby nipples&tags=||||8534.93||product|||MDC|rsf:gd-|-stype:attr=1|qr_nm:gd|res:RC3|com-cf:nl|ptrs:na|ktp:N0|mc:55653|mtp:G|qry_typ:P|lang:en|wc:2|cs:8827|v=4,Veecay Marketing,https://www.indiamart.com/veecay-marketing-puthuppally/?pos=146&kwd=baby nipples&tags=||||8534.93||product|||MDC|rsf:gd-|-stype:attr=1|qr_nm:gd|res:RC3|com-cf:nl|ptrs:na|ktp:N0|mc:55653|mtp:G|qry_typ:P|lang:en|wc:2|cs:8827|v=4,False,,Puthuppally,"2/378/D, Kadamuri, Pariyaram, Puthuppally - 686021, Dist.Alappuzha, Kerala",8045736459,
Baby Fruit Feeder,https://www.indiamart.com/proddetail/baby-fruit-feeder-2851667420962.html?pos=147&kwd=baby nipples&tags=||||8752.144|Price|product|||MDC|rsf:gd-|-stype:attr=1|qr_nm:gd|res:RC3|com-cf:nl|ptrs:na|ktp:N0|mc:55653|mtp:G|qry_typ:P|lang:en|wc:2|cs:8827|v=4,JMD Enterprises,https://www.indiamart.com/jmdenterprisesnewdelhi-india/?pos=147&kwd=baby nipples&tags=||||8752.144|Price|product|||MDC|rsf:gd-|-stype:attr=1|qr_nm:gd|res:RC3|com-cf:nl|ptrs:na|ktp:N0|mc:55653|mtp:G|qry_typ:P|lang:en|wc:2|cs:8827|v=4,False,Najafgarh,New Delhi,"Durga Vihar Phase-2, Plot No.-151 A, Main Paprawat Road Deenpur, Najafgarh Behind Radha Swani Satsang Bhawa, South West Delhi, Najafgarh, New Delhi - 110043, Dist.Delhi, Delhi",8046040114,
Plastic Luv Lap Essential Slim Neck Nipple,https://www.indiamart.com/proddetail/luv-lap-essential-slim-neck-nipple-2853403082348.html?pos=148&kwd=baby nipples&tags=||||9618.383|Price|product|||MDC|rsf:gd-|-stype:attr=1|qr_nm:gd|res:RC3|com-cf:nl|ptrs:na|ktp:N0|mc:55653|mtp:G|qry_typ:P|lang:en|wc:2|cs:8827|v=4,Texco,https://www.indiamart.com/texco/?pos=148&kwd=baby nipples&tags=||||9618.383|Price|product|||MDC|rsf:gd-|-stype:attr=1|qr_nm:gd|res:RC3|com-cf:nl|ptrs:na|ktp:N0|mc:55653|mtp:G|qry_typ:P|lang:en|wc:2|cs:8827|v=4,False,Bistupur,Jamshedpur,"Shop No. 2, Main Road, Bistupur, Bistupur, Jamshedpur - 831001, Dist.East Singhbhum, Jharkhand",7949092933,
Only Baby DB-508 Baby Pacifier,https://www.indiamart.com/proddetail/only-baby-db-508-baby-pacifier-2854163533791.html?pos=149&kwd=baby nipples&tags=||||8693.162||product|||MDC|rsf:gd-|-stype:attr=1|qr_nm:gd|res:RC3|com-cf:nl|ptrs:na|ktp:N0|mc:55653|mtp:G|qry_typ:P|lang:en|wc:2|cs:8827|v=4,Dear Baby,https://www.indiamart.com/dearbaby/?pos=149&kwd=baby nipples&tags=||||8693.162||product|||MDC|rsf:gd-|-stype:attr=1|qr_nm:gd|res:RC3|com-cf:nl|ptrs:na|ktp:N0|mc:55653|mtp:G|qry_typ:P|lang:en|wc:2|cs:8827|v=4,False,Begambur,Dindigul,"2nd Floor, No 7, Ahmad Appartment, S P Nagar, Begambur, Begambur, Dindigul - 624002, Dist.Dindigul, Tamil Nadu",8045731862,
Baby Fruit Feeder Pacifier,https://www.indiamart.com/proddetail/baby-fruit-feeder-pacifier-2854593492355.html?pos=150&kwd=baby nipples&tags=||||8752.144|Price|product|||MDC|rsf:gd-|-stype:attr=1|qr_nm:gd|res:RC3|com-cf:nl|ptrs:na|ktp:N0|mc:55653|mtp:G|qry_typ:P|lang:en|wc:2|cs:8827|v=4,Global Impex,https://www.indiamart.com/globalimpex-newdelhi/?pos=150&kwd=baby nipples&tags=||||8752.144|Price|product|||MDC|rsf:gd-|-stype:attr=1|qr_nm:gd|res:RC3|com-cf:nl|ptrs:na|ktp:N0|mc:55653|mtp:G|qry_typ:P|lang:en|wc:2|cs:8827|v=4,False,South Delhi,New Delhi,"GF Shop, RZ G-314A, Plot No-63, Raj Nagar Part-2, Palam Colony Near HDFC ATM, South Delhi, New Delhi - 110045, Dist.Delhi, Delhi",7949331117,
Baby Fruit Feeder Pacifier,https://www.indiamart.com/proddetail/baby-fruit-feeder-pacifier-2850045463933.html?pos=151&kwd=baby nipples&tags=||||8752.144|Price|product|||MDC|rsf:gd-|-stype:attr=1|qr_nm:gd|res:RC3|com-cf:nl|ptrs:na|ktp:N0|mc:55653|mtp:G|qry_typ:P|lang:en|wc:2|cs:8827|v=4,DR. Nigams Clinic Private Limited,https://www.indiamart.com/drdad-newdelhi/?pos=151&kwd=baby nipples&tags=||||8752.144|Price|product|||MDC|rsf:gd-|-stype:attr=1|qr_nm:gd|res:RC3|com-cf:nl|ptrs:na|ktp:N0|mc:55653|mtp:G|qry_typ:P|lang:en|wc:2|cs:8827|v=4,False,Kailash Hill,New Delhi,"107 G/F F/F, Kailash Hills, Near OBS Bank, Kailash Hill, New Delhi - 110065, Dist.Delhi, Delhi",7942716962,
"White Chicco Feeding Bottle Nipple combo pack 4m+, Capacity: 200 mL, Baby",https://www.indiamart.com/proddetail/chicco-feeding-bottle-nipple-combo-pack-4m-2854873614091.html?pos=152&kwd=baby nipples&tags=||||9045.955|Price|product|||MDC|rsf:gd-|-stype:attr=1|qr_nm:gd|res:RC3|com-cf:nl|ptrs:na|ktp:N0|mc:55653|mtp:G|qry_typ:P|lang:en|wc:2|cs:8827|v=4,Rekha Agencies,https://www.indiamart.com/rekhaagencieskanpur/?pos=152&kwd=baby nipples&tags=||||9045.955|Price|product|||MDC|rsf:gd-|-stype:attr=1|qr_nm:gd|res:RC3|com-cf:nl|ptrs:na|ktp:N0|mc:55653|mtp:G|qry_typ:P|lang:en|wc:2|cs:8827|v=4,False,,Kanpur,"B/386, Awas Vikas Hanspuram, Kanpur - 208021, Uttar Pradesh",8044460697,
Calf Feeding Bottle Nipple,https://www.indiamart.com/proddetail/calf-feeding-bottle-nipple-2854228016855.html?pos=153&kwd=baby nipples&tags=||||8407.171||product|||MDC|rsf:gd-|-stype:attr=1|qr_nm:gd|res:RC3|com-cf:nl|ptrs:na|ktp:N0|mc:55653|mtp:G|qry_typ:P|lang:en|wc:2|cs:8827|v=4,Shiv Agritech,https://www.indiamart.com/shiv-agritech-maharashtra/?pos=153&kwd=baby nipples&tags=||||8407.171||product|||MDC|rsf:gd-|-stype:attr=1|qr_nm:gd|res:RC3|com-cf:nl|ptrs:na|ktp:N0|mc:55653|mtp:G|qry_typ:P|lang:en|wc:2|cs:8827|v=4,False,,Ahmednagar,"Bhistbag, Nr. Gokul Nagar, PL.4/30/2B, Ahmednagar - 414001, Dist.Ahmed Nagar, Maharashtra",8045738999,
Pigeon Natural Feel Size 2 Nipple Shield,https://www.indiamart.com/proddetail/pigeon-natural-feel-size-2-nipple-shield-2852306881455.html?pos=154&kwd=baby nipples&tags=||||8307.81|Price|product|||MDC|rsf:gd-|-stype:attr=1|qr_nm:gd|res:RC3|com-cf:nl|ptrs:na|ktp:N0|mc:55653|mtp:G|qry_typ:P|lang:en|wc:2|cs:8827|v=4,Bhavana Agency,https://www.indiamart.com/bhavana-agency/?pos=154&kwd=baby nipples&tags=||||8307.81|Price|product|||MDC|rsf:gd-|-stype:attr=1|qr_nm:gd|res:RC3|com-cf:nl|ptrs:na|ktp:N0|mc:55653|mtp:G|qry_typ:P|lang:en|wc:2|cs:8827|v=4,False,Sadashiv Peth,Pune,"S No 4, 841/1, Asset Gold, Sadashiv Peth, Sadashiv Peth, Pune - 411030, Dist.Pune, Maharashtra",8047788291,
Silicone Baby Fresh Fruit Pacifier Feeder,https://www.indiamart.com/proddetail/silicone-baby-fresh-fruit-pacifier-feeder-2854490133162.html?pos=155&kwd=baby nipples&tags=||||8769.508||product|||MDC|rsf:gd-|-stype:attr=1|qr_nm:gd|res:RC3|com-cf:nl|ptrs:na|ktp:N0|mc:55653|mtp:G|qry_typ:P|lang:en|wc:2|cs:8827|v=4,9noc,https://www.indiamart.com/9noc/?pos=155&kwd=baby nipples&tags=||||8769.508||product|||MDC|rsf:gd-|-stype:attr=1|qr_nm:gd|res:RC3|com-cf:nl|ptrs:na|ktp:N0|mc:55653|mtp:G|qry_typ:P|lang:en|wc:2|cs:8827|v=4,False,,Faridabad,"H No. - 1011, H.B.C Colony, Sector 21C, Faridabad - 121001, Dist.Faridabad, Haryana",7949329664,
"Brass Golden Vastu Toilet Pacifier, Size: 6x2.5 Inch (lxw)",https://www.indiamart.com/proddetail/vastu-toilet-pacifier-2850540001288.html?pos=156&kwd=baby nipples&tags=||||8841.674|Price|product|||MDC|rsf:gd-|-stype:attr=1|qr_nm:gd|res:RC3|com-cf:nl|ptrs:na|ktp:N0|mc:55653|mtp:G|qry_typ:P|lang:en|wc:2|cs:8827|v=4,Arum Handicraft,https://www.indiamart.com/arum-handicraft/?pos=156&kwd=baby nipples&tags=||||8841.674|Price|product|||MDC|rsf:gd-|-stype:attr=1|qr_nm:gd|res:RC3|com-cf:nl|ptrs:na|ktp:N0|mc:55653|mtp:G|qry_typ:P|lang:en|wc:2|cs:8827|v=4,False,Telliwala,Roorkee,"0, Telliwala Padli Gujjar,, Telliwala, Roorkee - 247667, Dist.Haridwar, Uttarakhand",7942823745,
Baby Silicone Pacifier,https://www.indiamart.com/proddetail/baby-silicone-pacifier-2850051971748.html?pos=157&kwd=baby nipples&tags=||||8230.883|Price|product|||MDC|rsf:gd-|-stype:attr=1|qr_nm:gd|res:RC3|com-cf:nl|ptrs:na|ktp:N0|mc:55653|mtp:G|qry_typ:P|lang:en|wc:2|cs:8827|v=4,Jay Impex,https://www.indiamart.com/jayimpexsurat/?pos=157&kwd=baby nipples&tags=||||8230.883|Price|product|||MDC|rsf:gd-|-stype:attr=1|qr_nm:gd|res:RC3|com-cf:nl|ptrs:na|ktp:N0|mc:55653|mtp:G|qry_typ:P|lang:en|wc:2|cs:8827|v=4,False,Athwa,Surat,"1st Floor, 77, Narmad Nagar Soc, Hirabaug,, Athwa, Surat - 395006, Dist.Surat, Gujarat",7942713335,
"triple b 0.40 New Born Baby Safety Nail Scissors with Circular Cutter Head, Size: 8 Inch",https://www.indiamart.com/proddetail/new-born-baby-safety-nail-scissors-with-circular-cutter-head-2849607806291.html?pos=158&kwd=baby nipples&tags=||||8752.144|Price|product|||MDC|rsf:gd-|-stype:attr=1|qr_nm:gd|res:RC3|com-cf:nl|ptrs:na|ktp:N0|mc:55653|mtp:G|qry_typ:P|lang:en|wc:2|cs:8827|v=4,B-Qube Enterprises,https://www.indiamart.com/bqube-enterprises/?pos=158&kwd=baby nipples&tags=||||8752.144|Price|product|||MDC|rsf:gd-|-stype:attr=1|qr_nm:gd|res:RC3|com-cf:nl|ptrs:na|ktp:N0|mc:55653|mtp:G|qry_typ:P|lang:en|wc:2|cs:8827|v=4,False,Karol Bagh,New Delhi,"303, Iiird Floor,13/4, W.E.A.,Karol Bagh, Karol Bagh, New Delhi - 110005, Dist.Delhi, Delhi",8047313183,
Baby Squeezy Silicone Food Feeder,https://www.indiamart.com/proddetail/baby-squeezy-silicone-food-feeder-2853523323088.html?pos=159&kwd=baby nipples&tags=||||8752.144|Price|product|||MDC|rsf:gd-|-stype:attr=1|qr_nm:gd|res:RC3|com-cf:nl|ptrs:na|ktp:N0|mc:55653|mtp:G|qry_typ:P|lang:en|wc:2|cs:8827|v=4,Santosh Enterprises,https://www.indiamart.com/santosh-enterprises-delhiindia/?pos=159&kwd=baby nipples&tags=||||8752.144|Price|product|||MDC|rsf:gd-|-stype:attr=1|qr_nm:gd|res:RC3|com-cf:nl|ptrs:na|ktp:N0|mc:55653|mtp:G|qry_typ:P|lang:en|wc:2|cs:8827|v=4,False,North Delhi,New Delhi,"Ground Floor A 44 Khera Garhi Colony Gali No 01, North Delhi, New Delhi - 110082, Dist.Delhi, Delhi",8047837949,
Only Baby Pacifier,https://www.indiamart.com/proddetail/only-baby-pacifier-2853926197755.html?pos=160&kwd=baby nipples&tags=||||8211.142|Price|product|||MDC|rsf:gd-|-stype:attr=1|qr_nm:gd|res:RC3|com-cf:nl|ptrs:na|ktp:N0|mc:55653|mtp:G|qry_typ:P|lang:en|wc:2|cs:8827|v=4,Mahakali Stationery & Printer,https://www.indiamart.com/mahakalistationeryprinter/?pos=160&kwd=baby nipples&tags=||||8211.142|Price|product|||MDC|rsf:gd-|-stype:attr=1|qr_nm:gd|res:RC3|com-cf:nl|ptrs:na|ktp:N0|mc:55653|mtp:G|qry_typ:P|lang:en|wc:2|cs:8827|v=4,False,Powai,Mumbai,"Ground Floor, Shop No 74, Powai Plaza Chs Ltd, Near Iit Hiranandani Gardens, J V Link Road Powai Suburban, Powai, Mumbai - 400076, Dist.Mumbai, Maharashtra",8044563937,
Baby Silicone Rattle Fruit Pacifier,https://www.indiamart.com/proddetail/baby-silicone-rattle-fruit-pacifier-2850527345733.html?pos=161&kwd=baby nipples&tags=||||8706.508|Price|product|||MDC|rsf:gd-|-stype:attr=1|qr_nm:gd|res:RC3|com-cf:nl|ptrs:na|ktp:N0|mc:55653|mtp:G|qry_typ:P|lang:en|wc:2|cs:8827|v=4,Young Vision,https://www.indiamart.com/young-vision-rohtak/?pos=161&kwd=baby nipples&tags=||||8706.508|Price|product|||MDC|rsf:gd-|-stype:attr=1|qr_nm:gd|res:RC3|com-cf:nl|ptrs:na|ktp:N0|mc:55653|mtp:G|qry_typ:P|lang:en|wc:2|cs:8827|v=4,False,Janta Colony,Rohtak,"949/31 Azad Nagar, Janta Colony, Rohtak - 124001, Dist.Rohtak, Haryana",8047688329,
Threaded Bebi Milk rubber Nippal,https://www.indiamart.com/proddetail/bebi-milk-rubber-nippal-2851667337891.html?pos=162&kwd=baby nipples&tags=||||8211.142|Price|product|||MDC|rsf:gd-|-stype:attr=1|qr_nm:gd|res:RC3|com-cf:nl|ptrs:na|ktp:N0|mc:55653|mtp:G|qry_typ:P|lang:en|wc:2|cs:8827|v=4,Sai Engraver,https://www.indiamart.com/saiengravermaharashtra/?pos=162&kwd=baby nipples&tags=||||8211.142|Price|product|||MDC|rsf:gd-|-stype:attr=1|qr_nm:gd|res:RC3|com-cf:nl|ptrs:na|ktp:N0|mc:55653|mtp:G|qry_typ:P|lang:en|wc:2|cs:8827|v=4,False,,Mumbai,"M.P Next To National Die Casting Indl Estate Goregaon E Pandey Chawl Near Yadav Transport, Mumbai - 400063, Dist.Mumbai, Maharashtra",7942832636,
Baby Pacifier,,Prince And Princess,https://www.indiamart.com/prince-princess-delhi/?pos=163&kwd=baby nipples&tags=||||8752.144||product|||MDC|rsf:gd-|-stype:attr=1|qr_nm:gd|res:RC3|com-cf:nl|ptrs:na|ktp:N0|mc:55653|mtp:G|qry_typ:P|lang:en|wc:2|cs:8827|v=4,False,Gulabi Bagh,New Delhi,"Ground Floor, Garage No - 74, Gulabi Bagh Road,, Gulabi Bagh, New Delhi - 110007, Dist.Delhi, Delhi",8047629125,
Bonne Silicone Soother,https://www.indiamart.com/proddetail/bonne-silicone-soother-2852601400473.html?pos=164&kwd=baby nipples&tags=||||9301.656|Price|product|||MDC|rsf:gd-|-stype:attr=1|qr_nm:gd|res:RC3|com-cf:nl|ptrs:na|ktp:N0|mc:55653|mtp:G|qry_typ:P|lang:en|wc:2|cs:8827|v=4,Shri Ram Enterprises,https://www.indiamart.com/shriramenterprisesvaranasi/?pos=164&kwd=baby nipples&tags=||||9301.656|Price|product|||MDC|rsf:gd-|-stype:attr=1|qr_nm:gd|res:RC3|com-cf:nl|ptrs:na|ktp:N0|mc:55653|mtp:G|qry_typ:P|lang:en|wc:2|cs:8827|v=4,False,Govindpura,Varanasi,"CK 40/38, Ghughrani Gali, Banshfatak, Govindpura, Varanasi - 221001, Dist.Varanasi, Uttar Pradesh",8045165546,
Cow Milk Bottle Nipple,https://www.indiamart.com/proddetail/cow-milk-bottle-nipple-2854771213433.html?pos=165&kwd=baby nipples&tags=||||9572.14|Price|product|||MDC|rsf:gd-|-stype:attr=1|qr_nm:gd|res:RC3|com-cf:nl|ptrs:na|ktp:N0|mc:55653|mtp:G|qry_typ:P|lang:en|wc:2|cs:8827|v=4,Sai Enterprises,https://www.indiamart.com/sai-enterprisesbalasore/?pos=165&kwd=baby nipples&tags=||||9572.14|Price|product|||MDC|rsf:gd-|-stype:attr=1|qr_nm:gd|res:RC3|com-cf:nl|ptrs:na|ktp:N0|mc:55653|mtp:G|qry_typ:P|lang:en|wc:2|cs:8827|v=4,False,,Bhubaneswar,"Khata No-514/4357, Plot No-169/3484, Keshara, Hyderababi Biriyani, Saheed Nagar, Bhubaneswar - 751007, Dist.Khorda, Odisha",7942631508,
"Plastic Yellow Baby Pacifier, Capacity: 50 mL, Age Group: 3-12 Months",https://www.indiamart.com/proddetail/yellow-baby-pacifier-2854233702697.html?pos=166&kwd=baby nipples&tags=||||8223.226|Price|product|||MDC|rsf:gd-|-stype:attr=1|qr_nm:gd|res:RC3|com-cf:nl|ptrs:na|ktp:N0|mc:55653|mtp:G|qry_typ:P|lang:en|wc:2|cs:8827|v=4,Royal Baby,https://www.indiamart.com/royal-baby-thane/?pos=166&kwd=baby nipples&tags=||||8223.226|Price|product|||MDC|rsf:gd-|-stype:attr=1|qr_nm:gd|res:RC3|com-cf:nl|ptrs:na|ktp:N0|mc:55653|mtp:G|qry_typ:P|lang:en|wc:2|cs:8827|v=4,False,,Thane,"Ground Floor, Shop No. 03, Savitri Niwas Mumbai Pune Road, Amrutnagar, Sub Post Office, Mumbra, Thane - 400612, Dist.Thane, Maharashtra",8045734604,
Nipple Shield,https://www.indiamart.com/proddetail/nipple-shield-24551199930.html?pos=167&kwd=baby nipples&tags=||||9839.57|Price|product|||MDC|rsf:gd-|-stype:attr=1|qr_nm:gd|res:RC3|com-cf:nl|ptrs:na|ktp:N0|mc:55653|mtp:G|qry_typ:P|lang:en|wc:2|cs:8827|v=4,Rubicon Healthcare Services,https://www.indiamart.com/rubiconhealthcareservices/?pos=167&kwd=baby nipples&tags=||||9839.57|Price|product|||MDC|rsf:gd-|-stype:attr=1|qr_nm:gd|res:RC3|com-cf:nl|ptrs:na|ktp:N0|mc:55653|mtp:G|qry_typ:P|lang:en|wc:2|cs:8827|v=4,False,Building,Kolkata,"3rd Floor, Room No - 29, 8, Amratala Street, Mehta Building, Kolkata, Building, Kolkata - 700001, Dist.Kolkata, West Bengal",8048614499,
Silicone Anti-Colic Essential Teat/Nipple for Slim Neck Bottle,https://www.indiamart.com/proddetail/anti-colic-essential-teat-nipple-for-slim-neck-bottle-2854184732073.html?pos=168&kwd=baby nipples&tags=CC||||8746.929|Price|product|||MDC|rsf:gd-|-stype:attr=1|qr_nm:gd|res:RC3|com-cf:nl|ptrs:na|ktp:N0|mc:55653|mtp:G|qry_typ:P|lang:en|wc:2|cs:8827|v=4,Umima Pharma,https://www.indiamart.com/umimapharma/?pos=168&kwd=baby nipples&tags=CC||||8746.929|Price|product|||MDC|rsf:gd-|-stype:attr=1|qr_nm:gd|res:RC3|com-cf:nl|ptrs:na|ktp:N0|mc:55653|mtp:G|qry_typ:P|lang:en|wc:2|cs:8827|v=4,False,Manimajra,Chandigarh,"262- B, Ground Floor, Gali No. 05, Shanti Nagar, Manimajra, Manimajra, Chandigarh - 160101, Chandigarh",7942553056,
Bonny Baby Nipple,https://www.indiamart.com/proddetail/bonny-baby-nipple-27543975455.html?pos=169&kwd=baby nipples&tags=||||9520.041|Price|product|||MDC|rsf:gd-|-stype:attr=1|qr_nm:gd|res:RC3|com-cf:nl|ptrs:na|ktp:N0|mc:55653|mtp:G|qry_typ:P|lang:en|wc:2|cs:8827|v=4,A. R. Brothers,https://www.indiamart.com/a-r-brotherspatna/?pos=169&kwd=baby nipples&tags=||||9520.041|Price|product|||MDC|rsf:gd-|-stype:attr=1|qr_nm:gd|res:RC3|com-cf:nl|ptrs:na|ktp:N0|mc:55653|mtp:G|qry_typ:P|lang:en|wc:2|cs:8827|v=4,False,Ranipur Khidki,Patna,"03,Ground Floor,Bhagwati Laxmi Bazar,Ashok Raj Path,Chowk Patna City, Ranipur Khidki, Patna - 800008, Dist.Patna, Bihar",8048213137,
Baby glass feeding bottle with silicon nipple Nd training handle,,Priyanshi International,https://www.indiamart.com/priyanshi-international-uttarpradesh/?pos=170&kwd=baby nipples&tags=||||8752.144|Price|product|||MDC|rsf:gd-|-stype:attr=1|qr_nm:gd|res:RC3|com-cf:nl|ptrs:na|ktp:N0|mc:55653|mtp:G|qry_typ:P|lang:en|wc:2|cs:8827|v=4,False,,New Delhi,"3,PROP NO S228,SCHOOL BLOCK,SHAKARPUR UGF, 3, Prop No S228, School Block, Shakarpur,110092, New Delhi - 110092, Dist.Delhi, Delhi",7942676139,
"Clear Baby feeder bottle and nipples, Packaging Type: Box, Newly Born",https://www.indiamart.com/proddetail/baby-feeder-bottle-and-nipples-25874839897.html?pos=171&kwd=baby nipples&tags=||||8778.123|Price|product|||MDC|rsf:gd-|-stype:attr=1|qr_nm:gd|res:RC3|com-cf:nl|ptrs:na|ktp:N0|mc:55653|mtp:G|qry_typ:P|lang:en|wc:2|cs:8827|v=4,A.M Enterprises,https://www.indiamart.com/amenterprises-gautambuddhanagar/?pos=171&kwd=baby nipples&tags=||||8778.123|Price|product|||MDC|rsf:gd-|-stype:attr=1|qr_nm:gd|res:RC3|com-cf:nl|ptrs:na|ktp:N0|mc:55653|mtp:G|qry_typ:P|lang:en|wc:2|cs:8827|v=4,False,Sector 10,Noida,"D-87,,Noida Road,Noida, Sector 10, Noida - 201301, Dist.Gautam Budh Nagar, Uttar Pradesh",8047622664,
"White Silicone Baby Nipple Spoon Bottle, Age Group: 3-12 Months, Capacity: 150ml",https://www.indiamart.com/proddetail/silicone-baby-nipple-spoon-bottle-26009779833.html?pos=172&kwd=baby nipples&tags=||||8752.144|Price|product|||MDC|rsf:gd-|-stype:attr=1|qr_nm:gd|res:RC3|com-cf:nl|ptrs:na|ktp:N0|mc:55653|mtp:G|qry_typ:P|lang:en|wc:2|cs:8827|v=4,Honey Bell Enterprises,https://www.indiamart.com/honey-bell-enterprises/?pos=172&kwd=baby nipples&tags=||||8752.144|Price|product|||MDC|rsf:gd-|-stype:attr=1|qr_nm:gd|res:RC3|com-cf:nl|ptrs:na|ktp:N0|mc:55653|mtp:G|qry_typ:P|lang:en|wc:2|cs:8827|v=4,False,Shastri Nagar,New Delhi,"House No.39/1, Plot No.39,Ground Floor Block E-2, Shastri Nagar, Shastri Nagar, New Delhi - 110052, Dist.Delhi, Delhi",8048971968,
Silicone Baby Food and Fruit Feeder Cum Nibbler with Ergonomic Handle Sack Baby Honey Nipple,https://www.indiamart.com/proddetail/silicone-baby-food-and-fruit-feeder-cum-nibbler-with-ergonomic-handle-sack-baby-honey-nipple-2853599421212.html?pos=173&kwd=baby nipples&tags=||||8230.883|Price|product|||MDC|rsf:gd-|-stype:attr=1|qr_nm:gd|res:RC3|com-cf:nl|ptrs:na|ktp:N0|mc:55653|mtp:G|qry_typ:P|lang:en|wc:2|cs:8827|v=4,Shiv Marketing,https://www.indiamart.com/shivmarketing/?pos=173&kwd=baby nipples&tags=||||8230.883|Price|product|||MDC|rsf:gd-|-stype:attr=1|qr_nm:gd|res:RC3|com-cf:nl|ptrs:na|ktp:N0|mc:55653|mtp:G|qry_typ:P|lang:en|wc:2|cs:8827|v=4,False,Katargam,Surat,"2nd Floor Blog-F, Flat 201, Shivam Avenue, Singanpore Dabholi Road, Katargam,, Katargam, Surat - 395004, Dist.Surat, Gujarat",7949093095,
Nipple Softening Cream for Mother Third Party Manufacturer,https://www.indiamart.com/proddetail/nipple-softening-cream-for-mother-third-party-manufacturer-2853735632333.html?pos=174&kwd=baby nipples&tags=||||8785.791|Price|product|||TS|rsf:gd-|-stype:attr=1|qr_nm:gd|res:RC3|com-cf:nl|ptrs:na|ktp:N0|mc:55653|mtp:G|qry_typ:P|lang:en|wc:2|cs:8827|v=4,Aarnav Global Exports,https://www.aarnavglobal.com/?pos=174&kwd=baby nipples&tags=||||8785.791|Price|product|||TS|rsf:gd-|-stype:attr=1|qr_nm:gd|res:RC3|com-cf:nl|ptrs:na|ktp:N0|mc:55653|mtp:G|qry_typ:P|lang:en|wc:2|cs:8827|v=4,True,Jhandapur,Ghaziabad,"Basement, Plot No 51/1/6, Site-4 Industrial Area, Sahibabad, Jhandapur, Ghaziabad - 201010, Dist.Ghaziabad, Uttar Pradesh",8047637465,
"Transparent Plastic Baby Fruit Feeder, Capacity: 50 mL",https://www.indiamart.com/proddetail/baby-fruit-feeder-2853792005633.html?pos=175&kwd=baby nipples&tags=||||8752.144|Price|proxy|||MDC|rsf:gd-|-stype:attr=1|qr_nm:gd|res:RC3|com-cf:nl|ptrs:na|ktp:N0|mc:55653|mtp:G|qry_typ:P|lang:en|wc:2|cs:8827|v=4,Shopindia,https://www.indiamart.com/shopindia-delhi/?pos=175&kwd=baby nipples&tags=||||8752.144|Price|proxy|||MDC|rsf:gd-|-stype:attr=1|qr_nm:gd|res:RC3|com-cf:nl|ptrs:na|ktp:N0|mc:55653|mtp:G|qry_typ:P|lang:en|wc:2|cs:8827|v=4,False,Khyala,New Delhi,"F/F, RZ-129 Old No.RZ-57, West Block, Vishnu Garden, Khyala, New Delhi - 110018, Dist.Delhi, Delhi",8047832403,
"Plastic Baby Water Bottle, Capacity: 250 mL",https://www.indiamart.com/proddetail/baby-water-bottle-2852515272933.html?pos=176&kwd=baby nipples&tags=||||8211.142|Price|proxy|||TS|rsf:gd-|-stype:attr=1|qr_nm:gd|res:RC3|com-cf:nl|ptrs:na|ktp:N0|mc:55653|mtp:G|qry_typ:P|lang:en|wc:2|cs:8827|v=4,P For Panda Baby Products Private Limited,https://www.p4pandababyproducts.com/?pos=176&kwd=baby nipples&tags=||||8211.142|Price|proxy|||TS|rsf:gd-|-stype:attr=1|qr_nm:gd|res:RC3|com-cf:nl|ptrs:na|ktp:N0|mc:55653|mtp:G|qry_typ:P|lang:en|wc:2|cs:8827|v=4,False,Goregaon West,Mumbai,"904 A Wing,9 Th Floor,Triple S Heights,Jakeria Road, Goregaon West, Mumbai - 400064, Dist.Mumbai, Maharashtra",7942710871,
"Baby Pink Plain Stainless Steel Feeding Bottle, 3-12 Months",https://www.indiamart.com/proddetail/plain-stainless-steel-feeding-bottle-2851324269862.html?pos=177&kwd=baby nipples&tags=||||8747.223|Price|proxy|||TS|rsf:gd-|-stype:attr=1|qr_nm:gd|res:RC3|com-cf:nl|ptrs:na|ktp:N0|mc:55653|mtp:G|qry_typ:P|lang:en|wc:2|cs:8827|v=4,Dewdrop Bottles Pvt. Ltd.,https://www.dewdropbottles.com/?pos=177&kwd=baby nipples&tags=||||8747.223|Price|proxy|||TS|rsf:gd-|-stype:attr=1|qr_nm:gd|res:RC3|com-cf:nl|ptrs:na|ktp:N0|mc:55653|mtp:G|qry_typ:P|lang:en|wc:2|cs:8827|v=4,False,Sector 42,Sonipat,"Rect. And Killa No. 102//14/1/1, Revenue Estate, Akbarpur Barota, Sector 42, Sonipat - 131103, Dist.Sonipat, Haryana",7942840290,
Nipple Feeding Bottle Ovine Universal (SF-4C),https://www.indiamart.com/proddetail/nipple-feeding-bottle-ovine-universal-sf-4c-2851828815848.html?pos=178&kwd=baby nipples&tags=||||8282.222|Price|product|||TS|rsf:gd-|-stype:attr=1|qr_nm:gd|res:RC3|com-cf:nl|ptrs:na|ktp:N0|mc:55653|mtp:G|qry_typ:P|lang:en|wc:2|cs:8827|v=4,Kshama Surgical Private Limited,https://www.indiamart.com/kshamasurgical/?pos=178&kwd=baby nipples&tags=||||8282.222|Price|product|||TS|rsf:gd-|-stype:attr=1|qr_nm:gd|res:RC3|com-cf:nl|ptrs:na|ktp:N0|mc:55653|mtp:G|qry_typ:P|lang:en|wc:2|cs:8827|v=4,False,Netramali,Sabarkantha,"Block No. 604, Plot No. 8, Virpur Road, AT Krishnanagar Netramali, Tal. Idar, Netramali, Sabarkantha - 383430, Dist.Sabarkantha, Gujarat",8046056398,
Red Nipple Feeding Milk Bottle 0.5 Ltr & 1 Ltr,https://www.indiamart.com/proddetail/nipple-feeding-milk-bottle-0-5-ltr-1-ltr-2852852925830.html?pos=179&kwd=baby nipples&tags=||||8038.093|Price|product|||TS|rsf:gd-|-stype:attr=1|qr_nm:gd|res:RC3|com-cf:nl|ptrs:na|ktp:N0|mc:55653|mtp:G|qry_typ:P|lang:en|wc:2|cs:8827|v=4,Chamunda Enterprise,https://www.indiamart.com/chamundaenterpriserajkot/?pos=179&kwd=baby nipples&tags=||||8038.093|Price|product|||TS|rsf:gd-|-stype:attr=1|qr_nm:gd|res:RC3|com-cf:nl|ptrs:na|ktp:N0|mc:55653|mtp:G|qry_typ:P|lang:en|wc:2|cs:8827|v=4,False,Rajkot,Rajkot,"274, Near HDFC Bank, Rajkot Ahmedabad Highway, Maliyasan,, Rajkot, Rajkot - 360003, Dist.Rajkot, Gujarat",8048969596,
Philips Natural Nipple Bottle,https://www.indiamart.com/proddetail/philips-natural-nipple-bottle-2853637297373.html?pos=180&kwd=baby nipples&tags=||||9148.645|Price|product|||MDC|rsf:gd-|-stype:attr=1|qr_nm:gd|res:RC3|com-cf:nl|ptrs:na|ktp:N0|mc:55653|mtp:G|qry_typ:P|lang:en|wc:2|cs:8827|v=4,Sri Jaya Enterprises,https://www.indiamart.com/sri-jayaenterprises/?pos=180&kwd=baby nipples&tags=||||9148.645|Price|product|||MDC|rsf:gd-|-stype:attr=1|qr_nm:gd|res:RC3|com-cf:nl|ptrs:na|ktp:N0|mc:55653|mtp:G|qry_typ:P|lang:en|wc:2|cs:8827|v=4,False,Machara,Mandapeta,"31-1-27/1, Ward No 13, Alamuru Road, Mandapeta, East Godavari, Machara, Mandapeta - 533308, Dist.East Godavari, Andhra Pradesh",7949093426,
Auto Flow Baby Feeding Bottle With Silicon Nipple,https://www.indiamart.com/proddetail/auto-flow-baby-feeding-bottle-with-silicon-nipple-25129342562.html?pos=181&kwd=baby nipples&tags=||||8954.051||product|||MDC|rsf:gd-|-stype:attr=1|qr_nm:gd|res:RC3|com-cf:nl|ptrs:na|ktp:N0|mc:55653|mtp:G|qry_typ:P|lang:en|wc:2|cs:8827|v=4,Sai Pharma & Surgical,https://www.indiamart.com/sai-pharma-surgical/?pos=181&kwd=baby nipples&tags=||||8954.051||product|||MDC|rsf:gd-|-stype:attr=1|qr_nm:gd|res:RC3|com-cf:nl|ptrs:na|ktp:N0|mc:55653|mtp:G|qry_typ:P|lang:en|wc:2|cs:8827|v=4,False,Park Town,Chennai,"Door No. 5, Shop No. 2, Ground Floor, Issac Street, Park Town, Chennai - 600003, Dist.Chennai, Tamil Nadu",7942552194,
"125ml Baby Printed Polypropylene Mini Feeding Bottle, Age Group: 3-12 Months",https://www.indiamart.com/proddetail/baby-printed-polypropylene-mini-feeding-bottle-23542512997.html?pos=182&kwd=baby nipples&tags=||||8228.275|Price|proxy|||TS|rsf:gd-|-stype:attr=1|qr_nm:gd|res:RC3|com-cf:nl|ptrs:na|ktp:N0|mc:55653|mtp:G|qry_typ:P|lang:en|wc:2|cs:8827|v=4,Madhu Products,https://www.indiamart.com/madhu-products-ahmedabad/?pos=182&kwd=baby nipples&tags=||||8228.275|Price|proxy|||TS|rsf:gd-|-stype:attr=1|qr_nm:gd|res:RC3|com-cf:nl|ptrs:na|ktp:N0|mc:55653|mtp:G|qry_typ:P|lang:en|wc:2|cs:8827|v=4,False,Saraspur,Ahmedabad,"825, Kadiawad, Saraspur, Saraspur, Ahmedabad - 380018, Dist.Ahmedabad, Gujarat",8046075412,
Orange Silicone Smooth Rubber Teether,https://www.indiamart.com/proddetail/orange-silicone-smooth-rubber-teether-2854023064830.html?pos=183&kwd=baby nipples&tags=||||8228.275|Price|product|||NA|rsf:gd-|-stype:attr=1|qr_nm:gd|res:RC3|com-cf:nl|ptrs:na|ktp:N0|mc:55653|mtp:G|qry_typ:P|lang:en|wc:2|cs:8827|v=4,Sun Flight Toys,https://www.indiamart.com/sun-flight-toys/?pos=183&kwd=baby nipples&tags=||||8228.275|Price|product|||NA|rsf:gd-|-stype:attr=1|qr_nm:gd|res:RC3|com-cf:nl|ptrs:na|ktp:N0|mc:55653|mtp:G|qry_typ:P|lang:en|wc:2|cs:8827|v=4,False,Nikol,Ahmedabad,"PLOT NO 50,Gopal Charan Industrial Zone,Unnamed Road,Ahmedabad, Nikol, Ahmedabad - 382415, Dist.Ahmedabad, Gujarat",8044013771,
"Multicolor Baby Kid Silicone Squeeze Feeding Bottle, 100 mL, Age Group: 1-2 Years",https://www.indiamart.com/proddetail/baby-kid-silicone-squeeze-feeding-bottle-2851632784255.html?pos=184&kwd=baby nipples&tags=||||8752.144|Price|proxy|||TS|rsf:gd-|-stype:attr=1|qr_nm:gd|res:RC3|com-cf:nl|ptrs:na|ktp:N0|mc:55653|mtp:G|qry_typ:P|lang:en|wc:2|cs:8827|v=4,Inquantity,https://www.indiamart.com/inquantity/?pos=184&kwd=baby nipples&tags=||||8752.144|Price|proxy|||TS|rsf:gd-|-stype:attr=1|qr_nm:gd|res:RC3|com-cf:nl|ptrs:na|ktp:N0|mc:55653|mtp:G|qry_typ:P|lang:en|wc:2|cs:8827|v=4,False,Shahdara,New Delhi,"1/6258, East Rohtash Nagar, Shahdara, Shahdara, New Delhi - 110032, Dist.Delhi, Delhi",8047620719,
"Transparent Plastic Baby Fruit Feeder, Capacity: 50 mL, 3-12 Months",https://www.indiamart.com/proddetail/baby-fruit-feeder-2852991118033.html?pos=185&kwd=baby nipples&tags=||||8752.144|Price|proxy|||TS|rsf:gd-|-stype:attr=1|qr_nm:gd|res:RC3|com-cf:nl|ptrs:na|ktp:N0|mc:55653|mtp:G|qry_typ:P|lang:en|wc:2|cs:8827|v=4,B.S. ENTERPRISES,https://www.indiamart.com/yoneedo-delhi/?pos=185&kwd=baby nipples&tags=||||8752.144|Price|proxy|||TS|rsf:gd-|-stype:attr=1|qr_nm:gd|res:RC3|com-cf:nl|ptrs:na|ktp:N0|mc:55653|mtp:G|qry_typ:P|lang:en|wc:2|cs:8827|v=4,False,Shalimar Village,New Delhi,"C-61 GALI NO 8 SHALIMAR VILLAGE Shalimar Village, Shalimar Village, New Delhi - 110088, Dist.Delhi, Delhi",8048955523,
"Thermal Insulation Stainless Steel Baby Feeding Bottle, Capacity: 290 Ml",https://www.indiamart.com/proddetail/thermal-insulation-stainless-steel-baby-feeding-bottle-20711771512.html?pos=186&kwd=baby nipples&tags=||||8752.144|Price|proxy|||TS|rsf:gd-|-stype:attr=1|qr_nm:gd|res:RC3|com-cf:nl|ptrs:na|ktp:N0|mc:55653|mtp:G|qry_typ:P|lang:en|wc:2|cs:8827|v=4,National Overseas,https://www.indiamart.com/nationaltraders-vishwashnagar/?pos=186&kwd=baby nipples&tags=||||8752.144|Price|proxy|||TS|rsf:gd-|-stype:attr=1|qr_nm:gd|res:RC3|com-cf:nl|ptrs:na|ktp:N0|mc:55653|mtp:G|qry_typ:P|lang:en|wc:2|cs:8827|v=4,False,Shahdara,New Delhi,"1/99, Gali No. 3, Vishwas Nagar, Shahdara, New Delhi - 110032, Dist.Delhi, Delhi",8046047673,
Pixel Toys,,Pixel Toys,https://www.indiamart.com/pixeltoys/?pos=187&kwd=baby nipples&tags=D||||8038.093||bl|||MDC|rsf:gd-|-stype:attr=1|qr_nm:gd|res:RC3|com-cf:nl|ptrs:na|ktp:N0|mc:55653|mtp:G|qry_typ:P|lang:en|wc:2|cs:8827|v=4,False,Panchsheel Park,Rajkot,"Street No. 1, Radha Krishna, West Zone, Gondal Road, B/H Umiya Mobile, Panchsheel Park, Panchsheel Park, Rajkot - 360004, Dist.Rajkot, Gujarat",7948548772,
Bonne Feeding Bottle,https://www.indiamart.com/proddetail/bonne-feeding-bottle-2849671077412.html?pos=188&kwd=baby nipples&tags=D||||9520.041||proxy|||MDC|rsf:gd-|-stype:attr=1|qr_nm:gd|res:RC3|com-cf:nl|ptrs:na|ktp:N0|mc:55653|mtp:G|qry_typ:P|lang:en|wc:2|cs:8827|v=4,SS Products,https://www.indiamart.com/ssproducts-patna/?pos=188&kwd=baby nipples&tags=D||||9520.041||proxy|||MDC|rsf:gd-|-stype:attr=1|qr_nm:gd|res:RC3|com-cf:nl|ptrs:na|ktp:N0|mc:55653|mtp:G|qry_typ:P|lang:en|wc:2|cs:8827|v=4,False,Ranipur Khidki,Patna,"Main chowk oppt Ramyonds show Room, Ranipur Khidki, Patna - 800008, Dist.Patna, Bihar",8047641590,
"Philips White Avent Teat Medium Flow 3 Baby Nipples, Packaging Type: Blister",https://www.indiamart.com/proddetail/avent-teat-medium-flow-3-baby-nipples-2851512446948.html?pos=189&kwd=baby nipples&tags=CC||||8211.142||product|||NA|rsf:gd-|-stype:attr=1|qr_nm:gd|res:RC3|com-cf:nl|ptrs:na|ktp:N0|mc:55653|mtp:G|qry_typ:P|lang:en|wc:2|cs:8827|v=4,Synergy Medtech Solutions LLP,https://www.indiamart.com/synergy-medtech-solutions/?pos=189&kwd=baby nipples&tags=CC||||8211.142||product|||NA|rsf:gd-|-stype:attr=1|qr_nm:gd|res:RC3|com-cf:nl|ptrs:na|ktp:N0|mc:55653|mtp:G|qry_typ:P|lang:en|wc:2|cs:8827|v=4,False,,Mumbai,"Shop No. 3, Neelsagar CHS, Tata Colony, Mulund East, Mumbai - 400081, Dist.Mumbai, Maharashtra",7942840696,
"Cotton Baby Detachable Waterproof Apron Bibs, Newly Born",https://www.indiamart.com/proddetail/baby-detachable-waterproof-apron-bibs-2854715347288.html?pos=190&kwd=baby nipples&tags=||||8663.873|Price|proxy|||MDC|rsf:gd-|-stype:attr=1|qr_nm:gd|res:RC3|com-cf:nl|ptrs:na|ktp:N0|mc:55653|mtp:G|qry_typ:P|lang:en|wc:2|cs:8827|v=4,Nipika Vrapped Gifting,https://www.indiamart.com/nipika-vrapped-gifting/?pos=190&kwd=baby nipples&tags=||||8663.873|Price|proxy|||MDC|rsf:gd-|-stype:attr=1|qr_nm:gd|res:RC3|com-cf:nl|ptrs:na|ktp:N0|mc:55653|mtp:G|qry_typ:P|lang:en|wc:2|cs:8827|v=4,False,Bengaluru Urban,Bengaluru,"9/1, 23rd Cross Road, Magadi Road, KP Agrahara, Bengaluru Urban, Bengaluru - 560023, Dist.Bengaluru, Karnataka",7949328723,
"Dr Noble Baby Liquid Silicone Nipple, Packaging Type: Box, 1 Year",https://www.indiamart.com/proddetail/baby-liquid-silicone-nipple-27473458230.html?pos=191&kwd=baby nipples&tags=CC||||8752.144|Price|product|||NA|rsf:gd-|-stype:attr=1|qr_nm:gd|res:RC3|com-cf:nl|ptrs:na|ktp:N0|mc:55653|mtp:G|qry_typ:P|lang:en|wc:2|cs:8827|v=4,Balaji Med Systems Private Limited,https://www.indiamart.com/balaji-med-systems/?pos=191&kwd=baby nipples&tags=CC||||8752.144|Price|product|||NA|rsf:gd-|-stype:attr=1|qr_nm:gd|res:RC3|com-cf:nl|ptrs:na|ktp:N0|mc:55653|mtp:G|qry_typ:P|lang:en|wc:2|cs:8827|v=4,False,Kotla Mubarakpur,New Delhi,"965, First Floor, Gurudwara Road, Kotla Mubrakpur, South Delhi, Kotla Mubarakpur, New Delhi - 110003, Dist.Delhi, Delhi",7942675238,
"Luvlap silicon food and fruit nipples, 1-2 Years",,Online Shopping 1110,https://www.indiamart.com/online-shopping-1110/?pos=192&kwd=baby nipples&tags=CC||||8230.883|Price|product|||NA|rsf:gd-|-stype:attr=1|qr_nm:gd|res:RC3|com-cf:nl|ptrs:na|ktp:N0|mc:55653|mtp:G|qry_typ:P|lang:en|wc:2|cs:8827|v=4,False,Sayedpura,Surat,"warsi residents G 1, Sayedpura, Surat - 395003, Dist.Surat, Gujarat",8048361358,441
"Reusable White And Blue Plastic Baby Nipple, Newly Born",https://www.indiamart.com/proddetail/plastic-baby-nipple-2849084243791.html?pos=193&kwd=baby nipples&tags=CC||||8785.791|Price|product|||NA|rsf:gd-|-stype:attr=1|qr_nm:gd|res:RC3|com-cf:nl|ptrs:na|ktp:N0|mc:55653|mtp:G|qry_typ:P|lang:en|wc:2|cs:8827|v=4,Lifelong Enterprise,https://www.indiamart.com/online-sell-noida/?pos=193&kwd=baby nipples&tags=CC||||8785.791|Price|product|||NA|rsf:gd-|-stype:attr=1|qr_nm:gd|res:RC3|com-cf:nl|ptrs:na|ktp:N0|mc:55653|mtp:G|qry_typ:P|lang:en|wc:2|cs:8827|v=4,False,,Ghaziabad,"Rc -298, Bharat Nagar, Khora Colony, Ghaziabad - 201001, Dist.Ghaziabad, Uttar Pradesh",8047826548,
Pigeon Flexible Nipple,https://www.indiamart.com/proddetail/pigeon-flexible-nipple-24305293212.html?pos=194&kwd=baby nipples&tags=CC||||8457.459|Price|product|||NA|rsf:gd-|-stype:attr=1|qr_nm:gd|res:RC3|com-cf:nl|ptrs:na|ktp:N0|mc:55653|mtp:G|qry_typ:P|lang:en|wc:2|cs:8827|v=4,Capital Medcare,https://www.indiamart.com/capital-medcare/?pos=194&kwd=baby nipples&tags=CC||||8457.459|Price|product|||NA|rsf:gd-|-stype:attr=1|qr_nm:gd|res:RC3|com-cf:nl|ptrs:na|ktp:N0|mc:55653|mtp:G|qry_typ:P|lang:en|wc:2|cs:8827|v=4,False,Kozhikode,Kozhikode,"Meyon Building, Jail Road, Opp. Dhanalakshmi Bank, Kozhikode, Kozhikode - 673004, Dist.Kozhikode, Kerala",7942633527,
"White Phlips Avent Grow Nipple 0+,1+,3+,6+, Newly Born",https://www.indiamart.com/proddetail/phlips-avent-grow-nipple-0-1-3-6-2852664205497.html?pos=195&kwd=baby nipples&tags=CC||||8584.299|Price|product|||NA|rsf:gd-|-stype:attr=1|qr_nm:gd|res:RC3|com-cf:nl|ptrs:na|ktp:N0|mc:55653|mtp:G|qry_typ:P|lang:en|wc:2|cs:8827|v=4,AVR Creation,https://www.indiamart.com/avr-creation-coimbatore/?pos=195&kwd=baby nipples&tags=CC||||8584.299|Price|product|||NA|rsf:gd-|-stype:attr=1|qr_nm:gd|res:RC3|com-cf:nl|ptrs:na|ktp:N0|mc:55653|mtp:G|qry_typ:P|lang:en|wc:2|cs:8827|v=4,False,,Coimbatore,"1st Floor No.141a, Old No.89a West Sampandam Road R.S.Puram Coimbatore, Coimbatore - 641002, Dist.Coimbatore, Tamil Nadu",8069264814,656
"White Bonne Polycare Feeder With Silicon Nipple, Packaging Type: Plastic Bottle, Newly Born",https://www.indiamart.com/proddetail/bonne-polycare-feeder-with-silicon-nipple-2851524803797.html?pos=196&kwd=baby nipples&tags=CC||||8601.347|Price|product|||NA|rsf:gd-|-stype:attr=1|qr_nm:gd|res:RC3|com-cf:nl|ptrs:na|ktp:N0|mc:55653|mtp:G|qry_typ:P|lang:en|wc:2|cs:8827|v=4,Sharma Sales And Marketing,https://www.indiamart.com/sharma-sales-and-marketing/?pos=196&kwd=baby nipples&tags=CC||||8601.347|Price|product|||NA|rsf:gd-|-stype:attr=1|qr_nm:gd|res:RC3|com-cf:nl|ptrs:na|ktp:N0|mc:55653|mtp:G|qry_typ:P|lang:en|wc:2|cs:8827|v=4,False,,Jaipur,"Ganesh Nagar 56 Dadi Ka Phatak Murlipura, Jaipur - 302013, Dist.Jaipur, Rajasthan",8048371713,642
"Black Baby Powder 100g, 3-12 Months, Packaging Type: Plastic Bottle",https://www.indiamart.com/proddetail/baby-powder-100g-3-12-months-2851577285333.html?pos=197&kwd=baby nipples&tags=CC||||9259.422|Price|product|||NA|rsf:gd-|-stype:attr=1|qr_nm:gd|res:RC3|com-cf:nl|ptrs:na|ktp:N0|mc:55653|mtp:G|qry_typ:P|lang:en|wc:2|cs:8827|v=4,Sarraf Brothers,https://www.indiamart.com/sarraf-brothers-mirzapur-cum-vindhyachal/?pos=197&kwd=baby nipples&tags=CC||||9259.422|Price|product|||NA|rsf:gd-|-stype:attr=1|qr_nm:gd|res:RC3|com-cf:nl|ptrs:na|ktp:N0|mc:55653|mtp:G|qry_typ:P|lang:en|wc:2|cs:8827|v=4,False,,Mirzapur cum Vindhyachal,"Wellesely Ganj,0,0,0,Wellesely Ganj,Mirzapur, Mirzapur cum Vindhyachal - 231001, Dist.Mirzapur, Uttar Pradesh",8062245979,747
Bonne Glass Feeding With Nipple,,Shaheen Medicos,https://www.indiamart.com/shaheen-medicos/?pos=198&kwd=baby nipples&tags=CC||||8752.144||product|||NA|rsf:gd-|-stype:attr=1|qr_nm:gd|res:RC3|com-cf:nl|ptrs:na|ktp:N0|mc:55653|mtp:G|qry_typ:P|lang:en|wc:2|cs:8827|v=4,False,Jamia Nagar,New Delhi,"F-78, High Tension Road Abul Fazal Enclave - Ii, Jamia Nagar, New Delhi - 110025, Dist.Delhi, Delhi",8048361361,532
"Baby Transparent Rubber Nipple, 1 To 3 Years",https://www.indiamart.com/proddetail/baby-transparent-rubber-nipple-26330772812.html?pos=199&kwd=baby nipples&tags=CC||||8663.873|Price|product|||NA|rsf:gd-|-stype:attr=1|qr_nm:gd|res:RC3|com-cf:nl|ptrs:na|ktp:N0|mc:55653|mtp:G|qry_typ:P|lang:en|wc:2|cs:8827|v=4,Cryba Bottles Private Limited,https://www.indiamart.com/crybabottles/?pos=199&kwd=baby nipples&tags=CC||||8663.873|Price|product|||NA|rsf:gd-|-stype:attr=1|qr_nm:gd|res:RC3|com-cf:nl|ptrs:na|ktp:N0|mc:55653|mtp:G|qry_typ:P|lang:en|wc:2|cs:8827|v=4,False,,Bengaluru,"No 42, S N Layout, Tata Nagar, Bengaluru - 560092, Dist.Bengaluru, Karnataka",8043864940,
"Baby Fruit Nipple, 3-12 Months",,MAMI CARE,https://www.indiamart.com/mami-care/?pos=200&kwd=baby nipples&tags=CC||||8223.226||product|||NA|rsf:gd-|-stype:attr=1|qr_nm:gd|res:RC3|com-cf:nl|ptrs:na|ktp:N0|mc:55653|mtp:G|qry_typ:P|lang:en|wc:2|cs:8827|v=4,False,,Thane,"shop no 2 Bungla no 7 kausa mumbra kausa Mumbra, Thane - 400612, Dist.Thane, Maharashtra",8069196764,981
"White Baby Milk Bottle Nipple, Newly Born",https://www.indiamart.com/proddetail/baby-milk-bottle-nipple-12617790488.html?pos=201&kwd=baby nipples&tags=CC||||8752.144|Price|product|||NA|rsf:gd-|-stype:attr=1|qr_nm:gd|res:RC3|com-cf:nl|ptrs:na|ktp:N0|mc:55653|mtp:G|qry_typ:P|lang:en|wc:2|cs:8827|v=4,DRH Trading Company,https://www.indiamart.com/drhtradingcompany/?pos=201&kwd=baby nipples&tags=CC||||8752.144|Price|product|||NA|rsf:gd-|-stype:attr=1|qr_nm:gd|res:RC3|com-cf:nl|ptrs:na|ktp:N0|mc:55653|mtp:G|qry_typ:P|lang:en|wc:2|cs:8827|v=4,False,,New Delhi,"CB-179A, Ring Road, Narina, New Delhi, New Delhi - 110028, Dist.Delhi, Delhi",8048372683,989
"Transparent Liquid Silicone Baby Nipple, 0-1 Year",https://www.indiamart.com/proddetail/liquid-silicone-baby-nipple-23417224912.html?pos=202&kwd=baby nipples&tags=CC||||9829.308|Price|product|||NA|rsf:gd-|-stype:attr=1|qr_nm:gd|res:RC3|com-cf:nl|ptrs:na|ktp:N0|mc:55653|mtp:G|qry_typ:P|lang:en|wc:2|cs:8827|v=4,M/ S Naughty Baby Products,https://www.indiamart.com/naughty-baby-products/?pos=202&kwd=baby nipples&tags=CC||||9829.308|Price|product|||NA|rsf:gd-|-stype:attr=1|qr_nm:gd|res:RC3|com-cf:nl|ptrs:na|ktp:N0|mc:55653|mtp:G|qry_typ:P|lang:en|wc:2|cs:8827|v=4,False,Salkia,Howrah,"6, Kolu Para Lane, Salkia, Salkia, Howrah - 711106, Dist.Howrah, West Bengal",8048372620,444
Transparent Baby Feeding Bottle Nipple,https://www.indiamart.com/proddetail/baby-feeding-bottle-nipple-2853788403448.html?pos=203&kwd=baby nipples&tags=CC||||8210.732|Price|product|||NA|rsf:gd-|-stype:attr=1|qr_nm:gd|res:RC3|com-cf:nl|ptrs:na|ktp:N0|mc:55653|mtp:G|qry_typ:P|lang:en|wc:2|cs:8827|v=4,Sinu Polymers Pvt. Ltd,https://www.indiamart.com/sinu-polymers-pvt-ltd/?pos=203&kwd=baby nipples&tags=CC||||8210.732|Price|product|||NA|rsf:gd-|-stype:attr=1|qr_nm:gd|res:RC3|com-cf:nl|ptrs:na|ktp:N0|mc:55653|mtp:G|qry_typ:P|lang:en|wc:2|cs:8827|v=4,False,,Vasai Virar,"Gala No-1 Patel Est. Near Vidya Vikasini School,gokhiware, Vasai Virar - 401208, Dist.Thane, Maharashtra",8048249812,148
Pink And White Baby Nipple,https://www.indiamart.com/proddetail/baby-nipple-21738789248.html?pos=204&kwd=baby nipples&tags=CC||||9045.955|Price|product|||NA|rsf:gd-|-stype:attr=1|qr_nm:gd|res:RC3|com-cf:nl|ptrs:na|ktp:N0|mc:55653|mtp:G|qry_typ:P|lang:en|wc:2|cs:8827|v=4,Bhavna Agencies,https://www.indiamart.com/bhavnaagencies/?pos=204&kwd=baby nipples&tags=CC||||9045.955|Price|product|||NA|rsf:gd-|-stype:attr=1|qr_nm:gd|res:RC3|com-cf:nl|ptrs:na|ktp:N0|mc:55653|mtp:G|qry_typ:P|lang:en|wc:2|cs:8827|v=4,False,Coolie Bazar,Kanpur,",76/154,HALSEY ROAD,,, Coolie Bazar, Kanpur - 208001, Uttar Pradesh",8043829326,
"Multicolor 3inch Baby Rubber Nipple, 12 Months",https://www.indiamart.com/proddetail/3inch-baby-rubber-nipple-19420593888.html?pos=205&kwd=baby nipples&tags=CC||||8752.144|Price|product|||NA|rsf:gd-|-stype:attr=1|qr_nm:gd|res:RC3|com-cf:nl|ptrs:na|ktp:N0|mc:55653|mtp:G|qry_typ:P|lang:en|wc:2|cs:8827|v=4,Samar Plastics,https://www.indiamart.com/samar-plastics/?pos=205&kwd=baby nipples&tags=CC||||8752.144|Price|product|||NA|rsf:gd-|-stype:attr=1|qr_nm:gd|res:RC3|com-cf:nl|ptrs:na|ktp:N0|mc:55653|mtp:G|qry_typ:P|lang:en|wc:2|cs:8827|v=4,False,,New Delhi,"5340/11 Second Floor-S/F, 11, Choudhary Market, Rui Mandi Sadar Bazar North, New Delhi - 110006, Dist.Delhi, Delhi",7942802336,
PAPERICIOUS - Mini Embellishments - Baby Nipple,https://www.indiamart.com/proddetail/papericious-mini-embellishments-baby-nipple-2853505397730.html?pos=206&kwd=baby nipples&tags=CC||||8778.123|Price|product|||NA|rsf:gd-|-stype:attr=1|qr_nm:gd|res:RC3|com-cf:nl|ptrs:na|ktp:N0|mc:55653|mtp:G|qry_typ:P|lang:en|wc:2|cs:8827|v=4,Krishiv Enterprises,https://www.indiamart.com/the-krishiv-enterprises/?pos=206&kwd=baby nipples&tags=CC||||8778.123|Price|product|||NA|rsf:gd-|-stype:attr=1|qr_nm:gd|res:RC3|com-cf:nl|ptrs:na|ktp:N0|mc:55653|mtp:G|qry_typ:P|lang:en|wc:2|cs:8827|v=4,False,,Noida,"Warehouse no.2, 1st Floor, Sharma Market, Sector-53, Main Road, Noida - 201301, Dist.Gautam Budh Nagar, Uttar Pradesh",,
Bottle Nipples,,Midas Marketing,https://www.indiamart.com/midas-marketing/?pos=207&kwd=baby nipples&tags=CC||||8228.275||product|||NA|rsf:gd-|-stype:attr=1|qr_nm:gd|res:RC3|com-cf:nl|ptrs:na|ktp:N0|mc:55653|mtp:G|qry_typ:P|lang:en|wc:2|cs:8827|v=4,False,,Ahmedabad,"B 61, C .P. Nagar, Part 2, Sola Road, Ghatlodia, Ahmedabad - 380061, Dist.Ahmedabad, Gujarat",8048372652,933
"Dr Browns Natural Flow Wide-Neck Baby Bottle Silicone Nipple, 2-Pack",https://www.indiamart.com/proddetail/dr-browns-natural-flow-wide-neck-baby-bottle-silicone-nipple-2-pack-2853261310855.html?pos=208&kwd=baby nipples&tags=CC||||8752.144|Price|product|||NA|rsf:gd-|-stype:attr=1|qr_nm:gd|res:RC3|com-cf:nl|ptrs:na|ktp:N0|mc:55653|mtp:G|qry_typ:P|lang:en|wc:2|cs:8827|v=4,BD Impex,https://www.indiamart.com/company/2395482/?pos=208&kwd=baby nipples&tags=CC||||8752.144|Price|product|||NA|rsf:gd-|-stype:attr=1|qr_nm:gd|res:RC3|com-cf:nl|ptrs:na|ktp:N0|mc:55653|mtp:G|qry_typ:P|lang:en|wc:2|cs:8827|v=4,False,,New Delhi,"The Moms Darling - Baby Shop 163, Kapil Vihar, Pitampura, New Delhi - 110034, Dist.Delhi, Delhi",,
"Bonne Transparent Baby Bottle Nipple, Packaging Type: Box, Newly Born",https://www.indiamart.com/proddetail/baby-bottle-nipple-23093572091.html?pos=209&kwd=baby nipples&tags=CC||||9301.656|Price|product|||NA|rsf:gd-|-stype:attr=1|qr_nm:gd|res:RC3|com-cf:nl|ptrs:na|ktp:N0|mc:55653|mtp:G|qry_typ:P|lang:en|wc:2|cs:8827|v=4,Ganga Jamuna Store,https://www.indiamart.com/ganga-jamuna-store/?pos=209&kwd=baby nipples&tags=CC||||9301.656|Price|product|||NA|rsf:gd-|-stype:attr=1|qr_nm:gd|res:RC3|com-cf:nl|ptrs:na|ktp:N0|mc:55653|mtp:G|qry_typ:P|lang:en|wc:2|cs:8827|v=4,False,Benia Bagh,Varanasi,"SHOP NO 11,GANDHI KATRA, RAJADARWAJA,VARANASI SHOP NO 11, GANDHI KATRA, RAJADARWAJA, VARANASI, Uttar Pradesh, 221001,,Varanasi, Benia Bagh, Varanasi - 221001, Dist.Varanasi, Uttar Pradesh",8047628359,
Tiny Care Transparent Silicone Baby Bottle Nipple,https://www.indiamart.com/proddetail/silicone-baby-bottle-nipple-13510845973.html?pos=210&kwd=baby nipples&tags=CC||||9839.57|Price|product|||NA|rsf:gd-|-stype:attr=1|qr_nm:gd|res:RC3|com-cf:nl|ptrs:na|ktp:N0|mc:55653|mtp:G|qry_typ:P|lang:en|wc:2|cs:8827|v=4,Ajanta Enterprise,https://www.indiamart.com/ajanta-enterprises-kolkata/?pos=210&kwd=baby nipples&tags=CC||||9839.57|Price|product|||NA|rsf:gd-|-stype:attr=1|qr_nm:gd|res:RC3|com-cf:nl|ptrs:na|ktp:N0|mc:55653|mtp:G|qry_typ:P|lang:en|wc:2|cs:8827|v=4,False,,Kolkata,"155, Netaji Subhas Road, Kolkata - 712258, Dist.Kolkata, West Bengal",8048615369,
