product_title,product_link,company_name,company_link,is_verified_exporter,city_region,city,address_details,phone_number,phone_number_extension
Baby Fleece Blanket,https://www.indiamart.com/proddetail/baby-fleece-blanket-2854537929630.html?pos=1&kwd=baby fleece blanket&tags=A||||8211.142|Price|product|||TS|rsf:gd-|-stype:attr=1|qr_nm:gd|res:RC4|com-cf:nl|ptrs:na|ktp:N0|mc:99819|mtp:S|qry_typ:P|lang:en|wc:3|flavl:0|cs:9616|v=4,Parass Trading,https://www.indiamart.com/parasstrading/?pos=1&kwd=baby fleece blanket&tags=A||||8211.142|Price|product|||TS|rsf:gd-|-stype:attr=1|qr_nm:gd|res:RC4|com-cf:nl|ptrs:na|ktp:N0|mc:99819|mtp:S|qry_typ:P|lang:en|wc:3|flavl:0|cs:9616|v=4,False,Chembur,Mumbai,"Room no 3, First Floor, Plot no 39, Next to Shivaji Nagar police station,Kherwadi Plot no 39, Chembur, Mumbai - 400071, Dist.Mumbai, Maharashtra",8047631170,
Floral Print Velvet Baby Fleece Blanket,https://www.indiamart.com/proddetail/baby-fleece-blanket-26275248388.html?pos=2&kwd=baby fleece blanket&tags=A||||8752.144|Price|product|||TS|rsf:gd-|-stype:attr=1|qr_nm:gd|res:RC4|com-cf:nl|ptrs:na|ktp:N0|mc:99819|mtp:S|qry_typ:P|lang:en|wc:3|flavl:0|cs:9616|v=4,Verma Enterprises,https://www.styaloindia.com/?pos=2&kwd=baby fleece blanket&tags=A||||8752.144|Price|product|||TS|rsf:gd-|-stype:attr=1|qr_nm:gd|res:RC4|com-cf:nl|ptrs:na|ktp:N0|mc:99819|mtp:S|qry_typ:P|lang:en|wc:3|flavl:0|cs:9616|v=4,False,Samaypur,New Delhi,"Plot No.180/1-B, Kh.No. 955/1, 1st, Block-C, Raja Vihar, Siraspur, Badli, North West Delhi, Samaypur, New Delhi - 110042, Dist.Delhi, Delhi",8047654672,
Velvet Mix Newborn Baby blanket,https://www.indiamart.com/proddetail/newborn-baby-blanket-27262907730.html?pos=3&kwd=baby fleece blanket&tags=A||||8954.051|Price|product|||TS|rsf:gd-|-stype:attr=1|qr_nm:gd|res:RC4|com-cf:nl|ptrs:na|ktp:N0|mc:99819|mtp:S|qry_typ:P|lang:en|wc:3|flavl:0|cs:9616|v=4,Sundar Garments,https://www.sundargarment.com/?pos=3&kwd=baby fleece blanket&tags=A||||8954.051|Price|product|||TS|rsf:gd-|-stype:attr=1|qr_nm:gd|res:RC4|com-cf:nl|ptrs:na|ktp:N0|mc:99819|mtp:S|qry_typ:P|lang:en|wc:3|flavl:0|cs:9616|v=4,False,Kondithop,Chennai,"No-9 Murugesan Street Near Kondithope Park, Kondithop, Chennai - 600079, Dist.Chennai, Tamil Nadu",8048266539,
"Sage Green Baby Fleece Blanket, 1 Year, Size: 30x30 cm",https://www.indiamart.com/proddetail/sage-green-baby-fleece-blanket-2851612834697.html?pos=4&kwd=baby fleece blanket&tags=A||||8661.854|Price|product|||MDC|rsf:gd-|-stype:attr=1|qr_nm:gd|res:RC4|com-cf:nl|ptrs:na|ktp:N0|mc:99819|mtp:S|qry_typ:P|lang:en|wc:3|flavl:0|cs:9616|v=4,Raj Industries,https://www.indiamart.com/raj-industries-punjab/?pos=4&kwd=baby fleece blanket&tags=A||||8661.854|Price|product|||MDC|rsf:gd-|-stype:attr=1|qr_nm:gd|res:RC4|com-cf:nl|ptrs:na|ktp:N0|mc:99819|mtp:S|qry_typ:P|lang:en|wc:3|flavl:0|cs:9616|v=4,False,,Ludhiana,"H. No B 12 629, Kucha Anayat, Nr Div No 2 Brown Road, Ludhiana - 141008, Dist.Ludhiana, Punjab",7942800347,
Plain Multicolor Polar Pink Fleece Baby Blanket,https://www.indiamart.com/proddetail/polar-pink-fleece-baby-blanket-2854167929455.html?pos=5&kwd=baby fleece blanket&tags=A||||8661.854|Price|product|||MDC|rsf:gd-|-stype:attr=1|qr_nm:gd|res:RC4|com-cf:nl|ptrs:na|ktp:N0|mc:99819|mtp:S|qry_typ:P|lang:en|wc:3|flavl:0|cs:9616|v=4,Sai Trading Company,https://www.indiamart.com/sai-tradingcompany-ludhiana/?pos=5&kwd=baby fleece blanket&tags=A||||8661.854|Price|product|||MDC|rsf:gd-|-stype:attr=1|qr_nm:gd|res:RC4|com-cf:nl|ptrs:na|ktp:N0|mc:99819|mtp:S|qry_typ:P|lang:en|wc:3|flavl:0|cs:9616|v=4,False,Chaura Bazar Area,Ludhiana,"Mochpura Bazar, No. 139 Block Viii, Rajesh Shawls, Chaura Bazar Area, Ludhiana - 141008, Dist.Ludhiana, Punjab",8045736579,
"BABYZONE Pink Soft Fleece Baby Blanket, 0-1 Year, Size: 26*36",https://www.indiamart.com/proddetail/soft-fleece-baby-blanket-23893634233.html?pos=6&kwd=baby fleece blanket&tags=A||||8661.854|Price|product|||TS|rsf:gd-|-stype:attr=1|qr_nm:gd|res:RC4|com-cf:nl|ptrs:na|ktp:N0|mc:99819|mtp:S|qry_typ:P|lang:en|wc:3|flavl:0|cs:9616|v=4,Aggarwal Creations,https://www.aggarwalcreations.com/?pos=6&kwd=baby fleece blanket&tags=A||||8661.854|Price|product|||TS|rsf:gd-|-stype:attr=1|qr_nm:gd|res:RC4|com-cf:nl|ptrs:na|ktp:N0|mc:99819|mtp:S|qry_typ:P|lang:en|wc:3|flavl:0|cs:9616|v=4,False,Ramesh Nagar,Ludhiana,"Geeta Nagar, Street No. 7, Tajpur Road, Ramesh Nagar, Ludhiana - 141008, Dist.Ludhiana, Punjab",8048962321,
"Red Printed Baby Soft Fleece Blanket, Newly Born, Size: 20x30cm",https://www.indiamart.com/proddetail/baby-soft-fleece-blanket-26249773091.html?pos=7&kwd=baby fleece blanket&tags=A||||8747.203|Price|product|||TS|rsf:gd-|-stype:attr=1|qr_nm:gd|res:RC4|com-cf:nl|ptrs:na|ktp:N0|mc:99819|mtp:S|qry_typ:P|lang:en|wc:3|flavl:0|cs:9616|v=4,Jessa Ram Khushi Ram,https://www.jessaramkhushiram.com/?pos=7&kwd=baby fleece blanket&tags=A||||8747.203|Price|product|||TS|rsf:gd-|-stype:attr=1|qr_nm:gd|res:RC4|com-cf:nl|ptrs:na|ktp:N0|mc:99819|mtp:S|qry_typ:P|lang:en|wc:3|flavl:0|cs:9616|v=4,False,Old Housing Board Colony,Panipat,"Gaba Building, Pachranga Bazar, Old Housing Board Colony, Panipat - 132103, Dist.Panipat, Haryana",8043864954,
Printed Baby Fleece Blanket,https://www.indiamart.com/proddetail/printed-baby-fleece-blanket-2852593534873.html?pos=8&kwd=baby fleece blanket&tags=A||||8747.203||product|||TS|rsf:gd-|-stype:attr=1|qr_nm:gd|res:RC4|com-cf:nl|ptrs:na|ktp:N0|mc:99819|mtp:S|qry_typ:P|lang:en|wc:3|flavl:0|cs:9616|v=4,Supercloudy Fashion World Private Limited,https://www.indiamart.com/supercloudyfashionworld/?pos=8&kwd=baby fleece blanket&tags=A||||8747.203||product|||TS|rsf:gd-|-stype:attr=1|qr_nm:gd|res:RC4|com-cf:nl|ptrs:na|ktp:N0|mc:99819|mtp:S|qry_typ:P|lang:en|wc:3|flavl:0|cs:9616|v=4,False,Huda,Panipat,"Vpo Kurar, Near Jagmehar Hatchery, Huda, Panipat - 132103, Dist.Panipat, Haryana",8047303410,
Printed Baby Fleece Blanket,https://www.indiamart.com/proddetail/baby-fleece-blanket-20967303055.html?pos=9&kwd=baby fleece blanket&tags=A||||8747.203|Price|product|||TS|rsf:gd-|-stype:attr=1|qr_nm:gd|res:RC4|com-cf:nl|ptrs:na|ktp:N0|mc:99819|mtp:S|qry_typ:P|lang:en|wc:3|flavl:0|cs:9616|v=4,Mahalaxmi Woollen Processors,https://www.mahalaxmiwoollen.in/?pos=9&kwd=baby fleece blanket&tags=A||||8747.203|Price|product|||TS|rsf:gd-|-stype:attr=1|qr_nm:gd|res:RC4|com-cf:nl|ptrs:na|ktp:N0|mc:99819|mtp:S|qry_typ:P|lang:en|wc:3|flavl:0|cs:9616|v=4,False,Desraj Colony,Panipat,"Desraj Colony, Desraj Colony, Panipat - 132103, Dist.Panipat, Haryana",8047645393,
"Single Butterthief Pink Kids Printed Fleece Glow Radium Blanket, Size: 100x150 cm",https://www.indiamart.com/proddetail/butterthief-pink-kids-printed-fleece-glow-radium-blanket-2851230947030.html?pos=10&kwd=baby fleece blanket&tags=A||||8752.144|Price|product|||TS|rsf:gd-|-stype:attr=1|qr_nm:gd|res:RC4|com-cf:nl|ptrs:na|ktp:N0|mc:99819|mtp:S|qry_typ:P|lang:en|wc:3|flavl:0|cs:9616|v=4,Instabuyz,https://www.indiamart.com/instabuyz/?pos=10&kwd=baby fleece blanket&tags=A||||8752.144|Price|product|||TS|rsf:gd-|-stype:attr=1|qr_nm:gd|res:RC4|com-cf:nl|ptrs:na|ktp:N0|mc:99819|mtp:S|qry_typ:P|lang:en|wc:3|flavl:0|cs:9616|v=4,False,Paschim Vihar,New Delhi,"GH-4/319, Meera Apartments, Paschim Vihar, West Delhi, Paschim Vihar, New Delhi - 110063, Dist.Delhi, Delhi",8047696143,
Woolen Size: Single Pv New Born Baby Blanket,https://www.indiamart.com/proddetail/pv-new-born-baby-blanket-2854715122955.html?pos=11&kwd=baby fleece blanket&tags=A||||8661.854|Price|product|||MDC|rsf:gd-|-stype:attr=1|qr_nm:gd|res:RC4|com-cf:nl|ptrs:na|ktp:N0|mc:99819|mtp:S|qry_typ:P|lang:en|wc:3|flavl:0|cs:9616|v=4,Miglani Hosiery Factory,https://www.indiamart.com/miglani-hosiery-factory/?pos=11&kwd=baby fleece blanket&tags=A||||8661.854|Price|product|||MDC|rsf:gd-|-stype:attr=1|qr_nm:gd|res:RC4|com-cf:nl|ptrs:na|ktp:N0|mc:99819|mtp:S|qry_typ:P|lang:en|wc:3|flavl:0|cs:9616|v=4,False,,Ludhiana,"B-IV-524, Pansari Bazar, Ludhiana - 141008, Dist.Ludhiana, Punjab",7949324357,
Baby Fleece Blanket,https://www.indiamart.com/proddetail/baby-fleece-blanket-2852599397655.html?pos=12&kwd=baby fleece blanket&tags=BA||||8747.203|Price|product|||TS|rsf:gd-|-stype:attr=1|qr_nm:gd|res:RC4|com-cf:nl|ptrs:na|ktp:N0|mc:99819|mtp:S|qry_typ:P|lang:en|wc:3|flavl:0|cs:9616|v=4,Vidya Sagar Textiles,https://www.vidyasagartextiles.com/?pos=12&kwd=baby fleece blanket&tags=BA||||8747.203|Price|product|||TS|rsf:gd-|-stype:attr=1|qr_nm:gd|res:RC4|com-cf:nl|ptrs:na|ktp:N0|mc:99819|mtp:S|qry_typ:P|lang:en|wc:3|flavl:0|cs:9616|v=4,False,Mal Godown Road,Panipat,"6, Mal Godam Road, Near Sangeet Cinema Gate, Mal Godown Road, Panipat - 132103, Dist.Panipat, Haryana",8047308149,
"Fleece Plain Baby Blanket, Size: 28"" X 39""",https://www.indiamart.com/proddetail/baby-blanket-13875015873.html?pos=13&kwd=baby fleece blanket&tags=BA||||8778.123|Price|product|||TS|rsf:gd-|-stype:attr=1|qr_nm:gd|res:RC4|com-cf:nl|ptrs:na|ktp:N0|mc:99819|mtp:S|qry_typ:P|lang:en|wc:3|flavl:0|cs:9616|v=4,Oscar Overseas,https://www.oscar-india.com/?pos=13&kwd=baby fleece blanket&tags=BA||||8778.123|Price|product|||TS|rsf:gd-|-stype:attr=1|qr_nm:gd|res:RC4|com-cf:nl|ptrs:na|ktp:N0|mc:99819|mtp:S|qry_typ:P|lang:en|wc:3|flavl:0|cs:9616|v=4,False,,Noida,"A-99 Sector 5, Noida - 201301, Dist.Gautam Budh Nagar, Uttar Pradesh",8046058290,
"Fleece Mutli Colour Soft Toy Cum Blanket, Size: Singe",https://www.indiamart.com/proddetail/soft-toy-cum-blanket-2852135479048.html?pos=14&kwd=baby fleece blanket&tags=BA||||8752.144|Price|product|||MDC|rsf:gd-|-stype:attr=1|qr_nm:gd|res:RC4|com-cf:nl|ptrs:na|ktp:N0|mc:99819|mtp:S|qry_typ:P|lang:en|wc:3|flavl:0|cs:9616|v=4,L T Textiles,https://www.indiamart.com/lttextiles/?pos=14&kwd=baby fleece blanket&tags=BA||||8752.144|Price|product|||MDC|rsf:gd-|-stype:attr=1|qr_nm:gd|res:RC4|com-cf:nl|ptrs:na|ktp:N0|mc:99819|mtp:S|qry_typ:P|lang:en|wc:3|flavl:0|cs:9616|v=4,False,Pahari Dhiraj,New Delhi,"5189-90 Main Road, Sadar Bazar, Pahari Dhiraj, New Delhi - 110006, Dist.Delhi, Delhi",7942958455,
"Cotton Red Baby Fleece Blanket, For Home, Size: Singe",https://www.indiamart.com/proddetail/baby-fleece-blanket-25350322973.html?pos=15&kwd=baby fleece blanket&tags=A||||8747.203|Price|product|||TS|rsf:gd-|-stype:attr=1|qr_nm:gd|res:RC4|com-cf:nl|ptrs:na|ktp:N0|mc:99819|mtp:S|qry_typ:P|lang:en|wc:3|cs:8853|v=4,Anand International,https://www.bestvaluewholesale.co.in/?pos=15&kwd=baby fleece blanket&tags=A||||8747.203|Price|product|||TS|rsf:gd-|-stype:attr=1|qr_nm:gd|res:RC4|com-cf:nl|ptrs:na|ktp:N0|mc:99819|mtp:S|qry_typ:P|lang:en|wc:3|cs:8853|v=4,False,Shiv Nagar,Panipat,"Plot No-181, Anand International, Sec-25 Part-2, Huda,, Shiv Nagar, Panipat - 132103, Dist.Panipat, Haryana",8047314578,
"Printed Baby Fleece Blanket, Size: 30x40 Inch",https://www.indiamart.com/proddetail/baby-fleece-blanket-20881128948.html?pos=16&kwd=baby fleece blanket&tags=BA||||8747.203|Price|product|||TS|rsf:gd-|-stype:attr=1|qr_nm:gd|res:RC4|com-cf:nl|ptrs:na|ktp:N0|mc:99819|mtp:S|qry_typ:P|lang:en|wc:3|cs:8853|v=4,Paras Blanket,https://www.parasblanket.com/?pos=16&kwd=baby fleece blanket&tags=BA||||8747.203|Price|product|||TS|rsf:gd-|-stype:attr=1|qr_nm:gd|res:RC4|com-cf:nl|ptrs:na|ktp:N0|mc:99819|mtp:S|qry_typ:P|lang:en|wc:3|cs:8853|v=4,False,Old Housing Board Colony,Panipat,"Shop No. 1, 2, 3, New Pachranga Market Pachranga Bazar, Old Housing Board Colony, Panipat - 132103, Dist.Panipat, Haryana",8048968656,
Golden Size: Single Printed Baby Blanket,https://www.indiamart.com/proddetail/printed-baby-blanket-2854979576030.html?pos=17&kwd=baby fleece blanket&tags=A||||8747.203|Price|product|||MDC|rsf:gd-|-stype:attr=1|qr_nm:gd|res:RC4|com-cf:nl|ptrs:na|ktp:N0|mc:99819|mtp:S|qry_typ:P|lang:en|wc:3|cs:8853|v=4,Delhi Handloom,https://www.indiamart.com/delhi-handloom-panipat/?pos=17&kwd=baby fleece blanket&tags=A||||8747.203|Price|product|||MDC|rsf:gd-|-stype:attr=1|qr_nm:gd|res:RC4|com-cf:nl|ptrs:na|ktp:N0|mc:99819|mtp:S|qry_typ:P|lang:en|wc:3|cs:8853|v=4,False,,Panipat,"Shop No-586/4, Pachranga Bazar, Panipat - 132103, Dist.Panipat, Haryana",7949348723,
Size: Single Velvet Blue Baby Blanket,https://www.indiamart.com/proddetail/velvet-blue-baby-blanket-2855017271073.html?pos=18&kwd=baby fleece blanket&tags=A||||8752.144|Price|product|||MDC|rsf:gd-|-stype:attr=1|qr_nm:gd|res:RC4|com-cf:nl|ptrs:na|ktp:N0|mc:99819|mtp:S|qry_typ:P|lang:en|wc:3|cs:8853|v=4,A.S.Enterprises,https://www.indiamart.com/a-senterprisesdelhi-india/?pos=18&kwd=baby fleece blanket&tags=A||||8752.144|Price|product|||MDC|rsf:gd-|-stype:attr=1|qr_nm:gd|res:RC4|com-cf:nl|ptrs:na|ktp:N0|mc:99819|mtp:S|qry_typ:P|lang:en|wc:3|cs:8853|v=4,False,,New Delhi,"G F, 816, Pan Mandi, Near Press Street Sadar Bazar Area, Central Delhi, New Delhi - 110006, Dist.Delhi, Delhi",7942537259,
Fleece Size: Single Pack Of 8 Newborn Baby Blanket,https://www.indiamart.com/proddetail/pack-of-8-newborn-baby-blanket-2854864534955.html?pos=19&kwd=baby fleece blanket&tags=A||||9813.14|Price|product|||MDC|rsf:gd-|-stype:attr=1|qr_nm:gd|res:RC4|com-cf:nl|ptrs:na|ktp:N0|mc:99819|mtp:S|qry_typ:P|lang:en|wc:3|cs:8853|v=4,Simply Sahab,https://www.indiamart.com/simplysahab/?pos=19&kwd=baby fleece blanket&tags=A||||9813.14|Price|product|||MDC|rsf:gd-|-stype:attr=1|qr_nm:gd|res:RC4|com-cf:nl|ptrs:na|ktp:N0|mc:99819|mtp:S|qry_typ:P|lang:en|wc:3|cs:8853|v=4,False,Kolkata,Jagatballavpur,"Jagatballavpur, Rajdaria, Kolkata, Jagatballavpur - 711408, Dist.Howrah, West Bengal",8041015046,
Printed Floral Print Baby Blanket,https://www.indiamart.com/proddetail/floral-print-baby-blanket-24686439030.html?pos=20&kwd=baby fleece blanket&tags=BA||||8230.883|Price|product|||MDC|rsf:gd-|-stype:attr=1|qr_nm:gd|res:RC4|com-cf:nl|ptrs:na|ktp:N0|mc:99819|mtp:S|qry_typ:P|lang:en|wc:3|cs:8853|v=4,Dharmnandan Creation,https://www.indiamart.com/dharmnandancreation/?pos=20&kwd=baby fleece blanket&tags=BA||||8230.883|Price|product|||MDC|rsf:gd-|-stype:attr=1|qr_nm:gd|res:RC4|com-cf:nl|ptrs:na|ktp:N0|mc:99819|mtp:S|qry_typ:P|lang:en|wc:3|cs:8853|v=4,False,Udhana,Surat,"Plot No. A/10, City Ind. Estate, Udhana, Udhan Road,, Udhana, Surat - 394210, Dist.Surat, Gujarat",7942543669,
"Many Colour Available Printed Baby Wrap Blanket, 0-12 Months",https://www.indiamart.com/proddetail/baby-wrap-blanket-22683937473.html?pos=21&kwd=baby fleece blanket&tags=A||||8752.144|Price|product|||TS|rsf:gd-|-stype:attr=1|qr_nm:gd|res:RC4|com-cf:nl|ptrs:na|ktp:N0|mc:99819|mtp:S|qry_typ:P|lang:en|wc:3|cs:8853|v=4,Shree Balaji Infant Wear,https://www.indiamart.com/chhotejanab/?pos=21&kwd=baby fleece blanket&tags=A||||8752.144|Price|product|||TS|rsf:gd-|-stype:attr=1|qr_nm:gd|res:RC4|com-cf:nl|ptrs:na|ktp:N0|mc:99819|mtp:S|qry_typ:P|lang:en|wc:3|cs:8853|v=4,False,Pahari Dhiraj,New Delhi,"1583- 84, Hathi Khana, Aziz Ganj, Bahadur Garh Road, Pahari Dhiraj, New Delhi - 110006, Dist.Delhi, Delhi",8047639754,
"Mix Colour Printed Keara Fleece Blanket, Packaging Type: Normal, Size: 90X100",https://www.indiamart.com/proddetail/keara-fleece-blanket-2850517379062.html?pos=22&kwd=baby fleece blanket&tags=BA||||8747.203||product|||TS|rsf:gd-|-stype:attr=1|qr_nm:gd|res:RC4|com-cf:nl|ptrs:na|ktp:N0|mc:99819|mtp:S|qry_typ:P|lang:en|wc:3|cs:8853|v=4,Mayur Home,https://www.mayurhome.com/?pos=22&kwd=baby fleece blanket&tags=BA||||8747.203||product|||TS|rsf:gd-|-stype:attr=1|qr_nm:gd|res:RC4|com-cf:nl|ptrs:na|ktp:N0|mc:99819|mtp:S|qry_typ:P|lang:en|wc:3|cs:8853|v=4,False,Sector 25,Panipat,"85-86, Sector 25, Part -1 HUDA, Sector 25, Panipat - 132103, Dist.Panipat, Haryana",7942801518,
"Multicolor Single Fleece Blankets, 400 Grams, Size: 56*90",https://www.indiamart.com/proddetail/fleece-blankets-27120546773.html?pos=23&kwd=baby fleece blanket&tags=BB||||8747.203|Price|product|||TS|rsf:gd-|-stype:attr=1|qr_nm:gd|res:RC4|com-cf:nl|ptrs:na|ktp:N0|mc:99819|mtp:S|qry_typ:P|lang:en|wc:3|cs:8853|v=4,Hari Anchal Handloom,https://www.indiamart.com/harianchal-handloom/?pos=23&kwd=baby fleece blanket&tags=BB||||8747.203|Price|product|||TS|rsf:gd-|-stype:attr=1|qr_nm:gd|res:RC4|com-cf:nl|ptrs:na|ktp:N0|mc:99819|mtp:S|qry_typ:P|lang:en|wc:3|cs:8853|v=4,False,Panipat,Panipat,"No. 814/3, Near Prem Mandir, Pachranga Bazar 814/3, Near Prem Mandir Panipat, Panipat, Panipat - 132103, Dist.Panipat, Haryana",8048961474,
Printed Multicolor Kids Baby Blanket,https://www.indiamart.com/proddetail/kids-baby-blanket-24419932297.html?pos=24&kwd=baby fleece blanket&tags=BA||||8788.382|Price|product|||TS|rsf:gd-|-stype:attr=1|qr_nm:gd|res:RC4|com-cf:nl|ptrs:na|ktp:N0|mc:99819|mtp:S|qry_typ:P|lang:en|wc:3|cs:8853|v=4,CLOVER (A Brand of Delhi Garments Private Limited),https://www.indiamart.com/delhigarments/?pos=24&kwd=baby fleece blanket&tags=BA||||8788.382|Price|product|||TS|rsf:gd-|-stype:attr=1|qr_nm:gd|res:RC4|com-cf:nl|ptrs:na|ktp:N0|mc:99819|mtp:S|qry_typ:P|lang:en|wc:3|cs:8853|v=4,False,,Greater Noida,"43 Block C Sector 88, Greater Noida - 201306, Dist.Gautam Budh Nagar, Uttar Pradesh",8048265597,
Plain Woolen Embraided Alphabet Printed Fleece Blanket For Baby Boys and Girls,https://www.indiamart.com/proddetail/embraided-alphabet-printed-fleece-blanket-for-baby-boys-and-girls-2854433758091.html?pos=25&kwd=baby fleece blanket&tags=BA||||8661.854|Price|product|||MDC|rsf:gd-|-stype:attr=1|qr_nm:gd|res:RC4|com-cf:nl|ptrs:na|ktp:N0|mc:99819|mtp:S|qry_typ:P|lang:en|wc:3|cs:8853|v=4,S.R Woollen Textile,https://www.indiamart.com/srwoollentextile/?pos=25&kwd=baby fleece blanket&tags=BA||||8661.854|Price|product|||MDC|rsf:gd-|-stype:attr=1|qr_nm:gd|res:RC4|com-cf:nl|ptrs:na|ktp:N0|mc:99819|mtp:S|qry_typ:P|lang:en|wc:3|cs:8853|v=4,False,Old Ludhiana,Ludhiana,"435, Chauri Sarak, Bazzrian Mohalla, Old Ludhiana, Ludhiana - 141008, Dist.Ludhiana, Punjab",7942873909,
Floral Print Woolen Baby Fleece Blanket,https://www.indiamart.com/proddetail/baby-fleece-blanket-2854865810291.html?pos=26&kwd=baby fleece blanket&tags=BB||||8747.203||product|||TS|rsf:gd-|-stype:attr=1|qr_nm:gd|res:RC4|com-cf:nl|ptrs:na|ktp:N0|mc:99819|mtp:S|qry_typ:P|lang:en|wc:3|cs:8853|v=4,Ram Han Textiles,https://www.indiamart.com/ram-han-textiles/?pos=26&kwd=baby fleece blanket&tags=BB||||8747.203||product|||TS|rsf:gd-|-stype:attr=1|qr_nm:gd|res:RC4|com-cf:nl|ptrs:na|ktp:N0|mc:99819|mtp:S|qry_typ:P|lang:en|wc:3|cs:8853|v=4,False,Chawla Colony,Panipat,"295, 0, Ramhan Textiles, 11 Ward,, Chawla Colony, Panipat - 132103, Dist.Panipat, Haryana",7942563360,
spykar New Baby Fleece Blanket,https://www.indiamart.com/proddetail/baby-fleece-blanket-19376472148.html?pos=27&kwd=baby fleece blanket&tags=BA||||8747.203|Price|product|||TS|rsf:gd-|-stype:attr=1|qr_nm:gd|res:RC4|com-cf:nl|ptrs:na|ktp:N0|mc:99819|mtp:S|qry_typ:P|lang:en|wc:3|cs:8853|v=4,Spykar Woollens,https://www.spykarwoollens.com/?pos=27&kwd=baby fleece blanket&tags=BA||||8747.203|Price|product|||TS|rsf:gd-|-stype:attr=1|qr_nm:gd|res:RC4|com-cf:nl|ptrs:na|ktp:N0|mc:99819|mtp:S|qry_typ:P|lang:en|wc:3|cs:8853|v=4,False,Colony,Panipat,"No. 576, circular road, Colony, Panipat - 132103, Dist.Panipat, Haryana",8046040181,
"Blue Printed Baby Fleece Blanket, New Born, Size: 30x30inch",https://www.indiamart.com/proddetail/baby-fleece-blanket-26110376712.html?pos=28&kwd=baby fleece blanket&tags=BA||||8661.854|Price|product|||TS|rsf:gd-|-stype:attr=1|qr_nm:gd|res:RC4|com-cf:nl|ptrs:na|ktp:N0|mc:99819|mtp:S|qry_typ:P|lang:en|wc:3|cs:8853|v=4,J.S Ahuja Hosiery Works,https://www.indiamart.com/jsahujahosieryworks/?pos=28&kwd=baby fleece blanket&tags=BA||||8661.854|Price|product|||TS|rsf:gd-|-stype:attr=1|qr_nm:gd|res:RC4|com-cf:nl|ptrs:na|ktp:N0|mc:99819|mtp:S|qry_typ:P|lang:en|wc:3|cs:8853|v=4,False,Sector 39-A,Ludhiana,"B-XXX-3983, St. No.2, Hargobind Pura, Near Samrala Chowk, Sector 39-A, Ludhiana - 141008, Dist.Ludhiana, Punjab",8043859618,
"POSTIV Printed Baby Fleece Blanket, New Born To 3 Yrs, Size: 120x120",https://www.indiamart.com/proddetail/baby-fleece-blanket-22954604662.html?pos=29&kwd=baby fleece blanket&tags=BA||||8663.873|Price|product|||TS|rsf:gd-|-stype:attr=1|qr_nm:gd|res:RC4|com-cf:nl|ptrs:na|ktp:N0|mc:99819|mtp:S|qry_typ:P|lang:en|wc:3|cs:8853|v=4,Alpha Organics Clothing India,https://www.indiamart.com/alphaorganicsclothingindia/?pos=29&kwd=baby fleece blanket&tags=BA||||8663.873|Price|product|||TS|rsf:gd-|-stype:attr=1|qr_nm:gd|res:RC4|com-cf:nl|ptrs:na|ktp:N0|mc:99819|mtp:S|qry_typ:P|lang:en|wc:3|cs:8853|v=4,True,Indiranagar,Bengaluru,"NO.3037,INDIRANAGAR,8TH MAIN ROAD, HAL 2ND STAGE,BANGALORE, Indiranagar, Bengaluru - 560038, Dist.Bengaluru, Karnataka",7942540831,
"Multicolor Cartoon Baby Fleece Blanket, 0-5 Years, Size: 110*150. cm",https://www.indiamart.com/proddetail/baby-fleece-blanket-26424143473.html?pos=30&kwd=baby fleece blanket&tags=BA||||8747.203|Price|product|||TS|rsf:gd-|-stype:attr=1|qr_nm:gd|res:RC4|com-cf:nl|ptrs:na|ktp:N0|mc:99819|mtp:S|qry_typ:P|lang:en|wc:3|cs:8853|v=4,ANB Handlooms,https://www.femfairy.com/?pos=30&kwd=baby fleece blanket&tags=BA||||8747.203|Price|product|||TS|rsf:gd-|-stype:attr=1|qr_nm:gd|res:RC4|com-cf:nl|ptrs:na|ktp:N0|mc:99819|mtp:S|qry_typ:P|lang:en|wc:3|cs:8853|v=4,False,Chadau Mohalla,Panipat,"455/9, Sanoli Road, Chadau Mohalla, Panipat - 132103, Dist.Panipat, Haryana",7942544537,
"Cloudy Polyester Baby Fleece Blanket, 0-5 Years, Size: 30x40 Inch",https://www.indiamart.com/proddetail/baby-fleece-blanket-26027244333.html?pos=31&kwd=baby fleece blanket&tags=BA||||8747.203|Price|product|||TS|rsf:gd-|-stype:attr=1|qr_nm:gd|res:RC4|com-cf:nl|ptrs:na|ktp:N0|mc:99819|mtp:S|qry_typ:P|lang:en|wc:3|cs:8853|v=4,M L Textile,https://www.indiamart.com/ml-textile/?pos=31&kwd=baby fleece blanket&tags=BA||||8747.203|Price|product|||TS|rsf:gd-|-stype:attr=1|qr_nm:gd|res:RC4|com-cf:nl|ptrs:na|ktp:N0|mc:99819|mtp:S|qry_typ:P|lang:en|wc:3|cs:8853|v=4,False,Jattal,Panipat,"8 Marla Colony Jattal Road Near Siti Cable, Jattal, Panipat - 132103, Dist.Panipat, Haryana",8046074237,
Plain Blue Fleece Baby Blanket,https://www.indiamart.com/proddetail/fleece-baby-blanket-2851448053262.html?pos=32&kwd=baby fleece blanket&tags=BB||||8747.203|Price|product|||TS|rsf:gd-|-stype:attr=1|qr_nm:gd|res:RC4|com-cf:nl|ptrs:na|ktp:N0|mc:99819|mtp:S|qry_typ:P|lang:en|wc:3|cs:8853|v=4,Ambey Spinning Mills,https://www.indiamart.com/ambey-spinning-mill/?pos=32&kwd=baby fleece blanket&tags=BB||||8747.203|Price|product|||TS|rsf:gd-|-stype:attr=1|qr_nm:gd|res:RC4|com-cf:nl|ptrs:na|ktp:N0|mc:99819|mtp:S|qry_typ:P|lang:en|wc:3|cs:8853|v=4,False,Kabri,Panipat,"Behind Shri Ram Dharam Kanta, Near Prem Petrol Pump Pakka Fatak, Kabri Road, Kabri, Panipat - 132103, Dist.Panipat, Haryana",8048601302,
"100% Cotton Printed Fleece Baby Blanket, Weight :160 - 500 gm",https://www.indiamart.com/proddetail/fleece-baby-blanket-12430002048.html?pos=33&kwd=baby fleece blanket&tags=BB||||8747.203|Price|product|||TS|rsf:gd-|-stype:attr=1|qr_nm:gd|res:RC4|com-cf:nl|ptrs:na|ktp:N0|mc:99819|mtp:S|qry_typ:P|lang:en|wc:3|cs:8853|v=4,Harshit International,https://www.indiamart.com/harshitinternational/?pos=33&kwd=baby fleece blanket&tags=BB||||8747.203|Price|product|||TS|rsf:gd-|-stype:attr=1|qr_nm:gd|res:RC4|com-cf:nl|ptrs:na|ktp:N0|mc:99819|mtp:S|qry_typ:P|lang:en|wc:3|cs:8853|v=4,False,Huda,Panipat,"Urban Estate, Sector- 12, 600, Near SD Vidya Mandir, Huda, Panipat - 132103, Dist.Panipat, Haryana",8046047820,
"Blue Cotton Baby Fleece Blanket, Size: Double",https://www.indiamart.com/proddetail/baby-fleece-blanket-2852304874455.html?pos=34&kwd=baby fleece blanket&tags=BA||||8211.142|Price|product|||TS|rsf:gd-|-stype:attr=1|qr_nm:gd|res:RC4|com-cf:nl|ptrs:na|ktp:N0|mc:99819|mtp:S|qry_typ:P|lang:en|wc:3|cs:8853|v=4,P For Panda Baby Products Private Limited,https://www.p4pandababyproducts.com/?pos=34&kwd=baby fleece blanket&tags=BA||||8211.142|Price|product|||TS|rsf:gd-|-stype:attr=1|qr_nm:gd|res:RC4|com-cf:nl|ptrs:na|ktp:N0|mc:99819|mtp:S|qry_typ:P|lang:en|wc:3|cs:8853|v=4,False,Goregaon West,Mumbai,"904 A Wing,9 Th Floor,Triple S Heights,Jakeria Road, Goregaon West, Mumbai - 400064, Dist.Mumbai, Maharashtra",7942710871,
Cartoon Character Velvet Polar Fleece Baby Blanket,https://www.indiamart.com/proddetail/polar-fleece-baby-blanket-2851931510773.html?pos=35&kwd=baby fleece blanket&tags=BA||||8747.203|Price|product|||TS|rsf:gd-|-stype:attr=1|qr_nm:gd|res:RC4|com-cf:nl|ptrs:na|ktp:N0|mc:99819|mtp:S|qry_typ:P|lang:en|wc:3|cs:8853|v=4,N.K Handloom,https://www.indiamart.com/nk-handloom-panipat/?pos=35&kwd=baby fleece blanket&tags=BA||||8747.203|Price|product|||TS|rsf:gd-|-stype:attr=1|qr_nm:gd|res:RC4|com-cf:nl|ptrs:na|ktp:N0|mc:99819|mtp:S|qry_typ:P|lang:en|wc:3|cs:8853|v=4,False,Pachranga Bazar,Panipat,"613/4, Near Valmiki Mandir, Pachranga Bazar, Pachranga Bazar, Panipat - 132103, Dist.Panipat, Haryana",7942827823,
"Printed Woolen Baby Fleece Blanket, Packaging Type: Plastic Bag",https://www.indiamart.com/proddetail/woolen-baby-fleece-blanket-19125294188.html?pos=36&kwd=baby fleece blanket&tags=BB||||8661.854|Price|product|||TS|rsf:gd-|-stype:attr=1|qr_nm:gd|res:RC4|com-cf:nl|ptrs:na|ktp:N0|mc:99819|mtp:S|qry_typ:P|lang:en|wc:3|cs:8853|v=4,Luxmi Trading,https://www.indiamart.com/luxmi-trading-ludhiana/?pos=36&kwd=baby fleece blanket&tags=BB||||8661.854|Price|product|||TS|rsf:gd-|-stype:attr=1|qr_nm:gd|res:RC4|com-cf:nl|ptrs:na|ktp:N0|mc:99819|mtp:S|qry_typ:P|lang:en|wc:3|cs:8853|v=4,False,Hargobind Pura,Ludhiana,"B-30-3908/A, Gali No. 5, Hargobind Pura Near Samrala Chowk, Hargobind Pura, Ludhiana - 141001, Dist.Ludhiana, Punjab",7942538623,
100% Polyester Pink Baby Fleece Blankets,https://www.indiamart.com/proddetail/baby-fleece-blankets-2175032630.html?pos=37&kwd=baby fleece blanket&tags=BA||||8747.203|Price|product|||TS|rsf:gd-|-stype:attr=1|qr_nm:gd|res:RC4|com-cf:nl|ptrs:na|ktp:N0|mc:99819|mtp:S|qry_typ:P|lang:en|wc:3|cs:8853|v=4,Vaibhav Exports,https://www.vaibhavexports.net/?pos=37&kwd=baby fleece blanket&tags=BA||||8747.203|Price|product|||TS|rsf:gd-|-stype:attr=1|qr_nm:gd|res:RC4|com-cf:nl|ptrs:na|ktp:N0|mc:99819|mtp:S|qry_typ:P|lang:en|wc:3|cs:8853|v=4,True,Huda,Panipat,"No. 603, Sector 12, Huda, Panipat - 132103, Dist.Panipat, Haryana",8048981000,
Cradle Togs Embroidered Fleece Baby Blankets,https://www.indiamart.com/proddetail/embroidered-fleece-baby-blankets-3807487633.html?pos=38&kwd=baby fleece blanket&tags=BB||||8752.144|Price|product|||TS|rsf:gd-|-stype:attr=1|qr_nm:gd|res:RC4|com-cf:nl|ptrs:na|ktp:N0|mc:99819|mtp:S|qry_typ:P|lang:en|wc:3|cs:8853|v=4,Man Singh & Sons Private Limited,https://www.babyproductsmanufacturer.com/?pos=38&kwd=baby fleece blanket&tags=BB||||8752.144|Price|product|||TS|rsf:gd-|-stype:attr=1|qr_nm:gd|res:RC4|com-cf:nl|ptrs:na|ktp:N0|mc:99819|mtp:S|qry_typ:P|lang:en|wc:3|cs:8853|v=4,False,Karol Bagh,New Delhi,"No. 13/24, 1st Floor, W. E. A., Karol Bagh, Karol Bagh, New Delhi - 110005, Dist.Delhi, Delhi",8048978579,
Fleece Baby Brown Blanket,https://www.indiamart.com/proddetail/baby-brown-blanket-2854022977730.html?pos=39&kwd=baby fleece blanket&tags=BA||||9848.189|Price|product|||TS|rsf:gd-|-stype:attr=1|qr_nm:gd|res:RC4|com-cf:nl|ptrs:na|ktp:N0|mc:99819|mtp:S|qry_typ:P|lang:en|wc:3|cs:8853|v=4,Balaji Stores,https://www.indiamart.com/balajistores-siliguri/?pos=39&kwd=baby fleece blanket&tags=BA||||9848.189|Price|product|||TS|rsf:gd-|-stype:attr=1|qr_nm:gd|res:RC4|com-cf:nl|ptrs:na|ktp:N0|mc:99819|mtp:S|qry_typ:P|lang:en|wc:3|cs:8853|v=4,False,,Siliguri,"H/22/8/188/273/737,,B ROAD WARD NO 12 P.O SILIGURI,Siliguri, Siliguri - 734001, Dist.Darjiling, West Bengal",8045734046,
Cartoon Character Baby Blanket Cum Towel Perfect for Bath and Snuggle Time,https://www.indiamart.com/proddetail/cartoon-character-baby-blanket-cum-towel-perfect-for-bath-and-snuggle-time-2854921594855.html?pos=40&kwd=baby fleece blanket&tags=BA||||8661.854|Price|product|||TS|rsf:gd-|-stype:attr=1|qr_nm:gd|res:RC4|com-cf:nl|ptrs:na|ktp:N0|mc:99819|mtp:S|qry_typ:P|lang:en|wc:3|cs:8853|v=4,Adwaita Export,https://www.indiamart.com/adwaitaexport/?pos=40&kwd=baby fleece blanket&tags=BA||||8661.854|Price|product|||TS|rsf:gd-|-stype:attr=1|qr_nm:gd|res:RC4|com-cf:nl|ptrs:na|ktp:N0|mc:99819|mtp:S|qry_typ:P|lang:en|wc:3|cs:8853|v=4,False,Joshi Nagar,Ludhiana,"B-34-3912,,DURGA PURI,HAIBOWAL KALAN LUDHIANA, Joshi Nagar, Ludhiana - 141001, Dist.Ludhiana, Punjab",8044015715,
"Multicolor Single Printed Baby Fleece Blanket, Size: 75x 45x 20mm (lxwxh)",https://www.indiamart.com/proddetail/printed-baby-fleece-blanket-21134203830.html?pos=41&kwd=baby fleece blanket&tags=BB||||8661.854|Price|product|||MDC|rsf:gd-|-stype:attr=1|qr_nm:gd|res:RC4|com-cf:nl|ptrs:na|ktp:N0|mc:99819|mtp:S|qry_typ:P|lang:en|wc:3|cs:8853|v=4,M S Fabrics,https://www.indiamart.com/fabricsludhiana/?pos=41&kwd=baby fleece blanket&tags=BB||||8661.854|Price|product|||MDC|rsf:gd-|-stype:attr=1|qr_nm:gd|res:RC4|com-cf:nl|ptrs:na|ktp:N0|mc:99819|mtp:S|qry_typ:P|lang:en|wc:3|cs:8853|v=4,False,Subhash Nagar,Ludhiana,"St No 6, Jodewal Basti, New Shakti Naga, Subhash Nagar, Ludhiana - 141007, Dist.Ludhiana, Punjab",8048613300,
Woolen Baby Sky Blue Fleece Blanket,https://www.indiamart.com/proddetail/baby-sky-blue-fleece-blanket-2853338630555.html?pos=42&kwd=baby fleece blanket&tags=BA||||8747.203|Price|product|||MDC|rsf:gd-|-stype:attr=1|qr_nm:gd|res:RC4|com-cf:nl|ptrs:na|ktp:N0|mc:99819|mtp:S|qry_typ:P|lang:en|wc:3|cs:8853|v=4,R K Handloom,https://www.indiamart.com/rkhandloom-haryana/?pos=42&kwd=baby fleece blanket&tags=BA||||8747.203|Price|product|||MDC|rsf:gd-|-stype:attr=1|qr_nm:gd|res:RC4|com-cf:nl|ptrs:na|ktp:N0|mc:99819|mtp:S|qry_typ:P|lang:en|wc:3|cs:8853|v=4,False,Bhainswal,Panipat,"Bhainswal Road, Near Gaushala, Village Bhainswal, Bhainswal, Panipat - 132103, Dist.Panipat, Haryana",7949226896,
"POSTIV Printed Baby Fleece Blanket, New Born To 3 Yrs, Size: 120x120",https://www.indiamart.com/proddetail/baby-fleece-blanket-22954604662.html?pos=43&kwd=baby fleece blanket&tags=BA||||8663.873|Price|product|||TS|rsf:gd-|-stype:attr=1|qr_nm:gd|res:RC4|com-cf:nl|ptrs:na|ktp:N0|mc:99819|mtp:S|qry_typ:P|lang:en|wc:3|cs:8853|v=4,Alpha Organics Clothing India,https://www.indiamart.com/alphaorganicsclothingindia/?pos=43&kwd=baby fleece blanket&tags=BA||||8663.873|Price|product|||TS|rsf:gd-|-stype:attr=1|qr_nm:gd|res:RC4|com-cf:nl|ptrs:na|ktp:N0|mc:99819|mtp:S|qry_typ:P|lang:en|wc:3|cs:8853|v=4,True,Indiranagar,Bengaluru,"NO.3037,INDIRANAGAR,8TH MAIN ROAD, HAL 2ND STAGE,BANGALORE, Indiranagar, Bengaluru - 560038, Dist.Bengaluru, Karnataka",7942540831,
"Multicolor Single Printed Baby Fleece Blanket, Size: 75x 45x 20mm (lxwxh)",https://www.indiamart.com/proddetail/printed-baby-fleece-blanket-21134203830.html?pos=44&kwd=baby fleece blanket&tags=BB||||8661.854|Price|product|||MDC|rsf:gd-|-stype:attr=1|qr_nm:gd|res:RC4|com-cf:nl|ptrs:na|ktp:N0|mc:99819|mtp:S|qry_typ:P|lang:en|wc:3|cs:8853|v=4,M S Fabrics,https://www.indiamart.com/fabricsludhiana/?pos=44&kwd=baby fleece blanket&tags=BB||||8661.854|Price|product|||MDC|rsf:gd-|-stype:attr=1|qr_nm:gd|res:RC4|com-cf:nl|ptrs:na|ktp:N0|mc:99819|mtp:S|qry_typ:P|lang:en|wc:3|cs:8853|v=4,False,Subhash Nagar,Ludhiana,"St No 6, Jodewal Basti, New Shakti Naga, Subhash Nagar, Ludhiana - 141007, Dist.Ludhiana, Punjab",8048613300,
Woolen Baby Sky Blue Fleece Blanket,https://www.indiamart.com/proddetail/baby-sky-blue-fleece-blanket-2853338630555.html?pos=45&kwd=baby fleece blanket&tags=BA||||8747.203|Price|product|||MDC|rsf:gd-|-stype:attr=1|qr_nm:gd|res:RC4|com-cf:nl|ptrs:na|ktp:N0|mc:99819|mtp:S|qry_typ:P|lang:en|wc:3|cs:8853|v=4,R K Handloom,https://www.indiamart.com/rkhandloom-haryana/?pos=45&kwd=baby fleece blanket&tags=BA||||8747.203|Price|product|||MDC|rsf:gd-|-stype:attr=1|qr_nm:gd|res:RC4|com-cf:nl|ptrs:na|ktp:N0|mc:99819|mtp:S|qry_typ:P|lang:en|wc:3|cs:8853|v=4,False,Bhainswal,Panipat,"Bhainswal Road, Near Gaushala, Village Bhainswal, Bhainswal, Panipat - 132103, Dist.Panipat, Haryana",7949226896,
Peach (Base) Baby Fleece Printed Blanket,https://www.indiamart.com/proddetail/baby-fleece-printed-blanket-2852954692688.html?pos=46&kwd=baby fleece blanket&tags=BA||||8211.142|Price|product|||MDC|rsf:gd-|-stype:attr=1|qr_nm:gd|res:RC4|com-cf:nl|ptrs:na|ktp:N0|mc:99819|mtp:S|qry_typ:P|lang:en|wc:3|cs:8853|v=4,Baby Boutique,https://www.indiamart.com/baby-boutiquemumbai/?pos=46&kwd=baby fleece blanket&tags=BA||||8211.142|Price|product|||MDC|rsf:gd-|-stype:attr=1|qr_nm:gd|res:RC4|com-cf:nl|ptrs:na|ktp:N0|mc:99819|mtp:S|qry_typ:P|lang:en|wc:3|cs:8853|v=4,False,Masjid Bandar,Mumbai,"7th, 95/99 Flat No. 701, Noori Tower, Sherriff Devi Street, Mandvi, Masjid Bandar, West Mumbai, Masjid Bandar, Mumbai - 400003, Dist.Mumbai, Maharashtra",7942960570,
Cartoon Character Baby Blue Fleece Blanket,https://www.indiamart.com/proddetail/baby-blue-fleece-blanket-2854557274488.html?pos=47&kwd=baby fleece blanket&tags=BA||||8747.203|Price|product|||MDC|rsf:gd-|-stype:attr=1|qr_nm:gd|res:RC4|com-cf:nl|ptrs:na|ktp:N0|mc:99819|mtp:S|qry_typ:P|lang:en|wc:3|cs:8853|v=4,Sai Impex,https://www.indiamart.com/sai-impex-panipat/?pos=47&kwd=baby fleece blanket&tags=BA||||8747.203|Price|product|||MDC|rsf:gd-|-stype:attr=1|qr_nm:gd|res:RC4|com-cf:nl|ptrs:na|ktp:N0|mc:99819|mtp:S|qry_typ:P|lang:en|wc:3|cs:8853|v=4,False,,Panipat,"581/4, Circular Road, Near Amar, Bhawan Chowk,, Panipat - 132103, Dist.Panipat, Haryana",7949329674,
Polar Fleece Baby Blanket,https://www.indiamart.com/proddetail/polar-fleece-baby-blanket-23213433191.html?pos=48&kwd=baby fleece blanket&tags=BA||||8747.203|Price|product|||MDC|rsf:gd-|-stype:attr=1|qr_nm:gd|res:RC4|com-cf:nl|ptrs:na|ktp:N0|mc:99819|mtp:S|qry_typ:P|lang:en|wc:3|cs:8853|v=4,J.R. Loomtex,https://www.indiamart.com/jr-loomtex-panipat/?pos=48&kwd=baby fleece blanket&tags=BA||||8747.203|Price|product|||MDC|rsf:gd-|-stype:attr=1|qr_nm:gd|res:RC4|com-cf:nl|ptrs:na|ktp:N0|mc:99819|mtp:S|qry_typ:P|lang:en|wc:3|cs:8853|v=4,False,Jagjivan Ram Colony,Panipat,"Opp Mahavir Dharam Kanta, Gohana Road, Jagjivan Ram Colony, Panipat - 132103, Dist.Panipat, Haryana",8046063067,
Fleece Brown Printed Baby Blanket,https://www.indiamart.com/proddetail/brown-printed-baby-blanket-2853110988112.html?pos=50&kwd=baby fleece blanket&tags=BA||||8752.144|Price|product|||MDC|rsf:gd-|-stype:attr=1|qr_nm:gd|res:RC4|com-cf:nl|ptrs:na|ktp:N0|mc:99819|mtp:S|qry_typ:P|lang:en|wc:3|cs:8853|v=4,Kidz Creation,https://www.indiamart.com/kidzcreation/?pos=50&kwd=baby fleece blanket&tags=BA||||8752.144|Price|product|||MDC|rsf:gd-|-stype:attr=1|qr_nm:gd|res:RC4|com-cf:nl|ptrs:na|ktp:N0|mc:99819|mtp:S|qry_typ:P|lang:en|wc:3|cs:8853|v=4,False,,New Delhi,"Shop No. 279/517,Sabharwal Market, Tolia Wali Gali Sadar Bazar, North Delhi,, New Delhi - 110006, Dist.Delhi, Delhi",8047679212,
Fleece Brown Printed Baby Blanket,https://www.indiamart.com/proddetail/brown-printed-baby-blanket-2853110988112.html?pos=50&kwd=baby fleece blanket&tags=BA||||8752.144|Price|product|||MDC|rsf:gd-|-stype:attr=1|qr_nm:gd|res:RC4|com-cf:nl|ptrs:na|ktp:N0|mc:99819|mtp:S|qry_typ:P|lang:en|wc:3|cs:8853|v=4,Kidz Creation,https://www.indiamart.com/kidzcreation/?pos=50&kwd=baby fleece blanket&tags=BA||||8752.144|Price|product|||MDC|rsf:gd-|-stype:attr=1|qr_nm:gd|res:RC4|com-cf:nl|ptrs:na|ktp:N0|mc:99819|mtp:S|qry_typ:P|lang:en|wc:3|cs:8853|v=4,False,,New Delhi,"Shop No. 279/517,Sabharwal Market, Tolia Wali Gali Sadar Bazar, North Delhi,, New Delhi - 110006, Dist.Delhi, Delhi",8047679212,
"Fleno world Diffrent colors Star fleece blanket, 35 kg Per Roll Approc, Size: Roll Of Fabric",https://www.indiamart.com/proddetail/star-fleece-blanket-27474924448.html?pos=51&kwd=baby fleece blanket&tags=BA||||8747.203|Price|product|||TS|rsf:gd-|-stype:attr=1|qr_nm:gd|res:RC4|com-cf:nl|ptrs:na|ktp:N0|mc:99819|mtp:S|qry_typ:P|lang:en|wc:3|cs:8853|v=4,Muskan Collections,https://www.indiamart.com/muskan-collections-haryana/?pos=51&kwd=baby fleece blanket&tags=BA||||8747.203|Price|product|||TS|rsf:gd-|-stype:attr=1|qr_nm:gd|res:RC4|com-cf:nl|ptrs:na|ktp:N0|mc:99819|mtp:S|qry_typ:P|lang:en|wc:3|cs:8853|v=4,False,Kabul Bagh,Panipat,"GALI NO 3 UGRA KHERI MOD, Kabul Bagh, Panipat - 132103, Dist.Panipat, Haryana",8047633020,
Fleece Printed Blanket,https://www.indiamart.com/proddetail/fleece-printed-blanket-22389993633.html?pos=52&kwd=baby fleece blanket&tags=BA||||8747.203|Price|product|||TS|rsf:gd-|-stype:attr=1|qr_nm:gd|res:RC4|com-cf:nl|ptrs:na|ktp:N0|mc:99819|mtp:S|qry_typ:P|lang:en|wc:3|cs:8853|v=4,Mansimrat Textiles,https://www.indiamart.com/mansimrat-textiles/?pos=52&kwd=baby fleece blanket&tags=BA||||8747.203|Price|product|||TS|rsf:gd-|-stype:attr=1|qr_nm:gd|res:RC4|com-cf:nl|ptrs:na|ktp:N0|mc:99819|mtp:S|qry_typ:P|lang:en|wc:3|cs:8853|v=4,False,Chawla Colony,Panipat,"Khasra No 295/2, Mansimrat Textiles, Ward-11 Near Matta Chowk, Chawla Colony, Panipat - 132103, Dist.Panipat, Haryana",8046040249,
"Velvet 6 colours Baby Blanket, Size: Singe, 1 Yr To 5 Yr",https://www.indiamart.com/proddetail/baby-blanket-2851815080288.html?pos=53&kwd=baby fleece blanket&tags=BA||||8559.269|Price|product|||TS|rsf:gd-|-stype:attr=1|qr_nm:gd|res:RC4|com-cf:nl|ptrs:na|ktp:N0|mc:99819|mtp:S|qry_typ:P|lang:en|wc:3|cs:8853|v=4,EEDDO,https://www.indiamart.com/eeddo/?pos=53&kwd=baby fleece blanket&tags=BA||||8559.269|Price|product|||TS|rsf:gd-|-stype:attr=1|qr_nm:gd|res:RC4|com-cf:nl|ptrs:na|ktp:N0|mc:99819|mtp:S|qry_typ:P|lang:en|wc:3|cs:8853|v=4,False,Chhipa Bakhal,Indore,"23/1, 2nd Floor, Chhipa Bakhal, Chhipa Bakhal, Indore - 452002, Dist.Indore, Madhya Pradesh",8048212052,
"Multicolor Mix Newborn Baby Wrap Blanket - Baby Smooth Polyester Blanket, Size: 70* 100cm",https://www.indiamart.com/proddetail/newborn-baby-wrap-blanket-baby-smooth-polyester-blanket-24242675662.html?pos=54&kwd=baby fleece blanket&tags=BA||||8230.883|Price|product|||TS|rsf:gd-|-stype:attr=1|qr_nm:gd|res:RC4|com-cf:nl|ptrs:na|ktp:N0|mc:99819|mtp:S|qry_typ:P|lang:en|wc:3|cs:8853|v=4,The Guru Shop,https://www.indiamart.com/thegurushop/?pos=54&kwd=baby fleece blanket&tags=BA||||8230.883|Price|product|||TS|rsf:gd-|-stype:attr=1|qr_nm:gd|res:RC4|com-cf:nl|ptrs:na|ktp:N0|mc:99819|mtp:S|qry_typ:P|lang:en|wc:3|cs:8853|v=4,False,Katargam,Surat,"F-33/34, 1st Floor, Radhe Shyam Society, Near Singanpore Char Rasta, Ved Road,, Katargam, Surat - 395004, Dist.Surat, Gujarat",8046037459,
Baby Blanket 0-2 Years - Crib Infant Blanket for Boys & Girls (2 Layer Reversible),https://www.indiamart.com/proddetail/baby-blanket-0-2-years-crib-infant-blanket-for-boys-girls-2-layer-reversible-21361766397.html?pos=55&kwd=baby fleece blanket&tags=BA||||8668.838|Price|product|||TS|rsf:gd-|-stype:attr=1|qr_nm:gd|res:RC4|com-cf:nl|ptrs:na|ktp:N0|mc:99819|mtp:S|qry_typ:P|lang:en|wc:3|cs:8853|v=4,Sri Kalyan Export Private Limited,https://www.firstinbabydress.com/?pos=55&kwd=baby fleece blanket&tags=BA||||8668.838|Price|product|||TS|rsf:gd-|-stype:attr=1|qr_nm:gd|res:RC4|com-cf:nl|ptrs:na|ktp:N0|mc:99819|mtp:S|qry_typ:P|lang:en|wc:3|cs:8853|v=4,False,Vilarasampatti,Erode,"192/4, Ishwarya Garden, Sengodampalayam, Villarasampatti Post, Erode,, Vilarasampatti, Erode - 638107, Dist.Erode, Tamil Nadu",8046030291,
Fleece Blankets,https://www.indiamart.com/proddetail/fleece-blankets-23830956833.html?pos=56&kwd=baby fleece blanket&tags=BA||||8747.203|Price|product|||TS|rsf:gd-|-stype:attr=1|qr_nm:gd|res:RC4|com-cf:nl|ptrs:na|ktp:N0|mc:99819|mtp:S|qry_typ:P|lang:en|wc:3|cs:8853|v=4,Vijay Luxmi Textiles,https://www.indiamart.com/vijay-luxmi-textiles/?pos=56&kwd=baby fleece blanket&tags=BA||||8747.203|Price|product|||TS|rsf:gd-|-stype:attr=1|qr_nm:gd|res:RC4|com-cf:nl|ptrs:na|ktp:N0|mc:99819|mtp:S|qry_typ:P|lang:en|wc:3|cs:8853|v=4,False,Old Housing Board Colony,Panipat,"Prem Palace Wali Gali, Pehalwan Chowk, Kutani Road,, Old Housing Board Colony, Panipat - 132103, Dist.Panipat, Haryana",8047641770,
"Multicolor Cotton Magic Kids Blackest, Size: Singe",https://www.indiamart.com/proddetail/magic-kids-blackest-2851632874662.html?pos=57&kwd=baby fleece blanket&tags=BA||||8211.142|Price|product|||TS|rsf:gd-|-stype:attr=1|qr_nm:gd|res:RC4|com-cf:nl|ptrs:na|ktp:N0|mc:99819|mtp:S|qry_typ:P|lang:en|wc:3|cs:8853|v=4,Morebuy Store,https://www.indiamart.com/morebuystore/?pos=57&kwd=baby fleece blanket&tags=BA||||8211.142|Price|product|||TS|rsf:gd-|-stype:attr=1|qr_nm:gd|res:RC4|com-cf:nl|ptrs:na|ktp:N0|mc:99819|mtp:S|qry_typ:P|lang:en|wc:3|cs:8853|v=4,False,Masjid Bandar,Mumbai,"11/15,Khimji Meghji House,Essaji Street, Vadgadi,Masjid Station,Mumbai 11/15, First Floor, Khimji Meghji House, Essaji Street, Vadgadi, Masjid Station, Mumbai Suburban,40, Masjid Bandar, Mumbai - 400003, Dist.Mumbai, Maharashtra",8043863644,
Cellular Baby Blanket,,Uncle Benit Global Inc,https://www.indiamart.com/unclebenitglobal/?pos=58&kwd=baby fleece blanket&tags=A||||8661.854||product|||TS|rsf:gd-|-stype:attr=1|qr_nm:gd|res:RC4|com-cf:nl|ptrs:na|ktp:N0|mc:99819|mtp:S|qry_typ:P|lang:en|wc:3|cs:8853|v=4,False,Mundian,Ludhiana,"Opposite Fortis Hospital, NH-95 Chandigarh Road, Mundian Khurd, Mundian, Ludhiana - 141110, Dist.Ludhiana, Punjab",8046075831,
Newborn Baby Blankets all types,https://www.indiamart.com/proddetail/newborn-baby-blankets-all-types-2850539857497.html?pos=59&kwd=baby fleece blanket&tags=BB||||8677.154|Price|product|||MDC|rsf:gd-|-stype:attr=1|qr_nm:gd|res:RC4|com-cf:nl|ptrs:na|ktp:N0|mc:99819|mtp:S|qry_typ:P|lang:en|wc:3|cs:8853|v=4,Divisha International,https://www.indiamart.com/divishainternational/?pos=59&kwd=baby fleece blanket&tags=BB||||8677.154|Price|product|||MDC|rsf:gd-|-stype:attr=1|qr_nm:gd|res:RC4|com-cf:nl|ptrs:na|ktp:N0|mc:99819|mtp:S|qry_typ:P|lang:en|wc:3|cs:8853|v=4,False,Doraha,Doraha,"C-25, Punjab Apparel Park, Near Macdonalds, GT. Road, Doraha, Doraha - 141421, Dist.Ludhiana, Punjab",7942623438,
Printed Baby Blanket,,RR Creations,https://www.rrcreation.co.in/?pos=60&kwd=baby fleece blanket&tags=B||||8601.347|Price|product|||TS|rsf:gd-|-stype:attr=1|qr_nm:gd|res:RC4|com-cf:nl|ptrs:na|ktp:N0|mc:99819|mtp:S|qry_typ:P|lang:en|wc:3|cs:8853|v=4,False,Raghunathgarh,Jaipur,"A7D, Raghunath Colony, Galta Gate, Raghunathgarh, Jaipur - 302003, Dist.Jaipur, Rajasthan",8047620731,
"OS Wool Plain Polar Fleece Blanket, 1 kg, Size: 230 X 150 cm",https://www.indiamart.com/proddetail/plain-polar-fleece-blanket-23184592762.html?pos=61&kwd=baby fleece blanket&tags=BA||||8747.203|Price|proxy|||TS|rsf:gd-|-stype:attr=1|qr_nm:gd|res:RC4|com-cf:nl|ptrs:na|ktp:N0|mc:99819|mtp:S|qry_typ:P|lang:en|wc:3|cs:8853|v=4,Om Shakti Textiles,https://www.omshaktitextiles.com/?pos=61&kwd=baby fleece blanket&tags=BA||||8747.203|Price|proxy|||TS|rsf:gd-|-stype:attr=1|qr_nm:gd|res:RC4|com-cf:nl|ptrs:na|ktp:N0|mc:99819|mtp:S|qry_typ:P|lang:en|wc:3|cs:8853|v=4,False,Huda,Panipat,"Plot No. 299-300, Sector 29, Part I, Huda, Panipat - 132103, Dist.Panipat, Haryana",8048951194,
"Multicolor Single Baby Fleece Blanket, Size: 100*75",https://www.indiamart.com/proddetail/baby-fleece-blanket-25190942912.html?pos=62&kwd=baby fleece blanket&tags=BB||||8230.883|Price|product|||NA|rsf:gd-|-stype:attr=1|qr_nm:gd|res:RC4|com-cf:nl|ptrs:na|ktp:N0|mc:99819|mtp:S|qry_typ:P|lang:en|wc:3|cs:8853|v=4,Cushion Villa,https://www.indiamart.com/cushion-villa/?pos=62&kwd=baby fleece blanket&tags=BB||||8230.883|Price|product|||NA|rsf:gd-|-stype:attr=1|qr_nm:gd|res:RC4|com-cf:nl|ptrs:na|ktp:N0|mc:99819|mtp:S|qry_typ:P|lang:en|wc:3|cs:8853|v=4,False,Aambatalavdi,Surat,"304,Zircon Plus, Opp Avalon Business Centre, Katargam, Aambatalavdi, Surat - 395004, Dist.Surat, Gujarat",8047797428,
"Purple Printed Baby Fleece Blanket, Size: 3.5x2feet",https://www.indiamart.com/proddetail/baby-fleece-blanket-24223235655.html?pos=63&kwd=baby fleece blanket&tags=BB||||8749.74|Price|product|||NA|rsf:gd-|-stype:attr=1|qr_nm:gd|res:RC4|com-cf:nl|ptrs:na|ktp:N0|mc:99819|mtp:S|qry_typ:P|lang:en|wc:3|cs:8853|v=4,Sram Trading,https://www.indiamart.com/sramtrading/?pos=63&kwd=baby fleece blanket&tags=BB||||8749.74|Price|product|||NA|rsf:gd-|-stype:attr=1|qr_nm:gd|res:RC4|com-cf:nl|ptrs:na|ktp:N0|mc:99819|mtp:S|qry_typ:P|lang:en|wc:3|cs:8853|v=4,False,,Gharaunda,"Opp. Anil Star Mobile Communication ,Nr. Punjab National Bank Seema Devi W/o Sh Jai Parkash Khewat No. 77, Khatoni No. 147 Alipur Khalsa Road Vpo Kohand Tehsil Gharaunda, Gharaunda - 132114, Dist.Karnal, Haryana",8045909213,
"Rubru Printed Baby Fleece Blanket, Size: 70x140 cm",https://www.indiamart.com/proddetail/baby-fleece-blanket-26793460212.html?pos=64&kwd=baby fleece blanket&tags=BB||||8747.203|Price|product|||NA|rsf:gd-|-stype:attr=1|qr_nm:gd|res:RC4|com-cf:nl|ptrs:na|ktp:N0|mc:99819|mtp:S|qry_typ:P|lang:en|wc:3|cs:8853|v=4,Vaishnavi International,https://www.indiamart.com/vaishnaviinternational-panipat/?pos=64&kwd=baby fleece blanket&tags=BB||||8747.203|Price|product|||NA|rsf:gd-|-stype:attr=1|qr_nm:gd|res:RC4|com-cf:nl|ptrs:na|ktp:N0|mc:99819|mtp:S|qry_typ:P|lang:en|wc:3|cs:8853|v=4,False,,Panipat,"273, Amar Bhawan Chowk Road, Panipat - 132103, Dist.Panipat, Haryana",8043890810,
"Soft Plush Yellow Baby Fleece Blanket, Upto 3 Years, Size: 4 X 3 Feet",https://www.indiamart.com/proddetail/baby-fleece-blanket-23511169688.html?pos=65&kwd=baby fleece blanket&tags=BB||||9839.57|Price|product|||NA|rsf:gd-|-stype:attr=1|qr_nm:gd|res:RC4|com-cf:nl|ptrs:na|ktp:N0|mc:99819|mtp:S|qry_typ:P|lang:en|wc:3|cs:8853|v=4,Vijay Traders,https://www.indiamart.com/vijaytraders-kolkata/?pos=65&kwd=baby fleece blanket&tags=BB||||9839.57|Price|product|||NA|rsf:gd-|-stype:attr=1|qr_nm:gd|res:RC4|com-cf:nl|ptrs:na|ktp:N0|mc:99819|mtp:S|qry_typ:P|lang:en|wc:3|cs:8853|v=4,False,Jamunalal Bajaj Street,Kolkata,"Shop No. 74,, Jamunalal Bajaj Street, Kolkata - 700007, Dist.Kolkata, West Bengal",8047694119,
"Printed Baby Fleece Blanket, Size: 26*32, New Born To 8 Month",https://www.indiamart.com/proddetail/baby-fleece-blanket-21422128548.html?pos=66&kwd=baby fleece blanket&tags=BB||||8661.854|Price|product|||NA|rsf:gd-|-stype:attr=1|qr_nm:gd|res:RC4|com-cf:nl|ptrs:na|ktp:N0|mc:99819|mtp:S|qry_typ:P|lang:en|wc:3|cs:8853|v=4,Adhishwar Knitfab,https://www.indiamart.com/adhishwar-knit-fab/?pos=66&kwd=baby fleece blanket&tags=BB||||8661.854|Price|product|||NA|rsf:gd-|-stype:attr=1|qr_nm:gd|res:RC4|com-cf:nl|ptrs:na|ktp:N0|mc:99819|mtp:S|qry_typ:P|lang:en|wc:3|cs:8853|v=4,False,,Ludhiana,"4463/1,ADHISHWAR KNIT FAB, ST.NO.7,NEW MADHOPURI 4463/1, Street No. 7, New Madhopuri,141007,Ludhiana, Ludhiana - 141008, Dist.Ludhiana, Punjab",8048371508,227
5 colours available Baby Fleece Blanket,https://www.indiamart.com/proddetail/baby-fleece-blanket-2852579744055.html?pos=67&kwd=baby fleece blanket&tags=BA||||8661.854|Price|product|||NA|rsf:gd-|-stype:attr=1|qr_nm:gd|res:RC4|com-cf:nl|ptrs:na|ktp:N0|mc:99819|mtp:S|qry_typ:P|lang:en|wc:3|cs:8853|v=4,Solax Knitwears,https://www.indiamart.com/solax-knitwears-ludhiana/?pos=67&kwd=baby fleece blanket&tags=BA||||8661.854|Price|product|||NA|rsf:gd-|-stype:attr=1|qr_nm:gd|res:RC4|com-cf:nl|ptrs:na|ktp:N0|mc:99819|mtp:S|qry_typ:P|lang:en|wc:3|cs:8853|v=4,False,Sunder Nagar,Ludhiana,"1096, Hazuri Road, Solax Knitwears,, Sunder Nagar, Ludhiana - 141008, Dist.Ludhiana, Punjab",7942868080,
Baby Fleece Blanket,https://www.indiamart.com/proddetail/baby-fleece-blanket-15910715530.html?pos=68&kwd=baby fleece blanket&tags=BA||||8661.854|Price|product|||NA|rsf:gd-|-stype:attr=1|qr_nm:gd|res:RC4|com-cf:nl|ptrs:na|ktp:N0|mc:99819|mtp:S|qry_typ:P|lang:en|wc:3|cs:8853|v=4,Gopal Darshan Textile,https://www.indiamart.com/gopal-darshan-textiles/?pos=68&kwd=baby fleece blanket&tags=BA||||8661.854|Price|product|||NA|rsf:gd-|-stype:attr=1|qr_nm:gd|res:RC4|com-cf:nl|ptrs:na|ktp:N0|mc:99819|mtp:S|qry_typ:P|lang:en|wc:3|cs:8853|v=4,False,,Ludhiana,"3929/3 Hargobind Pura 4, Ludhiana - 141008, Dist.Ludhiana, Punjab",8048956657,
"Baby Fleece Blanket, Packaging Type: Packet, 0-1 Year",https://www.indiamart.com/proddetail/baby-fleece-blanket-21578177512.html?pos=69&kwd=baby fleece blanket&tags=BB||||8661.854|Price|product|||NA|rsf:gd-|-stype:attr=1|qr_nm:gd|res:RC4|com-cf:nl|ptrs:na|ktp:N0|mc:99819|mtp:S|qry_typ:P|lang:en|wc:3|cs:8853|v=4,Raghav Enterprises,https://www.indiamart.com/raghaventerprisesludhiana/?pos=69&kwd=baby fleece blanket&tags=BB||||8661.854|Price|product|||NA|rsf:gd-|-stype:attr=1|qr_nm:gd|res:RC4|com-cf:nl|ptrs:na|ktp:N0|mc:99819|mtp:S|qry_typ:P|lang:en|wc:3|cs:8853|v=4,False,,Ludhiana,"B-XXX-1728,NEAR RAILWAY MALL GODOWN, DHANDARI KALAN,FOCAL POINT SIDE B Xxx-1728, Near Railway Malgodown, Dhandari Kalan, Behind Kamla Dharam Kanda,141010,Ludhiana, Ludhiana - 141001, Dist.Ludhiana, Punjab",8048371514,659
"Baby Printed Polar Fleece Blanket, 0-6 Months",https://www.indiamart.com/proddetail/baby-printed-polar-fleece-blanket-23485698333.html?pos=70&kwd=baby fleece blanket&tags=BB||||8661.854||product|||NA|rsf:gd-|-stype:attr=1|qr_nm:gd|res:RC4|com-cf:nl|ptrs:na|ktp:N0|mc:99819|mtp:S|qry_typ:P|lang:en|wc:3|cs:8853|v=4,Goyal Textiles,https://www.indiamart.com/goyal-textiles/?pos=70&kwd=baby fleece blanket&tags=BB||||8661.854||product|||NA|rsf:gd-|-stype:attr=1|qr_nm:gd|res:RC4|com-cf:nl|ptrs:na|ktp:N0|mc:99819|mtp:S|qry_typ:P|lang:en|wc:3|cs:8853|v=4,False,,Ludhiana,"B VIII 343, Mochpura Bazar, Gali No. 1 Near Gujral Shawl Market, Ludhiana - 141008, Dist.Ludhiana, Punjab",8069033835,499
"Jiffy Newborn Baby Fleece Blanket Pillow Set, 12 Months, Size: 30 X 40 Inches",https://www.indiamart.com/proddetail/newborn-baby-fleece-blanket-pillow-set-25119787712.html?pos=71&kwd=baby fleece blanket&tags=BB||||8785.791|Price|product|||NA|rsf:gd-|-stype:attr=1|qr_nm:gd|res:RC4|com-cf:nl|ptrs:na|ktp:N0|mc:99819|mtp:S|qry_typ:P|lang:en|wc:3|cs:8853|v=4,Jiffy Apparels,https://www.indiamart.com/jiffy-apparels/?pos=71&kwd=baby fleece blanket&tags=BB||||8785.791|Price|product|||NA|rsf:gd-|-stype:attr=1|qr_nm:gd|res:RC4|com-cf:nl|ptrs:na|ktp:N0|mc:99819|mtp:S|qry_typ:P|lang:en|wc:3|cs:8853|v=4,False,,Ghaziabad,"E-28, Sector A-1, Tronica City Loni, Ghaziabad - 201102, Dist.Ghaziabad, Uttar Pradesh",8048207193,
"Blue Baby Printed Fleece Blanket, Newly Born, Size: 27X20inch",https://www.indiamart.com/proddetail/baby-printed-fleece-blanket-25940367773.html?pos=72&kwd=baby fleece blanket&tags=BB||||8785.791|Price|product|||NA|rsf:gd-|-stype:attr=1|qr_nm:gd|res:RC4|com-cf:nl|ptrs:na|ktp:N0|mc:99819|mtp:S|qry_typ:P|lang:en|wc:3|cs:8853|v=4,Gagan Fabrics,https://www.indiamart.com/gaganfabricspilkhuwa/?pos=72&kwd=baby fleece blanket&tags=BB||||8785.791|Price|product|||NA|rsf:gd-|-stype:attr=1|qr_nm:gd|res:RC4|com-cf:nl|ptrs:na|ktp:N0|mc:99819|mtp:S|qry_typ:P|lang:en|wc:3|cs:8853|v=4,False,,Ghaziabad,"Gagan Fabrics, Chandi Road,Hapur, Ghaziabad - 245304, Dist.Ghaziabad, Uttar Pradesh",8047675950,
"Pink Plain Baby Flannel Fleece Blanket, 0-12 Months",https://www.indiamart.com/proddetail/baby-flannel-fleece-blanket-26076503030.html?pos=73&kwd=baby fleece blanket&tags=BB||||8747.203|Price|product|||NA|rsf:gd-|-stype:attr=1|qr_nm:gd|res:RC4|com-cf:nl|ptrs:na|ktp:N0|mc:99819|mtp:S|qry_typ:P|lang:en|wc:3|cs:8853|v=4,Mahaluxmi Enterprises,https://www.indiamart.com/mahaluxmi-enterprisespanipat/?pos=73&kwd=baby fleece blanket&tags=BB||||8747.203|Price|product|||NA|rsf:gd-|-stype:attr=1|qr_nm:gd|res:RC4|com-cf:nl|ptrs:na|ktp:N0|mc:99819|mtp:S|qry_typ:P|lang:en|wc:3|cs:8853|v=4,False,,Panipat,"H.No-280/14, Mahalaxmi Enterprises Ganga Puri Road,, Panipat - 132103, Dist.Panipat, Haryana",8043859681,
"Baby Printed Fleece Blanket, Up To 1 Year, Size: 26*36 Inches",https://www.indiamart.com/proddetail/baby-printed-fleece-blanket-21619537888.html?pos=74&kwd=baby fleece blanket&tags=BB||||8661.854|Price|product|||NA|rsf:gd-|-stype:attr=1|qr_nm:gd|res:RC4|com-cf:nl|ptrs:na|ktp:N0|mc:99819|mtp:S|qry_typ:P|lang:en|wc:3|cs:8853|v=4,Navkar Textiles,https://www.indiamart.com/navkartextilespunjab/?pos=74&kwd=baby fleece blanket&tags=BB||||8661.854|Price|product|||NA|rsf:gd-|-stype:attr=1|qr_nm:gd|res:RC4|com-cf:nl|ptrs:na|ktp:N0|mc:99819|mtp:S|qry_typ:P|lang:en|wc:3|cs:8853|v=4,False,,Ludhiana,"E1, 2925 B, Phase C, Street No. 1 Guru Vihar, Rahon Road, Ludhiana - 141007, Dist.Ludhiana, Punjab",8043876514,
"Orange Cartoon Printed Baby Fleece Blanket, Size: 12 X 18 Inch",https://www.indiamart.com/proddetail/printed-baby-fleece-blanket-26447632097.html?pos=75&kwd=baby fleece blanket&tags=BB||||8747.203|Price|product|||NA|rsf:gd-|-stype:attr=1|qr_nm:gd|res:RC4|com-cf:nl|ptrs:na|ktp:N0|mc:99819|mtp:S|qry_typ:P|lang:en|wc:3|cs:8853|v=4,Parko Handloom,https://www.indiamart.com/parko-handloom/?pos=75&kwd=baby fleece blanket&tags=BB||||8747.203|Price|product|||NA|rsf:gd-|-stype:attr=1|qr_nm:gd|res:RC4|com-cf:nl|ptrs:na|ktp:N0|mc:99819|mtp:S|qry_typ:P|lang:en|wc:3|cs:8853|v=4,False,,Panipat,"1126/3, Parko Handloom, Pachranga Bazar, Panipat - 132103, Dist.Panipat, Haryana",8048272847,
White (Base) Pizza Print Kids Fleece Blanket,https://www.indiamart.com/proddetail/pizza-print-kids-fleece-blanket-2853140357962.html?pos=76&kwd=baby fleece blanket&tags=BA||||8211.142|Price|product|||NA|rsf:gd-|-stype:attr=1|qr_nm:gd|res:RC4|com-cf:nl|ptrs:na|ktp:N0|mc:99819|mtp:S|qry_typ:P|lang:en|wc:3|cs:8853|v=4,Moms' Nest,https://www.indiamart.com/moms-nest/?pos=76&kwd=baby fleece blanket&tags=BA||||8211.142|Price|product|||NA|rsf:gd-|-stype:attr=1|qr_nm:gd|res:RC4|com-cf:nl|ptrs:na|ktp:N0|mc:99819|mtp:S|qry_typ:P|lang:en|wc:3|cs:8853|v=4,False,Saki Naka,Mumbai,"2nd Floor, 202, Vaz Villa, I C Colony, Borivali West, Mumbai Suburban, Saki Naka, Mumbai - 400103, Dist.Mumbai, Maharashtra",7942960731,
"Peach Printed Fleece Kids Blanket, Size: 118x118 cm",https://www.indiamart.com/proddetail/fleece-kids-blanket-26040951791.html?pos=77&kwd=baby fleece blanket&tags=BB||||8228.275|Price|product|||NA|rsf:gd-|-stype:attr=1|qr_nm:gd|res:RC4|com-cf:nl|ptrs:na|ktp:N0|mc:99819|mtp:S|qry_typ:P|lang:en|wc:3|cs:8853|v=4,Velanto,https://www.indiamart.com/velanto-ahmedabad/?pos=77&kwd=baby fleece blanket&tags=BB||||8228.275|Price|product|||NA|rsf:gd-|-stype:attr=1|qr_nm:gd|res:RC4|com-cf:nl|ptrs:na|ktp:N0|mc:99819|mtp:S|qry_typ:P|lang:en|wc:3|cs:8853|v=4,False,,Ahmedabad,"Vrundavan Residency, Block B, FF-Shop-102, Opp Yogeshwar Park, Nr Shreenathji Ni Haveli, Ahmedabad - 382350, Dist.Ahmedabad, Gujarat",8043855011,
"Skin Plain Hooded Polar Fleece Baby Blanket, Size: 25x35 Inch",https://www.indiamart.com/proddetail/hooded-polar-fleece-baby-blanket-25987286230.html?pos=78&kwd=baby fleece blanket&tags=BB||||8747.203||product|||NA|rsf:gd-|-stype:attr=1|qr_nm:gd|res:RC4|com-cf:nl|ptrs:na|ktp:N0|mc:99819|mtp:S|qry_typ:P|lang:en|wc:3|cs:8853|v=4,Yash Wooltex,https://www.indiamart.com/yashwooltex/?pos=78&kwd=baby fleece blanket&tags=BB||||8747.203||product|||NA|rsf:gd-|-stype:attr=1|qr_nm:gd|res:RC4|com-cf:nl|ptrs:na|ktp:N0|mc:99819|mtp:S|qry_typ:P|lang:en|wc:3|cs:8853|v=4,False,,Panipat,"Opp Shivam Furnishings, Hotel Wali Gali, Kutani Road, Panipat - 132103, Dist.Panipat, Haryana",8043854666,
Pandaoriginals Embroidered Fleece Baby Blanket Wrapper Combo,https://www.indiamart.com/proddetail/fleece-baby-blanket-wrapper-combo-23292599255.html?pos=79&kwd=baby fleece blanket&tags=BB||||8752.144|Price|product|||NA|rsf:gd-|-stype:attr=1|qr_nm:gd|res:RC4|com-cf:nl|ptrs:na|ktp:N0|mc:99819|mtp:S|qry_typ:P|lang:en|wc:3|cs:8853|v=4,Jain Trendz,https://www.indiamart.com/jaintrendznewdelhi/?pos=79&kwd=baby fleece blanket&tags=BB||||8752.144|Price|product|||NA|rsf:gd-|-stype:attr=1|qr_nm:gd|res:RC4|com-cf:nl|ptrs:na|ktp:N0|mc:99819|mtp:S|qry_typ:P|lang:en|wc:3|cs:8853|v=4,False,near Pacific Mall,New Delhi,"4/66 Sahibabad Industrial area Site 4 Ghaziabad, near Pacific Mall, New Delhi - 110029, Dist.Delhi, Delhi",8048609979,
"Blue Printed Little Cubs Star Print Fleece Baby Blanket, 0-12 Months, Size: 75 X 98 Cms",https://www.indiamart.com/proddetail/little-cubs-star-print-fleece-baby-blanket-21398874888.html?pos=80&kwd=baby fleece blanket&tags=BB||||8752.144|Price|product|||NA|rsf:gd-|-stype:attr=1|qr_nm:gd|res:RC4|com-cf:nl|ptrs:na|ktp:N0|mc:99819|mtp:S|qry_typ:P|lang:en|wc:3|cs:8853|v=4,Navkaar Traders,https://www.indiamart.com/navkaartraders/?pos=80&kwd=baby fleece blanket&tags=BB||||8752.144|Price|product|||NA|rsf:gd-|-stype:attr=1|qr_nm:gd|res:RC4|com-cf:nl|ptrs:na|ktp:N0|mc:99819|mtp:S|qry_typ:P|lang:en|wc:3|cs:8853|v=4,False,Mahendru Enclave,New Delhi,"C-37, 1st Floor, Gali No. 3, Mahendru Enclave, Mahendru Enclave, New Delhi - 110033, Dist.Delhi, Delhi",7942532296,
"Mirco Polyester Polar Fleece Baby Blanket with Hood, Packaging Type: Single Piece Packing, 210 Grm",https://www.indiamart.com/proddetail/polar-fleece-baby-blanket-with-hood-2851822126330.html?pos=81&kwd=baby fleece blanket&tags=BA||||8211.142||product|||NA|rsf:gd-|-stype:attr=1|qr_nm:gd|res:RC4|com-cf:nl|ptrs:na|ktp:N0|mc:99819|mtp:S|qry_typ:P|lang:en|wc:3|cs:8853|v=4,Dee Bee & Co.,https://www.indiamart.com/me-nmoms/?pos=81&kwd=baby fleece blanket&tags=BA||||8211.142||product|||NA|rsf:gd-|-stype:attr=1|qr_nm:gd|res:RC4|com-cf:nl|ptrs:na|ktp:N0|mc:99819|mtp:S|qry_typ:P|lang:en|wc:3|cs:8853|v=4,False,,Mumbai,"A-202, 2nd floor, Aaradhya Nalanda, R B Mehta Marg, Mumbai, Mumbai Suburban, Mumbai - 400077, Dist.Mumbai, Maharashtra",7942792773,
"Multicolor Petals Kids and Baby Fleece Blanket 90x120 cm, Size: Singe",https://www.indiamart.com/proddetail/petals-kids-and-baby-fleece-blanket-90x120-cm-2851974612233.html?pos=82&kwd=baby fleece blanket&tags=BA||||8747.203||product|||NA|rsf:gd-|-stype:attr=1|qr_nm:gd|res:RC4|com-cf:nl|ptrs:na|ktp:N0|mc:99819|mtp:S|qry_typ:P|lang:en|wc:3|cs:8853|v=4,Vivek Woollen Ind.,https://www.indiamart.com/vivekwoollenindustries/?pos=82&kwd=baby fleece blanket&tags=BA||||8747.203||product|||NA|rsf:gd-|-stype:attr=1|qr_nm:gd|res:RC4|com-cf:nl|ptrs:na|ktp:N0|mc:99819|mtp:S|qry_typ:P|lang:en|wc:3|cs:8853|v=4,False,,Panipat,"38, Old Housing Board Colony, Panipat, Panipat - 132103, Dist.Panipat, Haryana",8048210193,
Fleece Baby Swaddle Blanket,https://www.indiamart.com/proddetail/baby-swaddle-blanket-19893033188.html?pos=83&kwd=baby fleece blanket&tags=BA||||8661.854|Price|product|||NA|rsf:gd-|-stype:attr=1|qr_nm:gd|res:RC4|com-cf:nl|ptrs:na|ktp:N0|mc:99819|mtp:S|qry_typ:P|lang:en|wc:3|cs:8853|v=4,Sai Trading Company,https://www.indiamart.com/sai-trading-company/?pos=83&kwd=baby fleece blanket&tags=BA||||8661.854|Price|product|||NA|rsf:gd-|-stype:attr=1|qr_nm:gd|res:RC4|com-cf:nl|ptrs:na|ktp:N0|mc:99819|mtp:S|qry_typ:P|lang:en|wc:3|cs:8853|v=4,False,Naya Mohalla,Ludhiana,"139-B-Viii, Mochpura Bazar, Naya Mohalla, Ludhiana - 141008, Dist.Ludhiana, Punjab",8046057087,
Size: Single Fleece Pink Mermaid Glow Blanket,https://www.indiamart.com/proddetail/pink-mermaid-baby-glow-blanket-2854947379448.html?pos=84&kwd=baby fleece blanket&tags=BB||||8211.142|Price|product|||NA|rsf:gd-|-stype:attr=1|qr_nm:gd|res:RC4|com-cf:nl|ptrs:na|ktp:N0|mc:99819|mtp:S|qry_typ:P|lang:en|wc:3|cs:8853|v=4,Glam Aroma Cosmetics,https://www.indiamart.com/glamaroma/?pos=84&kwd=baby fleece blanket&tags=BB||||8211.142|Price|product|||NA|rsf:gd-|-stype:attr=1|qr_nm:gd|res:RC4|com-cf:nl|ptrs:na|ktp:N0|mc:99819|mtp:S|qry_typ:P|lang:en|wc:3|cs:8853|v=4,False,,Mumbai,"157, 08, W.R.E.B Staff Qtrs, New D.N Nagar Andheri East Mumbai Suburban,, Mumbai - 400053, Dist.Mumbai, Maharashtra",8048370732,1251
"Baby Printed Fleece Blanket, Up To 1 Year, Size: 26*36 Inches",https://www.indiamart.com/proddetail/baby-printed-fleece-blanket-21619537888.html?pos=85&kwd=baby fleece blanket&tags=BB||||8661.854|Price|product|||NA|rsf:gd-|-stype:attr=1|qr_nm:gd|res:RC4|com-cf:nl|ptrs:na|ktp:N0|mc:99819|mtp:S|qry_typ:P|lang:en|wc:3|cs:8853|v=4,Navkar Textiles,https://www.indiamart.com/navkartextilespunjab/?pos=85&kwd=baby fleece blanket&tags=BB||||8661.854|Price|product|||NA|rsf:gd-|-stype:attr=1|qr_nm:gd|res:RC4|com-cf:nl|ptrs:na|ktp:N0|mc:99819|mtp:S|qry_typ:P|lang:en|wc:3|cs:8853|v=4,False,,Ludhiana,"E1, 2925 B, Phase C, Street No. 1 Guru Vihar, Rahon Road, Ludhiana - 141007, Dist.Ludhiana, Punjab",8043876514,
"Peach Printed Fleece Kids Blanket, Size: 118x118 cm",https://www.indiamart.com/proddetail/fleece-kids-blanket-26040951791.html?pos=86&kwd=baby fleece blanket&tags=BB||||8228.275|Price|product|||NA|rsf:gd-|-stype:attr=1|qr_nm:gd|res:RC4|com-cf:nl|ptrs:na|ktp:N0|mc:99819|mtp:S|qry_typ:P|lang:en|wc:3|cs:8853|v=4,Velanto,https://www.indiamart.com/velanto-ahmedabad/?pos=86&kwd=baby fleece blanket&tags=BB||||8228.275|Price|product|||NA|rsf:gd-|-stype:attr=1|qr_nm:gd|res:RC4|com-cf:nl|ptrs:na|ktp:N0|mc:99819|mtp:S|qry_typ:P|lang:en|wc:3|cs:8853|v=4,False,,Ahmedabad,"Vrundavan Residency, Block B, FF-Shop-102, Opp Yogeshwar Park, Nr Shreenathji Ni Haveli, Ahmedabad - 382350, Dist.Ahmedabad, Gujarat",8043855011,
Fleece Baby Swaddle Blanket,https://www.indiamart.com/proddetail/baby-swaddle-blanket-19893033188.html?pos=87&kwd=baby fleece blanket&tags=BA||||8661.854|Price|product|||NA|rsf:gd-|-stype:attr=1|qr_nm:gd|res:RC4|com-cf:nl|ptrs:na|ktp:N0|mc:99819|mtp:S|qry_typ:P|lang:en|wc:3|cs:8853|v=4,Sai Trading Company,https://www.indiamart.com/sai-trading-company/?pos=87&kwd=baby fleece blanket&tags=BA||||8661.854|Price|product|||NA|rsf:gd-|-stype:attr=1|qr_nm:gd|res:RC4|com-cf:nl|ptrs:na|ktp:N0|mc:99819|mtp:S|qry_typ:P|lang:en|wc:3|cs:8853|v=4,False,Naya Mohalla,Ludhiana,"139-B-Viii, Mochpura Bazar, Naya Mohalla, Ludhiana - 141008, Dist.Ludhiana, Punjab",8046057087,
puneet handloom Plain Woolen Blanket,https://www.indiamart.com/proddetail/woolen-blanket-21723096188.html?pos=88&kwd=baby fleece blanket&tags=BB||||8661.854||product|||NA|rsf:gd-|-stype:attr=1|qr_nm:gd|res:RC4|com-cf:nl|ptrs:na|ktp:N0|mc:99819|mtp:S|qry_typ:P|lang:en|wc:3|cs:8853|v=4,Puneet Handloom,https://www.indiamart.com/puneethandloom/?pos=88&kwd=baby fleece blanket&tags=BB||||8661.854||product|||NA|rsf:gd-|-stype:attr=1|qr_nm:gd|res:RC4|com-cf:nl|ptrs:na|ktp:N0|mc:99819|mtp:S|qry_typ:P|lang:en|wc:3|cs:8853|v=4,False,Dal Bazar,Ludhiana,"1733/1/A,MOHALLA BANDIAN, NEAR ARYA SR.SEC SCHOOL, DARESI ROAD,LUDHIANA Plot No. 1733/1, Mohalla Bandana,141008,Ludhiana, Dal Bazar, Ludhiana - 141007, Dist.Ludhiana, Punjab",8046030360,
"Fleece Blue Baby Blanket, Size: 100*140 cm",https://www.indiamart.com/proddetail/baby-blanket-27284141355.html?pos=89&kwd=baby fleece blanket&tags=BB||||8211.142|Price|product|||NA|rsf:gd-|-stype:attr=1|qr_nm:gd|res:RC4|com-cf:nl|ptrs:na|ktp:N0|mc:99819|mtp:S|qry_typ:P|lang:en|wc:3|cs:8853|v=4,Kids Care,https://www.indiamart.com/kidscare-94743488/?pos=89&kwd=baby fleece blanket&tags=BB||||8211.142|Price|product|||NA|rsf:gd-|-stype:attr=1|qr_nm:gd|res:RC4|com-cf:nl|ptrs:na|ktp:N0|mc:99819|mtp:S|qry_typ:P|lang:en|wc:3|cs:8853|v=4,False,kherwadi,Mumbai,"Ground Floor 2/4 Amrut Nagar, kherwadi, Mumbai - 400051, Dist.Mumbai, Maharashtra",8048372714,239
"KGN International Fleece Designer Baby Hooded Blanket, 0-12 Month, Size: 24*30",https://www.indiamart.com/proddetail/designer-baby-hooded-blanket-2850387491555.html?pos=90&kwd=baby fleece blanket&tags=BB||||8661.854||product|||NA|rsf:gd-|-stype:attr=1|qr_nm:gd|res:RC4|com-cf:nl|ptrs:na|ktp:N0|mc:99819|mtp:S|qry_typ:P|lang:en|wc:3|cs:8853|v=4,K.G.N. International,https://www.indiamart.com/kgn-internationalludhiana/?pos=90&kwd=baby fleece blanket&tags=BB||||8661.854||product|||NA|rsf:gd-|-stype:attr=1|qr_nm:gd|res:RC4|com-cf:nl|ptrs:na|ktp:N0|mc:99819|mtp:S|qry_typ:P|lang:en|wc:3|cs:8853|v=4,False,Haibowal Kalan,Ludhiana,"House No 18, Street No 5 Ajit Nagar, Haibowal Kalan, Ludhiana - 141001, Dist.Ludhiana, Punjab",7942802358,
"Printed Baby Blanket, 0-4 Months",https://www.indiamart.com/proddetail/printed-baby-blanket-21436758662.html?pos=91&kwd=baby fleece blanket&tags=BA||||8211.142|Price|product|||NA|rsf:gd-|-stype:attr=1|qr_nm:gd|res:RC4|com-cf:nl|ptrs:na|ktp:N0|mc:99819|mtp:S|qry_typ:P|lang:en|wc:3|cs:8853|v=4,Keval Enterprises,https://www.indiamart.com/keval-enterprises-mumbai/?pos=91&kwd=baby fleece blanket&tags=BA||||8211.142|Price|product|||NA|rsf:gd-|-stype:attr=1|qr_nm:gd|res:RC4|com-cf:nl|ptrs:na|ktp:N0|mc:99819|mtp:S|qry_typ:P|lang:en|wc:3|cs:8853|v=4,False,Dadar West,Mumbai,"Shop No. 20, Madhani Industrial Estate Senapati Bapat Marg, Dadar West, Mumbai - 400028, Dist.Mumbai, Maharashtra",8048951266,
Fleece Blue Hooded Baby Blanket,https://www.indiamart.com/proddetail/hooded-baby-blanket-2852553119573.html?pos=92&kwd=baby fleece blanket&tags=BA||||8785.791|Price|product|||NA|rsf:gd-|-stype:attr=1|qr_nm:gd|res:RC4|com-cf:nl|ptrs:na|ktp:N0|mc:99819|mtp:S|qry_typ:P|lang:en|wc:3|cs:8853|v=4,Leader Textiles India Private Limited,https://www.indiamart.com/leader-textiles/?pos=92&kwd=baby fleece blanket&tags=BA||||8785.791|Price|product|||NA|rsf:gd-|-stype:attr=1|qr_nm:gd|res:RC4|com-cf:nl|ptrs:na|ktp:N0|mc:99819|mtp:S|qry_typ:P|lang:en|wc:3|cs:8853|v=4,False,Trans Delhi Signature City,Ghaziabad,"C-53, Sec-d-1 P-2 Tronica City Tronica City, Trans Delhi Signature City, Ghaziabad - 201103, Dist.Ghaziabad, Uttar Pradesh",7942712521,
"Fleece Velvet Very Very Soft Multicolor Baby Blanket With Cartoon Print, Size: Single",https://www.indiamart.com/proddetail/baby-blanket-with-cartoon-print-22363367112.html?pos=93&kwd=baby fleece blanket&tags=BB||||8786.56|Price|product|||NA|rsf:gd-|-stype:attr=1|qr_nm:gd|res:RC4|com-cf:nl|ptrs:na|ktp:N0|mc:99819|mtp:S|qry_typ:P|lang:en|wc:3|cs:8853|v=4,Hyderabad Handloom Centre,https://www.indiamart.com/hyderabadhandloomcentre/?pos=93&kwd=baby fleece blanket&tags=BB||||8786.56|Price|product|||NA|rsf:gd-|-stype:attr=1|qr_nm:gd|res:RC4|com-cf:nl|ptrs:na|ktp:N0|mc:99819|mtp:S|qry_typ:P|lang:en|wc:3|cs:8853|v=4,False,Deewan Devdi,Hyderabad,"22-7-268/B/A/1 And 2 Madina Towers, Deewan Devdi, Hyderabad - 500002, Dist.Hyderabad, Telangana",8043866738,
CHARACTER BLANKET FOR BABY WINTER BLANKETS,https://www.indiamart.com/proddetail/character-blanket-for-baby-winter-blankets-2852328508897.html?pos=94&kwd=baby fleece blanket&tags=BB||||8661.854|Price|product|||NA|rsf:gd-|-stype:attr=1|qr_nm:gd|res:RC4|com-cf:nl|ptrs:na|ktp:N0|mc:99819|mtp:S|qry_typ:P|lang:en|wc:3|cs:8853|v=4,DAYAL DASS TRADERS,https://www.indiamart.com/dayaldasstraders/?pos=94&kwd=baby fleece blanket&tags=BB||||8661.854|Price|product|||NA|rsf:gd-|-stype:attr=1|qr_nm:gd|res:RC4|com-cf:nl|ptrs:na|ktp:N0|mc:99819|mtp:S|qry_typ:P|lang:en|wc:3|cs:8853|v=4,False,,Ludhiana,"123, New Raj Guru Nagar,, Ludhiana - 141001, Dist.Ludhiana, Punjab",8047650977,
"Fleece Plain Green Cotton Baby Hooded Blanket, 0-12 Months, Size: 76x70 cm",https://www.indiamart.com/proddetail/green-cotton-baby-hooded-blanket-2849666693912.html?pos=95&kwd=baby fleece blanket&tags=BB||||8747.203|Price|product|||NA|rsf:gd-|-stype:attr=1|qr_nm:gd|res:RC4|com-cf:nl|ptrs:na|ktp:N0|mc:99819|mtp:S|qry_typ:P|lang:en|wc:3|cs:8853|v=4,Kirpa Enterprise,https://www.indiamart.com/kirpa-enterprise-panipat/?pos=95&kwd=baby fleece blanket&tags=BB||||8747.203|Price|product|||NA|rsf:gd-|-stype:attr=1|qr_nm:gd|res:RC4|com-cf:nl|ptrs:na|ktp:N0|mc:99819|mtp:S|qry_typ:P|lang:en|wc:3|cs:8853|v=4,False,,Panipat,"879,11, Ward No.11, Panipat - 132103, Dist.Panipat, Haryana",7942795917,
Baby Blanket,,Blossom,https://www.indiamart.com/blossom-pune/?pos=96&kwd=baby fleece blanket&tags=BB||||8307.81|Price|product|||NA|rsf:gd-|-stype:attr=1|qr_nm:gd|res:RC4|com-cf:nl|ptrs:na|ktp:N0|mc:99819|mtp:S|qry_typ:P|lang:en|wc:3|cs:8853|v=4,False,,Pune,"Shop No 2 Baner Road Yashodhan Building Baner, Pune - 411045, Dist.Pune, Maharashtra",8069033820,551
Fancy Kids Blankets,,G.H.W. Knitwears Pvt.Ltd.,https://www.indiamart.com/ghwknitwears/?pos=98&kwd=baby fleece blanket&tags=BA||||8661.854|Price|product|||NA|rsf:gd-|-stype:attr=1|qr_nm:gd|res:RC4|com-cf:nl|ptrs:na|ktp:N0|mc:99819|mtp:S|qry_typ:P|lang:en|wc:3|cs:8853|v=4,False,Miller Ganj,Ludhiana,"B-V-1187, Brahampuri, Opp. SBI, Miller Ganj, Ludhiana - 141008, Dist.Ludhiana, Punjab",8047314154,
Fancy Kids Blankets,,G.H.W. Knitwears Pvt.Ltd.,https://www.indiamart.com/ghwknitwears/?pos=98&kwd=baby fleece blanket&tags=BA||||8661.854|Price|product|||NA|rsf:gd-|-stype:attr=1|qr_nm:gd|res:RC4|com-cf:nl|ptrs:na|ktp:N0|mc:99819|mtp:S|qry_typ:P|lang:en|wc:3|cs:8853|v=4,False,Miller Ganj,Ludhiana,"B-V-1187, Brahampuri, Opp. SBI, Miller Ganj, Ludhiana - 141008, Dist.Ludhiana, Punjab",8047314154,
"Cotton Multicolor Printed Baby Blanket, Size: Singe",https://www.indiamart.com/proddetail/printed-baby-blanket-2850870920488.html?pos=99&kwd=baby fleece blanket&tags=CC||||8747.203|Price|product|||TS|rsf:gd-|-stype:attr=1|qr_nm:gd|res:RC4|com-cf:nl|ptrs:na|ktp:N0|mc:99819|mtp:S|qry_typ:P|lang:en|wc:3|cs:8853|v=4,Siya Ram Enterprises,https://www.indiamart.com/siyaram-enterprises-panipat/?pos=99&kwd=baby fleece blanket&tags=CC||||8747.203|Price|product|||TS|rsf:gd-|-stype:attr=1|qr_nm:gd|res:RC4|com-cf:nl|ptrs:na|ktp:N0|mc:99819|mtp:S|qry_typ:P|lang:en|wc:3|cs:8853|v=4,False,Huda,Panipat,"Gali Number 3, Near Ahuja Furniture Sanoli Road, Huda, Panipat - 132103, Dist.Panipat, Haryana",8048959822,
Mink Hetvik Enterprises Baby Blanket,https://www.indiamart.com/proddetail/hetvik-enterprises-baby-blanket-24680021597.html?pos=100&kwd=baby fleece blanket&tags=CC||||8747.203|Price|product|||TS|rsf:gd-|-stype:attr=1|qr_nm:gd|res:RC4|com-cf:nl|ptrs:na|ktp:N0|mc:99819|mtp:S|qry_typ:P|lang:en|wc:3|cs:8853|v=4,Hetvik Enterprise,https://www.indiamart.com/hetvik-enterprise/?pos=100&kwd=baby fleece blanket&tags=CC||||8747.203|Price|product|||TS|rsf:gd-|-stype:attr=1|qr_nm:gd|res:RC4|com-cf:nl|ptrs:na|ktp:N0|mc:99819|mtp:S|qry_typ:P|lang:en|wc:3|cs:8853|v=4,False,Kawi,Panipat,"Office No-1, Basement, Preet Tower, Tau Devi Lal Complex,, Kawi, Panipat - 132103, Dist.Panipat, Haryana",8046065237,
Cartoon Character Multicolor Baby Fleece Blanket,https://www.indiamart.com/proddetail/baby-fleece-blanket-27138451397.html?pos=101&kwd=baby fleece blanket&tags=CC||||8747.203|Price|product|||TS|rsf:gd-|-stype:attr=1|qr_nm:gd|res:RC4|com-cf:nl|ptrs:na|ktp:N0|mc:99819|mtp:S|qry_typ:P|lang:en|wc:3|cs:8853|v=4,M/S M A Textiles,https://www.matextiles.in/?pos=101&kwd=baby fleece blanket&tags=CC||||8747.203|Price|product|||TS|rsf:gd-|-stype:attr=1|qr_nm:gd|res:RC4|com-cf:nl|ptrs:na|ktp:N0|mc:99819|mtp:S|qry_typ:P|lang:en|wc:3|cs:8853|v=4,False,Huda,Panipat,"0 Kutani Road Ashok Vihar, Colony Panipat, Huda, Panipat - 132103, Dist.Panipat, Haryana",8047532068,
"Adinath Multicolor Baby Print Fleece Blanket, Upto 6 Years, Size: 60*40 Inches",https://www.indiamart.com/proddetail/baby-print-fleece-blanket-8947740597.html?pos=102&kwd=baby fleece blanket&tags=CC||||8661.854|Price|product|||TS|rsf:gd-|-stype:attr=1|qr_nm:gd|res:RC4|com-cf:nl|ptrs:na|ktp:N0|mc:99819|mtp:S|qry_typ:P|lang:en|wc:3|cs:8853|v=4,Shree Grace Creation,https://www.indiamart.com/shreegracecreation/?pos=102&kwd=baby fleece blanket&tags=CC||||8661.854|Price|product|||TS|rsf:gd-|-stype:attr=1|qr_nm:gd|res:RC4|com-cf:nl|ptrs:na|ktp:N0|mc:99819|mtp:S|qry_typ:P|lang:en|wc:3|cs:8853|v=4,False,Guru Arjan Dev Nagar,Ludhiana,"Nishant Bagh Colony, Village Bhattian Opposite Lal Tanki, Near Metro Cash & Carry, Guru Arjan Dev Nagar, Ludhiana - 141001, Dist.Ludhiana, Punjab",8047636470,
Plain Woolen Baby Fleece Blanket,https://www.indiamart.com/proddetail/baby-fleece-blanket-2852558045173.html?pos=103&kwd=baby fleece blanket&tags=CC||||8624.416|Price|product|||MDC|rsf:gd-|-stype:attr=1|qr_nm:gd|res:RC4|com-cf:nl|ptrs:na|ktp:N0|mc:99819|mtp:S|qry_typ:P|lang:en|wc:3|cs:8853|v=4,Dayawanti Traders,https://www.indiamart.com/dayawati-trader/?pos=103&kwd=baby fleece blanket&tags=CC||||8624.416|Price|product|||MDC|rsf:gd-|-stype:attr=1|qr_nm:gd|res:RC4|com-cf:nl|ptrs:na|ktp:N0|mc:99819|mtp:S|qry_typ:P|lang:en|wc:3|cs:8853|v=4,False,Indira Colony,Hisar,"Plot No. 137 Dhani Kishandutt, Near Asha High School, Nancy Beauty Parlour, Indira Colony, Indira Colony, Hisar - 125001, Dist.Hisar, Haryana",7942701403,
Cartoon Character Baby Fleece Blanket,https://www.indiamart.com/proddetail/baby-fleece-blanket-2851251862491.html?pos=104&kwd=baby fleece blanket&tags=CC||||8752.144||product|||MDC|rsf:gd-|-stype:attr=1|qr_nm:gd|res:RC4|com-cf:nl|ptrs:na|ktp:N0|mc:99819|mtp:S|qry_typ:P|lang:en|wc:3|cs:8853|v=4,Prince And Princess,https://www.indiamart.com/prince-princess-delhi/?pos=104&kwd=baby fleece blanket&tags=CC||||8752.144||product|||MDC|rsf:gd-|-stype:attr=1|qr_nm:gd|res:RC4|com-cf:nl|ptrs:na|ktp:N0|mc:99819|mtp:S|qry_typ:P|lang:en|wc:3|cs:8853|v=4,False,Gulabi Bagh,New Delhi,"Ground Floor, Garage No - 74, Gulabi Bagh Road,, Gulabi Bagh, New Delhi - 110007, Dist.Delhi, Delhi",8047629125,
"Baby Pink Printed Fleece Blanket, Size: Double",https://www.indiamart.com/proddetail/baby-pink-printed-fleece-blanket-2852683440133.html?pos=105&kwd=baby fleece blanket&tags=CC||||8546.946|Price|product|||MDC|rsf:gd-|-stype:attr=1|qr_nm:gd|res:RC4|com-cf:nl|ptrs:na|ktp:N0|mc:99819|mtp:S|qry_typ:P|lang:en|wc:3|cs:8853|v=4,Vishnu Cloth Store,https://www.indiamart.com/vishnuclothstore/?pos=105&kwd=baby fleece blanket&tags=CC||||8546.946|Price|product|||MDC|rsf:gd-|-stype:attr=1|qr_nm:gd|res:RC4|com-cf:nl|ptrs:na|ktp:N0|mc:99819|mtp:S|qry_typ:P|lang:en|wc:3|cs:8853|v=4,False,Muktainagar,Sikar,"Main Market, Sanwalpura Tawran, Neem Ka Thana, Muktainagar, Sikar - 332707, Dist.Sikar, Rajasthan",7942718767,
Plain White(Base) Kids Fleece Blanket,https://www.indiamart.com/proddetail/kids-fleece-blanket-2853425737997.html?pos=106&kwd=baby fleece blanket&tags=CC||||9618.383|Price|product|||MDC|rsf:gd-|-stype:attr=1|qr_nm:gd|res:RC4|com-cf:nl|ptrs:na|ktp:N0|mc:99819|mtp:S|qry_typ:P|lang:en|wc:3|cs:8853|v=4,Texco,https://www.indiamart.com/texco/?pos=106&kwd=baby fleece blanket&tags=CC||||9618.383|Price|product|||MDC|rsf:gd-|-stype:attr=1|qr_nm:gd|res:RC4|com-cf:nl|ptrs:na|ktp:N0|mc:99819|mtp:S|qry_typ:P|lang:en|wc:3|cs:8853|v=4,False,Bistupur,Jamshedpur,"Shop No. 2, Main Road, Bistupur, Bistupur, Jamshedpur - 831001, Dist.East Singhbhum, Jharkhand",7949092933,
Baby Pillow Cum Blanket,https://www.indiamart.com/proddetail/baby-pillow-cum-blanket-2854338251788.html?pos=107&kwd=baby fleece blanket&tags=CC||||8747.203|Price|product|||MDC|rsf:gd-|-stype:attr=1|qr_nm:gd|res:RC4|com-cf:nl|ptrs:na|ktp:N0|mc:99819|mtp:S|qry_typ:P|lang:en|wc:3|cs:8853|v=4,Sabmix,https://www.indiamart.com/sabmix/?pos=107&kwd=baby fleece blanket&tags=CC||||8747.203|Price|product|||MDC|rsf:gd-|-stype:attr=1|qr_nm:gd|res:RC4|com-cf:nl|ptrs:na|ktp:N0|mc:99819|mtp:S|qry_typ:P|lang:en|wc:3|cs:8853|v=4,False,Jattal,Panipat,"Nehar By-Pass Near Jattal Road, Near Deshwal Petrol Pump, Jattal, Panipat - 132103, Dist.Panipat, Haryana",8045165458,
Red Fleece Kids Blanket,https://www.indiamart.com/proddetail/fleece-kids-blanket-23885551988.html?pos=108&kwd=baby fleece blanket&tags=||||8752.144|Price|product|||TS|rsf:gd-|-stype:attr=1|qr_nm:gd|res:RC4|com-cf:nl|ptrs:na|ktp:N0|mc:99819|mtp:S|qry_typ:P|lang:en|wc:3|cs:8853|v=4,Krishna Handloom,https://www.krishnahandloom.co.in/?pos=108&kwd=baby fleece blanket&tags=||||8752.144|Price|product|||TS|rsf:gd-|-stype:attr=1|qr_nm:gd|res:RC4|com-cf:nl|ptrs:na|ktp:N0|mc:99819|mtp:S|qry_typ:P|lang:en|wc:3|cs:8853|v=4,False,Tilak Nagar,New Delhi,"First Floor, 54/9, Ashok Nagar Opposite Jankie Vaishno Dhaba, Tilak Nagar, New Delhi - 110018, Dist.Delhi, Delhi",8048982699,
Azure Plain Sateen Border Fleece Blanket,https://www.indiamart.com/proddetail/sateen-border-fleece-blanket-1656311397.html?pos=109&kwd=baby fleece blanket&tags=CC||||8228.275|Price|product|||TS|rsf:gd-|-stype:attr=1|qr_nm:gd|res:RC4|com-cf:nl|ptrs:na|ktp:N0|mc:99819|mtp:S|qry_typ:P|lang:en|wc:3|cs:8853|v=4,Azure Fabrics Private Limited,https://www.polarfleeceindia.com/?pos=109&kwd=baby fleece blanket&tags=CC||||8228.275|Price|product|||TS|rsf:gd-|-stype:attr=1|qr_nm:gd|res:RC4|com-cf:nl|ptrs:na|ktp:N0|mc:99819|mtp:S|qry_typ:P|lang:en|wc:3|cs:8853|v=4,False,Paldi,Ahmedabad,"Inside Eranda Hall, Kapasia Bazar Kalupur, Paldi, Ahmedabad - 380002, Dist.Ahmedabad, Gujarat",8048984504,
"Pink Printed Baby Blankets, Upto 7 Months",https://www.indiamart.com/proddetail/baby-blankets-21299168773.html?pos=110&kwd=baby fleece blanket&tags=CC||||8747.203|Price|product|||TS|rsf:gd-|-stype:attr=1|qr_nm:gd|res:RC4|com-cf:nl|ptrs:na|ktp:N0|mc:99819|mtp:S|qry_typ:P|lang:en|wc:3|cs:8853|v=4,Bahubali Woollen Mills,https://www.indiamart.com/bahubali-woolen/?pos=110&kwd=baby fleece blanket&tags=CC||||8747.203|Price|product|||TS|rsf:gd-|-stype:attr=1|qr_nm:gd|res:RC4|com-cf:nl|ptrs:na|ktp:N0|mc:99819|mtp:S|qry_typ:P|lang:en|wc:3|cs:8853|v=4,False,Kabri,Panipat,"Kabri Road, Pacca Phatak, Kabri, Panipat - 132103, Dist.Panipat, Haryana",8048966944,
"Plain Milled Fleece Blanket, Packaging Type: Plastic Bag",https://www.indiamart.com/proddetail/fleece-blanket-22102865930.html?pos=111&kwd=baby fleece blanket&tags=CC||||8626.744|Price|product|||MDC|rsf:gd-|-stype:attr=1|qr_nm:gd|res:RC4|com-cf:nl|ptrs:na|ktp:N0|mc:99819|mtp:S|qry_typ:P|lang:en|wc:3|cs:8853|v=4,Fashion Tech Industries,https://www.indiamart.com/fashiontech-industries/?pos=111&kwd=baby fleece blanket&tags=CC||||8626.744|Price|product|||MDC|rsf:gd-|-stype:attr=1|qr_nm:gd|res:RC4|com-cf:nl|ptrs:na|ktp:N0|mc:99819|mtp:S|qry_typ:P|lang:en|wc:3|cs:8853|v=4,False,Nallur,Tiruppur,"98, Jai Nagar, 1st East Street, 2nd Cross, Rakkiyapallayam Kankeyam Road, Nallur, Tiruppur - 641606, Dist.Coimbatore, Tamil Nadu",8046033259,
"Velvet Multicolor Baby Printed Blanket, Size: Singe",https://www.indiamart.com/proddetail/baby-printed-blanket-2853636656333.html?pos=112&kwd=baby fleece blanket&tags=CC||||9148.645|Price|product|||MDC|rsf:gd-|-stype:attr=1|qr_nm:gd|res:RC4|com-cf:nl|ptrs:na|ktp:N0|mc:99819|mtp:S|qry_typ:P|lang:en|wc:3|cs:8853|v=4,Sri Jaya Enterprises,https://www.indiamart.com/sri-jayaenterprises/?pos=112&kwd=baby fleece blanket&tags=CC||||9148.645|Price|product|||MDC|rsf:gd-|-stype:attr=1|qr_nm:gd|res:RC4|com-cf:nl|ptrs:na|ktp:N0|mc:99819|mtp:S|qry_typ:P|lang:en|wc:3|cs:8853|v=4,False,Machara,Mandapeta,"31-1-27/1, Ward No 13, Alamuru Road, Mandapeta, East Godavari, Machara, Mandapeta - 533308, Dist.East Godavari, Andhra Pradesh",7949093426,
Blue (Base) Size: Single Baby Printed Velvet Blanket,https://www.indiamart.com/proddetail/baby-printed-velvet-blanket-2854978172091.html?pos=113&kwd=baby fleece blanket&tags=||||8786.56|Price|product|||MDC|rsf:gd-|-stype:attr=1|qr_nm:gd|res:RC4|com-cf:nl|ptrs:na|ktp:N0|mc:99819|mtp:S|qry_typ:P|lang:en|wc:3|cs:8853|v=4,Vinod And Company,https://www.indiamart.com/vinodcompany-hyderabad/?pos=113&kwd=baby fleece blanket&tags=||||8786.56|Price|product|||MDC|rsf:gd-|-stype:attr=1|qr_nm:gd|res:RC4|com-cf:nl|ptrs:na|ktp:N0|mc:99819|mtp:S|qry_typ:P|lang:en|wc:3|cs:8853|v=4,False,Feelkhana,Hyderabad,"15/8/514/1/D, Feelkhana, Begum Bazar, Feelkhana, Hyderabad - 500012, Dist.Hyderabad, Telangana",7949086154,
"Velvet Violet Newborn Baby Blankets, Size: Singe",https://www.indiamart.com/proddetail/newborn-baby-blankets-2853406322648.html?pos=114&kwd=baby fleece blanket&tags=CC||||8739.675|Price|product|||MDC|rsf:gd-|-stype:attr=1|qr_nm:gd|res:RC4|com-cf:nl|ptrs:na|ktp:N0|mc:99819|mtp:S|qry_typ:P|lang:en|wc:3|cs:8853|v=4,Amar Handloom House,https://www.indiamart.com/amar-handloom-house/?pos=114&kwd=baby fleece blanket&tags=CC||||8739.675|Price|product|||MDC|rsf:gd-|-stype:attr=1|qr_nm:gd|res:RC4|com-cf:nl|ptrs:na|ktp:N0|mc:99819|mtp:S|qry_typ:P|lang:en|wc:3|cs:8853|v=4,False,Nandgaon Peth,Amravati,"H Block, Shop No 7,Busyland Commercial Complex, Nandgaon Peth, Nandgaon Peth, Amravati - 444901, Dist.Amravati, Maharashtra",8045165077,
"White Cotton Baby Monthly Milestone Blanket, Size: Singe",https://www.indiamart.com/proddetail/baby-monthly-milestone-blanket-2853493000373.html?pos=115&kwd=baby fleece blanket&tags=CC||||8230.883|Price|product|||MDC|rsf:gd-|-stype:attr=1|qr_nm:gd|res:RC4|com-cf:nl|ptrs:na|ktp:N0|mc:99819|mtp:S|qry_typ:P|lang:en|wc:3|cs:8853|v=4,Shri Shri Fashion,https://www.indiamart.com/shri-shri-fashion/?pos=115&kwd=baby fleece blanket&tags=CC||||8230.883|Price|product|||MDC|rsf:gd-|-stype:attr=1|qr_nm:gd|res:RC4|com-cf:nl|ptrs:na|ktp:N0|mc:99819|mtp:S|qry_typ:P|lang:en|wc:3|cs:8853|v=4,False,Varachha,Surat,"A-231, Narayan Nagar, Near Nalanda School, Punagam,, Varachha, Surat - 395010, Dist.Surat, Gujarat",7942712235,
Babies Polar Fleece Blanket,https://www.indiamart.com/proddetail/babies-polar-fleece-blanket-2853094407548.html?pos=116&kwd=baby fleece blanket&tags=||||8747.203||product|||TS|rsf:gd-|-stype:attr=1|qr_nm:gd|res:RC4|com-cf:nl|ptrs:na|ktp:N0|mc:99819|mtp:S|qry_typ:P|lang:en|wc:3|cs:8853|v=4,Paawan Enterprises,https://www.indiamart.com/paawan-enterprises/?pos=116&kwd=baby fleece blanket&tags=||||8747.203||product|||TS|rsf:gd-|-stype:attr=1|qr_nm:gd|res:RC4|com-cf:nl|ptrs:na|ktp:N0|mc:99819|mtp:S|qry_typ:P|lang:en|wc:3|cs:8853|v=4,False,Babail,Panipat,"Babail Road, Babail, Panipat - 132103, Dist.Panipat, Haryana",7942674176,
"White Cotton Block Printed Baby Dohar, Size: Singe",https://www.indiamart.com/proddetail/block-printed-baby-dohar-2850021616391.html?pos=117&kwd=baby fleece blanket&tags=||||8601.347|Price|product|||TS|rsf:gd-|-stype:attr=1|qr_nm:gd|res:RC4|com-cf:nl|ptrs:na|ktp:N0|mc:99819|mtp:S|qry_typ:P|lang:en|wc:3|cs:8853|v=4,Priva International,https://www.privainternational.in/?pos=117&kwd=baby fleece blanket&tags=||||8601.347|Price|product|||TS|rsf:gd-|-stype:attr=1|qr_nm:gd|res:RC4|com-cf:nl|ptrs:na|ktp:N0|mc:99819|mtp:S|qry_typ:P|lang:en|wc:3|cs:8853|v=4,False,Sitapur Industrial Area,Jaipur,"G-88, EPIP Industrial Area, Near Indian Overseas Bank Sitapur Tonk Road, Sitapur Industrial Area, Sitapur Industrial Area, Jaipur - 302022, Dist.Jaipur, Rajasthan",8048611129,
Fleece Size: Single Printed Baby Blanket,https://www.indiamart.com/proddetail/printed-baby-blanket-2854682849733.html?pos=118&kwd=baby fleece blanket&tags=||||8661.854|Price|product|||TS|rsf:gd-|-stype:attr=1|qr_nm:gd|res:RC4|com-cf:nl|ptrs:na|ktp:N0|mc:99819|mtp:S|qry_typ:P|lang:en|wc:3|cs:8853|v=4,Royal Blanket,https://www.indiamart.com/royalblanket/?pos=118&kwd=baby fleece blanket&tags=||||8661.854|Price|product|||TS|rsf:gd-|-stype:attr=1|qr_nm:gd|res:RC4|com-cf:nl|ptrs:na|ktp:N0|mc:99819|mtp:S|qry_typ:P|lang:en|wc:3|cs:8853|v=4,False,Harbans Pura,Ludhiana,"B-24.H.No.4211,Street No.2, New Madho Puri, Harbans Pura, Ludhiana - 141008, Dist.Ludhiana, Punjab",8046059378,
"Multicolor Polyester Fleece Blanket, Size: Double",https://www.indiamart.com/proddetail/polyester-fleece-blanket-2850438702930.html?pos=119&kwd=baby fleece blanket&tags=||||8747.203||product|||TS|rsf:gd-|-stype:attr=1|qr_nm:gd|res:RC4|com-cf:nl|ptrs:na|ktp:N0|mc:99819|mtp:S|qry_typ:P|lang:en|wc:3|cs:8853|v=4,J M D Textiles,https://www.indiamart.com/jmdtextiles-panipat/?pos=119&kwd=baby fleece blanket&tags=||||8747.203||product|||TS|rsf:gd-|-stype:attr=1|qr_nm:gd|res:RC4|com-cf:nl|ptrs:na|ktp:N0|mc:99819|mtp:S|qry_typ:P|lang:en|wc:3|cs:8853|v=4,False,Colony,Panipat,"Ward No 11, Colony, Panipat - 132103, Dist.Panipat, Haryana",8048969059,
"Multicolor Fleece Polo blanket 1200 Gram, Size: Double",https://www.indiamart.com/proddetail/polo-blanket-1200-gram-2850541472933.html?pos=120&kwd=baby fleece blanket&tags=||||9045.955||product|||MDC|rsf:gd-|-stype:attr=1|qr_nm:gd|res:RC4|com-cf:nl|ptrs:na|ktp:N0|mc:99819|mtp:S|qry_typ:P|lang:en|wc:3|cs:8853|v=4,The Textiles,https://www.indiamart.com/textiles-kanpur/?pos=120&kwd=baby fleece blanket&tags=||||9045.955||product|||MDC|rsf:gd-|-stype:attr=1|qr_nm:gd|res:RC4|com-cf:nl|ptrs:na|ktp:N0|mc:99819|mtp:S|qry_typ:P|lang:en|wc:3|cs:8853|v=4,False,Meerpur Cantt,Kanpur,"66, Faithful Ganj Kanpur Nagar, Meerpur Cantt, Kanpur - 208004, Uttar Pradesh",7942865242,
"Raised Custom Sherpa Fleece Blanket, Packaging Type: Polybag, 250-300",https://www.indiamart.com/proddetail/sherpa-fleece-blanket-22992428462.html?pos=121&kwd=baby fleece blanket&tags=||||8954.051|Price|product|||TS|rsf:gd-|-stype:attr=1|qr_nm:gd|res:RC4|com-cf:nl|ptrs:na|ktp:N0|mc:99819|mtp:S|qry_typ:P|lang:en|wc:3|cs:8853|v=4,Tetra Clothing,https://www.tetraclothing.in/?pos=121&kwd=baby fleece blanket&tags=||||8954.051|Price|product|||TS|rsf:gd-|-stype:attr=1|qr_nm:gd|res:RC4|com-cf:nl|ptrs:na|ktp:N0|mc:99819|mtp:S|qry_typ:P|lang:en|wc:3|cs:8853|v=4,True,Gopichettipalaiyam,Chennai,"No. 59/28, Balu Building, Gopichettipalaiyam, Chennai - 638476, Dist.Chennai, Tamil Nadu",8048957951,
Fleece Receiving Blanket,https://www.indiamart.com/proddetail/fleece-receiving-blanket-6947906233.html?pos=122&kwd=baby fleece blanket&tags=||||8747.203|Price|product|||TS|rsf:gd-|-stype:attr=1|qr_nm:gd|res:RC4|com-cf:nl|ptrs:na|ktp:N0|mc:99819|mtp:S|qry_typ:P|lang:en|wc:3|cs:8853|v=4,Vaibhav Overseas,https://www.vaibhavoverseas.net/?pos=122&kwd=baby fleece blanket&tags=||||8747.203|Price|product|||TS|rsf:gd-|-stype:attr=1|qr_nm:gd|res:RC4|com-cf:nl|ptrs:na|ktp:N0|mc:99819|mtp:S|qry_typ:P|lang:en|wc:3|cs:8853|v=4,False,Huda,Panipat,"60, M/S Vaibhav Overseas, Sector-29,Part-I, Huda, Huda, Panipat - 132103, Dist.Panipat, Haryana",8046051980,
Fleece Blue Printed Baby Blanket,https://www.indiamart.com/proddetail/printed-baby-blanket-27278242362.html?pos=123&kwd=baby fleece blanket&tags=||||8228.275|Price|product|||MDC|rsf:gd-|-stype:attr=1|qr_nm:gd|res:RC4|com-cf:nl|ptrs:na|ktp:N0|mc:99819|mtp:S|qry_typ:P|lang:en|wc:3|cs:8853|v=4,Kashyap Enterprise,https://www.indiamart.com/kashyap-enterprise-ahmedabad/?pos=123&kwd=baby fleece blanket&tags=||||8228.275|Price|product|||MDC|rsf:gd-|-stype:attr=1|qr_nm:gd|res:RC4|com-cf:nl|ptrs:na|ktp:N0|mc:99819|mtp:S|qry_typ:P|lang:en|wc:3|cs:8853|v=4,False,,Ahmedabad,"4th Floor, 432, Block - F, Sumel -6, Jupiter Mill Compound, Dudheshwar, Ahmedabad - 380004, Dist.Ahmedabad, Gujarat",8044460052,
"FABIA DECOR Printed Baby Flannel Blankets, 300 Gm, Size: 30*40",https://www.indiamart.com/proddetail/baby-flannel-blankets-2851965583212.html?pos=124&kwd=baby fleece blanket&tags=||||8747.203|Price|product|||TS|rsf:gd-|-stype:attr=1|qr_nm:gd|res:RC4|com-cf:nl|ptrs:na|ktp:N0|mc:99819|mtp:S|qry_typ:P|lang:en|wc:3|cs:8853|v=4,M/S Salwania Textiles,https://www.indiamart.com/salwaniatextiles/?pos=124&kwd=baby fleece blanket&tags=||||8747.203|Price|product|||TS|rsf:gd-|-stype:attr=1|qr_nm:gd|res:RC4|com-cf:nl|ptrs:na|ktp:N0|mc:99819|mtp:S|qry_typ:P|lang:en|wc:3|cs:8853|v=4,False,Old Housing Board Colony,Panipat,"Shop No. 8, Balmukund Market, Circular Road, Old Housing Board Colony, Panipat - 132103, Dist.Panipat, Haryana",8046064865,
Fleece Multicolor Printed Baby Blanket,https://www.indiamart.com/proddetail/printed-baby-blanket-2853713691355.html?pos=125&kwd=baby fleece blanket&tags=||||8747.203|Price|product|||TS|rsf:gd-|-stype:attr=1|qr_nm:gd|res:RC4|com-cf:nl|ptrs:na|ktp:N0|mc:99819|mtp:S|qry_typ:P|lang:en|wc:3|cs:8853|v=4,Cotton Bolls Textiles,https://www.indiamart.com/cottonbollstextilespanipat/?pos=125&kwd=baby fleece blanket&tags=||||8747.203|Price|product|||TS|rsf:gd-|-stype:attr=1|qr_nm:gd|res:RC4|com-cf:nl|ptrs:na|ktp:N0|mc:99819|mtp:S|qry_typ:P|lang:en|wc:3|cs:8853|v=4,False,Huda,Panipat,"House No - 485 Sector 13-17, Huda, Panipat - 132103, Dist.Panipat, Haryana",8043855324,
Fleece Blue Flannel Baby Blanket,https://www.indiamart.com/proddetail/flannel-baby-blanket-23811017473.html?pos=126&kwd=baby fleece blanket&tags=||||8747.203|Price|product|||TS|rsf:gd-|-stype:attr=1|qr_nm:gd|res:RC4|com-cf:nl|ptrs:na|ktp:N0|mc:99819|mtp:S|qry_typ:P|lang:en|wc:3|cs:8853|v=4,Shiv Shakti Handloom Industries,https://www.shivshaktihandloomindustries.com/?pos=126&kwd=baby fleece blanket&tags=||||8747.203|Price|product|||TS|rsf:gd-|-stype:attr=1|qr_nm:gd|res:RC4|com-cf:nl|ptrs:na|ktp:N0|mc:99819|mtp:S|qry_typ:P|lang:en|wc:3|cs:8853|v=4,False,Panipat City,Panipat,"Shop 12, Krishna Market, Pachranga Bazar, Panipat City, Panipat - 132103, Dist.Panipat, Haryana",8048970618,
Fleece 5-6 COLORS Baby Wrapper Cum Blanket,https://www.indiamart.com/proddetail/baby-wrapper-cum-blanket-2853305908291.html?pos=127&kwd=baby fleece blanket&tags=||||8580.032|Price|product|||TS|rsf:gd-|-stype:attr=1|qr_nm:gd|res:RC4|com-cf:nl|ptrs:na|ktp:N0|mc:99819|mtp:S|qry_typ:P|lang:en|wc:3|cs:8853|v=4,Popli Textile Mills,https://www.indiamart.com/popli-textile-mills/?pos=127&kwd=baby fleece blanket&tags=||||8580.032|Price|product|||TS|rsf:gd-|-stype:attr=1|qr_nm:gd|res:RC4|com-cf:nl|ptrs:na|ktp:N0|mc:99819|mtp:S|qry_typ:P|lang:en|wc:3|cs:8853|v=4,False,Market,Amritsar,"5 Rama Market, Market, Amritsar - 143001, Dist.Amritsar, Punjab",7942618743,
Fleece White Baby Flannel Blankets,https://www.indiamart.com/proddetail/baby-flannel-blankets-23262378673.html?pos=137&kwd=baby fleece blanket&tags=||||8752.144|Price|product|||MDC|rsf:gd-|-stype:attr=1|qr_nm:gd|res:RC4|com-cf:nl|ptrs:na|ktp:N0|mc:99819|mtp:S|qry_typ:P|lang:en|wc:3|cs:8853|v=4,TGB Marketing,https://www.indiamart.com/tgb-marketing/?pos=137&kwd=baby fleece blanket&tags=||||8752.144|Price|product|||MDC|rsf:gd-|-stype:attr=1|qr_nm:gd|res:RC4|com-cf:nl|ptrs:na|ktp:N0|mc:99819|mtp:S|qry_typ:P|lang:en|wc:3|cs:8853|v=4,False,Chandni Chowk,New Delhi,"101, Second Floor, Khursid Market, Chandni Chowk, New Delhi - 110006, Dist.Delhi, Delhi",8046075932,
"Multicolor Plain Polar Fleece Blanket, Packaging Type: Packet",https://www.indiamart.com/proddetail/plain-polar-fleece-blanket-2852582252512.html?pos=129&kwd=baby fleece blanket&tags=||||8747.203|Price|product|||TS|rsf:gd-|-stype:attr=1|qr_nm:gd|res:RC4|com-cf:nl|ptrs:na|ktp:N0|mc:99819|mtp:S|qry_typ:P|lang:en|wc:3|cs:8853|v=4,Arihant Handloom Industries,https://www.indiamart.com/arihant-handloom-industries/?pos=129&kwd=baby fleece blanket&tags=||||8747.203|Price|product|||TS|rsf:gd-|-stype:attr=1|qr_nm:gd|res:RC4|com-cf:nl|ptrs:na|ktp:N0|mc:99819|mtp:S|qry_typ:P|lang:en|wc:3|cs:8853|v=4,False,Old Housing Board Colony,Panipat,"Opposite R.K. Public School,Chawla Colony, Kutani Road,Panipat, Old Housing Board Colony, Panipat - 132103, Dist.Panipat, Haryana",7942784484,
"STC Printed Polar Fleece Blanket, Packaging Type: Bale",https://www.indiamart.com/proddetail/polar-fleece-blanket-26790510362.html?pos=130&kwd=baby fleece blanket&tags=||||8747.203|Price|product|||TS|rsf:gd-|-stype:attr=1|qr_nm:gd|res:RC4|com-cf:nl|ptrs:na|ktp:N0|mc:99819|mtp:S|qry_typ:P|lang:en|wc:3|cs:8853|v=4,Sumti Textile Company,https://www.indiamart.com/sumtitraders/?pos=130&kwd=baby fleece blanket&tags=||||8747.203|Price|product|||TS|rsf:gd-|-stype:attr=1|qr_nm:gd|res:RC4|com-cf:nl|ptrs:na|ktp:N0|mc:99819|mtp:S|qry_typ:P|lang:en|wc:3|cs:8853|v=4,False,Huda,Panipat,"Plot No. 125, Sector 29, Part 2, Huda, Panipat - 132103, Dist.Panipat, Haryana",8048615728,
"Multicolor Printed Polar Fleece Blanket, Packaging Type: Plastic Bag",https://www.indiamart.com/proddetail/printed-polar-fleece-blanket-2853948112097.html?pos=131&kwd=baby fleece blanket&tags=||||8747.203||product|||TS|rsf:gd-|-stype:attr=1|qr_nm:gd|res:RC4|com-cf:nl|ptrs:na|ktp:N0|mc:99819|mtp:S|qry_typ:P|lang:en|wc:3|cs:8853|v=4,Aarti Fab India,https://www.mydaytona.in/?pos=131&kwd=baby fleece blanket&tags=||||8747.203||product|||TS|rsf:gd-|-stype:attr=1|qr_nm:gd|res:RC4|com-cf:nl|ptrs:na|ktp:N0|mc:99819|mtp:S|qry_typ:P|lang:en|wc:3|cs:8853|v=4,False,Huda,Panipat,"102, Sector-29, Part-I, Huda, Panipat - 132103, Dist.Panipat, Haryana",8043864558,
"Multicolor Polar Fleece Blanket, Size: Single",https://www.indiamart.com/proddetail/polar-fleece-blanket-26931888673.html?pos=132&kwd=baby fleece blanket&tags=||||8747.203|Price|product|||TS|rsf:gd-|-stype:attr=1|qr_nm:gd|res:RC4|com-cf:nl|ptrs:na|ktp:N0|mc:99819|mtp:S|qry_typ:P|lang:en|wc:3|cs:8853|v=4,Divya Trading Co.,https://www.indiamart.com/divya-tradingcompany-haryana/?pos=132&kwd=baby fleece blanket&tags=||||8747.203|Price|product|||TS|rsf:gd-|-stype:attr=1|qr_nm:gd|res:RC4|com-cf:nl|ptrs:na|ktp:N0|mc:99819|mtp:S|qry_typ:P|lang:en|wc:3|cs:8853|v=4,False,Huda,Panipat,"M/S Divya Trading Co., Gali No 3, Dhoop Singh Nagar, Sanoli Road, Huda, Panipat - 132103, Dist.Panipat, Haryana",8043893710,
Fleece Blue Star Print Soft Hooded Baby Blanket Wrapper,https://www.indiamart.com/proddetail/star-print-soft-hooded-baby-blanket-wrapper-2854503333362.html?pos=133&kwd=baby fleece blanket&tags=||||8663.873|Price|product|||MDC|rsf:gd-|-stype:attr=1|qr_nm:gd|res:RC4|com-cf:nl|ptrs:na|ktp:N0|mc:99819|mtp:S|qry_typ:P|lang:en|wc:3|cs:8853|v=4,AQ Corporation,https://www.indiamart.com/aqcorporation/?pos=133&kwd=baby fleece blanket&tags=||||8663.873|Price|product|||MDC|rsf:gd-|-stype:attr=1|qr_nm:gd|res:RC4|com-cf:nl|ptrs:na|ktp:N0|mc:99819|mtp:S|qry_typ:P|lang:en|wc:3|cs:8853|v=4,False,,Bengaluru,"Ground And First Floor, No 88, 2nd Cross, 4th Main, NGEF Layout, Nagashetty Halli, Sanjaynagar Bengaluru Urban, Bengaluru - 560094, Dist.Bengaluru, Karnataka",7949325043,
"Polar Fleece blanket, 400 Gm To 1 kg",https://www.indiamart.com/proddetail/polar-fleece-blanket-24682637948.html?pos=134&kwd=baby fleece blanket&tags=||||8747.203||product|||TS|rsf:gd-|-stype:attr=1|qr_nm:gd|res:RC4|com-cf:nl|ptrs:na|ktp:N0|mc:99819|mtp:S|qry_typ:P|lang:en|wc:3|cs:8853|v=4,SVS International,https://www.indiamart.com/svs-international-panipat/?pos=134&kwd=baby fleece blanket&tags=||||8747.203||product|||TS|rsf:gd-|-stype:attr=1|qr_nm:gd|res:RC4|com-cf:nl|ptrs:na|ktp:N0|mc:99819|mtp:S|qry_typ:P|lang:en|wc:3|cs:8853|v=4,False,New HB Colony,Panipat,"No. 1629, Sector 12, New HB Colony, Panipat - 132103, Dist.Panipat, Haryana",8046044397,
Material: Fleece Plain Baby Quick Dry Sheet / Newborn baby dry sheet,https://www.indiamart.com/proddetail/quick-dry-baby-sheet-2853273540688.html?pos=135&kwd=baby fleece blanket&tags=||||8559.269|Price|product|||MDC|rsf:gd-|-stype:attr=1|qr_nm:gd|res:RC4|com-cf:nl|ptrs:na|ktp:N0|mc:99819|mtp:S|qry_typ:P|lang:en|wc:3|cs:8853|v=4,Sheza Enterprises,https://www.indiamart.com/shezaenterprises/?pos=135&kwd=baby fleece blanket&tags=||||8559.269|Price|product|||MDC|rsf:gd-|-stype:attr=1|qr_nm:gd|res:RC4|com-cf:nl|ptrs:na|ktp:N0|mc:99819|mtp:S|qry_typ:P|lang:en|wc:3|cs:8853|v=4,False,,Indore,"Alif House, 5, Khajrana Main Road, Opposite HP Petrol Pump,, Indore - 452001, Dist.Indore, Madhya Pradesh",7948547068,
"Black Single Woolen Fleece Blanket, Packaging Type: Polybag",https://www.indiamart.com/proddetail/woolen-fleece-blanket-24111003191.html?pos=136&kwd=baby fleece blanket&tags=||||8747.203|Price|proxy|||TS|rsf:gd-|-stype:attr=1|qr_nm:gd|res:RC4|com-cf:nl|ptrs:na|ktp:N0|mc:99819|mtp:S|qry_typ:P|lang:en|wc:3|cs:8853|v=4,Navya Enterprises,https://www.enterprisesnavya.com/?pos=136&kwd=baby fleece blanket&tags=||||8747.203|Price|proxy|||TS|rsf:gd-|-stype:attr=1|qr_nm:gd|res:RC4|com-cf:nl|ptrs:na|ktp:N0|mc:99819|mtp:S|qry_typ:P|lang:en|wc:3|cs:8853|v=4,False,Chadau Mohalla,Panipat,"H No.809, Purewal Colony, Chadau Mohalla, Panipat - 132103, Dist.Panipat, Haryana",8048968729,
Fleece White Baby Flannel Blankets,https://www.indiamart.com/proddetail/baby-flannel-blankets-23262378673.html?pos=137&kwd=baby fleece blanket&tags=||||8752.144|Price|product|||MDC|rsf:gd-|-stype:attr=1|qr_nm:gd|res:RC4|com-cf:nl|ptrs:na|ktp:N0|mc:99819|mtp:S|qry_typ:P|lang:en|wc:3|cs:8853|v=4,TGB Marketing,https://www.indiamart.com/tgb-marketing/?pos=137&kwd=baby fleece blanket&tags=||||8752.144|Price|product|||MDC|rsf:gd-|-stype:attr=1|qr_nm:gd|res:RC4|com-cf:nl|ptrs:na|ktp:N0|mc:99819|mtp:S|qry_typ:P|lang:en|wc:3|cs:8853|v=4,False,Chandni Chowk,New Delhi,"101, Second Floor, Khursid Market, Chandni Chowk, New Delhi - 110006, Dist.Delhi, Delhi",8046075932,
"Raised Polar Fleece Printed Blanket, Packaging Type: Polybag",https://www.indiamart.com/proddetail/polar-fleece-printed-blanket-2852646690497.html?pos=138&kwd=baby fleece blanket&tags=||||8661.854|Price|product|||TS|rsf:gd-|-stype:attr=1|qr_nm:gd|res:RC4|com-cf:nl|ptrs:na|ktp:N0|mc:99819|mtp:S|qry_typ:P|lang:en|wc:3|cs:8853|v=4,Shrey Fabrics,https://www.shreyfabrics.com/?pos=138&kwd=baby fleece blanket&tags=||||8661.854|Price|product|||TS|rsf:gd-|-stype:attr=1|qr_nm:gd|res:RC4|com-cf:nl|ptrs:na|ktp:N0|mc:99819|mtp:S|qry_typ:P|lang:en|wc:3|cs:8853|v=4,False,Bajra,Ludhiana,"Gali No. 8-1/2, Rahon Road Jai Singh Road, Village Ghelewal Abadi, Bajra, Ludhiana - 141007, Dist.Ludhiana, Punjab",7942558775,
Coral Fleece Bathing Towel,https://www.indiamart.com/proddetail/coral-fleece-bathing-towel-2854583129212.html?pos=139&kwd=baby fleece blanket&tags=||||8747.203|Price|product|||TS|rsf:gd-|-stype:attr=1|qr_nm:gd|res:RC4|com-cf:nl|ptrs:na|ktp:N0|mc:99819|mtp:S|qry_typ:P|lang:en|wc:3|cs:8853|v=4,Tulsi Handicraft,https://www.indiamart.com/tulsihandicraftpanipat/?pos=139&kwd=baby fleece blanket&tags=||||8747.203|Price|product|||TS|rsf:gd-|-stype:attr=1|qr_nm:gd|res:RC4|com-cf:nl|ptrs:na|ktp:N0|mc:99819|mtp:S|qry_typ:P|lang:en|wc:3|cs:8853|v=4,False,Netaji Colony,Panipat,"10, Gangapuri Road, Netaji Colony, Panipat - 132103, Dist.Panipat, Haryana",7942837797,
"Raised Custom Sherpa Fleece Blanket, Packaging Type: Polybag, 250-300",https://www.indiamart.com/proddetail/sherpa-fleece-blanket-22992428462.html?pos=140&kwd=baby fleece blanket&tags=||||8954.051|Price|product|||TS|rsf:gd-|-stype:attr=1|qr_nm:gd|res:RC4|com-cf:nl|ptrs:na|ktp:N0|mc:99819|mtp:S|qry_typ:P|lang:en|wc:3|cs:8853|v=4,Tetra Clothing,https://www.tetraclothing.in/?pos=140&kwd=baby fleece blanket&tags=||||8954.051|Price|product|||TS|rsf:gd-|-stype:attr=1|qr_nm:gd|res:RC4|com-cf:nl|ptrs:na|ktp:N0|mc:99819|mtp:S|qry_typ:P|lang:en|wc:3|cs:8853|v=4,True,Gopichettipalaiyam,Chennai,"No. 59/28, Balu Building, Gopichettipalaiyam, Chennai - 638476, Dist.Chennai, Tamil Nadu",8048957951,
"USA Baby Muslin Kids Double Cloth Free Receiving Swaddles, Fleece Blanket for Kids, Quilted Blankets",https://www.indiamart.com/proddetail/usa-baby-muslin-kids-double-cloth-free-receiving-swaddles-fleece-blanket-for-kids-quilted-blankets-20162679373.html?pos=141&kwd=baby fleece blanket&tags=||||8706.263|Price|product|||TS|rsf:gd-|-stype:attr=1|qr_nm:gd|res:RC4|com-cf:nl|ptrs:na|ktp:N0|mc:99819|mtp:S|qry_typ:P|lang:en|wc:3|cs:8853|v=4,Mercury Weavers,https://www.indiamart.com/mercuryweavers/?pos=141&kwd=baby fleece blanket&tags=||||8706.263|Price|product|||TS|rsf:gd-|-stype:attr=1|qr_nm:gd|res:RC4|com-cf:nl|ptrs:na|ktp:N0|mc:99819|mtp:S|qry_typ:P|lang:en|wc:3|cs:8853|v=4,False,Gowripuram,Karur,"35/3, 2nd Floor, Gandhi Nagar 3rd Cross, Karur Town, Gowripuram, Karur - 639001, Dist.Karur, Tamil Nadu",8047641180,
Multicolor Printed Polar Fleece Blanket,https://www.indiamart.com/proddetail/polar-fleece-blanket-2852109393673.html?pos=142&kwd=baby fleece blanket&tags=||||8747.203|Price|product|||TS|rsf:gd-|-stype:attr=1|qr_nm:gd|res:RC4|com-cf:nl|ptrs:na|ktp:N0|mc:99819|mtp:S|qry_typ:P|lang:en|wc:3|cs:8853|v=4,Archana Fabrics,https://www.archanafabrics.com/?pos=142&kwd=baby fleece blanket&tags=||||8747.203|Price|product|||TS|rsf:gd-|-stype:attr=1|qr_nm:gd|res:RC4|com-cf:nl|ptrs:na|ktp:N0|mc:99819|mtp:S|qry_typ:P|lang:en|wc:3|cs:8853|v=4,False,Old Housing Board Colony,Panipat,"RK Puram Colony, Back Side Sugar Mill,, Old Housing Board Colony, Panipat - 132103, Dist.Panipat, Haryana",8043851138,
"Lexus Multicolor Polar Fleece Blanket, 1.5kg, Size: Meduim",https://www.indiamart.com/proddetail/polar-fleece-blanket-27111876862.html?pos=143&kwd=baby fleece blanket&tags=||||8747.203|Price|product|||TS|rsf:gd-|-stype:attr=1|qr_nm:gd|res:RC4|com-cf:nl|ptrs:na|ktp:N0|mc:99819|mtp:S|qry_typ:P|lang:en|wc:3|cs:8853|v=4,Om Handloom Industries,https://www.indiamart.com/omhandloomindustries/?pos=143&kwd=baby fleece blanket&tags=||||8747.203|Price|product|||TS|rsf:gd-|-stype:attr=1|qr_nm:gd|res:RC4|com-cf:nl|ptrs:na|ktp:N0|mc:99819|mtp:S|qry_typ:P|lang:en|wc:3|cs:8853|v=4,False,Amar Bhawan Chowk Area,Panipat,"194/4, Near Hanuman Mandir, Ghati Purbian, Panipat Opp. Maharaja aggarsain kambal market, Pachranga Bazar, Amar Bhawan Chowk Area, Panipat - 132103, Dist.Panipat, Haryana",8043829211,
"Milled Yellow Printed Fleece Blanket, Size: Double",https://www.indiamart.com/proddetail/yellow-printed-fleece-blanket-2853614591973.html?pos=144&kwd=baby fleece blanket&tags=||||8747.203|Price|product|||TS|rsf:gd-|-stype:attr=1|qr_nm:gd|res:RC4|com-cf:nl|ptrs:na|ktp:N0|mc:99819|mtp:S|qry_typ:P|lang:en|wc:3|cs:8853|v=4,Mahalaxmi Enterprise,https://www.indiamart.com/mahalaxmi-enterprise-panipat/?pos=144&kwd=baby fleece blanket&tags=||||8747.203|Price|product|||TS|rsf:gd-|-stype:attr=1|qr_nm:gd|res:RC4|com-cf:nl|ptrs:na|ktp:N0|mc:99819|mtp:S|qry_typ:P|lang:en|wc:3|cs:8853|v=4,False,Shiv Nagar,Panipat,"Near Krishan Pura, Shiv Nagar, Shiv Nagar, Shiv Nagar, Shiv Nagar, Shiv Nagar, Panipat - 132103, Dist.Panipat, Haryana",7949082941,
Multicolor Raised Polar Fleece Blanket,https://www.indiamart.com/proddetail/polar-fleece-blanket-27090319155.html?pos=145&kwd=baby fleece blanket&tags=||||8747.203|Price|product|||TS|rsf:gd-|-stype:attr=1|qr_nm:gd|res:RC4|com-cf:nl|ptrs:na|ktp:N0|mc:99819|mtp:S|qry_typ:P|lang:en|wc:3|cs:8853|v=4,Shivam Handloom,https://www.indiamart.com/shivamhandloompanipat/?pos=145&kwd=baby fleece blanket&tags=||||8747.203|Price|product|||TS|rsf:gd-|-stype:attr=1|qr_nm:gd|res:RC4|com-cf:nl|ptrs:na|ktp:N0|mc:99819|mtp:S|qry_typ:P|lang:en|wc:3|cs:8853|v=4,False,Sethi Chowk Area,Panipat,"Near Ramlilla Ground, Dawar Colony, Sethi Chowk Area, Panipat - 132103, Dist.Panipat, Haryana",7942544231,
"Single Plain Fleece Travel Blankets, Packaging Type: Packet",https://www.indiamart.com/proddetail/3-in-1-travel-blanket-2854782505233.html?pos=146&kwd=baby fleece blanket&tags=||||8785.791|Price|product|||TS|rsf:gd-|-stype:attr=1|qr_nm:gd|res:RC4|com-cf:nl|ptrs:na|ktp:N0|mc:99819|mtp:S|qry_typ:P|lang:en|wc:3|cs:8853|v=4,SMR Merchandise LLP,https://www.smrmerchandise.com/?pos=146&kwd=baby fleece blanket&tags=||||8785.791|Price|product|||TS|rsf:gd-|-stype:attr=1|qr_nm:gd|res:RC4|com-cf:nl|ptrs:na|ktp:N0|mc:99819|mtp:S|qry_typ:P|lang:en|wc:3|cs:8853|v=4,False,Vasundhara,Ghaziabad,"R - 312, Vvip Addresses, Raj Nagar Extension, Vasundhara, Ghaziabad - 201017, Dist.Ghaziabad, Uttar Pradesh",8048604571,
"Signature Printed Thompson Double Bed Blanket, Packaging Type: Box",https://www.indiamart.com/proddetail/thompson-double-bed-blanket-21279228533.html?pos=147&kwd=baby fleece blanket&tags=||||8752.144|Price|product|||TS|rsf:gd-|-stype:attr=1|qr_nm:gd|res:RC4|com-cf:nl|ptrs:na|ktp:N0|mc:99819|mtp:S|qry_typ:P|lang:en|wc:3|cs:8853|v=4,Maruti Textiles,https://www.marutitextiles.net/?pos=147&kwd=baby fleece blanket&tags=||||8752.144|Price|product|||TS|rsf:gd-|-stype:attr=1|qr_nm:gd|res:RC4|com-cf:nl|ptrs:na|ktp:N0|mc:99819|mtp:S|qry_typ:P|lang:en|wc:3|cs:8853|v=4,False,Dilshad Garden,New Delhi,"340-A/26, Gali No. 1A, Friends Colony, Industrial Area, Dilshad Garden, New Delhi - 110095, Dist.Delhi, Delhi",8047638518,
Flannel Baby Blanket,https://www.indiamart.com/proddetail/flannel-baby-blanket-2852262250030.html?pos=148&kwd=baby fleece blanket&tags=||||8752.144|Price|product|||TS|rsf:gd-|-stype:attr=1|qr_nm:gd|res:RC4|com-cf:nl|ptrs:na|ktp:N0|mc:99819|mtp:S|qry_typ:P|lang:en|wc:3|cs:8853|v=4,Shivani Bed Cover,https://www.indiamart.com/shivanibedcover-delhi/?pos=148&kwd=baby fleece blanket&tags=||||8752.144|Price|product|||TS|rsf:gd-|-stype:attr=1|qr_nm:gd|res:RC4|com-cf:nl|ptrs:na|ktp:N0|mc:99819|mtp:S|qry_typ:P|lang:en|wc:3|cs:8853|v=4,False,Kamla Nagar,New Delhi,"5164, Kohlapur Road, Kamla Nagar, Kamla Nagar, New Delhi - 110007, Dist.Delhi, Delhi",8047803363,
"Raised Printed Fleece Blanket, Packaging Type: Polybag, Size: Single",https://www.indiamart.com/proddetail/printed-fleece-blanket-2853361745330.html?pos=149&kwd=baby fleece blanket&tags=||||8747.203|Price|product|||TS|rsf:gd-|-stype:attr=1|qr_nm:gd|res:RC4|com-cf:nl|ptrs:na|ktp:N0|mc:99819|mtp:S|qry_typ:P|lang:en|wc:3|cs:8853|v=4,Avior Industries Private Limited,https://www.aviorindustries.net/?pos=149&kwd=baby fleece blanket&tags=||||8747.203|Price|product|||TS|rsf:gd-|-stype:attr=1|qr_nm:gd|res:RC4|com-cf:nl|ptrs:na|ktp:N0|mc:99819|mtp:S|qry_typ:P|lang:en|wc:3|cs:8853|v=4,False,Part-1,Panipat,"Plot No. 60, Sector-29 Part-1, Part-1, Panipat - 132103, Dist.Panipat, Haryana",7942843848,
"Multicolor Double Printed Mink Blanket, 4 kg",https://www.indiamart.com/proddetail/printed-mink-blanket-2854640339648.html?pos=150&kwd=baby fleece blanket&tags=||||8747.203|Price|product|||TS|rsf:gd-|-stype:attr=1|qr_nm:gd|res:RC4|com-cf:nl|ptrs:na|ktp:N0|mc:99819|mtp:S|qry_typ:P|lang:en|wc:3|cs:8853|v=4,Vinayak Enterprises,https://www.vinayakenterprisesind.com/?pos=150&kwd=baby fleece blanket&tags=||||8747.203|Price|product|||TS|rsf:gd-|-stype:attr=1|qr_nm:gd|res:RC4|com-cf:nl|ptrs:na|ktp:N0|mc:99819|mtp:S|qry_typ:P|lang:en|wc:3|cs:8853|v=4,False,,Panipat,"611/24 Opp. Goyal Petrol Pump Kishan Pura, Panipat - 132103, Dist.Panipat, Haryana",8045907780,
Cotton Fleece Throw Over Blanket Kids,https://www.indiamart.com/proddetail/cotton-fleece-throw-over-blanket-kids-2087010097.html?pos=151&kwd=baby fleece blanket&tags=||||9839.57|Price|product|||MDC|rsf:gd-|-stype:attr=1|qr_nm:gd|res:RC4|com-cf:nl|ptrs:na|ktp:N0|mc:99819|mtp:S|qry_typ:P|lang:en|wc:3|cs:8853|v=4,Patodia Organics Llp,https://www.indiamart.com/patodiaorganics/?pos=151&kwd=baby fleece blanket&tags=||||9839.57|Price|product|||MDC|rsf:gd-|-stype:attr=1|qr_nm:gd|res:RC4|com-cf:nl|ptrs:na|ktp:N0|mc:99819|mtp:S|qry_typ:P|lang:en|wc:3|cs:8853|v=4,False,Kalakar Street,Kolkata,"2nd Floor 7, Sambhunath Mullick Lane, Kalakar Street, Kolkata - 700007, Dist.Kolkata, West Bengal",8046057849,
Polyester Printed Blanket Roll,https://www.indiamart.com/proddetail/blanket-roll-2853334563488.html?pos=152&kwd=baby fleece blanket&tags=||||8661.854|Price|proxy|||TS|rsf:gd-|-stype:attr=1|qr_nm:gd|res:RC4|com-cf:nl|ptrs:na|ktp:N0|mc:99819|mtp:S|qry_typ:P|lang:en|wc:3|cs:8853|v=4,Kunal Trading Company,https://www.indiamart.com/kunaltradingcompany-ludhiana/?pos=152&kwd=baby fleece blanket&tags=||||8661.854|Price|proxy|||TS|rsf:gd-|-stype:attr=1|qr_nm:gd|res:RC4|com-cf:nl|ptrs:na|ktp:N0|mc:99819|mtp:S|qry_typ:P|lang:en|wc:3|cs:8853|v=4,False,Manj,Ludhiana,"Office No.11, 1st Floor, Manj, Ludhiana - 141008, Dist.Ludhiana, Punjab",7942541927,
"Baby Monthly Milestone Blanket/1to12 Months/Best for Newborn Boy&Girl,skin friendly,With Golden Ring",https://www.indiamart.com/proddetail/baby-monthly-milestone-blanket-1to12-months-best-for-newborn-boy-girl-skin-friendly-with-golden-ring-2850618360748.html?pos=153&kwd=baby fleece blanket&tags=||||8230.883|Price|product|||TS|rsf:gd-|-stype:attr=1|qr_nm:gd|res:RC4|com-cf:nl|ptrs:na|ktp:N0|mc:99819|mtp:S|qry_typ:P|lang:en|wc:3|cs:8853|v=4,Crystal Enterprise,https://www.indiamart.com/crystalenterprisesurat/?pos=153&kwd=baby fleece blanket&tags=||||8230.883|Price|product|||TS|rsf:gd-|-stype:attr=1|qr_nm:gd|res:RC4|com-cf:nl|ptrs:na|ktp:N0|mc:99819|mtp:S|qry_typ:P|lang:en|wc:3|cs:8853|v=4,False,Amroli,Surat,"E/403, Lotus Residency, B/S Swastik Row House, Kosad, Amroli, Surat - 394107, Dist.Surat, Gujarat",8047314380,
"Red Silesia cutie pie blanket set, Size: Double, Packaging Type: Packet",https://www.indiamart.com/proddetail/silesia-cutie-pie-blanket-set-2850445973030.html?pos=154&kwd=baby fleece blanket&tags=||||8747.203|Price|product|||TS|rsf:gd-|-stype:attr=1|qr_nm:gd|res:RC4|com-cf:nl|ptrs:na|ktp:N0|mc:99819|mtp:S|qry_typ:P|lang:en|wc:3|cs:8853|v=4,Chander Bhan Tej Bhan,https://www.cbtbhome.com/?pos=154&kwd=baby fleece blanket&tags=||||8747.203|Price|product|||TS|rsf:gd-|-stype:attr=1|qr_nm:gd|res:RC4|com-cf:nl|ptrs:na|ktp:N0|mc:99819|mtp:S|qry_typ:P|lang:en|wc:3|cs:8853|v=4,False,pachranga bazar,Panipat,"416/4, Gf And Basement, Amar Bhawan Chowk, Circular Road, pachranga bazar, Panipat - 132103, Dist.Panipat, Haryana",7942802452,
Fleece Multicolor Printed Baby Blanket,https://www.indiamart.com/proddetail/printed-baby-blanket-2853713691355.html?pos=155&kwd=baby fleece blanket&tags=||||8747.203|Price|product|||TS|rsf:gd-|-stype:attr=1|qr_nm:gd|res:RC4|com-cf:nl|ptrs:na|ktp:N0|mc:99819|mtp:S|qry_typ:P|lang:en|wc:3|cs:8853|v=4,Cotton Bolls Textiles,https://www.indiamart.com/cottonbollstextilespanipat/?pos=155&kwd=baby fleece blanket&tags=||||8747.203|Price|product|||TS|rsf:gd-|-stype:attr=1|qr_nm:gd|res:RC4|com-cf:nl|ptrs:na|ktp:N0|mc:99819|mtp:S|qry_typ:P|lang:en|wc:3|cs:8853|v=4,False,Huda,Panipat,"House No - 485 Sector 13-17, Huda, Panipat - 132103, Dist.Panipat, Haryana",8043855324,
Coral Fleece Bathing Towel,https://www.indiamart.com/proddetail/coral-fleece-bathing-towel-2854583129212.html?pos=156&kwd=baby fleece blanket&tags=||||8747.203|Price|product|||TS|rsf:gd-|-stype:attr=1|qr_nm:gd|res:RC4|com-cf:nl|ptrs:na|ktp:N0|mc:99819|mtp:S|qry_typ:P|lang:en|wc:3|cs:8853|v=4,Tulsi Handicraft,https://www.indiamart.com/tulsihandicraftpanipat/?pos=156&kwd=baby fleece blanket&tags=||||8747.203|Price|product|||TS|rsf:gd-|-stype:attr=1|qr_nm:gd|res:RC4|com-cf:nl|ptrs:na|ktp:N0|mc:99819|mtp:S|qry_typ:P|lang:en|wc:3|cs:8853|v=4,False,Netaji Colony,Panipat,"10, Gangapuri Road, Netaji Colony, Panipat - 132103, Dist.Panipat, Haryana",7942837797,
"PHF Raised Polar Fleece Blanket, Packaging Type: Plastic Bag, 1 KG",https://www.indiamart.com/proddetail/polar-fleece-blanket-21855646597.html?pos=157&kwd=baby fleece blanket&tags=||||8661.854|Price|product|||TS|rsf:gd-|-stype:attr=1|qr_nm:gd|res:RC4|com-cf:nl|ptrs:na|ktp:N0|mc:99819|mtp:S|qry_typ:P|lang:en|wc:3|cs:8853|v=4,Metesh Keshav Global Private Limited,https://www.indiamart.com/meteshkeshavglobal/?pos=157&kwd=baby fleece blanket&tags=||||8661.854|Price|product|||TS|rsf:gd-|-stype:attr=1|qr_nm:gd|res:RC4|com-cf:nl|ptrs:na|ktp:N0|mc:99819|mtp:S|qry_typ:P|lang:en|wc:3|cs:8853|v=4,False,Mundian Kalan,Ludhiana,"D339, Phase 8, Focal Point, Mundian Kalan, Ludhiana - 141015, Dist.Ludhiana, Punjab",8048960932,
"100 W Plain Fleece Electric Blanket Single bed, Model Name/Number: NHC-EBR44, Size: 30 Inches X 60 Inches",https://www.indiamart.com/proddetail/electric-blanket-single-bed-2852941155162.html?pos=158&kwd=baby fleece blanket&tags=||||8752.144|Price|product|||TS|rsf:gd-|-stype:attr=1|qr_nm:gd|res:RC4|com-cf:nl|ptrs:na|ktp:N0|mc:99819|mtp:S|qry_typ:P|lang:en|wc:3|cs:8853|v=4,Noble Healthcare,https://www.derbyhealthcare.in/?pos=158&kwd=baby fleece blanket&tags=||||8752.144|Price|product|||TS|rsf:gd-|-stype:attr=1|qr_nm:gd|res:RC4|com-cf:nl|ptrs:na|ktp:N0|mc:99819|mtp:S|qry_typ:P|lang:en|wc:3|cs:8853|v=4,False,Subhash Nagar,New Delhi,"Shop No. 14/127, Ground Floor, Subhash Nagar, Subhash Nagar, New Delhi - 110027, Dist.Delhi, Delhi",8048955013,
Multicolor Double Bed Mink Blanket,https://www.indiamart.com/proddetail/double-bed-mink-blanket-2849780299112.html?pos=159&kwd=baby fleece blanket&tags=||||8747.203|Price|product|||MDC|rsf:gd-|-stype:attr=1|qr_nm:gd|res:RC4|com-cf:nl|ptrs:na|ktp:N0|mc:99819|mtp:S|qry_typ:P|lang:en|wc:3|cs:8853|v=4,Golden International Private Limited,https://www.indiamart.com/goldennternational/?pos=159&kwd=baby fleece blanket&tags=||||8747.203|Price|product|||MDC|rsf:gd-|-stype:attr=1|qr_nm:gd|res:RC4|com-cf:nl|ptrs:na|ktp:N0|mc:99819|mtp:S|qry_typ:P|lang:en|wc:3|cs:8853|v=4,False,Shastri Colony,Panipat,"G T Road Near Hotel Mid Town, Shastri Colony, Panipat - 132103, Dist.Panipat, Haryana",7942798689,
"Light Brown Milled Hotel Woolen Blanket, Size: Double",https://www.indiamart.com/proddetail/hotel-woolen-blanket-2849603471197.html?pos=160&kwd=baby fleece blanket&tags=||||8580.032|Price|product|||MDC|rsf:gd-|-stype:attr=1|qr_nm:gd|res:RC4|com-cf:nl|ptrs:na|ktp:N0|mc:99819|mtp:S|qry_typ:P|lang:en|wc:3|cs:8853|v=4,Vishal Associates,https://www.indiamart.com/vishalassociates-amritsar/?pos=160&kwd=baby fleece blanket&tags=||||8580.032|Price|product|||MDC|rsf:gd-|-stype:attr=1|qr_nm:gd|res:RC4|com-cf:nl|ptrs:na|ktp:N0|mc:99819|mtp:S|qry_typ:P|lang:en|wc:3|cs:8853|v=4,False,Amritsar Cantonment,Amritsar,"11/1, Residence Cum Office, Divine Square, Palm Grove, Ajnala Road, Amritsar Cantonment, Amritsar - 143001, Dist.Amritsar, Punjab",7942705722,
"Multicolor Milled Printed Fleece Blanket, Packaging Type: Plastic Bag, Size: 100x90 Inch",https://www.indiamart.com/proddetail/printed-fleece-blanket-26064161088.html?pos=161&kwd=baby fleece blanket&tags=||||8747.203|Price|product|||TS|rsf:gd-|-stype:attr=1|qr_nm:gd|res:RC4|com-cf:nl|ptrs:na|ktp:N0|mc:99819|mtp:S|qry_typ:P|lang:en|wc:3|cs:8853|v=4,A. A. ENTERPRISES,https://www.indiamart.com/aaenterprises-panipat/?pos=161&kwd=baby fleece blanket&tags=||||8747.203|Price|product|||TS|rsf:gd-|-stype:attr=1|qr_nm:gd|res:RC4|com-cf:nl|ptrs:na|ktp:N0|mc:99819|mtp:S|qry_typ:P|lang:en|wc:3|cs:8853|v=4,True,GT Road,Panipat,"Sec-6, Railway Crossing, Siddharth Nagar, Near Gulshan Kiryana Store,, GT Road, Panipat - 132103, Dist.Panipat, Haryana",8043852269,
Baby bedding quilt blanket set5in one,https://www.indiamart.com/proddetail/baby-bedding-quilt-blanket-set5in-one-2852624913733.html?pos=162&kwd=baby fleece blanket&tags=D||||8580.032|Price|proxy|||TS|rsf:gd-|-stype:attr=1|qr_nm:gd|res:RC4|com-cf:nl|ptrs:na|ktp:N0|mc:99819|mtp:S|qry_typ:P|lang:en|wc:3|cs:8853|v=4,Ritu Infants Care,https://www.indiamart.com/ritu-infants-care/?pos=162&kwd=baby fleece blanket&tags=D||||8580.032|Price|proxy|||TS|rsf:gd-|-stype:attr=1|qr_nm:gd|res:RC4|com-cf:nl|ptrs:na|ktp:N0|mc:99819|mtp:S|qry_typ:P|lang:en|wc:3|cs:8853|v=4,False,Sunder Nagar,Amritsar,"232, Tilak Nagar, Shivala Colony, Sunder Nagar, Amritsar - 143001, Dist.Amritsar, Punjab",7942712512,
"Soft Material Printed Hooded Baby Blanket, 0-5",https://www.indiamart.com/proddetail/hooded-baby-blanket-2850047389573.html?pos=163&kwd=baby fleece blanket&tags=||||8747.203|Price|product|||TS|rsf:gd-|-stype:attr=1|qr_nm:gd|res:RC4|com-cf:nl|ptrs:na|ktp:N0|mc:99819|mtp:S|qry_typ:P|lang:en|wc:3|cs:8853|v=4,Shri Ram Handloom Industries,https://www.shriramhandloomindustries.in/?pos=163&kwd=baby fleece blanket&tags=||||8747.203|Price|product|||TS|rsf:gd-|-stype:attr=1|qr_nm:gd|res:RC4|com-cf:nl|ptrs:na|ktp:N0|mc:99819|mtp:S|qry_typ:P|lang:en|wc:3|cs:8853|v=4,False,Model Town,Panipat,"2, Bal Mukund Market, Pachranga Bazar, Model Town, Panipat - 132103, Dist.Panipat, Haryana",8048262156,
"Meenu's Manchesters White 100 percent premium cotton Swaddles, Size: Singe, New Born Babies",https://www.indiamart.com/proddetail/100-percent-premium-cotton-swaddles-2851565208891.html?pos=164&kwd=baby fleece blanket&tags=||||8668.838|Price|product|||TS|rsf:gd-|-stype:attr=1|qr_nm:gd|res:RC4|com-cf:nl|ptrs:na|ktp:N0|mc:99819|mtp:S|qry_typ:P|lang:en|wc:3|cs:8853|v=4,Meenu's Manchesters,https://www.hotelbedsheet.in/?pos=164&kwd=baby fleece blanket&tags=||||8668.838|Price|product|||TS|rsf:gd-|-stype:attr=1|qr_nm:gd|res:RC4|com-cf:nl|ptrs:na|ktp:N0|mc:99819|mtp:S|qry_typ:P|lang:en|wc:3|cs:8853|v=4,False,Edayankattuvalsu,Erode,"26, Nggo Colony, 1, Edayankattuvalsu, Erode - 638009, Dist.Erode, Tamil Nadu",8048609221,
Purple Apple Printed Baby Sleeping Bag,https://www.indiamart.com/proddetail/purple-apple-printed-baby-sleeping-bag-2853733785991.html?pos=165&kwd=baby fleece blanket&tags=||||8230.883|Price|product|||TS|rsf:gd-|-stype:attr=1|qr_nm:gd|res:RC4|com-cf:nl|ptrs:na|ktp:N0|mc:99819|mtp:S|qry_typ:P|lang:en|wc:3|cs:8853|v=4,Concept Enterprise,https://www.cartforbaby.com/?pos=165&kwd=baby fleece blanket&tags=||||8230.883|Price|product|||TS|rsf:gd-|-stype:attr=1|qr_nm:gd|res:RC4|com-cf:nl|ptrs:na|ktp:N0|mc:99819|mtp:S|qry_typ:P|lang:en|wc:3|cs:8853|v=4,False,Dabholi,Surat,"17, Bhumi Park Society, Near Dabholi Road, Katargam, Dabholi, Surat - 395004, Dist.Surat, Gujarat",8047546659,
"Voile Multicolor Manufacturer of Handblock Printed Baby Quilts, Size: 40""x60""/60""x90""",https://www.indiamart.com/proddetail/manufacturer-of-handblock-printed-baby-quilts-2850761678862.html?pos=166&kwd=baby fleece blanket&tags=||||8601.347|Price|product|||TS|rsf:gd-|-stype:attr=1|qr_nm:gd|res:RC4|com-cf:nl|ptrs:na|ktp:N0|mc:99819|mtp:S|qry_typ:P|lang:en|wc:3|cs:8853|v=4,Indus Art And Emporium,https://www.indusart.in/?pos=166&kwd=baby fleece blanket&tags=||||8601.347|Price|product|||TS|rsf:gd-|-stype:attr=1|qr_nm:gd|res:RC4|com-cf:nl|ptrs:na|ktp:N0|mc:99819|mtp:S|qry_typ:P|lang:en|wc:3|cs:8853|v=4,True,Mansarovar,Jaipur,"H/3, First Floor, RIICO Industrial Area, Mansarovar, Jaipur - 302020, Dist.Jaipur, Rajasthan",8048956816,
White Size: Single 3 layered 100% cotton muslin baby blanket,https://www.indiamart.com/proddetail/3-layered-100-cotton-muslin-baby-blanket-2854613184112.html?pos=167&kwd=baby fleece blanket&tags=||||8211.142|Price|product|||TS|rsf:gd-|-stype:attr=1|qr_nm:gd|res:RC4|com-cf:nl|ptrs:na|ktp:N0|mc:99819|mtp:S|qry_typ:P|lang:en|wc:3|cs:8853|v=4,Sidhshlok Enterprises,https://www.indiamart.com/sidhshlokenterprises/?pos=167&kwd=baby fleece blanket&tags=||||8211.142|Price|product|||TS|rsf:gd-|-stype:attr=1|qr_nm:gd|res:RC4|com-cf:nl|ptrs:na|ktp:N0|mc:99819|mtp:S|qry_typ:P|lang:en|wc:3|cs:8853|v=4,False,Mulund West,Mumbai,"A-9, Chagpar Khimaji, R R T Road, Mumbai Suburban, Mulund West, Mumbai - 400080, Dist.Mumbai, Maharashtra",7942832648,
"Cotton Multicolor Baby Soft Flannel Blankets set, Size/Dimension: Large, 750 Gm",https://www.indiamart.com/proddetail/baby-soft-flannel-blankets-set-22496604473.html?pos=168&kwd=baby fleece blanket&tags=||||8307.81|Price|product|||TS|rsf:gd-|-stype:attr=1|qr_nm:gd|res:RC4|com-cf:nl|ptrs:na|ktp:N0|mc:99819|mtp:S|qry_typ:P|lang:en|wc:3|cs:8853|v=4,Lazytoddler Solutions Private Limited,https://www.indiamart.com/lazytoddler-solutions/?pos=168&kwd=baby fleece blanket&tags=||||8307.81|Price|product|||TS|rsf:gd-|-stype:attr=1|qr_nm:gd|res:RC4|com-cf:nl|ptrs:na|ktp:N0|mc:99819|mtp:S|qry_typ:P|lang:en|wc:3|cs:8853|v=4,False,Wakad,Pune,"A2-1001, Fl-A1, Behind Madhuban Hotel, S.No-40, Armada Parkhe Wasti, Wakad, Wakad, Pune - 411057, Dist.Pune, Maharashtra",8043819563,
"Fleece Pink Printed Baby Blanket, Size: Singe",https://www.indiamart.com/proddetail/printed-baby-blanket-24553382262.html?pos=169&kwd=baby fleece blanket&tags=||||8242.731|Price|product|||TS|rsf:gd-|-stype:attr=1|qr_nm:gd|res:RC4|com-cf:nl|ptrs:na|ktp:N0|mc:99819|mtp:S|qry_typ:P|lang:en|wc:3|cs:8853|v=4,Mahadev Sales,https://www.indiamart.com/mahadev-sales-thane/?pos=169&kwd=baby fleece blanket&tags=||||8242.731|Price|product|||TS|rsf:gd-|-stype:attr=1|qr_nm:gd|res:RC4|com-cf:nl|ptrs:na|ktp:N0|mc:99819|mtp:S|qry_typ:P|lang:en|wc:3|cs:8853|v=4,False,Kailash Colony,Ulhasnagar,"Shop No. 135 Mat Mandir Chowk, Kailash Colony, Ulhasnagar - 421005, Dist.Thane, Maharashtra",8048987054,
Velvet Size: Double Baby Blankets,https://www.indiamart.com/proddetail/baby-blankets-2854715411062.html?pos=177&kwd=baby fleece blanket&tags=D||||8661.854|Price|proxy|||MDC|rsf:gd-|-stype:attr=1|qr_nm:gd|res:RC4|com-cf:nl|ptrs:na|ktp:N0|mc:99819|mtp:S|qry_typ:P|lang:en|wc:3|cs:8853|v=4,Universal Traders,https://www.indiamart.com/universaltraderspunjab/?pos=177&kwd=baby fleece blanket&tags=D||||8661.854|Price|proxy|||MDC|rsf:gd-|-stype:attr=1|qr_nm:gd|res:RC4|com-cf:nl|ptrs:na|ktp:N0|mc:99819|mtp:S|qry_typ:P|lang:en|wc:3|cs:8853|v=4,False,Iqbal Ganj,Ludhiana,"B-X- 435, Telian Street, Near Iqbal Ganj Chowk, Iqbal Ganj, Ludhiana - 141008, Dist.Ludhiana, Punjab",8045731865,
"Fleece Multicolor Baby Pillow Cum Blanket, Size: Singe",https://www.indiamart.com/proddetail/baby-pillow-cum-blanket-2853630905330.html?pos=171&kwd=baby fleece blanket&tags=||||8747.203|Price|product|||TS|rsf:gd-|-stype:attr=1|qr_nm:gd|res:RC4|com-cf:nl|ptrs:na|ktp:N0|mc:99819|mtp:S|qry_typ:P|lang:en|wc:3|cs:8853|v=4,Shiv Textiles,https://www.indiamart.com/shivtextilespanipat/?pos=171&kwd=baby fleece blanket&tags=||||8747.203|Price|product|||TS|rsf:gd-|-stype:attr=1|qr_nm:gd|res:RC4|com-cf:nl|ptrs:na|ktp:N0|mc:99819|mtp:S|qry_typ:P|lang:en|wc:3|cs:8853|v=4,False,Jagjivan Ram Colony,Panipat,"Shop No.19-C, Aggarwal Gali Number 1, Gohana Road, Jagjivan Ram Colony, Panipat - 132103, Dist.Panipat, Haryana",7942665530,
"Fleece Baby Blanket, 12 Month",https://www.indiamart.com/proddetail/fleece-baby-blanket-23710449712.html?pos=172&kwd=baby fleece blanket&tags=CA||||8747.203|Price|product|||NA|rsf:gd-|-stype:attr=1|qr_nm:gd|res:RC4|com-cf:nl|ptrs:na|ktp:N0|mc:99819|mtp:S|qry_typ:P|lang:en|wc:3|cs:8853|v=4,Cloudy India Home Furnishing,https://www.indiamart.com/cloudyindia-home-furnishing/?pos=172&kwd=baby fleece blanket&tags=CA||||8747.203|Price|product|||NA|rsf:gd-|-stype:attr=1|qr_nm:gd|res:RC4|com-cf:nl|ptrs:na|ktp:N0|mc:99819|mtp:S|qry_typ:P|lang:en|wc:3|cs:8853|v=4,False,,Panipat,"Khewat No. 274, Village Kurar, Bapoli, Panipat - 132103, Dist.Panipat, Haryana",8048986408,
"Mom Care Printed Baby Fleece Blanket, Size: Newborn",https://www.indiamart.com/proddetail/baby-fleece-blanket-23821242012.html?pos=173&kwd=baby fleece blanket&tags=CA||||9839.57|Price|product|||NA|rsf:gd-|-stype:attr=1|qr_nm:gd|res:RC4|com-cf:nl|ptrs:na|ktp:N0|mc:99819|mtp:S|qry_typ:P|lang:en|wc:3|cs:8853|v=4,India Shoppers Hub,https://www.indiamart.com/india-shoppers-hub/?pos=173&kwd=baby fleece blanket&tags=CA||||9839.57|Price|product|||NA|rsf:gd-|-stype:attr=1|qr_nm:gd|res:RC4|com-cf:nl|ptrs:na|ktp:N0|mc:99819|mtp:S|qry_typ:P|lang:en|wc:3|cs:8853|v=4,False,,Kolkata,"8, 6th Floor, Shantiniketan Building, Camac Street, Kolkata - 700017, Dist.Kolkata, West Bengal",8046042060,
White (Base) Cotton Muslin Swaddle Blanket,https://www.indiamart.com/proddetail/cotton-muslin-swaddle-blanket-23904997948.html?pos=174&kwd=baby fleece blanket&tags=||||8231.259|Price|product|||MDC|rsf:gd-|-stype:attr=1|qr_nm:gd|res:RC4|com-cf:nl|ptrs:na|ktp:N0|mc:99819|mtp:S|qry_typ:P|lang:en|wc:3|cs:8853|v=4,Hemp Ecotex,https://www.indiamart.com/hempecotex/?pos=174&kwd=baby fleece blanket&tags=||||8231.259|Price|product|||MDC|rsf:gd-|-stype:attr=1|qr_nm:gd|res:RC4|com-cf:nl|ptrs:na|ktp:N0|mc:99819|mtp:S|qry_typ:P|lang:en|wc:3|cs:8853|v=4,False,Val,Bhiwandi,"1st Floor, H. No 1661/12 Gala No 106, BL-K, Dharam Complex, Phase-I, Rahnal Village, Val, Bhiwandi - 421302, Maharashtra",7949092530,
"Cloth Orange Baby Carry Bag, Age Group: 1-2 Years, Packaging Type: Transparent",https://www.indiamart.com/proddetail/baby-carry-bag-2851743097562.html?pos=175&kwd=baby fleece blanket&tags=||||8783.355|Price|product|||MDC|rsf:gd-|-stype:attr=1|qr_nm:gd|res:RC4|com-cf:nl|ptrs:na|ktp:N0|mc:99819|mtp:S|qry_typ:P|lang:en|wc:3|cs:8853|v=4,Om Shiv International,https://www.indiamart.com/omshivinternational/?pos=175&kwd=baby fleece blanket&tags=||||8783.355|Price|product|||MDC|rsf:gd-|-stype:attr=1|qr_nm:gd|res:RC4|com-cf:nl|ptrs:na|ktp:N0|mc:99819|mtp:S|qry_typ:P|lang:en|wc:3|cs:8853|v=4,False,Baghpat,Aminagar Sarai,"170, Gauspur, Baghpat, Baghpat, Aminagar Sarai - 250606, Dist.Bagpat, Uttar Pradesh",8048616452,
Woolen Multicolor Baby Hooded Blanket,https://www.indiamart.com/proddetail/baby-hooded-blanket-26925623055.html?pos=176&kwd=baby fleece blanket&tags=||||8747.203|Price|product|||TS|rsf:gd-|-stype:attr=1|qr_nm:gd|res:RC4|com-cf:nl|ptrs:na|ktp:N0|mc:99819|mtp:S|qry_typ:P|lang:en|wc:3|cs:8853|v=4,Pavitra Textile,https://www.pavitratextile.com/?pos=176&kwd=baby fleece blanket&tags=||||8747.203|Price|product|||TS|rsf:gd-|-stype:attr=1|qr_nm:gd|res:RC4|com-cf:nl|ptrs:na|ktp:N0|mc:99819|mtp:S|qry_typ:P|lang:en|wc:3|cs:8853|v=4,False,Panipat N.S.M.,Panipat,"1560/10, Sanoli Road Pujara Sweets, Panipat N.S.M., Panipat - 132103, Dist.Panipat, Haryana",8047655734,
Velvet Size: Double Baby Blankets,https://www.indiamart.com/proddetail/baby-blankets-2854715411062.html?pos=177&kwd=baby fleece blanket&tags=D||||8661.854|Price|proxy|||MDC|rsf:gd-|-stype:attr=1|qr_nm:gd|res:RC4|com-cf:nl|ptrs:na|ktp:N0|mc:99819|mtp:S|qry_typ:P|lang:en|wc:3|cs:8853|v=4,Universal Traders,https://www.indiamart.com/universaltraderspunjab/?pos=177&kwd=baby fleece blanket&tags=D||||8661.854|Price|proxy|||MDC|rsf:gd-|-stype:attr=1|qr_nm:gd|res:RC4|com-cf:nl|ptrs:na|ktp:N0|mc:99819|mtp:S|qry_typ:P|lang:en|wc:3|cs:8853|v=4,False,Iqbal Ganj,Ludhiana,"B-X- 435, Telian Street, Near Iqbal Ganj Chowk, Iqbal Ganj, Ludhiana - 141008, Dist.Ludhiana, Punjab",8045731865,
"camel colour Milled Hospital Soft Fleece Blanket, Packaging Type: bundle, Size: Single",https://www.indiamart.com/proddetail/hospital-soft-fleece-blanket-2852731624312.html?pos=178&kwd=baby fleece blanket&tags=||||8791.36|Price|product|||TS|rsf:gd-|-stype:attr=1|qr_nm:gd|res:RC4|com-cf:nl|ptrs:na|ktp:N0|mc:99819|mtp:S|qry_typ:P|lang:en|wc:3|cs:8853|v=4,M.S. Textiles,https://www.indiamart.com/m-s-textiles/?pos=178&kwd=baby fleece blanket&tags=||||8791.36|Price|product|||TS|rsf:gd-|-stype:attr=1|qr_nm:gd|res:RC4|com-cf:nl|ptrs:na|ktp:N0|mc:99819|mtp:S|qry_typ:P|lang:en|wc:3|cs:8853|v=4,False,Mohammadpur Dwedha,Muradnagar,"Agrasen Market, Mohammadpur Dwedha, Muradnagar - 201206, Dist.Ghaziabad, Uttar Pradesh",8048953200,
"Brown Double Fleece Printed Blanket, 2kg, Size: Single",https://www.indiamart.com/proddetail/fleece-printed-blanket-24590772830.html?pos=179&kwd=baby fleece blanket&tags=||||8747.203|Price|product|||TS|rsf:gd-|-stype:attr=1|qr_nm:gd|res:RC4|com-cf:nl|ptrs:na|ktp:N0|mc:99819|mtp:S|qry_typ:P|lang:en|wc:3|cs:8853|v=4,T.R. Handloom,https://www.indiamart.com/tr-handloom/?pos=179&kwd=baby fleece blanket&tags=||||8747.203|Price|product|||TS|rsf:gd-|-stype:attr=1|qr_nm:gd|res:RC4|com-cf:nl|ptrs:na|ktp:N0|mc:99819|mtp:S|qry_typ:P|lang:en|wc:3|cs:8853|v=4,False,Chadau Mohalla,Panipat,"272/10, Ramayani Chowk, Chadau Mohalla, Panipat - 132103, Dist.Panipat, Haryana",7942533704,
"USA Baby Muslin Kids Double Cloth Free Receiving Swaddles, Fleece Blanket for Kids, Quilted Blankets",https://www.indiamart.com/proddetail/usa-baby-muslin-kids-double-cloth-free-receiving-swaddles-fleece-blanket-for-kids-quilted-blankets-20162679373.html?pos=180&kwd=baby fleece blanket&tags=||||8706.263|Price|product|||TS|rsf:gd-|-stype:attr=1|qr_nm:gd|res:RC4|com-cf:nl|ptrs:na|ktp:N0|mc:99819|mtp:S|qry_typ:P|lang:en|wc:3|cs:8853|v=4,Mercury Weavers,https://www.indiamart.com/mercuryweavers/?pos=180&kwd=baby fleece blanket&tags=||||8706.263|Price|product|||TS|rsf:gd-|-stype:attr=1|qr_nm:gd|res:RC4|com-cf:nl|ptrs:na|ktp:N0|mc:99819|mtp:S|qry_typ:P|lang:en|wc:3|cs:8853|v=4,False,Gowripuram,Karur,"35/3, 2nd Floor, Gandhi Nagar 3rd Cross, Karur Town, Gowripuram, Karur - 639001, Dist.Karur, Tamil Nadu",8047641180,
Printed Baby Blanket,https://www.indiamart.com/proddetail/baby-blanket-22286603488.html?pos=181&kwd=baby fleece blanket&tags=||||8211.142|Price|product|||TS|rsf:gd-|-stype:attr=1|qr_nm:gd|res:RC4|com-cf:nl|ptrs:na|ktp:N0|mc:99819|mtp:S|qry_typ:P|lang:en|wc:3|cs:8853|v=4,Mahalaxmi Textiles,https://www.indiamart.com/mahalaxmitextiles-maharashtra/?pos=181&kwd=baby fleece blanket&tags=||||8211.142|Price|product|||TS|rsf:gd-|-stype:attr=1|qr_nm:gd|res:RC4|com-cf:nl|ptrs:na|ktp:N0|mc:99819|mtp:S|qry_typ:P|lang:en|wc:3|cs:8853|v=4,False,Kalbadevi,Mumbai,"R. No. 11, 1st Floor, 23 Lohia Sadan, Kalbadevi Road Borana, Kalbadevi, Mumbai - 400002, Dist.Mumbai, Maharashtra",7942535985,
"Single Printed Polar Fleece Blankets(Diamond Dabbi), 380 Grams, Size: 140 X 220 Cms",https://www.indiamart.com/proddetail/polar-fleece-blankets-diamond-dabbi-21267552973.html?pos=182&kwd=baby fleece blanket&tags=||||8747.203|Price|product|||TS|rsf:gd-|-stype:attr=1|qr_nm:gd|res:RC4|com-cf:nl|ptrs:na|ktp:N0|mc:99819|mtp:S|qry_typ:P|lang:en|wc:3|cs:8853|v=4,Om Shree Fab,https://www.omshreefab.com/?pos=182&kwd=baby fleece blanket&tags=||||8747.203|Price|product|||TS|rsf:gd-|-stype:attr=1|qr_nm:gd|res:RC4|com-cf:nl|ptrs:na|ktp:N0|mc:99819|mtp:S|qry_typ:P|lang:en|wc:3|cs:8853|v=4,False,Ugra Kheri,Panipat,"Plot No. 41, Gali No. 6, Baljeet Nagar, Ugra Kheri, Panipat - 132103, Dist.Panipat, Haryana",8048264995,
"Printed Milled Polar Fleece Single Bed Blanket, 400gm, Size: 60 X 90 Inch",https://www.indiamart.com/proddetail/polar-fleece-single-bed-blanket-27291680791.html?pos=183&kwd=baby fleece blanket&tags=||||9839.57|Price|product|||TS|rsf:gd-|-stype:attr=1|qr_nm:gd|res:RC4|com-cf:nl|ptrs:na|ktp:N0|mc:99819|mtp:S|qry_typ:P|lang:en|wc:3|cs:8853|v=4,Kamal Stores,https://www.indiamart.com/kamalstoreskolkata/?pos=183&kwd=baby fleece blanket&tags=||||9839.57|Price|product|||TS|rsf:gd-|-stype:attr=1|qr_nm:gd|res:RC4|com-cf:nl|ptrs:na|ktp:N0|mc:99819|mtp:S|qry_typ:P|lang:en|wc:3|cs:8853|v=4,False,Kothi,Kolkata,"46, Jamunalal Bajaj Street Rani Kothi, 2nd floor, Kothi, Kolkata - 700007, Dist.Kolkata, West Bengal",8047552940,
"Cotton Soft Fabric Kids Wrapper Set, Size: Medium",https://www.indiamart.com/proddetail/kids-wrapper-set-2852890103497.html?pos=184&kwd=baby fleece blanket&tags=||||8211.142|Price|proxy|||TS|rsf:gd-|-stype:attr=1|qr_nm:gd|res:RC4|com-cf:nl|ptrs:na|ktp:N0|mc:99819|mtp:S|qry_typ:P|lang:en|wc:3|cs:8853|v=4,World 4 Kids,https://www.world4kids.in/?pos=184&kwd=baby fleece blanket&tags=||||8211.142|Price|proxy|||TS|rsf:gd-|-stype:attr=1|qr_nm:gd|res:RC4|com-cf:nl|ptrs:na|ktp:N0|mc:99819|mtp:S|qry_typ:P|lang:en|wc:3|cs:8853|v=4,False,Masjid,Mumbai,"Shop No 32 Sheriff Devji Street, Chakla, Masjid, Mumbai - 400003, Dist.Mumbai, Maharashtra",8048965492,
"Crazy Football Glow In The Dark Blanket For Kids | 150 X 200 Cm | 0-15 Years| Ideal Gift For Boys & Girls, Soft Flannel Fleece Throw, Cozy & Warm All-Season Radium Blanket, (Grey, Queen Size)",https://www.indiamart.com/proddetail/crazy-football-glow-in-the-dark-blanket-for-kids-150-x-200-cm-0-15-years-ideal-gift-for-boys-girls-soft-flannel-fleece-throw-cozy-warm-all-season-radium-blanket-grey-queen-size-2854555319333.html?pos=185&kwd=baby fleece blanket&tags=||||8211.142|Price|product|||MDC|rsf:gd-|-stype:attr=1|qr_nm:gd|res:RC4|com-cf:nl|ptrs:na|ktp:N0|mc:99819|mtp:S|qry_typ:P|lang:en|wc:3|cs:8853|v=4,Gift To Love,https://www.indiamart.com/gifttolove/?pos=185&kwd=baby fleece blanket&tags=||||8211.142|Price|product|||MDC|rsf:gd-|-stype:attr=1|qr_nm:gd|res:RC4|com-cf:nl|ptrs:na|ktp:N0|mc:99819|mtp:S|qry_typ:P|lang:en|wc:3|cs:8853|v=4,False,,Mumbai,"BLDG B 20, Flat No - Unit No 3, Rashtiya Mazdoor CHS Ltd, Ashok Nagar, Opp Vijaya Bank, Dahisar-East Mumbai Suburban, Mumbai - 400068, Dist.Mumbai, Maharashtra",,
Baby Blanket Manufactures,https://www.indiamart.com/proddetail/baby-blanket-manufactures-2854173527491.html?pos=186&kwd=baby fleece blanket&tags=||||8747.203||product|||TS|rsf:gd-|-stype:attr=1|qr_nm:gd|res:RC4|com-cf:nl|ptrs:na|ktp:N0|mc:99819|mtp:S|qry_typ:P|lang:en|wc:3|cs:8853|v=4,Krishna Texo Fab,https://www.indiamart.com/krishna-texo-fab/?pos=186&kwd=baby fleece blanket&tags=||||8747.203||product|||TS|rsf:gd-|-stype:attr=1|qr_nm:gd|res:RC4|com-cf:nl|ptrs:na|ktp:N0|mc:99819|mtp:S|qry_typ:P|lang:en|wc:3|cs:8853|v=4,False,Old Housing Board Colony,Panipat,"1091/3 Pachranga Bazar, Old Housing Board Colony, Panipat - 132103, Dist.Panipat, Haryana",8048960024,
Cotton White base printed Hooded Baby Blanket,https://www.indiamart.com/proddetail/hooded-baby-blanket-2851209756255.html?pos=187&kwd=baby fleece blanket&tags=||||8668.838|Price|product|||TS|rsf:gd-|-stype:attr=1|qr_nm:gd|res:RC4|com-cf:nl|ptrs:na|ktp:N0|mc:99819|mtp:S|qry_typ:P|lang:en|wc:3|cs:8853|v=4,Ram Textiles,https://www.indiamart.com/ram-textiles/?pos=187&kwd=baby fleece blanket&tags=||||8668.838|Price|product|||TS|rsf:gd-|-stype:attr=1|qr_nm:gd|res:RC4|com-cf:nl|ptrs:na|ktp:N0|mc:99819|mtp:S|qry_typ:P|lang:en|wc:3|cs:8853|v=4,False,Veerappanchatram,Erode,"No. 131, M. G. R. Street-1, Veerappanchatram, Veerappanchatram, Erode - 638004, Dist.Erode, Tamil Nadu",8048611846,
"Pink Cotton Baby Sleeping bag, 3-12 Months",https://www.indiamart.com/proddetail/baby-sleeping-bag-2851102122262.html?pos=188&kwd=baby fleece blanket&tags=||||8752.144|Price|product|||TS|rsf:gd-|-stype:attr=1|qr_nm:gd|res:RC4|com-cf:nl|ptrs:na|ktp:N0|mc:99819|mtp:S|qry_typ:P|lang:en|wc:3|cs:8853|v=4,National Overseas,https://www.indiamart.com/nationaltraders-vishwashnagar/?pos=188&kwd=baby fleece blanket&tags=||||8752.144|Price|product|||TS|rsf:gd-|-stype:attr=1|qr_nm:gd|res:RC4|com-cf:nl|ptrs:na|ktp:N0|mc:99819|mtp:S|qry_typ:P|lang:en|wc:3|cs:8853|v=4,False,Shahdara,New Delhi,"1/99, Gali No. 3, Vishwas Nagar, Shahdara, New Delhi - 110032, Dist.Delhi, Delhi",8046047673,
White Plain Muslin Swaddle Blankets,https://www.indiamart.com/proddetail/muslin-swaddle-blankets-2854117916091.html?pos=189&kwd=baby fleece blanket&tags=||||8706.263|Price|product|||TS|rsf:gd-|-stype:attr=1|qr_nm:gd|res:RC4|com-cf:nl|ptrs:na|ktp:N0|mc:99819|mtp:S|qry_typ:P|lang:en|wc:3|cs:8853|v=4,P.R.Cottons,https://www.indiamart.com/prcottons/?pos=189&kwd=baby fleece blanket&tags=||||8706.263|Price|product|||TS|rsf:gd-|-stype:attr=1|qr_nm:gd|res:RC4|com-cf:nl|ptrs:na|ktp:N0|mc:99819|mtp:S|qry_typ:P|lang:en|wc:3|cs:8853|v=4,True,Near,Karur,"Ground Floor Room No.1, Door No.79/1, Vaiyapurinagar Ist Cross, Near, Karur - 639002, Dist.Karur, Tamil Nadu",8048608767,
Cotton Multicolor Hand Block Baby Blanket,https://www.indiamart.com/proddetail/hand-block-baby-blanket-26438743348.html?pos=190&kwd=baby fleece blanket&tags=||||8601.347|Price|product|||TS|rsf:gd-|-stype:attr=1|qr_nm:gd|res:RC4|com-cf:nl|ptrs:na|ktp:N0|mc:99819|mtp:S|qry_typ:P|lang:en|wc:3|cs:8853|v=4,Veer Handircrafts,https://www.veerhandicrafts.com/?pos=190&kwd=baby fleece blanket&tags=||||8601.347|Price|product|||TS|rsf:gd-|-stype:attr=1|qr_nm:gd|res:RC4|com-cf:nl|ptrs:na|ktp:N0|mc:99819|mtp:S|qry_typ:P|lang:en|wc:3|cs:8853|v=4,True,Shyam Nagar,Jaipur,"Basement, 192/331, Sector 19, Kumbha Marg, Shyam Nagar, Jaipur - 302029, Dist.Jaipur, Rajasthan",8043851762,
"Pink Cotton Baby sleeping bag, Packaging Type: Plastic cover, Newly Born",https://www.indiamart.com/proddetail/baby-sleeping-bag-2849605699691.html?pos=191&kwd=baby fleece blanket&tags=||||8954.051|Price|product|||MDC|rsf:gd-|-stype:attr=1|qr_nm:gd|res:RC4|com-cf:nl|ptrs:na|ktp:N0|mc:99819|mtp:S|qry_typ:P|lang:en|wc:3|cs:8853|v=4,Adhoniyah,https://www.indiamart.com/adhoniyah/?pos=191&kwd=baby fleece blanket&tags=||||8954.051|Price|product|||MDC|rsf:gd-|-stype:attr=1|qr_nm:gd|res:RC4|com-cf:nl|ptrs:na|ktp:N0|mc:99819|mtp:S|qry_typ:P|lang:en|wc:3|cs:8853|v=4,False,Jamalia,Chennai,"Ground Floor,5/4,Strahans Road I St Street,Otteri, Jamalia, Chennai - 600012, Dist.Chennai, Tamil Nadu",8048274134,
ananda Mix Flannel Baby Blanket,https://www.indiamart.com/proddetail/flannel-baby-blanket-2849707585412.html?pos=192&kwd=baby fleece blanket&tags=||||8747.203|Price|product|||TS|rsf:gd-|-stype:attr=1|qr_nm:gd|res:RC4|com-cf:nl|ptrs:na|ktp:N0|mc:99819|mtp:S|qry_typ:P|lang:en|wc:3|cs:8853|v=4,Anand Fabrics,https://www.indiamart.com/anandfabricspanipat/?pos=192&kwd=baby fleece blanket&tags=||||8747.203|Price|product|||TS|rsf:gd-|-stype:attr=1|qr_nm:gd|res:RC4|com-cf:nl|ptrs:na|ktp:N0|mc:99819|mtp:S|qry_typ:P|lang:en|wc:3|cs:8853|v=4,False,Huda,Panipat,"104, SD College Road, Huda, Panipat - 132103, Dist.Panipat, Haryana",7942556232,
Multicolor Kid's Mink Blankets,https://www.indiamart.com/proddetail/kid-s-mink-blankets-27465645833.html?pos=193&kwd=baby fleece blanket&tags=||||8747.203|Price|product|||TS|rsf:gd-|-stype:attr=1|qr_nm:gd|res:RC4|com-cf:nl|ptrs:na|ktp:N0|mc:99819|mtp:S|qry_typ:P|lang:en|wc:3|cs:8853|v=4,Bagma Overseas,https://www.indiamart.com/bagmaoverseas/?pos=193&kwd=baby fleece blanket&tags=||||8747.203|Price|product|||TS|rsf:gd-|-stype:attr=1|qr_nm:gd|res:RC4|com-cf:nl|ptrs:na|ktp:N0|mc:99819|mtp:S|qry_typ:P|lang:en|wc:3|cs:8853|v=4,False,Shiv Nagar,Panipat,"Shiv Nagar, Gali Number 4, Shiv Nagar, Panipat - 132103, Dist.Panipat, Haryana",8048961713,
"Printed Double Designer Floral Fleece Blanket, Packaging Type: Packet",https://www.indiamart.com/proddetail/designer-floral-fleece-blanket-20808078473.html?pos=194&kwd=baby fleece blanket&tags=||||8747.203|Price|product|||TS|rsf:gd-|-stype:attr=1|qr_nm:gd|res:RC4|com-cf:nl|ptrs:na|ktp:N0|mc:99819|mtp:S|qry_typ:P|lang:en|wc:3|cs:8853|v=4,Global Home Tex,https://www.indiamart.com/global-home-tex/?pos=194&kwd=baby fleece blanket&tags=||||8747.203|Price|product|||TS|rsf:gd-|-stype:attr=1|qr_nm:gd|res:RC4|com-cf:nl|ptrs:na|ktp:N0|mc:99819|mtp:S|qry_typ:P|lang:en|wc:3|cs:8853|v=4,False,HUDA,Panipat,"Plot No. 226, Sector 18, Huda Noorwala, HUDA, Panipat - 132103, Dist.Panipat, Haryana",8046045028,
Flannel Baby Blankets,https://www.indiamart.com/proddetail/flannel-baby-blankets-2358651973.html?pos=195&kwd=baby fleece blanket&tags=||||8559.269|Price|product|||TS|rsf:gd-|-stype:attr=1|qr_nm:gd|res:RC4|com-cf:nl|ptrs:na|ktp:N0|mc:99819|mtp:S|qry_typ:P|lang:en|wc:3|cs:8853|v=4,Central India Fabrics,https://www.centralindiafabrics.net/?pos=195&kwd=baby fleece blanket&tags=||||8559.269|Price|product|||TS|rsf:gd-|-stype:attr=1|qr_nm:gd|res:RC4|com-cf:nl|ptrs:na|ktp:N0|mc:99819|mtp:S|qry_typ:P|lang:en|wc:3|cs:8853|v=4,True,Avantika Nagar,Indore,"2/A/C, Sector D, Sanwer Road Opposite Bandganga Police Station, Avantika Nagar, Indore - 452015, Dist.Indore, Madhya Pradesh",8048965370,
"Mix Cotton Blankets For Kids, Size: Singe",https://www.indiamart.com/proddetail/blankets-for-kids-2851925676355.html?pos=196&kwd=baby fleece blanket&tags=||||8747.203|Price|product|||TS|rsf:gd-|-stype:attr=1|qr_nm:gd|res:RC4|com-cf:nl|ptrs:na|ktp:N0|mc:99819|mtp:S|qry_typ:P|lang:en|wc:3|cs:8853|v=4,Vardan Home Furnishings,https://www.vardanhomefurnishings.com/?pos=196&kwd=baby fleece blanket&tags=||||8747.203|Price|product|||TS|rsf:gd-|-stype:attr=1|qr_nm:gd|res:RC4|com-cf:nl|ptrs:na|ktp:N0|mc:99819|mtp:S|qry_typ:P|lang:en|wc:3|cs:8853|v=4,False,Chowk,Panipat,"Pehlwan Chowk, Vardan Home Furnishings, Kutani Road, Chowk, Panipat - 132103, Dist.Panipat, Haryana",7942957417,
"Multicolor Polar Fleece Blanket, Packaging Type: Polybag",https://www.indiamart.com/proddetail/polar-fleece-blanket-2854456726655.html?pos=197&kwd=baby fleece blanket&tags=||||8747.203|Price|product|||TS|rsf:gd-|-stype:attr=1|qr_nm:gd|res:RC4|com-cf:nl|ptrs:na|ktp:N0|mc:99819|mtp:S|qry_typ:P|lang:en|wc:3|cs:8853|v=4,Pawansut Enterprises,https://www.indiamart.com/pawansutenterprises-panipat/?pos=197&kwd=baby fleece blanket&tags=||||8747.203|Price|product|||TS|rsf:gd-|-stype:attr=1|qr_nm:gd|res:RC4|com-cf:nl|ptrs:na|ktp:N0|mc:99819|mtp:S|qry_typ:P|lang:en|wc:3|cs:8853|v=4,False,Netaji Colony,Panipat,"179 Virat Nagar,,Model Town,Panipat, Netaji Colony, Panipat - 132103, Dist.Panipat, Haryana",7942956898,
"KingDurga Single Hospital Soft Fleece Blanket, 1kg, Size: 60""x90""",https://www.indiamart.com/proddetail/hospital-soft-fleece-blanket-2852040022533.html?pos=198&kwd=baby fleece blanket&tags=||||8747.203|Price|product|||TS|rsf:gd-|-stype:attr=1|qr_nm:gd|res:RC4|com-cf:nl|ptrs:na|ktp:N0|mc:99819|mtp:S|qry_typ:P|lang:en|wc:3|cs:8853|v=4,Kingdurga Textile LLP,https://www.indiamart.com/kingdurga-textile-llp/?pos=198&kwd=baby fleece blanket&tags=||||8747.203|Price|product|||TS|rsf:gd-|-stype:attr=1|qr_nm:gd|res:RC4|com-cf:nl|ptrs:na|ktp:N0|mc:99819|mtp:S|qry_typ:P|lang:en|wc:3|cs:8853|v=4,False,Near,Panipat,"137/4 Panipat, Near Hanuman Mandir Pachranga Bazaar, Near, Panipat - 132103, Dist.Panipat, Haryana",8046049262,
Premium Blanket Double And Single,https://www.indiamart.com/proddetail/premium-blanket-double-and-single-2852614957962.html?pos=199&kwd=baby fleece blanket&tags=||||8601.347|Price|product|||TS|rsf:gd-|-stype:attr=1|qr_nm:gd|res:RC4|com-cf:nl|ptrs:na|ktp:N0|mc:99819|mtp:S|qry_typ:P|lang:en|wc:3|cs:8853|v=4,Shyamjee Uniforms,https://www.shyamjeegroup.com/?pos=199&kwd=baby fleece blanket&tags=||||8601.347|Price|product|||TS|rsf:gd-|-stype:attr=1|qr_nm:gd|res:RC4|com-cf:nl|ptrs:na|ktp:N0|mc:99819|mtp:S|qry_typ:P|lang:en|wc:3|cs:8853|v=4,True,Jawahar Nagar,Jaipur,"11, Burmese Colony, Jawahar Nagar, Jaipur - 302004, Dist.Jaipur, Rajasthan",8048263982,
"Multicolor Double Fleece Blanket, Packaging Type: Bale Packing",https://www.indiamart.com/proddetail/fleece-blanket-2849596954148.html?pos=200&kwd=baby fleece blanket&tags=||||8663.873||product|||TS|rsf:gd-|-stype:attr=1|qr_nm:gd|res:RC4|com-cf:nl|ptrs:na|ktp:N0|mc:99819|mtp:S|qry_typ:P|lang:en|wc:3|cs:8853|v=4,True Heart Overseas,https://www.indiamart.com/true-heart-overseas/?pos=200&kwd=baby fleece blanket&tags=||||8663.873||product|||TS|rsf:gd-|-stype:attr=1|qr_nm:gd|res:RC4|com-cf:nl|ptrs:na|ktp:N0|mc:99819|mtp:S|qry_typ:P|lang:en|wc:3|cs:8853|v=4,False,Cox Town,Bengaluru,"100FT Road, 653/3 A Anninaiah Reddy Layout, Banaswadi, Cox Town, Bengaluru - 560043, Dist.Bengaluru, Karnataka",8048963916,
"Eiffel Textiles Personalized Fleece Blanket, Size: 50"" X 60""",https://www.indiamart.com/proddetail/personalized-fleece-blanket-20977091933.html?pos=201&kwd=baby fleece blanket&tags=||||8747.203|Price|product|||TS|rsf:gd-|-stype:attr=1|qr_nm:gd|res:RC4|com-cf:nl|ptrs:na|ktp:N0|mc:99819|mtp:S|qry_typ:P|lang:en|wc:3|cs:8853|v=4,Radhika Industries,https://www.indiamart.com/radhika-industries-panipat/?pos=201&kwd=baby fleece blanket&tags=||||8747.203|Price|product|||TS|rsf:gd-|-stype:attr=1|qr_nm:gd|res:RC4|com-cf:nl|ptrs:na|ktp:N0|mc:99819|mtp:S|qry_typ:P|lang:en|wc:3|cs:8853|v=4,False,Model Town,Panipat,"No. 326- L, Model Town, Panipat - 132103, Dist.Panipat, Haryana",8046042935,
Plain Fur Sling Bag,https://www.indiamart.com/proddetail/fur-sling-bag-2851971331512.html?pos=202&kwd=baby fleece blanket&tags=||||8307.81|Price|product|||MDC|rsf:gd-|-stype:attr=1|qr_nm:gd|res:RC4|com-cf:nl|ptrs:na|ktp:N0|mc:99819|mtp:S|qry_typ:P|lang:en|wc:3|cs:8853|v=4,Neharsh Collection,https://www.indiamart.com/neharsh-collection/?pos=202&kwd=baby fleece blanket&tags=||||8307.81|Price|product|||MDC|rsf:gd-|-stype:attr=1|qr_nm:gd|res:RC4|com-cf:nl|ptrs:na|ktp:N0|mc:99819|mtp:S|qry_typ:P|lang:en|wc:3|cs:8853|v=4,False,Moshi,Pune,"C-1202 Survey No. 669 Nakshtra Land, Moshi Alandi Road, Moshi Chowk, Moshi, Pune - 412105, Dist.Pune, Maharashtra",8048604456,
Material: Fleece Plain Baby Quick Dry Sheet / Newborn baby dry sheet,https://www.indiamart.com/proddetail/quick-dry-baby-sheet-2853273540688.html?pos=203&kwd=baby fleece blanket&tags=||||8559.269|Price|product|||MDC|rsf:gd-|-stype:attr=1|qr_nm:gd|res:RC4|com-cf:nl|ptrs:na|ktp:N0|mc:99819|mtp:S|qry_typ:P|lang:en|wc:3|cs:8853|v=4,Sheza Enterprises,https://www.indiamart.com/shezaenterprises/?pos=203&kwd=baby fleece blanket&tags=||||8559.269|Price|product|||MDC|rsf:gd-|-stype:attr=1|qr_nm:gd|res:RC4|com-cf:nl|ptrs:na|ktp:N0|mc:99819|mtp:S|qry_typ:P|lang:en|wc:3|cs:8853|v=4,False,,Indore,"Alif House, 5, Khajrana Main Road, Opposite HP Petrol Pump,, Indore - 452001, Dist.Indore, Madhya Pradesh",7948547068,
"Double Milled Plain Fleece Hotel Blankets, Size: 60x90 Inch",https://www.indiamart.com/proddetail/plain-fleece-hotel-blankets-26166618962.html?pos=204&kwd=baby fleece blanket&tags=||||8211.142|Price|product|||MDC|rsf:gd-|-stype:attr=1|qr_nm:gd|res:RC4|com-cf:nl|ptrs:na|ktp:N0|mc:99819|mtp:S|qry_typ:P|lang:en|wc:3|cs:8853|v=4,Supreme Corporation,https://www.indiamart.com/supreme-corporation-mumbai/?pos=204&kwd=baby fleece blanket&tags=||||8211.142|Price|product|||MDC|rsf:gd-|-stype:attr=1|qr_nm:gd|res:RC4|com-cf:nl|ptrs:na|ktp:N0|mc:99819|mtp:S|qry_typ:P|lang:en|wc:3|cs:8853|v=4,False,Chembur,Mumbai,"302, Palms CHS LTD, 7th Cross Road, Suburban, Chembur, Mumbai - 400071, Dist.Mumbai, Maharashtra",8043865140,
Printed Newborn Infant Baby Swaddle Blanket Sleeping Swaddle With Bag,https://www.indiamart.com/proddetail/newborn-infant-baby-swaddle-blanket-sleeping-swaddle-with-bag-23761603991.html?pos=205&kwd=baby fleece blanket&tags=||||8601.347|Price|product|||TS|rsf:gd-|-stype:attr=1|qr_nm:gd|res:RC4|com-cf:nl|ptrs:na|ktp:N0|mc:99819|mtp:S|qry_typ:P|lang:en|wc:3|cs:8853|v=4,Gopali Arts,https://www.gopaliarts.in/?pos=205&kwd=baby fleece blanket&tags=||||8601.347|Price|product|||TS|rsf:gd-|-stype:attr=1|qr_nm:gd|res:RC4|com-cf:nl|ptrs:na|ktp:N0|mc:99819|mtp:S|qry_typ:P|lang:en|wc:3|cs:8853|v=4,False,G1-652 Sitapura Phase-1,Jaipur,"G1-652, Sitapura Phase-1, G1-652 Sitapura Phase-1, Jaipur - 302022, Dist.Jaipur, Rajasthan",8048264082,
"little monkeys jumbo size baby cotton mosquito net bed, For Home, Size: XL",https://www.indiamart.com/proddetail/little-monkeys-jumbo-size-baby-cotton-mosquito-net-bed-2851532198888.html?pos=206&kwd=baby fleece blanket&tags=||||8752.144|Price|product|||TS|rsf:gd-|-stype:attr=1|qr_nm:gd|res:RC4|com-cf:nl|ptrs:na|ktp:N0|mc:99819|mtp:S|qry_typ:P|lang:en|wc:3|cs:8853|v=4,Ekta Overseas,https://www.indiamart.com/ektaoverseas-newdelhi/?pos=206&kwd=baby fleece blanket&tags=||||8752.144|Price|product|||TS|rsf:gd-|-stype:attr=1|qr_nm:gd|res:RC4|com-cf:nl|ptrs:na|ktp:N0|mc:99819|mtp:S|qry_typ:P|lang:en|wc:3|cs:8853|v=4,False,Shahdara,New Delhi,"1/95, Gali No.3, Near Navjeevan Phisical Center, Vishwas Nagar, Shahdara,, Shahdara, New Delhi - 110032, Dist.Delhi, Delhi",7942628926,
"Micro Kids Print Dohar, Size: Double",https://www.indiamart.com/proddetail/micro-kids-print-dohar-22208088455.html?pos=207&kwd=baby fleece blanket&tags=||||8601.347|Price|product|||TS|rsf:gd-|-stype:attr=1|qr_nm:gd|res:RC4|com-cf:nl|ptrs:na|ktp:N0|mc:99819|mtp:S|qry_typ:P|lang:en|wc:3|cs:8853|v=4,Vicky Garments,https://www.hotellinenmanufacturer.com/?pos=207&kwd=baby fleece blanket&tags=||||8601.347|Price|product|||TS|rsf:gd-|-stype:attr=1|qr_nm:gd|res:RC4|com-cf:nl|ptrs:na|ktp:N0|mc:99819|mtp:S|qry_typ:P|lang:en|wc:3|cs:8853|v=4,False,Jhotwara,Jaipur,"No. 82, Ganga Vihar Colony, Nagal Jaisa Bohra Dadi Ka Phatak, Jhotwara, Jaipur - 302012, Dist.Jaipur, Rajasthan",8046042378,
"Supersoft Fleece Type Ac Blankets Manufacturer, Size: Double Bed",https://www.indiamart.com/proddetail/ac-blankets-manufacturer-23995502355.html?pos=208&kwd=baby fleece blanket&tags=||||8747.203|Price|product|||TS|rsf:gd-|-stype:attr=1|qr_nm:gd|res:RC4|com-cf:nl|ptrs:na|ktp:N0|mc:99819|mtp:S|qry_typ:P|lang:en|wc:3|cs:8853|v=4,Rishaan Bedding,https://www.rishaanbedding.in/?pos=208&kwd=baby fleece blanket&tags=||||8747.203|Price|product|||TS|rsf:gd-|-stype:attr=1|qr_nm:gd|res:RC4|com-cf:nl|ptrs:na|ktp:N0|mc:99819|mtp:S|qry_typ:P|lang:en|wc:3|cs:8853|v=4,False,Panipat,Panipat,"SHOP NO 19-20,,SANOLI ROAD,RISHI COLONY, Panipat, Panipat - 132103, Dist.Panipat, Haryana",8046075886,
Cotton Multicolor Baby Receiving Blanket,https://www.indiamart.com/proddetail/baby-receiving-blanket-23352378462.html?pos=209&kwd=baby fleece blanket&tags=||||8228.275|Price|product|||TS|rsf:gd-|-stype:attr=1|qr_nm:gd|res:RC4|com-cf:nl|ptrs:na|ktp:N0|mc:99819|mtp:S|qry_typ:P|lang:en|wc:3|cs:8853|v=4,King Enterprise,https://www.kingenterpriseindia.com/?pos=209&kwd=baby fleece blanket&tags=||||8228.275|Price|product|||TS|rsf:gd-|-stype:attr=1|qr_nm:gd|res:RC4|com-cf:nl|ptrs:na|ktp:N0|mc:99819|mtp:S|qry_typ:P|lang:en|wc:3|cs:8853|v=4,False,Opp. Haripura Bus Stand,Ahmedabad,"Block- E 28, Ground Floor, Abhishek Estate-1, Opp. Haripura Bus Stand, Ahmedabad - 380016, Dist.Ahmedabad, Gujarat",8047632934,
"Cartoon Baby Hooded Blanket, Size: Singe, 0-2",https://www.indiamart.com/proddetail/baby-hooded-blanket-2851789151030.html?pos=210&kwd=baby fleece blanket&tags=||||8661.854||product|||TS|rsf:gd-|-stype:attr=1|qr_nm:gd|res:RC4|com-cf:nl|ptrs:na|ktp:N0|mc:99819|mtp:S|qry_typ:P|lang:en|wc:3|cs:8853|v=4,A K Davinder Hosiery,https://www.nnhgroups.com/?pos=210&kwd=baby fleece blanket&tags=||||8661.854||product|||TS|rsf:gd-|-stype:attr=1|qr_nm:gd|res:RC4|com-cf:nl|ptrs:na|ktp:N0|mc:99819|mtp:S|qry_typ:P|lang:en|wc:3|cs:8853|v=4,False,Madhopuri,Ludhiana,"873, Tilak Nagar, (Ganji Chhapri), Madhopuri, Ludhiana - 141008, Dist.Ludhiana, Punjab",8048607076,
