product_title,product_link,company_name,company_link,is_verified_exporter,city_region,city,address_details,phone_number,phone_number_extension
FORM baby Shower Caps - BLUE,https://www.indiamart.com/proddetail/baby-shower-caps-blue-2852524218873.html?pos=1&kwd=baby shower cap&tags=A||||8752.144|Price|product|||TS|rsf:gd-|-stype:attr=1|qr_nm:gd|res:RC4|com-cf:nl|ptrs:na|ktp:N0|mc:208875|mtp:S|qry_typ:P|lang:en|wc:3|flavl:0|cs:9658|v=4,Ekta Overseas,https://www.indiamart.com/ektaoverseas-newdelhi/?pos=1&kwd=baby shower cap&tags=A||||8752.144|Price|product|||TS|rsf:gd-|-stype:attr=1|qr_nm:gd|res:RC4|com-cf:nl|ptrs:na|ktp:N0|mc:208875|mtp:S|qry_typ:P|lang:en|wc:3|flavl:0|cs:9658|v=4,False,Shahdara,New Delhi,"1/95, Gali No.3, Near Navjeevan Phisical Center, Vishwas Nagar, Shahdara,, Shahdara, New Delhi - 110032, Dist.Delhi, Delhi",7942628926,
3-4 Multicolor Baby Bath Cap Shower Cap,https://www.indiamart.com/proddetail/baby-bath-cap-shower-cap-2851294086455.html?pos=2&kwd=baby shower cap&tags=A||||8124.6323|Price|product|||TS|rsf:gd-|-stype:attr=1|qr_nm:gd|res:RC4|com-cf:nl|ptrs:na|ktp:N0|mc:208875|mtp:S|qry_typ:P|lang:en|wc:3|flavl:0|cs:9658|v=4,6 Zero 7 Zero Mart,https://www.6zero7zeromart.com/?pos=2&kwd=baby shower cap&tags=A||||8124.6323|Price|product|||TS|rsf:gd-|-stype:attr=1|qr_nm:gd|res:RC4|com-cf:nl|ptrs:na|ktp:N0|mc:208875|mtp:S|qry_typ:P|lang:en|wc:3|flavl:0|cs:9658|v=4,False,Mohan Nagar,Botad,"01, Mohan Nagar, Dhakniya Road, Botad, Botad, Gujarat, 364710, Mohan Nagar, Botad - 364710, Dist.Bhavnagar, Gujarat",7942620760,
Baby Shower Cap Wash Hair For Children Baby Eye Ear Protector Adjustable( MultiColour),https://www.indiamart.com/proddetail/baby-shower-cap-wash-hair-for-children-baby-eye-ear-protector-adjustable-multicolour-2853654961897.html?pos=3&kwd=baby shower cap&tags=A||||8230.883|Price|product|||TS|rsf:gd-|-stype:attr=1|qr_nm:gd|res:RC4|com-cf:nl|ptrs:na|ktp:N0|mc:208875|mtp:S|qry_typ:P|lang:en|wc:3|flavl:0|cs:9658|v=4,Nika Enterprise,https://www.nikaenterprise.in/?pos=3&kwd=baby shower cap&tags=A||||8230.883|Price|product|||TS|rsf:gd-|-stype:attr=1|qr_nm:gd|res:RC4|com-cf:nl|ptrs:na|ktp:N0|mc:208875|mtp:S|qry_typ:P|lang:en|wc:3|flavl:0|cs:9658|v=4,False,,Surat,"1st Floor,, Flat No-102, Plot No-173/174/175, Rs-109,504,, Vitthal Nagar Soc, Dabholi Char Rasta, Katargam, Surat - 395004, Dist.Surat, Gujarat",8047550715,
"Modulyss Adjustable Safe Shampoo Shower Bathing Protection Bath Cap For Toddler, Baby",https://www.indiamart.com/proddetail/modulyss-adjustable-safe-shampoo-shower-bathing-protection-bath-cap-for-toddler-baby-2850158719312.html?pos=4&kwd=baby shower cap&tags=A||||8230.883|Price|product|||TS|rsf:gd-|-stype:attr=1|qr_nm:gd|res:RC4|com-cf:nl|ptrs:na|ktp:N0|mc:208875|mtp:S|qry_typ:P|lang:en|wc:3|flavl:0|cs:9658|v=4,Modulyss,https://www.modulyss.in/?pos=4&kwd=baby shower cap&tags=A||||8230.883|Price|product|||TS|rsf:gd-|-stype:attr=1|qr_nm:gd|res:RC4|com-cf:nl|ptrs:na|ktp:N0|mc:208875|mtp:S|qry_typ:P|lang:en|wc:3|flavl:0|cs:9658|v=4,False,Katargam,Surat,"Modulyss OFFICE NO :- 2 BASEMENT-1, SUNDAY HUB, NEAR AMBA TALAVDI, OPP ANKUR SCHOOL, KATARGAM, SURAT, Katargam, Surat - 395004, Dist.Surat, Gujarat",7942792869,
Rubber Plastic Baby Shower Cap,https://www.indiamart.com/proddetail/plastic-baby-shower-cap-2853000378330.html?pos=5&kwd=baby shower cap&tags=A||||8230.883|Price|product|||TS|rsf:gd-|-stype:attr=1|qr_nm:gd|res:RC4|com-cf:nl|ptrs:na|ktp:N0|mc:208875|mtp:S|qry_typ:P|lang:en|wc:3|flavl:0|cs:9658|v=4,Buyerzone Enterprise,https://www.thebuyerzone.in/?pos=5&kwd=baby shower cap&tags=A||||8230.883|Price|product|||TS|rsf:gd-|-stype:attr=1|qr_nm:gd|res:RC4|com-cf:nl|ptrs:na|ktp:N0|mc:208875|mtp:S|qry_typ:P|lang:en|wc:3|flavl:0|cs:9658|v=4,False,Katargam,Surat,"Plot No.247-1st Floor, Above E-Com Courier,Near Laxmi Residency, Katargam Vastadevadi Road, Katargam, Surat - 395004, Dist.Surat, Gujarat",8048966965,
"Baby Shower Cap, 1-2 Years",https://www.indiamart.com/proddetail/baby-shower-cap-2854511158588.html?pos=6&kwd=baby shower cap&tags=A||||8228.275|Price|product|||TS|rsf:gd-|-stype:attr=1|qr_nm:gd|res:RC4|com-cf:nl|ptrs:na|ktp:N0|mc:208875|mtp:S|qry_typ:P|lang:en|wc:3|flavl:0|cs:9658|v=4,Stepup Corporation,https://www.indiamart.com/stepup-corporation/?pos=6&kwd=baby shower cap&tags=A||||8228.275|Price|product|||TS|rsf:gd-|-stype:attr=1|qr_nm:gd|res:RC4|com-cf:nl|ptrs:na|ktp:N0|mc:208875|mtp:S|qry_typ:P|lang:en|wc:3|flavl:0|cs:9658|v=4,False,,Ahmedabad,"66/A, Nigam Society Nr. Smruti Mandir Road, Ghodhar,380050, Ahmedabad - 380050, Dist.Ahmedabad, Gujarat",7949336313,
Multicolor Baby Shower Cap,https://www.indiamart.com/proddetail/baby-shower-cap-2853589604862.html?pos=7&kwd=baby shower cap&tags=A||||8230.883|Price|product|||TS|rsf:gd-|-stype:attr=1|qr_nm:gd|res:RC4|com-cf:nl|ptrs:na|ktp:N0|mc:208875|mtp:S|qry_typ:P|lang:en|wc:3|flavl:0|cs:9658|v=4,Valam Enterprise,https://www.valamenterprise.com/?pos=7&kwd=baby shower cap&tags=A||||8230.883|Price|product|||TS|rsf:gd-|-stype:attr=1|qr_nm:gd|res:RC4|com-cf:nl|ptrs:na|ktp:N0|mc:208875|mtp:S|qry_typ:P|lang:en|wc:3|flavl:0|cs:9658|v=4,False,Dabholi,Surat,"First Floor 37 Nr Bapa Sitaram Chowk Gopinath Society-3 Katargam, Dabholi, Surat - 395004, Dist.Surat, Gujarat",8046058398,
"Baby Shower Cap, 1-2 Years",https://www.indiamart.com/proddetail/baby-shower-cap-2854224932473.html?pos=8&kwd=baby shower cap&tags=A||||8230.883|Price|product|||TS|rsf:gd-|-stype:attr=1|qr_nm:gd|res:RC4|com-cf:nl|ptrs:na|ktp:N0|mc:208875|mtp:S|qry_typ:P|lang:en|wc:3|flavl:0|cs:9658|v=4,BABYHOLIC,https://www.babyholic.in/?pos=8&kwd=baby shower cap&tags=A||||8230.883|Price|product|||TS|rsf:gd-|-stype:attr=1|qr_nm:gd|res:RC4|com-cf:nl|ptrs:na|ktp:N0|mc:208875|mtp:S|qry_typ:P|lang:en|wc:3|flavl:0|cs:9658|v=4,False,,Surat,"Ground Floor, Plot No. F/56/, And F/57, Laxmi Narayan Industrial Estate, Udhana, Kailash Fashion, Surat - 394210, Dist.Surat, Gujarat",8045732096,
EVA 0 - 6 Years Old Soft Baby Shower Cap,https://www.indiamart.com/proddetail/soft-baby-shower-cap-24170761448.html?pos=9&kwd=baby shower cap&tags=A||||8211.142|Price|product|||TS|rsf:gd-|-stype:attr=1|qr_nm:gd|res:RC4|com-cf:nl|ptrs:na|ktp:N0|mc:208875|mtp:S|qry_typ:P|lang:en|wc:3|flavl:0|cs:9658|v=4,A One Collection,https://www.aonecollection.net/?pos=9&kwd=baby shower cap&tags=A||||8211.142|Price|product|||TS|rsf:gd-|-stype:attr=1|qr_nm:gd|res:RC4|com-cf:nl|ptrs:na|ktp:N0|mc:208875|mtp:S|qry_typ:P|lang:en|wc:3|flavl:0|cs:9658|v=4,False,Nr Fire Bridge Station,Mumbai,"Gala No 505, Bldg No 11, 5th Floor, Motilal Nehru Nagar, Bandra, Nr Fire Bridge Station, Mumbai - 400051, Dist.Mumbai, Maharashtra",8045910671,
Baby bath cap for 0 to 2 years Eva Foam Soft Adjustable Bath Cap for Toddler/Baby Flexible Material,https://www.indiamart.com/proddetail/baby-bath-cap-for-0-to-2-years-eva-foam-soft-adjustable-bath-cap-for-toddler-baby-flexible-material-2852924164048.html?pos=10&kwd=baby shower cap&tags=A||||8230.883|Price|product|||TS|rsf:gd-|-stype:attr=1|qr_nm:gd|res:RC4|com-cf:nl|ptrs:na|ktp:N0|mc:208875|mtp:S|qry_typ:P|lang:en|wc:3|flavl:0|cs:9658|v=4,Pocket Simple,https://www.pocketsimple.in/?pos=10&kwd=baby shower cap&tags=A||||8230.883|Price|product|||TS|rsf:gd-|-stype:attr=1|qr_nm:gd|res:RC4|com-cf:nl|ptrs:na|ktp:N0|mc:208875|mtp:S|qry_typ:P|lang:en|wc:3|flavl:0|cs:9658|v=4,False,KATARGAM,Surat,"Gr.Floor, Shop No-20, Pramukh Residency,Omkar Soc, Ved Road, KATARGAM, Surat - 395004, Dist.Surat, Gujarat",7942720597,
"Baby Shower Cap, More than 12 months",https://www.indiamart.com/proddetail/baby-shower-cap-2854912792862.html?pos=11&kwd=baby shower cap&tags=A||||8230.883|Price|product|||MDC|rsf:gd-|-stype:attr=1|qr_nm:gd|res:RC4|com-cf:nl|ptrs:na|ktp:N0|mc:208875|mtp:S|qry_typ:P|lang:en|wc:3|flavl:0|cs:9658|v=4,SN Enterprise,https://www.indiamart.com/snenterprise-surat/?pos=11&kwd=baby shower cap&tags=A||||8230.883|Price|product|||MDC|rsf:gd-|-stype:attr=1|qr_nm:gd|res:RC4|com-cf:nl|ptrs:na|ktp:N0|mc:208875|mtp:S|qry_typ:P|lang:en|wc:3|flavl:0|cs:9658|v=4,False,,Surat,"Plot 130/131, 2nd Floor, Flat 201, Balaji Nagar SOC-1, Shri Siddhi Vinayak Place, Surat - 395004, Dist.Surat, Gujarat",8041015777,
"Baby Cap Set, Newly Born",https://www.indiamart.com/proddetail/baby-cap-set-2854988017697.html?pos=12&kwd=baby shower cap&tags=A||||8364.597|Price|product|||MDC|rsf:gd-|-stype:attr=1|qr_nm:gd|res:RC4|com-cf:nl|ptrs:na|ktp:N0|mc:208875|mtp:S|qry_typ:P|lang:en|wc:3|flavl:0|cs:9658|v=4,Mohammedi Hosiery,https://www.indiamart.com/mohammedi-hosiery/?pos=12&kwd=baby shower cap&tags=A||||8364.597|Price|product|||MDC|rsf:gd-|-stype:attr=1|qr_nm:gd|res:RC4|com-cf:nl|ptrs:na|ktp:N0|mc:208875|mtp:S|qry_typ:P|lang:en|wc:3|flavl:0|cs:9658|v=4,False,,Udaipur,"115, Bapur Bazar, Udaipur - 313001, Rajasthan",7949331447,
Multicolor Baby Cap Set,https://www.indiamart.com/proddetail/baby-cap-set-2852721514773.html?pos=13&kwd=baby shower cap&tags=A||||8752.144|Price|product|||MDC|rsf:gd-|-stype:attr=1|qr_nm:gd|res:RC4|com-cf:nl|ptrs:na|ktp:N0|mc:208875|mtp:S|qry_typ:P|lang:en|wc:3|flavl:0|cs:9658|v=4,B-Qube Enterprises,https://www.indiamart.com/bqube-enterprises/?pos=13&kwd=baby shower cap&tags=A||||8752.144|Price|product|||MDC|rsf:gd-|-stype:attr=1|qr_nm:gd|res:RC4|com-cf:nl|ptrs:na|ktp:N0|mc:208875|mtp:S|qry_typ:P|lang:en|wc:3|flavl:0|cs:9658|v=4,False,Karol Bagh,New Delhi,"303, Iiird Floor,13/4, W.E.A.,Karol Bagh, Karol Bagh, New Delhi - 110005, Dist.Delhi, Delhi",8047313183,
"Baby Shower Cap, Newly Born",https://www.indiamart.com/proddetail/baby-shower-cap-2853220582162.html?pos=14&kwd=baby shower cap&tags=BA||||8211.142|Price|product|||TS|rsf:gd-|-stype:attr=1|qr_nm:gd|res:RC4|com-cf:nl|ptrs:na|ktp:N0|mc:208875|mtp:S|qry_typ:P|lang:en|wc:3|flavl:0|cs:9658|v=4,Parass Trading,https://www.indiamart.com/parasstrading/?pos=14&kwd=baby shower cap&tags=BA||||8211.142|Price|product|||TS|rsf:gd-|-stype:attr=1|qr_nm:gd|res:RC4|com-cf:nl|ptrs:na|ktp:N0|mc:208875|mtp:S|qry_typ:P|lang:en|wc:3|flavl:0|cs:9658|v=4,False,Chembur,Mumbai,"Room no 3, First Floor, Plot no 39, Next to Shivaji Nagar police station,Kherwadi Plot no 39, Chembur, Mumbai - 400071, Dist.Mumbai, Maharashtra",8047631170,
Multicolor Cotton Bathing Shower Cap,https://www.indiamart.com/proddetail/bathing-shower-cap-2852526651362.html?pos=15&kwd=baby shower cap&tags=A||||8954.051|Price|product|||MDC|rsf:gd-|-stype:attr=1|qr_nm:gd|res:RC4|com-cf:nl|ptrs:na|ktp:N0|mc:208875|mtp:S|qry_typ:P|lang:en|wc:3|cs:8895|v=4,Ramdev Caps,https://www.indiamart.com/ramdev-caps/?pos=15&kwd=baby shower cap&tags=A||||8954.051|Price|product|||MDC|rsf:gd-|-stype:attr=1|qr_nm:gd|res:RC4|com-cf:nl|ptrs:na|ktp:N0|mc:208875|mtp:S|qry_typ:P|lang:en|wc:3|cs:8895|v=4,False,George Town,Chennai,"36, Ground Floor, Narayana Mudali Street, Sowcarpet, George Town, Chennai - 600079, Dist.Chennai, Tamil Nadu",7942817793,
"Gadhiya impex Multicolor King Baby Shower Cap, Packaging Type: Box",https://www.indiamart.com/proddetail/king-baby-shower-cap-2853980046633.html?pos=16&kwd=baby shower cap&tags=BA||||8230.883|Price|product|||TS|rsf:gd-|-stype:attr=1|qr_nm:gd|res:RC4|com-cf:nl|ptrs:na|ktp:N0|mc:208875|mtp:S|qry_typ:P|lang:en|wc:3|cs:8895|v=4,Gadhiya Impex.,https://www.gadhiyaimpex.com/?pos=16&kwd=baby shower cap&tags=BA||||8230.883|Price|product|||TS|rsf:gd-|-stype:attr=1|qr_nm:gd|res:RC4|com-cf:nl|ptrs:na|ktp:N0|mc:208875|mtp:S|qry_typ:P|lang:en|wc:3|cs:8895|v=4,False,Katargam,Surat,"8th, 804, Variav Road, Panchshila Sky, Katargam, Surat - 394520, Dist.Surat, Gujarat",8047619805,
"baby shower cap, 3-12 Months",https://www.indiamart.com/proddetail/baby-shower-cap-2854922411755.html?pos=17&kwd=baby shower cap&tags=BA||||8230.883|Price|product|||TS|rsf:gd-|-stype:attr=1|qr_nm:gd|res:RC4|com-cf:nl|ptrs:na|ktp:N0|mc:208875|mtp:S|qry_typ:P|lang:en|wc:3|cs:8895|v=4,Trusthaven,https://www.indiamart.com/ankush-international-surat/?pos=17&kwd=baby shower cap&tags=BA||||8230.883|Price|product|||TS|rsf:gd-|-stype:attr=1|qr_nm:gd|res:RC4|com-cf:nl|ptrs:na|ktp:N0|mc:208875|mtp:S|qry_typ:P|lang:en|wc:3|cs:8895|v=4,False,Varni palace near rasi circle,Surat,"Buil-B, Flat No. B/501, Opp. Western Somchintamani, Sahstrafana Saubhagya Residency, Pal Katargam, Varni palace near rasi circle, Surat - 395009, Dist.Surat, Gujarat",8048964329,
Multicolor Baby Cap Set,https://www.indiamart.com/proddetail/baby-cap-set-2852721514773.html?pos=18&kwd=baby shower cap&tags=A||||8752.144|Price|product|||MDC|rsf:gd-|-stype:attr=1|qr_nm:gd|res:RC4|com-cf:nl|ptrs:na|ktp:N0|mc:208875|mtp:S|qry_typ:P|lang:en|wc:3|cs:8895|v=4,B-Qube Enterprises,https://www.indiamart.com/bqube-enterprises/?pos=18&kwd=baby shower cap&tags=A||||8752.144|Price|product|||MDC|rsf:gd-|-stype:attr=1|qr_nm:gd|res:RC4|com-cf:nl|ptrs:na|ktp:N0|mc:208875|mtp:S|qry_typ:P|lang:en|wc:3|cs:8895|v=4,False,Karol Bagh,New Delhi,"303, Iiird Floor,13/4, W.E.A.,Karol Bagh, Karol Bagh, New Delhi - 110005, Dist.Delhi, Delhi",8047313183,
"Mitsico Adjustable Safe Shampoo Shower Bathing Protection Bath Cap For Toddler, Baby, Kids, Children",https://www.indiamart.com/proddetail/mitsico-adjustable-safe-shampoo-shower-bathing-protection-bath-cap-for-toddler-baby-kids-children-26000143448.html?pos=19&kwd=baby shower cap&tags=BA||||8230.883|Price|product|||TS|rsf:gd-|-stype:attr=1|qr_nm:gd|res:RC4|com-cf:nl|ptrs:na|ktp:N0|mc:208875|mtp:S|qry_typ:P|lang:en|wc:3|cs:8895|v=4,Mitsico,https://www.mitsico.in/?pos=19&kwd=baby shower cap&tags=BA||||8230.883|Price|product|||TS|rsf:gd-|-stype:attr=1|qr_nm:gd|res:RC4|com-cf:nl|ptrs:na|ktp:N0|mc:208875|mtp:S|qry_typ:P|lang:en|wc:3|cs:8895|v=4,False,KATARGAM,Surat,"Basement-1, Shop No.- A1, Sunday Hub Shopping Center, Amba Talavadi, Opp. Shree Vinayak Residency, KATARGAM, Surat - 395004, Dist.Surat, Gujarat",8047649165,
"baby shower cap, 3-12 Months",https://www.indiamart.com/proddetail/baby-shower-cap-2854921957633.html?pos=20&kwd=baby shower cap&tags=BB||||8230.883|Price|product|||MDC|rsf:gd-|-stype:attr=1|qr_nm:gd|res:RC4|com-cf:nl|ptrs:na|ktp:N0|mc:208875|mtp:S|qry_typ:P|lang:en|wc:3|cs:8895|v=4,V S Enterprise,https://www.indiamart.com/vsenterprise-gujarat/?pos=20&kwd=baby shower cap&tags=BB||||8230.883|Price|product|||MDC|rsf:gd-|-stype:attr=1|qr_nm:gd|res:RC4|com-cf:nl|ptrs:na|ktp:N0|mc:208875|mtp:S|qry_typ:P|lang:en|wc:3|cs:8895|v=4,False,Katargam,Surat,"B/501, Buil- B Sahstrafana Saubhagya Residency, Opp Western Somchintamani, Pal, Katargam, Surat - 395009, Dist.Surat, Gujarat",8048971602,
Chinmay Kids Rubber Baby Shower Cap,https://www.indiamart.com/proddetail/baby-shower-cap-27430912891.html?pos=21&kwd=baby shower cap&tags=BA||||8752.144|Price|product|||TS|rsf:gd-|-stype:attr=1|qr_nm:gd|res:RC4|com-cf:nl|ptrs:na|ktp:N0|mc:208875|mtp:S|qry_typ:P|lang:en|wc:3|cs:8895|v=4,Chinmay Kids,https://www.indiamart.com/chinmaykids/?pos=21&kwd=baby shower cap&tags=BA||||8752.144|Price|product|||TS|rsf:gd-|-stype:attr=1|qr_nm:gd|res:RC4|com-cf:nl|ptrs:na|ktp:N0|mc:208875|mtp:S|qry_typ:P|lang:en|wc:3|cs:8895|v=4,False,Nayagaon,New Delhi,"C-99, Street No. 4, First Pusta, Nayagaon, New Delhi - 110053, Dist.Delhi, Delhi",8046054858,
"Baby Shower Cap, 1-2 Years",https://www.indiamart.com/proddetail/baby-shower-cap-2854783830188.html?pos=22&kwd=baby shower cap&tags=BB||||9189.305|Price|product|||TS|rsf:gd-|-stype:attr=1|qr_nm:gd|res:RC4|com-cf:nl|ptrs:na|ktp:N0|mc:208875|mtp:S|qry_typ:P|lang:en|wc:3|cs:8895|v=4,Sk Enterprises,https://www.indiamart.com/s-k-enterprises-allahabad/?pos=22&kwd=baby shower cap&tags=BB||||9189.305|Price|product|||TS|rsf:gd-|-stype:attr=1|qr_nm:gd|res:RC4|com-cf:nl|ptrs:na|ktp:N0|mc:208875|mtp:S|qry_typ:P|lang:en|wc:3|cs:8895|v=4,False,,Prayagraj,"503 Katra Prayagraj, Prayagraj - 211002, Dist.Allahabad, Uttar Pradesh",8044460718,
Baby Shower Cap,https://www.indiamart.com/proddetail/baby-shower-cap-2854044814130.html?pos=23&kwd=baby shower cap&tags=BA||||8228.275|Price|product|||TS|rsf:gd-|-stype:attr=1|qr_nm:gd|res:RC4|com-cf:nl|ptrs:na|ktp:N0|mc:208875|mtp:S|qry_typ:P|lang:en|wc:3|cs:8895|v=4,Syga Home Furnishing,https://www.indiamart.com/sygahomefurnishing/?pos=23&kwd=baby shower cap&tags=BA||||8228.275|Price|product|||TS|rsf:gd-|-stype:attr=1|qr_nm:gd|res:RC4|com-cf:nl|ptrs:na|ktp:N0|mc:208875|mtp:S|qry_typ:P|lang:en|wc:3|cs:8895|v=4,False,Navrangpura,Ahmedabad,"A-503, Samudra Complex, Near Girish Cold Drinks C. G. Road, Navrangpura, Navrangpura, Ahmedabad - 380009, Dist.Ahmedabad, Gujarat",8048985837,
BABY BATH CAP (SHOWER CAP),https://www.indiamart.com/proddetail/baby-bath-cap-shower-cap-2854521914291.html?pos=24&kwd=baby shower cap&tags=BB||||8230.883|Price|product|||TS|rsf:gd-|-stype:attr=1|qr_nm:gd|res:RC4|com-cf:nl|ptrs:na|ktp:N0|mc:208875|mtp:S|qry_typ:P|lang:en|wc:3|cs:8895|v=4,Iscon Mart,https://www.indiamart.com/iscon-mart-gujarat/?pos=24&kwd=baby shower cap&tags=BB||||8230.883|Price|product|||TS|rsf:gd-|-stype:attr=1|qr_nm:gd|res:RC4|com-cf:nl|ptrs:na|ktp:N0|mc:208875|mtp:S|qry_typ:P|lang:en|wc:3|cs:8895|v=4,False,,Surat,"518 the gallery business hub 2 near mahavir chikuvadi nana varachha surat -395006, Surat - 395010, Dist.Surat, Gujarat",8045736488,
Plastic 5 Years Baby Shower Cap,https://www.indiamart.com/proddetail/baby-shower-cap-26755884848.html?pos=25&kwd=baby shower cap&tags=BA||||8230.883|Price|product|||TS|rsf:gd-|-stype:attr=1|qr_nm:gd|res:RC4|com-cf:nl|ptrs:na|ktp:N0|mc:208875|mtp:S|qry_typ:P|lang:en|wc:3|cs:8895|v=4,Alesso(A Brand Of Awxoqom),https://www.ashoppersvillage.com/?pos=25&kwd=baby shower cap&tags=BA||||8230.883|Price|product|||TS|rsf:gd-|-stype:attr=1|qr_nm:gd|res:RC4|com-cf:nl|ptrs:na|ktp:N0|mc:208875|mtp:S|qry_typ:P|lang:en|wc:3|cs:8895|v=4,False,Singanpor,Surat,"Plot No 30,gr Floor, Vijayraj Row House, Near Vijayraj Circle,singanpore Causeway Road,katargam, Singanpor, Surat - 395004, Dist.Surat, Gujarat",8048957223,
"Multicolor New Baby Shower Cap, 1-2 Years",https://www.indiamart.com/proddetail/new-baby-shower-cap-2853925948012.html?pos=26&kwd=baby shower cap&tags=BA||||8230.883|Price|product|||TS|rsf:gd-|-stype:attr=1|qr_nm:gd|res:RC4|com-cf:nl|ptrs:na|ktp:N0|mc:208875|mtp:S|qry_typ:P|lang:en|wc:3|cs:8895|v=4,Shreeji Retails,https://www.thesajanihouse.com/?pos=26&kwd=baby shower cap&tags=BA||||8230.883|Price|product|||TS|rsf:gd-|-stype:attr=1|qr_nm:gd|res:RC4|com-cf:nl|ptrs:na|ktp:N0|mc:208875|mtp:S|qry_typ:P|lang:en|wc:3|cs:8895|v=4,False,Alankar Society,Surat,"PLOT NO- 17, OM SATYAM NAGAR SOC., DABHOLI CHAR RASTA, VED ROAD, Alankar Society, Surat - 395004, Dist.Surat, Gujarat",8047654270,
Non branded Multicolor Baby Shower Cap,https://www.indiamart.com/proddetail/baby-shower-cap-25668926491.html?pos=27&kwd=baby shower cap&tags=BA||||8752.144|Price|product|||TS|rsf:gd-|-stype:attr=1|qr_nm:gd|res:RC4|com-cf:nl|ptrs:na|ktp:N0|mc:208875|mtp:S|qry_typ:P|lang:en|wc:3|cs:8895|v=4,Dazibao,https://www.indiamart.com/dazibao/?pos=27&kwd=baby shower cap&tags=BA||||8752.144|Price|product|||TS|rsf:gd-|-stype:attr=1|qr_nm:gd|res:RC4|com-cf:nl|ptrs:na|ktp:N0|mc:208875|mtp:S|qry_typ:P|lang:en|wc:3|cs:8895|v=4,False,Dabri,New Delhi,"Dabri, F/f, House No.14, Plot No.23, Harijan Basti Sitapuri, New Delhi,, Dabri, New Delhi - 110045, Dist.Delhi, Delhi",8048605343,
Plastic 1-2 Year Baby Shower Cap,https://www.indiamart.com/proddetail/baby-shower-cap-23042679773.html?pos=28&kwd=baby shower cap&tags=BA||||8230.883|Price|product|||TS|rsf:gd-|-stype:attr=1|qr_nm:gd|res:RC4|com-cf:nl|ptrs:na|ktp:N0|mc:208875|mtp:S|qry_typ:P|lang:en|wc:3|cs:8895|v=4,Nottie's International,https://www.nottiesinternational.com/?pos=28&kwd=baby shower cap&tags=BA||||8230.883|Price|product|||TS|rsf:gd-|-stype:attr=1|qr_nm:gd|res:RC4|com-cf:nl|ptrs:na|ktp:N0|mc:208875|mtp:S|qry_typ:P|lang:en|wc:3|cs:8895|v=4,False,Begampura,Surat,"6th Floor, Flat A, Danapith Road, Near Moti Talkiz Ramanchambers, Begampura, Surat - 395003, Dist.Surat, Gujarat",8048951197,
Sky Blue Baby Shower Cap,https://www.indiamart.com/proddetail/baby-shower-cap-2851489351048.html?pos=29&kwd=baby shower cap&tags=BA||||8752.144|Price|product|||TS|rsf:gd-|-stype:attr=1|qr_nm:gd|res:RC4|com-cf:nl|ptrs:na|ktp:N0|mc:208875|mtp:S|qry_typ:P|lang:en|wc:3|cs:8895|v=4,National Overseas,https://www.indiamart.com/nationaltraders-vishwashnagar/?pos=29&kwd=baby shower cap&tags=BA||||8752.144|Price|product|||TS|rsf:gd-|-stype:attr=1|qr_nm:gd|res:RC4|com-cf:nl|ptrs:na|ktp:N0|mc:208875|mtp:S|qry_typ:P|lang:en|wc:3|cs:8895|v=4,False,Shahdara,New Delhi,"1/99, Gali No. 3, Vishwas Nagar, Shahdara, New Delhi - 110032, Dist.Delhi, Delhi",8046047673,
"TF FOAM Baby Shower Cap, Medium",https://www.indiamart.com/proddetail/baby-shower-cap-2851682918997.html?pos=30&kwd=baby shower cap&tags=BA||||8230.883|Price|product|||TS|rsf:gd-|-stype:attr=1|qr_nm:gd|res:RC4|com-cf:nl|ptrs:na|ktp:N0|mc:208875|mtp:S|qry_typ:P|lang:en|wc:3|cs:8895|v=4,The Florable,https://www.indiamart.com/theflorable/?pos=30&kwd=baby shower cap&tags=BA||||8230.883|Price|product|||TS|rsf:gd-|-stype:attr=1|qr_nm:gd|res:RC4|com-cf:nl|ptrs:na|ktp:N0|mc:208875|mtp:S|qry_typ:P|lang:en|wc:3|cs:8895|v=4,False,Archana Society,Surat,"GR Floor, SY No-54, Plot-New-47, Old-49, Archana Society, Surat - 395004, Dist.Surat, Gujarat",8046057332,
Silicone 0-10 Year Baby Shower Cap,https://www.indiamart.com/proddetail/baby-shower-cap-23777514191.html?pos=31&kwd=baby shower cap&tags=BB||||8230.883|Price|product|||TS|rsf:gd-|-stype:attr=1|qr_nm:gd|res:RC4|com-cf:nl|ptrs:na|ktp:N0|mc:208875|mtp:S|qry_typ:P|lang:en|wc:3|cs:8895|v=4,Jalaram Enterprise,https://www.indiamart.com/jalaram-enterprise-gujarat/?pos=31&kwd=baby shower cap&tags=BB||||8230.883|Price|product|||TS|rsf:gd-|-stype:attr=1|qr_nm:gd|res:RC4|com-cf:nl|ptrs:na|ktp:N0|mc:208875|mtp:S|qry_typ:P|lang:en|wc:3|cs:8895|v=4,False,Katargam,Surat,"Kshama Society 237 AK. Road Near Dharam Nagar, Katargam, Surat - 395008, Dist.Surat, Gujarat",8048950859,
Rubber 0 - 6 Years Old Baby Shower Cap,https://www.indiamart.com/proddetail/baby-shower-cap-22578411248.html?pos=32&kwd=baby shower cap&tags=BA||||8230.883|Price|product|||TS|rsf:gd-|-stype:attr=1|qr_nm:gd|res:RC4|com-cf:nl|ptrs:na|ktp:N0|mc:208875|mtp:S|qry_typ:P|lang:en|wc:3|cs:8895|v=4,Mozabee Enterprise,https://www.indiamart.com/mozabee-enterprise/?pos=32&kwd=baby shower cap&tags=BA||||8230.883|Price|product|||TS|rsf:gd-|-stype:attr=1|qr_nm:gd|res:RC4|com-cf:nl|ptrs:na|ktp:N0|mc:208875|mtp:S|qry_typ:P|lang:en|wc:3|cs:8895|v=4,False,Amroli,Surat,"FLAT-501,ASTHA RESIDENCY WING-E,KOSAD ROAD,SURAT, Amroli, Surat - 394107, Dist.Surat, Gujarat",8047635617,
"Baby Shower Cap, 1-2 Years",https://www.indiamart.com/proddetail/baby-shower-cap-2854159586355.html?pos=33&kwd=baby shower cap&tags=BA||||8230.883|Price|product|||TS|rsf:gd-|-stype:attr=1|qr_nm:gd|res:RC4|com-cf:nl|ptrs:na|ktp:N0|mc:208875|mtp:S|qry_typ:P|lang:en|wc:3|cs:8895|v=4,N R Mart,https://www.thecheaperzone.com/?pos=33&kwd=baby shower cap&tags=BA||||8230.883|Price|product|||TS|rsf:gd-|-stype:attr=1|qr_nm:gd|res:RC4|com-cf:nl|ptrs:na|ktp:N0|mc:208875|mtp:S|qry_typ:P|lang:en|wc:3|cs:8895|v=4,False,Katargam,Surat,"SHED NO 2, SY.NO.310. F H NO.132, PATEL FALIA, KATARGAM, SURAT, Surat, Gujarat, 395004, Katargam, Surat - 395004, Dist.Surat, Gujarat",8048262787,
"Baby Shower Cap, Newly Born",https://www.indiamart.com/proddetail/baby-shower-cap-2853220582162.html?pos=34&kwd=baby shower cap&tags=BA||||8211.142|Price|product|||TS|rsf:gd-|-stype:attr=1|qr_nm:gd|res:RC4|com-cf:nl|ptrs:na|ktp:N0|mc:208875|mtp:S|qry_typ:P|lang:en|wc:3|cs:8895|v=4,Parass Trading,https://www.indiamart.com/parasstrading/?pos=34&kwd=baby shower cap&tags=BA||||8211.142|Price|product|||TS|rsf:gd-|-stype:attr=1|qr_nm:gd|res:RC4|com-cf:nl|ptrs:na|ktp:N0|mc:208875|mtp:S|qry_typ:P|lang:en|wc:3|cs:8895|v=4,False,Chembur,Mumbai,"Room no 3, First Floor, Plot no 39, Next to Shivaji Nagar police station,Kherwadi Plot no 39, Chembur, Mumbai - 400071, Dist.Mumbai, Maharashtra",8047631170,
"Silicone Crown Baby Shower Cap, Packaging Type: Box, 3-12 Months",https://www.indiamart.com/proddetail/baby-shower-cap-2853132486033.html?pos=35&kwd=baby shower cap&tags=BA||||8230.883|Price|product|||TS|rsf:gd-|-stype:attr=1|qr_nm:gd|res:RC4|com-cf:nl|ptrs:na|ktp:N0|mc:208875|mtp:S|qry_typ:P|lang:en|wc:3|cs:8895|v=4,Sixfire Pvt,https://www.sixfirepvt.com/?pos=35&kwd=baby shower cap&tags=BA||||8230.883|Price|product|||TS|rsf:gd-|-stype:attr=1|qr_nm:gd|res:RC4|com-cf:nl|ptrs:na|ktp:N0|mc:208875|mtp:S|qry_typ:P|lang:en|wc:3|cs:8895|v=4,False,Singanpor,Surat,"Plot No-32, Ground Floor, Laxmi Narayan Co. Op. Housing Society, Ved Road, Singanpor, Surat - 395004, Dist.Surat, Gujarat",7942957589,
Rubber Multicolor Baby Shower Cap,https://www.indiamart.com/proddetail/baby-shower-cap-25236532791.html?pos=36&kwd=baby shower cap&tags=BA||||8230.883|Price|product|||TS|rsf:gd-|-stype:attr=1|qr_nm:gd|res:RC4|com-cf:nl|ptrs:na|ktp:N0|mc:208875|mtp:S|qry_typ:P|lang:en|wc:3|cs:8895|v=4,Mahant,https://www.themahant.com/?pos=36&kwd=baby shower cap&tags=BA||||8230.883|Price|product|||TS|rsf:gd-|-stype:attr=1|qr_nm:gd|res:RC4|com-cf:nl|ptrs:na|ktp:N0|mc:208875|mtp:S|qry_typ:P|lang:en|wc:3|cs:8895|v=4,False,Katargam,Surat,"E-1103, Shukan Heights, Opp, Kantareshwar Hanuman Temple, Singanpore, Katargam, Surat - 395004, Dist.Surat, Gujarat",8048954505,
BANKEY kids 0 To 3 Baby Bath Shower Cap,https://www.indiamart.com/proddetail/baby-bath-shower-cap-2851495244148.html?pos=37&kwd=baby shower cap&tags=BA||||8752.144|Price|product|||TS|rsf:gd-|-stype:attr=1|qr_nm:gd|res:RC4|com-cf:nl|ptrs:na|ktp:N0|mc:208875|mtp:S|qry_typ:P|lang:en|wc:3|cs:8895|v=4,Bankey Bihari Enterprises,https://www.indiamart.com/bankey-bihari-enterprisesnewdelhi/?pos=37&kwd=baby shower cap&tags=BA||||8752.144|Price|product|||TS|rsf:gd-|-stype:attr=1|qr_nm:gd|res:RC4|com-cf:nl|ptrs:na|ktp:N0|mc:208875|mtp:S|qry_typ:P|lang:en|wc:3|cs:8895|v=4,False,Jahangirpuri,New Delhi,"Plot No 51 First Floor Street No 11 Harijan Colony Village Bhalsva, Jahangirpuri, New Delhi - 110033, Dist.Delhi, Delhi",7942825166,
King Baby Shower Cap,https://www.indiamart.com/proddetail/king-baby-shower-cap-2854292365062.html?pos=38&kwd=baby shower cap&tags=BA||||8230.883|Price|product|||TS|rsf:gd-|-stype:attr=1|qr_nm:gd|res:RC4|com-cf:nl|ptrs:na|ktp:N0|mc:208875|mtp:S|qry_typ:P|lang:en|wc:3|cs:8895|v=4,Dhwanit Enterprise,https://www.indiamart.com/dhwanit-enterprise-gujarat/?pos=38&kwd=baby shower cap&tags=BA||||8230.883|Price|product|||TS|rsf:gd-|-stype:attr=1|qr_nm:gd|res:RC4|com-cf:nl|ptrs:na|ktp:N0|mc:208875|mtp:S|qry_typ:P|lang:en|wc:3|cs:8895|v=4,False,Shakti Vijay Society,Surat,"Fourth Floor, A-402, Jay Sahkar Co. Op. Housing Society, Ak Road, Rupakala Saree, Varachha, Shakti Vijay Society, Surat - 395008, Dist.Surat, Gujarat",8044561629,
Rubber 0 To 2 Year Baby Bath Shower Cap,https://www.indiamart.com/proddetail/baby-bath-shower-cap-2851838830697.html?pos=39&kwd=baby shower cap&tags=BA||||8228.275|Price|product|||TS|rsf:gd-|-stype:attr=1|qr_nm:gd|res:RC4|com-cf:nl|ptrs:na|ktp:N0|mc:208875|mtp:S|qry_typ:P|lang:en|wc:3|cs:8895|v=4,Mahi Supermart,https://www.mahisupermart.com/?pos=39&kwd=baby shower cap&tags=BA||||8228.275|Price|product|||TS|rsf:gd-|-stype:attr=1|qr_nm:gd|res:RC4|com-cf:nl|ptrs:na|ktp:N0|mc:208875|mtp:S|qry_typ:P|lang:en|wc:3|cs:8895|v=4,False,Saijpur Bogha,Ahmedabad,"22, Jay Bhagwan Society, Miraj Cinemas Narod Road, Krishna Nagar, Saijpur Bogha, Ahmedabad - 382345, Dist.Ahmedabad, Gujarat",7942837913,
King Baby Shower Cap,https://www.indiamart.com/proddetail/king-baby-shower-cap-2854395863797.html?pos=40&kwd=baby shower cap&tags=BA||||8230.883|Price|product|||TS|rsf:gd-|-stype:attr=1|qr_nm:gd|res:RC4|com-cf:nl|ptrs:na|ktp:N0|mc:208875|mtp:S|qry_typ:P|lang:en|wc:3|cs:8895|v=4,S R Entrprise,https://www.homekitchenproduct.com/?pos=40&kwd=baby shower cap&tags=BA||||8230.883|Price|product|||TS|rsf:gd-|-stype:attr=1|qr_nm:gd|res:RC4|com-cf:nl|ptrs:na|ktp:N0|mc:208875|mtp:S|qry_typ:P|lang:en|wc:3|cs:8895|v=4,False,,Surat,"14th Floor, Flat No-D/1404, Rivanata Luxuria, Hazira Sayan Road, Surat - 394107, Dist.Surat, Gujarat",8045731417,
Qualityzone Plastic Adjustable Baby Shower Cap,https://www.indiamart.com/proddetail/adjustable-baby-shower-cap-23694965012.html?pos=41&kwd=baby shower cap&tags=BA||||8230.883|Price|product|||TS|rsf:gd-|-stype:attr=1|qr_nm:gd|res:RC4|com-cf:nl|ptrs:na|ktp:N0|mc:208875|mtp:S|qry_typ:P|lang:en|wc:3|cs:8895|v=4,Quality Zone,https://www.qualityzoneindia.com/?pos=41&kwd=baby shower cap&tags=BA||||8230.883|Price|product|||TS|rsf:gd-|-stype:attr=1|qr_nm:gd|res:RC4|com-cf:nl|ptrs:na|ktp:N0|mc:208875|mtp:S|qry_typ:P|lang:en|wc:3|cs:8895|v=4,False,Dabholi,Surat,"Plot No-17, Sy No-93/94, 1st Floor, Om Satyam Nagar Society, Ved Road, Dabholi Char Rasta, Dabholi, Surat - 395004, Dist.Surat, Gujarat",8048971766,
"Foam Upto 3 Years Baby Bath Shower Cap, For Home",https://www.indiamart.com/proddetail/baby-bath-shower-cap-21847915373.html?pos=42&kwd=baby shower cap&tags=BA||||8230.883|Price|product|||TS|rsf:gd-|-stype:attr=1|qr_nm:gd|res:RC4|com-cf:nl|ptrs:na|ktp:N0|mc:208875|mtp:S|qry_typ:P|lang:en|wc:3|cs:8895|v=4,Hemiza Enterprise,https://www.hemiza.in/?pos=42&kwd=baby shower cap&tags=BA||||8230.883|Price|product|||TS|rsf:gd-|-stype:attr=1|qr_nm:gd|res:RC4|com-cf:nl|ptrs:na|ktp:N0|mc:208875|mtp:S|qry_typ:P|lang:en|wc:3|cs:8895|v=4,False,Katargam,Surat,"71, Ground Floor, Shubhash Nagar Society Near Shakti Nagar Ni Vadi, Katargam, Surat - 395004, Dist.Surat, Gujarat",8048976391,
King Baby Shower Cap,https://www.indiamart.com/proddetail/king-baby-shower-cap-2854292365062.html?pos=43&kwd=baby shower cap&tags=BA||||8230.883|Price|product|||TS|rsf:gd-|-stype:attr=1|qr_nm:gd|res:RC4|com-cf:nl|ptrs:na|ktp:N0|mc:208875|mtp:S|qry_typ:P|lang:en|wc:3|cs:8895|v=4,Dhwanit Enterprise,https://www.indiamart.com/dhwanit-enterprise-gujarat/?pos=43&kwd=baby shower cap&tags=BA||||8230.883|Price|product|||TS|rsf:gd-|-stype:attr=1|qr_nm:gd|res:RC4|com-cf:nl|ptrs:na|ktp:N0|mc:208875|mtp:S|qry_typ:P|lang:en|wc:3|cs:8895|v=4,False,Shakti Vijay Society,Surat,"Fourth Floor, A-402, Jay Sahkar Co. Op. Housing Society, Ak Road, Rupakala Saree, Varachha, Shakti Vijay Society, Surat - 395008, Dist.Surat, Gujarat",8044561629,
"Gadhiya impex Multicolor King Baby Shower Cap, Packaging Type: Box",https://www.indiamart.com/proddetail/king-baby-shower-cap-2853980046633.html?pos=44&kwd=baby shower cap&tags=BA||||8230.883|Price|product|||TS|rsf:gd-|-stype:attr=1|qr_nm:gd|res:RC4|com-cf:nl|ptrs:na|ktp:N0|mc:208875|mtp:S|qry_typ:P|lang:en|wc:3|cs:8895|v=4,Gadhiya Impex.,https://www.gadhiyaimpex.com/?pos=44&kwd=baby shower cap&tags=BA||||8230.883|Price|product|||TS|rsf:gd-|-stype:attr=1|qr_nm:gd|res:RC4|com-cf:nl|ptrs:na|ktp:N0|mc:208875|mtp:S|qry_typ:P|lang:en|wc:3|cs:8895|v=4,False,Katargam,Surat,"8th, 804, Variav Road, Panchshila Sky, Katargam, Surat - 394520, Dist.Surat, Gujarat",8047619805,
Rubber 0 To 2 Year Baby Bath Shower Cap,https://www.indiamart.com/proddetail/baby-bath-shower-cap-2851838830697.html?pos=45&kwd=baby shower cap&tags=BA||||8228.275|Price|product|||TS|rsf:gd-|-stype:attr=1|qr_nm:gd|res:RC4|com-cf:nl|ptrs:na|ktp:N0|mc:208875|mtp:S|qry_typ:P|lang:en|wc:3|cs:8895|v=4,Mahi Supermart,https://www.mahisupermart.com/?pos=45&kwd=baby shower cap&tags=BA||||8228.275|Price|product|||TS|rsf:gd-|-stype:attr=1|qr_nm:gd|res:RC4|com-cf:nl|ptrs:na|ktp:N0|mc:208875|mtp:S|qry_typ:P|lang:en|wc:3|cs:8895|v=4,False,Saijpur Bogha,Ahmedabad,"22, Jay Bhagwan Society, Miraj Cinemas Narod Road, Krishna Nagar, Saijpur Bogha, Ahmedabad - 382345, Dist.Ahmedabad, Gujarat",7942837913,
King Baby Shower Cap,https://www.indiamart.com/proddetail/king-baby-shower-cap-2854395863797.html?pos=46&kwd=baby shower cap&tags=BA||||8230.883|Price|product|||TS|rsf:gd-|-stype:attr=1|qr_nm:gd|res:RC4|com-cf:nl|ptrs:na|ktp:N0|mc:208875|mtp:S|qry_typ:P|lang:en|wc:3|cs:8895|v=4,S R Entrprise,https://www.homekitchenproduct.com/?pos=46&kwd=baby shower cap&tags=BA||||8230.883|Price|product|||TS|rsf:gd-|-stype:attr=1|qr_nm:gd|res:RC4|com-cf:nl|ptrs:na|ktp:N0|mc:208875|mtp:S|qry_typ:P|lang:en|wc:3|cs:8895|v=4,False,,Surat,"14th Floor, Flat No-D/1404, Rivanata Luxuria, Hazira Sayan Road, Surat - 394107, Dist.Surat, Gujarat",8045731417,
Qualityzone Plastic Adjustable Baby Shower Cap,https://www.indiamart.com/proddetail/adjustable-baby-shower-cap-23694965012.html?pos=47&kwd=baby shower cap&tags=BA||||8230.883|Price|product|||TS|rsf:gd-|-stype:attr=1|qr_nm:gd|res:RC4|com-cf:nl|ptrs:na|ktp:N0|mc:208875|mtp:S|qry_typ:P|lang:en|wc:3|cs:8895|v=4,Quality Zone,https://www.qualityzoneindia.com/?pos=47&kwd=baby shower cap&tags=BA||||8230.883|Price|product|||TS|rsf:gd-|-stype:attr=1|qr_nm:gd|res:RC4|com-cf:nl|ptrs:na|ktp:N0|mc:208875|mtp:S|qry_typ:P|lang:en|wc:3|cs:8895|v=4,False,Dabholi,Surat,"Plot No-17, Sy No-93/94, 1st Floor, Om Satyam Nagar Society, Ved Road, Dabholi Char Rasta, Dabholi, Surat - 395004, Dist.Surat, Gujarat",8048971766,
soft 2-10 Year Bathing Baby Shower Cap,https://www.indiamart.com/proddetail/bathing-baby-shower-cap-23884890473.html?pos=48&kwd=baby shower cap&tags=BA||||8230.883|Price|product|||TS|rsf:gd-|-stype:attr=1|qr_nm:gd|res:RC4|com-cf:nl|ptrs:na|ktp:N0|mc:208875|mtp:S|qry_typ:P|lang:en|wc:3|cs:8895|v=4,Alpyog Marketing,https://www.alpyogmarketing.com/?pos=48&kwd=baby shower cap&tags=BA||||8230.883|Price|product|||TS|rsf:gd-|-stype:attr=1|qr_nm:gd|res:RC4|com-cf:nl|ptrs:na|ktp:N0|mc:208875|mtp:S|qry_typ:P|lang:en|wc:3|cs:8895|v=4,False,Singanpor,Surat,"SY No,1-36, 1st Floor, Talav Falia, Rear Side, Post Siganpore, Katargam, Singanpor, Surat - 395004, Dist.Surat, Gujarat",8048968669,
TS Mart 0-6 Year Plastic Baby Shampoo Shower Cap,https://www.indiamart.com/proddetail/plastic-baby-shampoo-shower-cap-23222746830.html?pos=49&kwd=baby shower cap&tags=BA||||8230.883|Price|product|||TS|rsf:gd-|-stype:attr=1|qr_nm:gd|res:RC4|com-cf:nl|ptrs:na|ktp:N0|mc:208875|mtp:S|qry_typ:P|lang:en|wc:3|cs:8895|v=4,TS MART,https://www.tsmart.co.in/?pos=49&kwd=baby shower cap&tags=BA||||8230.883|Price|product|||TS|rsf:gd-|-stype:attr=1|qr_nm:gd|res:RC4|com-cf:nl|ptrs:na|ktp:N0|mc:208875|mtp:S|qry_typ:P|lang:en|wc:3|cs:8895|v=4,False,Vijay Nagar Society No 2,Surat,"Ground Floor Om Shiv Complex Yogi Chowk, Vijay Nagar Society No 2, Surat - 395010, Dist.Surat, Gujarat",8046054788,
AMARA IMPEX FOAM Soft Adjustable Baby Shower Cap,https://www.indiamart.com/proddetail/soft-adjustable-baby-shower-cap-2852420081591.html?pos=50&kwd=baby shower cap&tags=BB||||8230.883|Price|product|||TS|rsf:gd-|-stype:attr=1|qr_nm:gd|res:RC4|com-cf:nl|ptrs:na|ktp:N0|mc:208875|mtp:S|qry_typ:P|lang:en|wc:3|cs:8895|v=4,Amara Impex,https://www.amaraimpex.in/?pos=50&kwd=baby shower cap&tags=BB||||8230.883|Price|product|||TS|rsf:gd-|-stype:attr=1|qr_nm:gd|res:RC4|com-cf:nl|ptrs:na|ktp:N0|mc:208875|mtp:S|qry_typ:P|lang:en|wc:3|cs:8895|v=4,False,Katargam,Surat,"148, Haridham Society, Amabatalavdi Road, Katargam,, Katargam, Surat - 395004, Dist.Surat, Gujarat",8048613226,
"Deodap Multicolor Crown Shape Baby Shower Cap 6440, Packaging Type: Polybag, 3-12 Months",https://www.indiamart.com/proddetail/crown-shape-baby-shower-cap-6440-2853391810588.html?pos=51&kwd=baby shower cap&tags=BA||||8038.093|Price|product|||TS|rsf:gd-|-stype:attr=1|qr_nm:gd|res:RC4|com-cf:nl|ptrs:na|ktp:N0|mc:208875|mtp:S|qry_typ:P|lang:en|wc:3|cs:8895|v=4,Deodap,https://www.indiamart.com/deodap/?pos=51&kwd=baby shower cap&tags=BA||||8038.093|Price|product|||TS|rsf:gd-|-stype:attr=1|qr_nm:gd|res:RC4|com-cf:nl|ptrs:na|ktp:N0|mc:208875|mtp:S|qry_typ:P|lang:en|wc:3|cs:8895|v=4,False,Rajkot,Rajkot,"plot No. 9 Behind Patanjali Werhouse, Ruda Transport, Saat Hanuman Ahemdabad Road, Rajkot, Rajkot - 360005, Dist.Rajkot, Gujarat",8048972316,
Plastic Kids Shree Hans Creation Baby Shower Cap,https://www.indiamart.com/proddetail/shree-hans-creation-baby-shower-cap-24751925697.html?pos=52&kwd=baby shower cap&tags=BA||||8230.883|Price|product|||TS|rsf:gd-|-stype:attr=1|qr_nm:gd|res:RC4|com-cf:nl|ptrs:na|ktp:N0|mc:208875|mtp:S|qry_typ:P|lang:en|wc:3|cs:8895|v=4,Ankita Jeetubhai Lokdiya,https://www.hanscart.com/?pos=52&kwd=baby shower cap&tags=BA||||8230.883|Price|product|||TS|rsf:gd-|-stype:attr=1|qr_nm:gd|res:RC4|com-cf:nl|ptrs:na|ktp:N0|mc:208875|mtp:S|qry_typ:P|lang:en|wc:3|cs:8895|v=4,False,Katargam,Surat,"Block No.82, Plot No.C1, Ground Floor, Palod, Nr.Bank Of India, Nr.Kim Chowkdi, Kim, Katargam, Surat - 394110, Dist.Surat, Gujarat",8046041344,
BKH Enterprises Plastic Adjustable Baby Shower Cap Safe Soft,https://www.indiamart.com/proddetail/adjustable-baby-shower-cap-safe-soft-2852653135455.html?pos=53&kwd=baby shower cap&tags=BA||||8584.299|Price|product|||TS|rsf:gd-|-stype:attr=1|qr_nm:gd|res:RC4|com-cf:nl|ptrs:na|ktp:N0|mc:208875|mtp:S|qry_typ:P|lang:en|wc:3|cs:8895|v=4,BKH Enterprises,https://www.bkhenterprises.net/?pos=53&kwd=baby shower cap&tags=BA||||8584.299|Price|product|||TS|rsf:gd-|-stype:attr=1|qr_nm:gd|res:RC4|com-cf:nl|ptrs:na|ktp:N0|mc:208875|mtp:S|qry_typ:P|lang:en|wc:3|cs:8895|v=4,False,Annai Indra Nagar,Coimbatore,"45,West Subramaniam Street,RS Puram, Annai Indra Nagar, Coimbatore - 641001, Dist.Coimbatore, Tamil Nadu",8046066722,
"yellow,Blue ADJUSTABLE SAFE SOFT BABY SHOWER CAP, Packaging Type: Loose, 1-2 Years",https://www.indiamart.com/proddetail/adjustable-safe-soft-baby-shower-cap-2853409341230.html?pos=54&kwd=baby shower cap&tags=BA||||8038.093|Price|product|||TS|rsf:gd-|-stype:attr=1|qr_nm:gd|res:RC4|com-cf:nl|ptrs:na|ktp:N0|mc:208875|mtp:S|qry_typ:P|lang:en|wc:3|cs:8895|v=4,Madhav Enterprise,https://www.indiamart.com/madhav-enterpriserajkot-gujarat/?pos=54&kwd=baby shower cap&tags=BA||||8038.093|Price|product|||TS|rsf:gd-|-stype:attr=1|qr_nm:gd|res:RC4|com-cf:nl|ptrs:na|ktp:N0|mc:208875|mtp:S|qry_typ:P|lang:en|wc:3|cs:8895|v=4,False,Kothariya,Rajkot,"New Ganeshnagar Streetno-5, Near Bapa Sitaram Chowk , Kothariya Main Road, Ganesh Marbel Street,, Kothariya, Rajkot - 360002, Dist.Rajkot, Gujarat",8048613186,
Zu Enterprises Plastic Baby Bath Cap,https://www.indiamart.com/proddetail/baby-bath-cap-23718878073.html?pos=55&kwd=baby shower cap&tags=BB||||8211.142|Price|product|||TS|rsf:gd-|-stype:attr=1|qr_nm:gd|res:RC4|com-cf:nl|ptrs:na|ktp:N0|mc:208875|mtp:S|qry_typ:P|lang:en|wc:3|cs:8895|v=4,ZU ENTERPRISES,https://www.zuenterprises.in/?pos=55&kwd=baby shower cap&tags=BB||||8211.142|Price|product|||TS|rsf:gd-|-stype:attr=1|qr_nm:gd|res:RC4|com-cf:nl|ptrs:na|ktp:N0|mc:208875|mtp:S|qry_typ:P|lang:en|wc:3|cs:8895|v=4,False,MA Sarang marg,Mumbai,"Plot-31,Mohammadi House 4,Floor-Grd, Tandel Street South Khadak MA Sarang Marg, Chinchb, MA Sarang marg, Mumbai - 400009, Dist.Mumbai, Maharashtra",8048980079,
Baby Cap Set,https://www.indiamart.com/proddetail/baby-cap-set-2850231861288.html?pos=56&kwd=baby shower cap&tags=BB||||8626.744||product|||TS|rsf:gd-|-stype:attr=1|qr_nm:gd|res:RC4|com-cf:nl|ptrs:na|ktp:N0|mc:208875|mtp:S|qry_typ:P|lang:en|wc:3|cs:8895|v=4,Paras Textiles,https://www.indiamart.com/parastextiles/?pos=56&kwd=baby shower cap&tags=BB||||8626.744||product|||TS|rsf:gd-|-stype:attr=1|qr_nm:gd|res:RC4|com-cf:nl|ptrs:na|ktp:N0|mc:208875|mtp:S|qry_typ:P|lang:en|wc:3|cs:8895|v=4,False,Appachi Nagar,Tiruppur,"2 MP Nagar, 2nd Street, Kongu Nagar,, Appachi Nagar, Tiruppur - 641607, Dist.Coimbatore, Tamil Nadu",8046036323,
Light Pink Cotton Baby Play Time Cap,https://www.indiamart.com/proddetail/baby-play-time-cap-10164388755.html?pos=57&kwd=baby shower cap&tags=BA||||8752.144|Price|product|||TS|rsf:gd-|-stype:attr=1|qr_nm:gd|res:RC4|com-cf:nl|ptrs:na|ktp:N0|mc:208875|mtp:S|qry_typ:P|lang:en|wc:3|cs:8895|v=4,Man Singh & Sons Private Limited,https://www.babyproductsmanufacturer.com/?pos=57&kwd=baby shower cap&tags=BA||||8752.144|Price|product|||TS|rsf:gd-|-stype:attr=1|qr_nm:gd|res:RC4|com-cf:nl|ptrs:na|ktp:N0|mc:208875|mtp:S|qry_typ:P|lang:en|wc:3|cs:8895|v=4,False,Karol Bagh,New Delhi,"No. 13/24, 1st Floor, W. E. A., Karol Bagh, Karol Bagh, New Delhi - 110005, Dist.Delhi, Delhi",8048978579,
Adjustable Safe Soft Bathing Baby Shower Cap Wash Hair for Children Baby,https://www.indiamart.com/proddetail/adjustable-safe-soft-bathing-baby-shower-cap-wash-hair-for-children-baby-2854150098112.html?pos=58&kwd=baby shower cap&tags=BA||||8230.883|Price|product|||TS|rsf:gd-|-stype:attr=1|qr_nm:gd|res:RC4|com-cf:nl|ptrs:na|ktp:N0|mc:208875|mtp:S|qry_typ:P|lang:en|wc:3|cs:8895|v=4,Manisha Enterprise,https://www.indiamart.com/manishaenterprisesurat/?pos=58&kwd=baby shower cap&tags=BA||||8230.883|Price|product|||TS|rsf:gd-|-stype:attr=1|qr_nm:gd|res:RC4|com-cf:nl|ptrs:na|ktp:N0|mc:208875|mtp:S|qry_typ:P|lang:en|wc:3|cs:8895|v=4,False,Amroli,Surat,"GF C-75, Somnath Adarshnagar 1, Chprabhata Road, Amroli, Amroli, Surat - 394107, Dist.Surat, Gujarat",7949372906,
EVA Plastic pink n blue BABY BATH CAP (SHOWER CAP),https://www.indiamart.com/proddetail/baby-bath-cap-shower-cap-20794325762.html?pos=59&kwd=baby shower cap&tags=BB||||8230.883|Price|product|||TS|rsf:gd-|-stype:attr=1|qr_nm:gd|res:RC4|com-cf:nl|ptrs:na|ktp:N0|mc:208875|mtp:S|qry_typ:P|lang:en|wc:3|cs:8895|v=4,Cheaperzone Ecom LLP,https://www.cheaperzonewholesale.com/?pos=59&kwd=baby shower cap&tags=BB||||8230.883|Price|product|||TS|rsf:gd-|-stype:attr=1|qr_nm:gd|res:RC4|com-cf:nl|ptrs:na|ktp:N0|mc:208875|mtp:S|qry_typ:P|lang:en|wc:3|cs:8895|v=4,False,,Surat,"SY-108,109,PAIKI WEST SIDE,DABHOLI MAIN ROAD,Surat, Surat - 395004, Dist.Surat, Gujarat",8048985824,
Baby Shower Cap Wash Hair For Children Baby Eye Ear Protector Adjustable Leaves Shape,https://www.indiamart.com/proddetail/baby-shower-cap-wash-hair-for-children-baby-eye-ear-protector-adjustable-leaves-shape-23013574612.html?pos=60&kwd=baby shower cap&tags=BA||||8211.142|Price|product|||TS|rsf:gd-|-stype:attr=1|qr_nm:gd|res:RC4|com-cf:nl|ptrs:na|ktp:N0|mc:208875|mtp:S|qry_typ:P|lang:en|wc:3|cs:8895|v=4,Alino Collection,https://www.alinocollection.com/?pos=60&kwd=baby shower cap&tags=BA||||8211.142|Price|product|||TS|rsf:gd-|-stype:attr=1|qr_nm:gd|res:RC4|com-cf:nl|ptrs:na|ktp:N0|mc:208875|mtp:S|qry_typ:P|lang:en|wc:3|cs:8895|v=4,False,Santacruz East,Mumbai,"Shop no 505, Building No 11, Motilal Nehru Nagar,Bandra BKC, Bandra East, Santacruz East, Mumbai - 400098, Dist.Mumbai, Maharashtra",8048970663,
Safe Shampoo Shower Bathing Protect Soft Cap Hat for Baby Children Kids Button,https://www.indiamart.com/proddetail/safe-shampoo-shower-bathing-protect-soft-cap-hat-for-baby-children-kids-button-22911912688.html?pos=61&kwd=baby shower cap&tags=BA||||8230.883|Price|product|||TS|rsf:gd-|-stype:attr=1|qr_nm:gd|res:RC4|com-cf:nl|ptrs:na|ktp:N0|mc:208875|mtp:S|qry_typ:P|lang:en|wc:3|cs:8895|v=4,Emall,https://www.maharajmarketing.in/?pos=61&kwd=baby shower cap&tags=BA||||8230.883|Price|product|||TS|rsf:gd-|-stype:attr=1|qr_nm:gd|res:RC4|com-cf:nl|ptrs:na|ktp:N0|mc:208875|mtp:S|qry_typ:P|lang:en|wc:3|cs:8895|v=4,False,Dabholi,Surat,"C-202, Mahendrapark, Opp. Essar Petrol Pump, Near Iskon Circle,, Dabholi, Surat - 395004, Dist.Surat, Gujarat",8048961829,
"Hemico Adjustable Safe Shampoo Shower Bathing Protection Bath Cap For Toddler, Baby, Kids, Children",https://www.indiamart.com/proddetail/hemico-adjustable-safe-shampoo-shower-bathing-protection-bath-cap-for-toddler-baby-kids-children-25999980191.html?pos=62&kwd=baby shower cap&tags=BA||||8230.883|Price|product|||TS|rsf:gd-|-stype:attr=1|qr_nm:gd|res:RC4|com-cf:nl|ptrs:na|ktp:N0|mc:208875|mtp:S|qry_typ:P|lang:en|wc:3|cs:8895|v=4,Hemico,https://www.hemico.in/?pos=62&kwd=baby shower cap&tags=BA||||8230.883|Price|product|||TS|rsf:gd-|-stype:attr=1|qr_nm:gd|res:RC4|com-cf:nl|ptrs:na|ktp:N0|mc:208875|mtp:S|qry_typ:P|lang:en|wc:3|cs:8895|v=4,False,Katargam,Surat,"Basement Shop No.-1, Sunday Hub Shopping Center, Ambatalavdi Road KATARGAM, Katargam, Surat - 395004, Dist.Surat, Gujarat",7942544294,
"Mitsico Adjustable Safe Shampoo Shower Bathing Protection Bath Cap For Toddler, Baby, Kids, Children",https://www.indiamart.com/proddetail/mitsico-adjustable-safe-shampoo-shower-bathing-protection-bath-cap-for-toddler-baby-kids-children-26000143448.html?pos=63&kwd=baby shower cap&tags=BA||||8230.883|Price|product|||TS|rsf:gd-|-stype:attr=1|qr_nm:gd|res:RC4|com-cf:nl|ptrs:na|ktp:N0|mc:208875|mtp:S|qry_typ:P|lang:en|wc:3|cs:8895|v=4,Mitsico,https://www.mitsico.in/?pos=63&kwd=baby shower cap&tags=BA||||8230.883|Price|product|||TS|rsf:gd-|-stype:attr=1|qr_nm:gd|res:RC4|com-cf:nl|ptrs:na|ktp:N0|mc:208875|mtp:S|qry_typ:P|lang:en|wc:3|cs:8895|v=4,False,KATARGAM,Surat,"Basement-1, Shop No.- A1, Sunday Hub Shopping Center, Amba Talavadi, Opp. Shree Vinayak Residency, KATARGAM, Surat - 395004, Dist.Surat, Gujarat",8047649165,
Eva Foam 1-5 Baby Shower Cap,https://www.indiamart.com/proddetail/baby-shower-cap-26191130455.html?pos=64&kwd=baby shower cap&tags=BA||||8230.883|Price|product|||MDC|rsf:gd-|-stype:attr=1|qr_nm:gd|res:RC4|com-cf:nl|ptrs:na|ktp:N0|mc:208875|mtp:S|qry_typ:P|lang:en|wc:3|cs:8895|v=4,KRUPA FASHION,https://www.indiamart.com/krupafashion/?pos=64&kwd=baby shower cap&tags=BA||||8230.883|Price|product|||MDC|rsf:gd-|-stype:attr=1|qr_nm:gd|res:RC4|com-cf:nl|ptrs:na|ktp:N0|mc:208875|mtp:S|qry_typ:P|lang:en|wc:3|cs:8895|v=4,False,Dabholi,Surat,"A/18, Kusumpark Society, Near Gayatri Mandir, Dabholi Road,, Dabholi, Surat - 395004, Dist.Surat, Gujarat",8048262537,
"baby shower cap, 3-12 Months",https://www.indiamart.com/proddetail/baby-shower-cap-2854921957633.html?pos=65&kwd=baby shower cap&tags=BB||||8230.883|Price|product|||MDC|rsf:gd-|-stype:attr=1|qr_nm:gd|res:RC4|com-cf:nl|ptrs:na|ktp:N0|mc:208875|mtp:S|qry_typ:P|lang:en|wc:3|cs:8895|v=4,V S Enterprise,https://www.indiamart.com/vsenterprise-gujarat/?pos=65&kwd=baby shower cap&tags=BB||||8230.883|Price|product|||MDC|rsf:gd-|-stype:attr=1|qr_nm:gd|res:RC4|com-cf:nl|ptrs:na|ktp:N0|mc:208875|mtp:S|qry_typ:P|lang:en|wc:3|cs:8895|v=4,False,Katargam,Surat,"B/501, Buil- B Sahstrafana Saubhagya Residency, Opp Western Somchintamani, Pal, Katargam, Surat - 395009, Dist.Surat, Gujarat",8048971602,
non Eva Resin Baby Shower Cap,https://www.indiamart.com/proddetail/baby-shower-cap-25679222655.html?pos=66&kwd=baby shower cap&tags=BA||||8752.144|Price|product|||MDC|rsf:gd-|-stype:attr=1|qr_nm:gd|res:RC4|com-cf:nl|ptrs:na|ktp:N0|mc:208875|mtp:S|qry_typ:P|lang:en|wc:3|cs:8895|v=4,Peach Media,https://www.indiamart.com/peach-media/?pos=66&kwd=baby shower cap&tags=BA||||8752.144|Price|product|||MDC|rsf:gd-|-stype:attr=1|qr_nm:gd|res:RC4|com-cf:nl|ptrs:na|ktp:N0|mc:208875|mtp:S|qry_typ:P|lang:en|wc:3|cs:8895|v=4,False,Trilok Puri,New Delhi,"Flat No-404, PKT-5, Mayur Vihar, Phase-1,, Trilok Puri, New Delhi - 110091, Dist.Delhi, Delhi",8047650548,
"Baby Shower Cap, Newly Born",https://www.indiamart.com/proddetail/baby-shower-cap-2854280342333.html?pos=67&kwd=baby shower cap&tags=BB||||8230.883|Price|product|||MDC|rsf:gd-|-stype:attr=1|qr_nm:gd|res:RC4|com-cf:nl|ptrs:na|ktp:N0|mc:208875|mtp:S|qry_typ:P|lang:en|wc:3|cs:8895|v=4,White Horse,https://www.indiamart.com/white-horse-surat/?pos=67&kwd=baby shower cap&tags=BB||||8230.883|Price|product|||MDC|rsf:gd-|-stype:attr=1|qr_nm:gd|res:RC4|com-cf:nl|ptrs:na|ktp:N0|mc:208875|mtp:S|qry_typ:P|lang:en|wc:3|cs:8895|v=4,False,,Surat,"First Floor, Plot No.-Old-50 New-48, Sundaram Society, Singanpur Road, Sundaram Society, Katargam, Surat - 395004, Dist.Surat, Gujarat",8045729734,
PVA 3-12 Months Adjustable Baby Shower Cap,https://www.indiamart.com/proddetail/adjustable-baby-shower-cap-24341455655.html?pos=68&kwd=baby shower cap&tags=BA||||8559.269|Price|product|||MDC|rsf:gd-|-stype:attr=1|qr_nm:gd|res:RC4|com-cf:nl|ptrs:na|ktp:N0|mc:208875|mtp:S|qry_typ:P|lang:en|wc:3|cs:8895|v=4,RV Enterprises,https://www.indiamart.com/rventerprises-indore/?pos=68&kwd=baby shower cap&tags=BA||||8559.269|Price|product|||MDC|rsf:gd-|-stype:attr=1|qr_nm:gd|res:RC4|com-cf:nl|ptrs:na|ktp:N0|mc:208875|mtp:S|qry_typ:P|lang:en|wc:3|cs:8895|v=4,False,,Indore,"1089, Sudama Nagar, Indore - 452009, Dist.Indore, Madhya Pradesh",8047826026,
Plastic New Born Bathing Baby Shower Cap,https://www.indiamart.com/proddetail/bathing-baby-shower-cap-24316841562.html?pos=69&kwd=baby shower cap&tags=BB||||8228.275|Price|product|||MDC|rsf:gd-|-stype:attr=1|qr_nm:gd|res:RC4|com-cf:nl|ptrs:na|ktp:N0|mc:208875|mtp:S|qry_typ:P|lang:en|wc:3|cs:8895|v=4,Sanskriti Inc,https://www.indiamart.com/sanskriti-inc/?pos=69&kwd=baby shower cap&tags=BB||||8228.275|Price|product|||MDC|rsf:gd-|-stype:attr=1|qr_nm:gd|res:RC4|com-cf:nl|ptrs:na|ktp:N0|mc:208875|mtp:S|qry_typ:P|lang:en|wc:3|cs:8895|v=4,False,Nikol,Ahmedabad,"Shop No-26, Surjit Co Op H Soc Ltd, Nr. India Colony, Nikol Road, Nikol, Ahmedabad - 382350, Dist.Ahmedabad, Gujarat",8046047726,
"King Baby Shower Cap, 1-2 Years",https://www.indiamart.com/proddetail/king-baby-shower-cap-2854854785497.html?pos=70&kwd=baby shower cap&tags=BB||||8230.883|Price|product|||MDC|rsf:gd-|-stype:attr=1|qr_nm:gd|res:RC4|com-cf:nl|ptrs:na|ktp:N0|mc:208875|mtp:S|qry_typ:P|lang:en|wc:3|cs:8895|v=4,Balar Corporation,https://www.indiamart.com/balar-corporation/?pos=70&kwd=baby shower cap&tags=BB||||8230.883|Price|product|||MDC|rsf:gd-|-stype:attr=1|qr_nm:gd|res:RC4|com-cf:nl|ptrs:na|ktp:N0|mc:208875|mtp:S|qry_typ:P|lang:en|wc:3|cs:8895|v=4,False,,Surat,"C-504, Rameshvaram Regency, Utran, Surat - 394105, Dist.Surat, Gujarat",8045734410,
"Adjustable Shower Bathing Cap, Baby Shower Cap",https://www.indiamart.com/proddetail/adjustable-shower-bathing-cap-baby-shower-cap-2853938996630.html?pos=71&kwd=baby shower cap&tags=BA||||8230.883|Price|product|||MDC|rsf:gd-|-stype:attr=1|qr_nm:gd|res:RC4|com-cf:nl|ptrs:na|ktp:N0|mc:208875|mtp:S|qry_typ:P|lang:en|wc:3|cs:8895|v=4,Jnsm Spark,https://www.indiamart.com/jnsm-spark/?pos=71&kwd=baby shower cap&tags=BA||||8230.883|Price|product|||MDC|rsf:gd-|-stype:attr=1|qr_nm:gd|res:RC4|com-cf:nl|ptrs:na|ktp:N0|mc:208875|mtp:S|qry_typ:P|lang:en|wc:3|cs:8895|v=4,False,Dabholi,Surat,"3rd Floor Flat-302, Shukan Valley BLDG-F, OPP Hari Darshan, Dabholi Road, Dabholi, Surat - 395004, Dist.Surat, Gujarat",8045166587,
Adjustable Safe Soft Bathing Baby Shower Cap,https://www.indiamart.com/proddetail/adjustable-safe-soft-bathing-baby-shower-cap-2852926253612.html?pos=72&kwd=baby shower cap&tags=BA||||8230.883|Price|product|||MDC|rsf:gd-|-stype:attr=1|qr_nm:gd|res:RC4|com-cf:nl|ptrs:na|ktp:N0|mc:208875|mtp:S|qry_typ:P|lang:en|wc:3|cs:8895|v=4,Uma Enterprise,https://www.indiamart.com/umaenterprisesurat/?pos=72&kwd=baby shower cap&tags=BA||||8230.883|Price|product|||MDC|rsf:gd-|-stype:attr=1|qr_nm:gd|res:RC4|com-cf:nl|ptrs:na|ktp:N0|mc:208875|mtp:S|qry_typ:P|lang:en|wc:3|cs:8895|v=4,False,Majura Gate,Surat,"72, Hari Ichchha Industrial Co Op Society, A K Road, Majura Gate, Surat - 395008, Dist.Surat, Gujarat",7942713138,
Baby Bath Cap,https://www.indiamart.com/proddetail/baby-bath-cap-2854671488497.html?pos=73&kwd=baby shower cap&tags=BA||||8230.883|Price|product|||MDC|rsf:gd-|-stype:attr=1|qr_nm:gd|res:RC4|com-cf:nl|ptrs:na|ktp:N0|mc:208875|mtp:S|qry_typ:P|lang:en|wc:3|cs:8895|v=4,Ashwin Vallabhbhai Isotiya,https://www.indiamart.com/ashwin-vallabhbhai-isotiya/?pos=73&kwd=baby shower cap&tags=BA||||8230.883|Price|product|||MDC|rsf:gd-|-stype:attr=1|qr_nm:gd|res:RC4|com-cf:nl|ptrs:na|ktp:N0|mc:208875|mtp:S|qry_typ:P|lang:en|wc:3|cs:8895|v=4,False,,Surat,"3rd Floor, D-302, Aagman Residency, Opp. Silver Green Residency, Utran,, Surat - 394105, Dist.Surat, Gujarat",7949327588,
"Plastic Elephant Shape Baby Shower, Child Age Group: 3+year",https://www.indiamart.com/proddetail/elephant-shape-baby-shower-24271111297.html?pos=74&kwd=baby shower cap&tags=BA||||8752.144|Price|product|||MDC|rsf:gd-|-stype:attr=1|qr_nm:gd|res:RC4|com-cf:nl|ptrs:na|ktp:N0|mc:208875|mtp:S|qry_typ:P|lang:en|wc:3|cs:8895|v=4,Honey Bell Enterprises,https://www.indiamart.com/honey-bell-enterprises/?pos=74&kwd=baby shower cap&tags=BA||||8752.144|Price|product|||MDC|rsf:gd-|-stype:attr=1|qr_nm:gd|res:RC4|com-cf:nl|ptrs:na|ktp:N0|mc:208875|mtp:S|qry_typ:P|lang:en|wc:3|cs:8895|v=4,False,Shastri Nagar,New Delhi,"House No.39/1, Plot No.39,Ground Floor Block E-2, Shastri Nagar, Shastri Nagar, New Delhi - 110052, Dist.Delhi, Delhi",8048971968,
Baby Rabbit Caps,https://www.indiamart.com/proddetail/baby-rabbit-caps-2854680156891.html?pos=75&kwd=baby shower cap&tags=BA||||8228.275|Price|product|||MDC|rsf:gd-|-stype:attr=1|qr_nm:gd|res:RC4|com-cf:nl|ptrs:na|ktp:N0|mc:208875|mtp:S|qry_typ:P|lang:en|wc:3|cs:8895|v=4,H P Enterprise,https://www.indiamart.com/hpenterpriseahmedabad/?pos=75&kwd=baby shower cap&tags=BA||||8228.275|Price|product|||MDC|rsf:gd-|-stype:attr=1|qr_nm:gd|res:RC4|com-cf:nl|ptrs:na|ktp:N0|mc:208875|mtp:S|qry_typ:P|lang:en|wc:3|cs:8895|v=4,False,Kubernagar,Ahmedabad,"A/4 Opp Sukhramdas Darbar Bunglow Area Kavaram Park Kubernagar, Kubernagar, Ahmedabad - 382340, Dist.Ahmedabad, Gujarat",7949224579,
Adjustable Safe Soft Bathing Baby Shower Cap Wash Hair For Children Baby Eye Ear,https://www.indiamart.com/proddetail/adjustable-safe-soft-bathing-baby-shower-cap-wash-hair-for-children-baby-eye-ear-25408401297.html?pos=76&kwd=baby shower cap&tags=BA||||8752.144|Price|product|||MDC|rsf:gd-|-stype:attr=1|qr_nm:gd|res:RC4|com-cf:nl|ptrs:na|ktp:N0|mc:208875|mtp:S|qry_typ:P|lang:en|wc:3|cs:8895|v=4,Vakil Cloth House,https://www.indiamart.com/vakilclothhouse/?pos=76&kwd=baby shower cap&tags=BA||||8752.144|Price|product|||MDC|rsf:gd-|-stype:attr=1|qr_nm:gd|res:RC4|com-cf:nl|ptrs:na|ktp:N0|mc:208875|mtp:S|qry_typ:P|lang:en|wc:3|cs:8895|v=4,False,Govindpuri,New Delhi,"1731/5, Shop No-3, Govindpuri Extension, Govindpuri, New Delhi - 110019, Dist.Delhi, Delhi",8047633407,
Soft Adjustable Visor Hat Safe Shampoo Shower Bathing Protection Bath Cap PG-249,https://www.indiamart.com/proddetail/soft-adjustable-visor-hat-safe-shampoo-shower-bathing-protection-bath-cap-pg-249-2854718372097.html?pos=77&kwd=baby shower cap&tags=BA||||8230.883|Price|product|||MDC|rsf:gd-|-stype:attr=1|qr_nm:gd|res:RC4|com-cf:nl|ptrs:na|ktp:N0|mc:208875|mtp:S|qry_typ:P|lang:en|wc:3|cs:8895|v=4,P G Impex,https://www.indiamart.com/pg-impex-surat/?pos=77&kwd=baby shower cap&tags=BA||||8230.883|Price|product|||MDC|rsf:gd-|-stype:attr=1|qr_nm:gd|res:RC4|com-cf:nl|ptrs:na|ktp:N0|mc:208875|mtp:S|qry_typ:P|lang:en|wc:3|cs:8895|v=4,False,,Surat,"3rd Floor, 304, Sarjan Residency Wing-A, Sunganpor Road, Katargam, Surat - 395004, Dist.Surat, Gujarat",7949322822,
"Baby Shower Cap: Clean Hair for Kids, Adjustable Eye and Ear Protection (Multi-Color)",https://www.indiamart.com/proddetail/baby-shower-cap-clean-hair-for-kids-adjustable-eye-and-ear-protection-multi-color-2854983273533.html?pos=78&kwd=baby shower cap&tags=BB||||8663.873|Price|product|||MDC|rsf:gd-|-stype:attr=1|qr_nm:gd|res:RC4|com-cf:nl|ptrs:na|ktp:N0|mc:208875|mtp:S|qry_typ:P|lang:en|wc:3|cs:8895|v=4,Nipika Vrapped Gifting,https://www.indiamart.com/nipika-vrapped-gifting/?pos=78&kwd=baby shower cap&tags=BB||||8663.873|Price|product|||MDC|rsf:gd-|-stype:attr=1|qr_nm:gd|res:RC4|com-cf:nl|ptrs:na|ktp:N0|mc:208875|mtp:S|qry_typ:P|lang:en|wc:3|cs:8895|v=4,False,Bengaluru Urban,Bengaluru,"9/1, 23rd Cross Road, Magadi Road, KP Agrahara, Bengaluru Urban, Bengaluru - 560023, Dist.Bengaluru, Karnataka",7949328723,
"Baby shampoo hat, 1-2 Years",https://www.indiamart.com/proddetail/baby-shampoo-hat-2854438926655.html?pos=79&kwd=baby shower cap&tags=BA||||8752.144|Price|product|||MDC|rsf:gd-|-stype:attr=1|qr_nm:gd|res:RC4|com-cf:nl|ptrs:na|ktp:N0|mc:208875|mtp:S|qry_typ:P|lang:en|wc:3|cs:8895|v=4,S.N. Enterprises,https://www.indiamart.com/sn-enterprisesnew-delhi/?pos=79&kwd=baby shower cap&tags=BA||||8752.144|Price|product|||MDC|rsf:gd-|-stype:attr=1|qr_nm:gd|res:RC4|com-cf:nl|ptrs:na|ktp:N0|mc:208875|mtp:S|qry_typ:P|lang:en|wc:3|cs:8895|v=4,False,Daryaganj,New Delhi,"Shop No. 16, Sabharwal Market, Sabharwal Lane, Sadar Bazar, North, Daryaganj, New Delhi - 110006, Dist.Delhi, Delhi",8045166377,
Infant Kids Woolen Cap Princess,https://www.indiamart.com/proddetail/infant-kids-woolen-cap-princess-2852851304555.html?pos=80&kwd=baby shower cap&tags=BA||||8211.142|Price|product|||TS|rsf:gd-|-stype:attr=1|qr_nm:gd|res:RC4|com-cf:nl|ptrs:na|ktp:N0|mc:208875|mtp:S|qry_typ:P|lang:en|wc:3|cs:8895|v=4,P For Panda Baby Products Private Limited,https://www.p4pandababyproducts.com/?pos=80&kwd=baby shower cap&tags=BA||||8211.142|Price|product|||TS|rsf:gd-|-stype:attr=1|qr_nm:gd|res:RC4|com-cf:nl|ptrs:na|ktp:N0|mc:208875|mtp:S|qry_typ:P|lang:en|wc:3|cs:8895|v=4,False,Goregaon West,Mumbai,"904 A Wing,9 Th Floor,Triple S Heights,Jakeria Road, Goregaon West, Mumbai - 400064, Dist.Mumbai, Maharashtra",7942710871,
"Polythene Plain Disposable Shower Cap, Size: 18 Inch",https://www.indiamart.com/proddetail/disposable-shower-cap-19778647830.html?pos=81&kwd=baby shower cap&tags=BA||||8752.144|Price|product|||TS|rsf:gd-|-stype:attr=1|qr_nm:gd|res:RC4|com-cf:nl|ptrs:na|ktp:N0|mc:208875|mtp:S|qry_typ:P|lang:en|wc:3|cs:8895|v=4,JSR Amenities Private Limited,https://www.jsramenities.com/?pos=81&kwd=baby shower cap&tags=BA||||8752.144|Price|product|||TS|rsf:gd-|-stype:attr=1|qr_nm:gd|res:RC4|com-cf:nl|ptrs:na|ktp:N0|mc:208875|mtp:S|qry_typ:P|lang:en|wc:3|cs:8895|v=4,False,Rohini Sector 4,New Delhi,"A-2/21, 22, First Floor, Sector 11, Rohini Sector 4, New Delhi - 110085, Dist.Delhi, Delhi",8048954277,
Baby Shower Cap,,Tirupati Gems,https://www.indiamart.com/tirupati-gems-jaipur/?pos=82&kwd=baby shower cap&tags=BB||||8601.347|Price|product|||MDC|rsf:gd-|-stype:attr=1|qr_nm:gd|res:RC4|com-cf:nl|ptrs:na|ktp:N0|mc:208875|mtp:S|qry_typ:P|lang:en|wc:3|cs:8895|v=4,False,Haldiyon Ka Rasta,Jaipur,"1307, Kedia Building Gopalji Ka Rasta, Haldiyon Ka Rasta, Jaipur - 302003, Dist.Jaipur, Rajasthan",7942956362,
BABY SHOWER CAP,,Case Plus,https://www.indiamart.com/case-plus/?pos=83&kwd=baby shower cap&tags=BB||||8281.036|Price|product|||MDC|rsf:gd-|-stype:attr=1|qr_nm:gd|res:RC4|com-cf:nl|ptrs:na|ktp:N0|mc:208875|mtp:S|qry_typ:P|lang:en|wc:3|cs:8895|v=4,False,,Vadodara,"A-22, Siddharth Annexe 3, Near Hotel Plazzo, Vemali, Vadodara - 391740, Dist.Vadodara, Gujarat",7949341771,
Sonal Mandap Tailors,,Sonal Mandap Tailors,https://www.indiamart.com/sonal-mandap-tailors/?pos=84&kwd=baby shower cap&tags=BA||||8228.275||bl|||TS|rsf:gd-|-stype:attr=1|qr_nm:gd|res:RC4|com-cf:nl|ptrs:na|ktp:N0|mc:208875|mtp:S|qry_typ:P|lang:en|wc:3|cs:8895|v=4,False,Motera,Ahmedabad,"Thakorvas 253 Motera Koteshwar, Motera, Ahmedabad - 380005, Dist.Ahmedabad, Gujarat",7942544361,
Plastic Multicolor Hemiza Baby Bath Shower Cap,https://www.indiamart.com/proddetail/hemiza-baby-bath-shower-cap-21839039988.html?pos=85&kwd=baby shower cap&tags=BB||||8230.883|Price|product|||NA|rsf:gd-|-stype:attr=1|qr_nm:gd|res:RC4|com-cf:nl|ptrs:na|ktp:N0|mc:208875|mtp:S|qry_typ:P|lang:en|wc:3|cs:8895|v=4,V R Enterprise,https://www.indiamart.com/vrenterprise-61288641/?pos=85&kwd=baby shower cap&tags=BB||||8230.883|Price|product|||NA|rsf:gd-|-stype:attr=1|qr_nm:gd|res:RC4|com-cf:nl|ptrs:na|ktp:N0|mc:208875|mtp:S|qry_typ:P|lang:en|wc:3|cs:8895|v=4,False,,Surat,"Plot No. 71, Subhash Nagar Society Shakti Nagar Vadi, Katargam, Surat - 395004, Dist.Surat, Gujarat",8047668093,
Rubber 0-3 Years Baby Shower Cap,https://www.indiamart.com/proddetail/baby-shower-cap-2850225472933.html?pos=86&kwd=baby shower cap&tags=BB||||8752.144|Price|product|||NA|rsf:gd-|-stype:attr=1|qr_nm:gd|res:RC4|com-cf:nl|ptrs:na|ktp:N0|mc:208875|mtp:S|qry_typ:P|lang:en|wc:3|cs:8895|v=4,Gupta Creations,https://www.indiamart.com/guptacreations-134727805/?pos=86&kwd=baby shower cap&tags=BB||||8752.144|Price|product|||NA|rsf:gd-|-stype:attr=1|qr_nm:gd|res:RC4|com-cf:nl|ptrs:na|ktp:N0|mc:208875|mtp:S|qry_typ:P|lang:en|wc:3|cs:8895|v=4,False,Near Sport Sun,New Delhi,"B-977 Shastri Nagar New Delhi, Near Sport Sun, New Delhi - 110052, Dist.Delhi, Delhi",8069023939,192
Plastic Baby Shower Cap,https://www.indiamart.com/proddetail/baby-shower-cap-22650981762.html?pos=87&kwd=baby shower cap&tags=BB||||8038.093|Price|product|||NA|rsf:gd-|-stype:attr=1|qr_nm:gd|res:RC4|com-cf:nl|ptrs:na|ktp:N0|mc:208875|mtp:S|qry_typ:P|lang:en|wc:3|cs:8895|v=4,Chitra Art Works,https://www.indiamart.com/chitraartworks/?pos=87&kwd=baby shower cap&tags=BB||||8038.093|Price|product|||NA|rsf:gd-|-stype:attr=1|qr_nm:gd|res:RC4|com-cf:nl|ptrs:na|ktp:N0|mc:208875|mtp:S|qry_typ:P|lang:en|wc:3|cs:8895|v=4,False,,Rajkot,"Panchvati Society, Block No. 10/C, Street No.8, Kalawad Road, Rajkot, Rajkot - 360001, Dist.Rajkot, Gujarat",8048372499,533
Baby Shower Cap,https://www.indiamart.com/proddetail/baby-shower-cap-26750553955.html?pos=88&kwd=baby shower cap&tags=BB||||8230.883|Price|product|||NA|rsf:gd-|-stype:attr=1|qr_nm:gd|res:RC4|com-cf:nl|ptrs:na|ktp:N0|mc:208875|mtp:S|qry_typ:P|lang:en|wc:3|cs:8895|v=4,TRK Hub,https://www.indiamart.com/trk-hub/?pos=88&kwd=baby shower cap&tags=BB||||8230.883|Price|product|||NA|rsf:gd-|-stype:attr=1|qr_nm:gd|res:RC4|com-cf:nl|ptrs:na|ktp:N0|mc:208875|mtp:S|qry_typ:P|lang:en|wc:3|cs:8895|v=4,False,Singanpore Road Katargam,Surat,"SY No-505, Plot No-20/A, Ground Floor, Shivlok CO OP Housing Society, Opp Nilkanth Kanya Vidhyalay, Singanpore Road Katargam, Surat - 395004, Dist.Surat, Gujarat",8048209471,
Baby shower cap,,Fortune Impex,https://www.indiamart.com/fortune-impex-kozhikode/?pos=89&kwd=baby shower cap&tags=BB||||8457.459|Price|product|||NA|rsf:gd-|-stype:attr=1|qr_nm:gd|res:RC4|com-cf:nl|ptrs:na|ktp:N0|mc:208875|mtp:S|qry_typ:P|lang:en|wc:3|cs:8895|v=4,False,Kozhikode,Kozhikode,"Ground Floor.65/3248,Ashokapuram Devi Apartments,, Kozhikode, Kozhikode - 673001, Dist.Kozhikode, Kerala",7942533556,
"AK TRADERS Multicolor Baby Shower Cap, Packaging Type: PACKAGE, 6 MONTHS TO 3 YEAR",https://www.indiamart.com/proddetail/baby-shower-cap-2853207561430.html?pos=90&kwd=baby shower cap&tags=BA||||8860.933|Price|product|||NA|rsf:gd-|-stype:attr=1|qr_nm:gd|res:RC4|com-cf:nl|ptrs:na|ktp:N0|mc:208875|mtp:S|qry_typ:P|lang:en|wc:3|cs:8895|v=4,Ak Traders,https://www.indiamart.com/company/77102278/?pos=90&kwd=baby shower cap&tags=BA||||8860.933|Price|product|||NA|rsf:gd-|-stype:attr=1|qr_nm:gd|res:RC4|com-cf:nl|ptrs:na|ktp:N0|mc:208875|mtp:S|qry_typ:P|lang:en|wc:3|cs:8895|v=4,False,,Dehradun,"0,SHIMLA BY PASS RAOD,SHERPUR,Selaqui ,248197,, Dehradun - 248197, Dist.Dehradun, Uttarakhand",8069707305,218
Rubber 6 Months Baby Shower Cap,https://www.indiamart.com/proddetail/baby-shower-cap-25598156991.html?pos=91&kwd=baby shower cap&tags=BB||||8230.883|Price|product|||NA|rsf:gd-|-stype:attr=1|qr_nm:gd|res:RC4|com-cf:nl|ptrs:na|ktp:N0|mc:208875|mtp:S|qry_typ:P|lang:en|wc:3|cs:8895|v=4,Bluerain Enterprise,https://www.indiamart.com/bluerain-enterprise/?pos=91&kwd=baby shower cap&tags=BB||||8230.883|Price|product|||NA|rsf:gd-|-stype:attr=1|qr_nm:gd|res:RC4|com-cf:nl|ptrs:na|ktp:N0|mc:208875|mtp:S|qry_typ:P|lang:en|wc:3|cs:8895|v=4,False,,Surat,"Plot No-55, Gajanand Park Society-1, B/H Chikuvadi, Puna Simada Road, Punagam,, Surat - 395006, Dist.Surat, Gujarat",8047655484,
"Nonababy Baby Shower Cap, 0-6 Years",https://www.indiamart.com/proddetail/baby-shower-cap-2853411391633.html?pos=92&kwd=baby shower cap&tags=BA||||8647.052|Price|product|||NA|rsf:gd-|-stype:attr=1|qr_nm:gd|res:RC4|com-cf:nl|ptrs:na|ktp:N0|mc:208875|mtp:S|qry_typ:P|lang:en|wc:3|cs:8895|v=4,Vinayaka Corporation,https://www.indiamart.com/vinayaka-corporation-hansi/?pos=92&kwd=baby shower cap&tags=BA||||8647.052|Price|product|||NA|rsf:gd-|-stype:attr=1|qr_nm:gd|res:RC4|com-cf:nl|ptrs:na|ktp:N0|mc:208875|mtp:S|qry_typ:P|lang:en|wc:3|cs:8895|v=4,False,,Hansi,"1319/11 Main Road Hansi Hisar, Hansi - 125033, Dist.Hisar, Haryana",8048249686,2771
foam 6 Month To 2 Years Baby Shower Cap,https://www.indiamart.com/proddetail/baby-shower-cap-13510027348.html?pos=93&kwd=baby shower cap&tags=BB||||8239.3955|Price|product|||NA|rsf:gd-|-stype:attr=1|qr_nm:gd|res:RC4|com-cf:nl|ptrs:na|ktp:N0|mc:208875|mtp:S|qry_typ:P|lang:en|wc:3|cs:8895|v=4,Tiny Toes,https://www.indiamart.com/tiny-toes/?pos=93&kwd=baby shower cap&tags=BB||||8239.3955|Price|product|||NA|rsf:gd-|-stype:attr=1|qr_nm:gd|res:RC4|com-cf:nl|ptrs:na|ktp:N0|mc:208875|mtp:S|qry_typ:P|lang:en|wc:3|cs:8895|v=4,False,,Kalyan,"Shop No 4, Jai Sonali Building Dr. Ambedkar road, Kalyan - 421301, Dist.Thane, Maharashtra",8047699360,
V&BUY Plastic Baby Shower Cap,https://www.indiamart.com/proddetail/baby-shower-cap-23310116688.html?pos=94&kwd=baby shower cap&tags=BB||||8230.883|Price|product|||NA|rsf:gd-|-stype:attr=1|qr_nm:gd|res:RC4|com-cf:nl|ptrs:na|ktp:N0|mc:208875|mtp:S|qry_typ:P|lang:en|wc:3|cs:8895|v=4,V&Buy,https://www.indiamart.com/vbuy/?pos=94&kwd=baby shower cap&tags=BB||||8230.883|Price|product|||NA|rsf:gd-|-stype:attr=1|qr_nm:gd|res:RC4|com-cf:nl|ptrs:na|ktp:N0|mc:208875|mtp:S|qry_typ:P|lang:en|wc:3|cs:8895|v=4,False,,Surat,"155, Laxmikant Ashram Road, Akshardham Soc, Surat - 395004, Dist.Surat, Gujarat",8044014624,
NON Plastic Baby Shower Cap,https://www.indiamart.com/proddetail/baby-shower-cap-23313742462.html?pos=95&kwd=baby shower cap&tags=BA||||8752.144|Price|product|||NA|rsf:gd-|-stype:attr=1|qr_nm:gd|res:RC4|com-cf:nl|ptrs:na|ktp:N0|mc:208875|mtp:S|qry_typ:P|lang:en|wc:3|cs:8895|v=4,Anjani Overseas,https://www.indiamart.com/anjani-overseas/?pos=95&kwd=baby shower cap&tags=BA||||8752.144|Price|product|||NA|rsf:gd-|-stype:attr=1|qr_nm:gd|res:RC4|com-cf:nl|ptrs:na|ktp:N0|mc:208875|mtp:S|qry_typ:P|lang:en|wc:3|cs:8895|v=4,False,,New Delhi,"Second Floor 1/56b Lalita Park Main Road Laxmi Nagar, New Delhi - 110092, Dist.Delhi, Delhi",8048968645,
ketan trendz silicone Baby Shower Cap,https://www.indiamart.com/proddetail/baby-shower-cap-23892682088.html?pos=96&kwd=baby shower cap&tags=BB||||8230.883|Price|product|||NA|rsf:gd-|-stype:attr=1|qr_nm:gd|res:RC4|com-cf:nl|ptrs:na|ktp:N0|mc:208875|mtp:S|qry_typ:P|lang:en|wc:3|cs:8895|v=4,Ketan Trendz,https://www.indiamart.com/ketan-trendz/?pos=96&kwd=baby shower cap&tags=BB||||8230.883|Price|product|||NA|rsf:gd-|-stype:attr=1|qr_nm:gd|res:RC4|com-cf:nl|ptrs:na|ktp:N0|mc:208875|mtp:S|qry_typ:P|lang:en|wc:3|cs:8895|v=4,False,Yoginagar Society,Surat,"195, Thakordwar Society, Near Laxman Nagar, Punagam, Yoginagar Society, Surat - 395010, Dist.Surat, Gujarat",8046040741,
"Baby Shower Cap, 1-2 Years",https://www.indiamart.com/proddetail/baby-shower-cap-2855000768812.html?pos=97&kwd=baby shower cap&tags=BB||||8230.883|Price|product|||NA|rsf:gd-|-stype:attr=1|qr_nm:gd|res:RC4|com-cf:nl|ptrs:na|ktp:N0|mc:208875|mtp:S|qry_typ:P|lang:en|wc:3|cs:8895|v=4,Ucrow Textile,https://www.indiamart.com/ucrow-textile/?pos=97&kwd=baby shower cap&tags=BB||||8230.883|Price|product|||NA|rsf:gd-|-stype:attr=1|qr_nm:gd|res:RC4|com-cf:nl|ptrs:na|ktp:N0|mc:208875|mtp:S|qry_typ:P|lang:en|wc:3|cs:8895|v=4,False,,Surat,"Ground Floor, Plot No.4305/3, 4 No Road, Sachin Gidc, Surat - 394230, Dist.Surat, Gujarat",8048249738,7535
"Baby shower cap, 1-2 Years",https://www.indiamart.com/proddetail/baby-shower-cap-2854998160955.html?pos=98&kwd=baby shower cap&tags=BB||||8230.883|Price|product|||NA|rsf:gd-|-stype:attr=1|qr_nm:gd|res:RC4|com-cf:nl|ptrs:na|ktp:N0|mc:208875|mtp:S|qry_typ:P|lang:en|wc:3|cs:8895|v=4,The Grand Supreme,https://www.indiamart.com/the-grand-supreme/?pos=98&kwd=baby shower cap&tags=BB||||8230.883|Price|product|||NA|rsf:gd-|-stype:attr=1|qr_nm:gd|res:RC4|com-cf:nl|ptrs:na|ktp:N0|mc:208875|mtp:S|qry_typ:P|lang:en|wc:3|cs:8895|v=4,False,,Surat,"Third Floor,C-5,308,Gadhpur Township,Kathodara Road,Surat,Surat, Surat - 394326, Dist.Surat, Gujarat",8048247087,3720
Rubber 0-15 Baby Bath Cap Shower Cap,https://www.indiamart.com/proddetail/baby-bath-cap-shower-cap-26894734348.html?pos=99&kwd=baby shower cap&tags=BB||||8230.883|Price|product|||NA|rsf:gd-|-stype:attr=1|qr_nm:gd|res:RC4|com-cf:nl|ptrs:na|ktp:N0|mc:208875|mtp:S|qry_typ:P|lang:en|wc:3|cs:8895|v=4,Rozkey Enterprise,https://www.indiamart.com/rozkey-enterprise/?pos=99&kwd=baby shower cap&tags=BB||||8230.883|Price|product|||NA|rsf:gd-|-stype:attr=1|qr_nm:gd|res:RC4|com-cf:nl|ptrs:na|ktp:N0|mc:208875|mtp:S|qry_typ:P|lang:en|wc:3|cs:8895|v=4,False,Yoginagar Society,Surat,"124,Silver point,near jivan jyot circle, B/h Devi darshan soc,yogi chowk, Yoginagar Society, Surat - 395010, Dist.Surat, Gujarat",8047657300,
Swadakitch Plastic Baby Bath Shower Cap,https://www.indiamart.com/proddetail/baby-bath-shower-cap-22982199062.html?pos=100&kwd=baby shower cap&tags=BB||||8230.883|Price|product|||NA|rsf:gd-|-stype:attr=1|qr_nm:gd|res:RC4|com-cf:nl|ptrs:na|ktp:N0|mc:208875|mtp:S|qry_typ:P|lang:en|wc:3|cs:8895|v=4,Swadakitch,https://www.indiamart.com/swadakitch/?pos=100&kwd=baby shower cap&tags=BB||||8230.883|Price|product|||NA|rsf:gd-|-stype:attr=1|qr_nm:gd|res:RC4|com-cf:nl|ptrs:na|ktp:N0|mc:208875|mtp:S|qry_typ:P|lang:en|wc:3|cs:8895|v=4,False,DABHOLI CHAR RASTA,Surat,"""Blck - D, 2nd Floor, Avadh Park Soc"" Opp. Shantivan Soc. Surat,, DABHOLI CHAR RASTA, Surat - 395004, Dist.Surat, Gujarat",8048610858,
Deluxe Eva Foam Baby Bath Shower Cap,https://www.indiamart.com/proddetail/baby-bath-shower-cap-26948468088.html?pos=101&kwd=baby shower cap&tags=BB||||8230.883|Price|product|||NA|rsf:gd-|-stype:attr=1|qr_nm:gd|res:RC4|com-cf:nl|ptrs:na|ktp:N0|mc:208875|mtp:S|qry_typ:P|lang:en|wc:3|cs:8895|v=4,Aarav International,https://www.indiamart.com/aaravinternational-surat/?pos=101&kwd=baby shower cap&tags=BB||||8230.883|Price|product|||NA|rsf:gd-|-stype:attr=1|qr_nm:gd|res:RC4|com-cf:nl|ptrs:na|ktp:N0|mc:208875|mtp:S|qry_typ:P|lang:en|wc:3|cs:8895|v=4,False,,Surat,"93, 3rd Floor, Nirman Industires, Opp. Samsan Bhumi, Fulpada Road, Surat - 395004, Dist.Surat, Gujarat",8048213902,
Rubber 1-5 Year Yellow Baby Shower Cap,https://www.indiamart.com/proddetail/yellow-baby-shower-cap-26456132373.html?pos=102&kwd=baby shower cap&tags=BB||||8915.672||product|||NA|rsf:gd-|-stype:attr=1|qr_nm:gd|res:RC4|com-cf:nl|ptrs:na|ktp:N0|mc:208875|mtp:S|qry_typ:P|lang:en|wc:3|cs:8895|v=4,The Little Lookers,https://www.indiamart.com/thelittlelookers-moradabad/?pos=102&kwd=baby shower cap&tags=BB||||8915.672||product|||NA|rsf:gd-|-stype:attr=1|qr_nm:gd|res:RC4|com-cf:nl|ptrs:na|ktp:N0|mc:208875|mtp:S|qry_typ:P|lang:en|wc:3|cs:8895|v=4,False,,Moradabad,"4-B-145, Buddhi Vihar Yozna Mbd, Moradabad - 244001, Dist.Moradabad, Uttar Pradesh",8047655658,
Eva 0-3 Year Baby Bath Shower Cap,https://www.indiamart.com/proddetail/baby-bath-shower-cap-2850481080212.html?pos=103&kwd=baby shower cap&tags=BA||||8230.883|Price|product|||NA|rsf:gd-|-stype:attr=1|qr_nm:gd|res:RC4|com-cf:nl|ptrs:na|ktp:N0|mc:208875|mtp:S|qry_typ:P|lang:en|wc:3|cs:8895|v=4,Patel Enterprise,https://www.indiamart.com/patel-enterprise-surat-gujarat/?pos=103&kwd=baby shower cap&tags=BA||||8230.883|Price|product|||NA|rsf:gd-|-stype:attr=1|qr_nm:gd|res:RC4|com-cf:nl|ptrs:na|ktp:N0|mc:208875|mtp:S|qry_typ:P|lang:en|wc:3|cs:8895|v=4,False,,Surat,"323, Shivalik Opp Heny Arcade Dabholi Gam, Katargam Surat Housing Society, Surat - 395004, Dist.Surat, Gujarat",7942821007,
Rubber 6 Month Baby Shampoo Shower Cap,https://www.indiamart.com/proddetail/baby-shampoo-shower-cap-2852450250762.html?pos=104&kwd=baby shower cap&tags=BA||||9848.189||product|||NA|rsf:gd-|-stype:attr=1|qr_nm:gd|res:RC4|com-cf:nl|ptrs:na|ktp:N0|mc:208875|mtp:S|qry_typ:P|lang:en|wc:3|cs:8895|v=4,R S Venture,https://www.indiamart.com/rsventure/?pos=104&kwd=baby shower cap&tags=BA||||9848.189||product|||NA|rsf:gd-|-stype:attr=1|qr_nm:gd|res:RC4|com-cf:nl|ptrs:na|ktp:N0|mc:208875|mtp:S|qry_typ:P|lang:en|wc:3|cs:8895|v=4,False,Mahananda Para,Siliguri,"Basement, Holding No.153/9/197/1/N, Golden Plaza, Burdwan Road, Indusind Bank, Mahananda Para Ward 4 Darjeeling, Mahananda Para, Siliguri - 734001, Dist.Darjiling, West Bengal",8048206752,
Newly Born Yellow Plastic Baby Shower Cap,https://www.indiamart.com/proddetail/plastic-baby-shower-cap-2850162842262.html?pos=105&kwd=baby shower cap&tags=BB||||8331.224|Price|product|||NA|rsf:gd-|-stype:attr=1|qr_nm:gd|res:RC4|com-cf:nl|ptrs:na|ktp:N0|mc:208875|mtp:S|qry_typ:P|lang:en|wc:3|cs:8895|v=4,Minakshi Garments,https://www.indiamart.com/minakshi-garments-kolhapur/?pos=105&kwd=baby shower cap&tags=BB||||8331.224|Price|product|||NA|rsf:gd-|-stype:attr=1|qr_nm:gd|res:RC4|com-cf:nl|ptrs:na|ktp:N0|mc:208875|mtp:S|qry_typ:P|lang:en|wc:3|cs:8895|v=4,False,Tarabai Park,Kolhapur,"Gala No 14 B Parvati Plaza, Main Market Road Swastik Market, Gandhinagar, Tarabai Park, Kolhapur - 416119, Dist.Kolhapur, Maharashtra",7942670858,
Baby Shower Cap Blue Color New Born Baby Shower Cap Bathing,https://www.indiamart.com/proddetail/baby-shower-cap-blue-color-new-born-baby-shower-cap-bathing-2852557310397.html?pos=106&kwd=baby shower cap&tags=BB||||8752.144|Price|product|||NA|rsf:gd-|-stype:attr=1|qr_nm:gd|res:RC4|com-cf:nl|ptrs:na|ktp:N0|mc:208875|mtp:S|qry_typ:P|lang:en|wc:3|cs:8895|v=4,Gutargoo,https://www.indiamart.com/asenterprisdelhi/?pos=106&kwd=baby shower cap&tags=BB||||8752.144|Price|product|||NA|rsf:gd-|-stype:attr=1|qr_nm:gd|res:RC4|com-cf:nl|ptrs:na|ktp:N0|mc:208875|mtp:S|qry_typ:P|lang:en|wc:3|cs:8895|v=4,False,,New Delhi,"Shalimar Bagh, New Delhi - 110088, Dist.Delhi, Delhi",8048361359,344
Plastic Upto 5 Years Baby Bathing Shower Cap NG ZONE,https://www.indiamart.com/proddetail/baby-bathing-shower-cap-ng-zone-23873937773.html?pos=107&kwd=baby shower cap&tags=BB||||8230.883||product|||NA|rsf:gd-|-stype:attr=1|qr_nm:gd|res:RC4|com-cf:nl|ptrs:na|ktp:N0|mc:208875|mtp:S|qry_typ:P|lang:en|wc:3|cs:8895|v=4,N G Zone,https://www.indiamart.com/ng-zone/?pos=107&kwd=baby shower cap&tags=BB||||8230.883||product|||NA|rsf:gd-|-stype:attr=1|qr_nm:gd|res:RC4|com-cf:nl|ptrs:na|ktp:N0|mc:208875|mtp:S|qry_typ:P|lang:en|wc:3|cs:8895|v=4,False,,Surat,"343, Atlanta Shopping Mall, Beside, Abhishek-3 Near Sudama Chowk Mota Varachha, Surat - 394107, Dist.Surat, Gujarat",8046071041,
"Adjustable Safe Soft Bathing Baby Shower Hair Wash Cap For Children, Baby Bath Cap Shower Protection For Eyes And Ear,",https://www.indiamart.com/proddetail/adjustable-safe-soft-bathing-baby-shower-hair-wash-cap-for-children-baby-bath-cap-shower-protection-for-eyes-and-ear-2854453443191.html?pos=108&kwd=baby shower cap&tags=BA||||8786.56|Price|product|||FCPE|rsf:gd-|-stype:attr=1|qr_nm:gd|res:RC4|com-cf:nl|ptrs:na|ktp:N0|mc:208875|mtp:S|qry_typ:P|lang:en|wc:3|cs:8895|v=4,Jaatara,https://www.indiamart.com/company/225931792/?pos=108&kwd=baby shower cap&tags=BA||||8786.56|Price|product|||FCPE|rsf:gd-|-stype:attr=1|qr_nm:gd|res:RC4|com-cf:nl|ptrs:na|ktp:N0|mc:208875|mtp:S|qry_typ:P|lang:en|wc:3|cs:8895|v=4,False,,Cyberabad,"8-4-376/22, New Shastri Nagar Erragadda, Hyderabad - 500018 Telangana, Cyberabad - 500018, Dist.Hyderabad, Andhra Pradesh",,
Cotton Casual Wear Baby Cap,https://www.indiamart.com/proddetail/baby-cap-21149810888.html?pos=109&kwd=baby shower cap&tags=BB||||8211.142|Price|product|||NA|rsf:gd-|-stype:attr=1|qr_nm:gd|res:RC4|com-cf:nl|ptrs:na|ktp:N0|mc:208875|mtp:S|qry_typ:P|lang:en|wc:3|cs:8895|v=4,Little Hub,https://www.indiamart.com/littlehub/?pos=109&kwd=baby shower cap&tags=BB||||8211.142|Price|product|||NA|rsf:gd-|-stype:attr=1|qr_nm:gd|res:RC4|com-cf:nl|ptrs:na|ktp:N0|mc:208875|mtp:S|qry_typ:P|lang:en|wc:3|cs:8895|v=4,False,,Mumbai,"Shop No. 5, Atlantic Plaza, Ground Floor, Garage Gally, Near Tilak Bhavan, Dadar West, Mumbai - 400028, Dist.Mumbai, Maharashtra",8047678643,
Baby Shampoo Shower Bathing Protection Bath Soft Cap,https://www.indiamart.com/proddetail/baby-shampoo-shower-bathing-protection-bath-soft-cap-2853912728262.html?pos=110&kwd=baby shower cap&tags=BA||||8785.791|Price|product|||NA|rsf:gd-|-stype:attr=1|qr_nm:gd|res:RC4|com-cf:nl|ptrs:na|ktp:N0|mc:208875|mtp:S|qry_typ:P|lang:en|wc:3|cs:8895|v=4,Million Minds Traders,https://www.indiamart.com/million-minds-traders/?pos=110&kwd=baby shower cap&tags=BA||||8785.791|Price|product|||NA|rsf:gd-|-stype:attr=1|qr_nm:gd|res:RC4|com-cf:nl|ptrs:na|ktp:N0|mc:208875|mtp:S|qry_typ:P|lang:en|wc:3|cs:8895|v=4,False,Indirapuram,Ghaziabad,"Basement, Khasra No-1042/2A, Indirapuram, Indirapuram, Ghaziabad - 201014, Dist.Ghaziabad, Uttar Pradesh",8044563092,
PURCHASE ZONE Rubber Baby Bath Cap,https://www.indiamart.com/proddetail/baby-bath-cap-27429409391.html?pos=111&kwd=baby shower cap&tags=BA||||8230.883|Price|product|||NA|rsf:gd-|-stype:attr=1|qr_nm:gd|res:RC4|com-cf:nl|ptrs:na|ktp:N0|mc:208875|mtp:S|qry_typ:P|lang:en|wc:3|cs:8895|v=4,Purchase Zone,https://www.indiamart.com/purchase-zone/?pos=111&kwd=baby shower cap&tags=BA||||8230.883|Price|product|||NA|rsf:gd-|-stype:attr=1|qr_nm:gd|res:RC4|com-cf:nl|ptrs:na|ktp:N0|mc:208875|mtp:S|qry_typ:P|lang:en|wc:3|cs:8895|v=4,False,,Surat,"B4-B, ATLANTA MALL, MOTA VARACHHA, SURAT,, Surat - 395010, Dist.Surat, Gujarat",7949312319,
Plastic (PVC) 0 To 2 Year Baby Shower/ Shampoo Cap Hat,https://www.indiamart.com/proddetail/baby-shower-shampoo-cap-hat-2852171074655.html?pos=112&kwd=baby shower cap&tags=BA||||8954.051|Price|product|||NA|rsf:gd-|-stype:attr=1|qr_nm:gd|res:RC4|com-cf:nl|ptrs:na|ktp:N0|mc:208875|mtp:S|qry_typ:P|lang:en|wc:3|cs:8895|v=4,Radhe Kids Mart,https://www.indiamart.com/radhekidsmartchennai/?pos=112&kwd=baby shower cap&tags=BA||||8954.051|Price|product|||NA|rsf:gd-|-stype:attr=1|qr_nm:gd|res:RC4|com-cf:nl|ptrs:na|ktp:N0|mc:208875|mtp:S|qry_typ:P|lang:en|wc:3|cs:8895|v=4,False,Purasawalkam,Chennai,"Door No 51 B Saravana Perumal Street Purasawalkam, Purasawalkam, Chennai - 600084, Dist.Chennai, Tamil Nadu",7942656302,
Girls KIDS Caps,https://www.indiamart.com/proddetail/kids-caps-20751710791.html?pos=113&kwd=baby shower cap&tags=BB||||8926.468|Price|product|||NA|rsf:gd-|-stype:attr=1|qr_nm:gd|res:RC4|com-cf:nl|ptrs:na|ktp:N0|mc:208875|mtp:S|qry_typ:P|lang:en|wc:3|cs:8895|v=4,M R Garments,https://www.indiamart.com/mrgarments-chennai/?pos=113&kwd=baby shower cap&tags=BB||||8926.468|Price|product|||NA|rsf:gd-|-stype:attr=1|qr_nm:gd|res:RC4|com-cf:nl|ptrs:na|ktp:N0|mc:208875|mtp:S|qry_typ:P|lang:en|wc:3|cs:8895|v=4,False,,Tiruvallur,"Plot No. 9, 1st Main Street, Srinath Nagar, Nemilichery, Tiruvallur - 602024, Dist.Tiruvallur, Tamil Nadu",8048372552,937
Baby cap china,,Omkar Hosiry,https://www.indiamart.com/omkar-hosiry/?pos=119&kwd=baby shower cap&tags=BA||||8661.854|Price|product|||NA|rsf:gd-|-stype:attr=1|qr_nm:gd|res:RC4|com-cf:nl|ptrs:na|ktp:N0|mc:208875|mtp:S|qry_typ:P|lang:en|wc:3|cs:8895|v=4,False,New Gagandeep Colony,Ludhiana,"House No 2803, St No 6, Kailash Nagar, New Shimla Colony Walmki ghati chonk shop no 14, New Gagandeep Colony, Ludhiana - 141007, Dist.Ludhiana, Punjab",8047820039,
Baby Shower Cap,,The Giant Mart,https://www.indiamart.com/the-giant-mart/?pos=115&kwd=baby shower cap&tags=BA||||8752.144||product|||NA|rsf:gd-|-stype:attr=1|qr_nm:gd|res:RC4|com-cf:nl|ptrs:na|ktp:N0|mc:208875|mtp:S|qry_typ:P|lang:en|wc:3|cs:8895|v=4,False,,New Delhi,"C-26A Sundarshan Park Sundarshan Park West Delhi, New Delhi - 110015, Dist.Delhi, Delhi",7942656391,
Baby Cap,,VVM kids clothing- ebuys,https://www.indiamart.com/vvm-paper-solutions/?pos=116&kwd=baby shower cap&tags=BA||||8954.051|Price|product|||NA|rsf:gd-|-stype:attr=1|qr_nm:gd|res:RC4|com-cf:nl|ptrs:na|ktp:N0|mc:208875|mtp:S|qry_typ:P|lang:en|wc:3|cs:8895|v=4,False,,Chennai,"599a, ashtalakshmi nagar, 24 th Street alapakkam, Chennai - 600116, Dist.Chennai, Tamil Nadu",8048265365,511
Baby Cap,,Moms' Nest,https://www.indiamart.com/moms-nest/?pos=117&kwd=baby shower cap&tags=BA||||8211.142|Price|product|||NA|rsf:gd-|-stype:attr=1|qr_nm:gd|res:RC4|com-cf:nl|ptrs:na|ktp:N0|mc:208875|mtp:S|qry_typ:P|lang:en|wc:3|cs:8895|v=4,False,Saki Naka,Mumbai,"2nd Floor, 202, Vaz Villa, I C Colony, Borivali West, Mumbai Suburban, Saki Naka, Mumbai - 400103, Dist.Mumbai, Maharashtra",7942960731,
Baby Cap Set,,S R D Traders,https://www.indiamart.com/ms-s-r-d-traders/?pos=118&kwd=baby shower cap&tags=BB||||8624.416|Price|product|||NA|rsf:gd-|-stype:attr=1|qr_nm:gd|res:RC4|com-cf:nl|ptrs:na|ktp:N0|mc:208875|mtp:S|qry_typ:P|lang:en|wc:3|cs:8895|v=4,False,,Hisar,"H No 71 Near Jagriti High School Om Enclave, Hisar - 125001, Dist.Hisar, Haryana",8069857331,250
Baby cap china,,Omkar Hosiry,https://www.indiamart.com/omkar-hosiry/?pos=119&kwd=baby shower cap&tags=BA||||8661.854|Price|product|||NA|rsf:gd-|-stype:attr=1|qr_nm:gd|res:RC4|com-cf:nl|ptrs:na|ktp:N0|mc:208875|mtp:S|qry_typ:P|lang:en|wc:3|cs:8895|v=4,False,New Gagandeep Colony,Ludhiana,"House No 2803, St No 6, Kailash Nagar, New Shimla Colony Walmki ghati chonk shop no 14, New Gagandeep Colony, Ludhiana - 141007, Dist.Ludhiana, Punjab",8047820039,
Baby Cap Set,,Kids Care,https://www.indiamart.com/kidscare-94743488/?pos=120&kwd=baby shower cap&tags=BB||||8211.142||product|||NA|rsf:gd-|-stype:attr=1|qr_nm:gd|res:RC4|com-cf:nl|ptrs:na|ktp:N0|mc:208875|mtp:S|qry_typ:P|lang:en|wc:3|cs:8895|v=4,False,kherwadi,Mumbai,"Ground Floor 2/4 Amrut Nagar, kherwadi, Mumbai - 400051, Dist.Mumbai, Maharashtra",8048372714,239
Silicone Baby Bath Cap,,V S Enterprises,https://www.indiamart.com/vsenterprises-231756327/?pos=121&kwd=baby shower cap&tags=BB||||8785.791|Price|product|||NA|rsf:gd-|-stype:attr=1|qr_nm:gd|res:RC4|com-cf:nl|ptrs:na|ktp:N0|mc:208875|mtp:S|qry_typ:P|lang:en|wc:3|cs:8895|v=4,False,,Ghaziabad,"Uttranchal Colony, Loni, Loni Dehat, Loni, House No 8/942, Street No. 8, Banthla, Ghaziabad - 201102, Dist.Ghaziabad, Uttar Pradesh",8048247091,5002
0378B Adjustable Safe Soft Bathing,,Shoporus Global Private Limited,https://www.indiamart.com/shoporus-global-private-limited/?pos=122&kwd=baby shower cap&tags=B||||8752.144||product|||NA|rsf:gd-|-stype:attr=1|qr_nm:gd|res:RC4|com-cf:nl|ptrs:na|ktp:N0|mc:208875|mtp:S|qry_typ:P|lang:en|wc:3|cs:8895|v=4,False,,New Delhi,"F-52-D,4th Floor,Guru Teg Bahadur Appt Tilak Nagar,West, New Delhi - 110018, Dist.Delhi, Delhi",8048370726,3349
"mix colour Cotton Baby Cap ., Free",https://www.indiamart.com/proddetail/baby-cap-2851130323388.html?pos=123&kwd=baby shower cap&tags=CC||||8752.144|Price|product|||TS|rsf:gd-|-stype:attr=1|qr_nm:gd|res:RC4|com-cf:nl|ptrs:na|ktp:N0|mc:208875|mtp:S|qry_typ:P|lang:en|wc:3|cs:8895|v=4,R S Belt Collection,https://www.indiamart.com/rsbeltcollection/?pos=123&kwd=baby shower cap&tags=CC||||8752.144|Price|product|||TS|rsf:gd-|-stype:attr=1|qr_nm:gd|res:RC4|com-cf:nl|ptrs:na|ktp:N0|mc:208875|mtp:S|qry_typ:P|lang:en|wc:3|cs:8895|v=4,False,Teliwara,New Delhi,"Shop No.8,sf, 2294-2299, 2316-2321, R.s.belt Collection, Punjab Chatta Rui Mandi Sadar Bazar, Teliwara, New Delhi - 110006, Dist.Delhi, Delhi",7942561746,
White Plastic Hotel Shower Cap,https://www.indiamart.com/proddetail/hotel-shower-cap-26207867648.html?pos=124&kwd=baby shower cap&tags=CC||||8228.275|Price|product|||TS|rsf:gd-|-stype:attr=1|qr_nm:gd|res:RC4|com-cf:nl|ptrs:na|ktp:N0|mc:208875|mtp:S|qry_typ:P|lang:en|wc:3|cs:8895|v=4,Access Marketing Pvt.Ltd,https://www.hotelmart.co.in/?pos=124&kwd=baby shower cap&tags=CC||||8228.275|Price|product|||TS|rsf:gd-|-stype:attr=1|qr_nm:gd|res:RC4|com-cf:nl|ptrs:na|ktp:N0|mc:208875|mtp:S|qry_typ:P|lang:en|wc:3|cs:8895|v=4,False,Jodhpur Village,Ahmedabad,"302, Third Floor, Shilp Arcade, Opp Ratnamani Tower, Jodhpur Cross Road, Satellite,, Jodhpur Village, Ahmedabad - 380015, Dist.Ahmedabad, Gujarat",8043855041,
"CROWN BABY SHOWER CAP, More than 12 months",https://www.indiamart.com/proddetail/crown-baby-shower-cap-2854575130048.html?pos=125&kwd=baby shower cap&tags=CC||||8230.883|Price|product|||MDC|rsf:gd-|-stype:attr=1|qr_nm:gd|res:RC4|com-cf:nl|ptrs:na|ktp:N0|mc:208875|mtp:S|qry_typ:P|lang:en|wc:3|cs:8895|v=4,Hallmark Impex,https://www.indiamart.com/hallmark-impex-surat/?pos=125&kwd=baby shower cap&tags=CC||||8230.883|Price|product|||MDC|rsf:gd-|-stype:attr=1|qr_nm:gd|res:RC4|com-cf:nl|ptrs:na|ktp:N0|mc:208875|mtp:S|qry_typ:P|lang:en|wc:3|cs:8895|v=4,False,Patel Nagar,Surat,"1ST Floor, Office NO.110, Mahek Icon, Sumal Dairy Road, NR. Shanti Niketan Society, Katargam, Patel Nagar, Surat - 395003, Dist.Surat, Gujarat",7948547238,
"Pink Baby Shower Cap, Packaging Type: Bottle, Newly Born",https://www.indiamart.com/proddetail/baby-shower-cap-2854028353155.html?pos=126&kwd=baby shower cap&tags=CC||||8230.883|Price|product|||TS|rsf:gd-|-stype:attr=1|qr_nm:gd|res:RC4|com-cf:nl|ptrs:na|ktp:N0|mc:208875|mtp:S|qry_typ:P|lang:en|wc:3|cs:8895|v=4,Shree Lalankrupa Enterprise,https://www.indiamart.com/shree-lalankrupa-enterprise/?pos=126&kwd=baby shower cap&tags=CC||||8230.883|Price|product|||TS|rsf:gd-|-stype:attr=1|qr_nm:gd|res:RC4|com-cf:nl|ptrs:na|ktp:N0|mc:208875|mtp:S|qry_typ:P|lang:en|wc:3|cs:8895|v=4,False,Punagam,Surat,"132 Punagam Gautam Park Soc Chorasi Surat, Punagam, Surat - 395010, Dist.Surat, Gujarat",8044562706,
Resin Baby Shower Cap,https://www.indiamart.com/proddetail/baby-shower-cap-2852425988548.html?pos=127&kwd=baby shower cap&tags=CC||||8230.883|Price|product|||TS|rsf:gd-|-stype:attr=1|qr_nm:gd|res:RC4|com-cf:nl|ptrs:na|ktp:N0|mc:208875|mtp:S|qry_typ:P|lang:en|wc:3|cs:8895|v=4,Vraj Enterprises,https://www.devkikart.com/?pos=127&kwd=baby shower cap&tags=CC||||8230.883|Price|product|||TS|rsf:gd-|-stype:attr=1|qr_nm:gd|res:RC4|com-cf:nl|ptrs:na|ktp:N0|mc:208875|mtp:S|qry_typ:P|lang:en|wc:3|cs:8895|v=4,False,Nana Varachha,Surat,"PLOT No. 35,SARDAR NAGAR - 1,PUNA KUMBHARIYA ROAD,Surat, Nana Varachha, Surat - 395010, Dist.Surat, Gujarat",7942865292,
Shower Cap For Kids,https://www.indiamart.com/proddetail/shower-cap-for-kids-19424234888.html?pos=128&kwd=baby shower cap&tags=CC||||8226.563|Price|product|||TS|rsf:gd-|-stype:attr=1|qr_nm:gd|res:RC4|com-cf:nl|ptrs:na|ktp:N0|mc:208875|mtp:S|qry_typ:P|lang:en|wc:3|cs:8895|v=4,Kreative Kitchen,https://www.kreativekitchen.co.in/?pos=128&kwd=baby shower cap&tags=CC||||8226.563|Price|product|||TS|rsf:gd-|-stype:attr=1|qr_nm:gd|res:RC4|com-cf:nl|ptrs:na|ktp:N0|mc:208875|mtp:S|qry_typ:P|lang:en|wc:3|cs:8895|v=4,False,Vashi,Navi Mumbai,"Plot No. 29/30, 502, Ornate Apartment Sector 28, Vashi, Navi Mumbai - 400703, Dist.Thane, Maharashtra",8048954656,
Ethylene Vinyl Acetate (EVA) 1-5 Years Baby bath Cap,https://www.indiamart.com/proddetail/baby-bath-cap-2852086539930.html?pos=129&kwd=baby shower cap&tags=CC||||8230.883|Price|product|||TS|rsf:gd-|-stype:attr=1|qr_nm:gd|res:RC4|com-cf:nl|ptrs:na|ktp:N0|mc:208875|mtp:S|qry_typ:P|lang:en|wc:3|cs:8895|v=4,Indiab2btrade,https://www.indiab2btrade.com/?pos=129&kwd=baby shower cap&tags=CC||||8230.883|Price|product|||TS|rsf:gd-|-stype:attr=1|qr_nm:gd|res:RC4|com-cf:nl|ptrs:na|ktp:N0|mc:208875|mtp:S|qry_typ:P|lang:en|wc:3|cs:8895|v=4,False,Mota Varachha,Surat,"Ground Floor, Shop No. F/22, Shivdhara Complex, L.P Savani School,Near To Maharaja Farm,, Mota Varachha, Surat - 394105, Dist.Surat, Gujarat",8043816125,
Rubber 1 To 5 Years Baby Bath Cap,https://www.indiamart.com/proddetail/baby-bath-cap-24056341573.html?pos=130&kwd=baby shower cap&tags=CC||||8230.883|Price|product|||TS|rsf:gd-|-stype:attr=1|qr_nm:gd|res:RC4|com-cf:nl|ptrs:na|ktp:N0|mc:208875|mtp:S|qry_typ:P|lang:en|wc:3|cs:8895|v=4,Sarvam Cart,https://www.sarvamcart.net/?pos=130&kwd=baby shower cap&tags=CC||||8230.883|Price|product|||TS|rsf:gd-|-stype:attr=1|qr_nm:gd|res:RC4|com-cf:nl|ptrs:na|ktp:N0|mc:208875|mtp:S|qry_typ:P|lang:en|wc:3|cs:8895|v=4,False,Nana Varachha,Surat,"Shop No. 28 Puna Simada Road Anupam The Business Hub Yogi Chowk, Nana Varachha, Surat - 394211, Dist.Surat, Gujarat",8047634175,
Multicolor Unisex NEW BORN BABY RIB CAP,https://www.indiamart.com/proddetail/new-born-baby-rib-cap-2854593000473.html?pos=131&kwd=baby shower cap&tags=CC||||8228.275|Price|product|||TS|rsf:gd-|-stype:attr=1|qr_nm:gd|res:RC4|com-cf:nl|ptrs:na|ktp:N0|mc:208875|mtp:S|qry_typ:P|lang:en|wc:3|cs:8895|v=4,Tulsi Jiyana,https://www.indiamart.com/tulsijiyana/?pos=131&kwd=baby shower cap&tags=CC||||8228.275|Price|product|||TS|rsf:gd-|-stype:attr=1|qr_nm:gd|res:RC4|com-cf:nl|ptrs:na|ktp:N0|mc:208875|mtp:S|qry_typ:P|lang:en|wc:3|cs:8895|v=4,False,Nikol,Ahmedabad,"C/14, Parishram Park Society Opposite Sun City, Nikol, Ahmedabad - 380001, Dist.Ahmedabad, Gujarat",8046078640,
varni sales foam Rubber Kids Adjustable Shower Cap For Wash Hair,https://www.indiamart.com/proddetail/rubber-kids-adjustable-shower-cap-for-wash-hair-2849620640412.html?pos=132&kwd=baby shower cap&tags=CC||||8230.883|Price|product|||TS|rsf:gd-|-stype:attr=1|qr_nm:gd|res:RC4|com-cf:nl|ptrs:na|ktp:N0|mc:208875|mtp:S|qry_typ:P|lang:en|wc:3|cs:8895|v=4,Varni Sales,https://www.indiamart.com/varnisales/?pos=132&kwd=baby shower cap&tags=CC||||8230.883|Price|product|||TS|rsf:gd-|-stype:attr=1|qr_nm:gd|res:RC4|com-cf:nl|ptrs:na|ktp:N0|mc:208875|mtp:S|qry_typ:P|lang:en|wc:3|cs:8895|v=4,False,Punagam,Surat,"117, Chamunda Nagar Society, Bombay Market, Punagam, Punagam, Surat - 395010, Dist.Surat, Gujarat",7942788932,
Plain Dark Pink Baby Women Cap,https://www.indiamart.com/proddetail/plain-dark-pink-baby-women-cap-26285256333.html?pos=133&kwd=baby shower cap&tags=CC||||8752.144|Price|product|||TS|rsf:gd-|-stype:attr=1|qr_nm:gd|res:RC4|com-cf:nl|ptrs:na|ktp:N0|mc:208875|mtp:S|qry_typ:P|lang:en|wc:3|cs:8895|v=4,Aaa Hosiery,https://www.indiamart.com/aaa-hosiery/?pos=133&kwd=baby shower cap&tags=CC||||8752.144|Price|product|||TS|rsf:gd-|-stype:attr=1|qr_nm:gd|res:RC4|com-cf:nl|ptrs:na|ktp:N0|mc:208875|mtp:S|qry_typ:P|lang:en|wc:3|cs:8895|v=4,False,Shastri Nagar,New Delhi,"House No 12, 2nd Block C-2 PH 2, Front Floor Ashok Vihar, Shastri Nagar, New Delhi - 110052, Dist.Delhi, Delhi",8048269095,
"Baby Shower Cap, 3-12 Months",https://www.indiamart.com/proddetail/baby-shower-cap-2854545864933.html?pos=134&kwd=baby shower cap&tags=CC||||8752.144|Price|product|||MDC|rsf:gd-|-stype:attr=1|qr_nm:gd|res:RC4|com-cf:nl|ptrs:na|ktp:N0|mc:208875|mtp:S|qry_typ:P|lang:en|wc:3|cs:8895|v=4,Satpal & Sons,https://www.indiamart.com/satpal-sonsnewdelhi/?pos=134&kwd=baby shower cap&tags=CC||||8752.144|Price|product|||MDC|rsf:gd-|-stype:attr=1|qr_nm:gd|res:RC4|com-cf:nl|ptrs:na|ktp:N0|mc:208875|mtp:S|qry_typ:P|lang:en|wc:3|cs:8895|v=4,False,,New Delhi,"Stall No 33, Karol Bagh Gaffar Market, New Delhi - 110005, Dist.Delhi, Delhi",7949330453,
"Multicolor Baby Shower Cap, Packaging Type: Box",https://www.indiamart.com/proddetail/baby-shower-cap-2853983185962.html?pos=135&kwd=baby shower cap&tags=CC||||8230.883|Price|product|||MDC|rsf:gd-|-stype:attr=1|qr_nm:gd|res:RC4|com-cf:nl|ptrs:na|ktp:N0|mc:208875|mtp:S|qry_typ:P|lang:en|wc:3|cs:8895|v=4,Mahant Enterprise,https://www.indiamart.com/mahantenterprisegujarat/?pos=135&kwd=baby shower cap&tags=CC||||8230.883|Price|product|||MDC|rsf:gd-|-stype:attr=1|qr_nm:gd|res:RC4|com-cf:nl|ptrs:na|ktp:N0|mc:208875|mtp:S|qry_typ:P|lang:en|wc:3|cs:8895|v=4,False,Dabholi Village,Surat,"12, Ground Floor, Ankita Park Society, Unnamed Road, Ved Road, Dabholi Village, Surat - 395004, Dist.Surat, Gujarat",7942828700,
"Adjustable Safe Soft Bathing Baby Shower Hair Wash Cap For Children, Baby Bath Cap Shower Protection For Eyes And Ear,",https://www.indiamart.com/proddetail/adjustable-safe-soft-bathing-baby-shower-hair-wash-cap-for-children-baby-bath-cap-shower-protection-for-eyes-and-ear-2854779954797.html?pos=136&kwd=baby shower cap&tags=CC||||8692.544|Price|product|||MDC|rsf:gd-|-stype:attr=1|qr_nm:gd|res:RC4|com-cf:nl|ptrs:na|ktp:N0|mc:208875|mtp:S|qry_typ:P|lang:en|wc:3|cs:8895|v=4,Demrot Bangles And Manufacture,https://www.indiamart.com/demrotbanglesmanufacture/?pos=136&kwd=baby shower cap&tags=CC||||8692.544|Price|product|||MDC|rsf:gd-|-stype:attr=1|qr_nm:gd|res:RC4|com-cf:nl|ptrs:na|ktp:N0|mc:208875|mtp:S|qry_typ:P|lang:en|wc:3|cs:8895|v=4,False,Kishangarh Bas,Alwar,"Vashishtha Market, Kishangarh Bass, Kishangarh Bas, Alwar - 301405, Dist.Alwar, Rajasthan",,
Cotton Baby Frill Cap,https://www.indiamart.com/proddetail/baby-frill-cap-2854287335691.html?pos=137&kwd=baby shower cap&tags=CC||||8223.226||product|||MDC|rsf:gd-|-stype:attr=1|qr_nm:gd|res:RC4|com-cf:nl|ptrs:na|ktp:N0|mc:208875|mtp:S|qry_typ:P|lang:en|wc:3|cs:8895|v=4,Royal Baby,https://www.indiamart.com/royal-baby-thane/?pos=137&kwd=baby shower cap&tags=CC||||8223.226||product|||MDC|rsf:gd-|-stype:attr=1|qr_nm:gd|res:RC4|com-cf:nl|ptrs:na|ktp:N0|mc:208875|mtp:S|qry_typ:P|lang:en|wc:3|cs:8895|v=4,False,,Thane,"Ground Floor, Shop No. 03, Savitri Niwas Mumbai Pune Road, Amrutnagar, Sub Post Office, Mumbra, Thane - 400612, Dist.Thane, Maharashtra",8045734604,
Adjustable Baby Shower Cap New Soft Bathing Baby Wash Hair Eye Ear Protector Hat-baby bath cap,https://www.indiamart.com/proddetail/adjustable-baby-shower-cap-new-soft-bathing-baby-wash-hair-eye-ear-protector-hat-baby-bath-cap-21638976833.html?pos=138&kwd=baby shower cap&tags=CC||||8230.883|Price|product|||MDC|rsf:gd-|-stype:attr=1|qr_nm:gd|res:RC4|com-cf:nl|ptrs:na|ktp:N0|mc:208875|mtp:S|qry_typ:P|lang:en|wc:3|cs:8895|v=4,Unique Buyer,https://www.indiamart.com/unique-buyer/?pos=138&kwd=baby shower cap&tags=CC||||8230.883|Price|product|||MDC|rsf:gd-|-stype:attr=1|qr_nm:gd|res:RC4|com-cf:nl|ptrs:na|ktp:N0|mc:208875|mtp:S|qry_typ:P|lang:en|wc:3|cs:8895|v=4,False,Katargam,Surat,"C 25 shaymdham soc, opp archana soc,near vijayraj circal, Singanpore,, Katargam, Surat - 395004, Dist.Surat, Gujarat",7942544685,
"Baby shower capSoft Baby Shower Cap, Baby Bath Cap For Kids And Children Protection Of Hair & Ears",https://www.indiamart.com/proddetail/baby-shower-capsoft-baby-shower-cap-baby-bath-cap-for-kids-and-children-protection-of-hair-ears-2854140260630.html?pos=139&kwd=baby shower cap&tags=CC||||8954.051|Price|product|||MDC|rsf:gd-|-stype:attr=1|qr_nm:gd|res:RC4|com-cf:nl|ptrs:na|ktp:N0|mc:208875|mtp:S|qry_typ:P|lang:en|wc:3|cs:8895|v=4,Munmur E Ventures,https://www.indiamart.com/munmur-e-ventureschennai/?pos=139&kwd=baby shower cap&tags=CC||||8954.051|Price|product|||MDC|rsf:gd-|-stype:attr=1|qr_nm:gd|res:RC4|com-cf:nl|ptrs:na|ktp:N0|mc:208875|mtp:S|qry_typ:P|lang:en|wc:3|cs:8895|v=4,False,Ponniammanmedu,Chennai,"No.97, Poongavanam Thootam, Periya Salai, Ponniammanmedu, Ponniammanmedu, Chennai - 600110, Dist.Chennai, Tamil Nadu",8044564242,
MM Toys Multicolor Shower and Hair Wash Cap | Adjustable Size | Ideal for Infants & Toddlers from 3 Months to 3 Years,https://www.indiamart.com/proddetail/mm-toys-multicolor-shower-and-hair-wash-cap-adjustable-size-ideal-for-infants-toddlers-from-3-months-to-3-years-2851534740412.html?pos=140&kwd=baby shower cap&tags=CC||||8614.241|Price|product|||MDC|rsf:gd-|-stype:attr=1|qr_nm:gd|res:RC4|com-cf:nl|ptrs:na|ktp:N0|mc:208875|mtp:S|qry_typ:P|lang:en|wc:3|cs:8895|v=4,M.M. Toy World,https://www.indiamart.com/mmtoyworld/?pos=140&kwd=baby shower cap&tags=CC||||8614.241|Price|product|||MDC|rsf:gd-|-stype:attr=1|qr_nm:gd|res:RC4|com-cf:nl|ptrs:na|ktp:N0|mc:208875|mtp:S|qry_typ:P|lang:en|wc:3|cs:8895|v=4,False,Achli Gate,Batala,"M.M. Toys World, Bedian Gali, Khujari Gate, Gurdaspur, Achli Gate, Batala - 143505, Dist.Gurdaspur, Punjab",,
Infant Baby Caps,https://www.indiamart.com/proddetail/infant-baby-caps-2852665031255.html?pos=141&kwd=baby shower cap&tags=CC||||8626.744||product|||TS|rsf:gd-|-stype:attr=1|qr_nm:gd|res:RC4|com-cf:nl|ptrs:na|ktp:N0|mc:208875|mtp:S|qry_typ:P|lang:en|wc:3|cs:8895|v=4,Srie K.S.K. Tex,https://www.indiamart.com/srieksktex-tiruppur/?pos=141&kwd=baby shower cap&tags=CC||||8626.744||product|||TS|rsf:gd-|-stype:attr=1|qr_nm:gd|res:RC4|com-cf:nl|ptrs:na|ktp:N0|mc:208875|mtp:S|qry_typ:P|lang:en|wc:3|cs:8895|v=4,False,Radha Nagar,Tiruppur,"28A, NA, Sv Colony, 6th Street, PN Road,Coimbatore, Radha Nagar, Tiruppur - 641602, Dist.Coimbatore, Tamil Nadu",8047850887,
Transparent LDPE/Pe Baby Shower Cap,https://www.indiamart.com/proddetail/baby-shower-cap-22912411355.html?pos=142&kwd=baby shower cap&tags=CC||||9110.092|Price|product|||TS|rsf:gd-|-stype:attr=1|qr_nm:gd|res:RC4|com-cf:nl|ptrs:na|ktp:N0|mc:208875|mtp:S|qry_typ:P|lang:en|wc:3|cs:8895|v=4,Anuradha Enterprises,https://www.indiamart.com/anuradha-enterprises-lucknow/?pos=142&kwd=baby shower cap&tags=CC||||9110.092|Price|product|||TS|rsf:gd-|-stype:attr=1|qr_nm:gd|res:RC4|com-cf:nl|ptrs:na|ktp:N0|mc:208875|mtp:S|qry_typ:P|lang:en|wc:3|cs:8895|v=4,False,Daliganj,Lucknow,"01, Goel Rice Mill Opp Daliganj Railway, Sitapur Road, Daliganj, Lucknow - 226021, Dist.Lucknow, Uttar Pradesh",8046059993,
"Multicolor plastic Bathing Shower Cap, Medium",https://www.indiamart.com/proddetail/bathing-shower-cap-2853924238333.html?pos=143&kwd=baby shower cap&tags=CC||||8741.812|Price|product|||TS|rsf:gd-|-stype:attr=1|qr_nm:gd|res:RC4|com-cf:nl|ptrs:na|ktp:N0|mc:208875|mtp:S|qry_typ:P|lang:en|wc:3|cs:8895|v=4,Vardaan International,https://www.indiamart.com/vardaan-international/?pos=143&kwd=baby shower cap&tags=CC||||8741.812|Price|product|||TS|rsf:gd-|-stype:attr=1|qr_nm:gd|res:RC4|com-cf:nl|ptrs:na|ktp:N0|mc:208875|mtp:S|qry_typ:P|lang:en|wc:3|cs:8895|v=4,False,Sector 52,Gurgaon,"Shop no 7 , Khasra No. 514 & 516 , Wazirabad , Sector 52 , Inside Ardee City Gate No 2 ,, Sector 52, Gurgaon - 122003, Dist.Gurgaon, Haryana",8048615385,
Disposable Shower Cap,,Siddhi Industries,https://www.indiamart.com/siddhiindustries-newdelhi/?pos=144&kwd=baby shower cap&tags=||||8752.144|Price|product|||TS|rsf:gd-|-stype:attr=1|qr_nm:gd|res:RC4|com-cf:nl|ptrs:na|ktp:N0|mc:208875|mtp:S|qry_typ:P|lang:en|wc:3|cs:8895|v=4,False,Vishwas Nagar,New Delhi,"Ground Floor 1/11, Gali No 5, Vishwas Nagar Shahdara, Vishwas Nagar, New Delhi - 110032, Dist.Delhi, Delhi",7942816853,
"White Plain Plastic Shower Cap, For Hotel",https://www.indiamart.com/proddetail/plastic-shower-cap-2853230007048.html?pos=145&kwd=baby shower cap&tags=||||8752.144|Price|product|||TS|rsf:gd-|-stype:attr=1|qr_nm:gd|res:RC4|com-cf:nl|ptrs:na|ktp:N0|mc:208875|mtp:S|qry_typ:P|lang:en|wc:3|cs:8895|v=4,Travissh International Private Limited,https://www.travissh.co.in/?pos=145&kwd=baby shower cap&tags=||||8752.144|Price|product|||TS|rsf:gd-|-stype:attr=1|qr_nm:gd|res:RC4|com-cf:nl|ptrs:na|ktp:N0|mc:208875|mtp:S|qry_typ:P|lang:en|wc:3|cs:8895|v=4,False,,New Delhi,"B-8/310, GD ITL Tower, Netaji Subhash Place, Pitampura, North West Delhi,, New Delhi - 110034, Dist.Delhi, Delhi",7942716259,
"C Cure Natural,Transparent Plastic Disposable Shower Cap",https://www.indiamart.com/proddetail/plastic-disposable-shower-cap-13941740155.html?pos=146&kwd=baby shower cap&tags=||||8228.275|Price|product|||TS|rsf:gd-|-stype:attr=1|qr_nm:gd|res:RC4|com-cf:nl|ptrs:na|ktp:N0|mc:208875|mtp:S|qry_typ:P|lang:en|wc:3|cs:8895|v=4,Z Plus Disposable Private Limited,https://www.zplusdisposable.co.in/?pos=146&kwd=baby shower cap&tags=||||8228.275|Price|product|||TS|rsf:gd-|-stype:attr=1|qr_nm:gd|res:RC4|com-cf:nl|ptrs:na|ktp:N0|mc:208875|mtp:S|qry_typ:P|lang:en|wc:3|cs:8895|v=4,True,Kathwada,Ahmedabad,"Plot No,145,Road No.5 Kathwada GIDC,Kathwada, Kathwada, Ahmedabad - 382430, Dist.Ahmedabad, Gujarat",8046059900,
LDPE Plastic Shower Cap,https://www.indiamart.com/proddetail/ldpe-plastic-shower-cap-24016111591.html?pos=147&kwd=baby shower cap&tags=||||8230.331|Price|product|||TS|rsf:gd-|-stype:attr=1|qr_nm:gd|res:RC4|com-cf:nl|ptrs:na|ktp:N0|mc:208875|mtp:S|qry_typ:P|lang:en|wc:3|cs:8895|v=4,IYA International,https://www.indiamart.com/iyainternational/?pos=147&kwd=baby shower cap&tags=||||8230.331|Price|product|||TS|rsf:gd-|-stype:attr=1|qr_nm:gd|res:RC4|com-cf:nl|ptrs:na|ktp:N0|mc:208875|mtp:S|qry_typ:P|lang:en|wc:3|cs:8895|v=4,False,Laxmipura,Palanpur,"S 38, Gateway , Ahmedabad Highway, Laxmipura, Palanpur - 385001, Dist.Banaskantha, Gujarat",8048611346,
"Milky White Biodegradable Shower Cap, Size: 18 Inch",https://www.indiamart.com/proddetail/biodegradable-shower-cap-2853509055073.html?pos=148&kwd=baby shower cap&tags=||||8228.275|Price|product|||TS|rsf:gd-|-stype:attr=1|qr_nm:gd|res:RC4|com-cf:nl|ptrs:na|ktp:N0|mc:208875|mtp:S|qry_typ:P|lang:en|wc:3|cs:8895|v=4,Carepro Disposable Solutions Private Limited,https://www.careprodisposable.in/?pos=148&kwd=baby shower cap&tags=||||8228.275|Price|product|||TS|rsf:gd-|-stype:attr=1|qr_nm:gd|res:RC4|com-cf:nl|ptrs:na|ktp:N0|mc:208875|mtp:S|qry_typ:P|lang:en|wc:3|cs:8895|v=4,False,Saijpur Bogha,Ahmedabad,"8710/7 Naroda Road Opp Excise Police Chowky, Saijpur Bogha, Ahmedabad - 382345, Dist.Ahmedabad, Gujarat",8045732427,
"White Natural,Blue & Pink Polypropylene PLASTIC DISPOSABLE SHOWER CAP, Size: 18""",https://www.indiamart.com/proddetail/plastic-disposable-shower-cap-26112389655.html?pos=149&kwd=baby shower cap&tags=||||8228.275|Price|product|||TS|rsf:gd-|-stype:attr=1|qr_nm:gd|res:RC4|com-cf:nl|ptrs:na|ktp:N0|mc:208875|mtp:S|qry_typ:P|lang:en|wc:3|cs:8895|v=4,H N Enterprise,https://www.indiamart.com/h-n-enterprise/?pos=149&kwd=baby shower cap&tags=||||8228.275|Price|product|||TS|rsf:gd-|-stype:attr=1|qr_nm:gd|res:RC4|com-cf:nl|ptrs:na|ktp:N0|mc:208875|mtp:S|qry_typ:P|lang:en|wc:3|cs:8895|v=4,False,D Colony,Ahmedabad,"Plot No/2.72, Swaminarayan Ni Chali, Opp.Forge And Blower, Naroda Road, D Colony, Ahmedabad - 380025, Dist.Ahmedabad, Gujarat",8048962678,
"White LDPE Plastic Shower Caps ., Medium",https://www.indiamart.com/proddetail/shower-caps-2850789388973.html?pos=150&kwd=baby shower cap&tags=||||8228.275|Price|product|||TS|rsf:gd-|-stype:attr=1|qr_nm:gd|res:RC4|com-cf:nl|ptrs:na|ktp:N0|mc:208875|mtp:S|qry_typ:P|lang:en|wc:3|cs:8895|v=4,Airvent Human Solution,https://www.indiamart.com/airvent-human-solution/?pos=150&kwd=baby shower cap&tags=||||8228.275|Price|product|||TS|rsf:gd-|-stype:attr=1|qr_nm:gd|res:RC4|com-cf:nl|ptrs:na|ktp:N0|mc:208875|mtp:S|qry_typ:P|lang:en|wc:3|cs:8895|v=4,False,Odhav,Ahmedabad,"F/194, Vishala Industrial Estate East Near SP Ring Road, Behind Sahajanand Business Park, Odhav, Ahmedabad - 382415, Dist.Ahmedabad, Gujarat",8046036068,
"White Hdpe/LDPE Disposable Shower Cap, Size: Free Size",https://www.indiamart.com/proddetail/disposable-shower-cap-4424300155.html?pos=151&kwd=baby shower cap&tags=||||8223.226|Price|product|||TS|rsf:gd-|-stype:attr=1|qr_nm:gd|res:RC4|com-cf:nl|ptrs:na|ktp:N0|mc:208875|mtp:S|qry_typ:P|lang:en|wc:3|cs:8895|v=4,Kwalitex Healthcare Private Limited,https://www.kwalityhealthcare.co.in/?pos=151&kwd=baby shower cap&tags=||||8223.226|Price|product|||TS|rsf:gd-|-stype:attr=1|qr_nm:gd|res:RC4|com-cf:nl|ptrs:na|ktp:N0|mc:208875|mtp:S|qry_typ:P|lang:en|wc:3|cs:8895|v=4,False,Wagle Industrial Area,Thane,"Plot no. 306, Wagle Industrial Area, MIDC, Wagle Industrial Area, Thane - 400604, Dist.Thane, Maharashtra",8048982164,
"White Plastic Disposable Shower Cap, Size: 16 Inch",https://www.indiamart.com/proddetail/disposable-shower-cap-2854703960591.html?pos=152&kwd=baby shower cap&tags=||||8228.275|Price|product|||TS|rsf:gd-|-stype:attr=1|qr_nm:gd|res:RC4|com-cf:nl|ptrs:na|ktp:N0|mc:208875|mtp:S|qry_typ:P|lang:en|wc:3|cs:8895|v=4,Shivaang Multiproducts India Private Limited,https://www.indiamart.com/shivaangmultiproducts-india-pvt-ltd/?pos=152&kwd=baby shower cap&tags=||||8228.275|Price|product|||TS|rsf:gd-|-stype:attr=1|qr_nm:gd|res:RC4|com-cf:nl|ptrs:na|ktp:N0|mc:208875|mtp:S|qry_typ:P|lang:en|wc:3|cs:8895|v=4,False,,Ahmedabad,"Plot No 40, Pushkar Industrial Hub, Vatva Industrial Estate, Vatva, Ahmedabad - 382445, Dist.Ahmedabad, Gujarat",7949322233,
"Transparent Plastic Bathing Shower Cap, For Medical And Hotel Usage",https://www.indiamart.com/proddetail/bathing-shower-cap-25597310848.html?pos=153&kwd=baby shower cap&tags=||||8228.275|Price|product|||TS|rsf:gd-|-stype:attr=1|qr_nm:gd|res:RC4|com-cf:nl|ptrs:na|ktp:N0|mc:208875|mtp:S|qry_typ:P|lang:en|wc:3|cs:8895|v=4,Shree Siddhivinayak Technoplast,https://www.indiamart.com/shreesiddhivinayaktechnoplast/?pos=153&kwd=baby shower cap&tags=||||8228.275|Price|product|||TS|rsf:gd-|-stype:attr=1|qr_nm:gd|res:RC4|com-cf:nl|ptrs:na|ktp:N0|mc:208875|mtp:S|qry_typ:P|lang:en|wc:3|cs:8895|v=4,False,Amdupura,Ahmedabad,"42, Amarnath Estate, Naroda Road, Memco, Amdupura, Ahmedabad - 380025, Dist.Ahmedabad, Gujarat",8048961778,
"Transparent White Plastic Shower Cap, For Hotels,Hospitals",https://www.indiamart.com/proddetail/white-plastic-shower-cap-23787807848.html?pos=154&kwd=baby shower cap&tags=||||8228.275|Price|product|||TS|rsf:gd-|-stype:attr=1|qr_nm:gd|res:RC4|com-cf:nl|ptrs:na|ktp:N0|mc:208875|mtp:S|qry_typ:P|lang:en|wc:3|cs:8895|v=4,Alamban International,https://www.indiamart.com/alambaninternational/?pos=154&kwd=baby shower cap&tags=||||8228.275|Price|product|||TS|rsf:gd-|-stype:attr=1|qr_nm:gd|res:RC4|com-cf:nl|ptrs:na|ktp:N0|mc:208875|mtp:S|qry_typ:P|lang:en|wc:3|cs:8895|v=4,False,Kathwada,Ahmedabad,"First Floor, Plot No. 298, Kathvada Gidc, Road No-4, S.P Ring Road, Kathwada, Ahmedabad - 382430, Dist.Ahmedabad, Gujarat",8046036736,
Transparent Pe Disposable Shower Cap,https://www.indiamart.com/proddetail/disposable-shower-cap-2849295347862.html?pos=155&kwd=baby shower cap&tags=||||8752.144|Price|product|||TS|rsf:gd-|-stype:attr=1|qr_nm:gd|res:RC4|com-cf:nl|ptrs:na|ktp:N0|mc:208875|mtp:S|qry_typ:P|lang:en|wc:3|cs:8895|v=4,Dispowear Sterite Company,https://www.dispowear.co.in/?pos=155&kwd=baby shower cap&tags=||||8752.144|Price|product|||TS|rsf:gd-|-stype:attr=1|qr_nm:gd|res:RC4|com-cf:nl|ptrs:na|ktp:N0|mc:208875|mtp:S|qry_typ:P|lang:en|wc:3|cs:8895|v=4,False,Janakpuri,New Delhi,"Pocket D-2 A, Flat No. 51 C, Janakpuri, Janakpuri, New Delhi - 110058, Dist.Delhi, Delhi",8048970362,
"Multicolor Plastic Hotel Disposable Shower Cap, Size: 18""",https://www.indiamart.com/proddetail/hotel-disposable-shower-cap-19983661955.html?pos=156&kwd=baby shower cap&tags=||||8228.275|Price|product|||TS|rsf:gd-|-stype:attr=1|qr_nm:gd|res:RC4|com-cf:nl|ptrs:na|ktp:N0|mc:208875|mtp:S|qry_typ:P|lang:en|wc:3|cs:8895|v=4,Snehmeet Enterprise,https://www.indiamart.com/snehmeet-enterprise/?pos=156&kwd=baby shower cap&tags=||||8228.275|Price|product|||TS|rsf:gd-|-stype:attr=1|qr_nm:gd|res:RC4|com-cf:nl|ptrs:na|ktp:N0|mc:208875|mtp:S|qry_typ:P|lang:en|wc:3|cs:8895|v=4,False,Naranpura,Ahmedabad,"J-11 Kalptaru apartment, Part - II, Mirambica School Road, Naranpura, Ahmedabad - 380013, Dist.Ahmedabad, Gujarat",8046038441,
"White Standard Biodegradable Shower Cap, For Hotel",https://www.indiamart.com/proddetail/biodegradable-shower-cap-26230387762.html?pos=157&kwd=baby shower cap&tags=||||8601.347|Price|product|||TS|rsf:gd-|-stype:attr=1|qr_nm:gd|res:RC4|com-cf:nl|ptrs:na|ktp:N0|mc:208875|mtp:S|qry_typ:P|lang:en|wc:3|cs:8895|v=4,Aroma Amenities,https://www.aromaamenities.in/?pos=157&kwd=baby shower cap&tags=||||8601.347|Price|product|||TS|rsf:gd-|-stype:attr=1|qr_nm:gd|res:RC4|com-cf:nl|ptrs:na|ktp:N0|mc:208875|mtp:S|qry_typ:P|lang:en|wc:3|cs:8895|v=4,False,Agrasen Nagar,Jaipur,"80, Gopal Nagar-A Agrasen Nagar, Agrasen Nagar, Jaipur - 302019, Dist.Jaipur, Rajasthan",8048617190,
"Printed Cotton Shower Caps Set, 18 inches (Dia)",https://www.indiamart.com/proddetail/cotton-shower-caps-set-2851914011488.html?pos=158&kwd=baby shower cap&tags=||||8666.857|Price|product|||TS|rsf:gd-|-stype:attr=1|qr_nm:gd|res:RC4|com-cf:nl|ptrs:na|ktp:N0|mc:208875|mtp:S|qry_typ:P|lang:en|wc:3|cs:8895|v=4,Kadhirraj Export,https://www.indiamart.com/kadhirraj-export/?pos=158&kwd=baby shower cap&tags=||||8666.857|Price|product|||TS|rsf:gd-|-stype:attr=1|qr_nm:gd|res:RC4|com-cf:nl|ptrs:na|ktp:N0|mc:208875|mtp:S|qry_typ:P|lang:en|wc:3|cs:8895|v=4,False,Kallankattuvalasu,Komarapalayam,"1/120-1,Easwar Nagar Kottaimedu, Sankari Taluk,, Kallankattuvalasu, Komarapalayam - 638183, Dist.Namakkal, Tamil Nadu",7942875093,
"Blue Polypropylene Safeshield Disposable Shower Cap, Size: 18inch",https://www.indiamart.com/proddetail/safeshield-disposable-shower-cap-22990502655.html?pos=159&kwd=baby shower cap&tags=||||8751.045|Price|product|||TS|rsf:gd-|-stype:attr=1|qr_nm:gd|res:RC4|com-cf:nl|ptrs:na|ktp:N0|mc:208875|mtp:S|qry_typ:P|lang:en|wc:3|cs:8895|v=4,Pioneer Impex,https://www.indiamart.com/pioneerimpex/?pos=159&kwd=baby shower cap&tags=||||8751.045|Price|product|||TS|rsf:gd-|-stype:attr=1|qr_nm:gd|res:RC4|com-cf:nl|ptrs:na|ktp:N0|mc:208875|mtp:S|qry_typ:P|lang:en|wc:3|cs:8895|v=4,False,Himuda Phase,Baddi,"1st Floor, District Solan, Himuda Phase, Baddi - 173205, Dist.Solan, Himachal Pradesh",8048959552,
Micro Fiber Plain Shower Cap For Hotel,https://www.indiamart.com/proddetail/shower-cap-for-hotel-22087605773.html?pos=160&kwd=baby shower cap&tags=||||8706.263|Price|product|||MDC|rsf:gd-|-stype:attr=1|qr_nm:gd|res:RC4|com-cf:nl|ptrs:na|ktp:N0|mc:208875|mtp:S|qry_typ:P|lang:en|wc:3|cs:8895|v=4,Harshazhi Enterprises,https://www.indiamart.com/harshazhienterprises/?pos=160&kwd=baby shower cap&tags=||||8706.263|Price|product|||MDC|rsf:gd-|-stype:attr=1|qr_nm:gd|res:RC4|com-cf:nl|ptrs:na|ktp:N0|mc:208875|mtp:S|qry_typ:P|lang:en|wc:3|cs:8895|v=4,False,Ramanuja Nagar,Karur,"9, West Nanjaya Street, Ramanuja Nagar, Karur - 639001, Dist.Karur, Tamil Nadu",7942562377,
Blue Bouffant Cap,https://www.indiamart.com/proddetail/disposable-bouffant-cap-14861772930.html?pos=161&kwd=baby shower cap&tags=||||8918.457|Price|product|||TS|rsf:gd-|-stype:attr=1|qr_nm:gd|res:RC4|com-cf:nl|ptrs:na|ktp:N0|mc:208875|mtp:S|qry_typ:P|lang:en|wc:3|cs:8895|v=4,Sri Vishnu Disposables Private Limited,https://www.srivishnudisposables.com/?pos=161&kwd=baby shower cap&tags=||||8918.457|Price|product|||TS|rsf:gd-|-stype:attr=1|qr_nm:gd|res:RC4|com-cf:nl|ptrs:na|ktp:N0|mc:208875|mtp:S|qry_typ:P|lang:en|wc:3|cs:8895|v=4,True,Nenmeli,Sriperumbudur,"No. 213/7, Gandhi Road Extension, D. K. Naidu Nagar, Nenmeli, Sriperumbudur - 602105, Dist.Kanchipuram, Tamil Nadu",8046074781,
"Transparent Plastic Shower Cap Strip, Free Size",https://www.indiamart.com/proddetail/shower-cap-strip-2853959467933.html?pos=162&kwd=baby shower cap&tags=||||8752.144|Price|product|||TS|rsf:gd-|-stype:attr=1|qr_nm:gd|res:RC4|com-cf:nl|ptrs:na|ktp:N0|mc:208875|mtp:S|qry_typ:P|lang:en|wc:3|cs:8895|v=4,Sunshine Cosmetics,https://www.indiamart.com/sunshine-cosmetics/?pos=162&kwd=baby shower cap&tags=||||8752.144|Price|product|||TS|rsf:gd-|-stype:attr=1|qr_nm:gd|res:RC4|com-cf:nl|ptrs:na|ktp:N0|mc:208875|mtp:S|qry_typ:P|lang:en|wc:3|cs:8895|v=4,False,Chandni Chowk,New Delhi,"817, Katra Neel,, Chandni Chowk, Chandni Chowk, New Delhi - 110006, Dist.Delhi, Delhi",8047783281,
Rahul healthcare LDPE Disposable Shower Cap,https://www.indiamart.com/proddetail/ldpe-disposable-shower-cap-18466604073.html?pos=163&kwd=baby shower cap&tags=||||8228.275|Price|product|||MDC|rsf:gd-|-stype:attr=1|qr_nm:gd|res:RC4|com-cf:nl|ptrs:na|ktp:N0|mc:208875|mtp:S|qry_typ:P|lang:en|wc:3|cs:8895|v=4,Rahul Healthcare,https://www.indiamart.com/rahul-healthcare/?pos=163&kwd=baby shower cap&tags=||||8228.275|Price|product|||MDC|rsf:gd-|-stype:attr=1|qr_nm:gd|res:RC4|com-cf:nl|ptrs:na|ktp:N0|mc:208875|mtp:S|qry_typ:P|lang:en|wc:3|cs:8895|v=4,False,Saijpur Bogha,Ahmedabad,"Survey No. 8710/7, Opposite Excise Police Chowky, Saijpur Bogha, Naroda Road, Saijpur Bogha, Ahmedabad - 382345, Dist.Ahmedabad, Gujarat",8048963267,
"Shower Cap Set Of 6 For Women, Reusable Waterproof Elastic Eva Free-size Bathroom Shower Caps",https://www.indiamart.com/proddetail/shower-cap-set-of-6-for-women-reusable-waterproof-elastic-eva-free-size-bathroom-shower-caps-24297578588.html?pos=164&kwd=baby shower cap&tags=||||8230.883|Price|product|||TS|rsf:gd-|-stype:attr=1|qr_nm:gd|res:RC4|com-cf:nl|ptrs:na|ktp:N0|mc:208875|mtp:S|qry_typ:P|lang:en|wc:3|cs:8895|v=4,NDM Exim,https://www.ndmexim.com/?pos=164&kwd=baby shower cap&tags=||||8230.883|Price|product|||TS|rsf:gd-|-stype:attr=1|qr_nm:gd|res:RC4|com-cf:nl|ptrs:na|ktp:N0|mc:208875|mtp:S|qry_typ:P|lang:en|wc:3|cs:8895|v=4,False,,Surat,"2nd Floor, Plot -146, Akshrdham Society, Lakshmikant Ashram Road, Katargam, Surat - 395004, Dist.Surat, Gujarat",8048971458,
"Silver Plastic Shower Cap, Medium",https://www.indiamart.com/proddetail/shower-cap-2850053405712.html?pos=165&kwd=baby shower cap&tags=||||8841.674|Price|product|||TS|rsf:gd-|-stype:attr=1|qr_nm:gd|res:RC4|com-cf:nl|ptrs:na|ktp:N0|mc:208875|mtp:S|qry_typ:P|lang:en|wc:3|cs:8895|v=4,Pokar Marketing Associate,https://www.indiamart.com/pokar-marketing-associate/?pos=165&kwd=baby shower cap&tags=||||8841.674|Price|product|||TS|rsf:gd-|-stype:attr=1|qr_nm:gd|res:RC4|com-cf:nl|ptrs:na|ktp:N0|mc:208875|mtp:S|qry_typ:P|lang:en|wc:3|cs:8895|v=4,False,Defence Colony,Roorkee,"Phase B, Mandakini Colony, Defence Colony, Roorkee - 247666, Dist.Haridwar, Uttarakhand",7942818267,
"White PP Shower Cap, For Hotel",https://www.indiamart.com/proddetail/shower-cap-26206511062.html?pos=166&kwd=baby shower cap&tags=||||8254.437|Price|product|||TS|rsf:gd-|-stype:attr=1|qr_nm:gd|res:RC4|com-cf:nl|ptrs:na|ktp:N0|mc:208875|mtp:S|qry_typ:P|lang:en|wc:3|cs:8895|v=4,Safety Sansar Industries,https://www.safety-sansar.com/?pos=166&kwd=baby shower cap&tags=||||8254.437|Price|product|||TS|rsf:gd-|-stype:attr=1|qr_nm:gd|res:RC4|com-cf:nl|ptrs:na|ktp:N0|mc:208875|mtp:S|qry_typ:P|lang:en|wc:3|cs:8895|v=4,False,Zak,Dehgam,"Survey No 185 Plot No 3, Vadvala Industireal Estate, Zak, Zak Dehgam,, Zak, Dehgam - 382305, Dist.Gandhi Nagar, Gujarat",8047634609,
"Transparent Disposable Shower Cap, Size: Free Size",https://www.indiamart.com/proddetail/disposable-shower-cap-26025713830.html?pos=167&kwd=baby shower cap&tags=||||8752.144|Price|product|||TS|rsf:gd-|-stype:attr=1|qr_nm:gd|res:RC4|com-cf:nl|ptrs:na|ktp:N0|mc:208875|mtp:S|qry_typ:P|lang:en|wc:3|cs:8895|v=4,Om Sai Enterprises,https://www.omsaienterprise.org/?pos=167&kwd=baby shower cap&tags=||||8752.144|Price|product|||TS|rsf:gd-|-stype:attr=1|qr_nm:gd|res:RC4|com-cf:nl|ptrs:na|ktp:N0|mc:208875|mtp:S|qry_typ:P|lang:en|wc:3|cs:8895|v=4,False,Jahangirpuri,New Delhi,"Jahangir Puri Metro Station, First Floor, Plot No 44, G.T.Karnal Road, Rajasthan Udyog Nagar, Jahangirpuri, New Delhi - 110033, Dist.Delhi, Delhi",8048977871,
Loose Disposable Shower Cap,https://www.indiamart.com/proddetail/loose-disposable-shower-cap-8309834397.html?pos=168&kwd=baby shower cap&tags=||||8752.144|Price|product|||TS|rsf:gd-|-stype:attr=1|qr_nm:gd|res:RC4|com-cf:nl|ptrs:na|ktp:N0|mc:208875|mtp:S|qry_typ:P|lang:en|wc:3|cs:8895|v=4,Lenora Disposables,https://www.indiamart.com/lenoradisposables/?pos=168&kwd=baby shower cap&tags=||||8752.144|Price|product|||TS|rsf:gd-|-stype:attr=1|qr_nm:gd|res:RC4|com-cf:nl|ptrs:na|ktp:N0|mc:208875|mtp:S|qry_typ:P|lang:en|wc:3|cs:8895|v=4,False,Janakpuri,New Delhi,"A2/A3,DDA FLATS,JANAKPURI,JANAKPURI, Janakpuri, New Delhi - 110058, Dist.Delhi, Delhi",8048602041,
Transfer Plastic Disposable Shower Cap,https://www.indiamart.com/proddetail/disposable-shower-cap-23015562673.html?pos=169&kwd=baby shower cap&tags=||||8228.275|Price|product|||TS|rsf:gd-|-stype:attr=1|qr_nm:gd|res:RC4|com-cf:nl|ptrs:na|ktp:N0|mc:208875|mtp:S|qry_typ:P|lang:en|wc:3|cs:8895|v=4,Girikandra Sales,https://www.girikandrasales.com/?pos=169&kwd=baby shower cap&tags=||||8228.275|Price|product|||TS|rsf:gd-|-stype:attr=1|qr_nm:gd|res:RC4|com-cf:nl|ptrs:na|ktp:N0|mc:208875|mtp:S|qry_typ:P|lang:en|wc:3|cs:8895|v=4,False,,Ahmedabad,"Fast Flower, F-111, Sumel 7, Soni Ni Chal, Sumel 7, Sumel 7, Ahmedabad - 380023, Dist.Ahmedabad, Gujarat",8048269013,
Polypropylene Disposable Shower Cap,https://www.indiamart.com/proddetail/disposable-shower-cap-2854828075888.html?pos=170&kwd=baby shower cap&tags=||||8785.791|Price|product|||MDC|rsf:gd-|-stype:attr=1|qr_nm:gd|res:RC4|com-cf:nl|ptrs:na|ktp:N0|mc:208875|mtp:S|qry_typ:P|lang:en|wc:3|cs:8895|v=4,Rekha Industries,https://www.indiamart.com/rekha-industries-ghaziabad/?pos=170&kwd=baby shower cap&tags=||||8785.791|Price|product|||MDC|rsf:gd-|-stype:attr=1|qr_nm:gd|res:RC4|com-cf:nl|ptrs:na|ktp:N0|mc:208875|mtp:S|qry_typ:P|lang:en|wc:3|cs:8895|v=4,False,,Ghaziabad,"Shop No -3/703, Sector-3, Ghaziabad - 201012, Dist.Ghaziabad, Uttar Pradesh",8044461005,
Plastic Disposable Shower Cap,https://www.indiamart.com/proddetail/disposable-shower-cap-2854009762897.html?pos=171&kwd=baby shower cap&tags=||||8752.144|Price|product|||TS|rsf:gd-|-stype:attr=1|qr_nm:gd|res:RC4|com-cf:nl|ptrs:na|ktp:N0|mc:208875|mtp:S|qry_typ:P|lang:en|wc:3|cs:8895|v=4,The Creators,https://www.indiamart.com/thecreators-newdelhi/?pos=171&kwd=baby shower cap&tags=||||8752.144|Price|product|||TS|rsf:gd-|-stype:attr=1|qr_nm:gd|res:RC4|com-cf:nl|ptrs:na|ktp:N0|mc:208875|mtp:S|qry_typ:P|lang:en|wc:3|cs:8895|v=4,False,Sultanpuri,New Delhi,"275-76, Block P-3, Sultanpuri North West Delhi, Sultanpuri, New Delhi - 110086, Dist.Delhi, Delhi",8047549858,
Plastic Anina Disposable Shower Cap,https://www.indiamart.com/proddetail/anina-disposable-shower-cap-2854554209297.html?pos=172&kwd=baby shower cap&tags=||||8752.144|Price|product|||MDC|rsf:gd-|-stype:attr=1|qr_nm:gd|res:RC4|com-cf:nl|ptrs:na|ktp:N0|mc:208875|mtp:S|qry_typ:P|lang:en|wc:3|cs:8895|v=4,Khayati Enterprises,https://www.indiamart.com/khayatienterprises/?pos=172&kwd=baby shower cap&tags=||||8752.144|Price|product|||MDC|rsf:gd-|-stype:attr=1|qr_nm:gd|res:RC4|com-cf:nl|ptrs:na|ktp:N0|mc:208875|mtp:S|qry_typ:P|lang:en|wc:3|cs:8895|v=4,False,,New Delhi,"Ground Floor, G22/28, Sector -7, Rohini, North West Delhi, New Delhi - 110085, Dist.Delhi, Delhi",7949322523,
"Matte Kraft Paper Printed Shower Cap Pouch, 6x15inch (WxL)",https://www.indiamart.com/proddetail/kraft-paper-printed-shower-cap-pouch-2850759726948.html?pos=173&kwd=baby shower cap&tags=||||8817.752|Price|product|||MDC|rsf:gd-|-stype:attr=1|qr_nm:gd|res:RC4|com-cf:nl|ptrs:na|ktp:N0|mc:208875|mtp:S|qry_typ:P|lang:en|wc:3|cs:8895|v=4,Unifoil Packaging,https://www.indiamart.com/unifoilpackaging/?pos=173&kwd=baby shower cap&tags=||||8817.752|Price|product|||MDC|rsf:gd-|-stype:attr=1|qr_nm:gd|res:RC4|com-cf:nl|ptrs:na|ktp:N0|mc:208875|mtp:S|qry_typ:P|lang:en|wc:3|cs:8895|v=4,False,Raj Bagh,Hapur,"F-417, M.G.Road, UPSIDC,, Raj Bagh, Hapur - 245101, Dist.Hapur, Uttar Pradesh",7942960135,
Audi Cap Towel,https://www.indiamart.com/proddetail/audi-cap-towel-2854338463397.html?pos=174&kwd=baby shower cap&tags=||||8747.203|Price|product|||MDC|rsf:gd-|-stype:attr=1|qr_nm:gd|res:RC4|com-cf:nl|ptrs:na|ktp:N0|mc:208875|mtp:S|qry_typ:P|lang:en|wc:3|cs:8895|v=4,Sabmix,https://www.indiamart.com/sabmix/?pos=174&kwd=baby shower cap&tags=||||8747.203|Price|product|||MDC|rsf:gd-|-stype:attr=1|qr_nm:gd|res:RC4|com-cf:nl|ptrs:na|ktp:N0|mc:208875|mtp:S|qry_typ:P|lang:en|wc:3|cs:8895|v=4,False,Jattal,Panipat,"Nehar By-Pass Near Jattal Road, Near Deshwal Petrol Pump, Jattal, Panipat - 132103, Dist.Panipat, Haryana",8045165458,
"White,Blue Plastic Shower Cap, For Hote",https://www.indiamart.com/proddetail/shower-cap-2852133758291.html?pos=175&kwd=baby shower cap&tags=||||8210.732|Price|product|||TS|rsf:gd-|-stype:attr=1|qr_nm:gd|res:RC4|com-cf:nl|ptrs:na|ktp:N0|mc:208875|mtp:S|qry_typ:P|lang:en|wc:3|cs:8895|v=4,S.K.ENTERPRISES,https://www.sktoothbrush.com/?pos=175&kwd=baby shower cap&tags=||||8210.732|Price|product|||TS|rsf:gd-|-stype:attr=1|qr_nm:gd|res:RC4|com-cf:nl|ptrs:na|ktp:N0|mc:208875|mtp:S|qry_typ:P|lang:en|wc:3|cs:8895|v=4,False,Valiv,Vasai,"Hanuman Soc Sr.no 54 Satiwali Kuwara Pada Behind Ramesh Banglow Vasai East Palghar Maharashtra 4012, Valiv, Vasai - 401208, Dist.Thane, Maharashtra",8043890485,
Shower cap,,Ortholink Marketing,https://www.indiamart.com/ortholinkmarketing-pune/?pos=176&kwd=baby shower cap&tags=||||8307.81|Price|product|||TS|rsf:gd-|-stype:attr=1|qr_nm:gd|res:RC4|com-cf:nl|ptrs:na|ktp:N0|mc:208875|mtp:S|qry_typ:P|lang:en|wc:3|cs:8895|v=4,False,Shaniwar Peth,Pune,"312/A1, Ground Floor, Siddhant Apartment, B Wing Nxt to Suyog Mangal Karyalay, Shaniwar Peth, Pune - 411030, Dist.Pune, Maharashtra",8046040571,
Plain Polyethylene Shower Cap,https://www.indiamart.com/proddetail/polyethylene-shower-cap-22134927230.html?pos=177&kwd=baby shower cap&tags=||||8741.812|Price|product|||TS|rsf:gd-|-stype:attr=1|qr_nm:gd|res:RC4|com-cf:nl|ptrs:na|ktp:N0|mc:208875|mtp:S|qry_typ:P|lang:en|wc:3|cs:8895|v=4,Classic Enterprises,https://www.classicenterprisesindia.com/?pos=177&kwd=baby shower cap&tags=||||8741.812|Price|product|||TS|rsf:gd-|-stype:attr=1|qr_nm:gd|res:RC4|com-cf:nl|ptrs:na|ktp:N0|mc:208875|mtp:S|qry_typ:P|lang:en|wc:3|cs:8895|v=4,False,Patel Nagar,Gurgaon,"947/5, Street No. 7, Patel Nagar, Gurgaon - 122001, Dist.Gurgaon, Haryana",7942558905,
"Transparent,White PE Shower Cap, For Bathing",https://www.indiamart.com/proddetail/pe-shower-cap-11742814362.html?pos=178&kwd=baby shower cap&tags=||||8954.051|Price|product|||TS|rsf:gd-|-stype:attr=1|qr_nm:gd|res:RC4|com-cf:nl|ptrs:na|ktp:N0|mc:208875|mtp:S|qry_typ:P|lang:en|wc:3|cs:8895|v=4,Sky Ladder Overseas,https://www.skyladderoverseas.com/?pos=178&kwd=baby shower cap&tags=||||8954.051|Price|product|||TS|rsf:gd-|-stype:attr=1|qr_nm:gd|res:RC4|com-cf:nl|ptrs:na|ktp:N0|mc:208875|mtp:S|qry_typ:P|lang:en|wc:3|cs:8895|v=4,True,Old Washermanpet,Chennai,"106/2, E. H. Road, Korrukpet, Velan Nagar Old Washermenpet, Opposite I. O. C. Gate, Old Washermanpet, Chennai - 600021, Dist.Chennai, Tamil Nadu",8048615520,
"LDPE Disposable Shower Cap, For Household",https://www.indiamart.com/proddetail/disposable-shower-cap-23506718348.html?pos=179&kwd=baby shower cap&tags=||||8752.144|Price|product|||TS|rsf:gd-|-stype:attr=1|qr_nm:gd|res:RC4|com-cf:nl|ptrs:na|ktp:N0|mc:208875|mtp:S|qry_typ:P|lang:en|wc:3|cs:8895|v=4,Nar Shardul Engineers LLP,https://www.indiamart.com/narshardulengineers/?pos=179&kwd=baby shower cap&tags=||||8752.144|Price|product|||TS|rsf:gd-|-stype:attr=1|qr_nm:gd|res:RC4|com-cf:nl|ptrs:na|ktp:N0|mc:208875|mtp:S|qry_typ:P|lang:en|wc:3|cs:8895|v=4,False,Punjabi Bagh,New Delhi,"15/60 West Punjabi Bagh, Punjabi Bagh, New Delhi - 110026, Dist.Delhi, Delhi",7942556340,
"Transperent Polypropylene Polyethene Disposable Shower Cap 50's Pack, Size: Free Size",https://www.indiamart.com/proddetail/polyethene-disposable-shower-cap-50-s-pack-26197017848.html?pos=180&kwd=baby shower cap&tags=||||8774.064|Price|product|||TS|rsf:gd-|-stype:attr=1|qr_nm:gd|res:RC4|com-cf:nl|ptrs:na|ktp:N0|mc:208875|mtp:S|qry_typ:P|lang:en|wc:3|cs:8895|v=4,Grata Trading Co,https://www.indiamart.com/gratatradingco/?pos=180&kwd=baby shower cap&tags=||||8774.064|Price|product|||TS|rsf:gd-|-stype:attr=1|qr_nm:gd|res:RC4|com-cf:nl|ptrs:na|ktp:N0|mc:208875|mtp:S|qry_typ:P|lang:en|wc:3|cs:8895|v=4,False,Woraiyur,Tiruchirappalli,"C-171, 1st Floor, 9A Cross, Thillai Nagar, Woraiyur, Tiruchirappalli - 620018, Dist.Tiruchirappalli, Tamil Nadu",8043860638,
"White Plain Disposable Shower Cap, Size: Free",https://www.indiamart.com/proddetail/disposable-shower-cap-15347459391.html?pos=181&kwd=baby shower cap&tags=||||8230.883|Price|product|||TS|rsf:gd-|-stype:attr=1|qr_nm:gd|res:RC4|com-cf:nl|ptrs:na|ktp:N0|mc:208875|mtp:S|qry_typ:P|lang:en|wc:3|cs:8895|v=4,Beauty Zone,https://www.indiamart.com/beautyzonesurat/?pos=181&kwd=baby shower cap&tags=||||8230.883|Price|product|||TS|rsf:gd-|-stype:attr=1|qr_nm:gd|res:RC4|com-cf:nl|ptrs:na|ktp:N0|mc:208875|mtp:S|qry_typ:P|lang:en|wc:3|cs:8895|v=4,False,Limbayat,Surat,"Plot No.H /166,167 Laxmi Narayayan Industrial Estate BRC Compound Udhana, Limbayat, Surat - 394210, Dist.Surat, Gujarat",8047641525,
Ld Material Transparent Disposable Shower Cap,https://www.indiamart.com/proddetail/disposable-shower-cap-14726980562.html?pos=182&kwd=baby shower cap&tags=||||8228.275|Price|product|||TS|rsf:gd-|-stype:attr=1|qr_nm:gd|res:RC4|com-cf:nl|ptrs:na|ktp:N0|mc:208875|mtp:S|qry_typ:P|lang:en|wc:3|cs:8895|v=4,Life Line Surgichem (India) Private Limited,https://www.indiamart.com/lifelinesurgichem/?pos=182&kwd=baby shower cap&tags=||||8228.275|Price|product|||TS|rsf:gd-|-stype:attr=1|qr_nm:gd|res:RC4|com-cf:nl|ptrs:na|ktp:N0|mc:208875|mtp:S|qry_typ:P|lang:en|wc:3|cs:8895|v=4,False,Lambha,Ahmedabad,"137, Devraj Industrial Park, Piplaj- Pirana Road, Piplaj, Lambha, Ahmedabad - 382445, Dist.Ahmedabad, Gujarat",8047631341,
"White Normal Bathing Shower Cap, Medium",https://www.indiamart.com/proddetail/bathing-shower-cap-2853170380288.html?pos=183&kwd=baby shower cap&tags=||||8741.812|Price|product|||TS|rsf:gd-|-stype:attr=1|qr_nm:gd|res:RC4|com-cf:nl|ptrs:na|ktp:N0|mc:208875|mtp:S|qry_typ:P|lang:en|wc:3|cs:8895|v=4,Galaxy Enterprises,https://www.karlacosmetics.in/?pos=183&kwd=baby shower cap&tags=||||8741.812|Price|product|||TS|rsf:gd-|-stype:attr=1|qr_nm:gd|res:RC4|com-cf:nl|ptrs:na|ktp:N0|mc:208875|mtp:S|qry_typ:P|lang:en|wc:3|cs:8895|v=4,False,Sector 9,Gurugram,"636/5 gali no.3 Patel Nagar, Sector 9, Gurugram - 122001, Dist.Gurgaon, Haryana",7942540142,
Plastic Transparent Disposable Shower Cap,https://www.indiamart.com/proddetail/transparent-disposable-shower-cap-2854548975773.html?pos=184&kwd=baby shower cap&tags=||||8228.275|Price|product|||TS|rsf:gd-|-stype:attr=1|qr_nm:gd|res:RC4|com-cf:nl|ptrs:na|ktp:N0|mc:208875|mtp:S|qry_typ:P|lang:en|wc:3|cs:8895|v=4,Bittrif Group Of Company,https://www.hotelamenities.co.in/?pos=184&kwd=baby shower cap&tags=||||8228.275|Price|product|||TS|rsf:gd-|-stype:attr=1|qr_nm:gd|res:RC4|com-cf:nl|ptrs:na|ktp:N0|mc:208875|mtp:S|qry_typ:P|lang:en|wc:3|cs:8895|v=4,False,Navrangpura,Ahmedabad,"Ground Floor G-1 Anison Complex Cg Road, Navrangpura, Ahmedabad - 380009, Dist.Ahmedabad, Gujarat",7949226059,
"Disposable Plastic Shower Cap, Size: Free Size",https://www.indiamart.com/proddetail/disposable-plastic-shower-cap-23210225088.html?pos=185&kwd=baby shower cap&tags=||||8551.2|Price|product|||TS|rsf:gd-|-stype:attr=1|qr_nm:gd|res:RC4|com-cf:nl|ptrs:na|ktp:N0|mc:208875|mtp:S|qry_typ:P|lang:en|wc:3|cs:8895|v=4,Sree Matha Enterprises,https://www.indiamart.com/sreemathaenterprises/?pos=185&kwd=baby shower cap&tags=||||8551.2|Price|product|||TS|rsf:gd-|-stype:attr=1|qr_nm:gd|res:RC4|com-cf:nl|ptrs:na|ktp:N0|mc:208875|mtp:S|qry_typ:P|lang:en|wc:3|cs:8895|v=4,False,Anandapally,Adoor,"Vii/188 Pannivizha, Anandapally, Adoor - 691525, Dist.Pathanamthitta, Kerala",8046062168,
"White /Blue Non Woven Disposable Hair Shower Cap, Size: 18 Inch",https://www.indiamart.com/proddetail/non-woven-disposable-hair-shower-cap-24741008491.html?pos=186&kwd=baby shower cap&tags=||||8038.093|Price|product|||TS|rsf:gd-|-stype:attr=1|qr_nm:gd|res:RC4|com-cf:nl|ptrs:na|ktp:N0|mc:208875|mtp:S|qry_typ:P|lang:en|wc:3|cs:8895|v=4,Safetek Healthcare,https://www.indiamart.com/safetekhealthcare/?pos=186&kwd=baby shower cap&tags=||||8038.093|Price|product|||TS|rsf:gd-|-stype:attr=1|qr_nm:gd|res:RC4|com-cf:nl|ptrs:na|ktp:N0|mc:208875|mtp:S|qry_typ:P|lang:en|wc:3|cs:8895|v=4,False,Veraval (Shapar),Rajkot,"Shed No.12, Plot No.7 And 8, Jay Industrial Estate,NR-Mascot Electro, NR-Shivam Eng, Veraval Sub Dist.Kotda Sangani, Veraval (Shapar), Rajkot - 360024, Dist.Rajkot, Gujarat",8048600790,
Non Woven Disposable Shower Cap,https://www.indiamart.com/proddetail/disposable-shower-cap-23487286173.html?pos=187&kwd=baby shower cap&tags=||||8723.301|Price|product|||MDC|rsf:gd-|-stype:attr=1|qr_nm:gd|res:RC4|com-cf:nl|ptrs:na|ktp:N0|mc:208875|mtp:S|qry_typ:P|lang:en|wc:3|cs:8895|v=4,Mohini Agencies,https://www.indiamart.com/mohiniagenciesbhopal/?pos=187&kwd=baby shower cap&tags=||||8723.301|Price|product|||MDC|rsf:gd-|-stype:attr=1|qr_nm:gd|res:RC4|com-cf:nl|ptrs:na|ktp:N0|mc:208875|mtp:S|qry_typ:P|lang:en|wc:3|cs:8895|v=4,False,,Bhopal,"II Floor, H No 42, Laxmi Parisar, Bawadiya Kala, Near Aura Mall, Bhopal - 462024, Dist.Bhopal, Madhya Pradesh",7949324148,
Plastic Disposable Shower Cap,https://www.indiamart.com/proddetail/disposable-shower-cap-2854854590173.html?pos=188&kwd=baby shower cap&tags=||||8752.144|Price|product|||MDC|rsf:gd-|-stype:attr=1|qr_nm:gd|res:RC4|com-cf:nl|ptrs:na|ktp:N0|mc:208875|mtp:S|qry_typ:P|lang:en|wc:3|cs:8895|v=4,Shri Ram Impex,https://www.indiamart.com/shriramimpex-new-delhi/?pos=188&kwd=baby shower cap&tags=||||8752.144|Price|product|||MDC|rsf:gd-|-stype:attr=1|qr_nm:gd|res:RC4|com-cf:nl|ptrs:na|ktp:N0|mc:208875|mtp:S|qry_typ:P|lang:en|wc:3|cs:8895|v=4,False,,New Delhi,"Ground Floor, Plot No.- A-324, Jain Nagar, Karala, North West Delhi, New Delhi - 110081, Dist.Delhi, Delhi",8044460499,
"Transparent/White LDPE Disposable Shower Cap, For Household, Size: 18""",https://www.indiamart.com/proddetail/disposable-shower-cap-2851117885797.html?pos=189&kwd=baby shower cap&tags=||||8228.275|Price|product|||MDC|rsf:gd-|-stype:attr=1|qr_nm:gd|res:RC4|com-cf:nl|ptrs:na|ktp:N0|mc:208875|mtp:S|qry_typ:P|lang:en|wc:3|cs:8895|v=4,Shailesh Surgical,https://www.indiamart.com/shaileshsurgical/?pos=189&kwd=baby shower cap&tags=||||8228.275|Price|product|||MDC|rsf:gd-|-stype:attr=1|qr_nm:gd|res:RC4|com-cf:nl|ptrs:na|ktp:N0|mc:208875|mtp:S|qry_typ:P|lang:en|wc:3|cs:8895|v=4,True,Ellisbridge,Ahmedabad,"11th Floor, 1106, Capstone Building, Old Sharda Mandir Crossing, Ellisbridge, Ahmedabad - 380006, Dist.Ahmedabad, Gujarat",8046062804,
"Transperant Polypropylene Hotel Disposable Shower Cap, Size: Standard",https://www.indiamart.com/proddetail/hotel-disposable-shower-cap-25969713433.html?pos=190&kwd=baby shower cap&tags=||||8211.142|Price|product|||MDC|rsf:gd-|-stype:attr=1|qr_nm:gd|res:RC4|com-cf:nl|ptrs:na|ktp:N0|mc:208875|mtp:S|qry_typ:P|lang:en|wc:3|cs:8895|v=4,Bhumi Trade Link,https://www.indiamart.com/bhumitradelink/?pos=190&kwd=baby shower cap&tags=||||8211.142|Price|product|||MDC|rsf:gd-|-stype:attr=1|qr_nm:gd|res:RC4|com-cf:nl|ptrs:na|ktp:N0|mc:208875|mtp:S|qry_typ:P|lang:en|wc:3|cs:8895|v=4,False,Rajendra Nagar,Mumbai,"No. 24/171, Kuldeep CHS, C. C. I. Rajendra Nagar, Borivali, Rajendra Nagar, Mumbai - 400066, Dist.Mumbai, Maharashtra",8047681644,
"Shower Cap Set Of 6 For Women, Reusable Waterproof Elastic Eva Free-size Bathroom Shower Caps",https://www.indiamart.com/proddetail/shower-cap-set-of-6-for-women-reusable-waterproof-elastic-eva-free-size-bathroom-shower-caps-24297578588.html?pos=191&kwd=baby shower cap&tags=||||8230.883|Price|product|||TS|rsf:gd-|-stype:attr=1|qr_nm:gd|res:RC4|com-cf:nl|ptrs:na|ktp:N0|mc:208875|mtp:S|qry_typ:P|lang:en|wc:3|cs:8895|v=4,NDM Exim,https://www.ndmexim.com/?pos=191&kwd=baby shower cap&tags=||||8230.883|Price|product|||TS|rsf:gd-|-stype:attr=1|qr_nm:gd|res:RC4|com-cf:nl|ptrs:na|ktp:N0|mc:208875|mtp:S|qry_typ:P|lang:en|wc:3|cs:8895|v=4,False,,Surat,"2nd Floor, Plot -146, Akshrdham Society, Lakshmikant Ashram Road, Katargam, Surat - 395004, Dist.Surat, Gujarat",8048971458,
Cotton Shower Cap,https://www.indiamart.com/proddetail/shower-cap-2849266471748.html?pos=192&kwd=baby shower cap&tags=||||8752.144|Price|product|||TS|rsf:gd-|-stype:attr=1|qr_nm:gd|res:RC4|com-cf:nl|ptrs:na|ktp:N0|mc:208875|mtp:S|qry_typ:P|lang:en|wc:3|cs:8895|v=4,Shivani Bed Cover,https://www.indiamart.com/shivanibedcover-delhi/?pos=192&kwd=baby shower cap&tags=||||8752.144|Price|product|||TS|rsf:gd-|-stype:attr=1|qr_nm:gd|res:RC4|com-cf:nl|ptrs:na|ktp:N0|mc:208875|mtp:S|qry_typ:P|lang:en|wc:3|cs:8895|v=4,False,Kamla Nagar,New Delhi,"5164, Kohlapur Road, Kamla Nagar, Kamla Nagar, New Delhi - 110007, Dist.Delhi, Delhi",8047803363,
FILTRA Disposable LDPE Shower Cap - Transparent-Premium Quality,https://www.indiamart.com/proddetail/filtra-disposable-ldpe-shower-cap-transparent-premium-quality-5363938088.html?pos=193&kwd=baby shower cap&tags=||||8210.732|Price|product|||MDC|rsf:gd-|-stype:attr=1|qr_nm:gd|res:RC4|com-cf:nl|ptrs:na|ktp:N0|mc:208875|mtp:S|qry_typ:P|lang:en|wc:3|cs:8895|v=4,Thea-Tex Healthcare (India) Private Limited,https://www.indiamart.com/thea-texhealthcare/?pos=193&kwd=baby shower cap&tags=||||8210.732|Price|product|||MDC|rsf:gd-|-stype:attr=1|qr_nm:gd|res:RC4|com-cf:nl|ptrs:na|ktp:N0|mc:208875|mtp:S|qry_typ:P|lang:en|wc:3|cs:8895|v=4,False,Valiv,Vasai,"No. 23-M, Anand Mangal Industrial Estate, Sativali Road Waliv Phata, Vasai East, Valiv, Vasai - 401208, Dist.Thane, Maharashtra",8048966102,
Reusable Pink Bathing Shower Cap,https://www.indiamart.com/proddetail/reusable-pink-bathing-shower-cap-26528441788.html?pos=194&kwd=baby shower cap&tags=||||8211.142||product|||TS|rsf:gd-|-stype:attr=1|qr_nm:gd|res:RC4|com-cf:nl|ptrs:na|ktp:N0|mc:208875|mtp:S|qry_typ:P|lang:en|wc:3|cs:8895|v=4,J. West Enterprises,https://www.indiamart.com/j-west-enterprises/?pos=194&kwd=baby shower cap&tags=||||8211.142||product|||TS|rsf:gd-|-stype:attr=1|qr_nm:gd|res:RC4|com-cf:nl|ptrs:na|ktp:N0|mc:208875|mtp:S|qry_typ:P|lang:en|wc:3|cs:8895|v=4,False,Andheri East,Mumbai,"Unit No. 17, First Floor, Nand Ghanshyam Industrial Estate Off Mahakali Caves Road, Andheri East, Andheri East, Mumbai - 400093, Dist.Mumbai, Maharashtra",8043803320,
Cotton Body Wrap Bath Towel With Shower Cap,https://www.indiamart.com/proddetail/cotton-body-wrap-bath-towel-with-shower-cap-2851273410033.html?pos=195&kwd=baby shower cap&tags=||||8747.223||product|||TS|rsf:gd-|-stype:attr=1|qr_nm:gd|res:RC4|com-cf:nl|ptrs:na|ktp:N0|mc:208875|mtp:S|qry_typ:P|lang:en|wc:3|cs:8895|v=4,Rangoli Furnishings Private Limited,https://www.indiamart.com/rangolifurnishings/?pos=195&kwd=baby shower cap&tags=||||8747.223||product|||TS|rsf:gd-|-stype:attr=1|qr_nm:gd|res:RC4|com-cf:nl|ptrs:na|ktp:N0|mc:208875|mtp:S|qry_typ:P|lang:en|wc:3|cs:8895|v=4,False,Sector 53,Sonipat,"300C, EPIP, Phase 2, HSIIDC Industrial Estate Kundli, GT Karnal Road, NH1, Sector 53, Sonipat - 131028, Dist.Sonipat, Haryana",8046068428,
"Ld Round White Sawar Cap, For Hospital, Size: Free Size",https://www.indiamart.com/proddetail/white-sawar-cap-22174712662.html?pos=196&kwd=baby shower cap&tags=||||8752.144|Price|product|||TS|rsf:gd-|-stype:attr=1|qr_nm:gd|res:RC4|com-cf:nl|ptrs:na|ktp:N0|mc:208875|mtp:S|qry_typ:P|lang:en|wc:3|cs:8895|v=4,Life Health Care,https://www.indiamart.com/lifehealthcaredelhi/?pos=196&kwd=baby shower cap&tags=||||8752.144|Price|product|||TS|rsf:gd-|-stype:attr=1|qr_nm:gd|res:RC4|com-cf:nl|ptrs:na|ktp:N0|mc:208875|mtp:S|qry_typ:P|lang:en|wc:3|cs:8895|v=4,False,Uttam Nagar,New Delhi,"Plot No. 38, Deep Enclave, Vikas Nagar, Uttam Nagar, New Delhi - 110059, Dist.Delhi, Delhi",8048986556,
"Microfibre Turban shower caps, For Drying Wet Hairs",https://www.indiamart.com/proddetail/shower-caps-22322566662.html?pos=197&kwd=baby shower cap&tags=||||8752.144|Price|product|||TS|rsf:gd-|-stype:attr=1|qr_nm:gd|res:RC4|com-cf:nl|ptrs:na|ktp:N0|mc:208875|mtp:S|qry_typ:P|lang:en|wc:3|cs:8895|v=4,Clean India Solutions,https://www.cleanindiasolutions.com/?pos=197&kwd=baby shower cap&tags=||||8752.144|Price|product|||TS|rsf:gd-|-stype:attr=1|qr_nm:gd|res:RC4|com-cf:nl|ptrs:na|ktp:N0|mc:208875|mtp:S|qry_typ:P|lang:en|wc:3|cs:8895|v=4,False,Rohini Sector 15,New Delhi,"Block No. D-5/12, Rohini, Sec-15, Rohini Sector 15, New Delhi - 110089, Dist.Delhi, Delhi",8047632009,
Hair Drying Shower Caps,https://www.indiamart.com/proddetail/hair-drying-shower-caps-24214036955.html?pos=198&kwd=baby shower cap&tags=||||8221.91|Price|product|||TS|rsf:gd-|-stype:attr=1|qr_nm:gd|res:RC4|com-cf:nl|ptrs:na|ktp:N0|mc:208875|mtp:S|qry_typ:P|lang:en|wc:3|cs:8895|v=4,Myroyal Multi Activity Private Limited,https://www.indiamart.com/myroyal-multi-activity/?pos=198&kwd=baby shower cap&tags=||||8221.91|Price|product|||TS|rsf:gd-|-stype:attr=1|qr_nm:gd|res:RC4|com-cf:nl|ptrs:na|ktp:N0|mc:208875|mtp:S|qry_typ:P|lang:en|wc:3|cs:8895|v=4,False,Mahemdavad,Mehmedabad,"Vatsalya Complex, GF/B -11, Mahudha Road, Mahemdavad, Mehmedabad - 387130, Dist.Kheda, Gujarat",7942547852,
Behal Chemicals Cotton Shower Cap,https://www.indiamart.com/proddetail/shower-cap-12710335055.html?pos=199&kwd=baby shower cap&tags=||||8805.533|Price|product|||TS|rsf:gd-|-stype:attr=1|qr_nm:gd|res:RC4|com-cf:nl|ptrs:na|ktp:N0|mc:208875|mtp:S|qry_typ:P|lang:en|wc:3|cs:8895|v=4,Behal Chemicals,https://www.indiamart.com/behal-chemicals/?pos=199&kwd=baby shower cap&tags=||||8805.533|Price|product|||TS|rsf:gd-|-stype:attr=1|qr_nm:gd|res:RC4|com-cf:nl|ptrs:na|ktp:N0|mc:208875|mtp:S|qry_typ:P|lang:en|wc:3|cs:8895|v=4,False,Purani Manali,Manali,"3331, Model Town, Purani Manali, Manali - 175131, Dist.Kullu, Himachal Pradesh",8047630647,
"Transparent Plain Shower Cap, Regular",https://www.indiamart.com/proddetail/shower-cap-2851040879433.html?pos=200&kwd=baby shower cap&tags=||||8228.275|Price|product|||TS|rsf:gd-|-stype:attr=1|qr_nm:gd|res:RC4|com-cf:nl|ptrs:na|ktp:N0|mc:208875|mtp:S|qry_typ:P|lang:en|wc:3|cs:8895|v=4,Unity Medical And Surgical,https://www.indiamart.com/unity-medical-and-surgical/?pos=200&kwd=baby shower cap&tags=||||8228.275|Price|product|||TS|rsf:gd-|-stype:attr=1|qr_nm:gd|res:RC4|com-cf:nl|ptrs:na|ktp:N0|mc:208875|mtp:S|qry_typ:P|lang:en|wc:3|cs:8895|v=4,False,Ahmedabad G.P.O.,Ahmedabad,"86, Tirthbhumi Industrial Park-1, Bakrol Gatrad Road, Bakrol-bujrang, Ahmedabad - 382430, Ahmedabad G.P.O., Ahmedabad - 380001, Dist.Ahmedabad, Gujarat",7942541258,
Shower Cap,https://www.indiamart.com/proddetail/shower-cap-12393791955.html?pos=201&kwd=baby shower cap&tags=||||8954.051||product|||TS|rsf:gd-|-stype:attr=1|qr_nm:gd|res:RC4|com-cf:nl|ptrs:na|ktp:N0|mc:208875|mtp:S|qry_typ:P|lang:en|wc:3|cs:8895|v=4,Sindur,https://www.indiamart.com/sindur/?pos=201&kwd=baby shower cap&tags=||||8954.051||product|||TS|rsf:gd-|-stype:attr=1|qr_nm:gd|res:RC4|com-cf:nl|ptrs:na|ktp:N0|mc:208875|mtp:S|qry_typ:P|lang:en|wc:3|cs:8895|v=4,False,,Chennai,"No.1,,M.C. ROAD,CHENNAI, Chennai - 600021, Dist.Chennai, Tamil Nadu",8046077032,
Transparent Plastic Shower Cap,https://www.indiamart.com/proddetail/shower-cap-4427057933.html?pos=202&kwd=baby shower cap&tags=||||8307.81|Price|product|||TS|rsf:gd-|-stype:attr=1|qr_nm:gd|res:RC4|com-cf:nl|ptrs:na|ktp:N0|mc:208875|mtp:S|qry_typ:P|lang:en|wc:3|cs:8895|v=4,Bora Packaging Industries,https://www.boras.in/?pos=202&kwd=baby shower cap&tags=||||8307.81|Price|product|||TS|rsf:gd-|-stype:attr=1|qr_nm:gd|res:RC4|com-cf:nl|ptrs:na|ktp:N0|mc:208875|mtp:S|qry_typ:P|lang:en|wc:3|cs:8895|v=4,False,Bibwewadi,Pune,"No. D 4, Nishidha Society, Bibwewadi - Kondhwa Road Market Yard, Bibwewadi, Pune - 411037, Dist.Pune, Maharashtra",8047637121,
"Plastic Plain Shower Cap, For Parlors",https://www.indiamart.com/proddetail/shower-cap-22397517973.html?pos=203&kwd=baby shower cap&tags=||||8752.144|Price|product|||TS|rsf:gd-|-stype:attr=1|qr_nm:gd|res:RC4|com-cf:nl|ptrs:na|ktp:N0|mc:208875|mtp:S|qry_typ:P|lang:en|wc:3|cs:8895|v=4,Adfin Crafts,https://www.indiamart.com/adfincrafts/?pos=203&kwd=baby shower cap&tags=||||8752.144|Price|product|||TS|rsf:gd-|-stype:attr=1|qr_nm:gd|res:RC4|com-cf:nl|ptrs:na|ktp:N0|mc:208875|mtp:S|qry_typ:P|lang:en|wc:3|cs:8895|v=4,False,Old Rajendra Nagar,New Delhi,"39/24, Old Rajendra Nagar ND, Old Rajendra Nagar, New Delhi - 110060, Dist.Delhi, Delhi",7942534722,
"Plain Shower Cap, Medium",https://www.indiamart.com/proddetail/shower-cap-19780829991.html?pos=204&kwd=baby shower cap&tags=||||8226.563|Price|product|||TS|rsf:gd-|-stype:attr=1|qr_nm:gd|res:RC4|com-cf:nl|ptrs:na|ktp:N0|mc:208875|mtp:S|qry_typ:P|lang:en|wc:3|cs:8895|v=4,Varsha Enterprises,https://www.varshaenterprisesindia.com/?pos=204&kwd=baby shower cap&tags=||||8226.563|Price|product|||TS|rsf:gd-|-stype:attr=1|qr_nm:gd|res:RC4|com-cf:nl|ptrs:na|ktp:N0|mc:208875|mtp:S|qry_typ:P|lang:en|wc:3|cs:8895|v=4,False,Sanpada,Navi Mumbai,"Gami Industrial Park, A Building, 3rd Floor, Unit No. 65, Plot No. C-39, TTC Industrial Area South Central Road, Sanpada, Navi Mumbai - 400705, Dist.Thane, Maharashtra",8047642852,
Non Wooven Hotel Designer Shower Caps,https://www.indiamart.com/proddetail/hotel-designer-shower-caps-5057041048.html?pos=205&kwd=baby shower cap&tags=||||8228.275|Price|product|||TS|rsf:gd-|-stype:attr=1|qr_nm:gd|res:RC4|com-cf:nl|ptrs:na|ktp:N0|mc:208875|mtp:S|qry_typ:P|lang:en|wc:3|cs:8895|v=4,Salus Products,https://www.salusproduct.com/?pos=205&kwd=baby shower cap&tags=||||8228.275|Price|product|||TS|rsf:gd-|-stype:attr=1|qr_nm:gd|res:RC4|com-cf:nl|ptrs:na|ktp:N0|mc:208875|mtp:S|qry_typ:P|lang:en|wc:3|cs:8895|v=4,False,Changodar,Ahmedabad,"Plot No 287/2, Panchratna Industrial Estate, Near Neesa Agritech, Changodar, Ta. Sanand, Changodar, Ahmedabad - 382213, Dist.Ahmedabad, Gujarat",8048954663,
White Plain Shower Cap,https://www.indiamart.com/proddetail/shower-cap-19119109233.html?pos=206&kwd=baby shower cap&tags=||||8211.142|Price|product|||TS|rsf:gd-|-stype:attr=1|qr_nm:gd|res:RC4|com-cf:nl|ptrs:na|ktp:N0|mc:208875|mtp:S|qry_typ:P|lang:en|wc:3|cs:8895|v=4,Hallmark Safety Products,https://www.hallmarksafetyproducts.in/?pos=206&kwd=baby shower cap&tags=||||8211.142|Price|product|||TS|rsf:gd-|-stype:attr=1|qr_nm:gd|res:RC4|com-cf:nl|ptrs:na|ktp:N0|mc:208875|mtp:S|qry_typ:P|lang:en|wc:3|cs:8895|v=4,False,Masjid Bandar,Mumbai,"4-A, Adamji Building, Sayed Mukri Street 413, Narshi Natha Street, Katha Bazar, Masjid Bandar, Mumbai - 400009, Dist.Mumbai, Maharashtra",8047645497,
Mix Colour shower cap,https://www.indiamart.com/proddetail/shower-cap-26749671948.html?pos=207&kwd=baby shower cap&tags=||||8752.144|Price|product|||TS|rsf:gd-|-stype:attr=1|qr_nm:gd|res:RC4|com-cf:nl|ptrs:na|ktp:N0|mc:208875|mtp:S|qry_typ:P|lang:en|wc:3|cs:8895|v=4,Anand Garments Pvt Ltd,https://www.indiamart.com/anand-garments-newdelhi/?pos=207&kwd=baby shower cap&tags=||||8752.144|Price|product|||TS|rsf:gd-|-stype:attr=1|qr_nm:gd|res:RC4|com-cf:nl|ptrs:na|ktp:N0|mc:208875|mtp:S|qry_typ:P|lang:en|wc:3|cs:8895|v=4,False,mundka,New Delhi,"Plot No-276, Area Pocket-m Sector-1, Dsiidc Bawana,, mundka, New Delhi - 110039, Dist.Delhi, Delhi",8048262855,
"Transparent LDPE Shower Cap, For Personal",https://www.indiamart.com/proddetail/shower-cap-23239986997.html?pos=208&kwd=baby shower cap&tags=||||8228.275|Price|product|||TS|rsf:gd-|-stype:attr=1|qr_nm:gd|res:RC4|com-cf:nl|ptrs:na|ktp:N0|mc:208875|mtp:S|qry_typ:P|lang:en|wc:3|cs:8895|v=4,Good One Health Care,https://www.goodonehealthcare.com/?pos=208&kwd=baby shower cap&tags=||||8228.275|Price|product|||TS|rsf:gd-|-stype:attr=1|qr_nm:gd|res:RC4|com-cf:nl|ptrs:na|ktp:N0|mc:208875|mtp:S|qry_typ:P|lang:en|wc:3|cs:8895|v=4,False,Vastral,Ahmedabad,"SHADE NO.F/200, VISHALA INDUSTRIAL ESTATE, NIKOL,, Vastral, Ahmedabad - 382350, Dist.Ahmedabad, Gujarat",8048978352,
Transparent Plastic Shower Cap,https://www.indiamart.com/proddetail/shower-cap-5055898391.html?pos=209&kwd=baby shower cap&tags=||||8211.142|Price|product|||TS|rsf:gd-|-stype:attr=1|qr_nm:gd|res:RC4|com-cf:nl|ptrs:na|ktp:N0|mc:208875|mtp:S|qry_typ:P|lang:en|wc:3|cs:8895|v=4,Bellcross Industries Private Limited,https://www.bellcrossmedical.in/?pos=209&kwd=baby shower cap&tags=||||8211.142|Price|product|||TS|rsf:gd-|-stype:attr=1|qr_nm:gd|res:RC4|com-cf:nl|ptrs:na|ktp:N0|mc:208875|mtp:S|qry_typ:P|lang:en|wc:3|cs:8895|v=4,False,Dahisar East,Mumbai,"229, Sarita, Prabhat Industrial Estate, Dahisar East, Mumbai - 400068, Dist.Mumbai, Maharashtra",8048986135,
White Plastic Shower Cap,https://www.indiamart.com/proddetail/shower-cap-25121660697.html?pos=210&kwd=baby shower cap&tags=||||8954.051|Price|product|||TS|rsf:gd-|-stype:attr=1|qr_nm:gd|res:RC4|com-cf:nl|ptrs:na|ktp:N0|mc:208875|mtp:S|qry_typ:P|lang:en|wc:3|cs:8895|v=4,Ronaldo Agency,https://www.ronaldoagency.com/?pos=210&kwd=baby shower cap&tags=||||8954.051|Price|product|||TS|rsf:gd-|-stype:attr=1|qr_nm:gd|res:RC4|com-cf:nl|ptrs:na|ktp:N0|mc:208875|mtp:S|qry_typ:P|lang:en|wc:3|cs:8895|v=4,False,Sowcarpet,Chennai,"No.14, Sowcarpet Vinayaga Maistry Street, Sowcarpet, Chennai - 600001, Dist.Chennai, Tamil Nadu",8048983132,
