product_title,product_link,company_name,company_link,is_verified_exporter,city_region,city,address_details,phone_number,phone_number_extension
Zigzag Baby Walkers,https://www.indiamart.com/proddetail/zigzag-baby-walkers-2851850970430.html?pos=1&kwd=baby walkers&tags=A||||8752.144||product|||TS|rsf:gd-|-stype:attr=1|qr_nm:gd|res:RC4|com-cf:nl|ptrs:na|ktp:N0|mc:22735|mtp:S|qry_typ:P|lang:en|wc:2|flavl:4|cs:9602|v=4,Ekta Cycle Industries,https://www.indiamart.com/ektacycleindustries/?pos=1&kwd=baby walkers&tags=A||||8752.144||product|||TS|rsf:gd-|-stype:attr=1|qr_nm:gd|res:RC4|com-cf:nl|ptrs:na|ktp:N0|mc:22735|mtp:S|qry_typ:P|lang:en|wc:2|flavl:4|cs:9602|v=4,False,Mandawali,New Delhi,"C84 A, Patparganj opposite tarawati hospital, Mandawali, New Delhi - 110092, Dist.Delhi, Delhi",8046055583,
"2 Feet Iron CP Child Walker, 4",https://www.indiamart.com/proddetail/cp-child-walker-23975884312.html?pos=2&kwd=baby walkers&tags=A||||8752.144|Price|product|||TS|rsf:gd-|-stype:attr=1|qr_nm:gd|res:RC4|com-cf:nl|ptrs:na|ktp:N0|mc:22735|mtp:S|qry_typ:P|lang:en|wc:2|flavl:4|cs:9602|v=4,Physio Lifecare,https://www.indiamart.com/physiolifecare/?pos=2&kwd=baby walkers&tags=A||||8752.144|Price|product|||TS|rsf:gd-|-stype:attr=1|qr_nm:gd|res:RC4|com-cf:nl|ptrs:na|ktp:N0|mc:22735|mtp:S|qry_typ:P|lang:en|wc:2|flavl:4|cs:9602|v=4,True,Pitampura,New Delhi,"254, Sainik Vihar, Rani Bagh, Pitampura, Pitampura, New Delhi - 110034, Dist.Delhi, Delhi",7942561971,
"Iron & PVC Baby Walkers, Four to Twelve Months, 6 Wheels",https://www.indiamart.com/proddetail/baby-walkers-2852838460612.html?pos=3&kwd=baby walkers&tags=A||||8752.144|Price|product|||TS|rsf:gd-|-stype:attr=1|qr_nm:gd|res:RC4|com-cf:nl|ptrs:na|ktp:N0|mc:22735|mtp:S|qry_typ:P|lang:en|wc:2|flavl:4|cs:9602|v=4,Pinksara Khilonewala,https://www.indiamart.com/pinksarakhilonewala/?pos=3&kwd=baby walkers&tags=A||||8752.144|Price|product|||TS|rsf:gd-|-stype:attr=1|qr_nm:gd|res:RC4|com-cf:nl|ptrs:na|ktp:N0|mc:22735|mtp:S|qry_typ:P|lang:en|wc:2|flavl:4|cs:9602|v=4,False,Karawal Nagar,New Delhi,"A-25/A, Second, Prop No. 38, Kesho Ram Park, South-West Delhi, Karawal Nagar, New Delhi - 110059, Dist.Delhi, Delhi",8045909104,
"Raja coting baby Walker, 6",https://www.indiamart.com/proddetail/raja-coting-baby-walker-2850708048991.html?pos=4&kwd=baby walkers&tags=A||||8752.144|Price|product|||SSnp|rsf:gd-|-stype:attr=1|qr_nm:gd|res:RC4|com-cf:nl|ptrs:na|ktp:N0|mc:22735|mtp:S|qry_typ:P|lang:en|wc:2|flavl:4|cs:9602|v=4,Kusum Enterprrises,https://www.indiamart.com/kusum-enterprises-delhi/?pos=4&kwd=baby walkers&tags=A||||8752.144|Price|product|||SSnp|rsf:gd-|-stype:attr=1|qr_nm:gd|res:RC4|com-cf:nl|ptrs:na|ktp:N0|mc:22735|mtp:S|qry_typ:P|lang:en|wc:2|flavl:4|cs:9602|v=4,False,Saboli,New Delhi,"D-1/419, K H. No. 769, Halifax No. 13 Ashok Nagar, Saboli, New Delhi - 110093, Dist.Delhi, Delhi",8048969783,
Snail Adjustable Baby Walker,https://www.indiamart.com/proddetail/snail-adjustable-baby-walker-2854075204830.html?pos=5&kwd=baby walkers&tags=A||||8752.144|Price|product|||TS|rsf:gd-|-stype:attr=1|qr_nm:gd|res:RC4|com-cf:nl|ptrs:na|ktp:N0|mc:22735|mtp:S|qry_typ:P|lang:en|wc:2|flavl:4|cs:9602|v=4,Neelam Enterprises,https://www.indiamart.com/neelam-enterprisesdelhi/?pos=5&kwd=baby walkers&tags=A||||8752.144|Price|product|||TS|rsf:gd-|-stype:attr=1|qr_nm:gd|res:RC4|com-cf:nl|ptrs:na|ktp:N0|mc:22735|mtp:S|qry_typ:P|lang:en|wc:2|flavl:4|cs:9602|v=4,False,North East,New Delhi,"Gf,Pradhan Parshadi Lal Market,Main Tukmirpur Road,Karawal Nagar, North East, New Delhi - 110094, Dist.Delhi, Delhi",7942814861,
"Sky pink Adjustable Baby Walker, 20 inches",https://www.indiamart.com/proddetail/adjustable-baby-walker-2852991861088.html?pos=6&kwd=baby walkers&tags=A||||8752.144|Price|product|||TS|rsf:gd-|-stype:attr=1|qr_nm:gd|res:RC4|com-cf:nl|ptrs:na|ktp:N0|mc:22735|mtp:S|qry_typ:P|lang:en|wc:2|flavl:4|cs:9602|v=4,Rocky India,https://www.indiamart.com/rocky-india/?pos=6&kwd=baby walkers&tags=A||||8752.144|Price|product|||TS|rsf:gd-|-stype:attr=1|qr_nm:gd|res:RC4|com-cf:nl|ptrs:na|ktp:N0|mc:22735|mtp:S|qry_typ:P|lang:en|wc:2|flavl:4|cs:9602|v=4,False,Brahampuri,New Delhi,"Ground Floor, I-36/10, Gali No. 10, Brahampuri, Brahampuri, New Delhi - 110053, Dist.Delhi, Delhi",7942708012,
Baby Walkers,https://www.indiamart.com/proddetail/baby-walkers-22157509291.html?pos=7&kwd=baby walkers&tags=A||||8752.144|Price|product|||TS|rsf:gd-|-stype:attr=1|qr_nm:gd|res:RC4|com-cf:nl|ptrs:na|ktp:N0|mc:22735|mtp:S|qry_typ:P|lang:en|wc:2|flavl:4|cs:9602|v=4,Vikas Enterprises,https://www.indiamart.com/vikasenterprises-shahdara/?pos=7&kwd=baby walkers&tags=A||||8752.144|Price|product|||TS|rsf:gd-|-stype:attr=1|qr_nm:gd|res:RC4|com-cf:nl|ptrs:na|ktp:N0|mc:22735|mtp:S|qry_typ:P|lang:en|wc:2|flavl:4|cs:9602|v=4,False,Geeta Colony,New Delhi,"No. 7/37, Geeta Colony, 7 Block, Gurudwara Road, Geeta Colony, New Delhi - 110031, Dist.Delhi, Delhi",8048614370,
"15 Inch Kia Baby Walker, 6",https://www.indiamart.com/proddetail/kia-baby-walker-2852426736388.html?pos=8&kwd=baby walkers&tags=A||||8785.791|Price|product|||TS|rsf:gd-|-stype:attr=1|qr_nm:gd|res:RC4|com-cf:nl|ptrs:na|ktp:N0|mc:22735|mtp:S|qry_typ:P|lang:en|wc:2|flavl:4|cs:9602|v=4,Redplus Toys LLP,https://www.redplustoys.com/?pos=8&kwd=baby walkers&tags=A||||8785.791|Price|product|||TS|rsf:gd-|-stype:attr=1|qr_nm:gd|res:RC4|com-cf:nl|ptrs:na|ktp:N0|mc:22735|mtp:S|qry_typ:P|lang:en|wc:2|flavl:4|cs:9602|v=4,False,Loni,Ghaziabad,"Plot No B-9, Sector-A7, Part-1, Ambey Chowk Tronica City, Loni, Loni, Ghaziabad - 201102, Dist.Ghaziabad, Uttar Pradesh",7942868116,
"5 Plastic Baby walker, 6, f28",https://www.indiamart.com/proddetail/baby-walker-20280716273.html?pos=9&kwd=baby walkers&tags=A||||8752.144|Price|product|||TS|rsf:gd-|-stype:attr=1|qr_nm:gd|res:RC4|com-cf:nl|ptrs:na|ktp:N0|mc:22735|mtp:S|qry_typ:P|lang:en|wc:2|flavl:4|cs:9602|v=4,Swing 'N' Fly (A Brand of Zen Marketing),https://www.indiamart.com/zenmarketing-sahibabad/?pos=9&kwd=baby walkers&tags=A||||8752.144|Price|product|||TS|rsf:gd-|-stype:attr=1|qr_nm:gd|res:RC4|com-cf:nl|ptrs:na|ktp:N0|mc:22735|mtp:S|qry_typ:P|lang:en|wc:2|flavl:4|cs:9602|v=4,False,Alipur,New Delhi,"Ground Floor, Kh No 55/17/2, Pawan Triveni Colony, Village Bakhtawarpur triveni colony, Alipur, New Delhi - 110036, Dist.Delhi, Delhi",7942559295,
Baby Walker Gol Grip Single Horn Sada,https://www.indiamart.com/proddetail/baby-walker-gol-grip-single-horn-sada-2851972107988.html?pos=10&kwd=baby walkers&tags=A||||8752.144|Price|product|||TS|rsf:gd-|-stype:attr=1|qr_nm:gd|res:RC4|com-cf:nl|ptrs:na|ktp:N0|mc:22735|mtp:S|qry_typ:P|lang:en|wc:2|flavl:4|cs:9602|v=4,Priya Industries,https://www.indiamart.com/priyaindustries-new-delhi/?pos=10&kwd=baby walkers&tags=A||||8752.144|Price|product|||TS|rsf:gd-|-stype:attr=1|qr_nm:gd|res:RC4|com-cf:nl|ptrs:na|ktp:N0|mc:22735|mtp:S|qry_typ:P|lang:en|wc:2|flavl:4|cs:9602|v=4,False,Gandhi Nagar,New Delhi,"9/3363, Gali No.8, Dharampura, Gandhi Nagar, Delhi, Gandhi Nagar, New Delhi - 110031, Dist.Delhi, Delhi",8046053493,
Plastic Oggy Foldable Musical Round Baby Walker,https://www.indiamart.com/proddetail/oggy-foldable-musical-round-baby-walker-2854166271788.html?pos=11&kwd=baby walkers&tags=A||||8778.123|Price|product|||TS|rsf:gd-|-stype:attr=1|qr_nm:gd|res:RC4|com-cf:nl|ptrs:na|ktp:N0|mc:22735|mtp:S|qry_typ:P|lang:en|wc:2|flavl:4|cs:9602|v=4,Maxonova Novelty Ventures,https://www.indiamart.com/maxonova-novelty-ventures/?pos=11&kwd=baby walkers&tags=A||||8778.123|Price|product|||TS|rsf:gd-|-stype:attr=1|qr_nm:gd|res:RC4|com-cf:nl|ptrs:na|ktp:N0|mc:22735|mtp:S|qry_typ:P|lang:en|wc:2|flavl:4|cs:9602|v=4,False,,Noida,"C-86, Ground Floor, Sector 63, Noida, Gautam Buddha Nagar, Noida - 201301, Dist.Gautam Budh Nagar, Uttar Pradesh",8045736058,
"85 cm Plastic And Plastic Blue Musical Baby Walker, 6 Wheels",https://www.indiamart.com/proddetail/blue-musical-baby-walker-2851574271962.html?pos=12&kwd=baby walkers&tags=A||||8752.144|Price|product|||MDC|rsf:gd-|-stype:attr=1|qr_nm:gd|res:RC4|com-cf:nl|ptrs:na|ktp:N0|mc:22735|mtp:S|qry_typ:P|lang:en|wc:2|flavl:4|cs:9602|v=4,Indira Toys,https://www.indiamart.com/indiratoysdelhi/?pos=12&kwd=baby walkers&tags=A||||8752.144|Price|product|||MDC|rsf:gd-|-stype:attr=1|qr_nm:gd|res:RC4|com-cf:nl|ptrs:na|ktp:N0|mc:22735|mtp:S|qry_typ:P|lang:en|wc:2|flavl:4|cs:9602|v=4,False,Shahdara,New Delhi,"E-758, Lohiya, Gali No. 1, Babarpur, Shahdara, Shahdara, New Delhi - 110032, Dist.Delhi, Delhi",8043882366,
"Plastic Pink Round Musical Baby Walker, One to Two Years",https://www.indiamart.com/proddetail/pink-round-musical-baby-walker-2854577930262.html?pos=13&kwd=baby walkers&tags=A||||8752.144|Price|product|||MDC|rsf:gd-|-stype:attr=1|qr_nm:gd|res:RC4|com-cf:nl|ptrs:na|ktp:N0|mc:22735|mtp:S|qry_typ:P|lang:en|wc:2|flavl:4|cs:9602|v=4,Aman & Brothers,https://www.indiamart.com/amanbrothers/?pos=13&kwd=baby walkers&tags=A||||8752.144|Price|product|||MDC|rsf:gd-|-stype:attr=1|qr_nm:gd|res:RC4|com-cf:nl|ptrs:na|ktp:N0|mc:22735|mtp:S|qry_typ:P|lang:en|wc:2|flavl:4|cs:9602|v=4,False,,New Delhi,"E-241, Prop No.E-99, G/F Kh No.400, Gali No.1, Chand Bagh Near Madina Masjid, Gokal Puri Sub Post Office, Gokalpuri, North East Delhi,, New Delhi - 110094, Dist.Delhi, Delhi",7949341935,
"Blue Plastic Baby Walker, Four to Twelve Months",https://www.indiamart.com/proddetail/blue-plastic-baby-walker-2854441660830.html?pos=14&kwd=baby walkers&tags=A||||8752.144|Price|product|||MDC|rsf:gd-|-stype:attr=1|qr_nm:gd|res:RC4|com-cf:nl|ptrs:na|ktp:N0|mc:22735|mtp:S|qry_typ:P|lang:en|wc:2|flavl:4|cs:9602|v=4,Play Mart,https://www.indiamart.com/play-mart/?pos=14&kwd=baby walkers&tags=A||||8752.144|Price|product|||MDC|rsf:gd-|-stype:attr=1|qr_nm:gd|res:RC4|com-cf:nl|ptrs:na|ktp:N0|mc:22735|mtp:S|qry_typ:P|lang:en|wc:2|flavl:4|cs:9602|v=4,False,,New Delhi,"16/149, Geeta Colony, East Delhi,, New Delhi - 110031, Dist.Delhi, Delhi",7949340635,
"Plastic and Stainless Steel Baby Turquoise Musical Dolphin Handle Adjustable Seat Walker, Six to Eighteen Months",https://www.indiamart.com/proddetail/baby-turquoise-musical-dolphin-handle-adjustable-seat-walker-2854405367133.html?pos=15&kwd=baby walkers&tags=A||||8210.732|Price|product|||MDC|rsf:gd-|-stype:attr=1|qr_nm:gd|res:RC4|com-cf:nl|ptrs:na|ktp:N0|mc:22735|mtp:S|qry_typ:P|lang:en|wc:2|cs:8835|v=4,Navkar Traders,https://www.indiamart.com/navkartradersmaharashtra/?pos=15&kwd=baby walkers&tags=A||||8210.732|Price|product|||MDC|rsf:gd-|-stype:attr=1|qr_nm:gd|res:RC4|com-cf:nl|ptrs:na|ktp:N0|mc:22735|mtp:S|qry_typ:P|lang:en|wc:2|cs:8835|v=4,False,,Vasai Virar,"Ground Floor, B/001, Shivam Apt, Rd. No. 1 Vasant Nagri,, Vasai Virar - 401209, Dist.Thane, Maharashtra",7949338602,
SHARK 8 BEND NICKLE BABY WALKER BY NONIE BERZER BABY PRODUCTS,https://www.indiamart.com/proddetail/shark-8-bend-nickle-baby-walker-by-nonie-berzer-baby-products-2854871629512.html?pos=16&kwd=baby walkers&tags=A||||8785.791|Price|product|||MDC|rsf:gd-|-stype:attr=1|qr_nm:gd|res:RC4|com-cf:nl|ptrs:na|ktp:N0|mc:22735|mtp:S|qry_typ:P|lang:en|wc:2|cs:8835|v=4,Nonie Berzer (A Brand of Arora Products),https://www.indiamart.com/nonieberzer/?pos=16&kwd=baby walkers&tags=A||||8785.791|Price|product|||MDC|rsf:gd-|-stype:attr=1|qr_nm:gd|res:RC4|com-cf:nl|ptrs:na|ktp:N0|mc:22735|mtp:S|qry_typ:P|lang:en|wc:2|cs:8835|v=4,False,,Ghaziabad,"C-67, Sector B-3, Tronica City, Ghaziabad - 201102, Dist.Ghaziabad, Uttar Pradesh",8044456346,
85 cm Stainless Steel And Plastic Red 8 Wheels Musical Baby Walker,https://www.indiamart.com/proddetail/red-8-wheels-musical-baby-walker-2852649293712.html?pos=17&kwd=baby walkers&tags=A||||8752.144|Price|product|||MDC|rsf:gd-|-stype:attr=1|qr_nm:gd|res:RC4|com-cf:nl|ptrs:na|ktp:N0|mc:22735|mtp:S|qry_typ:P|lang:en|wc:2|cs:8835|v=4,Shiv Shakti Jhoola,https://www.indiamart.com/shiv-shakti-jhoola/?pos=17&kwd=baby walkers&tags=A||||8752.144|Price|product|||MDC|rsf:gd-|-stype:attr=1|qr_nm:gd|res:RC4|com-cf:nl|ptrs:na|ktp:N0|mc:22735|mtp:S|qry_typ:P|lang:en|wc:2|cs:8835|v=4,False,Sultanpuri F Block,New Delhi,"86, Ground Floor, East Friends Enclave, North West Delhi, Sultanpuri F Block, New Delhi - 110086, Dist.Delhi, Delhi",7942616391,
"Aqua Plastic Baby Walker, One to Two Years",https://www.indiamart.com/proddetail/aqua-plastic-baby-walker-2854851631630.html?pos=18&kwd=baby walkers&tags=A||||8752.144|Price|product|||MDC|rsf:gd-|-stype:attr=1|qr_nm:gd|res:RC4|com-cf:nl|ptrs:na|ktp:N0|mc:22735|mtp:S|qry_typ:P|lang:en|wc:2|cs:8835|v=4,V P Product,https://www.indiamart.com/vpproduct/?pos=18&kwd=baby walkers&tags=A||||8752.144|Price|product|||MDC|rsf:gd-|-stype:attr=1|qr_nm:gd|res:RC4|com-cf:nl|ptrs:na|ktp:N0|mc:22735|mtp:S|qry_typ:P|lang:en|wc:2|cs:8835|v=4,False,,New Delhi,"Ground Floor, H.No.- E-5/139, Gali No. - 5, East Gokal Pur, North East Delhi, New Delhi - 110094, Dist.Delhi, Delhi",8044460681,
"Pink Baby Walker Cum Rocker, Four to Twelve Months",https://www.indiamart.com/proddetail/pink-baby-handle-walker-2854792634873.html?pos=19&kwd=baby walkers&tags=A||||8785.791|Price|product|||MDC|rsf:gd-|-stype:attr=1|qr_nm:gd|res:RC4|com-cf:nl|ptrs:na|ktp:N0|mc:22735|mtp:S|qry_typ:P|lang:en|wc:2|cs:8835|v=4,J M D Inernational,https://www.indiamart.com/jmd-inernational-ghaziabad/?pos=19&kwd=baby walkers&tags=A||||8785.791|Price|product|||MDC|rsf:gd-|-stype:attr=1|qr_nm:gd|res:RC4|com-cf:nl|ptrs:na|ktp:N0|mc:22735|mtp:S|qry_typ:P|lang:en|wc:2|cs:8835|v=4,False,,Ghaziabad,"Commercial First Floor C/2/25, Village Chikamberpur, Block-C,Rawal Pindi Garden, Ghaziabad - 201005, Dist.Ghaziabad, Uttar Pradesh",7949326628,
"2feet Iron Kids Four Wheeler Baby Walker, 4",https://www.indiamart.com/proddetail/kids-four-wheeler-baby-walker-2850495830262.html?pos=20&kwd=baby walkers&tags=A||||8752.144|Price|product|||MDC|rsf:gd-|-stype:attr=1|qr_nm:gd|res:RC4|com-cf:nl|ptrs:na|ktp:N0|mc:22735|mtp:S|qry_typ:P|lang:en|wc:2|cs:8835|v=4,Sidhant Enterprises,https://www.indiamart.com/sidhantenterprise-delhi/?pos=20&kwd=baby walkers&tags=A||||8752.144|Price|product|||MDC|rsf:gd-|-stype:attr=1|qr_nm:gd|res:RC4|com-cf:nl|ptrs:na|ktp:N0|mc:22735|mtp:S|qry_typ:P|lang:en|wc:2|cs:8835|v=4,False,North East,New Delhi,"B-147/10, Gali No.5, Rama Garden, Karawal Nagar, North East Delhi,, North East, New Delhi - 110094, Dist.Delhi, Delhi",7942823869,
"Plastic Blue Baby Choice Baby Walker, Four to Twelve Months",https://www.indiamart.com/proddetail/blue-baby-choice-baby-walker-22109660612.html?pos=21&kwd=baby walkers&tags=A||||8752.144|Price|product|||MDC|rsf:gd-|-stype:attr=1|qr_nm:gd|res:RC4|com-cf:nl|ptrs:na|ktp:N0|mc:22735|mtp:S|qry_typ:P|lang:en|wc:2|cs:8835|v=4,Sony Super India,https://www.indiamart.com/sony-super-india/?pos=21&kwd=baby walkers&tags=A||||8752.144|Price|product|||MDC|rsf:gd-|-stype:attr=1|qr_nm:gd|res:RC4|com-cf:nl|ptrs:na|ktp:N0|mc:22735|mtp:S|qry_typ:P|lang:en|wc:2|cs:8835|v=4,False,,New Delhi,"Ground Floor, H No-36/A, Karhana Wali Gali, Near Ramveer Counciler, Village Sher Pur, North East Delhi, New Delhi - 110094, Dist.Delhi, Delhi",8044456980,
ms Silver Cp Child Walker With Back Support,https://www.indiamart.com/proddetail/cp-child-walker-with-back-support-22884715097.html?pos=22&kwd=baby walkers&tags=A||||8860.933|Price|product|||MDC|rsf:gd-|-stype:attr=1|qr_nm:gd|res:RC4|com-cf:nl|ptrs:na|ktp:N0|mc:22735|mtp:S|qry_typ:P|lang:en|wc:2|cs:8835|v=4,Himalaya Rehabilitation Aids,https://www.indiamart.com/himalayarehabilitationaids/?pos=22&kwd=baby walkers&tags=A||||8860.933|Price|product|||MDC|rsf:gd-|-stype:attr=1|qr_nm:gd|res:RC4|com-cf:nl|ptrs:na|ktp:N0|mc:22735|mtp:S|qry_typ:P|lang:en|wc:2|cs:8835|v=4,False,Bhaniyawala,Dehradun,"Airport Road, Khasra No. 905, Bhaniyawala, Bhaniyawala, Dehradun - 248140, Dist.Dehradun, Uttarakhand",8046053407,
"3'' Plastic Musical Baby Walker, 4",https://www.indiamart.com/proddetail/musical-baby-walker-2850670126297.html?pos=23&kwd=baby walkers&tags=A||||8785.791|Price|product|||TS|rsf:gd-|-stype:attr=1|qr_nm:gd|res:RC4|com-cf:nl|ptrs:na|ktp:N0|mc:22735|mtp:S|qry_typ:P|lang:en|wc:2|cs:8835|v=4,M K Enterprises,https://www.mkenterpriseindia.in/?pos=23&kwd=baby walkers&tags=A||||8785.791|Price|product|||TS|rsf:gd-|-stype:attr=1|qr_nm:gd|res:RC4|com-cf:nl|ptrs:na|ktp:N0|mc:22735|mtp:S|qry_typ:P|lang:en|wc:2|cs:8835|v=4,False,Loni,Ghaziabad,"House No G 3264, First Floor, Khasra No 279, Ram Park Extension, Near Sidh Baba Mandir, Loni, Ghaziabad - 201102, Dist.Ghaziabad, Uttar Pradesh",8047658296,
"Pink Plastic Walker 8 Bend Big Music Baby Walker, Four to Twelve Months",https://www.indiamart.com/proddetail/plastic-walker-8-bend-big-music-baby-walker-2854114540673.html?pos=24&kwd=baby walkers&tags=A||||8752.144|Price|product|||MDC|rsf:gd-|-stype:attr=1|qr_nm:gd|res:RC4|com-cf:nl|ptrs:na|ktp:N0|mc:22735|mtp:S|qry_typ:P|lang:en|wc:2|cs:8835|v=4,Luxury Enterprises,https://www.indiamart.com/luxury-enterprisesnewdelhi/?pos=24&kwd=baby walkers&tags=A||||8752.144|Price|product|||MDC|rsf:gd-|-stype:attr=1|qr_nm:gd|res:RC4|com-cf:nl|ptrs:na|ktp:N0|mc:22735|mtp:S|qry_typ:P|lang:en|wc:2|cs:8835|v=4,False,Dayalpur,New Delhi,"Ground Floor, KH. NO.-422, Dayalpur, Biharipura, Near David School Gokalpuri North East, Dayalpur, New Delhi - 110094, Dist.Delhi, Delhi",8045732900,
"Blue Plastic and Stainless Steel Foldable Walker For Kids, Packaging Type: Bubble Polithine",https://www.indiamart.com/proddetail/foldable-walker-for-kids-2853892907797.html?pos=25&kwd=baby walkers&tags=A||||8752.144|Price|product|||MDC|rsf:gd-|-stype:attr=1|qr_nm:gd|res:RC4|com-cf:nl|ptrs:na|ktp:N0|mc:22735|mtp:S|qry_typ:P|lang:en|wc:2|cs:8835|v=4,Jatin Ji Enterrprises,https://www.indiamart.com/jatin-ji-enterrprises/?pos=25&kwd=baby walkers&tags=A||||8752.144|Price|product|||MDC|rsf:gd-|-stype:attr=1|qr_nm:gd|res:RC4|com-cf:nl|ptrs:na|ktp:N0|mc:22735|mtp:S|qry_typ:P|lang:en|wc:2|cs:8835|v=4,False,North East,New Delhi,"House no.-978C, Street No.-16 Shaheed Bhagat Singh Colony, Karawal Nagar North East, North East, New Delhi - 110094, Dist.Delhi, Delhi",8044010231,
Yellow Plastic Baby Walker,https://www.indiamart.com/proddetail/plastic-baby-walker-2853657965088.html?pos=26&kwd=baby walkers&tags=A||||8752.144|Price|product|||MDC|rsf:gd-|-stype:attr=1|qr_nm:gd|res:RC4|com-cf:nl|ptrs:na|ktp:N0|mc:22735|mtp:S|qry_typ:P|lang:en|wc:2|cs:8835|v=4,Mother India,https://www.indiamart.com/mother-india-newdelhi/?pos=26&kwd=baby walkers&tags=A||||8752.144|Price|product|||MDC|rsf:gd-|-stype:attr=1|qr_nm:gd|res:RC4|com-cf:nl|ptrs:na|ktp:N0|mc:22735|mtp:S|qry_typ:P|lang:en|wc:2|cs:8835|v=4,False,Karawal Nagar,New Delhi,"Kh No. 94, H.no.672,, Near Payre Lal Marg, Village Karawal Nagar North East Delhi, Karawal Nagar, New Delhi - 110094, Dist.Delhi, Delhi",7949095739,
Baby Products Accessories,https://www.indiamart.com/proddetail/baby-products-accessories-26746997673.html?pos=27&kwd=baby walkers&tags=A||||8752.144|Price|product|||MDC|rsf:gd-|-stype:attr=1|qr_nm:gd|res:RC4|com-cf:nl|ptrs:na|ktp:N0|mc:22735|mtp:S|qry_typ:P|lang:en|wc:2|cs:8835|v=4,Goyal Baby Products,https://www.indiamart.com/goyalbabyproducts/?pos=27&kwd=baby walkers&tags=A||||8752.144|Price|product|||MDC|rsf:gd-|-stype:attr=1|qr_nm:gd|res:RC4|com-cf:nl|ptrs:na|ktp:N0|mc:22735|mtp:S|qry_typ:P|lang:en|wc:2|cs:8835|v=4,False,Bawana,New Delhi,"Plot.No.32, Ground Floor, Pocket-G, Sector-2, Bawana Dsidc, Bawana, New Delhi - 110039, Dist.Delhi, Delhi",8043894453,
Plastic Green Musical Baby Walker,https://www.indiamart.com/proddetail/green-musical-baby-walker-2854071652991.html?pos=28&kwd=baby walkers&tags=A||||8785.791|Price|product|||MDC|rsf:gd-|-stype:attr=1|qr_nm:gd|res:RC4|com-cf:nl|ptrs:na|ktp:N0|mc:22735|mtp:S|qry_typ:P|lang:en|wc:2|cs:8835|v=4,Laxmi Enterprises,https://www.indiamart.com/laxmi-enterprisesindia/?pos=28&kwd=baby walkers&tags=A||||8785.791|Price|product|||MDC|rsf:gd-|-stype:attr=1|qr_nm:gd|res:RC4|com-cf:nl|ptrs:na|ktp:N0|mc:22735|mtp:S|qry_typ:P|lang:en|wc:2|cs:8835|v=4,False,Behta Hajipur,Ghaziabad,"Kh No.-1985, GALI NO.07, RYI Properties, Krishna Vihar II, LONI, Behta Hajipur, Behta Hajipur, Ghaziabad - 201102, Dist.Ghaziabad, Uttar Pradesh",8044563149,
Blue Plastic 111 Baby Walker,https://www.indiamart.com/proddetail/copter-swing-car-2850790876297.html?pos=29&kwd=baby walkers&tags=A||||8706.587|Price|product|||MDC|rsf:gd-|-stype:attr=1|qr_nm:gd|res:RC4|com-cf:nl|ptrs:na|ktp:N0|mc:22735|mtp:S|qry_typ:P|lang:en|wc:2|cs:8835|v=4,Chum Sales Promoters,https://www.indiamart.com/chum-sales-promoters/?pos=29&kwd=baby walkers&tags=A||||8706.587|Price|product|||MDC|rsf:gd-|-stype:attr=1|qr_nm:gd|res:RC4|com-cf:nl|ptrs:na|ktp:N0|mc:22735|mtp:S|qry_typ:P|lang:en|wc:2|cs:8835|v=4,False,,Madurai,"37-38, West Avani Moola Street, Madurai - 625001, Dist.Madurai, Tamil Nadu",7949358648,
"Plastic Adjustable Baby Walker, One to Two Years",https://www.indiamart.com/proddetail/adjustable-baby-walker-2854781917533.html?pos=30&kwd=baby walkers&tags=A||||8211.142|Price|product|||TS|rsf:gd-|-stype:attr=1|qr_nm:gd|res:RC4|com-cf:nl|ptrs:na|ktp:N0|mc:22735|mtp:S|qry_typ:P|lang:en|wc:2|cs:8835|v=4,P For Panda Baby Products Private Limited,https://www.p4pandababyproducts.com/?pos=30&kwd=baby walkers&tags=A||||8211.142|Price|product|||TS|rsf:gd-|-stype:attr=1|qr_nm:gd|res:RC4|com-cf:nl|ptrs:na|ktp:N0|mc:22735|mtp:S|qry_typ:P|lang:en|wc:2|cs:8835|v=4,False,Goregaon West,Mumbai,"904 A Wing,9 Th Floor,Triple S Heights,Jakeria Road, Goregaon West, Mumbai - 400064, Dist.Mumbai, Maharashtra",7942710871,
"Plastic Panda Baby Walker, 6",https://www.indiamart.com/proddetail/panda-baby-walker-2851506024030.html?pos=31&kwd=baby walkers&tags=A||||8752.144|Price|product|||TS|rsf:gd-|-stype:attr=1|qr_nm:gd|res:RC4|com-cf:nl|ptrs:na|ktp:N0|mc:22735|mtp:S|qry_typ:P|lang:en|wc:2|cs:8835|v=4,Neeta & Sons,https://www.neetaandsons.com/?pos=31&kwd=baby walkers&tags=A||||8752.144|Price|product|||TS|rsf:gd-|-stype:attr=1|qr_nm:gd|res:RC4|com-cf:nl|ptrs:na|ktp:N0|mc:22735|mtp:S|qry_typ:P|lang:en|wc:2|cs:8835|v=4,False,Shalimar Bagh,New Delhi,"First Floor, 9/55 Kh. No. 902/990, Street No 2, SHALIMAR VILLAGE, Shalimar Bagh, New Delhi - 110088, Dist.Delhi, Delhi",7942790875,
"Plastic Fancy Baby Walker, Four to Twelve Months",https://www.indiamart.com/proddetail/fancy-baby-walker-2854682199912.html?pos=32&kwd=baby walkers&tags=A||||9110.092|Price|product|||TS|rsf:gd-|-stype:attr=1|qr_nm:gd|res:RC4|com-cf:nl|ptrs:na|ktp:N0|mc:22735|mtp:S|qry_typ:P|lang:en|wc:2|cs:8835|v=4,Pawan Cycle Store,https://www.indiamart.com/pawancyclestore-lucknow/?pos=32&kwd=baby walkers&tags=A||||9110.092|Price|product|||TS|rsf:gd-|-stype:attr=1|qr_nm:gd|res:RC4|com-cf:nl|ptrs:na|ktp:N0|mc:22735|mtp:S|qry_typ:P|lang:en|wc:2|cs:8835|v=4,False,Darul Safa,Lucknow,"91/8, Yadunath Sanyal Road, Darul Safa, Lucknow - 226001, Dist.Lucknow, Uttar Pradesh",8043851096,
Grey 6 Wheels Plastic Baby Walker,https://www.indiamart.com/proddetail/grey-6-wheels-plastic-baby-walker-2853644017630.html?pos=33&kwd=baby walkers&tags=A||||8206.45|Price|product|||MDC|rsf:gd-|-stype:attr=1|qr_nm:gd|res:RC4|com-cf:nl|ptrs:na|ktp:N0|mc:22735|mtp:S|qry_typ:P|lang:en|wc:2|cs:8835|v=4,APDD E Commerce India LLP,https://www.indiamart.com/apddecommerceindia/?pos=33&kwd=baby walkers&tags=A||||8206.45|Price|product|||MDC|rsf:gd-|-stype:attr=1|qr_nm:gd|res:RC4|com-cf:nl|ptrs:na|ktp:N0|mc:22735|mtp:S|qry_typ:P|lang:en|wc:2|cs:8835|v=4,False,Vishnu Nagar,Palghar,"2ndFloor, Block No.301,D-Wing, Jivadani Complex, Mahim Road, National Cooperative Bank, Vishnu Nagar, Vishnu Nagar, Palghar - 401404, Dist.Thane, Maharashtra",8047307898,
"NATRAJ Blue Mild Steel Baby Walker, Age Group: Upto 1 Year, 5",https://www.indiamart.com/proddetail/mild-steel-baby-walker-21911563597.html?pos=34&kwd=baby walkers&tags=A||||8211.142|Price|product|||TS|rsf:gd-|-stype:attr=1|qr_nm:gd|res:RC4|com-cf:nl|ptrs:na|ktp:N0|mc:22735|mtp:S|qry_typ:P|lang:en|wc:2|cs:8835|v=4,New Natraj Industries,https://www.indiamart.com/newnatrajindustries/?pos=34&kwd=baby walkers&tags=A||||8211.142|Price|product|||TS|rsf:gd-|-stype:attr=1|qr_nm:gd|res:RC4|com-cf:nl|ptrs:na|ktp:N0|mc:22735|mtp:S|qry_typ:P|lang:en|wc:2|cs:8835|v=4,False,Andheri,Mumbai,"2nd,47 A,VEERA DESAI ROAD,GHANSHYAM INDUSTRIAL ESTATE,ANDHERI WEST, Andheri, Mumbai - 400053, Dist.Mumbai, Maharashtra",8048609903,
Plastic Pandaoriginals 360 Baby Walker,https://www.indiamart.com/proddetail/pandaoriginals-360-baby-walker-2852433245073.html?pos=35&kwd=baby walkers&tags=A||||9140.514|Price|product|||TS|rsf:gd-|-stype:attr=1|qr_nm:gd|res:RC4|com-cf:nl|ptrs:na|ktp:N0|mc:22735|mtp:S|qry_typ:P|lang:en|wc:2|cs:8835|v=4,Anjaneya Enterprises,https://www.ridenslide.in/?pos=35&kwd=baby walkers&tags=A||||9140.514|Price|product|||TS|rsf:gd-|-stype:attr=1|qr_nm:gd|res:RC4|com-cf:nl|ptrs:na|ktp:N0|mc:22735|mtp:S|qry_typ:P|lang:en|wc:2|cs:8835|v=4,False,Pandri,Raipur,"SHOP NO-10,SHOPPERS PARADISE,BEHIND CITY CENTER MALL,PANDRI,RAIPUR, Pandri, Raipur - 492001, Chhattisgarh",8046045761,
Red And Grey Plastic and Stainless Steel Baby Foldable Walker,https://www.indiamart.com/proddetail/baby-foldable-walker-2852137149562.html?pos=36&kwd=baby walkers&tags=A||||8663.873|Price|product|||MDC|rsf:gd-|-stype:attr=1|qr_nm:gd|res:RC4|com-cf:nl|ptrs:na|ktp:N0|mc:22735|mtp:S|qry_typ:P|lang:en|wc:2|cs:8835|v=4,AQ Corporation,https://www.indiamart.com/aqcorporation/?pos=36&kwd=baby walkers&tags=A||||8663.873|Price|product|||MDC|rsf:gd-|-stype:attr=1|qr_nm:gd|res:RC4|com-cf:nl|ptrs:na|ktp:N0|mc:22735|mtp:S|qry_typ:P|lang:en|wc:2|cs:8835|v=4,False,,Bengaluru,"Ground And First Floor, No 88, 2nd Cross, 4th Main, NGEF Layout, Nagashetty Halli, Sanjaynagar Bengaluru Urban, Bengaluru - 560094, Dist.Bengaluru, Karnataka",7949325043,
"Plastic BABY Walker TZ-307, 8",https://www.indiamart.com/proddetail/baby-walker-tz-307-2850956023833.html?pos=37&kwd=baby walkers&tags=A||||8752.144|Price|product|||MDC|rsf:gd-|-stype:attr=1|qr_nm:gd|res:RC4|com-cf:nl|ptrs:na|ktp:N0|mc:22735|mtp:S|qry_typ:P|lang:en|wc:2|cs:8835|v=4,Bajaj Baby Products Private Limited,https://www.indiamart.com/bajajbabyprodcuts/?pos=37&kwd=baby walkers&tags=A||||8752.144|Price|product|||MDC|rsf:gd-|-stype:attr=1|qr_nm:gd|res:RC4|com-cf:nl|ptrs:na|ktp:N0|mc:22735|mtp:S|qry_typ:P|lang:en|wc:2|cs:8835|v=4,False,,New Delhi,"PLOT NO.11, BLOCK-P,SECTOR-1,DSIIDC BAWANA INDUSTRIAL AREA,NEW DELHI, New Delhi - 110039, Dist.Delhi, Delhi",7942825591,
"Yellow ABS Plastic Baby Walker, Four to Twelve Months",https://www.indiamart.com/proddetail/yellow-abs-plastic-baby-walker-2854637944848.html?pos=38&kwd=baby walkers&tags=A||||9528.781|Price|product|||MDC|rsf:gd-|-stype:attr=1|qr_nm:gd|res:RC4|com-cf:nl|ptrs:na|ktp:N0|mc:22735|mtp:S|qry_typ:P|lang:en|wc:2|cs:8835|v=4,Sri Babajee Cycle,https://www.indiamart.com/sribabajeecycle/?pos=38&kwd=baby walkers&tags=A||||9528.781|Price|product|||MDC|rsf:gd-|-stype:attr=1|qr_nm:gd|res:RC4|com-cf:nl|ptrs:na|ktp:N0|mc:22735|mtp:S|qry_typ:P|lang:en|wc:2|cs:8835|v=4,False,,Ranchi,"Gorakh Nath Lane, Ratu Road, Ranchi - 834001, Dist.Ranchi, Jharkhand",7949329605,
PANDA Plastic 007 Baby Walker,https://www.indiamart.com/proddetail/007-baby-walker-20830663930.html?pos=39&kwd=baby walkers&tags=A||||8752.144|Price|product|||TS|rsf:gd-|-stype:attr=1|qr_nm:gd|res:RC4|com-cf:nl|ptrs:na|ktp:N0|mc:22735|mtp:S|qry_typ:P|lang:en|wc:2|cs:8835|v=4,Gupta Plastic Works,https://www.indiamart.com/guptaplasticworks/?pos=39&kwd=baby walkers&tags=A||||8752.144|Price|product|||TS|rsf:gd-|-stype:attr=1|qr_nm:gd|res:RC4|com-cf:nl|ptrs:na|ktp:N0|mc:22735|mtp:S|qry_typ:P|lang:en|wc:2|cs:8835|v=4,False,Azadpur,New Delhi,"A-80/1, G.T. Karnal Road, Industrial Area, Azadpur, New Delhi - 110033, Dist.Delhi, Delhi",8046032300,
Baby walker tablet,,Rajbir Trading Company,https://www.indiamart.com/rajbir-tradingcompany/?pos=40&kwd=baby walkers&tags=A||||8752.144|Price|product|||TS|rsf:gd-|-stype:attr=1|qr_nm:gd|res:RC4|com-cf:nl|ptrs:na|ktp:N0|mc:22735|mtp:S|qry_typ:P|lang:en|wc:2|cs:8835|v=4,False,Khyala,New Delhi,"NW-26-B, Vishnu Garden, Khyala, New Delhi - 110018, Dist.Delhi, Delhi",7942799536,
"Red (base) Plastic World Horse Baby Walker, One to Two Years",https://www.indiamart.com/proddetail/world-horse-baby-walker-2854887597548.html?pos=41&kwd=baby walkers&tags=A||||8559.269||product|||MDC|rsf:gd-|-stype:attr=1|qr_nm:gd|res:RC4|com-cf:nl|ptrs:na|ktp:N0|mc:22735|mtp:S|qry_typ:P|lang:en|wc:2|cs:8835|v=4,Anand Sales Corporation,https://www.indiamart.com/anand-salescorporation-indore/?pos=41&kwd=baby walkers&tags=A||||8559.269||product|||MDC|rsf:gd-|-stype:attr=1|qr_nm:gd|res:RC4|com-cf:nl|ptrs:na|ktp:N0|mc:22735|mtp:S|qry_typ:P|lang:en|wc:2|cs:8835|v=4,False,,Indore,"Survey No 199/1, 311/2, Patthar Mundla Road, Palda, Indore - 452001, Dist.Indore, Madhya Pradesh",8044457792,
Massom Plain Baby Walker,https://www.indiamart.com/proddetail/massom-plain-baby-walker-2854707979648.html?pos=42&kwd=baby walkers&tags=A||||8226.563|Price|product|||MDC|rsf:gd-|-stype:attr=1|qr_nm:gd|res:RC4|com-cf:nl|ptrs:na|ktp:N0|mc:22735|mtp:S|qry_typ:P|lang:en|wc:2|cs:8835|v=4,Kamal Baby Cycle,https://www.indiamart.com/kamalbabycycle/?pos=42&kwd=baby walkers&tags=A||||8226.563|Price|product|||MDC|rsf:gd-|-stype:attr=1|qr_nm:gd|res:RC4|com-cf:nl|ptrs:na|ktp:N0|mc:22735|mtp:S|qry_typ:P|lang:en|wc:2|cs:8835|v=4,False,,Navi Mumbai,"Ground Floor, Below Flat No. 03, Choudhary House, Plot No.33, Sector No. 07, Koparkhairane,, Navi Mumbai - 400709, Dist.Thane, Maharashtra",7949324995,
Massom Plain Baby Walker,https://www.indiamart.com/proddetail/massom-plain-baby-walker-2854707979648.html?pos=43&kwd=baby walkers&tags=A||||8226.563|Price|product|||MDC|rsf:gd-|-stype:attr=1|qr_nm:gd|res:RC4|com-cf:nl|ptrs:na|ktp:N0|mc:22735|mtp:S|qry_typ:P|lang:en|wc:2|cs:8835|v=4,Kamal Baby Cycle,https://www.indiamart.com/kamalbabycycle/?pos=43&kwd=baby walkers&tags=A||||8226.563|Price|product|||MDC|rsf:gd-|-stype:attr=1|qr_nm:gd|res:RC4|com-cf:nl|ptrs:na|ktp:N0|mc:22735|mtp:S|qry_typ:P|lang:en|wc:2|cs:8835|v=4,False,,Navi Mumbai,"Ground Floor, Below Flat No. 03, Choudhary House, Plot No.33, Sector No. 07, Koparkhairane,, Navi Mumbai - 400709, Dist.Thane, Maharashtra",7949324995,
Multicolor Plastic Baby Walker And Play Gym 2 In 1,https://www.indiamart.com/proddetail/baby-walker-and-play-gym-2-in-1-2853908352388.html?pos=44&kwd=baby walkers&tags=A||||8752.144|Price|product|||TS|rsf:gd-|-stype:attr=1|qr_nm:gd|res:RC4|com-cf:nl|ptrs:na|ktp:N0|mc:22735|mtp:S|qry_typ:P|lang:en|wc:2|cs:8835|v=4,Arora Toys,https://www.aroratoys.com/?pos=44&kwd=baby walkers&tags=A||||8752.144|Price|product|||TS|rsf:gd-|-stype:attr=1|qr_nm:gd|res:RC4|com-cf:nl|ptrs:na|ktp:N0|mc:22735|mtp:S|qry_typ:P|lang:en|wc:2|cs:8835|v=4,False,Teliwara,New Delhi,"2nd Floor 2807/8 Teliwara Chowk Timber Market Sadar Bazar Central, Teliwara, New Delhi - 110006, Dist.Delhi, Delhi",8047668613,
"Iron & PVC Baby Walkers, Four to Twelve Months, 6 Wheels",https://www.indiamart.com/proddetail/baby-walkers-2852838460612.html?pos=45&kwd=baby walkers&tags=A||||8752.144|Price|product|||TS|rsf:gd-|-stype:attr=1|qr_nm:gd|res:RC4|com-cf:nl|ptrs:na|ktp:N0|mc:22735|mtp:S|qry_typ:P|lang:en|wc:2|cs:8835|v=4,Pinksara Khilonewala,https://www.indiamart.com/pinksarakhilonewala/?pos=45&kwd=baby walkers&tags=A||||8752.144|Price|product|||TS|rsf:gd-|-stype:attr=1|qr_nm:gd|res:RC4|com-cf:nl|ptrs:na|ktp:N0|mc:22735|mtp:S|qry_typ:P|lang:en|wc:2|cs:8835|v=4,False,Karawal Nagar,New Delhi,"A-25/A, Second, Prop No. 38, Kesho Ram Park, South-West Delhi, Karawal Nagar, New Delhi - 110059, Dist.Delhi, Delhi",8045909104,
"Dash Star Hunny Baby Walker Kids Activity Walker, 6",https://www.indiamart.com/proddetail/dash-star-hunny-baby-walker-kids-activity-walker-25724043688.html?pos=46&kwd=baby walkers&tags=A||||8752.144|Price|product|||TS|rsf:gd-|-stype:attr=1|qr_nm:gd|res:RC4|com-cf:nl|ptrs:na|ktp:N0|mc:22735|mtp:S|qry_typ:P|lang:en|wc:2|cs:8835|v=4,Ashish Trading Co.,https://www.indiamart.com/ashish-trading/?pos=46&kwd=baby walkers&tags=A||||8752.144|Price|product|||TS|rsf:gd-|-stype:attr=1|qr_nm:gd|res:RC4|com-cf:nl|ptrs:na|ktp:N0|mc:22735|mtp:S|qry_typ:P|lang:en|wc:2|cs:8835|v=4,False,Shalimar Bagh,New Delhi,"BC- 67 A, East Shalimar Bagh, Kela Godown Road Shalimar, Shalimar Bagh, New Delhi - 110088, Dist.Delhi, Delhi",8048979347,
Iron Green Baby Walker,https://www.indiamart.com/proddetail/iron-green-baby-walker-2853879194991.html?pos=47&kwd=baby walkers&tags=A||||8752.144|Price|product|||MDC|rsf:gd-|-stype:attr=1|qr_nm:gd|res:RC4|com-cf:nl|ptrs:na|ktp:N0|mc:22735|mtp:S|qry_typ:P|lang:en|wc:2|cs:8835|v=4,Rishabh Enterprises,https://www.indiamart.com/rishabh-enterprisesdelhiindia/?pos=47&kwd=baby walkers&tags=A||||8752.144|Price|product|||MDC|rsf:gd-|-stype:attr=1|qr_nm:gd|res:RC4|com-cf:nl|ptrs:na|ktp:N0|mc:22735|mtp:S|qry_typ:P|lang:en|wc:2|cs:8835|v=4,False,Kailash Nagar,New Delhi,"All Floor, IX/2159, Gali No-8, Kailash Nagar, East Delhi, Kailash Nagar, New Delhi - 110031, Dist.Delhi, Delhi",7949372125,
Yellow And Red Plastic Musical Activity Baby Walker,https://www.indiamart.com/proddetail/musical-activity-baby-walker-2853972276573.html?pos=48&kwd=baby walkers&tags=A||||8752.144|Price|product|||MDC|rsf:gd-|-stype:attr=1|qr_nm:gd|res:RC4|com-cf:nl|ptrs:na|ktp:N0|mc:22735|mtp:S|qry_typ:P|lang:en|wc:2|cs:8835|v=4,Swastik Toys,https://www.indiamart.com/swastik-toys-delhi/?pos=48&kwd=baby walkers&tags=A||||8752.144|Price|product|||MDC|rsf:gd-|-stype:attr=1|qr_nm:gd|res:RC4|com-cf:nl|ptrs:na|ktp:N0|mc:22735|mtp:S|qry_typ:P|lang:en|wc:2|cs:8835|v=4,False,Tihar,New Delhi,"WZ 125, Mahakavi Goswami Tulsidas Marg, Tihar, West Delhi, Tihar, New Delhi - 110018, Dist.Delhi, Delhi",8044015186,
"Plastic and Stainless Steel Red Baby Walker, Four to Twelve Months",https://www.indiamart.com/proddetail/red-baby-walker-2854521235388.html?pos=49&kwd=baby walkers&tags=A||||8785.791|Price|product|||MDC|rsf:gd-|-stype:attr=1|qr_nm:gd|res:RC4|com-cf:nl|ptrs:na|ktp:N0|mc:22735|mtp:S|qry_typ:P|lang:en|wc:2|cs:8835|v=4,AS Creations,https://www.indiamart.com/ascreations-ghaziabad/?pos=49&kwd=baby walkers&tags=A||||8785.791|Price|product|||MDC|rsf:gd-|-stype:attr=1|qr_nm:gd|res:RC4|com-cf:nl|ptrs:na|ktp:N0|mc:22735|mtp:S|qry_typ:P|lang:en|wc:2|cs:8835|v=4,False,Sahibabad,Ghaziabad,"Ground Floor, B-169, Shalimar Garden Main, Sahibabad, Sahibabad, Ghaziabad - 201005, Dist.Ghaziabad, Uttar Pradesh",7949329190,
"Normal Baby Walker Musical Walker Plastic Ring, 6",https://www.indiamart.com/proddetail/baby-walker-musical-walker-plastic-ring-14674983291.html?pos=50&kwd=baby walkers&tags=A||||8211.142|Price|product|||MDC|rsf:gd-|-stype:attr=1|qr_nm:gd|res:RC4|com-cf:nl|ptrs:na|ktp:N0|mc:22735|mtp:S|qry_typ:P|lang:en|wc:2|cs:8835|v=4,Sara Traders,https://www.indiamart.com/saratraders-mumbai/?pos=50&kwd=baby walkers&tags=A||||8211.142|Price|product|||MDC|rsf:gd-|-stype:attr=1|qr_nm:gd|res:RC4|com-cf:nl|ptrs:na|ktp:N0|mc:22735|mtp:S|qry_typ:P|lang:en|wc:2|cs:8835|v=4,False,Princess Dock,Mumbai,"DONGRI,5/7 NISHANPADA CROSS LANE,2, DASTAGIR BUILDING,Mumbai, Princess Dock, Mumbai - 400009, Dist.Mumbai, Maharashtra",8048265712,
"Multicolor Plastic Activity Baby Walker, Four to Twelve Months, Packaging Type: Box Packing",https://www.indiamart.com/proddetail/activity-baby-walker-2854238071597.html?pos=51&kwd=baby walkers&tags=A||||8752.144|Price|product|||TS|rsf:gd-|-stype:attr=1|qr_nm:gd|res:RC4|com-cf:nl|ptrs:na|ktp:N0|mc:22735|mtp:S|qry_typ:P|lang:en|wc:2|cs:8835|v=4,Indial Premium Products,https://www.indiamart.com/indial-premium-products/?pos=51&kwd=baby walkers&tags=A||||8752.144|Price|product|||TS|rsf:gd-|-stype:attr=1|qr_nm:gd|res:RC4|com-cf:nl|ptrs:na|ktp:N0|mc:22735|mtp:S|qry_typ:P|lang:en|wc:2|cs:8835|v=4,False,,New Delhi,"68, K Block, Jahangirpuri North West Delhi, New Delhi - 110033, Dist.Delhi, Delhi",8045732973,
Brass Walker .,https://www.indiamart.com/proddetail/brass-walker-4898935973.html?pos=56&kwd=baby walkers&tags=A||||8663.873|Price|product|||TS|rsf:gd-|-stype:attr=1|qr_nm:gd|res:RC4|com-cf:nl|ptrs:na|ktp:N0|mc:22735|mtp:S|qry_typ:P|lang:en|wc:2|cs:8835|v=4,Relief Orthotics,https://www.relieforthotics.net/?pos=56&kwd=baby walkers&tags=A||||8663.873|Price|product|||TS|rsf:gd-|-stype:attr=1|qr_nm:gd|res:RC4|com-cf:nl|ptrs:na|ktp:N0|mc:22735|mtp:S|qry_typ:P|lang:en|wc:2|cs:8835|v=4,False,,Bengaluru,"Ground Floor, 21,, 7th Main Road, Garvebhavi Palya, Bengaluru - 560068, Dist.Bengaluru, Karnataka",8048951647,
PANDA Plastic 007 Baby Walker,https://www.indiamart.com/proddetail/007-baby-walker-20830663930.html?pos=53&kwd=baby walkers&tags=A||||8752.144|Price|product|||TS|rsf:gd-|-stype:attr=1|qr_nm:gd|res:RC4|com-cf:nl|ptrs:na|ktp:N0|mc:22735|mtp:S|qry_typ:P|lang:en|wc:2|cs:8835|v=4,Gupta Plastic Works,https://www.indiamart.com/guptaplasticworks/?pos=53&kwd=baby walkers&tags=A||||8752.144|Price|product|||TS|rsf:gd-|-stype:attr=1|qr_nm:gd|res:RC4|com-cf:nl|ptrs:na|ktp:N0|mc:22735|mtp:S|qry_typ:P|lang:en|wc:2|cs:8835|v=4,False,Azadpur,New Delhi,"A-80/1, G.T. Karnal Road, Industrial Area, Azadpur, New Delhi - 110033, Dist.Delhi, Delhi",8046032300,
Adjustable Baby Walker,https://www.indiamart.com/proddetail/adjustable-baby-walker-2853044015391.html?pos=54&kwd=baby walkers&tags=A||||8663.873|Price|product|||TS|rsf:gd-|-stype:attr=1|qr_nm:gd|res:RC4|com-cf:nl|ptrs:na|ktp:N0|mc:22735|mtp:S|qry_typ:P|lang:en|wc:2|cs:8835|v=4,Hitendar Sales Corporation,https://www.indiamart.com/hitendarsalescorporation/?pos=54&kwd=baby walkers&tags=A||||8663.873|Price|product|||TS|rsf:gd-|-stype:attr=1|qr_nm:gd|res:RC4|com-cf:nl|ptrs:na|ktp:N0|mc:22735|mtp:S|qry_typ:P|lang:en|wc:2|cs:8835|v=4,False,Chickpet,Bengaluru,"No. 109, BB Temple Street, Mamulpet, Chickpet, Chickpet, Bengaluru - 560053, Dist.Bengaluru, Karnataka",8047693080,
LB-3101 BABY WALKER,https://www.indiamart.com/proddetail/lb-3101-baby-walker-2853610525112.html?pos=55&kwd=baby walkers&tags=A||||8954.051|Price|product|||TS|rsf:gd-|-stype:attr=1|qr_nm:gd|res:RC4|com-cf:nl|ptrs:na|ktp:N0|mc:22735|mtp:S|qry_typ:P|lang:en|wc:2|cs:8835|v=4,Shah International,https://www.indiamart.com/shah-internationalchennai/?pos=55&kwd=baby walkers&tags=A||||8954.051|Price|product|||TS|rsf:gd-|-stype:attr=1|qr_nm:gd|res:RC4|com-cf:nl|ptrs:na|ktp:N0|mc:22735|mtp:S|qry_typ:P|lang:en|wc:2|cs:8835|v=4,False,Sydenhams lane,Chennai,"New No.195, Old No.137 & 138/1, Sydenhams Road, Periyamet, Sydenhams lane, Chennai - 600003, Dist.Chennai, Tamil Nadu",7942963807,
Brass Walker .,https://www.indiamart.com/proddetail/brass-walker-4898935973.html?pos=56&kwd=baby walkers&tags=A||||8663.873|Price|product|||TS|rsf:gd-|-stype:attr=1|qr_nm:gd|res:RC4|com-cf:nl|ptrs:na|ktp:N0|mc:22735|mtp:S|qry_typ:P|lang:en|wc:2|cs:8835|v=4,Relief Orthotics,https://www.relieforthotics.net/?pos=56&kwd=baby walkers&tags=A||||8663.873|Price|product|||TS|rsf:gd-|-stype:attr=1|qr_nm:gd|res:RC4|com-cf:nl|ptrs:na|ktp:N0|mc:22735|mtp:S|qry_typ:P|lang:en|wc:2|cs:8835|v=4,False,,Bengaluru,"Ground Floor, 21,, 7th Main Road, Garvebhavi Palya, Bengaluru - 560068, Dist.Bengaluru, Karnataka",8048951647,
"47 cm Bamboo Baby Walker, 3 Wheels",https://www.indiamart.com/proddetail/bamboo-baby-walker-2852298088173.html?pos=57&kwd=baby walkers&tags=A||||8601.347|Price|product|||TS|rsf:gd-|-stype:attr=1|qr_nm:gd|res:RC4|com-cf:nl|ptrs:na|ktp:N0|mc:22735|mtp:S|qry_typ:P|lang:en|wc:2|cs:8835|v=4,Badri Narayan Jagdish Narayan,https://www.indiamart.com/badrinarainjagdishnarain/?pos=57&kwd=baby walkers&tags=A||||8601.347|Price|product|||TS|rsf:gd-|-stype:attr=1|qr_nm:gd|res:RC4|com-cf:nl|ptrs:na|ktp:N0|mc:22735|mtp:S|qry_typ:P|lang:en|wc:2|cs:8835|v=4,False,Brahampuri,Jaipur,"1, Agrensen Nagar, Brahampuri, Jaipur - 302002, Dist.Jaipur, Rajasthan",7942703966,
"Multicolor Plastic and Stainless Steel Baby Activity Walker, Six to Eighteen Months, Packaging Type: Box",https://www.indiamart.com/proddetail/baby-activity-walker-2855024884212.html?pos=58&kwd=baby walkers&tags=A||||8230.883|Price|product|||TS|rsf:gd-|-stype:attr=1|qr_nm:gd|res:RC4|com-cf:nl|ptrs:na|ktp:N0|mc:22735|mtp:S|qry_typ:P|lang:en|wc:2|cs:8835|v=4,Aenci Enterprise,https://www.indiamart.com/aencienterprise/?pos=58&kwd=baby walkers&tags=A||||8230.883|Price|product|||TS|rsf:gd-|-stype:attr=1|qr_nm:gd|res:RC4|com-cf:nl|ptrs:na|ktp:N0|mc:22735|mtp:S|qry_typ:P|lang:en|wc:2|cs:8835|v=4,False,,Surat,"Basement, A/2, Lackview Appartment, Near Kasa Nagar, Mota Talav, Japti Faliya, Laxmikant Road Opposite Lackview Garden, Katargam, Surat - 395004, Dist.Surat, Gujarat",7949358264,
"70 Cm Stainless Steel,Plastic Musical Baby Walker, 8 Wheels",https://www.indiamart.com/proddetail/musical-baby-walker-22708309973.html?pos=59&kwd=baby walkers&tags=A||||8752.144|Price|product|||TS|rsf:gd-|-stype:attr=1|qr_nm:gd|res:RC4|com-cf:nl|ptrs:na|ktp:N0|mc:22735|mtp:S|qry_typ:P|lang:en|wc:2|cs:8835|v=4,Mayur Steel Furniture,https://www.stylemayur.com/?pos=59&kwd=baby walkers&tags=A||||8752.144|Price|product|||TS|rsf:gd-|-stype:attr=1|qr_nm:gd|res:RC4|com-cf:nl|ptrs:na|ktp:N0|mc:22735|mtp:S|qry_typ:P|lang:en|wc:2|cs:8835|v=4,False,Multani Dhanda,New Delhi,"9525 Street No. 13 Multani Dhanda Paharganj since 1989, Multani Dhanda, New Delhi - 110055, Dist.Delhi, Delhi",8047635904,
Green Plastic Baby Walker,https://www.indiamart.com/proddetail/green-plastic-baby-walker-26460219991.html?pos=60&kwd=baby walkers&tags=A||||8461.862|Price|product|||MDC|rsf:gd-|-stype:attr=1|qr_nm:gd|res:RC4|com-cf:nl|ptrs:na|ktp:N0|mc:22735|mtp:S|qry_typ:P|lang:en|wc:2|cs:8835|v=4,Arjun Cycle & Auto Tyres,https://www.indiamart.com/arjuncycleautotyres/?pos=60&kwd=baby walkers&tags=A||||8461.862|Price|product|||MDC|rsf:gd-|-stype:attr=1|qr_nm:gd|res:RC4|com-cf:nl|ptrs:na|ktp:N0|mc:22735|mtp:S|qry_typ:P|lang:en|wc:2|cs:8835|v=4,False,Vidyut Nagar,Bhilwara,"G-10, Ganesh Plaza, Near Bus Stand,, Vidyut Nagar, Bhilwara - 311001, Dist.Bhilwara, Rajasthan",8044565909,
Baby Walker,https://www.indiamart.com/proddetail/baby-walker-2852948046655.html?pos=61&kwd=baby walkers&tags=A||||8752.144|Price|product|||MDC|rsf:gd-|-stype:attr=1|qr_nm:gd|res:RC4|com-cf:nl|ptrs:na|ktp:N0|mc:22735|mtp:S|qry_typ:P|lang:en|wc:2|cs:8835|v=4,Juneja Steel Furniture,https://www.indiamart.com/juneja-steel-furniture/?pos=61&kwd=baby walkers&tags=A||||8752.144|Price|product|||MDC|rsf:gd-|-stype:attr=1|qr_nm:gd|res:RC4|com-cf:nl|ptrs:na|ktp:N0|mc:22735|mtp:S|qry_typ:P|lang:en|wc:2|cs:8835|v=4,False,Multani Dhanda,New Delhi,"9523/13 Multani Dhanda Pahar Ganj, Multani Dhanda, New Delhi - 110055, Dist.Delhi, Delhi",8047824106,
Wooden Nadavandi,https://www.indiamart.com/proddetail/wooden-nadavandi-2853158072630.html?pos=62&kwd=baby walkers&tags=A||||8619.136|Price|product|||MDC|rsf:gd-|-stype:attr=1|qr_nm:gd|res:RC4|com-cf:nl|ptrs:na|ktp:N0|mc:22735|mtp:S|qry_typ:P|lang:en|wc:2|cs:8835|v=4,Sri Sabari Sawmill Timbers And Furnitures,https://www.indiamart.com/srisabari-sawmilltimbers-furnitures/?pos=62&kwd=baby walkers&tags=A||||8619.136|Price|product|||MDC|rsf:gd-|-stype:attr=1|qr_nm:gd|res:RC4|com-cf:nl|ptrs:na|ktp:N0|mc:22735|mtp:S|qry_typ:P|lang:en|wc:2|cs:8835|v=4,False,Kalluranikkadu,Thanjavur,"205/10-G, Main Road, Ottangadu, Pattukkottai, Kalluranikkadu, Thanjavur - 614803, Dist.Thanjavur, Tamil Nadu",7942560270,
"Brown Wooden Baby Walker, One to Two Years",https://www.indiamart.com/proddetail/baby-wooden-walker-2854574276373.html?pos=63&kwd=baby walkers&tags=A||||8954.051||product|||MDC|rsf:gd-|-stype:attr=1|qr_nm:gd|res:RC4|com-cf:nl|ptrs:na|ktp:N0|mc:22735|mtp:S|qry_typ:P|lang:en|wc:2|cs:8835|v=4,Saishivraj Traders,https://www.indiamart.com/saishivraj-traders/?pos=63&kwd=baby walkers&tags=A||||8954.051||product|||MDC|rsf:gd-|-stype:attr=1|qr_nm:gd|res:RC4|com-cf:nl|ptrs:na|ktp:N0|mc:22735|mtp:S|qry_typ:P|lang:en|wc:2|cs:8835|v=4,False,,Chennai,"9, 1/483, Vionayagapuram, Mugalivakkam, Chennai - 600125, Dist.Chennai, Tamil Nadu",7949322707,
"Dash Star Hunny Baby Walker Kids Activity Walker, 6",https://www.indiamart.com/proddetail/dash-star-hunny-baby-walker-kids-activity-walker-25724043688.html?pos=64&kwd=baby walkers&tags=A||||8752.144|Price|product|||TS|rsf:gd-|-stype:attr=1|qr_nm:gd|res:RC4|com-cf:nl|ptrs:na|ktp:N0|mc:22735|mtp:S|qry_typ:P|lang:en|wc:2|cs:8835|v=4,Ashish Trading Co.,https://www.indiamart.com/ashish-trading/?pos=64&kwd=baby walkers&tags=A||||8752.144|Price|product|||TS|rsf:gd-|-stype:attr=1|qr_nm:gd|res:RC4|com-cf:nl|ptrs:na|ktp:N0|mc:22735|mtp:S|qry_typ:P|lang:en|wc:2|cs:8835|v=4,False,Shalimar Bagh,New Delhi,"BC- 67 A, East Shalimar Bagh, Kela Godown Road Shalimar, Shalimar Bagh, New Delhi - 110088, Dist.Delhi, Delhi",8048979347,
"Multicolor Plastic Musical Baby Walker, Packaging Type: Box",https://www.indiamart.com/proddetail/musical-baby-walker-2853996121133.html?pos=65&kwd=baby walkers&tags=BA||||8752.144|Price|product|||TS|rsf:gd-|-stype:attr=1|qr_nm:gd|res:RC4|com-cf:nl|ptrs:na|ktp:N0|mc:22735|mtp:S|qry_typ:P|lang:en|wc:2|cs:8835|v=4,Krishna Toys,https://www.indiamart.com/krishnatoys/?pos=65&kwd=baby walkers&tags=BA||||8752.144|Price|product|||TS|rsf:gd-|-stype:attr=1|qr_nm:gd|res:RC4|com-cf:nl|ptrs:na|ktp:N0|mc:22735|mtp:S|qry_typ:P|lang:en|wc:2|cs:8835|v=4,False,Teliwara,New Delhi,"2495,Teliwara Chowk,New Qutab Road,Sadar Bazar,Central, Teliwara, New Delhi - 110006, Dist.Delhi, Delhi",8044013544,
Plastic Baby Walkers,https://www.indiamart.com/proddetail/baby-walkers-2852538652597.html?pos=66&kwd=baby walkers&tags=A||||8231.259|Price|product|||TS|rsf:gd-|-stype:attr=1|qr_nm:gd|res:RC4|com-cf:nl|ptrs:na|ktp:N0|mc:22735|mtp:S|qry_typ:P|lang:en|wc:2|cs:8835|v=4,Shivam Marketing,https://www.indiamart.com/shivammarketing-maharashtra/?pos=66&kwd=baby walkers&tags=A||||8231.259|Price|product|||TS|rsf:gd-|-stype:attr=1|qr_nm:gd|res:RC4|com-cf:nl|ptrs:na|ktp:N0|mc:22735|mtp:S|qry_typ:P|lang:en|wc:2|cs:8835|v=4,False,Dapode,Bhiwandi,"Building No- F, Gala No- 104, 105, 106, 107, First Floor, Jai Shri Ram Complex,, Dapode, Bhiwandi - 421302, Maharashtra",8043862956,
"34 Plastic Baby Walkers Toys, 4",https://www.indiamart.com/proddetail/baby-walkers-toys-2850621051033.html?pos=67&kwd=baby walkers&tags=A||||8230.883|Price|product|||TS|rsf:gd-|-stype:attr=1|qr_nm:gd|res:RC4|com-cf:nl|ptrs:na|ktp:N0|mc:22735|mtp:S|qry_typ:P|lang:en|wc:2|cs:8835|v=4,Khilona House,https://www.indiamart.com/khilona-house-surat/?pos=67&kwd=baby walkers&tags=A||||8230.883|Price|product|||TS|rsf:gd-|-stype:attr=1|qr_nm:gd|res:RC4|com-cf:nl|ptrs:na|ktp:N0|mc:22735|mtp:S|qry_typ:P|lang:en|wc:2|cs:8835|v=4,False,Singanpor,Surat,"SY.No.-0047, Plot A/19, First, Madhav Mandir Society-1, Dabholi Road, Katargam, Singanpor, Surat - 395004, Dist.Surat, Gujarat",8047783031,
"Blue Plastic Baby Activity Walker, One to Two Years",https://www.indiamart.com/proddetail/baby-activity-walker-2854474391248.html?pos=68&kwd=baby walkers&tags=A||||8752.144||product|||TS|rsf:gd-|-stype:attr=1|qr_nm:gd|res:RC4|com-cf:nl|ptrs:na|ktp:N0|mc:22735|mtp:S|qry_typ:P|lang:en|wc:2|cs:8835|v=4,Kay Kay Plastic,https://www.indiamart.com/kaykay-plastic/?pos=68&kwd=baby walkers&tags=A||||8752.144||product|||TS|rsf:gd-|-stype:attr=1|qr_nm:gd|res:RC4|com-cf:nl|ptrs:na|ktp:N0|mc:22735|mtp:S|qry_typ:P|lang:en|wc:2|cs:8835|v=4,False,Subhash Nagar,New Delhi,"J-52, Milap Market, Beriwala Bagh, Hari Nagar, Subhash Nagar, New Delhi - 110059, Dist.Delhi, Delhi",8048958380,
"Wooden Kids Walker, 2",https://www.indiamart.com/proddetail/wooden-kids-walker-2852395643291.html?pos=69&kwd=baby walkers&tags=A||||8211.142|Price|product|||TS|rsf:gd-|-stype:attr=1|qr_nm:gd|res:RC4|com-cf:nl|ptrs:na|ktp:N0|mc:22735|mtp:S|qry_typ:P|lang:en|wc:2|cs:8835|v=4,Hertha Nest,https://www.indiamart.com/hertha-nest/?pos=69&kwd=baby walkers&tags=A||||8211.142|Price|product|||TS|rsf:gd-|-stype:attr=1|qr_nm:gd|res:RC4|com-cf:nl|ptrs:na|ktp:N0|mc:22735|mtp:S|qry_typ:P|lang:en|wc:2|cs:8835|v=4,False,Kandivali East,Mumbai,"D 504, 5Th Floor, Reviera, Sector II, Lokhandwala Township, Akurli Road, Near Sai Baba Temple, Kandivali East, Mumbai - 400101, Dist.Mumbai, Maharashtra",7942826397,
"Multicolor shree hans creation Baby Moon Walker, For Personal",https://www.indiamart.com/proddetail/shree-hans-creation-baby-moon-walker-24751729633.html?pos=70&kwd=baby walkers&tags=A||||8230.883|Price|product|||TS|rsf:gd-|-stype:attr=1|qr_nm:gd|res:RC4|com-cf:nl|ptrs:na|ktp:N0|mc:22735|mtp:S|qry_typ:P|lang:en|wc:2|cs:8835|v=4,Ankita Jeetubhai Lokdiya,https://www.hanscart.com/?pos=70&kwd=baby walkers&tags=A||||8230.883|Price|product|||TS|rsf:gd-|-stype:attr=1|qr_nm:gd|res:RC4|com-cf:nl|ptrs:na|ktp:N0|mc:22735|mtp:S|qry_typ:P|lang:en|wc:2|cs:8835|v=4,False,Katargam,Surat,"Block No.82, Plot No.C1, Ground Floor, Palod, Nr.Bank Of India, Nr.Kim Chowkdi, Kim, Katargam, Surat - 394110, Dist.Surat, Gujarat",8046041344,
Pink Plastic KIDS BABY WALKER,https://www.indiamart.com/proddetail/kids-baby-walker-2853221673273.html?pos=71&kwd=baby walkers&tags=A||||8211.142|Price|product|||TS|rsf:gd-|-stype:attr=1|qr_nm:gd|res:RC4|com-cf:nl|ptrs:na|ktp:N0|mc:22735|mtp:S|qry_typ:P|lang:en|wc:2|cs:8835|v=4,A.K.N Traders,https://www.akntraders.com/?pos=71&kwd=baby walkers&tags=A||||8211.142|Price|product|||TS|rsf:gd-|-stype:attr=1|qr_nm:gd|res:RC4|com-cf:nl|ptrs:na|ktp:N0|mc:22735|mtp:S|qry_typ:P|lang:en|wc:2|cs:8835|v=4,False,Mazgaon Road,Mumbai,"25th Floor, 250, Saifee Park, Mascrenhas Road, Mazogaon,, Mazgaon Road, Mumbai - 400010, Dist.Mumbai, Maharashtra",7942869187,
Plastic Round Baby Walker,https://www.indiamart.com/proddetail/round-baby-walker-2853693482362.html?pos=72&kwd=baby walkers&tags=A||||8785.791|Price|product|||MDC|rsf:gd-|-stype:attr=1|qr_nm:gd|res:RC4|com-cf:nl|ptrs:na|ktp:N0|mc:22735|mtp:S|qry_typ:P|lang:en|wc:2|cs:8835|v=4,M K Industries,https://www.indiamart.com/mk-industries-uttarpradesh/?pos=72&kwd=baby walkers&tags=A||||8785.791|Price|product|||MDC|rsf:gd-|-stype:attr=1|qr_nm:gd|res:RC4|com-cf:nl|ptrs:na|ktp:N0|mc:22735|mtp:S|qry_typ:P|lang:en|wc:2|cs:8835|v=4,False,Rampuri,Ghaziabad,"Ground Floor,Kh No-77,Dhtc Compound,Delhi Up Border,Sahibabad,Ghaziabad,Ghaziabad, Rampuri, Ghaziabad - 201005, Dist.Ghaziabad, Uttar Pradesh",7949086935,
"Blue Plastic and Stainless Steel 8 Wheels Baby Walker, Four to Twelve Months",https://www.indiamart.com/proddetail/8-wheels-baby-walker-2854995338555.html?pos=73&kwd=baby walkers&tags=A||||8752.144|Price|product|||MDC|rsf:gd-|-stype:attr=1|qr_nm:gd|res:RC4|com-cf:nl|ptrs:na|ktp:N0|mc:22735|mtp:S|qry_typ:P|lang:en|wc:2|cs:8835|v=4,Arpit Enterprises,https://www.indiamart.com/arpitenterpriseseastdelhi/?pos=73&kwd=baby walkers&tags=A||||8752.144|Price|product|||MDC|rsf:gd-|-stype:attr=1|qr_nm:gd|res:RC4|com-cf:nl|ptrs:na|ktp:N0|mc:22735|mtp:S|qry_typ:P|lang:en|wc:2|cs:8835|v=4,False,East Delhi,New Delhi,"X/3664, Gali No-4, Shanti Mohalla Gandhi Nagar, East Delhi, New Delhi - 110031, Dist.Delhi, Delhi",8044017997,
"Red Baby SS Plastic Wheeled Walker, Six to Eighteen Months",https://www.indiamart.com/proddetail/baby-ss-plastic-wheeled-walker-2855070460088.html?pos=74&kwd=baby walkers&tags=A||||8785.791|Price|product|||MDC|rsf:gd-|-stype:attr=1|qr_nm:gd|res:RC4|com-cf:nl|ptrs:na|ktp:N0|mc:22735|mtp:S|qry_typ:P|lang:en|wc:2|cs:8835|v=4,ATS Toys,https://www.indiamart.com/atstoys/?pos=74&kwd=baby walkers&tags=A||||8785.791|Price|product|||MDC|rsf:gd-|-stype:attr=1|qr_nm:gd|res:RC4|com-cf:nl|ptrs:na|ktp:N0|mc:22735|mtp:S|qry_typ:P|lang:en|wc:2|cs:8835|v=4,False,,Ghaziabad,"Plot No - 20,Harnarayan Gopi Nath Compound , Up Borders , S B D, Ghaziabad - 201001, Dist.Ghaziabad, Uttar Pradesh",7949306158,
Fancy Baby Walker,https://www.indiamart.com/proddetail/fancy-baby-walker-2853816992088.html?pos=75&kwd=baby walkers&tags=A||||8230.883|Price|product|||MDC|rsf:gd-|-stype:attr=1|qr_nm:gd|res:RC4|com-cf:nl|ptrs:na|ktp:N0|mc:22735|mtp:S|qry_typ:P|lang:en|wc:2|cs:8835|v=4,Jay Impex,https://www.indiamart.com/jayimpexsurat/?pos=75&kwd=baby walkers&tags=A||||8230.883|Price|product|||MDC|rsf:gd-|-stype:attr=1|qr_nm:gd|res:RC4|com-cf:nl|ptrs:na|ktp:N0|mc:22735|mtp:S|qry_typ:P|lang:en|wc:2|cs:8835|v=4,False,Athwa,Surat,"1st Floor, 77, Narmad Nagar Soc, Hirabaug,, Athwa, Surat - 395006, Dist.Surat, Gujarat",7942713335,
Panda Baby walker seat clothes.,https://www.indiamart.com/proddetail/panda-baby-walker-seat-clothes-2854473484748.html?pos=76&kwd=baby walkers&tags=A||||8230.883|Price|product|||MDC|rsf:gd-|-stype:attr=1|qr_nm:gd|res:RC4|com-cf:nl|ptrs:na|ktp:N0|mc:22735|mtp:S|qry_typ:P|lang:en|wc:2|cs:8835|v=4,Shiv Marketing,https://www.indiamart.com/shivmarketing/?pos=76&kwd=baby walkers&tags=A||||8230.883|Price|product|||MDC|rsf:gd-|-stype:attr=1|qr_nm:gd|res:RC4|com-cf:nl|ptrs:na|ktp:N0|mc:22735|mtp:S|qry_typ:P|lang:en|wc:2|cs:8835|v=4,False,Katargam,Surat,"2nd Floor Blog-F, Flat 201, Shivam Avenue, Singanpore Dabholi Road, Katargam,, Katargam, Surat - 395004, Dist.Surat, Gujarat",7949093095,
Baby Walker .,https://www.indiamart.com/proddetail/baby-walker-2853678735530.html?pos=77&kwd=baby walkers&tags=A||||8752.144|Price|product|||MDC|rsf:gd-|-stype:attr=1|qr_nm:gd|res:RC4|com-cf:nl|ptrs:na|ktp:N0|mc:22735|mtp:S|qry_typ:P|lang:en|wc:2|cs:8835|v=4,Aryan Enterprises,https://www.indiamart.com/aryan-enterprises-mustafabadnewdelhi/?pos=77&kwd=baby walkers&tags=A||||8752.144|Price|product|||MDC|rsf:gd-|-stype:attr=1|qr_nm:gd|res:RC4|com-cf:nl|ptrs:na|ktp:N0|mc:22735|mtp:S|qry_typ:P|lang:en|wc:2|cs:8835|v=4,False,Mustafabad,New Delhi,"First Floor, D-206, Kh. No. - 353, Near Noor Masjid, Gali No.- 15, Mustafabad Old, North East Delhi, Mustafabad, New Delhi - 110094, Dist.Delhi, Delhi",8045167436,
"12inch Plastic Adjustable Baby Walker, 4 Wheels",https://www.indiamart.com/proddetail/adjustable-baby-walker-27135113055.html?pos=78&kwd=baby walkers&tags=A||||9839.57|Price|product|||MDC|rsf:gd-|-stype:attr=1|qr_nm:gd|res:RC4|com-cf:nl|ptrs:na|ktp:N0|mc:22735|mtp:S|qry_typ:P|lang:en|wc:2|cs:8835|v=4,Infinity International,https://www.indiamart.com/infinity-internationalkolkata/?pos=78&kwd=baby walkers&tags=A||||9839.57|Price|product|||MDC|rsf:gd-|-stype:attr=1|qr_nm:gd|res:RC4|com-cf:nl|ptrs:na|ktp:N0|mc:22735|mtp:S|qry_typ:P|lang:en|wc:2|cs:8835|v=4,False,Bbd Bagh,Kolkata,"Room NO 12, 1st Floor, 7 Karbulla Mahammad Street, Bbd Bagh, Kolkata - 700001, Dist.Kolkata, West Bengal",8047691138,
"Green Plastic Multifunctional Baby Walker, Four to Twelve Months, Packaging Type: Box",https://www.indiamart.com/proddetail/multifunctional-baby-walker-2854579780448.html?pos=79&kwd=baby walkers&tags=BA||||8226.563|Price|product|||MDC|rsf:gd-|-stype:attr=1|qr_nm:gd|res:RC4|com-cf:nl|ptrs:na|ktp:N0|mc:22735|mtp:S|qry_typ:P|lang:en|wc:2|cs:8835|v=4,Virat,https://www.indiamart.com/virat-maharashtra/?pos=79&kwd=baby walkers&tags=BA||||8226.563|Price|product|||MDC|rsf:gd-|-stype:attr=1|qr_nm:gd|res:RC4|com-cf:nl|ptrs:na|ktp:N0|mc:22735|mtp:S|qry_typ:P|lang:en|wc:2|cs:8835|v=4,False,,Navi Mumbai,"Ground Floor,Shop No. 6,Merchant Center,Plot No. 14D,Sector 19,Next To Kailash Enterprises Vashi, Navi Mumbai - 400703, Dist.Thane, Maharashtra",7949324680,
"38cm Plastic And Stainless Steel Round Baby Walker, 8 Wheels",https://www.indiamart.com/proddetail/round-baby-walker-2849549246397.html?pos=80&kwd=baby walkers&tags=BA||||8752.144|Price|product|||MDC|rsf:gd-|-stype:attr=1|qr_nm:gd|res:RC4|com-cf:nl|ptrs:na|ktp:N0|mc:22735|mtp:S|qry_typ:P|lang:en|wc:2|cs:8835|v=4,Ride Well,https://www.indiamart.com/ridewell/?pos=80&kwd=baby walkers&tags=BA||||8752.144|Price|product|||MDC|rsf:gd-|-stype:attr=1|qr_nm:gd|res:RC4|com-cf:nl|ptrs:na|ktp:N0|mc:22735|mtp:S|qry_typ:P|lang:en|wc:2|cs:8835|v=4,False,Dilshad Garden,New Delhi,"Plot No. 13, Damodar Park Indl. Area, Opp. Dilshad Garden, Telephone Exchange, East Delhi, Dilshad Garden, New Delhi - 110095, Dist.Delhi, Delhi",7942791990,
Baby Walker 20,https://www.indiamart.com/proddetail/baby-walker-20-2850546977848.html?pos=81&kwd=baby walkers&tags=BA||||8752.144|Price|product|||MDC|rsf:gd-|-stype:attr=1|qr_nm:gd|res:RC4|com-cf:nl|ptrs:na|ktp:N0|mc:22735|mtp:S|qry_typ:P|lang:en|wc:2|cs:8835|v=4,Vikas Enterprises,https://www.indiamart.com/vikasentp-delhi/?pos=81&kwd=baby walkers&tags=BA||||8752.144|Price|product|||MDC|rsf:gd-|-stype:attr=1|qr_nm:gd|res:RC4|com-cf:nl|ptrs:na|ktp:N0|mc:22735|mtp:S|qry_typ:P|lang:en|wc:2|cs:8835|v=4,False,Nangloi,New Delhi,"HN 35, Tyagi Colony, Rajendra Park, Main Rohtak Road Nangloi, Nangloi, New Delhi - 110041, Dist.Delhi, Delhi",8046065409,
"Material: Steel Silver DICTORA CROME FOLDING ZIGZAG WALKER, For Personal",https://www.indiamart.com/proddetail/dictora-crome-folding-zigzag-walker-2851561242091.html?pos=82&kwd=baby walkers&tags=BB||||8601.347|Price|product|||TS|rsf:gd-|-stype:attr=1|qr_nm:gd|res:RC4|com-cf:nl|ptrs:na|ktp:N0|mc:22735|mtp:S|qry_typ:P|lang:en|wc:2|cs:8835|v=4,Medipharm Global,https://www.indiamart.com/medipharmglobal/?pos=82&kwd=baby walkers&tags=BB||||8601.347|Price|product|||TS|rsf:gd-|-stype:attr=1|qr_nm:gd|res:RC4|com-cf:nl|ptrs:na|ktp:N0|mc:22735|mtp:S|qry_typ:P|lang:en|wc:2|cs:8835|v=4,False,Jhotwara,Jaipur,"R. G Plaza, X-02B, Chandra Nagar, Kardhani Scheme, Kalwar Road, Jhotwara, Jaipur - 302012, Dist.Jaipur, Rajasthan",8047653066,
Plastic Baby Activity Walker Toy,https://www.indiamart.com/proddetail/baby-activity-walker-toy-19379799891.html?pos=83&kwd=baby walkers&tags=BA||||8752.144|Price|product|||TS|rsf:gd-|-stype:attr=1|qr_nm:gd|res:RC4|com-cf:nl|ptrs:na|ktp:N0|mc:22735|mtp:S|qry_typ:P|lang:en|wc:2|cs:8835|v=4,Shri Krishna Trading,https://www.indiamart.com/shrikrishna-trading/?pos=83&kwd=baby walkers&tags=BA||||8752.144|Price|product|||TS|rsf:gd-|-stype:attr=1|qr_nm:gd|res:RC4|com-cf:nl|ptrs:na|ktp:N0|mc:22735|mtp:S|qry_typ:P|lang:en|wc:2|cs:8835|v=4,False,Pitampura,New Delhi,"WZ-351, Pitampura, New Delhi - 110034, Dist.Delhi, Delhi",8047634011,
"Plastic and Stainless Steel White Baby Walker, Four to Twelve Months, Packaging Type: Box",https://www.indiamart.com/proddetail/white-baby-walker-2854679337612.html?pos=84&kwd=baby walkers&tags=BB||||9839.57|Price|product|||TS|rsf:gd-|-stype:attr=1|qr_nm:gd|res:RC4|com-cf:nl|ptrs:na|ktp:N0|mc:22735|mtp:S|qry_typ:P|lang:en|wc:2|cs:8835|v=4,Puva Marketing Private Limited,https://www.indiamart.com/puva-marketing/?pos=84&kwd=baby walkers&tags=BB||||9839.57|Price|product|||TS|rsf:gd-|-stype:attr=1|qr_nm:gd|res:RC4|com-cf:nl|ptrs:na|ktp:N0|mc:22735|mtp:S|qry_typ:P|lang:en|wc:2|cs:8835|v=4,False,,Kolkata,"3rd Floor, Room No. 324, Poddar Court, 18, Rabindra Sarani, Gate No. 2, Near Raymond Showroom, Kolkata - 700001, Dist.Kolkata, West Bengal",8046076676,
Wooden Walker Cycle for Kids - Children Toys for Kids Activity Walker for Baby & Kids for 1 Years,https://www.indiamart.com/proddetail/wooden-walker-cycle-for-kids-children-toys-for-kids-activity-walker-for-baby-kids-for-1-years-2848953129597.html?pos=85&kwd=baby walkers&tags=BA||||8732.092|Price|product|||TS|rsf:gd-|-stype:attr=1|qr_nm:gd|res:RC4|com-cf:nl|ptrs:na|ktp:N0|mc:22735|mtp:S|qry_typ:P|lang:en|wc:2|cs:8835|v=4,Top art enterprises,https://www.toptoyed.com/?pos=85&kwd=baby walkers&tags=BA||||8732.092|Price|product|||TS|rsf:gd-|-stype:attr=1|qr_nm:gd|res:RC4|com-cf:nl|ptrs:na|ktp:N0|mc:22735|mtp:S|qry_typ:P|lang:en|wc:2|cs:8835|v=4,False,,Manesar,"NH-8, IMT Chowk Flyover, Sector 2, Near Haryana Hardware Store, IMT Manesar, Manesar - 122051, Dist.Gurgaon, Haryana",7942562433,
Baby Walker Adjustable wth Parental Handle,https://www.indiamart.com/proddetail/baby-walker-adjustable-wth-parental-handle-2854089089755.html?pos=86&kwd=baby walkers&tags=BA||||9839.57|Price|product|||TS|rsf:gd-|-stype:attr=1|qr_nm:gd|res:RC4|com-cf:nl|ptrs:na|ktp:N0|mc:22735|mtp:S|qry_typ:P|lang:en|wc:2|cs:8835|v=4,Mittal Traders,https://www.mittaltraderskolkata.com/?pos=86&kwd=baby walkers&tags=BA||||9839.57|Price|product|||TS|rsf:gd-|-stype:attr=1|qr_nm:gd|res:RC4|com-cf:nl|ptrs:na|ktp:N0|mc:22735|mtp:S|qry_typ:P|lang:en|wc:2|cs:8835|v=4,False,Lalbazar,Kolkata,"Mercantile Building, 9/12, Lal Bazar Street, Lalbazar, Kolkata - 700001, Dist.Kolkata, West Bengal",7942531952,
Baby Walker Cum Rocker,https://www.indiamart.com/proddetail/baby-walker-cum-rocker-2849842878830.html?pos=87&kwd=baby walkers&tags=BA||||9140.514|Price|product|||TS|rsf:gd-|-stype:attr=1|qr_nm:gd|res:RC4|com-cf:nl|ptrs:na|ktp:N0|mc:22735|mtp:S|qry_typ:P|lang:en|wc:2|cs:8835|v=4,S P Toys,https://www.sptoys.in/?pos=87&kwd=baby walkers&tags=BA||||9140.514|Price|product|||TS|rsf:gd-|-stype:attr=1|qr_nm:gd|res:RC4|com-cf:nl|ptrs:na|ktp:N0|mc:22735|mtp:S|qry_typ:P|lang:en|wc:2|cs:8835|v=4,False,Chowk,Raipur,"Sharda Chowk, M.G.Road, Chowk, Raipur - 492001, Chhattisgarh",8043850980,
"Plastic Single Horn Grip Baby Walker, Packaging Type: 40 Piece Pack",https://www.indiamart.com/proddetail/single-horn-grip-baby-walker-2852963166533.html?pos=88&kwd=baby walkers&tags=BA||||8752.144|Price|product|||TS|rsf:gd-|-stype:attr=1|qr_nm:gd|res:RC4|com-cf:nl|ptrs:na|ktp:N0|mc:22735|mtp:S|qry_typ:P|lang:en|wc:2|cs:8835|v=4,Shree Shyam Enterprises,https://www.indiamart.com/shreeshyamenterpriseskarwalnagar/?pos=88&kwd=baby walkers&tags=BA||||8752.144|Price|product|||TS|rsf:gd-|-stype:attr=1|qr_nm:gd|res:RC4|com-cf:nl|ptrs:na|ktp:N0|mc:22735|mtp:S|qry_typ:P|lang:en|wc:2|cs:8835|v=4,False,Karawal Nagar,New Delhi,"Kh No. 230, Nr-P-M-C Factory, Village- Karawal Nagar, Shahdara, Karawal Nagar, New Delhi - 110094, Dist.Delhi, Delhi",7942871443,
Adjustable Baby Walker,https://www.indiamart.com/proddetail/adjustable-baby-walker-9950719130.html?pos=89&kwd=baby walkers&tags=BB||||8752.144|Price|product|||TS|rsf:gd-|-stype:attr=1|qr_nm:gd|res:RC4|com-cf:nl|ptrs:na|ktp:N0|mc:22735|mtp:S|qry_typ:P|lang:en|wc:2|cs:8835|v=4,Asha Products,https://www.indiamart.com/ashaindustries-delhi/?pos=89&kwd=baby walkers&tags=BB||||8752.144|Price|product|||TS|rsf:gd-|-stype:attr=1|qr_nm:gd|res:RC4|com-cf:nl|ptrs:na|ktp:N0|mc:22735|mtp:S|qry_typ:P|lang:en|wc:2|cs:8835|v=4,False,pooth khurd,New Delhi,"340-341, khasra no 155, pooth khurd industrial area, pooth khurd, New Delhi - 110039, Dist.Delhi, Delhi",8048963286,
"Plastic BABY WALKER HANDEL WITH HOOD, Age Group: 3-12 Months, 8",https://www.indiamart.com/proddetail/baby-walker-handel-with-hood-22032159262.html?pos=90&kwd=baby walkers&tags=BA||||8752.144|Price|product|||TS|rsf:gd-|-stype:attr=1|qr_nm:gd|res:RC4|com-cf:nl|ptrs:na|ktp:N0|mc:22735|mtp:S|qry_typ:P|lang:en|wc:2|cs:8835|v=4,Giriraj Enterprises,https://www.indiamart.com/giriraj-enterprises-delhi/?pos=90&kwd=baby walkers&tags=BA||||8752.144|Price|product|||TS|rsf:gd-|-stype:attr=1|qr_nm:gd|res:RC4|com-cf:nl|ptrs:na|ktp:N0|mc:22735|mtp:S|qry_typ:P|lang:en|wc:2|cs:8835|v=4,False,Shakurpur,New Delhi,"WZ 313 A, Shakurpur Village, Shakurpur, New Delhi - 110034, Dist.Delhi, Delhi",8048262415,
"Grey And Pink Plastic Kids Adjustable Walker, Four to Twelve Months, Packaging Type: Box",https://www.indiamart.com/proddetail/kids-adjustable-walker-2854434647197.html?pos=91&kwd=baby walkers&tags=BB||||8752.144|Price|product|||TS|rsf:gd-|-stype:attr=1|qr_nm:gd|res:RC4|com-cf:nl|ptrs:na|ktp:N0|mc:22735|mtp:S|qry_typ:P|lang:en|wc:2|cs:8835|v=4,Gupta Enterprises,https://www.childcraft.in.net/?pos=91&kwd=baby walkers&tags=BB||||8752.144|Price|product|||TS|rsf:gd-|-stype:attr=1|qr_nm:gd|res:RC4|com-cf:nl|ptrs:na|ktp:N0|mc:22735|mtp:S|qry_typ:P|lang:en|wc:2|cs:8835|v=4,False,Bawana,New Delhi,"Basement, Ground Floor, Plot No 10, PKT.N Sec 5, Bawana, DSIDC, North West Delhi, Bawana, New Delhi - 110039, Dist.Delhi, Delhi",8044562618,
"Pink Baby Walker, Four to Twelve Months, Packaging Type: Plastic Packing",https://www.indiamart.com/proddetail/baby-walker-2854587605730.html?pos=92&kwd=baby walkers&tags=BA||||8226.563|Price|product|||TS|rsf:gd-|-stype:attr=1|qr_nm:gd|res:RC4|com-cf:nl|ptrs:na|ktp:N0|mc:22735|mtp:S|qry_typ:P|lang:en|wc:2|cs:8835|v=4,Kailash Enterprises,https://www.kailashenterprisesvashi.com/?pos=92&kwd=baby walkers&tags=BA||||8226.563|Price|product|||TS|rsf:gd-|-stype:attr=1|qr_nm:gd|res:RC4|com-cf:nl|ptrs:na|ktp:N0|mc:22735|mtp:S|qry_typ:P|lang:en|wc:2|cs:8835|v=4,False,Sanpada,Navi Mumbai,"SHOP NO. 07,,MERCHANT CENTER, patel, Sanpada, Navi Mumbai - 400705, Dist.Thane, Maharashtra",8047672246,
Baby Walker Tinny,https://www.indiamart.com/proddetail/baby-walker-tinny-26303197448.html?pos=93&kwd=baby walkers&tags=BA||||8752.144|Price|product|||TS|rsf:gd-|-stype:attr=1|qr_nm:gd|res:RC4|com-cf:nl|ptrs:na|ktp:N0|mc:22735|mtp:S|qry_typ:P|lang:en|wc:2|cs:8835|v=4,Kumar Brothers,https://www.indiamart.com/kumarbrothersdelhi/?pos=93&kwd=baby walkers&tags=BA||||8752.144|Price|product|||TS|rsf:gd-|-stype:attr=1|qr_nm:gd|res:RC4|com-cf:nl|ptrs:na|ktp:N0|mc:22735|mtp:S|qry_typ:P|lang:en|wc:2|cs:8835|v=4,False,Chandni Chowk,New Delhi,"370, Ground Floor, Kumar Brothers, Esplanade Road, New Lajpat Rai Market, Central Delhi, Chandni Chowk, New Delhi - 110006, Dist.Delhi, Delhi",8043854462,
42 CM Plastic & Steel TURBO 8 BEND CP MUSICAL BABY WALKER,https://www.indiamart.com/proddetail/turbo-8-bend-cp-musical-baby-walker-24127898448.html?pos=94&kwd=baby walkers&tags=BA||||8752.144|Price|product|||TS|rsf:gd-|-stype:attr=1|qr_nm:gd|res:RC4|com-cf:nl|ptrs:na|ktp:N0|mc:22735|mtp:S|qry_typ:P|lang:en|wc:2|cs:8835|v=4,Nishant Industries,https://www.indiamart.com/nishantindustries-newdelhi/?pos=94&kwd=baby walkers&tags=BA||||8752.144|Price|product|||TS|rsf:gd-|-stype:attr=1|qr_nm:gd|res:RC4|com-cf:nl|ptrs:na|ktp:N0|mc:22735|mtp:S|qry_typ:P|lang:en|wc:2|cs:8835|v=4,False,Shastri Nagar,New Delhi,"1/14, Gali No. 4 Rani Garden, Shastri Nagar, Shastri Nagar, New Delhi - 110096, Dist.Delhi, Delhi",8047637221,
Baby Moon Walker,https://www.indiamart.com/proddetail/baby-moon-walker-25476184348.html?pos=95&kwd=baby walkers&tags=BA||||8230.883|Price|product|||TS|rsf:gd-|-stype:attr=1|qr_nm:gd|res:RC4|com-cf:nl|ptrs:na|ktp:N0|mc:22735|mtp:S|qry_typ:P|lang:en|wc:2|cs:8835|v=4,The Guru Shop,https://www.indiamart.com/thegurushop/?pos=95&kwd=baby walkers&tags=BA||||8230.883|Price|product|||TS|rsf:gd-|-stype:attr=1|qr_nm:gd|res:RC4|com-cf:nl|ptrs:na|ktp:N0|mc:22735|mtp:S|qry_typ:P|lang:en|wc:2|cs:8835|v=4,False,Katargam,Surat,"F-33/34, 1st Floor, Radhe Shyam Society, Near Singanpore Char Rasta, Ved Road,, Katargam, Surat - 395004, Dist.Surat, Gujarat",8046037459,
"Stainless Steel,Plastic Baby Walker",https://www.indiamart.com/proddetail/baby-walker-19402053397.html?pos=96&kwd=baby walkers&tags=BA||||8706.587|Price|product|||TS|rsf:gd-|-stype:attr=1|qr_nm:gd|res:RC4|com-cf:nl|ptrs:na|ktp:N0|mc:22735|mtp:S|qry_typ:P|lang:en|wc:2|cs:8835|v=4,Bismi Plastic Stores,https://www.indiamart.com/bismi-plastic-store/?pos=96&kwd=baby walkers&tags=BA||||8706.587|Price|product|||TS|rsf:gd-|-stype:attr=1|qr_nm:gd|res:RC4|com-cf:nl|ptrs:na|ktp:N0|mc:22735|mtp:S|qry_typ:P|lang:en|wc:2|cs:8835|v=4,False,Yanaikkal,Madurai,"5 5A, West Nappalaya Street, Yanaikkal, Madurai - 625001, Dist.Madurai, Tamil Nadu",8048264578,
Imported Baby Walker,https://www.indiamart.com/proddetail/imported-baby-walker-23998202633.html?pos=97&kwd=baby walkers&tags=BB||||8584.299|Price|product|||TS|rsf:gd-|-stype:attr=1|qr_nm:gd|res:RC4|com-cf:nl|ptrs:na|ktp:N0|mc:22735|mtp:S|qry_typ:P|lang:en|wc:2|cs:8835|v=4,Micro Mass Enterprises,https://www.micromassenterprises.com/?pos=97&kwd=baby walkers&tags=BB||||8584.299|Price|product|||TS|rsf:gd-|-stype:attr=1|qr_nm:gd|res:RC4|com-cf:nl|ptrs:na|ktp:N0|mc:22735|mtp:S|qry_typ:P|lang:en|wc:2|cs:8835|v=4,False,Thudiyalur,Coimbatore,"12/211, Thudiyalur, Amarjothi Nagar, Thudiyalur, Coimbatore - 641022, Dist.Coimbatore, Tamil Nadu",8048965974,
"Aluminium Silver Adjustable Baby Walker, Model Name/Number: 912L",https://www.indiamart.com/proddetail/adjustable-baby-walker-14799248991.html?pos=98&kwd=baby walkers&tags=BB||||8954.051|Price|product|||TS|rsf:gd-|-stype:attr=1|qr_nm:gd|res:RC4|com-cf:nl|ptrs:na|ktp:N0|mc:22735|mtp:S|qry_typ:P|lang:en|wc:2|cs:8835|v=4,Sidd Health Zon,https://www.oldagecarepro.com/?pos=98&kwd=baby walkers&tags=BB||||8954.051|Price|product|||TS|rsf:gd-|-stype:attr=1|qr_nm:gd|res:RC4|com-cf:nl|ptrs:na|ktp:N0|mc:22735|mtp:S|qry_typ:P|lang:en|wc:2|cs:8835|v=4,False,Anna Nagar,Chennai,"Ground Floor, AB 102, 104, PKS Arcade, 4th Avenue, Shanthi Colony, Nandhiniee Sweets, Anna Nagar, Anna Nagar, Chennai - 600040, Dist.Chennai, Tamil Nadu",8048986713,
Panda Baby Walker,,Suman Cycle And Kids Zone,https://www.indiamart.com/sumancyclekidszone/?pos=99&kwd=baby walkers&tags=BA||||8786.56|Price|product|||TS|rsf:gd-|-stype:attr=1|qr_nm:gd|res:RC4|com-cf:nl|ptrs:na|ktp:N0|mc:22735|mtp:S|qry_typ:P|lang:en|wc:2|cs:8835|v=4,False,Sanath Nagar,Hyderabad,"H NO 10-10-24 SHOP NO 4,SWAY SOLITAIRE,SANATHNAGAR,Hyderabad, Sanath Nagar, Hyderabad - 500018, Dist.Hyderabad, Telangana",7942959831,
"Plastic Fancy Baby Walker, 8",https://www.indiamart.com/proddetail/fancy-baby-walker-2852136247248.html?pos=100&kwd=baby walkers&tags=BA||||8663.873|Price|product|||TS|rsf:gd-|-stype:attr=1|qr_nm:gd|res:RC4|com-cf:nl|ptrs:na|ktp:N0|mc:22735|mtp:S|qry_typ:P|lang:en|wc:2|cs:8835|v=4,Ratnaakar Impex,https://www.indiamart.com/ratnaakarimpex/?pos=100&kwd=baby walkers&tags=BA||||8663.873|Price|product|||TS|rsf:gd-|-stype:attr=1|qr_nm:gd|res:RC4|com-cf:nl|ptrs:na|ktp:N0|mc:22735|mtp:S|qry_typ:P|lang:en|wc:2|cs:8835|v=4,False,Dharmarayaswamy Temple Street,Bengaluru,"6th Floor, No.6/2, Shop-1, Luciya City Center,Next To Sharada Talkies, OTC Road, Dharmarayaswamy Temple Street, Bengaluru - 560002, Dist.Bengaluru, Karnataka",7942843226,
"Plastic 45 cm Pink Baby Walker, 4",https://www.indiamart.com/proddetail/pink-baby-walker-19830380733.html?pos=101&kwd=baby walkers&tags=BA||||8752.144|Price|product|||TS|rsf:gd-|-stype:attr=1|qr_nm:gd|res:RC4|com-cf:nl|ptrs:na|ktp:N0|mc:22735|mtp:S|qry_typ:P|lang:en|wc:2|cs:8835|v=4,Shaifali Traders,https://www.shopphiez.com/?pos=101&kwd=baby walkers&tags=BA||||8752.144|Price|product|||TS|rsf:gd-|-stype:attr=1|qr_nm:gd|res:RC4|com-cf:nl|ptrs:na|ktp:N0|mc:22735|mtp:S|qry_typ:P|lang:en|wc:2|cs:8835|v=4,False,PATPARGANJ,New Delhi,"Plot No 10, main road patparganj ganj, PATPARGANJ, New Delhi - 110091, Dist.Delhi, Delhi",8046033629,
"40cm Plastic Fancy Baby Walker, 4, 2023",https://www.indiamart.com/proddetail/fancy-baby-walker-2851654497233.html?pos=102&kwd=baby walkers&tags=BA||||8168.6484|Price|product|||TS|rsf:gd-|-stype:attr=1|qr_nm:gd|res:RC4|com-cf:nl|ptrs:na|ktp:N0|mc:22735|mtp:S|qry_typ:P|lang:en|wc:2|cs:8835|v=4,D.K. Enterprise,https://www.indiamart.com/dkenterprise-bhavnagar/?pos=102&kwd=baby walkers&tags=BA||||8168.6484|Price|product|||TS|rsf:gd-|-stype:attr=1|qr_nm:gd|res:RC4|com-cf:nl|ptrs:na|ktp:N0|mc:22735|mtp:S|qry_typ:P|lang:en|wc:2|cs:8835|v=4,False,Bhavnagar,Bhavnagar,"Plot No. 161/a, Gatorbhai Kanzariya Vijayrajnagar, Bhavnagar, Bhavnagar - 364001, Dist.Bhavnagar, Gujarat",7942843262,
Children Walker Duck / playing kids,https://www.indiamart.com/proddetail/children-walker-duck-playing-kids-2851810940273.html?pos=103&kwd=baby walkers&tags=BA||||8230.883|Price|product|||TS|rsf:gd-|-stype:attr=1|qr_nm:gd|res:RC4|com-cf:nl|ptrs:na|ktp:N0|mc:22735|mtp:S|qry_typ:P|lang:en|wc:2|cs:8835|v=4,Rozzby,https://www.cheaperzonetoys.com/?pos=103&kwd=baby walkers&tags=BA||||8230.883|Price|product|||TS|rsf:gd-|-stype:attr=1|qr_nm:gd|res:RC4|com-cf:nl|ptrs:na|ktp:N0|mc:22735|mtp:S|qry_typ:P|lang:en|wc:2|cs:8835|v=4,False,Kosam,Surat,"1st Floor D-2,103 Vip Circle Shlok Recidency Utran, Kosam, Surat - 394105, Dist.Surat, Gujarat",8047622002,
"2.5 Ft Hdpe Plastc+iron Fancy Baby Walker, 6",https://www.indiamart.com/proddetail/fancy-baby-walker-23946263373.html?pos=104&kwd=baby walkers&tags=BA||||8752.144|Price|product|||TS|rsf:gd-|-stype:attr=1|qr_nm:gd|res:RC4|com-cf:nl|ptrs:na|ktp:N0|mc:22735|mtp:S|qry_typ:P|lang:en|wc:2|cs:8835|v=4,Raja Plastic,https://www.rajaplastic.co.in/?pos=104&kwd=baby walkers&tags=BA||||8752.144|Price|product|||TS|rsf:gd-|-stype:attr=1|qr_nm:gd|res:RC4|com-cf:nl|ptrs:na|ktp:N0|mc:22735|mtp:S|qry_typ:P|lang:en|wc:2|cs:8835|v=4,False,Pahari Dhiraj,New Delhi,"1444/45 Main Gali Fayaz Ganj,Bahadurgarh Road, Pahari Dhiraj, New Delhi - 110006, Dist.Delhi, Delhi",8048956783,
40 cm Polypropylene 6 Wheel Pink Round Baby Walker,https://www.indiamart.com/proddetail/6-wheel-pink-round-baby-walker-2850607868597.html?pos=105&kwd=baby walkers&tags=BA||||8752.144|Price|product|||TS|rsf:gd-|-stype:attr=1|qr_nm:gd|res:RC4|com-cf:nl|ptrs:na|ktp:N0|mc:22735|mtp:S|qry_typ:P|lang:en|wc:2|cs:8835|v=4,VKP Trading India,https://www.vkptrading.com/?pos=105&kwd=baby walkers&tags=BA||||8752.144|Price|product|||TS|rsf:gd-|-stype:attr=1|qr_nm:gd|res:RC4|com-cf:nl|ptrs:na|ktp:N0|mc:22735|mtp:S|qry_typ:P|lang:en|wc:2|cs:8835|v=4,False,Prem Nagar,New Delhi,"G-132/B, Prem Nagar-1, Kirari Sulaiman Nagar, Nangloi, North West Delhi, Prem Nagar, New Delhi - 110086, Dist.Delhi, Delhi",7942611251,
"Wooden baby walker, One to Two Years",,Grp Groups,https://www.indiamart.com/grpgroups/?pos=106&kwd=baby walkers&tags=BA||||8954.051|Price|product|||TS|rsf:gd-|-stype:attr=1|qr_nm:gd|res:RC4|com-cf:nl|ptrs:na|ktp:N0|mc:22735|mtp:S|qry_typ:P|lang:en|wc:2|cs:8835|v=4,False,Chromepet,Chennai,"No. 7, 1st Main Road, New Colony, Chromepet, Chromepert, Chromepet, Chennai - 600044, Dist.Chennai, Tamil Nadu",8046033431,
"Same As The Picture Adjustable CP Child Walker, Age Group: Upto 8 years, 4",https://www.indiamart.com/proddetail/cp-child-walker-21888721548.html?pos=107&kwd=baby walkers&tags=BA||||8663.873|Price|product|||TS|rsf:gd-|-stype:attr=1|qr_nm:gd|res:RC4|com-cf:nl|ptrs:na|ktp:N0|mc:22735|mtp:S|qry_typ:P|lang:en|wc:2|cs:8835|v=4,Saamipya Home Health Private Limited,https://www.indiamart.com/saamipyahomehealth/?pos=107&kwd=baby walkers&tags=BA||||8663.873|Price|product|||TS|rsf:gd-|-stype:attr=1|qr_nm:gd|res:RC4|com-cf:nl|ptrs:na|ktp:N0|mc:22735|mtp:S|qry_typ:P|lang:en|wc:2|cs:8835|v=4,False,Hosakerehalli,Bengaluru,"644, 1st Cross Road,1st Phase, Girinagar, Hosakerehalli Layout, Banashankari 3rd Stage,Ward No 161, Hosakerehalli, Bengaluru - 560085, Dist.Bengaluru, Karnataka",8048615170,
LWE Blue Giraffe Push N Scoot Rider,https://www.indiamart.com/proddetail/giraffe-push-n-scoot-rider-22797351212.html?pos=108&kwd=baby walkers&tags=BA||||8641.487|Price|product|||TS|rsf:gd-|-stype:attr=1|qr_nm:gd|res:RC4|com-cf:nl|ptrs:na|ktp:N0|mc:22735|mtp:S|qry_typ:P|lang:en|wc:2|cs:8835|v=4,Learning Wheels Enterprises,https://www.learningwheelsenterprises.com/?pos=108&kwd=baby walkers&tags=BA||||8641.487|Price|product|||TS|rsf:gd-|-stype:attr=1|qr_nm:gd|res:RC4|com-cf:nl|ptrs:na|ktp:N0|mc:22735|mtp:S|qry_typ:P|lang:en|wc:2|cs:8835|v=4,False,Basti Sheikh,Jalandhar,"W. X. 138, Basti Sheikh Road, Basti Sheikh, Basti Sheikh, Jalandhar - 144002, Dist.Jalandhar, Punjab",8047646108,
Suspended Gait Trainer Reduced Weight-Bearing Gait Training Aid Dual Motor Remote Controlled,https://www.indiamart.com/proddetail/suspended-gait-trainer-reduced-weight-bearing-gait-training-aid-dual-motor-remote-controlled-2852425727333.html?pos=109&kwd=baby walkers&tags=BA||||8752.144|Price|product|||TS|rsf:gd-|-stype:attr=1|qr_nm:gd|res:RC4|com-cf:nl|ptrs:na|ktp:N0|mc:22735|mtp:S|qry_typ:P|lang:en|wc:2|cs:8835|v=4,Solution Forever,https://www.biotronixsolutionforever.com/?pos=109&kwd=baby walkers&tags=BA||||8752.144|Price|product|||TS|rsf:gd-|-stype:attr=1|qr_nm:gd|res:RC4|com-cf:nl|ptrs:na|ktp:N0|mc:22735|mtp:S|qry_typ:P|lang:en|wc:2|cs:8835|v=4,False,Kirti Nagar,New Delhi,"F - 400, Sudershan Park, Moti Nagar, Near Gopal Dairy, Kirti Nagar, New Delhi - 110015, Dist.Delhi, Delhi",8048601881,
"3 Feet Stainless Steel Child Walker, 4",https://www.indiamart.com/proddetail/stainless-steel-child-walker-22497873012.html?pos=110&kwd=baby walkers&tags=BA||||8752.144|Price|product|||TS|rsf:gd-|-stype:attr=1|qr_nm:gd|res:RC4|com-cf:nl|ptrs:na|ktp:N0|mc:22735|mtp:S|qry_typ:P|lang:en|wc:2|cs:8835|v=4,Archana Sales Corporation India,https://www.surgicalbazaar.co.in/?pos=110&kwd=baby walkers&tags=BA||||8752.144|Price|product|||TS|rsf:gd-|-stype:attr=1|qr_nm:gd|res:RC4|com-cf:nl|ptrs:na|ktp:N0|mc:22735|mtp:S|qry_typ:P|lang:en|wc:2|cs:8835|v=4,False,Janakpuri,New Delhi,"C - 102 A, Jail Road, Opp Adidas Outlet Fateh Nagar, Janakpuri, New Delhi - 110058, Dist.Delhi, Delhi",8047642640,
"25inch PVC Baby Walker, 6",https://www.indiamart.com/proddetail/25inch-pvc-baby-walker-2852728805288.html?pos=111&kwd=baby walkers&tags=BA||||8601.347|Price|product|||MDC|rsf:gd-|-stype:attr=1|qr_nm:gd|res:RC4|com-cf:nl|ptrs:na|ktp:N0|mc:22735|mtp:S|qry_typ:P|lang:en|wc:2|cs:8835|v=4,Jai Shree Enterprises,https://www.indiamart.com/jai-shreeenterprises/?pos=111&kwd=baby walkers&tags=BA||||8601.347|Price|product|||MDC|rsf:gd-|-stype:attr=1|qr_nm:gd|res:RC4|com-cf:nl|ptrs:na|ktp:N0|mc:22735|mtp:S|qry_typ:P|lang:en|wc:2|cs:8835|v=4,False,Sitaram Puri,Jaipur,"452, Tikki Walo Ka Rasta, Kishanpol Bazar, Sitaram Puri, Jaipur - 302001, Dist.Jaipur, Rajasthan",7942673980,
Aybee Astro 2 In 1 Baby Walker : Walker With 3 Adjustable Height & Musical Toy Bar,https://www.indiamart.com/proddetail/aybee-astro-2-in-1-baby-walker-walker-with-3-adjustable-height-musical-toy-bar-26532608062.html?pos=112&kwd=baby walkers&tags=BA||||8954.051|Price|product|||MDC|rsf:gd-|-stype:attr=1|qr_nm:gd|res:RC4|com-cf:nl|ptrs:na|ktp:N0|mc:22735|mtp:S|qry_typ:P|lang:en|wc:2|cs:8835|v=4,Goodluck Plastic Trading Company,https://www.indiamart.com/good-luck-plastic/?pos=112&kwd=baby walkers&tags=BA||||8954.051|Price|product|||MDC|rsf:gd-|-stype:attr=1|qr_nm:gd|res:RC4|com-cf:nl|ptrs:na|ktp:N0|mc:22735|mtp:S|qry_typ:P|lang:en|wc:2|cs:8835|v=4,False,Red Hills,Chennai,"No 29,,Kasi Chetty Street,Chennai, Red Hills, Chennai - 600079, Dist.Chennai, Tamil Nadu",8048615063,
Baby Walker 20,https://www.indiamart.com/proddetail/baby-walker-20-2850546977848.html?pos=113&kwd=baby walkers&tags=BA||||8752.144|Price|product|||MDC|rsf:gd-|-stype:attr=1|qr_nm:gd|res:RC4|com-cf:nl|ptrs:na|ktp:N0|mc:22735|mtp:S|qry_typ:P|lang:en|wc:2|cs:8835|v=4,Vikas Enterprises,https://www.indiamart.com/vikasentp-delhi/?pos=113&kwd=baby walkers&tags=BA||||8752.144|Price|product|||MDC|rsf:gd-|-stype:attr=1|qr_nm:gd|res:RC4|com-cf:nl|ptrs:na|ktp:N0|mc:22735|mtp:S|qry_typ:P|lang:en|wc:2|cs:8835|v=4,False,Nangloi,New Delhi,"HN 35, Tyagi Colony, Rajendra Park, Main Rohtak Road Nangloi, Nangloi, New Delhi - 110041, Dist.Delhi, Delhi",8046065409,
Blue And White Plastic Baybee Mono Baby Walker,https://www.indiamart.com/proddetail/baybee-mono-baby-walker-2853479755612.html?pos=114&kwd=baby walkers&tags=BA||||8954.051|Price|product|||MDC|rsf:gd-|-stype:attr=1|qr_nm:gd|res:RC4|com-cf:nl|ptrs:na|ktp:N0|mc:22735|mtp:S|qry_typ:P|lang:en|wc:2|cs:8835|v=4,Mom's Fashion World,https://www.indiamart.com/moms-fashion-world/?pos=114&kwd=baby walkers&tags=BA||||8954.051|Price|product|||MDC|rsf:gd-|-stype:attr=1|qr_nm:gd|res:RC4|com-cf:nl|ptrs:na|ktp:N0|mc:22735|mtp:S|qry_typ:P|lang:en|wc:2|cs:8835|v=4,False,Adyar,Chennai,"10/2 ,12th Street, Bakthavatchallam Nagar,Nanganallur, Adyar, Chennai - 600061, Dist.Chennai, Tamil Nadu",7949091874,
"2 Feet Plastic Musical Kids Walker, 6",https://www.indiamart.com/proddetail/musical-kids-walker-25697721055.html?pos=115&kwd=baby walkers&tags=BA||||8768.45|Price|product|||MDC|rsf:gd-|-stype:attr=1|qr_nm:gd|res:RC4|com-cf:nl|ptrs:na|ktp:N0|mc:22735|mtp:S|qry_typ:P|lang:en|wc:2|cs:8835|v=4,V.V ENTERPRISES,https://www.indiamart.com/vv-enterprises-up/?pos=115&kwd=baby walkers&tags=BA||||8768.45|Price|product|||MDC|rsf:gd-|-stype:attr=1|qr_nm:gd|res:RC4|com-cf:nl|ptrs:na|ktp:N0|mc:22735|mtp:S|qry_typ:P|lang:en|wc:2|cs:8835|v=4,False,Haqiqatpur Urf Khudawas,Tronica City,"D-54/1, Sector-A-7, P-1, Trans Delhi Signature City, Haqiqatpur Urf Khudawas, Tronica City - 201102, Dist.Ghaziabad, Uttar Pradesh",8047651839,
"18 Inch Round Plastic Baby Walker, 4 Wheel",https://www.indiamart.com/proddetail/round-plastic-baby-walker-2851948987762.html?pos=116&kwd=baby walkers&tags=BA||||8223.226|Price|product|||MDC|rsf:gd-|-stype:attr=1|qr_nm:gd|res:RC4|com-cf:nl|ptrs:na|ktp:N0|mc:22735|mtp:S|qry_typ:P|lang:en|wc:2|cs:8835|v=4,Deepak Cycle Enterprises,https://www.indiamart.com/deepak-cycle-enterprises/?pos=116&kwd=baby walkers&tags=BA||||8223.226|Price|product|||MDC|rsf:gd-|-stype:attr=1|qr_nm:gd|res:RC4|com-cf:nl|ptrs:na|ktp:N0|mc:22735|mtp:S|qry_typ:P|lang:en|wc:2|cs:8835|v=4,False,Press Bazar,Thane,"Shop No 35, Chatrapati Shivaji Market, Laxmi Market, Ulhasnagar, Press Bazar, Thane - 421003, Dist.Thane, Maharashtra",8043814956,
Black Quality . Walker,https://www.indiamart.com/proddetail/quality-walker-6783966097.html?pos=117&kwd=baby walkers&tags=BA||||8211.142||product|||MDC|rsf:gd-|-stype:attr=1|qr_nm:gd|res:RC4|com-cf:nl|ptrs:na|ktp:N0|mc:22735|mtp:S|qry_typ:P|lang:en|wc:2|cs:8835|v=4,Shree Siddhi Surgicals,https://www.indiamart.com/shree-siddhi/?pos=117&kwd=baby walkers&tags=BA||||8211.142||product|||MDC|rsf:gd-|-stype:attr=1|qr_nm:gd|res:RC4|com-cf:nl|ptrs:na|ktp:N0|mc:22735|mtp:S|qry_typ:P|lang:en|wc:2|cs:8835|v=4,False,Parel,Mumbai,"Shop No.5 , New Merwanji CHS, Ground Floor, Opposite K. E. M. Hospital, Gate No. 4, D. C. Road,, Parel, Mumbai - 400012, Dist.Mumbai, Maharashtra",8048965964,
Baby Movable Walker,https://www.indiamart.com/proddetail/baby-movable-walker-2853637654888.html?pos=118&kwd=baby walkers&tags=BA||||9148.645|Price|product|||MDC|rsf:gd-|-stype:attr=1|qr_nm:gd|res:RC4|com-cf:nl|ptrs:na|ktp:N0|mc:22735|mtp:S|qry_typ:P|lang:en|wc:2|cs:8835|v=4,Sri Jaya Enterprises,https://www.indiamart.com/sri-jayaenterprises/?pos=118&kwd=baby walkers&tags=BA||||9148.645|Price|product|||MDC|rsf:gd-|-stype:attr=1|qr_nm:gd|res:RC4|com-cf:nl|ptrs:na|ktp:N0|mc:22735|mtp:S|qry_typ:P|lang:en|wc:2|cs:8835|v=4,False,Machara,Mandapeta,"31-1-27/1, Ward No 13, Alamuru Road, Mandapeta, East Godavari, Machara, Mandapeta - 533308, Dist.East Godavari, Andhra Pradesh",7949093426,
"Mix 3 Plastic Kids Walker, Six Months to Four Years, Packaging Type: Box",https://www.indiamart.com/proddetail/kids-walker-2854919635173.html?pos=119&kwd=baby walkers&tags=BB||||8230.883|Price|product|||MDC|rsf:gd-|-stype:attr=1|qr_nm:gd|res:RC4|com-cf:nl|ptrs:na|ktp:N0|mc:22735|mtp:S|qry_typ:P|lang:en|wc:2|cs:8835|v=4,Shree Shree Khilona,https://www.indiamart.com/shreeshree-khilona/?pos=119&kwd=baby walkers&tags=BB||||8230.883|Price|product|||MDC|rsf:gd-|-stype:attr=1|qr_nm:gd|res:RC4|com-cf:nl|ptrs:na|ktp:N0|mc:22735|mtp:S|qry_typ:P|lang:en|wc:2|cs:8835|v=4,False,Turava Compound Heera Bagh,Surat,"Lower Ground Floor, Shop No-L/9 To L/13, Sarthi CO-OP Housing Society LTD, Varachha Main Road, Turava Compound Heera Bagh, Surat - 395006, Dist.Surat, Gujarat",7949322132,
B4brain traditional scientific wooden push Walker For Babies 8 Month-2 year,https://www.indiamart.com/proddetail/b4brain-traditional-scientific-wooden-push-walker-for-babies-8-month-2-year-2852878612988.html?pos=120&kwd=baby walkers&tags=BA||||8457.459|Price|product|||MDC|rsf:gd-|-stype:attr=1|qr_nm:gd|res:RC4|com-cf:nl|ptrs:na|ktp:N0|mc:22735|mtp:S|qry_typ:P|lang:en|wc:2|cs:8835|v=4,B4brain Labs LLP,https://www.indiamart.com/b4brainlabs/?pos=120&kwd=baby walkers&tags=BA||||8457.459|Price|product|||MDC|rsf:gd-|-stype:attr=1|qr_nm:gd|res:RC4|com-cf:nl|ptrs:na|ktp:N0|mc:22735|mtp:S|qry_typ:P|lang:en|wc:2|cs:8835|v=4,False,Palazhi,Kozhikode,"Door No 12/478, C/o Ahamed Shafi E P, Ariyayil Potta Vellayikode, Perumanna, Palazhi, Kozhikode - 673019, Dist.Kozhikode, Kerala",7942721906,
"Adjustable High Quality Plastic Fancy Baby Walker, 8",https://www.indiamart.com/proddetail/fancy-baby-walker-25956185133.html?pos=121&kwd=baby walkers&tags=BA||||8663.873|Price|product|||MDC|rsf:gd-|-stype:attr=1|qr_nm:gd|res:RC4|com-cf:nl|ptrs:na|ktp:N0|mc:22735|mtp:S|qry_typ:P|lang:en|wc:2|cs:8835|v=4,Blush Baby Private Limited,https://www.indiamart.com/blush-baby-private-limited/?pos=121&kwd=baby walkers&tags=BA||||8663.873|Price|product|||MDC|rsf:gd-|-stype:attr=1|qr_nm:gd|res:RC4|com-cf:nl|ptrs:na|ktp:N0|mc:22735|mtp:S|qry_typ:P|lang:en|wc:2|cs:8835|v=4,False,Vignana Kendra,Bengaluru,"No-786, 1st Floor Nomads, 9th A Main Road Indiranagar,, Vignana Kendra, Bengaluru - 560038, Dist.Bengaluru, Karnataka",8047654879,
"3 Feet Plastic Adjustable Baby Walker Donut, 6",https://www.indiamart.com/proddetail/adjustable-baby-walker-donut-2852879425291.html?pos=122&kwd=baby walkers&tags=BA||||8785.791|Price|product|||MDC|rsf:gd-|-stype:attr=1|qr_nm:gd|res:RC4|com-cf:nl|ptrs:na|ktp:N0|mc:22735|mtp:S|qry_typ:P|lang:en|wc:2|cs:8835|v=4,Incredible Products (India),https://www.indiamart.com/incredibleproductsindia/?pos=122&kwd=baby walkers&tags=BA||||8785.791|Price|product|||MDC|rsf:gd-|-stype:attr=1|qr_nm:gd|res:RC4|com-cf:nl|ptrs:na|ktp:N0|mc:22735|mtp:S|qry_typ:P|lang:en|wc:2|cs:8835|v=4,False,Loni,Ghaziabad,"Basement, Plot No. A-1, Sector A-1, Trans Delhi Signature City, Loni, Pavi Sadakpur, Loni, Ghaziabad - 201102, Dist.Ghaziabad, Uttar Pradesh",7942966608,
Olive Green(base) Plastic Twist Baby Walker,https://www.indiamart.com/proddetail/plastic-twist-baby-walker-2853426010291.html?pos=123&kwd=baby walkers&tags=BA||||9618.383|Price|product|||MDC|rsf:gd-|-stype:attr=1|qr_nm:gd|res:RC4|com-cf:nl|ptrs:na|ktp:N0|mc:22735|mtp:S|qry_typ:P|lang:en|wc:2|cs:8835|v=4,Texco,https://www.indiamart.com/texco/?pos=123&kwd=baby walkers&tags=BA||||9618.383|Price|product|||MDC|rsf:gd-|-stype:attr=1|qr_nm:gd|res:RC4|com-cf:nl|ptrs:na|ktp:N0|mc:22735|mtp:S|qry_typ:P|lang:en|wc:2|cs:8835|v=4,False,Bistupur,Jamshedpur,"Shop No. 2, Main Road, Bistupur, Bistupur, Jamshedpur - 831001, Dist.East Singhbhum, Jharkhand",7949092933,
Multicolor ABS Plastic(Body) Round Baby Walker,https://www.indiamart.com/proddetail/round-baby-walker-2853264286997.html?pos=124&kwd=baby walkers&tags=BA||||8307.81|Price|product|||MDC|rsf:gd-|-stype:attr=1|qr_nm:gd|res:RC4|com-cf:nl|ptrs:na|ktp:N0|mc:22735|mtp:S|qry_typ:P|lang:en|wc:2|cs:8835|v=4,Mahadev Cycles,https://www.indiamart.com/mahadev-cycles/?pos=124&kwd=baby walkers&tags=BA||||8307.81|Price|product|||MDC|rsf:gd-|-stype:attr=1|qr_nm:gd|res:RC4|com-cf:nl|ptrs:na|ktp:N0|mc:22735|mtp:S|qry_typ:P|lang:en|wc:2|cs:8835|v=4,False,Mundhwa,Pune,"Sr No 25, Shop No 1 And 2, Lonkar Wasti, Keshav Nagar Road, Mundhwa, Mundhwa, Pune - 411036, Dist.Pune, Maharashtra",7942955310,
"Wood(non-toxic) Wooden Baby Walker, 4",https://www.indiamart.com/proddetail/wooden-baby-walker-2850789260073.html?pos=125&kwd=baby walkers&tags=BA||||8228.275|Price|product|||MDC|rsf:gd-|-stype:attr=1|qr_nm:gd|res:RC4|com-cf:nl|ptrs:na|ktp:N0|mc:22735|mtp:S|qry_typ:P|lang:en|wc:2|cs:8835|v=4,Vertex Engineering Works,https://www.indiamart.com/vertexeng/?pos=125&kwd=baby walkers&tags=BA||||8228.275|Price|product|||MDC|rsf:gd-|-stype:attr=1|qr_nm:gd|res:RC4|com-cf:nl|ptrs:na|ktp:N0|mc:22735|mtp:S|qry_typ:P|lang:en|wc:2|cs:8835|v=4,False,Vadaj,Ahmedabad,"No. E - 6, Rushika Flats, New Vadaj, Near Kiran Park, Vadaj, Ahmedabad - 380013, Dist.Ahmedabad, Gujarat",8046053586,
"Red Plastic 3 In 1 Baby Walker, Six to Eighteen Months, Packaging Type: Box",https://www.indiamart.com/proddetail/3-in-1-baby-walker-2854086993533.html?pos=126&kwd=baby walkers&tags=BA||||8663.873|Price|product|||MDC|rsf:gd-|-stype:attr=1|qr_nm:gd|res:RC4|com-cf:nl|ptrs:na|ktp:N0|mc:22735|mtp:S|qry_typ:P|lang:en|wc:2|cs:8835|v=4,M V Trading Company,https://www.indiamart.com/m-v-tradingcompany/?pos=126&kwd=baby walkers&tags=BA||||8663.873|Price|product|||MDC|rsf:gd-|-stype:attr=1|qr_nm:gd|res:RC4|com-cf:nl|ptrs:na|ktp:N0|mc:22735|mtp:S|qry_typ:P|lang:en|wc:2|cs:8835|v=4,False,Nagarathpete,Bengaluru,"No.15, Kumbarpet Main Road, Kumbarpet, Bengaluru Urban, Nagarathpete, Bengaluru - 560002, Dist.Bengaluru, Karnataka",8043884879,
"Blue And White Plastic Musical Baby Walker, One to Two Years",https://www.indiamart.com/proddetail/musical-baby-walker-2854376358312.html?pos=127&kwd=baby walkers&tags=BA||||8211.142||product|||MDC|rsf:gd-|-stype:attr=1|qr_nm:gd|res:RC4|com-cf:nl|ptrs:na|ktp:N0|mc:22735|mtp:S|qry_typ:P|lang:en|wc:2|cs:8835|v=4,Indu Die Blocks Pvt. Ltd.,https://www.indiamart.com/indudieblocks/?pos=127&kwd=baby walkers&tags=BA||||8211.142||product|||MDC|rsf:gd-|-stype:attr=1|qr_nm:gd|res:RC4|com-cf:nl|ptrs:na|ktp:N0|mc:22735|mtp:S|qry_typ:P|lang:en|wc:2|cs:8835|v=4,False,Off Aarey Road Goregaon East Mumbai Suburban,Mumbai,"Ground Floor, A/9,B-8 Synthofine Industrial Estate,, Off Aarey Road Goregaon East Mumbai Suburban, Mumbai - 400063, Dist.Mumbai, Maharashtra",7948549618,
"1.5 Feet Red Plastic Baby Walker, 6",https://www.indiamart.com/proddetail/red-plastic-baby-walker-27130675448.html?pos=128&kwd=baby walkers&tags=BA||||8752.144|Price|product|||MDC|rsf:gd-|-stype:attr=1|qr_nm:gd|res:RC4|com-cf:nl|ptrs:na|ktp:N0|mc:22735|mtp:S|qry_typ:P|lang:en|wc:2|cs:8835|v=4,Crazy Kanchan,https://www.indiamart.com/crazykanchan/?pos=128&kwd=baby walkers&tags=BA||||8752.144|Price|product|||MDC|rsf:gd-|-stype:attr=1|qr_nm:gd|res:RC4|com-cf:nl|ptrs:na|ktp:N0|mc:22735|mtp:S|qry_typ:P|lang:en|wc:2|cs:8835|v=4,False,Bhajan Pura,New Delhi,"C-344/1 Gali No -16 Bhajanpura , Shahdara North East Delhi, Bhajan Pura, New Delhi - 110053, Dist.Delhi, Delhi",8048204487,
"Wooden Baby Walker Cycle, Packaging Type: Foldable",https://www.indiamart.com/proddetail/wooden-walker-for-kids-2854791631930.html?pos=129&kwd=baby walkers&tags=BA||||8228.275|Price|product|||MDC|rsf:gd-|-stype:attr=1|qr_nm:gd|res:RC4|com-cf:nl|ptrs:na|ktp:N0|mc:22735|mtp:S|qry_typ:P|lang:en|wc:2|cs:8835|v=4,Orme Industries Private Limited,https://www.indiamart.com/ormeindustries/?pos=129&kwd=baby walkers&tags=BA||||8228.275|Price|product|||MDC|rsf:gd-|-stype:attr=1|qr_nm:gd|res:RC4|com-cf:nl|ptrs:na|ktp:N0|mc:22735|mtp:S|qry_typ:P|lang:en|wc:2|cs:8835|v=4,False,,Ahmedabad,"B-34, Poojan Bunglows, Nikol Gam Road, Ahmedabad - 382350, Dist.Ahmedabad, Gujarat",8045732721,
"Pink Gray Plastic 5 Feet Baby Walker, Four to Twelve Months",https://www.indiamart.com/proddetail/5-feet-baby-walker-2854339476748.html?pos=130&kwd=baby walkers&tags=BA||||8424.242|Price|product|||MDC|rsf:gd-|-stype:attr=1|qr_nm:gd|res:RC4|com-cf:nl|ptrs:na|ktp:N0|mc:22735|mtp:S|qry_typ:P|lang:en|wc:2|cs:8835|v=4,Kid Track Associates,https://www.indiamart.com/kidtrack-associates-kerala/?pos=130&kwd=baby walkers&tags=BA||||8424.242|Price|product|||MDC|rsf:gd-|-stype:attr=1|qr_nm:gd|res:RC4|com-cf:nl|ptrs:na|ktp:N0|mc:22735|mtp:S|qry_typ:P|lang:en|wc:2|cs:8835|v=4,False,,Muzhappilangad,"MP 3/5A 252, Kid Track Associates, Beach Road, Muzhappilangad - 670662, Dist.Kannur, Kerala",8045730410,
Pvc Baby Walker Top Apple,https://www.indiamart.com/proddetail/baby-walker-top-apple-2851729385930.html?pos=131&kwd=baby walkers&tags=BA||||8752.144||product|||MDC|rsf:gd-|-stype:attr=1|qr_nm:gd|res:RC4|com-cf:nl|ptrs:na|ktp:N0|mc:22735|mtp:S|qry_typ:P|lang:en|wc:2|cs:8835|v=4,Plasticoo Product And Services,https://www.indiamart.com/plasticoo-product-services/?pos=131&kwd=baby walkers&tags=BA||||8752.144||product|||MDC|rsf:gd-|-stype:attr=1|qr_nm:gd|res:RC4|com-cf:nl|ptrs:na|ktp:N0|mc:22735|mtp:S|qry_typ:P|lang:en|wc:2|cs:8835|v=4,False,,New Delhi,"G/f, 361, Ram Nagar Extention, Near Lzxmi Narayan Mandir, Krishna Nagar, New Delhi - 110051, Dist.Delhi, Delhi",7942831987,
"Light Purple Baybee Plastic Baby Walker, Four to Twelve Months",https://www.indiamart.com/proddetail/baybee-plastic-baby-walker-2854710923255.html?pos=132&kwd=baby walkers&tags=BA||||8954.051|Price|product|||MDC|rsf:gd-|-stype:attr=1|qr_nm:gd|res:RC4|com-cf:nl|ptrs:na|ktp:N0|mc:22735|mtp:S|qry_typ:P|lang:en|wc:2|cs:8835|v=4,Shanjay Enterprises,https://www.indiamart.com/shanjay-enterprises-chennai/?pos=132&kwd=baby walkers&tags=BA||||8954.051|Price|product|||MDC|rsf:gd-|-stype:attr=1|qr_nm:gd|res:RC4|com-cf:nl|ptrs:na|ktp:N0|mc:22735|mtp:S|qry_typ:P|lang:en|wc:2|cs:8835|v=4,False,,Chennai,"No 5, Alapakkam Main Road, Maduravoyal, Chennai - 600095, Dist.Chennai, Tamil Nadu",8044461007,
Plastic Baby walker,https://www.indiamart.com/proddetail/baby-walker-2853718746133.html?pos=133&kwd=baby walkers&tags=BB||||8752.144|Price|product|||MDC|rsf:gd-|-stype:attr=1|qr_nm:gd|res:RC4|com-cf:nl|ptrs:na|ktp:N0|mc:22735|mtp:S|qry_typ:P|lang:en|wc:2|cs:8835|v=4,Anil Steel Industries,https://www.indiamart.com/anilsteelindustries-delhi/?pos=133&kwd=baby walkers&tags=BB||||8752.144|Price|product|||MDC|rsf:gd-|-stype:attr=1|qr_nm:gd|res:RC4|com-cf:nl|ptrs:na|ktp:N0|mc:22735|mtp:S|qry_typ:P|lang:en|wc:2|cs:8835|v=4,False,Kirti Nagar,New Delhi,"N-46, Shop Plot, Kirti Nagar, Kirti Nagar, New Delhi - 110015, Dist.Delhi, Delhi",8046057314,
"Plastic Baby walker, Six Months to Four Years, Packaging Type: Heavy Quality",https://www.indiamart.com/proddetail/plastic-baby-walker-2854363090997.html?pos=134&kwd=baby walkers&tags=BA||||8752.144|Price|product|||MDC|rsf:gd-|-stype:attr=1|qr_nm:gd|res:RC4|com-cf:nl|ptrs:na|ktp:N0|mc:22735|mtp:S|qry_typ:P|lang:en|wc:2|cs:8835|v=4,Ik.Sales,https://www.indiamart.com/ik-sales-delhi/?pos=134&kwd=baby walkers&tags=BA||||8752.144|Price|product|||MDC|rsf:gd-|-stype:attr=1|qr_nm:gd|res:RC4|com-cf:nl|ptrs:na|ktp:N0|mc:22735|mtp:S|qry_typ:P|lang:en|wc:2|cs:8835|v=4,False,,New Delhi,"New-4678/2718, Teliwara, Kishan Ganj, New Delhi - 110006, Dist.Delhi, Delhi",8045736520,
WALKER,https://www.indiamart.com/proddetail/walker-23891261762.html?pos=135&kwd=baby walkers&tags=BB||||8550.327|Price|product|||MDC|rsf:gd-|-stype:attr=1|qr_nm:gd|res:RC4|com-cf:nl|ptrs:na|ktp:N0|mc:22735|mtp:S|qry_typ:P|lang:en|wc:2|cs:8835|v=4,Akash Pharma Exports,https://www.indiamart.com/akash-medicalspharmaceuticals/?pos=135&kwd=baby walkers&tags=BB||||8550.327|Price|product|||MDC|rsf:gd-|-stype:attr=1|qr_nm:gd|res:RC4|com-cf:nl|ptrs:na|ktp:N0|mc:22735|mtp:S|qry_typ:P|lang:en|wc:2|cs:8835|v=4,False,,Palakkad,"19/1459, Ninans Building, Mettuppalayam Street, Near Central Excise Office, Vidyut Nagar, Palakkad - 678001, Dist.Palakkad, Kerala",8048982153,
"Plastic Baby Walker, Six Months to Four Years",https://www.indiamart.com/proddetail/baby-walker-2854978806291.html?pos=136&kwd=baby walkers&tags=BA||||8663.873|Price|product|||MDC|rsf:gd-|-stype:attr=1|qr_nm:gd|res:RC4|com-cf:nl|ptrs:na|ktp:N0|mc:22735|mtp:S|qry_typ:P|lang:en|wc:2|cs:8835|v=4,Parmeshwara Toys & Gift Center,https://www.indiamart.com/parmeshwaratoysgiftcenter/?pos=136&kwd=baby walkers&tags=BA||||8663.873|Price|product|||MDC|rsf:gd-|-stype:attr=1|qr_nm:gd|res:RC4|com-cf:nl|ptrs:na|ktp:N0|mc:22735|mtp:S|qry_typ:P|lang:en|wc:2|cs:8835|v=4,False,,Bengaluru,"Basement, 37, Old No.1302 Shop No.01, 25th Main Road 9th Block, Jayanagar, Bengaluru Urban, Bengaluru - 560069, Dist.Bengaluru, Karnataka",7942837553,
"Plastic Baby Walker, Four to Twelve Months",https://www.indiamart.com/proddetail/baby-walker-2855061128748.html?pos=137&kwd=baby walkers&tags=BB||||8813.969|Price|product|||MDC|rsf:gd-|-stype:attr=1|qr_nm:gd|res:RC4|com-cf:nl|ptrs:na|ktp:N0|mc:22735|mtp:S|qry_typ:P|lang:en|wc:2|cs:8835|v=4,M.K Kids Zone,https://www.indiamart.com/mk-kids-zone/?pos=137&kwd=baby walkers&tags=BB||||8813.969|Price|product|||MDC|rsf:gd-|-stype:attr=1|qr_nm:gd|res:RC4|com-cf:nl|ptrs:na|ktp:N0|mc:22735|mtp:S|qry_typ:P|lang:en|wc:2|cs:8835|v=4,False,ghanta ghar,Meerut,"34, Opp Pyare Lal Hospital, Ahmad Road, ghanta ghar, Meerut - 250002, Dist.Meerut, Uttar Pradesh",8047526300,
Baabus Jupiter Baby Walker,,Scorpion Enterprise,https://www.indiamart.com/scorpion-enterprise-ahmedabad/?pos=138&kwd=baby walkers&tags=A||||8228.275|Price|product|||TS|rsf:gd-|-stype:attr=1|qr_nm:gd|res:RC4|com-cf:nl|ptrs:na|ktp:N0|mc:22735|mtp:S|qry_typ:P|lang:en|wc:2|cs:8835|v=4,False,Krishnanagar,Ahmedabad,"B/21, Sindhi Navi Chali, Shantinagar, Saijpur Bogha, Krishnanagar, Ahmedabad - 382345, Dist.Ahmedabad, Gujarat",7942962791,
Fancy Baby Walker,,Shivmani Kids,https://www.indiamart.com/shivmanikids/?pos=139&kwd=baby walkers&tags=A||||8876.815|Price|product|||MDC|rsf:gd-|-stype:attr=1|qr_nm:gd|res:RC4|com-cf:nl|ptrs:na|ktp:N0|mc:22735|mtp:S|qry_typ:P|lang:en|wc:2|cs:8835|v=4,False,Lalganj,Nagpur,"172a/1 Kalbag Road,badkas Chowk Mahal Chaudhary Building, Lalganj, Nagpur - 440002, Dist.Nagpur, Maharashtra",8046069398,
Baby Adjustment Walker,,Balaji Overseas Inc.,https://www.babyzon.in/?pos=140&kwd=baby walkers&tags=BA||||8752.144||product|||TS|rsf:gd-|-stype:attr=1|qr_nm:gd|res:RC4|com-cf:nl|ptrs:na|ktp:N0|mc:22735|mtp:S|qry_typ:P|lang:en|wc:2|cs:8835|v=4,False,Tri Nagar,New Delhi,"1553/110, Landmark Ganesh Pura, Tri Nagar, Tri Nagar, New Delhi - 110035, Dist.Delhi, Delhi",8047532650,
Musical Baby Walker,https://www.indiamart.com/proddetail/musical-baby-walker-2854787501630.html?pos=141&kwd=baby walkers&tags=BA||||8230.883|Price|product|||TS|rsf:gd-|-stype:attr=1|qr_nm:gd|res:RC4|com-cf:nl|ptrs:na|ktp:N0|mc:22735|mtp:S|qry_typ:P|lang:en|wc:2|cs:8835|v=4,Hilltop Enterprises,https://www.indiamart.com/hilltop-enterprisesgujarat/?pos=141&kwd=baby walkers&tags=BA||||8230.883|Price|product|||TS|rsf:gd-|-stype:attr=1|qr_nm:gd|res:RC4|com-cf:nl|ptrs:na|ktp:N0|mc:22735|mtp:S|qry_typ:P|lang:en|wc:2|cs:8835|v=4,False,,Surat,"132,1st Floor,Gruham Icon,Kosad Road, Surat - 394107, Dist.Surat, Gujarat",8044456788,
Baby Walker Adjustable wth Parental Handle,https://www.indiamart.com/proddetail/baby-walker-adjustable-wth-parental-handle-2854089089755.html?pos=142&kwd=baby walkers&tags=BA||||9839.57|Price|product|||TS|rsf:gd-|-stype:attr=1|qr_nm:gd|res:RC4|com-cf:nl|ptrs:na|ktp:N0|mc:22735|mtp:S|qry_typ:P|lang:en|wc:2|cs:8835|v=4,Mittal Traders,https://www.mittaltraderskolkata.com/?pos=142&kwd=baby walkers&tags=BA||||9839.57|Price|product|||TS|rsf:gd-|-stype:attr=1|qr_nm:gd|res:RC4|com-cf:nl|ptrs:na|ktp:N0|mc:22735|mtp:S|qry_typ:P|lang:en|wc:2|cs:8835|v=4,False,Lalbazar,Kolkata,"Mercantile Building, 9/12, Lal Bazar Street, Lalbazar, Kolkata - 700001, Dist.Kolkata, West Bengal",7942531952,
42 CM Plastic & Steel TURBO 8 BEND CP MUSICAL BABY WALKER,https://www.indiamart.com/proddetail/turbo-8-bend-cp-musical-baby-walker-24127898448.html?pos=143&kwd=baby walkers&tags=BA||||8752.144|Price|product|||TS|rsf:gd-|-stype:attr=1|qr_nm:gd|res:RC4|com-cf:nl|ptrs:na|ktp:N0|mc:22735|mtp:S|qry_typ:P|lang:en|wc:2|cs:8835|v=4,Nishant Industries,https://www.indiamart.com/nishantindustries-newdelhi/?pos=143&kwd=baby walkers&tags=BA||||8752.144|Price|product|||TS|rsf:gd-|-stype:attr=1|qr_nm:gd|res:RC4|com-cf:nl|ptrs:na|ktp:N0|mc:22735|mtp:S|qry_typ:P|lang:en|wc:2|cs:8835|v=4,False,Shastri Nagar,New Delhi,"1/14, Gali No. 4 Rani Garden, Shastri Nagar, Shastri Nagar, New Delhi - 110096, Dist.Delhi, Delhi",8047637221,
Kids toys baby walker with light music,,I B International,https://www.indiamart.com/i-b-internationalmumbai/?pos=144&kwd=baby walkers&tags=BB||||8211.142|Price|product|||MDC|rsf:gd-|-stype:attr=1|qr_nm:gd|res:RC4|com-cf:nl|ptrs:na|ktp:N0|mc:22735|mtp:S|qry_typ:P|lang:en|wc:2|cs:8835|v=4,False,Masjid,Mumbai,"4Th Floor Shop No. 21, Dontad Street Plot No. 63, Kadri Manzil Chinch Bunder Chinch Bunder, Masjid, Mumbai - 400009, Dist.Mumbai, Maharashtra",7942790812,
"Multicolor Wooden Baby Walker Toy, Six Months to Four Years",https://www.indiamart.com/proddetail/wooden-baby-walker-toy-2854332253155.html?pos=145&kwd=baby walkers&tags=BA||||9463.544|Price|product|||MDC|rsf:gd-|-stype:attr=1|qr_nm:gd|res:RC4|com-cf:nl|ptrs:na|ktp:N0|mc:22735|mtp:S|qry_typ:P|lang:en|wc:2|cs:8835|v=4,Toywood Private Limited,https://www.indiamart.com/toywood/?pos=145&kwd=baby walkers&tags=BA||||9463.544|Price|product|||MDC|rsf:gd-|-stype:attr=1|qr_nm:gd|res:RC4|com-cf:nl|ptrs:na|ktp:N0|mc:22735|mtp:S|qry_typ:P|lang:en|wc:2|cs:8835|v=4,False,,Bettiah,"Bhagwati Nagar, 523, Ward No 36, Uravshi Cinema Road, Pashchim Champaran, Bettiah - 845438, Dist.West Champaran, Bihar",8045734519,
"38cm Plastic And Stainless Steel Round Baby Walker, 8 Wheels",https://www.indiamart.com/proddetail/round-baby-walker-2849549246397.html?pos=146&kwd=baby walkers&tags=BA||||8752.144|Price|product|||MDC|rsf:gd-|-stype:attr=1|qr_nm:gd|res:RC4|com-cf:nl|ptrs:na|ktp:N0|mc:22735|mtp:S|qry_typ:P|lang:en|wc:2|cs:8835|v=4,Ride Well,https://www.indiamart.com/ridewell/?pos=146&kwd=baby walkers&tags=BA||||8752.144|Price|product|||MDC|rsf:gd-|-stype:attr=1|qr_nm:gd|res:RC4|com-cf:nl|ptrs:na|ktp:N0|mc:22735|mtp:S|qry_typ:P|lang:en|wc:2|cs:8835|v=4,False,Dilshad Garden,New Delhi,"Plot No. 13, Damodar Park Indl. Area, Opp. Dilshad Garden, Telephone Exchange, East Delhi, Dilshad Garden, New Delhi - 110095, Dist.Delhi, Delhi",7942791990,
"Wood(non-toxic) Wooden Baby Walker, 4",https://www.indiamart.com/proddetail/wooden-baby-walker-2850789260073.html?pos=147&kwd=baby walkers&tags=BA||||8228.275|Price|product|||MDC|rsf:gd-|-stype:attr=1|qr_nm:gd|res:RC4|com-cf:nl|ptrs:na|ktp:N0|mc:22735|mtp:S|qry_typ:P|lang:en|wc:2|cs:8835|v=4,Vertex Engineering Works,https://www.indiamart.com/vertexeng/?pos=147&kwd=baby walkers&tags=BA||||8228.275|Price|product|||MDC|rsf:gd-|-stype:attr=1|qr_nm:gd|res:RC4|com-cf:nl|ptrs:na|ktp:N0|mc:22735|mtp:S|qry_typ:P|lang:en|wc:2|cs:8835|v=4,False,Vadaj,Ahmedabad,"No. E - 6, Rushika Flats, New Vadaj, Near Kiran Park, Vadaj, Ahmedabad - 380013, Dist.Ahmedabad, Gujarat",8046053586,
Pvc Baby Walker Top Apple,https://www.indiamart.com/proddetail/baby-walker-top-apple-2851729385930.html?pos=148&kwd=baby walkers&tags=BA||||8752.144||product|||MDC|rsf:gd-|-stype:attr=1|qr_nm:gd|res:RC4|com-cf:nl|ptrs:na|ktp:N0|mc:22735|mtp:S|qry_typ:P|lang:en|wc:2|cs:8835|v=4,Plasticoo Product And Services,https://www.indiamart.com/plasticoo-product-services/?pos=148&kwd=baby walkers&tags=BA||||8752.144||product|||MDC|rsf:gd-|-stype:attr=1|qr_nm:gd|res:RC4|com-cf:nl|ptrs:na|ktp:N0|mc:22735|mtp:S|qry_typ:P|lang:en|wc:2|cs:8835|v=4,False,,New Delhi,"G/f, 361, Ram Nagar Extention, Near Lzxmi Narayan Mandir, Krishna Nagar, New Delhi - 110051, Dist.Delhi, Delhi",7942831987,
Baby Adjustment Walker,,Balaji Overseas Inc.,https://www.babyzon.in/?pos=149&kwd=baby walkers&tags=BA||||8752.144||product|||TS|rsf:gd-|-stype:attr=1|qr_nm:gd|res:RC4|com-cf:nl|ptrs:na|ktp:N0|mc:22735|mtp:S|qry_typ:P|lang:en|wc:2|cs:8835|v=4,False,Tri Nagar,New Delhi,"1553/110, Landmark Ganesh Pura, Tri Nagar, Tri Nagar, New Delhi - 110035, Dist.Delhi, Delhi",8047532650,
Walker,,Namo Pharma,https://www.namopharma.net/?pos=150&kwd=baby walkers&tags=BA||||8307.81|Price|product|||TS|rsf:gd-|-stype:attr=1|qr_nm:gd|res:RC4|com-cf:nl|ptrs:na|ktp:N0|mc:22735|mtp:S|qry_typ:P|lang:en|wc:2|cs:8835|v=4,False,Shukrawar Peth,Pune,"Shop No. 2, Krishna Complex Towards Sadashiv Peth, Shukrawar Peth, Pune - 411002, Dist.Pune, Maharashtra",8046030868,
"Plastic Fancy Baby Walker, 8",https://www.indiamart.com/proddetail/fancy-baby-walker-2852136247248.html?pos=151&kwd=baby walkers&tags=BA||||8663.873|Price|product|||TS|rsf:gd-|-stype:attr=1|qr_nm:gd|res:RC4|com-cf:nl|ptrs:na|ktp:N0|mc:22735|mtp:S|qry_typ:P|lang:en|wc:2|cs:8835|v=4,Ratnaakar Impex,https://www.indiamart.com/ratnaakarimpex/?pos=151&kwd=baby walkers&tags=BA||||8663.873|Price|product|||TS|rsf:gd-|-stype:attr=1|qr_nm:gd|res:RC4|com-cf:nl|ptrs:na|ktp:N0|mc:22735|mtp:S|qry_typ:P|lang:en|wc:2|cs:8835|v=4,False,Dharmarayaswamy Temple Street,Bengaluru,"6th Floor, No.6/2, Shop-1, Luciya City Center,Next To Sharada Talkies, OTC Road, Dharmarayaswamy Temple Street, Bengaluru - 560002, Dist.Bengaluru, Karnataka",7942843226,
Children Tricycle And Walkers Wholesale,,Amit Agencies,https://www.indiamart.com/amit-agenciesvaranasi/?pos=152&kwd=baby walkers&tags=BA||||9301.656||product|||MDC|rsf:gd-|-stype:attr=1|qr_nm:gd|res:RC4|com-cf:nl|ptrs:na|ktp:N0|mc:22735|mtp:S|qry_typ:P|lang:en|wc:2|cs:8835|v=4,False,Kabir Chaura,Varanasi,"C 7/68, Senpura, Kabir Road, Kabir Chaura, Varanasi - 221001, Dist.Varanasi, Uttar Pradesh",8044564633,
Baby Walker 20,https://www.indiamart.com/proddetail/baby-walker-20-2850546977848.html?pos=153&kwd=baby walkers&tags=BA||||8752.144|Price|product|||MDC|rsf:gd-|-stype:attr=1|qr_nm:gd|res:RC4|com-cf:nl|ptrs:na|ktp:N0|mc:22735|mtp:S|qry_typ:P|lang:en|wc:2|cs:8835|v=4,Vikas Enterprises,https://www.indiamart.com/vikasentp-delhi/?pos=153&kwd=baby walkers&tags=BA||||8752.144|Price|product|||MDC|rsf:gd-|-stype:attr=1|qr_nm:gd|res:RC4|com-cf:nl|ptrs:na|ktp:N0|mc:22735|mtp:S|qry_typ:P|lang:en|wc:2|cs:8835|v=4,False,Nangloi,New Delhi,"HN 35, Tyagi Colony, Rajendra Park, Main Rohtak Road Nangloi, Nangloi, New Delhi - 110041, Dist.Delhi, Delhi",8046065409,
Staranddaisy Luxury Kids Boutique,,Staranddaisy Luxury Kids Boutique,https://www.indiamart.com/staranddaisy-luxury-kids-boutique/?pos=154&kwd=baby walkers&tags=A||||8785.791||bl|||SSlc|rsf:gd-|-stype:attr=1|qr_nm:gd|res:RC4|com-cf:nl|ptrs:na|ktp:N0|mc:22735|mtp:S|qry_typ:P|lang:en|wc:2|cs:8835|v=4,False,Nehru Nagar,Ghaziabad,"R-6/27, Sector - 6 , Raj Nagar, Nehru Nagar, Ghaziabad - 201001, Dist.Ghaziabad, Uttar Pradesh",8048971885,
"Green Plastic Foldable Baby Walker, Four to Twelve Months",https://www.indiamart.com/proddetail/plastic-foldable-musical-baby-walker-2854550106612.html?pos=155&kwd=baby walkers&tags=A||||8752.144|Price|product|||NA|rsf:gd-|-stype:attr=1|qr_nm:gd|res:RC4|com-cf:nl|ptrs:na|ktp:N0|mc:22735|mtp:S|qry_typ:P|lang:en|wc:2|cs:8835|v=4,Shree Shyam Sales,https://www.indiamart.com/shree-shyamsalesdelhi/?pos=155&kwd=baby walkers&tags=A||||8752.144|Price|product|||NA|rsf:gd-|-stype:attr=1|qr_nm:gd|res:RC4|com-cf:nl|ptrs:na|ktp:N0|mc:22735|mtp:S|qry_typ:P|lang:en|wc:2|cs:8835|v=4,False,,New Delhi,"Ground Floor, NO. 176/6A, Block-K, 70 Foot Road, Prem Nagar 2, Near By Jaanu Building, Kirari Suleman Nagar, North Delhi,, New Delhi - 110086, Dist.Delhi, Delhi",7949325238,
"Plastic and Stainless Steel Baby Walker, One to Two Years",https://www.indiamart.com/proddetail/baby-walker-2854769775148.html?pos=156&kwd=baby walkers&tags=A||||8663.873|Price|product|||NA|rsf:gd-|-stype:attr=1|qr_nm:gd|res:RC4|com-cf:nl|ptrs:na|ktp:N0|mc:22735|mtp:S|qry_typ:P|lang:en|wc:2|cs:8835|v=4,Sahil Enterprises,https://www.indiamart.com/sahilenterprisesbengaluru/?pos=156&kwd=baby walkers&tags=A||||8663.873|Price|product|||NA|rsf:gd-|-stype:attr=1|qr_nm:gd|res:RC4|com-cf:nl|ptrs:na|ktp:N0|mc:22735|mtp:S|qry_typ:P|lang:en|wc:2|cs:8835|v=4,False,Padarayana Pura,Bengaluru,"No.36,,5th Cross Rafath Nagar West Of Padarayanpura,Bengaluru, Padarayana Pura, Bengaluru - 560026, Dist.Bengaluru, Karnataka",7942717298,
Gurtoy,,Gurtoy,https://www.gurtoys.com/?pos=157&kwd=baby walkers&tags=A||||8661.854||bl|||TS|rsf:gd-|-stype:attr=1|qr_nm:gd|res:RC4|com-cf:nl|ptrs:na|ktp:N0|mc:22735|mtp:S|qry_typ:P|lang:en|wc:2|cs:8835|v=4,False,Model Town,Ludhiana,"B-18-3977 Model Town Road Gurtoy Ludhiana Ludhiana, Model Town, Ludhiana - 141002, Dist.Ludhiana, Punjab",7949082314,
"Plastic 6 Wheels Sky Blue Baby Walker, Four to Twelve Months",https://www.indiamart.com/proddetail/6-wheels-sky-blue-baby-walker-2854079802455.html?pos=158&kwd=baby walkers&tags=A||||8752.144|Price|product|||NA|rsf:gd-|-stype:attr=1|qr_nm:gd|res:RC4|com-cf:nl|ptrs:na|ktp:N0|mc:22735|mtp:S|qry_typ:P|lang:en|wc:2|cs:8835|v=4,Acetel Cycle Industries,https://www.indiamart.com/acetel-cycle-industriesnewdelhi/?pos=158&kwd=baby walkers&tags=A||||8752.144|Price|product|||NA|rsf:gd-|-stype:attr=1|qr_nm:gd|res:RC4|com-cf:nl|ptrs:na|ktp:N0|mc:22735|mtp:S|qry_typ:P|lang:en|wc:2|cs:8835|v=4,False,Jahangirpuri,New Delhi,"60 Jahangirpuri Bhalswa North west, Jahangirpuri, New Delhi - 110033, Dist.Delhi, Delhi",8044565849,
Wooden baby walker Multi colour,,Aram Wood works,https://www.indiamart.com/aram-enterprises/?pos=167&kwd=baby walkers&tags=A||||8662.111|Price|product|||NA|rsf:gd-|-stype:attr=1|qr_nm:gd|res:RC4|com-cf:nl|ptrs:na|ktp:N0|mc:22735|mtp:S|qry_typ:P|lang:en|wc:2|cs:8835|v=4,False,,Tirunelveli,"94, Seniyer Street, Ambasamudram, Tirunelveli, Dist.Tirunelveli, Tamil Nadu",8047682453,
8 Wheel Green Plastic Baby Walker,https://www.indiamart.com/proddetail/8-wheel-green-plastic-baby-walker-24293721730.html?pos=160&kwd=baby walkers&tags=A||||8752.144|Price|product|||NA|rsf:gd-|-stype:attr=1|qr_nm:gd|res:RC4|com-cf:nl|ptrs:na|ktp:N0|mc:22735|mtp:S|qry_typ:P|lang:en|wc:2|cs:8835|v=4,Chauhan Sons,https://www.indiamart.com/chauhansons/?pos=160&kwd=baby walkers&tags=A||||8752.144|Price|product|||NA|rsf:gd-|-stype:attr=1|qr_nm:gd|res:RC4|com-cf:nl|ptrs:na|ktp:N0|mc:22735|mtp:S|qry_typ:P|lang:en|wc:2|cs:8835|v=4,False,Karawal Nagar delhi,New Delhi,"D-25, Khasra No. 228 Gali No. 6, Khajoori Khas, Karawal Nagar delhi, New Delhi - 110094, Dist.Delhi, Delhi",7942534470,
Baby Walker,,Shree Khatu Shyam,https://www.indiamart.com/shree-khatu-shyam-ghaziabad/?pos=161&kwd=baby walkers&tags=BA||||8785.791||product|||NA|rsf:gd-|-stype:attr=1|qr_nm:gd|res:RC4|com-cf:nl|ptrs:na|ktp:N0|mc:22735|mtp:S|qry_typ:P|lang:en|wc:2|cs:8835|v=4,False,,Ghaziabad,"first Floor F-1157 Loni Road, Ghaziabad - 201102, Dist.Ghaziabad, Uttar Pradesh",8069707307,377
Baby Walker Manufacturer In Karnal,https://www.indiamart.com/proddetail/baby-walker-manufacturer-in-karnal-2853394012391.html?pos=162&kwd=baby walkers&tags=BA||||8752.144|Price|product|||NA|rsf:gd-|-stype:attr=1|qr_nm:gd|res:RC4|com-cf:nl|ptrs:na|ktp:N0|mc:22735|mtp:S|qry_typ:P|lang:en|wc:2|cs:8835|v=4,Friends Enterprises,https://www.indiamart.com/friends-enterprisesdelhi/?pos=162&kwd=baby walkers&tags=BA||||8752.144|Price|product|||NA|rsf:gd-|-stype:attr=1|qr_nm:gd|res:RC4|com-cf:nl|ptrs:na|ktp:N0|mc:22735|mtp:S|qry_typ:P|lang:en|wc:2|cs:8835|v=4,False,,New Delhi,"C-33,h 5 Jagat Puri Extention North, New Delhi - 110093, Dist.Delhi, Delhi",8047841629,
"Plastic & Stainless Steel Adjustable Baby Walker, 8",https://www.indiamart.com/proddetail/adjustable-baby-walker-23291474648.html?pos=163&kwd=baby walkers&tags=BB||||8785.791|Price|product|||NA|rsf:gd-|-stype:attr=1|qr_nm:gd|res:RC4|com-cf:nl|ptrs:na|ktp:N0|mc:22735|mtp:S|qry_typ:P|lang:en|wc:2|cs:8835|v=4,Dbolt Baby Products,https://www.indiamart.com/dbolt-baby-products/?pos=163&kwd=baby walkers&tags=BB||||8785.791|Price|product|||NA|rsf:gd-|-stype:attr=1|qr_nm:gd|res:RC4|com-cf:nl|ptrs:na|ktp:N0|mc:22735|mtp:S|qry_typ:P|lang:en|wc:2|cs:8835|v=4,False,,Ghaziabad,"C - 92 Shaheed Nagar, Ghaziabad - 201006, Dist.Ghaziabad, Uttar Pradesh",8046052616,
Kids Rapid Magic Car,https://www.indiamart.com/proddetail/kids-rapid-magic-car-2853466417962.html?pos=164&kwd=baby walkers&tags=BA||||8752.144|Price|proxy|||MDC|rsf:gd-|-stype:attr=1|qr_nm:gd|res:RC4|com-cf:nl|ptrs:na|ktp:N0|mc:22735|mtp:S|qry_typ:P|lang:en|wc:2|cs:8835|v=4,Carnival Traders,https://www.indiamart.com/carnivaltraders/?pos=164&kwd=baby walkers&tags=BA||||8752.144|Price|proxy|||MDC|rsf:gd-|-stype:attr=1|qr_nm:gd|res:RC4|com-cf:nl|ptrs:na|ktp:N0|mc:22735|mtp:S|qry_typ:P|lang:en|wc:2|cs:8835|v=4,False,Krishna Nagar,New Delhi,"First B-2, Maharaja Agrasen Marg, Competent Academy, Radhey Shyam Park Extension, Krishna Nagar, New Delhi - 110051, Dist.Delhi, Delhi",7949092613,
Vaishnavi Enterprises,,Vaishnavi Enterprises,https://www.indiamart.com/vaishnavienterprises-haryana/?pos=165&kwd=baby walkers&tags=BA||||8769.508||bl|||MDC|rsf:gd-|-stype:attr=1|qr_nm:gd|res:RC4|com-cf:nl|ptrs:na|ktp:N0|mc:22735|mtp:S|qry_typ:P|lang:en|wc:2|cs:8835|v=4,False,Ballabhgarh,Faridabad,"House No 68, Near Govt. Primary School, Mothuka Shiv Mandir, Ballabhgarh, Faridabad - 121101, Dist.Faridabad, Haryana",7949093248,
Anaya Metal Works,,Anaya Metal Works,https://www.indiamart.com/anaya-metal-works/?pos=166&kwd=baby walkers&tags=BA||||8752.144||bl|||MDC|rsf:gd-|-stype:attr=1|qr_nm:gd|res:RC4|com-cf:nl|ptrs:na|ktp:N0|mc:22735|mtp:S|qry_typ:P|lang:en|wc:2|cs:8835|v=4,False,Shalimar Bagh,New Delhi,"1st, 2nd, Top With Roof K-247 Sector-5 D.s.i.d.c Bawana Industrial Area, Shalimar Bagh, New Delhi - 110006, Dist.Delhi, Delhi",7942797149,
Wooden baby walker Multi colour,,Aram Wood works,https://www.indiamart.com/aram-enterprises/?pos=167&kwd=baby walkers&tags=A||||8662.111|Price|product|||NA|rsf:gd-|-stype:attr=1|qr_nm:gd|res:RC4|com-cf:nl|ptrs:na|ktp:N0|mc:22735|mtp:S|qry_typ:P|lang:en|wc:2|cs:8835|v=4,False,,Tirunelveli,"94, Seniyer Street, Ambasamudram, Tirunelveli, Dist.Tirunelveli, Tamil Nadu",8047682453,
"Up To 1. 5 Feet Plastic Baby Walker With Music, 6",https://www.indiamart.com/proddetail/baby-walker-with-music-22933829497.html?pos=168&kwd=baby walkers&tags=BB||||8752.144|Price|product|||NA|rsf:gd-|-stype:attr=1|qr_nm:gd|res:RC4|com-cf:nl|ptrs:na|ktp:N0|mc:22735|mtp:S|qry_typ:P|lang:en|wc:2|cs:8835|v=4,K.L Baby Product,https://www.indiamart.com/kl-baby-products/?pos=168&kwd=baby walkers&tags=BB||||8752.144|Price|product|||NA|rsf:gd-|-stype:attr=1|qr_nm:gd|res:RC4|com-cf:nl|ptrs:na|ktp:N0|mc:22735|mtp:S|qry_typ:P|lang:en|wc:2|cs:8835|v=4,False,,New Delhi,"B/136 K.H NUMBER 29/4 B- BLOCK SUSHILA GARDEN,STREET NUMBER 8,,MANDOLI ROAD Gali No. 7, House No. 308, Neelam Garden,110094,Delhi, New Delhi - 110093, Dist.Delhi, Delhi",8043819547,
Baby Walker Manufacturer In Karnal,https://www.indiamart.com/proddetail/baby-walker-manufacturer-in-karnal-2853394012391.html?pos=169&kwd=baby walkers&tags=BA||||8752.144|Price|product|||NA|rsf:gd-|-stype:attr=1|qr_nm:gd|res:RC4|com-cf:nl|ptrs:na|ktp:N0|mc:22735|mtp:S|qry_typ:P|lang:en|wc:2|cs:8835|v=4,Friends Enterprises,https://www.indiamart.com/friends-enterprisesdelhi/?pos=169&kwd=baby walkers&tags=BA||||8752.144|Price|product|||NA|rsf:gd-|-stype:attr=1|qr_nm:gd|res:RC4|com-cf:nl|ptrs:na|ktp:N0|mc:22735|mtp:S|qry_typ:P|lang:en|wc:2|cs:8835|v=4,False,,New Delhi,"C-33,h 5 Jagat Puri Extention North, New Delhi - 110093, Dist.Delhi, Delhi",8047841629,
"1 Baby Walkers, Vehicle Model: Avenger",https://www.indiamart.com/proddetail/baby-walkers-22042804612.html?pos=170&kwd=baby walkers&tags=BB||||8661.854|Price|product|||NA|rsf:gd-|-stype:attr=1|qr_nm:gd|res:RC4|com-cf:nl|ptrs:na|ktp:N0|mc:22735|mtp:S|qry_typ:P|lang:en|wc:2|cs:8835|v=4,New Payal Gift House,https://www.indiamart.com/new-payal-gift-house/?pos=170&kwd=baby walkers&tags=BB||||8661.854|Price|product|||NA|rsf:gd-|-stype:attr=1|qr_nm:gd|res:RC4|com-cf:nl|ptrs:na|ktp:N0|mc:22735|mtp:S|qry_typ:P|lang:en|wc:2|cs:8835|v=4,False,,Ludhiana,"KHALSA NATIONAL SCHOOL MKT,,,SHAHPUR ROAD,LUDHIAN 132-AB, Shahpur Road,141008,Ludhiana, Ludhiana - 141005, Dist.Ludhiana, Punjab",8048264926,
"Joy Ride Baby Learning Walker, 4",https://www.indiamart.com/proddetail/joy-ride-baby-learning-walker-25859091033.html?pos=171&kwd=baby walkers&tags=BB||||8595.936||product|||NA|rsf:gd-|-stype:attr=1|qr_nm:gd|res:RC4|com-cf:nl|ptrs:na|ktp:N0|mc:22735|mtp:S|qry_typ:P|lang:en|wc:2|cs:8835|v=4,Child World,https://www.indiamart.com/ms-child-world/?pos=171&kwd=baby walkers&tags=BB||||8595.936||product|||NA|rsf:gd-|-stype:attr=1|qr_nm:gd|res:RC4|com-cf:nl|ptrs:na|ktp:N0|mc:22735|mtp:S|qry_typ:P|lang:en|wc:2|cs:8835|v=4,False,,Jammu,"Sundar Singh Road, Raghunath Bazar, Jammu, J&K, Jammu - 180001, Dist.Jammu, Jammu & Kashmir",8047806501,
"1 Feet SS+plastic Green Baby Walkers, 6",https://www.indiamart.com/proddetail/green-baby-walkers-26156730548.html?pos=172&kwd=baby walkers&tags=BB||||9045.955|Price|product|||NA|rsf:gd-|-stype:attr=1|qr_nm:gd|res:RC4|com-cf:nl|ptrs:na|ktp:N0|mc:22735|mtp:S|qry_typ:P|lang:en|wc:2|cs:8835|v=4,A.K. Traders,https://www.indiamart.com/ak-traderskanpur/?pos=172&kwd=baby walkers&tags=BB||||9045.955|Price|product|||NA|rsf:gd-|-stype:attr=1|qr_nm:gd|res:RC4|com-cf:nl|ptrs:na|ktp:N0|mc:22735|mtp:S|qry_typ:P|lang:en|wc:2|cs:8835|v=4,False,,Kanpur,"42/53, Bisati Bazar, Meston Road, Kanpur Dehat, Kanpur - 208001, Uttar Pradesh",8043855761,
"Plastic Musical Baby Walker, 4",https://www.indiamart.com/proddetail/musical-baby-walker-26749484955.html?pos=173&kwd=baby walkers&tags=BB||||8740.707|Price|product|||NA|rsf:gd-|-stype:attr=1|qr_nm:gd|res:RC4|com-cf:nl|ptrs:na|ktp:N0|mc:22735|mtp:S|qry_typ:P|lang:en|wc:2|cs:8835|v=4,Mum's World,https://www.indiamart.com/mumsworld-mohali/?pos=173&kwd=baby walkers&tags=BB||||8740.707|Price|product|||NA|rsf:gd-|-stype:attr=1|qr_nm:gd|res:RC4|com-cf:nl|ptrs:na|ktp:N0|mc:22735|mtp:S|qry_typ:P|lang:en|wc:2|cs:8835|v=4,False,,Sas Nagar,"SCF 1827/1, Near KV Aata Chakki, Randhawa Road, Kharar, SAS Nagar, Sas Nagar - 140301, Dist.Mohali, Punjab",8047532475,
"1.5 Feet PVC Music Baby Walkers, 6",https://www.indiamart.com/proddetail/pvc-music-baby-walkers-22803947348.html?pos=174&kwd=baby walkers&tags=BB||||8752.144|Price|product|||NA|rsf:gd-|-stype:attr=1|qr_nm:gd|res:RC4|com-cf:nl|ptrs:na|ktp:N0|mc:22735|mtp:S|qry_typ:P|lang:en|wc:2|cs:8835|v=4,R. N. India Baby Products,https://www.indiamart.com/rnindiababyproducts/?pos=174&kwd=baby walkers&tags=BB||||8752.144|Price|product|||NA|rsf:gd-|-stype:attr=1|qr_nm:gd|res:RC4|com-cf:nl|ptrs:na|ktp:N0|mc:22735|mtp:S|qry_typ:P|lang:en|wc:2|cs:8835|v=4,False,,New Delhi,"D-49, 1st Floor, Milan Garden, Mandoli North East, New Delhi - 110093, Dist.Delhi, Delhi",8047659731,
Baby Walkers Toys,https://www.indiamart.com/proddetail/baby-walkers-toys-26170755630.html?pos=175&kwd=baby walkers&tags=BB||||8502.317|Price|product|||NA|rsf:gd-|-stype:attr=1|qr_nm:gd|res:RC4|com-cf:nl|ptrs:na|ktp:N0|mc:22735|mtp:S|qry_typ:P|lang:en|wc:2|cs:8835|v=4,Rajaram Toys And Gifts,https://www.indiamart.com/rajaram-toys-and-gifts/?pos=175&kwd=baby walkers&tags=BB||||8502.317|Price|product|||NA|rsf:gd-|-stype:attr=1|qr_nm:gd|res:RC4|com-cf:nl|ptrs:na|ktp:N0|mc:22735|mtp:S|qry_typ:P|lang:en|wc:2|cs:8835|v=4,False,,Hassan,"Shop No 3133,Rcc Building,Khata No 406/405-266-437,Sas No-267,Mahaveera Nilaya,Haleganaigara Beedi,Hassan Taluk,Hassan, Hassan - 573201, Dist.Hassan, Karnataka",8069017400,187
Baby Walker with Music,https://www.indiamart.com/proddetail/baby-walker-with-music-21901547462.html?pos=176&kwd=baby walkers&tags=BA||||8752.144|Price|product|||NA|rsf:gd-|-stype:attr=1|qr_nm:gd|res:RC4|com-cf:nl|ptrs:na|ktp:N0|mc:22735|mtp:S|qry_typ:P|lang:en|wc:2|cs:8835|v=4,Rahul Toys,https://www.indiamart.com/rahultoys/?pos=176&kwd=baby walkers&tags=BA||||8752.144|Price|product|||NA|rsf:gd-|-stype:attr=1|qr_nm:gd|res:RC4|com-cf:nl|ptrs:na|ktp:N0|mc:22735|mtp:S|qry_typ:P|lang:en|wc:2|cs:8835|v=4,False,Karawal Nagar,New Delhi,"B 127, Gali Number 3/3, Ambika Vihar, Shiv Vihar, Karawal Nagar, New Delhi - 110094, Dist.Delhi, Delhi",7942564058,
"12 Inch Plastic And Mild Steel Red Musical Baby Walker, 8, KWE-103",https://www.indiamart.com/proddetail/red-musical-baby-walker-25388848030.html?pos=177&kwd=baby walkers&tags=BB||||8752.144|Price|product|||NA|rsf:gd-|-stype:attr=1|qr_nm:gd|res:RC4|com-cf:nl|ptrs:na|ktp:N0|mc:22735|mtp:S|qry_typ:P|lang:en|wc:2|cs:8835|v=4,Kiddiewing Enterprises,https://www.indiamart.com/kiddiewingenterprises/?pos=177&kwd=baby walkers&tags=BB||||8752.144|Price|product|||NA|rsf:gd-|-stype:attr=1|qr_nm:gd|res:RC4|com-cf:nl|ptrs:na|ktp:N0|mc:22735|mtp:S|qry_typ:P|lang:en|wc:2|cs:8835|v=4,False,,New Delhi,"House No. New No.61-A, Plot No.170-A, Khasra No.1337, Floor Ground, Gali No.3, Block-H, Ph-1, North West Delhi, New Delhi - 110086, Dist.Delhi, Delhi",8048269061,
"Adjustable Plastic Panda Baby Walkers, 6, 111 Walker With Handel",https://www.indiamart.com/proddetail/panda-baby-walkers-23491796188.html?pos=178&kwd=baby walkers&tags=BA||||8603.455|Price|product|||NA|rsf:gd-|-stype:attr=1|qr_nm:gd|res:RC4|com-cf:nl|ptrs:na|ktp:N0|mc:22735|mtp:S|qry_typ:P|lang:en|wc:2|cs:8835|v=4,Deep Gift Center,https://www.indiamart.com/deep-gi/?pos=178&kwd=baby walkers&tags=BA||||8603.455|Price|product|||NA|rsf:gd-|-stype:attr=1|qr_nm:gd|res:RC4|com-cf:nl|ptrs:na|ktp:N0|mc:22735|mtp:S|qry_typ:P|lang:en|wc:2|cs:8835|v=4,False,Mandi Road Thakur Basti,Fatehabad,"Deep Gift Center,Thakar Basti, Mandi Road Thakur Basti, Fatehabad - 125050, Haryana",7949367497,
Plastic Baby Walker,https://www.indiamart.com/proddetail/baby-walker-23292692662.html?pos=179&kwd=baby walkers&tags=BB||||8752.144|Price|product|||NA|rsf:gd-|-stype:attr=1|qr_nm:gd|res:RC4|com-cf:nl|ptrs:na|ktp:N0|mc:22735|mtp:S|qry_typ:P|lang:en|wc:2|cs:8835|v=4,Jain Trendz,https://www.indiamart.com/jaintrendznewdelhi/?pos=179&kwd=baby walkers&tags=BB||||8752.144|Price|product|||NA|rsf:gd-|-stype:attr=1|qr_nm:gd|res:RC4|com-cf:nl|ptrs:na|ktp:N0|mc:22735|mtp:S|qry_typ:P|lang:en|wc:2|cs:8835|v=4,False,near Pacific Mall,New Delhi,"4/66 Sahibabad Industrial area Site 4 Ghaziabad, near Pacific Mall, New Delhi - 110029, Dist.Delhi, Delhi",8048609979,
"10Inch Plastic And Aluminum Green Baby Walkers, 4 Wheel",https://www.indiamart.com/proddetail/green-baby-walkers-25510879791.html?pos=180&kwd=baby walkers&tags=BB||||8211.142|Price|product|||NA|rsf:gd-|-stype:attr=1|qr_nm:gd|res:RC4|com-cf:nl|ptrs:na|ktp:N0|mc:22735|mtp:S|qry_typ:P|lang:en|wc:2|cs:8835|v=4,Muskan Traders,https://www.indiamart.com/muskan-traders-mumbai/?pos=180&kwd=baby walkers&tags=BB||||8211.142|Price|product|||NA|rsf:gd-|-stype:attr=1|qr_nm:gd|res:RC4|com-cf:nl|ptrs:na|ktp:N0|mc:22735|mtp:S|qry_typ:P|lang:en|wc:2|cs:8835|v=4,False,Suburban,Mumbai,"Gala -C10,Ground Floor,Nepali Chawl,Behram Baug Road, NR Classic Service Centre,Jogeshwari West,, Suburban, Mumbai - 400102, Dist.Mumbai, Maharashtra",8047650116,
"40 cm Plastic And Iron Child Craft Baby Walkers, 6",https://www.indiamart.com/proddetail/child-craft-baby-walkers-24730870697.html?pos=181&kwd=baby walkers&tags=BB||||8752.144|Price|product|||NA|rsf:gd-|-stype:attr=1|qr_nm:gd|res:RC4|com-cf:nl|ptrs:na|ktp:N0|mc:22735|mtp:S|qry_typ:P|lang:en|wc:2|cs:8835|v=4,Diptya Innovations,https://www.indiamart.com/diptyainnovations/?pos=181&kwd=baby walkers&tags=BB||||8752.144|Price|product|||NA|rsf:gd-|-stype:attr=1|qr_nm:gd|res:RC4|com-cf:nl|ptrs:na|ktp:N0|mc:22735|mtp:S|qry_typ:P|lang:en|wc:2|cs:8835|v=4,False,,New Delhi,"SECOND FLOOR- A -25 KESHO RAM PARK, BINDAPUR, UTTAM NAGAR, New Delhi - 110059, Dist.Delhi, Delhi",7942531887,
"Iron Or Plastic Baby Walkers Toys, 6, Capsule Walker Led",https://www.indiamart.com/proddetail/baby-walkers-toys-26058292348.html?pos=182&kwd=baby walkers&tags=BA||||8752.144|Price|product|||NA|rsf:gd-|-stype:attr=1|qr_nm:gd|res:RC4|com-cf:nl|ptrs:na|ktp:N0|mc:22735|mtp:S|qry_typ:P|lang:en|wc:2|cs:8835|v=4,Durga Tricycles,https://www.indiamart.com/durgatricycles/?pos=182&kwd=baby walkers&tags=BA||||8752.144|Price|product|||NA|rsf:gd-|-stype:attr=1|qr_nm:gd|res:RC4|com-cf:nl|ptrs:na|ktp:N0|mc:22735|mtp:S|qry_typ:P|lang:en|wc:2|cs:8835|v=4,False,Krishna Nagar,New Delhi,"4/33, Ground Floor, Geeta Colony, Krishna Nagar, New Delhi - 110031, Dist.Delhi, Delhi",8048963662,
"28 cm Mild Steel And Plastic Handle Baby Walkers, 6 Wheel",https://www.indiamart.com/proddetail/handle-baby-walkers-24974624162.html?pos=183&kwd=baby walkers&tags=BB||||8752.144|Price|product|||NA|rsf:gd-|-stype:attr=1|qr_nm:gd|res:RC4|com-cf:nl|ptrs:na|ktp:N0|mc:22735|mtp:S|qry_typ:P|lang:en|wc:2|cs:8835|v=4,Aries Enterprises,https://www.indiamart.com/aries-enterprises-newdelhi/?pos=183&kwd=baby walkers&tags=BB||||8752.144|Price|product|||NA|rsf:gd-|-stype:attr=1|qr_nm:gd|res:RC4|com-cf:nl|ptrs:na|ktp:N0|mc:22735|mtp:S|qry_typ:P|lang:en|wc:2|cs:8835|v=4,False,Budh Vihar Phase -1,New Delhi,"Prop No 15, KH No 80/22, 1st Floor, Block F-2, Budh Vihar, Phase-1, Pooth Kalan, Budh Vihar Phase -1, New Delhi - 110086, Dist.Delhi, Delhi",8047307345,
"Baby Walkers Kids Walkers With Music Panel, 6",https://www.indiamart.com/proddetail/baby-walkers-kids-walkers-with-music-panel-2852925774133.html?pos=184&kwd=baby walkers&tags=BB||||8624.416|Price|product|||NA|rsf:gd-|-stype:attr=1|qr_nm:gd|res:RC4|com-cf:nl|ptrs:na|ktp:N0|mc:22735|mtp:S|qry_typ:P|lang:en|wc:2|cs:8835|v=4,JSD Impex,https://www.indiamart.com/jsd-impex-hisar/?pos=184&kwd=baby walkers&tags=BB||||8624.416|Price|product|||NA|rsf:gd-|-stype:attr=1|qr_nm:gd|res:RC4|com-cf:nl|ptrs:na|ktp:N0|mc:22735|mtp:S|qry_typ:P|lang:en|wc:2|cs:8835|v=4,False,,Hisar,"274 B, Model Town, Hisar - 125001, Dist.Hisar, Haryana",8047622417,
Musical Pink Baby Walker,,Sharma Toys,https://www.indiamart.com/sharma-toys-new-delhi/?pos=185&kwd=baby walkers&tags=BA||||8752.144|Price|product|||NA|rsf:gd-|-stype:attr=1|qr_nm:gd|res:RC4|com-cf:nl|ptrs:na|ktp:N0|mc:22735|mtp:S|qry_typ:P|lang:en|wc:2|cs:8835|v=4,False,Gandhi Nagar,New Delhi,"9/916,Street No 3,Prem Gali,Gandhi Nagar,East, Gandhi Nagar, New Delhi - 110031, Dist.Delhi, Delhi",8048370719,1993
22 cm Plastic And Metal 6 Wheels Musical Activity Baby Walker,https://www.indiamart.com/proddetail/6-wheels-musical-activity-baby-walker-23259679873.html?pos=186&kwd=baby walkers&tags=BB||||8752.144|Price|product|||NA|rsf:gd-|-stype:attr=1|qr_nm:gd|res:RC4|com-cf:nl|ptrs:na|ktp:N0|mc:22735|mtp:S|qry_typ:P|lang:en|wc:2|cs:8835|v=4,Khushboo Toys,https://www.indiamart.com/khushboo-toys/?pos=186&kwd=baby walkers&tags=BB||||8752.144|Price|product|||NA|rsf:gd-|-stype:attr=1|qr_nm:gd|res:RC4|com-cf:nl|ptrs:na|ktp:N0|mc:22735|mtp:S|qry_typ:P|lang:en|wc:2|cs:8835|v=4,False,,New Delhi,"House No-7, Gali No-2, Village Sherpur, Agarwal Dharmshala, New Delhi - 110094, Dist.Delhi, Delhi",8047547632,
"Plastic & Iron LML DLX BOX Baby walker, 3",https://www.indiamart.com/proddetail/lml-dlx-box-baby-walker-2849568578088.html?pos=187&kwd=baby walkers&tags=BB||||8752.144||product|||NA|rsf:gd-|-stype:attr=1|qr_nm:gd|res:RC4|com-cf:nl|ptrs:na|ktp:N0|mc:22735|mtp:S|qry_typ:P|lang:en|wc:2|cs:8835|v=4,Horse Baby Cycle,https://www.indiamart.com/horsebabycycle/?pos=187&kwd=baby walkers&tags=BB||||8752.144||product|||NA|rsf:gd-|-stype:attr=1|qr_nm:gd|res:RC4|com-cf:nl|ptrs:na|ktp:N0|mc:22735|mtp:S|qry_typ:P|lang:en|wc:2|cs:8835|v=4,False,Shahdara,New Delhi,"42,PVT.NO. 42/2,,GALI NO. 3, PROPERTY NO.-42,,FRIENDS COLONY INDUSTRIAL AREA B-42/2, Gali No. 3, Friends Colony, Industrial Area,110032,Delhi, Shahdara, New Delhi - 110095, Dist.Delhi, Delhi",8046053368,
Green (base) Toyzoy Plastic Baby Walkers,https://www.indiamart.com/proddetail/toyzoy-plastic-baby-walkers-2853086503955.html?pos=188&kwd=baby walkers&tags=BA||||8786.56|Price|product|||NA|rsf:gd-|-stype:attr=1|qr_nm:gd|res:RC4|com-cf:nl|ptrs:na|ktp:N0|mc:22735|mtp:S|qry_typ:P|lang:en|wc:2|cs:8835|v=4,Sunil Enterprises,https://www.indiamart.com/sunilenterpriseshyderabad/?pos=188&kwd=baby walkers&tags=BA||||8786.56|Price|product|||NA|rsf:gd-|-stype:attr=1|qr_nm:gd|res:RC4|com-cf:nl|ptrs:na|ktp:N0|mc:22735|mtp:S|qry_typ:P|lang:en|wc:2|cs:8835|v=4,False,Himayatnagar,Hyderabad,"4-1-889/18, Tilak Road, Abids, Himayatnagar, Hyderabad - 500001, Dist.Hyderabad, Telangana",7942963263,
"1.5Feet Apple Baby Walker, 6 Wheel",https://www.indiamart.com/proddetail/apple-baby-walker-27013466162.html?pos=189&kwd=baby walkers&tags=BB||||8752.144|Price|product|||NA|rsf:gd-|-stype:attr=1|qr_nm:gd|res:RC4|com-cf:nl|ptrs:na|ktp:N0|mc:22735|mtp:S|qry_typ:P|lang:en|wc:2|cs:8835|v=4,Bebek International,https://www.indiamart.com/bebek-international/?pos=189&kwd=baby walkers&tags=BB||||8752.144|Price|product|||NA|rsf:gd-|-stype:attr=1|qr_nm:gd|res:RC4|com-cf:nl|ptrs:na|ktp:N0|mc:22735|mtp:S|qry_typ:P|lang:en|wc:2|cs:8835|v=4,False,East,New Delhi,"No - 1, Rani Grden, Main Road,, East, New Delhi - 110031, Dist.Delhi, Delhi",8043892888,
1.5 Metal Baby Toy Walker,https://www.indiamart.com/proddetail/baby-toy-walker-27019808173.html?pos=190&kwd=baby walkers&tags=BB||||8752.144||product|||NA|rsf:gd-|-stype:attr=1|qr_nm:gd|res:RC4|com-cf:nl|ptrs:na|ktp:N0|mc:22735|mtp:S|qry_typ:P|lang:en|wc:2|cs:8835|v=4,Siddharth Enterprises,https://www.indiamart.com/siddharth-enterprises-bawana/?pos=190&kwd=baby walkers&tags=BB||||8752.144||product|||NA|rsf:gd-|-stype:attr=1|qr_nm:gd|res:RC4|com-cf:nl|ptrs:na|ktp:N0|mc:22735|mtp:S|qry_typ:P|lang:en|wc:2|cs:8835|v=4,False,Bawana,New Delhi,"Plot No. 53 - Pocket P Sector-3, Bawana, New Delhi - 110039, Dist.Delhi, Delhi",8047653708,
"Multicolor Plastic 8 Band Capsule Panda Pink Baby Walkers, Four to Twelve Months",https://www.indiamart.com/proddetail/8-band-capsule-panda-pink-baby-walkers-2854280145848.html?pos=191&kwd=baby walkers&tags=BA||||8752.144|Price|product|||NA|rsf:gd-|-stype:attr=1|qr_nm:gd|res:RC4|com-cf:nl|ptrs:na|ktp:N0|mc:22735|mtp:S|qry_typ:P|lang:en|wc:2|cs:8835|v=4,P.S. Tradingco.,https://www.indiamart.com/ps-tradingco-newdelhi/?pos=191&kwd=baby walkers&tags=BA||||8752.144|Price|product|||NA|rsf:gd-|-stype:attr=1|qr_nm:gd|res:RC4|com-cf:nl|ptrs:na|ktp:N0|mc:22735|mtp:S|qry_typ:P|lang:en|wc:2|cs:8835|v=4,False,,New Delhi,"Khasra No.102/1 Gali Number 3,4,F Block,Tomar Colony, Pupm Burari Central Delhi, New Delhi - 110084, Dist.Delhi, Delhi",8045736423,
AMALOVE Mama love Musical Baby Walkers,https://www.indiamart.com/proddetail/mama-love-musical-baby-walkers-19336790255.html?pos=192&kwd=baby walkers&tags=BB||||8752.144|Price|product|||NA|rsf:gd-|-stype:attr=1|qr_nm:gd|res:RC4|com-cf:nl|ptrs:na|ktp:N0|mc:22735|mtp:S|qry_typ:P|lang:en|wc:2|cs:8835|v=4,Hitesh Toy Products,https://www.indiamart.com/hiteshtoyproducts/?pos=192&kwd=baby walkers&tags=BB||||8752.144|Price|product|||NA|rsf:gd-|-stype:attr=1|qr_nm:gd|res:RC4|com-cf:nl|ptrs:na|ktp:N0|mc:22735|mtp:S|qry_typ:P|lang:en|wc:2|cs:8835|v=4,False,Bawana,New Delhi,"12/88,GEETA COLONY,,BLOCK 12 J 25, Sector 4,110039,Delhi, Bawana, New Delhi - 110031, Dist.Delhi, Delhi",8047668917,
"Plastic And Stainless Steel 13 Inch Musical Baby Walker, 6",https://www.indiamart.com/proddetail/13-inch-musical-baby-walker-23190486088.html?pos=193&kwd=baby walkers&tags=BB||||8752.144|Price|product|||NA|rsf:gd-|-stype:attr=1|qr_nm:gd|res:RC4|com-cf:nl|ptrs:na|ktp:N0|mc:22735|mtp:S|qry_typ:P|lang:en|wc:2|cs:8835|v=4,M K Industries,https://www.indiamart.com/mkindustries-newdelhi/?pos=193&kwd=baby walkers&tags=BB||||8752.144|Price|product|||NA|rsf:gd-|-stype:attr=1|qr_nm:gd|res:RC4|com-cf:nl|ptrs:na|ktp:N0|mc:22735|mtp:S|qry_typ:P|lang:en|wc:2|cs:8835|v=4,False,Shahdara,New Delhi,"32/31,,GF,East Delhi,Delhi,110032,BHIKAM SINGH COLONY VISHWAS NAGAR SHAHDARA, Shahdara, New Delhi - 110032, Dist.Delhi, Delhi",7942648283,
"24 Inch Hard Plastic Frame Baby Walkers Toys (111 or 007), 5",https://www.indiamart.com/proddetail/baby-walkers-toys-111-or-007-25896420573.html?pos=194&kwd=baby walkers&tags=BB||||10180.86|Price|product|||NA|rsf:gd-|-stype:attr=1|qr_nm:gd|res:RC4|com-cf:nl|ptrs:na|ktp:N0|mc:22735|mtp:S|qry_typ:P|lang:en|wc:2|cs:8835|v=4,Chirag International,https://www.indiamart.com/chiraginternationalguwahati/?pos=194&kwd=baby walkers&tags=BB||||10180.86|Price|product|||NA|rsf:gd-|-stype:attr=1|qr_nm:gd|res:RC4|com-cf:nl|ptrs:na|ktp:N0|mc:22735|mtp:S|qry_typ:P|lang:en|wc:2|cs:8835|v=4,False,Fancy Bazaar,Guwahati,"Room 57, Meer Apatti, Masjid Lane, Fancy Bazaar, Guwahati - 781001, Dist.Kamrup, Assam",8046062514,
"1.5 Feet Blue Plastic Baby Walker, 4",https://www.indiamart.com/proddetail/blue-plastic-baby-walker-27622515055.html?pos=195&kwd=baby walkers&tags=BB||||8556.61|Price|product|||NA|rsf:gd-|-stype:attr=1|qr_nm:gd|res:RC4|com-cf:nl|ptrs:na|ktp:N0|mc:22735|mtp:S|qry_typ:P|lang:en|wc:2|cs:8835|v=4,Select Baby World,https://www.indiamart.com/selectbabyworld/?pos=195&kwd=baby walkers&tags=BB||||8556.61|Price|product|||NA|rsf:gd-|-stype:attr=1|qr_nm:gd|res:RC4|com-cf:nl|ptrs:na|ktp:N0|mc:22735|mtp:S|qry_typ:P|lang:en|wc:2|cs:8835|v=4,False,,Mysore,"No. 805 L-28 1st West Cross, Shop No. 1, Lashkar Mohalla, Mysore - 570001, Dist.Mysuru, Karnataka",8047548812,
"14 Metal And Plastic Musical Baby Walker, 6, Mje_music",https://www.indiamart.com/proddetail/musical-baby-walker-22935502933.html?pos=196&kwd=baby walkers&tags=BB||||8752.144|Price|product|||NA|rsf:gd-|-stype:attr=1|qr_nm:gd|res:RC4|com-cf:nl|ptrs:na|ktp:N0|mc:22735|mtp:S|qry_typ:P|lang:en|wc:2|cs:8835|v=4,M J Enterprises,https://www.indiamart.com/mjenterprises-delhi/?pos=196&kwd=baby walkers&tags=BB||||8752.144|Price|product|||NA|rsf:gd-|-stype:attr=1|qr_nm:gd|res:RC4|com-cf:nl|ptrs:na|ktp:N0|mc:22735|mtp:S|qry_typ:P|lang:en|wc:2|cs:8835|v=4,False,Kirari Suleman Nagar,New Delhi,"H NO-PVT-467-B,,GALI NO.12 BLK-B,PREM NAGAR PH-2,,DELHI B-467, Prem Nagar, 2nd,110086,Delhi, Kirari Suleman Nagar, New Delhi - 110041, Dist.Delhi, Delhi",8048261644,
Baby walker,,Smile Baby,https://www.indiamart.com/smilebaby-154494155/?pos=197&kwd=baby walkers&tags=BB||||9572.14|Price|product|||NA|rsf:gd-|-stype:attr=1|qr_nm:gd|res:RC4|com-cf:nl|ptrs:na|ktp:N0|mc:22735|mtp:S|qry_typ:P|lang:en|wc:2|cs:8835|v=4,False,unti 1 market,Bhubaneswar,"b J B Nagar 1721 Bbsr Badagada Canal Colony Bbsr, unti 1 market, Bhubaneswar - 751014, Dist.Khorda, Odisha",8069857340,394
"1.5feet Red Plastic Baby Walker, 6",https://www.indiamart.com/proddetail/red-plastic-baby-walker-26273586412.html?pos=198&kwd=baby walkers&tags=BB||||8752.144|Price|product|||NA|rsf:gd-|-stype:attr=1|qr_nm:gd|res:RC4|com-cf:nl|ptrs:na|ktp:N0|mc:22735|mtp:S|qry_typ:P|lang:en|wc:2|cs:8835|v=4,Poonam Enterprises,https://www.indiamart.com/poonam-enterprisesdelhi/?pos=198&kwd=baby walkers&tags=BB||||8752.144|Price|product|||NA|rsf:gd-|-stype:attr=1|qr_nm:gd|res:RC4|com-cf:nl|ptrs:na|ktp:N0|mc:22735|mtp:S|qry_typ:P|lang:en|wc:2|cs:8835|v=4,False,,New Delhi,"House No.95A,Sarojini Naidu Park, Shastri Nagar, East Delhi, New Delhi - 110031, Dist.Delhi, Delhi",8048269027,
MotherLike Activity Baby Walker,https://www.indiamart.com/proddetail/motherlike-activity-baby-walker-23953822155.html?pos=199&kwd=baby walkers&tags=BB||||8601.347|Price|product|||NA|rsf:gd-|-stype:attr=1|qr_nm:gd|res:RC4|com-cf:nl|ptrs:na|ktp:N0|mc:22735|mtp:S|qry_typ:P|lang:en|wc:2|cs:8835|v=4,Motherlike,https://www.indiamart.com/motherlike/?pos=199&kwd=baby walkers&tags=BB||||8601.347|Price|product|||NA|rsf:gd-|-stype:attr=1|qr_nm:gd|res:RC4|com-cf:nl|ptrs:na|ktp:N0|mc:22735|mtp:S|qry_typ:P|lang:en|wc:2|cs:8835|v=4,False,Malviya Nagar,Jaipur,"C-158, Malviya Nagar, Jaipur - 302017, Dist.Jaipur, Rajasthan",7942563960,
Wooden Baby Walker,https://www.indiamart.com/proddetail/wooden-baby-walker-2849755313962.html?pos=200&kwd=baby walkers&tags=BB||||8228.275|Price|product|||NA|rsf:gd-|-stype:attr=1|qr_nm:gd|res:RC4|com-cf:nl|ptrs:na|ktp:N0|mc:22735|mtp:S|qry_typ:P|lang:en|wc:2|cs:8835|v=4,Indu Toys,https://www.indiamart.com/indu-toys/?pos=200&kwd=baby walkers&tags=BB||||8228.275|Price|product|||NA|rsf:gd-|-stype:attr=1|qr_nm:gd|res:RC4|com-cf:nl|ptrs:na|ktp:N0|mc:22735|mtp:S|qry_typ:P|lang:en|wc:2|cs:8835|v=4,False,Naroda,Ahmedabad,"18 Navyug School Road, Parth Bunglows, Naroda, Ahmedabad - 382330, Dist.Ahmedabad, Gujarat",8069857326,813
Baby Walker,https://www.indiamart.com/proddetail/baby-walker-22653403633.html?pos=201&kwd=baby walkers&tags=BB||||8752.144|Price|product|||NA|rsf:gd-|-stype:attr=1|qr_nm:gd|res:RC4|com-cf:nl|ptrs:na|ktp:N0|mc:22735|mtp:S|qry_typ:P|lang:en|wc:2|cs:8835|v=4,Unickpoint,https://www.indiamart.com/uniokpoint/?pos=201&kwd=baby walkers&tags=BB||||8752.144|Price|product|||NA|rsf:gd-|-stype:attr=1|qr_nm:gd|res:RC4|com-cf:nl|ptrs:na|ktp:N0|mc:22735|mtp:S|qry_typ:P|lang:en|wc:2|cs:8835|v=4,False,Monthal Hospital,New Delhi,"B-294 Sharda Vats Enclave Prem Nagar 3 Kirari Suleman Nagar, Monthal Hospital, New Delhi - 110086, Dist.Delhi, Delhi",8048372670,656
Musical Baby Walker,,First Smile,https://www.indiamart.com/first-smile-delhi/?pos=202&kwd=baby walkers&tags=BB||||8752.144|Price|product|||NA|rsf:gd-|-stype:attr=1|qr_nm:gd|res:RC4|com-cf:nl|ptrs:na|ktp:N0|mc:22735|mtp:S|qry_typ:P|lang:en|wc:2|cs:8835|v=4,False,,New Delhi,"Jain Temple, Arya Pura, New Delhi - 110007, Dist.Delhi, Delhi",8048249698,7004
Baby Walker Balls,https://www.indiamart.com/proddetail/baby-walker-balls-18925075455.html?pos=203&kwd=baby walkers&tags=BB||||8752.144||product|||NA|rsf:gd-|-stype:attr=1|qr_nm:gd|res:RC4|com-cf:nl|ptrs:na|ktp:N0|mc:22735|mtp:S|qry_typ:P|lang:en|wc:2|cs:8835|v=4,Durga Plastic,https://www.indiamart.com/durga-plastic/?pos=203&kwd=baby walkers&tags=BB||||8752.144||product|||NA|rsf:gd-|-stype:attr=1|qr_nm:gd|res:RC4|com-cf:nl|ptrs:na|ktp:N0|mc:22735|mtp:S|qry_typ:P|lang:en|wc:2|cs:8835|v=4,False,Tukmirpur Gaon,New Delhi,"T-68, Khasra No 480, Gali No 3, Tukmirpur Gaon, Tukmirpur Gaon, New Delhi - 110094, Dist.Delhi, Delhi",8048372620,720
"Star Music Nikil PVC Baby Walker, 6 Wheels",https://www.indiamart.com/proddetail/star-music-nikil-pvc-baby-walker-22306271648.html?pos=204&kwd=baby walkers&tags=BB||||8752.144|Price|product|||NA|rsf:gd-|-stype:attr=1|qr_nm:gd|res:RC4|com-cf:nl|ptrs:na|ktp:N0|mc:22735|mtp:S|qry_typ:P|lang:en|wc:2|cs:8835|v=4,Royal Enterprises,https://www.indiamart.com/royalenterprises-49300469/?pos=204&kwd=baby walkers&tags=BB||||8752.144|Price|product|||NA|rsf:gd-|-stype:attr=1|qr_nm:gd|res:RC4|com-cf:nl|ptrs:na|ktp:N0|mc:22735|mtp:S|qry_typ:P|lang:en|wc:2|cs:8835|v=4,False,Mandoli Extension,New Delhi,"C block43 gali no - 5 Milan Garden mandoli, Mandoli Extension, New Delhi - 110093, Dist.Delhi, Delhi",8048372502,747
"18inch Kids Plastic Baby Walker, 6",https://www.indiamart.com/proddetail/18inch-kids-plastic-baby-walker-2850142418033.html?pos=205&kwd=baby walkers&tags=BB||||8752.144|Price|product|||NA|rsf:gd-|-stype:attr=1|qr_nm:gd|res:RC4|com-cf:nl|ptrs:na|ktp:N0|mc:22735|mtp:S|qry_typ:P|lang:en|wc:2|cs:8835|v=4,Divya Toys,https://www.indiamart.com/divya-toys-newdelhi/?pos=205&kwd=baby walkers&tags=BB||||8752.144|Price|product|||NA|rsf:gd-|-stype:attr=1|qr_nm:gd|res:RC4|com-cf:nl|ptrs:na|ktp:N0|mc:22735|mtp:S|qry_typ:P|lang:en|wc:2|cs:8835|v=4,False,,New Delhi,"B-614, Gali No-5, Kabir Nagar, North East Delhi, New Delhi - 110094, Dist.Delhi, Delhi",7942671767,
"Wooden Baby Walker, 4",https://www.indiamart.com/proddetail/wooden-baby-walker-27287529712.html?pos=206&kwd=baby walkers&tags=BA||||8619.399|Price|product|||NA|rsf:gd-|-stype:attr=1|qr_nm:gd|res:RC4|com-cf:nl|ptrs:na|ktp:N0|mc:22735|mtp:S|qry_typ:P|lang:en|wc:2|cs:8835|v=4,Moon Star Toys Factory,https://www.indiamart.com/moon-star-toysfactory/?pos=206&kwd=baby walkers&tags=BA||||8619.399|Price|product|||NA|rsf:gd-|-stype:attr=1|qr_nm:gd|res:RC4|com-cf:nl|ptrs:na|ktp:N0|mc:22735|mtp:S|qry_typ:P|lang:en|wc:2|cs:8835|v=4,False,,Channapatna,"1287, Moon Star Toys Factory, Jeevan Pur Mohalla Daira, Ramanagara, Channapatna - 562160, Dist.Ramanagar, Karnataka",8047547926,
"44Cm Palstic Dash Walker, 4",https://www.indiamart.com/proddetail/dash-walker-2850264966348.html?pos=207&kwd=baby walkers&tags=BB||||7964.59|Price|product|||NA|rsf:gd-|-stype:attr=1|qr_nm:gd|res:RC4|com-cf:nl|ptrs:na|ktp:N0|mc:22735|mtp:S|qry_typ:P|lang:en|wc:2|cs:8835|v=4,Ramde Readymade,https://www.indiamart.com/ramde-readymade/?pos=207&kwd=baby walkers&tags=BB||||7964.59|Price|product|||NA|rsf:gd-|-stype:attr=1|qr_nm:gd|res:RC4|com-cf:nl|ptrs:na|ktp:N0|mc:22735|mtp:S|qry_typ:P|lang:en|wc:2|cs:8835|v=4,False,Bidada,Kutch,"Near Bus Stop Bidada Old Bus station Bidada Near Post office, Bidada, Kutch - 370435, Dist.Kachchh, Gujarat",8048249674,5435
"18 Inch Baby Walker, 3, Chettinad Model",https://www.indiamart.com/proddetail/baby-walker-22464273730.html?pos=208&kwd=baby walkers&tags=BA||||8779.44|Price|product|||NA|rsf:gd-|-stype:attr=1|qr_nm:gd|res:RC4|com-cf:nl|ptrs:na|ktp:N0|mc:22735|mtp:S|qry_typ:P|lang:en|wc:2|cs:8835|v=4,Sss Wood Furniture,https://www.indiamart.com/sss-wood-furniture/?pos=208&kwd=baby walkers&tags=BA||||8779.44|Price|product|||NA|rsf:gd-|-stype:attr=1|qr_nm:gd|res:RC4|com-cf:nl|ptrs:na|ktp:N0|mc:22735|mtp:S|qry_typ:P|lang:en|wc:2|cs:8835|v=4,False,,Karaikkudi,"Senjai, Karaikkudi - 630001, Dist.Sivaganga, Tamil Nadu",8048371747,536
"20 Inch Virgin Plastic,6 Sut Pipe Baby walker ROBOT Musical C/P, 6 Big Wheels, BW-3007",https://www.indiamart.com/proddetail/baby-walker-robot-musical-c-p-23434306888.html?pos=209&kwd=baby walkers&tags=BB||||9111.322|Price|product|||NA|rsf:gd-|-stype:attr=1|qr_nm:gd|res:RC4|com-cf:nl|ptrs:na|ktp:N0|mc:22735|mtp:S|qry_typ:P|lang:en|wc:2|cs:8835|v=4,Ashish Traders,https://www.indiamart.com/ashish-traders-bhilai/?pos=209&kwd=baby walkers&tags=BB||||9111.322|Price|product|||NA|rsf:gd-|-stype:attr=1|qr_nm:gd|res:RC4|com-cf:nl|ptrs:na|ktp:N0|mc:22735|mtp:S|qry_typ:P|lang:en|wc:2|cs:8835|v=4,False,,Bhilai,"Ashish Trdaers Bajarang Para / G.e.road Bhilai-3 Bajrang Para, Near New Police Station, Bhilai - 490025, Dist.Durg, Chhattisgarh",8048372181,724
Baby Walker,https://www.indiamart.com/proddetail/baby-walker-23026404633.html?pos=210&kwd=baby walkers&tags=BB||||8556.223|Price|product|||NA|rsf:gd-|-stype:attr=1|qr_nm:gd|res:RC4|com-cf:nl|ptrs:na|ktp:N0|mc:22735|mtp:S|qry_typ:P|lang:en|wc:2|cs:8835|v=4,Gori Cycle Store,https://www.indiamart.com/gori-cycle-store-garoth/?pos=210&kwd=baby walkers&tags=BB||||8556.223|Price|product|||NA|rsf:gd-|-stype:attr=1|qr_nm:gd|res:RC4|com-cf:nl|ptrs:na|ktp:N0|mc:22735|mtp:S|qry_typ:P|lang:en|wc:2|cs:8835|v=4,False,boliya,Garoth,"Bolia, boliya, Garoth - 458880, Dist.Mandsaur, Madhya Pradesh",8048372416,818
