product_title,product_link,company_name,company_link,is_verified_exporter,city_region,city,address_details,phone_number,phone_number_extension
"Blue Metal & Cloth Pram (Cutie Dlx.) Crome Wheel, Age Group: Newly Born, Packaging Type: Box",https://www.indiamart.com/proddetail/cloth-baby-pram-crome-2850512777233.html?pos=1&kwd=baby prams&tags=A||||8752.144|Price|product|||LSnp|rsf:gd-|-stype:attr=1|qr_nm:gd|res:RC3|com-cf:nl|ptrs:na|ktp:N0|mc:55655|mtp:S|qry_typ:P|lang:en|wc:2|flavl:0-1|cs:9698|v=4,Steel Art (A Brand Of Mittal Enterprises),https://www.indiamart.com/mittalentps-delhi/?pos=1&kwd=baby prams&tags=A||||8752.144|Price|product|||LSnp|rsf:gd-|-stype:attr=1|qr_nm:gd|res:RC3|com-cf:nl|ptrs:na|ktp:N0|mc:55655|mtp:S|qry_typ:P|lang:en|wc:2|flavl:0-1|cs:9698|v=4,False,Mundka,New Delhi,"Ground Floor, Plot At Khasra No. 66/22, Gali No. 2, Mundka, Mundka, New Delhi - 110041, Dist.Delhi, Delhi",8046044378,
"Black Alloy Baby Folding Stroller Pram, Age Group: 1-3 years, Packaging Type: Carton Box",https://www.indiamart.com/proddetail/baby-folding-stroller-pram-2853643799997.html?pos=2&kwd=baby prams&tags=A||||8206.45|Price|product|||MDC|rsf:gd-|-stype:attr=1|qr_nm:gd|res:RC3|com-cf:nl|ptrs:na|ktp:N0|mc:55655|mtp:S|qry_typ:P|lang:en|wc:2|flavl:0-1|cs:9698|v=4,APDD E Commerce India LLP,https://www.indiamart.com/apddecommerceindia/?pos=2&kwd=baby prams&tags=A||||8206.45|Price|product|||MDC|rsf:gd-|-stype:attr=1|qr_nm:gd|res:RC3|com-cf:nl|ptrs:na|ktp:N0|mc:55655|mtp:S|qry_typ:P|lang:en|wc:2|flavl:0-1|cs:9698|v=4,False,Vishnu Nagar,Palghar,"2ndFloor, Block No.301,D-Wing, Jivadani Complex, Mahim Road, National Cooperative Bank, Vishnu Nagar, Vishnu Nagar, Palghar - 401404, Dist.Thane, Maharashtra",8047307898,
Metal & Cloth Pram supplier,https://www.indiamart.com/proddetail/metal-cloth-pram-supplier-2854492495433.html?pos=3&kwd=baby prams&tags=A||||8785.791||product|||MDC|rsf:gd-|-stype:attr=1|qr_nm:gd|res:RC3|com-cf:nl|ptrs:na|ktp:N0|mc:55655|mtp:S|qry_typ:P|lang:en|wc:2|flavl:0-1|cs:9698|v=4,Falguni Baby Product,https://www.indiamart.com/falguni-baby-product/?pos=3&kwd=baby prams&tags=A||||8785.791||product|||MDC|rsf:gd-|-stype:attr=1|qr_nm:gd|res:RC3|com-cf:nl|ptrs:na|ktp:N0|mc:55655|mtp:S|qry_typ:P|lang:en|wc:2|flavl:0-1|cs:9698|v=4,False,,Ghaziabad,"E - 19, Sector A - 7 P - 1, Tronica City, Ghaziabad - 201102, Dist.Ghaziabad, Uttar Pradesh",8045731457,
"Plastic Adjustable Baby Walker, One to Two Years",https://www.indiamart.com/proddetail/adjustable-baby-walker-2854781917533.html?pos=4&kwd=baby prams&tags=A||||8211.142|Price|product|||TS|rsf:gd-|-stype:attr=1|qr_nm:gd|res:RC3|com-cf:nl|ptrs:na|ktp:N0|mc:55655|mtp:S|qry_typ:P|lang:en|wc:2|flavl:0-1|cs:9698|v=4,P For Panda Baby Products Private Limited,https://www.p4pandababyproducts.com/?pos=4&kwd=baby prams&tags=A||||8211.142|Price|product|||TS|rsf:gd-|-stype:attr=1|qr_nm:gd|res:RC3|com-cf:nl|ptrs:na|ktp:N0|mc:55655|mtp:S|qry_typ:P|lang:en|wc:2|flavl:0-1|cs:9698|v=4,False,Goregaon West,Mumbai,"904 A Wing,9 Th Floor,Triple S Heights,Jakeria Road, Goregaon West, Mumbai - 400064, Dist.Mumbai, Maharashtra",7942710871,
"3.1 Feet Mild Steel Baby Pram Stroller, 4",https://www.indiamart.com/proddetail/mild-steel-baby-pram-stroller-2850223109591.html?pos=5&kwd=baby prams&tags=A||||8752.144|Price|product|||TS|rsf:gd-|-stype:attr=1|qr_nm:gd|res:RC3|com-cf:nl|ptrs:na|ktp:N0|mc:55655|mtp:S|qry_typ:P|lang:en|wc:2|flavl:0-1|cs:9698|v=4,Neelam Enterprises,https://www.indiamart.com/neelam-enterprisesdelhi/?pos=5&kwd=baby prams&tags=A||||8752.144|Price|product|||TS|rsf:gd-|-stype:attr=1|qr_nm:gd|res:RC3|com-cf:nl|ptrs:na|ktp:N0|mc:55655|mtp:S|qry_typ:P|lang:en|wc:2|flavl:0-1|cs:9698|v=4,False,North East,New Delhi,"Gf,Pradhan Parshadi Lal Market,Main Tukmirpur Road,Karawal Nagar, North East, New Delhi - 110094, Dist.Delhi, Delhi",7942814861,
"Mild Steel,Polyester Cotton Baby Dyna Pram Deluxe With Reversible Handle, 6",https://www.indiamart.com/proddetail/baby-dyna-pram-deluxe-with-reversible-handle-21911570433.html?pos=6&kwd=baby prams&tags=A||||8211.142|Price|product|||TS|rsf:gd-|-stype:attr=1|qr_nm:gd|res:RC3|com-cf:nl|ptrs:na|ktp:N0|mc:55655|mtp:S|qry_typ:P|lang:en|wc:2|flavl:0-1|cs:9698|v=4,New Natraj Industries,https://www.indiamart.com/newnatrajindustries/?pos=6&kwd=baby prams&tags=A||||8211.142|Price|product|||TS|rsf:gd-|-stype:attr=1|qr_nm:gd|res:RC3|com-cf:nl|ptrs:na|ktp:N0|mc:55655|mtp:S|qry_typ:P|lang:en|wc:2|flavl:0-1|cs:9698|v=4,False,Andheri,Mumbai,"2nd,47 A,VEERA DESAI ROAD,GHANSHYAM INDUSTRIAL ESTATE,ANDHERI WEST, Andheri, Mumbai - 400053, Dist.Mumbai, Maharashtra",8048609903,
"3 Feet Plastic Printed Baby Pram, 4 Wheel",https://www.indiamart.com/proddetail/printed-baby-pram-2852374900412.html?pos=7&kwd=baby prams&tags=A||||8752.144|Price|product|||TS|rsf:gd-|-stype:attr=1|qr_nm:gd|res:RC3|com-cf:nl|ptrs:na|ktp:N0|mc:55655|mtp:S|qry_typ:P|lang:en|wc:2|flavl:0-1|cs:9698|v=4,Rocky India,https://www.indiamart.com/rocky-india/?pos=7&kwd=baby prams&tags=A||||8752.144|Price|product|||TS|rsf:gd-|-stype:attr=1|qr_nm:gd|res:RC3|com-cf:nl|ptrs:na|ktp:N0|mc:55655|mtp:S|qry_typ:P|lang:en|wc:2|flavl:0-1|cs:9698|v=4,False,Brahampuri,New Delhi,"Ground Floor, I-36/10, Gali No. 10, Brahampuri, Brahampuri, New Delhi - 110053, Dist.Delhi, Delhi",7942708012,
"Plastic Newborn Baby Walker, 6, Bravo",https://www.indiamart.com/proddetail/newborn-baby-walker-26289057397.html?pos=8&kwd=baby prams&tags=BA||||9110.092|Price|product|||TS|rsf:gd-|-stype:attr=1|qr_nm:gd|res:RC3|com-cf:nl|ptrs:na|ktp:N0|mc:55655|mtp:S|qry_typ:P|lang:en|wc:2|flavl:0-1|cs:9698|v=4,Pawan Cycle Store,https://www.indiamart.com/pawancyclestore-lucknow/?pos=8&kwd=baby prams&tags=BA||||9110.092|Price|product|||TS|rsf:gd-|-stype:attr=1|qr_nm:gd|res:RC3|com-cf:nl|ptrs:na|ktp:N0|mc:55655|mtp:S|qry_typ:P|lang:en|wc:2|flavl:0-1|cs:9698|v=4,False,Darul Safa,Lucknow,"91/8, Yadunath Sanyal Road, Darul Safa, Lucknow - 226001, Dist.Lucknow, Uttar Pradesh",8043851096,
Blue & Red Baby Prams,https://www.indiamart.com/proddetail/baby-prams-19391809355.html?pos=9&kwd=baby prams&tags=BB||||8752.144|Price|product|||TS|rsf:gd-|-stype:attr=1|qr_nm:gd|res:RC3|com-cf:nl|ptrs:na|ktp:N0|mc:55655|mtp:S|qry_typ:P|lang:en|wc:2|flavl:0-1|cs:9698|v=4,Shri Krishna Trading,https://www.indiamart.com/shrikrishna-trading/?pos=9&kwd=baby prams&tags=BB||||8752.144|Price|product|||TS|rsf:gd-|-stype:attr=1|qr_nm:gd|res:RC3|com-cf:nl|ptrs:na|ktp:N0|mc:55655|mtp:S|qry_typ:P|lang:en|wc:2|flavl:0-1|cs:9698|v=4,False,Pitampura,New Delhi,"WZ-351, Pitampura, New Delhi - 110034, Dist.Delhi, Delhi",8047634011,
Baby P'a Baby Prams,https://www.indiamart.com/proddetail/baby-prams-20830177873.html?pos=10&kwd=baby prams&tags=BA||||8752.144|Price|product|||TS|rsf:gd-|-stype:attr=1|qr_nm:gd|res:RC3|com-cf:nl|ptrs:na|ktp:N0|mc:55655|mtp:S|qry_typ:P|lang:en|wc:2|flavl:0-1|cs:9698|v=4,Gupta Plastic Works,https://www.indiamart.com/guptaplasticworks/?pos=10&kwd=baby prams&tags=BA||||8752.144|Price|product|||TS|rsf:gd-|-stype:attr=1|qr_nm:gd|res:RC3|com-cf:nl|ptrs:na|ktp:N0|mc:55655|mtp:S|qry_typ:P|lang:en|wc:2|flavl:0-1|cs:9698|v=4,False,Azadpur,New Delhi,"A-80/1, G.T. Karnal Road, Industrial Area, Azadpur, New Delhi - 110033, Dist.Delhi, Delhi",8046032300,
PATOYS | Asalvo Spain Moby Grey Stroller/Pram for Baby/Kids,https://www.indiamart.com/proddetail/patoys-asalvo-spain-moby-grey-stroller-pram-for-baby-kids-2851579841412.html?pos=11&kwd=baby prams&tags=BA||||8793.739|Price|product|||TS|rsf:gd-|-stype:attr=1|qr_nm:gd|res:RC3|com-cf:nl|ptrs:na|ktp:N0|mc:55655|mtp:S|qry_typ:P|lang:en|wc:2|flavl:0-1|cs:9698|v=4,Patoys,https://www.indiamart.com/patoys/?pos=11&kwd=baby prams&tags=BA||||8793.739|Price|product|||TS|rsf:gd-|-stype:attr=1|qr_nm:gd|res:RC3|com-cf:nl|ptrs:na|ktp:N0|mc:55655|mtp:S|qry_typ:P|lang:en|wc:2|flavl:0-1|cs:9698|v=4,False,Krishna Nagar,Mathura,"Ground Floor Shop No - 3 Krishna Nagar Krishna Plaza, Krishna Nagar, Mathura - 281004, Dist.Mathura, Uttar Pradesh",,
"Red Blue Pink Stainless Steel Baby Stroller Pram, Age Group: Newly Born, Packaging Type: Box Pack",https://www.indiamart.com/proddetail/baby-stroller-pram-2854229940933.html?pos=12&kwd=baby prams&tags=BA||||8752.144|Price|product|||TS|rsf:gd-|-stype:attr=1|qr_nm:gd|res:RC3|com-cf:nl|ptrs:na|ktp:N0|mc:55655|mtp:S|qry_typ:P|lang:en|wc:2|flavl:0-1|cs:9698|v=4,Rajbir Trading Company,https://www.indiamart.com/rajbir-tradingcompany/?pos=12&kwd=baby prams&tags=BA||||8752.144|Price|product|||TS|rsf:gd-|-stype:attr=1|qr_nm:gd|res:RC3|com-cf:nl|ptrs:na|ktp:N0|mc:55655|mtp:S|qry_typ:P|lang:en|wc:2|flavl:0-1|cs:9698|v=4,False,Khyala,New Delhi,"NW-26-B, Vishnu Garden, Khyala, New Delhi - 110018, Dist.Delhi, Delhi",7942799536,
"2 Feet Metal Kids Stroller & Prams, 8",https://www.indiamart.com/proddetail/kids-stroller-prams-23352181030.html?pos=13&kwd=baby prams&tags=BA||||8752.144|Price|product|||TS|rsf:gd-|-stype:attr=1|qr_nm:gd|res:RC3|com-cf:nl|ptrs:na|ktp:N0|mc:55655|mtp:S|qry_typ:P|lang:en|wc:2|flavl:0-1|cs:9698|v=4,Ashish Trading Co.,https://www.indiamart.com/ashish-trading/?pos=13&kwd=baby prams&tags=BA||||8752.144|Price|product|||TS|rsf:gd-|-stype:attr=1|qr_nm:gd|res:RC3|com-cf:nl|ptrs:na|ktp:N0|mc:55655|mtp:S|qry_typ:P|lang:en|wc:2|flavl:0-1|cs:9698|v=4,False,Shalimar Bagh,New Delhi,"BC- 67 A, East Shalimar Bagh, Kela Godown Road Shalimar, Shalimar Bagh, New Delhi - 110088, Dist.Delhi, Delhi",8048979347,
Plastic Caramel Baby Pram Cum Stroller With 5 Point Safety Harness,https://www.indiamart.com/proddetail/caramel-baby-pram-cum-stroller-with-5-point-safety-harness-2852433244062.html?pos=14&kwd=baby prams&tags=BA||||9140.514|Price|product|||TS|rsf:gd-|-stype:attr=1|qr_nm:gd|res:RC3|com-cf:nl|ptrs:na|ktp:N0|mc:55655|mtp:S|qry_typ:P|lang:en|wc:2|flavl:0-1|cs:9698|v=4,Anjaneya Enterprises,https://www.ridenslide.in/?pos=14&kwd=baby prams&tags=BA||||9140.514|Price|product|||TS|rsf:gd-|-stype:attr=1|qr_nm:gd|res:RC3|com-cf:nl|ptrs:na|ktp:N0|mc:55655|mtp:S|qry_typ:P|lang:en|wc:2|flavl:0-1|cs:9698|v=4,False,Pandri,Raipur,"SHOP NO-10,SHOPPERS PARADISE,BEHIND CITY CENTER MALL,PANDRI,RAIPUR, Pandri, Raipur - 492001, Chhattisgarh",8046045761,
"Multicolor Baby Stroller Pram, Packaging Type: Box",https://www.indiamart.com/proddetail/baby-stroller-pram-2848989054591.html?pos=15&kwd=baby prams&tags=BA||||8230.883|Price|product|||TS|rsf:gd-|-stype:attr=1|qr_nm:gd|res:RC3|com-cf:nl|ptrs:na|ktp:N0|mc:55655|mtp:S|qry_typ:P|lang:en|wc:2|cs:8841|v=4,Quality Zone,https://www.qualityzoneindia.com/?pos=15&kwd=baby prams&tags=BA||||8230.883|Price|product|||TS|rsf:gd-|-stype:attr=1|qr_nm:gd|res:RC3|com-cf:nl|ptrs:na|ktp:N0|mc:55655|mtp:S|qry_typ:P|lang:en|wc:2|cs:8841|v=4,False,Dabholi,Surat,"Plot No-17, Sy No-93/94, 1st Floor, Om Satyam Nagar Society, Ved Road, Dabholi Char Rasta, Dabholi, Surat - 395004, Dist.Surat, Gujarat",8048971766,
"Navy Blue Iron ABS Plastic Baby Prams, Age Group: 3-12 Months",https://www.indiamart.com/proddetail/iron-baby-prams-2854635925430.html?pos=16&kwd=baby prams&tags=BA||||9528.781|Price|product|||MDC|rsf:gd-|-stype:attr=1|qr_nm:gd|res:RC3|com-cf:nl|ptrs:na|ktp:N0|mc:55655|mtp:S|qry_typ:P|lang:en|wc:2|cs:8841|v=4,Sri Babajee Cycle,https://www.indiamart.com/sribabajeecycle/?pos=16&kwd=baby prams&tags=BA||||9528.781|Price|product|||MDC|rsf:gd-|-stype:attr=1|qr_nm:gd|res:RC3|com-cf:nl|ptrs:na|ktp:N0|mc:55655|mtp:S|qry_typ:P|lang:en|wc:2|cs:8841|v=4,False,,Ranchi,"Gorakh Nath Lane, Ratu Road, Ranchi - 834001, Dist.Ranchi, Jharkhand",7949329605,
Navy Blue Baby Prams Stroller,https://www.indiamart.com/proddetail/navy-blue-baby-prams-stroller-2854745856588.html?pos=17&kwd=baby prams&tags=BB||||8230.883|Price|product|||MDC|rsf:gd-|-stype:attr=1|qr_nm:gd|res:RC3|com-cf:nl|ptrs:na|ktp:N0|mc:55655|mtp:S|qry_typ:P|lang:en|wc:2|cs:8841|v=4,Shree Shree Khilona,https://www.indiamart.com/shreeshree-khilona/?pos=17&kwd=baby prams&tags=BB||||8230.883|Price|product|||MDC|rsf:gd-|-stype:attr=1|qr_nm:gd|res:RC3|com-cf:nl|ptrs:na|ktp:N0|mc:55655|mtp:S|qry_typ:P|lang:en|wc:2|cs:8841|v=4,False,Turava Compound Heera Bagh,Surat,"Lower Ground Floor, Shop No-L/9 To L/13, Sarthi CO-OP Housing Society LTD, Varachha Main Road, Turava Compound Heera Bagh, Surat - 395006, Dist.Surat, Gujarat",7949322132,
"CRC Pipe Blue Baby Pram, Age Group: 3-12 Months",https://www.indiamart.com/proddetail/blue-baby-pram-2853391278962.html?pos=18&kwd=baby prams&tags=BA||||8752.144||product|||MDC|rsf:gd-|-stype:attr=1|qr_nm:gd|res:RC3|com-cf:nl|ptrs:na|ktp:N0|mc:55655|mtp:S|qry_typ:P|lang:en|wc:2|cs:8841|v=4,Chicky Baby Care,https://www.indiamart.com/chickybabycare/?pos=18&kwd=baby prams&tags=BA||||8752.144||product|||MDC|rsf:gd-|-stype:attr=1|qr_nm:gd|res:RC3|com-cf:nl|ptrs:na|ktp:N0|mc:55655|mtp:S|qry_typ:P|lang:en|wc:2|cs:8841|v=4,False,Begampur,New Delhi,"Ground Floor, Kh No - 14/2, Extn Village Begampur, Bhero Mandir,North West Delhi, Begampur, New Delhi - 110086, Dist.Delhi, Delhi",7942570605,
"16 Inch Mild Steel Baby Pram, 6 Wheel",https://www.indiamart.com/proddetail/16-inch-mild-steel-baby-pram-2851821617333.html?pos=19&kwd=baby prams&tags=BA||||8752.144|Price|product|||MDC|rsf:gd-|-stype:attr=1|qr_nm:gd|res:RC3|com-cf:nl|ptrs:na|ktp:N0|mc:55655|mtp:S|qry_typ:P|lang:en|wc:2|cs:8841|v=4,Pinky Enterprises,https://www.indiamart.com/pinky-enterprisesdelhi/?pos=19&kwd=baby prams&tags=BA||||8752.144|Price|product|||MDC|rsf:gd-|-stype:attr=1|qr_nm:gd|res:RC3|com-cf:nl|ptrs:na|ktp:N0|mc:55655|mtp:S|qry_typ:P|lang:en|wc:2|cs:8841|v=4,False,Brahmpuri,New Delhi,"N-9/11, Gali No-14, NR Veshyai Dharmshala, Brahmpuri Ghonda, North East Delhi, Brahmpuri, New Delhi - 110053, Dist.Delhi, Delhi",8047694699,
"18 Inch Plastic And Iron Pink Baby Pram, 4",https://www.indiamart.com/proddetail/pink-baby-pram-27130674962.html?pos=20&kwd=baby prams&tags=BB||||8752.144|Price|product|||MDC|rsf:gd-|-stype:attr=1|qr_nm:gd|res:RC3|com-cf:nl|ptrs:na|ktp:N0|mc:55655|mtp:S|qry_typ:P|lang:en|wc:2|cs:8841|v=4,Crazy Kanchan,https://www.indiamart.com/crazykanchan/?pos=20&kwd=baby prams&tags=BB||||8752.144|Price|product|||MDC|rsf:gd-|-stype:attr=1|qr_nm:gd|res:RC3|com-cf:nl|ptrs:na|ktp:N0|mc:55655|mtp:S|qry_typ:P|lang:en|wc:2|cs:8841|v=4,False,Bhajan Pura,New Delhi,"C-344/1 Gali No -16 Bhajanpura , Shahdara North East Delhi, Bhajan Pura, New Delhi - 110053, Dist.Delhi, Delhi",8048204487,
Baby Stroller Pram,https://www.indiamart.com/proddetail/baby-stroller-pram-2853954974388.html?pos=21&kwd=baby prams&tags=BA||||8752.144|Price|product|||MDC|rsf:gd-|-stype:attr=1|qr_nm:gd|res:RC3|com-cf:nl|ptrs:na|ktp:N0|mc:55655|mtp:S|qry_typ:P|lang:en|wc:2|cs:8841|v=4,Swastik Toys,https://www.indiamart.com/swastik-toys-delhi/?pos=21&kwd=baby prams&tags=BA||||8752.144|Price|product|||MDC|rsf:gd-|-stype:attr=1|qr_nm:gd|res:RC3|com-cf:nl|ptrs:na|ktp:N0|mc:55655|mtp:S|qry_typ:P|lang:en|wc:2|cs:8841|v=4,False,Tihar,New Delhi,"WZ 125, Mahakavi Goswami Tulsidas Marg, Tihar, West Delhi, Tihar, New Delhi - 110018, Dist.Delhi, Delhi",8044015186,
"Blue Iron Baby Pram, Age Group: Newly Born",https://www.indiamart.com/proddetail/iron-baby-pram-2854517660362.html?pos=22&kwd=baby prams&tags=BA||||8785.791|Price|product|||MDC|rsf:gd-|-stype:attr=1|qr_nm:gd|res:RC3|com-cf:nl|ptrs:na|ktp:N0|mc:55655|mtp:S|qry_typ:P|lang:en|wc:2|cs:8841|v=4,AS Creations,https://www.indiamart.com/ascreations-ghaziabad/?pos=22&kwd=baby prams&tags=BA||||8785.791|Price|product|||MDC|rsf:gd-|-stype:attr=1|qr_nm:gd|res:RC3|com-cf:nl|ptrs:na|ktp:N0|mc:55655|mtp:S|qry_typ:P|lang:en|wc:2|cs:8841|v=4,False,Sahibabad,Ghaziabad,"Ground Floor, B-169, Shalimar Garden Main, Sahibabad, Sahibabad, Ghaziabad - 201005, Dist.Ghaziabad, Uttar Pradesh",7949329190,
Baby Cradle Pram,https://www.indiamart.com/proddetail/baby-cradle-pram-23812012197.html?pos=23&kwd=baby prams&tags=BA||||8752.144|Price|product|||MDC|rsf:gd-|-stype:attr=1|qr_nm:gd|res:RC3|com-cf:nl|ptrs:na|ktp:N0|mc:55655|mtp:S|qry_typ:P|lang:en|wc:2|cs:8841|v=4,Vikas Enterprises,https://www.indiamart.com/vikasentp-delhi/?pos=23&kwd=baby prams&tags=BA||||8752.144|Price|product|||MDC|rsf:gd-|-stype:attr=1|qr_nm:gd|res:RC3|com-cf:nl|ptrs:na|ktp:N0|mc:55655|mtp:S|qry_typ:P|lang:en|wc:2|cs:8841|v=4,False,Nangloi,New Delhi,"HN 35, Tyagi Colony, Rajendra Park, Main Rohtak Road Nangloi, Nangloi, New Delhi - 110041, Dist.Delhi, Delhi",8046065409,
Baby Imported Pram,https://www.indiamart.com/proddetail/baby-imported-pram-13368450291.html?pos=24&kwd=baby prams&tags=BA||||8211.142|Price|product|||MDC|rsf:gd-|-stype:attr=1|qr_nm:gd|res:RC3|com-cf:nl|ptrs:na|ktp:N0|mc:55655|mtp:S|qry_typ:P|lang:en|wc:2|cs:8841|v=4,Sara Traders,https://www.indiamart.com/saratradersmumbai/?pos=24&kwd=baby prams&tags=BA||||8211.142|Price|product|||MDC|rsf:gd-|-stype:attr=1|qr_nm:gd|res:RC3|com-cf:nl|ptrs:na|ktp:N0|mc:55655|mtp:S|qry_typ:P|lang:en|wc:2|cs:8841|v=4,False,Princess Dock,Mumbai,"Shop No. 2, Dastagir Building, 5/7, Nishanpada Cross Road Dongri, Princess Dock, Mumbai - 400009, Dist.Mumbai, Maharashtra",8048959409,
Wicker Doll Stroller Wicker Doll Pram Doll Pram Wicker Baby Stroller for Dolls Eco-friendly,https://www.indiamart.com/proddetail/wicker-doll-stroller-wicker-doll-pram-doll-pram-wicker-baby-stroller-for-dolls-eco-friendly-2854509217688.html?pos=25&kwd=baby prams&tags=BA||||8752.144|Price|product|||TS|rsf:gd-|-stype:attr=1|qr_nm:gd|res:RC3|com-cf:nl|ptrs:na|ktp:N0|mc:55655|mtp:S|qry_typ:P|lang:en|wc:2|cs:8841|v=4,Craferia Export Llp,https://www.craferiaexport.com/?pos=25&kwd=baby prams&tags=BA||||8752.144|Price|product|||TS|rsf:gd-|-stype:attr=1|qr_nm:gd|res:RC3|com-cf:nl|ptrs:na|ktp:N0|mc:55655|mtp:S|qry_typ:P|lang:en|wc:2|cs:8841|v=4,True,N.S.I.T. Dwarka,New Delhi,"H.No 319, 3rd Floor, Pocket 1, Sector 12, Dwarka,Near Metro Station,, N.S.I.T. Dwarka, New Delhi - 110078, Dist.Delhi, Delhi",8047671940,
Baby Walker Adjustable,https://www.indiamart.com/proddetail/baby-walker-adjustable-2853043999512.html?pos=26&kwd=baby prams&tags=BA||||8663.873|Price|product|||TS|rsf:gd-|-stype:attr=1|qr_nm:gd|res:RC3|com-cf:nl|ptrs:na|ktp:N0|mc:55655|mtp:S|qry_typ:P|lang:en|wc:2|cs:8841|v=4,Hitendar Sales Corporation,https://www.indiamart.com/hitendarsalescorporation/?pos=26&kwd=baby prams&tags=BA||||8663.873|Price|product|||TS|rsf:gd-|-stype:attr=1|qr_nm:gd|res:RC3|com-cf:nl|ptrs:na|ktp:N0|mc:55655|mtp:S|qry_typ:P|lang:en|wc:2|cs:8841|v=4,False,Chickpet,Bengaluru,"No. 109, BB Temple Street, Mamulpet, Chickpet, Chickpet, Bengaluru - 560053, Dist.Bengaluru, Karnataka",8047693080,
"50 Plastic Baby Walkers Toys, 6, R.p",https://www.indiamart.com/proddetail/baby-walkers-toys-25005792273.html?pos=27&kwd=baby prams&tags=BA||||8752.144|Price|product|||TS|rsf:gd-|-stype:attr=1|qr_nm:gd|res:RC3|com-cf:nl|ptrs:na|ktp:N0|mc:55655|mtp:S|qry_typ:P|lang:en|wc:2|cs:8841|v=4,Raja Plastic,https://www.rajaplastic.co.in/?pos=27&kwd=baby prams&tags=BA||||8752.144|Price|product|||TS|rsf:gd-|-stype:attr=1|qr_nm:gd|res:RC3|com-cf:nl|ptrs:na|ktp:N0|mc:55655|mtp:S|qry_typ:P|lang:en|wc:2|cs:8841|v=4,False,Pahari Dhiraj,New Delhi,"1444/45 Main Gali Fayaz Ganj,Bahadurgarh Road, Pahari Dhiraj, New Delhi - 110006, Dist.Delhi, Delhi",8048956783,
Round Baby Pram,,Anil Steel Industries,https://www.indiamart.com/anilsteelindustries-delhi/?pos=28&kwd=baby prams&tags=BA||||8752.144|Price|product|||MDC|rsf:gd-|-stype:attr=1|qr_nm:gd|res:RC3|com-cf:nl|ptrs:na|ktp:N0|mc:55655|mtp:S|qry_typ:P|lang:en|wc:2|cs:8841|v=4,False,Kirti Nagar,New Delhi,"N-46, Shop Plot, Kirti Nagar, Kirti Nagar, New Delhi - 110015, Dist.Delhi, Delhi",8046057314,
Baby Prams,https://www.indiamart.com/proddetail/baby-prams-2853858207948.html?pos=29&kwd=baby prams&tags=BA||||8752.144|Price|product|||NA|rsf:gd-|-stype:attr=1|qr_nm:gd|res:RC3|com-cf:nl|ptrs:na|ktp:N0|mc:55655|mtp:S|qry_typ:P|lang:en|wc:2|cs:8841|v=4,Planetarium Hub,https://www.indiamart.com/planetarium-hub/?pos=29&kwd=baby prams&tags=BA||||8752.144|Price|product|||NA|rsf:gd-|-stype:attr=1|qr_nm:gd|res:RC3|com-cf:nl|ptrs:na|ktp:N0|mc:55655|mtp:S|qry_typ:P|lang:en|wc:2|cs:8841|v=4,False,Uttam Nagar,New Delhi,"A-111, Uttam Nagar, Rama Park West, Uttam Nagar, New Delhi - 110059, Dist.Delhi, Delhi",7942715377,
Baby Prams,,Deepa Enterprises,https://www.indiamart.com/deepaenterprises-hyderabad/?pos=30&kwd=baby prams&tags=BA||||8786.56||product|||NA|rsf:gd-|-stype:attr=1|qr_nm:gd|res:RC3|com-cf:nl|ptrs:na|ktp:N0|mc:55655|mtp:S|qry_typ:P|lang:en|wc:2|cs:8841|v=4,False,M.G. Road,Hyderabad,",2-1-144,M.G.Road,,, M.G. Road, Hyderabad - 500003, Dist.Hyderabad, Telangana",8047680799,
Blue Baby Small Prams,https://www.indiamart.com/proddetail/baby-small-prams-19646684497.html?pos=31&kwd=baby prams&tags=BB||||9110.092|Price|product|||NA|rsf:gd-|-stype:attr=1|qr_nm:gd|res:RC3|com-cf:nl|ptrs:na|ktp:N0|mc:55655|mtp:S|qry_typ:P|lang:en|wc:2|cs:8841|v=4,Janta Sports And Toys,https://www.indiamart.com/janta-sportstoys/?pos=31&kwd=baby prams&tags=BB||||9110.092|Price|product|||NA|rsf:gd-|-stype:attr=1|qr_nm:gd|res:RC3|com-cf:nl|ptrs:na|ktp:N0|mc:55655|mtp:S|qry_typ:P|lang:en|wc:2|cs:8841|v=4,False,Yahiyaganj,Lucknow,"Opposite Chhote Lal Misthan Bhandar, Yahiyaganj, Lucknow - 226004, Dist.Lucknow, Uttar Pradesh",8047670822,
"30 Inch Fabric Red Baby Prams, 4",https://www.indiamart.com/proddetail/red-baby-prams-25880084455.html?pos=32&kwd=baby prams&tags=BB||||8785.791|Price|product|||NA|rsf:gd-|-stype:attr=1|qr_nm:gd|res:RC3|com-cf:nl|ptrs:na|ktp:N0|mc:55655|mtp:S|qry_typ:P|lang:en|wc:2|cs:8841|v=4,Goodluck Sales Corp.,https://www.indiamart.com/goodlucksalescorp/?pos=32&kwd=baby prams&tags=BB||||8785.791|Price|product|||NA|rsf:gd-|-stype:attr=1|qr_nm:gd|res:RC3|com-cf:nl|ptrs:na|ktp:N0|mc:55655|mtp:S|qry_typ:P|lang:en|wc:2|cs:8841|v=4,False,,Ghaziabad,"H. No- D-2/20, Block-D-2, Rawal Pindy Vill, Chikamberbpur, Ghaziabad - 201006, Dist.Ghaziabad, Uttar Pradesh",8047677034,
Red Nanne Munne Super Deluxe Baby Prams,https://www.indiamart.com/proddetail/super-deluxe-baby-prams-20901586748.html?pos=33&kwd=baby prams&tags=BB||||8752.144|Price|product|||NA|rsf:gd-|-stype:attr=1|qr_nm:gd|res:RC3|com-cf:nl|ptrs:na|ktp:N0|mc:55655|mtp:S|qry_typ:P|lang:en|wc:2|cs:8841|v=4,Chhabra Industries,https://www.indiamart.com/chhabraindustries-delhi/?pos=33&kwd=baby prams&tags=BB||||8752.144|Price|product|||NA|rsf:gd-|-stype:attr=1|qr_nm:gd|res:RC3|com-cf:nl|ptrs:na|ktp:N0|mc:55655|mtp:S|qry_typ:P|lang:en|wc:2|cs:8841|v=4,False,,New Delhi,"C-6 sec-A5/6 tronica city signature city gaziabad up, New Delhi - 110039, Dist.Delhi, Delhi",8047640157,
"Blue (base) HS Stainless Steel Baby Prams, Age Group: Newly Born",https://www.indiamart.com/proddetail/hs-stainless-steel-baby-prams-2853186593330.html?pos=34&kwd=baby prams&tags=BA||||8752.144|Price|product|||NA|rsf:gd-|-stype:attr=1|qr_nm:gd|res:RC3|com-cf:nl|ptrs:na|ktp:N0|mc:55655|mtp:S|qry_typ:P|lang:en|wc:2|cs:8841|v=4,The Glimpse Creations,https://www.indiamart.com/theglimpsecreations/?pos=34&kwd=baby prams&tags=BA||||8752.144|Price|product|||NA|rsf:gd-|-stype:attr=1|qr_nm:gd|res:RC3|com-cf:nl|ptrs:na|ktp:N0|mc:55655|mtp:S|qry_typ:P|lang:en|wc:2|cs:8841|v=4,False,,New Delhi,"First Floor, RZ-48A/1, Gali No.5/4, KH No.-29, Main Sagarpur, South West Delhi, New Delhi - 110046, Dist.Delhi, Delhi",7942962264,
4 Feet Plastic Stroller Baby Prams,https://www.indiamart.com/proddetail/4-feet-plastic-stroller-baby-prams-2853045896691.html?pos=35&kwd=baby prams&tags=BA||||8752.144|Price|product|||NA|rsf:gd-|-stype:attr=1|qr_nm:gd|res:RC3|com-cf:nl|ptrs:na|ktp:N0|mc:55655|mtp:S|qry_typ:P|lang:en|wc:2|cs:8841|v=4,Lavith Enterprises,https://www.indiamart.com/lavith-enterprises-newdelhi/?pos=35&kwd=baby prams&tags=BA||||8752.144|Price|product|||NA|rsf:gd-|-stype:attr=1|qr_nm:gd|res:RC3|com-cf:nl|ptrs:na|ktp:N0|mc:55655|mtp:S|qry_typ:P|lang:en|wc:2|cs:8841|v=4,False,Sadar Bazaar,New Delhi,"4th, House No 503, Ward No-5, Mehrauli, Sadar Bazaar, New Delhi - 110030, Dist.Delhi, Delhi",7942962695,
"Blue And Pink Stainless Steel Kids Pram, Age Group: 3-12 Months",https://www.indiamart.com/proddetail/kids-pram-2854324283688.html?pos=36&kwd=baby prams&tags=BB||||8752.144|Price|product|||NA|rsf:gd-|-stype:attr=1|qr_nm:gd|res:RC3|com-cf:nl|ptrs:na|ktp:N0|mc:55655|mtp:S|qry_typ:P|lang:en|wc:2|cs:8841|v=4,Cdl Enterprises,https://www.indiamart.com/cdl-enterprises/?pos=36&kwd=baby prams&tags=BB||||8752.144|Price|product|||NA|rsf:gd-|-stype:attr=1|qr_nm:gd|res:RC3|com-cf:nl|ptrs:na|ktp:N0|mc:55655|mtp:S|qry_typ:P|lang:en|wc:2|cs:8841|v=4,False,,New Delhi,"KH. No. 18/4,Plot No.D-1/15/6 - A,Mohamad Pur Mazri,New Delhi ,110081,, New Delhi - 110081, Dist.Delhi, Delhi",8048370722,6004
"38.1cm Stainless Steel,Plastic Baby push Walkers, 6, Single Horn",https://www.indiamart.com/proddetail/baby-push-walkers-26375911897.html?pos=37&kwd=baby prams&tags=BA||||8752.144|Price|product|||NA|rsf:gd-|-stype:attr=1|qr_nm:gd|res:RC3|com-cf:nl|ptrs:na|ktp:N0|mc:55655|mtp:S|qry_typ:P|lang:en|wc:2|cs:8841|v=4,Sukhme Industries,https://www.indiamart.com/sukhme-industries/?pos=37&kwd=baby prams&tags=BA||||8752.144|Price|product|||NA|rsf:gd-|-stype:attr=1|qr_nm:gd|res:RC3|com-cf:nl|ptrs:na|ktp:N0|mc:55655|mtp:S|qry_typ:P|lang:en|wc:2|cs:8841|v=4,False,Laxmi Nagar,New Delhi,"Shop No-D235 A street no 8, Laxmi Nagar, New Delhi - 110092, Dist.Delhi, Delhi",8069017464,126
Romantic Pink Baby medium Powder Puff,https://www.indiamart.com/proddetail/pink-baby-medium-powder-puff-26218115473.html?pos=38&kwd=baby prams&tags=BB||||8228.275||product|||NA|rsf:gd-|-stype:attr=1|qr_nm:gd|res:RC3|com-cf:nl|ptrs:na|ktp:N0|mc:55655|mtp:S|qry_typ:P|lang:en|wc:2|cs:8841|v=4,Jay Shree Products,https://www.indiamart.com/jay-shreeproducts-ahmedabad/?pos=38&kwd=baby prams&tags=BB||||8228.275||product|||NA|rsf:gd-|-stype:attr=1|qr_nm:gd|res:RC3|com-cf:nl|ptrs:na|ktp:N0|mc:55655|mtp:S|qry_typ:P|lang:en|wc:2|cs:8841|v=4,False,,Ahmedabad,"3, B331, Sumel Business Park IV, Near Kalupur Bridge, Amdupura, Ahmedabad - 380018, Dist.Ahmedabad, Gujarat",7942641339,
"Crc Pipe And Fabric Baby Pram, 8",https://www.indiamart.com/proddetail/baby-pram-24805152248.html?pos=39&kwd=baby prams&tags=BB||||8752.144|Price|product|||NA|rsf:gd-|-stype:attr=1|qr_nm:gd|res:RC3|com-cf:nl|ptrs:na|ktp:N0|mc:55655|mtp:S|qry_typ:P|lang:en|wc:2|cs:8841|v=4,Sanskar Steel Industries,https://www.indiamart.com/sanskarsteelindustries-new-delhi/?pos=39&kwd=baby prams&tags=BB||||8752.144|Price|product|||NA|rsf:gd-|-stype:attr=1|qr_nm:gd|res:RC3|com-cf:nl|ptrs:na|ktp:N0|mc:55655|mtp:S|qry_typ:P|lang:en|wc:2|cs:8841|v=4,False,Sultanpur Dabas,New Delhi,"Plot No. 4a, Kh 30/8, Ground Floor, Matiala Village, Uttam Nagar, West Delhi, Sultanpur Dabas, New Delhi - 110059, Dist.Delhi, Delhi",7942561721,
"Pram For Kids, 4",https://www.indiamart.com/proddetail/pram-for-kids-27111893448.html?pos=40&kwd=baby prams&tags=BB||||8752.144|Price|product|||NA|rsf:gd-|-stype:attr=1|qr_nm:gd|res:RC3|com-cf:nl|ptrs:na|ktp:N0|mc:55655|mtp:S|qry_typ:P|lang:en|wc:2|cs:8841|v=4,Goel Sinks India Private Limited,https://www.indiamart.com/goelsinksindia/?pos=40&kwd=baby prams&tags=BB||||8752.144|Price|product|||NA|rsf:gd-|-stype:attr=1|qr_nm:gd|res:RC3|com-cf:nl|ptrs:na|ktp:N0|mc:55655|mtp:S|qry_typ:P|lang:en|wc:2|cs:8841|v=4,False,,New Delhi,"Khasra No 873/1, Gali No-2, Rithala,, New Delhi - 110085, Dist.Delhi, Delhi",8047644629,
Baby Pram,,Himanshu Kids Corner,https://www.indiamart.com/himanshu-kids-corner-hyderabad/?pos=41&kwd=baby prams&tags=BB||||8786.56||product|||NA|rsf:gd-|-stype:attr=1|qr_nm:gd|res:RC3|com-cf:nl|ptrs:na|ktp:N0|mc:55655|mtp:S|qry_typ:P|lang:en|wc:2|cs:8841|v=4,False,feel khana,Hyderabad,"15-8-429/c/1 Aheer Plaza Feelkhana Begum Bazar, feel khana, Hyderabad - 500012, Dist.Hyderabad, Telangana",8047768001,
"4.5 Ft. Stainless Steel And Plastic Childfun Baby Pram Super Deluxe, 8, G3",https://www.indiamart.com/proddetail/childfun-baby-pram-super-deluxe-21788556362.html?pos=42&kwd=baby prams&tags=BB||||8752.144|Price|product|||NA|rsf:gd-|-stype:attr=1|qr_nm:gd|res:RC3|com-cf:nl|ptrs:na|ktp:N0|mc:55655|mtp:S|qry_typ:P|lang:en|wc:2|cs:8841|v=4,Childfun Walker Mfg Co.,https://www.indiamart.com/childfun-walker-mfg-co/?pos=42&kwd=baby prams&tags=BB||||8752.144|Price|product|||NA|rsf:gd-|-stype:attr=1|qr_nm:gd|res:RC3|com-cf:nl|ptrs:na|ktp:N0|mc:55655|mtp:S|qry_typ:P|lang:en|wc:2|cs:8841|v=4,False,Bawana DSIDC,New Delhi,"C166, Sector 4, Bawana DSIDC, New Delhi - 110039, Dist.Delhi, Delhi",8047667477,
"Steel Iron And Fabric Navy Blue Newly Born Baby Pram, 4",https://www.indiamart.com/proddetail/navy-blue-newly-born-baby-pram-27141415112.html?pos=43&kwd=baby prams&tags=BB||||8228.275|Price|product|||NA|rsf:gd-|-stype:attr=1|qr_nm:gd|res:RC3|com-cf:nl|ptrs:na|ktp:N0|mc:55655|mtp:S|qry_typ:P|lang:en|wc:2|cs:8841|v=4,Arsh Marketing,https://www.indiamart.com/arshmarketingahmedabad/?pos=43&kwd=baby prams&tags=BB||||8228.275|Price|product|||NA|rsf:gd-|-stype:attr=1|qr_nm:gd|res:RC3|com-cf:nl|ptrs:na|ktp:N0|mc:55655|mtp:S|qry_typ:P|lang:en|wc:2|cs:8841|v=4,False,Juhapura,Ahmedabad,"1153 1, Pankore Naka, G P O, Juhapura, Ahmedabad - 380001, Dist.Ahmedabad, Gujarat",8047546762,
"Ajustable Mild Steel And Fabric Adjustable Baby Pram, 4",https://www.indiamart.com/proddetail/adjustable-baby-pram-2849358932233.html?pos=44&kwd=baby prams&tags=BA||||8785.791|Price|product|||NA|rsf:gd-|-stype:attr=1|qr_nm:gd|res:RC3|com-cf:nl|ptrs:na|ktp:N0|mc:55655|mtp:S|qry_typ:P|lang:en|wc:2|cs:8841|v=4,Geeta Industries,https://www.indiamart.com/geetaindustries-troniccity/?pos=44&kwd=baby prams&tags=BA||||8785.791|Price|product|||NA|rsf:gd-|-stype:attr=1|qr_nm:gd|res:RC3|com-cf:nl|ptrs:na|ktp:N0|mc:55655|mtp:S|qry_typ:P|lang:en|wc:2|cs:8841|v=4,False,,Ghaziabad,"Plot No D-50 Sec A-7 Tronica City, Ghaziabad - 201102, Dist.Ghaziabad, Uttar Pradesh",7942785994,
Plastic Handle Baby Walker,https://www.indiamart.com/proddetail/handle-baby-walker-2853602745055.html?pos=45&kwd=baby prams&tags=BA||||8752.144|Price|product|||NA|rsf:gd-|-stype:attr=1|qr_nm:gd|res:RC3|com-cf:nl|ptrs:na|ktp:N0|mc:55655|mtp:S|qry_typ:P|lang:en|wc:2|cs:8841|v=4,Mayank Toys,https://www.indiamart.com/mayank-toys/?pos=45&kwd=baby prams&tags=BA||||8752.144|Price|product|||NA|rsf:gd-|-stype:attr=1|qr_nm:gd|res:RC3|com-cf:nl|ptrs:na|ktp:N0|mc:55655|mtp:S|qry_typ:P|lang:en|wc:2|cs:8841|v=4,False,North East,New Delhi,"Ground Floor, B 382, Street No. 5, Prem Vihar, Karawal Nagar, North East, New Delhi - 110094, Dist.Delhi, Delhi",7949226824,
Black Baby Pram Imported Trolley,https://www.indiamart.com/proddetail/baby-pram-imported-trolley-20649011691.html?pos=46&kwd=baby prams&tags=BB||||8559.269||product|||NA|rsf:gd-|-stype:attr=1|qr_nm:gd|res:RC3|com-cf:nl|ptrs:na|ktp:N0|mc:55655|mtp:S|qry_typ:P|lang:en|wc:2|cs:8841|v=4,Jainam Toys & Gift Center,https://www.indiamart.com/jainamtoysgiftcenter/?pos=46&kwd=baby prams&tags=BB||||8559.269||product|||NA|rsf:gd-|-stype:attr=1|qr_nm:gd|res:RC3|com-cf:nl|ptrs:na|ktp:N0|mc:55655|mtp:S|qry_typ:P|lang:en|wc:2|cs:8841|v=4,False,Indore GPO,Indore,"36, Sikh Mohalla, Main Road, Aditya Villa Basement, Indore GPO, Indore - 452001, Dist.Indore, Madhya Pradesh",8043833004,
"Iron,Plastic And Cloth Baby Pram, with Black Wheel, 4",https://www.indiamart.com/proddetail/baby-pram-with-black-wheel-25049698473.html?pos=47&kwd=baby prams&tags=BB||||8752.144|Price|product|||NA|rsf:gd-|-stype:attr=1|qr_nm:gd|res:RC3|com-cf:nl|ptrs:na|ktp:N0|mc:55655|mtp:S|qry_typ:P|lang:en|wc:2|cs:8841|v=4,N.G. Usma Gold Baby Try Cycle,https://www.indiamart.com/ngusma-gold-babytrycycle/?pos=47&kwd=baby prams&tags=BB||||8752.144|Price|product|||NA|rsf:gd-|-stype:attr=1|qr_nm:gd|res:RC3|com-cf:nl|ptrs:na|ktp:N0|mc:55655|mtp:S|qry_typ:P|lang:en|wc:2|cs:8841|v=4,False,YAMUNA DAIRY,New Delhi,"H. No. 228, GF, Gali No. 7, New Kardam Puri, YAMUNA DAIRY, New Delhi - 110094, Dist.Delhi, Delhi",8048610135,
"4 MS Steel Childfun Baby pram, 8, G14",https://www.indiamart.com/proddetail/childfun-baby-pram-2850494089862.html?pos=48&kwd=baby prams&tags=BB||||8752.144|Price|product|||NA|rsf:gd-|-stype:attr=1|qr_nm:gd|res:RC3|com-cf:nl|ptrs:na|ktp:N0|mc:55655|mtp:S|qry_typ:P|lang:en|wc:2|cs:8841|v=4,Nishad Cycle Industries,https://www.indiamart.com/nishadcycleindustries/?pos=48&kwd=baby prams&tags=BB||||8752.144|Price|product|||NA|rsf:gd-|-stype:attr=1|qr_nm:gd|res:RC3|com-cf:nl|ptrs:na|ktp:N0|mc:55655|mtp:S|qry_typ:P|lang:en|wc:2|cs:8841|v=4,False,,New Delhi,"H.No.-166, PKT-C, Sec-4, DSIDC, Bawana, New Delhi - 110039, Dist.Delhi, Delhi",7942821632,
"Red And Black Stainless Steel Kids Galaxy Pram, Age Group: 3-12 Months",https://www.indiamart.com/proddetail/kids-galaxy-pram-2853240947355.html?pos=49&kwd=baby prams&tags=BA||||8752.144|Price|product|||NA|rsf:gd-|-stype:attr=1|qr_nm:gd|res:RC3|com-cf:nl|ptrs:na|ktp:N0|mc:55655|mtp:S|qry_typ:P|lang:en|wc:2|cs:8841|v=4,Tarun Sales Corporation,https://www.indiamart.com/tarun-salescorporation/?pos=49&kwd=baby prams&tags=BA||||8752.144|Price|product|||NA|rsf:gd-|-stype:attr=1|qr_nm:gd|res:RC3|com-cf:nl|ptrs:na|ktp:N0|mc:55655|mtp:S|qry_typ:P|lang:en|wc:2|cs:8841|v=4,False,Jhandewalan Central Delhi,New Delhi,"Shop No 40-A, Cycle Market, Jhandewalan Central Delhi, New Delhi - 110055, Dist.Delhi, Delhi",8045735204,
"100.33 cm Polyester And Metal Mirus Red Baby Stroller Pram, 4",https://www.indiamart.com/proddetail/mirus-red-baby-stroller-pram-2852163861597.html?pos=50&kwd=baby prams&tags=BA||||8752.144|Price|product|||NA|rsf:gd-|-stype:attr=1|qr_nm:gd|res:RC3|com-cf:nl|ptrs:na|ktp:N0|mc:55655|mtp:S|qry_typ:P|lang:en|wc:2|cs:8841|v=4,Pram Hut,https://www.indiamart.com/pram-hutdelhi/?pos=50&kwd=baby prams&tags=BA||||8752.144|Price|product|||NA|rsf:gd-|-stype:attr=1|qr_nm:gd|res:RC3|com-cf:nl|ptrs:na|ktp:N0|mc:55655|mtp:S|qry_typ:P|lang:en|wc:2|cs:8841|v=4,False,,New Delhi,"SHOP NO.- 156,ANARKALI COMPLEX,ANARKALI COMPLEX,New Delhi LOWER GROUND FLOOR, SHOP NO.- 156, ANARKALI COMPLEX, ANARKALI COMPLEX, JHANDEWALAN, New Delhi, Cent, New Delhi - 110055, Dist.Delhi, Delhi",7942701586,
Zebra Light Weight Umbrella Baby Stroller & Pram Age 0- 3 Years (Blue),https://www.indiamart.com/proddetail/zebra-light-weight-umbrella-baby-stroller-pram-age-0-3-years-blue-2853382054191.html?pos=51&kwd=baby prams&tags=BA||||8228.275|Price|product|||NA|rsf:gd-|-stype:attr=1|qr_nm:gd|res:RC3|com-cf:nl|ptrs:na|ktp:N0|mc:55655|mtp:S|qry_typ:P|lang:en|wc:2|cs:8841|v=4,Eclat Globalbiz LLP,https://www.indiamart.com/eclatglobalbiz/?pos=51&kwd=baby prams&tags=BA||||8228.275|Price|product|||NA|rsf:gd-|-stype:attr=1|qr_nm:gd|res:RC3|com-cf:nl|ptrs:na|ktp:N0|mc:55655|mtp:S|qry_typ:P|lang:en|wc:2|cs:8841|v=4,False,,Ahmedabad,"Shilp Zaveri, Ahmedabad - 380004, Dist.Ahmedabad, Gujarat",,
"Blue(base) Plastic And Woven Fabric Blue Baby Pram, Age Group: Upto 1.5 Years",https://www.indiamart.com/proddetail/blue-baby-pram-2853396832330.html?pos=52&kwd=baby prams&tags=BA||||8228.275|Price|product|||NA|rsf:gd-|-stype:attr=1|qr_nm:gd|res:RC3|com-cf:nl|ptrs:na|ktp:N0|mc:55655|mtp:S|qry_typ:P|lang:en|wc:2|cs:8841|v=4,Ayub Cycle Stores,https://www.indiamart.com/ayub-cycle-stores/?pos=52&kwd=baby prams&tags=BA||||8228.275|Price|product|||NA|rsf:gd-|-stype:attr=1|qr_nm:gd|res:RC3|com-cf:nl|ptrs:na|ktp:N0|mc:55655|mtp:S|qry_typ:P|lang:en|wc:2|cs:8841|v=4,False,Daskroi,Ahmedabad,"1, Oppo Prakas Highschool, S T Bus Stand Road, Bareja, Daskroi, Ahmedabad - 382425, Dist.Ahmedabad, Gujarat",7949227132,
"Metal Baby Stroller Pram, 4 Pair",https://www.indiamart.com/proddetail/baby-stroller-pram-22675998833.html?pos=53&kwd=baby prams&tags=BB||||8752.144|Price|product|||NA|rsf:gd-|-stype:attr=1|qr_nm:gd|res:RC3|com-cf:nl|ptrs:na|ktp:N0|mc:55655|mtp:S|qry_typ:P|lang:en|wc:2|cs:8841|v=4,Suash Traders,https://www.indiamart.com/suashtraders/?pos=53&kwd=baby prams&tags=BB||||8752.144|Price|product|||NA|rsf:gd-|-stype:attr=1|qr_nm:gd|res:RC3|com-cf:nl|ptrs:na|ktp:N0|mc:55655|mtp:S|qry_typ:P|lang:en|wc:2|cs:8841|v=4,False,Mandawali,New Delhi,"House No 191 A, USB Mandawali, Mandawali, New Delhi - 110092, Dist.Delhi, Delhi",8047640516,
28 cm Mild Steel And Plastic 6 Wheel Blue Baby Pram,https://www.indiamart.com/proddetail/6-wheel-blue-baby-pram-25001680197.html?pos=54&kwd=baby prams&tags=BB||||8752.144|Price|product|||NA|rsf:gd-|-stype:attr=1|qr_nm:gd|res:RC3|com-cf:nl|ptrs:na|ktp:N0|mc:55655|mtp:S|qry_typ:P|lang:en|wc:2|cs:8841|v=4,Aries Enterprises,https://www.indiamart.com/aries-enterprises-newdelhi/?pos=54&kwd=baby prams&tags=BB||||8752.144|Price|product|||NA|rsf:gd-|-stype:attr=1|qr_nm:gd|res:RC3|com-cf:nl|ptrs:na|ktp:N0|mc:55655|mtp:S|qry_typ:P|lang:en|wc:2|cs:8841|v=4,False,Budh Vihar Phase -1,New Delhi,"Prop No 15, KH No 80/22, 1st Floor, Block F-2, Budh Vihar, Phase-1, Pooth Kalan, Budh Vihar Phase -1, New Delhi - 110086, Dist.Delhi, Delhi",8047307345,
"Iron Baby Stroller Pram, 4",https://www.indiamart.com/proddetail/baby-stroller-pram-2851973511812.html?pos=55&kwd=baby prams&tags=BA||||9839.57|Price|product|||NA|rsf:gd-|-stype:attr=1|qr_nm:gd|res:RC3|com-cf:nl|ptrs:na|ktp:N0|mc:55655|mtp:S|qry_typ:P|lang:en|wc:2|cs:8841|v=4,Winner Enterprise,https://www.indiamart.com/winnerenterprise-kolkata/?pos=55&kwd=baby prams&tags=BA||||9839.57|Price|product|||NA|rsf:gd-|-stype:attr=1|qr_nm:gd|res:RC3|com-cf:nl|ptrs:na|ktp:N0|mc:55655|mtp:S|qry_typ:P|lang:en|wc:2|cs:8841|v=4,False,Building,Kolkata,"44, Gandhi Building, 44 Ezra Street, Building, Kolkata - 700001, Dist.Kolkata, West Bengal",8047696249,
"Lightweight Aluminium,Plastic Blue Trifold Cruze Stroller Pram, 06",https://www.indiamart.com/proddetail/blue-trifold-cruze-stroller-pram-24245308433.html?pos=56&kwd=baby prams&tags=BB||||8740.707|Price|product|||NA|rsf:gd-|-stype:attr=1|qr_nm:gd|res:RC3|com-cf:nl|ptrs:na|ktp:N0|mc:55655|mtp:S|qry_typ:P|lang:en|wc:2|cs:8841|v=4,Atharva Enterprises,https://www.indiamart.com/atharvaenterprises-zirakpur/?pos=56&kwd=baby prams&tags=BB||||8740.707|Price|product|||NA|rsf:gd-|-stype:attr=1|qr_nm:gd|res:RC3|com-cf:nl|ptrs:na|ktp:N0|mc:55655|mtp:S|qry_typ:P|lang:en|wc:2|cs:8841|v=4,False,SAS Nagar,Sas Nagar,"Shop No. 7, Near Community Centre, Luxmi Enclave, Dhakoli, SAS Nagar, Sas Nagar - 140603, Dist.Mohali, Punjab",7942538452,
Baby Prams,,Kake Di Hatti,https://www.indiamart.com/kake-di-hatti-ludhiana/?pos=57&kwd=baby prams&tags=BB||||8661.854||product|||NA|rsf:gd-|-stype:attr=1|qr_nm:gd|res:RC3|com-cf:nl|ptrs:na|ktp:N0|mc:55655|mtp:S|qry_typ:P|lang:en|wc:2|cs:8841|v=4,False,,Ludhiana,"472,Jail Road,Ludhiana,Ludhiana, Ludhiana - 141008, Dist.Ludhiana, Punjab",8048370710,1284
Baby Prams,,Toys Mall,https://www.indiamart.com/toys-mall/?pos=58&kwd=baby prams&tags=BA||||8740.707||product|||NA|rsf:gd-|-stype:attr=1|qr_nm:gd|res:RC3|com-cf:nl|ptrs:na|ktp:N0|mc:55655|mtp:S|qry_typ:P|lang:en|wc:2|cs:8841|v=4,False,,Sas Nagar,"Haibatpur-Gulmohar City Road, Dav School Chowk, Derabassi, Sas Nagar - 140507, Dist.Mohali, Punjab",8043835609,
Baby Prams,,Harish Cycle Co.,https://www.indiamart.com/company/30335773/?pos=59&kwd=baby prams&tags=BB||||8601.347|Price|product|||NA|rsf:gd-|-stype:attr=1|qr_nm:gd|res:RC3|com-cf:nl|ptrs:na|ktp:N0|mc:55655|mtp:S|qry_typ:P|lang:en|wc:2|cs:8841|v=4,False,,Jaipur,"47, Kishanpole Bazar, Jaipur - 302001, Dist.Jaipur, Rajasthan",8048247100,3903
Baby Prams,,Sweet Angels,https://www.indiamart.com/sweet-angels/?pos=60&kwd=baby prams&tags=BA||||8038.093|Price|product|||NA|rsf:gd-|-stype:attr=1|qr_nm:gd|res:RC3|com-cf:nl|ptrs:na|ktp:N0|mc:55655|mtp:S|qry_typ:P|lang:en|wc:2|cs:8841|v=4,False,Kotecha Main Road,Rajkot,"Sunny Plaza, Kotecha Main Road, Rajkot - 360001, Dist.Rajkot, Gujarat",8047522019,
Baby Prams,,Toy Garden,https://www.indiamart.com/toy-garden/?pos=61&kwd=baby prams&tags=BB||||8239.3955||product|||NA|rsf:gd-|-stype:attr=1|qr_nm:gd|res:RC3|com-cf:nl|ptrs:na|ktp:N0|mc:55655|mtp:S|qry_typ:P|lang:en|wc:2|cs:8841|v=4,False,Kalyan West,Kalyan,"Shop No. 01, Nav Surabhi Co-operative Housing Society, Agra Road, Kalyan West, Kalyan - 421301, Dist.Thane, Maharashtra",8047850779,
Baby Prams,,Ritz Trade Links Private Limited,https://www.indiamart.com/ritz-trade-links-private-limited/?pos=62&kwd=baby prams&tags=BB||||8663.873||product|||NA|rsf:gd-|-stype:attr=1|qr_nm:gd|res:RC3|com-cf:nl|ptrs:na|ktp:N0|mc:55655|mtp:S|qry_typ:P|lang:en|wc:2|cs:8841|v=4,False,HSR Layout,Bengaluru,"433, 17th Main, 19th Main, Sector 4, Agara, HSR Layout, Bengaluru - 560102, Dist.Bengaluru, Karnataka",8047524846,
Baby Prams,,Kiddies,https://www.indiamart.com/kiddies-company/?pos=63&kwd=baby prams&tags=BB||||8281.036||product|||NA|rsf:gd-|-stype:attr=1|qr_nm:gd|res:RC3|com-cf:nl|ptrs:na|ktp:N0|mc:55655|mtp:S|qry_typ:P|lang:en|wc:2|cs:8841|v=4,False,harni road,Vadodara,"107 vedant complex meera char rasta harni road HARNI ROAD BAORDA, harni road, Vadodara - 390005, Dist.Vadodara, Gujarat",8047791180,
Baby Prams,,Deep Gift Center,https://www.indiamart.com/deep-gi/?pos=64&kwd=baby prams&tags=BA||||8603.455|Price|product|||NA|rsf:gd-|-stype:attr=1|qr_nm:gd|res:RC3|com-cf:nl|ptrs:na|ktp:N0|mc:55655|mtp:S|qry_typ:P|lang:en|wc:2|cs:8841|v=4,False,Mandi Road Thakur Basti,Fatehabad,"Deep Gift Center,Thakar Basti, Mandi Road Thakur Basti, Fatehabad - 125050, Haryana",7949367497,
Baby Prams Imported,,Sehgal Sons,https://www.indiamart.com/seggal-sons/?pos=65&kwd=baby prams&tags=BA||||8752.144|Price|product|||NA|rsf:gd-|-stype:attr=1|qr_nm:gd|res:RC3|com-cf:nl|ptrs:na|ktp:N0|mc:55655|mtp:S|qry_typ:P|lang:en|wc:2|cs:8841|v=4,False,,New Delhi,"541-B, Esplanade Road, Chandni Chowk, New Delhi - 110006, Dist.Delhi, Delhi",8047681631,
BMC trolley,,New Shah Fabrications Work,https://www.indiamart.com/new-shah-fabrications-work/?pos=66&kwd=baby prams&tags=BB||||8205.532|Price|product|||NA|rsf:gd-|-stype:attr=1|qr_nm:gd|res:RC3|com-cf:nl|ptrs:na|ktp:N0|mc:55655|mtp:S|qry_typ:P|lang:en|wc:2|cs:8841|v=4,False,Rani Si Road Boisar West,Boisar,"Ramchandra Nagar Sy.no.107 Boisar Ganesh Nagar Palghar, Rani Si Road Boisar West, Boisar - 401501, Dist.Thane, Maharashtra",8048372699,874
Kids Prams,,Funbox,https://www.indiamart.com/funbox/?pos=67&kwd=baby prams&tags=BB||||8038.093||product|||NA|rsf:gd-|-stype:attr=1|qr_nm:gd|res:RC3|com-cf:nl|ptrs:na|ktp:N0|mc:55655|mtp:S|qry_typ:P|lang:en|wc:2|cs:8841|v=4,False,,Rajkot,"11/1025 15 - SARDAR NAGAR, NIL KAMAL RAJKOT, Rajkot - 360005, Dist.Rajkot, Gujarat",8048249698,8261
baby strollers baby pram baby buggy,,Luv Lap Store,https://www.indiamart.com/luv-lap-store/?pos=68&kwd=baby prams&tags=BB||||9829.308||product|||NA|rsf:gd-|-stype:attr=1|qr_nm:gd|res:RC3|com-cf:nl|ptrs:na|ktp:N0|mc:55655|mtp:S|qry_typ:P|lang:en|wc:2|cs:8841|v=4,False,howrah bally,Howrah,"Luvlap, Avani Mall Ground Floor, Shop No 42,43 Howrah, howrah bally, Howrah - 711102, Dist.Howrah, West Bengal",8048249739,7446
Pram Strollers,,Nisha Manisha Traders,https://www.indiamart.com/nisha-manisha-traders/?pos=69&kwd=baby prams&tags=BB||||8752.144|Price|product|||NA|rsf:gd-|-stype:attr=1|qr_nm:gd|res:RC3|com-cf:nl|ptrs:na|ktp:N0|mc:55655|mtp:S|qry_typ:P|lang:en|wc:2|cs:8841|v=4,False,,New Delhi,"Ground Floor House No 54 Gali No 3 Khasra No 15/7 Khajani Nagar Johripur New, New Delhi - 110094, Dist.Delhi, Delhi",8048371566,515
Baby Stroller Pram,,Babyneeds,https://www.indiamart.com/company/30201807/?pos=70&kwd=baby prams&tags=BB||||8788.382||product|||NA|rsf:gd-|-stype:attr=1|qr_nm:gd|res:RC3|com-cf:nl|ptrs:na|ktp:N0|mc:55655|mtp:S|qry_typ:P|lang:en|wc:2|cs:8841|v=4,False,Sector 16,Greater Noida,", Sector 16, Greater Noida - 201318, Dist.Gautam Budh Nagar, Uttar Pradesh",8048247104,3560
Pram For Kids,,MG Trading Company,https://www.indiamart.com/mgtrading-newdelhi/?pos=71&kwd=baby prams&tags=BB||||8752.144|Price|product|||NA|rsf:gd-|-stype:attr=1|qr_nm:gd|res:RC3|com-cf:nl|ptrs:na|ktp:N0|mc:55655|mtp:S|qry_typ:P|lang:en|wc:2|cs:8841|v=4,False,North West Delhi,New Delhi,"House No 7 KH No.24/24, Ground Floor, Rama Vihar Majri And Durga Mandir Road, North West Delhi, New Delhi - 110081, Dist.Delhi, Delhi",8043891703,
Baby Pram,,Ram Krishan & Brother,https://www.indiamart.com/ram-krishan-brother-amritsar/?pos=72&kwd=baby prams&tags=BB||||8580.032||product|||NA|rsf:gd-|-stype:attr=1|qr_nm:gd|res:RC3|com-cf:nl|ptrs:na|ktp:N0|mc:55655|mtp:S|qry_typ:P|lang:en|wc:2|cs:8841|v=4,False,Ram bagh,Amritsar,"near Nandan cinema, Ram bagh, Amritsar - 143001, Dist.Amritsar, Punjab",8062245038,957
Baby Stroller,,Aarthis Boutique,https://www.indiamart.com/aarthis-boutique/?pos=73&kwd=baby prams&tags=BB||||8924.796|Price|product|||NA|rsf:gd-|-stype:attr=1|qr_nm:gd|res:RC3|com-cf:nl|ptrs:na|ktp:N0|mc:55655|mtp:S|qry_typ:P|lang:en|wc:2|cs:8841|v=4,False,Aqualily,Mahindra World City,", Aqualily, Mahindra World City - 603002, Dist.Kanchipuram, Tamil Nadu",8048370717,8855
Baby Stroller,,Minggo - Best Gifting Shop Nagpur,https://www.indiamart.com/minggo-best-gifting-shop-nagpur/?pos=74&kwd=baby prams&tags=BB||||8876.815||product|||NA|rsf:gd-|-stype:attr=1|qr_nm:gd|res:RC3|com-cf:nl|ptrs:na|ktp:N0|mc:55655|mtp:S|qry_typ:P|lang:en|wc:2|cs:8841|v=4,False,,Nagpur,", Nagpur - 440008, Dist.Nagpur, Maharashtra",8048370723,5852
Baby Stroller,,Venkatesh Toys gift and cycle,https://www.indiamart.com/venkatesh-toys-gift-and-cycle/?pos=75&kwd=baby prams&tags=BB||||8620.856|Price|product|||NA|rsf:gd-|-stype:attr=1|qr_nm:gd|res:RC3|com-cf:nl|ptrs:na|ktp:N0|mc:55655|mtp:S|qry_typ:P|lang:en|wc:2|cs:8841|v=4,False,Basmat Road,Parbhani,"Shivaji college complex,shop No 23 Vasmat Road, Parbhani, Basmat Road, Parbhani - 431401, Dist.Parbhani, Maharashtra",8048249780,5944
Baby Stroller,,J.S.R. Trading Company,https://www.indiamart.com/jsr-trading-company/?pos=76&kwd=baby prams&tags=BB||||8747.203||product|||NA|rsf:gd-|-stype:attr=1|qr_nm:gd|res:RC3|com-cf:nl|ptrs:na|ktp:N0|mc:55655|mtp:S|qry_typ:P|lang:en|wc:2|cs:8841|v=4,False,Panipat,Panipat,"Geeta Mandir Road Railway Road, Panipath, Panipat, Panipat - 132103, Dist.Panipat, Haryana",8047821028,
Baby Stroller,,Sk Trading,https://www.indiamart.com/company/55413068/?pos=77&kwd=baby prams&tags=BB||||8663.873|Price|product|||NA|rsf:gd-|-stype:attr=1|qr_nm:gd|res:RC3|com-cf:nl|ptrs:na|ktp:N0|mc:55655|mtp:S|qry_typ:P|lang:en|wc:2|cs:8841|v=4,False,,Bengaluru,", Bengaluru, Dist.Bengaluru, Karnataka",8048247104,6137
"Baby Pram 16, Age Group: 1-2 Years",https://www.indiamart.com/proddetail/baby-pram-16-22260947588.html?pos=78&kwd=baby prams&tags=CA||||8752.144|Price|product|||TS|rsf:gd-|-stype:attr=1|qr_nm:gd|res:RC3|com-cf:nl|ptrs:na|ktp:N0|mc:55655|mtp:S|qry_typ:P|lang:en|wc:2|cs:8841|v=4,Giriraj Enterprises,https://www.indiamart.com/giriraj-enterprises-delhi/?pos=78&kwd=baby prams&tags=CA||||8752.144|Price|product|||TS|rsf:gd-|-stype:attr=1|qr_nm:gd|res:RC3|com-cf:nl|ptrs:na|ktp:N0|mc:55655|mtp:S|qry_typ:P|lang:en|wc:2|cs:8841|v=4,False,Shakurpur,New Delhi,"WZ 313 A, Shakurpur Village, Shakurpur, New Delhi - 110034, Dist.Delhi, Delhi",8048262415,
Kids Pram,https://www.indiamart.com/proddetail/kids-pram-2066809373.html?pos=79&kwd=baby prams&tags=CA||||8752.144|Price|product|||MDC|rsf:gd-|-stype:attr=1|qr_nm:gd|res:RC3|com-cf:nl|ptrs:na|ktp:N0|mc:55655|mtp:S|qry_typ:P|lang:en|wc:2|cs:8841|v=4,Bajaj Bicycle Company,https://www.indiamart.com/bajajbicycle/?pos=79&kwd=baby prams&tags=CA||||8752.144|Price|product|||MDC|rsf:gd-|-stype:attr=1|qr_nm:gd|res:RC3|com-cf:nl|ptrs:na|ktp:N0|mc:55655|mtp:S|qry_typ:P|lang:en|wc:2|cs:8841|v=4,False,Dilshad Garden,New Delhi,"O-35-A-1, Dilshad Garden, Dilshad Garden, New Delhi - 110095, Dist.Delhi, Delhi",8048600091,
"Cotton Baby Stroller Pram, 4, Justin",https://www.indiamart.com/proddetail/baby-stroller-pram-2853002495555.html?pos=80&kwd=baby prams&tags=CC||||8752.144|Price|product|||TS|rsf:gd-|-stype:attr=1|qr_nm:gd|res:RC3|com-cf:nl|ptrs:na|ktp:N0|mc:55655|mtp:S|qry_typ:P|lang:en|wc:2|cs:8841|v=4,Balaji Overseas Inc.,https://www.babyzon.in/?pos=80&kwd=baby prams&tags=CC||||8752.144|Price|product|||TS|rsf:gd-|-stype:attr=1|qr_nm:gd|res:RC3|com-cf:nl|ptrs:na|ktp:N0|mc:55655|mtp:S|qry_typ:P|lang:en|wc:2|cs:8841|v=4,False,Tri Nagar,New Delhi,"1553/110, Landmark Ganesh Pura, Tri Nagar, Tri Nagar, New Delhi - 110035, Dist.Delhi, Delhi",8047532650,
"Pink,Black PVC,Mild Steel Movable Baby Prams, Age Group: 1-2 Years",https://www.indiamart.com/proddetail/movable-baby-prams-2853637568988.html?pos=81&kwd=baby prams&tags=CC||||9148.645|Price|product|||MDC|rsf:gd-|-stype:attr=1|qr_nm:gd|res:RC3|com-cf:nl|ptrs:na|ktp:N0|mc:55655|mtp:S|qry_typ:P|lang:en|wc:2|cs:8841|v=4,Sri Jaya Enterprises,https://www.indiamart.com/sri-jayaenterprises/?pos=81&kwd=baby prams&tags=CC||||9148.645|Price|product|||MDC|rsf:gd-|-stype:attr=1|qr_nm:gd|res:RC3|com-cf:nl|ptrs:na|ktp:N0|mc:55655|mtp:S|qry_typ:P|lang:en|wc:2|cs:8841|v=4,False,Machara,Mandapeta,"31-1-27/1, Ward No 13, Alamuru Road, Mandapeta, East Godavari, Machara, Mandapeta - 533308, Dist.East Godavari, Andhra Pradesh",7949093426,
"LuvLap Starshine Baby Stroller/Pram for 0 to 3 Years, New Born/Toddler/Kid, Lightweight, Adjustable Backrest, 360 Swivel Wheel, Large Storage Basket, Reversible Handlebar (Blue) 18218",https://www.indiamart.com/proddetail/luvlap-starshine-baby-stroller-pram-for-0-to-3-years-new-born-toddler-kid-lightweight-adjustable-backrest-360-swivel-wheel-large-storage-basket-reversible-handlebar-blue-18218-2853695556255.html?pos=82&kwd=baby prams&tags=CC||||8614.241|Price|product|||MDC|rsf:gd-|-stype:attr=1|qr_nm:gd|res:RC3|com-cf:nl|ptrs:na|ktp:N0|mc:55655|mtp:S|qry_typ:P|lang:en|wc:2|cs:8841|v=4,M.M. Toy World,https://www.indiamart.com/mmtoyworld/?pos=82&kwd=baby prams&tags=CC||||8614.241|Price|product|||MDC|rsf:gd-|-stype:attr=1|qr_nm:gd|res:RC3|com-cf:nl|ptrs:na|ktp:N0|mc:55655|mtp:S|qry_typ:P|lang:en|wc:2|cs:8841|v=4,False,Achli Gate,Batala,"M.M. Toys World, Bedian Gali, Khujari Gate, Gurdaspur, Achli Gate, Batala - 143505, Dist.Gurdaspur, Punjab",,
"Standard Children Baby Stroller, 4",https://www.indiamart.com/proddetail/children-baby-stroller-26436306973.html?pos=83&kwd=baby prams&tags=CC||||8307.81|Price|product|||TS|rsf:gd-|-stype:attr=1|qr_nm:gd|res:RC3|com-cf:nl|ptrs:na|ktp:N0|mc:55655|mtp:S|qry_typ:P|lang:en|wc:2|cs:8841|v=4,Porwal Cycle And Motor Company,https://www.indiamart.com/porwal-cycle-motor/?pos=83&kwd=baby prams&tags=CC||||8307.81|Price|product|||TS|rsf:gd-|-stype:attr=1|qr_nm:gd|res:RC3|com-cf:nl|ptrs:na|ktp:N0|mc:55655|mtp:S|qry_typ:P|lang:en|wc:2|cs:8841|v=4,False,Budhwar Peth,Pune,"185/2 B, Ground Floor, Porwal Cycle And Motor Company, Laxmi Road, Budhwar Peth, Budhwar Peth, Pune - 411002, Dist.Pune, Maharashtra",8043811727,
"Multicolor 2.5 Feet Baby Stroller Pram, 8 Wheel, Packaging Type: Box Packing",https://www.indiamart.com/proddetail/baby-stroller-pram-2854219439473.html?pos=84&kwd=baby prams&tags=||||8752.144|Price|product|||TS|rsf:gd-|-stype:attr=1|qr_nm:gd|res:RC3|com-cf:nl|ptrs:na|ktp:N0|mc:55655|mtp:S|qry_typ:P|lang:en|wc:2|cs:8841|v=4,Indial Premium Products,https://www.indiamart.com/indial-premium-products/?pos=84&kwd=baby prams&tags=||||8752.144|Price|product|||TS|rsf:gd-|-stype:attr=1|qr_nm:gd|res:RC3|com-cf:nl|ptrs:na|ktp:N0|mc:55655|mtp:S|qry_typ:P|lang:en|wc:2|cs:8841|v=4,False,,New Delhi,"68, K Block, Jahangirpuri North West Delhi, New Delhi - 110033, Dist.Delhi, Delhi",8045732973,
"Pram For Kids, 8 Wheels, HH8585",https://www.indiamart.com/proddetail/pram-for-kids-23139567755.html?pos=85&kwd=baby prams&tags=CA||||8823.154|Price|product|||NA|rsf:gd-|-stype:attr=1|qr_nm:gd|res:RC3|com-cf:nl|ptrs:na|ktp:N0|mc:55655|mtp:S|qry_typ:P|lang:en|wc:2|cs:8841|v=4,RDC Brothers,https://www.indiamart.com/rdc-brothers/?pos=85&kwd=baby prams&tags=CA||||8823.154|Price|product|||NA|rsf:gd-|-stype:attr=1|qr_nm:gd|res:RC3|com-cf:nl|ptrs:na|ktp:N0|mc:55655|mtp:S|qry_typ:P|lang:en|wc:2|cs:8841|v=4,False,Rajpur Chungi,Agra,"Near Rajeshwar mandir, Shamashabad road beside upadhyay tent house, Rajpur Chungi, Agra - 282001, Dist.Agra, Uttar Pradesh",8046067443,
Graco Baby Pram Green 1009686,https://www.indiamart.com/proddetail/graco-baby-pram-green-1009686-3837340291.html?pos=86&kwd=baby prams&tags=CA||||8230.883||product|||NA|rsf:gd-|-stype:attr=1|qr_nm:gd|res:RC3|com-cf:nl|ptrs:na|ktp:N0|mc:55655|mtp:S|qry_typ:P|lang:en|wc:2|cs:8841|v=4,Yapaa Dot Com,https://www.indiamart.com/yapaa-dsurat/?pos=86&kwd=baby prams&tags=CA||||8230.883||product|||NA|rsf:gd-|-stype:attr=1|qr_nm:gd|res:RC3|com-cf:nl|ptrs:na|ktp:N0|mc:55655|mtp:S|qry_typ:P|lang:en|wc:2|cs:8841|v=4,False,,Surat,"Ghod Dod Road, Surat - 395007, Dist.Surat, Gujarat",8047308899,7252
"Aluminium Sunbaby Angel Baby Stroller/pram, 8",https://www.indiamart.com/proddetail/sunbaby-angel-baby-stroller-pram-24760666762.html?pos=87&kwd=baby prams&tags=CA||||8752.144|Price|product|||NA|rsf:gd-|-stype:attr=1|qr_nm:gd|res:RC3|com-cf:nl|ptrs:na|ktp:N0|mc:55655|mtp:S|qry_typ:P|lang:en|wc:2|cs:8841|v=4,Krona Liquatec Ltd.,https://www.indiamart.com/kronaliquatec/?pos=87&kwd=baby prams&tags=CA||||8752.144|Price|product|||NA|rsf:gd-|-stype:attr=1|qr_nm:gd|res:RC3|com-cf:nl|ptrs:na|ktp:N0|mc:55655|mtp:S|qry_typ:P|lang:en|wc:2|cs:8841|v=4,False,,New Delhi,"B Ii/96, M.C.I.E, Badarpur, South Delhi, New Delhi - 110044, Dist.Delhi, Delhi",8047303429,
MAHADEV INDUSTRIES,,MAHADEV INDUSTRIES,https://www.mahadevindustries.in/?pos=88&kwd=baby prams&tags=D||||8038.093||bl|||TS|rsf:gd-|-stype:attr=1|qr_nm:gd|res:RC3|com-cf:nl|ptrs:na|ktp:N0|mc:55655|mtp:S|qry_typ:P|lang:en|wc:2|cs:8841|v=4,False,Navyug Pura,Rajkot,"Shri Hari Industrial Area, Main Road, Near Ananad Hotel NH 8B Ring Road, Navyug Pura, Rajkot - 360002, Dist.Rajkot, Gujarat",8046050653,
Multicolor Baby Prams,https://www.indiamart.com/proddetail/baby-prams-19570603988.html?pos=89&kwd=baby prams&tags=CC||||8752.144||product|||NA|rsf:gd-|-stype:attr=1|qr_nm:gd|res:RC3|com-cf:nl|ptrs:na|ktp:N0|mc:55655|mtp:S|qry_typ:P|lang:en|wc:2|cs:8841|v=4,Harish Kumar And Sons,https://www.indiamart.com/jai-jhulelal/?pos=89&kwd=baby prams&tags=CC||||8752.144||product|||NA|rsf:gd-|-stype:attr=1|qr_nm:gd|res:RC3|com-cf:nl|ptrs:na|ktp:N0|mc:55655|mtp:S|qry_typ:P|lang:en|wc:2|cs:8841|v=4,False,Bahadurgarh Road,New Delhi,"3003, 2nd Floor, Bahadurgarh Road, New Delhi - 110006, Dist.Delhi, Delhi",8048372566,408
Baby Prams,https://www.indiamart.com/proddetail/baby-prams-12898017773.html?pos=90&kwd=baby prams&tags=CC||||8663.873|Price|product|||NA|rsf:gd-|-stype:attr=1|qr_nm:gd|res:RC3|com-cf:nl|ptrs:na|ktp:N0|mc:55655|mtp:S|qry_typ:P|lang:en|wc:2|cs:8841|v=4,My Little Star,https://www.indiamart.com/mylittlestar/?pos=90&kwd=baby prams&tags=CC||||8663.873|Price|product|||NA|rsf:gd-|-stype:attr=1|qr_nm:gd|res:RC3|com-cf:nl|ptrs:na|ktp:N0|mc:55655|mtp:S|qry_typ:P|lang:en|wc:2|cs:8841|v=4,False,Yelahanka New Town,Bengaluru,"75/707, H S R Plaza, 1st Main, 2nd Cross 4th Phase, Opp. Govt. School Yelahanka New Town,, Yelahanka New Town, Bengaluru - 560064, Dist.Bengaluru, Karnataka",8043812713,
Female Baby Prams,https://www.indiamart.com/proddetail/baby-prams-14948182933.html?pos=91&kwd=baby prams&tags=CC||||8752.144|Price|product|||NA|rsf:gd-|-stype:attr=1|qr_nm:gd|res:RC3|com-cf:nl|ptrs:na|ktp:N0|mc:55655|mtp:S|qry_typ:P|lang:en|wc:2|cs:8841|v=4,Swati Creations,https://www.indiamart.com/swaticreations-3306165/?pos=91&kwd=baby prams&tags=CC||||8752.144|Price|product|||NA|rsf:gd-|-stype:attr=1|qr_nm:gd|res:RC3|com-cf:nl|ptrs:na|ktp:N0|mc:55655|mtp:S|qry_typ:P|lang:en|wc:2|cs:8841|v=4,False,Balbir Nagar,New Delhi,"No.1/5060A, Gali No.2, Shahdara, Balbir Nagar, New Delhi - 110032, Dist.Delhi, Delhi",8048372516,427
16 Inch Baby Prams,https://www.indiamart.com/proddetail/16-inch-baby-prams-12801916730.html?pos=92&kwd=baby prams&tags=CB||||8752.144|Price|product|||NA|rsf:gd-|-stype:attr=1|qr_nm:gd|res:RC3|com-cf:nl|ptrs:na|ktp:N0|mc:55655|mtp:S|qry_typ:P|lang:en|wc:2|cs:8841|v=4,Saxena & Son'S,https://www.indiamart.com/chitranshibp/?pos=92&kwd=baby prams&tags=CB||||8752.144|Price|product|||NA|rsf:gd-|-stype:attr=1|qr_nm:gd|res:RC3|com-cf:nl|ptrs:na|ktp:N0|mc:55655|mtp:S|qry_typ:P|lang:en|wc:2|cs:8841|v=4,False,Nawada,New Delhi,"K-22/25, Street No. 19, Gangotri Vihar, West Ghonda, Nawada, New Delhi - 110053, Dist.Delhi, Delhi",8043812729,
Baby Prams,,J K Enterprises,https://www.indiamart.com/rk-entp-thane/?pos=93&kwd=baby prams&tags=CC||||8223.226|Price|product|||NA|rsf:gd-|-stype:attr=1|qr_nm:gd|res:RC3|com-cf:nl|ptrs:na|ktp:N0|mc:55655|mtp:S|qry_typ:P|lang:en|wc:2|cs:8841|v=4,False,Dombivali East,Thane,"C -006,LODHA HEAVEN NILJE,CHANDRESH TAPOVAN CHS,DOMBIVALI EAST Nilje, Dombivali East, Dombivali East, Thane - 421204, Dist.Thane, Maharashtra",8048247129,9457
Baby Prams,,Metro Agency,https://www.indiamart.com/metro-agency-surat/?pos=94&kwd=baby prams&tags=CC||||8230.883|Price|product|||NA|rsf:gd-|-stype:attr=1|qr_nm:gd|res:RC3|com-cf:nl|ptrs:na|ktp:N0|mc:55655|mtp:S|qry_typ:P|lang:en|wc:2|cs:8841|v=4,False,,Surat,"Gopipura, Surat - 395001, Dist.Surat, Gujarat",8048247139,8032
"3ft Steel And Febric Blue Baby Prams, 8",https://www.indiamart.com/proddetail/blue-baby-prams-25642815873.html?pos=95&kwd=baby prams&tags=CC||||8974.737|Price|product|||NA|rsf:gd-|-stype:attr=1|qr_nm:gd|res:RC3|com-cf:nl|ptrs:na|ktp:N0|mc:55655|mtp:S|qry_typ:P|lang:en|wc:2|cs:8841|v=4,Sanjay Enterprises,https://www.indiamart.com/sanjay-enterprisesbareilly/?pos=95&kwd=baby prams&tags=CC||||8974.737|Price|product|||NA|rsf:gd-|-stype:attr=1|qr_nm:gd|res:RC3|com-cf:nl|ptrs:na|ktp:N0|mc:55655|mtp:S|qry_typ:P|lang:en|wc:2|cs:8841|v=4,False,Civil Lines,Bareilly,"26-27, Islamiya Market, Anathalay Road, Civil Lines, Bareilly - 243001, Dist.Bareilly, Uttar Pradesh",8047650009,
"Baby Prams And Stroller, 8 Wheels, Ace",https://www.indiamart.com/proddetail/baby-prams-and-stroller-23513117555.html?pos=96&kwd=baby prams&tags=CC||||8752.144|Price|product|||NA|rsf:gd-|-stype:attr=1|qr_nm:gd|res:RC3|com-cf:nl|ptrs:na|ktp:N0|mc:55655|mtp:S|qry_typ:P|lang:en|wc:2|cs:8841|v=4,Citizen Baby Products,https://www.indiamart.com/citizen-baby-products-delhi/?pos=96&kwd=baby prams&tags=CC||||8752.144|Price|product|||NA|rsf:gd-|-stype:attr=1|qr_nm:gd|res:RC3|com-cf:nl|ptrs:na|ktp:N0|mc:55655|mtp:S|qry_typ:P|lang:en|wc:2|cs:8841|v=4,False,,New Delhi,"Door No 87-a, Jhandewalan Extension, New Delhi - 110055, Dist.Delhi, Delhi",8045849770,392
"Wooden Baby Stroller Pram, 4 Wheel",https://www.indiamart.com/proddetail/wooden-baby-stroller-pram-23030555062.html?pos=97&kwd=baby prams&tags=CB||||8319.425|Price|product|||NA|rsf:gd-|-stype:attr=1|qr_nm:gd|res:RC3|com-cf:nl|ptrs:na|ktp:N0|mc:55655|mtp:S|qry_typ:P|lang:en|wc:2|cs:8841|v=4,Opulent Interiors,https://www.indiamart.com/opulent-interiors/?pos=97&kwd=baby prams&tags=CB||||8319.425|Price|product|||NA|rsf:gd-|-stype:attr=1|qr_nm:gd|res:RC3|com-cf:nl|ptrs:na|ktp:N0|mc:55655|mtp:S|qry_typ:P|lang:en|wc:2|cs:8841|v=4,False,,Jodhpur,"518-A,NEAR CHILDREN PARK, 8TH B ROAD SARDARPURA,JODHPUR 518 A, Near Children Park, 8th B Road,342001,Jodhpur, Jodhpur - 342003, Dist.Jodhpur, Rajasthan",8043884462,
Baby Products Cradle,https://www.indiamart.com/proddetail/baby-products-cradle-9096939397.html?pos=98&kwd=baby prams&tags=CC||||8771.463||product|||NA|rsf:gd-|-stype:attr=1|qr_nm:gd|res:RC3|com-cf:nl|ptrs:na|ktp:N0|mc:55655|mtp:S|qry_typ:P|lang:en|wc:2|cs:8841|v=4,Limitless Trading Pvt. Ltd.,https://www.indiamart.com/limitlesstrading/?pos=98&kwd=baby prams&tags=CC||||8771.463||product|||NA|rsf:gd-|-stype:attr=1|qr_nm:gd|res:RC3|com-cf:nl|ptrs:na|ktp:N0|mc:55655|mtp:S|qry_typ:P|lang:en|wc:2|cs:8841|v=4,False,,Mandi,"Near Post Office, Nerchowk, Mandi - 175008, Dist.Mandi, Himachal Pradesh",8048371958,650
Blue And Black Baby Pram,https://www.indiamart.com/proddetail/baby-pram-14928038962.html?pos=99&kwd=baby prams&tags=CC||||8663.873|Price|product|||NA|rsf:gd-|-stype:attr=1|qr_nm:gd|res:RC3|com-cf:nl|ptrs:na|ktp:N0|mc:55655|mtp:S|qry_typ:P|lang:en|wc:2|cs:8841|v=4,Hello Fitness,https://www.indiamart.com/hello-fitness/?pos=99&kwd=baby prams&tags=CC||||8663.873|Price|product|||NA|rsf:gd-|-stype:attr=1|qr_nm:gd|res:RC3|com-cf:nl|ptrs:na|ktp:N0|mc:55655|mtp:S|qry_typ:P|lang:en|wc:2|cs:8841|v=4,False,Kumaraswamy Layout,Bengaluru,"No. 1089, 42nd Cross, 1st Stage, Kumaraswamy Layout, Bengaluru - 560078, Dist.Bengaluru, Karnataka",8043803851,
Prams,,Google World,https://www.indiamart.com/google-world-bargarh/?pos=100&kwd=baby prams&tags=CC||||9347.4||product|||NA|rsf:gd-|-stype:attr=1|qr_nm:gd|res:RC3|com-cf:nl|ptrs:na|ktp:N0|mc:55655|mtp:S|qry_typ:P|lang:en|wc:2|cs:8841|v=4,False,Bargarh,Bargarh,"Bhatli Chowk, Bargarh, Bargarh - 768028, Dist.Bargarh, Odisha",8048372931,563
Notty Ride Baby Pram-Green,https://www.indiamart.com/proddetail/notty-ride-baby-pram-green-10903030497.html?pos=101&kwd=baby prams&tags=CB||||9839.57|Price|product|||NA|rsf:gd-|-stype:attr=1|qr_nm:gd|res:RC3|com-cf:nl|ptrs:na|ktp:N0|mc:55655|mtp:S|qry_typ:P|lang:en|wc:2|cs:8841|v=4,Headway Inc,https://www.indiamart.com/headway-inc/?pos=101&kwd=baby prams&tags=CB||||9839.57|Price|product|||NA|rsf:gd-|-stype:attr=1|qr_nm:gd|res:RC3|com-cf:nl|ptrs:na|ktp:N0|mc:55655|mtp:S|qry_typ:P|lang:en|wc:2|cs:8841|v=4,False,,Kolkata,"No. 55, Ezra Street, 1st Floor, Kolkata - 700001, Dist.Kolkata, West Bengal",8047843118,
Bear Print Baby Pram Navy Blue BL-10,https://www.indiamart.com/proddetail/bear-print-baby-pram-navy-blue-bl-10-20517187448.html?pos=102&kwd=baby prams&tags=CC||||8954.051||product|||NA|rsf:gd-|-stype:attr=1|qr_nm:gd|res:RC3|com-cf:nl|ptrs:na|ktp:N0|mc:55655|mtp:S|qry_typ:P|lang:en|wc:2|cs:8841|v=4,Babylou,https://www.indiamart.com/baby-lou/?pos=102&kwd=baby prams&tags=CC||||8954.051||product|||NA|rsf:gd-|-stype:attr=1|qr_nm:gd|res:RC3|com-cf:nl|ptrs:na|ktp:N0|mc:55655|mtp:S|qry_typ:P|lang:en|wc:2|cs:8841|v=4,False,Mylapore,Chennai,"114 Luz Church Road Near Alwarpet Anjaneyar Temple, Mylapore, Chennai - 600004, Dist.Chennai, Tamil Nadu",8043800763,
Red Cartel Pram Cycle,,New Bharat Cycle Store,https://www.indiamart.com/new-bharat-cycle-store-bulandshahr/?pos=103&kwd=baby prams&tags=CC||||8821.238||product|||NA|rsf:gd-|-stype:attr=1|qr_nm:gd|res:RC3|com-cf:nl|ptrs:na|ktp:N0|mc:55655|mtp:S|qry_typ:P|lang:en|wc:2|cs:8841|v=4,False,,Bulandshahr,"0 Bulandshahr, Bulandshahr - 203001, Dist.Bulandshahr, Uttar Pradesh",8069017282,994
Male baby stroller 3 in 1 newborn infant folding baby pram,https://www.indiamart.com/proddetail/baby-stroller-3-in-1-newborn-infant-folding-baby-pram-20977707397.html?pos=104&kwd=baby prams&tags=CC||||8509.724|Price|product|||NA|rsf:gd-|-stype:attr=1|qr_nm:gd|res:RC3|com-cf:nl|ptrs:na|ktp:N0|mc:55655|mtp:S|qry_typ:P|lang:en|wc:2|cs:8841|v=4,Bebe Moma,https://www.indiamart.com/bebe-moma/?pos=104&kwd=baby prams&tags=CC||||8509.724|Price|product|||NA|rsf:gd-|-stype:attr=1|qr_nm:gd|res:RC3|com-cf:nl|ptrs:na|ktp:N0|mc:55655|mtp:S|qry_typ:P|lang:en|wc:2|cs:8841|v=4,False,Vellakkinar,Alappuzha,", Vellakkinar, Alappuzha, Dist.Alappuzha, Kerala",8045849754,228
"StarAndDaisy Sunrise Baby Stroller and Pram with Extended Mosquito Net, 4",https://www.indiamart.com/proddetail/staranddaisy-sunrise-baby-stroller-and-pram-with-extended-mosquito-net-2852621846448.html?pos=105&kwd=baby prams&tags=CC||||8752.144|Price|product|||NA|rsf:gd-|-stype:attr=1|qr_nm:gd|res:RC3|com-cf:nl|ptrs:na|ktp:N0|mc:55655|mtp:S|qry_typ:P|lang:en|wc:2|cs:8841|v=4,Sharma Enterprises,https://www.indiamart.com/sharmaenterprises-41638746/?pos=105&kwd=baby prams&tags=CC||||8752.144|Price|product|||NA|rsf:gd-|-stype:attr=1|qr_nm:gd|res:RC3|com-cf:nl|ptrs:na|ktp:N0|mc:55655|mtp:S|qry_typ:P|lang:en|wc:2|cs:8841|v=4,False,,New Delhi,"Wz-502 Shakur Basti Sri Nagar North West, New Delhi - 110034, Dist.Delhi, Delhi",8047308668,3332
Luvlap Baby Stroller Pram,,Maruti Kids Zone,https://www.indiamart.com/maruti-kids-zone/?pos=106&kwd=baby prams&tags=CB||||9839.57||product|||NA|rsf:gd-|-stype:attr=1|qr_nm:gd|res:RC3|com-cf:nl|ptrs:na|ktp:N0|mc:55655|mtp:S|qry_typ:P|lang:en|wc:2|cs:8841|v=4,False,Muktaram Babu Street,Kolkata,"No. 109, 1st Floor, Muktaram Babu Street, Kolkata - 700007, Dist.Kolkata, West Bengal",7949342709,
IMPORTED PRAM,,Tricycle Planet,https://www.indiamart.com/tricycle-planet/?pos=107&kwd=baby prams&tags=CC||||8641.487|Price|product|||NA|rsf:gd-|-stype:attr=1|qr_nm:gd|res:RC3|com-cf:nl|ptrs:na|ktp:N0|mc:55655|mtp:S|qry_typ:P|lang:en|wc:2|cs:8841|v=4,False,,Jalandhar,"Tricycls Planet, New Railway Road, Near Bhagat Singh Chowk, Jalandhar - 144001, Dist.Jalandhar, Punjab",8047687269,
Baby Strollers Baby Pram Baby Buggy,https://www.indiamart.com/proddetail/baby-strollers-baby-pram-baby-buggy-24737061948.html?pos=108&kwd=baby prams&tags=CC||||8752.144|Price|product|||NA|rsf:gd-|-stype:attr=1|qr_nm:gd|res:RC3|com-cf:nl|ptrs:na|ktp:N0|mc:55655|mtp:S|qry_typ:P|lang:en|wc:2|cs:8841|v=4,Fatevalley,https://www.indiamart.com/fatevalley/?pos=108&kwd=baby prams&tags=CC||||8752.144|Price|product|||NA|rsf:gd-|-stype:attr=1|qr_nm:gd|res:RC3|com-cf:nl|ptrs:na|ktp:N0|mc:55655|mtp:S|qry_typ:P|lang:en|wc:2|cs:8841|v=4,False,Rohini,New Delhi,"A-222 RAMESH ENCLAVE STREET NO 8 DELHI North Near Rohini Sector-21, Rohini, New Delhi - 110086, Dist.Delhi, Delhi",8047690254,
"Pink Plastic Doll with pram, Age Group: 3-10 years",https://www.indiamart.com/proddetail/doll-with-pram-2853461915797.html?pos=109&kwd=baby prams&tags=CC||||8740.707|Price|product|||NA|rsf:gd-|-stype:attr=1|qr_nm:gd|res:RC3|com-cf:nl|ptrs:na|ktp:N0|mc:55655|mtp:S|qry_typ:P|lang:en|wc:2|cs:8841|v=4,Chhabra Gifts & Toys,https://www.indiamart.com/chhabra-gifts-toys/?pos=109&kwd=baby prams&tags=CC||||8740.707|Price|product|||NA|rsf:gd-|-stype:attr=1|qr_nm:gd|res:RC3|com-cf:nl|ptrs:na|ktp:N0|mc:55655|mtp:S|qry_typ:P|lang:en|wc:2|cs:8841|v=4,False,Sector 60,Mohali,"Shop No. 248, Phase 3B1, Sector 60, Mohali - 160062, Dist.Mohali, Punjab",8048372716,798
Laadla Blue Baby Pram,https://www.indiamart.com/proddetail/blue-baby-pram-20471827273.html?pos=110&kwd=baby prams&tags=CC||||8752.144|Price|product|||NA|rsf:gd-|-stype:attr=1|qr_nm:gd|res:RC3|com-cf:nl|ptrs:na|ktp:N0|mc:55655|mtp:S|qry_typ:P|lang:en|wc:2|cs:8841|v=4,Laadla Baby Products,https://www.indiamart.com/laadla-baby-products-new-delhi/?pos=110&kwd=baby prams&tags=CC||||8752.144|Price|product|||NA|rsf:gd-|-stype:attr=1|qr_nm:gd|res:RC3|com-cf:nl|ptrs:na|ktp:N0|mc:55655|mtp:S|qry_typ:P|lang:en|wc:2|cs:8841|v=4,False,Bawana,New Delhi,"Sector 2, F- 78, Bawana Industrial Area DSIIDC, Bawana, New Delhi - 110039, Dist.Delhi, Delhi",8048361374,409
Multicolor Baby Pram,https://www.indiamart.com/proddetail/baby-pram-16545370412.html?pos=111&kwd=baby prams&tags=CC||||8230.883|Price|product|||NA|rsf:gd-|-stype:attr=1|qr_nm:gd|res:RC3|com-cf:nl|ptrs:na|ktp:N0|mc:55655|mtp:S|qry_typ:P|lang:en|wc:2|cs:8841|v=4,Rangildas And Brothers,https://www.indiamart.com/rangildasandbrothers/?pos=111&kwd=baby prams&tags=CC||||8230.883|Price|product|||NA|rsf:gd-|-stype:attr=1|qr_nm:gd|res:RC3|com-cf:nl|ptrs:na|ktp:N0|mc:55655|mtp:S|qry_typ:P|lang:en|wc:2|cs:8841|v=4,False,Gopipura,Surat,",11,295 TO 299-B,OPP MRTRO SHOOES, BHAGATALAV,,BHAGATALAB, Gopipura, Surat - 395003, Dist.Surat, Gujarat",8047686540,
Baby Pram,https://www.indiamart.com/proddetail/baby-pram-16845868888.html?pos=112&kwd=baby prams&tags=CC||||8752.144|Price|product|||NA|rsf:gd-|-stype:attr=1|qr_nm:gd|res:RC3|com-cf:nl|ptrs:na|ktp:N0|mc:55655|mtp:S|qry_typ:P|lang:en|wc:2|cs:8841|v=4,GS Collection,https://www.indiamart.com/gscollection-delhi/?pos=112&kwd=baby prams&tags=CC||||8752.144|Price|product|||NA|rsf:gd-|-stype:attr=1|qr_nm:gd|res:RC3|com-cf:nl|ptrs:na|ktp:N0|mc:55655|mtp:S|qry_typ:P|lang:en|wc:2|cs:8841|v=4,False,Chattarpur,New Delhi,"431 Phase 5, Saket, Chattarpur, New Delhi - 110074, Dist.Delhi, Delhi",8047810349,
Fisher Price - Rover Stroller Cum Pram,https://www.indiamart.com/proddetail/fisher-price-rover-stroller-cum-pram-14100940833.html?pos=113&kwd=baby prams&tags=CC||||8752.144|Price|product|||NA|rsf:gd-|-stype:attr=1|qr_nm:gd|res:RC3|com-cf:nl|ptrs:na|ktp:N0|mc:55655|mtp:S|qry_typ:P|lang:en|wc:2|cs:8841|v=4,Alex Daisy,https://www.indiamart.com/alex-daisy/?pos=113&kwd=baby prams&tags=CC||||8752.144|Price|product|||NA|rsf:gd-|-stype:attr=1|qr_nm:gd|res:RC3|com-cf:nl|ptrs:na|ktp:N0|mc:55655|mtp:S|qry_typ:P|lang:en|wc:2|cs:8841|v=4,False,Kirti Nagar,New Delhi,"No. 4/1, WHS Block-2, Main Furniture Market Road, Kirti Nagar Opp. Metro Pillar No. 120, Ghitorni, MG Road, New Delhi-30, Kirti Nagar, New Delhi - 110015, Dist.Delhi, Delhi",7949369266,
Seema Enterprises Red Printed Baby Pram,https://www.indiamart.com/proddetail/printed-baby-pram-19021603955.html?pos=114&kwd=baby prams&tags=CB||||8752.144|Price|product|||NA|rsf:gd-|-stype:attr=1|qr_nm:gd|res:RC3|com-cf:nl|ptrs:na|ktp:N0|mc:55655|mtp:S|qry_typ:P|lang:en|wc:2|cs:8841|v=4,Seema Enterprises,https://www.indiamart.com/seemaenterprises-khasra/?pos=114&kwd=baby prams&tags=CB||||8752.144|Price|product|||NA|rsf:gd-|-stype:attr=1|qr_nm:gd|res:RC3|com-cf:nl|ptrs:na|ktp:N0|mc:55655|mtp:S|qry_typ:P|lang:en|wc:2|cs:8841|v=4,False,Village Mandoli,New Delhi,"B-75, Khasra No. 2/15,16 Milan Garden, Village Mandoli, New Delhi - 110093, Dist.Delhi, Delhi",7942621135,
Mee Mee Compact Folding Baby Pram,https://www.indiamart.com/proddetail/mee-mee-compact-folding-baby-pram-2853827700291.html?pos=115&kwd=baby prams&tags=CC||||8612.732|Price|product|||NA|rsf:gd-|-stype:attr=1|qr_nm:gd|res:RC3|com-cf:nl|ptrs:na|ktp:N0|mc:55655|mtp:S|qry_typ:P|lang:en|wc:2|cs:8841|v=4,Swift Healthcare & Hygiene Private Limited,https://www.indiamart.com/swift-healthcare-hygiene-private-limited-srinagar/?pos=115&kwd=baby prams&tags=CC||||8612.732|Price|product|||NA|rsf:gd-|-stype:attr=1|qr_nm:gd|res:RC3|com-cf:nl|ptrs:na|ktp:N0|mc:55655|mtp:S|qry_typ:P|lang:en|wc:2|cs:8841|v=4,False,Pampore,Srinagar,"1 1 Shiraz Road Srinagar Srinagar, Pampore, Srinagar - 190003, Dist.Srinagar, Jammu & Kashmir",,
"Baby Stroller Pram, 4",https://www.indiamart.com/proddetail/baby-stroller-pram-23540807688.html?pos=116&kwd=baby prams&tags=CC||||8562.157|Price|product|||NA|rsf:gd-|-stype:attr=1|qr_nm:gd|res:RC3|com-cf:nl|ptrs:na|ktp:N0|mc:55655|mtp:S|qry_typ:P|lang:en|wc:2|cs:8841|v=4,Jai Bala Ji Enterprises,https://www.indiamart.com/jai-bala-jienterprises/?pos=116&kwd=baby prams&tags=CC||||8562.157|Price|product|||NA|rsf:gd-|-stype:attr=1|qr_nm:gd|res:RC3|com-cf:nl|ptrs:na|ktp:N0|mc:55655|mtp:S|qry_typ:P|lang:en|wc:2|cs:8841|v=4,False,,Sirsa,"Gali DR.Mathura Dass Wali ,Rori Bazar ,Sirsa,Haryana, Sirsa - 125055, Haryana",8047763398,
Baby Pram,https://www.indiamart.com/proddetail/baby-pram-19234800162.html?pos=117&kwd=baby prams&tags=CC||||8316.457|Price|product|||NA|rsf:gd-|-stype:attr=1|qr_nm:gd|res:RC3|com-cf:nl|ptrs:na|ktp:N0|mc:55655|mtp:S|qry_typ:P|lang:en|wc:2|cs:8841|v=4,Cycle Hub Agency,https://www.indiamart.com/cyclehubagency/?pos=117&kwd=baby prams&tags=CC||||8316.457|Price|product|||NA|rsf:gd-|-stype:attr=1|qr_nm:gd|res:RC3|com-cf:nl|ptrs:na|ktp:N0|mc:55655|mtp:S|qry_typ:P|lang:en|wc:2|cs:8841|v=4,False,Panchavati,Nashik,"Shop No. 1 & 2, Seva Kunj, Infront Of Dena Bank, Nimani Bus Stand, Panchavti, Panchavati, Nashik - 422003, Dist.Nashik, Maharashtra",8047688775,
Pramukh,https://www.indiamart.com/proddetail/pramukh-6165931455.html?pos=118&kwd=baby prams&tags=CC||||8228.275||product|||NA|rsf:gd-|-stype:attr=1|qr_nm:gd|res:RC3|com-cf:nl|ptrs:na|ktp:N0|mc:55655|mtp:S|qry_typ:P|lang:en|wc:2|cs:8841|v=4,Nri Crop Science,https://www.indiamart.com/nri-crop-science/?pos=118&kwd=baby prams&tags=CC||||8228.275||product|||NA|rsf:gd-|-stype:attr=1|qr_nm:gd|res:RC3|com-cf:nl|ptrs:na|ktp:N0|mc:55655|mtp:S|qry_typ:P|lang:en|wc:2|cs:8841|v=4,False,,Ahmedabad,"501-E Shahibaug Sahjanand Complex Shahibaug S. G. Road, Ahmedabad - 380004, Dist.Ahmedabad, Gujarat",8043833976,
"Rattan Cane Baby Parm, With Armrest",https://www.indiamart.com/proddetail/rattan-cane-baby-parm-2850539319733.html?pos=119&kwd=baby prams&tags=CC||||8752.144|Price|product|||NA|rsf:gd-|-stype:attr=1|qr_nm:gd|res:RC3|com-cf:nl|ptrs:na|ktp:N0|mc:55655|mtp:S|qry_typ:P|lang:en|wc:2|cs:8841|v=4,Kamdhenu Cane & Bamboo Furniture Arts,https://www.indiamart.com/kamdhenu-cane-bamboo-furnitures-arts/?pos=119&kwd=baby prams&tags=CC||||8752.144|Price|product|||NA|rsf:gd-|-stype:attr=1|qr_nm:gd|res:RC3|com-cf:nl|ptrs:na|ktp:N0|mc:55655|mtp:S|qry_typ:P|lang:en|wc:2|cs:8841|v=4,False,Opposite Side Jind Gohan,New Delhi,"10326, Tokri Walan Azad Market, Opposite Side Jind Gohan, New Delhi - 110006, Dist.Delhi, Delhi",8047841729,
1st Step Caramel Baby Pram Cum Stroller with 5 Point Safety Harness,https://www.indiamart.com/proddetail/1st-step-caramel-baby-pram-cum-stroller-with-5-point-safety-harness-2853451996530.html?pos=120&kwd=baby prams&tags=CC||||8786.56|Price|product|||NA|rsf:gd-|-stype:attr=1|qr_nm:gd|res:RC3|com-cf:nl|ptrs:na|ktp:N0|mc:55655|mtp:S|qry_typ:P|lang:en|wc:2|cs:8841|v=4,Springkart,https://www.indiamart.com/springkart/?pos=120&kwd=baby prams&tags=CC||||8786.56|Price|product|||NA|rsf:gd-|-stype:attr=1|qr_nm:gd|res:RC3|com-cf:nl|ptrs:na|ktp:N0|mc:55655|mtp:S|qry_typ:P|lang:en|wc:2|cs:8841|v=4,False,Moula Ali,Hyderabad,"Flat No. 103, Saipriya Residency, M. J. Colony, Moula Ali, Hyderabad - 500080, Dist.Hyderabad, Telangana",,
Baby Pushchair Pram Stroller,https://www.indiamart.com/proddetail/baby-pushchair-pram-stroller-16866332112.html?pos=121&kwd=baby prams&tags=CC||||8230.883|Price|product|||NA|rsf:gd-|-stype:attr=1|qr_nm:gd|res:RC3|com-cf:nl|ptrs:na|ktp:N0|mc:55655|mtp:S|qry_typ:P|lang:en|wc:2|cs:8841|v=4,National Traders,https://www.indiamart.com/national-traders-surat/?pos=121&kwd=baby prams&tags=CC||||8230.883|Price|product|||NA|rsf:gd-|-stype:attr=1|qr_nm:gd|res:RC3|com-cf:nl|ptrs:na|ktp:N0|mc:55655|mtp:S|qry_typ:P|lang:en|wc:2|cs:8841|v=4,False,Gopipura,Surat,"12/1339, Mughal Mahal Basement , Behind SMC, Turkiwad Turkiwad, Gopipura, Surat - 395003, Dist.Surat, Gujarat",8047668591,
"50 Cm Mild Steel Baby Pram, Age Group: Newly Born, 4",https://www.indiamart.com/proddetail/baby-pram-22128524762.html?pos=122&kwd=baby prams&tags=CC||||8752.144|Price|product|||NA|rsf:gd-|-stype:attr=1|qr_nm:gd|res:RC3|com-cf:nl|ptrs:na|ktp:N0|mc:55655|mtp:S|qry_typ:P|lang:en|wc:2|cs:8841|v=4,Games And Toys India,https://www.indiamart.com/gamesandtoysdelhi/?pos=122&kwd=baby prams&tags=CC||||8752.144|Price|product|||NA|rsf:gd-|-stype:attr=1|qr_nm:gd|res:RC3|com-cf:nl|ptrs:na|ktp:N0|mc:55655|mtp:S|qry_typ:P|lang:en|wc:2|cs:8841|v=4,False,Sadar Bazar,New Delhi,"Shop No.-14/15 First Floor Amrit Market, Qutab Road, Sadar Bazar, New Delhi - 110006, Dist.Delhi, Delhi",8048606347,
Prem Ratna Pram Cum Stroller Triangle Print - Blue,,Bonzo Kids Apparel Private Limited,https://www.indiamart.com/bonzo-kids-apparels-private-limited/?pos=123&kwd=baby prams&tags=CC||||8752.144||product|||NA|rsf:gd-|-stype:attr=1|qr_nm:gd|res:RC3|com-cf:nl|ptrs:na|ktp:N0|mc:55655|mtp:S|qry_typ:P|lang:en|wc:2|cs:8841|v=4,False,,New Delhi,"S67 Okhla Phase II, New Delhi - 110020, Dist.Delhi, Delhi",8048372815,342
"Polyester,Metal Baby Stroller Pram Blue",https://www.indiamart.com/proddetail/baby-stroller-pram-blue-2852151144473.html?pos=124&kwd=baby prams&tags=CC||||8316.457|Price|product|||NA|rsf:gd-|-stype:attr=1|qr_nm:gd|res:RC3|com-cf:nl|ptrs:na|ktp:N0|mc:55655|mtp:S|qry_typ:P|lang:en|wc:2|cs:8841|v=4,Kihama Toys LLP,https://www.indiamart.com/kihamatoys/?pos=124&kwd=baby prams&tags=CC||||8316.457|Price|product|||NA|rsf:gd-|-stype:attr=1|qr_nm:gd|res:RC3|com-cf:nl|ptrs:na|ktp:N0|mc:55655|mtp:S|qry_typ:P|lang:en|wc:2|cs:8841|v=4,False,Gangapur Road,Nashik,"A Wing, Office No 1A, Rushiraj Riviers, Gangapur Road, Near Bhonsla Military School, Gangapur Road, Nashik - 422013, Dist.Nashik, Maharashtra",7942837923,
"Baby Stroller Travel System, Age Group: Newly Born",,New Payal Gift House,https://www.indiamart.com/new-payal-gift-house/?pos=125&kwd=baby prams&tags=CC||||8661.854|Price|product|||NA|rsf:gd-|-stype:attr=1|qr_nm:gd|res:RC3|com-cf:nl|ptrs:na|ktp:N0|mc:55655|mtp:S|qry_typ:P|lang:en|wc:2|cs:8841|v=4,False,,Ludhiana,"KHALSA NATIONAL SCHOOL MKT,,,SHAHPUR ROAD,LUDHIAN 132-AB, Shahpur Road,141008,Ludhiana, Ludhiana - 141005, Dist.Ludhiana, Punjab",8048264926,
"Plastic Black Printed Designer Baby Pram, 4, 909",https://www.indiamart.com/proddetail/black-printed-designer-baby-pram-22949633955.html?pos=126&kwd=baby prams&tags=CC||||8740.707|Price|product|||NA|rsf:gd-|-stype:attr=1|qr_nm:gd|res:RC3|com-cf:nl|ptrs:na|ktp:N0|mc:55655|mtp:S|qry_typ:P|lang:en|wc:2|cs:8841|v=4,Sai Enterprises,https://www.indiamart.com/sai-enterprises-zirakpur/?pos=126&kwd=baby prams&tags=CC||||8740.707|Price|product|||NA|rsf:gd-|-stype:attr=1|qr_nm:gd|res:RC3|com-cf:nl|ptrs:na|ktp:N0|mc:55655|mtp:S|qry_typ:P|lang:en|wc:2|cs:8841|v=4,False,,Sas Nagar,"Plot No. 71, Godown Area, Bhabat Road, Sas Nagar - 140603, Dist.Mohali, Punjab",8043823310,
"Baby Stroller Pram, Luvlap",https://www.indiamart.com/proddetail/baby-stroller-pram-22596357412.html?pos=127&kwd=baby prams&tags=CC||||8500.97|Price|product|||NA|rsf:gd-|-stype:attr=1|qr_nm:gd|res:RC3|com-cf:nl|ptrs:na|ktp:N0|mc:55655|mtp:S|qry_typ:P|lang:en|wc:2|cs:8841|v=4,G.K. Tradings,https://www.indiamart.com/g-k-tradings/?pos=127&kwd=baby prams&tags=CC||||8500.97|Price|product|||NA|rsf:gd-|-stype:attr=1|qr_nm:gd|res:RC3|com-cf:nl|ptrs:na|ktp:N0|mc:55655|mtp:S|qry_typ:P|lang:en|wc:2|cs:8841|v=4,False,Thriprayar,Thrissur,"Ix/626,627, 628 Triprayar Nattika, Thriprayar, Thrissur - 680566, Dist.Thrissur, Kerala",7942560526,
7,https://www.indiamart.com/proddetail/cliptokart-cum-pram-25220356273.html?pos=128&kwd=baby prams&tags=CC||||8915.672||product|||NA|rsf:gd-|-stype:attr=1|qr_nm:gd|res:RC3|com-cf:nl|ptrs:na|ktp:N0|mc:55655|mtp:S|qry_typ:P|lang:en|wc:2|cs:8841|v=4,Indian Home Decors,https://www.indiamart.com/indian-home-decors/?pos=128&kwd=baby prams&tags=CC||||8915.672||product|||NA|rsf:gd-|-stype:attr=1|qr_nm:gd|res:RC3|com-cf:nl|ptrs:na|ktp:N0|mc:55655|mtp:S|qry_typ:P|lang:en|wc:2|cs:8841|v=4,False,Prince Road,Moradabad,"Galshaheed, Prince Road, Moradabad - 244001, Dist.Moradabad, Uttar Pradesh",7942633461,
"Baby Strollers Baby Pram Baby Buggy, Age Group: Newly Born, Packaging Type: Single Box Packing",https://www.indiamart.com/proddetail/baby-strollers-baby-pram-baby-buggy-2854437454633.html?pos=129&kwd=baby prams&tags=CC||||8601.347||product|||NA|rsf:gd-|-stype:attr=1|qr_nm:gd|res:RC3|com-cf:nl|ptrs:na|ktp:N0|mc:55655|mtp:S|qry_typ:P|lang:en|wc:2|cs:8841|v=4,Krishna Riders,https://www.indiamart.com/krishna-riders/?pos=129&kwd=baby prams&tags=CC||||8601.347||product|||NA|rsf:gd-|-stype:attr=1|qr_nm:gd|res:RC3|com-cf:nl|ptrs:na|ktp:N0|mc:55655|mtp:S|qry_typ:P|lang:en|wc:2|cs:8841|v=4,False,Gopalpura,Jaipur,"60 A Mangal vihar gopal pura Bypass, Gopalpura, Jaipur - 302018, Dist.Jaipur, Rajasthan",7949374314,
Wooden Baby Pram,https://www.indiamart.com/proddetail/wooden-baby-pram-6881749055.html?pos=130&kwd=baby prams&tags=CB||||8211.142||product|||NA|rsf:gd-|-stype:attr=1|qr_nm:gd|res:RC3|com-cf:nl|ptrs:na|ktp:N0|mc:55655|mtp:S|qry_typ:P|lang:en|wc:2|cs:8841|v=4,Gaurav Traders,https://www.indiamart.com/gaurav-traders-mumbai/?pos=130&kwd=baby prams&tags=CB||||8211.142||product|||NA|rsf:gd-|-stype:attr=1|qr_nm:gd|res:RC3|com-cf:nl|ptrs:na|ktp:N0|mc:55655|mtp:S|qry_typ:P|lang:en|wc:2|cs:8841|v=4,False,Zaveri Bazzar,Mumbai,"SHOP NO.14/10-14 CIPPY CHAWL,SHETH JETHALAL BHUVAN,GR FLR,, Zaveri Bazzar, Mumbai - 400002, Dist.Mumbai, Maharashtra",8047684186,
1St Step Maroon pram with rocker st-4202,https://www.indiamart.com/proddetail/1st-step-pram-with-rocker-st-4202-19226128688.html?pos=131&kwd=baby prams&tags=CC||||8954.051|Price|product|||NA|rsf:gd-|-stype:attr=1|qr_nm:gd|res:RC3|com-cf:nl|ptrs:na|ktp:N0|mc:55655|mtp:S|qry_typ:P|lang:en|wc:2|cs:8841|v=4,Mandot Impex,https://www.indiamart.com/mandotimpexchennai/?pos=131&kwd=baby prams&tags=CC||||8954.051|Price|product|||NA|rsf:gd-|-stype:attr=1|qr_nm:gd|res:RC3|com-cf:nl|ptrs:na|ktp:N0|mc:55655|mtp:S|qry_typ:P|lang:en|wc:2|cs:8841|v=4,False,Choolai,Chennai,"109, Sydenhams Road, 1st Floor, Choolai, Chennai - 600003, Dist.Chennai, Tamil Nadu",8043809214,
"3feet Heavy Material Pram for baby .., 4 Wheels",https://www.indiamart.com/proddetail/pram-for-baby-25558082033.html?pos=132&kwd=baby prams&tags=CC||||8595.936||product|||NA|rsf:gd-|-stype:attr=1|qr_nm:gd|res:RC3|com-cf:nl|ptrs:na|ktp:N0|mc:55655|mtp:S|qry_typ:P|lang:en|wc:2|cs:8841|v=4,Child World,https://www.indiamart.com/ms-child-world/?pos=132&kwd=baby prams&tags=CC||||8595.936||product|||NA|rsf:gd-|-stype:attr=1|qr_nm:gd|res:RC3|com-cf:nl|ptrs:na|ktp:N0|mc:55655|mtp:S|qry_typ:P|lang:en|wc:2|cs:8841|v=4,False,,Jammu,"Sundar Singh Road, Raghunath Bazar, Jammu, J&K, Jammu - 180001, Dist.Jammu, Jammu & Kashmir",8047806501,
Baby Pram,,Shakti Steels,https://www.indiamart.com/shaktisteels-tinsukia/?pos=133&kwd=baby prams&tags=CC||||10534.79|Price|product|||NA|rsf:gd-|-stype:attr=1|qr_nm:gd|res:RC3|com-cf:nl|ptrs:na|ktp:N0|mc:55655|mtp:S|qry_typ:P|lang:en|wc:2|cs:8841|v=4,False,Tinsukia,Tinsukia,"Gaurishankar Building, G. N. B. Road Ttoys, Tinsukia, Tinsukia - 786125, Dist.Tinsukia, Assam",8048201248,
Baby Pram C12,https://www.indiamart.com/proddetail/baby-pram-c12-8952241091.html?pos=134&kwd=baby prams&tags=CC||||8211.142||product|||NA|rsf:gd-|-stype:attr=1|qr_nm:gd|res:RC3|com-cf:nl|ptrs:na|ktp:N0|mc:55655|mtp:S|qry_typ:P|lang:en|wc:2|cs:8841|v=4,Mahesh & Sons HUF,https://www.indiamart.com/mahesh-and-sons-huf/?pos=134&kwd=baby prams&tags=CC||||8211.142||product|||NA|rsf:gd-|-stype:attr=1|qr_nm:gd|res:RC3|com-cf:nl|ptrs:na|ktp:N0|mc:55655|mtp:S|qry_typ:P|lang:en|wc:2|cs:8841|v=4,False,Santacruz East,Mumbai,"B 3/2, BK Chhabra Estate, Santacruz East, Mumbai - 400055, Dist.Mumbai, Maharashtra",8047668053,
Baby Stroller Pram,,Narang Tradex,https://www.indiamart.com/narang-tradex/?pos=135&kwd=baby prams&tags=CC||||8752.144|Price|product|||NA|rsf:gd-|-stype:attr=1|qr_nm:gd|res:RC3|com-cf:nl|ptrs:na|ktp:N0|mc:55655|mtp:S|qry_typ:P|lang:en|wc:2|cs:8841|v=4,False,New Delhi,New Delhi,"For B47 Bda Market Jahangirpuri, New Delhi, New Delhi - 110033, Dist.Delhi, Delhi",8048247129,2854
"107 CM Eva Foam LuvLap Galaxy Stroller Pram Black For babies upto 25 kg, 4",https://www.indiamart.com/proddetail/luvlap-galaxy-stroller-pram-black-for-babies-upto-25-kg-24301529473.html?pos=136&kwd=baby prams&tags=CC||||8752.144|Price|product|||NA|rsf:gd-|-stype:attr=1|qr_nm:gd|res:RC3|com-cf:nl|ptrs:na|ktp:N0|mc:55655|mtp:S|qry_typ:P|lang:en|wc:2|cs:8841|v=4,DRR Tele Services,https://www.indiamart.com/drr-tele-services/?pos=136&kwd=baby prams&tags=CC||||8752.144|Price|product|||NA|rsf:gd-|-stype:attr=1|qr_nm:gd|res:RC3|com-cf:nl|ptrs:na|ktp:N0|mc:55655|mtp:S|qry_typ:P|lang:en|wc:2|cs:8841|v=4,False,,New Delhi,"House No. G1/54B, Kunwar Singh Nagar, Nangloi, West Delhi, New Delhi - 110041, Dist.Delhi, Delhi",8048247131,5649
Baby Parm Stroller,,Maheshwari Traders,https://www.indiamart.com/universal-storenew-delhi/?pos=137&kwd=baby prams&tags=CC||||8752.144||product|||NA|rsf:gd-|-stype:attr=1|qr_nm:gd|res:RC3|com-cf:nl|ptrs:na|ktp:N0|mc:55655|mtp:S|qry_typ:P|lang:en|wc:2|cs:8841|v=4,False,SAGARPUR,New Delhi,"HOUSE NO - WZ 10,,VILLAGE - ASALATPUR,JANAKPURI RZ F115A VEER NAGAR GALI NO 3 WEST SAGARPUR,110046,New Delhi, SAGARPUR, New Delhi - 110058, Dist.Delhi, Delhi",8043805038,
Walkers,,Omkar Toys,https://www.indiamart.com/omkar-toys-hyderabad/?pos=138&kwd=baby prams&tags=CC||||8786.56|Price|product|||NA|rsf:gd-|-stype:attr=1|qr_nm:gd|res:RC3|com-cf:nl|ptrs:na|ktp:N0|mc:55655|mtp:S|qry_typ:P|lang:en|wc:2|cs:8841|v=4,False,,Hyderabad,"12-1-733 Asif Nagar, Hyderabad - 500028, Dist.Hyderabad, Telangana",8048371744,609
Baby Car Seat,https://www.indiamart.com/proddetail/baby-car-seat-13727181262.html?pos=139&kwd=baby prams&tags=CC||||8476.868|Price|product|||NA|rsf:gd-|-stype:attr=1|qr_nm:gd|res:RC3|com-cf:nl|ptrs:na|ktp:N0|mc:55655|mtp:S|qry_typ:P|lang:en|wc:2|cs:8841|v=4,J L Morison India Limited,https://www.indiamart.com/sydler-remedies/?pos=139&kwd=baby prams&tags=CC||||8476.868|Price|product|||NA|rsf:gd-|-stype:attr=1|qr_nm:gd|res:RC3|com-cf:nl|ptrs:na|ktp:N0|mc:55655|mtp:S|qry_typ:P|lang:en|wc:2|cs:8841|v=4,False,MIDC,Aurangabad,"E-95/1, M. I. D. C, Waluj, MIDC, Aurangabad - 431136, Maharashtra",7942612193,
"Wiggle Lightweight Easy Fold Baby Stroller for Travel, Large Storage Basket (Grey)",https://www.indiamart.com/proddetail/wiggle-lightweight-easy-fold-baby-stroller-for-travel-large-storage-basket-grey-2852549652012.html?pos=140&kwd=baby prams&tags=CC||||8211.142|Price|product|||NA|rsf:gd-|-stype:attr=1|qr_nm:gd|res:RC3|com-cf:nl|ptrs:na|ktp:N0|mc:55655|mtp:S|qry_typ:P|lang:en|wc:2|cs:8841|v=4,Istuff365,https://www.indiamart.com/istuff/?pos=140&kwd=baby prams&tags=CC||||8211.142|Price|product|||NA|rsf:gd-|-stype:attr=1|qr_nm:gd|res:RC3|com-cf:nl|ptrs:na|ktp:N0|mc:55655|mtp:S|qry_typ:P|lang:en|wc:2|cs:8841|v=4,False,Charni Road East,Mumbai,"Office No. 2B, First Floor, Unity House Near Royal Opera House, Charni Road East, Mumbai - 400004, Dist.Mumbai, Maharashtra",7942711049,
Brown Wooden Taxzet Baby Cot,https://www.indiamart.com/proddetail/taxzet-baby-cot-2849455960230.html?pos=141&kwd=baby prams&tags=CC||||8786.56|Price|product|||NA|rsf:gd-|-stype:attr=1|qr_nm:gd|res:RC3|com-cf:nl|ptrs:na|ktp:N0|mc:55655|mtp:S|qry_typ:P|lang:en|wc:2|cs:8841|v=4,Rehman'S Furniture,https://www.indiamart.com/rehmans-furniture-hyderabad/?pos=141&kwd=baby prams&tags=CC||||8786.56|Price|product|||NA|rsf:gd-|-stype:attr=1|qr_nm:gd|res:RC3|com-cf:nl|ptrs:na|ktp:N0|mc:55655|mtp:S|qry_typ:P|lang:en|wc:2|cs:8841|v=4,False,,Hyderabad,"Plot No.254/A, Quba Colony, Shaheen Nagar,Saroornagar, Rangareddy,, Hyderabad - 500005, Dist.Hyderabad, Telangana",8043864280,
Baby Stroller,https://www.indiamart.com/proddetail/baby-stroller-20702453812.html?pos=142&kwd=baby prams&tags=CC||||8752.144|Price|product|||NA|rsf:gd-|-stype:attr=1|qr_nm:gd|res:RC3|com-cf:nl|ptrs:na|ktp:N0|mc:55655|mtp:S|qry_typ:P|lang:en|wc:2|cs:8841|v=4,Magadi Metallon Trading Corporation,https://www.indiamart.com/magadimetallontradingcorporation/?pos=142&kwd=baby prams&tags=CC||||8752.144|Price|product|||NA|rsf:gd-|-stype:attr=1|qr_nm:gd|res:RC3|com-cf:nl|ptrs:na|ktp:N0|mc:55655|mtp:S|qry_typ:P|lang:en|wc:2|cs:8841|v=4,False,New Friends Colony,New Delhi,"B10, SF, Maharani Bagh, New Friends Colony, New Delhi - 110065, Dist.Delhi, Delhi",8048372067,297
Baby Car Seat,,Cmie store,https://www.indiamart.com/pakka-rent/?pos=143&kwd=baby prams&tags=CC||||8741.812||product|||NA|rsf:gd-|-stype:attr=1|qr_nm:gd|res:RC3|com-cf:nl|ptrs:na|ktp:N0|mc:55655|mtp:S|qry_typ:P|lang:en|wc:2|cs:8841|v=4,False,,Gurugram,"1st floor, Pearl Tower, Plot No. 51, Sector 32, Gurugram, Haryan, Gurugram - 122001, Dist.Gurgaon, Haryana",8047665903,
Baby Pram,,Individual,https://www.indiamart.com/individual-141964100/?pos=144&kwd=baby prams&tags=||||8663.873||product|||NA|rsf:gd-|-stype:attr=1|qr_nm:gd|res:RC3|com-cf:nl|ptrs:na|ktp:N0|mc:55655|mtp:S|qry_typ:P|lang:en|wc:2|cs:8841|v=4,False,,Bengaluru,"#12, 1st floor, 9th Main, 4th Cross, BTM 1st stage, Near Nimhans wellbeing center,, Bengaluru - 560029, Dist.Bengaluru, Karnataka",8045849554,575
"2Feet SS And Polyester Baby Pram Stroller, 8",https://www.indiamart.com/proddetail/baby-pram-stroller-2851077727555.html?pos=145&kwd=baby prams&tags=||||9140.514|Price|product|||NA|rsf:gd-|-stype:attr=1|qr_nm:gd|res:RC3|com-cf:nl|ptrs:na|ktp:N0|mc:55655|mtp:S|qry_typ:P|lang:en|wc:2|cs:8841|v=4,M S Traders,https://www.indiamart.com/mstraders-raipur/?pos=145&kwd=baby prams&tags=||||9140.514|Price|product|||NA|rsf:gd-|-stype:attr=1|qr_nm:gd|res:RC3|com-cf:nl|ptrs:na|ktp:N0|mc:55655|mtp:S|qry_typ:P|lang:en|wc:2|cs:8841|v=4,False,,Raipur,"Parwani Building, Jairam Complex M G Road, Sharda Chowk, Raipur - 492001, Chhattisgarh",7942834181,
"20 Inch Powder Coating Baby Strollers Baby Pram Baby Buggy, 4 To 6",https://www.indiamart.com/proddetail/baby-strollers-baby-pram-baby-buggy-3459399855.html?pos=146&kwd=baby prams&tags=||||8239.3955|Price|product|||NA|rsf:gd-|-stype:attr=1|qr_nm:gd|res:RC3|com-cf:nl|ptrs:na|ktp:N0|mc:55655|mtp:S|qry_typ:P|lang:en|wc:2|cs:8841|v=4,Tiny Toes,https://www.indiamart.com/tiny-toes/?pos=146&kwd=baby prams&tags=||||8239.3955|Price|product|||NA|rsf:gd-|-stype:attr=1|qr_nm:gd|res:RC3|com-cf:nl|ptrs:na|ktp:N0|mc:55655|mtp:S|qry_typ:P|lang:en|wc:2|cs:8841|v=4,False,,Kalyan,"Shop No 4, Jai Sonali Building Dr. Ambedkar road, Kalyan - 421301, Dist.Thane, Maharashtra",8047699360,
"Cp And Roto 3in1 Baby Walker, W-F32",https://www.indiamart.com/proddetail/3in1-baby-walker-20189362962.html?pos=147&kwd=baby prams&tags=||||8752.144|Price|proxy|||TS|rsf:gd-|-stype:attr=1|qr_nm:gd|res:RC3|com-cf:nl|ptrs:na|ktp:N0|mc:55655|mtp:S|qry_typ:P|lang:en|wc:2|cs:8841|v=4,Swing 'N' Fly (A Brand of Zen Marketing),https://www.indiamart.com/zenmarketing-sahibabad/?pos=147&kwd=baby prams&tags=||||8752.144|Price|proxy|||TS|rsf:gd-|-stype:attr=1|qr_nm:gd|res:RC3|com-cf:nl|ptrs:na|ktp:N0|mc:55655|mtp:S|qry_typ:P|lang:en|wc:2|cs:8841|v=4,False,Alipur,New Delhi,"Ground Floor, Kh No 55/17/2, Pawan Triveni Colony, Village Bakhtawarpur triveni colony, Alipur, New Delhi - 110036, Dist.Delhi, Delhi",7942559295,
ZIPPIE Xpress- Early Intervention Stroller,https://www.indiamart.com/proddetail/zippie-xpress-early-intervention-stroller-22242761048.html?pos=148&kwd=baby prams&tags=||||8663.873||proxy|||TS|rsf:gd-|-stype:attr=1|qr_nm:gd|res:RC3|com-cf:nl|ptrs:na|ktp:N0|mc:55655|mtp:S|qry_typ:P|lang:en|wc:2|cs:8841|v=4,KTWO Healthcare Private Limited,https://www.theprosthesis.com/?pos=148&kwd=baby prams&tags=||||8663.873||proxy|||TS|rsf:gd-|-stype:attr=1|qr_nm:gd|res:RC3|com-cf:nl|ptrs:na|ktp:N0|mc:55655|mtp:S|qry_typ:P|lang:en|wc:2|cs:8841|v=4,False,Bilekahalli,Bengaluru,"No. 93, 2nd floor, 6th Cross, 2nd Stage, BTM Layout, Bilekahalli, Bengaluru - 560076, Dist.Bengaluru, Karnataka",8048989676,
Plastic Green Musical Baby Walker,https://www.indiamart.com/proddetail/green-musical-baby-walker-2854071652991.html?pos=149&kwd=baby prams&tags=||||8785.791|Price|proxy|||MDC|rsf:gd-|-stype:attr=1|qr_nm:gd|res:RC3|com-cf:nl|ptrs:na|ktp:N0|mc:55655|mtp:S|qry_typ:P|lang:en|wc:2|cs:8841|v=4,Laxmi Enterprises,https://www.indiamart.com/laxmi-enterprisesindia/?pos=149&kwd=baby prams&tags=||||8785.791|Price|proxy|||MDC|rsf:gd-|-stype:attr=1|qr_nm:gd|res:RC3|com-cf:nl|ptrs:na|ktp:N0|mc:55655|mtp:S|qry_typ:P|lang:en|wc:2|cs:8841|v=4,False,Behta Hajipur,Ghaziabad,"Kh No.-1985, GALI NO.07, RYI Properties, Krishna Vihar II, LONI, Behta Hajipur, Behta Hajipur, Ghaziabad - 201102, Dist.Ghaziabad, Uttar Pradesh",8044563149,
Manufacturer Of Baby Walker Bagi Jhoola Fancy Jhoola Table Chair Set Study Desk Prams,https://www.indiamart.com/proddetail/manufacturer-of-baby-walker-bagi-jhoola-fancy-jhoola-table-chair-set-study-desk-prams-2850140155297.html?pos=150&kwd=baby prams&tags=||||8661.854|Price|product|||NA|rsf:gd-|-stype:attr=1|qr_nm:gd|res:RC3|com-cf:nl|ptrs:na|ktp:N0|mc:55655|mtp:S|qry_typ:P|lang:en|wc:2|cs:8841|v=4,Satnam Products,https://www.indiamart.com/satnamproducts/?pos=150&kwd=baby prams&tags=||||8661.854|Price|product|||NA|rsf:gd-|-stype:attr=1|qr_nm:gd|res:RC3|com-cf:nl|ptrs:na|ktp:N0|mc:55655|mtp:S|qry_typ:P|lang:en|wc:2|cs:8841|v=4,False,Dhandari Kalan,Ludhiana,"Plot No 536/35D/8A Guru Gobind Singh Colony,Dhandari Kalan - Satnam Products, Dhandari Kalan, Ludhiana - 141014, Dist.Ludhiana, Punjab",7942803490,
Mothercare Orb Pram and Pushchair,https://www.indiamart.com/proddetail/mothercare-orb-pram-and-pushchair-13962589830.html?pos=151&kwd=baby prams&tags=||||8954.051||product|||NA|rsf:gd-|-stype:attr=1|qr_nm:gd|res:RC3|com-cf:nl|ptrs:na|ktp:N0|mc:55655|mtp:S|qry_typ:P|lang:en|wc:2|cs:8841|v=4,Mothercare,https://www.indiamart.com/mothercare-chennai/?pos=151&kwd=baby prams&tags=||||8954.051||product|||NA|rsf:gd-|-stype:attr=1|qr_nm:gd|res:RC3|com-cf:nl|ptrs:na|ktp:N0|mc:55655|mtp:S|qry_typ:P|lang:en|wc:2|cs:8841|v=4,False,Royapettah,Chennai,"Shop No. 252 2nd Floor, Express Avenue Mall, Royapettah, Chennai - 600014, Dist.Chennai, Tamil Nadu",8048371639,665
Pram,,Baby Steps,https://www.indiamart.com/baby-steps/?pos=152&kwd=baby prams&tags=||||8228.275||product|||NA|rsf:gd-|-stype:attr=1|qr_nm:gd|res:RC3|com-cf:nl|ptrs:na|ktp:N0|mc:55655|mtp:S|qry_typ:P|lang:en|wc:2|cs:8841|v=4,False,Anand Nagar Road,Ahmedabad,"Akshar Dhara 2, Anand Nagar Road, Prahlad Nagar Opposite To Sachin Tower, Anand Nagar Road, Ahmedabad - 380015, Dist.Ahmedabad, Gujarat",8048371681,261
Pram,,Ajanta Cycle Store,https://www.indiamart.com/ajanta-cycle-store-cuttack/?pos=153&kwd=baby prams&tags=||||9578.697||product|||NA|rsf:gd-|-stype:attr=1|qr_nm:gd|res:RC3|com-cf:nl|ptrs:na|ktp:N0|mc:55655|mtp:S|qry_typ:P|lang:en|wc:2|cs:8841|v=4,False,Ranihat,Cuttack,"Ajanta Cycle Store, Ranihat Colony Ranihat Colony, Ranihat, Cuttack - 753001, Dist.Cuttack, Odisha",8048371961,518
Pram Cleaning Services,https://www.indiamart.com/proddetail/pram-cleaning-services-1990683348.html?pos=154&kwd=baby prams&tags=||||8752.144||product|||NA|rsf:gd-|-stype:attr=1|qr_nm:gd|res:RC3|com-cf:nl|ptrs:na|ktp:N0|mc:55655|mtp:S|qry_typ:P|lang:en|wc:2|cs:8841|v=4,Wonder Koncept Dry Clearners,https://www.indiamart.com/wonderkoncept/?pos=154&kwd=baby prams&tags=||||8752.144||product|||NA|rsf:gd-|-stype:attr=1|qr_nm:gd|res:RC3|com-cf:nl|ptrs:na|ktp:N0|mc:55655|mtp:S|qry_typ:P|lang:en|wc:2|cs:8841|v=4,False,Rajaurili Garden,New Delhi,"J-12/22 Shop No.1, Rajaurili Garden, New Delhi - 110027, Dist.Delhi, Delhi",8043814880,
Baby Prams,,Shivani Gift Centre,https://www.indiamart.com/shivani-gift-centre/?pos=155&kwd=baby prams&tags=||||8661.854|Price|product|||NA|rsf:gd-|-stype:attr=1|qr_nm:gd|res:RC3|com-cf:nl|ptrs:na|ktp:N0|mc:55655|mtp:S|qry_typ:P|lang:en|wc:2|cs:8841|v=4,False,Ganj Road,Ludhiana,"Field Ganj Road, Ganj Road, Ludhiana - 141008, Dist.Ludhiana, Punjab",7949374546,
Gelexy pram,,Santosh Toys,https://www.indiamart.com/santosh-toys-ahmedabad/?pos=156&kwd=baby prams&tags=||||8228.275||product|||NA|rsf:gd-|-stype:attr=1|qr_nm:gd|res:RC3|com-cf:nl|ptrs:na|ktp:N0|mc:55655|mtp:S|qry_typ:P|lang:en|wc:2|cs:8841|v=4,False,Khodia,Ahmedabad,"Inside Panchkuva Gate, Nr. Hotel Turab Innn, Khodia, Khodia, Ahmedabad - 380001, Dist.Ahmedabad, Gujarat",8048361332,945
"Plastic And Steel Red Printed Baby Walker, Size/Dimension: 38.2 X 48.3 X 38.2 cm, 6 Wheels",https://www.indiamart.com/proddetail/red-printed-baby-walker-2851600936833.html?pos=157&kwd=baby prams&tags=||||8752.144|Price|proxy|||NA|rsf:gd-|-stype:attr=1|qr_nm:gd|res:RC3|com-cf:nl|ptrs:na|ktp:N0|mc:55655|mtp:S|qry_typ:P|lang:en|wc:2|cs:8841|v=4,K.L.Baby Products,https://www.indiamart.com/kl-babyproducts/?pos=157&kwd=baby prams&tags=||||8752.144|Price|proxy|||NA|rsf:gd-|-stype:attr=1|qr_nm:gd|res:RC3|com-cf:nl|ptrs:na|ktp:N0|mc:55655|mtp:S|qry_typ:P|lang:en|wc:2|cs:8841|v=4,False,New Mustafabad,New Delhi,"B-57, Gali No. 2, Village Sadat Pur, New Mustafabad, New Delhi - 110094, Dist.Delhi, Delhi",7942836421,
Baby Prams,,New Singh Agencies,https://www.indiamart.com/new-singh-agencies/?pos=158&kwd=baby prams&tags=CA||||8316.457||product|||NA|rsf:gd-|-stype:attr=1|qr_nm:gd|res:RC3|com-cf:nl|ptrs:na|ktp:N0|mc:55655|mtp:S|qry_typ:P|lang:en|wc:2|cs:8841|v=4,False,Deolali Gaon,Nashik,"Shop No. 1 To 7, A Wing, Hari Aangan Group Housing Project Swami Vivekanand Colony, Jai Bhawani Road, Deolali Gaon, Nashik - 422001, Dist.Nashik, Maharashtra",8048372240,131
Mee Mee Pram,,Maruti Craft,https://www.indiamart.com/maruti-craft/?pos=159&kwd=baby prams&tags=CA||||10180.86||product|||NA|rsf:gd-|-stype:attr=1|qr_nm:gd|res:RC3|com-cf:nl|ptrs:na|ktp:N0|mc:55655|mtp:S|qry_typ:P|lang:en|wc:2|cs:8841|v=4,False,Santipur,Guwahati,"KRC ROAD,,KUMARPARA,GUWAHATI Mauja Silasundri Ghopa, Hajo Road Amingaon, North 3,781031,Guwahati, Santipur, Guwahati - 781009, Dist.Kamrup, Assam",8048371585,818
Baby Pram,,Panda Baby Product,https://www.indiamart.com/panda-baby-products/?pos=160&kwd=baby prams&tags=CA||||8752.144||product|||NA|rsf:gd-|-stype:attr=1|qr_nm:gd|res:RC3|com-cf:nl|ptrs:na|ktp:N0|mc:55655|mtp:S|qry_typ:P|lang:en|wc:2|cs:8841|v=4,False,A47 Jhilmil Industrial Area,New Delhi,"A47 Jhilmil Industrial Area, A47 Jhilmil Industrial Area, New Delhi - 110095, Dist.Delhi, Delhi",8048205816,
Baby Prams,,Krafts N Krayons,https://www.indiamart.com/krafts-krayons/?pos=161&kwd=baby prams&tags=CC||||8307.81||product|||NA|rsf:gd-|-stype:attr=1|qr_nm:gd|res:RC3|com-cf:nl|ptrs:na|ktp:N0|mc:55655|mtp:S|qry_typ:P|lang:en|wc:2|cs:8841|v=4,False,Gultekdi,Pune,"Shop No. 3, Nobel Residency, Opposite Esha Emraid, Bibwewadi Kondhwa Road, Gultekdi, Pune - 411038, Dist.Pune, Maharashtra",8044560002,
Baby Love Pram,,Kheliya,https://www.indiamart.com/kheliyatoys/?pos=162&kwd=baby prams&tags=CC||||8307.81||product|||NA|rsf:gd-|-stype:attr=1|qr_nm:gd|res:RC3|com-cf:nl|ptrs:na|ktp:N0|mc:55655|mtp:S|qry_typ:P|lang:en|wc:2|cs:8841|v=4,False,Near Sathe Gadi Karkhana Off Laxmi Road,Pune,"418, Narayan Peth,, Near Sathe Gadi Karkhana Off Laxmi Road, Pune - 411030, Dist.Pune, Maharashtra",8048372791,127
Baby Prams,,Super Cycle Works,https://www.indiamart.com/super-cycleworks/?pos=163&kwd=baby prams&tags=CC||||8954.051||product|||NA|rsf:gd-|-stype:attr=1|qr_nm:gd|res:RC3|com-cf:nl|ptrs:na|ktp:N0|mc:55655|mtp:S|qry_typ:P|lang:en|wc:2|cs:8841|v=4,False,Porur,Chennai,"1ST FLOOR, 89, ARCOT ROAD, Porur, Chennai - 600116, Dist.Chennai, Tamil Nadu",8048371619,583
Baby Prams,,Mymasters Agencies,https://www.indiamart.com/my-masters-agencyernakulam/?pos=164&kwd=baby prams&tags=CC||||8507.67||product|||NA|rsf:gd-|-stype:attr=1|qr_nm:gd|res:RC3|com-cf:nl|ptrs:na|ktp:N0|mc:55655|mtp:S|qry_typ:P|lang:en|wc:2|cs:8841|v=4,False,Shenoys,Ernakulam,"Penta Menaka, Shenoys, Ernakulam - 682031, Dist.Ernakulam, Kerala",8043823083,
Baby Prams,,Welcome Variety And Home Appliance,https://www.indiamart.com/welcome-veriety-home-appliance/?pos=165&kwd=baby prams&tags=CC||||8307.81||product|||NA|rsf:gd-|-stype:attr=1|qr_nm:gd|res:RC3|com-cf:nl|ptrs:na|ktp:N0|mc:55655|mtp:S|qry_typ:P|lang:en|wc:2|cs:8841|v=4,False,Wagholi,Pune,"S NO 616,A/P KESANAND FATA,NAGAR ROAD,MUNDHAWA Nagar Road, Kesnand Phata,412207,Pune, Wagholi, Pune - 411036, Dist.Pune, Maharashtra",7942646140,
Baby Prams,,Ceejay Trading Company,https://www.indiamart.com/ceejay-school-supplies/?pos=166&kwd=baby prams&tags=CC||||8663.873||product|||NA|rsf:gd-|-stype:attr=1|qr_nm:gd|res:RC3|com-cf:nl|ptrs:na|ktp:N0|mc:55655|mtp:S|qry_typ:P|lang:en|wc:2|cs:8841|v=4,False,Bhasam Circle,Bengaluru,"63rd 5th Block, Rajajinagar, Bhasam Circle 571, 63rd Cross, 5th Block, Rajajinagar, Near Bhasam Circle, Bengaluru, Bhasam Circle, Bengaluru - 560010, Dist.Bengaluru, Karnataka",8047308777,7650
Baby Prams,,Pink And Blues,https://www.indiamart.com/pink-and-blues/?pos=167&kwd=baby prams&tags=CC||||8245.243||product|||NA|rsf:gd-|-stype:attr=1|qr_nm:gd|res:RC3|com-cf:nl|ptrs:na|ktp:N0|mc:55655|mtp:S|qry_typ:P|lang:en|wc:2|cs:8841|v=4,False,,Ambarnath,"F-1503,Mohan Nano Estates,Khojghuntawli,Ambarnath,Thane, Ambarnath - 421501, Dist.Thane, Maharashtra",8047309006,7621
Baby Prams,,Pedalstrong,https://www.indiamart.com/pedalstrong/?pos=168&kwd=baby prams&tags=CC||||8413.825|Price|product|||NA|rsf:gd-|-stype:attr=1|qr_nm:gd|res:RC3|com-cf:nl|ptrs:na|ktp:N0|mc:55655|mtp:S|qry_typ:P|lang:en|wc:2|cs:8841|v=4,False,Hubballi Dharwad,Hubli,"Plot No 167 Cts No 605b Penchmeru Laxmi Layout Basaveshwar Nagar Gokul Road, Hubballi Dharwad, Hubli - 580030, Dist.Dharwad, Karnataka",8069728210,326
Baby Prams,,M2N,https://www.indiamart.com/m2n/?pos=169&kwd=baby prams&tags=CC||||8687.968|Price|product|||NA|rsf:gd-|-stype:attr=1|qr_nm:gd|res:RC3|com-cf:nl|ptrs:na|ktp:N0|mc:55655|mtp:S|qry_typ:P|lang:en|wc:2|cs:8841|v=4,False,,Jalakandapuram,"09/06/121 Akilandammal Street Jalakandapuram Salem 09/06/121,Akilandammal Street,Jalakandapuram,Salem, Jalakandapuram - 636501, Tamil Nadu",8047311010,2834
Baby Prams,,Kawoosa Sons,https://www.indiamart.com/kawoosa-sons/?pos=170&kwd=baby prams&tags=CC||||8612.732||product|||NA|rsf:gd-|-stype:attr=1|qr_nm:gd|res:RC3|com-cf:nl|ptrs:na|ktp:N0|mc:55655|mtp:S|qry_typ:P|lang:en|wc:2|cs:8841|v=4,False,Nowhatta,Srinagar,"Budshah Bazar S.R. Gunj, Srinagar, Srinagar, Jammu and Kashmir Main Road,.Opposite Jamia Masjid, Nowhatta, Srinagar - 190002, Dist.Srinagar, Jammu & Kashmir",8048371901,147
Baby Prams,,Shree Balaji Sports Toys & Gifts,https://www.indiamart.com/shri-balaji-sports-toys/?pos=171&kwd=baby prams&tags=CC||||8752.144||product|||NA|rsf:gd-|-stype:attr=1|qr_nm:gd|res:RC3|com-cf:nl|ptrs:na|ktp:N0|mc:55655|mtp:S|qry_typ:P|lang:en|wc:2|cs:8841|v=4,False,Sector 7 Dwarka,New Delhi,"C-353 Ramphal Chowk, Sector 7 Dwarka, New Delhi - 110075, Dist.Delhi, Delhi",8045849993,128
Baby Prams,,Charbhuja Toys,https://www.indiamart.com/charbhuja-toys/?pos=172&kwd=baby prams&tags=CC||||8228.275||product|||NA|rsf:gd-|-stype:attr=1|qr_nm:gd|res:RC3|com-cf:nl|ptrs:na|ktp:N0|mc:55655|mtp:S|qry_typ:P|lang:en|wc:2|cs:8841|v=4,False,Ahmedabad-380055,Ahmedabad,"B-13 Nr. Ujala Char Rasta Suvidha Estate Sarkhej B-13 Nr. Ujala Char Rasta Suvidha Estate Sarkhej, , Ahmedabad-380055, Gujarat,India, Ahmedabad-380055, Ahmedabad - 380055, Dist.Ahmedabad, Gujarat",8048249694,6486
Baby Prams,,Rainbow Toys & Mobiles,https://www.indiamart.com/rainbow-toys-mobiles/?pos=173&kwd=baby prams&tags=CC||||8600.742||product|||NA|rsf:gd-|-stype:attr=1|qr_nm:gd|res:RC3|com-cf:nl|ptrs:na|ktp:N0|mc:55655|mtp:S|qry_typ:P|lang:en|wc:2|cs:8841|v=4,False,munchirai,Killiyoor,"manukutti, munchirai, Killiyoor - 629171, Dist.Kanyakumari, Tamil Nadu",8047311009,1514
Baby Prams,,Shri Krishna Traders,https://www.indiamart.com/shrikrishnatraders-rohtak/?pos=174&kwd=baby prams&tags=CC||||8706.508||product|||NA|rsf:gd-|-stype:attr=1|qr_nm:gd|res:RC3|com-cf:nl|ptrs:na|ktp:N0|mc:55655|mtp:S|qry_typ:P|lang:en|wc:2|cs:8841|v=4,False,Janta Colony,Rohtak,"938/35, Janta Colony, Rohtak - 124001, Dist.Rohtak, Haryana",8048249679,6703
Baby Prams,,Navkar Traders,https://www.indiamart.com/navkar-traders-gandhinagar/?pos=175&kwd=baby prams&tags=CC||||8228.275|Price|product|||NA|rsf:gd-|-stype:attr=1|qr_nm:gd|res:RC3|com-cf:nl|ptrs:na|ktp:N0|mc:55655|mtp:S|qry_typ:P|lang:en|wc:2|cs:8841|v=4,False,Pethapur,Ahmedabad,"12,SHUKMALNAGAR CO OP H SOC,B/H OVER BRIDGE CHANDLODIYA,AHMEDABAD Main Market,382610,Ahmedabad, Pethapur, Ahmedabad - 382481, Dist.Ahmedabad, Gujarat",8069033725,118
Baby Prams,,Royal India,https://www.indiamart.com/tosty-pet-home/?pos=176&kwd=baby prams&tags=CB||||9110.092||product|||NA|rsf:gd-|-stype:attr=1|qr_nm:gd|res:RC3|com-cf:nl|ptrs:na|ktp:N0|mc:55655|mtp:S|qry_typ:P|lang:en|wc:2|cs:8841|v=4,False,Vijayant Khand,Lucknow,"4/258, Vijayant Khand, Gomti Nagar, Vijayant Khand, Lucknow - 226010, Dist.Lucknow, Uttar Pradesh",8043881996,
Baby Prams,,AB Baby,https://www.indiamart.com/ab-baby/?pos=177&kwd=baby prams&tags=CC||||8226.563||product|||NA|rsf:gd-|-stype:attr=1|qr_nm:gd|res:RC3|com-cf:nl|ptrs:na|ktp:N0|mc:55655|mtp:S|qry_typ:P|lang:en|wc:2|cs:8841|v=4,False,Vashi,Navi Mumbai,"Shop No. B 8, Gagangiri Co Operative Housing Society, Plot 47, Sector 17, Vashi, Navi Mumbai - 400703, Dist.Thane, Maharashtra",8043835160,
Baby Prams,,Magic Gifts & Toys,https://www.indiamart.com/magic-gifts-toys/?pos=178&kwd=baby prams&tags=CC||||8302.941||product|||NA|rsf:gd-|-stype:attr=1|qr_nm:gd|res:RC3|com-cf:nl|ptrs:na|ktp:N0|mc:55655|mtp:S|qry_typ:P|lang:en|wc:2|cs:8841|v=4,False,,Chinchwad,"Kasturi Market, Chikhali Road, Near Tharmax Chowk, Chinchwad - 411019, Dist.Pune, Maharashtra",8048250332,710
Baby Prams,,Sai Dwarka Enterprises,https://www.indiamart.com/sai-dwarka-enterprises/?pos=179&kwd=baby prams&tags=CC||||8876.815||product|||NA|rsf:gd-|-stype:attr=1|qr_nm:gd|res:RC3|com-cf:nl|ptrs:na|ktp:N0|mc:55655|mtp:S|qry_typ:P|lang:en|wc:2|cs:8841|v=4,False,Atrey Layout,Nagpur,"Shop No-4 Anjali Apartments Atrey Layout Nagpur, Atrey Layout, Nagpur - 440022, Dist.Nagpur, Maharashtra",8048372668,911
Baby Prams,,Yash Trading Company,https://www.indiamart.com/yash-trading-company-new-delhi/?pos=180&kwd=baby prams&tags=CC||||8752.144||product|||NA|rsf:gd-|-stype:attr=1|qr_nm:gd|res:RC3|com-cf:nl|ptrs:na|ktp:N0|mc:55655|mtp:S|qry_typ:P|lang:en|wc:2|cs:8841|v=4,False,,New Delhi,"A/230, Tukmirpur, Karwal Nagar, New Delhi - 110053, Dist.Delhi, Delhi",8045849895,109
Baby Prams,,New Soham Balache Kapde,https://www.indiamart.com/newsoham-childgarment/?pos=181&kwd=baby prams&tags=CC||||8223.226||product|||NA|rsf:gd-|-stype:attr=1|qr_nm:gd|res:RC3|com-cf:nl|ptrs:na|ktp:N0|mc:55655|mtp:S|qry_typ:P|lang:en|wc:2|cs:8841|v=4,False,Thane West,Thane,"3,ALKA BUILDING,GOKHALE ROAD, NAUPADA,THANE Alka Building Opp. Cosmos Bank Near Devdhar Hospital Gokhle Road Naupada Thane West,400601,Thane, Thane West, Thane - 400602, Dist.Thane, Maharashtra",8069857330,251
Baby Prams,,Baby World,https://www.indiamart.com/baby-world-vyara/?pos=182&kwd=baby prams&tags=CC||||8287.658||product|||NA|rsf:gd-|-stype:attr=1|qr_nm:gd|res:RC3|com-cf:nl|ptrs:na|ktp:N0|mc:55655|mtp:S|qry_typ:P|lang:en|wc:2|cs:8841|v=4,False,HAPPINESS HOTEL,Vyara,"6,7,NAGAR PALIKA SHOPPING CENTER,OPP. VAIBHAV CINEMA NR.HAPPINESS HOTEL, HAPPINESS HOTEL, Vyara - 394650, Dist.Surat, Gujarat",8048372721,663
Baby Prams,,Kalyan Cycle Show Room,https://www.indiamart.com/kalyan-cycle-show-room/?pos=183&kwd=baby prams&tags=CC||||9104.467||product|||NA|rsf:gd-|-stype:attr=1|qr_nm:gd|res:RC3|com-cf:nl|ptrs:na|ktp:N0|mc:55655|mtp:S|qry_typ:P|lang:en|wc:2|cs:8841|v=4,False,Near Sai Mandir,Durg,"Kasaridih, Near Sai Mandir, Durg - 491001, Dist.Durg, Chhattisgarh",8048372047,257
Baby Prams,,Hariom Traders,https://www.indiamart.com/hariomtraders-bhilai/?pos=184&kwd=baby prams&tags=CC||||9111.322||product|||NA|rsf:gd-|-stype:attr=1|qr_nm:gd|res:RC3|com-cf:nl|ptrs:na|ktp:N0|mc:55655|mtp:S|qry_typ:P|lang:en|wc:2|cs:8841|v=4,False,Adarsh Nagar,Bhilai,"Adarsh Nagar Utai Utai Adarsh Nagar, Utai, Utai, Durg, Adarsh Nagar, Bhilai - 491107, Dist.Durg, Chhattisgarh",8048372688,209
Baby Prams,,Baba Agencies,https://www.indiamart.com/baba-agencies-rishikesh/?pos=185&kwd=baby prams&tags=CC||||8880.752||product|||NA|rsf:gd-|-stype:attr=1|qr_nm:gd|res:RC3|com-cf:nl|ptrs:na|ktp:N0|mc:55655|mtp:S|qry_typ:P|lang:en|wc:2|cs:8841|v=4,False,Manvendera Nagar,Rishikesh,"1st floor city center dedhradun road, Manvendera Nagar, Rishikesh - 249201, Dist.Dehradun, Uttarakhand",8048249684,4674
Baby Prams,,Krishna Flowers & Gift Gallery,https://www.indiamart.com/krishna-flowers-gift-gallery/?pos=186&kwd=baby prams&tags=CC||||8658.332||product|||NA|rsf:gd-|-stype:attr=1|qr_nm:gd|res:RC3|com-cf:nl|ptrs:na|ktp:N0|mc:55655|mtp:S|qry_typ:P|lang:en|wc:2|cs:8841|v=4,False,Central Town,Phagwara,",.,,Central Town,,Phagwara,, Central Town, Phagwara - 144401, Dist.Kapurthala, Punjab",8048372934,795
Baby Pram,,A-1 Cycle,https://www.indiamart.com/a1cycle-jalandhar/?pos=187&kwd=baby prams&tags=CB||||8641.487||product|||NA|rsf:gd-|-stype:attr=1|qr_nm:gd|res:RC3|com-cf:nl|ptrs:na|ktp:N0|mc:55655|mtp:S|qry_typ:P|lang:en|wc:2|cs:8841|v=4,False,Santokh Pura,Jalandhar,"Doaba Chowk, Near Doaba Collage, Santokh Pura, Jalandhar - 144001, Dist.Jalandhar, Punjab",8048372271,599
Baby Prams,,Maruti Enterprises,https://www.indiamart.com/maruti-entps-chennai/?pos=188&kwd=baby prams&tags=CC||||8926.468||product|||NA|rsf:gd-|-stype:attr=1|qr_nm:gd|res:RC3|com-cf:nl|ptrs:na|ktp:N0|mc:55655|mtp:S|qry_typ:P|lang:en|wc:2|cs:8841|v=4,False,Poonamallee,Tiruvallur,"Poonamallee, Poonamallee, Tiruvallur - 600052, Dist.Tiruvallur, Tamil Nadu",8048249718,5565
Baby Prams,,Baby Care,https://www.indiamart.com/baby-care-thane/?pos=189&kwd=baby prams&tags=CC||||8223.226||product|||NA|rsf:gd-|-stype:attr=1|qr_nm:gd|res:RC3|com-cf:nl|ptrs:na|ktp:N0|mc:55655|mtp:S|qry_typ:P|lang:en|wc:2|cs:8841|v=4,False,Parshva nagar,Thane,"Parshva Nagar Gala No 1, Devchand Nagar Bhayender West, Parshva nagar, Thane - 401105, Dist.Thane, Maharashtra",8048264007,176
Baby Prams,,Chauhan Enterprises,https://www.indiamart.com/chauhan-entps/?pos=190&kwd=baby prams&tags=CC||||8741.812||product|||NA|rsf:gd-|-stype:attr=1|qr_nm:gd|res:RC3|com-cf:nl|ptrs:na|ktp:N0|mc:55655|mtp:S|qry_typ:P|lang:en|wc:2|cs:8841|v=4,False,Subhash Nagar,Gurgaon,"90/9-A, Subhash Nagar, Bhimnagar Chowk New Railway Road, Subhash Nagar, Gurgaon - 122001, Dist.Gurgaon, Haryana",8048372715,638
Baby Prams,,The National Cycle And Motaor Co.,https://www.indiamart.com/thenational-cycle-motor-company/?pos=191&kwd=baby prams&tags=CC||||8228.275||product|||NA|rsf:gd-|-stype:attr=1|qr_nm:gd|res:RC3|com-cf:nl|ptrs:na|ktp:N0|mc:55655|mtp:S|qry_typ:P|lang:en|wc:2|cs:8841|v=4,False,Khadia,Ahmedabad,"KHADIYA CHAR RASTA,1/1940/3,NEAR HARANWADI POLE,GANDHI ROAD, Khadia, Ahmedabad - 380001, Dist.Ahmedabad, Gujarat",8062245008,542
Baby Prams,,Kovai Car Seats,https://www.indiamart.com/kovai-car-seats/?pos=192&kwd=baby prams&tags=CC||||8584.299||product|||NA|rsf:gd-|-stype:attr=1|qr_nm:gd|res:RC3|com-cf:nl|ptrs:na|ktp:N0|mc:55655|mtp:S|qry_typ:P|lang:en|wc:2|cs:8841|v=4,False,Gandhipuram,Coimbatore,"10, Larrypattai, Gandhipuram, Coimbatore - 641012, Dist.Coimbatore, Tamil Nadu",8048371715,350
Baby Prams,,Messers. Punjab Cycle Stores,https://www.indiamart.com/messers-punjab-cycle-stores/?pos=193&kwd=baby prams&tags=CC||||9537.216||product|||NA|rsf:gd-|-stype:attr=1|qr_nm:gd|res:RC3|com-cf:nl|ptrs:na|ktp:N0|mc:55655|mtp:S|qry_typ:P|lang:en|wc:2|cs:8841|v=4,False,Guru Gobind Singh Road,Hazaribag,"0 0 K. B Market Guru Govind Singh Road 0, Guru Gobind Singh Road, Hazaribag - 825301, Dist.Hazaribag, Jharkhand",8069728310,359
Baby Prams,,Jai Durga Toys,https://www.indiamart.com/jaidurgatoys-delhi/?pos=194&kwd=baby prams&tags=CC||||8752.144||product|||NA|rsf:gd-|-stype:attr=1|qr_nm:gd|res:RC3|com-cf:nl|ptrs:na|ktp:N0|mc:55655|mtp:S|qry_typ:P|lang:en|wc:2|cs:8841|v=4,False,Delhi,New Delhi,"K 290.Gali No.1 Ghonda Delhi 53, Delhi, New Delhi - 110053, Dist.Delhi, Delhi",8048371837,135
Baby Prams,,Shree Balaji Traders,https://www.indiamart.com/shribalaji-steelfurniture/?pos=195&kwd=baby prams&tags=CC||||8752.144||product|||NA|rsf:gd-|-stype:attr=1|qr_nm:gd|res:RC3|com-cf:nl|ptrs:na|ktp:N0|mc:55655|mtp:S|qry_typ:P|lang:en|wc:2|cs:8841|v=4,False,Molar Band Extention,New Delhi,"Shop no..8, Gali No 2,RK Communication Aggarwal Market, Molar Band Extention, New Delhi - 110044, Dist.Delhi, Delhi",8048372902,919
Baby Prams,,Darling Baby,https://www.indiamart.com/darling-baby/?pos=196&kwd=baby prams&tags=CC||||8954.051||product|||NA|rsf:gd-|-stype:attr=1|qr_nm:gd|res:RC3|com-cf:nl|ptrs:na|ktp:N0|mc:55655|mtp:S|qry_typ:P|lang:en|wc:2|cs:8841|v=4,False,Gopalapuram,Chennai,"No. 102, Cathedral Road, Gopalapuram, Chennai - 600086, Dist.Chennai, Tamil Nadu",8048249718,6964
Baby Prams,,VR Dakshin Pvt. Ltd.,https://www.indiamart.com/vr-dakshin-pvt-ltd/?pos=197&kwd=baby prams&tags=CC||||8663.873||product|||NA|rsf:gd-|-stype:attr=1|qr_nm:gd|res:RC3|com-cf:nl|ptrs:na|ktp:N0|mc:55655|mtp:S|qry_typ:P|lang:en|wc:2|cs:8841|v=4,False,Singayyanapalya,Bengaluru,"No 408, 3rd Cross, Singayyanapalya, Opposite BBMP, Mahadevapura Post, Whitefield Main Road, VR Mall, Singayyanapalya, Bengaluru - 560048, Dist.Bengaluru, Karnataka",8047308884,4238
Baby Prams,,Raghav Toys Traders,https://www.indiamart.com/balajitoys-ghaziabad/?pos=198&kwd=baby prams&tags=CC||||8785.791||product|||NA|rsf:gd-|-stype:attr=1|qr_nm:gd|res:RC3|com-cf:nl|ptrs:na|ktp:N0|mc:55655|mtp:S|qry_typ:P|lang:en|wc:2|cs:8841|v=4,False,New Gate,Ghaziabad,"17, Ramanuj Dayal Arket, Ramte Ram Road, Near Water Tank, New Gate, Ghaziabad - 201001, Dist.Ghaziabad, Uttar Pradesh",8047527028,
Baby Prams,,Goel Cycle Shop,https://www.indiamart.com/goel-cycle-shop/?pos=199&kwd=baby prams&tags=CC||||8835.971||product|||NA|rsf:gd-|-stype:attr=1|qr_nm:gd|res:RC3|com-cf:nl|ptrs:na|ktp:N0|mc:55655|mtp:S|qry_typ:P|lang:en|wc:2|cs:8841|v=4,False,Kabli gate,Mawana,"973,Moh- Kabligate Kabligate, Kabli gate, Mawana - 250401, Dist.Meerut, Uttar Pradesh",8048372108,359
Baby Prams,,first cry,https://www.indiamart.com/first-cry-ernakulam/?pos=200&kwd=baby prams&tags=CC||||8507.67||product|||NA|rsf:gd-|-stype:attr=1|qr_nm:gd|res:RC3|com-cf:nl|ptrs:na|ktp:N0|mc:55655|mtp:S|qry_typ:P|lang:en|wc:2|cs:8841|v=4,False,,Ernakulam,"Opp. Sreedhareeyam Eye Hospital, Kaloor-Kadavanthra Road, Kaloor, Ernakulam - 682017, Dist.Ernakulam, Kerala",7942641206,
Baby Prams,,Guru Nanak Toys,https://www.indiamart.com/guru-nanak-toys/?pos=201&kwd=baby prams&tags=CC||||8661.854|Price|product|||NA|rsf:gd-|-stype:attr=1|qr_nm:gd|res:RC3|com-cf:nl|ptrs:na|ktp:N0|mc:55655|mtp:S|qry_typ:P|lang:en|wc:2|cs:8841|v=4,False,AT B-VIII/9 Gokul Road Pindi Gali,Ludhiana,"One Hall First Floor & One Hall Second Floor Rahon Road, AT B-VIII/9 Gokul Road Pindi Gali, Ludhiana - 141008, Dist.Ludhiana, Punjab",8069033873,658
Baby Prams,,Balaji Cycle Works,https://www.indiamart.com/balaji-cycle-works-lucknow/?pos=202&kwd=baby prams&tags=CC||||9110.092||product|||NA|rsf:gd-|-stype:attr=1|qr_nm:gd|res:RC3|com-cf:nl|ptrs:na|ktp:N0|mc:55655|mtp:S|qry_typ:P|lang:en|wc:2|cs:8841|v=4,False,,Lucknow,"SHOP NO.4, APPOSITE NEW LAW FACULITY, INDERPURI NEAR LAZEEZ RESTAURANT, LUCKNOW, Lucknow, Uttar Prad esh, 226021, Lucknow - 226021, Dist.Lucknow, Uttar Pradesh",8048250178,953
Baby Prams,,Shree Rajnagar Cycle Co.,https://www.indiamart.com/shree-rajnagar-cycle-companyahmedabad/?pos=203&kwd=baby prams&tags=CB||||8228.275||product|||NA|rsf:gd-|-stype:attr=1|qr_nm:gd|res:RC3|com-cf:nl|ptrs:na|ktp:N0|mc:55655|mtp:S|qry_typ:P|lang:en|wc:2|cs:8841|v=4,False,Amraiwadi,Ahmedabad,"A \ 6 Vaibhav Nagar, Opposite Bharvi Tower, N. H. 8 Road, Amaraiwadi, Amraiwadi, Ahmedabad - 380026, Dist.Ahmedabad, Gujarat",8047696717,
Baby Prams,,Taj Electronics,https://www.indiamart.com/taj-electronics-and-toys/?pos=204&kwd=baby prams&tags=CC||||8254.475||product|||NA|rsf:gd-|-stype:attr=1|qr_nm:gd|res:RC3|com-cf:nl|ptrs:na|ktp:N0|mc:55655|mtp:S|qry_typ:P|lang:en|wc:2|cs:8841|v=4,False,Sevashram Road,Bharuch,"Sb-54, Bluechip Complex, Sevashram Road, Bharuch - 392001, Dist.Bharuch, Gujarat",8048250451,540
Baby Prams,,Dewan Chand Chaman Lal,https://www.indiamart.com/dewan-chand-chaman/?pos=205&kwd=baby prams&tags=CC||||8752.144||product|||NA|rsf:gd-|-stype:attr=1|qr_nm:gd|res:RC3|com-cf:nl|ptrs:na|ktp:N0|mc:55655|mtp:S|qry_typ:P|lang:en|wc:2|cs:8841|v=4,False,Jhandewalan,New Delhi,"108- A, Opposite Videocon Tower, DDA Cycle Market Jhandewalan, Jhandewalan, New Delhi - 110055, Dist.Delhi, Delhi",8047831155,
Baby Prams,,Baby On Board,https://www.indiamart.com/baby-board-shop/?pos=206&kwd=baby prams&tags=CC||||8211.142||product|||NA|rsf:gd-|-stype:attr=1|qr_nm:gd|res:RC3|com-cf:nl|ptrs:na|ktp:N0|mc:55655|mtp:S|qry_typ:P|lang:en|wc:2|cs:8841|v=4,False,Kanjurmarg East,Mumbai,"Shop No. 3, Nutan Nagar, Near Santoshi Mata Mandir, Kanjurmarg East, Mumbai - 400042, Dist.Mumbai, Maharashtra",7949349523,
Baby Prams,,Rajeshwar Toy World,https://www.indiamart.com/rajeshwar-toy-world/?pos=207&kwd=baby prams&tags=CC||||8786.56||product|||NA|rsf:gd-|-stype:attr=1|qr_nm:gd|res:RC3|com-cf:nl|ptrs:na|ktp:N0|mc:55655|mtp:S|qry_typ:P|lang:en|wc:2|cs:8841|v=4,False,Begum Bazar,Hyderabad,"15-8-437, Solanki Nivas, Feelkhana,, Begum Bazar, Hyderabad - 500012, Dist.Hyderabad, Telangana",8043826662,
Baby Prams,,The City Connect Express Logistics Courier & Cargo,https://www.indiamart.com/the-city-connect-express-logistics-courier-cargo/?pos=208&kwd=baby prams&tags=CC||||9528.781||product|||NA|rsf:gd-|-stype:attr=1|qr_nm:gd|res:RC3|com-cf:nl|ptrs:na|ktp:N0|mc:55655|mtp:S|qry_typ:P|lang:en|wc:2|cs:8841|v=4,False,Ranchi,Ranchi,"Anandpuri Chowk City Connect Express Logistics Maktiram Road, Ranchi, Ranchi - 834002, Dist.Ranchi, Jharkhand",8048265049,3836
Baby Prams,,Maa N Mee,https://www.indiamart.com/maanmee-pune/?pos=209&kwd=baby prams&tags=CB||||8307.81||product|||NA|rsf:gd-|-stype:attr=1|qr_nm:gd|res:RC3|com-cf:nl|ptrs:na|ktp:N0|mc:55655|mtp:S|qry_typ:P|lang:en|wc:2|cs:8841|v=4,False,Kharadi,Pune,"Majestic Plaza, Shop No. 2, Next To Columbia Asia Hospital, Kharadi, Pune - 411014, Dist.Pune, Maharashtra",8043840338,
Baby Prams,,Hari Om Sports And Stationari,https://www.indiamart.com/hariom-stationery-pune/?pos=210&kwd=baby prams&tags=CC||||8307.81||product|||NA|rsf:gd-|-stype:attr=1|qr_nm:gd|res:RC3|com-cf:nl|ptrs:na|ktp:N0|mc:55655|mtp:S|qry_typ:P|lang:en|wc:2|cs:8841|v=4,False,Manikbaug,Pune,"SR No-33 ,Shop No-4 ,Triveni, Sangam Appartment Sinhagad, Road Manik, Baug Anandnagar.Pune,, Manikbaug, Pune - 410051, Dist.Pune, Maharashtra",8048371811,705
