product_title,product_link,company_name,company_link,is_verified_exporter,city_region,city,address_details,phone_number,phone_number_extension
"Cloth Baby Diapers, Age Group: 3-12 Months",https://www.indiamart.com/proddetail/cloth-baby-diapers-2852958691588.html?pos=1&kwd=baby cloth diapers&tags=A||||8752.144|Price|product|||SSnp|rsf:gd-|-stype:attr=1|qr_nm:gd|res:RC4|com-cf:nl|ptrs:na|ktp:N0|mc:55657|mtp:S|qry_typ:P|lang:en|wc:3|flavl:0-1|cs:9702|v=4,Bikauaa Private Limited,https://www.indiamart.com/bikauaa/?pos=1&kwd=baby cloth diapers&tags=A||||8752.144|Price|product|||SSnp|rsf:gd-|-stype:attr=1|qr_nm:gd|res:RC4|com-cf:nl|ptrs:na|ktp:N0|mc:55657|mtp:S|qry_typ:P|lang:en|wc:3|flavl:0-1|cs:9702|v=4,False,Nangloi,New Delhi,"H.NO-C-64/2 ,KH-12/7/1, Amanpuri Nangloi West, Nangloi, New Delhi - 110041, Dist.Delhi, Delhi",7942796091,
Chinmay Kids Adjustable Baby Cloth Diapers Combo,https://www.indiamart.com/proddetail/adjustable-baby-cloth-diapers-combo-24195791088.html?pos=2&kwd=baby cloth diapers&tags=A||||8752.144|Price|product|||TS|rsf:gd-|-stype:attr=1|qr_nm:gd|res:RC4|com-cf:nl|ptrs:na|ktp:N0|mc:55657|mtp:S|qry_typ:P|lang:en|wc:3|flavl:0-1|cs:9702|v=4,Chinmay Kids,https://www.indiamart.com/chinmaykids/?pos=2&kwd=baby cloth diapers&tags=A||||8752.144|Price|product|||TS|rsf:gd-|-stype:attr=1|qr_nm:gd|res:RC4|com-cf:nl|ptrs:na|ktp:N0|mc:55657|mtp:S|qry_typ:P|lang:en|wc:3|flavl:0-1|cs:9702|v=4,False,Nayagaon,New Delhi,"C-99, Street No. 4, First Pusta, Nayagaon, New Delhi - 110053, Dist.Delhi, Delhi",8046054858,
"Kids Cloth Diapers, Size: Medium, Age Group: 0 to 24",https://www.indiamart.com/proddetail/kids-cloth-diapers-24926317162.html?pos=3&kwd=baby cloth diapers&tags=A||||8752.144|Price|product|||TS|rsf:gd-|-stype:attr=1|qr_nm:gd|res:RC4|com-cf:nl|ptrs:na|ktp:N0|mc:55657|mtp:S|qry_typ:P|lang:en|wc:3|flavl:0-1|cs:9702|v=4,R B Enterprises,https://www.indiamart.com/rbenterpriseskondalinewdelhi/?pos=3&kwd=baby cloth diapers&tags=A||||8752.144|Price|product|||TS|rsf:gd-|-stype:attr=1|qr_nm:gd|res:RC4|com-cf:nl|ptrs:na|ktp:N0|mc:55657|mtp:S|qry_typ:P|lang:en|wc:3|flavl:0-1|cs:9702|v=4,False,Gharoli,New Delhi,"Ground, 58 F/F/R/S Brahman Basti, Kondli Main Road, Kondli Gharoli,, Gharoli, New Delhi - 110094, Dist.Delhi, Delhi",7942535965,
"Baby reusable cloth diapers, Medium, Age Group: Newly Born",https://www.indiamart.com/proddetail/baby-reusable-cloth-diapers-2854764146733.html?pos=4&kwd=baby cloth diapers&tags=A||||8211.142|Price|product|||TS|rsf:gd-|-stype:attr=1|qr_nm:gd|res:RC4|com-cf:nl|ptrs:na|ktp:N0|mc:55657|mtp:S|qry_typ:P|lang:en|wc:3|flavl:0-1|cs:9702|v=4,Sidhshlok Enterprises,https://www.indiamart.com/sidhshlokenterprises/?pos=4&kwd=baby cloth diapers&tags=A||||8211.142|Price|product|||TS|rsf:gd-|-stype:attr=1|qr_nm:gd|res:RC4|com-cf:nl|ptrs:na|ktp:N0|mc:55657|mtp:S|qry_typ:P|lang:en|wc:3|flavl:0-1|cs:9702|v=4,False,Mulund West,Mumbai,"A-9, Chagpar Khimaji, R R T Road, Mumbai Suburban, Mulund West, Mumbai - 400080, Dist.Mumbai, Maharashtra",7942832648,
"baby printed button CLOTH diapers, Medium",https://www.indiamart.com/proddetail/baby-printed-button-cloth-diapers-24764653762.html?pos=5&kwd=baby cloth diapers&tags=A||||8752.144|Price|product|||TS|rsf:gd-|-stype:attr=1|qr_nm:gd|res:RC4|com-cf:nl|ptrs:na|ktp:N0|mc:55657|mtp:S|qry_typ:P|lang:en|wc:3|flavl:0-1|cs:9702|v=4,Ekta Overseas,https://www.indiamart.com/ektaoverseas-newdelhi/?pos=5&kwd=baby cloth diapers&tags=A||||8752.144|Price|product|||TS|rsf:gd-|-stype:attr=1|qr_nm:gd|res:RC4|com-cf:nl|ptrs:na|ktp:N0|mc:55657|mtp:S|qry_typ:P|lang:en|wc:3|flavl:0-1|cs:9702|v=4,False,Shahdara,New Delhi,"1/95, Gali No.3, Near Navjeevan Phisical Center, Vishwas Nagar, Shahdara,, Shahdara, New Delhi - 110032, Dist.Delhi, Delhi",7942628926,
Reusable Baby Cloth Diapers,https://www.indiamart.com/proddetail/reusable-baby-cloth-diapers-2853365778855.html?pos=6&kwd=baby cloth diapers&tags=A||||8954.051|Price|product|||TS|rsf:gd-|-stype:attr=1|qr_nm:gd|res:RC4|com-cf:nl|ptrs:na|ktp:N0|mc:55657|mtp:S|qry_typ:P|lang:en|wc:3|flavl:0-1|cs:9702|v=4,Shubh Swasan (i) Private Limited,https://www.waterproofbreathablefabric.com/?pos=6&kwd=baby cloth diapers&tags=A||||8954.051|Price|product|||TS|rsf:gd-|-stype:attr=1|qr_nm:gd|res:RC4|com-cf:nl|ptrs:na|ktp:N0|mc:55657|mtp:S|qry_typ:P|lang:en|wc:3|flavl:0-1|cs:9702|v=4,False,Kilpauk,Chennai,"No. 9/32, Branson Garden Street, Kilpauk, Kilpauk, Chennai - 600010, Dist.Chennai, Tamil Nadu",8046047088,
Baby Cloth Diapers,https://www.indiamart.com/proddetail/baby-cloth-diapers-2853164140412.html?pos=7&kwd=baby cloth diapers&tags=A||||8752.144|Price|product|||TS|rsf:gd-|-stype:attr=1|qr_nm:gd|res:RC4|com-cf:nl|ptrs:na|ktp:N0|mc:55657|mtp:S|qry_typ:P|lang:en|wc:3|flavl:0-1|cs:9702|v=4,Hetampuria Tex Fab,https://www.indiamart.com/hetampuria-tex-fab/?pos=7&kwd=baby cloth diapers&tags=A||||8752.144|Price|product|||TS|rsf:gd-|-stype:attr=1|qr_nm:gd|res:RC4|com-cf:nl|ptrs:na|ktp:N0|mc:55657|mtp:S|qry_typ:P|lang:en|wc:3|flavl:0-1|cs:9702|v=4,False,Chandni Chowk,New Delhi,"1 BAGH DIWAR (DHARAMSHALA) FATEHPURI, Chandni Chowk, New Delhi - 110006, Dist.Delhi, Delhi",7942814797,
"Honeyscoop Printed Red Cloth Diaper, Age Group: 3-12 Months",https://www.indiamart.com/proddetail/honeyscoop-printed-red-cloth-diaper-2852549776062.html?pos=8&kwd=baby cloth diapers&tags=A||||8823.154|Price|product|||TS|rsf:gd-|-stype:attr=1|qr_nm:gd|res:RC4|com-cf:nl|ptrs:na|ktp:N0|mc:55657|mtp:S|qry_typ:P|lang:en|wc:3|flavl:0-1|cs:9702|v=4,Shri Anant International,https://www.indiamart.com/shrianantinternational/?pos=8&kwd=baby cloth diapers&tags=A||||8823.154|Price|product|||TS|rsf:gd-|-stype:attr=1|qr_nm:gd|res:RC4|com-cf:nl|ptrs:na|ktp:N0|mc:55657|mtp:S|qry_typ:P|lang:en|wc:3|flavl:0-1|cs:9702|v=4,False,DayalBagh,Agra,"No.02,House 2,Alkapuri Phase Ii,Agra, DayalBagh, Agra - 282005, Dist.Agra, Uttar Pradesh",7942721451,
Reusable Pink Baby Cloth Diapers,https://www.indiamart.com/proddetail/reusable-pink-baby-cloth-diapers-2850156900191.html?pos=9&kwd=baby cloth diapers&tags=A||||8752.144|Price|product|||MDC|rsf:gd-|-stype:attr=1|qr_nm:gd|res:RC4|com-cf:nl|ptrs:na|ktp:N0|mc:55657|mtp:S|qry_typ:P|lang:en|wc:3|flavl:0-1|cs:9702|v=4,Priyanshi International,https://www.indiamart.com/priyanshi-international-uttarpradesh/?pos=9&kwd=baby cloth diapers&tags=A||||8752.144|Price|product|||MDC|rsf:gd-|-stype:attr=1|qr_nm:gd|res:RC4|com-cf:nl|ptrs:na|ktp:N0|mc:55657|mtp:S|qry_typ:P|lang:en|wc:3|flavl:0-1|cs:9702|v=4,False,,New Delhi,"3,PROP NO S228,SCHOOL BLOCK,SHAKARPUR UGF, 3, Prop No S228, School Block, Shakarpur,110092, New Delhi - 110092, Dist.Delhi, Delhi",7942676139,
"Baby Printed Cloth Diaper, Age Group: 1to2 Years",https://www.indiamart.com/proddetail/baby-printed-organic-cloth-diapers-2853453191212.html?pos=10&kwd=baby cloth diapers&tags=A||||9189.305|Price|product|||MDC|rsf:gd-|-stype:attr=1|qr_nm:gd|res:RC4|com-cf:nl|ptrs:na|ktp:N0|mc:55657|mtp:S|qry_typ:P|lang:en|wc:3|flavl:0-1|cs:9702|v=4,Sudhanjali Enterprises,https://www.indiamart.com/sudhanjalienterprises/?pos=10&kwd=baby cloth diapers&tags=A||||9189.305|Price|product|||MDC|rsf:gd-|-stype:attr=1|qr_nm:gd|res:RC4|com-cf:nl|ptrs:na|ktp:N0|mc:55657|mtp:S|qry_typ:P|lang:en|wc:3|flavl:0-1|cs:9702|v=4,False,,Prayagraj,"H No-10/7, Basahi, Nataka Babura, Khain, Prayagraj - 212307, Dist.Allahabad, Uttar Pradesh",7942964273,
Baby Cloth Button Diapers,https://www.indiamart.com/proddetail/baby-cloth-button-diapers-25564693248.html?pos=11&kwd=baby cloth diapers&tags=A||||8752.144|Price|product|||TS|rsf:gd-|-stype:attr=1|qr_nm:gd|res:RC4|com-cf:nl|ptrs:na|ktp:N0|mc:55657|mtp:S|qry_typ:P|lang:en|wc:3|flavl:0-1|cs:9702|v=4,National Overseas,https://www.indiamart.com/nationaltraders-vishwashnagar/?pos=11&kwd=baby cloth diapers&tags=A||||8752.144|Price|product|||TS|rsf:gd-|-stype:attr=1|qr_nm:gd|res:RC4|com-cf:nl|ptrs:na|ktp:N0|mc:55657|mtp:S|qry_typ:P|lang:en|wc:3|flavl:0-1|cs:9702|v=4,False,Shahdara,New Delhi,"1/99, Gali No. 3, Vishwas Nagar, Shahdara, New Delhi - 110032, Dist.Delhi, Delhi",8046047673,
Dumbledo Cloth Diaper One Size with Hemp Insert,https://www.indiamart.com/proddetail/dumbledo-cloth-diaper-one-size-with-hemp-insert-2853936239997.html?pos=12&kwd=baby cloth diapers&tags=A||||8211.142|Price|product|||MDC|rsf:gd-|-stype:attr=1|qr_nm:gd|res:RC4|com-cf:nl|ptrs:na|ktp:N0|mc:55657|mtp:S|qry_typ:P|lang:en|wc:3|flavl:0-1|cs:9702|v=4,Dumbledo,https://www.indiamart.com/dumbledo-mumbai/?pos=12&kwd=baby cloth diapers&tags=A||||8211.142|Price|product|||MDC|rsf:gd-|-stype:attr=1|qr_nm:gd|res:RC4|com-cf:nl|ptrs:na|ktp:N0|mc:55657|mtp:S|qry_typ:P|lang:en|wc:3|flavl:0-1|cs:9702|v=4,False,,Mumbai,"1st Floor, B/105, Bhoomi Valley, Thakur Village Road, Mumbai - 400101, Dist.Mumbai, Maharashtra",8044560722,
Reusable Cloth diaper for babies Pocket style 3M to 3Y CPSIA Certified 300 Washable & Adjustable,https://www.indiamart.com/proddetail/reusable-cloth-diaper-for-babies-pocket-style-3m-to-3y-cpsia-certified-300-washable-adjustable-23935824830.html?pos=13&kwd=baby cloth diapers&tags=A||||8584.299|Price|product|||TS|rsf:gd-|-stype:attr=1|qr_nm:gd|res:RC4|com-cf:nl|ptrs:na|ktp:N0|mc:55657|mtp:S|qry_typ:P|lang:en|wc:3|flavl:0-1|cs:9702|v=4,Apple Blossoms,https://www.indiamart.com/appleblossoms/?pos=13&kwd=baby cloth diapers&tags=A||||8584.299|Price|product|||TS|rsf:gd-|-stype:attr=1|qr_nm:gd|res:RC4|com-cf:nl|ptrs:na|ktp:N0|mc:55657|mtp:S|qry_typ:P|lang:en|wc:3|flavl:0-1|cs:9702|v=4,False,Gn Mills,Coimbatore,"555/1, 2nd Floor, Gandhi Nagar, Mettupalayam Road, Extension, GN Mills Post, Thudiyalur,, Gn Mills, Coimbatore - 641029, Dist.Coimbatore, Tamil Nadu",8048614461,
"White Printed Baby Cloth Cotton Diaper, Small, Age Group: 3to12 Months",https://www.indiamart.com/proddetail/baby-cloth-cotton-diaper-2854592958348.html?pos=14&kwd=baby cloth diapers&tags=A||||8626.744|Price|product|||MDC|rsf:gd-|-stype:attr=1|qr_nm:gd|res:RC4|com-cf:nl|ptrs:na|ktp:N0|mc:55657|mtp:S|qry_typ:P|lang:en|wc:3|flavl:0-1|cs:9702|v=4,Hugbae Kidswear Manufacturers,https://www.indiamart.com/hugbae-kidswearmanufacturers/?pos=14&kwd=baby cloth diapers&tags=A||||8626.744|Price|product|||MDC|rsf:gd-|-stype:attr=1|qr_nm:gd|res:RC4|com-cf:nl|ptrs:na|ktp:N0|mc:55657|mtp:S|qry_typ:P|lang:en|wc:3|flavl:0-1|cs:9702|v=4,False,,Tiruppur,"2/301A, 2/301B,2/301C, 2/301D, SRC Nagar, Palladam Taluk, Ganapathipalayam, Tiruppur - 641605, Dist.Coimbatore, Tamil Nadu",8044460250,
Cotton Washable Reusable Adjustable Baby Cloth Diaper for Boys and Girls,https://www.indiamart.com/proddetail/cotton-washable-reusable-adjustable-baby-cloth-diaper-for-boys-and-girls-2853973285955.html?pos=15&kwd=baby cloth diapers&tags=A||||8230.883|Price|product|||TS|rsf:gd-|-stype:attr=1|qr_nm:gd|res:RC4|com-cf:nl|ptrs:na|ktp:N0|mc:55657|mtp:S|qry_typ:P|lang:en|wc:3|cs:8845|v=4,Nika Enterprise,https://www.nikaenterprise.in/?pos=15&kwd=baby cloth diapers&tags=A||||8230.883|Price|product|||TS|rsf:gd-|-stype:attr=1|qr_nm:gd|res:RC4|com-cf:nl|ptrs:na|ktp:N0|mc:55657|mtp:S|qry_typ:P|lang:en|wc:3|cs:8845|v=4,False,,Surat,"1st Floor,, Flat No-102, Plot No-173/174/175, Rs-109,504,, Vitthal Nagar Soc, Dabholi Char Rasta, Katargam, Surat - 395004, Dist.Surat, Gujarat",8047550715,
"Resuable Baby Cloth Diaper, Medium, Age Group: Newly Born",https://www.indiamart.com/proddetail/resuable-baby-cloth-diaper-2854715336388.html?pos=16&kwd=baby cloth diapers&tags=A||||8663.873|Price|product|||MDC|rsf:gd-|-stype:attr=1|qr_nm:gd|res:RC4|com-cf:nl|ptrs:na|ktp:N0|mc:55657|mtp:S|qry_typ:P|lang:en|wc:3|cs:8845|v=4,Nipika Vrapped Gifting,https://www.indiamart.com/nipika-vrapped-gifting/?pos=16&kwd=baby cloth diapers&tags=A||||8663.873|Price|product|||MDC|rsf:gd-|-stype:attr=1|qr_nm:gd|res:RC4|com-cf:nl|ptrs:na|ktp:N0|mc:55657|mtp:S|qry_typ:P|lang:en|wc:3|cs:8845|v=4,False,Bengaluru Urban,Bengaluru,"9/1, 23rd Cross Road, Magadi Road, KP Agrahara, Bengaluru Urban, Bengaluru - 560023, Dist.Bengaluru, Karnataka",7949328723,
"Baby washable cloth diaper, Age Group: 1to2 Years",https://www.indiamart.com/proddetail/baby-washable-cloth-diaper-2853573337191.html?pos=17&kwd=baby cloth diapers&tags=A||||8626.744|Price|product|||MDC|rsf:gd-|-stype:attr=1|qr_nm:gd|res:RC4|com-cf:nl|ptrs:na|ktp:N0|mc:55657|mtp:S|qry_typ:P|lang:en|wc:3|cs:8845|v=4,Rich Plus Garment,https://www.indiamart.com/rich-plus-garment/?pos=17&kwd=baby cloth diapers&tags=A||||8626.744|Price|product|||MDC|rsf:gd-|-stype:attr=1|qr_nm:gd|res:RC4|com-cf:nl|ptrs:na|ktp:N0|mc:55657|mtp:S|qry_typ:P|lang:en|wc:3|cs:8845|v=4,False,Rayapuram,Tiruppur,"22, 2/92 B Kumarappapuram 2nd Street, Rayapuram, Tiruppur - 641601, Dist.Coimbatore, Tamil Nadu",7949092088,
"Reusable Baby Cloth Diapers, Age Group: 3-12 Months",https://www.indiamart.com/proddetail/reusable-baby-cloth-diapers-2852521086612.html?pos=18&kwd=baby cloth diapers&tags=A||||8211.142|Price|product|||TS|rsf:gd-|-stype:attr=1|qr_nm:gd|res:RC4|com-cf:nl|ptrs:na|ktp:N0|mc:55657|mtp:S|qry_typ:P|lang:en|wc:3|cs:8845|v=4,P For Panda Baby Products Private Limited,https://www.p4pandababyproducts.com/?pos=18&kwd=baby cloth diapers&tags=A||||8211.142|Price|product|||TS|rsf:gd-|-stype:attr=1|qr_nm:gd|res:RC4|com-cf:nl|ptrs:na|ktp:N0|mc:55657|mtp:S|qry_typ:P|lang:en|wc:3|cs:8845|v=4,False,Goregaon West,Mumbai,"904 A Wing,9 Th Floor,Triple S Heights,Jakeria Road, Goregaon West, Mumbai - 400064, Dist.Mumbai, Maharashtra",7942710871,
"tinny tots Reusable Baby Cloth Diapers, Size: s/m/l, Age Group: 3-12 Months",https://www.indiamart.com/proddetail/reusable-baby-cloth-diapers-24843056262.html?pos=19&kwd=baby cloth diapers&tags=A||||8752.144|Price|product|||TS|rsf:gd-|-stype:attr=1|qr_nm:gd|res:RC4|com-cf:nl|ptrs:na|ktp:N0|mc:55657|mtp:S|qry_typ:P|lang:en|wc:3|cs:8845|v=4,Anand Garments Pvt Ltd,https://www.indiamart.com/anand-garments-newdelhi/?pos=19&kwd=baby cloth diapers&tags=A||||8752.144|Price|product|||TS|rsf:gd-|-stype:attr=1|qr_nm:gd|res:RC4|com-cf:nl|ptrs:na|ktp:N0|mc:55657|mtp:S|qry_typ:P|lang:en|wc:3|cs:8845|v=4,False,mundka,New Delhi,"Plot No-276, Area Pocket-m Sector-1, Dsiidc Bawana,, mundka, New Delhi - 110039, Dist.Delhi, Delhi",8048262855,
"Baby Cloth Diapers Nappies, Medium, Age Group: Newly Born",https://www.indiamart.com/proddetail/baby-cloth-diapers-nappies-2854901403662.html?pos=20&kwd=baby cloth diapers&tags=A||||8954.051|Price|product|||TS|rsf:gd-|-stype:attr=1|qr_nm:gd|res:RC4|com-cf:nl|ptrs:na|ktp:N0|mc:55657|mtp:S|qry_typ:P|lang:en|wc:3|cs:8845|v=4,Tetra Clothing,https://www.tetraclothing.in/?pos=20&kwd=baby cloth diapers&tags=A||||8954.051|Price|product|||TS|rsf:gd-|-stype:attr=1|qr_nm:gd|res:RC4|com-cf:nl|ptrs:na|ktp:N0|mc:55657|mtp:S|qry_typ:P|lang:en|wc:3|cs:8845|v=4,True,Gopichettipalaiyam,Chennai,"No. 59/28, Balu Building, Gopichettipalaiyam, Chennai - 638476, Dist.Chennai, Tamil Nadu",8048957951,
"Reusable Baby Cloth Diapers, Medium, Age Group: 3to12 Months",https://www.indiamart.com/proddetail/reusable-baby-cloth-diapers-2854891814573.html?pos=21&kwd=baby cloth diapers&tags=A||||8778.123|Price|product|||TS|rsf:gd-|-stype:attr=1|qr_nm:gd|res:RC4|com-cf:nl|ptrs:na|ktp:N0|mc:55657|mtp:S|qry_typ:P|lang:en|wc:3|cs:8845|v=4,Pleasure Paradise,https://www.wonderfeel.in/?pos=21&kwd=baby cloth diapers&tags=A||||8778.123|Price|product|||TS|rsf:gd-|-stype:attr=1|qr_nm:gd|res:RC4|com-cf:nl|ptrs:na|ktp:N0|mc:55657|mtp:S|qry_typ:P|lang:en|wc:3|cs:8845|v=4,False,Sector 137,Noida,"11, T12 1105, Paras Tierea, Sector 137, Sector 137, Noida - 201301, Dist.Gautam Budh Nagar, Uttar Pradesh",8048612980,
"Chhote Janab Infant Wear Baby Printed Cloth Diaper, Size: Standard, Age Group: 3-12 Months",https://www.indiamart.com/proddetail/baby-printed-cloth-diaper-21789984891.html?pos=22&kwd=baby cloth diapers&tags=A||||8752.144|Price|product|||TS|rsf:gd-|-stype:attr=1|qr_nm:gd|res:RC4|com-cf:nl|ptrs:na|ktp:N0|mc:55657|mtp:S|qry_typ:P|lang:en|wc:3|cs:8845|v=4,Shree Balaji Infant Wear,https://www.indiamart.com/chhotejanab/?pos=22&kwd=baby cloth diapers&tags=A||||8752.144|Price|product|||TS|rsf:gd-|-stype:attr=1|qr_nm:gd|res:RC4|com-cf:nl|ptrs:na|ktp:N0|mc:55657|mtp:S|qry_typ:P|lang:en|wc:3|cs:8845|v=4,False,Pahari Dhiraj,New Delhi,"1583- 84, Hathi Khana, Aziz Ganj, Bahadur Garh Road, Pahari Dhiraj, New Delhi - 110006, Dist.Delhi, Delhi",8047639754,
"Baby Printed Cloth Diaper, Size: Small, Age Group: 3to12 Months",https://www.indiamart.com/proddetail/baby-printed-cloth-diaper-2853007306373.html?pos=23&kwd=baby cloth diapers&tags=A||||8785.791|Price|product|||MDC|rsf:gd-|-stype:attr=1|qr_nm:gd|res:RC4|com-cf:nl|ptrs:na|ktp:N0|mc:55657|mtp:S|qry_typ:P|lang:en|wc:3|cs:8845|v=4,Osail Corporation,https://www.indiamart.com/osail-corporation-india/?pos=23&kwd=baby cloth diapers&tags=A||||8785.791|Price|product|||MDC|rsf:gd-|-stype:attr=1|qr_nm:gd|res:RC4|com-cf:nl|ptrs:na|ktp:N0|mc:55657|mtp:S|qry_typ:P|lang:en|wc:3|cs:8845|v=4,False,Maharajpur,Ghaziabad,"First Floor 38/2/20 Site 4, Sahibabad, Industrial Area, Maharajpur, Ghaziabad - 201010, Dist.Ghaziabad, Uttar Pradesh",8043837117,
"Reusable Baby Cloth Diapers, Age Group: 3-12 Months",https://www.indiamart.com/proddetail/reusable-baby-cloth-diapers-2852539928062.html?pos=24&kwd=baby cloth diapers&tags=BA||||8038.093|Price|product|||TS|rsf:gd-|-stype:attr=1|qr_nm:gd|res:RC4|com-cf:nl|ptrs:na|ktp:N0|mc:55657|mtp:S|qry_typ:P|lang:en|wc:3|cs:8845|v=4,Glowlyf Tradelink Private Limited,https://www.indiamart.com/glowlyftradelinkprivatelimited/?pos=24&kwd=baby cloth diapers&tags=BA||||8038.093|Price|product|||TS|rsf:gd-|-stype:attr=1|qr_nm:gd|res:RC4|com-cf:nl|ptrs:na|ktp:N0|mc:55657|mtp:S|qry_typ:P|lang:en|wc:3|cs:8845|v=4,False,GIDC,Rajkot,"Gidc 2, Plot No 136, Opp. R M Steel, Aji Industrial Estate, Rajkot Industrial Area Dhamalpar, GIDC, Rajkot - 360003, Dist.Rajkot, Gujarat",7942711689,
"CRADLE TOGS Baby muslin washable cloth diaper, Age Group: Newly Born, Packaging Size: 6 PC in One Poypack",https://www.indiamart.com/proddetail/baby-muslin-washable-cloth-diaper-24419981962.html?pos=25&kwd=baby cloth diapers&tags=A||||8752.144|Price|product|||TS|rsf:gd-|-stype:attr=1|qr_nm:gd|res:RC4|com-cf:nl|ptrs:na|ktp:N0|mc:55657|mtp:S|qry_typ:P|lang:en|wc:3|cs:8845|v=4,Man Singh & Sons Private Limited,https://www.babyproductsmanufacturer.com/?pos=25&kwd=baby cloth diapers&tags=A||||8752.144|Price|product|||TS|rsf:gd-|-stype:attr=1|qr_nm:gd|res:RC4|com-cf:nl|ptrs:na|ktp:N0|mc:55657|mtp:S|qry_typ:P|lang:en|wc:3|cs:8845|v=4,False,Karol Bagh,New Delhi,"No. 13/24, 1st Floor, W. E. A., Karol Bagh, Karol Bagh, New Delhi - 110005, Dist.Delhi, Delhi",8048978579,
Cotton BeBe Baby Diaper Pants - Large,https://www.indiamart.com/proddetail/bebe-baby-diaper-pants-large-2852422632473.html?pos=26&kwd=baby cloth diapers&tags=BA||||8954.051|Price|product|||TS|rsf:gd-|-stype:attr=1|qr_nm:gd|res:RC4|com-cf:nl|ptrs:na|ktp:N0|mc:55657|mtp:S|qry_typ:P|lang:en|wc:3|cs:8845|v=4,Immanlyn Old Age Traders,https://www.immanlyn.in/?pos=26&kwd=baby cloth diapers&tags=BA||||8954.051|Price|product|||TS|rsf:gd-|-stype:attr=1|qr_nm:gd|res:RC4|com-cf:nl|ptrs:na|ktp:N0|mc:55657|mtp:S|qry_typ:P|lang:en|wc:3|cs:8845|v=4,False,T Nagar,Chennai,"Old No 6 New No 15, Saravana Street, T Nagar, T Nagar, Chennai - 600017, Dist.Chennai, Tamil Nadu",8046053387,
Reusable Baby Cloth Diapers,https://www.indiamart.com/proddetail/reusable-baby-cloth-diapers-2853426200762.html?pos=27&kwd=baby cloth diapers&tags=A||||8662.111|Price|product|||TS|rsf:gd-|-stype:attr=1|qr_nm:gd|res:RC4|com-cf:nl|ptrs:na|ktp:N0|mc:55657|mtp:S|qry_typ:P|lang:en|wc:3|cs:8845|v=4,Rovee Garments,https://www.indiamart.com/rovee-garments/?pos=27&kwd=baby cloth diapers&tags=A||||8662.111|Price|product|||TS|rsf:gd-|-stype:attr=1|qr_nm:gd|res:RC4|com-cf:nl|ptrs:na|ktp:N0|mc:55657|mtp:S|qry_typ:P|lang:en|wc:3|cs:8845|v=4,False,State Bank Colony,Tirunelveli,"70, State Bank Colony, Ezhil Nagar, Ngo A Colony, State Bank Colony, Tirunelveli - 627007, Dist.Tirunelveli, Tamil Nadu",7942840922,
"Reusable Cloth Baby Diapers, Size: Free Size, Age Group: Newly Born",https://www.indiamart.com/proddetail/reusable-cloth-baby-diapers-24162496555.html?pos=28&kwd=baby cloth diapers&tags=A||||8752.144|Price|product|||TS|rsf:gd-|-stype:attr=1|qr_nm:gd|res:RC4|com-cf:nl|ptrs:na|ktp:N0|mc:55657|mtp:S|qry_typ:P|lang:en|wc:3|cs:8845|v=4,Menka Enterprises,https://www.indiamart.com/menka-enterprises/?pos=28&kwd=baby cloth diapers&tags=A||||8752.144|Price|product|||TS|rsf:gd-|-stype:attr=1|qr_nm:gd|res:RC4|com-cf:nl|ptrs:na|ktp:N0|mc:55657|mtp:S|qry_typ:P|lang:en|wc:3|cs:8845|v=4,False,Bawana,New Delhi,"N-275, Sector 1, Bawana Industrial Area, Bawana, New Delhi - 110039, Dist.Delhi, Delhi",8047644299,
"Baby Cloth Diaper, Size: Adjustable size, Age Group: 3-12 Months",https://www.indiamart.com/proddetail/baby-cloth-diaper-2851096779533.html?pos=29&kwd=baby cloth diapers&tags=A||||8752.144|Price|product|||TS|rsf:gd-|-stype:attr=1|qr_nm:gd|res:RC4|com-cf:nl|ptrs:na|ktp:N0|mc:55657|mtp:S|qry_typ:P|lang:en|wc:3|cs:8845|v=4,Manvi Wellness India Private Limited,https://www.manviwellness.com/?pos=29&kwd=baby cloth diapers&tags=A||||8752.144|Price|product|||TS|rsf:gd-|-stype:attr=1|qr_nm:gd|res:RC4|com-cf:nl|ptrs:na|ktp:N0|mc:55657|mtp:S|qry_typ:P|lang:en|wc:3|cs:8845|v=4,False,Narela,New Delhi,"E 910, Dsidc Narela, Narela, New Delhi - 110040, Dist.Delhi, Delhi",7942832529,
"Baby Cloth Diaper, Medium, Age Group: Newly Born",https://www.indiamart.com/proddetail/baby-cloth-diaper-2855098604662.html?pos=30&kwd=baby cloth diapers&tags=A||||8584.299|Price|product|||TS|rsf:gd-|-stype:attr=1|qr_nm:gd|res:RC4|com-cf:nl|ptrs:na|ktp:N0|mc:55657|mtp:S|qry_typ:P|lang:en|wc:3|cs:8845|v=4,Enora Naturals Enterprises,https://www.enoranaturals.co.in/?pos=30&kwd=baby cloth diapers&tags=A||||8584.299|Price|product|||TS|rsf:gd-|-stype:attr=1|qr_nm:gd|res:RC4|com-cf:nl|ptrs:na|ktp:N0|mc:55657|mtp:S|qry_typ:P|lang:en|wc:3|cs:8845|v=4,False,Velandi Palayam,Coimbatore,"6b, Karuppakonar Street, Kovilmedu, Kovai Corporation, Velandi Palayam, Velandi Palayam, Coimbatore - 641025, Dist.Coimbatore, Tamil Nadu",8044010068,
"Baby Reusable Cloth Diaper, Medium, Age Group: 1to2 Years",https://www.indiamart.com/proddetail/baby-reusable-cloth-diaper-2854510668688.html?pos=31&kwd=baby cloth diapers&tags=A||||8230.883|Price|product|||TS|rsf:gd-|-stype:attr=1|qr_nm:gd|res:RC4|com-cf:nl|ptrs:na|ktp:N0|mc:55657|mtp:S|qry_typ:P|lang:en|wc:3|cs:8845|v=4,BABYHOLIC,https://www.babyholic.in/?pos=31&kwd=baby cloth diapers&tags=A||||8230.883|Price|product|||TS|rsf:gd-|-stype:attr=1|qr_nm:gd|res:RC4|com-cf:nl|ptrs:na|ktp:N0|mc:55657|mtp:S|qry_typ:P|lang:en|wc:3|cs:8845|v=4,False,,Surat,"Ground Floor, Plot No. F/56/, And F/57, Laxmi Narayan Industrial Estate, Udhana, Kailash Fashion, Surat - 394210, Dist.Surat, Gujarat",8045732096,
"Baby Cloth Diaper, Size: Regular, Age Group: 0 to 1 years",https://www.indiamart.com/proddetail/baby-cloth-diaper-27456609588.html?pos=32&kwd=baby cloth diapers&tags=A||||8785.791|Price|product|||MDC|rsf:gd-|-stype:attr=1|qr_nm:gd|res:RC4|com-cf:nl|ptrs:na|ktp:N0|mc:55657|mtp:S|qry_typ:P|lang:en|wc:3|cs:8845|v=4,First Smile Enterprises,https://www.indiamart.com/firstsmileenterprises/?pos=32&kwd=baby cloth diapers&tags=A||||8785.791|Price|product|||MDC|rsf:gd-|-stype:attr=1|qr_nm:gd|res:RC4|com-cf:nl|ptrs:na|ktp:N0|mc:55657|mtp:S|qry_typ:P|lang:en|wc:3|cs:8845|v=4,False,Ahmed Nagar Nawada,Ghaziabad,"Khasra No 263, New Anand Vihar, Loni,, Ahmed Nagar Nawada, Ghaziabad - 201102, Dist.Ghaziabad, Uttar Pradesh",8043850100,
"Baby Cloth Diaper, Age Group: free size",https://www.indiamart.com/proddetail/baby-cloth-diaper-2851746533955.html?pos=33&kwd=baby cloth diapers&tags=A||||8752.144|Price|product|||MDC|rsf:gd-|-stype:attr=1|qr_nm:gd|res:RC4|com-cf:nl|ptrs:na|ktp:N0|mc:55657|mtp:S|qry_typ:P|lang:en|wc:3|cs:8845|v=4,B-Qube Enterprises,https://www.indiamart.com/bqube-enterprises/?pos=33&kwd=baby cloth diapers&tags=A||||8752.144|Price|product|||MDC|rsf:gd-|-stype:attr=1|qr_nm:gd|res:RC4|com-cf:nl|ptrs:na|ktp:N0|mc:55657|mtp:S|qry_typ:P|lang:en|wc:3|cs:8845|v=4,False,Karol Bagh,New Delhi,"303, Iiird Floor,13/4, W.E.A.,Karol Bagh, Karol Bagh, New Delhi - 110005, Dist.Delhi, Delhi",8047313183,
Plain Baby Cloth Langot,https://www.indiamart.com/proddetail/plain-baby-cloth-langot-2854594920112.html?pos=34&kwd=baby cloth diapers&tags=A||||8876.815|Price|product|||MDC|rsf:gd-|-stype:attr=1|qr_nm:gd|res:RC4|com-cf:nl|ptrs:na|ktp:N0|mc:55657|mtp:S|qry_typ:P|lang:en|wc:3|cs:8845|v=4,Good Luck Trading,https://www.indiamart.com/goodlucktrading-nagpur/?pos=34&kwd=baby cloth diapers&tags=A||||8876.815|Price|product|||MDC|rsf:gd-|-stype:attr=1|qr_nm:gd|res:RC4|com-cf:nl|ptrs:na|ktp:N0|mc:55657|mtp:S|qry_typ:P|lang:en|wc:3|cs:8845|v=4,False,,Nagpur,"Plot No. 807, Dharamchaya Fawara Chowk Builing, Nikalas Mandir Road, Itwari, Nagpur - 440002, Dist.Nagpur, Maharashtra",8041014474,
"Kids Diaper, Small, Age Group: 3to12 Months",https://www.indiamart.com/proddetail/kids-diaper-2854774625830.html?pos=35&kwd=baby cloth diapers&tags=A||||8752.144|Price|product|||MDC|rsf:gd-|-stype:attr=1|qr_nm:gd|res:RC4|com-cf:nl|ptrs:na|ktp:N0|mc:55657|mtp:S|qry_typ:P|lang:en|wc:3|cs:8845|v=4,Ayavic Products Enterprises,https://www.indiamart.com/ayavic-products-enterprises/?pos=35&kwd=baby cloth diapers&tags=A||||8752.144|Price|product|||MDC|rsf:gd-|-stype:attr=1|qr_nm:gd|res:RC4|com-cf:nl|ptrs:na|ktp:N0|mc:55657|mtp:S|qry_typ:P|lang:en|wc:3|cs:8845|v=4,False,(West),New Delhi,"Ground Floor,H No. 169, Shop No.2, Uttam Nagar, Vipin Garden Extension, (West), New Delhi - 110059, Dist.Delhi, Delhi",8044564544,
"Off White Disposable Cotton Muslin Nappies, Medium",https://www.indiamart.com/proddetail/cotton-muslin-nappies-25739579448.html?pos=36&kwd=baby cloth diapers&tags=A||||8626.744|Price|product|||MDC|rsf:gd-|-stype:attr=1|qr_nm:gd|res:RC4|com-cf:nl|ptrs:na|ktp:N0|mc:55657|mtp:S|qry_typ:P|lang:en|wc:3|cs:8845|v=4,Thoni Eswar Exports,https://www.indiamart.com/thoni-eswar-exports/?pos=36&kwd=baby cloth diapers&tags=A||||8626.744|Price|product|||MDC|rsf:gd-|-stype:attr=1|qr_nm:gd|res:RC4|com-cf:nl|ptrs:na|ktp:N0|mc:55657|mtp:S|qry_typ:P|lang:en|wc:3|cs:8845|v=4,False,,Tiruppur,"5/7, Church Street, Avinashi Road, Tiruppur - 641603, Dist.Coimbatore, Tamil Nadu",7942621102,
"Baby Washable Diaper, Age Group: Newly Born",https://www.indiamart.com/proddetail/baby-washable-diaper-2852682816273.html?pos=37&kwd=baby cloth diapers&tags=A||||8211.142|Price|product|||TS|rsf:gd-|-stype:attr=1|qr_nm:gd|res:RC4|com-cf:nl|ptrs:na|ktp:N0|mc:55657|mtp:S|qry_typ:P|lang:en|wc:3|cs:8845|v=4,Parass Trading,https://www.indiamart.com/parasstrading/?pos=37&kwd=baby cloth diapers&tags=A||||8211.142|Price|product|||TS|rsf:gd-|-stype:attr=1|qr_nm:gd|res:RC4|com-cf:nl|ptrs:na|ktp:N0|mc:55657|mtp:S|qry_typ:P|lang:en|wc:3|cs:8845|v=4,False,Chembur,Mumbai,"Room no 3, First Floor, Plot no 39, Next to Shivaji Nagar police station,Kherwadi Plot no 39, Chembur, Mumbai - 400071, Dist.Mumbai, Maharashtra",8047631170,
"Baby Cloth Diaper, Medium, Age Group: Newly Born",https://www.indiamart.com/proddetail/baby-cloth-diaper-2854243426930.html?pos=38&kwd=baby cloth diapers&tags=A||||8228.275|Price|product|||SSnp|rsf:gd-|-stype:attr=1|qr_nm:gd|res:RC4|com-cf:nl|ptrs:na|ktp:N0|mc:55657|mtp:S|qry_typ:P|lang:en|wc:3|cs:8845|v=4,King Enterprise,https://www.kingenterpriseindia.com/?pos=38&kwd=baby cloth diapers&tags=A||||8228.275|Price|product|||SSnp|rsf:gd-|-stype:attr=1|qr_nm:gd|res:RC4|com-cf:nl|ptrs:na|ktp:N0|mc:55657|mtp:S|qry_typ:P|lang:en|wc:3|cs:8845|v=4,False,Opp. Haripura Bus Stand,Ahmedabad,"Block- E 28, Ground Floor, Abhishek Estate-1, Opp. Haripura Bus Stand, Ahmedabad - 380016, Dist.Ahmedabad, Gujarat",8047632934,
"Newborn Baby Reusable Clothes Diapers / langot, Size: Medium, Age Group: Newly Born",https://www.indiamart.com/proddetail/infant-reusable-baby-nappies-2853435313191.html?pos=39&kwd=baby cloth diapers&tags=BA||||8559.269|Price|product|||MDC|rsf:gd-|-stype:attr=1|qr_nm:gd|res:RC4|com-cf:nl|ptrs:na|ktp:N0|mc:55657|mtp:S|qry_typ:P|lang:en|wc:3|cs:8845|v=4,Sheza Enterprises,https://www.indiamart.com/shezaenterprises/?pos=39&kwd=baby cloth diapers&tags=BA||||8559.269|Price|product|||MDC|rsf:gd-|-stype:attr=1|qr_nm:gd|res:RC4|com-cf:nl|ptrs:na|ktp:N0|mc:55657|mtp:S|qry_typ:P|lang:en|wc:3|cs:8845|v=4,False,,Indore,"Alif House, 5, Khajrana Main Road, Opposite HP Petrol Pump,, Indore - 452001, Dist.Indore, Madhya Pradesh",7948547068,
White Cotton Baby Diaper,https://www.indiamart.com/proddetail/cotton-baby-diaper-2849669686273.html?pos=40&kwd=baby cloth diapers&tags=A||||8823.154|Price|product|||TS|rsf:gd-|-stype:attr=1|qr_nm:gd|res:RC4|com-cf:nl|ptrs:na|ktp:N0|mc:55657|mtp:S|qry_typ:P|lang:en|wc:3|cs:8845|v=4,Sahaj Enterprises,https://www.compulsory.co.in/?pos=40&kwd=baby cloth diapers&tags=A||||8823.154|Price|product|||TS|rsf:gd-|-stype:attr=1|qr_nm:gd|res:RC4|com-cf:nl|ptrs:na|ktp:N0|mc:55657|mtp:S|qry_typ:P|lang:en|wc:3|cs:8845|v=4,False,Sikandra,Agra,"13/18-A, Avas Vikas Colony, Sikandra, Sikandra, Agra - 282007, Dist.Agra, Uttar Pradesh",8047639490,
"Baby Cloth Diapers, Medium, Age Group: Newly Born",https://www.indiamart.com/proddetail/baby-cloth-diapers-2854912260988.html?pos=41&kwd=baby cloth diapers&tags=A||||8817.752||product|||MDC|rsf:gd-|-stype:attr=1|qr_nm:gd|res:RC4|com-cf:nl|ptrs:na|ktp:N0|mc:55657|mtp:S|qry_typ:P|lang:en|wc:3|cs:8845|v=4,Bhagwati Collection,https://www.indiamart.com/bhagwati-collection-hapur/?pos=41&kwd=baby cloth diapers&tags=A||||8817.752||product|||MDC|rsf:gd-|-stype:attr=1|qr_nm:gd|res:RC4|com-cf:nl|ptrs:na|ktp:N0|mc:55657|mtp:S|qry_typ:P|lang:en|wc:3|cs:8845|v=4,False,,Hapur,"Mukesh Garg, Krishna Gali, Khurja Pech Doymi Opp Ram Tent House, Hapur - 245101, Dist.Hapur, Uttar Pradesh",8041015469,
Baby Muslin Cotton Cloth Nappy,,Rakshita Exports,https://www.indiamart.com/rakshita-exports/?pos=42&kwd=baby cloth diapers&tags=A||||8668.838|Price|product|||MDC|rsf:gd-|-stype:attr=1|qr_nm:gd|res:RC4|com-cf:nl|ptrs:na|ktp:N0|mc:55657|mtp:S|qry_typ:P|lang:en|wc:3|cs:8845|v=4,False,erode,Erode,"95/1, Bagiya Complex, Nasiyanur Road, Ondikkaranpalayam, erode, Erode - 638107, Dist.Erode, Tamil Nadu",7942708189,
"White Baby Cotton Cloth Nappies, Medium, Age Group: 3to12 Months",https://www.indiamart.com/proddetail/white-baby-cotton-cloth-nappies-2854719970012.html?pos=43&kwd=baby cloth diapers&tags=BA||||8954.051|Price|product|||MDC|rsf:gd-|-stype:attr=1|qr_nm:gd|res:RC4|com-cf:nl|ptrs:na|ktp:N0|mc:55657|mtp:S|qry_typ:P|lang:en|wc:3|cs:8845|v=4,Tender Babe,https://www.indiamart.com/tenderbabe-chennai/?pos=43&kwd=baby cloth diapers&tags=BA||||8954.051|Price|product|||MDC|rsf:gd-|-stype:attr=1|qr_nm:gd|res:RC4|com-cf:nl|ptrs:na|ktp:N0|mc:55657|mtp:S|qry_typ:P|lang:en|wc:3|cs:8845|v=4,False,Tiruvallur,Chennai,"196/2A, Annai Teresa Street, Kavarapalayam Main Road,, Siranjivi Nagar, Avadi,, Tiruvallur, Chennai - 600054, Dist.Chennai, Tamil Nadu",7949323914,
Baby Reusable Cloth Diaper,https://www.indiamart.com/proddetail/baby-reusable-cloth-diaper-14180238891.html?pos=44&kwd=baby cloth diapers&tags=BA||||8211.142|Price|product|||MDC|rsf:gd-|-stype:attr=1|qr_nm:gd|res:RC4|com-cf:nl|ptrs:na|ktp:N0|mc:55657|mtp:S|qry_typ:P|lang:en|wc:3|cs:8845|v=4,Padam Kids,https://www.indiamart.com/padam-kids/?pos=44&kwd=baby cloth diapers&tags=BA||||8211.142|Price|product|||MDC|rsf:gd-|-stype:attr=1|qr_nm:gd|res:RC4|com-cf:nl|ptrs:na|ktp:N0|mc:55657|mtp:S|qry_typ:P|lang:en|wc:3|cs:8845|v=4,False,,Mumbai,"CKP Colony, Near Dargah, Behind Dr. Manish Bhatt Eksar Road, Borivali West, Mumbai - 400092, Dist.Mumbai, Maharashtra",8046057613,
"Baby Printed Cotton Diapers, Size: Small, Age Group: Newly Born",https://www.indiamart.com/proddetail/baby-printed-cotton-diapers-2854041103362.html?pos=45&kwd=baby cloth diapers&tags=BA||||9140.514|Price|product|||MDC|rsf:gd-|-stype:attr=1|qr_nm:gd|res:RC4|com-cf:nl|ptrs:na|ktp:N0|mc:55657|mtp:S|qry_typ:P|lang:en|wc:3|cs:8845|v=4,Shivay Trading & Manufacturing,https://www.indiamart.com/shivaytradingmanufacturing/?pos=45&kwd=baby cloth diapers&tags=BA||||9140.514|Price|product|||MDC|rsf:gd-|-stype:attr=1|qr_nm:gd|res:RC4|com-cf:nl|ptrs:na|ktp:N0|mc:55657|mtp:S|qry_typ:P|lang:en|wc:3|cs:8845|v=4,False,Pandri,Raipur,"Plot No.94, First Floor, Indira Gandhi Vyavsayik Parisar, Cloth Market, Pandri, Pandri, Raipur - 492001, Chhattisgarh",8044012762,
"Polyester Reusable Baby Cloth Diapers, Size: Small, Age Group: 3-12 Months",https://www.indiamart.com/proddetail/reusable-baby-cloth-diapers-26747904791.html?pos=46&kwd=baby cloth diapers&tags=BA||||8752.144|Price|product|||TS|rsf:gd-|-stype:attr=1|qr_nm:gd|res:RC4|com-cf:nl|ptrs:na|ktp:N0|mc:55657|mtp:S|qry_typ:P|lang:en|wc:3|cs:8845|v=4,Insight Products,https://www.indiamart.com/insightproducts/?pos=46&kwd=baby cloth diapers&tags=BA||||8752.144|Price|product|||TS|rsf:gd-|-stype:attr=1|qr_nm:gd|res:RC4|com-cf:nl|ptrs:na|ktp:N0|mc:55657|mtp:S|qry_typ:P|lang:en|wc:3|cs:8845|v=4,False,Bhagwati Garden,New Delhi,"10, Jai Bharat Enclave, Nr. Bhagwati Garden Extn, Mohan Garden, West Delhi, Bhagwati Garden, New Delhi - 110059, Dist.Delhi, Delhi",8043802833,
"Reusable Cloth Baby Diapers, Size: Medium, Age Group: 3-12 Months",https://www.indiamart.com/proddetail/reusable-cloth-baby-diapers-23948417748.html?pos=47&kwd=baby cloth diapers&tags=BA||||8752.144|Price|product|||TS|rsf:gd-|-stype:attr=1|qr_nm:gd|res:RC4|com-cf:nl|ptrs:na|ktp:N0|mc:55657|mtp:S|qry_typ:P|lang:en|wc:3|cs:8845|v=4,Melvis,https://www.indiamart.com/melvis/?pos=47&kwd=baby cloth diapers&tags=BA||||8752.144|Price|product|||TS|rsf:gd-|-stype:attr=1|qr_nm:gd|res:RC4|com-cf:nl|ptrs:na|ktp:N0|mc:55657|mtp:S|qry_typ:P|lang:en|wc:3|cs:8845|v=4,False,Swaroop Nagar,New Delhi,"First Floor, House Number 185/12, Block-B, Yadav Market Road Chowk, Swaroop Nagar,, Swaroop Nagar, New Delhi - 110042, Dist.Delhi, Delhi",8047632851,
Reusable Baby Cloth Diapers,https://www.indiamart.com/proddetail/reusable-baby-cloth-diapers-24033320088.html?pos=48&kwd=baby cloth diapers&tags=BB||||8228.275|Price|product|||TS|rsf:gd-|-stype:attr=1|qr_nm:gd|res:RC4|com-cf:nl|ptrs:na|ktp:N0|mc:55657|mtp:S|qry_typ:P|lang:en|wc:3|cs:8845|v=4,Ful Shanti Gujarat Industries,https://www.fulshanti.in/?pos=48&kwd=baby cloth diapers&tags=BB||||8228.275|Price|product|||TS|rsf:gd-|-stype:attr=1|qr_nm:gd|res:RC4|com-cf:nl|ptrs:na|ktp:N0|mc:55657|mtp:S|qry_typ:P|lang:en|wc:3|cs:8845|v=4,False,Motera,Ahmedabad,"63, 2nd Floor, 4D Square Mall, Visat- Gandhinagar Highway, Motera, Ahmedabad - 382424, Dist.Ahmedabad, Gujarat",8047631899,
"Kidoyzz Cotton Blue Baby Cloth Diapers, Size: Free, Age Group: 3-12 Months",https://www.indiamart.com/proddetail/blue-baby-cloth-diapers-22699211955.html?pos=49&kwd=baby cloth diapers&tags=BB||||8752.144|Price|product|||TS|rsf:gd-|-stype:attr=1|qr_nm:gd|res:RC4|com-cf:nl|ptrs:na|ktp:N0|mc:55657|mtp:S|qry_typ:P|lang:en|wc:3|cs:8845|v=4,Shaifali Traders,https://www.shopphiez.com/?pos=49&kwd=baby cloth diapers&tags=BB||||8752.144|Price|product|||TS|rsf:gd-|-stype:attr=1|qr_nm:gd|res:RC4|com-cf:nl|ptrs:na|ktp:N0|mc:55657|mtp:S|qry_typ:P|lang:en|wc:3|cs:8845|v=4,False,PATPARGANJ,New Delhi,"Plot No 10, main road patparganj ganj, PATPARGANJ, New Delhi - 110091, Dist.Delhi, Delhi",8046033629,
"Reusable Baby Cloth Diapers Insert, Size: Large, Age Group: 3-12 Months",https://www.indiamart.com/proddetail/reusable-baby-cloth-diapers-insert-23204405133.html?pos=50&kwd=baby cloth diapers&tags=BA||||8752.144|Price|product|||TS|rsf:gd-|-stype:attr=1|qr_nm:gd|res:RC4|com-cf:nl|ptrs:na|ktp:N0|mc:55657|mtp:S|qry_typ:P|lang:en|wc:3|cs:8845|v=4,Mom & Son,https://www.theindianchoice.com/?pos=50&kwd=baby cloth diapers&tags=BA||||8752.144|Price|product|||TS|rsf:gd-|-stype:attr=1|qr_nm:gd|res:RC4|com-cf:nl|ptrs:na|ktp:N0|mc:55657|mtp:S|qry_typ:P|lang:en|wc:3|cs:8845|v=4,False,Karawal Nagar,New Delhi,"B-57 Gali Number-1 Mukund Vihar, Near Pnb Bank, Karawal Nagar, New Delhi - 110094, Dist.Delhi, Delhi",7942565509,
"Baby Cloth Diaper, Medium",https://www.indiamart.com/proddetail/baby-cloth-diaper-2853499178712.html?pos=51&kwd=baby cloth diapers&tags=BA||||8584.299|Price|product|||TS|rsf:gd-|-stype:attr=1|qr_nm:gd|res:RC4|com-cf:nl|ptrs:na|ktp:N0|mc:55657|mtp:S|qry_typ:P|lang:en|wc:3|cs:8845|v=4,Sag Industries,https://www.sagbabygro.com/?pos=51&kwd=baby cloth diapers&tags=BA||||8584.299|Price|product|||TS|rsf:gd-|-stype:attr=1|qr_nm:gd|res:RC4|com-cf:nl|ptrs:na|ktp:N0|mc:55657|mtp:S|qry_typ:P|lang:en|wc:3|cs:8845|v=4,False,Ashok Nagar,Coimbatore,"59,,SRI KRISHNA NAGAR,CHOKKAMPUDUR ROAD, Ashok Nagar, Coimbatore - 641001, Dist.Coimbatore, Tamil Nadu",8048959921,
"Baby Cloth Diaper, Size: Medium, Age Group: Newly Born",https://www.indiamart.com/proddetail/baby-cloth-diaper-2358660148.html?pos=52&kwd=baby cloth diapers&tags=BA||||8559.269|Price|product|||TS|rsf:gd-|-stype:attr=1|qr_nm:gd|res:RC4|com-cf:nl|ptrs:na|ktp:N0|mc:55657|mtp:S|qry_typ:P|lang:en|wc:3|cs:8845|v=4,Central India Fabrics,https://www.centralindiafabrics.net/?pos=52&kwd=baby cloth diapers&tags=BA||||8559.269|Price|product|||TS|rsf:gd-|-stype:attr=1|qr_nm:gd|res:RC4|com-cf:nl|ptrs:na|ktp:N0|mc:55657|mtp:S|qry_typ:P|lang:en|wc:3|cs:8845|v=4,True,Avantika Nagar,Indore,"2/A/C, Sector D, Sanwer Road Opposite Bandganga Police Station, Avantika Nagar, Indore - 452015, Dist.Indore, Madhya Pradesh",8048965370,
"Baby Cloth Diaper, Small, Age Group: 3to12 Months",https://www.indiamart.com/proddetail/baby-cloth-diaper-2853717099391.html?pos=53&kwd=baby cloth diapers&tags=BA||||8752.144|Price|product|||TS|rsf:gd-|-stype:attr=1|qr_nm:gd|res:RC4|com-cf:nl|ptrs:na|ktp:N0|mc:55657|mtp:S|qry_typ:P|lang:en|wc:3|cs:8845|v=4,Sri Rajbhan Enterprises,https://www.indiamart.com/srirajbhanenterprises/?pos=53&kwd=baby cloth diapers&tags=BA||||8752.144|Price|product|||TS|rsf:gd-|-stype:attr=1|qr_nm:gd|res:RC4|com-cf:nl|ptrs:na|ktp:N0|mc:55657|mtp:S|qry_typ:P|lang:en|wc:3|cs:8845|v=4,False,,New Delhi,"Flat No 18, Ganga Apartment, Alaknanda, New Delhi - 110019, Dist.Delhi, Delhi",7942956951,
"Reusable Baby Cloth Diaper Nappies, Size: S / M / L, Age Group: Newly Born",https://www.indiamart.com/proddetail/reusable-baby-cloth-diaper-nappies-27439987062.html?pos=54&kwd=baby cloth diapers&tags=BA||||8626.744|Price|product|||TS|rsf:gd-|-stype:attr=1|qr_nm:gd|res:RC4|com-cf:nl|ptrs:na|ktp:N0|mc:55657|mtp:S|qry_typ:P|lang:en|wc:3|cs:8845|v=4,Pivotaal Branding Solutions,https://www.pivotaal.com/?pos=54&kwd=baby cloth diapers&tags=BA||||8626.744|Price|product|||TS|rsf:gd-|-stype:attr=1|qr_nm:gd|res:RC4|com-cf:nl|ptrs:na|ktp:N0|mc:55657|mtp:S|qry_typ:P|lang:en|wc:3|cs:8845|v=4,False,Gandhi Nagar,Tiruppur,"4th Street Gandhi Nagar, 10/16, Behind Daisy Hospital, Gandhi Nagar, Tiruppur - 641603, Dist.Coimbatore, Tamil Nadu",7942671456,
"Baby Reusable Diapers, Size: Free Size, Age Group: 3 Year",https://www.indiamart.com/proddetail/baby-reusable-diapers-2851750724812.html?pos=55&kwd=baby cloth diapers&tags=BA||||8723.301|Price|product|||TS|rsf:gd-|-stype:attr=1|qr_nm:gd|res:RC4|com-cf:nl|ptrs:na|ktp:N0|mc:55657|mtp:S|qry_typ:P|lang:en|wc:3|cs:8845|v=4,Aadarsh Technosoft Private Limited,https://www.aadarshtechnosoft.in/?pos=55&kwd=baby cloth diapers&tags=BA||||8723.301|Price|product|||TS|rsf:gd-|-stype:attr=1|qr_nm:gd|res:RC4|com-cf:nl|ptrs:na|ktp:N0|mc:55657|mtp:S|qry_typ:P|lang:en|wc:3|cs:8845|v=4,False,Shahpura,Bhopal,"B 244 Shahpura Road, Shahpura, Bhopal - 462016, Dist.Bhopal, Madhya Pradesh",7942874746,
Fairbizps Soft Cotton Baby Langot Cloth Diapers Washable Skin Friendly Baby Langot Reusable Cloth Nappies - Set Of 6 (pink Blue And Orange),https://www.indiamart.com/proddetail/fairbizps-soft-cotton-baby-langot-cloth-diapers-washable-skin-friendly-baby-langot-reusable-cloth-nappies-set-of-6-pink-blue-and-orange-2852003129012.html?pos=56&kwd=baby cloth diapers&tags=BB||||8752.144|Price|product|||TS|rsf:gd-|-stype:attr=1|qr_nm:gd|res:RC4|com-cf:nl|ptrs:na|ktp:N0|mc:55657|mtp:S|qry_typ:P|lang:en|wc:3|cs:8845|v=4,Fairbizps,https://www.indiamart.com/fairbizps/?pos=56&kwd=baby cloth diapers&tags=BB||||8752.144|Price|product|||TS|rsf:gd-|-stype:attr=1|qr_nm:gd|res:RC4|com-cf:nl|ptrs:na|ktp:N0|mc:55657|mtp:S|qry_typ:P|lang:en|wc:3|cs:8845|v=4,True,Laxmi Nagar,New Delhi,"No. 348/4A, Asha Ram, Street No. 4, Subedar Chowk Mandawali, Laxmi Nagar, New Delhi - 110092, Dist.Delhi, Delhi",,
Reusable And Washable Baby Cloth Diaper With 3 Layer,https://www.indiamart.com/proddetail/reusable-and-washable-baby-cloth-diaper-with-3-layer-2852087165797.html?pos=57&kwd=baby cloth diapers&tags=BA||||8230.883|Price|product|||TS|rsf:gd-|-stype:attr=1|qr_nm:gd|res:RC4|com-cf:nl|ptrs:na|ktp:N0|mc:55657|mtp:S|qry_typ:P|lang:en|wc:3|cs:8845|v=4,Global Teraxo (Surat),https://www.indiamart.com/global-teraxo-surat/?pos=57&kwd=baby cloth diapers&tags=BA||||8230.883|Price|product|||TS|rsf:gd-|-stype:attr=1|qr_nm:gd|res:RC4|com-cf:nl|ptrs:na|ktp:N0|mc:55657|mtp:S|qry_typ:P|lang:en|wc:3|cs:8845|v=4,False,Bardoli,Surat,"1021, VIKAS LOGISTIC PARK, SAROLI, Bardoli, Surat - 394601, Dist.Surat, Gujarat",8046032044,
2 Colors Baby Reusable Cloth Diaper Solid Color with 2 Dry feel Inserts Free size for Babies Diapers,https://www.indiamart.com/proddetail/2-colors-baby-reusable-cloth-diaper-solid-color-with-2-dry-feel-inserts-free-size-for-babies-diapers-25827298230.html?pos=58&kwd=baby cloth diapers&tags=BB||||8752.144|Price|product|||SSnp|rsf:gd-|-stype:attr=1|qr_nm:gd|res:RC4|com-cf:nl|ptrs:na|ktp:N0|mc:55657|mtp:S|qry_typ:P|lang:en|wc:3|cs:8845|v=4,JJ Enterprises,https://www.indiamart.com/j-jenterprises-delhi/?pos=58&kwd=baby cloth diapers&tags=BB||||8752.144|Price|product|||SSnp|rsf:gd-|-stype:attr=1|qr_nm:gd|res:RC4|com-cf:nl|ptrs:na|ktp:N0|mc:55657|mtp:S|qry_typ:P|lang:en|wc:3|cs:8845|v=4,False,Mandoli,New Delhi,"J-8, GATE NO-4, 2ND FLOOR MELA RAM FARM HOUSE SEWADHAM ROAD MANDOLI, Mandoli, New Delhi - 110093, Dist.Delhi, Delhi",8048605736,
"Baby Dress, Clothing Readymade Garments Manufacturer & Wholesale Supplier India - Baby Nappy, Diaper",https://www.indiamart.com/proddetail/baby-dress-clothing-readymade-garments-manufacturer-wholesale-supplier-india-baby-nappy-diaper-20970826548.html?pos=59&kwd=baby cloth diapers&tags=BA||||8668.838|Price|product|||TS|rsf:gd-|-stype:attr=1|qr_nm:gd|res:RC4|com-cf:nl|ptrs:na|ktp:N0|mc:55657|mtp:S|qry_typ:P|lang:en|wc:3|cs:8845|v=4,Sri Kalyan Export Private Limited,https://www.firstinbabydress.com/?pos=59&kwd=baby cloth diapers&tags=BA||||8668.838|Price|product|||TS|rsf:gd-|-stype:attr=1|qr_nm:gd|res:RC4|com-cf:nl|ptrs:na|ktp:N0|mc:55657|mtp:S|qry_typ:P|lang:en|wc:3|cs:8845|v=4,False,Vilarasampatti,Erode,"192/4, Ishwarya Garden, Sengodampalayam, Villarasampatti Post, Erode,, Vilarasampatti, Erode - 638107, Dist.Erode, Tamil Nadu",8046030291,
Kids Diaper,https://www.indiamart.com/proddetail/kids-diaper-2854622347962.html?pos=60&kwd=baby cloth diapers&tags=BB||||8601.347|Price|product|||TS|rsf:gd-|-stype:attr=1|qr_nm:gd|res:RC4|com-cf:nl|ptrs:na|ktp:N0|mc:55657|mtp:S|qry_typ:P|lang:en|wc:3|cs:8845|v=4,JSM Traders,https://www.indiamart.com/jsmtraders/?pos=60&kwd=baby cloth diapers&tags=BB||||8601.347|Price|product|||TS|rsf:gd-|-stype:attr=1|qr_nm:gd|res:RC4|com-cf:nl|ptrs:na|ktp:N0|mc:55657|mtp:S|qry_typ:P|lang:en|wc:3|cs:8845|v=4,False,Jhotwara,Jaipur,"47-A, Shivpuri Colony, Jhotwara, Jhotwara, Jaipur - 302012, Dist.Jaipur, Rajasthan",8046059170,
Hello Sweety Cotton Baby Diaper,https://www.indiamart.com/proddetail/hello-sweety-cotton-baby-diaper-2852720168255.html?pos=61&kwd=baby cloth diapers&tags=BA||||8559.269|Price|product|||TS|rsf:gd-|-stype:attr=1|qr_nm:gd|res:RC4|com-cf:nl|ptrs:na|ktp:N0|mc:55657|mtp:S|qry_typ:P|lang:en|wc:3|cs:8845|v=4,Aadaarsh Enterprise,https://www.hellosweetybabydaiper.com/?pos=61&kwd=baby cloth diapers&tags=BA||||8559.269|Price|product|||TS|rsf:gd-|-stype:attr=1|qr_nm:gd|res:RC4|com-cf:nl|ptrs:na|ktp:N0|mc:55657|mtp:S|qry_typ:P|lang:en|wc:3|cs:8845|v=4,False,,Indore,"2,Sher Shah Suri Nagar B, Khajrana, Indore - 452001, Dist.Indore, Madhya Pradesh",8043879050,
"Double Cloth Cotton Nappy, Size: Medium, Age Group: Newly Born",https://www.indiamart.com/proddetail/double-cloth-cotton-nappy-4314678055.html?pos=62&kwd=baby cloth diapers&tags=BA||||8785.791|Price|product|||TS|rsf:gd-|-stype:attr=1|qr_nm:gd|res:RC4|com-cf:nl|ptrs:na|ktp:N0|mc:55657|mtp:S|qry_typ:P|lang:en|wc:3|cs:8845|v=4,Ilaki Intercraft (India),https://www.indiamart.com/ilakiintercraft/?pos=62&kwd=baby cloth diapers&tags=BA||||8785.791|Price|product|||TS|rsf:gd-|-stype:attr=1|qr_nm:gd|res:RC4|com-cf:nl|ptrs:na|ktp:N0|mc:55657|mtp:S|qry_typ:P|lang:en|wc:3|cs:8845|v=4,False,Tronica City,Ghaziabad,"D-69 Sector D-1 Tronica City, Tronica City, Ghaziabad - 201103, Dist.Ghaziabad, Uttar Pradesh",7942552124,
Glow in The Dark Radium Blanket for Kids Super Soft & Warm Glowing Blanket All Seasons Baby Blanket,https://www.indiamart.com/proddetail/glow-in-the-dark-radium-blanket-for-kids-super-soft-warm-glowing-blanket-all-seasons-baby-blanket-2851232107133.html?pos=63&kwd=baby cloth diapers&tags=BA||||8752.144|Price|product|||TS|rsf:gd-|-stype:attr=1|qr_nm:gd|res:RC4|com-cf:nl|ptrs:na|ktp:N0|mc:55657|mtp:S|qry_typ:P|lang:en|wc:3|cs:8845|v=4,Instabuyz,https://www.indiamart.com/instabuyz/?pos=63&kwd=baby cloth diapers&tags=BA||||8752.144|Price|product|||TS|rsf:gd-|-stype:attr=1|qr_nm:gd|res:RC4|com-cf:nl|ptrs:na|ktp:N0|mc:55657|mtp:S|qry_typ:P|lang:en|wc:3|cs:8845|v=4,False,Paschim Vihar,New Delhi,"GH-4/319, Meera Apartments, Paschim Vihar, West Delhi, Paschim Vihar, New Delhi - 110063, Dist.Delhi, Delhi",8047696143,
Unisex Reusable Baby Cloth Diapers,https://www.indiamart.com/proddetail/reusable-baby-cloth-diapers-24461968997.html?pos=64&kwd=baby cloth diapers&tags=BA||||8662.111|Price|product|||MDC|rsf:gd-|-stype:attr=1|qr_nm:gd|res:RC4|com-cf:nl|ptrs:na|ktp:N0|mc:55657|mtp:S|qry_typ:P|lang:en|wc:3|cs:8845|v=4,Habibi,https://www.indiamart.com/habibi/?pos=64&kwd=baby cloth diapers&tags=BA||||8662.111|Price|product|||MDC|rsf:gd-|-stype:attr=1|qr_nm:gd|res:RC4|com-cf:nl|ptrs:na|ktp:N0|mc:55657|mtp:S|qry_typ:P|lang:en|wc:3|cs:8845|v=4,False,Melapalayam,Tirunelveli,"No.12/16E/2F Hameempuram North Street Palayamkottai, Melapalayam, Tirunelveli - 627005, Dist.Tirunelveli, Tamil Nadu",7942547388,
"Baby Cotton Cloth Diapers, Age Group: Newly Born",https://www.indiamart.com/proddetail/baby-cotton-cloth-diapers-2853262387333.html?pos=65&kwd=baby cloth diapers&tags=BA||||8752.144|Price|product|||MDC|rsf:gd-|-stype:attr=1|qr_nm:gd|res:RC4|com-cf:nl|ptrs:na|ktp:N0|mc:55657|mtp:S|qry_typ:P|lang:en|wc:3|cs:8845|v=4,A.D. Enterprises,https://www.indiamart.com/adenterprises-burari-newdelhi/?pos=65&kwd=baby cloth diapers&tags=BA||||8752.144|Price|product|||MDC|rsf:gd-|-stype:attr=1|qr_nm:gd|res:RC4|com-cf:nl|ptrs:na|ktp:N0|mc:55657|mtp:S|qry_typ:P|lang:en|wc:3|cs:8845|v=4,False,North,New Delhi,"K.No-12/1, Main 25 FT. Road, Near Shyam Sweets, Uttranchal Enclave ,Kamal Pur, Burari, North, New Delhi - 110084, Dist.Delhi, Delhi",8044565004,
"Washable Baby Cloth Diapers, Size: Large, Age Group: 3to12 Months",https://www.indiamart.com/proddetail/washable-baby-cloth-diapers-2853528136573.html?pos=66&kwd=baby cloth diapers&tags=BA||||8785.791|Price|product|||MDC|rsf:gd-|-stype:attr=1|qr_nm:gd|res:RC4|com-cf:nl|ptrs:na|ktp:N0|mc:55657|mtp:S|qry_typ:P|lang:en|wc:3|cs:8845|v=4,Rajput Enterprises,https://www.indiamart.com/rajputenterprises-uttarpradesh/?pos=66&kwd=baby cloth diapers&tags=BA||||8785.791|Price|product|||MDC|rsf:gd-|-stype:attr=1|qr_nm:gd|res:RC4|com-cf:nl|ptrs:na|ktp:N0|mc:55657|mtp:S|qry_typ:P|lang:en|wc:3|cs:8845|v=4,False,Vaishali,Ghaziabad,"5/598, Vaishali, Ghaziabad, Vaishali, Ghaziabad - 201019, Dist.Ghaziabad, Uttar Pradesh",7942800806,
"Cotton Reusable Baby Cloth Diapers, Size: S / M / L / XL, Packaging Size: 1 Diaper With 1 Insert Pad",https://www.indiamart.com/proddetail/reusable-baby-cloth-diapers-24179014648.html?pos=67&kwd=baby cloth diapers&tags=BB||||8584.299|Price|product|||MDC|rsf:gd-|-stype:attr=1|qr_nm:gd|res:RC4|com-cf:nl|ptrs:na|ktp:N0|mc:55657|mtp:S|qry_typ:P|lang:en|wc:3|cs:8845|v=4,Coatex,https://www.indiamart.com/coatex/?pos=67&kwd=baby cloth diapers&tags=BB||||8584.299|Price|product|||MDC|rsf:gd-|-stype:attr=1|qr_nm:gd|res:RC4|com-cf:nl|ptrs:na|ktp:N0|mc:55657|mtp:S|qry_typ:P|lang:en|wc:3|cs:8845|v=4,False,Kurichchi,Coimbatore,",V3,Sreevatsa Hillview, Kovaipudur Road,Sree Vatsahillview, Kurichchi, Coimbatore - 641669, Dist.Coimbatore, Tamil Nadu",8048964471,
"Chia Cotton Reusable Baby Cloth Diapers, Age Group: 1-2 Years, Packaging Size: Transparent Polythene Pack",https://www.indiamart.com/proddetail/reusable-baby-cloth-diapers-24334195633.html?pos=68&kwd=baby cloth diapers&tags=BA||||8228.275|Price|product|||MDC|rsf:gd-|-stype:attr=1|qr_nm:gd|res:RC4|com-cf:nl|ptrs:na|ktp:N0|mc:55657|mtp:S|qry_typ:P|lang:en|wc:3|cs:8845|v=4,Sanskriti Inc,https://www.indiamart.com/sanskriti-inc/?pos=68&kwd=baby cloth diapers&tags=BA||||8228.275|Price|product|||MDC|rsf:gd-|-stype:attr=1|qr_nm:gd|res:RC4|com-cf:nl|ptrs:na|ktp:N0|mc:55657|mtp:S|qry_typ:P|lang:en|wc:3|cs:8845|v=4,False,Nikol,Ahmedabad,"Shop No-26, Surjit Co Op H Soc Ltd, Nr. India Colony, Nikol Road, Nikol, Ahmedabad - 382350, Dist.Ahmedabad, Gujarat",8046047726,
Multicolor Babymoon Printed Baby Cloth Diaper,https://www.indiamart.com/proddetail/babymoon-printed-baby-cloth-diaper-19448611891.html?pos=69&kwd=baby cloth diapers&tags=BA||||8228.275|Price|product|||MDC|rsf:gd-|-stype:attr=1|qr_nm:gd|res:RC4|com-cf:nl|ptrs:na|ktp:N0|mc:55657|mtp:S|qry_typ:P|lang:en|wc:3|cs:8845|v=4,Dream Works,https://www.indiamart.com/dreamworks-ahmedabad/?pos=69&kwd=baby cloth diapers&tags=BA||||8228.275|Price|product|||MDC|rsf:gd-|-stype:attr=1|qr_nm:gd|res:RC4|com-cf:nl|ptrs:na|ktp:N0|mc:55657|mtp:S|qry_typ:P|lang:en|wc:3|cs:8845|v=4,False,Sanathal,Ahmedabad,"5,Chanakya Bunglows,Nr Lad Society Common Plot,Vastrapur, Sanathal, Ahmedabad - 380054, Dist.Ahmedabad, Gujarat",8047663803,
"Baby Button Cloth Diaper, Small, Age Group: Newly Born",https://www.indiamart.com/proddetail/baby-button-cloth-diaper-2854084740530.html?pos=70&kwd=baby cloth diapers&tags=BA||||8752.144|Price|product|||MDC|rsf:gd-|-stype:attr=1|qr_nm:gd|res:RC4|com-cf:nl|ptrs:na|ktp:N0|mc:55657|mtp:S|qry_typ:P|lang:en|wc:3|cs:8845|v=4,Kidz Creation,https://www.indiamart.com/kidzcreation/?pos=70&kwd=baby cloth diapers&tags=BA||||8752.144|Price|product|||MDC|rsf:gd-|-stype:attr=1|qr_nm:gd|res:RC4|com-cf:nl|ptrs:na|ktp:N0|mc:55657|mtp:S|qry_typ:P|lang:en|wc:3|cs:8845|v=4,False,,New Delhi,"Shop No. 279/517,Sabharwal Market, Tolia Wali Gali Sadar Bazar, North Delhi,, New Delhi - 110006, Dist.Delhi, Delhi",8047679212,
Cloth Diapers Washable and Reusable Adjustable Size Nappies with Wet-Free Inserts for Babies,https://www.indiamart.com/proddetail/cloth-diapers-washable-and-reusable-adjustable-size-nappies-with-wet-free-inserts-for-babies-23607143362.html?pos=71&kwd=baby cloth diapers&tags=BB||||8210.732|Price|product|||MDC|rsf:gd-|-stype:attr=1|qr_nm:gd|res:RC4|com-cf:nl|ptrs:na|ktp:N0|mc:55657|mtp:S|qry_typ:P|lang:en|wc:3|cs:8845|v=4,BAFNA IMPEX,https://www.indiamart.com/bafna-impex/?pos=71&kwd=baby cloth diapers&tags=BB||||8210.732|Price|product|||MDC|rsf:gd-|-stype:attr=1|qr_nm:gd|res:RC4|com-cf:nl|ptrs:na|ktp:N0|mc:55657|mtp:S|qry_typ:P|lang:en|wc:3|cs:8845|v=4,False,Valiv,Vasai,"Gala No - 14, Second Floor, Building No - 2, Opal Solitair, Sativali Road, Vasai Road Sativali, Valiv, Vasai - 401208, Dist.Thane, Maharashtra",8046067163,
"Baby Washable Diaper, Size: Large, Age Group: 3to12 Months",https://www.indiamart.com/proddetail/baby-washable-diaper-2853637687688.html?pos=72&kwd=baby cloth diapers&tags=BA||||9148.645|Price|product|||MDC|rsf:gd-|-stype:attr=1|qr_nm:gd|res:RC4|com-cf:nl|ptrs:na|ktp:N0|mc:55657|mtp:S|qry_typ:P|lang:en|wc:3|cs:8845|v=4,Sri Jaya Enterprises,https://www.indiamart.com/sri-jayaenterprises/?pos=72&kwd=baby cloth diapers&tags=BA||||9148.645|Price|product|||MDC|rsf:gd-|-stype:attr=1|qr_nm:gd|res:RC4|com-cf:nl|ptrs:na|ktp:N0|mc:55657|mtp:S|qry_typ:P|lang:en|wc:3|cs:8845|v=4,False,Machara,Mandapeta,"31-1-27/1, Ward No 13, Alamuru Road, Mandapeta, East Godavari, Machara, Mandapeta - 533308, Dist.East Godavari, Andhra Pradesh",7949093426,
Star Print Reusable Adjustable Cloth Diaper,https://www.indiamart.com/proddetail/star-print-reusable-adjustable-cloth-diaper-2854503738148.html?pos=73&kwd=baby cloth diapers&tags=BA||||8663.873|Price|product|||MDC|rsf:gd-|-stype:attr=1|qr_nm:gd|res:RC4|com-cf:nl|ptrs:na|ktp:N0|mc:55657|mtp:S|qry_typ:P|lang:en|wc:3|cs:8845|v=4,AQ Corporation,https://www.indiamart.com/aqcorporation/?pos=73&kwd=baby cloth diapers&tags=BA||||8663.873|Price|product|||MDC|rsf:gd-|-stype:attr=1|qr_nm:gd|res:RC4|com-cf:nl|ptrs:na|ktp:N0|mc:55657|mtp:S|qry_typ:P|lang:en|wc:3|cs:8845|v=4,False,,Bengaluru,"Ground And First Floor, No 88, 2nd Cross, 4th Main, NGEF Layout, Nagashetty Halli, Sanjaynagar Bengaluru Urban, Bengaluru - 560094, Dist.Bengaluru, Karnataka",7949325043,
"Baby Diapers Baby Reusable Washable Button Diaper, Medium, Age Group: 0-2 Year",https://www.indiamart.com/proddetail/baby-diapers-baby-reusable-washable-button-diaper-medium-age-group-0-2-year-2850229523430.html?pos=74&kwd=baby cloth diapers&tags=BA||||8228.275|Price|product|||TS|rsf:gd-|-stype:attr=1|qr_nm:gd|res:RC4|com-cf:nl|ptrs:na|ktp:N0|mc:55657|mtp:S|qry_typ:P|lang:en|wc:3|cs:8845|v=4,Ranibaa,https://www.indiamart.com/ranibaa-ahmedabad/?pos=74&kwd=baby cloth diapers&tags=BA||||8228.275|Price|product|||TS|rsf:gd-|-stype:attr=1|qr_nm:gd|res:RC4|com-cf:nl|ptrs:na|ktp:N0|mc:55657|mtp:S|qry_typ:P|lang:en|wc:3|cs:8845|v=4,False,Nikol,Ahmedabad,"G 62, Sahajanand Business Park,me.keshavam Estate,sp Ring Road, Nikol,, Nikol, Ahmedabad - 382350, Dist.Ahmedabad, Gujarat",7942800620,
"Cotton Reusable Baby Diaper, Age Group: 3-12 Months",https://www.indiamart.com/proddetail/reusable-baby-diaper-23025654630.html?pos=75&kwd=baby cloth diapers&tags=BA||||8752.144|Price|product|||TS|rsf:gd-|-stype:attr=1|qr_nm:gd|res:RC4|com-cf:nl|ptrs:na|ktp:N0|mc:55657|mtp:S|qry_typ:P|lang:en|wc:3|cs:8845|v=4,Marvels,https://www.indiamart.com/marvels/?pos=75&kwd=baby cloth diapers&tags=BA||||8752.144|Price|product|||TS|rsf:gd-|-stype:attr=1|qr_nm:gd|res:RC4|com-cf:nl|ptrs:na|ktp:N0|mc:55657|mtp:S|qry_typ:P|lang:en|wc:3|cs:8845|v=4,False,Libaspur,New Delhi,"D247 street no 3 swaroop nagar delhi, Libaspur, New Delhi - 110042, Dist.Delhi, Delhi",8046075963,
Baby Nappy,https://www.indiamart.com/proddetail/baby-nappy-2853406019212.html?pos=76&kwd=baby cloth diapers&tags=BA||||8626.744|Price|product|||TS|rsf:gd-|-stype:attr=1|qr_nm:gd|res:RC4|com-cf:nl|ptrs:na|ktp:N0|mc:55657|mtp:S|qry_typ:P|lang:en|wc:3|cs:8845|v=4,Richie International,https://www.indiamart.com/richieinternational/?pos=76&kwd=baby cloth diapers&tags=BA||||8626.744|Price|product|||TS|rsf:gd-|-stype:attr=1|qr_nm:gd|res:RC4|com-cf:nl|ptrs:na|ktp:N0|mc:55657|mtp:S|qry_typ:P|lang:en|wc:3|cs:8845|v=4,False,Nallur,Tiruppur,"48 Csi Colony, Nallur, Vijayapuram Post vijayapuram kangayam road, Nallur, Tiruppur - 641606, Dist.Coimbatore, Tamil Nadu",8047698456,
Printed Diaper Bag,https://www.indiamart.com/proddetail/printed-diaper-bag-24185555197.html?pos=77&kwd=baby cloth diapers&tags=BA||||8786.56|Price|product|||TS|rsf:gd-|-stype:attr=1|qr_nm:gd|res:RC4|com-cf:nl|ptrs:na|ktp:N0|mc:55657|mtp:S|qry_typ:P|lang:en|wc:3|cs:8845|v=4,Totcase Services Private Limited,https://www.totcase.com/?pos=77&kwd=baby cloth diapers&tags=BA||||8786.56|Price|product|||TS|rsf:gd-|-stype:attr=1|qr_nm:gd|res:RC4|com-cf:nl|ptrs:na|ktp:N0|mc:55657|mtp:S|qry_typ:P|lang:en|wc:3|cs:8845|v=4,False,Alwal,Hyderabad,"1-4-177/ A13/402 Shivasai Residency Greenwood Colony Old Alwal, Alwal, Hyderabad - 500010, Dist.Hyderabad, Telangana",8045910096,
"Muslin Plain Nappies, Medium",https://www.indiamart.com/proddetail/muslin-plain-nappies-2854264265962.html?pos=78&kwd=baby cloth diapers&tags=BA||||8668.838|Price|product|||TS|rsf:gd-|-stype:attr=1|qr_nm:gd|res:RC4|com-cf:nl|ptrs:na|ktp:N0|mc:55657|mtp:S|qry_typ:P|lang:en|wc:3|cs:8845|v=4,New Asia Textiles,https://www.indiamart.com/new-asia-textiles/?pos=78&kwd=baby cloth diapers&tags=BA||||8668.838|Price|product|||TS|rsf:gd-|-stype:attr=1|qr_nm:gd|res:RC4|com-cf:nl|ptrs:na|ktp:N0|mc:55657|mtp:S|qry_typ:P|lang:en|wc:3|cs:8845|v=4,False,,Erode,"42, Mosikeeranar Street-4 indra nagar, Erode - 638003, Dist.Erode, Tamil Nadu",8046070169,
"Multicolor Reusable Baby Diaper With 3 Layer Pad, Size: adjustable, Age Group: 1-2 Years",https://www.indiamart.com/proddetail/multicolor-reusable-baby-diaper-with-3-layer-pad-24823701455.html?pos=79&kwd=baby cloth diapers&tags=BA||||8228.275|Price|product|||TS|rsf:gd-|-stype:attr=1|qr_nm:gd|res:RC4|com-cf:nl|ptrs:na|ktp:N0|mc:55657|mtp:S|qry_typ:P|lang:en|wc:3|cs:8845|v=4,Vitus International,https://www.indiamart.com/vitus-international/?pos=79&kwd=baby cloth diapers&tags=BA||||8228.275|Price|product|||TS|rsf:gd-|-stype:attr=1|qr_nm:gd|res:RC4|com-cf:nl|ptrs:na|ktp:N0|mc:55657|mtp:S|qry_typ:P|lang:en|wc:3|cs:8845|v=4,False,Chamanpura,Ahmedabad,"21-D, Block - C Sumel Business Park 5, Chamanpura, Ahmedabad - 380016, Dist.Ahmedabad, Gujarat",8046045482,
"DB-222 Baby Cotton Nappies, Size: Small, Age Group: 3to12 Months",https://www.indiamart.com/proddetail/db-222-baby-cotton-nappies-2854163446533.html?pos=80&kwd=baby cloth diapers&tags=BA||||8693.162|Price|product|||MDC|rsf:gd-|-stype:attr=1|qr_nm:gd|res:RC4|com-cf:nl|ptrs:na|ktp:N0|mc:55657|mtp:S|qry_typ:P|lang:en|wc:3|cs:8845|v=4,Dear Baby,https://www.indiamart.com/dearbaby/?pos=80&kwd=baby cloth diapers&tags=BA||||8693.162|Price|product|||MDC|rsf:gd-|-stype:attr=1|qr_nm:gd|res:RC4|com-cf:nl|ptrs:na|ktp:N0|mc:55657|mtp:S|qry_typ:P|lang:en|wc:3|cs:8845|v=4,False,Begambur,Dindigul,"2nd Floor, No 7, Ahmad Appartment, S P Nagar, Begambur, Begambur, Dindigul - 624002, Dist.Dindigul, Tamil Nadu",8045731862,
Reusable Baby Cloth Diaper,https://www.indiamart.com/proddetail/reusable-baby-cloth-diaper-2854722405591.html?pos=81&kwd=baby cloth diapers&tags=A||||8228.275|Price|product|||NA|rsf:gd-|-stype:attr=1|qr_nm:gd|res:RC4|com-cf:nl|ptrs:na|ktp:N0|mc:55657|mtp:S|qry_typ:P|lang:en|wc:3|cs:8845|v=4,Shishu Apparels,https://www.indiamart.com/shishu-apparels/?pos=81&kwd=baby cloth diapers&tags=A||||8228.275|Price|product|||NA|rsf:gd-|-stype:attr=1|qr_nm:gd|res:RC4|com-cf:nl|ptrs:na|ktp:N0|mc:55657|mtp:S|qry_typ:P|lang:en|wc:3|cs:8845|v=4,False,,Ahmedabad,"62, Laxmi Vishnu Market, Gheekanta Road, Ghee Kanta, Ahmedabad - 380001, Dist.Ahmedabad, Gujarat",7949322683,
"bum2bum Bamboo Cotton Baby Cloth Diaper, Age Group: 3 month to 3 years, Packaging Size: Free Size",https://www.indiamart.com/proddetail/baby-cloth-diaper-22791222788.html?pos=82&kwd=baby cloth diapers&tags=A||||8954.051|Price|product|||NA|rsf:gd-|-stype:attr=1|qr_nm:gd|res:RC4|com-cf:nl|ptrs:na|ktp:N0|mc:55657|mtp:S|qry_typ:P|lang:en|wc:3|cs:8845|v=4,MFS Fashions,https://www.indiamart.com/mfsfashions/?pos=82&kwd=baby cloth diapers&tags=A||||8954.051|Price|product|||NA|rsf:gd-|-stype:attr=1|qr_nm:gd|res:RC4|com-cf:nl|ptrs:na|ktp:N0|mc:55657|mtp:S|qry_typ:P|lang:en|wc:3|cs:8845|v=4,False,Perambur,Chennai,"New No. 42/2, Old No. 15/2, Venkatraman Street, Perambur, Perambur, Chennai - 600011, Dist.Chennai, Tamil Nadu",8043804409,
"Baby Cloth Diaper, Large, Age Group: 1to2 Years",https://www.indiamart.com/proddetail/baby-cloth-diaper-2854913068533.html?pos=83&kwd=baby cloth diapers&tags=A||||8752.144|Price|product|||NA|rsf:gd-|-stype:attr=1|qr_nm:gd|res:RC4|com-cf:nl|ptrs:na|ktp:N0|mc:55657|mtp:S|qry_typ:P|lang:en|wc:3|cs:8845|v=4,Badal Trading Enterprises,https://www.indiamart.com/badaltradingenterprises/?pos=83&kwd=baby cloth diapers&tags=A||||8752.144|Price|product|||NA|rsf:gd-|-stype:attr=1|qr_nm:gd|res:RC4|com-cf:nl|ptrs:na|ktp:N0|mc:55657|mtp:S|qry_typ:P|lang:en|wc:3|cs:8845|v=4,False,Tilak Nagar,New Delhi,"Ground Floor, Shop At 16/32, Prakash Shopping Complex, Tilak Nagar, West, Tilak Nagar, New Delhi - 110018, Dist.Delhi, Delhi",7949095301,
"Regular Pad Sanitary Napkins 280mm, XL",https://www.indiamart.com/proddetail/sanitary-napkins-280mm-2854652123533.html?pos=84&kwd=baby cloth diapers&tags=BA||||8823.154|Price|product|||NA|rsf:gd-|-stype:attr=1|qr_nm:gd|res:RC4|com-cf:nl|ptrs:na|ktp:N0|mc:55657|mtp:S|qry_typ:P|lang:en|wc:3|cs:8845|v=4,Anshika Enterprises,https://www.indiamart.com/anshika-enterprisesagra/?pos=84&kwd=baby cloth diapers&tags=BA||||8823.154|Price|product|||NA|rsf:gd-|-stype:attr=1|qr_nm:gd|res:RC4|com-cf:nl|ptrs:na|ktp:N0|mc:55657|mtp:S|qry_typ:P|lang:en|wc:3|cs:8845|v=4,False,,Agra,"Khasra No. 28, Fatehpur Sikri Road, Agra Jaipur Highway, Sahara, Agra - 283105, Dist.Agra, Uttar Pradesh",7949341145,
RJ Sons Reusable Baby Washable Cloth Diaper Nappies,https://www.indiamart.com/proddetail/reusable-baby-washable-cloth-diaper-nappies-2850108912397.html?pos=85&kwd=baby cloth diapers&tags=BB||||8778.123|Price|product|||NA|rsf:gd-|-stype:attr=1|qr_nm:gd|res:RC4|com-cf:nl|ptrs:na|ktp:N0|mc:55657|mtp:S|qry_typ:P|lang:en|wc:3|cs:8845|v=4,Ayesha Fashion,https://www.indiamart.com/ayeshafashion-noida/?pos=85&kwd=baby cloth diapers&tags=BB||||8778.123|Price|product|||NA|rsf:gd-|-stype:attr=1|qr_nm:gd|res:RC4|com-cf:nl|ptrs:na|ktp:N0|mc:55657|mtp:S|qry_typ:P|lang:en|wc:3|cs:8845|v=4,False,,Noida,"RC-298, Near Chand Masjid, Kala Enclave - 2, Khora Colony, Noida - 201309, Dist.Gautam Budh Nagar, Uttar Pradesh",7942800772,
Baby Diapers Cloth,https://www.indiamart.com/proddetail/baby-diapers-cloth-2853392412548.html?pos=86&kwd=baby cloth diapers&tags=BA||||8752.144|Price|product|||NA|rsf:gd-|-stype:attr=1|qr_nm:gd|res:RC4|com-cf:nl|ptrs:na|ktp:N0|mc:55657|mtp:S|qry_typ:P|lang:en|wc:3|cs:8845|v=4,Krishna Garments,https://www.indiamart.com/krishnagarments-136865173/?pos=86&kwd=baby cloth diapers&tags=BA||||8752.144|Price|product|||NA|rsf:gd-|-stype:attr=1|qr_nm:gd|res:RC4|com-cf:nl|ptrs:na|ktp:N0|mc:55657|mtp:S|qry_typ:P|lang:en|wc:3|cs:8845|v=4,False,,New Delhi,"plot No-11, Kh No-83/4, Utsav Vihar, Karala, New Delhi,, New Delhi - 110081, Dist.Delhi, Delhi",8047311014,6952
"Sky Blue Baby Cloth Diapers, Size: Medium, Age Group: Newly Born",https://www.indiamart.com/proddetail/baby-cloth-diapers-23042851412.html?pos=87&kwd=baby cloth diapers&tags=BB||||8785.791|Price|product|||NA|rsf:gd-|-stype:attr=1|qr_nm:gd|res:RC4|com-cf:nl|ptrs:na|ktp:N0|mc:55657|mtp:S|qry_typ:P|lang:en|wc:3|cs:8845|v=4,Krishna Hosiery Industries,https://www.indiamart.com/krishnahosieryindustries/?pos=87&kwd=baby cloth diapers&tags=BB||||8785.791|Price|product|||NA|rsf:gd-|-stype:attr=1|qr_nm:gd|res:RC4|com-cf:nl|ptrs:na|ktp:N0|mc:55657|mtp:S|qry_typ:P|lang:en|wc:3|cs:8845|v=4,False,DLF Ankur Vihar,Ghaziabad,"A-155, Sector A-4, DLF Ankur Vihar, Ghaziabad - 201102, Dist.Ghaziabad, Uttar Pradesh",8047788950,
"OEM Cotton 2021 Baby Washable Diaper Baby Cloth Diaper, Age Group: 3-12 Months",https://www.indiamart.com/proddetail/2021-baby-washable-diaper-baby-cloth-diaper-23176767455.html?pos=88&kwd=baby cloth diapers&tags=BB||||8626.744|Price|product|||NA|rsf:gd-|-stype:attr=1|qr_nm:gd|res:RC4|com-cf:nl|ptrs:na|ktp:N0|mc:55657|mtp:S|qry_typ:P|lang:en|wc:3|cs:8845|v=4,Annamar Clothing,https://www.indiamart.com/annamarclothing/?pos=88&kwd=baby cloth diapers&tags=BB||||8626.744|Price|product|||NA|rsf:gd-|-stype:attr=1|qr_nm:gd|res:RC4|com-cf:nl|ptrs:na|ktp:N0|mc:55657|mtp:S|qry_typ:P|lang:en|wc:3|cs:8845|v=4,False,,Tiruppur,"No. 577/2-A2, College Pudur, Near Tamil Nadu Theatre Palladam Road, Tiruppur - 641605, Dist.Coimbatore, Tamil Nadu",8062245064,878
Reusable Baby Cloth Diapers,,Anuradha,https://www.indiamart.com/anuradha-84499316/?pos=89&kwd=baby cloth diapers&tags=BB||||8752.144|Price|product|||NA|rsf:gd-|-stype:attr=1|qr_nm:gd|res:RC4|com-cf:nl|ptrs:na|ktp:N0|mc:55657|mtp:S|qry_typ:P|lang:en|wc:3|cs:8845|v=4,False,,New Delhi,"A-72, First Floor, Block A Extension, Vikas Nagar, Uttam Nagar,, New Delhi - 110059, Dist.Delhi, Delhi",8069033749,656
Baby Cloth Reusable Diapers,https://www.indiamart.com/proddetail/baby-cloth-reusable-diapers-26425066312.html?pos=90&kwd=baby cloth diapers&tags=BB||||8571.301|Price|product|||NA|rsf:gd-|-stype:attr=1|qr_nm:gd|res:RC4|com-cf:nl|ptrs:na|ktp:N0|mc:55657|mtp:S|qry_typ:P|lang:en|wc:3|cs:8845|v=4,Pocketwood LLP,https://www.indiamart.com/pocketwood-llp/?pos=90&kwd=baby cloth diapers&tags=BB||||8571.301|Price|product|||NA|rsf:gd-|-stype:attr=1|qr_nm:gd|res:RC4|com-cf:nl|ptrs:na|ktp:N0|mc:55657|mtp:S|qry_typ:P|lang:en|wc:3|cs:8845|v=4,False,Pranavam Gardens Mannanthala,Thiruvananthapuram,"Punnilathu House No.G-11A New TC 13/1254/ 1 Mannanthala, Pranavam Gardens Mannanthala, Thiruvananthapuram - 695015, Dist.Thiruvananthapuram, Kerala",8069017477,820
"Kiddays Diaper,cloth Diaper Baby Reusable Cloth Diapers, Free Size, Age Group: 0-36 Months",https://www.indiamart.com/proddetail/baby-reusable-cloth-diapers-22826424862.html?pos=91&kwd=baby cloth diapers&tags=BB||||8493.708||product|||NA|rsf:gd-|-stype:attr=1|qr_nm:gd|res:RC4|com-cf:nl|ptrs:na|ktp:N0|mc:55657|mtp:S|qry_typ:P|lang:en|wc:3|cs:8845|v=4,Kiddays,https://www.indiamart.com/kiddays/?pos=91&kwd=baby cloth diapers&tags=BB||||8493.708||product|||NA|rsf:gd-|-stype:attr=1|qr_nm:gd|res:RC4|com-cf:nl|ptrs:na|ktp:N0|mc:55657|mtp:S|qry_typ:P|lang:en|wc:3|cs:8845|v=4,False,,Manjeri,"MM 4/290 E,KIDDAYS,AREAKODE ROAD,KARUVAMBRAM POST,CHETTIYANGADI,NELLIPARAMBA,MANJERI Manjeri,676121,Malappuram, Manjeri - 676123, Dist.Malappuram, Kerala",8048371519,195
"KIKA Reusable Baby Cloth Diaper, Size: Free(Adjustable), Age Group: 0-3 years",https://www.indiamart.com/proddetail/kika-reusable-baby-cloth-diaper-22496399162.html?pos=92&kwd=baby cloth diapers&tags=BB||||8211.142||product|||NA|rsf:gd-|-stype:attr=1|qr_nm:gd|res:RC4|com-cf:nl|ptrs:na|ktp:N0|mc:55657|mtp:S|qry_typ:P|lang:en|wc:3|cs:8845|v=4,Alif Productions,https://www.indiamart.com/alif-productions/?pos=92&kwd=baby cloth diapers&tags=BB||||8211.142||product|||NA|rsf:gd-|-stype:attr=1|qr_nm:gd|res:RC4|com-cf:nl|ptrs:na|ktp:N0|mc:55657|mtp:S|qry_typ:P|lang:en|wc:3|cs:8845|v=4,False,Near International Airport,Mumbai,"Marol, Andheri, Near International Airport, Mumbai - 400059, Dist.Mumbai, Maharashtra",8048960672,
"Reusable Poly Lycra Medium Baby Cloth Diapers, Age Group: 1.2 Months",https://www.indiamart.com/proddetail/medium-baby-cloth-diapers-25607783391.html?pos=93&kwd=baby cloth diapers&tags=BB||||8788.382|Price|product|||NA|rsf:gd-|-stype:attr=1|qr_nm:gd|res:RC4|com-cf:nl|ptrs:na|ktp:N0|mc:55657|mtp:S|qry_typ:P|lang:en|wc:3|cs:8845|v=4,Muskan India Export,https://www.indiamart.com/muskanindiaexport/?pos=93&kwd=baby cloth diapers&tags=BB||||8788.382|Price|product|||NA|rsf:gd-|-stype:attr=1|qr_nm:gd|res:RC4|com-cf:nl|ptrs:na|ktp:N0|mc:55657|mtp:S|qry_typ:P|lang:en|wc:3|cs:8845|v=4,False,Gautam Buddha Nagar,Greater Noida,"Shop No. 01, H No. 0520Z, Kulesara, Kulesara Gali 1, Gautam Buddha Nagar, Greater Noida - 201306, Dist.Gautam Budh Nagar, Uttar Pradesh",8047830031,
"Washable Baby Cloth Diapers, Size: Medium, Age Group: Newly Born",https://www.indiamart.com/proddetail/washable-baby-cloth-diapers-27005844291.html?pos=94&kwd=baby cloth diapers&tags=BA||||8778.123|Price|product|||NA|rsf:gd-|-stype:attr=1|qr_nm:gd|res:RC4|com-cf:nl|ptrs:na|ktp:N0|mc:55657|mtp:S|qry_typ:P|lang:en|wc:3|cs:8845|v=4,R.S. Crazy World,https://www.indiamart.com/rs-crazy-world/?pos=94&kwd=baby cloth diapers&tags=BA||||8778.123|Price|product|||NA|rsf:gd-|-stype:attr=1|qr_nm:gd|res:RC4|com-cf:nl|ptrs:na|ktp:N0|mc:55657|mtp:S|qry_typ:P|lang:en|wc:3|cs:8845|v=4,False,,Noida,"C- 116, First Floor, Industrial Area Sector- 10, Noida - 201301, Dist.Gautam Budh Nagar, Uttar Pradesh",8047531386,
Baby Reusable Cloth Diapers,https://www.indiamart.com/proddetail/baby-reusable-cloth-diapers-2850112351255.html?pos=95&kwd=baby cloth diapers&tags=BB||||8316.457|Price|product|||NA|rsf:gd-|-stype:attr=1|qr_nm:gd|res:RC4|com-cf:nl|ptrs:na|ktp:N0|mc:55657|mtp:S|qry_typ:P|lang:en|wc:3|cs:8845|v=4,Y S Exports,https://www.indiamart.com/ysexportsnashik/?pos=95&kwd=baby cloth diapers&tags=BB||||8316.457|Price|product|||NA|rsf:gd-|-stype:attr=1|qr_nm:gd|res:RC4|com-cf:nl|ptrs:na|ktp:N0|mc:55657|mtp:S|qry_typ:P|lang:en|wc:3|cs:8845|v=4,False,,Nashik,"Plot No 17/17, 1, Ashoka Auto, Sakal Circle, Nashik - 422007, Dist.Nashik, Maharashtra",7942787657,
"Baby Pul Fabric Diaper, Age Group: 3 Months- 3 Years",https://www.indiamart.com/proddetail/baby-pul-fabric-diaper-21840610497.html?pos=96&kwd=baby cloth diapers&tags=BA||||8752.144|Price|product|||NA|rsf:gd-|-stype:attr=1|qr_nm:gd|res:RC4|com-cf:nl|ptrs:na|ktp:N0|mc:55657|mtp:S|qry_typ:P|lang:en|wc:3|cs:8845|v=4,R S Fabtex,https://www.indiamart.com/rs-fabtex/?pos=96&kwd=baby cloth diapers&tags=BA||||8752.144|Price|product|||NA|rsf:gd-|-stype:attr=1|qr_nm:gd|res:RC4|com-cf:nl|ptrs:na|ktp:N0|mc:55657|mtp:S|qry_typ:P|lang:en|wc:3|cs:8845|v=4,False,Rohini Sector 5,New Delhi,"150, 2nd Floor, A-3, Rohini Sector 5, New Delhi - 110085, Dist.Delhi, Delhi",7942564726,
"5 Piece Brown Insert Reusable Baby Cloth Diaper, Size: Medium, Age Group: Newly Born",https://www.indiamart.com/proddetail/5-piece-brown-insert-reusable-baby-cloth-diaper-27185538212.html?pos=97&kwd=baby cloth diapers&tags=BA||||8778.123|Price|product|||NA|rsf:gd-|-stype:attr=1|qr_nm:gd|res:RC4|com-cf:nl|ptrs:na|ktp:N0|mc:55657|mtp:S|qry_typ:P|lang:en|wc:3|cs:8845|v=4,Smart Tech,https://www.indiamart.com/smarttech/?pos=97&kwd=baby cloth diapers&tags=BA||||8778.123|Price|product|||NA|rsf:gd-|-stype:attr=1|qr_nm:gd|res:RC4|com-cf:nl|ptrs:na|ktp:N0|mc:55657|mtp:S|qry_typ:P|lang:en|wc:3|cs:8845|v=4,False,,Noida,"H.No-RC97, Bharat Nagar-1, Khora, Indrapuram, Noida - 201309, Dist.Gautam Budh Nagar, Uttar Pradesh",8047546219,
"Pink Baby Cotton Cloth Diaper, Age Group: 6 Month",https://www.indiamart.com/proddetail/pink-baby-cotton-cloth-diaper-2851947323048.html?pos=98&kwd=baby cloth diapers&tags=BA||||8778.123|Price|product|||NA|rsf:gd-|-stype:attr=1|qr_nm:gd|res:RC4|com-cf:nl|ptrs:na|ktp:N0|mc:55657|mtp:S|qry_typ:P|lang:en|wc:3|cs:8845|v=4,Amar Enterprises,https://www.indiamart.com/amarenterprises-noida/?pos=98&kwd=baby cloth diapers&tags=BA||||8778.123|Price|product|||NA|rsf:gd-|-stype:attr=1|qr_nm:gd|res:RC4|com-cf:nl|ptrs:na|ktp:N0|mc:55657|mtp:S|qry_typ:P|lang:en|wc:3|cs:8845|v=4,False,Bahlolpur,Noida,"Unit No C-376, Sector 10, Gautambuddha Nagar, Bahlolpur, Noida - 201305, Dist.Gautam Budh Nagar, Uttar Pradesh",7942865970,
Cotton Baby Diaper Cloth,https://www.indiamart.com/proddetail/baby-diaper-cloth-2854001577497.html?pos=99&kwd=baby cloth diapers&tags=BA||||8723.301|Price|product|||NA|rsf:gd-|-stype:attr=1|qr_nm:gd|res:RC4|com-cf:nl|ptrs:na|ktp:N0|mc:55657|mtp:S|qry_typ:P|lang:en|wc:3|cs:8845|v=4,Lotus Marketing,https://www.indiamart.com/lotusmarketing-bhopal/?pos=99&kwd=baby cloth diapers&tags=BA||||8723.301|Price|product|||NA|rsf:gd-|-stype:attr=1|qr_nm:gd|res:RC4|com-cf:nl|ptrs:na|ktp:N0|mc:55657|mtp:S|qry_typ:P|lang:en|wc:3|cs:8845|v=4,False,Vardhman Green City,Bhopal,"Near Durga Chowk M No-274, Narela Shankery, Vardhman Green City, Bhopal - 462041, Dist.Bhopal, Madhya Pradesh",8044015628,
"Baby Cotton Cloth Diaper, Size: Adjustable",https://www.indiamart.com/proddetail/baby-cotton-cloth-diaper-2850370423697.html?pos=100&kwd=baby cloth diapers&tags=BB||||8817.752|Price|product|||NA|rsf:gd-|-stype:attr=1|qr_nm:gd|res:RC4|com-cf:nl|ptrs:na|ktp:N0|mc:55657|mtp:S|qry_typ:P|lang:en|wc:3|cs:8845|v=4,Yogendra Enterprises,https://www.indiamart.com/yogendraenterprises/?pos=100&kwd=baby cloth diapers&tags=BB||||8817.752|Price|product|||NA|rsf:gd-|-stype:attr=1|qr_nm:gd|res:RC4|com-cf:nl|ptrs:na|ktp:N0|mc:55657|mtp:S|qry_typ:P|lang:en|wc:3|cs:8845|v=4,False,,Hapur,"Dehra Dhaulana, Hapur - 245301, Dist.Hapur, Uttar Pradesh",7942794173,
Cotton Baby Cloth Diapers reusable Diaper,https://www.indiamart.com/proddetail/baby-cloth-diapers-reusable-diaper-25737115673.html?pos=101&kwd=baby cloth diapers&tags=BB||||8799.744|Price|product|||NA|rsf:gd-|-stype:attr=1|qr_nm:gd|res:RC4|com-cf:nl|ptrs:na|ktp:N0|mc:55657|mtp:S|qry_typ:P|lang:en|wc:3|cs:8845|v=4,Dishika Enterprises,https://www.indiamart.com/dishika-enterprises-modinagar/?pos=101&kwd=baby cloth diapers&tags=BB||||8799.744|Price|product|||NA|rsf:gd-|-stype:attr=1|qr_nm:gd|res:RC4|com-cf:nl|ptrs:na|ktp:N0|mc:55657|mtp:S|qry_typ:P|lang:en|wc:3|cs:8845|v=4,False,,Modinagar,"Gali No. 3, Santpura, Ghaziabad, Modinagar - 201204, Dist.Ghaziabad, Uttar Pradesh",8047656483,
"Mini Master Cotton Baby Reusable Cloth Diaper, Size: Small, Age Group: Newly Born",https://www.indiamart.com/proddetail/baby-reusable-cloth-diaper-26031441088.html?pos=102&kwd=baby cloth diapers&tags=BB||||9839.57|Price|product|||NA|rsf:gd-|-stype:attr=1|qr_nm:gd|res:RC4|com-cf:nl|ptrs:na|ktp:N0|mc:55657|mtp:S|qry_typ:P|lang:en|wc:3|cs:8845|v=4,Mini Master,https://www.indiamart.com/mini-master-kolkata/?pos=102&kwd=baby cloth diapers&tags=BB||||9839.57|Price|product|||NA|rsf:gd-|-stype:attr=1|qr_nm:gd|res:RC4|com-cf:nl|ptrs:na|ktp:N0|mc:55657|mtp:S|qry_typ:P|lang:en|wc:3|cs:8845|v=4,False,,Kolkata,"64, Collin Street, Kolkata - 700016, Dist.Kolkata, West Bengal",8043852186,
"Baby Cotton Cloth Diaper, Age Group: Newly Born",https://www.indiamart.com/proddetail/baby-cotton-cloth-diaper-2852975145833.html?pos=103&kwd=baby cloth diapers&tags=BA||||8559.269|Price|product|||NA|rsf:gd-|-stype:attr=1|qr_nm:gd|res:RC4|com-cf:nl|ptrs:na|ktp:N0|mc:55657|mtp:S|qry_typ:P|lang:en|wc:3|cs:8845|v=4,Navkar Traders,https://www.indiamart.com/navkar-tradersindore/?pos=103&kwd=baby cloth diapers&tags=BA||||8559.269|Price|product|||NA|rsf:gd-|-stype:attr=1|qr_nm:gd|res:RC4|com-cf:nl|ptrs:na|ktp:N0|mc:55657|mtp:S|qry_typ:P|lang:en|wc:3|cs:8845|v=4,False,Sukhlia,Indore,"304, Shyam Bhatika Ke Pass, Shyam Nagar,, Sukhlia, Indore - 452010, Dist.Indore, Madhya Pradesh",7942962327,
"Baby Cloth Diaper, Size: Large, Age Group: 1to2 Years",https://www.indiamart.com/proddetail/baby-cloth-diaper-2853496644362.html?pos=104&kwd=baby cloth diapers&tags=BA||||8752.144|Price|product|||NA|rsf:gd-|-stype:attr=1|qr_nm:gd|res:RC4|com-cf:nl|ptrs:na|ktp:N0|mc:55657|mtp:S|qry_typ:P|lang:en|wc:3|cs:8845|v=4,Apparel Nation,https://www.indiamart.com/apparel-nation/?pos=104&kwd=baby cloth diapers&tags=BA||||8752.144|Price|product|||NA|rsf:gd-|-stype:attr=1|qr_nm:gd|res:RC4|com-cf:nl|ptrs:na|ktp:N0|mc:55657|mtp:S|qry_typ:P|lang:en|wc:3|cs:8845|v=4,False,,New Delhi,"24/62-B,,TILAK NAGAR,New Delhi 110018, New Delhi - 110018, Dist.Delhi, Delhi",7942787841,
"Henky For Baby Cloth Diapers With Inserts, Age Group: born baby to 3 year, Packaging Size: 16*12* 7",https://www.indiamart.com/proddetail/cloth-diapers-with-inserts-22812128912.html?pos=105&kwd=baby cloth diapers&tags=BA||||8038.093|Price|product|||NA|rsf:gd-|-stype:attr=1|qr_nm:gd|res:RC4|com-cf:nl|ptrs:na|ktp:N0|mc:55657|mtp:S|qry_typ:P|lang:en|wc:3|cs:8845|v=4,Satyanarayan Enterprise,https://www.indiamart.com/satyanarayanent/?pos=105&kwd=baby cloth diapers&tags=BA||||8038.093|Price|product|||NA|rsf:gd-|-stype:attr=1|qr_nm:gd|res:RC4|com-cf:nl|ptrs:na|ktp:N0|mc:55657|mtp:S|qry_typ:P|lang:en|wc:3|cs:8845|v=4,False,,Rajkot,"PL NO-11, Sitaram Society Main Road Near Over Bridge, Swati Society Main Road, Rajkot - 360002, Dist.Rajkot, Gujarat",8046061350,
"Baby Cloth Diaper, Size: Medium",https://www.indiamart.com/proddetail/baby-cloth-diaper-2853680929973.html?pos=106&kwd=baby cloth diapers&tags=BA||||8584.299||product|||NA|rsf:gd-|-stype:attr=1|qr_nm:gd|res:RC4|com-cf:nl|ptrs:na|ktp:N0|mc:55657|mtp:S|qry_typ:P|lang:en|wc:3|cs:8845|v=4,The First Date,https://www.indiamart.com/the-first-date/?pos=106&kwd=baby cloth diapers&tags=BA||||8584.299||product|||NA|rsf:gd-|-stype:attr=1|qr_nm:gd|res:RC4|com-cf:nl|ptrs:na|ktp:N0|mc:55657|mtp:S|qry_typ:P|lang:en|wc:3|cs:8845|v=4,False,Kalapatti,Coimbatore,"4th Floor, 403, Smukas Eagle Nest Apartments, KPK Nagar, Veeriyampalayam, Kalapatti,, Kalapatti, Coimbatore - 641048, Dist.Coimbatore, Tamil Nadu",7942666286,
"Baby Cloth Diaper, Small, Age Group: 3to12 Months",https://www.indiamart.com/proddetail/baby-cloth-diaper-2854677314255.html?pos=107&kwd=baby cloth diapers&tags=BB||||8752.144|Price|product|||NA|rsf:gd-|-stype:attr=1|qr_nm:gd|res:RC4|com-cf:nl|ptrs:na|ktp:N0|mc:55657|mtp:S|qry_typ:P|lang:en|wc:3|cs:8845|v=4,Arun Online Solution,https://www.indiamart.com/arun-online-solutions/?pos=107&kwd=baby cloth diapers&tags=BB||||8752.144|Price|product|||NA|rsf:gd-|-stype:attr=1|qr_nm:gd|res:RC4|com-cf:nl|ptrs:na|ktp:N0|mc:55657|mtp:S|qry_typ:P|lang:en|wc:3|cs:8845|v=4,False,,New Delhi,"Q-114, Shahid Bhagat Singh Nagar, North West Delhi, New Delhi - 110081, Dist.Delhi, Delhi",7942843114,
"Baby Cloth Diaper, Size: Medium, Age Group: Newly Born",https://www.indiamart.com/proddetail/baby-cloth-diaper-2851113782397.html?pos=108&kwd=baby cloth diapers&tags=BB||||8785.791|Price|product|||NA|rsf:gd-|-stype:attr=1|qr_nm:gd|res:RC4|com-cf:nl|ptrs:na|ktp:N0|mc:55657|mtp:S|qry_typ:P|lang:en|wc:3|cs:8845|v=4,Gobaby,https://www.indiamart.com/gobaby/?pos=108&kwd=baby cloth diapers&tags=BB||||8785.791|Price|product|||NA|rsf:gd-|-stype:attr=1|qr_nm:gd|res:RC4|com-cf:nl|ptrs:na|ktp:N0|mc:55657|mtp:S|qry_typ:P|lang:en|wc:3|cs:8845|v=4,False,Loni,Ghaziabad,"B-81, Roop Nagar, Loni, Loni, Ghaziabad - 201102, Dist.Ghaziabad, Uttar Pradesh",7942822403,
Blue Pink Red White Printed Baby cloth daiper,https://www.indiamart.com/proddetail/baby-cloth-daiper-20553345433.html?pos=109&kwd=baby cloth diapers&tags=BB||||8663.873|Price|product|||NA|rsf:gd-|-stype:attr=1|qr_nm:gd|res:RC4|com-cf:nl|ptrs:na|ktp:N0|mc:55657|mtp:S|qry_typ:P|lang:en|wc:3|cs:8845|v=4,Mahadev Enterprises,https://www.indiamart.com/mahadeventps-bengaluru/?pos=109&kwd=baby cloth diapers&tags=BB||||8663.873|Price|product|||NA|rsf:gd-|-stype:attr=1|qr_nm:gd|res:RC4|com-cf:nl|ptrs:na|ktp:N0|mc:55657|mtp:S|qry_typ:P|lang:en|wc:3|cs:8845|v=4,False,Cubbonpet Main Road,Bengaluru,"32, 1st Floor, 13th Cross, Cubbonpet Main Road, Bengaluru - 560001, Dist.Bengaluru, Karnataka",8047690378,
"Baby Cloth Diaper, Size: Medium, Age Group: Newly Born",https://www.indiamart.com/proddetail/baby-cloth-diaper-2850449861197.html?pos=110&kwd=baby cloth diapers&tags=BA||||8211.142|Price|product|||NA|rsf:gd-|-stype:attr=1|qr_nm:gd|res:RC4|com-cf:nl|ptrs:na|ktp:N0|mc:55657|mtp:S|qry_typ:P|lang:en|wc:3|cs:8845|v=4,Big Smile Baby,https://www.indiamart.com/bigsmilebaby/?pos=110&kwd=baby cloth diapers&tags=BA||||8211.142|Price|product|||NA|rsf:gd-|-stype:attr=1|qr_nm:gd|res:RC4|com-cf:nl|ptrs:na|ktp:N0|mc:55657|mtp:S|qry_typ:P|lang:en|wc:3|cs:8845|v=4,False,Malad East,Mumbai,"Room no.2, Seva Nagar Chawl, yoginwas,santaram pada, Nr. WE Highway , Malad east, Malad East, Mumbai - 400097, Dist.Mumbai, Maharashtra",8048209441,
Baby Infant Newborn Reusable Washable Cloth Diaper with 3 Layer Microfiber Insert,https://www.indiamart.com/proddetail/baby-infant-newborn-reusable-washable-cloth-diaper-with-3-layer-microfiber-insert-20740572330.html?pos=111&kwd=baby cloth diapers&tags=BB||||8752.144|Price|product|||NA|rsf:gd-|-stype:attr=1|qr_nm:gd|res:RC4|com-cf:nl|ptrs:na|ktp:N0|mc:55657|mtp:S|qry_typ:P|lang:en|wc:3|cs:8845|v=4,Success Traders,https://www.indiamart.com/sucess-traders/?pos=111&kwd=baby cloth diapers&tags=BB||||8752.144|Price|product|||NA|rsf:gd-|-stype:attr=1|qr_nm:gd|res:RC4|com-cf:nl|ptrs:na|ktp:N0|mc:55657|mtp:S|qry_typ:P|lang:en|wc:3|cs:8845|v=4,False,Dwarka,New Delhi,"C 801 , Bahawalpur Apartment Plot No 30 Sector 6, Dwarka, New Delhi - 110075, Dist.Delhi, Delhi",8043810782,
6- 36 Months Bumberry Reusable Baby Cloth Diapers,https://www.indiamart.com/proddetail/6-36-months-bumberry-reusable-baby-cloth-diapers-2853264146812.html?pos=112&kwd=baby cloth diapers&tags=BA||||8503.868|Price|product|||NA|rsf:gd-|-stype:attr=1|qr_nm:gd|res:RC4|com-cf:nl|ptrs:na|ktp:N0|mc:55657|mtp:S|qry_typ:P|lang:en|wc:3|cs:8845|v=4,Bumberry Baby Products Private Limited,https://www.indiamart.com/bumberry-babyproducts-kerala/?pos=112&kwd=baby cloth diapers&tags=BA||||8503.868|Price|product|||NA|rsf:gd-|-stype:attr=1|qr_nm:gd|res:RC4|com-cf:nl|ptrs:na|ktp:N0|mc:55657|mtp:S|qry_typ:P|lang:en|wc:3|cs:8845|v=4,False,Changampuzha Nagar,Kochi,"Ground Floor, XXX/39/B, Illickal Moideen Road, Pathadipalam, Changampuzha Nagar, Changampuzha Nagar, Kochi - 682033, Dist.Ernakulam, Kerala",7948549121,
"Baby Cotton Cloth Diaper, Size: Medium, Age Group: Newly Born",https://www.indiamart.com/proddetail/baby-cotton-cloth-diaper-2853708574730.html?pos=113&kwd=baby cloth diapers&tags=BA||||8785.791|Price|product|||NA|rsf:gd-|-stype:attr=1|qr_nm:gd|res:RC4|com-cf:nl|ptrs:na|ktp:N0|mc:55657|mtp:S|qry_typ:P|lang:en|wc:3|cs:8845|v=4,Mahakal Traders,https://www.indiamart.com/mahakaltradersghaziabad/?pos=113&kwd=baby cloth diapers&tags=BA||||8785.791|Price|product|||NA|rsf:gd-|-stype:attr=1|qr_nm:gd|res:RC4|com-cf:nl|ptrs:na|ktp:N0|mc:55657|mtp:S|qry_typ:P|lang:en|wc:3|cs:8845|v=4,False,Marium Nagar,Ghaziabad,"C 1152, Nandgram, Marium Nagar, Ghaziabad - 201003, Dist.Ghaziabad, Uttar Pradesh",7949373396,
"Cloth Diaper White Cloth Baby Diaper, Size: L, Packaging Size: 36-52 Pieces",https://www.indiamart.com/proddetail/white-cloth-baby-diaper-21173754473.html?pos=114&kwd=baby cloth diapers&tags=BB||||8954.051|Price|product|||NA|rsf:gd-|-stype:attr=1|qr_nm:gd|res:RC4|com-cf:nl|ptrs:na|ktp:N0|mc:55657|mtp:S|qry_typ:P|lang:en|wc:3|cs:8845|v=4,Goldwin Traders,https://www.indiamart.com/goldwintraders/?pos=114&kwd=baby cloth diapers&tags=BB||||8954.051|Price|product|||NA|rsf:gd-|-stype:attr=1|qr_nm:gd|res:RC4|com-cf:nl|ptrs:na|ktp:N0|mc:55657|mtp:S|qry_typ:P|lang:en|wc:3|cs:8845|v=4,False,Jafferkhanpet,Chennai,"No 15,1st Floor, Kanchi Natarajan Street Vasudevan Nagar, Jafferkhanpet, Chennai - 600083, Dist.Chennai, Tamil Nadu",8043816990,
"Cotton Baby Cloth Diaper, Size: Small, Age Group: Newly Born",https://www.indiamart.com/proddetail/cotton-baby-cloth-diaper-2853913513473.html?pos=115&kwd=baby cloth diapers&tags=BA||||8785.791|Price|product|||NA|rsf:gd-|-stype:attr=1|qr_nm:gd|res:RC4|com-cf:nl|ptrs:na|ktp:N0|mc:55657|mtp:S|qry_typ:P|lang:en|wc:3|cs:8845|v=4,Million Minds Traders,https://www.indiamart.com/million-minds-traders/?pos=115&kwd=baby cloth diapers&tags=BA||||8785.791|Price|product|||NA|rsf:gd-|-stype:attr=1|qr_nm:gd|res:RC4|com-cf:nl|ptrs:na|ktp:N0|mc:55657|mtp:S|qry_typ:P|lang:en|wc:3|cs:8845|v=4,False,Indirapuram,Ghaziabad,"Basement, Khasra No-1042/2A, Indirapuram, Indirapuram, Ghaziabad - 201014, Dist.Ghaziabad, Uttar Pradesh",8044563092,
"Fabpad Reusable Nonwoven Baby Cloth Diaper, Age Group: New Born",https://www.indiamart.com/proddetail/nonwoven-baby-cloth-diaper-24694292088.html?pos=116&kwd=baby cloth diapers&tags=BB||||9839.57|Price|product|||NA|rsf:gd-|-stype:attr=1|qr_nm:gd|res:RC4|com-cf:nl|ptrs:na|ktp:N0|mc:55657|mtp:S|qry_typ:P|lang:en|wc:3|cs:8845|v=4,Femme Fabric Solutions LLP,https://www.indiamart.com/femmefabricsolutions/?pos=116&kwd=baby cloth diapers&tags=BB||||9839.57|Price|product|||NA|rsf:gd-|-stype:attr=1|qr_nm:gd|res:RC4|com-cf:nl|ptrs:na|ktp:N0|mc:55657|mtp:S|qry_typ:P|lang:en|wc:3|cs:8845|v=4,False,Southern Avenue,Kolkata,"60, 2nd Floor, Flat No 7, Lake Place, Lake Place Road, Southern Avenue, Kolkata - 700029, Dist.Kolkata, West Bengal",7942545329,
"12395 Baby Cloth Diaper, Age Group: Newly Born-10 Months",https://www.indiamart.com/proddetail/12395-baby-cloth-diaper-22426178348.html?pos=117&kwd=baby cloth diapers&tags=BB||||8500.97|Price|product|||NA|rsf:gd-|-stype:attr=1|qr_nm:gd|res:RC4|com-cf:nl|ptrs:na|ktp:N0|mc:55657|mtp:S|qry_typ:P|lang:en|wc:3|cs:8845|v=4,G.K. Tradings,https://www.indiamart.com/g-k-tradings/?pos=117&kwd=baby cloth diapers&tags=BB||||8500.97|Price|product|||NA|rsf:gd-|-stype:attr=1|qr_nm:gd|res:RC4|com-cf:nl|ptrs:na|ktp:N0|mc:55657|mtp:S|qry_typ:P|lang:en|wc:3|cs:8845|v=4,False,Thriprayar,Thrissur,"Ix/626,627, 628 Triprayar Nattika, Thriprayar, Thrissur - 680566, Dist.Thrissur, Kerala",7942560526,
"Reusable Cotton Kids Cloth Button Diaper, Size: Small, Age Group: Newly Born",https://www.indiamart.com/proddetail/kids-cloth-button-diaper-25914699562.html?pos=118&kwd=baby cloth diapers&tags=BB||||8752.144|Price|product|||NA|rsf:gd-|-stype:attr=1|qr_nm:gd|res:RC4|com-cf:nl|ptrs:na|ktp:N0|mc:55657|mtp:S|qry_typ:P|lang:en|wc:3|cs:8845|v=4,Topgifties,https://www.indiamart.com/topgifties/?pos=118&kwd=baby cloth diapers&tags=BB||||8752.144|Price|product|||NA|rsf:gd-|-stype:attr=1|qr_nm:gd|res:RC4|com-cf:nl|ptrs:na|ktp:N0|mc:55657|mtp:S|qry_typ:P|lang:en|wc:3|cs:8845|v=4,False,,New Delhi,"4/1752, Mahavir Block, Shahdara, New Delhi - 110032, Dist.Delhi, Delhi",8047676503,
Polka Tots Reusable Cloth Diaper Buy Online Waterproof Adjustable Baby Diaper - Yellow,https://www.indiamart.com/proddetail/polka-tots-reusable-cloth-diaper-buy-online-waterproof-adjustable-baby-diaper-yellow-2852177901673.html?pos=119&kwd=baby cloth diapers&tags=BB||||8228.275|Price|product|||NA|rsf:gd-|-stype:attr=1|qr_nm:gd|res:RC4|com-cf:nl|ptrs:na|ktp:N0|mc:55657|mtp:S|qry_typ:P|lang:en|wc:3|cs:8845|v=4,Eclat Globalbiz LLP,https://www.indiamart.com/eclatglobalbiz/?pos=119&kwd=baby cloth diapers&tags=BB||||8228.275|Price|product|||NA|rsf:gd-|-stype:attr=1|qr_nm:gd|res:RC4|com-cf:nl|ptrs:na|ktp:N0|mc:55657|mtp:S|qry_typ:P|lang:en|wc:3|cs:8845|v=4,False,,Ahmedabad,"Shilp Zaveri, Ahmedabad - 380004, Dist.Ahmedabad, Gujarat",,
2022 New Washable Cloth Diaper Adjustable Snap Nappy Reusable Cloth Diapers Fit 0-2years 3-15kg Baby,https://www.indiamart.com/proddetail/2022-new-washable-cloth-diaper-adjustable-snap-nappy-reusable-cloth-diapers-fit-0-2years-3-15kg-baby-25232309191.html?pos=120&kwd=baby cloth diapers&tags=BB||||8507.67|Price|product|||NA|rsf:gd-|-stype:attr=1|qr_nm:gd|res:RC4|com-cf:nl|ptrs:na|ktp:N0|mc:55657|mtp:S|qry_typ:P|lang:en|wc:3|cs:8845|v=4,Nimmz Trading,https://www.indiamart.com/nimmz-trading/?pos=120&kwd=baby cloth diapers&tags=BB||||8507.67|Price|product|||NA|rsf:gd-|-stype:attr=1|qr_nm:gd|res:RC4|com-cf:nl|ptrs:na|ktp:N0|mc:55657|mtp:S|qry_typ:P|lang:en|wc:3|cs:8845|v=4,False,,Ernakulam,"Thundiparambil House, S N Nagar, Muttinakam, Varapuzha,, Ernakulam - 683517, Dist.Ernakulam, Kerala",8048261618,
"Nonwoven Pink Reusable Baby Cloth Diaper, Age Group: Newly Born, Packaging Size: 1 Piece",https://www.indiamart.com/proddetail/pink-reusable-baby-cloth-diaper-2849495861488.html?pos=121&kwd=baby cloth diapers&tags=BB||||8785.791|Price|product|||NA|rsf:gd-|-stype:attr=1|qr_nm:gd|res:RC4|com-cf:nl|ptrs:na|ktp:N0|mc:55657|mtp:S|qry_typ:P|lang:en|wc:3|cs:8845|v=4,Lifelong Enterprise,https://www.indiamart.com/online-sell-noida/?pos=121&kwd=baby cloth diapers&tags=BB||||8785.791|Price|product|||NA|rsf:gd-|-stype:attr=1|qr_nm:gd|res:RC4|com-cf:nl|ptrs:na|ktp:N0|mc:55657|mtp:S|qry_typ:P|lang:en|wc:3|cs:8845|v=4,False,,Ghaziabad,"Rc -298, Bharat Nagar, Khora Colony, Ghaziabad - 201001, Dist.Ghaziabad, Uttar Pradesh",8047826548,
"Freshkins Cloth Velcro Baby Diaper, Size: Small, Age Group: Newly Born",https://www.indiamart.com/proddetail/freshkins-cloth-velcro-baby-diaper-2850970399397.html?pos=122&kwd=baby cloth diapers&tags=BB||||8752.144|Price|product|||NA|rsf:gd-|-stype:attr=1|qr_nm:gd|res:RC4|com-cf:nl|ptrs:na|ktp:N0|mc:55657|mtp:S|qry_typ:P|lang:en|wc:3|cs:8845|v=4,Value Hygiene,https://www.indiamart.com/valuehygiene/?pos=122&kwd=baby cloth diapers&tags=BB||||8752.144|Price|product|||NA|rsf:gd-|-stype:attr=1|qr_nm:gd|res:RC4|com-cf:nl|ptrs:na|ktp:N0|mc:55657|mtp:S|qry_typ:P|lang:en|wc:3|cs:8845|v=4,False,Gali Chauhan Banger North East Delhi,New Delhi,"D-67/3 G/F KH No-1/220, Gopi Chand, Gali Chauhan Banger North East Delhi, New Delhi - 110053, Dist.Delhi, Delhi",7942829010,
"Baby Reusable,Washable, All Size Adjustable Cloth Diapers With Absorbent Insert/Pads",https://www.indiamart.com/proddetail/baby-reusable-washable-all-size-adjustable-cloth-diapers-with-absorbent-insert-pads-24915508888.html?pos=123&kwd=baby cloth diapers&tags=BB||||8752.144|Price|product|||NA|rsf:gd-|-stype:attr=1|qr_nm:gd|res:RC4|com-cf:nl|ptrs:na|ktp:N0|mc:55657|mtp:S|qry_typ:P|lang:en|wc:3|cs:8845|v=4,Alfora Impex,https://www.indiamart.com/parulenterprisesdelhi/?pos=123&kwd=baby cloth diapers&tags=BB||||8752.144|Price|product|||NA|rsf:gd-|-stype:attr=1|qr_nm:gd|res:RC4|com-cf:nl|ptrs:na|ktp:N0|mc:55657|mtp:S|qry_typ:P|lang:en|wc:3|cs:8845|v=4,False,Pitampura Kohat Enclave,New Delhi,"263, 2nd Floor, Pitampura Kohat Enclave, New Delhi - 110034, Dist.Delhi, Delhi",8047848193,
"Baby Printed Cloth Diaper with pad, Age Group: 3-12 Months",https://www.indiamart.com/proddetail/baby-printed-cloth-diaper-with-pad-2851897680355.html?pos=124&kwd=baby cloth diapers&tags=BA||||8228.275|Price|product|||NA|rsf:gd-|-stype:attr=1|qr_nm:gd|res:RC4|com-cf:nl|ptrs:na|ktp:N0|mc:55657|mtp:S|qry_typ:P|lang:en|wc:3|cs:8845|v=4,M Marketing,https://www.indiamart.com/mmarketing/?pos=124&kwd=baby cloth diapers&tags=BA||||8228.275|Price|product|||NA|rsf:gd-|-stype:attr=1|qr_nm:gd|res:RC4|com-cf:nl|ptrs:na|ktp:N0|mc:55657|mtp:S|qry_typ:P|lang:en|wc:3|cs:8845|v=4,False,,Ahmedabad,"TF/301, Karnavati Archade, Near Gheekanta, Ahmedabad - 380001, Dist.Ahmedabad, Gujarat",7942868797,
"Overnight Cotton Baby Cloth Diaper Liners, Size: Large, Age Group: Newly Born",https://www.indiamart.com/proddetail/overnight-cotton-baby-cloth-diaper-liners-25962597097.html?pos=125&kwd=baby cloth diapers&tags=BB||||9839.57|Price|product|||NA|rsf:gd-|-stype:attr=1|qr_nm:gd|res:RC4|com-cf:nl|ptrs:na|ktp:N0|mc:55657|mtp:S|qry_typ:P|lang:en|wc:3|cs:8845|v=4,Anahat For Change Solutions Foundation,https://www.indiamart.com/anahatforchangesolutionsfoundation/?pos=125&kwd=baby cloth diapers&tags=BB||||9839.57|Price|product|||NA|rsf:gd-|-stype:attr=1|qr_nm:gd|res:RC4|com-cf:nl|ptrs:na|ktp:N0|mc:55657|mtp:S|qry_typ:P|lang:en|wc:3|cs:8845|v=4,False,Behala,Kolkata,"City Enclave, 1st Floor, FL-1B, 28, DH Road, Behala, Kolkata - 700060, Dist.Kolkata, West Bengal",8047676089,
"Kasduri Cloth Diaper Cotton Baby Diapers Reusable, Age Group: Newly Born, Packaging Size: 1 Set(3pieces)",https://www.indiamart.com/proddetail/cotton-baby-diapers-reusable-23809150212.html?pos=126&kwd=baby cloth diapers&tags=BB||||8622.305|Price|product|||NA|rsf:gd-|-stype:attr=1|qr_nm:gd|res:RC4|com-cf:nl|ptrs:na|ktp:N0|mc:55657|mtp:S|qry_typ:P|lang:en|wc:3|cs:8845|v=4,Kasduri Organic Store,https://www.indiamart.com/kasturiorganicstore/?pos=126&kwd=baby cloth diapers&tags=BB||||8622.305|Price|product|||NA|rsf:gd-|-stype:attr=1|qr_nm:gd|res:RC4|com-cf:nl|ptrs:na|ktp:N0|mc:55657|mtp:S|qry_typ:P|lang:en|wc:3|cs:8845|v=4,False,Tower Junction,Nagercoil,"50/6, Crescent Complex, Putthan Banglow Road, East Of Tower Junction,, Tower Junction, Nagercoil - 629001, Dist.Kanyakumari, Tamil Nadu",8046048006,
"Baby Langot / Nappies / Cloth Diaper, Hosiery, Age Group: 0 - 12 Months",https://www.indiamart.com/proddetail/baby-langot-nappies-cloth-diaper-hosiery-2851208314548.html?pos=127&kwd=baby cloth diapers&tags=BB||||8228.275|Price|product|||NA|rsf:gd-|-stype:attr=1|qr_nm:gd|res:RC4|com-cf:nl|ptrs:na|ktp:N0|mc:55657|mtp:S|qry_typ:P|lang:en|wc:3|cs:8845|v=4,V K Products,https://www.indiamart.com/vkproductsahmedabad/?pos=127&kwd=baby cloth diapers&tags=BB||||8228.275|Price|product|||NA|rsf:gd-|-stype:attr=1|qr_nm:gd|res:RC4|com-cf:nl|ptrs:na|ktp:N0|mc:55657|mtp:S|qry_typ:P|lang:en|wc:3|cs:8845|v=4,False,Bapunagar,Ahmedabad,"Ahmedabad, Bapunagar, Ahmedabad - 380024, Dist.Ahmedabad, Gujarat",8048987069,
"White Softspun Microfiber 4 Layer Baby Diaper Inserts for Cloth, Packaging Size: Bulk",https://www.indiamart.com/proddetail/softspun-microfiber-4-layer-baby-diaper-inserts-for-cloth-17531342997.html?pos=128&kwd=baby cloth diapers&tags=BB||||8752.144|Price|product|||NA|rsf:gd-|-stype:attr=1|qr_nm:gd|res:RC4|com-cf:nl|ptrs:na|ktp:N0|mc:55657|mtp:S|qry_typ:P|lang:en|wc:3|cs:8845|v=4,Icc Chemtec Private Limited(Techem India (P) Ltd.,https://www.indiamart.com/iccchemtec/?pos=128&kwd=baby cloth diapers&tags=BB||||8752.144|Price|product|||NA|rsf:gd-|-stype:attr=1|qr_nm:gd|res:RC4|com-cf:nl|ptrs:na|ktp:N0|mc:55657|mtp:S|qry_typ:P|lang:en|wc:3|cs:8845|v=4,False,,New Delhi,"C-67, Indira Enclave, New Delhi - 110068, Dist.Delhi, Delhi",8048959572,
"Royalo Highly Comfortable Reusable, Washable And Adjustable Cloth Diapers For Babies Lticolor",https://www.indiamart.com/proddetail/royalo-highly-comfortable-reusable-washable-and-adjustable-cloth-diapers-for-babies-lticolor-24319474755.html?pos=129&kwd=baby cloth diapers&tags=BB||||9829.308|Price|product|||NA|rsf:gd-|-stype:attr=1|qr_nm:gd|res:RC4|com-cf:nl|ptrs:na|ktp:N0|mc:55657|mtp:S|qry_typ:P|lang:en|wc:3|cs:8845|v=4,Royalo Group,https://www.indiamart.com/royalo-group/?pos=129&kwd=baby cloth diapers&tags=BB||||9829.308|Price|product|||NA|rsf:gd-|-stype:attr=1|qr_nm:gd|res:RC4|com-cf:nl|ptrs:na|ktp:N0|mc:55657|mtp:S|qry_typ:P|lang:en|wc:3|cs:8845|v=4,False,,Howrah,"0 Joypur Bill Madhya Joypur Bill Joypur Bill Bally, Howrah - 711205, Dist.Howrah, West Bengal",8048249737,3819
100% PURE COTTON CLOTH DIAPERS FOR JUST BORN BABIES (FREE) WASHABLE AND REUSEABLE,https://www.indiamart.com/proddetail/100-pure-cotton-cloth-diapers-for-just-born-babies-free-washable-and-reuseable-25050114048.html?pos=130&kwd=baby cloth diapers&tags=BA||||8668.838|Price|product|||NA|rsf:gd-|-stype:attr=1|qr_nm:gd|res:RC4|com-cf:nl|ptrs:na|ktp:N0|mc:55657|mtp:S|qry_typ:P|lang:en|wc:3|cs:8845|v=4,Finito Apparels,https://www.indiamart.com/finitoapparels/?pos=130&kwd=baby cloth diapers&tags=BA||||8668.838|Price|product|||NA|rsf:gd-|-stype:attr=1|qr_nm:gd|res:RC4|com-cf:nl|ptrs:na|ktp:N0|mc:55657|mtp:S|qry_typ:P|lang:en|wc:3|cs:8845|v=4,False,Veerapampalayam,Erode,"60/37 Veerappan Palayam Pannai Nagar Thindal, Veerapampalayam, Erode - 638012, Dist.Erode, Tamil Nadu",8046063709,
Improvus Premium Baby Reusable Cloth Diaper For Baby (0-3 Years) With Waterproof Insert Pads - 1 Set,,Morawal Healthcare Private Limited,https://www.indiamart.com/morawal-healthcare-private-limited/?pos=131&kwd=baby cloth diapers&tags=BA||||8601.347|Price|product|||NA|rsf:gd-|-stype:attr=1|qr_nm:gd|res:RC4|com-cf:nl|ptrs:na|ktp:N0|mc:55657|mtp:S|qry_typ:P|lang:en|wc:3|cs:8845|v=4,False,Mansarovar,Jaipur,"72/127 Agarwal Farm Patel Marg Mansarovar, Mansarovar, Jaipur - 302020, Dist.Jaipur, Rajasthan",8048265049,4927
Quirk Reusable Baby Washable Cloth Diaper - Pack of 3 - Multi Color,https://www.indiamart.com/proddetail/quirk-reusable-baby-washable-cloth-diaper-pack-of-3-multi-color-2850537003597.html?pos=132&kwd=baby cloth diapers&tags=BB||||8584.299|Price|product|||NA|rsf:gd-|-stype:attr=1|qr_nm:gd|res:RC4|com-cf:nl|ptrs:na|ktp:N0|mc:55657|mtp:S|qry_typ:P|lang:en|wc:3|cs:8845|v=4,Born Babies India Private Limited,https://www.indiamart.com/bornbabies-coimbatore/?pos=132&kwd=baby cloth diapers&tags=BB||||8584.299|Price|product|||NA|rsf:gd-|-stype:attr=1|qr_nm:gd|res:RC4|com-cf:nl|ptrs:na|ktp:N0|mc:55657|mtp:S|qry_typ:P|lang:en|wc:3|cs:8845|v=4,False,Ram Nagar,Coimbatore,"NO-69/2, Thiruvenkatasamy Road, R S Puram, Ram Nagar, Coimbatore - 641002, Dist.Coimbatore, Tamil Nadu",7942788170,
Cotton Aqua Nano All- In-One Trim Cloth Diaper,https://www.indiamart.com/proddetail/aqua-nano-all-in-one-trim-cloth-diaper-21978761988.html?pos=133&kwd=baby cloth diapers&tags=BB||||8211.142|Price|product|||NA|rsf:gd-|-stype:attr=1|qr_nm:gd|res:RC4|com-cf:nl|ptrs:na|ktp:N0|mc:55657|mtp:S|qry_typ:P|lang:en|wc:3|cs:8845|v=4,Kindermum India,https://www.indiamart.com/kindermum-india/?pos=133&kwd=baby cloth diapers&tags=BB||||8211.142|Price|product|||NA|rsf:gd-|-stype:attr=1|qr_nm:gd|res:RC4|com-cf:nl|ptrs:na|ktp:N0|mc:55657|mtp:S|qry_typ:P|lang:en|wc:3|cs:8845|v=4,False,Kandivali West B- Wing,Mumbai,"Pushp Excellancy Society, Mathuradas Ext Road, Kandivali West B- Wing, Mumbai - 400067, Dist.Mumbai, Maharashtra",8047812307,
"Ajanta Decorators Reusable Cloth Diaper, Size: Free Size, Age Group: 3-12 Months",https://www.indiamart.com/proddetail/reusable-cloth-diaper-2849769500997.html?pos=134&kwd=baby cloth diapers&tags=BB||||8785.791|Price|product|||NA|rsf:gd-|-stype:attr=1|qr_nm:gd|res:RC4|com-cf:nl|ptrs:na|ktp:N0|mc:55657|mtp:S|qry_typ:P|lang:en|wc:3|cs:8845|v=4,Ajanta Decorators,https://www.indiamart.com/vinayak-creations-ghaziabad/?pos=134&kwd=baby cloth diapers&tags=BB||||8785.791|Price|product|||NA|rsf:gd-|-stype:attr=1|qr_nm:gd|res:RC4|com-cf:nl|ptrs:na|ktp:N0|mc:55657|mtp:S|qry_typ:P|lang:en|wc:3|cs:8845|v=4,False,Crossings Republik,Ghaziabad,"427/558 Purva Ismile Khan 331 Turab Nagar, Crossings Republik, Ghaziabad - 201001, Dist.Ghaziabad, Uttar Pradesh",8048371668,751
Washable Diapers,https://www.indiamart.com/proddetail/washable-diapers-2854720809688.html?pos=135&kwd=baby cloth diapers&tags=BB||||8211.142|Price|product|||NA|rsf:gd-|-stype:attr=1|qr_nm:gd|res:RC4|com-cf:nl|ptrs:na|ktp:N0|mc:55657|mtp:S|qry_typ:P|lang:en|wc:3|cs:8845|v=4,Baby Care,https://www.indiamart.com/babycare-227325739/?pos=135&kwd=baby cloth diapers&tags=BB||||8211.142|Price|product|||NA|rsf:gd-|-stype:attr=1|qr_nm:gd|res:RC4|com-cf:nl|ptrs:na|ktp:N0|mc:55657|mtp:S|qry_typ:P|lang:en|wc:3|cs:8845|v=4,False,,Mumbai,"Ground Floor Shop No 4 Upper Govind Nagar Road Dhruv Heights Chs Ltd, Mumbai - 400097, Dist.Mumbai, Maharashtra",8048249780,9707
"Nonwoven reusable 1st Step Adjustable Baby Diaper, Medium, Age Group: 3 Months",https://www.indiamart.com/proddetail/reusable-1st-step-adjustable-baby-diaper-2849455612488.html?pos=136&kwd=baby cloth diapers&tags=BB||||8954.051|Price|product|||NA|rsf:gd-|-stype:attr=1|qr_nm:gd|res:RC4|com-cf:nl|ptrs:na|ktp:N0|mc:55657|mtp:S|qry_typ:P|lang:en|wc:3|cs:8845|v=4,Rhythm Distributors,https://www.indiamart.com/rhythmdistributors/?pos=136&kwd=baby cloth diapers&tags=BB||||8954.051|Price|product|||NA|rsf:gd-|-stype:attr=1|qr_nm:gd|res:RC4|com-cf:nl|ptrs:na|ktp:N0|mc:55657|mtp:S|qry_typ:P|lang:en|wc:3|cs:8845|v=4,False,,Chennai,"109, 2, Rainbow Plaza, Audiappa Naicken Street, Chennai - 600079, Dist.Chennai, Tamil Nadu",7942787909,
"Baby nappy /langot, Size: Small, Age Group: Newly Born",https://www.indiamart.com/proddetail/baby-nappy-langot-2853110539455.html?pos=137&kwd=baby cloth diapers&tags=BA||||8228.275|Price|product|||NA|rsf:gd-|-stype:attr=1|qr_nm:gd|res:RC4|com-cf:nl|ptrs:na|ktp:N0|mc:55657|mtp:S|qry_typ:P|lang:en|wc:3|cs:8845|v=4,Meet Collection,https://www.indiamart.com/meetcollection-ahmedabad/?pos=137&kwd=baby cloth diapers&tags=BA||||8228.275|Price|product|||NA|rsf:gd-|-stype:attr=1|qr_nm:gd|res:RC4|com-cf:nl|ptrs:na|ktp:N0|mc:55657|mtp:S|qry_typ:P|lang:en|wc:3|cs:8845|v=4,False,,Ahmedabad,"2404/a Nr Parbaram Mandir C Ward Kubernagar, Ahmedabad - 382340, Dist.Ahmedabad, Gujarat",8046032091,
Pink Newly Born Baby Reusable Diaper Set,https://www.indiamart.com/proddetail/newly-born-baby-reusable-diaper-set-2852412214562.html?pos=138&kwd=baby cloth diapers&tags=BA||||8752.144|Price|product|||NA|rsf:gd-|-stype:attr=1|qr_nm:gd|res:RC4|com-cf:nl|ptrs:na|ktp:N0|mc:55657|mtp:S|qry_typ:P|lang:en|wc:3|cs:8845|v=4,R D Brother's,https://www.indiamart.com/rd-brothers-newdelhi/?pos=138&kwd=baby cloth diapers&tags=BA||||8752.144|Price|product|||NA|rsf:gd-|-stype:attr=1|qr_nm:gd|res:RC4|com-cf:nl|ptrs:na|ktp:N0|mc:55657|mtp:S|qry_typ:P|lang:en|wc:3|cs:8845|v=4,False,Nangloi,New Delhi,"Plot No A -28 G/F, KH No 48/19, Block P & T Rajdhani Park Extn, Mundka, Nangloi, New Delhi - 110041, Dist.Delhi, Delhi",7942969022,
"Baby Linen Washable Diaper, Size: Medium, Age Group: Newly Born",https://www.indiamart.com/proddetail/baby-linen-washable-diaper-2851751974973.html?pos=139&kwd=baby cloth diapers&tags=BB||||8457.459|Price|product|||NA|rsf:gd-|-stype:attr=1|qr_nm:gd|res:RC4|com-cf:nl|ptrs:na|ktp:N0|mc:55657|mtp:S|qry_typ:P|lang:en|wc:3|cs:8845|v=4,KM Agencies,https://www.indiamart.com/kmagencieskozhikodekerala/?pos=139&kwd=baby cloth diapers&tags=BB||||8457.459|Price|product|||NA|rsf:gd-|-stype:attr=1|qr_nm:gd|res:RC4|com-cf:nl|ptrs:na|ktp:N0|mc:55657|mtp:S|qry_typ:P|lang:en|wc:3|cs:8845|v=4,False,,Kozhikode,"12/476 M, Vellayikode Road, Hidaya Public School, Perumanna, Kozhikode - 673026, Dist.Kozhikode, Kerala",7942873511,
"Kids Diaper, Small",,Uny Industries,https://www.indiamart.com/uny-industries/?pos=140&kwd=baby cloth diapers&tags=BB||||8752.144|Price|product|||NA|rsf:gd-|-stype:attr=1|qr_nm:gd|res:RC4|com-cf:nl|ptrs:na|ktp:N0|mc:55657|mtp:S|qry_typ:P|lang:en|wc:3|cs:8845|v=4,False,,New Delhi,"H. NO.-169, SHOP NO.-2,,D K MOHAN GARDEN,New Delhi ,110059,, New Delhi - 110059, Dist.Delhi, Delhi",8048370731,7853
Baby All in One Reusable Diaper,https://www.indiamart.com/proddetail/baby-all-in-one-reusable-diaper-2853396789655.html?pos=141&kwd=baby cloth diapers&tags=BA||||8207.956|Price|product|||NA|rsf:gd-|-stype:attr=1|qr_nm:gd|res:RC4|com-cf:nl|ptrs:na|ktp:N0|mc:55657|mtp:S|qry_typ:P|lang:en|wc:3|cs:8845|v=4,Daivya Enterprise,https://www.indiamart.com/daivya-enterprise-sanand/?pos=141&kwd=baby cloth diapers&tags=BA||||8207.956|Price|product|||NA|rsf:gd-|-stype:attr=1|qr_nm:gd|res:RC4|com-cf:nl|ptrs:na|ktp:N0|mc:55657|mtp:S|qry_typ:P|lang:en|wc:3|cs:8845|v=4,False,Bol,Sanand,"Shop No-1, Survey No-885, Near Motipura Bus Stand, Bol ,Sanad, GIDC, Bol, Sanand - 382170, Dist.Ahmedabad, Gujarat",7949224901,
Cotton Bumberry Baby Pocket Diaper,https://www.indiamart.com/proddetail/bumberry-baby-pocket-diaper-2851844720297.html?pos=142&kwd=baby cloth diapers&tags=BB||||8500.97|Price|product|||NA|rsf:gd-|-stype:attr=1|qr_nm:gd|res:RC4|com-cf:nl|ptrs:na|ktp:N0|mc:55657|mtp:S|qry_typ:P|lang:en|wc:3|cs:8845|v=4,Alpha Enterprises,https://www.indiamart.com/alphaenterprises/?pos=142&kwd=baby cloth diapers&tags=BB||||8500.97|Price|product|||NA|rsf:gd-|-stype:attr=1|qr_nm:gd|res:RC4|com-cf:nl|ptrs:na|ktp:N0|mc:55657|mtp:S|qry_typ:P|lang:en|wc:3|cs:8845|v=4,False,,Thrissur,"15/71,Post Office Road,Chiyyaram, Thrissur - 680026, Dist.Thrissur, Kerala",7942871618,
"12 Hour Bamboo Cotton Washable n Reusable Baby Daiper, Size: Medium, Age Group: Newly Born",https://www.indiamart.com/proddetail/washable-n-reusable-baby-daiper-24806437088.html?pos=143&kwd=baby cloth diapers&tags=BB||||8230.883|Price|product|||NA|rsf:gd-|-stype:attr=1|qr_nm:gd|res:RC4|com-cf:nl|ptrs:na|ktp:N0|mc:55657|mtp:S|qry_typ:P|lang:en|wc:3|cs:8845|v=4,Latest Mart,https://www.indiamart.com/elite-enterprise-surat/?pos=143&kwd=baby cloth diapers&tags=BB||||8230.883|Price|product|||NA|rsf:gd-|-stype:attr=1|qr_nm:gd|res:RC4|com-cf:nl|ptrs:na|ktp:N0|mc:55657|mtp:S|qry_typ:P|lang:en|wc:3|cs:8845|v=4,False,Mota Varachha,Surat,"B-201 Mota Varachha Priyank Palace, Mota Varachha, Surat - 394101, Dist.Surat, Gujarat",8047698029,
"Reusable Cloth Diaper, Size: free size, Age Group: Newly Born",https://www.indiamart.com/proddetail/reusable-cloth-diaper-26252547255.html?pos=144&kwd=baby cloth diapers&tags=BB||||8752.144|Price|product|||NA|rsf:gd-|-stype:attr=1|qr_nm:gd|res:RC4|com-cf:nl|ptrs:na|ktp:N0|mc:55657|mtp:S|qry_typ:P|lang:en|wc:3|cs:8845|v=4,Chandani Garments,https://www.indiamart.com/chandanigarments/?pos=144&kwd=baby cloth diapers&tags=BB||||8752.144|Price|product|||NA|rsf:gd-|-stype:attr=1|qr_nm:gd|res:RC4|com-cf:nl|ptrs:na|ktp:N0|mc:55657|mtp:S|qry_typ:P|lang:en|wc:3|cs:8845|v=4,False,,New Delhi,"X-3664, Gali-4, Shanti Mohalla Gandhi Nagar, East Delhi, New Delhi - 110031, Dist.Delhi, Delhi",8047674508,
Baby Washable Diaper,,P. P Drinks,https://www.indiamart.com/ms-p-p-drinks/?pos=145&kwd=baby cloth diapers&tags=BB||||9578.697|Price|product|||NA|rsf:gd-|-stype:attr=1|qr_nm:gd|res:RC4|com-cf:nl|ptrs:na|ktp:N0|mc:55657|mtp:S|qry_typ:P|lang:en|wc:3|cs:8845|v=4,False,Nayabazar,Cuttack,"Ward No-55 Holding No-286/a/89/a Po-nayabazar At- Kanheipur Cuttack, Nayabazar, Cuttack - 753004, Dist.Cuttack, Odisha",8048249683,7325
"Baby Diaper Insert, Size: Small, Age Group: Newly Born",https://www.indiamart.com/proddetail/baby-diaper-insert-2848991872612.html?pos=146&kwd=baby cloth diapers&tags=BA||||8752.144|Price|product|||NA|rsf:gd-|-stype:attr=1|qr_nm:gd|res:RC4|com-cf:nl|ptrs:na|ktp:N0|mc:55657|mtp:S|qry_typ:P|lang:en|wc:3|cs:8845|v=4,JD Enterprises,https://www.indiamart.com/delhi-jdenterprises/?pos=146&kwd=baby cloth diapers&tags=BA||||8752.144|Price|product|||NA|rsf:gd-|-stype:attr=1|qr_nm:gd|res:RC4|com-cf:nl|ptrs:na|ktp:N0|mc:55657|mtp:S|qry_typ:P|lang:en|wc:3|cs:8845|v=4,False,,New Delhi,"H.No-509/4, Ground Floor, Kh No-41, Gali No-6, Vijay Park, Maujpur , East, New Delhi - 110053, Dist.Delhi, Delhi",8047549131,
"Diaper/ Sanitary Pad Pul Diaper Outer Fabric, Age Group: Newly Born",https://www.indiamart.com/proddetail/pul-diaper-outer-fabric-23982725948.html?pos=147&kwd=baby cloth diapers&tags=BB||||8211.142|Price|product|||NA|rsf:gd-|-stype:attr=1|qr_nm:gd|res:RC4|com-cf:nl|ptrs:na|ktp:N0|mc:55657|mtp:S|qry_typ:P|lang:en|wc:3|cs:8845|v=4,T D Creation,https://www.indiamart.com/innovative-fabrics/?pos=147&kwd=baby cloth diapers&tags=BB||||8211.142|Price|product|||NA|rsf:gd-|-stype:attr=1|qr_nm:gd|res:RC4|com-cf:nl|ptrs:na|ktp:N0|mc:55657|mtp:S|qry_typ:P|lang:en|wc:3|cs:8845|v=4,False,,Mumbai,"A 504, Vithal Vinayak Sadan Opposite Swan Mill, Tj Road, Sewri, Mumbai - 400015, Dist.Mumbai, Maharashtra",8048981931,
Cotton Baby Cloth Diaper,https://www.indiamart.com/proddetail/baby-cloth-diaper-2851935077948.html?pos=148&kwd=baby cloth diapers&tags=BA||||8493.708|Price|product|||NA|rsf:gd-|-stype:attr=1|qr_nm:gd|res:RC4|com-cf:nl|ptrs:na|ktp:N0|mc:55657|mtp:S|qry_typ:P|lang:en|wc:3|cs:8845|v=4,Emmicare Industries Private Limited,https://www.indiamart.com/emmicare-industries-kerala/?pos=148&kwd=baby cloth diapers&tags=BA||||8493.708|Price|product|||NA|rsf:gd-|-stype:attr=1|qr_nm:gd|res:RC4|com-cf:nl|ptrs:na|ktp:N0|mc:55657|mtp:S|qry_typ:P|lang:en|wc:3|cs:8845|v=4,False,Vadakkangara,Manjeri,"7/162 ,B-Square Estate, Mankada Road, Koottilangadi,, Vadakkangara, Manjeri - 679324, Dist.Malappuram, Kerala",7942803958,
"Unisex Casual Wear Newborn Baby Hosiery Cotton Nappies, Age Group: Newly Born, Size: Small",https://www.indiamart.com/proddetail/newborn-baby-hosiery-cotton-nappies-2853257374691.html?pos=149&kwd=baby cloth diapers&tags=BA||||8228.275|Price|product|||NA|rsf:gd-|-stype:attr=1|qr_nm:gd|res:RC4|com-cf:nl|ptrs:na|ktp:N0|mc:55657|mtp:S|qry_typ:P|lang:en|wc:3|cs:8845|v=4,Devasya Enterprises,https://www.indiamart.com/devasya-enterprises/?pos=149&kwd=baby cloth diapers&tags=BA||||8228.275|Price|product|||NA|rsf:gd-|-stype:attr=1|qr_nm:gd|res:RC4|com-cf:nl|ptrs:na|ktp:N0|mc:55657|mtp:S|qry_typ:P|lang:en|wc:3|cs:8845|v=4,False,Kuber Nagar,Ahmedabad,"Ground Floor B-3 Radha Swami Road Rajesh Park Society, Kuber Nagar, Ahmedabad - 382480, Dist.Ahmedabad, Gujarat",7942794972,
Adult Cloth Diaper,https://www.indiamart.com/proddetail/adult-cloth-diaper-11022215273.html?pos=150&kwd=baby cloth diapers&tags=BB||||8663.873|Price|product|||NA|rsf:gd-|-stype:attr=1|qr_nm:gd|res:RC4|com-cf:nl|ptrs:na|ktp:N0|mc:55657|mtp:S|qry_typ:P|lang:en|wc:3|cs:8845|v=4,Asian Agencies,https://www.indiamart.com/asianagencies-bengaluru/?pos=150&kwd=baby cloth diapers&tags=BB||||8663.873|Price|product|||NA|rsf:gd-|-stype:attr=1|qr_nm:gd|res:RC4|com-cf:nl|ptrs:na|ktp:N0|mc:55657|mtp:S|qry_typ:P|lang:en|wc:3|cs:8845|v=4,False,Nagarbhavi,Bengaluru,"No. 41, Chowdeshwari Nilaya Nanjappa Garden, Papareddy Palya, Nagarbhavi, Second Stage, Nagarbhavi, Bengaluru - 560072, Dist.Bengaluru, Karnataka",8046040766,
"Baby Printed Button Diaper, Age Group: Newly Born",https://www.indiamart.com/proddetail/baby-printed-button-diaper-2853032402762.html?pos=151&kwd=baby cloth diapers&tags=BA||||8752.144|Price|product|||NA|rsf:gd-|-stype:attr=1|qr_nm:gd|res:RC4|com-cf:nl|ptrs:na|ktp:N0|mc:55657|mtp:S|qry_typ:P|lang:en|wc:3|cs:8845|v=4,Little Baby World,https://www.indiamart.com/little-baby-world/?pos=151&kwd=baby cloth diapers&tags=BA||||8752.144|Price|product|||NA|rsf:gd-|-stype:attr=1|qr_nm:gd|res:RC4|com-cf:nl|ptrs:na|ktp:N0|mc:55657|mtp:S|qry_typ:P|lang:en|wc:3|cs:8845|v=4,False,Patparganj,New Delhi,"Ground H264 Ramakrishna Vihar, DDA Market Rd, Patparganj, New Delhi - 110092, Dist.Delhi, Delhi",8069707365,397
"Baby Washable Diaper, Age Group: 3-12 Months",https://www.indiamart.com/proddetail/baby-washable-diaper-24122712912.html?pos=152&kwd=baby cloth diapers&tags=BB||||8954.051|Price|product|||NA|rsf:gd-|-stype:attr=1|qr_nm:gd|res:RC4|com-cf:nl|ptrs:na|ktp:N0|mc:55657|mtp:S|qry_typ:P|lang:en|wc:3|cs:8845|v=4,Swathy Garments,https://www.indiamart.com/swathygarments/?pos=152&kwd=baby cloth diapers&tags=BB||||8954.051|Price|product|||NA|rsf:gd-|-stype:attr=1|qr_nm:gd|res:RC4|com-cf:nl|ptrs:na|ktp:N0|mc:55657|mtp:S|qry_typ:P|lang:en|wc:3|cs:8845|v=4,False,,Chennai,"No. 1/A, Rajaji Street, Gerugambakkam, Chennai - 600122, Dist.Chennai, Tamil Nadu",8045907506,
"Reusable Cloth Diaper, Age Group: 0 To 24 Months",https://www.indiamart.com/proddetail/reusable-cloth-diaper-2852171074730.html?pos=153&kwd=baby cloth diapers&tags=BA||||8954.051|Price|product|||NA|rsf:gd-|-stype:attr=1|qr_nm:gd|res:RC4|com-cf:nl|ptrs:na|ktp:N0|mc:55657|mtp:S|qry_typ:P|lang:en|wc:3|cs:8845|v=4,Radhe Kids Mart,https://www.indiamart.com/radhekidsmartchennai/?pos=153&kwd=baby cloth diapers&tags=BA||||8954.051|Price|product|||NA|rsf:gd-|-stype:attr=1|qr_nm:gd|res:RC4|com-cf:nl|ptrs:na|ktp:N0|mc:55657|mtp:S|qry_typ:P|lang:en|wc:3|cs:8845|v=4,False,Purasawalkam,Chennai,"Door No 51 B Saravana Perumal Street Purasawalkam, Purasawalkam, Chennai - 600084, Dist.Chennai, Tamil Nadu",7942656302,
teniyu mix Washable Baby Diaper,https://www.indiamart.com/proddetail/washable-baby-diaper-2850323276662.html?pos=154&kwd=baby cloth diapers&tags=BA||||8230.883|Price|product|||NA|rsf:gd-|-stype:attr=1|qr_nm:gd|res:RC4|com-cf:nl|ptrs:na|ktp:N0|mc:55657|mtp:S|qry_typ:P|lang:en|wc:3|cs:8845|v=4,Janki Jiyana House,https://www.indiamart.com/jankijiyana-house/?pos=154&kwd=baby cloth diapers&tags=BA||||8230.883|Price|product|||NA|rsf:gd-|-stype:attr=1|qr_nm:gd|res:RC4|com-cf:nl|ptrs:na|ktp:N0|mc:55657|mtp:S|qry_typ:P|lang:en|wc:3|cs:8845|v=4,False,,Surat,"Shop No 10, 1st Floor, Sahyog Park, Opp. Mansarovar Circle, Amroli,, Surat - 394107, Dist.Surat, Gujarat",7942803964,
"hugit cloth diaper, Size: Large, Age Group: 1-2 Years",https://www.indiamart.com/proddetail/hugit-cloth-diaper-25967710562.html?pos=155&kwd=baby cloth diapers&tags=BA||||8592.056|Price|product|||NA|rsf:gd-|-stype:attr=1|qr_nm:gd|res:RC4|com-cf:nl|ptrs:na|ktp:N0|mc:55657|mtp:S|qry_typ:P|lang:en|wc:3|cs:8845|v=4,Mens Park,https://www.indiamart.com/men-s-park/?pos=155&kwd=baby cloth diapers&tags=BA||||8592.056|Price|product|||NA|rsf:gd-|-stype:attr=1|qr_nm:gd|res:RC4|com-cf:nl|ptrs:na|ktp:N0|mc:55657|mtp:S|qry_typ:P|lang:en|wc:3|cs:8845|v=4,False,Mettupalayam Road,Sirumugai,"Gandhi maidan, Mettupalayam Road, Sirumugai - 641302, Dist.Coimbatore, Tamil Nadu",8048361342,581
"Baby Small Cotton Cloth Diapers, Size: Medium, Age Group: 12 month",https://www.indiamart.com/proddetail/baby-small-cotton-cloth-diapers-25296353588.html?pos=156&kwd=baby cloth diapers&tags=BB||||8752.144|Price|product|||NA|rsf:gd-|-stype:attr=1|qr_nm:gd|res:RC4|com-cf:nl|ptrs:na|ktp:N0|mc:55657|mtp:S|qry_typ:P|lang:en|wc:3|cs:8845|v=4,Cross Hooks Mother-Baby Care Product,https://www.indiamart.com/crosshooks-motherbaby-careproduct/?pos=156&kwd=baby cloth diapers&tags=BB||||8752.144|Price|product|||NA|rsf:gd-|-stype:attr=1|qr_nm:gd|res:RC4|com-cf:nl|ptrs:na|ktp:N0|mc:55657|mtp:S|qry_typ:P|lang:en|wc:3|cs:8845|v=4,False,,New Delhi,"Block - A-2 No 4,5,24,25 Khasra No 83/6 Utsav Vihar Village Karala, New Delhi - 110081, Dist.Delhi, Delhi",7942658885,
"Cotton Cloth Diaper Baby Diapers, Age Group: New Born - 1 Year",https://www.indiamart.com/proddetail/baby-diapers-24809845933.html?pos=157&kwd=baby cloth diapers&tags=BB||||8223.226||product|||NA|rsf:gd-|-stype:attr=1|qr_nm:gd|res:RC4|com-cf:nl|ptrs:na|ktp:N0|mc:55657|mtp:S|qry_typ:P|lang:en|wc:3|cs:8845|v=4,Babys Choice,https://www.indiamart.com/babys-choice-mumbai/?pos=157&kwd=baby cloth diapers&tags=BB||||8223.226||product|||NA|rsf:gd-|-stype:attr=1|qr_nm:gd|res:RC4|com-cf:nl|ptrs:na|ktp:N0|mc:55657|mtp:S|qry_typ:P|lang:en|wc:3|cs:8845|v=4,False,Mumbai Suburan,Thane,"7,Sonal Darshan, Gaushala Road Mulund, Mumbai Suburan, Thane - 400080, Dist.Thane, Maharashtra",7942538240,
Bamboo Cotton White label Pink Baby reusable Diaper,https://www.indiamart.com/proddetail/white-label-pink-baby-reusable-diaper-24575817897.html?pos=158&kwd=baby cloth diapers&tags=BB||||8876.815|Price|product|||NA|rsf:gd-|-stype:attr=1|qr_nm:gd|res:RC4|com-cf:nl|ptrs:na|ktp:N0|mc:55657|mtp:S|qry_typ:P|lang:en|wc:3|cs:8845|v=4,Aarush GOC Private Limited,https://www.indiamart.com/aarushgoc-nagpur/?pos=158&kwd=baby cloth diapers&tags=BB||||8876.815|Price|product|||NA|rsf:gd-|-stype:attr=1|qr_nm:gd|res:RC4|com-cf:nl|ptrs:na|ktp:N0|mc:55657|mtp:S|qry_typ:P|lang:en|wc:3|cs:8845|v=4,False,,Nagpur,"First Floor F/8, Kunal Residency No III, Beltarodi Road, Nagpur - 441108, Dist.Nagpur, Maharashtra",8047657331,
cloth dipers Waterproof Pull up Padded Underwear for Kids Pack of 5,https://www.indiamart.com/proddetail/cloth-dipers-waterproof-pull-up-padded-underwear-for-kids-pack-of-5-2853640301112.html?pos=159&kwd=baby cloth diapers&tags=BA||||8626.744|Price|product|||NA|rsf:gd-|-stype:attr=1|qr_nm:gd|res:RC4|com-cf:nl|ptrs:na|ktp:N0|mc:55657|mtp:S|qry_typ:P|lang:en|wc:3|cs:8845|v=4,Thila Exports,https://www.indiamart.com/thilaexports/?pos=159&kwd=baby cloth diapers&tags=BA||||8626.744|Price|product|||NA|rsf:gd-|-stype:attr=1|qr_nm:gd|res:RC4|com-cf:nl|ptrs:na|ktp:N0|mc:55657|mtp:S|qry_typ:P|lang:en|wc:3|cs:8845|v=4,False,Boyampalayam,Tiruppur,"8/4085H,, Boyampalayam, Tiruppur - 641602, Dist.Coimbatore, Tamil Nadu",7949342870,
"Baby Green Cotton Nappy, Size: Small, Age Group: Newly Born",https://www.indiamart.com/proddetail/baby-green-cotton-nappy-2850138272397.html?pos=160&kwd=baby cloth diapers&tags=BB||||8752.144|Price|product|||NA|rsf:gd-|-stype:attr=1|qr_nm:gd|res:RC4|com-cf:nl|ptrs:na|ktp:N0|mc:55657|mtp:S|qry_typ:P|lang:en|wc:3|cs:8845|v=4,Meet Novelty,https://www.indiamart.com/meetnovelty/?pos=160&kwd=baby cloth diapers&tags=BB||||8752.144|Price|product|||NA|rsf:gd-|-stype:attr=1|qr_nm:gd|res:RC4|com-cf:nl|ptrs:na|ktp:N0|mc:55657|mtp:S|qry_typ:P|lang:en|wc:3|cs:8845|v=4,False,,New Delhi,"46, New Lahore Colony, Shastri Nagar, East, New Delhi - 110051, Dist.Delhi, Delhi",7942802861,
Baby Diaper Bag,https://www.indiamart.com/proddetail/baby-diaper-bag-2853640287855.html?pos=161&kwd=baby cloth diapers&tags=BA||||8752.144|Price|product|||NA|rsf:gd-|-stype:attr=1|qr_nm:gd|res:RC4|com-cf:nl|ptrs:na|ktp:N0|mc:55657|mtp:S|qry_typ:P|lang:en|wc:3|cs:8845|v=4,S.K Enterprises,https://www.indiamart.com/skenterprises-maujpur/?pos=161&kwd=baby cloth diapers&tags=BA||||8752.144|Price|product|||NA|rsf:gd-|-stype:attr=1|qr_nm:gd|res:RC4|com-cf:nl|ptrs:na|ktp:N0|mc:55657|mtp:S|qry_typ:P|lang:en|wc:3|cs:8845|v=4,False,Maujpur,New Delhi,"First Floor, Old H.No. 83, Old Maujpur, Maujpur, North East Delhi, Maujpur, New Delhi - 110053, Dist.Delhi, Delhi",7942721855,
Baby Diaper Cloth,,Ohms Fusion Knitwear India Private Limited,https://www.indiamart.com/ohms-fusion-knitwear/?pos=162&kwd=baby cloth diapers&tags=BB||||8626.744|Price|product|||NA|rsf:gd-|-stype:attr=1|qr_nm:gd|res:RC4|com-cf:nl|ptrs:na|ktp:N0|mc:55657|mtp:S|qry_typ:P|lang:en|wc:3|cs:8845|v=4,False,Kangayam Road,Tiruppur,"7A, Semmedu Thottam, Kangayam Road, Tiruppur - 641604, Dist.Coimbatore, Tamil Nadu",7942631345,
"KiddieHug Free Size Diaper Inserts, Age Group: 0 to 3 years",https://www.indiamart.com/proddetail/free-size-diaper-inserts-2850011489448.html?pos=163&kwd=baby cloth diapers&tags=BA||||8550.327|Price|product|||NA|rsf:gd-|-stype:attr=1|qr_nm:gd|res:RC4|com-cf:nl|ptrs:na|ktp:N0|mc:55657|mtp:S|qry_typ:P|lang:en|wc:3|cs:8845|v=4,Aadheerkh Clothing,https://www.indiamart.com/kiddiehug/?pos=163&kwd=baby cloth diapers&tags=BA||||8550.327|Price|product|||NA|rsf:gd-|-stype:attr=1|qr_nm:gd|res:RC4|com-cf:nl|ptrs:na|ktp:N0|mc:55657|mtp:S|qry_typ:P|lang:en|wc:3|cs:8845|v=4,False,,Palakkad,"4/550 Valarapalam Nattukkal, Palakkad - 678554, Dist.Palakkad, Kerala",7942787711,
Organic Cotton Muslin Padded Nappies/Langot,https://www.indiamart.com/proddetail/organic-cotton-muslin-padded-nappies-langot-2854281906955.html?pos=164&kwd=baby cloth diapers&tags=BA||||8230.883|Price|product|||NA|rsf:gd-|-stype:attr=1|qr_nm:gd|res:RC4|com-cf:nl|ptrs:na|ktp:N0|mc:55657|mtp:S|qry_typ:P|lang:en|wc:3|cs:8845|v=4,Arete Fashion,https://www.indiamart.com/arete-fashion/?pos=164&kwd=baby cloth diapers&tags=BA||||8230.883|Price|product|||NA|rsf:gd-|-stype:attr=1|qr_nm:gd|res:RC4|com-cf:nl|ptrs:na|ktp:N0|mc:55657|mtp:S|qry_typ:P|lang:en|wc:3|cs:8845|v=4,False,Udhana,Surat,"Saffron House, Sai Ashish Industrial Estate, New 120ft. Bamroli road, near raika Circle, Surat Gujar Saffron House, Sai Ashish Industrial Estate, New 120ft. Bamroli road, near raika Circle, Surat Gujar, Udhana, Surat - 395010, Dist.Surat, Gujarat",8062245968,406
"Printed BUTTIES DAIPER PANT, Size: Small, Packaging Size: Large",https://www.indiamart.com/proddetail/butties-daiper-pant-2853416712291.html?pos=165&kwd=baby cloth diapers&tags=BA||||8752.144|Price|product|||NA|rsf:gd-|-stype:attr=1|qr_nm:gd|res:RC4|com-cf:nl|ptrs:na|ktp:N0|mc:55657|mtp:S|qry_typ:P|lang:en|wc:3|cs:8845|v=4,C R Trading Company,https://www.indiamart.com/crtradingcompany/?pos=165&kwd=baby cloth diapers&tags=BA||||8752.144|Price|product|||NA|rsf:gd-|-stype:attr=1|qr_nm:gd|res:RC4|com-cf:nl|ptrs:na|ktp:N0|mc:55657|mtp:S|qry_typ:P|lang:en|wc:3|cs:8845|v=4,False,Mandoli,New Delhi,"Ground Floor, B - 528, Main 30 Futa Road, Rajiv Nagar, Near R.b. Convent School,, Mandoli, New Delhi - 110093, Dist.Delhi, Delhi",7942718563,
"Cotton Pant Diapers Extra Care Economy Baby Diaper, Small, Packaging Size: 48Pcs",https://www.indiamart.com/proddetail/extra-care-economy-baby-diaper-25108602188.html?pos=166&kwd=baby cloth diapers&tags=BA||||8778.123|Price|product|||NA|rsf:gd-|-stype:attr=1|qr_nm:gd|res:RC4|com-cf:nl|ptrs:na|ktp:N0|mc:55657|mtp:S|qry_typ:P|lang:en|wc:3|cs:8845|v=4,Washim Pampers,https://www.indiamart.com/washim-pampers/?pos=166&kwd=baby cloth diapers&tags=BA||||8778.123|Price|product|||NA|rsf:gd-|-stype:attr=1|qr_nm:gd|res:RC4|com-cf:nl|ptrs:na|ktp:N0|mc:55657|mtp:S|qry_typ:P|lang:en|wc:3|cs:8845|v=4,False,,Noida,"Mahalaxmi Garden, Phase-1, Ground Floor, Choudhary Charan Singh Gate, Khora Colony, Noida - 201309, Dist.Gautam Budh Nagar, Uttar Pradesh",8047300175,
Baby cloth diapers,,Herbalica Herbal Napkins,https://www.indiamart.com/herbalica-herbal-napkins/?pos=167&kwd=baby cloth diapers&tags=BB||||8584.299||product|||NA|rsf:gd-|-stype:attr=1|qr_nm:gd|res:RC4|com-cf:nl|ptrs:na|ktp:N0|mc:55657|mtp:S|qry_typ:P|lang:en|wc:3|cs:8845|v=4,False,Kongu Managar Vilankurichi,Coimbatore,"40A Phase 2 Bankers Colony, Kongu Managar Vilankurichi, Coimbatore - 641035, Dist.Coimbatore, Tamil Nadu",8048372745,990
Baby Cloth Diaper,,Honeyscoop,https://www.indiamart.com/honeyscoop-agra/?pos=168&kwd=baby cloth diapers&tags=BB||||8823.154||product|||NA|rsf:gd-|-stype:attr=1|qr_nm:gd|res:RC4|com-cf:nl|ptrs:na|ktp:N0|mc:55657|mtp:S|qry_typ:P|lang:en|wc:3|cs:8845|v=4,False,agra,Agra,"71 dhruv nagar behind pankhuri hospital sikandra bodla, agra, Agra - 282005, Dist.Agra, Uttar Pradesh",7942665769,
Reusable Baby Cloth Diapers,,Ibranding Marketing Services,https://www.indiamart.com/i-bring-marketing-services/?pos=169&kwd=baby cloth diapers&tags=BB||||8752.144|Price|product|||NA|rsf:gd-|-stype:attr=1|qr_nm:gd|res:RC4|com-cf:nl|ptrs:na|ktp:N0|mc:55657|mtp:S|qry_typ:P|lang:en|wc:3|cs:8845|v=4,False,Shahpurjat,New Delhi,"B-3-b-45-b Janakpuri, Shahpurjat, New Delhi - 110058, Dist.Delhi, Delhi",8069857311,454
Baby Reusable Cloth Diapers,,Baby Accessories,https://www.indiamart.com/baby-accessories-new-delhi/?pos=170&kwd=baby cloth diapers&tags=BB||||8752.144|Price|product|||NA|rsf:gd-|-stype:attr=1|qr_nm:gd|res:RC4|com-cf:nl|ptrs:na|ktp:N0|mc:55657|mtp:S|qry_typ:P|lang:en|wc:3|cs:8845|v=4,False,Karol Bagh,New Delhi,"Street 2, Karol Bagh, New Delhi - 110005, Dist.Delhi, Delhi",8069264835,773
Reusable Baby Cloth Diapers,,Hyzoom Traders,https://www.indiamart.com/hyzoom-traders/?pos=171&kwd=baby cloth diapers&tags=BB||||8845.038|Price|product|||NA|rsf:gd-|-stype:attr=1|qr_nm:gd|res:RC4|com-cf:nl|ptrs:na|ktp:N0|mc:55657|mtp:S|qry_typ:P|lang:en|wc:3|cs:8845|v=4,False,,Melvisharam,"272/b2 Usmanpettai 1st Street Melvisharam, Melvisharam - 632509, Dist.Vellore, Tamil Nadu",8048372847,104
Reusable Baby Cloth Diapers,,Earthy Lanes,https://www.indiamart.com/earthy-lanes-indore/?pos=172&kwd=baby cloth diapers&tags=BB||||8559.269||product|||NA|rsf:gd-|-stype:attr=1|qr_nm:gd|res:RC4|com-cf:nl|ptrs:na|ktp:N0|mc:55657|mtp:S|qry_typ:P|lang:en|wc:3|cs:8845|v=4,False,Sangam Nagar,Indore,"107, Sector B Sangam Nagar Indore Indore, Sangam Nagar, Indore - 452006, Dist.Indore, Madhya Pradesh",8069023795,385
Kids Cloth Diapers,,Mymini Buds,https://www.indiamart.com/mymini-buds-tiruppur/?pos=173&kwd=baby cloth diapers&tags=BA||||8626.744|Price|product|||NA|rsf:gd-|-stype:attr=1|qr_nm:gd|res:RC4|com-cf:nl|ptrs:na|ktp:N0|mc:55657|mtp:S|qry_typ:P|lang:en|wc:3|cs:8845|v=4,False,Tirupur,Tiruppur,"No.63a, Sankar Nagar, Dharapuram Road, Tirupur, Tiruppur - 641604, Dist.Coimbatore, Tamil Nadu",8048370135,6660
Baby Cloth Diaper,,OMG Trader'S,https://www.indiamart.com/omg-traders-ghaziabad/?pos=174&kwd=baby cloth diapers&tags=BB||||8785.791|Price|product|||NA|rsf:gd-|-stype:attr=1|qr_nm:gd|res:RC4|com-cf:nl|ptrs:na|ktp:N0|mc:55657|mtp:S|qry_typ:P|lang:en|wc:3|cs:8845|v=4,False,,Ghaziabad,"310,Sector 3 near onyx plaza vasundhara Husain, Ghaziabad - 201012, Dist.Ghaziabad, Uttar Pradesh",8069857323,602
Baby Cloth Diaper,,Marudhar Hosiery,https://www.indiamart.com/marudhar-hosiery/?pos=175&kwd=baby cloth diapers&tags=BB||||8556.61||product|||NA|rsf:gd-|-stype:attr=1|qr_nm:gd|res:RC4|com-cf:nl|ptrs:na|ktp:N0|mc:55657|mtp:S|qry_typ:P|lang:en|wc:3|cs:8845|v=4,False,Lashkar Mohalla,Mysuru,"No.928 5th West Cross, kumbargeri Uma talkies road,, Lashkar Mohalla, Mysuru - 570001, Dist.Mysuru, Karnataka",8048372268,804
BABY CLOTH DIAPER,,Grasshopper,https://www.indiamart.com/grasshopper-116782035/?pos=176&kwd=baby cloth diapers&tags=B||||8663.873||product|||NA|rsf:gd-|-stype:attr=1|qr_nm:gd|res:RC4|com-cf:nl|ptrs:na|ktp:N0|mc:55657|mtp:S|qry_typ:P|lang:en|wc:3|cs:8845|v=4,False,RT Nagar,Bengaluru,"No.14 No.14, Opp to Post Office (Vishnu Garden), RT Nagar, Bengaluru-560032, Karnataka,India, RT Nagar, Bengaluru - 560032, Dist.Bengaluru, Karnataka",7942620730,
Baby Cloth Diaper,,Sahil Garments,https://www.indiamart.com/sahilgarments-thane/?pos=177&kwd=baby cloth diapers&tags=BB||||8223.226||product|||NA|rsf:gd-|-stype:attr=1|qr_nm:gd|res:RC4|com-cf:nl|ptrs:na|ktp:N0|mc:55657|mtp:S|qry_typ:P|lang:en|wc:3|cs:8845|v=4,False,,Thane,"157 chakala street 2 nd floor Masjid Bunder Mumbai Mumbai City, Thane - 400003, Dist.Thane, Maharashtra",8069033809,348
RE-USABLE CLOTH DIAPERS FOR NEWBORNS,,Activdry International,https://www.indiamart.com/activdry-international/?pos=178&kwd=baby cloth diapers&tags=BB||||8571.301||product|||NA|rsf:gd-|-stype:attr=1|qr_nm:gd|res:RC4|com-cf:nl|ptrs:na|ktp:N0|mc:55657|mtp:S|qry_typ:P|lang:en|wc:3|cs:8845|v=4,False,Medical College,Thiruvananthapuram,"T.c.98/921 Arasummoode Kulathoor P.o., Medical College, Thiruvananthapuram - 695583, Dist.Thiruvananthapuram, Kerala",8069033740,706
"Baby Cloth Diaper Washable, Reusable & Adjusable",,Zampa Enterprises,https://www.indiamart.com/zampa-enterprises/?pos=179&kwd=baby cloth diapers&tags=BB||||9189.305|Price|product|||NA|rsf:gd-|-stype:attr=1|qr_nm:gd|res:RC4|com-cf:nl|ptrs:na|ktp:N0|mc:55657|mtp:S|qry_typ:P|lang:en|wc:3|cs:8845|v=4,False,Ghayasuddinpur,Prayagraj,"Arazi No 399 Bihka Road Bihka Urf Puramufti Arazi No 399, Bihka Road, Bihka Urf Puramufti, Ghayasuddinpur, Prayagraj - 212208, Dist.Allahabad, Uttar Pradesh",8048372112,367
Unisex Baby Cloth Diaper Super Kid Reusable Cloth Diaper,,Bear and Bunny,https://www.indiamart.com/bear-and-bunny/?pos=180&kwd=baby cloth diapers&tags=BA||||8228.275||product|||NA|rsf:gd-|-stype:attr=1|qr_nm:gd|res:RC4|com-cf:nl|ptrs:na|ktp:N0|mc:55657|mtp:S|qry_typ:P|lang:en|wc:3|cs:8845|v=4,False,,Ahmedabad,"202 Primate, Opposite Mother Milk Palace, Near Gormoh Cross Roads, Bodakdev, Ahmedabad, Gujarat 380, Ahmedabad - 382470, Dist.Ahmedabad, Gujarat",8048370723,3760
Washable Baby Napkin Cloth In Karur,,Guru Ji Enterprises,https://www.indiamart.com/gurujienterprises-67517298/?pos=181&kwd=baby cloth diapers&tags=BA||||8752.144|Price|product|||NA|rsf:gd-|-stype:attr=1|qr_nm:gd|res:RC4|com-cf:nl|ptrs:na|ktp:N0|mc:55657|mtp:S|qry_typ:P|lang:en|wc:3|cs:8845|v=4,False,,New Delhi,"A-2,105-106,,ROHINI SECTOR- 8,NORTH WEST DELHI ,,Delhi, New Delhi - 110085, Dist.Delhi, Delhi",8048361332,497
MEE MEE REUSABLE BABY CLOTH DIAPER WITH ADJUSTABLE SNAP BUTTONS,,Beads Kids,https://www.indiamart.com/bead-kids/?pos=182&kwd=baby cloth diapers&tags=BB||||8531.645||product|||NA|rsf:gd-|-stype:attr=1|qr_nm:gd|res:RC4|com-cf:nl|ptrs:na|ktp:N0|mc:55657|mtp:S|qry_typ:P|lang:en|wc:3|cs:8845|v=4,False,Kanjikuzhy,Changanacherry,"94/IV,1, Beads Kids, kanjikuzhy,kanjikuzhy Trio Chamber,,686004,Kottayam, Kanjikuzhy, Changanacherry - 686501, Dist.Kottayam, Kerala",7942656732,
Kids Diaper,,S1 Solutions,https://www.indiamart.com/company/227822105/?pos=183&kwd=baby cloth diapers&tags=BB||||8876.815||product|||NA|rsf:gd-|-stype:attr=1|qr_nm:gd|res:RC4|com-cf:nl|ptrs:na|ktp:N0|mc:55657|mtp:S|qry_typ:P|lang:en|wc:3|cs:8845|v=4,False,,Nagpur,", Nagpur - 440013, Dist.Nagpur, Maharashtra",8048249738,9538
grey insert for buttin diaper,,Kids Village,https://www.indiamart.com/kids-village-ghaziabad/?pos=184&kwd=baby cloth diapers&tags=BB||||8785.791||product|||NA|rsf:gd-|-stype:attr=1|qr_nm:gd|res:RC4|com-cf:nl|ptrs:na|ktp:N0|mc:55657|mtp:S|qry_typ:P|lang:en|wc:3|cs:8845|v=4,False,Sahibabad,Ghaziabad,"A-33/21 Site-4, Sahibabad, Ghaziabad - 201010, Dist.Ghaziabad, Uttar Pradesh",8045849084,6195
bhandan,,Uttam rakhi malad bombay,https://www.indiamart.com/asha-puraa-pakeging/?pos=185&kwd=baby cloth diapers&tags=BB||||8211.142||product|||NA|rsf:gd-|-stype:attr=1|qr_nm:gd|res:RC4|com-cf:nl|ptrs:na|ktp:N0|mc:55657|mtp:S|qry_typ:P|lang:en|wc:3|cs:8845|v=4,False,Malad West,Mumbai,"No 1 Malad Mumbai Kapadia niwas, Malad West, Mumbai - 400064, Dist.Mumbai, Maharashtra",8047782620,
Add kr do ye vala product n,,Sarita Engineering Works,https://www.indiamart.com/birbal/?pos=186&kwd=baby cloth diapers&tags=BA||||8769.508||product|||NA|rsf:gd-|-stype:attr=1|qr_nm:gd|res:RC4|com-cf:nl|ptrs:na|ktp:N0|mc:55657|mtp:S|qry_typ:P|lang:en|wc:3|cs:8845|v=4,False,,Faridabad,"F-9554 Sanjay Colony Faridabad, Faridabad - 121001, Dist.Faridabad, Haryana",7942627874,
Cloth Diaper,,D R Creation,https://www.indiamart.com/d-r-creation/?pos=187&kwd=baby cloth diapers&tags=BB||||8769.508||product|||NA|rsf:gd-|-stype:attr=1|qr_nm:gd|res:RC4|com-cf:nl|ptrs:na|ktp:N0|mc:55657|mtp:S|qry_typ:P|lang:en|wc:3|cs:8845|v=4,False,0 House No Karuna Nagar Mavai Road Gali No 7,Faridabad,"0 House No Karuna Nagar Mavai Road Gali No 7 0 House No Karuna Nagar Mavai Road Gali No 7, 0 House No Karuna Nagar Mavai Road Gali No 7, Faridabad - 121002, Dist.Faridabad, Haryana",8069051324,150
Kids Diaper,,Babys diaper,https://www.indiamart.com/babys-diaper/?pos=188&kwd=baby cloth diapers&tags=BB||||8601.347||product|||NA|rsf:gd-|-stype:attr=1|qr_nm:gd|res:RC4|com-cf:nl|ptrs:na|ktp:N0|mc:55657|mtp:S|qry_typ:P|lang:en|wc:3|cs:8845|v=4,False,,Jaipur,", Jaipur, Dist.Jaipur, Rajasthan",8048247089,1027
Kids Diaper,,First smile,https://www.indiamart.com/company/190769735/?pos=189&kwd=baby cloth diapers&tags=BB||||9572.14|Price|product|||NA|rsf:gd-|-stype:attr=1|qr_nm:gd|res:RC4|com-cf:nl|ptrs:na|ktp:N0|mc:55657|mtp:S|qry_typ:P|lang:en|wc:3|cs:8845|v=4,False,,Bhubaneswar,", Bhubaneswar, Dist.Khorda, Odisha",8048247088,7026
Reusable Cloth Diaper,,U.K. Sales,https://www.indiamart.com/uk-sales-mumbai/?pos=190&kwd=baby cloth diapers&tags=BB||||8211.142||product|||NA|rsf:gd-|-stype:attr=1|qr_nm:gd|res:RC4|com-cf:nl|ptrs:na|ktp:N0|mc:55657|mtp:S|qry_typ:P|lang:en|wc:3|cs:8845|v=4,False,,Mumbai,"Ground Floor Shop No. 5 Naushir Bharucha Marg Sonawala Bldg No.7c Tardeo, Mumbai - 400007, Dist.Mumbai, Maharashtra",8048249698,2791
Diaper baby washable diaper,,ali akbar,https://www.indiamart.com/flboyant/?pos=191&kwd=baby cloth diapers&tags=BA||||8220.031|Price|product|||NA|rsf:gd-|-stype:attr=1|qr_nm:gd|res:RC4|com-cf:nl|ptrs:na|ktp:N0|mc:55657|mtp:S|qry_typ:P|lang:en|wc:3|cs:8845|v=4,False,Kakoshi Cross Lane,Sidhpur,"Decorat, ACC Compound, Kakoshi Cross Lane, Sidhpur - 384151, Dist.Patan, Gujarat",8048265554,412
Kids Diaper,,Nishiv Marketing,https://www.indiamart.com/nishiv-marketing/?pos=192&kwd=baby cloth diapers&tags=BB||||8038.093||product|||NA|rsf:gd-|-stype:attr=1|qr_nm:gd|res:RC4|com-cf:nl|ptrs:na|ktp:N0|mc:55657|mtp:S|qry_typ:P|lang:en|wc:3|cs:8845|v=4,False,,Rajkot,"Block no 73/c, maruti nagar, madhuram, junagadh., Rajkot - 360007, Dist.Rajkot, Gujarat",8047311027,5661
Snuggle Baby Diaper,,Rizwan & Brothers,https://www.indiamart.com/baby-diaper-saharanpur/?pos=193&kwd=baby cloth diapers&tags=BB||||8810.737|Price|product|||NA|rsf:gd-|-stype:attr=1|qr_nm:gd|res:RC4|com-cf:nl|ptrs:na|ktp:N0|mc:55657|mtp:S|qry_typ:P|lang:en|wc:3|cs:8845|v=4,False,,Saharanpur,"1147/5 ,Subhash Nagar, Saharanpur - 247001, Dist.Saharanpur, Uttar Pradesh",7942653227,
"Baby Cloth Diaper, Size: Medium, Age Group: Newly Born",https://www.indiamart.com/proddetail/baby-cloth-diaper-2852664914797.html?pos=194&kwd=baby cloth diapers&tags=CC||||8626.744||product|||TS|rsf:gd-|-stype:attr=1|qr_nm:gd|res:RC4|com-cf:nl|ptrs:na|ktp:N0|mc:55657|mtp:S|qry_typ:P|lang:en|wc:3|cs:8845|v=4,Srie K.S.K. Tex,https://www.indiamart.com/srieksktex-tiruppur/?pos=194&kwd=baby cloth diapers&tags=CC||||8626.744||product|||TS|rsf:gd-|-stype:attr=1|qr_nm:gd|res:RC4|com-cf:nl|ptrs:na|ktp:N0|mc:55657|mtp:S|qry_typ:P|lang:en|wc:3|cs:8845|v=4,False,Radha Nagar,Tiruppur,"28A, NA, Sv Colony, 6th Street, PN Road,Coimbatore, Radha Nagar, Tiruppur - 641602, Dist.Coimbatore, Tamil Nadu",8047850887,
"Freshkins Cloth Velcro Baby Diaper, Age Group: Newly Born",https://www.indiamart.com/proddetail/freshkins-cloth-velcro-baby-diaper-2851845802173.html?pos=195&kwd=baby cloth diapers&tags=CC||||9578.697|Price|product|||TS|rsf:gd-|-stype:attr=1|qr_nm:gd|res:RC4|com-cf:nl|ptrs:na|ktp:N0|mc:55657|mtp:S|qry_typ:P|lang:en|wc:3|cs:8845|v=4,Jyotsna Associate,https://www.indiamart.com/jyotsnaassociate/?pos=195&kwd=baby cloth diapers&tags=CC||||9578.697|Price|product|||TS|rsf:gd-|-stype:attr=1|qr_nm:gd|res:RC4|com-cf:nl|ptrs:na|ktp:N0|mc:55657|mtp:S|qry_typ:P|lang:en|wc:3|cs:8845|v=4,False,Mangalabag,Cuttack,"New Colony, 183/H/3, Buxibazar, Gamadia, Mangalabag, Cuttack - 753001, Dist.Cuttack, Odisha",7942836140,
"Bamboo Cotton Baby Reusable Diapers, Small",https://www.indiamart.com/proddetail/baby-reusable-diapers-2852912112591.html?pos=196&kwd=baby cloth diapers&tags=CC||||8752.144|Price|product|||TS|rsf:gd-|-stype:attr=1|qr_nm:gd|res:RC4|com-cf:nl|ptrs:na|ktp:N0|mc:55657|mtp:S|qry_typ:P|lang:en|wc:3|cs:8845|v=4,Ananya Enterprises,https://www.ananyaenterprisesonline.com/?pos=196&kwd=baby cloth diapers&tags=CC||||8752.144|Price|product|||TS|rsf:gd-|-stype:attr=1|qr_nm:gd|res:RC4|com-cf:nl|ptrs:na|ktp:N0|mc:55657|mtp:S|qry_typ:P|lang:en|wc:3|cs:8845|v=4,False,Johripur,New Delhi,"A - 89 Gali No - 4 Johripur Extention, Johripur, New Delhi - 110094, Dist.Delhi, Delhi",8048954241,
White Children Printed Cloth Diaper,https://www.indiamart.com/proddetail/children-printed-cloth-diaper-13296547962.html?pos=197&kwd=baby cloth diapers&tags=CC||||8666.857|Price|product|||TS|rsf:gd-|-stype:attr=1|qr_nm:gd|res:RC4|com-cf:nl|ptrs:na|ktp:N0|mc:55657|mtp:S|qry_typ:P|lang:en|wc:3|cs:8845|v=4,Sharadha Textile Traders,https://www.sharadhatextiletraders.com/?pos=197&kwd=baby cloth diapers&tags=CC||||8666.857|Price|product|||TS|rsf:gd-|-stype:attr=1|qr_nm:gd|res:RC4|com-cf:nl|ptrs:na|ktp:N0|mc:55657|mtp:S|qry_typ:P|lang:en|wc:3|cs:8845|v=4,False,Narayana Nagar,komarapalayam,"5B, 12/5, East Colony, Narayana Nagar, komarapalayam - 638183, Dist.Namakkal, Tamil Nadu",8047639213,
Cap Washable Cloth,https://www.indiamart.com/proddetail/cap-washable-cloth-2849205028988.html?pos=198&kwd=baby cloth diapers&tags=CC||||8752.144|Price|product|||MDC|rsf:gd-|-stype:attr=1|qr_nm:gd|res:RC4|com-cf:nl|ptrs:na|ktp:N0|mc:55657|mtp:S|qry_typ:P|lang:en|wc:3|cs:8845|v=4,National Cap House,https://www.indiamart.com/national-caphouse/?pos=198&kwd=baby cloth diapers&tags=CC||||8752.144|Price|product|||MDC|rsf:gd-|-stype:attr=1|qr_nm:gd|res:RC4|com-cf:nl|ptrs:na|ktp:N0|mc:55657|mtp:S|qry_typ:P|lang:en|wc:3|cs:8845|v=4,False,Bara Hindu Rao,New Delhi,"8272-8273, S/F, New Anaj Mandi, Bara Hindu Rao, Central, Bara Hindu Rao, New Delhi - 110006, Dist.Delhi, Delhi",8047551649,
"NATKHAT Cotton NAPPY SET, Size: NEWBORN, Age Group: Newly Born",https://www.indiamart.com/proddetail/nappy-set-21852756033.html?pos=199&kwd=baby cloth diapers&tags=CC||||9839.57|Price|product|||TS|rsf:gd-|-stype:attr=1|qr_nm:gd|res:RC4|com-cf:nl|ptrs:na|ktp:N0|mc:55657|mtp:S|qry_typ:P|lang:en|wc:3|cs:8845|v=4,Guru Ram Das Store,https://www.indiamart.com/gururamdasstore/?pos=199&kwd=baby cloth diapers&tags=CC||||9839.57|Price|product|||TS|rsf:gd-|-stype:attr=1|qr_nm:gd|res:RC4|com-cf:nl|ptrs:na|ktp:N0|mc:55657|mtp:S|qry_typ:P|lang:en|wc:3|cs:8845|v=4,False,Machua,Kolkata,"1st FRL, FL-1B, 162/1B, Muktaram Babu Street, Machua, Kolkata - 700007, Dist.Kolkata, West Bengal",7942550681,
Huggies Baby Diapers,,Deep Surgical,https://www.indiamart.com/deepsurgical/?pos=200&kwd=baby cloth diapers&tags=CC||||8752.144|Price|product|||MDC|rsf:gd-|-stype:attr=1|qr_nm:gd|res:RC4|com-cf:nl|ptrs:na|ktp:N0|mc:55657|mtp:S|qry_typ:P|lang:en|wc:3|cs:8845|v=4,False,Chandni Chowk,New Delhi,"1933/42, Narayan Bazar, Katra Lachoo Singh, Bhagirath Place, North, Chandni Chowk, New Delhi - 110006, Dist.Delhi, Delhi",7942965243,
Infant Muslin Reusable Clothes Nappy,https://www.indiamart.com/proddetail/infant-muslin-reusable-clothes-nappy-2853401913033.html?pos=201&kwd=baby cloth diapers&tags=||||8307.81|Price|product|||TS|rsf:gd-|-stype:attr=1|qr_nm:gd|res:RC4|com-cf:nl|ptrs:na|ktp:N0|mc:55657|mtp:S|qry_typ:P|lang:en|wc:3|cs:8845|v=4,Lazytoddler Solutions Private Limited,https://www.indiamart.com/lazytoddler-solutions/?pos=201&kwd=baby cloth diapers&tags=||||8307.81|Price|product|||TS|rsf:gd-|-stype:attr=1|qr_nm:gd|res:RC4|com-cf:nl|ptrs:na|ktp:N0|mc:55657|mtp:S|qry_typ:P|lang:en|wc:3|cs:8845|v=4,False,Wakad,Pune,"A2-1001, Fl-A1, Behind Madhuban Hotel, S.No-40, Armada Parkhe Wasti, Wakad, Wakad, Pune - 411057, Dist.Pune, Maharashtra",8043819563,
Cotton Small Baby Diapers,https://www.indiamart.com/proddetail/small-baby-diapers-2852357417697.html?pos=202&kwd=baby cloth diapers&tags=||||8717.056|Price|product|||TS|rsf:gd-|-stype:attr=1|qr_nm:gd|res:RC4|com-cf:nl|ptrs:na|ktp:N0|mc:55657|mtp:S|qry_typ:P|lang:en|wc:3|cs:8845|v=4,Best Diapers,https://www.bestdiapers.net/?pos=202&kwd=baby cloth diapers&tags=||||8717.056|Price|product|||TS|rsf:gd-|-stype:attr=1|qr_nm:gd|res:RC4|com-cf:nl|ptrs:na|ktp:N0|mc:55657|mtp:S|qry_typ:P|lang:en|wc:3|cs:8845|v=4,False,Tata Colony,Salem,"591/3 Pillayar Nagar Siddharkoil Main Road Pillayar Nagar, Siddhar Koil Main Road, Tata Colony, Salem - 636005, Dist.Salem, Tamil Nadu",7942703611,
"Disposable Baby Diaper, Age Group: Newly Born",https://www.indiamart.com/proddetail/disposable-baby-diaper-12769162091.html?pos=203&kwd=baby cloth diapers&tags=||||8559.269|Price|product|||TS|rsf:gd-|-stype:attr=1|qr_nm:gd|res:RC4|com-cf:nl|ptrs:na|ktp:N0|mc:55657|mtp:S|qry_typ:P|lang:en|wc:3|cs:8845|v=4,Madhav Overseas Corporation,https://www.madhavoverseascorporation.net/?pos=203&kwd=baby cloth diapers&tags=||||8559.269|Price|product|||TS|rsf:gd-|-stype:attr=1|qr_nm:gd|res:RC4|com-cf:nl|ptrs:na|ktp:N0|mc:55657|mtp:S|qry_typ:P|lang:en|wc:3|cs:8845|v=4,False,Atal Khel Parisar Main Road,Indore,"Madhav Corporate Scheme No 78 , Sector D ,Plot No 4,, Atal Khel Parisar Main Road, Indore - 452010, Dist.Indore, Madhya Pradesh",8048980263,
"Cotton Grade B Baby Diapers XL Size, Medium",https://www.indiamart.com/proddetail/grade-b-baby-diapers-xl-size-2853301273130.html?pos=204&kwd=baby cloth diapers&tags=||||8559.269|Price|product|||TS|rsf:gd-|-stype:attr=1|qr_nm:gd|res:RC4|com-cf:nl|ptrs:na|ktp:N0|mc:55657|mtp:S|qry_typ:P|lang:en|wc:3|cs:8845|v=4,Pulkit Enterprises,https://www.indiamart.com/pulkitenterprises-indor/?pos=204&kwd=baby cloth diapers&tags=||||8559.269|Price|product|||TS|rsf:gd-|-stype:attr=1|qr_nm:gd|res:RC4|com-cf:nl|ptrs:na|ktp:N0|mc:55657|mtp:S|qry_typ:P|lang:en|wc:3|cs:8845|v=4,False,,Indore,"505, Kalpana Apartment, 1, 7,South Tukoganj, Indore - 452001, Dist.Indore, Madhya Pradesh",8048961141,
Baby Diapers 75 Pice,https://www.indiamart.com/proddetail/baby-diapers-75-pice-2853170230333.html?pos=205&kwd=baby cloth diapers&tags=||||8752.144|Price|product|||TS|rsf:gd-|-stype:attr=1|qr_nm:gd|res:RC4|com-cf:nl|ptrs:na|ktp:N0|mc:55657|mtp:S|qry_typ:P|lang:en|wc:3|cs:8845|v=4,MSND Manufacturing,https://www.indiamart.com/msnd-manufacturing/?pos=205&kwd=baby cloth diapers&tags=||||8752.144|Price|product|||TS|rsf:gd-|-stype:attr=1|qr_nm:gd|res:RC4|com-cf:nl|ptrs:na|ktp:N0|mc:55657|mtp:S|qry_typ:P|lang:en|wc:3|cs:8845|v=4,False,Mandoli,New Delhi,"Ground Floor at C-2/80, floor-Kh. No. 34/1/1, G/F, Gali No.2, Harsh Vihar,, Mandoli, New Delhi - 110093, Dist.Delhi, Delhi",8046032266,
MOMMY CARE Reusable Cotton Baby Diapers,https://www.indiamart.com/proddetail/mommy-care-reusable-cotton-baby-diapers-2853904884073.html?pos=206&kwd=baby cloth diapers&tags=||||8228.275|Price|product|||TS|rsf:gd-|-stype:attr=1|qr_nm:gd|res:RC4|com-cf:nl|ptrs:na|ktp:N0|mc:55657|mtp:S|qry_typ:P|lang:en|wc:3|cs:8845|v=4,Four40 Healthcare Private Limited,https://www.indiamart.com/four40-healthcare/?pos=206&kwd=baby cloth diapers&tags=||||8228.275|Price|product|||TS|rsf:gd-|-stype:attr=1|qr_nm:gd|res:RC4|com-cf:nl|ptrs:na|ktp:N0|mc:55657|mtp:S|qry_typ:P|lang:en|wc:3|cs:8845|v=4,False,Siddhapur,Ahmedabad,"401, Ashmaan Complex B/h Ganesh Plaza,, Siddhapur, Ahmedabad - 380013, Dist.Ahmedabad, Gujarat",7942843388,
"Plain Baby Diaper Pants, Size: Medium",https://www.indiamart.com/proddetail/baby-diaper-pants-2851612701488.html?pos=207&kwd=baby cloth diapers&tags=||||8559.269|Price|product|||TS|rsf:gd-|-stype:attr=1|qr_nm:gd|res:RC4|com-cf:nl|ptrs:na|ktp:N0|mc:55657|mtp:S|qry_typ:P|lang:en|wc:3|cs:8845|v=4,Soch Care,https://www.sochcare.co.in/?pos=207&kwd=baby cloth diapers&tags=||||8559.269|Price|product|||TS|rsf:gd-|-stype:attr=1|qr_nm:gd|res:RC4|com-cf:nl|ptrs:na|ktp:N0|mc:55657|mtp:S|qry_typ:P|lang:en|wc:3|cs:8845|v=4,False,Mayur Nagar,Indore,"401 Block - O Shalimar Palms, Mayur Nagar, Indore - 452001, Dist.Indore, Madhya Pradesh",8048611870,
"Nonwoven 3 Years S Size Baby Diaper, Small, Packaging Size: 360 Pieces In 1 Bundle",https://www.indiamart.com/proddetail/s-size-baby-diaper-2849744547133.html?pos=208&kwd=baby cloth diapers&tags=||||8230.883|Price|product|||TS|rsf:gd-|-stype:attr=1|qr_nm:gd|res:RC4|com-cf:nl|ptrs:na|ktp:N0|mc:55657|mtp:S|qry_typ:P|lang:en|wc:3|cs:8845|v=4,M. D. Hygiene Private Limited,https://www.mdhygieneindia.com/?pos=208&kwd=baby cloth diapers&tags=||||8230.883|Price|product|||TS|rsf:gd-|-stype:attr=1|qr_nm:gd|res:RC4|com-cf:nl|ptrs:na|ktp:N0|mc:55657|mtp:S|qry_typ:P|lang:en|wc:3|cs:8845|v=4,True,Tadkeshwar,Surat,"Block No. 959, Kim Mandvi Road, Tadkeshwar, Surat - 394170, Dist.Surat, Gujarat",8046050788,
"Cotton Baby Diaper, Small",https://www.indiamart.com/proddetail/baby-diaper-2851810567448.html?pos=209&kwd=baby cloth diapers&tags=||||8723.301|Price|product|||MDC|rsf:gd-|-stype:attr=1|qr_nm:gd|res:RC4|com-cf:nl|ptrs:na|ktp:N0|mc:55657|mtp:S|qry_typ:P|lang:en|wc:3|cs:8845|v=4,SRV Group,https://www.indiamart.com/srv-group-bhopal/?pos=209&kwd=baby cloth diapers&tags=||||8723.301|Price|product|||MDC|rsf:gd-|-stype:attr=1|qr_nm:gd|res:RC4|com-cf:nl|ptrs:na|ktp:N0|mc:55657|mtp:S|qry_typ:P|lang:en|wc:3|cs:8845|v=4,False,Kolar Road,Bhopal,"Dk-2/243, Danish Kunj, Kolar Road,, Kolar Road, Bhopal - 462042, Dist.Bhopal, Madhya Pradesh",7942559830,
Disposable XL Baby Diaper Pant,https://www.indiamart.com/proddetail/disposable-xl-baby-diaper-pant-2853060987888.html?pos=210&kwd=baby cloth diapers&tags=||||8767.009|Price|product|||TS|rsf:gd-|-stype:attr=1|qr_nm:gd|res:RC4|com-cf:nl|ptrs:na|ktp:N0|mc:55657|mtp:S|qry_typ:P|lang:en|wc:3|cs:8845|v=4,Dakshu Enterprise,https://www.indiamart.com/dakshu-enterprise/?pos=210&kwd=baby cloth diapers&tags=||||8767.009|Price|product|||TS|rsf:gd-|-stype:attr=1|qr_nm:gd|res:RC4|com-cf:nl|ptrs:na|ktp:N0|mc:55657|mtp:S|qry_typ:P|lang:en|wc:3|cs:8845|v=4,False,,Baghpat,"0,,Delhi Saharanpur road,Baghpat, Baghpat - 250609, Dist.Bagpat, Uttar Pradesh",7949339950,
