product_title,product_link,company_name,company_link,is_verified_exporter,city_region,city,address_details,phone_number,phone_number_extension
"Rexine And Metal Bolero baby Car Seat, For Garage",https://www.indiamart.com/proddetail/bolero-baby-car-seat-13761743812.html?pos=1&kwd=baby car seat&tags=A||||8752.144|Price|product|||TS|rsf:gd-|-stype:attr=1|qr_nm:gd|res:RC4|com-cf:nl|ptrs:na|ktp:N0|mc:21806|mtp:S|qry_typ:P|lang:en|wc:3|flavl:0|cs:9597|v=4,Matrix Car Decor,https://www.rekartmotors.com/?pos=1&kwd=baby car seat&tags=A||||8752.144|Price|product|||TS|rsf:gd-|-stype:attr=1|qr_nm:gd|res:RC4|com-cf:nl|ptrs:na|ktp:N0|mc:21806|mtp:S|qry_typ:P|lang:en|wc:3|flavl:0|cs:9597|v=4,False,Hirankudna,New Delhi,"Plot No. 1 ,Opp. Pillar No. 643 Near Ghevra Metro Station, Hirankudna, New Delhi - 110041, Dist.Delhi, Delhi",8048617246,
Car Baby Seat,https://www.indiamart.com/proddetail/car-baby-seat-2850583036862.html?pos=2&kwd=baby car seat&tags=A||||8228.275|Price|product|||TS|rsf:gd-|-stype:attr=1|qr_nm:gd|res:RC4|com-cf:nl|ptrs:na|ktp:N0|mc:21806|mtp:S|qry_typ:P|lang:en|wc:3|flavl:0|cs:9597|v=4,Saanvi Enterprise,https://www.saanvienterprise.co.in/?pos=2&kwd=baby car seat&tags=A||||8228.275|Price|product|||TS|rsf:gd-|-stype:attr=1|qr_nm:gd|res:RC4|com-cf:nl|ptrs:na|ktp:N0|mc:21806|mtp:S|qry_typ:P|lang:en|wc:3|flavl:0|cs:9597|v=4,False,Navrangpura,Ahmedabad,"401, 4th Floor Smit Complex, Opp. Ganesh Plaza, Navrangpura, Ahmedabad - 380009, Dist.Ahmedabad, Gujarat",8048272354,
"Led Black Maruti Xl 6 Extra Middle Set, For Car Baby Seat, Model Name/Number: Seat 3434",https://www.indiamart.com/proddetail/maruti-xl-6-extra-middle-set-25709330462.html?pos=3&kwd=baby car seat&tags=BA||||8752.144|Price|product|||TS|rsf:gd-|-stype:attr=1|qr_nm:gd|res:RC4|com-cf:nl|ptrs:na|ktp:N0|mc:21806|mtp:S|qry_typ:P|lang:en|wc:3|flavl:0|cs:9597|v=4,4X4 Offroaderzz & Carzz Accessories,https://www.4x4offroaderz.com/?pos=3&kwd=baby car seat&tags=BA||||8752.144|Price|product|||TS|rsf:gd-|-stype:attr=1|qr_nm:gd|res:RC4|com-cf:nl|ptrs:na|ktp:N0|mc:21806|mtp:S|qry_typ:P|lang:en|wc:3|flavl:0|cs:9597|v=4,False,geeta colony,New Delhi,"25,Ground Floor,Shop No.3,Old Geeta Colony, geeta colony, New Delhi - 110031, Dist.Delhi, Delhi",8047638765,
Wall Mounted Baby Protection Safety Seat,https://www.indiamart.com/proddetail/wall-mounted-baby-protection-safety-seat-2852047264362.html?pos=4&kwd=baby car seat&tags=A||||8211.142|Price|product|||TS|rsf:gd-|-stype:attr=1|qr_nm:gd|res:RC4|com-cf:nl|ptrs:na|ktp:N0|mc:21806|mtp:S|qry_typ:P|lang:en|wc:3|flavl:0|cs:9597|v=4,Orchids International,https://www.indiamart.com/orchid-international-maharashtra/?pos=4&kwd=baby car seat&tags=A||||8211.142|Price|product|||TS|rsf:gd-|-stype:attr=1|qr_nm:gd|res:RC4|com-cf:nl|ptrs:na|ktp:N0|mc:21806|mtp:S|qry_typ:P|lang:en|wc:3|flavl:0|cs:9597|v=4,False,Mahim,Mumbai,"2 Floor, Gala No 209, Allied Industrial Premises Co-Op. Soc. Ltd, Ram Panjawani Marg, Mahim -W, Mahim, Mumbai - 400016, Dist.Mumbai, Maharashtra",7942708611,
Male Baby Car Seat,https://www.indiamart.com/proddetail/baby-car-seat-20096304288.html?pos=5&kwd=baby car seat&tags=A||||8752.144|Price|product|||TS|rsf:gd-|-stype:attr=1|qr_nm:gd|res:RC4|com-cf:nl|ptrs:na|ktp:N0|mc:21806|mtp:S|qry_typ:P|lang:en|wc:3|flavl:0|cs:9597|v=4,Gyasi Ram & Sons,https://www.indiamart.com/gyasi-ram-sons/?pos=5&kwd=baby car seat&tags=A||||8752.144|Price|product|||TS|rsf:gd-|-stype:attr=1|qr_nm:gd|res:RC4|com-cf:nl|ptrs:na|ktp:N0|mc:21806|mtp:S|qry_typ:P|lang:en|wc:3|flavl:0|cs:9597|v=4,False,Sadar Bazaar,New Delhi,"No. 459, Main Road, Sadar Bazar, Sadar Bazaar, New Delhi - 110006, Dist.Delhi, Delhi",8043865798,
Beby seat kia carens/old innova/innova crysta/mg Hector,https://www.indiamart.com/proddetail/beby-seat-kia-carens-old-innova-innova-crysta-mg-hector-2849226994097.html?pos=6&kwd=baby car seat&tags=A||||8228.275|Price|product|||TS|rsf:gd-|-stype:attr=1|qr_nm:gd|res:RC4|com-cf:nl|ptrs:na|ktp:N0|mc:21806|mtp:S|qry_typ:P|lang:en|wc:3|flavl:0|cs:9597|v=4,Yash Motors,https://www.indiamart.com/yashmotors-gujarat/?pos=6&kwd=baby car seat&tags=A||||8228.275|Price|product|||TS|rsf:gd-|-stype:attr=1|qr_nm:gd|res:RC4|com-cf:nl|ptrs:na|ktp:N0|mc:21806|mtp:S|qry_typ:P|lang:en|wc:3|flavl:0|cs:9597|v=4,False,Bodakdev,Ahmedabad,"No. 7, Mohini Tower, Opposite Sharda Petrol Pump, Judges Bunglow Road, Bodakdev, Ahmedabad - 380015, Dist.Ahmedabad, Gujarat",8047642011,
Eco Blue Baby Car Seat Cushion,https://www.indiamart.com/proddetail/baby-car-seat-cushion-26064638633.html?pos=7&kwd=baby car seat&tags=BA||||8307.81|Price|product|||TS|rsf:gd-|-stype:attr=1|qr_nm:gd|res:RC4|com-cf:nl|ptrs:na|ktp:N0|mc:21806|mtp:S|qry_typ:P|lang:en|wc:3|flavl:0|cs:9597|v=4,M R Enterprises,https://www.indiamart.com/mrenterprises-maharashtra/?pos=7&kwd=baby car seat&tags=BA||||8307.81|Price|product|||TS|rsf:gd-|-stype:attr=1|qr_nm:gd|res:RC4|com-cf:nl|ptrs:na|ktp:N0|mc:21806|mtp:S|qry_typ:P|lang:en|wc:3|flavl:0|cs:9597|v=4,False,Nana Peth,Pune,"Shop No. 211, First Floor, 612, Ganga Prestige Arcade Laxmi Road, Aruna Chowk, Nana Peth, Pune - 411002, Dist.Pune, Maharashtra",8046049573,
"Blue Car Baby Seat, Packaging Type: Box",https://www.indiamart.com/proddetail/car-baby-seat-24322288988.html?pos=8&kwd=baby car seat&tags=BA||||8752.144|Price|product|||TS|rsf:gd-|-stype:attr=1|qr_nm:gd|res:RC4|com-cf:nl|ptrs:na|ktp:N0|mc:21806|mtp:S|qry_typ:P|lang:en|wc:3|flavl:0|cs:9597|v=4,Madan Traders,https://www.madantrader.com/?pos=8&kwd=baby car seat&tags=BA||||8752.144|Price|product|||TS|rsf:gd-|-stype:attr=1|qr_nm:gd|res:RC4|com-cf:nl|ptrs:na|ktp:N0|mc:21806|mtp:S|qry_typ:P|lang:en|wc:3|flavl:0|cs:9597|v=4,False,Roop Nagar,New Delhi,"House No. 39, Block 2, Roop Nagar, Near Shakti Chowk, Roop Nagar, New Delhi - 110007, Dist.Delhi, Delhi",8048609743,
"Black Baby Car Seat, Packaging Type: Box, Newly Born",https://www.indiamart.com/proddetail/baby-car-seat-2852488036055.html?pos=9&kwd=baby car seat&tags=BA||||8211.142|Price|product|||TS|rsf:gd-|-stype:attr=1|qr_nm:gd|res:RC4|com-cf:nl|ptrs:na|ktp:N0|mc:21806|mtp:S|qry_typ:P|lang:en|wc:3|flavl:0|cs:9597|v=4,Mabel The Fashion Hub,https://www.mabelbabies.com/?pos=9&kwd=baby car seat&tags=BA||||8211.142|Price|product|||TS|rsf:gd-|-stype:attr=1|qr_nm:gd|res:RC4|com-cf:nl|ptrs:na|ktp:N0|mc:21806|mtp:S|qry_typ:P|lang:en|wc:3|flavl:0|cs:9597|v=4,False,Andheri East,Mumbai,"Shop No 1, Teresa Triumph Chs, J B Nagar, Andheri East, Mumbai - 400059, Dist.Mumbai, Maharashtra",8047635478,
"Baby Car Seat Support, Packaging Type: Box, 1-2 Years",,Auxa Retails,https://www.indiamart.com/auxaretails-maharashtra/?pos=10&kwd=baby car seat&tags=BA||||8226.563|Price|product|||TS|rsf:gd-|-stype:attr=1|qr_nm:gd|res:RC4|com-cf:nl|ptrs:na|ktp:N0|mc:21806|mtp:S|qry_typ:P|lang:en|wc:3|flavl:0|cs:9597|v=4,False,Kamothe,Navi Mumbai,"C/1302, Gurudeo CHS, Plot No. 27, Sector 20, Kamothe, Kamothe, Navi Mumbai - 410209, Dist.Thane, Maharashtra",8043842049,
"Baby Car Seat Cushion, Packaging Type: Box",https://www.indiamart.com/proddetail/baby-car-seat-cushion-23894741555.html?pos=11&kwd=baby car seat&tags=BA||||8230.883|Price|product|||TS|rsf:gd-|-stype:attr=1|qr_nm:gd|res:RC4|com-cf:nl|ptrs:na|ktp:N0|mc:21806|mtp:S|qry_typ:P|lang:en|wc:3|flavl:0|cs:9597|v=4,Seaspirit(A Brand Of Spirit Enterprise),https://www.indiamart.com/spiritenterprisesurat/?pos=11&kwd=baby car seat&tags=BA||||8230.883|Price|product|||TS|rsf:gd-|-stype:attr=1|qr_nm:gd|res:RC4|com-cf:nl|ptrs:na|ktp:N0|mc:21806|mtp:S|qry_typ:P|lang:en|wc:3|flavl:0|cs:9597|v=4,False,Dabholi,Surat,"HOLIDAY GATE NO.1, Shop No.1 - HOLIDAY, OPP SHREENATHDWARA SOCIETY, B/S NEW DELUX MOTORS, NEAR CANCER HOSPITAL, Dabholi Road, KATARGAM, Dabholi, Surat - 395004, Dist.Surat, Gujarat",8046069933,
"INFANTO Blue,Red Comfortable Baby Red Car Seat, Packaging Type: Box",https://www.indiamart.com/proddetail/comfortable-baby-red-car-seat-21989528830.html?pos=12&kwd=baby car seat&tags=BB||||8211.142|Price|product|||TS|rsf:gd-|-stype:attr=1|qr_nm:gd|res:RC4|com-cf:nl|ptrs:na|ktp:N0|mc:21806|mtp:S|qry_typ:P|lang:en|wc:3|flavl:0|cs:9597|v=4,New Natraj Industries,https://www.indiamart.com/newnatrajindustries/?pos=12&kwd=baby car seat&tags=BB||||8211.142|Price|product|||TS|rsf:gd-|-stype:attr=1|qr_nm:gd|res:RC4|com-cf:nl|ptrs:na|ktp:N0|mc:21806|mtp:S|qry_typ:P|lang:en|wc:3|flavl:0|cs:9597|v=4,False,Andheri,Mumbai,"2nd,47 A,VEERA DESAI ROAD,GHANSHYAM INDUSTRIAL ESTATE,ANDHERI WEST, Andheri, Mumbai - 400053, Dist.Mumbai, Maharashtra",8048609903,
Chicco Unico Plus Isofix Baby Car Seat,https://www.indiamart.com/proddetail/chicco-unico-plus-isofix-baby-car-seat-2850139038530.html?pos=13&kwd=baby car seat&tags=BA||||8211.142|Price|product|||TS|rsf:gd-|-stype:attr=1|qr_nm:gd|res:RC4|com-cf:nl|ptrs:na|ktp:N0|mc:21806|mtp:S|qry_typ:P|lang:en|wc:3|flavl:0|cs:9597|v=4,Mini World,https://www.indiamart.com/miniworld/?pos=13&kwd=baby car seat&tags=BA||||8211.142|Price|product|||TS|rsf:gd-|-stype:attr=1|qr_nm:gd|res:RC4|com-cf:nl|ptrs:na|ktp:N0|mc:21806|mtp:S|qry_typ:P|lang:en|wc:3|flavl:0|cs:9597|v=4,False,Goregaon West,Mumbai,"SHOP No 2,16, Ground Floor, Unnath Nagar 3, M.G. Road, Goregaon MG Road, Goregaon West, Mumbai - 400062, Dist.Mumbai, Maharashtra",8046034221,
"PATOYS | Asalvo | 15075 CAR SEAT G123 Confort FIX RED, Rot",https://www.indiamart.com/proddetail/patoys-asalvo-15075-car-seat-g123-confort-fix-red-rot-2851579838255.html?pos=14&kwd=baby car seat&tags=BA||||8793.739|Price|product|||TS|rsf:gd-|-stype:attr=1|qr_nm:gd|res:RC4|com-cf:nl|ptrs:na|ktp:N0|mc:21806|mtp:S|qry_typ:P|lang:en|wc:3|flavl:0|cs:9597|v=4,Patoys,https://www.indiamart.com/patoys/?pos=14&kwd=baby car seat&tags=BA||||8793.739|Price|product|||TS|rsf:gd-|-stype:attr=1|qr_nm:gd|res:RC4|com-cf:nl|ptrs:na|ktp:N0|mc:21806|mtp:S|qry_typ:P|lang:en|wc:3|flavl:0|cs:9597|v=4,False,Krishna Nagar,Mathura,"Ground Floor Shop No - 3 Krishna Nagar Krishna Plaza, Krishna Nagar, Mathura - 281004, Dist.Mathura, Uttar Pradesh",,
Baby Support,https://www.indiamart.com/proddetail/baby-support-22788816273.html?pos=15&kwd=baby car seat&tags=BA||||8747.203|Price|product|||TS|rsf:gd-|-stype:attr=1|qr_nm:gd|res:RC4|com-cf:nl|ptrs:na|ktp:N0|mc:21806|mtp:S|qry_typ:P|lang:en|wc:3|cs:8834|v=4,Muskan Collections,https://www.indiamart.com/muskan-collections-haryana/?pos=15&kwd=baby car seat&tags=BA||||8747.203|Price|product|||TS|rsf:gd-|-stype:attr=1|qr_nm:gd|res:RC4|com-cf:nl|ptrs:na|ktp:N0|mc:21806|mtp:S|qry_typ:P|lang:en|wc:3|cs:8834|v=4,False,Kabul Bagh,Panipat,"GALI NO 3 UGRA KHERI MOD, Kabul Bagh, Panipat - 132103, Dist.Panipat, Haryana",8047633020,
Xl6 Car Baby Seat,https://www.indiamart.com/proddetail/xl6-car-baby-seat-2854321142791.html?pos=16&kwd=baby car seat&tags=BA||||8228.275|Price|product|||MDC|rsf:gd-|-stype:attr=1|qr_nm:gd|res:RC4|com-cf:nl|ptrs:na|ktp:N0|mc:21806|mtp:S|qry_typ:P|lang:en|wc:3|cs:8834|v=4,Y N Seats,https://www.indiamart.com/y-n-seats/?pos=16&kwd=baby car seat&tags=BA||||8228.275|Price|product|||MDC|rsf:gd-|-stype:attr=1|qr_nm:gd|res:RC4|com-cf:nl|ptrs:na|ktp:N0|mc:21806|mtp:S|qry_typ:P|lang:en|wc:3|cs:8834|v=4,False,,Ahmedabad,"238, Chamunda Nagar, Rabari Vas, Nr. Bus Stop, Sola Road, Naranpura,, Ahmedabad - 380013, Dist.Ahmedabad, Gujarat",8045732889,
Plastic Baybee Black Baby Car Seat,https://www.indiamart.com/proddetail/baybee-black-baby-car-seat-2853491588397.html?pos=17&kwd=baby car seat&tags=BA||||8954.051|Price|product|||MDC|rsf:gd-|-stype:attr=1|qr_nm:gd|res:RC4|com-cf:nl|ptrs:na|ktp:N0|mc:21806|mtp:S|qry_typ:P|lang:en|wc:3|cs:8834|v=4,Mom's Fashion World,https://www.indiamart.com/moms-fashion-world/?pos=17&kwd=baby car seat&tags=BA||||8954.051|Price|product|||MDC|rsf:gd-|-stype:attr=1|qr_nm:gd|res:RC4|com-cf:nl|ptrs:na|ktp:N0|mc:21806|mtp:S|qry_typ:P|lang:en|wc:3|cs:8834|v=4,False,Adyar,Chennai,"10/2 ,12th Street, Bakthavatchallam Nagar,Nanganallur, Adyar, Chennai - 600061, Dist.Chennai, Tamil Nadu",7949091874,
Black Alloy Dark Grey Baby Car Seat,https://www.indiamart.com/proddetail/dark-grey-baby-car-seat-2853644017588.html?pos=18&kwd=baby car seat&tags=BA||||8206.45|Price|product|||MDC|rsf:gd-|-stype:attr=1|qr_nm:gd|res:RC4|com-cf:nl|ptrs:na|ktp:N0|mc:21806|mtp:S|qry_typ:P|lang:en|wc:3|cs:8834|v=4,APDD E Commerce India LLP,https://www.indiamart.com/apddecommerceindia/?pos=18&kwd=baby car seat&tags=BA||||8206.45|Price|product|||MDC|rsf:gd-|-stype:attr=1|qr_nm:gd|res:RC4|com-cf:nl|ptrs:na|ktp:N0|mc:21806|mtp:S|qry_typ:P|lang:en|wc:3|cs:8834|v=4,False,Vishnu Nagar,Palghar,"2ndFloor, Block No.301,D-Wing, Jivadani Complex, Mahim Road, National Cooperative Bank, Vishnu Nagar, Vishnu Nagar, Palghar - 401404, Dist.Thane, Maharashtra",8047307898,
Black and Tan colour Innova Crysta Baby Seat,https://www.indiamart.com/proddetail/innova-crysta-baby-seat-26329305455.html?pos=19&kwd=baby car seat&tags=BB||||8752.144|Price|product|||MDC|rsf:gd-|-stype:attr=1|qr_nm:gd|res:RC4|com-cf:nl|ptrs:na|ktp:N0|mc:21806|mtp:S|qry_typ:P|lang:en|wc:3|cs:8834|v=4,Vivid Autostyle,https://www.indiamart.com/vividautostyle/?pos=19&kwd=baby car seat&tags=BB||||8752.144|Price|product|||MDC|rsf:gd-|-stype:attr=1|qr_nm:gd|res:RC4|com-cf:nl|ptrs:na|ktp:N0|mc:21806|mtp:S|qry_typ:P|lang:en|wc:3|cs:8834|v=4,False,Zakhira,New Delhi,"13/C And 13/3, Plot No. 13, Industrial Area, Najafgarh Road, Zakhira, New Delhi - 110015, Dist.Delhi, Delhi",8047310411,
Multicolor Hello Baby Car Shape Support Seats for Kids,https://www.indiamart.com/proddetail/hello-baby-car-shape-support-seats-for-kids-22229479248.html?pos=20&kwd=baby car seat&tags=BA||||8752.144||product|||MDC|rsf:gd-|-stype:attr=1|qr_nm:gd|res:RC4|com-cf:nl|ptrs:na|ktp:N0|mc:21806|mtp:S|qry_typ:P|lang:en|wc:3|cs:8834|v=4,Ajay Enterprises,https://www.indiamart.com/ajayenterprisesdelhi/?pos=20&kwd=baby car seat&tags=BA||||8752.144||product|||MDC|rsf:gd-|-stype:attr=1|qr_nm:gd|res:RC4|com-cf:nl|ptrs:na|ktp:N0|mc:21806|mtp:S|qry_typ:P|lang:en|wc:3|cs:8834|v=4,False,Malka Ganj,New Delhi,"Plot No 626, Gautam Gali, Kabir Basti, Near Hansraj College, Malka Ganj, Malka Ganj, New Delhi - 110007, Dist.Delhi, Delhi",8046030100,
Leather Backhoe Loader Operator Seat,https://www.indiamart.com/proddetail/navy-ship-seat-2853632961991.html?pos=21&kwd=baby car seat&tags=BB||||9839.57|Price|product|||MDC|rsf:gd-|-stype:attr=1|qr_nm:gd|res:RC4|com-cf:nl|ptrs:na|ktp:N0|mc:21806|mtp:S|qry_typ:P|lang:en|wc:3|cs:8834|v=4,Aditya Earthmovers,https://www.indiamart.com/adityaearthmovers/?pos=21&kwd=baby car seat&tags=BB||||9839.57|Price|product|||MDC|rsf:gd-|-stype:attr=1|qr_nm:gd|res:RC4|com-cf:nl|ptrs:na|ktp:N0|mc:21806|mtp:S|qry_typ:P|lang:en|wc:3|cs:8834|v=4,False,Bow Bazar,Kolkata,"2nd, 15, Ganesh Chandra Avenue, Kotak Mahindra Bank (G C Avenue Branch), Bow Bazar, Bow Bazar, Kolkata - 700012, Dist.Kolkata, West Bengal",7949095096,
"Electric Bed, Mild Steel",https://www.indiamart.com/proddetail/electric-bed-2853670667133.html?pos=22&kwd=baby car seat&tags=BA||||8954.051|Price|product|||TS|rsf:gd-|-stype:attr=1|qr_nm:gd|res:RC4|com-cf:nl|ptrs:na|ktp:N0|mc:21806|mtp:S|qry_typ:P|lang:en|wc:3|cs:8834|v=4,Jayam Furnitures,https://www.jayamfurniture.com/?pos=22&kwd=baby car seat&tags=BA||||8954.051|Price|product|||TS|rsf:gd-|-stype:attr=1|qr_nm:gd|res:RC4|com-cf:nl|ptrs:na|ktp:N0|mc:21806|mtp:S|qry_typ:P|lang:en|wc:3|cs:8834|v=4,False,Medavakkam,Chennai,"No-4/62, Velachery Main Road, Senthamizh Nagar, Madavakkam, Medavakkam, Chennai - 600100, Dist.Chennai, Tamil Nadu",8047550884,
"Baby Car Seat In 11 In 1 Carry Cot, Packaging Type: Box",https://www.indiamart.com/proddetail/baby-car-seat-in-11-in-1-carry-cot-11977831230.html?pos=23&kwd=baby car seat&tags=BA||||8211.142|Price|product|||MDC|rsf:gd-|-stype:attr=1|qr_nm:gd|res:RC4|com-cf:nl|ptrs:na|ktp:N0|mc:21806|mtp:S|qry_typ:P|lang:en|wc:3|cs:8834|v=4,Sara Traders,https://www.indiamart.com/saratradersmumbai/?pos=23&kwd=baby car seat&tags=BA||||8211.142|Price|product|||MDC|rsf:gd-|-stype:attr=1|qr_nm:gd|res:RC4|com-cf:nl|ptrs:na|ktp:N0|mc:21806|mtp:S|qry_typ:P|lang:en|wc:3|cs:8834|v=4,False,Princess Dock,Mumbai,"Shop No. 2, Dastagir Building, 5/7, Nishanpada Cross Road Dongri, Princess Dock, Mumbai - 400009, Dist.Mumbai, Maharashtra",8048959409,
Scorpio Baby Seat,https://www.indiamart.com/proddetail/scorpio-baby-seat-27136309897.html?pos=24&kwd=baby car seat&tags=A||||8785.791|Price|product|||NA|rsf:gd-|-stype:attr=1|qr_nm:gd|res:RC4|com-cf:nl|ptrs:na|ktp:N0|mc:21806|mtp:S|qry_typ:P|lang:en|wc:3|cs:8834|v=4,R T Seats,https://www.indiamart.com/rt-seat-company/?pos=24&kwd=baby car seat&tags=A||||8785.791|Price|product|||NA|rsf:gd-|-stype:attr=1|qr_nm:gd|res:RC4|com-cf:nl|ptrs:na|ktp:N0|mc:21806|mtp:S|qry_typ:P|lang:en|wc:3|cs:8834|v=4,False,Gagan Vihar Bhopura Theka,Ghaziabad,"Kh No.-466, Bihind Subhash Place, Ajay Enclave, Rajeev Nagar, S.B.D. desh 201001, Gagan Vihar Bhopura Theka, Ghaziabad - 201001, Dist.Ghaziabad, Uttar Pradesh",8043813267,
"Black Toyota Innova middle baby seat, Packaging Type: Box",https://www.indiamart.com/proddetail/toyota-innova-middle-baby-seat-23789314388.html?pos=25&kwd=baby car seat&tags=A||||8954.051|Price|product|||NA|rsf:gd-|-stype:attr=1|qr_nm:gd|res:RC4|com-cf:nl|ptrs:na|ktp:N0|mc:21806|mtp:S|qry_typ:P|lang:en|wc:3|cs:8834|v=4,Indian Car Accessories,https://www.indiamart.com/indian-car-accessories/?pos=25&kwd=baby car seat&tags=A||||8954.051|Price|product|||NA|rsf:gd-|-stype:attr=1|qr_nm:gd|res:RC4|com-cf:nl|ptrs:na|ktp:N0|mc:21806|mtp:S|qry_typ:P|lang:en|wc:3|cs:8834|v=4,False,,Chennai,"Gnanam Complex, Thayar Street, Border Thottam, Padupakkam, Chennai, Dist.Chennai, Tamil Nadu",7942711083,
"Innova Crysta Baby Car Seat, 3 -10 Years",https://www.indiamart.com/proddetail/innova-crysta-baby-car-seat-22145225933.html?pos=26&kwd=baby car seat&tags=BA||||9097.53|Price|product|||NA|rsf:gd-|-stype:attr=1|qr_nm:gd|res:RC4|com-cf:nl|ptrs:na|ktp:N0|mc:21806|mtp:S|qry_typ:P|lang:en|wc:3|cs:8834|v=4,J.S.P Auto Creation,https://www.indiamart.com/jsp-auto-creation/?pos=26&kwd=baby car seat&tags=BA||||9097.53|Price|product|||NA|rsf:gd-|-stype:attr=1|qr_nm:gd|res:RC4|com-cf:nl|ptrs:na|ktp:N0|mc:21806|mtp:S|qry_typ:P|lang:en|wc:3|cs:8834|v=4,False,Amauli,Fatehpur,"Plot Number 135, Amauli, Fatehpur - 212631, Uttar Pradesh",8048371511,145
Black And Gray Eeco Polyester Baby Car Seat,https://www.indiamart.com/proddetail/eeco-polyester-baby-car-seat-2851760306755.html?pos=27&kwd=baby car seat&tags=BA||||8752.144|Price|product|||NA|rsf:gd-|-stype:attr=1|qr_nm:gd|res:RC4|com-cf:nl|ptrs:na|ktp:N0|mc:21806|mtp:S|qry_typ:P|lang:en|wc:3|cs:8834|v=4,Padam Singh Industries,https://www.indiamart.com/padam-singhindustries/?pos=27&kwd=baby car seat&tags=BA||||8752.144|Price|product|||NA|rsf:gd-|-stype:attr=1|qr_nm:gd|res:RC4|com-cf:nl|ptrs:na|ktp:N0|mc:21806|mtp:S|qry_typ:P|lang:en|wc:3|cs:8834|v=4,False,,New Delhi,"Kh.No. 418, Gali No. 8, Saboli Bagh, North East, New Delhi - 110093, Dist.Delhi, Delhi",8046048176,
"Black And Grey Isofix Convertible Baby Car Seat, Packaging Type: Box, 0-12 Years",https://www.indiamart.com/proddetail/isofix-convertible-baby-car-seat-2851959912862.html?pos=28&kwd=baby car seat&tags=BA||||8752.144|Price|product|||NA|rsf:gd-|-stype:attr=1|qr_nm:gd|res:RC4|com-cf:nl|ptrs:na|ktp:N0|mc:21806|mtp:S|qry_typ:P|lang:en|wc:3|cs:8834|v=4,Pram Hut,https://www.indiamart.com/pram-hutdelhi/?pos=28&kwd=baby car seat&tags=BA||||8752.144|Price|product|||NA|rsf:gd-|-stype:attr=1|qr_nm:gd|res:RC4|com-cf:nl|ptrs:na|ktp:N0|mc:21806|mtp:S|qry_typ:P|lang:en|wc:3|cs:8834|v=4,False,,New Delhi,"SHOP NO.- 156,ANARKALI COMPLEX,ANARKALI COMPLEX,New Delhi LOWER GROUND FLOOR, SHOP NO.- 156, ANARKALI COMPLEX, ANARKALI COMPLEX, JHANDEWALAN, New Delhi, Cent, New Delhi - 110055, Dist.Delhi, Delhi",7942701586,
"Car Seat For Kids, Packaging Type: Box, 1-5 year",https://www.indiamart.com/proddetail/car-seat-for-kids-2852129425491.html?pos=29&kwd=baby car seat&tags=BA||||8706.508|Price|product|||NA|rsf:gd-|-stype:attr=1|qr_nm:gd|res:RC4|com-cf:nl|ptrs:na|ktp:N0|mc:21806|mtp:S|qry_typ:P|lang:en|wc:3|cs:8834|v=4,C L Enterprises,https://www.indiamart.com/r-b-enterprises-rohtak/?pos=29&kwd=baby car seat&tags=BA||||8706.508|Price|product|||NA|rsf:gd-|-stype:attr=1|qr_nm:gd|res:RC4|com-cf:nl|ptrs:na|ktp:N0|mc:21806|mtp:S|qry_typ:P|lang:en|wc:3|cs:8834|v=4,False,,Rohtak,"1306 Sant Nagar, Rohtak - 124001, Dist.Rohtak, Haryana",8048249691,5237
Scooter Baby Seat,https://www.indiamart.com/proddetail/scooter-baby-seat-2850657819230.html?pos=30&kwd=baby car seat&tags=BB||||8663.873|Price|product|||NA|rsf:gd-|-stype:attr=1|qr_nm:gd|res:RC4|com-cf:nl|ptrs:na|ktp:N0|mc:21806|mtp:S|qry_typ:P|lang:en|wc:3|cs:8834|v=4,Bike Magic,https://www.indiamart.com/bike-magic/?pos=30&kwd=baby car seat&tags=BB||||8663.873|Price|product|||NA|rsf:gd-|-stype:attr=1|qr_nm:gd|res:RC4|com-cf:nl|ptrs:na|ktp:N0|mc:21806|mtp:S|qry_typ:P|lang:en|wc:3|cs:8834|v=4,False,,Bengaluru,"Jonrnalist Colony, No. 28/1, 3nd Cross, Bengaluru - 560002, Dist.Bengaluru, Karnataka",8047671072,
5 in 1 Multi Purpose Baby Car Seat Cum Carrycot with Fancy Bow Tie Age 0 to 15 Months (Blue),https://www.indiamart.com/proddetail/5-in-1-multi-purpose-baby-car-seat-cum-carrycot-with-fancy-bow-tie-age-0-to-15-months-blue-2852162012288.html?pos=31&kwd=baby car seat&tags=BB||||8228.275|Price|product|||NA|rsf:gd-|-stype:attr=1|qr_nm:gd|res:RC4|com-cf:nl|ptrs:na|ktp:N0|mc:21806|mtp:S|qry_typ:P|lang:en|wc:3|cs:8834|v=4,Eclat Globalbiz LLP,https://www.indiamart.com/eclatglobalbiz/?pos=31&kwd=baby car seat&tags=BB||||8228.275|Price|product|||NA|rsf:gd-|-stype:attr=1|qr_nm:gd|res:RC4|com-cf:nl|ptrs:na|ktp:N0|mc:21806|mtp:S|qry_typ:P|lang:en|wc:3|cs:8834|v=4,False,,Ahmedabad,"Shilp Zaveri, Ahmedabad - 380004, Dist.Ahmedabad, Gujarat",,
Jack N Jill Baby Car Seat for 0 to 5 Years (Black Grey),https://www.indiamart.com/proddetail/jack-n-jill-baby-car-seat-for-0-to-5-years-black-grey-2851751639691.html?pos=32&kwd=baby car seat&tags=BB||||8612.732|Price|product|||NA|rsf:gd-|-stype:attr=1|qr_nm:gd|res:RC4|com-cf:nl|ptrs:na|ktp:N0|mc:21806|mtp:S|qry_typ:P|lang:en|wc:3|cs:8834|v=4,Swift Healthcare & Hygiene Private Limited,https://www.indiamart.com/swift-healthcare-hygiene-private-limited-srinagar/?pos=32&kwd=baby car seat&tags=BB||||8612.732|Price|product|||NA|rsf:gd-|-stype:attr=1|qr_nm:gd|res:RC4|com-cf:nl|ptrs:na|ktp:N0|mc:21806|mtp:S|qry_typ:P|lang:en|wc:3|cs:8834|v=4,False,Pampore,Srinagar,"1 1 Shiraz Road Srinagar Srinagar, Pampore, Srinagar - 190003, Dist.Srinagar, Jammu & Kashmir",,
Multicolor CHILDREN SEAT,https://www.indiamart.com/proddetail/children-seat-23532773748.html?pos=33&kwd=baby car seat&tags=BB||||8230.883|Price|product|||NA|rsf:gd-|-stype:attr=1|qr_nm:gd|res:RC4|com-cf:nl|ptrs:na|ktp:N0|mc:21806|mtp:S|qry_typ:P|lang:en|wc:3|cs:8834|v=4,Deal Zone,https://www.indiamart.com/deal-zone/?pos=33&kwd=baby car seat&tags=BB||||8230.883|Price|product|||NA|rsf:gd-|-stype:attr=1|qr_nm:gd|res:RC4|com-cf:nl|ptrs:na|ktp:N0|mc:21806|mtp:S|qry_typ:P|lang:en|wc:3|cs:8834|v=4,False,,Surat,"1201, Saakar Building, Rang Raag Residency, Near Ashram, Jahangirpura, Rander, Surat - 395005, Dist.Surat, Gujarat",8046070286,
Black Innova Crysta Baby Seats,https://www.indiamart.com/proddetail/innova-crysta-baby-seats-25327996988.html?pos=34&kwd=baby car seat&tags=BB||||8226.563|Price|product|||NA|rsf:gd-|-stype:attr=1|qr_nm:gd|res:RC4|com-cf:nl|ptrs:na|ktp:N0|mc:21806|mtp:S|qry_typ:P|lang:en|wc:3|cs:8834|v=4,ARJ Enterprises,https://www.indiamart.com/arj-enterprises-mumbai/?pos=34&kwd=baby car seat&tags=BB||||8226.563|Price|product|||NA|rsf:gd-|-stype:attr=1|qr_nm:gd|res:RC4|com-cf:nl|ptrs:na|ktp:N0|mc:21806|mtp:S|qry_typ:P|lang:en|wc:3|cs:8834|v=4,False,Turbhe Navi Mumbai,Navi Mumbai,"Shop No-7 Turbhe, Turbhe Navi Mumbai, Navi Mumbai - 400703, Dist.Thane, Maharashtra",8047684934,
Eeco Baby Seat,,Maxs Auto Distributors,https://www.indiamart.com/maxs-auto-distributors/?pos=35&kwd=baby car seat&tags=BB||||8954.051|Price|product|||NA|rsf:gd-|-stype:attr=1|qr_nm:gd|res:RC4|com-cf:nl|ptrs:na|ktp:N0|mc:21806|mtp:S|qry_typ:P|lang:en|wc:3|cs:8834|v=4,False,royapettah,Chennai,"20 subedhar Hussain Street,border thottam, royapettah, Chennai - 600014, Dist.Chennai, Tamil Nadu",7948217328,
Elephant Baby Seater,https://www.indiamart.com/proddetail/elephant-baby-seater-2851760193548.html?pos=36&kwd=baby car seat&tags=BB||||8601.347|Price|product|||NA|rsf:gd-|-stype:attr=1|qr_nm:gd|res:RC4|com-cf:nl|ptrs:na|ktp:N0|mc:21806|mtp:S|qry_typ:P|lang:en|wc:3|cs:8834|v=4,Resunshine,https://www.indiamart.com/resunshine/?pos=36&kwd=baby car seat&tags=BB||||8601.347|Price|product|||NA|rsf:gd-|-stype:attr=1|qr_nm:gd|res:RC4|com-cf:nl|ptrs:na|ktp:N0|mc:21806|mtp:S|qry_typ:P|lang:en|wc:3|cs:8834|v=4,False,Bajri Mandi Road,Jaipur,"22 Hardev Vihar, Meenawala, Bajri Mandi Road, Jaipur - 302012, Dist.Jaipur, Rajasthan",8069013498,108
Baby Car Seat,,Zam Zam Car Care,https://www.indiamart.com/zam-zam-carcare/?pos=37&kwd=baby car seat&tags=BB||||8507.67|Price|product|||NA|rsf:gd-|-stype:attr=1|qr_nm:gd|res:RC4|com-cf:nl|ptrs:na|ktp:N0|mc:21806|mtp:S|qry_typ:P|lang:en|wc:3|cs:8834|v=4,False,vyttila,Ernakulam,"metro Pillar number 836,S.A.Road, Vyttila, Janatha, vyttila, Ernakulam - 682038, Dist.Ernakulam, Kerala",8047687867,
Baby Car Seat,,Super Car Decor,https://www.indiamart.com/super-car-decor/?pos=38&kwd=baby car seat&tags=BB||||8876.815|Price|product|||NA|rsf:gd-|-stype:attr=1|qr_nm:gd|res:RC4|com-cf:nl|ptrs:na|ktp:N0|mc:21806|mtp:S|qry_typ:P|lang:en|wc:3|cs:8834|v=4,False,Great nag road,Nagpur,"Ground Floor Nr Sagram Beer Bar Plot No 03 H No.1132 Ganesh Nagar, Great nag road, Nagpur - 440009, Dist.Nagpur, Maharashtra",8048372047,734
Mahindra Scorpio Car baby seat,,Sharik Seats,https://www.indiamart.com/sharik-seats/?pos=39&kwd=baby car seat&tags=BB||||8752.144|Price|product|||NA|rsf:gd-|-stype:attr=1|qr_nm:gd|res:RC4|com-cf:nl|ptrs:na|ktp:N0|mc:21806|mtp:S|qry_typ:P|lang:en|wc:3|cs:8834|v=4,False,,New Delhi,", New Delhi - 110093, Dist.Delhi, Delhi",8048247090,3055
Baby Pot Seat,,Sai Products,https://www.indiamart.com/sai-shoppers/?pos=40&kwd=baby car seat&tags=BB||||8752.144|Price|product|||NA|rsf:gd-|-stype:attr=1|qr_nm:gd|res:RC4|com-cf:nl|ptrs:na|ktp:N0|mc:21806|mtp:S|qry_typ:P|lang:en|wc:3|cs:8834|v=4,False,Shahdara,New Delhi,"No. 1/10369A, Near Kashi Ram Dairy, Street No. 3I West Gorakh Park, Shahdara, Shahdara, New Delhi - 110032, Dist.Delhi, Delhi",8043848509,
Baby car Cradle,,Srivishnupriya Enterprise,https://www.indiamart.com/srivishnupriya-enterprise/?pos=41&kwd=baby car seat&tags=BA||||8038.093||product|||NA|rsf:gd-|-stype:attr=1|qr_nm:gd|res:RC4|com-cf:nl|ptrs:na|ktp:N0|mc:21806|mtp:S|qry_typ:P|lang:en|wc:3|cs:8834|v=4,False,Aji Industrial Estate,Rajkot,"1st, C-103, Satyam Park, Shrinathji Residancy, Near Sorathiyawadi Circle, 80 Feet Road, Equity Hyundai, Sarvodaya Society, Aji Industrial Estate, Rajkot - 360003, Dist.Rajkot, Gujarat",7942702452,
Multicolor COTTON FABRIC Baby Car Seat Safety,https://www.indiamart.com/proddetail/baby-car-seat-safety-2853136504512.html?pos=42&kwd=baby car seat&tags=CC||||8752.144|Price|product|||TS|rsf:gd-|-stype:attr=1|qr_nm:gd|res:RC4|com-cf:nl|ptrs:na|ktp:N0|mc:21806|mtp:S|qry_typ:P|lang:en|wc:3|cs:8834|v=4,Bankey Bihari Enterprises,https://www.indiamart.com/bankey-bihari-enterprisesnewdelhi/?pos=42&kwd=baby car seat&tags=CC||||8752.144|Price|product|||TS|rsf:gd-|-stype:attr=1|qr_nm:gd|res:RC4|com-cf:nl|ptrs:na|ktp:N0|mc:21806|mtp:S|qry_typ:P|lang:en|wc:3|cs:8834|v=4,False,Jahangirpuri,New Delhi,"Plot No 51 First Floor Street No 11 Harijan Colony Village Bhalsva, Jahangirpuri, New Delhi - 110033, Dist.Delhi, Delhi",7942825166,
Baby car Cradle,,Srivishnupriya Enterprise,https://www.indiamart.com/srivishnupriya-enterprise/?pos=43&kwd=baby car seat&tags=BA||||8038.093||product|||NA|rsf:gd-|-stype:attr=1|qr_nm:gd|res:RC4|com-cf:nl|ptrs:na|ktp:N0|mc:21806|mtp:S|qry_typ:P|lang:en|wc:3|cs:8834|v=4,False,Aji Industrial Estate,Rajkot,"1st, C-103, Satyam Park, Shrinathji Residancy, Near Sorathiyawadi Circle, 80 Feet Road, Equity Hyundai, Sarvodaya Society, Aji Industrial Estate, Rajkot - 360003, Dist.Rajkot, Gujarat",7942702452,
"Rexine And Metal Bolero baby Car Seat, For Garage",https://www.indiamart.com/proddetail/bolero-baby-car-seat-13761743812.html?pos=44&kwd=baby car seat&tags=||||8752.144|Price|product|||TS|rsf:gd-|-stype:attr=1|qr_nm:gd|res:RC4|com-cf:nl|ptrs:na|ktp:N0|mc:21806|mtp:S|qry_typ:P|lang:en|wc:3|cs:8834|v=4,Matrix Car Decor,https://www.rekartmotors.com/?pos=44&kwd=baby car seat&tags=||||8752.144|Price|product|||TS|rsf:gd-|-stype:attr=1|qr_nm:gd|res:RC4|com-cf:nl|ptrs:na|ktp:N0|mc:21806|mtp:S|qry_typ:P|lang:en|wc:3|cs:8834|v=4,False,Hirankudna,New Delhi,"Plot No. 1 ,Opp. Pillar No. 643 Near Ghevra Metro Station, Hirankudna, New Delhi - 110041, Dist.Delhi, Delhi",8048617246,
Multicolor COTTON FABRIC Baby Car Seat Safety,https://www.indiamart.com/proddetail/baby-car-seat-safety-2853136504512.html?pos=45&kwd=baby car seat&tags=CC||||8752.144|Price|product|||TS|rsf:gd-|-stype:attr=1|qr_nm:gd|res:RC4|com-cf:nl|ptrs:na|ktp:N0|mc:21806|mtp:S|qry_typ:P|lang:en|wc:3|cs:8834|v=4,Bankey Bihari Enterprises,https://www.indiamart.com/bankey-bihari-enterprisesnewdelhi/?pos=45&kwd=baby car seat&tags=CC||||8752.144|Price|product|||TS|rsf:gd-|-stype:attr=1|qr_nm:gd|res:RC4|com-cf:nl|ptrs:na|ktp:N0|mc:21806|mtp:S|qry_typ:P|lang:en|wc:3|cs:8834|v=4,False,Jahangirpuri,New Delhi,"Plot No 51 First Floor Street No 11 Harijan Colony Village Bhalsva, Jahangirpuri, New Delhi - 110033, Dist.Delhi, Delhi",7942825166,
White Amrest Car Seat,https://www.indiamart.com/proddetail/amrest-car-seat-2852169756891.html?pos=46&kwd=baby car seat&tags=CC||||8663.873|Price|product|||TS|rsf:gd-|-stype:attr=1|qr_nm:gd|res:RC4|com-cf:nl|ptrs:na|ktp:N0|mc:21806|mtp:S|qry_typ:P|lang:en|wc:3|cs:8834|v=4,Nandi Electronics,https://www.nandielectronics.com/?pos=46&kwd=baby car seat&tags=CC||||8663.873|Price|product|||TS|rsf:gd-|-stype:attr=1|qr_nm:gd|res:RC4|com-cf:nl|ptrs:na|ktp:N0|mc:21806|mtp:S|qry_typ:P|lang:en|wc:3|cs:8834|v=4,False,Kalasipalya,Bengaluru,"No 6/1 And 6/2 Ground Floor 1st Floor And 2nd Floor , Journalist Colony 1st Cross, Urban, Kalasipalya, Bengaluru - 560002, Dist.Bengaluru, Karnataka",7942835811,
"White ElriBird Gray Baby Safety Seat 20kg Capacity, Packaging Type: Box, 3-12 Months",https://www.indiamart.com/proddetail/gray-baby-safety-seat-20kg-capacity-2852554072430.html?pos=47&kwd=baby car seat&tags=CC||||8319.425|Price|product|||TS|rsf:gd-|-stype:attr=1|qr_nm:gd|res:RC4|com-cf:nl|ptrs:na|ktp:N0|mc:21806|mtp:S|qry_typ:P|lang:en|wc:3|cs:8834|v=4,ELRIBIRD INDIA LLP,https://www.indiamart.com/reebullecommerce/?pos=47&kwd=baby car seat&tags=CC||||8319.425|Price|product|||TS|rsf:gd-|-stype:attr=1|qr_nm:gd|res:RC4|com-cf:nl|ptrs:na|ktp:N0|mc:21806|mtp:S|qry_typ:P|lang:en|wc:3|cs:8834|v=4,False,sangriya,Jodhpur,"Shop No 1,,Purohito Ka Bass Sangariya,Jodhpur Ground floor, Shop No 1, Purohito Ka Bass Sangariya, Near senior secondary goverment school sangriy, sangriya, Jodhpur - 342005, Dist.Jodhpur, Rajasthan",7942821795,
white or light granite Baby Diaper Changing Station,https://www.indiamart.com/proddetail/baby-diaper-changing-station-25299975488.html?pos=48&kwd=baby car seat&tags=CB||||8211.142|Price|product|||TS|rsf:gd-|-stype:attr=1|qr_nm:gd|res:RC4|com-cf:nl|ptrs:na|ktp:N0|mc:21806|mtp:S|qry_typ:P|lang:en|wc:3|cs:8834|v=4,Orchids Tissue Paper Products,https://www.indiamart.com/orchidstissuepaperproducts/?pos=48&kwd=baby car seat&tags=CB||||8211.142|Price|product|||TS|rsf:gd-|-stype:attr=1|qr_nm:gd|res:RC4|com-cf:nl|ptrs:na|ktp:N0|mc:21806|mtp:S|qry_typ:P|lang:en|wc:3|cs:8834|v=4,False,Mahim,Mumbai,"Shop No 209/210, Allied Industrial Estate, Ram Panjwani Road, Mahim, Mahim, Mumbai - 400016, Dist.Mumbai, Maharashtra",8046045706,
"Pink Blue Polyester,Foam Baby Car Seat",https://www.indiamart.com/proddetail/baby-car-seat-2853636699891.html?pos=49&kwd=baby car seat&tags=CC||||9148.645|Price|product|||MDC|rsf:gd-|-stype:attr=1|qr_nm:gd|res:RC4|com-cf:nl|ptrs:na|ktp:N0|mc:21806|mtp:S|qry_typ:P|lang:en|wc:3|cs:8834|v=4,Sri Jaya Enterprises,https://www.indiamart.com/sri-jayaenterprises/?pos=49&kwd=baby car seat&tags=CC||||9148.645|Price|product|||MDC|rsf:gd-|-stype:attr=1|qr_nm:gd|res:RC4|com-cf:nl|ptrs:na|ktp:N0|mc:21806|mtp:S|qry_typ:P|lang:en|wc:3|cs:8834|v=4,False,Machara,Mandapeta,"31-1-27/1, Ward No 13, Alamuru Road, Mandapeta, East Godavari, Machara, Mandapeta - 533308, Dist.East Godavari, Andhra Pradesh",7949093426,
Car Child Safety Seat,https://www.indiamart.com/proddetail/car-child-safety-seat-2854289439097.html?pos=50&kwd=baby car seat&tags=CC||||8752.144|Price|product|||MDC|rsf:gd-|-stype:attr=1|qr_nm:gd|res:RC4|com-cf:nl|ptrs:na|ktp:N0|mc:21806|mtp:S|qry_typ:P|lang:en|wc:3|cs:8834|v=4,Guru Kirpa Car Accessories,https://www.indiamart.com/gurukirpacaraccessories/?pos=50&kwd=baby car seat&tags=CC||||8752.144|Price|product|||MDC|rsf:gd-|-stype:attr=1|qr_nm:gd|res:RC4|com-cf:nl|ptrs:na|ktp:N0|mc:21806|mtp:S|qry_typ:P|lang:en|wc:3|cs:8834|v=4,False,Karol Bagh,New Delhi,"10172 And 10173 A, Block T, Ground Floor, Gali No. 2, Abdul Aziz Road, W.E.A., Karol Bagh, Central, Karol Bagh, New Delhi - 110005, Dist.Delhi, Delhi",7942716648,
Gray & Black Polyester Luvlap Baby Car Seat Cum Carry Cot,https://www.indiamart.com/proddetail/luvlap-baby-car-seat-cum-carry-cot-2853399467230.html?pos=51&kwd=baby car seat&tags=CC||||8614.241|Price|product|||MDC|rsf:gd-|-stype:attr=1|qr_nm:gd|res:RC4|com-cf:nl|ptrs:na|ktp:N0|mc:21806|mtp:S|qry_typ:P|lang:en|wc:3|cs:8834|v=4,M.M. Toy World,https://www.indiamart.com/mmtoyworld/?pos=51&kwd=baby car seat&tags=CC||||8614.241|Price|product|||MDC|rsf:gd-|-stype:attr=1|qr_nm:gd|res:RC4|com-cf:nl|ptrs:na|ktp:N0|mc:21806|mtp:S|qry_typ:P|lang:en|wc:3|cs:8834|v=4,False,Achli Gate,Batala,"M.M. Toys World, Bedian Gali, Khujari Gate, Gurdaspur, Achli Gate, Batala - 143505, Dist.Gurdaspur, Punjab",7949224330,
"Adjustable Baby Car Cotton Cushion Seat with Safety Belt for Child, Age: 1-2 Years",https://www.indiamart.com/proddetail/adjustable-baby-car-cotton-cushion-seat-with-safety-belt-for-child-21654956230.html?pos=52&kwd=baby car seat&tags=CC||||8230.883|Price|product|||MDC|rsf:gd-|-stype:attr=1|qr_nm:gd|res:RC4|com-cf:nl|ptrs:na|ktp:N0|mc:21806|mtp:S|qry_typ:P|lang:en|wc:3|cs:8834|v=4,Unique Buyer,https://www.indiamart.com/unique-buyer/?pos=52&kwd=baby car seat&tags=CC||||8230.883|Price|product|||MDC|rsf:gd-|-stype:attr=1|qr_nm:gd|res:RC4|com-cf:nl|ptrs:na|ktp:N0|mc:21806|mtp:S|qry_typ:P|lang:en|wc:3|cs:8834|v=4,False,Katargam,Surat,"C 25 shaymdham soc, opp archana soc,near vijayraj circal, Singanpore,, Katargam, Surat - 395004, Dist.Surat, Gujarat",7942544685,
"Barasat,West Bengal FRP Children's Seat",https://www.indiamart.com/proddetail/frp-children-s-seat-24325675062.html?pos=53&kwd=baby car seat&tags=CC||||9843.627|Price|product|||MDC|rsf:gd-|-stype:attr=1|qr_nm:gd|res:RC4|com-cf:nl|ptrs:na|ktp:N0|mc:21806|mtp:S|qry_typ:P|lang:en|wc:3|cs:8834|v=4,J R Enterprise,https://www.indiamart.com/j-r-enterprisekolkata/?pos=53&kwd=baby car seat&tags=CC||||9843.627|Price|product|||MDC|rsf:gd-|-stype:attr=1|qr_nm:gd|res:RC4|com-cf:nl|ptrs:na|ktp:N0|mc:21806|mtp:S|qry_typ:P|lang:en|wc:3|cs:8834|v=4,False,Kolkata,North 24 Parganas,"Palpakuria, Kazipara, Barasat, District North 24 Parganas, Kolkata, North 24 Parganas - 700125, Dist.North 24 Parganas, West Bengal",8048613408,
Kids toys baby comfort seat,,I B International,https://www.indiamart.com/i-b-internationalmumbai/?pos=54&kwd=baby car seat&tags=CC||||8211.142|Price|product|||MDC|rsf:gd-|-stype:attr=1|qr_nm:gd|res:RC4|com-cf:nl|ptrs:na|ktp:N0|mc:21806|mtp:S|qry_typ:P|lang:en|wc:3|cs:8834|v=4,False,Masjid,Mumbai,"4Th Floor Shop No. 21, Dontad Street Plot No. 63, Kadri Manzil Chinch Bunder Chinch Bunder, Masjid, Mumbai - 400009, Dist.Mumbai, Maharashtra",7942790812,
Toyota Innova Middle Seats for Personal,https://www.indiamart.com/proddetail/toyota-innova-middle-seats-20503421512.html?pos=56&kwd=baby car seat&tags=||||8752.144|Price|proxy|||TS|rsf:gd-|-stype:attr=1|qr_nm:gd|res:RC4|com-cf:nl|ptrs:na|ktp:N0|mc:21806|mtp:S|qry_typ:P|lang:en|wc:3|cs:8834|v=4,Sekhri Industries,https://www.indiamart.com/sekhri/?pos=56&kwd=baby car seat&tags=||||8752.144|Price|proxy|||TS|rsf:gd-|-stype:attr=1|qr_nm:gd|res:RC4|com-cf:nl|ptrs:na|ktp:N0|mc:21806|mtp:S|qry_typ:P|lang:en|wc:3|cs:8834|v=4,False,Naraina,New Delhi,"B62/8, Naraina Industrial Area, Phase No. 2, Behind Bentex, Naraina, New Delhi - 110028, Dist.Delhi, Delhi",8048982082,
Toyota Innova Middle Seats for Personal,https://www.indiamart.com/proddetail/toyota-innova-middle-seats-20503421512.html?pos=56&kwd=baby car seat&tags=||||8752.144|Price|proxy|||TS|rsf:gd-|-stype:attr=1|qr_nm:gd|res:RC4|com-cf:nl|ptrs:na|ktp:N0|mc:21806|mtp:S|qry_typ:P|lang:en|wc:3|cs:8834|v=4,Sekhri Industries,https://www.indiamart.com/sekhri/?pos=56&kwd=baby car seat&tags=||||8752.144|Price|proxy|||TS|rsf:gd-|-stype:attr=1|qr_nm:gd|res:RC4|com-cf:nl|ptrs:na|ktp:N0|mc:21806|mtp:S|qry_typ:P|lang:en|wc:3|cs:8834|v=4,False,Naraina,New Delhi,"B62/8, Naraina Industrial Area, Phase No. 2, Behind Bentex, Naraina, New Delhi - 110028, Dist.Delhi, Delhi",8048982082,
Joie Muze Lx One Hand fold Travel Sytem with Flat Reclining Car Seat Dark Pewter,https://www.indiamart.com/proddetail/joie-muze-lx-one-hand-fold-travel-sytem-with-flat-reclining-car-seat-dark-pewter-2851665011762.html?pos=57&kwd=baby car seat&tags=||||8752.144|Price|product|||TS|rsf:gd-|-stype:attr=1|qr_nm:gd|res:RC4|com-cf:nl|ptrs:na|ktp:N0|mc:21806|mtp:S|qry_typ:P|lang:en|wc:3|cs:8834|v=4,Luxtronic Technologies,https://www.indiamart.com/luxtronic-technologies/?pos=57&kwd=baby car seat&tags=||||8752.144|Price|product|||TS|rsf:gd-|-stype:attr=1|qr_nm:gd|res:RC4|com-cf:nl|ptrs:na|ktp:N0|mc:21806|mtp:S|qry_typ:P|lang:en|wc:3|cs:8834|v=4,False,Burari,New Delhi,"Khasra No.19/1, Shastri Park Burari,, Burari, New Delhi - 110084, Dist.Delhi, Delhi",7942835637,
Xl6 Car Baby Seat,https://www.indiamart.com/proddetail/xl6-car-baby-seat-2854321142791.html?pos=58&kwd=baby car seat&tags=||||8228.275|Price|product|||MDC|rsf:gd-|-stype:attr=1|qr_nm:gd|res:RC4|com-cf:nl|ptrs:na|ktp:N0|mc:21806|mtp:S|qry_typ:P|lang:en|wc:3|cs:8834|v=4,Y N Seats,https://www.indiamart.com/y-n-seats/?pos=58&kwd=baby car seat&tags=||||8228.275|Price|product|||MDC|rsf:gd-|-stype:attr=1|qr_nm:gd|res:RC4|com-cf:nl|ptrs:na|ktp:N0|mc:21806|mtp:S|qry_typ:P|lang:en|wc:3|cs:8834|v=4,False,,Ahmedabad,"238, Chamunda Nagar, Rabari Vas, Nr. Bus Stop, Sola Road, Naranpura,, Ahmedabad - 380013, Dist.Ahmedabad, Gujarat",8045732889,
Beige Leather Innova Crysta Baby Seat,https://www.indiamart.com/proddetail/innova-crysta-baby-seat-24681554062.html?pos=59&kwd=baby car seat&tags=||||8752.144|Price|product|||MDC|rsf:gd-|-stype:attr=1|qr_nm:gd|res:RC4|com-cf:nl|ptrs:na|ktp:N0|mc:21806|mtp:S|qry_typ:P|lang:en|wc:3|cs:8834|v=4,M R Modification,https://www.indiamart.com/m-r-modification/?pos=59&kwd=baby car seat&tags=||||8752.144|Price|product|||MDC|rsf:gd-|-stype:attr=1|qr_nm:gd|res:RC4|com-cf:nl|ptrs:na|ktp:N0|mc:21806|mtp:S|qry_typ:P|lang:en|wc:3|cs:8834|v=4,False,Mundka,New Delhi,"Plot No. 20, Ground Floor, Village Hiran Kudna, Near Transformer No. 1, Village Hiran Kudna, West Delhi, Mundka, New Delhi - 110041, Dist.Delhi, Delhi",7942538197,
"Blue,Black Navy Blue Sports Convertible Baby Car Seat",https://www.indiamart.com/proddetail/navy-blue-sports-convertible-baby-car-seat-24263653597.html?pos=60&kwd=baby car seat&tags=CA||||8740.707|Price|product|||NA|rsf:gd-|-stype:attr=1|qr_nm:gd|res:RC4|com-cf:nl|ptrs:na|ktp:N0|mc:21806|mtp:S|qry_typ:P|lang:en|wc:3|cs:8834|v=4,Atharva Enterprises,https://www.indiamart.com/atharvaenterprises-zirakpur/?pos=60&kwd=baby car seat&tags=CA||||8740.707|Price|product|||NA|rsf:gd-|-stype:attr=1|qr_nm:gd|res:RC4|com-cf:nl|ptrs:na|ktp:N0|mc:21806|mtp:S|qry_typ:P|lang:en|wc:3|cs:8834|v=4,False,SAS Nagar,Sas Nagar,"Shop No. 7, Near Community Centre, Luxmi Enclave, Dhakoli, SAS Nagar, Sas Nagar - 140603, Dist.Mohali, Punjab",7942538452,
Polyester 3 In 1 Car Seat Tray: Steering Wheel Table for Kids & Laptops,https://www.indiamart.com/proddetail/polyester-3-in-1-car-seat-tray-steering-wheel-table-for-kids-laptops-2854233078933.html?pos=61&kwd=baby car seat&tags=||||8752.144|Price|product|||TS|rsf:gd-|-stype:attr=1|qr_nm:gd|res:RC4|com-cf:nl|ptrs:na|ktp:N0|mc:21806|mtp:S|qry_typ:P|lang:en|wc:3|cs:8834|v=4,Loyals India Sales Corp,https://www.indiamart.com/loyalsindiasalescrop/?pos=61&kwd=baby car seat&tags=||||8752.144|Price|product|||TS|rsf:gd-|-stype:attr=1|qr_nm:gd|res:RC4|com-cf:nl|ptrs:na|ktp:N0|mc:21806|mtp:S|qry_typ:P|lang:en|wc:3|cs:8834|v=4,False,Pitampura,New Delhi,"B171, Lok Vihar, Pitampura North West, Pitampura, New Delhi - 110034, Dist.Delhi, Delhi",8046044793,
Black Leather Swift Car Seat Cover,https://www.indiamart.com/proddetail/leather-swift-car-seat-cover-20167488030.html?pos=62&kwd=baby car seat&tags=||||8752.144|Price|product|||TS|rsf:gd-|-stype:attr=1|qr_nm:gd|res:RC4|com-cf:nl|ptrs:na|ktp:N0|mc:21806|mtp:S|qry_typ:P|lang:en|wc:3|cs:8834|v=4,Saima Industries,https://www.indiamart.com/saima-industries/?pos=62&kwd=baby car seat&tags=||||8752.144|Price|product|||TS|rsf:gd-|-stype:attr=1|qr_nm:gd|res:RC4|com-cf:nl|ptrs:na|ktp:N0|mc:21806|mtp:S|qry_typ:P|lang:en|wc:3|cs:8834|v=4,False,Madipur,New Delhi,"Udyog Nagar, Peeragarhi, F-5, Second Floor, Rohtak Road, Madipur, New Delhi - 110041, Dist.Delhi, Delhi",8047647150,
"Plastic and Stainless Steel Baby Green Panda Seat Walker, Six to Eighteen Months",https://www.indiamart.com/proddetail/baby-green-panda-seat-walker-2854405239288.html?pos=63&kwd=baby car seat&tags=||||8210.732|Price|product|||MDC|rsf:gd-|-stype:attr=1|qr_nm:gd|res:RC4|com-cf:nl|ptrs:na|ktp:N0|mc:21806|mtp:S|qry_typ:P|lang:en|wc:3|cs:8834|v=4,Navkar Traders,https://www.indiamart.com/navkartradersmaharashtra/?pos=63&kwd=baby car seat&tags=||||8210.732|Price|product|||MDC|rsf:gd-|-stype:attr=1|qr_nm:gd|res:RC4|com-cf:nl|ptrs:na|ktp:N0|mc:21806|mtp:S|qry_typ:P|lang:en|wc:3|cs:8834|v=4,False,,Vasai Virar,"Ground Floor, B/001, Shivam Apt, Rd. No. 1 Vasant Nagri,, Vasai Virar - 401209, Dist.Thane, Maharashtra",7949338602,
Tempo Traveller Seats,https://www.indiamart.com/proddetail/tempo-traveller-seats-2853746058697.html?pos=64&kwd=baby car seat&tags=||||8769.508||product|||TS|rsf:gd-|-stype:attr=1|qr_nm:gd|res:RC4|com-cf:nl|ptrs:na|ktp:N0|mc:21806|mtp:S|qry_typ:P|lang:en|wc:3|cs:8834|v=4,SSR FBV Enterprises,https://www.ssrfbv.com/?pos=64&kwd=baby car seat&tags=||||8769.508||product|||TS|rsf:gd-|-stype:attr=1|qr_nm:gd|res:RC4|com-cf:nl|ptrs:na|ktp:N0|mc:21806|mtp:S|qry_typ:P|lang:en|wc:3|cs:8834|v=4,False,Near,Faridabad,"Sector-71, Near Abhisha Academy, IMT Faridabad, Sikri Industrial Area, Near, Faridabad - 121004, Dist.Faridabad, Haryana",7942821593,
"Mahindra Thar Headlight, Right & Left",https://www.indiamart.com/proddetail/mahindra-thar-headlight-right-left-2854755402733.html?pos=65&kwd=baby car seat&tags=||||8752.144|Price|product|||TS|rsf:gd-|-stype:attr=1|qr_nm:gd|res:RC4|com-cf:nl|ptrs:na|ktp:N0|mc:21806|mtp:S|qry_typ:P|lang:en|wc:3|cs:8834|v=4,ADA Technologies,https://www.adatechindia.com/?pos=65&kwd=baby car seat&tags=||||8752.144|Price|product|||TS|rsf:gd-|-stype:attr=1|qr_nm:gd|res:RC4|com-cf:nl|ptrs:na|ktp:N0|mc:21806|mtp:S|qry_typ:P|lang:en|wc:3|cs:8834|v=4,False,Pandav Nagar,New Delhi,"D-12A, First Floor, Back Side, Pandav Nagar, East Delhi, Pandav Nagar, New Delhi - 110092, Dist.Delhi, Delhi",8048264925,
"Black Pu Foam BACK AND BOTTOM SET ONLY, 0.100, Vehicle Model: Universal",https://www.indiamart.com/proddetail/back-and-bottom-set-only-24579379588.html?pos=66&kwd=baby car seat&tags=||||8319.425|Price|product|||TS|rsf:gd-|-stype:attr=1|qr_nm:gd|res:RC4|com-cf:nl|ptrs:na|ktp:N0|mc:21806|mtp:S|qry_typ:P|lang:en|wc:3|cs:8834|v=4,Jainam Agro Industries,https://www.indiamart.com/jaintools/?pos=66&kwd=baby car seat&tags=||||8319.425|Price|product|||TS|rsf:gd-|-stype:attr=1|qr_nm:gd|res:RC4|com-cf:nl|ptrs:na|ktp:N0|mc:21806|mtp:S|qry_typ:P|lang:en|wc:3|cs:8834|v=4,True,Jodhpur Girdikot,Jodhpur,"121,Chutravata Ka Pulia,Mata Ka Than Road,Jodhpur CHUTRAVATA KA PULIA, MATA KA THAN ROAD, J, Jodhpur Girdikot, Jodhpur - 342001, Dist.Jodhpur, Rajasthan",8048986722,
Roll Multicolor Velvet Sofa Fabric,https://www.indiamart.com/proddetail/velvet-sofa-fabric-2854073425333.html?pos=67&kwd=baby car seat&tags=||||8752.144|Price|product|||TS|rsf:gd-|-stype:attr=1|qr_nm:gd|res:RC4|com-cf:nl|ptrs:na|ktp:N0|mc:21806|mtp:S|qry_typ:P|lang:en|wc:3|cs:8834|v=4,Nirmal Handloom,https://www.indiamart.com/nirmalhandloom/?pos=67&kwd=baby car seat&tags=||||8752.144|Price|product|||TS|rsf:gd-|-stype:attr=1|qr_nm:gd|res:RC4|com-cf:nl|ptrs:na|ktp:N0|mc:21806|mtp:S|qry_typ:P|lang:en|wc:3|cs:8834|v=4,False,Pitampura,New Delhi,"3412, Mahindra Park, Pitam Pura Guru Harkishan Marg, Road Number 43, Rani Bagh, Pitampura, New Delhi - 110034, Dist.Delhi, Delhi",8047639944,
Universal Car Neck Rest,https://www.indiamart.com/proddetail/universal-car-neck-rest-2850915833862.html?pos=68&kwd=baby car seat&tags=||||8741.812|Price|product|||TS|rsf:gd-|-stype:attr=1|qr_nm:gd|res:RC4|com-cf:nl|ptrs:na|ktp:N0|mc:21806|mtp:S|qry_typ:P|lang:en|wc:3|cs:8834|v=4,Meenakshi Polymers,https://www.indiamart.com/meenakshipolymers/?pos=68&kwd=baby car seat&tags=||||8741.812|Price|product|||TS|rsf:gd-|-stype:attr=1|qr_nm:gd|res:RC4|com-cf:nl|ptrs:na|ktp:N0|mc:21806|mtp:S|qry_typ:P|lang:en|wc:3|cs:8834|v=4,False,Jalvayu Vihar,Gurugram,"Plot No 33, Sector -34, EHTP, Jalvayu Vihar, Gurugram - 122001, Dist.Gurgaon, Haryana",8048957880,
Beby seat kia carens/old innova/innova crysta/mg Hector,https://www.indiamart.com/proddetail/beby-seat-kia-carens-old-innova-innova-crysta-mg-hector-2849226994097.html?pos=69&kwd=baby car seat&tags=||||8228.275|Price|product|||TS|rsf:gd-|-stype:attr=1|qr_nm:gd|res:RC4|com-cf:nl|ptrs:na|ktp:N0|mc:21806|mtp:S|qry_typ:P|lang:en|wc:3|cs:8834|v=4,Yash Motors,https://www.indiamart.com/yashmotors-gujarat/?pos=69&kwd=baby car seat&tags=||||8228.275|Price|product|||TS|rsf:gd-|-stype:attr=1|qr_nm:gd|res:RC4|com-cf:nl|ptrs:na|ktp:N0|mc:21806|mtp:S|qry_typ:P|lang:en|wc:3|cs:8834|v=4,False,Bodakdev,Ahmedabad,"No. 7, Mohini Tower, Opposite Sharda Petrol Pump, Judges Bunglow Road, Bodakdev, Ahmedabad - 380015, Dist.Ahmedabad, Gujarat",8047642011,
"Multicolor Plastic Baby Walker, Four to Twelve Months, Packaging Type: Box Packed",https://www.indiamart.com/proddetail/musical-baby-walker-2854445848662.html?pos=70&kwd=baby car seat&tags=||||8752.144|Price|product|||TS|rsf:gd-|-stype:attr=1|qr_nm:gd|res:RC4|com-cf:nl|ptrs:na|ktp:N0|mc:21806|mtp:S|qry_typ:P|lang:en|wc:3|cs:8834|v=4,Indial Premium Products,https://www.indiamart.com/indial-premium-products/?pos=70&kwd=baby car seat&tags=||||8752.144|Price|product|||TS|rsf:gd-|-stype:attr=1|qr_nm:gd|res:RC4|com-cf:nl|ptrs:na|ktp:N0|mc:21806|mtp:S|qry_typ:P|lang:en|wc:3|cs:8834|v=4,False,,New Delhi,"68, K Block, Jahangirpuri North West Delhi, New Delhi - 110033, Dist.Delhi, Delhi",8045732973,
Audi Child Seat with Isofix,https://www.indiamart.com/proddetail/audi-child-seat-with-isofix-6669008888.html?pos=71&kwd=baby car seat&tags=CC||||8752.144||product|||NA|rsf:gd-|-stype:attr=1|qr_nm:gd|res:RC4|com-cf:nl|ptrs:na|ktp:N0|mc:21806|mtp:S|qry_typ:P|lang:en|wc:3|cs:8834|v=4,Audi Delhi South,https://www.indiamart.com/audi-delhi-south-newdelhi/?pos=71&kwd=baby car seat&tags=CC||||8752.144||product|||NA|rsf:gd-|-stype:attr=1|qr_nm:gd|res:RC4|com-cf:nl|ptrs:na|ktp:N0|mc:21806|mtp:S|qry_typ:P|lang:en|wc:3|cs:8834|v=4,False,Industrial Estate Mathura Road,New Delhi,"B1/H1 Mohan Cooperative, Industrial Estate Mathura Road, New Delhi - 110044, Dist.Delhi, Delhi",8047311019,5576
Blueidea Mesin Terapi Digital Body Healthy Care Digital Meridian Therapy Massager Machine Slim Slimm,https://www.indiamart.com/proddetail/blueidea-mesin-terapi-digital-body-healthy-care-digital-meridian-therapy-massager-machine-slim-slimm-19417921548.html?pos=72&kwd=baby car seat&tags=CC||||8228.275|Price|product|||NA|rsf:gd-|-stype:attr=1|qr_nm:gd|res:RC4|com-cf:nl|ptrs:na|ktp:N0|mc:21806|mtp:S|qry_typ:P|lang:en|wc:3|cs:8834|v=4,Ganesh Corporation,https://www.indiamart.com/ganesh-import-export/?pos=72&kwd=baby car seat&tags=CC||||8228.275|Price|product|||NA|rsf:gd-|-stype:attr=1|qr_nm:gd|res:RC4|com-cf:nl|ptrs:na|ktp:N0|mc:21806|mtp:S|qry_typ:P|lang:en|wc:3|cs:8834|v=4,False,Odhav,Ahmedabad,"Shop No. 11, Near Karma Gas, Odhav, Odhav, Ahmedabad - 382415, Dist.Ahmedabad, Gujarat",7949312255,
"Baby Car Seat, 1-2 Years",https://www.indiamart.com/proddetail/baby-car-seat-22144328373.html?pos=73&kwd=baby car seat&tags=CC||||8307.81|Price|product|||NA|rsf:gd-|-stype:attr=1|qr_nm:gd|res:RC4|com-cf:nl|ptrs:na|ktp:N0|mc:21806|mtp:S|qry_typ:P|lang:en|wc:3|cs:8834|v=4,Hopes Enterprises,https://www.indiamart.com/hopes-enterprises-pune/?pos=73&kwd=baby car seat&tags=CC||||8307.81|Price|product|||NA|rsf:gd-|-stype:attr=1|qr_nm:gd|res:RC4|com-cf:nl|ptrs:na|ktp:N0|mc:21806|mtp:S|qry_typ:P|lang:en|wc:3|cs:8834|v=4,False,Fatima Nagar,Pune,"Tain Square Building C, Shop No. 02, S No. 15/A Wanawadi, Fatima Nagar, Pune - 411040, Dist.Pune, Maharashtra",8069264845,214
Baby Car Seat,https://www.indiamart.com/proddetail/baby-car-seat-22544401497.html?pos=74&kwd=baby car seat&tags=CC||||8230.883||product|||NA|rsf:gd-|-stype:attr=1|qr_nm:gd|res:RC4|com-cf:nl|ptrs:na|ktp:N0|mc:21806|mtp:S|qry_typ:P|lang:en|wc:3|cs:8834|v=4,Rozzby,https://www.indiamart.com/rozzby-surat/?pos=74&kwd=baby car seat&tags=CC||||8230.883||product|||NA|rsf:gd-|-stype:attr=1|qr_nm:gd|res:RC4|com-cf:nl|ptrs:na|ktp:N0|mc:21806|mtp:S|qry_typ:P|lang:en|wc:3|cs:8834|v=4,False,Hirabaug,Surat,"A/19,Purvi Soc,Hirabaug,Varachha Road, Hirabaug, Surat - 395006, Dist.Surat, Gujarat",8048372580,706
Baby Car Seat,https://www.indiamart.com/proddetail/baby-car-seat-2330087733.html?pos=75&kwd=baby car seat&tags=CC||||8752.144||product|||NA|rsf:gd-|-stype:attr=1|qr_nm:gd|res:RC4|com-cf:nl|ptrs:na|ktp:N0|mc:21806|mtp:S|qry_typ:P|lang:en|wc:3|cs:8834|v=4,Akay Rolling Mills Private Limited,https://www.indiamart.com/akay-rolling-mills/?pos=75&kwd=baby car seat&tags=CC||||8752.144||product|||NA|rsf:gd-|-stype:attr=1|qr_nm:gd|res:RC4|com-cf:nl|ptrs:na|ktp:N0|mc:21806|mtp:S|qry_typ:P|lang:en|wc:3|cs:8834|v=4,False,Bali Nagar,New Delhi,"No. H-27, Bali Nagar, Bali Nagar, New Delhi - 110015, Dist.Delhi, Delhi",8048372274,137
Baby Car Seat,https://www.indiamart.com/proddetail/baby-car-seat-13727181262.html?pos=76&kwd=baby car seat&tags=CB||||8476.868|Price|product|||NA|rsf:gd-|-stype:attr=1|qr_nm:gd|res:RC4|com-cf:nl|ptrs:na|ktp:N0|mc:21806|mtp:S|qry_typ:P|lang:en|wc:3|cs:8834|v=4,J L Morison India Limited,https://www.indiamart.com/sydler-remedies/?pos=76&kwd=baby car seat&tags=CB||||8476.868|Price|product|||NA|rsf:gd-|-stype:attr=1|qr_nm:gd|res:RC4|com-cf:nl|ptrs:na|ktp:N0|mc:21806|mtp:S|qry_typ:P|lang:en|wc:3|cs:8834|v=4,False,MIDC,Aurangabad,"E-95/1, M. I. D. C, Waluj, MIDC, Aurangabad - 431136, Maharashtra",7942612193,
Child Safety Seat Portable Car Baby Car Seat,https://www.indiamart.com/proddetail/child-safety-seat-portable-car-baby-car-seat-16765674355.html?pos=77&kwd=baby car seat&tags=CC||||8662.111|Price|product|||NA|rsf:gd-|-stype:attr=1|qr_nm:gd|res:RC4|com-cf:nl|ptrs:na|ktp:N0|mc:21806|mtp:S|qry_typ:P|lang:en|wc:3|cs:8834|v=4,V K S Impex,https://www.indiamart.com/vksimpex/?pos=77&kwd=baby car seat&tags=CC||||8662.111|Price|product|||NA|rsf:gd-|-stype:attr=1|qr_nm:gd|res:RC4|com-cf:nl|ptrs:na|ktp:N0|mc:21806|mtp:S|qry_typ:P|lang:en|wc:3|cs:8834|v=4,False,,Tirunelveli,"10B/1H/7, Thirumalai Complex Trivandrum Road, Palayamkottai, Tirunelveli - 627002, Dist.Tirunelveli, Tamil Nadu",8047667489,
Baby Car Seat BABY-SAFE ISOFIX BASE,https://www.indiamart.com/proddetail/baby-car-seat-baby-safe-isofix-base-19512522888.html?pos=78&kwd=baby car seat&tags=CB||||8211.142|Price|product|||NA|rsf:gd-|-stype:attr=1|qr_nm:gd|res:RC4|com-cf:nl|ptrs:na|ktp:N0|mc:21806|mtp:S|qry_typ:P|lang:en|wc:3|cs:8834|v=4,Resper International (India) Private Limited,https://www.indiamart.com/reltrix-fincorp/?pos=78&kwd=baby car seat&tags=CB||||8211.142|Price|product|||NA|rsf:gd-|-stype:attr=1|qr_nm:gd|res:RC4|com-cf:nl|ptrs:na|ktp:N0|mc:21806|mtp:S|qry_typ:P|lang:en|wc:3|cs:8834|v=4,False,Dharavi,Mumbai,"144, Ashok Mill Compound Sion Bandra Link Road, Dharavi, Mumbai - 400017, Dist.Mumbai, Maharashtra",8048371522,634
Single Baby Car Seat,https://www.indiamart.com/proddetail/single-baby-car-seat-13195092897.html?pos=79&kwd=baby car seat&tags=CC||||8752.144||product|||NA|rsf:gd-|-stype:attr=1|qr_nm:gd|res:RC4|com-cf:nl|ptrs:na|ktp:N0|mc:21806|mtp:S|qry_typ:P|lang:en|wc:3|cs:8834|v=4,Sekhri Industries,https://www.indiamart.com/sekhri-industries/?pos=79&kwd=baby car seat&tags=CC||||8752.144||product|||NA|rsf:gd-|-stype:attr=1|qr_nm:gd|res:RC4|com-cf:nl|ptrs:na|ktp:N0|mc:21806|mtp:S|qry_typ:P|lang:en|wc:3|cs:8834|v=4,False,Phase 2,New Delhi,"PHASE- II,B- 62/8,,NARAINA IND. AREA,NARAINA,Delhi,110028, Phase 2, New Delhi - 110028, Dist.Delhi, Delhi",8048249672,7284
Red And Black Baby Lockable Car Seat BL-22,https://www.indiamart.com/proddetail/baby-lockable-car-seat-bl-22-20517628030.html?pos=80&kwd=baby car seat&tags=CC||||8954.051||product|||NA|rsf:gd-|-stype:attr=1|qr_nm:gd|res:RC4|com-cf:nl|ptrs:na|ktp:N0|mc:21806|mtp:S|qry_typ:P|lang:en|wc:3|cs:8834|v=4,Babylou,https://www.indiamart.com/baby-lou/?pos=80&kwd=baby car seat&tags=CC||||8954.051||product|||NA|rsf:gd-|-stype:attr=1|qr_nm:gd|res:RC4|com-cf:nl|ptrs:na|ktp:N0|mc:21806|mtp:S|qry_typ:P|lang:en|wc:3|cs:8834|v=4,False,Mylapore,Chennai,"114 Luz Church Road Near Alwarpet Anjaneyar Temple, Mylapore, Chennai - 600004, Dist.Chennai, Tamil Nadu",8043800763,
Yapaababy Kidstar Safety Baby Car Seat,https://www.indiamart.com/proddetail/yapaababy-kidstar-safety-baby-car-seat-3794221530.html?pos=81&kwd=baby car seat&tags=CC||||8230.883||product|||NA|rsf:gd-|-stype:attr=1|qr_nm:gd|res:RC4|com-cf:nl|ptrs:na|ktp:N0|mc:21806|mtp:S|qry_typ:P|lang:en|wc:3|cs:8834|v=4,Yapaa Dot Com,https://www.indiamart.com/yapaa-dsurat/?pos=81&kwd=baby car seat&tags=CC||||8230.883||product|||NA|rsf:gd-|-stype:attr=1|qr_nm:gd|res:RC4|com-cf:nl|ptrs:na|ktp:N0|mc:21806|mtp:S|qry_typ:P|lang:en|wc:3|cs:8834|v=4,False,,Surat,"Ghod Dod Road, Surat - 395007, Dist.Surat, Gujarat",8047308899,7252
"MGA Grey And Blue Baby Car Seat, 1-2 Years",https://www.indiamart.com/proddetail/grey-and-blue-baby-car-seat-22343910155.html?pos=82&kwd=baby car seat&tags=CB||||10180.86|Price|product|||NA|rsf:gd-|-stype:attr=1|qr_nm:gd|res:RC4|com-cf:nl|ptrs:na|ktp:N0|mc:21806|mtp:S|qry_typ:P|lang:en|wc:3|cs:8834|v=4,Bimal Auto Agency,https://www.indiamart.com/bimal-autoagency/?pos=82&kwd=baby car seat&tags=CB||||10180.86|Price|product|||NA|rsf:gd-|-stype:attr=1|qr_nm:gd|res:RC4|com-cf:nl|ptrs:na|ktp:N0|mc:21806|mtp:S|qry_typ:P|lang:en|wc:3|cs:8834|v=4,False,Chandmari,Guwahati,"1, 1, Bimal Auto Agency, Chandmari, Chandmari, Guwahati - 781014, Dist.Kamrup, Assam",8043878534,
Logo Printed Wall Mount LuvLap Joy Convertible Baby Car Seat,https://www.indiamart.com/proddetail/luvlap-joy-convertible-baby-car-seat-2852595188897.html?pos=83&kwd=baby car seat&tags=CC||||8706.587|Price|product|||NA|rsf:gd-|-stype:attr=1|qr_nm:gd|res:RC4|com-cf:nl|ptrs:na|ktp:N0|mc:21806|mtp:S|qry_typ:P|lang:en|wc:3|cs:8834|v=4,HD Automotive,https://www.indiamart.com/hdautomotive/?pos=83&kwd=baby car seat&tags=CC||||8706.587|Price|product|||NA|rsf:gd-|-stype:attr=1|qr_nm:gd|res:RC4|com-cf:nl|ptrs:na|ktp:N0|mc:21806|mtp:S|qry_typ:P|lang:en|wc:3|cs:8834|v=4,False,,Madurai,"No - 12, Sasi Nagar , P And T Nagar, Madurai - 625017, Dist.Madurai, Tamil Nadu",7942709913,
Chicco Keyfit Baby Car Seat Rental Service,https://www.indiamart.com/proddetail/chicco-keyfit-baby-car-seat-rental-service-19413920188.html?pos=84&kwd=baby car seat&tags=CC||||8211.142||product|||NA|rsf:gd-|-stype:attr=1|qr_nm:gd|res:RC4|com-cf:nl|ptrs:na|ktp:N0|mc:21806|mtp:S|qry_typ:P|lang:en|wc:3|cs:8834|v=4,T-Lab Tradecom Private Limited,https://www.indiamart.com/bragpacker/?pos=84&kwd=baby car seat&tags=CC||||8211.142||product|||NA|rsf:gd-|-stype:attr=1|qr_nm:gd|res:RC4|com-cf:nl|ptrs:na|ktp:N0|mc:21806|mtp:S|qry_typ:P|lang:en|wc:3|cs:8834|v=4,False,Juhu,Mumbai,"701, Jal Darshan Apartment, Gandhigram Road, Juhu, Juhu, Mumbai - 400049, Dist.Mumbai, Maharashtra",8047671411,
Convertible Car Seat For Kids,https://www.indiamart.com/proddetail/convertible-car-seat-for-kids-24823985648.html?pos=85&kwd=baby car seat&tags=CC||||8211.142|Price|product|||NA|rsf:gd-|-stype:attr=1|qr_nm:gd|res:RC4|com-cf:nl|ptrs:na|ktp:N0|mc:21806|mtp:S|qry_typ:P|lang:en|wc:3|cs:8834|v=4,Pawan General Stores,https://www.indiamart.com/pvan-retail/?pos=85&kwd=baby car seat&tags=CC||||8211.142|Price|product|||NA|rsf:gd-|-stype:attr=1|qr_nm:gd|res:RC4|com-cf:nl|ptrs:na|ktp:N0|mc:21806|mtp:S|qry_typ:P|lang:en|wc:3|cs:8834|v=4,False,Thakur Village,Mumbai,"B. Block Varanda No 6 Main Bazar Main Bazar Pimpri, Thakur Village, Mumbai - 411017, Dist.Mumbai, Maharashtra",8043812369,
"Carry Cot Cum Car Ceat, Newly Born",https://www.indiamart.com/proddetail/carry-cot-cum-car-seat-22042599933.html?pos=86&kwd=baby car seat&tags=CC||||8661.854|Price|product|||NA|rsf:gd-|-stype:attr=1|qr_nm:gd|res:RC4|com-cf:nl|ptrs:na|ktp:N0|mc:21806|mtp:S|qry_typ:P|lang:en|wc:3|cs:8834|v=4,New Payal Gift House,https://www.indiamart.com/new-payal-gift-house/?pos=86&kwd=baby car seat&tags=CC||||8661.854|Price|product|||NA|rsf:gd-|-stype:attr=1|qr_nm:gd|res:RC4|com-cf:nl|ptrs:na|ktp:N0|mc:21806|mtp:S|qry_typ:P|lang:en|wc:3|cs:8834|v=4,False,,Ludhiana,"KHALSA NATIONAL SCHOOL MKT,,,SHAHPUR ROAD,LUDHIAN 132-AB, Shahpur Road,141008,Ludhiana, Ludhiana - 141005, Dist.Ludhiana, Punjab",8048264926,
Sunbaby Inspire Car Seat With Bumper,https://www.indiamart.com/proddetail/sunbaby-inspire-car-seat-with-bumper-16034427088.html?pos=87&kwd=baby car seat&tags=CB||||8752.144|Price|product|||NA|rsf:gd-|-stype:attr=1|qr_nm:gd|res:RC4|com-cf:nl|ptrs:na|ktp:N0|mc:21806|mtp:S|qry_typ:P|lang:en|wc:3|cs:8834|v=4,I Tigar Shop Dot Com,https://www.indiamart.com/i-tigar-shopcom/?pos=87&kwd=baby car seat&tags=CB||||8752.144|Price|product|||NA|rsf:gd-|-stype:attr=1|qr_nm:gd|res:RC4|com-cf:nl|ptrs:na|ktp:N0|mc:21806|mtp:S|qry_typ:P|lang:en|wc:3|cs:8834|v=4,False,,New Delhi,"Near Indira Gandhi Gandhi International Airport, New Delhi - 110037, Dist.Delhi, Delhi",8048372371,331
R For Rabbit Jack N Jill Baby Car Seat,https://www.indiamart.com/proddetail/r-for-rabbit-jack-n-jill-baby-car-seat-2853237439188.html?pos=88&kwd=baby car seat&tags=CC||||8752.144|Price|product|||NA|rsf:gd-|-stype:attr=1|qr_nm:gd|res:RC4|com-cf:nl|ptrs:na|ktp:N0|mc:21806|mtp:S|qry_typ:P|lang:en|wc:3|cs:8834|v=4,BD Impex,https://www.indiamart.com/company/2395482/?pos=88&kwd=baby car seat&tags=CC||||8752.144|Price|product|||NA|rsf:gd-|-stype:attr=1|qr_nm:gd|res:RC4|com-cf:nl|ptrs:na|ktp:N0|mc:21806|mtp:S|qry_typ:P|lang:en|wc:3|cs:8834|v=4,False,,New Delhi,"The Moms Darling - Baby Shop 163, Kapil Vihar, Pitampura, New Delhi - 110034, Dist.Delhi, Delhi",,
Audi Child Seat with Isofix,https://www.indiamart.com/proddetail/audi-child-seat-with-isofix-6669008888.html?pos=89&kwd=baby car seat&tags=CC||||8752.144||product|||NA|rsf:gd-|-stype:attr=1|qr_nm:gd|res:RC4|com-cf:nl|ptrs:na|ktp:N0|mc:21806|mtp:S|qry_typ:P|lang:en|wc:3|cs:8834|v=4,Audi Delhi South,https://www.indiamart.com/audi-delhi-south-newdelhi/?pos=89&kwd=baby car seat&tags=CC||||8752.144||product|||NA|rsf:gd-|-stype:attr=1|qr_nm:gd|res:RC4|com-cf:nl|ptrs:na|ktp:N0|mc:21806|mtp:S|qry_typ:P|lang:en|wc:3|cs:8834|v=4,False,Industrial Estate Mathura Road,New Delhi,"B1/H1 Mohan Cooperative, Industrial Estate Mathura Road, New Delhi - 110044, Dist.Delhi, Delhi",8047311019,5576
Baby Sofa Seat,https://www.indiamart.com/proddetail/baby-sofa-seat-22850622955.html?pos=90&kwd=baby car seat&tags=CC||||8752.144|Price|product|||NA|rsf:gd-|-stype:attr=1|qr_nm:gd|res:RC4|com-cf:nl|ptrs:na|ktp:N0|mc:21806|mtp:S|qry_typ:P|lang:en|wc:3|cs:8834|v=4,Guru Nanak Traders,https://www.indiamart.com/gurunanak-tradersdelhi/?pos=90&kwd=baby car seat&tags=CC||||8752.144|Price|product|||NA|rsf:gd-|-stype:attr=1|qr_nm:gd|res:RC4|com-cf:nl|ptrs:na|ktp:N0|mc:21806|mtp:S|qry_typ:P|lang:en|wc:3|cs:8834|v=4,False,,New Delhi,"5404/13 2nd Floor Pratap Market Sadar Bazaar, New Delhi - 110006, Dist.Delhi, Delhi",8048201958,
New Design Baby Seat,https://www.indiamart.com/proddetail/new-design-baby-seat-2370886248.html?pos=91&kwd=baby car seat&tags=CC||||8752.144||product|||NA|rsf:gd-|-stype:attr=1|qr_nm:gd|res:RC4|com-cf:nl|ptrs:na|ktp:N0|mc:21806|mtp:S|qry_typ:P|lang:en|wc:3|cs:8834|v=4,Sunny Enterprises,https://www.indiamart.com/sunny-enterprises-new-delhi/?pos=91&kwd=baby car seat&tags=CC||||8752.144||product|||NA|rsf:gd-|-stype:attr=1|qr_nm:gd|res:RC4|com-cf:nl|ptrs:na|ktp:N0|mc:21806|mtp:S|qry_typ:P|lang:en|wc:3|cs:8834|v=4,False,,New Delhi,"C-212, Chandan Vihar, Galit No. 6, Nangloi Jaat, New Delhi - 110041, Dist.Delhi, Delhi",8048202003,
Luv Lap Infant Baby Car Seat - Dark Blue,,Bonzo Kids Apparel Private Limited,https://www.indiamart.com/bonzo-kids-apparels-private-limited/?pos=92&kwd=baby car seat&tags=CC||||8752.144||product|||NA|rsf:gd-|-stype:attr=1|qr_nm:gd|res:RC4|com-cf:nl|ptrs:na|ktp:N0|mc:21806|mtp:S|qry_typ:P|lang:en|wc:3|cs:8834|v=4,False,,New Delhi,"S67 Okhla Phase II, New Delhi - 110020, Dist.Delhi, Delhi",8048372815,342
Maxbell Child Baby Car Riding Travel Table Safety Seat Belt Back Rider Stroller Pad Cushion,https://www.indiamart.com/proddetail/maxbell-child-baby-car-riding-travel-table-safety-seat-belt-back-rider-stroller-pad-cushion-2851588470233.html?pos=93&kwd=baby car seat&tags=CC||||8752.144|Price|product|||FCPE|rsf:gd-|-stype:attr=1|qr_nm:gd|res:RC4|com-cf:nl|ptrs:na|ktp:N0|mc:21806|mtp:S|qry_typ:P|lang:en|wc:3|cs:8834|v=4,Aladdin Shoppers,https://www.indiamart.com/aladdin-shoppers/?pos=93&kwd=baby car seat&tags=CC||||8752.144|Price|product|||FCPE|rsf:gd-|-stype:attr=1|qr_nm:gd|res:RC4|com-cf:nl|ptrs:na|ktp:N0|mc:21806|mtp:S|qry_typ:P|lang:en|wc:3|cs:8834|v=4,False,,New Delhi,"1/5496-B, Gali No. 16, Balbir Nagar Extn, Shahdara, East Delhi, New Delhi - 110032, Dist.Delhi, Delhi",,
Cute Animal Shape Baby Supporting Seat To Learn Sitting Sofa Back Chair / Rocking -brown,https://www.indiamart.com/proddetail/cute-animal-shape-baby-supporting-seat-to-learn-sitting-sofa-back-chair-rocking-brown-23084413030.html?pos=94&kwd=baby car seat&tags=CC||||8752.144|Price|product|||NA|rsf:gd-|-stype:attr=1|qr_nm:gd|res:RC4|com-cf:nl|ptrs:na|ktp:N0|mc:21806|mtp:S|qry_typ:P|lang:en|wc:3|cs:8834|v=4,Delmi India Private Limited,https://www.indiamart.com/evolutionary-supplier/?pos=94&kwd=baby car seat&tags=CC||||8752.144|Price|product|||NA|rsf:gd-|-stype:attr=1|qr_nm:gd|res:RC4|com-cf:nl|ptrs:na|ktp:N0|mc:21806|mtp:S|qry_typ:P|lang:en|wc:3|cs:8834|v=4,False,Wazirabad,New Delhi,"Second Floor M-10 New Multan Nagar, Wazirabad, New Delhi - 110056, Dist.Delhi, Delhi",8043802564,
Child Restraints,https://www.indiamart.com/proddetail/child-restraints-6664764462.html?pos=95&kwd=baby car seat&tags=CC||||8663.873||product|||NA|rsf:gd-|-stype:attr=1|qr_nm:gd|res:RC4|com-cf:nl|ptrs:na|ktp:N0|mc:21806|mtp:S|qry_typ:P|lang:en|wc:3|cs:8834|v=4,Autoliv India Pvt. Ltd.,https://www.indiamart.com/autoliv-india/?pos=95&kwd=baby car seat&tags=CC||||8663.873||product|||NA|rsf:gd-|-stype:attr=1|qr_nm:gd|res:RC4|com-cf:nl|ptrs:na|ktp:N0|mc:21806|mtp:S|qry_typ:P|lang:en|wc:3|cs:8834|v=4,False,Kundalahalli,Bengaluru,"Survey No 80/3,doddalluru Gram Panchayat,hoskote Industrial Estate,chokkahalli Village, Kundalahalli, Bengaluru - 560037, Dist.Bengaluru, Karnataka",8069707322,960
Carsh Cart,https://www.indiamart.com/proddetail/carsh-cart-2852797048112.html?pos=96&kwd=baby car seat&tags=CC||||9276.789|Price|product|||NA|rsf:gd-|-stype:attr=1|qr_nm:gd|res:RC4|com-cf:nl|ptrs:na|ktp:N0|mc:21806|mtp:S|qry_typ:P|lang:en|wc:3|cs:8834|v=4,Life Cure Systems,https://www.indiamart.com/life-cure-systems/?pos=96&kwd=baby car seat&tags=CC||||9276.789|Price|product|||NA|rsf:gd-|-stype:attr=1|qr_nm:gd|res:RC4|com-cf:nl|ptrs:na|ktp:N0|mc:21806|mtp:S|qry_typ:P|lang:en|wc:3|cs:8834|v=4,False,,Kheta Sarai,"0, Dobhi Mod Near Vidyapith School, Kheta Sarai, Jaunpur,, Kheta Sarai - 222139, Uttar Pradesh",8069707309,919
Baby Secure,https://www.indiamart.com/proddetail/baby-secure-16526442712.html?pos=97&kwd=baby car seat&tags=CC||||9839.57||product|||NA|rsf:gd-|-stype:attr=1|qr_nm:gd|res:RC4|com-cf:nl|ptrs:na|ktp:N0|mc:21806|mtp:S|qry_typ:P|lang:en|wc:3|cs:8834|v=4,Pest Solutions India Private Limited,https://www.indiamart.com/pest-solutions-india-ltd-kolkata/?pos=97&kwd=baby car seat&tags=CC||||9839.57||product|||NA|rsf:gd-|-stype:attr=1|qr_nm:gd|res:RC4|com-cf:nl|ptrs:na|ktp:N0|mc:21806|mtp:S|qry_typ:P|lang:en|wc:3|cs:8834|v=4,False,Lala Lajpat Rai Sarani,Kolkata,"Krishi Rasayan Building 3-rd Floor 29 Lala Lajpat Rai Sarani, Lala Lajpat Rai Sarani, Kolkata - 700020, Dist.Kolkata, West Bengal",8048372476,277
Nylon hamaux matbe,https://www.indiamart.com/proddetail/hamaux-matbe-2851913154988.html?pos=98&kwd=baby car seat&tags=CC||||8601.347|Price|product|||NA|rsf:gd-|-stype:attr=1|qr_nm:gd|res:RC4|com-cf:nl|ptrs:na|ktp:N0|mc:21806|mtp:S|qry_typ:P|lang:en|wc:3|cs:8834|v=4,Vanshika Apparel,https://www.indiamart.com/vanshika-apparel-jaipur/?pos=98&kwd=baby car seat&tags=CC||||8601.347|Price|product|||NA|rsf:gd-|-stype:attr=1|qr_nm:gd|res:RC4|com-cf:nl|ptrs:na|ktp:N0|mc:21806|mtp:S|qry_typ:P|lang:en|wc:3|cs:8834|v=4,False,,Jaipur,"SHOP NO. S-6, S-7, 2ND FLOOR, SHIV PLAZA, SANGHASETU ROAD, OPP. NAGAR NIGAM STADIUM, Jaipur, Jaipur, Rajasthan, 302029, Jaipur - 302029, Dist.Jaipur, Rajasthan",8069196730,339
Child Seat,https://www.indiamart.com/proddetail/child-seat-14141008233.html?pos=99&kwd=baby car seat&tags=CB||||8752.144||product|||NA|rsf:gd-|-stype:attr=1|qr_nm:gd|res:RC4|com-cf:nl|ptrs:na|ktp:N0|mc:21806|mtp:S|qry_typ:P|lang:en|wc:3|cs:8834|v=4,Washroom Hygiene Concepts Private Limited,https://www.indiamart.com/washroomhygiene-concepts/?pos=99&kwd=baby car seat&tags=CB||||8752.144||product|||NA|rsf:gd-|-stype:attr=1|qr_nm:gd|res:RC4|com-cf:nl|ptrs:na|ktp:N0|mc:21806|mtp:S|qry_typ:P|lang:en|wc:3|cs:8834|v=4,False,Rajendra Place,New Delhi,"No. 205, F Tower 2, No. 22, Rajendra Place, Rajendra Place, New Delhi - 110008, Dist.Delhi, Delhi",8047523058,
Child Seat,https://www.indiamart.com/proddetail/child-seat-2240478273.html?pos=100&kwd=baby car seat&tags=CC||||8457.459||product|||NA|rsf:gd-|-stype:attr=1|qr_nm:gd|res:RC4|com-cf:nl|ptrs:na|ktp:N0|mc:21806|mtp:S|qry_typ:P|lang:en|wc:3|cs:8834|v=4,Amana Toyota,https://www.indiamart.com/amana-toyota/?pos=100&kwd=baby car seat&tags=CC||||8457.459||product|||NA|rsf:gd-|-stype:attr=1|qr_nm:gd|res:RC4|com-cf:nl|ptrs:na|ktp:N0|mc:21806|mtp:S|qry_typ:P|lang:en|wc:3|cs:8834|v=4,False,Kolathara,Kozhikode,"Nh 17, Cheruvannur, Kolathara, Kozhikode - 673655, Dist.Kozhikode, Kerala",8043838093,
"Orange Infant Car Seats, Packaging Type: Box",https://www.indiamart.com/proddetail/infant-car-seats-23393562455.html?pos=101&kwd=baby car seat&tags=CC||||8500.97|Price|product|||NA|rsf:gd-|-stype:attr=1|qr_nm:gd|res:RC4|com-cf:nl|ptrs:na|ktp:N0|mc:21806|mtp:S|qry_typ:P|lang:en|wc:3|cs:8834|v=4,AK CAR ACCESSORIES,https://www.indiamart.com/company/60880881/?pos=101&kwd=baby car seat&tags=CC||||8500.97|Price|product|||NA|rsf:gd-|-stype:attr=1|qr_nm:gd|res:RC4|com-cf:nl|ptrs:na|ktp:N0|mc:21806|mtp:S|qry_typ:P|lang:en|wc:3|cs:8834|v=4,False,Azhakam kodakara,Thrissur,"Nethajilane, Azhakam kodakara, Thrissur - 680684, Dist.Thrissur, Kerala",8048247105,9359
COZY CARSEAT,,National Traders,https://www.indiamart.com/national-traders-surat/?pos=102&kwd=baby car seat&tags=CC||||8230.883|Price|product|||NA|rsf:gd-|-stype:attr=1|qr_nm:gd|res:RC4|com-cf:nl|ptrs:na|ktp:N0|mc:21806|mtp:S|qry_typ:P|lang:en|wc:3|cs:8834|v=4,False,Gopipura,Surat,"12/1339, Mughal Mahal Basement , Behind SMC, Turkiwad Turkiwad, Gopipura, Surat - 395003, Dist.Surat, Gujarat",8047668591,
Blueidea Mesin Terapi Digital Body Healthy Care Digital Meridian Therapy Massager Machine Slim Slimm,https://www.indiamart.com/proddetail/blueidea-mesin-terapi-digital-body-healthy-care-digital-meridian-therapy-massager-machine-slim-slimm-19417921548.html?pos=103&kwd=baby car seat&tags=CC||||8228.275|Price|product|||NA|rsf:gd-|-stype:attr=1|qr_nm:gd|res:RC4|com-cf:nl|ptrs:na|ktp:N0|mc:21806|mtp:S|qry_typ:P|lang:en|wc:3|cs:8834|v=4,Ganesh Corporation,https://www.indiamart.com/ganesh-import-export/?pos=103&kwd=baby car seat&tags=CC||||8228.275|Price|product|||NA|rsf:gd-|-stype:attr=1|qr_nm:gd|res:RC4|com-cf:nl|ptrs:na|ktp:N0|mc:21806|mtp:S|qry_typ:P|lang:en|wc:3|cs:8834|v=4,False,Odhav,Ahmedabad,"Shop No. 11, Near Karma Gas, Odhav, Odhav, Ahmedabad - 382415, Dist.Ahmedabad, Gujarat",7949312255,
6/8 Baggi Hood,https://www.indiamart.com/proddetail/6-8-baggi-hood-19327271497.html?pos=104&kwd=baby car seat&tags=CC||||8752.144||product|||NA|rsf:gd-|-stype:attr=1|qr_nm:gd|res:RC4|com-cf:nl|ptrs:na|ktp:N0|mc:21806|mtp:S|qry_typ:P|lang:en|wc:3|cs:8834|v=4,Bansal Enterprises (India),https://www.indiamart.com/bansalsteelfurniture/?pos=104&kwd=baby car seat&tags=CC||||8752.144||product|||NA|rsf:gd-|-stype:attr=1|qr_nm:gd|res:RC4|com-cf:nl|ptrs:na|ktp:N0|mc:21806|mtp:S|qry_typ:P|lang:en|wc:3|cs:8834|v=4,False,Khyala Village,New Delhi,"rz-13/a,ground Floor, Nursingh Garden, Khyala Village, Industrial Area, Khyala Village, New Delhi - 110018, Dist.Delhi, Delhi",8048951083,
Add-on Seat for Hector,https://www.indiamart.com/proddetail/add-on-seat-for-hector-2854465197162.html?pos=105&kwd=baby car seat&tags=||||8663.873|Price|product|||MDC|rsf:gd-|-stype:attr=1|qr_nm:gd|res:RC4|com-cf:nl|ptrs:na|ktp:N0|mc:21806|mtp:S|qry_typ:P|lang:en|wc:3|cs:8834|v=4,North Star Enterprises,https://www.indiamart.com/north-starenterprises/?pos=105&kwd=baby car seat&tags=||||8663.873|Price|product|||MDC|rsf:gd-|-stype:attr=1|qr_nm:gd|res:RC4|com-cf:nl|ptrs:na|ktp:N0|mc:21806|mtp:S|qry_typ:P|lang:en|wc:3|cs:8834|v=4,False,Ckikkakammana Halli Eagle Ridge,Bengaluru,"Ground Floor, 24/1, HD Halli, St.Mary's School, Begur, Urban, Ckikkakammana Halli Eagle Ridge, Bengaluru - 560083, Dist.Bengaluru, Karnataka",8044563810,
Rabbit Furr Car Seat Mat,https://www.indiamart.com/proddetail/rabbit-furr-car-seat-mat-2854355102355.html?pos=106&kwd=baby car seat&tags=||||8228.275|Price|product|||TS|rsf:gd-|-stype:attr=1|qr_nm:gd|res:RC4|com-cf:nl|ptrs:na|ktp:N0|mc:21806|mtp:S|qry_typ:P|lang:en|wc:3|cs:8834|v=4,Shree Krishna Handloom,https://www.indiamart.com/shreekrishnahandloomgujarat/?pos=106&kwd=baby car seat&tags=||||8228.275|Price|product|||TS|rsf:gd-|-stype:attr=1|qr_nm:gd|res:RC4|com-cf:nl|ptrs:na|ktp:N0|mc:21806|mtp:S|qry_typ:P|lang:en|wc:3|cs:8834|v=4,False,Kochrab Village,Ahmedabad,"1338, Khijda Vas, Mithakhali Gam, Kochrab Village, Ahmedabad - 380006, Dist.Ahmedabad, Gujarat",8047643408,
"Blue Car Baby Seat, Packaging Type: Box",https://www.indiamart.com/proddetail/car-baby-seat-24322288988.html?pos=107&kwd=baby car seat&tags=||||8752.144|Price|product|||TS|rsf:gd-|-stype:attr=1|qr_nm:gd|res:RC4|com-cf:nl|ptrs:na|ktp:N0|mc:21806|mtp:S|qry_typ:P|lang:en|wc:3|cs:8834|v=4,Madan Traders,https://www.madantrader.com/?pos=107&kwd=baby car seat&tags=||||8752.144|Price|product|||TS|rsf:gd-|-stype:attr=1|qr_nm:gd|res:RC4|com-cf:nl|ptrs:na|ktp:N0|mc:21806|mtp:S|qry_typ:P|lang:en|wc:3|cs:8834|v=4,False,Roop Nagar,New Delhi,"House No. 39, Block 2, Roop Nagar, Near Shakti Chowk, Roop Nagar, New Delhi - 110007, Dist.Delhi, Delhi",8048609743,
Cotton Printed Car Seat Galicha,https://www.indiamart.com/proddetail/car-seat-galicha-2854411693791.html?pos=108&kwd=baby car seat&tags=||||8228.275|Price|product|||MDC|rsf:gd-|-stype:attr=1|qr_nm:gd|res:RC4|com-cf:nl|ptrs:na|ktp:N0|mc:21806|mtp:S|qry_typ:P|lang:en|wc:3|cs:8834|v=4,Vallabh Exim,https://www.indiamart.com/vallabh-exim/?pos=108&kwd=baby car seat&tags=||||8228.275|Price|product|||MDC|rsf:gd-|-stype:attr=1|qr_nm:gd|res:RC4|com-cf:nl|ptrs:na|ktp:N0|mc:21806|mtp:S|qry_typ:P|lang:en|wc:3|cs:8834|v=4,False,,Ahmedabad,"4th Floor, 404, Devashish Business Park, Nr. Populer Domeinn, Opp. Krishna Complex, Satellite, Ahmedabad - 380015, Dist.Ahmedabad, Gujarat",8044456864,
Red Car Chair,https://www.indiamart.com/proddetail/car-chair-11113027933.html?pos=109&kwd=baby car seat&tags=||||8752.144|Price|product|||TS|rsf:gd-|-stype:attr=1|qr_nm:gd|res:RC4|com-cf:nl|ptrs:na|ktp:N0|mc:21806|mtp:S|qry_typ:P|lang:en|wc:3|cs:8834|v=4,Beauty Solutions,https://www.beautysolutionsbyjacko.com/?pos=109&kwd=baby car seat&tags=||||8752.144|Price|product|||TS|rsf:gd-|-stype:attr=1|qr_nm:gd|res:RC4|com-cf:nl|ptrs:na|ktp:N0|mc:21806|mtp:S|qry_typ:P|lang:en|wc:3|cs:8834|v=4,False,Pitampura Dakshini,New Delhi,"sector 7imt Manesar Pitampura, Pitampura Dakshini, New Delhi - 110088, Dist.Delhi, Delhi",8048956310,
Baby Seat,https://www.indiamart.com/proddetail/baby-seat-23216817673.html?pos=110&kwd=baby car seat&tags=CC||||8692.544|Price|product|||NA|rsf:gd-|-stype:attr=1|qr_nm:gd|res:RC4|com-cf:nl|ptrs:na|ktp:N0|mc:21806|mtp:S|qry_typ:P|lang:en|wc:3|cs:8834|v=4,Indi Corp,https://www.indiamart.com/indicorp/?pos=110&kwd=baby car seat&tags=CC||||8692.544|Price|product|||NA|rsf:gd-|-stype:attr=1|qr_nm:gd|res:RC4|com-cf:nl|ptrs:na|ktp:N0|mc:21806|mtp:S|qry_typ:P|lang:en|wc:3|cs:8834|v=4,False,Alwar,Alwar,"Polt No. 71, Shiv Colony 200 Feet Road, Alwar, Alwar - 301001, Dist.Alwar, Rajasthan",8047826724,
Baby Seat,,Tradeblush,https://www.indiamart.com/tradeblush/?pos=111&kwd=baby car seat&tags=CB||||8747.203|Price|product|||NA|rsf:gd-|-stype:attr=1|qr_nm:gd|res:RC4|com-cf:nl|ptrs:na|ktp:N0|mc:21806|mtp:S|qry_typ:P|lang:en|wc:3|cs:8834|v=4,False,Ramesh Nagar,Panipat,"65, Near Sita Ram Chowk, Ramesh Nagar, Panipat - 132103, Dist.Panipat, Haryana",8062245084,864
Baby Support Seat,,Kanha Traders,https://www.indiamart.com/kanha-traders-panipat/?pos=112&kwd=baby car seat&tags=CC||||8747.203|Price|product|||NA|rsf:gd-|-stype:attr=1|qr_nm:gd|res:RC4|com-cf:nl|ptrs:na|ktp:N0|mc:21806|mtp:S|qry_typ:P|lang:en|wc:3|cs:8834|v=4,False,Sethi Chowk,Panipat,"Ward No. 800/8, Sethi Chowk, Panipat - 132103, Dist.Panipat, Haryana",8047680445,
Polyester Wash Berry Navy Blue Solid Car Seat Mat Set,https://www.indiamart.com/proddetail/wash-berry-navy-blue-solid-car-seat-mat-set-2849358954091.html?pos=113&kwd=baby car seat&tags=CC||||8230.883|Price|product|||NA|rsf:gd-|-stype:attr=1|qr_nm:gd|res:RC4|com-cf:nl|ptrs:na|ktp:N0|mc:21806|mtp:S|qry_typ:P|lang:en|wc:3|cs:8834|v=4,Washberry India,https://www.indiamart.com/washberry-india/?pos=113&kwd=baby car seat&tags=CC||||8230.883|Price|product|||NA|rsf:gd-|-stype:attr=1|qr_nm:gd|res:RC4|com-cf:nl|ptrs:na|ktp:N0|mc:21806|mtp:S|qry_typ:P|lang:en|wc:3|cs:8834|v=4,False,,Surat,"409 Diamond Nagar, Varachha Road Shilpa Apartment Surat, Surat - 395008, Dist.Surat, Gujarat",7942788588,
Baby Chair Safety seating belt baby Safety Seat Strap Harness Seat for High Chair,https://www.indiamart.com/proddetail/baby-chair-safety-seating-belt-baby-safety-seat-strap-harness-seat-for-high-chair-2853924745633.html?pos=114&kwd=baby car seat&tags=CC||||8741.812|Price|product|||NA|rsf:gd-|-stype:attr=1|qr_nm:gd|res:RC4|com-cf:nl|ptrs:na|ktp:N0|mc:21806|mtp:S|qry_typ:P|lang:en|wc:3|cs:8834|v=4,Amateurs Trading Private Limited,https://www.indiamart.com/amateurs-trading-private-limited/?pos=114&kwd=baby car seat&tags=CC||||8741.812|Price|product|||NA|rsf:gd-|-stype:attr=1|qr_nm:gd|res:RC4|com-cf:nl|ptrs:na|ktp:N0|mc:21806|mtp:S|qry_typ:P|lang:en|wc:3|cs:8834|v=4,False,,Gurugram,"Plot No. 76 D Udyog Vihar Phase-4 Sector-18 UDYOG VIHAR, Gurugram - 122001, Dist.Gurgaon, Haryana",8041013713,
Gray Pu Foam Acupressure Car Seat,https://www.indiamart.com/proddetail/acupressure-car-seat-2854445297691.html?pos=115&kwd=baby car seat&tags=||||8786.56|Price|product|||TS|rsf:gd-|-stype:attr=1|qr_nm:gd|res:RC4|com-cf:nl|ptrs:na|ktp:N0|mc:21806|mtp:S|qry_typ:P|lang:en|wc:3|cs:8834|v=4,Acupressure Health Care System,https://www.indiamart.com/acupressurehealth-caresystem-hyderabad/?pos=115&kwd=baby car seat&tags=||||8786.56|Price|product|||TS|rsf:gd-|-stype:attr=1|qr_nm:gd|res:RC4|com-cf:nl|ptrs:na|ktp:N0|mc:21806|mtp:S|qry_typ:P|lang:en|wc:3|cs:8834|v=4,False,Kachi Guda,Hyderabad,"#3-5-1137/R/2,,KACHIGUDA X ROAD,Hyderabad, Kachi Guda, Hyderabad - 500027, Dist.Hyderabad, Telangana",7942555226,
R For Rabbit Jack N Jill Baby Car Seat,https://www.indiamart.com/proddetail/r-for-rabbit-jack-n-jill-baby-car-seat-2853237439188.html?pos=116&kwd=baby car seat&tags=||||8752.144|Price|product|||NA|rsf:gd-|-stype:attr=1|qr_nm:gd|res:RC4|com-cf:nl|ptrs:na|ktp:N0|mc:21806|mtp:S|qry_typ:P|lang:en|wc:3|cs:8834|v=4,BD Impex,https://www.indiamart.com/company/2395482/?pos=116&kwd=baby car seat&tags=||||8752.144|Price|product|||NA|rsf:gd-|-stype:attr=1|qr_nm:gd|res:RC4|com-cf:nl|ptrs:na|ktp:N0|mc:21806|mtp:S|qry_typ:P|lang:en|wc:3|cs:8834|v=4,False,,New Delhi,"The Moms Darling - Baby Shop 163, Kapil Vihar, Pitampura, New Delhi - 110034, Dist.Delhi, Delhi",,
Male Door Sofa Seat,https://www.indiamart.com/proddetail/door-sofa-seat-20005418048.html?pos=117&kwd=baby car seat&tags=CC||||9839.57|Price|product|||NA|rsf:gd-|-stype:attr=1|qr_nm:gd|res:RC4|com-cf:nl|ptrs:na|ktp:N0|mc:21806|mtp:S|qry_typ:P|lang:en|wc:3|cs:8834|v=4,Nim Enterprise,https://www.indiamart.com/sajid-furniture/?pos=117&kwd=baby car seat&tags=CC||||9839.57|Price|product|||NA|rsf:gd-|-stype:attr=1|qr_nm:gd|res:RC4|com-cf:nl|ptrs:na|ktp:N0|mc:21806|mtp:S|qry_typ:P|lang:en|wc:3|cs:8834|v=4,False,Topsia,Kolkata,"73/13b, Topsia Road, Kolkata, Kolkata, West Bengal, 700039, Topsia, Kolkata - 700039, Dist.Kolkata, West Bengal",8069013094,616
"Baby Carrier Newborn to Toddler, Ergonomic 3D Mesh Baby Wraps Carrier",https://www.indiamart.com/proddetail/baby-carrier-newborn-to-toddler-ergonomic-3d-mesh-baby-wraps-carrier-2854387081973.html?pos=118&kwd=baby car seat&tags=CC||||8230.883|Price|product|||NA|rsf:gd-|-stype:attr=1|qr_nm:gd|res:RC4|com-cf:nl|ptrs:na|ktp:N0|mc:21806|mtp:S|qry_typ:P|lang:en|wc:3|cs:8834|v=4,Om Anvay Enterprise,https://www.indiamart.com/om-anvay-enterprise/?pos=118&kwd=baby car seat&tags=CC||||8230.883|Price|product|||NA|rsf:gd-|-stype:attr=1|qr_nm:gd|res:RC4|com-cf:nl|ptrs:na|ktp:N0|mc:21806|mtp:S|qry_typ:P|lang:en|wc:3|cs:8834|v=4,False,Katargam,Surat,"TPS-19,SY NO-248/2,271, LAKSHMI ENCLVE, GAJERA SCHOOL ROAD,KATARGAM,SURAT Lakshmi Enclave-1 Basement,395004,Surat, Katargam, Surat - 394150, Dist.Surat, Gujarat",8047662284,
1st Step Black Convertible Baby Car Seats,https://www.indiamart.com/proddetail/1st-step-car-seat-st-4403-black-19227091133.html?pos=119&kwd=baby car seat&tags=||||8954.051|Price|product|||NA|rsf:gd-|-stype:attr=1|qr_nm:gd|res:RC4|com-cf:nl|ptrs:na|ktp:N0|mc:21806|mtp:S|qry_typ:P|lang:en|wc:3|cs:8834|v=4,Mandot Impex,https://www.indiamart.com/mandotimpexchennai/?pos=119&kwd=baby car seat&tags=||||8954.051|Price|product|||NA|rsf:gd-|-stype:attr=1|qr_nm:gd|res:RC4|com-cf:nl|ptrs:na|ktp:N0|mc:21806|mtp:S|qry_typ:P|lang:en|wc:3|cs:8834|v=4,False,Choolai,Chennai,"109, Sydenhams Road, 1st Floor, Choolai, Chennai - 600003, Dist.Chennai, Tamil Nadu",8043809214,
Zippie Voyage - Early Intervention Stroller,https://www.indiamart.com/proddetail/zippie-voyage-early-intervention-stroller-22242706362.html?pos=120&kwd=baby car seat&tags=||||8663.873||proxy|||TS|rsf:gd-|-stype:attr=1|qr_nm:gd|res:RC4|com-cf:nl|ptrs:na|ktp:N0|mc:21806|mtp:S|qry_typ:P|lang:en|wc:3|cs:8834|v=4,KTWO Healthcare Private Limited,https://www.theprosthesis.com/?pos=120&kwd=baby car seat&tags=||||8663.873||proxy|||TS|rsf:gd-|-stype:attr=1|qr_nm:gd|res:RC4|com-cf:nl|ptrs:na|ktp:N0|mc:21806|mtp:S|qry_typ:P|lang:en|wc:3|cs:8834|v=4,False,Bilekahalli,Bengaluru,"No. 93, 2nd floor, 6th Cross, 2nd Stage, BTM Layout, Bilekahalli, Bengaluru - 560076, Dist.Bengaluru, Karnataka",8048989676,
Maruti Suzuki Valve Seat,,N S industries,https://www.indiamart.com/gptraders-delhi/?pos=121&kwd=baby car seat&tags=||||8752.144|Price|product|||MDC|rsf:gd-|-stype:attr=1|qr_nm:gd|res:RC4|com-cf:nl|ptrs:na|ktp:N0|mc:21806|mtp:S|qry_typ:P|lang:en|wc:3|cs:8834|v=4,False,Anand Parbat,New Delhi,"7/19, Gali No. 7, Anand Parvat Industrial Area, Near Ram Mandir, Anand Parbat, New Delhi - 110005, Dist.Delhi, Delhi",8046073583,
Four Wheeler Designer Car Seat,https://www.indiamart.com/proddetail/designer-car-seat-23796614091.html?pos=122&kwd=baby car seat&tags=||||8752.144|Price|product|||TS|rsf:gd-|-stype:attr=1|qr_nm:gd|res:RC4|com-cf:nl|ptrs:na|ktp:N0|mc:21806|mtp:S|qry_typ:P|lang:en|wc:3|cs:8834|v=4,Milus Enterprises Private Limited,https://www.indiamart.com/milusenterprises/?pos=122&kwd=baby car seat&tags=||||8752.144|Price|product|||TS|rsf:gd-|-stype:attr=1|qr_nm:gd|res:RC4|com-cf:nl|ptrs:na|ktp:N0|mc:21806|mtp:S|qry_typ:P|lang:en|wc:3|cs:8834|v=4,False,Karawal Nagar,New Delhi,"A 1001/10, Old B-1001/10, Second Floor, Khasra No. 214, Gali No. 1, North East Delhi, Karawal Nagar, New Delhi - 110094, Dist.Delhi, Delhi",8047632642,
"Gray Pu Foam Acupressure Car Seat, Model Name/Number: K343",https://www.indiamart.com/proddetail/acupressure-car-seat-22974710712.html?pos=123&kwd=baby car seat&tags=||||8752.144|Price|product|||TS|rsf:gd-|-stype:attr=1|qr_nm:gd|res:RC4|com-cf:nl|ptrs:na|ktp:N0|mc:21806|mtp:S|qry_typ:P|lang:en|wc:3|cs:8834|v=4,Khandoliya Industries,https://www.indiamart.com/khandoliya-industries/?pos=123&kwd=baby car seat&tags=||||8752.144|Price|product|||TS|rsf:gd-|-stype:attr=1|qr_nm:gd|res:RC4|com-cf:nl|ptrs:na|ktp:N0|mc:21806|mtp:S|qry_typ:P|lang:en|wc:3|cs:8834|v=4,False,Karol Bagh,New Delhi,"Ground Floor, Plot No.3, Block No.6, Western Extension Area, Karol Bagh, Karol Bagh, New Delhi - 110005, Dist.Delhi, Delhi",8047636474,
"Grey Memory Foam Car Seat Backrest, For Back Support, Size: Universal",https://www.indiamart.com/proddetail/car-seat-backrest-2851914288091.html?pos=124&kwd=baby car seat&tags=||||8584.299|Price|product|||TS|rsf:gd-|-stype:attr=1|qr_nm:gd|res:RC4|com-cf:nl|ptrs:na|ktp:N0|mc:21806|mtp:S|qry_typ:P|lang:en|wc:3|cs:8834|v=4,Auto Roof,https://www.autoroof.in/?pos=124&kwd=baby car seat&tags=||||8584.299|Price|product|||TS|rsf:gd-|-stype:attr=1|qr_nm:gd|res:RC4|com-cf:nl|ptrs:na|ktp:N0|mc:21806|mtp:S|qry_typ:P|lang:en|wc:3|cs:8834|v=4,False,Vaiyapuri Nagar,Coimbatore,"137,Vaiyapuri nagar Kurumbapalayam, Vaiyapuri Nagar, Coimbatore - 641004, Dist.Coimbatore, Tamil Nadu",7942563223,
Nylon Car Seat Bit,https://www.indiamart.com/proddetail/car-seat-bit-2854896567962.html?pos=125&kwd=baby car seat&tags=||||8624.416|Price|product|||TS|rsf:gd-|-stype:attr=1|qr_nm:gd|res:RC4|com-cf:nl|ptrs:na|ktp:N0|mc:21806|mtp:S|qry_typ:P|lang:en|wc:3|cs:8834|v=4,Bhuwan Car Decor And Candle Works,https://www.indiamart.com/bhuwan-cardecor-candle-works/?pos=125&kwd=baby car seat&tags=||||8624.416|Price|product|||TS|rsf:gd-|-stype:attr=1|qr_nm:gd|res:RC4|com-cf:nl|ptrs:na|ktp:N0|mc:21806|mtp:S|qry_typ:P|lang:en|wc:3|cs:8834|v=4,False,Rajgarh Hisar,Hisar,"213/7 MOHALLA RAJGARH, Rajgarh Hisar, Hisar - 125001, Dist.Hisar, Haryana",7949304478,
Leather Black Car Back Seat Cover,https://www.indiamart.com/proddetail/car-back-seat-cover-20105148288.html?pos=126&kwd=baby car seat&tags=||||8991.187|Price|product|||TS|rsf:gd-|-stype:attr=1|qr_nm:gd|res:RC4|com-cf:nl|ptrs:na|ktp:N0|mc:21806|mtp:S|qry_typ:P|lang:en|wc:3|cs:8834|v=4,Good Luck Enterprises,https://www.indiamart.com/goodluckenterprises-haldwani/?pos=126&kwd=baby car seat&tags=||||8991.187|Price|product|||TS|rsf:gd-|-stype:attr=1|qr_nm:gd|res:RC4|com-cf:nl|ptrs:na|ktp:N0|mc:21806|mtp:S|qry_typ:P|lang:en|wc:3|cs:8834|v=4,False,Arjunpur,Haldwani,"Shop No. 1, Village Post Office Haripur, Nayak, Arjunpur, Haldwani - 263139, Dist.Nainital, Uttarakhand",8047642603,
White Amrest Car Seat,https://www.indiamart.com/proddetail/amrest-car-seat-2852169756891.html?pos=127&kwd=baby car seat&tags=||||8663.873|Price|product|||TS|rsf:gd-|-stype:attr=1|qr_nm:gd|res:RC4|com-cf:nl|ptrs:na|ktp:N0|mc:21806|mtp:S|qry_typ:P|lang:en|wc:3|cs:8834|v=4,Nandi Electronics,https://www.nandielectronics.com/?pos=127&kwd=baby car seat&tags=||||8663.873|Price|product|||TS|rsf:gd-|-stype:attr=1|qr_nm:gd|res:RC4|com-cf:nl|ptrs:na|ktp:N0|mc:21806|mtp:S|qry_typ:P|lang:en|wc:3|cs:8834|v=4,False,Kalasipalya,Bengaluru,"No 6/1 And 6/2 Ground Floor 1st Floor And 2nd Floor , Journalist Colony 1st Cross, Urban, Kalasipalya, Bengaluru - 560002, Dist.Bengaluru, Karnataka",7942835811,
Pu Foam M-Tek Eco Car Seat,https://www.indiamart.com/proddetail/m-tek-eco-car-seat-2851449981288.html?pos=128&kwd=baby car seat&tags=||||8601.347|Price|product|||TS|rsf:gd-|-stype:attr=1|qr_nm:gd|res:RC4|com-cf:nl|ptrs:na|ktp:N0|mc:21806|mtp:S|qry_typ:P|lang:en|wc:3|cs:8834|v=4,Car Matrix,https://www.indiamart.com/carmatrix-jaipur/?pos=128&kwd=baby car seat&tags=||||8601.347|Price|product|||TS|rsf:gd-|-stype:attr=1|qr_nm:gd|res:RC4|com-cf:nl|ptrs:na|ktp:N0|mc:21806|mtp:S|qry_typ:P|lang:en|wc:3|cs:8834|v=4,False,Chandpole Bazar,Jaipur,"1, Globe Cargo Building, Sansar, Chandpole Bazar, Jaipur - 302001, Dist.Jaipur, Rajasthan",7942843171,
ACS Acupressure Car Seat,https://www.indiamart.com/proddetail/acs-acupressure-car-seat-2854787579388.html?pos=129&kwd=baby car seat&tags=||||9189.305|Price|product|||TS|rsf:gd-|-stype:attr=1|qr_nm:gd|res:RC4|com-cf:nl|ptrs:na|ktp:N0|mc:21806|mtp:S|qry_typ:P|lang:en|wc:3|cs:8834|v=4,Acupressure Health Care System,https://www.indiamart.com/acupressure-health-caresystem-prayagraj/?pos=129&kwd=baby car seat&tags=||||9189.305|Price|product|||TS|rsf:gd-|-stype:attr=1|qr_nm:gd|res:RC4|com-cf:nl|ptrs:na|ktp:N0|mc:21806|mtp:S|qry_typ:P|lang:en|wc:3|cs:8834|v=4,False,,Prayagraj,"49/24a, Minto Road, Behind Bhs, Prayagraj - 211002, Dist.Allahabad, Uttar Pradesh",8041013919,
Beige Leather Ford Endeavour Spare Parts,https://www.indiamart.com/proddetail/ford-endeavour-car-seat-2853179763148.html?pos=130&kwd=baby car seat&tags=||||8228.275|Price|product|||TS|rsf:gd-|-stype:attr=1|qr_nm:gd|res:RC4|com-cf:nl|ptrs:na|ktp:N0|mc:21806|mtp:S|qry_typ:P|lang:en|wc:3|cs:8834|v=4,Car Spare Auto Parts,https://www.indiamart.com/car-spareauto-parts/?pos=130&kwd=baby car seat&tags=||||8228.275|Price|product|||TS|rsf:gd-|-stype:attr=1|qr_nm:gd|res:RC4|com-cf:nl|ptrs:na|ktp:N0|mc:21806|mtp:S|qry_typ:P|lang:en|wc:3|cs:8834|v=4,False,Shah Alam Roza,Ahmedabad,"Shop No 128, The New Gujarat Kabadi Market No 2, Bhulabhai Park Behrampura Road NR Panchpir Dargah, Shah Alam Roza, Ahmedabad - 380028, Dist.Ahmedabad, Gujarat",7942720890,
Hyundai Verna Car Seat Cover,https://www.indiamart.com/proddetail/hyundai-verna-car-seat-cover-2852037151991.html?pos=131&kwd=baby car seat&tags=||||8786.56|Price|product|||TS|rsf:gd-|-stype:attr=1|qr_nm:gd|res:RC4|com-cf:nl|ptrs:na|ktp:N0|mc:21806|mtp:S|qry_typ:P|lang:en|wc:3|cs:8834|v=4,Nike Car Decors,https://www.indiamart.com/nikecardecors/?pos=131&kwd=baby car seat&tags=||||8786.56|Price|product|||TS|rsf:gd-|-stype:attr=1|qr_nm:gd|res:RC4|com-cf:nl|ptrs:na|ktp:N0|mc:21806|mtp:S|qry_typ:P|lang:en|wc:3|cs:8834|v=4,False,Keshav Swamy Nagar,Hyderabad,"Shop No.-28, L B Stadium, Basheerbagh, Keshav Swamy Nagar, Hyderabad - 500001, Dist.Hyderabad, Telangana",8047531475,
Black ABS PP POM BKT2238 Car Back seat Bucket,https://www.indiamart.com/proddetail/bkt2238-car-back-seat-bucket-2852428471512.html?pos=132&kwd=baby car seat&tags=||||8741.812|Price|product|||TS|rsf:gd-|-stype:attr=1|qr_nm:gd|res:RC4|com-cf:nl|ptrs:na|ktp:N0|mc:21806|mtp:S|qry_typ:P|lang:en|wc:3|cs:8834|v=4,Blacktie Ecom Private Limited,https://www.indiamart.com/blacktieecom/?pos=132&kwd=baby car seat&tags=||||8741.812|Price|product|||TS|rsf:gd-|-stype:attr=1|qr_nm:gd|res:RC4|com-cf:nl|ptrs:na|ktp:N0|mc:21806|mtp:S|qry_typ:P|lang:en|wc:3|cs:8834|v=4,False,Gurgaon South City Ii,Gurgaon,"CABIN 210 B 38 OLD DLF COLONY, Gurgaon South City Ii, Gurgaon - 122018, Dist.Gurgaon, Haryana",8046052578,
AHCS Acupressure Jade Stone Car Seat (Multicolor),https://www.indiamart.com/proddetail/ahcs-acupressure-jade-stone-car-seat-multicolor-8454965697.html?pos=133&kwd=baby car seat&tags=||||8786.56|Price|product|||TS|rsf:gd-|-stype:attr=1|qr_nm:gd|res:RC4|com-cf:nl|ptrs:na|ktp:N0|mc:21806|mtp:S|qry_typ:P|lang:en|wc:3|cs:8834|v=4,Acupressure Health Care Systems,https://www.acupressureacs.co.in/?pos=133&kwd=baby car seat&tags=||||8786.56|Price|product|||TS|rsf:gd-|-stype:attr=1|qr_nm:gd|res:RC4|com-cf:nl|ptrs:na|ktp:N0|mc:21806|mtp:S|qry_typ:P|lang:en|wc:3|cs:8834|v=4,False,Nimboliadda,Hyderabad,"3-2-1/5, Nimboliadda Road, Kachiguda, Hyderabad, Nimboliadda, Hyderabad - 500027, Dist.Hyderabad, Telangana",8048611476,
Acupressure Car Seat,https://www.indiamart.com/proddetail/acupressure-car-seat-12731597588.html?pos=134&kwd=baby car seat&tags=||||8786.56||product|||MDC|rsf:gd-|-stype:attr=1|qr_nm:gd|res:RC4|com-cf:nl|ptrs:na|ktp:N0|mc:21806|mtp:S|qry_typ:P|lang:en|wc:3|cs:8834|v=4,Royal Health Care,https://www.indiamart.com/royalhealthcare/?pos=134&kwd=baby car seat&tags=||||8786.56||product|||MDC|rsf:gd-|-stype:attr=1|qr_nm:gd|res:RC4|com-cf:nl|ptrs:na|ktp:N0|mc:21806|mtp:S|qry_typ:P|lang:en|wc:3|cs:8834|v=4,False,Kachi Guda,Hyderabad,"H.no 2-411113/a Opp. Maharaja Hotel & Kumar Theatre Kachigude, Kachi Guda, Hyderabad - 500027, Dist.Hyderabad, Telangana",8046050583,
Baby Sofa Seat,https://www.indiamart.com/proddetail/baby-sofa-seat-2853520084130.html?pos=135&kwd=baby car seat&tags=||||8752.144|Price|product|||TS|rsf:gd-|-stype:attr=1|qr_nm:gd|res:RC4|com-cf:nl|ptrs:na|ktp:N0|mc:21806|mtp:S|qry_typ:P|lang:en|wc:3|cs:8834|v=4,Toy World's,https://www.indiamart.com/toy-worlds/?pos=135&kwd=baby car seat&tags=||||8752.144|Price|product|||TS|rsf:gd-|-stype:attr=1|qr_nm:gd|res:RC4|com-cf:nl|ptrs:na|ktp:N0|mc:21806|mtp:S|qry_typ:P|lang:en|wc:3|cs:8834|v=4,False,Mangolpuri,New Delhi,"Front Side Portion, Ist Floor, House No 121-C, Khasra No 16/21,BLK RZ Village Mangol Pur Kalan West Delhi, Mangolpuri, New Delhi - 110085, Dist.Delhi, Delhi",8047687923,
Pu Leather Car Back Seat Bed,https://www.indiamart.com/proddetail/car-back-seat-bed-22694644830.html?pos=136&kwd=baby car seat&tags=||||8752.144|Price|product|||MDC|rsf:gd-|-stype:attr=1|qr_nm:gd|res:RC4|com-cf:nl|ptrs:na|ktp:N0|mc:21806|mtp:S|qry_typ:P|lang:en|wc:3|cs:8834|v=4,Vishal Motors India,https://www.indiamart.com/vishalmotorsindiadelhi/?pos=136&kwd=baby car seat&tags=||||8752.144|Price|product|||MDC|rsf:gd-|-stype:attr=1|qr_nm:gd|res:RC4|com-cf:nl|ptrs:na|ktp:N0|mc:21806|mtp:S|qry_typ:P|lang:en|wc:3|cs:8834|v=4,False,Kashmere Gate,New Delhi,"2nd Floor, K-308, Krishna Gali, Punja Shariff, Kashmere Gate, Kashmere Gate, New Delhi - 110006, Dist.Delhi, Delhi",8048201863,
ASE Racing Simulator Car Seat & Sports Seat Orange and black,https://www.indiamart.com/proddetail/ase-racing-simulator-car-seat-sports-seat-orange-and-black-24359883012.html?pos=137&kwd=baby car seat&tags=||||8752.144|Price|product|||MDC|rsf:gd-|-stype:attr=1|qr_nm:gd|res:RC4|com-cf:nl|ptrs:na|ktp:N0|mc:21806|mtp:S|qry_typ:P|lang:en|wc:3|cs:8834|v=4,A S Enterprises,https://www.indiamart.com/asenterprisesnewdelhi-india/?pos=137&kwd=baby car seat&tags=||||8752.144|Price|product|||MDC|rsf:gd-|-stype:attr=1|qr_nm:gd|res:RC4|com-cf:nl|ptrs:na|ktp:N0|mc:21806|mtp:S|qry_typ:P|lang:en|wc:3|cs:8834|v=4,False,Mundka,New Delhi,"80/29 80/24/2 First Floor Ghevra Village North, Mundka, New Delhi - 110041, Dist.Delhi, Delhi",7949372935,
Baby Sofa Support Seat,https://www.indiamart.com/proddetail/baby-sofa-support-seat-2853708748848.html?pos=138&kwd=baby car seat&tags=||||9097.53|Price|product|||TS|rsf:gd-|-stype:attr=1|qr_nm:gd|res:RC4|com-cf:nl|ptrs:na|ktp:N0|mc:21806|mtp:S|qry_typ:P|lang:en|wc:3|cs:8834|v=4,My Bear Hugs,https://www.indiamart.com/bear-hugs/?pos=138&kwd=baby car seat&tags=||||9097.53|Price|product|||TS|rsf:gd-|-stype:attr=1|qr_nm:gd|res:RC4|com-cf:nl|ptrs:na|ktp:N0|mc:21806|mtp:S|qry_typ:P|lang:en|wc:3|cs:8834|v=4,False,,Fatehpur,"44/38,,CHAUDHARANA,Fatehpur Ist Floor 44/38 Chaudharana,212601,, Fatehpur - 212601, Uttar Pradesh",,
"Black Baby Seat For Bikes, Packaging Type: Box",https://www.indiamart.com/proddetail/baby-seat-for-bikes-2851216033348.html?pos=139&kwd=baby car seat&tags=||||8211.142|Price|product|||TS|rsf:gd-|-stype:attr=1|qr_nm:gd|res:RC4|com-cf:nl|ptrs:na|ktp:N0|mc:21806|mtp:S|qry_typ:P|lang:en|wc:3|cs:8834|v=4,Homenity,https://www.homenity.in/?pos=139&kwd=baby car seat&tags=||||8211.142|Price|product|||TS|rsf:gd-|-stype:attr=1|qr_nm:gd|res:RC4|com-cf:nl|ptrs:na|ktp:N0|mc:21806|mtp:S|qry_typ:P|lang:en|wc:3|cs:8834|v=4,False,Masjid Bandar,Mumbai,"203, 2nd Floor, Plot-13a Mehajabeen Arcade, Chakala Cross Lane, Mumbai, Mumbai, Maharashtra, Masjid Bandar, Mumbai - 400003, Dist.Mumbai, Maharashtra",8047673711,
Euronics EDC02 Baby Protection Seat,https://www.indiamart.com/proddetail/edc02-baby-protection-seat-21723836755.html?pos=140&kwd=baby car seat&tags=||||8307.81||product|||TS|rsf:gd-|-stype:attr=1|qr_nm:gd|res:RC4|com-cf:nl|ptrs:na|ktp:N0|mc:21806|mtp:S|qry_typ:P|lang:en|wc:3|cs:8834|v=4,Snap Marketing Private Limited,https://www.snapmarketing.in/?pos=140&kwd=baby car seat&tags=||||8307.81||product|||TS|rsf:gd-|-stype:attr=1|qr_nm:gd|res:RC4|com-cf:nl|ptrs:na|ktp:N0|mc:21806|mtp:S|qry_typ:P|lang:en|wc:3|cs:8834|v=4,False,Ekbote Colony,Pune,"Snap House, 322/ 16, Shankar Sheth Road Near Indian Oil Petrol Pump, Ekbote Colony, Pune - 411042, Dist.Pune, Maharashtra",8048961905,
Car Front Seat Side Fillers,https://www.indiamart.com/proddetail/car-front-seat-side-fillers-2853886706612.html?pos=141&kwd=baby car seat&tags=||||8230.883|Price|product|||MDC|rsf:gd-|-stype:attr=1|qr_nm:gd|res:RC4|com-cf:nl|ptrs:na|ktp:N0|mc:21806|mtp:S|qry_typ:P|lang:en|wc:3|cs:8834|v=4,Shri Car Accessories,https://www.indiamart.com/shri-car-accessories/?pos=141&kwd=baby car seat&tags=||||8230.883|Price|product|||MDC|rsf:gd-|-stype:attr=1|qr_nm:gd|res:RC4|com-cf:nl|ptrs:na|ktp:N0|mc:21806|mtp:S|qry_typ:P|lang:en|wc:3|cs:8834|v=4,False,Narotam Nagar,Surat,"B-502, Yogi Complex, New Rander Road Adajan,, Narotam Nagar, Surat - 395003, Dist.Surat, Gujarat",7942646261,
"Many Colours Cute, Cuddly And Clean Toddlers Training Seat 1497",https://www.indiamart.com/proddetail/cute-cuddly-and-clean-toddlers-training-seat-1497-2853292910130.html?pos=142&kwd=baby car seat&tags=||||8038.093|Price|product|||TS|rsf:gd-|-stype:attr=1|qr_nm:gd|res:RC4|com-cf:nl|ptrs:na|ktp:N0|mc:21806|mtp:S|qry_typ:P|lang:en|wc:3|cs:8834|v=4,Deodap,https://www.indiamart.com/deodap/?pos=142&kwd=baby car seat&tags=||||8038.093|Price|product|||TS|rsf:gd-|-stype:attr=1|qr_nm:gd|res:RC4|com-cf:nl|ptrs:na|ktp:N0|mc:21806|mtp:S|qry_typ:P|lang:en|wc:3|cs:8834|v=4,False,Rajkot,Rajkot,"plot No. 9 Behind Patanjali Werhouse, Ruda Transport, Saat Hanuman Ahemdabad Road, Rajkot, Rajkot - 360005, Dist.Rajkot, Gujarat",8048972316,
Big Bull TR6201C Steel Car Seat,https://www.indiamart.com/proddetail/big-bull-car-seat-tr6201c-25681139262.html?pos=143&kwd=baby car seat&tags=||||8752.144|Price|product|||MDC|rsf:gd-|-stype:attr=1|qr_nm:gd|res:RC4|com-cf:nl|ptrs:na|ktp:N0|mc:21806|mtp:S|qry_typ:P|lang:en|wc:3|cs:8834|v=4,Aron Technologies,https://www.indiamart.com/aron-technologies/?pos=143&kwd=baby car seat&tags=||||8752.144|Price|product|||MDC|rsf:gd-|-stype:attr=1|qr_nm:gd|res:RC4|com-cf:nl|ptrs:na|ktp:N0|mc:21806|mtp:S|qry_typ:P|lang:en|wc:3|cs:8834|v=4,False,Pitampura,New Delhi,"Plot No 465, Phirni Road, Near M. R Bharti Public School, Behind Mundka Metro S House No . 165, Sharda Niketan, Pitampura, Pitampura, New Delhi - 110034, Dist.Delhi, Delhi",8047646069,
Baby seat,https://www.indiamart.com/proddetail/baby-seat-2849490546130.html?pos=144&kwd=baby car seat&tags=||||8954.051|Price|product|||MDC|rsf:gd-|-stype:attr=1|qr_nm:gd|res:RC4|com-cf:nl|ptrs:na|ktp:N0|mc:21806|mtp:S|qry_typ:P|lang:en|wc:3|cs:8834|v=4,Leo Car Accessories,https://www.indiamart.com/leo-car-accessories/?pos=144&kwd=baby car seat&tags=||||8954.051|Price|product|||MDC|rsf:gd-|-stype:attr=1|qr_nm:gd|res:RC4|com-cf:nl|ptrs:na|ktp:N0|mc:21806|mtp:S|qry_typ:P|lang:en|wc:3|cs:8834|v=4,False,Egmore Tn Police Housing Colony,Chennai,"No. 193, Anna Salai, Egmore Tn Police Housing Colony, Chennai - 600002, Dist.Chennai, Tamil Nadu",8048616087,
Grey Baby Walker Seat,https://www.indiamart.com/proddetail/baby-walker-seat-2853514910962.html?pos=145&kwd=baby car seat&tags=||||8769.508|Price|product|||MDC|rsf:gd-|-stype:attr=1|qr_nm:gd|res:RC4|com-cf:nl|ptrs:na|ktp:N0|mc:21806|mtp:S|qry_typ:P|lang:en|wc:3|cs:8834|v=4,Vaishnavi Enterprises,https://www.indiamart.com/vaishnavienterprises-haryana/?pos=145&kwd=baby car seat&tags=||||8769.508|Price|product|||MDC|rsf:gd-|-stype:attr=1|qr_nm:gd|res:RC4|com-cf:nl|ptrs:na|ktp:N0|mc:21806|mtp:S|qry_typ:P|lang:en|wc:3|cs:8834|v=4,False,Ballabhgarh,Faridabad,"House No 68, Near Govt. Primary School, Mothuka Shiv Mandir, Ballabhgarh, Faridabad - 121101, Dist.Faridabad, Haryana",7949093248,
2 Wheeler Scooty baby Seat,https://www.indiamart.com/proddetail/scooty-baby-seat-2852571003688.html?pos=146&kwd=baby car seat&tags=||||8785.791|Price|product|||MDC|rsf:gd-|-stype:attr=1|qr_nm:gd|res:RC4|com-cf:nl|ptrs:na|ktp:N0|mc:21806|mtp:S|qry_typ:P|lang:en|wc:3|cs:8834|v=4,Gurudev Sudarshan Industries,https://www.indiamart.com/gurudev-sudarshan-industries/?pos=146&kwd=baby car seat&tags=||||8785.791|Price|product|||MDC|rsf:gd-|-stype:attr=1|qr_nm:gd|res:RC4|com-cf:nl|ptrs:na|ktp:N0|mc:21806|mtp:S|qry_typ:P|lang:en|wc:3|cs:8834|v=4,False,Sec A-1 Tronica City,Ghaziabad,"A 16, Sector A 4 , Tronica City, Sec A-1 Tronica City, Ghaziabad - 201102, Dist.Ghaziabad, Uttar Pradesh",7942713685,
Baby Support Seat,https://www.indiamart.com/proddetail/baby-support-seat-2855061519555.html?pos=147&kwd=baby car seat&tags=||||8752.144|Price|product|||MDC|rsf:gd-|-stype:attr=1|qr_nm:gd|res:RC4|com-cf:nl|ptrs:na|ktp:N0|mc:21806|mtp:S|qry_typ:P|lang:en|wc:3|cs:8834|v=4,Dealsup,https://www.indiamart.com/dealsup-north-delhi/?pos=147&kwd=baby car seat&tags=||||8752.144|Price|product|||MDC|rsf:gd-|-stype:attr=1|qr_nm:gd|res:RC4|com-cf:nl|ptrs:na|ktp:N0|mc:21806|mtp:S|qry_typ:P|lang:en|wc:3|cs:8834|v=4,False,,New Delhi,"Kamal Pur Majra, Khasra No. 7/14, Kamal Vihar, Village Burari North Delhi, New Delhi - 110084, Dist.Delhi, Delhi",7942532252,
Scooter Baby Seat,https://www.indiamart.com/proddetail/scooter-baby-seat-27600609312.html?pos=148&kwd=baby car seat&tags=||||8228.275|Price|product|||MDC|rsf:gd-|-stype:attr=1|qr_nm:gd|res:RC4|com-cf:nl|ptrs:na|ktp:N0|mc:21806|mtp:S|qry_typ:P|lang:en|wc:3|cs:8834|v=4,Sai Commercial Group,https://www.indiamart.com/saicommercialgroup/?pos=148&kwd=baby car seat&tags=||||8228.275|Price|product|||MDC|rsf:gd-|-stype:attr=1|qr_nm:gd|res:RC4|com-cf:nl|ptrs:na|ktp:N0|mc:21806|mtp:S|qry_typ:P|lang:en|wc:3|cs:8834|v=4,False,Noble Nagar Tenament,Ahmedabad,"C/ 317, Sumel Business Park-7,Near Soni Ni Chali ,Rakhial, N. Highway-8, Noble Nagar Tenament, Ahmedabad - 380023, Dist.Ahmedabad, Gujarat",8043849966,
"Multicolor Polyester Tallin Baby Safety Seat Strap, Baby Harness Belt for Toddler Feeding, Packaging Type: Bag, 3-12 Months",https://www.indiamart.com/proddetail/tallin-baby-safety-seat-strap-baby-harness-belt-for-toddler-feeding-2852046718073.html?pos=149&kwd=baby car seat&tags=||||8230.883|Price|product|||TS|rsf:gd-|-stype:attr=1|qr_nm:gd|res:RC4|com-cf:nl|ptrs:na|ktp:N0|mc:21806|mtp:S|qry_typ:P|lang:en|wc:3|cs:8834|v=4,Tallin Sales,https://www.indiamart.com/tallin-sales/?pos=149&kwd=baby car seat&tags=||||8230.883|Price|product|||TS|rsf:gd-|-stype:attr=1|qr_nm:gd|res:RC4|com-cf:nl|ptrs:na|ktp:N0|mc:21806|mtp:S|qry_typ:P|lang:en|wc:3|cs:8834|v=4,False,Singanpor,Surat,"Lakshmi Enclave Basement near Gajera School, Singanpor, Surat - 395004, Dist.Surat, Gujarat",7942542891,
Baby Tricycle Seat Gooday,https://www.indiamart.com/proddetail/baby-tricycle-seat-gooday-2851731269433.html?pos=150&kwd=baby car seat&tags=||||8752.144||product|||MDC|rsf:gd-|-stype:attr=1|qr_nm:gd|res:RC4|com-cf:nl|ptrs:na|ktp:N0|mc:21806|mtp:S|qry_typ:P|lang:en|wc:3|cs:8834|v=4,Plasticoo Product And Services,https://www.indiamart.com/plasticoo-product-services/?pos=150&kwd=baby car seat&tags=||||8752.144||product|||MDC|rsf:gd-|-stype:attr=1|qr_nm:gd|res:RC4|com-cf:nl|ptrs:na|ktp:N0|mc:21806|mtp:S|qry_typ:P|lang:en|wc:3|cs:8834|v=4,False,,New Delhi,"G/f, 361, Ram Nagar Extention, Near Lzxmi Narayan Mandir, Krishna Nagar, New Delhi - 110051, Dist.Delhi, Delhi",7942831987,
Car Turning Wheel Chair Seat SUV Innova Crysta Kia Carnival Mobility Van Life,https://www.indiamart.com/proddetail/car-turning-wheel-chair-seat-suv-innova-crysta-kia-carnival-mobility-van-life-2852152615155.html?pos=151&kwd=baby car seat&tags=||||8224.965|Price|product|||MDC|rsf:gd-|-stype:attr=1|qr_nm:gd|res:RC4|com-cf:nl|ptrs:na|ktp:N0|mc:21806|mtp:S|qry_typ:P|lang:en|wc:3|cs:8834|v=4,Vikas Referigeration Agency,https://www.indiamart.com/vikasreferigerationagency/?pos=151&kwd=baby car seat&tags=||||8224.965|Price|product|||MDC|rsf:gd-|-stype:attr=1|qr_nm:gd|res:RC4|com-cf:nl|ptrs:na|ktp:N0|mc:21806|mtp:S|qry_typ:P|lang:en|wc:3|cs:8834|v=4,False,Agol,Kalol,"664, Jaspur Village Next To Shilpgram 1 Gandhinagar, Agol, Kalol - 382721, Dist.Gandhi Nagar, Gujarat",7942802146,
Blue Imported Character Baby Support Seat,https://www.indiamart.com/proddetail/imported-character-baby-support-seat-2854912297473.html?pos=152&kwd=baby car seat&tags=||||8752.144|Price|product|||MDC|rsf:gd-|-stype:attr=1|qr_nm:gd|res:RC4|com-cf:nl|ptrs:na|ktp:N0|mc:21806|mtp:S|qry_typ:P|lang:en|wc:3|cs:8834|v=4,Seventeen Century,https://www.indiamart.com/seventeencentury/?pos=152&kwd=baby car seat&tags=||||8752.144|Price|product|||MDC|rsf:gd-|-stype:attr=1|qr_nm:gd|res:RC4|com-cf:nl|ptrs:na|ktp:N0|mc:21806|mtp:S|qry_typ:P|lang:en|wc:3|cs:8834|v=4,False,Rohini,New Delhi,"First Floor, House No 75, Khasara No. 20/16,25, 21/20, 22, Block-A, Rajani Vihar Extn, Village Begumpur, North West Delhi, Rohini, New Delhi - 110086, Dist.Delhi, Delhi",8044014279,
Wall Mounted Baby Protection Baby Seat,https://www.indiamart.com/proddetail/wall-mounted-baby-protection-baby-seat-21235505012.html?pos=153&kwd=baby car seat&tags=||||8507.67|Price|product|||MDC|rsf:gd-|-stype:attr=1|qr_nm:gd|res:RC4|com-cf:nl|ptrs:na|ktp:N0|mc:21806|mtp:S|qry_typ:P|lang:en|wc:3|cs:8834|v=4,Spencer Hotel Wares,https://www.indiamart.com/spencerhotelwares/?pos=153&kwd=baby car seat&tags=||||8507.67|Price|product|||MDC|rsf:gd-|-stype:attr=1|qr_nm:gd|res:RC4|com-cf:nl|ptrs:na|ktp:N0|mc:21806|mtp:S|qry_typ:P|lang:en|wc:3|cs:8834|v=4,False,Pullepady,Ernakulam,"54/686, Ground Floor Of Petro Penta Kumaranasan Road North Block, Kathrikadavukaloor, Pullepady, Ernakulam - 682017, Dist.Ernakulam, Kerala",8047644764,
Baby Mastela Seater Jumping Happy Frog and Fish Print Soft Fabric Cradle Baby Bath Seat,https://www.indiamart.com/proddetail/baby-mastela-seater-jumping-happy-frog-and-fish-print-soft-fabric-cradle-baby-bath-seat-2852891120491.html?pos=154&kwd=baby car seat&tags=||||8231.259|Price|product|||TS|rsf:gd-|-stype:attr=1|qr_nm:gd|res:RC4|com-cf:nl|ptrs:na|ktp:N0|mc:21806|mtp:S|qry_typ:P|lang:en|wc:3|cs:8834|v=4,Prancing Unicorn,https://www.indiamart.com/prancing-unicorn/?pos=154&kwd=baby car seat&tags=||||8231.259|Price|product|||TS|rsf:gd-|-stype:attr=1|qr_nm:gd|res:RC4|com-cf:nl|ptrs:na|ktp:N0|mc:21806|mtp:S|qry_typ:P|lang:en|wc:3|cs:8834|v=4,False,Anjur,Bhiwandi,"B-902, Lodha Upper Thane Mankoli Bridge, Anjur, Bhiwandi - 421302, Maharashtra",7942832521,
Panda Baby walker seat clothes.,https://www.indiamart.com/proddetail/panda-baby-walker-seat-clothes-2854473484748.html?pos=155&kwd=baby car seat&tags=||||8230.883|Price|product|||MDC|rsf:gd-|-stype:attr=1|qr_nm:gd|res:RC4|com-cf:nl|ptrs:na|ktp:N0|mc:21806|mtp:S|qry_typ:P|lang:en|wc:3|cs:8834|v=4,Shiv Marketing,https://www.indiamart.com/shivmarketing/?pos=155&kwd=baby car seat&tags=||||8230.883|Price|product|||MDC|rsf:gd-|-stype:attr=1|qr_nm:gd|res:RC4|com-cf:nl|ptrs:na|ktp:N0|mc:21806|mtp:S|qry_typ:P|lang:en|wc:3|cs:8834|v=4,False,Katargam,Surat,"2nd Floor Blog-F, Flat 201, Shivam Avenue, Singanpore Dabholi Road, Katargam,, Katargam, Surat - 395004, Dist.Surat, Gujarat",7949093095,
Black Maruti Eeco 2 Seat,https://www.indiamart.com/proddetail/maruti-eeco-2-seat-2852378580791.html?pos=156&kwd=baby car seat&tags=||||8752.144|Price|product|||TS|rsf:gd-|-stype:attr=1|qr_nm:gd|res:RC4|com-cf:nl|ptrs:na|ktp:N0|mc:21806|mtp:S|qry_typ:P|lang:en|wc:3|cs:8834|v=4,RA Royals Safety Guard Car,https://www.rarompact.com/?pos=156&kwd=baby car seat&tags=||||8752.144|Price|product|||TS|rsf:gd-|-stype:attr=1|qr_nm:gd|res:RC4|com-cf:nl|ptrs:na|ktp:N0|mc:21806|mtp:S|qry_typ:P|lang:en|wc:3|cs:8834|v=4,False,Mori Gate,New Delhi,"D-542, Ashok Nagar, Shahdara, East Delhi, Mori Gate, New Delhi - 110093, Dist.Delhi, Delhi",7942672004,
XL6 CETER SEAT WITH ARMREST BLOCK COLOR,https://www.indiamart.com/proddetail/xl6-ceter-seat-with-armrest-block-color-2853745286933.html?pos=157&kwd=baby car seat&tags=||||8752.144|Price|product|||TS|rsf:gd-|-stype:attr=1|qr_nm:gd|res:RC4|com-cf:nl|ptrs:na|ktp:N0|mc:21806|mtp:S|qry_typ:P|lang:en|wc:3|cs:8834|v=4,Oscar Enterprises,https://www.indiamart.com/oscarenterprises-delhi/?pos=157&kwd=baby car seat&tags=||||8752.144|Price|product|||TS|rsf:gd-|-stype:attr=1|qr_nm:gd|res:RC4|com-cf:nl|ptrs:na|ktp:N0|mc:21806|mtp:S|qry_typ:P|lang:en|wc:3|cs:8834|v=4,False,Mori Gate,New Delhi,"1048/B2, Bara Bazar, Kashmere Gate, North, Mori Gate, New Delhi - 110006, Dist.Delhi, Delhi",8047619915,
Seat Kunda 2 In 1 Fix (cp) Passion Pro (gaf0056),https://www.indiamart.com/proddetail/seat-kunda-2-in-1-fix-cp-passion-pro-gaf0056-2854031543791.html?pos=158&kwd=baby car seat&tags=||||8663.873|Price|product|||TS|rsf:gd-|-stype:attr=1|qr_nm:gd|res:RC4|com-cf:nl|ptrs:na|ktp:N0|mc:21806|mtp:S|qry_typ:P|lang:en|wc:3|cs:8834|v=4,N.V.agencies,https://www.indiamart.com/nvagenciesbengaluru/?pos=158&kwd=baby car seat&tags=||||8663.873|Price|product|||TS|rsf:gd-|-stype:attr=1|qr_nm:gd|res:RC4|com-cf:nl|ptrs:na|ktp:N0|mc:21806|mtp:S|qry_typ:P|lang:en|wc:3|cs:8834|v=4,False,Kalasipalyam,Bengaluru,"No 3/4, 2nd Floor, Balaji Building, H Siddaiah Road, J C Road, Kalasipalyam, Bengaluru - 560002, Dist.Bengaluru, Karnataka",,
CARDI BLACK VENTILATED SEAT KIT for cars,https://www.indiamart.com/proddetail/ventilated-seat-kit-for-cars-27014522230.html?pos=159&kwd=baby car seat&tags=||||8752.144|Price|product|||TS|rsf:gd-|-stype:attr=1|qr_nm:gd|res:RC4|com-cf:nl|ptrs:na|ktp:N0|mc:21806|mtp:S|qry_typ:P|lang:en|wc:3|cs:8834|v=4,M/S Automobile Villa,https://www.automobilevilla.co.in/?pos=159&kwd=baby car seat&tags=||||8752.144|Price|product|||TS|rsf:gd-|-stype:attr=1|qr_nm:gd|res:RC4|com-cf:nl|ptrs:na|ktp:N0|mc:21806|mtp:S|qry_typ:P|lang:en|wc:3|cs:8834|v=4,False,Kashmere Gate,New Delhi,"Part of Property No. 1/778, Shop Pvt. No. C-12, Prem Jyoti Complex, Nicholson Road, Kashmere Gate, Kashmere Gate, New Delhi - 110006, Dist.Delhi, Delhi",8046035575,
Black Pu Foam Car Sheet With Neck,https://www.indiamart.com/proddetail/car-sheet-with-neck-2849908769948.html?pos=160&kwd=baby car seat&tags=||||8752.144|Price|product|||TS|rsf:gd-|-stype:attr=1|qr_nm:gd|res:RC4|com-cf:nl|ptrs:na|ktp:N0|mc:21806|mtp:S|qry_typ:P|lang:en|wc:3|cs:8834|v=4,Acupressure Health Care Product,https://www.acupressureacp.in/?pos=160&kwd=baby car seat&tags=||||8752.144|Price|product|||TS|rsf:gd-|-stype:attr=1|qr_nm:gd|res:RC4|com-cf:nl|ptrs:na|ktp:N0|mc:21806|mtp:S|qry_typ:P|lang:en|wc:3|cs:8834|v=4,False,Pahar Ganj,New Delhi,"3125, Behind Bake Bihari Mandir, Sangatrashan, Paharganj, Pahar Ganj, New Delhi - 110055, Dist.Delhi, Delhi",8043853975,
Extra Middle Seat For Mg Hector Plus,,Sree Pethu Automobiles,https://www.indiamart.com/sree-pethuautomobiles-chennai/?pos=161&kwd=baby car seat&tags=||||8954.051|Price|product|||TS|rsf:gd-|-stype:attr=1|qr_nm:gd|res:RC4|com-cf:nl|ptrs:na|ktp:N0|mc:21806|mtp:S|qry_typ:P|lang:en|wc:3|cs:8834|v=4,False,Pudupakkam,Chennai,"2nd Floor, 15/3, Goutham Tower, G P Road, ICICI Bank, Pudupakkam, Pudupakkam, Chennai - 600002, Dist.Chennai, Tamil Nadu",7942968081,
Blue And Pink Feeding 4 In 1 Baby Seat,https://www.indiamart.com/proddetail/feeding-4-in-1-baby-support-seat-chair-2854571998512.html?pos=162&kwd=baby car seat&tags=||||8752.144|Price|product|||MDC|rsf:gd-|-stype:attr=1|qr_nm:gd|res:RC4|com-cf:nl|ptrs:na|ktp:N0|mc:21806|mtp:S|qry_typ:P|lang:en|wc:3|cs:8834|v=4,Espace Solutions,https://www.indiamart.com/espacesolutions/?pos=162&kwd=baby car seat&tags=||||8752.144|Price|product|||MDC|rsf:gd-|-stype:attr=1|qr_nm:gd|res:RC4|com-cf:nl|ptrs:na|ktp:N0|mc:21806|mtp:S|qry_typ:P|lang:en|wc:3|cs:8834|v=4,False,Shahdara,New Delhi,"Third Floor, X/1577, Rajgarh Colony, Shahdara, New Delhi - 110031, Dist.Delhi, Delhi",7949329839,
"Baby cariar bagComfort Baby Product Bike And Cars, 1-2 Years",https://www.indiamart.com/proddetail/baby-cariar-bagcomfort-ba-2851072931133.html?pos=163&kwd=baby car seat&tags=||||8752.144|Price|product|||TS|rsf:gd-|-stype:attr=1|qr_nm:gd|res:RC4|com-cf:nl|ptrs:na|ktp:N0|mc:21806|mtp:S|qry_typ:P|lang:en|wc:3|cs:8834|v=4,Ananya Enterprises,https://www.ananyaenterprisesonline.com/?pos=163&kwd=baby car seat&tags=||||8752.144|Price|product|||TS|rsf:gd-|-stype:attr=1|qr_nm:gd|res:RC4|com-cf:nl|ptrs:na|ktp:N0|mc:21806|mtp:S|qry_typ:P|lang:en|wc:3|cs:8834|v=4,False,Johripur,New Delhi,"A - 89 Gali No - 4 Johripur Extention, Johripur, New Delhi - 110094, Dist.Delhi, Delhi",8048954241,
Baybee Cheezy Baby Walker Cum Rocker with Music & Light Rattles and Toys Ultra Soft Seat,https://www.indiamart.com/proddetail/baybee-cheezy-baby-walker-cum-rocker-with-music-light-rattles-and-toys-ultra-soft-seat-26532820148.html?pos=164&kwd=baby car seat&tags=||||8954.051|Price|product|||MDC|rsf:gd-|-stype:attr=1|qr_nm:gd|res:RC4|com-cf:nl|ptrs:na|ktp:N0|mc:21806|mtp:S|qry_typ:P|lang:en|wc:3|cs:8834|v=4,Goodluck Plastic Trading Company,https://www.indiamart.com/good-luck-plastic/?pos=164&kwd=baby car seat&tags=||||8954.051|Price|product|||MDC|rsf:gd-|-stype:attr=1|qr_nm:gd|res:RC4|com-cf:nl|ptrs:na|ktp:N0|mc:21806|mtp:S|qry_typ:P|lang:en|wc:3|cs:8834|v=4,False,Red Hills,Chennai,"No 29,,Kasi Chetty Street,Chennai, Red Hills, Chennai - 600079, Dist.Chennai, Tamil Nadu",8048615063,
"Mild Steel 9inch MS Sofa Zig Zag Spring, For Making Soga",https://www.indiamart.com/proddetail/driver-seat-suspension-spring-2852891558062.html?pos=165&kwd=baby car seat&tags=||||8307.81|Price|product|||MDC|rsf:gd-|-stype:attr=1|qr_nm:gd|res:RC4|com-cf:nl|ptrs:na|ktp:N0|mc:21806|mtp:S|qry_typ:P|lang:en|wc:3|cs:8834|v=4,V S Engineering,https://www.indiamart.com/vsengineeringmaharashtra/?pos=165&kwd=baby car seat&tags=||||8307.81|Price|product|||MDC|rsf:gd-|-stype:attr=1|qr_nm:gd|res:RC4|com-cf:nl|ptrs:na|ktp:N0|mc:21806|mtp:S|qry_typ:P|lang:en|wc:3|cs:8834|v=4,False,Bhosari,Pune,"Survey No.14/1, Gulve Wasti, Near Raskar Vitbhatti, Bhosari, Tal Haveli, Bhosari, Pune - 411026, Dist.Pune, Maharashtra",7949082758,
Seat rest for all cars,https://www.indiamart.com/proddetail/seat-rest-for-all-cars-27525944491.html?pos=166&kwd=baby car seat&tags=||||8752.144||product|||MDC|rsf:gd-|-stype:attr=1|qr_nm:gd|res:RC4|com-cf:nl|ptrs:na|ktp:N0|mc:21806|mtp:S|qry_typ:P|lang:en|wc:3|cs:8834|v=4,APG Online & Retail Co.,https://www.indiamart.com/apgonlineretail/?pos=166&kwd=baby car seat&tags=||||8752.144||product|||MDC|rsf:gd-|-stype:attr=1|qr_nm:gd|res:RC4|com-cf:nl|ptrs:na|ktp:N0|mc:21806|mtp:S|qry_typ:P|lang:en|wc:3|cs:8834|v=4,False,Mori Gate,New Delhi,"94, Ground Floor, Tikana Baba Bandha Singh Bahadur, Bhai Parmanand Colony, Mori Gate, New Delhi - 110009, Dist.Delhi, Delhi",7942549217,
Zero B Auto Sand Filter,https://www.indiamart.com/proddetail/zero-b-auto-sand-filter-2852727720197.html?pos=167&kwd=baby car seat&tags=||||8663.873|Price|product|||MDC|rsf:gd-|-stype:attr=1|qr_nm:gd|res:RC4|com-cf:nl|ptrs:na|ktp:N0|mc:21806|mtp:S|qry_typ:P|lang:en|wc:3|cs:8834|v=4,Aqua Clinic Plus,https://www.indiamart.com/aquaclinicplus/?pos=167&kwd=baby car seat&tags=||||8663.873|Price|product|||MDC|rsf:gd-|-stype:attr=1|qr_nm:gd|res:RC4|com-cf:nl|ptrs:na|ktp:N0|mc:21806|mtp:S|qry_typ:P|lang:en|wc:3|cs:8834|v=4,False,Sunkadakatte,Bengaluru,"Ground Floor, No 631, 3rd Cross Near Shanthidhama School Road, Byraveshwara Nagar Sunkadakatte, Bengaluru Urban,, Sunkadakatte, Bengaluru - 560091, Dist.Bengaluru, Karnataka",7942713233,
2 Seater Perforated Seat Back - H2O - SB 801,https://www.indiamart.com/proddetail/2-seater-perforated-seat-back-h2o-sb-801-24932704297.html?pos=168&kwd=baby car seat&tags=||||8228.275|Price|product|||MDC|rsf:gd-|-stype:attr=1|qr_nm:gd|res:RC4|com-cf:nl|ptrs:na|ktp:N0|mc:21806|mtp:S|qry_typ:P|lang:en|wc:3|cs:8834|v=4,Rajdeep Steel Industries,https://www.indiamart.com/rajdeepsteel-industries/?pos=168&kwd=baby car seat&tags=||||8228.275|Price|product|||MDC|rsf:gd-|-stype:attr=1|qr_nm:gd|res:RC4|com-cf:nl|ptrs:na|ktp:N0|mc:21806|mtp:S|qry_typ:P|lang:en|wc:3|cs:8834|v=4,False,Chandola,Ahmedabad,"1, Goodluck Barrel Market, Opp PWD Store, Chandola Road, Narol, Chandola, Ahmedabad - 380028, Dist.Ahmedabad, Gujarat",7942557690,
"2.4 Feet Fabric (seat) Blue Plastic Baby Walker, 6",https://www.indiamart.com/proddetail/blue-plastic-baby-walker-26023186912.html?pos=169&kwd=baby car seat&tags=||||8752.144|Price|product|||TS|rsf:gd-|-stype:attr=1|qr_nm:gd|res:RC4|com-cf:nl|ptrs:na|ktp:N0|mc:21806|mtp:S|qry_typ:P|lang:en|wc:3|cs:8834|v=4,Kumar Brothers,https://www.indiamart.com/kumarbrothersdelhi/?pos=169&kwd=baby car seat&tags=||||8752.144|Price|product|||TS|rsf:gd-|-stype:attr=1|qr_nm:gd|res:RC4|com-cf:nl|ptrs:na|ktp:N0|mc:21806|mtp:S|qry_typ:P|lang:en|wc:3|cs:8834|v=4,False,Chandni Chowk,New Delhi,"370, Ground Floor, Kumar Brothers, Esplanade Road, New Lajpat Rai Market, Central Delhi, Chandni Chowk, New Delhi - 110006, Dist.Delhi, Delhi",8043854462,
"Orange,Green Plastic Baby potty trainer seat/ potty bix",https://www.indiamart.com/proddetail/baby-potty-trainer-seat-potty-bix-19823339262.html?pos=170&kwd=baby car seat&tags=||||8752.144|Price|product|||TS|rsf:gd-|-stype:attr=1|qr_nm:gd|res:RC4|com-cf:nl|ptrs:na|ktp:N0|mc:21806|mtp:S|qry_typ:P|lang:en|wc:3|cs:8834|v=4,Shaifali Traders,https://www.shopphiez.com/?pos=170&kwd=baby car seat&tags=||||8752.144|Price|product|||TS|rsf:gd-|-stype:attr=1|qr_nm:gd|res:RC4|com-cf:nl|ptrs:na|ktp:N0|mc:21806|mtp:S|qry_typ:P|lang:en|wc:3|cs:8834|v=4,False,PATPARGANJ,New Delhi,"Plot No 10, main road patparganj ganj, PATPARGANJ, New Delhi - 110091, Dist.Delhi, Delhi",8046033629,
Cute Cuddly And Clean Toddlers Training Seat,https://www.indiamart.com/proddetail/cute-cuddly-and-clean-toddlers-training-seat-2852827536133.html?pos=171&kwd=baby car seat&tags=||||8584.299|Price|product|||TS|rsf:gd-|-stype:attr=1|qr_nm:gd|res:RC4|com-cf:nl|ptrs:na|ktp:N0|mc:21806|mtp:S|qry_typ:P|lang:en|wc:3|cs:8834|v=4,BKH Enterprises,https://www.bkhenterprises.net/?pos=171&kwd=baby car seat&tags=||||8584.299|Price|product|||TS|rsf:gd-|-stype:attr=1|qr_nm:gd|res:RC4|com-cf:nl|ptrs:na|ktp:N0|mc:21806|mtp:S|qry_typ:P|lang:en|wc:3|cs:8834|v=4,False,Annai Indra Nagar,Coimbatore,"45,West Subramaniam Street,RS Puram, Annai Indra Nagar, Coimbatore - 641001, Dist.Coimbatore, Tamil Nadu",8046066722,
MORECARE C.P. Walker for Kids and Children with Seat and Scissors Gait Prevention Bar (Cherry),https://www.indiamart.com/proddetail/morecare-c-p-walker-for-kids-and-children-with-seat-and-scissors-gait-prevention-bar-cherry-2854215499797.html?pos=172&kwd=baby car seat&tags=||||8601.347|Price|product|||TS|rsf:gd-|-stype:attr=1|qr_nm:gd|res:RC4|com-cf:nl|ptrs:na|ktp:N0|mc:21806|mtp:S|qry_typ:P|lang:en|wc:3|cs:8834|v=4,Morecare Mobility And Rehabilitation Solutions,https://www.iphealth.in/?pos=172&kwd=baby car seat&tags=||||8601.347|Price|product|||TS|rsf:gd-|-stype:attr=1|qr_nm:gd|res:RC4|com-cf:nl|ptrs:na|ktp:N0|mc:21806|mtp:S|qry_typ:P|lang:en|wc:3|cs:8834|v=4,False,Durgapura,Jaipur,"E22, Gayatri Nagar Vistar, Near Clothing Industrial Area, Maharani Farm, Cloth Printing Industries, Durgapura, Durgapura, Jaipur - 302018, Dist.Jaipur, Rajasthan",8047672177,
"Baby Carrier, Adjustable Baby Hip Seat, Carrier for Toddler Kids,3-36 Months Kids,Multi Pockets(1pc)",https://www.indiamart.com/proddetail/baby-carrier-adjustable-baby-hip-seat-carrier-for-toddler-kids-3-36-months-kids-multi-pockets-1pc-2854517921812.html?pos=173&kwd=baby car seat&tags=||||8230.883|Price|product|||TS|rsf:gd-|-stype:attr=1|qr_nm:gd|res:RC4|com-cf:nl|ptrs:na|ktp:N0|mc:21806|mtp:S|qry_typ:P|lang:en|wc:3|cs:8834|v=4,Nika Enterprise,https://www.nikaenterprise.in/?pos=173&kwd=baby car seat&tags=||||8230.883|Price|product|||TS|rsf:gd-|-stype:attr=1|qr_nm:gd|res:RC4|com-cf:nl|ptrs:na|ktp:N0|mc:21806|mtp:S|qry_typ:P|lang:en|wc:3|cs:8834|v=4,False,,Surat,"1st Floor,, Flat No-102, Plot No-173/174/175, Rs-109,504,, Vitthal Nagar Soc, Dabholi Char Rasta, Katargam, Surat - 395004, Dist.Surat, Gujarat",8047550715,
"Cute, Cuddly And Clean Toddlers Training Seat",https://www.indiamart.com/proddetail/cute-cuddly-and-clean-toddlers-training-seat-2854779978891.html?pos=174&kwd=baby car seat&tags=||||8692.544|Price|product|||MDC|rsf:gd-|-stype:attr=1|qr_nm:gd|res:RC4|com-cf:nl|ptrs:na|ktp:N0|mc:21806|mtp:S|qry_typ:P|lang:en|wc:3|cs:8834|v=4,Demrot Bangles And Manufacture,https://www.indiamart.com/demrotbanglesmanufacture/?pos=174&kwd=baby car seat&tags=||||8692.544|Price|product|||MDC|rsf:gd-|-stype:attr=1|qr_nm:gd|res:RC4|com-cf:nl|ptrs:na|ktp:N0|mc:21806|mtp:S|qry_typ:P|lang:en|wc:3|cs:8834|v=4,False,Kishangarh Bas,Alwar,"Vashishtha Market, Kishangarh Bass, Kishangarh Bas, Alwar - 301405, Dist.Alwar, Rajasthan",,
Beige Leather Innova Crysta Baby Seat,https://www.indiamart.com/proddetail/innova-crysta-baby-seat-24681554062.html?pos=175&kwd=baby car seat&tags=||||8752.144|Price|product|||MDC|rsf:gd-|-stype:attr=1|qr_nm:gd|res:RC4|com-cf:nl|ptrs:na|ktp:N0|mc:21806|mtp:S|qry_typ:P|lang:en|wc:3|cs:8834|v=4,M R Modification,https://www.indiamart.com/m-r-modification/?pos=175&kwd=baby car seat&tags=||||8752.144|Price|product|||MDC|rsf:gd-|-stype:attr=1|qr_nm:gd|res:RC4|com-cf:nl|ptrs:na|ktp:N0|mc:21806|mtp:S|qry_typ:P|lang:en|wc:3|cs:8834|v=4,False,Mundka,New Delhi,"Plot No. 20, Ground Floor, Village Hiran Kudna, Near Transformer No. 1, Village Hiran Kudna, West Delhi, Mundka, New Delhi - 110041, Dist.Delhi, Delhi",7942538197,
Mix CUTE FACE BABY SUPPORTER,https://www.indiamart.com/proddetail/cute-face-baby-supporter-2854288251155.html?pos=176&kwd=baby car seat&tags=||||8747.203|Price|product|||MDC|rsf:gd-|-stype:attr=1|qr_nm:gd|res:RC4|com-cf:nl|ptrs:na|ktp:N0|mc:21806|mtp:S|qry_typ:P|lang:en|wc:3|cs:8834|v=4,Sabmix,https://www.indiamart.com/sabmix/?pos=176&kwd=baby car seat&tags=||||8747.203|Price|product|||MDC|rsf:gd-|-stype:attr=1|qr_nm:gd|res:RC4|com-cf:nl|ptrs:na|ktp:N0|mc:21806|mtp:S|qry_typ:P|lang:en|wc:3|cs:8834|v=4,False,Jattal,Panipat,"Nehar By-Pass Near Jattal Road, Near Deshwal Petrol Pump, Jattal, Panipat - 132103, Dist.Panipat, Haryana",8045165458,
1 Seater Kids Red Foam Seat,https://www.indiamart.com/proddetail/kids-red-foam-seat-24755782130.html?pos=177&kwd=baby car seat&tags=||||8747.203|Price|product|||MDC|rsf:gd-|-stype:attr=1|qr_nm:gd|res:RC4|com-cf:nl|ptrs:na|ktp:N0|mc:21806|mtp:S|qry_typ:P|lang:en|wc:3|cs:8834|v=4,Nav Jyoti Creations,https://www.indiamart.com/nav-jyoti-creations/?pos=177&kwd=baby car seat&tags=||||8747.203|Price|product|||MDC|rsf:gd-|-stype:attr=1|qr_nm:gd|res:RC4|com-cf:nl|ptrs:na|ktp:N0|mc:21806|mtp:S|qry_typ:P|lang:en|wc:3|cs:8834|v=4,False,Panipat N.S.M.,Panipat,"Shop No. 2, Dev Puri Road, Panipat N.S.M., Panipat - 132103, Dist.Panipat, Haryana",8046049761,
"EF Fabric Kids Sofa Seat, 6 to 24 month",https://www.indiamart.com/proddetail/kids-sofa-seat-23779107462.html?pos=178&kwd=baby car seat&tags=||||8659.139|Price|product|||MDC|rsf:gd-|-stype:attr=1|qr_nm:gd|res:RC4|com-cf:nl|ptrs:na|ktp:N0|mc:21806|mtp:S|qry_typ:P|lang:en|wc:3|cs:8834|v=4,Shri Toys,https://www.indiamart.com/shri-toys/?pos=178&kwd=baby car seat&tags=||||8659.139|Price|product|||MDC|rsf:gd-|-stype:attr=1|qr_nm:gd|res:RC4|com-cf:nl|ptrs:na|ktp:N0|mc:21806|mtp:S|qry_typ:P|lang:en|wc:3|cs:8834|v=4,False,Midc Phase 3 And 4,Akola,"Plot No. N40, MIDC4, Akola Growth Center, Midc Phase 3 And 4, Akola - 444104, Dist.Akola, Maharashtra",8048983400,
"Five Cute Face Baby Supporter, Child Age Group: 0-3 Yrs",https://www.indiamart.com/proddetail/cute-face-baby-supporter-2853703844362.html?pos=179&kwd=baby car seat&tags=||||8737.904|Price|product|||MDC|rsf:gd-|-stype:attr=1|qr_nm:gd|res:RC4|com-cf:nl|ptrs:na|ktp:N0|mc:21806|mtp:S|qry_typ:P|lang:en|wc:3|cs:8834|v=4,PB Enterprises,https://www.indiamart.com/pb-enterprises-asankhurd/?pos=179&kwd=baby car seat&tags=||||8737.904|Price|product|||MDC|rsf:gd-|-stype:attr=1|qr_nm:gd|res:RC4|com-cf:nl|ptrs:na|ktp:N0|mc:21806|mtp:S|qry_typ:P|lang:en|wc:3|cs:8834|v=4,False,Panipat Thermal Project,Asankhurd,"Na 736/3 Oppt. Pandit Ji Sweet , Sondhapur Colony Hari Om, Panipat Thermal Project, Asankhurd - 132105, Haryana",7949092975,
Tata Tiago Full lamination Bucket,,Sharma Global Industries,https://www.indiamart.com/sharmaglobalindustries-delhi/?pos=180&kwd=baby car seat&tags=||||8752.144|Price|product|||MDC|rsf:gd-|-stype:attr=1|qr_nm:gd|res:RC4|com-cf:nl|ptrs:na|ktp:N0|mc:21806|mtp:S|qry_typ:P|lang:en|wc:3|cs:8834|v=4,False,Patel Nagar,New Delhi,"A - 513, Ground Floor, Main 20 Ft Road, Gali No - 5, Khasra No- 317, Shahdara, Patel Nagar, New Delhi - 110094, Dist.Delhi, Delhi",7942823647,
1st Step Black Convertible Baby Car Seats,https://www.indiamart.com/proddetail/1st-step-car-seat-st-4403-black-19227091133.html?pos=181&kwd=baby car seat&tags=||||8954.051|Price|product|||NA|rsf:gd-|-stype:attr=1|qr_nm:gd|res:RC4|com-cf:nl|ptrs:na|ktp:N0|mc:21806|mtp:S|qry_typ:P|lang:en|wc:3|cs:8834|v=4,Mandot Impex,https://www.indiamart.com/mandotimpexchennai/?pos=181&kwd=baby car seat&tags=||||8954.051|Price|product|||NA|rsf:gd-|-stype:attr=1|qr_nm:gd|res:RC4|com-cf:nl|ptrs:na|ktp:N0|mc:21806|mtp:S|qry_typ:P|lang:en|wc:3|cs:8834|v=4,False,Choolai,Chennai,"109, Sydenhams Road, 1st Floor, Choolai, Chennai - 600003, Dist.Chennai, Tamil Nadu",8043809214,
NEW Bugaa booo Donkey 3 Twin with Turtle Car Seat - Complete Stroller,https://www.indiamart.com/proddetail/new-bugaa-booo-donkey-3-twin-with-turtle-car-seat-complete-stroller-2853015647948.html?pos=182&kwd=baby car seat&tags=||||8752.144|Price|product|||NA|rsf:gd-|-stype:attr=1|qr_nm:gd|res:RC4|com-cf:nl|ptrs:na|ktp:N0|mc:21806|mtp:S|qry_typ:P|lang:en|wc:3|cs:8834|v=4,Techstorm,https://www.indiamart.com/techstorm-new-delhi/?pos=182&kwd=baby car seat&tags=||||8752.144|Price|product|||NA|rsf:gd-|-stype:attr=1|qr_nm:gd|res:RC4|com-cf:nl|ptrs:na|ktp:N0|mc:21806|mtp:S|qry_typ:P|lang:en|wc:3|cs:8834|v=4,False,Mahavir Enclave Part-3,New Delhi,"D-129 Gali No.51 Gali No 51, Mahavir Enclave Part-3, Mahavir Enclave Part-3, New Delhi - 110059, Dist.Delhi, Delhi",8047308900,2853
Baby Carrier Bag,https://www.indiamart.com/proddetail/baby-carrier-bag-23160857688.html?pos=183&kwd=baby car seat&tags=||||8752.144|Price|proxy|||TS|rsf:gd-|-stype:attr=1|qr_nm:gd|res:RC4|com-cf:nl|ptrs:na|ktp:N0|mc:21806|mtp:S|qry_typ:P|lang:en|wc:3|cs:8834|v=4,Melvis,https://www.indiamart.com/melvis/?pos=183&kwd=baby car seat&tags=||||8752.144|Price|proxy|||TS|rsf:gd-|-stype:attr=1|qr_nm:gd|res:RC4|com-cf:nl|ptrs:na|ktp:N0|mc:21806|mtp:S|qry_typ:P|lang:en|wc:3|cs:8834|v=4,False,Swaroop Nagar,New Delhi,"First Floor, House Number 185/12, Block-B, Yadav Market Road Chowk, Swaroop Nagar,, Swaroop Nagar, New Delhi - 110042, Dist.Delhi, Delhi",8047632851,
Multicolor Polyester Children Motorcycle Safety Harness BELT - RED,https://www.indiamart.com/proddetail/children-motorcycle-safety-harness-belt-red-24761037797.html?pos=184&kwd=baby car seat&tags=||||8752.144|Price|proxy|||TS|rsf:gd-|-stype:attr=1|qr_nm:gd|res:RC4|com-cf:nl|ptrs:na|ktp:N0|mc:21806|mtp:S|qry_typ:P|lang:en|wc:3|cs:8834|v=4,Ekta Overseas,https://www.indiamart.com/ektaoverseas-newdelhi/?pos=184&kwd=baby car seat&tags=||||8752.144|Price|proxy|||TS|rsf:gd-|-stype:attr=1|qr_nm:gd|res:RC4|com-cf:nl|ptrs:na|ktp:N0|mc:21806|mtp:S|qry_typ:P|lang:en|wc:3|cs:8834|v=4,False,Shahdara,New Delhi,"1/95, Gali No.3, Near Navjeevan Phisical Center, Vishwas Nagar, Shahdara,, Shahdara, New Delhi - 110032, Dist.Delhi, Delhi",7942628926,
Newborn Baby Carriers,https://www.indiamart.com/proddetail/newborn-baby-carriers-2853301955330.html?pos=185&kwd=baby car seat&tags=||||8211.142|Price|proxy|||TS|rsf:gd-|-stype:attr=1|qr_nm:gd|res:RC4|com-cf:nl|ptrs:na|ktp:N0|mc:21806|mtp:S|qry_typ:P|lang:en|wc:3|cs:8834|v=4,P For Panda Baby Products Private Limited,https://www.p4pandababyproducts.com/?pos=185&kwd=baby car seat&tags=||||8211.142|Price|proxy|||TS|rsf:gd-|-stype:attr=1|qr_nm:gd|res:RC4|com-cf:nl|ptrs:na|ktp:N0|mc:21806|mtp:S|qry_typ:P|lang:en|wc:3|cs:8834|v=4,False,Goregaon West,Mumbai,"904 A Wing,9 Th Floor,Triple S Heights,Jakeria Road, Goregaon West, Mumbai - 400064, Dist.Mumbai, Maharashtra",7942710871,
"Normal Plastic Iron Kusum Enterprises Tuk Tuk Baby Walker, 6, Tuktuk Round Cp Musical",https://www.indiamart.com/proddetail/kusum-enterprises-tuk-tuk-baby-walker-25792827148.html?pos=186&kwd=baby car seat&tags=||||8752.144|Price|proxy|||TS|rsf:gd-|-stype:attr=1|qr_nm:gd|res:RC4|com-cf:nl|ptrs:na|ktp:N0|mc:21806|mtp:S|qry_typ:P|lang:en|wc:3|cs:8834|v=4,Kusum Enterprrises,https://www.indiamart.com/kusum-enterprises-delhi/?pos=186&kwd=baby car seat&tags=||||8752.144|Price|proxy|||TS|rsf:gd-|-stype:attr=1|qr_nm:gd|res:RC4|com-cf:nl|ptrs:na|ktp:N0|mc:21806|mtp:S|qry_typ:P|lang:en|wc:3|cs:8834|v=4,False,Saboli,New Delhi,"D-1/419, K H. No. 769, Halifax No. 13 Ashok Nagar, Saboli, New Delhi - 110093, Dist.Delhi, Delhi",8048969783,
"Red & Black Plastic Baby Carrier Bag, Age Group: 3-12 Months, Packaging Type: LDPE",https://www.indiamart.com/proddetail/baby-carrier-bag-2854257770530.html?pos=187&kwd=baby car seat&tags=||||8752.144|Price|proxy|||TS|rsf:gd-|-stype:attr=1|qr_nm:gd|res:RC4|com-cf:nl|ptrs:na|ktp:N0|mc:21806|mtp:S|qry_typ:P|lang:en|wc:3|cs:8834|v=4,Nimesh Enterprises,https://www.indiamart.com/nimesh-enterprises/?pos=187&kwd=baby car seat&tags=||||8752.144|Price|proxy|||TS|rsf:gd-|-stype:attr=1|qr_nm:gd|res:RC4|com-cf:nl|ptrs:na|ktp:N0|mc:21806|mtp:S|qry_typ:P|lang:en|wc:3|cs:8834|v=4,False,Rajpur Khurd,New Delhi,"A- 8, Rajpur Khurd, Tivoli Garden, Rajpur Khurd, New Delhi - 110068, Dist.Delhi, Delhi",8047634050,
Scorpio Baby Seat,https://www.indiamart.com/proddetail/scorpio-baby-seat-27136309897.html?pos=188&kwd=baby car seat&tags=||||8785.791|Price|product|||NA|rsf:gd-|-stype:attr=1|qr_nm:gd|res:RC4|com-cf:nl|ptrs:na|ktp:N0|mc:21806|mtp:S|qry_typ:P|lang:en|wc:3|cs:8834|v=4,R T Seats,https://www.indiamart.com/rt-seat-company/?pos=188&kwd=baby car seat&tags=||||8785.791|Price|product|||NA|rsf:gd-|-stype:attr=1|qr_nm:gd|res:RC4|com-cf:nl|ptrs:na|ktp:N0|mc:21806|mtp:S|qry_typ:P|lang:en|wc:3|cs:8834|v=4,False,Gagan Vihar Bhopura Theka,Ghaziabad,"Kh No.-466, Bihind Subhash Place, Ajay Enclave, Rajeev Nagar, S.B.D. desh 201001, Gagan Vihar Bhopura Theka, Ghaziabad - 201001, Dist.Ghaziabad, Uttar Pradesh",8043813267,
"Multicolor Cotton Baby Carrier, Age Group: 3-12 Months, Packaging Type: Plastic Bag",https://www.indiamart.com/proddetail/cotton-baby-carrier-2853670550673.html?pos=189&kwd=baby car seat&tags=||||8663.873|Price|proxy|||MDC|rsf:gd-|-stype:attr=1|qr_nm:gd|res:RC4|com-cf:nl|ptrs:na|ktp:N0|mc:21806|mtp:S|qry_typ:P|lang:en|wc:3|cs:8834|v=4,Nipika Vrapped Gifting,https://www.indiamart.com/nipika-vrapped-gifting/?pos=189&kwd=baby car seat&tags=||||8663.873|Price|proxy|||MDC|rsf:gd-|-stype:attr=1|qr_nm:gd|res:RC4|com-cf:nl|ptrs:na|ktp:N0|mc:21806|mtp:S|qry_typ:P|lang:en|wc:3|cs:8834|v=4,False,Bengaluru Urban,Bengaluru,"9/1, 23rd Cross Road, Magadi Road, KP Agrahara, Bengaluru Urban, Bengaluru - 560023, Dist.Bengaluru, Karnataka",7949328723,
"Cloth pink Baby Carrier Bag, Age Group: 3-12 Months, Packaging Type: Transparent",https://www.indiamart.com/proddetail/baby-carrier-bag-2851743186073.html?pos=190&kwd=baby car seat&tags=||||8783.355|Price|proxy|||MDC|rsf:gd-|-stype:attr=1|qr_nm:gd|res:RC4|com-cf:nl|ptrs:na|ktp:N0|mc:21806|mtp:S|qry_typ:P|lang:en|wc:3|cs:8834|v=4,Om Shiv International,https://www.indiamart.com/omshivinternational/?pos=190&kwd=baby car seat&tags=||||8783.355|Price|proxy|||MDC|rsf:gd-|-stype:attr=1|qr_nm:gd|res:RC4|com-cf:nl|ptrs:na|ktp:N0|mc:21806|mtp:S|qry_typ:P|lang:en|wc:3|cs:8834|v=4,False,Baghpat,Aminagar Sarai,"170, Gauspur, Baghpat, Baghpat, Aminagar Sarai - 250606, Dist.Bagpat, Uttar Pradesh",8048616452,
Toyota Innova Crysta Middle Baby Seat,,Farrari Enterprises,https://www.indiamart.com/farrari-enterprises/?pos=191&kwd=baby car seat&tags=||||8457.459||product|||NA|rsf:gd-|-stype:attr=1|qr_nm:gd|res:RC4|com-cf:nl|ptrs:na|ktp:N0|mc:21806|mtp:S|qry_typ:P|lang:en|wc:3|cs:8834|v=4,False,Calicut,Kozhikode,"13/2758 A, Mentor Building, Narikkotte Paramb, Kottooli, Kozhikode, Kerala, 673016, Calicut, Kozhikode - 673016, Dist.Kozhikode, Kerala",8048361285,266
Car Lathered Center Baby Seat With Glass Holder For Ertiga Xl6,,QVC International,https://www.indiamart.com/qvc-international/?pos=192&kwd=baby car seat&tags=||||8752.144|Price|product|||NA|rsf:gd-|-stype:attr=1|qr_nm:gd|res:RC4|com-cf:nl|ptrs:na|ktp:N0|mc:21806|mtp:S|qry_typ:P|lang:en|wc:3|cs:8834|v=4,False,,New Delhi,"209,1288C/1289, Vardhan House, Chabi Ganj, Kashmere Gate, New Delhi - 110006, Dist.Delhi, Delhi",7942550929,
Pu Foam MG Hector And MG Hector Plus Baby Seat,https://www.indiamart.com/proddetail/mg-hector-and-mg-hector-plus-baby-seat-2850332839533.html?pos=193&kwd=baby car seat&tags=||||8954.051||product|||NA|rsf:gd-|-stype:attr=1|qr_nm:gd|res:RC4|com-cf:nl|ptrs:na|ktp:N0|mc:21806|mtp:S|qry_typ:P|lang:en|wc:3|cs:8834|v=4,Maxs Auto Distributors,https://www.indiamart.com/aman-auto-distributors/?pos=193&kwd=baby car seat&tags=||||8954.051||product|||NA|rsf:gd-|-stype:attr=1|qr_nm:gd|res:RC4|com-cf:nl|ptrs:na|ktp:N0|mc:21806|mtp:S|qry_typ:P|lang:en|wc:3|cs:8834|v=4,False,Royapettah,Chennai,"No. 18/1 Subaithar Hussain Street, Royapettah, Chennai - 600014, Dist.Chennai, Tamil Nadu",8047303984,
"Polyester Black Baby Carrier, Age Group: Newly Born",https://www.indiamart.com/proddetail/black-polyester-baby-carrier-2854851650533.html?pos=194&kwd=baby car seat&tags=||||8752.144|Price|proxy|||MDC|rsf:gd-|-stype:attr=1|qr_nm:gd|res:RC4|com-cf:nl|ptrs:na|ktp:N0|mc:21806|mtp:S|qry_typ:P|lang:en|wc:3|cs:8834|v=4,V P Product,https://www.indiamart.com/vpproduct/?pos=194&kwd=baby car seat&tags=||||8752.144|Price|proxy|||MDC|rsf:gd-|-stype:attr=1|qr_nm:gd|res:RC4|com-cf:nl|ptrs:na|ktp:N0|mc:21806|mtp:S|qry_typ:P|lang:en|wc:3|cs:8834|v=4,False,,New Delhi,"Ground Floor, H.No.- E-5/139, Gali No. - 5, East Gokal Pur, North East Delhi, New Delhi - 110094, Dist.Delhi, Delhi",8044460681,
"Plastic Handle Baby Walker, One to Two Years",https://www.indiamart.com/proddetail/handle-baby-walker-2854577763591.html?pos=195&kwd=baby car seat&tags=||||8752.144|Price|proxy|||MDC|rsf:gd-|-stype:attr=1|qr_nm:gd|res:RC4|com-cf:nl|ptrs:na|ktp:N0|mc:21806|mtp:S|qry_typ:P|lang:en|wc:3|cs:8834|v=4,Aman & Brothers,https://www.indiamart.com/amanbrothers/?pos=195&kwd=baby car seat&tags=||||8752.144|Price|proxy|||MDC|rsf:gd-|-stype:attr=1|qr_nm:gd|res:RC4|com-cf:nl|ptrs:na|ktp:N0|mc:21806|mtp:S|qry_typ:P|lang:en|wc:3|cs:8834|v=4,False,,New Delhi,"E-241, Prop No.E-99, G/F Kh No.400, Gali No.1, Chand Bagh Near Madina Masjid, Gokal Puri Sub Post Office, Gokalpuri, North East Delhi,, New Delhi - 110094, Dist.Delhi, Delhi",7949341935,
Multicolor New Born Baby Cotton Baby Carrier,https://www.indiamart.com/proddetail/new-born-baby-cotton-baby-carrier-2852660327712.html?pos=196&kwd=baby car seat&tags=||||8752.144|Price|proxy|||MDC|rsf:gd-|-stype:attr=1|qr_nm:gd|res:RC4|com-cf:nl|ptrs:na|ktp:N0|mc:21806|mtp:S|qry_typ:P|lang:en|wc:3|cs:8834|v=4,Boby Kid'S Care,https://www.indiamart.com/boby-kids-care/?pos=196&kwd=baby car seat&tags=||||8752.144|Price|proxy|||MDC|rsf:gd-|-stype:attr=1|qr_nm:gd|res:RC4|com-cf:nl|ptrs:na|ktp:N0|mc:21806|mtp:S|qry_typ:P|lang:en|wc:3|cs:8834|v=4,False,Saboli,New Delhi,"Ist Floor, 273, Gali No. 14, Rana Mohalla, Vill. Saboli, Saboli, New Delhi - 110093, Dist.Delhi, Delhi",7942705842,
Baby Walker Gol Grip Single Horn Sada,https://www.indiamart.com/proddetail/baby-walker-gol-grip-single-horn-sada-2851972107988.html?pos=197&kwd=baby car seat&tags=||||8752.144|Price|proxy|||TS|rsf:gd-|-stype:attr=1|qr_nm:gd|res:RC4|com-cf:nl|ptrs:na|ktp:N0|mc:21806|mtp:S|qry_typ:P|lang:en|wc:3|cs:8834|v=4,Priya Industries,https://www.indiamart.com/priyaindustries-new-delhi/?pos=197&kwd=baby car seat&tags=||||8752.144|Price|proxy|||TS|rsf:gd-|-stype:attr=1|qr_nm:gd|res:RC4|com-cf:nl|ptrs:na|ktp:N0|mc:21806|mtp:S|qry_typ:P|lang:en|wc:3|cs:8834|v=4,False,Gandhi Nagar,New Delhi,"9/3363, Gali No.8, Dharampura, Gandhi Nagar, Delhi, Gandhi Nagar, New Delhi - 110031, Dist.Delhi, Delhi",8046053493,
Red Baby Safety Belt,https://www.indiamart.com/proddetail/red-baby-safety-belt-2854421804173.html?pos=198&kwd=baby car seat&tags=||||8785.791|Price|proxy|||MDC|rsf:gd-|-stype:attr=1|qr_nm:gd|res:RC4|com-cf:nl|ptrs:na|ktp:N0|mc:21806|mtp:S|qry_typ:P|lang:en|wc:3|cs:8834|v=4,Adinath Handloom,https://www.indiamart.com/adinath-handloom-ghaziabad/?pos=198&kwd=baby car seat&tags=||||8785.791|Price|proxy|||MDC|rsf:gd-|-stype:attr=1|qr_nm:gd|res:RC4|com-cf:nl|ptrs:na|ktp:N0|mc:21806|mtp:S|qry_typ:P|lang:en|wc:3|cs:8834|v=4,False,,Ghaziabad,"104, Vill, Asalatpur, Asalatpur Farakh Nagar, Ghaziabad - 201003, Dist.Ghaziabad, Uttar Pradesh",7942711074,
"Brown Cotton 110 GSM Baby Carrier Bag, Age Group: 1-2 Years",https://www.indiamart.com/proddetail/110-gsm-baby-carrier-bag-2854915243473.html?pos=199&kwd=baby car seat&tags=||||8786.56|Price|proxy|||MDC|rsf:gd-|-stype:attr=1|qr_nm:gd|res:RC4|com-cf:nl|ptrs:na|ktp:N0|mc:21806|mtp:S|qry_typ:P|lang:en|wc:3|cs:8834|v=4,Jeneve Trutwein,https://www.indiamart.com/jeneve-trutwein/?pos=199&kwd=baby car seat&tags=||||8786.56|Price|proxy|||MDC|rsf:gd-|-stype:attr=1|qr_nm:gd|res:RC4|com-cf:nl|ptrs:na|ktp:N0|mc:21806|mtp:S|qry_typ:P|lang:en|wc:3|cs:8834|v=4,False,,Hyderabad,"3rd Floor, Flat NO.302, Hriddhi Residency, Serilingampally, Plot NO.169/27, Rangareddy, Hyderabad - 500019, Dist.Hyderabad, Telangana",8041014428,
GTC Trading Company,,GTC Trading Company,https://www.indiamart.com/gtctrading-company/?pos=200&kwd=baby car seat&tags=||||8584.299||bl|||MDC|rsf:gd-|-stype:attr=1|qr_nm:gd|res:RC4|com-cf:nl|ptrs:na|ktp:N0|mc:21806|mtp:S|qry_typ:P|lang:en|wc:3|cs:8834|v=4,False,,Coimbatore,"119-114, Cross Cut Road, Swarnambika Layout, Coimbatore - 641012, Dist.Coimbatore, Tamil Nadu",7949322217,
Polyester Blue Baby Carrier Bag,https://www.indiamart.com/proddetail/blue-baby-carrier-bag-24262966655.html?pos=201&kwd=baby car seat&tags=||||8752.144|Price|proxy|||TS|rsf:gd-|-stype:attr=1|qr_nm:gd|res:RC4|com-cf:nl|ptrs:na|ktp:N0|mc:21806|mtp:S|qry_typ:P|lang:en|wc:3|cs:8834|v=4,H.S. Enterprises,https://www.hsenterprises.net.in/?pos=201&kwd=baby car seat&tags=||||8752.144|Price|proxy|||TS|rsf:gd-|-stype:attr=1|qr_nm:gd|res:RC4|com-cf:nl|ptrs:na|ktp:N0|mc:21806|mtp:S|qry_typ:P|lang:en|wc:3|cs:8834|v=4,False,Johripur,New Delhi,"Kh 11/14 E 66 Ramabai Ambedkar Mohalla Jagdamba Colony Johripur, Johripur, New Delhi - 110094, Dist.Delhi, Delhi",7942531730,
MULTI Male BABY SOFA SEAT,https://www.indiamart.com/proddetail/baby-sofa-seat-19478445297.html?pos=202&kwd=baby car seat&tags=||||8752.144|Price|product|||NA|rsf:gd-|-stype:attr=1|qr_nm:gd|res:RC4|com-cf:nl|ptrs:na|ktp:N0|mc:21806|mtp:S|qry_typ:P|lang:en|wc:3|cs:8834|v=4,Sai Enterprises,https://www.indiamart.com/sai-entps-india/?pos=202&kwd=baby car seat&tags=||||8752.144|Price|product|||NA|rsf:gd-|-stype:attr=1|qr_nm:gd|res:RC4|com-cf:nl|ptrs:na|ktp:N0|mc:21806|mtp:S|qry_typ:P|lang:en|wc:3|cs:8834|v=4,False,Mukundpur Part II,New Delhi,"KH. No. 230, 25 Foota Road, Mukundpur Part II, New Delhi - 110042, Dist.Delhi, Delhi",8062245008,891
Baby Seat(Toyota) Center Seat,,V B Auto Creation,https://www.indiamart.com/v-b-auto-creations/?pos=203&kwd=baby car seat&tags=||||8307.81||product|||NA|rsf:gd-|-stype:attr=1|qr_nm:gd|res:RC4|com-cf:nl|ptrs:na|ktp:N0|mc:21806|mtp:S|qry_typ:P|lang:en|wc:3|cs:8834|v=4,False,Near Visava Hotel Kasarwai,Pune,"Gala Number 1,2,3 Barne Wasti, Near Visava Hotel Kasarwai, Pune - 411034, Dist.Pune, Maharashtra",7942822952,
"85 cm Plastic And Plastic Blue Musical Baby Walker, 6 Wheels",https://www.indiamart.com/proddetail/blue-musical-baby-walker-2851574271962.html?pos=204&kwd=baby car seat&tags=||||8752.144|Price|proxy|||MDC|rsf:gd-|-stype:attr=1|qr_nm:gd|res:RC4|com-cf:nl|ptrs:na|ktp:N0|mc:21806|mtp:S|qry_typ:P|lang:en|wc:3|cs:8834|v=4,Indira Toys,https://www.indiamart.com/indiratoysdelhi/?pos=204&kwd=baby car seat&tags=||||8752.144|Price|proxy|||MDC|rsf:gd-|-stype:attr=1|qr_nm:gd|res:RC4|com-cf:nl|ptrs:na|ktp:N0|mc:21806|mtp:S|qry_typ:P|lang:en|wc:3|cs:8834|v=4,False,Shahdara,New Delhi,"E-758, Lohiya, Gali No. 1, Babarpur, Shahdara, Shahdara, New Delhi - 110032, Dist.Delhi, Delhi",8043882366,
ms Silver Cp Child Walker With Back Support,https://www.indiamart.com/proddetail/cp-child-walker-with-back-support-22884715097.html?pos=205&kwd=baby car seat&tags=||||8860.933|Price|proxy|||MDC|rsf:gd-|-stype:attr=1|qr_nm:gd|res:RC4|com-cf:nl|ptrs:na|ktp:N0|mc:21806|mtp:S|qry_typ:P|lang:en|wc:3|cs:8834|v=4,Himalaya Rehabilitation Aids,https://www.indiamart.com/himalayarehabilitationaids/?pos=205&kwd=baby car seat&tags=||||8860.933|Price|proxy|||MDC|rsf:gd-|-stype:attr=1|qr_nm:gd|res:RC4|com-cf:nl|ptrs:na|ktp:N0|mc:21806|mtp:S|qry_typ:P|lang:en|wc:3|cs:8834|v=4,False,Bhaniyawala,Dehradun,"Airport Road, Khasra No. 905, Bhaniyawala, Bhaniyawala, Dehradun - 248140, Dist.Dehradun, Uttarakhand",8046053407,
"Plastic Blue Baby Choice Baby Walker, Four to Twelve Months",https://www.indiamart.com/proddetail/blue-baby-choice-baby-walker-22109660612.html?pos=206&kwd=baby car seat&tags=||||8752.144|Price|proxy|||MDC|rsf:gd-|-stype:attr=1|qr_nm:gd|res:RC4|com-cf:nl|ptrs:na|ktp:N0|mc:21806|mtp:S|qry_typ:P|lang:en|wc:3|cs:8834|v=4,Sony Super India,https://www.indiamart.com/sony-super-india/?pos=206&kwd=baby car seat&tags=||||8752.144|Price|proxy|||MDC|rsf:gd-|-stype:attr=1|qr_nm:gd|res:RC4|com-cf:nl|ptrs:na|ktp:N0|mc:21806|mtp:S|qry_typ:P|lang:en|wc:3|cs:8834|v=4,False,,New Delhi,"Ground Floor, H No-36/A, Karhana Wali Gali, Near Ramveer Counciler, Village Sher Pur, North East Delhi, New Delhi - 110094, Dist.Delhi, Delhi",8044456980,
Baby Sitting Car,,Shri Anand Art,https://www.indiamart.com/shri-anand-art/?pos=207&kwd=baby car seat&tags=||||8747.203||product|||NA|rsf:gd-|-stype:attr=1|qr_nm:gd|res:RC4|com-cf:nl|ptrs:na|ktp:N0|mc:21806|mtp:S|qry_typ:P|lang:en|wc:3|cs:8834|v=4,False,Sanoli Road,Panipat,"Shri Anand Art Gali No.3, Ganesh Nagar, Sanoli Road, Panipat - 132103, Dist.Panipat, Haryana",8048372864,203
"Pink 21 Inch Plastic Baby Walker, For Used For Kids, Packaging Type: Bundle",https://www.indiamart.com/proddetail/21-inch-plastic-baby-walker-2854465268573.html?pos=208&kwd=baby car seat&tags=||||8752.144|Price|proxy|||MDC|rsf:gd-|-stype:attr=1|qr_nm:gd|res:RC4|com-cf:nl|ptrs:na|ktp:N0|mc:21806|mtp:S|qry_typ:P|lang:en|wc:3|cs:8834|v=4,Play Mart,https://www.indiamart.com/play-mart/?pos=208&kwd=baby car seat&tags=||||8752.144|Price|proxy|||MDC|rsf:gd-|-stype:attr=1|qr_nm:gd|res:RC4|com-cf:nl|ptrs:na|ktp:N0|mc:21806|mtp:S|qry_typ:P|lang:en|wc:3|cs:8834|v=4,False,,New Delhi,"16/149, Geeta Colony, East Delhi,, New Delhi - 110031, Dist.Delhi, Delhi",7949340635,
"Breathable Fabric Blue Lightweight Adjustable Baby Sling Carrier, Age Group: 3 Years",https://www.indiamart.com/proddetail/blue-lightweight-adjustable-baby-sling-carrier-2854287584433.html?pos=209&kwd=baby car seat&tags=||||8752.144|Price|proxy|||MDC|rsf:gd-|-stype:attr=1|qr_nm:gd|res:RC4|com-cf:nl|ptrs:na|ktp:N0|mc:21806|mtp:S|qry_typ:P|lang:en|wc:3|cs:8834|v=4,Prakhar Enterprises,https://www.indiamart.com/prakharenterprisesdelhi/?pos=209&kwd=baby car seat&tags=||||8752.144|Price|proxy|||MDC|rsf:gd-|-stype:attr=1|qr_nm:gd|res:RC4|com-cf:nl|ptrs:na|ktp:N0|mc:21806|mtp:S|qry_typ:P|lang:en|wc:3|cs:8834|v=4,False,,New Delhi,"Second Floor, D-17-B, Unnamed Road, MCD Park, East Of Kailash, South East, New Delhi - 110065, Dist.Delhi, Delhi",8045734664,
Car Simulator Seat,https://www.indiamart.com/proddetail/car-simulator-seat-13584526655.html?pos=210&kwd=baby car seat&tags=||||8663.873||product|||NA|rsf:gd-|-stype:attr=1|qr_nm:gd|res:RC4|com-cf:nl|ptrs:na|ktp:N0|mc:21806|mtp:S|qry_typ:P|lang:en|wc:3|cs:8834|v=4,D V Flight 4 Fantasy Private Limited,https://www.indiamart.com/dv-flight4-fantasy/?pos=210&kwd=baby car seat&tags=||||8663.873||product|||NA|rsf:gd-|-stype:attr=1|qr_nm:gd|res:RC4|com-cf:nl|ptrs:na|ktp:N0|mc:21806|mtp:S|qry_typ:P|lang:en|wc:3|cs:8834|v=4,False,Ulsoor,Bengaluru,"Plot No. 15/6, Ulsoor, Bengaluru - 560008, Dist.Bengaluru, Karnataka",8047686473,
