product_title,product_link,company_name,company_link,is_verified_exporter,city_region,city,address_details,phone_number,phone_number_extension
Foam Little monkeys Baby Knee Pads for Crawling,https://www.indiamart.com/proddetail/little-monkeys-baby-knee-pads-for-crawling-2851558424455.html?pos=1&kwd=baby pad&tags=BA||||8752.144|Price|product|||TS|rsf:gd-|-stype:attr=1|qr_nm:gd|res:RC3|com-cf:nl|ptrs:na|ktp:N0|mc:55654|mtp:S|qry_typ:P|lang:en|wc:2|flavl:0|cs:9603|v=4,Ekta Overseas,https://www.indiamart.com/ektaoverseas-newdelhi/?pos=1&kwd=baby pad&tags=BA||||8752.144|Price|product|||TS|rsf:gd-|-stype:attr=1|qr_nm:gd|res:RC3|com-cf:nl|ptrs:na|ktp:N0|mc:55654|mtp:S|qry_typ:P|lang:en|wc:2|flavl:0|cs:9603|v=4,False,Shahdara,New Delhi,"1/95, Gali No.3, Near Navjeevan Phisical Center, Vishwas Nagar, Shahdara,, Shahdara, New Delhi - 110032, Dist.Delhi, Delhi",7942628926,
Baby Knee Pad,https://www.indiamart.com/proddetail/baby-knee-pad-2855061456033.html?pos=2&kwd=baby pad&tags=A||||8752.144|Price|product|||MDC|rsf:gd-|-stype:attr=1|qr_nm:gd|res:RC3|com-cf:nl|ptrs:na|ktp:N0|mc:55654|mtp:S|qry_typ:P|lang:en|wc:2|flavl:0|cs:9603|v=4,Dealsup,https://www.indiamart.com/dealsup-north-delhi/?pos=2&kwd=baby pad&tags=A||||8752.144|Price|product|||MDC|rsf:gd-|-stype:attr=1|qr_nm:gd|res:RC3|com-cf:nl|ptrs:na|ktp:N0|mc:55654|mtp:S|qry_typ:P|lang:en|wc:2|flavl:0|cs:9603|v=4,False,,New Delhi,"Kamal Pur Majra, Khasra No. 7/14, Kamal Vihar, Village Burari North Delhi, New Delhi - 110084, Dist.Delhi, Delhi",7942532252,
"Baby Slap Pad, Newly Born",https://www.indiamart.com/proddetail/baby-slap-pad-2854792927988.html?pos=3&kwd=baby pad&tags=A||||8752.144|Price|product|||TS|rsf:gd-|-stype:attr=1|qr_nm:gd|res:RC3|com-cf:nl|ptrs:na|ktp:N0|mc:55654|mtp:S|qry_typ:P|lang:en|wc:2|flavl:0|cs:9603|v=4,M A Enterprises,https://www.maenterprisess.com/?pos=3&kwd=baby pad&tags=A||||8752.144|Price|product|||TS|rsf:gd-|-stype:attr=1|qr_nm:gd|res:RC3|com-cf:nl|ptrs:na|ktp:N0|mc:55654|mtp:S|qry_typ:P|lang:en|wc:2|flavl:0|cs:9603|v=4,False,azadpur delhi,New Delhi,"Plot No 32b bassment Rameswar nagar Azadpur, azadpur delhi, New Delhi - 110033, Dist.Delhi, Delhi",7949326748,
"Cotton Baby Knee Pads, Hand Wash",https://www.indiamart.com/proddetail/baby-knee-pads-22066231633.html?pos=4&kwd=baby pad&tags=A||||8752.144|Price|product|||TS|rsf:gd-|-stype:attr=1|qr_nm:gd|res:RC3|com-cf:nl|ptrs:na|ktp:N0|mc:55654|mtp:S|qry_typ:P|lang:en|wc:2|flavl:0|cs:9603|v=4,J L Trading Company,https://www.jltrading.in/?pos=4&kwd=baby pad&tags=A||||8752.144|Price|product|||TS|rsf:gd-|-stype:attr=1|qr_nm:gd|res:RC3|com-cf:nl|ptrs:na|ktp:N0|mc:55654|mtp:S|qry_typ:P|lang:en|wc:2|flavl:0|cs:9603|v=4,False,Shastri Nagar,New Delhi,"E2/253, 3rd Floor, ICICI Bank Building, Shastri Nagar, New Delhi - 110052, Dist.Delhi, Delhi",8048956600,
Babies Knee Pad,https://www.indiamart.com/proddetail/babies-knee-pad-2854730792873.html?pos=5&kwd=baby pad&tags=A||||8211.142|Price|product|||TS|rsf:gd-|-stype:attr=1|qr_nm:gd|res:RC3|com-cf:nl|ptrs:na|ktp:N0|mc:55654|mtp:S|qry_typ:P|lang:en|wc:2|flavl:0|cs:9603|v=4,M. G. L. & Co.,https://www.kbamkay.com/?pos=5&kwd=baby pad&tags=A||||8211.142|Price|product|||TS|rsf:gd-|-stype:attr=1|qr_nm:gd|res:RC3|com-cf:nl|ptrs:na|ktp:N0|mc:55654|mtp:S|qry_typ:P|lang:en|wc:2|flavl:0|cs:9603|v=4,False,,Mumbai,"2 Nd Floor Office No 8 Abdul Rehman Street 1115 Sufarwala Building, Mumbai - 400003, Dist.Mumbai, Maharashtra",7942867468,
"Prima Baby Organic Cotton Pads, For Domestic, Packaging Size: 60 Pad",https://www.indiamart.com/proddetail/prima-baby-organic-cotton-pads-2854907129948.html?pos=6&kwd=baby pad&tags=A||||8211.142||product|||MDC|rsf:gd-|-stype:attr=1|qr_nm:gd|res:RC3|com-cf:nl|ptrs:na|ktp:N0|mc:55654|mtp:S|qry_typ:P|lang:en|wc:2|flavl:0|cs:9603|v=4,Mahendra Enterprises & Suppliers,https://www.indiamart.com/mahendra-enterprises-suppliers/?pos=6&kwd=baby pad&tags=A||||8211.142||product|||MDC|rsf:gd-|-stype:attr=1|qr_nm:gd|res:RC3|com-cf:nl|ptrs:na|ktp:N0|mc:55654|mtp:S|qry_typ:P|lang:en|wc:2|flavl:0|cs:9603|v=4,False,,Mumbai,"5, Jaydabi Chawl, Hanuman Nagar, P. N Road, Mumbai Suburban,, Mumbai - 400078, Dist.Mumbai, Maharashtra",7949330192,
"Multicolor Cotton Baby Knee Pad, Newly Born",https://www.indiamart.com/proddetail/baby-knee-pad-26468994455.html?pos=7&kwd=baby pad&tags=BA||||8230.883|Price|product|||TS|rsf:gd-|-stype:attr=1|qr_nm:gd|res:RC3|com-cf:nl|ptrs:na|ktp:N0|mc:55654|mtp:S|qry_typ:P|lang:en|wc:2|flavl:0|cs:9603|v=4,Alesso(A Brand Of Awxoqom),https://www.ashoppersvillage.com/?pos=7&kwd=baby pad&tags=BA||||8230.883|Price|product|||TS|rsf:gd-|-stype:attr=1|qr_nm:gd|res:RC3|com-cf:nl|ptrs:na|ktp:N0|mc:55654|mtp:S|qry_typ:P|lang:en|wc:2|flavl:0|cs:9603|v=4,False,Singanpor,Surat,"Plot No 30,gr Floor, Vijayraj Row House, Near Vijayraj Circle,singanpore Causeway Road,katargam, Singanpor, Surat - 395004, Dist.Surat, Gujarat",8048957223,
Baby Slapped pad,https://www.indiamart.com/proddetail/baby-slapped-pad-24032420930.html?pos=8&kwd=baby pad&tags=BA||||8752.144|Price|product|||TS|rsf:gd-|-stype:attr=1|qr_nm:gd|res:RC3|com-cf:nl|ptrs:na|ktp:N0|mc:55654|mtp:S|qry_typ:P|lang:en|wc:2|flavl:0|cs:9603|v=4,J&D Sales,https://www.indiamart.com/j-d-sales/?pos=8&kwd=baby pad&tags=BA||||8752.144|Price|product|||TS|rsf:gd-|-stype:attr=1|qr_nm:gd|res:RC3|com-cf:nl|ptrs:na|ktp:N0|mc:55654|mtp:S|qry_typ:P|lang:en|wc:2|flavl:0|cs:9603|v=4,False,Azadpur,New Delhi,"Ga-12,G/F,Gopal Nagar Azadpur,New Delhi, Azadpur, New Delhi - 110033, Dist.Delhi, Delhi",7942545246,
"Black,Red cotton Baby Knee Pad",https://www.indiamart.com/proddetail/baby-knee-pad-27444061330.html?pos=9&kwd=baby pad&tags=BA||||8752.144|Price|product|||TS|rsf:gd-|-stype:attr=1|qr_nm:gd|res:RC3|com-cf:nl|ptrs:na|ktp:N0|mc:55654|mtp:S|qry_typ:P|lang:en|wc:2|flavl:0|cs:9603|v=4,Inquantity,https://www.indiamart.com/inquantity/?pos=9&kwd=baby pad&tags=BA||||8752.144|Price|product|||TS|rsf:gd-|-stype:attr=1|qr_nm:gd|res:RC3|com-cf:nl|ptrs:na|ktp:N0|mc:55654|mtp:S|qry_typ:P|lang:en|wc:2|flavl:0|cs:9603|v=4,False,Shahdara,New Delhi,"1/6258, East Rohtash Nagar, Shahdara, Shahdara, New Delhi - 110032, Dist.Delhi, Delhi",8047620719,
Baby water pad,https://www.indiamart.com/proddetail/baby-water-pad-26050278962.html?pos=10&kwd=baby pad&tags=BA||||8752.144|Price|product|||TS|rsf:gd-|-stype:attr=1|qr_nm:gd|res:RC3|com-cf:nl|ptrs:na|ktp:N0|mc:55654|mtp:S|qry_typ:P|lang:en|wc:2|flavl:0|cs:9603|v=4,Zipker International,https://www.hotnix.in/?pos=10&kwd=baby pad&tags=BA||||8752.144|Price|product|||TS|rsf:gd-|-stype:attr=1|qr_nm:gd|res:RC3|com-cf:nl|ptrs:na|ktp:N0|mc:55654|mtp:S|qry_typ:P|lang:en|wc:2|flavl:0|cs:9603|v=4,False,Bawana,New Delhi,"2838 arya smaj road,gaffar market, karolbag New Delhi, Bawana, New Delhi - 110039, Dist.Delhi, Delhi",8047653260,
Cotton Baby Changemat / Changing Pad,https://www.indiamart.com/proddetail/baby-changemat-changing-pad-14116718088.html?pos=11&kwd=baby pad&tags=BA||||8668.838|Price|product|||TS|rsf:gd-|-stype:attr=1|qr_nm:gd|res:RC3|com-cf:nl|ptrs:na|ktp:N0|mc:55654|mtp:S|qry_typ:P|lang:en|wc:2|flavl:0|cs:9603|v=4,Sri Kalyan Export Private Limited,https://www.kitchenlinens.in/?pos=11&kwd=baby pad&tags=BA||||8668.838|Price|product|||TS|rsf:gd-|-stype:attr=1|qr_nm:gd|res:RC3|com-cf:nl|ptrs:na|ktp:N0|mc:55654|mtp:S|qry_typ:P|lang:en|wc:2|flavl:0|cs:9603|v=4,True,Vilarasampatti,Erode,"No. 192/4, Iswarya Garden Sengodanpalayam, Vilarasampatti, Erode - 638107, Dist.Erode, Tamil Nadu",8048983341,
Mitsico Cotton Summer Baby Knee Pads Kids Anti Slip Crawl Necessary Knee Protector Baby Leg,https://www.indiamart.com/proddetail/mitsico-cotton-summer-baby-knee-pads-kids-anti-slip-crawl-necessary-knee-protector-baby-leg-25534087430.html?pos=12&kwd=baby pad&tags=BA||||8230.883|Price|product|||TS|rsf:gd-|-stype:attr=1|qr_nm:gd|res:RC3|com-cf:nl|ptrs:na|ktp:N0|mc:55654|mtp:S|qry_typ:P|lang:en|wc:2|flavl:0|cs:9603|v=4,Mitsico,https://www.mitsico.in/?pos=12&kwd=baby pad&tags=BA||||8230.883|Price|product|||TS|rsf:gd-|-stype:attr=1|qr_nm:gd|res:RC3|com-cf:nl|ptrs:na|ktp:N0|mc:55654|mtp:S|qry_typ:P|lang:en|wc:2|flavl:0|cs:9603|v=4,False,KATARGAM,Surat,"Basement-1, Shop No.- A1, Sunday Hub Shopping Center, Amba Talavadi, Opp. Shree Vinayak Residency, KATARGAM, Surat - 395004, Dist.Surat, Gujarat",8047649165,
"Multicolor Baby Knee Pads, Homewash",https://www.indiamart.com/proddetail/baby-knee-pads-21892000755.html?pos=13&kwd=baby pad&tags=BA||||8211.142|Price|product|||TS|rsf:gd-|-stype:attr=1|qr_nm:gd|res:RC3|com-cf:nl|ptrs:na|ktp:N0|mc:55654|mtp:S|qry_typ:P|lang:en|wc:2|flavl:0|cs:9603|v=4,Zhom Collection,https://www.indiamart.com/zhomcollection/?pos=13&kwd=baby pad&tags=BA||||8211.142|Price|product|||TS|rsf:gd-|-stype:attr=1|qr_nm:gd|res:RC3|com-cf:nl|ptrs:na|ktp:N0|mc:55654|mtp:S|qry_typ:P|lang:en|wc:2|flavl:0|cs:9603|v=4,False,Princess Dock,Mumbai,"Narsi Natha Street Katha Bazar Masjid Bandar, Princess Dock, Mumbai - 400009, Dist.Mumbai, Maharashtra",8048970759,
fabric Baby Knee Pads,https://www.indiamart.com/proddetail/baby-knee-pads-22066254197.html?pos=14&kwd=baby pad&tags=BA||||8752.144|Price|product|||TS|rsf:gd-|-stype:attr=1|qr_nm:gd|res:RC3|com-cf:nl|ptrs:na|ktp:N0|mc:55654|mtp:S|qry_typ:P|lang:en|wc:2|flavl:0|cs:9603|v=4,JRC Trade India,https://www.indiamart.com/jrstradeindia/?pos=14&kwd=baby pad&tags=BA||||8752.144|Price|product|||TS|rsf:gd-|-stype:attr=1|qr_nm:gd|res:RC3|com-cf:nl|ptrs:na|ktp:N0|mc:55654|mtp:S|qry_typ:P|lang:en|wc:2|flavl:0|cs:9603|v=4,False,Shastri Nagar,New Delhi,"House No. 253, Block E 2, Shastri Nagar, New Delhi - 110052, Dist.Delhi, Delhi",8047634068,
"Pink (Base) Baby Slapped Pad, 12 Months",https://www.indiamart.com/proddetail/baby-slapped-pad-2853602381430.html?pos=15&kwd=baby pad&tags=BA||||8785.791|Price|product|||MDC|rsf:gd-|-stype:attr=1|qr_nm:gd|res:RC3|com-cf:nl|ptrs:na|ktp:N0|mc:55654|mtp:S|qry_typ:P|lang:en|wc:2|cs:8840|v=4,B.S Enterprises,https://www.indiamart.com/bs-enterprisesuttarpradesh/?pos=15&kwd=baby pad&tags=BA||||8785.791|Price|product|||MDC|rsf:gd-|-stype:attr=1|qr_nm:gd|res:RC3|com-cf:nl|ptrs:na|ktp:N0|mc:55654|mtp:S|qry_typ:P|lang:en|wc:2|cs:8840|v=4,False,Rahul Vihar,Ghaziabad,"A-10/K H 174, Rahul Vihar, Behrampur, Rahul Vihar, Ghaziabad - 201009, Dist.Ghaziabad, Uttar Pradesh",7949082680,
Baby Knee Pad,https://www.indiamart.com/proddetail/baby-knee-pad-2854019611012.html?pos=16&kwd=baby pad&tags=BB||||8230.883|Price|product|||MDC|rsf:gd-|-stype:attr=1|qr_nm:gd|res:RC3|com-cf:nl|ptrs:na|ktp:N0|mc:55654|mtp:S|qry_typ:P|lang:en|wc:2|cs:8840|v=4,Mahant Enterprise,https://www.indiamart.com/mahantenterprisegujarat/?pos=16&kwd=baby pad&tags=BB||||8230.883|Price|product|||MDC|rsf:gd-|-stype:attr=1|qr_nm:gd|res:RC3|com-cf:nl|ptrs:na|ktp:N0|mc:55654|mtp:S|qry_typ:P|lang:en|wc:2|cs:8840|v=4,False,Dabholi Village,Surat,"12, Ground Floor, Ankita Park Society, Unnamed Road, Ved Road, Dabholi Village, Surat - 395004, Dist.Surat, Gujarat",7942828700,
"Multicolor Baby Slapped Pads, Packaging Type: Packet, Newly Born",https://www.indiamart.com/proddetail/baby-slapped-pads-2853069456562.html?pos=17&kwd=baby pad&tags=BB||||8230.883|Price|product|||MDC|rsf:gd-|-stype:attr=1|qr_nm:gd|res:RC3|com-cf:nl|ptrs:na|ktp:N0|mc:55654|mtp:S|qry_typ:P|lang:en|wc:2|cs:8840|v=4,Tradecart Sales,https://www.indiamart.com/tradecart-sales-surat/?pos=17&kwd=baby pad&tags=BB||||8230.883|Price|product|||MDC|rsf:gd-|-stype:attr=1|qr_nm:gd|res:RC3|com-cf:nl|ptrs:na|ktp:N0|mc:55654|mtp:S|qry_typ:P|lang:en|wc:2|cs:8840|v=4,False,Dabholi,Surat,"Gr Floor, Shop-12/A, Avalin The Commercial Hub, Katargam, Dabholi, Surat - 395004, Dist.Surat, Gujarat",7942966203,
Baby Knee Protection Pads,https://www.indiamart.com/proddetail/baby-knee-protection-pads-2853454067691.html?pos=18&kwd=baby pad&tags=BA||||9189.305|Price|product|||MDC|rsf:gd-|-stype:attr=1|qr_nm:gd|res:RC3|com-cf:nl|ptrs:na|ktp:N0|mc:55654|mtp:S|qry_typ:P|lang:en|wc:2|cs:8840|v=4,Sudhanjali Enterprises,https://www.indiamart.com/sudhanjalienterprises/?pos=18&kwd=baby pad&tags=BA||||9189.305|Price|product|||MDC|rsf:gd-|-stype:attr=1|qr_nm:gd|res:RC3|com-cf:nl|ptrs:na|ktp:N0|mc:55654|mtp:S|qry_typ:P|lang:en|wc:2|cs:8840|v=4,False,,Prayagraj,"H No-10/7, Basahi, Nataka Babura, Khain, Prayagraj - 212307, Dist.Allahabad, Uttar Pradesh",7942964273,
"Baby Slapped Pads, Newly Born",https://www.indiamart.com/proddetail/baby-slapped-pads-2854236995333.html?pos=19&kwd=baby pad&tags=BA||||8752.144|Price|product|||MDC|rsf:gd-|-stype:attr=1|qr_nm:gd|res:RC3|com-cf:nl|ptrs:na|ktp:N0|mc:55654|mtp:S|qry_typ:P|lang:en|wc:2|cs:8840|v=4,Abdul Enterprises,https://www.indiamart.com/abdulenterprises-delhi/?pos=19&kwd=baby pad&tags=BA||||8752.144|Price|product|||MDC|rsf:gd-|-stype:attr=1|qr_nm:gd|res:RC3|com-cf:nl|ptrs:na|ktp:N0|mc:55654|mtp:S|qry_typ:P|lang:en|wc:2|cs:8840|v=4,False,Chandni Chowk,New Delhi,"1457, GF, Chatta Nawab, Central Delhi, Chandni Chowk, New Delhi - 110006, Dist.Delhi, Delhi",8048207439,
Baby Knee Pad,https://www.indiamart.com/proddetail/baby-knee-pad-2854920673448.html?pos=20&kwd=baby pad&tags=BB||||8230.883|Price|product|||MDC|rsf:gd-|-stype:attr=1|qr_nm:gd|res:RC3|com-cf:nl|ptrs:na|ktp:N0|mc:55654|mtp:S|qry_typ:P|lang:en|wc:2|cs:8840|v=4,Khodal Creation,https://www.indiamart.com/khodalcreationsuratgujarat/?pos=20&kwd=baby pad&tags=BB||||8230.883|Price|product|||MDC|rsf:gd-|-stype:attr=1|qr_nm:gd|res:RC3|com-cf:nl|ptrs:na|ktp:N0|mc:55654|mtp:S|qry_typ:P|lang:en|wc:2|cs:8840|v=4,False,Amroli,Surat,"8th Floor, E-804, Rivanta Luxeria, Variav Road,, Amroli, Surat - 394101, Dist.Surat, Gujarat",7949093501,
Foam Baby Knee Pad,https://www.indiamart.com/proddetail/baby-knee-pad-2852930471255.html?pos=21&kwd=baby pad&tags=BA||||8211.142|Price|product|||TS|rsf:gd-|-stype:attr=1|qr_nm:gd|res:RC3|com-cf:nl|ptrs:na|ktp:N0|mc:55654|mtp:S|qry_typ:P|lang:en|wc:2|cs:8840|v=4,Parass Trading,https://www.indiamart.com/parasstrading/?pos=21&kwd=baby pad&tags=BA||||8211.142|Price|product|||TS|rsf:gd-|-stype:attr=1|qr_nm:gd|res:RC3|com-cf:nl|ptrs:na|ktp:N0|mc:55654|mtp:S|qry_typ:P|lang:en|wc:2|cs:8840|v=4,False,Chembur,Mumbai,"Room no 3, First Floor, Plot no 39, Next to Shivaji Nagar police station,Kherwadi Plot no 39, Chembur, Mumbai - 400071, Dist.Mumbai, Maharashtra",8047631170,
Foam Cotton Baby Knee Pads,https://www.indiamart.com/proddetail/cotton-baby-knee-pads-26172715155.html?pos=22&kwd=baby pad&tags=BA||||8223.226|Price|product|||TS|rsf:gd-|-stype:attr=1|qr_nm:gd|res:RC3|com-cf:nl|ptrs:na|ktp:N0|mc:55654|mtp:S|qry_typ:P|lang:en|wc:2|cs:8840|v=4,Jenico World,https://www.jenicoworld.com/?pos=22&kwd=baby pad&tags=BA||||8223.226|Price|product|||TS|rsf:gd-|-stype:attr=1|qr_nm:gd|res:RC3|com-cf:nl|ptrs:na|ktp:N0|mc:55654|mtp:S|qry_typ:P|lang:en|wc:2|cs:8840|v=4,False,Mira Road,Thane,"ndra Maternity And Surgical Nursing Home, GROUND FLOOR, D-8, FLAT NO - 002, Panchami Cooperative Housing Society Ltd, SECTOR - 7, Shanti Nagar,, Mira Road, Thane - 401107, Dist.Thane, Maharashtra",8043855594,
Cotton Summer Baby Knee Pads Kids Anti Slip Crawl Necessary Knee Protector Baby Leg,https://www.indiamart.com/proddetail/cotton-summer-baby-knee-pads-kids-anti-slip-crawl-necessary-knee-protector-baby-leg-22992528912.html?pos=23&kwd=baby pad&tags=BA||||8230.883|Price|product|||TS|rsf:gd-|-stype:attr=1|qr_nm:gd|res:RC3|com-cf:nl|ptrs:na|ktp:N0|mc:55654|mtp:S|qry_typ:P|lang:en|wc:2|cs:8840|v=4,Hemiza Enterprise,https://www.hemiza.in/?pos=23&kwd=baby pad&tags=BA||||8230.883|Price|product|||TS|rsf:gd-|-stype:attr=1|qr_nm:gd|res:RC3|com-cf:nl|ptrs:na|ktp:N0|mc:55654|mtp:S|qry_typ:P|lang:en|wc:2|cs:8840|v=4,False,Katargam,Surat,"71, Ground Floor, Shubhash Nagar Society Near Shakti Nagar Ni Vadi, Katargam, Surat - 395004, Dist.Surat, Gujarat",8048976391,
"Baby Knee Pads For Crawling, Anti-Slip Padded Stretchable Elastic Cotton Soft",https://www.indiamart.com/proddetail/baby-knee-pads-for-crawling-anti-slip-padded-stretchable-elastic-cotton-soft-26086445573.html?pos=24&kwd=baby pad&tags=BA||||8230.883|Price|product|||TS|rsf:gd-|-stype:attr=1|qr_nm:gd|res:RC3|com-cf:nl|ptrs:na|ktp:N0|mc:55654|mtp:S|qry_typ:P|lang:en|wc:2|cs:8840|v=4,Dynamic Import & Export,https://www.dynamicimportandexport.com/?pos=24&kwd=baby pad&tags=BA||||8230.883|Price|product|||TS|rsf:gd-|-stype:attr=1|qr_nm:gd|res:RC3|com-cf:nl|ptrs:na|ktp:N0|mc:55654|mtp:S|qry_typ:P|lang:en|wc:2|cs:8840|v=4,False,Punagam,Surat,"Shade No 4, Besides B4Bakers, Opp Ami Park Society, Manishnagar Market Road, Dabholi, Katargam, Punagam, Surat - 395010, Dist.Surat, Gujarat",8046030878,
Rubber Baby Crawling Anti Slip Knee Pads,https://www.indiamart.com/proddetail/baby-crawling-anti-slip-knee-pads-23337182991.html?pos=25&kwd=baby pad&tags=BA||||8228.275|Price|product|||TS|rsf:gd-|-stype:attr=1|qr_nm:gd|res:RC3|com-cf:nl|ptrs:na|ktp:N0|mc:55654|mtp:S|qry_typ:P|lang:en|wc:2|cs:8840|v=4,King Enterprise,https://www.kingenterpriseindia.com/?pos=25&kwd=baby pad&tags=BA||||8228.275|Price|product|||TS|rsf:gd-|-stype:attr=1|qr_nm:gd|res:RC3|com-cf:nl|ptrs:na|ktp:N0|mc:55654|mtp:S|qry_typ:P|lang:en|wc:2|cs:8840|v=4,False,Opp. Haripura Bus Stand,Ahmedabad,"Block- E 28, Ground Floor, Abhishek Estate-1, Opp. Haripura Bus Stand, Ahmedabad - 380016, Dist.Ahmedabad, Gujarat",8047632934,
Rubber Baby Knee Pad,https://www.indiamart.com/proddetail/baby-knee-pad-2851514202530.html?pos=26&kwd=baby pad&tags=BA||||8752.144||product|||MDC|rsf:gd-|-stype:attr=1|qr_nm:gd|res:RC3|com-cf:nl|ptrs:na|ktp:N0|mc:55654|mtp:S|qry_typ:P|lang:en|wc:2|cs:8840|v=4,Prince And Princess,https://www.indiamart.com/prince-princess-delhi/?pos=26&kwd=baby pad&tags=BA||||8752.144||product|||MDC|rsf:gd-|-stype:attr=1|qr_nm:gd|res:RC3|com-cf:nl|ptrs:na|ktp:N0|mc:55654|mtp:S|qry_typ:P|lang:en|wc:2|cs:8840|v=4,False,Gulabi Bagh,New Delhi,"Ground Floor, Garage No - 74, Gulabi Bagh Road,, Gulabi Bagh, New Delhi - 110007, Dist.Delhi, Delhi",8047629125,
"BABY DIAPER CHANGING PAD, Portable changing pad for newborn boy & girl- Baby Changing Pad",https://www.indiamart.com/proddetail/baby-diaper-changing-pad-portable-changing-pad-for-newborn-boy-girl-baby-changing-pad-2854750565112.html?pos=27&kwd=baby pad&tags=BB||||8230.883|Price|product|||MDC|rsf:gd-|-stype:attr=1|qr_nm:gd|res:RC3|com-cf:nl|ptrs:na|ktp:N0|mc:55654|mtp:S|qry_typ:P|lang:en|wc:2|cs:8840|v=4,P G Impex,https://www.indiamart.com/pg-impex-surat/?pos=27&kwd=baby pad&tags=BB||||8230.883|Price|product|||MDC|rsf:gd-|-stype:attr=1|qr_nm:gd|res:RC3|com-cf:nl|ptrs:na|ktp:N0|mc:55654|mtp:S|qry_typ:P|lang:en|wc:2|cs:8840|v=4,False,,Surat,"3rd Floor, 304, Sarjan Residency Wing-A, Sunganpor Road, Katargam, Surat - 395004, Dist.Surat, Gujarat",7949322822,
"Gray Baby Reusable Pad, Newly Born",https://www.indiamart.com/proddetail/baby-reusable-pad-23490586748.html?pos=28&kwd=baby pad&tags=BA||||8785.791|Price|product|||NA|rsf:gd-|-stype:attr=1|qr_nm:gd|res:RC3|com-cf:nl|ptrs:na|ktp:N0|mc:55654|mtp:S|qry_typ:P|lang:en|wc:2|cs:8840|v=4,Lifelong Enterprise,https://www.indiamart.com/online-sell-noida/?pos=28&kwd=baby pad&tags=BA||||8785.791|Price|product|||NA|rsf:gd-|-stype:attr=1|qr_nm:gd|res:RC3|com-cf:nl|ptrs:na|ktp:N0|mc:55654|mtp:S|qry_typ:P|lang:en|wc:2|cs:8840|v=4,False,,Ghaziabad,"Rc -298, Bharat Nagar, Khora Colony, Ghaziabad - 201001, Dist.Ghaziabad, Uttar Pradesh",8047826548,
"Baby Diaper Pad, Newly Born",https://www.indiamart.com/proddetail/baby-diaper-pad-2854722408973.html?pos=29&kwd=baby pad&tags=BA||||8228.275|Price|product|||NA|rsf:gd-|-stype:attr=1|qr_nm:gd|res:RC3|com-cf:nl|ptrs:na|ktp:N0|mc:55654|mtp:S|qry_typ:P|lang:en|wc:2|cs:8840|v=4,Shishu Apparels,https://www.indiamart.com/shishu-apparels/?pos=29&kwd=baby pad&tags=BA||||8228.275|Price|product|||NA|rsf:gd-|-stype:attr=1|qr_nm:gd|res:RC3|com-cf:nl|ptrs:na|ktp:N0|mc:55654|mtp:S|qry_typ:P|lang:en|wc:2|cs:8840|v=4,False,,Ahmedabad,"62, Laxmi Vishnu Market, Gheekanta Road, Ghee Kanta, Ahmedabad - 380001, Dist.Ahmedabad, Gujarat",7949322683,
Foam Crawling Baby Knee Pad,https://www.indiamart.com/proddetail/crawling-baby-knee-pad-2853645016962.html?pos=30&kwd=baby pad&tags=BB||||8752.144|Price|product|||NA|rsf:gd-|-stype:attr=1|qr_nm:gd|res:RC3|com-cf:nl|ptrs:na|ktp:N0|mc:55654|mtp:S|qry_typ:P|lang:en|wc:2|cs:8840|v=4,Badal Trading Enterprises,https://www.indiamart.com/badaltradingenterprises/?pos=30&kwd=baby pad&tags=BB||||8752.144|Price|product|||NA|rsf:gd-|-stype:attr=1|qr_nm:gd|res:RC3|com-cf:nl|ptrs:na|ktp:N0|mc:55654|mtp:S|qry_typ:P|lang:en|wc:2|cs:8840|v=4,False,Tilak Nagar,New Delhi,"Ground Floor, Shop At 16/32, Prakash Shopping Complex, Tilak Nagar, West, Tilak Nagar, New Delhi - 110018, Dist.Delhi, Delhi",7949095301,
reusable washable cotton cloth pads,https://www.indiamart.com/proddetail/reusable-washable-cotton-cloth-pads-23913052488.html?pos=31&kwd=baby pad&tags=BB||||8723.301|Price|product|||NA|rsf:gd-|-stype:attr=1|qr_nm:gd|res:RC3|com-cf:nl|ptrs:na|ktp:N0|mc:55654|mtp:S|qry_typ:P|lang:en|wc:2|cs:8840|v=4,Sathi Enterprise,https://www.indiamart.com/sathi-enterprise-bhopal/?pos=31&kwd=baby pad&tags=BB||||8723.301|Price|product|||NA|rsf:gd-|-stype:attr=1|qr_nm:gd|res:RC3|com-cf:nl|ptrs:na|ktp:N0|mc:55654|mtp:S|qry_typ:P|lang:en|wc:2|cs:8840|v=4,False,Sai Bpard,Bhopal,"E/6 Sai Baord, Sai Bpard, Bhopal - 462016, Dist.Bhopal, Madhya Pradesh",8069728224,970
"Pink Baby Nappies Pads, Size: Small, Age Group: Newly Born",https://www.indiamart.com/proddetail/baby-nappies-pads-2849856903630.html?pos=32&kwd=baby pad&tags=BB||||8687.614|Price|product|||NA|rsf:gd-|-stype:attr=1|qr_nm:gd|res:RC3|com-cf:nl|ptrs:na|ktp:N0|mc:55654|mtp:S|qry_typ:P|lang:en|wc:2|cs:8840|v=4,N.K.Garments,https://www.indiamart.com/nkgarments-hosur/?pos=32&kwd=baby pad&tags=BB||||8687.614|Price|product|||NA|rsf:gd-|-stype:attr=1|qr_nm:gd|res:RC3|com-cf:nl|ptrs:na|ktp:N0|mc:55654|mtp:S|qry_typ:P|lang:en|wc:2|cs:8840|v=4,False,,Hosur,"No.3/148B, No.3/148B Nallur Road, Viswanathapuram, Krishnagiri, Hosur - 635109, Dist.Krishnagiri, Tamil Nadu",7942800204,
"Assorted Elastic Baby Knee Pad, Machine And Hand Wash",https://www.indiamart.com/proddetail/baby-knee-pad-13510117155.html?pos=33&kwd=baby pad&tags=BB||||8239.3955|Price|product|||NA|rsf:gd-|-stype:attr=1|qr_nm:gd|res:RC3|com-cf:nl|ptrs:na|ktp:N0|mc:55654|mtp:S|qry_typ:P|lang:en|wc:2|cs:8840|v=4,Tiny Toes,https://www.indiamart.com/tiny-toes/?pos=33&kwd=baby pad&tags=BB||||8239.3955|Price|product|||NA|rsf:gd-|-stype:attr=1|qr_nm:gd|res:RC3|com-cf:nl|ptrs:na|ktp:N0|mc:55654|mtp:S|qry_typ:P|lang:en|wc:2|cs:8840|v=4,False,,Kalyan,"Shop No 4, Jai Sonali Building Dr. Ambedkar road, Kalyan - 421301, Dist.Thane, Maharashtra",8047699360,
"Cotton Prishu Baby Knee Pad, Machine Wash",https://www.indiamart.com/proddetail/prishu-baby-knee-pad-2849770708230.html?pos=34&kwd=baby pad&tags=BB||||8230.883|Price|product|||NA|rsf:gd-|-stype:attr=1|qr_nm:gd|res:RC3|com-cf:nl|ptrs:na|ktp:N0|mc:55654|mtp:S|qry_typ:P|lang:en|wc:2|cs:8840|v=4,SHREE SOMESHWAR ENTERPRISE,https://www.indiamart.com/shreesomeshwar-enterprise-surat/?pos=34&kwd=baby pad&tags=BB||||8230.883|Price|product|||NA|rsf:gd-|-stype:attr=1|qr_nm:gd|res:RC3|com-cf:nl|ptrs:na|ktp:N0|mc:55654|mtp:S|qry_typ:P|lang:en|wc:2|cs:8840|v=4,False,,Surat,"Flat No. - G/2, Ground Floor, Varundavan Appartment,Naginawadi ,Katargam, Surat - 395004, Dist.Surat, Gujarat",7942795846,
Baby Pad,,Yash Enterprise,https://www.indiamart.com/yashenterprise-148009393/?pos=35&kwd=baby pad&tags=BB||||8228.275||product|||NA|rsf:gd-|-stype:attr=1|qr_nm:gd|res:RC3|com-cf:nl|ptrs:na|ktp:N0|mc:55654|mtp:S|qry_typ:P|lang:en|wc:2|cs:8840|v=4,False,near safal 1,Ahmedabad,"Fifth Floor E-506 Iscon complex (Vip market)Nr safal 1, near safal 1, Ahmedabad - 380021, Dist.Ahmedabad, Gujarat",8069033739,236
Largs Alfaby Baby Pads,,Gola Enterprises,https://www.indiamart.com/gola-enterprises-agra/?pos=36&kwd=baby pad&tags=BB||||8823.154||product|||NA|rsf:gd-|-stype:attr=1|qr_nm:gd|res:RC3|com-cf:nl|ptrs:na|ktp:N0|mc:55654|mtp:S|qry_typ:P|lang:en|wc:2|cs:8840|v=4,False,Shahganj,Agra,"16,Ashok Vihar,Kedar Nagar Shahganj,Agra,Agra, Shahganj, Agra - 282010, Dist.Agra, Uttar Pradesh",8047308844,1512
Pampers Baby Pads,,Harsh MedicL,https://www.indiamart.com/harsh-medicl/?pos=37&kwd=baby pad&tags=B||||8876.815|Price|product|||NA|rsf:gd-|-stype:attr=1|qr_nm:gd|res:RC3|com-cf:nl|ptrs:na|ktp:N0|mc:55654|mtp:S|qry_typ:P|lang:en|wc:2|cs:8840|v=4,False,,Nagpur,"Naka No 2, Mamta Mall, Shop No 1, Kamptee Road, Nagpur - 440026, Dist.Nagpur, Maharashtra",8048370720,9375
Baby Knee Pad,,Vasdev Traders Hisar,https://www.indiamart.com/vasdev-traders-hisar/?pos=38&kwd=baby pad&tags=BB||||8624.416|Price|product|||NA|rsf:gd-|-stype:attr=1|qr_nm:gd|res:RC3|com-cf:nl|ptrs:na|ktp:N0|mc:55654|mtp:S|qry_typ:P|lang:en|wc:2|cs:8840|v=4,False,,Hisar,"Jindal chowk , Hisar, Hisar - 125005, Dist.Hisar, Haryana",8048249961,237
"Baby Knee Pad Baby Knee Pads For Crawling, Anti-Slip Padded Stretchable Elastic Cotton Soft",https://www.indiamart.com/proddetail/baby-knee-pad-baby-knee-pads-for-crawling-anti-slip-padded-stretchable-elastic-cotton-soft-2853189603033.html?pos=39&kwd=baby pad&tags=CC||||8230.883|Price|product|||TS|rsf:gd-|-stype:attr=1|qr_nm:gd|res:RC3|com-cf:nl|ptrs:na|ktp:N0|mc:55654|mtp:S|qry_typ:P|lang:en|wc:2|cs:8840|v=4,Rapid Import & Export,https://www.indiamart.com/rapidimportexport/?pos=39&kwd=baby pad&tags=CC||||8230.883|Price|product|||TS|rsf:gd-|-stype:attr=1|qr_nm:gd|res:RC3|com-cf:nl|ptrs:na|ktp:N0|mc:55654|mtp:S|qry_typ:P|lang:en|wc:2|cs:8840|v=4,False,Dabholi,Surat,"Shade No 19, Nilkanth Park, Nr. Silver Stone Villa, Tulsi Chowk Dabholi Gam, Ved Road, Dabholi, Surat - 395004, Dist.Surat, Gujarat",7942960616,
"Foam Baby Knee Pad For Crawling, Machine And Hand Wash",https://www.indiamart.com/proddetail/baby-knee-pad-for-crawling-machine-and-hand-wash-2853066877133.html?pos=40&kwd=baby pad&tags=CC||||8230.883|Price|product|||TS|rsf:gd-|-stype:attr=1|qr_nm:gd|res:RC3|com-cf:nl|ptrs:na|ktp:N0|mc:55654|mtp:S|qry_typ:P|lang:en|wc:2|cs:8840|v=4,Crazy Deal,https://www.ecomdeal.net/?pos=40&kwd=baby pad&tags=CC||||8230.883|Price|product|||TS|rsf:gd-|-stype:attr=1|qr_nm:gd|res:RC3|com-cf:nl|ptrs:na|ktp:N0|mc:55654|mtp:S|qry_typ:P|lang:en|wc:2|cs:8840|v=4,False,Uttran,Surat,"3rd Floor, Shop No 303, Nr. Bhagyoday Residency, Raghuvir Textiles Mall, Magob, Uttran, Surat - 395010, Dist.Surat, Gujarat",8047815429,
"Baby Nappies Pads, Size: Medium, Age Group: Newly Born",https://www.indiamart.com/proddetail/baby-nappies-pads-2853717099830.html?pos=41&kwd=baby pad&tags=||||8752.144|Price|product|||TS|rsf:gd-|-stype:attr=1|qr_nm:gd|res:RC3|com-cf:nl|ptrs:na|ktp:N0|mc:55654|mtp:S|qry_typ:P|lang:en|wc:2|cs:8840|v=4,Sri Rajbhan Enterprises,https://www.indiamart.com/srirajbhanenterprises/?pos=41&kwd=baby pad&tags=||||8752.144|Price|product|||TS|rsf:gd-|-stype:attr=1|qr_nm:gd|res:RC3|com-cf:nl|ptrs:na|ktp:N0|mc:55654|mtp:S|qry_typ:P|lang:en|wc:2|cs:8840|v=4,False,,New Delhi,"Flat No 18, Ganga Apartment, Alaknanda, New Delhi - 110019, Dist.Delhi, Delhi",7942956951,
"Baby Pad, Newly Born",https://www.indiamart.com/proddetail/baby-pad-2854319678588.html?pos=42&kwd=baby pad&tags=CC||||8211.142|Price|product|||TS|rsf:gd-|-stype:attr=1|qr_nm:gd|res:RC3|com-cf:nl|ptrs:na|ktp:N0|mc:55654|mtp:S|qry_typ:P|lang:en|wc:2|cs:8840|v=4,More Buy Trading,https://www.indiamart.com/morebuytrading/?pos=42&kwd=baby pad&tags=CC||||8211.142|Price|product|||TS|rsf:gd-|-stype:attr=1|qr_nm:gd|res:RC3|com-cf:nl|ptrs:na|ktp:N0|mc:55654|mtp:S|qry_typ:P|lang:en|wc:2|cs:8840|v=4,False,Masjid Bandar,Mumbai,"1st Floor-1,11/15,Khimji Meghji House CHS,Essaji Street,Masjid Bandar West, Masjid Bandar, Mumbai - 400003, Dist.Mumbai, Maharashtra",7942866894,
"Foam Baby Knee Pad For Crawling, Machine And Hand Wash",https://www.indiamart.com/proddetail/baby-knee-pad-for-crawling-machine-and-hand-wash-2853066877133.html?pos=43&kwd=baby pad&tags=CC||||8230.883|Price|product|||TS|rsf:gd-|-stype:attr=1|qr_nm:gd|res:RC3|com-cf:nl|ptrs:na|ktp:N0|mc:55654|mtp:S|qry_typ:P|lang:en|wc:2|cs:8840|v=4,Crazy Deal,https://www.ecomdeal.net/?pos=43&kwd=baby pad&tags=CC||||8230.883|Price|product|||TS|rsf:gd-|-stype:attr=1|qr_nm:gd|res:RC3|com-cf:nl|ptrs:na|ktp:N0|mc:55654|mtp:S|qry_typ:P|lang:en|wc:2|cs:8840|v=4,False,Uttran,Surat,"3rd Floor, Shop No 303, Nr. Bhagyoday Residency, Raghuvir Textiles Mall, Magob, Uttran, Surat - 395010, Dist.Surat, Gujarat",8047815429,
"Baby Nappies Pads, Size: Medium, Age Group: Newly Born",https://www.indiamart.com/proddetail/baby-nappies-pads-2853717099830.html?pos=44&kwd=baby pad&tags=||||8752.144|Price|product|||TS|rsf:gd-|-stype:attr=1|qr_nm:gd|res:RC3|com-cf:nl|ptrs:na|ktp:N0|mc:55654|mtp:S|qry_typ:P|lang:en|wc:2|cs:8840|v=4,Sri Rajbhan Enterprises,https://www.indiamart.com/srirajbhanenterprises/?pos=44&kwd=baby pad&tags=||||8752.144|Price|product|||TS|rsf:gd-|-stype:attr=1|qr_nm:gd|res:RC3|com-cf:nl|ptrs:na|ktp:N0|mc:55654|mtp:S|qry_typ:P|lang:en|wc:2|cs:8840|v=4,False,,New Delhi,"Flat No 18, Ganga Apartment, Alaknanda, New Delhi - 110019, Dist.Delhi, Delhi",7942956951,
"Baby Pad, Newly Born",https://www.indiamart.com/proddetail/baby-pad-2854319678588.html?pos=45&kwd=baby pad&tags=CC||||8211.142|Price|product|||TS|rsf:gd-|-stype:attr=1|qr_nm:gd|res:RC3|com-cf:nl|ptrs:na|ktp:N0|mc:55654|mtp:S|qry_typ:P|lang:en|wc:2|cs:8840|v=4,More Buy Trading,https://www.indiamart.com/morebuytrading/?pos=45&kwd=baby pad&tags=CC||||8211.142|Price|product|||TS|rsf:gd-|-stype:attr=1|qr_nm:gd|res:RC3|com-cf:nl|ptrs:na|ktp:N0|mc:55654|mtp:S|qry_typ:P|lang:en|wc:2|cs:8840|v=4,False,Masjid Bandar,Mumbai,"1st Floor-1,11/15,Khimji Meghji House CHS,Essaji Street,Masjid Bandar West, Masjid Bandar, Mumbai - 400003, Dist.Mumbai, Maharashtra",7942866894,
Baby Knee Pad,https://www.indiamart.com/proddetail/baby-knee-pad-2852428121997.html?pos=46&kwd=baby pad&tags=||||8752.144|Price|product|||TS|rsf:gd-|-stype:attr=1|qr_nm:gd|res:RC3|com-cf:nl|ptrs:na|ktp:N0|mc:55654|mtp:S|qry_typ:P|lang:en|wc:2|cs:8840|v=4,Urbancube,https://www.indiamart.com/urbancube/?pos=46&kwd=baby pad&tags=||||8752.144|Price|product|||TS|rsf:gd-|-stype:attr=1|qr_nm:gd|res:RC3|com-cf:nl|ptrs:na|ktp:N0|mc:55654|mtp:S|qry_typ:P|lang:en|wc:2|cs:8840|v=4,False,Kamla Nagar,New Delhi,"Ground Floor, 14 UA, Jawahar Nagar, Kamla Nagar, New Delhi - 110007, Dist.Delhi, Delhi",8048980014,
"Blue Silicone Baby Sleeping Pad, Packaging Type: Poly, 3-12 Months",https://www.indiamart.com/proddetail/baby-sleeping-pad-24018802933.html?pos=47&kwd=baby pad&tags=CC||||8752.144|Price|product|||TS|rsf:gd-|-stype:attr=1|qr_nm:gd|res:RC3|com-cf:nl|ptrs:na|ktp:N0|mc:55654|mtp:S|qry_typ:P|lang:en|wc:2|cs:8840|v=4,Rudra Impex,https://www.msrudraimpex.com/?pos=47&kwd=baby pad&tags=CC||||8752.144|Price|product|||TS|rsf:gd-|-stype:attr=1|qr_nm:gd|res:RC3|com-cf:nl|ptrs:na|ktp:N0|mc:55654|mtp:S|qry_typ:P|lang:en|wc:2|cs:8840|v=4,False,Jeevan Park,New Delhi,"THIRD FLOOR,RZ 17,MAHINDRA PARK,,UTTAM NAGAR, Jeevan Park, New Delhi - 110059, Dist.Delhi, Delhi",8046044050,
Multicolor Soft Cotton Baby knee pads,https://www.indiamart.com/proddetail/baby-knee-pads-24153799162.html?pos=48&kwd=baby pad&tags=CC||||8752.144|Price|product|||TS|rsf:gd-|-stype:attr=1|qr_nm:gd|res:RC3|com-cf:nl|ptrs:na|ktp:N0|mc:55654|mtp:S|qry_typ:P|lang:en|wc:2|cs:8840|v=4,Dazibao,https://www.indiamart.com/dazibao/?pos=48&kwd=baby pad&tags=CC||||8752.144|Price|product|||TS|rsf:gd-|-stype:attr=1|qr_nm:gd|res:RC3|com-cf:nl|ptrs:na|ktp:N0|mc:55654|mtp:S|qry_typ:P|lang:en|wc:2|cs:8840|v=4,False,Dabri,New Delhi,"Dabri, F/f, House No.14, Plot No.23, Harijan Basti Sitapuri, New Delhi,, Dabri, New Delhi - 110045, Dist.Delhi, Delhi",8048605343,
"NV Enterprise Blue Baby Slap Pad, Packaging Type: Box, 1-2 Years",https://www.indiamart.com/proddetail/baby-slap-pad-2850390154491.html?pos=49&kwd=baby pad&tags=CC||||8752.144|Price|product|||TS|rsf:gd-|-stype:attr=1|qr_nm:gd|res:RC3|com-cf:nl|ptrs:na|ktp:N0|mc:55654|mtp:S|qry_typ:P|lang:en|wc:2|cs:8840|v=4,NV Enterprises,https://www.indiamart.com/nventerprise-delhi/?pos=49&kwd=baby pad&tags=CC||||8752.144|Price|product|||TS|rsf:gd-|-stype:attr=1|qr_nm:gd|res:RC3|com-cf:nl|ptrs:na|ktp:N0|mc:55654|mtp:S|qry_typ:P|lang:en|wc:2|cs:8840|v=4,False,Shastri Nagar,New Delhi,"D 148, Street No. 2, Swaroop Nagar, Shastri Nagar, New Delhi - 110052, Dist.Delhi, Delhi",7942543916,
"White Kids Nappy Pad, Packaging Type: Packet, Newly Born",https://www.indiamart.com/proddetail/kids-nappy-pad-27509796855.html?pos=50&kwd=baby pad&tags=CC||||8601.347|Price|product|||TS|rsf:gd-|-stype:attr=1|qr_nm:gd|res:RC3|com-cf:nl|ptrs:na|ktp:N0|mc:55654|mtp:S|qry_typ:P|lang:en|wc:2|cs:8840|v=4,Jagraj Polymers,https://www.jagrajpolymers.com/?pos=50&kwd=baby pad&tags=CC||||8601.347|Price|product|||TS|rsf:gd-|-stype:attr=1|qr_nm:gd|res:RC3|com-cf:nl|ptrs:na|ktp:N0|mc:55654|mtp:S|qry_typ:P|lang:en|wc:2|cs:8840|v=4,False,Vishwakarma Industrial Area,Jaipur,"RIICO Housing Colony, Plot No.107, Badarna VKI Area, Vishwakarma Industrial Area, Jaipur - 302013, Dist.Jaipur, Rajasthan",7942674725,
"Ritvik enterprises Nappi Pads, Packaging Type: Polythene, Newly Born",https://www.indiamart.com/proddetail/baby-nappies-pads-2852731926555.html?pos=51&kwd=baby pad&tags=CC||||8601.347|Price|product|||TS|rsf:gd-|-stype:attr=1|qr_nm:gd|res:RC3|com-cf:nl|ptrs:na|ktp:N0|mc:55654|mtp:S|qry_typ:P|lang:en|wc:2|cs:8840|v=4,Ritvik Enterprises,https://www.indiamart.com/ritvikenterprises-jaipur/?pos=51&kwd=baby pad&tags=CC||||8601.347|Price|product|||TS|rsf:gd-|-stype:attr=1|qr_nm:gd|res:RC3|com-cf:nl|ptrs:na|ktp:N0|mc:55654|mtp:S|qry_typ:P|lang:en|wc:2|cs:8840|v=4,False,Mansarovar,Jaipur,"117/678, Agarwal Farm, Mansarovar, Jaipur - 302020, Dist.Jaipur, Rajasthan",7942545190,
"Cribbing pad ., Load Capacity: >100 Ton",https://www.indiamart.com/proddetail/cribbing-pad-2853391491391.html?pos=52&kwd=baby pad&tags=CC||||9045.955||product|||TS|rsf:gd-|-stype:attr=1|qr_nm:gd|res:RC3|com-cf:nl|ptrs:na|ktp:N0|mc:55654|mtp:S|qry_typ:P|lang:en|wc:2|cs:8840|v=4,Khanna Polyrib Pvt. Ltd.,https://www.khannapolyrib.in/?pos=52&kwd=baby pad&tags=CC||||9045.955||product|||TS|rsf:gd-|-stype:attr=1|qr_nm:gd|res:RC3|com-cf:nl|ptrs:na|ktp:N0|mc:55654|mtp:S|qry_typ:P|lang:en|wc:2|cs:8840|v=4,False,Govind Nagar,Kanpur,"24/168 BIRHANA ROAD Phase 2, Govind Nagar, Kanpur - 208001, Uttar Pradesh",8048603144,
"Baby Nappies Pads, Size: Small, Age Group: Newly Born",https://www.indiamart.com/proddetail/baby-nappies-pads-2853333498162.html?pos=53&kwd=baby pad&tags=CC||||8823.154|Price|product|||TS|rsf:gd-|-stype:attr=1|qr_nm:gd|res:RC3|com-cf:nl|ptrs:na|ktp:N0|mc:55654|mtp:S|qry_typ:P|lang:en|wc:2|cs:8840|v=4,Shri Anant International,https://www.indiamart.com/shrianantinternational/?pos=53&kwd=baby pad&tags=CC||||8823.154|Price|product|||TS|rsf:gd-|-stype:attr=1|qr_nm:gd|res:RC3|com-cf:nl|ptrs:na|ktp:N0|mc:55654|mtp:S|qry_typ:P|lang:en|wc:2|cs:8840|v=4,False,DayalBagh,Agra,"No.02,House 2,Alkapuri Phase Ii,Agra, DayalBagh, Agra - 282005, Dist.Agra, Uttar Pradesh",7942721451,
Baby Knee Pad,https://www.indiamart.com/proddetail/baby-knee-pad-27602874462.html?pos=54&kwd=baby pad&tags=||||8752.144|Price|product|||TS|rsf:gd-|-stype:attr=1|qr_nm:gd|res:RC3|com-cf:nl|ptrs:na|ktp:N0|mc:55654|mtp:S|qry_typ:P|lang:en|wc:2|cs:8840|v=4,Jainone Hub,https://www.indiamart.com/jainonehub/?pos=54&kwd=baby pad&tags=||||8752.144|Price|product|||TS|rsf:gd-|-stype:attr=1|qr_nm:gd|res:RC3|com-cf:nl|ptrs:na|ktp:N0|mc:55654|mtp:S|qry_typ:P|lang:en|wc:2|cs:8840|v=4,False,Mandoli,New Delhi,"J- 8, Near Frooti Godown, Gali No. 4, Melaram Farm House Mandoli Sewadham Road, Mandoli, New Delhi - 110093, Dist.Delhi, Delhi",8048963941,
"Rectangle Blue Baby Slapped Pad, Packaging Type: Packet, 4 Months",https://www.indiamart.com/proddetail/baby-slapped-pad-2849422959333.html?pos=55&kwd=baby pad&tags=CC||||8741.812|Price|product|||MDC|rsf:gd-|-stype:attr=1|qr_nm:gd|res:RC3|com-cf:nl|ptrs:na|ktp:N0|mc:55654|mtp:S|qry_typ:P|lang:en|wc:2|cs:8840|v=4,Ravinch,https://www.indiamart.com/ravinch/?pos=55&kwd=baby pad&tags=CC||||8741.812|Price|product|||MDC|rsf:gd-|-stype:attr=1|qr_nm:gd|res:RC3|com-cf:nl|ptrs:na|ktp:N0|mc:55654|mtp:S|qry_typ:P|lang:en|wc:2|cs:8840|v=4,False,Rajeev Nagar,Gurugram,"H. No.-1112/13, Gali No.-3, Rajiv Nagar, Rajeev Nagar, Gurugram - 122001, Dist.Gurgaon, Haryana",8047798417,
Baby Cotton Changing Pad,https://www.indiamart.com/proddetail/baby-cotton-changing-pad-2854041418688.html?pos=56&kwd=baby pad&tags=CC||||9140.514|Price|product|||MDC|rsf:gd-|-stype:attr=1|qr_nm:gd|res:RC3|com-cf:nl|ptrs:na|ktp:N0|mc:55654|mtp:S|qry_typ:P|lang:en|wc:2|cs:8840|v=4,Shivay Trading & Manufacturing,https://www.indiamart.com/shivaytradingmanufacturing/?pos=56&kwd=baby pad&tags=CC||||9140.514|Price|product|||MDC|rsf:gd-|-stype:attr=1|qr_nm:gd|res:RC3|com-cf:nl|ptrs:na|ktp:N0|mc:55654|mtp:S|qry_typ:P|lang:en|wc:2|cs:8840|v=4,False,Pandri,Raipur,"Plot No.94, First Floor, Indira Gandhi Vyavsayik Parisar, Cloth Market, Pandri, Pandri, Raipur - 492001, Chhattisgarh",8044012762,
Rubber Baby Knee Pad,https://www.indiamart.com/proddetail/baby-knee-pad-2851855630755.html?pos=57&kwd=baby pad&tags=CC||||8785.791|Price|product|||MDC|rsf:gd-|-stype:attr=1|qr_nm:gd|res:RC3|com-cf:nl|ptrs:na|ktp:N0|mc:55654|mtp:S|qry_typ:P|lang:en|wc:2|cs:8840|v=4,Osail Corporation,https://www.indiamart.com/osail-corporation-india/?pos=57&kwd=baby pad&tags=CC||||8785.791|Price|product|||MDC|rsf:gd-|-stype:attr=1|qr_nm:gd|res:RC3|com-cf:nl|ptrs:na|ktp:N0|mc:55654|mtp:S|qry_typ:P|lang:en|wc:2|cs:8840|v=4,False,Maharajpur,Ghaziabad,"First Floor 38/2/20 Site 4, Sahibabad, Industrial Area, Maharajpur, Ghaziabad - 201010, Dist.Ghaziabad, Uttar Pradesh",8043837117,
"See Green Baby Knee Pads, Hand Wash",https://www.indiamart.com/proddetail/baby-knee-pads-21234123312.html?pos=58&kwd=baby pad&tags=CC||||8228.275|Price|product|||MDC|rsf:gd-|-stype:attr=1|qr_nm:gd|res:RC3|com-cf:nl|ptrs:na|ktp:N0|mc:55654|mtp:S|qry_typ:P|lang:en|wc:2|cs:8840|v=4,Dream Works,https://www.indiamart.com/dreamworks-ahmedabad/?pos=58&kwd=baby pad&tags=CC||||8228.275|Price|product|||MDC|rsf:gd-|-stype:attr=1|qr_nm:gd|res:RC3|com-cf:nl|ptrs:na|ktp:N0|mc:55654|mtp:S|qry_typ:P|lang:en|wc:2|cs:8840|v=4,False,Sanathal,Ahmedabad,"5,Chanakya Bunglows,Nr Lad Society Common Plot,Vastrapur, Sanathal, Ahmedabad - 380054, Dist.Ahmedabad, Gujarat",8047663803,
"Black,Red cotton Baby Knee Pad",https://www.indiamart.com/proddetail/baby-knee-pad-27444061330.html?pos=59&kwd=baby pad&tags=||||8752.144|Price|product|||TS|rsf:gd-|-stype:attr=1|qr_nm:gd|res:RC3|com-cf:nl|ptrs:na|ktp:N0|mc:55654|mtp:S|qry_typ:P|lang:en|wc:2|cs:8840|v=4,Inquantity,https://www.indiamart.com/inquantity/?pos=59&kwd=baby pad&tags=||||8752.144|Price|product|||TS|rsf:gd-|-stype:attr=1|qr_nm:gd|res:RC3|com-cf:nl|ptrs:na|ktp:N0|mc:55654|mtp:S|qry_typ:P|lang:en|wc:2|cs:8840|v=4,False,Shahdara,New Delhi,"1/6258, East Rohtash Nagar, Shahdara, Shahdara, New Delhi - 110032, Dist.Delhi, Delhi",8047620719,
"Sky Gel Unisex Baby Knee Pads, Normal Wash",https://www.indiamart.com/proddetail/unisex-baby-knee-pads-2851617551991.html?pos=60&kwd=baby pad&tags=||||8038.093|Price|product|||TS|rsf:gd-|-stype:attr=1|qr_nm:gd|res:RC3|com-cf:nl|ptrs:na|ktp:N0|mc:55654|mtp:S|qry_typ:P|lang:en|wc:2|cs:8840|v=4,Mahadevkrupa Texknit LLP,https://www.indiamart.com/mahadevkrupa-texknit/?pos=60&kwd=baby pad&tags=||||8038.093|Price|product|||TS|rsf:gd-|-stype:attr=1|qr_nm:gd|res:RC3|com-cf:nl|ptrs:na|ktp:N0|mc:55654|mtp:S|qry_typ:P|lang:en|wc:2|cs:8840|v=4,False,lajai,Rajkot,"Survey No. 625 Paiky 2, Opp Uma Industries, Hadmatiya Road, Lajai, Morbi, lajai, Rajkot - 363650, Dist.Rajkot, Gujarat",8048605500,
Foam Baby Knee Pad,https://www.indiamart.com/proddetail/baby-knee-pad-2853058748273.html?pos=61&kwd=baby pad&tags=CC||||8230.883|Price|product|||TS|rsf:gd-|-stype:attr=1|qr_nm:gd|res:RC3|com-cf:nl|ptrs:na|ktp:N0|mc:55654|mtp:S|qry_typ:P|lang:en|wc:2|cs:8840|v=4,Isabella (A Brand Of Shayona Creation),https://www.srkmart.com/?pos=61&kwd=baby pad&tags=CC||||8230.883|Price|product|||TS|rsf:gd-|-stype:attr=1|qr_nm:gd|res:RC3|com-cf:nl|ptrs:na|ktp:N0|mc:55654|mtp:S|qry_typ:P|lang:en|wc:2|cs:8840|v=4,False,Utran,Surat,"208, Turning Point Near Bank Of Baroda Bank, Utran, Surat - 394105, Dist.Surat, Gujarat",8046057635,
Foam Crawling Baby Knee Pad,https://www.indiamart.com/proddetail/crawling-baby-knee-pad-2853050515962.html?pos=62&kwd=baby pad&tags=CC||||8230.883|Price|product|||TS|rsf:gd-|-stype:attr=1|qr_nm:gd|res:RC3|com-cf:nl|ptrs:na|ktp:N0|mc:55654|mtp:S|qry_typ:P|lang:en|wc:2|cs:8840|v=4,Basketo,https://www.basketo.net/?pos=62&kwd=baby pad&tags=CC||||8230.883|Price|product|||TS|rsf:gd-|-stype:attr=1|qr_nm:gd|res:RC3|com-cf:nl|ptrs:na|ktp:N0|mc:55654|mtp:S|qry_typ:P|lang:en|wc:2|cs:8840|v=4,False,Singanpor,Surat,"PLOT NO-32,Laxmi Narayan Society,DABHOLI CHAR RASTA, VED ROAD,Surat, Singanpor, Surat - 395004, Dist.Surat, Gujarat",7942716532,
Foam Baby Knee,https://www.indiamart.com/proddetail/baby-knee-pad-2851231262330.html?pos=63&kwd=baby pad&tags=CC||||8741.812|Price|product|||TS|rsf:gd-|-stype:attr=1|qr_nm:gd|res:RC3|com-cf:nl|ptrs:na|ktp:N0|mc:55654|mtp:S|qry_typ:P|lang:en|wc:2|cs:8840|v=4,Vardaan International,https://www.indiamart.com/vardaan-international/?pos=63&kwd=baby pad&tags=CC||||8741.812|Price|product|||TS|rsf:gd-|-stype:attr=1|qr_nm:gd|res:RC3|com-cf:nl|ptrs:na|ktp:N0|mc:55654|mtp:S|qry_typ:P|lang:en|wc:2|cs:8840|v=4,False,Sector 52,Gurgaon,"Shop no 7 , Khasra No. 514 & 516 , Wazirabad , Sector 52 , Inside Ardee City Gate No 2 ,, Sector 52, Gurgaon - 122003, Dist.Gurgaon, Haryana",8048615385,
Chemical Nylon Baby Water Pad Baby Slapped Pad,https://www.indiamart.com/proddetail/chemical-nylon-baby-water-pad-baby-slapped-pad-25956933073.html?pos=64&kwd=baby pad&tags=CC||||8752.144|Price|product|||TS|rsf:gd-|-stype:attr=1|qr_nm:gd|res:RC3|com-cf:nl|ptrs:na|ktp:N0|mc:55654|mtp:S|qry_typ:P|lang:en|wc:2|cs:8840|v=4,Shiv Darshan Sansthan,https://www.shivdarshansansthan.com/?pos=64&kwd=baby pad&tags=CC||||8752.144|Price|product|||TS|rsf:gd-|-stype:attr=1|qr_nm:gd|res:RC3|com-cf:nl|ptrs:na|ktp:N0|mc:55654|mtp:S|qry_typ:P|lang:en|wc:2|cs:8840|v=4,False,Pandav Nagar,New Delhi,"Bunglow, Plot No. 10, Pandav Nagar, New Delhi - 110092, Dist.Delhi, Delhi",8048984990,
Foam Baby Knee Pad,https://www.indiamart.com/proddetail/baby-knee-pad-2854948880062.html?pos=65&kwd=baby pad&tags=||||8752.144|Price|product|||MDC|rsf:gd-|-stype:attr=1|qr_nm:gd|res:RC3|com-cf:nl|ptrs:na|ktp:N0|mc:55654|mtp:S|qry_typ:P|lang:en|wc:2|cs:8840|v=4,Priyanshi International,https://www.indiamart.com/priyanshi-international-uttarpradesh/?pos=65&kwd=baby pad&tags=||||8752.144|Price|product|||MDC|rsf:gd-|-stype:attr=1|qr_nm:gd|res:RC3|com-cf:nl|ptrs:na|ktp:N0|mc:55654|mtp:S|qry_typ:P|lang:en|wc:2|cs:8840|v=4,False,,New Delhi,"3,PROP NO S228,SCHOOL BLOCK,SHAKARPUR UGF, 3, Prop No S228, School Block, Shakarpur,110092, New Delhi - 110092, Dist.Delhi, Delhi",7942676139,
"Baby Toddlers Head Protective, Adjustable Infant Safety Pad for Baby Walkers Protective Head",https://www.indiamart.com/proddetail/baby-toddlers-head-protective-adjustable-infant-safety-pad-for-baby-walkers-protective-head-2854564309412.html?pos=66&kwd=baby pad&tags=CC||||8230.883|Price|product|||TS|rsf:gd-|-stype:attr=1|qr_nm:gd|res:RC3|com-cf:nl|ptrs:na|ktp:N0|mc:55654|mtp:S|qry_typ:P|lang:en|wc:2|cs:8840|v=4,Yaadgar Enterprise,https://www.indiamart.com/yaadgar-enterprise/?pos=66&kwd=baby pad&tags=CC||||8230.883|Price|product|||TS|rsf:gd-|-stype:attr=1|qr_nm:gd|res:RC3|com-cf:nl|ptrs:na|ktp:N0|mc:55654|mtp:S|qry_typ:P|lang:en|wc:2|cs:8840|v=4,False,Katargam,Surat,"3rd Floor, 124, Flat No. 302, Pushp Vatika Apartment Singanpor Road, Katargam, Surat - 395004, Dist.Surat, Gujarat",7942531767,
Foam Baby Knee Pad,https://www.indiamart.com/proddetail/baby-knee-pad-22837883630.html?pos=67&kwd=baby pad&tags=||||8230.883|Price|product|||TS|rsf:gd-|-stype:attr=1|qr_nm:gd|res:RC3|com-cf:nl|ptrs:na|ktp:N0|mc:55654|mtp:S|qry_typ:P|lang:en|wc:2|cs:8840|v=4,Glorious Enterprise,https://www.indiamart.com/glorious-enterprisesurat/?pos=67&kwd=baby pad&tags=||||8230.883|Price|product|||TS|rsf:gd-|-stype:attr=1|qr_nm:gd|res:RC3|com-cf:nl|ptrs:na|ktp:N0|mc:55654|mtp:S|qry_typ:P|lang:en|wc:2|cs:8840|v=4,False,Varachha Road,Surat,"2nd Floor, Plot No.126, Shraddha Raw House, Varachha Road, Sarthana Community Hall, Nana Varachha, Varachha Road, Surat - 395006, Dist.Surat, Gujarat",8047805064,
Multicolor Baby Knee Pad,https://www.indiamart.com/proddetail/baby-knee-pad-2851495921088.html?pos=68&kwd=baby pad&tags=||||8124.6323|Price|product|||TS|rsf:gd-|-stype:attr=1|qr_nm:gd|res:RC3|com-cf:nl|ptrs:na|ktp:N0|mc:55654|mtp:S|qry_typ:P|lang:en|wc:2|cs:8840|v=4,6 Zero 7 Zero Mart,https://www.6zero7zeromart.com/?pos=68&kwd=baby pad&tags=||||8124.6323|Price|product|||TS|rsf:gd-|-stype:attr=1|qr_nm:gd|res:RC3|com-cf:nl|ptrs:na|ktp:N0|mc:55654|mtp:S|qry_typ:P|lang:en|wc:2|cs:8840|v=4,False,Mohan Nagar,Botad,"01, Mohan Nagar, Dhakniya Road, Botad, Botad, Gujarat, 364710, Mohan Nagar, Botad - 364710, Dist.Bhavnagar, Gujarat",7942620760,
Rubber Crawling Baby Knee Pad,https://www.indiamart.com/proddetail/crawling-baby-knee-pad-2852702920362.html?pos=69&kwd=baby pad&tags=||||8211.142|Price|product|||TS|rsf:gd-|-stype:attr=1|qr_nm:gd|res:RC3|com-cf:nl|ptrs:na|ktp:N0|mc:55654|mtp:S|qry_typ:P|lang:en|wc:2|cs:8840|v=4,P For Panda Baby Products Private Limited,https://www.p4pandababyproducts.com/?pos=69&kwd=baby pad&tags=||||8211.142|Price|product|||TS|rsf:gd-|-stype:attr=1|qr_nm:gd|res:RC3|com-cf:nl|ptrs:na|ktp:N0|mc:55654|mtp:S|qry_typ:P|lang:en|wc:2|cs:8840|v=4,False,Goregaon West,Mumbai,"904 A Wing,9 Th Floor,Triple S Heights,Jakeria Road, Goregaon West, Mumbai - 400064, Dist.Mumbai, Maharashtra",7942710871,
Purplebabe Baby Napkin,https://www.indiamart.com/proddetail/baby-napkin-19454202030.html?pos=70&kwd=baby pad&tags=CC||||8626.744|Price|product|||TS|rsf:gd-|-stype:attr=1|qr_nm:gd|res:RC3|com-cf:nl|ptrs:na|ktp:N0|mc:55654|mtp:S|qry_typ:P|lang:en|wc:2|cs:8840|v=4,Midas Clothing Company,https://www.indiamart.com/midasclothing-company/?pos=70&kwd=baby pad&tags=CC||||8626.744|Price|product|||TS|rsf:gd-|-stype:attr=1|qr_nm:gd|res:RC3|com-cf:nl|ptrs:na|ktp:N0|mc:55654|mtp:S|qry_typ:P|lang:en|wc:2|cs:8840|v=4,False,Pooluvapatti,Tiruppur,"Ground Floor , A1, 8/1682, Thiru Nagar,pandian Nagar, P N Road,nerupperichal Village, Pooluvapatti, Tiruppur - 641602, Dist.Coimbatore, Tamil Nadu",8047640475,
"Baby Diaper Changing Pad, Large Waterproof Travel Changing Mat,For Toddlers Infants & Newborns",https://www.indiamart.com/proddetail/baby-diaper-changing-pad-large-waterproof-travel-changing-mat-for-toddlers-infants-newborns-22970745388.html?pos=71&kwd=baby pad&tags=CC||||8778.123|Price|product|||TS|rsf:gd-|-stype:attr=1|qr_nm:gd|res:RC3|com-cf:nl|ptrs:na|ktp:N0|mc:55654|mtp:S|qry_typ:P|lang:en|wc:2|cs:8840|v=4,Oscar Overseas,https://www.oscar-india.com/?pos=71&kwd=baby pad&tags=CC||||8778.123|Price|product|||TS|rsf:gd-|-stype:attr=1|qr_nm:gd|res:RC3|com-cf:nl|ptrs:na|ktp:N0|mc:55654|mtp:S|qry_typ:P|lang:en|wc:2|cs:8840|v=4,False,,Noida,"A-99 Sector 5, Noida - 201301, Dist.Gautam Budh Nagar, Uttar Pradesh",8046058290,
Foam Baby Crawling Anti-Slip Knee Pads Toddler Elbow Protectors Guards,https://www.indiamart.com/proddetail/baby-crawling-anti-slip-knee-pads-toddler-elbow-protectors-guards-2853641704912.html?pos=72&kwd=baby pad&tags=CC||||8230.883|Price|product|||MDC|rsf:gd-|-stype:attr=1|qr_nm:gd|res:RC3|com-cf:nl|ptrs:na|ktp:N0|mc:55654|mtp:S|qry_typ:P|lang:en|wc:2|cs:8840|v=4,Jnsm Spark,https://www.indiamart.com/jnsm-spark/?pos=72&kwd=baby pad&tags=CC||||8230.883|Price|product|||MDC|rsf:gd-|-stype:attr=1|qr_nm:gd|res:RC3|com-cf:nl|ptrs:na|ktp:N0|mc:55654|mtp:S|qry_typ:P|lang:en|wc:2|cs:8840|v=4,False,Dabholi,Surat,"3rd Floor Flat-302, Shukan Valley BLDG-F, OPP Hari Darshan, Dabholi Road, Dabholi, Surat - 395004, Dist.Surat, Gujarat",8045166587,
"Nonwoven Disposable Baby Diaper Pads in loose packing pack of 40, Age Group: 3-12 Months",https://www.indiamart.com/proddetail/baby-diaper-pads-in-loose-packing-pack-of-40-3613867855.html?pos=73&kwd=baby pad&tags=||||8242.731|Price|product|||MDC|rsf:gd-|-stype:attr=1|qr_nm:gd|res:RC3|com-cf:nl|ptrs:na|ktp:N0|mc:55654|mtp:S|qry_typ:P|lang:en|wc:2|cs:8840|v=4,Moti Enterprises,https://www.indiamart.com/moti-enterprises/?pos=73&kwd=baby pad&tags=||||8242.731|Price|product|||MDC|rsf:gd-|-stype:attr=1|qr_nm:gd|res:RC3|com-cf:nl|ptrs:na|ktp:N0|mc:55654|mtp:S|qry_typ:P|lang:en|wc:2|cs:8840|v=4,False,Sidhi Vinayak Nagar,Ulhasnagar,"B. K. 424, Room No. 8, Behind Heera Panna Building, Sidhi Vinayak Nagar, Ulhasnagar - 421001, Dist.Thane, Maharashtra",8046068234,
Gel Baby Knee Pad,https://www.indiamart.com/proddetail/baby-knee-pad-2853689451312.html?pos=74&kwd=baby pad&tags=||||8752.144|Price|product|||TS|rsf:gd-|-stype:attr=1|qr_nm:gd|res:RC3|com-cf:nl|ptrs:na|ktp:N0|mc:55654|mtp:S|qry_typ:P|lang:en|wc:2|cs:8840|v=4,B S Enterprise,https://www.bsenterpriseindia.co.in/?pos=74&kwd=baby pad&tags=||||8752.144|Price|product|||TS|rsf:gd-|-stype:attr=1|qr_nm:gd|res:RC3|com-cf:nl|ptrs:na|ktp:N0|mc:55654|mtp:S|qry_typ:P|lang:en|wc:2|cs:8840|v=4,False,Burari,New Delhi,"First Floor Plot No.65 Mustail No.17, Killa No.5/2, Burari, New Delhi - 110084, Dist.Delhi, Delhi",7949090899,
Foam Little monkeys Baby Knee Pads for Crawling,https://www.indiamart.com/proddetail/little-monkeys-baby-knee-pads-for-crawling-2851558424455.html?pos=75&kwd=baby pad&tags=||||8752.144|Price|product|||TS|rsf:gd-|-stype:attr=1|qr_nm:gd|res:RC3|com-cf:nl|ptrs:na|ktp:N0|mc:55654|mtp:S|qry_typ:P|lang:en|wc:2|cs:8840|v=4,Ekta Overseas,https://www.indiamart.com/ektaoverseas-newdelhi/?pos=75&kwd=baby pad&tags=||||8752.144|Price|product|||TS|rsf:gd-|-stype:attr=1|qr_nm:gd|res:RC3|com-cf:nl|ptrs:na|ktp:N0|mc:55654|mtp:S|qry_typ:P|lang:en|wc:2|cs:8840|v=4,False,Shahdara,New Delhi,"1/95, Gali No.3, Near Navjeevan Phisical Center, Vishwas Nagar, Shahdara,, Shahdara, New Delhi - 110032, Dist.Delhi, Delhi",7942628926,
"Multicolor COTTON Baby Knee Pad, Cold Wash Onlu",https://www.indiamart.com/proddetail/baby-knee-pad-22238020312.html?pos=76&kwd=baby pad&tags=||||8230.883|Price|product|||TS|rsf:gd-|-stype:attr=1|qr_nm:gd|res:RC3|com-cf:nl|ptrs:na|ktp:N0|mc:55654|mtp:S|qry_typ:P|lang:en|wc:2|cs:8840|v=4,Clomana,https://www.clomana.in/?pos=76&kwd=baby pad&tags=||||8230.883|Price|product|||TS|rsf:gd-|-stype:attr=1|qr_nm:gd|res:RC3|com-cf:nl|ptrs:na|ktp:N0|mc:55654|mtp:S|qry_typ:P|lang:en|wc:2|cs:8840|v=4,False,Katargam,Surat,"Shed No. 2, Sy. No. 310, Patel Falia, Katargam, Katargam, Surat - 395004, Dist.Surat, Gujarat",8048984393,
Woolen And Elastic Baby Knee Pad,https://www.indiamart.com/proddetail/baby-knee-pad-25555034012.html?pos=77&kwd=baby pad&tags=||||8752.144|Price|product|||MDC|rsf:gd-|-stype:attr=1|qr_nm:gd|res:RC3|com-cf:nl|ptrs:na|ktp:N0|mc:55654|mtp:S|qry_typ:P|lang:en|wc:2|cs:8840|v=4,Honey Bell Enterprises,https://www.indiamart.com/honey-bell-enterprises/?pos=77&kwd=baby pad&tags=||||8752.144|Price|product|||MDC|rsf:gd-|-stype:attr=1|qr_nm:gd|res:RC3|com-cf:nl|ptrs:na|ktp:N0|mc:55654|mtp:S|qry_typ:P|lang:en|wc:2|cs:8840|v=4,False,Shastri Nagar,New Delhi,"House No.39/1, Plot No.39,Ground Floor Block E-2, Shastri Nagar, Shastri Nagar, New Delhi - 110052, Dist.Delhi, Delhi",8048971968,
Mix Size Fabric Baby Knee Pads,https://www.indiamart.com/proddetail/baby-knee-pads-22066270433.html?pos=78&kwd=baby pad&tags=||||8752.144|Price|product|||TS|rsf:gd-|-stype:attr=1|qr_nm:gd|res:RC3|com-cf:nl|ptrs:na|ktp:N0|mc:55654|mtp:S|qry_typ:P|lang:en|wc:2|cs:8840|v=4,LBM Import India,https://www.indiamart.com/lbmimportindia/?pos=78&kwd=baby pad&tags=||||8752.144|Price|product|||TS|rsf:gd-|-stype:attr=1|qr_nm:gd|res:RC3|com-cf:nl|ptrs:na|ktp:N0|mc:55654|mtp:S|qry_typ:P|lang:en|wc:2|cs:8840|v=4,False,Shastri Nagar,New Delhi,"House No. 253, Block E-2, Shastri Nagar, New Delhi - 110052, Dist.Delhi, Delhi",8046032633,
"Woolen Baby Knee Pad, Hand Wash",https://www.indiamart.com/proddetail/baby-knee-pad-25018812297.html?pos=79&kwd=baby pad&tags=||||8741.812|Price|product|||TS|rsf:gd-|-stype:attr=1|qr_nm:gd|res:RC3|com-cf:nl|ptrs:na|ktp:N0|mc:55654|mtp:S|qry_typ:P|lang:en|wc:2|cs:8840|v=4,Trb Company,https://www.trbindia.com/?pos=79&kwd=baby pad&tags=||||8741.812|Price|product|||TS|rsf:gd-|-stype:attr=1|qr_nm:gd|res:RC3|com-cf:nl|ptrs:na|ktp:N0|mc:55654|mtp:S|qry_typ:P|lang:en|wc:2|cs:8840|v=4,False,Malibu Town,Gurgaon,"2nd Floor Sf-221 Village Tikri, Sohna Road It Complex, Jmd Megapolis, Malibu Town, Gurgaon - 122018, Dist.Gurgaon, Haryana",8047307926,
"Multicolor Rubber Baby Knee Pad, Washable",https://www.indiamart.com/proddetail/baby-knee-pad-2851392230748.html?pos=80&kwd=baby pad&tags=||||8168.6484|Price|product|||TS|rsf:gd-|-stype:attr=1|qr_nm:gd|res:RC3|com-cf:nl|ptrs:na|ktp:N0|mc:55654|mtp:S|qry_typ:P|lang:en|wc:2|cs:8840|v=4,D.K. Enterprise,https://www.indiamart.com/dkenterprise-bhavnagar/?pos=80&kwd=baby pad&tags=||||8168.6484|Price|product|||TS|rsf:gd-|-stype:attr=1|qr_nm:gd|res:RC3|com-cf:nl|ptrs:na|ktp:N0|mc:55654|mtp:S|qry_typ:P|lang:en|wc:2|cs:8840|v=4,False,Bhavnagar,Bhavnagar,"Plot No. 161/a, Gatorbhai Kanzariya Vijayrajnagar, Bhavnagar, Bhavnagar - 364001, Dist.Bhavnagar, Gujarat",7942843262,
"Multicolor Cotton Baby Knee Pad, Dry Clean",https://www.indiamart.com/proddetail/baby-knee-pad-23992834988.html?pos=81&kwd=baby pad&tags=||||8230.883|Price|product|||TS|rsf:gd-|-stype:attr=1|qr_nm:gd|res:RC3|com-cf:nl|ptrs:na|ktp:N0|mc:55654|mtp:S|qry_typ:P|lang:en|wc:2|cs:8840|v=4,Jalaram Enterprise,https://www.indiamart.com/jalaram-enterprise-gujarat/?pos=81&kwd=baby pad&tags=||||8230.883|Price|product|||TS|rsf:gd-|-stype:attr=1|qr_nm:gd|res:RC3|com-cf:nl|ptrs:na|ktp:N0|mc:55654|mtp:S|qry_typ:P|lang:en|wc:2|cs:8840|v=4,False,Katargam,Surat,"Kshama Society 237 AK. Road Near Dharam Nagar, Katargam, Surat - 395008, Dist.Surat, Gujarat",8048950859,
COTTON Baby Knee Pad,https://www.indiamart.com/proddetail/baby-knee-pad-24343672497.html?pos=82&kwd=baby pad&tags=||||8752.144|Price|product|||TS|rsf:gd-|-stype:attr=1|qr_nm:gd|res:RC3|com-cf:nl|ptrs:na|ktp:N0|mc:55654|mtp:S|qry_typ:P|lang:en|wc:2|cs:8840|v=4,Sultan Enterprises,https://www.indiamart.com/sultanenterprises-newdelhi/?pos=82&kwd=baby pad&tags=||||8752.144|Price|product|||TS|rsf:gd-|-stype:attr=1|qr_nm:gd|res:RC3|com-cf:nl|ptrs:na|ktp:N0|mc:55654|mtp:S|qry_typ:P|lang:en|wc:2|cs:8840|v=4,False,Tigri Extension,New Delhi,"414/ 9, Block - E, 7A, Sangam Vihar, Tigri Extension, New Delhi - 110062, Dist.Delhi, Delhi",8048954887,
"Cotton Baby Knee Pad, Handwash",https://www.indiamart.com/proddetail/baby-knee-pad-23718873773.html?pos=83&kwd=baby pad&tags=||||8211.142|Price|product|||TS|rsf:gd-|-stype:attr=1|qr_nm:gd|res:RC3|com-cf:nl|ptrs:na|ktp:N0|mc:55654|mtp:S|qry_typ:P|lang:en|wc:2|cs:8840|v=4,ZU ENTERPRISES,https://www.zuenterprises.in/?pos=83&kwd=baby pad&tags=||||8211.142|Price|product|||TS|rsf:gd-|-stype:attr=1|qr_nm:gd|res:RC3|com-cf:nl|ptrs:na|ktp:N0|mc:55654|mtp:S|qry_typ:P|lang:en|wc:2|cs:8840|v=4,False,MA Sarang marg,Mumbai,"Plot-31,Mohammadi House 4,Floor-Grd, Tandel Street South Khadak MA Sarang Marg, Chinchb, MA Sarang marg, Mumbai - 400009, Dist.Mumbai, Maharashtra",8048980079,
"Multicolor Cotton Baby Knee Pad For Crawling, Machine And Hand Wash",https://www.indiamart.com/proddetail/baby-knee-pad-for-crawling-23021323912.html?pos=84&kwd=baby pad&tags=||||8228.275|Price|product|||TS|rsf:gd-|-stype:attr=1|qr_nm:gd|res:RC3|com-cf:nl|ptrs:na|ktp:N0|mc:55654|mtp:S|qry_typ:P|lang:en|wc:2|cs:8840|v=4,Vitus International,https://www.indiamart.com/vitus-international/?pos=84&kwd=baby pad&tags=||||8228.275|Price|product|||TS|rsf:gd-|-stype:attr=1|qr_nm:gd|res:RC3|com-cf:nl|ptrs:na|ktp:N0|mc:55654|mtp:S|qry_typ:P|lang:en|wc:2|cs:8840|v=4,False,Chamanpura,Ahmedabad,"21-D, Block - C Sumel Business Park 5, Chamanpura, Ahmedabad - 380016, Dist.Ahmedabad, Gujarat",8046045482,
Rubber Baby Knee Pad,https://www.indiamart.com/proddetail/baby-knee-pad-2851855630755.html?pos=85&kwd=baby pad&tags=||||8785.791|Price|product|||MDC|rsf:gd-|-stype:attr=1|qr_nm:gd|res:RC3|com-cf:nl|ptrs:na|ktp:N0|mc:55654|mtp:S|qry_typ:P|lang:en|wc:2|cs:8840|v=4,Osail Corporation,https://www.indiamart.com/osail-corporation-india/?pos=85&kwd=baby pad&tags=||||8785.791|Price|product|||MDC|rsf:gd-|-stype:attr=1|qr_nm:gd|res:RC3|com-cf:nl|ptrs:na|ktp:N0|mc:55654|mtp:S|qry_typ:P|lang:en|wc:2|cs:8840|v=4,False,Maharajpur,Ghaziabad,"First Floor 38/2/20 Site 4, Sahibabad, Industrial Area, Maharajpur, Ghaziabad - 201010, Dist.Ghaziabad, Uttar Pradesh",8043837117,
"Multicolor Cotton Baby Knee Pads for Crawling, Anti-Slip Padded",https://www.indiamart.com/proddetail/baby-knee-pads-for-crawling-anti-slip-padded-2849629091073.html?pos=86&kwd=baby pad&tags=||||8230.883|Price|product|||TS|rsf:gd-|-stype:attr=1|qr_nm:gd|res:RC3|com-cf:nl|ptrs:na|ktp:N0|mc:55654|mtp:S|qry_typ:P|lang:en|wc:2|cs:8840|v=4,M. Khodiyar Fashion,https://www.mkhodiyarfashion.com/?pos=86&kwd=baby pad&tags=||||8230.883|Price|product|||TS|rsf:gd-|-stype:attr=1|qr_nm:gd|res:RC3|com-cf:nl|ptrs:na|ktp:N0|mc:55654|mtp:S|qry_typ:P|lang:en|wc:2|cs:8840|v=4,False,Singanpor,Surat,"243-244, GR FL, Shree Krushna Nagar SOC, NR. Multy Purpose Hall, Singanpore Road, Singanpor, Surat - 395004, Dist.Surat, Gujarat",7942791367,
"Multicolor Smooth Coton Baby Knee Pads, Yas",https://www.indiamart.com/proddetail/baby-knee-pads-20997792962.html?pos=87&kwd=baby pad&tags=||||8230.883|Price|product|||TS|rsf:gd-|-stype:attr=1|qr_nm:gd|res:RC3|com-cf:nl|ptrs:na|ktp:N0|mc:55654|mtp:S|qry_typ:P|lang:en|wc:2|cs:8840|v=4,Cheaperzone Ecom LLP,https://www.cheaperzonewholesale.com/?pos=87&kwd=baby pad&tags=||||8230.883|Price|product|||TS|rsf:gd-|-stype:attr=1|qr_nm:gd|res:RC3|com-cf:nl|ptrs:na|ktp:N0|mc:55654|mtp:S|qry_typ:P|lang:en|wc:2|cs:8840|v=4,False,,Surat,"SY-108,109,PAIKI WEST SIDE,DABHOLI MAIN ROAD,Surat, Surat - 395004, Dist.Surat, Gujarat",8048985824,
"Foam Baby Knee Pad Crawling, Newly Born",https://www.indiamart.com/proddetail/crawling-baby-knee-pad-2853670482862.html?pos=88&kwd=baby pad&tags=||||8663.873|Price|product|||MDC|rsf:gd-|-stype:attr=1|qr_nm:gd|res:RC3|com-cf:nl|ptrs:na|ktp:N0|mc:55654|mtp:S|qry_typ:P|lang:en|wc:2|cs:8840|v=4,Nipika Vrapped Gifting,https://www.indiamart.com/nipika-vrapped-gifting/?pos=88&kwd=baby pad&tags=||||8663.873|Price|product|||MDC|rsf:gd-|-stype:attr=1|qr_nm:gd|res:RC3|com-cf:nl|ptrs:na|ktp:N0|mc:55654|mtp:S|qry_typ:P|lang:en|wc:2|cs:8840|v=4,False,Bengaluru Urban,Bengaluru,"9/1, 23rd Cross Road, Magadi Road, KP Agrahara, Bengaluru Urban, Bengaluru - 560023, Dist.Bengaluru, Karnataka",7949328723,
"Multicolor Kneetted Cotton Baby Knee Pad For Crawling, Safe",https://www.indiamart.com/proddetail/baby-knee-pad-for-crawling-23333138333.html?pos=89&kwd=baby pad&tags=||||8223.226|Price|product|||MDC|rsf:gd-|-stype:attr=1|qr_nm:gd|res:RC3|com-cf:nl|ptrs:na|ktp:N0|mc:55654|mtp:S|qry_typ:P|lang:en|wc:2|cs:8840|v=4,All In 1 Store,https://www.indiamart.com/allin1store/?pos=89&kwd=baby pad&tags=||||8223.226|Price|product|||MDC|rsf:gd-|-stype:attr=1|qr_nm:gd|res:RC3|com-cf:nl|ptrs:na|ktp:N0|mc:55654|mtp:S|qry_typ:P|lang:en|wc:2|cs:8840|v=4,False,Mira Road,Thane,"Opp.Sector-2, 5th, Flat No.501 , Bldg No.A-14, Shanti Vihar Bldg No. A-13-14-15, Co.OP.HSG.Soc.Ltd, 100 Feet Road, Mira Road East, Mira Bhayandar,, Mira Road, Thane - 401107, Dist.Thane, Maharashtra",8046046443,
Ball Print Baby Knee Pads for Crawling Anti-Slip Soft Cotton Comfortable Knee Cap,https://www.indiamart.com/proddetail/ball-print-baby-knee-pads-for-crawling-anti-slip-soft-cotton-comfortable-knee-cap-2853162911430.html?pos=90&kwd=baby pad&tags=||||8230.883|Price|product|||MDC|rsf:gd-|-stype:attr=1|qr_nm:gd|res:RC3|com-cf:nl|ptrs:na|ktp:N0|mc:55654|mtp:S|qry_typ:P|lang:en|wc:2|cs:8840|v=4,Beyond Unique Enterprises,https://www.indiamart.com/beyonduniqueenterprises/?pos=90&kwd=baby pad&tags=||||8230.883|Price|product|||MDC|rsf:gd-|-stype:attr=1|qr_nm:gd|res:RC3|com-cf:nl|ptrs:na|ktp:N0|mc:55654|mtp:S|qry_typ:P|lang:en|wc:2|cs:8840|v=4,False,Katargam,Surat,"180, Bhagwan Nagar Society, Ved Nagar Char Rasta, Magan Nagar 2 Ni Pachhal, Katargam, Katargam, Surat - 395004, Dist.Surat, Gujarat",8047527253,
"Baby Knee pads, Protective Pad",https://www.indiamart.com/proddetail/baby-knee-pads-2854639741888.html?pos=91&kwd=baby pad&tags=||||8785.791|Price|product|||MDC|rsf:gd-|-stype:attr=1|qr_nm:gd|res:RC3|com-cf:nl|ptrs:na|ktp:N0|mc:55654|mtp:S|qry_typ:P|lang:en|wc:2|cs:8840|v=4,R M Traders,https://www.indiamart.com/rm-tradersghaziabad/?pos=91&kwd=baby pad&tags=||||8785.791|Price|product|||MDC|rsf:gd-|-stype:attr=1|qr_nm:gd|res:RC3|com-cf:nl|ptrs:na|ktp:N0|mc:55654|mtp:S|qry_typ:P|lang:en|wc:2|cs:8840|v=4,False,,Ghaziabad,"H.No-77 Naveen Kunj Loni, Ghaziabad - 201102, Dist.Ghaziabad, Uttar Pradesh",8047676934,
Baby Knee Pad,https://www.indiamart.com/proddetail/baby-knee-pad-2853640835448.html?pos=92&kwd=baby pad&tags=||||8228.275|Price|product|||TS|rsf:gd-|-stype:attr=1|qr_nm:gd|res:RC3|com-cf:nl|ptrs:na|ktp:N0|mc:55654|mtp:S|qry_typ:P|lang:en|wc:2|cs:8840|v=4,JSPM Traders,https://www.jspmtraders.com/?pos=92&kwd=baby pad&tags=||||8228.275|Price|product|||TS|rsf:gd-|-stype:attr=1|qr_nm:gd|res:RC3|com-cf:nl|ptrs:na|ktp:N0|mc:55654|mtp:S|qry_typ:P|lang:en|wc:2|cs:8840|v=4,False,Dudheshwar,Ahmedabad,"407, 4th, Block-B, Sumel Business Park-9, Dudheshwar, Dudheshwar, Ahmedabad - 380004, Dist.Ahmedabad, Gujarat",8045908277,
Cotton Baby Knee Pad,https://www.indiamart.com/proddetail/baby-knee-pad-27430514688.html?pos=93&kwd=baby pad&tags=||||8752.144|Price|product|||TS|rsf:gd-|-stype:attr=1|qr_nm:gd|res:RC3|com-cf:nl|ptrs:na|ktp:N0|mc:55654|mtp:S|qry_typ:P|lang:en|wc:2|cs:8840|v=4,Chinmay Kids,https://www.indiamart.com/chinmaykids/?pos=93&kwd=baby pad&tags=||||8752.144|Price|product|||TS|rsf:gd-|-stype:attr=1|qr_nm:gd|res:RC3|com-cf:nl|ptrs:na|ktp:N0|mc:55654|mtp:S|qry_typ:P|lang:en|wc:2|cs:8840|v=4,False,Nayagaon,New Delhi,"C-99, Street No. 4, First Pusta, Nayagaon, New Delhi - 110053, Dist.Delhi, Delhi",8046054858,
Baby Knee Pad,https://www.indiamart.com/proddetail/baby-knee-pad-2854783665248.html?pos=94&kwd=baby pad&tags=||||9189.305|Price|product|||TS|rsf:gd-|-stype:attr=1|qr_nm:gd|res:RC3|com-cf:nl|ptrs:na|ktp:N0|mc:55654|mtp:S|qry_typ:P|lang:en|wc:2|cs:8840|v=4,Sk Enterprises,https://www.indiamart.com/s-k-enterprises-allahabad/?pos=94&kwd=baby pad&tags=||||9189.305|Price|product|||TS|rsf:gd-|-stype:attr=1|qr_nm:gd|res:RC3|com-cf:nl|ptrs:na|ktp:N0|mc:55654|mtp:S|qry_typ:P|lang:en|wc:2|cs:8840|v=4,False,,Prayagraj,"503 Katra Prayagraj, Prayagraj - 211002, Dist.Allahabad, Uttar Pradesh",8044460718,
Knee Pad For Baby,https://www.indiamart.com/proddetail/knee-pad-for-baby-2854368017855.html?pos=95&kwd=baby pad&tags=||||8230.883|Price|product|||TS|rsf:gd-|-stype:attr=1|qr_nm:gd|res:RC3|com-cf:nl|ptrs:na|ktp:N0|mc:55654|mtp:S|qry_typ:P|lang:en|wc:2|cs:8840|v=4,Iscon Mart,https://www.indiamart.com/iscon-mart-gujarat/?pos=95&kwd=baby pad&tags=||||8230.883|Price|product|||TS|rsf:gd-|-stype:attr=1|qr_nm:gd|res:RC3|com-cf:nl|ptrs:na|ktp:N0|mc:55654|mtp:S|qry_typ:P|lang:en|wc:2|cs:8840|v=4,False,,Surat,"518 the gallery business hub 2 near mahavir chikuvadi nana varachha surat -395006, Surat - 395010, Dist.Surat, Gujarat",8045736488,
"Multicolor Cotton Baby Knee Pad, Manual",https://www.indiamart.com/proddetail/baby-knee-pad-23148703812.html?pos=96&kwd=baby pad&tags=||||8752.144|Price|product|||TS|rsf:gd-|-stype:attr=1|qr_nm:gd|res:RC3|com-cf:nl|ptrs:na|ktp:N0|mc:55654|mtp:S|qry_typ:P|lang:en|wc:2|cs:8840|v=4,Ks Enterprises,https://www.indiamart.com/ks-enterprisesnew-delhi/?pos=96&kwd=baby pad&tags=||||8752.144|Price|product|||TS|rsf:gd-|-stype:attr=1|qr_nm:gd|res:RC3|com-cf:nl|ptrs:na|ktp:N0|mc:55654|mtp:S|qry_typ:P|lang:en|wc:2|cs:8840|v=4,False,Vijay Park,New Delhi,"137 MAUJPUR KACHCHI COLONY DELHI North East, Vijay Park, New Delhi - 110053, Dist.Delhi, Delhi",8046035810,
Multicolor Cotten BABY KNEE PAD,https://www.indiamart.com/proddetail/baby-knee-pad-24058694112.html?pos=97&kwd=baby pad&tags=||||8230.883|Price|product|||TS|rsf:gd-|-stype:attr=1|qr_nm:gd|res:RC3|com-cf:nl|ptrs:na|ktp:N0|mc:55654|mtp:S|qry_typ:P|lang:en|wc:2|cs:8840|v=4,Mahant,https://www.themahant.com/?pos=97&kwd=baby pad&tags=||||8230.883|Price|product|||TS|rsf:gd-|-stype:attr=1|qr_nm:gd|res:RC3|com-cf:nl|ptrs:na|ktp:N0|mc:55654|mtp:S|qry_typ:P|lang:en|wc:2|cs:8840|v=4,False,Katargam,Surat,"E-1103, Shukan Heights, Opp, Kantareshwar Hanuman Temple, Singanpore, Katargam, Surat - 395004, Dist.Surat, Gujarat",8048954505,
"Rubber Baby Knee Pad, Head Guard",https://www.indiamart.com/proddetail/baby-knee-pad-2854028352988.html?pos=98&kwd=baby pad&tags=||||8230.883|Price|product|||TS|rsf:gd-|-stype:attr=1|qr_nm:gd|res:RC3|com-cf:nl|ptrs:na|ktp:N0|mc:55654|mtp:S|qry_typ:P|lang:en|wc:2|cs:8840|v=4,Shree Lalankrupa Enterprise,https://www.indiamart.com/shree-lalankrupa-enterprise/?pos=98&kwd=baby pad&tags=||||8230.883|Price|product|||TS|rsf:gd-|-stype:attr=1|qr_nm:gd|res:RC3|com-cf:nl|ptrs:na|ktp:N0|mc:55654|mtp:S|qry_typ:P|lang:en|wc:2|cs:8840|v=4,False,Punagam,Surat,"132 Punagam Gautam Park Soc Chorasi Surat, Punagam, Surat - 395010, Dist.Surat, Gujarat",8044562706,
Rubber Baby Knee Pad,https://www.indiamart.com/proddetail/baby-knee-pad-2851887761291.html?pos=99&kwd=baby pad&tags=||||8752.144|Price|product|||TS|rsf:gd-|-stype:attr=1|qr_nm:gd|res:RC3|com-cf:nl|ptrs:na|ktp:N0|mc:55654|mtp:S|qry_typ:P|lang:en|wc:2|cs:8840|v=4,Liyana Collection,https://www.liyanacollection.in/?pos=99&kwd=baby pad&tags=||||8752.144|Price|product|||TS|rsf:gd-|-stype:attr=1|qr_nm:gd|res:RC3|com-cf:nl|ptrs:na|ktp:N0|mc:55654|mtp:S|qry_typ:P|lang:en|wc:2|cs:8840|v=4,False,Naharpur Village,New Delhi,"rohini, Naharpur Village, New Delhi - 110085, Dist.Delhi, Delhi",8045908453,
Baby Knee Pad,https://www.indiamart.com/proddetail/baby-knee-pad-2855090876655.html?pos=100&kwd=baby pad&tags=||||8230.883|Price|product|||TS|rsf:gd-|-stype:attr=1|qr_nm:gd|res:RC3|com-cf:nl|ptrs:na|ktp:N0|mc:55654|mtp:S|qry_typ:P|lang:en|wc:2|cs:8840|v=4,Willsbury,https://www.willsbury.in/?pos=100&kwd=baby pad&tags=||||8230.883|Price|product|||TS|rsf:gd-|-stype:attr=1|qr_nm:gd|res:RC3|com-cf:nl|ptrs:na|ktp:N0|mc:55654|mtp:S|qry_typ:P|lang:en|wc:2|cs:8840|v=4,False,Katargam,Surat,"Ground Floor B-68 B/h Health Center, Katargam Ambikanagar Society, Katargam, Surat - 395004, Dist.Surat, Gujarat",8045165949,
"Multicolor Rubber Baby knee pad, Normal Wash",https://www.indiamart.com/proddetail/baby-knee-pad-2850414537473.html?pos=101&kwd=baby pad&tags=||||8752.144|Price|product|||TS|rsf:gd-|-stype:attr=1|qr_nm:gd|res:RC3|com-cf:nl|ptrs:na|ktp:N0|mc:55654|mtp:S|qry_typ:P|lang:en|wc:2|cs:8840|v=4,Any Time Buy,https://www.anytimebuy.in/?pos=101&kwd=baby pad&tags=||||8752.144|Price|product|||TS|rsf:gd-|-stype:attr=1|qr_nm:gd|res:RC3|com-cf:nl|ptrs:na|ktp:N0|mc:55654|mtp:S|qry_typ:P|lang:en|wc:2|cs:8840|v=4,False,Azadpur,New Delhi,"A-17, Gopal Nagar, Azadpur, Near Azadpur Flyover, Azadpur, New Delhi - 110033, Dist.Delhi, Delhi",8048604167,
Baby Knee Pad,https://www.indiamart.com/proddetail/baby-knee-pad-23546633512.html?pos=102&kwd=baby pad&tags=||||8752.144|Price|product|||TS|rsf:gd-|-stype:attr=1|qr_nm:gd|res:RC3|com-cf:nl|ptrs:na|ktp:N0|mc:55654|mtp:S|qry_typ:P|lang:en|wc:2|cs:8840|v=4,Viyasha Enterprises,https://www.viyashaenterprise.com/?pos=102&kwd=baby pad&tags=||||8752.144|Price|product|||TS|rsf:gd-|-stype:attr=1|qr_nm:gd|res:RC3|com-cf:nl|ptrs:na|ktp:N0|mc:55654|mtp:S|qry_typ:P|lang:en|wc:2|cs:8840|v=4,False,Shastri Nagar,New Delhi,"E2- 45, Shastri Nagar, Gali No. 1, Shastri Nagar, New Delhi - 110052, Dist.Delhi, Delhi",8048952187,
Pista Green Soft Cotton Baby Knee Pad,https://www.indiamart.com/proddetail/baby-knee-pad-26334315348.html?pos=103&kwd=baby pad&tags=||||8230.883|Price|product|||TS|rsf:gd-|-stype:attr=1|qr_nm:gd|res:RC3|com-cf:nl|ptrs:na|ktp:N0|mc:55654|mtp:S|qry_typ:P|lang:en|wc:2|cs:8840|v=4,Gadhiya Impex.,https://www.gadhiyaimpex.com/?pos=103&kwd=baby pad&tags=||||8230.883|Price|product|||TS|rsf:gd-|-stype:attr=1|qr_nm:gd|res:RC3|com-cf:nl|ptrs:na|ktp:N0|mc:55654|mtp:S|qry_typ:P|lang:en|wc:2|cs:8840|v=4,False,Katargam,Surat,"8th, 804, Variav Road, Panchshila Sky, Katargam, Surat - 394520, Dist.Surat, Gujarat",8047619805,
"Multicolor Cotton Baby Knee Pad, Washable",https://www.indiamart.com/proddetail/baby-knee-pad-2849614687788.html?pos=104&kwd=baby pad&tags=||||8752.144|Price|product|||TS|rsf:gd-|-stype:attr=1|qr_nm:gd|res:RC3|com-cf:nl|ptrs:na|ktp:N0|mc:55654|mtp:S|qry_typ:P|lang:en|wc:2|cs:8840|v=4,Kalu Baba Enterprises,https://www.kalubabaenterprises.com/?pos=104&kwd=baby pad&tags=||||8752.144|Price|product|||TS|rsf:gd-|-stype:attr=1|qr_nm:gd|res:RC3|com-cf:nl|ptrs:na|ktp:N0|mc:55654|mtp:S|qry_typ:P|lang:en|wc:2|cs:8840|v=4,False,Burari,New Delhi,"Plot no 1, Ground floor, khasra no 104/13, Sant Nagar,Village Burari, New delhi, Burari, New Delhi - 110084, Dist.Delhi, Delhi",8046060404,
Gel Baby Knee Pad,https://www.indiamart.com/proddetail/baby-knee-pad-2852522813930.html?pos=105&kwd=baby pad&tags=||||8785.791|Price|product|||TS|rsf:gd-|-stype:attr=1|qr_nm:gd|res:RC3|com-cf:nl|ptrs:na|ktp:N0|mc:55654|mtp:S|qry_typ:P|lang:en|wc:2|cs:8840|v=4,Paras Enterprises,https://www.claoberry.com/?pos=105&kwd=baby pad&tags=||||8785.791|Price|product|||TS|rsf:gd-|-stype:attr=1|qr_nm:gd|res:RC3|com-cf:nl|ptrs:na|ktp:N0|mc:55654|mtp:S|qry_typ:P|lang:en|wc:2|cs:8840|v=4,False,Raj Nagar Extension,Ghaziabad,"KH.NO.-2565,VILLAGE KARHERA,MOHAN NAGAR,Ghaziabad, Raj Nagar Extension, Ghaziabad - 201007, Dist.Ghaziabad, Uttar Pradesh",8043862487,
Foam Baby Knee Pad,https://www.indiamart.com/proddetail/baby-knee-pad-2852125649433.html?pos=106&kwd=baby pad&tags=||||8230.883|Price|product|||TS|rsf:gd-|-stype:attr=1|qr_nm:gd|res:RC3|com-cf:nl|ptrs:na|ktp:N0|mc:55654|mtp:S|qry_typ:P|lang:en|wc:2|cs:8840|v=4,Khilona House,https://www.indiamart.com/khilona-house-surat/?pos=106&kwd=baby pad&tags=||||8230.883|Price|product|||TS|rsf:gd-|-stype:attr=1|qr_nm:gd|res:RC3|com-cf:nl|ptrs:na|ktp:N0|mc:55654|mtp:S|qry_typ:P|lang:en|wc:2|cs:8840|v=4,False,Singanpor,Surat,"SY.No.-0047, Plot A/19, First, Madhav Mandir Society-1, Dabholi Road, Katargam, Singanpor, Surat - 395004, Dist.Surat, Gujarat",8047783031,
"Multicolor Soft Cotton Baby Knee Pad, Hand Wash",https://www.indiamart.com/proddetail/baby-knee-pad-24354706588.html?pos=107&kwd=baby pad&tags=||||8230.883|Price|product|||TS|rsf:gd-|-stype:attr=1|qr_nm:gd|res:RC3|com-cf:nl|ptrs:na|ktp:N0|mc:55654|mtp:S|qry_typ:P|lang:en|wc:2|cs:8840|v=4,Angel Enterprise,https://www.angelenterprise.net/?pos=107&kwd=baby pad&tags=||||8230.883|Price|product|||TS|rsf:gd-|-stype:attr=1|qr_nm:gd|res:RC3|com-cf:nl|ptrs:na|ktp:N0|mc:55654|mtp:S|qry_typ:P|lang:en|wc:2|cs:8840|v=4,False,Singanpor,Surat,"Basement Plot No-c/45 Singanpore Road Radheshyam Society, Singanpor, Surat - 395004, Dist.Surat, Gujarat",8045910723,
"Grey Woolen Baby Knee Pad, Machine Wash",https://www.indiamart.com/proddetail/baby-knee-pad-21587730848.html?pos=108&kwd=baby pad&tags=||||8230.883|Price|product|||TS|rsf:gd-|-stype:attr=1|qr_nm:gd|res:RC3|com-cf:nl|ptrs:na|ktp:N0|mc:55654|mtp:S|qry_typ:P|lang:en|wc:2|cs:8840|v=4,Buyerzone Enterprise,https://www.thebuyerzone.in/?pos=108&kwd=baby pad&tags=||||8230.883|Price|product|||TS|rsf:gd-|-stype:attr=1|qr_nm:gd|res:RC3|com-cf:nl|ptrs:na|ktp:N0|mc:55654|mtp:S|qry_typ:P|lang:en|wc:2|cs:8840|v=4,False,Katargam,Surat,"Plot No.247-1st Floor, Above E-Com Courier,Near Laxmi Residency, Katargam Vastadevadi Road, Katargam, Surat - 395004, Dist.Surat, Gujarat",8048966965,
Multicolor Baby Knee Pad,https://www.indiamart.com/proddetail/baby-knee-pad-24682152791.html?pos=109&kwd=baby pad&tags=||||8230.883|Price|product|||TS|rsf:gd-|-stype:attr=1|qr_nm:gd|res:RC3|com-cf:nl|ptrs:na|ktp:N0|mc:55654|mtp:S|qry_typ:P|lang:en|wc:2|cs:8840|v=4,Sarvam Cart,https://www.sarvamcart.net/?pos=109&kwd=baby pad&tags=||||8230.883|Price|product|||TS|rsf:gd-|-stype:attr=1|qr_nm:gd|res:RC3|com-cf:nl|ptrs:na|ktp:N0|mc:55654|mtp:S|qry_typ:P|lang:en|wc:2|cs:8840|v=4,False,Nana Varachha,Surat,"Shop No. 28 Puna Simada Road Anupam The Business Hub Yogi Chowk, Nana Varachha, Surat - 394211, Dist.Surat, Gujarat",8047634175,
Baby Knee Pad,https://www.indiamart.com/proddetail/baby-knee-pad-2854225443888.html?pos=110&kwd=baby pad&tags=||||8230.883|Price|product|||TS|rsf:gd-|-stype:attr=1|qr_nm:gd|res:RC3|com-cf:nl|ptrs:na|ktp:N0|mc:55654|mtp:S|qry_typ:P|lang:en|wc:2|cs:8840|v=4,BABYHOLIC,https://www.babyholic.in/?pos=110&kwd=baby pad&tags=||||8230.883|Price|product|||TS|rsf:gd-|-stype:attr=1|qr_nm:gd|res:RC3|com-cf:nl|ptrs:na|ktp:N0|mc:55654|mtp:S|qry_typ:P|lang:en|wc:2|cs:8840|v=4,False,,Surat,"Ground Floor, Plot No. F/56/, And F/57, Laxmi Narayan Industrial Estate, Udhana, Kailash Fashion, Surat - 394210, Dist.Surat, Gujarat",8045732096,
"Multicolor Cloth Baby Knee Pad, Machine",https://www.indiamart.com/proddetail/baby-knee-pad-23948347988.html?pos=111&kwd=baby pad&tags=||||8038.093|Price|product|||TS|rsf:gd-|-stype:attr=1|qr_nm:gd|res:RC3|com-cf:nl|ptrs:na|ktp:N0|mc:55654|mtp:S|qry_typ:P|lang:en|wc:2|cs:8840|v=4,Madhav Enterprise,https://www.indiamart.com/madhav-enterpriserajkot-gujarat/?pos=111&kwd=baby pad&tags=||||8038.093|Price|product|||TS|rsf:gd-|-stype:attr=1|qr_nm:gd|res:RC3|com-cf:nl|ptrs:na|ktp:N0|mc:55654|mtp:S|qry_typ:P|lang:en|wc:2|cs:8840|v=4,False,Kothariya,Rajkot,"New Ganeshnagar Streetno-5, Near Bapa Sitaram Chowk , Kothariya Main Road, Ganesh Marbel Street,, Kothariya, Rajkot - 360002, Dist.Rajkot, Gujarat",8048613186,
"Cotton Baby Knee Pad, Hand Wash",https://www.indiamart.com/proddetail/baby-knee-pad-22578408188.html?pos=112&kwd=baby pad&tags=||||8230.883|Price|product|||TS|rsf:gd-|-stype:attr=1|qr_nm:gd|res:RC3|com-cf:nl|ptrs:na|ktp:N0|mc:55654|mtp:S|qry_typ:P|lang:en|wc:2|cs:8840|v=4,Mozabee Enterprise,https://www.indiamart.com/mozabee-enterprise/?pos=112&kwd=baby pad&tags=||||8230.883|Price|product|||TS|rsf:gd-|-stype:attr=1|qr_nm:gd|res:RC3|com-cf:nl|ptrs:na|ktp:N0|mc:55654|mtp:S|qry_typ:P|lang:en|wc:2|cs:8840|v=4,False,Amroli,Surat,"FLAT-501,ASTHA RESIDENCY WING-E,KOSAD ROAD,SURAT, Amroli, Surat - 394107, Dist.Surat, Gujarat",8047635617,
Cotton Baby Knee Pad,https://www.indiamart.com/proddetail/baby-knee-pad-26229522391.html?pos=113&kwd=baby pad&tags=||||8230.883|Price|product|||TS|rsf:gd-|-stype:attr=1|qr_nm:gd|res:RC3|com-cf:nl|ptrs:na|ktp:N0|mc:55654|mtp:S|qry_typ:P|lang:en|wc:2|cs:8840|v=4,Amara Impex,https://www.amaraimpex.in/?pos=113&kwd=baby pad&tags=||||8230.883|Price|product|||TS|rsf:gd-|-stype:attr=1|qr_nm:gd|res:RC3|com-cf:nl|ptrs:na|ktp:N0|mc:55654|mtp:S|qry_typ:P|lang:en|wc:2|cs:8840|v=4,False,Katargam,Surat,"148, Haridham Society, Amabatalavdi Road, Katargam,, Katargam, Surat - 395004, Dist.Surat, Gujarat",8048613226,
Baby knee pad socks,https://www.indiamart.com/proddetail/baby-knee-pad-socks-27435909888.html?pos=114&kwd=baby pad&tags=||||8211.142||product|||TS|rsf:gd-|-stype:attr=1|qr_nm:gd|res:RC3|com-cf:nl|ptrs:na|ktp:N0|mc:55654|mtp:S|qry_typ:P|lang:en|wc:2|cs:8840|v=4,Ennar Enterprises,https://www.indiamart.com/ennar-entp-mumbai/?pos=114&kwd=baby pad&tags=||||8211.142||product|||TS|rsf:gd-|-stype:attr=1|qr_nm:gd|res:RC3|com-cf:nl|ptrs:na|ktp:N0|mc:55654|mtp:S|qry_typ:P|lang:en|wc:2|cs:8840|v=4,False,Masjid Bandar,Mumbai,"1st, M-101, Vardhaman Nagar, Dr R P Road, Masjid Bandar, Mumbai - 400080, Dist.Mumbai, Maharashtra",8046030904,
Baby Knee Pad,https://www.indiamart.com/proddetail/baby-knee-pad-2854526595648.html?pos=115&kwd=baby pad&tags=||||8230.883|Price|product|||TS|rsf:gd-|-stype:attr=1|qr_nm:gd|res:RC3|com-cf:nl|ptrs:na|ktp:N0|mc:55654|mtp:S|qry_typ:P|lang:en|wc:2|cs:8840|v=4,S R Entrprise,https://www.homekitchenproduct.com/?pos=115&kwd=baby pad&tags=||||8230.883|Price|product|||TS|rsf:gd-|-stype:attr=1|qr_nm:gd|res:RC3|com-cf:nl|ptrs:na|ktp:N0|mc:55654|mtp:S|qry_typ:P|lang:en|wc:2|cs:8840|v=4,False,,Surat,"14th Floor, Flat No-D/1404, Rivanata Luxuria, Hazira Sayan Road, Surat - 394107, Dist.Surat, Gujarat",8045731417,
Gel Baby Knee Pad,https://www.indiamart.com/proddetail/baby-knee-pad-2854516524630.html?pos=116&kwd=baby pad&tags=||||8228.275|Price|product|||TS|rsf:gd-|-stype:attr=1|qr_nm:gd|res:RC3|com-cf:nl|ptrs:na|ktp:N0|mc:55654|mtp:S|qry_typ:P|lang:en|wc:2|cs:8840|v=4,Stepup Corporation,https://www.indiamart.com/stepup-corporation/?pos=116&kwd=baby pad&tags=||||8228.275|Price|product|||TS|rsf:gd-|-stype:attr=1|qr_nm:gd|res:RC3|com-cf:nl|ptrs:na|ktp:N0|mc:55654|mtp:S|qry_typ:P|lang:en|wc:2|cs:8840|v=4,False,,Ahmedabad,"66/A, Nigam Society Nr. Smruti Mandir Road, Ghodhar,380050, Ahmedabad - 380050, Dist.Ahmedabad, Gujarat",7949336313,
Crawling Baby Knee Pad,https://www.indiamart.com/proddetail/crawling-baby-knee-pad-2853326539348.html?pos=117&kwd=baby pad&tags=||||8230.883|Price|product|||TS|rsf:gd-|-stype:attr=1|qr_nm:gd|res:RC3|com-cf:nl|ptrs:na|ktp:N0|mc:55654|mtp:S|qry_typ:P|lang:en|wc:2|cs:8840|v=4,Valam Enterprise,https://www.valamenterprise.com/?pos=117&kwd=baby pad&tags=||||8230.883|Price|product|||TS|rsf:gd-|-stype:attr=1|qr_nm:gd|res:RC3|com-cf:nl|ptrs:na|ktp:N0|mc:55654|mtp:S|qry_typ:P|lang:en|wc:2|cs:8840|v=4,False,Dabholi,Surat,"First Floor 37 Nr Bapa Sitaram Chowk Gopinath Society-3 Katargam, Dabholi, Surat - 395004, Dist.Surat, Gujarat",8046058398,
Soft Cotton Baby Knee Pad,https://www.indiamart.com/proddetail/baby-knee-pad-25484217488.html?pos=118&kwd=baby pad&tags=||||8752.144|Price|product|||TS|rsf:gd-|-stype:attr=1|qr_nm:gd|res:RC3|com-cf:nl|ptrs:na|ktp:N0|mc:55654|mtp:S|qry_typ:P|lang:en|wc:2|cs:8840|v=4,WG Enterprises,https://www.indiamart.com/wgenterprises-newdelhi/?pos=118&kwd=baby pad&tags=||||8752.144|Price|product|||TS|rsf:gd-|-stype:attr=1|qr_nm:gd|res:RC3|com-cf:nl|ptrs:na|ktp:N0|mc:55654|mtp:S|qry_typ:P|lang:en|wc:2|cs:8840|v=4,False,Bharola,New Delhi,"House No-131, Kh No-18/2, 2nd Floor, Blk-A, Village Bharola Near Hathi Wala Park,, Bharola, New Delhi - 110033, Dist.Delhi, Delhi",8046076450,
"Multicolor Cotton Knee Pad For Baby, Hand Wash",https://www.indiamart.com/proddetail/knee-pad-for-baby-23695126933.html?pos=119&kwd=baby pad&tags=||||8230.883|Price|product|||TS|rsf:gd-|-stype:attr=1|qr_nm:gd|res:RC3|com-cf:nl|ptrs:na|ktp:N0|mc:55654|mtp:S|qry_typ:P|lang:en|wc:2|cs:8840|v=4,Quality Zone,https://www.qualityzoneindia.com/?pos=119&kwd=baby pad&tags=||||8230.883|Price|product|||TS|rsf:gd-|-stype:attr=1|qr_nm:gd|res:RC3|com-cf:nl|ptrs:na|ktp:N0|mc:55654|mtp:S|qry_typ:P|lang:en|wc:2|cs:8840|v=4,False,Dabholi,Surat,"Plot No-17, Sy No-93/94, 1st Floor, Om Satyam Nagar Society, Ved Road, Dabholi Char Rasta, Dabholi, Surat - 395004, Dist.Surat, Gujarat",8048971766,
"Baby Knee Pad Elbow Safety Protector, Stretchable Anti-Slip Pad (Dotted)",https://www.indiamart.com/proddetail/baby-knee-pad-elbow-safety-protector-stretchable-anti-slip-pad-dotted-2853443512433.html?pos=120&kwd=baby pad&tags=||||8230.883|Price|product|||TS|rsf:gd-|-stype:attr=1|qr_nm:gd|res:RC3|com-cf:nl|ptrs:na|ktp:N0|mc:55654|mtp:S|qry_typ:P|lang:en|wc:2|cs:8840|v=4,Alpyog Marketing,https://www.alpyogmarketing.com/?pos=120&kwd=baby pad&tags=||||8230.883|Price|product|||TS|rsf:gd-|-stype:attr=1|qr_nm:gd|res:RC3|com-cf:nl|ptrs:na|ktp:N0|mc:55654|mtp:S|qry_typ:P|lang:en|wc:2|cs:8840|v=4,False,Singanpor,Surat,"SY No,1-36, 1st Floor, Talav Falia, Rear Side, Post Siganpore, Katargam, Singanpor, Surat - 395004, Dist.Surat, Gujarat",8048968669,
Baby Knee Pad For Crawling,https://www.indiamart.com/proddetail/baby-knee-pad-for-crawling-2852648723555.html?pos=121&kwd=baby pad&tags=||||8211.142|Price|product|||TS|rsf:gd-|-stype:attr=1|qr_nm:gd|res:RC3|com-cf:nl|ptrs:na|ktp:N0|mc:55654|mtp:S|qry_typ:P|lang:en|wc:2|cs:8840|v=4,Morebuy Store,https://www.indiamart.com/morebuystore/?pos=121&kwd=baby pad&tags=||||8211.142|Price|product|||TS|rsf:gd-|-stype:attr=1|qr_nm:gd|res:RC3|com-cf:nl|ptrs:na|ktp:N0|mc:55654|mtp:S|qry_typ:P|lang:en|wc:2|cs:8840|v=4,False,Masjid Bandar,Mumbai,"11/15,Khimji Meghji House,Essaji Street, Vadgadi,Masjid Station,Mumbai 11/15, First Floor, Khimji Meghji House, Essaji Street, Vadgadi, Masjid Station, Mumbai Suburban,40, Masjid Bandar, Mumbai - 400003, Dist.Mumbai, Maharashtra",8043863644,
The Guru shop Baby Knee Pad Smiley,https://www.indiamart.com/proddetail/the-guru-shop-baby-knee-pad-smiley-2854279815112.html?pos=122&kwd=baby pad&tags=||||8230.883|Price|product|||TS|rsf:gd-|-stype:attr=1|qr_nm:gd|res:RC3|com-cf:nl|ptrs:na|ktp:N0|mc:55654|mtp:S|qry_typ:P|lang:en|wc:2|cs:8840|v=4,The Guru Shop,https://www.indiamart.com/thegurushop/?pos=122&kwd=baby pad&tags=||||8230.883|Price|product|||TS|rsf:gd-|-stype:attr=1|qr_nm:gd|res:RC3|com-cf:nl|ptrs:na|ktp:N0|mc:55654|mtp:S|qry_typ:P|lang:en|wc:2|cs:8840|v=4,False,Katargam,Surat,"F-33/34, 1st Floor, Radhe Shyam Society, Near Singanpore Char Rasta, Ved Road,, Katargam, Surat - 395004, Dist.Surat, Gujarat",8046037459,
"Gel Multicolor Cotton Baby Knee Pad For Crawling, Machine And Hand Wash",https://www.indiamart.com/proddetail/multicolor-cotton-baby-knee-pad-for-crawling-machine-and-hand-wash-2852518637091.html?pos=123&kwd=baby pad&tags=||||8230.883|Price|product|||TS|rsf:gd-|-stype:attr=1|qr_nm:gd|res:RC3|com-cf:nl|ptrs:na|ktp:N0|mc:55654|mtp:S|qry_typ:P|lang:en|wc:2|cs:8840|v=4,Preet Enterprise,https://www.indiamart.com/preetenterprise/?pos=123&kwd=baby pad&tags=||||8230.883|Price|product|||TS|rsf:gd-|-stype:attr=1|qr_nm:gd|res:RC3|com-cf:nl|ptrs:na|ktp:N0|mc:55654|mtp:S|qry_typ:P|lang:en|wc:2|cs:8840|v=4,False,Dabholi,Surat,"Plot No. 143/144, 1st Floor, Krushnanagar Society, Singanpur Road, Dabholi, Surat - 395004, Dist.Surat, Gujarat",8043885554,
Foam Baby Knee Pad,https://www.indiamart.com/proddetail/baby-knee-pad-2854182687233.html?pos=124&kwd=baby pad&tags=||||8307.81|Price|product|||MDC|rsf:gd-|-stype:attr=1|qr_nm:gd|res:RC3|com-cf:nl|ptrs:na|ktp:N0|mc:55654|mtp:S|qry_typ:P|lang:en|wc:2|cs:8840|v=4,Tabaria Baby Mall,https://www.indiamart.com/tabaria-baby-mallpune/?pos=124&kwd=baby pad&tags=||||8307.81|Price|product|||MDC|rsf:gd-|-stype:attr=1|qr_nm:gd|res:RC3|com-cf:nl|ptrs:na|ktp:N0|mc:55654|mtp:S|qry_typ:P|lang:en|wc:2|cs:8840|v=4,False,Raviwar Peth,Pune,"1088,Manish Market,Raviwar Peth, Raviwar Peth, Pune - 411002, Dist.Pune, Maharashtra",7949092418,
Baby Knee Pad,https://www.indiamart.com/proddetail/baby-knee-pad-2851079658591.html?pos=125&kwd=baby pad&tags=||||8230.883|Price|product|||MDC|rsf:gd-|-stype:attr=1|qr_nm:gd|res:RC3|com-cf:nl|ptrs:na|ktp:N0|mc:55654|mtp:S|qry_typ:P|lang:en|wc:2|cs:8840|v=4,Quick Shop,https://www.indiamart.com/quickshop-surat/?pos=125&kwd=baby pad&tags=||||8230.883|Price|product|||MDC|rsf:gd-|-stype:attr=1|qr_nm:gd|res:RC3|com-cf:nl|ptrs:na|ktp:N0|mc:55654|mtp:S|qry_typ:P|lang:en|wc:2|cs:8840|v=4,False,Nana Varachha,Surat,"RS No-337, TP No-60, FP No-150, Ground Floor, The Galleria, Yogi Chowk To Kiran Road, Nana Varachha, Surat - 395010, Dist.Surat, Gujarat",7942957393,
Baby Knee Pad,https://www.indiamart.com/proddetail/baby-knee-pad-2850082317897.html?pos=126&kwd=baby pad&tags=||||8663.873|Price|product|||MDC|rsf:gd-|-stype:attr=1|qr_nm:gd|res:RC3|com-cf:nl|ptrs:na|ktp:N0|mc:55654|mtp:S|qry_typ:P|lang:en|wc:2|cs:8840|v=4,Ramdev Sports,https://www.indiamart.com/ramdevsports/?pos=126&kwd=baby pad&tags=||||8663.873|Price|product|||MDC|rsf:gd-|-stype:attr=1|qr_nm:gd|res:RC3|com-cf:nl|ptrs:na|ktp:N0|mc:55654|mtp:S|qry_typ:P|lang:en|wc:2|cs:8840|v=4,False,Chickpet,Bengaluru,"Ground Floor, No 282, Avenue Cross, Old Tharagupete, Chickpet, Bengaluru - 560053, Dist.Bengaluru, Karnataka",7942797944,
"Crawling Baby Knee Pad, 3-12 Months",https://www.indiamart.com/proddetail/baby-knee-pad-2855017167933.html?pos=127&kwd=baby pad&tags=||||8752.144|Price|product|||MDC|rsf:gd-|-stype:attr=1|qr_nm:gd|res:RC3|com-cf:nl|ptrs:na|ktp:N0|mc:55654|mtp:S|qry_typ:P|lang:en|wc:2|cs:8840|v=4,A.S.Enterprises,https://www.indiamart.com/a-senterprisesdelhi-india/?pos=127&kwd=baby pad&tags=||||8752.144|Price|product|||MDC|rsf:gd-|-stype:attr=1|qr_nm:gd|res:RC3|com-cf:nl|ptrs:na|ktp:N0|mc:55654|mtp:S|qry_typ:P|lang:en|wc:2|cs:8840|v=4,False,,New Delhi,"G F, 816, Pan Mandi, Near Press Street Sadar Bazar Area, Central Delhi, New Delhi - 110006, Dist.Delhi, Delhi",7942537259,
Baby Knee Pad,https://www.indiamart.com/proddetail/baby-knee-pad-2854864544088.html?pos=128&kwd=baby pad&tags=||||8230.883|Price|product|||MDC|rsf:gd-|-stype:attr=1|qr_nm:gd|res:RC3|com-cf:nl|ptrs:na|ktp:N0|mc:55654|mtp:S|qry_typ:P|lang:en|wc:2|cs:8840|v=4,Balar Corporation,https://www.indiamart.com/balar-corporation/?pos=128&kwd=baby pad&tags=||||8230.883|Price|product|||MDC|rsf:gd-|-stype:attr=1|qr_nm:gd|res:RC3|com-cf:nl|ptrs:na|ktp:N0|mc:55654|mtp:S|qry_typ:P|lang:en|wc:2|cs:8840|v=4,False,,Surat,"C-504, Rameshvaram Regency, Utran, Surat - 394105, Dist.Surat, Gujarat",8045734410,
Baby Knee Pad,https://www.indiamart.com/proddetail/baby-knee-pad-2854019611012.html?pos=129&kwd=baby pad&tags=||||8230.883|Price|product|||MDC|rsf:gd-|-stype:attr=1|qr_nm:gd|res:RC3|com-cf:nl|ptrs:na|ktp:N0|mc:55654|mtp:S|qry_typ:P|lang:en|wc:2|cs:8840|v=4,Mahant Enterprise,https://www.indiamart.com/mahantenterprisegujarat/?pos=129&kwd=baby pad&tags=||||8230.883|Price|product|||MDC|rsf:gd-|-stype:attr=1|qr_nm:gd|res:RC3|com-cf:nl|ptrs:na|ktp:N0|mc:55654|mtp:S|qry_typ:P|lang:en|wc:2|cs:8840|v=4,False,Dabholi Village,Surat,"12, Ground Floor, Ankita Park Society, Unnamed Road, Ved Road, Dabholi Village, Surat - 395004, Dist.Surat, Gujarat",7942828700,
Baby Knee Pad,https://www.indiamart.com/proddetail/baby-knee-pad-2854920673448.html?pos=130&kwd=baby pad&tags=||||8230.883|Price|product|||MDC|rsf:gd-|-stype:attr=1|qr_nm:gd|res:RC3|com-cf:nl|ptrs:na|ktp:N0|mc:55654|mtp:S|qry_typ:P|lang:en|wc:2|cs:8840|v=4,Khodal Creation,https://www.indiamart.com/khodalcreationsuratgujarat/?pos=130&kwd=baby pad&tags=||||8230.883|Price|product|||MDC|rsf:gd-|-stype:attr=1|qr_nm:gd|res:RC3|com-cf:nl|ptrs:na|ktp:N0|mc:55654|mtp:S|qry_typ:P|lang:en|wc:2|cs:8840|v=4,False,Amroli,Surat,"8th Floor, E-804, Rivanta Luxeria, Variav Road,, Amroli, Surat - 394101, Dist.Surat, Gujarat",7949093501,
"Light Blue Cotton Baby Knee Pad, Handwash",https://www.indiamart.com/proddetail/baby-knee-pad-24316386630.html?pos=131&kwd=baby pad&tags=||||8228.275|Price|product|||MDC|rsf:gd-|-stype:attr=1|qr_nm:gd|res:RC3|com-cf:nl|ptrs:na|ktp:N0|mc:55654|mtp:S|qry_typ:P|lang:en|wc:2|cs:8840|v=4,Sanskriti Inc,https://www.indiamart.com/sanskriti-inc/?pos=131&kwd=baby pad&tags=||||8228.275|Price|product|||MDC|rsf:gd-|-stype:attr=1|qr_nm:gd|res:RC3|com-cf:nl|ptrs:na|ktp:N0|mc:55654|mtp:S|qry_typ:P|lang:en|wc:2|cs:8840|v=4,False,Nikol,Ahmedabad,"Shop No-26, Surjit Co Op H Soc Ltd, Nr. India Colony, Nikol Road, Nikol, Ahmedabad - 382350, Dist.Ahmedabad, Gujarat",8046047726,
Baby Knee Pad,https://www.indiamart.com/proddetail/baby-knee-pad-2854172967697.html?pos=132&kwd=baby pad&tags=||||8230.883|Price|product|||MDC|rsf:gd-|-stype:attr=1|qr_nm:gd|res:RC3|com-cf:nl|ptrs:na|ktp:N0|mc:55654|mtp:S|qry_typ:P|lang:en|wc:2|cs:8840|v=4,Kitchenware Zone,https://www.indiamart.com/kitchenwarezone/?pos=132&kwd=baby pad&tags=||||8230.883|Price|product|||MDC|rsf:gd-|-stype:attr=1|qr_nm:gd|res:RC3|com-cf:nl|ptrs:na|ktp:N0|mc:55654|mtp:S|qry_typ:P|lang:en|wc:2|cs:8840|v=4,False,Nana Varachha,Surat,"Ground Floor, Shop No.09, The Galleria, Yogi Chowk, Nana Varachha, Surat - 395010, Dist.Surat, Gujarat",7949222469,
"Multicolor Baby Knee Pads, Packaging Type: Carton",https://www.indiamart.com/proddetail/baby-knee-pads-27478042430.html?pos=133&kwd=baby pad&tags=||||8211.142|Price|product|||TS|rsf:gd-|-stype:attr=1|qr_nm:gd|res:RC3|com-cf:nl|ptrs:na|ktp:N0|mc:55654|mtp:S|qry_typ:P|lang:en|wc:2|cs:8840|v=4,Glow World,https://www.glowworld.net/?pos=133&kwd=baby pad&tags=||||8211.142|Price|product|||TS|rsf:gd-|-stype:attr=1|qr_nm:gd|res:RC3|com-cf:nl|ptrs:na|ktp:N0|mc:55654|mtp:S|qry_typ:P|lang:en|wc:2|cs:8840|v=4,False,Umerkhadi,Mumbai,"426 Xcross Lane, Kolsa Street, Shiren Mansion, Above Cafe Parveen 2nd Floor, Umerkhadi, Mumbai - 400003, Dist.Mumbai, Maharashtra",8046054511,
"Baby Knee Pads for Crawling, Anti-Slip Padded Stretchable Elastic Cotton (multi colour)",https://www.indiamart.com/proddetail/baby-knee-pads-for-crawling-anti-slip-padded-stretchable-elastic-cotton-multi-colour-23908263330.html?pos=134&kwd=baby pad&tags=||||8230.883|Price|product|||TS|rsf:gd-|-stype:attr=1|qr_nm:gd|res:RC3|com-cf:nl|ptrs:na|ktp:N0|mc:55654|mtp:S|qry_typ:P|lang:en|wc:2|cs:8840|v=4,Heer Creation,https://www.heerwholesale.com/?pos=134&kwd=baby pad&tags=||||8230.883|Price|product|||TS|rsf:gd-|-stype:attr=1|qr_nm:gd|res:RC3|com-cf:nl|ptrs:na|ktp:N0|mc:55654|mtp:S|qry_typ:P|lang:en|wc:2|cs:8840|v=4,False,Katargam,Surat,"H No 15/439, Plot 1, Jaydeep Ind Estate , Gotalawadi, Katargam, Katargam, Surat - 395008, Dist.Surat, Gujarat",8048608827,
"Baby Knee Pads for Crawling, Anti-Slip Padded Stretchable Elastic Cotton Soft Breathable Comfortable",https://www.indiamart.com/proddetail/baby-knee-pads-for-crawling-anti-slip-padded-stretchable-elastic-cotton-soft-breathable-comfortable-2853217925033.html?pos=135&kwd=baby pad&tags=||||8752.144|Price|product|||TS|rsf:gd-|-stype:attr=1|qr_nm:gd|res:RC3|com-cf:nl|ptrs:na|ktp:N0|mc:55654|mtp:S|qry_typ:P|lang:en|wc:2|cs:8840|v=4,Prakash Sales,https://www.prakashsales.co.in/?pos=135&kwd=baby pad&tags=||||8752.144|Price|product|||TS|rsf:gd-|-stype:attr=1|qr_nm:gd|res:RC3|com-cf:nl|ptrs:na|ktp:N0|mc:55654|mtp:S|qry_typ:P|lang:en|wc:2|cs:8840|v=4,False,Mandoli,New Delhi,"65A, Street No. 3, Bank Colony, Mandoli, East Delhi, Mandoli, New Delhi - 110093, Dist.Delhi, Delhi",8047651981,
Unisex Printed Baby Knee Pads,https://www.indiamart.com/proddetail/baby-knee-pads-24716739297.html?pos=136&kwd=baby pad&tags=||||8230.883|Price|product|||TS|rsf:gd-|-stype:attr=1|qr_nm:gd|res:RC3|com-cf:nl|ptrs:na|ktp:N0|mc:55654|mtp:S|qry_typ:P|lang:en|wc:2|cs:8840|v=4,The Florable,https://www.indiamart.com/theflorable/?pos=136&kwd=baby pad&tags=||||8230.883|Price|product|||TS|rsf:gd-|-stype:attr=1|qr_nm:gd|res:RC3|com-cf:nl|ptrs:na|ktp:N0|mc:55654|mtp:S|qry_typ:P|lang:en|wc:2|cs:8840|v=4,False,Archana Society,Surat,"GR Floor, SY No-54, Plot-New-47, Old-49, Archana Society, Surat - 395004, Dist.Surat, Gujarat",8046057332,
Modulyss Cotton Summer Baby Knee Pads Kids Anti Slip Crawl Necessary Knee Protector Baby Leg,https://www.indiamart.com/proddetail/modulyss-cotton-summer-baby-knee-pads-kids-anti-slip-crawl-necessary-knee-protector-baby-leg-2849827400233.html?pos=137&kwd=baby pad&tags=||||8230.883|Price|product|||TS|rsf:gd-|-stype:attr=1|qr_nm:gd|res:RC3|com-cf:nl|ptrs:na|ktp:N0|mc:55654|mtp:S|qry_typ:P|lang:en|wc:2|cs:8840|v=4,Modulyss,https://www.modulyss.in/?pos=137&kwd=baby pad&tags=||||8230.883|Price|product|||TS|rsf:gd-|-stype:attr=1|qr_nm:gd|res:RC3|com-cf:nl|ptrs:na|ktp:N0|mc:55654|mtp:S|qry_typ:P|lang:en|wc:2|cs:8840|v=4,False,Katargam,Surat,"Modulyss OFFICE NO :- 2 BASEMENT-1, SUNDAY HUB, NEAR AMBA TALAVDI, OPP ANKUR SCHOOL, KATARGAM, SURAT, Katargam, Surat - 395004, Dist.Surat, Gujarat",7942792869,
"Baby Knee Pads for Crawling, Anti-Slip Padded Stretchable Elastic Cotton",https://www.indiamart.com/proddetail/baby-knee-pads-for-crawling-anti-slip-padded-stretchable-elastic-cotton-23844405397.html?pos=138&kwd=baby pad&tags=||||8211.142|Price|product|||TS|rsf:gd-|-stype:attr=1|qr_nm:gd|res:RC3|com-cf:nl|ptrs:na|ktp:N0|mc:55654|mtp:S|qry_typ:P|lang:en|wc:2|cs:8840|v=4,Alino Collection,https://www.alinocollection.com/?pos=138&kwd=baby pad&tags=||||8211.142|Price|product|||TS|rsf:gd-|-stype:attr=1|qr_nm:gd|res:RC3|com-cf:nl|ptrs:na|ktp:N0|mc:55654|mtp:S|qry_typ:P|lang:en|wc:2|cs:8840|v=4,False,Santacruz East,Mumbai,"Shop no 505, Building No 11, Motilal Nehru Nagar,Bandra BKC, Bandra East, Santacruz East, Mumbai - 400098, Dist.Mumbai, Maharashtra",8048970663,
"Multicolor Rubber Crawling Baby Knee Pads, Hand Wash",https://www.indiamart.com/proddetail/crawling-baby-knee-pads-2850827767455.html?pos=139&kwd=baby pad&tags=||||8230.883|Price|product|||TS|rsf:gd-|-stype:attr=1|qr_nm:gd|res:RC3|com-cf:nl|ptrs:na|ktp:N0|mc:55654|mtp:S|qry_typ:P|lang:en|wc:2|cs:8840|v=4,Sixfire Pvt,https://www.sixfirepvt.com/?pos=139&kwd=baby pad&tags=||||8230.883|Price|product|||TS|rsf:gd-|-stype:attr=1|qr_nm:gd|res:RC3|com-cf:nl|ptrs:na|ktp:N0|mc:55654|mtp:S|qry_typ:P|lang:en|wc:2|cs:8840|v=4,False,Singanpor,Surat,"Plot No-32, Ground Floor, Laxmi Narayan Co. Op. Housing Society, Ved Road, Singanpor, Surat - 395004, Dist.Surat, Gujarat",7942957589,
"Hemico Baby Knee Pads For Crawling, Anti-Slip Padded Stretchable Elastic Cotton Soft",https://www.indiamart.com/proddetail/hemico-baby-knee-pads-for-crawling-anti-slip-padded-stretchable-elastic-cotton-soft-23014383588.html?pos=140&kwd=baby pad&tags=||||8230.883|Price|product|||TS|rsf:gd-|-stype:attr=1|qr_nm:gd|res:RC3|com-cf:nl|ptrs:na|ktp:N0|mc:55654|mtp:S|qry_typ:P|lang:en|wc:2|cs:8840|v=4,Hemico,https://www.hemico.in/?pos=140&kwd=baby pad&tags=||||8230.883|Price|product|||TS|rsf:gd-|-stype:attr=1|qr_nm:gd|res:RC3|com-cf:nl|ptrs:na|ktp:N0|mc:55654|mtp:S|qry_typ:P|lang:en|wc:2|cs:8840|v=4,False,Katargam,Surat,"Basement Shop No.-1, Sunday Hub Shopping Center, Ambatalavdi Road KATARGAM, Katargam, Surat - 395004, Dist.Surat, Gujarat",7942544294,
Proffitto Baby Knee Pads For Crawling ( Set Of 2 Pairs),https://www.indiamart.com/proddetail/proffitto-baby-knee-pads-for-crawling-set-of-2-pairs-2853946861030.html?pos=141&kwd=baby pad&tags=||||8230.883|Price|product|||TS|rsf:gd-|-stype:attr=1|qr_nm:gd|res:RC3|com-cf:nl|ptrs:na|ktp:N0|mc:55654|mtp:S|qry_typ:P|lang:en|wc:2|cs:8840|v=4,Proffitto International,https://www.indiamart.com/proffitto-international-surat/?pos=141&kwd=baby pad&tags=||||8230.883|Price|product|||TS|rsf:gd-|-stype:attr=1|qr_nm:gd|res:RC3|com-cf:nl|ptrs:na|ktp:N0|mc:55654|mtp:S|qry_typ:P|lang:en|wc:2|cs:8840|v=4,False,Raghunandan Society,Surat,"4th Floor C 401 Cancer Hospital Road Om Heritage Surat, Raghunandan Society, Surat - 395004, Dist.Surat, Gujarat",7949092375,
1 Pairs Baby Knee Pads For Crawling (1 Pair / 6 Cm),https://www.indiamart.com/proddetail/1-pairs-baby-knee-pads-for-crawling-1-pair-6-cm-2854515311712.html?pos=142&kwd=baby pad&tags=||||8038.093|Price|product|||TS|rsf:gd-|-stype:attr=1|qr_nm:gd|res:RC3|com-cf:nl|ptrs:na|ktp:N0|mc:55654|mtp:S|qry_typ:P|lang:en|wc:2|cs:8840|v=4,Deodap,https://www.indiamart.com/deodap/?pos=142&kwd=baby pad&tags=||||8038.093|Price|product|||TS|rsf:gd-|-stype:attr=1|qr_nm:gd|res:RC3|com-cf:nl|ptrs:na|ktp:N0|mc:55654|mtp:S|qry_typ:P|lang:en|wc:2|cs:8840|v=4,False,Rajkot,Rajkot,"plot No. 9 Behind Patanjali Werhouse, Ruda Transport, Saat Hanuman Ahemdabad Road, Rajkot, Rajkot - 360005, Dist.Rajkot, Gujarat",8048972316,
Baby Knee Pads Protector Pads Anti-Slip Padded Stretchable Elastic Cotton Soft Comfortable,https://www.indiamart.com/proddetail/baby-knee-pads-protector-pads-anti-slip-padded-stretchable-elastic-cotton-soft-comfortable-2852924138933.html?pos=143&kwd=baby pad&tags=||||8230.883|Price|product|||TS|rsf:gd-|-stype:attr=1|qr_nm:gd|res:RC3|com-cf:nl|ptrs:na|ktp:N0|mc:55654|mtp:S|qry_typ:P|lang:en|wc:2|cs:8840|v=4,Pocket Simple,https://www.pocketsimple.in/?pos=143&kwd=baby pad&tags=||||8230.883|Price|product|||TS|rsf:gd-|-stype:attr=1|qr_nm:gd|res:RC3|com-cf:nl|ptrs:na|ktp:N0|mc:55654|mtp:S|qry_typ:P|lang:en|wc:2|cs:8840|v=4,False,KATARGAM,Surat,"Gr.Floor, Shop No-20, Pramukh Residency,Omkar Soc, Ved Road, KATARGAM, Surat - 395004, Dist.Surat, Gujarat",7942720597,
Multicolor Soft Cotton Baby knee pads,https://www.indiamart.com/proddetail/baby-knee-pads-24153799162.html?pos=144&kwd=baby pad&tags=||||8752.144|Price|product|||TS|rsf:gd-|-stype:attr=1|qr_nm:gd|res:RC3|com-cf:nl|ptrs:na|ktp:N0|mc:55654|mtp:S|qry_typ:P|lang:en|wc:2|cs:8840|v=4,Dazibao,https://www.indiamart.com/dazibao/?pos=144&kwd=baby pad&tags=||||8752.144|Price|product|||TS|rsf:gd-|-stype:attr=1|qr_nm:gd|res:RC3|com-cf:nl|ptrs:na|ktp:N0|mc:55654|mtp:S|qry_typ:P|lang:en|wc:2|cs:8840|v=4,False,Dabri,New Delhi,"Dabri, F/f, House No.14, Plot No.23, Harijan Basti Sitapuri, New Delhi,, Dabri, New Delhi - 110045, Dist.Delhi, Delhi",8048605343,
Multicolor Soft Cotton Baby Knee Pads,https://www.indiamart.com/proddetail/baby-knee-pads-23948274688.html?pos=145&kwd=baby pad&tags=||||8230.883|Price|product|||TS|rsf:gd-|-stype:attr=1|qr_nm:gd|res:RC3|com-cf:nl|ptrs:na|ktp:N0|mc:55654|mtp:S|qry_typ:P|lang:en|wc:2|cs:8840|v=4,Trusthaven,https://www.indiamart.com/ankush-international-surat/?pos=145&kwd=baby pad&tags=||||8230.883|Price|product|||TS|rsf:gd-|-stype:attr=1|qr_nm:gd|res:RC3|com-cf:nl|ptrs:na|ktp:N0|mc:55654|mtp:S|qry_typ:P|lang:en|wc:2|cs:8840|v=4,False,Varni palace near rasi circle,Surat,"Buil-B, Flat No. B/501, Opp. Western Somchintamani, Sahstrafana Saubhagya Residency, Pal Katargam, Varni palace near rasi circle, Surat - 395009, Dist.Surat, Gujarat",8048964329,
Multicolor Baby Knee Pads for Crawling (Set Of 4 Pcs),https://www.indiamart.com/proddetail/baby-knee-pads-for-crawling-set-of-4-pcs-2850867050488.html?pos=146&kwd=baby pad&tags=||||8752.144|Price|product|||TS|rsf:gd-|-stype:attr=1|qr_nm:gd|res:RC3|com-cf:nl|ptrs:na|ktp:N0|mc:55654|mtp:S|qry_typ:P|lang:en|wc:2|cs:8840|v=4,RV Enterprises,https://www.indiamart.com/r-v-enterprisesdelhi/?pos=146&kwd=baby pad&tags=||||8752.144|Price|product|||TS|rsf:gd-|-stype:attr=1|qr_nm:gd|res:RC3|com-cf:nl|ptrs:na|ktp:N0|mc:55654|mtp:S|qry_typ:P|lang:en|wc:2|cs:8840|v=4,False,,New Delhi,"Kh. No.9/21, Shop No-3 Ground Floor, Kaushik Enclave, Block-B, New Delhi, North East Delhi, New Delhi - 110084, Dist.Delhi, Delhi",7942795485,
Multicolor Soft Cotton Proffitto Baby Knee Pads For Crawling ( Set Of 2 Pairs),https://www.indiamart.com/proddetail/proffitto-baby-knee-pads-for-crawling-set-of-2-pairs-23710460373.html?pos=147&kwd=baby pad&tags=||||8230.883|Price|product|||TS|rsf:gd-|-stype:attr=1|qr_nm:gd|res:RC3|com-cf:nl|ptrs:na|ktp:N0|mc:55654|mtp:S|qry_typ:P|lang:en|wc:2|cs:8840|v=4,Proffitto,https://www.indiamart.com/voetex-zone/?pos=147&kwd=baby pad&tags=||||8230.883|Price|product|||TS|rsf:gd-|-stype:attr=1|qr_nm:gd|res:RC3|com-cf:nl|ptrs:na|ktp:N0|mc:55654|mtp:S|qry_typ:P|lang:en|wc:2|cs:8840|v=4,False,Katargam,Surat,"19/20 Nagnath Soc, Above Shyam Hardware,, Katargam, Surat - 395004, Dist.Surat, Gujarat",8048988951,
Baby Knee Pads for Crawling/Elbow Safety Protector/Stretchable Anti-Slip Padded Elastic Soft Cotton,https://www.indiamart.com/proddetail/baby-knee-pads-for-crawling-elbow-safety-protector-stretchable-anti-slip-padded-elastic-soft-cotton-26226539630.html?pos=148&kwd=baby pad&tags=||||8752.144|Price|product|||TS|rsf:gd-|-stype:attr=1|qr_nm:gd|res:RC3|com-cf:nl|ptrs:na|ktp:N0|mc:55654|mtp:S|qry_typ:P|lang:en|wc:2|cs:8840|v=4,Ganga Traders,https://www.indiamart.com/gangatradersdelhi/?pos=148&kwd=baby pad&tags=||||8752.144|Price|product|||TS|rsf:gd-|-stype:attr=1|qr_nm:gd|res:RC3|com-cf:nl|ptrs:na|ktp:N0|mc:55654|mtp:S|qry_typ:P|lang:en|wc:2|cs:8840|v=4,False,Swasthya Vihar,New Delhi,"E-16/210, Ground Floor, Bapa Nagar, SHARMA, Swasthya Vihar, New Delhi - 110005, Dist.Delhi, Delhi",8043855678,
"Unisex Baby Knee Pads for Crawling, Anti-Slip Padded Cotton Soft Comfortable",https://www.indiamart.com/proddetail/baby-knee-pads-for-crawling-anti-slip-padded-cotton-soft-comfortable-24305192297.html?pos=149&kwd=baby pad&tags=||||8211.142|Price|product|||TS|rsf:gd-|-stype:attr=1|qr_nm:gd|res:RC3|com-cf:nl|ptrs:na|ktp:N0|mc:55654|mtp:S|qry_typ:P|lang:en|wc:2|cs:8840|v=4,A One Collection,https://www.aonecollection.net/?pos=149&kwd=baby pad&tags=||||8211.142|Price|product|||TS|rsf:gd-|-stype:attr=1|qr_nm:gd|res:RC3|com-cf:nl|ptrs:na|ktp:N0|mc:55654|mtp:S|qry_typ:P|lang:en|wc:2|cs:8840|v=4,False,Nr Fire Bridge Station,Mumbai,"Gala No 505, Bldg No 11, 5th Floor, Motilal Nehru Nagar, Bandra, Nr Fire Bridge Station, Mumbai - 400051, Dist.Mumbai, Maharashtra",8045910671,
Babies Knee Pad,https://www.indiamart.com/proddetail/babies-knee-pad-2854730792873.html?pos=150&kwd=baby pad&tags=||||8211.142|Price|product|||TS|rsf:gd-|-stype:attr=1|qr_nm:gd|res:RC3|com-cf:nl|ptrs:na|ktp:N0|mc:55654|mtp:S|qry_typ:P|lang:en|wc:2|cs:8840|v=4,M. G. L. & Co.,https://www.kbamkay.com/?pos=150&kwd=baby pad&tags=||||8211.142|Price|product|||TS|rsf:gd-|-stype:attr=1|qr_nm:gd|res:RC3|com-cf:nl|ptrs:na|ktp:N0|mc:55654|mtp:S|qry_typ:P|lang:en|wc:2|cs:8840|v=4,False,,Mumbai,"2 Nd Floor Office No 8 Abdul Rehman Street 1115 Sufarwala Building, Mumbai - 400003, Dist.Mumbai, Maharashtra",7942867468,
Apple Baby Knee Pad,https://www.indiamart.com/proddetail/apple-baby-knee-pad-2854912650191.html?pos=151&kwd=baby pad&tags=||||8230.883|Price|product|||MDC|rsf:gd-|-stype:attr=1|qr_nm:gd|res:RC3|com-cf:nl|ptrs:na|ktp:N0|mc:55654|mtp:S|qry_typ:P|lang:en|wc:2|cs:8840|v=4,SN Enterprise,https://www.indiamart.com/snenterprise-surat/?pos=151&kwd=baby pad&tags=||||8230.883|Price|product|||MDC|rsf:gd-|-stype:attr=1|qr_nm:gd|res:RC3|com-cf:nl|ptrs:na|ktp:N0|mc:55654|mtp:S|qry_typ:P|lang:en|wc:2|cs:8840|v=4,False,,Surat,"Plot 130/131, 2nd Floor, Flat 201, Balaji Nagar SOC-1, Shri Siddhi Vinayak Place, Surat - 395004, Dist.Surat, Gujarat",8041015777,
DB-1205 Cotton Baby Knee Pad,https://www.indiamart.com/proddetail/db-1205-cotton-baby-knee-pad-2854163063062.html?pos=152&kwd=baby pad&tags=||||8693.162||product|||MDC|rsf:gd-|-stype:attr=1|qr_nm:gd|res:RC3|com-cf:nl|ptrs:na|ktp:N0|mc:55654|mtp:S|qry_typ:P|lang:en|wc:2|cs:8840|v=4,Dear Baby,https://www.indiamart.com/dearbaby/?pos=152&kwd=baby pad&tags=||||8693.162||product|||MDC|rsf:gd-|-stype:attr=1|qr_nm:gd|res:RC3|com-cf:nl|ptrs:na|ktp:N0|mc:55654|mtp:S|qry_typ:P|lang:en|wc:2|cs:8840|v=4,False,Begambur,Dindigul,"2nd Floor, No 7, Ahmad Appartment, S P Nagar, Begambur, Begambur, Dindigul - 624002, Dist.Dindigul, Tamil Nadu",8045731862,
"Baby Knee Pads for Crawling, Elbow Safety Protector, Soft Cotton Comfortable Knee Cap-baby knee pad",https://www.indiamart.com/proddetail/baby-knee-pads-for-crawling-elbow-safety-protector-soft-cotton-comfortable-knee-cap-baby-knee-pad-21639094733.html?pos=153&kwd=baby pad&tags=||||8230.883|Price|product|||MDC|rsf:gd-|-stype:attr=1|qr_nm:gd|res:RC3|com-cf:nl|ptrs:na|ktp:N0|mc:55654|mtp:S|qry_typ:P|lang:en|wc:2|cs:8840|v=4,Unique Buyer,https://www.indiamart.com/unique-buyer/?pos=153&kwd=baby pad&tags=||||8230.883|Price|product|||MDC|rsf:gd-|-stype:attr=1|qr_nm:gd|res:RC3|com-cf:nl|ptrs:na|ktp:N0|mc:55654|mtp:S|qry_typ:P|lang:en|wc:2|cs:8840|v=4,False,Katargam,Surat,"C 25 shaymdham soc, opp archana soc,near vijayraj circal, Singanpore,, Katargam, Surat - 395004, Dist.Surat, Gujarat",7942544685,
Generic Pack Of 2 Baby Knee Pads For Crawling (color: Assorted),https://www.indiamart.com/proddetail/generic-pack-of-2-baby-knee-pads-for-crawling-color-assorted-2853957007355.html?pos=154&kwd=baby pad&tags=||||8639.861|Price|product|||MDC|rsf:gd-|-stype:attr=1|qr_nm:gd|res:RC3|com-cf:nl|ptrs:na|ktp:N0|mc:55654|mtp:S|qry_typ:P|lang:en|wc:2|cs:8840|v=4,Bhavithram Products,https://www.indiamart.com/bhavithram-products-tamilnadu/?pos=154&kwd=baby pad&tags=||||8639.861|Price|product|||MDC|rsf:gd-|-stype:attr=1|qr_nm:gd|res:RC3|com-cf:nl|ptrs:na|ktp:N0|mc:55654|mtp:S|qry_typ:P|lang:en|wc:2|cs:8840|v=4,False,Kothankulam,Rajapalayam,"73B-1 Alagathankulam Road, Kothankulam, Rajapalayam - 626117, Dist.Virudhunagar, Tamil Nadu",,
"See Green Baby Knee Pads, Hand Wash",https://www.indiamart.com/proddetail/baby-knee-pads-21234123312.html?pos=155&kwd=baby pad&tags=||||8228.275|Price|product|||MDC|rsf:gd-|-stype:attr=1|qr_nm:gd|res:RC3|com-cf:nl|ptrs:na|ktp:N0|mc:55654|mtp:S|qry_typ:P|lang:en|wc:2|cs:8840|v=4,Dream Works,https://www.indiamart.com/dreamworks-ahmedabad/?pos=155&kwd=baby pad&tags=||||8228.275|Price|product|||MDC|rsf:gd-|-stype:attr=1|qr_nm:gd|res:RC3|com-cf:nl|ptrs:na|ktp:N0|mc:55654|mtp:S|qry_typ:P|lang:en|wc:2|cs:8840|v=4,False,Sanathal,Ahmedabad,"5,Chanakya Bunglows,Nr Lad Society Common Plot,Vastrapur, Sanathal, Ahmedabad - 380054, Dist.Ahmedabad, Gujarat",8047663803,
Multicolor Crawling Baby Knee Pads Socks,https://www.indiamart.com/proddetail/crawling-baby-knee-pads-socks-2851061134633.html?pos=156&kwd=baby pad&tags=||||8752.144|Price|product|||MDC|rsf:gd-|-stype:attr=1|qr_nm:gd|res:RC3|com-cf:nl|ptrs:na|ktp:N0|mc:55654|mtp:S|qry_typ:P|lang:en|wc:2|cs:8840|v=4,Jsr Cart,https://www.indiamart.com/jsrcart-delhi/?pos=156&kwd=baby pad&tags=||||8752.144|Price|product|||MDC|rsf:gd-|-stype:attr=1|qr_nm:gd|res:RC3|com-cf:nl|ptrs:na|ktp:N0|mc:55654|mtp:S|qry_typ:P|lang:en|wc:2|cs:8840|v=4,False,Rajouri Garden,New Delhi,"Rajouri Garden, Rajouri Garden, New Delhi - 110027, Dist.Delhi, Delhi",8047300446,
Kids Knee Pads,https://www.indiamart.com/proddetail/kids-knee-pads-2854250404112.html?pos=157&kwd=baby pad&tags=||||8752.144|Price|product|||MDC|rsf:gd-|-stype:attr=1|qr_nm:gd|res:RC3|com-cf:nl|ptrs:na|ktp:N0|mc:55654|mtp:S|qry_typ:P|lang:en|wc:2|cs:8840|v=4,Devangi Enterprises,https://www.indiamart.com/devangienterprises/?pos=157&kwd=baby pad&tags=||||8752.144|Price|product|||MDC|rsf:gd-|-stype:attr=1|qr_nm:gd|res:RC3|com-cf:nl|ptrs:na|ktp:N0|mc:55654|mtp:S|qry_typ:P|lang:en|wc:2|cs:8840|v=4,False,Uttam Nagar,New Delhi,"METRO PILLAR NO 707,RAM NAGAR, NEAR BAOZI MOMOS, Uttam Nagar, New Delhi - 110059, Dist.Delhi, Delhi",8048263946,
"Baby Nappies Pads, Size: Small, Age Group: Newly Born",https://www.indiamart.com/proddetail/baby-nappies-pads-2853333498162.html?pos=158&kwd=baby pad&tags=||||8823.154|Price|product|||TS|rsf:gd-|-stype:attr=1|qr_nm:gd|res:RC3|com-cf:nl|ptrs:na|ktp:N0|mc:55654|mtp:S|qry_typ:P|lang:en|wc:2|cs:8840|v=4,Shri Anant International,https://www.indiamart.com/shrianantinternational/?pos=158&kwd=baby pad&tags=||||8823.154|Price|product|||TS|rsf:gd-|-stype:attr=1|qr_nm:gd|res:RC3|com-cf:nl|ptrs:na|ktp:N0|mc:55654|mtp:S|qry_typ:P|lang:en|wc:2|cs:8840|v=4,False,DayalBagh,Agra,"No.02,House 2,Alkapuri Phase Ii,Agra, DayalBagh, Agra - 282005, Dist.Agra, Uttar Pradesh",7942721451,
BABY KNEE PAD,,Case Plus,https://www.indiamart.com/case-plus/?pos=159&kwd=baby pad&tags=||||8281.036|Price|product|||MDC|rsf:gd-|-stype:attr=1|qr_nm:gd|res:RC3|com-cf:nl|ptrs:na|ktp:N0|mc:55654|mtp:S|qry_typ:P|lang:en|wc:2|cs:8840|v=4,False,,Vadodara,"A-22, Siddharth Annexe 3, Near Hotel Plazzo, Vemali, Vadodara - 391740, Dist.Vadodara, Gujarat",7949341771,
Baby Tape Diaper NB to XL,https://www.indiamart.com/proddetail/baby-tape-diaper-nb-to-xl-24656479797.html?pos=160&kwd=baby pad&tags=||||8754.115|Price|product|||TS|rsf:gd-|-stype:attr=1|qr_nm:gd|res:RC3|com-cf:nl|ptrs:na|ktp:N0|mc:55654|mtp:S|qry_typ:P|lang:en|wc:2|cs:8840|v=4,Dnr Healthcare Private Limited,https://www.indiamart.com/dnrhealthcare/?pos=160&kwd=baby pad&tags=||||8754.115|Price|product|||TS|rsf:gd-|-stype:attr=1|qr_nm:gd|res:RC3|com-cf:nl|ptrs:na|ktp:N0|mc:55654|mtp:S|qry_typ:P|lang:en|wc:2|cs:8840|v=4,False,Sector 8,Panchkula,"Plot No. 151 Industrial Area Phase Ii phase-2, Sector 8, Panchkula - 134109, Dist.Panchkula, Haryana",8047647074,
Toddlers Baby Diapers,https://www.indiamart.com/proddetail/toddlers-baby-diapers-16830154012.html?pos=161&kwd=baby pad&tags=||||8786.56|Price|product|||TS|rsf:gd-|-stype:attr=1|qr_nm:gd|res:RC3|com-cf:nl|ptrs:na|ktp:N0|mc:55654|mtp:S|qry_typ:P|lang:en|wc:2|cs:8840|v=4,ADML(ADROIT MOLECULES),https://www.adroitmolecules.com/?pos=161&kwd=baby pad&tags=||||8786.56|Price|product|||TS|rsf:gd-|-stype:attr=1|qr_nm:gd|res:RC3|com-cf:nl|ptrs:na|ktp:N0|mc:55654|mtp:S|qry_typ:P|lang:en|wc:2|cs:8840|v=4,False,Annaram,Hyderabad,"Plot No. 523/2 Dundigal Village , Medchal, Malkajgiri, Near Marri Laxman Reddy Engineering College, Annaram, Hyderabad - 500043, Dist.Hyderabad, Telangana",8046057643,
Baby Cotton Cloth Diaper Insert Pad,https://www.indiamart.com/proddetail/baby-cotton-cloth-diaper-insert-pad-2854709657355.html?pos=162&kwd=baby pad&tags=||||8626.744|Price|product|||MDC|rsf:gd-|-stype:attr=1|qr_nm:gd|res:RC3|com-cf:nl|ptrs:na|ktp:N0|mc:55654|mtp:S|qry_typ:P|lang:en|wc:2|cs:8840|v=4,Hugbae Kidswear Manufacturers,https://www.indiamart.com/hugbae-kidswearmanufacturers/?pos=162&kwd=baby pad&tags=||||8626.744|Price|product|||MDC|rsf:gd-|-stype:attr=1|qr_nm:gd|res:RC3|com-cf:nl|ptrs:na|ktp:N0|mc:55654|mtp:S|qry_typ:P|lang:en|wc:2|cs:8840|v=4,False,,Tiruppur,"2/301A, 2/301B,2/301C, 2/301D, SRC Nagar, Palladam Taluk, Ganapathipalayam, Tiruppur - 641605, Dist.Coimbatore, Tamil Nadu",8044460250,
"Rectangular Friends Disposable Underpads, Size: Large, 10'S",https://www.indiamart.com/proddetail/friends-disposable-underpads-25369284030.html?pos=163&kwd=baby pad&tags=||||8954.051|Price|product|||TS|rsf:gd-|-stype:attr=1|qr_nm:gd|res:RC3|com-cf:nl|ptrs:na|ktp:N0|mc:55654|mtp:S|qry_typ:P|lang:en|wc:2|cs:8840|v=4,Chris Merchant Private Limited,https://www.chrismerchant.co.in/?pos=163&kwd=baby pad&tags=||||8954.051|Price|product|||TS|rsf:gd-|-stype:attr=1|qr_nm:gd|res:RC3|com-cf:nl|ptrs:na|ktp:N0|mc:55654|mtp:S|qry_typ:P|lang:en|wc:2|cs:8840|v=4,False,Koyambedu,Chennai,"No. 5, Poonamalee High Road, Koyambedu, Chennai - 600107, Dist.Chennai, Tamil Nadu",8048956521,
Regular Pad XL Toddles Diaper,https://www.indiamart.com/proddetail/xl-toddles-diaper-2853203140497.html?pos=164&kwd=baby pad&tags=||||8876.815|Price|product|||TS|rsf:gd-|-stype:attr=1|qr_nm:gd|res:RC3|com-cf:nl|ptrs:na|ktp:N0|mc:55654|mtp:S|qry_typ:P|lang:en|wc:2|cs:8840|v=4,Smart Hygeia,https://www.indiamart.com/smarthygeia-nagpur/?pos=164&kwd=baby pad&tags=||||8876.815|Price|product|||TS|rsf:gd-|-stype:attr=1|qr_nm:gd|res:RC3|com-cf:nl|ptrs:na|ktp:N0|mc:55654|mtp:S|qry_typ:P|lang:en|wc:2|cs:8840|v=4,False,Rahate Colony,Nagpur,"Block No 702, Naniks Ashtavinayak Park Avenue Nagpur Chhavni, Sadar Nagar, Rahate Colony, Nagpur - 440001, Dist.Nagpur, Maharashtra",7942566182,
"Cotton Disposable Baby Diapers, Age Group: 3to12 Months, Size: Medium",https://www.indiamart.com/proddetail/cotton-disposable-baby-diapers-2854653011012.html?pos=165&kwd=baby pad&tags=||||8038.093|Price|product|||MDC|rsf:gd-|-stype:attr=1|qr_nm:gd|res:RC3|com-cf:nl|ptrs:na|ktp:N0|mc:55654|mtp:S|qry_typ:P|lang:en|wc:2|cs:8840|v=4,Rudransh International,https://www.indiamart.com/rudransh-international-rajkot/?pos=165&kwd=baby pad&tags=||||8038.093|Price|product|||MDC|rsf:gd-|-stype:attr=1|qr_nm:gd|res:RC3|com-cf:nl|ptrs:na|ktp:N0|mc:55654|mtp:S|qry_typ:P|lang:en|wc:2|cs:8840|v=4,False,,Rajkot,"3-indira Nagar Laxmi Nivas Kothariya Main Road Near Bhavnath Temple, Rajkot - 360002, Dist.Rajkot, Gujarat",7949323742,
F934 Toy Park 3D Area Underwater World Printing Rug Pad With Non Slip Material,https://www.indiamart.com/proddetail/f934-toy-park-3d-area-underwater-world-printing-rug-pad-with-non-slip-material-24177219830.html?pos=166&kwd=baby pad&tags=||||8752.144|Price|product|||TS|rsf:gd-|-stype:attr=1|qr_nm:gd|res:RC3|com-cf:nl|ptrs:na|ktp:N0|mc:55654|mtp:S|qry_typ:P|lang:en|wc:2|cs:8840|v=4,Toy Park Delhi Private Limited,https://www.toypark.co.in/?pos=166&kwd=baby pad&tags=||||8752.144|Price|product|||TS|rsf:gd-|-stype:attr=1|qr_nm:gd|res:RC3|com-cf:nl|ptrs:na|ktp:N0|mc:55654|mtp:S|qry_typ:P|lang:en|wc:2|cs:8840|v=4,False,Karol Bagh,New Delhi,"No. 17A/56, W.E.A, Karol Bagh, Near Metro Pillar 98-99, Karol Bagh, New Delhi - 110005, Dist.Delhi, Delhi",8046052967,
Gracie 280mm Sanitary Pad,https://www.indiamart.com/proddetail/gracie-280mm-sanitary-pad-25541157948.html?pos=167&kwd=baby pad&tags=||||8752.144|Price|product|||TS|rsf:gd-|-stype:attr=1|qr_nm:gd|res:RC3|com-cf:nl|ptrs:na|ktp:N0|mc:55654|mtp:S|qry_typ:P|lang:en|wc:2|cs:8840|v=4,Maitri Health And Hygiene,https://www.indiamart.com/maitri-healthandhygiene/?pos=167&kwd=baby pad&tags=||||8752.144|Price|product|||TS|rsf:gd-|-stype:attr=1|qr_nm:gd|res:RC3|com-cf:nl|ptrs:na|ktp:N0|mc:55654|mtp:S|qry_typ:P|lang:en|wc:2|cs:8840|v=4,False,Shalimar Bagh,New Delhi,"Flat No. 10-D/E, Block And Pocket-Cc, Shalimar Bagh, Shalimar Bagh, New Delhi - 110088, Dist.Delhi, Delhi",8047658643,
"Grey And Blue Baby Woolen Knee Pad, 3-12 Months",https://www.indiamart.com/proddetail/baby-woolen-knee-pad-2853945958288.html?pos=168&kwd=baby pad&tags=||||8230.883|Price|product|||TS|rsf:gd-|-stype:attr=1|qr_nm:gd|res:RC3|com-cf:nl|ptrs:na|ktp:N0|mc:55654|mtp:S|qry_typ:P|lang:en|wc:2|cs:8840|v=4,Manisha Enterprise,https://www.indiamart.com/manishaenterprisesurat/?pos=168&kwd=baby pad&tags=||||8230.883|Price|product|||TS|rsf:gd-|-stype:attr=1|qr_nm:gd|res:RC3|com-cf:nl|ptrs:na|ktp:N0|mc:55654|mtp:S|qry_typ:P|lang:en|wc:2|cs:8840|v=4,False,Amroli,Surat,"GF C-75, Somnath Adarshnagar 1, Chprabhata Road, Amroli, Amroli, Surat - 394107, Dist.Surat, Gujarat",7949372906,
"Mix Day Night Care Baby Diapers (Small, Medium, Large), Packaging Type: Pouches, Age Group: 3-12 Months",https://www.indiamart.com/proddetail/day-night-care-baby-diapers-small-medium-large-2851616726548.html?pos=169&kwd=baby pad&tags=||||8752.144|Price|proxy|||TS|rsf:gd-|-stype:attr=1|qr_nm:gd|res:RC3|com-cf:nl|ptrs:na|ktp:N0|mc:55654|mtp:S|qry_typ:P|lang:en|wc:2|cs:8840|v=4,MSND Manufacturing,https://www.indiamart.com/msnd-manufacturing/?pos=169&kwd=baby pad&tags=||||8752.144|Price|proxy|||TS|rsf:gd-|-stype:attr=1|qr_nm:gd|res:RC3|com-cf:nl|ptrs:na|ktp:N0|mc:55654|mtp:S|qry_typ:P|lang:en|wc:2|cs:8840|v=4,False,Mandoli,New Delhi,"Ground Floor at C-2/80, floor-Kh. No. 34/1/1, G/F, Gali No.2, Harsh Vihar,, Mandoli, New Delhi - 110093, Dist.Delhi, Delhi",8046032266,
Freshkins Sweet Baby Pant,https://www.indiamart.com/proddetail/freshkins-sweet-baby-pant-2854080658948.html?pos=170&kwd=baby pad&tags=||||8230.883||proxy|||TS|rsf:gd-|-stype:attr=1|qr_nm:gd|res:RC3|com-cf:nl|ptrs:na|ktp:N0|mc:55654|mtp:S|qry_typ:P|lang:en|wc:2|cs:8840|v=4,Hygiene Product,https://www.freshkin.co.in/?pos=170&kwd=baby pad&tags=||||8230.883||proxy|||TS|rsf:gd-|-stype:attr=1|qr_nm:gd|res:RC3|com-cf:nl|ptrs:na|ktp:N0|mc:55654|mtp:S|qry_typ:P|lang:en|wc:2|cs:8840|v=4,False,Sagrampura Putli,Surat,"9002 B, World Trade Center Ring Road, Sagrampura Putli, Surat - 395002, Dist.Surat, Gujarat",8048610916,
"7 soft 36 Months L Size Baby Pant Style Daipers, Packaging Size: 30 Pieces",https://www.indiamart.com/proddetail/l-size-baby-pant-style-daipers-26463880188.html?pos=171&kwd=baby pad&tags=||||8230.883|Price|proxy|||TS|rsf:gd-|-stype:attr=1|qr_nm:gd|res:RC3|com-cf:nl|ptrs:na|ktp:N0|mc:55654|mtp:S|qry_typ:P|lang:en|wc:2|cs:8840|v=4,M. D. Hygiene Private Limited,https://www.mdhygieneindia.com/?pos=171&kwd=baby pad&tags=||||8230.883|Price|proxy|||TS|rsf:gd-|-stype:attr=1|qr_nm:gd|res:RC3|com-cf:nl|ptrs:na|ktp:N0|mc:55654|mtp:S|qry_typ:P|lang:en|wc:2|cs:8840|v=4,True,Tadkeshwar,Surat,"Block No. 959, Kim Mandvi Road, Tadkeshwar, Surat - 394170, Dist.Surat, Gujarat",8046050788,
"Bella Happy Baby Diapers Large 80 Pcs, Age Group: 5 Year",https://www.indiamart.com/proddetail/bella-happy-baby-diapers-large-80-pcs-27627308933.html?pos=172&kwd=baby pad&tags=||||8663.873|Price|proxy|||TS|rsf:gd-|-stype:attr=1|qr_nm:gd|res:RC3|com-cf:nl|ptrs:na|ktp:N0|mc:55654|mtp:S|qry_typ:P|lang:en|wc:2|cs:8840|v=4,TZMO India South Private Limited,https://www.indiamart.com/tzmoindiasouth/?pos=172&kwd=baby pad&tags=||||8663.873|Price|proxy|||TS|rsf:gd-|-stype:attr=1|qr_nm:gd|res:RC3|com-cf:nl|ptrs:na|ktp:N0|mc:55654|mtp:S|qry_typ:P|lang:en|wc:2|cs:8840|v=4,False,New Timber Yard Layout,Bengaluru,"No.2, 1st Floor, Featherlite Building, Mysore Road, New Timber Yard Layout, New Timber Yard Layout, Bengaluru - 560026, Dist.Bengaluru, Karnataka",8048619127,
"Nonwoven Disposable Newborn Baby Diaper, Age Group: Newly Born, Packaging Size: 24",https://www.indiamart.com/proddetail/baby-diaper-newborn-22990172433.html?pos=173&kwd=baby pad&tags=||||9870.655|Price|proxy|||TS|rsf:gd-|-stype:attr=1|qr_nm:gd|res:RC3|com-cf:nl|ptrs:na|ktp:N0|mc:55654|mtp:S|qry_typ:P|lang:en|wc:2|cs:8840|v=4,Bengal Feminine Care,https://www.indiamart.com/bengal-feminine-care/?pos=173&kwd=baby pad&tags=||||9870.655|Price|proxy|||TS|rsf:gd-|-stype:attr=1|qr_nm:gd|res:RC3|com-cf:nl|ptrs:na|ktp:N0|mc:55654|mtp:S|qry_typ:P|lang:en|wc:2|cs:8840|v=4,False,Barasat,Habra,"Habra, No. 2 ,Railway Gate, District North 24 Parganas, Barasat, Habra - 743263, Dist.North 24 Parganas, West Bengal",8046062955,
Cotton Printed Small Baby Diaper,https://www.indiamart.com/proddetail/printed-small-baby-diaper-2850567830173.html?pos=174&kwd=baby pad&tags=||||8559.269|Price|proxy|||TS|rsf:gd-|-stype:attr=1|qr_nm:gd|res:RC3|com-cf:nl|ptrs:na|ktp:N0|mc:55654|mtp:S|qry_typ:P|lang:en|wc:2|cs:8840|v=4,ITO Healthcare Private Limited,https://www.indiamart.com/itohealthcare-madhyapradesh/?pos=174&kwd=baby pad&tags=||||8559.269|Price|proxy|||TS|rsf:gd-|-stype:attr=1|qr_nm:gd|res:RC3|com-cf:nl|ptrs:na|ktp:N0|mc:55654|mtp:S|qry_typ:P|lang:en|wc:2|cs:8840|v=4,False,Manglaya Sadak,Indore,"558 Talawali Chanda Panchvati Colony, Manglaya Sadak, Indore - 453771, Dist.Indore, Madhya Pradesh",7942956583,
"Nonwoven Little Angel Baby Diapers Pant, Size: Small medium large XL",https://www.indiamart.com/proddetail/little-angel-baby-diapers-pant-22894519488.html?pos=175&kwd=baby pad&tags=||||8281.036|Price|proxy|||TS|rsf:gd-|-stype:attr=1|qr_nm:gd|res:RC3|com-cf:nl|ptrs:na|ktp:N0|mc:55654|mtp:S|qry_typ:P|lang:en|wc:2|cs:8840|v=4,Novelty Hosiery,https://www.indiamart.com/novelty-hosiery/?pos=175&kwd=baby pad&tags=||||8281.036|Price|proxy|||TS|rsf:gd-|-stype:attr=1|qr_nm:gd|res:RC3|com-cf:nl|ptrs:na|ktp:N0|mc:55654|mtp:S|qry_typ:P|lang:en|wc:2|cs:8840|v=4,False,Chokshi Bazar,Vadodara,"M G Road 00 Laheripura Gate Nr Angadiya Gali, Chokshi Bazar, Vadodara - 390001, Dist.Vadodara, Gujarat",7942565948,
Nonwoven BABY DIAPER A GRADE LOOSE,https://www.indiamart.com/proddetail/baby-diaper-a-grade-loose-2852082390173.html?pos=176&kwd=baby pad&tags=||||8559.269|Price|product|||TS|rsf:gd-|-stype:attr=1|qr_nm:gd|res:RC3|com-cf:nl|ptrs:na|ktp:N0|mc:55654|mtp:S|qry_typ:P|lang:en|wc:2|cs:8840|v=4,HZ Enterprises,https://www.indiamart.com/hz-enterprises-madhyapradesh/?pos=176&kwd=baby pad&tags=||||8559.269|Price|product|||TS|rsf:gd-|-stype:attr=1|qr_nm:gd|res:RC3|com-cf:nl|ptrs:na|ktp:N0|mc:55654|mtp:S|qry_typ:P|lang:en|wc:2|cs:8840|v=4,False,Sudama Nagar,Indore,"2, Manikbag Road, Sudama Nagar, Indore - 452009, Dist.Indore, Madhya Pradesh",7942791847,
F934 Toy Park 3D Area Underwater World Printing Rug Pad With Non Slip Material,https://www.indiamart.com/proddetail/f934-toy-park-3d-area-underwater-world-printing-rug-pad-with-non-slip-material-24177219830.html?pos=177&kwd=baby pad&tags=||||8752.144|Price|product|||TS|rsf:gd-|-stype:attr=1|qr_nm:gd|res:RC3|com-cf:nl|ptrs:na|ktp:N0|mc:55654|mtp:S|qry_typ:P|lang:en|wc:2|cs:8840|v=4,Toy Park Delhi Private Limited,https://www.toypark.co.in/?pos=177&kwd=baby pad&tags=||||8752.144|Price|product|||TS|rsf:gd-|-stype:attr=1|qr_nm:gd|res:RC3|com-cf:nl|ptrs:na|ktp:N0|mc:55654|mtp:S|qry_typ:P|lang:en|wc:2|cs:8840|v=4,False,Karol Bagh,New Delhi,"No. 17A/56, W.E.A, Karol Bagh, Near Metro Pillar 98-99, Karol Bagh, New Delhi - 110005, Dist.Delhi, Delhi",8046052967,
"Cotton Baby Diaper Large Size, Medium",https://www.indiamart.com/proddetail/baby-diaper-large-size-2853301269912.html?pos=178&kwd=baby pad&tags=||||8559.269|Price|proxy|||TS|rsf:gd-|-stype:attr=1|qr_nm:gd|res:RC3|com-cf:nl|ptrs:na|ktp:N0|mc:55654|mtp:S|qry_typ:P|lang:en|wc:2|cs:8840|v=4,Pulkit Enterprises,https://www.indiamart.com/pulkitenterprises-indor/?pos=178&kwd=baby pad&tags=||||8559.269|Price|proxy|||TS|rsf:gd-|-stype:attr=1|qr_nm:gd|res:RC3|com-cf:nl|ptrs:na|ktp:N0|mc:55654|mtp:S|qry_typ:P|lang:en|wc:2|cs:8840|v=4,False,,Indore,"505, Kalpana Apartment, 1, 7,South Tukoganj, Indore - 452001, Dist.Indore, Madhya Pradesh",8048961141,
Printed Reusable Baby Cloth Diaper,https://www.indiamart.com/proddetail/printed-reusable-baby-cloth-diaper-2853403079973.html?pos=179&kwd=baby pad&tags=||||8752.144|Price|proxy|||TS|rsf:gd-|-stype:attr=1|qr_nm:gd|res:RC3|com-cf:nl|ptrs:na|ktp:N0|mc:55654|mtp:S|qry_typ:P|lang:en|wc:2|cs:8840|v=4,Bikauaa Private Limited,https://www.indiamart.com/bikauaa/?pos=179&kwd=baby pad&tags=||||8752.144|Price|proxy|||TS|rsf:gd-|-stype:attr=1|qr_nm:gd|res:RC3|com-cf:nl|ptrs:na|ktp:N0|mc:55654|mtp:S|qry_typ:P|lang:en|wc:2|cs:8840|v=4,False,Nangloi,New Delhi,"H.NO-C-64/2 ,KH-12/7/1, Amanpuri Nangloi West, Nangloi, New Delhi - 110041, Dist.Delhi, Delhi",7942796091,
Baby Smiley Knee Pads,https://www.indiamart.com/proddetail/baby-smiley-knee-pads-2854101026297.html?pos=180&kwd=baby pad&tags=||||8230.883|Price|product|||TS|rsf:gd-|-stype:attr=1|qr_nm:gd|res:RC3|com-cf:nl|ptrs:na|ktp:N0|mc:55654|mtp:S|qry_typ:P|lang:en|wc:2|cs:8840|v=4,Godfather Medicare Agency,https://www.godfatherimpex.com/?pos=180&kwd=baby pad&tags=||||8230.883|Price|product|||TS|rsf:gd-|-stype:attr=1|qr_nm:gd|res:RC3|com-cf:nl|ptrs:na|ktp:N0|mc:55654|mtp:S|qry_typ:P|lang:en|wc:2|cs:8840|v=4,False,,Surat,"165, Shubhlaxmi Society, Nana Varachha, Surat - 395006, Dist.Surat, Gujarat",8044456116,
Baby Slapped pad,https://www.indiamart.com/proddetail/baby-slapped-pad-24032420930.html?pos=181&kwd=baby pad&tags=||||8752.144|Price|product|||TS|rsf:gd-|-stype:attr=1|qr_nm:gd|res:RC3|com-cf:nl|ptrs:na|ktp:N0|mc:55654|mtp:S|qry_typ:P|lang:en|wc:2|cs:8840|v=4,J&D Sales,https://www.indiamart.com/j-d-sales/?pos=181&kwd=baby pad&tags=||||8752.144|Price|product|||TS|rsf:gd-|-stype:attr=1|qr_nm:gd|res:RC3|com-cf:nl|ptrs:na|ktp:N0|mc:55654|mtp:S|qry_typ:P|lang:en|wc:2|cs:8840|v=4,False,Azadpur,New Delhi,"Ga-12,G/F,Gopal Nagar Azadpur,New Delhi, Azadpur, New Delhi - 110033, Dist.Delhi, Delhi",7942545246,
"Printed Kids Baby Diapers m sizes, Packaging Size: Medium",https://www.indiamart.com/proddetail/kids-baby-diapers-m-sizes-2854157215391.html?pos=182&kwd=baby pad&tags=||||8739.675|Price|proxy|||MDC|rsf:gd-|-stype:attr=1|qr_nm:gd|res:RC3|com-cf:nl|ptrs:na|ktp:N0|mc:55654|mtp:S|qry_typ:P|lang:en|wc:2|cs:8840|v=4,Sneh Industry,https://www.indiamart.com/snehindustry/?pos=182&kwd=baby pad&tags=||||8739.675|Price|proxy|||MDC|rsf:gd-|-stype:attr=1|qr_nm:gd|res:RC3|com-cf:nl|ptrs:na|ktp:N0|mc:55654|mtp:S|qry_typ:P|lang:en|wc:2|cs:8840|v=4,False,Sultanpur,Amravati,"Near Gram Panchayat, Sultanpur, Revsa, Sultanpur, Amravati - 444801, Dist.Amravati, Maharashtra",7942784375,
"Printed Kids Baby Diapers m sizes, Packaging Size: Medium",https://www.indiamart.com/proddetail/kids-baby-diapers-m-sizes-2854157215391.html?pos=183&kwd=baby pad&tags=||||8739.675|Price|proxy|||MDC|rsf:gd-|-stype:attr=1|qr_nm:gd|res:RC3|com-cf:nl|ptrs:na|ktp:N0|mc:55654|mtp:S|qry_typ:P|lang:en|wc:2|cs:8840|v=4,Sneh Industry,https://www.indiamart.com/snehindustry/?pos=183&kwd=baby pad&tags=||||8739.675|Price|proxy|||MDC|rsf:gd-|-stype:attr=1|qr_nm:gd|res:RC3|com-cf:nl|ptrs:na|ktp:N0|mc:55654|mtp:S|qry_typ:P|lang:en|wc:2|cs:8840|v=4,False,Sultanpur,Amravati,"Near Gram Panchayat, Sultanpur, Revsa, Sultanpur, Amravati - 444801, Dist.Amravati, Maharashtra",7942784375,
Nonwoven Baby Diaper Pants,https://www.indiamart.com/proddetail/baby-diaper-pants-2852729199248.html?pos=184&kwd=baby pad&tags=||||8228.275|Price|proxy|||TS|rsf:gd-|-stype:attr=1|qr_nm:gd|res:RC3|com-cf:nl|ptrs:na|ktp:N0|mc:55654|mtp:S|qry_typ:P|lang:en|wc:2|cs:8840|v=4,Akshaya Enterprise,https://www.indiamart.com/akshayaenterpriseahmedabad/?pos=184&kwd=baby pad&tags=||||8228.275|Price|proxy|||TS|rsf:gd-|-stype:attr=1|qr_nm:gd|res:RC3|com-cf:nl|ptrs:na|ktp:N0|mc:55654|mtp:S|qry_typ:P|lang:en|wc:2|cs:8840|v=4,False,Dudheshwar,Ahmedabad,"C-103, First Floor, Shri Hari Residency, Near Sakar School, New C.G. Road, Chandkheda, Dudheshwar, Ahmedabad - 382424, Dist.Ahmedabad, Gujarat",8048983196,
Baby Knee and Elbow pad Baby Crawling Elbow pad Baby Leg Warmer Baby Kneecap (Multi Color),https://www.indiamart.com/proddetail/baby-knee-and-elbow-pad-baby-crawling-elbow-pad-baby-leg-warmer-baby-kneecap-multi-color-2854248721348.html?pos=185&kwd=baby pad&tags=||||8230.883|Price|product|||TS|rsf:gd-|-stype:attr=1|qr_nm:gd|res:RC3|com-cf:nl|ptrs:na|ktp:N0|mc:55654|mtp:S|qry_typ:P|lang:en|wc:2|cs:8840|v=4,RJ Enterprise,https://www.indiamart.com/rj-enterprise-surat/?pos=185&kwd=baby pad&tags=||||8230.883|Price|product|||TS|rsf:gd-|-stype:attr=1|qr_nm:gd|res:RC3|com-cf:nl|ptrs:na|ktp:N0|mc:55654|mtp:S|qry_typ:P|lang:en|wc:2|cs:8840|v=4,False,Katargam,Surat,"134, Sahjanand Society, N/R Arogyakendra, Katargam, Katargam, Surat - 395004, Dist.Surat, Gujarat",7942555306,
Rubber Baby Crawling Anti Slip Knee Pads,https://www.indiamart.com/proddetail/baby-crawling-anti-slip-knee-pads-23337182991.html?pos=186&kwd=baby pad&tags=||||8228.275|Price|product|||TS|rsf:gd-|-stype:attr=1|qr_nm:gd|res:RC3|com-cf:nl|ptrs:na|ktp:N0|mc:55654|mtp:S|qry_typ:P|lang:en|wc:2|cs:8840|v=4,King Enterprise,https://www.kingenterpriseindia.com/?pos=186&kwd=baby pad&tags=||||8228.275|Price|product|||TS|rsf:gd-|-stype:attr=1|qr_nm:gd|res:RC3|com-cf:nl|ptrs:na|ktp:N0|mc:55654|mtp:S|qry_typ:P|lang:en|wc:2|cs:8840|v=4,False,Opp. Haripura Bus Stand,Ahmedabad,"Block- E 28, Ground Floor, Abhishek Estate-1, Opp. Haripura Bus Stand, Ahmedabad - 380016, Dist.Ahmedabad, Gujarat",8047632934,
Foam Baby Knee & Elbow Guard Pad,https://www.indiamart.com/proddetail/baby-knee-elbow-guard-pad-2852852538933.html?pos=187&kwd=baby pad&tags=||||8584.299|Price|product|||TS|rsf:gd-|-stype:attr=1|qr_nm:gd|res:RC3|com-cf:nl|ptrs:na|ktp:N0|mc:55654|mtp:S|qry_typ:P|lang:en|wc:2|cs:8840|v=4,BKH Enterprises,https://www.bkhenterprises.net/?pos=187&kwd=baby pad&tags=||||8584.299|Price|product|||TS|rsf:gd-|-stype:attr=1|qr_nm:gd|res:RC3|com-cf:nl|ptrs:na|ktp:N0|mc:55654|mtp:S|qry_typ:P|lang:en|wc:2|cs:8840|v=4,False,Annai Indra Nagar,Coimbatore,"45,West Subramaniam Street,RS Puram, Annai Indra Nagar, Coimbatore - 641001, Dist.Coimbatore, Tamil Nadu",8046066722,
Sonal Mandap Tailors,,Sonal Mandap Tailors,https://www.indiamart.com/sonal-mandap-tailors/?pos=188&kwd=baby pad&tags=||||8228.275||bl|||TS|rsf:gd-|-stype:attr=1|qr_nm:gd|res:RC3|com-cf:nl|ptrs:na|ktp:N0|mc:55654|mtp:S|qry_typ:P|lang:en|wc:2|cs:8840|v=4,False,Motera,Ahmedabad,"Thakorvas 253 Motera Koteshwar, Motera, Ahmedabad - 380005, Dist.Ahmedabad, Gujarat",7942544361,
Leapable 2 Pair Baby Knee and Elbow pad Baby Crawling Elbow pad Baby Leg Warmer Baby Kneecap,https://www.indiamart.com/proddetail/leapable-2-pair-baby-knee-and-elbow-pad-baby-crawling-elbow-pad-baby-leg-warmer-baby-kneecap-2853614068130.html?pos=189&kwd=baby pad&tags=||||8230.883|Price|product|||MDC|rsf:gd-|-stype:attr=1|qr_nm:gd|res:RC3|com-cf:nl|ptrs:na|ktp:N0|mc:55654|mtp:S|qry_typ:P|lang:en|wc:2|cs:8840|v=4,Krishna Enterprise,https://www.indiamart.com/krishnaenterprise-surat-gujaratindia/?pos=189&kwd=baby pad&tags=||||8230.883|Price|product|||MDC|rsf:gd-|-stype:attr=1|qr_nm:gd|res:RC3|com-cf:nl|ptrs:na|ktp:N0|mc:55654|mtp:S|qry_typ:P|lang:en|wc:2|cs:8840|v=4,False,Mankna,Surat,"Plot No-3 Block No.278 Krishna Residency Vibhag-2 Mankna, Mankna, Surat - 394325, Dist.Surat, Gujarat",7942708926,
"Multicolor Cotton Baby Knee Pad For Crawling, Machine And Hand Wash",https://www.indiamart.com/proddetail/baby-knee-pad-for-crawling-23021323912.html?pos=190&kwd=baby pad&tags=||||8228.275|Price|product|||TS|rsf:gd-|-stype:attr=1|qr_nm:gd|res:RC3|com-cf:nl|ptrs:na|ktp:N0|mc:55654|mtp:S|qry_typ:P|lang:en|wc:2|cs:8840|v=4,Vitus International,https://www.indiamart.com/vitus-international/?pos=190&kwd=baby pad&tags=||||8228.275|Price|product|||TS|rsf:gd-|-stype:attr=1|qr_nm:gd|res:RC3|com-cf:nl|ptrs:na|ktp:N0|mc:55654|mtp:S|qry_typ:P|lang:en|wc:2|cs:8840|v=4,False,Chamanpura,Ahmedabad,"21-D, Block - C Sumel Business Park 5, Chamanpura, Ahmedabad - 380016, Dist.Ahmedabad, Gujarat",8046045482,
Baby Cloth Diaper With 5 Layer Bamboo Charcoal Insert Pad,https://www.indiamart.com/proddetail/baby-cloth-diaper-with-5-layer-bamboo-charcoal-insert-pad-24447871097.html?pos=191&kwd=baby pad&tags=||||8752.144|Price|product|||TS|rsf:gd-|-stype:attr=1|qr_nm:gd|res:RC3|com-cf:nl|ptrs:na|ktp:N0|mc:55654|mtp:S|qry_typ:P|lang:en|wc:2|cs:8840|v=4,Shaifali Traders,https://www.shopphiez.com/?pos=191&kwd=baby pad&tags=||||8752.144|Price|product|||TS|rsf:gd-|-stype:attr=1|qr_nm:gd|res:RC3|com-cf:nl|ptrs:na|ktp:N0|mc:55654|mtp:S|qry_typ:P|lang:en|wc:2|cs:8840|v=4,False,PATPARGANJ,New Delhi,"Plot No 10, main road patparganj ganj, PATPARGANJ, New Delhi - 110091, Dist.Delhi, Delhi",8046033629,
Ball Print Baby Knee Pads for Crawling Anti-Slip Soft Cotton Comfortable Knee Cap,https://www.indiamart.com/proddetail/ball-print-baby-knee-pads-for-crawling-anti-slip-soft-cotton-comfortable-knee-cap-2853162911430.html?pos=192&kwd=baby pad&tags=||||8230.883|Price|product|||MDC|rsf:gd-|-stype:attr=1|qr_nm:gd|res:RC3|com-cf:nl|ptrs:na|ktp:N0|mc:55654|mtp:S|qry_typ:P|lang:en|wc:2|cs:8840|v=4,Beyond Unique Enterprises,https://www.indiamart.com/beyonduniqueenterprises/?pos=192&kwd=baby pad&tags=||||8230.883|Price|product|||MDC|rsf:gd-|-stype:attr=1|qr_nm:gd|res:RC3|com-cf:nl|ptrs:na|ktp:N0|mc:55654|mtp:S|qry_typ:P|lang:en|wc:2|cs:8840|v=4,False,Katargam,Surat,"180, Bhagwan Nagar Society, Ved Nagar Char Rasta, Magan Nagar 2 Ni Pachhal, Katargam, Katargam, Surat - 395004, Dist.Surat, Gujarat",8047527253,
"Blue Newnik Cozymat Soft Water Proof, For Clinic, Size/Dimension: 0.7 Mtr * 1.0 Mtr",https://www.indiamart.com/proddetail/newnik-cozymat-soft-water-proof-26195617188.html?pos=193&kwd=baby pad&tags=||||8307.81|Price|product|||TS|rsf:gd-|-stype:attr=1|qr_nm:gd|res:RC3|com-cf:nl|ptrs:na|ktp:N0|mc:55654|mtp:S|qry_typ:P|lang:en|wc:2|cs:8840|v=4,Bhairavi Surgicals & Distributors,https://www.bhairavisurgical.in/?pos=193&kwd=baby pad&tags=||||8307.81|Price|product|||TS|rsf:gd-|-stype:attr=1|qr_nm:gd|res:RC3|com-cf:nl|ptrs:na|ktp:N0|mc:55654|mtp:S|qry_typ:P|lang:en|wc:2|cs:8840|v=4,False,Uruli Devachi,Pune,"Uruli Devachi, Near HP Petrol Pump Mantarwadi, Uruli Devachi, Pune - 412308, Dist.Pune, Maharashtra",8048953479,
"Cloth Baby Diapers, Age Group: 3-12 Months",https://www.indiamart.com/proddetail/cloth-baby-diapers-2852539928130.html?pos=194&kwd=baby pad&tags=||||8038.093|Price|product|||TS|rsf:gd-|-stype:attr=1|qr_nm:gd|res:RC3|com-cf:nl|ptrs:na|ktp:N0|mc:55654|mtp:S|qry_typ:P|lang:en|wc:2|cs:8840|v=4,Glowlyf Tradelink Private Limited,https://www.indiamart.com/glowlyftradelinkprivatelimited/?pos=194&kwd=baby pad&tags=||||8038.093|Price|product|||TS|rsf:gd-|-stype:attr=1|qr_nm:gd|res:RC3|com-cf:nl|ptrs:na|ktp:N0|mc:55654|mtp:S|qry_typ:P|lang:en|wc:2|cs:8840|v=4,False,GIDC,Rajkot,"Gidc 2, Plot No 136, Opp. R M Steel, Aji Industrial Estate, Rajkot Industrial Area Dhamalpar, GIDC, Rajkot - 360003, Dist.Rajkot, Gujarat",7942711689,
"Sanitary Napkin Pad, 8 Pads, Regular",https://www.indiamart.com/proddetail/sanitary-napkin-pad-2853887754533.html?pos=195&kwd=baby pad&tags=||||8601.347|Price|product|||TS|rsf:gd-|-stype:attr=1|qr_nm:gd|res:RC3|com-cf:nl|ptrs:na|ktp:N0|mc:55654|mtp:S|qry_typ:P|lang:en|wc:2|cs:8840|v=4,Orphee Lifesciences LLP,https://www.indiamart.com/orpheelifesciences/?pos=195&kwd=baby pad&tags=||||8601.347|Price|product|||TS|rsf:gd-|-stype:attr=1|qr_nm:gd|res:RC3|com-cf:nl|ptrs:na|ktp:N0|mc:55654|mtp:S|qry_typ:P|lang:en|wc:2|cs:8840|v=4,False,Ram Nagar Extention,Jaipur,"Ganesh Nagar P. No. 70-a Sodala, Ram Nagar Extention, Jaipur - 302019, Dist.Jaipur, Rajasthan",7949089910,
"Cotton Disposable Baby Diapers, Small",https://www.indiamart.com/proddetail/disposable-baby-diapers-2851236578148.html?pos=196&kwd=baby pad&tags=||||8228.275|Price|product|||TS|rsf:gd-|-stype:attr=1|qr_nm:gd|res:RC3|com-cf:nl|ptrs:na|ktp:N0|mc:55654|mtp:S|qry_typ:P|lang:en|wc:2|cs:8840|v=4,Aspire Healthcare,https://www.indiamart.com/aspire-healthcare/?pos=196&kwd=baby pad&tags=||||8228.275|Price|product|||TS|rsf:gd-|-stype:attr=1|qr_nm:gd|res:RC3|com-cf:nl|ptrs:na|ktp:N0|mc:55654|mtp:S|qry_typ:P|lang:en|wc:2|cs:8840|v=4,False,Gota,Ahmedabad,"Shop no -19 ,Serenity Space,S G Highway, New Gota, Gota, Ahmedabad - 382481, Dist.Ahmedabad, Gujarat",8046039668,
Baby Knee & Elbow Guard (Set Of 1),https://www.indiamart.com/proddetail/baby-knee-elbow-guard-set-of-1-2853521258091.html?pos=197&kwd=baby pad&tags=||||8557.848|Price|product|||TS|rsf:gd-|-stype:attr=1|qr_nm:gd|res:RC3|com-cf:nl|ptrs:na|ktp:N0|mc:55654|mtp:S|qry_typ:P|lang:en|wc:2|cs:8840|v=4,Deal IND ( A Brand of Store APT ),https://www.indiamart.com/deal-ind/?pos=197&kwd=baby pad&tags=||||8557.848|Price|product|||TS|rsf:gd-|-stype:attr=1|qr_nm:gd|res:RC3|com-cf:nl|ptrs:na|ktp:N0|mc:55654|mtp:S|qry_typ:P|lang:en|wc:2|cs:8840|v=4,False,Kalanjoor,Pathanamthitta,"16/589 Kalanjoor Kalanjoor, Kalanjoor, Pathanamthitta - 689694, Dist.Pathanamthitta, Kerala",,
Baby Crawling Anti Slip Knee Pads,https://www.indiamart.com/proddetail/baby-crawling-anti-slip-knee-pads-2851421167848.html?pos=198&kwd=baby pad&tags=||||8752.144|Price|product|||TS|rsf:gd-|-stype:attr=1|qr_nm:gd|res:RC3|com-cf:nl|ptrs:na|ktp:N0|mc:55654|mtp:S|qry_typ:P|lang:en|wc:2|cs:8840|v=4,Varun Enterprises,https://www.indiamart.com/varunenterprises-newdelhi-india/?pos=198&kwd=baby pad&tags=||||8752.144|Price|product|||TS|rsf:gd-|-stype:attr=1|qr_nm:gd|res:RC3|com-cf:nl|ptrs:na|ktp:N0|mc:55654|mtp:S|qry_typ:P|lang:en|wc:2|cs:8840|v=4,False,West Sant Nagar,New Delhi,"Hno1 Bhattacharya Lane, Bengali Colony, Burari, North Delhi, West Sant Nagar, New Delhi - 110084, Dist.Delhi, Delhi",8043887359,
"Baby Knee & Elbow Guard/pad for Crawling, Toddlers, Infant, Girl, Boys, Safety Protector",https://www.indiamart.com/proddetail/baby-knee-elbow-guard-pad-for-crawling-toddlers-infant-girl-boys-safety-protector-2851568216488.html?pos=199&kwd=baby pad&tags=||||8230.883|Price|product|||TS|rsf:gd-|-stype:attr=1|qr_nm:gd|res:RC3|com-cf:nl|ptrs:na|ktp:N0|mc:55654|mtp:S|qry_typ:P|lang:en|wc:2|cs:8840|v=4,Roy Enterprise,https://www.royenterprise.in.net/?pos=199&kwd=baby pad&tags=||||8230.883|Price|product|||TS|rsf:gd-|-stype:attr=1|qr_nm:gd|res:RC3|com-cf:nl|ptrs:na|ktp:N0|mc:55654|mtp:S|qry_typ:P|lang:en|wc:2|cs:8840|v=4,False,Katargam,Surat,"Gf Plot No. 19 Katargam Ambatalavadi Road Gajanand Park, Katargam, Surat - 395004, Dist.Surat, Gujarat",7942842648,
Foam Kids Knee Protector,https://www.indiamart.com/proddetail/kids-knee-protector-27570659362.html?pos=200&kwd=baby pad&tags=||||8228.275|Price|product|||TS|rsf:gd-|-stype:attr=1|qr_nm:gd|res:RC3|com-cf:nl|ptrs:na|ktp:N0|mc:55654|mtp:S|qry_typ:P|lang:en|wc:2|cs:8840|v=4,See Inside,https://www.seeinside.co.in/?pos=200&kwd=baby pad&tags=||||8228.275|Price|product|||TS|rsf:gd-|-stype:attr=1|qr_nm:gd|res:RC3|com-cf:nl|ptrs:na|ktp:N0|mc:55654|mtp:S|qry_typ:P|lang:en|wc:2|cs:8840|v=4,False,Kathwada,Ahmedabad,"A/6 - Zaveri Estate, Odhav Industrial Estate, Singarwa Kathwada Rd, Nr. Shubh Industrial Estate Kathwada, Kathwada, Ahmedabad - 382430, Dist.Ahmedabad, Gujarat",8048611458,
"Baby Knee & Elbow Guard/Pad For Crawling, Toddlers, Infant, Girl, Boys, Safety Protector Comfortable",https://www.indiamart.com/proddetail/baby-knee-elbow-guard-pad-for-crawling-toddlers-infant-girl-boys-safety-protector-comfortable-2852991483633.html?pos=201&kwd=baby pad&tags=||||8752.144||product|||TS|rsf:gd-|-stype:attr=1|qr_nm:gd|res:RC3|com-cf:nl|ptrs:na|ktp:N0|mc:55654|mtp:S|qry_typ:P|lang:en|wc:2|cs:8840|v=4,MS Enterprises,https://www.themayansh.com/?pos=201&kwd=baby pad&tags=||||8752.144||product|||TS|rsf:gd-|-stype:attr=1|qr_nm:gd|res:RC3|com-cf:nl|ptrs:na|ktp:N0|mc:55654|mtp:S|qry_typ:P|lang:en|wc:2|cs:8840|v=4,False,Shakurpur,New Delhi,"3503, Block WZ, Raja Park, Shakur Basti,North West, Shakurpur, New Delhi - 110034, Dist.Delhi, Delhi",8047650795,
Cotton Baby Crawling Anti Slip Knee Pads,https://www.indiamart.com/proddetail/baby-crawling-anti-slip-knee-pads-2849179864355.html?pos=202&kwd=baby pad&tags=||||8752.144|Price|product|||TS|rsf:gd-|-stype:attr=1|qr_nm:gd|res:RC3|com-cf:nl|ptrs:na|ktp:N0|mc:55654|mtp:S|qry_typ:P|lang:en|wc:2|cs:8840|v=4,Aman Impex,https://www.myamanimpex.com/?pos=202&kwd=baby pad&tags=||||8752.144|Price|product|||TS|rsf:gd-|-stype:attr=1|qr_nm:gd|res:RC3|com-cf:nl|ptrs:na|ktp:N0|mc:55654|mtp:S|qry_typ:P|lang:en|wc:2|cs:8840|v=4,False,Paschim Vihar,New Delhi,"Flat No. 681, S/F Janta Flats, Pocket-II, Paschim Puri, Paschim Vihar, New Delhi - 110063, Dist.Delhi, Delhi",8048600148,
Multicolor Foam Baby Crawling Anti Slip Knee Pads,https://www.indiamart.com/proddetail/baby-crawling-anti-slip-knee-pads-2851658293791.html?pos=203&kwd=baby pad&tags=||||8752.144|Price|product|||TS|rsf:gd-|-stype:attr=1|qr_nm:gd|res:RC3|com-cf:nl|ptrs:na|ktp:N0|mc:55654|mtp:S|qry_typ:P|lang:en|wc:2|cs:8840|v=4,Shree Ganpati Traders,https://www.thebulkbazaar.com/?pos=203&kwd=baby pad&tags=||||8752.144|Price|product|||TS|rsf:gd-|-stype:attr=1|qr_nm:gd|res:RC3|com-cf:nl|ptrs:na|ktp:N0|mc:55654|mtp:S|qry_typ:P|lang:en|wc:2|cs:8840|v=4,False,Shahdara,New Delhi,"151, DOUBLE STORY FLATS, KABOOL NAGAR,, Shahdara, New Delhi - 110032, Dist.Delhi, Delhi",8046046908,
Baby Knee And Elbow Safety Protector pads,https://www.indiamart.com/proddetail/baby-knee-and-elbow-safety-protector-pads-2849953819662.html?pos=204&kwd=baby pad&tags=||||8210.732|Price|product|||TS|rsf:gd-|-stype:attr=1|qr_nm:gd|res:RC3|com-cf:nl|ptrs:na|ktp:N0|mc:55654|mtp:S|qry_typ:P|lang:en|wc:2|cs:8840|v=4,B Shah Enterprises,https://www.indiamart.com/bshahenterprises/?pos=204&kwd=baby pad&tags=||||8210.732|Price|product|||TS|rsf:gd-|-stype:attr=1|qr_nm:gd|res:RC3|com-cf:nl|ptrs:na|ktp:N0|mc:55654|mtp:S|qry_typ:P|lang:en|wc:2|cs:8840|v=4,False,Vasai West,Vasai Virar,"Shop No 19, Dhuri Campus Building, Suncity, Near 100 feet Road,, Vasai West, Vasai Virar - 401202, Dist.Thane, Maharashtra",8047633191,
Children's Breathable Mesh Knee Guards Baby Kneecap Infant Crawl Walking Sports Elbow Protector,https://www.indiamart.com/proddetail/children-s-breathable-mesh-knee-guards-baby-kneecap-infant-crawl-walking-sports-elbow-protector-2853787187788.html?pos=205&kwd=baby pad&tags=||||8211.142|Price|product|||TS|rsf:gd-|-stype:attr=1|qr_nm:gd|res:RC3|com-cf:nl|ptrs:na|ktp:N0|mc:55654|mtp:S|qry_typ:P|lang:en|wc:2|cs:8840|v=4,Radeon Industries,https://www.indiamart.com/radeon-industries/?pos=205&kwd=baby pad&tags=||||8211.142|Price|product|||TS|rsf:gd-|-stype:attr=1|qr_nm:gd|res:RC3|com-cf:nl|ptrs:na|ktp:N0|mc:55654|mtp:S|qry_typ:P|lang:en|wc:2|cs:8840|v=4,False,Kumbharwada,Mumbai,"Floor 1st, 11, Plot - 66, Bagne Building, 1st kumbharwada, Bhandari Street, Durgadevi Udyan, Kumbharwada, Mumbai - 400004, Dist.Mumbai, Maharashtra",8043875006,
Baby Knee Protector,https://www.indiamart.com/proddetail/baby-knee-protector-2852012452030.html?pos=206&kwd=baby pad&tags=||||9502.893|Price|product|||TS|rsf:gd-|-stype:attr=1|qr_nm:gd|res:RC3|com-cf:nl|ptrs:na|ktp:N0|mc:55654|mtp:S|qry_typ:P|lang:en|wc:2|cs:8840|v=4,Sangam And Brothers,https://www.indiamart.com/sangamandbrothers/?pos=206&kwd=baby pad&tags=||||9502.893|Price|product|||TS|rsf:gd-|-stype:attr=1|qr_nm:gd|res:RC3|com-cf:nl|ptrs:na|ktp:N0|mc:55654|mtp:S|qry_typ:P|lang:en|wc:2|cs:8840|v=4,False,Gurua,Gaya,"01, Mirchak, Gurua,, Gurua, Gaya - 824205, Dist.Gaya, Bihar",8047653900,
"Foam Roarfit Knee pads for kids and young, Washable",https://www.indiamart.com/proddetail/roarfit-knee-pads-for-kids-and-young-2849892858548.html?pos=207&kwd=baby pad&tags=||||8641.487|Price|product|||TS|rsf:gd-|-stype:attr=1|qr_nm:gd|res:RC3|com-cf:nl|ptrs:na|ktp:N0|mc:55654|mtp:S|qry_typ:P|lang:en|wc:2|cs:8840|v=4,Techno Chem Overseas,https://www.indiamart.com/technochemoverseas/?pos=207&kwd=baby pad&tags=||||8641.487|Price|product|||TS|rsf:gd-|-stype:attr=1|qr_nm:gd|res:RC3|com-cf:nl|ptrs:na|ktp:N0|mc:55654|mtp:S|qry_typ:P|lang:en|wc:2|cs:8840|v=4,False,Shastri Nagar,Jalandhar,"355,leather complex Kapurthala road, Shastri Nagar, Jalandhar - 144002, Dist.Jalandhar, Punjab",8046064306,
Foam Dritwa Impex Baby Safety Knee Pads,https://www.indiamart.com/proddetail/baby-safety-knee-pads-2853443223573.html?pos=208&kwd=baby pad&tags=||||8230.883|Price|product|||TS|rsf:gd-|-stype:attr=1|qr_nm:gd|res:RC3|com-cf:nl|ptrs:na|ktp:N0|mc:55654|mtp:S|qry_typ:P|lang:en|wc:2|cs:8840|v=4,Dritwa Impex,https://www.dritwaimpex.com/?pos=208&kwd=baby pad&tags=||||8230.883|Price|product|||TS|rsf:gd-|-stype:attr=1|qr_nm:gd|res:RC3|com-cf:nl|ptrs:na|ktp:N0|mc:55654|mtp:S|qry_typ:P|lang:en|wc:2|cs:8840|v=4,False,Kosad,Surat,"Second Floor A-204 New Kosad Road Satyam Residency Kosad Mashruwala Compound, Kosad, Surat - 394107, Dist.Surat, Gujarat",7949092278,
Cloth Baby Safety Knee Pads,https://www.indiamart.com/proddetail/baby-safety-knee-pads-22008796188.html?pos=209&kwd=baby pad&tags=||||8211.142|Price|product|||TS|rsf:gd-|-stype:attr=1|qr_nm:gd|res:RC3|com-cf:nl|ptrs:na|ktp:N0|mc:55654|mtp:S|qry_typ:P|lang:en|wc:2|cs:8840|v=4,Sameer Collection,https://www.sameercollection.in/?pos=209&kwd=baby pad&tags=||||8211.142|Price|product|||TS|rsf:gd-|-stype:attr=1|qr_nm:gd|res:RC3|com-cf:nl|ptrs:na|ktp:N0|mc:55654|mtp:S|qry_typ:P|lang:en|wc:2|cs:8840|v=4,False,Princess Dock,Mumbai,"A-1901, Ansari Heights, Umar Kokil Marg, Princess Dock, Mumbai - 400009, Dist.Mumbai, Maharashtra",8046070689,
Baby Knee And Elbow Pads,https://www.indiamart.com/proddetail/baby-knee-and-elbow-pads-2852086196733.html?pos=210&kwd=baby pad&tags=||||8230.883|Price|product|||TS|rsf:gd-|-stype:attr=1|qr_nm:gd|res:RC3|com-cf:nl|ptrs:na|ktp:N0|mc:55654|mtp:S|qry_typ:P|lang:en|wc:2|cs:8840|v=4,Indiab2btrade,https://www.indiab2btrade.com/?pos=210&kwd=baby pad&tags=||||8230.883|Price|product|||TS|rsf:gd-|-stype:attr=1|qr_nm:gd|res:RC3|com-cf:nl|ptrs:na|ktp:N0|mc:55654|mtp:S|qry_typ:P|lang:en|wc:2|cs:8840|v=4,False,Mota Varachha,Surat,"Ground Floor, Shop No. F/22, Shivdhara Complex, L.P Savani School,Near To Maharaja Farm,, Mota Varachha, Surat - 394105, Dist.Surat, Gujarat",8043816125,
