product_title,product_link,company_name,company_link,is_verified_exporter,city_region,city,address_details,phone_number,phone_number_extension
Chhote Janab Cotton Baby Sleeping Bag,https://www.indiamart.com/proddetail/baby-cotton-sleeping-bag-19620562491.html?pos=1&kwd=baby sleeping bag&tags=A||||8752.144|Price|product|||TS|rsf:gd-|-stype:attr=1|qr_nm:gd|res:RC4|com-cf:nl|ptrs:na|ktp:N0|mc:72867|mtp:S|qry_typ:P|lang:en|wc:3|flavl:0-2|cs:9705|v=4,Shree Balaji Infant Wear,https://www.indiamart.com/chhotejanab/?pos=1&kwd=baby sleeping bag&tags=A||||8752.144|Price|product|||TS|rsf:gd-|-stype:attr=1|qr_nm:gd|res:RC4|com-cf:nl|ptrs:na|ktp:N0|mc:72867|mtp:S|qry_typ:P|lang:en|wc:3|flavl:0-2|cs:9705|v=4,False,Pahari Dhiraj,New Delhi,"1583- 84, Hathi Khana, Aziz Ganj, Bahadur Garh Road, Pahari Dhiraj, New Delhi - 110006, Dist.Delhi, Delhi",8047639754,
Baby Sleeping Bag,https://www.indiamart.com/proddetail/baby-sleeping-bag-2852923828862.html?pos=2&kwd=baby sleeping bag&tags=A||||8752.144|Price|product|||TS|rsf:gd-|-stype:attr=1|qr_nm:gd|res:RC4|com-cf:nl|ptrs:na|ktp:N0|mc:72867|mtp:S|qry_typ:P|lang:en|wc:3|flavl:0-2|cs:9705|v=4,Verma Enterprises,https://www.styaloindia.com/?pos=2&kwd=baby sleeping bag&tags=A||||8752.144|Price|product|||TS|rsf:gd-|-stype:attr=1|qr_nm:gd|res:RC4|com-cf:nl|ptrs:na|ktp:N0|mc:72867|mtp:S|qry_typ:P|lang:en|wc:3|flavl:0-2|cs:9705|v=4,False,Samaypur,New Delhi,"Plot No.180/1-B, Kh.No. 955/1, 1st, Block-C, Raja Vihar, Siraspur, Badli, North West Delhi, Samaypur, New Delhi - 110042, Dist.Delhi, Delhi",8047654672,
"Blue Baby Sleeping Bag Cum Baby Carry Bag, Newly Born",https://www.indiamart.com/proddetail/baby-sleeping-bag-cum-baby-carry-bag-2852435958855.html?pos=3&kwd=baby sleeping bag&tags=A||||8230.883|Price|product|||TS|rsf:gd-|-stype:attr=1|qr_nm:gd|res:RC4|com-cf:nl|ptrs:na|ktp:N0|mc:72867|mtp:S|qry_typ:P|lang:en|wc:3|flavl:0-2|cs:9705|v=4,Concept Enterprise,https://www.cartforbaby.com/?pos=3&kwd=baby sleeping bag&tags=A||||8230.883|Price|product|||TS|rsf:gd-|-stype:attr=1|qr_nm:gd|res:RC4|com-cf:nl|ptrs:na|ktp:N0|mc:72867|mtp:S|qry_typ:P|lang:en|wc:3|flavl:0-2|cs:9705|v=4,False,Dabholi,Surat,"17, Bhumi Park Society, Near Dabholi Road, Katargam, Dabholi, Surat - 395004, Dist.Surat, Gujarat",8047546659,
Multicolor Baby Sleeping Bag Made In Soft Cotton Fabric,https://www.indiamart.com/proddetail/baby-sleeping-bag-made-in-soft-cotton-fabric-13874975288.html?pos=4&kwd=baby sleeping bag&tags=A||||8778.123|Price|product|||TS|rsf:gd-|-stype:attr=1|qr_nm:gd|res:RC4|com-cf:nl|ptrs:na|ktp:N0|mc:72867|mtp:S|qry_typ:P|lang:en|wc:3|flavl:0-2|cs:9705|v=4,Oscar Overseas,https://www.oscar-india.com/?pos=4&kwd=baby sleeping bag&tags=A||||8778.123|Price|product|||TS|rsf:gd-|-stype:attr=1|qr_nm:gd|res:RC4|com-cf:nl|ptrs:na|ktp:N0|mc:72867|mtp:S|qry_typ:P|lang:en|wc:3|flavl:0-2|cs:9705|v=4,False,,Noida,"A-99 Sector 5, Noida - 201301, Dist.Gautam Budh Nagar, Uttar Pradesh",8046058290,
Newborn Baby Sleeping Bags,https://www.indiamart.com/proddetail/newborn-baby-sleeping-bags-2854880931588.html?pos=5&kwd=baby sleeping bag&tags=A||||8230.883|Price|product|||MDC|rsf:gd-|-stype:attr=1|qr_nm:gd|res:RC4|com-cf:nl|ptrs:na|ktp:N0|mc:72867|mtp:S|qry_typ:P|lang:en|wc:3|flavl:0-2|cs:9705|v=4,Whopssy International,https://www.indiamart.com/whopssy-international/?pos=5&kwd=baby sleeping bag&tags=A||||8230.883|Price|product|||MDC|rsf:gd-|-stype:attr=1|qr_nm:gd|res:RC4|com-cf:nl|ptrs:na|ktp:N0|mc:72867|mtp:S|qry_typ:P|lang:en|wc:3|flavl:0-2|cs:9705|v=4,False,,Surat,"First Floor, Plot No. 377, Ram Vatika V-2, Near Rangoli Chowkdi, Sayan Road, Velenja Gam, Sayan, Surat - 394150, Dist.Surat, Gujarat",7949340041,
"Pink Cotton Baby sleeping bag, Packaging Type: Plastic cover, Newly Born",https://www.indiamart.com/proddetail/baby-sleeping-bag-2849605699691.html?pos=6&kwd=baby sleeping bag&tags=A||||8954.051|Price|product|||MDC|rsf:gd-|-stype:attr=1|qr_nm:gd|res:RC4|com-cf:nl|ptrs:na|ktp:N0|mc:72867|mtp:S|qry_typ:P|lang:en|wc:3|flavl:0-2|cs:9705|v=4,Adhoniyah,https://www.indiamart.com/adhoniyah/?pos=6&kwd=baby sleeping bag&tags=A||||8954.051|Price|product|||MDC|rsf:gd-|-stype:attr=1|qr_nm:gd|res:RC4|com-cf:nl|ptrs:na|ktp:N0|mc:72867|mtp:S|qry_typ:P|lang:en|wc:3|flavl:0-2|cs:9705|v=4,False,Jamalia,Chennai,"Ground Floor,5/4,Strahans Road I St Street,Otteri, Jamalia, Chennai - 600012, Dist.Chennai, Tamil Nadu",8048274134,
"Pink Cotton Baby Sleeping Bag, Newly Born",https://www.indiamart.com/proddetail/baby-sleeping-bag-2854263135288.html?pos=7&kwd=baby sleeping bag&tags=A||||8211.142|Price|product|||TS|rsf:gd-|-stype:attr=1|qr_nm:gd|res:RC4|com-cf:nl|ptrs:na|ktp:N0|mc:72867|mtp:S|qry_typ:P|lang:en|wc:3|flavl:0-2|cs:9705|v=4,Sidhshlok Enterprises,https://www.indiamart.com/sidhshlokenterprises/?pos=7&kwd=baby sleeping bag&tags=A||||8211.142|Price|product|||TS|rsf:gd-|-stype:attr=1|qr_nm:gd|res:RC4|com-cf:nl|ptrs:na|ktp:N0|mc:72867|mtp:S|qry_typ:P|lang:en|wc:3|flavl:0-2|cs:9705|v=4,False,Mulund West,Mumbai,"A-9, Chagpar Khimaji, R R T Road, Mumbai Suburban, Mulund West, Mumbai - 400080, Dist.Mumbai, Maharashtra",7942832648,
Multicolor Baby Bedding And Caring Sleeping Bag,https://www.indiamart.com/proddetail/baby-bedding-and-caring-sleeping-bag-20710647373.html?pos=8&kwd=baby sleeping bag&tags=A||||8752.144|Price|product|||TS|rsf:gd-|-stype:attr=1|qr_nm:gd|res:RC4|com-cf:nl|ptrs:na|ktp:N0|mc:72867|mtp:S|qry_typ:P|lang:en|wc:3|flavl:0-2|cs:9705|v=4,National Overseas,https://www.indiamart.com/nationaltraders-vishwashnagar/?pos=8&kwd=baby sleeping bag&tags=A||||8752.144|Price|product|||TS|rsf:gd-|-stype:attr=1|qr_nm:gd|res:RC4|com-cf:nl|ptrs:na|ktp:N0|mc:72867|mtp:S|qry_typ:P|lang:en|wc:3|flavl:0-2|cs:9705|v=4,False,Shahdara,New Delhi,"1/99, Gali No. 3, Vishwas Nagar, Shahdara, New Delhi - 110032, Dist.Delhi, Delhi",8046047673,
"Cotton Red(Base) Baby Sleeping Bags, Newly Born",https://www.indiamart.com/proddetail/red-baby-sleeping-bags-2854922535973.html?pos=9&kwd=baby sleeping bag&tags=A||||8876.815|Price|product|||MDC|rsf:gd-|-stype:attr=1|qr_nm:gd|res:RC4|com-cf:nl|ptrs:na|ktp:N0|mc:72867|mtp:S|qry_typ:P|lang:en|wc:3|flavl:0-2|cs:9705|v=4,Good Luck Trading,https://www.indiamart.com/goodlucktrading-nagpur/?pos=9&kwd=baby sleeping bag&tags=A||||8876.815|Price|product|||MDC|rsf:gd-|-stype:attr=1|qr_nm:gd|res:RC4|com-cf:nl|ptrs:na|ktp:N0|mc:72867|mtp:S|qry_typ:P|lang:en|wc:3|flavl:0-2|cs:9705|v=4,False,,Nagpur,"Plot No. 807, Dharamchaya Fawara Chowk Builing, Nikalas Mandir Road, Itwari, Nagpur - 440002, Dist.Nagpur, Maharashtra",8041014474,
"Cotton Baby Blue Sleeping Bags, Newly Born",https://www.indiamart.com/proddetail/baby-sleeping-bags-2854674347530.html?pos=10&kwd=baby sleeping bag&tags=A||||8211.142|Price|product|||MDC|rsf:gd-|-stype:attr=1|qr_nm:gd|res:RC4|com-cf:nl|ptrs:na|ktp:N0|mc:72867|mtp:S|qry_typ:P|lang:en|wc:3|flavl:0-2|cs:9705|v=4,Apple Kids,https://www.indiamart.com/applekids-mumbai/?pos=10&kwd=baby sleeping bag&tags=A||||8211.142|Price|product|||MDC|rsf:gd-|-stype:attr=1|qr_nm:gd|res:RC4|com-cf:nl|ptrs:na|ktp:N0|mc:72867|mtp:S|qry_typ:P|lang:en|wc:3|flavl:0-2|cs:9705|v=4,False,,Mumbai,"Room No 1,211/4, Janu Seth Chawl, Puspa Park, Daftary Road, Malad East Suburban, Mumbai - 400097, Dist.Mumbai, Maharashtra",7949326883,
"Woolen Newborn Baby Sleeping Bags, 3-12 Months",https://www.indiamart.com/proddetail/newborn-baby-sleeping-bags-2854224821973.html?pos=11&kwd=baby sleeping bag&tags=A||||8752.144||product|||MDC|rsf:gd-|-stype:attr=1|qr_nm:gd|res:RC4|com-cf:nl|ptrs:na|ktp:N0|mc:72867|mtp:S|qry_typ:P|lang:en|wc:3|flavl:0-2|cs:9705|v=4,Prince And Princess,https://www.indiamart.com/prince-princess-delhi/?pos=11&kwd=baby sleeping bag&tags=A||||8752.144||product|||MDC|rsf:gd-|-stype:attr=1|qr_nm:gd|res:RC4|com-cf:nl|ptrs:na|ktp:N0|mc:72867|mtp:S|qry_typ:P|lang:en|wc:3|flavl:0-2|cs:9705|v=4,False,Gulabi Bagh,New Delhi,"Ground Floor, Garage No - 74, Gulabi Bagh Road,, Gulabi Bagh, New Delhi - 110007, Dist.Delhi, Delhi",8047629125,
"Cotton Printed Newborn Baby Sleeping Bag / New born baby godi bag, 0-6 Months",https://www.indiamart.com/proddetail/newborn-baby-sleeping-bag-new-born-baby-godi-bag-2853243994648.html?pos=12&kwd=baby sleeping bag&tags=A||||8559.269|Price|product|||MDC|rsf:gd-|-stype:attr=1|qr_nm:gd|res:RC4|com-cf:nl|ptrs:na|ktp:N0|mc:72867|mtp:S|qry_typ:P|lang:en|wc:3|flavl:0-2|cs:9705|v=4,Sheza Enterprises,https://www.indiamart.com/shezaenterprises/?pos=12&kwd=baby sleeping bag&tags=A||||8559.269|Price|product|||MDC|rsf:gd-|-stype:attr=1|qr_nm:gd|res:RC4|com-cf:nl|ptrs:na|ktp:N0|mc:72867|mtp:S|qry_typ:P|lang:en|wc:3|flavl:0-2|cs:9705|v=4,False,,Indore,"Alif House, 5, Khajrana Main Road, Opposite HP Petrol Pump,, Indore - 452001, Dist.Indore, Madhya Pradesh",7948547068,
"Cotton Baby White Sleeping Bag, Newly Born",https://www.indiamart.com/proddetail/baby-white-sleeping-bag-2853468608188.html?pos=13&kwd=baby sleeping bag&tags=A||||8752.144|Price|product|||MDC|rsf:gd-|-stype:attr=1|qr_nm:gd|res:RC4|com-cf:nl|ptrs:na|ktp:N0|mc:72867|mtp:S|qry_typ:P|lang:en|wc:3|flavl:0-2|cs:9705|v=4,Kapil Enterprises,https://www.indiamart.com/kapilenterprisesnew-delhi/?pos=13&kwd=baby sleeping bag&tags=A||||8752.144|Price|product|||MDC|rsf:gd-|-stype:attr=1|qr_nm:gd|res:RC4|com-cf:nl|ptrs:na|ktp:N0|mc:72867|mtp:S|qry_typ:P|lang:en|wc:3|flavl:0-2|cs:9705|v=4,False,Vijay Vihar,New Delhi,"Ground Floor, E-25, Vijay Vihar, Near Badi Masjid, Rohini Sector 7, North West Delhi, Vijay Vihar, New Delhi - 110085, Dist.Delhi, Delhi",7949092118,
Cotton SAFE n Cute New born baby packer cum sleeping bag,https://www.indiamart.com/proddetail/safe-n-cute-new-born-baby-packer-cum-sleeping-bag-2852625992430.html?pos=14&kwd=baby sleeping bag&tags=A||||8580.032|Price|product|||TS|rsf:gd-|-stype:attr=1|qr_nm:gd|res:RC4|com-cf:nl|ptrs:na|ktp:N0|mc:72867|mtp:S|qry_typ:P|lang:en|wc:3|flavl:0-2|cs:9705|v=4,Ritu Infants Care,https://www.indiamart.com/ritu-infants-care/?pos=14&kwd=baby sleeping bag&tags=A||||8580.032|Price|product|||TS|rsf:gd-|-stype:attr=1|qr_nm:gd|res:RC4|com-cf:nl|ptrs:na|ktp:N0|mc:72867|mtp:S|qry_typ:P|lang:en|wc:3|flavl:0-2|cs:9705|v=4,False,Sunder Nagar,Amritsar,"232, Tilak Nagar, Shivala Colony, Sunder Nagar, Amritsar - 143001, Dist.Amritsar, Punjab",7942712512,
"Pale Lavender Baby Cotton Sleeping Bag, Newly Born",https://www.indiamart.com/proddetail/baby-cotton-sleeping-bag-2854184919691.html?pos=15&kwd=baby sleeping bag&tags=A||||8228.275|Price|product|||MDC|rsf:gd-|-stype:attr=1|qr_nm:gd|res:RC4|com-cf:nl|ptrs:na|ktp:N0|mc:72867|mtp:S|qry_typ:P|lang:en|wc:3|cs:8847|v=4,Ramchand Tilumal,https://www.indiamart.com/ramchandtilumal/?pos=15&kwd=baby sleeping bag&tags=A||||8228.275|Price|product|||MDC|rsf:gd-|-stype:attr=1|qr_nm:gd|res:RC4|com-cf:nl|ptrs:na|ktp:N0|mc:72867|mtp:S|qry_typ:P|lang:en|wc:3|cs:8847|v=4,False,Kalupur,Ahmedabad,"S-117, Sindhi Market, Revdi Bazar, Kalupur, Kalupur, Ahmedabad - 380001, Dist.Ahmedabad, Gujarat",8045731988,
Blue Cotton Baby Sleeping Bag,https://www.indiamart.com/proddetail/blue-cotton-baby-sleeping-bag-2854178036273.html?pos=16&kwd=baby sleeping bag&tags=A||||8752.144|Price|product|||MDC|rsf:gd-|-stype:attr=1|qr_nm:gd|res:RC4|com-cf:nl|ptrs:na|ktp:N0|mc:72867|mtp:S|qry_typ:P|lang:en|wc:3|cs:8847|v=4,Komal Embroidery,https://www.indiamart.com/komal-embroidery-newdelhi/?pos=16&kwd=baby sleeping bag&tags=A||||8752.144|Price|product|||MDC|rsf:gd-|-stype:attr=1|qr_nm:gd|res:RC4|com-cf:nl|ptrs:na|ktp:N0|mc:72867|mtp:S|qry_typ:P|lang:en|wc:3|cs:8847|v=4,False,Rithala,New Delhi,"Ground Floor, Shop No. PVT-3, KH No. 1203, Lal Doora Village Rithala Near Surya Hotel, Rithala, New Delhi - 110085, Dist.Delhi, Delhi",8045730251,
"white labeling Multicolor 2 in 1 Baby's Cotton Sleeping and Carry Bag (0-6 Months, Packaging Type: plastic, Newly Born",https://www.indiamart.com/proddetail/2-in-1-baby-s-cotton-sleeping-and-carry-bag-0-6-months-2852997129030.html?pos=17&kwd=baby sleeping bag&tags=A||||9842.824|Price|product|||TS|rsf:gd-|-stype:attr=1|qr_nm:gd|res:RC4|com-cf:nl|ptrs:na|ktp:N0|mc:72867|mtp:S|qry_typ:P|lang:en|wc:3|cs:8847|v=4,Indilittle Global Export,https://www.indiamart.com/indilittleglobalexport/?pos=17&kwd=baby sleeping bag&tags=A||||9842.824|Price|product|||TS|rsf:gd-|-stype:attr=1|qr_nm:gd|res:RC4|com-cf:nl|ptrs:na|ktp:N0|mc:72867|mtp:S|qry_typ:P|lang:en|wc:3|cs:8847|v=4,False,Haripal,Hooghly,"BRAHMANPARA, NALIKUL PASCHIM, HARIPAL, Haripal, Hooghly - 712405, Dist.Hooghly, West Bengal",8048977919,
"White Cotton Baby siliping bag, 3-12 Months",https://www.indiamart.com/proddetail/baby-siliping-bag-2854853969355.html?pos=18&kwd=baby sleeping bag&tags=A||||8752.144|Price|product|||TS|rsf:gd-|-stype:attr=1|qr_nm:gd|res:RC4|com-cf:nl|ptrs:na|ktp:N0|mc:72867|mtp:S|qry_typ:P|lang:en|wc:3|cs:8847|v=4,Gyasi Ram & Sons,https://www.indiamart.com/gyasi-ram-sons/?pos=18&kwd=baby sleeping bag&tags=A||||8752.144|Price|product|||TS|rsf:gd-|-stype:attr=1|qr_nm:gd|res:RC4|com-cf:nl|ptrs:na|ktp:N0|mc:72867|mtp:S|qry_typ:P|lang:en|wc:3|cs:8847|v=4,False,Sadar Bazaar,New Delhi,"No. 459, Main Road, Sadar Bazar, Sadar Bazaar, New Delhi - 110006, Dist.Delhi, Delhi",8043865798,
Polyester Multicolor Baby Sleeping Bags,https://www.indiamart.com/proddetail/baby-sleeping-bags-2853384591962.html?pos=19&kwd=baby sleeping bag&tags=A||||8661.854|Price|product|||TS|rsf:gd-|-stype:attr=1|qr_nm:gd|res:RC4|com-cf:nl|ptrs:na|ktp:N0|mc:72867|mtp:S|qry_typ:P|lang:en|wc:3|cs:8847|v=4,Aggarwal Creations,https://www.aggarwalcreations.com/?pos=19&kwd=baby sleeping bag&tags=A||||8661.854|Price|product|||TS|rsf:gd-|-stype:attr=1|qr_nm:gd|res:RC4|com-cf:nl|ptrs:na|ktp:N0|mc:72867|mtp:S|qry_typ:P|lang:en|wc:3|cs:8847|v=4,False,Ramesh Nagar,Ludhiana,"Geeta Nagar, Street No. 7, Tajpur Road, Ramesh Nagar, Ludhiana - 141008, Dist.Ludhiana, Punjab",8048962321,
"Blue Cotton Baby Sleeping Bag, Newly Born",https://www.indiamart.com/proddetail/baby-sleeping-bag-2852672502148.html?pos=20&kwd=baby sleeping bag&tags=A||||8661.854|Price|product|||MDC|rsf:gd-|-stype:attr=1|qr_nm:gd|res:RC4|com-cf:nl|ptrs:na|ktp:N0|mc:72867|mtp:S|qry_typ:P|lang:en|wc:3|cs:8847|v=4,Raj Industries,https://www.indiamart.com/raj-industries-punjab/?pos=20&kwd=baby sleeping bag&tags=A||||8661.854|Price|product|||MDC|rsf:gd-|-stype:attr=1|qr_nm:gd|res:RC4|com-cf:nl|ptrs:na|ktp:N0|mc:72867|mtp:S|qry_typ:P|lang:en|wc:3|cs:8847|v=4,False,,Ludhiana,"H. No B 12 629, Kucha Anayat, Nr Div No 2 Brown Road, Ludhiana - 141008, Dist.Ludhiana, Punjab",7942800347,
"Cotton Baby sleeping bag, 0-6 months",https://www.indiamart.com/proddetail/baby-sleeping-bag-2852720865833.html?pos=21&kwd=baby sleeping bag&tags=A||||8752.144|Price|product|||MDC|rsf:gd-|-stype:attr=1|qr_nm:gd|res:RC4|com-cf:nl|ptrs:na|ktp:N0|mc:72867|mtp:S|qry_typ:P|lang:en|wc:3|cs:8847|v=4,M.K. Manufacturer,https://www.indiamart.com/mk-manufacturer-delhi/?pos=21&kwd=baby sleeping bag&tags=A||||8752.144|Price|product|||MDC|rsf:gd-|-stype:attr=1|qr_nm:gd|res:RC4|com-cf:nl|ptrs:na|ktp:N0|mc:72867|mtp:S|qry_typ:P|lang:en|wc:3|cs:8847|v=4,False,,New Delhi,"S/F, E-468, Kh No. 539, Gali No. 11, Subhash Vihar, North Ghonda, North East, New Delhi - 110053, Dist.Delhi, Delhi",8047648752,
"Cotton Baby Blue Sleeping Bag, 3-12 Months",https://www.indiamart.com/proddetail/baby-blue-sleeping-bag-2850155775173.html?pos=22&kwd=baby sleeping bag&tags=A||||8752.144|Price|product|||MDC|rsf:gd-|-stype:attr=1|qr_nm:gd|res:RC4|com-cf:nl|ptrs:na|ktp:N0|mc:72867|mtp:S|qry_typ:P|lang:en|wc:3|cs:8847|v=4,Kidz Creation,https://www.indiamart.com/kidzcreation/?pos=22&kwd=baby sleeping bag&tags=A||||8752.144|Price|product|||MDC|rsf:gd-|-stype:attr=1|qr_nm:gd|res:RC4|com-cf:nl|ptrs:na|ktp:N0|mc:72867|mtp:S|qry_typ:P|lang:en|wc:3|cs:8847|v=4,False,,New Delhi,"Shop No. 279/517,Sabharwal Market, Tolia Wali Gali Sadar Bazar, North Delhi,, New Delhi - 110006, Dist.Delhi, Delhi",8047679212,
Baby Sleeping Bag,,Swing 'N' Fly (A Brand of Zen Marketing),https://www.indiamart.com/zenmarketing-sahibabad/?pos=23&kwd=baby sleeping bag&tags=A||||8752.144|Price|product|||TS|rsf:gd-|-stype:attr=1|qr_nm:gd|res:RC4|com-cf:nl|ptrs:na|ktp:N0|mc:72867|mtp:S|qry_typ:P|lang:en|wc:3|cs:8847|v=4,False,Alipur,New Delhi,"Ground Floor, Kh No 55/17/2, Pawan Triveni Colony, Village Bakhtawarpur triveni colony, Alipur, New Delhi - 110036, Dist.Delhi, Delhi",7942559295,
"little monkeys jumbo size baby cotton mosquito net bed, For Home, Size: XL",https://www.indiamart.com/proddetail/little-monkeys-jumbo-size-baby-cotton-mosquito-net-bed-2851532198888.html?pos=24&kwd=baby sleeping bag&tags=A||||8752.144|Price|product|||TS|rsf:gd-|-stype:attr=1|qr_nm:gd|res:RC4|com-cf:nl|ptrs:na|ktp:N0|mc:72867|mtp:S|qry_typ:P|lang:en|wc:3|cs:8847|v=4,Ekta Overseas,https://www.indiamart.com/ektaoverseas-newdelhi/?pos=24&kwd=baby sleeping bag&tags=A||||8752.144|Price|product|||TS|rsf:gd-|-stype:attr=1|qr_nm:gd|res:RC4|com-cf:nl|ptrs:na|ktp:N0|mc:72867|mtp:S|qry_typ:P|lang:en|wc:3|cs:8847|v=4,False,Shahdara,New Delhi,"1/95, Gali No.3, Near Navjeevan Phisical Center, Vishwas Nagar, Shahdara,, Shahdara, New Delhi - 110032, Dist.Delhi, Delhi",7942628926,
"Multicolor Cotton Baby Sleeping Bag, New born to 3 years",https://www.indiamart.com/proddetail/cotton-baby-sleeping-bag-2853185505962.html?pos=25&kwd=baby sleeping bag&tags=A||||8662.111|Price|product|||TS|rsf:gd-|-stype:attr=1|qr_nm:gd|res:RC4|com-cf:nl|ptrs:na|ktp:N0|mc:72867|mtp:S|qry_typ:P|lang:en|wc:3|cs:8847|v=4,Rovee Garments,https://www.indiamart.com/rovee-garments/?pos=25&kwd=baby sleeping bag&tags=A||||8662.111|Price|product|||TS|rsf:gd-|-stype:attr=1|qr_nm:gd|res:RC4|com-cf:nl|ptrs:na|ktp:N0|mc:72867|mtp:S|qry_typ:P|lang:en|wc:3|cs:8847|v=4,False,State Bank Colony,Tirunelveli,"70, State Bank Colony, Ezhil Nagar, Ngo A Colony, State Bank Colony, Tirunelveli - 627007, Dist.Tirunelveli, Tamil Nadu",7942840922,
"Blue Cotton Baby Sleeping Bag, 3-12 Months",https://www.indiamart.com/proddetail/cotton-baby-sleeping-bag-27594404955.html?pos=26&kwd=baby sleeping bag&tags=A||||8706.263|Price|product|||TS|rsf:gd-|-stype:attr=1|qr_nm:gd|res:RC4|com-cf:nl|ptrs:na|ktp:N0|mc:72867|mtp:S|qry_typ:P|lang:en|wc:3|cs:8847|v=4,Karur Export Company,https://www.karurexportcompany.in/?pos=26&kwd=baby sleeping bag&tags=A||||8706.263|Price|product|||TS|rsf:gd-|-stype:attr=1|qr_nm:gd|res:RC4|com-cf:nl|ptrs:na|ktp:N0|mc:72867|mtp:S|qry_typ:P|lang:en|wc:3|cs:8847|v=4,True,Sri Poonkuyil Nagar,Karur,"41, 43, Kuluthu Palayam Road, Vengamedu, Sri Poonkuyil Nagar, Karur - 639006, Dist.Karur, Tamil Nadu",8048600914,
"Cotton Zipper Pink Baby Sleeping Bag, Newly Born",https://www.indiamart.com/proddetail/zipper-pink-baby-sleeping-bag-2854989744188.html?pos=27&kwd=baby sleeping bag&tags=A||||8786.56|Price|product|||MDC|rsf:gd-|-stype:attr=1|qr_nm:gd|res:RC4|com-cf:nl|ptrs:na|ktp:N0|mc:72867|mtp:S|qry_typ:P|lang:en|wc:3|cs:8847|v=4,Vinod And Company,https://www.indiamart.com/vinodcompany-hyderabad/?pos=27&kwd=baby sleeping bag&tags=A||||8786.56|Price|product|||MDC|rsf:gd-|-stype:attr=1|qr_nm:gd|res:RC4|com-cf:nl|ptrs:na|ktp:N0|mc:72867|mtp:S|qry_typ:P|lang:en|wc:3|cs:8847|v=4,False,Feelkhana,Hyderabad,"15/8/514/1/D, Feelkhana, Begum Bazar, Feelkhana, Hyderabad - 500012, Dist.Hyderabad, Telangana",7949086154,
"Cotton Baby Sleeping Bag, Newly Born",https://www.indiamart.com/proddetail/cotton-baby-sleeping-bag-24422867833.html?pos=28&kwd=baby sleeping bag&tags=A||||8752.144|Price|product|||TS|rsf:gd-|-stype:attr=1|qr_nm:gd|res:RC4|com-cf:nl|ptrs:na|ktp:N0|mc:72867|mtp:S|qry_typ:P|lang:en|wc:3|cs:8847|v=4,Man Singh & Sons Private Limited,https://www.babyproductsmanufacturer.com/?pos=28&kwd=baby sleeping bag&tags=A||||8752.144|Price|product|||TS|rsf:gd-|-stype:attr=1|qr_nm:gd|res:RC4|com-cf:nl|ptrs:na|ktp:N0|mc:72867|mtp:S|qry_typ:P|lang:en|wc:3|cs:8847|v=4,False,Karol Bagh,New Delhi,"No. 13/24, 1st Floor, W. E. A., Karol Bagh, Karol Bagh, New Delhi - 110005, Dist.Delhi, Delhi",8048978579,
"Multicolor Cotton disney baby sleeping bag, Newly Born",https://www.indiamart.com/proddetail/disney-baby-sleeping-bag-23302467262.html?pos=29&kwd=baby sleeping bag&tags=A||||8228.275|Price|product|||SSnp|rsf:gd-|-stype:attr=1|qr_nm:gd|res:RC4|com-cf:nl|ptrs:na|ktp:N0|mc:72867|mtp:S|qry_typ:P|lang:en|wc:3|cs:8847|v=4,Panchratna Handicraft,https://www.indiamart.com/panchratnahadicraft/?pos=29&kwd=baby sleeping bag&tags=A||||8228.275|Price|product|||SSnp|rsf:gd-|-stype:attr=1|qr_nm:gd|res:RC4|com-cf:nl|ptrs:na|ktp:N0|mc:72867|mtp:S|qry_typ:P|lang:en|wc:3|cs:8847|v=4,False,Nikol,Ahmedabad,"33, Ishwarkrupa Society, Opposite Jivanwadi, Nikol Gam Road, Nikol, Nikol, Ahmedabad - 382350, Dist.Ahmedabad, Gujarat",8048980894,
"Cotton Dazzlia BABY NEST, 3-12 Months",https://www.indiamart.com/proddetail/dazzlia-baby-nest-2850261034048.html?pos=30&kwd=baby sleeping bag&tags=A||||8228.275|Price|product|||TS|rsf:gd-|-stype:attr=1|qr_nm:gd|res:RC4|com-cf:nl|ptrs:na|ktp:N0|mc:72867|mtp:S|qry_typ:P|lang:en|wc:3|cs:8847|v=4,Rushabh Business Centre,https://www.indiamart.com/rushabh-business-centre/?pos=30&kwd=baby sleeping bag&tags=A||||8228.275|Price|product|||TS|rsf:gd-|-stype:attr=1|qr_nm:gd|res:RC4|com-cf:nl|ptrs:na|ktp:N0|mc:72867|mtp:S|qry_typ:P|lang:en|wc:3|cs:8847|v=4,False,Satellite Nehru Nagar,Ahmedabad,"Shop No.7, Ground Floor, Galaxy Mall, Opp Jhansi Ki Rani Brts , Nerhu Nagar, Satellite Nehru Nagar, Ahmedabad - 380015, Dist.Ahmedabad, Gujarat",8047622454,
"BEDDING Cotton Baby Sleep Sack, Newly Born",https://www.indiamart.com/proddetail/baby-sleep-sack-22453158412.html?pos=31&kwd=baby sleeping bag&tags=A||||8663.873|Price|product|||TS|rsf:gd-|-stype:attr=1|qr_nm:gd|res:RC4|com-cf:nl|ptrs:na|ktp:N0|mc:72867|mtp:S|qry_typ:P|lang:en|wc:3|cs:8847|v=4,Alpha Organics Clothing India,https://www.indiamart.com/alphaorganicsclothingindia/?pos=31&kwd=baby sleeping bag&tags=A||||8663.873|Price|product|||TS|rsf:gd-|-stype:attr=1|qr_nm:gd|res:RC4|com-cf:nl|ptrs:na|ktp:N0|mc:72867|mtp:S|qry_typ:P|lang:en|wc:3|cs:8847|v=4,True,Indiranagar,Bengaluru,"NO.3037,INDIRANAGAR,8TH MAIN ROAD, HAL 2ND STAGE,BANGALORE, Indiranagar, Bengaluru - 560038, Dist.Bengaluru, Karnataka",7942540831,
"Light Blue(Base) Baby Cotton Printed Sleeping Bag, Newly Born",https://www.indiamart.com/proddetail/baby-cotton-printed-sleeping-bag-2854041190148.html?pos=32&kwd=baby sleeping bag&tags=A||||9140.514|Price|product|||MDC|rsf:gd-|-stype:attr=1|qr_nm:gd|res:RC4|com-cf:nl|ptrs:na|ktp:N0|mc:72867|mtp:S|qry_typ:P|lang:en|wc:3|cs:8847|v=4,Shivay Trading & Manufacturing,https://www.indiamart.com/shivaytradingmanufacturing/?pos=32&kwd=baby sleeping bag&tags=A||||9140.514|Price|product|||MDC|rsf:gd-|-stype:attr=1|qr_nm:gd|res:RC4|com-cf:nl|ptrs:na|ktp:N0|mc:72867|mtp:S|qry_typ:P|lang:en|wc:3|cs:8847|v=4,False,Pandri,Raipur,"Plot No.94, First Floor, Indira Gandhi Vyavsayik Parisar, Cloth Market, Pandri, Pandri, Raipur - 492001, Chhattisgarh",8044012762,
Multicolor Cotton New born baby sleeping Bag,https://www.indiamart.com/proddetail/new-born-baby-sleeping-bag-2854193141248.html?pos=33&kwd=baby sleeping bag&tags=A||||9189.305|Price|product|||MDC|rsf:gd-|-stype:attr=1|qr_nm:gd|res:RC4|com-cf:nl|ptrs:na|ktp:N0|mc:72867|mtp:S|qry_typ:P|lang:en|wc:3|cs:8847|v=4,Sudhanjali Enterprises,https://www.indiamart.com/sudhanjalienterprises/?pos=33&kwd=baby sleeping bag&tags=A||||9189.305|Price|product|||MDC|rsf:gd-|-stype:attr=1|qr_nm:gd|res:RC4|com-cf:nl|ptrs:na|ktp:N0|mc:72867|mtp:S|qry_typ:P|lang:en|wc:3|cs:8847|v=4,False,,Prayagraj,"H No-10/7, Basahi, Nataka Babura, Khain, Prayagraj - 212307, Dist.Allahabad, Uttar Pradesh",7942964273,
"Baby Cotton Carry Nest Sleeping Bag, 3 Month",https://www.indiamart.com/proddetail/baby-cotton-carry-nest-sleeping-bag-2855017246830.html?pos=34&kwd=baby sleeping bag&tags=A||||8752.144|Price|product|||MDC|rsf:gd-|-stype:attr=1|qr_nm:gd|res:RC4|com-cf:nl|ptrs:na|ktp:N0|mc:72867|mtp:S|qry_typ:P|lang:en|wc:3|cs:8847|v=4,A.S.Enterprises,https://www.indiamart.com/a-senterprisesdelhi-india/?pos=34&kwd=baby sleeping bag&tags=A||||8752.144|Price|product|||MDC|rsf:gd-|-stype:attr=1|qr_nm:gd|res:RC4|com-cf:nl|ptrs:na|ktp:N0|mc:72867|mtp:S|qry_typ:P|lang:en|wc:3|cs:8847|v=4,False,,New Delhi,"G F, 816, Pan Mandi, Near Press Street Sadar Bazar Area, Central Delhi, New Delhi - 110006, Dist.Delhi, Delhi",7942537259,
"RJ Enterprise MULTY Baby Bed, Sleeping Bag & Carry Nest, Cotton Baby Bedding, Packaging Type: Box, 0-2 YEAR",https://www.indiamart.com/proddetail/baby-bed-sleeping-bag-carry-nest-cotton-baby-bedding-2851723659591.html?pos=35&kwd=baby sleeping bag&tags=A||||8230.883|Price|product|||TS|rsf:gd-|-stype:attr=1|qr_nm:gd|res:RC4|com-cf:nl|ptrs:na|ktp:N0|mc:72867|mtp:S|qry_typ:P|lang:en|wc:3|cs:8847|v=4,RJ Enterprise,https://www.indiamart.com/rj-enterprise-surat/?pos=35&kwd=baby sleeping bag&tags=A||||8230.883|Price|product|||TS|rsf:gd-|-stype:attr=1|qr_nm:gd|res:RC4|com-cf:nl|ptrs:na|ktp:N0|mc:72867|mtp:S|qry_typ:P|lang:en|wc:3|cs:8847|v=4,False,Katargam,Surat,"134, Sahjanand Society, N/R Arogyakendra, Katargam, Katargam, Surat - 395004, Dist.Surat, Gujarat",7942555306,
"Cotton Unisex Organic Baby Sleeping Bags, For Home, 1-2 Years",https://www.indiamart.com/proddetail/organic-baby-sleeping-bags-14116874988.html?pos=36&kwd=baby sleeping bag&tags=A||||8668.838|Price|product|||TS|rsf:gd-|-stype:attr=1|qr_nm:gd|res:RC4|com-cf:nl|ptrs:na|ktp:N0|mc:72867|mtp:S|qry_typ:P|lang:en|wc:3|cs:8847|v=4,Sri Kalyan Export Private Limited,https://www.kitchenlinens.in/?pos=36&kwd=baby sleeping bag&tags=A||||8668.838|Price|product|||TS|rsf:gd-|-stype:attr=1|qr_nm:gd|res:RC4|com-cf:nl|ptrs:na|ktp:N0|mc:72867|mtp:S|qry_typ:P|lang:en|wc:3|cs:8847|v=4,True,Vilarasampatti,Erode,"No. 192/4, Iswarya Garden Sengodanpalayam, Vilarasampatti, Erode - 638107, Dist.Erode, Tamil Nadu",8048983341,
Baby Sleeping Bag,,V P Product,https://www.indiamart.com/vpproduct/?pos=37&kwd=baby sleeping bag&tags=A||||8752.144|Price|product|||MDC|rsf:gd-|-stype:attr=1|qr_nm:gd|res:RC4|com-cf:nl|ptrs:na|ktp:N0|mc:72867|mtp:S|qry_typ:P|lang:en|wc:3|cs:8847|v=4,False,,New Delhi,"Ground Floor, H.No.- E-5/139, Gali No. - 5, East Gokal Pur, North East Delhi, New Delhi - 110094, Dist.Delhi, Delhi",8044460681,
"Cotton Baby Sleeping Bag, 3-12 Months",https://www.indiamart.com/proddetail/cotton-baby-sleeping-bag-25957285391.html?pos=38&kwd=baby sleeping bag&tags=A||||8228.275|Price|product|||TS|rsf:gd-|-stype:attr=1|qr_nm:gd|res:RC4|com-cf:nl|ptrs:na|ktp:N0|mc:72867|mtp:S|qry_typ:P|lang:en|wc:3|cs:8847|v=4,Tulsi Jiyana,https://www.indiamart.com/tulsijiyana/?pos=38&kwd=baby sleeping bag&tags=A||||8228.275|Price|product|||TS|rsf:gd-|-stype:attr=1|qr_nm:gd|res:RC4|com-cf:nl|ptrs:na|ktp:N0|mc:72867|mtp:S|qry_typ:P|lang:en|wc:3|cs:8847|v=4,False,Nikol,Ahmedabad,"C/14, Parishram Park Society Opposite Sun City, Nikol, Ahmedabad - 380001, Dist.Ahmedabad, Gujarat",8046078640,
Various Cotton Baby Sleeping Bag,https://www.indiamart.com/proddetail/baby-sleeping-bag-18999412330.html?pos=39&kwd=baby sleeping bag&tags=A||||8211.142|Price|product|||TS|rsf:gd-|-stype:attr=1|qr_nm:gd|res:RC4|com-cf:nl|ptrs:na|ktp:N0|mc:72867|mtp:S|qry_typ:P|lang:en|wc:3|cs:8847|v=4,Welcome Enterprise,https://www.welcomeenterprise.in/?pos=39&kwd=baby sleeping bag&tags=A||||8211.142|Price|product|||TS|rsf:gd-|-stype:attr=1|qr_nm:gd|res:RC4|com-cf:nl|ptrs:na|ktp:N0|mc:72867|mtp:S|qry_typ:P|lang:en|wc:3|cs:8847|v=4,False,Santacruz West,Mumbai,"1,Gulam Rasul Chawl No. 149,Khot Wadi, Besant Road,Santacruz West, Santacruz West, Mumbai - 400054, Dist.Mumbai, Maharashtra",8048601972,
Cotton Baby Sleeping Bag,https://www.indiamart.com/proddetail/cotton-baby-sleeping-bag-2853717600862.html?pos=40&kwd=baby sleeping bag&tags=A||||8230.883|Price|product|||TS|rsf:gd-|-stype:attr=1|qr_nm:gd|res:RC4|com-cf:nl|ptrs:na|ktp:N0|mc:72867|mtp:S|qry_typ:P|lang:en|wc:3|cs:8847|v=4,Maa Kiran Handloom & Jiyana,https://www.indiamart.com/maakiranhandloomjiyana/?pos=40&kwd=baby sleeping bag&tags=A||||8230.883|Price|product|||TS|rsf:gd-|-stype:attr=1|qr_nm:gd|res:RC4|com-cf:nl|ptrs:na|ktp:N0|mc:72867|mtp:S|qry_typ:P|lang:en|wc:3|cs:8847|v=4,False,Udhana,Surat,"Shop No.17, Ground Floor, Astha Business Centre, Canal Road,, Udhana, Surat - 394185, Dist.Surat, Gujarat",7942788374,
"Multicolor Polycotton M&S BABY QUILTED SLEEPING BAG, 3-12 Months",https://www.indiamart.com/proddetail/m-s-baby-quilted-sleeping-bag-2853947725873.html?pos=41&kwd=baby sleeping bag&tags=A||||8626.744|Price|product|||TS|rsf:gd-|-stype:attr=1|qr_nm:gd|res:RC4|com-cf:nl|ptrs:na|ktp:N0|mc:72867|mtp:S|qry_typ:P|lang:en|wc:3|cs:8847|v=4,Sree Raj Kondal Export Enterprises,https://www.indiamart.com/sreerajkondalexportenterprises/?pos=41&kwd=baby sleeping bag&tags=A||||8626.744|Price|product|||TS|rsf:gd-|-stype:attr=1|qr_nm:gd|res:RC4|com-cf:nl|ptrs:na|ktp:N0|mc:72867|mtp:S|qry_typ:P|lang:en|wc:3|cs:8847|v=4,False,Gandhi Nagar,Tiruppur,"8/191 E, A V P Layout, Angeripalayam, Gandhi Nagar, Tiruppur - 641603, Dist.Coimbatore, Tamil Nadu",8043890249,
"White Cotton Printed Baby Sleeping Bag, Newly Born",https://www.indiamart.com/proddetail/cotton-printed-baby-sleeping-bag-23622000262.html?pos=42&kwd=baby sleeping bag&tags=A||||8601.347|Price|product|||TS|rsf:gd-|-stype:attr=1|qr_nm:gd|res:RC4|com-cf:nl|ptrs:na|ktp:N0|mc:72867|mtp:S|qry_typ:P|lang:en|wc:3|cs:8847|v=4,Vandana Handicraft,https://www.vandanahandicraft.net/?pos=42&kwd=baby sleeping bag&tags=A||||8601.347|Price|product|||TS|rsf:gd-|-stype:attr=1|qr_nm:gd|res:RC4|com-cf:nl|ptrs:na|ktp:N0|mc:72867|mtp:S|qry_typ:P|lang:en|wc:3|cs:8847|v=4,True,Sitapura Industrial Area,Jaipur,"Plot No. H-1167, Sitapura Industrial Area, Phase III, Sitapura Industrial Area, Jaipur - 302022, Dist.Jaipur, Rajasthan",8046049036,
Multicolor Cotton New born baby sleeping Bag,https://www.indiamart.com/proddetail/new-born-baby-sleeping-bag-2854193141248.html?pos=43&kwd=baby sleeping bag&tags=A||||9189.305|Price|product|||MDC|rsf:gd-|-stype:attr=1|qr_nm:gd|res:RC4|com-cf:nl|ptrs:na|ktp:N0|mc:72867|mtp:S|qry_typ:P|lang:en|wc:3|cs:8847|v=4,Sudhanjali Enterprises,https://www.indiamart.com/sudhanjalienterprises/?pos=43&kwd=baby sleeping bag&tags=A||||9189.305|Price|product|||MDC|rsf:gd-|-stype:attr=1|qr_nm:gd|res:RC4|com-cf:nl|ptrs:na|ktp:N0|mc:72867|mtp:S|qry_typ:P|lang:en|wc:3|cs:8847|v=4,False,,Prayagraj,"H No-10/7, Basahi, Nataka Babura, Khain, Prayagraj - 212307, Dist.Allahabad, Uttar Pradesh",7942964273,
"Baby Cotton Carry Nest Sleeping Bag, 3 Month",https://www.indiamart.com/proddetail/baby-cotton-carry-nest-sleeping-bag-2855017246830.html?pos=44&kwd=baby sleeping bag&tags=A||||8752.144|Price|product|||MDC|rsf:gd-|-stype:attr=1|qr_nm:gd|res:RC4|com-cf:nl|ptrs:na|ktp:N0|mc:72867|mtp:S|qry_typ:P|lang:en|wc:3|cs:8847|v=4,A.S.Enterprises,https://www.indiamart.com/a-senterprisesdelhi-india/?pos=44&kwd=baby sleeping bag&tags=A||||8752.144|Price|product|||MDC|rsf:gd-|-stype:attr=1|qr_nm:gd|res:RC4|com-cf:nl|ptrs:na|ktp:N0|mc:72867|mtp:S|qry_typ:P|lang:en|wc:3|cs:8847|v=4,False,,New Delhi,"G F, 816, Pan Mandi, Near Press Street Sadar Bazar Area, Central Delhi, New Delhi - 110006, Dist.Delhi, Delhi",7942537259,
"RJ Enterprise MULTY Baby Bed, Sleeping Bag & Carry Nest, Cotton Baby Bedding, Packaging Type: Box, 0-2 YEAR",https://www.indiamart.com/proddetail/baby-bed-sleeping-bag-carry-nest-cotton-baby-bedding-2851723659591.html?pos=45&kwd=baby sleeping bag&tags=A||||8230.883|Price|product|||TS|rsf:gd-|-stype:attr=1|qr_nm:gd|res:RC4|com-cf:nl|ptrs:na|ktp:N0|mc:72867|mtp:S|qry_typ:P|lang:en|wc:3|cs:8847|v=4,RJ Enterprise,https://www.indiamart.com/rj-enterprise-surat/?pos=45&kwd=baby sleeping bag&tags=A||||8230.883|Price|product|||TS|rsf:gd-|-stype:attr=1|qr_nm:gd|res:RC4|com-cf:nl|ptrs:na|ktp:N0|mc:72867|mtp:S|qry_typ:P|lang:en|wc:3|cs:8847|v=4,False,Katargam,Surat,"134, Sahjanand Society, N/R Arogyakendra, Katargam, Katargam, Surat - 395004, Dist.Surat, Gujarat",7942555306,
"Cotton Unisex Organic Baby Sleeping Bags, For Home, 1-2 Years",https://www.indiamart.com/proddetail/organic-baby-sleeping-bags-14116874988.html?pos=46&kwd=baby sleeping bag&tags=A||||8668.838|Price|product|||TS|rsf:gd-|-stype:attr=1|qr_nm:gd|res:RC4|com-cf:nl|ptrs:na|ktp:N0|mc:72867|mtp:S|qry_typ:P|lang:en|wc:3|cs:8847|v=4,Sri Kalyan Export Private Limited,https://www.kitchenlinens.in/?pos=46&kwd=baby sleeping bag&tags=A||||8668.838|Price|product|||TS|rsf:gd-|-stype:attr=1|qr_nm:gd|res:RC4|com-cf:nl|ptrs:na|ktp:N0|mc:72867|mtp:S|qry_typ:P|lang:en|wc:3|cs:8847|v=4,True,Vilarasampatti,Erode,"No. 192/4, Iswarya Garden Sengodanpalayam, Vilarasampatti, Erode - 638107, Dist.Erode, Tamil Nadu",8048983341,
Baby Sleeping Bag,,V P Product,https://www.indiamart.com/vpproduct/?pos=47&kwd=baby sleeping bag&tags=A||||8752.144|Price|product|||MDC|rsf:gd-|-stype:attr=1|qr_nm:gd|res:RC4|com-cf:nl|ptrs:na|ktp:N0|mc:72867|mtp:S|qry_typ:P|lang:en|wc:3|cs:8847|v=4,False,,New Delhi,"Ground Floor, H.No.- E-5/139, Gali No. - 5, East Gokal Pur, North East Delhi, New Delhi - 110094, Dist.Delhi, Delhi",8044460681,
"Cotton Baby Sleeping Bag, 3-12 Months",https://www.indiamart.com/proddetail/cotton-baby-sleeping-bag-25957285391.html?pos=48&kwd=baby sleeping bag&tags=A||||8228.275|Price|product|||TS|rsf:gd-|-stype:attr=1|qr_nm:gd|res:RC4|com-cf:nl|ptrs:na|ktp:N0|mc:72867|mtp:S|qry_typ:P|lang:en|wc:3|cs:8847|v=4,Tulsi Jiyana,https://www.indiamart.com/tulsijiyana/?pos=48&kwd=baby sleeping bag&tags=A||||8228.275|Price|product|||TS|rsf:gd-|-stype:attr=1|qr_nm:gd|res:RC4|com-cf:nl|ptrs:na|ktp:N0|mc:72867|mtp:S|qry_typ:P|lang:en|wc:3|cs:8847|v=4,False,Nikol,Ahmedabad,"C/14, Parishram Park Society Opposite Sun City, Nikol, Ahmedabad - 380001, Dist.Ahmedabad, Gujarat",8046078640,
Various Cotton Baby Sleeping Bag,https://www.indiamart.com/proddetail/baby-sleeping-bag-18999412330.html?pos=52&kwd=baby sleeping bag&tags=A||||8211.142|Price|product|||TS|rsf:gd-|-stype:attr=1|qr_nm:gd|res:RC4|com-cf:nl|ptrs:na|ktp:N0|mc:72867|mtp:S|qry_typ:P|lang:en|wc:3|cs:8847|v=4,Welcome Enterprise,https://www.welcomeenterprise.in/?pos=52&kwd=baby sleeping bag&tags=A||||8211.142|Price|product|||TS|rsf:gd-|-stype:attr=1|qr_nm:gd|res:RC4|com-cf:nl|ptrs:na|ktp:N0|mc:72867|mtp:S|qry_typ:P|lang:en|wc:3|cs:8847|v=4,False,Santacruz West,Mumbai,"1,Gulam Rasul Chawl No. 149,Khot Wadi, Besant Road,Santacruz West, Santacruz West, Mumbai - 400054, Dist.Mumbai, Maharashtra",8048601972,
Cotton Baby Sleeping Bag,https://www.indiamart.com/proddetail/cotton-baby-sleeping-bag-2853717600862.html?pos=50&kwd=baby sleeping bag&tags=A||||8230.883|Price|product|||TS|rsf:gd-|-stype:attr=1|qr_nm:gd|res:RC4|com-cf:nl|ptrs:na|ktp:N0|mc:72867|mtp:S|qry_typ:P|lang:en|wc:3|cs:8847|v=4,Maa Kiran Handloom & Jiyana,https://www.indiamart.com/maakiranhandloomjiyana/?pos=50&kwd=baby sleeping bag&tags=A||||8230.883|Price|product|||TS|rsf:gd-|-stype:attr=1|qr_nm:gd|res:RC4|com-cf:nl|ptrs:na|ktp:N0|mc:72867|mtp:S|qry_typ:P|lang:en|wc:3|cs:8847|v=4,False,Udhana,Surat,"Shop No.17, Ground Floor, Astha Business Centre, Canal Road,, Udhana, Surat - 394185, Dist.Surat, Gujarat",7942788374,
"Multicolor Polycotton M&S BABY QUILTED SLEEPING BAG, 3-12 Months",https://www.indiamart.com/proddetail/m-s-baby-quilted-sleeping-bag-2853947725873.html?pos=51&kwd=baby sleeping bag&tags=A||||8626.744|Price|product|||TS|rsf:gd-|-stype:attr=1|qr_nm:gd|res:RC4|com-cf:nl|ptrs:na|ktp:N0|mc:72867|mtp:S|qry_typ:P|lang:en|wc:3|cs:8847|v=4,Sree Raj Kondal Export Enterprises,https://www.indiamart.com/sreerajkondalexportenterprises/?pos=51&kwd=baby sleeping bag&tags=A||||8626.744|Price|product|||TS|rsf:gd-|-stype:attr=1|qr_nm:gd|res:RC4|com-cf:nl|ptrs:na|ktp:N0|mc:72867|mtp:S|qry_typ:P|lang:en|wc:3|cs:8847|v=4,False,Gandhi Nagar,Tiruppur,"8/191 E, A V P Layout, Angeripalayam, Gandhi Nagar, Tiruppur - 641603, Dist.Coimbatore, Tamil Nadu",8043890249,
Various Cotton Baby Sleeping Bag,https://www.indiamart.com/proddetail/baby-sleeping-bag-18999412330.html?pos=52&kwd=baby sleeping bag&tags=A||||8211.142|Price|product|||TS|rsf:gd-|-stype:attr=1|qr_nm:gd|res:RC4|com-cf:nl|ptrs:na|ktp:N0|mc:72867|mtp:S|qry_typ:P|lang:en|wc:3|cs:8847|v=4,Welcome Enterprise,https://www.welcomeenterprise.in/?pos=52&kwd=baby sleeping bag&tags=A||||8211.142|Price|product|||TS|rsf:gd-|-stype:attr=1|qr_nm:gd|res:RC4|com-cf:nl|ptrs:na|ktp:N0|mc:72867|mtp:S|qry_typ:P|lang:en|wc:3|cs:8847|v=4,False,Santacruz West,Mumbai,"1,Gulam Rasul Chawl No. 149,Khot Wadi, Besant Road,Santacruz West, Santacruz West, Mumbai - 400054, Dist.Mumbai, Maharashtra",8048601972,
"White Cotton Printed Baby Sleeping Bag, Newly Born",https://www.indiamart.com/proddetail/cotton-printed-baby-sleeping-bag-23622000262.html?pos=53&kwd=baby sleeping bag&tags=A||||8601.347|Price|product|||TS|rsf:gd-|-stype:attr=1|qr_nm:gd|res:RC4|com-cf:nl|ptrs:na|ktp:N0|mc:72867|mtp:S|qry_typ:P|lang:en|wc:3|cs:8847|v=4,Vandana Handicraft,https://www.vandanahandicraft.net/?pos=53&kwd=baby sleeping bag&tags=A||||8601.347|Price|product|||TS|rsf:gd-|-stype:attr=1|qr_nm:gd|res:RC4|com-cf:nl|ptrs:na|ktp:N0|mc:72867|mtp:S|qry_typ:P|lang:en|wc:3|cs:8847|v=4,True,Sitapura Industrial Area,Jaipur,"Plot No. H-1167, Sitapura Industrial Area, Phase III, Sitapura Industrial Area, Jaipur - 302022, Dist.Jaipur, Rajasthan",8046049036,
Polyester Blue Sleeping Bag,https://www.indiamart.com/proddetail/blue-sleeping-bag-2849739025412.html?pos=54&kwd=baby sleeping bag&tags=BA||||8752.144||product|||MDC|rsf:gd-|-stype:attr=1|qr_nm:gd|res:RC4|com-cf:nl|ptrs:na|ktp:N0|mc:72867|mtp:S|qry_typ:P|lang:en|wc:3|cs:8847|v=4,Jaidka Enterprises,https://www.indiamart.com/jaidka-enterprises-delhi/?pos=54&kwd=baby sleeping bag&tags=BA||||8752.144||product|||MDC|rsf:gd-|-stype:attr=1|qr_nm:gd|res:RC4|com-cf:nl|ptrs:na|ktp:N0|mc:72867|mtp:S|qry_typ:P|lang:en|wc:3|cs:8847|v=4,False,Rohini,New Delhi,"House No, Pul Pheladpur, Rohini, New Delhi - 110044, Dist.Delhi, Delhi",7942795311,
"Cotton Newborn Baby Blue Sleeping Bag Captulo, 0-24 month",https://www.indiamart.com/proddetail/newborn-baby-blue-sleeping-bag-captulo-2854875439597.html?pos=55&kwd=baby sleeping bag&tags=A||||9813.14|Price|product|||MDC|rsf:gd-|-stype:attr=1|qr_nm:gd|res:RC4|com-cf:nl|ptrs:na|ktp:N0|mc:72867|mtp:S|qry_typ:P|lang:en|wc:3|cs:8847|v=4,Simply Sahab,https://www.indiamart.com/simplysahab/?pos=55&kwd=baby sleeping bag&tags=A||||9813.14|Price|product|||MDC|rsf:gd-|-stype:attr=1|qr_nm:gd|res:RC4|com-cf:nl|ptrs:na|ktp:N0|mc:72867|mtp:S|qry_typ:P|lang:en|wc:3|cs:8847|v=4,False,Kolkata,Jagatballavpur,"Jagatballavpur, Rajdaria, Kolkata, Jagatballavpur - 711408, Dist.Howrah, West Bengal",8041015046,
Yellow And Red Cotton Cat Print Baby Sleeping Bag,https://www.indiamart.com/proddetail/cat-print-baby-sleeping-bag-11906689830.html?pos=56&kwd=baby sleeping bag&tags=BA||||8752.144|Price|product|||TS|rsf:gd-|-stype:attr=1|qr_nm:gd|res:RC4|com-cf:nl|ptrs:na|ktp:N0|mc:72867|mtp:S|qry_typ:P|lang:en|wc:3|cs:8847|v=4,Chinmay Kids,https://www.indiamart.com/chinmaykids/?pos=56&kwd=baby sleeping bag&tags=BA||||8752.144|Price|product|||TS|rsf:gd-|-stype:attr=1|qr_nm:gd|res:RC4|com-cf:nl|ptrs:na|ktp:N0|mc:72867|mtp:S|qry_typ:P|lang:en|wc:3|cs:8847|v=4,False,Nayagaon,New Delhi,"C-99, Street No. 4, First Pusta, Nayagaon, New Delhi - 110053, Dist.Delhi, Delhi",8046054858,
Cotton Baby Sleeping Bag,https://www.indiamart.com/proddetail/cotton-baby-sleeping-bag-2853717600862.html?pos=57&kwd=baby sleeping bag&tags=A||||8230.883|Price|product|||TS|rsf:gd-|-stype:attr=1|qr_nm:gd|res:RC4|com-cf:nl|ptrs:na|ktp:N0|mc:72867|mtp:S|qry_typ:P|lang:en|wc:3|cs:8847|v=4,Maa Kiran Handloom & Jiyana,https://www.indiamart.com/maakiranhandloomjiyana/?pos=57&kwd=baby sleeping bag&tags=A||||8230.883|Price|product|||TS|rsf:gd-|-stype:attr=1|qr_nm:gd|res:RC4|com-cf:nl|ptrs:na|ktp:N0|mc:72867|mtp:S|qry_typ:P|lang:en|wc:3|cs:8847|v=4,False,Udhana,Surat,"Shop No.17, Ground Floor, Astha Business Centre, Canal Road,, Udhana, Surat - 394185, Dist.Surat, Gujarat",7942788374,
"Multicolor Polycotton M&S BABY QUILTED SLEEPING BAG, 3-12 Months",https://www.indiamart.com/proddetail/m-s-baby-quilted-sleeping-bag-2853947725873.html?pos=58&kwd=baby sleeping bag&tags=A||||8626.744|Price|product|||TS|rsf:gd-|-stype:attr=1|qr_nm:gd|res:RC4|com-cf:nl|ptrs:na|ktp:N0|mc:72867|mtp:S|qry_typ:P|lang:en|wc:3|cs:8847|v=4,Sree Raj Kondal Export Enterprises,https://www.indiamart.com/sreerajkondalexportenterprises/?pos=58&kwd=baby sleeping bag&tags=A||||8626.744|Price|product|||TS|rsf:gd-|-stype:attr=1|qr_nm:gd|res:RC4|com-cf:nl|ptrs:na|ktp:N0|mc:72867|mtp:S|qry_typ:P|lang:en|wc:3|cs:8847|v=4,False,Gandhi Nagar,Tiruppur,"8/191 E, A V P Layout, Angeripalayam, Gandhi Nagar, Tiruppur - 641603, Dist.Coimbatore, Tamil Nadu",8043890249,
"BEDDING Cotton Baby Sleep Sack, Newly Born",https://www.indiamart.com/proddetail/baby-sleep-sack-22453158412.html?pos=59&kwd=baby sleeping bag&tags=A||||8663.873|Price|product|||TS|rsf:gd-|-stype:attr=1|qr_nm:gd|res:RC4|com-cf:nl|ptrs:na|ktp:N0|mc:72867|mtp:S|qry_typ:P|lang:en|wc:3|cs:8847|v=4,Alpha Organics Clothing India,https://www.indiamart.com/alphaorganicsclothingindia/?pos=59&kwd=baby sleeping bag&tags=A||||8663.873|Price|product|||TS|rsf:gd-|-stype:attr=1|qr_nm:gd|res:RC4|com-cf:nl|ptrs:na|ktp:N0|mc:72867|mtp:S|qry_typ:P|lang:en|wc:3|cs:8847|v=4,True,Indiranagar,Bengaluru,"NO.3037,INDIRANAGAR,8TH MAIN ROAD, HAL 2ND STAGE,BANGALORE, Indiranagar, Bengaluru - 560038, Dist.Bengaluru, Karnataka",7942540831,
Baby Sleeping Bag,,V P Product,https://www.indiamart.com/vpproduct/?pos=60&kwd=baby sleeping bag&tags=A||||8752.144|Price|product|||MDC|rsf:gd-|-stype:attr=1|qr_nm:gd|res:RC4|com-cf:nl|ptrs:na|ktp:N0|mc:72867|mtp:S|qry_typ:P|lang:en|wc:3|cs:8847|v=4,False,,New Delhi,"Ground Floor, H.No.- E-5/139, Gali No. - 5, East Gokal Pur, North East Delhi, New Delhi - 110094, Dist.Delhi, Delhi",8044460681,
"Cotton Baby Sleeping Bag, 3-12 Months",https://www.indiamart.com/proddetail/baby-sleeping-bag-9521034512.html?pos=61&kwd=baby sleeping bag&tags=BA||||8211.142|Price|product|||TS|rsf:gd-|-stype:attr=1|qr_nm:gd|res:RC4|com-cf:nl|ptrs:na|ktp:N0|mc:72867|mtp:S|qry_typ:P|lang:en|wc:3|cs:8847|v=4,Dhrupti Creation,https://www.indiamart.com/littlecare/?pos=61&kwd=baby sleeping bag&tags=BA||||8211.142|Price|product|||TS|rsf:gd-|-stype:attr=1|qr_nm:gd|res:RC4|com-cf:nl|ptrs:na|ktp:N0|mc:72867|mtp:S|qry_typ:P|lang:en|wc:3|cs:8847|v=4,False,Malad East,Mumbai,"Gala No. 3, Jignesh Diamond House, Near Vaishnavdevi Mandir, Subhash Lane, Malad East, Malad East, Mumbai - 400097, Dist.Mumbai, Maharashtra",8048970316,
"White Cotton Newborn Baby Sleeping Bags, Newly Born",https://www.indiamart.com/proddetail/newborn-baby-sleeping-bags-2854047376755.html?pos=62&kwd=baby sleeping bag&tags=BA||||8717.363|Price|product|||TS|rsf:gd-|-stype:attr=1|qr_nm:gd|res:RC4|com-cf:nl|ptrs:na|ktp:N0|mc:72867|mtp:S|qry_typ:P|lang:en|wc:3|cs:8847|v=4,Hublot Impex,https://www.hublotimpex.in/?pos=62&kwd=baby sleeping bag&tags=BA||||8717.363|Price|product|||TS|rsf:gd-|-stype:attr=1|qr_nm:gd|res:RC4|com-cf:nl|ptrs:na|ktp:N0|mc:72867|mtp:S|qry_typ:P|lang:en|wc:3|cs:8847|v=4,False,Swamy Nagar,Namakkal,"Second Floor 3/227e5/2d West Street, Nalipalayam Bypass Road K J Complex Nallipalayam, Swamy Nagar, Namakkal - 637003, Dist.Namakkal, Tamil Nadu",8048600000,
"Pink Cotton Baby Sleeping Bag, Newly Born",https://www.indiamart.com/proddetail/baby-sleeping-bag-2850635046955.html?pos=63&kwd=baby sleeping bag&tags=BA||||8601.347|Price|product|||TS|rsf:gd-|-stype:attr=1|qr_nm:gd|res:RC4|com-cf:nl|ptrs:na|ktp:N0|mc:72867|mtp:S|qry_typ:P|lang:en|wc:3|cs:8847|v=4,Ritvik Enterprises,https://www.indiamart.com/ritvikenterprises-jaipur/?pos=63&kwd=baby sleeping bag&tags=BA||||8601.347|Price|product|||TS|rsf:gd-|-stype:attr=1|qr_nm:gd|res:RC4|com-cf:nl|ptrs:na|ktp:N0|mc:72867|mtp:S|qry_typ:P|lang:en|wc:3|cs:8847|v=4,False,Mansarovar,Jaipur,"117/678, Agarwal Farm, Mansarovar, Jaipur - 302020, Dist.Jaipur, Rajasthan",7942545190,
"Sky Blue Dot Printed Cotton Baby Sleeping Bag, 6months",https://www.indiamart.com/proddetail/dot-printed-cotton-baby-sleeping-bag-23705257748.html?pos=64&kwd=baby sleeping bag&tags=BA||||8752.144|Price|product|||TS|rsf:gd-|-stype:attr=1|qr_nm:gd|res:RC4|com-cf:nl|ptrs:na|ktp:N0|mc:72867|mtp:S|qry_typ:P|lang:en|wc:3|cs:8847|v=4,ASW Retail Corporation,https://www.indiamart.com/aswretailcorporation/?pos=64&kwd=baby sleeping bag&tags=BA||||8752.144|Price|product|||TS|rsf:gd-|-stype:attr=1|qr_nm:gd|res:RC4|com-cf:nl|ptrs:na|ktp:N0|mc:72867|mtp:S|qry_typ:P|lang:en|wc:3|cs:8847|v=4,False,Naraina,New Delhi,"B-62/6 3rd Floor Phase II, Naraina Industrial Area, Naraina, New Delhi - 110032, Dist.Delhi, Delhi",8046060075,
"Multicolor Cotton Baby Sleeping Bag, Newly Born",https://www.indiamart.com/proddetail/baby-sleeping-bag-2850616649862.html?pos=65&kwd=baby sleeping bag&tags=BA||||8211.142|Price|product|||TS|rsf:gd-|-stype:attr=1|qr_nm:gd|res:RC4|com-cf:nl|ptrs:na|ktp:N0|mc:72867|mtp:S|qry_typ:P|lang:en|wc:3|cs:8847|v=4,Child King Creation,https://www.indiamart.com/childkingcreation-mumbai/?pos=65&kwd=baby sleeping bag&tags=BA||||8211.142|Price|product|||TS|rsf:gd-|-stype:attr=1|qr_nm:gd|res:RC4|com-cf:nl|ptrs:na|ktp:N0|mc:72867|mtp:S|qry_typ:P|lang:en|wc:3|cs:8847|v=4,False,Malad West,Mumbai,"B 705, Seven Floor, Jagmagia Centre, Mamlatdar Wadi EXTN Road Nahar Nagar, Malad West, Suburban, Malad West, Mumbai - 400064, Dist.Mumbai, Maharashtra",8043805922,
"Cotton/Valvet Baby Sleeping Bag, Newly Born",https://www.indiamart.com/proddetail/baby-sleeping-bag-20773316630.html?pos=66&kwd=baby sleeping bag&tags=BB||||8752.144|Price|product|||TS|rsf:gd-|-stype:attr=1|qr_nm:gd|res:RC4|com-cf:nl|ptrs:na|ktp:N0|mc:72867|mtp:S|qry_typ:P|lang:en|wc:3|cs:8847|v=4,Shaifali Traders,https://www.shopphiez.com/?pos=66&kwd=baby sleeping bag&tags=BB||||8752.144|Price|product|||TS|rsf:gd-|-stype:attr=1|qr_nm:gd|res:RC4|com-cf:nl|ptrs:na|ktp:N0|mc:72867|mtp:S|qry_typ:P|lang:en|wc:3|cs:8847|v=4,False,PATPARGANJ,New Delhi,"Plot No 10, main road patparganj ganj, PATPARGANJ, New Delhi - 110091, Dist.Delhi, Delhi",8046033629,
"Baby Cotton Sleeping Bag, 3 months",https://www.indiamart.com/proddetail/baby-cotton-sleeping-bag-23469301312.html?pos=67&kwd=baby sleeping bag&tags=BA||||8706.263|Price|product|||TS|rsf:gd-|-stype:attr=1|qr_nm:gd|res:RC4|com-cf:nl|ptrs:na|ktp:N0|mc:72867|mtp:S|qry_typ:P|lang:en|wc:3|cs:8847|v=4,P.R.Cottons,https://www.indiamart.com/prcottons/?pos=67&kwd=baby sleeping bag&tags=BA||||8706.263|Price|product|||TS|rsf:gd-|-stype:attr=1|qr_nm:gd|res:RC4|com-cf:nl|ptrs:na|ktp:N0|mc:72867|mtp:S|qry_typ:P|lang:en|wc:3|cs:8847|v=4,True,Near,Karur,"Ground Floor Room No.1, Door No.79/1, Vaiyapurinagar Ist Cross, Near, Karur - 639002, Dist.Karur, Tamil Nadu",8048608767,
"Blue Woolen Baby Sleeping Bag, Newly Born",https://www.indiamart.com/proddetail/woolen-baby-sleeping-bag-27473869255.html?pos=68&kwd=baby sleeping bag&tags=BA||||8823.154|Price|product|||TS|rsf:gd-|-stype:attr=1|qr_nm:gd|res:RC4|com-cf:nl|ptrs:na|ktp:N0|mc:72867|mtp:S|qry_typ:P|lang:en|wc:3|cs:8847|v=4,Disha Creation'S,https://www.indiamart.com/dishacreations-agra/?pos=68&kwd=baby sleeping bag&tags=BA||||8823.154|Price|product|||TS|rsf:gd-|-stype:attr=1|qr_nm:gd|res:RC4|com-cf:nl|ptrs:na|ktp:N0|mc:72867|mtp:S|qry_typ:P|lang:en|wc:3|cs:8847|v=4,False,Mantola,Agra,"30/127, Chitti Khana,, Mantola, Agra - 282003, Dist.Agra, Uttar Pradesh",7942672397,
"Multicolor Cotton Baby Sleeping Carry Bag, Newly Born",https://www.indiamart.com/proddetail/baby-sleeping-carry-bag-2852086731948.html?pos=69&kwd=baby sleeping bag&tags=BA||||8230.883|Price|product|||TS|rsf:gd-|-stype:attr=1|qr_nm:gd|res:RC4|com-cf:nl|ptrs:na|ktp:N0|mc:72867|mtp:S|qry_typ:P|lang:en|wc:3|cs:8847|v=4,Indiab2btrade,https://www.indiab2btrade.com/?pos=69&kwd=baby sleeping bag&tags=BA||||8230.883|Price|product|||TS|rsf:gd-|-stype:attr=1|qr_nm:gd|res:RC4|com-cf:nl|ptrs:na|ktp:N0|mc:72867|mtp:S|qry_typ:P|lang:en|wc:3|cs:8847|v=4,False,Mota Varachha,Surat,"Ground Floor, Shop No. F/22, Shivdhara Complex, L.P Savani School,Near To Maharaja Farm,, Mota Varachha, Surat - 394105, Dist.Surat, Gujarat",8043816125,
"Polyester Blue Baby Sleeping Bed, Newly Born",https://www.indiamart.com/proddetail/baby-sleeping-bed-2853202021991.html?pos=70&kwd=baby sleeping bag&tags=BA||||8752.144|Price|product|||TS|rsf:gd-|-stype:attr=1|qr_nm:gd|res:RC4|com-cf:nl|ptrs:na|ktp:N0|mc:72867|mtp:S|qry_typ:P|lang:en|wc:3|cs:8847|v=4,Balak Creations,https://www.indiamart.com/balak-creations/?pos=70&kwd=baby sleeping bag&tags=BA||||8752.144|Price|product|||TS|rsf:gd-|-stype:attr=1|qr_nm:gd|res:RC4|com-cf:nl|ptrs:na|ktp:N0|mc:72867|mtp:S|qry_typ:P|lang:en|wc:3|cs:8847|v=4,False,Jahangirpuri,New Delhi,"Plot No. 32 BLK-E, Third Floor, At SMA, Industrial Area, GTB Road, Jahangirpuri, New Delhi - 110033, Dist.Delhi, Delhi",7942548459,
"Multicolor Cotton Newborn Baby Sleeping Bag, Packaging Type: Polythene, Newly Born",https://www.indiamart.com/proddetail/newborn-baby-sleeping-bag-23908152712.html?pos=71&kwd=baby sleeping bag&tags=BA||||8752.144|Price|product|||TS|rsf:gd-|-stype:attr=1|qr_nm:gd|res:RC4|com-cf:nl|ptrs:na|ktp:N0|mc:72867|mtp:S|qry_typ:P|lang:en|wc:3|cs:8847|v=4,Mom & Son,https://www.theindianchoice.com/?pos=71&kwd=baby sleeping bag&tags=BA||||8752.144|Price|product|||TS|rsf:gd-|-stype:attr=1|qr_nm:gd|res:RC4|com-cf:nl|ptrs:na|ktp:N0|mc:72867|mtp:S|qry_typ:P|lang:en|wc:3|cs:8847|v=4,False,Karawal Nagar,New Delhi,"B-57 Gali Number-1 Mukund Vihar, Near Pnb Bank, Karawal Nagar, New Delhi - 110094, Dist.Delhi, Delhi",7942565509,
"Multicolor Polyester Baby Bed Cum Sleeping Bag, Packaging Type: Box, 12 Months",https://www.indiamart.com/proddetail/baby-bed-cum-sleeping-bag-2850321348030.html?pos=72&kwd=baby sleeping bag&tags=BB||||8752.144|Price|product|||TS|rsf:gd-|-stype:attr=1|qr_nm:gd|res:RC4|com-cf:nl|ptrs:na|ktp:N0|mc:72867|mtp:S|qry_typ:P|lang:en|wc:3|cs:8847|v=4,House Of Luxury,https://www.theholworld.net/?pos=72&kwd=baby sleeping bag&tags=BB||||8752.144|Price|product|||TS|rsf:gd-|-stype:attr=1|qr_nm:gd|res:RC4|com-cf:nl|ptrs:na|ktp:N0|mc:72867|mtp:S|qry_typ:P|lang:en|wc:3|cs:8847|v=4,False,Budh Vihar,New Delhi,"Plot No - 5, Kh. No. - 89/10/2, 1, Block No. - I-1, Budh Vihar Phase 1, Delhi, North West Delhi, Del, Budh Vihar, New Delhi - 110086, Dist.Delhi, Delhi",7942819716,
"Polyester Blue Baby Sleeping Bed, Newly Born",https://www.indiamart.com/proddetail/baby-sleeping-bed-2853202021991.html?pos=73&kwd=baby sleeping bag&tags=BA||||8752.144|Price|product|||TS|rsf:gd-|-stype:attr=1|qr_nm:gd|res:RC4|com-cf:nl|ptrs:na|ktp:N0|mc:72867|mtp:S|qry_typ:P|lang:en|wc:3|cs:8847|v=4,Balak Creations,https://www.indiamart.com/balak-creations/?pos=73&kwd=baby sleeping bag&tags=BA||||8752.144|Price|product|||TS|rsf:gd-|-stype:attr=1|qr_nm:gd|res:RC4|com-cf:nl|ptrs:na|ktp:N0|mc:72867|mtp:S|qry_typ:P|lang:en|wc:3|cs:8847|v=4,False,Jahangirpuri,New Delhi,"Plot No. 32 BLK-E, Third Floor, At SMA, Industrial Area, GTB Road, Jahangirpuri, New Delhi - 110033, Dist.Delhi, Delhi",7942548459,
Cotton Baby Sleeping Bed,https://www.indiamart.com/proddetail/baby-sleeping-bed-20704298112.html?pos=74&kwd=baby sleeping bag&tags=BB||||8559.269|Price|product|||TS|rsf:gd-|-stype:attr=1|qr_nm:gd|res:RC4|com-cf:nl|ptrs:na|ktp:N0|mc:72867|mtp:S|qry_typ:P|lang:en|wc:3|cs:8847|v=4,Daga Impex,https://www.dagaimpex.co.in/?pos=74&kwd=baby sleeping bag&tags=BB||||8559.269|Price|product|||TS|rsf:gd-|-stype:attr=1|qr_nm:gd|res:RC4|com-cf:nl|ptrs:na|ktp:N0|mc:72867|mtp:S|qry_typ:P|lang:en|wc:3|cs:8847|v=4,False,Rajwada,Indore,"No. 214, Tilak Path, Near Maruti Hanuman Mandir, Rajwada, Indore - 452007, Dist.Indore, Madhya Pradesh",8046030945,
"Newborn Baby Sleeping Bags, 3-12 Months",https://www.indiamart.com/proddetail/newborn-baby-sleeping-bags-2853390412588.html?pos=75&kwd=baby sleeping bag&tags=BA||||8747.203|Price|product|||TS|rsf:gd-|-stype:attr=1|qr_nm:gd|res:RC4|com-cf:nl|ptrs:na|ktp:N0|mc:72867|mtp:S|qry_typ:P|lang:en|wc:3|cs:8847|v=4,Paras Blanket,https://www.parasblanket.com/?pos=75&kwd=baby sleeping bag&tags=BA||||8747.203|Price|product|||TS|rsf:gd-|-stype:attr=1|qr_nm:gd|res:RC4|com-cf:nl|ptrs:na|ktp:N0|mc:72867|mtp:S|qry_typ:P|lang:en|wc:3|cs:8847|v=4,False,Old Housing Board Colony,Panipat,"Shop No. 1, 2, 3, New Pachranga Market Pachranga Bazar, Old Housing Board Colony, Panipat - 132103, Dist.Panipat, Haryana",8048968656,
"Muslin White Newborn Baby Sleeping Bags, Newly Born",https://www.indiamart.com/proddetail/newborn-baby-sleeping-bags-2855091324673.html?pos=76&kwd=baby sleeping bag&tags=B||||8954.051|Price|product|||TS|rsf:gd-|-stype:attr=1|qr_nm:gd|res:RC4|com-cf:nl|ptrs:na|ktp:N0|mc:72867|mtp:S|qry_typ:P|lang:en|wc:3|cs:8847|v=4,Tetra Clothing,https://www.tetraclothing.in/?pos=76&kwd=baby sleeping bag&tags=B||||8954.051|Price|product|||TS|rsf:gd-|-stype:attr=1|qr_nm:gd|res:RC4|com-cf:nl|ptrs:na|ktp:N0|mc:72867|mtp:S|qry_typ:P|lang:en|wc:3|cs:8847|v=4,True,Gopichettipalaiyam,Chennai,"No. 59/28, Balu Building, Gopichettipalaiyam, Chennai - 638476, Dist.Chennai, Tamil Nadu",8048957951,
Soy Wax Multicolor Sleeping Baby Candles Candle,https://www.indiamart.com/proddetail/sleeping-baby-candles-pink-blue-and-white-2855041763830.html?pos=77&kwd=baby sleeping bag&tags=BB||||8663.873||product|||TS|rsf:gd-|-stype:attr=1|qr_nm:gd|res:RC4|com-cf:nl|ptrs:na|ktp:N0|mc:72867|mtp:S|qry_typ:P|lang:en|wc:3|cs:8847|v=4,Virgo Productions Llp,https://www.indiamart.com/virgoproductions/?pos=77&kwd=baby sleeping bag&tags=BB||||8663.873||product|||TS|rsf:gd-|-stype:attr=1|qr_nm:gd|res:RC4|com-cf:nl|ptrs:na|ktp:N0|mc:72867|mtp:S|qry_typ:P|lang:en|wc:3|cs:8847|v=4,False,C V Raman Nagar,Bengaluru,"Ground Floor, No.105, BMP, Udaya Ravi, 4th Main GM Palya, Next To RK Roots, GM Palya Urban, C V Raman Nagar, Bengaluru - 560075, Dist.Bengaluru, Karnataka",7942715076,
"Multicolor Cotton 3 In 1 Baby Sleeping Bag, Newly Born, 3-12 Months",https://www.indiamart.com/proddetail/cotton-3-in-1-baby-sleeping-bag-newly-born-2855059597333.html?pos=78&kwd=baby sleeping bag&tags=BB||||8230.883|Price|product|||TS|rsf:gd-|-stype:attr=1|qr_nm:gd|res:RC4|com-cf:nl|ptrs:na|ktp:N0|mc:72867|mtp:S|qry_typ:P|lang:en|wc:3|cs:8847|v=4,Hemiza Enterprise,https://www.hemiza.in/?pos=78&kwd=baby sleeping bag&tags=BB||||8230.883|Price|product|||TS|rsf:gd-|-stype:attr=1|qr_nm:gd|res:RC4|com-cf:nl|ptrs:na|ktp:N0|mc:72867|mtp:S|qry_typ:P|lang:en|wc:3|cs:8847|v=4,False,Katargam,Surat,"71, Ground Floor, Shubhash Nagar Society Near Shakti Nagar Ni Vadi, Katargam, Surat - 395004, Dist.Surat, Gujarat",8048976391,
Baby Sleeping Bag,https://www.indiamart.com/proddetail/baby-sleeping-bag-2852900946588.html?pos=79&kwd=baby sleeping bag&tags=BA||||8716.212|Price|product|||MDC|rsf:gd-|-stype:attr=1|qr_nm:gd|res:RC4|com-cf:nl|ptrs:na|ktp:N0|mc:72867|mtp:S|qry_typ:P|lang:en|wc:3|cs:8847|v=4,Pizzlys India,https://www.indiamart.com/pizzlys-india/?pos=79&kwd=baby sleeping bag&tags=BA||||8716.212|Price|product|||MDC|rsf:gd-|-stype:attr=1|qr_nm:gd|res:RC4|com-cf:nl|ptrs:na|ktp:N0|mc:72867|mtp:S|qry_typ:P|lang:en|wc:3|cs:8847|v=4,False,Gurugram,Dharuhera,"1, Dharuhera, Rewari Sohna Road, HSIIDC Dharuhera, Gurugram, Dharuhera - 123106, Dist.Rewari, Haryana",8047675691,
"Baby sleeping bag, 3-12 Months",https://www.indiamart.com/proddetail/baby-sleeping-bag-2854780471730.html?pos=80&kwd=baby sleeping bag&tags=BB||||8752.144|Price|product|||MDC|rsf:gd-|-stype:attr=1|qr_nm:gd|res:RC4|com-cf:nl|ptrs:na|ktp:N0|mc:72867|mtp:S|qry_typ:P|lang:en|wc:3|cs:8847|v=4,S.N. Enterprises,https://www.indiamart.com/sn-enterprisesnew-delhi/?pos=80&kwd=baby sleeping bag&tags=BB||||8752.144|Price|product|||MDC|rsf:gd-|-stype:attr=1|qr_nm:gd|res:RC4|com-cf:nl|ptrs:na|ktp:N0|mc:72867|mtp:S|qry_typ:P|lang:en|wc:3|cs:8847|v=4,False,Daryaganj,New Delhi,"Shop No. 16, Sabharwal Market, Sabharwal Lane, Sadar Bazar, North, Daryaganj, New Delhi - 110006, Dist.Delhi, Delhi",8045166377,
"Cotton White Bluebell Baby Sleeping Bag, Newly Born",https://www.indiamart.com/proddetail/bluebell-baby-sleeping-bag-2854561567262.html?pos=81&kwd=baby sleeping bag&tags=BB||||8663.873|Price|product|||MDC|rsf:gd-|-stype:attr=1|qr_nm:gd|res:RC4|com-cf:nl|ptrs:na|ktp:N0|mc:72867|mtp:S|qry_typ:P|lang:en|wc:3|cs:8847|v=4,AQ Corporation,https://www.indiamart.com/aqcorporation/?pos=81&kwd=baby sleeping bag&tags=BB||||8663.873|Price|product|||MDC|rsf:gd-|-stype:attr=1|qr_nm:gd|res:RC4|com-cf:nl|ptrs:na|ktp:N0|mc:72867|mtp:S|qry_typ:P|lang:en|wc:3|cs:8847|v=4,False,,Bengaluru,"Ground And First Floor, No 88, 2nd Cross, 4th Main, NGEF Layout, Nagashetty Halli, Sanjaynagar Bengaluru Urban, Bengaluru - 560094, Dist.Bengaluru, Karnataka",7949325043,
"Light Blue Cotton Baby Sleeping Bag, Newly Born",https://www.indiamart.com/proddetail/baby-sleeping-bag-24316991662.html?pos=82&kwd=baby sleeping bag&tags=BA||||8228.275|Price|product|||MDC|rsf:gd-|-stype:attr=1|qr_nm:gd|res:RC4|com-cf:nl|ptrs:na|ktp:N0|mc:72867|mtp:S|qry_typ:P|lang:en|wc:3|cs:8847|v=4,Sanskriti Inc,https://www.indiamart.com/sanskriti-inc/?pos=82&kwd=baby sleeping bag&tags=BA||||8228.275|Price|product|||MDC|rsf:gd-|-stype:attr=1|qr_nm:gd|res:RC4|com-cf:nl|ptrs:na|ktp:N0|mc:72867|mtp:S|qry_typ:P|lang:en|wc:3|cs:8847|v=4,False,Nikol,Ahmedabad,"Shop No-26, Surjit Co Op H Soc Ltd, Nr. India Colony, Nikol Road, Nikol, Ahmedabad - 382350, Dist.Ahmedabad, Gujarat",8046047726,
"Blue Cotton BABY SLEEPING BAG, Newly Born",https://www.indiamart.com/proddetail/baby-sleeping-bag-2854884927162.html?pos=83&kwd=baby sleeping bag&tags=BB||||8230.883|Price|product|||MDC|rsf:gd-|-stype:attr=1|qr_nm:gd|res:RC4|com-cf:nl|ptrs:na|ktp:N0|mc:72867|mtp:S|qry_typ:P|lang:en|wc:3|cs:8847|v=4,Balar Corporation,https://www.indiamart.com/balar-corporation/?pos=83&kwd=baby sleeping bag&tags=BB||||8230.883|Price|product|||MDC|rsf:gd-|-stype:attr=1|qr_nm:gd|res:RC4|com-cf:nl|ptrs:na|ktp:N0|mc:72867|mtp:S|qry_typ:P|lang:en|wc:3|cs:8847|v=4,False,,Surat,"C-504, Rameshvaram Regency, Utran, Surat - 394105, Dist.Surat, Gujarat",8045734410,
"Multicolor Cotton Baby Sleeping Bag, 3-12 Months",https://www.indiamart.com/proddetail/cotton-baby-sleeping-bag-2853523281091.html?pos=84&kwd=baby sleeping bag&tags=BA||||8752.144|Price|product|||MDC|rsf:gd-|-stype:attr=1|qr_nm:gd|res:RC4|com-cf:nl|ptrs:na|ktp:N0|mc:72867|mtp:S|qry_typ:P|lang:en|wc:3|cs:8847|v=4,Santosh Enterprises,https://www.indiamart.com/santosh-enterprises-delhiindia/?pos=84&kwd=baby sleeping bag&tags=BA||||8752.144|Price|product|||MDC|rsf:gd-|-stype:attr=1|qr_nm:gd|res:RC4|com-cf:nl|ptrs:na|ktp:N0|mc:72867|mtp:S|qry_typ:P|lang:en|wc:3|cs:8847|v=4,False,North Delhi,New Delhi,"Ground Floor A 44 Khera Garhi Colony Gali No 01, North Delhi, New Delhi - 110082, Dist.Delhi, Delhi",8047837949,
baby Jadu Sleeping Bag,https://www.indiamart.com/proddetail/baby-jadu-sleeping-bag-12821274130.html?pos=85&kwd=baby sleeping bag&tags=BB||||8223.226|Price|product|||MDC|rsf:gd-|-stype:attr=1|qr_nm:gd|res:RC4|com-cf:nl|ptrs:na|ktp:N0|mc:72867|mtp:S|qry_typ:P|lang:en|wc:3|cs:8847|v=4,Wecare Solutions,https://www.indiamart.com/wecare-solutions/?pos=85&kwd=baby sleeping bag&tags=BB||||8223.226|Price|product|||MDC|rsf:gd-|-stype:attr=1|qr_nm:gd|res:RC4|com-cf:nl|ptrs:na|ktp:N0|mc:72867|mtp:S|qry_typ:P|lang:en|wc:3|cs:8847|v=4,False,Valiv,Thane,"Gala No. F-19-20, 1st Floor, Rajprabha Anand Industrial Estate Naikpada, Waliv, Valiv, Thane - 401208, Dist.Thane, Maharashtra",8047631791,
"Cotton Yellow Baby Sleeping Bag, 1-2 Years",https://www.indiamart.com/proddetail/yellow-baby-sleeping-bag-2854233544873.html?pos=86&kwd=baby sleeping bag&tags=BA||||8223.226|Price|product|||MDC|rsf:gd-|-stype:attr=1|qr_nm:gd|res:RC4|com-cf:nl|ptrs:na|ktp:N0|mc:72867|mtp:S|qry_typ:P|lang:en|wc:3|cs:8847|v=4,Royal Baby,https://www.indiamart.com/royal-baby-thane/?pos=86&kwd=baby sleeping bag&tags=BA||||8223.226|Price|product|||MDC|rsf:gd-|-stype:attr=1|qr_nm:gd|res:RC4|com-cf:nl|ptrs:na|ktp:N0|mc:72867|mtp:S|qry_typ:P|lang:en|wc:3|cs:8847|v=4,False,,Thane,"Ground Floor, Shop No. 03, Savitri Niwas Mumbai Pune Road, Amrutnagar, Sub Post Office, Mumbra, Thane - 400612, Dist.Thane, Maharashtra",8045734604,
"Multicolor Cotton 3d Printed Baby Sleeping Bag, 1-2 Years",https://www.indiamart.com/proddetail/3d-printed-baby-sleeping-bag-2853679161730.html?pos=87&kwd=baby sleeping bag&tags=BA||||8230.883|Price|product|||MDC|rsf:gd-|-stype:attr=1|qr_nm:gd|res:RC4|com-cf:nl|ptrs:na|ktp:N0|mc:72867|mtp:S|qry_typ:P|lang:en|wc:3|cs:8847|v=4,Shri Shri Fashion,https://www.indiamart.com/shri-shri-fashion/?pos=87&kwd=baby sleeping bag&tags=BA||||8230.883|Price|product|||MDC|rsf:gd-|-stype:attr=1|qr_nm:gd|res:RC4|com-cf:nl|ptrs:na|ktp:N0|mc:72867|mtp:S|qry_typ:P|lang:en|wc:3|cs:8847|v=4,False,Varachha,Surat,"A-231, Narayan Nagar, Near Nalanda School, Punagam,, Varachha, Surat - 395010, Dist.Surat, Gujarat",7942712235,
"Green (Base) Baby Cotton Sleeping Bag, Newly Born",https://www.indiamart.com/proddetail/baby-cotton-sleeping-bag-2850650074088.html?pos=88&kwd=baby sleeping bag&tags=BA||||8752.144|Price|product|||MDC|rsf:gd-|-stype:attr=1|qr_nm:gd|res:RC4|com-cf:nl|ptrs:na|ktp:N0|mc:72867|mtp:S|qry_typ:P|lang:en|wc:3|cs:8847|v=4,L T Textiles,https://www.indiamart.com/lttextiles/?pos=88&kwd=baby sleeping bag&tags=BA||||8752.144|Price|product|||MDC|rsf:gd-|-stype:attr=1|qr_nm:gd|res:RC4|com-cf:nl|ptrs:na|ktp:N0|mc:72867|mtp:S|qry_typ:P|lang:en|wc:3|cs:8847|v=4,False,Pahari Dhiraj,New Delhi,"5189-90 Main Road, Sadar Bazar, Pahari Dhiraj, New Delhi - 110006, Dist.Delhi, Delhi",7942958455,
"Multicolor Cotton Baby Sleeping Bags, Newly Born",https://www.indiamart.com/proddetail/baby-sleeping-bags-2853966594733.html?pos=89&kwd=baby sleeping bag&tags=BA||||8228.275|Price|product|||MDC|rsf:gd-|-stype:attr=1|qr_nm:gd|res:RC4|com-cf:nl|ptrs:na|ktp:N0|mc:72867|mtp:S|qry_typ:P|lang:en|wc:3|cs:8847|v=4,Mahalaxmi Babycare Products LLP,https://www.indiamart.com/mahalaxmibabycareproducts/?pos=89&kwd=baby sleeping bag&tags=BA||||8228.275|Price|product|||MDC|rsf:gd-|-stype:attr=1|qr_nm:gd|res:RC4|com-cf:nl|ptrs:na|ktp:N0|mc:72867|mtp:S|qry_typ:P|lang:en|wc:3|cs:8847|v=4,False,Bapunagar,Ahmedabad,"Survey No. 00697/4585, B No 697/4585 Gujarat Hou Board, Bapunagar, Bapunagar, Ahmedabad - 382424, Dist.Ahmedabad, Gujarat",8047787256,
"Baby Sized Pink Sleeping Bag, Cotton",https://www.indiamart.com/proddetail/baby-sized-pink-sleeping-bag-2854107167588.html?pos=90&kwd=baby sleeping bag&tags=BA||||8230.883|Price|product|||MDC|rsf:gd-|-stype:attr=1|qr_nm:gd|res:RC4|com-cf:nl|ptrs:na|ktp:N0|mc:72867|mtp:S|qry_typ:P|lang:en|wc:3|cs:8847|v=4,Shree Fab,https://www.indiamart.com/shree-fab-gujarat/?pos=90&kwd=baby sleeping bag&tags=BA||||8230.883|Price|product|||MDC|rsf:gd-|-stype:attr=1|qr_nm:gd|res:RC4|com-cf:nl|ptrs:na|ktp:N0|mc:72867|mtp:S|qry_typ:P|lang:en|wc:3|cs:8847|v=4,False,Dharati Society,Surat,"Plot-65 GR, Ground+ 1st Floor, Gothan Industrial SOC, A. K. Road, Jay Ambey Textile, Varachha, Dharati Society, Surat - 395006, Dist.Surat, Gujarat",8045732311,
"Pink And Blue Cotton Printed Baby Sleeping Bag, Newly Born",https://www.indiamart.com/proddetail/cotton-printed-baby-sleeping-bag-2853513006112.html?pos=91&kwd=baby sleeping bag&tags=BA||||8307.81|Price|product|||MDC|rsf:gd-|-stype:attr=1|qr_nm:gd|res:RC4|com-cf:nl|ptrs:na|ktp:N0|mc:72867|mtp:S|qry_typ:P|lang:en|wc:3|cs:8847|v=4,Tabaria Baby Mall,https://www.indiamart.com/tabaria-baby-mallpune/?pos=91&kwd=baby sleeping bag&tags=BA||||8307.81|Price|product|||MDC|rsf:gd-|-stype:attr=1|qr_nm:gd|res:RC4|com-cf:nl|ptrs:na|ktp:N0|mc:72867|mtp:S|qry_typ:P|lang:en|wc:3|cs:8847|v=4,False,Raviwar Peth,Pune,"1088,Manish Market,Raviwar Peth, Raviwar Peth, Pune - 411002, Dist.Pune, Maharashtra",7949092418,
"Pink Cotton Baby Sleeping Bag, Newly Born",https://www.indiamart.com/proddetail/pink-cotton-baby-sleeping-bag-2854492658073.html?pos=92&kwd=baby sleeping bag&tags=BA||||8747.203|Price|product|||MDC|rsf:gd-|-stype:attr=1|qr_nm:gd|res:RC4|com-cf:nl|ptrs:na|ktp:N0|mc:72867|mtp:S|qry_typ:P|lang:en|wc:3|cs:8847|v=4,Gandhi Wooltex,https://www.indiamart.com/gandhiwooltex/?pos=92&kwd=baby sleeping bag&tags=BA||||8747.203|Price|product|||MDC|rsf:gd-|-stype:attr=1|qr_nm:gd|res:RC4|com-cf:nl|ptrs:na|ktp:N0|mc:72867|mtp:S|qry_typ:P|lang:en|wc:3|cs:8847|v=4,False,,Panipat,"H No. 538, Sector 12, Huda, Panipat - 132103, Dist.Panipat, Haryana",7949338841,
"Blue Cotton Baby Sleeping Bag, Newly Born",https://www.indiamart.com/proddetail/blue-cotton-baby-sleeping-bag-2853993464930.html?pos=93&kwd=baby sleeping bag&tags=BA||||8752.144|Price|product|||MDC|rsf:gd-|-stype:attr=1|qr_nm:gd|res:RC4|com-cf:nl|ptrs:na|ktp:N0|mc:72867|mtp:S|qry_typ:P|lang:en|wc:3|cs:8847|v=4,A.D. Enterprises,https://www.indiamart.com/adenterprises-burari-newdelhi/?pos=93&kwd=baby sleeping bag&tags=BA||||8752.144|Price|product|||MDC|rsf:gd-|-stype:attr=1|qr_nm:gd|res:RC4|com-cf:nl|ptrs:na|ktp:N0|mc:72867|mtp:S|qry_typ:P|lang:en|wc:3|cs:8847|v=4,False,North,New Delhi,"K.No-12/1, Main 25 FT. Road, Near Shyam Sweets, Uttranchal Enclave ,Kamal Pur, Burari, North, New Delhi - 110084, Dist.Delhi, Delhi",8044565004,
"Yellow Cotton Soft Baby Sleeping Bag, Newly Born",https://www.indiamart.com/proddetail/cotton-soft-baby-sleeping-bag-2853455163333.html?pos=94&kwd=baby sleeping bag&tags=BA||||8230.883|Price|product|||MDC|rsf:gd-|-stype:attr=1|qr_nm:gd|res:RC4|com-cf:nl|ptrs:na|ktp:N0|mc:72867|mtp:S|qry_typ:P|lang:en|wc:3|cs:8847|v=4,Riyo Enterprise,https://www.indiamart.com/riyo-enterprise-surat/?pos=94&kwd=baby sleeping bag&tags=BA||||8230.883|Price|product|||MDC|rsf:gd-|-stype:attr=1|qr_nm:gd|res:RC4|com-cf:nl|ptrs:na|ktp:N0|mc:72867|mtp:S|qry_typ:P|lang:en|wc:3|cs:8847|v=4,False,Punagam,Surat,"Ground Floor, A-228, Narayannagar Society, Punagam Road, Nalanda Vidhyalay, Punagam, Punagam, Surat - 395010, Dist.Surat, Gujarat",8045910533,
Pink Cotton Baby Sleeping Bags,https://www.indiamart.com/proddetail/baby-sleeping-bags-17752292848.html?pos=95&kwd=baby sleeping bag&tags=BA||||8211.142|Price|product|||MDC|rsf:gd-|-stype:attr=1|qr_nm:gd|res:RC4|com-cf:nl|ptrs:na|ktp:N0|mc:72867|mtp:S|qry_typ:P|lang:en|wc:3|cs:8847|v=4,Milee Fashion,https://www.indiamart.com/mileefashion/?pos=95&kwd=baby sleeping bag&tags=BA||||8211.142|Price|product|||MDC|rsf:gd-|-stype:attr=1|qr_nm:gd|res:RC4|com-cf:nl|ptrs:na|ktp:N0|mc:72867|mtp:S|qry_typ:P|lang:en|wc:3|cs:8847|v=4,False,Chedda Nagar,Mumbai,"Veer Sambhaji Nagar, Near Hanuman Mandir PL Lokhande Marg, Chembur, Chedda Nagar, Mumbai - 400089, Dist.Mumbai, Maharashtra",8048966118,
"Sky Blue Dot Printed Cotton Baby Sleeping Bag, 6months",https://www.indiamart.com/proddetail/dot-printed-cotton-baby-sleeping-bag-23705257748.html?pos=96&kwd=baby sleeping bag&tags=BA||||8752.144|Price|product|||TS|rsf:gd-|-stype:attr=1|qr_nm:gd|res:RC4|com-cf:nl|ptrs:na|ktp:N0|mc:72867|mtp:S|qry_typ:P|lang:en|wc:3|cs:8847|v=4,ASW Retail Corporation,https://www.indiamart.com/aswretailcorporation/?pos=96&kwd=baby sleeping bag&tags=BA||||8752.144|Price|product|||TS|rsf:gd-|-stype:attr=1|qr_nm:gd|res:RC4|com-cf:nl|ptrs:na|ktp:N0|mc:72867|mtp:S|qry_typ:P|lang:en|wc:3|cs:8847|v=4,False,Naraina,New Delhi,"B-62/6 3rd Floor Phase II, Naraina Industrial Area, Naraina, New Delhi - 110032, Dist.Delhi, Delhi",8046060075,
"Cotton Baby Sleeping Bags, Newly Born",https://www.indiamart.com/proddetail/baby-sleeping-bags-2854677936991.html?pos=97&kwd=baby sleeping bag&tags=BA||||8230.883|Price|product|||MDC|rsf:gd-|-stype:attr=1|qr_nm:gd|res:RC4|com-cf:nl|ptrs:na|ktp:N0|mc:72867|mtp:S|qry_typ:P|lang:en|wc:3|cs:8847|v=4,Grow More Enterprise,https://www.indiamart.com/growmoreenterprise-surat/?pos=97&kwd=baby sleeping bag&tags=BA||||8230.883|Price|product|||MDC|rsf:gd-|-stype:attr=1|qr_nm:gd|res:RC4|com-cf:nl|ptrs:na|ktp:N0|mc:72867|mtp:S|qry_typ:P|lang:en|wc:3|cs:8847|v=4,False,Punagam,Surat,"C 38, Matrushakti Society, Punagam, Punagam, Surat - 395010, Dist.Surat, Gujarat",7942722776,
"Cotton White Baby Sleeping Bags, Newly Born",https://www.indiamart.com/proddetail/baby-sleeping-bags-2853906063373.html?pos=98&kwd=baby sleeping bag&tags=BA||||8226.563|Price|product|||MDC|rsf:gd-|-stype:attr=1|qr_nm:gd|res:RC4|com-cf:nl|ptrs:na|ktp:N0|mc:72867|mtp:S|qry_typ:P|lang:en|wc:3|cs:8847|v=4,Vanbon Clothing Co.,https://www.indiamart.com/vanbon-clothing-co/?pos=98&kwd=baby sleeping bag&tags=BA||||8226.563|Price|product|||MDC|rsf:gd-|-stype:attr=1|qr_nm:gd|res:RC4|com-cf:nl|ptrs:na|ktp:N0|mc:72867|mtp:S|qry_typ:P|lang:en|wc:3|cs:8847|v=4,False,Vashi (Thane),Navi Mumbai,"1st Floor Ofice No.16, Plot No.73, D Wing Vallabh Bhai Patel Marg, Vashi (Thane), Navi Mumbai - 400703, Dist.Thane, Maharashtra",8044012603,
Newborn Baby Sleeping Bed,https://www.indiamart.com/proddetail/newborn-baby-sleeping-bed-2854450285397.html?pos=99&kwd=baby sleeping bag&tags=BA||||8752.144|Price|product|||MDC|rsf:gd-|-stype:attr=1|qr_nm:gd|res:RC4|com-cf:nl|ptrs:na|ktp:N0|mc:72867|mtp:S|qry_typ:P|lang:en|wc:3|cs:8847|v=4,Aakash Kumar,https://www.indiamart.com/aakashkumarnewdelhi/?pos=99&kwd=baby sleeping bag&tags=BA||||8752.144|Price|product|||MDC|rsf:gd-|-stype:attr=1|qr_nm:gd|res:RC4|com-cf:nl|ptrs:na|ktp:N0|mc:72867|mtp:S|qry_typ:P|lang:en|wc:3|cs:8847|v=4,False,South Delhi,New Delhi,"L-188/35, Sangam Vihar Road, Sangam Vihar, South Delhi, New Delhi - 110062, Dist.Delhi, Delhi",7949336442,
"Cotton Baby Sleeping Bag, 3-12 Months",https://www.indiamart.com/proddetail/baby-sleeping-bag-9521034512.html?pos=100&kwd=baby sleeping bag&tags=BA||||8211.142|Price|product|||TS|rsf:gd-|-stype:attr=1|qr_nm:gd|res:RC4|com-cf:nl|ptrs:na|ktp:N0|mc:72867|mtp:S|qry_typ:P|lang:en|wc:3|cs:8847|v=4,Dhrupti Creation,https://www.indiamart.com/littlecare/?pos=100&kwd=baby sleeping bag&tags=BA||||8211.142|Price|product|||TS|rsf:gd-|-stype:attr=1|qr_nm:gd|res:RC4|com-cf:nl|ptrs:na|ktp:N0|mc:72867|mtp:S|qry_typ:P|lang:en|wc:3|cs:8847|v=4,False,Malad East,Mumbai,"Gala No. 3, Jignesh Diamond House, Near Vaishnavdevi Mandir, Subhash Lane, Malad East, Malad East, Mumbai - 400097, Dist.Mumbai, Maharashtra",8048970316,
"Blue Cotton Baby Sleeping Bag, Newly Born",https://www.indiamart.com/proddetail/blue-cotton-baby-sleeping-bag-2853993464930.html?pos=101&kwd=baby sleeping bag&tags=BA||||8752.144|Price|product|||MDC|rsf:gd-|-stype:attr=1|qr_nm:gd|res:RC4|com-cf:nl|ptrs:na|ktp:N0|mc:72867|mtp:S|qry_typ:P|lang:en|wc:3|cs:8847|v=4,A.D. Enterprises,https://www.indiamart.com/adenterprises-burari-newdelhi/?pos=101&kwd=baby sleeping bag&tags=BA||||8752.144|Price|product|||MDC|rsf:gd-|-stype:attr=1|qr_nm:gd|res:RC4|com-cf:nl|ptrs:na|ktp:N0|mc:72867|mtp:S|qry_typ:P|lang:en|wc:3|cs:8847|v=4,False,North,New Delhi,"K.No-12/1, Main 25 FT. Road, Near Shyam Sweets, Uttranchal Enclave ,Kamal Pur, Burari, North, New Delhi - 110084, Dist.Delhi, Delhi",8044565004,
Unisex Cotton Newborn Baby Sleeping Bag,https://www.indiamart.com/proddetail/newborn-baby-sleeping-bag-23538380448.html?pos=102&kwd=baby sleeping bag&tags=BA||||8706.263|Price|product|||TS|rsf:gd-|-stype:attr=1|qr_nm:gd|res:RC4|com-cf:nl|ptrs:na|ktp:N0|mc:72867|mtp:S|qry_typ:P|lang:en|wc:3|cs:8847|v=4,Mercury Weavers,https://www.indiamart.com/mercuryweavers/?pos=102&kwd=baby sleeping bag&tags=BA||||8706.263|Price|product|||TS|rsf:gd-|-stype:attr=1|qr_nm:gd|res:RC4|com-cf:nl|ptrs:na|ktp:N0|mc:72867|mtp:S|qry_typ:P|lang:en|wc:3|cs:8847|v=4,False,Gowripuram,Karur,"35/3, 2nd Floor, Gandhi Nagar 3rd Cross, Karur Town, Gowripuram, Karur - 639001, Dist.Karur, Tamil Nadu",8047641180,
"Cotton Baby Sleeping Bags, Newly Born",https://www.indiamart.com/proddetail/baby-sleeping-bags-2854677936991.html?pos=103&kwd=baby sleeping bag&tags=BA||||8230.883|Price|product|||MDC|rsf:gd-|-stype:attr=1|qr_nm:gd|res:RC4|com-cf:nl|ptrs:na|ktp:N0|mc:72867|mtp:S|qry_typ:P|lang:en|wc:3|cs:8847|v=4,Grow More Enterprise,https://www.indiamart.com/growmoreenterprise-surat/?pos=103&kwd=baby sleeping bag&tags=BA||||8230.883|Price|product|||MDC|rsf:gd-|-stype:attr=1|qr_nm:gd|res:RC4|com-cf:nl|ptrs:na|ktp:N0|mc:72867|mtp:S|qry_typ:P|lang:en|wc:3|cs:8847|v=4,False,Punagam,Surat,"C 38, Matrushakti Society, Punagam, Punagam, Surat - 395010, Dist.Surat, Gujarat",7942722776,
Woolen MULTYCOLOUR Baby Blanket,https://www.indiamart.com/proddetail/printed-baby-blanket-2854786149830.html?pos=104&kwd=baby sleeping bag&tags=BB||||8747.203|Price|product|||TS|rsf:gd-|-stype:attr=1|qr_nm:gd|res:RC4|com-cf:nl|ptrs:na|ktp:N0|mc:72867|mtp:S|qry_typ:P|lang:en|wc:3|cs:8847|v=4,Shamu Fabs,https://www.indiamart.com/shamu-fabs/?pos=104&kwd=baby sleeping bag&tags=BB||||8747.203|Price|product|||TS|rsf:gd-|-stype:attr=1|qr_nm:gd|res:RC4|com-cf:nl|ptrs:na|ktp:N0|mc:72867|mtp:S|qry_typ:P|lang:en|wc:3|cs:8847|v=4,False,,Panipat,"Behind Old Subzi Mandi,,Sanoli Road, Panipat - 132103, Dist.Panipat, Haryana",7949328249,
"Fabric: Cotton Royal Blue Baby Sleeping Bags, 3-12 Months",https://www.indiamart.com/proddetail/royal-blue-baby-sleeping-bag-2853982297855.html?pos=105&kwd=baby sleeping bag&tags=BA||||8747.203|Price|product|||MDC|rsf:gd-|-stype:attr=1|qr_nm:gd|res:RC4|com-cf:nl|ptrs:na|ktp:N0|mc:72867|mtp:S|qry_typ:P|lang:en|wc:3|cs:8847|v=4,Sai Impex,https://www.indiamart.com/sai-impex-panipat/?pos=105&kwd=baby sleeping bag&tags=BA||||8747.203|Price|product|||MDC|rsf:gd-|-stype:attr=1|qr_nm:gd|res:RC4|com-cf:nl|ptrs:na|ktp:N0|mc:72867|mtp:S|qry_typ:P|lang:en|wc:3|cs:8847|v=4,False,,Panipat,"581/4, Circular Road, Near Amar, Bhawan Chowk,, Panipat - 132103, Dist.Panipat, Haryana",7949329674,
"Magic Train Multicolor Baby Sleeping Bag/ Zipper sleeping Bag/ New Born Baby Sleeping bag, Packaging Type: Big PVC Pouch",https://www.indiamart.com/proddetail/baby-sleeping-bag-zipper-sleeping-bag-new-born-baby-sleeping-bag-2851627957230.html?pos=106&kwd=baby sleeping bag&tags=BA||||8663.873|Price|product|||MDC|rsf:gd-|-stype:attr=1|qr_nm:gd|res:RC4|com-cf:nl|ptrs:na|ktp:N0|mc:72867|mtp:S|qry_typ:P|lang:en|wc:3|cs:8847|v=4,Activekidss Retail Private Limited,https://www.indiamart.com/activekidssretail/?pos=106&kwd=baby sleeping bag&tags=BA||||8663.873|Price|product|||MDC|rsf:gd-|-stype:attr=1|qr_nm:gd|res:RC4|com-cf:nl|ptrs:na|ktp:N0|mc:72867|mtp:S|qry_typ:P|lang:en|wc:3|cs:8847|v=4,False,Urban,Bengaluru,"58/1 Plot No - 3, NH-7 Hosur Main Road, Singasandra, Urban, Bengaluru - 560068, Dist.Bengaluru, Karnataka",8043874205,
Peach Cotton Sleeping Bag,https://www.indiamart.com/proddetail/cotton-sleeping-bag-2263176262.html?pos=107&kwd=baby sleeping bag&tags=BA||||8785.791|Price|product|||TS|rsf:gd-|-stype:attr=1|qr_nm:gd|res:RC4|com-cf:nl|ptrs:na|ktp:N0|mc:72867|mtp:S|qry_typ:P|lang:en|wc:3|cs:8847|v=4,Ilaki Intercraft (India),https://www.indiamart.com/ilakiintercraft/?pos=107&kwd=baby sleeping bag&tags=BA||||8785.791|Price|product|||TS|rsf:gd-|-stype:attr=1|qr_nm:gd|res:RC4|com-cf:nl|ptrs:na|ktp:N0|mc:72867|mtp:S|qry_typ:P|lang:en|wc:3|cs:8847|v=4,False,Tronica City,Ghaziabad,"D-69 Sector D-1 Tronica City, Tronica City, Ghaziabad - 201103, Dist.Ghaziabad, Uttar Pradesh",7942552124,
Glacier foam 30X30,,Universal Traders,https://www.indiamart.com/universaltraderspunjab/?pos=108&kwd=baby sleeping bag&tags=BA||||8661.854|Price|product|||MDC|rsf:gd-|-stype:attr=1|qr_nm:gd|res:RC4|com-cf:nl|ptrs:na|ktp:N0|mc:72867|mtp:S|qry_typ:P|lang:en|wc:3|cs:8847|v=4,False,Iqbal Ganj,Ludhiana,"B-X- 435, Telian Street, Near Iqbal Ganj Chowk, Iqbal Ganj, Ludhiana - 141008, Dist.Ludhiana, Punjab",8045731865,
"Foam Multicolor Baby Printed Bedding Set, For Home",https://www.indiamart.com/proddetail/baby-printed-bedding-set-2850806166933.html?pos=109&kwd=baby sleeping bag&tags=A||||8752.144|Price|proxy|||MDC|rsf:gd-|-stype:attr=1|qr_nm:gd|res:RC4|com-cf:nl|ptrs:na|ktp:N0|mc:72867|mtp:S|qry_typ:P|lang:en|wc:3|cs:8847|v=4,Mahi Hosiery,https://www.indiamart.com/mahi-hosierydelhi/?pos=109&kwd=baby sleeping bag&tags=A||||8752.144|Price|proxy|||MDC|rsf:gd-|-stype:attr=1|qr_nm:gd|res:RC4|com-cf:nl|ptrs:na|ktp:N0|mc:72867|mtp:S|qry_typ:P|lang:en|wc:3|cs:8847|v=4,False,Shastri Nagar,New Delhi,"144, Second Floor, Gali No-5, New Main Road, New Lahore Colony, Shastri Nagar, Shastri Nagar, New Delhi - 110031, Dist.Delhi, Delhi",8047699176,
"Cotton Pink Baby Sleeping Bag, Newly Born",https://www.indiamart.com/proddetail/baby-sleeping-bag-2854718948030.html?pos=110&kwd=baby sleeping bag&tags=A||||8228.275|Price|product|||NA|rsf:gd-|-stype:attr=1|qr_nm:gd|res:RC4|com-cf:nl|ptrs:na|ktp:N0|mc:72867|mtp:S|qry_typ:P|lang:en|wc:3|cs:8847|v=4,Shishu Apparels,https://www.indiamart.com/shishu-apparels/?pos=110&kwd=baby sleeping bag&tags=A||||8228.275|Price|product|||NA|rsf:gd-|-stype:attr=1|qr_nm:gd|res:RC4|com-cf:nl|ptrs:na|ktp:N0|mc:72867|mtp:S|qry_typ:P|lang:en|wc:3|cs:8847|v=4,False,,Ahmedabad,"62, Laxmi Vishnu Market, Gheekanta Road, Ghee Kanta, Ahmedabad - 380001, Dist.Ahmedabad, Gujarat",7949322683,
"Cream Cotton Sleeping Bag, Size: 7 Feet (l)",https://www.indiamart.com/proddetail/cotton-sleeping-bag-2850888216697.html?pos=111&kwd=baby sleeping bag&tags=BA||||8230.883|Price|product|||NA|rsf:gd-|-stype:attr=1|qr_nm:gd|res:RC4|com-cf:nl|ptrs:na|ktp:N0|mc:72867|mtp:S|qry_typ:P|lang:en|wc:3|cs:8847|v=4,J 2 Decor,https://www.indiamart.com/j2decor/?pos=111&kwd=baby sleeping bag&tags=BA||||8230.883|Price|product|||NA|rsf:gd-|-stype:attr=1|qr_nm:gd|res:RC4|com-cf:nl|ptrs:na|ktp:N0|mc:72867|mtp:S|qry_typ:P|lang:en|wc:3|cs:8847|v=4,False,Vesu,Surat,"101, First Floor, The Grand Plaza, VIP Road, Vesu, Surat - 395007, Dist.Surat, Gujarat",7942826669,
"Blue Cotton Baby sleeping bag, Newly Born",https://www.indiamart.com/proddetail/baby-sleeping-bag-2850227918548.html?pos=112&kwd=baby sleeping bag&tags=BA||||8706.263||product|||NA|rsf:gd-|-stype:attr=1|qr_nm:gd|res:RC4|com-cf:nl|ptrs:na|ktp:N0|mc:72867|mtp:S|qry_typ:P|lang:en|wc:3|cs:8847|v=4,Aarthia Impex,https://www.indiamart.com/aathia-impex/?pos=112&kwd=baby sleeping bag&tags=BA||||8706.263||product|||NA|rsf:gd-|-stype:attr=1|qr_nm:gd|res:RC4|com-cf:nl|ptrs:na|ktp:N0|mc:72867|mtp:S|qry_typ:P|lang:en|wc:3|cs:8847|v=4,False,Vivekananda Nagar,Karur,",6-A,,VIVEKANANDHA NAGAR,SENGUNTHAPURAM 11TH CROSS,, Vivekananda Nagar, Karur - 639002, Dist.Karur, Tamil Nadu",8069013454,970
"Blue Velvet Baby Sleeping Bag, 3-12 Months",https://www.indiamart.com/proddetail/baby-sleeping-bag-2851790979348.html?pos=113&kwd=baby sleeping bag&tags=BB||||8752.144|Price|product|||NA|rsf:gd-|-stype:attr=1|qr_nm:gd|res:RC4|com-cf:nl|ptrs:na|ktp:N0|mc:72867|mtp:S|qry_typ:P|lang:en|wc:3|cs:8847|v=4,Suraj Enterprises,https://www.indiamart.com/suraj-kids/?pos=113&kwd=baby sleeping bag&tags=BB||||8752.144|Price|product|||NA|rsf:gd-|-stype:attr=1|qr_nm:gd|res:RC4|com-cf:nl|ptrs:na|ktp:N0|mc:72867|mtp:S|qry_typ:P|lang:en|wc:3|cs:8847|v=4,False,karawal Nagar,New Delhi,"house no.203 street no.3,,A-block, shiv vihar karawal nagar,New Delhi house no.203 street no 3,110094,, karawal Nagar, New Delhi - 110094, Dist.Delhi, Delhi",8048263130,306
"Cotton Baby Sleeping Bag, Newly Born",https://www.indiamart.com/proddetail/baby-sleeping-bag-24824426412.html?pos=114&kwd=baby sleeping bag&tags=BA||||8228.275|Price|product|||NA|rsf:gd-|-stype:attr=1|qr_nm:gd|res:RC4|com-cf:nl|ptrs:na|ktp:N0|mc:72867|mtp:S|qry_typ:P|lang:en|wc:3|cs:8847|v=4,Shiv Shakti Products,https://www.indiamart.com/shiv-shakti-products-ahmedabad/?pos=114&kwd=baby sleeping bag&tags=BA||||8228.275|Price|product|||NA|rsf:gd-|-stype:attr=1|qr_nm:gd|res:RC4|com-cf:nl|ptrs:na|ktp:N0|mc:72867|mtp:S|qry_typ:P|lang:en|wc:3|cs:8847|v=4,False,Thakkarbapa Nagar,Ahmedabad,"1014, B Tkakarbapanagar, Nr Indrajit Tenament India Colony Mahavir Nagar, Thakkarbapa Nagar, Ahmedabad - 382350, Dist.Ahmedabad, Gujarat",8043882140,
"Peach Cotton Baby Sleeping Bag, Newly Born",https://www.indiamart.com/proddetail/cotton-baby-sleeping-bag-26018343848.html?pos=115&kwd=baby sleeping bag&tags=BA||||7991.571|Price|product|||NA|rsf:gd-|-stype:attr=1|qr_nm:gd|res:RC4|com-cf:nl|ptrs:na|ktp:N0|mc:72867|mtp:S|qry_typ:P|lang:en|wc:3|cs:8847|v=4,Natkhat Enterprise,https://www.indiamart.com/natkhatenterprise/?pos=115&kwd=baby sleeping bag&tags=BA||||7991.571|Price|product|||NA|rsf:gd-|-stype:attr=1|qr_nm:gd|res:RC4|com-cf:nl|ptrs:na|ktp:N0|mc:72867|mtp:S|qry_typ:P|lang:en|wc:3|cs:8847|v=4,False,Mangnath Road,Junagadh,"Tribhuvan Complex, First Floor Shop 1 -2, Mangnath Road, Junagadh - 362001, Dist.Junagadh, Gujarat",8043851522,
"White Cotton Baby Sleeping Bag, Newly Born",https://www.indiamart.com/proddetail/baby-sleeping-bag-22753437555.html?pos=116&kwd=baby sleeping bag&tags=BB||||8663.873|Price|product|||NA|rsf:gd-|-stype:attr=1|qr_nm:gd|res:RC4|com-cf:nl|ptrs:na|ktp:N0|mc:72867|mtp:S|qry_typ:P|lang:en|wc:3|cs:8847|v=4,Tiny Hugs,https://www.indiamart.com/tiny-hugs/?pos=116&kwd=baby sleeping bag&tags=BB||||8663.873|Price|product|||NA|rsf:gd-|-stype:attr=1|qr_nm:gd|res:RC4|com-cf:nl|ptrs:na|ktp:N0|mc:72867|mtp:S|qry_typ:P|lang:en|wc:3|cs:8847|v=4,False,Malleshwaram West,Bengaluru,"Shop No. 159, 9th Cross, Near Central Library, Sampige Road, Malleswaram, Malleshwaram West, Bengaluru - 560003, Dist.Bengaluru, Karnataka",8069023914,641
"Cotton Baby Sleeping Bag, 3-12 Months",https://www.indiamart.com/proddetail/cotton-baby-sleeping-bag-23964147997.html?pos=117&kwd=baby sleeping bag&tags=BB||||8211.142|Price|product|||NA|rsf:gd-|-stype:attr=1|qr_nm:gd|res:RC4|com-cf:nl|ptrs:na|ktp:N0|mc:72867|mtp:S|qry_typ:P|lang:en|wc:3|cs:8847|v=4,Zainab Traders,https://www.indiamart.com/zainabtraders-mumbai/?pos=117&kwd=baby sleeping bag&tags=BB||||8211.142|Price|product|||NA|rsf:gd-|-stype:attr=1|qr_nm:gd|res:RC4|com-cf:nl|ptrs:na|ktp:N0|mc:72867|mtp:S|qry_typ:P|lang:en|wc:3|cs:8847|v=4,False,Rey Rode,Mumbai,"Shop No 7, Along Loft, Ground, Raja Bhai Mansion 5/13, Tantanpura Street, Khadak, Mumbai City, Rey Rode, Mumbai - 400009, Dist.Mumbai, Maharashtra",8046072539,
Cotton Baby Sleeping Bag,,nn trading co.,https://www.indiamart.com/m-kumarbengaluru/?pos=118&kwd=baby sleeping bag&tags=BA||||8663.873|Price|product|||NA|rsf:gd-|-stype:attr=1|qr_nm:gd|res:RC4|com-cf:nl|ptrs:na|ktp:N0|mc:72867|mtp:S|qry_typ:P|lang:en|wc:3|cs:8847|v=4,False,Virupakshapura,Bengaluru,"no.475,1st floor, rajeev gandhi nagar, Virupakshapura, Bengaluru - 560092, Dist.Bengaluru, Karnataka",8062270227,193
Multycolor Female Baby Sleeping Bag,https://www.indiamart.com/proddetail/baby-sleeping-bag-18060756073.html?pos=119&kwd=baby sleeping bag&tags=BA||||8228.275|Price|product|||NA|rsf:gd-|-stype:attr=1|qr_nm:gd|res:RC4|com-cf:nl|ptrs:na|ktp:N0|mc:72867|mtp:S|qry_typ:P|lang:en|wc:3|cs:8847|v=4,Heena Enterprise,https://www.indiamart.com/heenaenterprisegujarat/?pos=119&kwd=baby sleeping bag&tags=BA||||8228.275|Price|product|||NA|rsf:gd-|-stype:attr=1|qr_nm:gd|res:RC4|com-cf:nl|ptrs:na|ktp:N0|mc:72867|mtp:S|qry_typ:P|lang:en|wc:3|cs:8847|v=4,False,Behrampura,Ahmedabad,"Kamkoriwala Compound, Opposite Pinko Textile, Behind Calico Mill, Behrampura, Behrampura, Ahmedabad - 380022, Dist.Ahmedabad, Gujarat",8048372582,944
Baby Sleeping Bag,https://www.indiamart.com/proddetail/baby-sleeping-bag-15911194933.html?pos=120&kwd=baby sleeping bag&tags=BB||||8661.854|Price|product|||NA|rsf:gd-|-stype:attr=1|qr_nm:gd|res:RC4|com-cf:nl|ptrs:na|ktp:N0|mc:72867|mtp:S|qry_typ:P|lang:en|wc:3|cs:8847|v=4,Gopal Darshan Textile,https://www.indiamart.com/gopal-darshan-textiles/?pos=120&kwd=baby sleeping bag&tags=BB||||8661.854|Price|product|||NA|rsf:gd-|-stype:attr=1|qr_nm:gd|res:RC4|com-cf:nl|ptrs:na|ktp:N0|mc:72867|mtp:S|qry_typ:P|lang:en|wc:3|cs:8847|v=4,False,,Ludhiana,"3929/3 Hargobind Pura 4, Ludhiana - 141008, Dist.Ludhiana, Punjab",8048956657,
"Baby Sleeping Bag, Newly Born",https://www.indiamart.com/proddetail/baby-sleeping-bag-22986966491.html?pos=121&kwd=baby sleeping bag&tags=BB||||8752.144|Price|product|||NA|rsf:gd-|-stype:attr=1|qr_nm:gd|res:RC4|com-cf:nl|ptrs:na|ktp:N0|mc:72867|mtp:S|qry_typ:P|lang:en|wc:3|cs:8847|v=4,Jain Trendz,https://www.indiamart.com/jaintrendznewdelhi/?pos=121&kwd=baby sleeping bag&tags=BB||||8752.144|Price|product|||NA|rsf:gd-|-stype:attr=1|qr_nm:gd|res:RC4|com-cf:nl|ptrs:na|ktp:N0|mc:72867|mtp:S|qry_typ:P|lang:en|wc:3|cs:8847|v=4,False,near Pacific Mall,New Delhi,"4/66 Sahibabad Industrial area Site 4 Ghaziabad, near Pacific Mall, New Delhi - 110029, Dist.Delhi, Delhi",8048609979,
"Blue Cotton Baby sleeping bag, 3-12 Months",https://www.indiamart.com/proddetail/baby-sleeping-bag-2850679564791.html?pos=122&kwd=baby sleeping bag&tags=BB||||8661.854|Price|product|||NA|rsf:gd-|-stype:attr=1|qr_nm:gd|res:RC4|com-cf:nl|ptrs:na|ktp:N0|mc:72867|mtp:S|qry_typ:P|lang:en|wc:3|cs:8847|v=4,Charu Enterprises,https://www.indiamart.com/charu-enterprises-punjab/?pos=122&kwd=baby sleeping bag&tags=BB||||8661.854|Price|product|||NA|rsf:gd-|-stype:attr=1|qr_nm:gd|res:RC4|com-cf:nl|ptrs:na|ktp:N0|mc:72867|mtp:S|qry_typ:P|lang:en|wc:3|cs:8847|v=4,False,,Ludhiana,"6729, Street No.4, Jassian Road, Naveen Nagar, Haibowal Kalan, Ludhiana - 141008, Dist.Ludhiana, Punjab",7942817239,
Cotton Baby Sleeping Bag,https://www.indiamart.com/proddetail/cotton-baby-sleeping-bag-2849766004262.html?pos=123&kwd=baby sleeping bag&tags=BA||||8601.347|Price|product|||NA|rsf:gd-|-stype:attr=1|qr_nm:gd|res:RC4|com-cf:nl|ptrs:na|ktp:N0|mc:72867|mtp:S|qry_typ:P|lang:en|wc:3|cs:8847|v=4,Bhagwati Enterprises,https://www.indiamart.com/bhagwati-enterprisesrajasthan/?pos=123&kwd=baby sleeping bag&tags=BA||||8601.347|Price|product|||NA|rsf:gd-|-stype:attr=1|qr_nm:gd|res:RC4|com-cf:nl|ptrs:na|ktp:N0|mc:72867|mtp:S|qry_typ:P|lang:en|wc:3|cs:8847|v=4,False,,Jaipur,"Ground Floor, ARG Murli Heights, Moti Doongri Road, Jaipur - 302004, Dist.Jaipur, Rajasthan",7942795447,
"Multicolor Cotton Baby Sleeping Bag, 3 Months",https://www.indiamart.com/proddetail/cotton-baby-sleeping-bag-22892241391.html?pos=124&kwd=baby sleeping bag&tags=BA||||8661.854|Price|product|||NA|rsf:gd-|-stype:attr=1|qr_nm:gd|res:RC4|com-cf:nl|ptrs:na|ktp:N0|mc:72867|mtp:S|qry_typ:P|lang:en|wc:3|cs:8847|v=4,Shri Parasnath. Inc,https://www.indiamart.com/shriparasnathinc/?pos=124&kwd=baby sleeping bag&tags=BA||||8661.854|Price|product|||NA|rsf:gd-|-stype:attr=1|qr_nm:gd|res:RC4|com-cf:nl|ptrs:na|ktp:N0|mc:72867|mtp:S|qry_typ:P|lang:en|wc:3|cs:8847|v=4,False,New Subhash Nagar,Ludhiana,"House No. 8093 New Shastri Nagar Basti Jodhewal, New Subhash Nagar, Ludhiana - 141007, Dist.Ludhiana, Punjab",8047802844,
"Purple And White Cotton Newborn Baby Sleeping Bag, Newly Born",https://www.indiamart.com/proddetail/newborn-baby-sleeping-bag-2851931988788.html?pos=125&kwd=baby sleeping bag&tags=BA||||9140.514|Price|product|||NA|rsf:gd-|-stype:attr=1|qr_nm:gd|res:RC4|com-cf:nl|ptrs:na|ktp:N0|mc:72867|mtp:S|qry_typ:P|lang:en|wc:3|cs:8847|v=4,Narayani Collection,https://www.indiamart.com/narayanicollection-raipur/?pos=125&kwd=baby sleeping bag&tags=BA||||9140.514|Price|product|||NA|rsf:gd-|-stype:attr=1|qr_nm:gd|res:RC4|com-cf:nl|ptrs:na|ktp:N0|mc:72867|mtp:S|qry_typ:P|lang:en|wc:3|cs:8847|v=4,False,Pandri,Raipur,"Jaihind Readymade Market, Mauja 25, Pandri, Pandri, Raipur - 492001, Chhattisgarh",7942868161,
"Multicolor Cotton Baby Sleeping Bag, Packaging Type: Plastic Bottle, Newly Born",https://www.indiamart.com/proddetail/baby-sleeping-bag-2850548539430.html?pos=126&kwd=baby sleeping bag&tags=BA||||8230.883|Price|product|||NA|rsf:gd-|-stype:attr=1|qr_nm:gd|res:RC4|com-cf:nl|ptrs:na|ktp:N0|mc:72867|mtp:S|qry_typ:P|lang:en|wc:3|cs:8847|v=4,Indosellers,https://www.indiamart.com/indosellers/?pos=126&kwd=baby sleeping bag&tags=BA||||8230.883|Price|product|||NA|rsf:gd-|-stype:attr=1|qr_nm:gd|res:RC4|com-cf:nl|ptrs:na|ktp:N0|mc:72867|mtp:S|qry_typ:P|lang:en|wc:3|cs:8847|v=4,False,Katargam,Surat,"A/158, Shiv Chhaya Soc, B/H Akhand Anand College, Ved Road, Katargam, Surat - 395004, Dist.Surat, Gujarat",7942817925,
"Cotton Baby Sleeping Blue Bag, 1-2 Years",https://www.indiamart.com/proddetail/baby-sleeping-blue-bag-21937440473.html?pos=127&kwd=baby sleeping bag&tags=BB||||8779.266|Price|product|||NA|rsf:gd-|-stype:attr=1|qr_nm:gd|res:RC4|com-cf:nl|ptrs:na|ktp:N0|mc:72867|mtp:S|qry_typ:P|lang:en|wc:3|cs:8847|v=4,Anita Fashions,https://www.indiamart.com/anitafashions/?pos=127&kwd=baby sleeping bag&tags=BB||||8779.266|Price|product|||NA|rsf:gd-|-stype:attr=1|qr_nm:gd|res:RC4|com-cf:nl|ptrs:na|ktp:N0|mc:72867|mtp:S|qry_typ:P|lang:en|wc:3|cs:8847|v=4,False,Lawi Khurd,Solan,"Shop No. 4, Anand Cinema Complex, Lawi Khurd, Solan - 173212, Dist.Solan, Himachal Pradesh",8048614729,
Woolen Orange Baby Sleeping Bag,https://www.indiamart.com/proddetail/baby-sleeping-bag-25192027191.html?pos=128&kwd=baby sleeping bag&tags=BB||||8752.144||product|||NA|rsf:gd-|-stype:attr=1|qr_nm:gd|res:RC4|com-cf:nl|ptrs:na|ktp:N0|mc:72867|mtp:S|qry_typ:P|lang:en|wc:3|cs:8847|v=4,Hakim Hosiery & Trading Company,https://www.indiamart.com/hakimhosiery-trading-company/?pos=128&kwd=baby sleeping bag&tags=BB||||8752.144||product|||NA|rsf:gd-|-stype:attr=1|qr_nm:gd|res:RC4|com-cf:nl|ptrs:na|ktp:N0|mc:72867|mtp:S|qry_typ:P|lang:en|wc:3|cs:8847|v=4,False,Daya Basti,New Delhi,"Plot No. 351, Phase-1, Shahzada Bagh, Inderlok, North Delhi, Daya Basti, New Delhi - 110035, Dist.Delhi, Delhi",8046065826,
"Pink Cotton Baby Sleeping Bag, 3-12 Months",https://www.indiamart.com/proddetail/baby-sleeping-bag-2853383335873.html?pos=129&kwd=baby sleeping bag&tags=BA||||8234.203|Price|product|||NA|rsf:gd-|-stype:attr=1|qr_nm:gd|res:RC4|com-cf:nl|ptrs:na|ktp:N0|mc:72867|mtp:S|qry_typ:P|lang:en|wc:3|cs:8847|v=4,Inspire Hype,https://www.indiamart.com/inspirehype/?pos=129&kwd=baby sleeping bag&tags=BA||||8234.203|Price|product|||NA|rsf:gd-|-stype:attr=1|qr_nm:gd|res:RC4|com-cf:nl|ptrs:na|ktp:N0|mc:72867|mtp:S|qry_typ:P|lang:en|wc:3|cs:8847|v=4,False,Denap,Visnagar,"4-B, C H Complex, Denap Tran Rasta Mahesana, Denap, Visnagar - 384315, Dist.Mehsana, Gujarat",7949224033,
Baby Sleeping Bag,https://www.indiamart.com/proddetail/baby-sleeping-bag-2851525763555.html?pos=130&kwd=baby sleeping bag&tags=BA||||8626.744|Price|product|||NA|rsf:gd-|-stype:attr=1|qr_nm:gd|res:RC4|com-cf:nl|ptrs:na|ktp:N0|mc:72867|mtp:S|qry_typ:P|lang:en|wc:3|cs:8847|v=4,Togs Exports,https://www.indiamart.com/togs-exports/?pos=130&kwd=baby sleeping bag&tags=BA||||8626.744|Price|product|||NA|rsf:gd-|-stype:attr=1|qr_nm:gd|res:RC4|com-cf:nl|ptrs:na|ktp:N0|mc:72867|mtp:S|qry_typ:P|lang:en|wc:3|cs:8847|v=4,False,PALLADAM ROAD,Tiruppur,"NO.2/313 B16, VADUGAN KADU, KUNGUMAM PALAYAM PIRIVU,, PALLADAM ROAD, Tiruppur - 641605, Dist.Coimbatore, Tamil Nadu",8048247120,9779
"Cotton Blue Baby Sleeping Bag, Newly Born",https://www.indiamart.com/proddetail/baby-sleeping-bag-2853351860812.html?pos=131&kwd=baby sleeping bag&tags=BA||||8210.732|Price|product|||NA|rsf:gd-|-stype:attr=1|qr_nm:gd|res:RC4|com-cf:nl|ptrs:na|ktp:N0|mc:72867|mtp:S|qry_typ:P|lang:en|wc:3|cs:8847|v=4,MRB Creation,https://www.indiamart.com/mrb-creation-maharashtra/?pos=131&kwd=baby sleeping bag&tags=BA||||8210.732|Price|product|||NA|rsf:gd-|-stype:attr=1|qr_nm:gd|res:RC4|com-cf:nl|ptrs:na|ktp:N0|mc:72867|mtp:S|qry_typ:P|lang:en|wc:3|cs:8847|v=4,False,Vasai East,Vasai Virar,"Ground Floor Shop A-001 Anand Nagar Laxmi Tower West, Vasai East, Vasai Virar - 401202, Dist.Thane, Maharashtra",7949222433,
Baby Sleeping Bag,https://www.indiamart.com/proddetail/baby-sleeping-bag-3936043248.html?pos=132&kwd=baby sleeping bag&tags=BB||||9839.57|Price|product|||NA|rsf:gd-|-stype:attr=1|qr_nm:gd|res:RC4|com-cf:nl|ptrs:na|ktp:N0|mc:72867|mtp:S|qry_typ:P|lang:en|wc:3|cs:8847|v=4,Ambika Traders,https://www.indiamart.com/bebworld/?pos=132&kwd=baby sleeping bag&tags=BB||||9839.57|Price|product|||NA|rsf:gd-|-stype:attr=1|qr_nm:gd|res:RC4|com-cf:nl|ptrs:na|ktp:N0|mc:72867|mtp:S|qry_typ:P|lang:en|wc:3|cs:8847|v=4,False,Munshi Sadruddin Lane,Kolkata,"No. 7, 3rd Floor, Munshi Sadruddin Lane, Kolkata - 700007, Dist.Kolkata, West Bengal",8048372775,590
Pink Velvet Baby Sleeping Bag,https://www.indiamart.com/proddetail/velvet-baby-sleeping-bag-20650127033.html?pos=133&kwd=baby sleeping bag&tags=BA||||8413.825|Price|product|||NA|rsf:gd-|-stype:attr=1|qr_nm:gd|res:RC4|com-cf:nl|ptrs:na|ktp:N0|mc:72867|mtp:S|qry_typ:P|lang:en|wc:3|cs:8847|v=4,JMK Industries,https://www.indiamart.com/jmkbabyitems/?pos=133&kwd=baby sleeping bag&tags=BA||||8413.825|Price|product|||NA|rsf:gd-|-stype:attr=1|qr_nm:gd|res:RC4|com-cf:nl|ptrs:na|ktp:N0|mc:72867|mtp:S|qry_typ:P|lang:en|wc:3|cs:8847|v=4,False,,Hubli,"No.1,,Beside RSS Keshav Kunj, Netaji Colony,HUBLI Beside RSS Keshav Kunj, Netaji Colony,580030,Hubli, Hubli - 580023, Dist.Dharwad, Karnataka",7942661552,
Baby Carry Sleeping Bag,,Alfiya Creation,https://www.indiamart.com/alfiya-creation/?pos=134&kwd=baby sleeping bag&tags=BB||||8223.226||product|||NA|rsf:gd-|-stype:attr=1|qr_nm:gd|res:RC4|com-cf:nl|ptrs:na|ktp:N0|mc:72867|mtp:S|qry_typ:P|lang:en|wc:3|cs:8847|v=4,False,,Thane,"Gr.floora315sai Baba Nagark K Krishnan Menon Margdharavi, Thane - 400017, Dist.Thane, Maharashtra",8048372869,170
Printed Kids Sleeping Bag,https://www.indiamart.com/proddetail/printed-kids-sleeping-bag-20331990288.html?pos=135&kwd=baby sleeping bag&tags=BB||||8661.854|Price|product|||NA|rsf:gd-|-stype:attr=1|qr_nm:gd|res:RC4|com-cf:nl|ptrs:na|ktp:N0|mc:72867|mtp:S|qry_typ:P|lang:en|wc:3|cs:8847|v=4,Tanmay Fabrics,https://www.indiamart.com/tanmay-fabric/?pos=135&kwd=baby sleeping bag&tags=BB||||8661.854|Price|product|||NA|rsf:gd-|-stype:attr=1|qr_nm:gd|res:RC4|com-cf:nl|ptrs:na|ktp:N0|mc:72867|mtp:S|qry_typ:P|lang:en|wc:3|cs:8847|v=4,False,Babarpur,Ludhiana,"H-NO-8093,TANMAY FABRICS, STREET-NO-1 NEW SHASTRI NAGAR,BASTI JODHEWAL Praveen Towers, New Karamsar Colony, Street No. 3, Subhash Nagar, Basti Jodhewal,141007,Ludhiana, Babarpur, Ludhiana - 141008, Dist.Ludhiana, Punjab",8069728301,292
Baby Cotton Sleeping Bag,https://www.indiamart.com/proddetail/baby-cotton-sleeping-bag-20442567973.html?pos=136&kwd=baby sleeping bag&tags=BB||||8786.56|Price|product|||NA|rsf:gd-|-stype:attr=1|qr_nm:gd|res:RC4|com-cf:nl|ptrs:na|ktp:N0|mc:72867|mtp:S|qry_typ:P|lang:en|wc:3|cs:8847|v=4,Sri Mahalakshmi Enterprises,https://www.indiamart.com/mahalaxmienterprisestelangana/?pos=136&kwd=baby sleeping bag&tags=BB||||8786.56|Price|product|||NA|rsf:gd-|-stype:attr=1|qr_nm:gd|res:RC4|com-cf:nl|ptrs:na|ktp:N0|mc:72867|mtp:S|qry_typ:P|lang:en|wc:3|cs:8847|v=4,False,Uppal,Hyderabad,"203,H-81,ADARSH NAGAR,UPPAL Uppal,,Hyderabad, Uppal, Hyderabad - 500039, Dist.Hyderabad, Telangana",8048372541,531
"Velvet Baby Hooded Sleeping Bag, 0-3 Month",https://www.indiamart.com/proddetail/baby-hooded-sleeping-bag-22507794288.html?pos=137&kwd=baby sleeping bag&tags=BB||||8752.144|Price|product|||NA|rsf:gd-|-stype:attr=1|qr_nm:gd|res:RC4|com-cf:nl|ptrs:na|ktp:N0|mc:72867|mtp:S|qry_typ:P|lang:en|wc:3|cs:8847|v=4,Harsh Child Care,https://www.indiamart.com/harsh-child-care/?pos=137&kwd=baby sleeping bag&tags=BB||||8752.144|Price|product|||NA|rsf:gd-|-stype:attr=1|qr_nm:gd|res:RC4|com-cf:nl|ptrs:na|ktp:N0|mc:72867|mtp:S|qry_typ:P|lang:en|wc:3|cs:8847|v=4,False,,New Delhi,"H No-f-1/188, Sunder Nagri, North East, New Delhi - 110093, Dist.Delhi, Delhi",8048372673,616
"Baby Teddy Sleeping Bag, Upto 6 Month",https://www.indiamart.com/proddetail/baby-teddy-sleeping-bag-22715129730.html?pos=138&kwd=baby sleeping bag&tags=BA||||8752.144|Price|product|||NA|rsf:gd-|-stype:attr=1|qr_nm:gd|res:RC4|com-cf:nl|ptrs:na|ktp:N0|mc:72867|mtp:S|qry_typ:P|lang:en|wc:3|cs:8847|v=4,Sheetal Enterprises,https://www.indiamart.com/sheetalenterprisesdelhi/?pos=138&kwd=baby sleeping bag&tags=BA||||8752.144|Price|product|||NA|rsf:gd-|-stype:attr=1|qr_nm:gd|res:RC4|com-cf:nl|ptrs:na|ktp:N0|mc:72867|mtp:S|qry_typ:P|lang:en|wc:3|cs:8847|v=4,False,Mandoli,New Delhi,"D Block House Number 5 ,Gali No. 6 Diwaan Complex, Mandoli, New Delhi - 110093, Dist.Delhi, Delhi",8048372100,725
Printed Baby Carry Bed Cum Sleeping Bag,https://www.indiamart.com/proddetail/printed-baby-carry-bed-cum-sleeping-bag-23476692762.html?pos=139&kwd=baby sleeping bag&tags=BB||||8954.051|Price|product|||NA|rsf:gd-|-stype:attr=1|qr_nm:gd|res:RC4|com-cf:nl|ptrs:na|ktp:N0|mc:72867|mtp:S|qry_typ:P|lang:en|wc:3|cs:8847|v=4,Ray India Inc,https://www.indiamart.com/rayindia-inc/?pos=139&kwd=baby sleeping bag&tags=BB||||8954.051|Price|product|||NA|rsf:gd-|-stype:attr=1|qr_nm:gd|res:RC4|com-cf:nl|ptrs:na|ktp:N0|mc:72867|mtp:S|qry_typ:P|lang:en|wc:3|cs:8847|v=4,False,,Chennai,"37/88, CYS Road, Samiyar Madam, Mangalapuram, Perambur, Chennai - 600012, Dist.Chennai, Tamil Nadu",7942563640,
"Muslin Pink Newborn Baby Sleeping Bag, Newly Born",https://www.indiamart.com/proddetail/pink-newborn-baby-sleeping-bag-2852941845430.html?pos=140&kwd=baby sleeping bag&tags=BA||||8752.144||product|||NA|rsf:gd-|-stype:attr=1|qr_nm:gd|res:RC4|com-cf:nl|ptrs:na|ktp:N0|mc:72867|mtp:S|qry_typ:P|lang:en|wc:3|cs:8847|v=4,R.P Enterprises,https://www.indiamart.com/rpenterprisesnew-delhi/?pos=140&kwd=baby sleeping bag&tags=BA||||8752.144||product|||NA|rsf:gd-|-stype:attr=1|qr_nm:gd|res:RC4|com-cf:nl|ptrs:na|ktp:N0|mc:72867|mtp:S|qry_typ:P|lang:en|wc:3|cs:8847|v=4,False,Shahdara,New Delhi,"G/f X/6310 Gandhi Nagar, Jain Mandir Gali, Old No 542, Shahdara, Shahdara, New Delhi - 110031, Dist.Delhi, Delhi",7942968022,
"Pink (base) Lycra Printed Baby Sleeping Bag, Newly Born",https://www.indiamart.com/proddetail/printed-baby-sleeping-bag-2852118864062.html?pos=141&kwd=baby sleeping bag&tags=BA||||8559.269|Price|product|||NA|rsf:gd-|-stype:attr=1|qr_nm:gd|res:RC4|com-cf:nl|ptrs:na|ktp:N0|mc:72867|mtp:S|qry_typ:P|lang:en|wc:3|cs:8847|v=4,Navkar Traders,https://www.indiamart.com/navkar-tradersindore/?pos=141&kwd=baby sleeping bag&tags=BA||||8559.269|Price|product|||NA|rsf:gd-|-stype:attr=1|qr_nm:gd|res:RC4|com-cf:nl|ptrs:na|ktp:N0|mc:72867|mtp:S|qry_typ:P|lang:en|wc:3|cs:8847|v=4,False,Sukhlia,Indore,"304, Shyam Bhatika Ke Pass, Shyam Nagar,, Sukhlia, Indore - 452010, Dist.Indore, Madhya Pradesh",7942962327,
Cotton And Foam White Red Baby Sleeping Bag,https://www.indiamart.com/proddetail/white-red-baby-sleeping-bag-25111312512.html?pos=142&kwd=baby sleeping bag&tags=BB||||8038.093|Price|product|||NA|rsf:gd-|-stype:attr=1|qr_nm:gd|res:RC4|com-cf:nl|ptrs:na|ktp:N0|mc:72867|mtp:S|qry_typ:P|lang:en|wc:3|cs:8847|v=4,Fabric Master,https://www.indiamart.com/fabric-master-rajkot/?pos=142&kwd=baby sleeping bag&tags=BB||||8038.093|Price|product|||NA|rsf:gd-|-stype:attr=1|qr_nm:gd|res:RC4|com-cf:nl|ptrs:na|ktp:N0|mc:72867|mtp:S|qry_typ:P|lang:en|wc:3|cs:8847|v=4,False,,Rajkot,"Ankur Nana Mava Road, 117 Radha Nagar, Rajkot - 360004, Dist.Rajkot, Gujarat",8047301139,
"Blue and White Cotton Baby Sleeping Bag, 12 Month",https://www.indiamart.com/proddetail/cotton-baby-sleeping-bag-26022601397.html?pos=143&kwd=baby sleeping bag&tags=BA||||8230.883|Price|product|||NA|rsf:gd-|-stype:attr=1|qr_nm:gd|res:RC4|com-cf:nl|ptrs:na|ktp:N0|mc:72867|mtp:S|qry_typ:P|lang:en|wc:3|cs:8847|v=4,LADLI FASHION,https://www.indiamart.com/ladli-fashion-gujarat/?pos=143&kwd=baby sleeping bag&tags=BA||||8230.883|Price|product|||NA|rsf:gd-|-stype:attr=1|qr_nm:gd|res:RC4|com-cf:nl|ptrs:na|ktp:N0|mc:72867|mtp:S|qry_typ:P|lang:en|wc:3|cs:8847|v=4,False,,Surat,"4, Ground Floor, Sona Appartment, Magan Nagar-2, Dhanmora Road, Katargam, Surat - 395004, Dist.Surat, Gujarat",8048210850,
"Cotton Baby Sleeping Bags, 3-12 Months",https://www.indiamart.com/proddetail/baby-sleeping-bags-23128858962.html?pos=144&kwd=baby sleeping bag&tags=BB||||8228.275|Price|product|||NA|rsf:gd-|-stype:attr=1|qr_nm:gd|res:RC4|com-cf:nl|ptrs:na|ktp:N0|mc:72867|mtp:S|qry_typ:P|lang:en|wc:3|cs:8847|v=4,Sanjay Traders,https://www.indiamart.com/sanjaytradersahmedabad/?pos=144&kwd=baby sleeping bag&tags=BB||||8228.275|Price|product|||NA|rsf:gd-|-stype:attr=1|qr_nm:gd|res:RC4|com-cf:nl|ptrs:na|ktp:N0|mc:72867|mtp:S|qry_typ:P|lang:en|wc:3|cs:8847|v=4,False,,Ahmedabad,"1,PARAS NAGAR PART-II, NR JETHABHAI NI VAVA,ISANPUR Opp. Jyoti Vidhyalay Parasnagar 2,382445,Ahmedabad, Ahmedabad - 382443, Dist.Ahmedabad, Gujarat",8046045819,
"Cotton Baby Chain Sleeping Bag, 3-12 Months",https://www.indiamart.com/proddetail/baby-chain-sleeping-bag-24203978997.html?pos=145&kwd=baby sleeping bag&tags=BB||||8876.815|Price|product|||NA|rsf:gd-|-stype:attr=1|qr_nm:gd|res:RC4|com-cf:nl|ptrs:na|ktp:N0|mc:72867|mtp:S|qry_typ:P|lang:en|wc:3|cs:8847|v=4,Shikha Infant Wear,https://www.indiamart.com/shikha-infant-wear/?pos=145&kwd=baby sleeping bag&tags=BB||||8876.815|Price|product|||NA|rsf:gd-|-stype:attr=1|qr_nm:gd|res:RC4|com-cf:nl|ptrs:na|ktp:N0|mc:72867|mtp:S|qry_typ:P|lang:en|wc:3|cs:8847|v=4,False,,Nagpur,"Shop No. A1, Jeevan Kanaiya Complex, Pavarpura, Nagpur - 440002, Dist.Nagpur, Maharashtra",8045907248,
"Happy days Mix col Cotton Baby Sleeping Bag, 3-12 Months",https://www.indiamart.com/proddetail/cotton-baby-sleeping-bag-27424322030.html?pos=146&kwd=baby sleeping bag&tags=BB||||8752.144|Price|product|||NA|rsf:gd-|-stype:attr=1|qr_nm:gd|res:RC4|com-cf:nl|ptrs:na|ktp:N0|mc:72867|mtp:S|qry_typ:P|lang:en|wc:3|cs:8847|v=4,Anu Creations,https://www.indiamart.com/anucreations-delhi/?pos=146&kwd=baby sleeping bag&tags=BB||||8752.144|Price|product|||NA|rsf:gd-|-stype:attr=1|qr_nm:gd|res:RC4|com-cf:nl|ptrs:na|ktp:N0|mc:72867|mtp:S|qry_typ:P|lang:en|wc:3|cs:8847|v=4,False,Karol Bagh,New Delhi,"4312, 2nd Floor, Gali Bahuji, Bahadur Garh Road, Sadar Bazar, Central Delhi, Karol Bagh, New Delhi - 110006, Dist.Delhi, Delhi",8047657412,
"Cotton Violet Baby Sleeping Bags, Newly Born",https://www.indiamart.com/proddetail/baby-sleeping-bags-2853995366812.html?pos=147&kwd=baby sleeping bag&tags=BA||||8723.301|Price|product|||NA|rsf:gd-|-stype:attr=1|qr_nm:gd|res:RC4|com-cf:nl|ptrs:na|ktp:N0|mc:72867|mtp:S|qry_typ:P|lang:en|wc:3|cs:8847|v=4,Lotus Marketing,https://www.indiamart.com/lotusmarketing-bhopal/?pos=147&kwd=baby sleeping bag&tags=BA||||8723.301|Price|product|||NA|rsf:gd-|-stype:attr=1|qr_nm:gd|res:RC4|com-cf:nl|ptrs:na|ktp:N0|mc:72867|mtp:S|qry_typ:P|lang:en|wc:3|cs:8847|v=4,False,Vardhman Green City,Bhopal,"Near Durga Chowk M No-274, Narela Shankery, Vardhman Green City, Bhopal - 462041, Dist.Bhopal, Madhya Pradesh",8044015628,
"Red Velvet Newborn Baby Sleeping Bag, Newly Born",https://www.indiamart.com/proddetail/newborn-baby-sleeping-bag-2849394406855.html?pos=148&kwd=baby sleeping bag&tags=BB||||9839.57|Price|product|||NA|rsf:gd-|-stype:attr=1|qr_nm:gd|res:RC4|com-cf:nl|ptrs:na|ktp:N0|mc:72867|mtp:S|qry_typ:P|lang:en|wc:3|cs:8847|v=4,BAGANI DRESSES,https://www.indiamart.com/baganidresses/?pos=148&kwd=baby sleeping bag&tags=BB||||9839.57|Price|product|||NA|rsf:gd-|-stype:attr=1|qr_nm:gd|res:RC4|com-cf:nl|ptrs:na|ktp:N0|mc:72867|mtp:S|qry_typ:P|lang:en|wc:3|cs:8847|v=4,False,,Kolkata,"Y-325, Panchpara Lane, Burtala South Twenty Four Parganas, Kolkata - 700018, Dist.Kolkata, West Bengal",7942786184,
"Cotton Green Baby Sleeping Bag, Newly Born",https://www.indiamart.com/proddetail/green-baby-sleeping-bag-26148945433.html?pos=149&kwd=baby sleeping bag&tags=BA||||8211.142|Price|product|||NA|rsf:gd-|-stype:attr=1|qr_nm:gd|res:RC4|com-cf:nl|ptrs:na|ktp:N0|mc:72867|mtp:S|qry_typ:P|lang:en|wc:3|cs:8847|v=4,Baby World,https://www.indiamart.com/babyworlds/?pos=149&kwd=baby sleeping bag&tags=BA||||8211.142|Price|product|||NA|rsf:gd-|-stype:attr=1|qr_nm:gd|res:RC4|com-cf:nl|ptrs:na|ktp:N0|mc:72867|mtp:S|qry_typ:P|lang:en|wc:3|cs:8847|v=4,False,,Mumbai,"Groung Floor, Shop No 4-A, 37, Hawa Mansion, Shaikh Memon Street, Pinjara Street, Mandvi, Mumbai - 400003, Dist.Mumbai, Maharashtra",8048981354,
"Blue And White Cotton Baby Sleeping Bag Combo, 6 Months",https://www.indiamart.com/proddetail/baby-sleeping-bag-combo-24742376597.html?pos=150&kwd=baby sleeping bag&tags=BA||||8211.142|Price|product|||NA|rsf:gd-|-stype:attr=1|qr_nm:gd|res:RC4|com-cf:nl|ptrs:na|ktp:N0|mc:72867|mtp:S|qry_typ:P|lang:en|wc:3|cs:8847|v=4,Baby World,https://www.indiamart.com/babyworld/?pos=150&kwd=baby sleeping bag&tags=BA||||8211.142|Price|product|||NA|rsf:gd-|-stype:attr=1|qr_nm:gd|res:RC4|com-cf:nl|ptrs:na|ktp:N0|mc:72867|mtp:S|qry_typ:P|lang:en|wc:3|cs:8847|v=4,False,Masjid Bandar,Mumbai,"12, Gorund Floor, Fatimabai Building, Dharamashala Street, Umerkhadi, Chinchbunder, Masjid Bandar, Mumbai - 400009, Dist.Mumbai, Maharashtra",7942539685,
"Velvet Red Baby Sleeping Bag, Newly Born",https://www.indiamart.com/proddetail/red-baby-sleeping-bag-22390172248.html?pos=151&kwd=baby sleeping bag&tags=BB||||8601.347|Price|product|||NA|rsf:gd-|-stype:attr=1|qr_nm:gd|res:RC4|com-cf:nl|ptrs:na|ktp:N0|mc:72867|mtp:S|qry_typ:P|lang:en|wc:3|cs:8847|v=4,Lakshay Kid'S Collection,https://www.indiamart.com/lakshaykids-collection/?pos=151&kwd=baby sleeping bag&tags=BB||||8601.347|Price|product|||NA|rsf:gd-|-stype:attr=1|qr_nm:gd|res:RC4|com-cf:nl|ptrs:na|ktp:N0|mc:72867|mtp:S|qry_typ:P|lang:en|wc:3|cs:8847|v=4,False,,Jaipur,"3/882, Malviya Nagar, Jaipur - 302017, Dist.Jaipur, Rajasthan",8048614670,
"Pink Cotton Baby Sleeping Bag, Newly Born",https://www.indiamart.com/proddetail/cotton-baby-sleeping-bag-2852940035733.html?pos=152&kwd=baby sleeping bag&tags=BB||||9839.57|Price|product|||NA|rsf:gd-|-stype:attr=1|qr_nm:gd|res:RC4|com-cf:nl|ptrs:na|ktp:N0|mc:72867|mtp:S|qry_typ:P|lang:en|wc:3|cs:8847|v=4,Rimjhim Creations,https://www.indiamart.com/rimjhim-creations-kolkata/?pos=152&kwd=baby sleeping bag&tags=BB||||9839.57|Price|product|||NA|rsf:gd-|-stype:attr=1|qr_nm:gd|res:RC4|com-cf:nl|ptrs:na|ktp:N0|mc:72867|mtp:S|qry_typ:P|lang:en|wc:3|cs:8847|v=4,False,,Kolkata,"7,,Munsi Sadruddin Lane,Kolkata 7, Munsi Sadruddin Lane,700007,, Kolkata - 700007, Dist.Kolkata, West Bengal",8048372926,944
"Cotton Printed Baby Sleeping Bag, Newly Born",https://www.indiamart.com/proddetail/printed-baby-sleeping-bag-22610342630.html?pos=153&kwd=baby sleeping bag&tags=BB||||8211.142|Price|product|||NA|rsf:gd-|-stype:attr=1|qr_nm:gd|res:RC4|com-cf:nl|ptrs:na|ktp:N0|mc:72867|mtp:S|qry_typ:P|lang:en|wc:3|cs:8847|v=4,Richa Traders,https://www.indiamart.com/richatraders-maharashtra/?pos=153&kwd=baby sleeping bag&tags=BB||||8211.142|Price|product|||NA|rsf:gd-|-stype:attr=1|qr_nm:gd|res:RC4|com-cf:nl|ptrs:na|ktp:N0|mc:72867|mtp:S|qry_typ:P|lang:en|wc:3|cs:8847|v=4,False,Dadar West,Mumbai,"20, Pearl Centre, Zarapkar Building Senapati Bapat Marg,, Dadar West, Mumbai - 400028, Dist.Mumbai, Maharashtra",8048961097,
"Brown(Base) Velvet Printed Baby Sleeping Bag, 2 Months",https://www.indiamart.com/proddetail/printed-baby-sleeping-bag-2852260599630.html?pos=154&kwd=baby sleeping bag&tags=BB||||8641.487|Price|product|||NA|rsf:gd-|-stype:attr=1|qr_nm:gd|res:RC4|com-cf:nl|ptrs:na|ktp:N0|mc:72867|mtp:S|qry_typ:P|lang:en|wc:3|cs:8847|v=4,Soni Enterprises,https://www.indiamart.com/soni-enterprisesjalandhar/?pos=154&kwd=baby sleeping bag&tags=BB||||8641.487|Price|product|||NA|rsf:gd-|-stype:attr=1|qr_nm:gd|res:RC4|com-cf:nl|ptrs:na|ktp:N0|mc:72867|mtp:S|qry_typ:P|lang:en|wc:3|cs:8847|v=4,False,Nurpur,Jalandhar,"New Hargobind Nagar Near Dhogri Road, Near Shiv Mandir, Nurpur, Jalandhar - 144012, Dist.Jalandhar, Punjab",7942868471,
"Multicolor Cotton Newborn Baby Sleeping Bags, Newly Born",https://www.indiamart.com/proddetail/newborn-baby-sleeping-bags-2853730019055.html?pos=155&kwd=baby sleeping bag&tags=BA||||8230.883|Price|product|||NA|rsf:gd-|-stype:attr=1|qr_nm:gd|res:RC4|com-cf:nl|ptrs:na|ktp:N0|mc:72867|mtp:S|qry_typ:P|lang:en|wc:3|cs:8847|v=4,Satani Enterprise,https://www.indiamart.com/satani-enterprise-surat/?pos=155&kwd=baby sleeping bag&tags=BA||||8230.883|Price|product|||NA|rsf:gd-|-stype:attr=1|qr_nm:gd|res:RC4|com-cf:nl|ptrs:na|ktp:N0|mc:72867|mtp:S|qry_typ:P|lang:en|wc:3|cs:8847|v=4,False,Katargam,Surat,"Ground Floor, G-4, Indra Puri Apartment, Bhaichand Nagar Society, Near Parash Police Chowky, Katargam, Katargam, Surat - 395004, Dist.Surat, Gujarat",7942711793,
Lavansh Fur Baby Hooded Sleeping Bag for Home Purpose,https://www.indiamart.com/proddetail/fur-baby-hooded-sleeping-bag-20898686748.html?pos=156&kwd=baby sleeping bag&tags=BB||||8661.854||product|||NA|rsf:gd-|-stype:attr=1|qr_nm:gd|res:RC4|com-cf:nl|ptrs:na|ktp:N0|mc:72867|mtp:S|qry_typ:P|lang:en|wc:3|cs:8847|v=4,Lavansh Handloom,https://www.indiamart.com/lavansh-handloom-ludhiana/?pos=156&kwd=baby sleeping bag&tags=BB||||8661.854||product|||NA|rsf:gd-|-stype:attr=1|qr_nm:gd|res:RC4|com-cf:nl|ptrs:na|ktp:N0|mc:72867|mtp:S|qry_typ:P|lang:en|wc:3|cs:8847|v=4,False,Chauri Sadak,Ludhiana,"B-V, 356, Tilak Nagar, Chauri Sadak, Ludhiana - 141008, Dist.Ludhiana, Punjab",8048361261,159
"Cotton Light Pink Baby Sleeping Bag, 5 Months",https://www.indiamart.com/proddetail/light-pink-baby-sleeping-bag-23303420888.html?pos=157&kwd=baby sleeping bag&tags=BB||||8559.269|Price|product|||NA|rsf:gd-|-stype:attr=1|qr_nm:gd|res:RC4|com-cf:nl|ptrs:na|ktp:N0|mc:72867|mtp:S|qry_typ:P|lang:en|wc:3|cs:8847|v=4,Hari Har Creations,https://www.indiamart.com/harihar-creations/?pos=157&kwd=baby sleeping bag&tags=BB||||8559.269|Price|product|||NA|rsf:gd-|-stype:attr=1|qr_nm:gd|res:RC4|com-cf:nl|ptrs:na|ktp:N0|mc:72867|mtp:S|qry_typ:P|lang:en|wc:3|cs:8847|v=4,False,,Indore,"16 Nanda Nagar 7, Indore - 452011, Dist.Indore, Madhya Pradesh",8048607461,
"Pink,Cream And Blue Cotton 500 GSM Baby Sleeping Bag, Newly Born",https://www.indiamart.com/proddetail/500-gsm-baby-sleeping-bag-2850422489788.html?pos=158&kwd=baby sleeping bag&tags=BB||||8211.142|Price|product|||NA|rsf:gd-|-stype:attr=1|qr_nm:gd|res:RC4|com-cf:nl|ptrs:na|ktp:N0|mc:72867|mtp:S|qry_typ:P|lang:en|wc:3|cs:8847|v=4,Mahavir Baby,https://www.indiamart.com/mahavirbaby/?pos=158&kwd=baby sleeping bag&tags=BB||||8211.142|Price|product|||NA|rsf:gd-|-stype:attr=1|qr_nm:gd|res:RC4|com-cf:nl|ptrs:na|ktp:N0|mc:72867|mtp:S|qry_typ:P|lang:en|wc:3|cs:8847|v=4,False,,Mumbai,"Room No. 8, Prabha Sadan, 198 2 Datta Mandir X Road, Malad East Suburban, Mumbai - 400097, Dist.Mumbai, Maharashtra",7942821207,
"Plain Rectangular Pink Polyester Baby Sleeping Bag, 0.49 Kg, Newly Born",https://www.indiamart.com/proddetail/pink-polyester-baby-sleeping-bag-2853492310888.html?pos=159&kwd=baby sleeping bag&tags=BA||||8747.203|Price|product|||NA|rsf:gd-|-stype:attr=1|qr_nm:gd|res:RC4|com-cf:nl|ptrs:na|ktp:N0|mc:72867|mtp:S|qry_typ:P|lang:en|wc:3|cs:8847|v=4,Dakshita Trading Co.,https://www.indiamart.com/dakshita-tradingco/?pos=159&kwd=baby sleeping bag&tags=BA||||8747.203|Price|product|||NA|rsf:gd-|-stype:attr=1|qr_nm:gd|res:RC4|com-cf:nl|ptrs:na|ktp:N0|mc:72867|mtp:S|qry_typ:P|lang:en|wc:3|cs:8847|v=4,False,Chawla Colony,Panipat,"Dalbir Nagar, Ward No. 6, Chawla Colony, Panipat - 132103, Dist.Panipat, Haryana",7949091045,
"Blue Cotton Baby Sleeping Bag, Newly Born",https://www.indiamart.com/proddetail/blue-cotton-baby-sleeping-bag-2851741200033.html?pos=160&kwd=baby sleeping bag&tags=BB||||8228.275|Price|product|||NA|rsf:gd-|-stype:attr=1|qr_nm:gd|res:RC4|com-cf:nl|ptrs:na|ktp:N0|mc:72867|mtp:S|qry_typ:P|lang:en|wc:3|cs:8847|v=4,M Marketing,https://www.indiamart.com/mmarketing/?pos=160&kwd=baby sleeping bag&tags=BB||||8228.275|Price|product|||NA|rsf:gd-|-stype:attr=1|qr_nm:gd|res:RC4|com-cf:nl|ptrs:na|ktp:N0|mc:72867|mtp:S|qry_typ:P|lang:en|wc:3|cs:8847|v=4,False,,Ahmedabad,"TF/301, Karnavati Archade, Near Gheekanta, Ahmedabad - 380001, Dist.Ahmedabad, Gujarat",7942868797,
"Blue and White Cotton Baby Bed Cum Sleeping Bag, Newly Born",https://www.indiamart.com/proddetail/baby-bed-cum-sleeping-bag-25914798748.html?pos=161&kwd=baby sleeping bag&tags=BB||||8752.144|Price|product|||NA|rsf:gd-|-stype:attr=1|qr_nm:gd|res:RC4|com-cf:nl|ptrs:na|ktp:N0|mc:72867|mtp:S|qry_typ:P|lang:en|wc:3|cs:8847|v=4,Topgifties,https://www.indiamart.com/topgifties/?pos=161&kwd=baby sleeping bag&tags=BB||||8752.144|Price|product|||NA|rsf:gd-|-stype:attr=1|qr_nm:gd|res:RC4|com-cf:nl|ptrs:na|ktp:N0|mc:72867|mtp:S|qry_typ:P|lang:en|wc:3|cs:8847|v=4,False,,New Delhi,"4/1752, Mahavir Block, Shahdara, New Delhi - 110032, Dist.Delhi, Delhi",8047676503,
"Polyester White 3 In 1 Baby Sleeping Bag/ Baby Carrier, 0-15months",https://www.indiamart.com/proddetail/3-in-1-baby-sleeping-bag-baby-carrier-2853099506612.html?pos=162&kwd=baby sleeping bag&tags=BA||||8211.142|Price|product|||NA|rsf:gd-|-stype:attr=1|qr_nm:gd|res:RC4|com-cf:nl|ptrs:na|ktp:N0|mc:72867|mtp:S|qry_typ:P|lang:en|wc:3|cs:8847|v=4,Baby'S Sleeping Solutions,https://www.indiamart.com/babys-sleeping-solutions-mumbai/?pos=162&kwd=baby sleeping bag&tags=BA||||8211.142|Price|product|||NA|rsf:gd-|-stype:attr=1|qr_nm:gd|res:RC4|com-cf:nl|ptrs:na|ktp:N0|mc:72867|mtp:S|qry_typ:P|lang:en|wc:3|cs:8847|v=4,False,,Mumbai,"401, Rajan Niwas, Edulji Road, Charai, Thane West, Mumbai - 400080, Dist.Mumbai, Maharashtra",8069707364,304
"Cotton Homecute Baby Sleeping Red Carry Bag, Newly Born",https://www.indiamart.com/proddetail/homecute-baby-sleeping-red-carry-bag-22217489648.html?pos=163&kwd=baby sleeping bag&tags=BB||||9847.294|Price|product|||NA|rsf:gd-|-stype:attr=1|qr_nm:gd|res:RC4|com-cf:nl|ptrs:na|ktp:N0|mc:72867|mtp:S|qry_typ:P|lang:en|wc:3|cs:8847|v=4,Soumya Enterprise,https://www.indiamart.com/soumya-enter/?pos=163&kwd=baby sleeping bag&tags=BB||||9847.294|Price|product|||NA|rsf:gd-|-stype:attr=1|qr_nm:gd|res:RC4|com-cf:nl|ptrs:na|ktp:N0|mc:72867|mtp:S|qry_typ:P|lang:en|wc:3|cs:8847|v=4,False,Madanpur,Kalyani,"1 No Anandanagar 1 No Anandanagar Anandanagar 1 No Anandanagar, Madanpur, Kalyani - 741245, Dist.Nadia, West Bengal",7942536820,
"Cotton mix White Babies Sleeping Bag, Newly Born",https://www.indiamart.com/proddetail/babies-sleeping-bag-22071765088.html?pos=164&kwd=baby sleeping bag&tags=BA||||8626.744||product|||NA|rsf:gd-|-stype:attr=1|qr_nm:gd|res:RC4|com-cf:nl|ptrs:na|ktp:N0|mc:72867|mtp:S|qry_typ:P|lang:en|wc:3|cs:8847|v=4,Immanuel Garments,https://www.indiamart.com/immanuelgarments/?pos=164&kwd=baby sleeping bag&tags=BA||||8626.744||product|||NA|rsf:gd-|-stype:attr=1|qr_nm:gd|res:RC4|com-cf:nl|ptrs:na|ktp:N0|mc:72867|mtp:S|qry_typ:P|lang:en|wc:3|cs:8847|v=4,False,15 Velampalayam,Tiruppur,"289/10, Arumaikarar Thottam, 15 Velampalayam, Tiruppur - 641654, Dist.Coimbatore, Tamil Nadu",8047799385,
"Red Polar Lining Little Cubs Baby Wrapper Cum Baby Sleeping Bag, Newly Born",https://www.indiamart.com/proddetail/little-cubs-baby-wrapper-cum-baby-sleeping-bag-23708874097.html?pos=165&kwd=baby sleeping bag&tags=BA||||8752.144|Price|product|||NA|rsf:gd-|-stype:attr=1|qr_nm:gd|res:RC4|com-cf:nl|ptrs:na|ktp:N0|mc:72867|mtp:S|qry_typ:P|lang:en|wc:3|cs:8847|v=4,Navkaar Traders,https://www.indiamart.com/navkaartraders/?pos=165&kwd=baby sleeping bag&tags=BA||||8752.144|Price|product|||NA|rsf:gd-|-stype:attr=1|qr_nm:gd|res:RC4|com-cf:nl|ptrs:na|ktp:N0|mc:72867|mtp:S|qry_typ:P|lang:en|wc:3|cs:8847|v=4,False,Mahendru Enclave,New Delhi,"C-37, 1st Floor, Gali No. 3, Mahendru Enclave, Mahendru Enclave, New Delhi - 110033, Dist.Delhi, Delhi",7942532296,
"Baby Nest Bag, Newly Born",https://www.indiamart.com/proddetail/baby-nest-bag-2851919530691.html?pos=166&kwd=baby sleeping bag&tags=BA||||9829.308|Price|product|||NA|rsf:gd-|-stype:attr=1|qr_nm:gd|res:RC4|com-cf:nl|ptrs:na|ktp:N0|mc:72867|mtp:S|qry_typ:P|lang:en|wc:3|cs:8847|v=4,Sanvi Enterprise,https://www.indiamart.com/pakhus-krafts/?pos=166&kwd=baby sleeping bag&tags=BA||||9829.308|Price|product|||NA|rsf:gd-|-stype:attr=1|qr_nm:gd|res:RC4|com-cf:nl|ptrs:na|ktp:N0|mc:72867|mtp:S|qry_typ:P|lang:en|wc:3|cs:8847|v=4,False,Shibpur,Howrah,"BLOCK 8,Vivek Vihar Phase 5,493 C/A GT ROAD,Howrah 493 C/A GT Road, Vivek Vihar, Phase 5, Block 8, Flat 4D,711102,, Shibpur, Howrah - 711102, Dist.Howrah, West Bengal",8048372282,526
"Pink Cotton BABY SLIPPING BAG, 1-2 Years",https://www.indiamart.com/proddetail/baby-slipping-bag-23835944130.html?pos=167&kwd=baby sleeping bag&tags=BB||||8230.883|Price|product|||NA|rsf:gd-|-stype:attr=1|qr_nm:gd|res:RC4|com-cf:nl|ptrs:na|ktp:N0|mc:72867|mtp:S|qry_typ:P|lang:en|wc:3|cs:8847|v=4,Deal Zone,https://www.indiamart.com/deal-zone/?pos=167&kwd=baby sleeping bag&tags=BB||||8230.883|Price|product|||NA|rsf:gd-|-stype:attr=1|qr_nm:gd|res:RC4|com-cf:nl|ptrs:na|ktp:N0|mc:72867|mtp:S|qry_typ:P|lang:en|wc:3|cs:8847|v=4,False,,Surat,"1201, Saakar Building, Rang Raag Residency, Near Ashram, Jahangirpura, Rander, Surat - 395005, Dist.Surat, Gujarat",8046070286,
Baby Slipping Bag,https://www.indiamart.com/proddetail/baby-slipping-bag-2854891161988.html?pos=168&kwd=baby sleeping bag&tags=BB||||8230.883|Price|product|||NA|rsf:gd-|-stype:attr=1|qr_nm:gd|res:RC4|com-cf:nl|ptrs:na|ktp:N0|mc:72867|mtp:S|qry_typ:P|lang:en|wc:3|cs:8847|v=4,Ucrow Textile,https://www.indiamart.com/ucrow-textile/?pos=168&kwd=baby sleeping bag&tags=BB||||8230.883|Price|product|||NA|rsf:gd-|-stype:attr=1|qr_nm:gd|res:RC4|com-cf:nl|ptrs:na|ktp:N0|mc:72867|mtp:S|qry_typ:P|lang:en|wc:3|cs:8847|v=4,False,,Surat,"Ground Floor, Plot No.4305/3, 4 No Road, Sachin Gidc, Surat - 394230, Dist.Surat, Gujarat",8048249738,7535
"Pink Cotton BABY SLIPPING BAG, 1-2 Years",https://www.indiamart.com/proddetail/baby-slipping-bag-23835944130.html?pos=169&kwd=baby sleeping bag&tags=BB||||8230.883|Price|product|||NA|rsf:gd-|-stype:attr=1|qr_nm:gd|res:RC4|com-cf:nl|ptrs:na|ktp:N0|mc:72867|mtp:S|qry_typ:P|lang:en|wc:3|cs:8847|v=4,Deal Zone,https://www.indiamart.com/deal-zone/?pos=169&kwd=baby sleeping bag&tags=BB||||8230.883|Price|product|||NA|rsf:gd-|-stype:attr=1|qr_nm:gd|res:RC4|com-cf:nl|ptrs:na|ktp:N0|mc:72867|mtp:S|qry_typ:P|lang:en|wc:3|cs:8847|v=4,False,,Surat,"1201, Saakar Building, Rang Raag Residency, Near Ashram, Jahangirpura, Rander, Surat - 395005, Dist.Surat, Gujarat",8046070286,
Baby Slipping Bag,https://www.indiamart.com/proddetail/baby-slipping-bag-2854891161988.html?pos=170&kwd=baby sleeping bag&tags=BB||||8230.883|Price|product|||NA|rsf:gd-|-stype:attr=1|qr_nm:gd|res:RC4|com-cf:nl|ptrs:na|ktp:N0|mc:72867|mtp:S|qry_typ:P|lang:en|wc:3|cs:8847|v=4,Ucrow Textile,https://www.indiamart.com/ucrow-textile/?pos=170&kwd=baby sleeping bag&tags=BB||||8230.883|Price|product|||NA|rsf:gd-|-stype:attr=1|qr_nm:gd|res:RC4|com-cf:nl|ptrs:na|ktp:N0|mc:72867|mtp:S|qry_typ:P|lang:en|wc:3|cs:8847|v=4,False,,Surat,"Ground Floor, Plot No.4305/3, 4 No Road, Sachin Gidc, Surat - 394230, Dist.Surat, Gujarat",8048249738,7535
Green (Base) Born Babies Printed Cotton Baby Sleeping Bag,https://www.indiamart.com/proddetail/born-babies-printed-cotton-baby-sleeping-bag-2850109418412.html?pos=171&kwd=baby sleeping bag&tags=BB||||8584.299|Price|product|||NA|rsf:gd-|-stype:attr=1|qr_nm:gd|res:RC4|com-cf:nl|ptrs:na|ktp:N0|mc:72867|mtp:S|qry_typ:P|lang:en|wc:3|cs:8847|v=4,Born Babies India Private Limited,https://www.indiamart.com/bornbabies-coimbatore/?pos=171&kwd=baby sleeping bag&tags=BB||||8584.299|Price|product|||NA|rsf:gd-|-stype:attr=1|qr_nm:gd|res:RC4|com-cf:nl|ptrs:na|ktp:N0|mc:72867|mtp:S|qry_typ:P|lang:en|wc:3|cs:8847|v=4,False,Ram Nagar,Coimbatore,"NO-69/2, Thiruvenkatasamy Road, R S Puram, Ram Nagar, Coimbatore - 641002, Dist.Coimbatore, Tamil Nadu",7942788170,
"Multicolor Cotton Newborn Baby Sleeping Bags, 3-12 Months",https://www.indiamart.com/proddetail/newborn-baby-sleeping-bags-2853318903133.html?pos=172&kwd=baby sleeping bag&tags=BA||||8663.873|Price|product|||NA|rsf:gd-|-stype:attr=1|qr_nm:gd|res:RC4|com-cf:nl|ptrs:na|ktp:N0|mc:72867|mtp:S|qry_typ:P|lang:en|wc:3|cs:8847|v=4,Namdev Trade Links,https://www.indiamart.com/namdevtradelinks/?pos=172&kwd=baby sleeping bag&tags=BA||||8663.873|Price|product|||NA|rsf:gd-|-stype:attr=1|qr_nm:gd|res:RC4|com-cf:nl|ptrs:na|ktp:N0|mc:72867|mtp:S|qry_typ:P|lang:en|wc:3|cs:8847|v=4,False,,Bengaluru,"No 330 Nti Layout, 1st Phase, Rajivgandhinagar, Sahakarnagar, Bengaluru - 560092, Dist.Bengaluru, Karnataka",7942833608,
"Cotton Pink Kids Sleeping Bag, 1-2 Years",https://www.indiamart.com/proddetail/pink-kids-sleeping-bag-23577662033.html?pos=173&kwd=baby sleeping bag&tags=BB||||8752.144|Price|product|||NA|rsf:gd-|-stype:attr=1|qr_nm:gd|res:RC4|com-cf:nl|ptrs:na|ktp:N0|mc:72867|mtp:S|qry_typ:P|lang:en|wc:3|cs:8847|v=4,Srmaji Industries,https://www.indiamart.com/srmaji-store-delhi/?pos=173&kwd=baby sleeping bag&tags=BB||||8752.144|Price|product|||NA|rsf:gd-|-stype:attr=1|qr_nm:gd|res:RC4|com-cf:nl|ptrs:na|ktp:N0|mc:72867|mtp:S|qry_typ:P|lang:en|wc:3|cs:8847|v=4,False,,New Delhi,"Kh.No-78/198, 1, Street No-1, Bakoli, New Delhi - 110036, Dist.Delhi, Delhi",8069023917,103
"Polyester Baby Sleeping Bags, Newly Born",https://www.indiamart.com/proddetail/baby-sleeping-bags-2854708540297.html?pos=174&kwd=baby sleeping bag&tags=BB||||8706.263|Price|product|||NA|rsf:gd-|-stype:attr=1|qr_nm:gd|res:RC4|com-cf:nl|ptrs:na|ktp:N0|mc:72867|mtp:S|qry_typ:P|lang:en|wc:3|cs:8847|v=4,Rahini Infotech,https://www.indiamart.com/rahini-infotech/?pos=174&kwd=baby sleeping bag&tags=BB||||8706.263|Price|product|||NA|rsf:gd-|-stype:attr=1|qr_nm:gd|res:RC4|com-cf:nl|ptrs:na|ktp:N0|mc:72867|mtp:S|qry_typ:P|lang:en|wc:3|cs:8847|v=4,False,,Karur,"No.89a Anbu Nagar, Rayanur West, Thanthoni, Karur - 639003, Dist.Karur, Tamil Nadu",8048249780,6909
Grey Relxaer Blanket Cum Sleeping Bag,https://www.indiamart.com/proddetail/relxaer-blanket-cum-sleeping-bag-27549737655.html?pos=175&kwd=baby sleeping bag&tags=BB||||8461.862|Price|product|||NA|rsf:gd-|-stype:attr=1|qr_nm:gd|res:RC4|com-cf:nl|ptrs:na|ktp:N0|mc:72867|mtp:S|qry_typ:P|lang:en|wc:3|cs:8847|v=4,Bharun Apparels & Co.,https://www.indiamart.com/bharun-apparels-co/?pos=175&kwd=baby sleeping bag&tags=BB||||8461.862|Price|product|||NA|rsf:gd-|-stype:attr=1|qr_nm:gd|res:RC4|com-cf:nl|ptrs:na|ktp:N0|mc:72867|mtp:S|qry_typ:P|lang:en|wc:3|cs:8847|v=4,False,,Bhilwara,"Shop No 4, A-725, Amrit Tower, Near Kumbha Circle,, Bhilwara - 311001, Dist.Bhilwara, Rajasthan",8047838978,
3d Printed Baby 2 In 1 Sleeping Bag/Carry Bag,,Gadget Grid,https://www.indiamart.com/gadget-grid/?pos=176&kwd=baby sleeping bag&tags=BB||||8230.883||product|||NA|rsf:gd-|-stype:attr=1|qr_nm:gd|res:RC4|com-cf:nl|ptrs:na|ktp:N0|mc:72867|mtp:S|qry_typ:P|lang:en|wc:3|cs:8847|v=4,False,,Surat,", Surat - 395006, Dist.Surat, Gujarat",8048249779,8907
Baby Sleeping Bag,,Rajeshwari Showroom,https://www.indiamart.com/rajeswari-showroom/?pos=177&kwd=baby sleeping bag&tags=BB||||8130.3813||product|||NA|rsf:gd-|-stype:attr=1|qr_nm:gd|res:RC4|com-cf:nl|ptrs:na|ktp:N0|mc:72867|mtp:S|qry_typ:P|lang:en|wc:3|cs:8847|v=4,False,Jawahar Road,Surendranagar,"VASHRAJ COMPLEX,SHOP NO 4 JAWAHAR CHOWK,,SURENDRANAGAR Jawahar Road,363001,Surendranagar, Jawahar Road, Surendranagar - 363004, Dist.Surendra Nagar, Gujarat",8069017459,985
"Cotton Red & Green Newborn Baby Sleeping Bags, 3-12 Months",https://www.indiamart.com/proddetail/newborn-baby-sleeping-bags-2855009764555.html?pos=178&kwd=baby sleeping bag&tags=BB||||8230.883|Price|product|||NA|rsf:gd-|-stype:attr=1|qr_nm:gd|res:RC4|com-cf:nl|ptrs:na|ktp:N0|mc:72867|mtp:S|qry_typ:P|lang:en|wc:3|cs:8847|v=4,Rivaan Enterprise,https://www.indiamart.com/company/202154207/?pos=178&kwd=baby sleeping bag&tags=BB||||8230.883|Price|product|||NA|rsf:gd-|-stype:attr=1|qr_nm:gd|res:RC4|com-cf:nl|ptrs:na|ktp:N0|mc:72867|mtp:S|qry_typ:P|lang:en|wc:3|cs:8847|v=4,False,Amroli,Surat,"First Floor, 109, 99 Shoping Center, Amroli Sayan Road, Amroli, Surat - 394107, Dist.Surat, Gujarat",8048247104,9716
"Blue Cotton AdibaBaby Carrier Bed With Sleeping Bag, Newly Born",https://www.indiamart.com/proddetail/adibababy-carrier-bed-with-sleeping-bag-25504511691.html?pos=179&kwd=baby sleeping bag&tags=BB||||8487.995|Price|product|||NA|rsf:gd-|-stype:attr=1|qr_nm:gd|res:RC4|com-cf:nl|ptrs:na|ktp:N0|mc:72867|mtp:S|qry_typ:P|lang:en|wc:3|cs:8847|v=4,S M Hosiery & Garments,https://www.indiamart.com/sm-hosiery-bijapur/?pos=179&kwd=baby sleeping bag&tags=BB||||8487.995|Price|product|||NA|rsf:gd-|-stype:attr=1|qr_nm:gd|res:RC4|com-cf:nl|ptrs:na|ktp:N0|mc:72867|mtp:S|qry_typ:P|lang:en|wc:3|cs:8847|v=4,False,Shahu Nagar,Bijapur,"Minaxi Chowk, Sonar Bowadi Road, Vijayapur, Shahu Nagar, Bijapur - 586101, Karnataka",8069033739,843
"M Cotton Baby Sleeping Beg / Helmet, Newly Born",https://www.indiamart.com/proddetail/m-cotton-baby-sleeping-beg-helmet-2852569566397.html?pos=180&kwd=baby sleeping bag&tags=BA||||8230.883|Price|product|||NA|rsf:gd-|-stype:attr=1|qr_nm:gd|res:RC4|com-cf:nl|ptrs:na|ktp:N0|mc:72867|mtp:S|qry_typ:P|lang:en|wc:3|cs:8847|v=4,Kiran Handicraft,https://www.indiamart.com/kiran-handicraft-surat/?pos=180&kwd=baby sleeping bag&tags=BA||||8230.883|Price|product|||NA|rsf:gd-|-stype:attr=1|qr_nm:gd|res:RC4|com-cf:nl|ptrs:na|ktp:N0|mc:72867|mtp:S|qry_typ:P|lang:en|wc:3|cs:8847|v=4,False,Sanjay Nagar,Surat,"Plot No.-44, 45, Ground Floor And 1st Floor, Siddhi Vinayak Industrial Estate, Laskana, Sanjay Nagar, Surat - 395006, Dist.Surat, Gujarat",8047308089,
"White And Red Cotton New Born Baby Sleeping Bags, 1 Year",https://www.indiamart.com/proddetail/new-born-baby-sleeping-bags-2850513046873.html?pos=181&kwd=baby sleeping bag&tags=BA||||8752.144|Price|product|||NA|rsf:gd-|-stype:attr=1|qr_nm:gd|res:RC4|com-cf:nl|ptrs:na|ktp:N0|mc:72867|mtp:S|qry_typ:P|lang:en|wc:3|cs:8847|v=4,Anvika Enterprises,https://www.indiamart.com/anvikaenterprises-delhi/?pos=181&kwd=baby sleeping bag&tags=BA||||8752.144|Price|product|||NA|rsf:gd-|-stype:attr=1|qr_nm:gd|res:RC4|com-cf:nl|ptrs:na|ktp:N0|mc:72867|mtp:S|qry_typ:P|lang:en|wc:3|cs:8847|v=4,False,,New Delhi,"House Number-212 Gali Number-2 Phase-4,Shiv Vihar,Karawal Nagar North East House Number-212, Gali Number-2, Phase-4, Shiv Vihar, New Delhi - 110094, Dist.Delhi, Delhi",7942824195,
"Baby Sleeping Bag & Carry Nest, Cotton Baby Bedding for New Born & Infant- 0 to 18 Months",https://www.indiamart.com/proddetail/baby-sleeping-bag-carry-nest-cotton-baby-bedding-for-new-born-infant-0-to-18-months-2854185699388.html?pos=182&kwd=baby sleeping bag&tags=BB||||8663.873|Price|product|||NA|rsf:gd-|-stype:attr=1|qr_nm:gd|res:RC4|com-cf:nl|ptrs:na|ktp:N0|mc:72867|mtp:S|qry_typ:P|lang:en|wc:3|cs:8847|v=4,Chadu,https://www.indiamart.com/chadu/?pos=182&kwd=baby sleeping bag&tags=BB||||8663.873|Price|product|||NA|rsf:gd-|-stype:attr=1|qr_nm:gd|res:RC4|com-cf:nl|ptrs:na|ktp:N0|mc:72867|mtp:S|qry_typ:P|lang:en|wc:3|cs:8847|v=4,False,,Bengaluru,", Bengaluru - 560032, Dist.Bengaluru, Karnataka",8048370717,5972
"Cotton Baby Nest Bed With 3 Pillow ( Sky And Blue)., 3-12 Months",https://www.indiamart.com/proddetail/baby-nest-bed-with-3-pillow-sky-and-blue-2853102958673.html?pos=183&kwd=baby sleeping bag&tags=BA||||8032.138|Price|product|||NA|rsf:gd-|-stype:attr=1|qr_nm:gd|res:RC4|com-cf:nl|ptrs:na|ktp:N0|mc:72867|mtp:S|qry_typ:P|lang:en|wc:3|cs:8847|v=4,Pankhulit Enterprise,https://www.indiamart.com/pankhulit-enterprise/?pos=183&kwd=baby sleeping bag&tags=BA||||8032.138|Price|product|||NA|rsf:gd-|-stype:attr=1|qr_nm:gd|res:RC4|com-cf:nl|ptrs:na|ktp:N0|mc:72867|mtp:S|qry_typ:P|lang:en|wc:3|cs:8847|v=4,False,,Gondal,"Ground Floor Shop No 3 Railway Station Road Rameshwar Residency, Gondal - 360311, Dist.Rajkot, Gujarat",8069707353,965
Cotton Merrie baby carry nest- pink and pink,https://www.indiamart.com/proddetail/merrie-baby-carry-nest-pink-and-pink-2850366535597.html?pos=193&kwd=baby sleeping bag&tags=BA||||8211.142|Price|product|||NA|rsf:gd-|-stype:attr=1|qr_nm:gd|res:RC4|com-cf:nl|ptrs:na|ktp:N0|mc:72867|mtp:S|qry_typ:P|lang:en|wc:3|cs:8847|v=4,Dee Bee & Co.,https://www.indiamart.com/me-nmoms/?pos=193&kwd=baby sleeping bag&tags=BA||||8211.142|Price|product|||NA|rsf:gd-|-stype:attr=1|qr_nm:gd|res:RC4|com-cf:nl|ptrs:na|ktp:N0|mc:72867|mtp:S|qry_typ:P|lang:en|wc:3|cs:8847|v=4,False,,Mumbai,"A-202, 2nd floor, Aaradhya Nalanda, R B Mehta Marg, Mumbai, Mumbai Suburban, Mumbai - 400077, Dist.Mumbai, Maharashtra",7942792773,
Pink Velvet Baby Sleeping Bag,https://www.indiamart.com/proddetail/velvet-baby-sleeping-bag-20650127033.html?pos=185&kwd=baby sleeping bag&tags=BA||||8413.825|Price|product|||NA|rsf:gd-|-stype:attr=1|qr_nm:gd|res:RC4|com-cf:nl|ptrs:na|ktp:N0|mc:72867|mtp:S|qry_typ:P|lang:en|wc:3|cs:8847|v=4,JMK Industries,https://www.indiamart.com/jmkbabyitems/?pos=185&kwd=baby sleeping bag&tags=BA||||8413.825|Price|product|||NA|rsf:gd-|-stype:attr=1|qr_nm:gd|res:RC4|com-cf:nl|ptrs:na|ktp:N0|mc:72867|mtp:S|qry_typ:P|lang:en|wc:3|cs:8847|v=4,False,,Hubli,"No.1,,Beside RSS Keshav Kunj, Netaji Colony,HUBLI Beside RSS Keshav Kunj, Netaji Colony,580030,Hubli, Hubli - 580023, Dist.Dharwad, Karnataka",7942661552,
"Blue And White Cotton Baby Sleeping Bag Combo, 6 Months",https://www.indiamart.com/proddetail/baby-sleeping-bag-combo-24742376597.html?pos=186&kwd=baby sleeping bag&tags=BA||||8211.142|Price|product|||NA|rsf:gd-|-stype:attr=1|qr_nm:gd|res:RC4|com-cf:nl|ptrs:na|ktp:N0|mc:72867|mtp:S|qry_typ:P|lang:en|wc:3|cs:8847|v=4,Baby World,https://www.indiamart.com/babyworld/?pos=186&kwd=baby sleeping bag&tags=BA||||8211.142|Price|product|||NA|rsf:gd-|-stype:attr=1|qr_nm:gd|res:RC4|com-cf:nl|ptrs:na|ktp:N0|mc:72867|mtp:S|qry_typ:P|lang:en|wc:3|cs:8847|v=4,False,Masjid Bandar,Mumbai,"12, Gorund Floor, Fatimabai Building, Dharamashala Street, Umerkhadi, Chinchbunder, Masjid Bandar, Mumbai - 400009, Dist.Mumbai, Maharashtra",7942539685,
Printed Baby Carry Bed Cum Sleeping Bag,https://www.indiamart.com/proddetail/printed-baby-carry-bed-cum-sleeping-bag-23476692762.html?pos=187&kwd=baby sleeping bag&tags=BB||||8954.051|Price|product|||NA|rsf:gd-|-stype:attr=1|qr_nm:gd|res:RC4|com-cf:nl|ptrs:na|ktp:N0|mc:72867|mtp:S|qry_typ:P|lang:en|wc:3|cs:8847|v=4,Ray India Inc,https://www.indiamart.com/rayindia-inc/?pos=187&kwd=baby sleeping bag&tags=BB||||8954.051|Price|product|||NA|rsf:gd-|-stype:attr=1|qr_nm:gd|res:RC4|com-cf:nl|ptrs:na|ktp:N0|mc:72867|mtp:S|qry_typ:P|lang:en|wc:3|cs:8847|v=4,False,,Chennai,"37/88, CYS Road, Samiyar Madam, Mangalapuram, Perambur, Chennai - 600012, Dist.Chennai, Tamil Nadu",7942563640,
"Red Polar Lining Little Cubs Baby Wrapper Cum Baby Sleeping Bag, Newly Born",https://www.indiamart.com/proddetail/little-cubs-baby-wrapper-cum-baby-sleeping-bag-23708874097.html?pos=188&kwd=baby sleeping bag&tags=BA||||8752.144|Price|product|||NA|rsf:gd-|-stype:attr=1|qr_nm:gd|res:RC4|com-cf:nl|ptrs:na|ktp:N0|mc:72867|mtp:S|qry_typ:P|lang:en|wc:3|cs:8847|v=4,Navkaar Traders,https://www.indiamart.com/navkaartraders/?pos=188&kwd=baby sleeping bag&tags=BA||||8752.144|Price|product|||NA|rsf:gd-|-stype:attr=1|qr_nm:gd|res:RC4|com-cf:nl|ptrs:na|ktp:N0|mc:72867|mtp:S|qry_typ:P|lang:en|wc:3|cs:8847|v=4,False,Mahendru Enclave,New Delhi,"C-37, 1st Floor, Gali No. 3, Mahendru Enclave, Mahendru Enclave, New Delhi - 110033, Dist.Delhi, Delhi",7942532296,
"Polyester White 3 In 1 Baby Sleeping Bag/ Baby Carrier, 0-15months",https://www.indiamart.com/proddetail/3-in-1-baby-sleeping-bag-baby-carrier-2853099506612.html?pos=189&kwd=baby sleeping bag&tags=BA||||8211.142|Price|product|||NA|rsf:gd-|-stype:attr=1|qr_nm:gd|res:RC4|com-cf:nl|ptrs:na|ktp:N0|mc:72867|mtp:S|qry_typ:P|lang:en|wc:3|cs:8847|v=4,Baby'S Sleeping Solutions,https://www.indiamart.com/babys-sleeping-solutions-mumbai/?pos=189&kwd=baby sleeping bag&tags=BA||||8211.142|Price|product|||NA|rsf:gd-|-stype:attr=1|qr_nm:gd|res:RC4|com-cf:nl|ptrs:na|ktp:N0|mc:72867|mtp:S|qry_typ:P|lang:en|wc:3|cs:8847|v=4,False,,Mumbai,"401, Rajan Niwas, Edulji Road, Charai, Thane West, Mumbai - 400080, Dist.Mumbai, Maharashtra",8069707364,304
"Multicolor Cotton Newborn Baby Sleeping Bags, Newly Born",https://www.indiamart.com/proddetail/newborn-baby-sleeping-bags-2853730019055.html?pos=190&kwd=baby sleeping bag&tags=BA||||8230.883|Price|product|||NA|rsf:gd-|-stype:attr=1|qr_nm:gd|res:RC4|com-cf:nl|ptrs:na|ktp:N0|mc:72867|mtp:S|qry_typ:P|lang:en|wc:3|cs:8847|v=4,Satani Enterprise,https://www.indiamart.com/satani-enterprise-surat/?pos=190&kwd=baby sleeping bag&tags=BA||||8230.883|Price|product|||NA|rsf:gd-|-stype:attr=1|qr_nm:gd|res:RC4|com-cf:nl|ptrs:na|ktp:N0|mc:72867|mtp:S|qry_typ:P|lang:en|wc:3|cs:8847|v=4,False,Katargam,Surat,"Ground Floor, G-4, Indra Puri Apartment, Bhaichand Nagar Society, Near Parash Police Chowky, Katargam, Katargam, Surat - 395004, Dist.Surat, Gujarat",7942711793,
"Multicolor Cotton Newborn Baby Sleeping Bags, 3-12 Months",https://www.indiamart.com/proddetail/newborn-baby-sleeping-bags-2853318903133.html?pos=191&kwd=baby sleeping bag&tags=BA||||8663.873|Price|product|||NA|rsf:gd-|-stype:attr=1|qr_nm:gd|res:RC4|com-cf:nl|ptrs:na|ktp:N0|mc:72867|mtp:S|qry_typ:P|lang:en|wc:3|cs:8847|v=4,Namdev Trade Links,https://www.indiamart.com/namdevtradelinks/?pos=191&kwd=baby sleeping bag&tags=BA||||8663.873|Price|product|||NA|rsf:gd-|-stype:attr=1|qr_nm:gd|res:RC4|com-cf:nl|ptrs:na|ktp:N0|mc:72867|mtp:S|qry_typ:P|lang:en|wc:3|cs:8847|v=4,False,,Bengaluru,"No 330 Nti Layout, 1st Phase, Rajivgandhinagar, Sahakarnagar, Bengaluru - 560092, Dist.Bengaluru, Karnataka",7942833608,
"Cotton New Born Baby Sleeping Bag, Packaging Type: Pack",https://www.indiamart.com/proddetail/new-born-baby-sleeping-bag-2850178181697.html?pos=192&kwd=baby sleeping bag&tags=BA||||8331.224|Price|product|||NA|rsf:gd-|-stype:attr=1|qr_nm:gd|res:RC4|com-cf:nl|ptrs:na|ktp:N0|mc:72867|mtp:S|qry_typ:P|lang:en|wc:3|cs:8847|v=4,Minakshi Garments,https://www.indiamart.com/minakshi-garments-kolhapur/?pos=192&kwd=baby sleeping bag&tags=BA||||8331.224|Price|product|||NA|rsf:gd-|-stype:attr=1|qr_nm:gd|res:RC4|com-cf:nl|ptrs:na|ktp:N0|mc:72867|mtp:S|qry_typ:P|lang:en|wc:3|cs:8847|v=4,False,Tarabai Park,Kolhapur,"Gala No 14 B Parvati Plaza, Main Market Road Swastik Market, Gandhinagar, Tarabai Park, Kolhapur - 416119, Dist.Kolhapur, Maharashtra",7942670858,
Cotton Merrie baby carry nest- pink and pink,https://www.indiamart.com/proddetail/merrie-baby-carry-nest-pink-and-pink-2850366535597.html?pos=193&kwd=baby sleeping bag&tags=BA||||8211.142|Price|product|||NA|rsf:gd-|-stype:attr=1|qr_nm:gd|res:RC4|com-cf:nl|ptrs:na|ktp:N0|mc:72867|mtp:S|qry_typ:P|lang:en|wc:3|cs:8847|v=4,Dee Bee & Co.,https://www.indiamart.com/me-nmoms/?pos=193&kwd=baby sleeping bag&tags=BA||||8211.142|Price|product|||NA|rsf:gd-|-stype:attr=1|qr_nm:gd|res:RC4|com-cf:nl|ptrs:na|ktp:N0|mc:72867|mtp:S|qry_typ:P|lang:en|wc:3|cs:8847|v=4,False,,Mumbai,"A-202, 2nd floor, Aaradhya Nalanda, R B Mehta Marg, Mumbai, Mumbai Suburban, Mumbai - 400077, Dist.Mumbai, Maharashtra",7942792773,
Red & yello & blue printed Cotton Baby Sleeping Bag,https://www.indiamart.com/proddetail/cotton-baby-sleeping-bag-26517959048.html?pos=194&kwd=baby sleeping bag&tags=BB||||8752.144|Price|product|||NA|rsf:gd-|-stype:attr=1|qr_nm:gd|res:RC4|com-cf:nl|ptrs:na|ktp:N0|mc:72867|mtp:S|qry_typ:P|lang:en|wc:3|cs:8847|v=4,Chandani Garments,https://www.indiamart.com/chandanigarments/?pos=194&kwd=baby sleeping bag&tags=BB||||8752.144|Price|product|||NA|rsf:gd-|-stype:attr=1|qr_nm:gd|res:RC4|com-cf:nl|ptrs:na|ktp:N0|mc:72867|mtp:S|qry_typ:P|lang:en|wc:3|cs:8847|v=4,False,,New Delhi,"X-3664, Gali-4, Shanti Mohalla Gandhi Nagar, East Delhi, New Delhi - 110031, Dist.Delhi, Delhi",8047674508,
"Purple And White Cotton Newborn Baby Sleeping Bag, Newly Born",https://www.indiamart.com/proddetail/newborn-baby-sleeping-bag-2851931988788.html?pos=195&kwd=baby sleeping bag&tags=BA||||9140.514|Price|product|||NA|rsf:gd-|-stype:attr=1|qr_nm:gd|res:RC4|com-cf:nl|ptrs:na|ktp:N0|mc:72867|mtp:S|qry_typ:P|lang:en|wc:3|cs:8847|v=4,Narayani Collection,https://www.indiamart.com/narayanicollection-raipur/?pos=195&kwd=baby sleeping bag&tags=BA||||9140.514|Price|product|||NA|rsf:gd-|-stype:attr=1|qr_nm:gd|res:RC4|com-cf:nl|ptrs:na|ktp:N0|mc:72867|mtp:S|qry_typ:P|lang:en|wc:3|cs:8847|v=4,False,Pandri,Raipur,"Jaihind Readymade Market, Mauja 25, Pandri, Pandri, Raipur - 492001, Chhattisgarh",7942868161,
Cotton And Foam White Red Baby Sleeping Bag,https://www.indiamart.com/proddetail/white-red-baby-sleeping-bag-25111312512.html?pos=196&kwd=baby sleeping bag&tags=BB||||8038.093|Price|product|||NA|rsf:gd-|-stype:attr=1|qr_nm:gd|res:RC4|com-cf:nl|ptrs:na|ktp:N0|mc:72867|mtp:S|qry_typ:P|lang:en|wc:3|cs:8847|v=4,Fabric Master,https://www.indiamart.com/fabric-master-rajkot/?pos=196&kwd=baby sleeping bag&tags=BB||||8038.093|Price|product|||NA|rsf:gd-|-stype:attr=1|qr_nm:gd|res:RC4|com-cf:nl|ptrs:na|ktp:N0|mc:72867|mtp:S|qry_typ:P|lang:en|wc:3|cs:8847|v=4,False,,Rajkot,"Ankur Nana Mava Road, 117 Radha Nagar, Rajkot - 360004, Dist.Rajkot, Gujarat",8047301139,
"Cotton New Born Baby Sleeping Bag, Packaging Type: Pack",https://www.indiamart.com/proddetail/new-born-baby-sleeping-bag-2850178181697.html?pos=197&kwd=baby sleeping bag&tags=BA||||8331.224|Price|product|||NA|rsf:gd-|-stype:attr=1|qr_nm:gd|res:RC4|com-cf:nl|ptrs:na|ktp:N0|mc:72867|mtp:S|qry_typ:P|lang:en|wc:3|cs:8847|v=4,Minakshi Garments,https://www.indiamart.com/minakshi-garments-kolhapur/?pos=197&kwd=baby sleeping bag&tags=BA||||8331.224|Price|product|||NA|rsf:gd-|-stype:attr=1|qr_nm:gd|res:RC4|com-cf:nl|ptrs:na|ktp:N0|mc:72867|mtp:S|qry_typ:P|lang:en|wc:3|cs:8847|v=4,False,Tarabai Park,Kolhapur,"Gala No 14 B Parvati Plaza, Main Market Road Swastik Market, Gandhinagar, Tarabai Park, Kolhapur - 416119, Dist.Kolhapur, Maharashtra",7942670858,
"PRINTED BABY CARRY NEST / BABY SLEEPING BED / BABY CARRY BED, Newly Born",https://www.indiamart.com/proddetail/baby-carry-nest-baby-sleeping-bed-baby-carry-bed-26665246297.html?pos=198&kwd=baby sleeping bag&tags=BA||||8236.946|Price|product|||NA|rsf:gd-|-stype:attr=1|qr_nm:gd|res:RC4|com-cf:nl|ptrs:na|ktp:N0|mc:72867|mtp:S|qry_typ:P|lang:en|wc:3|cs:8847|v=4,Pranita Textile,https://www.indiamart.com/pranita-textile/?pos=198&kwd=baby sleeping bag&tags=BA||||8236.946|Price|product|||NA|rsf:gd-|-stype:attr=1|qr_nm:gd|res:RC4|com-cf:nl|ptrs:na|ktp:N0|mc:72867|mtp:S|qry_typ:P|lang:en|wc:3|cs:8847|v=4,False,,Raigad,"Unit No 206, 2nd Fioor, Silver Springs, Taloja Midc, Taloja Panchanand, Raigad., Raigad - 410208, Maharashtra",8043855238,
"Cotton Foldable 150x50 Cm 3D Printed Baby Carry Bed, For Sleeping, 1 To 12 Months",https://www.indiamart.com/proddetail/150x50-cm-3d-printed-baby-carry-bed-2850658946433.html?pos=203&kwd=baby sleeping bag&tags=BB||||8954.051|Price|product|||NA|rsf:gd-|-stype:attr=1|qr_nm:gd|res:RC4|com-cf:nl|ptrs:na|ktp:N0|mc:72867|mtp:S|qry_typ:P|lang:en|wc:3|cs:8847|v=4,Baby Doll Traders,https://www.indiamart.com/baby-doll-traders/?pos=203&kwd=baby sleeping bag&tags=BB||||8954.051|Price|product|||NA|rsf:gd-|-stype:attr=1|qr_nm:gd|res:RC4|com-cf:nl|ptrs:na|ktp:N0|mc:72867|mtp:S|qry_typ:P|lang:en|wc:3|cs:8847|v=4,False,,Chennai,"7/64, Pillaiyar Koil Street, Eadapalayam, Alamathi, Chennai - 600052, Dist.Chennai, Tamil Nadu",7942958583,
"Printed Designer Baby Wrapper, Upto 600 Gm, 0 To 6 Months",https://www.indiamart.com/proddetail/designer-baby-wrapper-21436758491.html?pos=200&kwd=baby sleeping bag&tags=BB||||8211.142|Price|product|||NA|rsf:gd-|-stype:attr=1|qr_nm:gd|res:RC4|com-cf:nl|ptrs:na|ktp:N0|mc:72867|mtp:S|qry_typ:P|lang:en|wc:3|cs:8847|v=4,Keval Enterprises,https://www.indiamart.com/keval-enterprises-mumbai/?pos=200&kwd=baby sleeping bag&tags=BB||||8211.142|Price|product|||NA|rsf:gd-|-stype:attr=1|qr_nm:gd|res:RC4|com-cf:nl|ptrs:na|ktp:N0|mc:72867|mtp:S|qry_typ:P|lang:en|wc:3|cs:8847|v=4,False,Dadar West,Mumbai,"Shop No. 20, Madhani Industrial Estate Senapati Bapat Marg, Dadar West, Mumbai - 400028, Dist.Mumbai, Maharashtra",8048951266,
Baby Sleeping Bag,https://www.indiamart.com/proddetail/baby-sleeping-bag-15911194933.html?pos=201&kwd=baby sleeping bag&tags=BB||||8661.854|Price|product|||NA|rsf:gd-|-stype:attr=1|qr_nm:gd|res:RC4|com-cf:nl|ptrs:na|ktp:N0|mc:72867|mtp:S|qry_typ:P|lang:en|wc:3|cs:8847|v=4,Gopal Darshan Textile,https://www.indiamart.com/gopal-darshan-textiles/?pos=201&kwd=baby sleeping bag&tags=BB||||8661.854|Price|product|||NA|rsf:gd-|-stype:attr=1|qr_nm:gd|res:RC4|com-cf:nl|ptrs:na|ktp:N0|mc:72867|mtp:S|qry_typ:P|lang:en|wc:3|cs:8847|v=4,False,,Ludhiana,"3929/3 Hargobind Pura 4, Ludhiana - 141008, Dist.Ludhiana, Punjab",8048956657,
"Pink (base) Lycra Printed Baby Sleeping Bag, Newly Born",https://www.indiamart.com/proddetail/printed-baby-sleeping-bag-2852118864062.html?pos=202&kwd=baby sleeping bag&tags=BA||||8559.269|Price|product|||NA|rsf:gd-|-stype:attr=1|qr_nm:gd|res:RC4|com-cf:nl|ptrs:na|ktp:N0|mc:72867|mtp:S|qry_typ:P|lang:en|wc:3|cs:8847|v=4,Navkar Traders,https://www.indiamart.com/navkar-tradersindore/?pos=202&kwd=baby sleeping bag&tags=BA||||8559.269|Price|product|||NA|rsf:gd-|-stype:attr=1|qr_nm:gd|res:RC4|com-cf:nl|ptrs:na|ktp:N0|mc:72867|mtp:S|qry_typ:P|lang:en|wc:3|cs:8847|v=4,False,Sukhlia,Indore,"304, Shyam Bhatika Ke Pass, Shyam Nagar,, Sukhlia, Indore - 452010, Dist.Indore, Madhya Pradesh",7942962327,
"Cotton Foldable 150x50 Cm 3D Printed Baby Carry Bed, For Sleeping, 1 To 12 Months",https://www.indiamart.com/proddetail/150x50-cm-3d-printed-baby-carry-bed-2850658946433.html?pos=203&kwd=baby sleeping bag&tags=BB||||8954.051|Price|product|||NA|rsf:gd-|-stype:attr=1|qr_nm:gd|res:RC4|com-cf:nl|ptrs:na|ktp:N0|mc:72867|mtp:S|qry_typ:P|lang:en|wc:3|cs:8847|v=4,Baby Doll Traders,https://www.indiamart.com/baby-doll-traders/?pos=203&kwd=baby sleeping bag&tags=BB||||8954.051|Price|product|||NA|rsf:gd-|-stype:attr=1|qr_nm:gd|res:RC4|com-cf:nl|ptrs:na|ktp:N0|mc:72867|mtp:S|qry_typ:P|lang:en|wc:3|cs:8847|v=4,False,,Chennai,"7/64, Pillaiyar Koil Street, Eadapalayam, Alamathi, Chennai - 600052, Dist.Chennai, Tamil Nadu",7942958583,
"Blue Cotton Baby Sleeping Bag, Newly Born",https://www.indiamart.com/proddetail/blue-cotton-baby-sleeping-bag-2851741200033.html?pos=204&kwd=baby sleeping bag&tags=BB||||8228.275|Price|product|||NA|rsf:gd-|-stype:attr=1|qr_nm:gd|res:RC4|com-cf:nl|ptrs:na|ktp:N0|mc:72867|mtp:S|qry_typ:P|lang:en|wc:3|cs:8847|v=4,M Marketing,https://www.indiamart.com/mmarketing/?pos=204&kwd=baby sleeping bag&tags=BB||||8228.275|Price|product|||NA|rsf:gd-|-stype:attr=1|qr_nm:gd|res:RC4|com-cf:nl|ptrs:na|ktp:N0|mc:72867|mtp:S|qry_typ:P|lang:en|wc:3|cs:8847|v=4,False,,Ahmedabad,"TF/301, Karnavati Archade, Near Gheekanta, Ahmedabad - 380001, Dist.Ahmedabad, Gujarat",7942868797,
Sleeping Bag For Baby,,Kian,https://www.indiamart.com/kian-bengaluru/?pos=205&kwd=baby sleeping bag&tags=BA||||8663.873||product|||NA|rsf:gd-|-stype:attr=1|qr_nm:gd|res:RC4|com-cf:nl|ptrs:na|ktp:N0|mc:72867|mtp:S|qry_typ:P|lang:en|wc:3|cs:8847|v=4,False,,Bengaluru,"455 3rd Main Road, Bengaluru - 560039, Dist.Bengaluru, Karnataka",8048249956,597
Baby Sleeping Bag,,The V Polyfabrics,https://www.indiamart.com/the-v-polyfabrics/?pos=206&kwd=baby sleeping bag&tags=BB||||8706.263|Price|product|||NA|rsf:gd-|-stype:attr=1|qr_nm:gd|res:RC4|com-cf:nl|ptrs:na|ktp:N0|mc:72867|mtp:S|qry_typ:P|lang:en|wc:3|cs:8847|v=4,False,,Karur,"7h O, Ramakrishnapuram West, Karur - 639001, Dist.Karur, Tamil Nadu",8047792325,
Baby Sleeping Bag,,MR Timepass Clothing,https://www.indiamart.com/mr-timepass-clothing/?pos=207&kwd=baby sleeping bag&tags=BA||||8752.144|Price|product|||NA|rsf:gd-|-stype:attr=1|qr_nm:gd|res:RC4|com-cf:nl|ptrs:na|ktp:N0|mc:72867|mtp:S|qry_typ:P|lang:en|wc:3|cs:8847|v=4,False,Shahdara,New Delhi,"1/97,G/F 01, Vishwas Nagar, North East, Near Mandir , Shahdara, Shahdara, New Delhi - 110032, Dist.Delhi, Delhi",7942968342,
Baby Sleeping Bag,,Amardeep And Co.,https://www.indiamart.com/amardeep-co-bengaluru/?pos=208&kwd=baby sleeping bag&tags=BA||||8663.873||product|||NA|rsf:gd-|-stype:attr=1|qr_nm:gd|res:RC4|com-cf:nl|ptrs:na|ktp:N0|mc:72867|mtp:S|qry_typ:P|lang:en|wc:3|cs:8847|v=4,False,Post Bengaluru (Bangalore) Urban,Bengaluru,"70,8th Cross Kaggadasapura, Post Bengaluru (Bangalore) Urban, Bengaluru - 560093, Dist.Bengaluru, Karnataka",7949350016,
Baby Sleeping Bag,,Sweet Angels,https://www.indiamart.com/sweet-angels/?pos=209&kwd=baby sleeping bag&tags=BA||||8038.093||product|||NA|rsf:gd-|-stype:attr=1|qr_nm:gd|res:RC4|com-cf:nl|ptrs:na|ktp:N0|mc:72867|mtp:S|qry_typ:P|lang:en|wc:3|cs:8847|v=4,False,Kotecha Main Road,Rajkot,"Sunny Plaza, Kotecha Main Road, Rajkot - 360001, Dist.Rajkot, Gujarat",8047522019,
Cotton Baby Sleeping Bag,,Bansal Sons,https://www.indiamart.com/bansal-sons-lucknow/?pos=210&kwd=baby sleeping bag&tags=BA||||9110.092|Price|product|||NA|rsf:gd-|-stype:attr=1|qr_nm:gd|res:RC4|com-cf:nl|ptrs:na|ktp:N0|mc:72867|mtp:S|qry_typ:P|lang:en|wc:3|cs:8847|v=4,False,,Lucknow,"B-24,,Janpath Market,Hazrat Ganj ,226001,, Lucknow - 226001, Dist.Lucknow, Uttar Pradesh",8048370723,9404
