product_title,product_link,company_name,company_link,is_verified_exporter,city_region,city,address_details,phone_number,phone_number_extension
"900ml Natural Laundry Liquid Detergent, Newly Born",https://www.indiamart.com/proddetail/900ml-natural-baby-laundry-liquid-detergent-25971189530.html?pos=1&kwd=baby laundry liquid&tags=A||||8211.142|Price|product|||MDC|rsf:gd-|-stype:attr=1|qr_nm:gd|res:RC4|com-cf:nl|ptrs:na|ktp:N0|mc:185084|mtp:S|qry_typ:P|lang:en|wc:3|flavl:0|cs:9654|v=4,Windmills Nature Lab Private Limited,https://www.indiamart.com/windmills-nature-lab/?pos=1&kwd=baby laundry liquid&tags=A||||8211.142|Price|product|||MDC|rsf:gd-|-stype:attr=1|qr_nm:gd|res:RC4|com-cf:nl|ptrs:na|ktp:N0|mc:185084|mtp:S|qry_typ:P|lang:en|wc:3|flavl:0|cs:9654|v=4,False,,Mumbai,"1st Floor, 107/108, Raheja Plaze, Veera Desai Road, Andheri West Mumbai, Mumbai Suburban, Mumbai - 400053, Dist.Mumbai, Maharashtra",8044017492,
"citrus Light Brown Baby Laundry Detergent Liquid, Packaging Type: Plastic Bottle, Packaging Size: 1 L",https://www.indiamart.com/proddetail/baby-laundry-detergent-liquid-26198954133.html?pos=2&kwd=baby laundry liquid&tags=BA||||8752.144|Price|product|||TS|rsf:gd-|-stype:attr=1|qr_nm:gd|res:RC4|com-cf:nl|ptrs:na|ktp:N0|mc:185084|mtp:S|qry_typ:P|lang:en|wc:3|flavl:0|cs:9654|v=4,M/S Marjan Industries,https://www.marjanindustry.com/?pos=2&kwd=baby laundry liquid&tags=BA||||8752.144|Price|product|||TS|rsf:gd-|-stype:attr=1|qr_nm:gd|res:RC4|com-cf:nl|ptrs:na|ktp:N0|mc:185084|mtp:S|qry_typ:P|lang:en|wc:3|flavl:0|cs:9654|v=4,False,Okhla Industrial Estate,New Delhi,"Z-20 2nd Floor, Okhla Industrial Area Phase-2, New Delhi,, Okhla Industrial Estate, New Delhi - 110020, Dist.Delhi, Delhi",8045908643,
Lavender Laundry Liquid Pod,https://www.indiamart.com/proddetail/laundry-liquid-pod-2850573508862.html?pos=3&kwd=baby laundry liquid&tags=BB||||8692.544|Price|product|||TS|rsf:gd-|-stype:attr=1|qr_nm:gd|res:RC4|com-cf:nl|ptrs:na|ktp:N0|mc:185084|mtp:S|qry_typ:P|lang:en|wc:3|flavl:0|cs:9654|v=4,Yantai Eco Friendly Products Private Limited,https://www.indiamart.com/yantaiecofriendlyproducts/?pos=3&kwd=baby laundry liquid&tags=BB||||8692.544|Price|product|||TS|rsf:gd-|-stype:attr=1|qr_nm:gd|res:RC4|com-cf:nl|ptrs:na|ktp:N0|mc:185084|mtp:S|qry_typ:P|lang:en|wc:3|flavl:0|cs:9654|v=4,False,Rampura,Alwar,"Plot No 591,592,593, RIICO Industrial Area, Bhiwadi, Rampura, Alwar - 301019, Dist.Alwar, Rajasthan",7942538068,
Baby Laundry Detergent Liquid,https://www.indiamart.com/proddetail/baby-laundry-detergent-liquid-2854331608012.html?pos=4&kwd=baby laundry liquid&tags=BA||||8230.883|Price|product|||TS|rsf:gd-|-stype:attr=1|qr_nm:gd|res:RC4|com-cf:nl|ptrs:na|ktp:N0|mc:185084|mtp:S|qry_typ:P|lang:en|wc:3|flavl:0|cs:9654|v=4,Nexton International,https://www.nextoninternational.com/?pos=4&kwd=baby laundry liquid&tags=BA||||8230.883|Price|product|||TS|rsf:gd-|-stype:attr=1|qr_nm:gd|res:RC4|com-cf:nl|ptrs:na|ktp:N0|mc:185084|mtp:S|qry_typ:P|lang:en|wc:3|flavl:0|cs:9654|v=4,False,Dimond Park,Surat,"PLOT NO-73, SURYAKIRAN SOCIETY, CHIKUWADI, NANA VARACHHA, Surat, Dimond Park, Surat - 395006, Dist.Surat, Gujarat",8047306796,
"Satol Satfab Universal Liquid Detergent With Booster& Ob 25ltr., Packaging Type: Can, Packaging Size: 25kg",https://www.indiamart.com/proddetail/satol-satfab-universal-liquid-detergent-with-booster-ob-25ltr-24033253088.html?pos=5&kwd=baby laundry liquid&tags=BA||||8752.144|Price|product|||TS|rsf:gd-|-stype:attr=1|qr_nm:gd|res:RC4|com-cf:nl|ptrs:na|ktp:N0|mc:185084|mtp:S|qry_typ:P|lang:en|wc:3|flavl:0|cs:9654|v=4,Divya Traders,https://www.indiamart.com/divya-tradersdelhi/?pos=5&kwd=baby laundry liquid&tags=BA||||8752.144|Price|product|||TS|rsf:gd-|-stype:attr=1|qr_nm:gd|res:RC4|com-cf:nl|ptrs:na|ktp:N0|mc:185084|mtp:S|qry_typ:P|lang:en|wc:3|flavl:0|cs:9654|v=4,False,Paschim Vihar,New Delhi,"BA/49A, Janak Puri, West, Paschim Vihar, New Delhi - 110058, Dist.Delhi, Delhi",8046059659,
Jasmine Baby Laundry Detergent Liquid,https://www.indiamart.com/proddetail/baby-laundry-detergent-liquid-24164212062.html?pos=6&kwd=baby laundry liquid&tags=BA||||8507.67|Price|product|||MDC|rsf:gd-|-stype:attr=1|qr_nm:gd|res:RC4|com-cf:nl|ptrs:na|ktp:N0|mc:185084|mtp:S|qry_typ:P|lang:en|wc:3|flavl:0|cs:9654|v=4,Bell Communication Systems,https://www.indiamart.com/bellcommunicationsystems/?pos=6&kwd=baby laundry liquid&tags=BA||||8507.67|Price|product|||MDC|rsf:gd-|-stype:attr=1|qr_nm:gd|res:RC4|com-cf:nl|ptrs:na|ktp:N0|mc:185084|mtp:S|qry_typ:P|lang:en|wc:3|flavl:0|cs:9654|v=4,False,Edappally,Ernakulam,"21/163 15th Cross Road, Giri Nagar Kadavanthra, Edappally, Ernakulam - 682020, Dist.Ernakulam, Kerala",8046063700,
"Eco Blends Baby Liquid Detergent, 500 ml",https://www.indiamart.com/proddetail/eco-blends-baby-liquid-detergent-2854233226491.html?pos=7&kwd=baby laundry liquid&tags=BB||||8357.81|Price|product|||MDC|rsf:gd-|-stype:attr=1|qr_nm:gd|res:RC4|com-cf:nl|ptrs:na|ktp:N0|mc:185084|mtp:S|qry_typ:P|lang:en|wc:3|flavl:0|cs:9654|v=4,Vertida Chemicals India Private Limited,https://www.indiamart.com/vertidachemicalsindia/?pos=7&kwd=baby laundry liquid&tags=BB||||8357.81|Price|product|||MDC|rsf:gd-|-stype:attr=1|qr_nm:gd|res:RC4|com-cf:nl|ptrs:na|ktp:N0|mc:185084|mtp:S|qry_typ:P|lang:en|wc:3|flavl:0|cs:9654|v=4,False,,Udupi,"4-176C Amba Road Kidiyoor Village, Udupi - 576103, Dist.Udupi, Karnataka",8046032885,
"Saram's Organic Washing Liquid, 1 L",https://www.indiamart.com/proddetail/saram-s-organic-washing-liquid-2850111089488.html?pos=8&kwd=baby laundry liquid&tags=BB||||8584.299|Price|product|||NA|rsf:gd-|-stype:attr=1|qr_nm:gd|res:RC4|com-cf:nl|ptrs:na|ktp:N0|mc:185084|mtp:S|qry_typ:P|lang:en|wc:3|flavl:0|cs:9654|v=4,Saram Home Products,https://www.indiamart.com/saram-home-products/?pos=8&kwd=baby laundry liquid&tags=BB||||8584.299|Price|product|||NA|rsf:gd-|-stype:attr=1|qr_nm:gd|res:RC4|com-cf:nl|ptrs:na|ktp:N0|mc:185084|mtp:S|qry_typ:P|lang:en|wc:3|flavl:0|cs:9654|v=4,False,,Coimbatore,"3 Sri Senthur Garden, Varathaiyangarpalayam, Coimbatore - 641110, Dist.Coimbatore, Tamil Nadu",7942803661,
"Laundry Liquid Concentarte 5X, Packaging Type: HDPE carboy, Packaging Size: 50 kg",https://www.indiamart.com/proddetail/laundry-liquid-concentarte-5x-24363572273.html?pos=9&kwd=baby laundry liquid&tags=CC||||8228.275|Price|product|||TS|rsf:gd-|-stype:attr=1|qr_nm:gd|res:RC4|com-cf:nl|ptrs:na|ktp:N0|mc:185084|mtp:S|qry_typ:P|lang:en|wc:3|flavl:0|cs:9654|v=4,Swadesh International,https://www.swadeshinternational.in/?pos=9&kwd=baby laundry liquid&tags=CC||||8228.275|Price|product|||TS|rsf:gd-|-stype:attr=1|qr_nm:gd|res:RC4|com-cf:nl|ptrs:na|ktp:N0|mc:185084|mtp:S|qry_typ:P|lang:en|wc:3|flavl:0|cs:9654|v=4,True,Rakhial,Ahmedabad,"H-1, Ground Floor, Sumel 7, Soni Ni Chawl, Rakhial, Ahmedabad - 380023, Dist.Ahmedabad, Gujarat",8048983551,
"Baby Laundry Detergent Liquid, Packaging Size: 1 Ltr",https://www.indiamart.com/proddetail/baby-laundry-detergent-liquid-19823347973.html?pos=10&kwd=baby laundry liquid&tags=CC||||8752.144|Price|product|||TS|rsf:gd-|-stype:attr=1|qr_nm:gd|res:RC4|com-cf:nl|ptrs:na|ktp:N0|mc:185084|mtp:S|qry_typ:P|lang:en|wc:3|flavl:0|cs:9654|v=4,Shaifali Traders,https://www.shopphiez.com/?pos=10&kwd=baby laundry liquid&tags=CC||||8752.144|Price|product|||TS|rsf:gd-|-stype:attr=1|qr_nm:gd|res:RC4|com-cf:nl|ptrs:na|ktp:N0|mc:185084|mtp:S|qry_typ:P|lang:en|wc:3|flavl:0|cs:9654|v=4,False,PATPARGANJ,New Delhi,"Plot No 10, main road patparganj ganj, PATPARGANJ, New Delhi - 110091, Dist.Delhi, Delhi",8046033629,
"Natural Baby Laundry Liquid Detergent,, 500ML",https://www.indiamart.com/proddetail/baby-laundry-liquid-detergent-27162687188.html?pos=11&kwd=baby laundry liquid&tags=CC||||8778.123|Price|product|||TS|rsf:gd-|-stype:attr=1|qr_nm:gd|res:RC4|com-cf:nl|ptrs:na|ktp:N0|mc:185084|mtp:S|qry_typ:P|lang:en|wc:3|flavl:0|cs:9654|v=4,Herboveda India,https://www.ngelectro.co.in/?pos=11&kwd=baby laundry liquid&tags=CC||||8778.123|Price|product|||TS|rsf:gd-|-stype:attr=1|qr_nm:gd|res:RC4|com-cf:nl|ptrs:na|ktp:N0|mc:185084|mtp:S|qry_typ:P|lang:en|wc:3|flavl:0|cs:9654|v=4,False,Sector 65,Noida,"A-99, Sector-65, Sector 65, Noida - 201301, Dist.Gautam Budh Nagar, Uttar Pradesh",8046070337,
Pigeon Baby Laundry Detergent Liquid,https://www.indiamart.com/proddetail/pigeon-baby-laundry-detergent-liquid-2852328070033.html?pos=12&kwd=baby laundry liquid&tags=CC||||8307.81|Price|product|||MDC|rsf:gd-|-stype:attr=1|qr_nm:gd|res:RC4|com-cf:nl|ptrs:na|ktp:N0|mc:185084|mtp:S|qry_typ:P|lang:en|wc:3|flavl:0|cs:9654|v=4,Bhavana Agency,https://www.indiamart.com/bhavana-agency/?pos=12&kwd=baby laundry liquid&tags=CC||||8307.81|Price|product|||MDC|rsf:gd-|-stype:attr=1|qr_nm:gd|res:RC4|com-cf:nl|ptrs:na|ktp:N0|mc:185084|mtp:S|qry_typ:P|lang:en|wc:3|flavl:0|cs:9654|v=4,False,Sadashiv Peth,Pune,"S No 4, 841/1, Asset Gold, Sadashiv Peth, Sadashiv Peth, Pune - 411030, Dist.Pune, Maharashtra",8047788291,
Silk Sense Baby Laundry Liquid Detergent,https://www.indiamart.com/proddetail/silk-sense-baby-laundry-liquid-detergent-2854542337430.html?pos=13&kwd=baby laundry liquid&tags=CC||||8307.81|Price|product|||MDC|rsf:gd-|-stype:attr=1|qr_nm:gd|res:RC4|com-cf:nl|ptrs:na|ktp:N0|mc:185084|mtp:S|qry_typ:P|lang:en|wc:3|flavl:0|cs:9654|v=4,Brother Enterprises,https://www.indiamart.com/brotherenterprisespune/?pos=13&kwd=baby laundry liquid&tags=CC||||8307.81|Price|product|||MDC|rsf:gd-|-stype:attr=1|qr_nm:gd|res:RC4|com-cf:nl|ptrs:na|ktp:N0|mc:185084|mtp:S|qry_typ:P|lang:en|wc:3|flavl:0|cs:9654|v=4,False,,Pune,"Balewadi Road, 150/1/1, Muktai Bld, Chakankar Mala Baner, Pune - 411045, Dist.Pune, Maharashtra",7949326791,
"Hommix liquid detergent matic( 1L), 1 Kg",https://www.indiamart.com/proddetail/hommix-matic-liquid-detergent-1l-2853437727648.html?pos=14&kwd=baby laundry liquid&tags=CC||||8254.475||product|||TS|rsf:gd-|-stype:attr=1|qr_nm:gd|res:RC4|com-cf:nl|ptrs:na|ktp:N0|mc:185084|mtp:S|qry_typ:P|lang:en|wc:3|flavl:0|cs:9654|v=4,Icemach Industries Private Limited,https://www.icemach.in/?pos=14&kwd=baby laundry liquid&tags=CC||||8254.475||product|||TS|rsf:gd-|-stype:attr=1|qr_nm:gd|res:RC4|com-cf:nl|ptrs:na|ktp:N0|mc:185084|mtp:S|qry_typ:P|lang:en|wc:3|flavl:0|cs:9654|v=4,False,GIDC,Bharuch,"C1/65/2, GIDC BHARUCH,, GIDC, Bharuch - 392015, Dist.Bharuch, Gujarat",7942828530,
"Liquid Detergent, 50 Kg",https://www.indiamart.com/proddetail/liquid-detergent-2853614771397.html?pos=15&kwd=baby laundry liquid&tags=CC||||8228.275|Price|product|||TS|rsf:gd-|-stype:attr=1|qr_nm:gd|res:RC4|com-cf:nl|ptrs:na|ktp:N0|mc:185084|mtp:S|qry_typ:P|lang:en|wc:3|cs:8891|v=4,Delhiwala Haribhai & Co.,https://www.dhcompany.in/?pos=15&kwd=baby laundry liquid&tags=CC||||8228.275|Price|product|||TS|rsf:gd-|-stype:attr=1|qr_nm:gd|res:RC4|com-cf:nl|ptrs:na|ktp:N0|mc:185084|mtp:S|qry_typ:P|lang:en|wc:3|cs:8891|v=4,False,Vatva,Ahmedabad,"26, Platinum Industrial Park 1, Nr.Vatva Station Road, Vatva Opp.Jaimin Park, Vatva, Ahmedabad - 382445, Dist.Ahmedabad, Gujarat",8048963895,
"Little Dinos Baby Laundry Liquid Lavender, 500 ml",https://www.indiamart.com/proddetail/little-dinos-baby-laundry-liquid-lavender-2854527734762.html?pos=16&kwd=baby laundry liquid&tags=||||8038.093|Price|product|||MDC|rsf:gd-|-stype:attr=1|qr_nm:gd|res:RC4|com-cf:nl|ptrs:na|ktp:N0|mc:185084|mtp:S|qry_typ:P|lang:en|wc:3|cs:8891|v=4,My Medicine,https://www.indiamart.com/mymedicinerajkot/?pos=16&kwd=baby laundry liquid&tags=||||8038.093|Price|product|||MDC|rsf:gd-|-stype:attr=1|qr_nm:gd|res:RC4|com-cf:nl|ptrs:na|ktp:N0|mc:185084|mtp:S|qry_typ:P|lang:en|wc:3|cs:8891|v=4,False,,Rajkot,"8, Git Gurjari Scoiety, My Medicine, Air Port Road, Opp. Nilkant Mahadev Temple, Rajkot - 360007, Dist.Rajkot, Gujarat",7949336599,
Top Load 2in1 Laundry Liquid Detergent with Fabric Conditioner Bottle 1 Litre,https://www.indiamart.com/proddetail/top-load-2in1-laundry-liquid-detergent-with-fabric-conditioner-bottle-1-litre-2852854298230.html?pos=17&kwd=baby laundry liquid&tags=||||8211.142|Price|product|||TS|rsf:gd-|-stype:attr=1|qr_nm:gd|res:RC4|com-cf:nl|ptrs:na|ktp:N0|mc:185084|mtp:S|qry_typ:P|lang:en|wc:3|cs:8891|v=4,Chain Cloud Private Limited,https://www.indiamart.com/chain-cloud-private-limited/?pos=17&kwd=baby laundry liquid&tags=||||8211.142|Price|product|||TS|rsf:gd-|-stype:attr=1|qr_nm:gd|res:RC4|com-cf:nl|ptrs:na|ktp:N0|mc:185084|mtp:S|qry_typ:P|lang:en|wc:3|cs:8891|v=4,False,Kandivali West,Mumbai,"GROUND FLOOR, BRINDAVAN CHS LTD, MEERA BAUGH COLONY ROAD,, Kandivali West, Mumbai - 400054, Dist.Mumbai, Maharashtra",,
Detox Liquid Detergent,https://www.indiamart.com/proddetail/detox-liquid-detergent-2852842900933.html?pos=18&kwd=baby laundry liquid&tags=||||8954.051|Price|product|||TS|rsf:gd-|-stype:attr=1|qr_nm:gd|res:RC4|com-cf:nl|ptrs:na|ktp:N0|mc:185084|mtp:S|qry_typ:P|lang:en|wc:3|cs:8891|v=4,Jentex Alkalis,https://www.jentexalkalis.com/?pos=18&kwd=baby laundry liquid&tags=||||8954.051|Price|product|||TS|rsf:gd-|-stype:attr=1|qr_nm:gd|res:RC4|com-cf:nl|ptrs:na|ktp:N0|mc:185084|mtp:S|qry_typ:P|lang:en|wc:3|cs:8891|v=4,False,Guindy,Chennai,"22 i,,T V K INDUSTRIAL ESTATE,GUINDY, Guindy, Chennai - 600032, Dist.Chennai, Tamil Nadu",8047631744,
"Lemon Laundry Liquid Detergent, 50 L",https://www.indiamart.com/proddetail/laundry-liquid-detergent-2854535106848.html?pos=19&kwd=baby laundry liquid&tags=||||8228.275||product|||TS|rsf:gd-|-stype:attr=1|qr_nm:gd|res:RC4|com-cf:nl|ptrs:na|ktp:N0|mc:185084|mtp:S|qry_typ:P|lang:en|wc:3|cs:8891|v=4,S. R. Industries,https://www.yoomndetergent.com/?pos=19&kwd=baby laundry liquid&tags=||||8228.275||product|||TS|rsf:gd-|-stype:attr=1|qr_nm:gd|res:RC4|com-cf:nl|ptrs:na|ktp:N0|mc:185084|mtp:S|qry_typ:P|lang:en|wc:3|cs:8891|v=4,False,,Ahmedabad,"0, Survey No-343, Plot No -25-36-27, Block-A, Raj Estate, Shahwadi, Ahmedabad - 382405, Dist.Ahmedabad, Gujarat",7949329693,
"Laundry Liquid Detergent, 1 L",https://www.indiamart.com/proddetail/laundry-liquid-detergent-2854192169873.html?pos=20&kwd=baby laundry liquid&tags=||||8228.275|Price|product|||TS|rsf:gd-|-stype:attr=1|qr_nm:gd|res:RC4|com-cf:nl|ptrs:na|ktp:N0|mc:185084|mtp:S|qry_typ:P|lang:en|wc:3|cs:8891|v=4,Heerakani Chemicals,https://www.shreeseth.com/?pos=20&kwd=baby laundry liquid&tags=||||8228.275|Price|product|||TS|rsf:gd-|-stype:attr=1|qr_nm:gd|res:RC4|com-cf:nl|ptrs:na|ktp:N0|mc:185084|mtp:S|qry_typ:P|lang:en|wc:3|cs:8891|v=4,False,Shahwadi,Ahmedabad,"Sur No. 363, Shahwadi-Tin Kuwa, Narol, Sarkhej Highway, Pirana Tolnaka, Shahwadi, Shahwadi, Ahmedabad - 382405, Dist.Ahmedabad, Gujarat",8048607002,
Jasmine Laundry Liquid Detergent,https://www.indiamart.com/proddetail/laundry-liquid-detergent-2853937559855.html?pos=21&kwd=baby laundry liquid&tags=||||8228.275|Price|product|||TS|rsf:gd-|-stype:attr=1|qr_nm:gd|res:RC4|com-cf:nl|ptrs:na|ktp:N0|mc:185084|mtp:S|qry_typ:P|lang:en|wc:3|cs:8891|v=4,H K Group,https://www.hkpramukh.com/?pos=21&kwd=baby laundry liquid&tags=||||8228.275|Price|product|||TS|rsf:gd-|-stype:attr=1|qr_nm:gd|res:RC4|com-cf:nl|ptrs:na|ktp:N0|mc:185084|mtp:S|qry_typ:P|lang:en|wc:3|cs:8891|v=4,False,Chandlodia,Ahmedabad,"Sur No. 222/2 Chehar Farm, Nr. Sopan Saran Flat Opp. Aedudi Talav, Chandlodia, Ahmedabad - 382481, Dist.Ahmedabad, Gujarat",8048601701,
"Lavender Laundry liquid detergent, 1 L",https://www.indiamart.com/proddetail/laundry-liquid-detergent-2854980509573.html?pos=22&kwd=baby laundry liquid&tags=||||8954.051|Price|product|||TS|rsf:gd-|-stype:attr=1|qr_nm:gd|res:RC4|com-cf:nl|ptrs:na|ktp:N0|mc:185084|mtp:S|qry_typ:P|lang:en|wc:3|cs:8891|v=4,Sundew Chemicals And Systems,https://www.sundewchemicalsandsystems.com/?pos=22&kwd=baby laundry liquid&tags=||||8954.051|Price|product|||TS|rsf:gd-|-stype:attr=1|qr_nm:gd|res:RC4|com-cf:nl|ptrs:na|ktp:N0|mc:185084|mtp:S|qry_typ:P|lang:en|wc:3|cs:8891|v=4,False,Madipakkam,Chennai,"Old No.388/1 , New No.1/674 6th Street, Karthikeyapuram Madipakkam 1/674, Karthikeyapuram 6th Street, Madipakkam, Chennai - 600091, Dist.Chennai, Tamil Nadu",7942830586,
"UNIQUE LIQUID DETERGENT, 50 KG",https://www.indiamart.com/proddetail/liquid-laundry-detergent-2851721698988.html?pos=23&kwd=baby laundry liquid&tags=||||8228.275|Price|product|||TS|rsf:gd-|-stype:attr=1|qr_nm:gd|res:RC4|com-cf:nl|ptrs:na|ktp:N0|mc:185084|mtp:S|qry_typ:P|lang:en|wc:3|cs:8891|v=4,Rudra Sales,https://www.indiamart.com/rudrasalesahmedabad/?pos=23&kwd=baby laundry liquid&tags=||||8228.275|Price|product|||TS|rsf:gd-|-stype:attr=1|qr_nm:gd|res:RC4|com-cf:nl|ptrs:na|ktp:N0|mc:185084|mtp:S|qry_typ:P|lang:en|wc:3|cs:8891|v=4,False,Nikol,Ahmedabad,"B-408, Sanskrut Residency, Niko Road, Near-Suryanagr, Nikol, Ahmedabad - 382350, Dist.Ahmedabad, Gujarat",8047789988,
Liquid Detergent,https://www.indiamart.com/proddetail/liquid-detergent-22833181897.html?pos=24&kwd=baby laundry liquid&tags=||||8584.299|Price|product|||TS|rsf:gd-|-stype:attr=1|qr_nm:gd|res:RC4|com-cf:nl|ptrs:na|ktp:N0|mc:185084|mtp:S|qry_typ:P|lang:en|wc:3|cs:8891|v=4,Rajalakshmi Enterprises,https://www.rajalakshmienterprises.co.in/?pos=24&kwd=baby laundry liquid&tags=||||8584.299|Price|product|||TS|rsf:gd-|-stype:attr=1|qr_nm:gd|res:RC4|com-cf:nl|ptrs:na|ktp:N0|mc:185084|mtp:S|qry_typ:P|lang:en|wc:3|cs:8891|v=4,False,TVS Nagar,Coimbatore,"4th Floor A401 Shree Alamelu Nagar Edayarpalayam Goundampalayam Vsks Aayushman, TVS Nagar, Coimbatore - 641025, Dist.Coimbatore, Tamil Nadu",8048980270,
"Lemon Blue Laundry Liquid Detergent, Packaging Type: Plastic Bottle, Packaging Size: 200 ml,500 ml & 5 Liter",https://www.indiamart.com/proddetail/laundry-liquid-detergent-11061628948.html?pos=25&kwd=baby laundry liquid&tags=||||8211.142|Price|product|||TS|rsf:gd-|-stype:attr=1|qr_nm:gd|res:RC4|com-cf:nl|ptrs:na|ktp:N0|mc:185084|mtp:S|qry_typ:P|lang:en|wc:3|cs:8891|v=4,Meet Chem,https://www.differindia.in/?pos=25&kwd=baby laundry liquid&tags=||||8211.142|Price|product|||TS|rsf:gd-|-stype:attr=1|qr_nm:gd|res:RC4|com-cf:nl|ptrs:na|ktp:N0|mc:185084|mtp:S|qry_typ:P|lang:en|wc:3|cs:8891|v=4,False,Vikhroli West,Mumbai,"B9 Samrat Mill Compound Lbs Marg Vikhroli West, Vikhroli West, Mumbai - 400079, Dist.Mumbai, Maharashtra",8048606708,
Jasmine liquid Laundry Detergent Bottle 1000ml,https://www.indiamart.com/proddetail/liquid-laundry-detergent-bottle-1000ml-23003678533.html?pos=26&kwd=baby laundry liquid&tags=||||8723.301|Price|product|||TS|rsf:gd-|-stype:attr=1|qr_nm:gd|res:RC4|com-cf:nl|ptrs:na|ktp:N0|mc:185084|mtp:S|qry_typ:P|lang:en|wc:3|cs:8891|v=4,Swachh Herbal,https://www.swachhherbal.in/?pos=26&kwd=baby laundry liquid&tags=||||8723.301|Price|product|||TS|rsf:gd-|-stype:attr=1|qr_nm:gd|res:RC4|com-cf:nl|ptrs:na|ktp:N0|mc:185084|mtp:S|qry_typ:P|lang:en|wc:3|cs:8891|v=4,False,Neelbad,Bhopal,"Kalkheda Near Govt. School, Neelbad, Bhopal - 462044, Dist.Bhopal, Madhya Pradesh",8048978077,
"Mixed Flowers Laundry Liquid Detergent cum Emulsifier, 5 Litres",https://www.indiamart.com/proddetail/laundry-liquid-detergent-cum-emulsifier-27437431730.html?pos=27&kwd=baby laundry liquid&tags=||||8786.56||product|||TS|rsf:gd-|-stype:attr=1|qr_nm:gd|res:RC4|com-cf:nl|ptrs:na|ktp:N0|mc:185084|mtp:S|qry_typ:P|lang:en|wc:3|cs:8891|v=4,Max Industrials,https://www.indiamart.com/max-industrials/?pos=27&kwd=baby laundry liquid&tags=||||8786.56||product|||TS|rsf:gd-|-stype:attr=1|qr_nm:gd|res:RC4|com-cf:nl|ptrs:na|ktp:N0|mc:185084|mtp:S|qry_typ:P|lang:en|wc:3|cs:8891|v=4,False,Balanagar,Hyderabad,"H. No. 1/4/27, Ground Floor, Sanjeeva House, Sarada Colony, Metkaniguda, Gajularamaram, Village And Quthubullapur, Mandal, Balanagar, Hyderabad - 500055, Dist.Hyderabad, Telangana",8048608891,
Lavender Laundry Liquid Detergent,https://www.indiamart.com/proddetail/lavender-laundry-liquid-detergent-2851926332991.html?pos=28&kwd=baby laundry liquid&tags=||||8228.275|Price|product|||TS|rsf:gd-|-stype:attr=1|qr_nm:gd|res:RC4|com-cf:nl|ptrs:na|ktp:N0|mc:185084|mtp:S|qry_typ:P|lang:en|wc:3|cs:8891|v=4,Mangalam,https://www.mangalamchemical.com/?pos=28&kwd=baby laundry liquid&tags=||||8228.275|Price|product|||TS|rsf:gd-|-stype:attr=1|qr_nm:gd|res:RC4|com-cf:nl|ptrs:na|ktp:N0|mc:185084|mtp:S|qry_typ:P|lang:en|wc:3|cs:8891|v=4,False,Hatkeshwar,Ahmedabad,"No. 12, Gopal Patel Estate, Near Swaminarayan Colony, Near C. T. M., Char Rasta, Amraiwadi, Hatkeshwar, Ahmedabad - 380001, Dist.Ahmedabad, Gujarat",8047644558,
"Fabric Wash Conditioner Compound, 50 kg/ ltr drum",https://www.indiamart.com/proddetail/fabric-wash-conditioner-compound-22832486830.html?pos=29&kwd=baby laundry liquid&tags=||||7937.187|Price|product|||TS|rsf:gd-|-stype:attr=1|qr_nm:gd|res:RC4|com-cf:nl|ptrs:na|ktp:N0|mc:185084|mtp:S|qry_typ:P|lang:en|wc:3|cs:8891|v=4,Kevy Consumer Inc,https://www.indiamart.com/kevy-consumer-inc/?pos=29&kwd=baby laundry liquid&tags=||||7937.187|Price|product|||TS|rsf:gd-|-stype:attr=1|qr_nm:gd|res:RC4|com-cf:nl|ptrs:na|ktp:N0|mc:185084|mtp:S|qry_typ:P|lang:en|wc:3|cs:8891|v=4,False,Shreeji Nagar,Bhuj,"House No. 58,59 Odhav Ishwar Nagar Taluka Bhuj Madhapar Bhuj Madhapar, Shreeji Nagar, Bhuj - 370020, Dist.Kachchh, Gujarat",8048978936,
Liquid laundry Detergents,https://www.indiamart.com/proddetail/liquid-laundry-detergents-24315482148.html?pos=30&kwd=baby laundry liquid&tags=||||8038.093|Price|product|||TS|rsf:gd-|-stype:attr=1|qr_nm:gd|res:RC4|com-cf:nl|ptrs:na|ktp:N0|mc:185084|mtp:S|qry_typ:P|lang:en|wc:3|cs:8891|v=4,Sindhu Ultramarine Chemicals Pvt Ltd,https://www.ultramarineblue.org/?pos=30&kwd=baby laundry liquid&tags=||||8038.093|Price|product|||TS|rsf:gd-|-stype:attr=1|qr_nm:gd|res:RC4|com-cf:nl|ptrs:na|ktp:N0|mc:185084|mtp:S|qry_typ:P|lang:en|wc:3|cs:8891|v=4,True,Karan Para,Rajkot,"The Imperia, 11th Floor, Office No. 1104-05 Limda Chowk, Near Hotel Harmony, Karan Para, Rajkot - 360002, Dist.Rajkot, Gujarat",8048970696,
Printed Liquid Detergent Pouch,https://www.indiamart.com/proddetail/liquid-detergent-pouch-2853763848388.html?pos=31&kwd=baby laundry liquid&tags=||||8559.269|Price|product|||MDC|rsf:gd-|-stype:attr=1|qr_nm:gd|res:RC4|com-cf:nl|ptrs:na|ktp:N0|mc:185084|mtp:S|qry_typ:P|lang:en|wc:3|cs:8891|v=4,Swasth Bharat Enterprises,https://www.indiamart.com/swasthbharatenterprises/?pos=31&kwd=baby laundry liquid&tags=||||8559.269|Price|product|||MDC|rsf:gd-|-stype:attr=1|qr_nm:gd|res:RC4|com-cf:nl|ptrs:na|ktp:N0|mc:185084|mtp:S|qry_typ:P|lang:en|wc:3|cs:8891|v=4,False,Nana Varachha,Indore,"25-A, Pipliyahana Road, Pushp Vatika, Near Vandana Nagar, Nana Varachha, Indore - 452016, Dist.Indore, Madhya Pradesh",7949086717,
Liquid Laundry Detergent,https://www.indiamart.com/proddetail/liquid-laundry-detergent-2854440413148.html?pos=32&kwd=baby laundry liquid&tags=||||8228.275|Price|product|||MDC|rsf:gd-|-stype:attr=1|qr_nm:gd|res:RC4|com-cf:nl|ptrs:na|ktp:N0|mc:185084|mtp:S|qry_typ:P|lang:en|wc:3|cs:8891|v=4,Armic Life Care Private Limited,https://www.indiamart.com/armiclifecare/?pos=32&kwd=baby laundry liquid&tags=||||8228.275|Price|product|||MDC|rsf:gd-|-stype:attr=1|qr_nm:gd|res:RC4|com-cf:nl|ptrs:na|ktp:N0|mc:185084|mtp:S|qry_typ:P|lang:en|wc:3|cs:8891|v=4,False,Nikol,Ahmedabad,"C/70, Sahjanand Villa, Kathwada Road, B/H Suryanagar, Nikol, Nikol, Ahmedabad - 382350, Dist.Ahmedabad, Gujarat",7949083108,
"Laundry Liquid Detergent / Eco Friendly fabric liquid detergent SUSH L, 50",https://www.indiamart.com/proddetail/laundry-liquid-detergent-eco-friendly-fabric-liquid-detergent-sush-l-2849033049097.html?pos=33&kwd=baby laundry liquid&tags=||||8228.275|Price|product|||TS|rsf:gd-|-stype:attr=1|qr_nm:gd|res:RC4|com-cf:nl|ptrs:na|ktp:N0|mc:185084|mtp:S|qry_typ:P|lang:en|wc:3|cs:8891|v=4,Blue Chem India,https://www.bluechemindia.in/?pos=33&kwd=baby laundry liquid&tags=||||8228.275|Price|product|||TS|rsf:gd-|-stype:attr=1|qr_nm:gd|res:RC4|com-cf:nl|ptrs:na|ktp:N0|mc:185084|mtp:S|qry_typ:P|lang:en|wc:3|cs:8891|v=4,True,Paldi,Ahmedabad,"Sushil House, No. 6, Bhagwan Nagar Road, Paldi, Ahmedabad - 380007, Dist.Ahmedabad, Gujarat",8048963287,
"AK HOME Laundry Liquid Detergent, 50 L",https://www.indiamart.com/proddetail/ak-home-laundry-liquid-detergent-2850221926933.html?pos=34&kwd=baby laundry liquid&tags=||||8661.854|Price|product|||TS|rsf:gd-|-stype:attr=1|qr_nm:gd|res:RC4|com-cf:nl|ptrs:na|ktp:N0|mc:185084|mtp:S|qry_typ:P|lang:en|wc:3|cs:8891|v=4,Aaykay Detergents & Chemicals,https://www.acidslurry-detergents.com/?pos=34&kwd=baby laundry liquid&tags=||||8661.854|Price|product|||TS|rsf:gd-|-stype:attr=1|qr_nm:gd|res:RC4|com-cf:nl|ptrs:na|ktp:N0|mc:185084|mtp:S|qry_typ:P|lang:en|wc:3|cs:8891|v=4,True,Book Market,Ludhiana,"Adjoining Raikhy Theatre Cinema Road, Book Market, Ludhiana - 141008, Dist.Ludhiana, Punjab",8048610942,
1 kg.Concentrated Liquid Laundry Detergent (make 7kg from 1 kg concentrate),https://www.indiamart.com/proddetail/1-kg-concentrated-liquid-laundry-detergent-make-7kg-from-1-kg-concentrate-21809236430.html?pos=35&kwd=baby laundry liquid&tags=||||8368.431|Price|product|||TS|rsf:gd-|-stype:attr=1|qr_nm:gd|res:RC4|com-cf:nl|ptrs:na|ktp:N0|mc:185084|mtp:S|qry_typ:P|lang:en|wc:3|cs:8891|v=4,Sigma Industries,https://www.indiamart.com/sigmaindustries-sangli/?pos=35&kwd=baby laundry liquid&tags=||||8368.431|Price|product|||TS|rsf:gd-|-stype:attr=1|qr_nm:gd|res:RC4|com-cf:nl|ptrs:na|ktp:N0|mc:185084|mtp:S|qry_typ:P|lang:en|wc:3|cs:8891|v=4,False,Khanbhag,Sangli,"B-7/28, M.I.D.C Miraj, Near M.S.E.B, Khanbhag, Sangli - 416410, Dist.Sangli, Maharashtra",7942557514,
Laundry Detergent Liquid,https://www.indiamart.com/proddetail/laundry-detergent-liquid-2853054330630.html?pos=36&kwd=baby laundry liquid&tags=||||8038.093|Price|product|||TS|rsf:gd-|-stype:attr=1|qr_nm:gd|res:RC4|com-cf:nl|ptrs:na|ktp:N0|mc:185084|mtp:S|qry_typ:P|lang:en|wc:3|cs:8891|v=4,Shreenathji Industries,https://www.indiamart.com/shreenathjitradelink/?pos=36&kwd=baby laundry liquid&tags=||||8038.093|Price|product|||TS|rsf:gd-|-stype:attr=1|qr_nm:gd|res:RC4|com-cf:nl|ptrs:na|ktp:N0|mc:185084|mtp:S|qry_typ:P|lang:en|wc:3|cs:8891|v=4,False,Ruda Transport Nagar,Rajkot,"OPPOSITE BAPA SITARAM MADHULI,STREET NO 4 BALAJI INDUSTRIAL ZONE, PLOT NUMBER 49 KUVADVA Shreenathji Industries, Kuvadva Road,Navagam, Anandpar, Ruda Transport Nagar, Rajkot - 360001, Dist.Rajkot, Gujarat",8047637184,
"Lavender Urxy Topical Rose 2 In 1 Liquid Detergent, 5 L",https://www.indiamart.com/proddetail/urxy-topical-rose-2-in-1-liquid-detergent-2853892805033.html?pos=37&kwd=baby laundry liquid&tags=||||8228.275|Price|product|||TS|rsf:gd-|-stype:attr=1|qr_nm:gd|res:RC4|com-cf:nl|ptrs:na|ktp:N0|mc:185084|mtp:S|qry_typ:P|lang:en|wc:3|cs:8891|v=4,New J. J. Chemicals,https://www.newjjchemicals.com/?pos=37&kwd=baby laundry liquid&tags=||||8228.275|Price|product|||TS|rsf:gd-|-stype:attr=1|qr_nm:gd|res:RC4|com-cf:nl|ptrs:na|ktp:N0|mc:185084|mtp:S|qry_typ:P|lang:en|wc:3|cs:8891|v=4,False,,Ahmedabad,"Ahmedabad Merchant Co. Op. Shops and Ware Housing Soc Ltd 37-A Lambha N.I.D.C., Ahmedabad - 382405, Dist.Ahmedabad, Gujarat",8048950066,
Liquid Laundry Detergent,https://www.indiamart.com/proddetail/liquid-laundry-detergent-2853724129297.html?pos=38&kwd=baby laundry liquid&tags=||||8584.299||product|||TS|rsf:gd-|-stype:attr=1|qr_nm:gd|res:RC4|com-cf:nl|ptrs:na|ktp:N0|mc:185084|mtp:S|qry_typ:P|lang:en|wc:3|cs:8891|v=4,Sun Chemicals,https://www.sunchemicalsindia.com/?pos=38&kwd=baby laundry liquid&tags=||||8584.299||product|||TS|rsf:gd-|-stype:attr=1|qr_nm:gd|res:RC4|com-cf:nl|ptrs:na|ktp:N0|mc:185084|mtp:S|qry_typ:P|lang:en|wc:3|cs:8891|v=4,False,Ramar Koil,Coimbatore,"72, Gokhale Street, Ramar Koil, Coimbatore - 641009, Dist.Coimbatore, Tamil Nadu",8047631423,
"Lavender Blue Tulshi Liquid Laundry Detergent, 5 L",https://www.indiamart.com/proddetail/blue-tulshi-liquid-laundry-detergent-2854006234262.html?pos=39&kwd=baby laundry liquid&tags=||||8234.609|Price|product|||MDC|rsf:gd-|-stype:attr=1|qr_nm:gd|res:RC4|com-cf:nl|ptrs:na|ktp:N0|mc:185084|mtp:S|qry_typ:P|lang:en|wc:3|cs:8891|v=4,Prem Home Products,https://www.indiamart.com/premhomeproducts/?pos=39&kwd=baby laundry liquid&tags=||||8234.609|Price|product|||MDC|rsf:gd-|-stype:attr=1|qr_nm:gd|res:RC4|com-cf:nl|ptrs:na|ktp:N0|mc:185084|mtp:S|qry_typ:P|lang:en|wc:3|cs:8891|v=4,False,,Valsad,"Ground Floor, Shop No 3, Kp Complex, Chharwada, Ganesh Mega Mart, Vachla Failiya, Vapi,, Valsad - 396191, Dist.Valsad, Gujarat",7942792826,
"Jasmine Cleanile Liquid Laundry Detergent, 5 L",https://www.indiamart.com/proddetail/cleanile-liquid-laundry-detergent-2853480588433.html?pos=40&kwd=baby laundry liquid&tags=||||8814.21|Price|product|||MDC|rsf:gd-|-stype:attr=1|qr_nm:gd|res:RC4|com-cf:nl|ptrs:na|ktp:N0|mc:185084|mtp:S|qry_typ:P|lang:en|wc:3|cs:8891|v=4,Aditya Enterprises,https://www.indiamart.com/aditya-enterprises-morena/?pos=40&kwd=baby laundry liquid&tags=||||8814.21|Price|product|||MDC|rsf:gd-|-stype:attr=1|qr_nm:gd|res:RC4|com-cf:nl|ptrs:na|ktp:N0|mc:185084|mtp:S|qry_typ:P|lang:en|wc:3|cs:8891|v=4,False,Maharajpur,Morena,"Pipal Wali Gali, Gopalpura, Maharajpur, Morena - 476001, Dist.Morena, Madhya Pradesh",7949093321,
"Laundry Liquid Detergent, 1 L",https://www.indiamart.com/proddetail/laundry-liquid-detergent-2849359059448.html?pos=41&kwd=baby laundry liquid&tags=||||8228.275|Price|product|||TS|rsf:gd-|-stype:attr=1|qr_nm:gd|res:RC4|com-cf:nl|ptrs:na|ktp:N0|mc:185084|mtp:S|qry_typ:P|lang:en|wc:3|cs:8891|v=4,Gujarat Petro Chem,https://www.indiamart.com/gujaratpetrochem/?pos=41&kwd=baby laundry liquid&tags=||||8228.275|Price|product|||TS|rsf:gd-|-stype:attr=1|qr_nm:gd|res:RC4|com-cf:nl|ptrs:na|ktp:N0|mc:185084|mtp:S|qry_typ:P|lang:en|wc:3|cs:8891|v=4,False,Shahpur,Ahmedabad,"Near Preyas High School, Behind Labela Restaurant, Khanpur, Shahpur, Ahmedabad - 380001, Dist.Ahmedabad, Gujarat",8048961986,
"Lavender Laundry Detergent Liquid, 1 L",https://www.indiamart.com/proddetail/laundry-detergent-liquid-26456920291.html?pos=42&kwd=baby laundry liquid&tags=||||8038.093|Price|product|||TS|rsf:gd-|-stype:attr=1|qr_nm:gd|res:RC4|com-cf:nl|ptrs:na|ktp:N0|mc:185084|mtp:S|qry_typ:P|lang:en|wc:3|cs:8891|v=4,Sindhu Chemical Products,https://www.indiamart.com/sindhuchemicalproducts-rajkot/?pos=42&kwd=baby laundry liquid&tags=||||8038.093|Price|product|||TS|rsf:gd-|-stype:attr=1|qr_nm:gd|res:RC4|com-cf:nl|ptrs:na|ktp:N0|mc:185084|mtp:S|qry_typ:P|lang:en|wc:3|cs:8891|v=4,True,Bedi,Rajkot,"Morbi Highway, Bedi Gam, Bedi, Rajkot - 360003, Dist.Rajkot, Gujarat",8046069970,
Egret Liquid Detergent,https://www.indiamart.com/proddetail/egret-liquid-detergent-27336730988.html?pos=43&kwd=baby laundry liquid&tags=||||8786.56|Price|product|||TS|rsf:gd-|-stype:attr=1|qr_nm:gd|res:RC4|com-cf:nl|ptrs:na|ktp:N0|mc:185084|mtp:S|qry_typ:P|lang:en|wc:3|cs:8891|v=4,Dhaswika Detergents,https://www.indiamart.com/dhaswika-detergents/?pos=43&kwd=baby laundry liquid&tags=||||8786.56|Price|product|||TS|rsf:gd-|-stype:attr=1|qr_nm:gd|res:RC4|com-cf:nl|ptrs:na|ktp:N0|mc:185084|mtp:S|qry_typ:P|lang:en|wc:3|cs:8891|v=4,False,Kukatpally,Hyderabad,"H.No 5-5-35/17/1, Plot No 71,MTR Nilayam,, Prasanth Nagar, Kukatpally, Medchal-Malkajgiri District, Kukatpally, Hyderabad - 500072, Dist.Hyderabad, Telangana",8043893520,
Liquid Detergent,https://www.indiamart.com/proddetail/liquid-detergent-25303828033.html?pos=44&kwd=baby laundry liquid&tags=||||8954.051|Price|product|||TS|rsf:gd-|-stype:attr=1|qr_nm:gd|res:RC4|com-cf:nl|ptrs:na|ktp:N0|mc:185084|mtp:S|qry_typ:P|lang:en|wc:3|cs:8891|v=4,Excellence Supply Co,https://www.excellencesupply.com/?pos=44&kwd=baby laundry liquid&tags=||||8954.051|Price|product|||TS|rsf:gd-|-stype:attr=1|qr_nm:gd|res:RC4|com-cf:nl|ptrs:na|ktp:N0|mc:185084|mtp:S|qry_typ:P|lang:en|wc:3|cs:8891|v=4,False,Mannady,Chennai,"25 Mookernalla Muthu Street, Mannady, Chennai - 600001, Dist.Chennai, Tamil Nadu",8048978955,
Liquid Detergent Bottle 1000ml,https://www.indiamart.com/proddetail/liquid-detergent-bottle-1000ml-2850480401830.html?pos=45&kwd=baby laundry liquid&tags=||||8237.873|Price|product|||TS|rsf:gd-|-stype:attr=1|qr_nm:gd|res:RC4|com-cf:nl|ptrs:na|ktp:N0|mc:185084|mtp:S|qry_typ:P|lang:en|wc:3|cs:8891|v=4,Shivam Packaging,https://www.plasticcapsandbottle.com/?pos=45&kwd=baby laundry liquid&tags=||||8237.873|Price|product|||TS|rsf:gd-|-stype:attr=1|qr_nm:gd|res:RC4|com-cf:nl|ptrs:na|ktp:N0|mc:185084|mtp:S|qry_typ:P|lang:en|wc:3|cs:8891|v=4,False,Amroli Sayan Road,Sayan,"144, Anjani Ind Estate, Godhan, Amroli Sayan Road, Sayan - 394130, Dist.Surat, Gujarat",8047300732,
Lavender 5 L Liquid Detergent,https://www.indiamart.com/proddetail/5-l-liquid-detergent-2854099252112.html?pos=46&kwd=baby laundry liquid&tags=||||8584.299||product|||TS|rsf:gd-|-stype:attr=1|qr_nm:gd|res:RC4|com-cf:nl|ptrs:na|ktp:N0|mc:185084|mtp:S|qry_typ:P|lang:en|wc:3|cs:8891|v=4,KR & Sons,https://www.indiamart.com/kr-sons-coimbatore/?pos=46&kwd=baby laundry liquid&tags=||||8584.299||product|||TS|rsf:gd-|-stype:attr=1|qr_nm:gd|res:RC4|com-cf:nl|ptrs:na|ktp:N0|mc:185084|mtp:S|qry_typ:P|lang:en|wc:3|cs:8891|v=4,False,Ganapathy,Coimbatore,"Ground Floor, 69/31 32a, Isaqu Street, Ganapathy, Coimbatore - 641027, Dist.Coimbatore, Tamil Nadu",8044562566,
Jasmine 500ml Eco Clinz Fabric Liquid Detergent,https://www.indiamart.com/proddetail/500ml-eco-clinz-fabric-liquid-detergent-2851665623833.html?pos=47&kwd=baby laundry liquid&tags=||||8786.56|Price|product|||TS|rsf:gd-|-stype:attr=1|qr_nm:gd|res:RC4|com-cf:nl|ptrs:na|ktp:N0|mc:185084|mtp:S|qry_typ:P|lang:en|wc:3|cs:8891|v=4,Premala Industries,https://www.indiamart.com/premalaindustriestelangana/?pos=47&kwd=baby laundry liquid&tags=||||8786.56|Price|product|||TS|rsf:gd-|-stype:attr=1|qr_nm:gd|res:RC4|com-cf:nl|ptrs:na|ktp:N0|mc:185084|mtp:S|qry_typ:P|lang:en|wc:3|cs:8891|v=4,False,Mallampet,Hyderabad,"Plot No 1-53, Flat No 204, Near Gram Panchayat, Nizampet, Mallampet, Hyderabad - 500090, Dist.Hyderabad, Telangana",7942871610,
"Regal Detergent Liquid Manufacturers in Chennai, 1 L",https://www.indiamart.com/proddetail/regal-detergent-liquid-manufacturers-in-chennai-22503118912.html?pos=48&kwd=baby laundry liquid&tags=||||8954.051|Price|product|||TS|rsf:gd-|-stype:attr=1|qr_nm:gd|res:RC4|com-cf:nl|ptrs:na|ktp:N0|mc:185084|mtp:S|qry_typ:P|lang:en|wc:3|cs:8891|v=4,Lesun Soaps Private Limited,https://www.lesundetergents.in/?pos=48&kwd=baby laundry liquid&tags=||||8954.051|Price|product|||TS|rsf:gd-|-stype:attr=1|qr_nm:gd|res:RC4|com-cf:nl|ptrs:na|ktp:N0|mc:185084|mtp:S|qry_typ:P|lang:en|wc:3|cs:8891|v=4,False,Kodungaiyur,Chennai,"No. 7A, Abirami Avenue 12th Street, Kodungaiyur, Kodungaiyur, Chennai - 600118, Dist.Chennai, Tamil Nadu",8046047887,
Liquid Detergent Concentrate (6x),https://www.indiamart.com/proddetail/liquid-detergent-concentrate-6x-23178051530.html?pos=49&kwd=baby laundry liquid&tags=||||8876.815|Price|product|||TS|rsf:gd-|-stype:attr=1|qr_nm:gd|res:RC4|com-cf:nl|ptrs:na|ktp:N0|mc:185084|mtp:S|qry_typ:P|lang:en|wc:3|cs:8891|v=4,Akash Udyog,https://www.akashudyog.co.in/?pos=49&kwd=baby laundry liquid&tags=||||8876.815|Price|product|||TS|rsf:gd-|-stype:attr=1|qr_nm:gd|res:RC4|com-cf:nl|ptrs:na|ktp:N0|mc:185084|mtp:S|qry_typ:P|lang:en|wc:3|cs:8891|v=4,False,Wathoda,Nagpur,"Plot No. 34, Wathoda, Nagpur - 440008, Dist.Nagpur, Maharashtra",7942542689,
"Dr. K+Plus Premium Quality Fabric liquid, For Laundry, 5 L",https://www.indiamart.com/proddetail/dr-k-plus-premium-quality-fabric-liquid-2854021423930.html?pos=50&kwd=baby laundry liquid&tags=||||8559.269|Price|product|||TS|rsf:gd-|-stype:attr=1|qr_nm:gd|res:RC4|com-cf:nl|ptrs:na|ktp:N0|mc:185084|mtp:S|qry_typ:P|lang:en|wc:3|cs:8891|v=4,Plus Kamal Chemicals And Pharmaceuticals Private Limited,https://www.indiamart.com/plus-kamal-chemicals/?pos=50&kwd=baby laundry liquid&tags=||||8559.269|Price|product|||TS|rsf:gd-|-stype:attr=1|qr_nm:gd|res:RC4|com-cf:nl|ptrs:na|ktp:N0|mc:185084|mtp:S|qry_typ:P|lang:en|wc:3|cs:8891|v=4,False,Bhagyashree Colony,Indore,"PU 4, Plot No. 7, A.B Road, Bhagyashree Colony, Indore - 452010, Dist.Indore, Madhya Pradesh",7942960549,
"DETERGENT LIQUID, 5 L",https://www.indiamart.com/proddetail/detergent-liquid-2854859488333.html?pos=51&kwd=baby laundry liquid&tags=||||8223.226|Price|product|||TS|rsf:gd-|-stype:attr=1|qr_nm:gd|res:RC4|com-cf:nl|ptrs:na|ktp:N0|mc:185084|mtp:S|qry_typ:P|lang:en|wc:3|cs:8891|v=4,S P Group Of Services LLP,https://www.artholistik.in/?pos=51&kwd=baby laundry liquid&tags=||||8223.226|Price|product|||TS|rsf:gd-|-stype:attr=1|qr_nm:gd|res:RC4|com-cf:nl|ptrs:na|ktp:N0|mc:185084|mtp:S|qry_typ:P|lang:en|wc:3|cs:8891|v=4,False,Dombivli East,Thane,"A-102, Vitthal Plaza, Kalyan Road, Dombivli-East, Dombivli East, Thane - 421200, Dist.Thane, Maharashtra",8047660182,
"Laundry Detergent Powder, Packaging Type: Bag, Packaging Size: 1 KG",https://www.indiamart.com/proddetail/laundry-detergent-powder-12393824433.html?pos=52&kwd=baby laundry liquid&tags=||||8228.275|Price|product|||TS|rsf:gd-|-stype:attr=1|qr_nm:gd|res:RC4|com-cf:nl|ptrs:na|ktp:N0|mc:185084|mtp:S|qry_typ:P|lang:en|wc:3|cs:8891|v=4,Kavit Polybind Private Limited,https://www.keishasanitizer.com/?pos=52&kwd=baby laundry liquid&tags=||||8228.275|Price|product|||TS|rsf:gd-|-stype:attr=1|qr_nm:gd|res:RC4|com-cf:nl|ptrs:na|ktp:N0|mc:185084|mtp:S|qry_typ:P|lang:en|wc:3|cs:8891|v=4,False,Paraskunj Society,Ahmedabad,"G-512, Titanium City Center, Near Shyamal Cross Road, Satellite, Paraskunj Society, Ahmedabad - 380015, Dist.Ahmedabad, Gujarat",8046040742,
Liquid Detergent 5LITRE,https://www.indiamart.com/proddetail/liquid-detergent-5litre-27626596088.html?pos=53&kwd=baby laundry liquid&tags=||||8706.263|Price|product|||TS|rsf:gd-|-stype:attr=1|qr_nm:gd|res:RC4|com-cf:nl|ptrs:na|ktp:N0|mc:185084|mtp:S|qry_typ:P|lang:en|wc:3|cs:8891|v=4,Pearl Home Care,https://www.indiamart.com/pearlhomecare/?pos=53&kwd=baby laundry liquid&tags=||||8706.263|Price|product|||TS|rsf:gd-|-stype:attr=1|qr_nm:gd|res:RC4|com-cf:nl|ptrs:na|ktp:N0|mc:185084|mtp:S|qry_typ:P|lang:en|wc:3|cs:8891|v=4,False,Vengamedu,Karur,"97 Pillaiyarkovil Street Vengamedu, Vengamedu, Karur - 639006, Dist.Karur, Tamil Nadu",7942548790,
Lemon Hi Clean 5 L Liquid Detergent,https://www.indiamart.com/proddetail/hi-clean-5-l-liquid-detergent-2850457037562.html?pos=54&kwd=baby laundry liquid&tags=||||8954.051|Price|product|||TS|rsf:gd-|-stype:attr=1|qr_nm:gd|res:RC4|com-cf:nl|ptrs:na|ktp:N0|mc:185084|mtp:S|qry_typ:P|lang:en|wc:3|cs:8891|v=4,Rudra E-Store Solutions,https://www.indiamart.com/kalpvrukshitworld/?pos=54&kwd=baby laundry liquid&tags=||||8954.051|Price|product|||TS|rsf:gd-|-stype:attr=1|qr_nm:gd|res:RC4|com-cf:nl|ptrs:na|ktp:N0|mc:185084|mtp:S|qry_typ:P|lang:en|wc:3|cs:8891|v=4,False,Royapettah,Chennai,"First Floor, No.5, Chella Pillayar Koil, Triplicane, Royapettah, Chennai - 600014, Dist.Chennai, Tamil Nadu",8048619135,
"Stay Pure Detergent Liquid, Packaging Type: Plastic Bottle",https://www.indiamart.com/proddetail/stay-pure-detergent-liquid-24137972788.html?pos=55&kwd=baby laundry liquid&tags=||||8717.056|Price|product|||TS|rsf:gd-|-stype:attr=1|qr_nm:gd|res:RC4|com-cf:nl|ptrs:na|ktp:N0|mc:185084|mtp:S|qry_typ:P|lang:en|wc:3|cs:8891|v=4,Limpiar Enterprises,https://www.indiamart.com/limpiarenterprises/?pos=55&kwd=baby laundry liquid&tags=||||8717.056|Price|product|||TS|rsf:gd-|-stype:attr=1|qr_nm:gd|res:RC4|com-cf:nl|ptrs:na|ktp:N0|mc:185084|mtp:S|qry_typ:P|lang:en|wc:3|cs:8891|v=4,False,karuppur,Salem,"62, Sidco Womens Industrial Estate, Karuppur, karuppur, Salem - 636012, Dist.Salem, Tamil Nadu",8048985000,
"Floral Wyko Laundry Wash Concentrate, Packaging Size: 50 L, Packaging Type: Plastic Barrel",https://www.indiamart.com/proddetail/wyko-laundry-wash-concentrate-21993415112.html?pos=56&kwd=baby laundry liquid&tags=||||8641.487|Price|product|||TS|rsf:gd-|-stype:attr=1|qr_nm:gd|res:RC4|com-cf:nl|ptrs:na|ktp:N0|mc:185084|mtp:S|qry_typ:P|lang:en|wc:3|cs:8891|v=4,Jangra Chemicals Private Limited,https://www.jangrachem.com/?pos=56&kwd=baby laundry liquid&tags=||||8641.487|Price|product|||TS|rsf:gd-|-stype:attr=1|qr_nm:gd|res:RC4|com-cf:nl|ptrs:na|ktp:N0|mc:185084|mtp:S|qry_typ:P|lang:en|wc:3|cs:8891|v=4,False,Lidhran,Jalandhar,"Udyog Nagar, Gudaipur, Lidhran, Jalandhar - 144004, Dist.Jalandhar, Punjab",8048610643,
"ASUR Detergent Liquid, 1l,5 L",https://www.indiamart.com/proddetail/asur-detergent-liquid-2849318079055.html?pos=57&kwd=baby laundry liquid&tags=||||8954.051|Price|product|||TS|rsf:gd-|-stype:attr=1|qr_nm:gd|res:RC4|com-cf:nl|ptrs:na|ktp:N0|mc:185084|mtp:S|qry_typ:P|lang:en|wc:3|cs:8891|v=4,Raayan Industries,https://www.indiamart.com/raayan-industries/?pos=57&kwd=baby laundry liquid&tags=||||8954.051|Price|product|||TS|rsf:gd-|-stype:attr=1|qr_nm:gd|res:RC4|com-cf:nl|ptrs:na|ktp:N0|mc:185084|mtp:S|qry_typ:P|lang:en|wc:3|cs:8891|v=4,False,Kosapur,Chennai,"S F No.209/1 P.No.108,Kosappur Main Road,Madavaram, Kosapur, Chennai - 600060, Dist.Chennai, Tamil Nadu",7942789124,
"Blosom Blue Lexa Liquid Detergent, Packaging Type: can, Packaging Size: 5 Litre",https://www.indiamart.com/proddetail/lexa-liquid-detergent-22970950588.html?pos=58&kwd=baby laundry liquid&tags=||||8954.051||product|||TS|rsf:gd-|-stype:attr=1|qr_nm:gd|res:RC4|com-cf:nl|ptrs:na|ktp:N0|mc:185084|mtp:S|qry_typ:P|lang:en|wc:3|cs:8891|v=4,LEXA Industries,https://www.lexaindustries.com/?pos=58&kwd=baby laundry liquid&tags=||||8954.051||product|||TS|rsf:gd-|-stype:attr=1|qr_nm:gd|res:RC4|com-cf:nl|ptrs:na|ktp:N0|mc:185084|mtp:S|qry_typ:P|lang:en|wc:3|cs:8891|v=4,False,,Chennai,"Ground Floor, No.56, Kanniaamman Nagar Vadaperumbakkam, Madhavaram, Chennai - 600060, Dist.Chennai, Tamil Nadu",8046049886,
All Laundry Detergent,https://www.indiamart.com/proddetail/all-laundry-detergent-24283013248.html?pos=59&kwd=baby laundry liquid&tags=||||8228.275|Price|product|||TS|rsf:gd-|-stype:attr=1|qr_nm:gd|res:RC4|com-cf:nl|ptrs:na|ktp:N0|mc:185084|mtp:S|qry_typ:P|lang:en|wc:3|cs:8891|v=4,Kiz Home Care,https://www.kizindia.com/?pos=59&kwd=baby laundry liquid&tags=||||8228.275|Price|product|||TS|rsf:gd-|-stype:attr=1|qr_nm:gd|res:RC4|com-cf:nl|ptrs:na|ktp:N0|mc:185084|mtp:S|qry_typ:P|lang:en|wc:3|cs:8891|v=4,False,Vishala,Ahmedabad,"Vasna Toll Naka, Ground Floor, S No.519/2, Partner,New Evrest Motors, Naroda Link Road, Juhapura,, Vishala, Ahmedabad - 380055, Dist.Ahmedabad, Gujarat",8046037732,
Lavender POWERMAXX Power Multi Laundry Detergent,https://www.indiamart.com/proddetail/powermaxx-power-multi-laundry-detergent-2851873768648.html?pos=60&kwd=baby laundry liquid&tags=||||8823.154|Price|product|||TS|rsf:gd-|-stype:attr=1|qr_nm:gd|res:RC4|com-cf:nl|ptrs:na|ktp:N0|mc:185084|mtp:S|qry_typ:P|lang:en|wc:3|cs:8891|v=4,Powermaxx Chemical Solutions,https://www.indiamart.com/powermaxx-chemical-solutions/?pos=60&kwd=baby laundry liquid&tags=||||8823.154|Price|product|||TS|rsf:gd-|-stype:attr=1|qr_nm:gd|res:RC4|com-cf:nl|ptrs:na|ktp:N0|mc:185084|mtp:S|qry_typ:P|lang:en|wc:3|cs:8891|v=4,False,Sikandra,Agra,"Khsra No.413, Mauja Babarpur,K.K. Nagar, Sikandra, Mustkil Shiv Kunj, Runkata, Sikandra, Agra - 282007, Dist.Agra, Uttar Pradesh",8047835632,
"Lemon Laundry Liquid Detergent, 1 L",https://www.indiamart.com/proddetail/laundry-liquid-detergent-25634683791.html?pos=61&kwd=baby laundry liquid&tags=||||8228.275|Price|product|||TS|rsf:gd-|-stype:attr=1|qr_nm:gd|res:RC4|com-cf:nl|ptrs:na|ktp:N0|mc:185084|mtp:S|qry_typ:P|lang:en|wc:3|cs:8891|v=4,Patel Chem Tech Industries,https://www.patelchemicals.com/?pos=61&kwd=baby laundry liquid&tags=||||8228.275|Price|product|||TS|rsf:gd-|-stype:attr=1|qr_nm:gd|res:RC4|com-cf:nl|ptrs:na|ktp:N0|mc:185084|mtp:S|qry_typ:P|lang:en|wc:3|cs:8891|v=4,False,Narol,Ahmedabad,"Patel Estate , Shahwadi Road,Ranipur Patia,Opp Cozy Hotel ,Narol, Narol, Ahmedabad - 382405, Dist.Ahmedabad, Gujarat",8047656328,
Jasmine Fabric Liquid Detergent,https://www.indiamart.com/proddetail/fabric-liquid-detergent-22835983430.html?pos=62&kwd=baby laundry liquid&tags=||||8559.269|Price|product|||TS|rsf:gd-|-stype:attr=1|qr_nm:gd|res:RC4|com-cf:nl|ptrs:na|ktp:N0|mc:185084|mtp:S|qry_typ:P|lang:en|wc:3|cs:8891|v=4,Alok Industries,https://www.alokindustries.co.in/?pos=62&kwd=baby laundry liquid&tags=||||8559.269|Price|product|||TS|rsf:gd-|-stype:attr=1|qr_nm:gd|res:RC4|com-cf:nl|ptrs:na|ktp:N0|mc:185084|mtp:S|qry_typ:P|lang:en|wc:3|cs:8891|v=4,False,Ram Bagh,Indore,"216-B, Palsikar Colony Near Juni Indore Police Station, Ram Bagh, Indore - 452007, Dist.Indore, Madhya Pradesh",8048950832,
WINSHINE Detergent Washing Liquid,https://www.indiamart.com/proddetail/winshine-detergent-washing-liquid-2852700466888.html?pos=63&kwd=baby laundry liquid&tags=||||8228.275|Price|product|||TS|rsf:gd-|-stype:attr=1|qr_nm:gd|res:RC4|com-cf:nl|ptrs:na|ktp:N0|mc:185084|mtp:S|qry_typ:P|lang:en|wc:3|cs:8891|v=4,Winshine Enterprise,https://www.indiamart.com/winshine-enterprise/?pos=63&kwd=baby laundry liquid&tags=||||8228.275|Price|product|||TS|rsf:gd-|-stype:attr=1|qr_nm:gd|res:RC4|com-cf:nl|ptrs:na|ktp:N0|mc:185084|mtp:S|qry_typ:P|lang:en|wc:3|cs:8891|v=4,False,Bakrol,Ahmedabad,"417, Gopal Charan Ind Hub, Bakrol, Vill Bakrol Bujrang, Bakrol, Ahmedabad - 382430, Dist.Ahmedabad, Gujarat",8048610968,
"Liquid Detergent Gel, 5 L",https://www.indiamart.com/proddetail/liquid-detergent-gel-2853900774697.html?pos=64&kwd=baby laundry liquid&tags=||||8228.275|Price|product|||TS|rsf:gd-|-stype:attr=1|qr_nm:gd|res:RC4|com-cf:nl|ptrs:na|ktp:N0|mc:185084|mtp:S|qry_typ:P|lang:en|wc:3|cs:8891|v=4,Maa Khodal Chemicals,https://www.indiamart.com/maa-khodal-chemicals/?pos=64&kwd=baby laundry liquid&tags=||||8228.275|Price|product|||TS|rsf:gd-|-stype:attr=1|qr_nm:gd|res:RC4|com-cf:nl|ptrs:na|ktp:N0|mc:185084|mtp:S|qry_typ:P|lang:en|wc:3|cs:8891|v=4,False,Odhav Industrial Estate,Ahmedabad,"65, Vishala West Industrial Estate, Odhav, Odhav Industrial Estate, Ahmedabad - 382415, Dist.Ahmedabad, Gujarat",7942532024,
500ml Liquid detergent,https://www.indiamart.com/proddetail/500ml-liquid-detergent-2853047668673.html?pos=65&kwd=baby laundry liquid&tags=||||9111.322|Price|product|||TS|rsf:gd-|-stype:attr=1|qr_nm:gd|res:RC4|com-cf:nl|ptrs:na|ktp:N0|mc:185084|mtp:S|qry_typ:P|lang:en|wc:3|cs:8891|v=4,Swaraj Kutir Udyog,https://www.indiamart.com/swaraj-kutir-udyog/?pos=65&kwd=baby laundry liquid&tags=||||9111.322|Price|product|||TS|rsf:gd-|-stype:attr=1|qr_nm:gd|res:RC4|com-cf:nl|ptrs:na|ktp:N0|mc:185084|mtp:S|qry_typ:P|lang:en|wc:3|cs:8891|v=4,False,Supela,Bhilai,"Ayyapa Nagar,House No.-144,Kohka Bhilai,Supela Bhilai,, Supela, Bhilai - 490023, Dist.Durg, Chhattisgarh",7942657010,
Upto 150 Gm Braxo (Detergent Soap),https://www.indiamart.com/proddetail/braxo-detergent-soap-2133107162.html?pos=66&kwd=baby laundry liquid&tags=||||8752.144|Price|product|||TS|rsf:gd-|-stype:attr=1|qr_nm:gd|res:RC4|com-cf:nl|ptrs:na|ktp:N0|mc:185084|mtp:S|qry_typ:P|lang:en|wc:3|cs:8891|v=4,Novochem Resources Private Limited,https://www.indiamart.com/novochemresources/?pos=66&kwd=baby laundry liquid&tags=||||8752.144|Price|product|||TS|rsf:gd-|-stype:attr=1|qr_nm:gd|res:RC4|com-cf:nl|ptrs:na|ktp:N0|mc:185084|mtp:S|qry_typ:P|lang:en|wc:3|cs:8891|v=4,False,Dhulsiras,New Delhi,"G.F. PLOT NO. K.NO. 17/2 LAL DORA FIRNI A-Block, POCHANPU, Dhulsiras, New Delhi - 110077, Dist.Delhi, Delhi",8046060035,
"Washing Machine Detergent Concentrate, 50 L",https://www.indiamart.com/proddetail/washing-machine-detergent-concentrate-22494502955.html?pos=67&kwd=baby laundry liquid&tags=||||8228.275|Price|product|||TS|rsf:gd-|-stype:attr=1|qr_nm:gd|res:RC4|com-cf:nl|ptrs:na|ktp:N0|mc:185084|mtp:S|qry_typ:P|lang:en|wc:3|cs:8891|v=4,Conums Enterprise,https://www.indiamart.com/conumsenterprise/?pos=67&kwd=baby laundry liquid&tags=||||8228.275|Price|product|||TS|rsf:gd-|-stype:attr=1|qr_nm:gd|res:RC4|com-cf:nl|ptrs:na|ktp:N0|mc:185084|mtp:S|qry_typ:P|lang:en|wc:3|cs:8891|v=4,False,Thakkarbapa Nagar,Ahmedabad,"1054/3, 13-A, Gokul Apartment, Dhwarkesh Dham SOC Part-2, Nr.badrinarayan SOC, Opp Pulin Park , Thakkarbapa Nagar, Thakkarbapa Nagar, Ahmedabad - 382350, Dist.Ahmedabad, Gujarat",7942535115,
"Lavender Feona Liquid Detergent, 1liter,5liter",https://www.indiamart.com/proddetail/feona-liquid-detergent-21214515348.html?pos=68&kwd=baby laundry liquid&tags=||||8228.275|Price|product|||TS|rsf:gd-|-stype:attr=1|qr_nm:gd|res:RC4|com-cf:nl|ptrs:na|ktp:N0|mc:185084|mtp:S|qry_typ:P|lang:en|wc:3|cs:8891|v=4,Autus Nanolab Private Limited,https://www.autusnanolab.com/?pos=68&kwd=baby laundry liquid&tags=||||8228.275|Price|product|||TS|rsf:gd-|-stype:attr=1|qr_nm:gd|res:RC4|com-cf:nl|ptrs:na|ktp:N0|mc:185084|mtp:S|qry_typ:P|lang:en|wc:3|cs:8891|v=4,False,,Ahmedabad,"2nd, A -203, Krupal Bachpan, Sahara City Road, HP Pan Parlour & Provision Store, Shela, Ahmedabad - 380058, Dist.Ahmedabad, Gujarat",8048957152,
"Lavender Wopper LD, 2 Kg",https://www.indiamart.com/proddetail/wopper-ld-2853171526248.html?pos=69&kwd=baby laundry liquid&tags=||||8954.051|Price|product|||TS|rsf:gd-|-stype:attr=1|qr_nm:gd|res:RC4|com-cf:nl|ptrs:na|ktp:N0|mc:185084|mtp:S|qry_typ:P|lang:en|wc:3|cs:8891|v=4,Shri Meera Labs Private Limited,https://www.indiamart.com/shrimeeralabs/?pos=69&kwd=baby laundry liquid&tags=||||8954.051|Price|product|||TS|rsf:gd-|-stype:attr=1|qr_nm:gd|res:RC4|com-cf:nl|ptrs:na|ktp:N0|mc:185084|mtp:S|qry_typ:P|lang:en|wc:3|cs:8891|v=4,False,Alapakkam,Chennai,"New No 13, Old No 12, Ist Main Road, Ekambaram Industrial Estate, Alapakkam, Alapakkam, Chennai - 600116, Dist.Chennai, Tamil Nadu",8048957912,
"Sodium Lauryl Ether Sulphate Sles 70, Paste 70%",https://www.indiamart.com/proddetail/sodium-lauryl-ether-sulphate-sles-70-2854469244155.html?pos=70&kwd=baby laundry liquid&tags=||||8230.883|Price|product|||TS|rsf:gd-|-stype:attr=1|qr_nm:gd|res:RC4|com-cf:nl|ptrs:na|ktp:N0|mc:185084|mtp:S|qry_typ:P|lang:en|wc:3|cs:8891|v=4,Redicalchem,https://www.indiamart.com/redicalchem/?pos=70&kwd=baby laundry liquid&tags=||||8230.883|Price|product|||TS|rsf:gd-|-stype:attr=1|qr_nm:gd|res:RC4|com-cf:nl|ptrs:na|ktp:N0|mc:185084|mtp:S|qry_typ:P|lang:en|wc:3|cs:8891|v=4,False,Kosad,Surat,"First Floor, 48,Gruham Icon, Kosad, Kosad, Surat - 394107, Dist.Surat, Gujarat",7942570769,
"Lavender Concentrated Liquid Laundry Detergent-5x, 50 Kg",https://www.indiamart.com/proddetail/concentrated-liquid-laundry-detergent-5x-2853232444262.html?pos=71&kwd=baby laundry liquid&tags=||||8228.275|Price|product|||TS|rsf:gd-|-stype:attr=1|qr_nm:gd|res:RC4|com-cf:nl|ptrs:na|ktp:N0|mc:185084|mtp:S|qry_typ:P|lang:en|wc:3|cs:8891|v=4,Shree Ganesh Chemicals,https://www.sgchem.in/?pos=71&kwd=baby laundry liquid&tags=||||8228.275|Price|product|||TS|rsf:gd-|-stype:attr=1|qr_nm:gd|res:RC4|com-cf:nl|ptrs:na|ktp:N0|mc:185084|mtp:S|qry_typ:P|lang:en|wc:3|cs:8891|v=4,False,Isanpur,Ahmedabad,"Chitre Kutir, Amit Park, Opposite Vishal Nagar Isanpur, Isanpur, Ahmedabad - 382443, Dist.Ahmedabad, Gujarat",8046030809,
Nebula Liquid Laundry Detergent 5 ltrs.,https://www.indiamart.com/proddetail/nebula-liquid-laundry-detergent-5-ltrs-2853645076033.html?pos=72&kwd=baby laundry liquid&tags=||||8211.142|Price|product|||TS|rsf:gd-|-stype:attr=1|qr_nm:gd|res:RC4|com-cf:nl|ptrs:na|ktp:N0|mc:185084|mtp:S|qry_typ:P|lang:en|wc:3|cs:8891|v=4,Neechem Industries,https://www.indiamart.com/neechemindustries/?pos=72&kwd=baby laundry liquid&tags=||||8211.142|Price|product|||TS|rsf:gd-|-stype:attr=1|qr_nm:gd|res:RC4|com-cf:nl|ptrs:na|ktp:N0|mc:185084|mtp:S|qry_typ:P|lang:en|wc:3|cs:8891|v=4,False,Andheri East,Mumbai,"24 & 28, New Apolo Industrial Estate, Mogra Village, Andheri East, Mumbai - 400069, Dist.Mumbai, Maharashtra",8046031491,
Lavender Liquid Laundry Detergent,https://www.indiamart.com/proddetail/liquid-laundry-detergent-2852359916791.html?pos=73&kwd=baby laundry liquid&tags=||||8559.269|Price|product|||TS|rsf:gd-|-stype:attr=1|qr_nm:gd|res:RC4|com-cf:nl|ptrs:na|ktp:N0|mc:185084|mtp:S|qry_typ:P|lang:en|wc:3|cs:8891|v=4,Anil Shree Industries,https://www.cleanart.co.in/?pos=73&kwd=baby laundry liquid&tags=||||8559.269|Price|product|||TS|rsf:gd-|-stype:attr=1|qr_nm:gd|res:RC4|com-cf:nl|ptrs:na|ktp:N0|mc:185084|mtp:S|qry_typ:P|lang:en|wc:3|cs:8891|v=4,False,Loknayak Nagar,Indore,"89/b shikshak Nagar Airport road Indore, Loknayak Nagar, Indore - 452005, Dist.Indore, Madhya Pradesh",8046039584,
"Liquid Detergent Nature Bloom, 50 Kg",https://www.indiamart.com/proddetail/liquid-detergent-nature-bloom-2853000143930.html?pos=74&kwd=baby laundry liquid&tags=||||8663.873|Price|product|||TS|rsf:gd-|-stype:attr=1|qr_nm:gd|res:RC4|com-cf:nl|ptrs:na|ktp:N0|mc:185084|mtp:S|qry_typ:P|lang:en|wc:3|cs:8891|v=4,Shree Lakshmi Chemicals,https://www.indiamart.com/shreelakshmichemicals/?pos=74&kwd=baby laundry liquid&tags=||||8663.873|Price|product|||TS|rsf:gd-|-stype:attr=1|qr_nm:gd|res:RC4|com-cf:nl|ptrs:na|ktp:N0|mc:185084|mtp:S|qry_typ:P|lang:en|wc:3|cs:8891|v=4,False,Bedarahalli,Bengaluru,"No126 127, Ramachandrappa Circle, Hill Rock School Main Road, Brahmadevaragunte, Kodigehalli Village, Bedarahalli, Bengaluru - 560091, Dist.Bengaluru, Karnataka",8046031132,
Lavender Liquid Detergent Concentrate,https://www.indiamart.com/proddetail/liquid-detergent-concentrate-22613014897.html?pos=75&kwd=baby laundry liquid&tags=||||8228.275|Price|product|||TS|rsf:gd-|-stype:attr=1|qr_nm:gd|res:RC4|com-cf:nl|ptrs:na|ktp:N0|mc:185084|mtp:S|qry_typ:P|lang:en|wc:3|cs:8891|v=4,Trividh Hygiene,https://www.indiamart.com/trividh-hygiene/?pos=75&kwd=baby laundry liquid&tags=||||8228.275|Price|product|||TS|rsf:gd-|-stype:attr=1|qr_nm:gd|res:RC4|com-cf:nl|ptrs:na|ktp:N0|mc:185084|mtp:S|qry_typ:P|lang:en|wc:3|cs:8891|v=4,False,Vatva,Ahmedabad,"4/B, Suryamandir Co. OP H Society, NR Devimatajinu Mandir, Vatva, Vatva, Ahmedabad - 382440, Dist.Ahmedabad, Gujarat",8047632768,
"mix Buzil-Rossari Clean Wash Liquid Detergent, Packaging Type: Plastic Bottle, Packaging Size: 1 Ltr",https://www.indiamart.com/proddetail/buzil-rossari-clean-wash-liquid-detergent-23874577312.html?pos=76&kwd=baby laundry liquid&tags=||||8307.81|Price|product|||TS|rsf:gd-|-stype:attr=1|qr_nm:gd|res:RC4|com-cf:nl|ptrs:na|ktp:N0|mc:185084|mtp:S|qry_typ:P|lang:en|wc:3|cs:8891|v=4,Ramdev Enterprise,https://www.indiamart.com/ramdeventerprise/?pos=76&kwd=baby laundry liquid&tags=||||8307.81|Price|product|||TS|rsf:gd-|-stype:attr=1|qr_nm:gd|res:RC4|com-cf:nl|ptrs:na|ktp:N0|mc:185084|mtp:S|qry_typ:P|lang:en|wc:3|cs:8891|v=4,False,Pimpri,Pune,"Link Road, Julelal Complex, Pimpri, Pune - 411017, Dist.Pune, Maharashtra",8048959176,
Green DETERBREE Marble Cleaner,https://www.indiamart.com/proddetail/deterbree-marble-cleaner-2853353240233.html?pos=77&kwd=baby laundry liquid&tags=||||8663.873|Price|product|||TS|rsf:gd-|-stype:attr=1|qr_nm:gd|res:RC4|com-cf:nl|ptrs:na|ktp:N0|mc:185084|mtp:S|qry_typ:P|lang:en|wc:3|cs:8891|v=4,Stonera Systems Private Limited,https://www.indiamart.com/stonerasystems/?pos=77&kwd=baby laundry liquid&tags=||||8663.873|Price|product|||TS|rsf:gd-|-stype:attr=1|qr_nm:gd|res:RC4|com-cf:nl|ptrs:na|ktp:N0|mc:185084|mtp:S|qry_typ:P|lang:en|wc:3|cs:8891|v=4,False,HSR Layout,Bengaluru,"793, 11th Cross, 27th Main Road, Sector 1, HSR Layout, Bengaluru - 560102, Dist.Bengaluru, Karnataka",8048600634,
"Lavender Hi clean Detergent liquid, 1 L",https://www.indiamart.com/proddetail/hi-clean-detergent-liquid-2852567019397.html?pos=78&kwd=baby laundry liquid&tags=||||8954.051|Price|product|||TS|rsf:gd-|-stype:attr=1|qr_nm:gd|res:RC4|com-cf:nl|ptrs:na|ktp:N0|mc:185084|mtp:S|qry_typ:P|lang:en|wc:3|cs:8891|v=4,High Clean Make India Private Limited,https://www.indiamart.com/highclean-make-india/?pos=78&kwd=baby laundry liquid&tags=||||8954.051|Price|product|||TS|rsf:gd-|-stype:attr=1|qr_nm:gd|res:RC4|com-cf:nl|ptrs:na|ktp:N0|mc:185084|mtp:S|qry_typ:P|lang:en|wc:3|cs:8891|v=4,False,Vadakarai,Chennai,"83/5, Tndcma Complex, Grand Lyon, Vadakarai, Vadakarai, Chennai - 600052, Dist.Chennai, Tamil Nadu",8046073774,
LIQUID DETERGENT CONCENTRATE,https://www.indiamart.com/proddetail/liquid-detergent-concentrate-2854231870755.html?pos=79&kwd=baby laundry liquid&tags=||||8228.275|Price|product|||TS|rsf:gd-|-stype:attr=1|qr_nm:gd|res:RC4|com-cf:nl|ptrs:na|ktp:N0|mc:185084|mtp:S|qry_typ:P|lang:en|wc:3|cs:8891|v=4,We-3 Enterprises,https://www.indiamart.com/we3-enterprises/?pos=79&kwd=baby laundry liquid&tags=||||8228.275|Price|product|||TS|rsf:gd-|-stype:attr=1|qr_nm:gd|res:RC4|com-cf:nl|ptrs:na|ktp:N0|mc:185084|mtp:S|qry_typ:P|lang:en|wc:3|cs:8891|v=4,False,Kali,Ahmedabad,"2390, Desai Pole Opp. Hanuman Fali, Kali, Ahmedabad - 382150, Dist.Ahmedabad, Gujarat",8046043219,
"AQVA BLUE Laundry Liquid Detergent, 1 liter / 5 liter",https://www.indiamart.com/proddetail/laundry-liquid-detergent-2850041097548.html?pos=80&kwd=baby laundry liquid&tags=||||8228.275|Price|product|||TS|rsf:gd-|-stype:attr=1|qr_nm:gd|res:RC4|com-cf:nl|ptrs:na|ktp:N0|mc:185084|mtp:S|qry_typ:P|lang:en|wc:3|cs:8891|v=4,Tejasvi Products,https://www.tejasviproducts.in/?pos=80&kwd=baby laundry liquid&tags=||||8228.275|Price|product|||TS|rsf:gd-|-stype:attr=1|qr_nm:gd|res:RC4|com-cf:nl|ptrs:na|ktp:N0|mc:185084|mtp:S|qry_typ:P|lang:en|wc:3|cs:8891|v=4,False,Bapunagar,Ahmedabad,"Param Shakti Nagar, Near Murga Farm, Opposite Padamsali Society, Near Virat Nagar, Char Rasta, Bapunagar, Ahmedabad - 380024, Dist.Ahmedabad, Gujarat",8047646814,
5 L Royal Toral Liquid Detergent,https://www.indiamart.com/proddetail/5-l-royal-toral-liquid-detergent-2854219444391.html?pos=81&kwd=baby laundry liquid&tags=||||8228.275|Price|product|||MDC|rsf:gd-|-stype:attr=1|qr_nm:gd|res:RC4|com-cf:nl|ptrs:na|ktp:N0|mc:185084|mtp:S|qry_typ:P|lang:en|wc:3|cs:8891|v=4,Sarthi Industries,https://www.indiamart.com/sarthiindustries-ahmedabad/?pos=81&kwd=baby laundry liquid&tags=||||8228.275|Price|product|||MDC|rsf:gd-|-stype:attr=1|qr_nm:gd|res:RC4|com-cf:nl|ptrs:na|ktp:N0|mc:185084|mtp:S|qry_typ:P|lang:en|wc:3|cs:8891|v=4,False,,Ahmedabad,"128, Patelvas, New Vanzar, Sarkhej, Ahmedabad - 382210, Dist.Ahmedabad, Gujarat",8045735913,
Lavender 1L Liquid Detergent,https://www.indiamart.com/proddetail/1l-liquid-detergent-2854899706633.html?pos=82&kwd=baby laundry liquid&tags=||||8281.036|Price|product|||MDC|rsf:gd-|-stype:attr=1|qr_nm:gd|res:RC4|com-cf:nl|ptrs:na|ktp:N0|mc:185084|mtp:S|qry_typ:P|lang:en|wc:3|cs:8891|v=4,Moumee Enterprise,https://www.indiamart.com/moumee-enterprise/?pos=82&kwd=baby laundry liquid&tags=||||8281.036|Price|product|||MDC|rsf:gd-|-stype:attr=1|qr_nm:gd|res:RC4|com-cf:nl|ptrs:na|ktp:N0|mc:185084|mtp:S|qry_typ:P|lang:en|wc:3|cs:8891|v=4,False,,Vadodara,"Shop No 8,Ground Floor,Kishan Enclave,Opp Rudraraj Complex,Gotri, Vadodara - 390021, Dist.Vadodara, Gujarat",7949330806,
All Laundry Detergent,https://www.indiamart.com/proddetail/all-laundry-detergent-25521338233.html?pos=83&kwd=baby laundry liquid&tags=||||8500.97|Price|product|||MDC|rsf:gd-|-stype:attr=1|qr_nm:gd|res:RC4|com-cf:nl|ptrs:na|ktp:N0|mc:185084|mtp:S|qry_typ:P|lang:en|wc:3|cs:8891|v=4,Clan Polymers Private Limited,https://www.indiamart.com/clan-polymers/?pos=83&kwd=baby laundry liquid&tags=||||8500.97|Price|product|||MDC|rsf:gd-|-stype:attr=1|qr_nm:gd|res:RC4|com-cf:nl|ptrs:na|ktp:N0|mc:185084|mtp:S|qry_typ:P|lang:en|wc:3|cs:8891|v=4,False,Kinfra Park Koratti,Thrissur,"4th Floor, Pragati Building, Koratty Kinfra, Small Industries Park, Koratty, Kinfra Park Koratti, Thrissur - 680309, Dist.Thrissur, Kerala",8046053479,
50 Kg Loose Detergent Powder Packing,https://www.indiamart.com/proddetail/50-kg-loose-detergent-powder-packing-20062097188.html?pos=84&kwd=baby laundry liquid&tags=||||9045.955||product|||MDC|rsf:gd-|-stype:attr=1|qr_nm:gd|res:RC4|com-cf:nl|ptrs:na|ktp:N0|mc:185084|mtp:S|qry_typ:P|lang:en|wc:3|cs:8891|v=4,Ananya Chemicals,https://www.indiamart.com/shree-chemicalkanpur/?pos=84&kwd=baby laundry liquid&tags=||||9045.955||product|||MDC|rsf:gd-|-stype:attr=1|qr_nm:gd|res:RC4|com-cf:nl|ptrs:na|ktp:N0|mc:185084|mtp:S|qry_typ:P|lang:en|wc:3|cs:8891|v=4,False,Kaushalpuri,Kanpur,"119/517, Darshan Purwa, Kaushalpuri, Kanpur - 208012, Uttar Pradesh",8048617911,
5L Fabon Liquid Detergent,https://www.indiamart.com/proddetail/5l-fabon-liquid-detergent-2854756224591.html?pos=85&kwd=baby laundry liquid&tags=||||8706.263|Price|product|||MDC|rsf:gd-|-stype:attr=1|qr_nm:gd|res:RC4|com-cf:nl|ptrs:na|ktp:N0|mc:185084|mtp:S|qry_typ:P|lang:en|wc:3|cs:8891|v=4,Femto House Care Products,https://www.indiamart.com/femto-house-careproducts/?pos=85&kwd=baby laundry liquid&tags=||||8706.263|Price|product|||MDC|rsf:gd-|-stype:attr=1|qr_nm:gd|res:RC4|com-cf:nl|ptrs:na|ktp:N0|mc:185084|mtp:S|qry_typ:P|lang:en|wc:3|cs:8891|v=4,False,,Karur,"7/114, T.P Palayam, Manmangalam, Karur - 639116, Dist.Karur, Tamil Nadu",8044457134,
Lavender Garmate matic liquid detergent,https://www.indiamart.com/proddetail/garmate-matic-liquid-detergent-2853626719112.html?pos=86&kwd=baby laundry liquid&tags=||||8987.303||product|||MDC|rsf:gd-|-stype:attr=1|qr_nm:gd|res:RC4|com-cf:nl|ptrs:na|ktp:N0|mc:185084|mtp:S|qry_typ:P|lang:en|wc:3|cs:8891|v=4,Nithya Sri Enterprises,https://www.indiamart.com/nithyasrienterprises/?pos=86&kwd=baby laundry liquid&tags=||||8987.303||product|||MDC|rsf:gd-|-stype:attr=1|qr_nm:gd|res:RC4|com-cf:nl|ptrs:na|ktp:N0|mc:185084|mtp:S|qry_typ:P|lang:en|wc:3|cs:8891|v=4,False,Kothapeta,Guntur,"D.No-44-48, Nallamreddy Residency, Sanakkayala Factory Road,, Kothapeta, Guntur - 522001, Dist.Guntur, Andhra Pradesh",8043853180,
"Jasmine Detergent Liquid High Quality, 50 ml",https://www.indiamart.com/proddetail/detergent-liquid-high-quality-2851527925348.html?pos=87&kwd=baby laundry liquid&tags=||||8524.957|Price|product|||MDC|rsf:gd-|-stype:attr=1|qr_nm:gd|res:RC4|com-cf:nl|ptrs:na|ktp:N0|mc:185084|mtp:S|qry_typ:P|lang:en|wc:3|cs:8891|v=4,Standard Traders,https://www.indiamart.com/standard-traders-khargone/?pos=87&kwd=baby laundry liquid&tags=||||8524.957|Price|product|||MDC|rsf:gd-|-stype:attr=1|qr_nm:gd|res:RC4|com-cf:nl|ptrs:na|ktp:N0|mc:185084|mtp:S|qry_typ:P|lang:en|wc:3|cs:8891|v=4,False,NEAR ANAND NAGAR,Khargone,"Ground Floor, 1, Standard Traders, Bti Road, near Saifiyah Higher Secondary School, NEAR ANAND NAGAR, Khargone - 451001, Dist.West Nimar, Madhya Pradesh",7942842641,
"Lavender 200ml Shine Liquid Detergent, Packaging Type: Packet",https://www.indiamart.com/proddetail/200ml-shine-liquid-detergent-23082755697.html?pos=88&kwd=baby laundry liquid&tags=||||8687.934|Price|product|||MDC|rsf:gd-|-stype:attr=1|qr_nm:gd|res:RC4|com-cf:nl|ptrs:na|ktp:N0|mc:185084|mtp:S|qry_typ:P|lang:en|wc:3|cs:8891|v=4,Chem Star Industries,https://www.indiamart.com/chem-star-industries/?pos=88&kwd=baby laundry liquid&tags=||||8687.934|Price|product|||MDC|rsf:gd-|-stype:attr=1|qr_nm:gd|res:RC4|com-cf:nl|ptrs:na|ktp:N0|mc:185084|mtp:S|qry_typ:P|lang:en|wc:3|cs:8891|v=4,False,Ranganathapuram,Virudhunagar,"38, Madurai Road, Jeeva Nagar, Srivilliputtur,, Ranganathapuram, Virudhunagar - 626125, Dist.Virudhunagar, Tamil Nadu",8047532399,
"Lavender Krystal Detergent Liquid, 5 L",https://www.indiamart.com/proddetail/washing-machine-detergent-liquid-2854276331597.html?pos=89&kwd=baby laundry liquid&tags=||||8786.56|Price|product|||MDC|rsf:gd-|-stype:attr=1|qr_nm:gd|res:RC4|com-cf:nl|ptrs:na|ktp:N0|mc:185084|mtp:S|qry_typ:P|lang:en|wc:3|cs:8891|v=4,SLV Labs,https://www.indiamart.com/slv-labs/?pos=89&kwd=baby laundry liquid&tags=||||8786.56|Price|product|||MDC|rsf:gd-|-stype:attr=1|qr_nm:gd|res:RC4|com-cf:nl|ptrs:na|ktp:N0|mc:185084|mtp:S|qry_typ:P|lang:en|wc:3|cs:8891|v=4,False,,Hyderabad,"3-15-70, Venkat Ramana Colony Road , Medchal Malkajgiri, Hyderabad - 500076, Dist.Hyderabad, Telangana",8045732045,
"Wonderwash Plastic Cans Professional Liquid Laundry Detergent, Packaging Type: Plastic Bottle, Pack Size: 5l & 20l",https://www.indiamart.com/proddetail/professional-liquid-laundry-detergent-20349097130.html?pos=90&kwd=baby laundry liquid&tags=||||8746.929||product|||TS|rsf:gd-|-stype:attr=1|qr_nm:gd|res:RC4|com-cf:nl|ptrs:na|ktp:N0|mc:185084|mtp:S|qry_typ:P|lang:en|wc:3|cs:8891|v=4,Vindarvind Hygine Products Private Limited,https://www.vindarvind.in/?pos=90&kwd=baby laundry liquid&tags=||||8746.929||product|||TS|rsf:gd-|-stype:attr=1|qr_nm:gd|res:RC4|com-cf:nl|ptrs:na|ktp:N0|mc:185084|mtp:S|qry_typ:P|lang:en|wc:3|cs:8891|v=4,False,Industrial Area Phase 2,Chandigarh,"Plot Number 98, Industrial Area Phase 2, Chandigarh - 160002, Chandigarh",8048612816,
"Laundry Liquid Detergent 5000, Packaging Type: Can, Packaging Size: 5 Litre",https://www.indiamart.com/proddetail/laundry-liquid-detergent-5000-24105831248.html?pos=91&kwd=baby laundry liquid&tags=||||8752.144|Price|product|||TS|rsf:gd-|-stype:attr=1|qr_nm:gd|res:RC4|com-cf:nl|ptrs:na|ktp:N0|mc:185084|mtp:S|qry_typ:P|lang:en|wc:3|cs:8891|v=4,Acorn Chemigreen Private Limited,https://www.indiamart.com/acornchemigreen/?pos=91&kwd=baby laundry liquid&tags=||||8752.144|Price|product|||TS|rsf:gd-|-stype:attr=1|qr_nm:gd|res:RC4|com-cf:nl|ptrs:na|ktp:N0|mc:185084|mtp:S|qry_typ:P|lang:en|wc:3|cs:8891|v=4,False,F F C Okhla,New Delhi,"F-90/1, 2nd Floor, Okhla Industrial Area Phase 1, F F C Okhla, New Delhi - 110020, Dist.Delhi, Delhi",8045906886,
Lemon 3L Laundry Detergent Liquid,https://www.indiamart.com/proddetail/3l-laundry-detergent-liquid-2853003761573.html?pos=92&kwd=baby laundry liquid&tags=||||8954.051|Price|product|||TS|rsf:gd-|-stype:attr=1|qr_nm:gd|res:RC4|com-cf:nl|ptrs:na|ktp:N0|mc:185084|mtp:S|qry_typ:P|lang:en|wc:3|cs:8891|v=4,SBR Power Advantage India Private Limited,https://www.sbrpoweradvantage.net/?pos=92&kwd=baby laundry liquid&tags=||||8954.051|Price|product|||TS|rsf:gd-|-stype:attr=1|qr_nm:gd|res:RC4|com-cf:nl|ptrs:na|ktp:N0|mc:185084|mtp:S|qry_typ:P|lang:en|wc:3|cs:8891|v=4,False,Porur,Chennai,"plot no 2 BALASUBRAMANIAN ST, Porur, Chennai - 600116, Dist.Chennai, Tamil Nadu",8048963849,
"Lavender Safayar Washing Machine Liquid Detergent, 1 L",https://www.indiamart.com/proddetail/safayar-washing-machine-liquid-detergent-2852554777773.html?pos=93&kwd=baby laundry liquid&tags=||||8230.883|Price|product|||TS|rsf:gd-|-stype:attr=1|qr_nm:gd|res:RC4|com-cf:nl|ptrs:na|ktp:N0|mc:185084|mtp:S|qry_typ:P|lang:en|wc:3|cs:8891|v=4,RMR Formulation Private Limited,https://www.indiamart.com/rmr-formulation-surat/?pos=93&kwd=baby laundry liquid&tags=||||8230.883|Price|product|||TS|rsf:gd-|-stype:attr=1|qr_nm:gd|res:RC4|com-cf:nl|ptrs:na|ktp:N0|mc:185084|mtp:S|qry_typ:P|lang:en|wc:3|cs:8891|v=4,False,Kholvad,Surat,"BLDG No F,Flat No 203,Opera Pam,Taluka-Kamrej Kholvad,, Kholvad, Surat - 394190, Dist.Surat, Gujarat",7942708813,
"Acid Slurry Labsa, Packaging Size: 50, Grade Standard: Class A",https://www.indiamart.com/proddetail/acid-slurry-labsa-23689245288.html?pos=94&kwd=baby laundry liquid&tags=||||8786.56|Price|product|||TS|rsf:gd-|-stype:attr=1|qr_nm:gd|res:RC4|com-cf:nl|ptrs:na|ktp:N0|mc:185084|mtp:S|qry_typ:P|lang:en|wc:3|cs:8891|v=4,Peer Chemical Industries,https://www.indiamart.com/peer-chemical-industries/?pos=94&kwd=baby laundry liquid&tags=||||8786.56|Price|product|||TS|rsf:gd-|-stype:attr=1|qr_nm:gd|res:RC4|com-cf:nl|ptrs:na|ktp:N0|mc:185084|mtp:S|qry_typ:P|lang:en|wc:3|cs:8891|v=4,False,Sanath Nagar,Hyderabad,"Plot No. 11/66, Main Road Masjid, Fathe Nagar, Medchal - Malkajgiri, Sanath Nagar, Hyderabad - 500018, Dist.Hyderabad, Telangana",8046062437,
"Lavender Floor Cleaning Liquid Detergent, 5 L",https://www.indiamart.com/proddetail/5litre-lavender-liquid-detergent-2854944625597.html?pos=95&kwd=baby laundry liquid&tags=||||8786.56|Price|product|||MDC|rsf:gd-|-stype:attr=1|qr_nm:gd|res:RC4|com-cf:nl|ptrs:na|ktp:N0|mc:185084|mtp:S|qry_typ:P|lang:en|wc:3|cs:8891|v=4,Arrexa Clean Care Products,https://www.indiamart.com/arrexacleancare-products/?pos=95&kwd=baby laundry liquid&tags=||||8786.56|Price|product|||MDC|rsf:gd-|-stype:attr=1|qr_nm:gd|res:RC4|com-cf:nl|ptrs:na|ktp:N0|mc:185084|mtp:S|qry_typ:P|lang:en|wc:3|cs:8891|v=4,False,,Hyderabad,"4-31, Vaayu Putra Colony, Bahadurpalle, Medchal Malkajgiri, Hyderabad - 500043, Dist.Hyderabad, Telangana",8044458159,
55g Cow Brand Washing Powder,https://www.indiamart.com/proddetail/55g-cow-brand-washing-powder-2853079021455.html?pos=96&kwd=baby laundry liquid&tags=||||9045.955|Price|product|||MDC|rsf:gd-|-stype:attr=1|qr_nm:gd|res:RC4|com-cf:nl|ptrs:na|ktp:N0|mc:185084|mtp:S|qry_typ:P|lang:en|wc:3|cs:8891|v=4,Shabroc India,https://www.indiamart.com/shabroc-india/?pos=96&kwd=baby laundry liquid&tags=||||9045.955|Price|product|||MDC|rsf:gd-|-stype:attr=1|qr_nm:gd|res:RC4|com-cf:nl|ptrs:na|ktp:N0|mc:185084|mtp:S|qry_typ:P|lang:en|wc:3|cs:8891|v=4,False,Civil Line,Kanpur,"15/72-D, Civil Lines, Civil Line, Kanpur - 208001, Uttar Pradesh",7942964573,
"Lavender Laundry Liquid Detergent, 5 L",https://www.indiamart.com/proddetail/laundry-liquid-detergent-2854174362455.html?pos=97&kwd=baby laundry liquid&tags=||||8228.275|Price|product|||MDC|rsf:gd-|-stype:attr=1|qr_nm:gd|res:RC4|com-cf:nl|ptrs:na|ktp:N0|mc:185084|mtp:S|qry_typ:P|lang:en|wc:3|cs:8891|v=4,Nyalkaran Plastic,https://www.indiamart.com/nyalkaranplasticahmedabad/?pos=97&kwd=baby laundry liquid&tags=||||8228.275|Price|product|||MDC|rsf:gd-|-stype:attr=1|qr_nm:gd|res:RC4|com-cf:nl|ptrs:na|ktp:N0|mc:185084|mtp:S|qry_typ:P|lang:en|wc:3|cs:8891|v=4,False,Nikol,Ahmedabad,"Shed No- 92 B/H Dhaval Estate S.P. Ring Road Girivar Globe Ind Estate Shree Ram Estate Nikol, Nikol, Ahmedabad - 382350, Dist.Ahmedabad, Gujarat",7949092212,
"Laundry Lavender Liquid Detergent, 1 L",https://www.indiamart.com/proddetail/laundry-lavender-liquid-detergent-2853075974488.html?pos=98&kwd=baby laundry liquid&tags=||||8804.745|Price|product|||MDC|rsf:gd-|-stype:attr=1|qr_nm:gd|res:RC4|com-cf:nl|ptrs:na|ktp:N0|mc:185084|mtp:S|qry_typ:P|lang:en|wc:3|cs:8891|v=4,Zoya Industries,https://www.indiamart.com/zoyaindustries-andhrapradesh/?pos=98&kwd=baby laundry liquid&tags=||||8804.745|Price|product|||MDC|rsf:gd-|-stype:attr=1|qr_nm:gd|res:RC4|com-cf:nl|ptrs:na|ktp:N0|mc:185084|mtp:S|qry_typ:P|lang:en|wc:3|cs:8891|v=4,False,Badvel,Kadapa,"3-1-159, Ashok Nagar 2nd Lane, Badvel, YSR, Badvel, Kadapa - 516227, Dist.Cuddapah, Andhra Pradesh",8045731914,
"Jasmine Laundry Detergent Liquid, 1 L",https://www.indiamart.com/proddetail/laundry-detergent-liquid-2849596215797.html?pos=99&kwd=baby laundry liquid&tags=||||8228.275|Price|product|||TS|rsf:gd-|-stype:attr=1|qr_nm:gd|res:RC4|com-cf:nl|ptrs:na|ktp:N0|mc:185084|mtp:S|qry_typ:P|lang:en|wc:3|cs:8891|v=4,Advance Unique Speacilty Chemicals,https://www.indiamart.com/advanceuniquespecailtychemicals/?pos=99&kwd=baby laundry liquid&tags=||||8228.275|Price|product|||TS|rsf:gd-|-stype:attr=1|qr_nm:gd|res:RC4|com-cf:nl|ptrs:na|ktp:N0|mc:185084|mtp:S|qry_typ:P|lang:en|wc:3|cs:8891|v=4,False,Thakkarbapanagar,Ahmedabad,"Flat No 3A, Vivekanand Society, Nr Ankur School, Jain Marchant, Thakkarbapanagar, Ahmedabad - 380007, Dist.Ahmedabad, Gujarat",7942792785,
"Lavender Laundry Liquid Detergent, 5 Kg",https://www.indiamart.com/proddetail/laundry-liquid-detergent-2852825769148.html?pos=100&kwd=baby laundry liquid&tags=||||8228.275|Price|product|||TS|rsf:gd-|-stype:attr=1|qr_nm:gd|res:RC4|com-cf:nl|ptrs:na|ktp:N0|mc:185084|mtp:S|qry_typ:P|lang:en|wc:3|cs:8891|v=4,Dev Pharmacare,https://www.indiamart.com/devpharmacare/?pos=100&kwd=baby laundry liquid&tags=||||8228.275|Price|product|||TS|rsf:gd-|-stype:attr=1|qr_nm:gd|res:RC4|com-cf:nl|ptrs:na|ktp:N0|mc:185084|mtp:S|qry_typ:P|lang:en|wc:3|cs:8891|v=4,False,Nikol,Ahmedabad,"512, Vishala Supreme, Opp.torrent Substation, Nikol, Ahmedabad - 382350, Dist.Ahmedabad, Gujarat",7942541275,
All Laundry Detergent,https://www.indiamart.com/proddetail/all-laundry-detergent-2854609247348.html?pos=101&kwd=baby laundry liquid&tags=||||8663.873|Price|product|||TS|rsf:gd-|-stype:attr=1|qr_nm:gd|res:RC4|com-cf:nl|ptrs:na|ktp:N0|mc:185084|mtp:S|qry_typ:P|lang:en|wc:3|cs:8891|v=4,Nandu Chemicals,https://www.indiamart.com/nandu-chemicals/?pos=101&kwd=baby laundry liquid&tags=||||8663.873|Price|product|||TS|rsf:gd-|-stype:attr=1|qr_nm:gd|res:RC4|com-cf:nl|ptrs:na|ktp:N0|mc:185084|mtp:S|qry_typ:P|lang:en|wc:3|cs:8891|v=4,False,,Bengaluru,"19/58/59, Kalathur Garden Hessarghatta Hobli Village Bengaluru Guniagrahara, Bengaluru - 560097, Dist.Bengaluru, Karnataka",7949094395,
Soak N Shine 200 L All Laundry Liquid Detergent,https://www.indiamart.com/proddetail/soak-n-shine-200-l-all-laundry-liquid-detergent-2854018078762.html?pos=102&kwd=baby laundry liquid&tags=||||8047.7524|Price|product|||TS|rsf:gd-|-stype:attr=1|qr_nm:gd|res:RC4|com-cf:nl|ptrs:na|ktp:N0|mc:185084|mtp:S|qry_typ:P|lang:en|wc:3|cs:8891|v=4,Soak N Shine Home Products LLP,https://www.indiamart.com/soaknshine-home-products/?pos=102&kwd=baby laundry liquid&tags=||||8047.7524|Price|product|||TS|rsf:gd-|-stype:attr=1|qr_nm:gd|res:RC4|com-cf:nl|ptrs:na|ktp:N0|mc:185084|mtp:S|qry_typ:P|lang:en|wc:3|cs:8891|v=4,False,Shakat Sanala,Morbi,"Survey No 242/1 P2 242/4 P2, Plot No 3, Dharm-Gold Industrial Estate, Morbi Rajkot Highway, Shakat Sanala, Morbi - 363641, Dist.Rajkot, Gujarat",7949086330,
Safe Wash Liquid Detergent,https://www.indiamart.com/proddetail/safe-wash-liquid-detergent-2852648184830.html?pos=103&kwd=baby laundry liquid&tags=||||8038.093|Price|product|||TS|rsf:gd-|-stype:attr=1|qr_nm:gd|res:RC4|com-cf:nl|ptrs:na|ktp:N0|mc:185084|mtp:S|qry_typ:P|lang:en|wc:3|cs:8891|v=4,Clover health care,https://www.indiamart.com/cloverhealthcare-rajkot/?pos=103&kwd=baby laundry liquid&tags=||||8038.093|Price|product|||TS|rsf:gd-|-stype:attr=1|qr_nm:gd|res:RC4|com-cf:nl|ptrs:na|ktp:N0|mc:185084|mtp:S|qry_typ:P|lang:en|wc:3|cs:8891|v=4,False,Bhakti Nagar,Rajkot,"Aji GIDC, Road No. F, PLOT NO. C1/20, Bhakti Nagar, Rajkot - 360003, Dist.Rajkot, Gujarat",8046030505,
"Colours Blue Vidur Washing Liquid 1ltr, Packaging Type: can",https://www.indiamart.com/proddetail/vidur-washing-liquid-1ltr-24420212862.html?pos=104&kwd=baby laundry liquid&tags=||||8038.093|Price|product|||TS|rsf:gd-|-stype:attr=1|qr_nm:gd|res:RC4|com-cf:nl|ptrs:na|ktp:N0|mc:185084|mtp:S|qry_typ:P|lang:en|wc:3|cs:8891|v=4,Vidur Health Care,https://www.indiamart.com/vidur-healthcarerajkot/?pos=104&kwd=baby laundry liquid&tags=||||8038.093|Price|product|||TS|rsf:gd-|-stype:attr=1|qr_nm:gd|res:RC4|com-cf:nl|ptrs:na|ktp:N0|mc:185084|mtp:S|qry_typ:P|lang:en|wc:3|cs:8891|v=4,False,Ghanshyam Nagar,Rajkot,"Plot No. - 8/3, Survey No. - 28 P, Nr. Jalaram Machinery, Kalawad Road, Haripar Pal - Lodhika, Ghanshyam Nagar, Rajkot - 360005, Dist.Rajkot, Gujarat",7942555725,
"laundry Liquid Detergent, 500 ml",https://www.indiamart.com/proddetail/laundry-liquid-detergent-in-mumbai-2853983081033.html?pos=105&kwd=baby laundry liquid&tags=||||8226.563|Price|product|||MDC|rsf:gd-|-stype:attr=1|qr_nm:gd|res:RC4|com-cf:nl|ptrs:na|ktp:N0|mc:185084|mtp:S|qry_typ:P|lang:en|wc:3|cs:8891|v=4,Manisha Enterprises,https://www.indiamart.com/manishaenterprisesnavimumbai/?pos=105&kwd=baby laundry liquid&tags=||||8226.563|Price|product|||MDC|rsf:gd-|-stype:attr=1|qr_nm:gd|res:RC4|com-cf:nl|ptrs:na|ktp:N0|mc:185084|mtp:S|qry_typ:P|lang:en|wc:3|cs:8891|v=4,False,Sanpada,Navi Mumbai,"Plot No.-61, Shop No.-03, Panchavati Vila, Sector-05, Sanpada, Sanpada, Navi Mumbai - 400706, Dist.Thane, Maharashtra",8044562162,
Samrat Ashok Multiple Colour Fix Liquid,https://www.indiamart.com/proddetail/colour-fix-liquid-22939493055.html?pos=106&kwd=baby laundry liquid&tags=||||8307.81|Price|product|||MDC|rsf:gd-|-stype:attr=1|qr_nm:gd|res:RC4|com-cf:nl|ptrs:na|ktp:N0|mc:185084|mtp:S|qry_typ:P|lang:en|wc:3|cs:8891|v=4,S.P Nahar,https://www.indiamart.com/sp-nahar/?pos=106&kwd=baby laundry liquid&tags=||||8307.81|Price|product|||MDC|rsf:gd-|-stype:attr=1|qr_nm:gd|res:RC4|com-cf:nl|ptrs:na|ktp:N0|mc:185084|mtp:S|qry_typ:P|lang:en|wc:3|cs:8891|v=4,False,Ganj Peth,Pune,"756/2, Ganj Peth, Ganj Peth, Pune - 411042, Dist.Pune, Maharashtra",8048986473,
"Lavender White And Blue 5L Liqwash Matic Liquid Detergent, Packaging Type: Bottel",https://www.indiamart.com/proddetail/5l-liqwash-matic-liquid-detergent-25304563073.html?pos=107&kwd=baby laundry liquid&tags=||||8230.883|Price|product|||MDC|rsf:gd-|-stype:attr=1|qr_nm:gd|res:RC4|com-cf:nl|ptrs:na|ktp:N0|mc:185084|mtp:S|qry_typ:P|lang:en|wc:3|cs:8891|v=4,Liqwash (A Brand of Nileshbhai Madhubhai Kapadiya),https://www.indiamart.com/nileshbhai-madhubhai-kapadiya/?pos=107&kwd=baby laundry liquid&tags=||||8230.883|Price|product|||MDC|rsf:gd-|-stype:attr=1|qr_nm:gd|res:RC4|com-cf:nl|ptrs:na|ktp:N0|mc:185084|mtp:S|qry_typ:P|lang:en|wc:3|cs:8891|v=4,False,Shraddha Society,Surat,"57, Ground Floor, Dharmaraj Park Society, Simada Naka, Nana Varachha, Shraddha Society, Surat - 395006, Dist.Surat, Gujarat",8047314738,
"Washing Machine Liquid Detergent, 1 L",https://www.indiamart.com/proddetail/washing-machine-liquid-detergent-2853788680948.html?pos=108&kwd=baby laundry liquid&tags=||||8507.67|Price|product|||MDC|rsf:gd-|-stype:attr=1|qr_nm:gd|res:RC4|com-cf:nl|ptrs:na|ktp:N0|mc:185084|mtp:S|qry_typ:P|lang:en|wc:3|cs:8891|v=4,United Marketing Company,https://www.indiamart.com/united-marketing-company/?pos=108&kwd=baby laundry liquid&tags=||||8507.67|Price|product|||MDC|rsf:gd-|-stype:attr=1|qr_nm:gd|res:RC4|com-cf:nl|ptrs:na|ktp:N0|mc:185084|mtp:S|qry_typ:P|lang:en|wc:3|cs:8891|v=4,False,Chalakkal East,Ernakulam,"5/609, Ground Floor, Surya Nagar, Kuttamassery, Aluva, Chalakkal East, Ernakulam - 683105, Dist.Ernakulam, Kerala",7942796902,
Liquid Detergent Sachet,https://www.indiamart.com/proddetail/liquid-detergent-sachet-2851925989733.html?pos=109&kwd=baby laundry liquid&tags=||||8786.56|Price|product|||MDC|rsf:gd-|-stype:attr=1|qr_nm:gd|res:RC4|com-cf:nl|ptrs:na|ktp:N0|mc:185084|mtp:S|qry_typ:P|lang:en|wc:3|cs:8891|v=4,Amber Consumer Products,https://www.indiamart.com/amberconsumerproducts/?pos=109&kwd=baby laundry liquid&tags=||||8786.56|Price|product|||MDC|rsf:gd-|-stype:attr=1|qr_nm:gd|res:RC4|com-cf:nl|ptrs:na|ktp:N0|mc:185084|mtp:S|qry_typ:P|lang:en|wc:3|cs:8891|v=4,False,,Hyderabad,"8-4-66/2, IDA Back Side, Mailardevpally, Rangareddy,, Hyderabad - 500005, Dist.Hyderabad, Telangana",8045735291,
"Hi Clean HC DL1 Liquid Detergent With Conditioner, 5 L",https://www.indiamart.com/proddetail/hi-clean-hc-dl1-liquid-detergent-with-conditioner-2853344538455.html?pos=110&kwd=baby laundry liquid&tags=||||8954.051|Price|product|||MDC|rsf:gd-|-stype:attr=1|qr_nm:gd|res:RC4|com-cf:nl|ptrs:na|ktp:N0|mc:185084|mtp:S|qry_typ:P|lang:en|wc:3|cs:8891|v=4,Sri Sai Balambiga Home Needs,https://www.indiamart.com/sri-sai-balambigahomeneeds/?pos=110&kwd=baby laundry liquid&tags=||||8954.051|Price|product|||MDC|rsf:gd-|-stype:attr=1|qr_nm:gd|res:RC4|com-cf:nl|ptrs:na|ktp:N0|mc:185084|mtp:S|qry_typ:P|lang:en|wc:3|cs:8891|v=4,False,Kolathur,Chennai,"66 III Layour, Jjd Power Health Clinic, Kolathur, Kolathur, Chennai - 600099, Dist.Chennai, Tamil Nadu",8045731950,
White Laundry Loose Detergent Powder,https://www.indiamart.com/proddetail/laundry-loose-detergent-powder-15517663891.html?pos=111&kwd=baby laundry liquid&tags=||||9045.955|Price|product|||MDC|rsf:gd-|-stype:attr=1|qr_nm:gd|res:RC4|com-cf:nl|ptrs:na|ktp:N0|mc:185084|mtp:S|qry_typ:P|lang:en|wc:3|cs:8891|v=4,Scann Chem Industries,https://www.indiamart.com/scannchemindustries/?pos=111&kwd=baby laundry liquid&tags=||||9045.955|Price|product|||MDC|rsf:gd-|-stype:attr=1|qr_nm:gd|res:RC4|com-cf:nl|ptrs:na|ktp:N0|mc:185084|mtp:S|qry_typ:P|lang:en|wc:3|cs:8891|v=4,False,Govind Nagar,Kanpur,"D-115, Udhyog Kunj, Kanpur Nagar, Govind Nagar, Kanpur - 208022, Uttar Pradesh",8046074886,
Liquid Detergent 5 Ltr,https://www.indiamart.com/proddetail/liquid-detergent-5-ltr-2853367033762.html?pos=112&kwd=baby laundry liquid&tags=||||8954.051|Price|product|||TS|rsf:gd-|-stype:attr=1|qr_nm:gd|res:RC4|com-cf:nl|ptrs:na|ktp:N0|mc:185084|mtp:S|qry_typ:P|lang:en|wc:3|cs:8891|v=4,Zymetree Tech & Trade,https://www.indiamart.com/zymetree-techtrade-chennai/?pos=112&kwd=baby laundry liquid&tags=||||8954.051|Price|product|||TS|rsf:gd-|-stype:attr=1|qr_nm:gd|res:RC4|com-cf:nl|ptrs:na|ktp:N0|mc:185084|mtp:S|qry_typ:P|lang:en|wc:3|cs:8891|v=4,False,Chengalpattu,Chennai,"Ground Floor, 50, Vallal Bagam Street, Near Nelgiris Supermarket, Maraimalainagar, Chengalpattu, Chengalpattu, Chennai - 603209, Dist.Chennai, Tamil Nadu",7948547221,
"Jasmine Solvin Laundry Liquid Detergent, 5 L",https://www.indiamart.com/proddetail/laundry-liquid-detergent-jasmine-2854283696548.html?pos=113&kwd=baby laundry liquid&tags=||||8954.051|Price|product|||MDC|rsf:gd-|-stype:attr=1|qr_nm:gd|res:RC4|com-cf:nl|ptrs:na|ktp:N0|mc:185084|mtp:S|qry_typ:P|lang:en|wc:3|cs:8891|v=4,Hamsri Associates,https://www.indiamart.com/hamsri-associates/?pos=113&kwd=baby laundry liquid&tags=||||8954.051|Price|product|||MDC|rsf:gd-|-stype:attr=1|qr_nm:gd|res:RC4|com-cf:nl|ptrs:na|ktp:N0|mc:185084|mtp:S|qry_typ:P|lang:en|wc:3|cs:8891|v=4,False,,Chennai,"21, MGR Nagar Main Road, Thiruverkadu, Tiruvallur,, Chennai - 600077, Dist.Chennai, Tamil Nadu",8045733944,
Lavender 5L Active Win Laundry Liquid Detergent,https://www.indiamart.com/proddetail/5l-active-win-laundry-liquid-detergent-2853471742730.html?pos=114&kwd=baby laundry liquid&tags=||||8954.051|Price|product|||MDC|rsf:gd-|-stype:attr=1|qr_nm:gd|res:RC4|com-cf:nl|ptrs:na|ktp:N0|mc:185084|mtp:S|qry_typ:P|lang:en|wc:3|cs:8891|v=4,Sri Dharshan Enterprises,https://www.indiamart.com/sri-dharshan-enterprises/?pos=114&kwd=baby laundry liquid&tags=||||8954.051|Price|product|||MDC|rsf:gd-|-stype:attr=1|qr_nm:gd|res:RC4|com-cf:nl|ptrs:na|ktp:N0|mc:185084|mtp:S|qry_typ:P|lang:en|wc:3|cs:8891|v=4,False,,Chennai,"No 32/1, Portuguese Church Street, Sevenwells, Chennai - 600001, Dist.Chennai, Tamil Nadu",7949339933,
1L Google Matic Liquid Detergent,https://www.indiamart.com/proddetail/1l-google-matic-liquid-detergent-2854572085473.html?pos=115&kwd=baby laundry liquid&tags=||||8954.051|Price|product|||MDC|rsf:gd-|-stype:attr=1|qr_nm:gd|res:RC4|com-cf:nl|ptrs:na|ktp:N0|mc:185084|mtp:S|qry_typ:P|lang:en|wc:3|cs:8891|v=4,Gop Home Care & Co.,https://www.indiamart.com/gop-homecareco/?pos=115&kwd=baby laundry liquid&tags=||||8954.051|Price|product|||MDC|rsf:gd-|-stype:attr=1|qr_nm:gd|res:RC4|com-cf:nl|ptrs:na|ktp:N0|mc:185084|mtp:S|qry_typ:P|lang:en|wc:3|cs:8891|v=4,False,,Chennai,"No.20 21, Veeraraj Street, Egmore, Chennai - 600008, Dist.Chennai, Tamil Nadu",7949341672,
"Lavender Fabric Wash Liquid Detergent, 5 L",https://www.indiamart.com/proddetail/fabric-wash-liquid-detergent-2854531768912.html?pos=116&kwd=baby laundry liquid&tags=||||8228.275|Price|product|||MDC|rsf:gd-|-stype:attr=1|qr_nm:gd|res:RC4|com-cf:nl|ptrs:na|ktp:N0|mc:185084|mtp:S|qry_typ:P|lang:en|wc:3|cs:8891|v=4,Tap Facility Service,https://www.indiamart.com/tap-facility-service/?pos=116&kwd=baby laundry liquid&tags=||||8228.275|Price|product|||MDC|rsf:gd-|-stype:attr=1|qr_nm:gd|res:RC4|com-cf:nl|ptrs:na|ktp:N0|mc:185084|mtp:S|qry_typ:P|lang:en|wc:3|cs:8891|v=4,False,Saijpur Bogha,Ahmedabad,"A-70, Vijay Kamdar Society Ltd, Saijpur Bogha, B/H Subhash Rolling Mill, Saijpur Bogha, Saijpur Bogha, Ahmedabad - 382345, Dist.Ahmedabad, Gujarat",8047780236,
Lemon Detergent Liquid 1 Ltr,https://www.indiamart.com/proddetail/detergent-liquid-1-ltr-2854670877730.html?pos=117&kwd=baby laundry liquid&tags=||||8228.275|Price|product|||TS|rsf:gd-|-stype:attr=1|qr_nm:gd|res:RC4|com-cf:nl|ptrs:na|ktp:N0|mc:185084|mtp:S|qry_typ:P|lang:en|wc:3|cs:8891|v=4,Shrihari Chemicals Trading,https://www.shriharichemicalstrading.com/?pos=117&kwd=baby laundry liquid&tags=||||8228.275|Price|product|||TS|rsf:gd-|-stype:attr=1|qr_nm:gd|res:RC4|com-cf:nl|ptrs:na|ktp:N0|mc:185084|mtp:S|qry_typ:P|lang:en|wc:3|cs:8891|v=4,False,Vatva,Ahmedabad,"No.93, Gajanan Ind. Park, Bs.ambika Estate, Nr Vatva Railway Overbridge, Vatva, Vatva, Ahmedabad - 382445, Dist.Ahmedabad, Gujarat",8047640501,
"Flavoured Liquid Detergent, 5 L",https://www.indiamart.com/proddetail/flavoured-liquid-detergent-2854513120891.html?pos=118&kwd=baby laundry liquid&tags=||||8230.883|Price|product|||TS|rsf:gd-|-stype:attr=1|qr_nm:gd|res:RC4|com-cf:nl|ptrs:na|ktp:N0|mc:185084|mtp:S|qry_typ:P|lang:en|wc:3|cs:8891|v=4,Milan Enterprise,https://www.indiamart.com/suratmilanenterprise/?pos=118&kwd=baby laundry liquid&tags=||||8230.883|Price|product|||TS|rsf:gd-|-stype:attr=1|qr_nm:gd|res:RC4|com-cf:nl|ptrs:na|ktp:N0|mc:185084|mtp:S|qry_typ:P|lang:en|wc:3|cs:8891|v=4,False,NANA VARACHHA,Surat,"Plot No.16,,Vinayak Society,Nana Varachha,SURAT, NANA VARACHHA, Surat - 395006, Dist.Surat, Gujarat",7949324622,
"Lavender Super Power Ilavarsi Liquid Detergent, Packaging Type: Plastic Bottle, Packaging Size: 500 Ml",https://www.indiamart.com/proddetail/super-power-ilavarsi-liquid-detergent-23141379291.html?pos=119&kwd=baby laundry liquid&tags=||||8706.587|Price|product|||TS|rsf:gd-|-stype:attr=1|qr_nm:gd|res:RC4|com-cf:nl|ptrs:na|ktp:N0|mc:185084|mtp:S|qry_typ:P|lang:en|wc:3|cs:8891|v=4,Vairam Japbar Chemicals & Herbals,https://www.indiamart.com/vairamjapbarchemicals-herbals/?pos=119&kwd=baby laundry liquid&tags=||||8706.587|Price|product|||TS|rsf:gd-|-stype:attr=1|qr_nm:gd|res:RC4|com-cf:nl|ptrs:na|ktp:N0|mc:185084|mtp:S|qry_typ:P|lang:en|wc:3|cs:8891|v=4,False,Samanatham,Madurai,"138 C,,Keela , Theru, Chinthamani, Samanatham, Madurai - 625009, Dist.Madurai, Tamil Nadu",8046051275,
"Acid Slurry 90%, Packaging Size: 50 kg, Liquid",https://www.indiamart.com/proddetail/acid-slurry-90-2853269204048.html?pos=120&kwd=baby laundry liquid&tags=||||8752.144|Price|product|||TS|rsf:gd-|-stype:attr=1|qr_nm:gd|res:RC4|com-cf:nl|ptrs:na|ktp:N0|mc:185084|mtp:S|qry_typ:P|lang:en|wc:3|cs:8891|v=4,Chemtech Marketing,https://www.chemtechmarketing.com/?pos=120&kwd=baby laundry liquid&tags=||||8752.144|Price|product|||TS|rsf:gd-|-stype:attr=1|qr_nm:gd|res:RC4|com-cf:nl|ptrs:na|ktp:N0|mc:185084|mtp:S|qry_typ:P|lang:en|wc:3|cs:8891|v=4,False,MODEL TOWN,New Delhi,"Ground Floor, B-1/15, Model Town, MODEL TOWN, New Delhi - 110009, Dist.Delhi, Delhi",8048953372,
Callington ProLaun L8 - Liquid Starch,https://www.indiamart.com/proddetail/callington-prolaun-l8-liquid-starch-2853641629855.html?pos=121&kwd=baby laundry liquid&tags=||||8954.051||product|||TS|rsf:gd-|-stype:attr=1|qr_nm:gd|res:RC4|com-cf:nl|ptrs:na|ktp:N0|mc:185084|mtp:S|qry_typ:P|lang:en|wc:3|cs:8891|v=4,Ideator Trading LLP,https://www.indiamart.com/ideator-trading/?pos=121&kwd=baby laundry liquid&tags=||||8954.051||product|||TS|rsf:gd-|-stype:attr=1|qr_nm:gd|res:RC4|com-cf:nl|ptrs:na|ktp:N0|mc:185084|mtp:S|qry_typ:P|lang:en|wc:3|cs:8891|v=4,False,Ashok Nagar Sarvamangal Colony,Chennai,"No-1, 34th Street, 3RD Avenue, Ashok Nagar, Ashok Nagar Sarvamangal Colony, Chennai - 600083, Dist.Chennai, Tamil Nadu",7942795885,
5L Liquid Laundry Detergent,https://www.indiamart.com/proddetail/5l-liquid-laundry-detergent-2854351515712.html?pos=122&kwd=baby laundry liquid&tags=||||8038.093|Price|product|||MDC|rsf:gd-|-stype:attr=1|qr_nm:gd|res:RC4|com-cf:nl|ptrs:na|ktp:N0|mc:185084|mtp:S|qry_typ:P|lang:en|wc:3|cs:8891|v=4,Radhekrishna Soap Work,https://www.indiamart.com/radhekrishnasoapwork/?pos=122&kwd=baby laundry liquid&tags=||||8038.093|Price|product|||MDC|rsf:gd-|-stype:attr=1|qr_nm:gd|res:RC4|com-cf:nl|ptrs:na|ktp:N0|mc:185084|mtp:S|qry_typ:P|lang:en|wc:3|cs:8891|v=4,False,Indian Oil Petrol Pump Madhapara Village,Rajkot,"Plot No.6, Nr Dwarkadish Petrol Pump, Ishwariya Mahadev Park, Chokiwadi Suchit, Jam Nagar Road, Indian Oil Petrol Pump Madhapara Village, Rajkot - 360006, Dist.Rajkot, Gujarat",7949086491,
"Blue Laundry Liquid Detergent, For Washing, Bottle",https://www.indiamart.com/proddetail/blue-laundry-liquid-detergent-2854367159688.html?pos=123&kwd=baby laundry liquid&tags=||||8556.86|Price|product|||MDC|rsf:gd-|-stype:attr=1|qr_nm:gd|res:RC4|com-cf:nl|ptrs:na|ktp:N0|mc:185084|mtp:S|qry_typ:P|lang:en|wc:3|cs:8891|v=4,DSPL Powders & Liquid,https://www.indiamart.com/dsplpowdersliquid/?pos=123&kwd=baby laundry liquid&tags=||||8556.86|Price|product|||MDC|rsf:gd-|-stype:attr=1|qr_nm:gd|res:RC4|com-cf:nl|ptrs:na|ktp:N0|mc:185084|mtp:S|qry_typ:P|lang:en|wc:3|cs:8891|v=4,False,,Ujjain,"Ground Floor, No- 229, Shastri Nagar, Near Sastri Nagar Ground, Ujjainkothi, Ujjain - 456010, Dist.Ujjain, Madhya Pradesh",7949336593,
"Microx-1112 Detergent Liquid, 5 L",https://www.indiamart.com/proddetail/microx-1112-detergent-liquid-2854894529397.html?pos=124&kwd=baby laundry liquid&tags=||||8663.873||product|||MDC|rsf:gd-|-stype:attr=1|qr_nm:gd|res:RC4|com-cf:nl|ptrs:na|ktp:N0|mc:185084|mtp:S|qry_typ:P|lang:en|wc:3|cs:8891|v=4,Microquest India Private Limited,https://www.indiamart.com/microquestindia/?pos=124&kwd=baby laundry liquid&tags=||||8663.873||product|||MDC|rsf:gd-|-stype:attr=1|qr_nm:gd|res:RC4|com-cf:nl|ptrs:na|ktp:N0|mc:185084|mtp:S|qry_typ:P|lang:en|wc:3|cs:8891|v=4,False,Sudhama Nagar,Bengaluru,"No.21/A, III Main,Jai Bheema Nagar, B.T.M Layout,1st Stage,Urban, Sudhama Nagar, Bengaluru - 560027, Dist.Bengaluru, Karnataka",7942968774,
"Liquid Detergent Concentrate 8X, 5 L",https://www.indiamart.com/proddetail/liquid-detergent-concentrate-8x-2849753649548.html?pos=125&kwd=baby laundry liquid&tags=||||9045.955|Price|product|||MDC|rsf:gd-|-stype:attr=1|qr_nm:gd|res:RC4|com-cf:nl|ptrs:na|ktp:N0|mc:185084|mtp:S|qry_typ:P|lang:en|wc:3|cs:8891|v=4,Shanti Associates,https://www.indiamart.com/shantiassociateskanpur/?pos=125&kwd=baby laundry liquid&tags=||||9045.955|Price|product|||MDC|rsf:gd-|-stype:attr=1|qr_nm:gd|res:RC4|com-cf:nl|ptrs:na|ktp:N0|mc:185084|mtp:S|qry_typ:P|lang:en|wc:3|cs:8891|v=4,False,Nirala Nagar,Kanpur,"19/12, CHARAN SINGH COLONY, Nirala Nagar, Kanpur - 208014, Uttar Pradesh",7942535753,
"Lavender Detergent Liquid, Packaging Type: Can, Packaging Size: 50 L",https://www.indiamart.com/proddetail/detergent-liquid-22402158630.html?pos=126&kwd=baby laundry liquid&tags=||||8584.299|Price|product|||MDC|rsf:gd-|-stype:attr=1|qr_nm:gd|res:RC4|com-cf:nl|ptrs:na|ktp:N0|mc:185084|mtp:S|qry_typ:P|lang:en|wc:3|cs:8891|v=4,Klean Klub,https://www.indiamart.com/kleanklub/?pos=126&kwd=baby laundry liquid&tags=||||8584.299|Price|product|||MDC|rsf:gd-|-stype:attr=1|qr_nm:gd|res:RC4|com-cf:nl|ptrs:na|ktp:N0|mc:185084|mtp:S|qry_typ:P|lang:en|wc:3|cs:8891|v=4,False,Kalveerampalayam,Coimbatore,"NO. 16/138,,BALAJI NAGAR, IOB COLONY,BHARATHIYAR UNIVERSITY POST, Kalveerampalayam, Coimbatore - 641046, Dist.Coimbatore, Tamil Nadu",7942537502,
"Plain Dr Clean Laundry Washing Liquid, 5 L",https://www.indiamart.com/proddetail/dr-clean-laundry-washing-liquid-2850268053448.html?pos=127&kwd=baby laundry liquid&tags=||||8584.299|Price|product|||MDC|rsf:gd-|-stype:attr=1|qr_nm:gd|res:RC4|com-cf:nl|ptrs:na|ktp:N0|mc:185084|mtp:S|qry_typ:P|lang:en|wc:3|cs:8891|v=4,Dr Clean Green Care Technologies,https://www.indiamart.com/drclean-green-caretechnologies/?pos=127&kwd=baby laundry liquid&tags=||||8584.299|Price|product|||MDC|rsf:gd-|-stype:attr=1|qr_nm:gd|res:RC4|com-cf:nl|ptrs:na|ktp:N0|mc:185084|mtp:S|qry_typ:P|lang:en|wc:3|cs:8891|v=4,False,Velandipalayam,Coimbatore,"No.264/2B, Dr.Ambedkar Road, Velandipalayam, Coimbatore - 641025, Dist.Coimbatore, Tamil Nadu",7942815895,
"20 L Kleanpro L Det Liquid Laundry Detergent, Can",https://www.indiamart.com/proddetail/20-l-kleanpro-l-det-liquid-laundry-detergent-2854395482012.html?pos=128&kwd=baby laundry liquid&tags=||||8752.144|Price|product|||MDC|rsf:gd-|-stype:attr=1|qr_nm:gd|res:RC4|com-cf:nl|ptrs:na|ktp:N0|mc:185084|mtp:S|qry_typ:P|lang:en|wc:3|cs:8891|v=4,Kleanfix Industries Private Limited,https://www.indiamart.com/kleanfixindustries/?pos=128&kwd=baby laundry liquid&tags=||||8752.144|Price|product|||MDC|rsf:gd-|-stype:attr=1|qr_nm:gd|res:RC4|com-cf:nl|ptrs:na|ktp:N0|mc:185084|mtp:S|qry_typ:P|lang:en|wc:3|cs:8891|v=4,False,South East Delhi,New Delhi,"1733-A-5 F/F, Main Rd New Delhi, Govindpuri Extension, South East Delhi, New Delhi - 110019, Dist.Delhi, Delhi",7949337090,
Liquid Detergent Fab Wash Fragrance,https://www.indiamart.com/proddetail/liquid-detergent-fab-wash-fragrance-2852181355333.html?pos=129&kwd=baby laundry liquid&tags=||||8954.051|Price|product|||TS|rsf:gd-|-stype:attr=1|qr_nm:gd|res:RC4|com-cf:nl|ptrs:na|ktp:N0|mc:185084|mtp:S|qry_typ:P|lang:en|wc:3|cs:8891|v=4,Ensens Perfumery Private Limited,https://www.ensensperfume.com/?pos=129&kwd=baby laundry liquid&tags=||||8954.051|Price|product|||TS|rsf:gd-|-stype:attr=1|qr_nm:gd|res:RC4|com-cf:nl|ptrs:na|ktp:N0|mc:185084|mtp:S|qry_typ:P|lang:en|wc:3|cs:8891|v=4,False,Anna Nagar,Chennai,"No, 3055, Zazo Gourmet, 5th Street, Nehru Nagar, 13th Main Road, Anna Nagar, Anna Nagar, Chennai - 600040, Dist.Chennai, Tamil Nadu",8047674931,
"Premium Liquid Detergent, Packaging Type: Plastic Bottle",https://www.indiamart.com/proddetail/premium-liquid-detergent-20121944255.html?pos=130&kwd=baby laundry liquid&tags=||||8228.275|Price|product|||TS|rsf:gd-|-stype:attr=1|qr_nm:gd|res:RC4|com-cf:nl|ptrs:na|ktp:N0|mc:185084|mtp:S|qry_typ:P|lang:en|wc:3|cs:8891|v=4,Saya Colour Fragrance Private Limited,https://www.sayacolourfragrance.in/?pos=130&kwd=baby laundry liquid&tags=||||8228.275|Price|product|||TS|rsf:gd-|-stype:attr=1|qr_nm:gd|res:RC4|com-cf:nl|ptrs:na|ktp:N0|mc:185084|mtp:S|qry_typ:P|lang:en|wc:3|cs:8891|v=4,False,Vatva,Ahmedabad,"THIRD FLOOR 44 45 GIDC NEAR GAYATRI RESTAURANT VATVA RUDRAX COMMERCIAL CO. OP. II AHMEDABAD Gidc, Near Gayatri Restaurant, Vatva,, Vatva, Ahmedabad - 382445, Dist.Ahmedabad, Gujarat",8047631422,
"Lavender Laundry Detergent Liquid - WASMIC, 5 L",https://www.indiamart.com/proddetail/laundry-detergent-liquid-wasmic-23827717791.html?pos=131&kwd=baby laundry liquid&tags=||||8954.051|Price|product|||TS|rsf:gd-|-stype:attr=1|qr_nm:gd|res:RC4|com-cf:nl|ptrs:na|ktp:N0|mc:185084|mtp:S|qry_typ:P|lang:en|wc:3|cs:8891|v=4,Arima Chemicals & Systems,https://www.indiamart.com/arimachemicalssystems-chennai/?pos=131&kwd=baby laundry liquid&tags=||||8954.051|Price|product|||TS|rsf:gd-|-stype:attr=1|qr_nm:gd|res:RC4|com-cf:nl|ptrs:na|ktp:N0|mc:185084|mtp:S|qry_typ:P|lang:en|wc:3|cs:8891|v=4,False,Urapakkam,Chennai,"No 6, Priya Nagar First Street, Urapakkam, Urapakkam, Chennai - 603210, Dist.Chennai, Tamil Nadu",8048602565,
"Lemon AFLASH LIQUID DETERGENT 5000ML, 1 L",https://www.indiamart.com/proddetail/aflash-liquid-detergent-5000ml-2851941647512.html?pos=132&kwd=baby laundry liquid&tags=||||8559.269|Price|product|||TS|rsf:gd-|-stype:attr=1|qr_nm:gd|res:RC4|com-cf:nl|ptrs:na|ktp:N0|mc:185084|mtp:S|qry_typ:P|lang:en|wc:3|cs:8891|v=4,Aflash Clean Masters Private Limited,https://www.indiamart.com/aflashcleanmasters/?pos=132&kwd=baby laundry liquid&tags=||||8559.269|Price|product|||TS|rsf:gd-|-stype:attr=1|qr_nm:gd|res:RC4|com-cf:nl|ptrs:na|ktp:N0|mc:185084|mtp:S|qry_typ:P|lang:en|wc:3|cs:8891|v=4,False,Nemawar Road Palda Indore,Indore,"House No- 104, Row House, IDA, Scheme No. 78, Aranya Nagar, Nemawar Road Palda Indore, Indore - 452010, Dist.Indore, Madhya Pradesh",8046074658,
"Jasmine Blue AM Care Liquid Detergent, Packaging Type: Plastic Bottle, Packaging Size: 500 Ml,1 Litre",https://www.indiamart.com/proddetail/am-care-liquid-detergent-22675951655.html?pos=133&kwd=baby laundry liquid&tags=||||9045.955|Price|product|||TS|rsf:gd-|-stype:attr=1|qr_nm:gd|res:RC4|com-cf:nl|ptrs:na|ktp:N0|mc:185084|mtp:S|qry_typ:P|lang:en|wc:3|cs:8891|v=4,Rsa Mart,https://www.indiamart.com/rsamart/?pos=133&kwd=baby laundry liquid&tags=||||9045.955|Price|product|||TS|rsf:gd-|-stype:attr=1|qr_nm:gd|res:RC4|com-cf:nl|ptrs:na|ktp:N0|mc:185084|mtp:S|qry_typ:P|lang:en|wc:3|cs:8891|v=4,False,Kidwai Nagar,Kanpur,"Room No. 1, 87, O Block, Kidwai Nagar, Kidwai Nagar, Kanpur - 208011, Uttar Pradesh",7942548508,
"Liquid Shower Gel Concentrate, Drum, Packaging Size: 210 kg",https://www.indiamart.com/proddetail/shower-gel-concentrate-19897278812.html?pos=134&kwd=baby laundry liquid&tags=||||8228.275|Price|product|||TS|rsf:gd-|-stype:attr=1|qr_nm:gd|res:RC4|com-cf:nl|ptrs:na|ktp:N0|mc:185084|mtp:S|qry_typ:P|lang:en|wc:3|cs:8891|v=4,Kresko Projects Private Limited,https://www.kreskoprojects.com/?pos=134&kwd=baby laundry liquid&tags=||||8228.275|Price|product|||TS|rsf:gd-|-stype:attr=1|qr_nm:gd|res:RC4|com-cf:nl|ptrs:na|ktp:N0|mc:185084|mtp:S|qry_typ:P|lang:en|wc:3|cs:8891|v=4,True,Naranpura Vistar,Ahmedabad,"39/457, Raghukul Apartment, Opposite Devi Hospital Sola Road, Naranpura Vistar, Ahmedabad - 380013, Dist.Ahmedabad, Gujarat",8048611986,
"Lemon areno Liquid Detergent, 1 L",https://www.indiamart.com/proddetail/areno-liquid-detergent-13406676512.html?pos=135&kwd=baby laundry liquid&tags=||||8661.854|Price|product|||TS|rsf:gd-|-stype:attr=1|qr_nm:gd|res:RC4|com-cf:nl|ptrs:na|ktp:N0|mc:185084|mtp:S|qry_typ:P|lang:en|wc:3|cs:8891|v=4,Tanya Industries,https://www.tanyaindustries.in/?pos=135&kwd=baby laundry liquid&tags=||||8661.854|Price|product|||TS|rsf:gd-|-stype:attr=1|qr_nm:gd|res:RC4|com-cf:nl|ptrs:na|ktp:N0|mc:185084|mtp:S|qry_typ:P|lang:en|wc:3|cs:8891|v=4,False,Model Town,Ludhiana,"No. 269, Phase 1, Dugri, Model Town, Ludhiana - 141002, Dist.Ludhiana, Punjab",8048612099,
Lavender 500ml Liquid Detergent,https://www.indiamart.com/proddetail/500ml-liquid-detergent-27152358112.html?pos=136&kwd=baby laundry liquid&tags=||||8838.804|Price|product|||TS|rsf:gd-|-stype:attr=1|qr_nm:gd|res:RC4|com-cf:nl|ptrs:na|ktp:N0|mc:185084|mtp:S|qry_typ:P|lang:en|wc:3|cs:8891|v=4,Karishma Home Care,https://www.karishmahomecares.com/?pos=136&kwd=baby laundry liquid&tags=||||8838.804|Price|product|||TS|rsf:gd-|-stype:attr=1|qr_nm:gd|res:RC4|com-cf:nl|ptrs:na|ktp:N0|mc:185084|mtp:S|qry_typ:P|lang:en|wc:3|cs:8891|v=4,False,Naurangabad,Aligarh,"Kundan Nagar, Naurangabaad, Naurangabad, Aligarh - 202001, Uttar Pradesh",8047545525,
"Concentrated Laundry Detergent, 5 L",https://www.indiamart.com/proddetail/concentrated-laundry-detergent-2854568342333.html?pos=137&kwd=baby laundry liquid&tags=||||8230.883|Price|product|||TS|rsf:gd-|-stype:attr=1|qr_nm:gd|res:RC4|com-cf:nl|ptrs:na|ktp:N0|mc:185084|mtp:S|qry_typ:P|lang:en|wc:3|cs:8891|v=4,Rixim Detergent & Chemicals,https://www.indiamart.com/rixim-detergent-chemicals/?pos=137&kwd=baby laundry liquid&tags=||||8230.883|Price|product|||TS|rsf:gd-|-stype:attr=1|qr_nm:gd|res:RC4|com-cf:nl|ptrs:na|ktp:N0|mc:185084|mtp:S|qry_typ:P|lang:en|wc:3|cs:8891|v=4,False,Nana Varachha,Surat,"Shop No. - 3, Tulsi Row House Shopping Center, Tulsi Row House, Nr. Yogi Chowk, Puna Simada Road Punagam, Nana Varachha, Surat - 395010, Dist.Surat, Gujarat",7942816686,
"Sanhita 1 Liter Ultra Cleaner Machin Liquid, For Cleaning, Jasmine",https://www.indiamart.com/proddetail/sanhita-1-liter-ultra-cleaner-machin-liquid-2851268213991.html?pos=138&kwd=baby laundry liquid&tags=||||8040.9463|Price|product|||TS|rsf:gd-|-stype:attr=1|qr_nm:gd|res:RC4|com-cf:nl|ptrs:na|ktp:N0|mc:185084|mtp:S|qry_typ:P|lang:en|wc:3|cs:8891|v=4,Sanhita Chemicals,https://www.sanhitachemicals.com/?pos=138&kwd=baby laundry liquid&tags=||||8040.9463|Price|product|||TS|rsf:gd-|-stype:attr=1|qr_nm:gd|res:RC4|com-cf:nl|ptrs:na|ktp:N0|mc:185084|mtp:S|qry_typ:P|lang:en|wc:3|cs:8891|v=4,False,,Kotda Sangani,"Supreme Industries,, Shed No.5 6 7 Plot No.1-5 1-6 1-7, Sanhita Chemicals, S.R.No.166 P2, Veraval Padavala Road, Ta. Kotda Sangani, Bh Ishwar Way Bridge, Padavala, Kotda Sangani - 360030, Gujarat",7942834101,
Jeedo Liquid Detergent,https://www.indiamart.com/proddetail/jeedo-liquid-detergent-23921393888.html?pos=139&kwd=baby laundry liquid&tags=||||8891.556|Price|product|||TS|rsf:gd-|-stype:attr=1|qr_nm:gd|res:RC4|com-cf:nl|ptrs:na|ktp:N0|mc:185084|mtp:S|qry_typ:P|lang:en|wc:3|cs:8891|v=4,Jeedo Bio Tech,https://www.indiamart.com/jeedobiotech/?pos=139&kwd=baby laundry liquid&tags=||||8891.556|Price|product|||TS|rsf:gd-|-stype:attr=1|qr_nm:gd|res:RC4|com-cf:nl|ptrs:na|ktp:N0|mc:185084|mtp:S|qry_typ:P|lang:en|wc:3|cs:8891|v=4,False,Ayyampettai,Kancheepuram,"No. 4B, Big Street, Thimmaiyanpettai,, Ayyampettai, Kancheepuram - 631601, Dist.Kanchipuram, Tamil Nadu",8046077917,
"HAZI quick detergent liquid, 5 Kg",https://www.indiamart.com/proddetail/hazi-quick-detergent-liquid-2853587987312.html?pos=140&kwd=baby laundry liquid&tags=||||8571.301|Price|product|||MDC|rsf:gd-|-stype:attr=1|qr_nm:gd|res:RC4|com-cf:nl|ptrs:na|ktp:N0|mc:185084|mtp:S|qry_typ:P|lang:en|wc:3|cs:8891|v=4,Hazeena Chemical Industries,https://www.indiamart.com/hazeena-chemical-industries/?pos=140&kwd=baby laundry liquid&tags=||||8571.301|Price|product|||MDC|rsf:gd-|-stype:attr=1|qr_nm:gd|res:RC4|com-cf:nl|ptrs:na|ktp:N0|mc:185084|mtp:S|qry_typ:P|lang:en|wc:3|cs:8891|v=4,False,Thiruvananthapuram,Thiruvananthapuram,"TC 32/489 Kochuveli, Thiruvananthapuram, Thiruvananthapuram - 695021, Dist.Thiruvananthapuram, Kerala",7942557282,
"Lavender Laundry Liquid Detergent, 1 L",https://www.indiamart.com/proddetail/laundry-liquid-detergent-2854566630773.html?pos=141&kwd=baby laundry liquid&tags=||||7981.8203||product|||TS|rsf:gd-|-stype:attr=1|qr_nm:gd|res:RC4|com-cf:nl|ptrs:na|ktp:N0|mc:185084|mtp:S|qry_typ:P|lang:en|wc:3|cs:8891|v=4,TMB Pharma Group Of Company,https://www.indiamart.com/tmbpharmagroupofcompany/?pos=141&kwd=baby laundry liquid&tags=||||7981.8203||product|||TS|rsf:gd-|-stype:attr=1|qr_nm:gd|res:RC4|com-cf:nl|ptrs:na|ktp:N0|mc:185084|mtp:S|qry_typ:P|lang:en|wc:3|cs:8891|v=4,False,Kotada Sangani,Shapar,"Sr No-277/1, Plot No-12/A, Shed No-2, Near Radhe Agro Foods, Opp Kaneriya Oil Mill, Kotada Sangani, Shapar - 360024, Gujarat",8047651286,
"Lemon Blue Liquid Laundry Detergent, Packaging Type: Plastic Bottle, Packaging Size: 5 Lts",https://www.indiamart.com/proddetail/liquid-laundry-detergent-23441560173.html?pos=142&kwd=baby laundry liquid&tags=||||8230.883|Price|product|||TS|rsf:gd-|-stype:attr=1|qr_nm:gd|res:RC4|com-cf:nl|ptrs:na|ktp:N0|mc:185084|mtp:S|qry_typ:P|lang:en|wc:3|cs:8891|v=4,Shidimo Interaux Private Limited,https://www.shidimo.in/?pos=142&kwd=baby laundry liquid&tags=||||8230.883|Price|product|||TS|rsf:gd-|-stype:attr=1|qr_nm:gd|res:RC4|com-cf:nl|ptrs:na|ktp:N0|mc:185084|mtp:S|qry_typ:P|lang:en|wc:3|cs:8891|v=4,False,Lajpore,Surat,"Survey No. 245/A4,Surat Navsari Highway, Nr. Laj Dairy,Opp. Lajpore Central Jail, Lajpore,Surat, Lajpore, Surat - 394235, Dist.Surat, Gujarat",8048969955,
"Lemon Laundry Liquid Detergent, 25 Kg",https://www.indiamart.com/proddetail/laundry-liquid-detergent-2853361803591.html?pos=143&kwd=baby laundry liquid&tags=||||8211.142|Price|product|||MDC|rsf:gd-|-stype:attr=1|qr_nm:gd|res:RC4|com-cf:nl|ptrs:na|ktp:N0|mc:185084|mtp:S|qry_typ:P|lang:en|wc:3|cs:8891|v=4,Hukum Enterprises,https://www.indiamart.com/hukumenterprises/?pos=143&kwd=baby laundry liquid&tags=||||8211.142|Price|product|||MDC|rsf:gd-|-stype:attr=1|qr_nm:gd|res:RC4|com-cf:nl|ptrs:na|ktp:N0|mc:185084|mtp:S|qry_typ:P|lang:en|wc:3|cs:8891|v=4,False,Ghatkopar West,Mumbai,"Gala No 5, Loyalka Compound, Off Bardan Gall, J.M.M Road, Asalpha Village, Ghatkopar West, Suburban, Ghatkopar West, Mumbai - 400084, Dist.Mumbai, Maharashtra",7942964417,
Laundry Liquid Detergents,https://www.indiamart.com/proddetail/laundry-liquid-detergents-2849522248597.html?pos=144&kwd=baby laundry liquid&tags=||||8228.275|Price|product|||MDC|rsf:gd-|-stype:attr=1|qr_nm:gd|res:RC4|com-cf:nl|ptrs:na|ktp:N0|mc:185084|mtp:S|qry_typ:P|lang:en|wc:3|cs:8891|v=4,Ishine Industries,https://www.indiamart.com/ishineindustries/?pos=144&kwd=baby laundry liquid&tags=||||8228.275|Price|product|||MDC|rsf:gd-|-stype:attr=1|qr_nm:gd|res:RC4|com-cf:nl|ptrs:na|ktp:N0|mc:185084|mtp:S|qry_typ:P|lang:en|wc:3|cs:8891|v=4,False,Karmchari Nagar,Ahmedabad,"59/1, Gokulnagar Chhapra, Nr Blind School, B/H Sector-5, Karmchari Nagar, Ahmedabad - 380061, Dist.Ahmedabad, Gujarat",7942823806,
Triplus Liquid Detergent - Front Load & Top Load,https://www.indiamart.com/proddetail/triplus-liquid-detergent-front-load-top-load-2853510635048.html?pos=145&kwd=baby laundry liquid&tags=||||8507.67||product|||MDC|rsf:gd-|-stype:attr=1|qr_nm:gd|res:RC4|com-cf:nl|ptrs:na|ktp:N0|mc:185084|mtp:S|qry_typ:P|lang:en|wc:3|cs:8891|v=4,Transware Enterprises,https://www.indiamart.com/transwareenterprises/?pos=145&kwd=baby laundry liquid&tags=||||8507.67||product|||MDC|rsf:gd-|-stype:attr=1|qr_nm:gd|res:RC4|com-cf:nl|ptrs:na|ktp:N0|mc:185084|mtp:S|qry_typ:P|lang:en|wc:3|cs:8891|v=4,False,Edappally,Ernakulam,"32/1832G,Koduvathara Road, Padivattom, P.O., Edapally, Edappally, Ernakulam - 682011, Dist.Ernakulam, Kerala",8047827730,
"Washing Liquid Soap, Package Size: 5 kg",https://www.indiamart.com/proddetail/liquid-washing-clothes-soap-2853741562673.html?pos=146&kwd=baby laundry liquid&tags=||||8823.154|Price|product|||MDC|rsf:gd-|-stype:attr=1|qr_nm:gd|res:RC4|com-cf:nl|ptrs:na|ktp:N0|mc:185084|mtp:S|qry_typ:P|lang:en|wc:3|cs:8891|v=4,Gupta Chemical,https://www.indiamart.com/guptachemical-agra/?pos=146&kwd=baby laundry liquid&tags=||||8823.154|Price|product|||MDC|rsf:gd-|-stype:attr=1|qr_nm:gd|res:RC4|com-cf:nl|ptrs:na|ktp:N0|mc:185084|mtp:S|qry_typ:P|lang:en|wc:3|cs:8891|v=4,False,,Agra,"B-765, Trans Yamuna Colony, Balvihar Park Phase -1, Rambagh, Agra - 282001, Dist.Agra, Uttar Pradesh",7949329848,
Lavender 5L Liquid Detergent,https://www.indiamart.com/proddetail/5l-lavender-liquid-detergent-2853134744362.html?pos=147&kwd=baby laundry liquid&tags=||||8786.56|Price|product|||MDC|rsf:gd-|-stype:attr=1|qr_nm:gd|res:RC4|com-cf:nl|ptrs:na|ktp:N0|mc:185084|mtp:S|qry_typ:P|lang:en|wc:3|cs:8891|v=4,Bajrang Enterprises,https://www.indiamart.com/bajrangenterprises-hyderabad/?pos=147&kwd=baby laundry liquid&tags=||||8786.56|Price|product|||MDC|rsf:gd-|-stype:attr=1|qr_nm:gd|res:RC4|com-cf:nl|ptrs:na|ktp:N0|mc:185084|mtp:S|qry_typ:P|lang:en|wc:3|cs:8891|v=4,False,,Hyderabad,"Plot No.105/Part/Nort, Subhash Nagar, Jeedimetla, Medchal Malkajgiri, Hyderabad - 500055, Dist.Hyderabad, Telangana",8044017245,
"Jasmine Detargan liquid, 5 L",https://www.indiamart.com/proddetail/detargan-liquid-2854959337062.html?pos=148&kwd=baby laundry liquid&tags=||||8224.965|Price|product|||MDC|rsf:gd-|-stype:attr=1|qr_nm:gd|res:RC4|com-cf:nl|ptrs:na|ktp:N0|mc:185084|mtp:S|qry_typ:P|lang:en|wc:3|cs:8891|v=4,Umiya Enterprise,https://www.indiamart.com/umiyaenterprise-kalolgujarat/?pos=148&kwd=baby laundry liquid&tags=||||8224.965|Price|product|||MDC|rsf:gd-|-stype:attr=1|qr_nm:gd|res:RC4|com-cf:nl|ptrs:na|ktp:N0|mc:185084|mtp:S|qry_typ:P|lang:en|wc:3|cs:8891|v=4,False,,Kalol,"Shed No. 5/2, Parishram Industrial Estate, Khatraj, Kalol - 382721, Dist.Gandhi Nagar, Gujarat",8044460728,
"Lavender Fabric Care Detergent Liquid, 500 ml",https://www.indiamart.com/proddetail/fabric-care-detergent-liquid-2853740532273.html?pos=149&kwd=baby laundry liquid&tags=||||8601.347|Price|product|||MDC|rsf:gd-|-stype:attr=1|qr_nm:gd|res:RC4|com-cf:nl|ptrs:na|ktp:N0|mc:185084|mtp:S|qry_typ:P|lang:en|wc:3|cs:8891|v=4,AMD Group Of Companies,https://www.indiamart.com/amd-groupof-companies/?pos=149&kwd=baby laundry liquid&tags=||||8601.347|Price|product|||MDC|rsf:gd-|-stype:attr=1|qr_nm:gd|res:RC4|com-cf:nl|ptrs:na|ktp:N0|mc:185084|mtp:S|qry_typ:P|lang:en|wc:3|cs:8891|v=4,False,Bagru,Jaipur,"50, Khatiyo Ka Mohalla Bagru, Bagru, Jaipur - 303007, Dist.Jaipur, Rajasthan",7949373371,
"Jasmine Laundry Liquid Detergent, 5 L",https://www.indiamart.com/proddetail/laundry-liquid-detergent-2852594039748.html?pos=150&kwd=baby laundry liquid&tags=||||8739.675|Price|product|||MDC|rsf:gd-|-stype:attr=1|qr_nm:gd|res:RC4|com-cf:nl|ptrs:na|ktp:N0|mc:185084|mtp:S|qry_typ:P|lang:en|wc:3|cs:8891|v=4,Disha's Organic,https://www.indiamart.com/dishas-organic/?pos=150&kwd=baby laundry liquid&tags=||||8739.675|Price|product|||MDC|rsf:gd-|-stype:attr=1|qr_nm:gd|res:RC4|com-cf:nl|ptrs:na|ktp:N0|mc:185084|mtp:S|qry_typ:P|lang:en|wc:3|cs:8891|v=4,False,Wadali Naka,Amravati,"01, Near LIC Colony, Chhabada Plot, Rukhmini Nagar, Wadali Naka, Amravati - 444606, Dist.Amravati, Maharashtra",7942784050,
1L Matic Liquid Detergent,https://www.indiamart.com/proddetail/1l-matic-liquid-detergent-2854640907255.html?pos=151&kwd=baby laundry liquid&tags=||||8218.885|Price|product|||MDC|rsf:gd-|-stype:attr=1|qr_nm:gd|res:RC4|com-cf:nl|ptrs:na|ktp:N0|mc:185084|mtp:S|qry_typ:P|lang:en|wc:3|cs:8891|v=4,Aadhya Soap Industries,https://www.indiamart.com/aadhyasoapindustrieschhatral/?pos=151&kwd=baby laundry liquid&tags=||||8218.885|Price|product|||MDC|rsf:gd-|-stype:attr=1|qr_nm:gd|res:RC4|com-cf:nl|ptrs:na|ktp:N0|mc:185084|mtp:S|qry_typ:P|lang:en|wc:3|cs:8891|v=4,False,,Chhatral,"Shed, Plot No.-10, M.S Industrial Park, Ambapura Road, Kalol, GIDC, Phase-3, Chhatral - 382729, Dist.Gandhi Nagar, Gujarat",7949327847,
Matic Liquid Detergent 5 Ltr,https://www.indiamart.com/proddetail/matic-liquid-detergent-5-ltr-2854551697912.html?pos=152&kwd=baby laundry liquid&tags=||||8228.275|Price|product|||MDC|rsf:gd-|-stype:attr=1|qr_nm:gd|res:RC4|com-cf:nl|ptrs:na|ktp:N0|mc:185084|mtp:S|qry_typ:P|lang:en|wc:3|cs:8891|v=4,Bhagyalakshmi Medchem,https://www.indiamart.com/bhagyalakshmi-medchem/?pos=152&kwd=baby laundry liquid&tags=||||8228.275|Price|product|||MDC|rsf:gd-|-stype:attr=1|qr_nm:gd|res:RC4|com-cf:nl|ptrs:na|ktp:N0|mc:185084|mtp:S|qry_typ:P|lang:en|wc:3|cs:8891|v=4,False,,Ahmedabad,"6th Floor, Block-B-603, Shyam Vihar, India Colony Road, NR Shyam Kutir, Nikol, Ahmedabad - 382350, Dist.Ahmedabad, Gujarat",7949323989,
Cloth Liquid Detergent,https://www.indiamart.com/proddetail/cloth-liquid-detergent-2854681241555.html?pos=153&kwd=baby laundry liquid&tags=||||8772.255|Price|product|||MDC|rsf:gd-|-stype:attr=1|qr_nm:gd|res:RC4|com-cf:nl|ptrs:na|ktp:N0|mc:185084|mtp:S|qry_typ:P|lang:en|wc:3|cs:8891|v=4,Vardhaman Petro Chem India,https://www.indiamart.com/vardhamanpetrochemindia/?pos=153&kwd=baby laundry liquid&tags=||||8772.255|Price|product|||MDC|rsf:gd-|-stype:attr=1|qr_nm:gd|res:RC4|com-cf:nl|ptrs:na|ktp:N0|mc:185084|mtp:S|qry_typ:P|lang:en|wc:3|cs:8891|v=4,False,,Baraut,"In Front Of Gayatri Devi Collage,Malakpur Road, Baraut - 250611, Dist.Bagpat, Uttar Pradesh",7949341889,
2L Sodex Ocean Blue Liquid Laundry Detergent,https://www.indiamart.com/proddetail/2l-sodex-ocean-blue-liquid-laundry-detergent-2852171177973.html?pos=154&kwd=baby laundry liquid&tags=||||8954.051|Price|product|||TS|rsf:gd-|-stype:attr=1|qr_nm:gd|res:RC4|com-cf:nl|ptrs:na|ktp:N0|mc:185084|mtp:S|qry_typ:P|lang:en|wc:3|cs:8891|v=4,Ecoguard Labs,https://www.indiamart.com/ecoguard-labs-chennai/?pos=154&kwd=baby laundry liquid&tags=||||8954.051|Price|product|||TS|rsf:gd-|-stype:attr=1|qr_nm:gd|res:RC4|com-cf:nl|ptrs:na|ktp:N0|mc:185084|mtp:S|qry_typ:P|lang:en|wc:3|cs:8891|v=4,False,Mugalivakkam,Chennai,"Plot No.14, No.63/1b, Krishnaveni Nagar, Mugalivakkam,Kancheepuram, Mugalivakkam, Chennai - 600125, Dist.Chennai, Tamil Nadu",7942705552,
"Liquid Laundry Detergent, 50 Litre",https://www.indiamart.com/proddetail/liquid-laundry-detergent-23505069291.html?pos=155&kwd=baby laundry liquid&tags=||||8580.032|Price|product|||TS|rsf:gd-|-stype:attr=1|qr_nm:gd|res:RC4|com-cf:nl|ptrs:na|ktp:N0|mc:185084|mtp:S|qry_typ:P|lang:en|wc:3|cs:8891|v=4,Prince Chem,https://www.princechem.in/?pos=155&kwd=baby laundry liquid&tags=||||8580.032|Price|product|||TS|rsf:gd-|-stype:attr=1|qr_nm:gd|res:RC4|com-cf:nl|ptrs:na|ktp:N0|mc:185084|mtp:S|qry_typ:P|lang:en|wc:3|cs:8891|v=4,False,Focal Point,Amritsar,"E-90 New Focal Point Mehta Road Amritsar, Focal Point, Amritsar - 143001, Dist.Amritsar, Punjab",8046070104,
SLES 70%,https://www.indiamart.com/proddetail/sles-70-2854324930233.html?pos=156&kwd=baby laundry liquid&tags=||||8230.883|Price|product|||TS|rsf:gd-|-stype:attr=1|qr_nm:gd|res:RC4|com-cf:nl|ptrs:na|ktp:N0|mc:185084|mtp:S|qry_typ:P|lang:en|wc:3|cs:8891|v=4,Chemoland,https://www.chemoland.net/?pos=156&kwd=baby laundry liquid&tags=||||8230.883|Price|product|||TS|rsf:gd-|-stype:attr=1|qr_nm:gd|res:RC4|com-cf:nl|ptrs:na|ktp:N0|mc:185084|mtp:S|qry_typ:P|lang:en|wc:3|cs:8891|v=4,False,Udhana,Surat,"Plot No. 38, Ganeshkrupa, Barmoli Bamroli Road, Udhana, Surat - 394210, Dist.Surat, Gujarat",8047639835,
"Floral Bacnil Matic Liquid Detergent, 5L",https://www.indiamart.com/proddetail/bacnil-matic-liquid-detergent-2850546338912.html?pos=157&kwd=baby laundry liquid&tags=||||8307.81|Price|product|||TS|rsf:gd-|-stype:attr=1|qr_nm:gd|res:RC4|com-cf:nl|ptrs:na|ktp:N0|mc:185084|mtp:S|qry_typ:P|lang:en|wc:3|cs:8891|v=4,V Kleen Solutions,https://www.bacnil.in/?pos=157&kwd=baby laundry liquid&tags=||||8307.81|Price|product|||TS|rsf:gd-|-stype:attr=1|qr_nm:gd|res:RC4|com-cf:nl|ptrs:na|ktp:N0|mc:185084|mtp:S|qry_typ:P|lang:en|wc:3|cs:8891|v=4,False,Ashtapur,Pune,"Gat No.723, Milkat No.0961, Barangani Wasti Road, Wade Bolhai,, Ashtapur, Pune - 412207, Dist.Pune, Maharashtra",7942538802,
Tee Pol Detergent,https://www.indiamart.com/proddetail/tee-pol-detergent-2854646699748.html?pos=158&kwd=baby laundry liquid&tags=||||8788.382|Price|product|||TS|rsf:gd-|-stype:attr=1|qr_nm:gd|res:RC4|com-cf:nl|ptrs:na|ktp:N0|mc:185084|mtp:S|qry_typ:P|lang:en|wc:3|cs:8891|v=4,Triple Action Enterprises LLP,https://www.indiamart.com/triple-action-enterprises/?pos=158&kwd=baby laundry liquid&tags=||||8788.382|Price|product|||TS|rsf:gd-|-stype:attr=1|qr_nm:gd|res:RC4|com-cf:nl|ptrs:na|ktp:N0|mc:185084|mtp:S|qry_typ:P|lang:en|wc:3|cs:8891|v=4,False,Surajpur,Greater Noida,"I-142 , Site-c , Upsidc, Industerial Area, Surajpur, Gautam Buddha Nagar, Surajpur, Greater Noida - 201306, Dist.Gautam Budh Nagar, Uttar Pradesh",7942866611,
Lemon 1 Ltr Maxi Clean Liquid Detergent,https://www.indiamart.com/proddetail/1-ltr-maxi-clean-liquid-detergent-2853597787573.html?pos=159&kwd=baby laundry liquid&tags=||||9045.955|Price|product|||TS|rsf:gd-|-stype:attr=1|qr_nm:gd|res:RC4|com-cf:nl|ptrs:na|ktp:N0|mc:185084|mtp:S|qry_typ:P|lang:en|wc:3|cs:8891|v=4,MD Infotech,https://www.indiamart.com/mdinfotech-kanpur/?pos=159&kwd=baby laundry liquid&tags=||||9045.955|Price|product|||TS|rsf:gd-|-stype:attr=1|qr_nm:gd|res:RC4|com-cf:nl|ptrs:na|ktp:N0|mc:185084|mtp:S|qry_typ:P|lang:en|wc:3|cs:8891|v=4,False,Shyam Nagar,Kanpur,"119, E-Block, Shyam Nagar, Kanpur Nagar, Shyam Nagar, Kanpur - 208013, Uttar Pradesh",8045165870,
"Lemon Liquid Detergent, 5 Kg",https://www.indiamart.com/proddetail/liquid-detergent-2852943888748.html?pos=160&kwd=baby laundry liquid&tags=||||8752.144|Price|product|||TS|rsf:gd-|-stype:attr=1|qr_nm:gd|res:RC4|com-cf:nl|ptrs:na|ktp:N0|mc:185084|mtp:S|qry_typ:P|lang:en|wc:3|cs:8891|v=4,Aarav Hygiene Solutions,https://www.indiamart.com/aarav-hygiene-solutions/?pos=160&kwd=baby laundry liquid&tags=||||8752.144|Price|product|||TS|rsf:gd-|-stype:attr=1|qr_nm:gd|res:RC4|com-cf:nl|ptrs:na|ktp:N0|mc:185084|mtp:S|qry_typ:P|lang:en|wc:3|cs:8891|v=4,False,Siraspur,New Delhi,"216B Siraspur, Siraspur, New Delhi - 110042, Dist.Delhi, Delhi",8046037737,
"Jasmine Laundry Liquid Detergent, 500 ml",https://www.indiamart.com/proddetail/laundry-liquid-detergent-2849797184812.html?pos=161&kwd=baby laundry liquid&tags=||||8740.707|Price|product|||TS|rsf:gd-|-stype:attr=1|qr_nm:gd|res:RC4|com-cf:nl|ptrs:na|ktp:N0|mc:185084|mtp:S|qry_typ:P|lang:en|wc:3|cs:8891|v=4,Kumar Soaps And Chemicals,https://www.indiamart.com/kumarsoapschemicals/?pos=161&kwd=baby laundry liquid&tags=||||8740.707|Price|product|||TS|rsf:gd-|-stype:attr=1|qr_nm:gd|res:RC4|com-cf:nl|ptrs:na|ktp:N0|mc:185084|mtp:S|qry_typ:P|lang:en|wc:3|cs:8891|v=4,False,Sector 66,Mohali,"No. 437, Phase 9 Industrial Area, Sector 66, Mohali - 160062, Dist.Mohali, Punjab",7942548476,
Rewild Laundry Liquid Detergent,https://www.indiamart.com/proddetail/rewild-laundry-liquid-detergent-2852427612848.html?pos=162&kwd=baby laundry liquid&tags=||||8893.564|Price|product|||MDC|rsf:gd-|-stype:attr=1|qr_nm:gd|res:RC4|com-cf:nl|ptrs:na|ktp:N0|mc:185084|mtp:S|qry_typ:P|lang:en|wc:3|cs:8891|v=4,Sritham & Co.,https://www.indiamart.com/sritham-co/?pos=162&kwd=baby laundry liquid&tags=||||8893.564|Price|product|||MDC|rsf:gd-|-stype:attr=1|qr_nm:gd|res:RC4|com-cf:nl|ptrs:na|ktp:N0|mc:185084|mtp:S|qry_typ:P|lang:en|wc:3|cs:8891|v=4,False,Poothurai,Villianur,"Ground Floor, R.S. No. 391/2 Plot No.40, Poothurai Village, Vanur Taluk, Viluppuram, Poothurai, Villianur - 605111, Dist.Pondicherry, Pondicherry",7949083440,
"Jasmine Neatup Premium Liquid Laundry Detergent, 500 ml",https://www.indiamart.com/proddetail/neatup-premium-liquid-laundry-detergent-2854603194673.html?pos=163&kwd=baby laundry liquid&tags=||||8767.829|Price|product|||MDC|rsf:gd-|-stype:attr=1|qr_nm:gd|res:RC4|com-cf:nl|ptrs:na|ktp:N0|mc:185084|mtp:S|qry_typ:P|lang:en|wc:3|cs:8891|v=4,Neatup Enterprises,https://www.indiamart.com/neatup-enterprises/?pos=163&kwd=baby laundry liquid&tags=||||8767.829|Price|product|||MDC|rsf:gd-|-stype:attr=1|qr_nm:gd|res:RC4|com-cf:nl|ptrs:na|ktp:N0|mc:185084|mtp:S|qry_typ:P|lang:en|wc:3|cs:8891|v=4,False,,Palwal,"Building No-28, Kithwari Road, Near Yadav Music Centre, Palwal - 121102, Dist.Palwal, Haryana",8044461031,
"Fruity KCM Laundary Liquid, 1 Liter",https://www.indiamart.com/proddetail/kcm-laundary-liquid-2852035119062.html?pos=164&kwd=baby laundry liquid&tags=||||8368.431|Price|product|||MDC|rsf:gd-|-stype:attr=1|qr_nm:gd|res:RC4|com-cf:nl|ptrs:na|ktp:N0|mc:185084|mtp:S|qry_typ:P|lang:en|wc:3|cs:8891|v=4,Krushna Chemilals And Manufacturing (KCM),https://www.kcmcleaningproducts.com/?pos=164&kwd=baby laundry liquid&tags=||||8368.431|Price|product|||MDC|rsf:gd-|-stype:attr=1|qr_nm:gd|res:RC4|com-cf:nl|ptrs:na|ktp:N0|mc:185084|mtp:S|qry_typ:P|lang:en|wc:3|cs:8891|v=4,False,Miraj,Sangli,"C S Number 5034,NEAR KHERADKAR PETROL PUMP,CHAITANYA NAGAR ROAD,Sangli Ground Floor, C S Number 5034, NEAR KHERADKAR PETROL PUMP, CHAITANYA NAGAR ROAD, Near C S Number 50, Miraj, Sangli - 416416, Dist.Sangli, Maharashtra",7942872022,
5L Lexa Liquid Detergent,https://www.indiamart.com/proddetail/5l-lexa-liquid-detergent-2854640866448.html?pos=165&kwd=baby laundry liquid&tags=||||8954.051|Price|product|||MDC|rsf:gd-|-stype:attr=1|qr_nm:gd|res:RC4|com-cf:nl|ptrs:na|ktp:N0|mc:185084|mtp:S|qry_typ:P|lang:en|wc:3|cs:8891|v=4,Chendur Murugan Traders,https://www.indiamart.com/chendur-murugantraders/?pos=165&kwd=baby laundry liquid&tags=||||8954.051|Price|product|||MDC|rsf:gd-|-stype:attr=1|qr_nm:gd|res:RC4|com-cf:nl|ptrs:na|ktp:N0|mc:185084|mtp:S|qry_typ:P|lang:en|wc:3|cs:8891|v=4,False,,Chennai,"Second Floor, Building Door No.96/180, Room No.1, Prakasam Salai, George Town, Broadway, Chennai - 600001, Dist.Chennai, Tamil Nadu",7949331621,
1L Home Care Liquid Detergent,https://www.indiamart.com/proddetail/1l-home-care-liquid-detergent-2854643944588.html?pos=166&kwd=baby laundry liquid&tags=||||8319.425|Price|product|||MDC|rsf:gd-|-stype:attr=1|qr_nm:gd|res:RC4|com-cf:nl|ptrs:na|ktp:N0|mc:185084|mtp:S|qry_typ:P|lang:en|wc:3|cs:8891|v=4,Kuldeep Emterprises,https://www.indiamart.com/kuldeep-enterprisesjodhpur/?pos=166&kwd=baby laundry liquid&tags=||||8319.425|Price|product|||MDC|rsf:gd-|-stype:attr=1|qr_nm:gd|res:RC4|com-cf:nl|ptrs:na|ktp:N0|mc:185084|mtp:S|qry_typ:P|lang:en|wc:3|cs:8891|v=4,False,,Jodhpur,"Bhawani Nagar Sobhawato Ki Dhani, Plot No 55, Unnamed Road, Back Side Victorian Palace Khema Ka Kuwa, Jodhpur - 342008, Dist.Jodhpur, Rajasthan",7949325292,
Ecoliv Top Load Laundry Liquid Detergent 1L,https://www.indiamart.com/proddetail/ecoliv-top-load-laundry-liquid-detergent-1l-2853108940712.html?pos=167&kwd=baby laundry liquid&tags=||||8211.142|Price|product|||MDC|rsf:gd-|-stype:attr=1|qr_nm:gd|res:RC4|com-cf:nl|ptrs:na|ktp:N0|mc:185084|mtp:S|qry_typ:P|lang:en|wc:3|cs:8891|v=4,Sklaris LLP,https://www.indiamart.com/sklaris-llp-mumbai/?pos=167&kwd=baby laundry liquid&tags=||||8211.142|Price|product|||MDC|rsf:gd-|-stype:attr=1|qr_nm:gd|res:RC4|com-cf:nl|ptrs:na|ktp:N0|mc:185084|mtp:S|qry_typ:P|lang:en|wc:3|cs:8891|v=4,False,Prabhadevi,Mumbai,"Shop No.11, Chinch Bhat Chawl, R B S K Bole Road, Opp Agar Bazaar Market, Dadar West, Prabhadevi, Mumbai - 400028, Dist.Mumbai, Maharashtra",7942962322,
Lavender Liquid Detergent,https://www.indiamart.com/proddetail/liquid-detergent-2849501496548.html?pos=168&kwd=baby laundry liquid&tags=||||8211.142|Price|product|||MDC|rsf:gd-|-stype:attr=1|qr_nm:gd|res:RC4|com-cf:nl|ptrs:na|ktp:N0|mc:185084|mtp:S|qry_typ:P|lang:en|wc:3|cs:8891|v=4,Housekeepingking.Com,https://www.indiamart.com/housekeepingking-mumbai/?pos=168&kwd=baby laundry liquid&tags=||||8211.142|Price|product|||MDC|rsf:gd-|-stype:attr=1|qr_nm:gd|res:RC4|com-cf:nl|ptrs:na|ktp:N0|mc:185084|mtp:S|qry_typ:P|lang:en|wc:3|cs:8891|v=4,False,Goregaon West,Mumbai,"Flat No.120, Building P-5, Poris Compound, MMRDA, Near Ram Mandir Road, Goregaon West, Suburban, Goregaon West, Mumbai - 400062, Dist.Mumbai, Maharashtra",8045166373,
1L Clean Magic Detergent Liquid,https://www.indiamart.com/proddetail/1l-clean-magic-detergent-liquid-2854530800262.html?pos=169&kwd=baby laundry liquid&tags=||||8954.051|Price|product|||MDC|rsf:gd-|-stype:attr=1|qr_nm:gd|res:RC4|com-cf:nl|ptrs:na|ktp:N0|mc:185084|mtp:S|qry_typ:P|lang:en|wc:3|cs:8891|v=4,Safe Home Detergent Trading,https://www.indiamart.com/safehome-detergent-trading/?pos=169&kwd=baby laundry liquid&tags=||||8954.051|Price|product|||MDC|rsf:gd-|-stype:attr=1|qr_nm:gd|res:RC4|com-cf:nl|ptrs:na|ktp:N0|mc:185084|mtp:S|qry_typ:P|lang:en|wc:3|cs:8891|v=4,False,,Chennai,"No.93, Old No. 21/3, School Street, Koyambedu, Chennai - 600107, Dist.Chennai, Tamil Nadu",7949326502,
1L Acheti Home Liquid Fabric Wash,https://www.indiamart.com/proddetail/1l-acheti-home-liquid-fabric-wash-22844497412.html?pos=170&kwd=baby laundry liquid&tags=||||8230.883|Price|product|||MDC|rsf:gd-|-stype:attr=1|qr_nm:gd|res:RC4|com-cf:nl|ptrs:na|ktp:N0|mc:185084|mtp:S|qry_typ:P|lang:en|wc:3|cs:8891|v=4,Acheti,https://www.indiamart.com/acheti/?pos=170&kwd=baby laundry liquid&tags=||||8230.883|Price|product|||MDC|rsf:gd-|-stype:attr=1|qr_nm:gd|res:RC4|com-cf:nl|ptrs:na|ktp:N0|mc:185084|mtp:S|qry_typ:P|lang:en|wc:3|cs:8891|v=4,False,,Surat,"Third Floor, A-302, Shiv Complex, Near Gayatri Mandir, A. K. Road, Surat - 395008, Dist.Surat, Gujarat",8044457675,
"Bio Cline Cotten Genteel Liquid Detergent, Packaging Type: Bottle, Packaging Size: 500 ml",https://www.indiamart.com/proddetail/genteel-liquid-detergent-17627986048.html?pos=171&kwd=baby laundry liquid&tags=||||8619.136|Price|product|||MDC|rsf:gd-|-stype:attr=1|qr_nm:gd|res:RC4|com-cf:nl|ptrs:na|ktp:N0|mc:185084|mtp:S|qry_typ:P|lang:en|wc:3|cs:8891|v=4,Bio Cline Prop S. Prabakaran,https://www.indiamart.com/bio-cline-thanjavur/?pos=171&kwd=baby laundry liquid&tags=||||8619.136|Price|product|||MDC|rsf:gd-|-stype:attr=1|qr_nm:gd|res:RC4|com-cf:nl|ptrs:na|ktp:N0|mc:185084|mtp:S|qry_typ:P|lang:en|wc:3|cs:8891|v=4,False,Periyar Nagar,Thanjavur,"No.212, Periyar Tbi, Periyar Maniammai University, Periyar Nagar, Periyar Nagar, Thanjavur - 613403, Dist.Thanjavur, Tamil Nadu",7942866292,
Lavender 1L Janpro Easy Wash Liquid Detergent,https://www.indiamart.com/proddetail/1l-janpro-easy-wash-liquid-detergent-2854404465497.html?pos=172&kwd=baby laundry liquid&tags=||||9572.14|Price|product|||MDC|rsf:gd-|-stype:attr=1|qr_nm:gd|res:RC4|com-cf:nl|ptrs:na|ktp:N0|mc:185084|mtp:S|qry_typ:P|lang:en|wc:3|cs:8891|v=4,Refresh,https://www.indiamart.com/refreshodisha/?pos=172&kwd=baby laundry liquid&tags=||||9572.14|Price|product|||MDC|rsf:gd-|-stype:attr=1|qr_nm:gd|res:RC4|com-cf:nl|ptrs:na|ktp:N0|mc:185084|mtp:S|qry_typ:P|lang:en|wc:3|cs:8891|v=4,False,,Bhubaneswar,"Plot No - 1664/3606, Dhabaleswar Vihar, Oditech Green, Bhubaneswar - 751024, Dist.Khorda, Odisha",7949337710,
Suksi 5 Liter Top Load Liquid Detergent,https://www.indiamart.com/proddetail/suksi-5-liter-top-load-liquid-detergent-2851919788391.html?pos=173&kwd=baby laundry liquid&tags=||||8281.036|Price|product|||MDC|rsf:gd-|-stype:attr=1|qr_nm:gd|res:RC4|com-cf:nl|ptrs:na|ktp:N0|mc:185084|mtp:S|qry_typ:P|lang:en|wc:3|cs:8891|v=4,Ansuya Gruh Udhyog,https://www.indiamart.com/ansuyagruhudhyog/?pos=173&kwd=baby laundry liquid&tags=||||8281.036|Price|product|||MDC|rsf:gd-|-stype:attr=1|qr_nm:gd|res:RC4|com-cf:nl|ptrs:na|ktp:N0|mc:185084|mtp:S|qry_typ:P|lang:en|wc:3|cs:8891|v=4,False,,Vadodara,"210, OPP Bank Of Baroda, Panchal Faliya, Bank Of Baroda, Ranoli,, Vadodara - 391350, Dist.Vadodara, Gujarat",7949338330,
"Shine plus liquid detergent, 5 L",https://www.indiamart.com/proddetail/shine-plus-liquid-detergent-2854590497973.html?pos=174&kwd=baby laundry liquid&tags=||||8211.142|Price|product|||MDC|rsf:gd-|-stype:attr=1|qr_nm:gd|res:RC4|com-cf:nl|ptrs:na|ktp:N0|mc:185084|mtp:S|qry_typ:P|lang:en|wc:3|cs:8891|v=4,Nurture Enterprises,https://www.indiamart.com/nurtureenterprises/?pos=174&kwd=baby laundry liquid&tags=||||8211.142|Price|product|||MDC|rsf:gd-|-stype:attr=1|qr_nm:gd|res:RC4|com-cf:nl|ptrs:na|ktp:N0|mc:185084|mtp:S|qry_typ:P|lang:en|wc:3|cs:8891|v=4,False,Malad East,Mumbai,"5th Floor Shop No. 505, Building No. R/7,SRA Building At Appapada Kurar Village, Malad East,Suburban, Malad East, Mumbai - 400097, Dist.Mumbai, Maharashtra",7949225080,
"Pink Baby Laundry Detergent, Packaging Type: Plastic Bottle, Packaging Size: 500 Ml",https://www.indiamart.com/proddetail/baby-laundry-detergent-22265645733.html?pos=175&kwd=baby laundry liquid&tags=||||8211.142|Price|product|||TS|rsf:gd-|-stype:attr=1|qr_nm:gd|res:RC4|com-cf:nl|ptrs:na|ktp:N0|mc:185084|mtp:S|qry_typ:P|lang:en|wc:3|cs:8891|v=4,Sunraysia Elixir Private Limited,https://www.theorganicstory.co.in/?pos=175&kwd=baby laundry liquid&tags=||||8211.142|Price|product|||TS|rsf:gd-|-stype:attr=1|qr_nm:gd|res:RC4|com-cf:nl|ptrs:na|ktp:N0|mc:185084|mtp:S|qry_typ:P|lang:en|wc:3|cs:8891|v=4,False,Kamod Nagar,Mumbai,"1st Floor, Sahakar Bhavan, Shivaji Road Old CBS, Nashik District, Kamod Nagar, Mumbai - 422002, Dist.Mumbai, Maharashtra",8048971686,
Woolite Laundry Detergent Baby,https://www.indiamart.com/proddetail/woolite-laundry-detergent-baby-2854001407591.html?pos=176&kwd=baby laundry liquid&tags=||||8663.873||product|||TS|rsf:gd-|-stype:attr=1|qr_nm:gd|res:RC4|com-cf:nl|ptrs:na|ktp:N0|mc:185084|mtp:S|qry_typ:P|lang:en|wc:3|cs:8891|v=4,E T S,https://www.indiamart.com/ets-bengaluru/?pos=176&kwd=baby laundry liquid&tags=||||8663.873||product|||TS|rsf:gd-|-stype:attr=1|qr_nm:gd|res:RC4|com-cf:nl|ptrs:na|ktp:N0|mc:185084|mtp:S|qry_typ:P|lang:en|wc:3|cs:8891|v=4,False,Laggere,Bengaluru,"Ground Floor, Old No. 997, New No. 244, 50 Feet Road, Muneshwara Layout, Laggere Urban, Laggere, Bengaluru - 560058, Dist.Bengaluru, Karnataka",7942624685,
Zimmer Aufraumen Baby Laundry Washing Detergent Liquid - 5 Ltr,https://www.indiamart.com/proddetail/zimmer-aufraumen-baby-laundry-washing-detergent-liquid-5-ltr-2854530254673.html?pos=177&kwd=baby laundry liquid&tags=||||8752.144|Price|product|||TS|rsf:gd-|-stype:attr=1|qr_nm:gd|res:RC4|com-cf:nl|ptrs:na|ktp:N0|mc:185084|mtp:S|qry_typ:P|lang:en|wc:3|cs:8891|v=4,IB Monotaro Private Limited,https://www.indiamart.com/ibmonotaro-delhi/?pos=177&kwd=baby laundry liquid&tags=||||8752.144|Price|product|||TS|rsf:gd-|-stype:attr=1|qr_nm:gd|res:RC4|com-cf:nl|ptrs:na|ktp:N0|mc:185084|mtp:S|qry_typ:P|lang:en|wc:3|cs:8891|v=4,False,Ghitorni,New Delhi,"Khasra No. 401 and 402, First Floor, Kaluram Market, M G Road, Ghitorni, Delhi, Ghitorni, New Delhi - 110030, Dist.Delhi, Delhi",8047530688,
"Lemon Laundry Liquid Detergent, 1 L",https://www.indiamart.com/proddetail/laundry-liquid-detergent-25552341073.html?pos=178&kwd=baby laundry liquid&tags=||||8752.144|Price|product|||MDC|rsf:gd-|-stype:attr=1|qr_nm:gd|res:RC4|com-cf:nl|ptrs:na|ktp:N0|mc:185084|mtp:S|qry_typ:P|lang:en|wc:3|cs:8891|v=4,Naulakha Naturals,https://www.indiamart.com/naulakha-naturals/?pos=178&kwd=baby laundry liquid&tags=||||8752.144|Price|product|||MDC|rsf:gd-|-stype:attr=1|qr_nm:gd|res:RC4|com-cf:nl|ptrs:na|ktp:N0|mc:185084|mtp:S|qry_typ:P|lang:en|wc:3|cs:8891|v=4,False,Mayapuri,New Delhi,"A-10, Phase-2,Mayapuri Ind. Area, Mayapuri, New Delhi - 110064, Dist.Delhi, Delhi",8047649553,
"Lemon Baby Laundry Detergent, 1 L",https://www.indiamart.com/proddetail/baby-laundry-detergent-2854763966130.html?pos=179&kwd=baby laundry liquid&tags=||||9045.955|Price|product|||MDC|rsf:gd-|-stype:attr=1|qr_nm:gd|res:RC4|com-cf:nl|ptrs:na|ktp:N0|mc:185084|mtp:S|qry_typ:P|lang:en|wc:3|cs:8891|v=4,Rekha Agencies,https://www.indiamart.com/rekhaagencieskanpur/?pos=179&kwd=baby laundry liquid&tags=||||9045.955|Price|product|||MDC|rsf:gd-|-stype:attr=1|qr_nm:gd|res:RC4|com-cf:nl|ptrs:na|ktp:N0|mc:185084|mtp:S|qry_typ:P|lang:en|wc:3|cs:8891|v=4,False,,Kanpur,"B/386, Awas Vikas Hanspuram, Kanpur - 208021, Uttar Pradesh",8044460697,
Liquid Detergent can 5 Ltr,https://www.indiamart.com/proddetail/liquid-detergent-can-5-ltr-2854298079712.html?pos=180&kwd=baby laundry liquid&tags=||||8457.459||product|||TS|rsf:gd-|-stype:attr=1|qr_nm:gd|res:RC4|com-cf:nl|ptrs:na|ktp:N0|mc:185084|mtp:S|qry_typ:P|lang:en|wc:3|cs:8891|v=4,Padma Plastics,https://www.indiamart.com/padmaplastics-kerala/?pos=180&kwd=baby laundry liquid&tags=||||8457.459||product|||TS|rsf:gd-|-stype:attr=1|qr_nm:gd|res:RC4|com-cf:nl|ptrs:na|ktp:N0|mc:185084|mtp:S|qry_typ:P|lang:en|wc:3|cs:8891|v=4,False,Kadalundi,Kozhikode,"Shed No 05, Mini Industrial Estate Calvary Hills, Kadalundi P. O, Kadalundi, Kozhikode - 673302, Dist.Kozhikode, Kerala",8046042989,
"Lavender Liquid Detergent For Clothes, 5 L",https://www.indiamart.com/proddetail/liquid-detergent-for-clothes-2853944009730.html?pos=181&kwd=baby laundry liquid&tags=||||8663.873||product|||TS|rsf:gd-|-stype:attr=1|qr_nm:gd|res:RC4|com-cf:nl|ptrs:na|ktp:N0|mc:185084|mtp:S|qry_typ:P|lang:en|wc:3|cs:8891|v=4,Sri Sai Soaps Manufacturing And Trading,https://www.indiamart.com/srisaisoapsmanufacturingtrading/?pos=181&kwd=baby laundry liquid&tags=||||8663.873||product|||TS|rsf:gd-|-stype:attr=1|qr_nm:gd|res:RC4|com-cf:nl|ptrs:na|ktp:N0|mc:185084|mtp:S|qry_typ:P|lang:en|wc:3|cs:8891|v=4,False,Peenya,Bengaluru,"No-C215, 4th Cross, 1st Stage, Peenya Industrial Area,, Peenya, Bengaluru - 560058, Dist.Bengaluru, Karnataka",8047651339,
"Fincent F101 Carpet Shampoo 5 Ltr, Packaging Type: Can",https://www.indiamart.com/proddetail/fincent-f101-carpet-shampoo-5-ltr-2853084064291.html?pos=182&kwd=baby laundry liquid&tags=||||8663.873|Price|product|||TS|rsf:gd-|-stype:attr=1|qr_nm:gd|res:RC4|com-cf:nl|ptrs:na|ktp:N0|mc:185084|mtp:S|qry_typ:P|lang:en|wc:3|cs:8891|v=4,RJ Office Solutions,https://www.indiamart.com/solankienterprises-bengaluru/?pos=182&kwd=baby laundry liquid&tags=||||8663.873|Price|product|||TS|rsf:gd-|-stype:attr=1|qr_nm:gd|res:RC4|com-cf:nl|ptrs:na|ktp:N0|mc:185084|mtp:S|qry_typ:P|lang:en|wc:3|cs:8891|v=4,False,NEW THIPPASANDRA BENGALURU URBAN,Bengaluru,"No. 1778, Ground, 1st Main, 1st Corss, GROUND, NO. 1778, 1ST MAIN, 1ST CROSS,, NEW THIPPASANDRA BENGALURU URBAN, Bengaluru - 560075, Dist.Bengaluru, Karnataka",7942816560,
"Lavender FABRIC LIQUID DETERGENT, 5 L",https://www.indiamart.com/proddetail/fabric-liquid-detergent-2851219720691.html?pos=183&kwd=baby laundry liquid&tags=||||8752.144|Price|product|||TS|rsf:gd-|-stype:attr=1|qr_nm:gd|res:RC4|com-cf:nl|ptrs:na|ktp:N0|mc:185084|mtp:S|qry_typ:P|lang:en|wc:3|cs:8891|v=4,Akshat Rasayan,https://www.indiamart.com/akshatrasayan/?pos=183&kwd=baby laundry liquid&tags=||||8752.144|Price|product|||TS|rsf:gd-|-stype:attr=1|qr_nm:gd|res:RC4|com-cf:nl|ptrs:na|ktp:N0|mc:185084|mtp:S|qry_typ:P|lang:en|wc:3|cs:8891|v=4,False,Rohini,New Delhi,"221, 2nd Floor, R G Complex, Prashant Vihar Sector-14, Rohini,, Rohini, New Delhi - 110085, Dist.Delhi, Delhi",8047685443,
"Questoll591, 55 Kgs",https://www.indiamart.com/proddetail/questoll591-22644707412.html?pos=184&kwd=baby laundry liquid&tags=||||8954.051|Price|product|||TS|rsf:gd-|-stype:attr=1|qr_nm:gd|res:RC4|com-cf:nl|ptrs:na|ktp:N0|mc:185084|mtp:S|qry_typ:P|lang:en|wc:3|cs:8891|v=4,Kamala Enterprisees,https://www.kamalachemicals.in/?pos=184&kwd=baby laundry liquid&tags=||||8954.051|Price|product|||TS|rsf:gd-|-stype:attr=1|qr_nm:gd|res:RC4|com-cf:nl|ptrs:na|ktp:N0|mc:185084|mtp:S|qry_typ:P|lang:en|wc:3|cs:8891|v=4,False,Egmore,Chennai,"8th Floor, No. 815, Ethiraj Salai, Egmore, Block A, Shivalaya Building, Egmore, Chennai - 600008, Dist.Chennai, Tamil Nadu",8048950629,
"CLEANTIZ 24 Liquid Detergent, For Washing Machine, Packaging Size: 5 Ltr",https://www.indiamart.com/proddetail/liquid-detergent-21009369812.html?pos=185&kwd=baby laundry liquid&tags=||||8954.051|Price|product|||TS|rsf:gd-|-stype:attr=1|qr_nm:gd|res:RC4|com-cf:nl|ptrs:na|ktp:N0|mc:185084|mtp:S|qry_typ:P|lang:en|wc:3|cs:8891|v=4,J J Marketing Services,https://www.jjhomecareproducts.com/?pos=185&kwd=baby laundry liquid&tags=||||8954.051|Price|product|||TS|rsf:gd-|-stype:attr=1|qr_nm:gd|res:RC4|com-cf:nl|ptrs:na|ktp:N0|mc:185084|mtp:S|qry_typ:P|lang:en|wc:3|cs:8891|v=4,False,Ayapakkam,Chennai,"Plot No. 5690, TNHB, Ayapakkam, Ayapakkam, Chennai - 600077, Dist.Chennai, Tamil Nadu",8048617755,
Cotton Waste Baniyan Cloth/ Colour Small,https://www.indiamart.com/proddetail/cotton-waste-baniyan-cloth-colour-small-2853889910848.html?pos=186&kwd=baby laundry liquid&tags=||||8954.051|Price|product|||TS|rsf:gd-|-stype:attr=1|qr_nm:gd|res:RC4|com-cf:nl|ptrs:na|ktp:N0|mc:185084|mtp:S|qry_typ:P|lang:en|wc:3|cs:8891|v=4,Officebazzar E-Store Private Limited,https://www.officebazzars.com/?pos=186&kwd=baby laundry liquid&tags=||||8954.051|Price|product|||TS|rsf:gd-|-stype:attr=1|qr_nm:gd|res:RC4|com-cf:nl|ptrs:na|ktp:N0|mc:185084|mtp:S|qry_typ:P|lang:en|wc:3|cs:8891|v=4,False,Royapettah,Chennai,"No.29/15 Subbedar Hussain Street Officebazzar Tower Royapettah, Royapettah, Chennai - 600014, Dist.Chennai, Tamil Nadu",8048954395,
"Lemon Concentrated Liquid Laundry Emulsifier, 50kg",https://www.indiamart.com/proddetail/concentrated-liquid-laundry-emulsifier-2850411564162.html?pos=187&kwd=baby laundry liquid&tags=||||8700.495|Price|product|||TS|rsf:gd-|-stype:attr=1|qr_nm:gd|res:RC4|com-cf:nl|ptrs:na|ktp:N0|mc:185084|mtp:S|qry_typ:P|lang:en|wc:3|cs:8891|v=4,Char Chinar Soap Industries,https://www.indiamart.com/char-chinar-soap/?pos=187&kwd=baby laundry liquid&tags=||||8700.495|Price|product|||TS|rsf:gd-|-stype:attr=1|qr_nm:gd|res:RC4|com-cf:nl|ptrs:na|ktp:N0|mc:185084|mtp:S|qry_typ:P|lang:en|wc:3|cs:8891|v=4,False,Shastri Nagar,Mandi Gobindgarh,"G. T. Road, Sirhind Side Opposite Vimal Kanda, Shastri Nagar, Mandi Gobindgarh - 147301, Dist.Fatehgarh Sahib, Punjab",8048986082,
"Lavender Detergent Liquid ( Addetto ), 1 L",https://www.indiamart.com/proddetail/detergent-liquid-addetto-15891061697.html?pos=188&kwd=baby laundry liquid&tags=||||8954.051|Price|product|||TS|rsf:gd-|-stype:attr=1|qr_nm:gd|res:RC4|com-cf:nl|ptrs:na|ktp:N0|mc:185084|mtp:S|qry_typ:P|lang:en|wc:3|cs:8891|v=4,Greens Industrial Solutions,https://www.indiamart.com/greens-industrial-solutions/?pos=188&kwd=baby laundry liquid&tags=||||8954.051|Price|product|||TS|rsf:gd-|-stype:attr=1|qr_nm:gd|res:RC4|com-cf:nl|ptrs:na|ktp:N0|mc:185084|mtp:S|qry_typ:P|lang:en|wc:3|cs:8891|v=4,False,Poonamallee Lakshmi Nagar,Chennai,"2 M G R Nagar Second Street Kundrathur Main Road Sriperumbudur, Kancheepuram, Poonamallee Lakshmi Nagar, Chennai - 600056, Dist.Chennai, Tamil Nadu",8047783470,
"Lyra Liquid Detergent, Packaging Type: Plastic Bottle, Packaging Size: 500 Ml",https://www.indiamart.com/proddetail/lyra-liquid-detergent-11365535173.html?pos=189&kwd=baby laundry liquid&tags=||||8954.051|Price|product|||TS|rsf:gd-|-stype:attr=1|qr_nm:gd|res:RC4|com-cf:nl|ptrs:na|ktp:N0|mc:185084|mtp:S|qry_typ:P|lang:en|wc:3|cs:8891|v=4,Susun Industries,https://www.lyrahomecare.in/?pos=189&kwd=baby laundry liquid&tags=||||8954.051|Price|product|||TS|rsf:gd-|-stype:attr=1|qr_nm:gd|res:RC4|com-cf:nl|ptrs:na|ktp:N0|mc:185084|mtp:S|qry_typ:P|lang:en|wc:3|cs:8891|v=4,False,Perungudi,Chennai,"7, Betheal Nagar Main Road, Perungudi Industrial Estate, Perungudi, Chennai - 600096, Dist.Chennai, Tamil Nadu",8048966733,
"Original Liquid Detergent 1 LTR, Packaging Type: Plastic Bottle",https://www.indiamart.com/proddetail/liquid-detergent-1-ltr-26241922512.html?pos=190&kwd=baby laundry liquid&tags=||||7964.7354|Price|product|||TS|rsf:gd-|-stype:attr=1|qr_nm:gd|res:RC4|com-cf:nl|ptrs:na|ktp:N0|mc:185084|mtp:S|qry_typ:P|lang:en|wc:3|cs:8891|v=4,M.k Incorporation,https://www.toileteries.net/?pos=190&kwd=baby laundry liquid&tags=||||7964.7354|Price|product|||TS|rsf:gd-|-stype:attr=1|qr_nm:gd|res:RC4|com-cf:nl|ptrs:na|ktp:N0|mc:185084|mtp:S|qry_typ:P|lang:en|wc:3|cs:8891|v=4,False,Khodiyar Colony,Jamnagar,"Plot No. 15, Survey No. 221, Village Lakhabaval Naghedi Industrial Estate, Khodiyar Colony, Jamnagar - 361006, Dist.Jamnagar, Gujarat",8048970826,
5 Litre Froton Liquid Detergent,https://www.indiamart.com/proddetail/5-litre-froton-liquid-detergent-2851701564588.html?pos=191&kwd=baby laundry liquid&tags=||||9045.955|Price|product|||TS|rsf:gd-|-stype:attr=1|qr_nm:gd|res:RC4|com-cf:nl|ptrs:na|ktp:N0|mc:185084|mtp:S|qry_typ:P|lang:en|wc:3|cs:8891|v=4,Biostategi (OPC) Private Limited,https://www.indiamart.com/biostategi-opc/?pos=191&kwd=baby laundry liquid&tags=||||9045.955|Price|product|||TS|rsf:gd-|-stype:attr=1|qr_nm:gd|res:RC4|com-cf:nl|ptrs:na|ktp:N0|mc:185084|mtp:S|qry_typ:P|lang:en|wc:3|cs:8891|v=4,False,Hbti,Kanpur,"Plot No. 482 Udyan Vihar -1, Hbti, Kanpur - 208002, Uttar Pradesh",7942839227,
500ML LIQUID DETERGENT,https://www.indiamart.com/proddetail/500ml-liquid-detergent-24551841448.html?pos=192&kwd=baby laundry liquid&tags=||||8785.791|Price|product|||TS|rsf:gd-|-stype:attr=1|qr_nm:gd|res:RC4|com-cf:nl|ptrs:na|ktp:N0|mc:185084|mtp:S|qry_typ:P|lang:en|wc:3|cs:8891|v=4,Lozano (A Brand Of Lozano Packaging Pvt. Ltd.),https://www.lozanopack.com/?pos=192&kwd=baby laundry liquid&tags=||||8785.791|Price|product|||TS|rsf:gd-|-stype:attr=1|qr_nm:gd|res:RC4|com-cf:nl|ptrs:na|ktp:N0|mc:185084|mtp:S|qry_typ:P|lang:en|wc:3|cs:8891|v=4,False,,Ghaziabad,"A-17, Upper Ground Floor,, Tower T3, NX-ONE, Plot No-17, Techzone 4 Greater Noida, Gautam Buhddha Nagar, Ghaziabad - 201009, Dist.Ghaziabad, Uttar Pradesh",7942560133,
"Floral Liquid Detergent 50Kg, 50 Ltr",https://www.indiamart.com/proddetail/liquid-detergent-50kg-24257580073.html?pos=193&kwd=baby laundry liquid&tags=||||8641.487|Price|product|||TS|rsf:gd-|-stype:attr=1|qr_nm:gd|res:RC4|com-cf:nl|ptrs:na|ktp:N0|mc:185084|mtp:S|qry_typ:P|lang:en|wc:3|cs:8891|v=4,BIG Industrial Organics Private Limited,https://www.indiamart.com/bigindustrialorganics/?pos=193&kwd=baby laundry liquid&tags=||||8641.487|Price|product|||TS|rsf:gd-|-stype:attr=1|qr_nm:gd|res:RC4|com-cf:nl|ptrs:na|ktp:N0|mc:185084|mtp:S|qry_typ:P|lang:en|wc:3|cs:8891|v=4,False,Vill,Jalandhar,"VPO Sarmastpur, Pathankot Road, Vill, Jalandhar - 144012, Dist.Jalandhar, Punjab",8048964564,
Liquid Detergent Fragrance,https://www.indiamart.com/proddetail/liquid-detergent-fragrance-24828759288.html?pos=194&kwd=baby laundry liquid&tags=||||8228.275|Price|product|||TS|rsf:gd-|-stype:attr=1|qr_nm:gd|res:RC4|com-cf:nl|ptrs:na|ktp:N0|mc:185084|mtp:S|qry_typ:P|lang:en|wc:3|cs:8891|v=4,Elite Fragrances Corporation,https://www.elitefragrancescorporation.com/?pos=194&kwd=baby laundry liquid&tags=||||8228.275|Price|product|||TS|rsf:gd-|-stype:attr=1|qr_nm:gd|res:RC4|com-cf:nl|ptrs:na|ktp:N0|mc:185084|mtp:S|qry_typ:P|lang:en|wc:3|cs:8891|v=4,False,Changodar,Ahmedabad,"45/46, Shivam 4, Industrial Estate, Behind Satyam Mall Before Changodar Bridge, Changodar, Ahmedabad - 382213, Dist.Ahmedabad, Gujarat",8048619459,
"Cloth Washing Liquid, Packaging Size: 500 ml",https://www.indiamart.com/proddetail/cloth-washing-liquid-25227184233.html?pos=195&kwd=baby laundry liquid&tags=||||8706.587|Price|product|||TS|rsf:gd-|-stype:attr=1|qr_nm:gd|res:RC4|com-cf:nl|ptrs:na|ktp:N0|mc:185084|mtp:S|qry_typ:P|lang:en|wc:3|cs:8891|v=4,Minerva Technologies,https://www.indiamart.com/minervatechnologies/?pos=195&kwd=baby laundry liquid&tags=||||8706.587|Price|product|||TS|rsf:gd-|-stype:attr=1|qr_nm:gd|res:RC4|com-cf:nl|ptrs:na|ktp:N0|mc:185084|mtp:S|qry_typ:P|lang:en|wc:3|cs:8891|v=4,False,Kappalur,Madurai,"B-44 The Madurai Automobile Industrial Estate Kappalur SIDCO, Kappalur, Madurai - 625008, Dist.Madurai, Tamil Nadu",8047645817,
Lavender Laundry Liquid Detergent,https://www.indiamart.com/proddetail/laundry-liquid-detergent-2849554169588.html?pos=196&kwd=baby laundry liquid&tags=||||8038.093|Price|product|||TS|rsf:gd-|-stype:attr=1|qr_nm:gd|res:RC4|com-cf:nl|ptrs:na|ktp:N0|mc:185084|mtp:S|qry_typ:P|lang:en|wc:3|cs:8891|v=4,Devdrashti Cleantech LLP,https://www.devdrashticleantech.in/?pos=196&kwd=baby laundry liquid&tags=||||8038.093|Price|product|||TS|rsf:gd-|-stype:attr=1|qr_nm:gd|res:RC4|com-cf:nl|ptrs:na|ktp:N0|mc:185084|mtp:S|qry_typ:P|lang:en|wc:3|cs:8891|v=4,False,Shree Ram Society,Rajkot,"Shri Balajipark, Kuvadva Road, AHM Road, Navagam-Rajkot, Shree Ram Society, Rajkot - 360003, Dist.Rajkot, Gujarat",8048976599,
rose Liquid Laundry Detergent,https://www.indiamart.com/proddetail/liquid-laundry-detergent-2848980901362.html?pos=197&kwd=baby laundry liquid&tags=||||8230.883|Price|product|||TS|rsf:gd-|-stype:attr=1|qr_nm:gd|res:RC4|com-cf:nl|ptrs:na|ktp:N0|mc:185084|mtp:S|qry_typ:P|lang:en|wc:3|cs:8891|v=4,Vasuta Industries,https://www.indiamart.com/vasuta-industries/?pos=197&kwd=baby laundry liquid&tags=||||8230.883|Price|product|||TS|rsf:gd-|-stype:attr=1|qr_nm:gd|res:RC4|com-cf:nl|ptrs:na|ktp:N0|mc:185084|mtp:S|qry_typ:P|lang:en|wc:3|cs:8891|v=4,False,Nana Varachha,Surat,"1st Floor, 149/150, Sukhram, Textile Park Near Om Industries, Nana Varachha, Surat - 394325, Dist.Surat, Gujarat",7942536303,
"Laundry Liquid Detergent, 5 L",https://www.indiamart.com/proddetail/laundry-liquid-detergent-2854397195133.html?pos=198&kwd=baby laundry liquid&tags=||||8307.81|Price|product|||TS|rsf:gd-|-stype:attr=1|qr_nm:gd|res:RC4|com-cf:nl|ptrs:na|ktp:N0|mc:185084|mtp:S|qry_typ:P|lang:en|wc:3|cs:8891|v=4,Sundeary Office Solution,https://www.badaestore.in/?pos=198&kwd=baby laundry liquid&tags=||||8307.81|Price|product|||TS|rsf:gd-|-stype:attr=1|qr_nm:gd|res:RC4|com-cf:nl|ptrs:na|ktp:N0|mc:185084|mtp:S|qry_typ:P|lang:en|wc:3|cs:8891|v=4,False,Budhwar Peth,Pune,"655, Budhwar Peth, Budhwar Peth, Pune - 411002, Dist.Pune, Maharashtra",8046056478,
"Lavender Laundry Liquid Detergent, 50 kg",https://www.indiamart.com/proddetail/laundry-liquid-detergent-2850526233133.html?pos=199&kwd=baby laundry liquid&tags=||||8661.854|Price|product|||TS|rsf:gd-|-stype:attr=1|qr_nm:gd|res:RC4|com-cf:nl|ptrs:na|ktp:N0|mc:185084|mtp:S|qry_typ:P|lang:en|wc:3|cs:8891|v=4,Manak Chemicals,https://www.manakchem.com/?pos=199&kwd=baby laundry liquid&tags=||||8661.854|Price|product|||TS|rsf:gd-|-stype:attr=1|qr_nm:gd|res:RC4|com-cf:nl|ptrs:na|ktp:N0|mc:185084|mtp:S|qry_typ:P|lang:en|wc:3|cs:8891|v=4,False,Ludhiana,Ludhiana,"b-vii-562 Cinema Road, Adjoining Raikhy Theatre, Ludhiana, Ludhiana - 141008, Dist.Ludhiana, Punjab",8043855385,
"Luvlap baby laundry detergent 1000ml, 1 L",https://www.indiamart.com/proddetail/luvlap-baby-laundry-detergent-1000ml-2854565933391.html?pos=200&kwd=baby laundry liquid&tags=||||8706.587|Price|product|||MDC|rsf:gd-|-stype:attr=1|qr_nm:gd|res:RC4|com-cf:nl|ptrs:na|ktp:N0|mc:185084|mtp:S|qry_typ:P|lang:en|wc:3|cs:8891|v=4,Bawaa Medicals,https://www.indiamart.com/bawaa-medicals-madurai/?pos=200&kwd=baby laundry liquid&tags=||||8706.587|Price|product|||MDC|rsf:gd-|-stype:attr=1|qr_nm:gd|res:RC4|com-cf:nl|ptrs:na|ktp:N0|mc:185084|mtp:S|qry_typ:P|lang:en|wc:3|cs:8891|v=4,False,,Madurai,"24 25, American College Complex, Goripalayam, Madurai - 625002, Dist.Madurai, Tamil Nadu",8047850991,
"Liquid detergent and Laundry Liquid Detergent, 1 L",https://www.indiamart.com/proddetail/liquid-detergent-and-laundry-liquid-detergent-24262912073.html?pos=201&kwd=baby laundry liquid&tags=||||8755.542|Price|product|||TS|rsf:gd-|-stype:attr=1|qr_nm:gd|res:RC4|com-cf:nl|ptrs:na|ktp:N0|mc:185084|mtp:S|qry_typ:P|lang:en|wc:3|cs:8891|v=4,Voda Chemicals Private Limited,https://www.vodachemicals.in/?pos=201&kwd=baby laundry liquid&tags=||||8755.542|Price|product|||TS|rsf:gd-|-stype:attr=1|qr_nm:gd|res:RC4|com-cf:nl|ptrs:na|ktp:N0|mc:185084|mtp:S|qry_typ:P|lang:en|wc:3|cs:8891|v=4,True,Kundli,Kundli,"Plot No.171, Sec-53, Phase-5 Kundli Hsiidc Sonepat, Kundli, Kundli - 131028, Dist.Sonipat, Haryana",8046049169,
"DC Professional Liquid Laundry Detergent, 5 L",https://www.indiamart.com/proddetail/dc-professional-liquid-laundry-detergent-2854768170512.html?pos=202&kwd=baby laundry liquid&tags=||||8734.695|Price|product|||TS|rsf:gd-|-stype:attr=1|qr_nm:gd|res:RC4|com-cf:nl|ptrs:na|ktp:N0|mc:185084|mtp:S|qry_typ:P|lang:en|wc:3|cs:8891|v=4,Daga Chemical Industries,https://www.indiamart.com/daga-chemical-industries/?pos=202&kwd=baby laundry liquid&tags=||||8734.695|Price|product|||TS|rsf:gd-|-stype:attr=1|qr_nm:gd|res:RC4|com-cf:nl|ptrs:na|ktp:N0|mc:185084|mtp:S|qry_typ:P|lang:en|wc:3|cs:8891|v=4,False,,Bahadurgarh,"2108, MIE Phase 2, Bahadurgarh - 124507, Dist.Jhajjar, Haryana",8047793775,
"Cownatural Mridu Laundry Washing Liquid, 1000 ml",https://www.indiamart.com/proddetail/cownatural-mridu-laundry-washing-liquid-23665964562.html?pos=203&kwd=baby laundry liquid&tags=||||8785.608|Price|product|||TS|rsf:gd-|-stype:attr=1|qr_nm:gd|res:RC4|com-cf:nl|ptrs:na|ktp:N0|mc:185084|mtp:S|qry_typ:P|lang:en|wc:3|cs:8891|v=4,Vaibhav Garg (HUF),https://www.indiamart.com/vaibhavgarg/?pos=203&kwd=baby laundry liquid&tags=||||8785.608|Price|product|||TS|rsf:gd-|-stype:attr=1|qr_nm:gd|res:RC4|com-cf:nl|ptrs:na|ktp:N0|mc:185084|mtp:S|qry_typ:P|lang:en|wc:3|cs:8891|v=4,False,Jagadhri,Yamuna Nagar,"C4/990, Khera Bazar, Jagadhri, Yamuna Nagar - 135003, Dist.Yamuna Nagar, Haryana",8046063658,
Lemon 5 Litre Liquid Laundry Detergent,https://www.indiamart.com/proddetail/5-litre-liquid-laundry-detergent-2854408469288.html?pos=204&kwd=baby laundry liquid&tags=||||8752.144|Price|product|||TS|rsf:gd-|-stype:attr=1|qr_nm:gd|res:RC4|com-cf:nl|ptrs:na|ktp:N0|mc:185084|mtp:S|qry_typ:P|lang:en|wc:3|cs:8891|v=4,D K Enterprises,https://www.indiamart.com/d-kenterprisesdelhi/?pos=204&kwd=baby laundry liquid&tags=||||8752.144|Price|product|||TS|rsf:gd-|-stype:attr=1|qr_nm:gd|res:RC4|com-cf:nl|ptrs:na|ktp:N0|mc:185084|mtp:S|qry_typ:P|lang:en|wc:3|cs:8891|v=4,False,Mayur Vihar Phase 1,New Delhi,"Gali no 09 Shashi garden mayur vihar phase 1, Mayur Vihar Phase 1, New Delhi - 110091, Dist.Delhi, Delhi",8046077451,
Jasmine Zysaf Laundry Liquid Detergent (5 Lit),https://www.indiamart.com/proddetail/zysaf-laundry-liquid-detergent-5-lit-2850672993355.html?pos=205&kwd=baby laundry liquid&tags=||||8211.142|Price|product|||TS|rsf:gd-|-stype:attr=1|qr_nm:gd|res:RC4|com-cf:nl|ptrs:na|ktp:N0|mc:185084|mtp:S|qry_typ:P|lang:en|wc:3|cs:8891|v=4,Pramod Cleaning and Grooming Solutions,https://www.zysaf.in/?pos=205&kwd=baby laundry liquid&tags=||||8211.142|Price|product|||TS|rsf:gd-|-stype:attr=1|qr_nm:gd|res:RC4|com-cf:nl|ptrs:na|ktp:N0|mc:185084|mtp:S|qry_typ:P|lang:en|wc:3|cs:8891|v=4,False,Chembur,Mumbai,"1, Pramod Thakur House, Near Agri Samaj Hall, J. N. Patil Marg, Ghatala Village, Chembur, Mumbai, Chembur, Mumbai - 400071, Dist.Mumbai, Maharashtra",8046052289,
"Lemon 1L Daily Shine Liquid Laundry Detergent, 500ml,1 And 5 Litre",https://www.indiamart.com/proddetail/1l-daily-shine-liquid-laundry-detergent-25369910630.html?pos=206&kwd=baby laundry liquid&tags=||||8752.144|Price|product|||TS|rsf:gd-|-stype:attr=1|qr_nm:gd|res:RC4|com-cf:nl|ptrs:na|ktp:N0|mc:185084|mtp:S|qry_typ:P|lang:en|wc:3|cs:8891|v=4,Sneh Chemical Industries,https://www.snehchemicals.com/?pos=206&kwd=baby laundry liquid&tags=||||8752.144|Price|product|||TS|rsf:gd-|-stype:attr=1|qr_nm:gd|res:RC4|com-cf:nl|ptrs:na|ktp:N0|mc:185084|mtp:S|qry_typ:P|lang:en|wc:3|cs:8891|v=4,False,Bawana,New Delhi,"Plot No.209, Sector-5, Bawana Industrial Area, DSIDC, New Delhi, Bawana, New Delhi - 110039, Dist.Delhi, Delhi",8048267056,
250ml Priyam Perfect Liquid Detergent,https://www.indiamart.com/proddetail/250ml-priyam-perfect-liquid-detergent-2853286219812.html?pos=207&kwd=baby laundry liquid&tags=||||8954.051|Price|product|||MDC|rsf:gd-|-stype:attr=1|qr_nm:gd|res:RC4|com-cf:nl|ptrs:na|ktp:N0|mc:185084|mtp:S|qry_typ:P|lang:en|wc:3|cs:8891|v=4,Subbu Chemicals,https://www.indiamart.com/subbu-chemicals/?pos=207&kwd=baby laundry liquid&tags=||||8954.051|Price|product|||MDC|rsf:gd-|-stype:attr=1|qr_nm:gd|res:RC4|com-cf:nl|ptrs:na|ktp:N0|mc:185084|mtp:S|qry_typ:P|lang:en|wc:3|cs:8891|v=4,False,Kancheepuram,Chennai,"No.30/8,Thiruvalluvar Street,Gandht,Saligramam, Kancheepuram, Chennai - 600093, Dist.Chennai, Tamil Nadu",8047826145,
"Challenge Detergent Liquid, Packaging Type: Plastic Bottle, Packaging Size: 1litre",https://www.indiamart.com/proddetail/challenge-detergent-liquid-20421135362.html?pos=208&kwd=baby laundry liquid&tags=||||8897.456|Price|product|||MDC|rsf:gd-|-stype:attr=1|qr_nm:gd|res:RC4|com-cf:nl|ptrs:na|ktp:N0|mc:185084|mtp:S|qry_typ:P|lang:en|wc:3|cs:8891|v=4,Visalachi Soap Works,https://www.indiamart.com/visalachisoapworks/?pos=208&kwd=baby laundry liquid&tags=||||8897.456|Price|product|||MDC|rsf:gd-|-stype:attr=1|qr_nm:gd|res:RC4|com-cf:nl|ptrs:na|ktp:N0|mc:185084|mtp:S|qry_typ:P|lang:en|wc:3|cs:8891|v=4,False,Nagore,Thirumalairayan Pattinam,"R. S. No. 15/4 A, Old Pravadaiyan Bridge, Keela Vanjore T. R. Pattinam, Karaikal, Nagore Post, Nagore, Thirumalairayan Pattinam - 609606, Pondicherry",8046037059,
500 ml Vioan Liquid Detergent,https://www.indiamart.com/proddetail/500-ml-vioan-liquid-detergent-2854371665148.html?pos=209&kwd=baby laundry liquid&tags=||||8767.829|Price|product|||MDC|rsf:gd-|-stype:attr=1|qr_nm:gd|res:RC4|com-cf:nl|ptrs:na|ktp:N0|mc:185084|mtp:S|qry_typ:P|lang:en|wc:3|cs:8891|v=4,Traspec Industries Private Limited,https://www.indiamart.com/traspecindustries/?pos=209&kwd=baby laundry liquid&tags=||||8767.829|Price|product|||MDC|rsf:gd-|-stype:attr=1|qr_nm:gd|res:RC4|com-cf:nl|ptrs:na|ktp:N0|mc:185084|mtp:S|qry_typ:P|lang:en|wc:3|cs:8891|v=4,False,,Palwal,"G.F, C 138, SRS City Sector 6, Unnamed Road, Prem Sarad Alawalpuris, Alapur, Palwal - 121102, Dist.Palwal, Haryana",7949336992,
"Lavender Liquid Detergent, 1 L",https://www.indiamart.com/proddetail/liquid-detergent-2850157169688.html?pos=210&kwd=baby laundry liquid&tags=||||8752.144|Price|product|||MDC|rsf:gd-|-stype:attr=1|qr_nm:gd|res:RC4|com-cf:nl|ptrs:na|ktp:N0|mc:185084|mtp:S|qry_typ:P|lang:en|wc:3|cs:8891|v=4,Vanshil Enterprises,https://www.indiamart.com/vanshilenterprises/?pos=210&kwd=baby laundry liquid&tags=||||8752.144|Price|product|||MDC|rsf:gd-|-stype:attr=1|qr_nm:gd|res:RC4|com-cf:nl|ptrs:na|ktp:N0|mc:185084|mtp:S|qry_typ:P|lang:en|wc:3|cs:8891|v=4,False,North East Delhi,New Delhi,"Second Floor, B-384/2, Gali Number 17, Bhajanpura, North East Delhi, New Delhi - 110053, Dist.Delhi, Delhi",7949336224,
