product_title,product_link,company_name,company_link,is_verified_exporter,city_region,city,address_details,phone_number,phone_number_extension
7 Soft Baby Pants Style Diapers with Wetness Indicator & Medium- L (30 Pieces),https://www.indiamart.com/proddetail/7-soft-baby-pants-style-diapers-with-wetness-indicator-medium-l-30-pieces-26063514348.html?pos=1&kwd=baby diaper pants&tags=A||||8230.883|Price|product|||LSlc|rsf:gd-|-stype:attr=1|qr_nm:gd|res:RC4|com-cf:nl|ptrs:na|ktp:N0|mc:179372|mtp:S|qry_typ:P|lang:en|wc:3|flavl:10|cs:9706|v=4,M. D. Hygiene Private Limited,https://www.mdhygieneindia.com/?pos=1&kwd=baby diaper pants&tags=A||||8230.883|Price|product|||LSlc|rsf:gd-|-stype:attr=1|qr_nm:gd|res:RC4|com-cf:nl|ptrs:na|ktp:N0|mc:179372|mtp:S|qry_typ:P|lang:en|wc:3|flavl:10|cs:9706|v=4,True,Tadkeshwar,Surat,"Block No. 959, Kim Mandvi Road, Tadkeshwar, Surat - 394170, Dist.Surat, Gujarat",8046050788,
"Plain Baby Diaper Pants, Size: Medium",https://www.indiamart.com/proddetail/baby-diaper-pants-2851612701488.html?pos=2&kwd=baby diaper pants&tags=A||||8559.269|Price|product|||SSnp|rsf:gd-|-stype:attr=1|qr_nm:gd|res:RC4|com-cf:nl|ptrs:na|ktp:N0|mc:179372|mtp:S|qry_typ:P|lang:en|wc:3|flavl:10|cs:9706|v=4,Soch Care,https://www.sochcare.co.in/?pos=2&kwd=baby diaper pants&tags=A||||8559.269|Price|product|||SSnp|rsf:gd-|-stype:attr=1|qr_nm:gd|res:RC4|com-cf:nl|ptrs:na|ktp:N0|mc:179372|mtp:S|qry_typ:P|lang:en|wc:3|flavl:10|cs:9706|v=4,False,Mayur Nagar,Indore,"401 Block - O Shalimar Palms, Mayur Nagar, Indore - 452001, Dist.Indore, Madhya Pradesh",8048611870,
Nonwoven Baby Diaper Pants,https://www.indiamart.com/proddetail/baby-diaper-pants-2851551082812.html?pos=3&kwd=baby diaper pants&tags=A||||8785.791|Price|product|||TS|rsf:gd-|-stype:attr=1|qr_nm:gd|res:RC4|com-cf:nl|ptrs:na|ktp:N0|mc:179372|mtp:S|qry_typ:P|lang:en|wc:3|flavl:10|cs:9706|v=4,Kshristi Enterprises,https://www.indiamart.com/kshristi-enterprises/?pos=3&kwd=baby diaper pants&tags=A||||8785.791|Price|product|||TS|rsf:gd-|-stype:attr=1|qr_nm:gd|res:RC4|com-cf:nl|ptrs:na|ktp:N0|mc:179372|mtp:S|qry_typ:P|lang:en|wc:3|flavl:10|cs:9706|v=4,False,Sahibabad,Ghaziabad,"S 57 Harsha campound mohan nagar industrial area Ghaziabad Uttar Pradesh, Sahibabad, Ghaziabad - 201005, Dist.Ghaziabad, Uttar Pradesh",8046078120,
"Baby Diaper Pants, Size: Medium, Packaging Size: Small",https://www.indiamart.com/proddetail/baby-diaper-pants-2852420240455.html?pos=4&kwd=baby diaper pants&tags=A||||8038.093|Price|product|||TS|rsf:gd-|-stype:attr=1|qr_nm:gd|res:RC4|com-cf:nl|ptrs:na|ktp:N0|mc:179372|mtp:S|qry_typ:P|lang:en|wc:3|flavl:10|cs:9706|v=4,Glowlyf Tradelink Private Limited,https://www.indiamart.com/glowlyftradelinkprivatelimited/?pos=4&kwd=baby diaper pants&tags=A||||8038.093|Price|product|||TS|rsf:gd-|-stype:attr=1|qr_nm:gd|res:RC4|com-cf:nl|ptrs:na|ktp:N0|mc:179372|mtp:S|qry_typ:P|lang:en|wc:3|flavl:10|cs:9706|v=4,False,GIDC,Rajkot,"Gidc 2, Plot No 136, Opp. R M Steel, Aji Industrial Estate, Rajkot Industrial Area Dhamalpar, GIDC, Rajkot - 360003, Dist.Rajkot, Gujarat",7942711689,
"Baby Diaper Pants, Age Group: 3-12 Months",https://www.indiamart.com/proddetail/baby-diaper-pants-25365144130.html?pos=5&kwd=baby diaper pants&tags=A||||8559.269|Price|product|||TS|rsf:gd-|-stype:attr=1|qr_nm:gd|res:RC4|com-cf:nl|ptrs:na|ktp:N0|mc:179372|mtp:S|qry_typ:P|lang:en|wc:3|flavl:10|cs:9706|v=4,Shree Balasaheb Enterprises,https://www.indiamart.com/shreebalasahebenterprises/?pos=5&kwd=baby diaper pants&tags=A||||8559.269|Price|product|||TS|rsf:gd-|-stype:attr=1|qr_nm:gd|res:RC4|com-cf:nl|ptrs:na|ktp:N0|mc:179372|mtp:S|qry_typ:P|lang:en|wc:3|flavl:10|cs:9706|v=4,False,Kailashpuri,Indore,"35 Kelashpuri Colony Khazrana, Kailashpuri, Indore - 452016, Dist.Indore, Madhya Pradesh",8048955175,
Printed Baby Diaper Pants,https://www.indiamart.com/proddetail/baby-diaper-pants-2852943454833.html?pos=6&kwd=baby diaper pants&tags=A||||9228.171||product|||TS|rsf:gd-|-stype:attr=1|qr_nm:gd|res:RC4|com-cf:nl|ptrs:na|ktp:N0|mc:179372|mtp:S|qry_typ:P|lang:en|wc:3|flavl:10|cs:9706|v=4,Evergreen Care,https://www.indiamart.com/evergreencare-faizabad/?pos=6&kwd=baby diaper pants&tags=A||||9228.171||product|||TS|rsf:gd-|-stype:attr=1|qr_nm:gd|res:RC4|com-cf:nl|ptrs:na|ktp:N0|mc:179372|mtp:S|qry_typ:P|lang:en|wc:3|flavl:10|cs:9706|v=4,False,Faizabad Cantt,Faizabad,"Near Raebareilly Bypass, Faizabad Cantt, Faizabad - 224202, Uttar Pradesh",8046054746,
Baby Diaper Pants,https://www.indiamart.com/proddetail/baby-diaper-pants-2853697894330.html?pos=7&kwd=baby diaper pants&tags=A||||8211.142|Price|product|||TS|rsf:gd-|-stype:attr=1|qr_nm:gd|res:RC4|com-cf:nl|ptrs:na|ktp:N0|mc:179372|mtp:S|qry_typ:P|lang:en|wc:3|flavl:10|cs:9706|v=4,P For Panda Baby Products Private Limited,https://www.p4pandababyproducts.com/?pos=7&kwd=baby diaper pants&tags=A||||8211.142|Price|product|||TS|rsf:gd-|-stype:attr=1|qr_nm:gd|res:RC4|com-cf:nl|ptrs:na|ktp:N0|mc:179372|mtp:S|qry_typ:P|lang:en|wc:3|flavl:10|cs:9706|v=4,False,Goregaon West,Mumbai,"904 A Wing,9 Th Floor,Triple S Heights,Jakeria Road, Goregaon West, Mumbai - 400064, Dist.Mumbai, Maharashtra",7942710871,
"Printed Baby Diaper Pants, Large",https://www.indiamart.com/proddetail/baby-diaper-pants-2853717099155.html?pos=8&kwd=baby diaper pants&tags=A||||8752.144|Price|product|||TS|rsf:gd-|-stype:attr=1|qr_nm:gd|res:RC4|com-cf:nl|ptrs:na|ktp:N0|mc:179372|mtp:S|qry_typ:P|lang:en|wc:3|flavl:10|cs:9706|v=4,Sri Rajbhan Enterprises,https://www.indiamart.com/srirajbhanenterprises/?pos=8&kwd=baby diaper pants&tags=A||||8752.144|Price|product|||TS|rsf:gd-|-stype:attr=1|qr_nm:gd|res:RC4|com-cf:nl|ptrs:na|ktp:N0|mc:179372|mtp:S|qry_typ:P|lang:en|wc:3|flavl:10|cs:9706|v=4,False,,New Delhi,"Flat No 18, Ganga Apartment, Alaknanda, New Delhi - 110019, Dist.Delhi, Delhi",7942956951,
"Baby Diaper Pant, Size: XL, Small",https://www.indiamart.com/proddetail/baby-diaper-pant-23123274191.html?pos=9&kwd=baby diaper pants&tags=A||||8830.388|Price|product|||TS|rsf:gd-|-stype:attr=1|qr_nm:gd|res:RC4|com-cf:nl|ptrs:na|ktp:N0|mc:179372|mtp:S|qry_typ:P|lang:en|wc:3|flavl:10|cs:9706|v=4,Easeplus Healthcare Private Limited,https://www.ezoyplus.in/?pos=9&kwd=baby diaper pants&tags=A||||8830.388|Price|product|||TS|rsf:gd-|-stype:attr=1|qr_nm:gd|res:RC4|com-cf:nl|ptrs:na|ktp:N0|mc:179372|mtp:S|qry_typ:P|lang:en|wc:3|flavl:10|cs:9706|v=4,False,DD Nagar,Gwalior,"T 1298 K-61,Vrikampur Chouraha,Satabdipuram D D Nagar,Gwalior, DD Nagar, Gwalior - 474005, Dist.Gwalior, Madhya Pradesh",8048265864,
"Printed Kids Diaper Pants, XL",https://www.indiamart.com/proddetail/kids-diaper-pants-2854237197533.html?pos=10&kwd=baby diaper pants&tags=A||||8778.123|Price|product|||TS|rsf:gd-|-stype:attr=1|qr_nm:gd|res:RC4|com-cf:nl|ptrs:na|ktp:N0|mc:179372|mtp:S|qry_typ:P|lang:en|wc:3|flavl:10|cs:9706|v=4,Pleasure Paradise,https://www.wonderfeel.in/?pos=10&kwd=baby diaper pants&tags=A||||8778.123|Price|product|||TS|rsf:gd-|-stype:attr=1|qr_nm:gd|res:RC4|com-cf:nl|ptrs:na|ktp:N0|mc:179372|mtp:S|qry_typ:P|lang:en|wc:3|flavl:10|cs:9706|v=4,False,Sector 137,Noida,"11, T12 1105, Paras Tierea, Sector 137, Sector 137, Noida - 201301, Dist.Gautam Budh Nagar, Uttar Pradesh",8048612980,
"Plain Disposable Baby Diaper Pants, Size: XL",https://www.indiamart.com/proddetail/disposable-baby-diaper-pants-2851359748362.html?pos=11&kwd=baby diaper pants&tags=A||||8211.142|Price|product|||TS|rsf:gd-|-stype:attr=1|qr_nm:gd|res:RC4|com-cf:nl|ptrs:na|ktp:N0|mc:179372|mtp:S|qry_typ:P|lang:en|wc:3|flavl:10|cs:9706|v=4,Aglodia Corporation,https://www.aglodiacorp.com/?pos=11&kwd=baby diaper pants&tags=A||||8211.142|Price|product|||TS|rsf:gd-|-stype:attr=1|qr_nm:gd|res:RC4|com-cf:nl|ptrs:na|ktp:N0|mc:179372|mtp:S|qry_typ:P|lang:en|wc:3|flavl:10|cs:9706|v=4,False,Goregaon West,Mumbai,"315/2512 motilal nagar 2 MG road Goregaon west, Goregaon West, Mumbai - 400064, Dist.Mumbai, Maharashtra",7942842515,
"Nonwoven Disposable Unijoy Baby Diaper Pants, Size: Small, Packaging Size: 25 Pkt",https://www.indiamart.com/proddetail/unijoy-baby-diaper-pants-25959757530.html?pos=12&kwd=baby diaper pants&tags=A||||8559.269|Price|product|||TS|rsf:gd-|-stype:attr=1|qr_nm:gd|res:RC4|com-cf:nl|ptrs:na|ktp:N0|mc:179372|mtp:S|qry_typ:P|lang:en|wc:3|flavl:10|cs:9706|v=4,AL Arhan Trading Company,https://www.indiamart.com/al-arhan-trading-company/?pos=12&kwd=baby diaper pants&tags=A||||8559.269|Price|product|||TS|rsf:gd-|-stype:attr=1|qr_nm:gd|res:RC4|com-cf:nl|ptrs:na|ktp:N0|mc:179372|mtp:S|qry_typ:P|lang:en|wc:3|flavl:10|cs:9706|v=4,False,Nandlalpura,Indore,"380, Sector B, Chandan Nagar Ground Floor, Nandlalpura, Indore - 452002, Dist.Indore, Madhya Pradesh",8047635284,
Cotton Toddlers Magic Pants Baby Diapers,https://www.indiamart.com/proddetail/toddlers-magic-pants-baby-diapers-20256214488.html?pos=13&kwd=baby diaper pants&tags=A||||8786.56|Price|product|||TS|rsf:gd-|-stype:attr=1|qr_nm:gd|res:RC4|com-cf:nl|ptrs:na|ktp:N0|mc:179372|mtp:S|qry_typ:P|lang:en|wc:3|flavl:10|cs:9706|v=4,ADML(ADROIT MOLECULES),https://www.adroitmolecules.com/?pos=13&kwd=baby diaper pants&tags=A||||8786.56|Price|product|||TS|rsf:gd-|-stype:attr=1|qr_nm:gd|res:RC4|com-cf:nl|ptrs:na|ktp:N0|mc:179372|mtp:S|qry_typ:P|lang:en|wc:3|flavl:10|cs:9706|v=4,False,Annaram,Hyderabad,"Plot No. 523/2 Dundigal Village , Medchal, Malkajgiri, Near Marri Laxman Reddy Engineering College, Annaram, Hyderabad - 500043, Dist.Hyderabad, Telangana",8046057643,
Plain Kids Diaper Pants,https://www.indiamart.com/proddetail/kids-diaper-pants-2852675823255.html?pos=14&kwd=baby diaper pants&tags=A||||8752.144|Price|product|||TS|rsf:gd-|-stype:attr=1|qr_nm:gd|res:RC4|com-cf:nl|ptrs:na|ktp:N0|mc:179372|mtp:S|qry_typ:P|lang:en|wc:3|flavl:10|cs:9706|v=4,GMI Automations,https://www.gmiautomations.in/?pos=14&kwd=baby diaper pants&tags=A||||8752.144|Price|product|||TS|rsf:gd-|-stype:attr=1|qr_nm:gd|res:RC4|com-cf:nl|ptrs:na|ktp:N0|mc:179372|mtp:S|qry_typ:P|lang:en|wc:3|flavl:10|cs:9706|v=4,False,Patparganj,New Delhi,"166A, Third Floor, Patparganj Village, Patparganj, New Delhi - 110091, Dist.Delhi, Delhi",8046075876,
Plain Kids Diaper Pants,https://www.indiamart.com/proddetail/kids-diaper-pants-2852675823255.html?pos=15&kwd=baby diaper pants&tags=A||||8752.144|Price|product|||TS|rsf:gd-|-stype:attr=1|qr_nm:gd|res:RC4|com-cf:nl|ptrs:na|ktp:N0|mc:179372|mtp:S|qry_typ:P|lang:en|wc:3|cs:8894|v=4,GMI Automations,https://www.gmiautomations.in/?pos=15&kwd=baby diaper pants&tags=A||||8752.144|Price|product|||TS|rsf:gd-|-stype:attr=1|qr_nm:gd|res:RC4|com-cf:nl|ptrs:na|ktp:N0|mc:179372|mtp:S|qry_typ:P|lang:en|wc:3|cs:8894|v=4,False,Patparganj,New Delhi,"166A, Third Floor, Patparganj Village, Patparganj, New Delhi - 110091, Dist.Delhi, Delhi",8046075876,
"Printed Baby Pant Diapers, Packaging Size: Medium",https://www.indiamart.com/proddetail/baby-pant-diapers-2851599701173.html?pos=16&kwd=baby diaper pants&tags=A||||8559.269|Price|product|||TS|rsf:gd-|-stype:attr=1|qr_nm:gd|res:RC4|com-cf:nl|ptrs:na|ktp:N0|mc:179372|mtp:S|qry_typ:P|lang:en|wc:3|cs:8894|v=4,Pulkit Enterprises,https://www.indiamart.com/pulkitenterprises-indor/?pos=16&kwd=baby diaper pants&tags=A||||8559.269|Price|product|||TS|rsf:gd-|-stype:attr=1|qr_nm:gd|res:RC4|com-cf:nl|ptrs:na|ktp:N0|mc:179372|mtp:S|qry_typ:P|lang:en|wc:3|cs:8894|v=4,False,,Indore,"505, Kalpana Apartment, 1, 7,South Tukoganj, Indore - 452001, Dist.Indore, Madhya Pradesh",8048961141,
Baby Diaper Pant,https://www.indiamart.com/proddetail/baby-diaper-pant-2853007701248.html?pos=17&kwd=baby diaper pants&tags=A||||8741.812|Price|product|||TS|rsf:gd-|-stype:attr=1|qr_nm:gd|res:RC4|com-cf:nl|ptrs:na|ktp:N0|mc:179372|mtp:S|qry_typ:P|lang:en|wc:3|cs:8894|v=4,Jayshi Healthcare Private Limited,https://www.freesteps.in/?pos=17&kwd=baby diaper pants&tags=A||||8741.812|Price|product|||TS|rsf:gd-|-stype:attr=1|qr_nm:gd|res:RC4|com-cf:nl|ptrs:na|ktp:N0|mc:179372|mtp:S|qry_typ:P|lang:en|wc:3|cs:8894|v=4,False,,Gurugram,"Near Khasi Ram Medical, Gurugram ,HR, 413/4, Jacubpura, Gurugram, New Railway Road near Jeevan multi specialist hospital, Gurugram - 122001, Dist.Gurgaon, Haryana",8045909409,
"Printed Baby Diaper Pant, Size: Medium",https://www.indiamart.com/proddetail/printed-baby-diaper-pant-2853475230273.html?pos=18&kwd=baby diaper pants&tags=A||||8559.269|Price|product|||TS|rsf:gd-|-stype:attr=1|qr_nm:gd|res:RC4|com-cf:nl|ptrs:na|ktp:N0|mc:179372|mtp:S|qry_typ:P|lang:en|wc:3|cs:8894|v=4,Aadaarsh Enterprise,https://www.hellosweetybabydaiper.com/?pos=18&kwd=baby diaper pants&tags=A||||8559.269|Price|product|||TS|rsf:gd-|-stype:attr=1|qr_nm:gd|res:RC4|com-cf:nl|ptrs:na|ktp:N0|mc:179372|mtp:S|qry_typ:P|lang:en|wc:3|cs:8894|v=4,False,,Indore,"2,Sher Shah Suri Nagar B, Khajrana, Indore - 452001, Dist.Indore, Madhya Pradesh",8043879050,
Cotton Disposable Babbo Baby Diaper Pant,https://www.indiamart.com/proddetail/babbo-baby-diaper-pant-16575020197.html?pos=19&kwd=baby diaper pants&tags=A||||8778.123|Price|product|||TS|rsf:gd-|-stype:attr=1|qr_nm:gd|res:RC4|com-cf:nl|ptrs:na|ktp:N0|mc:179372|mtp:S|qry_typ:P|lang:en|wc:3|cs:8894|v=4,Samyak Hygiene Care Private Limited,https://www.indiamart.com/samyakhygienecare/?pos=19&kwd=baby diaper pants&tags=A||||8778.123|Price|product|||TS|rsf:gd-|-stype:attr=1|qr_nm:gd|res:RC4|com-cf:nl|ptrs:na|ktp:N0|mc:179372|mtp:S|qry_typ:P|lang:en|wc:3|cs:8894|v=4,False,Ward No 11,Noida,"Plot No. 1782, Chatanga Road, Jewar, Guttam Bhudi Nagar, Ward No 11, Noida - 203135, Dist.Gautam Budh Nagar, Uttar Pradesh",8047640159,
Printed XL size Loose Baby Diapers - Pant Style,https://www.indiamart.com/proddetail/xl-size-loose-baby-diapers-pant-style-2854443275748.html?pos=20&kwd=baby diaper pants&tags=A||||8211.142|Price|product|||TS|rsf:gd-|-stype:attr=1|qr_nm:gd|res:RC4|com-cf:nl|ptrs:na|ktp:N0|mc:179372|mtp:S|qry_typ:P|lang:en|wc:3|cs:8894|v=4,Stayzy Hygiene Private Limited,https://www.indiamart.com/synergy-fly/?pos=20&kwd=baby diaper pants&tags=A||||8211.142|Price|product|||TS|rsf:gd-|-stype:attr=1|qr_nm:gd|res:RC4|com-cf:nl|ptrs:na|ktp:N0|mc:179372|mtp:S|qry_typ:P|lang:en|wc:3|cs:8894|v=4,False,Borivali West,Mumbai,"Bluechip Industrial Estate No 4 Sativali Road, Near Nexa Showroom, Waliv Naka, Borivali West, Mumbai - 401101, Dist.Mumbai, Maharashtra",8048604117,
"Bamboo Cotton Day Night Care Baby Diaper (Small, Medium, Large)",https://www.indiamart.com/proddetail/day-night-care-baby-diaper-small-medium-large-2851616657555.html?pos=21&kwd=baby diaper pants&tags=A||||8752.144|Price|product|||TS|rsf:gd-|-stype:attr=1|qr_nm:gd|res:RC4|com-cf:nl|ptrs:na|ktp:N0|mc:179372|mtp:S|qry_typ:P|lang:en|wc:3|cs:8894|v=4,MSND Manufacturing,https://www.indiamart.com/msnd-manufacturing/?pos=21&kwd=baby diaper pants&tags=A||||8752.144|Price|product|||TS|rsf:gd-|-stype:attr=1|qr_nm:gd|res:RC4|com-cf:nl|ptrs:na|ktp:N0|mc:179372|mtp:S|qry_typ:P|lang:en|wc:3|cs:8894|v=4,False,Mandoli,New Delhi,"Ground Floor at C-2/80, floor-Kh. No. 34/1/1, G/F, Gali No.2, Harsh Vihar,, Mandoli, New Delhi - 110093, Dist.Delhi, Delhi",8046032266,
"Freshkins Disposable Baby Diapers Pants, Size: Small",https://www.indiamart.com/proddetail/freshkins-disposable-baby-diapers-pants-2854538073597.html?pos=22&kwd=baby diaper pants&tags=A||||8230.883||product|||TS|rsf:gd-|-stype:attr=1|qr_nm:gd|res:RC4|com-cf:nl|ptrs:na|ktp:N0|mc:179372|mtp:S|qry_typ:P|lang:en|wc:3|cs:8894|v=4,Hygiene Product,https://www.freshkin.co.in/?pos=22&kwd=baby diaper pants&tags=A||||8230.883||product|||TS|rsf:gd-|-stype:attr=1|qr_nm:gd|res:RC4|com-cf:nl|ptrs:na|ktp:N0|mc:179372|mtp:S|qry_typ:P|lang:en|wc:3|cs:8894|v=4,False,Sagrampura Putli,Surat,"9002 B, World Trade Center Ring Road, Sagrampura Putli, Surat - 395002, Dist.Surat, Gujarat",8048610916,
"Printed BUMMY PANTS M2, Medium",https://www.indiamart.com/proddetail/bummy-pants-m2-2854902347288.html?pos=23&kwd=baby diaper pants&tags=A||||8954.051|Price|product|||TS|rsf:gd-|-stype:attr=1|qr_nm:gd|res:RC4|com-cf:nl|ptrs:na|ktp:N0|mc:179372|mtp:S|qry_typ:P|lang:en|wc:3|cs:8894|v=4,Shriv Medicare Private Limited,https://www.shrivmedicare.com/?pos=23&kwd=baby diaper pants&tags=A||||8954.051|Price|product|||TS|rsf:gd-|-stype:attr=1|qr_nm:gd|res:RC4|com-cf:nl|ptrs:na|ktp:N0|mc:179372|mtp:S|qry_typ:P|lang:en|wc:3|cs:8894|v=4,False,Noombal,Chennai,"Plot No.2, Survey No. 15/2B, Vada Noombal Road, Perumalagaram, Tiruverkadu, Noombal, Chennai - 600077, Dist.Chennai, Tamil Nadu",8043830699,
"Plain Baby Diaper Pants, Size: Large",https://www.indiamart.com/proddetail/baby-diaper-pants-2850158716148.html?pos=24&kwd=baby diaper pants&tags=A||||8752.144|Price|product|||TS|rsf:gd-|-stype:attr=1|qr_nm:gd|res:RC4|com-cf:nl|ptrs:na|ktp:N0|mc:179372|mtp:S|qry_typ:P|lang:en|wc:3|cs:8894|v=4,Royal Rose International,https://www.indiamart.com/royal-rose-international/?pos=24&kwd=baby diaper pants&tags=A||||8752.144|Price|product|||TS|rsf:gd-|-stype:attr=1|qr_nm:gd|res:RC4|com-cf:nl|ptrs:na|ktp:N0|mc:179372|mtp:S|qry_typ:P|lang:en|wc:3|cs:8894|v=4,False,Rajindra Place,New Delhi,"27, Ground Floor, Rajindra Park, Pusa Road, Rajindra Place, New Delhi - 110060, Dist.Delhi, Delhi",8047619163,
"Teddy diapers pant, For Home",https://www.indiamart.com/proddetail/teddy-diapers-pant-22663539288.html?pos=25&kwd=baby diaper pants&tags=A||||8571.301|Price|product|||TS|rsf:gd-|-stype:attr=1|qr_nm:gd|res:RC4|com-cf:nl|ptrs:na|ktp:N0|mc:179372|mtp:S|qry_typ:P|lang:en|wc:3|cs:8894|v=4,Atomlife Healthcare And Reseacrh Private Limited,https://www.indiamart.com/atomlifehealthcareresearch/?pos=25&kwd=baby diaper pants&tags=A||||8571.301|Price|product|||TS|rsf:gd-|-stype:attr=1|qr_nm:gd|res:RC4|com-cf:nl|ptrs:na|ktp:N0|mc:179372|mtp:S|qry_typ:P|lang:en|wc:3|cs:8894|v=4,False,Thycaud,Thiruvananthapuram,"TC 24/449, Thycaud, Thiruvananthapuram - 695014, Dist.Thiruvananthapuram, Kerala",8048263415,
"Realcare Nonwoven BeBe Baby Smart Pants-Reg (S), Size: Small",https://www.indiamart.com/proddetail/bebe-baby-smart-pants-reg-s-26046157562.html?pos=26&kwd=baby diaper pants&tags=A||||8954.051|Price|product|||TS|rsf:gd-|-stype:attr=1|qr_nm:gd|res:RC4|com-cf:nl|ptrs:na|ktp:N0|mc:179372|mtp:S|qry_typ:P|lang:en|wc:3|cs:8894|v=4,Realcare Hygienic Products Private Limited,https://www.realcarefmcg.com/?pos=26&kwd=baby diaper pants&tags=A||||8954.051|Price|product|||TS|rsf:gd-|-stype:attr=1|qr_nm:gd|res:RC4|com-cf:nl|ptrs:na|ktp:N0|mc:179372|mtp:S|qry_typ:P|lang:en|wc:3|cs:8894|v=4,False,Sidco Industrial Estate,Chennai,"No 69 C, Sidco Industrial Estate, 12th Street, Ambattur, Sidco Industrial Estate, Chennai - 600098, Dist.Chennai, Tamil Nadu",8046064437,
Cotton Baby Diapers Medium Size 7-12 KG,https://www.indiamart.com/proddetail/baby-diapers-medium-size-7-12-kg-2854884828212.html?pos=27&kwd=baby diaper pants&tags=A||||8228.275|Price|product|||TS|rsf:gd-|-stype:attr=1|qr_nm:gd|res:RC4|com-cf:nl|ptrs:na|ktp:N0|mc:179372|mtp:S|qry_typ:P|lang:en|wc:3|cs:8894|v=4,Patoliya Exports Private Limited,https://www.indiamart.com/patoliya-exports-ahmedabad/?pos=27&kwd=baby diaper pants&tags=A||||8228.275|Price|product|||TS|rsf:gd-|-stype:attr=1|qr_nm:gd|res:RC4|com-cf:nl|ptrs:na|ktp:N0|mc:179372|mtp:S|qry_typ:P|lang:en|wc:3|cs:8894|v=4,False,OPP GVMM,Ahmedabad,"B-62, Bileshwar Industrial Estate, OPP GVMM, Ahmedabad - 382415, Dist.Ahmedabad, Gujarat",8044458925,
Baby Diapers Pant Style Pull Up,https://www.indiamart.com/proddetail/baby-diapers-pant-style-pull-up-26741158188.html?pos=28&kwd=baby diaper pants&tags=A||||8210.732|Price|product|||TS|rsf:gd-|-stype:attr=1|qr_nm:gd|res:RC4|com-cf:nl|ptrs:na|ktp:N0|mc:179372|mtp:S|qry_typ:P|lang:en|wc:3|cs:8894|v=4,M S Enterprises,https://www.indiamart.com/m-senterprisesmumbai/?pos=28&kwd=baby diaper pants&tags=A||||8210.732|Price|product|||TS|rsf:gd-|-stype:attr=1|qr_nm:gd|res:RC4|com-cf:nl|ptrs:na|ktp:N0|mc:179372|mtp:S|qry_typ:P|lang:en|wc:3|cs:8894|v=4,False,Andheri East,Vasai,"1st Floor, Gala No 113, Rajprabha Industrial Enclave No 6, Boidapada, Vasai East Palghar, Andheri East, Vasai - 401208, Dist.Thane, Maharashtra",8048974810,
"Printed Baby Diaper Pants, Packaging Size: Large",https://www.indiamart.com/proddetail/baby-diaper-pants-2853394783091.html?pos=29&kwd=baby diaper pants&tags=A||||8228.275|Price|product|||MDC|rsf:gd-|-stype:attr=1|qr_nm:gd|res:RC4|com-cf:nl|ptrs:na|ktp:N0|mc:179372|mtp:S|qry_typ:P|lang:en|wc:3|cs:8894|v=4,Ashok Sunderdas Jarwani,https://www.indiamart.com/ashoksunderdasjarwani/?pos=29&kwd=baby diaper pants&tags=A||||8228.275|Price|product|||MDC|rsf:gd-|-stype:attr=1|qr_nm:gd|res:RC4|com-cf:nl|ptrs:na|ktp:N0|mc:179372|mtp:S|qry_typ:P|lang:en|wc:3|cs:8894|v=4,False,Sardarnagar,Ahmedabad,"17, First Floor, Sardarnagar Main Road Rukmani Market, Sardarnagar, Ahmedabad - 382475, Dist.Ahmedabad, Gujarat",7942958384,
"Printed Wowper Fresh Baby Diapers Pants, Medium",https://www.indiamart.com/proddetail/wowper-fresh-baby-diapers-pants-2854719944312.html?pos=30&kwd=baby diaper pants&tags=A||||8752.144|Price|product|||MDC|rsf:gd-|-stype:attr=1|qr_nm:gd|res:RC4|com-cf:nl|ptrs:na|ktp:N0|mc:179372|mtp:S|qry_typ:P|lang:en|wc:3|cs:8894|v=4,Siddiqui And Sons,https://www.indiamart.com/siddiqui-sons-northdelhi/?pos=30&kwd=baby diaper pants&tags=A||||8752.144|Price|product|||MDC|rsf:gd-|-stype:attr=1|qr_nm:gd|res:RC4|com-cf:nl|ptrs:na|ktp:N0|mc:179372|mtp:S|qry_typ:P|lang:en|wc:3|cs:8894|v=4,False,,New Delhi,"S/F, B-38, B- Block Gokal Puri, Near Post Office, North East Delhi,, New Delhi - 110094, Dist.Delhi, Delhi",7949324358,
Plain Absorbia XL Premium Baby Pants Diaper,https://www.indiamart.com/proddetail/absorbia-xl-premium-baby-pants-diaper-2854766924948.html?pos=31&kwd=baby diaper pants&tags=A||||8556.61|Price|product|||MDC|rsf:gd-|-stype:attr=1|qr_nm:gd|res:RC4|com-cf:nl|ptrs:na|ktp:N0|mc:179372|mtp:S|qry_typ:P|lang:en|wc:3|cs:8894|v=4,Arbatt Enterprises,https://www.indiamart.com/arbatt-enterprises/?pos=31&kwd=baby diaper pants&tags=A||||8556.61|Price|product|||MDC|rsf:gd-|-stype:attr=1|qr_nm:gd|res:RC4|com-cf:nl|ptrs:na|ktp:N0|mc:179372|mtp:S|qry_typ:P|lang:en|wc:3|cs:8894|v=4,False,,Mysuru,"119/1, Devayyana Hundi Road, Srirampra 2nd Stage, Mysuru - 570008, Dist.Mysuru, Karnataka",8044458992,
"Plain Dabur Baby Super Pants, Medium",https://www.indiamart.com/proddetail/dabur-baby-super-pants-2854652507755.html?pos=32&kwd=baby diaper pants&tags=A||||8821.238|Price|product|||MDC|rsf:gd-|-stype:attr=1|qr_nm:gd|res:RC4|com-cf:nl|ptrs:na|ktp:N0|mc:179372|mtp:S|qry_typ:P|lang:en|wc:3|cs:8894|v=4,Classic Enterprises,https://www.indiamart.com/classic-enterprises-bulandshahr/?pos=32&kwd=baby diaper pants&tags=A||||8821.238|Price|product|||MDC|rsf:gd-|-stype:attr=1|qr_nm:gd|res:RC4|com-cf:nl|ptrs:na|ktp:N0|mc:179372|mtp:S|qry_typ:P|lang:en|wc:3|cs:8894|v=4,False,,Bulandshahr,"763, Satha, Indra Nagar, Aslamwali Gali, Bulandshahr - 203001, Dist.Bulandshahr, Uttar Pradesh",7949328487,
"DREAMS CARE Cotton Baby Diaper Pants, Size: Small, Packaging Size: 50",https://www.indiamart.com/proddetail/baby-diaper-pants-23214908897.html?pos=33&kwd=baby diaper pants&tags=A||||8559.269|Price|product|||TS|rsf:gd-|-stype:attr=1|qr_nm:gd|res:RC4|com-cf:nl|ptrs:na|ktp:N0|mc:179372|mtp:S|qry_typ:P|lang:en|wc:3|cs:8894|v=4,Madhav Overseas Corporation,https://www.madhavoverseascorporation.net/?pos=33&kwd=baby diaper pants&tags=A||||8559.269|Price|product|||TS|rsf:gd-|-stype:attr=1|qr_nm:gd|res:RC4|com-cf:nl|ptrs:na|ktp:N0|mc:179372|mtp:S|qry_typ:P|lang:en|wc:3|cs:8894|v=4,False,Atal Khel Parisar Main Road,Indore,"Madhav Corporate Scheme No 78 , Sector D ,Plot No 4,, Atal Khel Parisar Main Road, Indore - 452010, Dist.Indore, Madhya Pradesh",8048980263,
"Evelance Baby Dry Pants Medium Size Bubble sheet care pants, for 7-12kg Baby Weight - M (66 Pieces)",https://www.indiamart.com/proddetail/evelance-baby-dry-pants-medium-size-bubble-sheet-care-pants-for-7-12kg-baby-weight-m-66-pieces-2854777462248.html?pos=34&kwd=baby diaper pants&tags=A||||8740.707|Price|product|||MDC|rsf:gd-|-stype:attr=1|qr_nm:gd|res:RC4|com-cf:nl|ptrs:na|ktp:N0|mc:179372|mtp:S|qry_typ:P|lang:en|wc:3|cs:8894|v=4,Parv Industries,https://www.indiamart.com/parvindustries-punjab/?pos=34&kwd=baby diaper pants&tags=A||||8740.707|Price|product|||MDC|rsf:gd-|-stype:attr=1|qr_nm:gd|res:RC4|com-cf:nl|ptrs:na|ktp:N0|mc:179372|mtp:S|qry_typ:P|lang:en|wc:3|cs:8894|v=4,False,,Sas Nagar,"34/2/2/2/2-1 8, Parv Industries, Pabhat, Zirakpur,, Sas Nagar - 140301, Dist.Mohali, Punjab",8044011342,
Plain Large Nonwoven Disposable Baby Diaper Pants,https://www.indiamart.com/proddetail/large-nonwoven-disposable-baby-diaper-pants-2853252270612.html?pos=35&kwd=baby diaper pants&tags=A||||8767.009|Price|product|||TS|rsf:gd-|-stype:attr=1|qr_nm:gd|res:RC4|com-cf:nl|ptrs:na|ktp:N0|mc:179372|mtp:S|qry_typ:P|lang:en|wc:3|cs:8894|v=4,Dakshu Enterprise,https://www.indiamart.com/dakshu-enterprise/?pos=35&kwd=baby diaper pants&tags=A||||8767.009|Price|product|||TS|rsf:gd-|-stype:attr=1|qr_nm:gd|res:RC4|com-cf:nl|ptrs:na|ktp:N0|mc:179372|mtp:S|qry_typ:P|lang:en|wc:3|cs:8894|v=4,False,,Baghpat,"0,,Delhi Saharanpur road,Baghpat, Baghpat - 250609, Dist.Bagpat, Uttar Pradesh",7949339950,
"Nonwoven Little Angel Baby Diapers Pant, Size: Small medium large XL",https://www.indiamart.com/proddetail/little-angel-baby-diapers-pant-22894519488.html?pos=36&kwd=baby diaper pants&tags=A||||8281.036|Price|product|||TS|rsf:gd-|-stype:attr=1|qr_nm:gd|res:RC4|com-cf:nl|ptrs:na|ktp:N0|mc:179372|mtp:S|qry_typ:P|lang:en|wc:3|cs:8894|v=4,Novelty Hosiery,https://www.indiamart.com/novelty-hosiery/?pos=36&kwd=baby diaper pants&tags=A||||8281.036|Price|product|||TS|rsf:gd-|-stype:attr=1|qr_nm:gd|res:RC4|com-cf:nl|ptrs:na|ktp:N0|mc:179372|mtp:S|qry_typ:P|lang:en|wc:3|cs:8894|v=4,False,Chokshi Bazar,Vadodara,"M G Road 00 Laheripura Gate Nr Angadiya Gali, Chokshi Bazar, Vadodara - 390001, Dist.Vadodara, Gujarat",7942565948,
"Disposable Baby Diapers Pants, Age Group: Newly Born, Size: Small",https://www.indiamart.com/proddetail/disposable-baby-diapers-pants-2852357410062.html?pos=37&kwd=baby diaper pants&tags=A||||8717.056|Price|product|||TS|rsf:gd-|-stype:attr=1|qr_nm:gd|res:RC4|com-cf:nl|ptrs:na|ktp:N0|mc:179372|mtp:S|qry_typ:P|lang:en|wc:3|cs:8894|v=4,Best Diapers,https://www.bestdiapers.net/?pos=37&kwd=baby diaper pants&tags=A||||8717.056|Price|product|||TS|rsf:gd-|-stype:attr=1|qr_nm:gd|res:RC4|com-cf:nl|ptrs:na|ktp:N0|mc:179372|mtp:S|qry_typ:P|lang:en|wc:3|cs:8894|v=4,False,Tata Colony,Salem,"591/3 Pillayar Nagar Siddharkoil Main Road Pillayar Nagar, Siddhar Koil Main Road, Tata Colony, Salem - 636005, Dist.Salem, Tamil Nadu",7942703611,
Cotton Medium Baby Diaper Pants,https://www.indiamart.com/proddetail/medium-baby-diaper-pants-2854398322812.html?pos=38&kwd=baby diaper pants&tags=A||||8230.883|Price|product|||TS|rsf:gd-|-stype:attr=1|qr_nm:gd|res:RC4|com-cf:nl|ptrs:na|ktp:N0|mc:179372|mtp:S|qry_typ:P|lang:en|wc:3|cs:8894|v=4,VR Hygiene Care,https://www.indiamart.com/vrhygienecare/?pos=38&kwd=baby diaper pants&tags=A||||8230.883|Price|product|||TS|rsf:gd-|-stype:attr=1|qr_nm:gd|res:RC4|com-cf:nl|ptrs:na|ktp:N0|mc:179372|mtp:S|qry_typ:P|lang:en|wc:3|cs:8894|v=4,False,Saniya Hemad,Surat,"A-12, Subham Ind.-1, Saniya Hemad, Saniya Hemad, Surat - 395006, Dist.Surat, Gujarat",8048969848,
"Printed Baby Diaper Pants, Medium",https://www.indiamart.com/proddetail/baby-diaper-pants-2854458320055.html?pos=39&kwd=baby diaper pants&tags=A||||8559.269|Price|product|||MDC|rsf:gd-|-stype:attr=1|qr_nm:gd|res:RC4|com-cf:nl|ptrs:na|ktp:N0|mc:179372|mtp:S|qry_typ:P|lang:en|wc:3|cs:8894|v=4,H & H Construct,https://www.indiamart.com/hh-construct/?pos=39&kwd=baby diaper pants&tags=A||||8559.269|Price|product|||MDC|rsf:gd-|-stype:attr=1|qr_nm:gd|res:RC4|com-cf:nl|ptrs:na|ktp:N0|mc:179372|mtp:S|qry_typ:P|lang:en|wc:3|cs:8894|v=4,False,,Indore,"826,Scheme No-114,Part No-1, Indore - 452001, Dist.Indore, Madhya Pradesh",7949094380,
"Plain Kangaroo Baby Diapers Pants, Small",https://www.indiamart.com/proddetail/kangaroo-baby-diapers-pants-14430443330.html?pos=40&kwd=baby diaper pants&tags=A||||8071.104|Price|product|||MDC|rsf:gd-|-stype:attr=1|qr_nm:gd|res:RC4|com-cf:nl|ptrs:na|ktp:N0|mc:179372|mtp:S|qry_typ:P|lang:en|wc:3|cs:8894|v=4,Shama Stores,https://www.indiamart.com/shamastores-amreli/?pos=40&kwd=baby diaper pants&tags=A||||8071.104|Price|product|||MDC|rsf:gd-|-stype:attr=1|qr_nm:gd|res:RC4|com-cf:nl|ptrs:na|ktp:N0|mc:179372|mtp:S|qry_typ:P|lang:en|wc:3|cs:8894|v=4,False,,Amreli,"India Market, Tower Road, Amreli - 365601, Dist.Amreli, Gujarat",7949328834,
"LILIPUT PREMIUM IMPORTED BABY DIAPER PANTS - 12-Hour Leak Protection, Medium",https://www.indiamart.com/proddetail/liliput-premium-imported-baby-diaper-pants-12-hour-leak-protection-2854587412988.html?pos=41&kwd=baby diaper pants&tags=A||||9110.092|Price|product|||MDC|rsf:gd-|-stype:attr=1|qr_nm:gd|res:RC4|com-cf:nl|ptrs:na|ktp:N0|mc:179372|mtp:S|qry_typ:P|lang:en|wc:3|cs:8894|v=4,Asian Hygiene,https://www.indiamart.com/asian-hygiene/?pos=41&kwd=baby diaper pants&tags=A||||9110.092|Price|product|||MDC|rsf:gd-|-stype:attr=1|qr_nm:gd|res:RC4|com-cf:nl|ptrs:na|ktp:N0|mc:179372|mtp:S|qry_typ:P|lang:en|wc:3|cs:8894|v=4,False,,Lucknow,"Shop No. 134, Kanpur Road, Transport Nagar,, Lucknow - 226012, Dist.Lucknow, Uttar Pradesh",7949330533,
"Plain Baby Pant Diapers, Medium",https://www.indiamart.com/proddetail/baby-pant-diapers-2854553418033.html?pos=42&kwd=baby diaper pants&tags=A||||8461.862|Price|product|||MDC|rsf:gd-|-stype:attr=1|qr_nm:gd|res:RC4|com-cf:nl|ptrs:na|ktp:N0|mc:179372|mtp:S|qry_typ:P|lang:en|wc:3|cs:8894|v=4,Arti Collection,https://www.indiamart.com/arti-collection-bhilwara/?pos=42&kwd=baby diaper pants&tags=A||||8461.862|Price|product|||MDC|rsf:gd-|-stype:attr=1|qr_nm:gd|res:RC4|com-cf:nl|ptrs:na|ktp:N0|mc:179372|mtp:S|qry_typ:P|lang:en|wc:3|cs:8894|v=4,False,,Bhilwara,"10-S-43, Patel Nagar, Bhilwara - 311001, Dist.Bhilwara, Rajasthan",7949329799,
Plain Aloe Baby Over Night Diaper Pant,https://www.indiamart.com/proddetail/aloe-baby-over-night-diaper-pant-2854421386155.html?pos=43&kwd=baby diaper pants&tags=A||||8228.275|Price|product|||MDC|rsf:gd-|-stype:attr=1|qr_nm:gd|res:RC4|com-cf:nl|ptrs:na|ktp:N0|mc:179372|mtp:S|qry_typ:P|lang:en|wc:3|cs:8894|v=4,Protect Healthcare,https://www.indiamart.com/protect-healthcare-ahmedabad/?pos=43&kwd=baby diaper pants&tags=A||||8228.275|Price|product|||MDC|rsf:gd-|-stype:attr=1|qr_nm:gd|res:RC4|com-cf:nl|ptrs:na|ktp:N0|mc:179372|mtp:S|qry_typ:P|lang:en|wc:3|cs:8894|v=4,False,,Ahmedabad,"2/1, Ramvila Hights, UMA Vidhyalay Road, Gopal Chowk ,Nikol, Ahmedabad - 382350, Dist.Ahmedabad, Gujarat",7949337627,
Bebe Baby Diapers Pant,https://www.indiamart.com/proddetail/bebe-baby-diapers-pant-2853596442430.html?pos=44&kwd=baby diaper pants&tags=A||||8954.051|Price|product|||TS|rsf:gd-|-stype:attr=1|qr_nm:gd|res:RC4|com-cf:nl|ptrs:na|ktp:N0|mc:179372|mtp:S|qry_typ:P|lang:en|wc:3|cs:8894|v=4,Immanlyn Old Age Traders,https://www.immanlyn.in/?pos=44&kwd=baby diaper pants&tags=A||||8954.051|Price|product|||TS|rsf:gd-|-stype:attr=1|qr_nm:gd|res:RC4|com-cf:nl|ptrs:na|ktp:N0|mc:179372|mtp:S|qry_typ:P|lang:en|wc:3|cs:8894|v=4,False,T Nagar,Chennai,"Old No 6 New No 15, Saravana Street, T Nagar, T Nagar, Chennai - 600017, Dist.Chennai, Tamil Nadu",8046053387,
"Printed Baby Diaper Pants, Small",https://www.indiamart.com/proddetail/baby-diaper-pants-2854419057933.html?pos=45&kwd=baby diaper pants&tags=A||||8228.275|Price|product|||MDC|rsf:gd-|-stype:attr=1|qr_nm:gd|res:RC4|com-cf:nl|ptrs:na|ktp:N0|mc:179372|mtp:S|qry_typ:P|lang:en|wc:3|cs:8894|v=4,Gurukrupa Enterprise,https://www.indiamart.com/gurukrupa-enterprisegujarat-india/?pos=45&kwd=baby diaper pants&tags=A||||8228.275|Price|product|||MDC|rsf:gd-|-stype:attr=1|qr_nm:gd|res:RC4|com-cf:nl|ptrs:na|ktp:N0|mc:179372|mtp:S|qry_typ:P|lang:en|wc:3|cs:8894|v=4,False,Thakkarbapa Nagar,Ahmedabad,"C/5, Vikramaditya Society, B/H Vikram Park, Nr. Kewdaji Ni Chali, Thakkarbapa Nagar, Ahmedabad - 382350, Dist.Ahmedabad, Gujarat",7949337219,
Teddy Baby easy Diaper Pants,https://www.indiamart.com/proddetail/teddy-baby-easy-diaper-pants-2852520375291.html?pos=46&kwd=baby diaper pants&tags=A||||8899.625|Price|product|||TS|rsf:gd-|-stype:attr=1|qr_nm:gd|res:RC4|com-cf:nl|ptrs:na|ktp:N0|mc:179372|mtp:S|qry_typ:P|lang:en|wc:3|cs:8894|v=4,Sri Goutham Surgicals,https://www.indiamart.com/sri-goutham-surgicals/?pos=46&kwd=baby diaper pants&tags=A||||8899.625|Price|product|||TS|rsf:gd-|-stype:attr=1|qr_nm:gd|res:RC4|com-cf:nl|ptrs:na|ktp:N0|mc:179372|mtp:S|qry_typ:P|lang:en|wc:3|cs:8894|v=4,False,Heritage Town,Pondicherry,"First Floor 156, Ambalathadayar Madam Street Kosakadi Street, Heritage Town, Pondicherry - 605001, Dist.Pondicherry, Pondicherry",7942799905,
"Stay Sure Baby Diaper Pants Small - PACK OF 46 Pcs, XXL",https://www.indiamart.com/proddetail/stay-sure-baby-diaper-pants-small-pack-of-46-pcs-2855101170955.html?pos=47&kwd=baby diaper pants&tags=A||||8307.81|Price|product|||TS|rsf:gd-|-stype:attr=1|qr_nm:gd|res:RC4|com-cf:nl|ptrs:na|ktp:N0|mc:179372|mtp:S|qry_typ:P|lang:en|wc:3|cs:8894|v=4,Eternis Hygiene Products,https://www.indiamart.com/eternis-hygiene-products/?pos=47&kwd=baby diaper pants&tags=A||||8307.81|Price|product|||TS|rsf:gd-|-stype:attr=1|qr_nm:gd|res:RC4|com-cf:nl|ptrs:na|ktp:N0|mc:179372|mtp:S|qry_typ:P|lang:en|wc:3|cs:8894|v=4,False,Kharabwadi,Pune,"Plot No. 5, Gat No. 357/95 Waghjai Nagar, Kharabwadi, Chakan, Khed, Kharabwadi, Pune - 410501, Dist.Pune, Maharashtra",8046042766,
"Disposable Pant Style Baby Diaper, Packaging Size: In Loose",https://www.indiamart.com/proddetail/pant-style-baby-diaper-23242312262.html?pos=48&kwd=baby diaper pants&tags=A||||9839.57|Price|product|||TS|rsf:gd-|-stype:attr=1|qr_nm:gd|res:RC4|com-cf:nl|ptrs:na|ktp:N0|mc:179372|mtp:S|qry_typ:P|lang:en|wc:3|cs:8894|v=4,Solace Group Of Companies,https://www.indiamart.com/solace-group-of-companies/?pos=48&kwd=baby diaper pants&tags=A||||9839.57|Price|product|||TS|rsf:gd-|-stype:attr=1|qr_nm:gd|res:RC4|com-cf:nl|ptrs:na|ktp:N0|mc:179372|mtp:S|qry_typ:P|lang:en|wc:3|cs:8894|v=4,False,Kulia,Kolkata,"95/D-2, Basundhara, Chingrighata, 3rd Floor Canal South Road, Kulia, Kolkata - 700105, Dist.Kolkata, West Bengal",8046057508,
"Plain Mummy Care Pants, Medium",https://www.indiamart.com/proddetail/mummy-care-disposable-diaper-pants-2854493326473.html?pos=49&kwd=baby diaper pants&tags=A||||8753.51|Price|product|||MDC|rsf:gd-|-stype:attr=1|qr_nm:gd|res:RC4|com-cf:nl|ptrs:na|ktp:N0|mc:179372|mtp:S|qry_typ:P|lang:en|wc:3|cs:8894|v=4,RDR Pharma And Surgical,https://www.indiamart.com/rdr-pharma-surgical/?pos=49&kwd=baby diaper pants&tags=A||||8753.51|Price|product|||MDC|rsf:gd-|-stype:attr=1|qr_nm:gd|res:RC4|com-cf:nl|ptrs:na|ktp:N0|mc:179372|mtp:S|qry_typ:P|lang:en|wc:3|cs:8894|v=4,False,,Karnal,"Mangalpur R K Puram, Karnal - 132001, Dist.Karnal, Haryana",7949327081,
"Baby Mamy Poko Pants Diaper, Size: Large",https://www.indiamart.com/proddetail/baby-mamy-poko-pants-diaper-2854435641362.html?pos=50&kwd=baby diaper pants&tags=A||||8211.142|Price|product|||MDC|rsf:gd-|-stype:attr=1|qr_nm:gd|res:RC4|com-cf:nl|ptrs:na|ktp:N0|mc:179372|mtp:S|qry_typ:P|lang:en|wc:3|cs:8894|v=4,S. P. Hygiene Products,https://www.indiamart.com/sphygieneproductsmumbai/?pos=50&kwd=baby diaper pants&tags=A||||8211.142|Price|product|||MDC|rsf:gd-|-stype:attr=1|qr_nm:gd|res:RC4|com-cf:nl|ptrs:na|ktp:N0|mc:179372|mtp:S|qry_typ:P|lang:en|wc:3|cs:8894|v=4,False,,Mumbai,"Ground Floor, Shop No.3, 46/A, Modern Mill Compound, Jagannath Bhatankar Marg, Near S T Depot Prabhadevi,, Mumbai - 400025, Dist.Mumbai, Maharashtra",7949338427,
"Printed Baby Pant Diaper 75pcs, Size: Medium",https://www.indiamart.com/proddetail/baby-pant-diaper-75pcs-2854225388797.html?pos=51&kwd=baby diaper pants&tags=A||||8316.457|Price|product|||MDC|rsf:gd-|-stype:attr=1|qr_nm:gd|res:RC4|com-cf:nl|ptrs:na|ktp:N0|mc:179372|mtp:S|qry_typ:P|lang:en|wc:3|cs:8894|v=4,Manavata Hygiene,https://www.indiamart.com/manavatahygiene/?pos=51&kwd=baby diaper pants&tags=A||||8316.457|Price|product|||MDC|rsf:gd-|-stype:attr=1|qr_nm:gd|res:RC4|com-cf:nl|ptrs:na|ktp:N0|mc:179372|mtp:S|qry_typ:P|lang:en|wc:3|cs:8894|v=4,False,Vadangli,Nashik,"Shri Kruoa Nagar, Maparwadu Road, Sinnar,, Vadangli, Nashik - 422103, Dist.Nashik, Maharashtra",8047544880,
"Pull Ups BFIT Adult Diaper Pants, XL, Size: Extra Large",https://www.indiamart.com/proddetail/bfit-adult-diaper-pants-xl-22912781388.html?pos=52&kwd=baby diaper pants&tags=A||||8211.142|Price|product|||SSnp|rsf:gd-|-stype:attr=1|qr_nm:gd|res:RC4|com-cf:nl|ptrs:na|ktp:N0|mc:179372|mtp:S|qry_typ:P|lang:en|wc:3|cs:8894|v=4,PAC Healthcare & Surgicals,https://www.healthcaredealer.in/?pos=52&kwd=baby diaper pants&tags=A||||8211.142|Price|product|||SSnp|rsf:gd-|-stype:attr=1|qr_nm:gd|res:RC4|com-cf:nl|ptrs:na|ktp:N0|mc:179372|mtp:S|qry_typ:P|lang:en|wc:3|cs:8894|v=4,False,Borivali West,Mumbai,"5, Bill Berry Apartment, I. C. Colony, Borivali West, Mumbai - 400103, Dist.Mumbai, Maharashtra",8048960800,
"Mamy Poko Pants, Age Group: Newly Born",https://www.indiamart.com/proddetail/mamy-poko-pants-2852619499291.html?pos=53&kwd=baby diaper pants&tags=A||||8954.051|Price|product|||TS|rsf:gd-|-stype:attr=1|qr_nm:gd|res:RC4|com-cf:nl|ptrs:na|ktp:N0|mc:179372|mtp:S|qry_typ:P|lang:en|wc:3|cs:8894|v=4,Chris Merchant Private Limited,https://www.chrismerchant.co.in/?pos=53&kwd=baby diaper pants&tags=A||||8954.051|Price|product|||TS|rsf:gd-|-stype:attr=1|qr_nm:gd|res:RC4|com-cf:nl|ptrs:na|ktp:N0|mc:179372|mtp:S|qry_typ:P|lang:en|wc:3|cs:8894|v=4,False,Koyambedu,Chennai,"No. 5, Poonamalee High Road, Koyambedu, Chennai - 600107, Dist.Chennai, Tamil Nadu",8048956521,
Nonwoven Bella Baby Happy Pant Style Diapers Large 24,https://www.indiamart.com/proddetail/bella-baby-happy-pant-style-diapers-large-24-2851223106773.html?pos=54&kwd=baby diaper pants&tags=A||||8663.873|Price|product|||TS|rsf:gd-|-stype:attr=1|qr_nm:gd|res:RC4|com-cf:nl|ptrs:na|ktp:N0|mc:179372|mtp:S|qry_typ:P|lang:en|wc:3|cs:8894|v=4,TZMO India South Private Limited,https://www.indiamart.com/tzmoindiasouth/?pos=54&kwd=baby diaper pants&tags=A||||8663.873|Price|product|||TS|rsf:gd-|-stype:attr=1|qr_nm:gd|res:RC4|com-cf:nl|ptrs:na|ktp:N0|mc:179372|mtp:S|qry_typ:P|lang:en|wc:3|cs:8894|v=4,False,New Timber Yard Layout,Bengaluru,"No.2, 1st Floor, Featherlite Building, Mysore Road, New Timber Yard Layout, New Timber Yard Layout, Bengaluru - 560026, Dist.Bengaluru, Karnataka",8048619127,
Printed Loose Baby Diaper Pant Style XL 75 PCS Packing,https://www.indiamart.com/proddetail/loose-baby-diaper-pant-style-xl-75-pcs-packing-2853996379588.html?pos=55&kwd=baby diaper pants&tags=A||||8228.275|Price|product|||TS|rsf:gd-|-stype:attr=1|qr_nm:gd|res:RC4|com-cf:nl|ptrs:na|ktp:N0|mc:179372|mtp:S|qry_typ:P|lang:en|wc:3|cs:8894|v=4,Shagun Enterprise,https://www.indiamart.com/shagun-enterpriseahmedabad/?pos=55&kwd=baby diaper pants&tags=A||||8228.275|Price|product|||TS|rsf:gd-|-stype:attr=1|qr_nm:gd|res:RC4|com-cf:nl|ptrs:na|ktp:N0|mc:179372|mtp:S|qry_typ:P|lang:en|wc:3|cs:8894|v=4,False,Saraspur,Ahmedabad,"4th Floor Block G, 415, City Center, NR Idgha Gate, NR Girdharnagar Bridge, Asarwa,, Saraspur, Ahmedabad - 380016, Dist.Ahmedabad, Gujarat",7949226972,
S Wobbly Disposable 40 Pants,https://www.indiamart.com/proddetail/small-40-pants-wobbly-disposable-15307600897.html?pos=56&kwd=baby diaper pants&tags=A||||8767.829|Price|product|||MDC|rsf:gd-|-stype:attr=1|qr_nm:gd|res:RC4|com-cf:nl|ptrs:na|ktp:N0|mc:179372|mtp:S|qry_typ:P|lang:en|wc:3|cs:8894|v=4,RSG Healthcare,https://www.indiamart.com/rsg-healthcare/?pos=56&kwd=baby diaper pants&tags=A||||8767.829|Price|product|||MDC|rsf:gd-|-stype:attr=1|qr_nm:gd|res:RC4|com-cf:nl|ptrs:na|ktp:N0|mc:179372|mtp:S|qry_typ:P|lang:en|wc:3|cs:8894|v=4,False,,Palwal,"Khasra No 1501 Railway Station Road Patida Kirana Store, Shayam Nagar, Palwal - 121102, Dist.Palwal, Haryana",8041014767,
Printed Large Baby Diaper Pant,https://www.indiamart.com/proddetail/large-baby-diaper-pant-2853936365788.html?pos=57&kwd=baby diaper pants&tags=A||||8752.144|Price|product|||MDC|rsf:gd-|-stype:attr=1|qr_nm:gd|res:RC4|com-cf:nl|ptrs:na|ktp:N0|mc:179372|mtp:S|qry_typ:P|lang:en|wc:3|cs:8894|v=4,Ayavic Products Enterprises,https://www.indiamart.com/ayavic-products-enterprises/?pos=57&kwd=baby diaper pants&tags=A||||8752.144|Price|product|||MDC|rsf:gd-|-stype:attr=1|qr_nm:gd|res:RC4|com-cf:nl|ptrs:na|ktp:N0|mc:179372|mtp:S|qry_typ:P|lang:en|wc:3|cs:8894|v=4,False,(West),New Delhi,"Ground Floor,H No. 169, Shop No.2, Uttam Nagar, Vipin Garden Extension, (West), New Delhi - 110059, Dist.Delhi, Delhi",8044564544,
Printed Kids Large Diaper Pant,https://www.indiamart.com/proddetail/kids-large-diaper-pant-2854157264833.html?pos=58&kwd=baby diaper pants&tags=A||||8739.675|Price|product|||MDC|rsf:gd-|-stype:attr=1|qr_nm:gd|res:RC4|com-cf:nl|ptrs:na|ktp:N0|mc:179372|mtp:S|qry_typ:P|lang:en|wc:3|cs:8894|v=4,Sneh Industry,https://www.indiamart.com/snehindustry/?pos=58&kwd=baby diaper pants&tags=A||||8739.675|Price|product|||MDC|rsf:gd-|-stype:attr=1|qr_nm:gd|res:RC4|com-cf:nl|ptrs:na|ktp:N0|mc:179372|mtp:S|qry_typ:P|lang:en|wc:3|cs:8894|v=4,False,Sultanpur,Amravati,"Near Gram Panchayat, Sultanpur, Revsa, Sultanpur, Amravati - 444801, Dist.Amravati, Maharashtra",7942784375,
Nb Premium Baby Diapers,https://www.indiamart.com/proddetail/nb-premium-baby-diapers-2852704066030.html?pos=59&kwd=baby diaper pants&tags=A||||8601.347|Price|product|||MDC|rsf:gd-|-stype:attr=1|qr_nm:gd|res:RC4|com-cf:nl|ptrs:na|ktp:N0|mc:179372|mtp:S|qry_typ:P|lang:en|wc:3|cs:8894|v=4,Smilemax Hygiene Pvt. Ltd.,https://www.indiamart.com/smilemaxhygiene/?pos=59&kwd=baby diaper pants&tags=A||||8601.347|Price|product|||MDC|rsf:gd-|-stype:attr=1|qr_nm:gd|res:RC4|com-cf:nl|ptrs:na|ktp:N0|mc:179372|mtp:S|qry_typ:P|lang:en|wc:3|cs:8894|v=4,False,Ashok Nagar,Jaipur,"C-61A C-Scheme Sarojini Marg, Ashok Nagar, Jaipur - 302001, Dist.Jaipur, Rajasthan",7942711844,
Small Size Littles Angel Diaper Pants,https://www.indiamart.com/proddetail/small-size-littles-angel-diaper-pants-2854725869555.html?pos=60&kwd=baby diaper pants&tags=A||||8706.587|Price|product|||MDC|rsf:gd-|-stype:attr=1|qr_nm:gd|res:RC4|com-cf:nl|ptrs:na|ktp:N0|mc:179372|mtp:S|qry_typ:P|lang:en|wc:3|cs:8894|v=4,Biogen Healthcare,https://www.indiamart.com/biogen-healthcare-madurai/?pos=60&kwd=baby diaper pants&tags=A||||8706.587|Price|product|||MDC|rsf:gd-|-stype:attr=1|qr_nm:gd|res:RC4|com-cf:nl|ptrs:na|ktp:N0|mc:179372|mtp:S|qry_typ:P|lang:en|wc:3|cs:8894|v=4,False,,Madurai,"8/3, Madakkulam Main Road, Madakkulam,, Madurai - 625003, Dist.Madurai, Tamil Nadu",7949323451,
"7 SOFT BABY DIAPER PANTS -L (30 PCS.), Packaging Size: Large",https://www.indiamart.com/proddetail/7-soft-baby-diaper-pants-l-30-pcs-2852296948112.html?pos=61&kwd=baby diaper pants&tags=A||||8782.67|Price|product|||TS|rsf:gd-|-stype:attr=1|qr_nm:gd|res:RC4|com-cf:nl|ptrs:na|ktp:N0|mc:179372|mtp:S|qry_typ:P|lang:en|wc:3|cs:8894|v=4,Medisky Surgicals,https://www.indiamart.com/medisky-surgicals/?pos=61&kwd=baby diaper pants&tags=A||||8782.67|Price|product|||TS|rsf:gd-|-stype:attr=1|qr_nm:gd|res:RC4|com-cf:nl|ptrs:na|ktp:N0|mc:179372|mtp:S|qry_typ:P|lang:en|wc:3|cs:8894|v=4,False,Uchipuli,Ramanathapuram,"12/2865-30, Pattinamkathan, Madurai Rameshwaram Road, Achchundanvayal, Uchipuli, Ramanathapuram - 623502, Dist.Ramanathapuram, Tamil Nadu",7942960183,
"Cotton Softyhopps baby diaper 2 pieces size M, Small",https://www.indiamart.com/proddetail/softyhopps-baby-diaper-2-pieces-size-m-2854883410773.html?pos=62&kwd=baby diaper pants&tags=A||||9520.041||product|||MDC|rsf:gd-|-stype:attr=1|qr_nm:gd|res:RC4|com-cf:nl|ptrs:na|ktp:N0|mc:179372|mtp:S|qry_typ:P|lang:en|wc:3|cs:8894|v=4,Navadurga Enterprises,https://www.indiamart.com/navadurga-enterprises-bihar/?pos=62&kwd=baby diaper pants&tags=A||||9520.041||product|||MDC|rsf:gd-|-stype:attr=1|qr_nm:gd|res:RC4|com-cf:nl|ptrs:na|ktp:N0|mc:179372|mtp:S|qry_typ:P|lang:en|wc:3|cs:8894|v=4,False,Kumhrar,Patna,"2nd Floor, 2, C/O Pavitri Devi,2nd Floor,Behind Anupma Indane,Road No-2, Bhagwat Nagar Main Road, Kumhrar, Patna - 800026, Dist.Patna, Bihar",7949221509,
"Upto 12 Hours Printed Hamazz Baby Premium Diaper Pants, Packaging Size: 50 Pcs",https://www.indiamart.com/proddetail/hamazz-baby-premium-diaper-pants-27301213497.html?pos=63&kwd=baby diaper pants&tags=A||||8211.142|Price|product|||TS|rsf:gd-|-stype:attr=1|qr_nm:gd|res:RC4|com-cf:nl|ptrs:na|ktp:N0|mc:179372|mtp:S|qry_typ:P|lang:en|wc:3|cs:8894|v=4,Hamazz Wellness Company,https://www.hamazzhealthcare.in/?pos=63&kwd=baby diaper pants&tags=A||||8211.142|Price|product|||TS|rsf:gd-|-stype:attr=1|qr_nm:gd|res:RC4|com-cf:nl|ptrs:na|ktp:N0|mc:179372|mtp:S|qry_typ:P|lang:en|wc:3|cs:8894|v=4,False,Malad West,Mumbai,"D/14, 2nd Floor, Mashayakh CHS LTD Chincholi Bunder Road, Malad West, Mumbai - 400064, Dist.Mumbai, Maharashtra",8047655127,
"Carefor Use And Throw Baby Dry Diaper Pant, Size: Medium, Packaging Size: 20",https://www.indiamart.com/proddetail/baby-dry-diaper-pant-14454839888.html?pos=64&kwd=baby diaper pants&tags=A||||8500.97|Price|product|||TS|rsf:gd-|-stype:attr=1|qr_nm:gd|res:RC4|com-cf:nl|ptrs:na|ktp:N0|mc:179372|mtp:S|qry_typ:P|lang:en|wc:3|cs:8894|v=4,Arambans Exporters Private Limited,https://www.indiamart.com/arambansexporters/?pos=64&kwd=baby diaper pants&tags=A||||8500.97|Price|product|||TS|rsf:gd-|-stype:attr=1|qr_nm:gd|res:RC4|com-cf:nl|ptrs:na|ktp:N0|mc:179372|mtp:S|qry_typ:P|lang:en|wc:3|cs:8894|v=4,False,Kuriachira,Thrissur,"Attokaran, TT Road, Kuriachira PO, Kuriachira, Thrissur - 680006, Dist.Thrissur, Kerala",8046058355,
"Printed Baby Diaper Pants Loose NB, Packaging Size: 50 Pieces",https://www.indiamart.com/proddetail/baby-diaper-pants-loose-nb-2851285778130.html?pos=65&kwd=baby diaper pants&tags=A||||8830.079|Price|product|||MDC|rsf:gd-|-stype:attr=1|qr_nm:gd|res:RC4|com-cf:nl|ptrs:na|ktp:N0|mc:179372|mtp:S|qry_typ:P|lang:en|wc:3|cs:8894|v=4,Thara Traders Propx. Thara Senthilkumar,https://www.indiamart.com/thara-traders/?pos=65&kwd=baby diaper pants&tags=A||||8830.079|Price|product|||MDC|rsf:gd-|-stype:attr=1|qr_nm:gd|res:RC4|com-cf:nl|ptrs:na|ktp:N0|mc:179372|mtp:S|qry_typ:P|lang:en|wc:3|cs:8894|v=4,False,Sathuvachari,Vellore,"546/2 Nethajibose Main Road, Tnhb, Phase 3, Vallalar A.r.complex,1st Floor, Nethaji Bose Main Road, Sathuvachari, Vellore - 632009, Dist.Vellore, Tamil Nadu",8048605071,
Pant Style Pull Ups Smartcare Adult Diapers Extra Large 9 Pcs Pack,https://www.indiamart.com/proddetail/smartcare-adult-diapers-extra-large-9-pcs-pack-26059270833.html?pos=66&kwd=baby diaper pants&tags=A||||8559.269|Price|product|||TS|rsf:gd-|-stype:attr=1|qr_nm:gd|res:RC4|com-cf:nl|ptrs:na|ktp:N0|mc:179372|mtp:S|qry_typ:P|lang:en|wc:3|cs:8894|v=4,Saify Traders,https://www.saifygroup.com/?pos=66&kwd=baby diaper pants&tags=A||||8559.269|Price|product|||TS|rsf:gd-|-stype:attr=1|qr_nm:gd|res:RC4|com-cf:nl|ptrs:na|ktp:N0|mc:179372|mtp:S|qry_typ:P|lang:en|wc:3|cs:8894|v=4,False,Gadi Adda,Indore,"14/1 - Gali No.1 Dawa Bazaar R.N.T Marg, Gadi Adda, Indore - 452001, Dist.Indore, Madhya Pradesh",8048967969,
"Printed Disposable Baby Diapers, Size: Small",https://www.indiamart.com/proddetail/disposable-baby-diapers-2849423896991.html?pos=67&kwd=baby diaper pants&tags=A||||8601.347|Price|product|||TS|rsf:gd-|-stype:attr=1|qr_nm:gd|res:RC4|com-cf:nl|ptrs:na|ktp:N0|mc:179372|mtp:S|qry_typ:P|lang:en|wc:3|cs:8894|v=4,Jayom Choice Industries,https://www.jayomchoice.com/?pos=67&kwd=baby diaper pants&tags=A||||8601.347|Price|product|||TS|rsf:gd-|-stype:attr=1|qr_nm:gd|res:RC4|com-cf:nl|ptrs:na|ktp:N0|mc:179372|mtp:S|qry_typ:P|lang:en|wc:3|cs:8894|v=4,False,Sukhdeopura Nohara,Jaipur,"EF-152 Gulmohar Garden Phase-III Vatika Road, Manpur Bhatawala, Sukhdeopura Nohara, Jaipur - 303905, Dist.Jaipur, Rajasthan",8048975546,
"Plain Niine Baby Diaper Pants, Large",https://www.indiamart.com/proddetail/niine-baby-diaper-pants-2854991558397.html?pos=68&kwd=baby diaper pants&tags=A||||9349.906|Price|product|||MDC|rsf:gd-|-stype:attr=1|qr_nm:gd|res:RC4|com-cf:nl|ptrs:na|ktp:N0|mc:179372|mtp:S|qry_typ:P|lang:en|wc:3|cs:8894|v=4,Niine Private Limited,https://www.indiamart.com/niine-gorakhpur/?pos=68&kwd=baby diaper pants&tags=A||||9349.906|Price|product|||MDC|rsf:gd-|-stype:attr=1|qr_nm:gd|res:RC4|com-cf:nl|ptrs:na|ktp:N0|mc:179372|mtp:S|qry_typ:P|lang:en|wc:3|cs:8894|v=4,False,,Gorakhpur,"403, Gallant Landmark, Vijay Chowk, Bank Road, Gorakhpur - 273001, Dist.Gorakhpur, Uttar Pradesh",8048954953,
"Printed Baby Diaper Pants pkt, Packaging Size: Medium",https://www.indiamart.com/proddetail/baby-diaper-pants-pkt-2853268985130.html?pos=69&kwd=baby diaper pants&tags=A||||8559.269|Price|product|||MDC|rsf:gd-|-stype:attr=1|qr_nm:gd|res:RC4|com-cf:nl|ptrs:na|ktp:N0|mc:179372|mtp:S|qry_typ:P|lang:en|wc:3|cs:8894|v=4,Macsona Industries,https://www.indiamart.com/macsonaindustries/?pos=69&kwd=baby diaper pants&tags=A||||8559.269|Price|product|||MDC|rsf:gd-|-stype:attr=1|qr_nm:gd|res:RC4|com-cf:nl|ptrs:na|ktp:N0|mc:179372|mtp:S|qry_typ:P|lang:en|wc:3|cs:8894|v=4,False,Bhagyashree Colony,Indore,"Scheme No 53, 36 Scheme N 53, Medanta Hospital, Bhagyashree Colony, Indore - 452010, Dist.Indore, Madhya Pradesh",7942825123,
Pull Up Diaper,https://www.indiamart.com/proddetail/pull-up-diaper-2851486191655.html?pos=70&kwd=baby diaper pants&tags=A||||8786.56|Price|product|||TS|rsf:gd-|-stype:attr=1|qr_nm:gd|res:RC4|com-cf:nl|ptrs:na|ktp:N0|mc:179372|mtp:S|qry_typ:P|lang:en|wc:3|cs:8894|v=4,Prakar Enterprises,https://www.prakarenterprises.com/?pos=70&kwd=baby diaper pants&tags=A||||8786.56|Price|product|||TS|rsf:gd-|-stype:attr=1|qr_nm:gd|res:RC4|com-cf:nl|ptrs:na|ktp:N0|mc:179372|mtp:S|qry_typ:P|lang:en|wc:3|cs:8894|v=4,False,Kothapet,Hyderabad,"13-1-2, Road no.1, Prabhath Nagar, Chaitanyapuri, Kothapet, Hyderabad - 500060, Dist.Hyderabad, Telangana",7942552841,
Cotton Plain Newly Born Baby 46 Diaper Pants Nappy,https://www.indiamart.com/proddetail/newly-born-baby-46-diaper-pants-nappy-2854033008288.html?pos=71&kwd=baby diaper pants&tags=A||||9110.092|Price|product|||MDC|rsf:gd-|-stype:attr=1|qr_nm:gd|res:RC4|com-cf:nl|ptrs:na|ktp:N0|mc:179372|mtp:S|qry_typ:P|lang:en|wc:3|cs:8894|v=4,Beyond Basics,https://www.indiamart.com/beyondbasics/?pos=71&kwd=baby diaper pants&tags=A||||9110.092|Price|product|||MDC|rsf:gd-|-stype:attr=1|qr_nm:gd|res:RC4|com-cf:nl|ptrs:na|ktp:N0|mc:179372|mtp:S|qry_typ:P|lang:en|wc:3|cs:8894|v=4,False,Husainabad,Lucknow,"458/127 Shivpuri, Murg Khana Husainabad, Husainabad, Lucknow - 226003, Dist.Lucknow, Uttar Pradesh",8044562757,
Poopy Small Baby Dry Diaper Pants 5 pcs,https://www.indiamart.com/proddetail/poopy-small-baby-dry-diaper-pants-5-pcs-2850795198655.html?pos=72&kwd=baby diaper pants&tags=A||||8830.388|Price|product|||MDC|rsf:gd-|-stype:attr=1|qr_nm:gd|res:RC4|com-cf:nl|ptrs:na|ktp:N0|mc:179372|mtp:S|qry_typ:P|lang:en|wc:3|cs:8894|v=4,Doubtfree Hygiene Care,https://www.indiamart.com/doubtfree-hygiene-care/?pos=72&kwd=baby diaper pants&tags=A||||8830.388|Price|product|||MDC|rsf:gd-|-stype:attr=1|qr_nm:gd|res:RC4|com-cf:nl|ptrs:na|ktp:N0|mc:179372|mtp:S|qry_typ:P|lang:en|wc:3|cs:8894|v=4,False,Purani Chhawani,Gwalior,"Plot No. 49/50, Block-3,Phase-1,Tiwari Farm House, Purani Chhawani, Gwalior - 474010, Dist.Gwalior, Madhya Pradesh",8047522800,
"Plain Teddy Baby Diapers Pants, Medium",https://www.indiamart.com/proddetail/teddy-baby-diapers-pants-2854791280955.html?pos=73&kwd=baby diaper pants&tags=A||||8668.838|Price|product|||MDC|rsf:gd-|-stype:attr=1|qr_nm:gd|res:RC4|com-cf:nl|ptrs:na|ktp:N0|mc:179372|mtp:S|qry_typ:P|lang:en|wc:3|cs:8894|v=4,Easwari Surgical,https://www.indiamart.com/easwari-surgical/?pos=73&kwd=baby diaper pants&tags=A||||8668.838|Price|product|||MDC|rsf:gd-|-stype:attr=1|qr_nm:gd|res:RC4|com-cf:nl|ptrs:na|ktp:N0|mc:179372|mtp:S|qry_typ:P|lang:en|wc:3|cs:8894|v=4,False,,Erode,"266/1, Pongiammal Building, E V N Road, Erode - 638009, Dist.Erode, Tamil Nadu",8044460703,
Nonwoven Baby Diaper Pants,https://www.indiamart.com/proddetail/baby-diaper-pants-2852729199248.html?pos=74&kwd=baby diaper pants&tags=A||||8228.275|Price|product|||TS|rsf:gd-|-stype:attr=1|qr_nm:gd|res:RC4|com-cf:nl|ptrs:na|ktp:N0|mc:179372|mtp:S|qry_typ:P|lang:en|wc:3|cs:8894|v=4,Akshaya Enterprise,https://www.indiamart.com/akshayaenterpriseahmedabad/?pos=74&kwd=baby diaper pants&tags=A||||8228.275|Price|product|||TS|rsf:gd-|-stype:attr=1|qr_nm:gd|res:RC4|com-cf:nl|ptrs:na|ktp:N0|mc:179372|mtp:S|qry_typ:P|lang:en|wc:3|cs:8894|v=4,False,Dudheshwar,Ahmedabad,"C-103, First Floor, Shri Hari Residency, Near Sakar School, New C.G. Road, Chandkheda, Dudheshwar, Ahmedabad - 382424, Dist.Ahmedabad, Gujarat",8048983196,
"Plain Baby Diaper Pants, Packaging Size: Small",https://www.indiamart.com/proddetail/baby-diaper-pants-2850627982230.html?pos=75&kwd=baby diaper pants&tags=A||||8723.301|Price|product|||MDC|rsf:gd-|-stype:attr=1|qr_nm:gd|res:RC4|com-cf:nl|ptrs:na|ktp:N0|mc:179372|mtp:S|qry_typ:P|lang:en|wc:3|cs:8894|v=4,SRV Group,https://www.indiamart.com/srv-group-bhopal/?pos=75&kwd=baby diaper pants&tags=A||||8723.301|Price|product|||MDC|rsf:gd-|-stype:attr=1|qr_nm:gd|res:RC4|com-cf:nl|ptrs:na|ktp:N0|mc:179372|mtp:S|qry_typ:P|lang:en|wc:3|cs:8894|v=4,False,Kolar Road,Bhopal,"Dk-2/243, Danish Kunj, Kolar Road,, Kolar Road, Bhopal - 462042, Dist.Bhopal, Madhya Pradesh",7942559830,
"Printed Baby Pant Diapers, Large",https://www.indiamart.com/proddetail/baby-pant-diapers-2854520696912.html?pos=76&kwd=baby diaper pants&tags=A||||8785.791|Price|product|||MDC|rsf:gd-|-stype:attr=1|qr_nm:gd|res:RC4|com-cf:nl|ptrs:na|ktp:N0|mc:179372|mtp:S|qry_typ:P|lang:en|wc:3|cs:8894|v=4,Rajput Enterprises,https://www.indiamart.com/rajputenterprises-uttarpradesh/?pos=76&kwd=baby diaper pants&tags=A||||8785.791|Price|product|||MDC|rsf:gd-|-stype:attr=1|qr_nm:gd|res:RC4|com-cf:nl|ptrs:na|ktp:N0|mc:179372|mtp:S|qry_typ:P|lang:en|wc:3|cs:8894|v=4,False,Vaishali,Ghaziabad,"5/598, Vaishali, Ghaziabad, Vaishali, Ghaziabad - 201019, Dist.Ghaziabad, Uttar Pradesh",7942800806,
Printed Loose Baby Diaper Pant Style Medium Size,https://www.indiamart.com/proddetail/loose-baby-diaper-pant-style-medium-size-2853001905791.html?pos=77&kwd=baby diaper pants&tags=A||||8752.144|Price|product|||TS|rsf:gd-|-stype:attr=1|qr_nm:gd|res:RC4|com-cf:nl|ptrs:na|ktp:N0|mc:179372|mtp:S|qry_typ:P|lang:en|wc:3|cs:8894|v=4,Creatwings Care Products LLP,https://www.indiamart.com/creatwingscare-products/?pos=77&kwd=baby diaper pants&tags=A||||8752.144|Price|product|||TS|rsf:gd-|-stype:attr=1|qr_nm:gd|res:RC4|com-cf:nl|ptrs:na|ktp:N0|mc:179372|mtp:S|qry_typ:P|lang:en|wc:3|cs:8894|v=4,False,Rohini Sector 15,New Delhi,"Flat No 122, Ground Floor, Bl K-F LIG Flats, Landmark Near Dr Lal Path Lab, Sec 18 Rohini, Rohini Sector 15, New Delhi - 110089, Dist.Delhi, Delhi",8043853586,
Plain Mommy Care Baby Diaper Large 10 Pants,https://www.indiamart.com/proddetail/mommy-care-baby-diaper-large-10-pants-2851655570212.html?pos=78&kwd=baby diaper pants&tags=A||||8228.275|Price|product|||TS|rsf:gd-|-stype:attr=1|qr_nm:gd|res:RC4|com-cf:nl|ptrs:na|ktp:N0|mc:179372|mtp:S|qry_typ:P|lang:en|wc:3|cs:8894|v=4,Four40 Healthcare Private Limited,https://www.indiamart.com/four40-healthcare/?pos=78&kwd=baby diaper pants&tags=A||||8228.275|Price|product|||TS|rsf:gd-|-stype:attr=1|qr_nm:gd|res:RC4|com-cf:nl|ptrs:na|ktp:N0|mc:179372|mtp:S|qry_typ:P|lang:en|wc:3|cs:8894|v=4,False,Siddhapur,Ahmedabad,"401, Ashmaan Complex B/h Ganesh Plaza,, Siddhapur, Ahmedabad - 380013, Dist.Ahmedabad, Gujarat",7942843388,
"Pant Type C Grade Baby Diapers Pants, Packaging Size: Bag",https://www.indiamart.com/proddetail/c-grade-baby-diapers-pants-2850338705948.html?pos=79&kwd=baby diaper pants&tags=A||||8752.144|Price|product|||SSnp|rsf:gd-|-stype:attr=1|qr_nm:gd|res:RC4|com-cf:nl|ptrs:na|ktp:N0|mc:179372|mtp:S|qry_typ:P|lang:en|wc:3|cs:8894|v=4,Menka Enterprises,https://www.indiamart.com/menka-enterprises/?pos=79&kwd=baby diaper pants&tags=A||||8752.144|Price|product|||SSnp|rsf:gd-|-stype:attr=1|qr_nm:gd|res:RC4|com-cf:nl|ptrs:na|ktp:N0|mc:179372|mtp:S|qry_typ:P|lang:en|wc:3|cs:8894|v=4,False,Bawana,New Delhi,"N-275, Sector 1, Bawana Industrial Area, Bawana, New Delhi - 110039, Dist.Delhi, Delhi",8047644299,
Pant Style Disposable Diaper,https://www.indiamart.com/proddetail/pant-style-disposable-diaper-17054896273.html?pos=80&kwd=baby diaper pants&tags=A||||8503.868|Price|product|||TS|rsf:gd-|-stype:attr=1|qr_nm:gd|res:RC4|com-cf:nl|ptrs:na|ktp:N0|mc:179372|mtp:S|qry_typ:P|lang:en|wc:3|cs:8894|v=4,Adithya Drug Lines,https://www.indiamart.com/adithya-druglines/?pos=80&kwd=baby diaper pants&tags=A||||8503.868|Price|product|||TS|rsf:gd-|-stype:attr=1|qr_nm:gd|res:RC4|com-cf:nl|ptrs:na|ktp:N0|mc:179372|mtp:S|qry_typ:P|lang:en|wc:3|cs:8894|v=4,False,Palarivattom,Kochi,"46/2466A, Pulavathil Building, Puthiya Road, Vennala P. O., Palarivattom, Kochi - 682028, Dist.Ernakulam, Kerala",8046065842,
B Fit Adult Pants,,S.T.S. Traders,https://www.indiamart.com/sts-traders-kolkata/?pos=81&kwd=baby diaper pants&tags=A||||9839.57|Price|product|||TS|rsf:gd-|-stype:attr=1|qr_nm:gd|res:RC4|com-cf:nl|ptrs:na|ktp:N0|mc:179372|mtp:S|qry_typ:P|lang:en|wc:3|cs:8894|v=4,False,Gobra,Kolkata,"101- B Chittranjan Avenue 2nd Floor Flat No.3, Gobra, Kolkata - 700073, Dist.Kolkata, West Bengal",8048962268,
BABA'S NAPPY BABY PANT DIAPERS,https://www.indiamart.com/proddetail/baba-s-nappy-baby-pant-diapers-2854137402055.html?pos=82&kwd=baby diaper pants&tags=A||||9110.092|Price|product|||TS|rsf:gd-|-stype:attr=1|qr_nm:gd|res:RC4|com-cf:nl|ptrs:na|ktp:N0|mc:179372|mtp:S|qry_typ:P|lang:en|wc:3|cs:8894|v=4,Sunshine Health Care India,https://www.indiamart.com/sunshinehealthcareindia/?pos=82&kwd=baby diaper pants&tags=A||||9110.092|Price|product|||TS|rsf:gd-|-stype:attr=1|qr_nm:gd|res:RC4|com-cf:nl|ptrs:na|ktp:N0|mc:179372|mtp:S|qry_typ:P|lang:en|wc:3|cs:8894|v=4,False,Chinhat,Lucknow,"302, Shakti Heights Face-2, Malhaur Road, Chinhat, Chinhat, Lucknow - 226028, Dist.Lucknow, Uttar Pradesh",8046068776,
White Cotton Large Baby Diaper Pant,https://www.indiamart.com/proddetail/large-baby-diaper-pant-2852755299048.html?pos=83&kwd=baby diaper pants&tags=A||||8230.883|Price|product|||MDC|rsf:gd-|-stype:attr=1|qr_nm:gd|res:RC4|com-cf:nl|ptrs:na|ktp:N0|mc:179372|mtp:S|qry_typ:P|lang:en|wc:3|cs:8894|v=4,V R Barot,https://www.indiamart.com/v-r-barot/?pos=83&kwd=baby diaper pants&tags=A||||8230.883|Price|product|||MDC|rsf:gd-|-stype:attr=1|qr_nm:gd|res:RC4|com-cf:nl|ptrs:na|ktp:N0|mc:179372|mtp:S|qry_typ:P|lang:en|wc:3|cs:8894|v=4,False,Bhagvati Nagar Housing Society,Surat,"B-19, Bhagavati Nagar Soc, Jahangirpura, Bhagvati Nagar Housing Society, Surat - 395005, Dist.Surat, Gujarat",7942968850,
"Baby Diaper Pants, Small",https://www.indiamart.com/proddetail/baby-diaper-pants-2850314321488.html?pos=84&kwd=baby diaper pants&tags=A||||8823.154|Price|product|||TS|rsf:gd-|-stype:attr=1|qr_nm:gd|res:RC4|com-cf:nl|ptrs:na|ktp:N0|mc:179372|mtp:S|qry_typ:P|lang:en|wc:3|cs:8894|v=4,Sahaj Enterprises,https://www.compulsory.co.in/?pos=84&kwd=baby diaper pants&tags=A||||8823.154|Price|product|||TS|rsf:gd-|-stype:attr=1|qr_nm:gd|res:RC4|com-cf:nl|ptrs:na|ktp:N0|mc:179372|mtp:S|qry_typ:P|lang:en|wc:3|cs:8894|v=4,False,Sikandra,Agra,"13/18-A, Avas Vikas Colony, Sikandra, Sikandra, Agra - 282007, Dist.Agra, Uttar Pradesh",8047639490,
Diaper Pants,,Yogesari Enterprises,https://www.indiamart.com/yogesari-enterprises/?pos=85&kwd=baby diaper pants&tags=A||||8559.269|Price|product|||TS|rsf:gd-|-stype:attr=1|qr_nm:gd|res:RC4|com-cf:nl|ptrs:na|ktp:N0|mc:179372|mtp:S|qry_typ:P|lang:en|wc:3|cs:8894|v=4,False,Bhagirathpura,Indore,"1122/3, Bhagirath Pura, Bhagirathpura, Indore - 452003, Dist.Indore, Madhya Pradesh",7942786651,
"Printed Pant Baby Diapers, Packaging Size: 40",https://www.indiamart.com/proddetail/pant-baby-diapers-24817755473.html?pos=86&kwd=baby diaper pants&tags=A||||8786.56|Price|product|||TS|rsf:gd-|-stype:attr=1|qr_nm:gd|res:RC4|com-cf:nl|ptrs:na|ktp:N0|mc:179372|mtp:S|qry_typ:P|lang:en|wc:3|cs:8894|v=4,Addalyn Impex Private Limited,https://www.indiamart.com/addalyn-impex/?pos=86&kwd=baby diaper pants&tags=A||||8786.56|Price|product|||TS|rsf:gd-|-stype:attr=1|qr_nm:gd|res:RC4|com-cf:nl|ptrs:na|ktp:N0|mc:179372|mtp:S|qry_typ:P|lang:en|wc:3|cs:8894|v=4,False,BARKATPURA,Hyderabad,"3-4-841, Flat No.301, 4th Floor Castle Homes Apts, Barkatpura, BARKATPURA, Hyderabad - 500027, Dist.Hyderabad, Telangana",7942545062,
Disposable Tummy time baby pant & dipaer,https://www.indiamart.com/proddetail/tummy-time-baby-pant-dipaer-26251587188.html?pos=87&kwd=baby diaper pants&tags=A||||8752.144|Price|product|||MDC|rsf:gd-|-stype:attr=1|qr_nm:gd|res:RC4|com-cf:nl|ptrs:na|ktp:N0|mc:179372|mtp:S|qry_typ:P|lang:en|wc:3|cs:8894|v=4,Balaji Entreprise,https://www.indiamart.com/balaji-entreprise/?pos=87&kwd=baby diaper pants&tags=A||||8752.144|Price|product|||MDC|rsf:gd-|-stype:attr=1|qr_nm:gd|res:RC4|com-cf:nl|ptrs:na|ktp:N0|mc:179372|mtp:S|qry_typ:P|lang:en|wc:3|cs:8894|v=4,False,Budh Vihar,New Delhi,"A-1/29, Budh Vihar, Phase 2, Rohini, Budh Vihar, New Delhi - 110086, Dist.Delhi, Delhi",8048974223,
Cotton Baby Diaper Pant,https://www.indiamart.com/proddetail/baby-diaper-pant-21962596648.html?pos=88&kwd=baby diaper pants&tags=A||||8584.299|Price|product|||TS|rsf:gd-|-stype:attr=1|qr_nm:gd|res:RC4|com-cf:nl|ptrs:na|ktp:N0|mc:179372|mtp:S|qry_typ:P|lang:en|wc:3|cs:8894|v=4,Kalam Enterprises,https://www.kalament.co.in/?pos=88&kwd=baby diaper pants&tags=A||||8584.299|Price|product|||TS|rsf:gd-|-stype:attr=1|qr_nm:gd|res:RC4|com-cf:nl|ptrs:na|ktp:N0|mc:179372|mtp:S|qry_typ:P|lang:en|wc:3|cs:8894|v=4,False,Siddhapudur,Coimbatore,"No. 262 A, Ground Floor, New Siddhapudur, Siddhapudur, Coimbatore - 641044, Dist.Coimbatore, Tamil Nadu",8048981845,
"Baby Diaper Pants, Size: Medium",https://www.indiamart.com/proddetail/baby-diaper-pants-24809199088.html?pos=89&kwd=baby diaper pants&tags=A||||8954.051|Price|product|||TS|rsf:gd-|-stype:attr=1|qr_nm:gd|res:RC4|com-cf:nl|ptrs:na|ktp:N0|mc:179372|mtp:S|qry_typ:P|lang:en|wc:3|cs:8894|v=4,The Exultant Enterprises,https://www.theexultantenterprises.com/?pos=89&kwd=baby diaper pants&tags=A||||8954.051|Price|product|||TS|rsf:gd-|-stype:attr=1|qr_nm:gd|res:RC4|com-cf:nl|ptrs:na|ktp:N0|mc:179372|mtp:S|qry_typ:P|lang:en|wc:3|cs:8894|v=4,False,Velacheri,Chennai,"Building No. 13, New Secreterary Colony 6th Street,, Velacheri, Chennai - 600042, Dist.Chennai, Tamil Nadu",8048960064,
"Disposable Medium Baby Diapers Pants, Age Group: 1-2 Years",https://www.indiamart.com/proddetail/disposable-medium-baby-diapers-pants-2852830612848.html?pos=90&kwd=baby diaper pants&tags=A||||8752.144|Price|product|||TS|rsf:gd-|-stype:attr=1|qr_nm:gd|res:RC4|com-cf:nl|ptrs:na|ktp:N0|mc:179372|mtp:S|qry_typ:P|lang:en|wc:3|cs:8894|v=4,Quality Healthcare Industries,https://www.indiamart.com/qualityhealthcareindustries/?pos=90&kwd=baby diaper pants&tags=A||||8752.144|Price|product|||TS|rsf:gd-|-stype:attr=1|qr_nm:gd|res:RC4|com-cf:nl|ptrs:na|ktp:N0|mc:179372|mtp:S|qry_typ:P|lang:en|wc:3|cs:8894|v=4,False,Mundka,New Delhi,"G/F Plot At KH No. 370,Pole No. MDKK314,Guga Park Situated In The Revenue Estate Of Villa , Mundka, Mundka, New Delhi - 110041, Dist.Delhi, Delhi",7942716926,
"Printed Bebe Baby Pants Diapers, XXL",https://www.indiamart.com/proddetail/bebe-baby-pants-diapers-2854416704530.html?pos=91&kwd=baby diaper pants&tags=A||||8706.587|Price|product|||TS|rsf:gd-|-stype:attr=1|qr_nm:gd|res:RC4|com-cf:nl|ptrs:na|ktp:N0|mc:179372|mtp:S|qry_typ:P|lang:en|wc:3|cs:8894|v=4,Aruna Agencies,https://www.arunaagencies.in/?pos=91&kwd=baby diaper pants&tags=A||||8706.587|Price|product|||TS|rsf:gd-|-stype:attr=1|qr_nm:gd|res:RC4|com-cf:nl|ptrs:na|ktp:N0|mc:179372|mtp:S|qry_typ:P|lang:en|wc:3|cs:8894|v=4,False,Simmakkal,Madurai,"Pooja Complex, No. 23, North Veli Street Ground Floor, Simmakkal, Simmakkal, Madurai - 625001, Dist.Madurai, Tamil Nadu",8048609760,
Baby-Cloth-Diaper-Pants-Adjustable-Reusable-Washable-Printed-Original-Imag5H88pugpc3mu (1),https://www.indiamart.com/proddetail/baby-cloth-diaper-pants-adjustable-reusable-washable-printed-original-imag5h88pugpc3mu-1-24194793588.html?pos=92&kwd=baby diaper pants&tags=A||||8752.144|Price|product|||TS|rsf:gd-|-stype:attr=1|qr_nm:gd|res:RC4|com-cf:nl|ptrs:na|ktp:N0|mc:179372|mtp:S|qry_typ:P|lang:en|wc:3|cs:8894|v=4,Chinmay Kids,https://www.indiamart.com/chinmaykids/?pos=92&kwd=baby diaper pants&tags=A||||8752.144|Price|product|||TS|rsf:gd-|-stype:attr=1|qr_nm:gd|res:RC4|com-cf:nl|ptrs:na|ktp:N0|mc:179372|mtp:S|qry_typ:P|lang:en|wc:3|cs:8894|v=4,False,Nayagaon,New Delhi,"C-99, Street No. 4, First Pusta, Nayagaon, New Delhi - 110053, Dist.Delhi, Delhi",8046054858,
Snuggy- Diaper-Pants.v1,https://www.indiamart.com/proddetail/snuggy-diaper-pants-v1-2850391414673.html?pos=93&kwd=baby diaper pants&tags=A||||8211.142||product|||TS|rsf:gd-|-stype:attr=1|qr_nm:gd|res:RC4|com-cf:nl|ptrs:na|ktp:N0|mc:179372|mtp:S|qry_typ:P|lang:en|wc:3|cs:8894|v=4,Shree Surgicals,https://www.indiamart.com/shreesurgicalsmumbai/?pos=93&kwd=baby diaper pants&tags=A||||8211.142||product|||TS|rsf:gd-|-stype:attr=1|qr_nm:gd|res:RC4|com-cf:nl|ptrs:na|ktp:N0|mc:179372|mtp:S|qry_typ:P|lang:en|wc:3|cs:8894|v=4,False,Parel,Mumbai,"Shop No. 8,Atit Shopping Enterprise Pvt Ltd,J P Road,Mumbai, Parel, Mumbai - 400053, Dist.Mumbai, Maharashtra",7942817071,
Printed AVM SUPER DRY PANT DIAPER,https://www.indiamart.com/proddetail/avm-super-dry-pant-diaper-2853234500412.html?pos=94&kwd=baby diaper pants&tags=A||||8954.051|Price|product|||TS|rsf:gd-|-stype:attr=1|qr_nm:gd|res:RC4|com-cf:nl|ptrs:na|ktp:N0|mc:179372|mtp:S|qry_typ:P|lang:en|wc:3|cs:8894|v=4,Murugan Surgicals,https://www.murugansurgicals.co.in/?pos=94&kwd=baby diaper pants&tags=A||||8954.051|Price|product|||TS|rsf:gd-|-stype:attr=1|qr_nm:gd|res:RC4|com-cf:nl|ptrs:na|ktp:N0|mc:179372|mtp:S|qry_typ:P|lang:en|wc:3|cs:8894|v=4,False,Mint Building,Chennai,"Old No.34/35 Newno.87, Walltax Road, Mint Building, Chennai - 600001, Dist.Chennai, Tamil Nadu",8048974268,
"Panties Printed LADIES PANTY DIKSHA, High",https://www.indiamart.com/proddetail/ladies-panty-diksha-22631473191.html?pos=95&kwd=baby diaper pants&tags=A||||8231.259|Price|product|||TS|rsf:gd-|-stype:attr=1|qr_nm:gd|res:RC4|com-cf:nl|ptrs:na|ktp:N0|mc:179372|mtp:S|qry_typ:P|lang:en|wc:3|cs:8894|v=4,Red Rose ( A Brand Of Sagar Products),https://www.indiamart.com/redrose-mumbai/?pos=95&kwd=baby diaper pants&tags=A||||8231.259|Price|product|||TS|rsf:gd-|-stype:attr=1|qr_nm:gd|res:RC4|com-cf:nl|ptrs:na|ktp:N0|mc:179372|mtp:S|qry_typ:P|lang:en|wc:3|cs:8894|v=4,False,Saravali,Bhiwandi,"C6, Asmeeta Textile Park Additional Kalyan Bhiwandi Highway, Saravali, Bhiwandi - 421311, Maharashtra",8048603606,
"Disposable Baby Diapers, Age Group: Newly Born, Size: Medium",https://www.indiamart.com/proddetail/disposable-baby-diapers-pants-2854885808655.html?pos=96&kwd=baby diaper pants&tags=A||||8038.093|Price|product|||MDC|rsf:gd-|-stype:attr=1|qr_nm:gd|res:RC4|com-cf:nl|ptrs:na|ktp:N0|mc:179372|mtp:S|qry_typ:P|lang:en|wc:3|cs:8894|v=4,Kinshav Hub,https://www.indiamart.com/kinshavhub/?pos=96&kwd=baby diaper pants&tags=A||||8038.093|Price|product|||MDC|rsf:gd-|-stype:attr=1|qr_nm:gd|res:RC4|com-cf:nl|ptrs:na|ktp:N0|mc:179372|mtp:S|qry_typ:P|lang:en|wc:3|cs:8894|v=4,False,,Rajkot,"Flat No. 301, Ankita Apartment, Bhakti Nagar Station Plot, Godown Road, Jay Oil Centre, Manohar Plot, Rajkot - 360002, Dist.Rajkot, Gujarat",8041015587,
Baby Diaper Pants,https://www.indiamart.com/proddetail/baby-diaper-pants-2854385446262.html?pos=97&kwd=baby diaper pants&tags=A||||8038.093|Price|product|||MDC|rsf:gd-|-stype:attr=1|qr_nm:gd|res:RC4|com-cf:nl|ptrs:na|ktp:N0|mc:179372|mtp:S|qry_typ:P|lang:en|wc:3|cs:8894|v=4,Aeroshine International,https://www.indiamart.com/aeroshineinternational/?pos=97&kwd=baby diaper pants&tags=A||||8038.093|Price|product|||MDC|rsf:gd-|-stype:attr=1|qr_nm:gd|res:RC4|com-cf:nl|ptrs:na|ktp:N0|mc:179372|mtp:S|qry_typ:P|lang:en|wc:3|cs:8894|v=4,False,Champak Nagar,Rajkot,"Street No 8, Plot No 101-B, Brahmaniya Para, Sant Kabir Road, Govindbaug Opp. Vimal, R.S. No 185, Champak Nagar, Rajkot - 360003, Dist.Rajkot, Gujarat",7942714315,
"Baby Diaper Pants, Large",https://www.indiamart.com/proddetail/baby-diaper-pants-2854912134062.html?pos=98&kwd=baby diaper pants&tags=A||||8817.752||product|||MDC|rsf:gd-|-stype:attr=1|qr_nm:gd|res:RC4|com-cf:nl|ptrs:na|ktp:N0|mc:179372|mtp:S|qry_typ:P|lang:en|wc:3|cs:8894|v=4,Bhagwati Collection,https://www.indiamart.com/bhagwati-collection-hapur/?pos=98&kwd=baby diaper pants&tags=A||||8817.752||product|||MDC|rsf:gd-|-stype:attr=1|qr_nm:gd|res:RC4|com-cf:nl|ptrs:na|ktp:N0|mc:179372|mtp:S|qry_typ:P|lang:en|wc:3|cs:8894|v=4,False,,Hapur,"Mukesh Garg, Krishna Gali, Khurja Pech Doymi Opp Ram Tent House, Hapur - 245101, Dist.Hapur, Uttar Pradesh",8041015469,
Baby Pant Diapers,https://www.indiamart.com/proddetail/baby-pant-diapers-2849772438997.html?pos=99&kwd=baby diaper pants&tags=A||||8211.142|Price|product|||MDC|rsf:gd-|-stype:attr=1|qr_nm:gd|res:RC4|com-cf:nl|ptrs:na|ktp:N0|mc:179372|mtp:S|qry_typ:P|lang:en|wc:3|cs:8894|v=4,Shri Sai Pharma,https://www.indiamart.com/shrisaipharma/?pos=99&kwd=baby diaper pants&tags=A||||8211.142|Price|product|||MDC|rsf:gd-|-stype:attr=1|qr_nm:gd|res:RC4|com-cf:nl|ptrs:na|ktp:N0|mc:179372|mtp:S|qry_typ:P|lang:en|wc:3|cs:8894|v=4,False,Sion,Mumbai,"No. 1 Building, 112, Ashok Nagar, Sion-Trombay Road Sion, Chunabhatti, Sion, Mumbai - 400022, Dist.Mumbai, Maharashtra",8046055538,
Nonwoven Printed Large Size Baby Diaper Pants,https://www.indiamart.com/proddetail/printed-baby-diaper-pants-2854602545662.html?pos=100&kwd=baby diaper pants&tags=A||||8786.56|Price|product|||MDC|rsf:gd-|-stype:attr=1|qr_nm:gd|res:RC4|com-cf:nl|ptrs:na|ktp:N0|mc:179372|mtp:S|qry_typ:P|lang:en|wc:3|cs:8894|v=4,Popok Health Care,https://www.indiamart.com/popok-healthcare/?pos=100&kwd=baby diaper pants&tags=A||||8786.56|Price|product|||MDC|rsf:gd-|-stype:attr=1|qr_nm:gd|res:RC4|com-cf:nl|ptrs:na|ktp:N0|mc:179372|mtp:S|qry_typ:P|lang:en|wc:3|cs:8894|v=4,False,,Hyderabad,"24-134, Anandbagh Medchal Malkajgiri, Hyderabad - 500047, Dist.Hyderabad, Telangana",7949330487,
"Plain Diaper Pants, Size: Small",https://www.indiamart.com/proddetail/diaper-pants-2851790813191.html?pos=101&kwd=baby diaper pants&tags=A||||8556.61||product|||MDC|rsf:gd-|-stype:attr=1|qr_nm:gd|res:RC4|com-cf:nl|ptrs:na|ktp:N0|mc:179372|mtp:S|qry_typ:P|lang:en|wc:3|cs:8894|v=4,Novel Tissues Private Limited,https://www.indiamart.com/noveltissues/?pos=101&kwd=baby diaper pants&tags=A||||8556.61||product|||MDC|rsf:gd-|-stype:attr=1|qr_nm:gd|res:RC4|com-cf:nl|ptrs:na|ktp:N0|mc:179372|mtp:S|qry_typ:P|lang:en|wc:3|cs:8894|v=4,False,Hootagalli,Mysore,"65A, KIADB Industrial Area, Hootagalli, Mysore - 570018, Dist.Mysuru, Karnataka",8047641097,
"Plain Diaper Pants, Size: Small, Packaging Size: 75 Piece",https://www.indiamart.com/proddetail/diaper-pants-2851807949833.html?pos=102&kwd=baby diaper pants&tags=A||||8694.802|Price|product|||MDC|rsf:gd-|-stype:attr=1|qr_nm:gd|res:RC4|com-cf:nl|ptrs:na|ktp:N0|mc:179372|mtp:S|qry_typ:P|lang:en|wc:3|cs:8894|v=4,Usha Enterprises,https://www.indiamart.com/usha-enterprises-bawal/?pos=102&kwd=baby diaper pants&tags=A||||8694.802|Price|product|||MDC|rsf:gd-|-stype:attr=1|qr_nm:gd|res:RC4|com-cf:nl|ptrs:na|ktp:N0|mc:179372|mtp:S|qry_typ:P|lang:en|wc:3|cs:8894|v=4,False,Jaliawas,Bawal,"Plot No-195, Ground Floor, Sector-3, Hsiidc- Bawal, Rewari, Jaliawas, Bawal - 123501, Dist.Rewari, Haryana",8047830686,
"White Plain Disposable Baby Diapers, Age Group: 1to2 Years, Small",https://www.indiamart.com/proddetail/white-plain-disposable-baby-diapers-2854653063248.html?pos=103&kwd=baby diaper pants&tags=A||||8038.093|Price|product|||MDC|rsf:gd-|-stype:attr=1|qr_nm:gd|res:RC4|com-cf:nl|ptrs:na|ktp:N0|mc:179372|mtp:S|qry_typ:P|lang:en|wc:3|cs:8894|v=4,Rudransh International,https://www.indiamart.com/rudransh-international-rajkot/?pos=103&kwd=baby diaper pants&tags=A||||8038.093|Price|product|||MDC|rsf:gd-|-stype:attr=1|qr_nm:gd|res:RC4|com-cf:nl|ptrs:na|ktp:N0|mc:179372|mtp:S|qry_typ:P|lang:en|wc:3|cs:8894|v=4,False,,Rajkot,"3-indira Nagar Laxmi Nivas Kothariya Main Road Near Bhavnath Temple, Rajkot - 360002, Dist.Rajkot, Gujarat",7949323742,
"Cotton Little Angel Baby Diapers Pant, Size: Small, Packaging Size: Jumbo",https://www.indiamart.com/proddetail/little-angel-baby-diapers-pant-23544980873.html?pos=104&kwd=baby diaper pants&tags=A||||8482.679|Price|product|||MDC|rsf:gd-|-stype:attr=1|qr_nm:gd|res:RC4|com-cf:nl|ptrs:na|ktp:N0|mc:179372|mtp:S|qry_typ:P|lang:en|wc:3|cs:8894|v=4,Shri Fashion,https://www.indiamart.com/shree-fashion-ratlam/?pos=104&kwd=baby diaper pants&tags=A||||8482.679|Price|product|||MDC|rsf:gd-|-stype:attr=1|qr_nm:gd|res:RC4|com-cf:nl|ptrs:na|ktp:N0|mc:179372|mtp:S|qry_typ:P|lang:en|wc:3|cs:8894|v=4,False,Dindayal nagar,Ratlam,"VIP NAGAR 73 NEAR SAI MANDIR NEAR DIN DAYAL NAGAR, Dindayal nagar, Ratlam - 457001, Dist.Ratlam, Madhya Pradesh",8048984778,
BABY DIAPER PANTS,,Bramhani Products,https://www.indiamart.com/bramhaniproducts/?pos=105&kwd=baby diaper pants&tags=A||||8038.093|Price|product|||MDC|rsf:gd-|-stype:attr=1|qr_nm:gd|res:RC4|com-cf:nl|ptrs:na|ktp:N0|mc:179372|mtp:S|qry_typ:P|lang:en|wc:3|cs:8894|v=4,False,Swati Park,Rajkot,"Kothariya Part, Radhe Shyam Industrial Area, Plot No 9, Swati Road, Opp.Kanbi Electricals, Swati Park, Rajkot - 360002, Dist.Rajkot, Gujarat",8044456440,
"Disposable Xxl Baby Diaper Pants, Packaging Size: 600 Pcs Per Bag",https://www.indiamart.com/proddetail/imported-xxl-baby-diaper-pants-24519647933.html?pos=106&kwd=baby diaper pants&tags=BA||||9110.092|Price|product|||TS|rsf:gd-|-stype:attr=1|qr_nm:gd|res:RC4|com-cf:nl|ptrs:na|ktp:N0|mc:179372|mtp:S|qry_typ:P|lang:en|wc:3|cs:8894|v=4,Shashwat Udyog,https://www.indiamart.com/shashwatudyog-uttarpradesh/?pos=106&kwd=baby diaper pants&tags=BA||||9110.092|Price|product|||TS|rsf:gd-|-stype:attr=1|qr_nm:gd|res:RC4|com-cf:nl|ptrs:na|ktp:N0|mc:179372|mtp:S|qry_typ:P|lang:en|wc:3|cs:8894|v=4,False,Gomti,Lucknow,"302, Omaxe Heights, Vibhuti Khand, Gomti Nagar, Gomti, Lucknow - 226010, Dist.Lucknow, Uttar Pradesh",8048616780,
"Nonwoven Baby Diapers, Medium",https://www.indiamart.com/proddetail/baby-diaper-pants-2853923626988.html?pos=107&kwd=baby diaper pants&tags=A||||8038.093|Price|product|||TS|rsf:gd-|-stype:attr=1|qr_nm:gd|res:RC4|com-cf:nl|ptrs:na|ktp:N0|mc:179372|mtp:S|qry_typ:P|lang:en|wc:3|cs:8894|v=4,Ramani Brothers,https://www.indiamart.com/ramani-brothers-rajkot/?pos=107&kwd=baby diaper pants&tags=A||||8038.093|Price|product|||TS|rsf:gd-|-stype:attr=1|qr_nm:gd|res:RC4|com-cf:nl|ptrs:na|ktp:N0|mc:179372|mtp:S|qry_typ:P|lang:en|wc:3|cs:8894|v=4,False,Kotharia (Rajkot),Rajkot,"Sheri No - 5, Shed - 11/A, Varun Industrial, Kothria Road, Kothria, Kotharia (Rajkot), Rajkot - 360022, Dist.Rajkot, Gujarat",8047550042,
Printed Large Size A Grade Primium Quality Baby Diaper Pant Style,https://www.indiamart.com/proddetail/large-size-a-grade-primium-quality-baby-diaper-pant-style-2851622960591.html?pos=108&kwd=baby diaper pants&tags=A||||8559.269|Price|product|||TS|rsf:gd-|-stype:attr=1|qr_nm:gd|res:RC4|com-cf:nl|ptrs:na|ktp:N0|mc:179372|mtp:S|qry_typ:P|lang:en|wc:3|cs:8894|v=4,ITO Healthcare Private Limited,https://www.indiamart.com/itohealthcare-madhyapradesh/?pos=108&kwd=baby diaper pants&tags=A||||8559.269|Price|product|||TS|rsf:gd-|-stype:attr=1|qr_nm:gd|res:RC4|com-cf:nl|ptrs:na|ktp:N0|mc:179372|mtp:S|qry_typ:P|lang:en|wc:3|cs:8894|v=4,False,Manglaya Sadak,Indore,"558 Talawali Chanda Panchvati Colony, Manglaya Sadak, Indore - 453771, Dist.Indore, Madhya Pradesh",7942956583,
"Printed Baby Diaper Pants, Small",https://www.indiamart.com/proddetail/baby-diaper-pants-2854365659991.html?pos=109&kwd=baby diaper pants&tags=A||||8584.299|Price|product|||TS|rsf:gd-|-stype:attr=1|qr_nm:gd|res:RC4|com-cf:nl|ptrs:na|ktp:N0|mc:179372|mtp:S|qry_typ:P|lang:en|wc:3|cs:8894|v=4,Raws N Greens Healthcare Private Limited,https://www.rawsngreens.com/?pos=109&kwd=baby diaper pants&tags=A||||8584.299|Price|product|||TS|rsf:gd-|-stype:attr=1|qr_nm:gd|res:RC4|com-cf:nl|ptrs:na|ktp:N0|mc:179372|mtp:S|qry_typ:P|lang:en|wc:3|cs:8894|v=4,False,Saravanampatti,Coimbatore,"No.24 B Vky Vilankurichi Road, Chitra Nagar SARAVANAMPATTI, Saravanampatti, Coimbatore - 641035, Dist.Coimbatore, Tamil Nadu",7942799211,
"Printed Medium Diaper Pants, Size: M,S,L",https://www.indiamart.com/proddetail/medium-diaper-pants-24238250897.html?pos=110&kwd=baby diaper pants&tags=A||||8223.226|Price|product|||TS|rsf:gd-|-stype:attr=1|qr_nm:gd|res:RC4|com-cf:nl|ptrs:na|ktp:N0|mc:179372|mtp:S|qry_typ:P|lang:en|wc:3|cs:8894|v=4,Om Sairam Enterprises,https://www.omsairamsurgicalgown.com/?pos=110&kwd=baby diaper pants&tags=A||||8223.226|Price|product|||TS|rsf:gd-|-stype:attr=1|qr_nm:gd|res:RC4|com-cf:nl|ptrs:na|ktp:N0|mc:179372|mtp:S|qry_typ:P|lang:en|wc:3|cs:8894|v=4,False,Mira Road,Thane,"F 2, Sai Shraddha Chawl, Chimaji Nagar, Penkar Pada, Near Nirbha Devil Mandir, Mira Road East, Mira Road, Thane - 401107, Dist.Thane, Maharashtra",7942535057,
"Plain Baby Diaper Pants New Born (Pack of 84), Packaging Size: Small",https://www.indiamart.com/proddetail/baby-diaper-pants-new-born-pack-of-84-2852148571797.html?pos=111&kwd=baby diaper pants&tags=A||||8211.142|Price|product|||TS|rsf:gd-|-stype:attr=1|qr_nm:gd|res:RC4|com-cf:nl|ptrs:na|ktp:N0|mc:179372|mtp:S|qry_typ:P|lang:en|wc:3|cs:8894|v=4,I Touch Surgical,https://www.itouchsurgical.co.in/?pos=111&kwd=baby diaper pants&tags=A||||8211.142|Price|product|||TS|rsf:gd-|-stype:attr=1|qr_nm:gd|res:RC4|com-cf:nl|ptrs:na|ktp:N0|mc:179372|mtp:S|qry_typ:P|lang:en|wc:3|cs:8894|v=4,False,Goregaon,Mumbai,"4, Ekta Suprabhat, Siddharth Nagar, Goregaon West, Goregaon, Mumbai - 400104, Dist.Mumbai, Maharashtra",8048962190,
"Plain Baby Diaper Pant, Packaging Size: Small",https://www.indiamart.com/proddetail/baby-diaper-pant-2852978444948.html?pos=112&kwd=baby diaper pants&tags=A||||8725.991|Price|product|||TS|rsf:gd-|-stype:attr=1|qr_nm:gd|res:RC4|com-cf:nl|ptrs:na|ktp:N0|mc:179372|mtp:S|qry_typ:P|lang:en|wc:3|cs:8894|v=4,Indian Mother Care,https://www.indiamart.com/indianmothercare-rajpura/?pos=112&kwd=baby diaper pants&tags=A||||8725.991|Price|product|||TS|rsf:gd-|-stype:attr=1|qr_nm:gd|res:RC4|com-cf:nl|ptrs:na|ktp:N0|mc:179372|mtp:S|qry_typ:P|lang:en|wc:3|cs:8894|v=4,False,Neelpur,Rajpura,"Village Said Kheri, Gazipur, Neelpur, Rajpura - 140401, Dist.Patiala, Punjab",8043814465,
"Printed Newborn Baby Diaper Pant, Packaging Size: Small",https://www.indiamart.com/proddetail/newborn-baby-diaper-pant-2852985411255.html?pos=113&kwd=baby diaper pants&tags=A||||8588.208||product|||TS|rsf:gd-|-stype:attr=1|qr_nm:gd|res:RC4|com-cf:nl|ptrs:na|ktp:N0|mc:179372|mtp:S|qry_typ:P|lang:en|wc:3|cs:8894|v=4,Dinesh Medicals,https://www.indiamart.com/dineshmedicals-kota/?pos=113&kwd=baby diaper pants&tags=A||||8588.208||product|||TS|rsf:gd-|-stype:attr=1|qr_nm:gd|res:RC4|com-cf:nl|ptrs:na|ktp:N0|mc:179372|mtp:S|qry_typ:P|lang:en|wc:3|cs:8894|v=4,False,Ladpura,Kota,"Near Jagdish Hotel, Ladpura, Ladpura, Kota - 324006, Rajasthan",8043862482,
Pull Ups Adult Diapers Pant Styles,https://www.indiamart.com/proddetail/adult-diapers-pant-styles-23847575573.html?pos=114&kwd=baby diaper pants&tags=A||||8899.625|Price|product|||TS|rsf:gd-|-stype:attr=1|qr_nm:gd|res:RC4|com-cf:nl|ptrs:na|ktp:N0|mc:179372|mtp:S|qry_typ:P|lang:en|wc:3|cs:8894|v=4,Sadhguru Surgicals Private Limited,https://www.indiamart.com/sadhguru-surgicals/?pos=114&kwd=baby diaper pants&tags=A||||8899.625|Price|product|||TS|rsf:gd-|-stype:attr=1|qr_nm:gd|res:RC4|com-cf:nl|ptrs:na|ktp:N0|mc:179372|mtp:S|qry_typ:P|lang:en|wc:3|cs:8894|v=4,False,Thirubuvanai,Pondicherry,"First Floor, 104, 4th Cross Street, Ragavendra Nagar, Thirubuvanai, Thirubuvanai, Pondicherry - 605107, Dist.Pondicherry, Pondicherry",8047645074,
Briefs Comfrey Adult Diapers Pants,https://www.indiamart.com/proddetail/comfrey-adult-diapers-pants-2852883815088.html?pos=115&kwd=baby diaper pants&tags=A||||8211.142|Price|product|||TS|rsf:gd-|-stype:attr=1|qr_nm:gd|res:RC4|com-cf:nl|ptrs:na|ktp:N0|mc:179372|mtp:S|qry_typ:P|lang:en|wc:3|cs:8894|v=4,S N Surgicals,https://www.indiamart.com/snsurgicals-mumbai/?pos=115&kwd=baby diaper pants&tags=A||||8211.142|Price|product|||TS|rsf:gd-|-stype:attr=1|qr_nm:gd|res:RC4|com-cf:nl|ptrs:na|ktp:N0|mc:179372|mtp:S|qry_typ:P|lang:en|wc:3|cs:8894|v=4,False,Dahisar,Mumbai,"Shop No. G-16, Sai Krupa Mall, LT Road, Opp Railway Station, Dahisar West Suburban, Dahisar, Mumbai - 400068, Dist.Mumbai, Maharashtra",7942968320,
"Plain Econap Pant Style Diaper, Size: Large",https://www.indiamart.com/proddetail/econap-pant-style-diaper-2852811497748.html?pos=116&kwd=baby diaper pants&tags=A||||8954.051|Price|product|||TS|rsf:gd-|-stype:attr=1|qr_nm:gd|res:RC4|com-cf:nl|ptrs:na|ktp:N0|mc:179372|mtp:S|qry_typ:P|lang:en|wc:3|cs:8894|v=4,Happy Zone Health Store,https://www.happyzonehealthstore.com/?pos=116&kwd=baby diaper pants&tags=A||||8954.051|Price|product|||TS|rsf:gd-|-stype:attr=1|qr_nm:gd|res:RC4|com-cf:nl|ptrs:na|ktp:N0|mc:179372|mtp:S|qry_typ:P|lang:en|wc:3|cs:8894|v=4,False,Mylapore,Chennai,"NO.61 NACHIAPPA ST,MYLAPORE, Mylapore, Chennai - 600004, Dist.Chennai, Tamil Nadu",8046074663,
"Baby Diapers, Medium",https://www.indiamart.com/proddetail/baby-diaper-pants-2854776635188.html?pos=117&kwd=baby diaper pants&tags=A||||8228.275|Price|product|||MDC|rsf:gd-|-stype:attr=1|qr_nm:gd|res:RC4|com-cf:nl|ptrs:na|ktp:N0|mc:179372|mtp:S|qry_typ:P|lang:en|wc:3|cs:8894|v=4,Shailesh Surgical,https://www.indiamart.com/shaileshsurgical/?pos=117&kwd=baby diaper pants&tags=A||||8228.275|Price|product|||MDC|rsf:gd-|-stype:attr=1|qr_nm:gd|res:RC4|com-cf:nl|ptrs:na|ktp:N0|mc:179372|mtp:S|qry_typ:P|lang:en|wc:3|cs:8894|v=4,True,Ellisbridge,Ahmedabad,"11th Floor, 1106, Capstone Building, Old Sharda Mandir Crossing, Ellisbridge, Ahmedabad - 380006, Dist.Ahmedabad, Gujarat",8046062804,
Plain Freshee Medium Baby Diapers Pants,https://www.indiamart.com/proddetail/freshee-premium-baby-diapers-pants-2854651001833.html?pos=118&kwd=baby diaper pants&tags=A||||8752.144|Price|product|||MDC|rsf:gd-|-stype:attr=1|qr_nm:gd|res:RC4|com-cf:nl|ptrs:na|ktp:N0|mc:179372|mtp:S|qry_typ:P|lang:en|wc:3|cs:8894|v=4,VP Enterprises,https://www.indiamart.com/vp-enterprisesnewdelhi/?pos=118&kwd=baby diaper pants&tags=A||||8752.144|Price|product|||MDC|rsf:gd-|-stype:attr=1|qr_nm:gd|res:RC4|com-cf:nl|ptrs:na|ktp:N0|mc:179372|mtp:S|qry_typ:P|lang:en|wc:3|cs:8894|v=4,False,,New Delhi,"Basement, E-15/151, Sector-8 Rohini, North West Delhi, New Delhi - 110085, Dist.Delhi, Delhi",7949341611,
Plain New Moms Magic Pants,https://www.indiamart.com/proddetail/new-moms-magic-diaper-pants-2854988643948.html?pos=119&kwd=baby diaper pants&tags=A||||9110.092|Price|product|||MDC|rsf:gd-|-stype:attr=1|qr_nm:gd|res:RC4|com-cf:nl|ptrs:na|ktp:N0|mc:179372|mtp:S|qry_typ:P|lang:en|wc:3|cs:8894|v=4,Diksha Enterprises,https://www.indiamart.com/dikshaenterprises-lucknow/?pos=119&kwd=baby diaper pants&tags=A||||9110.092|Price|product|||MDC|rsf:gd-|-stype:attr=1|qr_nm:gd|res:RC4|com-cf:nl|ptrs:na|ktp:N0|mc:179372|mtp:S|qry_typ:P|lang:en|wc:3|cs:8894|v=4,False,,Lucknow,"Khasra 539, Hardoi Road, Adarsh Vihar,, Lucknow - 226017, Dist.Lucknow, Uttar Pradesh",8046077635,
Baby Diaper Loose,https://www.indiamart.com/proddetail/baby-diaper-loose-2853682892362.html?pos=120&kwd=baby diaper pants&tags=A||||8230.883|Price|product|||MDC|rsf:gd-|-stype:attr=1|qr_nm:gd|res:RC4|com-cf:nl|ptrs:na|ktp:N0|mc:179372|mtp:S|qry_typ:P|lang:en|wc:3|cs:8894|v=4,Zainab Enterprise,https://www.indiamart.com/zainabenterprise-surat/?pos=120&kwd=baby diaper pants&tags=A||||8230.883|Price|product|||MDC|rsf:gd-|-stype:attr=1|qr_nm:gd|res:RC4|com-cf:nl|ptrs:na|ktp:N0|mc:179372|mtp:S|qry_typ:P|lang:en|wc:3|cs:8894|v=4,False,Begampura,Surat,"Shop No.5,Ground Floor,Al Meena Appt.,,2210 - Zapabazar,Zampa Surat Surat City, Begampura, Surat - 395003, Dist.Surat, Gujarat",8048956780,
"Nubaby Premium Baby Pants,Large (L), 64 Count, 9-14 kg (Shipping Charges Extra)",https://www.indiamart.com/proddetail/nubaby-premium-baby-pants-large-l-64-count-9-14-kg-shipping-charges-extra-2849231253773.html?pos=121&kwd=baby diaper pants&tags=A||||8786.56|Price|product|||MDC|rsf:gd-|-stype:attr=1|qr_nm:gd|res:RC4|com-cf:nl|ptrs:na|ktp:N0|mc:179372|mtp:S|qry_typ:P|lang:en|wc:3|cs:8894|v=4,MAK Overseas,https://www.indiamart.com/makoverseashyderabad/?pos=121&kwd=baby diaper pants&tags=A||||8786.56|Price|product|||MDC|rsf:gd-|-stype:attr=1|qr_nm:gd|res:RC4|com-cf:nl|ptrs:na|ktp:N0|mc:179372|mtp:S|qry_typ:P|lang:en|wc:3|cs:8894|v=4,False,Saidabad,Hyderabad,"Floor 4, Office 401 17-1-A/1 MIG H.No.1/A Saidabad Santhosh Nagar Rangareddy, Saidabad, Hyderabad - 500059, Dist.Hyderabad, Telangana",7942712102,
Cotton Loose Baby Diapers Pants,https://www.indiamart.com/proddetail/loose-baby-diapers-pants-2851851346291.html?pos=122&kwd=baby diaper pants&tags=BA||||8047.7524|Price|product|||TS|rsf:gd-|-stype:attr=1|qr_nm:gd|res:RC4|com-cf:nl|ptrs:na|ktp:N0|mc:179372|mtp:S|qry_typ:P|lang:en|wc:3|cs:8894|v=4,Proctus Lifecare LLP,https://www.indiamart.com/proctuslifecarellp-morbi/?pos=122&kwd=baby diaper pants&tags=BA||||8047.7524|Price|product|||TS|rsf:gd-|-stype:attr=1|qr_nm:gd|res:RC4|com-cf:nl|ptrs:na|ktp:N0|mc:179372|mtp:S|qry_typ:P|lang:en|wc:3|cs:8894|v=4,False,Bagathala,Morbi,"Survey No 350, Railway Crossing No 48, Khakhrala Bagathala Road, Plot No 3 and 4 Navlakhi Highway, Khakhrala, Morbi, Bagathala, Morbi - 363641, Dist.Rajkot, Gujarat",8048212116,
Baby Pant Diaper NB To XL,https://www.indiamart.com/proddetail/baby-pant-diaper-nb-to-xl-24830944030.html?pos=123&kwd=baby diaper pants&tags=A||||8754.115|Price|product|||TS|rsf:gd-|-stype:attr=1|qr_nm:gd|res:RC4|com-cf:nl|ptrs:na|ktp:N0|mc:179372|mtp:S|qry_typ:P|lang:en|wc:3|cs:8894|v=4,Dnr Healthcare Private Limited,https://www.indiamart.com/dnrhealthcare/?pos=123&kwd=baby diaper pants&tags=A||||8754.115|Price|product|||TS|rsf:gd-|-stype:attr=1|qr_nm:gd|res:RC4|com-cf:nl|ptrs:na|ktp:N0|mc:179372|mtp:S|qry_typ:P|lang:en|wc:3|cs:8894|v=4,False,Sector 8,Panchkula,"Plot No. 151 Industrial Area Phase Ii phase-2, Sector 8, Panchkula - 134109, Dist.Panchkula, Haryana",8047647074,
Pull Ups Adult Diaper Pants,https://www.indiamart.com/proddetail/adult-diaper-pants-2851643658830.html?pos=124&kwd=baby diaper pants&tags=A||||8237.554|Price|product|||MDC|rsf:gd-|-stype:attr=1|qr_nm:gd|res:RC4|com-cf:nl|ptrs:na|ktp:N0|mc:179372|mtp:S|qry_typ:P|lang:en|wc:3|cs:8894|v=4,Stoe Life Private Limited,https://www.indiamart.com/stoelife-gujarat/?pos=124&kwd=baby diaper pants&tags=A||||8237.554|Price|product|||MDC|rsf:gd-|-stype:attr=1|qr_nm:gd|res:RC4|com-cf:nl|ptrs:na|ktp:N0|mc:179372|mtp:S|qry_typ:P|lang:en|wc:3|cs:8894|v=4,False,Sector 6,Gandhinagar,"Unit C/5,Gujarat Garment Co-operative Industrial Estate, Airport Road,Koba, Sector 6, Gandhinagar - 382006, Gujarat",8048979339,
TEDDY BABY PANT MEDIUM 34'S,,Evergreen Healthcare & Surgical,https://www.indiamart.com/evergreen-healthcare-surgical/?pos=125&kwd=baby diaper pants&tags=BA||||8954.051|Price|product|||MDC|rsf:gd-|-stype:attr=1|qr_nm:gd|res:RC4|com-cf:nl|ptrs:na|ktp:N0|mc:179372|mtp:S|qry_typ:P|lang:en|wc:3|cs:8894|v=4,False,Royapuram,Chennai,"35/1, First Floor, Manarsamy Koil Street, Royapuram, Royapuram, Chennai - 600013, Dist.Chennai, Tamil Nadu",7942842952,
"Plain Baby Diaper Pants, Medium",https://www.indiamart.com/proddetail/baby-diaper-pants-2854722589748.html?pos=126&kwd=baby diaper pants&tags=A||||8624.416|Price|product|||MDC|rsf:gd-|-stype:attr=1|qr_nm:gd|res:RC4|com-cf:nl|ptrs:na|ktp:N0|mc:179372|mtp:S|qry_typ:P|lang:en|wc:3|cs:8894|v=4,Supertech Surgical Company,https://www.indiamart.com/supertech-surgical-company/?pos=126&kwd=baby diaper pants&tags=A||||8624.416|Price|product|||MDC|rsf:gd-|-stype:attr=1|qr_nm:gd|res:RC4|com-cf:nl|ptrs:na|ktp:N0|mc:179372|mtp:S|qry_typ:P|lang:en|wc:3|cs:8894|v=4,False,Shiv Nagar,Hisar,"Shop No. 1, Millgate Area, Shiv Nagar, Shiv Nagar, Hisar - 125001, Dist.Hisar, Haryana",8047642534,
Plain Adult Pull Up Diapers,https://www.indiamart.com/proddetail/adult-pull-up-diapers-2853958641812.html?pos=127&kwd=baby diaper pants&tags=BA||||8624.416|Price|product|||TS|rsf:gd-|-stype:attr=1|qr_nm:gd|res:RC4|com-cf:nl|ptrs:na|ktp:N0|mc:179372|mtp:S|qry_typ:P|lang:en|wc:3|cs:8894|v=4,R K Surgical,https://www.indiamart.com/rk-surgical-haryana/?pos=127&kwd=baby diaper pants&tags=BA||||8624.416|Price|product|||TS|rsf:gd-|-stype:attr=1|qr_nm:gd|res:RC4|com-cf:nl|ptrs:na|ktp:N0|mc:179372|mtp:S|qry_typ:P|lang:en|wc:3|cs:8894|v=4,False,Mill Gate,Hisar,"Gali No 1, 2, Shyam Lal Dhani, Mill Gate Road, Opp Gate No 1, New Sabji Mandi,, Mill Gate, Hisar - 125001, Dist.Hisar, Haryana",8043827630,
Plain Baby Diaper Pants,https://www.indiamart.com/proddetail/baby-diaper-pants-2854587839262.html?pos=128&kwd=baby diaper pants&tags=A||||8662.111|Price|product|||TS|rsf:gd-|-stype:attr=1|qr_nm:gd|res:RC4|com-cf:nl|ptrs:na|ktp:N0|mc:179372|mtp:S|qry_typ:P|lang:en|wc:3|cs:8894|v=4,Rovee Garments,https://www.indiamart.com/rovee-garments/?pos=128&kwd=baby diaper pants&tags=A||||8662.111|Price|product|||TS|rsf:gd-|-stype:attr=1|qr_nm:gd|res:RC4|com-cf:nl|ptrs:na|ktp:N0|mc:179372|mtp:S|qry_typ:P|lang:en|wc:3|cs:8894|v=4,False,State Bank Colony,Tirunelveli,"70, State Bank Colony, Ezhil Nagar, Ngo A Colony, State Bank Colony, Tirunelveli - 627007, Dist.Tirunelveli, Tamil Nadu",7942840922,
"Printed Baby Diaper Pants, Small",https://www.indiamart.com/proddetail/baby-diaper-pants-2854455532633.html?pos=129&kwd=baby diaper pants&tags=A||||8752.144|Price|product|||TS|rsf:gd-|-stype:attr=1|qr_nm:gd|res:RC4|com-cf:nl|ptrs:na|ktp:N0|mc:179372|mtp:S|qry_typ:P|lang:en|wc:3|cs:8894|v=4,Maitri Health And Hygiene,https://www.indiamart.com/maitri-healthandhygiene/?pos=129&kwd=baby diaper pants&tags=A||||8752.144|Price|product|||TS|rsf:gd-|-stype:attr=1|qr_nm:gd|res:RC4|com-cf:nl|ptrs:na|ktp:N0|mc:179372|mtp:S|qry_typ:P|lang:en|wc:3|cs:8894|v=4,False,Shalimar Bagh,New Delhi,"Flat No. 10-D/E, Block And Pocket-Cc, Shalimar Bagh, Shalimar Bagh, New Delhi - 110088, Dist.Delhi, Delhi",8047658643,
"Printed Baby Diaper Pants, Size: Small",https://www.indiamart.com/proddetail/baby-diaper-pants-2852624634688.html?pos=130&kwd=baby diaper pants&tags=A||||8876.815|Price|product|||TS|rsf:gd-|-stype:attr=1|qr_nm:gd|res:RC4|com-cf:nl|ptrs:na|ktp:N0|mc:179372|mtp:S|qry_typ:P|lang:en|wc:3|cs:8894|v=4,Smart Hygeia,https://www.indiamart.com/smarthygeia-nagpur/?pos=130&kwd=baby diaper pants&tags=A||||8876.815|Price|product|||TS|rsf:gd-|-stype:attr=1|qr_nm:gd|res:RC4|com-cf:nl|ptrs:na|ktp:N0|mc:179372|mtp:S|qry_typ:P|lang:en|wc:3|cs:8894|v=4,False,Rahate Colony,Nagpur,"Block No 702, Naniks Ashtavinayak Park Avenue Nagpur Chhavni, Sadar Nagar, Rahate Colony, Nagpur - 440001, Dist.Nagpur, Maharashtra",7942566182,
"Printed LILIPUT Imported Baby Diaper Pants, Medium",https://www.indiamart.com/proddetail/liliput-imported-baby-diaper-pants-2854687894755.html?pos=131&kwd=baby diaper pants&tags=A||||9363.783|Price|product|||TS|rsf:gd-|-stype:attr=1|qr_nm:gd|res:RC4|com-cf:nl|ptrs:na|ktp:N0|mc:179372|mtp:S|qry_typ:P|lang:en|wc:3|cs:8894|v=4,Shaswat Agro Industries,https://www.indiamart.com/shaswatagro-industries/?pos=131&kwd=baby diaper pants&tags=A||||9363.783|Price|product|||TS|rsf:gd-|-stype:attr=1|qr_nm:gd|res:RC4|com-cf:nl|ptrs:na|ktp:N0|mc:179372|mtp:S|qry_typ:P|lang:en|wc:3|cs:8894|v=4,False,Tajopur,Maunath Bhanjan,"B-9, Industrial Area, Tajopur, Tajopur, Maunath Bhanjan - 275101, Dist.Mau, Uttar Pradesh",8047638492,
Kids Diaper Pants,https://www.indiamart.com/proddetail/kids-diaper-pants-2851601823162.html?pos=132&kwd=baby diaper pants&tags=A||||8641.487|Price|product|||TS|rsf:gd-|-stype:attr=1|qr_nm:gd|res:RC4|com-cf:nl|ptrs:na|ktp:N0|mc:179372|mtp:S|qry_typ:P|lang:en|wc:3|cs:8894|v=4,Saksham Industries,https://www.indiamart.com/sakshamindustriesjalandhar/?pos=132&kwd=baby diaper pants&tags=A||||8641.487|Price|product|||TS|rsf:gd-|-stype:attr=1|qr_nm:gd|res:RC4|com-cf:nl|ptrs:na|ktp:N0|mc:179372|mtp:S|qry_typ:P|lang:en|wc:3|cs:8894|v=4,False,Basti Guzan,Jalandhar,"297-a, Dilbagh Nagar, Basti Guzan, Jalandhar - 144002, Dist.Jalandhar, Punjab",7942560530,
Cotton Printed Medium Baby Diaper,https://www.indiamart.com/proddetail/medium-baby-diaper-2852152753288.html?pos=133&kwd=baby diaper pants&tags=A||||8752.144|Price|product|||TS|rsf:gd-|-stype:attr=1|qr_nm:gd|res:RC4|com-cf:nl|ptrs:na|ktp:N0|mc:179372|mtp:S|qry_typ:P|lang:en|wc:3|cs:8894|v=4,Jai Shree Industries ( Regd.),https://www.jaishreeindustries.in/?pos=133&kwd=baby diaper pants&tags=A||||8752.144|Price|product|||TS|rsf:gd-|-stype:attr=1|qr_nm:gd|res:RC4|com-cf:nl|ptrs:na|ktp:N0|mc:179372|mtp:S|qry_typ:P|lang:en|wc:3|cs:8894|v=4,False,Karam Pura,New Delhi,"No. 107, Magnum House II, First Floor, Karampura Commercial Complex, Karam Pura, New Delhi - 110015, Dist.Delhi, Delhi",8048981957,
"Plain Diaper Pants, Large, 62 Count, With Upto 12 Hour Protection",https://www.indiamart.com/proddetail/diaper-pants-large-62-count-with-upto-12-hour-protection-2851488507833.html?pos=134&kwd=baby diaper pants&tags=A||||9837.093|Price|product|||TS|rsf:gd-|-stype:attr=1|qr_nm:gd|res:RC4|com-cf:nl|ptrs:na|ktp:N0|mc:179372|mtp:S|qry_typ:P|lang:en|wc:3|cs:8894|v=4,Dheera Infoservices,https://www.indiamart.com/dheerainfoservices/?pos=134&kwd=baby diaper pants&tags=A||||9837.093|Price|product|||TS|rsf:gd-|-stype:attr=1|qr_nm:gd|res:RC4|com-cf:nl|ptrs:na|ktp:N0|mc:179372|mtp:S|qry_typ:P|lang:en|wc:3|cs:8894|v=4,False,Uttarpara Bazar,Uttarpara Kotrung,"24/12, Ground, K.K.D Chatterjee Street, Hooghly, Uttarpara Bazar, Uttarpara Kotrung - 712258, West Bengal",7942818965,
B Grade Baby Diapers Pant Style,,HZ Enterprises,https://www.indiamart.com/hz-enterprises-madhyapradesh/?pos=135&kwd=baby diaper pants&tags=A||||8559.269||product|||TS|rsf:gd-|-stype:attr=1|qr_nm:gd|res:RC4|com-cf:nl|ptrs:na|ktp:N0|mc:179372|mtp:S|qry_typ:P|lang:en|wc:3|cs:8894|v=4,False,Sudama Nagar,Indore,"2, Manikbag Road, Sudama Nagar, Indore - 452009, Dist.Indore, Madhya Pradesh",7942791847,
Pull Ups Adult Diaper Pant,https://www.indiamart.com/proddetail/adult-diaper-pant-3730649373.html?pos=136&kwd=baby diaper pants&tags=A||||8223.226||product|||TS|rsf:gd-|-stype:attr=1|qr_nm:gd|res:RC4|com-cf:nl|ptrs:na|ktp:N0|mc:179372|mtp:S|qry_typ:P|lang:en|wc:3|cs:8894|v=4,Amkay Products Private Limited,https://www.amkayproducts.net/?pos=136&kwd=baby diaper pants&tags=A||||8223.226||product|||TS|rsf:gd-|-stype:attr=1|qr_nm:gd|res:RC4|com-cf:nl|ptrs:na|ktp:N0|mc:179372|mtp:S|qry_typ:P|lang:en|wc:3|cs:8894|v=4,False,Gokhiware,Thane,"Amkay Enclave, 68, Rashmi Park Bungalow Dhumal Nagar, Waliv Road, Vasai East, Gokhiware, Thane - 401208, Dist.Thane, Maharashtra",8048969241,
KINDFIT ADULT PULL UP DIAPERS,https://www.indiamart.com/proddetail/kindfit-adult-pull-up-diapers-2850376268073.html?pos=137&kwd=baby diaper pants&tags=A||||8228.275|Price|product|||TS|rsf:gd-|-stype:attr=1|qr_nm:gd|res:RC4|com-cf:nl|ptrs:na|ktp:N0|mc:179372|mtp:S|qry_typ:P|lang:en|wc:3|cs:8894|v=4,Zen Enterprise,https://www.zenenterprise.co.in/?pos=137&kwd=baby diaper pants&tags=A||||8228.275|Price|product|||TS|rsf:gd-|-stype:attr=1|qr_nm:gd|res:RC4|com-cf:nl|ptrs:na|ktp:N0|mc:179372|mtp:S|qry_typ:P|lang:en|wc:3|cs:8894|v=4,False,Thaltej,Ahmedabad,"205, Satva, Nr Padmavati Bunglows Opp Elligans Bunglows, Thaltej, Thaltej, Ahmedabad - 380054, Dist.Ahmedabad, Gujarat",8046046451,
Baby Diapers,,Ezhil Herbal Products,https://www.indiamart.com/ezhil-herbal-products/?pos=138&kwd=baby diaper pants&tags=BA||||8584.299|Price|product|||TS|rsf:gd-|-stype:attr=1|qr_nm:gd|res:RC4|com-cf:nl|ptrs:na|ktp:N0|mc:179372|mtp:S|qry_typ:P|lang:en|wc:3|cs:8894|v=4,False,Madukkarai,Coimbatore,"12/389-1, Mariamman Kovil Street, Madukkarai Market Road, Canara Bank ATM, Madukkarai, Coimbatore - 641105, Dist.Coimbatore, Tamil Nadu",7949087411,
"Baby Diaper Pants, Packaging Size: Large",https://www.indiamart.com/proddetail/baby-diaper-pants-2853912472573.html?pos=139&kwd=baby diaper pants&tags=A||||8752.144|Price|product|||MDC|rsf:gd-|-stype:attr=1|qr_nm:gd|res:RC4|com-cf:nl|ptrs:na|ktp:N0|mc:179372|mtp:S|qry_typ:P|lang:en|wc:3|cs:8894|v=4,Aksh Trading,https://www.indiamart.com/aksh-trading/?pos=139&kwd=baby diaper pants&tags=A||||8752.144|Price|product|||MDC|rsf:gd-|-stype:attr=1|qr_nm:gd|res:RC4|com-cf:nl|ptrs:na|ktp:N0|mc:179372|mtp:S|qry_typ:P|lang:en|wc:3|cs:8894|v=4,False,Vikaspuri,New Delhi,"Flat No. 13A, CGHS Evershine Apartment, Vikash Puri, North West, Vikaspuri, New Delhi - 110018, Dist.Delhi, Delhi",7942660706,
"Plain S 42 Mylo Baby Diaper Pant, Small",https://www.indiamart.com/proddetail/s-42-mylo-baby-diaper-pant-2855000074488.html?pos=140&kwd=baby diaper pants&tags=A||||8752.144|Price|product|||MDC|rsf:gd-|-stype:attr=1|qr_nm:gd|res:RC4|com-cf:nl|ptrs:na|ktp:N0|mc:179372|mtp:S|qry_typ:P|lang:en|wc:3|cs:8894|v=4,Curepills Healthcare Private Limited,https://www.indiamart.com/curepillshealthcare/?pos=140&kwd=baby diaper pants&tags=A||||8752.144|Price|product|||MDC|rsf:gd-|-stype:attr=1|qr_nm:gd|res:RC4|com-cf:nl|ptrs:na|ktp:N0|mc:179372|mtp:S|qry_typ:P|lang:en|wc:3|cs:8894|v=4,False,,New Delhi,"Second Floor, B-37, DDA Shed, Okhla Industrial Estate Phase 2, South East Delhi, New Delhi - 110020, Dist.Delhi, Delhi",7949308749,
For Adults Pull Ups Blissbury XL Adult Pants Diapers,https://www.indiamart.com/proddetail/blissbury-xl-adult-pants-diapers-2852992803288.html?pos=141&kwd=baby diaper pants&tags=A||||8723.301|Price|product|||MDC|rsf:gd-|-stype:attr=1|qr_nm:gd|res:RC4|com-cf:nl|ptrs:na|ktp:N0|mc:179372|mtp:S|qry_typ:P|lang:en|wc:3|cs:8894|v=4,Blissbury Care Private Limited,https://www.indiamart.com/blissbury-care-bhopal/?pos=141&kwd=baby diaper pants&tags=A||||8723.301|Price|product|||MDC|rsf:gd-|-stype:attr=1|qr_nm:gd|res:RC4|com-cf:nl|ptrs:na|ktp:N0|mc:179372|mtp:S|qry_typ:P|lang:en|wc:3|cs:8894|v=4,False,Gandhi Nagar,Bhopal,"D-46, Dwarkadham New Jail Road, Gram Badwai Huzur, Gandhi Nagar, Bhopal - 462001, Dist.Bhopal, Madhya Pradesh",7942963355,
"Luvlap Medium Baby Diaper Pants, Age Group: 3to12 Months",https://www.indiamart.com/proddetail/luvlap-medium-baby-diaper-pants-2855071630262.html?pos=142&kwd=baby diaper pants&tags=A||||8786.56|Price|product|||MDC|rsf:gd-|-stype:attr=1|qr_nm:gd|res:RC4|com-cf:nl|ptrs:na|ktp:N0|mc:179372|mtp:S|qry_typ:P|lang:en|wc:3|cs:8894|v=4,Maruthi Drugs,https://www.indiamart.com/maruthi-drugs/?pos=142&kwd=baby diaper pants&tags=A||||8786.56|Price|product|||MDC|rsf:gd-|-stype:attr=1|qr_nm:gd|res:RC4|com-cf:nl|ptrs:na|ktp:N0|mc:179372|mtp:S|qry_typ:P|lang:en|wc:3|cs:8894|v=4,False,Nimboli Adda,Hyderabad,"Ground floor, 3-2-371/B, Sri Nilayam Kachiguda Road, Opposite To Priyas Aqua RO Water Solution, Nimboli Adda, Hyderabad - 500027, Dist.Hyderabad, Telangana",7949304578,
"Plain Champs Dry Pant Diapers, Size: Small",https://www.indiamart.com/proddetail/champs-dry-pant-diapers-2854234872648.html?pos=143&kwd=baby diaper pants&tags=A||||8482.091|Price|product|||MDC|rsf:gd-|-stype:attr=1|qr_nm:gd|res:RC4|com-cf:nl|ptrs:na|ktp:N0|mc:179372|mtp:S|qry_typ:P|lang:en|wc:3|cs:8894|v=4,Arihant Medicare Private Limited,https://www.indiamart.com/arihantmedicare/?pos=143&kwd=baby diaper pants&tags=A||||8482.091|Price|product|||MDC|rsf:gd-|-stype:attr=1|qr_nm:gd|res:RC4|com-cf:nl|ptrs:na|ktp:N0|mc:179372|mtp:S|qry_typ:P|lang:en|wc:3|cs:8894|v=4,False,Shastri Nagar,Ajmer,"New Kayastha Colony 1/1938 Shastri Nagar Lohagal Road, Shastri Nagar, Ajmer - 305001, Dist.Ajmer, Rajasthan",8044561761,
Cotton Unisex Absorbia Baby Pant,https://www.indiamart.com/proddetail/absorbia-baby-pant-2854448367330.html?pos=144&kwd=baby diaper pants&tags=A||||8876.815|Price|product|||MDC|rsf:gd-|-stype:attr=1|qr_nm:gd|res:RC4|com-cf:nl|ptrs:na|ktp:N0|mc:179372|mtp:S|qry_typ:P|lang:en|wc:3|cs:8894|v=4,Danish Sales,https://www.indiamart.com/danishsales/?pos=144&kwd=baby diaper pants&tags=A||||8876.815|Price|product|||MDC|rsf:gd-|-stype:attr=1|qr_nm:gd|res:RC4|com-cf:nl|ptrs:na|ktp:N0|mc:179372|mtp:S|qry_typ:P|lang:en|wc:3|cs:8894|v=4,False,,Nagpur,"Near Gurunank Copy Bhandar, House No. 108/a, Muktai Niwas, Old Bhandara Road, Ganjakhet Chowk, Nagpur - 440002, Dist.Nagpur, Maharashtra",8045735518,
BonBaby Rice and Dal,https://www.indiamart.com/proddetail/bonbaby-rice-and-dal-2853983704933.html?pos=145&kwd=baby diaper pants&tags=A||||8663.873||product|||MDC|rsf:gd-|-stype:attr=1|qr_nm:gd|res:RC4|com-cf:nl|ptrs:na|ktp:N0|mc:179372|mtp:S|qry_typ:P|lang:en|wc:3|cs:8894|v=4,Evexia Nutritions Private Limited,https://www.indiamart.com/evexianutritions/?pos=145&kwd=baby diaper pants&tags=A||||8663.873||product|||MDC|rsf:gd-|-stype:attr=1|qr_nm:gd|res:RC4|com-cf:nl|ptrs:na|ktp:N0|mc:179372|mtp:S|qry_typ:P|lang:en|wc:3|cs:8894|v=4,False,Peenya,Bengaluru,"A 278, 6th Main , Peenya 2nd Stage Industrial Area, Peenya, Bengaluru - 560058, Dist.Bengaluru, Karnataka",7942875024,
"Plain Careloom Baby Pant Diapers, Small",https://www.indiamart.com/proddetail/careloom-baby-pant-diapers-2854874206888.html?pos=146&kwd=baby diaper pants&tags=A||||8954.051|Price|product|||MDC|rsf:gd-|-stype:attr=1|qr_nm:gd|res:RC4|com-cf:nl|ptrs:na|ktp:N0|mc:179372|mtp:S|qry_typ:P|lang:en|wc:3|cs:8894|v=4,Careloom Health Care LLP,https://www.indiamart.com/careloom-health-care/?pos=146&kwd=baby diaper pants&tags=A||||8954.051|Price|product|||MDC|rsf:gd-|-stype:attr=1|qr_nm:gd|res:RC4|com-cf:nl|ptrs:na|ktp:N0|mc:179372|mtp:S|qry_typ:P|lang:en|wc:3|cs:8894|v=4,False,,Chennai,"Plot No 193, Palkalai Nagar Avenue ,Palavakkam, Chennai - 600041, Dist.Chennai, Tamil Nadu",7949304995,
Plain Small Extra Soft Baby Diaper Pant,https://www.indiamart.com/proddetail/small-extra-soft-baby-diaper-pant-26196099597.html?pos=147&kwd=baby diaper pants&tags=BA||||8752.144|Price|product|||TS|rsf:gd-|-stype:attr=1|qr_nm:gd|res:RC4|com-cf:nl|ptrs:na|ktp:N0|mc:179372|mtp:S|qry_typ:P|lang:en|wc:3|cs:8894|v=4,Tejas Enterprises,https://www.indiamart.com/tejasenterprises-delhi/?pos=147&kwd=baby diaper pants&tags=BA||||8752.144|Price|product|||TS|rsf:gd-|-stype:attr=1|qr_nm:gd|res:RC4|com-cf:nl|ptrs:na|ktp:N0|mc:179372|mtp:S|qry_typ:P|lang:en|wc:3|cs:8894|v=4,False,New Mustafabad,New Delhi,"D - 6/162 - A, D - Block, Near Gali No.7, Main Road Brijpuri, New Mustafabad, New Delhi - 110094, Dist.Delhi, Delhi",8043855624,
CARE PREMIUM PANT -L,https://www.indiamart.com/proddetail/care-premium-pant-l-2853270839291.html?pos=148&kwd=baby diaper pants&tags=BA||||8268.494|Price|product|||TS|rsf:gd-|-stype:attr=1|qr_nm:gd|res:RC4|com-cf:nl|ptrs:na|ktp:N0|mc:179372|mtp:S|qry_typ:P|lang:en|wc:3|cs:8894|v=4,Medco Distributors,https://www.medcodistributors.in/?pos=148&kwd=baby diaper pants&tags=BA||||8268.494|Price|product|||TS|rsf:gd-|-stype:attr=1|qr_nm:gd|res:RC4|com-cf:nl|ptrs:na|ktp:N0|mc:179372|mtp:S|qry_typ:P|lang:en|wc:3|cs:8894|v=4,False,Sindhi Colony,Abu Road,"Ground Floor, Gujrati Kumar Mohalla, Sindhi Colony, Abu Road - 307026, Dist.Sirohi, Rajasthan",8046033758,
Pigeon XL Baby Diaper Pants,https://www.indiamart.com/proddetail/pigeon-xl-baby-diaper-pants-2852327850348.html?pos=149&kwd=baby diaper pants&tags=BA||||8307.81|Price|product|||MDC|rsf:gd-|-stype:attr=1|qr_nm:gd|res:RC4|com-cf:nl|ptrs:na|ktp:N0|mc:179372|mtp:S|qry_typ:P|lang:en|wc:3|cs:8894|v=4,Bhavana Agency,https://www.indiamart.com/bhavana-agency/?pos=149&kwd=baby diaper pants&tags=BA||||8307.81|Price|product|||MDC|rsf:gd-|-stype:attr=1|qr_nm:gd|res:RC4|com-cf:nl|ptrs:na|ktp:N0|mc:179372|mtp:S|qry_typ:P|lang:en|wc:3|cs:8894|v=4,False,Sadashiv Peth,Pune,"S No 4, 841/1, Asset Gold, Sadashiv Peth, Sadashiv Peth, Pune - 411030, Dist.Pune, Maharashtra",8047788291,
"Baby Orange Plain Cotton Cloth Diaper Pant, Age Group: 8 Month",https://www.indiamart.com/proddetail/baby-orange-plain-cotton-cloth-diaper-pant-2851855632333.html?pos=150&kwd=baby diaper pants&tags=BA||||8785.791|Price|product|||MDC|rsf:gd-|-stype:attr=1|qr_nm:gd|res:RC4|com-cf:nl|ptrs:na|ktp:N0|mc:179372|mtp:S|qry_typ:P|lang:en|wc:3|cs:8894|v=4,Osail Corporation,https://www.indiamart.com/osail-corporation-india/?pos=150&kwd=baby diaper pants&tags=BA||||8785.791|Price|product|||MDC|rsf:gd-|-stype:attr=1|qr_nm:gd|res:RC4|com-cf:nl|ptrs:na|ktp:N0|mc:179372|mtp:S|qry_typ:P|lang:en|wc:3|cs:8894|v=4,False,Maharajpur,Ghaziabad,"First Floor 38/2/20 Site 4, Sahibabad, Industrial Area, Maharajpur, Ghaziabad - 201010, Dist.Ghaziabad, Uttar Pradesh",8043837117,
Printed Teddy Baby Diapers Pants,https://www.indiamart.com/proddetail/teddy-baby-diapers-pants-2854449169691.html?pos=151&kwd=baby diaper pants&tags=A||||8223.226|Price|product|||MDC|rsf:gd-|-stype:attr=1|qr_nm:gd|res:RC4|com-cf:nl|ptrs:na|ktp:N0|mc:179372|mtp:S|qry_typ:P|lang:en|wc:3|cs:8894|v=4,Royal Baby,https://www.indiamart.com/royal-baby-thane/?pos=151&kwd=baby diaper pants&tags=A||||8223.226|Price|product|||MDC|rsf:gd-|-stype:attr=1|qr_nm:gd|res:RC4|com-cf:nl|ptrs:na|ktp:N0|mc:179372|mtp:S|qry_typ:P|lang:en|wc:3|cs:8894|v=4,False,,Thane,"Ground Floor, Shop No. 03, Savitri Niwas Mumbai Pune Road, Amrutnagar, Sub Post Office, Mumbra, Thane - 400612, Dist.Thane, Maharashtra",8045734604,
Mamy Poko Pants Baby Diaper,https://www.indiamart.com/proddetail/mamy-poko-pants-baby-diaper-2854143342288.html?pos=152&kwd=baby diaper pants&tags=A||||8223.226|Price|product|||MDC|rsf:gd-|-stype:attr=1|qr_nm:gd|res:RC4|com-cf:nl|ptrs:na|ktp:N0|mc:179372|mtp:S|qry_typ:P|lang:en|wc:3|cs:8894|v=4,S L K Enterprises,https://www.indiamart.com/slkenterprises/?pos=152&kwd=baby diaper pants&tags=A||||8223.226|Price|product|||MDC|rsf:gd-|-stype:attr=1|qr_nm:gd|res:RC4|com-cf:nl|ptrs:na|ktp:N0|mc:179372|mtp:S|qry_typ:P|lang:en|wc:3|cs:8894|v=4,False,Opp. Raza Masjid Amrut Nagar Mumbra,Thane,"Ground Floor, Flat No.001, Zoha Apartment, Sharifa Road,, Opp. Raza Masjid Amrut Nagar Mumbra, Thane - 400612, Dist.Thane, Maharashtra",7949082283,
Cotton Littlecare Baby Diapers,https://www.indiamart.com/proddetail/littlecare-baby-diapers-2851051815291.html?pos=153&kwd=baby diaper pants&tags=A||||8038.093|Price|product|||TS|rsf:gd-|-stype:attr=1|qr_nm:gd|res:RC4|com-cf:nl|ptrs:na|ktp:N0|mc:179372|mtp:S|qry_typ:P|lang:en|wc:3|cs:8894|v=4,Floway Pumps,https://www.flowaypumps.in/?pos=153&kwd=baby diaper pants&tags=A||||8038.093|Price|product|||TS|rsf:gd-|-stype:attr=1|qr_nm:gd|res:RC4|com-cf:nl|ptrs:na|ktp:N0|mc:179372|mtp:S|qry_typ:P|lang:en|wc:3|cs:8894|v=4,False,Main Road,Rajkot,"Shree Ram Park, Street No.-9,shrivallbha,b/h Balaji Hall, 150 Feet Ring Road,, Main Road, Rajkot - 360003, Dist.Rajkot, Gujarat",8046079276,
Easy Teddy Baby Diaper Pants,https://www.indiamart.com/proddetail/easy-teddy-baby-diaper-pants-2850346521697.html?pos=154&kwd=baby diaper pants&tags=A||||9839.57|Price|product|||MDC|rsf:gd-|-stype:attr=1|qr_nm:gd|res:RC4|com-cf:nl|ptrs:na|ktp:N0|mc:179372|mtp:S|qry_typ:P|lang:en|wc:3|cs:8894|v=4,Bagaria Agencies Private Limited,https://www.indiamart.com/bagariaagencies/?pos=154&kwd=baby diaper pants&tags=A||||9839.57|Price|product|||MDC|rsf:gd-|-stype:attr=1|qr_nm:gd|res:RC4|com-cf:nl|ptrs:na|ktp:N0|mc:179372|mtp:S|qry_typ:P|lang:en|wc:3|cs:8894|v=4,False,Barabazar Market,Kolkata,"Room No 10, Floor No 1, 12 Pollock Street, Kolkata, Barabazar Market, Kolkata - 700001, Dist.Kolkata, West Bengal",7942818112,
Adult Diaper Pants,https://www.indiamart.com/proddetail/adult-diaper-pants-2853918272548.html?pos=155&kwd=baby diaper pants&tags=A||||9301.656|Price|product|||MDC|rsf:gd-|-stype:attr=1|qr_nm:gd|res:RC4|com-cf:nl|ptrs:na|ktp:N0|mc:179372|mtp:S|qry_typ:P|lang:en|wc:3|cs:8894|v=4,Shashwat Enterprises,https://www.indiamart.com/shashwat-enterprises-varanasi/?pos=155&kwd=baby diaper pants&tags=A||||9301.656|Price|product|||MDC|rsf:gd-|-stype:attr=1|qr_nm:gd|res:RC4|com-cf:nl|ptrs:na|ktp:N0|mc:179372|mtp:S|qry_typ:P|lang:en|wc:3|cs:8894|v=4,False,Mahmoorganj,Varanasi,"Shop No 11, Beriwala Market, Luxa Road, Mahmoorganj, Varanasi - 221001, Dist.Varanasi, Uttar Pradesh",7942533890,
Medium Pampers Happy Skin Diaper Pant,https://www.indiamart.com/proddetail/medium-pampers-happy-skin-diaper-pant-2852689793073.html?pos=156&kwd=baby diaper pants&tags=A||||8230.883|Price|product|||MDC|rsf:gd-|-stype:attr=1|qr_nm:gd|res:RC4|com-cf:nl|ptrs:na|ktp:N0|mc:179372|mtp:S|qry_typ:P|lang:en|wc:3|cs:8894|v=4,Oceanic Supplier,https://www.indiamart.com/oceanicsupplier/?pos=156&kwd=baby diaper pants&tags=A||||8230.883|Price|product|||MDC|rsf:gd-|-stype:attr=1|qr_nm:gd|res:RC4|com-cf:nl|ptrs:na|ktp:N0|mc:179372|mtp:S|qry_typ:P|lang:en|wc:3|cs:8894|v=4,False,Varachha,Surat,"Plot No-136, Ashopalav Bunglows, Rangoli Chowadi Road, Abrama Velanja Road, Kamrej, Velanja, Varachha, Surat - 394150, Dist.Surat, Gujarat",7942720766,
Briefs Adult Diaper,https://www.indiamart.com/proddetail/friends-adult-diapers-20475782655.html?pos=157&kwd=baby diaper pants&tags=BB||||8663.873|Price|product|||TS|rsf:gd-|-stype:attr=1|qr_nm:gd|res:RC4|com-cf:nl|ptrs:na|ktp:N0|mc:179372|mtp:S|qry_typ:P|lang:en|wc:3|cs:8894|v=4,The South India Surgical Co. (Bangalores),https://www.indiamart.com/thesouthindiasurgicalco/?pos=157&kwd=baby diaper pants&tags=BB||||8663.873|Price|product|||TS|rsf:gd-|-stype:attr=1|qr_nm:gd|res:RC4|com-cf:nl|ptrs:na|ktp:N0|mc:179372|mtp:S|qry_typ:P|lang:en|wc:3|cs:8894|v=4,False,Kalasipalyam,Bengaluru,"OPP Vani Vilas Hospital, No.25, A Street, K.R. Road, Fort, Kalasipalyam, Bengaluru - 560002, Dist.Bengaluru, Karnataka",8048978771,
Loose packet 10 To 12 Hours Adult Diapers Pull Ups Pant Style( A grade),https://www.indiamart.com/proddetail/adult-diapers-pull-ups-pant-style-a-grade-22671127055.html?pos=158&kwd=baby diaper pants&tags=BA||||8211.142||product|||TS|rsf:gd-|-stype:attr=1|qr_nm:gd|res:RC4|com-cf:nl|ptrs:na|ktp:N0|mc:179372|mtp:S|qry_typ:P|lang:en|wc:3|cs:8894|v=4,Khanna Enterprise,https://www.indiamart.com/khannaentps-mumbai/?pos=158&kwd=baby diaper pants&tags=BA||||8211.142||product|||TS|rsf:gd-|-stype:attr=1|qr_nm:gd|res:RC4|com-cf:nl|ptrs:na|ktp:N0|mc:179372|mtp:S|qry_typ:P|lang:en|wc:3|cs:8894|v=4,False,Chembur,Mumbai,"A-8, Gurukrupa Terrace, RC Marg, Chembur East, Chembur, Mumbai - 400071, Dist.Mumbai, Maharashtra",8046039664,
"Cotton Bum Tum Ultra Soft Diaper Pant, Size: XL, Packaging Size: 26 Pants",https://www.indiamart.com/proddetail/bum-tum-ultra-soft-diaper-pant-23724183333.html?pos=159&kwd=baby diaper pants&tags=BA||||8228.275|Price|product|||TS|rsf:gd-|-stype:attr=1|qr_nm:gd|res:RC4|com-cf:nl|ptrs:na|ktp:N0|mc:179372|mtp:S|qry_typ:P|lang:en|wc:3|cs:8894|v=4,Aspire Healthcare,https://www.indiamart.com/aspire-healthcare/?pos=159&kwd=baby diaper pants&tags=BA||||8228.275|Price|product|||TS|rsf:gd-|-stype:attr=1|qr_nm:gd|res:RC4|com-cf:nl|ptrs:na|ktp:N0|mc:179372|mtp:S|qry_typ:P|lang:en|wc:3|cs:8894|v=4,False,Gota,Ahmedabad,"Shop no -19 ,Serenity Space,S G Highway, New Gota, Gota, Ahmedabad - 382481, Dist.Ahmedabad, Gujarat",8046039668,
"Baby Pants Disposable Cotton Baby Diaper, Age Group: 3 Months, Size: Medium",https://www.indiamart.com/proddetail/baby-pants-disposable-cotton-baby-diaper-2852357085462.html?pos=160&kwd=baby diaper pants&tags=BA||||8307.81|Price|product|||MDC|rsf:gd-|-stype:attr=1|qr_nm:gd|res:RC4|com-cf:nl|ptrs:na|ktp:N0|mc:179372|mtp:S|qry_typ:P|lang:en|wc:3|cs:8894|v=4,Ashstylo Collection,https://www.indiamart.com/ashstylocollection/?pos=160&kwd=baby diaper pants&tags=BA||||8307.81|Price|product|||MDC|rsf:gd-|-stype:attr=1|qr_nm:gd|res:RC4|com-cf:nl|ptrs:na|ktp:N0|mc:179372|mtp:S|qry_typ:P|lang:en|wc:3|cs:8894|v=4,False,Kondhwa,Pune,"Kamaldeep Garden, A/26, Kondhwa, Kondhwa, Pune - 411048, Dist.Pune, Maharashtra",7942712072,
Baby Diaper Pants,https://www.indiamart.com/proddetail/baby-diaper-pants-2853487263955.html?pos=161&kwd=baby diaper pants&tags=BA||||8954.051|Price|product|||TS|rsf:gd-|-stype:attr=1|qr_nm:gd|res:RC4|com-cf:nl|ptrs:na|ktp:N0|mc:179372|mtp:S|qry_typ:P|lang:en|wc:3|cs:8894|v=4,Boharras Inc,https://www.indiamart.com/boharras-inc/?pos=161&kwd=baby diaper pants&tags=BA||||8954.051|Price|product|||TS|rsf:gd-|-stype:attr=1|qr_nm:gd|res:RC4|com-cf:nl|ptrs:na|ktp:N0|mc:179372|mtp:S|qry_typ:P|lang:en|wc:3|cs:8894|v=4,False,Park Town,Chennai,"No. 309, Mint Street, 1st Floor, Manmohan Plaza Near Central Railway Station, Park Town, Chennai - 600003, Dist.Chennai, Tamil Nadu",8048981521,
"Baby Diaper Pants, Medium",https://www.indiamart.com/proddetail/baby-diaper-pants-20927104112.html?pos=162&kwd=baby diaper pants&tags=BA||||8228.275|Price|product|||TS|rsf:gd-|-stype:attr=1|qr_nm:gd|res:RC4|com-cf:nl|ptrs:na|ktp:N0|mc:179372|mtp:S|qry_typ:P|lang:en|wc:3|cs:8894|v=4,Ashmi Healthcare Private Limited,https://www.indiamart.com/ashmi-healthcare/?pos=162&kwd=baby diaper pants&tags=BA||||8228.275|Price|product|||TS|rsf:gd-|-stype:attr=1|qr_nm:gd|res:RC4|com-cf:nl|ptrs:na|ktp:N0|mc:179372|mtp:S|qry_typ:P|lang:en|wc:3|cs:8894|v=4,False,Bopal,Ahmedabad,"Second Floor 2114 Bopal Road The Retail Park, Bopal, Ahmedabad - 380058, Dist.Ahmedabad, Gujarat",8043840939,
"Baby Diaper Pants, Size: Small",https://www.indiamart.com/proddetail/baby-diaper-pants-2853479909033.html?pos=163&kwd=baby diaper pants&tags=BA||||9839.57|Price|product|||TS|rsf:gd-|-stype:attr=1|qr_nm:gd|res:RC4|com-cf:nl|ptrs:na|ktp:N0|mc:179372|mtp:S|qry_typ:P|lang:en|wc:3|cs:8894|v=4,Aftab Trader,https://www.indiamart.com/aftab-trader-kolkata/?pos=163&kwd=baby diaper pants&tags=BA||||9839.57|Price|product|||TS|rsf:gd-|-stype:attr=1|qr_nm:gd|res:RC4|com-cf:nl|ptrs:na|ktp:N0|mc:179372|mtp:S|qry_typ:P|lang:en|wc:3|cs:8894|v=4,False,Baitakkhana North,Kolkata,"H/4, 11/1 Harshi Street, Baitakkhana North, Kolkata - 700009, Dist.Kolkata, West Bengal",8047654403,
"Plain Baby Diaper Pants, Packaging Size: Small",https://www.indiamart.com/proddetail/baby-diaper-pants-2852538347530.html?pos=164&kwd=baby diaper pants&tags=BA||||8226.563|Price|product|||TS|rsf:gd-|-stype:attr=1|qr_nm:gd|res:RC4|com-cf:nl|ptrs:na|ktp:N0|mc:179372|mtp:S|qry_typ:P|lang:en|wc:3|cs:8894|v=4,Radiant Bio Science,https://www.indiamart.com/radiantbioscience/?pos=164&kwd=baby diaper pants&tags=BA||||8226.563|Price|product|||TS|rsf:gd-|-stype:attr=1|qr_nm:gd|res:RC4|com-cf:nl|ptrs:na|ktp:N0|mc:179372|mtp:S|qry_typ:P|lang:en|wc:3|cs:8894|v=4,False,Sanpada,Navi Mumbai,"Shop 1, Plot 67, Behind Krishna Govind Tower Sector 22, Turbhe, Sanpada, Navi Mumbai - 400705, Dist.Thane, Maharashtra",8048617594,
Baby Diaper Pants,https://www.indiamart.com/proddetail/baby-diaper-pants-2853715543130.html?pos=165&kwd=baby diaper pants&tags=BA||||8626.744|Price|product|||TS|rsf:gd-|-stype:attr=1|qr_nm:gd|res:RC4|com-cf:nl|ptrs:na|ktp:N0|mc:179372|mtp:S|qry_typ:P|lang:en|wc:3|cs:8894|v=4,Richie International,https://www.indiamart.com/richieinternational/?pos=165&kwd=baby diaper pants&tags=BA||||8626.744|Price|product|||TS|rsf:gd-|-stype:attr=1|qr_nm:gd|res:RC4|com-cf:nl|ptrs:na|ktp:N0|mc:179372|mtp:S|qry_typ:P|lang:en|wc:3|cs:8894|v=4,False,Nallur,Tiruppur,"48 Csi Colony, Nallur, Vijayapuram Post vijayapuram kangayam road, Nallur, Tiruppur - 641606, Dist.Coimbatore, Tamil Nadu",8047698456,
Diaper Pants,https://www.indiamart.com/proddetail/diaper-pants-2854622348191.html?pos=166&kwd=baby diaper pants&tags=BB||||8601.347|Price|product|||TS|rsf:gd-|-stype:attr=1|qr_nm:gd|res:RC4|com-cf:nl|ptrs:na|ktp:N0|mc:179372|mtp:S|qry_typ:P|lang:en|wc:3|cs:8894|v=4,JSM Traders,https://www.indiamart.com/jsmtraders/?pos=166&kwd=baby diaper pants&tags=BB||||8601.347|Price|product|||TS|rsf:gd-|-stype:attr=1|qr_nm:gd|res:RC4|com-cf:nl|ptrs:na|ktp:N0|mc:179372|mtp:S|qry_typ:P|lang:en|wc:3|cs:8894|v=4,False,Jhotwara,Jaipur,"47-A, Shivpuri Colony, Jhotwara, Jhotwara, Jaipur - 302012, Dist.Jaipur, Rajasthan",8046059170,
"Plain Diaper Pants, Size: Small",https://www.indiamart.com/proddetail/diaper-pants-2851790789788.html?pos=167&kwd=baby diaper pants&tags=BA||||8954.051||product|||TS|rsf:gd-|-stype:attr=1|qr_nm:gd|res:RC4|com-cf:nl|ptrs:na|ktp:N0|mc:179372|mtp:S|qry_typ:P|lang:en|wc:3|cs:8894|v=4,Sidd Health Zon,https://www.oldagecarepro.com/?pos=167&kwd=baby diaper pants&tags=BA||||8954.051||product|||TS|rsf:gd-|-stype:attr=1|qr_nm:gd|res:RC4|com-cf:nl|ptrs:na|ktp:N0|mc:179372|mtp:S|qry_typ:P|lang:en|wc:3|cs:8894|v=4,False,Anna Nagar,Chennai,"Ground Floor, AB 102, 104, PKS Arcade, 4th Avenue, Shanthi Colony, Nandhiniee Sweets, Anna Nagar, Anna Nagar, Chennai - 600040, Dist.Chennai, Tamil Nadu",8048986713,
Adult Diaper Pants,https://www.indiamart.com/proddetail/adult-diaper-pants-2853152866462.html?pos=168&kwd=baby diaper pants&tags=BA||||8038.093||product|||TS|rsf:gd-|-stype:attr=1|qr_nm:gd|res:RC4|com-cf:nl|ptrs:na|ktp:N0|mc:179372|mtp:S|qry_typ:P|lang:en|wc:3|cs:8894|v=4,Apple Pharma,https://www.indiamart.com/applepharma/?pos=168&kwd=baby diaper pants&tags=BA||||8038.093||product|||TS|rsf:gd-|-stype:attr=1|qr_nm:gd|res:RC4|com-cf:nl|ptrs:na|ktp:N0|mc:179372|mtp:S|qry_typ:P|lang:en|wc:3|cs:8894|v=4,False,Darashan Park,Rajkot,"1, UNIQUE SHOPPING CENTER,GROUND FLOOR, Near Astron Sardarnagar Main Road, Everest Complexes, Darashan Park, Rajkot - 360005, Dist.Rajkot, Gujarat",8047647421,
"Pull Ups Adult Diaper Pants, Size: Xl-xxl",https://www.indiamart.com/proddetail/adult-diaper-pants-2853066137533.html?pos=169&kwd=baby diaper pants&tags=BA||||8230.883|Price|product|||TS|rsf:gd-|-stype:attr=1|qr_nm:gd|res:RC4|com-cf:nl|ptrs:na|ktp:N0|mc:179372|mtp:S|qry_typ:P|lang:en|wc:3|cs:8894|v=4,Shanti Medicare,https://www.indiamart.com/shanti-medicare/?pos=169&kwd=baby diaper pants&tags=BA||||8230.883|Price|product|||TS|rsf:gd-|-stype:attr=1|qr_nm:gd|res:RC4|com-cf:nl|ptrs:na|ktp:N0|mc:179372|mtp:S|qry_typ:P|lang:en|wc:3|cs:8894|v=4,False,126 shardha row row house,Surat,"S 20, Swastik Plaza, Yogi Chowk,, 126 shardha row row house, Surat - 395010, Dist.Surat, Gujarat",7942835980,
"Pant Type Cotton Hug Fit medium Baby Diaper Pants, Waist Size: Free, Packaging Size: 8pc/pack",https://www.indiamart.com/proddetail/hug-fit-medium-baby-diaper-pants-22140945691.html?pos=170&kwd=baby diaper pants&tags=BA||||8211.142|Price|product|||TS|rsf:gd-|-stype:attr=1|qr_nm:gd|res:RC4|com-cf:nl|ptrs:na|ktp:N0|mc:179372|mtp:S|qry_typ:P|lang:en|wc:3|cs:8894|v=4,Royal Herbs,https://www.indiamart.com/royal-herbs/?pos=170&kwd=baby diaper pants&tags=BA||||8211.142|Price|product|||TS|rsf:gd-|-stype:attr=1|qr_nm:gd|res:RC4|com-cf:nl|ptrs:na|ktp:N0|mc:179372|mtp:S|qry_typ:P|lang:en|wc:3|cs:8894|v=4,False,Malad East,Mumbai,"Kurar Village Road, Ambewadi, Shantaram Talav, Malad East, Malad East, Mumbai - 400097, Dist.Mumbai, Maharashtra",7942541679,
Novel Cotton Soft Baby Diaper Pant,https://www.indiamart.com/proddetail/soft-baby-diaper-pant-25861303048.html?pos=171&kwd=baby diaper pants&tags=BA||||8478.165|Price|product|||TS|rsf:gd-|-stype:attr=1|qr_nm:gd|res:RC4|com-cf:nl|ptrs:na|ktp:N0|mc:179372|mtp:S|qry_typ:P|lang:en|wc:3|cs:8894|v=4,P & Q Hygiene Products,https://www.indiamart.com/pqhygieneproducts/?pos=171&kwd=baby diaper pants&tags=BA||||8478.165|Price|product|||TS|rsf:gd-|-stype:attr=1|qr_nm:gd|res:RC4|com-cf:nl|ptrs:na|ktp:N0|mc:179372|mtp:S|qry_typ:P|lang:en|wc:3|cs:8894|v=4,False,,Thazhecode,"TP11/260 A, B, C, Olakkal Building, Thondimmal, Thiruvambadi, Thazhecode - 673603, Dist.Kozhikode, Kerala",7942532245,
Plain MEDIUM SIZE BABY DIAPER PANTS 0973,https://www.indiamart.com/proddetail/medium-size-baby-diaper-pants-0973-2853270920362.html?pos=172&kwd=baby diaper pants&tags=BA||||8038.093|Price|product|||TS|rsf:gd-|-stype:attr=1|qr_nm:gd|res:RC4|com-cf:nl|ptrs:na|ktp:N0|mc:179372|mtp:S|qry_typ:P|lang:en|wc:3|cs:8894|v=4,Deodap,https://www.indiamart.com/deodap/?pos=172&kwd=baby diaper pants&tags=BA||||8038.093|Price|product|||TS|rsf:gd-|-stype:attr=1|qr_nm:gd|res:RC4|com-cf:nl|ptrs:na|ktp:N0|mc:179372|mtp:S|qry_typ:P|lang:en|wc:3|cs:8894|v=4,False,Rajkot,Rajkot,"plot No. 9 Behind Patanjali Werhouse, Ruda Transport, Saat Hanuman Ahemdabad Road, Rajkot, Rajkot - 360005, Dist.Rajkot, Gujarat",8048972316,
"Cotton Pant Diapers LuvLap Baby Diaper Pants New Born (NB) 0-5kg, Size: Small, Packaging Size: 15 X 16 X 1 Centimeters",https://www.indiamart.com/proddetail/luvlap-baby-diaper-pants-new-born-nb-0-5kg-25269205591.html?pos=173&kwd=baby diaper pants&tags=BA||||8228.275|Price|product|||TS|rsf:gd-|-stype:attr=1|qr_nm:gd|res:RC4|com-cf:nl|ptrs:na|ktp:N0|mc:179372|mtp:S|qry_typ:P|lang:en|wc:3|cs:8894|v=4,Classic Medical Supply,https://www.classicmedicalsupply.com/?pos=173&kwd=baby diaper pants&tags=BA||||8228.275|Price|product|||TS|rsf:gd-|-stype:attr=1|qr_nm:gd|res:RC4|com-cf:nl|ptrs:na|ktp:N0|mc:179372|mtp:S|qry_typ:P|lang:en|wc:3|cs:8894|v=4,False,Bhadra,Ahmedabad,"Pragati Bank, 1 Classic Electronics, Relief Road, Ratanpur Pole, Bhadra, Ahmedabad - 380001, Dist.Ahmedabad, Gujarat",8048953386,
Briefs Adult Diaper Pants Alife Cure,https://www.indiamart.com/proddetail/adult-diaper-pants-alife-cure-2851735939655.html?pos=174&kwd=baby diaper pants&tags=BA||||8228.275|Price|product|||TS|rsf:gd-|-stype:attr=1|qr_nm:gd|res:RC4|com-cf:nl|ptrs:na|ktp:N0|mc:179372|mtp:S|qry_typ:P|lang:en|wc:3|cs:8894|v=4,Tirupati Surgicals Private Limited,https://www.indiamart.com/tirupati-surgicals-gujarat/?pos=174&kwd=baby diaper pants&tags=BA||||8228.275|Price|product|||TS|rsf:gd-|-stype:attr=1|qr_nm:gd|res:RC4|com-cf:nl|ptrs:na|ktp:N0|mc:179372|mtp:S|qry_typ:P|lang:en|wc:3|cs:8894|v=4,False,Bopal,Ahmedabad,"Shop No. 12 Nr Bhavya Park Brts Daskroi C/o Shiv Complex, Bopal, Ahmedabad - 380058, Dist.Ahmedabad, Gujarat",7942871739,
"Mummy Care Plain Cotton Baby Diapers Pants, Packaging Size: 5 Pieces",https://www.indiamart.com/proddetail/mummy-care-plain-cotton-baby-diapers-pants-2851845802997.html?pos=175&kwd=baby diaper pants&tags=BA||||9578.697|Price|product|||TS|rsf:gd-|-stype:attr=1|qr_nm:gd|res:RC4|com-cf:nl|ptrs:na|ktp:N0|mc:179372|mtp:S|qry_typ:P|lang:en|wc:3|cs:8894|v=4,Jyotsna Associate,https://www.indiamart.com/jyotsnaassociate/?pos=175&kwd=baby diaper pants&tags=BA||||9578.697|Price|product|||TS|rsf:gd-|-stype:attr=1|qr_nm:gd|res:RC4|com-cf:nl|ptrs:na|ktp:N0|mc:179372|mtp:S|qry_typ:P|lang:en|wc:3|cs:8894|v=4,False,Mangalabag,Cuttack,"New Colony, 183/H/3, Buxibazar, Gamadia, Mangalabag, Cuttack - 753001, Dist.Cuttack, Odisha",7942836140,
Adult Diaper Pant,https://www.indiamart.com/proddetail/adult-diaper-pant-2851086759197.html?pos=176&kwd=baby diaper pants&tags=BA||||8813.969||product|||TS|rsf:gd-|-stype:attr=1|qr_nm:gd|res:RC4|com-cf:nl|ptrs:na|ktp:N0|mc:179372|mtp:S|qry_typ:P|lang:en|wc:3|cs:8894|v=4,Pearsons Healthcare Products,https://www.indiamart.com/pearsonshealthcareproducts/?pos=176&kwd=baby diaper pants&tags=BA||||8813.969||product|||TS|rsf:gd-|-stype:attr=1|qr_nm:gd|res:RC4|com-cf:nl|ptrs:na|ktp:N0|mc:179372|mtp:S|qry_typ:P|lang:en|wc:3|cs:8894|v=4,False,Kalyan Nagar,Meerut,"1st Floor, 5A, Garh Road Murari Puram, Kalyan Nagar, Meerut - 250002, Dist.Meerut, Uttar Pradesh",8047696443,
"Printed Baby Pant Diaper, Size: Large, Packaging Size: XL",https://www.indiamart.com/proddetail/baby-pant-diaper-2853019698888.html?pos=177&kwd=baby diaper pants&tags=BA||||9734.362|Price|product|||TS|rsf:gd-|-stype:attr=1|qr_nm:gd|res:RC4|com-cf:nl|ptrs:na|ktp:N0|mc:179372|mtp:S|qry_typ:P|lang:en|wc:3|cs:8894|v=4,Shree Krishna Traders,https://www.jasminehygiene.in/?pos=177&kwd=baby diaper pants&tags=BA||||9734.362|Price|product|||TS|rsf:gd-|-stype:attr=1|qr_nm:gd|res:RC4|com-cf:nl|ptrs:na|ktp:N0|mc:179372|mtp:S|qry_typ:P|lang:en|wc:3|cs:8894|v=4,False,Jogbani,Jogabani,"Plot No 649,650,2852,2853, Ward No 14, Post Office Road, Jogbani Post Office, Jogbani, Jogabani - 854328, Dist.Araria, Bihar",7942964191,
"Little Angel Extra Dry Pants Diaper, Super Absorbent Core Jumbo Pack, All Sizes Available",https://www.indiamart.com/proddetail/little-angel-extra-dry-pants-diaper-super-absorbent-core-jumbo-pack-all-sizes-available-2850863624591.html?pos=178&kwd=baby diaper pants&tags=BB||||8461.862|Price|product|||TS|rsf:gd-|-stype:attr=1|qr_nm:gd|res:RC4|com-cf:nl|ptrs:na|ktp:N0|mc:179372|mtp:S|qry_typ:P|lang:en|wc:3|cs:8894|v=4,1mile Healthcare,https://www.indiamart.com/onemilehealthcare/?pos=178&kwd=baby diaper pants&tags=BB||||8461.862|Price|product|||TS|rsf:gd-|-stype:attr=1|qr_nm:gd|res:RC4|com-cf:nl|ptrs:na|ktp:N0|mc:179372|mtp:S|qry_typ:P|lang:en|wc:3|cs:8894|v=4,False,Near Gambhir Hospital,Bhilwara,"1st Floor, Galaxy Marketing, Near Gambhir Hospital, Bhilwara - 311001, Dist.Bhilwara, Rajasthan",8048975771,
Pull Ups B Fit Pant Style Adult Diapers,https://www.indiamart.com/proddetail/b-fit-pant-style-adult-diapers-25577879855.html?pos=179&kwd=baby diaper pants&tags=BA||||9045.955|Price|product|||TS|rsf:gd-|-stype:attr=1|qr_nm:gd|res:RC4|com-cf:nl|ptrs:na|ktp:N0|mc:179372|mtp:S|qry_typ:P|lang:en|wc:3|cs:8894|v=4,Krishna Surgicals,https://www.indiamart.com/krishnasurgicals/?pos=179&kwd=baby diaper pants&tags=BA||||9045.955|Price|product|||TS|rsf:gd-|-stype:attr=1|qr_nm:gd|res:RC4|com-cf:nl|ptrs:na|ktp:N0|mc:179372|mtp:S|qry_typ:P|lang:en|wc:3|cs:8894|v=4,False,Narayan Purwa,Kanpur,"117 / N / 39 Kakadeo N Block Kanpur Kanpur Nagar, Narayan Purwa, Kanpur - 208005, Uttar Pradesh",8048965625,
"We Pro Deep Pant Style Diaper, XL",https://www.indiamart.com/proddetail/we-pro-deep-pant-style-diaper-2853430528591.html?pos=180&kwd=baby diaper pants&tags=BA||||8242.731||product|||TS|rsf:gd-|-stype:attr=1|qr_nm:gd|res:RC4|com-cf:nl|ptrs:na|ktp:N0|mc:179372|mtp:S|qry_typ:P|lang:en|wc:3|cs:8894|v=4,A S Enterprises,https://www.indiamart.com/asenterprises-ulhasnagar/?pos=180&kwd=baby diaper pants&tags=BA||||8242.731||product|||TS|rsf:gd-|-stype:attr=1|qr_nm:gd|res:RC4|com-cf:nl|ptrs:na|ktp:N0|mc:179372|mtp:S|qry_typ:P|lang:en|wc:3|cs:8894|v=4,False,Vitthalwadi,Ulhasnagar,"Near BK No 617, Shop , Room No 1, O T Section, Vitthalwadi, Ulhasnagar - 421002, Dist.Thane, Maharashtra",7942835156,
"Adults Friends Adult Diapers Pants large, Size: 30-56 Inch",https://www.indiamart.com/proddetail/friends-adult-diapers-pants-large-23574253573.html?pos=181&kwd=baby diaper pants&tags=BA||||8747.203|Price|product|||TS|rsf:gd-|-stype:attr=1|qr_nm:gd|res:RC4|com-cf:nl|ptrs:na|ktp:N0|mc:179372|mtp:S|qry_typ:P|lang:en|wc:3|cs:8894|v=4,Hargun Biotech,https://www.hargunbiotech.com/?pos=181&kwd=baby diaper pants&tags=BA||||8747.203|Price|product|||TS|rsf:gd-|-stype:attr=1|qr_nm:gd|res:RC4|com-cf:nl|ptrs:na|ktp:N0|mc:179372|mtp:S|qry_typ:P|lang:en|wc:3|cs:8894|v=4,False,Model Town,Panipat,"641, Paruthi Chowk, Model Town, Model Town, Panipat - 132103, Dist.Panipat, Haryana",7942559513,
"LuvLap Pant Style Baby Diapers, Medium (MD) For babies of 7 to 12Kg, Diapers",https://www.indiamart.com/proddetail/luvlap-pant-style-baby-diapers-medium-md-for-babies-of-7-to-12kg-diapers-2853363310088.html?pos=182&kwd=baby diaper pants&tags=BB||||8752.144|Price|product|||TS|rsf:gd-|-stype:attr=1|qr_nm:gd|res:RC4|com-cf:nl|ptrs:na|ktp:N0|mc:179372|mtp:S|qry_typ:P|lang:en|wc:3|cs:8894|v=4,T Link Technology,https://www.indiamart.com/tlink-technology-delhi/?pos=182&kwd=baby diaper pants&tags=BB||||8752.144|Price|product|||TS|rsf:gd-|-stype:attr=1|qr_nm:gd|res:RC4|com-cf:nl|ptrs:na|ktp:N0|mc:179372|mtp:S|qry_typ:P|lang:en|wc:3|cs:8894|v=4,False,Jagat Puri,New Delhi,"Ground Floor, D104, Chandu Park, 5, Jagat Puri, Jagat Puri, New Delhi - 110051, Dist.Delhi, Delhi",7942835357,
"Baby Pant Diapers, Packaging Size: As Description",https://www.indiamart.com/proddetail/baby-pant-diapers-27144964862.html?pos=183&kwd=baby diaper pants&tags=BA||||8663.873|Price|product|||TS|rsf:gd-|-stype:attr=1|qr_nm:gd|res:RC4|com-cf:nl|ptrs:na|ktp:N0|mc:179372|mtp:S|qry_typ:P|lang:en|wc:3|cs:8894|v=4,Exigo International Private Limited,https://www.exigointernational.in/?pos=183&kwd=baby diaper pants&tags=BA||||8663.873|Price|product|||TS|rsf:gd-|-stype:attr=1|qr_nm:gd|res:RC4|com-cf:nl|ptrs:na|ktp:N0|mc:179372|mtp:S|qry_typ:P|lang:en|wc:3|cs:8894|v=4,False,Nayandahalli,Bengaluru,"NO. 31-32,FLOWER GARDEN,OPP BHEL FACTORY,,MYSORE ROAD, Nayandahalli, Bengaluru - 560026, Dist.Bengaluru, Karnataka",8047671942,
"White Adult Diapers Pant Styles, Packaging Size: 10 Pieces In Packet",https://www.indiamart.com/proddetail/adult-diapers-pant-styles-11121983388.html?pos=184&kwd=baby diaper pants&tags=BA||||8307.81|Price|product|||TS|rsf:gd-|-stype:attr=1|qr_nm:gd|res:RC4|com-cf:nl|ptrs:na|ktp:N0|mc:179372|mtp:S|qry_typ:P|lang:en|wc:3|cs:8894|v=4,Namo Pharma,https://www.namopharma.net/?pos=184&kwd=baby diaper pants&tags=BA||||8307.81|Price|product|||TS|rsf:gd-|-stype:attr=1|qr_nm:gd|res:RC4|com-cf:nl|ptrs:na|ktp:N0|mc:179372|mtp:S|qry_typ:P|lang:en|wc:3|cs:8894|v=4,False,Shukrawar Peth,Pune,"Shop No. 2, Krishna Complex Towards Sadashiv Peth, Shukrawar Peth, Pune - 411002, Dist.Pune, Maharashtra",8046030868,
"Printed Baby Diaper Pants, Size: 0-1 years, Packaging Size: Small",https://www.indiamart.com/proddetail/baby-diaper-pants-2852865577312.html?pos=185&kwd=baby diaper pants&tags=BA||||8663.873|Price|product|||MDC|rsf:gd-|-stype:attr=1|qr_nm:gd|res:RC4|com-cf:nl|ptrs:na|ktp:N0|mc:179372|mtp:S|qry_typ:P|lang:en|wc:3|cs:8894|v=4,Activekidss Retail Private Limited,https://www.indiamart.com/activekidssretail/?pos=185&kwd=baby diaper pants&tags=BA||||8663.873|Price|product|||MDC|rsf:gd-|-stype:attr=1|qr_nm:gd|res:RC4|com-cf:nl|ptrs:na|ktp:N0|mc:179372|mtp:S|qry_typ:P|lang:en|wc:3|cs:8894|v=4,False,Urban,Bengaluru,"58/1 Plot No - 3, NH-7 Hosur Main Road, Singasandra, Urban, Bengaluru - 560068, Dist.Bengaluru, Karnataka",8043874205,
Printed Baby Diaper Pants,https://www.indiamart.com/proddetail/baby-diaper-pants-2855016799830.html?pos=186&kwd=baby diaper pants&tags=BB||||8785.791|Price|product|||MDC|rsf:gd-|-stype:attr=1|qr_nm:gd|res:RC4|com-cf:nl|ptrs:na|ktp:N0|mc:179372|mtp:S|qry_typ:P|lang:en|wc:3|cs:8894|v=4,Laxmi Enterprises,https://www.indiamart.com/laxmienterprisesgaziabaduttarpradesh/?pos=186&kwd=baby diaper pants&tags=BB||||8785.791|Price|product|||MDC|rsf:gd-|-stype:attr=1|qr_nm:gd|res:RC4|com-cf:nl|ptrs:na|ktp:N0|mc:179372|mtp:S|qry_typ:P|lang:en|wc:3|cs:8894|v=4,False,,Ghaziabad,"G-175, Lajpat Nagar, Sahibabad, Ghaziabad - 201005, Dist.Ghaziabad, Uttar Pradesh",8045734074,
Baby Printed Pant Diaper,https://www.indiamart.com/proddetail/baby-printed-pant-diaper-2853054634712.html?pos=187&kwd=baby diaper pants&tags=BA||||8752.144|Price|product|||MDC|rsf:gd-|-stype:attr=1|qr_nm:gd|res:RC4|com-cf:nl|ptrs:na|ktp:N0|mc:179372|mtp:S|qry_typ:P|lang:en|wc:3|cs:8894|v=4,Dagar Hygiene Private Limited,https://www.indiamart.com/dagar-hygiene/?pos=187&kwd=baby diaper pants&tags=BA||||8752.144|Price|product|||MDC|rsf:gd-|-stype:attr=1|qr_nm:gd|res:RC4|com-cf:nl|ptrs:na|ktp:N0|mc:179372|mtp:S|qry_typ:P|lang:en|wc:3|cs:8894|v=4,False,Karawal Nagar,New Delhi,"B-328, Kh-48/22, Maha Laxmi Enclave, Karawal Nagar North East, Karawal Nagar, New Delhi - 110094, Dist.Delhi, Delhi",7942965875,
"Cotton Pant Type M Baby Diapers Pants, Packaging Size: 75 Pieces",https://www.indiamart.com/proddetail/m-baby-diapers-pants-25938200555.html?pos=188&kwd=baby diaper pants&tags=BA||||8601.347|Price|product|||MDC|rsf:gd-|-stype:attr=1|qr_nm:gd|res:RC4|com-cf:nl|ptrs:na|ktp:N0|mc:179372|mtp:S|qry_typ:P|lang:en|wc:3|cs:8894|v=4,Wellness Overseas,https://www.indiamart.com/wellness-overseas/?pos=188&kwd=baby diaper pants&tags=BA||||8601.347|Price|product|||MDC|rsf:gd-|-stype:attr=1|qr_nm:gd|res:RC4|com-cf:nl|ptrs:na|ktp:N0|mc:179372|mtp:S|qry_typ:P|lang:en|wc:3|cs:8894|v=4,False,Durgapura,Jaipur,"122, Arjun Nagar, Durgapura, Durgapura, Jaipur - 302018, Dist.Jaipur, Rajasthan",8047673817,
"Printed Loose Baby Diapers Pants, Medium",https://www.indiamart.com/proddetail/baby-printed-diaper-pants-2854624155697.html?pos=189&kwd=baby diaper pants&tags=BA||||8476.868|Price|product|||MDC|rsf:gd-|-stype:attr=1|qr_nm:gd|res:RC4|com-cf:nl|ptrs:na|ktp:N0|mc:179372|mtp:S|qry_typ:P|lang:en|wc:3|cs:8894|v=4,Relax Dippers & Baby Care,https://www.indiamart.com/relax-dippers-babycare/?pos=189&kwd=baby diaper pants&tags=BA||||8476.868|Price|product|||MDC|rsf:gd-|-stype:attr=1|qr_nm:gd|res:RC4|com-cf:nl|ptrs:na|ktp:N0|mc:179372|mtp:S|qry_typ:P|lang:en|wc:3|cs:8894|v=4,False,,Aurangabad,"CTS No. 1, H.No. 4-11-44/172, Roshan Gate, Chhatrapati Sambhaji Nagar,, Aurangabad - 431001, Maharashtra",7949331198,
"Bumtum Baby Diaper Pants, Age Group: 3to12 Months",https://www.indiamart.com/proddetail/bumtum-baby-diaper-pants-2853984020473.html?pos=190&kwd=baby diaper pants&tags=BA||||8842.817|Price|product|||MDC|rsf:gd-|-stype:attr=1|qr_nm:gd|res:RC4|com-cf:nl|ptrs:na|ktp:N0|mc:179372|mtp:S|qry_typ:P|lang:en|wc:3|cs:8894|v=4,Smiley Ventures,https://www.indiamart.com/smiley-ventures/?pos=190&kwd=baby diaper pants&tags=BA||||8842.817|Price|product|||MDC|rsf:gd-|-stype:attr=1|qr_nm:gd|res:RC4|com-cf:nl|ptrs:na|ktp:N0|mc:179372|mtp:S|qry_typ:P|lang:en|wc:3|cs:8894|v=4,False,Thalavanur,Villupuram,"189/3, Dream Home, Mariyamman Kovil Street ,Annamangalam, Thalavanur, Villupuram - 604210, Dist.Villupuram, Tamil Nadu",8044563922,
Baby Diaper Pants,,AS Enterprises,https://www.indiamart.com/asenterprises-telangana/?pos=191&kwd=baby diaper pants&tags=A||||8786.56||product|||SSnp|rsf:gd-|-stype:attr=1|qr_nm:gd|res:RC4|com-cf:nl|ptrs:na|ktp:N0|mc:179372|mtp:S|qry_typ:P|lang:en|wc:3|cs:8894|v=4,False,Ramanthapur,Hyderabad,"Telangana, Ramanthapur, Hyderabad - 500013, Dist.Hyderabad, Telangana",8048952542,
"Bumtum Baby Diaper Pants singles, Age Group: 1-2 Years",https://www.indiamart.com/proddetail/bumtum-baby-diaper-pants-singles-2852953381197.html?pos=192&kwd=baby diaper pants&tags=BA||||8786.56|Price|product|||MDC|rsf:gd-|-stype:attr=1|qr_nm:gd|res:RC4|com-cf:nl|ptrs:na|ktp:N0|mc:179372|mtp:S|qry_typ:P|lang:en|wc:3|cs:8894|v=4,Aaraniyar Enterprises,https://www.indiamart.com/aaraniyar-enterprises-hyderabad/?pos=192&kwd=baby diaper pants&tags=BA||||8786.56|Price|product|||MDC|rsf:gd-|-stype:attr=1|qr_nm:gd|res:RC4|com-cf:nl|ptrs:na|ktp:N0|mc:179372|mtp:S|qry_typ:P|lang:en|wc:3|cs:8894|v=4,False,Amberpet,Hyderabad,"3-14-36/8/10, Near Yaadaiah Hotel,Vivek Nagar, Amberpet, Ramanthapur, Amberpet, Hyderabad - 500013, Dist.Hyderabad, Telangana",7942717866,
Printed Bonecam baby diaper pants xxxl,https://www.indiamart.com/proddetail/bonecam-baby-diaper-pants-xxxl-2854010509912.html?pos=193&kwd=baby diaper pants&tags=BA||||8231.259|Price|product|||MDC|rsf:gd-|-stype:attr=1|qr_nm:gd|res:RC4|com-cf:nl|ptrs:na|ktp:N0|mc:179372|mtp:S|qry_typ:P|lang:en|wc:3|cs:8894|v=4,Kaker Group,https://www.indiamart.com/kaker-group/?pos=193&kwd=baby diaper pants&tags=BA||||8231.259|Price|product|||MDC|rsf:gd-|-stype:attr=1|qr_nm:gd|res:RC4|com-cf:nl|ptrs:na|ktp:N0|mc:179372|mtp:S|qry_typ:P|lang:en|wc:3|cs:8894|v=4,False,Chavindra Naka,Bhiwandi,"Ghar No 1503/G-06 Tal Majla, Malasiya Sizing Kacheri Pada Nagaon-2,, Chavindra Naka, Bhiwandi - 421302, Maharashtra",8044561428,
High Absorption Baby Diaper Pants,https://www.indiamart.com/proddetail/high-absorption-baby-diaper-pants-22701749930.html?pos=194&kwd=baby diaper pants&tags=BA||||8601.347|Price|product|||MDC|rsf:gd-|-stype:attr=1|qr_nm:gd|res:RC4|com-cf:nl|ptrs:na|ktp:N0|mc:179372|mtp:S|qry_typ:P|lang:en|wc:3|cs:8894|v=4,Fleming Hygiene,https://www.indiamart.com/fleming-hygiene/?pos=194&kwd=baby diaper pants&tags=BA||||8601.347|Price|product|||MDC|rsf:gd-|-stype:attr=1|qr_nm:gd|res:RC4|com-cf:nl|ptrs:na|ktp:N0|mc:179372|mtp:S|qry_typ:P|lang:en|wc:3|cs:8894|v=4,False,Gate,Jaipur,"774 Sanganeri Gate, Gate, Jaipur - 302003, Dist.Jaipur, Rajasthan",8047632456,
"Printed Baby Pant Diapers, Small",https://www.indiamart.com/proddetail/baby-pant-diapers-2854540883673.html?pos=195&kwd=baby diaper pants&tags=BA||||8230.883|Price|product|||MDC|rsf:gd-|-stype:attr=1|qr_nm:gd|res:RC4|com-cf:nl|ptrs:na|ktp:N0|mc:179372|mtp:S|qry_typ:P|lang:en|wc:3|cs:8894|v=4,A To Z Hygiene,https://www.indiamart.com/atozhygiene/?pos=195&kwd=baby diaper pants&tags=BA||||8230.883|Price|product|||MDC|rsf:gd-|-stype:attr=1|qr_nm:gd|res:RC4|com-cf:nl|ptrs:na|ktp:N0|mc:179372|mtp:S|qry_typ:P|lang:en|wc:3|cs:8894|v=4,False,Amroli,Surat,"Flat No. B/1, 101, Part E/7, R.S. No-68, Block No. 89, Shreeji Residency, -, Chhaprabhatha, Amroli, Surat - 394107, Dist.Surat, Gujarat",7942716862,
"Nonwoven Pant Baby Diapers, Size: Small, Packaging Size: 64 Pcs",https://www.indiamart.com/proddetail/pant-baby-diapers-24085248648.html?pos=196&kwd=baby diaper pants&tags=BB||||8752.144|Price|product|||MDC|rsf:gd-|-stype:attr=1|qr_nm:gd|res:RC4|com-cf:nl|ptrs:na|ktp:N0|mc:179372|mtp:S|qry_typ:P|lang:en|wc:3|cs:8894|v=4,Chanda Industries,https://www.indiamart.com/chandaindustries/?pos=196&kwd=baby diaper pants&tags=BB||||8752.144|Price|product|||MDC|rsf:gd-|-stype:attr=1|qr_nm:gd|res:RC4|com-cf:nl|ptrs:na|ktp:N0|mc:179372|mtp:S|qry_typ:P|lang:en|wc:3|cs:8894|v=4,False,Khampur,New Delhi,"Plot No. 2, Khampur Industrial Area GT Karnal Road, Khampur, New Delhi - 110036, Dist.Delhi, Delhi",8046057306,
"Printed Fornt Ultra Soft Baby Diaper Pants, Size: Small",https://www.indiamart.com/proddetail/fornt-ultra-soft-baby-diaper-pants-2851976191630.html?pos=197&kwd=baby diaper pants&tags=BA||||9110.092|Price|product|||MDC|rsf:gd-|-stype:attr=1|qr_nm:gd|res:RC4|com-cf:nl|ptrs:na|ktp:N0|mc:179372|mtp:S|qry_typ:P|lang:en|wc:3|cs:8894|v=4,Hygiene Health Care,https://www.indiamart.com/hygiene-health-care/?pos=197&kwd=baby diaper pants&tags=BA||||9110.092|Price|product|||MDC|rsf:gd-|-stype:attr=1|qr_nm:gd|res:RC4|com-cf:nl|ptrs:na|ktp:N0|mc:179372|mtp:S|qry_typ:P|lang:en|wc:3|cs:8894|v=4,False,Husainabad,Lucknow,"390/29/01, Rustam Nagar Near Bagh Wali Masjid Saadat Ganj, Lucknow, Husainabad, Lucknow - 226003, Dist.Lucknow, Uttar Pradesh",7942866266,
"LuvLap Small Diaper Pants, Age Group: 2 Year",https://www.indiamart.com/proddetail/luvlap-small-diaper-pants-2852984612597.html?pos=198&kwd=baby diaper pants&tags=BA||||8752.144|Price|product|||MDC|rsf:gd-|-stype:attr=1|qr_nm:gd|res:RC4|com-cf:nl|ptrs:na|ktp:N0|mc:179372|mtp:S|qry_typ:P|lang:en|wc:3|cs:8894|v=4,Deep Surgical,https://www.indiamart.com/deepsurgical/?pos=198&kwd=baby diaper pants&tags=BA||||8752.144|Price|product|||MDC|rsf:gd-|-stype:attr=1|qr_nm:gd|res:RC4|com-cf:nl|ptrs:na|ktp:N0|mc:179372|mtp:S|qry_typ:P|lang:en|wc:3|cs:8894|v=4,False,Chandni Chowk,New Delhi,"1933/42, Narayan Bazar, Katra Lachoo Singh, Bhagirath Place, North, Chandni Chowk, New Delhi - 110006, Dist.Delhi, Delhi",7942965243,
"Printed Super Cutes Diaper Pants, Size: Medium",https://www.indiamart.com/proddetail/super-cutes-diaper-pants-2852983889397.html?pos=199&kwd=baby diaper pants&tags=BA||||9301.656|Price|product|||MDC|rsf:gd-|-stype:attr=1|qr_nm:gd|res:RC4|com-cf:nl|ptrs:na|ktp:N0|mc:179372|mtp:S|qry_typ:P|lang:en|wc:3|cs:8894|v=4,Noah Health Care,https://www.indiamart.com/noahhealthcare/?pos=199&kwd=baby diaper pants&tags=BA||||9301.656|Price|product|||MDC|rsf:gd-|-stype:attr=1|qr_nm:gd|res:RC4|com-cf:nl|ptrs:na|ktp:N0|mc:179372|mtp:S|qry_typ:P|lang:en|wc:3|cs:8894|v=4,False,Drmo,Varanasi,"C-32/35 A-3, Habibpura Chandua, Chhittupur, Drmo, Varanasi - 221002, Dist.Varanasi, Uttar Pradesh",7942716722,
Dabur Baby Super Pants,https://www.indiamart.com/proddetail/dabur-baby-super-pants-2853204528130.html?pos=200&kwd=baby diaper pants&tags=BA||||8740.707|Price|product|||MDC|rsf:gd-|-stype:attr=1|qr_nm:gd|res:RC4|com-cf:nl|ptrs:na|ktp:N0|mc:179372|mtp:S|qry_typ:P|lang:en|wc:3|cs:8894|v=4,Smridhi Achat,https://www.indiamart.com/smridhi-achat/?pos=200&kwd=baby diaper pants&tags=BA||||8740.707|Price|product|||MDC|rsf:gd-|-stype:attr=1|qr_nm:gd|res:RC4|com-cf:nl|ptrs:na|ktp:N0|mc:179372|mtp:S|qry_typ:P|lang:en|wc:3|cs:8894|v=4,False,Zirakpur,Sas Nagar,"H . No. 791, Aks-3, Zirakpur, Zirakpur, Sas Nagar - 140603, Dist.Mohali, Punjab",7948548899,
Mamy Poko Pants Baby Diapers Small std 42,https://www.indiamart.com/proddetail/mamy-poko-pants-baby-diapers-small-std-42-2848977818412.html?pos=201&kwd=baby diaper pants&tags=BA||||8507.67|Price|product|||MDC|rsf:gd-|-stype:attr=1|qr_nm:gd|res:RC4|com-cf:nl|ptrs:na|ktp:N0|mc:179372|mtp:S|qry_typ:P|lang:en|wc:3|cs:8894|v=4,Roys Surgicals,https://www.indiamart.com/royssurgicals/?pos=201&kwd=baby diaper pants&tags=BA||||8507.67|Price|product|||MDC|rsf:gd-|-stype:attr=1|qr_nm:gd|res:RC4|com-cf:nl|ptrs:na|ktp:N0|mc:179372|mtp:S|qry_typ:P|lang:en|wc:3|cs:8894|v=4,False,Thrippunithura,Ernakulam,"11/ 305A, Thekkinethu, Sea Port Airport Road Irimpanam, Thrippunithura, Ernakulam - 682309, Dist.Ernakulam, Kerala",8047630278,
"White Disposable Cotton Baby Diapers Pants, Size: Medium",https://www.indiamart.com/proddetail/disposable-cotton-baby-diapers-pants-2854082661230.html?pos=202&kwd=baby diaper pants&tags=BA||||9180.034|Price|product|||MDC|rsf:gd-|-stype:attr=1|qr_nm:gd|res:RC4|com-cf:nl|ptrs:na|ktp:N0|mc:179372|mtp:S|qry_typ:P|lang:en|wc:3|cs:8894|v=4,U & G Healthcare,https://www.indiamart.com/ug-healthcare/?pos=202&kwd=baby diaper pants&tags=BA||||9180.034|Price|product|||MDC|rsf:gd-|-stype:attr=1|qr_nm:gd|res:RC4|com-cf:nl|ptrs:na|ktp:N0|mc:179372|mtp:S|qry_typ:P|lang:en|wc:3|cs:8894|v=4,False,South,Bahraich,"Kanoongapura South Infront Of Mahila Hospita Gate, South, Bahraich - 271801, Dist.Bahraich, Uttar Pradesh",8044561766,
Plain XL Dabur Baby Super Pant,https://www.indiamart.com/proddetail/xl-dabur-baby-super-pant-2850751272855.html?pos=203&kwd=baby diaper pants&tags=BA||||8458.681|Price|product|||MDC|rsf:gd-|-stype:attr=1|qr_nm:gd|res:RC4|com-cf:nl|ptrs:na|ktp:N0|mc:179372|mtp:S|qry_typ:P|lang:en|wc:3|cs:8894|v=4,Rishi Pharma,https://www.indiamart.com/rishi-pharma-rajasthan/?pos=203&kwd=baby diaper pants&tags=BA||||8458.681|Price|product|||MDC|rsf:gd-|-stype:attr=1|qr_nm:gd|res:RC4|com-cf:nl|ptrs:na|ktp:N0|mc:179372|mtp:S|qry_typ:P|lang:en|wc:3|cs:8894|v=4,False,Old City,Sri Ganganagar,"Second Block, Shop No. 5, Purani Abadi, Old City, Sri Ganganagar - 335001, Dist.Bikaner, Rajasthan",7942967404,
"Plain Little's L Superjumbo Comfy Baby Pants, Packaging Size: Large",https://www.indiamart.com/proddetail/little-s-l-superjumbo-comfy-baby-pants-2853434252073.html?pos=204&kwd=baby diaper pants&tags=BA||||8752.144|Price|product|||MDC|rsf:gd-|-stype:attr=1|qr_nm:gd|res:RC4|com-cf:nl|ptrs:na|ktp:N0|mc:179372|mtp:S|qry_typ:P|lang:en|wc:3|cs:8894|v=4,Balaji Solutions,https://www.indiamart.com/balaji-solutionsdelhi/?pos=204&kwd=baby diaper pants&tags=BA||||8752.144|Price|product|||MDC|rsf:gd-|-stype:attr=1|qr_nm:gd|res:RC4|com-cf:nl|ptrs:na|ktp:N0|mc:179372|mtp:S|qry_typ:P|lang:en|wc:3|cs:8894|v=4,False,Mohan Garden,New Delhi,"Plot P-153 SF Back Side Kh No-25/12, Mohan Garden Near, West Delhi, Mohan Garden, New Delhi - 110059, Dist.Delhi, Delhi",8047654514,
"Plain New Born Baby Diaper Pant, Packaging Size: 84 Pants",https://www.indiamart.com/proddetail/new-born-baby-diaper-pant-2850666180697.html?pos=205&kwd=baby diaper pants&tags=BA||||8211.142|Price|product|||MDC|rsf:gd-|-stype:attr=1|qr_nm:gd|res:RC4|com-cf:nl|ptrs:na|ktp:N0|mc:179372|mtp:S|qry_typ:P|lang:en|wc:3|cs:8894|v=4,H M H Corporation,https://www.indiamart.com/hmhcorporation/?pos=205&kwd=baby diaper pants&tags=BA||||8211.142|Price|product|||MDC|rsf:gd-|-stype:attr=1|qr_nm:gd|res:RC4|com-cf:nl|ptrs:na|ktp:N0|mc:179372|mtp:S|qry_typ:P|lang:en|wc:3|cs:8894|v=4,False,Grant Road,Mumbai,"3B/ Plot No-3, Ground Floor, LNH Orphanage Compound, KM Munshi Marg, Babulnath Temple, Grant Road, Grant Road, Mumbai - 400007, Dist.Mumbai, Maharashtra",7942959739,
Printed Loose Baby Diaper Pant Style XL 6 PCS Packing,https://www.indiamart.com/proddetail/printed-loose-baby-diaper-pant-style-xl-6-pcs-packing-2854951862033.html?pos=206&kwd=baby diaper pants&tags=BB||||8038.093|Price|product|||MDC|rsf:gd-|-stype:attr=1|qr_nm:gd|res:RC4|com-cf:nl|ptrs:na|ktp:N0|mc:179372|mtp:S|qry_typ:P|lang:en|wc:3|cs:8894|v=4,Siyaram Enterprise,https://www.indiamart.com/siyaramenterprise/?pos=206&kwd=baby diaper pants&tags=BB||||8038.093|Price|product|||MDC|rsf:gd-|-stype:attr=1|qr_nm:gd|res:RC4|com-cf:nl|ptrs:na|ktp:N0|mc:179372|mtp:S|qry_typ:P|lang:en|wc:3|cs:8894|v=4,False,Mavdi,Rajkot,"2016/0011387, Mavdi Vistar, Street No-15, Mavdi, Rajkot - 360004, Dist.Rajkot, Gujarat",8044012484,
Plain Small Go Diapers Kids Premium Dry Pants,https://www.indiamart.com/proddetail/small-go-diapers-kids-premium-dry-pants-2852670744188.html?pos=207&kwd=baby diaper pants&tags=BA||||9110.092|Price|product|||MDC|rsf:gd-|-stype:attr=1|qr_nm:gd|res:RC4|com-cf:nl|ptrs:na|ktp:N0|mc:179372|mtp:S|qry_typ:P|lang:en|wc:3|cs:8894|v=4,Singh Associates,https://www.indiamart.com/singhassociateslucknow/?pos=207&kwd=baby diaper pants&tags=BA||||9110.092|Price|product|||MDC|rsf:gd-|-stype:attr=1|qr_nm:gd|res:RC4|com-cf:nl|ptrs:na|ktp:N0|mc:179372|mtp:S|qry_typ:P|lang:en|wc:3|cs:8894|v=4,False,Hind Nagar,Lucknow,"First Floor, G-4, Transportnagar, Hind Nagar, Lucknow - 226012, Dist.Lucknow, Uttar Pradesh",7942716162,
"Plain Extra Care L Pant Type Diaper, Packaging Size: Large",https://www.indiamart.com/proddetail/extra-care-l-pant-type-diaper-2852909403533.html?pos=208&kwd=baby diaper pants&tags=BA||||8231.259|Price|product|||MDC|rsf:gd-|-stype:attr=1|qr_nm:gd|res:RC4|com-cf:nl|ptrs:na|ktp:N0|mc:179372|mtp:S|qry_typ:P|lang:en|wc:3|cs:8894|v=4,Zenterprises,https://www.indiamart.com/z-enterprises-bhiwandi/?pos=208&kwd=baby diaper pants&tags=BA||||8231.259|Price|product|||MDC|rsf:gd-|-stype:attr=1|qr_nm:gd|res:RC4|com-cf:nl|ptrs:na|ktp:N0|mc:179372|mtp:S|qry_typ:P|lang:en|wc:3|cs:8894|v=4,False,Hari Om Naka,Bhiwandi,"H No.1145/1, Nagaon-I, Bharat Compound Kalyan Road, Hari Om Naka, Bhiwandi - 421302, Maharashtra",8047665880,
Plain Little Angel Baby M 16 Diaper Pant,https://www.indiamart.com/proddetail/little-angel-baby-m-16-diaper-pant-2852869201030.html?pos=209&kwd=baby diaper pants&tags=BA||||8741.812|Price|product|||MDC|rsf:gd-|-stype:attr=1|qr_nm:gd|res:RC4|com-cf:nl|ptrs:na|ktp:N0|mc:179372|mtp:S|qry_typ:P|lang:en|wc:3|cs:8894|v=4,Mahak Enterprises,https://www.indiamart.com/mahak-enterprises-gurugram/?pos=209&kwd=baby diaper pants&tags=BA||||8741.812|Price|product|||MDC|rsf:gd-|-stype:attr=1|qr_nm:gd|res:RC4|com-cf:nl|ptrs:na|ktp:N0|mc:179372|mtp:S|qry_typ:P|lang:en|wc:3|cs:8894|v=4,False,Sector 9,Gurugram,"27, Gali number 1, Shiv Enclave Ghamroj , Mahendwara, Sector 9, Gurugram - 122102, Dist.Gurgaon, Haryana",7942967507,
"Printed L Feel Sky Baby Dipper Pant, Size: Large",https://www.indiamart.com/proddetail/l-feel-sky-baby-dipper-pant-2852815197673.html?pos=210&kwd=baby diaper pants&tags=BA||||9017.212|Price|product|||MDC|rsf:gd-|-stype:attr=1|qr_nm:gd|res:RC4|com-cf:nl|ptrs:na|ktp:N0|mc:179372|mtp:S|qry_typ:P|lang:en|wc:3|cs:8894|v=4,Rathour Pharma Private Limited,https://www.indiamart.com/rathourpharma/?pos=210&kwd=baby diaper pants&tags=BA||||9017.212|Price|product|||MDC|rsf:gd-|-stype:attr=1|qr_nm:gd|res:RC4|com-cf:nl|ptrs:na|ktp:N0|mc:179372|mtp:S|qry_typ:P|lang:en|wc:3|cs:8894|v=4,False,Nigohi,Shahjahanpur,"C/O Hari Sharan, Powayan Road, Nigohi, Near Railway Crossing, Shahzadpur,, Nigohi, Shahjahanpur - 242407, Uttar Pradesh",7942967102,
