product_title,product_link,company_name,company_link,is_verified_exporter,city_region,city,address_details,phone_number,phone_number_extension
Multicolor Baby Comforter,https://www.indiamart.com/proddetail/baby-comforter-2854456693933.html?pos=1&kwd=baby comforter&tags=A||||8747.203|Price|product|||TS|rsf:gd-|-stype:attr=1|qr_nm:gd|res:RC3|com-cf:nl|ptrs:na|ktp:N0|mc:55652|mtp:S|qry_typ:P|lang:en|wc:2|flavl:0|cs:9601|v=4,Pawansut Enterprises,https://www.indiamart.com/pawansutenterprises-panipat/?pos=1&kwd=baby comforter&tags=A||||8747.203|Price|product|||TS|rsf:gd-|-stype:attr=1|qr_nm:gd|res:RC3|com-cf:nl|ptrs:na|ktp:N0|mc:55652|mtp:S|qry_typ:P|lang:en|wc:2|flavl:0|cs:9601|v=4,False,Netaji Colony,Panipat,"179 Virat Nagar,,Model Town,Panipat, Netaji Colony, Panipat - 132103, Dist.Panipat, Haryana",7942956898,
Printed Multicolor Micro Kids Print Comforter,https://www.indiamart.com/proddetail/micro-kids-print-comforter-12299912491.html?pos=2&kwd=baby comforter&tags=A||||8601.347|Price|product|||TS|rsf:gd-|-stype:attr=1|qr_nm:gd|res:RC3|com-cf:nl|ptrs:na|ktp:N0|mc:55652|mtp:S|qry_typ:P|lang:en|wc:2|flavl:0|cs:9601|v=4,Vicky Garments,https://www.hotellinenmanufacturer.com/?pos=2&kwd=baby comforter&tags=A||||8601.347|Price|product|||TS|rsf:gd-|-stype:attr=1|qr_nm:gd|res:RC3|com-cf:nl|ptrs:na|ktp:N0|mc:55652|mtp:S|qry_typ:P|lang:en|wc:2|flavl:0|cs:9601|v=4,False,Jhotwara,Jaipur,"No. 82, Ganga Vihar Colony, Nagal Jaisa Bohra Dadi Ka Phatak, Jhotwara, Jaipur - 302012, Dist.Jaipur, Rajasthan",8046042378,
Organic Baby soft Comforter,https://www.indiamart.com/proddetail/baby-soft-comforter-2852593419562.html?pos=3&kwd=baby comforter&tags=BA||||8954.051|Price|product|||TS|rsf:gd-|-stype:attr=1|qr_nm:gd|res:RC3|com-cf:nl|ptrs:na|ktp:N0|mc:55652|mtp:S|qry_typ:P|lang:en|wc:2|flavl:0|cs:9601|v=4,Tetra Clothing,https://www.tetraclothing.in/?pos=3&kwd=baby comforter&tags=BA||||8954.051|Price|product|||TS|rsf:gd-|-stype:attr=1|qr_nm:gd|res:RC3|com-cf:nl|ptrs:na|ktp:N0|mc:55652|mtp:S|qry_typ:P|lang:en|wc:2|flavl:0|cs:9601|v=4,True,Gopichettipalaiyam,Chennai,"No. 59/28, Balu Building, Gopichettipalaiyam, Chennai - 638476, Dist.Chennai, Tamil Nadu",8048957951,
TexKing Blue Toys Design Cotton Kids Single Bed Comforter,https://www.indiamart.com/proddetail/toys-design-cotton-kids-single-bed-comforter-2854267068930.html?pos=4&kwd=baby comforter&tags=A||||8747.203|Price|product|||TS|rsf:gd-|-stype:attr=1|qr_nm:gd|res:RC3|com-cf:nl|ptrs:na|ktp:N0|mc:55652|mtp:S|qry_typ:P|lang:en|wc:2|flavl:0|cs:9601|v=4,Sri Siddhivinayak Associates,https://www.indiamart.com/sri-siddhivinayak-associates-panipat/?pos=4&kwd=baby comforter&tags=A||||8747.203|Price|product|||TS|rsf:gd-|-stype:attr=1|qr_nm:gd|res:RC3|com-cf:nl|ptrs:na|ktp:N0|mc:55652|mtp:S|qry_typ:P|lang:en|wc:2|flavl:0|cs:9601|v=4,False,,Panipat,"7,Hali Park Shopping Complex,Industrial Area,Panipat, Panipat - 132103, Dist.Panipat, Haryana",8045736424,
"Oscar Red & White Soft Baby Blanket Double Layer, 0-2 Years, Size: 28 X 39",https://www.indiamart.com/proddetail/soft-baby-blanket-double-layer-13255708855.html?pos=5&kwd=baby comforter&tags=BA||||8778.123|Price|product|||TS|rsf:gd-|-stype:attr=1|qr_nm:gd|res:RC3|com-cf:nl|ptrs:na|ktp:N0|mc:55652|mtp:S|qry_typ:P|lang:en|wc:2|flavl:0|cs:9601|v=4,Oscar Overseas,https://www.oscar-india.com/?pos=5&kwd=baby comforter&tags=BA||||8778.123|Price|product|||TS|rsf:gd-|-stype:attr=1|qr_nm:gd|res:RC3|com-cf:nl|ptrs:na|ktp:N0|mc:55652|mtp:S|qry_typ:P|lang:en|wc:2|flavl:0|cs:9601|v=4,False,,Noida,"A-99 Sector 5, Noida - 201301, Dist.Gautam Budh Nagar, Uttar Pradesh",8046058290,
Cotton Blue Baby Comforter 2 layer,https://www.indiamart.com/proddetail/baby-comforter-2-layer-2853000227988.html?pos=6&kwd=baby comforter&tags=BA||||8211.142|Price|product|||TS|rsf:gd-|-stype:attr=1|qr_nm:gd|res:RC3|com-cf:nl|ptrs:na|ktp:N0|mc:55652|mtp:S|qry_typ:P|lang:en|wc:2|flavl:0|cs:9601|v=4,P For Panda Baby Products Private Limited,https://www.p4pandababyproducts.com/?pos=6&kwd=baby comforter&tags=BA||||8211.142|Price|product|||TS|rsf:gd-|-stype:attr=1|qr_nm:gd|res:RC3|com-cf:nl|ptrs:na|ktp:N0|mc:55652|mtp:S|qry_typ:P|lang:en|wc:2|flavl:0|cs:9601|v=4,False,Goregaon West,Mumbai,"904 A Wing,9 Th Floor,Triple S Heights,Jakeria Road, Goregaon West, Mumbai - 400064, Dist.Mumbai, Maharashtra",7942710871,
"Cotton Multicolor Hand Block Print Baby Quilts, 40x60, Jaipuri Designs",https://www.indiamart.com/proddetail/hand-block-print-baby-quilts-2852946997730.html?pos=7&kwd=baby comforter&tags=BA||||8601.347|Price|product|||TS|rsf:gd-|-stype:attr=1|qr_nm:gd|res:RC3|com-cf:nl|ptrs:na|ktp:N0|mc:55652|mtp:S|qry_typ:P|lang:en|wc:2|flavl:0|cs:9601|v=4,Veer Handircrafts,https://www.veerhandicrafts.com/?pos=7&kwd=baby comforter&tags=BA||||8601.347|Price|product|||TS|rsf:gd-|-stype:attr=1|qr_nm:gd|res:RC3|com-cf:nl|ptrs:na|ktp:N0|mc:55652|mtp:S|qry_typ:P|lang:en|wc:2|flavl:0|cs:9601|v=4,True,Shyam Nagar,Jaipur,"Basement, 192/331, Sector 19, Kumbha Marg, Shyam Nagar, Jaipur - 302029, Dist.Jaipur, Rajasthan",8043851762,
Printed Multicolor Cotton Baby Comforter,https://www.indiamart.com/proddetail/cotton-baby-comforter-2854268065091.html?pos=8&kwd=baby comforter&tags=A||||8838.804|Price|product|||MDC|rsf:gd-|-stype:attr=1|qr_nm:gd|res:RC3|com-cf:nl|ptrs:na|ktp:N0|mc:55652|mtp:S|qry_typ:P|lang:en|wc:2|flavl:0|cs:9601|v=4,Fabric Fusion,https://www.indiamart.com/fabric-fusion-up/?pos=8&kwd=baby comforter&tags=A||||8838.804|Price|product|||MDC|rsf:gd-|-stype:attr=1|qr_nm:gd|res:RC3|com-cf:nl|ptrs:na|ktp:N0|mc:55652|mtp:S|qry_typ:P|lang:en|wc:2|flavl:0|cs:9601|v=4,False,,Aligarh,"Duplex No 1, Next to Green Park Masjid, Green Park Colony, Aligarh - 202001, Uttar Pradesh",8044560687,
Super soft Baby Quilt high quality 100% cotton baby blanket Quilted soft comforter for baby,https://www.indiamart.com/proddetail/super-soft-baby-quilt-high-quality-100-cotton-baby-blanket-quilted-soft-comforter-for-baby-19129133973.html?pos=9&kwd=baby comforter&tags=BB||||8601.347|Price|product|||TS|rsf:gd-|-stype:attr=1|qr_nm:gd|res:RC3|com-cf:nl|ptrs:na|ktp:N0|mc:55652|mtp:S|qry_typ:P|lang:en|wc:2|flavl:0|cs:9601|v=4,DVK Handicraft Private Limited,https://www.dvkhandicraft.net/?pos=9&kwd=baby comforter&tags=BB||||8601.347|Price|product|||TS|rsf:gd-|-stype:attr=1|qr_nm:gd|res:RC3|com-cf:nl|ptrs:na|ktp:N0|mc:55652|mtp:S|qry_typ:P|lang:en|wc:2|flavl:0|cs:9601|v=4,True,Vaishali Nagar,Jaipur,"B-24, Ground Floor Lalrpura Aayodhya Nagar Vaisha Gandhi Path, Vaishali Nagar, Vaishali Nagar, Jaipur - 302021, Dist.Jaipur, Rajasthan",8048608928,
SS 2 Cotton Comforters,https://www.indiamart.com/proddetail/cotton-comforters-2853998489955.html?pos=10&kwd=baby comforter&tags=A||||8747.203|Price|product|||TS|rsf:gd-|-stype:attr=1|qr_nm:gd|res:RC3|com-cf:nl|ptrs:na|ktp:N0|mc:55652|mtp:S|qry_typ:P|lang:en|wc:2|flavl:0|cs:9601|v=4,GNK Enterprises,https://www.gnkenterprises.in/?pos=10&kwd=baby comforter&tags=A||||8747.203|Price|product|||TS|rsf:gd-|-stype:attr=1|qr_nm:gd|res:RC3|com-cf:nl|ptrs:na|ktp:N0|mc:55652|mtp:S|qry_typ:P|lang:en|wc:2|flavl:0|cs:9601|v=4,False,Panipat N.S.M.,Panipat,"Shop No. 219, New Sabji Mandi, Panipat N.S.M., Panipat - 132103, Dist.Panipat, Haryana",8048610352,
Cotton Multicolor Baby Comforter Set,https://www.indiamart.com/proddetail/baby-comforter-set-2854767274548.html?pos=11&kwd=baby comforter&tags=A||||8747.203|Price|product|||MDC|rsf:gd-|-stype:attr=1|qr_nm:gd|res:RC3|com-cf:nl|ptrs:na|ktp:N0|mc:55652|mtp:S|qry_typ:P|lang:en|wc:2|flavl:0|cs:9601|v=4,Satya Sai Handloom,https://www.satyasaihandlooms.com/?pos=11&kwd=baby comforter&tags=A||||8747.203|Price|product|||MDC|rsf:gd-|-stype:attr=1|qr_nm:gd|res:RC3|com-cf:nl|ptrs:na|ktp:N0|mc:55652|mtp:S|qry_typ:P|lang:en|wc:2|flavl:0|cs:9601|v=4,False,Shastri Colony,Panipat,"775/7,Amar Bhawan Chowk, Shastri Colony, Panipat - 132103, Dist.Panipat, Haryana",7942841137,
Baby Printed Comforters,https://www.indiamart.com/proddetail/baby-printed-comforters-23969871988.html?pos=12&kwd=baby comforter&tags=BA||||8601.347|Price|product|||TS|rsf:gd-|-stype:attr=1|qr_nm:gd|res:RC3|com-cf:nl|ptrs:na|ktp:N0|mc:55652|mtp:S|qry_typ:P|lang:en|wc:2|flavl:0|cs:9601|v=4,Ramanand Industries,https://www.ramanandindustries.com/?pos=12&kwd=baby comforter&tags=BA||||8601.347|Price|product|||TS|rsf:gd-|-stype:attr=1|qr_nm:gd|res:RC3|com-cf:nl|ptrs:na|ktp:N0|mc:55652|mtp:S|qry_typ:P|lang:en|wc:2|flavl:0|cs:9601|v=4,False,Mukundpura,Jaipur,"RIICO Industrial Area, F-151, Village Heerawala, Mukundpura, Jaipur - 303012, Dist.Jaipur, Rajasthan",8048986941,
Kids Comforter,https://www.indiamart.com/proddetail/kids-comforter-22805080988.html?pos=13&kwd=baby comforter&tags=BA||||8747.203|Price|product|||TS|rsf:gd-|-stype:attr=1|qr_nm:gd|res:RC3|com-cf:nl|ptrs:na|ktp:N0|mc:55652|mtp:S|qry_typ:P|lang:en|wc:2|flavl:0|cs:9601|v=4,Muskan Collections,https://www.indiamart.com/muskan-collections-haryana/?pos=13&kwd=baby comforter&tags=BA||||8747.203|Price|product|||TS|rsf:gd-|-stype:attr=1|qr_nm:gd|res:RC3|com-cf:nl|ptrs:na|ktp:N0|mc:55652|mtp:S|qry_typ:P|lang:en|wc:2|flavl:0|cs:9601|v=4,False,Kabul Bagh,Panipat,"GALI NO 3 UGRA KHERI MOD, Kabul Bagh, Panipat - 132103, Dist.Panipat, Haryana",8047633020,
meenu's Multicolor Baby New Born Cotton Quilts With Bolsters,https://www.indiamart.com/proddetail/baby-new-born-cotton-quilts-with-bolsters-2851565206673.html?pos=14&kwd=baby comforter&tags=BB||||8668.838|Price|product|||TS|rsf:gd-|-stype:attr=1|qr_nm:gd|res:RC3|com-cf:nl|ptrs:na|ktp:N0|mc:55652|mtp:S|qry_typ:P|lang:en|wc:2|flavl:0|cs:9601|v=4,Meenu's Manchesters,https://www.hotelbedsheet.in/?pos=14&kwd=baby comforter&tags=BB||||8668.838|Price|product|||TS|rsf:gd-|-stype:attr=1|qr_nm:gd|res:RC3|com-cf:nl|ptrs:na|ktp:N0|mc:55652|mtp:S|qry_typ:P|lang:en|wc:2|flavl:0|cs:9601|v=4,False,Edayankattuvalsu,Erode,"26, Nggo Colony, 1, Edayankattuvalsu, Erode - 638009, Dist.Erode, Tamil Nadu",8048609221,
Indigo Blue Hand Block Print Cotton Baby Quilts,https://www.indiamart.com/proddetail/hand-block-print-cotton-baby-quilts-22187522030.html?pos=15&kwd=baby comforter&tags=BB||||8601.347|Price|product|||TS|rsf:gd-|-stype:attr=1|qr_nm:gd|res:RC3|com-cf:nl|ptrs:na|ktp:N0|mc:55652|mtp:S|qry_typ:P|lang:en|wc:2|cs:8838|v=4,Shree Handicrafts And Textile,https://www.craftofpinkcity.co.in/?pos=15&kwd=baby comforter&tags=BB||||8601.347|Price|product|||TS|rsf:gd-|-stype:attr=1|qr_nm:gd|res:RC3|com-cf:nl|ptrs:na|ktp:N0|mc:55652|mtp:S|qry_typ:P|lang:en|wc:2|cs:8838|v=4,True,Sita Ram Colony,Jaipur,"Plot No 20 -21, 80 Ft Road, Chhabra Marg opp. Sita Devi Hospital, Hawa Sadak, Sita Ram Colony, Jaipur - 302019, Dist.Jaipur, Rajasthan",8046035658,
Baby Comforter,https://www.indiamart.com/proddetail/baby-comforter-2853906064748.html?pos=16&kwd=baby comforter&tags=BA||||8747.203|Price|product|||TS|rsf:gd-|-stype:attr=1|qr_nm:gd|res:RC3|com-cf:nl|ptrs:na|ktp:N0|mc:55652|mtp:S|qry_typ:P|lang:en|wc:2|cs:8838|v=4,Shiv Textiles,https://www.indiamart.com/shivtextilespanipat/?pos=16&kwd=baby comforter&tags=BA||||8747.203|Price|product|||TS|rsf:gd-|-stype:attr=1|qr_nm:gd|res:RC3|com-cf:nl|ptrs:na|ktp:N0|mc:55652|mtp:S|qry_typ:P|lang:en|wc:2|cs:8838|v=4,False,Jagjivan Ram Colony,Panipat,"Shop No.19-C, Aggarwal Gali Number 1, Gohana Road, Jagjivan Ram Colony, Panipat - 132103, Dist.Panipat, Haryana",7942665530,
Cotton Baby Set Comforter,https://www.indiamart.com/proddetail/baby-set-comforter-23949222062.html?pos=17&kwd=baby comforter&tags=BA||||8747.203|Price|product|||TS|rsf:gd-|-stype:attr=1|qr_nm:gd|res:RC3|com-cf:nl|ptrs:na|ktp:N0|mc:55652|mtp:S|qry_typ:P|lang:en|wc:2|cs:8838|v=4,Samraj Home Decor,https://www.samrajhomedecor.com/?pos=17&kwd=baby comforter&tags=BA||||8747.203|Price|product|||TS|rsf:gd-|-stype:attr=1|qr_nm:gd|res:RC3|com-cf:nl|ptrs:na|ktp:N0|mc:55652|mtp:S|qry_typ:P|lang:en|wc:2|cs:8838|v=4,False,Chowk,Panipat,"945/8, Sanoli Road, Near Bhim Goda Chowk, Chowk, Panipat - 132103, Dist.Panipat, Haryana",8046065498,
Cotton Blue And Green Baby Bedding Comforter,https://www.indiamart.com/proddetail/baby-bedding-comforter-23093090430.html?pos=18&kwd=baby comforter&tags=BA||||8307.81|Price|product|||TS|rsf:gd-|-stype:attr=1|qr_nm:gd|res:RC3|com-cf:nl|ptrs:na|ktp:N0|mc:55652|mtp:S|qry_typ:P|lang:en|wc:2|cs:8838|v=4,Lazytoddler Solutions Private Limited,https://www.indiamart.com/lazytoddler-solutions/?pos=18&kwd=baby comforter&tags=BA||||8307.81|Price|product|||TS|rsf:gd-|-stype:attr=1|qr_nm:gd|res:RC3|com-cf:nl|ptrs:na|ktp:N0|mc:55652|mtp:S|qry_typ:P|lang:en|wc:2|cs:8838|v=4,False,Wakad,Pune,"A2-1001, Fl-A1, Behind Madhuban Hotel, S.No-40, Armada Parkhe Wasti, Wakad, Wakad, Pune - 411057, Dist.Pune, Maharashtra",8043819563,
Cottion Yellow Cotton Baby single comforter,https://www.indiamart.com/proddetail/cotton-baby-single-comforter-26933919430.html?pos=19&kwd=baby comforter&tags=BA||||8601.347|Price|product|||TS|rsf:gd-|-stype:attr=1|qr_nm:gd|res:RC3|com-cf:nl|ptrs:na|ktp:N0|mc:55652|mtp:S|qry_typ:P|lang:en|wc:2|cs:8838|v=4,RR Creations,https://www.rrcreation.co.in/?pos=19&kwd=baby comforter&tags=BA||||8601.347|Price|product|||TS|rsf:gd-|-stype:attr=1|qr_nm:gd|res:RC3|com-cf:nl|ptrs:na|ktp:N0|mc:55652|mtp:S|qry_typ:P|lang:en|wc:2|cs:8838|v=4,False,Raghunathgarh,Jaipur,"A7D, Raghunath Colony, Galta Gate, Raghunathgarh, Jaipur - 302003, Dist.Jaipur, Rajasthan",8047620731,
Polyester Pink Baby Comforter in Prints and colors,https://www.indiamart.com/proddetail/baby-comforter-in-prints-and-colors-2854225168473.html?pos=20&kwd=baby comforter&tags=BA||||8668.838|Price|product|||TS|rsf:gd-|-stype:attr=1|qr_nm:gd|res:RC3|com-cf:nl|ptrs:na|ktp:N0|mc:55652|mtp:S|qry_typ:P|lang:en|wc:2|cs:8838|v=4,Manish Mills,https://www.manishmills.in/?pos=20&kwd=baby comforter&tags=BA||||8668.838|Price|product|||TS|rsf:gd-|-stype:attr=1|qr_nm:gd|res:RC3|com-cf:nl|ptrs:na|ktp:N0|mc:55652|mtp:S|qry_typ:P|lang:en|wc:2|cs:8838|v=4,False,Erode Fort,Erode,"Suki Towers, No. 261, Easwaran Koil Street, Erode Fort, Erode - 638001, Dist.Erode, Tamil Nadu",8048961063,
Hand Block Printed Cotton Baby Comforter manufacturer,https://www.indiamart.com/proddetail/hand-block-printed-cotton-baby-comforter-manufacturer-2851690543862.html?pos=21&kwd=baby comforter&tags=BA||||8601.347|Price|product|||TS|rsf:gd-|-stype:attr=1|qr_nm:gd|res:RC3|com-cf:nl|ptrs:na|ktp:N0|mc:55652|mtp:S|qry_typ:P|lang:en|wc:2|cs:8838|v=4,Vandana Handicraft,https://www.vandanahandicraft.net/?pos=21&kwd=baby comforter&tags=BA||||8601.347|Price|product|||TS|rsf:gd-|-stype:attr=1|qr_nm:gd|res:RC3|com-cf:nl|ptrs:na|ktp:N0|mc:55652|mtp:S|qry_typ:P|lang:en|wc:2|cs:8838|v=4,True,Sitapura Industrial Area,Jaipur,"Plot No. H-1167, Sitapura Industrial Area, Phase III, Sitapura Industrial Area, Jaipur - 302022, Dist.Jaipur, Rajasthan",8046049036,
Multicolor Kids Comforter,https://www.indiamart.com/proddetail/kids-comforter-2853566835097.html?pos=22&kwd=baby comforter&tags=BA||||8747.203|Price|product|||TS|rsf:gd-|-stype:attr=1|qr_nm:gd|res:RC3|com-cf:nl|ptrs:na|ktp:N0|mc:55652|mtp:S|qry_typ:P|lang:en|wc:2|cs:8838|v=4,ANB Handlooms,https://www.femfairy.com/?pos=22&kwd=baby comforter&tags=BA||||8747.203|Price|product|||TS|rsf:gd-|-stype:attr=1|qr_nm:gd|res:RC3|com-cf:nl|ptrs:na|ktp:N0|mc:55652|mtp:S|qry_typ:P|lang:en|wc:2|cs:8838|v=4,False,Chadau Mohalla,Panipat,"455/9, Sanoli Road, Chadau Mohalla, Panipat - 132103, Dist.Panipat, Haryana",7942544537,
Kids Comforter,https://www.indiamart.com/proddetail/kids-comforter-26247005933.html?pos=23&kwd=baby comforter&tags=BB||||8747.203|Price|product|||TS|rsf:gd-|-stype:attr=1|qr_nm:gd|res:RC3|com-cf:nl|ptrs:na|ktp:N0|mc:55652|mtp:S|qry_typ:P|lang:en|wc:2|cs:8838|v=4,R.K.Textiles,https://www.indiamart.com/rktextilespanipat/?pos=23&kwd=baby comforter&tags=BB||||8747.203|Price|product|||TS|rsf:gd-|-stype:attr=1|qr_nm:gd|res:RC3|com-cf:nl|ptrs:na|ktp:N0|mc:55652|mtp:S|qry_typ:P|lang:en|wc:2|cs:8838|v=4,False,Kabul Bagh,Panipat,"Ground Floor, 304/7, Ram Mandir, Ram Mandir Wali Gali, Kabul Bagh, Panipat - 132103, Dist.Panipat, Haryana",8047648303,
"100% Natural Organic Cotton Multicolor Handmade Soft Comfortable Baby Quilt, Printed",https://www.indiamart.com/proddetail/handmade-soft-comfortable-baby-quilt-2850385819530.html?pos=24&kwd=baby comforter&tags=BA||||8601.347|Price|product|||TS|rsf:gd-|-stype:attr=1|qr_nm:gd|res:RC3|com-cf:nl|ptrs:na|ktp:N0|mc:55652|mtp:S|qry_typ:P|lang:en|wc:2|cs:8838|v=4,Trade Star Exports,https://www.tradestar.co.in/?pos=24&kwd=baby comforter&tags=BA||||8601.347|Price|product|||TS|rsf:gd-|-stype:attr=1|qr_nm:gd|res:RC3|com-cf:nl|ptrs:na|ktp:N0|mc:55652|mtp:S|qry_typ:P|lang:en|wc:2|cs:8838|v=4,True,,Jaipur,"H 1 1256, Riico Industrial Area, Sitapura,, Jaipur - 302022, Dist.Jaipur, Rajasthan",8046033994,
"White Cotton Muslin Baby Swaddles, Size: Singe",https://www.indiamart.com/proddetail/cotton-muslin-baby-swaddles-2851759300348.html?pos=25&kwd=baby comforter&tags=BA||||8668.838|Price|product|||TS|rsf:gd-|-stype:attr=1|qr_nm:gd|res:RC3|com-cf:nl|ptrs:na|ktp:N0|mc:55652|mtp:S|qry_typ:P|lang:en|wc:2|cs:8838|v=4,Jain Company Exports,https://www.indianweavingmills.com/?pos=25&kwd=baby comforter&tags=BA||||8668.838|Price|product|||TS|rsf:gd-|-stype:attr=1|qr_nm:gd|res:RC3|com-cf:nl|ptrs:na|ktp:N0|mc:55652|mtp:S|qry_typ:P|lang:en|wc:2|cs:8838|v=4,False,Karungalpalayam,Erode,"Door No. 24-25, Mosikirnar Street, Indra Nagar, Karungalpalayam, Erode - 638003, Dist.Erode, Tamil Nadu",7942547594,
"Heart Printed Baby Comforter, Hand Wash",https://www.indiamart.com/proddetail/heart-printed-baby-comforter-2853135380512.html?pos=26&kwd=baby comforter&tags=BA||||8747.203|Price|product|||MDC|rsf:gd-|-stype:attr=1|qr_nm:gd|res:RC3|com-cf:nl|ptrs:na|ktp:N0|mc:55652|mtp:S|qry_typ:P|lang:en|wc:2|cs:8838|v=4,K.L. Home Furnishing,https://www.indiamart.com/kl-home-furnishing/?pos=26&kwd=baby comforter&tags=BA||||8747.203|Price|product|||MDC|rsf:gd-|-stype:attr=1|qr_nm:gd|res:RC3|com-cf:nl|ptrs:na|ktp:N0|mc:55652|mtp:S|qry_typ:P|lang:en|wc:2|cs:8838|v=4,False,,Panipat,"Near Ganda Nala, Kutani Road,, Panipat - 132103, Dist.Panipat, Haryana",7949328389,
Cotton RED & BLUE SPIDER MEN KIDS COMFORTER,https://www.indiamart.com/proddetail/red-blue-spider-men-kids-comforter-2855087894812.html?pos=27&kwd=baby comforter&tags=BB||||8601.347|Price|product|||MDC|rsf:gd-|-stype:attr=1|qr_nm:gd|res:RC3|com-cf:nl|ptrs:na|ktp:N0|mc:55652|mtp:S|qry_typ:P|lang:en|wc:2|cs:8838|v=4,SS Overseas,https://www.indiamart.com/ssoverseas-jaipur/?pos=27&kwd=baby comforter&tags=BB||||8601.347|Price|product|||MDC|rsf:gd-|-stype:attr=1|qr_nm:gd|res:RC3|com-cf:nl|ptrs:na|ktp:N0|mc:55652|mtp:S|qry_typ:P|lang:en|wc:2|cs:8838|v=4,False,,Jaipur,"Plot No. 130, F2, Shri Sidhh Residency, Krishna Garden, Jagatpura, Jaipur - 302017, Dist.Jaipur, Rajasthan",7949325059,
"Cartoon RV Textile Kids Comforter, Size: 60*90",https://www.indiamart.com/proddetail/rv-textile-kids-comforter-2850545314491.html?pos=28&kwd=baby comforter&tags=BB||||8561.0625|Price|product|||MDC|rsf:gd-|-stype:attr=1|qr_nm:gd|res:RC3|com-cf:nl|ptrs:na|ktp:N0|mc:55652|mtp:S|qry_typ:P|lang:en|wc:2|cs:8838|v=4,RV Textile,https://www.indiamart.com/rvtextilemadhyapradesh/?pos=28&kwd=baby comforter&tags=BB||||8561.0625|Price|product|||MDC|rsf:gd-|-stype:attr=1|qr_nm:gd|res:RC3|com-cf:nl|ptrs:na|ktp:N0|mc:55652|mtp:S|qry_typ:P|lang:en|wc:2|cs:8838|v=4,False,Balsamud,Bhikangaon,"Plot No. 82, C/O Manas Motors, Kasrawad Pipalgoan Road, Khargone, Balsamud, Bhikangaon - 451113, Dist.West Nimar, Madhya Pradesh",7942793690,
"ALORIA HOMES White Kids Comforter Ultrasonic Comforter Single Bed Comforter, Capacity: 2000 Pcs Daily",https://www.indiamart.com/proddetail/kids-comforter-ultrasonic-comforter-single-bed-comforter-2851888465855.html?pos=29&kwd=baby comforter&tags=BA||||8747.203|Price|product|||TS|rsf:gd-|-stype:attr=1|qr_nm:gd|res:RC3|com-cf:nl|ptrs:na|ktp:N0|mc:55652|mtp:S|qry_typ:P|lang:en|wc:2|cs:8838|v=4,Gurbachan Singh & Sons,https://www.indiamart.com/gurbachan-singhsons-panipat/?pos=29&kwd=baby comforter&tags=BA||||8747.203|Price|product|||TS|rsf:gd-|-stype:attr=1|qr_nm:gd|res:RC3|com-cf:nl|ptrs:na|ktp:N0|mc:55652|mtp:S|qry_typ:P|lang:en|wc:2|cs:8838|v=4,False,Netaji Colony,Panipat,"Old Sabji Mndi, Near Devendra Dhaba, Netaji Colony, Panipat - 132103, Dist.Panipat, Haryana",7942834942,
Baby Hooded Blanket Towel - Brand FIRSTIN Baby Clothing Manufacturer for Infant - Search Firstin,https://www.indiamart.com/proddetail/baby-hooded-blanket-towel-brand-firstin-baby-clothing-manufacturer-for-infant-search-firstin-21786774197.html?pos=30&kwd=baby comforter&tags=BA||||8668.838|Price|product|||TS|rsf:gd-|-stype:attr=1|qr_nm:gd|res:RC3|com-cf:nl|ptrs:na|ktp:N0|mc:55652|mtp:S|qry_typ:P|lang:en|wc:2|cs:8838|v=4,Sri Kalyan Export Private Limited,https://www.firstinbabydress.com/?pos=30&kwd=baby comforter&tags=BA||||8668.838|Price|product|||TS|rsf:gd-|-stype:attr=1|qr_nm:gd|res:RC3|com-cf:nl|ptrs:na|ktp:N0|mc:55652|mtp:S|qry_typ:P|lang:en|wc:2|cs:8838|v=4,False,Vilarasampatti,Erode,"192/4, Ishwarya Garden, Sengodampalayam, Villarasampatti Post, Erode,, Vilarasampatti, Erode - 638107, Dist.Erode, Tamil Nadu",8046030291,
Multicolor Printed Baby Hosiery Cotton Swaddle,https://www.indiamart.com/proddetail/baby-hosiery-cotton-swaddle-2854217596555.html?pos=31&kwd=baby comforter&tags=BB||||8228.275|Price|product|||TS|rsf:gd-|-stype:attr=1|qr_nm:gd|res:RC3|com-cf:nl|ptrs:na|ktp:N0|mc:55652|mtp:S|qry_typ:P|lang:en|wc:2|cs:8838|v=4,King Enterprise,https://www.kingenterpriseindia.com/?pos=31&kwd=baby comforter&tags=BB||||8228.275|Price|product|||TS|rsf:gd-|-stype:attr=1|qr_nm:gd|res:RC3|com-cf:nl|ptrs:na|ktp:N0|mc:55652|mtp:S|qry_typ:P|lang:en|wc:2|cs:8838|v=4,False,Opp. Haripura Bus Stand,Ahmedabad,"Block- E 28, Ground Floor, Abhishek Estate-1, Opp. Haripura Bus Stand, Ahmedabad - 380016, Dist.Ahmedabad, Gujarat",8047632934,
"KIDOCARE Multicolor Bamboo Cotton Swaddle, 0-18 Months, Size: 120 CM X 110 CM",https://www.indiamart.com/proddetail/bamboo-cotton-swaddle-2849392192262.html?pos=32&kwd=baby comforter&tags=BA||||8211.142|Price|product|||TS|rsf:gd-|-stype:attr=1|qr_nm:gd|res:RC3|com-cf:nl|ptrs:na|ktp:N0|mc:55652|mtp:S|qry_typ:P|lang:en|wc:2|cs:8838|v=4,Merayo Egrab LLP,https://www.indiamart.com/merayoegrabllp/?pos=32&kwd=baby comforter&tags=BA||||8211.142|Price|product|||TS|rsf:gd-|-stype:attr=1|qr_nm:gd|res:RC3|com-cf:nl|ptrs:na|ktp:N0|mc:55652|mtp:S|qry_typ:P|lang:en|wc:2|cs:8838|v=4,False,Borivali West,Mumbai,"11/9d Saibaba Nagar, Opp Saibaba Garden Eltee Apartment Borivali, Borivali West, Mumbai - 400092, Dist.Mumbai, Maharashtra",7942559613,
Baby Kids Print Comforters . Single Bed Size Comforters,https://www.indiamart.com/proddetail/baby-kids-print-comforters-single-bed-size-comforters-2850822478812.html?pos=33&kwd=baby comforter&tags=BB||||8601.347|Price|product|||TS|rsf:gd-|-stype:attr=1|qr_nm:gd|res:RC3|com-cf:nl|ptrs:na|ktp:N0|mc:55652|mtp:S|qry_typ:P|lang:en|wc:2|cs:8838|v=4,R G L Textile Corporation,https://www.rgltextile.com/?pos=33&kwd=baby comforter&tags=BB||||8601.347|Price|product|||TS|rsf:gd-|-stype:attr=1|qr_nm:gd|res:RC3|com-cf:nl|ptrs:na|ktp:N0|mc:55652|mtp:S|qry_typ:P|lang:en|wc:2|cs:8838|v=4,False,Taneja Block,Jaipur,"House No 106/107, Taneja Block, Adarsh Nagar,, Taneja Block, Jaipur - 302004, Dist.Jaipur, Rajasthan",8047633164,
"Handicraftofpinkcity Cotton Hand Block Print Baby Wrap, 1 To 3, Size: 44x44''",https://www.indiamart.com/proddetail/hand-block-print-baby-wrap-22020923291.html?pos=34&kwd=baby comforter&tags=BA||||8601.347|Price|product|||TS|rsf:gd-|-stype:attr=1|qr_nm:gd|res:RC3|com-cf:nl|ptrs:na|ktp:N0|mc:55652|mtp:S|qry_typ:P|lang:en|wc:2|cs:8838|v=4,Shree Shyam Textiles & Handicrafts,https://www.shreeshyamtextileandhandicraft.com/?pos=34&kwd=baby comforter&tags=BA||||8601.347|Price|product|||TS|rsf:gd-|-stype:attr=1|qr_nm:gd|res:RC3|com-cf:nl|ptrs:na|ktp:N0|mc:55652|mtp:S|qry_typ:P|lang:en|wc:2|cs:8838|v=4,True,Sitapura,Jaipur,"Oppoiste Police Station, Manoharpur, Shahpura, Sitapura, Jaipur - 303104, Dist.Jaipur, Rajasthan",7942547785,
Hooded Star Printed Baby Wrap Wearable Blanket For Baby Boys and Girls,https://www.indiamart.com/proddetail/hooded-star-printed-baby-wrap-wearable-blanket-for-baby-boys-and-girls-2854434392188.html?pos=35&kwd=baby comforter&tags=BB||||8661.854|Price|product|||MDC|rsf:gd-|-stype:attr=1|qr_nm:gd|res:RC3|com-cf:nl|ptrs:na|ktp:N0|mc:55652|mtp:S|qry_typ:P|lang:en|wc:2|cs:8838|v=4,S.R Woollen Textile,https://www.indiamart.com/srwoollentextile/?pos=35&kwd=baby comforter&tags=BB||||8661.854|Price|product|||MDC|rsf:gd-|-stype:attr=1|qr_nm:gd|res:RC3|com-cf:nl|ptrs:na|ktp:N0|mc:55652|mtp:S|qry_typ:P|lang:en|wc:2|cs:8838|v=4,False,Old Ludhiana,Ludhiana,"435, Chauri Sarak, Bazzrian Mohalla, Old Ludhiana, Ludhiana - 141008, Dist.Ludhiana, Punjab",7942873909,
Multicolor Printed Rich Cotton Kids Comforter,https://www.indiamart.com/proddetail/rich-cotton-kids-comforter-2854753392133.html?pos=36&kwd=baby comforter&tags=BA||||8746.929|Price|product|||MDC|rsf:gd-|-stype:attr=1|qr_nm:gd|res:RC3|com-cf:nl|ptrs:na|ktp:N0|mc:55652|mtp:S|qry_typ:P|lang:en|wc:2|cs:8838|v=4,Pitambra Lifestyles,https://www.indiamart.com/pitambralifestyles/?pos=36&kwd=baby comforter&tags=BA||||8746.929|Price|product|||MDC|rsf:gd-|-stype:attr=1|qr_nm:gd|res:RC3|com-cf:nl|ptrs:na|ktp:N0|mc:55652|mtp:S|qry_typ:P|lang:en|wc:2|cs:8838|v=4,False,,Chandigarh,"403, Unnamed Road, Bharat Petroleum Petrol Pump, Business & Industrial Park 2, Chandigarh - 160002, Chandigarh",8044459979,
"White (Base) Jamdani Cotton Baby Swaddle, 6 Month, Size: 30 X 30 Inch",https://www.indiamart.com/proddetail/jamdani-cotton-baby-swaddle-2850387149388.html?pos=37&kwd=baby comforter&tags=BB||||9839.57|Price|product|||MDC|rsf:gd-|-stype:attr=1|qr_nm:gd|res:RC3|com-cf:nl|ptrs:na|ktp:N0|mc:55652|mtp:S|qry_typ:P|lang:en|wc:2|cs:8838|v=4,ARS Fabrics And Embroidery,https://www.indiamart.com/arsfabrics-embroidery/?pos=37&kwd=baby comforter&tags=BB||||9839.57|Price|product|||MDC|rsf:gd-|-stype:attr=1|qr_nm:gd|res:RC3|com-cf:nl|ptrs:na|ktp:N0|mc:55652|mtp:S|qry_typ:P|lang:en|wc:2|cs:8838|v=4,False,Santoshpur,Kolkata,"Bl-A/16, Flat-4D, 4 Floor, Saptrishi Apartment, Nandan Kanan, Kalikapur, Santoshpur Link Road, Santoshpur, Kolkata - 700075, Dist.Kolkata, West Bengal",7942818233,
"Muslin White Baby Comforter, 0-3 Years, Size: Large",https://www.indiamart.com/proddetail/baby-comforter-2851745449933.html?pos=38&kwd=baby comforter&tags=BA||||8584.299||product|||NA|rsf:gd-|-stype:attr=1|qr_nm:gd|res:RC3|com-cf:nl|ptrs:na|ktp:N0|mc:55652|mtp:S|qry_typ:P|lang:en|wc:2|cs:8838|v=4,Buttercup Baby Clothing,https://www.indiamart.com/buttercup-baby-clothing/?pos=38&kwd=baby comforter&tags=BA||||8584.299||product|||NA|rsf:gd-|-stype:attr=1|qr_nm:gd|res:RC3|com-cf:nl|ptrs:na|ktp:N0|mc:55652|mtp:S|qry_typ:P|lang:en|wc:2|cs:8838|v=4,False,,Coimbatore,"33-8, East Ponnurangam Road, RS Puram, Coimbatore - 641002, Dist.Coimbatore, Tamil Nadu",8043824974,
Baby Comforter,,Ashriti Wardrobe,https://www.indiamart.com/ashriti-wardrobe/?pos=39&kwd=baby comforter&tags=BA||||8651.144|Price|product|||NA|rsf:gd-|-stype:attr=1|qr_nm:gd|res:RC3|com-cf:nl|ptrs:na|ktp:N0|mc:55652|mtp:S|qry_typ:P|lang:en|wc:2|cs:8838|v=4,False,,Sangrur,"Bxi 1862 New Grain Market Road, Opposite FCI Godowns, Barnala, Sangrur - 148101, Dist.Sangrur, Punjab",8069416034,700
"cartoon Multicolor Baby Comforter, For Kids, Size: 60x100 In",https://www.indiamart.com/proddetail/baby-comforter-2850807154012.html?pos=40&kwd=baby comforter&tags=BB||||8747.203|Price|product|||NA|rsf:gd-|-stype:attr=1|qr_nm:gd|res:RC3|com-cf:nl|ptrs:na|ktp:N0|mc:55652|mtp:S|qry_typ:P|lang:en|wc:2|cs:8838|v=4,S.N. Enterprises,https://www.indiamart.com/snenterprisespanipat/?pos=40&kwd=baby comforter&tags=BB||||8747.203|Price|product|||NA|rsf:gd-|-stype:attr=1|qr_nm:gd|res:RC3|com-cf:nl|ptrs:na|ktp:N0|mc:55652|mtp:S|qry_typ:P|lang:en|wc:2|cs:8838|v=4,False,,Panipat,"Factory, Dhoop Singh Nagar, Gali No 21, Kala AMB Road, Panipat - 132103, Dist.Panipat, Haryana",7942959027,
Printed Baby Comforter,https://www.indiamart.com/proddetail/printed-baby-comforter-24030876091.html?pos=41&kwd=baby comforter&tags=BA||||8747.203|Price|product|||NA|rsf:gd-|-stype:attr=1|qr_nm:gd|res:RC3|com-cf:nl|ptrs:na|ktp:N0|mc:55652|mtp:S|qry_typ:P|lang:en|wc:2|cs:8838|v=4,Anand Trading Co.,https://www.indiamart.com/anandtradingco-panipat/?pos=41&kwd=baby comforter&tags=BA||||8747.203|Price|product|||NA|rsf:gd-|-stype:attr=1|qr_nm:gd|res:RC3|com-cf:nl|ptrs:na|ktp:N0|mc:55652|mtp:S|qry_typ:P|lang:en|wc:2|cs:8838|v=4,False,,Panipat,"Jagjeevan Ram Colony old gohana road Arya nagar gali no 8 anand textiles, Panipat - 132103, Dist.Panipat, Haryana",8046060740,
Printed Baby Comforter,https://www.indiamart.com/proddetail/printed-baby-comforter-25227388955.html?pos=42&kwd=baby comforter&tags=BB||||8747.203|Price|product|||NA|rsf:gd-|-stype:attr=1|qr_nm:gd|res:RC3|com-cf:nl|ptrs:na|ktp:N0|mc:55652|mtp:S|qry_typ:P|lang:en|wc:2|cs:8838|v=4,JMD Handloom,https://www.indiamart.com/jmdhandloom-panipat/?pos=42&kwd=baby comforter&tags=BB||||8747.203|Price|product|||NA|rsf:gd-|-stype:attr=1|qr_nm:gd|res:RC3|com-cf:nl|ptrs:na|ktp:N0|mc:55652|mtp:S|qry_typ:P|lang:en|wc:2|cs:8838|v=4,False,,Panipat,"83, Preet Vihar, Tehsil Camp, Panipat - 132103, Dist.Panipat, Haryana",8047310829,
"cartoon Multicolor Baby Comforter, For Kids, Size: 60x100 In",https://www.indiamart.com/proddetail/baby-comforter-2850807154012.html?pos=43&kwd=baby comforter&tags=BB||||8747.203|Price|product|||NA|rsf:gd-|-stype:attr=1|qr_nm:gd|res:RC3|com-cf:nl|ptrs:na|ktp:N0|mc:55652|mtp:S|qry_typ:P|lang:en|wc:2|cs:8838|v=4,S.N. Enterprises,https://www.indiamart.com/snenterprisespanipat/?pos=43&kwd=baby comforter&tags=BB||||8747.203|Price|product|||NA|rsf:gd-|-stype:attr=1|qr_nm:gd|res:RC3|com-cf:nl|ptrs:na|ktp:N0|mc:55652|mtp:S|qry_typ:P|lang:en|wc:2|cs:8838|v=4,False,,Panipat,"Factory, Dhoop Singh Nagar, Gali No 21, Kala AMB Road, Panipat - 132103, Dist.Panipat, Haryana",7942959027,
Printed Baby Comforter,https://www.indiamart.com/proddetail/printed-baby-comforter-24030876091.html?pos=44&kwd=baby comforter&tags=BA||||8747.203|Price|product|||NA|rsf:gd-|-stype:attr=1|qr_nm:gd|res:RC3|com-cf:nl|ptrs:na|ktp:N0|mc:55652|mtp:S|qry_typ:P|lang:en|wc:2|cs:8838|v=4,Anand Trading Co.,https://www.indiamart.com/anandtradingco-panipat/?pos=44&kwd=baby comforter&tags=BA||||8747.203|Price|product|||NA|rsf:gd-|-stype:attr=1|qr_nm:gd|res:RC3|com-cf:nl|ptrs:na|ktp:N0|mc:55652|mtp:S|qry_typ:P|lang:en|wc:2|cs:8838|v=4,False,,Panipat,"Jagjeevan Ram Colony old gohana road Arya nagar gali no 8 anand textiles, Panipat - 132103, Dist.Panipat, Haryana",8046060740,
Printed Baby Comforter,https://www.indiamart.com/proddetail/printed-baby-comforter-25227388955.html?pos=45&kwd=baby comforter&tags=BB||||8747.203|Price|product|||NA|rsf:gd-|-stype:attr=1|qr_nm:gd|res:RC3|com-cf:nl|ptrs:na|ktp:N0|mc:55652|mtp:S|qry_typ:P|lang:en|wc:2|cs:8838|v=4,JMD Handloom,https://www.indiamart.com/jmdhandloom-panipat/?pos=45&kwd=baby comforter&tags=BB||||8747.203|Price|product|||NA|rsf:gd-|-stype:attr=1|qr_nm:gd|res:RC3|com-cf:nl|ptrs:na|ktp:N0|mc:55652|mtp:S|qry_typ:P|lang:en|wc:2|cs:8838|v=4,False,,Panipat,"83, Preet Vihar, Tehsil Camp, Panipat - 132103, Dist.Panipat, Haryana",8047310829,
"Microfiber Multicolor Petals Kids Comforter Baby Comforter Set, For Everyday Use, Size: 110x140cm",https://www.indiamart.com/proddetail/petals-kids-comforter-baby-comforter-set-26524392833.html?pos=46&kwd=baby comforter&tags=BA||||8747.203||product|||NA|rsf:gd-|-stype:attr=1|qr_nm:gd|res:RC3|com-cf:nl|ptrs:na|ktp:N0|mc:55652|mtp:S|qry_typ:P|lang:en|wc:2|cs:8838|v=4,Vivek Woollen Ind.,https://www.indiamart.com/vivekwoollenindustries/?pos=46&kwd=baby comforter&tags=BA||||8747.203||product|||NA|rsf:gd-|-stype:attr=1|qr_nm:gd|res:RC3|com-cf:nl|ptrs:na|ktp:N0|mc:55652|mtp:S|qry_typ:P|lang:en|wc:2|cs:8838|v=4,False,,Panipat,"38, Old Housing Board Colony, Panipat, Panipat - 132103, Dist.Panipat, Haryana",8048210193,
Printed Baby Single Bed Comforter,https://www.indiamart.com/proddetail/printed-baby-single-bed-comforter-22396077397.html?pos=47&kwd=baby comforter&tags=BB||||8747.203|Price|product|||NA|rsf:gd-|-stype:attr=1|qr_nm:gd|res:RC3|com-cf:nl|ptrs:na|ktp:N0|mc:55652|mtp:S|qry_typ:P|lang:en|wc:2|cs:8838|v=4,Mehr Linens,https://www.indiamart.com/mehr-linens/?pos=47&kwd=baby comforter&tags=BB||||8747.203|Price|product|||NA|rsf:gd-|-stype:attr=1|qr_nm:gd|res:RC3|com-cf:nl|ptrs:na|ktp:N0|mc:55652|mtp:S|qry_typ:P|lang:en|wc:2|cs:8838|v=4,False,Sewah,Panipat,"PLOT NO. 1 SD COLLEGE ROAD MARKET, Sewah, Panipat - 132103, Dist.Panipat, Haryana",7942554165,
Comforter For Kids,https://www.indiamart.com/proddetail/comforter-for-kids-24265141373.html?pos=48&kwd=baby comforter&tags=BB||||8747.203|Price|product|||NA|rsf:gd-|-stype:attr=1|qr_nm:gd|res:RC3|com-cf:nl|ptrs:na|ktp:N0|mc:55652|mtp:S|qry_typ:P|lang:en|wc:2|cs:8838|v=4,Venus Enterprises,https://www.indiamart.com/venusenterprisespanipat/?pos=48&kwd=baby comforter&tags=BB||||8747.203|Price|product|||NA|rsf:gd-|-stype:attr=1|qr_nm:gd|res:RC3|com-cf:nl|ptrs:na|ktp:N0|mc:55652|mtp:S|qry_typ:P|lang:en|wc:2|cs:8838|v=4,False,,Panipat,"2462 New Housing Board Colony, Panipat - 132103, Dist.Panipat, Haryana",8046055494,
Kids Comforter,https://www.indiamart.com/proddetail/kids-comforter-23475900333.html?pos=52&kwd=baby comforter&tags=BB||||8747.203|Price|product|||NA|rsf:gd-|-stype:attr=1|qr_nm:gd|res:RC3|com-cf:nl|ptrs:na|ktp:N0|mc:55652|mtp:S|qry_typ:P|lang:en|wc:2|cs:8838|v=4,Guru Kirpa Traders,https://www.indiamart.com/shopping-point-panipat/?pos=52&kwd=baby comforter&tags=BB||||8747.203|Price|product|||NA|rsf:gd-|-stype:attr=1|qr_nm:gd|res:RC3|com-cf:nl|ptrs:na|ktp:N0|mc:55652|mtp:S|qry_typ:P|lang:en|wc:2|cs:8838|v=4,False,Model Town,Panipat,"Ramlal Chowk, Model Town, Panipat - 132103, Dist.Panipat, Haryana",8047683103,
Micro Digital Print Mixed Bed Comforters In Chennai,https://www.indiamart.com/proddetail/comforter-for-kids-2849626412112.html?pos=50&kwd=baby comforter&tags=BB||||8828.05|Price|product|||NA|rsf:gd-|-stype:attr=1|qr_nm:gd|res:RC3|com-cf:nl|ptrs:na|ktp:N0|mc:55652|mtp:S|qry_typ:P|lang:en|wc:2|cs:8838|v=4,Fastsource Business And Trading Services (OPC) Private Limited,https://www.indiamart.com/fastsource-business-and-trading-services-opc-private-limited/?pos=50&kwd=baby comforter&tags=BB||||8828.05|Price|product|||NA|rsf:gd-|-stype:attr=1|qr_nm:gd|res:RC3|com-cf:nl|ptrs:na|ktp:N0|mc:55652|mtp:S|qry_typ:P|lang:en|wc:2|cs:8838|v=4,False,TIRUPATI DISTRICT Andhra Pradesh 517560,Chittoor,"5-118,Chelakavarikandriga, Thottambedu Mandal SRIKALAHASTI (TIRUPATI DISTRICT), TIRUPATI DISTRICT Andhra Pradesh 517560, Chittoor - 517551, Dist.Chittoor, Andhra Pradesh",7949312449,
"Muslin White Baby Comforter, 0-3 Years, Size: Large",https://www.indiamart.com/proddetail/baby-comforter-2851745449933.html?pos=51&kwd=baby comforter&tags=BA||||8584.299||product|||NA|rsf:gd-|-stype:attr=1|qr_nm:gd|res:RC3|com-cf:nl|ptrs:na|ktp:N0|mc:55652|mtp:S|qry_typ:P|lang:en|wc:2|cs:8838|v=4,Buttercup Baby Clothing,https://www.indiamart.com/buttercup-baby-clothing/?pos=51&kwd=baby comforter&tags=BA||||8584.299||product|||NA|rsf:gd-|-stype:attr=1|qr_nm:gd|res:RC3|com-cf:nl|ptrs:na|ktp:N0|mc:55652|mtp:S|qry_typ:P|lang:en|wc:2|cs:8838|v=4,False,,Coimbatore,"33-8, East Ponnurangam Road, RS Puram, Coimbatore - 641002, Dist.Coimbatore, Tamil Nadu",8043824974,
Kids Comforter,https://www.indiamart.com/proddetail/kids-comforter-23475900333.html?pos=52&kwd=baby comforter&tags=BB||||8747.203|Price|product|||NA|rsf:gd-|-stype:attr=1|qr_nm:gd|res:RC3|com-cf:nl|ptrs:na|ktp:N0|mc:55652|mtp:S|qry_typ:P|lang:en|wc:2|cs:8838|v=4,Guru Kirpa Traders,https://www.indiamart.com/shopping-point-panipat/?pos=52&kwd=baby comforter&tags=BB||||8747.203|Price|product|||NA|rsf:gd-|-stype:attr=1|qr_nm:gd|res:RC3|com-cf:nl|ptrs:na|ktp:N0|mc:55652|mtp:S|qry_typ:P|lang:en|wc:2|cs:8838|v=4,False,Model Town,Panipat,"Ramlal Chowk, Model Town, Panipat - 132103, Dist.Panipat, Haryana",8047683103,
Cotton Baby White Print Belt Wrapper,https://www.indiamart.com/proddetail/baby-white-print-belt-wrapper-24824238712.html?pos=53&kwd=baby comforter&tags=BB||||8211.142|Price|product|||NA|rsf:gd-|-stype:attr=1|qr_nm:gd|res:RC3|com-cf:nl|ptrs:na|ktp:N0|mc:55652|mtp:S|qry_typ:P|lang:en|wc:2|cs:8838|v=4,Keval Enterprises,https://www.indiamart.com/keval-enterprises-mumbai/?pos=53&kwd=baby comforter&tags=BB||||8211.142|Price|product|||NA|rsf:gd-|-stype:attr=1|qr_nm:gd|res:RC3|com-cf:nl|ptrs:na|ktp:N0|mc:55652|mtp:S|qry_typ:P|lang:en|wc:2|cs:8838|v=4,False,Dadar West,Mumbai,"Shop No. 20, Madhani Industrial Estate Senapati Bapat Marg, Dadar West, Mumbai - 400028, Dist.Mumbai, Maharashtra",8048951266,
Baby Comforter,,Mahadev Industries,https://www.indiamart.com/shiv-led-manufacturing/?pos=54&kwd=baby comforter&tags=BB||||8747.203|Price|product|||NA|rsf:gd-|-stype:attr=1|qr_nm:gd|res:RC3|com-cf:nl|ptrs:na|ktp:N0|mc:55652|mtp:S|qry_typ:P|lang:en|wc:2|cs:8838|v=4,False,sd college road,Panipat,"Amar bhawan chowk, sd college road, Panipat - 132103, Dist.Panipat, Haryana",8047308788,2234
Kids Comforter,,Bedz Sheetz,https://www.indiamart.com/bedz-sheetz/?pos=55&kwd=baby comforter&tags=BB||||8747.203|Price|product|||NA|rsf:gd-|-stype:attr=1|qr_nm:gd|res:RC3|com-cf:nl|ptrs:na|ktp:N0|mc:55652|mtp:S|qry_typ:P|lang:en|wc:2|cs:8838|v=4,False,,Panipat,"huda sec-12 near mother teresa, Panipat - 132103, Dist.Panipat, Haryana",8045849751,719
Comfort Machine,,Shakthi Event,https://www.indiamart.com/shakthi-event/?pos=56&kwd=baby comforter&tags=BB||||8663.873|Price|product|||NA|rsf:gd-|-stype:attr=1|qr_nm:gd|res:RC3|com-cf:nl|ptrs:na|ktp:N0|mc:55652|mtp:S|qry_typ:P|lang:en|wc:2|cs:8838|v=4,False,Basavanagudi,Bengaluru,"87 Sri Manjunath Colony, Basavanagudi, Bengaluru - 560019, Dist.Bengaluru, Karnataka",8069023899,293
Beautiful White Cotton Deer Hand Block Printed Baby Quilt 60x90 for Kids,https://www.indiamart.com/proddetail/beautiful-white-cotton-deer-hand-block-printed-baby-quilt-60x90-for-kids-21507308197.html?pos=57&kwd=baby comforter&tags=CC||||8601.347|Price|product|||TS|rsf:gd-|-stype:attr=1|qr_nm:gd|res:RC3|com-cf:nl|ptrs:na|ktp:N0|mc:55652|mtp:S|qry_typ:P|lang:en|wc:2|cs:8838|v=4,Indus Art And Emporium,https://www.indusart.in/?pos=57&kwd=baby comforter&tags=CC||||8601.347|Price|product|||TS|rsf:gd-|-stype:attr=1|qr_nm:gd|res:RC3|com-cf:nl|ptrs:na|ktp:N0|mc:55652|mtp:S|qry_typ:P|lang:en|wc:2|cs:8838|v=4,True,Mansarovar,Jaipur,"H/3, First Floor, RIICO Industrial Area, Mansarovar, Jaipur - 302020, Dist.Jaipur, Rajasthan",8048956816,
"Cotton Printed Kid Comforter Set, For Home",https://www.indiamart.com/proddetail/kid-comforter-set-23726497855.html?pos=58&kwd=baby comforter&tags=||||8747.203|Price|product|||TS|rsf:gd-|-stype:attr=1|qr_nm:gd|res:RC3|com-cf:nl|ptrs:na|ktp:N0|mc:55652|mtp:S|qry_typ:P|lang:en|wc:2|cs:8838|v=4,T.R. Handloom,https://www.indiamart.com/tr-handloom/?pos=58&kwd=baby comforter&tags=||||8747.203|Price|product|||TS|rsf:gd-|-stype:attr=1|qr_nm:gd|res:RC3|com-cf:nl|ptrs:na|ktp:N0|mc:55652|mtp:S|qry_typ:P|lang:en|wc:2|cs:8838|v=4,False,Chadau Mohalla,Panipat,"272/10, Ramayani Chowk, Chadau Mohalla, Panipat - 132103, Dist.Panipat, Haryana",7942533704,
"Multicolor Printed Kids Comforter Set, For Everyday Use",https://www.indiamart.com/proddetail/kids-comforter-set-2850591877791.html?pos=59&kwd=baby comforter&tags=||||8823.154|Price|product|||TS|rsf:gd-|-stype:attr=1|qr_nm:gd|res:RC3|com-cf:nl|ptrs:na|ktp:N0|mc:55652|mtp:S|qry_typ:P|lang:en|wc:2|cs:8838|v=4,Bedding Blues,https://www.beddingblues.in/?pos=59&kwd=baby comforter&tags=||||8823.154|Price|product|||TS|rsf:gd-|-stype:attr=1|qr_nm:gd|res:RC3|com-cf:nl|ptrs:na|ktp:N0|mc:55652|mtp:S|qry_typ:P|lang:en|wc:2|cs:8838|v=4,False,Kamla Nagar,Agra,"Balkeshwar B 40 Bhagwan Nagar Near Dolly Public School, Kamla Nagar, Agra - 282005, Dist.Agra, Uttar Pradesh",8047655291,
Baby Carry Bed,https://www.indiamart.com/proddetail/baby-carry-bed-2854012203388.html?pos=60&kwd=baby comforter&tags=CC||||8559.269|Price|product|||TS|rsf:gd-|-stype:attr=1|qr_nm:gd|res:RC3|com-cf:nl|ptrs:na|ktp:N0|mc:55652|mtp:S|qry_typ:P|lang:en|wc:2|cs:8838|v=4,Central India Fabrics,https://www.centralindiafabrics.net/?pos=60&kwd=baby comforter&tags=CC||||8559.269|Price|product|||TS|rsf:gd-|-stype:attr=1|qr_nm:gd|res:RC3|com-cf:nl|ptrs:na|ktp:N0|mc:55652|mtp:S|qry_typ:P|lang:en|wc:2|cs:8838|v=4,True,Avantika Nagar,Indore,"2/A/C, Sector D, Sanwer Road Opposite Bandganga Police Station, Avantika Nagar, Indore - 452015, Dist.Indore, Madhya Pradesh",8048965370,
"white labeling Multicolor 2 in 1 Baby's Cotton Sleeping and Carry Bag (0-6 Months, Packaging Type: plastic, Newly Born",https://www.indiamart.com/proddetail/2-in-1-baby-s-cotton-sleeping-and-carry-bag-0-6-months-2852997129030.html?pos=61&kwd=baby comforter&tags=CC||||9842.824|Price|product|||TS|rsf:gd-|-stype:attr=1|qr_nm:gd|res:RC3|com-cf:nl|ptrs:na|ktp:N0|mc:55652|mtp:S|qry_typ:P|lang:en|wc:2|cs:8838|v=4,Indilittle Global Export,https://www.indiamart.com/indilittleglobalexport/?pos=61&kwd=baby comforter&tags=CC||||9842.824|Price|product|||TS|rsf:gd-|-stype:attr=1|qr_nm:gd|res:RC3|com-cf:nl|ptrs:na|ktp:N0|mc:55652|mtp:S|qry_typ:P|lang:en|wc:2|cs:8838|v=4,False,Haripal,Hooghly,"BRAHMANPARA, NALIKUL PASCHIM, HARIPAL, Haripal, Hooghly - 712405, Dist.Hooghly, West Bengal",8048977919,
Printed Newborn Infant Baby Swaddle Blanket Sleeping Swaddle With Bag,https://www.indiamart.com/proddetail/newborn-infant-baby-swaddle-blanket-sleeping-swaddle-with-bag-23761603991.html?pos=62&kwd=baby comforter&tags=CC||||8601.347|Price|product|||TS|rsf:gd-|-stype:attr=1|qr_nm:gd|res:RC3|com-cf:nl|ptrs:na|ktp:N0|mc:55652|mtp:S|qry_typ:P|lang:en|wc:2|cs:8838|v=4,Gopali Arts,https://www.gopaliarts.in/?pos=62&kwd=baby comforter&tags=CC||||8601.347|Price|product|||TS|rsf:gd-|-stype:attr=1|qr_nm:gd|res:RC3|com-cf:nl|ptrs:na|ktp:N0|mc:55652|mtp:S|qry_typ:P|lang:en|wc:2|cs:8838|v=4,False,G1-652 Sitapura Phase-1,Jaipur,"G1-652, Sitapura Phase-1, G1-652 Sitapura Phase-1, Jaipur - 302022, Dist.Jaipur, Rajasthan",8048264082,
"Printed Kids Comforter Set, Size: Single",https://www.indiamart.com/proddetail/kids-comforter-set-2852542431755.html?pos=63&kwd=baby comforter&tags=||||8747.203|Price|product|||MDC|rsf:gd-|-stype:attr=1|qr_nm:gd|res:RC3|com-cf:nl|ptrs:na|ktp:N0|mc:55652|mtp:S|qry_typ:P|lang:en|wc:2|cs:8838|v=4,Satyam Handloom,https://www.indiamart.com/satyam-handloom-panipat/?pos=63&kwd=baby comforter&tags=||||8747.203|Price|product|||MDC|rsf:gd-|-stype:attr=1|qr_nm:gd|res:RC3|com-cf:nl|ptrs:na|ktp:N0|mc:55652|mtp:S|qry_typ:P|lang:en|wc:2|cs:8838|v=4,False,Ashok Vihar,Panipat,"Plot NO. 1, Ashok Vihar Colony, Ward 7, Prem Depot Wali Gali, Near Beri Wali Masjid, Ashok Vihar, Panipat - 132103, Dist.Panipat, Haryana",7942674657,
"dashing look Multicolor Kids Print Comforter, Capacity: 1000",https://www.indiamart.com/proddetail/kids-print-comforter-2854894342612.html?pos=64&kwd=baby comforter&tags=||||8601.347|Price|product|||TS|rsf:gd-|-stype:attr=1|qr_nm:gd|res:RC3|com-cf:nl|ptrs:na|ktp:N0|mc:55652|mtp:S|qry_typ:P|lang:en|wc:2|cs:8838|v=4,Dashing Look,https://www.indiamart.com/dashinglook/?pos=64&kwd=baby comforter&tags=||||8601.347|Price|product|||TS|rsf:gd-|-stype:attr=1|qr_nm:gd|res:RC3|com-cf:nl|ptrs:na|ktp:N0|mc:55652|mtp:S|qry_typ:P|lang:en|wc:2|cs:8838|v=4,True,Amer Road,Jaipur,"Bakshiyo Ki Haveli, 631, Chandi Ki Taksaal, Aamer Road, Amer Road, Jaipur - 302002, Dist.Jaipur, Rajasthan",8048607134,
Pink Baby Comforter,https://www.indiamart.com/proddetail/baby-comforter-2853390433448.html?pos=65&kwd=baby comforter&tags=CC||||8747.203|Price|product|||TS|rsf:gd-|-stype:attr=1|qr_nm:gd|res:RC3|com-cf:nl|ptrs:na|ktp:N0|mc:55652|mtp:S|qry_typ:P|lang:en|wc:2|cs:8838|v=4,Paras Blanket,https://www.parasblanket.com/?pos=65&kwd=baby comforter&tags=CC||||8747.203|Price|product|||TS|rsf:gd-|-stype:attr=1|qr_nm:gd|res:RC3|com-cf:nl|ptrs:na|ktp:N0|mc:55652|mtp:S|qry_typ:P|lang:en|wc:2|cs:8838|v=4,False,Old Housing Board Colony,Panipat,"Shop No. 1, 2, 3, New Pachranga Market Pachranga Bazar, Old Housing Board Colony, Panipat - 132103, Dist.Panipat, Haryana",8048968656,
New Born Baby Comforter,https://www.indiamart.com/proddetail/new-born-baby-comforter-21035734588.html?pos=66&kwd=baby comforter&tags=CC||||8752.144|Price|product|||TS|rsf:gd-|-stype:attr=1|qr_nm:gd|res:RC3|com-cf:nl|ptrs:na|ktp:N0|mc:55652|mtp:S|qry_typ:P|lang:en|wc:2|cs:8838|v=4,Gyasi Ram & Associates,https://www.indiamart.com/gyasiram/?pos=66&kwd=baby comforter&tags=CC||||8752.144|Price|product|||TS|rsf:gd-|-stype:attr=1|qr_nm:gd|res:RC3|com-cf:nl|ptrs:na|ktp:N0|mc:55652|mtp:S|qry_typ:P|lang:en|wc:2|cs:8838|v=4,False,Delhi Sadar Bazar,New Delhi,"458, Main Road, Sadar Bazar Near Bara Tooti Chowk, Delhi Sadar Bazar, New Delhi - 110006, Dist.Delhi, Delhi",8046043034,
"Multicolor Cartoon Print Cotton Baby Comforter, Size: 107 X 132 cm ( W X L )",https://www.indiamart.com/proddetail/cotton-baby-comforter-2851508282462.html?pos=67&kwd=baby comforter&tags=CC||||8747.203|Price|product|||TS|rsf:gd-|-stype:attr=1|qr_nm:gd|res:RC3|com-cf:nl|ptrs:na|ktp:N0|mc:55652|mtp:S|qry_typ:P|lang:en|wc:2|cs:8838|v=4,Tulsi Handicraft,https://www.indiamart.com/tulsihandicraftpanipat/?pos=67&kwd=baby comforter&tags=CC||||8747.203|Price|product|||TS|rsf:gd-|-stype:attr=1|qr_nm:gd|res:RC3|com-cf:nl|ptrs:na|ktp:N0|mc:55652|mtp:S|qry_typ:P|lang:en|wc:2|cs:8838|v=4,False,Netaji Colony,Panipat,"10, Gangapuri Road, Netaji Colony, Panipat - 132103, Dist.Panipat, Haryana",7942837797,
Cotton Multicolor Baby Comforter Set,https://www.indiamart.com/proddetail/baby-comforter-set-27595419997.html?pos=68&kwd=baby comforter&tags=CC||||8706.263|Price|product|||TS|rsf:gd-|-stype:attr=1|qr_nm:gd|res:RC3|com-cf:nl|ptrs:na|ktp:N0|mc:55652|mtp:S|qry_typ:P|lang:en|wc:2|cs:8838|v=4,Karur Export Company,https://www.karurexportcompany.in/?pos=68&kwd=baby comforter&tags=CC||||8706.263|Price|product|||TS|rsf:gd-|-stype:attr=1|qr_nm:gd|res:RC3|com-cf:nl|ptrs:na|ktp:N0|mc:55652|mtp:S|qry_typ:P|lang:en|wc:2|cs:8838|v=4,True,Sri Poonkuyil Nagar,Karur,"41, 43, Kuluthu Palayam Road, Vengamedu, Sri Poonkuyil Nagar, Karur - 639006, Dist.Karur, Tamil Nadu",8048600914,
White (Base) Printed Cotton Double Bed Kids Comforter,https://www.indiamart.com/proddetail/cotton-double-bed-kids-comforter-2854603760191.html?pos=69&kwd=baby comforter&tags=||||8747.203|Price|product|||MDC|rsf:gd-|-stype:attr=1|qr_nm:gd|res:RC3|com-cf:nl|ptrs:na|ktp:N0|mc:55652|mtp:S|qry_typ:P|lang:en|wc:2|cs:8838|v=4,Abhinav Grah Nikhar,https://www.indiamart.com/abhinavgrahnikhar/?pos=69&kwd=baby comforter&tags=||||8747.203|Price|product|||MDC|rsf:gd-|-stype:attr=1|qr_nm:gd|res:RC3|com-cf:nl|ptrs:na|ktp:N0|mc:55652|mtp:S|qry_typ:P|lang:en|wc:2|cs:8838|v=4,False,,Panipat,"12/7. Behind S.D.College, Opp. Punjab National Bank, Panipat - 132103, Dist.Panipat, Haryana",7949330954,
Polyester mix BABY CARTOON COMFORTER,https://www.indiamart.com/proddetail/baby-cartoon-comforter-2853718422691.html?pos=70&kwd=baby comforter&tags=CC||||8747.203|Price|product|||MDC|rsf:gd-|-stype:attr=1|qr_nm:gd|res:RC3|com-cf:nl|ptrs:na|ktp:N0|mc:55652|mtp:S|qry_typ:P|lang:en|wc:2|cs:8838|v=4,Sabmix,https://www.indiamart.com/sabmix/?pos=70&kwd=baby comforter&tags=CC||||8747.203|Price|product|||MDC|rsf:gd-|-stype:attr=1|qr_nm:gd|res:RC3|com-cf:nl|ptrs:na|ktp:N0|mc:55652|mtp:S|qry_typ:P|lang:en|wc:2|cs:8838|v=4,False,Jattal,Panipat,"Nehar By-Pass Near Jattal Road, Near Deshwal Petrol Pump, Jattal, Panipat - 132103, Dist.Panipat, Haryana",8045165458,
Kids Comfoter,https://www.indiamart.com/proddetail/kids-comfoter-26153861491.html?pos=71&kwd=baby comforter&tags=CC||||8747.203|Price|product|||MDC|rsf:gd-|-stype:attr=1|qr_nm:gd|res:RC3|com-cf:nl|ptrs:na|ktp:N0|mc:55652|mtp:S|qry_typ:P|lang:en|wc:2|cs:8838|v=4,Shweta Fabrics,https://www.indiamart.com/shweta-fabrics/?pos=71&kwd=baby comforter&tags=CC||||8747.203|Price|product|||MDC|rsf:gd-|-stype:attr=1|qr_nm:gd|res:RC3|com-cf:nl|ptrs:na|ktp:N0|mc:55652|mtp:S|qry_typ:P|lang:en|wc:2|cs:8838|v=4,False,Huda,Panipat,"Chandni Bagh, Ward No 5, Huda, Panipat - 132103, Dist.Panipat, Haryana",8047307875,
"Micropeach White Kids Comforter Set, For Home, Size: 60x90",https://www.indiamart.com/proddetail/kids-comforter-set-2851063929497.html?pos=72&kwd=baby comforter&tags=||||9839.57|Price|product|||TS|rsf:gd-|-stype:attr=1|qr_nm:gd|res:RC3|com-cf:nl|ptrs:na|ktp:N0|mc:55652|mtp:S|qry_typ:P|lang:en|wc:2|cs:8838|v=4,Kradle Store Private Limited,https://www.indiamart.com/kradle-store/?pos=72&kwd=baby comforter&tags=||||9839.57|Price|product|||TS|rsf:gd-|-stype:attr=1|qr_nm:gd|res:RC3|com-cf:nl|ptrs:na|ktp:N0|mc:55652|mtp:S|qry_typ:P|lang:en|wc:2|cs:8838|v=4,False,Bidhannagar,Kolkata,"C/O Sujit Kumar Sanyal Atghara Sitakundu Baruipur Sadar South, Twenty Four Parganas, Bidhannagar, Kolkata - 743387, Dist.Kolkata, West Bengal",7942785085,
"Pink And Blue Cotton Baby Comfortable Sleeping Bag, 3-12 Months",https://www.indiamart.com/proddetail/baby-comfortable-sleeping-bag-11906692773.html?pos=73&kwd=baby comforter&tags=||||8752.144|Price|product|||TS|rsf:gd-|-stype:attr=1|qr_nm:gd|res:RC3|com-cf:nl|ptrs:na|ktp:N0|mc:55652|mtp:S|qry_typ:P|lang:en|wc:2|cs:8838|v=4,Chinmay Kids,https://www.indiamart.com/chinmaykids/?pos=73&kwd=baby comforter&tags=||||8752.144|Price|product|||TS|rsf:gd-|-stype:attr=1|qr_nm:gd|res:RC3|com-cf:nl|ptrs:na|ktp:N0|mc:55652|mtp:S|qry_typ:P|lang:en|wc:2|cs:8838|v=4,False,Nayagaon,New Delhi,"C-99, Street No. 4, First Pusta, Nayagaon, New Delhi - 110053, Dist.Delhi, Delhi",8046054858,
"Glace Cotton Printed Kids Comforter, Size: 60*90",https://www.indiamart.com/proddetail/kids-comforter-set-2850014273497.html?pos=74&kwd=baby comforter&tags=||||8747.203|Price|product|||TS|rsf:gd-|-stype:attr=1|qr_nm:gd|res:RC3|com-cf:nl|ptrs:na|ktp:N0|mc:55652|mtp:S|qry_typ:P|lang:en|wc:2|cs:8838|v=4,Manish Creations,https://www.indiamart.com/manishcreationspanipat/?pos=74&kwd=baby comforter&tags=||||8747.203|Price|product|||TS|rsf:gd-|-stype:attr=1|qr_nm:gd|res:RC3|com-cf:nl|ptrs:na|ktp:N0|mc:55652|mtp:S|qry_typ:P|lang:en|wc:2|cs:8838|v=4,False,Netaji Colony,Panipat,"865/8, Netaji Colony, Panipat - 132103, Dist.Panipat, Haryana",8047635561,
Cotton Blue Comforter Baby Blanket,https://www.indiamart.com/proddetail/comforter-baby-blanket-2851521441633.html?pos=75&kwd=baby comforter&tags=CC||||8869.224|Price|product|||TS|rsf:gd-|-stype:attr=1|qr_nm:gd|res:RC3|com-cf:nl|ptrs:na|ktp:N0|mc:55652|mtp:S|qry_typ:P|lang:en|wc:2|cs:8838|v=4,Raj Enterprises,https://www.indiamart.com/rajenterprisesharidwar/?pos=75&kwd=baby comforter&tags=CC||||8869.224|Price|product|||TS|rsf:gd-|-stype:attr=1|qr_nm:gd|res:RC3|com-cf:nl|ptrs:na|ktp:N0|mc:55652|mtp:S|qry_typ:P|lang:en|wc:2|cs:8838|v=4,False,Shivalik Nagar,Haridwar,"P No - 23, Sec-8B,LIE, SIDCUL,, Shivalik Nagar, Haridwar - 249403, Dist.Haridwar, Uttarakhand",7942843224,
"Fiber Printed Baby Comforter Set, Size: Medium, Capacity: Upto 8kg",https://www.indiamart.com/proddetail/baby-comforter-set-2851805062297.html?pos=76&kwd=baby comforter&tags=CC||||8211.142|Price|product|||TS|rsf:gd-|-stype:attr=1|qr_nm:gd|res:RC3|com-cf:nl|ptrs:na|ktp:N0|mc:55652|mtp:S|qry_typ:P|lang:en|wc:2|cs:8838|v=4,Trizen Enterprises,https://www.indiamart.com/trizenenterprises/?pos=76&kwd=baby comforter&tags=CC||||8211.142|Price|product|||TS|rsf:gd-|-stype:attr=1|qr_nm:gd|res:RC3|com-cf:nl|ptrs:na|ktp:N0|mc:55652|mtp:S|qry_typ:P|lang:en|wc:2|cs:8838|v=4,False,Town Hall,Mumbai,"9, Ground Floor, Madina Building, Musafirkhana Road, Crawford Market, Next to Sara Market Gate, Town Hall, Mumbai - 400001, Dist.Mumbai, Maharashtra",8046070421,
Size: Single Cotton Baby Printed Soft Comforter Reversible Blanket,https://www.indiamart.com/proddetail/baby-printed-soft-comforter-reversible-blanket-2854507428491.html?pos=77&kwd=baby comforter&tags=||||8663.873|Price|product|||MDC|rsf:gd-|-stype:attr=1|qr_nm:gd|res:RC3|com-cf:nl|ptrs:na|ktp:N0|mc:55652|mtp:S|qry_typ:P|lang:en|wc:2|cs:8838|v=4,AQ Corporation,https://www.indiamart.com/aqcorporation/?pos=77&kwd=baby comforter&tags=||||8663.873|Price|product|||MDC|rsf:gd-|-stype:attr=1|qr_nm:gd|res:RC3|com-cf:nl|ptrs:na|ktp:N0|mc:55652|mtp:S|qry_typ:P|lang:en|wc:2|cs:8838|v=4,False,,Bengaluru,"Ground And First Floor, No 88, 2nd Cross, 4th Main, NGEF Layout, Nagashetty Halli, Sanjaynagar Bengaluru Urban, Bengaluru - 560094, Dist.Bengaluru, Karnataka",7949325043,
"Handmade Old Rose Pink Cotton Viscose Velvet Comforter Bedding Set, 3 Layered",https://www.indiamart.com/proddetail/cotton-viscose-velvet-comforter-bedding-set-22304182088.html?pos=78&kwd=baby comforter&tags=CC||||8778.123|Price|product|||TS|rsf:gd-|-stype:attr=1|qr_nm:gd|res:RC3|com-cf:nl|ptrs:na|ktp:N0|mc:55652|mtp:S|qry_typ:P|lang:en|wc:2|cs:8838|v=4,Kaushal International,https://www.indiamart.com/kaushalinternational/?pos=78&kwd=baby comforter&tags=CC||||8778.123|Price|product|||TS|rsf:gd-|-stype:attr=1|qr_nm:gd|res:RC3|com-cf:nl|ptrs:na|ktp:N0|mc:55652|mtp:S|qry_typ:P|lang:en|wc:2|cs:8838|v=4,False,Sector 7,Noida,"E-166 Sector 7 Noida, Sector 7, Noida - 201301, Dist.Gautam Budh Nagar, Uttar Pradesh",8048261358,
Multicolor Double Super Soft Mink,https://www.indiamart.com/proddetail/super-soft-mink-23815104997.html?pos=79&kwd=baby comforter&tags=CC||||8661.854|Price|product|||TS|rsf:gd-|-stype:attr=1|qr_nm:gd|res:RC3|com-cf:nl|ptrs:na|ktp:N0|mc:55652|mtp:S|qry_typ:P|lang:en|wc:2|cs:8838|v=4,R K Products,https://www.nightpartner.in/?pos=79&kwd=baby comforter&tags=CC||||8661.854|Price|product|||TS|rsf:gd-|-stype:attr=1|qr_nm:gd|res:RC3|com-cf:nl|ptrs:na|ktp:N0|mc:55652|mtp:S|qry_typ:P|lang:en|wc:2|cs:8838|v=4,False,Dev Nagar,Ludhiana,"Shop Number 2, 8&10, Chaura Bazar Factory Near Samrala Chownk & H.NO. 1450 NEW CHANDER NAGAR ST. NO.7 OPP. D.M.C HOSPITAL BASSI NURSING HOMEST, Dev Nagar, Ludhiana - 141001, Dist.Ludhiana, Punjab",8047638898,
"Baby Hand Block Cotton Quilt, Size: Twin Size",https://www.indiamart.com/proddetail/baby-hand-block-cotton-quilt-23569316212.html?pos=80&kwd=baby comforter&tags=CC||||8601.347|Price|product|||TS|rsf:gd-|-stype:attr=1|qr_nm:gd|res:RC3|com-cf:nl|ptrs:na|ktp:N0|mc:55652|mtp:S|qry_typ:P|lang:en|wc:2|cs:8838|v=4,Lucky Handicraft,https://www.luckyhandicraft.in/?pos=80&kwd=baby comforter&tags=CC||||8601.347|Price|product|||TS|rsf:gd-|-stype:attr=1|qr_nm:gd|res:RC3|com-cf:nl|ptrs:na|ktp:N0|mc:55652|mtp:S|qry_typ:P|lang:en|wc:2|cs:8838|v=4,False,Govind Nagar,Jaipur,"190, Govind Nagar East, Amer Road, Govind Nagar, Jaipur - 302002, Dist.Jaipur, Rajasthan",8046067577,
Net 2 Piece Babymoon Baby Floral Lace Swaddle Wrap Photography Prop,https://www.indiamart.com/proddetail/babymoon-baby-floral-lace-swaddle-wrap-photography-prop-19504041997.html?pos=81&kwd=baby comforter&tags=CC||||8228.275|Price|product|||MDC|rsf:gd-|-stype:attr=1|qr_nm:gd|res:RC3|com-cf:nl|ptrs:na|ktp:N0|mc:55652|mtp:S|qry_typ:P|lang:en|wc:2|cs:8838|v=4,Dream Works,https://www.indiamart.com/dreamworks-ahmedabad/?pos=81&kwd=baby comforter&tags=CC||||8228.275|Price|product|||MDC|rsf:gd-|-stype:attr=1|qr_nm:gd|res:RC3|com-cf:nl|ptrs:na|ktp:N0|mc:55652|mtp:S|qry_typ:P|lang:en|wc:2|cs:8838|v=4,False,Sanathal,Ahmedabad,"5,Chanakya Bunglows,Nr Lad Society Common Plot,Vastrapur, Sanathal, Ahmedabad - 380054, Dist.Ahmedabad, Gujarat",8047663803,
Baby Comforter Blanket 100% Muslin Cotton Made Soft Rich quality Blankets,https://www.indiamart.com/proddetail/baby-comforter-blanket-100-muslin-cotton-made-soft-rich-quality-blankets-2850472621973.html?pos=82&kwd=baby comforter&tags=||||8706.263|Price|product|||TS|rsf:gd-|-stype:attr=1|qr_nm:gd|res:RC3|com-cf:nl|ptrs:na|ktp:N0|mc:55652|mtp:S|qry_typ:P|lang:en|wc:2|cs:8838|v=4,Mercury Weavers,https://www.indiamart.com/mercuryweavers/?pos=82&kwd=baby comforter&tags=||||8706.263|Price|product|||TS|rsf:gd-|-stype:attr=1|qr_nm:gd|res:RC3|com-cf:nl|ptrs:na|ktp:N0|mc:55652|mtp:S|qry_typ:P|lang:en|wc:2|cs:8838|v=4,False,Gowripuram,Karur,"35/3, 2nd Floor, Gandhi Nagar 3rd Cross, Karur Town, Gowripuram, Karur - 639001, Dist.Karur, Tamil Nadu",8047641180,
Printed Kids Bed Comforter For Home,https://www.indiamart.com/proddetail/kids-bed-comforter-6764037688.html?pos=83&kwd=baby comforter&tags=||||8601.347|Price|product|||TS|rsf:gd-|-stype:attr=1|qr_nm:gd|res:RC3|com-cf:nl|ptrs:na|ktp:N0|mc:55652|mtp:S|qry_typ:P|lang:en|wc:2|cs:8838|v=4,Nakshatra Creation,https://www.nakshatracreation.com/?pos=83&kwd=baby comforter&tags=||||8601.347|Price|product|||TS|rsf:gd-|-stype:attr=1|qr_nm:gd|res:RC3|com-cf:nl|ptrs:na|ktp:N0|mc:55652|mtp:S|qry_typ:P|lang:en|wc:2|cs:8838|v=4,False,Durgapura,Jaipur,"26, Suresh Nagar, Durgapura, Durgapura, Jaipur - 302018, Dist.Jaipur, Rajasthan",8047643608,
"Kids Printed single comforter, For Home, Material: Glace Cotton",https://www.indiamart.com/proddetail/kids-printed-single-comforter-2854159969462.html?pos=84&kwd=baby comforter&tags=||||8786.56|Price|product|||MDC|rsf:gd-|-stype:attr=1|qr_nm:gd|res:RC3|com-cf:nl|ptrs:na|ktp:N0|mc:55652|mtp:S|qry_typ:P|lang:en|wc:2|cs:8838|v=4,Tarangini Bedsheets,https://www.indiamart.com/tarangini-bedsheets/?pos=84&kwd=baby comforter&tags=||||8786.56|Price|product|||MDC|rsf:gd-|-stype:attr=1|qr_nm:gd|res:RC3|com-cf:nl|ptrs:na|ktp:N0|mc:55652|mtp:S|qry_typ:P|lang:en|wc:2|cs:8838|v=4,False,Bahadurpura,Hyderabad,"19-5-10/9/1, Housing Borad Colony, Kerosene Oil Shop, Bahadurpura,, Bahadurpura, Hyderabad - 500064, Dist.Hyderabad, Telangana",8045737181,
"Divine Overseas Kids Single Bed Comforter/ Bag Packing Best For Gift (Single, Animal Design)",https://www.indiamart.com/proddetail/divine-overseas-kids-single-bed-comforter-bag-packing-best-for-gift-single-animal-design-2849766144773.html?pos=85&kwd=baby comforter&tags=||||8747.203|Price|product|||TS|rsf:gd-|-stype:attr=1|qr_nm:gd|res:RC3|com-cf:nl|ptrs:na|ktp:N0|mc:55652|mtp:S|qry_typ:P|lang:en|wc:2|cs:8838|v=4,Divine Overseas,https://www.indiamart.com/divineoverseas-panipat/?pos=85&kwd=baby comforter&tags=||||8747.203|Price|product|||TS|rsf:gd-|-stype:attr=1|qr_nm:gd|res:RC3|com-cf:nl|ptrs:na|ktp:N0|mc:55652|mtp:S|qry_typ:P|lang:en|wc:2|cs:8838|v=4,False,Kabul Bagh,Panipat,"21, Sanoli Road, Kabul Bagh, Panipat - 132103, Dist.Panipat, Haryana",8048955077,
"Kids Cartoon Print White Ac Comforter Set, For Everyday Use",https://www.indiamart.com/proddetail/ac-comforter-set-22161126848.html?pos=86&kwd=baby comforter&tags=||||8747.203|Price|product|||TS|rsf:gd-|-stype:attr=1|qr_nm:gd|res:RC3|com-cf:nl|ptrs:na|ktp:N0|mc:55652|mtp:S|qry_typ:P|lang:en|wc:2|cs:8838|v=4,M L Textile,https://www.indiamart.com/ml-textile/?pos=86&kwd=baby comforter&tags=||||8747.203|Price|product|||TS|rsf:gd-|-stype:attr=1|qr_nm:gd|res:RC3|com-cf:nl|ptrs:na|ktp:N0|mc:55652|mtp:S|qry_typ:P|lang:en|wc:2|cs:8838|v=4,False,Jattal,Panipat,"8 Marla Colony Jattal Road Near Siti Cable, Jattal, Panipat - 132103, Dist.Panipat, Haryana",8046074237,
"Blue Printed Portico Set, For Everyday Use, Size: 274 X274 cm",https://www.indiamart.com/proddetail/portico-set-2850046706562.html?pos=87&kwd=baby comforter&tags=||||8752.144|Price|product|||TS|rsf:gd-|-stype:attr=1|qr_nm:gd|res:RC3|com-cf:nl|ptrs:na|ktp:N0|mc:55652|mtp:S|qry_typ:P|lang:en|wc:2|cs:8838|v=4,Shubham Collection,https://www.theshubhamcollection.com/?pos=87&kwd=baby comforter&tags=||||8752.144|Price|product|||TS|rsf:gd-|-stype:attr=1|qr_nm:gd|res:RC3|com-cf:nl|ptrs:na|ktp:N0|mc:55652|mtp:S|qry_typ:P|lang:en|wc:2|cs:8838|v=4,False,Rohini Sector 9,New Delhi,"Building Number, D 12/182, Sector 8 Near Rohini East Metro Station, Rohini Sector 9, New Delhi - 110085, Dist.Delhi, Delhi",8046056568,
Jindal Home Kids Digital Print Comforter,https://www.indiamart.com/proddetail/digital-print-comforter-2853648380791.html?pos=88&kwd=baby comforter&tags=||||8228.275|Price|product|||TS|rsf:gd-|-stype:attr=1|qr_nm:gd|res:RC3|com-cf:nl|ptrs:na|ktp:N0|mc:55652|mtp:S|qry_typ:P|lang:en|wc:2|cs:8838|v=4,Jindal Texofab Limited,https://www.jindalhome.co.in/?pos=88&kwd=baby comforter&tags=||||8228.275|Price|product|||TS|rsf:gd-|-stype:attr=1|qr_nm:gd|res:RC3|com-cf:nl|ptrs:na|ktp:N0|mc:55652|mtp:S|qry_typ:P|lang:en|wc:2|cs:8838|v=4,False,Vatva,Ahmedabad,"Plot No 723, Phase 4, Vatva GIDC, Vatva, Ahmedabad - 382445, Dist.Ahmedabad, Gujarat",8045166427,
Jiya Multicolor Single Bed Comforter Kids Design 60 X 100,https://www.indiamart.com/proddetail/single-bed-comforter-kids-design-60-x-100-2854691569530.html?pos=89&kwd=baby comforter&tags=||||8747.203|Price|product|||TS|rsf:gd-|-stype:attr=1|qr_nm:gd|res:RC3|com-cf:nl|ptrs:na|ktp:N0|mc:55652|mtp:S|qry_typ:P|lang:en|wc:2|cs:8838|v=4,Jiya Overseas,https://www.jiyaoverseas.in/?pos=89&kwd=baby comforter&tags=||||8747.203|Price|product|||TS|rsf:gd-|-stype:attr=1|qr_nm:gd|res:RC3|com-cf:nl|ptrs:na|ktp:N0|mc:55652|mtp:S|qry_typ:P|lang:en|wc:2|cs:8838|v=4,False,,Panipat,"H No 5832, Ansal Sushant City, Block D1, Panipat - 132103, Dist.Panipat, Haryana",8044013139,
"Pihu Mink Baby blanket, Size: 30*40",https://www.indiamart.com/proddetail/baby-blanket-27050188430.html?pos=90&kwd=baby comforter&tags=||||8747.203||proxy|||TS|rsf:gd-|-stype:attr=1|qr_nm:gd|res:RC3|com-cf:nl|ptrs:na|ktp:N0|mc:55652|mtp:S|qry_typ:P|lang:en|wc:2|cs:8838|v=4,Krishna Texo Fab,https://www.indiamart.com/krishna-texo-fab/?pos=90&kwd=baby comforter&tags=||||8747.203||proxy|||TS|rsf:gd-|-stype:attr=1|qr_nm:gd|res:RC3|com-cf:nl|ptrs:na|ktp:N0|mc:55652|mtp:S|qry_typ:P|lang:en|wc:2|cs:8838|v=4,False,Old Housing Board Colony,Panipat,"1091/3 Pachranga Bazar, Old Housing Board Colony, Panipat - 132103, Dist.Panipat, Haryana",8048960024,
Baby Sleeping Bag,https://www.indiamart.com/proddetail/baby-sleeping-bag-2852923828862.html?pos=91&kwd=baby comforter&tags=||||8752.144|Price|proxy|||TS|rsf:gd-|-stype:attr=1|qr_nm:gd|res:RC3|com-cf:nl|ptrs:na|ktp:N0|mc:55652|mtp:S|qry_typ:P|lang:en|wc:2|cs:8838|v=4,Verma Enterprises,https://www.styaloindia.com/?pos=91&kwd=baby comforter&tags=||||8752.144|Price|proxy|||TS|rsf:gd-|-stype:attr=1|qr_nm:gd|res:RC3|com-cf:nl|ptrs:na|ktp:N0|mc:55652|mtp:S|qry_typ:P|lang:en|wc:2|cs:8838|v=4,False,Samaypur,New Delhi,"Plot No.180/1-B, Kh.No. 955/1, 1st, Block-C, Raja Vihar, Siraspur, Badli, North West Delhi, Samaypur, New Delhi - 110042, Dist.Delhi, Delhi",8047654672,
"Floral Bed Comforters Set, For Everywhere",https://www.indiamart.com/proddetail/bed-comforters-set-2850435379933.html?pos=92&kwd=baby comforter&tags=||||8747.203|Price|proxy|||TS|rsf:gd-|-stype:attr=1|qr_nm:gd|res:RC3|com-cf:nl|ptrs:na|ktp:N0|mc:55652|mtp:S|qry_typ:P|lang:en|wc:2|cs:8838|v=4,Clovis Krafts,https://www.cloviskrafts.com/?pos=92&kwd=baby comforter&tags=||||8747.203|Price|proxy|||TS|rsf:gd-|-stype:attr=1|qr_nm:gd|res:RC3|com-cf:nl|ptrs:na|ktp:N0|mc:55652|mtp:S|qry_typ:P|lang:en|wc:2|cs:8838|v=4,False,Tehsil Camp,Panipat,"Vikas Nagar 314 Tehsil Camp Near Ram Mandir, Tehsil Camp, Panipat - 132103, Dist.Panipat, Haryana",8047313394,
"Glace Cotton 140 Gsm Gray Double Bed Comforters, For Everyday Use",https://www.indiamart.com/proddetail/double-bed-comforters-27458218548.html?pos=93&kwd=baby comforter&tags=||||8747.203|Price|proxy|||TS|rsf:gd-|-stype:attr=1|qr_nm:gd|res:RC3|com-cf:nl|ptrs:na|ktp:N0|mc:55652|mtp:S|qry_typ:P|lang:en|wc:2|cs:8838|v=4,Divyansh Trading Co.,https://www.indiamart.com/divyanshtrading/?pos=93&kwd=baby comforter&tags=||||8747.203|Price|proxy|||TS|rsf:gd-|-stype:attr=1|qr_nm:gd|res:RC3|com-cf:nl|ptrs:na|ktp:N0|mc:55652|mtp:S|qry_typ:P|lang:en|wc:2|cs:8838|v=4,False,Sethi Chowk,Panipat,"Home Elegance's Sethi Chowk , Main Market , Parallel to HDFC Bank ATM, Sethi Chowk, Panipat - 132103, Dist.Panipat, Haryana",8048268043,
Multicolor Plain Solid Bed Comforter,https://www.indiamart.com/proddetail/solid-bed-comforter-2851514737497.html?pos=94&kwd=baby comforter&tags=||||8747.203|Price|proxy|||TS|rsf:gd-|-stype:attr=1|qr_nm:gd|res:RC3|com-cf:nl|ptrs:na|ktp:N0|mc:55652|mtp:S|qry_typ:P|lang:en|wc:2|cs:8838|v=4,Bhagat Trading Co.,https://www.indiamart.com/bhagat-trading-co-panipat/?pos=94&kwd=baby comforter&tags=||||8747.203|Price|proxy|||TS|rsf:gd-|-stype:attr=1|qr_nm:gd|res:RC3|com-cf:nl|ptrs:na|ktp:N0|mc:55652|mtp:S|qry_typ:P|lang:en|wc:2|cs:8838|v=4,False,Near,Panipat,"367/7, Bhagat Trading Co., Near Ram Mandir, Sanoli Road, Near, Panipat - 132103, Dist.Panipat, Haryana",7942818365,
Aarav Printed Bed Cotton Comforter,https://www.indiamart.com/proddetail/bed-cotton-comforter-25110033248.html?pos=95&kwd=baby comforter&tags=||||8785.791|Price|proxy|||TS|rsf:gd-|-stype:attr=1|qr_nm:gd|res:RC3|com-cf:nl|ptrs:na|ktp:N0|mc:55652|mtp:S|qry_typ:P|lang:en|wc:2|cs:8838|v=4,Aarav International,https://www.aaravinternationalup.com/?pos=95&kwd=baby comforter&tags=||||8785.791|Price|proxy|||TS|rsf:gd-|-stype:attr=1|qr_nm:gd|res:RC3|com-cf:nl|ptrs:na|ktp:N0|mc:55652|mtp:S|qry_typ:P|lang:en|wc:2|cs:8838|v=4,False,Loni,Ghaziabad,"Plot No D-25 Sector D-1 P-2, Tds City, Tronica City, Loni, Loni, Ghaziabad - 201102, Dist.Ghaziabad, Uttar Pradesh",7942543367,
Par Brahm White Bed Comforters Set,https://www.indiamart.com/proddetail/bed-comforters-set-2853924998591.html?pos=96&kwd=baby comforter&tags=||||8747.203|Price|proxy|||TS|rsf:gd-|-stype:attr=1|qr_nm:gd|res:RC3|com-cf:nl|ptrs:na|ktp:N0|mc:55652|mtp:S|qry_typ:P|lang:en|wc:2|cs:8838|v=4,BJ Overseas,https://www.bjoverseas.com/?pos=96&kwd=baby comforter&tags=||||8747.203|Price|proxy|||TS|rsf:gd-|-stype:attr=1|qr_nm:gd|res:RC3|com-cf:nl|ptrs:na|ktp:N0|mc:55652|mtp:S|qry_typ:P|lang:en|wc:2|cs:8838|v=4,False,Panipat,Panipat,"L-55, Adarsh Colony, Near Ganga Garden, Panipat, Panipat - 132103, Dist.Panipat, Haryana",8048988423,
Printed White Bedding Comforter Sets for Hotel,https://www.indiamart.com/proddetail/bedding-comforter-sets-4665270333.html?pos=97&kwd=baby comforter&tags=||||8785.791|Price|proxy|||TS|rsf:gd-|-stype:attr=1|qr_nm:gd|res:RC3|com-cf:nl|ptrs:na|ktp:N0|mc:55652|mtp:S|qry_typ:P|lang:en|wc:2|cs:8838|v=4,Anu International,https://www.indiamart.com/anuinternational-delhi/?pos=97&kwd=baby comforter&tags=||||8785.791|Price|proxy|||TS|rsf:gd-|-stype:attr=1|qr_nm:gd|res:RC3|com-cf:nl|ptrs:na|ktp:N0|mc:55652|mtp:S|qry_typ:P|lang:en|wc:2|cs:8838|v=4,False,Loni,Ghaziabad,"D-16, Sector A-1, Loni, Ghaziabad - 201102, Dist.Ghaziabad, Uttar Pradesh",8047631951,
"Printed HETVIK ENTERPRISE Kids Glazed Cotton Single Bed Ac Comforter, For Home,Hotel, Size: 60 X 90inch",https://www.indiamart.com/proddetail/hetvik-enterprise-kids-glazed-cotton-single-bed-ac-comforter-23914960333.html?pos=98&kwd=baby comforter&tags=||||8747.203|Price|product|||TS|rsf:gd-|-stype:attr=1|qr_nm:gd|res:RC3|com-cf:nl|ptrs:na|ktp:N0|mc:55652|mtp:S|qry_typ:P|lang:en|wc:2|cs:8838|v=4,Hetvik Enterprise,https://www.indiamart.com/hetvik-enterprise/?pos=98&kwd=baby comforter&tags=||||8747.203|Price|product|||TS|rsf:gd-|-stype:attr=1|qr_nm:gd|res:RC3|com-cf:nl|ptrs:na|ktp:N0|mc:55652|mtp:S|qry_typ:P|lang:en|wc:2|cs:8838|v=4,False,Kawi,Panipat,"Office No-1, Basement, Preet Tower, Tau Devi Lal Complex,, Kawi, Panipat - 132103, Dist.Panipat, Haryana",8046065237,
Cotton 180 Gsm Personalized Kids Comforter,https://www.indiamart.com/proddetail/cotton-180-gsm-personalized-kids-comforter-22548014188.html?pos=99&kwd=baby comforter&tags=CA||||8752.144|Price|product|||NA|rsf:gd-|-stype:attr=1|qr_nm:gd|res:RC3|com-cf:nl|ptrs:na|ktp:N0|mc:55652|mtp:S|qry_typ:P|lang:en|wc:2|cs:8838|v=4,Vinayak Collection,https://www.indiamart.com/vinayakcollectiondelhi/?pos=99&kwd=baby comforter&tags=CA||||8752.144|Price|product|||NA|rsf:gd-|-stype:attr=1|qr_nm:gd|res:RC3|com-cf:nl|ptrs:na|ktp:N0|mc:55652|mtp:S|qry_typ:P|lang:en|wc:2|cs:8838|v=4,False,,New Delhi,"65 D, Kamla Nagar, Near Chota Gol Chakkar, New Delhi - 110007, Dist.Delhi, Delhi",8047628567,
Multicolor Printed Diwali Gifting Comforter,https://www.indiamart.com/proddetail/diwali-gifting-comforter-2854999790512.html?pos=100&kwd=baby comforter&tags=||||8747.203|Price|proxy|||TS|rsf:gd-|-stype:attr=1|qr_nm:gd|res:RC3|com-cf:nl|ptrs:na|ktp:N0|mc:55652|mtp:S|qry_typ:P|lang:en|wc:2|cs:8838|v=4,Parth Exports,https://www.parthexport.in/?pos=100&kwd=baby comforter&tags=||||8747.203|Price|proxy|||TS|rsf:gd-|-stype:attr=1|qr_nm:gd|res:RC3|com-cf:nl|ptrs:na|ktp:N0|mc:55652|mtp:S|qry_typ:P|lang:en|wc:2|cs:8838|v=4,False,Sector 25,Panipat,"532, Ground Floor, Sector-25 Part-II, Sector 25, Panipat - 132103, Dist.Panipat, Haryana",7942563308,
"Multicolor Bentley Printed Bed Comforter Set, For Everyday Use, Size: Double",https://www.indiamart.com/proddetail/bentley-printed-bed-comforter-set-2854426233033.html?pos=101&kwd=baby comforter&tags=||||8747.203|Price|proxy|||MDC|rsf:gd-|-stype:attr=1|qr_nm:gd|res:RC3|com-cf:nl|ptrs:na|ktp:N0|mc:55652|mtp:S|qry_typ:P|lang:en|wc:2|cs:8838|v=4,The Bedding Decor,https://www.indiamart.com/the-bedding-decor/?pos=101&kwd=baby comforter&tags=||||8747.203|Price|proxy|||MDC|rsf:gd-|-stype:attr=1|qr_nm:gd|res:RC3|com-cf:nl|ptrs:na|ktp:N0|mc:55652|mtp:S|qry_typ:P|lang:en|wc:2|cs:8838|v=4,False,,Panipat,"Khasra No 39/11 Near Sector 24 Sanoli Road Veer Nagar Ugra Kheri Mod, Panipat - 132103, Dist.Panipat, Haryana",7949340554,
Glaze Cotton Plain 7pc Comforter Bedding Set,https://www.indiamart.com/proddetail/7pc-comforter-bedding-set-23674177991.html?pos=102&kwd=baby comforter&tags=||||8747.203|Price|proxy|||TS|rsf:gd-|-stype:attr=1|qr_nm:gd|res:RC3|com-cf:nl|ptrs:na|ktp:N0|mc:55652|mtp:S|qry_typ:P|lang:en|wc:2|cs:8838|v=4,Asham Overseas,https://www.ashamoverseas.com/?pos=102&kwd=baby comforter&tags=||||8747.203|Price|proxy|||TS|rsf:gd-|-stype:attr=1|qr_nm:gd|res:RC3|com-cf:nl|ptrs:na|ktp:N0|mc:55652|mtp:S|qry_typ:P|lang:en|wc:2|cs:8838|v=4,False,Netaji Colony,Panipat,"396 A-Block, Ansal Sushant City, Netaji Colony, Panipat - 132103, Dist.Panipat, Haryana",8046070204,
2-in-1 Baby Blanket & Towel Cute Character Designs for Ultimate Comfort,https://www.indiamart.com/proddetail/2-in-1-baby-blanket-towel-cute-character-designs-for-ultimate-comfort-2854921577588.html?pos=112&kwd=baby comforter&tags=||||8661.854|Price|product|||TS|rsf:gd-|-stype:attr=1|qr_nm:gd|res:RC3|com-cf:nl|ptrs:na|ktp:N0|mc:55652|mtp:S|qry_typ:P|lang:en|wc:2|cs:8838|v=4,Adwaita Export,https://www.indiamart.com/adwaitaexport/?pos=112&kwd=baby comforter&tags=||||8661.854|Price|product|||TS|rsf:gd-|-stype:attr=1|qr_nm:gd|res:RC3|com-cf:nl|ptrs:na|ktp:N0|mc:55652|mtp:S|qry_typ:P|lang:en|wc:2|cs:8838|v=4,False,Joshi Nagar,Ludhiana,"B-34-3912,,DURGA PURI,HAIBOWAL KALAN LUDHIANA, Joshi Nagar, Ludhiana - 141001, Dist.Ludhiana, Punjab",8044015715,
Ultrasonic Comforter Baby pink shade,https://www.indiamart.com/proddetail/ultrasonic-comforter-baby-pink-shade-2853967033955.html?pos=104&kwd=baby comforter&tags=||||8747.203|Price|product|||TS|rsf:gd-|-stype:attr=1|qr_nm:gd|res:RC3|com-cf:nl|ptrs:na|ktp:N0|mc:55652|mtp:S|qry_typ:P|lang:en|wc:2|cs:8838|v=4,Kirti Overseas,https://www.dreamydales.com/?pos=104&kwd=baby comforter&tags=||||8747.203|Price|product|||TS|rsf:gd-|-stype:attr=1|qr_nm:gd|res:RC3|com-cf:nl|ptrs:na|ktp:N0|mc:55652|mtp:S|qry_typ:P|lang:en|wc:2|cs:8838|v=4,False,kabri fatak,Panipat,"Funbasket Marketing, Behind DLS Factory, Kachha Kabri Fatak, kabri fatak, Panipat - 132103, Dist.Panipat, Haryana",8048979319,
pink Plain Bed Comforters duvet,https://www.indiamart.com/proddetail/bed-comforters-duvet-2849488019930.html?pos=105&kwd=baby comforter&tags=||||8601.347|Price|proxy|||MDC|rsf:gd-|-stype:attr=1|qr_nm:gd|res:RC3|com-cf:nl|ptrs:na|ktp:N0|mc:55652|mtp:S|qry_typ:P|lang:en|wc:2|cs:8838|v=4,Goyal Handloom House,https://www.indiamart.com/goyalhandloomhouse-jaipur/?pos=105&kwd=baby comforter&tags=||||8601.347|Price|proxy|||MDC|rsf:gd-|-stype:attr=1|qr_nm:gd|res:RC3|com-cf:nl|ptrs:na|ktp:N0|mc:55652|mtp:S|qry_typ:P|lang:en|wc:2|cs:8838|v=4,False,Murlipura,Jaipur,"21, Arya Nagar Yojna, Murlipura, Murlipura, Jaipur - 302039, Dist.Jaipur, Rajasthan",8045908203,
"Pihu Mink Baby blanket, Size: 30*40",https://www.indiamart.com/proddetail/baby-blanket-27050188430.html?pos=106&kwd=baby comforter&tags=D||||8747.203||proxy|||TS|rsf:gd-|-stype:attr=1|qr_nm:gd|res:RC3|com-cf:nl|ptrs:na|ktp:N0|mc:55652|mtp:S|qry_typ:P|lang:en|wc:2|cs:8838|v=4,Krishna Texo Fab,https://www.indiamart.com/krishna-texo-fab/?pos=106&kwd=baby comforter&tags=D||||8747.203||proxy|||TS|rsf:gd-|-stype:attr=1|qr_nm:gd|res:RC3|com-cf:nl|ptrs:na|ktp:N0|mc:55652|mtp:S|qry_typ:P|lang:en|wc:2|cs:8838|v=4,False,Old Housing Board Colony,Panipat,"1091/3 Pachranga Bazar, Old Housing Board Colony, Panipat - 132103, Dist.Panipat, Haryana",8048960024,
Green Printed Ultrasonic Comforter,https://www.indiamart.com/proddetail/ultrasonic-comforter-2851520840712.html?pos=107&kwd=baby comforter&tags=||||8747.203|Price|proxy|||TS|rsf:gd-|-stype:attr=1|qr_nm:gd|res:RC3|com-cf:nl|ptrs:na|ktp:N0|mc:55652|mtp:S|qry_typ:P|lang:en|wc:2|cs:8838|v=4,6 Sigma Impex,https://www.indiamart.com/6sigma-impex/?pos=107&kwd=baby comforter&tags=||||8747.203|Price|proxy|||TS|rsf:gd-|-stype:attr=1|qr_nm:gd|res:RC3|com-cf:nl|ptrs:na|ktp:N0|mc:55652|mtp:S|qry_typ:P|lang:en|wc:2|cs:8838|v=4,False,Model Town,Panipat,"L-536, Model Town, Model Town, Panipat - 132103, Dist.Panipat, Haryana",7942839766,
"Cotton Multicolor Hazel 4pcs comforter set, For Everyday Use",https://www.indiamart.com/proddetail/hazel-4pcs-comforter-set-2850506179691.html?pos=108&kwd=baby comforter&tags=||||8747.203|Price|proxy|||TS|rsf:gd-|-stype:attr=1|qr_nm:gd|res:RC3|com-cf:nl|ptrs:na|ktp:N0|mc:55652|mtp:S|qry_typ:P|lang:en|wc:2|cs:8838|v=4,Pavitra Textile,https://www.pavitratextile.com/?pos=108&kwd=baby comforter&tags=||||8747.203|Price|proxy|||TS|rsf:gd-|-stype:attr=1|qr_nm:gd|res:RC3|com-cf:nl|ptrs:na|ktp:N0|mc:55652|mtp:S|qry_typ:P|lang:en|wc:2|cs:8838|v=4,False,Panipat N.S.M.,Panipat,"1560/10, Sanoli Road Pujara Sweets, Panipat N.S.M., Panipat - 132103, Dist.Panipat, Haryana",8047655734,
Roxalla Black Yellow Bed Comforter Set,https://www.indiamart.com/proddetail/roxalla-black-yellow-bed-comforter-set-2853000548988.html?pos=109&kwd=baby comforter&tags=||||8747.203|Price|proxy|||MDC|rsf:gd-|-stype:attr=1|qr_nm:gd|res:RC3|com-cf:nl|ptrs:na|ktp:N0|mc:55652|mtp:S|qry_typ:P|lang:en|wc:2|cs:8838|v=4,Roxalla Home Private Limited,https://www.indiamart.com/roxalla-homeharyana/?pos=109&kwd=baby comforter&tags=||||8747.203|Price|proxy|||MDC|rsf:gd-|-stype:attr=1|qr_nm:gd|res:RC3|com-cf:nl|ptrs:na|ktp:N0|mc:55652|mtp:S|qry_typ:P|lang:en|wc:2|cs:8838|v=4,False,Babail,Panipat,"Khewat No. 399, Khasra No. 101, Babail Road, Gali No. 4, Near Budhiraja Chowk, Bharat Nagar, Babail, Panipat - 132103, Dist.Panipat, Haryana",7942707269,
Kids ultrasonic comforter,https://www.indiamart.com/proddetail/kids-ultrasonic-comforter-2850917789988.html?pos=110&kwd=baby comforter&tags=||||8747.203|Price|product|||TS|rsf:gd-|-stype:attr=1|qr_nm:gd|res:RC3|com-cf:nl|ptrs:na|ktp:N0|mc:55652|mtp:S|qry_typ:P|lang:en|wc:2|cs:8838|v=4,Chander Bhan Tej Bhan,https://www.cbtbhome.com/?pos=110&kwd=baby comforter&tags=||||8747.203|Price|product|||TS|rsf:gd-|-stype:attr=1|qr_nm:gd|res:RC3|com-cf:nl|ptrs:na|ktp:N0|mc:55652|mtp:S|qry_typ:P|lang:en|wc:2|cs:8838|v=4,False,pachranga bazar,Panipat,"416/4, Gf And Basement, Amar Bhawan Chowk, Circular Road, pachranga bazar, Panipat - 132103, Dist.Panipat, Haryana",7942802452,
Cotton Mixed colours Printed Multicolour Micro Comforter For Kids,https://www.indiamart.com/proddetail/printed-multicolour-micro-comforter-for-kids-2854894215488.html?pos=111&kwd=baby comforter&tags=||||8601.347|Price|product|||TS|rsf:gd-|-stype:attr=1|qr_nm:gd|res:RC3|com-cf:nl|ptrs:na|ktp:N0|mc:55652|mtp:S|qry_typ:P|lang:en|wc:2|cs:8838|v=4,Heavenbirds,https://www.heavenbirds.co.in/?pos=111&kwd=baby comforter&tags=||||8601.347|Price|product|||TS|rsf:gd-|-stype:attr=1|qr_nm:gd|res:RC3|com-cf:nl|ptrs:na|ktp:N0|mc:55652|mtp:S|qry_typ:P|lang:en|wc:2|cs:8838|v=4,False,Vaishali Nagar,Jaipur,"Plot No.49-A & 49-B, Dev Siddhi Tower, Nand Vihar, 200 Fit By Pass,, Vaishali Nagar, Jaipur - 302021, Dist.Jaipur, Rajasthan",8047785784,
2-in-1 Baby Blanket & Towel Cute Character Designs for Ultimate Comfort,https://www.indiamart.com/proddetail/2-in-1-baby-blanket-towel-cute-character-designs-for-ultimate-comfort-2854921577588.html?pos=112&kwd=baby comforter&tags=||||8661.854|Price|product|||TS|rsf:gd-|-stype:attr=1|qr_nm:gd|res:RC3|com-cf:nl|ptrs:na|ktp:N0|mc:55652|mtp:S|qry_typ:P|lang:en|wc:2|cs:8838|v=4,Adwaita Export,https://www.indiamart.com/adwaitaexport/?pos=112&kwd=baby comforter&tags=||||8661.854|Price|product|||TS|rsf:gd-|-stype:attr=1|qr_nm:gd|res:RC3|com-cf:nl|ptrs:na|ktp:N0|mc:55652|mtp:S|qry_typ:P|lang:en|wc:2|cs:8838|v=4,False,Joshi Nagar,Ludhiana,"B-34-3912,,DURGA PURI,HAIBOWAL KALAN LUDHIANA, Joshi Nagar, Ludhiana - 141001, Dist.Ludhiana, Punjab",8044015715,
"Woolen Baby Blankets, Size: Singe",https://www.indiamart.com/proddetail/baby-blankets-2853118109597.html?pos=113&kwd=baby comforter&tags=||||8747.203|Price|proxy|||TS|rsf:gd-|-stype:attr=1|qr_nm:gd|res:RC3|com-cf:nl|ptrs:na|ktp:N0|mc:55652|mtp:S|qry_typ:P|lang:en|wc:2|cs:8838|v=4,Navya Enterprises,https://www.enterprisesnavya.com/?pos=113&kwd=baby comforter&tags=||||8747.203|Price|proxy|||TS|rsf:gd-|-stype:attr=1|qr_nm:gd|res:RC3|com-cf:nl|ptrs:na|ktp:N0|mc:55652|mtp:S|qry_typ:P|lang:en|wc:2|cs:8838|v=4,False,Chadau Mohalla,Panipat,"H No.809, Purewal Colony, Chadau Mohalla, Panipat - 132103, Dist.Panipat, Haryana",8048968729,
Brown Printed Double Bed Quilt Comforter,https://www.indiamart.com/proddetail/printed-double-bed-quilt-comforter-2852743433562.html?pos=114&kwd=baby comforter&tags=||||8747.203|Price|proxy|||TS|rsf:gd-|-stype:attr=1|qr_nm:gd|res:RC3|com-cf:nl|ptrs:na|ktp:N0|mc:55652|mtp:S|qry_typ:P|lang:en|wc:2|cs:8838|v=4,Satyam Cottex India Pvt. Ltd.,https://www.indiamart.com/satyam-cottex-india/?pos=114&kwd=baby comforter&tags=||||8747.203|Price|proxy|||TS|rsf:gd-|-stype:attr=1|qr_nm:gd|res:RC3|com-cf:nl|ptrs:na|ktp:N0|mc:55652|mtp:S|qry_typ:P|lang:en|wc:2|cs:8838|v=4,False,,Panipat,"Opp. Baba Peer, G.T. Road, Sewah, Panipat - 132103, Dist.Panipat, Haryana",8045729152,
Multicolor Printed Ultrasonic Ac Comforters,https://www.indiamart.com/proddetail/ultrasonic-ac-comforters-2853622305633.html?pos=115&kwd=baby comforter&tags=||||8747.203|Price|proxy|||TS|rsf:gd-|-stype:attr=1|qr_nm:gd|res:RC3|com-cf:nl|ptrs:na|ktp:N0|mc:55652|mtp:S|qry_typ:P|lang:en|wc:2|cs:8838|v=4,Choice Home Textiles,https://www.choicehome.in/?pos=115&kwd=baby comforter&tags=||||8747.203|Price|proxy|||TS|rsf:gd-|-stype:attr=1|qr_nm:gd|res:RC3|com-cf:nl|ptrs:na|ktp:N0|mc:55652|mtp:S|qry_typ:P|lang:en|wc:2|cs:8838|v=4,False,Manmohan Nagar,Panipat,"Dhoop Singh nagar gali no 21, Manmohan Nagar, Panipat - 132103, Dist.Panipat, Haryana",7942815204,
"Double Comforter Printed Cotton Bed Sheet, Pattern: Floral Print",https://www.indiamart.com/proddetail/double-comforter-printed-cotton-2854825953855.html?pos=116&kwd=baby comforter&tags=||||8601.347|Price|proxy|||MDC|rsf:gd-|-stype:attr=1|qr_nm:gd|res:RC3|com-cf:nl|ptrs:na|ktp:N0|mc:55652|mtp:S|qry_typ:P|lang:en|wc:2|cs:8838|v=4,Osaka Retail,https://www.indiamart.com/osakaretail/?pos=116&kwd=baby comforter&tags=||||8601.347|Price|proxy|||MDC|rsf:gd-|-stype:attr=1|qr_nm:gd|res:RC3|com-cf:nl|ptrs:na|ktp:N0|mc:55652|mtp:S|qry_typ:P|lang:en|wc:2|cs:8838|v=4,False,,Jaipur,"52, Govinda Colony, Near Triveni Nagar Bus Stop, Jaipur - 302015, Dist.Jaipur, Rajasthan",7949330748,
"Red Printed Velvet Baby Bedding Set, For Home",https://www.indiamart.com/proddetail/velvet-baby-bedding-set-23724583333.html?pos=117&kwd=baby comforter&tags=||||8752.144|Price|product|||MDC|rsf:gd-|-stype:attr=1|qr_nm:gd|res:RC3|com-cf:nl|ptrs:na|ktp:N0|mc:55652|mtp:S|qry_typ:P|lang:en|wc:2|cs:8838|v=4,Nagar Mal And Co.,https://www.indiamart.com/nagarmalandco/?pos=117&kwd=baby comforter&tags=||||8752.144|Price|product|||MDC|rsf:gd-|-stype:attr=1|qr_nm:gd|res:RC3|com-cf:nl|ptrs:na|ktp:N0|mc:55652|mtp:S|qry_typ:P|lang:en|wc:2|cs:8838|v=4,False,,New Delhi,"4581, Cloth Market mahavir bazaar chandni chowk, New Delhi - 110006, Dist.Delhi, Delhi",8046053529,
"Printed SIE STORE Self Design Single Comforter For kid's, For Everyday,Home, Size: 152.4 cm X 230 cm",https://www.indiamart.com/proddetail/sie-store-self-design-single-comforter-for-kid-s-25556787988.html?pos=118&kwd=baby comforter&tags=||||8601.347|Price|product|||MDC|rsf:gd-|-stype:attr=1|qr_nm:gd|res:RC3|com-cf:nl|ptrs:na|ktp:N0|mc:55652|mtp:S|qry_typ:P|lang:en|wc:2|cs:8838|v=4,Srknd India Enterprises,https://www.indiamart.com/srkndindiaenterprises/?pos=118&kwd=baby comforter&tags=||||8601.347|Price|product|||MDC|rsf:gd-|-stype:attr=1|qr_nm:gd|res:RC3|com-cf:nl|ptrs:na|ktp:N0|mc:55652|mtp:S|qry_typ:P|lang:en|wc:2|cs:8838|v=4,False,Rawan Gate,Jaipur,"S-2, Plot No 83 Parth Sarthi Residency, Rawan Gate, Jaipur - 302012, Dist.Jaipur, Rajasthan",8048963972,
"Dharmnandan Creation White Double Bed Comforter, For Everyday Use",https://www.indiamart.com/proddetail/double-bed-comforter-25637523662.html?pos=119&kwd=baby comforter&tags=||||8230.883|Price|product|||MDC|rsf:gd-|-stype:attr=1|qr_nm:gd|res:RC3|com-cf:nl|ptrs:na|ktp:N0|mc:55652|mtp:S|qry_typ:P|lang:en|wc:2|cs:8838|v=4,Dharmnandan Creation,https://www.indiamart.com/dharmnandancreation/?pos=119&kwd=baby comforter&tags=||||8230.883|Price|product|||MDC|rsf:gd-|-stype:attr=1|qr_nm:gd|res:RC3|com-cf:nl|ptrs:na|ktp:N0|mc:55652|mtp:S|qry_typ:P|lang:en|wc:2|cs:8838|v=4,False,Udhana,Surat,"Plot No. A/10, City Ind. Estate, Udhana, Udhan Road,, Udhana, Surat - 394210, Dist.Surat, Gujarat",7942543669,
"Cotton Brown Kids Single Bed Quilt Bed Comforter, Size: 6x6 Ft",https://www.indiamart.com/proddetail/kids-single-bed-quilt-bed-comforter-25496056762.html?pos=120&kwd=baby comforter&tags=||||8752.144|Price|product|||MDC|rsf:gd-|-stype:attr=1|qr_nm:gd|res:RC3|com-cf:nl|ptrs:na|ktp:N0|mc:55652|mtp:S|qry_typ:P|lang:en|wc:2|cs:8838|v=4,K.D. Enterprises,https://www.indiamart.com/k-denterprisesdelhi/?pos=120&kwd=baby comforter&tags=||||8752.144|Price|product|||MDC|rsf:gd-|-stype:attr=1|qr_nm:gd|res:RC3|com-cf:nl|ptrs:na|ktp:N0|mc:55652|mtp:S|qry_typ:P|lang:en|wc:2|cs:8838|v=4,False,Chandni Chowk,New Delhi,"4552 G/F, Mahavir Bazar, Cloth Market, Chandni Chowk,, Chandni Chowk, New Delhi - 110006, Dist.Delhi, Delhi",8047621152,
Pink (Base) Printed Kids Single Bed Comforter,https://www.indiamart.com/proddetail/kids-single-bed-comforter-2853187699762.html?pos=121&kwd=baby comforter&tags=||||8747.203|Price|product|||MDC|rsf:gd-|-stype:attr=1|qr_nm:gd|res:RC3|com-cf:nl|ptrs:na|ktp:N0|mc:55652|mtp:S|qry_typ:P|lang:en|wc:2|cs:8838|v=4,Four Seasons Handloom,https://www.indiamart.com/fourseasons-handloom/?pos=121&kwd=baby comforter&tags=||||8747.203|Price|product|||MDC|rsf:gd-|-stype:attr=1|qr_nm:gd|res:RC3|com-cf:nl|ptrs:na|ktp:N0|mc:55652|mtp:S|qry_typ:P|lang:en|wc:2|cs:8838|v=4,False,Chowk,Panipat,"Shop No. R-182, Near Ram Mandir Gali, Amar Bhawan Chowk, Chowk, Panipat - 132103, Dist.Panipat, Haryana",7942707762,
Kids Bedsheet,https://www.indiamart.com/proddetail/kids-bedsheet-2850425551155.html?pos=122&kwd=baby comforter&tags=||||8747.203|Price|product|||MDC|rsf:gd-|-stype:attr=1|qr_nm:gd|res:RC3|com-cf:nl|ptrs:na|ktp:N0|mc:55652|mtp:S|qry_typ:P|lang:en|wc:2|cs:8838|v=4,Golden International Private Limited,https://www.indiamart.com/goldennternational/?pos=122&kwd=baby comforter&tags=||||8747.203|Price|product|||MDC|rsf:gd-|-stype:attr=1|qr_nm:gd|res:RC3|com-cf:nl|ptrs:na|ktp:N0|mc:55652|mtp:S|qry_typ:P|lang:en|wc:2|cs:8838|v=4,False,Shastri Colony,Panipat,"G T Road Near Hotel Mid Town, Shastri Colony, Panipat - 132103, Dist.Panipat, Haryana",7942798689,
"Printed Vintage Comforter Set With Frill, For Everyday Use, Size: 90x100",https://www.indiamart.com/proddetail/vintage-comforter-set-with-frill-2851624462630.html?pos=123&kwd=baby comforter&tags=||||8747.203|Price|proxy|||TS|rsf:gd-|-stype:attr=1|qr_nm:gd|res:RC3|com-cf:nl|ptrs:na|ktp:N0|mc:55652|mtp:S|qry_typ:P|lang:en|wc:2|cs:8838|v=4,Daya Handlooms Private Limited,https://www.dayahandloom.in/?pos=123&kwd=baby comforter&tags=||||8747.203|Price|proxy|||TS|rsf:gd-|-stype:attr=1|qr_nm:gd|res:RC3|com-cf:nl|ptrs:na|ktp:N0|mc:55652|mtp:S|qry_typ:P|lang:en|wc:2|cs:8838|v=4,False,Chowk,Panipat,"Amar Bhawan Chowk Shop NO - 412 Ward NO- 7 Near Ram Mandir Gali, Chowk, Panipat - 132103, Dist.Panipat, Haryana",7942833117,
Pink Cotton Baby Sling Carrier,https://www.indiamart.com/proddetail/baby-sling-carrier-23153679812.html?pos=124&kwd=baby comforter&tags=||||8706.263|Price|proxy|||TS|rsf:gd-|-stype:attr=1|qr_nm:gd|res:RC3|com-cf:nl|ptrs:na|ktp:N0|mc:55652|mtp:S|qry_typ:P|lang:en|wc:2|cs:8838|v=4,Sivam Export,https://www.indiamart.com/sivamexport-karur/?pos=124&kwd=baby comforter&tags=||||8706.263|Price|proxy|||TS|rsf:gd-|-stype:attr=1|qr_nm:gd|res:RC3|com-cf:nl|ptrs:na|ktp:N0|mc:55652|mtp:S|qry_typ:P|lang:en|wc:2|cs:8838|v=4,False,,Karur,"6/1 Thiru Nagar,3rd Street, Karur - 639002, Dist.Karur, Tamil Nadu",8046050918,
"Mix Colours Printed Bed Comforters, For Everyday Use, Size: 60 x 90",https://www.indiamart.com/proddetail/mix-colours-printed-bed-comforters-23551329655.html?pos=125&kwd=baby comforter&tags=||||8228.275|Price|proxy|||TS|rsf:gd-|-stype:attr=1|qr_nm:gd|res:RC3|com-cf:nl|ptrs:na|ktp:N0|mc:55652|mtp:S|qry_typ:P|lang:en|wc:2|cs:8838|v=4,CTM Homestyle Private Limited,https://www.indiamart.com/ctm-homestyle/?pos=125&kwd=baby comforter&tags=||||8228.275|Price|proxy|||TS|rsf:gd-|-stype:attr=1|qr_nm:gd|res:RC3|com-cf:nl|ptrs:na|ktp:N0|mc:55652|mtp:S|qry_typ:P|lang:en|wc:2|cs:8838|v=4,False,Amraiwadi,Ahmedabad,"CTM Textile Mills, CTM Char Rasta, Ramol Road, Amraiwadi, Ahmedabad - 380026, Dist.Ahmedabad, Gujarat",8048953900,
Divine Linens,,Divine Linens,https://www.indiamart.com/kalratextiles/?pos=126&kwd=baby comforter&tags=||||8752.144||bl|||TS|rsf:gd-|-stype:attr=1|qr_nm:gd|res:RC3|com-cf:nl|ptrs:na|ktp:N0|mc:55652|mtp:S|qry_typ:P|lang:en|wc:2|cs:8838|v=4,False,Patel Nagar,New Delhi,"Basement, 24/32, Near Govt. School, Patel Nagar West, Patel Nagar, New Delhi - 110008, Dist.Delhi, Delhi",8047646247,
Comforter Set,https://www.indiamart.com/proddetail/comforter-set-2852987572997.html?pos=127&kwd=baby comforter&tags=||||8752.144|Price|proxy|||TS|rsf:gd-|-stype:attr=1|qr_nm:gd|res:RC3|com-cf:nl|ptrs:na|ktp:N0|mc:55652|mtp:S|qry_typ:P|lang:en|wc:2|cs:8838|v=4,Shivani Bed Cover,https://www.indiamart.com/shivanibedcover-delhi/?pos=127&kwd=baby comforter&tags=||||8752.144|Price|proxy|||TS|rsf:gd-|-stype:attr=1|qr_nm:gd|res:RC3|com-cf:nl|ptrs:na|ktp:N0|mc:55652|mtp:S|qry_typ:P|lang:en|wc:2|cs:8838|v=4,False,Kamla Nagar,New Delhi,"5164, Kohlapur Road, Kamla Nagar, Kamla Nagar, New Delhi - 110007, Dist.Delhi, Delhi",8047803363,
Baby Comforter,https://www.indiamart.com/proddetail/baby-comforter-2853211655788.html?pos=128&kwd=baby comforter&tags=CC||||8747.203|Price|product|||NA|rsf:gd-|-stype:attr=1|qr_nm:gd|res:RC3|com-cf:nl|ptrs:na|ktp:N0|mc:55652|mtp:S|qry_typ:P|lang:en|wc:2|cs:8838|v=4,Anvika Textile,https://www.indiamart.com/anvika-textile/?pos=128&kwd=baby comforter&tags=CC||||8747.203|Price|product|||NA|rsf:gd-|-stype:attr=1|qr_nm:gd|res:RC3|com-cf:nl|ptrs:na|ktp:N0|mc:55652|mtp:S|qry_typ:P|lang:en|wc:2|cs:8838|v=4,False,,Panipat,"Gali No. 5 Sanoli Road , Opposite Zali Wala Karkhana Ganesh Nagar Panipat Panipat, Panipat - 132103, Dist.Panipat, Haryana",8045849980,853
"Rk Cotton Baby Comforter, Size: 60*90""",https://www.indiamart.com/proddetail/baby-comforter-27286676848.html?pos=129&kwd=baby comforter&tags=CC||||8734.695|Price|product|||NA|rsf:gd-|-stype:attr=1|qr_nm:gd|res:RC3|com-cf:nl|ptrs:na|ktp:N0|mc:55652|mtp:S|qry_typ:P|lang:en|wc:2|cs:8838|v=4,RK Trading Company,https://www.indiamart.com/rk-tradingcompany/?pos=129&kwd=baby comforter&tags=CC||||8734.695|Price|product|||NA|rsf:gd-|-stype:attr=1|qr_nm:gd|res:RC3|com-cf:nl|ptrs:na|ktp:N0|mc:55652|mtp:S|qry_typ:P|lang:en|wc:2|cs:8838|v=4,False,,Bahadurgarh,"Neta Ji Nagar Jaipan Railway Line, Par,Bahadurgarh Jhajjar,, Bahadurgarh - 124507, Dist.Jhajjar, Haryana",8047620988,
Baby Comforter,https://www.indiamart.com/proddetail/baby-comforter-4627096797.html?pos=130&kwd=baby comforter&tags=CC||||8741.812|Price|product|||NA|rsf:gd-|-stype:attr=1|qr_nm:gd|res:RC3|com-cf:nl|ptrs:na|ktp:N0|mc:55652|mtp:S|qry_typ:P|lang:en|wc:2|cs:8838|v=4,Bag Maker,https://www.indiamart.com/bagmaker/?pos=130&kwd=baby comforter&tags=CC||||8741.812|Price|product|||NA|rsf:gd-|-stype:attr=1|qr_nm:gd|res:RC3|com-cf:nl|ptrs:na|ktp:N0|mc:55652|mtp:S|qry_typ:P|lang:en|wc:2|cs:8838|v=4,False,Pace City 2,Gurugram,"PLOT NO 522/523,,PACE CITY 2 SECTOR 37 GURGAON,GURGAON Plot No. 522, 523, Sector - 37,122002,Gurgaon, Pace City 2, Gurugram - 122001, Dist.Gurgaon, Haryana",8048247114,1693
Baby Comforter,,Feyoka Homes Private Limited,https://www.indiamart.com/feyoka-homes-private-limited/?pos=131&kwd=baby comforter&tags=CC||||8788.382||product|||NA|rsf:gd-|-stype:attr=1|qr_nm:gd|res:RC3|com-cf:nl|ptrs:na|ktp:N0|mc:55652|mtp:S|qry_typ:P|lang:en|wc:2|cs:8838|v=4,False,,Greater Noida,"b - 67 Sector - 88 Noida Gautam Buddha Nagar, Greater Noida - 201306, Dist.Gautam Budh Nagar, Uttar Pradesh",7949368211,
"Floral Print Single Printed Baby Comforter, 1 Year",https://www.indiamart.com/proddetail/printed-baby-comforter-27447683455.html?pos=132&kwd=baby comforter&tags=CC||||8275.938|Price|product|||NA|rsf:gd-|-stype:attr=1|qr_nm:gd|res:RC3|com-cf:nl|ptrs:na|ktp:N0|mc:55652|mtp:S|qry_typ:P|lang:en|wc:2|cs:8838|v=4,Shantiniketan Handloom,https://www.indiamart.com/shantiniketan-handloom/?pos=132&kwd=baby comforter&tags=CC||||8275.938|Price|product|||NA|rsf:gd-|-stype:attr=1|qr_nm:gd|res:RC3|com-cf:nl|ptrs:na|ktp:N0|mc:55652|mtp:S|qry_typ:P|lang:en|wc:2|cs:8838|v=4,False,,Himatnagar,"No 427, Kamdar Ni Khadki, Desai Wada, Juna Bazar, Sabarkantha, Himatnagar - 383001, Dist.Sabarkantha, Gujarat",7942674749,
Baby Pillow Comforter,https://www.indiamart.com/proddetail/baby-pillow-comforter-22510624930.html?pos=133&kwd=baby comforter&tags=CC||||8413.825|Price|product|||NA|rsf:gd-|-stype:attr=1|qr_nm:gd|res:RC3|com-cf:nl|ptrs:na|ktp:N0|mc:55652|mtp:S|qry_typ:P|lang:en|wc:2|cs:8838|v=4,M S Marketing,https://www.indiamart.com/ms-fabrics-hubli/?pos=133&kwd=baby comforter&tags=CC||||8413.825|Price|product|||NA|rsf:gd-|-stype:attr=1|qr_nm:gd|res:RC3|com-cf:nl|ptrs:na|ktp:N0|mc:55652|mtp:S|qry_typ:P|lang:en|wc:2|cs:8838|v=4,False,,Hubli,"GROUND FLOOR,1,JYOTHI BUILDING,BUTTER MARKET, Hubli - 580028, Dist.Dharwad, Karnataka",8046051851,
"Printed 100 % Cotton Baby Comforter Very High Quality Very Soft, 4 Year",https://www.indiamart.com/proddetail/baby-comforter-very-high-quality-very-soft-20305569988.html?pos=134&kwd=baby comforter&tags=CC||||9110.092|Price|product|||NA|rsf:gd-|-stype:attr=1|qr_nm:gd|res:RC3|com-cf:nl|ptrs:na|ktp:N0|mc:55652|mtp:S|qry_typ:P|lang:en|wc:2|cs:8838|v=4,Seeta Sons Holdings Private Limited,https://www.indiamart.com/seeta-sons-holdings/?pos=134&kwd=baby comforter&tags=CC||||9110.092|Price|product|||NA|rsf:gd-|-stype:attr=1|qr_nm:gd|res:RC3|com-cf:nl|ptrs:na|ktp:N0|mc:55652|mtp:S|qry_typ:P|lang:en|wc:2|cs:8838|v=4,False,Gomtinagar Lucknow,Lucknow,"4th Floor, Shalimar Titanium Vibhuti Khand, Gomtinagar Lucknow, Lucknow - 226010, Dist.Lucknow, Uttar Pradesh",8048372627,660
khurana ahndloom Multicolor Hotel Comforter,https://www.indiamart.com/proddetail/hotel-comforter-2853098892691.html?pos=135&kwd=baby comforter&tags=||||8747.203|Price|proxy|||MDC|rsf:gd-|-stype:attr=1|qr_nm:gd|res:RC3|com-cf:nl|ptrs:na|ktp:N0|mc:55652|mtp:S|qry_typ:P|lang:en|wc:2|cs:8838|v=4,Khurana Handloom,https://www.indiamart.com/khurana-handloom-panipat/?pos=135&kwd=baby comforter&tags=||||8747.203|Price|proxy|||MDC|rsf:gd-|-stype:attr=1|qr_nm:gd|res:RC3|com-cf:nl|ptrs:na|ktp:N0|mc:55652|mtp:S|qry_typ:P|lang:en|wc:2|cs:8838|v=4,False,Chawla Colony,Panipat,"988, Ward - 8,Near Lahu Wala Gurudwara, Sanoli Road, Chawla Colony, Panipat - 132103, Dist.Panipat, Haryana",8048274197,
Baby Comforters,https://www.indiamart.com/proddetail/baby-comforters-24746511791.html?pos=136&kwd=baby comforter&tags=CC||||8747.203|Price|product|||NA|rsf:gd-|-stype:attr=1|qr_nm:gd|res:RC3|com-cf:nl|ptrs:na|ktp:N0|mc:55652|mtp:S|qry_typ:P|lang:en|wc:2|cs:8838|v=4,Hero Handloom Industries,https://www.indiamart.com/hero-handloomindustries/?pos=136&kwd=baby comforter&tags=CC||||8747.203|Price|product|||NA|rsf:gd-|-stype:attr=1|qr_nm:gd|res:RC3|com-cf:nl|ptrs:na|ktp:N0|mc:55652|mtp:S|qry_typ:P|lang:en|wc:2|cs:8838|v=4,False,Panipat Haryana India,Panipat,"20, Jatal Road Bhagat Singh Colony,, Panipat Haryana India, Panipat - 132103, Dist.Panipat, Haryana",7942540833,
"Kidzee Pink Kids Comforter, 5-15, Size: 60*90",https://www.indiamart.com/proddetail/kids-comforter-2849953695991.html?pos=137&kwd=baby comforter&tags=CC||||8747.203|Price|product|||NA|rsf:gd-|-stype:attr=1|qr_nm:gd|res:RC3|com-cf:nl|ptrs:na|ktp:N0|mc:55652|mtp:S|qry_typ:P|lang:en|wc:2|cs:8838|v=4,Maruti Fab,https://www.indiamart.com/marutitextiles-panipat/?pos=137&kwd=baby comforter&tags=CC||||8747.203|Price|product|||NA|rsf:gd-|-stype:attr=1|qr_nm:gd|res:RC3|com-cf:nl|ptrs:na|ktp:N0|mc:55652|mtp:S|qry_typ:P|lang:en|wc:2|cs:8838|v=4,False,,Panipat,"Gali No 5 Dhoop Singh Nagar, Near M S Furnishing,, Panipat - 132103, Dist.Panipat, Haryana",8047308844,3104
kids comforter - 45x 60 inches,https://www.indiamart.com/proddetail/kids-comforter-45x-60-inches-24944740373.html?pos=138&kwd=baby comforter&tags=CC||||8747.203|Price|product|||NA|rsf:gd-|-stype:attr=1|qr_nm:gd|res:RC3|com-cf:nl|ptrs:na|ktp:N0|mc:55652|mtp:S|qry_typ:P|lang:en|wc:2|cs:8838|v=4,Paryag Woollen Ind,https://www.indiamart.com/prayag-woollen-industry/?pos=138&kwd=baby comforter&tags=CC||||8747.203|Price|product|||NA|rsf:gd-|-stype:attr=1|qr_nm:gd|res:RC3|com-cf:nl|ptrs:na|ktp:N0|mc:55652|mtp:S|qry_typ:P|lang:en|wc:2|cs:8838|v=4,False,,Panipat,"Babarpur, Panipat - 132103, Dist.Panipat, Haryana",8048372657,399
Baby Comfort (Net),https://www.indiamart.com/proddetail/baby-comfort-net-7065765273.html?pos=139&kwd=baby comforter&tags=CC||||8500.97||product|||NA|rsf:gd-|-stype:attr=1|qr_nm:gd|res:RC3|com-cf:nl|ptrs:na|ktp:N0|mc:55652|mtp:S|qry_typ:P|lang:en|wc:2|cs:8838|v=4,Southern India Poly Products Pvt. Ltd.,https://www.indiamart.com/southern-plasticindustries/?pos=139&kwd=baby comforter&tags=CC||||8500.97||product|||NA|rsf:gd-|-stype:attr=1|qr_nm:gd|res:RC3|com-cf:nl|ptrs:na|ktp:N0|mc:55652|mtp:S|qry_typ:P|lang:en|wc:2|cs:8838|v=4,False,Thalore,Thrissur,"Shop No.10, Thaikkattussery Road, Thalore, Thrissur - 680306, Dist.Thrissur, Kerala",8047691074,
"Glace Cotton Multicolor Personalized Kids Comforter, Size: 60*100",https://www.indiamart.com/proddetail/personalized-kids-comforter-2850892110488.html?pos=140&kwd=baby comforter&tags=CC||||8747.203|Price|product|||NA|rsf:gd-|-stype:attr=1|qr_nm:gd|res:RC3|com-cf:nl|ptrs:na|ktp:N0|mc:55652|mtp:S|qry_typ:P|lang:en|wc:2|cs:8838|v=4,Gurunanak Homes,https://www.indiamart.com/gurunanakhomes-panipat/?pos=140&kwd=baby comforter&tags=CC||||8747.203|Price|product|||NA|rsf:gd-|-stype:attr=1|qr_nm:gd|res:RC3|com-cf:nl|ptrs:na|ktp:N0|mc:55652|mtp:S|qry_typ:P|lang:en|wc:2|cs:8838|v=4,False,,Panipat,"434/10, Near New Subzi Mandi, Panipat - 132103, Dist.Panipat, Haryana",7942564912,
Kids Comforter,https://www.indiamart.com/proddetail/kids-comforter-22938535348.html?pos=141&kwd=baby comforter&tags=CC||||8752.144|Price|product|||NA|rsf:gd-|-stype:attr=1|qr_nm:gd|res:RC3|com-cf:nl|ptrs:na|ktp:N0|mc:55652|mtp:S|qry_typ:P|lang:en|wc:2|cs:8838|v=4,PRG Mart,https://www.indiamart.com/prg-mart/?pos=141&kwd=baby comforter&tags=CC||||8752.144|Price|product|||NA|rsf:gd-|-stype:attr=1|qr_nm:gd|res:RC3|com-cf:nl|ptrs:na|ktp:N0|mc:55652|mtp:S|qry_typ:P|lang:en|wc:2|cs:8838|v=4,False,,Delhi,"112 Uttam Nagar, Delhi - 110059, Dist.Delhi, Delhi",8048371711,617
"Home buzz Cartoon prints Kids Comforter Set, For Everyday Use, Size: Queen",https://www.indiamart.com/proddetail/kids-comforter-set-2853964124155.html?pos=142&kwd=baby comforter&tags=CC||||8747.203|Price|product|||NA|rsf:gd-|-stype:attr=1|qr_nm:gd|res:RC3|com-cf:nl|ptrs:na|ktp:N0|mc:55652|mtp:S|qry_typ:P|lang:en|wc:2|cs:8838|v=4,Handloom Products,https://www.indiamart.com/handloom-products-panipat/?pos=142&kwd=baby comforter&tags=CC||||8747.203|Price|product|||NA|rsf:gd-|-stype:attr=1|qr_nm:gd|res:RC3|com-cf:nl|ptrs:na|ktp:N0|mc:55652|mtp:S|qry_typ:P|lang:en|wc:2|cs:8838|v=4,False,Sethi Chowk Area,Panipat,", Sethi Chowk Area, Panipat - 132103, Dist.Panipat, Haryana",8048249868,614
Baby comfort,https://www.indiamart.com/proddetail/baby-comfort-2853203098373.html?pos=143&kwd=baby comforter&tags=CC||||8500.97||product|||NA|rsf:gd-|-stype:attr=1|qr_nm:gd|res:RC3|com-cf:nl|ptrs:na|ktp:N0|mc:55652|mtp:S|qry_typ:P|lang:en|wc:2|cs:8838|v=4,Vijay Jyothi Traders,https://www.indiamart.com/vijay-jyothi-traders/?pos=143&kwd=baby comforter&tags=CC||||8500.97||product|||NA|rsf:gd-|-stype:attr=1|qr_nm:gd|res:RC3|com-cf:nl|ptrs:na|ktp:N0|mc:55652|mtp:S|qry_typ:P|lang:en|wc:2|cs:8838|v=4,False,,Thrissur,"Xi/534/69,Post Office Road,Thrissur P O,Thrissur, Thrissur - 680001, Dist.Thrissur, Kerala",8069707382,288
Kids Comforter,https://www.indiamart.com/proddetail/kids-comforter-2852128791473.html?pos=144&kwd=baby comforter&tags=CC||||8038.093|Price|product|||NA|rsf:gd-|-stype:attr=1|qr_nm:gd|res:RC3|com-cf:nl|ptrs:na|ktp:N0|mc:55652|mtp:S|qry_typ:P|lang:en|wc:2|cs:8838|v=4,Sweet Angels,https://www.indiamart.com/sweet-angels/?pos=144&kwd=baby comforter&tags=CC||||8038.093|Price|product|||NA|rsf:gd-|-stype:attr=1|qr_nm:gd|res:RC3|com-cf:nl|ptrs:na|ktp:N0|mc:55652|mtp:S|qry_typ:P|lang:en|wc:2|cs:8838|v=4,False,Kotecha Main Road,Rajkot,"Sunny Plaza, Kotecha Main Road, Rajkot - 360001, Dist.Rajkot, Gujarat",8047522019,
Kids Comforter,,Devi & Company,https://www.indiamart.com/devi-compakanpur/?pos=145&kwd=baby comforter&tags=CC||||9045.955|Price|product|||NA|rsf:gd-|-stype:attr=1|qr_nm:gd|res:RC3|com-cf:nl|ptrs:na|ktp:N0|mc:55652|mtp:S|qry_typ:P|lang:en|wc:2|cs:8838|v=4,False,Nayaganj,Kanpur,"60/10, Purani Dal Mandi, Nayaganj, Nayaganj, Kanpur - 208001, Uttar Pradesh",8047828524,
Kids Comforter,https://www.indiamart.com/proddetail/kids-comforter-21825839833.html?pos=146&kwd=baby comforter&tags=CC||||8747.203|Price|product|||NA|rsf:gd-|-stype:attr=1|qr_nm:gd|res:RC3|com-cf:nl|ptrs:na|ktp:N0|mc:55652|mtp:S|qry_typ:P|lang:en|wc:2|cs:8838|v=4,Kanha Traders,https://www.indiamart.com/kanha-traders-panipat/?pos=146&kwd=baby comforter&tags=CC||||8747.203|Price|product|||NA|rsf:gd-|-stype:attr=1|qr_nm:gd|res:RC3|com-cf:nl|ptrs:na|ktp:N0|mc:55652|mtp:S|qry_typ:P|lang:en|wc:2|cs:8838|v=4,False,Sethi Chowk,Panipat,"Ward No. 800/8, Sethi Chowk, Panipat - 132103, Dist.Panipat, Haryana",8047680445,
"Cotton Printed 9 PCS Baby comferter set, For Everyday Use, Capacity: 25 kg",https://www.indiamart.com/proddetail/9-pcs-baby-comferter-set-2851610556830.html?pos=147&kwd=baby comforter&tags=CC||||8230.883|Price|product|||NA|rsf:gd-|-stype:attr=1|qr_nm:gd|res:RC3|com-cf:nl|ptrs:na|ktp:N0|mc:55652|mtp:S|qry_typ:P|lang:en|wc:2|cs:8838|v=4,Kiran Handicraft,https://www.indiamart.com/kiran-handicraft-surat/?pos=147&kwd=baby comforter&tags=CC||||8230.883|Price|product|||NA|rsf:gd-|-stype:attr=1|qr_nm:gd|res:RC3|com-cf:nl|ptrs:na|ktp:N0|mc:55652|mtp:S|qry_typ:P|lang:en|wc:2|cs:8838|v=4,False,Sanjay Nagar,Surat,"Plot No.-44, 45, Ground Floor And 1st Floor, Siddhi Vinayak Industrial Estate, Laskana, Sanjay Nagar, Surat - 395006, Dist.Surat, Gujarat",8047308089,
Kids Comforter,https://www.indiamart.com/proddetail/kids-comforter-22412763962.html?pos=148&kwd=baby comforter&tags=CC||||9189.305|Price|product|||NA|rsf:gd-|-stype:attr=1|qr_nm:gd|res:RC3|com-cf:nl|ptrs:na|ktp:N0|mc:55652|mtp:S|qry_typ:P|lang:en|wc:2|cs:8838|v=4,Wedding Collection,https://www.indiamart.com/wedding-collection-allahabad/?pos=148&kwd=baby comforter&tags=CC||||9189.305|Price|product|||NA|rsf:gd-|-stype:attr=1|qr_nm:gd|res:RC3|com-cf:nl|ptrs:na|ktp:N0|mc:55652|mtp:S|qry_typ:P|lang:en|wc:2|cs:8838|v=4,False,Sulem Sari,Prayagraj,"5c/1k Dharam Veer Marg, Sulem Sari, Prayagraj - 211011, Dist.Allahabad, Uttar Pradesh",8048247119,5726
Kids Comforter,https://www.indiamart.com/proddetail/kids-comforter-23187444662.html?pos=149&kwd=baby comforter&tags=CC||||8230.883||product|||NA|rsf:gd-|-stype:attr=1|qr_nm:gd|res:RC3|com-cf:nl|ptrs:na|ktp:N0|mc:55652|mtp:S|qry_typ:P|lang:en|wc:2|cs:8838|v=4,Dipu Art Nd Craft,https://www.indiamart.com/dipu-art-nd-craft/?pos=149&kwd=baby comforter&tags=CC||||8230.883||product|||NA|rsf:gd-|-stype:attr=1|qr_nm:gd|res:RC3|com-cf:nl|ptrs:na|ktp:N0|mc:55652|mtp:S|qry_typ:P|lang:en|wc:2|cs:8838|v=4,False,Nana Varachha,Surat,"Nana Varachha, Nana Varachha, Surat - 395003, Dist.Surat, Gujarat",8048247130,5231
Baby Unisex Car Applique Comforter,https://www.indiamart.com/proddetail/baby-unisex-car-applique-comforter-4363798273.html?pos=150&kwd=baby comforter&tags=CC||||8954.051||product|||NA|rsf:gd-|-stype:attr=1|qr_nm:gd|res:RC3|com-cf:nl|ptrs:na|ktp:N0|mc:55652|mtp:S|qry_typ:P|lang:en|wc:2|cs:8838|v=4,Babyvogue India,https://www.indiamart.com/babyvogue-india/?pos=150&kwd=baby comforter&tags=CC||||8954.051||product|||NA|rsf:gd-|-stype:attr=1|qr_nm:gd|res:RC3|com-cf:nl|ptrs:na|ktp:N0|mc:55652|mtp:S|qry_typ:P|lang:en|wc:2|cs:8838|v=4,False,,Chennai,"It Park, Phase Ii Basement Tharamani Road, Chennai - 600113, Dist.Chennai, Tamil Nadu",8048372075,594
"Plain Baby Pink Bed Comforter, Size: 75x53 Inch",https://www.indiamart.com/proddetail/baby-pink-bed-comforter-26027129355.html?pos=151&kwd=baby comforter&tags=CC||||8747.203|Price|product|||NA|rsf:gd-|-stype:attr=1|qr_nm:gd|res:RC3|com-cf:nl|ptrs:na|ktp:N0|mc:55652|mtp:S|qry_typ:P|lang:en|wc:2|cs:8838|v=4,Sheen Tex Overseas,https://www.indiamart.com/sheen-tex-overseas/?pos=151&kwd=baby comforter&tags=CC||||8747.203|Price|product|||NA|rsf:gd-|-stype:attr=1|qr_nm:gd|res:RC3|com-cf:nl|ptrs:na|ktp:N0|mc:55652|mtp:S|qry_typ:P|lang:en|wc:2|cs:8838|v=4,False,,Panipat,"Plot No. 288, 1st Floor, Sector 29, Part II, Huda, Panipat - 132103, Dist.Panipat, Haryana",8043853111,
"1 Comforter,5 Pillow Cover Plain Baby Pink Cotton Comforter, 200",https://www.indiamart.com/proddetail/baby-pink-cotton-comforter-25097545012.html?pos=152&kwd=baby comforter&tags=CC||||8559.269|Price|product|||NA|rsf:gd-|-stype:attr=1|qr_nm:gd|res:RC3|com-cf:nl|ptrs:na|ktp:N0|mc:55652|mtp:S|qry_typ:P|lang:en|wc:2|cs:8838|v=4,Yrm Bedding'S,https://www.indiamart.com/yrmbeddings/?pos=152&kwd=baby comforter&tags=CC||||8559.269|Price|product|||NA|rsf:gd-|-stype:attr=1|qr_nm:gd|res:RC3|com-cf:nl|ptrs:na|ktp:N0|mc:55652|mtp:S|qry_typ:P|lang:en|wc:2|cs:8838|v=4,False,,Indore,"10, Sai Suman Nagar Banganga Naka Ramdatta Ka Bhatta, Indore - 452015, Dist.Indore, Madhya Pradesh",8047312475,
Cotton Printed Baby Quilt,https://www.indiamart.com/proddetail/cotton-printed-baby-quilt-21489282873.html?pos=153&kwd=baby comforter&tags=CC||||8752.144||product|||NA|rsf:gd-|-stype:attr=1|qr_nm:gd|res:RC3|com-cf:nl|ptrs:na|ktp:N0|mc:55652|mtp:S|qry_typ:P|lang:en|wc:2|cs:8838|v=4,Indu Arts,https://www.indiamart.com/textilestock-in/?pos=153&kwd=baby comforter&tags=CC||||8752.144||product|||NA|rsf:gd-|-stype:attr=1|qr_nm:gd|res:RC3|com-cf:nl|ptrs:na|ktp:N0|mc:55652|mtp:S|qry_typ:P|lang:en|wc:2|cs:8838|v=4,False,Shastri Nagar,New Delhi,"A-292 Shastri Nagar Ashok Vihar North E5, Sector D-1, Tronica City, Loni, Ghaziabad, Uttar Pradesh,, Shastri Nagar, New Delhi - 110052, Dist.Delhi, Delhi",8069017287,452
Quilts,,India Shoppers Hub,https://www.indiamart.com/india-shopper-hut/?pos=154&kwd=baby comforter&tags=CC||||9829.308||product|||NA|rsf:gd-|-stype:attr=1|qr_nm:gd|res:RC3|com-cf:nl|ptrs:na|ktp:N0|mc:55652|mtp:S|qry_typ:P|lang:en|wc:2|cs:8838|v=4,False,,Howrah,"6th Floor 8 Camac Street Shantiniketan Building Kolkata Kolkata, Howrah - 700017, Dist.Howrah, West Bengal",8048372763,260
Kids AC Quilt,https://www.indiamart.com/proddetail/kids-ac-quilt-4452310197.html?pos=155&kwd=baby comforter&tags=CC||||8813.969||product|||NA|rsf:gd-|-stype:attr=1|qr_nm:gd|res:RC3|com-cf:nl|ptrs:na|ktp:N0|mc:55652|mtp:S|qry_typ:P|lang:en|wc:2|cs:8838|v=4,Totu's Creations,https://www.indiamart.com/totus-creations/?pos=155&kwd=baby comforter&tags=CC||||8813.969||product|||NA|rsf:gd-|-stype:attr=1|qr_nm:gd|res:RC3|com-cf:nl|ptrs:na|ktp:N0|mc:55652|mtp:S|qry_typ:P|lang:en|wc:2|cs:8838|v=4,False,Chhipi Tank,Meerut,"Vineet Kunj, Main Begum Bridge Road, Chhipi Tank, Near C. T. Plaza, Chhipi Tank, Meerut - 250001, Dist.Meerut, Uttar Pradesh",8048371590,303
Genius Baby Quilt,https://www.indiamart.com/proddetail/genius-baby-quilt-13853883430.html?pos=156&kwd=baby comforter&tags=CC||||8559.269||product|||NA|rsf:gd-|-stype:attr=1|qr_nm:gd|res:RC3|com-cf:nl|ptrs:na|ktp:N0|mc:55652|mtp:S|qry_typ:P|lang:en|wc:2|cs:8838|v=4,Linen N Things,https://www.indiamart.com/linen-n-thingsindore/?pos=156&kwd=baby comforter&tags=CC||||8559.269||product|||NA|rsf:gd-|-stype:attr=1|qr_nm:gd|res:RC3|com-cf:nl|ptrs:na|ktp:N0|mc:55652|mtp:S|qry_typ:P|lang:en|wc:2|cs:8838|v=4,False,,Indore,",17/2,MANORAMAGANJ,MANORAMAGANJ, Indore - 452001, Dist.Indore, Madhya Pradesh",8062245971,649
Quilting Tree Butterfly Cotton Baby Quilt,https://www.indiamart.com/proddetail/butterfly-cotton-baby-quilt-20158867297.html?pos=157&kwd=baby comforter&tags=CC||||8307.81|Price|product|||NA|rsf:gd-|-stype:attr=1|qr_nm:gd|res:RC3|com-cf:nl|ptrs:na|ktp:N0|mc:55652|mtp:S|qry_typ:P|lang:en|wc:2|cs:8838|v=4,All Home Living LLP,https://www.indiamart.com/allhomeliving/?pos=157&kwd=baby comforter&tags=CC||||8307.81|Price|product|||NA|rsf:gd-|-stype:attr=1|qr_nm:gd|res:RC3|com-cf:nl|ptrs:na|ktp:N0|mc:55652|mtp:S|qry_typ:P|lang:en|wc:2|cs:8838|v=4,False,Mohammed Wadi,Pune,"Marvel Sangria, Shop No. 106/107, Mohammed Wadi, Pune - 411060, Dist.Pune, Maharashtra",8048371859,602
Chotto kutkuter kantha Baby Quilt,https://www.indiamart.com/proddetail/baby-quilt-20208450991.html?pos=158&kwd=baby comforter&tags=CC||||9847.294|Price|product|||NA|rsf:gd-|-stype:attr=1|qr_nm:gd|res:RC3|com-cf:nl|ptrs:na|ktp:N0|mc:55652|mtp:S|qry_typ:P|lang:en|wc:2|cs:8838|v=4,C & R India Fabrics,https://www.indiamart.com/c-r-india-fabrics/?pos=158&kwd=baby comforter&tags=CC||||9847.294|Price|product|||NA|rsf:gd-|-stype:attr=1|qr_nm:gd|res:RC3|com-cf:nl|ptrs:na|ktp:N0|mc:55652|mtp:S|qry_typ:P|lang:en|wc:2|cs:8838|v=4,False,Nadia,Kalyani,"10 C R Park, Kolkata 32, Nadia, Kalyani - 741235, Dist.Nadia, West Bengal",8048361269,274
Baby Blanket,https://www.indiamart.com/proddetail/baby-blanket-4930555555.html?pos=159&kwd=baby comforter&tags=CC||||8626.744||product|||NA|rsf:gd-|-stype:attr=1|qr_nm:gd|res:RC3|com-cf:nl|ptrs:na|ktp:N0|mc:55652|mtp:S|qry_typ:P|lang:en|wc:2|cs:8838|v=4,Smaart Knitss,https://www.indiamart.com/smaartknitss/?pos=159&kwd=baby comforter&tags=CC||||8626.744||product|||NA|rsf:gd-|-stype:attr=1|qr_nm:gd|res:RC3|com-cf:nl|ptrs:na|ktp:N0|mc:55652|mtp:S|qry_typ:P|lang:en|wc:2|cs:8838|v=4,False,Dharapuram Road,Tiruppur,"8/92N,N.KANCHIPURAM,ELLAPALAYAM PUDUR,KODUVAI, TIRUPUR No. 4, PKR Layout, Vinoba Nagar, Dharapuram Road,641608,Tiruppur, Dharapuram Road, Tiruppur - 641660, Dist.Coimbatore, Tamil Nadu",8048372522,971
Printed Baby Comfort Blanket,https://www.indiamart.com/proddetail/baby-comfort-blanket-26565428112.html?pos=160&kwd=baby comforter&tags=CC||||8234.609|Price|product|||NA|rsf:gd-|-stype:attr=1|qr_nm:gd|res:RC3|com-cf:nl|ptrs:na|ktp:N0|mc:55652|mtp:S|qry_typ:P|lang:en|wc:2|cs:8838|v=4,M K Enterprise,https://www.indiamart.com/mkenterprise-159681753/?pos=160&kwd=baby comforter&tags=CC||||8234.609|Price|product|||NA|rsf:gd-|-stype:attr=1|qr_nm:gd|res:RC3|com-cf:nl|ptrs:na|ktp:N0|mc:55652|mtp:S|qry_typ:P|lang:en|wc:2|cs:8838|v=4,False,Gidc Vapi Near Creative Garment,Valsad,"Shop No G-1,2 Golson Chamber, Gidc Vapi Near Creative Garment, Valsad - 396195, Dist.Valsad, Gujarat",8069013494,383
"Blue And White Comfortable Baby Blanket, Size: Standard",https://www.indiamart.com/proddetail/comfortable-baby-blanket-15033191155.html?pos=161&kwd=baby comforter&tags=CC||||8661.854|Price|product|||NA|rsf:gd-|-stype:attr=1|qr_nm:gd|res:RC3|com-cf:nl|ptrs:na|ktp:N0|mc:55652|mtp:S|qry_typ:P|lang:en|wc:2|cs:8838|v=4,Puneet Handloom,https://www.indiamart.com/puneethandloom/?pos=161&kwd=baby comforter&tags=CC||||8661.854|Price|product|||NA|rsf:gd-|-stype:attr=1|qr_nm:gd|res:RC3|com-cf:nl|ptrs:na|ktp:N0|mc:55652|mtp:S|qry_typ:P|lang:en|wc:2|cs:8838|v=4,False,Dal Bazar,Ludhiana,"1733/1/A,MOHALLA BANDIAN, NEAR ARYA SR.SEC SCHOOL, DARESI ROAD,LUDHIANA Plot No. 1733/1, Mohalla Bandana,141008,Ludhiana, Dal Bazar, Ludhiana - 141007, Dist.Ludhiana, Punjab",8046030360,
"New Comers Cotton Newborn Designer Baby Quilt, 0-7 Year, Size: 135 X 115 X 2 Cm",https://www.indiamart.com/proddetail/newborn-designer-baby-quilt-23176974791.html?pos=162&kwd=baby comforter&tags=CC||||8230.883|Price|product|||NA|rsf:gd-|-stype:attr=1|qr_nm:gd|res:RC3|com-cf:nl|ptrs:na|ktp:N0|mc:55652|mtp:S|qry_typ:P|lang:en|wc:2|cs:8838|v=4,New Comers,https://www.indiamart.com/newcomers/?pos=162&kwd=baby comforter&tags=CC||||8230.883|Price|product|||NA|rsf:gd-|-stype:attr=1|qr_nm:gd|res:RC3|com-cf:nl|ptrs:na|ktp:N0|mc:55652|mtp:S|qry_typ:P|lang:en|wc:2|cs:8838|v=4,False,,Surat,"SHOP 10,VARNIRAJ COMPLEX,SARTHANA JAKATNAKA,SURAT Shop 10, Ground Floor, Varniraj Complex, Sarthana Jakatnaka, Surat,395010,Surat, Surat - 395006, Dist.Surat, Gujarat",7942614587,
"Super Soft Flannel YELLOW Hooded Baby Blanket, 0-2 Years, Size: 80*80 CM",https://www.indiamart.com/proddetail/hooded-baby-blanket-2850113341848.html?pos=163&kwd=baby comforter&tags=CC||||8661.854|Price|product|||NA|rsf:gd-|-stype:attr=1|qr_nm:gd|res:RC3|com-cf:nl|ptrs:na|ktp:N0|mc:55652|mtp:S|qry_typ:P|lang:en|wc:2|cs:8838|v=4,K.G.N. International,https://www.indiamart.com/kgn-internationalludhiana/?pos=163&kwd=baby comforter&tags=CC||||8661.854|Price|product|||NA|rsf:gd-|-stype:attr=1|qr_nm:gd|res:RC3|com-cf:nl|ptrs:na|ktp:N0|mc:55652|mtp:S|qry_typ:P|lang:en|wc:2|cs:8838|v=4,False,Haibowal Kalan,Ludhiana,"House No 18, Street No 5 Ajit Nagar, Haibowal Kalan, Ludhiana - 141001, Dist.Ludhiana, Punjab",7942802358,
Baby Blanket,https://www.indiamart.com/proddetail/baby-blanket-10748912097.html?pos=164&kwd=baby comforter&tags=CC||||8661.854|Price|product|||NA|rsf:gd-|-stype:attr=1|qr_nm:gd|res:RC3|com-cf:nl|ptrs:na|ktp:N0|mc:55652|mtp:S|qry_typ:P|lang:en|wc:2|cs:8838|v=4,Azad Cloth House,https://www.indiamart.com/azadclothhouse/?pos=164&kwd=baby comforter&tags=CC||||8661.854|Price|product|||NA|rsf:gd-|-stype:attr=1|qr_nm:gd|res:RC3|com-cf:nl|ptrs:na|ktp:N0|mc:55652|mtp:S|qry_typ:P|lang:en|wc:2|cs:8838|v=4,False,Chaura Bazar,Ludhiana,"Chaura Bazar, In Pindi Street, Chaura Bazar, Ludhiana - 141008, Dist.Ludhiana, Punjab",8048361351,612
Babies Bloom Blue Super Comfort Baby Sleep Sack,https://www.indiamart.com/proddetail/babies-bloom-blue-super-comfort-baby-sleep-sack-16419284373.html?pos=165&kwd=baby comforter&tags=CC||||8752.144|Price|product|||NA|rsf:gd-|-stype:attr=1|qr_nm:gd|res:RC3|com-cf:nl|ptrs:na|ktp:N0|mc:55652|mtp:S|qry_typ:P|lang:en|wc:2|cs:8838|v=4,Babies Bloom Store,https://www.indiamart.com/babies-bloom-store/?pos=165&kwd=baby comforter&tags=CC||||8752.144|Price|product|||NA|rsf:gd-|-stype:attr=1|qr_nm:gd|res:RC3|com-cf:nl|ptrs:na|ktp:N0|mc:55652|mtp:S|qry_typ:P|lang:en|wc:2|cs:8838|v=4,False,Paschim Vihar,New Delhi,"IST FLOOR,670,GH-14,,PASCHIM VIHAR,,,, Paschim Vihar, New Delhi - 110087, Dist.Delhi, Delhi",8062245014,210
Paper Rockets White Cars Infant Blanket-Comforter,https://www.indiamart.com/proddetail/cars-infant-blanket-comforter-18550465562.html?pos=166&kwd=baby comforter&tags=CC||||8211.142|Price|product|||NA|rsf:gd-|-stype:attr=1|qr_nm:gd|res:RC3|com-cf:nl|ptrs:na|ktp:N0|mc:55652|mtp:S|qry_typ:P|lang:en|wc:2|cs:8838|v=4,Paper Rockets,https://www.indiamart.com/paper-rockets/?pos=166&kwd=baby comforter&tags=CC||||8211.142|Price|product|||NA|rsf:gd-|-stype:attr=1|qr_nm:gd|res:RC3|com-cf:nl|ptrs:na|ktp:N0|mc:55652|mtp:S|qry_typ:P|lang:en|wc:2|cs:8838|v=4,False,Lower Parel (E),Mumbai,"316 Creative Industrial Estate, N. M. Joshi Marg, Lower Parel (E), Mumbai - 400011, Dist.Mumbai, Maharashtra",8048372087,936
"Mink Sky Blue Baby Designer Blanket, 3-15 Months",https://www.indiamart.com/proddetail/baby-designer-blanket-21627659373.html?pos=167&kwd=baby comforter&tags=CC||||8747.203|Price|product|||NA|rsf:gd-|-stype:attr=1|qr_nm:gd|res:RC3|com-cf:nl|ptrs:na|ktp:N0|mc:55652|mtp:S|qry_typ:P|lang:en|wc:2|cs:8838|v=4,Mahadev Industries,https://www.indiamart.com/mahadevindustriespanipat/?pos=167&kwd=baby comforter&tags=CC||||8747.203|Price|product|||NA|rsf:gd-|-stype:attr=1|qr_nm:gd|res:RC3|com-cf:nl|ptrs:na|ktp:N0|mc:55652|mtp:S|qry_typ:P|lang:en|wc:2|cs:8838|v=4,False,,Panipat,"Shop No. 205, Ground Floor, New Anaj Mandi, Panipat - 132103, Dist.Panipat, Haryana",8048371510,557
Baby Blanket,,Nahar Business House,https://www.indiamart.com/naharbusinesshouse/?pos=168&kwd=baby comforter&tags=CC||||8954.051|Price|product|||NA|rsf:gd-|-stype:attr=1|qr_nm:gd|res:RC3|com-cf:nl|ptrs:na|ktp:N0|mc:55652|mtp:S|qry_typ:P|lang:en|wc:2|cs:8838|v=4,False,,Chennai,"Shop No. 22, Prince Plaza, No. 46, Pantheon Road, Egmore, Chennai - 600008, Dist.Chennai, Tamil Nadu",8043823382,
"Baby Comfortable Fleece Blanket, Size: 77 X 77 cm",https://www.indiamart.com/proddetail/baby-comfortable-fleece-blanket-12516690088.html?pos=169&kwd=baby comforter&tags=CC||||8661.854||product|||NA|rsf:gd-|-stype:attr=1|qr_nm:gd|res:RC3|com-cf:nl|ptrs:na|ktp:N0|mc:55652|mtp:S|qry_typ:P|lang:en|wc:2|cs:8838|v=4,Universal Traders,https://www.indiamart.com/universaltradersludhiana/?pos=169&kwd=baby comforter&tags=CC||||8661.854||product|||NA|rsf:gd-|-stype:attr=1|qr_nm:gd|res:RC3|com-cf:nl|ptrs:na|ktp:N0|mc:55652|mtp:S|qry_typ:P|lang:en|wc:2|cs:8838|v=4,False,,Ludhiana,"B-x- 435, Telian Street, Near Iqbal Ganj Chowk,, Ludhiana - 141008, Dist.Ludhiana, Punjab",7942616840,
Momsyard Soft Woolen bb01p just cute high profile super soft baby blanket in pink,https://www.indiamart.com/proddetail/momsyard-bb01p-just-cute-high-profile-super-soft-baby-blanket-in-pink-19431447855.html?pos=170&kwd=baby comforter&tags=CC||||8211.142|Price|product|||NA|rsf:gd-|-stype:attr=1|qr_nm:gd|res:RC3|com-cf:nl|ptrs:na|ktp:N0|mc:55652|mtp:S|qry_typ:P|lang:en|wc:2|cs:8838|v=4,Momsyard,https://www.indiamart.com/moms-yard/?pos=170&kwd=baby comforter&tags=CC||||8211.142|Price|product|||NA|rsf:gd-|-stype:attr=1|qr_nm:gd|res:RC3|com-cf:nl|ptrs:na|ktp:N0|mc:55652|mtp:S|qry_typ:P|lang:en|wc:2|cs:8838|v=4,False,Andheri West,Mumbai,"Room No. 547, Adarsh Nagar, Jogeshwari, New Link Road Opposite HP Petrol Pump, Beside Amar Glass Lane, Andheri West, Mumbai - 400102, Dist.Mumbai, Maharashtra",8047827737,
IMPORTED WINTER BABY BLANKETS,https://www.indiamart.com/proddetail/imported-winter-baby-blankets-2852328738588.html?pos=171&kwd=baby comforter&tags=CC||||8661.854|Price|product|||NA|rsf:gd-|-stype:attr=1|qr_nm:gd|res:RC3|com-cf:nl|ptrs:na|ktp:N0|mc:55652|mtp:S|qry_typ:P|lang:en|wc:2|cs:8838|v=4,DAYAL DASS TRADERS,https://www.indiamart.com/dayaldasstraders/?pos=171&kwd=baby comforter&tags=CC||||8661.854|Price|product|||NA|rsf:gd-|-stype:attr=1|qr_nm:gd|res:RC3|com-cf:nl|ptrs:na|ktp:N0|mc:55652|mtp:S|qry_typ:P|lang:en|wc:2|cs:8838|v=4,False,,Ludhiana,"123, New Raj Guru Nagar,, Ludhiana - 141001, Dist.Ludhiana, Punjab",8047650977,
"Oyo Baby Baby Blankets Combo Pack Of 2 Baby Sleeping Bag For Baby Boys, Dark Blue + Pink Star",https://www.indiamart.com/proddetail/oyo-baby-baby-blankets-combo-pack-of-2-baby-sleeping-bag-for-baby-boys-dark-blue-pink-star-2850567219033.html?pos=172&kwd=baby comforter&tags=CC||||8752.144|Price|product|||NA|rsf:gd-|-stype:attr=1|qr_nm:gd|res:RC3|com-cf:nl|ptrs:na|ktp:N0|mc:55652|mtp:S|qry_typ:P|lang:en|wc:2|cs:8838|v=4,Baby & Mom Retail Private Limited,https://www.indiamart.com/baby-nmom/?pos=172&kwd=baby comforter&tags=CC||||8752.144|Price|product|||NA|rsf:gd-|-stype:attr=1|qr_nm:gd|res:RC3|com-cf:nl|ptrs:na|ktp:N0|mc:55652|mtp:S|qry_typ:P|lang:en|wc:2|cs:8838|v=4,False,Phase 5,New Delhi,"gurgaon, Phase 5, New Delhi - 110075, Dist.Delhi, Delhi",8047684056,
"Cotton Printed Hand Block Print Baby Quilt, Size: 44x44 Inch",https://www.indiamart.com/proddetail/hand-block-print-baby-quilt-19990049212.html?pos=173&kwd=baby comforter&tags=CC||||8601.347|Price|product|||NA|rsf:gd-|-stype:attr=1|qr_nm:gd|res:RC3|com-cf:nl|ptrs:na|ktp:N0|mc:55652|mtp:S|qry_typ:P|lang:en|wc:2|cs:8838|v=4,Shree Shyam Textiles And Garments,https://www.indiamart.com/shreeshyamtextilesandgarments/?pos=173&kwd=baby comforter&tags=CC||||8601.347|Price|product|||NA|rsf:gd-|-stype:attr=1|qr_nm:gd|res:RC3|com-cf:nl|ptrs:na|ktp:N0|mc:55652|mtp:S|qry_typ:P|lang:en|wc:2|cs:8838|v=4,False,Manoharpur,Jaipur,"C-29 Govind Nagar Manu Marg, Manoharpur, Jaipur - 302002, Dist.Jaipur, Rajasthan",8045911367,
Cotton Baby Quilt,https://www.indiamart.com/proddetail/baby-quilt-2852684192397.html?pos=174&kwd=baby comforter&tags=CC||||8706.263|Price|product|||NA|rsf:gd-|-stype:attr=1|qr_nm:gd|res:RC3|com-cf:nl|ptrs:na|ktp:N0|mc:55652|mtp:S|qry_typ:P|lang:en|wc:2|cs:8838|v=4,VNA FARMS,https://www.indiamart.com/vna-farms/?pos=174&kwd=baby comforter&tags=CC||||8706.263|Price|product|||NA|rsf:gd-|-stype:attr=1|qr_nm:gd|res:RC3|com-cf:nl|ptrs:na|ktp:N0|mc:55652|mtp:S|qry_typ:P|lang:en|wc:2|cs:8838|v=4,False,,Karur,"VNA farms puliyur,karur, tamilnadu, Karur - 639114, Dist.Karur, Tamil Nadu",8047833840,
"Mittenbooty Cotton Pink Printed Baby Blanket, Size: Singe, 6 Months",https://www.indiamart.com/proddetail/pink-printed-baby-blanket-2849765729748.html?pos=175&kwd=baby comforter&tags=CC||||8601.347|Price|product|||NA|rsf:gd-|-stype:attr=1|qr_nm:gd|res:RC3|com-cf:nl|ptrs:na|ktp:N0|mc:55652|mtp:S|qry_typ:P|lang:en|wc:2|cs:8838|v=4,Bhagwati Enterprises,https://www.indiamart.com/bhagwati-enterprisesrajasthan/?pos=175&kwd=baby comforter&tags=CC||||8601.347|Price|product|||NA|rsf:gd-|-stype:attr=1|qr_nm:gd|res:RC3|com-cf:nl|ptrs:na|ktp:N0|mc:55652|mtp:S|qry_typ:P|lang:en|wc:2|cs:8838|v=4,False,,Jaipur,"Ground Floor, ARG Murli Heights, Moti Doongri Road, Jaipur - 302004, Dist.Jaipur, Rajasthan",7942795447,
"Dotmom Printed Kids Bamboo Blanket, Size: Medium",https://www.indiamart.com/proddetail/kids-bamboo-blanket-23486958555.html?pos=176&kwd=baby comforter&tags=CC||||8741.812|Price|product|||NA|rsf:gd-|-stype:attr=1|qr_nm:gd|res:RC3|com-cf:nl|ptrs:na|ktp:N0|mc:55652|mtp:S|qry_typ:P|lang:en|wc:2|cs:8838|v=4,Keta Anjani Impex,https://www.indiamart.com/ketaanjaniimpex/?pos=176&kwd=baby comforter&tags=CC||||8741.812|Price|product|||NA|rsf:gd-|-stype:attr=1|qr_nm:gd|res:RC3|com-cf:nl|ptrs:na|ktp:N0|mc:55652|mtp:S|qry_typ:P|lang:en|wc:2|cs:8838|v=4,False,Sector 90,Gurugram,"SF-221, 2nd Floor, IT Complex JMD Megapolis, Village Tikri, Sohna Road, Sector 90, Gurugram - 122001, Dist.Gurgaon, Haryana",8046063344,
Baby Quilts,https://www.indiamart.com/proddetail/baby-quilts-2642116962.html?pos=177&kwd=baby comforter&tags=CC||||8785.791||product|||NA|rsf:gd-|-stype:attr=1|qr_nm:gd|res:RC3|com-cf:nl|ptrs:na|ktp:N0|mc:55652|mtp:S|qry_typ:P|lang:en|wc:2|cs:8838|v=4,Moms Pet Apparels Pvt. Ltd.,https://www.indiamart.com/mom-s-pet/?pos=177&kwd=baby comforter&tags=CC||||8785.791||product|||NA|rsf:gd-|-stype:attr=1|qr_nm:gd|res:RC3|com-cf:nl|ptrs:na|ktp:N0|mc:55652|mtp:S|qry_typ:P|lang:en|wc:2|cs:8838|v=4,False,Sahibabad,Ghaziabad,"No. 3/1/26, Site No. 4, Industrial Area, Shahibabad, Sahibabad, Ghaziabad - 201301, Dist.Ghaziabad, Uttar Pradesh",8047794896,
"Mink Bown Comfortable Baby Blanket, Size: 32x47inch",https://www.indiamart.com/proddetail/comfortable-baby-blanket-23564263530.html?pos=178&kwd=baby comforter&tags=CC||||8747.203|Price|product|||NA|rsf:gd-|-stype:attr=1|qr_nm:gd|res:RC3|com-cf:nl|ptrs:na|ktp:N0|mc:55652|mtp:S|qry_typ:P|lang:en|wc:2|cs:8838|v=4,Jai Gurudev Textiles,https://www.indiamart.com/jai-gurudev-textiles/?pos=178&kwd=baby comforter&tags=CC||||8747.203|Price|product|||NA|rsf:gd-|-stype:attr=1|qr_nm:gd|res:RC3|com-cf:nl|ptrs:na|ktp:N0|mc:55652|mtp:S|qry_typ:P|lang:en|wc:2|cs:8838|v=4,False,,Panipat,"Gali No. 7, Baba Ganga Puri Road, Panipat - 132103, Dist.Panipat, Haryana",8046075133,
"Cotton Multicolor Kids Microfiber Comforter Set, For Home, Size: 60*90",https://www.indiamart.com/proddetail/kids-microfiber-comforter-set-24719713762.html?pos=179&kwd=baby comforter&tags=CC||||8601.347|Price|product|||NA|rsf:gd-|-stype:attr=1|qr_nm:gd|res:RC3|com-cf:nl|ptrs:na|ktp:N0|mc:55652|mtp:S|qry_typ:P|lang:en|wc:2|cs:8838|v=4,Brantiq,https://www.indiamart.com/brantiq/?pos=179&kwd=baby comforter&tags=CC||||8601.347|Price|product|||NA|rsf:gd-|-stype:attr=1|qr_nm:gd|res:RC3|com-cf:nl|ptrs:na|ktp:N0|mc:55652|mtp:S|qry_typ:P|lang:en|wc:2|cs:8838|v=4,False,,Jaipur,"E-693 Vaishali Nagar, Jaipur - 302021, Dist.Jaipur, Rajasthan",8048981570,
Baby Toy Quilts,https://www.indiamart.com/proddetail/baby-toy-quilts-1940145412.html?pos=180&kwd=baby comforter&tags=CC||||8661.854||product|||NA|rsf:gd-|-stype:attr=1|qr_nm:gd|res:RC3|com-cf:nl|ptrs:na|ktp:N0|mc:55652|mtp:S|qry_typ:P|lang:en|wc:2|cs:8838|v=4,Oriental Textile Industries,https://www.indiamart.com/orientaltextileindustries/?pos=180&kwd=baby comforter&tags=CC||||8661.854||product|||NA|rsf:gd-|-stype:attr=1|qr_nm:gd|res:RC3|com-cf:nl|ptrs:na|ktp:N0|mc:55652|mtp:S|qry_typ:P|lang:en|wc:2|cs:8838|v=4,False,Mochpura,Ludhiana,"B- 10, 806 Mochpura Bazar, Mochpura, Ludhiana - 141008, Dist.Ludhiana, Punjab",8048247131,7626
Butterthief Kids Ac Blankets For 0-5 Years All Season Baby Blanket,https://www.indiamart.com/proddetail/butterthief-kids-ac-blankets-for-0-5-years-all-season-baby-blanket-2854701716597.html?pos=181&kwd=baby comforter&tags=||||8752.144|Price|proxy|||TS|rsf:gd-|-stype:attr=1|qr_nm:gd|res:RC3|com-cf:nl|ptrs:na|ktp:N0|mc:55652|mtp:S|qry_typ:P|lang:en|wc:2|cs:8838|v=4,Instabuyz,https://www.indiamart.com/instabuyz/?pos=181&kwd=baby comforter&tags=||||8752.144|Price|proxy|||TS|rsf:gd-|-stype:attr=1|qr_nm:gd|res:RC3|com-cf:nl|ptrs:na|ktp:N0|mc:55652|mtp:S|qry_typ:P|lang:en|wc:2|cs:8838|v=4,False,Paschim Vihar,New Delhi,"GH-4/319, Meera Apartments, Paschim Vihar, West Delhi, Paschim Vihar, New Delhi - 110063, Dist.Delhi, Delhi",8047696143,
Printed Cotton Bed Comforter,https://www.indiamart.com/proddetail/cotton-bed-comforter-2853784690091.html?pos=182&kwd=baby comforter&tags=||||8601.347|Price|proxy|||TS|rsf:gd-|-stype:attr=1|qr_nm:gd|res:RC3|com-cf:nl|ptrs:na|ktp:N0|mc:55652|mtp:S|qry_typ:P|lang:en|wc:2|cs:8838|v=4,Piramid Fibecot Private Limited,https://www.piramidfibecot.com/?pos=182&kwd=baby comforter&tags=||||8601.347|Price|proxy|||TS|rsf:gd-|-stype:attr=1|qr_nm:gd|res:RC3|com-cf:nl|ptrs:na|ktp:N0|mc:55652|mtp:S|qry_typ:P|lang:en|wc:2|cs:8838|v=4,False,Bagru,Jaipur,"A-29, Balaji Industrial Park, Bagru, Jaipur - 303007, Dist.Jaipur, Rajasthan",8046047496,
Royal Multicolor AC Cotton Comforter Set Double,https://www.indiamart.com/proddetail/ac-cotton-comforter-set-double-23340181488.html?pos=183&kwd=baby comforter&tags=||||8661.854|Price|proxy|||TS|rsf:gd-|-stype:attr=1|qr_nm:gd|res:RC3|com-cf:nl|ptrs:na|ktp:N0|mc:55652|mtp:S|qry_typ:P|lang:en|wc:2|cs:8838|v=4,Royal Blanket,https://www.indiamart.com/royalblanket/?pos=183&kwd=baby comforter&tags=||||8661.854|Price|proxy|||TS|rsf:gd-|-stype:attr=1|qr_nm:gd|res:RC3|com-cf:nl|ptrs:na|ktp:N0|mc:55652|mtp:S|qry_typ:P|lang:en|wc:2|cs:8838|v=4,False,Harbans Pura,Ludhiana,"B-24.H.No.4211,Street No.2, New Madho Puri, Harbans Pura, Ludhiana - 141008, Dist.Ludhiana, Punjab",8046059378,
Ultrasonic Comforter Single Bed,https://www.indiamart.com/proddetail/ultrasonic-comforter-single-bed-2853965597930.html?pos=184&kwd=baby comforter&tags=||||8747.203|Price|proxy|||TS|rsf:gd-|-stype:attr=1|qr_nm:gd|res:RC3|com-cf:nl|ptrs:na|ktp:N0|mc:55652|mtp:S|qry_typ:P|lang:en|wc:2|cs:8838|v=4,Ridhaan First Choice,https://www.indiamart.com/ridhaanfirstchoice/?pos=184&kwd=baby comforter&tags=||||8747.203|Price|proxy|||TS|rsf:gd-|-stype:attr=1|qr_nm:gd|res:RC3|com-cf:nl|ptrs:na|ktp:N0|mc:55652|mtp:S|qry_typ:P|lang:en|wc:2|cs:8838|v=4,False,Milk Ugra Kheri,Panipat,"362/7, Sanoli Road, Ram Mandir Gali,, Milk Ugra Kheri, Panipat - 132103, Dist.Panipat, Haryana",7949094647,
"Light Blue Cotton Baby Sleeping Bag, Newly Born",https://www.indiamart.com/proddetail/baby-sleeping-bag-24316991662.html?pos=185&kwd=baby comforter&tags=||||8228.275|Price|proxy|||MDC|rsf:gd-|-stype:attr=1|qr_nm:gd|res:RC3|com-cf:nl|ptrs:na|ktp:N0|mc:55652|mtp:S|qry_typ:P|lang:en|wc:2|cs:8838|v=4,Sanskriti Inc,https://www.indiamart.com/sanskriti-inc/?pos=185&kwd=baby comforter&tags=||||8228.275|Price|proxy|||MDC|rsf:gd-|-stype:attr=1|qr_nm:gd|res:RC3|com-cf:nl|ptrs:na|ktp:N0|mc:55652|mtp:S|qry_typ:P|lang:en|wc:2|cs:8838|v=4,False,Nikol,Ahmedabad,"Shop No-26, Surjit Co Op H Soc Ltd, Nr. India Colony, Nikol Road, Nikol, Ahmedabad - 382350, Dist.Ahmedabad, Gujarat",8046047726,
Quilting Tree Butterfly Cotton Baby Quilt,https://www.indiamart.com/proddetail/butterfly-cotton-baby-quilt-20158867297.html?pos=186&kwd=baby comforter&tags=CC||||8307.81|Price|product|||NA|rsf:gd-|-stype:attr=1|qr_nm:gd|res:RC3|com-cf:nl|ptrs:na|ktp:N0|mc:55652|mtp:S|qry_typ:P|lang:en|wc:2|cs:8838|v=4,All Home Living LLP,https://www.indiamart.com/allhomeliving/?pos=186&kwd=baby comforter&tags=CC||||8307.81|Price|product|||NA|rsf:gd-|-stype:attr=1|qr_nm:gd|res:RC3|com-cf:nl|ptrs:na|ktp:N0|mc:55652|mtp:S|qry_typ:P|lang:en|wc:2|cs:8838|v=4,False,Mohammed Wadi,Pune,"Marvel Sangria, Shop No. 106/107, Mohammed Wadi, Pune - 411060, Dist.Pune, Maharashtra",8048371859,602
"New Comers Cotton Newborn Designer Baby Quilt, 0-7 Year, Size: 135 X 115 X 2 Cm",https://www.indiamart.com/proddetail/newborn-designer-baby-quilt-23176974791.html?pos=187&kwd=baby comforter&tags=CC||||8230.883|Price|product|||NA|rsf:gd-|-stype:attr=1|qr_nm:gd|res:RC3|com-cf:nl|ptrs:na|ktp:N0|mc:55652|mtp:S|qry_typ:P|lang:en|wc:2|cs:8838|v=4,New Comers,https://www.indiamart.com/newcomers/?pos=187&kwd=baby comforter&tags=CC||||8230.883|Price|product|||NA|rsf:gd-|-stype:attr=1|qr_nm:gd|res:RC3|com-cf:nl|ptrs:na|ktp:N0|mc:55652|mtp:S|qry_typ:P|lang:en|wc:2|cs:8838|v=4,False,,Surat,"SHOP 10,VARNIRAJ COMPLEX,SARTHANA JAKATNAKA,SURAT Shop 10, Ground Floor, Varniraj Complex, Sarthana Jakatnaka, Surat,395010,Surat, Surat - 395006, Dist.Surat, Gujarat",7942614587,
Kids AC Quilt,https://www.indiamart.com/proddetail/kids-ac-quilt-4452310197.html?pos=188&kwd=baby comforter&tags=CC||||8813.969||product|||NA|rsf:gd-|-stype:attr=1|qr_nm:gd|res:RC3|com-cf:nl|ptrs:na|ktp:N0|mc:55652|mtp:S|qry_typ:P|lang:en|wc:2|cs:8838|v=4,Totu's Creations,https://www.indiamart.com/totus-creations/?pos=188&kwd=baby comforter&tags=CC||||8813.969||product|||NA|rsf:gd-|-stype:attr=1|qr_nm:gd|res:RC3|com-cf:nl|ptrs:na|ktp:N0|mc:55652|mtp:S|qry_typ:P|lang:en|wc:2|cs:8838|v=4,False,Chhipi Tank,Meerut,"Vineet Kunj, Main Begum Bridge Road, Chhipi Tank, Near C. T. Plaza, Chhipi Tank, Meerut - 250001, Dist.Meerut, Uttar Pradesh",8048371590,303
Peach (Base) Baby Fleece Printed Blanket,https://www.indiamart.com/proddetail/baby-fleece-printed-blanket-2852954692688.html?pos=189&kwd=baby comforter&tags=||||8211.142|Price|proxy|||MDC|rsf:gd-|-stype:attr=1|qr_nm:gd|res:RC3|com-cf:nl|ptrs:na|ktp:N0|mc:55652|mtp:S|qry_typ:P|lang:en|wc:2|cs:8838|v=4,Baby Boutique,https://www.indiamart.com/baby-boutiquemumbai/?pos=189&kwd=baby comforter&tags=||||8211.142|Price|proxy|||MDC|rsf:gd-|-stype:attr=1|qr_nm:gd|res:RC3|com-cf:nl|ptrs:na|ktp:N0|mc:55652|mtp:S|qry_typ:P|lang:en|wc:2|cs:8838|v=4,False,Masjid Bandar,Mumbai,"7th, 95/99 Flat No. 701, Noori Tower, Sherriff Devi Street, Mandvi, Masjid Bandar, West Mumbai, Masjid Bandar, Mumbai - 400003, Dist.Mumbai, Maharashtra",7942960570,
Arka Decor Multicolor Ultrasonic Comforter,https://www.indiamart.com/proddetail/ultrasonic-comforter-2853240456373.html?pos=190&kwd=baby comforter&tags=||||8747.203|Price|proxy|||MDC|rsf:gd-|-stype:attr=1|qr_nm:gd|res:RC3|com-cf:nl|ptrs:na|ktp:N0|mc:55652|mtp:S|qry_typ:P|lang:en|wc:2|cs:8838|v=4,Arka Overseas,https://www.indiamart.com/arka-overseas-panipat/?pos=190&kwd=baby comforter&tags=||||8747.203|Price|proxy|||MDC|rsf:gd-|-stype:attr=1|qr_nm:gd|res:RC3|com-cf:nl|ptrs:na|ktp:N0|mc:55652|mtp:S|qry_typ:P|lang:en|wc:2|cs:8838|v=4,False,Model Town,Panipat,"97 L-R, Model Town,, Model Town, Panipat - 132103, Dist.Panipat, Haryana",7949220675,
Cartoon Baby Blanket,https://www.indiamart.com/proddetail/baby-blanket-26412693497.html?pos=191&kwd=baby comforter&tags=||||8747.203|Price|proxy|||MDC|rsf:gd-|-stype:attr=1|qr_nm:gd|res:RC3|com-cf:nl|ptrs:na|ktp:N0|mc:55652|mtp:S|qry_typ:P|lang:en|wc:2|cs:8838|v=4,J.R. Loomtex,https://www.indiamart.com/jr-loomtex-panipat/?pos=191&kwd=baby comforter&tags=||||8747.203|Price|proxy|||MDC|rsf:gd-|-stype:attr=1|qr_nm:gd|res:RC3|com-cf:nl|ptrs:na|ktp:N0|mc:55652|mtp:S|qry_typ:P|lang:en|wc:2|cs:8838|v=4,False,Jagjivan Ram Colony,Panipat,"Opp Mahavir Dharam Kanta, Gohana Road, Jagjivan Ram Colony, Panipat - 132103, Dist.Panipat, Haryana",8046063067,
"Plain Multicolor Baby Comforter Set, For Everyday Use, Size: Double",https://www.indiamart.com/proddetail/baby-comforter-set-2853455480130.html?pos=192&kwd=baby comforter&tags=||||8747.203|Price|product|||NA|rsf:gd-|-stype:attr=1|qr_nm:gd|res:RC3|com-cf:nl|ptrs:na|ktp:N0|mc:55652|mtp:S|qry_typ:P|lang:en|wc:2|cs:8838|v=4,Maa Shardey Enterprises,https://www.indiamart.com/maashardeyenterprises-panipat/?pos=192&kwd=baby comforter&tags=||||8747.203|Price|product|||NA|rsf:gd-|-stype:attr=1|qr_nm:gd|res:RC3|com-cf:nl|ptrs:na|ktp:N0|mc:55652|mtp:S|qry_typ:P|lang:en|wc:2|cs:8838|v=4,False,Geeta Colony,Panipat,"262, Ward No. 2, Indra Vihar ,, Geeta Colony, Panipat - 132103, Dist.Panipat, Haryana",7942565405,
"Rectangular Light Purple (Base) Cotton Printed Baby Comforter Cum Pillow, Size: 42x58Inch(LxW)",https://www.indiamart.com/proddetail/cotton-printed-baby-comforter-cum-pillow-2851570120662.html?pos=193&kwd=baby comforter&tags=||||8747.203|Price|product|||NA|rsf:gd-|-stype:attr=1|qr_nm:gd|res:RC3|com-cf:nl|ptrs:na|ktp:N0|mc:55652|mtp:S|qry_typ:P|lang:en|wc:2|cs:8838|v=4,Haniya Enterprises,https://www.indiamart.com/haniya-enterprises-panipat/?pos=193&kwd=baby comforter&tags=||||8747.203|Price|product|||NA|rsf:gd-|-stype:attr=1|qr_nm:gd|res:RC3|com-cf:nl|ptrs:na|ktp:N0|mc:55652|mtp:S|qry_typ:P|lang:en|wc:2|cs:8838|v=4,False,,Panipat,"1, 47F, Haniya Enterprises, TDI City Sector-38, Panipat - 132103, Dist.Panipat, Haryana",7942839810,
"Printed Polka Tots Baby Kids Comforter Blanket, For 0-7 years, Size: 60X40 inches 90 gsm",https://www.indiamart.com/proddetail/polka-tots-baby-kids-comforter-blanket-25969388773.html?pos=194&kwd=baby comforter&tags=||||8228.275|Price|product|||NA|rsf:gd-|-stype:attr=1|qr_nm:gd|res:RC3|com-cf:nl|ptrs:na|ktp:N0|mc:55652|mtp:S|qry_typ:P|lang:en|wc:2|cs:8838|v=4,Eclat Globalbiz LLP,https://www.indiamart.com/eclatglobalbiz/?pos=194&kwd=baby comforter&tags=||||8228.275|Price|product|||NA|rsf:gd-|-stype:attr=1|qr_nm:gd|res:RC3|com-cf:nl|ptrs:na|ktp:N0|mc:55652|mtp:S|qry_typ:P|lang:en|wc:2|cs:8838|v=4,False,,Ahmedabad,"Shilp Zaveri, Ahmedabad - 380004, Dist.Ahmedabad, Gujarat",8047627244,
"Sana traders Microfiber Kids bed comforter, Capacity: 10000",https://www.indiamart.com/proddetail/kids-bed-comforter-27508602955.html?pos=195&kwd=baby comforter&tags=||||8860.933|Price|product|||NA|rsf:gd-|-stype:attr=1|qr_nm:gd|res:RC3|com-cf:nl|ptrs:na|ktp:N0|mc:55652|mtp:S|qry_typ:P|lang:en|wc:2|cs:8838|v=4,Sana Traders,https://www.indiamart.com/sana-traders-dehradun/?pos=195&kwd=baby comforter&tags=||||8860.933|Price|product|||NA|rsf:gd-|-stype:attr=1|qr_nm:gd|res:RC3|com-cf:nl|ptrs:na|ktp:N0|mc:55652|mtp:S|qry_typ:P|lang:en|wc:2|cs:8838|v=4,False,Clement Town,Dehradun,"Turner Road Lane, C-10 Turner Road, Clement Town, Dehradun - 248002, Dist.Dehradun, Uttarakhand",8048370723,9437
"Glace Cotton Printed Kids Comforter Set For Home, Size: 60 X 90 Inches",https://www.indiamart.com/proddetail/kids-comforter-set-23372518612.html?pos=196&kwd=baby comforter&tags=||||8754.115|Price|product|||NA|rsf:gd-|-stype:attr=1|qr_nm:gd|res:RC3|com-cf:nl|ptrs:na|ktp:N0|mc:55652|mtp:S|qry_typ:P|lang:en|wc:2|cs:8838|v=4,Comfort Touch,https://www.indiamart.com/comforttouch-panchkula/?pos=196&kwd=baby comforter&tags=||||8754.115|Price|product|||NA|rsf:gd-|-stype:attr=1|qr_nm:gd|res:RC3|com-cf:nl|ptrs:na|ktp:N0|mc:55652|mtp:S|qry_typ:P|lang:en|wc:2|cs:8838|v=4,False,,Panchkula,"Pkl, Hry, Panchkula - 134113, Dist.Panchkula, Haryana",8048261991,731
"Cotton Printed Pink Kids Comforter Bed Set, For Home",https://www.indiamart.com/proddetail/pink-kids-comforter-bed-set-23809162488.html?pos=197&kwd=baby comforter&tags=||||8316.457|Price|product|||NA|rsf:gd-|-stype:attr=1|qr_nm:gd|res:RC3|com-cf:nl|ptrs:na|ktp:N0|mc:55652|mtp:S|qry_typ:P|lang:en|wc:2|cs:8838|v=4,Ruchika Associates / R R Enterprises / Unitech Alliance Inc,https://www.indiamart.com/ruchika-associates-rrenterprise/?pos=197&kwd=baby comforter&tags=||||8316.457|Price|product|||NA|rsf:gd-|-stype:attr=1|qr_nm:gd|res:RC3|com-cf:nl|ptrs:na|ktp:N0|mc:55652|mtp:S|qry_typ:P|lang:en|wc:2|cs:8838|v=4,False,,Nashik,"7 / 8A, Ground Floor, New Kalika Hsg Co-op Soc, B/h Kalika Mandir, Opp Ketkar Bros, Nashik - 422002, Dist.Nashik, Maharashtra",8048985087,
Printed Cotton Kids Quilt Comforter,https://www.indiamart.com/proddetail/kids-quilt-comforter-19593077273.html?pos=198&kwd=baby comforter&tags=||||8226.563|Price|product|||NA|rsf:gd-|-stype:attr=1|qr_nm:gd|res:RC3|com-cf:nl|ptrs:na|ktp:N0|mc:55652|mtp:S|qry_typ:P|lang:en|wc:2|cs:8838|v=4,Galaxy Furnishings,https://www.indiamart.com/galaxy-furnishing-navimumbai/?pos=198&kwd=baby comforter&tags=||||8226.563|Price|product|||NA|rsf:gd-|-stype:attr=1|qr_nm:gd|res:RC3|com-cf:nl|ptrs:na|ktp:N0|mc:55652|mtp:S|qry_typ:P|lang:en|wc:2|cs:8838|v=4,False,Seawoods,Navi Mumbai,"SHOP NO.14,MANEK COMLEX,SECTOR-29,VASHI Shop No. 10/11, Shreeji Heights, Palm Beach Road, Nerul,400706,Navi Mumbai, Seawoods, Navi Mumbai - 400703, Dist.Thane, Maharashtra",8043843190,
"Cotton Multicolor Kalina Baby Quilt/ Comforter/ Blanket For 0-24 Months, Size: 84*104 Cm",https://www.indiamart.com/proddetail/kalina-baby-quilt-comforter-blanket-for-0-24-months-23150152791.html?pos=199&kwd=baby comforter&tags=||||8778.123|Price|product|||NA|rsf:gd-|-stype:attr=1|qr_nm:gd|res:RC3|com-cf:nl|ptrs:na|ktp:N0|mc:55652|mtp:S|qry_typ:P|lang:en|wc:2|cs:8838|v=4,Kalina Fabtex Private Limited,https://www.indiamart.com/kalina-fabtex/?pos=199&kwd=baby comforter&tags=||||8778.123|Price|product|||NA|rsf:gd-|-stype:attr=1|qr_nm:gd|res:RC3|com-cf:nl|ptrs:na|ktp:N0|mc:55652|mtp:S|qry_typ:P|lang:en|wc:2|cs:8838|v=4,False,,Noida,"A-51, Sector 64, Gautam Buddha, Noida - 201301, Dist.Gautam Budh Nagar, Uttar Pradesh",8043818216,
Kids Comforter Set,https://www.indiamart.com/proddetail/kids-comforter-set-23625843062.html?pos=200&kwd=baby comforter&tags=||||8747.203|Price|product|||NA|rsf:gd-|-stype:attr=1|qr_nm:gd|res:RC3|com-cf:nl|ptrs:na|ktp:N0|mc:55652|mtp:S|qry_typ:P|lang:en|wc:2|cs:8838|v=4,Motif Upheaval Inc,https://www.indiamart.com/kanha-creation-panipat/?pos=200&kwd=baby comforter&tags=||||8747.203|Price|product|||NA|rsf:gd-|-stype:attr=1|qr_nm:gd|res:RC3|com-cf:nl|ptrs:na|ktp:N0|mc:55652|mtp:S|qry_typ:P|lang:en|wc:2|cs:8838|v=4,False,Sethi Chowk Area,Panipat,"C/o Mittal overseas Shimla Moulana Road, Shimla Panipat, Sethi Chowk Area, Panipat - 132103, Dist.Panipat, Haryana",8048372079,947
"Dark Blue (Base) Kids Printed Polyester Comforter Set, Size: Single",https://www.indiamart.com/proddetail/kids-printed-polyester-comforter-set-2852524508888.html?pos=201&kwd=baby comforter&tags=||||8228.275|Price|product|||NA|rsf:gd-|-stype:attr=1|qr_nm:gd|res:RC3|com-cf:nl|ptrs:na|ktp:N0|mc:55652|mtp:S|qry_typ:P|lang:en|wc:2|cs:8838|v=4,My Choice Factory,https://www.indiamart.com/mychoice-factory/?pos=201&kwd=baby comforter&tags=||||8228.275|Price|product|||NA|rsf:gd-|-stype:attr=1|qr_nm:gd|res:RC3|com-cf:nl|ptrs:na|ktp:N0|mc:55652|mtp:S|qry_typ:P|lang:en|wc:2|cs:8838|v=4,False,Sabarmati,Ahmedabad,"10, Bhagvati Apartment, Near State Bank, Dharmnagar, St Marrys Church, Sabarmati, Sabarmati, Ahmedabad - 380005, Dist.Ahmedabad, Gujarat",7942703217,
"Cotton Multicolor Kids Comfort Set, Packaging Type: Attractive Zip Bag Packing",https://www.indiamart.com/proddetail/kids-comfort-set-2850384230048.html?pos=202&kwd=baby comforter&tags=||||8364.597||product|||NA|rsf:gd-|-stype:attr=1|qr_nm:gd|res:RC3|com-cf:nl|ptrs:na|ktp:N0|mc:55652|mtp:S|qry_typ:P|lang:en|wc:2|cs:8838|v=4,SVH Enterprises,https://www.indiamart.com/svhenterprises/?pos=202&kwd=baby comforter&tags=||||8364.597||product|||NA|rsf:gd-|-stype:attr=1|qr_nm:gd|res:RC3|com-cf:nl|ptrs:na|ktp:N0|mc:55652|mtp:S|qry_typ:P|lang:en|wc:2|cs:8838|v=4,False,,Udaipur,"107, Shristy Complex, Bedla Road,, Udaipur - 313011, Rajasthan",7942873744,
Kids Comforters,https://www.indiamart.com/proddetail/kids-comforters-13132406188.html?pos=203&kwd=baby comforter&tags=||||8601.347|Price|product|||NA|rsf:gd-|-stype:attr=1|qr_nm:gd|res:RC3|com-cf:nl|ptrs:na|ktp:N0|mc:55652|mtp:S|qry_typ:P|lang:en|wc:2|cs:8838|v=4,Saffron Fashion,https://www.indiamart.com/saffronfashion/?pos=203&kwd=baby comforter&tags=||||8601.347|Price|product|||NA|rsf:gd-|-stype:attr=1|qr_nm:gd|res:RC3|com-cf:nl|ptrs:na|ktp:N0|mc:55652|mtp:S|qry_typ:P|lang:en|wc:2|cs:8838|v=4,False,New Sanganer Road,Jaipur,"Flat No. A 103, Felicity, Emerald Apartments, Plot No. 4, GR 4 Sunder Singh Bhandari Nagar, New Sanganer Road, New Sanganer Road, Jaipur - 302019, Dist.Jaipur, Rajasthan",8048371893,488
Khushee Female Kids Comforter Set,https://www.indiamart.com/proddetail/kids-comforter-set-7464739273.html?pos=204&kwd=baby comforter&tags=||||8038.093||product|||NA|rsf:gd-|-stype:attr=1|qr_nm:gd|res:RC3|com-cf:nl|ptrs:na|ktp:N0|mc:55652|mtp:S|qry_typ:P|lang:en|wc:2|cs:8838|v=4,Khushee International,https://www.indiamart.com/khushee-international/?pos=204&kwd=baby comforter&tags=||||8038.093||product|||NA|rsf:gd-|-stype:attr=1|qr_nm:gd|res:RC3|com-cf:nl|ptrs:na|ktp:N0|mc:55652|mtp:S|qry_typ:P|lang:en|wc:2|cs:8838|v=4,False,Station Plot,Rajkot,"Plot No. 143/144, Village Kuvadva, G. I. D. C., Road No. G, Station Plot, Rajkot - 363670, Dist.Rajkot, Gujarat",8047643973,
"Printed Kids comforter set, For Everyday Use",https://www.indiamart.com/proddetail/kids-comforter-set-22650545430.html?pos=205&kwd=baby comforter&tags=||||8747.203||product|||NA|rsf:gd-|-stype:attr=1|qr_nm:gd|res:RC3|com-cf:nl|ptrs:na|ktp:N0|mc:55652|mtp:S|qry_typ:P|lang:en|wc:2|cs:8838|v=4,M. K. Jain And Sons,https://www.indiamart.com/mkjain-sons-panipat/?pos=205&kwd=baby comforter&tags=||||8747.203||product|||NA|rsf:gd-|-stype:attr=1|qr_nm:gd|res:RC3|com-cf:nl|ptrs:na|ktp:N0|mc:55652|mtp:S|qry_typ:P|lang:en|wc:2|cs:8838|v=4,False,Market,Panipat,"No. 927/3, Near Jain Mohalla, Market, Panipat - 132103, Dist.Panipat, Haryana",8043835935,
Kidish White Kids Comforter Set,https://www.indiamart.com/proddetail/kids-comforter-set-2853385023197.html?pos=206&kwd=baby comforter&tags=||||8692.537|Price|product|||NA|rsf:gd-|-stype:attr=1|qr_nm:gd|res:RC3|com-cf:nl|ptrs:na|ktp:N0|mc:55652|mtp:S|qry_typ:P|lang:en|wc:2|cs:8838|v=4,JBMR Interior Gallery,https://www.indiamart.com/jbmr-interior-gallery/?pos=206&kwd=baby comforter&tags=||||8692.537|Price|product|||NA|rsf:gd-|-stype:attr=1|qr_nm:gd|res:RC3|com-cf:nl|ptrs:na|ktp:N0|mc:55652|mtp:S|qry_typ:P|lang:en|wc:2|cs:8838|v=4,False,Pratap Colony,Khanna,"Near Grain Market, Samrala Road, Near Gugga Marhi Mandir, Pratap Colony, Khanna - 141401, Dist.Ludhiana, Punjab",7949222654,
Comfort Baby Blanket,,Vallabh Fabriks Limited,https://www.indiamart.com/vallabh-fabriks/?pos=207&kwd=baby comforter&tags=CC||||8661.854||product|||NA|rsf:gd-|-stype:attr=1|qr_nm:gd|res:RC3|com-cf:nl|ptrs:na|ktp:N0|mc:55652|mtp:S|qry_typ:P|lang:en|wc:2|cs:8838|v=4,False,Village Gehlewal,Ludhiana,"B-XXXII-1429/5A, Rahon Road, Village Gehlewal, Ludhiana - 141007, Dist.Ludhiana, Punjab",8047530614,
"Polycotton Multicolor Printed Microfiber Reversible Comforter, Size: Single",https://www.indiamart.com/proddetail/printed-microfiber-reversible-comforter-2850015401912.html?pos=208&kwd=baby comforter&tags=||||8580.032|Price|proxy|||TS|rsf:gd-|-stype:attr=1|qr_nm:gd|res:RC3|com-cf:nl|ptrs:na|ktp:N0|mc:55652|mtp:S|qry_typ:P|lang:en|wc:2|cs:8838|v=4,G.M. Global,https://www.gmglobal.company/?pos=208&kwd=baby comforter&tags=||||8580.032|Price|proxy|||TS|rsf:gd-|-stype:attr=1|qr_nm:gd|res:RC3|com-cf:nl|ptrs:na|ktp:N0|mc:55652|mtp:S|qry_typ:P|lang:en|wc:2|cs:8838|v=4,False,Ajnala,Amritsar,"Village Kamboh, Near Appollo Processors, Meerakot, Ajnala, Amritsar - 143001, Dist.Amritsar, Punjab",8048263122,
"Glace Cotton Blue Aaliya Reversible Comforter Set, Size: 90x100cm(Comforter)",https://www.indiamart.com/proddetail/aaliya-reversible-comforter-set-23994515762.html?pos=209&kwd=baby comforter&tags=||||8747.203|Price|proxy|||TS|rsf:gd-|-stype:attr=1|qr_nm:gd|res:RC3|com-cf:nl|ptrs:na|ktp:N0|mc:55652|mtp:S|qry_typ:P|lang:en|wc:2|cs:8838|v=4,Rishaan Bedding,https://www.rishaanbedding.in/?pos=209&kwd=baby comforter&tags=||||8747.203|Price|proxy|||TS|rsf:gd-|-stype:attr=1|qr_nm:gd|res:RC3|com-cf:nl|ptrs:na|ktp:N0|mc:55652|mtp:S|qry_typ:P|lang:en|wc:2|cs:8838|v=4,False,Panipat,Panipat,"SHOP NO 19-20,,SANOLI ROAD,RISHI COLONY, Panipat, Panipat - 132103, Dist.Panipat, Haryana",8046075886,
"Polyester Micro Single Bed Comforters Set, For Home, Size: 60 X 90",https://www.indiamart.com/proddetail/bed-comforters-set-2849012545688.html?pos=210&kwd=baby comforter&tags=||||8228.275|Price|proxy|||TS|rsf:gd-|-stype:attr=1|qr_nm:gd|res:RC3|com-cf:nl|ptrs:na|ktp:N0|mc:55652|mtp:S|qry_typ:P|lang:en|wc:2|cs:8838|v=4,J And H Textiles,https://www.indiamart.com/j-h-textiles/?pos=210&kwd=baby comforter&tags=||||8228.275|Price|proxy|||TS|rsf:gd-|-stype:attr=1|qr_nm:gd|res:RC3|com-cf:nl|ptrs:na|ktp:N0|mc:55652|mtp:S|qry_typ:P|lang:en|wc:2|cs:8838|v=4,False,kankaria,Ahmedabad,"314, 2nd floor, Block D, Sumel Business Park 2 B/H Vanijya Bhavan, Kankaria road, Raipur, kankaria, Ahmedabad - 380022, Dist.Ahmedabad, Gujarat",8046068579,
