product_title,product_link,company_name,company_link,is_verified_exporter,city_region,city,address_details,phone_number,phone_number_extension
"Babyzone Microfiber Baby Blanket Wrapper Glory Super Soft For New Born Baby, 0-2 Y, Size: 27*27 cm",https://www.indiamart.com/proddetail/baby-blanket-wrapper-glory-super-soft-for-new-born-baby-26332672455.html?pos=1&kwd=baby fur blanket&tags=BA||||8661.854|Price|product|||TS|rsf:gd-|-stype:attr=1|qr_nm:gd|res:RC4|com-cf:nl|ptrs:na|ktp:N0|mc:45550|mtp:S|qry_typ:P|lang:en|wc:3|flavl:0|cs:9599|v=4,Aggarwal Creations,https://www.aggarwalcreations.com/?pos=1&kwd=baby fur blanket&tags=BA||||8661.854|Price|product|||TS|rsf:gd-|-stype:attr=1|qr_nm:gd|res:RC4|com-cf:nl|ptrs:na|ktp:N0|mc:45550|mtp:S|qry_typ:P|lang:en|wc:3|flavl:0|cs:9599|v=4,False,Ramesh Nagar,Ludhiana,"Geeta Nagar, Street No. 7, Tajpur Road, Ramesh Nagar, Ludhiana - 141008, Dist.Ludhiana, Punjab",8048962321,
Hooded Baby Blanket,https://www.indiamart.com/proddetail/hooded-baby-blanket-2852794929455.html?pos=2&kwd=baby fur blanket&tags=BB||||8752.144|Price|product|||TS|rsf:gd-|-stype:attr=1|qr_nm:gd|res:RC4|com-cf:nl|ptrs:na|ktp:N0|mc:45550|mtp:S|qry_typ:P|lang:en|wc:3|flavl:0|cs:9599|v=4,Man Singh & Sons Private Limited,https://www.babyproductsmanufacturer.com/?pos=2&kwd=baby fur blanket&tags=BB||||8752.144|Price|product|||TS|rsf:gd-|-stype:attr=1|qr_nm:gd|res:RC4|com-cf:nl|ptrs:na|ktp:N0|mc:45550|mtp:S|qry_typ:P|lang:en|wc:3|flavl:0|cs:9599|v=4,False,Karol Bagh,New Delhi,"No. 13/24, 1st Floor, W. E. A., Karol Bagh, Karol Bagh, New Delhi - 110005, Dist.Delhi, Delhi",8048978579,
Velvet Baby Fur Blanket,,Satyam Cottex India Pvt. Ltd.,https://www.indiamart.com/satyam-cottex-india/?pos=3&kwd=baby fur blanket&tags=BA||||8747.203|Price|product|||TS|rsf:gd-|-stype:attr=1|qr_nm:gd|res:RC4|com-cf:nl|ptrs:na|ktp:N0|mc:45550|mtp:S|qry_typ:P|lang:en|wc:3|flavl:0|cs:9599|v=4,False,,Panipat,"Opp. Baba Peer, G.T. Road, Sewah, Panipat - 132103, Dist.Panipat, Haryana",8045729152,
Chhote Janab Printed Baby Fur Blanket,https://www.indiamart.com/proddetail/baby-fur-blanket-19619805612.html?pos=4&kwd=baby fur blanket&tags=BB||||8752.144|Price|product|||TS|rsf:gd-|-stype:attr=1|qr_nm:gd|res:RC4|com-cf:nl|ptrs:na|ktp:N0|mc:45550|mtp:S|qry_typ:P|lang:en|wc:3|flavl:0|cs:9599|v=4,Shree Balaji Infant Wear,https://www.indiamart.com/chhotejanab/?pos=4&kwd=baby fur blanket&tags=BB||||8752.144|Price|product|||TS|rsf:gd-|-stype:attr=1|qr_nm:gd|res:RC4|com-cf:nl|ptrs:na|ktp:N0|mc:45550|mtp:S|qry_typ:P|lang:en|wc:3|flavl:0|cs:9599|v=4,False,Pahari Dhiraj,New Delhi,"1583- 84, Hathi Khana, Aziz Ganj, Bahadur Garh Road, Pahari Dhiraj, New Delhi - 110006, Dist.Delhi, Delhi",8047639754,
Pink Printed Baby Fur Blanket,https://www.indiamart.com/proddetail/baby-fur-blanket-2849223789797.html?pos=5&kwd=baby fur blanket&tags=BA||||8747.203|Price|product|||TS|rsf:gd-|-stype:attr=1|qr_nm:gd|res:RC4|com-cf:nl|ptrs:na|ktp:N0|mc:45550|mtp:S|qry_typ:P|lang:en|wc:3|flavl:0|cs:9599|v=4,Vidya Sagar Textiles,https://www.vidyasagartextiles.com/?pos=5&kwd=baby fur blanket&tags=BA||||8747.203|Price|product|||TS|rsf:gd-|-stype:attr=1|qr_nm:gd|res:RC4|com-cf:nl|ptrs:na|ktp:N0|mc:45550|mtp:S|qry_typ:P|lang:en|wc:3|flavl:0|cs:9599|v=4,False,Mal Godown Road,Panipat,"6, Mal Godam Road, Near Sangeet Cinema Gate, Mal Godown Road, Panipat - 132103, Dist.Panipat, Haryana",8047308149,
"Meera Handicrafts Cotton Baby Fur Blanket Dohra, Size: 44*44 Inch",https://www.indiamart.com/proddetail/baby-fur-blanket-dohra-22831584797.html?pos=6&kwd=baby fur blanket&tags=BA||||8601.347|Price|product|||TS|rsf:gd-|-stype:attr=1|qr_nm:gd|res:RC4|com-cf:nl|ptrs:na|ktp:N0|mc:45550|mtp:S|qry_typ:P|lang:en|wc:3|flavl:0|cs:9599|v=4,Meera Handicrafts,https://www.meerahandicrafts.in/?pos=6&kwd=baby fur blanket&tags=BA||||8601.347|Price|product|||TS|rsf:gd-|-stype:attr=1|qr_nm:gd|res:RC4|com-cf:nl|ptrs:na|ktp:N0|mc:45550|mtp:S|qry_typ:P|lang:en|wc:3|flavl:0|cs:9599|v=4,True,Govind Nagar,Jaipur,"Govind Nagar Vistar, Plot No 54b, Dussehra Kothi, Amer Road, Govind Nagar, Jaipur - 302002, Dist.Jaipur, Rajasthan",8048618585,
"Polyester Pink Khushi Soft Fur Baby Blankets, Size: Singe",https://www.indiamart.com/proddetail/khushi-soft-fur-baby-blankets-2852916673555.html?pos=7&kwd=baby fur blanket&tags=BA||||8747.203|Price|product|||TS|rsf:gd-|-stype:attr=1|qr_nm:gd|res:RC4|com-cf:nl|ptrs:na|ktp:N0|mc:45550|mtp:S|qry_typ:P|lang:en|wc:3|flavl:0|cs:9599|v=4,M L Textile,https://www.indiamart.com/ml-textile/?pos=7&kwd=baby fur blanket&tags=BA||||8747.203|Price|product|||TS|rsf:gd-|-stype:attr=1|qr_nm:gd|res:RC4|com-cf:nl|ptrs:na|ktp:N0|mc:45550|mtp:S|qry_typ:P|lang:en|wc:3|flavl:0|cs:9599|v=4,False,Jattal,Panipat,"8 Marla Colony Jattal Road Near Siti Cable, Jattal, Panipat - 132103, Dist.Panipat, Haryana",8046074237,
Cotton Blue Baby Fur Blanket,https://www.indiamart.com/proddetail/baby-fur-blanket-2852672506655.html?pos=8&kwd=baby fur blanket&tags=BA||||8661.854|Price|product|||MDC|rsf:gd-|-stype:attr=1|qr_nm:gd|res:RC4|com-cf:nl|ptrs:na|ktp:N0|mc:45550|mtp:S|qry_typ:P|lang:en|wc:3|flavl:0|cs:9599|v=4,Raj Industries,https://www.indiamart.com/raj-industries-punjab/?pos=8&kwd=baby fur blanket&tags=BA||||8661.854|Price|product|||MDC|rsf:gd-|-stype:attr=1|qr_nm:gd|res:RC4|com-cf:nl|ptrs:na|ktp:N0|mc:45550|mtp:S|qry_typ:P|lang:en|wc:3|flavl:0|cs:9599|v=4,False,,Ludhiana,"H. No B 12 629, Kucha Anayat, Nr Div No 2 Brown Road, Ludhiana - 141008, Dist.Ludhiana, Punjab",7942800347,
"Blue Light Pink And Dark Pink Printed Baby Fur Winter Blanket, 12 Months, Size: Small",https://www.indiamart.com/proddetail/baby-fur-winter-blanket-2850527188012.html?pos=9&kwd=baby fur blanket&tags=BB||||8706.508|Price|product|||MDC|rsf:gd-|-stype:attr=1|qr_nm:gd|res:RC4|com-cf:nl|ptrs:na|ktp:N0|mc:45550|mtp:S|qry_typ:P|lang:en|wc:3|flavl:0|cs:9599|v=4,Young Vision,https://www.indiamart.com/young-vision-rohtak/?pos=9&kwd=baby fur blanket&tags=BB||||8706.508|Price|product|||MDC|rsf:gd-|-stype:attr=1|qr_nm:gd|res:RC4|com-cf:nl|ptrs:na|ktp:N0|mc:45550|mtp:S|qry_typ:P|lang:en|wc:3|flavl:0|cs:9599|v=4,False,Janta Colony,Rohtak,"949/31 Azad Nagar, Janta Colony, Rohtak - 124001, Dist.Rohtak, Haryana",8047688329,
"nswm Assorted Cloudy Baby Blanket, Size: 80*110 Cms",https://www.indiamart.com/proddetail/cloudy-baby-blanket-23160320333.html?pos=10&kwd=baby fur blanket&tags=BB||||8747.203|Price|product|||TS|rsf:gd-|-stype:attr=1|qr_nm:gd|res:RC4|com-cf:nl|ptrs:na|ktp:N0|mc:45550|mtp:S|qry_typ:P|lang:en|wc:3|flavl:0|cs:9599|v=4,Harshit International,https://www.indiamart.com/harshitinternational/?pos=10&kwd=baby fur blanket&tags=BB||||8747.203|Price|product|||TS|rsf:gd-|-stype:attr=1|qr_nm:gd|res:RC4|com-cf:nl|ptrs:na|ktp:N0|mc:45550|mtp:S|qry_typ:P|lang:en|wc:3|flavl:0|cs:9599|v=4,False,Huda,Panipat,"Urban Estate, Sector- 12, 600, Near SD Vidya Mandir, Huda, Panipat - 132103, Dist.Panipat, Haryana",8046047820,
"Polyester Cartoon Printed Kids Blanket, 0-2 Years",https://www.indiamart.com/proddetail/kids-blanket-21439011048.html?pos=11&kwd=baby fur blanket&tags=BB||||8747.203|Price|product|||TS|rsf:gd-|-stype:attr=1|qr_nm:gd|res:RC4|com-cf:nl|ptrs:na|ktp:N0|mc:45550|mtp:S|qry_typ:P|lang:en|wc:3|flavl:0|cs:9599|v=4,Shiv Shakti Textile,https://www.indiamart.com/shivshaktitextileindia/?pos=11&kwd=baby fur blanket&tags=BB||||8747.203|Price|product|||TS|rsf:gd-|-stype:attr=1|qr_nm:gd|res:RC4|com-cf:nl|ptrs:na|ktp:N0|mc:45550|mtp:S|qry_typ:P|lang:en|wc:3|flavl:0|cs:9599|v=4,False,Jagjivan Ram Colony,Panipat,"Shop No. 34, Maharaja Aggarsain Towel Market, Jagjivan Ram Colony, Panipat - 132103, Dist.Panipat, Haryana",8048969367,
Floral Print Velvet Baby Fleece Blanket,https://www.indiamart.com/proddetail/baby-fleece-blanket-26275248388.html?pos=12&kwd=baby fur blanket&tags=BA||||8752.144|Price|proxy|||TS|rsf:gd-|-stype:attr=1|qr_nm:gd|res:RC4|com-cf:nl|ptrs:na|ktp:N0|mc:45550|mtp:S|qry_typ:P|lang:en|wc:3|flavl:0|cs:9599|v=4,Verma Enterprises,https://www.styaloindia.com/?pos=12&kwd=baby fur blanket&tags=BA||||8752.144|Price|proxy|||TS|rsf:gd-|-stype:attr=1|qr_nm:gd|res:RC4|com-cf:nl|ptrs:na|ktp:N0|mc:45550|mtp:S|qry_typ:P|lang:en|wc:3|flavl:0|cs:9599|v=4,False,Samaypur,New Delhi,"Plot No.180/1-B, Kh.No. 955/1, 1st, Block-C, Raja Vihar, Siraspur, Badli, North West Delhi, Samaypur, New Delhi - 110042, Dist.Delhi, Delhi",8047654672,
mix Baby Fur Blanket,https://www.indiamart.com/proddetail/baby-fur-blanket-22698278373.html?pos=13&kwd=baby fur blanket&tags=BB||||8752.144|Price|product|||NA|rsf:gd-|-stype:attr=1|qr_nm:gd|res:RC4|com-cf:nl|ptrs:na|ktp:N0|mc:45550|mtp:S|qry_typ:P|lang:en|wc:3|flavl:0|cs:9599|v=4,Shivam Creation,https://www.indiamart.com/shivam-creation-new-delhi/?pos=13&kwd=baby fur blanket&tags=BB||||8752.144|Price|product|||NA|rsf:gd-|-stype:attr=1|qr_nm:gd|res:RC4|com-cf:nl|ptrs:na|ktp:N0|mc:45550|mtp:S|qry_typ:P|lang:en|wc:3|flavl:0|cs:9599|v=4,False,Gandhi Nagar,New Delhi,"9/146 SHYAM BLOCK GANDHI NAGAR GANDHI NAGAR, Gandhi Nagar, New Delhi - 110031, Dist.Delhi, Delhi",8048372002,946
"Plain Baby Fur Blanket, Packaging Type: Packet, New Born To 8 Month",https://www.indiamart.com/proddetail/baby-fur-blanket-21422128197.html?pos=14&kwd=baby fur blanket&tags=BB||||8661.854|Price|product|||NA|rsf:gd-|-stype:attr=1|qr_nm:gd|res:RC4|com-cf:nl|ptrs:na|ktp:N0|mc:45550|mtp:S|qry_typ:P|lang:en|wc:3|flavl:0|cs:9599|v=4,Adhishwar Knitfab,https://www.indiamart.com/adhishwar-knit-fab/?pos=14&kwd=baby fur blanket&tags=BB||||8661.854|Price|product|||NA|rsf:gd-|-stype:attr=1|qr_nm:gd|res:RC4|com-cf:nl|ptrs:na|ktp:N0|mc:45550|mtp:S|qry_typ:P|lang:en|wc:3|flavl:0|cs:9599|v=4,False,,Ludhiana,"4463/1,ADHISHWAR KNIT FAB, ST.NO.7,NEW MADHOPURI 4463/1, Street No. 7, New Madhopuri,141007,Ludhiana, Ludhiana - 141008, Dist.Ludhiana, Punjab",8048371508,227
Plain Soft Fur Baby Blanket,https://www.indiamart.com/proddetail/soft-fur-baby-blanket-15911717033.html?pos=15&kwd=baby fur blanket&tags=BB||||8661.854|Price|product|||NA|rsf:gd-|-stype:attr=1|qr_nm:gd|res:RC4|com-cf:nl|ptrs:na|ktp:N0|mc:45550|mtp:S|qry_typ:P|lang:en|wc:3|cs:8836|v=4,Gopal Darshan Textile,https://www.indiamart.com/gopal-darshan-textiles/?pos=15&kwd=baby fur blanket&tags=BB||||8661.854|Price|product|||NA|rsf:gd-|-stype:attr=1|qr_nm:gd|res:RC4|com-cf:nl|ptrs:na|ktp:N0|mc:45550|mtp:S|qry_typ:P|lang:en|wc:3|cs:8836|v=4,False,,Ludhiana,"3929/3 Hargobind Pura 4, Ludhiana - 141008, Dist.Ludhiana, Punjab",8048956657,
"Embroidered Baby Rani Pink Hooded Fur Blanket, 0-6 Months",https://www.indiamart.com/proddetail/baby-rani-pink-hooded-fur-blanket-23484276755.html?pos=16&kwd=baby fur blanket&tags=BB||||8661.854||product|||NA|rsf:gd-|-stype:attr=1|qr_nm:gd|res:RC4|com-cf:nl|ptrs:na|ktp:N0|mc:45550|mtp:S|qry_typ:P|lang:en|wc:3|cs:8836|v=4,Goyal Textiles,https://www.indiamart.com/goyal-textiles/?pos=16&kwd=baby fur blanket&tags=BB||||8661.854||product|||NA|rsf:gd-|-stype:attr=1|qr_nm:gd|res:RC4|com-cf:nl|ptrs:na|ktp:N0|mc:45550|mtp:S|qry_typ:P|lang:en|wc:3|cs:8836|v=4,False,,Ludhiana,"B VIII 343, Mochpura Bazar, Gali No. 1 Near Gujral Shawl Market, Ludhiana - 141008, Dist.Ludhiana, Punjab",8069033835,499
"Printed,Plain Little Baby Fleece Swaddle",https://www.indiamart.com/proddetail/little-baby-fleece-swaddle-19892571973.html?pos=17&kwd=baby fur blanket&tags=BA||||8661.854|Price|product|||NA|rsf:gd-|-stype:attr=1|qr_nm:gd|res:RC4|com-cf:nl|ptrs:na|ktp:N0|mc:45550|mtp:S|qry_typ:P|lang:en|wc:3|cs:8836|v=4,Sai Trading Company,https://www.indiamart.com/sai-trading-company/?pos=17&kwd=baby fur blanket&tags=BA||||8661.854|Price|product|||NA|rsf:gd-|-stype:attr=1|qr_nm:gd|res:RC4|com-cf:nl|ptrs:na|ktp:N0|mc:45550|mtp:S|qry_typ:P|lang:en|wc:3|cs:8836|v=4,False,Naya Mohalla,Ludhiana,"139-B-Viii, Mochpura Bazar, Naya Mohalla, Ludhiana - 141008, Dist.Ludhiana, Punjab",8046057087,
Plain Fur Sling Bag,https://www.indiamart.com/proddetail/fur-sling-bag-2851971331512.html?pos=18&kwd=baby fur blanket&tags=CC||||8307.81|Price|product|||MDC|rsf:gd-|-stype:attr=1|qr_nm:gd|res:RC4|com-cf:nl|ptrs:na|ktp:N0|mc:45550|mtp:S|qry_typ:P|lang:en|wc:3|cs:8836|v=4,Neharsh Collection,https://www.indiamart.com/neharsh-collection/?pos=18&kwd=baby fur blanket&tags=CC||||8307.81|Price|product|||MDC|rsf:gd-|-stype:attr=1|qr_nm:gd|res:RC4|com-cf:nl|ptrs:na|ktp:N0|mc:45550|mtp:S|qry_typ:P|lang:en|wc:3|cs:8836|v=4,False,Moshi,Pune,"C-1202 Survey No. 669 Nakshtra Land, Moshi Alandi Road, Moshi Chowk, Moshi, Pune - 412105, Dist.Pune, Maharashtra",8048604456,
"Cotton Blue Baby Fur Blanket, Size: 55x90 cm",https://www.indiamart.com/proddetail/baby-fur-blanket-27594117097.html?pos=19&kwd=baby fur blanket&tags=CC||||8706.263|Price|product|||TS|rsf:gd-|-stype:attr=1|qr_nm:gd|res:RC4|com-cf:nl|ptrs:na|ktp:N0|mc:45550|mtp:S|qry_typ:P|lang:en|wc:3|cs:8836|v=4,Karur Export Company,https://www.karurexportcompany.in/?pos=19&kwd=baby fur blanket&tags=CC||||8706.263|Price|product|||TS|rsf:gd-|-stype:attr=1|qr_nm:gd|res:RC4|com-cf:nl|ptrs:na|ktp:N0|mc:45550|mtp:S|qry_typ:P|lang:en|wc:3|cs:8836|v=4,True,Sri Poonkuyil Nagar,Karur,"41, 43, Kuluthu Palayam Road, Vengamedu, Sri Poonkuyil Nagar, Karur - 639006, Dist.Karur, Tamil Nadu",8048600914,
Cotton Blue Fur Baby Blanket,https://www.indiamart.com/proddetail/fur-baby-blanket-23885594091.html?pos=20&kwd=baby fur blanket&tags=CC||||8752.144|Price|product|||TS|rsf:gd-|-stype:attr=1|qr_nm:gd|res:RC4|com-cf:nl|ptrs:na|ktp:N0|mc:45550|mtp:S|qry_typ:P|lang:en|wc:3|cs:8836|v=4,Krishna Handloom,https://www.krishnahandloom.co.in/?pos=20&kwd=baby fur blanket&tags=CC||||8752.144|Price|product|||TS|rsf:gd-|-stype:attr=1|qr_nm:gd|res:RC4|com-cf:nl|ptrs:na|ktp:N0|mc:45550|mtp:S|qry_typ:P|lang:en|wc:3|cs:8836|v=4,False,Tilak Nagar,New Delhi,"First Floor, 54/9, Ashok Nagar Opposite Jankie Vaishno Dhaba, Tilak Nagar, New Delhi - 110018, Dist.Delhi, Delhi",8048982699,
"Plain Cotton Baby Blanket, 1-2 Year, Size: 100 X 150 Cm",https://www.indiamart.com/proddetail/baby-blanket-6947898091.html?pos=21&kwd=baby fur blanket&tags=CC||||8747.203|Price|product|||TS|rsf:gd-|-stype:attr=1|qr_nm:gd|res:RC4|com-cf:nl|ptrs:na|ktp:N0|mc:45550|mtp:S|qry_typ:P|lang:en|wc:3|cs:8836|v=4,Vaibhav Overseas,https://www.vaibhavoverseas.net/?pos=21&kwd=baby fur blanket&tags=CC||||8747.203|Price|product|||TS|rsf:gd-|-stype:attr=1|qr_nm:gd|res:RC4|com-cf:nl|ptrs:na|ktp:N0|mc:45550|mtp:S|qry_typ:P|lang:en|wc:3|cs:8836|v=4,False,Huda,Panipat,"60, M/S Vaibhav Overseas, Sector-29,Part-I, Huda, Huda, Panipat - 132103, Dist.Panipat, Haryana",8046051980,
Pink Baby Fur Blanket,https://www.indiamart.com/proddetail/baby-fur-blanket-22635561473.html?pos=22&kwd=baby fur blanket&tags=CC||||8747.203|Price|product|||MDC|rsf:gd-|-stype:attr=1|qr_nm:gd|res:RC4|com-cf:nl|ptrs:na|ktp:N0|mc:45550|mtp:S|qry_typ:P|lang:en|wc:3|cs:8836|v=4,Rishabh Handloom,https://www.indiamart.com/rishabh-handloompanipat/?pos=22&kwd=baby fur blanket&tags=CC||||8747.203|Price|product|||MDC|rsf:gd-|-stype:attr=1|qr_nm:gd|res:RC4|com-cf:nl|ptrs:na|ktp:N0|mc:45550|mtp:S|qry_typ:P|lang:en|wc:3|cs:8836|v=4,False,,Panipat,"336/8, Near Kalandar Chowk, Pathana Wala Mohalla, Panipat - 132103, Dist.Panipat, Haryana",7949340837,
Woolen Purple Baby Fur Blanket,https://www.indiamart.com/proddetail/baby-fur-blanket-2853891840588.html?pos=23&kwd=baby fur blanket&tags=CC||||8228.275||product|||MDC|rsf:gd-|-stype:attr=1|qr_nm:gd|res:RC4|com-cf:nl|ptrs:na|ktp:N0|mc:45550|mtp:S|qry_typ:P|lang:en|wc:3|cs:8836|v=4,Dream Works,https://www.indiamart.com/dreamworks-ahmedabad/?pos=23&kwd=baby fur blanket&tags=CC||||8228.275||product|||MDC|rsf:gd-|-stype:attr=1|qr_nm:gd|res:RC4|com-cf:nl|ptrs:na|ktp:N0|mc:45550|mtp:S|qry_typ:P|lang:en|wc:3|cs:8836|v=4,False,Sanathal,Ahmedabad,"5,Chanakya Bunglows,Nr Lad Society Common Plot,Vastrapur, Sanathal, Ahmedabad - 380054, Dist.Ahmedabad, Gujarat",8047663803,
Baby Blanket,https://www.indiamart.com/proddetail/baby-blanket-2854504808888.html?pos=24&kwd=baby fur blanket&tags=CC||||9848.189||product|||TS|rsf:gd-|-stype:attr=1|qr_nm:gd|res:RC4|com-cf:nl|ptrs:na|ktp:N0|mc:45550|mtp:S|qry_typ:P|lang:en|wc:3|cs:8836|v=4,Balaji Stores,https://www.indiamart.com/balajistores-siliguri/?pos=24&kwd=baby fur blanket&tags=CC||||9848.189||product|||TS|rsf:gd-|-stype:attr=1|qr_nm:gd|res:RC4|com-cf:nl|ptrs:na|ktp:N0|mc:45550|mtp:S|qry_typ:P|lang:en|wc:3|cs:8836|v=4,False,,Siliguri,"H/22/8/188/273/737,,B ROAD WARD NO 12 P.O SILIGURI,Siliguri, Siliguri - 734001, Dist.Darjiling, West Bengal",8045734046,
"mix colour Fur single ply blanket, Size: Singe",https://www.indiamart.com/proddetail/single-ply-blanket-2851219020933.html?pos=25&kwd=baby fur blanket&tags=CC||||8752.144|Price|product|||TS|rsf:gd-|-stype:attr=1|qr_nm:gd|res:RC4|com-cf:nl|ptrs:na|ktp:N0|mc:45550|mtp:S|qry_typ:P|lang:en|wc:3|cs:8836|v=4,Swastik Enterprises,https://www.indiamart.com/swastikentpndelhi/?pos=25&kwd=baby fur blanket&tags=CC||||8752.144|Price|product|||TS|rsf:gd-|-stype:attr=1|qr_nm:gd|res:RC4|com-cf:nl|ptrs:na|ktp:N0|mc:45550|mtp:S|qry_typ:P|lang:en|wc:3|cs:8836|v=4,False,Shastri Nagar,New Delhi,"M 29, Shastri Nagar, Street No. 1, Shastri Nagar, New Delhi - 110052, Dist.Delhi, Delhi",8048607766,
Multicolor Double Super Soft Faux Mink Blanket,https://www.indiamart.com/proddetail/super-soft-faux-mink-blanket-22494005733.html?pos=26&kwd=baby fur blanket&tags=CC||||8747.203|Price|product|||MDC|rsf:gd-|-stype:attr=1|qr_nm:gd|res:RC4|com-cf:nl|ptrs:na|ktp:N0|mc:45550|mtp:S|qry_typ:P|lang:en|wc:3|cs:8836|v=4,Vardhman Texo Fab,https://www.indiamart.com/vardhman-texo-fab/?pos=26&kwd=baby fur blanket&tags=CC||||8747.203|Price|product|||MDC|rsf:gd-|-stype:attr=1|qr_nm:gd|res:RC4|com-cf:nl|ptrs:na|ktp:N0|mc:45550|mtp:S|qry_typ:P|lang:en|wc:3|cs:8836|v=4,False,Shahpur,Panipat,"Jawahra Road, Kheri Shahpur, Tehsil Israna, Shahpur, Panipat - 132107, Dist.Panipat, Haryana",7942548799,
"Multicolor Mink Fur Cloudy Embossed Kids Blankets, Size: 95 X115 cm",https://www.indiamart.com/proddetail/cloudy-embossed-kids-blankets-23744378488.html?pos=27&kwd=baby fur blanket&tags=||||8228.275|Price|product|||TS|rsf:gd-|-stype:attr=1|qr_nm:gd|res:RC4|com-cf:nl|ptrs:na|ktp:N0|mc:45550|mtp:S|qry_typ:P|lang:en|wc:3|cs:8836|v=4,King Enterprise,https://www.kingenterpriseindia.com/?pos=27&kwd=baby fur blanket&tags=||||8228.275|Price|product|||TS|rsf:gd-|-stype:attr=1|qr_nm:gd|res:RC4|com-cf:nl|ptrs:na|ktp:N0|mc:45550|mtp:S|qry_typ:P|lang:en|wc:3|cs:8836|v=4,False,Opp. Haripura Bus Stand,Ahmedabad,"Block- E 28, Ground Floor, Abhishek Estate-1, Opp. Haripura Bus Stand, Ahmedabad - 380016, Dist.Ahmedabad, Gujarat",8047632934,
Maurya Exports Polyester Plush Fur Fabric,https://www.indiamart.com/proddetail/plush-fur-fabric-9551729297.html?pos=28&kwd=baby fur blanket&tags=||||8661.854|Price|product|||TS|rsf:gd-|-stype:attr=1|qr_nm:gd|res:RC4|com-cf:nl|ptrs:na|ktp:N0|mc:45550|mtp:S|qry_typ:P|lang:en|wc:3|cs:8836|v=4,Maurya Exports,https://www.mauryaexports.co.in/?pos=28&kwd=baby fur blanket&tags=||||8661.854|Price|product|||TS|rsf:gd-|-stype:attr=1|qr_nm:gd|res:RC4|com-cf:nl|ptrs:na|ktp:N0|mc:45550|mtp:S|qry_typ:P|lang:en|wc:3|cs:8836|v=4,False,,Ludhiana,"E-7, Hampton Court Business Park, Shri Satguru Ram Singhji Marg, Best Price Flipkart Wholesale, Mangli Nichhi, Ludhiana - 141014, Dist.Ludhiana, Punjab",8047622071,
"Oscar Assorted Baby Hooded Blanket Cum Wrap, 0-2 Years, Size: 60 X 60 Inches",https://www.indiamart.com/proddetail/baby-hooded-blanket-cum-wrap-11829417330.html?pos=29&kwd=baby fur blanket&tags=||||8778.123|Price|product|||TS|rsf:gd-|-stype:attr=1|qr_nm:gd|res:RC4|com-cf:nl|ptrs:na|ktp:N0|mc:45550|mtp:S|qry_typ:P|lang:en|wc:3|cs:8836|v=4,Oscar Overseas,https://www.oscar-india.com/?pos=29&kwd=baby fur blanket&tags=||||8778.123|Price|product|||TS|rsf:gd-|-stype:attr=1|qr_nm:gd|res:RC4|com-cf:nl|ptrs:na|ktp:N0|mc:45550|mtp:S|qry_typ:P|lang:en|wc:3|cs:8836|v=4,False,,Noida,"A-99 Sector 5, Noida - 201301, Dist.Gautam Budh Nagar, Uttar Pradesh",8046058290,
"little monkeys fur beding set, For Home, Solid",https://www.indiamart.com/proddetail/little-monkeys-fur-beding-set-2851497249091.html?pos=30&kwd=baby fur blanket&tags=||||8752.144|Price|product|||TS|rsf:gd-|-stype:attr=1|qr_nm:gd|res:RC4|com-cf:nl|ptrs:na|ktp:N0|mc:45550|mtp:S|qry_typ:P|lang:en|wc:3|cs:8836|v=4,Ekta Overseas,https://www.indiamart.com/ektaoverseas-newdelhi/?pos=30&kwd=baby fur blanket&tags=||||8752.144|Price|product|||TS|rsf:gd-|-stype:attr=1|qr_nm:gd|res:RC4|com-cf:nl|ptrs:na|ktp:N0|mc:45550|mtp:S|qry_typ:P|lang:en|wc:3|cs:8836|v=4,False,Shahdara,New Delhi,"1/95, Gali No.3, Near Navjeevan Phisical Center, Vishwas Nagar, Shahdara,, Shahdara, New Delhi - 110032, Dist.Delhi, Delhi",7942628926,
Baby Blanket,https://www.indiamart.com/proddetail/baby-blanket-7999283148.html?pos=31&kwd=baby fur blanket&tags=||||8747.203||product|||TS|rsf:gd-|-stype:attr=1|qr_nm:gd|res:RC4|com-cf:nl|ptrs:na|ktp:N0|mc:45550|mtp:S|qry_typ:P|lang:en|wc:3|cs:8836|v=4,Birmi International Private Limited,https://www.indiamart.com/birmi/?pos=31&kwd=baby fur blanket&tags=||||8747.203||product|||TS|rsf:gd-|-stype:attr=1|qr_nm:gd|res:RC4|com-cf:nl|ptrs:na|ktp:N0|mc:45550|mtp:S|qry_typ:P|lang:en|wc:3|cs:8836|v=4,False,Madlauda,Panipat,"Near Railway Station, Madlauda, Madlauda, Panipat - 132113, Dist.Panipat, Haryana",8047647448,
"Cloudy rgl Pink Baby Blanket, 0-3, Size: 40x60",https://www.indiamart.com/proddetail/baby-blanket-21313272662.html?pos=32&kwd=baby fur blanket&tags=||||8601.347|Price|product|||TS|rsf:gd-|-stype:attr=1|qr_nm:gd|res:RC4|com-cf:nl|ptrs:na|ktp:N0|mc:45550|mtp:S|qry_typ:P|lang:en|wc:3|cs:8836|v=4,R G L Textile Corporation,https://www.rgltextile.com/?pos=32&kwd=baby fur blanket&tags=||||8601.347|Price|product|||TS|rsf:gd-|-stype:attr=1|qr_nm:gd|res:RC4|com-cf:nl|ptrs:na|ktp:N0|mc:45550|mtp:S|qry_typ:P|lang:en|wc:3|cs:8836|v=4,False,Taneja Block,Jaipur,"House No 106/107, Taneja Block, Adarsh Nagar,, Taneja Block, Jaipur - 302004, Dist.Jaipur, Rajasthan",8047633164,
Uncle Benit 100% Cotton Baby Blanket,https://www.indiamart.com/proddetail/baby-blanket-21440903973.html?pos=33&kwd=baby fur blanket&tags=||||8661.854|Price|product|||TS|rsf:gd-|-stype:attr=1|qr_nm:gd|res:RC4|com-cf:nl|ptrs:na|ktp:N0|mc:45550|mtp:S|qry_typ:P|lang:en|wc:3|cs:8836|v=4,Uncle Benit Global Inc,https://www.indiamart.com/unclebenitglobal/?pos=33&kwd=baby fur blanket&tags=||||8661.854|Price|product|||TS|rsf:gd-|-stype:attr=1|qr_nm:gd|res:RC4|com-cf:nl|ptrs:na|ktp:N0|mc:45550|mtp:S|qry_typ:P|lang:en|wc:3|cs:8836|v=4,False,Mundian,Ludhiana,"Opposite Fortis Hospital, NH-95 Chandigarh Road, Mundian Khurd, Mundian, Ludhiana - 141110, Dist.Ludhiana, Punjab",8046075831,
"Multicolor Woolen Double Bed Mink Blankets, Size: Medium",https://www.indiamart.com/proddetail/woolen-double-bed-mink-blankets-23890317888.html?pos=34&kwd=baby fur blanket&tags=||||8747.203|Price|product|||TS|rsf:gd-|-stype:attr=1|qr_nm:gd|res:RC4|com-cf:nl|ptrs:na|ktp:N0|mc:45550|mtp:S|qry_typ:P|lang:en|wc:3|cs:8836|v=4,Om Handloom Industries,https://www.indiamart.com/omhandloomindustries/?pos=34&kwd=baby fur blanket&tags=||||8747.203|Price|product|||TS|rsf:gd-|-stype:attr=1|qr_nm:gd|res:RC4|com-cf:nl|ptrs:na|ktp:N0|mc:45550|mtp:S|qry_typ:P|lang:en|wc:3|cs:8836|v=4,False,Amar Bhawan Chowk Area,Panipat,"194/4, Near Hanuman Mandir, Ghati Purbian, Panipat Opp. Maharaja aggarsain kambal market, Pachranga Bazar, Amar Bhawan Chowk Area, Panipat - 132103, Dist.Panipat, Haryana",8043829211,
"Black Embossed Mink Blankets, Size: Singe",https://www.indiamart.com/proddetail/embossed-mink-blankets-26036385412.html?pos=35&kwd=baby fur blanket&tags=||||8747.203|Price|product|||TS|rsf:gd-|-stype:attr=1|qr_nm:gd|res:RC4|com-cf:nl|ptrs:na|ktp:N0|mc:45550|mtp:S|qry_typ:P|lang:en|wc:3|cs:8836|v=4,Archana Fabrics,https://www.archanafabrics.com/?pos=35&kwd=baby fur blanket&tags=||||8747.203|Price|product|||TS|rsf:gd-|-stype:attr=1|qr_nm:gd|res:RC4|com-cf:nl|ptrs:na|ktp:N0|mc:45550|mtp:S|qry_typ:P|lang:en|wc:3|cs:8836|v=4,False,Old Housing Board Colony,Panipat,"RK Puram Colony, Back Side Sugar Mill,, Old Housing Board Colony, Panipat - 132103, Dist.Panipat, Haryana",8043851138,
Rabbit Fur Blanket,https://www.indiamart.com/proddetail/rabbit-fur-blanket-2852987551191.html?pos=36&kwd=baby fur blanket&tags=||||8752.144|Price|product|||TS|rsf:gd-|-stype:attr=1|qr_nm:gd|res:RC4|com-cf:nl|ptrs:na|ktp:N0|mc:45550|mtp:S|qry_typ:P|lang:en|wc:3|cs:8836|v=4,Shivani Bed Cover,https://www.indiamart.com/shivanibedcover-delhi/?pos=36&kwd=baby fur blanket&tags=||||8752.144|Price|product|||TS|rsf:gd-|-stype:attr=1|qr_nm:gd|res:RC4|com-cf:nl|ptrs:na|ktp:N0|mc:45550|mtp:S|qry_typ:P|lang:en|wc:3|cs:8836|v=4,False,Kamla Nagar,New Delhi,"5164, Kohlapur Road, Kamla Nagar, Kamla Nagar, New Delhi - 110007, Dist.Delhi, Delhi",8047803363,
Velvet Mix Newborn Baby blanket,https://www.indiamart.com/proddetail/newborn-baby-blanket-27262907730.html?pos=37&kwd=baby fur blanket&tags=||||8954.051|Price|product|||TS|rsf:gd-|-stype:attr=1|qr_nm:gd|res:RC4|com-cf:nl|ptrs:na|ktp:N0|mc:45550|mtp:S|qry_typ:P|lang:en|wc:3|cs:8836|v=4,Sundar Garments,https://www.sundargarment.com/?pos=37&kwd=baby fur blanket&tags=||||8954.051|Price|product|||TS|rsf:gd-|-stype:attr=1|qr_nm:gd|res:RC4|com-cf:nl|ptrs:na|ktp:N0|mc:45550|mtp:S|qry_typ:P|lang:en|wc:3|cs:8836|v=4,False,Kondithop,Chennai,"No-9 Murugesan Street Near Kondithope Park, Kondithop, Chennai - 600079, Dist.Chennai, Tamil Nadu",8048266539,
"mix colors Fleece With Radium baby warm glowing blanket, Size: Singe",https://www.indiamart.com/proddetail/baby-warm-glowing-blanket-2854537909397.html?pos=38&kwd=baby fur blanket&tags=||||8211.142|Price|product|||TS|rsf:gd-|-stype:attr=1|qr_nm:gd|res:RC4|com-cf:nl|ptrs:na|ktp:N0|mc:45550|mtp:S|qry_typ:P|lang:en|wc:3|cs:8836|v=4,Parass Trading,https://www.indiamart.com/parasstrading/?pos=38&kwd=baby fur blanket&tags=||||8211.142|Price|product|||TS|rsf:gd-|-stype:attr=1|qr_nm:gd|res:RC4|com-cf:nl|ptrs:na|ktp:N0|mc:45550|mtp:S|qry_typ:P|lang:en|wc:3|cs:8836|v=4,False,Chembur,Mumbai,"Room no 3, First Floor, Plot no 39, Next to Shivaji Nagar police station,Kherwadi Plot no 39, Chembur, Mumbai - 400071, Dist.Mumbai, Maharashtra",8047631170,
"Cotton Baby Plain Blanket, 3 To 24 Months, Size: 30 X 40 Inch",https://www.indiamart.com/proddetail/baby-plain-blanket-23409013630.html?pos=39&kwd=baby fur blanket&tags=||||8706.263|Price|product|||TS|rsf:gd-|-stype:attr=1|qr_nm:gd|res:RC4|com-cf:nl|ptrs:na|ktp:N0|mc:45550|mtp:S|qry_typ:P|lang:en|wc:3|cs:8836|v=4,Sivam Export,https://www.indiamart.com/sivamexport-karur/?pos=39&kwd=baby fur blanket&tags=||||8706.263|Price|product|||TS|rsf:gd-|-stype:attr=1|qr_nm:gd|res:RC4|com-cf:nl|ptrs:na|ktp:N0|mc:45550|mtp:S|qry_typ:P|lang:en|wc:3|cs:8836|v=4,False,,Karur,"6/1 Thiru Nagar,3rd Street, Karur - 639002, Dist.Karur, Tamil Nadu",8046050918,
Velvet Hooded Baby Blanket,https://www.indiamart.com/proddetail/hooded-baby-blanket-2854569478991.html?pos=40&kwd=baby fur blanket&tags=||||8747.203|Price|product|||TS|rsf:gd-|-stype:attr=1|qr_nm:gd|res:RC4|com-cf:nl|ptrs:na|ktp:N0|mc:45550|mtp:S|qry_typ:P|lang:en|wc:3|cs:8836|v=4,Tulsi Handicraft,https://www.indiamart.com/tulsihandicraftpanipat/?pos=40&kwd=baby fur blanket&tags=||||8747.203|Price|product|||TS|rsf:gd-|-stype:attr=1|qr_nm:gd|res:RC4|com-cf:nl|ptrs:na|ktp:N0|mc:45550|mtp:S|qry_typ:P|lang:en|wc:3|cs:8836|v=4,False,Netaji Colony,Panipat,"10, Gangapuri Road, Netaji Colony, Panipat - 132103, Dist.Panipat, Haryana",7942837797,
"White Muslin Baby Blanket, Size: Double",https://www.indiamart.com/proddetail/muslin-baby-blanket-2852594380133.html?pos=41&kwd=baby fur blanket&tags=||||8954.051|Price|product|||TS|rsf:gd-|-stype:attr=1|qr_nm:gd|res:RC4|com-cf:nl|ptrs:na|ktp:N0|mc:45550|mtp:S|qry_typ:P|lang:en|wc:3|cs:8836|v=4,Tetra Clothing,https://www.tetraclothing.in/?pos=41&kwd=baby fur blanket&tags=||||8954.051|Price|product|||TS|rsf:gd-|-stype:attr=1|qr_nm:gd|res:RC4|com-cf:nl|ptrs:na|ktp:N0|mc:45550|mtp:S|qry_typ:P|lang:en|wc:3|cs:8836|v=4,True,Gopichettipalaiyam,Chennai,"No. 59/28, Balu Building, Gopichettipalaiyam, Chennai - 638476, Dist.Chennai, Tamil Nadu",8048957951,
Birthday Gift Blanket,https://www.indiamart.com/proddetail/birthday-gift-blanket-20976887862.html?pos=42&kwd=baby fur blanket&tags=||||8747.203|Price|product|||TS|rsf:gd-|-stype:attr=1|qr_nm:gd|res:RC4|com-cf:nl|ptrs:na|ktp:N0|mc:45550|mtp:S|qry_typ:P|lang:en|wc:3|cs:8836|v=4,Radhika Industries,https://www.indiamart.com/radhika-industries-panipat/?pos=42&kwd=baby fur blanket&tags=||||8747.203|Price|product|||TS|rsf:gd-|-stype:attr=1|qr_nm:gd|res:RC4|com-cf:nl|ptrs:na|ktp:N0|mc:45550|mtp:S|qry_typ:P|lang:en|wc:3|cs:8836|v=4,False,Model Town,Panipat,"No. 326- L, Model Town, Panipat - 132103, Dist.Panipat, Haryana",8046042935,
Printed Pink Hooded Baby Blanket,https://www.indiamart.com/proddetail/printed-pink-hooded-baby-blanket-2854158143433.html?pos=43&kwd=baby fur blanket&tags=||||8661.854|Price|product|||MDC|rsf:gd-|-stype:attr=1|qr_nm:gd|res:RC4|com-cf:nl|ptrs:na|ktp:N0|mc:45550|mtp:S|qry_typ:P|lang:en|wc:3|cs:8836|v=4,Sai Trading Company,https://www.indiamart.com/sai-tradingcompany-ludhiana/?pos=43&kwd=baby fur blanket&tags=||||8661.854|Price|product|||MDC|rsf:gd-|-stype:attr=1|qr_nm:gd|res:RC4|com-cf:nl|ptrs:na|ktp:N0|mc:45550|mtp:S|qry_typ:P|lang:en|wc:3|cs:8836|v=4,False,Chaura Bazar Area,Ludhiana,"Mochpura Bazar, No. 139 Block Viii, Rajesh Shawls, Chaura Bazar Area, Ludhiana - 141008, Dist.Ludhiana, Punjab",8045736579,
Baby Velvet Fur Dry Robes,https://www.indiamart.com/proddetail/baby-velvet-fur-dry-robes-11806440197.html?pos=44&kwd=baby fur blanket&tags=||||8211.142|Price|product|||TS|rsf:gd-|-stype:attr=1|qr_nm:gd|res:RC4|com-cf:nl|ptrs:na|ktp:N0|mc:45550|mtp:S|qry_typ:P|lang:en|wc:3|cs:8836|v=4,Dhrupti Creation,https://www.indiamart.com/littlecare/?pos=44&kwd=baby fur blanket&tags=||||8211.142|Price|product|||TS|rsf:gd-|-stype:attr=1|qr_nm:gd|res:RC4|com-cf:nl|ptrs:na|ktp:N0|mc:45550|mtp:S|qry_typ:P|lang:en|wc:3|cs:8836|v=4,False,Malad East,Mumbai,"Gala No. 3, Jignesh Diamond House, Near Vaishnavdevi Mandir, Subhash Lane, Malad East, Malad East, Mumbai - 400097, Dist.Mumbai, Maharashtra",8048970316,
"assorted Cartoon Baby Fleece Blanket, Size: Singe, 7-10 Year",https://www.indiamart.com/proddetail/baby-fleece-blanket-23028233833.html?pos=45&kwd=baby fur blanket&tags=||||8747.203|Price|product|||TS|rsf:gd-|-stype:attr=1|qr_nm:gd|res:RC4|com-cf:nl|ptrs:na|ktp:N0|mc:45550|mtp:S|qry_typ:P|lang:en|wc:3|cs:8836|v=4,Jessa Ram Khushi Ram,https://www.jessaramkhushiram.com/?pos=45&kwd=baby fur blanket&tags=||||8747.203|Price|product|||TS|rsf:gd-|-stype:attr=1|qr_nm:gd|res:RC4|com-cf:nl|ptrs:na|ktp:N0|mc:45550|mtp:S|qry_typ:P|lang:en|wc:3|cs:8836|v=4,False,Old Housing Board Colony,Panipat,"Gaba Building, Pachranga Bazar, Old Housing Board Colony, Panipat - 132103, Dist.Panipat, Haryana",8043864954,
Printed Baby Blanket,,RR Creations,https://www.rrcreation.co.in/?pos=46&kwd=baby fur blanket&tags=||||8601.347|Price|product|||TS|rsf:gd-|-stype:attr=1|qr_nm:gd|res:RC4|com-cf:nl|ptrs:na|ktp:N0|mc:45550|mtp:S|qry_typ:P|lang:en|wc:3|cs:8836|v=4,False,Raghunathgarh,Jaipur,"A7D, Raghunath Colony, Galta Gate, Raghunathgarh, Jaipur - 302003, Dist.Jaipur, Rajasthan",8047620731,
"Meenu's Manchesters White 100 percent premium cotton Swaddles, Size: Singe, New Born Babies",https://www.indiamart.com/proddetail/100-percent-premium-cotton-swaddles-2851565208891.html?pos=47&kwd=baby fur blanket&tags=||||8668.838|Price|product|||TS|rsf:gd-|-stype:attr=1|qr_nm:gd|res:RC4|com-cf:nl|ptrs:na|ktp:N0|mc:45550|mtp:S|qry_typ:P|lang:en|wc:3|cs:8836|v=4,Meenu's Manchesters,https://www.hotelbedsheet.in/?pos=47&kwd=baby fur blanket&tags=||||8668.838|Price|product|||TS|rsf:gd-|-stype:attr=1|qr_nm:gd|res:RC4|com-cf:nl|ptrs:na|ktp:N0|mc:45550|mtp:S|qry_typ:P|lang:en|wc:3|cs:8836|v=4,False,Edayankattuvalsu,Erode,"26, Nggo Colony, 1, Edayankattuvalsu, Erode - 638009, Dist.Erode, Tamil Nadu",8048609221,
Purple Apple Printed Baby Sleeping Bag,https://www.indiamart.com/proddetail/purple-apple-printed-baby-sleeping-bag-2853733785991.html?pos=48&kwd=baby fur blanket&tags=||||8230.883|Price|product|||TS|rsf:gd-|-stype:attr=1|qr_nm:gd|res:RC4|com-cf:nl|ptrs:na|ktp:N0|mc:45550|mtp:S|qry_typ:P|lang:en|wc:3|cs:8836|v=4,Concept Enterprise,https://www.cartforbaby.com/?pos=48&kwd=baby fur blanket&tags=||||8230.883|Price|product|||TS|rsf:gd-|-stype:attr=1|qr_nm:gd|res:RC4|com-cf:nl|ptrs:na|ktp:N0|mc:45550|mtp:S|qry_typ:P|lang:en|wc:3|cs:8836|v=4,False,Dabholi,Surat,"17, Bhumi Park Society, Near Dabholi Road, Katargam, Dabholi, Surat - 395004, Dist.Surat, Gujarat",8047546659,
"Voile Multicolor Manufacturer of Handblock Printed Baby Quilts, Size: 40""x60""/60""x90""",https://www.indiamart.com/proddetail/manufacturer-of-handblock-printed-baby-quilts-2850761678862.html?pos=49&kwd=baby fur blanket&tags=||||8601.347|Price|product|||TS|rsf:gd-|-stype:attr=1|qr_nm:gd|res:RC4|com-cf:nl|ptrs:na|ktp:N0|mc:45550|mtp:S|qry_typ:P|lang:en|wc:3|cs:8836|v=4,Indus Art And Emporium,https://www.indusart.in/?pos=49&kwd=baby fur blanket&tags=||||8601.347|Price|product|||TS|rsf:gd-|-stype:attr=1|qr_nm:gd|res:RC4|com-cf:nl|ptrs:na|ktp:N0|mc:45550|mtp:S|qry_typ:P|lang:en|wc:3|cs:8836|v=4,True,Mansarovar,Jaipur,"H/3, First Floor, RIICO Industrial Area, Mansarovar, Jaipur - 302020, Dist.Jaipur, Rajasthan",8048956816,
White Size: Single 3 layered 100% cotton muslin baby blanket,https://www.indiamart.com/proddetail/3-layered-100-cotton-muslin-baby-blanket-2854613184112.html?pos=50&kwd=baby fur blanket&tags=||||8211.142|Price|product|||TS|rsf:gd-|-stype:attr=1|qr_nm:gd|res:RC4|com-cf:nl|ptrs:na|ktp:N0|mc:45550|mtp:S|qry_typ:P|lang:en|wc:3|cs:8836|v=4,Sidhshlok Enterprises,https://www.indiamart.com/sidhshlokenterprises/?pos=50&kwd=baby fur blanket&tags=||||8211.142|Price|product|||TS|rsf:gd-|-stype:attr=1|qr_nm:gd|res:RC4|com-cf:nl|ptrs:na|ktp:N0|mc:45550|mtp:S|qry_typ:P|lang:en|wc:3|cs:8836|v=4,False,Mulund West,Mumbai,"A-9, Chagpar Khimaji, R R T Road, Mumbai Suburban, Mulund West, Mumbai - 400080, Dist.Mumbai, Maharashtra",7942832648,
"Cotton Multicolor Baby Soft Flannel Blankets set, Size/Dimension: Large, 750 Gm",https://www.indiamart.com/proddetail/baby-soft-flannel-blankets-set-22496604473.html?pos=51&kwd=baby fur blanket&tags=||||8307.81|Price|product|||TS|rsf:gd-|-stype:attr=1|qr_nm:gd|res:RC4|com-cf:nl|ptrs:na|ktp:N0|mc:45550|mtp:S|qry_typ:P|lang:en|wc:3|cs:8836|v=4,Lazytoddler Solutions Private Limited,https://www.indiamart.com/lazytoddler-solutions/?pos=51&kwd=baby fur blanket&tags=||||8307.81|Price|product|||TS|rsf:gd-|-stype:attr=1|qr_nm:gd|res:RC4|com-cf:nl|ptrs:na|ktp:N0|mc:45550|mtp:S|qry_typ:P|lang:en|wc:3|cs:8836|v=4,False,Wakad,Pune,"A2-1001, Fl-A1, Behind Madhuban Hotel, S.No-40, Armada Parkhe Wasti, Wakad, Wakad, Pune - 411057, Dist.Pune, Maharashtra",8043819563,
Hooded Baby Blanket,https://www.indiamart.com/proddetail/hooded-baby-blanket-2852379491662.html?pos=52&kwd=baby fur blanket&tags=||||8211.142|Price|product|||TS|rsf:gd-|-stype:attr=1|qr_nm:gd|res:RC4|com-cf:nl|ptrs:na|ktp:N0|mc:45550|mtp:S|qry_typ:P|lang:en|wc:3|cs:8836|v=4,P For Panda Baby Products Private Limited,https://www.p4pandababyproducts.com/?pos=52&kwd=baby fur blanket&tags=||||8211.142|Price|product|||TS|rsf:gd-|-stype:attr=1|qr_nm:gd|res:RC4|com-cf:nl|ptrs:na|ktp:N0|mc:45550|mtp:S|qry_typ:P|lang:en|wc:3|cs:8836|v=4,False,Goregaon West,Mumbai,"904 A Wing,9 Th Floor,Triple S Heights,Jakeria Road, Goregaon West, Mumbai - 400064, Dist.Mumbai, Maharashtra",7942710871,
Baby Fur Blanket,https://www.indiamart.com/proddetail/baby-fur-blanket-14971875962.html?pos=56&kwd=baby fur blanket&tags=CA||||8752.144|Price|product|||NA|rsf:gd-|-stype:attr=1|qr_nm:gd|res:RC4|com-cf:nl|ptrs:na|ktp:N0|mc:45550|mtp:S|qry_typ:P|lang:en|wc:3|cs:8836|v=4,Manan Traders,https://www.indiamart.com/manantraders/?pos=56&kwd=baby fur blanket&tags=CA||||8752.144|Price|product|||NA|rsf:gd-|-stype:attr=1|qr_nm:gd|res:RC4|com-cf:nl|ptrs:na|ktp:N0|mc:45550|mtp:S|qry_typ:P|lang:en|wc:3|cs:8836|v=4,False,Gandhi Nagar,New Delhi,"X660, Street No. 6, Raghubar Pura No. 1, Gandhi Nagar, New Delhi - 110031, Dist.Delhi, Delhi",8047839962,
White (Base) Cotton Muslin Swaddle Blanket,https://www.indiamart.com/proddetail/cotton-muslin-swaddle-blanket-23904997948.html?pos=54&kwd=baby fur blanket&tags=||||8231.259|Price|product|||MDC|rsf:gd-|-stype:attr=1|qr_nm:gd|res:RC4|com-cf:nl|ptrs:na|ktp:N0|mc:45550|mtp:S|qry_typ:P|lang:en|wc:3|cs:8836|v=4,Hemp Ecotex,https://www.indiamart.com/hempecotex/?pos=54&kwd=baby fur blanket&tags=||||8231.259|Price|product|||MDC|rsf:gd-|-stype:attr=1|qr_nm:gd|res:RC4|com-cf:nl|ptrs:na|ktp:N0|mc:45550|mtp:S|qry_typ:P|lang:en|wc:3|cs:8836|v=4,False,Val,Bhiwandi,"1st Floor, H. No 1661/12 Gala No 106, BL-K, Dharam Complex, Phase-I, Rahnal Village, Val, Bhiwandi - 421302, Maharashtra",7949092530,
"Cloth Orange Baby Carry Bag, Age Group: 1-2 Years, Packaging Type: Transparent",https://www.indiamart.com/proddetail/baby-carry-bag-2851743097562.html?pos=55&kwd=baby fur blanket&tags=||||8783.355|Price|product|||MDC|rsf:gd-|-stype:attr=1|qr_nm:gd|res:RC4|com-cf:nl|ptrs:na|ktp:N0|mc:45550|mtp:S|qry_typ:P|lang:en|wc:3|cs:8836|v=4,Om Shiv International,https://www.indiamart.com/omshivinternational/?pos=55&kwd=baby fur blanket&tags=||||8783.355|Price|product|||MDC|rsf:gd-|-stype:attr=1|qr_nm:gd|res:RC4|com-cf:nl|ptrs:na|ktp:N0|mc:45550|mtp:S|qry_typ:P|lang:en|wc:3|cs:8836|v=4,False,Baghpat,Aminagar Sarai,"170, Gauspur, Baghpat, Baghpat, Aminagar Sarai - 250606, Dist.Bagpat, Uttar Pradesh",8048616452,
Baby Fur Blanket,https://www.indiamart.com/proddetail/baby-fur-blanket-14971875962.html?pos=56&kwd=baby fur blanket&tags=CA||||8752.144|Price|product|||NA|rsf:gd-|-stype:attr=1|qr_nm:gd|res:RC4|com-cf:nl|ptrs:na|ktp:N0|mc:45550|mtp:S|qry_typ:P|lang:en|wc:3|cs:8836|v=4,Manan Traders,https://www.indiamart.com/manantraders/?pos=56&kwd=baby fur blanket&tags=CA||||8752.144|Price|product|||NA|rsf:gd-|-stype:attr=1|qr_nm:gd|res:RC4|com-cf:nl|ptrs:na|ktp:N0|mc:45550|mtp:S|qry_typ:P|lang:en|wc:3|cs:8836|v=4,False,Gandhi Nagar,New Delhi,"X660, Street No. 6, Raghubar Pura No. 1, Gandhi Nagar, New Delhi - 110031, Dist.Delhi, Delhi",8047839962,
"Mercury Printed New Born Baby 100% Cotton Soft Hooded Baby Blanket, 0- 12 Months",https://www.indiamart.com/proddetail/new-born-baby-100-cotton-soft-hooded-baby-blanket-22290033655.html?pos=57&kwd=baby fur blanket&tags=||||8706.263|Price|product|||TS|rsf:gd-|-stype:attr=1|qr_nm:gd|res:RC4|com-cf:nl|ptrs:na|ktp:N0|mc:45550|mtp:S|qry_typ:P|lang:en|wc:3|cs:8836|v=4,Mercury Weavers,https://www.indiamart.com/mercuryweavers/?pos=57&kwd=baby fur blanket&tags=||||8706.263|Price|product|||TS|rsf:gd-|-stype:attr=1|qr_nm:gd|res:RC4|com-cf:nl|ptrs:na|ktp:N0|mc:45550|mtp:S|qry_typ:P|lang:en|wc:3|cs:8836|v=4,False,Gowripuram,Karur,"35/3, 2nd Floor, Gandhi Nagar 3rd Cross, Karur Town, Gowripuram, Karur - 639001, Dist.Karur, Tamil Nadu",8047641180,
Baby Blanket Manufactures,https://www.indiamart.com/proddetail/baby-blanket-manufactures-2854173527491.html?pos=58&kwd=baby fur blanket&tags=||||8747.203||product|||TS|rsf:gd-|-stype:attr=1|qr_nm:gd|res:RC4|com-cf:nl|ptrs:na|ktp:N0|mc:45550|mtp:S|qry_typ:P|lang:en|wc:3|cs:8836|v=4,Krishna Texo Fab,https://www.indiamart.com/krishna-texo-fab/?pos=58&kwd=baby fur blanket&tags=||||8747.203||product|||TS|rsf:gd-|-stype:attr=1|qr_nm:gd|res:RC4|com-cf:nl|ptrs:na|ktp:N0|mc:45550|mtp:S|qry_typ:P|lang:en|wc:3|cs:8836|v=4,False,Old Housing Board Colony,Panipat,"1091/3 Pachranga Bazar, Old Housing Board Colony, Panipat - 132103, Dist.Panipat, Haryana",8048960024,
Velvet Hooded Baby Blanket,https://www.indiamart.com/proddetail/hooded-baby-blanket-2854569478991.html?pos=59&kwd=baby fur blanket&tags=||||8747.203|Price|product|||TS|rsf:gd-|-stype:attr=1|qr_nm:gd|res:RC4|com-cf:nl|ptrs:na|ktp:N0|mc:45550|mtp:S|qry_typ:P|lang:en|wc:3|cs:8836|v=4,Tulsi Handicraft,https://www.indiamart.com/tulsihandicraftpanipat/?pos=59&kwd=baby fur blanket&tags=||||8747.203|Price|product|||TS|rsf:gd-|-stype:attr=1|qr_nm:gd|res:RC4|com-cf:nl|ptrs:na|ktp:N0|mc:45550|mtp:S|qry_typ:P|lang:en|wc:3|cs:8836|v=4,False,Netaji Colony,Panipat,"10, Gangapuri Road, Netaji Colony, Panipat - 132103, Dist.Panipat, Haryana",7942837797,
Cotton White base printed Hooded Baby Blanket,https://www.indiamart.com/proddetail/hooded-baby-blanket-2851209756255.html?pos=60&kwd=baby fur blanket&tags=||||8668.838|Price|product|||TS|rsf:gd-|-stype:attr=1|qr_nm:gd|res:RC4|com-cf:nl|ptrs:na|ktp:N0|mc:45550|mtp:S|qry_typ:P|lang:en|wc:3|cs:8836|v=4,Ram Textiles,https://www.indiamart.com/ram-textiles/?pos=60&kwd=baby fur blanket&tags=||||8668.838|Price|product|||TS|rsf:gd-|-stype:attr=1|qr_nm:gd|res:RC4|com-cf:nl|ptrs:na|ktp:N0|mc:45550|mtp:S|qry_typ:P|lang:en|wc:3|cs:8836|v=4,False,Veerappanchatram,Erode,"No. 131, M. G. R. Street-1, Veerappanchatram, Veerappanchatram, Erode - 638004, Dist.Erode, Tamil Nadu",8048611846,
"Pink Cotton Baby Sleeping bag, 3-12 Months",https://www.indiamart.com/proddetail/baby-sleeping-bag-2851102122262.html?pos=61&kwd=baby fur blanket&tags=||||8752.144|Price|product|||TS|rsf:gd-|-stype:attr=1|qr_nm:gd|res:RC4|com-cf:nl|ptrs:na|ktp:N0|mc:45550|mtp:S|qry_typ:P|lang:en|wc:3|cs:8836|v=4,National Overseas,https://www.indiamart.com/nationaltraders-vishwashnagar/?pos=61&kwd=baby fur blanket&tags=||||8752.144|Price|product|||TS|rsf:gd-|-stype:attr=1|qr_nm:gd|res:RC4|com-cf:nl|ptrs:na|ktp:N0|mc:45550|mtp:S|qry_typ:P|lang:en|wc:3|cs:8836|v=4,False,Shahdara,New Delhi,"1/99, Gali No. 3, Vishwas Nagar, Shahdara, New Delhi - 110032, Dist.Delhi, Delhi",8046047673,
White Plain Muslin Swaddle Blankets,https://www.indiamart.com/proddetail/muslin-swaddle-blankets-2854117916091.html?pos=62&kwd=baby fur blanket&tags=||||8706.263|Price|product|||TS|rsf:gd-|-stype:attr=1|qr_nm:gd|res:RC4|com-cf:nl|ptrs:na|ktp:N0|mc:45550|mtp:S|qry_typ:P|lang:en|wc:3|cs:8836|v=4,P.R.Cottons,https://www.indiamart.com/prcottons/?pos=62&kwd=baby fur blanket&tags=||||8706.263|Price|product|||TS|rsf:gd-|-stype:attr=1|qr_nm:gd|res:RC4|com-cf:nl|ptrs:na|ktp:N0|mc:45550|mtp:S|qry_typ:P|lang:en|wc:3|cs:8836|v=4,True,Near,Karur,"Ground Floor Room No.1, Door No.79/1, Vaiyapurinagar Ist Cross, Near, Karur - 639002, Dist.Karur, Tamil Nadu",8048608767,
Cotton Multicolor Hand Block Baby Blanket,https://www.indiamart.com/proddetail/hand-block-baby-blanket-26438743348.html?pos=63&kwd=baby fur blanket&tags=||||8601.347|Price|product|||TS|rsf:gd-|-stype:attr=1|qr_nm:gd|res:RC4|com-cf:nl|ptrs:na|ktp:N0|mc:45550|mtp:S|qry_typ:P|lang:en|wc:3|cs:8836|v=4,Veer Handircrafts,https://www.veerhandicrafts.com/?pos=63&kwd=baby fur blanket&tags=||||8601.347|Price|product|||TS|rsf:gd-|-stype:attr=1|qr_nm:gd|res:RC4|com-cf:nl|ptrs:na|ktp:N0|mc:45550|mtp:S|qry_typ:P|lang:en|wc:3|cs:8836|v=4,True,Shyam Nagar,Jaipur,"Basement, 192/331, Sector 19, Kumbha Marg, Shyam Nagar, Jaipur - 302029, Dist.Jaipur, Rajasthan",8043851762,
"Pink Cotton Baby sleeping bag, Packaging Type: Plastic cover, Newly Born",https://www.indiamart.com/proddetail/baby-sleeping-bag-2849605699691.html?pos=64&kwd=baby fur blanket&tags=||||8954.051|Price|product|||MDC|rsf:gd-|-stype:attr=1|qr_nm:gd|res:RC4|com-cf:nl|ptrs:na|ktp:N0|mc:45550|mtp:S|qry_typ:P|lang:en|wc:3|cs:8836|v=4,Adhoniyah,https://www.indiamart.com/adhoniyah/?pos=64&kwd=baby fur blanket&tags=||||8954.051|Price|product|||MDC|rsf:gd-|-stype:attr=1|qr_nm:gd|res:RC4|com-cf:nl|ptrs:na|ktp:N0|mc:45550|mtp:S|qry_typ:P|lang:en|wc:3|cs:8836|v=4,False,Jamalia,Chennai,"Ground Floor,5/4,Strahans Road I St Street,Otteri, Jamalia, Chennai - 600012, Dist.Chennai, Tamil Nadu",8048274134,
Printed Baby Fleece Blanket,https://www.indiamart.com/proddetail/printed-baby-fleece-blanket-26110388462.html?pos=65&kwd=baby fur blanket&tags=||||8661.854|Price|product|||TS|rsf:gd-|-stype:attr=1|qr_nm:gd|res:RC4|com-cf:nl|ptrs:na|ktp:N0|mc:45550|mtp:S|qry_typ:P|lang:en|wc:3|cs:8836|v=4,J.S Ahuja Hosiery Works,https://www.indiamart.com/jsahujahosieryworks/?pos=65&kwd=baby fur blanket&tags=||||8661.854|Price|product|||TS|rsf:gd-|-stype:attr=1|qr_nm:gd|res:RC4|com-cf:nl|ptrs:na|ktp:N0|mc:45550|mtp:S|qry_typ:P|lang:en|wc:3|cs:8836|v=4,False,Sector 39-A,Ludhiana,"B-XXX-3983, St. No.2, Hargobind Pura, Near Samrala Chowk, Sector 39-A, Ludhiana - 141008, Dist.Ludhiana, Punjab",8043859618,
Hooded Baby Blanket,https://www.indiamart.com/proddetail/hooded-baby-blanket-2852379491662.html?pos=66&kwd=baby fur blanket&tags=||||8211.142|Price|product|||TS|rsf:gd-|-stype:attr=1|qr_nm:gd|res:RC4|com-cf:nl|ptrs:na|ktp:N0|mc:45550|mtp:S|qry_typ:P|lang:en|wc:3|cs:8836|v=4,P For Panda Baby Products Private Limited,https://www.p4pandababyproducts.com/?pos=66&kwd=baby fur blanket&tags=||||8211.142|Price|product|||TS|rsf:gd-|-stype:attr=1|qr_nm:gd|res:RC4|com-cf:nl|ptrs:na|ktp:N0|mc:45550|mtp:S|qry_typ:P|lang:en|wc:3|cs:8836|v=4,False,Goregaon West,Mumbai,"904 A Wing,9 Th Floor,Triple S Heights,Jakeria Road, Goregaon West, Mumbai - 400064, Dist.Mumbai, Maharashtra",7942710871,
Polyester Size: Single Baby Blanket,https://www.indiamart.com/proddetail/baby-blanket-2854864899273.html?pos=67&kwd=baby fur blanket&tags=||||8747.203||product|||TS|rsf:gd-|-stype:attr=1|qr_nm:gd|res:RC4|com-cf:nl|ptrs:na|ktp:N0|mc:45550|mtp:S|qry_typ:P|lang:en|wc:3|cs:8836|v=4,Arihant Handloom Industries,https://www.indiamart.com/arihant-handloom-industries/?pos=67&kwd=baby fur blanket&tags=||||8747.203||product|||TS|rsf:gd-|-stype:attr=1|qr_nm:gd|res:RC4|com-cf:nl|ptrs:na|ktp:N0|mc:45550|mtp:S|qry_typ:P|lang:en|wc:3|cs:8836|v=4,False,Old Housing Board Colony,Panipat,"Opposite R.K. Public School,Chawla Colony, Kutani Road,Panipat, Old Housing Board Colony, Panipat - 132103, Dist.Panipat, Haryana",7942784484,
Woolen Multicolor Baby Hooded Blanket,https://www.indiamart.com/proddetail/baby-hooded-blanket-26925623055.html?pos=68&kwd=baby fur blanket&tags=||||8747.203|Price|product|||TS|rsf:gd-|-stype:attr=1|qr_nm:gd|res:RC4|com-cf:nl|ptrs:na|ktp:N0|mc:45550|mtp:S|qry_typ:P|lang:en|wc:3|cs:8836|v=4,Pavitra Textile,https://www.pavitratextile.com/?pos=68&kwd=baby fur blanket&tags=||||8747.203|Price|product|||TS|rsf:gd-|-stype:attr=1|qr_nm:gd|res:RC4|com-cf:nl|ptrs:na|ktp:N0|mc:45550|mtp:S|qry_typ:P|lang:en|wc:3|cs:8836|v=4,False,Panipat N.S.M.,Panipat,"1560/10, Sanoli Road Pujara Sweets, Panipat N.S.M., Panipat - 132103, Dist.Panipat, Haryana",8047655734,
Velvet Size: Double Baby Blankets,https://www.indiamart.com/proddetail/baby-blankets-2854715411062.html?pos=69&kwd=baby fur blanket&tags=||||8661.854|Price|product|||MDC|rsf:gd-|-stype:attr=1|qr_nm:gd|res:RC4|com-cf:nl|ptrs:na|ktp:N0|mc:45550|mtp:S|qry_typ:P|lang:en|wc:3|cs:8836|v=4,Universal Traders,https://www.indiamart.com/universaltraderspunjab/?pos=69&kwd=baby fur blanket&tags=||||8661.854|Price|product|||MDC|rsf:gd-|-stype:attr=1|qr_nm:gd|res:RC4|com-cf:nl|ptrs:na|ktp:N0|mc:45550|mtp:S|qry_typ:P|lang:en|wc:3|cs:8836|v=4,False,Iqbal Ganj,Ludhiana,"B-X- 435, Telian Street, Near Iqbal Ganj Chowk, Iqbal Ganj, Ludhiana - 141008, Dist.Ludhiana, Punjab",8045731865,
Flannel Baby Blankets,https://www.indiamart.com/proddetail/flannel-baby-blankets-2358651973.html?pos=70&kwd=baby fur blanket&tags=||||8559.269|Price|product|||TS|rsf:gd-|-stype:attr=1|qr_nm:gd|res:RC4|com-cf:nl|ptrs:na|ktp:N0|mc:45550|mtp:S|qry_typ:P|lang:en|wc:3|cs:8836|v=4,Central India Fabrics,https://www.centralindiafabrics.net/?pos=70&kwd=baby fur blanket&tags=||||8559.269|Price|product|||TS|rsf:gd-|-stype:attr=1|qr_nm:gd|res:RC4|com-cf:nl|ptrs:na|ktp:N0|mc:45550|mtp:S|qry_typ:P|lang:en|wc:3|cs:8836|v=4,True,Avantika Nagar,Indore,"2/A/C, Sector D, Sanwer Road Opposite Bandganga Police Station, Avantika Nagar, Indore - 452015, Dist.Indore, Madhya Pradesh",8048965370,
"Mix Cotton Blankets For Kids, Size: Singe",https://www.indiamart.com/proddetail/blankets-for-kids-2851925676355.html?pos=71&kwd=baby fur blanket&tags=||||8747.203|Price|product|||TS|rsf:gd-|-stype:attr=1|qr_nm:gd|res:RC4|com-cf:nl|ptrs:na|ktp:N0|mc:45550|mtp:S|qry_typ:P|lang:en|wc:3|cs:8836|v=4,Vardan Home Furnishings,https://www.vardanhomefurnishings.com/?pos=71&kwd=baby fur blanket&tags=||||8747.203|Price|product|||TS|rsf:gd-|-stype:attr=1|qr_nm:gd|res:RC4|com-cf:nl|ptrs:na|ktp:N0|mc:45550|mtp:S|qry_typ:P|lang:en|wc:3|cs:8836|v=4,False,Chowk,Panipat,"Pehlwan Chowk, Vardan Home Furnishings, Kutani Road, Chowk, Panipat - 132103, Dist.Panipat, Haryana",7942957417,
Multicolor Baby Comforter,https://www.indiamart.com/proddetail/baby-comforter-2854456693933.html?pos=72&kwd=baby fur blanket&tags=||||8747.203|Price|product|||TS|rsf:gd-|-stype:attr=1|qr_nm:gd|res:RC4|com-cf:nl|ptrs:na|ktp:N0|mc:45550|mtp:S|qry_typ:P|lang:en|wc:3|cs:8836|v=4,Pawansut Enterprises,https://www.indiamart.com/pawansutenterprises-panipat/?pos=72&kwd=baby fur blanket&tags=||||8747.203|Price|product|||TS|rsf:gd-|-stype:attr=1|qr_nm:gd|res:RC4|com-cf:nl|ptrs:na|ktp:N0|mc:45550|mtp:S|qry_typ:P|lang:en|wc:3|cs:8836|v=4,False,Netaji Colony,Panipat,"179 Virat Nagar,,Model Town,Panipat, Netaji Colony, Panipat - 132103, Dist.Panipat, Haryana",7942956898,
Baby Pillow Cum Blanket,https://www.indiamart.com/proddetail/baby-pillow-cum-blanket-2854338251788.html?pos=73&kwd=baby fur blanket&tags=||||8747.203|Price|product|||MDC|rsf:gd-|-stype:attr=1|qr_nm:gd|res:RC4|com-cf:nl|ptrs:na|ktp:N0|mc:45550|mtp:S|qry_typ:P|lang:en|wc:3|cs:8836|v=4,Sabmix,https://www.indiamart.com/sabmix/?pos=73&kwd=baby fur blanket&tags=||||8747.203|Price|product|||MDC|rsf:gd-|-stype:attr=1|qr_nm:gd|res:RC4|com-cf:nl|ptrs:na|ktp:N0|mc:45550|mtp:S|qry_typ:P|lang:en|wc:3|cs:8836|v=4,False,Jattal,Panipat,"Nehar By-Pass Near Jattal Road, Near Deshwal Petrol Pump, Jattal, Panipat - 132103, Dist.Panipat, Haryana",8045165458,
"Red Mink Blanket, Size: Singe",https://www.indiamart.com/proddetail/red-mink-blanket-2850711303230.html?pos=74&kwd=baby fur blanket&tags=||||8747.203|Price|product|||MDC|rsf:gd-|-stype:attr=1|qr_nm:gd|res:RC4|com-cf:nl|ptrs:na|ktp:N0|mc:45550|mtp:S|qry_typ:P|lang:en|wc:3|cs:8836|v=4,Veer Tex India,https://www.indiamart.com/veer-tex-india/?pos=74&kwd=baby fur blanket&tags=||||8747.203|Price|product|||MDC|rsf:gd-|-stype:attr=1|qr_nm:gd|res:RC4|com-cf:nl|ptrs:na|ktp:N0|mc:45550|mtp:S|qry_typ:P|lang:en|wc:3|cs:8836|v=4,False,Manmohan Nagar,Panipat,"Veer Tex India, Babail Road, Tej Vihar Colony,, Manmohan Nagar, Panipat - 132103, Dist.Panipat, Haryana",8047304238,
"Cotton Multicolor baby godri / new born baby razai / baby quilt / bedding for cot, Single Bed, Printed",https://www.indiamart.com/proddetail/new-born-baby-blanket-baby-quilt-bedding-for-cot-baby-godri-2853243927388.html?pos=75&kwd=baby fur blanket&tags=||||8559.269|Price|product|||MDC|rsf:gd-|-stype:attr=1|qr_nm:gd|res:RC4|com-cf:nl|ptrs:na|ktp:N0|mc:45550|mtp:S|qry_typ:P|lang:en|wc:3|cs:8836|v=4,Sheza Enterprises,https://www.indiamart.com/shezaenterprises/?pos=75&kwd=baby fur blanket&tags=||||8559.269|Price|product|||MDC|rsf:gd-|-stype:attr=1|qr_nm:gd|res:RC4|com-cf:nl|ptrs:na|ktp:N0|mc:45550|mtp:S|qry_typ:P|lang:en|wc:3|cs:8836|v=4,False,,Indore,"Alif House, 5, Khajrana Main Road, Opposite HP Petrol Pump,, Indore - 452001, Dist.Indore, Madhya Pradesh",7948547068,
Printed Newborn Infant Baby Swaddle Blanket Sleeping Swaddle With Bag,https://www.indiamart.com/proddetail/newborn-infant-baby-swaddle-blanket-sleeping-swaddle-with-bag-23761603991.html?pos=76&kwd=baby fur blanket&tags=||||8601.347|Price|product|||TS|rsf:gd-|-stype:attr=1|qr_nm:gd|res:RC4|com-cf:nl|ptrs:na|ktp:N0|mc:45550|mtp:S|qry_typ:P|lang:en|wc:3|cs:8836|v=4,Gopali Arts,https://www.gopaliarts.in/?pos=76&kwd=baby fur blanket&tags=||||8601.347|Price|product|||TS|rsf:gd-|-stype:attr=1|qr_nm:gd|res:RC4|com-cf:nl|ptrs:na|ktp:N0|mc:45550|mtp:S|qry_typ:P|lang:en|wc:3|cs:8836|v=4,False,G1-652 Sitapura Phase-1,Jaipur,"G1-652, Sitapura Phase-1, G1-652 Sitapura Phase-1, Jaipur - 302022, Dist.Jaipur, Rajasthan",8048264082,
"Micro Kids Print Dohar, Size: Double",https://www.indiamart.com/proddetail/micro-kids-print-dohar-22208088455.html?pos=77&kwd=baby fur blanket&tags=||||8601.347|Price|product|||TS|rsf:gd-|-stype:attr=1|qr_nm:gd|res:RC4|com-cf:nl|ptrs:na|ktp:N0|mc:45550|mtp:S|qry_typ:P|lang:en|wc:3|cs:8836|v=4,Vicky Garments,https://www.hotellinenmanufacturer.com/?pos=77&kwd=baby fur blanket&tags=||||8601.347|Price|product|||TS|rsf:gd-|-stype:attr=1|qr_nm:gd|res:RC4|com-cf:nl|ptrs:na|ktp:N0|mc:45550|mtp:S|qry_typ:P|lang:en|wc:3|cs:8836|v=4,False,Jhotwara,Jaipur,"No. 82, Ganga Vihar Colony, Nagal Jaisa Bohra Dadi Ka Phatak, Jhotwara, Jaipur - 302012, Dist.Jaipur, Rajasthan",8046042378,
"Multicolor Soft Mink Blankets, Size: Double",https://www.indiamart.com/proddetail/soft-mink-blankets-2851214944848.html?pos=78&kwd=baby fur blanket&tags=||||8747.203|Price|product|||TS|rsf:gd-|-stype:attr=1|qr_nm:gd|res:RC4|com-cf:nl|ptrs:na|ktp:N0|mc:45550|mtp:S|qry_typ:P|lang:en|wc:3|cs:8836|v=4,Garg Textile Inds,https://www.indiamart.com/garg-textile-inds/?pos=78&kwd=baby fur blanket&tags=||||8747.203|Price|product|||TS|rsf:gd-|-stype:attr=1|qr_nm:gd|res:RC4|com-cf:nl|ptrs:na|ktp:N0|mc:45550|mtp:S|qry_typ:P|lang:en|wc:3|cs:8836|v=4,False,Desraj Colony,Panipat,"Behind Rajeev Colony, Deshraj Colony, Desraj Colony, Panipat - 132103, Dist.Panipat, Haryana",7942833640,
"Multicolor Mink Fur Cloudy Embossed Kids Blankets, Size: 95 X115 cm",https://www.indiamart.com/proddetail/cloudy-embossed-kids-blankets-23744378488.html?pos=79&kwd=baby fur blanket&tags=||||8228.275|Price|product|||TS|rsf:gd-|-stype:attr=1|qr_nm:gd|res:RC4|com-cf:nl|ptrs:na|ktp:N0|mc:45550|mtp:S|qry_typ:P|lang:en|wc:3|cs:8836|v=4,King Enterprise,https://www.kingenterpriseindia.com/?pos=79&kwd=baby fur blanket&tags=||||8228.275|Price|product|||TS|rsf:gd-|-stype:attr=1|qr_nm:gd|res:RC4|com-cf:nl|ptrs:na|ktp:N0|mc:45550|mtp:S|qry_typ:P|lang:en|wc:3|cs:8836|v=4,False,Opp. Haripura Bus Stand,Ahmedabad,"Block- E 28, Ground Floor, Abhishek Estate-1, Opp. Haripura Bus Stand, Ahmedabad - 380016, Dist.Ahmedabad, Gujarat",8047632934,
"Cartoon Baby Hooded Blanket, Size: Singe, 0-2",https://www.indiamart.com/proddetail/baby-hooded-blanket-2851789151030.html?pos=80&kwd=baby fur blanket&tags=||||8661.854||product|||TS|rsf:gd-|-stype:attr=1|qr_nm:gd|res:RC4|com-cf:nl|ptrs:na|ktp:N0|mc:45550|mtp:S|qry_typ:P|lang:en|wc:3|cs:8836|v=4,A K Davinder Hosiery,https://www.nnhgroups.com/?pos=80&kwd=baby fur blanket&tags=||||8661.854||product|||TS|rsf:gd-|-stype:attr=1|qr_nm:gd|res:RC4|com-cf:nl|ptrs:na|ktp:N0|mc:45550|mtp:S|qry_typ:P|lang:en|wc:3|cs:8836|v=4,False,Madhopuri,Ludhiana,"873, Tilak Nagar, (Ganji Chhapri), Madhopuri, Ludhiana - 141008, Dist.Ludhiana, Punjab",8048607076,
"Cotton Pink Flannel Baby Blanket, Size: Singe",https://www.indiamart.com/proddetail/flannel-baby-blanket-2852593477333.html?pos=81&kwd=baby fur blanket&tags=||||8747.203||product|||TS|rsf:gd-|-stype:attr=1|qr_nm:gd|res:RC4|com-cf:nl|ptrs:na|ktp:N0|mc:45550|mtp:S|qry_typ:P|lang:en|wc:3|cs:8836|v=4,Supercloudy Fashion World Private Limited,https://www.indiamart.com/supercloudyfashionworld/?pos=81&kwd=baby fur blanket&tags=||||8747.203||product|||TS|rsf:gd-|-stype:attr=1|qr_nm:gd|res:RC4|com-cf:nl|ptrs:na|ktp:N0|mc:45550|mtp:S|qry_typ:P|lang:en|wc:3|cs:8836|v=4,False,Huda,Panipat,"Vpo Kurar, Near Jagmehar Hatchery, Huda, Panipat - 132103, Dist.Panipat, Haryana",8047303410,
"Yellow Print 100% Organic Cotton Baby Muslin Swaddles, Size: Singe",https://www.indiamart.com/proddetail/baby-muslin-swaddles-2854362104230.html?pos=82&kwd=baby fur blanket&tags=||||8706.263|Price|product|||TS|rsf:gd-|-stype:attr=1|qr_nm:gd|res:RC4|com-cf:nl|ptrs:na|ktp:N0|mc:45550|mtp:S|qry_typ:P|lang:en|wc:3|cs:8836|v=4,Bowerbird Interios,https://www.organicfabricmanufacturer.com/?pos=82&kwd=baby fur blanket&tags=||||8706.263|Price|product|||TS|rsf:gd-|-stype:attr=1|qr_nm:gd|res:RC4|com-cf:nl|ptrs:na|ktp:N0|mc:45550|mtp:S|qry_typ:P|lang:en|wc:3|cs:8836|v=4,False,Ramanujam Nagar,Karur,"1/137, Covai Road South, Ramanujam Nagar, Karur - 639002, Dist.Karur, Tamil Nadu",8048971552,
Cotton Muslin baby Swaddle Blanket Printed with appropriate baby prints,https://www.indiamart.com/proddetail/cotton-muslin-baby-swaddle-blanket-printed-with-appropriate-baby-prints-2851877901212.html?pos=83&kwd=baby fur blanket&tags=||||8668.838|Price|product|||TS|rsf:gd-|-stype:attr=1|qr_nm:gd|res:RC4|com-cf:nl|ptrs:na|ktp:N0|mc:45550|mtp:S|qry_typ:P|lang:en|wc:3|cs:8836|v=4,Manish Mills,https://www.manishmills.in/?pos=83&kwd=baby fur blanket&tags=||||8668.838|Price|product|||TS|rsf:gd-|-stype:attr=1|qr_nm:gd|res:RC4|com-cf:nl|ptrs:na|ktp:N0|mc:45550|mtp:S|qry_typ:P|lang:en|wc:3|cs:8836|v=4,False,Erode Fort,Erode,"Suki Towers, No. 261, Easwaran Koil Street, Erode Fort, Erode - 638001, Dist.Erode, Tamil Nadu",8048961063,
Multicolor Organic Cotton Baby Muslin Swaddle,https://www.indiamart.com/proddetail/organic-cotton-baby-muslin-swaddle-2852060049430.html?pos=84&kwd=baby fur blanket&tags=||||8706.263|Price|product|||TS|rsf:gd-|-stype:attr=1|qr_nm:gd|res:RC4|com-cf:nl|ptrs:na|ktp:N0|mc:45550|mtp:S|qry_typ:P|lang:en|wc:3|cs:8836|v=4,Taruna Tex,https://www.indiamart.com/taruna-tex-karur/?pos=84&kwd=baby fur blanket&tags=||||8706.263|Price|product|||TS|rsf:gd-|-stype:attr=1|qr_nm:gd|res:RC4|com-cf:nl|ptrs:na|ktp:N0|mc:45550|mtp:S|qry_typ:P|lang:en|wc:3|cs:8836|v=4,True,Veluswamypuram,Karur,"137, Nanthavana Street, Velusamypuram IV Cross, Andankoil West, Veluswamypuram, Karur - 639002, Dist.Karur, Tamil Nadu",7942874999,
"Cotton Red Baby Fleece Blanket, For Home, Size: Singe",https://www.indiamart.com/proddetail/baby-fleece-blanket-25350322973.html?pos=85&kwd=baby fur blanket&tags=||||8747.203|Price|product|||TS|rsf:gd-|-stype:attr=1|qr_nm:gd|res:RC4|com-cf:nl|ptrs:na|ktp:N0|mc:45550|mtp:S|qry_typ:P|lang:en|wc:3|cs:8836|v=4,Anand International,https://www.bestvaluewholesale.co.in/?pos=85&kwd=baby fur blanket&tags=||||8747.203|Price|product|||TS|rsf:gd-|-stype:attr=1|qr_nm:gd|res:RC4|com-cf:nl|ptrs:na|ktp:N0|mc:45550|mtp:S|qry_typ:P|lang:en|wc:3|cs:8836|v=4,False,Shiv Nagar,Panipat,"Plot No-181, Anand International, Sec-25 Part-2, Huda,, Shiv Nagar, Panipat - 132103, Dist.Panipat, Haryana",8047314578,
"Voile Multicolor Manufacturer of Handblock Printed Baby Quilts, Size: 40""x60""/60""x90""",https://www.indiamart.com/proddetail/manufacturer-of-handblock-printed-baby-quilts-2850761678862.html?pos=86&kwd=baby fur blanket&tags=||||8601.347|Price|product|||TS|rsf:gd-|-stype:attr=1|qr_nm:gd|res:RC4|com-cf:nl|ptrs:na|ktp:N0|mc:45550|mtp:S|qry_typ:P|lang:en|wc:3|cs:8836|v=4,Indus Art And Emporium,https://www.indusart.in/?pos=86&kwd=baby fur blanket&tags=||||8601.347|Price|product|||TS|rsf:gd-|-stype:attr=1|qr_nm:gd|res:RC4|com-cf:nl|ptrs:na|ktp:N0|mc:45550|mtp:S|qry_typ:P|lang:en|wc:3|cs:8836|v=4,True,Mansarovar,Jaipur,"H/3, First Floor, RIICO Industrial Area, Mansarovar, Jaipur - 302020, Dist.Jaipur, Rajasthan",8048956816,
"Cotton Grey Printed Baby Blanket, Size: 18x22inch",https://www.indiamart.com/proddetail/printed-baby-blanket-24314819091.html?pos=87&kwd=baby fur blanket&tags=||||8228.275|Price|product|||MDC|rsf:gd-|-stype:attr=1|qr_nm:gd|res:RC4|com-cf:nl|ptrs:na|ktp:N0|mc:45550|mtp:S|qry_typ:P|lang:en|wc:3|cs:8836|v=4,Sanskriti Inc,https://www.indiamart.com/sanskriti-inc/?pos=87&kwd=baby fur blanket&tags=||||8228.275|Price|product|||MDC|rsf:gd-|-stype:attr=1|qr_nm:gd|res:RC4|com-cf:nl|ptrs:na|ktp:N0|mc:45550|mtp:S|qry_typ:P|lang:en|wc:3|cs:8836|v=4,False,Nikol,Ahmedabad,"Shop No-26, Surjit Co Op H Soc Ltd, Nr. India Colony, Nikol Road, Nikol, Ahmedabad - 382350, Dist.Ahmedabad, Gujarat",8046047726,
Dvk Handicraft 100% Cotton Reversible Rainbow Kantha Cot Quilt Baby Blanket,https://www.indiamart.com/proddetail/reversible-rainbow-kantha-cot-quilt-baby-blanket-13906344055.html?pos=88&kwd=baby fur blanket&tags=||||8601.347|Price|product|||TS|rsf:gd-|-stype:attr=1|qr_nm:gd|res:RC4|com-cf:nl|ptrs:na|ktp:N0|mc:45550|mtp:S|qry_typ:P|lang:en|wc:3|cs:8836|v=4,DVK Handicraft Private Limited,https://www.dvkhandicraft.net/?pos=88&kwd=baby fur blanket&tags=||||8601.347|Price|product|||TS|rsf:gd-|-stype:attr=1|qr_nm:gd|res:RC4|com-cf:nl|ptrs:na|ktp:N0|mc:45550|mtp:S|qry_typ:P|lang:en|wc:3|cs:8836|v=4,True,Vaishali Nagar,Jaipur,"B-24, Ground Floor Lalrpura Aayodhya Nagar Vaisha Gandhi Path, Vaishali Nagar, Vaishali Nagar, Jaipur - 302021, Dist.Jaipur, Rajasthan",8048608928,
"Multicolor Baby Cotton Muslin Swaddle, Size: Singe",https://www.indiamart.com/proddetail/baby-cotton-muslin-swaddle-2849329098130.html?pos=89&kwd=baby fur blanket&tags=||||8211.142|Price|product|||TS|rsf:gd-|-stype:attr=1|qr_nm:gd|res:RC4|com-cf:nl|ptrs:na|ktp:N0|mc:45550|mtp:S|qry_typ:P|lang:en|wc:3|cs:8836|v=4,ShanBuyers,https://www.indiamart.com/shanbuyers/?pos=89&kwd=baby fur blanket&tags=||||8211.142|Price|product|||TS|rsf:gd-|-stype:attr=1|qr_nm:gd|res:RC4|com-cf:nl|ptrs:na|ktp:N0|mc:45550|mtp:S|qry_typ:P|lang:en|wc:3|cs:8836|v=4,False,Dahisar East,Mumbai,"316, Floor No. 3rd, Sarita Building, Prabhat Ind Complex, Road Western Express Highway, Toll Naka, Dahisar, Dahisar East, Mumbai - 400068, Dist.Mumbai, Maharashtra",8047670828,
Unisex Baby Carry Nest/Baby Sleeping Bag/Baby Wrap for Newborn Baby Boys Girls (0-3 Months),https://www.indiamart.com/proddetail/unisex-baby-carry-nest-baby-sleeping-bag-baby-wrap-for-newborn-baby-boys-girls-0-3-months-2852997270755.html?pos=90&kwd=baby fur blanket&tags=||||9842.824|Price|product|||TS|rsf:gd-|-stype:attr=1|qr_nm:gd|res:RC4|com-cf:nl|ptrs:na|ktp:N0|mc:45550|mtp:S|qry_typ:P|lang:en|wc:3|cs:8836|v=4,Indilittle Global Export,https://www.indiamart.com/indilittleglobalexport/?pos=90&kwd=baby fur blanket&tags=||||9842.824|Price|product|||TS|rsf:gd-|-stype:attr=1|qr_nm:gd|res:RC4|com-cf:nl|ptrs:na|ktp:N0|mc:45550|mtp:S|qry_typ:P|lang:en|wc:3|cs:8836|v=4,False,Haripal,Hooghly,"BRAHMANPARA, NALIKUL PASCHIM, HARIPAL, Haripal, Hooghly - 712405, Dist.Hooghly, West Bengal",8048977919,
"Pink Butterthief Elephant Printed Flannel Kids AC Blanket, 8 Year, Size: 100x140 cm",https://www.indiamart.com/proddetail/butterthief-elephant-printed-flannel-kids-ac-blanket-2851237206955.html?pos=91&kwd=baby fur blanket&tags=||||8752.144|Price|product|||TS|rsf:gd-|-stype:attr=1|qr_nm:gd|res:RC4|com-cf:nl|ptrs:na|ktp:N0|mc:45550|mtp:S|qry_typ:P|lang:en|wc:3|cs:8836|v=4,Instabuyz,https://www.indiamart.com/instabuyz/?pos=91&kwd=baby fur blanket&tags=||||8752.144|Price|product|||TS|rsf:gd-|-stype:attr=1|qr_nm:gd|res:RC4|com-cf:nl|ptrs:na|ktp:N0|mc:45550|mtp:S|qry_typ:P|lang:en|wc:3|cs:8836|v=4,False,Paschim Vihar,New Delhi,"GH-4/319, Meera Apartments, Paschim Vihar, West Delhi, Paschim Vihar, New Delhi - 110063, Dist.Delhi, Delhi",8047696143,
White (Base) Cotton Muslin Swaddle Blanket,https://www.indiamart.com/proddetail/cotton-muslin-swaddle-blanket-23904997948.html?pos=92&kwd=baby fur blanket&tags=||||8231.259|Price|product|||MDC|rsf:gd-|-stype:attr=1|qr_nm:gd|res:RC4|com-cf:nl|ptrs:na|ktp:N0|mc:45550|mtp:S|qry_typ:P|lang:en|wc:3|cs:8836|v=4,Hemp Ecotex,https://www.indiamart.com/hempecotex/?pos=92&kwd=baby fur blanket&tags=||||8231.259|Price|product|||MDC|rsf:gd-|-stype:attr=1|qr_nm:gd|res:RC4|com-cf:nl|ptrs:na|ktp:N0|mc:45550|mtp:S|qry_typ:P|lang:en|wc:3|cs:8836|v=4,False,Val,Bhiwandi,"1st Floor, H. No 1661/12 Gala No 106, BL-K, Dharam Complex, Phase-I, Rahnal Village, Val, Bhiwandi - 421302, Maharashtra",7949092530,
"Pink Cotton Newborn Baby Sleeping Bags, Newly Born",https://www.indiamart.com/proddetail/newborn-baby-sleeping-bags-2854892034255.html?pos=93&kwd=baby fur blanket&tags=||||8230.883|Price|product|||MDC|rsf:gd-|-stype:attr=1|qr_nm:gd|res:RC4|com-cf:nl|ptrs:na|ktp:N0|mc:45550|mtp:S|qry_typ:P|lang:en|wc:3|cs:8836|v=4,Whopssy International,https://www.indiamart.com/whopssy-international/?pos=93&kwd=baby fur blanket&tags=||||8230.883|Price|product|||MDC|rsf:gd-|-stype:attr=1|qr_nm:gd|res:RC4|com-cf:nl|ptrs:na|ktp:N0|mc:45550|mtp:S|qry_typ:P|lang:en|wc:3|cs:8836|v=4,False,,Surat,"First Floor, Plot No. 377, Ram Vatika V-2, Near Rangoli Chowkdi, Sayan Road, Velenja Gam, Sayan, Surat - 394150, Dist.Surat, Gujarat",7949340041,
"Cloth Orange Baby Carry Bag, Age Group: 1-2 Years, Packaging Type: Transparent",https://www.indiamart.com/proddetail/baby-carry-bag-2851743097562.html?pos=94&kwd=baby fur blanket&tags=||||8783.355|Price|product|||MDC|rsf:gd-|-stype:attr=1|qr_nm:gd|res:RC4|com-cf:nl|ptrs:na|ktp:N0|mc:45550|mtp:S|qry_typ:P|lang:en|wc:3|cs:8836|v=4,Om Shiv International,https://www.indiamart.com/omshivinternational/?pos=94&kwd=baby fur blanket&tags=||||8783.355|Price|product|||MDC|rsf:gd-|-stype:attr=1|qr_nm:gd|res:RC4|com-cf:nl|ptrs:na|ktp:N0|mc:45550|mtp:S|qry_typ:P|lang:en|wc:3|cs:8836|v=4,False,Baghpat,Aminagar Sarai,"170, Gauspur, Baghpat, Baghpat, Aminagar Sarai - 250606, Dist.Bagpat, Uttar Pradesh",8048616452,
"Embossed Fur Fabric, For Blankets, GSM: 260 GSM",https://www.indiamart.com/proddetail/embossed-fur-fabric-20765469433.html?pos=95&kwd=baby fur blanket&tags=||||8626.744|Price|product|||MDC|rsf:gd-|-stype:attr=1|qr_nm:gd|res:RC4|com-cf:nl|ptrs:na|ktp:N0|mc:45550|mtp:S|qry_typ:P|lang:en|wc:3|cs:8836|v=4,Ultron Textiles,https://www.indiamart.com/ultron-textiles-tamilnadu/?pos=95&kwd=baby fur blanket&tags=||||8626.744|Price|product|||MDC|rsf:gd-|-stype:attr=1|qr_nm:gd|res:RC4|com-cf:nl|ptrs:na|ktp:N0|mc:45550|mtp:S|qry_typ:P|lang:en|wc:3|cs:8836|v=4,False,Angeripalayam Main Road,Tiruppur,"Door 3/25, Angeripalayam Main Road, Angeripalayam Main Road, Tiruppur - 641601, Dist.Coimbatore, Tamil Nadu",8046062715,
"Cotton Pink Flannel Baby Blanket, Size: Singe",https://www.indiamart.com/proddetail/flannel-baby-blanket-2852593477333.html?pos=96&kwd=baby fur blanket&tags=||||8747.203||product|||TS|rsf:gd-|-stype:attr=1|qr_nm:gd|res:RC4|com-cf:nl|ptrs:na|ktp:N0|mc:45550|mtp:S|qry_typ:P|lang:en|wc:3|cs:8836|v=4,Supercloudy Fashion World Private Limited,https://www.indiamart.com/supercloudyfashionworld/?pos=96&kwd=baby fur blanket&tags=||||8747.203||product|||TS|rsf:gd-|-stype:attr=1|qr_nm:gd|res:RC4|com-cf:nl|ptrs:na|ktp:N0|mc:45550|mtp:S|qry_typ:P|lang:en|wc:3|cs:8836|v=4,False,Huda,Panipat,"Vpo Kurar, Near Jagmehar Hatchery, Huda, Panipat - 132103, Dist.Panipat, Haryana",8047303410,
"Mercury Printed New Born Baby 100% Cotton Soft Hooded Baby Blanket, 0- 12 Months",https://www.indiamart.com/proddetail/new-born-baby-100-cotton-soft-hooded-baby-blanket-22290033655.html?pos=97&kwd=baby fur blanket&tags=||||8706.263|Price|product|||TS|rsf:gd-|-stype:attr=1|qr_nm:gd|res:RC4|com-cf:nl|ptrs:na|ktp:N0|mc:45550|mtp:S|qry_typ:P|lang:en|wc:3|cs:8836|v=4,Mercury Weavers,https://www.indiamart.com/mercuryweavers/?pos=97&kwd=baby fur blanket&tags=||||8706.263|Price|product|||TS|rsf:gd-|-stype:attr=1|qr_nm:gd|res:RC4|com-cf:nl|ptrs:na|ktp:N0|mc:45550|mtp:S|qry_typ:P|lang:en|wc:3|cs:8836|v=4,False,Gowripuram,Karur,"35/3, 2nd Floor, Gandhi Nagar 3rd Cross, Karur Town, Gowripuram, Karur - 639001, Dist.Karur, Tamil Nadu",8047641180,
Printed Floral Print Baby Blanket,https://www.indiamart.com/proddetail/floral-print-baby-blanket-24686439030.html?pos=98&kwd=baby fur blanket&tags=||||8230.883|Price|product|||MDC|rsf:gd-|-stype:attr=1|qr_nm:gd|res:RC4|com-cf:nl|ptrs:na|ktp:N0|mc:45550|mtp:S|qry_typ:P|lang:en|wc:3|cs:8836|v=4,Dharmnandan Creation,https://www.indiamart.com/dharmnandancreation/?pos=98&kwd=baby fur blanket&tags=||||8230.883|Price|product|||MDC|rsf:gd-|-stype:attr=1|qr_nm:gd|res:RC4|com-cf:nl|ptrs:na|ktp:N0|mc:45550|mtp:S|qry_typ:P|lang:en|wc:3|cs:8836|v=4,False,Udhana,Surat,"Plot No. A/10, City Ind. Estate, Udhana, Udhan Road,, Udhana, Surat - 394210, Dist.Surat, Gujarat",7942543669,
"Owen Jaipuri Animal Printed Baby Blanket, Teen, Size: 60*90",https://www.indiamart.com/proddetail/animal-printed-baby-blanket-6379012948.html?pos=99&kwd=baby fur blanket&tags=||||8601.347|Price|product|||TS|rsf:gd-|-stype:attr=1|qr_nm:gd|res:RC4|com-cf:nl|ptrs:na|ktp:N0|mc:45550|mtp:S|qry_typ:P|lang:en|wc:3|cs:8836|v=4,Priva International,https://www.privainternational.in/?pos=99&kwd=baby fur blanket&tags=||||8601.347|Price|product|||TS|rsf:gd-|-stype:attr=1|qr_nm:gd|res:RC4|com-cf:nl|ptrs:na|ktp:N0|mc:45550|mtp:S|qry_typ:P|lang:en|wc:3|cs:8836|v=4,False,Sitapur Industrial Area,Jaipur,"G-88, EPIP Industrial Area, Near Indian Overseas Bank Sitapur Tonk Road, Sitapur Industrial Area, Sitapur Industrial Area, Jaipur - 302022, Dist.Jaipur, Rajasthan",8048611129,
"Cotton Multicolor Baby Printed Blanket, 7 Years",https://www.indiamart.com/proddetail/baby-printed-blanket-17848671930.html?pos=100&kwd=baby fur blanket&tags=||||8752.144|Price|product|||TS|rsf:gd-|-stype:attr=1|qr_nm:gd|res:RC4|com-cf:nl|ptrs:na|ktp:N0|mc:45550|mtp:S|qry_typ:P|lang:en|wc:3|cs:8836|v=4,Royal Rose International,https://www.indiamart.com/royal-rose-international/?pos=100&kwd=baby fur blanket&tags=||||8752.144|Price|product|||TS|rsf:gd-|-stype:attr=1|qr_nm:gd|res:RC4|com-cf:nl|ptrs:na|ktp:N0|mc:45550|mtp:S|qry_typ:P|lang:en|wc:3|cs:8836|v=4,False,Rajindra Place,New Delhi,"27, Ground Floor, Rajindra Park, Pusa Road, Rajindra Place, New Delhi - 110060, Dist.Delhi, Delhi",8047619163,
Multicolor Baby Mink Blanket,https://www.indiamart.com/proddetail/baby-mink-blanket-2853156955255.html?pos=101&kwd=baby fur blanket&tags=||||8747.203|Price|product|||TS|rsf:gd-|-stype:attr=1|qr_nm:gd|res:RC4|com-cf:nl|ptrs:na|ktp:N0|mc:45550|mtp:S|qry_typ:P|lang:en|wc:3|cs:8836|v=4,Avior Industries Private Limited,https://www.aviorindustries.net/?pos=101&kwd=baby fur blanket&tags=||||8747.203|Price|product|||TS|rsf:gd-|-stype:attr=1|qr_nm:gd|res:RC4|com-cf:nl|ptrs:na|ktp:N0|mc:45550|mtp:S|qry_typ:P|lang:en|wc:3|cs:8836|v=4,False,Part-1,Panipat,"Plot No. 60, Sector-29 Part-1, Part-1, Panipat - 132103, Dist.Panipat, Haryana",7942843848,
Cotton White base printed Hooded Baby Blanket,https://www.indiamart.com/proddetail/hooded-baby-blanket-2851209756255.html?pos=102&kwd=baby fur blanket&tags=||||8668.838|Price|product|||TS|rsf:gd-|-stype:attr=1|qr_nm:gd|res:RC4|com-cf:nl|ptrs:na|ktp:N0|mc:45550|mtp:S|qry_typ:P|lang:en|wc:3|cs:8836|v=4,Ram Textiles,https://www.indiamart.com/ram-textiles/?pos=102&kwd=baby fur blanket&tags=||||8668.838|Price|product|||TS|rsf:gd-|-stype:attr=1|qr_nm:gd|res:RC4|com-cf:nl|ptrs:na|ktp:N0|mc:45550|mtp:S|qry_typ:P|lang:en|wc:3|cs:8836|v=4,False,Veerappanchatram,Erode,"No. 131, M. G. R. Street-1, Veerappanchatram, Veerappanchatram, Erode - 638004, Dist.Erode, Tamil Nadu",8048611846,
"Micro Kids Print Dohar, Size: Double",https://www.indiamart.com/proddetail/micro-kids-print-dohar-22208088455.html?pos=103&kwd=baby fur blanket&tags=||||8601.347|Price|product|||TS|rsf:gd-|-stype:attr=1|qr_nm:gd|res:RC4|com-cf:nl|ptrs:na|ktp:N0|mc:45550|mtp:S|qry_typ:P|lang:en|wc:3|cs:8836|v=4,Vicky Garments,https://www.hotellinenmanufacturer.com/?pos=103&kwd=baby fur blanket&tags=||||8601.347|Price|product|||TS|rsf:gd-|-stype:attr=1|qr_nm:gd|res:RC4|com-cf:nl|ptrs:na|ktp:N0|mc:45550|mtp:S|qry_typ:P|lang:en|wc:3|cs:8836|v=4,False,Jhotwara,Jaipur,"No. 82, Ganga Vihar Colony, Nagal Jaisa Bohra Dadi Ka Phatak, Jhotwara, Jaipur - 302012, Dist.Jaipur, Rajasthan",8046042378,
Cotton Multicolor Hand Block Baby Blanket,https://www.indiamart.com/proddetail/hand-block-baby-blanket-26438743348.html?pos=104&kwd=baby fur blanket&tags=||||8601.347|Price|product|||TS|rsf:gd-|-stype:attr=1|qr_nm:gd|res:RC4|com-cf:nl|ptrs:na|ktp:N0|mc:45550|mtp:S|qry_typ:P|lang:en|wc:3|cs:8836|v=4,Veer Handircrafts,https://www.veerhandicrafts.com/?pos=104&kwd=baby fur blanket&tags=||||8601.347|Price|product|||TS|rsf:gd-|-stype:attr=1|qr_nm:gd|res:RC4|com-cf:nl|ptrs:na|ktp:N0|mc:45550|mtp:S|qry_typ:P|lang:en|wc:3|cs:8836|v=4,True,Shyam Nagar,Jaipur,"Basement, 192/331, Sector 19, Kumbha Marg, Shyam Nagar, Jaipur - 302029, Dist.Jaipur, Rajasthan",8043851762,
White Plain Muslin Swaddle Blankets,https://www.indiamart.com/proddetail/muslin-swaddle-blankets-2854117916091.html?pos=105&kwd=baby fur blanket&tags=||||8706.263|Price|product|||TS|rsf:gd-|-stype:attr=1|qr_nm:gd|res:RC4|com-cf:nl|ptrs:na|ktp:N0|mc:45550|mtp:S|qry_typ:P|lang:en|wc:3|cs:8836|v=4,P.R.Cottons,https://www.indiamart.com/prcottons/?pos=105&kwd=baby fur blanket&tags=||||8706.263|Price|product|||TS|rsf:gd-|-stype:attr=1|qr_nm:gd|res:RC4|com-cf:nl|ptrs:na|ktp:N0|mc:45550|mtp:S|qry_typ:P|lang:en|wc:3|cs:8836|v=4,True,Near,Karur,"Ground Floor Room No.1, Door No.79/1, Vaiyapurinagar Ist Cross, Near, Karur - 639002, Dist.Karur, Tamil Nadu",8048608767,
"Pink Cotton Baby Sleeping bag, 3-12 Months",https://www.indiamart.com/proddetail/baby-sleeping-bag-2851102122262.html?pos=106&kwd=baby fur blanket&tags=||||8752.144|Price|product|||TS|rsf:gd-|-stype:attr=1|qr_nm:gd|res:RC4|com-cf:nl|ptrs:na|ktp:N0|mc:45550|mtp:S|qry_typ:P|lang:en|wc:3|cs:8836|v=4,National Overseas,https://www.indiamart.com/nationaltraders-vishwashnagar/?pos=106&kwd=baby fur blanket&tags=||||8752.144|Price|product|||TS|rsf:gd-|-stype:attr=1|qr_nm:gd|res:RC4|com-cf:nl|ptrs:na|ktp:N0|mc:45550|mtp:S|qry_typ:P|lang:en|wc:3|cs:8836|v=4,False,Shahdara,New Delhi,"1/99, Gali No. 3, Vishwas Nagar, Shahdara, New Delhi - 110032, Dist.Delhi, Delhi",8046047673,
"Cotton Multicolor Printed Baby Blanket, Size: Singe",https://www.indiamart.com/proddetail/printed-baby-blanket-2850870920488.html?pos=107&kwd=baby fur blanket&tags=||||8747.203|Price|product|||TS|rsf:gd-|-stype:attr=1|qr_nm:gd|res:RC4|com-cf:nl|ptrs:na|ktp:N0|mc:45550|mtp:S|qry_typ:P|lang:en|wc:3|cs:8836|v=4,Siya Ram Enterprises,https://www.indiamart.com/siyaram-enterprises-panipat/?pos=107&kwd=baby fur blanket&tags=||||8747.203|Price|product|||TS|rsf:gd-|-stype:attr=1|qr_nm:gd|res:RC4|com-cf:nl|ptrs:na|ktp:N0|mc:45550|mtp:S|qry_typ:P|lang:en|wc:3|cs:8836|v=4,False,Huda,Panipat,"Gali Number 3, Near Ahuja Furniture Sanoli Road, Huda, Panipat - 132103, Dist.Panipat, Haryana",8048959822,
Pink Soft Baby Blanket,https://www.indiamart.com/proddetail/soft-baby-blanket-22756878488.html?pos=108&kwd=baby fur blanket&tags=||||8747.203|Price|product|||TS|rsf:gd-|-stype:attr=1|qr_nm:gd|res:RC4|com-cf:nl|ptrs:na|ktp:N0|mc:45550|mtp:S|qry_typ:P|lang:en|wc:3|cs:8836|v=4,Muskan Collections,https://www.indiamart.com/muskan-collections-haryana/?pos=108&kwd=baby fur blanket&tags=||||8747.203|Price|product|||TS|rsf:gd-|-stype:attr=1|qr_nm:gd|res:RC4|com-cf:nl|ptrs:na|ktp:N0|mc:45550|mtp:S|qry_typ:P|lang:en|wc:3|cs:8836|v=4,False,Kabul Bagh,Panipat,"GALI NO 3 UGRA KHERI MOD, Kabul Bagh, Panipat - 132103, Dist.Panipat, Haryana",8047633020,
Printed Baby Fleece Blanket,https://www.indiamart.com/proddetail/baby-fleece-blanket-20967303055.html?pos=109&kwd=baby fur blanket&tags=||||8747.203|Price|product|||TS|rsf:gd-|-stype:attr=1|qr_nm:gd|res:RC4|com-cf:nl|ptrs:na|ktp:N0|mc:45550|mtp:S|qry_typ:P|lang:en|wc:3|cs:8836|v=4,Mahalaxmi Woollen Processors,https://www.mahalaxmiwoollen.in/?pos=109&kwd=baby fur blanket&tags=||||8747.203|Price|product|||TS|rsf:gd-|-stype:attr=1|qr_nm:gd|res:RC4|com-cf:nl|ptrs:na|ktp:N0|mc:45550|mtp:S|qry_typ:P|lang:en|wc:3|cs:8836|v=4,False,Desraj Colony,Panipat,"Desraj Colony, Desraj Colony, Panipat - 132103, Dist.Panipat, Haryana",8047645393,
Cotton Plain Baby Sleeping Bag,https://www.indiamart.com/proddetail/cotton-plain-baby-sleeping-bag-2854922515955.html?pos=110&kwd=baby fur blanket&tags=||||8876.815|Price|product|||MDC|rsf:gd-|-stype:attr=1|qr_nm:gd|res:RC4|com-cf:nl|ptrs:na|ktp:N0|mc:45550|mtp:S|qry_typ:P|lang:en|wc:3|cs:8836|v=4,Good Luck Trading,https://www.indiamart.com/goodlucktrading-nagpur/?pos=110&kwd=baby fur blanket&tags=||||8876.815|Price|product|||MDC|rsf:gd-|-stype:attr=1|qr_nm:gd|res:RC4|com-cf:nl|ptrs:na|ktp:N0|mc:45550|mtp:S|qry_typ:P|lang:en|wc:3|cs:8836|v=4,False,,Nagpur,"Plot No. 807, Dharamchaya Fawara Chowk Builing, Nikalas Mandir Road, Itwari, Nagpur - 440002, Dist.Nagpur, Maharashtra",8041014474,
"Cotton Baby Blue Sleeping Bags, Newly Born",https://www.indiamart.com/proddetail/baby-sleeping-bags-2854674347530.html?pos=111&kwd=baby fur blanket&tags=||||8211.142|Price|product|||MDC|rsf:gd-|-stype:attr=1|qr_nm:gd|res:RC4|com-cf:nl|ptrs:na|ktp:N0|mc:45550|mtp:S|qry_typ:P|lang:en|wc:3|cs:8836|v=4,Apple Kids,https://www.indiamart.com/applekids-mumbai/?pos=111&kwd=baby fur blanket&tags=||||8211.142|Price|product|||MDC|rsf:gd-|-stype:attr=1|qr_nm:gd|res:RC4|com-cf:nl|ptrs:na|ktp:N0|mc:45550|mtp:S|qry_typ:P|lang:en|wc:3|cs:8836|v=4,False,,Mumbai,"Room No 1,211/4, Janu Seth Chawl, Puspa Park, Daftary Road, Malad East Suburban, Mumbai - 400097, Dist.Mumbai, Maharashtra",7949326883,
Luxury Purple Embossed Faux Fur Sherpa Quilt,https://www.indiamart.com/proddetail/luxury-purple-embossed-faux-fur-sherpa-quilt-2854267180055.html?pos=112&kwd=baby fur blanket&tags=||||8747.203|Price|product|||TS|rsf:gd-|-stype:attr=1|qr_nm:gd|res:RC4|com-cf:nl|ptrs:na|ktp:N0|mc:45550|mtp:S|qry_typ:P|lang:en|wc:3|cs:8836|v=4,Sri Siddhivinayak Associates,https://www.indiamart.com/sri-siddhivinayak-associates-panipat/?pos=112&kwd=baby fur blanket&tags=||||8747.203|Price|product|||TS|rsf:gd-|-stype:attr=1|qr_nm:gd|res:RC4|com-cf:nl|ptrs:na|ktp:N0|mc:45550|mtp:S|qry_typ:P|lang:en|wc:3|cs:8836|v=4,False,,Panipat,"7,Hali Park Shopping Complex,Industrial Area,Panipat, Panipat - 132103, Dist.Panipat, Haryana",8045736424,
Pink Soft Baby Blanket,https://www.indiamart.com/proddetail/soft-baby-blanket-22756878488.html?pos=113&kwd=baby fur blanket&tags=||||8747.203|Price|product|||TS|rsf:gd-|-stype:attr=1|qr_nm:gd|res:RC4|com-cf:nl|ptrs:na|ktp:N0|mc:45550|mtp:S|qry_typ:P|lang:en|wc:3|cs:8836|v=4,Muskan Collections,https://www.indiamart.com/muskan-collections-haryana/?pos=113&kwd=baby fur blanket&tags=||||8747.203|Price|product|||TS|rsf:gd-|-stype:attr=1|qr_nm:gd|res:RC4|com-cf:nl|ptrs:na|ktp:N0|mc:45550|mtp:S|qry_typ:P|lang:en|wc:3|cs:8836|v=4,False,Kabul Bagh,Panipat,"GALI NO 3 UGRA KHERI MOD, Kabul Bagh, Panipat - 132103, Dist.Panipat, Haryana",8047633020,
Printed Baby Fleece Blanket,https://www.indiamart.com/proddetail/baby-fleece-blanket-20967303055.html?pos=114&kwd=baby fur blanket&tags=||||8747.203|Price|product|||TS|rsf:gd-|-stype:attr=1|qr_nm:gd|res:RC4|com-cf:nl|ptrs:na|ktp:N0|mc:45550|mtp:S|qry_typ:P|lang:en|wc:3|cs:8836|v=4,Mahalaxmi Woollen Processors,https://www.mahalaxmiwoollen.in/?pos=114&kwd=baby fur blanket&tags=||||8747.203|Price|product|||TS|rsf:gd-|-stype:attr=1|qr_nm:gd|res:RC4|com-cf:nl|ptrs:na|ktp:N0|mc:45550|mtp:S|qry_typ:P|lang:en|wc:3|cs:8836|v=4,False,Desraj Colony,Panipat,"Desraj Colony, Desraj Colony, Panipat - 132103, Dist.Panipat, Haryana",8047645393,
Cotton Plain Baby Sleeping Bag,https://www.indiamart.com/proddetail/cotton-plain-baby-sleeping-bag-2854922515955.html?pos=115&kwd=baby fur blanket&tags=||||8876.815|Price|product|||MDC|rsf:gd-|-stype:attr=1|qr_nm:gd|res:RC4|com-cf:nl|ptrs:na|ktp:N0|mc:45550|mtp:S|qry_typ:P|lang:en|wc:3|cs:8836|v=4,Good Luck Trading,https://www.indiamart.com/goodlucktrading-nagpur/?pos=115&kwd=baby fur blanket&tags=||||8876.815|Price|product|||MDC|rsf:gd-|-stype:attr=1|qr_nm:gd|res:RC4|com-cf:nl|ptrs:na|ktp:N0|mc:45550|mtp:S|qry_typ:P|lang:en|wc:3|cs:8836|v=4,False,,Nagpur,"Plot No. 807, Dharamchaya Fawara Chowk Builing, Nikalas Mandir Road, Itwari, Nagpur - 440002, Dist.Nagpur, Maharashtra",8041014474,
"Cotton Baby Blue Sleeping Bags, Newly Born",https://www.indiamart.com/proddetail/baby-sleeping-bags-2854674347530.html?pos=116&kwd=baby fur blanket&tags=||||8211.142|Price|product|||MDC|rsf:gd-|-stype:attr=1|qr_nm:gd|res:RC4|com-cf:nl|ptrs:na|ktp:N0|mc:45550|mtp:S|qry_typ:P|lang:en|wc:3|cs:8836|v=4,Apple Kids,https://www.indiamart.com/applekids-mumbai/?pos=116&kwd=baby fur blanket&tags=||||8211.142|Price|product|||MDC|rsf:gd-|-stype:attr=1|qr_nm:gd|res:RC4|com-cf:nl|ptrs:na|ktp:N0|mc:45550|mtp:S|qry_typ:P|lang:en|wc:3|cs:8836|v=4,False,,Mumbai,"Room No 1,211/4, Janu Seth Chawl, Puspa Park, Daftary Road, Malad East Suburban, Mumbai - 400097, Dist.Mumbai, Maharashtra",7949326883,
Luxury Purple Embossed Faux Fur Sherpa Quilt,https://www.indiamart.com/proddetail/luxury-purple-embossed-faux-fur-sherpa-quilt-2854267180055.html?pos=117&kwd=baby fur blanket&tags=||||8747.203|Price|product|||TS|rsf:gd-|-stype:attr=1|qr_nm:gd|res:RC4|com-cf:nl|ptrs:na|ktp:N0|mc:45550|mtp:S|qry_typ:P|lang:en|wc:3|cs:8836|v=4,Sri Siddhivinayak Associates,https://www.indiamart.com/sri-siddhivinayak-associates-panipat/?pos=117&kwd=baby fur blanket&tags=||||8747.203|Price|product|||TS|rsf:gd-|-stype:attr=1|qr_nm:gd|res:RC4|com-cf:nl|ptrs:na|ktp:N0|mc:45550|mtp:S|qry_typ:P|lang:en|wc:3|cs:8836|v=4,False,,Panipat,"7,Hali Park Shopping Complex,Industrial Area,Panipat, Panipat - 132103, Dist.Panipat, Haryana",8045736424,
"Pink Cotton-muslin Home Printed Crib Swaddling Baby Blanket for AC Room, Size: Singe",https://www.indiamart.com/proddetail/home-printed-crib-swaddling-baby-blanket-for-ac-room-2853776874555.html?pos=118&kwd=baby fur blanket&tags=||||8706.263|Price|product|||TS|rsf:gd-|-stype:attr=1|qr_nm:gd|res:RC4|com-cf:nl|ptrs:na|ktp:N0|mc:45550|mtp:S|qry_typ:P|lang:en|wc:3|cs:8836|v=4,Shree Garments,https://www.indiamart.com/shree-garments-karur/?pos=118&kwd=baby fur blanket&tags=||||8706.263|Price|product|||TS|rsf:gd-|-stype:attr=1|qr_nm:gd|res:RC4|com-cf:nl|ptrs:na|ktp:N0|mc:45550|mtp:S|qry_typ:P|lang:en|wc:3|cs:8836|v=4,False,Vengamedu,Karur,"6, Maruthamuthu Thottam, Opp To Sp Colony, Vengameduvengamedu,, Vengamedu, Karur - 639006, Dist.Karur, Tamil Nadu",7942719649,
"Multicolor Double Fur Blanket, Packaging Type: Plastic Bag",https://www.indiamart.com/proddetail/double-fur-blanket-2854538557373.html?pos=119&kwd=baby fur blanket&tags=||||8747.203|Price|product|||TS|rsf:gd-|-stype:attr=1|qr_nm:gd|res:RC4|com-cf:nl|ptrs:na|ktp:N0|mc:45550|mtp:S|qry_typ:P|lang:en|wc:3|cs:8836|v=4,HOMZY Brand of (Mahalaxmi Silicates Pvt. Ltd.),https://www.indiamart.com/mahalaxmi-silicates/?pos=119&kwd=baby fur blanket&tags=||||8747.203|Price|product|||TS|rsf:gd-|-stype:attr=1|qr_nm:gd|res:RC4|com-cf:nl|ptrs:na|ktp:N0|mc:45550|mtp:S|qry_typ:P|lang:en|wc:3|cs:8836|v=4,False,,Panipat,"Sector-29 58 Part-2 Huda, Panipat - 132103, Dist.Panipat, Haryana",8047684113,
Polyester Multicolor Flannel Baby Blanket,https://www.indiamart.com/proddetail/flannel-baby-blanket-2854310014391.html?pos=120&kwd=baby fur blanket&tags=||||8747.203||product|||MDC|rsf:gd-|-stype:attr=1|qr_nm:gd|res:RC4|com-cf:nl|ptrs:na|ktp:N0|mc:45550|mtp:S|qry_typ:P|lang:en|wc:3|cs:8836|v=4,Aman Furnishings,https://www.indiamart.com/amanfurnishings/?pos=120&kwd=baby fur blanket&tags=||||8747.203||product|||MDC|rsf:gd-|-stype:attr=1|qr_nm:gd|res:RC4|com-cf:nl|ptrs:na|ktp:N0|mc:45550|mtp:S|qry_typ:P|lang:en|wc:3|cs:8836|v=4,False,Chawla Colony,Panipat,"OPP Kanta Fabrics, Gali No. 6, Ganesh Nagar Welfare Society, Sanoli Road, Chawla Colony, Panipat - 132103, Dist.Panipat, Haryana",8044012199,
Woolen Printed Baby Blanket,https://www.indiamart.com/proddetail/printed-baby-blanket-2854728183773.html?pos=121&kwd=baby fur blanket&tags=||||8661.854|Price|product|||TS|rsf:gd-|-stype:attr=1|qr_nm:gd|res:RC4|com-cf:nl|ptrs:na|ktp:N0|mc:45550|mtp:S|qry_typ:P|lang:en|wc:3|cs:8836|v=4,Royal Blanket,https://www.indiamart.com/royalblanket/?pos=121&kwd=baby fur blanket&tags=||||8661.854|Price|product|||TS|rsf:gd-|-stype:attr=1|qr_nm:gd|res:RC4|com-cf:nl|ptrs:na|ktp:N0|mc:45550|mtp:S|qry_typ:P|lang:en|wc:3|cs:8836|v=4,False,Harbans Pura,Ludhiana,"B-24.H.No.4211,Street No.2, New Madho Puri, Harbans Pura, Ludhiana - 141008, Dist.Ludhiana, Punjab",8046059378,
Multicolor Baby Comforter,https://www.indiamart.com/proddetail/baby-comforter-2854456693933.html?pos=122&kwd=baby fur blanket&tags=||||8747.203|Price|product|||TS|rsf:gd-|-stype:attr=1|qr_nm:gd|res:RC4|com-cf:nl|ptrs:na|ktp:N0|mc:45550|mtp:S|qry_typ:P|lang:en|wc:3|cs:8836|v=4,Pawansut Enterprises,https://www.indiamart.com/pawansutenterprises-panipat/?pos=122&kwd=baby fur blanket&tags=||||8747.203|Price|product|||TS|rsf:gd-|-stype:attr=1|qr_nm:gd|res:RC4|com-cf:nl|ptrs:na|ktp:N0|mc:45550|mtp:S|qry_typ:P|lang:en|wc:3|cs:8836|v=4,False,Netaji Colony,Panipat,"179 Virat Nagar,,Model Town,Panipat, Netaji Colony, Panipat - 132103, Dist.Panipat, Haryana",7942956898,
"Multicolor Hand Block Printed Cotton Baby Dohar, Size: 44 X 44 Inches",https://www.indiamart.com/proddetail/hand-block-printed-cotton-baby-dohar-24425418630.html?pos=123&kwd=baby fur blanket&tags=||||8601.347|Price|product|||TS|rsf:gd-|-stype:attr=1|qr_nm:gd|res:RC4|com-cf:nl|ptrs:na|ktp:N0|mc:45550|mtp:S|qry_typ:P|lang:en|wc:3|cs:8836|v=4,Shree Ganesh Handicrafts & Textiles,https://www.shreeganeshhandicrafts.com/?pos=123&kwd=baby fur blanket&tags=||||8601.347|Price|product|||TS|rsf:gd-|-stype:attr=1|qr_nm:gd|res:RC4|com-cf:nl|ptrs:na|ktp:N0|mc:45550|mtp:S|qry_typ:P|lang:en|wc:3|cs:8836|v=4,True,Amer Road,Jaipur,"Govind Nagar Vistar, Plot No 54b, Dussehra Kothi, Amer Road, Amer Road, Jaipur - 302002, Dist.Jaipur, Rajasthan",8046036982,
Printed Floral Print Baby Blanket,https://www.indiamart.com/proddetail/floral-print-baby-blanket-24686439030.html?pos=124&kwd=baby fur blanket&tags=||||8230.883|Price|product|||MDC|rsf:gd-|-stype:attr=1|qr_nm:gd|res:RC4|com-cf:nl|ptrs:na|ktp:N0|mc:45550|mtp:S|qry_typ:P|lang:en|wc:3|cs:8836|v=4,Dharmnandan Creation,https://www.indiamart.com/dharmnandancreation/?pos=124&kwd=baby fur blanket&tags=||||8230.883|Price|product|||MDC|rsf:gd-|-stype:attr=1|qr_nm:gd|res:RC4|com-cf:nl|ptrs:na|ktp:N0|mc:45550|mtp:S|qry_typ:P|lang:en|wc:3|cs:8836|v=4,False,Udhana,Surat,"Plot No. A/10, City Ind. Estate, Udhana, Udhan Road,, Udhana, Surat - 394210, Dist.Surat, Gujarat",7942543669,
Woolen Size: Single Pv New Born Baby Blanket,https://www.indiamart.com/proddetail/pv-new-born-baby-blanket-2854715122955.html?pos=125&kwd=baby fur blanket&tags=||||8661.854|Price|product|||MDC|rsf:gd-|-stype:attr=1|qr_nm:gd|res:RC4|com-cf:nl|ptrs:na|ktp:N0|mc:45550|mtp:S|qry_typ:P|lang:en|wc:3|cs:8836|v=4,Miglani Hosiery Factory,https://www.indiamart.com/miglani-hosiery-factory/?pos=125&kwd=baby fur blanket&tags=||||8661.854|Price|product|||MDC|rsf:gd-|-stype:attr=1|qr_nm:gd|res:RC4|com-cf:nl|ptrs:na|ktp:N0|mc:45550|mtp:S|qry_typ:P|lang:en|wc:3|cs:8836|v=4,False,,Ludhiana,"B-IV-524, Pansari Bazar, Ludhiana - 141008, Dist.Ludhiana, Punjab",7949324357,
"Pink Butterthief Elephant Printed Flannel Kids AC Blanket, 8 Year, Size: 100x140 cm",https://www.indiamart.com/proddetail/butterthief-elephant-printed-flannel-kids-ac-blanket-2851237206955.html?pos=126&kwd=baby fur blanket&tags=||||8752.144|Price|product|||TS|rsf:gd-|-stype:attr=1|qr_nm:gd|res:RC4|com-cf:nl|ptrs:na|ktp:N0|mc:45550|mtp:S|qry_typ:P|lang:en|wc:3|cs:8836|v=4,Instabuyz,https://www.indiamart.com/instabuyz/?pos=126&kwd=baby fur blanket&tags=||||8752.144|Price|product|||TS|rsf:gd-|-stype:attr=1|qr_nm:gd|res:RC4|com-cf:nl|ptrs:na|ktp:N0|mc:45550|mtp:S|qry_typ:P|lang:en|wc:3|cs:8836|v=4,False,Paschim Vihar,New Delhi,"GH-4/319, Meera Apartments, Paschim Vihar, West Delhi, Paschim Vihar, New Delhi - 110063, Dist.Delhi, Delhi",8047696143,
"Red (Base) Woollen Baby Blanket, Size: Double",https://www.indiamart.com/proddetail/baby-blanket-25614088533.html?pos=127&kwd=baby fur blanket&tags=||||8747.203|Price|product|||MDC|rsf:gd-|-stype:attr=1|qr_nm:gd|res:RC4|com-cf:nl|ptrs:na|ktp:N0|mc:45550|mtp:S|qry_typ:P|lang:en|wc:3|cs:8836|v=4,Kanha Trading Company,https://www.indiamart.com/kanhatrading-company-panipat/?pos=127&kwd=baby fur blanket&tags=||||8747.203|Price|product|||MDC|rsf:gd-|-stype:attr=1|qr_nm:gd|res:RC4|com-cf:nl|ptrs:na|ktp:N0|mc:45550|mtp:S|qry_typ:P|lang:en|wc:3|cs:8836|v=4,False,Pachranga Bazar,Panipat,"708/4, Near Valmiki Basti, Pachranga Bazar, Pachranga Bazar, Panipat - 132103, Dist.Panipat, Haryana",7949373029,
Dvk Handicraft 100% Cotton Reversible Rainbow Kantha Cot Quilt Baby Blanket,https://www.indiamart.com/proddetail/reversible-rainbow-kantha-cot-quilt-baby-blanket-13906344055.html?pos=128&kwd=baby fur blanket&tags=||||8601.347|Price|product|||TS|rsf:gd-|-stype:attr=1|qr_nm:gd|res:RC4|com-cf:nl|ptrs:na|ktp:N0|mc:45550|mtp:S|qry_typ:P|lang:en|wc:3|cs:8836|v=4,DVK Handicraft Private Limited,https://www.dvkhandicraft.net/?pos=128&kwd=baby fur blanket&tags=||||8601.347|Price|product|||TS|rsf:gd-|-stype:attr=1|qr_nm:gd|res:RC4|com-cf:nl|ptrs:na|ktp:N0|mc:45550|mtp:S|qry_typ:P|lang:en|wc:3|cs:8836|v=4,True,Vaishali Nagar,Jaipur,"B-24, Ground Floor Lalrpura Aayodhya Nagar Vaisha Gandhi Path, Vaishali Nagar, Vaishali Nagar, Jaipur - 302021, Dist.Jaipur, Rajasthan",8048608928,
Cartoon Character Baby Fleece Blanket,https://www.indiamart.com/proddetail/baby-fleece-blanket-2851251862491.html?pos=129&kwd=baby fur blanket&tags=||||8752.144||product|||MDC|rsf:gd-|-stype:attr=1|qr_nm:gd|res:RC4|com-cf:nl|ptrs:na|ktp:N0|mc:45550|mtp:S|qry_typ:P|lang:en|wc:3|cs:8836|v=4,Prince And Princess,https://www.indiamart.com/prince-princess-delhi/?pos=129&kwd=baby fur blanket&tags=||||8752.144||product|||MDC|rsf:gd-|-stype:attr=1|qr_nm:gd|res:RC4|com-cf:nl|ptrs:na|ktp:N0|mc:45550|mtp:S|qry_typ:P|lang:en|wc:3|cs:8836|v=4,False,Gulabi Bagh,New Delhi,"Ground Floor, Garage No - 74, Gulabi Bagh Road,, Gulabi Bagh, New Delhi - 110007, Dist.Delhi, Delhi",8047629125,
"Cotton Multicolor baby godri / new born baby razai / baby quilt / bedding for cot, Single Bed, Printed",https://www.indiamart.com/proddetail/new-born-baby-blanket-baby-quilt-bedding-for-cot-baby-godri-2853243927388.html?pos=130&kwd=baby fur blanket&tags=||||8559.269|Price|product|||MDC|rsf:gd-|-stype:attr=1|qr_nm:gd|res:RC4|com-cf:nl|ptrs:na|ktp:N0|mc:45550|mtp:S|qry_typ:P|lang:en|wc:3|cs:8836|v=4,Sheza Enterprises,https://www.indiamart.com/shezaenterprises/?pos=130&kwd=baby fur blanket&tags=||||8559.269|Price|product|||MDC|rsf:gd-|-stype:attr=1|qr_nm:gd|res:RC4|com-cf:nl|ptrs:na|ktp:N0|mc:45550|mtp:S|qry_typ:P|lang:en|wc:3|cs:8836|v=4,False,,Indore,"Alif House, 5, Khajrana Main Road, Opposite HP Petrol Pump,, Indore - 452001, Dist.Indore, Madhya Pradesh",7948547068,
Pink Baby Muslin Swaddles,https://www.indiamart.com/proddetail/baby-muslin-swaddles-2853954058412.html?pos=131&kwd=baby fur blanket&tags=||||8706.263|Price|product|||TS|rsf:gd-|-stype:attr=1|qr_nm:gd|res:RC4|com-cf:nl|ptrs:na|ktp:N0|mc:45550|mtp:S|qry_typ:P|lang:en|wc:3|cs:8836|v=4,L S Textiles And Exports Private Limited,https://www.indiamart.com/lstextiles/?pos=131&kwd=baby fur blanket&tags=||||8706.263|Price|product|||TS|rsf:gd-|-stype:attr=1|qr_nm:gd|res:RC4|com-cf:nl|ptrs:na|ktp:N0|mc:45550|mtp:S|qry_typ:P|lang:en|wc:3|cs:8836|v=4,True,Punnam,Karur,"S.F.No.141/13 South Punnam Village, Pugalur Taluk Palamapuram, Punnam, Karur - 639136, Dist.Karur, Tamil Nadu",8047851645,
"100% Organic Cotton Printed Baby Fleece Blanket, New Born To 3 Yrs, Size: 120X120",https://www.indiamart.com/proddetail/baby-fleece-blanket-22954589855.html?pos=132&kwd=baby fur blanket&tags=||||8663.873|Price|product|||TS|rsf:gd-|-stype:attr=1|qr_nm:gd|res:RC4|com-cf:nl|ptrs:na|ktp:N0|mc:45550|mtp:S|qry_typ:P|lang:en|wc:3|cs:8836|v=4,Alpha Organics Clothing India,https://www.indiamart.com/alphaorganicsclothingindia/?pos=132&kwd=baby fur blanket&tags=||||8663.873|Price|product|||TS|rsf:gd-|-stype:attr=1|qr_nm:gd|res:RC4|com-cf:nl|ptrs:na|ktp:N0|mc:45550|mtp:S|qry_typ:P|lang:en|wc:3|cs:8836|v=4,True,Indiranagar,Bengaluru,"NO.3037,INDIRANAGAR,8TH MAIN ROAD, HAL 2ND STAGE,BANGALORE, Indiranagar, Bengaluru - 560038, Dist.Bengaluru, Karnataka",7942540831,
Plastic Baby Play Gym Hanging Toys,https://www.indiamart.com/proddetail/baby-play-gym-hanging-toys-2854208428973.html?pos=133&kwd=baby fur blanket&tags=||||8752.144|Price|product|||TS|rsf:gd-|-stype:attr=1|qr_nm:gd|res:RC4|com-cf:nl|ptrs:na|ktp:N0|mc:45550|mtp:S|qry_typ:P|lang:en|wc:3|cs:8836|v=4,Indial Premium Products,https://www.indiamart.com/indial-premium-products/?pos=133&kwd=baby fur blanket&tags=||||8752.144|Price|product|||TS|rsf:gd-|-stype:attr=1|qr_nm:gd|res:RC4|com-cf:nl|ptrs:na|ktp:N0|mc:45550|mtp:S|qry_typ:P|lang:en|wc:3|cs:8836|v=4,False,,New Delhi,"68, K Block, Jahangirpuri North West Delhi, New Delhi - 110033, Dist.Delhi, Delhi",8045732973,
"Cloudy Baby Blanket, Size: Singe",https://www.indiamart.com/proddetail/cloudy-baby-blanket-2851877609388.html?pos=134&kwd=baby fur blanket&tags=||||8747.203|Price|product|||TS|rsf:gd-|-stype:attr=1|qr_nm:gd|res:RC4|com-cf:nl|ptrs:na|ktp:N0|mc:45550|mtp:S|qry_typ:P|lang:en|wc:3|cs:8836|v=4,Shivam Handloom,https://www.indiamart.com/shivamhandloompanipat/?pos=134&kwd=baby fur blanket&tags=||||8747.203|Price|product|||TS|rsf:gd-|-stype:attr=1|qr_nm:gd|res:RC4|com-cf:nl|ptrs:na|ktp:N0|mc:45550|mtp:S|qry_typ:P|lang:en|wc:3|cs:8836|v=4,False,Sethi Chowk Area,Panipat,"Near Ramlilla Ground, Dawar Colony, Sethi Chowk Area, Panipat - 132103, Dist.Panipat, Haryana",7942544231,
Grey Polyester King Size Mink Blanket,https://www.indiamart.com/proddetail/king-size-mink-blanket-2853298634562.html?pos=135&kwd=baby fur blanket&tags=||||8747.203|Price|product|||MDC|rsf:gd-|-stype:attr=1|qr_nm:gd|res:RC4|com-cf:nl|ptrs:na|ktp:N0|mc:45550|mtp:S|qry_typ:P|lang:en|wc:3|cs:8836|v=4,Four Seasons Handloom,https://www.indiamart.com/fourseasons-handloom/?pos=135&kwd=baby fur blanket&tags=||||8747.203|Price|product|||MDC|rsf:gd-|-stype:attr=1|qr_nm:gd|res:RC4|com-cf:nl|ptrs:na|ktp:N0|mc:45550|mtp:S|qry_typ:P|lang:en|wc:3|cs:8836|v=4,False,Chowk,Panipat,"Shop No. R-182, Near Ram Mandir Gali, Amar Bhawan Chowk, Chowk, Panipat - 132103, Dist.Panipat, Haryana",7942707762,
Character Kids Poly Cotton Printed Double Bedsheet,https://www.indiamart.com/proddetail/kids-poly-cotton-printed-double-bedsheet-27358909733.html?pos=136&kwd=baby fur blanket&tags=||||8747.203|Price|product|||MDC|rsf:gd-|-stype:attr=1|qr_nm:gd|res:RC4|com-cf:nl|ptrs:na|ktp:N0|mc:45550|mtp:S|qry_typ:P|lang:en|wc:3|cs:8836|v=4,Satyam Handloom,https://www.indiamart.com/satyam-handloom-panipat/?pos=136&kwd=baby fur blanket&tags=||||8747.203|Price|product|||MDC|rsf:gd-|-stype:attr=1|qr_nm:gd|res:RC4|com-cf:nl|ptrs:na|ktp:N0|mc:45550|mtp:S|qry_typ:P|lang:en|wc:3|cs:8836|v=4,False,Ashok Vihar,Panipat,"Plot NO. 1, Ashok Vihar Colony, Ward 7, Prem Depot Wali Gali, Near Beri Wali Masjid, Ashok Vihar, Panipat - 132103, Dist.Panipat, Haryana",7942674657,
"Cotton Baby White Sleeping Bag, Newly Born",https://www.indiamart.com/proddetail/baby-white-sleeping-bag-2853468608188.html?pos=137&kwd=baby fur blanket&tags=||||8752.144|Price|product|||MDC|rsf:gd-|-stype:attr=1|qr_nm:gd|res:RC4|com-cf:nl|ptrs:na|ktp:N0|mc:45550|mtp:S|qry_typ:P|lang:en|wc:3|cs:8836|v=4,Kapil Enterprises,https://www.indiamart.com/kapilenterprisesnew-delhi/?pos=137&kwd=baby fur blanket&tags=||||8752.144|Price|product|||MDC|rsf:gd-|-stype:attr=1|qr_nm:gd|res:RC4|com-cf:nl|ptrs:na|ktp:N0|mc:45550|mtp:S|qry_typ:P|lang:en|wc:3|cs:8836|v=4,False,Vijay Vihar,New Delhi,"Ground Floor, E-25, Vijay Vihar, Near Badi Masjid, Rohini Sector 7, North West Delhi, Vijay Vihar, New Delhi - 110085, Dist.Delhi, Delhi",7949092118,
Plain Varahaa Exports Purple Single Bed Blanket,https://www.indiamart.com/proddetail/varahaa-exports-purple-single-bed-blanket-21579594873.html?pos=138&kwd=baby fur blanket&tags=||||8752.144|Price|product|||MDC|rsf:gd-|-stype:attr=1|qr_nm:gd|res:RC4|com-cf:nl|ptrs:na|ktp:N0|mc:45550|mtp:S|qry_typ:P|lang:en|wc:3|cs:8836|v=4,Varahaa Exports India Private Limited,https://www.indiamart.com/varahaa-exports-india/?pos=138&kwd=baby fur blanket&tags=||||8752.144|Price|product|||MDC|rsf:gd-|-stype:attr=1|qr_nm:gd|res:RC4|com-cf:nl|ptrs:na|ktp:N0|mc:45550|mtp:S|qry_typ:P|lang:en|wc:3|cs:8836|v=4,False,Sunder Vihar,New Delhi,"Ground Floor, H. No. 409, Block-12, Sunder Vihar and Paschim Vihar, Outer Ring Road, West Delhi, Sunder Vihar, New Delhi - 110087, Dist.Delhi, Delhi",8046040566,
Woolen Size: Single Pv New Born Baby Blanket,https://www.indiamart.com/proddetail/pv-new-born-baby-blanket-2854715122955.html?pos=139&kwd=baby fur blanket&tags=||||8661.854|Price|product|||MDC|rsf:gd-|-stype:attr=1|qr_nm:gd|res:RC4|com-cf:nl|ptrs:na|ktp:N0|mc:45550|mtp:S|qry_typ:P|lang:en|wc:3|cs:8836|v=4,Miglani Hosiery Factory,https://www.indiamart.com/miglani-hosiery-factory/?pos=139&kwd=baby fur blanket&tags=||||8661.854|Price|product|||MDC|rsf:gd-|-stype:attr=1|qr_nm:gd|res:RC4|com-cf:nl|ptrs:na|ktp:N0|mc:45550|mtp:S|qry_typ:P|lang:en|wc:3|cs:8836|v=4,False,,Ludhiana,"B-IV-524, Pansari Bazar, Ludhiana - 141008, Dist.Ludhiana, Punjab",7949324357,
Printed Baby Blanket,https://www.indiamart.com/proddetail/baby-blanket-22286603488.html?pos=140&kwd=baby fur blanket&tags=||||8211.142|Price|product|||TS|rsf:gd-|-stype:attr=1|qr_nm:gd|res:RC4|com-cf:nl|ptrs:na|ktp:N0|mc:45550|mtp:S|qry_typ:P|lang:en|wc:3|cs:8836|v=4,Mahalaxmi Textiles,https://www.indiamart.com/mahalaxmitextiles-maharashtra/?pos=140&kwd=baby fur blanket&tags=||||8211.142|Price|product|||TS|rsf:gd-|-stype:attr=1|qr_nm:gd|res:RC4|com-cf:nl|ptrs:na|ktp:N0|mc:45550|mtp:S|qry_typ:P|lang:en|wc:3|cs:8836|v=4,False,Kalbadevi,Mumbai,"R. No. 11, 1st Floor, 23 Lohia Sadan, Kalbadevi Road Borana, Kalbadevi, Mumbai - 400002, Dist.Mumbai, Maharashtra",7942535985,
Baby bedding quilt blanket set5in one,https://www.indiamart.com/proddetail/baby-bedding-quilt-blanket-set5in-one-2852624913733.html?pos=141&kwd=baby fur blanket&tags=||||8580.032|Price|product|||TS|rsf:gd-|-stype:attr=1|qr_nm:gd|res:RC4|com-cf:nl|ptrs:na|ktp:N0|mc:45550|mtp:S|qry_typ:P|lang:en|wc:3|cs:8836|v=4,Ritu Infants Care,https://www.indiamart.com/ritu-infants-care/?pos=141&kwd=baby fur blanket&tags=||||8580.032|Price|product|||TS|rsf:gd-|-stype:attr=1|qr_nm:gd|res:RC4|com-cf:nl|ptrs:na|ktp:N0|mc:45550|mtp:S|qry_typ:P|lang:en|wc:3|cs:8836|v=4,False,Sunder Nagar,Amritsar,"232, Tilak Nagar, Shivala Colony, Sunder Nagar, Amritsar - 143001, Dist.Amritsar, Punjab",7942712512,
Kids Room Decor Embroidered Handloomed Cotton Throw Blanket,https://www.indiamart.com/proddetail/kids-room-decor-embroidered-handloomed-cotton-throw-blanket-2854208375755.html?pos=142&kwd=baby fur blanket&tags=||||8601.347|Price|product|||TS|rsf:gd-|-stype:attr=1|qr_nm:gd|res:RC4|com-cf:nl|ptrs:na|ktp:N0|mc:45550|mtp:S|qry_typ:P|lang:en|wc:3|cs:8836|v=4,Trade Star Exports,https://www.tradestar.co.in/?pos=142&kwd=baby fur blanket&tags=||||8601.347|Price|product|||TS|rsf:gd-|-stype:attr=1|qr_nm:gd|res:RC4|com-cf:nl|ptrs:na|ktp:N0|mc:45550|mtp:S|qry_typ:P|lang:en|wc:3|cs:8836|v=4,True,,Jaipur,"H 1 1256, Riico Industrial Area, Sitapura,, Jaipur - 302022, Dist.Jaipur, Rajasthan",8046033994,
Pink Soft Baby Blanket,https://www.indiamart.com/proddetail/soft-baby-blanket-22756878488.html?pos=143&kwd=baby fur blanket&tags=||||8747.203|Price|product|||TS|rsf:gd-|-stype:attr=1|qr_nm:gd|res:RC4|com-cf:nl|ptrs:na|ktp:N0|mc:45550|mtp:S|qry_typ:P|lang:en|wc:3|cs:8836|v=4,Muskan Collections,https://www.indiamart.com/muskan-collections-haryana/?pos=143&kwd=baby fur blanket&tags=||||8747.203|Price|product|||TS|rsf:gd-|-stype:attr=1|qr_nm:gd|res:RC4|com-cf:nl|ptrs:na|ktp:N0|mc:45550|mtp:S|qry_typ:P|lang:en|wc:3|cs:8836|v=4,False,Kabul Bagh,Panipat,"GALI NO 3 UGRA KHERI MOD, Kabul Bagh, Panipat - 132103, Dist.Panipat, Haryana",8047633020,
Unisex Baby Carry Nest/Baby Sleeping Bag/Baby Wrap for Newborn Baby Boys Girls (0-3 Months),https://www.indiamart.com/proddetail/unisex-baby-carry-nest-baby-sleeping-bag-baby-wrap-for-newborn-baby-boys-girls-0-3-months-2852997270755.html?pos=144&kwd=baby fur blanket&tags=||||9842.824|Price|product|||TS|rsf:gd-|-stype:attr=1|qr_nm:gd|res:RC4|com-cf:nl|ptrs:na|ktp:N0|mc:45550|mtp:S|qry_typ:P|lang:en|wc:3|cs:8836|v=4,Indilittle Global Export,https://www.indiamart.com/indilittleglobalexport/?pos=144&kwd=baby fur blanket&tags=||||9842.824|Price|product|||TS|rsf:gd-|-stype:attr=1|qr_nm:gd|res:RC4|com-cf:nl|ptrs:na|ktp:N0|mc:45550|mtp:S|qry_typ:P|lang:en|wc:3|cs:8836|v=4,False,Haripal,Hooghly,"BRAHMANPARA, NALIKUL PASCHIM, HARIPAL, Haripal, Hooghly - 712405, Dist.Hooghly, West Bengal",8048977919,
Cotton Baby wrapper,https://www.indiamart.com/proddetail/baby-wrapper-20089869591.html?pos=145&kwd=baby fur blanket&tags=||||8211.142|Price|product|||MDC|rsf:gd-|-stype:attr=1|qr_nm:gd|res:RC4|com-cf:nl|ptrs:na|ktp:N0|mc:45550|mtp:S|qry_typ:P|lang:en|wc:3|cs:8836|v=4,Padam Kids,https://www.indiamart.com/padam-kids/?pos=145&kwd=baby fur blanket&tags=||||8211.142|Price|product|||MDC|rsf:gd-|-stype:attr=1|qr_nm:gd|res:RC4|com-cf:nl|ptrs:na|ktp:N0|mc:45550|mtp:S|qry_typ:P|lang:en|wc:3|cs:8836|v=4,False,,Mumbai,"CKP Colony, Near Dargah, Behind Dr. Manish Bhatt Eksar Road, Borivali West, Mumbai - 400092, Dist.Mumbai, Maharashtra",8046057613,
"Polyester Newborn Baby Brown Hooded Wrapper Towel, Size: Medium",https://www.indiamart.com/proddetail/newborn-baby-brown-hooded-wrapper-towel-2852544604291.html?pos=146&kwd=baby fur blanket&tags=||||8752.144|Price|product|||MDC|rsf:gd-|-stype:attr=1|qr_nm:gd|res:RC4|com-cf:nl|ptrs:na|ktp:N0|mc:45550|mtp:S|qry_typ:P|lang:en|wc:3|cs:8836|v=4,B N Hosiery,https://www.indiamart.com/bnhosiery/?pos=146&kwd=baby fur blanket&tags=||||8752.144|Price|product|||MDC|rsf:gd-|-stype:attr=1|qr_nm:gd|res:RC4|com-cf:nl|ptrs:na|ktp:N0|mc:45550|mtp:S|qry_typ:P|lang:en|wc:3|cs:8836|v=4,False,Ashok Vihar,New Delhi,"House No 130l, Block-E, Phase-1,Ashok, Vihar, Ashok Vihar, New Delhi - 110052, Dist.Delhi, Delhi",7942706809,
Navy Blue Velvet Baby Carry Bed,https://www.indiamart.com/proddetail/navy-blue-velvet-baby-carry-bed-2854853218233.html?pos=147&kwd=baby fur blanket&tags=||||8752.144|Price|product|||MDC|rsf:gd-|-stype:attr=1|qr_nm:gd|res:RC4|com-cf:nl|ptrs:na|ktp:N0|mc:45550|mtp:S|qry_typ:P|lang:en|wc:3|cs:8836|v=4,V P Product,https://www.indiamart.com/vpproduct/?pos=147&kwd=baby fur blanket&tags=||||8752.144|Price|product|||MDC|rsf:gd-|-stype:attr=1|qr_nm:gd|res:RC4|com-cf:nl|ptrs:na|ktp:N0|mc:45550|mtp:S|qry_typ:P|lang:en|wc:3|cs:8836|v=4,False,,New Delhi,"Ground Floor, H.No.- E-5/139, Gali No. - 5, East Gokal Pur, North East Delhi, New Delhi - 110094, Dist.Delhi, Delhi",8044460681,
"Multicolor Cotton Baby Sleeping Bags, Newly Born",https://www.indiamart.com/proddetail/baby-sleeping-bags-2853966594733.html?pos=148&kwd=baby fur blanket&tags=||||8228.275|Price|product|||MDC|rsf:gd-|-stype:attr=1|qr_nm:gd|res:RC4|com-cf:nl|ptrs:na|ktp:N0|mc:45550|mtp:S|qry_typ:P|lang:en|wc:3|cs:8836|v=4,Mahalaxmi Babycare Products LLP,https://www.indiamart.com/mahalaxmibabycareproducts/?pos=148&kwd=baby fur blanket&tags=||||8228.275|Price|product|||MDC|rsf:gd-|-stype:attr=1|qr_nm:gd|res:RC4|com-cf:nl|ptrs:na|ktp:N0|mc:45550|mtp:S|qry_typ:P|lang:en|wc:3|cs:8836|v=4,False,Bapunagar,Ahmedabad,"Survey No. 00697/4585, B No 697/4585 Gujarat Hou Board, Bapunagar, Bapunagar, Ahmedabad - 382424, Dist.Ahmedabad, Gujarat",8047787256,
Printed Size: Single Organic Muslin Swaddles 100-100cms,https://www.indiamart.com/proddetail/muslin-printed-baby-blanket-2848990627133.html?pos=149&kwd=baby fur blanket&tags=||||8626.744|Price|product|||MDC|rsf:gd-|-stype:attr=1|qr_nm:gd|res:RC4|com-cf:nl|ptrs:na|ktp:N0|mc:45550|mtp:S|qry_typ:P|lang:en|wc:3|cs:8836|v=4,Bawse Baby,https://www.indiamart.com/bawseebaby/?pos=149&kwd=baby fur blanket&tags=||||8626.744|Price|product|||MDC|rsf:gd-|-stype:attr=1|qr_nm:gd|res:RC4|com-cf:nl|ptrs:na|ktp:N0|mc:45550|mtp:S|qry_typ:P|lang:en|wc:3|cs:8836|v=4,False,,Tiruppur,"1/125A Semmetuth Thottam, Kulathuputhur, Andipalayam, Tiruppur - 641687, Dist.Coimbatore, Tamil Nadu",8047552265,
"Charlie Printed Hooded Baby Blanket, Size: Large",https://www.indiamart.com/proddetail/hooded-baby-blanket-16496894130.html?pos=150&kwd=baby fur blanket&tags=||||8747.203|Price|product|||TS|rsf:gd-|-stype:attr=1|qr_nm:gd|res:RC4|com-cf:nl|ptrs:na|ktp:N0|mc:45550|mtp:S|qry_typ:P|lang:en|wc:3|cs:8836|v=4,Hari Anchal Handloom,https://www.indiamart.com/harianchal-handloom/?pos=150&kwd=baby fur blanket&tags=||||8747.203|Price|product|||TS|rsf:gd-|-stype:attr=1|qr_nm:gd|res:RC4|com-cf:nl|ptrs:na|ktp:N0|mc:45550|mtp:S|qry_typ:P|lang:en|wc:3|cs:8836|v=4,False,Panipat,Panipat,"No. 814/3, Near Prem Mandir, Pachranga Bazar 814/3, Near Prem Mandir Panipat, Panipat, Panipat - 132103, Dist.Panipat, Haryana",8048961474,
"Pink Fleece POLO D/P BABY BLANKET, Size: Singe",https://www.indiamart.com/proddetail/polo-d-p-baby-blanket-2850415615630.html?pos=151&kwd=baby fur blanket&tags=||||8747.203|Price|product|||TS|rsf:gd-|-stype:attr=1|qr_nm:gd|res:RC4|com-cf:nl|ptrs:na|ktp:N0|mc:45550|mtp:S|qry_typ:P|lang:en|wc:3|cs:8836|v=4,Paras Blanket,https://www.parasblanket.com/?pos=151&kwd=baby fur blanket&tags=||||8747.203|Price|product|||TS|rsf:gd-|-stype:attr=1|qr_nm:gd|res:RC4|com-cf:nl|ptrs:na|ktp:N0|mc:45550|mtp:S|qry_typ:P|lang:en|wc:3|cs:8836|v=4,False,Old Housing Board Colony,Panipat,"Shop No. 1, 2, 3, New Pachranga Market Pachranga Bazar, Old Housing Board Colony, Panipat - 132103, Dist.Panipat, Haryana",8048968656,
Printed Multicolor Kids Baby Blanket,https://www.indiamart.com/proddetail/kids-baby-blanket-24419932297.html?pos=152&kwd=baby fur blanket&tags=||||8788.382|Price|product|||TS|rsf:gd-|-stype:attr=1|qr_nm:gd|res:RC4|com-cf:nl|ptrs:na|ktp:N0|mc:45550|mtp:S|qry_typ:P|lang:en|wc:3|cs:8836|v=4,CLOVER (A Brand of Delhi Garments Private Limited),https://www.indiamart.com/delhigarments/?pos=152&kwd=baby fur blanket&tags=||||8788.382|Price|product|||TS|rsf:gd-|-stype:attr=1|qr_nm:gd|res:RC4|com-cf:nl|ptrs:na|ktp:N0|mc:45550|mtp:S|qry_typ:P|lang:en|wc:3|cs:8836|v=4,False,,Greater Noida,"43 Block C Sector 88, Greater Noida - 201306, Dist.Gautam Budh Nagar, Uttar Pradesh",8048265597,
Red Size: Single Printed Woolen Baby Blanket,https://www.indiamart.com/proddetail/printed-woolen-baby-blanket-26719394888.html?pos=153&kwd=baby fur blanket&tags=||||8790.945|Price|product|||MDC|rsf:gd-|-stype:attr=1|qr_nm:gd|res:RC4|com-cf:nl|ptrs:na|ktp:N0|mc:45550|mtp:S|qry_typ:P|lang:en|wc:3|cs:8836|v=4,Luxmi Cloth House,https://www.indiamart.com/luxmi-cloth-housebilaspur/?pos=153&kwd=baby fur blanket&tags=||||8790.945|Price|product|||MDC|rsf:gd-|-stype:attr=1|qr_nm:gd|res:RC4|com-cf:nl|ptrs:na|ktp:N0|mc:45550|mtp:S|qry_typ:P|lang:en|wc:3|cs:8836|v=4,False,,Bilaspur,"Main Bazar, Bilaspur - 135102, Haryana",8041015143,
Mink Hetvik Enterprises Baby Blanket,https://www.indiamart.com/proddetail/hetvik-enterprises-baby-blanket-24680021597.html?pos=154&kwd=baby fur blanket&tags=||||8747.203|Price|product|||TS|rsf:gd-|-stype:attr=1|qr_nm:gd|res:RC4|com-cf:nl|ptrs:na|ktp:N0|mc:45550|mtp:S|qry_typ:P|lang:en|wc:3|cs:8836|v=4,Hetvik Enterprise,https://www.indiamart.com/hetvik-enterprise/?pos=154&kwd=baby fur blanket&tags=||||8747.203|Price|product|||TS|rsf:gd-|-stype:attr=1|qr_nm:gd|res:RC4|com-cf:nl|ptrs:na|ktp:N0|mc:45550|mtp:S|qry_typ:P|lang:en|wc:3|cs:8836|v=4,False,Kawi,Panipat,"Office No-1, Basement, Preet Tower, Tau Devi Lal Complex,, Kawi, Panipat - 132103, Dist.Panipat, Haryana",8046065237,
Size: Double blue Printed Fur Blanket,https://www.indiamart.com/proddetail/printed-fur-blanket-2854504680948.html?pos=155&kwd=baby fur blanket&tags=||||8601.347|Price|product|||MDC|rsf:gd-|-stype:attr=1|qr_nm:gd|res:RC4|com-cf:nl|ptrs:na|ktp:N0|mc:45550|mtp:S|qry_typ:P|lang:en|wc:3|cs:8836|v=4,Hemakas Clothings,https://www.indiamart.com/hemakasclothings/?pos=155&kwd=baby fur blanket&tags=||||8601.347|Price|product|||MDC|rsf:gd-|-stype:attr=1|qr_nm:gd|res:RC4|com-cf:nl|ptrs:na|ktp:N0|mc:45550|mtp:S|qry_typ:P|lang:en|wc:3|cs:8836|v=4,False,Bani Park,Jaipur,"H-60 B, Meera Marg Bani Park,, Bani Park, Jaipur - 302016, Dist.Jaipur, Rajasthan",7942621001,
Blue Ac Blanket,https://www.indiamart.com/proddetail/ac-blanket-25459703412.html?pos=156&kwd=baby fur blanket&tags=||||8876.815|Price|product|||MDC|rsf:gd-|-stype:attr=1|qr_nm:gd|res:RC4|com-cf:nl|ptrs:na|ktp:N0|mc:45550|mtp:S|qry_typ:P|lang:en|wc:3|cs:8836|v=4,Jai Ganesh Handloom Haveli,https://www.indiamart.com/jaiganeshhandloomhaveli/?pos=156&kwd=baby fur blanket&tags=||||8876.815|Price|product|||MDC|rsf:gd-|-stype:attr=1|qr_nm:gd|res:RC4|com-cf:nl|ptrs:na|ktp:N0|mc:45550|mtp:S|qry_typ:P|lang:en|wc:3|cs:8836|v=4,False,Lalganj,Nagpur,"Bhumi Complex, Shop No. 3 & 4, Ground Floor,Behind Khamlele Chamber, itwari, Lalganj, Nagpur - 440002, Dist.Nagpur, Maharashtra",8047619922,
"Pale Lavender Baby Cotton Sleeping Bag, Newly Born",https://www.indiamart.com/proddetail/baby-cotton-sleeping-bag-2854184919691.html?pos=157&kwd=baby fur blanket&tags=||||8228.275|Price|product|||MDC|rsf:gd-|-stype:attr=1|qr_nm:gd|res:RC4|com-cf:nl|ptrs:na|ktp:N0|mc:45550|mtp:S|qry_typ:P|lang:en|wc:3|cs:8836|v=4,Ramchand Tilumal,https://www.indiamart.com/ramchandtilumal/?pos=157&kwd=baby fur blanket&tags=||||8228.275|Price|product|||MDC|rsf:gd-|-stype:attr=1|qr_nm:gd|res:RC4|com-cf:nl|ptrs:na|ktp:N0|mc:45550|mtp:S|qry_typ:P|lang:en|wc:3|cs:8836|v=4,False,Kalupur,Ahmedabad,"S-117, Sindhi Market, Revdi Bazar, Kalupur, Kalupur, Ahmedabad - 380001, Dist.Ahmedabad, Gujarat",8045731988,
"Fleece Mutli Colour Soft Toy Cum Blanket, Size: Singe",https://www.indiamart.com/proddetail/soft-toy-cum-blanket-2852135479048.html?pos=158&kwd=baby fur blanket&tags=||||8752.144|Price|product|||MDC|rsf:gd-|-stype:attr=1|qr_nm:gd|res:RC4|com-cf:nl|ptrs:na|ktp:N0|mc:45550|mtp:S|qry_typ:P|lang:en|wc:3|cs:8836|v=4,L T Textiles,https://www.indiamart.com/lttextiles/?pos=158&kwd=baby fur blanket&tags=||||8752.144|Price|product|||MDC|rsf:gd-|-stype:attr=1|qr_nm:gd|res:RC4|com-cf:nl|ptrs:na|ktp:N0|mc:45550|mtp:S|qry_typ:P|lang:en|wc:3|cs:8836|v=4,False,Pahari Dhiraj,New Delhi,"5189-90 Main Road, Sadar Bazar, Pahari Dhiraj, New Delhi - 110006, Dist.Delhi, Delhi",7942958455,
Polyester Blue Sleeping Bag,https://www.indiamart.com/proddetail/blue-sleeping-bag-2849739025412.html?pos=159&kwd=baby fur blanket&tags=||||8752.144||product|||MDC|rsf:gd-|-stype:attr=1|qr_nm:gd|res:RC4|com-cf:nl|ptrs:na|ktp:N0|mc:45550|mtp:S|qry_typ:P|lang:en|wc:3|cs:8836|v=4,Jaidka Enterprises,https://www.indiamart.com/jaidka-enterprises-delhi/?pos=159&kwd=baby fur blanket&tags=||||8752.144||product|||MDC|rsf:gd-|-stype:attr=1|qr_nm:gd|res:RC4|com-cf:nl|ptrs:na|ktp:N0|mc:45550|mtp:S|qry_typ:P|lang:en|wc:3|cs:8836|v=4,False,Rohini,New Delhi,"House No, Pul Pheladpur, Rohini, New Delhi - 110044, Dist.Delhi, Delhi",7942795311,
Blue Cotton Baby Sleeping Bag,https://www.indiamart.com/proddetail/blue-cotton-baby-sleeping-bag-2854178036273.html?pos=160&kwd=baby fur blanket&tags=||||8752.144|Price|product|||MDC|rsf:gd-|-stype:attr=1|qr_nm:gd|res:RC4|com-cf:nl|ptrs:na|ktp:N0|mc:45550|mtp:S|qry_typ:P|lang:en|wc:3|cs:8836|v=4,Komal Embroidery,https://www.indiamart.com/komal-embroidery-newdelhi/?pos=160&kwd=baby fur blanket&tags=||||8752.144|Price|product|||MDC|rsf:gd-|-stype:attr=1|qr_nm:gd|res:RC4|com-cf:nl|ptrs:na|ktp:N0|mc:45550|mtp:S|qry_typ:P|lang:en|wc:3|cs:8836|v=4,False,Rithala,New Delhi,"Ground Floor, Shop No. PVT-3, KH No. 1203, Lal Doora Village Rithala Near Surya Hotel, Rithala, New Delhi - 110085, Dist.Delhi, Delhi",8045730251,
Hooded Baby Blanket,https://www.indiamart.com/proddetail/hooded-baby-blanket-2854848143312.html?pos=161&kwd=baby fur blanket&tags=||||8747.203|Price|product|||MDC|rsf:gd-|-stype:attr=1|qr_nm:gd|res:RC4|com-cf:nl|ptrs:na|ktp:N0|mc:45550|mtp:S|qry_typ:P|lang:en|wc:3|cs:8836|v=4,Delite Home Furnishings,https://www.indiamart.com/delitehomefurnishings/?pos=161&kwd=baby fur blanket&tags=||||8747.203|Price|product|||MDC|rsf:gd-|-stype:attr=1|qr_nm:gd|res:RC4|com-cf:nl|ptrs:na|ktp:N0|mc:45550|mtp:S|qry_typ:P|lang:en|wc:3|cs:8836|v=4,False,Chowk,Panipat,"First Floor, H.No 1629, SEC 11, Near Sai Baba Chowk, Back Side of Pruthi Hospital, NHBC Sector 11, Chowk, Panipat - 132103, Dist.Panipat, Haryana",7942969606,
Cotton Mulmul Multicolor Hooded Baby Blanket,https://www.indiamart.com/proddetail/hooded-baby-blanket-2854988062273.html?pos=162&kwd=baby fur blanket&tags=||||8364.597|Price|product|||MDC|rsf:gd-|-stype:attr=1|qr_nm:gd|res:RC4|com-cf:nl|ptrs:na|ktp:N0|mc:45550|mtp:S|qry_typ:P|lang:en|wc:3|cs:8836|v=4,Mohammedi Hosiery,https://www.indiamart.com/mohammedi-hosiery/?pos=162&kwd=baby fur blanket&tags=||||8364.597|Price|product|||MDC|rsf:gd-|-stype:attr=1|qr_nm:gd|res:RC4|com-cf:nl|ptrs:na|ktp:N0|mc:45550|mtp:S|qry_typ:P|lang:en|wc:3|cs:8836|v=4,False,,Udaipur,"115, Bapur Bazar, Udaipur - 313001, Rajasthan",7949331447,
"Sherpa And Polo Fabric Red Printed Hooded Baby Blanket, Size: 30x30cm(LXW)",https://www.indiamart.com/proddetail/red-printed-hooded-baby-blanket-2851749340048.html?pos=163&kwd=baby fur blanket&tags=||||8661.854|Price|product|||MDC|rsf:gd-|-stype:attr=1|qr_nm:gd|res:RC4|com-cf:nl|ptrs:na|ktp:N0|mc:45550|mtp:S|qry_typ:P|lang:en|wc:3|cs:8836|v=4,S.R Woollen Textile,https://www.indiamart.com/srwoollentextile/?pos=163&kwd=baby fur blanket&tags=||||8661.854|Price|product|||MDC|rsf:gd-|-stype:attr=1|qr_nm:gd|res:RC4|com-cf:nl|ptrs:na|ktp:N0|mc:45550|mtp:S|qry_typ:P|lang:en|wc:3|cs:8836|v=4,False,Old Ludhiana,Ludhiana,"435, Chauri Sarak, Bazzrian Mohalla, Old Ludhiana, Ludhiana - 141008, Dist.Ludhiana, Punjab",7942873909,
"Woolen Blue Baby Blanket, Size: Singe",https://www.indiamart.com/proddetail/baby-blanket-24208054988.html?pos=164&kwd=baby fur blanket&tags=||||8747.203|Price|product|||TS|rsf:gd-|-stype:attr=1|qr_nm:gd|res:RC4|com-cf:nl|ptrs:na|ktp:N0|mc:45550|mtp:S|qry_typ:P|lang:en|wc:3|cs:8836|v=4,Ambay Enterprises,https://www.crafteal.in/?pos=164&kwd=baby fur blanket&tags=||||8747.203|Price|product|||TS|rsf:gd-|-stype:attr=1|qr_nm:gd|res:RC4|com-cf:nl|ptrs:na|ktp:N0|mc:45550|mtp:S|qry_typ:P|lang:en|wc:3|cs:8836|v=4,False,Colony,Panipat,"Near Guru Medical Store H/N 2270 Wadhawa Ram Colony, Colony, Panipat - 132103, Dist.Panipat, Haryana",7949092116,
"Cotton Multicolor Printed Baby Blanket, Size: Singe",https://www.indiamart.com/proddetail/printed-baby-blanket-2850870920488.html?pos=165&kwd=baby fur blanket&tags=||||8747.203|Price|product|||TS|rsf:gd-|-stype:attr=1|qr_nm:gd|res:RC4|com-cf:nl|ptrs:na|ktp:N0|mc:45550|mtp:S|qry_typ:P|lang:en|wc:3|cs:8836|v=4,Siya Ram Enterprises,https://www.indiamart.com/siyaram-enterprises-panipat/?pos=165&kwd=baby fur blanket&tags=||||8747.203|Price|product|||TS|rsf:gd-|-stype:attr=1|qr_nm:gd|res:RC4|com-cf:nl|ptrs:na|ktp:N0|mc:45550|mtp:S|qry_typ:P|lang:en|wc:3|cs:8836|v=4,False,Huda,Panipat,"Gali Number 3, Near Ahuja Furniture Sanoli Road, Huda, Panipat - 132103, Dist.Panipat, Haryana",8048959822,
Cartoon Blue Printed Baby Blanket,https://www.indiamart.com/proddetail/blue-printed-baby-blanket-23897595133.html?pos=166&kwd=baby fur blanket&tags=||||8752.144|Price|product|||MDC|rsf:gd-|-stype:attr=1|qr_nm:gd|res:RC4|com-cf:nl|ptrs:na|ktp:N0|mc:45550|mtp:S|qry_typ:P|lang:en|wc:3|cs:8836|v=4,Kidz Creation,https://www.indiamart.com/kidzcreation/?pos=166&kwd=baby fur blanket&tags=||||8752.144|Price|product|||MDC|rsf:gd-|-stype:attr=1|qr_nm:gd|res:RC4|com-cf:nl|ptrs:na|ktp:N0|mc:45550|mtp:S|qry_typ:P|lang:en|wc:3|cs:8836|v=4,False,,New Delhi,"Shop No. 279/517,Sabharwal Market, Tolia Wali Gali Sadar Bazar, North Delhi,, New Delhi - 110006, Dist.Delhi, Delhi",8047679212,
Cloudy Embossed Kids Blankets,https://www.indiamart.com/proddetail/cloudy-embossed-kids-blankets-2854510549697.html?pos=167&kwd=baby fur blanket&tags=||||8230.883|Price|product|||TS|rsf:gd-|-stype:attr=1|qr_nm:gd|res:RC4|com-cf:nl|ptrs:na|ktp:N0|mc:45550|mtp:S|qry_typ:P|lang:en|wc:3|cs:8836|v=4,BABYHOLIC,https://www.babyholic.in/?pos=167&kwd=baby fur blanket&tags=||||8230.883|Price|product|||TS|rsf:gd-|-stype:attr=1|qr_nm:gd|res:RC4|com-cf:nl|ptrs:na|ktp:N0|mc:45550|mtp:S|qry_typ:P|lang:en|wc:3|cs:8836|v=4,False,,Surat,"Ground Floor, Plot No. F/56/, And F/57, Laxmi Narayan Industrial Estate, Udhana, Kailash Fashion, Surat - 394210, Dist.Surat, Gujarat",8045732096,
"satya Pink Printed Baby Blanket, 5, Size: 50/150",https://www.indiamart.com/proddetail/baby-printed-blanket-23527179391.html?pos=168&kwd=baby fur blanket&tags=||||8747.203|Price|product|||TS|rsf:gd-|-stype:attr=1|qr_nm:gd|res:RC4|com-cf:nl|ptrs:na|ktp:N0|mc:45550|mtp:S|qry_typ:P|lang:en|wc:3|cs:8836|v=4,Satya Textile,https://www.indiamart.com/satyatextile/?pos=168&kwd=baby fur blanket&tags=||||8747.203|Price|product|||TS|rsf:gd-|-stype:attr=1|qr_nm:gd|res:RC4|com-cf:nl|ptrs:na|ktp:N0|mc:45550|mtp:S|qry_typ:P|lang:en|wc:3|cs:8836|v=4,False,Netaji Colony,Panipat,"SHOP No. 324/7, SETHI Chowk,NEAR LOTUS HOSPITAL FACTORY KUTANI ROAD, Netaji Colony, Panipat - 132103, Dist.Panipat, Haryana",8046062202,
"Organic Cotton Baby Muslin Swaddle, 0-2 Years, Mat Size: Custom",https://www.indiamart.com/proddetail/organic-cotton-baby-muslin-swaddle-14116291897.html?pos=169&kwd=baby fur blanket&tags=||||8668.838|Price|product|||TS|rsf:gd-|-stype:attr=1|qr_nm:gd|res:RC4|com-cf:nl|ptrs:na|ktp:N0|mc:45550|mtp:S|qry_typ:P|lang:en|wc:3|cs:8836|v=4,Sri Kalyan Export Private Limited,https://www.kitchenlinens.in/?pos=169&kwd=baby fur blanket&tags=||||8668.838|Price|product|||TS|rsf:gd-|-stype:attr=1|qr_nm:gd|res:RC4|com-cf:nl|ptrs:na|ktp:N0|mc:45550|mtp:S|qry_typ:P|lang:en|wc:3|cs:8836|v=4,True,Vilarasampatti,Erode,"No. 192/4, Iswarya Garden Sengodanpalayam, Vilarasampatti, Erode - 638107, Dist.Erode, Tamil Nadu",8048983341,
"Cotton White Baby Swaddle Wrap, Size: Medium",https://www.indiamart.com/proddetail/baby-swaddle-wrap-2853100102555.html?pos=170&kwd=baby fur blanket&tags=||||8734.695|Price|product|||TS|rsf:gd-|-stype:attr=1|qr_nm:gd|res:RC4|com-cf:nl|ptrs:na|ktp:N0|mc:45550|mtp:S|qry_typ:P|lang:en|wc:3|cs:8836|v=4,Welcome Polymers India Private Limited,https://www.welcomepolymers.com/?pos=170&kwd=baby fur blanket&tags=||||8734.695|Price|product|||TS|rsf:gd-|-stype:attr=1|qr_nm:gd|res:RC4|com-cf:nl|ptrs:na|ktp:N0|mc:45550|mtp:S|qry_typ:P|lang:en|wc:3|cs:8836|v=4,False,Sector 17,Bahadurgarh,"Plot No.270, Sector 17, Sector 17, Bahadurgarh - 124507, Dist.Jhajjar, Haryana",8048986357,
"Baby Sleeping Bed, Newly Born",https://www.indiamart.com/proddetail/baby-sleeping-bed-2852778198188.html?pos=171&kwd=baby fur blanket&tags=||||8626.744|Price|product|||TS|rsf:gd-|-stype:attr=1|qr_nm:gd|res:RC4|com-cf:nl|ptrs:na|ktp:N0|mc:45550|mtp:S|qry_typ:P|lang:en|wc:3|cs:8836|v=4,Sudarshaan Impex,https://www.indiamart.com/sudarshaan-impex/?pos=171&kwd=baby fur blanket&tags=||||8626.744|Price|product|||TS|rsf:gd-|-stype:attr=1|qr_nm:gd|res:RC4|com-cf:nl|ptrs:na|ktp:N0|mc:45550|mtp:S|qry_typ:P|lang:en|wc:3|cs:8836|v=4,False,Jeeva Nagar,Tiruppur,"No.8/398C, Selvalakshmi nagar, 1st street, Angeri palayam, Jeeva Nagar, Tiruppur - 641603, Dist.Coimbatore, Tamil Nadu",8046077280,
SS 2 Cotton Comforters,https://www.indiamart.com/proddetail/cotton-comforters-2853998489955.html?pos=172&kwd=baby fur blanket&tags=||||8747.203|Price|product|||TS|rsf:gd-|-stype:attr=1|qr_nm:gd|res:RC4|com-cf:nl|ptrs:na|ktp:N0|mc:45550|mtp:S|qry_typ:P|lang:en|wc:3|cs:8836|v=4,GNK Enterprises,https://www.gnkenterprises.in/?pos=172&kwd=baby fur blanket&tags=||||8747.203|Price|product|||TS|rsf:gd-|-stype:attr=1|qr_nm:gd|res:RC4|com-cf:nl|ptrs:na|ktp:N0|mc:45550|mtp:S|qry_typ:P|lang:en|wc:3|cs:8836|v=4,False,Panipat N.S.M.,Panipat,"Shop No. 219, New Sabji Mandi, Panipat N.S.M., Panipat - 132103, Dist.Panipat, Haryana",8048610352,
Blue & White Cotton 3D Mesh Baby Wraps Carrier,https://www.indiamart.com/proddetail/3d-mesh-baby-wraps-carrier-2852154884197.html?pos=173&kwd=baby fur blanket&tags=||||8230.883|Price|product|||TS|rsf:gd-|-stype:attr=1|qr_nm:gd|res:RC4|com-cf:nl|ptrs:na|ktp:N0|mc:45550|mtp:S|qry_typ:P|lang:en|wc:3|cs:8836|v=4,Trendeasy,https://www.indiamart.com/trendeasy/?pos=173&kwd=baby fur blanket&tags=||||8230.883|Price|product|||TS|rsf:gd-|-stype:attr=1|qr_nm:gd|res:RC4|com-cf:nl|ptrs:na|ktp:N0|mc:45550|mtp:S|qry_typ:P|lang:en|wc:3|cs:8836|v=4,False,Katargam,Surat,"Flat No. E/108, 1st Floor, Suman Sath, Ews-14, B/S Ambyvalley Heights, Utran, Katargam, Surat - 394101, Dist.Surat, Gujarat",8048272248,
Baby Printed Comforters,https://www.indiamart.com/proddetail/baby-printed-comforters-23969871988.html?pos=174&kwd=baby fur blanket&tags=||||8601.347|Price|product|||TS|rsf:gd-|-stype:attr=1|qr_nm:gd|res:RC4|com-cf:nl|ptrs:na|ktp:N0|mc:45550|mtp:S|qry_typ:P|lang:en|wc:3|cs:8836|v=4,Ramanand Industries,https://www.ramanandindustries.com/?pos=174&kwd=baby fur blanket&tags=||||8601.347|Price|product|||TS|rsf:gd-|-stype:attr=1|qr_nm:gd|res:RC4|com-cf:nl|ptrs:na|ktp:N0|mc:45550|mtp:S|qry_typ:P|lang:en|wc:3|cs:8836|v=4,False,Mukundpura,Jaipur,"RIICO Industrial Area, F-151, Village Heerawala, Mukundpura, Jaipur - 303012, Dist.Jaipur, Rajasthan",8048986941,
Cotton Printed Hand Block Print Baby Quilt Crib Cot,https://www.indiamart.com/proddetail/hand-block-print-baby-quilt-crib-cot-22396507088.html?pos=175&kwd=baby fur blanket&tags=||||8601.347|Price|product|||TS|rsf:gd-|-stype:attr=1|qr_nm:gd|res:RC4|com-cf:nl|ptrs:na|ktp:N0|mc:45550|mtp:S|qry_typ:P|lang:en|wc:3|cs:8836|v=4,Shree Handicrafts And Textile,https://www.craftofpinkcity.co.in/?pos=175&kwd=baby fur blanket&tags=||||8601.347|Price|product|||TS|rsf:gd-|-stype:attr=1|qr_nm:gd|res:RC4|com-cf:nl|ptrs:na|ktp:N0|mc:45550|mtp:S|qry_typ:P|lang:en|wc:3|cs:8836|v=4,True,Sita Ram Colony,Jaipur,"Plot No 20 -21, 80 Ft Road, Chhabra Marg opp. Sita Devi Hospital, Hawa Sadak, Sita Ram Colony, Jaipur - 302019, Dist.Jaipur, Rajasthan",8046035658,
"RJ Enterprise MULTY Baby Bed, Sleeping Bag & Carry Nest, Cotton Baby Bedding, Packaging Type: Box, 0-2 YEAR",https://www.indiamart.com/proddetail/baby-bed-sleeping-bag-carry-nest-cotton-baby-bedding-2851723659591.html?pos=176&kwd=baby fur blanket&tags=||||8230.883|Price|product|||TS|rsf:gd-|-stype:attr=1|qr_nm:gd|res:RC4|com-cf:nl|ptrs:na|ktp:N0|mc:45550|mtp:S|qry_typ:P|lang:en|wc:3|cs:8836|v=4,RJ Enterprise,https://www.indiamart.com/rj-enterprise-surat/?pos=176&kwd=baby fur blanket&tags=||||8230.883|Price|product|||TS|rsf:gd-|-stype:attr=1|qr_nm:gd|res:RC4|com-cf:nl|ptrs:na|ktp:N0|mc:45550|mtp:S|qry_typ:P|lang:en|wc:3|cs:8836|v=4,False,Katargam,Surat,"134, Sahjanand Society, N/R Arogyakendra, Katargam, Katargam, Surat - 395004, Dist.Surat, Gujarat",7942555306,
"Mix Colour Plain Keara Fleece Blanket, Packaging Type: Normal, Size: 90X100",https://www.indiamart.com/proddetail/keara-fleece-blanket-2850517234730.html?pos=177&kwd=baby fur blanket&tags=||||8747.203||product|||TS|rsf:gd-|-stype:attr=1|qr_nm:gd|res:RC4|com-cf:nl|ptrs:na|ktp:N0|mc:45550|mtp:S|qry_typ:P|lang:en|wc:3|cs:8836|v=4,Mayur Home,https://www.mayurhome.com/?pos=177&kwd=baby fur blanket&tags=||||8747.203||product|||TS|rsf:gd-|-stype:attr=1|qr_nm:gd|res:RC4|com-cf:nl|ptrs:na|ktp:N0|mc:45550|mtp:S|qry_typ:P|lang:en|wc:3|cs:8836|v=4,False,Sector 25,Panipat,"85-86, Sector 25, Part -1 HUDA, Sector 25, Panipat - 132103, Dist.Panipat, Haryana",7942801518,
"Cotton Baby Wrapper, Newly Born",https://www.indiamart.com/proddetail/baby-wrapper-2854122325091.html?pos=178&kwd=baby fur blanket&tags=||||8626.744|Price|product|||TS|rsf:gd-|-stype:attr=1|qr_nm:gd|res:RC4|com-cf:nl|ptrs:na|ktp:N0|mc:45550|mtp:S|qry_typ:P|lang:en|wc:3|cs:8836|v=4,Richie International,https://www.indiamart.com/richieinternational/?pos=178&kwd=baby fur blanket&tags=||||8626.744|Price|product|||TS|rsf:gd-|-stype:attr=1|qr_nm:gd|res:RC4|com-cf:nl|ptrs:na|ktp:N0|mc:45550|mtp:S|qry_typ:P|lang:en|wc:3|cs:8836|v=4,False,Nallur,Tiruppur,"48 Csi Colony, Nallur, Vijayapuram Post vijayapuram kangayam road, Nallur, Tiruppur - 641606, Dist.Coimbatore, Tamil Nadu",8047698456,
"Sky blue Plain Baby Fur Blanket, Size: Small, 1year To 3year",https://www.indiamart.com/proddetail/baby-fur-blanket-23946785062.html?pos=179&kwd=baby fur blanket&tags=CC||||8799.744|Price|product|||NA|rsf:gd-|-stype:attr=1|qr_nm:gd|res:RC4|com-cf:nl|ptrs:na|ktp:N0|mc:45550|mtp:S|qry_typ:P|lang:en|wc:3|cs:8836|v=4,Goel Textile,https://www.indiamart.com/goel-texttile/?pos=179&kwd=baby fur blanket&tags=CC||||8799.744|Price|product|||NA|rsf:gd-|-stype:attr=1|qr_nm:gd|res:RC4|com-cf:nl|ptrs:na|ktp:N0|mc:45550|mtp:S|qry_typ:P|lang:en|wc:3|cs:8836|v=4,False,Modinagar,Modinagar,"Street No. 3 ,c Block Tibra Road, Modinagar, Modinagar, Modinagar - 201204, Dist.Ghaziabad, Uttar Pradesh",8048250451,441
"Cushion Villa Multicolor Baby Fur Blanket, Size: 46*36 Inch",https://www.indiamart.com/proddetail/baby-fur-blanket-24295407633.html?pos=180&kwd=baby fur blanket&tags=CC||||8230.883|Price|product|||NA|rsf:gd-|-stype:attr=1|qr_nm:gd|res:RC4|com-cf:nl|ptrs:na|ktp:N0|mc:45550|mtp:S|qry_typ:P|lang:en|wc:3|cs:8836|v=4,Cushion Villa,https://www.indiamart.com/cushion-villa/?pos=180&kwd=baby fur blanket&tags=CC||||8230.883|Price|product|||NA|rsf:gd-|-stype:attr=1|qr_nm:gd|res:RC4|com-cf:nl|ptrs:na|ktp:N0|mc:45550|mtp:S|qry_typ:P|lang:en|wc:3|cs:8836|v=4,False,Aambatalavdi,Surat,"304,Zircon Plus, Opp Avalon Business Centre, Katargam, Aambatalavdi, Surat - 395004, Dist.Surat, Gujarat",8047797428,
Baby Fur Blanket,https://www.indiamart.com/proddetail/baby-fur-blanket-2854348071612.html?pos=181&kwd=baby fur blanket&tags=CC||||8211.142|Price|product|||NA|rsf:gd-|-stype:attr=1|qr_nm:gd|res:RC4|com-cf:nl|ptrs:na|ktp:N0|mc:45550|mtp:S|qry_typ:P|lang:en|wc:3|cs:8836|v=4,Binaca Baby Care,https://www.indiamart.com/binaca-baby-care/?pos=181&kwd=baby fur blanket&tags=CC||||8211.142|Price|product|||NA|rsf:gd-|-stype:attr=1|qr_nm:gd|res:RC4|com-cf:nl|ptrs:na|ktp:N0|mc:45550|mtp:S|qry_typ:P|lang:en|wc:3|cs:8836|v=4,False,malad west,Mumbai,"2nd Floor,, 33d, Room No 30,, Khadilkar Street,, C. P. Tank,, Mumbai Suburban,, malad west, Mumbai - 400004, Dist.Mumbai, Maharashtra",8048370719,6987
"Chocolatey (Base) Printed Baby Fur Blanket, 10, Size: 30x60inch (lxw)",https://www.indiamart.com/proddetail/baby-fur-blanket-26452884933.html?pos=182&kwd=baby fur blanket&tags=CC||||8747.203||product|||NA|rsf:gd-|-stype:attr=1|qr_nm:gd|res:RC4|com-cf:nl|ptrs:na|ktp:N0|mc:45550|mtp:S|qry_typ:P|lang:en|wc:3|cs:8836|v=4,Maruti Exports,https://www.indiamart.com/marutiexports-panipat/?pos=182&kwd=baby fur blanket&tags=CC||||8747.203||product|||NA|rsf:gd-|-stype:attr=1|qr_nm:gd|res:RC4|com-cf:nl|ptrs:na|ktp:N0|mc:45550|mtp:S|qry_typ:P|lang:en|wc:3|cs:8836|v=4,False,,Panipat,"Shop No-1, Ganesh Colony, Near Mahaveer Khal Bhandar, Gohana Road, Near NFL Police Naka, Panipat - 132103, Dist.Panipat, Haryana",8048270841,
Baby Sleeping Bag,,Swing 'N' Fly (A Brand of Zen Marketing),https://www.indiamart.com/zenmarketing-sahibabad/?pos=183&kwd=baby fur blanket&tags=||||8752.144|Price|product|||TS|rsf:gd-|-stype:attr=1|qr_nm:gd|res:RC4|com-cf:nl|ptrs:na|ktp:N0|mc:45550|mtp:S|qry_typ:P|lang:en|wc:3|cs:8836|v=4,False,Alipur,New Delhi,"Ground Floor, Kh No 55/17/2, Pawan Triveni Colony, Village Bakhtawarpur triveni colony, Alipur, New Delhi - 110036, Dist.Delhi, Delhi",7942559295,
"Pink Printed Baby Fur Blanket, 3-12 Months, Size: 24x18inch",https://www.indiamart.com/proddetail/printed-baby-fur-blanket-27622514997.html?pos=184&kwd=baby fur blanket&tags=CC||||8556.61|Price|product|||NA|rsf:gd-|-stype:attr=1|qr_nm:gd|res:RC4|com-cf:nl|ptrs:na|ktp:N0|mc:45550|mtp:S|qry_typ:P|lang:en|wc:3|cs:8836|v=4,Select Baby World,https://www.indiamart.com/selectbabyworld/?pos=184&kwd=baby fur blanket&tags=CC||||8556.61|Price|product|||NA|rsf:gd-|-stype:attr=1|qr_nm:gd|res:RC4|com-cf:nl|ptrs:na|ktp:N0|mc:45550|mtp:S|qry_typ:P|lang:en|wc:3|cs:8836|v=4,False,,Mysore,"No. 805 L-28 1st West Cross, Shop No. 1, Lashkar Mohalla, Mysore - 570001, Dist.Mysuru, Karnataka",8047548812,
"Printed Cotton Baby Kids Fur Blanket, Size: 6x6, Packaging Type: Packet",https://www.indiamart.com/proddetail/baby-kids-fur-blanket-20746233697.html?pos=185&kwd=baby fur blanket&tags=CC||||8661.854|Price|product|||NA|rsf:gd-|-stype:attr=1|qr_nm:gd|res:RC4|com-cf:nl|ptrs:na|ktp:N0|mc:45550|mtp:S|qry_typ:P|lang:en|wc:3|cs:8836|v=4,L.S. Enterprises,https://www.indiamart.com/lsenterprisesludhiana/?pos=185&kwd=baby fur blanket&tags=CC||||8661.854|Price|product|||NA|rsf:gd-|-stype:attr=1|qr_nm:gd|res:RC4|com-cf:nl|ptrs:na|ktp:N0|mc:45550|mtp:S|qry_typ:P|lang:en|wc:3|cs:8836|v=4,False,Subhash Nagar,Ludhiana,"1701/6/1, Street No. 3, Subhash Nagar, Ludhiana - 141008, Dist.Ludhiana, Punjab",8048361372,697
Printed Mahi Fashion Baby Fur Blanket (0-2 years),https://www.indiamart.com/proddetail/baby-fur-blanket-0-2-years-21450104548.html?pos=186&kwd=baby fur blanket&tags=CC||||8559.269|Price|product|||NA|rsf:gd-|-stype:attr=1|qr_nm:gd|res:RC4|com-cf:nl|ptrs:na|ktp:N0|mc:45550|mtp:S|qry_typ:P|lang:en|wc:3|cs:8836|v=4,Shubhada Textiles,https://www.indiamart.com/shubhdatextiles/?pos=186&kwd=baby fur blanket&tags=CC||||8559.269|Price|product|||NA|rsf:gd-|-stype:attr=1|qr_nm:gd|res:RC4|com-cf:nl|ptrs:na|ktp:N0|mc:45550|mtp:S|qry_typ:P|lang:en|wc:3|cs:8836|v=4,False,Jawahar,Indore,"50, M.T. Cloth Market, Jawahar, Indore - 452002, Dist.Indore, Madhya Pradesh",8048372441,325
"Printed Fleece 26X36 Inch Baby Fur Blanket, Size: 26*36 Inches",https://www.indiamart.com/proddetail/26x36-inch-baby-fur-blanket-21595816962.html?pos=187&kwd=baby fur blanket&tags=CC||||8661.854|Price|product|||NA|rsf:gd-|-stype:attr=1|qr_nm:gd|res:RC4|com-cf:nl|ptrs:na|ktp:N0|mc:45550|mtp:S|qry_typ:P|lang:en|wc:3|cs:8836|v=4,Navkar Textiles,https://www.indiamart.com/navkartextilespunjab/?pos=187&kwd=baby fur blanket&tags=CC||||8661.854|Price|product|||NA|rsf:gd-|-stype:attr=1|qr_nm:gd|res:RC4|com-cf:nl|ptrs:na|ktp:N0|mc:45550|mtp:S|qry_typ:P|lang:en|wc:3|cs:8836|v=4,False,,Ludhiana,"E1, 2925 B, Phase C, Street No. 1 Guru Vihar, Rahon Road, Ludhiana - 141007, Dist.Ludhiana, Punjab",8043876514,
"MCare Cotton Blanket For Newborn Baby - Softest Fur Blanket, Size: 34 X 34 Inches",https://www.indiamart.com/proddetail/blanket-for-newborn-baby-softest-fur-blanket-22966318330.html?pos=188&kwd=baby fur blanket&tags=CC||||8211.142|Price|product|||NA|rsf:gd-|-stype:attr=1|qr_nm:gd|res:RC4|com-cf:nl|ptrs:na|ktp:N0|mc:45550|mtp:S|qry_typ:P|lang:en|wc:3|cs:8836|v=4,Little Peaches India,https://www.indiamart.com/little-peaches-india/?pos=188&kwd=baby fur blanket&tags=CC||||8211.142|Price|product|||NA|rsf:gd-|-stype:attr=1|qr_nm:gd|res:RC4|com-cf:nl|ptrs:na|ktp:N0|mc:45550|mtp:S|qry_typ:P|lang:en|wc:3|cs:8836|v=4,False,Andheri,Mumbai,"3FLR PLOT-9 WESTERN INDL.EST MIDC EXPORT PROCESSING ZONE ANDHERI, Andheri, Mumbai - 400093, Dist.Mumbai, Maharashtra",8048371526,835
BTfash Newborn baby Light weight fur lined Hodded Blanket or Wrapper or Sleeping Bag,https://www.indiamart.com/proddetail/btfash-newborn-baby-light-weight-fur-lined-hodded-blanket-or-wrapper-or-sleeping-bag-2854578712691.html?pos=189&kwd=baby fur blanket&tags=CC||||8746.929||product|||NA|rsf:gd-|-stype:attr=1|qr_nm:gd|res:RC4|com-cf:nl|ptrs:na|ktp:N0|mc:45550|mtp:S|qry_typ:P|lang:en|wc:3|cs:8836|v=4,Bimla Traders,https://www.indiamart.com/bimla-traders-chandigarh/?pos=189&kwd=baby fur blanket&tags=CC||||8746.929||product|||NA|rsf:gd-|-stype:attr=1|qr_nm:gd|res:RC4|com-cf:nl|ptrs:na|ktp:N0|mc:45550|mtp:S|qry_typ:P|lang:en|wc:3|cs:8836|v=4,False,Chandigarh,Chandigarh,"Sco 62 Dakshan Marg Sector 20C, Chandigarh, Chandigarh - 160020, Chandigarh",8048370714,7954
"Plain Nylon Baby Carter Blankets, Packaging Type: Box",https://www.indiamart.com/proddetail/baby-carter-blankets-20809033662.html?pos=190&kwd=baby fur blanket&tags=CC||||8601.347|Price|product|||NA|rsf:gd-|-stype:attr=1|qr_nm:gd|res:RC4|com-cf:nl|ptrs:na|ktp:N0|mc:45550|mtp:S|qry_typ:P|lang:en|wc:3|cs:8836|v=4,Mamma Mia,https://www.indiamart.com/mammamia/?pos=190&kwd=baby fur blanket&tags=CC||||8601.347|Price|product|||NA|rsf:gd-|-stype:attr=1|qr_nm:gd|res:RC4|com-cf:nl|ptrs:na|ktp:N0|mc:45550|mtp:S|qry_typ:P|lang:en|wc:3|cs:8836|v=4,False,,Jaipur,"D 192-a, Moti Marg, Bapu Nagar, Jaipur - 302015, Dist.Jaipur, Rajasthan",8069013895,120
"Pink Cotton Baby Wrap, Size: Medium",https://www.indiamart.com/proddetail/pink-cotton-baby-wrap-2854497770048.html?pos=191&kwd=baby fur blanket&tags=||||8747.203|Price|product|||MDC|rsf:gd-|-stype:attr=1|qr_nm:gd|res:RC4|com-cf:nl|ptrs:na|ktp:N0|mc:45550|mtp:S|qry_typ:P|lang:en|wc:3|cs:8836|v=4,Gandhi Wooltex,https://www.indiamart.com/gandhiwooltex/?pos=191&kwd=baby fur blanket&tags=||||8747.203|Price|product|||MDC|rsf:gd-|-stype:attr=1|qr_nm:gd|res:RC4|com-cf:nl|ptrs:na|ktp:N0|mc:45550|mtp:S|qry_typ:P|lang:en|wc:3|cs:8836|v=4,False,,Panipat,"H No. 538, Sector 12, Huda, Panipat - 132103, Dist.Panipat, Haryana",7949338841,
"Multicolor Polyester Signature Plush Mink TWO PLY Blanket, Size: Double",https://www.indiamart.com/proddetail/signature-plush-mink-two-ply-blanket-2852692273012.html?pos=192&kwd=baby fur blanket&tags=||||8752.144|Price|product|||MDC|rsf:gd-|-stype:attr=1|qr_nm:gd|res:RC4|com-cf:nl|ptrs:na|ktp:N0|mc:45550|mtp:S|qry_typ:P|lang:en|wc:3|cs:8836|v=4,Kataria Textorium,https://www.indiamart.com/kataria-textorium-newdelhi/?pos=192&kwd=baby fur blanket&tags=||||8752.144|Price|product|||MDC|rsf:gd-|-stype:attr=1|qr_nm:gd|res:RC4|com-cf:nl|ptrs:na|ktp:N0|mc:45550|mtp:S|qry_typ:P|lang:en|wc:3|cs:8836|v=4,False,Tilak Nagar,New Delhi,"Wz - 10A Krishna Puri Tilak Nagar, Tilak Nagar, New Delhi - 110018, Dist.Delhi, Delhi",8048618039,
Cotton Colorful Kuddle-Up Flannel Baby Blankets(Dinosaur Print),https://www.indiamart.com/proddetail/kuddle-up-flannel-baby-blankets-dinosaur-print-2853771378812.html?pos=193&kwd=baby fur blanket&tags=||||8307.81||product|||MDC|rsf:gd-|-stype:attr=1|qr_nm:gd|res:RC4|com-cf:nl|ptrs:na|ktp:N0|mc:45550|mtp:S|qry_typ:P|lang:en|wc:3|cs:8836|v=4,Medline Healthcare Industries Private Limited,https://www.indiamart.com/medlinehealthcareindustries/?pos=193&kwd=baby fur blanket&tags=||||8307.81||product|||MDC|rsf:gd-|-stype:attr=1|qr_nm:gd|res:RC4|com-cf:nl|ptrs:na|ktp:N0|mc:45550|mtp:S|qry_typ:P|lang:en|wc:3|cs:8836|v=4,False,Viman Nagar,Pune,"101, Garnets Bay, Next To Hotel Four Points By Sheraton Viman Nagar, Ahmednagar Road, Viman Nagar, Pune - 411014, Dist.Pune, Maharashtra",8048958807,
Multicolor Printed Baby Muslin Swaddles,https://www.indiamart.com/proddetail/baby-swaddle-wrap-2854720231197.html?pos=194&kwd=baby fur blanket&tags=||||8954.051|Price|product|||MDC|rsf:gd-|-stype:attr=1|qr_nm:gd|res:RC4|com-cf:nl|ptrs:na|ktp:N0|mc:45550|mtp:S|qry_typ:P|lang:en|wc:3|cs:8836|v=4,Tender Babe,https://www.indiamart.com/tenderbabe-chennai/?pos=194&kwd=baby fur blanket&tags=||||8954.051|Price|product|||MDC|rsf:gd-|-stype:attr=1|qr_nm:gd|res:RC4|com-cf:nl|ptrs:na|ktp:N0|mc:45550|mtp:S|qry_typ:P|lang:en|wc:3|cs:8836|v=4,False,Tiruvallur,Chennai,"196/2A, Annai Teresa Street, Kavarapalayam Main Road,, Siranjivi Nagar, Avadi,, Tiruvallur, Chennai - 600054, Dist.Chennai, Tamil Nadu",7949323914,
violet (Base) Velvet Zipper Baby Carry Bed,https://www.indiamart.com/proddetail/velvet-zipper-baby-carry-bed-2854482918648.html?pos=195&kwd=baby fur blanket&tags=||||8954.051|Price|product|||MDC|rsf:gd-|-stype:attr=1|qr_nm:gd|res:RC4|com-cf:nl|ptrs:na|ktp:N0|mc:45550|mtp:S|qry_typ:P|lang:en|wc:3|cs:8836|v=4,National Bag,https://www.indiamart.com/national-bag-chennai/?pos=195&kwd=baby fur blanket&tags=||||8954.051|Price|product|||MDC|rsf:gd-|-stype:attr=1|qr_nm:gd|res:RC4|com-cf:nl|ptrs:na|ktp:N0|mc:45550|mtp:S|qry_typ:P|lang:en|wc:3|cs:8836|v=4,False,,Chennai,"2nd Floor, 49 Narayana Mudali Street, Sowcarpet, Chennai - 600079, Dist.Chennai, Tamil Nadu",7949336940,
"Multicolor Baby Muslin Swaddles, Size: Medium",https://www.indiamart.com/proddetail/baby-muslin-swaddles-2854292514530.html?pos=196&kwd=baby fur blanket&tags=||||8706.263|Price|product|||MDC|rsf:gd-|-stype:attr=1|qr_nm:gd|res:RC4|com-cf:nl|ptrs:na|ktp:N0|mc:45550|mtp:S|qry_typ:P|lang:en|wc:3|cs:8836|v=4,RKND Traders,https://www.indiamart.com/rknd-traders/?pos=196&kwd=baby fur blanket&tags=||||8706.263|Price|product|||MDC|rsf:gd-|-stype:attr=1|qr_nm:gd|res:RC4|com-cf:nl|ptrs:na|ktp:N0|mc:45550|mtp:S|qry_typ:P|lang:en|wc:3|cs:8836|v=4,False,,Karur,"No.86/66, Mettu Street, Karur - 639001, Dist.Karur, Tamil Nadu",8045730806,
Cotton Printed Hand Block Print Baby Quilt Crib Cot,https://www.indiamart.com/proddetail/hand-block-print-baby-quilt-crib-cot-22396507088.html?pos=197&kwd=baby fur blanket&tags=||||8601.347|Price|product|||TS|rsf:gd-|-stype:attr=1|qr_nm:gd|res:RC4|com-cf:nl|ptrs:na|ktp:N0|mc:45550|mtp:S|qry_typ:P|lang:en|wc:3|cs:8836|v=4,Shree Handicrafts And Textile,https://www.craftofpinkcity.co.in/?pos=197&kwd=baby fur blanket&tags=||||8601.347|Price|product|||TS|rsf:gd-|-stype:attr=1|qr_nm:gd|res:RC4|com-cf:nl|ptrs:na|ktp:N0|mc:45550|mtp:S|qry_typ:P|lang:en|wc:3|cs:8836|v=4,True,Sita Ram Colony,Jaipur,"Plot No 20 -21, 80 Ft Road, Chhabra Marg opp. Sita Devi Hospital, Hawa Sadak, Sita Ram Colony, Jaipur - 302019, Dist.Jaipur, Rajasthan",8046035658,
"RJ Enterprise MULTY Baby Bed, Sleeping Bag & Carry Nest, Cotton Baby Bedding, Packaging Type: Box, 0-2 YEAR",https://www.indiamart.com/proddetail/baby-bed-sleeping-bag-carry-nest-cotton-baby-bedding-2851723659591.html?pos=198&kwd=baby fur blanket&tags=||||8230.883|Price|product|||TS|rsf:gd-|-stype:attr=1|qr_nm:gd|res:RC4|com-cf:nl|ptrs:na|ktp:N0|mc:45550|mtp:S|qry_typ:P|lang:en|wc:3|cs:8836|v=4,RJ Enterprise,https://www.indiamart.com/rj-enterprise-surat/?pos=198&kwd=baby fur blanket&tags=||||8230.883|Price|product|||TS|rsf:gd-|-stype:attr=1|qr_nm:gd|res:RC4|com-cf:nl|ptrs:na|ktp:N0|mc:45550|mtp:S|qry_typ:P|lang:en|wc:3|cs:8836|v=4,False,Katargam,Surat,"134, Sahjanand Society, N/R Arogyakendra, Katargam, Katargam, Surat - 395004, Dist.Surat, Gujarat",7942555306,
"Mix Colour Plain Keara Fleece Blanket, Packaging Type: Normal, Size: 90X100",https://www.indiamart.com/proddetail/keara-fleece-blanket-2850517234730.html?pos=199&kwd=baby fur blanket&tags=||||8747.203||product|||TS|rsf:gd-|-stype:attr=1|qr_nm:gd|res:RC4|com-cf:nl|ptrs:na|ktp:N0|mc:45550|mtp:S|qry_typ:P|lang:en|wc:3|cs:8836|v=4,Mayur Home,https://www.mayurhome.com/?pos=199&kwd=baby fur blanket&tags=||||8747.203||product|||TS|rsf:gd-|-stype:attr=1|qr_nm:gd|res:RC4|com-cf:nl|ptrs:na|ktp:N0|mc:45550|mtp:S|qry_typ:P|lang:en|wc:3|cs:8836|v=4,False,Sector 25,Panipat,"85-86, Sector 25, Part -1 HUDA, Sector 25, Panipat - 132103, Dist.Panipat, Haryana",7942801518,
"Cotton Baby Wrapper, Newly Born",https://www.indiamart.com/proddetail/baby-wrapper-2854122325091.html?pos=200&kwd=baby fur blanket&tags=||||8626.744|Price|product|||TS|rsf:gd-|-stype:attr=1|qr_nm:gd|res:RC4|com-cf:nl|ptrs:na|ktp:N0|mc:45550|mtp:S|qry_typ:P|lang:en|wc:3|cs:8836|v=4,Richie International,https://www.indiamart.com/richieinternational/?pos=200&kwd=baby fur blanket&tags=||||8626.744|Price|product|||TS|rsf:gd-|-stype:attr=1|qr_nm:gd|res:RC4|com-cf:nl|ptrs:na|ktp:N0|mc:45550|mtp:S|qry_typ:P|lang:en|wc:3|cs:8836|v=4,False,Nallur,Tiruppur,"48 Csi Colony, Nallur, Vijayapuram Post vijayapuram kangayam road, Nallur, Tiruppur - 641606, Dist.Coimbatore, Tamil Nadu",8047698456,
Baby Sleeping Bag,,Swing 'N' Fly (A Brand of Zen Marketing),https://www.indiamart.com/zenmarketing-sahibabad/?pos=201&kwd=baby fur blanket&tags=||||8752.144|Price|product|||TS|rsf:gd-|-stype:attr=1|qr_nm:gd|res:RC4|com-cf:nl|ptrs:na|ktp:N0|mc:45550|mtp:S|qry_typ:P|lang:en|wc:3|cs:8836|v=4,False,Alipur,New Delhi,"Ground Floor, Kh No 55/17/2, Pawan Triveni Colony, Village Bakhtawarpur triveni colony, Alipur, New Delhi - 110036, Dist.Delhi, Delhi",7942559295,
"Plain Nylon Baby Carter Blankets, Packaging Type: Box",https://www.indiamart.com/proddetail/baby-carter-blankets-20809033662.html?pos=202&kwd=baby fur blanket&tags=CC||||8601.347|Price|product|||NA|rsf:gd-|-stype:attr=1|qr_nm:gd|res:RC4|com-cf:nl|ptrs:na|ktp:N0|mc:45550|mtp:S|qry_typ:P|lang:en|wc:3|cs:8836|v=4,Mamma Mia,https://www.indiamart.com/mammamia/?pos=202&kwd=baby fur blanket&tags=CC||||8601.347|Price|product|||NA|rsf:gd-|-stype:attr=1|qr_nm:gd|res:RC4|com-cf:nl|ptrs:na|ktp:N0|mc:45550|mtp:S|qry_typ:P|lang:en|wc:3|cs:8836|v=4,False,,Jaipur,"D 192-a, Moti Marg, Bapu Nagar, Jaipur - 302015, Dist.Jaipur, Rajasthan",8069013895,120
"Pink Cotton Baby Wrap, Size: Medium",https://www.indiamart.com/proddetail/pink-cotton-baby-wrap-2854497770048.html?pos=203&kwd=baby fur blanket&tags=||||8747.203|Price|product|||MDC|rsf:gd-|-stype:attr=1|qr_nm:gd|res:RC4|com-cf:nl|ptrs:na|ktp:N0|mc:45550|mtp:S|qry_typ:P|lang:en|wc:3|cs:8836|v=4,Gandhi Wooltex,https://www.indiamart.com/gandhiwooltex/?pos=203&kwd=baby fur blanket&tags=||||8747.203|Price|product|||MDC|rsf:gd-|-stype:attr=1|qr_nm:gd|res:RC4|com-cf:nl|ptrs:na|ktp:N0|mc:45550|mtp:S|qry_typ:P|lang:en|wc:3|cs:8836|v=4,False,,Panipat,"H No. 538, Sector 12, Huda, Panipat - 132103, Dist.Panipat, Haryana",7949338841,
"Multicolor Polyester Signature Plush Mink TWO PLY Blanket, Size: Double",https://www.indiamart.com/proddetail/signature-plush-mink-two-ply-blanket-2852692273012.html?pos=204&kwd=baby fur blanket&tags=||||8752.144|Price|product|||MDC|rsf:gd-|-stype:attr=1|qr_nm:gd|res:RC4|com-cf:nl|ptrs:na|ktp:N0|mc:45550|mtp:S|qry_typ:P|lang:en|wc:3|cs:8836|v=4,Kataria Textorium,https://www.indiamart.com/kataria-textorium-newdelhi/?pos=204&kwd=baby fur blanket&tags=||||8752.144|Price|product|||MDC|rsf:gd-|-stype:attr=1|qr_nm:gd|res:RC4|com-cf:nl|ptrs:na|ktp:N0|mc:45550|mtp:S|qry_typ:P|lang:en|wc:3|cs:8836|v=4,False,Tilak Nagar,New Delhi,"Wz - 10A Krishna Puri Tilak Nagar, Tilak Nagar, New Delhi - 110018, Dist.Delhi, Delhi",8048618039,
Cotton Colorful Kuddle-Up Flannel Baby Blankets(Dinosaur Print),https://www.indiamart.com/proddetail/kuddle-up-flannel-baby-blankets-dinosaur-print-2853771378812.html?pos=205&kwd=baby fur blanket&tags=||||8307.81||product|||MDC|rsf:gd-|-stype:attr=1|qr_nm:gd|res:RC4|com-cf:nl|ptrs:na|ktp:N0|mc:45550|mtp:S|qry_typ:P|lang:en|wc:3|cs:8836|v=4,Medline Healthcare Industries Private Limited,https://www.indiamart.com/medlinehealthcareindustries/?pos=205&kwd=baby fur blanket&tags=||||8307.81||product|||MDC|rsf:gd-|-stype:attr=1|qr_nm:gd|res:RC4|com-cf:nl|ptrs:na|ktp:N0|mc:45550|mtp:S|qry_typ:P|lang:en|wc:3|cs:8836|v=4,False,Viman Nagar,Pune,"101, Garnets Bay, Next To Hotel Four Points By Sheraton Viman Nagar, Ahmednagar Road, Viman Nagar, Pune - 411014, Dist.Pune, Maharashtra",8048958807,
Multicolor Printed Baby Muslin Swaddles,https://www.indiamart.com/proddetail/baby-swaddle-wrap-2854720231197.html?pos=206&kwd=baby fur blanket&tags=||||8954.051|Price|product|||MDC|rsf:gd-|-stype:attr=1|qr_nm:gd|res:RC4|com-cf:nl|ptrs:na|ktp:N0|mc:45550|mtp:S|qry_typ:P|lang:en|wc:3|cs:8836|v=4,Tender Babe,https://www.indiamart.com/tenderbabe-chennai/?pos=206&kwd=baby fur blanket&tags=||||8954.051|Price|product|||MDC|rsf:gd-|-stype:attr=1|qr_nm:gd|res:RC4|com-cf:nl|ptrs:na|ktp:N0|mc:45550|mtp:S|qry_typ:P|lang:en|wc:3|cs:8836|v=4,False,Tiruvallur,Chennai,"196/2A, Annai Teresa Street, Kavarapalayam Main Road,, Siranjivi Nagar, Avadi,, Tiruvallur, Chennai - 600054, Dist.Chennai, Tamil Nadu",7949323914,
violet (Base) Velvet Zipper Baby Carry Bed,https://www.indiamart.com/proddetail/velvet-zipper-baby-carry-bed-2854482918648.html?pos=207&kwd=baby fur blanket&tags=||||8954.051|Price|product|||MDC|rsf:gd-|-stype:attr=1|qr_nm:gd|res:RC4|com-cf:nl|ptrs:na|ktp:N0|mc:45550|mtp:S|qry_typ:P|lang:en|wc:3|cs:8836|v=4,National Bag,https://www.indiamart.com/national-bag-chennai/?pos=207&kwd=baby fur blanket&tags=||||8954.051|Price|product|||MDC|rsf:gd-|-stype:attr=1|qr_nm:gd|res:RC4|com-cf:nl|ptrs:na|ktp:N0|mc:45550|mtp:S|qry_typ:P|lang:en|wc:3|cs:8836|v=4,False,,Chennai,"2nd Floor, 49 Narayana Mudali Street, Sowcarpet, Chennai - 600079, Dist.Chennai, Tamil Nadu",7949336940,
"Multicolor Baby Muslin Swaddles, Size: Medium",https://www.indiamart.com/proddetail/baby-muslin-swaddles-2854292514530.html?pos=208&kwd=baby fur blanket&tags=||||8706.263|Price|product|||MDC|rsf:gd-|-stype:attr=1|qr_nm:gd|res:RC4|com-cf:nl|ptrs:na|ktp:N0|mc:45550|mtp:S|qry_typ:P|lang:en|wc:3|cs:8836|v=4,RKND Traders,https://www.indiamart.com/rknd-traders/?pos=208&kwd=baby fur blanket&tags=||||8706.263|Price|product|||MDC|rsf:gd-|-stype:attr=1|qr_nm:gd|res:RC4|com-cf:nl|ptrs:na|ktp:N0|mc:45550|mtp:S|qry_typ:P|lang:en|wc:3|cs:8836|v=4,False,,Karur,"No.86/66, Mettu Street, Karur - 639001, Dist.Karur, Tamil Nadu",8045730806,
Pure Cotton Baby Wrap,https://www.indiamart.com/proddetail/pure-cotton-baby-wrap-2854269033962.html?pos=209&kwd=baby fur blanket&tags=||||8838.804|Price|product|||MDC|rsf:gd-|-stype:attr=1|qr_nm:gd|res:RC4|com-cf:nl|ptrs:na|ktp:N0|mc:45550|mtp:S|qry_typ:P|lang:en|wc:3|cs:8836|v=4,Fabric Fusion,https://www.indiamart.com/fabric-fusion-up/?pos=209&kwd=baby fur blanket&tags=||||8838.804|Price|product|||MDC|rsf:gd-|-stype:attr=1|qr_nm:gd|res:RC4|com-cf:nl|ptrs:na|ktp:N0|mc:45550|mtp:S|qry_typ:P|lang:en|wc:3|cs:8836|v=4,False,,Aligarh,"Duplex No 1, Next to Green Park Masjid, Green Park Colony, Aligarh - 202001, Uttar Pradesh",8044560687,
Multicolor Baby Cotton Muslin Swaddles,https://www.indiamart.com/proddetail/baby-cotton-muslin-swaddles-2852518940088.html?pos=210&kwd=baby fur blanket&tags=||||8668.838|Price|product|||MDC|rsf:gd-|-stype:attr=1|qr_nm:gd|res:RC4|com-cf:nl|ptrs:na|ktp:N0|mc:45550|mtp:S|qry_typ:P|lang:en|wc:3|cs:8836|v=4,Rakshita Exports,https://www.indiamart.com/rakshita-exports/?pos=210&kwd=baby fur blanket&tags=||||8668.838|Price|product|||MDC|rsf:gd-|-stype:attr=1|qr_nm:gd|res:RC4|com-cf:nl|ptrs:na|ktp:N0|mc:45550|mtp:S|qry_typ:P|lang:en|wc:3|cs:8836|v=4,False,erode,Erode,"95/1, Bagiya Complex, Nasiyanur Road, Ondikkaranpalayam, erode, Erode - 638107, Dist.Erode, Tamil Nadu",7942708189,
