product_title,product_link,company_name,company_link,is_verified_exporter,city_region,city,address_details,phone_number,phone_number_extension
Hand Sanitizer Alcohol Free 100 ML,https://www.indiamart.com/proddetail/hand-sanitizer-alcohol-free-100-ml-22875664191.html?pos=1&kwd=baby sanitizer&tags=A||||8211.142|Price|product|||TS|rsf:gd-|-stype:attr=1|qr_nm:gd|res:RC3|com-cf:nl|ptrs:na|ktp:N0|mc:208878|mtp:S|qry_typ:P|lang:en|wc:2|flavl:0|cs:9659|v=4,Ecosense Labs India Private Limited,https://www.indiamart.com/ecosense-lab/?pos=1&kwd=baby sanitizer&tags=A||||8211.142|Price|product|||TS|rsf:gd-|-stype:attr=1|qr_nm:gd|res:RC3|com-cf:nl|ptrs:na|ktp:N0|mc:208878|mtp:S|qry_typ:P|lang:en|wc:2|flavl:0|cs:9659|v=4,False,Marine Lines,Mumbai,"4th Floor, Chitalia House, 274, Dr. Cawasji Hormasji Street, Marine Lines East, Marine Lines, Mumbai - 400002, Dist.Mumbai, Maharashtra",8048966470,
Baby Sanitizer Toys,https://www.indiamart.com/proddetail/baby-sanitizer-toys-25296009397.html?pos=2&kwd=baby sanitizer&tags=BA||||8211.142||product|||TS|rsf:gd-|-stype:attr=1|qr_nm:gd|res:RC3|com-cf:nl|ptrs:na|ktp:N0|mc:208878|mtp:S|qry_typ:P|lang:en|wc:2|flavl:0|cs:9659|v=4,Ennar Enterprises,https://www.indiamart.com/ennar-entp-mumbai/?pos=2&kwd=baby sanitizer&tags=BA||||8211.142||product|||TS|rsf:gd-|-stype:attr=1|qr_nm:gd|res:RC3|com-cf:nl|ptrs:na|ktp:N0|mc:208878|mtp:S|qry_typ:P|lang:en|wc:2|flavl:0|cs:9659|v=4,False,Masjid Bandar,Mumbai,"1st, M-101, Vardhaman Nagar, Dr R P Road, Masjid Bandar, Mumbai - 400080, Dist.Mumbai, Maharashtra",8046030904,
"Red Kids Sanitizer For School Going Student, For Gifting",https://www.indiamart.com/proddetail/kids-sanitizer-for-school-going-student-21978785533.html?pos=3&kwd=baby sanitizer&tags=BA||||8752.144|Price|product|||NA|rsf:gd-|-stype:attr=1|qr_nm:gd|res:RC3|com-cf:nl|ptrs:na|ktp:N0|mc:208878|mtp:S|qry_typ:P|lang:en|wc:2|flavl:0|cs:9659|v=4,Livsmart,https://www.indiamart.com/liv-smart-newdelhi/?pos=3&kwd=baby sanitizer&tags=BA||||8752.144|Price|product|||NA|rsf:gd-|-stype:attr=1|qr_nm:gd|res:RC3|com-cf:nl|ptrs:na|ktp:N0|mc:208878|mtp:S|qry_typ:P|lang:en|wc:2|flavl:0|cs:9659|v=4,False,Inderpuri,New Delhi,"2nd Floor B491/A Budh Nagar Inder Puri Central, Inderpuri, New Delhi - 110012, Dist.Delhi, Delhi",8047666163,
Kids Sanitizer,,Cinderella Electricals And Home Appliances,https://www.indiamart.com/cinderella-electricals/?pos=4&kwd=baby sanitizer&tags=BB||||8663.873||product|||NA|rsf:gd-|-stype:attr=1|qr_nm:gd|res:RC3|com-cf:nl|ptrs:na|ktp:N0|mc:208878|mtp:S|qry_typ:P|lang:en|wc:2|flavl:0|cs:9659|v=4,False,SP Road Cross,Bengaluru,"No.133, Pailwan T Annayappa Main Road, Thigalarpet, SP Road Cross, Bengaluru - 560002, Dist.Bengaluru, Karnataka",8047682027,
Baby Hand Sanitiser,,Firoz Selections,https://www.indiamart.com/firoz-selections/?pos=5&kwd=baby sanitizer&tags=BB||||8228.275||product|||NA|rsf:gd-|-stype:attr=1|qr_nm:gd|res:RC3|com-cf:nl|ptrs:na|ktp:N0|mc:208878|mtp:S|qry_typ:P|lang:en|wc:2|flavl:0|cs:9659|v=4,False,,Ahmedabad,"Tran Darwaja, Gandhi Road, Tutorial Complex, Ahmedabad - 380001, Dist.Ahmedabad, Gujarat",8048249717,9616
"ACUSHIELD Herbal Baby Hand Sanitizer, Packaging Type: Plastic Bottle, 5 YRS",https://www.indiamart.com/proddetail/baby-hand-sanitizer-24449972997.html?pos=6&kwd=baby sanitizer&tags=CC||||8788.159|Price|product|||TS|rsf:gd-|-stype:attr=1|qr_nm:gd|res:RC3|com-cf:nl|ptrs:na|ktp:N0|mc:208878|mtp:S|qry_typ:P|lang:en|wc:2|flavl:0|cs:9659|v=4,Acubiosys Private Limited,https://www.indiamart.com/acubiosys/?pos=6&kwd=baby sanitizer&tags=CC||||8788.159|Price|product|||TS|rsf:gd-|-stype:attr=1|qr_nm:gd|res:RC3|com-cf:nl|ptrs:na|ktp:N0|mc:208878|mtp:S|qry_typ:P|lang:en|wc:2|flavl:0|cs:9659|v=4,False,Moula Ali,Secunderabad,"Plot. No-14, 3rd Floor, Industial Estate, Moulali, Moula Ali, Secunderabad - 500040, Dist.Hyderabad, Telangana",8048958749,
Pigeon Baby Hand Sanitizer,https://www.indiamart.com/proddetail/pigeon-baby-hand-sanitizer-2852328097948.html?pos=7&kwd=baby sanitizer&tags=CC||||8307.81|Price|product|||MDC|rsf:gd-|-stype:attr=1|qr_nm:gd|res:RC3|com-cf:nl|ptrs:na|ktp:N0|mc:208878|mtp:S|qry_typ:P|lang:en|wc:2|flavl:0|cs:9659|v=4,Bhavana Agency,https://www.indiamart.com/bhavana-agency/?pos=7&kwd=baby sanitizer&tags=CC||||8307.81|Price|product|||MDC|rsf:gd-|-stype:attr=1|qr_nm:gd|res:RC3|com-cf:nl|ptrs:na|ktp:N0|mc:208878|mtp:S|qry_typ:P|lang:en|wc:2|flavl:0|cs:9659|v=4,False,Sadashiv Peth,Pune,"S No 4, 841/1, Asset Gold, Sadashiv Peth, Sadashiv Peth, Pune - 411030, Dist.Pune, Maharashtra",8047788291,
Silicon Sanitizer Dispenser Band Watch Bracelet Wrist Band For Kids And Adults,https://www.indiamart.com/proddetail/silicon-sanitizer-dispenser-band-watch-bracelet-wrist-band-for-kids-and-adults-23016609262.html?pos=8&kwd=baby sanitizer&tags=||||8752.144|Price|product|||MDC|rsf:gd-|-stype:attr=1|qr_nm:gd|res:RC3|com-cf:nl|ptrs:na|ktp:N0|mc:208878|mtp:S|qry_typ:P|lang:en|wc:2|flavl:0|cs:9659|v=4,Mehak Enterprises,https://www.indiamart.com/mehak-enterprises/?pos=8&kwd=baby sanitizer&tags=||||8752.144|Price|product|||MDC|rsf:gd-|-stype:attr=1|qr_nm:gd|res:RC3|com-cf:nl|ptrs:na|ktp:N0|mc:208878|mtp:S|qry_typ:P|lang:en|wc:2|flavl:0|cs:9659|v=4,False,Ashok Vihar,New Delhi,"Shop No. 7, G Block Market, Ashok Vihar, Phase 1, Ashok Vihar, New Delhi - 110052, Dist.Delhi, Delhi",8046071382,
Non Woven Wippee 80N With Lid Baby Wipes With Almond Oil (White) - Pack Of 5,https://www.indiamart.com/proddetail/wippee-80n-with-lid-baby-wipes-with-almond-oil-white-pack-of-5-22149167488.html?pos=9&kwd=baby sanitizer&tags=||||8752.144|Price|product|||TS|rsf:gd-|-stype:attr=1|qr_nm:gd|res:RC3|com-cf:nl|ptrs:na|ktp:N0|mc:208878|mtp:S|qry_typ:P|lang:en|wc:2|flavl:0|cs:9659|v=4,NRV Global Solutions & Services,https://www.visionwetwipes.com/?pos=9&kwd=baby sanitizer&tags=||||8752.144|Price|product|||TS|rsf:gd-|-stype:attr=1|qr_nm:gd|res:RC3|com-cf:nl|ptrs:na|ktp:N0|mc:208878|mtp:S|qry_typ:P|lang:en|wc:2|flavl:0|cs:9659|v=4,False,Hari Nagar,New Delhi,"F-47B, MIG Flats, Hari Nagar, Hari Nagar, New Delhi - 110064, Dist.Delhi, Delhi",8048964379,
200 L Alcohol Based Hand Sanitizer,https://www.indiamart.com/proddetail/200-l-alcohol-based-hand-sanitizer-22292627891.html?pos=10&kwd=baby sanitizer&tags=||||8752.144|Price|product|||TS|rsf:gd-|-stype:attr=1|qr_nm:gd|res:RC3|com-cf:nl|ptrs:na|ktp:N0|mc:208878|mtp:S|qry_typ:P|lang:en|wc:2|flavl:0|cs:9659|v=4,JSR Amenities Private Limited,https://www.jsramenities.com/?pos=10&kwd=baby sanitizer&tags=||||8752.144|Price|product|||TS|rsf:gd-|-stype:attr=1|qr_nm:gd|res:RC3|com-cf:nl|ptrs:na|ktp:N0|mc:208878|mtp:S|qry_typ:P|lang:en|wc:2|flavl:0|cs:9659|v=4,False,Rohini Sector 4,New Delhi,"A-2/21, 22, First Floor, Sector 11, Rohini Sector 4, New Delhi - 110085, Dist.Delhi, Delhi",8048954277,
Product Photography Service,https://www.indiamart.com/proddetail/product-photography-service-2852132067262.html?pos=11&kwd=baby sanitizer&tags=||||8823.154|Price|product|||TS|rsf:gd-|-stype:attr=1|qr_nm:gd|res:RC3|com-cf:nl|ptrs:na|ktp:N0|mc:208878|mtp:S|qry_typ:P|lang:en|wc:2|flavl:0|cs:9659|v=4,Sanvi Advertising,https://www.indiamart.com/sanviadvertising-agra/?pos=11&kwd=baby sanitizer&tags=||||8823.154|Price|product|||TS|rsf:gd-|-stype:attr=1|qr_nm:gd|res:RC3|com-cf:nl|ptrs:na|ktp:N0|mc:208878|mtp:S|qry_typ:P|lang:en|wc:2|flavl:0|cs:9659|v=4,False,Civil Lines,Agra,"Shop No 15 Basement Block No 23, Cloth Market Sanjay Place, Civil Lines, Agra - 282002, Dist.Agra, Uttar Pradesh",7942872137,
Plastic Kids Multipurpose Pocket Sanitizer,https://www.indiamart.com/proddetail/kids-multipurpose-pocket-sanitizer-22970843933.html?pos=12&kwd=baby sanitizer&tags=||||8307.81|Price|product|||TS|rsf:gd-|-stype:attr=1|qr_nm:gd|res:RC3|com-cf:nl|ptrs:na|ktp:N0|mc:208878|mtp:S|qry_typ:P|lang:en|wc:2|flavl:0|cs:9659|v=4,Indegree Technologies Private Limited,https://www.indegreegift.com/?pos=12&kwd=baby sanitizer&tags=||||8307.81|Price|product|||TS|rsf:gd-|-stype:attr=1|qr_nm:gd|res:RC3|com-cf:nl|ptrs:na|ktp:N0|mc:208878|mtp:S|qry_typ:P|lang:en|wc:2|flavl:0|cs:9659|v=4,False,Dattawadi,Pune,"F Building Flat No-507, Asawari, Sinhagad Road, Nanded City, Dattawadi, Pune - 411041, Dist.Pune, Maharashtra",8048981446,
"Ozoved Colorless 50 ml Baby Sanitizer, Packaging Type: Plastic Bottle, 5 & Above",https://www.indiamart.com/proddetail/50-ml-baby-sanitizer-22452992962.html?pos=13&kwd=baby sanitizer&tags=CC||||8306.348|Price|product|||NA|rsf:gd-|-stype:attr=1|qr_nm:gd|res:RC3|com-cf:nl|ptrs:na|ktp:N0|mc:208878|mtp:S|qry_typ:P|lang:en|wc:2|flavl:0|cs:9659|v=4,Skyline Agencies And Allied Services,https://www.indiamart.com/mehar-enterprises-rourkela/?pos=13&kwd=baby sanitizer&tags=CC||||8306.348|Price|product|||NA|rsf:gd-|-stype:attr=1|qr_nm:gd|res:RC3|com-cf:nl|ptrs:na|ktp:N0|mc:208878|mtp:S|qry_typ:P|lang:en|wc:2|flavl:0|cs:9659|v=4,False,,Goa,"J103, Devashri Green, Goa - 403521, Dist.North Goa, Goa",8048372601,846
"Rayron Deep Sea Baby Hand Sanitizer, Flip Top Bottle, 30ml",https://www.indiamart.com/proddetail/rayron-deep-sea-baby-hand-sanitizer-12849021073.html?pos=14&kwd=baby sanitizer&tags=CC||||8752.144|Price|product|||NA|rsf:gd-|-stype:attr=1|qr_nm:gd|res:RC3|com-cf:nl|ptrs:na|ktp:N0|mc:208878|mtp:S|qry_typ:P|lang:en|wc:2|flavl:0|cs:9659|v=4,Jasmine Global Technologies LLP,https://www.indiamart.com/rayron/?pos=14&kwd=baby sanitizer&tags=CC||||8752.144|Price|product|||NA|rsf:gd-|-stype:attr=1|qr_nm:gd|res:RC3|com-cf:nl|ptrs:na|ktp:N0|mc:208878|mtp:S|qry_typ:P|lang:en|wc:2|flavl:0|cs:9659|v=4,False,New Rohtak Road,New Delhi,"PP 43, 10th Street, New Rohtak Road, New Delhi - 110005, Dist.Delhi, Delhi",8047802335,
Hand Sanitizer Extox kids,https://www.indiamart.com/proddetail/hand-sanitizer-extox-kids-22430147430.html?pos=15&kwd=baby sanitizer&tags=CC||||9110.092|Price|product|||NA|rsf:gd-|-stype:attr=1|qr_nm:gd|res:RC3|com-cf:nl|ptrs:na|ktp:N0|mc:208878|mtp:S|qry_typ:P|lang:en|wc:2|cs:8896|v=4,Koros Orthocare LLP,https://www.indiamart.com/koros-orthocare-llp/?pos=15&kwd=baby sanitizer&tags=CC||||9110.092|Price|product|||NA|rsf:gd-|-stype:attr=1|qr_nm:gd|res:RC3|com-cf:nl|ptrs:na|ktp:N0|mc:208878|mtp:S|qry_typ:P|lang:en|wc:2|cs:8896|v=4,False,,Lucknow,"Shanti Market 209 Thana Gosaiganj post and village Hasanpur Khevali, Lucknow - 228001, Dist.Lucknow, Uttar Pradesh",8048372251,528
"Kids Hand Sanitizer, Spray Bottle, 20pcs",https://www.indiamart.com/proddetail/kids-hand-sanitizer-22527787473.html?pos=16&kwd=baby sanitizer&tags=CC||||9289.285|Price|product|||NA|rsf:gd-|-stype:attr=1|qr_nm:gd|res:RC3|com-cf:nl|ptrs:na|ktp:N0|mc:208878|mtp:S|qry_typ:P|lang:en|wc:2|cs:8896|v=4,S.V. Enterprises,https://www.indiamart.com/sv-enterprises-visakhapatnam/?pos=16&kwd=baby sanitizer&tags=CC||||9289.285|Price|product|||NA|rsf:gd-|-stype:attr=1|qr_nm:gd|res:RC3|com-cf:nl|ptrs:na|ktp:N0|mc:208878|mtp:S|qry_typ:P|lang:en|wc:2|cs:8896|v=4,False,Hanumanthavaka,Visakhapatnam,"18-154, Hanumanthavaka, Visakhapatnam - 530040, Dist.Visakhapatnam, Andhra Pradesh",7942613839,
Sanitizer For Kids 100Ml,,Mahavir Communication,https://www.indiamart.com/mahavir-communication-rajkot/?pos=17&kwd=baby sanitizer&tags=CC||||8038.093|Price|product|||NA|rsf:gd-|-stype:attr=1|qr_nm:gd|res:RC3|com-cf:nl|ptrs:na|ktp:N0|mc:208878|mtp:S|qry_typ:P|lang:en|wc:2|cs:8896|v=4,False,limda chowk,Rajkot,"105, Panchnath complex, limda chowk, Rajkot - 360001, Dist.Rajkot, Gujarat",8048372419,321
"Jungle Magic Hand Sanitizer for Kids, for Personal",https://www.indiamart.com/proddetail/jungle-magic-hand-sanitizer-for-kids-14632229662.html?pos=18&kwd=baby sanitizer&tags=CC||||8785.791|Price|product|||NA|rsf:gd-|-stype:attr=1|qr_nm:gd|res:RC3|com-cf:nl|ptrs:na|ktp:N0|mc:208878|mtp:S|qry_typ:P|lang:en|wc:2|cs:8896|v=4,M S EN Vogue,https://www.indiamart.com/m-s-en-vogue/?pos=18&kwd=baby sanitizer&tags=CC||||8785.791|Price|product|||NA|rsf:gd-|-stype:attr=1|qr_nm:gd|res:RC3|com-cf:nl|ptrs:na|ktp:N0|mc:208878|mtp:S|qry_typ:P|lang:en|wc:2|cs:8896|v=4,False,Ghaziabad,Ghaziabad,"144, Railway Road Bazaria, Near Police Chowky, Ghaziabad, Ghaziabad - 201001, Dist.Ghaziabad, Uttar Pradesh",8048372828,521
"Pink and blue Kids Sanitizer, Packaging Type: Bottle, Above 3",https://www.indiamart.com/proddetail/kids-sanitizer-22451171191.html?pos=19&kwd=baby sanitizer&tags=CC||||8364.597|Price|product|||NA|rsf:gd-|-stype:attr=1|qr_nm:gd|res:RC3|com-cf:nl|ptrs:na|ktp:N0|mc:208878|mtp:S|qry_typ:P|lang:en|wc:2|cs:8896|v=4,Routine,https://www.indiamart.com/routine/?pos=19&kwd=baby sanitizer&tags=CC||||8364.597|Price|product|||NA|rsf:gd-|-stype:attr=1|qr_nm:gd|res:RC3|com-cf:nl|ptrs:na|ktp:N0|mc:208878|mtp:S|qry_typ:P|lang:en|wc:2|cs:8896|v=4,False,,Udaipur,"59, New Fatehpura, Udaipur - 313001, Rajasthan",8048250216,131
Kids Sanitizer Spray,https://www.indiamart.com/proddetail/kids-sanitizer-spray-22396723830.html?pos=20&kwd=baby sanitizer&tags=||||8211.142|Price|product|||NA|rsf:gd-|-stype:attr=1|qr_nm:gd|res:RC3|com-cf:nl|ptrs:na|ktp:N0|mc:208878|mtp:S|qry_typ:P|lang:en|wc:2|cs:8896|v=4,Aarav Design Studio,https://www.indiamart.com/rl-fashion-mumbai/?pos=20&kwd=baby sanitizer&tags=||||8211.142|Price|product|||NA|rsf:gd-|-stype:attr=1|qr_nm:gd|res:RC3|com-cf:nl|ptrs:na|ktp:N0|mc:208878|mtp:S|qry_typ:P|lang:en|wc:2|cs:8896|v=4,False,Malad West,Mumbai,"86, Malad Shopping Center, SV Road, Malad West, Malad West, Mumbai - 400064, Dist.Mumbai, Maharashtra",8048361322,586
"Kids Hand Sanitizer, Flip Top Bottle, 50ml",https://www.indiamart.com/proddetail/kids-hand-sanitizer-22435137648.html?pos=21&kwd=baby sanitizer&tags=||||8211.304|Price|product|||NA|rsf:gd-|-stype:attr=1|qr_nm:gd|res:RC3|com-cf:nl|ptrs:na|ktp:N0|mc:208878|mtp:S|qry_typ:P|lang:en|wc:2|cs:8896|v=4,Hiyan Impex,https://www.indiamart.com/hiyan-impex/?pos=21&kwd=baby sanitizer&tags=||||8211.304|Price|product|||NA|rsf:gd-|-stype:attr=1|qr_nm:gd|res:RC3|com-cf:nl|ptrs:na|ktp:N0|mc:208878|mtp:S|qry_typ:P|lang:en|wc:2|cs:8896|v=4,False,Bhayandar West,Bhayandar,"2nd Floor B-209 Janta Nagar Road, Near Poddar School Bhavesh Building No 2, Bhayandar West, Bhayandar - 401101, Dist.Thane, Maharashtra",8069017486,851
"Mirah Belle - Hand Rub Sanitizer Cleanser - 500 ML - Best for Men, Women and Children",https://www.indiamart.com/proddetail/mirah-belle-hand-rub-sanitizer-cleanser-500-ml-best-for-men-women-and-children-22128540612.html?pos=22&kwd=baby sanitizer&tags=||||8741.812|Price|product|||NA|rsf:gd-|-stype:attr=1|qr_nm:gd|res:RC3|com-cf:nl|ptrs:na|ktp:N0|mc:208878|mtp:S|qry_typ:P|lang:en|wc:2|cs:8896|v=4,Mirah Belle Naturals & Apothecary Private Limited,https://www.indiamart.com/mirahbellenaturalsapothecary/?pos=22&kwd=baby sanitizer&tags=||||8741.812|Price|product|||NA|rsf:gd-|-stype:attr=1|qr_nm:gd|res:RC3|com-cf:nl|ptrs:na|ktp:N0|mc:208878|mtp:S|qry_typ:P|lang:en|wc:2|cs:8896|v=4,False,Sector 37,Gurugram,"B-4, 802, Sector-30, World Spa West, Sector 37, Gurugram - 122001, Dist.Gurgaon, Haryana",7942537693,
"HandSantol Hand Sanitizer With Spray Head & Child Lock, 200 ML Packaging",https://www.indiamart.com/proddetail/hand-sanitizer-with-spray-head-child-lock-22342537773.html?pos=23&kwd=baby sanitizer&tags=||||8769.508|Price|product|||NA|rsf:gd-|-stype:attr=1|qr_nm:gd|res:RC3|com-cf:nl|ptrs:na|ktp:N0|mc:208878|mtp:S|qry_typ:P|lang:en|wc:2|cs:8896|v=4,Satyam Air Gases,https://www.indiamart.com/satyamairgases/?pos=23&kwd=baby sanitizer&tags=||||8769.508|Price|product|||NA|rsf:gd-|-stype:attr=1|qr_nm:gd|res:RC3|com-cf:nl|ptrs:na|ktp:N0|mc:208878|mtp:S|qry_typ:P|lang:en|wc:2|cs:8896|v=4,False,Jawahar Colony,Faridabad,"Plot No. 5586, Parvatiya Colony, Gali No. 214, Jawahar Colony, Faridabad - 121005, Dist.Faridabad, Haryana",8047687303,
"Hand Sanitizer - Cruelty Free - Best for Men, Women and Children Free Cleanser - 500 mL",https://www.indiamart.com/proddetail/hand-sanitizer-cruelty-free-best-for-men-women-and-children-free-cleanser-500-ml-22168802491.html?pos=24&kwd=baby sanitizer&tags=||||8954.051|Price|product|||NA|rsf:gd-|-stype:attr=1|qr_nm:gd|res:RC3|com-cf:nl|ptrs:na|ktp:N0|mc:208878|mtp:S|qry_typ:P|lang:en|wc:2|cs:8896|v=4,J.J Modern Designs,https://www.indiamart.com/j-j-modern-designs/?pos=24&kwd=baby sanitizer&tags=||||8954.051|Price|product|||NA|rsf:gd-|-stype:attr=1|qr_nm:gd|res:RC3|com-cf:nl|ptrs:na|ktp:N0|mc:208878|mtp:S|qry_typ:P|lang:en|wc:2|cs:8896|v=4,False,Arumbakkam,Chennai,"No. 23, Balavinayagar Nagar, 3rd Street, Arumbakkam, Chennai - 600106, Dist.Chennai, Tamil Nadu",8046077471,
Baby Sanitizer,,Technymon Technology India Private Limited,https://www.indiamart.com/technymon-technology-india-pvt-ltd/?pos=25&kwd=baby sanitizer&tags=CC||||8307.81||product|||NA|rsf:gd-|-stype:attr=1|qr_nm:gd|res:RC3|com-cf:nl|ptrs:na|ktp:N0|mc:208878|mtp:S|qry_typ:P|lang:en|wc:2|cs:8896|v=4,False,Chakan,Pune,"Gate No. 3651-A & 1-B, Ambethan Road, Chakan, Pune - 410501, Dist.Pune, Maharashtra",8069264870,751
Baby Sanitizer,,Magical Cocoon,https://www.indiamart.com/magical-cocoon/?pos=26&kwd=baby sanitizer&tags=CC||||8663.873||product|||NA|rsf:gd-|-stype:attr=1|qr_nm:gd|res:RC3|com-cf:nl|ptrs:na|ktp:N0|mc:208878|mtp:S|qry_typ:P|lang:en|wc:2|cs:8896|v=4,False,,Bengaluru,"1490,1st, SHRUNGA, KEMPEGOWDA ROAD 3RD STAGE,RR NAGAR ,,Bengaluru, Bengaluru - 560098, Dist.Bengaluru, Karnataka",8045849991,192
Baby Sanitizer,,Tejas Enterprise,https://www.indiamart.com/tejas-entp-mumbai/?pos=27&kwd=baby sanitizer&tags=CC||||8211.142||product|||NA|rsf:gd-|-stype:attr=1|qr_nm:gd|res:RC3|com-cf:nl|ptrs:na|ktp:N0|mc:208878|mtp:S|qry_typ:P|lang:en|wc:2|cs:8896|v=4,False,Mira Road,Mumbai,"C-15/16,SATYA DARSHAN CHS LTD,MALPA DONGRI NO 3,NEAR SHER E PUNJAB CHS, ANDHERI EAST Shop No 8,400107,Mumbai, Mira Road, Mumbai - 400093, Dist.Mumbai, Maharashtra",8048361245,572
Baby Sanitizer,,Kolors Health Care India Private Limited,https://www.indiamart.com/kolors-health-care-india-private-limited/?pos=28&kwd=baby sanitizer&tags=CC||||8663.873||product|||NA|rsf:gd-|-stype:attr=1|qr_nm:gd|res:RC3|com-cf:nl|ptrs:na|ktp:N0|mc:208878|mtp:S|qry_typ:P|lang:en|wc:2|cs:8896|v=4,False,bangalore,Bengaluru,"2nd Floor Crp Towers 1st Phase 2nd Stage Vijaya Krishna Devula btm 2nd stage, bangalore, Bengaluru - 560076, Dist.Bengaluru, Karnataka",8048372113,665
Baby Hand Sanitizer,,Sai Surya Enterprises,https://www.indiamart.com/sai-surya-enterprises-hyderabad/?pos=29&kwd=baby sanitizer&tags=CC||||8786.56||product|||NA|rsf:gd-|-stype:attr=1|qr_nm:gd|res:RC3|com-cf:nl|ptrs:na|ktp:N0|mc:208878|mtp:S|qry_typ:P|lang:en|wc:2|cs:8896|v=4,False,Nallagandla,Hyderabad,"Near Aparna Sarovar , Gachibowli Road, Nallagandla, Hyderabad - 500019, Dist.Hyderabad, Telangana",8048247113,9768
Kids Hand Sanitizer,,Rubicon Consumer Healthcare Pvt. Ltd.,https://www.indiamart.com/rubicon-consumer-healthcare-pvt-ltd/?pos=30&kwd=baby sanitizer&tags=CC||||8223.226||product|||NA|rsf:gd-|-stype:attr=1|qr_nm:gd|res:RC3|com-cf:nl|ptrs:na|ktp:N0|mc:208878|mtp:S|qry_typ:P|lang:en|wc:2|cs:8896|v=4,False,Thane West,Thane,"Med One House No- B - 75 Road No 33, Thane West, Thane - 400604, Dist.Thane, Maharashtra",8048249780,5378
Kids Sanitizer,,Grace Health Care,https://www.indiamart.com/grace-health-care-amritsar/?pos=31&kwd=baby sanitizer&tags=CC||||8580.032|Price|product|||NA|rsf:gd-|-stype:attr=1|qr_nm:gd|res:RC3|com-cf:nl|ptrs:na|ktp:N0|mc:208878|mtp:S|qry_typ:P|lang:en|wc:2|cs:8896|v=4,False,Airport Road,Amritsar,"D2, Guru Amardass Avenue, Airport Road, Airport Road, Amritsar - 143001, Dist.Amritsar, Punjab",8043829828,
Kids Hand Sanitizer Dispenser Adjustable Wristband,,Robotex,https://www.indiamart.com/robotex/?pos=32&kwd=baby sanitizer&tags=||||8584.299|Price|product|||NA|rsf:gd-|-stype:attr=1|qr_nm:gd|res:RC3|com-cf:nl|ptrs:na|ktp:N0|mc:208878|mtp:S|qry_typ:P|lang:en|wc:2|cs:8896|v=4,False,Peelamedu,Coimbatore,"NO 4/28 A RAJALAKSHMI NAGAR, GROUND FLOOR LAKSHMIPURAM, PEELAMEDU, Coimbatore Tamil Nadu 641004, Peelamedu, Coimbatore - 641004, Dist.Coimbatore, Tamil Nadu",8048371793,768
KIDS POCKET SANITIZER,,Medibull Healthcare Services,https://www.indiamart.com/medibull-healthcare-services/?pos=33&kwd=baby sanitizer&tags=||||9301.656||product|||NA|rsf:gd-|-stype:attr=1|qr_nm:gd|res:RC3|com-cf:nl|ptrs:na|ktp:N0|mc:208878|mtp:S|qry_typ:P|lang:en|wc:2|cs:8896|v=4,False,Nadesar,Varanasi,"Af 3/1 2nd Floor Mint House Colony, Nadesar, Varanasi - 221002, Dist.Varanasi, Uttar Pradesh",8048247134,8482
Softrub,,Indian Hand looms,https://www.indiamart.com/indian-hand-looms/?pos=34&kwd=baby sanitizer&tags=||||8663.873||product|||NA|rsf:gd-|-stype:attr=1|qr_nm:gd|res:RC3|com-cf:nl|ptrs:na|ktp:N0|mc:208878|mtp:S|qry_typ:P|lang:en|wc:2|cs:8896|v=4,False,Marathahalli,Bengaluru,"CT Street, Hebbala Road, Marathalli, Marathahalli, Bengaluru - 560037, Dist.Bengaluru, Karnataka",8048264060,234
Voda Ethyl 80 % Liquid Hand Sanitizers,https://www.indiamart.com/proddetail/ethyl-80-liquid-hand-sanitizers-24262458448.html?pos=35&kwd=baby sanitizer&tags=||||8755.542|Price|product|||TS|rsf:gd-|-stype:attr=1|qr_nm:gd|res:RC3|com-cf:nl|ptrs:na|ktp:N0|mc:208878|mtp:S|qry_typ:P|lang:en|wc:2|cs:8896|v=4,Voda Chemicals Private Limited,https://www.vodachemicals.in/?pos=35&kwd=baby sanitizer&tags=||||8755.542|Price|product|||TS|rsf:gd-|-stype:attr=1|qr_nm:gd|res:RC3|com-cf:nl|ptrs:na|ktp:N0|mc:208878|mtp:S|qry_typ:P|lang:en|wc:2|cs:8896|v=4,True,Kundli,Kundli,"Plot No.171, Sec-53, Phase-5 Kundli Hsiidc Sonepat, Kundli, Kundli - 131028, Dist.Sonipat, Haryana",8046049169,
"Microquell Instant Hand Sanitizer 500 ML, 0.773 Gm/Cc, Type Of Packing: Bottle",https://www.indiamart.com/proddetail/instant-hand-sanitizer-500-ml-12689419648.html?pos=36&kwd=baby sanitizer&tags=||||8236.946|Price|product|||TS|rsf:gd-|-stype:attr=1|qr_nm:gd|res:RC3|com-cf:nl|ptrs:na|ktp:N0|mc:208878|mtp:S|qry_typ:P|lang:en|wc:2|cs:8896|v=4,Aarsha Chemicals Private Limited,https://www.aarshachemicals.com/?pos=36&kwd=baby sanitizer&tags=||||8236.946|Price|product|||TS|rsf:gd-|-stype:attr=1|qr_nm:gd|res:RC3|com-cf:nl|ptrs:na|ktp:N0|mc:208878|mtp:S|qry_typ:P|lang:en|wc:2|cs:8896|v=4,False,Dist,Raigad,"Plot No. 17/27, MIDC Industrial Area Taloja, District Raigad, Dist, Raigad - 410206, Maharashtra",8048601253,
"Germinil HD Propanol Based Rub Hand Sanitizer, 100 ML",https://www.indiamart.com/proddetail/germinil-hd-propanol-based-rub-hand-sanitizer-22341177612.html?pos=37&kwd=baby sanitizer&tags=||||8859.265|Price|product|||TS|rsf:gd-|-stype:attr=1|qr_nm:gd|res:RC3|com-cf:nl|ptrs:na|ktp:N0|mc:208878|mtp:S|qry_typ:P|lang:en|wc:2|cs:8896|v=4,Relief Lab Private Limited,https://www.indiamart.com/relief-lab-kalmeshwar/?pos=37&kwd=baby sanitizer&tags=||||8859.265|Price|product|||TS|rsf:gd-|-stype:attr=1|qr_nm:gd|res:RC3|com-cf:nl|ptrs:na|ktp:N0|mc:208878|mtp:S|qry_typ:P|lang:en|wc:2|cs:8896|v=4,False,Kalmeshwar,Kalmeshwar,"B-45, M.I.D.C Kalmeshwar, Kalmeshwar, Kalmeshwar - 441501, Dist.Nagpur, Maharashtra",8046074801,
Hand Wash Liquid 5 Ltr,https://www.indiamart.com/proddetail/hand-wash-liquid-5-ltr-2853174008397.html?pos=38&kwd=baby sanitizer&tags=||||8788.382|Price|product|||TS|rsf:gd-|-stype:attr=1|qr_nm:gd|res:RC3|com-cf:nl|ptrs:na|ktp:N0|mc:208878|mtp:S|qry_typ:P|lang:en|wc:2|cs:8896|v=4,Triple Action Enterprises LLP,https://www.indiamart.com/triple-action-enterprises/?pos=38&kwd=baby sanitizer&tags=||||8788.382|Price|product|||TS|rsf:gd-|-stype:attr=1|qr_nm:gd|res:RC3|com-cf:nl|ptrs:na|ktp:N0|mc:208878|mtp:S|qry_typ:P|lang:en|wc:2|cs:8896|v=4,False,Surajpur,Greater Noida,"I-142 , Site-c , Upsidc, Industerial Area, Surajpur, Gautam Buddha Nagar, Surajpur, Greater Noida - 201306, Dist.Gautam Budh Nagar, Uttar Pradesh",7942866611,
Alcohol Based Hand Sanitizer,https://www.indiamart.com/proddetail/alcohol-based-hand-sanitizer-24624965997.html?pos=39&kwd=baby sanitizer&tags=||||9839.57|Price|product|||TS|rsf:gd-|-stype:attr=1|qr_nm:gd|res:RC3|com-cf:nl|ptrs:na|ktp:N0|mc:208878|mtp:S|qry_typ:P|lang:en|wc:2|cs:8896|v=4,R.A. Group Of Company,https://www.ragroupofcompany.com/?pos=39&kwd=baby sanitizer&tags=||||9839.57|Price|product|||TS|rsf:gd-|-stype:attr=1|qr_nm:gd|res:RC3|com-cf:nl|ptrs:na|ktp:N0|mc:208878|mtp:S|qry_typ:P|lang:en|wc:2|cs:8896|v=4,False,Dakshin Behala,Kolkata,"220A, NA, Dakshin Behala Road, South 24 Parganas Shoap Address.16/1H/2, Armenian Street Burrabazr Kolkata 01, Dakshin Behala, Kolkata - 700061, Dist.Kolkata, West Bengal",7942555879,
FMS 100 Ml Hand Sanitizer,https://www.indiamart.com/proddetail/100-ml-hand-sanitizer-12809228148.html?pos=40&kwd=baby sanitizer&tags=||||8752.144|Price|product|||TS|rsf:gd-|-stype:attr=1|qr_nm:gd|res:RC3|com-cf:nl|ptrs:na|ktp:N0|mc:208878|mtp:S|qry_typ:P|lang:en|wc:2|cs:8896|v=4,Faith Micro Solutions,https://www.hospitaldisinfectants.in/?pos=40&kwd=baby sanitizer&tags=||||8752.144|Price|product|||TS|rsf:gd-|-stype:attr=1|qr_nm:gd|res:RC3|com-cf:nl|ptrs:na|ktp:N0|mc:208878|mtp:S|qry_typ:P|lang:en|wc:2|cs:8896|v=4,False,Rajender Nagar,New Delhi,"27, Ashoka Chambers, 4th Floor, Rajender Nagar, New Delhi - 110060, Dist.Delhi, Delhi",8048966396,
Peter''s Petillium Hand Rub Disinfectant,https://www.indiamart.com/proddetail/peter-s-petillium-hand-rub-disinfectant-4307964288.html?pos=41&kwd=baby sanitizer&tags=||||8786.56|Price|product|||TS|rsf:gd-|-stype:attr=1|qr_nm:gd|res:RC3|com-cf:nl|ptrs:na|ktp:N0|mc:208878|mtp:S|qry_typ:P|lang:en|wc:2|cs:8896|v=4,Nath Peters Hygeian Limited,https://www.princedisinfectants.com/?pos=41&kwd=baby sanitizer&tags=||||8786.56|Price|product|||TS|rsf:gd-|-stype:attr=1|qr_nm:gd|res:RC3|com-cf:nl|ptrs:na|ktp:N0|mc:208878|mtp:S|qry_typ:P|lang:en|wc:2|cs:8896|v=4,False,Santoshnagar Colony,Hyderabad,"17-1-200, Prince House, I S Sadan, Santoshnagar Colony, Hyderabad - 500059, Dist.Hyderabad, Telangana",8047637336,
"Mount Leaf Hand Sanitizer Disinfectant, 5litre",https://www.indiamart.com/proddetail/mount-leaf-hand-sanitizer-disinfectant-2853086542562.html?pos=42&kwd=baby sanitizer&tags=||||8717.713|Price|product|||MDC|rsf:gd-|-stype:attr=1|qr_nm:gd|res:RC3|com-cf:nl|ptrs:na|ktp:N0|mc:208878|mtp:S|qry_typ:P|lang:en|wc:2|cs:8896|v=4,Mount Leaf Private Limited,https://www.indiamart.com/mountleaf-himachalpradesh/?pos=42&kwd=baby sanitizer&tags=||||8717.713|Price|product|||MDC|rsf:gd-|-stype:attr=1|qr_nm:gd|res:RC3|com-cf:nl|ptrs:na|ktp:N0|mc:208878|mtp:S|qry_typ:P|lang:en|wc:2|cs:8896|v=4,False,Ghurkari,Kangra,"First Floor, House No 2211 Ward No 2, Mount Leaf Private Limited, Vill. Ghurkari P.O. Ghurkari Mouja Ghurkari, Khasra No 1368/327 Opp Hotel Sagar Galory, Ghurkari, Kangra - 176001, Dist.Kangra, Himachal Pradesh",7942637500,
D Germs Herbal Hand Sanitizer 500 Ml,https://www.indiamart.com/proddetail/d-germs-herbal-hand-sanitizer-500-ml-10942813748.html?pos=43&kwd=baby sanitizer&tags=||||8785.791|Price|product|||TS|rsf:gd-|-stype:attr=1|qr_nm:gd|res:RC3|com-cf:nl|ptrs:na|ktp:N0|mc:208878|mtp:S|qry_typ:P|lang:en|wc:2|cs:8896|v=4,Vee Excel Drugs And Pharmaceuticals Private Limited,https://www.vxl.co.in/?pos=43&kwd=baby sanitizer&tags=||||8785.791|Price|product|||TS|rsf:gd-|-stype:attr=1|qr_nm:gd|res:RC3|com-cf:nl|ptrs:na|ktp:N0|mc:208878|mtp:S|qry_typ:P|lang:en|wc:2|cs:8896|v=4,True,Surya Nagar,Ghaziabad,"703, Devika Tower Chander Nagar, Surya Nagar, Ghaziabad - 201011, Dist.Ghaziabad, Uttar Pradesh",8048968979,
Purest Hand Sanitizer Spray 100 Ml (Lemon Grass),https://www.indiamart.com/proddetail/purest-hand-sanitizer-spray-100-ml-lemon-grass-2849422956948.html?pos=44&kwd=baby sanitizer&tags=||||8559.269|Price|product|||TS|rsf:gd-|-stype:attr=1|qr_nm:gd|res:RC3|com-cf:nl|ptrs:na|ktp:N0|mc:208878|mtp:S|qry_typ:P|lang:en|wc:2|cs:8896|v=4,Colorchem Industries Ltd.,https://www.colorchemindustries.in/?pos=44&kwd=baby sanitizer&tags=||||8559.269|Price|product|||TS|rsf:gd-|-stype:attr=1|qr_nm:gd|res:RC3|com-cf:nl|ptrs:na|ktp:N0|mc:208878|mtp:S|qry_typ:P|lang:en|wc:2|cs:8896|v=4,False,Shree Nagar,Indore,"02, Shri Nagar Main, Near Sri Devi Appartment, Shree Nagar, Indore - 452018, Dist.Indore, Madhya Pradesh",8048983310,
"Hand Sanitizer Liquid, 500 ML",https://www.indiamart.com/proddetail/hand-sanitizer-liquid-22466946612.html?pos=45&kwd=baby sanitizer&tags=||||8228.275|Price|product|||TS|rsf:gd-|-stype:attr=1|qr_nm:gd|res:RC3|com-cf:nl|ptrs:na|ktp:N0|mc:208878|mtp:S|qry_typ:P|lang:en|wc:2|cs:8896|v=4,Shived Life Medicare,https://www.indiamart.com/shivedlifemedicare/?pos=45&kwd=baby sanitizer&tags=||||8228.275|Price|product|||TS|rsf:gd-|-stype:attr=1|qr_nm:gd|res:RC3|com-cf:nl|ptrs:na|ktp:N0|mc:208878|mtp:S|qry_typ:P|lang:en|wc:2|cs:8896|v=4,False,Bopal,Ahmedabad,"A-117, Sobo Centre Gala Gymkhana Rad, Bopal, Ahmedabad - 380058, Dist.Ahmedabad, Gujarat",7942553059,
500ml Rose Gel Hand Sanitizer,https://www.indiamart.com/proddetail/500ml-rose-gel-hand-sanitizer-2853383583430.html?pos=46&kwd=baby sanitizer&tags=||||8954.051|Price|product|||TS|rsf:gd-|-stype:attr=1|qr_nm:gd|res:RC3|com-cf:nl|ptrs:na|ktp:N0|mc:208878|mtp:S|qry_typ:P|lang:en|wc:2|cs:8896|v=4,Nutriah Nourish Private Limited,https://www.tharka.co.in/?pos=46&kwd=baby sanitizer&tags=||||8954.051|Price|product|||TS|rsf:gd-|-stype:attr=1|qr_nm:gd|res:RC3|com-cf:nl|ptrs:na|ktp:N0|mc:208878|mtp:S|qry_typ:P|lang:en|wc:2|cs:8896|v=4,False,Chetpet,Chennai,"Ground Floor, New No - 12, Old No - 16, Plot No 44, Harrington Road, II Avenue, Chetpet, Chetpet, Chennai - 600031, Dist.Chennai, Tamil Nadu",7949222556,
Oshine Alcohol Based Hand Sanitizer Gel,https://www.indiamart.com/proddetail/oshine-alcohol-based-hand-sanitizer-gel-26137162230.html?pos=47&kwd=baby sanitizer&tags=||||8228.275|Price|product|||TS|rsf:gd-|-stype:attr=1|qr_nm:gd|res:RC3|com-cf:nl|ptrs:na|ktp:N0|mc:208878|mtp:S|qry_typ:P|lang:en|wc:2|cs:8896|v=4,Ansh Industries,https://www.anshindustries.in.net/?pos=47&kwd=baby sanitizer&tags=||||8228.275|Price|product|||TS|rsf:gd-|-stype:attr=1|qr_nm:gd|res:RC3|com-cf:nl|ptrs:na|ktp:N0|mc:208878|mtp:S|qry_typ:P|lang:en|wc:2|cs:8896|v=4,False,Aslali,Ahmedabad,"28 And 29, Vaibhavlaxmi Const. Co.P.Ltd, NR Forest Road Asian Paini Godown, Aslali, Aslali, Ahmedabad - 382427, Dist.Ahmedabad, Gujarat",8043858658,
Wiz Antiseptic Disinfectant Liquid Flights All Germs and Viruses - 5L Refill Can,https://www.indiamart.com/proddetail/wiz-antiseptic-disinfectant-liquid-flights-all-germs-and-viruses-5l-refill-can-27017205188.html?pos=48&kwd=baby sanitizer&tags=||||8211.142|Price|product|||TS|rsf:gd-|-stype:attr=1|qr_nm:gd|res:RC3|com-cf:nl|ptrs:na|ktp:N0|mc:208878|mtp:S|qry_typ:P|lang:en|wc:2|cs:8896|v=4,Chain Cloud Private Limited,https://www.indiamart.com/chain-cloud-private-limited/?pos=48&kwd=baby sanitizer&tags=||||8211.142|Price|product|||TS|rsf:gd-|-stype:attr=1|qr_nm:gd|res:RC3|com-cf:nl|ptrs:na|ktp:N0|mc:208878|mtp:S|qry_typ:P|lang:en|wc:2|cs:8896|v=4,False,Kandivali West,Mumbai,"GROUND FLOOR, BRINDAVAN CHS LTD, MEERA BAUGH COLONY ROAD,, Kandivali West, Mumbai - 400054, Dist.Mumbai, Maharashtra",8047310852,
"Altressa Hand Sanitizer, Packaging Type: Flip Top Bottle, Packaging Size: 200 ML",https://www.indiamart.com/proddetail/altressa-hand-sanitizer-23032459573.html?pos=49&kwd=baby sanitizer&tags=||||8647.052|Price|product|||TS|rsf:gd-|-stype:attr=1|qr_nm:gd|res:RC3|com-cf:nl|ptrs:na|ktp:N0|mc:208878|mtp:S|qry_typ:P|lang:en|wc:2|cs:8896|v=4,And Brothers Company,https://www.indiamart.com/brothers-company-haryana/?pos=49&kwd=baby sanitizer&tags=||||8647.052|Price|product|||TS|rsf:gd-|-stype:attr=1|qr_nm:gd|res:RC3|com-cf:nl|ptrs:na|ktp:N0|mc:208878|mtp:S|qry_typ:P|lang:en|wc:2|cs:8896|v=4,False,Roop Nagar,Hansi,"UNIT NO. 27 / 18, RAM NAGAR COLONY, BHAGAT SINGH ROAD, Roop Nagar, Hansi - 125033, Dist.Hisar, Haryana",8048977650,
Greendhra Natural Hand Sanitizer,https://www.indiamart.com/proddetail/greendhra-natural-hand-sanitizer-2854729648962.html?pos=50&kwd=baby sanitizer&tags=||||8752.144|Price|product|||MDC|rsf:gd-|-stype:attr=1|qr_nm:gd|res:RC3|com-cf:nl|ptrs:na|ktp:N0|mc:208878|mtp:S|qry_typ:P|lang:en|wc:2|cs:8896|v=4,Greendhra Enviro Solutions Private Limited,https://www.indiamart.com/greendhra-enviro-solutions/?pos=50&kwd=baby sanitizer&tags=||||8752.144|Price|product|||MDC|rsf:gd-|-stype:attr=1|qr_nm:gd|res:RC3|com-cf:nl|ptrs:na|ktp:N0|mc:208878|mtp:S|qry_typ:P|lang:en|wc:2|cs:8896|v=4,False,,New Delhi,"U.G.F, Plot No. 7,8, L Extension, Mohan Garden, Uttam Nagar, West Delhi, New Delhi - 110059, Dist.Delhi, Delhi",7949329083,
"5 L Envouser 5 Environment Sanitizer, Packaging Type: Can, 5litre",https://www.indiamart.com/proddetail/5-l-envouser-5-environment-sanitizer-2854602727048.html?pos=51&kwd=baby sanitizer&tags=||||10180.86|Price|product|||MDC|rsf:gd-|-stype:attr=1|qr_nm:gd|res:RC3|com-cf:nl|ptrs:na|ktp:N0|mc:208878|mtp:S|qry_typ:P|lang:en|wc:2|cs:8896|v=4,Ghanshyam Pharmaceuticals ( Trading Unit ),https://www.indiamart.com/ghanshyampharmaceuticalstradingunit/?pos=51&kwd=baby sanitizer&tags=||||10180.86|Price|product|||MDC|rsf:gd-|-stype:attr=1|qr_nm:gd|res:RC3|com-cf:nl|ptrs:na|ktp:N0|mc:208878|mtp:S|qry_typ:P|lang:en|wc:2|cs:8896|v=4,False,,Guwahati,"M G Road, Fancy Bazar, Metropolitan, Guwahati - 781001, Dist.Kamrup, Assam",7949328975,
Hand Sanitizer Pen 10 ML,https://www.indiamart.com/proddetail/hand-sanitizer-pen-10-ml-20854953312.html?pos=52&kwd=baby sanitizer&tags=||||8228.275|Price|product|||TS|rsf:gd-|-stype:attr=1|qr_nm:gd|res:RC3|com-cf:nl|ptrs:na|ktp:N0|mc:208878|mtp:S|qry_typ:P|lang:en|wc:2|cs:8896|v=4,Kavit Polybind Private Limited,https://www.keishasanitizer.com/?pos=52&kwd=baby sanitizer&tags=||||8228.275|Price|product|||TS|rsf:gd-|-stype:attr=1|qr_nm:gd|res:RC3|com-cf:nl|ptrs:na|ktp:N0|mc:208878|mtp:S|qry_typ:P|lang:en|wc:2|cs:8896|v=4,False,Paraskunj Society,Ahmedabad,"G-512, Titanium City Center, Near Shyamal Cross Road, Satellite, Paraskunj Society, Ahmedabad - 380015, Dist.Ahmedabad, Gujarat",8046040742,
"Hand Sanitizer & Disinfectant, 200 ML",https://www.indiamart.com/proddetail/hand-sanitizer-disinfectant-2848966233797.html?pos=53&kwd=baby sanitizer&tags=||||8228.275|Price|product|||TS|rsf:gd-|-stype:attr=1|qr_nm:gd|res:RC3|com-cf:nl|ptrs:na|ktp:N0|mc:208878|mtp:S|qry_typ:P|lang:en|wc:2|cs:8896|v=4,Jina Cosmetics Private Limited,https://www.jinaindia.in/?pos=53&kwd=baby sanitizer&tags=||||8228.275|Price|product|||TS|rsf:gd-|-stype:attr=1|qr_nm:gd|res:RC3|com-cf:nl|ptrs:na|ktp:N0|mc:208878|mtp:S|qry_typ:P|lang:en|wc:2|cs:8896|v=4,True,Sanand,Ahmedabad,"Plot no. 22 to 25, Sonal Industrial Estate, Sanand Sanand- Viramgam Highway,, Sanand, Ahmedabad - 382110, Dist.Ahmedabad, Gujarat",8047648163,
"Trust Liquid Sanitizer And Disinfectant, 5 Litre",https://www.indiamart.com/proddetail/trust-liquid-sanitizer-and-disinfectant-23650881948.html?pos=54&kwd=baby sanitizer&tags=||||9110.092|Price|product|||TS|rsf:gd-|-stype:attr=1|qr_nm:gd|res:RC3|com-cf:nl|ptrs:na|ktp:N0|mc:208878|mtp:S|qry_typ:P|lang:en|wc:2|cs:8896|v=4,R R Syndicate,https://www.indiamart.com/rr-syndicate-lucknow/?pos=54&kwd=baby sanitizer&tags=||||9110.092|Price|product|||TS|rsf:gd-|-stype:attr=1|qr_nm:gd|res:RC3|com-cf:nl|ptrs:na|ktp:N0|mc:208878|mtp:S|qry_typ:P|lang:en|wc:2|cs:8896|v=4,False,Aminabad,Lucknow,"111/32, LGF, Bhargava Complex, Garbarjhala, Aminabad,, Aminabad, Lucknow - 226018, Dist.Lucknow, Uttar Pradesh",8047628705,
"Hand Sanitizer Disinfectant, 100ml",https://www.indiamart.com/proddetail/hand-sanitizer-disinfectant-2854592281797.html?pos=55&kwd=baby sanitizer&tags=||||8817.752|Price|product|||TS|rsf:gd-|-stype:attr=1|qr_nm:gd|res:RC3|com-cf:nl|ptrs:na|ktp:N0|mc:208878|mtp:S|qry_typ:P|lang:en|wc:2|cs:8896|v=4,Sage Herbals Private Limited,https://www.sageherbals.in/?pos=55&kwd=baby sanitizer&tags=||||8817.752|Price|product|||TS|rsf:gd-|-stype:attr=1|qr_nm:gd|res:RC3|com-cf:nl|ptrs:na|ktp:N0|mc:208878|mtp:S|qry_typ:P|lang:en|wc:2|cs:8896|v=4,True,Colony,Hapur,"A-8, Upsidc Industrial Area, M.g.road, Phase-ii Nimri Colony,, Colony, Hapur - 245101, Dist.Hapur, Uttar Pradesh",8046031505,
Hand Sanitizer Spray Bottle,https://www.indiamart.com/proddetail/hand-sanitizer-spray-bottle-22334690933.html?pos=56&kwd=baby sanitizer&tags=||||8661.854|Price|product|||TS|rsf:gd-|-stype:attr=1|qr_nm:gd|res:RC3|com-cf:nl|ptrs:na|ktp:N0|mc:208878|mtp:S|qry_typ:P|lang:en|wc:2|cs:8896|v=4,Wintrust Pharmaceuticals Ltd.,https://www.wintrustpharmaceuticals.com/?pos=56&kwd=baby sanitizer&tags=||||8661.854|Price|product|||TS|rsf:gd-|-stype:attr=1|qr_nm:gd|res:RC3|com-cf:nl|ptrs:na|ktp:N0|mc:208878|mtp:S|qry_typ:P|lang:en|wc:2|cs:8896|v=4,False,Manakwal,Ludhiana,"Dugri Dhandra Road, Urban Estate, Manakwal, Ludhiana - 141002, Dist.Ludhiana, Punjab",8047623002,
Alcohol Based Hand Sanitizer,https://www.indiamart.com/proddetail/alcohol-based-hand-sanitizer-2849529155291.html?pos=57&kwd=baby sanitizer&tags=||||9839.57|Price|product|||MDC|rsf:gd-|-stype:attr=1|qr_nm:gd|res:RC3|com-cf:nl|ptrs:na|ktp:N0|mc:208878|mtp:S|qry_typ:P|lang:en|wc:2|cs:8896|v=4,Aurafia Pharmaceuticals,https://www.indiamart.com/aurafia-pharmaceuticals/?pos=57&kwd=baby sanitizer&tags=||||9839.57|Price|product|||MDC|rsf:gd-|-stype:attr=1|qr_nm:gd|res:RC3|com-cf:nl|ptrs:na|ktp:N0|mc:208878|mtp:S|qry_typ:P|lang:en|wc:2|cs:8896|v=4,False,Manik Talla,Kolkata,"Shop No. 3/9 Gorachand Bose Road, Manik Talla, Kolkata - 700006, Dist.Kolkata, West Bengal",8047800483,
"Alcohol Based Hand Sanitizer Gel, 50 ml",https://www.indiamart.com/proddetail/alcohol-based-hand-sanitizer-gel-50-ml-11726687333.html?pos=58&kwd=baby sanitizer&tags=||||8869.224|Price|product|||MDC|rsf:gd-|-stype:attr=1|qr_nm:gd|res:RC3|com-cf:nl|ptrs:na|ktp:N0|mc:208878|mtp:S|qry_typ:P|lang:en|wc:2|cs:8896|v=4,Agrawal Drugs Private Limited,https://www.indiamart.com/agarwaldrug/?pos=58&kwd=baby sanitizer&tags=||||8869.224|Price|product|||MDC|rsf:gd-|-stype:attr=1|qr_nm:gd|res:RC3|com-cf:nl|ptrs:na|ktp:N0|mc:208878|mtp:S|qry_typ:P|lang:en|wc:2|cs:8896|v=4,False,Bilvkeshvar Colony,Haridwar,"24/6B, I.I.E., SIDCUL, Integrated Industrial Estate, Sector 6B SIDCUL, Bilvkeshvar Colony, Haridwar - 249403, Dist.Haridwar, Uttarakhand",8046041298,
Waxpol Instant Hand Sanitizer 1 L,https://www.indiamart.com/proddetail/waxpol-instant-hand-sanitizer-1-l-22475804812.html?pos=59&kwd=baby sanitizer&tags=||||9839.57|Price|product|||MDC|rsf:gd-|-stype:attr=1|qr_nm:gd|res:RC3|com-cf:nl|ptrs:na|ktp:N0|mc:208878|mtp:S|qry_typ:P|lang:en|wc:2|cs:8896|v=4,The Waxpol Industries Limited,https://www.indiamart.com/waxpol/?pos=59&kwd=baby sanitizer&tags=||||9839.57|Price|product|||MDC|rsf:gd-|-stype:attr=1|qr_nm:gd|res:RC3|com-cf:nl|ptrs:na|ktp:N0|mc:208878|mtp:S|qry_typ:P|lang:en|wc:2|cs:8896|v=4,False,Dharmatala,Kolkata,"9, Mitter House 71, Ganesh Chandra Avenue, Dharmatala, Kolkata - 700013, Dist.Kolkata, West Bengal",7942560597,
Alcohol Based Hand Sanitizer,https://www.indiamart.com/proddetail/alcohol-based-hand-sanitizer-22277027773.html?pos=60&kwd=baby sanitizer&tags=||||8741.812|Price|product|||TS|rsf:gd-|-stype:attr=1|qr_nm:gd|res:RC3|com-cf:nl|ptrs:na|ktp:N0|mc:208878|mtp:S|qry_typ:P|lang:en|wc:2|cs:8896|v=4,Skpr Industries,https://www.indiamart.com/skprindustries/?pos=60&kwd=baby sanitizer&tags=||||8741.812|Price|product|||TS|rsf:gd-|-stype:attr=1|qr_nm:gd|res:RC3|com-cf:nl|ptrs:na|ktp:N0|mc:208878|mtp:S|qry_typ:P|lang:en|wc:2|cs:8896|v=4,False,Gurgaon Rural,Gurugram,"Kundu Haweli Ashok Vihar Phase-ii New Palam Vihar Road Near Hp Petrol Pump Near HP Petrol Pump, Gurgaon Rural, Gurugram - 122001, Dist.Gurgaon, Haryana",8046069297,
100ml Hand Sanitizer,https://www.indiamart.com/proddetail/100ml-hand-sanitizer-2849543996273.html?pos=61&kwd=baby sanitizer&tags=||||8752.144|Price|product|||TS|rsf:gd-|-stype:attr=1|qr_nm:gd|res:RC3|com-cf:nl|ptrs:na|ktp:N0|mc:208878|mtp:S|qry_typ:P|lang:en|wc:2|cs:8896|v=4,Safe & Fresh Products Private Limited,https://www.safoze.in/?pos=61&kwd=baby sanitizer&tags=||||8752.144|Price|product|||TS|rsf:gd-|-stype:attr=1|qr_nm:gd|res:RC3|com-cf:nl|ptrs:na|ktp:N0|mc:208878|mtp:S|qry_typ:P|lang:en|wc:2|cs:8896|v=4,True,Samaypur,New Delhi,"Ground Floor, Plot Number 19, BLK-AG, Sanjay Gandhi Transport Nagar, Tata Service Station,, Samaypur, New Delhi - 110042, Dist.Delhi, Delhi",8047631226,
Gel Base Sanitizer 5 Litre,https://www.indiamart.com/proddetail/gel-base-sanitizer-5-litre-22395171397.html?pos=62&kwd=baby sanitizer&tags=||||8813.969|Price|product|||TS|rsf:gd-|-stype:attr=1|qr_nm:gd|res:RC3|com-cf:nl|ptrs:na|ktp:N0|mc:208878|mtp:S|qry_typ:P|lang:en|wc:2|cs:8896|v=4,G & A International,https://www.gamaindia.biz/?pos=62&kwd=baby sanitizer&tags=||||8813.969|Price|product|||TS|rsf:gd-|-stype:attr=1|qr_nm:gd|res:RC3|com-cf:nl|ptrs:na|ktp:N0|mc:208878|mtp:S|qry_typ:P|lang:en|wc:2|cs:8896|v=4,False,Boundary Road,Meerut,"354, Govindlok, 61, Boundary Road, Meerut - 250001, Dist.Meerut, Uttar Pradesh",8047639479,
Dabur Sanitize Air Sanitizer - 240 ml,https://www.indiamart.com/proddetail/dabur-sanitize-air-sanitizer-240-ml-26391883588.html?pos=63&kwd=baby sanitizer&tags=||||8307.81|Price|product|||TS|rsf:gd-|-stype:attr=1|qr_nm:gd|res:RC3|com-cf:nl|ptrs:na|ktp:N0|mc:208878|mtp:S|qry_typ:P|lang:en|wc:2|cs:8896|v=4,Noble Foods,https://www.indiamart.com/noble-foods-pune/?pos=63&kwd=baby sanitizer&tags=||||8307.81|Price|product|||TS|rsf:gd-|-stype:attr=1|qr_nm:gd|res:RC3|com-cf:nl|ptrs:na|ktp:N0|mc:208878|mtp:S|qry_typ:P|lang:en|wc:2|cs:8896|v=4,False,Wanowrie,Pune,"S No.16-12 Bldg-M Pns-68,Parmar, Nagar Wanwadi,, Wanowrie, Pune - 411040, Dist.Pune, Maharashtra",8043864266,
"Gel Hand Sanitizer Pen Spray, For Personal",https://www.indiamart.com/proddetail/hand-sanitizer-pen-spray-21301722173.html?pos=64&kwd=baby sanitizer&tags=||||8228.275|Price|product|||TS|rsf:gd-|-stype:attr=1|qr_nm:gd|res:RC3|com-cf:nl|ptrs:na|ktp:N0|mc:208878|mtp:S|qry_typ:P|lang:en|wc:2|cs:8896|v=4,Future Medisurgico,https://www.indiamart.com/futuremedisurgico/?pos=64&kwd=baby sanitizer&tags=||||8228.275|Price|product|||TS|rsf:gd-|-stype:attr=1|qr_nm:gd|res:RC3|com-cf:nl|ptrs:na|ktp:N0|mc:208878|mtp:S|qry_typ:P|lang:en|wc:2|cs:8896|v=4,False,Ghatlodiya,Ahmedabad,"FF/18, Vishwash City 2, Near Pramukh Nagar Ghatlodiya, Ghatlodiya, Ahmedabad - 380061, Dist.Ahmedabad, Gujarat",8046057853,
Dettol Instant Hand Sanitizer 5 Litre,https://www.indiamart.com/proddetail/dettol-instant-hand-sanitizer-5-litre-22359818948.html?pos=65&kwd=baby sanitizer&tags=||||8741.812|Price|product|||TS|rsf:gd-|-stype:attr=1|qr_nm:gd|res:RC3|com-cf:nl|ptrs:na|ktp:N0|mc:208878|mtp:S|qry_typ:P|lang:en|wc:2|cs:8896|v=4,Crimson Communicare LLP,https://www.crimsonkart.com/?pos=65&kwd=baby sanitizer&tags=||||8741.812|Price|product|||TS|rsf:gd-|-stype:attr=1|qr_nm:gd|res:RC3|com-cf:nl|ptrs:na|ktp:N0|mc:208878|mtp:S|qry_typ:P|lang:en|wc:2|cs:8896|v=4,False,Kirti Nagar,Gurgaon,"155, Kirti Nagar, Jharsa Road, Kirti Nagar, Gurgaon - 122001, Dist.Gurgaon, Haryana",8047630737,
Ionoactive Iono Power Sanitizer 500 Ml,https://www.indiamart.com/proddetail/iono-power-sanitizer-500-ml-22355285162.html?pos=66&kwd=baby sanitizer&tags=||||8752.144|Price|product|||TS|rsf:gd-|-stype:attr=1|qr_nm:gd|res:RC3|com-cf:nl|ptrs:na|ktp:N0|mc:208878|mtp:S|qry_typ:P|lang:en|wc:2|cs:8896|v=4,Topsun Learnovative Solutions Private Limited,https://www.educationkit.in/?pos=66&kwd=baby sanitizer&tags=||||8752.144|Price|product|||TS|rsf:gd-|-stype:attr=1|qr_nm:gd|res:RC3|com-cf:nl|ptrs:na|ktp:N0|mc:208878|mtp:S|qry_typ:P|lang:en|wc:2|cs:8896|v=4,False,Rohini Sector 6,New Delhi,"S-220, 221, 222 second floor, kings Mall, Twin District Center, Rohini, Sector -10, Rohini Sector 6, New Delhi - 110085, Dist.Delhi, Delhi",8048973745,
Alcohol Based Aloevera Hand Sanitizer 5 Litre,https://www.indiamart.com/proddetail/alcohol-based-aloevera-hand-sanitizer-5-litre-22263626455.html?pos=67&kwd=baby sanitizer&tags=||||8254.475|Price|product|||TS|rsf:gd-|-stype:attr=1|qr_nm:gd|res:RC3|com-cf:nl|ptrs:na|ktp:N0|mc:208878|mtp:S|qry_typ:P|lang:en|wc:2|cs:8896|v=4,J.M Chemicals,https://www.indiamart.com/jm-chemicals-bharuch/?pos=67&kwd=baby sanitizer&tags=||||8254.475|Price|product|||TS|rsf:gd-|-stype:attr=1|qr_nm:gd|res:RC3|com-cf:nl|ptrs:na|ktp:N0|mc:208878|mtp:S|qry_typ:P|lang:en|wc:2|cs:8896|v=4,False,GIDC,Bharuch,"PLOT NO 4315 /1 ,GIDC,, GIDC, Bharuch - 393002, Dist.Bharuch, Gujarat",7942553175,
"3 IN 1 Pen Sanitizer Spray, Form: Liquid",https://www.indiamart.com/proddetail/3-in-1-pen-sanitizer-spray-22423192533.html?pos=68&kwd=baby sanitizer&tags=||||8752.144|Price|product|||TS|rsf:gd-|-stype:attr=1|qr_nm:gd|res:RC3|com-cf:nl|ptrs:na|ktp:N0|mc:208878|mtp:S|qry_typ:P|lang:en|wc:2|cs:8896|v=4,Rajesh Hosiery Industries,https://www.indiamart.com/rajesh-hosiery-industry/?pos=68&kwd=baby sanitizer&tags=||||8752.144|Price|product|||TS|rsf:gd-|-stype:attr=1|qr_nm:gd|res:RC3|com-cf:nl|ptrs:na|ktp:N0|mc:208878|mtp:S|qry_typ:P|lang:en|wc:2|cs:8896|v=4,False,Shastri Nagar,New Delhi,"E-243, Peepal wali gali, near anju sweets, Shastri Nagar, New Delhi - 110052, Dist.Delhi, Delhi",8046045258,
Herbal Hand Sanitizer,https://www.indiamart.com/proddetail/herbal-hand-sanitizer-23927306362.html?pos=69&kwd=baby sanitizer&tags=||||8601.347|Price|product|||TS|rsf:gd-|-stype:attr=1|qr_nm:gd|res:RC3|com-cf:nl|ptrs:na|ktp:N0|mc:208878|mtp:S|qry_typ:P|lang:en|wc:2|cs:8896|v=4,Akshay Enterprises,https://www.ayuvedakart.com/?pos=69&kwd=baby sanitizer&tags=||||8601.347|Price|product|||TS|rsf:gd-|-stype:attr=1|qr_nm:gd|res:RC3|com-cf:nl|ptrs:na|ktp:N0|mc:208878|mtp:S|qry_typ:P|lang:en|wc:2|cs:8896|v=4,False,Jothwara,Jaipur,"Plot No. 58, Jai Dadi Nagar, Gokulpura Near Rawangate, Kalwar Road, Jothwara, Jaipur - 302012, Dist.Jaipur, Rajasthan",8048955226,
Hand Sanitizer 100 ML,https://www.indiamart.com/proddetail/hand-sanitizer-100-ml-23421676748.html?pos=70&kwd=baby sanitizer&tags=||||8661.854|Price|product|||TS|rsf:gd-|-stype:attr=1|qr_nm:gd|res:RC3|com-cf:nl|ptrs:na|ktp:N0|mc:208878|mtp:S|qry_typ:P|lang:en|wc:2|cs:8896|v=4,Unisage Green Sciences,https://www.blesswinmedicare.com/?pos=70&kwd=baby sanitizer&tags=||||8661.854|Price|product|||TS|rsf:gd-|-stype:attr=1|qr_nm:gd|res:RC3|com-cf:nl|ptrs:na|ktp:N0|mc:208878|mtp:S|qry_typ:P|lang:en|wc:2|cs:8896|v=4,False,New Hargobind Nagar,Ludhiana,"3899, ST.No.4, Hargobindpura, 3899, ST.No.4, Hargobindpura, New Hargobind Nagar, Ludhiana - 141008, Dist.Ludhiana, Punjab",8046047954,
"Glycerine Gel Base Hand Sanitizer, 30913, 500ml",https://www.indiamart.com/proddetail/glycerine-gel-base-hand-sanitizer-30913-500ml-22717216297.html?pos=71&kwd=baby sanitizer&tags=||||8752.144|Price|product|||TS|rsf:gd-|-stype:attr=1|qr_nm:gd|res:RC3|com-cf:nl|ptrs:na|ktp:N0|mc:208878|mtp:S|qry_typ:P|lang:en|wc:2|cs:8896|v=4,Poornarth Solutions,https://www.poornarth.com/?pos=71&kwd=baby sanitizer&tags=||||8752.144|Price|product|||TS|rsf:gd-|-stype:attr=1|qr_nm:gd|res:RC3|com-cf:nl|ptrs:na|ktp:N0|mc:208878|mtp:S|qry_typ:P|lang:en|wc:2|cs:8896|v=4,False,Patparganj,New Delhi,"149 A, Pocket A, Mayur Vihar, Phase 2, Patparganj, New Delhi - 110091, Dist.Delhi, Delhi",8048610220,
Hand Sanitizer Pen Spray 10 ML,https://www.indiamart.com/proddetail/hand-sanitizer-pen-spray-10-ml-22781340830.html?pos=72&kwd=baby sanitizer&tags=||||8752.144|Price|product|||TS|rsf:gd-|-stype:attr=1|qr_nm:gd|res:RC3|com-cf:nl|ptrs:na|ktp:N0|mc:208878|mtp:S|qry_typ:P|lang:en|wc:2|cs:8896|v=4,Elegance Asia,https://www.indiamart.com/eleganceasia/?pos=72&kwd=baby sanitizer&tags=||||8752.144|Price|product|||TS|rsf:gd-|-stype:attr=1|qr_nm:gd|res:RC3|com-cf:nl|ptrs:na|ktp:N0|mc:208878|mtp:S|qry_typ:P|lang:en|wc:2|cs:8896|v=4,False,Ramesh Nagar,New Delhi,"Ramesh Nagar, Ramesh Nagar, New Delhi - 110015, Dist.Delhi, Delhi",8048975504,
HAND SANITIZER,https://www.indiamart.com/proddetail/hand-sanitizer-23387717055.html?pos=73&kwd=baby sanitizer&tags=||||8788.159||product|||TS|rsf:gd-|-stype:attr=1|qr_nm:gd|res:RC3|com-cf:nl|ptrs:na|ktp:N0|mc:208878|mtp:S|qry_typ:P|lang:en|wc:2|cs:8896|v=4,Simplex Enterprises,https://www.indiamart.com/simplexenterprises/?pos=73&kwd=baby sanitizer&tags=||||8788.159||product|||TS|rsf:gd-|-stype:attr=1|qr_nm:gd|res:RC3|com-cf:nl|ptrs:na|ktp:N0|mc:208878|mtp:S|qry_typ:P|lang:en|wc:2|cs:8896|v=4,False,Old Bhoiguda,Secunderabad,"No. 4-6-16/1, Pan Bazar, Old Bhoiguda, Secunderabad - 500003, Dist.Hyderabad, Telangana",8046050747,
Generic Pack Of 3_ Pen With Sanitizer (color: Assorted),https://www.indiamart.com/proddetail/generic-pack-of-3-pen-with-sanitizer-color-assorted-2853956324933.html?pos=74&kwd=baby sanitizer&tags=||||8639.861|Price|product|||MDC|rsf:gd-|-stype:attr=1|qr_nm:gd|res:RC3|com-cf:nl|ptrs:na|ktp:N0|mc:208878|mtp:S|qry_typ:P|lang:en|wc:2|cs:8896|v=4,Bhavithram Products,https://www.indiamart.com/bhavithram-products-tamilnadu/?pos=74&kwd=baby sanitizer&tags=||||8639.861|Price|product|||MDC|rsf:gd-|-stype:attr=1|qr_nm:gd|res:RC3|com-cf:nl|ptrs:na|ktp:N0|mc:208878|mtp:S|qry_typ:P|lang:en|wc:2|cs:8896|v=4,False,Kothankulam,Rajapalayam,"73B-1 Alagathankulam Road, Kothankulam, Rajapalayam - 626117, Dist.Virudhunagar, Tamil Nadu",,
"Ethanol Hand Sanitizer 500 ML, Bottle",https://www.indiamart.com/proddetail/ethanol-hand-sanitizer-500-ml-22417288988.html?pos=75&kwd=baby sanitizer&tags=||||8754.115|Price|product|||TS|rsf:gd-|-stype:attr=1|qr_nm:gd|res:RC3|com-cf:nl|ptrs:na|ktp:N0|mc:208878|mtp:S|qry_typ:P|lang:en|wc:2|cs:8896|v=4,Medbeat Healthcare,https://www.medbeathealthcare.in/?pos=75&kwd=baby sanitizer&tags=||||8754.115|Price|product|||TS|rsf:gd-|-stype:attr=1|qr_nm:gd|res:RC3|com-cf:nl|ptrs:na|ktp:N0|mc:208878|mtp:S|qry_typ:P|lang:en|wc:2|cs:8896|v=4,False,Sector 20,Panchkula,"Plot No 295 Industrial Area Phase 2, Sector 20, Panchkula - 134113, Dist.Panchkula, Haryana",7942549269,
100ml Alcoholic Rub Hand Disinfectant,https://www.indiamart.com/proddetail/100ml-alcoholic-rub-hand-disinfectant-23832796288.html?pos=76&kwd=baby sanitizer&tags=||||8228.275|Price|product|||TS|rsf:gd-|-stype:attr=1|qr_nm:gd|res:RC3|com-cf:nl|ptrs:na|ktp:N0|mc:208878|mtp:S|qry_typ:P|lang:en|wc:2|cs:8896|v=4,Tatvam Healthcare Private Limited,https://www.indiamart.com/tatvamhealthcare/?pos=76&kwd=baby sanitizer&tags=||||8228.275|Price|product|||TS|rsf:gd-|-stype:attr=1|qr_nm:gd|res:RC3|com-cf:nl|ptrs:na|ktp:N0|mc:208878|mtp:S|qry_typ:P|lang:en|wc:2|cs:8896|v=4,False,Santej,Ahmedabad,"85, Mahaveer Estate, Kothari Cross Road, Santej, Santej, Ahmedabad - 380060, Dist.Ahmedabad, Gujarat",8046070780,
Alcohol Based Hand Sanitizer,https://www.indiamart.com/proddetail/alcohol-based-hand-sanitizer-2851448552748.html?pos=77&kwd=baby sanitizer&tags=||||8168.6484|Price|product|||TS|rsf:gd-|-stype:attr=1|qr_nm:gd|res:RC3|com-cf:nl|ptrs:na|ktp:N0|mc:208878|mtp:S|qry_typ:P|lang:en|wc:2|cs:8896|v=4,Prince Care Pharma Private Limited,https://www.indiamart.com/prince-care-pharma/?pos=77&kwd=baby sanitizer&tags=||||8168.6484|Price|product|||TS|rsf:gd-|-stype:attr=1|qr_nm:gd|res:RC3|com-cf:nl|ptrs:na|ktp:N0|mc:208878|mtp:S|qry_typ:P|lang:en|wc:2|cs:8896|v=4,False,Chitra,Bhavnagar,"Plot No 255 2, G I D C Chitra, Chitra, Bhavnagar - 364004, Dist.Bhavnagar, Gujarat",7942834880,
Rita Hand Sanitizer 100 ml Spray,https://www.indiamart.com/proddetail/rita-hand-sanitizer-100-ml-spray-23437187048.html?pos=78&kwd=baby sanitizer&tags=||||8211.142|Price|product|||TS|rsf:gd-|-stype:attr=1|qr_nm:gd|res:RC3|com-cf:nl|ptrs:na|ktp:N0|mc:208878|mtp:S|qry_typ:P|lang:en|wc:2|cs:8896|v=4,Rita Enterprises,https://www.ritaenterprise.co.in/?pos=78&kwd=baby sanitizer&tags=||||8211.142|Price|product|||TS|rsf:gd-|-stype:attr=1|qr_nm:gd|res:RC3|com-cf:nl|ptrs:na|ktp:N0|mc:208878|mtp:S|qry_typ:P|lang:en|wc:2|cs:8896|v=4,False,Dahisar East,Mumbai,"2/3, 2, 3, Rafiq Industrial Estate, End Of S. V. Road, Dahisar East, Mumbai - 400068, Dist.Mumbai, Maharashtra",8048619897,
Liquid Hand Sanitizer,https://www.indiamart.com/proddetail/liquid-hand-sanitizer-24515684755.html?pos=79&kwd=baby sanitizer&tags=||||8559.269|Price|product|||TS|rsf:gd-|-stype:attr=1|qr_nm:gd|res:RC3|com-cf:nl|ptrs:na|ktp:N0|mc:208878|mtp:S|qry_typ:P|lang:en|wc:2|cs:8896|v=4,Muskan Enterprises,https://www.indiamart.com/muskan-enterprises-sagar/?pos=79&kwd=baby sanitizer&tags=||||8559.269|Price|product|||TS|rsf:gd-|-stype:attr=1|qr_nm:gd|res:RC3|com-cf:nl|ptrs:na|ktp:N0|mc:208878|mtp:S|qry_typ:P|lang:en|wc:2|cs:8896|v=4,False,Khatiwala Tank,Indore,"32, Veer Sawarkar Nagar, Khatiwala Tank, Indore - 452014, Dist.Indore, Madhya Pradesh",8047641149,
"1Mile Healthcare Liquid Hand Sanitizer 5 Ltr Jar, 70% Alcohol content Commercial Pack",https://www.indiamart.com/proddetail/1mile-healthcare-liquid-hand-sanitizer-5-ltr-jar-70-alcohol-content-commercial-pack-2850680951748.html?pos=80&kwd=baby sanitizer&tags=||||8461.862|Price|product|||TS|rsf:gd-|-stype:attr=1|qr_nm:gd|res:RC3|com-cf:nl|ptrs:na|ktp:N0|mc:208878|mtp:S|qry_typ:P|lang:en|wc:2|cs:8896|v=4,1mile Healthcare,https://www.indiamart.com/onemilehealthcare/?pos=80&kwd=baby sanitizer&tags=||||8461.862|Price|product|||TS|rsf:gd-|-stype:attr=1|qr_nm:gd|res:RC3|com-cf:nl|ptrs:na|ktp:N0|mc:208878|mtp:S|qry_typ:P|lang:en|wc:2|cs:8896|v=4,False,Near Gambhir Hospital,Bhilwara,"1st Floor, Galaxy Marketing, Near Gambhir Hospital, Bhilwara - 311001, Dist.Bhilwara, Rajasthan",8048975771,
Wheezal Handrub Hand Sanitizer (500ml),https://www.indiamart.com/proddetail/wheezal-handrub-hand-sanitizer-500ml-2852178673762.html?pos=81&kwd=baby sanitizer&tags=||||9600.935|Price|product|||MDC|rsf:gd-|-stype:attr=1|qr_nm:gd|res:RC3|com-cf:nl|ptrs:na|ktp:N0|mc:208878|mtp:S|qry_typ:P|lang:en|wc:2|cs:8896|v=4,Golden-Patel Son,https://www.indiamart.com/goldenpatel-son-teghra/?pos=81&kwd=baby sanitizer&tags=||||9600.935|Price|product|||MDC|rsf:gd-|-stype:attr=1|qr_nm:gd|res:RC3|com-cf:nl|ptrs:na|ktp:N0|mc:208878|mtp:S|qry_typ:P|lang:en|wc:2|cs:8896|v=4,False,Keshri Nagar,Teghra,"Bazidpur Jankiram, Ward No 8, Near Shiv Mandir, Begusarai, Keshri Nagar, Teghra - 851133, Dist.Begusarai, Bihar",,
Simco Oxyveda Hand Sanitizer,https://www.indiamart.com/proddetail/simco-oxyveda-hand-sanitizer-2852263466897.html?pos=82&kwd=baby sanitizer&tags=||||8559.269|Price|product|||TS|rsf:gd-|-stype:attr=1|qr_nm:gd|res:RC3|com-cf:nl|ptrs:na|ktp:N0|mc:208878|mtp:S|qry_typ:P|lang:en|wc:2|cs:8896|v=4,Subhash Stores,https://www.indiamart.com/subhash-stores/?pos=82&kwd=baby sanitizer&tags=||||8559.269|Price|product|||TS|rsf:gd-|-stype:attr=1|qr_nm:gd|res:RC3|com-cf:nl|ptrs:na|ktp:N0|mc:208878|mtp:S|qry_typ:P|lang:en|wc:2|cs:8896|v=4,False,Gadi Adda,Indore,"77, RANIPURA MAIN ROAD INDORE, Gadi Adda, Indore - 452001, Dist.Indore, Madhya Pradesh",8047698960,
Silicone Wristbands Hand Sanitizer,https://www.indiamart.com/proddetail/silicone-wristbands-hand-sanitizer-23494268262.html?pos=83&kwd=baby sanitizer&tags=||||8752.144|Price|product|||TS|rsf:gd-|-stype:attr=1|qr_nm:gd|res:RC3|com-cf:nl|ptrs:na|ktp:N0|mc:208878|mtp:S|qry_typ:P|lang:en|wc:2|cs:8896|v=4,Ks Enterprises,https://www.indiamart.com/ks-enterprisesnew-delhi/?pos=83&kwd=baby sanitizer&tags=||||8752.144|Price|product|||TS|rsf:gd-|-stype:attr=1|qr_nm:gd|res:RC3|com-cf:nl|ptrs:na|ktp:N0|mc:208878|mtp:S|qry_typ:P|lang:en|wc:2|cs:8896|v=4,False,Vijay Park,New Delhi,"137 MAUJPUR KACHCHI COLONY DELHI North East, Vijay Park, New Delhi - 110053, Dist.Delhi, Delhi",8046035810,
pure rub Hand Sanitizer Liquid Gel 5 Ltr,https://www.indiamart.com/proddetail/hand-sanitizer-liquid-gel-5-ltr-21607236588.html?pos=84&kwd=baby sanitizer&tags=||||8663.873|Price|product|||TS|rsf:gd-|-stype:attr=1|qr_nm:gd|res:RC3|com-cf:nl|ptrs:na|ktp:N0|mc:208878|mtp:S|qry_typ:P|lang:en|wc:2|cs:8896|v=4,Bluepoint Office Solutions,https://www.bluepointoffice.co.in/?pos=84&kwd=baby sanitizer&tags=||||8663.873|Price|product|||TS|rsf:gd-|-stype:attr=1|qr_nm:gd|res:RC3|com-cf:nl|ptrs:na|ktp:N0|mc:208878|mtp:S|qry_typ:P|lang:en|wc:2|cs:8896|v=4,False,New Thippasandra,Bengaluru,"Ground Floor, No1064, BBMP No 82, 4th Cross, 4th Main, New Thippasandra, New Thippasandra, Bengaluru - 560075, Dist.Bengaluru, Karnataka",8048957489,
Purest Alcohol Based Hand Sanitizer 200 Ml (Lemon Grass),https://www.indiamart.com/proddetail/purest-alcohol-based-hand-sanitizer-200-ml-lemon-grass-2849425035530.html?pos=85&kwd=baby sanitizer&tags=||||8559.269|Price|product|||TS|rsf:gd-|-stype:attr=1|qr_nm:gd|res:RC3|com-cf:nl|ptrs:na|ktp:N0|mc:208878|mtp:S|qry_typ:P|lang:en|wc:2|cs:8896|v=4,Paint Brush Limited,https://www.indiamart.com/paintbrush-indore/?pos=85&kwd=baby sanitizer&tags=||||8559.269|Price|product|||TS|rsf:gd-|-stype:attr=1|qr_nm:gd|res:RC3|com-cf:nl|ptrs:na|ktp:N0|mc:208878|mtp:S|qry_typ:P|lang:en|wc:2|cs:8896|v=4,False,Anoop Nagar,Indore,"2,Shri Nagar Main, Near Shri Devi Apartment, Anoop Nagar, Indore - 452018, Dist.Indore, Madhya Pradesh",8048213860,
Alcohol Based Hand Sanitizer,https://www.indiamart.com/proddetail/alcohol-based-hand-sanitizer-23304525473.html?pos=86&kwd=baby sanitizer&tags=||||8228.275|Price|product|||TS|rsf:gd-|-stype:attr=1|qr_nm:gd|res:RC3|com-cf:nl|ptrs:na|ktp:N0|mc:208878|mtp:S|qry_typ:P|lang:en|wc:2|cs:8896|v=4,Prominence Healthcare Private Limited,https://www.prominencehpl.com/?pos=86&kwd=baby sanitizer&tags=||||8228.275|Price|product|||TS|rsf:gd-|-stype:attr=1|qr_nm:gd|res:RC3|com-cf:nl|ptrs:na|ktp:N0|mc:208878|mtp:S|qry_typ:P|lang:en|wc:2|cs:8896|v=4,True,Changodar,Ahmedabad,"C/42, Arvind Mega Park, Parikh Packaging Road Opp. Sarvoday Hotel, Changodar, Ahmedabad - 380015, Dist.Ahmedabad, Gujarat",7942538212,
Dettol Instant Hand Sanitizer 200 ML,https://www.indiamart.com/proddetail/dettol-instant-hand-sanitizer-200-ml-21942439530.html?pos=87&kwd=baby sanitizer&tags=||||8211.142|Price|product|||TS|rsf:gd-|-stype:attr=1|qr_nm:gd|res:RC3|com-cf:nl|ptrs:na|ktp:N0|mc:208878|mtp:S|qry_typ:P|lang:en|wc:2|cs:8896|v=4,Arihant Stationary & Computer,https://www.indiamart.com/arihant-stationary-computer/?pos=87&kwd=baby sanitizer&tags=||||8211.142|Price|product|||TS|rsf:gd-|-stype:attr=1|qr_nm:gd|res:RC3|com-cf:nl|ptrs:na|ktp:N0|mc:208878|mtp:S|qry_typ:P|lang:en|wc:2|cs:8896|v=4,False,Ghatkopar East,Mumbai,"213, Bora Bazar Street, Fort, Ghatkopar East, Mumbai - 400001, Dist.Mumbai, Maharashtra",8047631221,
Hand Sanitizer,https://www.indiamart.com/proddetail/hand-sanitizer-2851970346791.html?pos=88&kwd=baby sanitizer&tags=||||8230.883|Price|product|||TS|rsf:gd-|-stype:attr=1|qr_nm:gd|res:RC3|com-cf:nl|ptrs:na|ktp:N0|mc:208878|mtp:S|qry_typ:P|lang:en|wc:2|cs:8896|v=4,Shanti Medicare,https://www.indiamart.com/shanti-medicare/?pos=88&kwd=baby sanitizer&tags=||||8230.883|Price|product|||TS|rsf:gd-|-stype:attr=1|qr_nm:gd|res:RC3|com-cf:nl|ptrs:na|ktp:N0|mc:208878|mtp:S|qry_typ:P|lang:en|wc:2|cs:8896|v=4,False,126 shardha row row house,Surat,"S 20, Swastik Plaza, Yogi Chowk,, 126 shardha row row house, Surat - 395010, Dist.Surat, Gujarat",7942835980,
5 Litre Buzil Rossari Aseptic Hand Sanitizer,https://www.indiamart.com/proddetail/5-litre-buzil-rossari-aseptic-hand-sanitizer-2854621905273.html?pos=89&kwd=baby sanitizer&tags=||||8752.144|Price|product|||TS|rsf:gd-|-stype:attr=1|qr_nm:gd|res:RC3|com-cf:nl|ptrs:na|ktp:N0|mc:208878|mtp:S|qry_typ:P|lang:en|wc:2|cs:8896|v=4,Chaneph Business Solution Private Limited,https://www.indiamart.com/chanephin-fotech/?pos=89&kwd=baby sanitizer&tags=||||8752.144|Price|product|||TS|rsf:gd-|-stype:attr=1|qr_nm:gd|res:RC3|com-cf:nl|ptrs:na|ktp:N0|mc:208878|mtp:S|qry_typ:P|lang:en|wc:2|cs:8896|v=4,False,,New Delhi,"Ground Floor, Hno-265, Rajpur Extn, Chattarpur, New Delhi - 110068, Dist.Delhi, Delhi",8048980811,
"5L Trust Hand Sanitizer, Packaging Type: Can, 5litre",https://www.indiamart.com/proddetail/5l-trust-hand-sanitizer-2853729670833.html?pos=90&kwd=baby sanitizer&tags=||||8663.873|Price|product|||MDC|rsf:gd-|-stype:attr=1|qr_nm:gd|res:RC3|com-cf:nl|ptrs:na|ktp:N0|mc:208878|mtp:S|qry_typ:P|lang:en|wc:2|cs:8896|v=4,Echopills,https://www.indiamart.com/echopills-bengaluru/?pos=90&kwd=baby sanitizer&tags=||||8663.873|Price|product|||MDC|rsf:gd-|-stype:attr=1|qr_nm:gd|res:RC3|com-cf:nl|ptrs:na|ktp:N0|mc:208878|mtp:S|qry_typ:P|lang:en|wc:2|cs:8896|v=4,False,Cox Town,Bengaluru,"26, Splendid Plaza, Wheeler Road, Cox Town, Bengaluru Urban, Cox Town, Bengaluru - 560005, Dist.Bengaluru, Karnataka",7949372411,
"Microgen Microsteril Hand Sanitizer, Pack Size: 100ml",https://www.indiamart.com/proddetail/microsteril-hand-sanitizer-20708027062.html?pos=91&kwd=baby sanitizer&tags=||||8221.041|Price|product|||MDC|rsf:gd-|-stype:attr=1|qr_nm:gd|res:RC3|com-cf:nl|ptrs:na|ktp:N0|mc:208878|mtp:S|qry_typ:P|lang:en|wc:2|cs:8896|v=4,Ashtavinayak Pharma,https://www.indiamart.com/ashtavinayakpharma/?pos=91&kwd=baby sanitizer&tags=||||8221.041|Price|product|||MDC|rsf:gd-|-stype:attr=1|qr_nm:gd|res:RC3|com-cf:nl|ptrs:na|ktp:N0|mc:208878|mtp:S|qry_typ:P|lang:en|wc:2|cs:8896|v=4,False,Mulund West,Mulund,"Gala no. 120, A wing, 1st floor, Shanti Industrial Estate, S.N Road, Tambe Nagar, Mulund West, Mulund - 400080, Dist.Mumbai, Maharashtra",8046033953,
500 Ml Lifebuoy Hand Sanitizer,https://www.indiamart.com/proddetail/500-ml-lifebuoy-hand-sanitizer-22790737848.html?pos=92&kwd=baby sanitizer&tags=||||8752.144|Price|product|||TS|rsf:gd-|-stype:attr=1|qr_nm:gd|res:RC3|com-cf:nl|ptrs:na|ktp:N0|mc:208878|mtp:S|qry_typ:P|lang:en|wc:2|cs:8896|v=4,Industrial Solutions,https://www.industrialsolutionsindia.in/?pos=92&kwd=baby sanitizer&tags=||||8752.144|Price|product|||TS|rsf:gd-|-stype:attr=1|qr_nm:gd|res:RC3|com-cf:nl|ptrs:na|ktp:N0|mc:208878|mtp:S|qry_typ:P|lang:en|wc:2|cs:8896|v=4,False,TAGORE GARDEN,New Delhi,"BA-314,,BA BLOCK,TAGORE GARDEN, TAGORE GARDEN, New Delhi - 110027, Dist.Delhi, Delhi",8046031484,
Salclin Liquid Hand Sanitizer,https://www.indiamart.com/proddetail/salclin-liquid-hand-sanitizer-23541108048.html?pos=93&kwd=baby sanitizer&tags=||||8954.051|Price|product|||TS|rsf:gd-|-stype:attr=1|qr_nm:gd|res:RC3|com-cf:nl|ptrs:na|ktp:N0|mc:208878|mtp:S|qry_typ:P|lang:en|wc:2|cs:8896|v=4,Xeno Life Science Private Limited,https://www.indiamart.com/xeno-life-science/?pos=93&kwd=baby sanitizer&tags=||||8954.051|Price|product|||TS|rsf:gd-|-stype:attr=1|qr_nm:gd|res:RC3|com-cf:nl|ptrs:na|ktp:N0|mc:208878|mtp:S|qry_typ:P|lang:en|wc:2|cs:8896|v=4,False,Kil Ayanambakkam,Chennai,"No.87, Part B Ground Floor, Shree Kumaran Nagar, 8th Street Kovur, Kil Ayanambakkam, Chennai - 600128, Dist.Chennai, Tamil Nadu",8048959148,
"5 L Enair Hand Sanitizer, Packaging Type: Plastic Can",https://www.indiamart.com/proddetail/5-l-enair-hand-sanitizer-23109265862.html?pos=94&kwd=baby sanitizer&tags=||||8211.142|Price|product|||TS|rsf:gd-|-stype:attr=1|qr_nm:gd|res:RC3|com-cf:nl|ptrs:na|ktp:N0|mc:208878|mtp:S|qry_typ:P|lang:en|wc:2|cs:8896|v=4,Modern Healthcare Pvt.Ltd.,https://www.indiamart.com/modern-healthcare-maharashtra/?pos=94&kwd=baby sanitizer&tags=||||8211.142|Price|product|||TS|rsf:gd-|-stype:attr=1|qr_nm:gd|res:RC3|com-cf:nl|ptrs:na|ktp:N0|mc:208878|mtp:S|qry_typ:P|lang:en|wc:2|cs:8896|v=4,False,Bandra East,Mumbai,"4th Floor 39/34 MK Amin Road Building No. 8 Fort, Bandra East, Mumbai - 400001, Dist.Mumbai, Maharashtra",8048987438,
"Varaa Hand Sanitizer, 5 L",https://www.indiamart.com/proddetail/varaa-hand-sanitizer-23858500988.html?pos=95&kwd=baby sanitizer&tags=||||8663.873|Price|product|||TS|rsf:gd-|-stype:attr=1|qr_nm:gd|res:RC3|com-cf:nl|ptrs:na|ktp:N0|mc:208878|mtp:S|qry_typ:P|lang:en|wc:2|cs:8896|v=4,Desai Corporate,https://www.indiamart.com/desaicorporate/?pos=95&kwd=baby sanitizer&tags=||||8663.873|Price|product|||TS|rsf:gd-|-stype:attr=1|qr_nm:gd|res:RC3|com-cf:nl|ptrs:na|ktp:N0|mc:208878|mtp:S|qry_typ:P|lang:en|wc:2|cs:8896|v=4,False,Domlur,Bengaluru,"No.648, Ground Floor, 7th A Main Road, B Type, 2nd Phase, 3rd Stage, Damlur, Domlur, Bengaluru - 560071, Dist.Bengaluru, Karnataka",8048263970,
Khadi Pure Herbal Hand Sanitizer 5 Litre,https://www.indiamart.com/proddetail/khadi-pure-herbal-hand-sanitizer-5-litre-22366559488.html?pos=96&kwd=baby sanitizer&tags=||||8752.144|Price|product|||TS|rsf:gd-|-stype:attr=1|qr_nm:gd|res:RC3|com-cf:nl|ptrs:na|ktp:N0|mc:208878|mtp:S|qry_typ:P|lang:en|wc:2|cs:8896|v=4,Medisure Inc,https://www.indiamart.com/medisureinc/?pos=96&kwd=baby sanitizer&tags=||||8752.144|Price|product|||TS|rsf:gd-|-stype:attr=1|qr_nm:gd|res:RC3|com-cf:nl|ptrs:na|ktp:N0|mc:208878|mtp:S|qry_typ:P|lang:en|wc:2|cs:8896|v=4,False,Rohini Sector 15,New Delhi,"1st Floor, I-8/20 Wegmans Prinston Plaza, Rohini Sector 15, New Delhi - 110089, Dist.Delhi, Delhi",8046032410,
Hand Sanitizer,https://www.indiamart.com/proddetail/hand-sanitizer-2853149486662.html?pos=97&kwd=baby sanitizer&tags=||||8663.873|Price|product|||TS|rsf:gd-|-stype:attr=1|qr_nm:gd|res:RC3|com-cf:nl|ptrs:na|ktp:N0|mc:208878|mtp:S|qry_typ:P|lang:en|wc:2|cs:8896|v=4,Regalos,https://www.indiamart.com/regalos-bengaluru/?pos=97&kwd=baby sanitizer&tags=||||8663.873|Price|product|||TS|rsf:gd-|-stype:attr=1|qr_nm:gd|res:RC3|com-cf:nl|ptrs:na|ktp:N0|mc:208878|mtp:S|qry_typ:P|lang:en|wc:2|cs:8896|v=4,False,Vasant Nagar,Bengaluru,"B-02,No 7,Prestige Centre Point, Edward Road, Vasant Nagar, Bengaluru - 560052, Dist.Bengaluru, Karnataka",8048607907,
Alcohol Based Hand Sanitizer,https://www.indiamart.com/proddetail/alcohol-based-hand-sanitizer-12188198491.html?pos=98&kwd=baby sanitizer&tags=||||8223.226|Price|product|||TS|rsf:gd-|-stype:attr=1|qr_nm:gd|res:RC3|com-cf:nl|ptrs:na|ktp:N0|mc:208878|mtp:S|qry_typ:P|lang:en|wc:2|cs:8896|v=4,Raviraj Chemicals,https://www.indiamart.com/raviraj-chem-thane/?pos=98&kwd=baby sanitizer&tags=||||8223.226|Price|product|||TS|rsf:gd-|-stype:attr=1|qr_nm:gd|res:RC3|com-cf:nl|ptrs:na|ktp:N0|mc:208878|mtp:S|qry_typ:P|lang:en|wc:2|cs:8896|v=4,False,Dombivli East,Thane,"A- 102, Silver Coin, Near Bhanu Nagar, Bhagat Singh Road, District Thane, Dombivli East, Thane - 421201, Dist.Thane, Maharashtra",8048975016,
Hand Rub Sanitizer,https://www.indiamart.com/proddetail/hand-rub-sanitizer-22385795191.html?pos=99&kwd=baby sanitizer&tags=||||8752.144|Price|product|||TS|rsf:gd-|-stype:attr=1|qr_nm:gd|res:RC3|com-cf:nl|ptrs:na|ktp:N0|mc:208878|mtp:S|qry_typ:P|lang:en|wc:2|cs:8896|v=4,Deluxe Scientific Surgico Private Limited,https://www.descoinstruments.com/?pos=99&kwd=baby sanitizer&tags=||||8752.144|Price|product|||TS|rsf:gd-|-stype:attr=1|qr_nm:gd|res:RC3|com-cf:nl|ptrs:na|ktp:N0|mc:208878|mtp:S|qry_typ:P|lang:en|wc:2|cs:8896|v=4,False,Patparganj Industrial Area,New Delhi,"Desco House, 387, FIE Patpar Ganj Industrial Area, Patparganj Industrial Area, New Delhi - 110092, Dist.Delhi, Delhi",8047630409,
50ml Dettol Alcohol Based Hand Sanitizer,https://www.indiamart.com/proddetail/50ml-dettol-alcohol-based-hand-sanitizer-26866551891.html?pos=100&kwd=baby sanitizer&tags=||||9839.57|Price|product|||MDC|rsf:gd-|-stype:attr=1|qr_nm:gd|res:RC3|com-cf:nl|ptrs:na|ktp:N0|mc:208878|mtp:S|qry_typ:P|lang:en|wc:2|cs:8896|v=4,Electro Meter Corporation,https://www.indiamart.com/electrometercorporation/?pos=100&kwd=baby sanitizer&tags=||||9839.57|Price|product|||MDC|rsf:gd-|-stype:attr=1|qr_nm:gd|res:RC3|com-cf:nl|ptrs:na|ktp:N0|mc:208878|mtp:S|qry_typ:P|lang:en|wc:2|cs:8896|v=4,False,Dum Dum,Kolkata,"P-5,Scheme -LV,C. I. T. Road,Moulali, Dum Dum, Kolkata - 700014, Dist.Kolkata, West Bengal",8047815317,
Raman & Weil Bactorub Blue 500 ML,https://www.indiamart.com/proddetail/raman-weil-bactorub-blue-500-ml-22727530148.html?pos=101&kwd=baby sanitizer&tags=||||8307.81|Price|product|||TS|rsf:gd-|-stype:attr=1|qr_nm:gd|res:RC3|com-cf:nl|ptrs:na|ktp:N0|mc:208878|mtp:S|qry_typ:P|lang:en|wc:2|cs:8896|v=4,Healthfirst Medicorp,https://www.healthfirstmedicorp.in/?pos=101&kwd=baby sanitizer&tags=||||8307.81|Price|product|||TS|rsf:gd-|-stype:attr=1|qr_nm:gd|res:RC3|com-cf:nl|ptrs:na|ktp:N0|mc:208878|mtp:S|qry_typ:P|lang:en|wc:2|cs:8896|v=4,False,Kubera Colony,Pune,"4th Floor, Flat NO 402, Building No. A-17, Brahma Avenue Co-Op Housing Society, Kubera Colony, Pune - 411048, Dist.Pune, Maharashtra",8048609744,
Pristine Hand Sanitizer 5 litre,https://www.indiamart.com/proddetail/pristine-hand-sanitizer-5-litre-2850110186673.html?pos=102&kwd=baby sanitizer&tags=||||8954.051|Price|product|||MDC|rsf:gd-|-stype:attr=1|qr_nm:gd|res:RC3|com-cf:nl|ptrs:na|ktp:N0|mc:208878|mtp:S|qry_typ:P|lang:en|wc:2|cs:8896|v=4,A-z Office Suppliers,https://www.indiamart.com/a-zofficesuppliers/?pos=102&kwd=baby sanitizer&tags=||||8954.051|Price|product|||MDC|rsf:gd-|-stype:attr=1|qr_nm:gd|res:RC3|com-cf:nl|ptrs:na|ktp:N0|mc:208878|mtp:S|qry_typ:P|lang:en|wc:2|cs:8896|v=4,False,Royapettah,Chennai,"No. 29/15, Subbedar Hussain Street, Royapettah, Chennai - 600014, Dist.Chennai, Tamil Nadu",7942562351,
"NeoHerbals Hand Sanitizer Gel, Type Of Packing: Bottle, Pack Size: 100ml",https://www.indiamart.com/proddetail/hand-sanitizer-gel-15797542188.html?pos=103&kwd=baby sanitizer&tags=||||8206.45|Price|product|||TS|rsf:gd-|-stype:attr=1|qr_nm:gd|res:RC3|com-cf:nl|ptrs:na|ktp:N0|mc:208878|mtp:S|qry_typ:P|lang:en|wc:2|cs:8896|v=4,Nu Ayur Care,https://www.nuayurcare.net/?pos=103&kwd=baby sanitizer&tags=||||8206.45|Price|product|||TS|rsf:gd-|-stype:attr=1|qr_nm:gd|res:RC3|com-cf:nl|ptrs:na|ktp:N0|mc:208878|mtp:S|qry_typ:P|lang:en|wc:2|cs:8896|v=4,False,Vasai,Palghar,"8, Satelite, Industrial Estate, Navghar Vasai East Navghar Road, Vasai, Palghar - 401210, Dist.Thane, Maharashtra",8048958503,
"Trust Hand Sanitizer, Packaging Type: Bottle, Packaging Size: 250ml",https://www.indiamart.com/proddetail/trust-hand-sanitizer-22277314833.html?pos=104&kwd=baby sanitizer&tags=||||8752.144|Price|product|||TS|rsf:gd-|-stype:attr=1|qr_nm:gd|res:RC3|com-cf:nl|ptrs:na|ktp:N0|mc:208878|mtp:S|qry_typ:P|lang:en|wc:2|cs:8896|v=4,PS Polychem,https://www.pspolychem.com/?pos=104&kwd=baby sanitizer&tags=||||8752.144|Price|product|||TS|rsf:gd-|-stype:attr=1|qr_nm:gd|res:RC3|com-cf:nl|ptrs:na|ktp:N0|mc:208878|mtp:S|qry_typ:P|lang:en|wc:2|cs:8896|v=4,False,Mayapuri,New Delhi,"B-151, 1st Floor, Hari Nagar, Clock Tower, Mayapuri, Mayapuri, New Delhi - 110064, Dist.Delhi, Delhi",8047640351,
Avain Labs Hand Sanitizer 100 ML,https://www.indiamart.com/proddetail/avain-labs-hand-sanitizer-100-ml-22239018691.html?pos=105&kwd=baby sanitizer&tags=||||8741.987|Price|product|||TS|rsf:gd-|-stype:attr=1|qr_nm:gd|res:RC3|com-cf:nl|ptrs:na|ktp:N0|mc:208878|mtp:S|qry_typ:P|lang:en|wc:2|cs:8896|v=4,P. K. Scientific Works,https://www.avainlabs.com/?pos=105&kwd=baby sanitizer&tags=||||8741.987|Price|product|||TS|rsf:gd-|-stype:attr=1|qr_nm:gd|res:RC3|com-cf:nl|ptrs:na|ktp:N0|mc:208878|mtp:S|qry_typ:P|lang:en|wc:2|cs:8896|v=4,False,Ram Nagar,Ambala,"262-B, Ganesh Vihar,, Ram Nagar, Ambala - 133001, Dist.Ambala, Haryana",8047637318,
VRH Hand Sanitizer Available In All Size Of Packing,https://www.indiamart.com/proddetail/vrh-hand-sanitizer-available-in-all-size-of-packing-23463626512.html?pos=106&kwd=baby sanitizer&tags=||||8752.144|Price|product|||TS|rsf:gd-|-stype:attr=1|qr_nm:gd|res:RC3|com-cf:nl|ptrs:na|ktp:N0|mc:208878|mtp:S|qry_typ:P|lang:en|wc:2|cs:8896|v=4,V R Health Science OPC Private Limited,https://www.indiamart.com/vrhealthscience/?pos=106&kwd=baby sanitizer&tags=||||8752.144|Price|product|||TS|rsf:gd-|-stype:attr=1|qr_nm:gd|res:RC3|com-cf:nl|ptrs:na|ktp:N0|mc:208878|mtp:S|qry_typ:P|lang:en|wc:2|cs:8896|v=4,True,Mayapuri,New Delhi,"WH 71, First Floor, Mayapuri, Phase 1, Mayapuri, New Delhi - 110064, Dist.Delhi, Delhi",8047640403,
"Kimberly Clark Scott Instant Hand Sanitizer, 30913 (Pack of 20), Packaging Type: Flip Top Bottle, Packaging Size: 500 ML",https://www.indiamart.com/proddetail/kimberly-clark-scott-instant-hand-sanitizer-30913-pack-of-20-2850644860355.html?pos=107&kwd=baby sanitizer&tags=||||8954.051|Price|product|||TS|rsf:gd-|-stype:attr=1|qr_nm:gd|res:RC3|com-cf:nl|ptrs:na|ktp:N0|mc:208878|mtp:S|qry_typ:P|lang:en|wc:2|cs:8896|v=4,Aspire Corporation,https://www.aspirecorp.in/?pos=107&kwd=baby sanitizer&tags=||||8954.051|Price|product|||TS|rsf:gd-|-stype:attr=1|qr_nm:gd|res:RC3|com-cf:nl|ptrs:na|ktp:N0|mc:208878|mtp:S|qry_typ:P|lang:en|wc:2|cs:8896|v=4,False,Kil Ayanambakkam,Chennai,"No 485/1 Periyakoladi Road, Kil Ayanambakkam, Chennai - 600095, Dist.Chennai, Tamil Nadu",7942795213,
"Safe Hands - Ecohealth Alchol Free Sanitizer, Packaging Size: 100 ML",https://www.indiamart.com/proddetail/safe-hands-ecohealth-alchol-free-sanitizer-22234204530.html?pos=108&kwd=baby sanitizer&tags=||||8663.873|Price|product|||TS|rsf:gd-|-stype:attr=1|qr_nm:gd|res:RC3|com-cf:nl|ptrs:na|ktp:N0|mc:208878|mtp:S|qry_typ:P|lang:en|wc:2|cs:8896|v=4,Matrika Marketing,https://www.indiamart.com/matrika-marketing-bengaluru/?pos=108&kwd=baby sanitizer&tags=||||8663.873|Price|product|||TS|rsf:gd-|-stype:attr=1|qr_nm:gd|res:RC3|com-cf:nl|ptrs:na|ktp:N0|mc:208878|mtp:S|qry_typ:P|lang:en|wc:2|cs:8896|v=4,False,Mathikere,Bengaluru,"SHOP NO.10, GROUND FLOOR,NO.361,1ST STAGE, 2ND PHASE,SHREE BHAGAWATHI COMPLEX,HMT MAIN ROAD GOKUL HMT Main Road, Gokula, 1st Stage, Mathikere, Bengaluru - 560054, Dist.Bengaluru, Karnataka",8046049635,
500Ml Stericare Hand Rub Sanitizier,https://www.indiamart.com/proddetail/500ml-stericare-hand-rub-sanitizier-24618348862.html?pos=109&kwd=baby sanitizer&tags=||||8211.142||product|||TS|rsf:gd-|-stype:attr=1|qr_nm:gd|res:RC3|com-cf:nl|ptrs:na|ktp:N0|mc:208878|mtp:S|qry_typ:P|lang:en|wc:2|cs:8896|v=4,Bhayani Pharma,https://www.indiamart.com/bhayani-pharma/?pos=109&kwd=baby sanitizer&tags=||||8211.142||product|||TS|rsf:gd-|-stype:attr=1|qr_nm:gd|res:RC3|com-cf:nl|ptrs:na|ktp:N0|mc:208878|mtp:S|qry_typ:P|lang:en|wc:2|cs:8896|v=4,False,Ghatkopar West,Mumbai,"C-112, L B S Marg, Behind R City Mall, Ghatkopar Ind Estate, Ghatkopar West, Mumbai - 400086, Dist.Mumbai, Maharashtra",7942562954,
"100ml Clean Hand Sanitizer, Packaging Type: Can, 500ml",https://www.indiamart.com/proddetail/100ml-clean-hand-sanitizer-2853977737048.html?pos=110&kwd=baby sanitizer&tags=||||8581.569|Price|product|||TS|rsf:gd-|-stype:attr=1|qr_nm:gd|res:RC3|com-cf:nl|ptrs:na|ktp:N0|mc:208878|mtp:S|qry_typ:P|lang:en|wc:2|cs:8896|v=4,Big Ideas Global,https://www.bigideaglobal.in/?pos=110&kwd=baby sanitizer&tags=||||8581.569|Price|product|||TS|rsf:gd-|-stype:attr=1|qr_nm:gd|res:RC3|com-cf:nl|ptrs:na|ktp:N0|mc:208878|mtp:S|qry_typ:P|lang:en|wc:2|cs:8896|v=4,False,Anand Nagar,Dewas,"4b,INDUSTRIAL AREA,UJJAIN ROAD,DEWAS, Anand Nagar, Dewas - 455001, Dist.Dewas, Madhya Pradesh",8048977962,
100 ml Instant Hand Sanitizer,https://www.indiamart.com/proddetail/100-ml-instant-hand-sanitizer-22397138162.html?pos=111&kwd=baby sanitizer&tags=||||8954.051|Price|product|||TS|rsf:gd-|-stype:attr=1|qr_nm:gd|res:RC3|com-cf:nl|ptrs:na|ktp:N0|mc:208878|mtp:S|qry_typ:P|lang:en|wc:2|cs:8896|v=4,Surya Surgical Industries,https://www.indiamart.com/suryasurgicalindustries/?pos=111&kwd=baby sanitizer&tags=||||8954.051|Price|product|||TS|rsf:gd-|-stype:attr=1|qr_nm:gd|res:RC3|com-cf:nl|ptrs:na|ktp:N0|mc:208878|mtp:S|qry_typ:P|lang:en|wc:2|cs:8896|v=4,False,Chetput,Chennai,"No. 69, Old No. 67, M C Nichols Road, Chetput, Chennai - 600031, Dist.Chennai, Tamil Nadu",8048976119,
Sterinol Instant Hand Sanitizer 150 ML,https://www.indiamart.com/proddetail/sterinol-instant-hand-sanitizer-150-ml-22333957991.html?pos=112&kwd=baby sanitizer&tags=||||8723.301|Price|product|||MDC|rsf:gd-|-stype:attr=1|qr_nm:gd|res:RC3|com-cf:nl|ptrs:na|ktp:N0|mc:208878|mtp:S|qry_typ:P|lang:en|wc:2|cs:8896|v=4,Hind Pharma,https://www.indiamart.com/hindpharma/?pos=112&kwd=baby sanitizer&tags=||||8723.301|Price|product|||MDC|rsf:gd-|-stype:attr=1|qr_nm:gd|res:RC3|com-cf:nl|ptrs:na|ktp:N0|mc:208878|mtp:S|qry_typ:P|lang:en|wc:2|cs:8896|v=4,False,Govindpura,Bhopal,"11-G, Industrial Area, Govindpura JK Road, Govindpura, Bhopal - 462022, Dist.Bhopal, Madhya Pradesh",8048989931,
Super Cosfe Hand Rub-500ml,https://www.indiamart.com/proddetail/super-cosfe-hand-rub-500ml-23354871455.html?pos=113&kwd=baby sanitizer&tags=||||8741.987|Price|product|||TS|rsf:gd-|-stype:attr=1|qr_nm:gd|res:RC3|com-cf:nl|ptrs:na|ktp:N0|mc:208878|mtp:S|qry_typ:P|lang:en|wc:2|cs:8896|v=4,Medfe,https://www.indiamart.com/medfeambala/?pos=113&kwd=baby sanitizer&tags=||||8741.987|Price|product|||TS|rsf:gd-|-stype:attr=1|qr_nm:gd|res:RC3|com-cf:nl|ptrs:na|ktp:N0|mc:208878|mtp:S|qry_typ:P|lang:en|wc:2|cs:8896|v=4,False,Dhulkot,Ambala,"AMC No-1907-C/10 Plot No,29 A , Bulding Hall Chandigarh Road Ambala, Dhulkot, Ambala - 133001, Dist.Ambala, Haryana",8048618757,
"Pharma Care Hand Sanitizer, Packaging Type: Can, Packaging Size: 5litre",https://www.indiamart.com/proddetail/pharma-care-hand-sanitizer-2853008279633.html?pos=114&kwd=baby sanitizer&tags=||||8786.56|Price|product|||MDC|rsf:gd-|-stype:attr=1|qr_nm:gd|res:RC3|com-cf:nl|ptrs:na|ktp:N0|mc:208878|mtp:S|qry_typ:P|lang:en|wc:2|cs:8896|v=4,Goodlife Essentials,https://www.indiamart.com/goodlifeessentials/?pos=114&kwd=baby sanitizer&tags=||||8786.56|Price|product|||MDC|rsf:gd-|-stype:attr=1|qr_nm:gd|res:RC3|com-cf:nl|ptrs:na|ktp:N0|mc:208878|mtp:S|qry_typ:P|lang:en|wc:2|cs:8896|v=4,False,MASAB TANK,Hyderabad,"14-60/12, Alain Colony, B-Block, Balapur, Shaheen Nagar, Saroornagar,, MASAB TANK, Hyderabad - 500005, Dist.Hyderabad, Telangana",7942719023,
"Sanitizer, Packaging Type: Flip Top Bottle, 100ml",https://www.indiamart.com/proddetail/sanitizer-23379462248.html?pos=115&kwd=baby sanitizer&tags=||||8747.203|Price|product|||MDC|rsf:gd-|-stype:attr=1|qr_nm:gd|res:RC3|com-cf:nl|ptrs:na|ktp:N0|mc:208878|mtp:S|qry_typ:P|lang:en|wc:2|cs:8896|v=4,Varindavan Impex Private Limited,https://www.indiamart.com/varindavan-impex/?pos=115&kwd=baby sanitizer&tags=||||8747.203|Price|product|||MDC|rsf:gd-|-stype:attr=1|qr_nm:gd|res:RC3|com-cf:nl|ptrs:na|ktp:N0|mc:208878|mtp:S|qry_typ:P|lang:en|wc:2|cs:8896|v=4,False,,Panipat,"Plot No-110,Sector-25,Huda, Part-2,Panipat, Panipat - 132103, Dist.Panipat, Haryana",8046035175,
Ross Instant Hand Sanitizer,https://www.indiamart.com/proddetail/ross-instant-hand-sanitizer-22196647930.html?pos=116&kwd=baby sanitizer&tags=||||8741.812||product|||MDC|rsf:gd-|-stype:attr=1|qr_nm:gd|res:RC3|com-cf:nl|ptrs:na|ktp:N0|mc:208878|mtp:S|qry_typ:P|lang:en|wc:2|cs:8896|v=4,Surajbala Exports Pvt. Ltd.,https://www.indiamart.com/surajbalaexports/?pos=116&kwd=baby sanitizer&tags=||||8741.812||product|||MDC|rsf:gd-|-stype:attr=1|qr_nm:gd|res:RC3|com-cf:nl|ptrs:na|ktp:N0|mc:208878|mtp:S|qry_typ:P|lang:en|wc:2|cs:8896|v=4,False,Gwal Pahari,Gurugram,"K No.25/3/2 New Gwal Pahari, Gwal Pahari, Gurugram - 122003, Dist.Gurgaon, Haryana",8048968271,
"Ezygo Disinfectant Solution 500 ml, Liquid, Packaging Type: Bottle",https://www.indiamart.com/proddetail/disinfectant-solution-500-ml-22299794062.html?pos=117&kwd=baby sanitizer&tags=||||8211.142|Price|product|||TS|rsf:gd-|-stype:attr=1|qr_nm:gd|res:RC3|com-cf:nl|ptrs:na|ktp:N0|mc:208878|mtp:S|qry_typ:P|lang:en|wc:2|cs:8896|v=4,Fibro Plast India,https://www.indiamart.com/fibro-pla/?pos=117&kwd=baby sanitizer&tags=||||8211.142|Price|product|||TS|rsf:gd-|-stype:attr=1|qr_nm:gd|res:RC3|com-cf:nl|ptrs:na|ktp:N0|mc:208878|mtp:S|qry_typ:P|lang:en|wc:2|cs:8896|v=4,False,Malad West,Mumbai,"No. A-11-G, Kanchpada, Ramchandra Lane, Extension Road, Malad West, Mumbai - 400064, Dist.Mumbai, Maharashtra",8048955720,
"5 Litre Ayur Gen Instant Advanced Hand Sanitizer, HDPE Jerry Can",https://www.indiamart.com/proddetail/5-litre-ayur-gen-instant-advanced-hand-sanitizer-22255411655.html?pos=118&kwd=baby sanitizer&tags=||||8786.56|Price|product|||TS|rsf:gd-|-stype:attr=1|qr_nm:gd|res:RC3|com-cf:nl|ptrs:na|ktp:N0|mc:208878|mtp:S|qry_typ:P|lang:en|wc:2|cs:8896|v=4,Ayur Gen Herbals,https://www.ayurgenherbals.co.in/?pos=118&kwd=baby sanitizer&tags=||||8786.56|Price|product|||TS|rsf:gd-|-stype:attr=1|qr_nm:gd|res:RC3|com-cf:nl|ptrs:na|ktp:N0|mc:208878|mtp:S|qry_typ:P|lang:en|wc:2|cs:8896|v=4,False,Kukatpally,Hyderabad,"5-5-35/218, Prashanthi Nagar, Kukatpally, Kukatpally, Hyderabad - 500072, Dist.Hyderabad, Telangana",8048959137,
Alcohol Based Hand Sanitizer,https://www.indiamart.com/proddetail/alcohol-based-hand-sanitizer-2852773184112.html?pos=119&kwd=baby sanitizer&tags=||||9110.092|Price|product|||MDC|rsf:gd-|-stype:attr=1|qr_nm:gd|res:RC3|com-cf:nl|ptrs:na|ktp:N0|mc:208878|mtp:S|qry_typ:P|lang:en|wc:2|cs:8896|v=4,Pragati Enterprises,https://www.indiamart.com/pragatienterprisesup/?pos=119&kwd=baby sanitizer&tags=||||9110.092|Price|product|||MDC|rsf:gd-|-stype:attr=1|qr_nm:gd|res:RC3|com-cf:nl|ptrs:na|ktp:N0|mc:208878|mtp:S|qry_typ:P|lang:en|wc:2|cs:8896|v=4,False,Bawali,Lucknow,"377/28 Flat No-104, Durga Deen Road, Basant Kunj , Saadat Ganj,, Bawali, Lucknow - 226003, Dist.Lucknow, Uttar Pradesh",7942719468,
"Ayush Herbals Anti Bacterial Viral Aloevera Hand Sanitizer, Packaging Size: 100 ml, Flip Top Bottle",https://www.indiamart.com/proddetail/ayush-herbals-anti-bacterial-viral-aloevera-hand-sanitizer-2854627959748.html?pos=120&kwd=baby sanitizer&tags=||||8890.235|Price|product|||MDC|rsf:gd-|-stype:attr=1|qr_nm:gd|res:RC3|com-cf:nl|ptrs:na|ktp:N0|mc:208878|mtp:S|qry_typ:P|lang:en|wc:2|cs:8896|v=4,Ayush Herbals,https://www.indiamart.com/ayush-herbals-chandrapur/?pos=120&kwd=baby sanitizer&tags=||||8890.235|Price|product|||MDC|rsf:gd-|-stype:attr=1|qr_nm:gd|res:RC3|com-cf:nl|ptrs:na|ktp:N0|mc:208878|mtp:S|qry_typ:P|lang:en|wc:2|cs:8896|v=4,False,,Chandrapur,"D/O Svargiya Arun Jairam Patil,Dadmahal Ward Road,Back Side Of Rajiv Gandhi Garden, Near Buddha Vihar, Milind Nagar, Near Pathanpura Gate, Property Number 586, Pathanpura Ward,Chandrapur, Chandrapur - 442401, Maharashtra",7949325712,
"Washing Machine Liquid Base, Packaging Size: 1 kg",https://www.indiamart.com/proddetail/washing-machine-liquid-base-23578634888.html?pos=121&kwd=baby sanitizer&tags=||||8228.275|Price|product|||TS|rsf:gd-|-stype:attr=1|qr_nm:gd|res:RC3|com-cf:nl|ptrs:na|ktp:N0|mc:208878|mtp:S|qry_typ:P|lang:en|wc:2|cs:8896|v=4,Active Herbocare,https://www.indiamart.com/activeherbocare/?pos=121&kwd=baby sanitizer&tags=||||8228.275|Price|product|||TS|rsf:gd-|-stype:attr=1|qr_nm:gd|res:RC3|com-cf:nl|ptrs:na|ktp:N0|mc:208878|mtp:S|qry_typ:P|lang:en|wc:2|cs:8896|v=4,False,Saijpur Bogha,Ahmedabad,"9,Neelkanth Apartment,B/H Bajrang Ashram,Saijpur Bogha,, Saijpur Bogha, Ahmedabad - 382345, Dist.Ahmedabad, Gujarat",8048952786,
Hand Sanatizer 5Ltr,https://www.indiamart.com/proddetail/hand-sanatizer-5ltr-22639475588.html?pos=122&kwd=baby sanitizer&tags=||||9140.514|Price|product|||MDC|rsf:gd-|-stype:attr=1|qr_nm:gd|res:RC3|com-cf:nl|ptrs:na|ktp:N0|mc:208878|mtp:S|qry_typ:P|lang:en|wc:2|cs:8896|v=4,Saif Care,https://www.indiamart.com/saifcare-raipur/?pos=122&kwd=baby sanitizer&tags=||||9140.514|Price|product|||MDC|rsf:gd-|-stype:attr=1|qr_nm:gd|res:RC3|com-cf:nl|ptrs:na|ktp:N0|mc:208878|mtp:S|qry_typ:P|lang:en|wc:2|cs:8896|v=4,False,Janta Colony,Raipur,"Ground Floor 20/16 Opp. Deber Tower Saif Care Byron Bazar, Janta Colony, Raipur - 492001, Chhattisgarh",8048618360,
5L Suprashield-E80 Hand Sanitizer,https://www.indiamart.com/proddetail/5l-suprashield-e80-hand-sanitizer-23572348391.html?pos=123&kwd=baby sanitizer&tags=||||8307.81|Price|product|||MDC|rsf:gd-|-stype:attr=1|qr_nm:gd|res:RC3|com-cf:nl|ptrs:na|ktp:N0|mc:208878|mtp:S|qry_typ:P|lang:en|wc:2|cs:8896|v=4,Cristal Pharma Private Limited,https://www.indiamart.com/cristal-pharma-maharashtra/?pos=123&kwd=baby sanitizer&tags=||||8307.81|Price|product|||MDC|rsf:gd-|-stype:attr=1|qr_nm:gd|res:RC3|com-cf:nl|ptrs:na|ktp:N0|mc:208878|mtp:S|qry_typ:P|lang:en|wc:2|cs:8896|v=4,False,Kalyan,Pune,"Plot No 6, Gate No 787, Velu, Taluka Bhor, Kalyan, Pune - 412205, Dist.Pune, Maharashtra",8048605631,
"Softcare Hand Sanitizer Sachet, Packaging Size: 4 x 960 x 2mL",https://www.indiamart.com/proddetail/softcare-hand-sanitizer-sachet-24696700948.html?pos=124&kwd=baby sanitizer&tags=||||8752.144|Price|product|||MDC|rsf:gd-|-stype:attr=1|qr_nm:gd|res:RC3|com-cf:nl|ptrs:na|ktp:N0|mc:208878|mtp:S|qry_typ:P|lang:en|wc:2|cs:8896|v=4,Shankar Metal,https://www.indiamart.com/shankar-metal-newdelhi/?pos=124&kwd=baby sanitizer&tags=||||8752.144|Price|product|||MDC|rsf:gd-|-stype:attr=1|qr_nm:gd|res:RC3|com-cf:nl|ptrs:na|ktp:N0|mc:208878|mtp:S|qry_typ:P|lang:en|wc:2|cs:8896|v=4,False,Chandni Chowk,New Delhi,"4677-4678, Charkhawalan, Ballimaran, Chandni Chowk, New Delhi - 110006, Dist.Delhi, Delhi",8046057528,
"Savlon Hygienic Hand Liquid Rub Sanitizer, Packaging Type: Can, Packaging Size: 5 Litre",https://www.indiamart.com/proddetail/savlon-hygienic-hand-liquid-rub-sanitizer-23483989330.html?pos=125&kwd=baby sanitizer&tags=||||8752.144|Price|product|||TS|rsf:gd-|-stype:attr=1|qr_nm:gd|res:RC3|com-cf:nl|ptrs:na|ktp:N0|mc:208878|mtp:S|qry_typ:P|lang:en|wc:2|cs:8896|v=4,Sunshine Sales Trading,https://www.sunshinesalestrading.com/?pos=125&kwd=baby sanitizer&tags=||||8752.144|Price|product|||TS|rsf:gd-|-stype:attr=1|qr_nm:gd|res:RC3|com-cf:nl|ptrs:na|ktp:N0|mc:208878|mtp:S|qry_typ:P|lang:en|wc:2|cs:8896|v=4,False,Pooth Kalan,New Delhi,"House No - 1541, Pooth Kalan, Pooth Kalan, New Delhi - 110086, Dist.Delhi, Delhi",8047638169,
Automatic Hand Liquid Dispenser - Orwind O14208 Liquid Hand Dispenser Touch Less,https://www.indiamart.com/proddetail/automatic-hand-liquid-dispenser-orwind-o14208-liquid-hand-dispenser-touch-less-2853335677812.html?pos=126&kwd=baby sanitizer&tags=||||8752.144|Price|product|||TS|rsf:gd-|-stype:attr=1|qr_nm:gd|res:RC3|com-cf:nl|ptrs:na|ktp:N0|mc:208878|mtp:S|qry_typ:P|lang:en|wc:2|cs:8896|v=4,Orwind Mart LLP,https://www.orwindmart.com/?pos=126&kwd=baby sanitizer&tags=||||8752.144|Price|product|||TS|rsf:gd-|-stype:attr=1|qr_nm:gd|res:RC3|com-cf:nl|ptrs:na|ktp:N0|mc:208878|mtp:S|qry_typ:P|lang:en|wc:2|cs:8896|v=4,False,Naraina Vihar Uday Niketan,New Delhi,"26 OP Bharti Marg,Naraina Vihar, Naraina Vihar Uday Niketan, New Delhi - 110028, Dist.Delhi, Delhi",7949091342,
Verus Hand Sanitizer Rub 5 Litre,https://www.indiamart.com/proddetail/verus-hand-sanitizer-rub-5-litre-22595957473.html?pos=127&kwd=baby sanitizer&tags=||||8786.56|Price|product|||TS|rsf:gd-|-stype:attr=1|qr_nm:gd|res:RC3|com-cf:nl|ptrs:na|ktp:N0|mc:208878|mtp:S|qry_typ:P|lang:en|wc:2|cs:8896|v=4,Cleangem,https://www.cleangemverus.com/?pos=127&kwd=baby sanitizer&tags=||||8786.56|Price|product|||TS|rsf:gd-|-stype:attr=1|qr_nm:gd|res:RC3|com-cf:nl|ptrs:na|ktp:N0|mc:208878|mtp:S|qry_typ:P|lang:en|wc:2|cs:8896|v=4,False,Begumpet,Hyderabad,"No. 1-11-271/1, Gagan Vihar Colony, Begumpet, Hyderabad - 500016, Dist.Hyderabad, Telangana",8047645145,
Herbal Hand Sanitizer 100ml and 200 ml 500 ml Third Party Manufacturing,https://www.indiamart.com/proddetail/herbal-hand-sanitizer-100ml-and-200-ml-500-ml-third-party-manufacturing-23485866233.html?pos=128&kwd=baby sanitizer&tags=||||8741.987|Price|product|||TS|rsf:gd-|-stype:attr=1|qr_nm:gd|res:RC3|com-cf:nl|ptrs:na|ktp:N0|mc:208878|mtp:S|qry_typ:P|lang:en|wc:2|cs:8896|v=4,Harrods Health Private Limited,https://www.indiamart.com/harrods-health/?pos=128&kwd=baby sanitizer&tags=||||8741.987|Price|product|||TS|rsf:gd-|-stype:attr=1|qr_nm:gd|res:RC3|com-cf:nl|ptrs:na|ktp:N0|mc:208878|mtp:S|qry_typ:P|lang:en|wc:2|cs:8896|v=4,False,Baldev Nagar,Ambala,"237/6 Sultanpur Chowk Jadot Road,Sultanpur Chowk Jadot Road Ambala City,237/6 Sultan Pur Chowk Jadot Road, Baldev Nagar, Ambala - 134007, Dist.Ambala, Haryana",8048979184,
5 Litre Resist+ Alcohol Based Hand Sanitizer,https://www.indiamart.com/proddetail/5-litre-resist-alcohol-based-hand-sanitizer-25908013473.html?pos=129&kwd=baby sanitizer&tags=||||8663.873|Price|product|||MDC|rsf:gd-|-stype:attr=1|qr_nm:gd|res:RC3|com-cf:nl|ptrs:na|ktp:N0|mc:208878|mtp:S|qry_typ:P|lang:en|wc:2|cs:8896|v=4,Gayathri Enterprises,https://www.indiamart.com/gayathrienterprises-india/?pos=129&kwd=baby sanitizer&tags=||||8663.873|Price|product|||MDC|rsf:gd-|-stype:attr=1|qr_nm:gd|res:RC3|com-cf:nl|ptrs:na|ktp:N0|mc:208878|mtp:S|qry_typ:P|lang:en|wc:2|cs:8896|v=4,False,Kalasipalyam,Bengaluru,"10, Paxal Towers, K.R Road, City Market, Urban, Kalasipalyam, Bengaluru - 560002, Dist.Bengaluru, Karnataka",8043853174,
"Rossari Ross Sanpro Instant Hand Sanitizer, 5 Litre",https://www.indiamart.com/proddetail/rossari-ross-sanpro-instant-hand-sanitizer-2853436680512.html?pos=130&kwd=baby sanitizer&tags=||||8786.56|Price|product|||MDC|rsf:gd-|-stype:attr=1|qr_nm:gd|res:RC3|com-cf:nl|ptrs:na|ktp:N0|mc:208878|mtp:S|qry_typ:P|lang:en|wc:2|cs:8896|v=4,Aditi Enterprises,https://www.indiamart.com/aditi-enterprises-hyderabad/?pos=130&kwd=baby sanitizer&tags=||||8786.56|Price|product|||MDC|rsf:gd-|-stype:attr=1|qr_nm:gd|res:RC3|com-cf:nl|ptrs:na|ktp:N0|mc:208878|mtp:S|qry_typ:P|lang:en|wc:2|cs:8896|v=4,False,Bhoiguda,Hyderabad,"Shop No. 10-1-126, Ashoka Plaza, Masab Tank, Beside Golkonda Hotel,The Golkonda, Bhoiguda, Hyderabad - 500028, Dist.Hyderabad, Telangana",8047818701,
"Dohler Hand Sanitizer, Packaging Type: Jerry can, Packaging Size: 5 Litre",https://www.indiamart.com/proddetail/dohler-hand-sanitizer-23419325455.html?pos=131&kwd=baby sanitizer&tags=||||8752.144|Price|product|||MDC|rsf:gd-|-stype:attr=1|qr_nm:gd|res:RC3|com-cf:nl|ptrs:na|ktp:N0|mc:208878|mtp:S|qry_typ:P|lang:en|wc:2|cs:8896|v=4,Deep Enterprises,https://www.indiamart.com/deepentps-india/?pos=131&kwd=baby sanitizer&tags=||||8752.144|Price|product|||MDC|rsf:gd-|-stype:attr=1|qr_nm:gd|res:RC3|com-cf:nl|ptrs:na|ktp:N0|mc:208878|mtp:S|qry_typ:P|lang:en|wc:2|cs:8896|v=4,False,Nawada,New Delhi,"House No. 119, Block-K-1-Extn., Mohan Garden, Uttam Nagar, North West Delhi, Nawada, New Delhi - 110059, Dist.Delhi, Delhi",8048978801,
Zengel ( Ethyl Alcohol Hand Sanitizer Gel ),https://www.indiamart.com/proddetail/zengel-ethyl-alcohol-hand-sanitizer-gel-22910103133.html?pos=132&kwd=baby sanitizer&tags=||||8316.49|Price|product|||TS|rsf:gd-|-stype:attr=1|qr_nm:gd|res:RC3|com-cf:nl|ptrs:na|ktp:N0|mc:208878|mtp:S|qry_typ:P|lang:en|wc:2|cs:8896|v=4,Zenith Micro Control,https://www.indiamart.com/zenith-chemical-satara/?pos=132&kwd=baby sanitizer&tags=||||8316.49|Price|product|||TS|rsf:gd-|-stype:attr=1|qr_nm:gd|res:RC3|com-cf:nl|ptrs:na|ktp:N0|mc:208878|mtp:S|qry_typ:P|lang:en|wc:2|cs:8896|v=4,False,Manik Nagar,Satara,"G 41 Old M I D C Zenith Micro Control, Manik Nagar, Satara - 415004, Dist.Satara, Maharashtra",8046039478,
5L Herbal Hand Sanitizer,https://www.indiamart.com/proddetail/5l-herbal-hand-sanitizer-22470627312.html?pos=133&kwd=baby sanitizer&tags=||||9829.308|Price|product|||TS|rsf:gd-|-stype:attr=1|qr_nm:gd|res:RC3|com-cf:nl|ptrs:na|ktp:N0|mc:208878|mtp:S|qry_typ:P|lang:en|wc:2|cs:8896|v=4,Ayusri Health Products Limited,https://www.ayusri.co.in/?pos=133&kwd=baby sanitizer&tags=||||9829.308|Price|product|||TS|rsf:gd-|-stype:attr=1|qr_nm:gd|res:RC3|com-cf:nl|ptrs:na|ktp:N0|mc:208878|mtp:S|qry_typ:P|lang:en|wc:2|cs:8896|v=4,False,Chamrail,Howrah,"Mouza Chamrail, Bombay Road, National Highway 6, Chamrail, Howrah - 711114, Dist.Howrah, West Bengal",7942538780,
"Viroff 753 Fast Evaporating Quat Based Broad Spectrum Sanitizer, 500ml",https://www.indiamart.com/proddetail/viroff-753-fast-evaporating-quat-based-broad-spectrum-sanitizer-2854292699473.html?pos=134&kwd=baby sanitizer&tags=||||8556.61|Price|product|||MDC|rsf:gd-|-stype:attr=1|qr_nm:gd|res:RC3|com-cf:nl|ptrs:na|ktp:N0|mc:208878|mtp:S|qry_typ:P|lang:en|wc:2|cs:8896|v=4,Schevaran Laboratories Private Limited,https://www.indiamart.com/schevaran-laboratories/?pos=134&kwd=baby sanitizer&tags=||||8556.61|Price|product|||MDC|rsf:gd-|-stype:attr=1|qr_nm:gd|res:RC3|com-cf:nl|ptrs:na|ktp:N0|mc:208878|mtp:S|qry_typ:P|lang:en|wc:2|cs:8896|v=4,False,,Mysuru,"427/B, Schevaran Laboratories Pvt Ltd, Hebbal Industrial Area Metagalli Post, Mysuru - 570016, Dist.Mysuru, Karnataka",8045734808,
"500ml Hand Rub Sanitizer, Packaging Type: Pump Bottle",https://www.indiamart.com/proddetail/500ml-hand-rub-sanitizer-22985301833.html?pos=135&kwd=baby sanitizer&tags=||||8228.275|Price|product|||MDC|rsf:gd-|-stype:attr=1|qr_nm:gd|res:RC3|com-cf:nl|ptrs:na|ktp:N0|mc:208878|mtp:S|qry_typ:P|lang:en|wc:2|cs:8896|v=4,M G Enterprise,https://www.indiamart.com/mgenterpriseahmedabad/?pos=135&kwd=baby sanitizer&tags=||||8228.275|Price|product|||MDC|rsf:gd-|-stype:attr=1|qr_nm:gd|res:RC3|com-cf:nl|ptrs:na|ktp:N0|mc:208878|mtp:S|qry_typ:P|lang:en|wc:2|cs:8896|v=4,False,,Ahmedabad,"B 3119,3120 TRP MALL , BOPAL , AHMEDABAD, Ahmedabad - 382430, Dist.Ahmedabad, Gujarat",8047667693,
"GAURA Hand Sanitizer, Packaging Type: Bottle, Packaging Size: 50-100-200 mL AND 1-5 LITER",https://www.indiamart.com/proddetail/hand-sanitizer-22266595991.html?pos=136&kwd=baby sanitizer&tags=||||8601.347|Price|product|||MDC|rsf:gd-|-stype:attr=1|qr_nm:gd|res:RC3|com-cf:nl|ptrs:na|ktp:N0|mc:208878|mtp:S|qry_typ:P|lang:en|wc:2|cs:8896|v=4,Gaura Art & Crafts,https://www.indiamart.com/gauraartcrafts/?pos=136&kwd=baby sanitizer&tags=||||8601.347|Price|product|||MDC|rsf:gd-|-stype:attr=1|qr_nm:gd|res:RC3|com-cf:nl|ptrs:na|ktp:N0|mc:208878|mtp:S|qry_typ:P|lang:en|wc:2|cs:8896|v=4,False,Rani sati Nagar,Jaipur,"1034, Rani sati Nagar, Jaipur - 302019, Dist.Jaipur, Rajasthan",8046032697,
500ml Wellcare Hand Sanitizer,https://www.indiamart.com/proddetail/500ml-wellcare-hand-sanitizer-27462935448.html?pos=137&kwd=baby sanitizer&tags=||||9140.514|Price|product|||MDC|rsf:gd-|-stype:attr=1|qr_nm:gd|res:RC3|com-cf:nl|ptrs:na|ktp:N0|mc:208878|mtp:S|qry_typ:P|lang:en|wc:2|cs:8896|v=4,Stuti Medical Agency,https://www.indiamart.com/stuti-medical-agencyraipur/?pos=137&kwd=baby sanitizer&tags=||||9140.514|Price|product|||MDC|rsf:gd-|-stype:attr=1|qr_nm:gd|res:RC3|com-cf:nl|ptrs:na|ktp:N0|mc:208878|mtp:S|qry_typ:P|lang:en|wc:2|cs:8896|v=4,False,Chowk,Raipur,"Shop No-33, Farishta Complex, Rajbandha Maidan,, Chowk, Raipur - 492001, Chhattisgarh",7942671922,
Homedets Hand Rub,https://www.indiamart.com/proddetail/homedets-hand-rub-2852693195273.html?pos=138&kwd=baby sanitizer&tags=||||8536.042|Price|product|||MDC|rsf:gd-|-stype:attr=1|qr_nm:gd|res:RC3|com-cf:nl|ptrs:na|ktp:N0|mc:208878|mtp:S|qry_typ:P|lang:en|wc:2|cs:8896|v=4,Gurukrupa Herbal Agency,https://www.indiamart.com/gurukrupa-herbal-agency/?pos=138&kwd=baby sanitizer&tags=||||8536.042|Price|product|||MDC|rsf:gd-|-stype:attr=1|qr_nm:gd|res:RC3|com-cf:nl|ptrs:na|ktp:N0|mc:208878|mtp:S|qry_typ:P|lang:en|wc:2|cs:8896|v=4,False,Kalamb,Kallam,"Dhoki Road Kallam, Tq Kallam, Osmanabad, Kalamb, Kallam - 413507, Dist.Osmanabad, Maharashtra",7942716461,
Aromatree Herbal Sanitizer Liquid 500 Ml,https://www.indiamart.com/proddetail/aromatree-herbal-sanitizer-liquid-500-ml-22410477488.html?pos=139&kwd=baby sanitizer&tags=||||8734.695||product|||TS|rsf:gd-|-stype:attr=1|qr_nm:gd|res:RC3|com-cf:nl|ptrs:na|ktp:N0|mc:208878|mtp:S|qry_typ:P|lang:en|wc:2|cs:8896|v=4,Aerol Formulations Private Limited,https://www.aerol.in/?pos=139&kwd=baby sanitizer&tags=||||8734.695||product|||TS|rsf:gd-|-stype:attr=1|qr_nm:gd|res:RC3|com-cf:nl|ptrs:na|ktp:N0|mc:208878|mtp:S|qry_typ:P|lang:en|wc:2|cs:8896|v=4,False,Bali Nagar,Bahadurgarh,"Khasra No. 702-705, Kharkhauda Road, Asaudah, Bali Nagar, Bahadurgarh - 124505, Dist.Jhajjar, Haryana",8048965030,
3 In 1 Pen Spray Sanitizer Pen Refillable,https://www.indiamart.com/proddetail/3-in-1-pen-spray-sanitizer-pen-refillable-22448258588.html?pos=140&kwd=baby sanitizer&tags=||||8223.226|Price|product|||TS|rsf:gd-|-stype:attr=1|qr_nm:gd|res:RC3|com-cf:nl|ptrs:na|ktp:N0|mc:208878|mtp:S|qry_typ:P|lang:en|wc:2|cs:8896|v=4,S S Corporation,https://www.thesafeglobal.in/?pos=140&kwd=baby sanitizer&tags=||||8223.226|Price|product|||TS|rsf:gd-|-stype:attr=1|qr_nm:gd|res:RC3|com-cf:nl|ptrs:na|ktp:N0|mc:208878|mtp:S|qry_typ:P|lang:en|wc:2|cs:8896|v=4,False,,Thane,"213, New Laxmi Industrial Estate, Penkarpada Road, Near Dahisar East Checknaka, Mira Bhayandar, Thane - 401104, Dist.Thane, Maharashtra",8047638635,
50ml Dettol Original Instant Hand Sanitizer,https://www.indiamart.com/proddetail/50ml-dettol-original-instant-hand-sanitizer-22250615733.html?pos=141&kwd=baby sanitizer&tags=||||8752.144||product|||TS|rsf:gd-|-stype:attr=1|qr_nm:gd|res:RC3|com-cf:nl|ptrs:na|ktp:N0|mc:208878|mtp:S|qry_typ:P|lang:en|wc:2|cs:8896|v=4,SR HERBAL CARE,https://www.hotelamenitiesindia.com/?pos=141&kwd=baby sanitizer&tags=||||8752.144||product|||TS|rsf:gd-|-stype:attr=1|qr_nm:gd|res:RC3|com-cf:nl|ptrs:na|ktp:N0|mc:208878|mtp:S|qry_typ:P|lang:en|wc:2|cs:8896|v=4,False,Model Town 1,New Delhi,"152 Tagore Park, Model Town 1, Model Town 1, New Delhi - 110009, Dist.Delhi, Delhi",8048951246,
Liquid 500ml Swarillium Sterillium Hand Disinfectant,https://www.indiamart.com/proddetail/500ml-swarillium-sterillium-hand-disinfectant-2853086153891.html?pos=142&kwd=baby sanitizer&tags=||||8228.275|Price|product|||MDC|rsf:gd-|-stype:attr=1|qr_nm:gd|res:RC3|com-cf:nl|ptrs:na|ktp:N0|mc:208878|mtp:S|qry_typ:P|lang:en|wc:2|cs:8896|v=4,Monarch Healthcare,https://www.indiamart.com/monarchhealthcare/?pos=142&kwd=baby sanitizer&tags=||||8228.275|Price|product|||MDC|rsf:gd-|-stype:attr=1|qr_nm:gd|res:RC3|com-cf:nl|ptrs:na|ktp:N0|mc:208878|mtp:S|qry_typ:P|lang:en|wc:2|cs:8896|v=4,False,Changodar,Ahmedabad,"Ground Floor, B/54, Pushkar Industrial And Logistics Park , Sarkhej - Bavla Road , Changodar , NR.Satyam Mall , Sanand, Changodar, Ahmedabad - 382213, Dist.Ahmedabad, Gujarat",7942963596,
Alcohol Based Hand Sanitizer Gel 1000 Ml,https://www.indiamart.com/proddetail/alcohol-based-hand-sanitizer-gel-1000-ml-25900785297.html?pos=143&kwd=baby sanitizer&tags=||||8559.269|Price|product|||MDC|rsf:gd-|-stype:attr=1|qr_nm:gd|res:RC3|com-cf:nl|ptrs:na|ktp:N0|mc:208878|mtp:S|qry_typ:P|lang:en|wc:2|cs:8896|v=4,Adazzle Unicare Private Limited,https://www.indiamart.com/adazzle-unicare-madhyapradesh/?pos=143&kwd=baby sanitizer&tags=||||8559.269|Price|product|||MDC|rsf:gd-|-stype:attr=1|qr_nm:gd|res:RC3|com-cf:nl|ptrs:na|ktp:N0|mc:208878|mtp:S|qry_typ:P|lang:en|wc:2|cs:8896|v=4,False,New Palasiya,Indore,"13, 201, 2nd Floor, Press Complex, Abov Apni Dunia, Behind Danik Bhaskar, A.B Road, New Palasiya, Indore - 452001, Dist.Indore, Madhya Pradesh",8047633631,
"200ml Dettol Hand Sanitizer, Flip Top Bottle",https://www.indiamart.com/proddetail/200ml-dettol-hand-sanitizer-2853661202930.html?pos=144&kwd=baby sanitizer&tags=||||8741.812|Price|product|||MDC|rsf:gd-|-stype:attr=1|qr_nm:gd|res:RC3|com-cf:nl|ptrs:na|ktp:N0|mc:208878|mtp:S|qry_typ:P|lang:en|wc:2|cs:8896|v=4,Cleanout,https://www.indiamart.com/cleanout-gurugram/?pos=144&kwd=baby sanitizer&tags=||||8741.812|Price|product|||MDC|rsf:gd-|-stype:attr=1|qr_nm:gd|res:RC3|com-cf:nl|ptrs:na|ktp:N0|mc:208878|mtp:S|qry_typ:P|lang:en|wc:2|cs:8896|v=4,False,,Gurugram,"Hans Enclave, H.no. 117, Gali No. 5, Gurugram - 122001, Dist.Gurgaon, Haryana",7949094958,
Callington Novorub 5L Alcohol Based Hand Rub,https://www.indiamart.com/proddetail/callington-novorub-5l-alcohol-based-hand-rub-25238925997.html?pos=145&kwd=baby sanitizer&tags=||||8954.051|Price|product|||TS|rsf:gd-|-stype:attr=1|qr_nm:gd|res:RC3|com-cf:nl|ptrs:na|ktp:N0|mc:208878|mtp:S|qry_typ:P|lang:en|wc:2|cs:8896|v=4,Ideator Trading LLP,https://www.indiamart.com/ideator-trading/?pos=145&kwd=baby sanitizer&tags=||||8954.051|Price|product|||TS|rsf:gd-|-stype:attr=1|qr_nm:gd|res:RC3|com-cf:nl|ptrs:na|ktp:N0|mc:208878|mtp:S|qry_typ:P|lang:en|wc:2|cs:8896|v=4,False,Ashok Nagar Sarvamangal Colony,Chennai,"No-1, 34th Street, 3RD Avenue, Ashok Nagar, Ashok Nagar Sarvamangal Colony, Chennai - 600083, Dist.Chennai, Tamil Nadu",7942795885,
Sansitor Plus Hand Sanitizer Mist Spray,https://www.indiamart.com/proddetail/sansitor-plus-hand-sanitizer-mist-spray-22519987997.html?pos=146&kwd=baby sanitizer&tags=||||8230.883|Price|product|||MDC|rsf:gd-|-stype:attr=1|qr_nm:gd|res:RC3|com-cf:nl|ptrs:na|ktp:N0|mc:208878|mtp:S|qry_typ:P|lang:en|wc:2|cs:8896|v=4,Sahajanand Health Care,https://www.indiamart.com/sahajanandhealthcare/?pos=146&kwd=baby sanitizer&tags=||||8230.883|Price|product|||MDC|rsf:gd-|-stype:attr=1|qr_nm:gd|res:RC3|com-cf:nl|ptrs:na|ktp:N0|mc:208878|mtp:S|qry_typ:P|lang:en|wc:2|cs:8896|v=4,False,Laskana,Surat,"1st Floor 20 Kamrej Road Darshan Industries Laskana, Laskana, Surat - 395006, Dist.Surat, Gujarat",8048608436,
PROTECT-C (Hand + Multi Purpose Disinfectant) 100 ML,https://www.indiamart.com/proddetail/protect-c-hand-multi-purpose-disinfectant-100-ml-23021130155.html?pos=147&kwd=baby sanitizer&tags=||||8307.81|Price|product|||TS|rsf:gd-|-stype:attr=1|qr_nm:gd|res:RC3|com-cf:nl|ptrs:na|ktp:N0|mc:208878|mtp:S|qry_typ:P|lang:en|wc:2|cs:8896|v=4,Arhan Technologies Pvt.Ltd.,https://www.arhantools.co.in/?pos=147&kwd=baby sanitizer&tags=||||8307.81|Price|product|||TS|rsf:gd-|-stype:attr=1|qr_nm:gd|res:RC3|com-cf:nl|ptrs:na|ktp:N0|mc:208878|mtp:S|qry_typ:P|lang:en|wc:2|cs:8896|v=4,False,Area,Pune,"Plot No. 18, Final Plot No. 106 Ramtekdi Industrial Area, Hadapsar, Area, Pune - 411013, Dist.Pune, Maharashtra",8046055034,
"Must Hand Sanitizer 5 Ltr. Can, Ideal For: Commercial, Packaging Type: Jar",https://www.indiamart.com/proddetail/hand-sanitizer-5-ltr-can-22260672148.html?pos=148&kwd=baby sanitizer&tags=||||8226.563|Price|product|||MDC|rsf:gd-|-stype:attr=1|qr_nm:gd|res:RC3|com-cf:nl|ptrs:na|ktp:N0|mc:208878|mtp:S|qry_typ:P|lang:en|wc:2|cs:8896|v=4,Saheli Enterprises,https://www.indiamart.com/sahelienterprises/?pos=148&kwd=baby sanitizer&tags=||||8226.563|Price|product|||MDC|rsf:gd-|-stype:attr=1|qr_nm:gd|res:RC3|com-cf:nl|ptrs:na|ktp:N0|mc:208878|mtp:S|qry_typ:P|lang:en|wc:2|cs:8896|v=4,False,Vashi,Navi Mumbai,"Shop No. 13, Plot No. 1-A, Near SBI Bank Jalaram Market, Sector 19-C, Vashi, Vashi, Navi Mumbai - 400703, Dist.Thane, Maharashtra",8048616924,
Bactorub Alcohol Rub In Hand Disinfectant,https://www.indiamart.com/proddetail/bactorub-alcohol-rub-in-hand-disinfectant-24040164788.html?pos=149&kwd=baby sanitizer&tags=||||8307.81|Price|product|||TS|rsf:gd-|-stype:attr=1|qr_nm:gd|res:RC3|com-cf:nl|ptrs:na|ktp:N0|mc:208878|mtp:S|qry_typ:P|lang:en|wc:2|cs:8896|v=4,Ortholink Marketing,https://www.indiamart.com/ortholinkmarketing-pune/?pos=149&kwd=baby sanitizer&tags=||||8307.81|Price|product|||TS|rsf:gd-|-stype:attr=1|qr_nm:gd|res:RC3|com-cf:nl|ptrs:na|ktp:N0|mc:208878|mtp:S|qry_typ:P|lang:en|wc:2|cs:8896|v=4,False,Shaniwar Peth,Pune,"312/A1, Ground Floor, Siddhant Apartment, B Wing Nxt to Suyog Mangal Karyalay, Shaniwar Peth, Pune - 411030, Dist.Pune, Maharashtra",8046040571,
"For Dental Sanitizer Card (Made In India), Packaging Size: 5 gram, Model Name/Number: Covid 19",https://www.indiamart.com/proddetail/sanitizer-card-made-in-india-22325403073.html?pos=150&kwd=baby sanitizer&tags=||||8228.275|Price|product|||TS|rsf:gd-|-stype:attr=1|qr_nm:gd|res:RC3|com-cf:nl|ptrs:na|ktp:N0|mc:208878|mtp:S|qry_typ:P|lang:en|wc:2|cs:8896|v=4,Madhav Enterprise,https://www.madhaventerprise.net.in/?pos=150&kwd=baby sanitizer&tags=||||8228.275|Price|product|||TS|rsf:gd-|-stype:attr=1|qr_nm:gd|res:RC3|com-cf:nl|ptrs:na|ktp:N0|mc:208878|mtp:S|qry_typ:P|lang:en|wc:2|cs:8896|v=4,False,Odhav,Ahmedabad,"Plot No.12 Nr. Nalanda Estate,shabri Hotel Arihant Ind Estate Odhav Ring Road, Odhav, Ahmedabad - 382350, Dist.Ahmedabad, Gujarat",8048984317,
Sanitron Hand Sanitizer,https://www.indiamart.com/proddetail/sanitron-hand-sanitizer-24681027297.html?pos=151&kwd=baby sanitizer&tags=||||8752.144|Price|product|||MDC|rsf:gd-|-stype:attr=1|qr_nm:gd|res:RC3|com-cf:nl|ptrs:na|ktp:N0|mc:208878|mtp:S|qry_typ:P|lang:en|wc:2|cs:8896|v=4,Narulas Healthcare,https://www.indiamart.com/narulas-healthcare/?pos=151&kwd=baby sanitizer&tags=||||8752.144|Price|product|||MDC|rsf:gd-|-stype:attr=1|qr_nm:gd|res:RC3|com-cf:nl|ptrs:na|ktp:N0|mc:208878|mtp:S|qry_typ:P|lang:en|wc:2|cs:8896|v=4,False,Darya Ganj,New Delhi,"Shop No 5011, Ground Floor,15/16 Sterling House, Netaji Subhash Marg, Daryaganj, Darya Ganj, New Delhi - 110002, Dist.Delhi, Delhi",7942538078,
"Microshield Pure Gel Ethanol Hand Sanitizer, 1 Litre",https://www.indiamart.com/proddetail/microshield-pure-gel-ethanol-hand-sanitizer-24815234462.html?pos=152&kwd=baby sanitizer&tags=||||8507.67|Price|product|||TS|rsf:gd-|-stype:attr=1|qr_nm:gd|res:RC3|com-cf:nl|ptrs:na|ktp:N0|mc:208878|mtp:S|qry_typ:P|lang:en|wc:2|cs:8896|v=4,Kogland Commerce Private Limited,https://www.indiamart.com/koglandcommerce/?pos=152&kwd=baby sanitizer&tags=||||8507.67|Price|product|||TS|rsf:gd-|-stype:attr=1|qr_nm:gd|res:RC3|com-cf:nl|ptrs:na|ktp:N0|mc:208878|mtp:S|qry_typ:P|lang:en|wc:2|cs:8896|v=4,False,Infopark,Ernakulam,"Unit IV B, 2nd Floor, Phase I, Carnival Infopark, Infopark, Kakkand, Infopark, Ernakulam - 682030, Dist.Ernakulam, Kerala",8047306904,
"Microshield Handrub Solution, 500 ml",https://www.indiamart.com/proddetail/microshield-handrub-solution-25095696873.html?pos=153&kwd=baby sanitizer&tags=||||9839.57|Price|product|||MDC|rsf:gd-|-stype:attr=1|qr_nm:gd|res:RC3|com-cf:nl|ptrs:na|ktp:N0|mc:208878|mtp:S|qry_typ:P|lang:en|wc:2|cs:8896|v=4,Ajit Surgical Company,https://www.indiamart.com/ajit-surgical-company/?pos=153&kwd=baby sanitizer&tags=||||9839.57|Price|product|||MDC|rsf:gd-|-stype:attr=1|qr_nm:gd|res:RC3|com-cf:nl|ptrs:na|ktp:N0|mc:208878|mtp:S|qry_typ:P|lang:en|wc:2|cs:8896|v=4,False,Tollygunge,Kolkata,"44, 2nd Floor, 08, Ezra Street,, Tollygunge, Kolkata - 700001, Dist.Kolkata, West Bengal",8047310006,
500ml Sterillium Hand Rub Sanitizer,https://www.indiamart.com/proddetail/500ml-sterillium-hand-rub-sanitizer-2852768639833.html?pos=154&kwd=baby sanitizer&tags=||||8752.144|Price|product|||MDC|rsf:gd-|-stype:attr=1|qr_nm:gd|res:RC3|com-cf:nl|ptrs:na|ktp:N0|mc:208878|mtp:S|qry_typ:P|lang:en|wc:2|cs:8896|v=4,A.S. Surgical,https://www.indiamart.com/as-surgicalnewdelhi/?pos=154&kwd=baby sanitizer&tags=||||8752.144|Price|product|||MDC|rsf:gd-|-stype:attr=1|qr_nm:gd|res:RC3|com-cf:nl|ptrs:na|ktp:N0|mc:208878|mtp:S|qry_typ:P|lang:en|wc:2|cs:8896|v=4,False,Nawada,New Delhi,"Mohan Garden , 330 A L Extn , Near Red Rose School , Uttam Nagar , West Delhi, Nawada, New Delhi - 110059, Dist.Delhi, Delhi",8043883837,
Hand Sanitizer Sachet,https://www.indiamart.com/proddetail/hand-sanitizer-sachet-2853104730973.html?pos=155&kwd=baby sanitizer&tags=||||8663.873||product|||MDC|rsf:gd-|-stype:attr=1|qr_nm:gd|res:RC3|com-cf:nl|ptrs:na|ktp:N0|mc:208878|mtp:S|qry_typ:P|lang:en|wc:2|cs:8896|v=4,Jesta Healthcare India Pvt Ltd,https://www.surgicalnsafetyproducts.com/?pos=155&kwd=baby sanitizer&tags=||||8663.873||product|||MDC|rsf:gd-|-stype:attr=1|qr_nm:gd|res:RC3|com-cf:nl|ptrs:na|ktp:N0|mc:208878|mtp:S|qry_typ:P|lang:en|wc:2|cs:8896|v=4,False,Jayanagar,Bengaluru,"19- 14, Basement Floor, 28th Cross, Jayanagar, 7th Block, Jayanagar, Bengaluru - 560082, Dist.Bengaluru, Karnataka",8045911023,
Composition: 5% w/v Povidine Lodine Topical Solution,https://www.indiamart.com/proddetail/povidine-lodine-topical-solution-25301006097.html?pos=156&kwd=baby sanitizer&tags=||||8786.56|Price|product|||TS|rsf:gd-|-stype:attr=1|qr_nm:gd|res:RC3|com-cf:nl|ptrs:na|ktp:N0|mc:208878|mtp:S|qry_typ:P|lang:en|wc:2|cs:8896|v=4,AS Enterprises,https://www.indiamart.com/asenterprises-telangana/?pos=156&kwd=baby sanitizer&tags=||||8786.56|Price|product|||TS|rsf:gd-|-stype:attr=1|qr_nm:gd|res:RC3|com-cf:nl|ptrs:na|ktp:N0|mc:208878|mtp:S|qry_typ:P|lang:en|wc:2|cs:8896|v=4,False,Ramanthapur,Hyderabad,"Telangana, Ramanthapur, Hyderabad - 500013, Dist.Hyderabad, Telangana",8048952542,
Microshield Hand Rub,https://www.indiamart.com/proddetail/microshield-hand-rub-24327563448.html?pos=157&kwd=baby sanitizer&tags=||||8622.305|Price|product|||MDC|rsf:gd-|-stype:attr=1|qr_nm:gd|res:RC3|com-cf:nl|ptrs:na|ktp:N0|mc:208878|mtp:S|qry_typ:P|lang:en|wc:2|cs:8896|v=4,JMJ Surgicals,https://www.indiamart.com/jmj-surgicals-nagercoil/?pos=157&kwd=baby sanitizer&tags=||||8622.305|Price|product|||MDC|rsf:gd-|-stype:attr=1|qr_nm:gd|res:RC3|com-cf:nl|ptrs:na|ktp:N0|mc:208878|mtp:S|qry_typ:P|lang:en|wc:2|cs:8896|v=4,False,Anna Nagar,Nagercoil,"59A, South Car Street, District Kanyakumari, Anna Nagar, Nagercoil - 629001, Dist.Kanyakumari, Tamil Nadu",7942558162,
5 Litre Alcohol Based Hand Sanitizer,https://www.indiamart.com/proddetail/5-litre-alcohol-based-hand-sanitizer-2854146482097.html?pos=158&kwd=baby sanitizer&tags=||||8786.56|Price|product|||TS|rsf:gd-|-stype:attr=1|qr_nm:gd|res:RC3|com-cf:nl|ptrs:na|ktp:N0|mc:208878|mtp:S|qry_typ:P|lang:en|wc:2|cs:8896|v=4,Ajay Industries,https://www.indiamart.com/ajayindustries-hyderabad/?pos=158&kwd=baby sanitizer&tags=||||8786.56|Price|product|||TS|rsf:gd-|-stype:attr=1|qr_nm:gd|res:RC3|com-cf:nl|ptrs:na|ktp:N0|mc:208878|mtp:S|qry_typ:P|lang:en|wc:2|cs:8896|v=4,False,Jeedimetla,Hyderabad,"Plot No. 57/A, Phase-1 IDA, Jeedimetla Opposite Sagar Restaurent Lane, Jeedimetla, Hyderabad - 500055, Dist.Hyderabad, Telangana",8046075926,
Tongue Cleaner 2 PCS,https://www.indiamart.com/proddetail/tongue-cleaner-2-pcs-2853122329991.html?pos=159&kwd=baby sanitizer&tags=||||8230.883|Price|product|||TS|rsf:gd-|-stype:attr=1|qr_nm:gd|res:RC3|com-cf:nl|ptrs:na|ktp:N0|mc:208878|mtp:S|qry_typ:P|lang:en|wc:2|cs:8896|v=4,Hemiza Enterprise,https://www.hemiza.in/?pos=159&kwd=baby sanitizer&tags=||||8230.883|Price|product|||TS|rsf:gd-|-stype:attr=1|qr_nm:gd|res:RC3|com-cf:nl|ptrs:na|ktp:N0|mc:208878|mtp:S|qry_typ:P|lang:en|wc:2|cs:8896|v=4,False,Katargam,Surat,"71, Ground Floor, Shubhash Nagar Society Near Shakti Nagar Ni Vadi, Katargam, Surat - 395004, Dist.Surat, Gujarat",8048976391,
"3M Professional H1 Handwash, Can, Packaging Size: 5L",https://www.indiamart.com/proddetail/3m-professional-h1-handwash-2851304527355.html?pos=160&kwd=baby sanitizer&tags=||||8663.873|Price|product|||MDC|rsf:gd-|-stype:attr=1|qr_nm:gd|res:RC3|com-cf:nl|ptrs:na|ktp:N0|mc:208878|mtp:S|qry_typ:P|lang:en|wc:2|cs:8896|v=4,Atlas Distributors Private Limited,https://www.indiamart.com/atlasdistributors-karnataka/?pos=160&kwd=baby sanitizer&tags=||||8663.873|Price|product|||MDC|rsf:gd-|-stype:attr=1|qr_nm:gd|res:RC3|com-cf:nl|ptrs:na|ktp:N0|mc:208878|mtp:S|qry_typ:P|lang:en|wc:2|cs:8896|v=4,False,Hulimavu,Bengaluru,"23rd Main No 10 Jp Nagar 2nd Phase 2nd Cross Marenahalli, Hulimavu, Bengaluru - 560078, Dist.Bengaluru, Karnataka",7942835198,
Alcohol Based Instant Hand Sanitizer,https://www.indiamart.com/proddetail/alcohol-based-instant-hand-sanitizer-23344350155.html?pos=161&kwd=baby sanitizer&tags=||||8984.809|Price|proxy|||TS|rsf:gd-|-stype:attr=1|qr_nm:gd|res:RC3|com-cf:nl|ptrs:na|ktp:N0|mc:208878|mtp:S|qry_typ:P|lang:en|wc:2|cs:8896|v=4,Adidev Herbals Private Limited,https://www.indiamart.com/adidev-herbals/?pos=161&kwd=baby sanitizer&tags=||||8984.809|Price|proxy|||TS|rsf:gd-|-stype:attr=1|qr_nm:gd|res:RC3|com-cf:nl|ptrs:na|ktp:N0|mc:208878|mtp:S|qry_typ:P|lang:en|wc:2|cs:8896|v=4,False,Wright Town,Jabalpur,"Adidev House, No. 1495, Wright Town, Wright Town, Jabalpur - 482002, Dist.Jabalpur, Madhya Pradesh",8048972784,
Swift Kleen+ Alcohol Hand Sanitizer,https://www.indiamart.com/proddetail/swift-kleen-alcohol-hand-sanitizer-22211581912.html?pos=162&kwd=baby sanitizer&tags=||||8954.051|Price|proxy|||TS|rsf:gd-|-stype:attr=1|qr_nm:gd|res:RC3|com-cf:nl|ptrs:na|ktp:N0|mc:208878|mtp:S|qry_typ:P|lang:en|wc:2|cs:8896|v=4,"Nikita Containers Private Limited, Chennai",https://www.indiamart.com/nikita-containers/?pos=162&kwd=baby sanitizer&tags=||||8954.051|Price|proxy|||TS|rsf:gd-|-stype:attr=1|qr_nm:gd|res:RC3|com-cf:nl|ptrs:na|ktp:N0|mc:208878|mtp:S|qry_typ:P|lang:en|wc:2|cs:8896|v=4,False,Porur,Chennai,"F7, SIPCOT Industrial Park, Irungattukottai, Porur, Chennai - 602105, Dist.Chennai, Tamil Nadu",8048600638,
"Hand Sanitizer, Packaging Type: Can, Packaging Size: 5litre",https://www.indiamart.com/proddetail/hand-sanitizer-22984038973.html?pos=163&kwd=baby sanitizer&tags=||||8786.56|Price|proxy|||TS|rsf:gd-|-stype:attr=1|qr_nm:gd|res:RC3|com-cf:nl|ptrs:na|ktp:N0|mc:208878|mtp:S|qry_typ:P|lang:en|wc:2|cs:8896|v=4,Biocare Surgical Industries,https://www.indiamart.com/biocaresurgicalindustries/?pos=163&kwd=baby sanitizer&tags=||||8786.56|Price|proxy|||TS|rsf:gd-|-stype:attr=1|qr_nm:gd|res:RC3|com-cf:nl|ptrs:na|ktp:N0|mc:208878|mtp:S|qry_typ:P|lang:en|wc:2|cs:8896|v=4,False,Nagaram,Hyderabad,"Plot No. 16, 2nd Floor, dammaiguda Hyderabad Medchal, Malkajgiri, Nagaram, Hyderabad - 500062, Dist.Hyderabad, Telangana",8048957165,
Hand Sanitizer 5 Litre,https://www.indiamart.com/proddetail/hand-sanitizer-5-litre-22386058297.html?pos=164&kwd=baby sanitizer&tags=||||8230.883|Price|proxy|||TS|rsf:gd-|-stype:attr=1|qr_nm:gd|res:RC3|com-cf:nl|ptrs:na|ktp:N0|mc:208878|mtp:S|qry_typ:P|lang:en|wc:2|cs:8896|v=4,Market For Home,https://www.indiamart.com/marketforhome/?pos=164&kwd=baby sanitizer&tags=||||8230.883|Price|proxy|||TS|rsf:gd-|-stype:attr=1|qr_nm:gd|res:RC3|com-cf:nl|ptrs:na|ktp:N0|mc:208878|mtp:S|qry_typ:P|lang:en|wc:2|cs:8896|v=4,False,Varachha Road,Surat,"7/8 Gautam Park, Matawadi Char Rasta, L.H. Road, Varachha Road, Surat - 395006, Dist.Surat, Gujarat",8048989066,
Savlon Hand Sanitizer Gel - 55 Ml (pack Of 3),https://www.indiamart.com/proddetail/savlon-hand-sanitizer-gel-55-ml-pack-of-3-2854290621397.html?pos=165&kwd=baby sanitizer&tags=||||8778.123|Price|product|||FCPE|rsf:gd-|-stype:attr=1|qr_nm:gd|res:RC3|com-cf:nl|ptrs:na|ktp:N0|mc:208878|mtp:S|qry_typ:P|lang:en|wc:2|cs:8896|v=4,NoWorry ( A Brand of Aikm Pharma Private Limited ),https://www.indiamart.com/aikm-pharma/?pos=165&kwd=baby sanitizer&tags=||||8778.123|Price|product|||FCPE|rsf:gd-|-stype:attr=1|qr_nm:gd|res:RC3|com-cf:nl|ptrs:na|ktp:N0|mc:208878|mtp:S|qry_typ:P|lang:en|wc:2|cs:8896|v=4,False,,Noida,"LGF-3, Near Police Chowki, Vill-garhi Chaukhandhi Noida, Noida - 201301, Dist.Gautam Budh Nagar, Uttar Pradesh",,
"Pure hand sanitizer, Box, 50ml",https://www.indiamart.com/proddetail/pure-hand-sanitizer-22428773573.html?pos=166&kwd=baby sanitizer&tags=||||9289.285||product|||NA|rsf:gd-|-stype:attr=1|qr_nm:gd|res:RC3|com-cf:nl|ptrs:na|ktp:N0|mc:208878|mtp:S|qry_typ:P|lang:en|wc:2|cs:8896|v=4,Indigo Trading & Services,https://www.indiamart.com/indigo-trading-services/?pos=166&kwd=baby sanitizer&tags=||||9289.285||product|||NA|rsf:gd-|-stype:attr=1|qr_nm:gd|res:RC3|com-cf:nl|ptrs:na|ktp:N0|mc:208878|mtp:S|qry_typ:P|lang:en|wc:2|cs:8896|v=4,False,,Visakhapatnam,"401, Spring View Apartments Mithulapuri Layout Road, Madhurwada, Visakhapatnam - 530041, Dist.Visakhapatnam, Andhra Pradesh",8069017424,903
Generic Pack Of 3_ Pen With Sanitizer (color: Assorted),https://www.indiamart.com/proddetail/generic-pack-of-3-pen-with-sanitizer-color-assorted-2854197351930.html?pos=167&kwd=baby sanitizer&tags=||||8723.301|Price|product|||NA|rsf:gd-|-stype:attr=1|qr_nm:gd|res:RC3|com-cf:nl|ptrs:na|ktp:N0|mc:208878|mtp:S|qry_typ:P|lang:en|wc:2|cs:8896|v=4,Indian currency,https://www.indiamart.com/company/55097080/?pos=167&kwd=baby sanitizer&tags=||||8723.301|Price|product|||NA|rsf:gd-|-stype:attr=1|qr_nm:gd|res:RC3|com-cf:nl|ptrs:na|ktp:N0|mc:208878|mtp:S|qry_typ:P|lang:en|wc:2|cs:8896|v=4,False,PUSHPA NAGAR COLONY,Bhopal,"C 563, PUSHPA NAGAR COLONY, Bhopal - 462010, Dist.Bhopal, Madhya Pradesh",,
Herbal Sanitizer,https://www.indiamart.com/proddetail/herbal-sanitizer-22227785988.html?pos=168&kwd=baby sanitizer&tags=||||9074.249||product|||NA|rsf:gd-|-stype:attr=1|qr_nm:gd|res:RC3|com-cf:nl|ptrs:na|ktp:N0|mc:208878|mtp:S|qry_typ:P|lang:en|wc:2|cs:8896|v=4,Shraddha Sai Mahila Grih Udyog,https://www.indiamart.com/shraddha-sai-mahila-grih-udyog/?pos=168&kwd=baby sanitizer&tags=||||9074.249||product|||NA|rsf:gd-|-stype:attr=1|qr_nm:gd|res:RC3|com-cf:nl|ptrs:na|ktp:N0|mc:208878|mtp:S|qry_typ:P|lang:en|wc:2|cs:8896|v=4,False,Near Bus Stand,Khairagarh,"Shiv Mandir Path, Near Bus Stand, Khairagarh - 491881, Dist.Rajnandgaon, Chhattisgarh",8048249719,4664
"Hand Sanitizer Surgrical, Plastic Can, Packaging Size: 5 Litre",https://www.indiamart.com/proddetail/hand-sanitizer-surgrical-22192340833.html?pos=169&kwd=baby sanitizer&tags=||||8307.81|Price|product|||NA|rsf:gd-|-stype:attr=1|qr_nm:gd|res:RC3|com-cf:nl|ptrs:na|ktp:N0|mc:208878|mtp:S|qry_typ:P|lang:en|wc:2|cs:8896|v=4,Karlston Technovisions Private Limited,https://www.indiamart.com/karlstontechnovisions/?pos=169&kwd=baby sanitizer&tags=||||8307.81|Price|product|||NA|rsf:gd-|-stype:attr=1|qr_nm:gd|res:RC3|com-cf:nl|ptrs:na|ktp:N0|mc:208878|mtp:S|qry_typ:P|lang:en|wc:2|cs:8896|v=4,False,Mundhwa,Pune,"Shop No. 6 & 7, Lonkar Compound, Deccan Paper Mill Road Near BU Bhandari Honda, Mundhwa, Pune - 411036, Dist.Pune, Maharashtra",8047698280,
Allcare Alcohol-Based Hand Sanitizer 500 mL Gel,https://www.indiamart.com/proddetail/allcare-alcohol-based-hand-sanitizer-500-ml-gel-22277546288.html?pos=170&kwd=baby sanitizer&tags=||||8752.144|Price|product|||NA|rsf:gd-|-stype:attr=1|qr_nm:gd|res:RC3|com-cf:nl|ptrs:na|ktp:N0|mc:208878|mtp:S|qry_typ:P|lang:en|wc:2|cs:8896|v=4,Tycoon Brothers Pvt. Ltd.,https://www.indiamart.com/br-infosol/?pos=170&kwd=baby sanitizer&tags=||||8752.144|Price|product|||NA|rsf:gd-|-stype:attr=1|qr_nm:gd|res:RC3|com-cf:nl|ptrs:na|ktp:N0|mc:208878|mtp:S|qry_typ:P|lang:en|wc:2|cs:8896|v=4,False,,New Delhi,"F-94, Gali No-2 Mahavir Enclave, New Delhi - 110045, Dist.Delhi, Delhi",8048247129,7596
Hand Sanitizer 100 Ml,https://www.indiamart.com/proddetail/hand-sanitizer-100-ml-22358312830.html?pos=171&kwd=baby sanitizer&tags=||||8211.499|Price|product|||NA|rsf:gd-|-stype:attr=1|qr_nm:gd|res:RC3|com-cf:nl|ptrs:na|ktp:N0|mc:208878|mtp:S|qry_typ:P|lang:en|wc:2|cs:8896|v=4,Keyona Trader,https://www.indiamart.com/keyonatrader/?pos=171&kwd=baby sanitizer&tags=||||8211.499|Price|product|||NA|rsf:gd-|-stype:attr=1|qr_nm:gd|res:RC3|com-cf:nl|ptrs:na|ktp:N0|mc:208878|mtp:S|qry_typ:P|lang:en|wc:2|cs:8896|v=4,False,,Dholka,"A-87,JAYRATH SOC, AT- MAFLIPUR,DHOLKA AHMEDABAD A-87 Jayrath Society, Kalikund Maflipur,387810,Dholka, Dholka - 382225, Dist.Ahmedabad, Gujarat",8048250220,217
Pocket Sanitizer 30ml,https://www.indiamart.com/proddetail/pocket-sanitizer-30ml-22358086873.html?pos=172&kwd=baby sanitizer&tags=||||8230.883|Price|product|||NA|rsf:gd-|-stype:attr=1|qr_nm:gd|res:RC3|com-cf:nl|ptrs:na|ktp:N0|mc:208878|mtp:S|qry_typ:P|lang:en|wc:2|cs:8896|v=4,Aveeto Cosmotech,https://www.indiamart.com/aveetocosmotech/?pos=172&kwd=baby sanitizer&tags=||||8230.883|Price|product|||NA|rsf:gd-|-stype:attr=1|qr_nm:gd|res:RC3|com-cf:nl|ptrs:na|ktp:N0|mc:208878|mtp:S|qry_typ:P|lang:en|wc:2|cs:8896|v=4,False,Nana Varachha,Surat,"173,sukhram Textile Park, At: Parab, Ta:- Kamrej, Nana Varachha, Surat - 394325, Dist.Surat, Gujarat",8069033751,895
"Venus Ayurveda SHOONYAM HAND SANITIZER, Spray Bottle, 100 ML",https://www.indiamart.com/proddetail/shoonyam-hand-sanitizer-22879629188.html?pos=173&kwd=baby sanitizer&tags=||||8769.508|Price|product|||NA|rsf:gd-|-stype:attr=1|qr_nm:gd|res:RC3|com-cf:nl|ptrs:na|ktp:N0|mc:208878|mtp:S|qry_typ:P|lang:en|wc:2|cs:8896|v=4,Venus Marketing Agency,https://www.indiamart.com/venus-ayurveda/?pos=173&kwd=baby sanitizer&tags=||||8769.508|Price|product|||NA|rsf:gd-|-stype:attr=1|qr_nm:gd|res:RC3|com-cf:nl|ptrs:na|ktp:N0|mc:208878|mtp:S|qry_typ:P|lang:en|wc:2|cs:8896|v=4,False,Sector 20 B,Faridabad,"2nd Floor, Ganga Palace,Off. No. -1 Near Ajronda Chowk, Sector 20 B, Faridabad - 121007, Dist.Faridabad, Haryana",8062245125,318
"iena Herbal Hand Sanitizer for corporates, Flip Top Bottle, 100 ML",https://www.indiamart.com/proddetail/hand-sanitizer-for-corporates-12362030973.html?pos=174&kwd=baby sanitizer&tags=||||8211.304|Price|product|||NA|rsf:gd-|-stype:attr=1|qr_nm:gd|res:RC3|com-cf:nl|ptrs:na|ktp:N0|mc:208878|mtp:S|qry_typ:P|lang:en|wc:2|cs:8896|v=4,Intac India Beauty / Iena India,https://www.indiamart.com/intacindiabeauty/?pos=174&kwd=baby sanitizer&tags=||||8211.304|Price|product|||NA|rsf:gd-|-stype:attr=1|qr_nm:gd|res:RC3|com-cf:nl|ptrs:na|ktp:N0|mc:208878|mtp:S|qry_typ:P|lang:en|wc:2|cs:8896|v=4,False,MUMBAI,Bhayandar,"SHOP NO-5,GROUND FLOOR, MAXUS MALL, 150 FEET ROAD , OPP PADMAVATI NAGAR,BHAY Mastermind V Royal Plams,400065,Mumbai, MUMBAI, Bhayandar - 401101, Dist.Thane, Maharashtra",7942666014,
"Hand Sanitizer, Isopropyl Alcohol, Packaging Type: Bottle",https://www.indiamart.com/proddetail/hand-sanitizer-22304705248.html?pos=175&kwd=baby sanitizer&tags=||||8122.057|Price|product|||NA|rsf:gd-|-stype:attr=1|qr_nm:gd|res:RC3|com-cf:nl|ptrs:na|ktp:N0|mc:208878|mtp:S|qry_typ:P|lang:en|wc:2|cs:8896|v=4,Anand Bhatiya,https://www.indiamart.com/ms-anand-bhatiya/?pos=175&kwd=baby sanitizer&tags=||||8122.057|Price|product|||NA|rsf:gd-|-stype:attr=1|qr_nm:gd|res:RC3|com-cf:nl|ptrs:na|ktp:N0|mc:208878|mtp:S|qry_typ:P|lang:en|wc:2|cs:8896|v=4,False,Gopa Chowk,Jaisalmer,"S/O BALKRISHAN BHATIA SADAR BAZAR GOPA CHOWK Sadar Bazar, Gopa Chowk, Jaisalmer - 345001, Dist.Jaisalmer, Rajasthan",8048371998,146
"Hand Sanitizer Liquid, Packaging Type: Flip Top Bottle, Packaging Size: 5 Litres",https://www.indiamart.com/proddetail/hand-sanitizer-liquid-24378482448.html?pos=176&kwd=baby sanitizer&tags=||||8786.56|Price|product|||NA|rsf:gd-|-stype:attr=1|qr_nm:gd|res:RC3|com-cf:nl|ptrs:na|ktp:N0|mc:208878|mtp:S|qry_typ:P|lang:en|wc:2|cs:8896|v=4,Meenakshi Mfg Company,https://www.indiamart.com/meenakshimfgcompany/?pos=176&kwd=baby sanitizer&tags=||||8786.56|Price|product|||NA|rsf:gd-|-stype:attr=1|qr_nm:gd|res:RC3|com-cf:nl|ptrs:na|ktp:N0|mc:208878|mtp:S|qry_typ:P|lang:en|wc:2|cs:8896|v=4,False,Kukatpally,Hyderabad,"5-35/234/2,ground floor, plot no 8 part, mythri nagar ghmc,kukatpally Ground Floor, 5-35/234/2, Mythri Nagar, GHMC Plot No 8 ,Part Kukatpally ,Medchal - Malkajgiri,5000, Kukatpally, Hyderabad - 500047, Dist.Hyderabad, Telangana",8046046997,
Hand Sanitizers 5L,https://www.indiamart.com/proddetail/hand-sanitizers-5l-22482290888.html?pos=177&kwd=baby sanitizer&tags=||||8228.275|Price|product|||NA|rsf:gd-|-stype:attr=1|qr_nm:gd|res:RC3|com-cf:nl|ptrs:na|ktp:N0|mc:208878|mtp:S|qry_typ:P|lang:en|wc:2|cs:8896|v=4,Tirupati Surgicals,https://www.indiamart.com/tirupati-surgicals-ahmedabad/?pos=177&kwd=baby sanitizer&tags=||||8228.275|Price|product|||NA|rsf:gd-|-stype:attr=1|qr_nm:gd|res:RC3|com-cf:nl|ptrs:na|ktp:N0|mc:208878|mtp:S|qry_typ:P|lang:en|wc:2|cs:8896|v=4,False,,Ahmedabad,"SHOP NO.12, FIRST FLOOR, SHIV COMPLEX, NANDAN PARK BOPAL GHUMA ROAD, Ahmedabad - 380058, Dist.Ahmedabad, Gujarat",7942642580,
Family Essentials Kit,https://www.indiamart.com/proddetail/family-essentials-kit-22317102991.html?pos=178&kwd=baby sanitizer&tags=||||8752.144|Price|product|||NA|rsf:gd-|-stype:attr=1|qr_nm:gd|res:RC3|com-cf:nl|ptrs:na|ktp:N0|mc:208878|mtp:S|qry_typ:P|lang:en|wc:2|cs:8896|v=4,Goldsouk Infrastructure Private Limited,https://www.indiamart.com/goldsoukinfrastructure/?pos=178&kwd=baby sanitizer&tags=||||8752.144|Price|product|||NA|rsf:gd-|-stype:attr=1|qr_nm:gd|res:RC3|com-cf:nl|ptrs:na|ktp:N0|mc:208878|mtp:S|qry_typ:P|lang:en|wc:2|cs:8896|v=4,False,Sharda Niketen,New Delhi,"WEDDING SOUK PLOT NO.1 LOCAL SHOPPIMG CENTRE SHARDA NIKETAN, PITAMPURA, Sharda Niketen, New Delhi - 110034, Dist.Delhi, Delhi",8069017481,258
500ml Instant Alcohol Based Hand Sanitizer,https://www.indiamart.com/proddetail/500ml-instant-alcohol-based-hand-sanitizer-1153644791.html?pos=179&kwd=baby sanitizer&tags=||||8211.142|Price|product|||NA|rsf:gd-|-stype:attr=1|qr_nm:gd|res:RC3|com-cf:nl|ptrs:na|ktp:N0|mc:208878|mtp:S|qry_typ:P|lang:en|wc:2|cs:8896|v=4,Median Biopharma / Viva Naturelle Products / Median Nano Solutions,https://www.indiamart.com/median-biopharma/?pos=179&kwd=baby sanitizer&tags=||||8211.142|Price|product|||NA|rsf:gd-|-stype:attr=1|qr_nm:gd|res:RC3|com-cf:nl|ptrs:na|ktp:N0|mc:208878|mtp:S|qry_typ:P|lang:en|wc:2|cs:8896|v=4,False,,Mumbai,"D/602, Old Ashok Nagar Vazira Naka, Borivali West, Mumbai - 400091, Dist.Mumbai, Maharashtra",8048250207,841
"Kelyn Hand Sanitizer, 100 ML",https://www.indiamart.com/proddetail/kelyn-hand-sanitizer-24330274848.html?pos=180&kwd=baby sanitizer&tags=||||9644.414||product|||NA|rsf:gd-|-stype:attr=1|qr_nm:gd|res:RC3|com-cf:nl|ptrs:na|ktp:N0|mc:208878|mtp:S|qry_typ:P|lang:en|wc:2|cs:8896|v=4,Kanhaiya Enterprises,https://www.indiamart.com/kanhaiya-enterprises-dhanbad/?pos=180&kwd=baby sanitizer&tags=||||9644.414||product|||NA|rsf:gd-|-stype:attr=1|qr_nm:gd|res:RC3|com-cf:nl|ptrs:na|ktp:N0|mc:208878|mtp:S|qry_typ:P|lang:en|wc:2|cs:8896|v=4,False,,Dhanbad,"Ratanji Road, Purana Bazar, Dhanbad - 826001, Dist.Dhanbad, Jharkhand",8046043892,
Goody Herbal Hand Sanitizer Spray,https://www.indiamart.com/proddetail/goody-herbal-hand-sanitizer-spray-22529587691.html?pos=181&kwd=baby sanitizer&tags=||||8752.144|Price|product|||NA|rsf:gd-|-stype:attr=1|qr_nm:gd|res:RC3|com-cf:nl|ptrs:na|ktp:N0|mc:208878|mtp:S|qry_typ:P|lang:en|wc:2|cs:8896|v=4,Goody India,https://www.indiamart.com/goody-india-newdelhi/?pos=181&kwd=baby sanitizer&tags=||||8752.144|Price|product|||NA|rsf:gd-|-stype:attr=1|qr_nm:gd|res:RC3|com-cf:nl|ptrs:na|ktp:N0|mc:208878|mtp:S|qry_typ:P|lang:en|wc:2|cs:8896|v=4,False,,New Delhi,"E-204, Floor, New Rajinder Nagar, New Delhi - 110060, Dist.Delhi, Delhi",8048372714,185
Hand Sanitizer,https://www.indiamart.com/proddetail/hand-sanitizer-25219712688.html?pos=182&kwd=baby sanitizer&tags=||||8741.812|Price|product|||NA|rsf:gd-|-stype:attr=1|qr_nm:gd|res:RC3|com-cf:nl|ptrs:na|ktp:N0|mc:208878|mtp:S|qry_typ:P|lang:en|wc:2|cs:8896|v=4,Geeta Traders,https://www.indiamart.com/geetatraders-gurgaon/?pos=182&kwd=baby sanitizer&tags=||||8741.812|Price|product|||NA|rsf:gd-|-stype:attr=1|qr_nm:gd|res:RC3|com-cf:nl|ptrs:na|ktp:N0|mc:208878|mtp:S|qry_typ:P|lang:en|wc:2|cs:8896|v=4,False,,Gurgaon,"House No-304, Gali No-1, Basai Enclave, Khasra No-472, Khewat No-11/11,, Gurgaon - 122001, Dist.Gurgaon, Haryana",8047314464,
Zingaro 60Ml Gel Hand Sanitizer,https://www.indiamart.com/proddetail/60ml-gel-hand-sanitizer-22364350588.html?pos=183&kwd=baby sanitizer&tags=||||9839.57|Price|product|||NA|rsf:gd-|-stype:attr=1|qr_nm:gd|res:RC3|com-cf:nl|ptrs:na|ktp:N0|mc:208878|mtp:S|qry_typ:P|lang:en|wc:2|cs:8896|v=4,K.T.K. Hosiery,https://www.indiamart.com/ktkhosiery/?pos=183&kwd=baby sanitizer&tags=||||9839.57|Price|product|||NA|rsf:gd-|-stype:attr=1|qr_nm:gd|res:RC3|com-cf:nl|ptrs:na|ktp:N0|mc:208878|mtp:S|qry_typ:P|lang:en|wc:2|cs:8896|v=4,False,,Kolkata,"37, C.r.road, Natagrah, Matripally, Sodepur, North 24, Kolkata - 700113, Dist.Kolkata, West Bengal",7942560384,
"Hand Sanitizer Band , Squeezy Band",https://www.indiamart.com/proddetail/hand-sanitizer-band-squeezy-band-22647252233.html?pos=184&kwd=baby sanitizer&tags=||||8228.275|Price|product|||NA|rsf:gd-|-stype:attr=1|qr_nm:gd|res:RC3|com-cf:nl|ptrs:na|ktp:N0|mc:208878|mtp:S|qry_typ:P|lang:en|wc:2|cs:8896|v=4,Dhiyara Enterprise,https://www.indiamart.com/dhiyara-enterprise/?pos=184&kwd=baby sanitizer&tags=||||8228.275|Price|product|||NA|rsf:gd-|-stype:attr=1|qr_nm:gd|res:RC3|com-cf:nl|ptrs:na|ktp:N0|mc:208878|mtp:S|qry_typ:P|lang:en|wc:2|cs:8896|v=4,False,Jodhpur Gam Road,Ahmedabad,"A-2,Swami Vivekanand Flat, Jodhpur Gam Road, Satelite,Ahmedabad A/2, Swami Vivekanand Flat, Satellite,,Ahmedabad, Jodhpur Gam Road, Ahmedabad - 380015, Dist.Ahmedabad, Gujarat",8048371568,230
Magic Peels Alcohol Free Hand Sanitizer,https://www.indiamart.com/proddetail/magic-peels-alcohol-free-hand-sanitizer-2851648709573.html?pos=185&kwd=baby sanitizer&tags=||||8663.873|Price|product|||NA|rsf:gd-|-stype:attr=1|qr_nm:gd|res:RC3|com-cf:nl|ptrs:na|ktp:N0|mc:208878|mtp:S|qry_typ:P|lang:en|wc:2|cs:8896|v=4,Earth Quotient LLP,https://www.indiamart.com/earth-quotient/?pos=185&kwd=baby sanitizer&tags=||||8663.873|Price|product|||NA|rsf:gd-|-stype:attr=1|qr_nm:gd|res:RC3|com-cf:nl|ptrs:na|ktp:N0|mc:208878|mtp:S|qry_typ:P|lang:en|wc:2|cs:8896|v=4,False,Kengeri Hobli,Bengaluru,"D101, Goodearth Malhar Terraces, Kambipura, Dakshina Kannada, Kengeri Hobli, Bengaluru - 560074, Dist.Bengaluru, Karnataka",7942831224,
"Health Plus Hand Sanitizer Gel, Packaging Type: Pump Bottle, Packaging Size: 100 ml",https://www.indiamart.com/proddetail/health-plus-hand-sanitizer-gel-24208748855.html?pos=186&kwd=baby sanitizer&tags=||||8584.299|Price|product|||NA|rsf:gd-|-stype:attr=1|qr_nm:gd|res:RC3|com-cf:nl|ptrs:na|ktp:N0|mc:208878|mtp:S|qry_typ:P|lang:en|wc:2|cs:8896|v=4,DR R Vijay'S Amazing Herbs,https://www.indiamart.com/drrvijaysamazingherbs/?pos=186&kwd=baby sanitizer&tags=||||8584.299|Price|product|||NA|rsf:gd-|-stype:attr=1|qr_nm:gd|res:RC3|com-cf:nl|ptrs:na|ktp:N0|mc:208878|mtp:S|qry_typ:P|lang:en|wc:2|cs:8896|v=4,False,Velandipalayam,Coimbatore,"147/G-23, Thadagam Road, Venkitapuram, Velandipalayam, Coimbatore - 641025, Dist.Coimbatore, Tamil Nadu",8045910696,
Trust Hand Sanitizer 5 Litre,https://www.indiamart.com/proddetail/trust-hand-sanitizer-5-litre-22417004291.html?pos=187&kwd=baby sanitizer&tags=||||8752.144|Price|product|||NA|rsf:gd-|-stype:attr=1|qr_nm:gd|res:RC3|com-cf:nl|ptrs:na|ktp:N0|mc:208878|mtp:S|qry_typ:P|lang:en|wc:2|cs:8896|v=4,O M X,https://www.indiamart.com/omxmask/?pos=187&kwd=baby sanitizer&tags=||||8752.144|Price|product|||NA|rsf:gd-|-stype:attr=1|qr_nm:gd|res:RC3|com-cf:nl|ptrs:na|ktp:N0|mc:208878|mtp:S|qry_typ:P|lang:en|wc:2|cs:8896|v=4,False,Neb Sarai Village,New Delhi,"Yadav Complex, Opp. Tel Mill, Plot No-322 IGNOU Road, Neb Sarai Village, New Delhi - 110068, Dist.Delhi, Delhi",8047684213,
"Gel Hand Sanitizer, Packaging Type: Flip Top Bottle, Packaging Size: 100 ML",https://www.indiamart.com/proddetail/gel-hand-sanitizer-22753938412.html?pos=188&kwd=baby sanitizer&tags=||||8588.208|Price|product|||NA|rsf:gd-|-stype:attr=1|qr_nm:gd|res:RC3|com-cf:nl|ptrs:na|ktp:N0|mc:208878|mtp:S|qry_typ:P|lang:en|wc:2|cs:8896|v=4,Dress Code Clothing Private Limited,https://www.indiamart.com/dresscodeclothing/?pos=188&kwd=baby sanitizer&tags=||||8588.208|Price|product|||NA|rsf:gd-|-stype:attr=1|qr_nm:gd|res:RC3|com-cf:nl|ptrs:na|ktp:N0|mc:208878|mtp:S|qry_typ:P|lang:en|wc:2|cs:8896|v=4,False,New Grain Mandi,Kota,"No. 60, DCM Road, New Grain Mandi, Kota - 324007, Rajasthan",7942545567,
Anti Bacteria Hand Sanitizer Gel,https://www.indiamart.com/proddetail/anti-bacteria-hand-sanitizer-gel-19454742873.html?pos=189&kwd=baby sanitizer&tags=||||9212.675||product|||NA|rsf:gd-|-stype:attr=1|qr_nm:gd|res:RC3|com-cf:nl|ptrs:na|ktp:N0|mc:208878|mtp:S|qry_typ:P|lang:en|wc:2|cs:8896|v=4,Escort Solutions,https://www.indiamart.com/escort-solutions/?pos=189&kwd=baby sanitizer&tags=||||9212.675||product|||NA|rsf:gd-|-stype:attr=1|qr_nm:gd|res:RC3|com-cf:nl|ptrs:na|ktp:N0|mc:208878|mtp:S|qry_typ:P|lang:en|wc:2|cs:8896|v=4,False,varanasi,Gonda,"M/S ESCORT SOLUTIONS,0, NIRIYA KAJIPUR,GONDA 115/10 2B.1 3rd Floor Near Jeewan Joyti School,221007,Varanasi, varanasi, Gonda - 271319, Dist.Gonda, Uttar Pradesh",8062245007,222
"Panch Shakti Sanitizer Spray, 100 Ml",https://www.indiamart.com/proddetail/sanitizer-spray-22322867097.html?pos=190&kwd=baby sanitizer&tags=||||8307.81|Price|product|||NA|rsf:gd-|-stype:attr=1|qr_nm:gd|res:RC3|com-cf:nl|ptrs:na|ktp:N0|mc:208878|mtp:S|qry_typ:P|lang:en|wc:2|cs:8896|v=4,Panch Shakti,https://www.indiamart.com/panchshakti-satara/?pos=190&kwd=baby sanitizer&tags=||||8307.81|Price|product|||NA|rsf:gd-|-stype:attr=1|qr_nm:gd|res:RC3|com-cf:nl|ptrs:na|ktp:N0|mc:208878|mtp:S|qry_typ:P|lang:en|wc:2|cs:8896|v=4,False,Kondhwa BK,Pune,"Yashodhan Society, Kondhwa BK, Pune - 411048, Dist.Pune, Maharashtra",7942633429,
5 Liter Alcohol Based Hand Sanitizer,https://www.indiamart.com/proddetail/5-liter-alcohol-based-hand-sanitizer-22434574173.html?pos=191&kwd=baby sanitizer&tags=||||9440.233|Price|product|||NA|rsf:gd-|-stype:attr=1|qr_nm:gd|res:RC3|com-cf:nl|ptrs:na|ktp:N0|mc:208878|mtp:S|qry_typ:P|lang:en|wc:2|cs:8896|v=4,Chetak Pharmaceuticals & Surgeon Solutions,https://www.indiamart.com/chetakpharmaceuticals/?pos=191&kwd=baby sanitizer&tags=||||9440.233|Price|product|||NA|rsf:gd-|-stype:attr=1|qr_nm:gd|res:RC3|com-cf:nl|ptrs:na|ktp:N0|mc:208878|mtp:S|qry_typ:P|lang:en|wc:2|cs:8896|v=4,False,Chakan,Aurangabad,"PL NO1,MEET ARCADE, N-4, HANUMAN NAGAR,GARKHEDA Shop No 1,Opp Vodafone Idea Mini Store,410501,Pune, Chakan, Aurangabad - 431001, Bihar",8048371505,922
Lifecare Alcohol Based Hand Sanitizer,https://www.indiamart.com/proddetail/lifecare-alcohol-based-hand-sanitizer-23722007988.html?pos=192&kwd=baby sanitizer&tags=||||7981.7773||product|||NA|rsf:gd-|-stype:attr=1|qr_nm:gd|res:RC3|com-cf:nl|ptrs:na|ktp:N0|mc:208878|mtp:S|qry_typ:P|lang:en|wc:2|cs:8896|v=4,Prashant Sawlani,https://www.indiamart.com/prashant-sawlani/?pos=192&kwd=baby sanitizer&tags=||||7981.7773||product|||NA|rsf:gd-|-stype:attr=1|qr_nm:gd|res:RC3|com-cf:nl|ptrs:na|ktp:N0|mc:208878|mtp:S|qry_typ:P|lang:en|wc:2|cs:8896|v=4,False,Near By Van Heusen,Gandhidham,"Shop No. N 67, Main Market, Middle Lane, Near By Van Heusen, Gandhidham - 370201, Dist.Kachchh, Gujarat",8046060861,
Alcohol Free Hand Sanitizer 500 Ml,https://www.indiamart.com/proddetail/alcohol-free-hand-sanitizer-500-ml-22430573012.html?pos=193&kwd=baby sanitizer&tags=||||8228.275|Price|product|||NA|rsf:gd-|-stype:attr=1|qr_nm:gd|res:RC3|com-cf:nl|ptrs:na|ktp:N0|mc:208878|mtp:S|qry_typ:P|lang:en|wc:2|cs:8896|v=4,Microgenix Specialities Private Limited,https://www.indiamart.com/microgenixspecialities/?pos=193&kwd=baby sanitizer&tags=||||8228.275|Price|product|||NA|rsf:gd-|-stype:attr=1|qr_nm:gd|res:RC3|com-cf:nl|ptrs:na|ktp:N0|mc:208878|mtp:S|qry_typ:P|lang:en|wc:2|cs:8896|v=4,False,Bodakdev,Ahmedabad,"No. 16, Regent Park, Chi Justiefce Bungalow Lane, Bodakdev, Ahmedabad - 380059, Dist.Ahmedabad, Gujarat",8043835552,
Isopropyl Alcohol Sanitizer,https://www.indiamart.com/proddetail/isopropyl-alcohol-sanitizer-25386579391.html?pos=194&kwd=baby sanitizer&tags=||||8559.269|Price|product|||NA|rsf:gd-|-stype:attr=1|qr_nm:gd|res:RC3|com-cf:nl|ptrs:na|ktp:N0|mc:208878|mtp:S|qry_typ:P|lang:en|wc:2|cs:8896|v=4,DL Medical,https://www.indiamart.com/dlmedical-indore/?pos=194&kwd=baby sanitizer&tags=||||8559.269|Price|product|||NA|rsf:gd-|-stype:attr=1|qr_nm:gd|res:RC3|com-cf:nl|ptrs:na|ktp:N0|mc:208878|mtp:S|qry_typ:P|lang:en|wc:2|cs:8896|v=4,False,,Indore,"FW-27A, Super City Singapore,, Indore - 452010, Dist.Indore, Madhya Pradesh",8048272189,
Hand Sanitizers,https://www.indiamart.com/proddetail/hand-sanitizers-9360133491.html?pos=195&kwd=baby sanitizer&tags=||||8785.791||product|||NA|rsf:gd-|-stype:attr=1|qr_nm:gd|res:RC3|com-cf:nl|ptrs:na|ktp:N0|mc:208878|mtp:S|qry_typ:P|lang:en|wc:2|cs:8896|v=4,Bloomsberry Innovations,https://www.indiamart.com/bloomsberry-innovations-ghaziabad/?pos=195&kwd=baby sanitizer&tags=||||8785.791||product|||NA|rsf:gd-|-stype:attr=1|qr_nm:gd|res:RC3|com-cf:nl|ptrs:na|ktp:N0|mc:208878|mtp:S|qry_typ:P|lang:en|wc:2|cs:8896|v=4,False,Kavi Nagar,Ghaziabad,"Kavi Nagar, Kavi Nagar, Ghaziabad - 201002, Dist.Ghaziabad, Uttar Pradesh",8048370705,9859
"Wheezal Hand Sanitizer - , For Personal, Packaging Size: 100 Ml, Flip Top Bottle",https://www.indiamart.com/proddetail/wheezal-hand-sanitizer-for-personal-packaging-size-100-ml-22415697488.html?pos=196&kwd=baby sanitizer&tags=||||8984.809|Price|product|||NA|rsf:gd-|-stype:attr=1|qr_nm:gd|res:RC3|com-cf:nl|ptrs:na|ktp:N0|mc:208878|mtp:S|qry_typ:P|lang:en|wc:2|cs:8896|v=4,Homeo Homes,https://www.indiamart.com/homeo-homes/?pos=196&kwd=baby sanitizer&tags=||||8984.809|Price|product|||NA|rsf:gd-|-stype:attr=1|qr_nm:gd|res:RC3|com-cf:nl|ptrs:na|ktp:N0|mc:208878|mtp:S|qry_typ:P|lang:en|wc:2|cs:8896|v=4,False,karmeta,Jabalpur,"Nakhshtra Nagar star city, karmeta, Jabalpur - 482002, Dist.Jabalpur, Madhya Pradesh",8047678548,
"5Litre W2 Hand Sanitizer, Packaging Type: HDPE Can",https://www.indiamart.com/proddetail/5litre-w2-hand-sanitizer-22282128073.html?pos=197&kwd=baby sanitizer&tags=||||9520.041|Price|product|||NA|rsf:gd-|-stype:attr=1|qr_nm:gd|res:RC3|com-cf:nl|ptrs:na|ktp:N0|mc:208878|mtp:S|qry_typ:P|lang:en|wc:2|cs:8896|v=4,Valens Care,https://www.indiamart.com/valenscare-patna/?pos=197&kwd=baby sanitizer&tags=||||9520.041|Price|product|||NA|rsf:gd-|-stype:attr=1|qr_nm:gd|res:RC3|com-cf:nl|ptrs:na|ktp:N0|mc:208878|mtp:S|qry_typ:P|lang:en|wc:2|cs:8896|v=4,False,Anisabad Khagaul,Patna,"Plot No. 5-6, Ward No.11, Khata No. 136-134, Jaglal Path, Mitra Mandal Colony, Saket Vihar, Anisabad Khagaul, Patna - 800002, Dist.Patna, Bihar",8047767585,
Lifebuoy Nature Hand Sanitizer 55ml,https://www.indiamart.com/proddetail/lifebuoy-nature-hand-sanitizer-55ml-15612065473.html?pos=198&kwd=baby sanitizer&tags=||||8476.868||product|||NA|rsf:gd-|-stype:attr=1|qr_nm:gd|res:RC3|com-cf:nl|ptrs:na|ktp:N0|mc:208878|mtp:S|qry_typ:P|lang:en|wc:2|cs:8896|v=4,Om Medical And General Stores,https://www.indiamart.com/om-medical-aurangabad/?pos=198&kwd=baby sanitizer&tags=||||8476.868||product|||NA|rsf:gd-|-stype:attr=1|qr_nm:gd|res:RC3|com-cf:nl|ptrs:na|ktp:N0|mc:208878|mtp:S|qry_typ:P|lang:en|wc:2|cs:8896|v=4,False,Samarthnagar,Aurangabad,"Plot No 131 Shop No 3, Patni Plaza Varad, Samarthnagar, Aurangabad - 431001, Maharashtra",8048247119,1398
Richet Alcohol Free Hand Sanitizer,https://www.indiamart.com/proddetail/richet-alcohol-free-hand-sanitizer-23703703648.html?pos=199&kwd=baby sanitizer&tags=||||8675.777||product|||NA|rsf:gd-|-stype:attr=1|qr_nm:gd|res:RC3|com-cf:nl|ptrs:na|ktp:N0|mc:208878|mtp:S|qry_typ:P|lang:en|wc:2|cs:8896|v=4,Richet Pharmaceutical,https://www.indiamart.com/richet-pharmaceutical/?pos=199&kwd=baby sanitizer&tags=||||8675.777||product|||NA|rsf:gd-|-stype:attr=1|qr_nm:gd|res:RC3|com-cf:nl|ptrs:na|ktp:N0|mc:208878|mtp:S|qry_typ:P|lang:en|wc:2|cs:8896|v=4,False,bassi khawaju,Hoshiarpur,"84, st no. 8, bassi khawaju, Hoshiarpur - 146001, Dist.Hoshiarpur, Punjab",8048263332,836
Hand Sanitizer(60 ml),https://www.indiamart.com/proddetail/hand-sanitizer-60-ml-22208334597.html?pos=200&kwd=baby sanitizer&tags=||||8646.739||product|||NA|rsf:gd-|-stype:attr=1|qr_nm:gd|res:RC3|com-cf:nl|ptrs:na|ktp:N0|mc:208878|mtp:S|qry_typ:P|lang:en|wc:2|cs:8896|v=4,RR Chem Consumer Products,https://www.indiamart.com/rr-chem-consumer-products/?pos=200&kwd=baby sanitizer&tags=||||8646.739||product|||NA|rsf:gd-|-stype:attr=1|qr_nm:gd|res:RC3|com-cf:nl|ptrs:na|ktp:N0|mc:208878|mtp:S|qry_typ:P|lang:en|wc:2|cs:8896|v=4,False,Santacruz West,Purna,"01 392,87 Bhimwada Tehsil Purna Railway Station Road Purna 392,87 Bhimwada Tahasil, Santacruz West, Purna - 431511, Dist.Parbhani, Maharashtra",8046058824,
300ml Alcohol Based Hand Sanitizer,https://www.indiamart.com/proddetail/300ml-alcohol-based-hand-sanitizer-25018879755.html?pos=201&kwd=baby sanitizer&tags=||||8661.854|Price|product|||NA|rsf:gd-|-stype:attr=1|qr_nm:gd|res:RC3|com-cf:nl|ptrs:na|ktp:N0|mc:208878|mtp:S|qry_typ:P|lang:en|wc:2|cs:8896|v=4,Total Chems,https://www.indiamart.com/totalchemicals/?pos=201&kwd=baby sanitizer&tags=||||8661.854|Price|product|||NA|rsf:gd-|-stype:attr=1|qr_nm:gd|res:RC3|com-cf:nl|ptrs:na|ktp:N0|mc:208878|mtp:S|qry_typ:P|lang:en|wc:2|cs:8896|v=4,False,,Ludhiana,"SHOP NO-3,,,CHAHAL MARKET KULIWAL,P/O JAMALPUR AWANA Shop No. 3, Chahal Market Kuliwal, P/O-Jamalpur Awana,141010,Ludhiana, Ludhiana - 141007, Dist.Ludhiana, Punjab",8048274475,
"Hand Sanitizers, For Personal, Can",https://www.indiamart.com/proddetail/hand-sanitizers-22154041488.html?pos=202&kwd=baby sanitizer&tags=||||8226.563|Price|product|||NA|rsf:gd-|-stype:attr=1|qr_nm:gd|res:RC3|com-cf:nl|ptrs:na|ktp:N0|mc:208878|mtp:S|qry_typ:P|lang:en|wc:2|cs:8896|v=4,Velle E-Commerce LLP,https://www.indiamart.com/vellee-commerce/?pos=202&kwd=baby sanitizer&tags=||||8226.563|Price|product|||NA|rsf:gd-|-stype:attr=1|qr_nm:gd|res:RC3|com-cf:nl|ptrs:na|ktp:N0|mc:208878|mtp:S|qry_typ:P|lang:en|wc:2|cs:8896|v=4,False,Wadala East,Navi Mumbai,"Bgta Beas, B- 8, Wadala Truck Terminals, Wadala East, Navi Mumbai - 400037, Dist.Thane, Maharashtra",8043812432,
"Freshila Instant Hand Sanitizer, 5 Litre",https://www.indiamart.com/proddetail/freshila-instant-hand-sanitizer-24019370655.html?pos=203&kwd=baby sanitizer&tags=||||8717.755|Price|product|||NA|rsf:gd-|-stype:attr=1|qr_nm:gd|res:RC3|com-cf:nl|ptrs:na|ktp:N0|mc:208878|mtp:S|qry_typ:P|lang:en|wc:2|cs:8896|v=4,Global Servicess,https://www.indiamart.com/globalservicess/?pos=203&kwd=baby sanitizer&tags=||||8717.755|Price|product|||NA|rsf:gd-|-stype:attr=1|qr_nm:gd|res:RC3|com-cf:nl|ptrs:na|ktp:N0|mc:208878|mtp:S|qry_typ:P|lang:en|wc:2|cs:8896|v=4,False,,Rangareddy,"17-85, Annapurna Complex, Dilsukhnagar,, Rangareddy - 500060, Dist.Rangareddy, Telangana",8048978941,
"Natural Hand Sanitizer, Pack Size: 30 Ml",https://www.indiamart.com/proddetail/natural-hand-sanitizer-17933408273.html?pos=204&kwd=baby sanitizer&tags=||||8752.144|Price|product|||NA|rsf:gd-|-stype:attr=1|qr_nm:gd|res:RC3|com-cf:nl|ptrs:na|ktp:N0|mc:208878|mtp:S|qry_typ:P|lang:en|wc:2|cs:8896|v=4,Nature Mark,https://www.indiamart.com/naturemark/?pos=204&kwd=baby sanitizer&tags=||||8752.144|Price|product|||NA|rsf:gd-|-stype:attr=1|qr_nm:gd|res:RC3|com-cf:nl|ptrs:na|ktp:N0|mc:208878|mtp:S|qry_typ:P|lang:en|wc:2|cs:8896|v=4,False,Vasant Kunj,New Delhi,"1188, Sector A, Pocket A, Vasant Kunj, Vasant Kunj, New Delhi - 110070, Dist.Delhi, Delhi",8043805094,
"Alfa Vash Hand Sanitizer, Packaging Type: Bottle",https://www.indiamart.com/proddetail/alfa-vash-hand-sanitizer-4407812488.html?pos=205&kwd=baby sanitizer&tags=||||8830.388||product|||NA|rsf:gd-|-stype:attr=1|qr_nm:gd|res:RC3|com-cf:nl|ptrs:na|ktp:N0|mc:208878|mtp:S|qry_typ:P|lang:en|wc:2|cs:8896|v=4,Deepak Silicate Pvt. Ltd.,https://www.indiamart.com/deepak-silicate-gwalior/?pos=205&kwd=baby sanitizer&tags=||||8830.388||product|||NA|rsf:gd-|-stype:attr=1|qr_nm:gd|res:RC3|com-cf:nl|ptrs:na|ktp:N0|mc:208878|mtp:S|qry_typ:P|lang:en|wc:2|cs:8896|v=4,False,Maharajpura Industrial Area,Gwalior,"No. 23-B, Maharajpura Industrial Area, Maharajpura Industrial Area, Gwalior - 474005, Dist.Gwalior, Madhya Pradesh",8047845868,
Alcohol Based Hand Sanitizer Ip 70%,https://www.indiamart.com/proddetail/alcohol-based-hand-sanitizer-ip-70-22415336948.html?pos=206&kwd=baby sanitizer&tags=||||8364.597|Price|product|||NA|rsf:gd-|-stype:attr=1|qr_nm:gd|res:RC3|com-cf:nl|ptrs:na|ktp:N0|mc:208878|mtp:S|qry_typ:P|lang:en|wc:2|cs:8896|v=4,Crozier Hygiene Company,https://www.indiamart.com/crozier-hygieudaipur/?pos=206&kwd=baby sanitizer&tags=||||8364.597|Price|product|||NA|rsf:gd-|-stype:attr=1|qr_nm:gd|res:RC3|com-cf:nl|ptrs:na|ktp:N0|mc:208878|mtp:S|qry_typ:P|lang:en|wc:2|cs:8896|v=4,False,Titardi,Udaipur,"124, Jai Shree Vihar Colony, Gupteshwar Mahadev Road, Ambafala, Titardi, Udaipur - 313001, Rajasthan",8048361307,742
"Purell Hand Sanitizer Refill, Pouch, 1 Litre",https://www.indiamart.com/proddetail/purell-hand-sanitizer-refill-22962695948.html?pos=207&kwd=baby sanitizer&tags=||||8307.81|Price|product|||NA|rsf:gd-|-stype:attr=1|qr_nm:gd|res:RC3|com-cf:nl|ptrs:na|ktp:N0|mc:208878|mtp:S|qry_typ:P|lang:en|wc:2|cs:8896|v=4,Contigo,https://www.indiamart.com/contigo-pune/?pos=207&kwd=baby sanitizer&tags=||||8307.81|Price|product|||NA|rsf:gd-|-stype:attr=1|qr_nm:gd|res:RC3|com-cf:nl|ptrs:na|ktp:N0|mc:208878|mtp:S|qry_typ:P|lang:en|wc:2|cs:8896|v=4,False,,Pune,"1955-S No-163/3b/1, Near Prime Rose, Baner, Pune - 411045, Dist.Pune, Maharashtra",8048957931,
Alcohol Based Hand Sanitizer,https://www.indiamart.com/proddetail/alcohol-based-hand-sanitizer-23327561991.html?pos=208&kwd=baby sanitizer&tags=||||8620.856|Price|product|||NA|rsf:gd-|-stype:attr=1|qr_nm:gd|res:RC3|com-cf:nl|ptrs:na|ktp:N0|mc:208878|mtp:S|qry_typ:P|lang:en|wc:2|cs:8896|v=4,Sushant Enterprises,https://www.indiamart.com/sushantenterprises-parbhani/?pos=208&kwd=baby sanitizer&tags=||||8620.856|Price|product|||NA|rsf:gd-|-stype:attr=1|qr_nm:gd|res:RC3|com-cf:nl|ptrs:na|ktp:N0|mc:208878|mtp:S|qry_typ:P|lang:en|wc:2|cs:8896|v=4,False,,Parbhani,"Shop No-1, Plot No-102, Ward No-32, Komati Galli, Parbhani - 431401, Dist.Parbhani, Maharashtra",7942661097,
Best Quality Sanitizer 100ml,https://www.indiamart.com/proddetail/best-quality-sanitizer-100ml-22195413230.html?pos=209&kwd=baby sanitizer&tags=||||8316.457|Price|product|||NA|rsf:gd-|-stype:attr=1|qr_nm:gd|res:RC3|com-cf:nl|ptrs:na|ktp:N0|mc:208878|mtp:S|qry_typ:P|lang:en|wc:2|cs:8896|v=4,DS Marketing,https://www.indiamart.com/ds-marketing-nashik/?pos=209&kwd=baby sanitizer&tags=||||8316.457|Price|product|||NA|rsf:gd-|-stype:attr=1|qr_nm:gd|res:RC3|com-cf:nl|ptrs:na|ktp:N0|mc:208878|mtp:S|qry_typ:P|lang:en|wc:2|cs:8896|v=4,False,,Nashik,"421302, Kalyan - Bhiwandi Rd, Nashik - 422009, Dist.Nashik, Maharashtra",8048372398,403
500 mL Viroclean Alcohol Based Hand Sanitizer Liquid,https://www.indiamart.com/proddetail/500-ml-viroclean-alcohol-based-hand-sanitizer-liquid-22285167112.html?pos=210&kwd=baby sanitizer&tags=||||8228.275|Price|product|||NA|rsf:gd-|-stype:attr=1|qr_nm:gd|res:RC3|com-cf:nl|ptrs:na|ktp:N0|mc:208878|mtp:S|qry_typ:P|lang:en|wc:2|cs:8896|v=4,Vrund Chem,https://www.indiamart.com/vrundchem/?pos=210&kwd=baby sanitizer&tags=||||8228.275|Price|product|||NA|rsf:gd-|-stype:attr=1|qr_nm:gd|res:RC3|com-cf:nl|ptrs:na|ktp:N0|mc:208878|mtp:S|qry_typ:P|lang:en|wc:2|cs:8896|v=4,False,Bavla Rajkot Highway,Ahmedabad,"Plot 614, Kerala GIDC, Ahmedabad, Bavla Rajkot Highway, Ahmedabad - 382220, Dist.Ahmedabad, Gujarat",8048250211,224
