product_title,product_link,company_name,company_link,is_verified_exporter,city_region,city,address_details,phone_number,phone_number_extension
"Transparent Plastic Baby Bottle Accessories, 1-2 Years",https://www.indiamart.com/proddetail/baby-bottle-accessories-2852906010430.html?pos=1&kwd=baby bottle accessories&tags=BA||||8752.144|Price|product|||TS|rsf:gd-|-qr_nm:gd|res:RC4|com-cf:nl|ptrs:na|ktp:N0|mc:98603|mtp:S|qry_typ:P|lang:en|wc:3|flavl:0|cs:8306|v=4,Dua Traders,https://www.indiamart.com/duatraders-delhi/?pos=1&kwd=baby bottle accessories&tags=BA||||8752.144|Price|product|||TS|rsf:gd-|-qr_nm:gd|res:RC4|com-cf:nl|ptrs:na|ktp:N0|mc:98603|mtp:S|qry_typ:P|lang:en|wc:3|flavl:0|cs:8306|v=4,False,Mandoli,New Delhi,"Plot No. 8, Kh No. 4/24, Mela Ram Vatika, E-block, JR Complex No. 4, Mandoli, Sevadham, Mandoli, New Delhi - 110093, Dist.Delhi, Delhi",8048971741,
"Transparent Plastic Baby Nibbler Fruit Feeder( BOX PACKING), Capacity: 100 mL, Newly Born",https://www.indiamart.com/proddetail/baby-nibbler-fruit-feeder-box-packing-2849607653655.html?pos=2&kwd=baby bottle accessories&tags=BA||||8752.144|Price|product|||MDC|rsf:gd-|-qr_nm:gd|res:RC4|com-cf:nl|ptrs:na|ktp:N0|mc:98603|mtp:S|qry_typ:P|lang:en|wc:3|flavl:0|cs:8306|v=4,B-Qube Enterprises,https://www.indiamart.com/bqube-enterprises/?pos=2&kwd=baby bottle accessories&tags=BA||||8752.144|Price|product|||MDC|rsf:gd-|-qr_nm:gd|res:RC4|com-cf:nl|ptrs:na|ktp:N0|mc:98603|mtp:S|qry_typ:P|lang:en|wc:3|flavl:0|cs:8306|v=4,False,Karol Bagh,New Delhi,"303, Iiird Floor,13/4, W.E.A.,Karol Bagh, Karol Bagh, New Delhi - 110005, Dist.Delhi, Delhi",8047313183,
"Plastic PEACH BABY SIPPER BOTTLE, Packaging Type: Box, 3-12 Months",https://www.indiamart.com/proddetail/peach-baby-sipper-bottle-2852116721288.html?pos=3&kwd=baby bottle accessories&tags=BB||||8663.873|Price|product|||TS|rsf:gd-|-qr_nm:gd|res:RC4|com-cf:nl|ptrs:na|ktp:N0|mc:98603|mtp:S|qry_typ:P|lang:en|wc:3|flavl:0|cs:8306|v=4,Ratnaakar Impex,https://www.indiamart.com/ratnaakarimpex/?pos=3&kwd=baby bottle accessories&tags=BB||||8663.873|Price|product|||TS|rsf:gd-|-qr_nm:gd|res:RC4|com-cf:nl|ptrs:na|ktp:N0|mc:98603|mtp:S|qry_typ:P|lang:en|wc:3|flavl:0|cs:8306|v=4,False,Dharmarayaswamy Temple Street,Bengaluru,"6th Floor, No.6/2, Shop-1, Luciya City Center,Next To Sharada Talkies, OTC Road, Dharmarayaswamy Temple Street, Bengaluru - 560002, Dist.Bengaluru, Karnataka",7942843226,
Velvet Baby Bottle Cover,https://www.indiamart.com/proddetail/velvet-baby-bottle-cover-2852393836597.html?pos=4&kwd=baby bottle accessories&tags=||||8752.144|Price|product|||TS|rsf:gd-|-qr_nm:gd|res:RC4|com-cf:nl|ptrs:na|ktp:N0|mc:98603|mtp:S|qry_typ:P|lang:en|wc:3|flavl:0|cs:8306|v=4,Ekta Overseas,https://www.indiamart.com/ektaoverseas-newdelhi/?pos=4&kwd=baby bottle accessories&tags=||||8752.144|Price|product|||TS|rsf:gd-|-qr_nm:gd|res:RC4|com-cf:nl|ptrs:na|ktp:N0|mc:98603|mtp:S|qry_typ:P|lang:en|wc:3|flavl:0|cs:8306|v=4,False,Shahdara,New Delhi,"1/95, Gali No.3, Near Navjeevan Phisical Center, Vishwas Nagar, Shahdara,, Shahdara, New Delhi - 110032, Dist.Delhi, Delhi",7942628926,
Baby Garment Accessories,https://www.indiamart.com/proddetail/baby-garment-accessories-2854556110033.html?pos=5&kwd=baby bottle accessories&tags=||||8211.142|Price|product|||TS|rsf:gd-|-qr_nm:gd|res:RC4|com-cf:nl|ptrs:na|ktp:N0|mc:98603|mtp:S|qry_typ:P|lang:en|wc:3|flavl:0|cs:8306|v=4,P For Panda Baby Products Private Limited,https://www.p4pandababyproducts.com/?pos=5&kwd=baby bottle accessories&tags=||||8211.142|Price|product|||TS|rsf:gd-|-qr_nm:gd|res:RC4|com-cf:nl|ptrs:na|ktp:N0|mc:98603|mtp:S|qry_typ:P|lang:en|wc:3|flavl:0|cs:8306|v=4,False,Goregaon West,Mumbai,"904 A Wing,9 Th Floor,Triple S Heights,Jakeria Road, Goregaon West, Mumbai - 400064, Dist.Mumbai, Maharashtra",7942710871,
Baby Feeding Bottle Cover,https://www.indiamart.com/proddetail/baby-feeding-bottle-cover-2586362788.html?pos=6&kwd=baby bottle accessories&tags=||||8752.144|Price|product|||TS|rsf:gd-|-qr_nm:gd|res:RC4|com-cf:nl|ptrs:na|ktp:N0|mc:98603|mtp:S|qry_typ:P|lang:en|wc:3|flavl:0|cs:8306|v=4,Dolphin Baby Product,https://www.dolphinbabyproducts.com/?pos=6&kwd=baby bottle accessories&tags=||||8752.144|Price|product|||TS|rsf:gd-|-qr_nm:gd|res:RC4|com-cf:nl|ptrs:na|ktp:N0|mc:98603|mtp:S|qry_typ:P|lang:en|wc:3|flavl:0|cs:8306|v=4,False,Inderlok,New Delhi,"No. 488, 1st Floor, Shahzada Bagh, Industrial Area Phase 1, Inderlok, New Delhi - 110035, Dist.Delhi, Delhi",8048965296,
"Baby Milk Bottle Cover, Capacity: 120ml",https://www.indiamart.com/proddetail/baby-milk-bottle-cover-2850398115897.html?pos=7&kwd=baby bottle accessories&tags=||||8778.123|Price|product|||TS|rsf:gd-|-qr_nm:gd|res:RC4|com-cf:nl|ptrs:na|ktp:N0|mc:98603|mtp:S|qry_typ:P|lang:en|wc:3|flavl:0|cs:8306|v=4,Radiant Enterprises,https://www.indiamart.com/radiant-enterprisesgautam-budhnagar/?pos=7&kwd=baby bottle accessories&tags=||||8778.123|Price|product|||TS|rsf:gd-|-qr_nm:gd|res:RC4|com-cf:nl|ptrs:na|ktp:N0|mc:98603|mtp:S|qry_typ:P|lang:en|wc:3|flavl:0|cs:8306|v=4,False,,Noida,"Tower-3,Flat-2601,Lotus 300,Noida,Gautam Buddha Nagar, Noida - 201304, Dist.Gautam Budh Nagar, Uttar Pradesh",7942828511,
Colored Stainless Steel Baby Feeding Bottle,https://www.indiamart.com/proddetail/colored-stainless-steel-baby-feeding-bottle-21290467012.html?pos=8&kwd=baby bottle accessories&tags=||||8954.051|Price|product|||TS|rsf:gd-|-qr_nm:gd|res:RC4|com-cf:nl|ptrs:na|ktp:N0|mc:98603|mtp:S|qry_typ:P|lang:en|wc:3|flavl:0|cs:8306|v=4,Sundar Garments,https://www.sundargarment.com/?pos=8&kwd=baby bottle accessories&tags=||||8954.051|Price|product|||TS|rsf:gd-|-qr_nm:gd|res:RC4|com-cf:nl|ptrs:na|ktp:N0|mc:98603|mtp:S|qry_typ:P|lang:en|wc:3|flavl:0|cs:8306|v=4,False,Kondithop,Chennai,"No-9 Murugesan Street Near Kondithope Park, Kondithop, Chennai - 600079, Dist.Chennai, Tamil Nadu",8048266539,
Baby Bottle Cotton Cover,https://www.indiamart.com/proddetail/baby-bottle-cotton-cover-2852538329712.html?pos=9&kwd=baby bottle accessories&tags=||||8823.154|Price|product|||TS|rsf:gd-|-qr_nm:gd|res:RC4|com-cf:nl|ptrs:na|ktp:N0|mc:98603|mtp:S|qry_typ:P|lang:en|wc:3|flavl:0|cs:8306|v=4,Shri Anant International,https://www.indiamart.com/shrianantinternational/?pos=9&kwd=baby bottle accessories&tags=||||8823.154|Price|product|||TS|rsf:gd-|-qr_nm:gd|res:RC4|com-cf:nl|ptrs:na|ktp:N0|mc:98603|mtp:S|qry_typ:P|lang:en|wc:3|flavl:0|cs:8306|v=4,False,DayalBagh,Agra,"No.02,House 2,Alkapuri Phase Ii,Agra, DayalBagh, Agra - 282005, Dist.Agra, Uttar Pradesh",7942721451,
"Metal Baby Stainless Steel Feeding Bottle with millimeter marking, Capacity: 200 mL",https://www.indiamart.com/proddetail/baby-stainless-steel-feeding-bottle-with-millimeter-marking-2851356270291.html?pos=10&kwd=baby bottle accessories&tags=||||8752.144|Price|product|||TS|rsf:gd-|-qr_nm:gd|res:RC4|com-cf:nl|ptrs:na|ktp:N0|mc:98603|mtp:S|qry_typ:P|lang:en|wc:3|flavl:0|cs:8306|v=4,Ishvan Impex Private Limited,https://www.ishvanimpex.com/?pos=10&kwd=baby bottle accessories&tags=||||8752.144|Price|product|||TS|rsf:gd-|-qr_nm:gd|res:RC4|com-cf:nl|ptrs:na|ktp:N0|mc:98603|mtp:S|qry_typ:P|lang:en|wc:3|flavl:0|cs:8306|v=4,False,Chandni Chowk,New Delhi,"Ground Floor, Shop No. 1, Bagh Diwar, Fatehpuri, Chandni Chowk, Central Delhi, Chandni Chowk, New Delhi - 110006, Dist.Delhi, Delhi",8048974995,
"Metal STAINLESS STEEL BABY FEEDING BOTTLE, Capacity: 250 mL",https://www.indiamart.com/proddetail/stainless-steel-baby-feeding-bottle-22036586230.html?pos=11&kwd=baby bottle accessories&tags=||||8223.226|Price|product|||TS|rsf:gd-|-qr_nm:gd|res:RC4|com-cf:nl|ptrs:na|ktp:N0|mc:98603|mtp:S|qry_typ:P|lang:en|wc:3|flavl:0|cs:8306|v=4,Speedy Household Industry,https://www.indiamart.com/speedy-household-industry/?pos=11&kwd=baby bottle accessories&tags=||||8223.226|Price|product|||TS|rsf:gd-|-qr_nm:gd|res:RC4|com-cf:nl|ptrs:na|ktp:N0|mc:98603|mtp:S|qry_typ:P|lang:en|wc:3|flavl:0|cs:8306|v=4,False,Bhayandar East,Thane,"0/6, Vikas Udyog Nagar, Behind Goddev Fathak Road, Bhayandar East, Bhayandar East, Thane - 401105, Dist.Thane, Maharashtra",8048962061,
Organic Cotton Burp Clothes,https://www.indiamart.com/proddetail/organic-cotton-burp-clothes-2854704063255.html?pos=12&kwd=baby bottle accessories&tags=||||8954.051|Price|product|||TS|rsf:gd-|-qr_nm:gd|res:RC4|com-cf:nl|ptrs:na|ktp:N0|mc:98603|mtp:S|qry_typ:P|lang:en|wc:3|flavl:0|cs:8306|v=4,Tetra Clothing,https://www.tetraclothing.in/?pos=12&kwd=baby bottle accessories&tags=||||8954.051|Price|product|||TS|rsf:gd-|-qr_nm:gd|res:RC4|com-cf:nl|ptrs:na|ktp:N0|mc:98603|mtp:S|qry_typ:P|lang:en|wc:3|flavl:0|cs:8306|v=4,True,Gopichettipalaiyam,Chennai,"No. 59/28, Balu Building, Gopichettipalaiyam, Chennai - 638476, Dist.Chennai, Tamil Nadu",8048957951,
"Plastic Baby Wide Neck Bottle, Age Group: 3-12 Months",https://www.indiamart.com/proddetail/plastic-baby-wide-neck-bottle-23634188891.html?pos=13&kwd=baby bottle accessories&tags=||||8741.812|Price|product|||MDC|rsf:gd-|-qr_nm:gd|res:RC4|com-cf:nl|ptrs:na|ktp:N0|mc:98603|mtp:S|qry_typ:P|lang:en|wc:3|flavl:0|cs:8306|v=4,Royal Baby Products (India),https://www.indiamart.com/royal-baby-products/?pos=13&kwd=baby bottle accessories&tags=||||8741.812|Price|product|||MDC|rsf:gd-|-qr_nm:gd|res:RC4|com-cf:nl|ptrs:na|ktp:N0|mc:98603|mtp:S|qry_typ:P|lang:en|wc:3|flavl:0|cs:8306|v=4,False,Sarhaul,Gurugram,"Ground Floor, M-2/22, Dlf City Phase II, Dlf City Phase II, Sarhaul, Gurugram - 122008, Dist.Gurgaon, Haryana",8048613476,
"200ml Pink Plastic Baby Feeding Bottle, Age Group: Newly Born",https://www.indiamart.com/proddetail/200ml-pink-plastic-baby-feeding-bottle-2851085369612.html?pos=14&kwd=baby bottle accessories&tags=||||8788.382|Price|product|||MDC|rsf:gd-|-qr_nm:gd|res:RC4|com-cf:nl|ptrs:na|ktp:N0|mc:98603|mtp:S|qry_typ:P|lang:en|wc:3|flavl:0|cs:8306|v=4,Loop Techno Systems Private Limited,https://www.indiamart.com/loop-technosystems/?pos=14&kwd=baby bottle accessories&tags=||||8788.382|Price|product|||MDC|rsf:gd-|-qr_nm:gd|res:RC4|com-cf:nl|ptrs:na|ktp:N0|mc:98603|mtp:S|qry_typ:P|lang:en|wc:3|flavl:0|cs:8306|v=4,False,Surajpur Site V,Greater Noida,"Plot No. J-023, Site 5, Kasna Ind, Area,Gautam Buddha Nagar, Surajpur Site V, Greater Noida - 201308, Dist.Gautam Budh Nagar, Uttar Pradesh",7942830535,
"White Bpa Free Baby Bottle, Capacity: 120and250ml 2size",https://www.indiamart.com/proddetail/bpa-free-baby-bottle-16222771733.html?pos=15&kwd=baby bottle accessories&tags=||||8545.6045|Price|product|||MDC|rsf:gd-|-qr_nm:gd|res:RC4|com-cf:nl|ptrs:na|ktp:N0|mc:98603|mtp:S|qry_typ:P|lang:en|wc:3|cs:7543|v=4,Shraddha Saburi,https://www.indiamart.com/shraddhasaburi/?pos=15&kwd=baby bottle accessories&tags=||||8545.6045|Price|product|||MDC|rsf:gd-|-qr_nm:gd|res:RC4|com-cf:nl|ptrs:na|ktp:N0|mc:98603|mtp:S|qry_typ:P|lang:en|wc:3|cs:7543|v=4,False,Cantonment Area,Firozpur,"263, Suji Bazar, M/s Shraddha Saburi, Ferozepur Cantt, Cantonment Area, Firozpur - 152001, Dist.Firozpur, Punjab",8048979628,
"Metal Silver Speedex feeding bottle, Capacity: 250 mL, Baby",https://www.indiamart.com/proddetail/speedex-feeding-bottle-2854766686233.html?pos=16&kwd=baby bottle accessories&tags=||||8921.206|Price|product|||MDC|rsf:gd-|-qr_nm:gd|res:RC4|com-cf:nl|ptrs:na|ktp:N0|mc:98603|mtp:S|qry_typ:P|lang:en|wc:3|cs:7543|v=4,Malar Metalware Products,https://www.indiamart.com/malarmetalware-products/?pos=16&kwd=baby bottle accessories&tags=||||8921.206|Price|product|||MDC|rsf:gd-|-qr_nm:gd|res:RC4|com-cf:nl|ptrs:na|ktp:N0|mc:98603|mtp:S|qry_typ:P|lang:en|wc:3|cs:7543|v=4,False,,Chengalpattu,"133a, Sembakkam, Indira Nagar,, Sembakkam Village, Chengalpattu - 603108, Dist.Kanchipuram, Tamil Nadu",8044460341,
"Printed Glass Baby Feeding Bottle, 3-12 Months",https://www.indiamart.com/proddetail/printed-glass-baby-feeding-bottle-23215958162.html?pos=17&kwd=baby bottle accessories&tags=||||8545.6045|Price|product|||MDC|rsf:gd-|-qr_nm:gd|res:RC4|com-cf:nl|ptrs:na|ktp:N0|mc:98603|mtp:S|qry_typ:P|lang:en|wc:3|cs:7543|v=4,Shri Siddhivinayak Traders,https://www.indiamart.com/shrisiddhivinayaktraders-firozpur/?pos=17&kwd=baby bottle accessories&tags=||||8545.6045|Price|product|||MDC|rsf:gd-|-qr_nm:gd|res:RC4|com-cf:nl|ptrs:na|ktp:N0|mc:98603|mtp:S|qry_typ:P|lang:en|wc:3|cs:7543|v=4,False,Basti Nizamdin,Firozpur,"No.94, Anand Avenue, Backside Marked Office, Malwal Road, Firozpur City, Basti Nizamdin, Firozpur - 152002, Dist.Firozpur, Punjab",8046066644,
"Newborn Baby Bottle Cover, 240 ml size",https://www.indiamart.com/proddetail/newborn-baby-bottle-cover-240-ml-size-2852544605791.html?pos=18&kwd=baby bottle accessories&tags=||||8752.144|Price|product|||MDC|rsf:gd-|-qr_nm:gd|res:RC4|com-cf:nl|ptrs:na|ktp:N0|mc:98603|mtp:S|qry_typ:P|lang:en|wc:3|cs:7543|v=4,B N Hosiery,https://www.indiamart.com/bnhosiery/?pos=18&kwd=baby bottle accessories&tags=||||8752.144|Price|product|||MDC|rsf:gd-|-qr_nm:gd|res:RC4|com-cf:nl|ptrs:na|ktp:N0|mc:98603|mtp:S|qry_typ:P|lang:en|wc:3|cs:7543|v=4,False,Ashok Vihar,New Delhi,"House No 130l, Block-E, Phase-1,Ashok, Vihar, Ashok Vihar, New Delhi - 110052, Dist.Delhi, Delhi",7942706809,
"Newly Born Silver SS Baby Feeding Bottle 120 Ml, Packaging Type: Box",https://www.indiamart.com/proddetail/ss-baby-feeding-bottle-120-ml-19094667662.html?pos=19&kwd=baby bottle accessories&tags=||||8954.051|Price|product|||MDC|rsf:gd-|-qr_nm:gd|res:RC4|com-cf:nl|ptrs:na|ktp:N0|mc:98603|mtp:S|qry_typ:P|lang:en|wc:3|cs:7543|v=4,Bhairavi Metal Works,https://www.indiamart.com/bhairavimetalworks/?pos=19&kwd=baby bottle accessories&tags=||||8954.051|Price|product|||MDC|rsf:gd-|-qr_nm:gd|res:RC4|com-cf:nl|ptrs:na|ktp:N0|mc:98603|mtp:S|qry_typ:P|lang:en|wc:3|cs:7543|v=4,False,Thiruporur,Chennai,"No. 24, Sandror Street,, Thiruporur, Chennai - 603110, Dist.Chennai, Tamil Nadu",8046052032,
Twinkle Baby Feeding Bottle 125ml,https://www.indiamart.com/proddetail/twinkle-baby-feeding-bottle-125ml-12768951573.html?pos=20&kwd=baby bottle accessories&tags=||||8223.226|Price|product|||MDC|rsf:gd-|-qr_nm:gd|res:RC4|com-cf:nl|ptrs:na|ktp:N0|mc:98603|mtp:S|qry_typ:P|lang:en|wc:3|cs:7543|v=4,Wecare Solutions,https://www.indiamart.com/wecare-solutions/?pos=20&kwd=baby bottle accessories&tags=||||8223.226|Price|product|||MDC|rsf:gd-|-qr_nm:gd|res:RC4|com-cf:nl|ptrs:na|ktp:N0|mc:98603|mtp:S|qry_typ:P|lang:en|wc:3|cs:7543|v=4,False,Valiv,Thane,"Gala No. F-19-20, 1st Floor, Rajprabha Anand Industrial Estate Naikpada, Waliv, Valiv, Thane - 401208, Dist.Thane, Maharashtra",8047631791,
"URBAN CUBE Transparent Glass Baby Feeding Bottle, 3-12 Months",https://www.indiamart.com/proddetail/glass-baby-feeding-bottle-26438729997.html?pos=21&kwd=baby bottle accessories&tags=||||8752.144|Price|product|||TS|rsf:gd-|-qr_nm:gd|res:RC4|com-cf:nl|ptrs:na|ktp:N0|mc:98603|mtp:S|qry_typ:P|lang:en|wc:3|cs:7543|v=4,Urbancube,https://www.indiamart.com/urbancube/?pos=21&kwd=baby bottle accessories&tags=||||8752.144|Price|product|||TS|rsf:gd-|-qr_nm:gd|res:RC4|com-cf:nl|ptrs:na|ktp:N0|mc:98603|mtp:S|qry_typ:P|lang:en|wc:3|cs:7543|v=4,False,Kamla Nagar,New Delhi,"Ground Floor, 14 UA, Jawahar Nagar, Kamla Nagar, New Delhi - 110007, Dist.Delhi, Delhi",8048980014,
"Plastic Baby Feeding Bottle 350 Ml, Age Group: 1-2 Years",https://www.indiamart.com/proddetail/baby-feeding-bottle-350-ml-2854786037188.html?pos=22&kwd=baby bottle accessories&tags=||||8038.093|Price|product|||TS|rsf:gd-|-qr_nm:gd|res:RC4|com-cf:nl|ptrs:na|ktp:N0|mc:98603|mtp:S|qry_typ:P|lang:en|wc:3|cs:7543|v=4,Kite Enterprise,https://www.indiamart.com/kiteenterprise/?pos=22&kwd=baby bottle accessories&tags=||||8038.093|Price|product|||TS|rsf:gd-|-qr_nm:gd|res:RC4|com-cf:nl|ptrs:na|ktp:N0|mc:98603|mtp:S|qry_typ:P|lang:en|wc:3|cs:7543|v=4,False,Geeta Nagar,Rajkot,"10/11, Laxmiwadi Nr. Anil Aquarium, Geeta Nagar, Rajkot - 360002, Dist.Rajkot, Gujarat",8047630757,
"750ml Gloory Borosilicate Glass Water Bottle, For Home",https://www.indiamart.com/proddetail/750ml-gloory-borosilicate-glass-water-bottle-2849817200255.html?pos=23&kwd=baby bottle accessories&tags=||||8741.987|Price|product|||TS|rsf:gd-|-qr_nm:gd|res:RC4|com-cf:nl|ptrs:na|ktp:N0|mc:98603|mtp:S|qry_typ:P|lang:en|wc:3|cs:7543|v=4,Excel Industries,https://www.borosilicateglassindia.com/?pos=23&kwd=baby bottle accessories&tags=||||8741.987|Price|product|||TS|rsf:gd-|-qr_nm:gd|res:RC4|com-cf:nl|ptrs:na|ktp:N0|mc:98603|mtp:S|qry_typ:P|lang:en|wc:3|cs:7543|v=4,False,Gandhi Nagar,Ambala,"2/14/4, Punjabi Bagh, Near Drum Factory, Gandhi Nagar, Ambala - 133001, Dist.Ambala, Haryana",7942797708,
"Transparent Glass Baby Feeding Bottle, Capacity: 200 mL, 3-12 Months",https://www.indiamart.com/proddetail/glass-baby-feeding-bottle-2852522969088.html?pos=24&kwd=baby bottle accessories&tags=||||8785.791|Price|product|||TS|rsf:gd-|-qr_nm:gd|res:RC4|com-cf:nl|ptrs:na|ktp:N0|mc:98603|mtp:S|qry_typ:P|lang:en|wc:3|cs:7543|v=4,Paras Enterprises,https://www.claoberry.com/?pos=24&kwd=baby bottle accessories&tags=||||8785.791|Price|product|||TS|rsf:gd-|-qr_nm:gd|res:RC4|com-cf:nl|ptrs:na|ktp:N0|mc:98603|mtp:S|qry_typ:P|lang:en|wc:3|cs:7543|v=4,False,Raj Nagar Extension,Ghaziabad,"KH.NO.-2565,VILLAGE KARHERA,MOHAN NAGAR,Ghaziabad, Raj Nagar Extension, Ghaziabad - 201007, Dist.Ghaziabad, Uttar Pradesh",8043862487,
"Milestone Silver Kiddy Steel Feeding Bottle, Design/Pattern: Plain",https://www.indiamart.com/proddetail/kiddy-steel-feeding-bottle-22292800991.html?pos=25&kwd=baby bottle accessories&tags=||||8211.142|Price|product|||TS|rsf:gd-|-qr_nm:gd|res:RC4|com-cf:nl|ptrs:na|ktp:N0|mc:98603|mtp:S|qry_typ:P|lang:en|wc:3|cs:7543|v=4,Mahavir Industries,https://www.mahavirmilestone.in/?pos=25&kwd=baby bottle accessories&tags=||||8211.142|Price|product|||TS|rsf:gd-|-qr_nm:gd|res:RC4|com-cf:nl|ptrs:na|ktp:N0|mc:98603|mtp:S|qry_typ:P|lang:en|wc:3|cs:7543|v=4,True,Vasai East,Mumbai,"29, NJ Industrial Estate, Chinchpada, Waliv Road, Vasai East, Mumbai - 401208, Dist.Mumbai, Maharashtra",8048962615,
"Matt Metal SS VACUUM FEEDING BABY BOTTLE 240ML, Capacity: 250 mL, 3-12 Months",https://www.indiamart.com/proddetail/ss-vacuum-feeding-baby-bottle-240ml-2853333034448.html?pos=26&kwd=baby bottle accessories&tags=||||8747.223|Price|product|||TS|rsf:gd-|-qr_nm:gd|res:RC4|com-cf:nl|ptrs:na|ktp:N0|mc:98603|mtp:S|qry_typ:P|lang:en|wc:3|cs:7543|v=4,Dewdrop Bottles Pvt. Ltd.,https://www.dewdropbottles.com/?pos=26&kwd=baby bottle accessories&tags=||||8747.223|Price|product|||TS|rsf:gd-|-qr_nm:gd|res:RC4|com-cf:nl|ptrs:na|ktp:N0|mc:98603|mtp:S|qry_typ:P|lang:en|wc:3|cs:7543|v=4,False,Sector 42,Sonipat,"Rect. And Killa No. 102//14/1/1, Revenue Estate, Akbarpur Barota, Sector 42, Sonipat - 131103, Dist.Sonipat, Haryana",7942840290,
Metal Stainless Stee Feeding Bottle,https://www.indiamart.com/proddetail/stainless-stee-feeding-bottle-2853127724633.html?pos=27&kwd=baby bottle accessories&tags=||||8752.144|Price|product|||TS|rsf:gd-|-qr_nm:gd|res:RC4|com-cf:nl|ptrs:na|ktp:N0|mc:98603|mtp:S|qry_typ:P|lang:en|wc:3|cs:7543|v=4,R B Enterprises,https://www.indiamart.com/rbenterpriseskondalinewdelhi/?pos=27&kwd=baby bottle accessories&tags=||||8752.144|Price|product|||TS|rsf:gd-|-qr_nm:gd|res:RC4|com-cf:nl|ptrs:na|ktp:N0|mc:98603|mtp:S|qry_typ:P|lang:en|wc:3|cs:7543|v=4,False,Gharoli,New Delhi,"Ground, 58 F/F/R/S Brahman Basti, Kondli Main Road, Kondli Gharoli,, Gharoli, New Delhi - 110094, Dist.Delhi, Delhi",7942535965,
"AAditya White Baby Silicone Nipple, Packaging Type: Box, 1-2 Years",https://www.indiamart.com/proddetail/baby-silicone-nipple-22513633397.html?pos=28&kwd=baby bottle accessories&tags=||||8210.732|Price|product|||TS|rsf:gd-|-qr_nm:gd|res:RC4|com-cf:nl|ptrs:na|ktp:N0|mc:98603|mtp:S|qry_typ:P|lang:en|wc:3|cs:7543|v=4,Aditya Polymers,https://www.aadityapolymers.com/?pos=28&kwd=baby bottle accessories&tags=||||8210.732|Price|product|||TS|rsf:gd-|-qr_nm:gd|res:RC4|com-cf:nl|ptrs:na|ktp:N0|mc:98603|mtp:S|qry_typ:P|lang:en|wc:3|cs:7543|v=4,False,Gokhiware,Vasai,"106, A V Udhyog No. 3, Near Rajprabha Near Golani, Gokhiware, Vasai - 401208, Dist.Thane, Maharashtra",8048987383,
Baby Natural Fruit & Food Feeder(DROPSHIPPING AVAILABLE),https://www.indiamart.com/proddetail/baby-natural-fruit-food-feeder-dropshipping-available-25279631862.html?pos=29&kwd=baby bottle accessories&tags=||||8230.883|Price|product|||TS|rsf:gd-|-qr_nm:gd|res:RC4|com-cf:nl|ptrs:na|ktp:N0|mc:98603|mtp:S|qry_typ:P|lang:en|wc:3|cs:7543|v=4,Rozzby,https://www.cheaperzonetoys.com/?pos=29&kwd=baby bottle accessories&tags=||||8230.883|Price|product|||TS|rsf:gd-|-qr_nm:gd|res:RC4|com-cf:nl|ptrs:na|ktp:N0|mc:98603|mtp:S|qry_typ:P|lang:en|wc:3|cs:7543|v=4,False,Kosam,Surat,"1st Floor D-2,103 Vip Circle Shlok Recidency Utran, Kosam, Surat - 394105, Dist.Surat, Gujarat",8047622002,
"Cotton Multicolor Kids Bathrobes With Hood, Size: Free, Plain",https://www.indiamart.com/proddetail/kids-bathrobes-with-hood-2854682644530.html?pos=30&kwd=baby bottle accessories&tags=||||8752.144|Price|product|||TS|rsf:gd-|-qr_nm:gd|res:RC4|com-cf:nl|ptrs:na|ktp:N0|mc:98603|mtp:S|qry_typ:P|lang:en|wc:3|cs:7543|v=4,The Linen Stop,https://www.indiamart.com/thelinenstop/?pos=30&kwd=baby bottle accessories&tags=||||8752.144|Price|product|||TS|rsf:gd-|-qr_nm:gd|res:RC4|com-cf:nl|ptrs:na|ktp:N0|mc:98603|mtp:S|qry_typ:P|lang:en|wc:3|cs:7543|v=4,False,Rithala,New Delhi,"Ground Floor, Khasra No 1122 / Hall No. 1 A, Bagga Link Road, Rithala, Rithala, New Delhi - 110085, Dist.Delhi, Delhi",8047652488,
Muslin Burp Clothes 100 Cotton 6 Layers,https://www.indiamart.com/proddetail/muslin-burp-clothes-100-cotton-6-layers-2854463305873.html?pos=31&kwd=baby bottle accessories&tags=||||8706.263|Price|product|||TS|rsf:gd-|-qr_nm:gd|res:RC4|com-cf:nl|ptrs:na|ktp:N0|mc:98603|mtp:S|qry_typ:P|lang:en|wc:3|cs:7543|v=4,P.R.Cottons,https://www.indiamart.com/prcottons/?pos=31&kwd=baby bottle accessories&tags=||||8706.263|Price|product|||TS|rsf:gd-|-qr_nm:gd|res:RC4|com-cf:nl|ptrs:na|ktp:N0|mc:98603|mtp:S|qry_typ:P|lang:en|wc:3|cs:7543|v=4,True,Near,Karur,"Ground Floor Room No.1, Door No.79/1, Vaiyapurinagar Ist Cross, Near, Karur - 639002, Dist.Karur, Tamil Nadu",8048608767,
"180ml Printed Stainless Steel Feeding Bottle, New Born Baby",https://www.indiamart.com/proddetail/180ml-printed-stainless-steel-feeding-bottle-2849084146333.html?pos=32&kwd=baby bottle accessories&tags=||||8592.634|Price|product|||MDC|rsf:gd-|-qr_nm:gd|res:RC4|com-cf:nl|ptrs:na|ktp:N0|mc:98603|mtp:S|qry_typ:P|lang:en|wc:3|cs:7543|v=4,Steel Hawk Traders,https://www.indiamart.com/steel-hawk-traders/?pos=32&kwd=baby bottle accessories&tags=||||8592.634|Price|product|||MDC|rsf:gd-|-qr_nm:gd|res:RC4|com-cf:nl|ptrs:na|ktp:N0|mc:98603|mtp:S|qry_typ:P|lang:en|wc:3|cs:7543|v=4,False,,Chettipalayam,"SF.No.301,302/1, Thillaiamman Valarmathi Nagar, Kuylai Pirivu,, Chettipalayam - 641201, Tamil Nadu",7949324072,
"Silver Baby Feeding Bottle, Capacity: 250 ml, Age Group: 1-2 Years",https://www.indiamart.com/proddetail/silver-baby-feeding-bottle-2853932627155.html?pos=33&kwd=baby bottle accessories&tags=||||8954.051|Price|product|||MDC|rsf:gd-|-qr_nm:gd|res:RC4|com-cf:nl|ptrs:na|ktp:N0|mc:98603|mtp:S|qry_typ:P|lang:en|wc:3|cs:7543|v=4,For Lil Ones LLP,https://www.indiamart.com/for-lilones/?pos=33&kwd=baby bottle accessories&tags=||||8954.051|Price|product|||MDC|rsf:gd-|-qr_nm:gd|res:RC4|com-cf:nl|ptrs:na|ktp:N0|mc:98603|mtp:S|qry_typ:P|lang:en|wc:3|cs:7543|v=4,False,Perungalattur,Chennai,"30/4, Rajaji Street, Srinivasa Nagar, Perungalattur, Chengalpattu, Perungalattur, Chennai - 600063, Dist.Chennai, Tamil Nadu",8044012811,
Baby Bottle Cover,https://www.indiamart.com/proddetail/baby-bottle-cover-2853107459255.html?pos=34&kwd=baby bottle accessories&tags=||||8706.508|Price|product|||MDC|rsf:gd-|-qr_nm:gd|res:RC4|com-cf:nl|ptrs:na|ktp:N0|mc:98603|mtp:S|qry_typ:P|lang:en|wc:3|cs:7543|v=4,Young Vision,https://www.indiamart.com/young-vision-rohtak/?pos=34&kwd=baby bottle accessories&tags=||||8706.508|Price|product|||MDC|rsf:gd-|-qr_nm:gd|res:RC4|com-cf:nl|ptrs:na|ktp:N0|mc:98603|mtp:S|qry_typ:P|lang:en|wc:3|cs:7543|v=4,False,Janta Colony,Rohtak,"949/31 Azad Nagar, Janta Colony, Rohtak - 124001, Dist.Rohtak, Haryana",8047688329,
304 Stainless Steel Baby Feeding Bottle For Baby 304 Grade 150 Ml Plain,https://www.indiamart.com/proddetail/304-stainless-steel-baby-feeding-bottle-for-baby-304-grade-150-ml-plain-22962350333.html?pos=35&kwd=baby bottle accessories&tags=||||8206.45|Price|product|||TS|rsf:gd-|-qr_nm:gd|res:RC4|com-cf:nl|ptrs:na|ktp:N0|mc:98603|mtp:S|qry_typ:P|lang:en|wc:3|cs:7543|v=4,Nelcon Industries India Private Limited,https://www.steelbottles.in/?pos=35&kwd=baby bottle accessories&tags=||||8206.45|Price|product|||TS|rsf:gd-|-qr_nm:gd|res:RC4|com-cf:nl|ptrs:na|ktp:N0|mc:98603|mtp:S|qry_typ:P|lang:en|wc:3|cs:7543|v=4,False,Tembhode,Palghar,"Survey No. 43/5/6, Plot No. D, Old Satpati Road Allayali, Post Tembhode Hitech Industrial Estate, Tembhode, Palghar - 401404, Dist.Thane, Maharashtra",7942539784,
Glass Baby Feeding Bottle,,R.B Handicrafts,https://www.indiamart.com/rbhandicrafts/?pos=36&kwd=baby bottle accessories&tags=||||8915.672|Price|product|||MDC|rsf:gd-|-qr_nm:gd|res:RC4|com-cf:nl|ptrs:na|ktp:N0|mc:98603|mtp:S|qry_typ:P|lang:en|wc:3|cs:7543|v=4,False,Bartan Bazaar,Moradabad,"0, Thatera Street Mazar Wali Gali, Bartan Bazaar, Moradabad - 244001, Dist.Moradabad, Uttar Pradesh",8043829840,
"Plastic Pp Standard Neck Feeding Bottle, Capacity: 250 ml",https://www.indiamart.com/proddetail/pp-standard-neck-feeding-bottle-2854879890488.html?pos=37&kwd=baby bottle accessories&tags=||||8786.56||product|||MDC|rsf:gd-|-qr_nm:gd|res:RC4|com-cf:nl|ptrs:na|ktp:N0|mc:98603|mtp:S|qry_typ:P|lang:en|wc:3|cs:7543|v=4,Nabhodh Traders,https://www.indiamart.com/nabhodh-traders/?pos=37&kwd=baby bottle accessories&tags=||||8786.56||product|||MDC|rsf:gd-|-qr_nm:gd|res:RC4|com-cf:nl|ptrs:na|ktp:N0|mc:98603|mtp:S|qry_typ:P|lang:en|wc:3|cs:7543|v=4,False,,Hyderabad,"Plot No 60, Shilpa Avenue, Hyder Nagar Medchal Malkajgiri, Hyderabad - 500072, Dist.Hyderabad, Telangana",8044460917,
Crystal Hair Accessories hair bands,https://www.indiamart.com/proddetail/crystal-hair-accessories-hair-bands-2854592268333.html?pos=38&kwd=baby bottle accessories&tags=||||8752.144|Price|product|||TS|rsf:gd-|-qr_nm:gd|res:RC4|com-cf:nl|ptrs:na|ktp:N0|mc:98603|mtp:S|qry_typ:P|lang:en|wc:3|cs:7543|v=4,NNR Corp,https://www.nnrcorp.in/?pos=38&kwd=baby bottle accessories&tags=||||8752.144|Price|product|||TS|rsf:gd-|-qr_nm:gd|res:RC4|com-cf:nl|ptrs:na|ktp:N0|mc:98603|mtp:S|qry_typ:P|lang:en|wc:3|cs:7543|v=4,False,Rohini,New Delhi,"166, Ground Floor, B-6, Sector-7, Rohini, North West Delhi, Delhi, Rohini, New Delhi - 110085, Dist.Delhi, Delhi",8046048572,
Imp White Kids Hair Accessories,https://www.indiamart.com/proddetail/kids-hair-accessories-22653493188.html?pos=39&kwd=baby bottle accessories&tags=||||8211.142|Price|product|||TS|rsf:gd-|-qr_nm:gd|res:RC4|com-cf:nl|ptrs:na|ktp:N0|mc:98603|mtp:S|qry_typ:P|lang:en|wc:3|cs:7543|v=4,Anjali Art,https://www.anjaliarthairclip.com/?pos=39&kwd=baby bottle accessories&tags=||||8211.142|Price|product|||TS|rsf:gd-|-qr_nm:gd|res:RC4|com-cf:nl|ptrs:na|ktp:N0|mc:98603|mtp:S|qry_typ:P|lang:en|wc:3|cs:7543|v=4,False,Malad West,Mumbai,"No. 101, 1st Floor, ACME Shopping Centre Anand Road, Malad West, Mumbai - 400064, Dist.Mumbai, Maharashtra",8046038872,
"FASHION ALLEY Elastic Kids Hair Bows, Packaging Size: 12 Pc Opp",https://www.indiamart.com/proddetail/kids-hair-bows-22994574955.html?pos=40&kwd=baby bottle accessories&tags=||||8752.144|Price|product|||TS|rsf:gd-|-qr_nm:gd|res:RC4|com-cf:nl|ptrs:na|ktp:N0|mc:98603|mtp:S|qry_typ:P|lang:en|wc:3|cs:7543|v=4,Rohit Bindi House,https://www.rohitbindihouse.com/?pos=40&kwd=baby bottle accessories&tags=||||8752.144|Price|product|||TS|rsf:gd-|-qr_nm:gd|res:RC4|com-cf:nl|ptrs:na|ktp:N0|mc:98603|mtp:S|qry_typ:P|lang:en|wc:3|cs:7543|v=4,False,Bazaar,New Delhi,"Prop No. 5094, Anaj Mandi, Rui Mandi, Sadar Bazaar,, Bazaar, New Delhi - 110006, Dist.Delhi, Delhi",7942559635,
JGJ 10 pc Kids Hair ClawsRubber Bands in Beautifully Crafted butterfly Box Hair Accessories Kids.,https://www.indiamart.com/proddetail/jgj-10-pc-kids-hair-clawsrubber-bands-in-beautifully-crafted-butterfly-box-hair-accessories-kids-26221238473.html?pos=41&kwd=baby bottle accessories&tags=||||8752.144|Price|product|||TS|rsf:gd-|-qr_nm:gd|res:RC4|com-cf:nl|ptrs:na|ktp:N0|mc:98603|mtp:S|qry_typ:P|lang:en|wc:3|cs:7543|v=4,JGJ Global Enterprises,https://www.jgjglobalenterprises.com/?pos=41&kwd=baby bottle accessories&tags=||||8752.144|Price|product|||TS|rsf:gd-|-qr_nm:gd|res:RC4|com-cf:nl|ptrs:na|ktp:N0|mc:98603|mtp:S|qry_typ:P|lang:en|wc:3|cs:7543|v=4,False,Uttam Nagar,New Delhi,"F-73, 2nd Floor, Gali No 12, Om Vihar Extn, Uttam Nagar, Uttam Nagar, New Delhi - 110059, Dist.Delhi, Delhi",8047308180,
Plastic Kids Hair Accessories,https://www.indiamart.com/proddetail/kids-hair-accessories-2853301949130.html?pos=42&kwd=baby bottle accessories&tags=||||8752.144|Price|product|||TS|rsf:gd-|-qr_nm:gd|res:RC4|com-cf:nl|ptrs:na|ktp:N0|mc:98603|mtp:S|qry_typ:P|lang:en|wc:3|cs:7543|v=4,Impressions,https://www.impression4u.in/?pos=42&kwd=baby bottle accessories&tags=||||8752.144|Price|product|||TS|rsf:gd-|-qr_nm:gd|res:RC4|com-cf:nl|ptrs:na|ktp:N0|mc:98603|mtp:S|qry_typ:P|lang:en|wc:3|cs:7543|v=4,False,Teliwara,New Delhi,"A, 5099, Phoota Road, Icici Atm, Sadar Bazar Area,Central Delhi sadar bazar rui mandi, shop NO 5099, Teliwara, New Delhi - 110006, Dist.Delhi, Delhi",7942841106,
Chic Buddy Silicone Baby Tiny Cup with Spoon for Infants First Stage Training,https://www.indiamart.com/proddetail/chic-buddy-silicone-baby-tiny-cup-with-spoon-for-infants-first-stage-training-2848988232762.html?pos=43&kwd=baby bottle accessories&tags=||||8786.56|Price|product|||TS|rsf:gd-|-qr_nm:gd|res:RC4|com-cf:nl|ptrs:na|ktp:N0|mc:98603|mtp:S|qry_typ:P|lang:en|wc:3|cs:7543|v=4,Totcase Services Private Limited,https://www.totcase.com/?pos=43&kwd=baby bottle accessories&tags=||||8786.56|Price|product|||TS|rsf:gd-|-qr_nm:gd|res:RC4|com-cf:nl|ptrs:na|ktp:N0|mc:98603|mtp:S|qry_typ:P|lang:en|wc:3|cs:7543|v=4,False,Alwal,Hyderabad,"1-4-177/ A13/402 Shivasai Residency Greenwood Colony Old Alwal, Alwal, Hyderabad - 500010, Dist.Hyderabad, Telangana",8045910096,
Transparent Curvy Feeding Bottles,https://www.indiamart.com/proddetail/curvy-feeding-bottles-10699223630.html?pos=44&kwd=baby bottle accessories&tags=||||8778.123|Price|product|||TS|rsf:gd-|-qr_nm:gd|res:RC4|com-cf:nl|ptrs:na|ktp:N0|mc:98603|mtp:S|qry_typ:P|lang:en|wc:3|cs:7543|v=4,Bonny Products Private Limited,https://www.feedingbottles.com/?pos=44&kwd=baby bottle accessories&tags=||||8778.123|Price|product|||TS|rsf:gd-|-qr_nm:gd|res:RC4|com-cf:nl|ptrs:na|ktp:N0|mc:98603|mtp:S|qry_typ:P|lang:en|wc:3|cs:7543|v=4,False,Sector 63,Noida,"D240, Sector 63, Sector 63, Noida - 201307, Dist.Gautam Budh Nagar, Uttar Pradesh",8046040824,
Dazzle Cotton Swaddle/Wrapper/Blanket with Hooded Cap for Newborn 0 to 3yrs Baby Girl,https://www.indiamart.com/proddetail/dazzle-cotton-swaddle-wrapper-blanket-with-hooded-cap-for-newborn-0-to-3yrs-baby-girl-27157209433.html?pos=45&kwd=baby bottle accessories&tags=||||8228.275|Price|product|||TS|rsf:gd-|-qr_nm:gd|res:RC4|com-cf:nl|ptrs:na|ktp:N0|mc:98603|mtp:S|qry_typ:P|lang:en|wc:3|cs:7543|v=4,Rushabh Business Centre,https://www.indiamart.com/rushabh-business-centre/?pos=45&kwd=baby bottle accessories&tags=||||8228.275|Price|product|||TS|rsf:gd-|-qr_nm:gd|res:RC4|com-cf:nl|ptrs:na|ktp:N0|mc:98603|mtp:S|qry_typ:P|lang:en|wc:3|cs:7543|v=4,False,Satellite Nehru Nagar,Ahmedabad,"Shop No.7, Ground Floor, Galaxy Mall, Opp Jhansi Ki Rani Brts , Nerhu Nagar, Satellite Nehru Nagar, Ahmedabad - 380015, Dist.Ahmedabad, Gujarat",8047622454,
Metal Stainless Steel Feeding Bottle For Baby 240ml,https://www.indiamart.com/proddetail/stainless-steel-feeding-bottle-for-baby-240ml-2848973893262.html?pos=46&kwd=baby bottle accessories&tags=||||8752.144|Price|product|||TS|rsf:gd-|-qr_nm:gd|res:RC4|com-cf:nl|ptrs:na|ktp:N0|mc:98603|mtp:S|qry_typ:P|lang:en|wc:3|cs:7543|v=4,Maharaja Cookers Private Limited,https://www.speedexind.co.in/?pos=46&kwd=baby bottle accessories&tags=||||8752.144|Price|product|||TS|rsf:gd-|-qr_nm:gd|res:RC4|com-cf:nl|ptrs:na|ktp:N0|mc:98603|mtp:S|qry_typ:P|lang:en|wc:3|cs:7543|v=4,False,Narela,New Delhi,"H-1311, DSIIDC Industrial Area, Narela, New Delhi - 110040, Dist.Delhi, Delhi",8048981827,
Baby milk bottle pacifier,https://www.indiamart.com/proddetail/baby-milk-bottle-pacifier-2854639589273.html?pos=47&kwd=baby bottle accessories&tags=||||8038.093|Price|product|||MDC|rsf:gd-|-qr_nm:gd|res:RC4|com-cf:nl|ptrs:na|ktp:N0|mc:98603|mtp:S|qry_typ:P|lang:en|wc:3|cs:7543|v=4,Creative Automation,https://www.indiamart.com/creativeautomationrajkot/?pos=47&kwd=baby bottle accessories&tags=||||8038.093|Price|product|||MDC|rsf:gd-|-qr_nm:gd|res:RC4|com-cf:nl|ptrs:na|ktp:N0|mc:98603|mtp:S|qry_typ:P|lang:en|wc:3|cs:7543|v=4,False,Rajkot,Rajkot,"Plot No.19, kailash Manu, Sidhdheshwar Griding, Atika ndustrial, Street No.3, Dhebar Road South Near Jaydev Foundry, Rajkot, Rajkot - 360002, Dist.Rajkot, Gujarat",7942570968,
"Baby Milk Bottle Cover, Capacity: 120ml",https://www.indiamart.com/proddetail/baby-milk-bottle-cover-2850398115897.html?pos=48&kwd=baby bottle accessories&tags=||||8778.123|Price|product|||TS|rsf:gd-|-qr_nm:gd|res:RC4|com-cf:nl|ptrs:na|ktp:N0|mc:98603|mtp:S|qry_typ:P|lang:en|wc:3|cs:7543|v=4,Radiant Enterprises,https://www.indiamart.com/radiant-enterprisesgautam-budhnagar/?pos=48&kwd=baby bottle accessories&tags=||||8778.123|Price|product|||TS|rsf:gd-|-qr_nm:gd|res:RC4|com-cf:nl|ptrs:na|ktp:N0|mc:98603|mtp:S|qry_typ:P|lang:en|wc:3|cs:7543|v=4,False,,Noida,"Tower-3,Flat-2601,Lotus 300,Noida,Gautam Buddha Nagar, Noida - 201304, Dist.Gautam Budh Nagar, Uttar Pradesh",7942828511,
Baby Silicone rattle feeder,https://www.indiamart.com/proddetail/baby-silicone-rattle-feeder-2854560953097.html?pos=49&kwd=baby bottle accessories&tags=||||8752.144|Price|product|||MDC|rsf:gd-|-qr_nm:gd|res:RC4|com-cf:nl|ptrs:na|ktp:N0|mc:98603|mtp:S|qry_typ:P|lang:en|wc:3|cs:7543|v=4,HS Enterprises,https://www.indiamart.com/hsenterprisesindia/?pos=49&kwd=baby bottle accessories&tags=||||8752.144|Price|product|||MDC|rsf:gd-|-qr_nm:gd|res:RC4|com-cf:nl|ptrs:na|ktp:N0|mc:98603|mtp:S|qry_typ:P|lang:en|wc:3|cs:7543|v=4,False,,New Delhi,"EE-496, Gali No. 10, North Delhi, New Delhi - 110042, Dist.Delhi, Delhi",7949329375,
"Sipfe Silver 500ml Stainless Steel Feeding Bottle, 5 Months",https://www.indiamart.com/proddetail/500ml-stainless-steel-feeding-bottle-24228687348.html?pos=50&kwd=baby bottle accessories&tags=||||8891.556|Price|product|||TS|rsf:gd-|-qr_nm:gd|res:RC4|com-cf:nl|ptrs:na|ktp:N0|mc:98603|mtp:S|qry_typ:P|lang:en|wc:3|cs:7543|v=4,Sipfe Industries,https://www.indiamart.com/sipfe-industries/?pos=50&kwd=baby bottle accessories&tags=||||8891.556|Price|product|||TS|rsf:gd-|-qr_nm:gd|res:RC4|com-cf:nl|ptrs:na|ktp:N0|mc:98603|mtp:S|qry_typ:P|lang:en|wc:3|cs:7543|v=4,False,Maraimalai Nagar,Kanchipuram,"Sf No.191/2c1, Plot No.41 Sengundram Road, Alamelumangapuram, Chengalpattu, Maraimalai Nagar, Kanchipuram - 603204, Dist.Kanchipuram, Tamil Nadu",7942562152,
Multicolor Baby Bottle Cover,https://www.indiamart.com/proddetail/baby-bottle-cover-20711904155.html?pos=51&kwd=baby bottle accessories&tags=||||8752.144|Price|product|||TS|rsf:gd-|-qr_nm:gd|res:RC4|com-cf:nl|ptrs:na|ktp:N0|mc:98603|mtp:S|qry_typ:P|lang:en|wc:3|cs:7543|v=4,National Overseas,https://www.indiamart.com/nationaltraders-vishwashnagar/?pos=51&kwd=baby bottle accessories&tags=||||8752.144|Price|product|||TS|rsf:gd-|-qr_nm:gd|res:RC4|com-cf:nl|ptrs:na|ktp:N0|mc:98603|mtp:S|qry_typ:P|lang:en|wc:3|cs:7543|v=4,False,Shahdara,New Delhi,"1/99, Gali No. 3, Vishwas Nagar, Shahdara, New Delhi - 110032, Dist.Delhi, Delhi",8046047673,
Baby Bottle Cover,https://www.indiamart.com/proddetail/baby-bottle-cover-2853867068897.html?pos=52&kwd=baby bottle accessories&tags=||||8752.144|Price|product|||MDC|rsf:gd-|-qr_nm:gd|res:RC4|com-cf:nl|ptrs:na|ktp:N0|mc:98603|mtp:S|qry_typ:P|lang:en|wc:3|cs:7543|v=4,Shopindia,https://www.indiamart.com/shopindia-delhi/?pos=52&kwd=baby bottle accessories&tags=||||8752.144|Price|product|||MDC|rsf:gd-|-qr_nm:gd|res:RC4|com-cf:nl|ptrs:na|ktp:N0|mc:98603|mtp:S|qry_typ:P|lang:en|wc:3|cs:7543|v=4,False,Khyala,New Delhi,"F/F, RZ-129 Old No.RZ-57, West Block, Vishnu Garden, Khyala, New Delhi - 110018, Dist.Delhi, Delhi",8047832403,
"GLOBAL Black,Blue & Red Straight Steel Bottle Coloed (750 ml), Sipper",https://www.indiamart.com/proddetail/straight-steel-bottle-coloed-750-ml-25835357673.html?pos=53&kwd=baby bottle accessories&tags=||||8752.144|Price|product|||TS|rsf:gd-|-qr_nm:gd|res:RC4|com-cf:nl|ptrs:na|ktp:N0|mc:98603|mtp:S|qry_typ:P|lang:en|wc:3|cs:7543|v=4,Global Productions,https://www.indiamart.com/global-productions-newdelhi/?pos=53&kwd=baby bottle accessories&tags=||||8752.144|Price|product|||TS|rsf:gd-|-qr_nm:gd|res:RC4|com-cf:nl|ptrs:na|ktp:N0|mc:98603|mtp:S|qry_typ:P|lang:en|wc:3|cs:7543|v=4,False,Motia Khan,New Delhi,"Ground Floor Shop No. 163 Janta Market, Motia Khan, New Delhi - 110055, Dist.Delhi, Delhi",8047302269,
Metal Baby Stainless Steel Feeding Bottle,https://www.indiamart.com/proddetail/baby-stainless-steel-feeding-bottle-2854887501612.html?pos=54&kwd=baby bottle accessories&tags=||||8206.306|Price|product|||MDC|rsf:gd-|-qr_nm:gd|res:RC4|com-cf:nl|ptrs:na|ktp:N0|mc:98603|mtp:S|qry_typ:P|lang:en|wc:3|cs:7543|v=4,Maya Industries,https://www.indiamart.com/maya-industries-maharashtra/?pos=54&kwd=baby bottle accessories&tags=||||8206.306|Price|product|||MDC|rsf:gd-|-qr_nm:gd|res:RC4|com-cf:nl|ptrs:na|ktp:N0|mc:98603|mtp:S|qry_typ:P|lang:en|wc:3|cs:7543|v=4,False,Bhayandar West,Bhayander West,"B-102, Pawan Kunj Apartment, 60 Feet Road, Nakoda Hospital, Mira Bhayandar, Thane, Bhayandar West, Bhayander West - 401101, Maharashtra",7949090316,
"Metal Baby Stainless Steel Milk Bottle, Capacity: 250 mL",https://www.indiamart.com/proddetail/baby-stainless-steel-milk-bottle-24273996833.html?pos=55&kwd=baby bottle accessories&tags=||||8752.144|Price|product|||MDC|rsf:gd-|-qr_nm:gd|res:RC4|com-cf:nl|ptrs:na|ktp:N0|mc:98603|mtp:S|qry_typ:P|lang:en|wc:3|cs:7543|v=4,Drishti E-Commerce,https://www.indiamart.com/drishti-e-commerce/?pos=55&kwd=baby bottle accessories&tags=||||8752.144|Price|product|||MDC|rsf:gd-|-qr_nm:gd|res:RC4|com-cf:nl|ptrs:na|ktp:N0|mc:98603|mtp:S|qry_typ:P|lang:en|wc:3|cs:7543|v=4,False,Jahangirpura,New Delhi,"B-29, Ground Floor, Kh No-238/2, Gali No-5/12, Gurunanak Dev Colony, Bhalswa, North Delhi, Jahangirpura, New Delhi - 110042, Dist.Delhi, Delhi",7949082368,
Baby Garment Accessories,https://www.indiamart.com/proddetail/baby-garment-accessories-2854556110033.html?pos=56&kwd=baby bottle accessories&tags=||||8211.142|Price|product|||TS|rsf:gd-|-qr_nm:gd|res:RC4|com-cf:nl|ptrs:na|ktp:N0|mc:98603|mtp:S|qry_typ:P|lang:en|wc:3|cs:7543|v=4,P For Panda Baby Products Private Limited,https://www.p4pandababyproducts.com/?pos=56&kwd=baby bottle accessories&tags=||||8211.142|Price|product|||TS|rsf:gd-|-qr_nm:gd|res:RC4|com-cf:nl|ptrs:na|ktp:N0|mc:98603|mtp:S|qry_typ:P|lang:en|wc:3|cs:7543|v=4,False,Goregaon West,Mumbai,"904 A Wing,9 Th Floor,Triple S Heights,Jakeria Road, Goregaon West, Mumbai - 400064, Dist.Mumbai, Maharashtra",7942710871,
Baby Milk Bottle Cover,https://www.indiamart.com/proddetail/baby-milk-bottle-cover-2850164874730.html?pos=57&kwd=baby bottle accessories&tags=||||8752.144|Price|product|||MDC|rsf:gd-|-qr_nm:gd|res:RC4|com-cf:nl|ptrs:na|ktp:N0|mc:98603|mtp:S|qry_typ:P|lang:en|wc:3|cs:7543|v=4,Kidz Creation,https://www.indiamart.com/kidzcreation/?pos=57&kwd=baby bottle accessories&tags=||||8752.144|Price|product|||MDC|rsf:gd-|-qr_nm:gd|res:RC4|com-cf:nl|ptrs:na|ktp:N0|mc:98603|mtp:S|qry_typ:P|lang:en|wc:3|cs:7543|v=4,False,,New Delhi,"Shop No. 279/517,Sabharwal Market, Tolia Wali Gali Sadar Bazar, North Delhi,, New Delhi - 110006, Dist.Delhi, Delhi",8047679212,
"Silver Stainless Steel Baby Feeding Bottle, Capacity: 300 mL",https://www.indiamart.com/proddetail/stainless-steel-baby-feeding-bottle-2853302145748.html?pos=58&kwd=baby bottle accessories&tags=||||8210.732|Price|product|||TS|rsf:gd-|-qr_nm:gd|res:RC4|com-cf:nl|ptrs:na|ktp:N0|mc:98603|mtp:S|qry_typ:P|lang:en|wc:3|cs:7543|v=4,Arushi Enterprises,https://www.indiamart.com/arushi-enterprisesvasai-virar/?pos=58&kwd=baby bottle accessories&tags=||||8210.732|Price|product|||TS|rsf:gd-|-qr_nm:gd|res:RC4|com-cf:nl|ptrs:na|ktp:N0|mc:98603|mtp:S|qry_typ:P|lang:en|wc:3|cs:7543|v=4,False,Pelhar,Vasai,"Mira Industrial Estate, G.No F/6 S.No.74 H-2471 Nalasopara East, Pelhar, Palghar, Pelhar, Vasai - 401208, Dist.Thane, Maharashtra",7942825056,
Baby Sipper Bottle,https://www.indiamart.com/proddetail/baby-sipper-bottle-2854058546988.html?pos=59&kwd=baby bottle accessories&tags=||||8624.416|Price|product|||MDC|rsf:gd-|-qr_nm:gd|res:RC4|com-cf:nl|ptrs:na|ktp:N0|mc:98603|mtp:S|qry_typ:P|lang:en|wc:3|cs:7543|v=4,Dayawanti Traders,https://www.indiamart.com/dayawati-trader/?pos=59&kwd=baby bottle accessories&tags=||||8624.416|Price|product|||MDC|rsf:gd-|-qr_nm:gd|res:RC4|com-cf:nl|ptrs:na|ktp:N0|mc:98603|mtp:S|qry_typ:P|lang:en|wc:3|cs:7543|v=4,False,Indira Colony,Hisar,"Plot No. 137 Dhani Kishandutt, Near Asha High School, Nancy Beauty Parlour, Indira Colony, Indira Colony, Hisar - 125001, Dist.Hisar, Haryana",7942701403,
Kids Hair Accessories,https://www.indiamart.com/proddetail/kids-hair-accessories-2853458841912.html?pos=60&kwd=baby bottle accessories&tags=||||8752.144|Price|product|||MDC|rsf:gd-|-qr_nm:gd|res:RC4|com-cf:nl|ptrs:na|ktp:N0|mc:98603|mtp:S|qry_typ:P|lang:en|wc:3|cs:7543|v=4,Parul Creations,https://www.indiamart.com/parulcreations/?pos=60&kwd=baby bottle accessories&tags=||||8752.144|Price|product|||MDC|rsf:gd-|-qr_nm:gd|res:RC4|com-cf:nl|ptrs:na|ktp:N0|mc:98603|mtp:S|qry_typ:P|lang:en|wc:3|cs:7543|v=4,False,Vikas Puri,New Delhi,"Shop no. 9, CSC M block, Vikas Puri, Vikas Puri, New Delhi - 110018, Dist.Delhi, Delhi",7942820037,
Children Hair Accessories,https://www.indiamart.com/proddetail/children-hair-accessories-24449374512.html?pos=61&kwd=baby bottle accessories&tags=||||8752.144|Price|product|||TS|rsf:gd-|-qr_nm:gd|res:RC4|com-cf:nl|ptrs:na|ktp:N0|mc:98603|mtp:S|qry_typ:P|lang:en|wc:3|cs:7543|v=4,Shyam Traders,https://www.shyamtradersindia.com/?pos=61&kwd=baby bottle accessories&tags=||||8752.144|Price|product|||TS|rsf:gd-|-qr_nm:gd|res:RC4|com-cf:nl|ptrs:na|ktp:N0|mc:98603|mtp:S|qry_typ:P|lang:en|wc:3|cs:7543|v=4,False,Chandni Chowk,New Delhi,"No 5027/12, First Floor, Ridhi Sidhi Complex, Chandni Chowk, New Delhi - 110006, Dist.Delhi, Delhi",8048263687,
"Stainless Steel Feeding Bottle, Capacity: 300 mL",,A V Enterprises,https://www.indiamart.com/a-venterprises-delhi/?pos=62&kwd=baby bottle accessories&tags=||||8752.144|Price|product|||MDC|rsf:gd-|-qr_nm:gd|res:RC4|com-cf:nl|ptrs:na|ktp:N0|mc:98603|mtp:S|qry_typ:P|lang:en|wc:3|cs:7543|v=4,False,,New Delhi,"1st Floor, A-145/1, Wazirpur, Industrial Area, Wazirpur, New Delhi - 110052, Dist.Delhi, Delhi",8044460094,
"Kids cartoon hair rubber, 12 Piece",https://www.indiamart.com/proddetail/kids-cartoon-hair-rubber-2854182973830.html?pos=63&kwd=baby bottle accessories&tags=||||8752.144||product|||TS|rsf:gd-|-qr_nm:gd|res:RC4|com-cf:nl|ptrs:na|ktp:N0|mc:98603|mtp:S|qry_typ:P|lang:en|wc:3|cs:7543|v=4,Shree Shyam Traders,https://www.indiamart.com/shreeshyamtraders-northwestdelhi/?pos=63&kwd=baby bottle accessories&tags=||||8752.144||product|||TS|rsf:gd-|-qr_nm:gd|res:RC4|com-cf:nl|ptrs:na|ktp:N0|mc:98603|mtp:S|qry_typ:P|lang:en|wc:3|cs:7543|v=4,False,North West Delhi,New Delhi,"Phase-1, T-4/50, Mangolpuri Industrial Area, North West Delhi, New Delhi - 110083, Dist.Delhi, Delhi",8045731833,
White Metal Red Kitchen Chef Stainless steel Baby feeding bottle - 250 ml,https://www.indiamart.com/proddetail/red-kitchen-chef-stainless-steel-baby-feeding-bottle-250-ml-2854179718862.html?pos=64&kwd=baby bottle accessories&tags=||||8663.873|Price|product|||TS|rsf:gd-|-qr_nm:gd|res:RC4|com-cf:nl|ptrs:na|ktp:N0|mc:98603|mtp:S|qry_typ:P|lang:en|wc:3|cs:7543|v=4,Suranas,https://www.suranas.in/?pos=64&kwd=baby bottle accessories&tags=||||8663.873|Price|product|||TS|rsf:gd-|-qr_nm:gd|res:RC4|com-cf:nl|ptrs:na|ktp:N0|mc:98603|mtp:S|qry_typ:P|lang:en|wc:3|cs:7543|v=4,False,Basavanagudi,Bengaluru,"14/38, 1st model house street, Basavanagudi, Bengaluru - 560004, Dist.Bengaluru, Karnataka",8047547443,
"White PLASTIC BABY FEEDING BOTTLE 250 ML, Age Group: Newly Born",https://www.indiamart.com/proddetail/plastic-baby-feeding-bottle-250-ml-2849175138630.html?pos=65&kwd=baby bottle accessories&tags=||||8752.144|Price|product|||TS|rsf:gd-|-qr_nm:gd|res:RC4|com-cf:nl|ptrs:na|ktp:N0|mc:98603|mtp:S|qry_typ:P|lang:en|wc:3|cs:7543|v=4,Anand Garments Pvt Ltd,https://www.indiamart.com/anand-garments-newdelhi/?pos=65&kwd=baby bottle accessories&tags=||||8752.144|Price|product|||TS|rsf:gd-|-qr_nm:gd|res:RC4|com-cf:nl|ptrs:na|ktp:N0|mc:98603|mtp:S|qry_typ:P|lang:en|wc:3|cs:7543|v=4,False,mundka,New Delhi,"Plot No-276, Area Pocket-m Sector-1, Dsiidc Bawana,, mundka, New Delhi - 110039, Dist.Delhi, Delhi",8048262855,
Baby Stainless Steel Feeding Milk Bottle,,A.K.Metal Pressing,https://www.indiamart.com/akmetalpressing/?pos=66&kwd=baby bottle accessories&tags=||||8954.051|Price|product|||MDC|rsf:gd-|-qr_nm:gd|res:RC4|com-cf:nl|ptrs:na|ktp:N0|mc:98603|mtp:S|qry_typ:P|lang:en|wc:3|cs:7543|v=4,False,Sattangadu,Chennai,"No-33/15, Gandhi Nagar Main Road, Thiruvoittyur, Thiruvallur, Sattangadu, Chennai - 600019, Dist.Chennai, Tamil Nadu",8047647689,
"Silver Baby Feeding Bottle 300 ML, Age Group: 1-2 Years",https://www.indiamart.com/proddetail/baby-feeding-bottle-300-ml-2850630404397.html?pos=67&kwd=baby bottle accessories&tags=||||8954.051|Price|product|||TS|rsf:gd-|-qr_nm:gd|res:RC4|com-cf:nl|ptrs:na|ktp:N0|mc:98603|mtp:S|qry_typ:P|lang:en|wc:3|cs:7543|v=4,Anita Steel Centre,https://www.indiamart.com/anita-steel-center/?pos=67&kwd=baby bottle accessories&tags=||||8954.051|Price|product|||TS|rsf:gd-|-qr_nm:gd|res:RC4|com-cf:nl|ptrs:na|ktp:N0|mc:98603|mtp:S|qry_typ:P|lang:en|wc:3|cs:7543|v=4,False,Park Town,Chennai,"39/54, Nyniappa Maistry Street, Park Town, Chennai - 600003, Dist.Chennai, Tamil Nadu",8048985784,
Transparent Silicone Baby Fruit Feeder,https://www.indiamart.com/proddetail/silicone-baby-fruit-feeder-2850184193055.html?pos=68&kwd=baby bottle accessories&tags=||||8752.144|Price|product|||TS|rsf:gd-|-qr_nm:gd|res:RC4|com-cf:nl|ptrs:na|ktp:N0|mc:98603|mtp:S|qry_typ:P|lang:en|wc:3|cs:7543|v=4,Aastha Trading Company,https://www.indiamart.com/aasthatradingcompany-delhi/?pos=68&kwd=baby bottle accessories&tags=||||8752.144|Price|product|||TS|rsf:gd-|-qr_nm:gd|res:RC4|com-cf:nl|ptrs:na|ktp:N0|mc:98603|mtp:S|qry_typ:P|lang:en|wc:3|cs:7543|v=4,False,Mangolpuri,New Delhi,"Ground floor Block M Shop no-534, Mangolpuri, New Delhi - 110083, Dist.Delhi, Delhi",8046030692,
Baby Feeding Bottle Cover,https://www.indiamart.com/proddetail/baby-feeding-bottle-cover-2854279715712.html?pos=69&kwd=baby bottle accessories&tags=||||9189.305|Price|product|||MDC|rsf:gd-|-qr_nm:gd|res:RC4|com-cf:nl|ptrs:na|ktp:N0|mc:98603|mtp:S|qry_typ:P|lang:en|wc:3|cs:7543|v=4,Sudhanjali Enterprises,https://www.indiamart.com/sudhanjalienterprises/?pos=69&kwd=baby bottle accessories&tags=||||9189.305|Price|product|||MDC|rsf:gd-|-qr_nm:gd|res:RC4|com-cf:nl|ptrs:na|ktp:N0|mc:98603|mtp:S|qry_typ:P|lang:en|wc:3|cs:7543|v=4,False,,Prayagraj,"H No-10/7, Basahi, Nataka Babura, Khain, Prayagraj - 212307, Dist.Allahabad, Uttar Pradesh",7942964273,
Plastic Medium Hair Clutcher,https://www.indiamart.com/proddetail/plastic-medium-hair-clutcher-2854249971633.html?pos=70&kwd=baby bottle accessories&tags=||||8752.144|Price|product|||MDC|rsf:gd-|-qr_nm:gd|res:RC4|com-cf:nl|ptrs:na|ktp:N0|mc:98603|mtp:S|qry_typ:P|lang:en|wc:3|cs:7543|v=4,Shri Balaji Textile,https://www.indiamart.com/shribalajitextiledelhi/?pos=70&kwd=baby bottle accessories&tags=||||8752.144|Price|product|||MDC|rsf:gd-|-qr_nm:gd|res:RC4|com-cf:nl|ptrs:na|ktp:N0|mc:98603|mtp:S|qry_typ:P|lang:en|wc:3|cs:7543|v=4,False,,New Delhi,"4166 Main Road, Pahari Dhiraj, North Delhi, New Delhi - 110006, Dist.Delhi, Delhi",8045737742,
Unisex Kids Tights,https://www.indiamart.com/proddetail/unisex-kids-tights-4231430233.html?pos=71&kwd=baby bottle accessories&tags=||||8752.144|Price|product|||TS|rsf:gd-|-qr_nm:gd|res:RC4|com-cf:nl|ptrs:na|ktp:N0|mc:98603|mtp:S|qry_typ:P|lang:en|wc:3|cs:7543|v=4,V. V. Hosiery,https://www.schoolsocksindia.com/?pos=71&kwd=baby bottle accessories&tags=||||8752.144|Price|product|||TS|rsf:gd-|-qr_nm:gd|res:RC4|com-cf:nl|ptrs:na|ktp:N0|mc:98603|mtp:S|qry_typ:P|lang:en|wc:3|cs:7543|v=4,False,Azadpur,New Delhi,"1st Floor BLK-B, House No 41, G.T.Karnal Road Indl Area, G.T.Karnal Road Indl Area, Azadpur, New Delhi - 110033, Dist.Delhi, Delhi",8048966287,
"Transparent Plastic Little Bee Premium Baby Glass Feeding Bottle, Capacity: 50 mL",https://www.indiamart.com/proddetail/little-bee-premium-baby-glass-feeding-bottle-2854528306712.html?pos=72&kwd=baby bottle accessories&tags=||||8752.144|Price|product|||MDC|rsf:gd-|-qr_nm:gd|res:RC4|com-cf:nl|ptrs:na|ktp:N0|mc:98603|mtp:S|qry_typ:P|lang:en|wc:3|cs:7543|v=4,Priyanshi International,https://www.indiamart.com/priyanshi-international-uttarpradesh/?pos=72&kwd=baby bottle accessories&tags=||||8752.144|Price|product|||MDC|rsf:gd-|-qr_nm:gd|res:RC4|com-cf:nl|ptrs:na|ktp:N0|mc:98603|mtp:S|qry_typ:P|lang:en|wc:3|cs:7543|v=4,False,,New Delhi,"3,PROP NO S228,SCHOOL BLOCK,SHAKARPUR UGF, 3, Prop No S228, School Block, Shakarpur,110092, New Delhi - 110092, Dist.Delhi, Delhi",7942676139,
Stainless Steel Baby Feeding Bottle,https://www.indiamart.com/proddetail/stainless-steel-baby-feeding-bottle-2854078303797.html?pos=73&kwd=baby bottle accessories&tags=||||8752.144|Price|product|||MDC|rsf:gd-|-qr_nm:gd|res:RC4|com-cf:nl|ptrs:na|ktp:N0|mc:98603|mtp:S|qry_typ:P|lang:en|wc:3|cs:7543|v=4,Shubh Shakti Traders,https://www.indiamart.com/shubhshaktitraders/?pos=73&kwd=baby bottle accessories&tags=||||8752.144|Price|product|||MDC|rsf:gd-|-qr_nm:gd|res:RC4|com-cf:nl|ptrs:na|ktp:N0|mc:98603|mtp:S|qry_typ:P|lang:en|wc:3|cs:7543|v=4,False,Wazirpur,New Delhi,"Ground Floor, House No.51, DSIDC Complex. Wazirpur Indl. Area, Landmark Old SBI Building, North West, Wazirpur, New Delhi - 110052, Dist.Delhi, Delhi",7949224945,
"Steel Feeding Bottle For Baby, Capacity: 250 mL",https://www.indiamart.com/proddetail/steel-feeding-bottle-for-baby-2853709987448.html?pos=74&kwd=baby bottle accessories&tags=||||8785.791|Price|product|||MDC|rsf:gd-|-qr_nm:gd|res:RC4|com-cf:nl|ptrs:na|ktp:N0|mc:98603|mtp:S|qry_typ:P|lang:en|wc:3|cs:7543|v=4,Aadya Traders,https://www.indiamart.com/aadyatradersghaziabad/?pos=74&kwd=baby bottle accessories&tags=||||8785.791|Price|product|||MDC|rsf:gd-|-qr_nm:gd|res:RC4|com-cf:nl|ptrs:na|ktp:N0|mc:98603|mtp:S|qry_typ:P|lang:en|wc:3|cs:7543|v=4,False,Nand Gram,Ghaziabad,"C 465, Nand Gram, Nand Gram, Ghaziabad - 201003, Dist.Ghaziabad, Uttar Pradesh",7949086086,
"Silver VALENTINE Baby Bottle KIDDY 140 ML, 1-2 year",https://www.indiamart.com/proddetail/valentine-baby-bottle-kiddy-140-ml-2849388363748.html?pos=75&kwd=baby bottle accessories&tags=||||8752.144|Price|product|||MDC|rsf:gd-|-qr_nm:gd|res:RC4|com-cf:nl|ptrs:na|ktp:N0|mc:98603|mtp:S|qry_typ:P|lang:en|wc:3|cs:7543|v=4,Maharaja Metalik Group,https://www.indiamart.com/maharaja-metalik-group/?pos=75&kwd=baby bottle accessories&tags=||||8752.144|Price|product|||MDC|rsf:gd-|-qr_nm:gd|res:RC4|com-cf:nl|ptrs:na|ktp:N0|mc:98603|mtp:S|qry_typ:P|lang:en|wc:3|cs:7543|v=4,False,Wazirpur Industrial Area,New Delhi,"A- 87/5 Wazirpur Industrial Area, Wazirpur Industrial Area, New Delhi - 110052, Dist.Delhi, Delhi",8047699043,
Baby Silicone Soother,https://www.indiamart.com/proddetail/baby-silicone-soother-15491972597.html?pos=76&kwd=baby bottle accessories&tags=||||8211.142|Price|product|||TS|rsf:gd-|-qr_nm:gd|res:RC4|com-cf:nl|ptrs:na|ktp:N0|mc:98603|mtp:S|qry_typ:P|lang:en|wc:3|cs:7543|v=4,Gujarat Polymers,https://www.indiamart.com/gujaratpolymers-maharashtra/?pos=76&kwd=baby bottle accessories&tags=||||8211.142|Price|product|||TS|rsf:gd-|-qr_nm:gd|res:RC4|com-cf:nl|ptrs:na|ktp:N0|mc:98603|mtp:S|qry_typ:P|lang:en|wc:3|cs:7543|v=4,False,Andheri West,Mumbai,"No. 602, Centre Square, SV Road, Andheri West, Andheri West, Mumbai - 400058, Dist.Mumbai, Maharashtra",8046078043,
"Transparent Plastic Baby Fruit Feeder, Capacity: 50 mL, 3-12 Months",https://www.indiamart.com/proddetail/baby-fruit-feeder-2852991118033.html?pos=77&kwd=baby bottle accessories&tags=||||8752.144|Price|product|||TS|rsf:gd-|-qr_nm:gd|res:RC4|com-cf:nl|ptrs:na|ktp:N0|mc:98603|mtp:S|qry_typ:P|lang:en|wc:3|cs:7543|v=4,B.S. ENTERPRISES,https://www.indiamart.com/yoneedo-delhi/?pos=77&kwd=baby bottle accessories&tags=||||8752.144|Price|product|||TS|rsf:gd-|-qr_nm:gd|res:RC4|com-cf:nl|ptrs:na|ktp:N0|mc:98603|mtp:S|qry_typ:P|lang:en|wc:3|cs:7543|v=4,False,Shalimar Village,New Delhi,"C-61 GALI NO 8 SHALIMAR VILLAGE Shalimar Village, Shalimar Village, New Delhi - 110088, Dist.Delhi, Delhi",8048955523,
"White Baby Feeding Silicone Nipple, 3 Months",https://www.indiamart.com/proddetail/baby-feeding-silicone-nipple-25599636191.html?pos=78&kwd=baby bottle accessories&tags=||||8211.142|Price|product|||TS|rsf:gd-|-qr_nm:gd|res:RC4|com-cf:nl|ptrs:na|ktp:N0|mc:98603|mtp:S|qry_typ:P|lang:en|wc:3|cs:7543|v=4,Silicone Products (India),https://www.indiamart.com/silicone-products-india/?pos=78&kwd=baby bottle accessories&tags=||||8211.142|Price|product|||TS|rsf:gd-|-qr_nm:gd|res:RC4|com-cf:nl|ptrs:na|ktp:N0|mc:98603|mtp:S|qry_typ:P|lang:en|wc:3|cs:7543|v=4,False,Borivali,Mumbai,"102, Aadinath Park Chs, 51 St Road, Shimpoli, Borivali West, Mumbai Suburban, Borivali, Mumbai - 400092, Dist.Mumbai, Maharashtra",8047652110,
"Metal Stainless Steel Feeding Bottle, Capacity: 300 mL, 3-12 Months",https://www.indiamart.com/proddetail/stainless-steel-feeding-bottle-2852451353848.html?pos=79&kwd=baby bottle accessories&tags=||||8211.142|Price|product|||TS|rsf:gd-|-qr_nm:gd|res:RC4|com-cf:nl|ptrs:na|ktp:N0|mc:98603|mtp:S|qry_typ:P|lang:en|wc:3|cs:7543|v=4,Prabhu Industries,https://www.indiamart.com/prabhu-industries-mumbai/?pos=79&kwd=baby bottle accessories&tags=||||8211.142|Price|product|||TS|rsf:gd-|-qr_nm:gd|res:RC4|com-cf:nl|ptrs:na|ktp:N0|mc:98603|mtp:S|qry_typ:P|lang:en|wc:3|cs:7543|v=4,False,Andheri East,Mumbai,"B2-701, 7th Floor, Preeti Apartment, J.B.Nagar, Kanti Nagar, Andheri East, Andheri East, Mumbai - 400059, Dist.Mumbai, Maharashtra",8047304103,
Bos Medicare Baby Nipple,https://www.indiamart.com/proddetail/bos-medicare-baby-nipple-25013868873.html?pos=80&kwd=baby bottle accessories&tags=||||8752.144|Price|product|||TS|rsf:gd-|-qr_nm:gd|res:RC4|com-cf:nl|ptrs:na|ktp:N0|mc:98603|mtp:S|qry_typ:P|lang:en|wc:3|cs:7543|v=4,Bos Medicare Surgical,https://www.bosmedicare.com/?pos=80&kwd=baby bottle accessories&tags=||||8752.144|Price|product|||TS|rsf:gd-|-qr_nm:gd|res:RC4|com-cf:nl|ptrs:na|ktp:N0|mc:98603|mtp:S|qry_typ:P|lang:en|wc:3|cs:7543|v=4,False,Kishan Ganj,New Delhi,"Shop No 155, Kishan Ganj Market, Old Rohtak Road, Kishan Ganj, Kishan Ganj, New Delhi - 110007, Dist.Delhi, Delhi",7942826425,
Baby Soother .,https://www.indiamart.com/proddetail/baby-soother-2853570013930.html?pos=81&kwd=baby bottle accessories&tags=||||8228.275|Price|product|||TS|rsf:gd-|-qr_nm:gd|res:RC4|com-cf:nl|ptrs:na|ktp:N0|mc:98603|mtp:S|qry_typ:P|lang:en|wc:3|cs:7543|v=4,Smonkare Impex Private Limited,https://www.psychiatricmedicines.com/?pos=81&kwd=baby bottle accessories&tags=||||8228.275|Price|product|||TS|rsf:gd-|-qr_nm:gd|res:RC4|com-cf:nl|ptrs:na|ktp:N0|mc:98603|mtp:S|qry_typ:P|lang:en|wc:3|cs:7543|v=4,False,Chanakyapuri,Ahmedabad,"1st Floor,1,2, Malhar Complex, Near Sola Railway Overbridge Science City Road, Chanakyapuri, Ahmedabad - 380060, Dist.Ahmedabad, Gujarat",8048985231,
Baby Nibbler Fruit Feeder,https://www.indiamart.com/proddetail/baby-nibbler-fruit-feeder-2850353032433.html?pos=82&kwd=baby bottle accessories&tags=||||8752.144|Price|product|||TS|rsf:gd-|-qr_nm:gd|res:RC4|com-cf:nl|ptrs:na|ktp:N0|mc:98603|mtp:S|qry_typ:P|lang:en|wc:3|cs:7543|v=4,Inquantity,https://www.indiamart.com/inquantity/?pos=82&kwd=baby bottle accessories&tags=||||8752.144|Price|product|||TS|rsf:gd-|-qr_nm:gd|res:RC4|com-cf:nl|ptrs:na|ktp:N0|mc:98603|mtp:S|qry_typ:P|lang:en|wc:3|cs:7543|v=4,False,Shahdara,New Delhi,"1/6258, East Rohtash Nagar, Shahdara, Shahdara, New Delhi - 110032, Dist.Delhi, Delhi",8047620719,
"White 125ml Plastic Baby Feeding Bottle, Age Group: 3-12 Months",https://www.indiamart.com/proddetail/125ml-plastic-baby-feeding-bottle-23528593548.html?pos=83&kwd=baby bottle accessories&tags=||||8228.275|Price|product|||TS|rsf:gd-|-qr_nm:gd|res:RC4|com-cf:nl|ptrs:na|ktp:N0|mc:98603|mtp:S|qry_typ:P|lang:en|wc:3|cs:7543|v=4,Madhu Products,https://www.indiamart.com/madhu-products-ahmedabad/?pos=83&kwd=baby bottle accessories&tags=||||8228.275|Price|product|||TS|rsf:gd-|-qr_nm:gd|res:RC4|com-cf:nl|ptrs:na|ktp:N0|mc:98603|mtp:S|qry_typ:P|lang:en|wc:3|cs:7543|v=4,False,Saraspur,Ahmedabad,"825, Kadiawad, Saraspur, Saraspur, Ahmedabad - 380018, Dist.Ahmedabad, Gujarat",8046075412,
Twinkle Baby Feeding Bottle 125ml,https://www.indiamart.com/proddetail/twinkle-baby-feeding-bottle-125ml-12768951573.html?pos=84&kwd=baby bottle accessories&tags=||||8223.226|Price|product|||MDC|rsf:gd-|-qr_nm:gd|res:RC4|com-cf:nl|ptrs:na|ktp:N0|mc:98603|mtp:S|qry_typ:P|lang:en|wc:3|cs:7543|v=4,Wecare Solutions,https://www.indiamart.com/wecare-solutions/?pos=84&kwd=baby bottle accessories&tags=||||8223.226|Price|product|||MDC|rsf:gd-|-qr_nm:gd|res:RC4|com-cf:nl|ptrs:na|ktp:N0|mc:98603|mtp:S|qry_typ:P|lang:en|wc:3|cs:7543|v=4,False,Valiv,Thane,"Gala No. F-19-20, 1st Floor, Rajprabha Anand Industrial Estate Naikpada, Waliv, Valiv, Thane - 401208, Dist.Thane, Maharashtra",8047631791,
"White Bpa Free Baby Bottle, Capacity: 120and250ml 2size",https://www.indiamart.com/proddetail/bpa-free-baby-bottle-16222771733.html?pos=85&kwd=baby bottle accessories&tags=||||8545.6045|Price|product|||MDC|rsf:gd-|-qr_nm:gd|res:RC4|com-cf:nl|ptrs:na|ktp:N0|mc:98603|mtp:S|qry_typ:P|lang:en|wc:3|cs:7543|v=4,Shraddha Saburi,https://www.indiamart.com/shraddhasaburi/?pos=85&kwd=baby bottle accessories&tags=||||8545.6045|Price|product|||MDC|rsf:gd-|-qr_nm:gd|res:RC4|com-cf:nl|ptrs:na|ktp:N0|mc:98603|mtp:S|qry_typ:P|lang:en|wc:3|cs:7543|v=4,False,Cantonment Area,Firozpur,"263, Suji Bazar, M/s Shraddha Saburi, Ferozepur Cantt, Cantonment Area, Firozpur - 152001, Dist.Firozpur, Punjab",8048979628,
"Chinmay kids Baby Feeding bottle, 3-12 Months",https://www.indiamart.com/proddetail/baby-feeding-bottle-23414935112.html?pos=86&kwd=baby bottle accessories&tags=||||8752.144|Price|product|||TS|rsf:gd-|-qr_nm:gd|res:RC4|com-cf:nl|ptrs:na|ktp:N0|mc:98603|mtp:S|qry_typ:P|lang:en|wc:3|cs:7543|v=4,Chinmay Kids,https://www.indiamart.com/chinmaykids/?pos=86&kwd=baby bottle accessories&tags=||||8752.144|Price|product|||TS|rsf:gd-|-qr_nm:gd|res:RC4|com-cf:nl|ptrs:na|ktp:N0|mc:98603|mtp:S|qry_typ:P|lang:en|wc:3|cs:7543|v=4,False,Nayagaon,New Delhi,"C-99, Street No. 4, First Pusta, Nayagaon, New Delhi - 110053, Dist.Delhi, Delhi",8046054858,
Transparent Plastic Baby Bottle,https://www.indiamart.com/proddetail/plastic-baby-bottle-21630723891.html?pos=87&kwd=baby bottle accessories&tags=||||8954.051|Price|product|||TS|rsf:gd-|-qr_nm:gd|res:RC4|com-cf:nl|ptrs:na|ktp:N0|mc:98603|mtp:S|qry_typ:P|lang:en|wc:3|cs:7543|v=4,Auro Mira Medi Aids,https://www.indiamart.com/auromiramediaids/?pos=87&kwd=baby bottle accessories&tags=||||8954.051|Price|product|||TS|rsf:gd-|-qr_nm:gd|res:RC4|com-cf:nl|ptrs:na|ktp:N0|mc:98603|mtp:S|qry_typ:P|lang:en|wc:3|cs:7543|v=4,False,Adyar,Chennai,"New No. 36, Old No. 32, Shriram Nagar Main Road, Adyar, Chennai - 600113, Dist.Chennai, Tamil Nadu",8048988682,
"White Silicone Baby Feeding Bottle, Age Group: 3-12 Months",https://www.indiamart.com/proddetail/silicone-baby-feeding-bottle-2854220077733.html?pos=88&kwd=baby bottle accessories&tags=||||8230.883|Price|product|||TS|rsf:gd-|-qr_nm:gd|res:RC4|com-cf:nl|ptrs:na|ktp:N0|mc:98603|mtp:S|qry_typ:P|lang:en|wc:3|cs:7543|v=4,BABYHOLIC,https://www.babyholic.in/?pos=88&kwd=baby bottle accessories&tags=||||8230.883|Price|product|||TS|rsf:gd-|-qr_nm:gd|res:RC4|com-cf:nl|ptrs:na|ktp:N0|mc:98603|mtp:S|qry_typ:P|lang:en|wc:3|cs:7543|v=4,False,,Surat,"Ground Floor, Plot No. F/56/, And F/57, Laxmi Narayan Industrial Estate, Udhana, Kailash Fashion, Surat - 394210, Dist.Surat, Gujarat",8045732096,
Baby Feeding Bottle Cover,https://www.indiamart.com/proddetail/baby-feeding-bottle-cover-2854279715712.html?pos=89&kwd=baby bottle accessories&tags=||||9189.305|Price|product|||MDC|rsf:gd-|-qr_nm:gd|res:RC4|com-cf:nl|ptrs:na|ktp:N0|mc:98603|mtp:S|qry_typ:P|lang:en|wc:3|cs:7543|v=4,Sudhanjali Enterprises,https://www.indiamart.com/sudhanjalienterprises/?pos=89&kwd=baby bottle accessories&tags=||||9189.305|Price|product|||MDC|rsf:gd-|-qr_nm:gd|res:RC4|com-cf:nl|ptrs:na|ktp:N0|mc:98603|mtp:S|qry_typ:P|lang:en|wc:3|cs:7543|v=4,False,,Prayagraj,"H No-10/7, Basahi, Nataka Babura, Khain, Prayagraj - 212307, Dist.Allahabad, Uttar Pradesh",7942964273,
Plastic Baby Chimti For Hair With Doll Figure 3 Pcs Set,https://www.indiamart.com/proddetail/baby-chimti-with-doll-figure-3-pcs-set-24116626073.html?pos=90&kwd=baby bottle accessories&tags=||||8752.144|Price|product|||TS|rsf:gd-|-qr_nm:gd|res:RC4|com-cf:nl|ptrs:na|ktp:N0|mc:98603|mtp:S|qry_typ:P|lang:en|wc:3|cs:7543|v=4,Gaurja Trading Company,https://www.indiamart.com/gaurjatradingcompany/?pos=90&kwd=baby bottle accessories&tags=||||8752.144|Price|product|||TS|rsf:gd-|-qr_nm:gd|res:RC4|com-cf:nl|ptrs:na|ktp:N0|mc:98603|mtp:S|qry_typ:P|lang:en|wc:3|cs:7543|v=4,False,Baratooti,New Delhi,"5129-31 FF Vishal Market, Rui Mandi Sadar Bazar, New Delhi, Baratooti, New Delhi - 110006, Dist.Delhi, Delhi",8046051689,
Material: Stainless Steel Baby Feeder / Paladi / Bondla,https://www.indiamart.com/proddetail/baby-feeder-paladi-bondla-2853350678930.html?pos=91&kwd=baby bottle accessories&tags=||||8223.226|Price|product|||TS|rsf:gd-|-qr_nm:gd|res:RC4|com-cf:nl|ptrs:na|ktp:N0|mc:98603|mtp:S|qry_typ:P|lang:en|wc:3|cs:7543|v=4,Manek Metals,https://www.manekmetals.com/?pos=91&kwd=baby bottle accessories&tags=||||8223.226|Price|product|||TS|rsf:gd-|-qr_nm:gd|res:RC4|com-cf:nl|ptrs:na|ktp:N0|mc:98603|mtp:S|qry_typ:P|lang:en|wc:3|cs:7543|v=4,False,Jacob Circle,Thane,"Collage Road, Vakdun Goan, Taluka Dhanu, Jacob Circle, Thane - 401602, Dist.Thane, Maharashtra",7942534574,
"SILVER Metal Steel Baby Feeder Bottle 250 ML, 1-2 Years",https://www.indiamart.com/proddetail/steel-baby-feeder-bottle-250-ml-2852994463033.html?pos=92&kwd=baby bottle accessories&tags=||||8752.144|Price|product|||TS|rsf:gd-|-qr_nm:gd|res:RC4|com-cf:nl|ptrs:na|ktp:N0|mc:98603|mtp:S|qry_typ:P|lang:en|wc:3|cs:7543|v=4,Kedy Mart Private Limited,https://www.kedymart.net/?pos=92&kwd=baby bottle accessories&tags=||||8752.144|Price|product|||TS|rsf:gd-|-qr_nm:gd|res:RC4|com-cf:nl|ptrs:na|ktp:N0|mc:98603|mtp:S|qry_typ:P|lang:en|wc:3|cs:7543|v=4,False,Rithala,New Delhi,"khasra No 1008/9, Rohini, New Delhi Landmark Na New Delhi Rithala, Rithala, New Delhi - 110085, Dist.Delhi, Delhi",8048273345,
"Multicolor Baby Silicone Food Feeder Spoon (90ML) (BB-4), For Home, Spoon Shape: Round",https://www.indiamart.com/proddetail/baby-silicone-food-feeder-spoon-90ml-bb-4-2850305543791.html?pos=93&kwd=baby bottle accessories&tags=||||8752.144|Price|product|||TS|rsf:gd-|-qr_nm:gd|res:RC4|com-cf:nl|ptrs:na|ktp:N0|mc:98603|mtp:S|qry_typ:P|lang:en|wc:3|cs:7543|v=4,Gtglobal Trade India Private Limited,https://www.gtcglobal.in/?pos=93&kwd=baby bottle accessories&tags=||||8752.144|Price|product|||TS|rsf:gd-|-qr_nm:gd|res:RC4|com-cf:nl|ptrs:na|ktp:N0|mc:98603|mtp:S|qry_typ:P|lang:en|wc:3|cs:7543|v=4,False,Swaroop Nagar,New Delhi,"Plot No 144/145 , Kh. No.16/10, Gali No-7 Swaroop Nagar Extension, Swaroop Nagar, New Delhi - 110042, Dist.Delhi, Delhi",8048960531,
300 Ml Baby Milk Glass Bottle,https://www.indiamart.com/proddetail/300-ml-baby-milk-glass-bottle-23552281188.html?pos=94&kwd=baby bottle accessories&tags=||||8861.147|Price|product|||TS|rsf:gd-|-qr_nm:gd|res:RC4|com-cf:nl|ptrs:na|ktp:N0|mc:98603|mtp:S|qry_typ:P|lang:en|wc:3|cs:7543|v=4,Eagle Glass Deco Private Limited,https://www.indiamart.com/eagleglassdeco/?pos=94&kwd=baby bottle accessories&tags=||||8861.147|Price|product|||TS|rsf:gd-|-qr_nm:gd|res:RC4|com-cf:nl|ptrs:na|ktp:N0|mc:98603|mtp:S|qry_typ:P|lang:en|wc:3|cs:7543|v=4,True,Sukhmalpur Nizamabad,Firozabad,"C-19, 20, Industrial Estate Bhau Ka Nagla, Sukhmalpur Nizamabad, Firozabad - 283203, Dist.Firozabad, Uttar Pradesh",8047631366,
Stainless Steel Baby Feeding Bottle,https://www.indiamart.com/proddetail/stainless-steel-baby-feeding-bottle-2854718516173.html?pos=95&kwd=baby bottle accessories&tags=||||8786.56||product|||TS|rsf:gd-|-qr_nm:gd|res:RC4|com-cf:nl|ptrs:na|ktp:N0|mc:98603|mtp:S|qry_typ:P|lang:en|wc:3|cs:7543|v=4,Vishalandhra Industries,https://www.indiamart.com/vishalandhra-industries-hyderabad/?pos=95&kwd=baby bottle accessories&tags=||||8786.56||product|||TS|rsf:gd-|-qr_nm:gd|res:RC4|com-cf:nl|ptrs:na|ktp:N0|mc:98603|mtp:S|qry_typ:P|lang:en|wc:3|cs:7543|v=4,False,Kavadiguda,Hyderabad,"1-7-148/4/2/A Bakaram, Musheerabad Main Road Opp. Metro Pillar No. 1079 Musheerabad, Kavadiguda, Hyderabad - 500020, Dist.Hyderabad, Telangana",7942817189,
"Kids Steel Feeding Bottle With Hot Case Cover, Capacity: 0.5 Ltr",https://www.indiamart.com/proddetail/kids-steel-feeding-bottle-with-hot-case-cover-27007656812.html?pos=96&kwd=baby bottle accessories&tags=||||8785.791|Price|product|||TS|rsf:gd-|-qr_nm:gd|res:RC4|com-cf:nl|ptrs:na|ktp:N0|mc:98603|mtp:S|qry_typ:P|lang:en|wc:3|cs:7543|v=4,Tatva By Gopika,https://www.urika.in/?pos=96&kwd=baby bottle accessories&tags=||||8785.791|Price|product|||TS|rsf:gd-|-qr_nm:gd|res:RC4|com-cf:nl|ptrs:na|ktp:N0|mc:98603|mtp:S|qry_typ:P|lang:en|wc:3|cs:7543|v=4,False,Indirapuram,Ghaziabad,"SD-035, LGF, Jaipuria Sunrise Greens, Plot No-12A, Ahinsha Khand, Indirapuram,, Indirapuram, Ghaziabad - 201014, Dist.Ghaziabad, Uttar Pradesh",8047673566,
"Transparent Borosilicate Glass Baby Feeding Bottle, Capacity: 100 mL",https://www.indiamart.com/proddetail/borosilicate-glass-baby-feeding-bottle-2854399303591.html?pos=97&kwd=baby bottle accessories&tags=||||8741.987|Price|product|||TS|rsf:gd-|-qr_nm:gd|res:RC4|com-cf:nl|ptrs:na|ktp:N0|mc:98603|mtp:S|qry_typ:P|lang:en|wc:3|cs:7543|v=4,Myson Exports Assistance,https://www.indiamart.com/myson-exports-assistance/?pos=97&kwd=baby bottle accessories&tags=||||8741.987|Price|product|||TS|rsf:gd-|-qr_nm:gd|res:RC4|com-cf:nl|ptrs:na|ktp:N0|mc:98603|mtp:S|qry_typ:P|lang:en|wc:3|cs:7543|v=4,False,Sadar Bazar,Ambala,"Shop No 4, Ist Floor, 5507-11/5555 Anaj Mandi, Nicholson Road, Ambala Cantt, Sadar Bazar, Ambala - 133001, Dist.Ambala, Haryana",8046073164,
mix Baby Feeding Bottle Cover,https://www.indiamart.com/proddetail/baby-feeding-bottle-cover-3807488573.html?pos=98&kwd=baby bottle accessories&tags=||||8752.144|Price|product|||TS|rsf:gd-|-qr_nm:gd|res:RC4|com-cf:nl|ptrs:na|ktp:N0|mc:98603|mtp:S|qry_typ:P|lang:en|wc:3|cs:7543|v=4,Man Singh & Sons Private Limited,https://www.babyproductsmanufacturer.com/?pos=98&kwd=baby bottle accessories&tags=||||8752.144|Price|product|||TS|rsf:gd-|-qr_nm:gd|res:RC4|com-cf:nl|ptrs:na|ktp:N0|mc:98603|mtp:S|qry_typ:P|lang:en|wc:3|cs:7543|v=4,False,Karol Bagh,New Delhi,"No. 13/24, 1st Floor, W. E. A., Karol Bagh, Karol Bagh, New Delhi - 110005, Dist.Delhi, Delhi",8048978579,
"SS Baby Feeding Bottle, Capacity: 150 mL",https://www.indiamart.com/proddetail/ss-baby-feeding-bottle-1247331755.html?pos=99&kwd=baby bottle accessories&tags=||||8752.144|Price|product|||MDC|rsf:gd-|-qr_nm:gd|res:RC4|com-cf:nl|ptrs:na|ktp:N0|mc:98603|mtp:S|qry_typ:P|lang:en|wc:3|cs:7543|v=4,Neelkanth Metal Trading Co.,https://www.indiamart.com/neelkanthmetal-tradingco/?pos=99&kwd=baby bottle accessories&tags=||||8752.144|Price|product|||MDC|rsf:gd-|-qr_nm:gd|res:RC4|com-cf:nl|ptrs:na|ktp:N0|mc:98603|mtp:S|qry_typ:P|lang:en|wc:3|cs:7543|v=4,False,North West Delhi,New Delhi,"Ground Floor, House No X 1/9, Kh.No 83/15, Block -V-1, Budh Vihar Phase 1, North West Delhi, New Delhi - 110086, Dist.Delhi, Delhi",8047795143,
Capacity: 500 mL Blue Plastic Baby Sipper Bottle,https://www.indiamart.com/proddetail/plastic-baby-sipper-bottle-2852951365673.html?pos=100&kwd=baby bottle accessories&tags=||||8038.093|Price|product|||MDC|rsf:gd-|-qr_nm:gd|res:RC4|com-cf:nl|ptrs:na|ktp:N0|mc:98603|mtp:S|qry_typ:P|lang:en|wc:3|cs:7543|v=4,Alloy Exim,https://www.indiamart.com/maruti-enterpriserajkot-gujarat/?pos=100&kwd=baby bottle accessories&tags=||||8038.093|Price|product|||MDC|rsf:gd-|-qr_nm:gd|res:RC4|com-cf:nl|ptrs:na|ktp:N0|mc:98603|mtp:S|qry_typ:P|lang:en|wc:3|cs:7543|v=4,False,Rohidaspra,Rajkot,"Near Morbi Jakat Naku , Plot No.22/B ,Maruti, Jamana Park Street No. 3, Momai Auto Garage, Shree Ram Society, Rohidaspra, Rajkot - 360003, Dist.Rajkot, Gujarat",7942968638,
Mat TV clutcher Size 8-9cm,,R G Fashion,https://www.indiamart.com/rg-fashion-newdelhi/?pos=101&kwd=baby bottle accessories&tags=||||8752.144|Price|product|||MDC|rsf:gd-|-qr_nm:gd|res:RC4|com-cf:nl|ptrs:na|ktp:N0|mc:98603|mtp:S|qry_typ:P|lang:en|wc:3|cs:7543|v=4,False,,New Delhi,"Ground Floor 32 ,Swadeshi Market Sadar Bazar, North Delhi, New Delhi - 110006, Dist.Delhi, Delhi",7949339709,
"Baby Girl Mini Elastic Soft Rubber Clip Hair Bands Box, 30 Piece",https://www.indiamart.com/proddetail/children-hair-accessories-set-2854333602897.html?pos=102&kwd=baby bottle accessories&tags=||||8601.347|Price|product|||MDC|rsf:gd-|-qr_nm:gd|res:RC4|com-cf:nl|ptrs:na|ktp:N0|mc:98603|mtp:S|qry_typ:P|lang:en|wc:3|cs:7543|v=4,FHF Designs Private Limited,https://www.indiamart.com/fhf-designs/?pos=102&kwd=baby bottle accessories&tags=||||8601.347|Price|product|||MDC|rsf:gd-|-qr_nm:gd|res:RC4|com-cf:nl|ptrs:na|ktp:N0|mc:98603|mtp:S|qry_typ:P|lang:en|wc:3|cs:7543|v=4,False,,Jaipur,"Kha 129, Bhawani Nagar, Murlipura, Jaipur - 302039, Dist.Jaipur, Rajasthan",7942547462,
"Metal Stainless Steel Baby Feeding Bottle, Capacity: 250 mL",https://www.indiamart.com/proddetail/stainless-steel-baby-feeding-bottle-2853468908712.html?pos=103&kwd=baby bottle accessories&tags=||||8752.144||product|||MDC|rsf:gd-|-qr_nm:gd|res:RC4|com-cf:nl|ptrs:na|ktp:N0|mc:98603|mtp:S|qry_typ:P|lang:en|wc:3|cs:7543|v=4,Prince And Princess,https://www.indiamart.com/prince-princess-delhi/?pos=103&kwd=baby bottle accessories&tags=||||8752.144||product|||MDC|rsf:gd-|-qr_nm:gd|res:RC4|com-cf:nl|ptrs:na|ktp:N0|mc:98603|mtp:S|qry_typ:P|lang:en|wc:3|cs:7543|v=4,False,Gulabi Bagh,New Delhi,"Ground Floor, Garage No - 74, Gulabi Bagh Road,, Gulabi Bagh, New Delhi - 110007, Dist.Delhi, Delhi",8047629125,
"Stainless Steel Baby Feeding Bottle, Capacity: 200 mL",https://www.indiamart.com/proddetail/stainless-steel-baby-feeding-bottle-2854703140191.html?pos=104&kwd=baby bottle accessories&tags=||||8211.142||product|||MDC|rsf:gd-|-qr_nm:gd|res:RC4|com-cf:nl|ptrs:na|ktp:N0|mc:98603|mtp:S|qry_typ:P|lang:en|wc:3|cs:7543|v=4,Brinox International,https://www.indiamart.com/brinox-international/?pos=104&kwd=baby bottle accessories&tags=||||8211.142||product|||MDC|rsf:gd-|-qr_nm:gd|res:RC4|com-cf:nl|ptrs:na|ktp:N0|mc:98603|mtp:S|qry_typ:P|lang:en|wc:3|cs:7543|v=4,False,,Mumbai,"501/502,5th Floor,Padmavati Niwas,Sadashiv Cross Lane, Nr. Sanskar Bal Mandir,Girgaon, Mumbai - 400004, Dist.Mumbai, Maharashtra",7949324583,
"White Metal Stainless Steel Baby Feeding Bottle, Capacity: 200 mL",https://www.indiamart.com/proddetail/stainless-steel-baby-feeding-bottle-2853858030548.html?pos=105&kwd=baby bottle accessories&tags=||||8210.732||product|||MDC|rsf:gd-|-qr_nm:gd|res:RC4|com-cf:nl|ptrs:na|ktp:N0|mc:98603|mtp:S|qry_typ:P|lang:en|wc:3|cs:7543|v=4,Navkar 9 Plastics & Steels,https://www.indiamart.com/navkar9-plastics-steels/?pos=105&kwd=baby bottle accessories&tags=||||8210.732||product|||MDC|rsf:gd-|-qr_nm:gd|res:RC4|com-cf:nl|ptrs:na|ktp:N0|mc:98603|mtp:S|qry_typ:P|lang:en|wc:3|cs:7543|v=4,False,Vasai East,Vasai Virar,"Ground Floor Gala No. 04 Raees Nagar, Khairpada, Bilalpada, Vasai East, Vasai Virar - 401208, Dist.Thane, Maharashtra",7949086716,
"Kidovilla Sky Blue 125ml Baby Glass Sipper Feeding Bottle, 3-12 Months",https://www.indiamart.com/proddetail/125ml-baby-glass-sipper-feeding-bottle-25736130397.html?pos=106&kwd=baby bottle accessories&tags=||||8752.144|Price|product|||MDC|rsf:gd-|-qr_nm:gd|res:RC4|com-cf:nl|ptrs:na|ktp:N0|mc:98603|mtp:S|qry_typ:P|lang:en|wc:3|cs:7543|v=4,Little Kingdom Baby Product,https://www.indiamart.com/little-kingdombaby-product/?pos=106&kwd=baby bottle accessories&tags=||||8752.144|Price|product|||MDC|rsf:gd-|-qr_nm:gd|res:RC4|com-cf:nl|ptrs:na|ktp:N0|mc:98603|mtp:S|qry_typ:P|lang:en|wc:3|cs:7543|v=4,False,Bawana,New Delhi,"Plot No. 16, PKT-G, Sector-3, DSIIDC, Bawana, North West Delhi, Bawana, New Delhi - 110039, Dist.Delhi, Delhi",8047648589,
Cartoon Costumes,,Raj Enterprises,https://www.indiamart.com/rajenterprises-chembur-mumbai/?pos=107&kwd=baby bottle accessories&tags=||||8211.142||product|||MDC|rsf:gd-|-qr_nm:gd|res:RC4|com-cf:nl|ptrs:na|ktp:N0|mc:98603|mtp:S|qry_typ:P|lang:en|wc:3|cs:7543|v=4,False,Chembur,Mumbai,"Jay Bharat Stationery, Shop No. C 38, Amar Nagar, Opposite Pepsi Co. W T Patil Marg, Chembur, Chembur, Mumbai - 400071, Dist.Mumbai, Maharashtra",8048964869,
"Transparent Metal Budds buddy Deluxe Stainless Steel Milk Bottle, Capacity: 300 mL, Baby",https://www.indiamart.com/proddetail/budds-buddy-deluxe-stainless-steel-milk-bottle-2854527366933.html?pos=108&kwd=baby bottle accessories&tags=||||8038.093|Price|product|||MDC|rsf:gd-|-qr_nm:gd|res:RC4|com-cf:nl|ptrs:na|ktp:N0|mc:98603|mtp:S|qry_typ:P|lang:en|wc:3|cs:7543|v=4,My Medicine,https://www.indiamart.com/mymedicinerajkot/?pos=108&kwd=baby bottle accessories&tags=||||8038.093|Price|product|||MDC|rsf:gd-|-qr_nm:gd|res:RC4|com-cf:nl|ptrs:na|ktp:N0|mc:98603|mtp:S|qry_typ:P|lang:en|wc:3|cs:7543|v=4,False,,Rajkot,"8, Git Gurjari Scoiety, My Medicine, Air Port Road, Opp. Nilkant Mahadev Temple, Rajkot - 360007, Dist.Rajkot, Gujarat",7949336599,
Kids Hair Accessories,https://www.indiamart.com/proddetail/kids-hair-accessories-2854983226230.html?pos=109&kwd=baby bottle accessories&tags=||||8752.144|Price|product|||MDC|rsf:gd-|-qr_nm:gd|res:RC4|com-cf:nl|ptrs:na|ktp:N0|mc:98603|mtp:S|qry_typ:P|lang:en|wc:3|cs:7543|v=4,SR Enterprises,https://www.indiamart.com/srenterprisesnewdelhiindia/?pos=109&kwd=baby bottle accessories&tags=||||8752.144|Price|product|||MDC|rsf:gd-|-qr_nm:gd|res:RC4|com-cf:nl|ptrs:na|ktp:N0|mc:98603|mtp:S|qry_typ:P|lang:en|wc:3|cs:7543|v=4,False,,New Delhi,"16 Site II, Vikash Puri, West Delhi, New Delhi - 110018, Dist.Delhi, Delhi",8045737932,
Baby Bottle Cover,https://www.indiamart.com/proddetail/baby-bottle-cover-4325215673.html?pos=110&kwd=baby bottle accessories&tags=||||8785.791|Price|product|||TS|rsf:gd-|-qr_nm:gd|res:RC4|com-cf:nl|ptrs:na|ktp:N0|mc:98603|mtp:S|qry_typ:P|lang:en|wc:3|cs:7543|v=4,Ilaki Intercraft (India),https://www.indiamart.com/ilakiintercraft/?pos=110&kwd=baby bottle accessories&tags=||||8785.791|Price|product|||TS|rsf:gd-|-qr_nm:gd|res:RC4|com-cf:nl|ptrs:na|ktp:N0|mc:98603|mtp:S|qry_typ:P|lang:en|wc:3|cs:7543|v=4,False,Tronica City,Ghaziabad,"D-69 Sector D-1 Tronica City, Tronica City, Ghaziabad - 201103, Dist.Ghaziabad, Uttar Pradesh",7942552124,
"Chinmay kids Baby Feeding bottle, 3-12 Months",https://www.indiamart.com/proddetail/baby-feeding-bottle-23414935112.html?pos=111&kwd=baby bottle accessories&tags=||||8752.144|Price|product|||TS|rsf:gd-|-qr_nm:gd|res:RC4|com-cf:nl|ptrs:na|ktp:N0|mc:98603|mtp:S|qry_typ:P|lang:en|wc:3|cs:7543|v=4,Chinmay Kids,https://www.indiamart.com/chinmaykids/?pos=111&kwd=baby bottle accessories&tags=||||8752.144|Price|product|||TS|rsf:gd-|-qr_nm:gd|res:RC4|com-cf:nl|ptrs:na|ktp:N0|mc:98603|mtp:S|qry_typ:P|lang:en|wc:3|cs:7543|v=4,False,Nayagaon,New Delhi,"C-99, Street No. 4, First Pusta, Nayagaon, New Delhi - 110053, Dist.Delhi, Delhi",8046054858,
Baby Bottle Cover,https://www.indiamart.com/proddetail/baby-bottle-cover-2853353408412.html?pos=112&kwd=baby bottle accessories&tags=||||8211.142|Price|product|||TS|rsf:gd-|-qr_nm:gd|res:RC4|com-cf:nl|ptrs:na|ktp:N0|mc:98603|mtp:S|qry_typ:P|lang:en|wc:3|cs:7543|v=4,Parass Trading,https://www.indiamart.com/parasstrading/?pos=112&kwd=baby bottle accessories&tags=||||8211.142|Price|product|||TS|rsf:gd-|-qr_nm:gd|res:RC4|com-cf:nl|ptrs:na|ktp:N0|mc:98603|mtp:S|qry_typ:P|lang:en|wc:3|cs:7543|v=4,False,Chembur,Mumbai,"Room no 3, First Floor, Plot no 39, Next to Shivaji Nagar police station,Kherwadi Plot no 39, Chembur, Mumbai - 400071, Dist.Mumbai, Maharashtra",8047631170,
Multicolor Baby Bottle Cover,https://www.indiamart.com/proddetail/baby-bottle-cover-20711904155.html?pos=113&kwd=baby bottle accessories&tags=||||8752.144|Price|product|||TS|rsf:gd-|-qr_nm:gd|res:RC4|com-cf:nl|ptrs:na|ktp:N0|mc:98603|mtp:S|qry_typ:P|lang:en|wc:3|cs:7543|v=4,National Overseas,https://www.indiamart.com/nationaltraders-vishwashnagar/?pos=113&kwd=baby bottle accessories&tags=||||8752.144|Price|product|||TS|rsf:gd-|-qr_nm:gd|res:RC4|com-cf:nl|ptrs:na|ktp:N0|mc:98603|mtp:S|qry_typ:P|lang:en|wc:3|cs:7543|v=4,False,Shahdara,New Delhi,"1/99, Gali No. 3, Vishwas Nagar, Shahdara, New Delhi - 110032, Dist.Delhi, Delhi",8046047673,
"Transparent Plastic Baby Nibbler Fruit Feeder( BOX PACKING), Capacity: 100 mL, Newly Born",https://www.indiamart.com/proddetail/baby-nibbler-fruit-feeder-box-packing-2849607653655.html?pos=114&kwd=baby bottle accessories&tags=||||8752.144|Price|product|||MDC|rsf:gd-|-qr_nm:gd|res:RC4|com-cf:nl|ptrs:na|ktp:N0|mc:98603|mtp:S|qry_typ:P|lang:en|wc:3|cs:7543|v=4,B-Qube Enterprises,https://www.indiamart.com/bqube-enterprises/?pos=114&kwd=baby bottle accessories&tags=||||8752.144|Price|product|||MDC|rsf:gd-|-qr_nm:gd|res:RC4|com-cf:nl|ptrs:na|ktp:N0|mc:98603|mtp:S|qry_typ:P|lang:en|wc:3|cs:7543|v=4,False,Karol Bagh,New Delhi,"303, Iiird Floor,13/4, W.E.A.,Karol Bagh, Karol Bagh, New Delhi - 110005, Dist.Delhi, Delhi",8047313183,
Baby Pink Cotton Baby Bottle Cover,https://www.indiamart.com/proddetail/baby-pink-cotton-baby-bottle-cover-2852555610748.html?pos=115&kwd=baby bottle accessories&tags=||||8580.032|Price|product|||TS|rsf:gd-|-qr_nm:gd|res:RC4|com-cf:nl|ptrs:na|ktp:N0|mc:98603|mtp:S|qry_typ:P|lang:en|wc:3|cs:7543|v=4,Ritu Infants Care,https://www.indiamart.com/ritu-infants-care/?pos=115&kwd=baby bottle accessories&tags=||||8580.032|Price|product|||TS|rsf:gd-|-qr_nm:gd|res:RC4|com-cf:nl|ptrs:na|ktp:N0|mc:98603|mtp:S|qry_typ:P|lang:en|wc:3|cs:7543|v=4,False,Sunder Nagar,Amritsar,"232, Tilak Nagar, Shivala Colony, Sunder Nagar, Amritsar - 143001, Dist.Amritsar, Punjab",7942712512,
mix Baby Feeding Bottle Cover,https://www.indiamart.com/proddetail/baby-feeding-bottle-cover-3807488573.html?pos=116&kwd=baby bottle accessories&tags=||||8752.144|Price|product|||TS|rsf:gd-|-qr_nm:gd|res:RC4|com-cf:nl|ptrs:na|ktp:N0|mc:98603|mtp:S|qry_typ:P|lang:en|wc:3|cs:7543|v=4,Man Singh & Sons Private Limited,https://www.babyproductsmanufacturer.com/?pos=116&kwd=baby bottle accessories&tags=||||8752.144|Price|product|||TS|rsf:gd-|-qr_nm:gd|res:RC4|com-cf:nl|ptrs:na|ktp:N0|mc:98603|mtp:S|qry_typ:P|lang:en|wc:3|cs:7543|v=4,False,Karol Bagh,New Delhi,"No. 13/24, 1st Floor, W. E. A., Karol Bagh, Karol Bagh, New Delhi - 110005, Dist.Delhi, Delhi",8048978579,
Baby Bottle Cotton Cover,https://www.indiamart.com/proddetail/baby-bottle-cotton-cover-2852538329712.html?pos=117&kwd=baby bottle accessories&tags=||||8823.154|Price|product|||TS|rsf:gd-|-qr_nm:gd|res:RC4|com-cf:nl|ptrs:na|ktp:N0|mc:98603|mtp:S|qry_typ:P|lang:en|wc:3|cs:7543|v=4,Shri Anant International,https://www.indiamart.com/shrianantinternational/?pos=117&kwd=baby bottle accessories&tags=||||8823.154|Price|product|||TS|rsf:gd-|-qr_nm:gd|res:RC4|com-cf:nl|ptrs:na|ktp:N0|mc:98603|mtp:S|qry_typ:P|lang:en|wc:3|cs:7543|v=4,False,DayalBagh,Agra,"No.02,House 2,Alkapuri Phase Ii,Agra, DayalBagh, Agra - 282005, Dist.Agra, Uttar Pradesh",7942721451,
"Silicon Baby Bottle Cover, Size/Dimension: 6 Inch",https://www.indiamart.com/proddetail/silicon-baby-bottle-cover-24337902433.html?pos=118&kwd=baby bottle accessories&tags=||||8752.144|Price|product|||TS|rsf:gd-|-qr_nm:gd|res:RC4|com-cf:nl|ptrs:na|ktp:N0|mc:98603|mtp:S|qry_typ:P|lang:en|wc:3|cs:7543|v=4,Moonstar Enterprisrs,https://www.hamaarishop.com/?pos=118&kwd=baby bottle accessories&tags=||||8752.144|Price|product|||TS|rsf:gd-|-qr_nm:gd|res:RC4|com-cf:nl|ptrs:na|ktp:N0|mc:98603|mtp:S|qry_typ:P|lang:en|wc:3|cs:7543|v=4,False,,New Delhi,"House No 258,Gali No 7 Block B Ph 2 Landmark Prem Nagar,Delhi, New Delhi - 110041, Dist.Delhi, Delhi",7942538796,
Baby Feeding Bottle Cover,https://www.indiamart.com/proddetail/baby-feeding-bottle-cover-2586362788.html?pos=119&kwd=baby bottle accessories&tags=||||8752.144|Price|product|||TS|rsf:gd-|-qr_nm:gd|res:RC4|com-cf:nl|ptrs:na|ktp:N0|mc:98603|mtp:S|qry_typ:P|lang:en|wc:3|cs:7543|v=4,Dolphin Baby Product,https://www.dolphinbabyproducts.com/?pos=119&kwd=baby bottle accessories&tags=||||8752.144|Price|product|||TS|rsf:gd-|-qr_nm:gd|res:RC4|com-cf:nl|ptrs:na|ktp:N0|mc:98603|mtp:S|qry_typ:P|lang:en|wc:3|cs:7543|v=4,False,Inderlok,New Delhi,"No. 488, 1st Floor, Shahzada Bagh, Industrial Area Phase 1, Inderlok, New Delhi - 110035, Dist.Delhi, Delhi",8048965296,
Velvet Baby Bottle Cover,https://www.indiamart.com/proddetail/velvet-baby-bottle-cover-2852393836597.html?pos=120&kwd=baby bottle accessories&tags=||||8752.144|Price|product|||TS|rsf:gd-|-qr_nm:gd|res:RC4|com-cf:nl|ptrs:na|ktp:N0|mc:98603|mtp:S|qry_typ:P|lang:en|wc:3|cs:7543|v=4,Ekta Overseas,https://www.indiamart.com/ektaoverseas-newdelhi/?pos=120&kwd=baby bottle accessories&tags=||||8752.144|Price|product|||TS|rsf:gd-|-qr_nm:gd|res:RC4|com-cf:nl|ptrs:na|ktp:N0|mc:98603|mtp:S|qry_typ:P|lang:en|wc:3|cs:7543|v=4,False,Shahdara,New Delhi,"1/95, Gali No.3, Near Navjeevan Phisical Center, Vishwas Nagar, Shahdara,, Shahdara, New Delhi - 110032, Dist.Delhi, Delhi",7942628926,
"Mom & Son Velvet Baby Bottle Cover, 1-2 Years",https://www.indiamart.com/proddetail/velvet-baby-bottle-cover-21888876748.html?pos=121&kwd=baby bottle accessories&tags=||||8752.144|Price|product|||TS|rsf:gd-|-qr_nm:gd|res:RC4|com-cf:nl|ptrs:na|ktp:N0|mc:98603|mtp:S|qry_typ:P|lang:en|wc:3|cs:7543|v=4,Mom & Son,https://www.theindianchoice.com/?pos=121&kwd=baby bottle accessories&tags=||||8752.144|Price|product|||TS|rsf:gd-|-qr_nm:gd|res:RC4|com-cf:nl|ptrs:na|ktp:N0|mc:98603|mtp:S|qry_typ:P|lang:en|wc:3|cs:7543|v=4,False,Karawal Nagar,New Delhi,"B-57 Gali Number-1 Mukund Vihar, Near Pnb Bank, Karawal Nagar, New Delhi - 110094, Dist.Delhi, Delhi",7942565509,
Chhote Janab Baby Elephant Face Feeding Bottle Cover,https://www.indiamart.com/proddetail/baby-elephant-face-feeding-bottle-cover-19619931973.html?pos=122&kwd=baby bottle accessories&tags=||||8752.144|Price|product|||TS|rsf:gd-|-qr_nm:gd|res:RC4|com-cf:nl|ptrs:na|ktp:N0|mc:98603|mtp:S|qry_typ:P|lang:en|wc:3|cs:7543|v=4,Shree Balaji Infant Wear,https://www.indiamart.com/chhotejanab/?pos=122&kwd=baby bottle accessories&tags=||||8752.144|Price|product|||TS|rsf:gd-|-qr_nm:gd|res:RC4|com-cf:nl|ptrs:na|ktp:N0|mc:98603|mtp:S|qry_typ:P|lang:en|wc:3|cs:7543|v=4,False,Pahari Dhiraj,New Delhi,"1583- 84, Hathi Khana, Aziz Ganj, Bahadur Garh Road, Pahari Dhiraj, New Delhi - 110006, Dist.Delhi, Delhi",8047639754,
"Cotton Printed Baby Bottle Cover Set, 3-12 Months",https://www.indiamart.com/proddetail/cotton-printed-baby-bottle-cover-set-22827236997.html?pos=123&kwd=baby bottle accessories&tags=||||8211.142|Price|product|||TS|rsf:gd-|-qr_nm:gd|res:RC4|com-cf:nl|ptrs:na|ktp:N0|mc:98603|mtp:S|qry_typ:P|lang:en|wc:3|cs:7543|v=4,Child King Creation,https://www.indiamart.com/childkingcreation-mumbai/?pos=123&kwd=baby bottle accessories&tags=||||8211.142|Price|product|||TS|rsf:gd-|-qr_nm:gd|res:RC4|com-cf:nl|ptrs:na|ktp:N0|mc:98603|mtp:S|qry_typ:P|lang:en|wc:3|cs:7543|v=4,False,Malad West,Mumbai,"B 705, Seven Floor, Jagmagia Centre, Mamlatdar Wadi EXTN Road Nahar Nagar, Malad West, Suburban, Malad West, Mumbai - 400064, Dist.Mumbai, Maharashtra",8043805922,
Red Silicon Chewing BAR Baby Teethers Feeders Soothers 100% Safe BPA Free,https://www.indiamart.com/proddetail/red-silicon-chewing-bar-baby-teethers-feeders-soothers-100-safe-bpa-free-2852714730255.html?pos=124&kwd=baby bottle accessories&tags=||||8778.123|Price|product|||TS|rsf:gd-|-qr_nm:gd|res:RC4|com-cf:nl|ptrs:na|ktp:N0|mc:98603|mtp:S|qry_typ:P|lang:en|wc:3|cs:7543|v=4,GM'S Speechgears Private Limited,https://www.indiamart.com/gmsspeechgears/?pos=124&kwd=baby bottle accessories&tags=||||8778.123|Price|product|||TS|rsf:gd-|-qr_nm:gd|res:RC4|com-cf:nl|ptrs:na|ktp:N0|mc:98603|mtp:S|qry_typ:P|lang:en|wc:3|cs:7543|v=4,False,Sector 65,Noida,"1st Floor, A-77, Sector-65, Gautambuddha Nagar, Sector 65, Noida - 201301, Dist.Gautam Budh Nagar, Uttar Pradesh",7942713454,
Capacity: 1000 mL ANGLE SIPPER BOTTLE,https://www.indiamart.com/proddetail/angle-sipper-bottle-2850570676848.html?pos=125&kwd=baby bottle accessories&tags=||||8228.275|Price|product|||TS|rsf:gd-|-qr_nm:gd|res:RC4|com-cf:nl|ptrs:na|ktp:N0|mc:98603|mtp:S|qry_typ:P|lang:en|wc:3|cs:7543|v=4,Mayur Plastics And Toys,https://www.mayurplasticproducts.com/?pos=125&kwd=baby bottle accessories&tags=||||8228.275|Price|product|||TS|rsf:gd-|-qr_nm:gd|res:RC4|com-cf:nl|ptrs:na|ktp:N0|mc:98603|mtp:S|qry_typ:P|lang:en|wc:3|cs:7543|v=4,False,Rajpur Hirpur,Ahmedabad,"479/2842, Gujarat Housing Board dengra, Rajpur Hirpur, Ahmedabad - 380023, Dist.Ahmedabad, Gujarat",8048964748,
"Feeding Bottles & Sippers, Stainless Steel 304 Grade, Best Quality & Lowest Price",https://www.indiamart.com/proddetail/feeding-bottles-sippers-stainless-steel-304-grade-best-quality-lowest-price-24525737773.html?pos=126&kwd=baby bottle accessories&tags=||||8954.051|Price|product|||TS|rsf:gd-|-qr_nm:gd|res:RC4|com-cf:nl|ptrs:na|ktp:N0|mc:98603|mtp:S|qry_typ:P|lang:en|wc:3|cs:7543|v=4,KA Plastic & Safety India,https://www.indiamart.com/kaplastic-safetyindia/?pos=126&kwd=baby bottle accessories&tags=||||8954.051|Price|product|||TS|rsf:gd-|-qr_nm:gd|res:RC4|com-cf:nl|ptrs:na|ktp:N0|mc:98603|mtp:S|qry_typ:P|lang:en|wc:3|cs:7543|v=4,False,Tondiarpet,Chennai,"No.98, SN Chetty Street , Kasimedu, Tondiarpet, Chennai - 600057, Dist.Chennai, Tamil Nadu",7942550416,
Baby Fruit Feeder,https://www.indiamart.com/proddetail/baby-fruit-feeder-2851812454873.html?pos=127&kwd=baby bottle accessories&tags=||||8752.144|Price|product|||TS|rsf:gd-|-qr_nm:gd|res:RC4|com-cf:nl|ptrs:na|ktp:N0|mc:98603|mtp:S|qry_typ:P|lang:en|wc:3|cs:7543|v=4,TUF & Fit,https://www.indiamart.com/tuf-fit/?pos=127&kwd=baby bottle accessories&tags=||||8752.144|Price|product|||TS|rsf:gd-|-qr_nm:gd|res:RC4|com-cf:nl|ptrs:na|ktp:N0|mc:98603|mtp:S|qry_typ:P|lang:en|wc:3|cs:7543|v=4,False,Shalimar Bagh,New Delhi,"badli extension. near Laxmi Dhar kanta, Shalimar Bagh, New Delhi - 110084, Dist.Delhi, Delhi",8048262266,
"Plastic FEEDER BOTTLE 150ML, Age Group: Newly Born",https://www.indiamart.com/proddetail/feeder-bottle-150ml-2854444843812.html?pos=128&kwd=baby bottle accessories&tags=||||8230.883|Price|product|||TS|rsf:gd-|-qr_nm:gd|res:RC4|com-cf:nl|ptrs:na|ktp:N0|mc:98603|mtp:S|qry_typ:P|lang:en|wc:3|cs:7543|v=4,Medilio Enterprise Private Limited,https://www.indiamart.com/mediloenterprise/?pos=128&kwd=baby bottle accessories&tags=||||8230.883|Price|product|||TS|rsf:gd-|-qr_nm:gd|res:RC4|com-cf:nl|ptrs:na|ktp:N0|mc:98603|mtp:S|qry_typ:P|lang:en|wc:3|cs:7543|v=4,False,Magob,Surat,"Shop No 428,417,418, 4th Floor Raghuvir Trade Center, Surat-Bardoli Road, Magob, Surat - 395010, Dist.Surat, Gujarat",7942822471,
Baby Fruit Feeder Pacifier,https://www.indiamart.com/proddetail/baby-fruit-feeder-pacifier-2850904609097.html?pos=129&kwd=baby bottle accessories&tags=||||8752.144|Price|product|||TS|rsf:gd-|-qr_nm:gd|res:RC4|com-cf:nl|ptrs:na|ktp:N0|mc:98603|mtp:S|qry_typ:P|lang:en|wc:3|cs:7543|v=4,Aman Impex,https://www.myamanimpex.com/?pos=129&kwd=baby bottle accessories&tags=||||8752.144|Price|product|||TS|rsf:gd-|-qr_nm:gd|res:RC4|com-cf:nl|ptrs:na|ktp:N0|mc:98603|mtp:S|qry_typ:P|lang:en|wc:3|cs:7543|v=4,False,Paschim Vihar,New Delhi,"Flat No. 681, S/F Janta Flats, Pocket-II, Paschim Puri, Paschim Vihar, New Delhi - 110063, Dist.Delhi, Delhi",8048600148,
Baby Bottle Cover,https://www.indiamart.com/proddetail/baby-bottle-cover-25672772255.html?pos=130&kwd=baby bottle accessories&tags=||||8741.812|Price|product|||MDC|rsf:gd-|-qr_nm:gd|res:RC4|com-cf:nl|ptrs:na|ktp:N0|mc:98603|mtp:S|qry_typ:P|lang:en|wc:3|cs:7543|v=4,Linen Design Company Private Limited,https://www.indiamart.com/linen-design-company/?pos=130&kwd=baby bottle accessories&tags=||||8741.812|Price|product|||MDC|rsf:gd-|-qr_nm:gd|res:RC4|com-cf:nl|ptrs:na|ktp:N0|mc:98603|mtp:S|qry_typ:P|lang:en|wc:3|cs:7543|v=4,False,Mohyal Colony,Gurgaon,"141-142-143, Mohyal Colony Opposite Sector 31, Mohyal Colony, Gurgaon - 122003, Dist.Gurgaon, Haryana",8046073097,
Baby Bottle Cover,https://www.indiamart.com/proddetail/baby-bottle-cover-2853107459255.html?pos=131&kwd=baby bottle accessories&tags=||||8706.508|Price|product|||MDC|rsf:gd-|-qr_nm:gd|res:RC4|com-cf:nl|ptrs:na|ktp:N0|mc:98603|mtp:S|qry_typ:P|lang:en|wc:3|cs:7543|v=4,Young Vision,https://www.indiamart.com/young-vision-rohtak/?pos=131&kwd=baby bottle accessories&tags=||||8706.508|Price|product|||MDC|rsf:gd-|-qr_nm:gd|res:RC4|com-cf:nl|ptrs:na|ktp:N0|mc:98603|mtp:S|qry_typ:P|lang:en|wc:3|cs:7543|v=4,False,Janta Colony,Rohtak,"949/31 Azad Nagar, Janta Colony, Rohtak - 124001, Dist.Rohtak, Haryana",8047688329,
Mini cover silicon nipple,https://www.indiamart.com/proddetail/mini-cover-silicon-nipple-26854447288.html?pos=132&kwd=baby bottle accessories&tags=||||8228.275|Price|product|||TS|rsf:gd-|-qr_nm:gd|res:RC4|com-cf:nl|ptrs:na|ktp:N0|mc:98603|mtp:S|qry_typ:P|lang:en|wc:3|cs:7543|v=4,Only Women,https://www.indiamart.com/onlywomen/?pos=132&kwd=baby bottle accessories&tags=||||8228.275|Price|product|||TS|rsf:gd-|-qr_nm:gd|res:RC4|com-cf:nl|ptrs:na|ktp:N0|mc:98603|mtp:S|qry_typ:P|lang:en|wc:3|cs:7543|v=4,False,Teen Darwaza,Ahmedabad,"Shop No 17,tutorial Market,three Gate,pankore Naka,, Teen Darwaza, Ahmedabad - 380001, Dist.Ahmedabad, Gujarat",8046031790,
Best Quality Cheapest Price Disposable Cotton Nipple Cover - Supplier in Delhi - 5 PAIR PACK,https://www.indiamart.com/proddetail/best-quality-cheapest-price-disposable-cotton-nipple-cover-supplier-in-delhi-5-pair-pack-2854605391130.html?pos=133&kwd=baby bottle accessories&tags=||||8752.144|Price|product|||TS|rsf:gd-|-qr_nm:gd|res:RC4|com-cf:nl|ptrs:na|ktp:N0|mc:98603|mtp:S|qry_typ:P|lang:en|wc:3|cs:7543|v=4,Alpha Enterprise,https://www.snuggfit.in/?pos=133&kwd=baby bottle accessories&tags=||||8752.144|Price|product|||TS|rsf:gd-|-qr_nm:gd|res:RC4|com-cf:nl|ptrs:na|ktp:N0|mc:98603|mtp:S|qry_typ:P|lang:en|wc:3|cs:7543|v=4,False,Rohini Sector 2,New Delhi,"D - 45 - Krishan Vihar, Near Heera Sweets, Main Kanjhawala Road, New Delhi, Rohini Sector 2, New Delhi - 110085, Dist.Delhi, Delhi",8048263570,
"Baby Milk Bottle Cover, Capacity: 200 ML",https://www.indiamart.com/proddetail/baby-milk-bottle-cover-24910746097.html?pos=134&kwd=baby bottle accessories&tags=||||8954.051|Price|product|||MDC|rsf:gd-|-qr_nm:gd|res:RC4|com-cf:nl|ptrs:na|ktp:N0|mc:98603|mtp:S|qry_typ:P|lang:en|wc:3|cs:7543|v=4,Bismillah Creation,https://www.indiamart.com/bismillah-creationchennai/?pos=134&kwd=baby bottle accessories&tags=||||8954.051|Price|product|||MDC|rsf:gd-|-qr_nm:gd|res:RC4|com-cf:nl|ptrs:na|ktp:N0|mc:98603|mtp:S|qry_typ:P|lang:en|wc:3|cs:7543|v=4,False,Selaivayal,Chennai,"No-31/1, Na, Vedhantha Murugappa Street, Selavoyal, Vedhantha Murugappa Street, Selaivayal, Chennai - 600051, Dist.Chennai, Tamil Nadu",8047309398,
Baby Feeding Bottle Cover,https://www.indiamart.com/proddetail/baby-feeding-bottle-cover-2854493964512.html?pos=135&kwd=baby bottle accessories&tags=||||8954.051|Price|product|||MDC|rsf:gd-|-qr_nm:gd|res:RC4|com-cf:nl|ptrs:na|ktp:N0|mc:98603|mtp:S|qry_typ:P|lang:en|wc:3|cs:7543|v=4,Earthwise Collective Private Limited,https://www.indiamart.com/earthwise-collective/?pos=135&kwd=baby bottle accessories&tags=||||8954.051|Price|product|||MDC|rsf:gd-|-qr_nm:gd|res:RC4|com-cf:nl|ptrs:na|ktp:N0|mc:98603|mtp:S|qry_typ:P|lang:en|wc:3|cs:7543|v=4,False,,Chennai,"9/2, 35/2, Bagirathiammal Street, T Nagar,, Chennai - 600017, Dist.Chennai, Tamil Nadu",7942801118,
Pink Baby Bottle Cover,https://www.indiamart.com/proddetail/pink-baby-bottle-cover-2854160637488.html?pos=136&kwd=baby bottle accessories&tags=||||8693.162||product|||MDC|rsf:gd-|-qr_nm:gd|res:RC4|com-cf:nl|ptrs:na|ktp:N0|mc:98603|mtp:S|qry_typ:P|lang:en|wc:3|cs:7543|v=4,Dear Baby,https://www.indiamart.com/dearbaby/?pos=136&kwd=baby bottle accessories&tags=||||8693.162||product|||MDC|rsf:gd-|-qr_nm:gd|res:RC4|com-cf:nl|ptrs:na|ktp:N0|mc:98603|mtp:S|qry_typ:P|lang:en|wc:3|cs:7543|v=4,False,Begambur,Dindigul,"2nd Floor, No 7, Ahmad Appartment, S P Nagar, Begambur, Begambur, Dindigul - 624002, Dist.Dindigul, Tamil Nadu",8045731862,
Velvet Baby Feeding Bottle Cover,https://www.indiamart.com/proddetail/velvet-baby-feeding-bottle-cover-2854287431612.html?pos=137&kwd=baby bottle accessories&tags=||||8223.226|Price|product|||MDC|rsf:gd-|-qr_nm:gd|res:RC4|com-cf:nl|ptrs:na|ktp:N0|mc:98603|mtp:S|qry_typ:P|lang:en|wc:3|cs:7543|v=4,Royal Baby,https://www.indiamart.com/royal-baby-thane/?pos=137&kwd=baby bottle accessories&tags=||||8223.226|Price|product|||MDC|rsf:gd-|-qr_nm:gd|res:RC4|com-cf:nl|ptrs:na|ktp:N0|mc:98603|mtp:S|qry_typ:P|lang:en|wc:3|cs:7543|v=4,False,,Thane,"Ground Floor, Shop No. 03, Savitri Niwas Mumbai Pune Road, Amrutnagar, Sub Post Office, Mumbra, Thane - 400612, Dist.Thane, Maharashtra",8045734604,
Baby Infant Bottle Covers,https://www.indiamart.com/proddetail/baby-infant-bottle-covers-2855016951030.html?pos=138&kwd=baby bottle accessories&tags=||||8752.144|Price|product|||MDC|rsf:gd-|-qr_nm:gd|res:RC4|com-cf:nl|ptrs:na|ktp:N0|mc:98603|mtp:S|qry_typ:P|lang:en|wc:3|cs:7543|v=4,A.S.Enterprises,https://www.indiamart.com/a-senterprisesdelhi-india/?pos=138&kwd=baby bottle accessories&tags=||||8752.144|Price|product|||MDC|rsf:gd-|-qr_nm:gd|res:RC4|com-cf:nl|ptrs:na|ktp:N0|mc:98603|mtp:S|qry_typ:P|lang:en|wc:3|cs:7543|v=4,False,,New Delhi,"G F, 816, Pan Mandi, Near Press Street Sadar Bazar Area, Central Delhi, New Delhi - 110006, Dist.Delhi, Delhi",7942537259,
Baby Milk Bottle Cover,https://www.indiamart.com/proddetail/baby-milk-bottle-cover-2853993469773.html?pos=139&kwd=baby bottle accessories&tags=||||8752.144|Price|product|||MDC|rsf:gd-|-qr_nm:gd|res:RC4|com-cf:nl|ptrs:na|ktp:N0|mc:98603|mtp:S|qry_typ:P|lang:en|wc:3|cs:7543|v=4,A.D. Enterprises,https://www.indiamart.com/adenterprises-burari-newdelhi/?pos=139&kwd=baby bottle accessories&tags=||||8752.144|Price|product|||MDC|rsf:gd-|-qr_nm:gd|res:RC4|com-cf:nl|ptrs:na|ktp:N0|mc:98603|mtp:S|qry_typ:P|lang:en|wc:3|cs:7543|v=4,False,North,New Delhi,"K.No-12/1, Main 25 FT. Road, Near Shyam Sweets, Uttranchal Enclave ,Kamal Pur, Burari, North, New Delhi - 110084, Dist.Delhi, Delhi",8044565004,
Cotton Baby Bottle Cover,https://www.indiamart.com/proddetail/cotton-baby-bottle-cover-2854410237412.html?pos=140&kwd=baby bottle accessories&tags=||||9045.955|Price|product|||MDC|rsf:gd-|-qr_nm:gd|res:RC4|com-cf:nl|ptrs:na|ktp:N0|mc:98603|mtp:S|qry_typ:P|lang:en|wc:3|cs:7543|v=4,Kesharwani Caps & Gloves,https://www.indiamart.com/kesharwani-caps-gloves/?pos=140&kwd=baby bottle accessories&tags=||||9045.955|Price|product|||MDC|rsf:gd-|-qr_nm:gd|res:RC4|com-cf:nl|ptrs:na|ktp:N0|mc:98603|mtp:S|qry_typ:P|lang:en|wc:3|cs:7543|v=4,False,Meston Road,Kanpur,"33/80, Kesharwani Caps And Gloves, Topi Bazar, Chowk, Meston Road, Kanpur - 208001, Uttar Pradesh",7949336314,
Cotton Baby Bottle Cover,https://www.indiamart.com/proddetail/cotton-baby-bottle-cover-2854410237412.html?pos=141&kwd=baby bottle accessories&tags=||||9045.955|Price|product|||MDC|rsf:gd-|-qr_nm:gd|res:RC4|com-cf:nl|ptrs:na|ktp:N0|mc:98603|mtp:S|qry_typ:P|lang:en|wc:3|cs:7543|v=4,Kesharwani Caps & Gloves,https://www.indiamart.com/kesharwani-caps-gloves/?pos=141&kwd=baby bottle accessories&tags=||||9045.955|Price|product|||MDC|rsf:gd-|-qr_nm:gd|res:RC4|com-cf:nl|ptrs:na|ktp:N0|mc:98603|mtp:S|qry_typ:P|lang:en|wc:3|cs:7543|v=4,False,Meston Road,Kanpur,"33/80, Kesharwani Caps And Gloves, Topi Bazar, Chowk, Meston Road, Kanpur - 208001, Uttar Pradesh",7949336314,
Baby Milk Bottle Cover,https://www.indiamart.com/proddetail/baby-milk-bottle-cover-2850164874730.html?pos=142&kwd=baby bottle accessories&tags=||||8752.144|Price|product|||MDC|rsf:gd-|-qr_nm:gd|res:RC4|com-cf:nl|ptrs:na|ktp:N0|mc:98603|mtp:S|qry_typ:P|lang:en|wc:3|cs:7543|v=4,Kidz Creation,https://www.indiamart.com/kidzcreation/?pos=142&kwd=baby bottle accessories&tags=||||8752.144|Price|product|||MDC|rsf:gd-|-qr_nm:gd|res:RC4|com-cf:nl|ptrs:na|ktp:N0|mc:98603|mtp:S|qry_typ:P|lang:en|wc:3|cs:7543|v=4,False,,New Delhi,"Shop No. 279/517,Sabharwal Market, Tolia Wali Gali Sadar Bazar, North Delhi,, New Delhi - 110006, Dist.Delhi, Delhi",8047679212,
"Baby Bottle Printed Cover, Size/Dimension: 7inch (l), Capacity: 150ml",https://www.indiamart.com/proddetail/baby-bottle-printed-cover-2850650074273.html?pos=143&kwd=baby bottle accessories&tags=||||8752.144|Price|product|||MDC|rsf:gd-|-qr_nm:gd|res:RC4|com-cf:nl|ptrs:na|ktp:N0|mc:98603|mtp:S|qry_typ:P|lang:en|wc:3|cs:7543|v=4,L T Textiles,https://www.indiamart.com/lttextiles/?pos=143&kwd=baby bottle accessories&tags=||||8752.144|Price|product|||MDC|rsf:gd-|-qr_nm:gd|res:RC4|com-cf:nl|ptrs:na|ktp:N0|mc:98603|mtp:S|qry_typ:P|lang:en|wc:3|cs:7543|v=4,False,Pahari Dhiraj,New Delhi,"5189-90 Main Road, Sadar Bazar, Pahari Dhiraj, New Delhi - 110006, Dist.Delhi, Delhi",7942958455,
"Transparent Plastic Baby Nibbler Fruit Feeder( BOX PACKING), Capacity: 100 mL, Newly Born",https://www.indiamart.com/proddetail/baby-nibbler-fruit-feeder-box-packing-2849607653655.html?pos=144&kwd=baby bottle accessories&tags=||||8752.144|Price|product|||MDC|rsf:gd-|-qr_nm:gd|res:RC4|com-cf:nl|ptrs:na|ktp:N0|mc:98603|mtp:S|qry_typ:P|lang:en|wc:3|cs:7543|v=4,B-Qube Enterprises,https://www.indiamart.com/bqube-enterprises/?pos=144&kwd=baby bottle accessories&tags=||||8752.144|Price|product|||MDC|rsf:gd-|-qr_nm:gd|res:RC4|com-cf:nl|ptrs:na|ktp:N0|mc:98603|mtp:S|qry_typ:P|lang:en|wc:3|cs:7543|v=4,False,Karol Bagh,New Delhi,"303, Iiird Floor,13/4, W.E.A.,Karol Bagh, Karol Bagh, New Delhi - 110005, Dist.Delhi, Delhi",8047313183,
Cotton Printed Baby Bottle Cover,https://www.indiamart.com/proddetail/cotton-printed-baby-bottle-cover-2853514566855.html?pos=145&kwd=baby bottle accessories&tags=||||8307.81|Price|product|||MDC|rsf:gd-|-qr_nm:gd|res:RC4|com-cf:nl|ptrs:na|ktp:N0|mc:98603|mtp:S|qry_typ:P|lang:en|wc:3|cs:7543|v=4,Tabaria Baby Mall,https://www.indiamart.com/tabaria-baby-mallpune/?pos=145&kwd=baby bottle accessories&tags=||||8307.81|Price|product|||MDC|rsf:gd-|-qr_nm:gd|res:RC4|com-cf:nl|ptrs:na|ktp:N0|mc:98603|mtp:S|qry_typ:P|lang:en|wc:3|cs:7543|v=4,False,Raviwar Peth,Pune,"1088,Manish Market,Raviwar Peth, Raviwar Peth, Pune - 411002, Dist.Pune, Maharashtra",7949092418,
Silicone Baby Fresh Fruit Food Feeder/Pacifier / Nibbler,https://www.indiamart.com/proddetail/silicone-baby-fresh-fruit-food-feeder-pacifier-nibbler-2854404687512.html?pos=146&kwd=baby bottle accessories&tags=||||8752.144|Price|product|||MDC|rsf:gd-|-qr_nm:gd|res:RC4|com-cf:nl|ptrs:na|ktp:N0|mc:98603|mtp:S|qry_typ:P|lang:en|wc:3|cs:7543|v=4,JMC Enterprises,https://www.indiamart.com/jmc-enterprises-newdelhi/?pos=146&kwd=baby bottle accessories&tags=||||8752.144|Price|product|||MDC|rsf:gd-|-qr_nm:gd|res:RC4|com-cf:nl|ptrs:na|ktp:N0|mc:98603|mtp:S|qry_typ:P|lang:en|wc:3|cs:7543|v=4,False,,New Delhi,"H.No. A-49 Ph-1, Block-A, Harsukh Prem Nagar -1, North West Delhi, New Delhi - 110086, Dist.Delhi, Delhi",8045735053,
"Transparent Plastic Baby Medicine Feeder, Capacity: 50 mL",https://www.indiamart.com/proddetail/plastic-baby-medicine-feeder-2854324761948.html?pos=147&kwd=baby bottle accessories&tags=||||8785.791|Price|product|||MDC|rsf:gd-|-qr_nm:gd|res:RC4|com-cf:nl|ptrs:na|ktp:N0|mc:98603|mtp:S|qry_typ:P|lang:en|wc:3|cs:7543|v=4,Finestdeal,https://www.indiamart.com/finestdeal/?pos=147&kwd=baby bottle accessories&tags=||||8785.791|Price|product|||MDC|rsf:gd-|-qr_nm:gd|res:RC4|com-cf:nl|ptrs:na|ktp:N0|mc:98603|mtp:S|qry_typ:P|lang:en|wc:3|cs:7543|v=4,False,,Ghaziabad,"S1 1403 Cloud 9 Tower Vaishali, Ghaziabad - 201010, Dist.Ghaziabad, Uttar Pradesh",8045729976,
150ml Pigeon Flexible Stainless Steel Feeding Bottle,https://www.indiamart.com/proddetail/150ml-pigeon-flexible-stainless-steel-feeding-bottle-2854980988562.html?pos=148&kwd=baby bottle accessories&tags=||||8584.299|Price|product|||MDC|rsf:gd-|-qr_nm:gd|res:RC4|com-cf:nl|ptrs:na|ktp:N0|mc:98603|mtp:S|qry_typ:P|lang:en|wc:3|cs:7543|v=4,Vino Mani Enterprises,https://www.indiamart.com/vino-mani-enterprises/?pos=148&kwd=baby bottle accessories&tags=||||8584.299|Price|product|||MDC|rsf:gd-|-qr_nm:gd|res:RC4|com-cf:nl|ptrs:na|ktp:N0|mc:98603|mtp:S|qry_typ:P|lang:en|wc:3|cs:7543|v=4,False,,Coimbatore,"No 89A, NA, Azad Road, R S Puram, Coimbatore - 641002, Dist.Coimbatore, Tamil Nadu",7942546353,
Silicone Silicon Fruit Baby Pacifier,https://www.indiamart.com/proddetail/silicon-fruit-baby-pacifier-2854104996197.html?pos=149&kwd=baby bottle accessories&tags=||||8038.093|Price|product|||MDC|rsf:gd-|-qr_nm:gd|res:RC4|com-cf:nl|ptrs:na|ktp:N0|mc:98603|mtp:S|qry_typ:P|lang:en|wc:3|cs:7543|v=4,Kemlin International,https://www.indiamart.com/kemlin-international/?pos=149&kwd=baby bottle accessories&tags=||||8038.093|Price|product|||MDC|rsf:gd-|-qr_nm:gd|res:RC4|com-cf:nl|ptrs:na|ktp:N0|mc:98603|mtp:S|qry_typ:P|lang:en|wc:3|cs:7543|v=4,False,Sant Bhojaram Society,Rajkot,"Shed No. 2, Plot No. 17, R.s. No. 264, Kothariya, Sant Bhojaram Society, Rajkot - 360002, Dist.Rajkot, Gujarat",8044560767,
250ml Stainless Steel Feeding Bottle,https://www.indiamart.com/proddetail/250ml-stainless-steel-feeding-bottle-2854907726688.html?pos=150&kwd=baby bottle accessories&tags=||||8741.812|Price|product|||MDC|rsf:gd-|-qr_nm:gd|res:RC4|com-cf:nl|ptrs:na|ktp:N0|mc:98603|mtp:S|qry_typ:P|lang:en|wc:3|cs:7543|v=4,Meesha Enterprises,https://www.indiamart.com/meeshaenterprises-gurugram/?pos=150&kwd=baby bottle accessories&tags=||||8741.812|Price|product|||MDC|rsf:gd-|-qr_nm:gd|res:RC4|com-cf:nl|ptrs:na|ktp:N0|mc:98603|mtp:S|qry_typ:P|lang:en|wc:3|cs:7543|v=4,False,,Gurugram,"2nd, 2061A, C Block, Sushant Lok 1,, Gurugram - 122002, Dist.Gurgaon, Haryana",8041015150,
"200ml Budds Buddy Premium Stainless Steel 3 in 1 Feeding Bottle, Baby",https://www.indiamart.com/proddetail/200ml-budds-buddy-premium-stainless-steel-3-in-1-feeding-bottle-2854382533748.html?pos=151&kwd=baby bottle accessories&tags=||||9110.092|Price|product|||MDC|rsf:gd-|-qr_nm:gd|res:RC4|com-cf:nl|ptrs:na|ktp:N0|mc:98603|mtp:S|qry_typ:P|lang:en|wc:3|cs:7543|v=4,Jai Maa Laxmi Agency,https://www.indiamart.com/jaimaalaxmiagency/?pos=151&kwd=baby bottle accessories&tags=||||9110.092|Price|product|||MDC|rsf:gd-|-qr_nm:gd|res:RC4|com-cf:nl|ptrs:na|ktp:N0|mc:98603|mtp:S|qry_typ:P|lang:en|wc:3|cs:7543|v=4,False,,Lucknow,"E-2468,Rajajipuram,Near Rupam Tailor,, Lucknow - 226017, Dist.Lucknow, Uttar Pradesh",7949339166,
Baby Bottle Cover,https://www.indiamart.com/proddetail/baby-bottle-cover-2853867068897.html?pos=152&kwd=baby bottle accessories&tags=||||8752.144|Price|product|||MDC|rsf:gd-|-qr_nm:gd|res:RC4|com-cf:nl|ptrs:na|ktp:N0|mc:98603|mtp:S|qry_typ:P|lang:en|wc:3|cs:7543|v=4,Shopindia,https://www.indiamart.com/shopindia-delhi/?pos=152&kwd=baby bottle accessories&tags=||||8752.144|Price|product|||MDC|rsf:gd-|-qr_nm:gd|res:RC4|com-cf:nl|ptrs:na|ktp:N0|mc:98603|mtp:S|qry_typ:P|lang:en|wc:3|cs:7543|v=4,False,Khyala,New Delhi,"F/F, RZ-129 Old No.RZ-57, West Block, Vishnu Garden, Khyala, New Delhi - 110018, Dist.Delhi, Delhi",8047832403,
Silicone Synthetic Baby Nipple Shield,https://www.indiamart.com/proddetail/synthetic-baby-nipple-shield-2854721717412.html?pos=153&kwd=baby bottle accessories&tags=||||8752.144|Price|product|||MDC|rsf:gd-|-qr_nm:gd|res:RC4|com-cf:nl|ptrs:na|ktp:N0|mc:98603|mtp:S|qry_typ:P|lang:en|wc:3|cs:7543|v=4,Rachna Enterprises,https://www.indiamart.com/rachnaenterprisesnewdelhi/?pos=153&kwd=baby bottle accessories&tags=||||8752.144|Price|product|||MDC|rsf:gd-|-qr_nm:gd|res:RC4|com-cf:nl|ptrs:na|ktp:N0|mc:98603|mtp:S|qry_typ:P|lang:en|wc:3|cs:7543|v=4,False,West Delhi,New Delhi,"Ground Floor, House No. RZ-123, Vishwas Park Main Road, T-Extn., Uttam Nagar, West Delhi, New Delhi - 110059, Dist.Delhi, Delhi",8041011216,
Ardo Nipple Sheild Large (2 Pcs),https://www.indiamart.com/proddetail/ardo-nipple-sheild-large-2-pcs-25419323473.html?pos=154&kwd=baby bottle accessories&tags=||||8307.81|Price|product|||MDC|rsf:gd-|-qr_nm:gd|res:RC4|com-cf:nl|ptrs:na|ktp:N0|mc:98603|mtp:S|qry_typ:P|lang:en|wc:3|cs:7543|v=4,Sleep Solutions,https://www.indiamart.com/sleepsolutionspune/?pos=154&kwd=baby bottle accessories&tags=||||8307.81|Price|product|||MDC|rsf:gd-|-qr_nm:gd|res:RC4|com-cf:nl|ptrs:na|ktp:N0|mc:98603|mtp:S|qry_typ:P|lang:en|wc:3|cs:7543|v=4,False,Fatima Nagar,Pune,"SHOP NO.17 LEGEND PRESTIGE BEHIND CROMA CENTER BT KAWADE RD BEHIND BUS STOP PUNE, Fatima Nagar, Pune - 411040, Dist.Pune, Maharashtra",8048271036,
"Blue Plastic Baby Fruit Feeder, Capacity: 100 mL",https://www.indiamart.com/proddetail/baby-fruit-feeder-2853670432773.html?pos=155&kwd=baby bottle accessories&tags=||||8663.873|Price|product|||MDC|rsf:gd-|-qr_nm:gd|res:RC4|com-cf:nl|ptrs:na|ktp:N0|mc:98603|mtp:S|qry_typ:P|lang:en|wc:3|cs:7543|v=4,Nipika Vrapped Gifting,https://www.indiamart.com/nipika-vrapped-gifting/?pos=155&kwd=baby bottle accessories&tags=||||8663.873|Price|product|||MDC|rsf:gd-|-qr_nm:gd|res:RC4|com-cf:nl|ptrs:na|ktp:N0|mc:98603|mtp:S|qry_typ:P|lang:en|wc:3|cs:7543|v=4,False,Bengaluru Urban,Bengaluru,"9/1, 23rd Cross Road, Magadi Road, KP Agrahara, Bengaluru Urban, Bengaluru - 560023, Dist.Bengaluru, Karnataka",7949328723,
Baby Pacifier Silicone Fresh Fruit Teether,https://www.indiamart.com/proddetail/baby-pacifier-silicone-fresh-fruit-teether-2854957104812.html?pos=156&kwd=baby bottle accessories&tags=||||8752.144|Price|product|||MDC|rsf:gd-|-qr_nm:gd|res:RC4|com-cf:nl|ptrs:na|ktp:N0|mc:98603|mtp:S|qry_typ:P|lang:en|wc:3|cs:7543|v=4,Yami Enterprises,https://www.indiamart.com/yamienterprises/?pos=156&kwd=baby bottle accessories&tags=||||8752.144|Price|product|||MDC|rsf:gd-|-qr_nm:gd|res:RC4|com-cf:nl|ptrs:na|ktp:N0|mc:98603|mtp:S|qry_typ:P|lang:en|wc:3|cs:7543|v=4,False,,New Delhi,"B-85, Prem Nagar 2, Kirari Suleman Nagar, North West Delhi, New Delhi - 110086, Dist.Delhi, Delhi",8045734447,
"Newborn Baby Bottle Cover, 240 ml size",https://www.indiamart.com/proddetail/newborn-baby-bottle-cover-240-ml-size-2852544605791.html?pos=157&kwd=baby bottle accessories&tags=||||8752.144|Price|product|||MDC|rsf:gd-|-qr_nm:gd|res:RC4|com-cf:nl|ptrs:na|ktp:N0|mc:98603|mtp:S|qry_typ:P|lang:en|wc:3|cs:7543|v=4,B N Hosiery,https://www.indiamart.com/bnhosiery/?pos=157&kwd=baby bottle accessories&tags=||||8752.144|Price|product|||MDC|rsf:gd-|-qr_nm:gd|res:RC4|com-cf:nl|ptrs:na|ktp:N0|mc:98603|mtp:S|qry_typ:P|lang:en|wc:3|cs:7543|v=4,False,Ashok Vihar,New Delhi,"House No 130l, Block-E, Phase-1,Ashok, Vihar, Ashok Vihar, New Delhi - 110052, Dist.Delhi, Delhi",7942706809,
Plastic Children Hair Accessories,https://www.indiamart.com/proddetail/children-hair-accessories-2853605245830.html?pos=158&kwd=baby bottle accessories&tags=||||8211.142|Price|product|||TS|rsf:gd-|-qr_nm:gd|res:RC4|com-cf:nl|ptrs:na|ktp:N0|mc:98603|mtp:S|qry_typ:P|lang:en|wc:3|cs:7543|v=4,Ramdev Product,https://www.c-19hairpin.com/?pos=158&kwd=baby bottle accessories&tags=||||8211.142|Price|product|||TS|rsf:gd-|-qr_nm:gd|res:RC4|com-cf:nl|ptrs:na|ktp:N0|mc:98603|mtp:S|qry_typ:P|lang:en|wc:3|cs:7543|v=4,False,Kandivali East,Mumbai,"Gala No. 14/C, Ground Floor, Jai Bonanza Industrial Estate Ashok Chakravarti Road, Ashok Nagar, Kandivali East, Kandivali East, Mumbai - 400101, Dist.Mumbai, Maharashtra",8048958971,
Baby Girl Headband,https://www.indiamart.com/proddetail/baby-girl-headband-22323182391.html?pos=159&kwd=baby bottle accessories&tags=||||9045.955|Price|product|||TS|rsf:gd-|-qr_nm:gd|res:RC4|com-cf:nl|ptrs:na|ktp:N0|mc:98603|mtp:S|qry_typ:P|lang:en|wc:3|cs:7543|v=4,Fun Krafts,https://www.indiamart.com/funkrafts/?pos=159&kwd=baby bottle accessories&tags=||||9045.955|Price|product|||TS|rsf:gd-|-qr_nm:gd|res:RC4|com-cf:nl|ptrs:na|ktp:N0|mc:98603|mtp:S|qry_typ:P|lang:en|wc:3|cs:7543|v=4,False,Civil Line,Kanpur,"No. 15- 247 A, Civil Lines, Civil Line, Kanpur - 208001, Uttar Pradesh",8047646926,
Newborn Baby Cap Accessories,https://www.indiamart.com/proddetail/newborn-baby-cap-accessories-2854699528355.html?pos=160&kwd=baby bottle accessories&tags=||||8626.744||product|||MDC|rsf:gd-|-qr_nm:gd|res:RC4|com-cf:nl|ptrs:na|ktp:N0|mc:98603|mtp:S|qry_typ:P|lang:en|wc:3|cs:7543|v=4,S.M.Garmentss,https://www.indiamart.com/sm-garmentss/?pos=160&kwd=baby bottle accessories&tags=||||8626.744||product|||MDC|rsf:gd-|-qr_nm:gd|res:RC4|com-cf:nl|ptrs:na|ktp:N0|mc:98603|mtp:S|qry_typ:P|lang:en|wc:3|cs:7543|v=4,False,,Tiruppur,"8/4077/A6, Cholan Nagar, Anna Nagar East, P.N.Road, Tiruppur - 641602, Dist.Coimbatore, Tamil Nadu",7949336546,
Kids Hair Accessories,,The Skyler's,https://www.indiamart.com/the-skylers/?pos=161&kwd=baby bottle accessories&tags=||||8601.347|Price|product|||MDC|rsf:gd-|-qr_nm:gd|res:RC4|com-cf:nl|ptrs:na|ktp:N0|mc:98603|mtp:S|qry_typ:P|lang:en|wc:3|cs:7543|v=4,False,Bani Park,Jaipur,"64, Ground Floor, Vishwakarma Nagar-2, Maharani Farm, Near Dalda Factory Flyover, Durgapura, Bani Park, Jaipur - 302018, Dist.Jaipur, Rajasthan",7942671576,
Plastic Imported Hair Accessories For Kids,https://www.indiamart.com/proddetail/imported-hair-accessories-for-kids-2854322565991.html?pos=162&kwd=baby bottle accessories&tags=||||8752.144|Price|product|||MDC|rsf:gd-|-qr_nm:gd|res:RC4|com-cf:nl|ptrs:na|ktp:N0|mc:98603|mtp:S|qry_typ:P|lang:en|wc:3|cs:7543|v=4,Munna Collection,https://www.indiamart.com/munnacollection/?pos=162&kwd=baby bottle accessories&tags=||||8752.144|Price|product|||MDC|rsf:gd-|-qr_nm:gd|res:RC4|com-cf:nl|ptrs:na|ktp:N0|mc:98603|mtp:S|qry_typ:P|lang:en|wc:3|cs:7543|v=4,False,Lajpat Nagar,New Delhi,"F-17, Ground Floor, Lajpat Nagar II, Lajpat Nagar, New Delhi - 110024, Dist.Delhi, Delhi",8046036769,
Feeding Bottle Cover,https://www.indiamart.com/proddetail/feeding-bottle-cover-20704308033.html?pos=163&kwd=baby bottle accessories&tags=||||8559.269|Price|product|||TS|rsf:gd-|-qr_nm:gd|res:RC4|com-cf:nl|ptrs:na|ktp:N0|mc:98603|mtp:S|qry_typ:P|lang:en|wc:3|cs:7543|v=4,Daga Impex,https://www.dagaimpex.co.in/?pos=163&kwd=baby bottle accessories&tags=||||8559.269|Price|product|||TS|rsf:gd-|-qr_nm:gd|res:RC4|com-cf:nl|ptrs:na|ktp:N0|mc:98603|mtp:S|qry_typ:P|lang:en|wc:3|cs:7543|v=4,False,Rajwada,Indore,"No. 214, Tilak Path, Near Maruti Hanuman Mandir, Rajwada, Indore - 452007, Dist.Indore, Madhya Pradesh",8046030945,
Feeding Bottle Cover,https://www.indiamart.com/proddetail/feeding-bottle-cover-15686416012.html?pos=164&kwd=baby bottle accessories&tags=||||8211.142|Price|product|||TS|rsf:gd-|-qr_nm:gd|res:RC4|com-cf:nl|ptrs:na|ktp:N0|mc:98603|mtp:S|qry_typ:P|lang:en|wc:3|cs:7543|v=4,Computech India,https://www.computechindia.net/?pos=164&kwd=baby bottle accessories&tags=||||8211.142|Price|product|||TS|rsf:gd-|-qr_nm:gd|res:RC4|com-cf:nl|ptrs:na|ktp:N0|mc:98603|mtp:S|qry_typ:P|lang:en|wc:3|cs:7543|v=4,False,Goregaon,Mumbai,"No. 230, Aashirwad Industrial Estate, No. 5, Ram Mandir Road, Goregaon West, Goregaon, Mumbai - 400104, Dist.Mumbai, Maharashtra",7942553619,
COTTON BOTTLE COVER,https://www.indiamart.com/proddetail/cotton-bottle-cover-2854216039962.html?pos=165&kwd=baby bottle accessories&tags=||||8601.347|Price|product|||TS|rsf:gd-|-qr_nm:gd|res:RC4|com-cf:nl|ptrs:na|ktp:N0|mc:98603|mtp:S|qry_typ:P|lang:en|wc:3|cs:7543|v=4,Lucky Handicraft,https://www.luckyhandicraft.in/?pos=165&kwd=baby bottle accessories&tags=||||8601.347|Price|product|||TS|rsf:gd-|-qr_nm:gd|res:RC4|com-cf:nl|ptrs:na|ktp:N0|mc:98603|mtp:S|qry_typ:P|lang:en|wc:3|cs:7543|v=4,False,Govind Nagar,Jaipur,"190, Govind Nagar East, Amer Road, Govind Nagar, Jaipur - 302002, Dist.Jaipur, Rajasthan",8046067577,
"Plastic Pink and Transparent Baby Feeding Bottle, For 0-12 Months, Capacity: 250 ml",https://www.indiamart.com/proddetail/baby-feeding-bottle-20928779155.html?pos=166&kwd=baby bottle accessories&tags=||||8211.906|Price|product|||TS|rsf:gd-|-qr_nm:gd|res:RC4|com-cf:nl|ptrs:na|ktp:N0|mc:98603|mtp:S|qry_typ:P|lang:en|wc:3|cs:7543|v=4,Punamiya Exim Private Limited,https://www.punamiyaexim.co.in/?pos=166&kwd=baby bottle accessories&tags=||||8211.906|Price|product|||TS|rsf:gd-|-qr_nm:gd|res:RC4|com-cf:nl|ptrs:na|ktp:N0|mc:98603|mtp:S|qry_typ:P|lang:en|wc:3|cs:7543|v=4,False,Umargam,Umargam,"Near To Sonal Plastic, Plot No 828 A GIDC, Plot No 828 A GIDC, Umbergaon Station Road, GIDC, Umargam, Umargam - 396171, Dist.Valsad, Gujarat",8048976705,
"Jute Bottle Cover, Capacity: Standard",https://www.indiamart.com/proddetail/jute-bottle-cover-25563450533.html?pos=167&kwd=baby bottle accessories&tags=||||8752.144|Price|product|||MDC|rsf:gd-|-qr_nm:gd|res:RC4|com-cf:nl|ptrs:na|ktp:N0|mc:98603|mtp:S|qry_typ:P|lang:en|wc:3|cs:7543|v=4,Jaggi Bag Store,https://www.indiamart.com/jaggibagstore/?pos=167&kwd=baby bottle accessories&tags=||||8752.144|Price|product|||MDC|rsf:gd-|-qr_nm:gd|res:RC4|com-cf:nl|ptrs:na|ktp:N0|mc:98603|mtp:S|qry_typ:P|lang:en|wc:3|cs:7543|v=4,False,Nabi Karim,New Delhi,"6009, Gali Satnaryan Mandir Nabi Karim Central Delhi, Nabi Karim, New Delhi - 110055, Dist.Delhi, Delhi",7942563521,
"Printed Glass Baby Feeding Bottle, 3-12 Months",https://www.indiamart.com/proddetail/printed-glass-baby-feeding-bottle-23215958162.html?pos=168&kwd=baby bottle accessories&tags=||||8545.6045|Price|product|||MDC|rsf:gd-|-qr_nm:gd|res:RC4|com-cf:nl|ptrs:na|ktp:N0|mc:98603|mtp:S|qry_typ:P|lang:en|wc:3|cs:7543|v=4,Shri Siddhivinayak Traders,https://www.indiamart.com/shrisiddhivinayaktraders-firozpur/?pos=168&kwd=baby bottle accessories&tags=||||8545.6045|Price|product|||MDC|rsf:gd-|-qr_nm:gd|res:RC4|com-cf:nl|ptrs:na|ktp:N0|mc:98603|mtp:S|qry_typ:P|lang:en|wc:3|cs:7543|v=4,False,Basti Nizamdin,Firozpur,"No.94, Anand Avenue, Backside Marked Office, Malwal Road, Firozpur City, Basti Nizamdin, Firozpur - 152002, Dist.Firozpur, Punjab",8046066644,
5 Piece Baby Feeder Cover Set,https://www.indiamart.com/proddetail/5-piece-baby-feeder-cover-set-24001290712.html?pos=169&kwd=baby bottle accessories&tags=||||8785.791|Price|product|||MDC|rsf:gd-|-qr_nm:gd|res:RC4|com-cf:nl|ptrs:na|ktp:N0|mc:98603|mtp:S|qry_typ:P|lang:en|wc:3|cs:7543|v=4,Navjal Enterprises,https://www.indiamart.com/navjal-enterprises/?pos=169&kwd=baby bottle accessories&tags=||||8785.791|Price|product|||MDC|rsf:gd-|-qr_nm:gd|res:RC4|com-cf:nl|ptrs:na|ktp:N0|mc:98603|mtp:S|qry_typ:P|lang:en|wc:3|cs:7543|v=4,False,Loni,Ghaziabad,"Plot No. F-30, Khasra No. 250, Ram Park, Dye House, Pargana, Loni, Lutfulapur Navada, Loni, Ghaziabad - 201102, Dist.Ghaziabad, Uttar Pradesh",8043878298,
"Green Disney Baby Bottle, Age Group: 1-2 Years, Size: 600",https://www.indiamart.com/proddetail/disney-baby-bottle-26311358562.html?pos=170&kwd=baby bottle accessories&tags=||||8228.275|Price|product|||TS|rsf:gd-|-qr_nm:gd|res:RC4|com-cf:nl|ptrs:na|ktp:N0|mc:98603|mtp:S|qry_typ:P|lang:en|wc:3|cs:7543|v=4,Gopinath Plast,https://www.gopinathplastic.com/?pos=170&kwd=baby bottle accessories&tags=||||8228.275|Price|product|||TS|rsf:gd-|-qr_nm:gd|res:RC4|com-cf:nl|ptrs:na|ktp:N0|mc:98603|mtp:S|qry_typ:P|lang:en|wc:3|cs:7543|v=4,False,Odhav,Ahmedabad,"A-19, Gopal Estate, Opposite Valabh Nagar, Odhav, Ahmedabad - 382415, Dist.Ahmedabad, Gujarat",8046079187,
"Dispenser Pump Hdpe Baby Bath Bottle, Use For Storage: Shampoo, 250 Ml",https://www.indiamart.com/proddetail/baby-bath-bottle-24971574733.html?pos=171&kwd=baby bottle accessories&tags=||||8752.144|Price|product|||TS|rsf:gd-|-qr_nm:gd|res:RC4|com-cf:nl|ptrs:na|ktp:N0|mc:98603|mtp:S|qry_typ:P|lang:en|wc:3|cs:7543|v=4,Vishwakarma Industries,https://www.indiamart.com/vishwakarma-industries-delhi/?pos=171&kwd=baby bottle accessories&tags=||||8752.144|Price|product|||TS|rsf:gd-|-qr_nm:gd|res:RC4|com-cf:nl|ptrs:na|ktp:N0|mc:98603|mtp:S|qry_typ:P|lang:en|wc:3|cs:7543|v=4,False,Badli,New Delhi,"Khasra No-43/36, Badli Village, Near Valmiki Temple,, Badli, New Delhi - 110042, Dist.Delhi, Delhi",8048601396,
"Plastic Transparent Baby Zain Feeding Bottle, 1-2 Years, Size: 250ml",https://www.indiamart.com/proddetail/baby-zain-feeding-bottle-21013661830.html?pos=172&kwd=baby bottle accessories&tags=||||8786.56|Price|product|||TS|rsf:gd-|-qr_nm:gd|res:RC4|com-cf:nl|ptrs:na|ktp:N0|mc:98603|mtp:S|qry_typ:P|lang:en|wc:3|cs:7543|v=4,Rajadhani Enterprises,https://www.rajadhanienterprises.in/?pos=172&kwd=baby bottle accessories&tags=||||8786.56|Price|product|||TS|rsf:gd-|-qr_nm:gd|res:RC4|com-cf:nl|ptrs:na|ktp:N0|mc:98603|mtp:S|qry_typ:P|lang:en|wc:3|cs:7543|v=4,False,Begum Bazar Pathan Wadi,Hyderabad,"15-6-588/1G, Agarwal Market, Siddiamber Bazar Satyanarayan Enclaves, Gol Masjid, Begum Bazar Pathan Wadi, Hyderabad - 500012, Dist.Hyderabad, Telangana",8047635606,
"Plastic NICE KIDS BOTTLE, Capacity: 500 mL",https://www.indiamart.com/proddetail/nice-kids-bottle-2854404322462.html?pos=173&kwd=baby bottle accessories&tags=||||8230.883|Price|product|||TS|rsf:gd-|-qr_nm:gd|res:RC4|com-cf:nl|ptrs:na|ktp:N0|mc:98603|mtp:S|qry_typ:P|lang:en|wc:3|cs:7543|v=4,Isabella (A Brand Of Shayona Creation),https://www.srkmart.com/?pos=173&kwd=baby bottle accessories&tags=||||8230.883|Price|product|||TS|rsf:gd-|-qr_nm:gd|res:RC4|com-cf:nl|ptrs:na|ktp:N0|mc:98603|mtp:S|qry_typ:P|lang:en|wc:3|cs:7543|v=4,False,Utran,Surat,"208, Turning Point Near Bank Of Baroda Bank, Utran, Surat - 394105, Dist.Surat, Gujarat",8046057635,
Born Baby Shipper Bottle,https://www.indiamart.com/proddetail/born-baby-shipper-bottle-2853067056055.html?pos=174&kwd=baby bottle accessories&tags=||||8038.093|Price|product|||TS|rsf:gd-|-qr_nm:gd|res:RC4|com-cf:nl|ptrs:na|ktp:N0|mc:98603|mtp:S|qry_typ:P|lang:en|wc:3|cs:7543|v=4,N K Enterprise,https://www.indiamart.com/nkenterpriseindia/?pos=174&kwd=baby bottle accessories&tags=||||8038.093|Price|product|||TS|rsf:gd-|-qr_nm:gd|res:RC4|com-cf:nl|ptrs:na|ktp:N0|mc:98603|mtp:S|qry_typ:P|lang:en|wc:3|cs:7543|v=4,False,Vavdi,Rajkot,"B/H Krishna Park, Jivraj Industrial Area 2,Revenue Survey No.47 Plot No.17, Vavdi Main Road, Gondal Road, Vavdi, Rajkot - 360004, Dist.Rajkot, Gujarat",7942722569,
Baby Glass Feeder Bottle,https://www.indiamart.com/proddetail/baby-glass-feeder-bottle-2853899066755.html?pos=175&kwd=baby bottle accessories&tags=||||8746.929|Price|product|||TS|rsf:gd-|-qr_nm:gd|res:RC4|com-cf:nl|ptrs:na|ktp:N0|mc:98603|mtp:S|qry_typ:P|lang:en|wc:3|cs:7543|v=4,Growson Healthcare,https://www.indiamart.com/growson-healthcare/?pos=175&kwd=baby bottle accessories&tags=||||8746.929|Price|product|||TS|rsf:gd-|-qr_nm:gd|res:RC4|com-cf:nl|ptrs:na|ktp:N0|mc:98603|mtp:S|qry_typ:P|lang:en|wc:3|cs:7543|v=4,False,Manimajra,Chandigarh,"Building No. 36/5, 2nd Floor, PWT, Manimajra, Chandigarh - 160101, Chandigarh",8047643425,
"Mom & Son Velvet Baby Bottle Cover, 1-2 Years",https://www.indiamart.com/proddetail/velvet-baby-bottle-cover-21888876748.html?pos=176&kwd=baby bottle accessories&tags=||||8752.144|Price|product|||TS|rsf:gd-|-qr_nm:gd|res:RC4|com-cf:nl|ptrs:na|ktp:N0|mc:98603|mtp:S|qry_typ:P|lang:en|wc:3|cs:7543|v=4,Mom & Son,https://www.theindianchoice.com/?pos=176&kwd=baby bottle accessories&tags=||||8752.144|Price|product|||TS|rsf:gd-|-qr_nm:gd|res:RC4|com-cf:nl|ptrs:na|ktp:N0|mc:98603|mtp:S|qry_typ:P|lang:en|wc:3|cs:7543|v=4,False,Karawal Nagar,New Delhi,"B-57 Gali Number-1 Mukund Vihar, Near Pnb Bank, Karawal Nagar, New Delhi - 110094, Dist.Delhi, Delhi",7942565509,
"PINK & BLUE Baby Shower Bottle medium, Age Group: Newly Born",https://www.indiamart.com/proddetail/baby-shower-bottle-medium-13036115133.html?pos=177&kwd=baby bottle accessories&tags=||||8211.142|Price|product|||TS|rsf:gd-|-qr_nm:gd|res:RC4|com-cf:nl|ptrs:na|ktp:N0|mc:98603|mtp:S|qry_typ:P|lang:en|wc:3|cs:7543|v=4,Party Shop,https://www.partyshops.in/?pos=177&kwd=baby bottle accessories&tags=||||8211.142|Price|product|||TS|rsf:gd-|-qr_nm:gd|res:RC4|com-cf:nl|ptrs:na|ktp:N0|mc:98603|mtp:S|qry_typ:P|lang:en|wc:3|cs:7543|v=4,False,Mandvi,Mumbai,"1st Floor, Umrigar Building, Above Badshah Cold Drink, Mandvi, Mumbai - 400003, Dist.Mumbai, Maharashtra",8046061811,
Maxfresh 304 Stainless Steel Baby Feeding Bottle Feeding Bottle for Baby BPA Free Bottle,https://www.indiamart.com/proddetail/maxfresh-304-stainless-steel-baby-feeding-bottle-feeding-bottle-for-baby-bpa-free-bottle-2852785444773.html?pos=178&kwd=baby bottle accessories&tags=||||8211.142|Price|product|||TS|rsf:gd-|-qr_nm:gd|res:RC4|com-cf:nl|ptrs:na|ktp:N0|mc:98603|mtp:S|qry_typ:P|lang:en|wc:3|cs:7543|v=4,Shree Vallabh Metals,https://www.shreevallabhmetals.in/?pos=178&kwd=baby bottle accessories&tags=||||8211.142|Price|product|||TS|rsf:gd-|-qr_nm:gd|res:RC4|com-cf:nl|ptrs:na|ktp:N0|mc:98603|mtp:S|qry_typ:P|lang:en|wc:3|cs:7543|v=4,True,Bhayandar East,Mumbai,"Gala No.8, H.P. Gas Godown Gali, Opposite Old Syndicate Bank, Bhayandar East, Mumbai - 401105, Dist.Mumbai, Maharashtra",8047623277,
Stainless Steel Baby Feeding Bottle,https://www.indiamart.com/proddetail/stainless-steel-baby-feeding-bottle-2853641928188.html?pos=179&kwd=baby bottle accessories&tags=||||8752.144|Price|product|||TS|rsf:gd-|-qr_nm:gd|res:RC4|com-cf:nl|ptrs:na|ktp:N0|mc:98603|mtp:S|qry_typ:P|lang:en|wc:3|cs:7543|v=4,Spills,https://www.indiamart.com/spills/?pos=179&kwd=baby bottle accessories&tags=||||8752.144|Price|product|||TS|rsf:gd-|-qr_nm:gd|res:RC4|com-cf:nl|ptrs:na|ktp:N0|mc:98603|mtp:S|qry_typ:P|lang:en|wc:3|cs:7543|v=4,False,Pahar Ganj,New Delhi,"1st Floor 2205/4 Pahar Ganj, Pahar Ganj, New Delhi - 110055, Dist.Delhi, Delhi",8047547921,
"Metal Baby Stainless Steel Feeding Bottle 250ML, Design/Pattern: Plain, 3-12 Months",https://www.indiamart.com/proddetail/baby-stainless-steel-feeding-bottle-250ml-26854877091.html?pos=180&kwd=baby bottle accessories&tags=||||8752.144|Price|product|||TS|rsf:gd-|-qr_nm:gd|res:RC4|com-cf:nl|ptrs:na|ktp:N0|mc:98603|mtp:S|qry_typ:P|lang:en|wc:3|cs:7543|v=4,Shri Shyam Enterprises,https://www.indiamart.com/shrishyamenterprisesnewdelhi/?pos=180&kwd=baby bottle accessories&tags=||||8752.144|Price|product|||TS|rsf:gd-|-qr_nm:gd|res:RC4|com-cf:nl|ptrs:na|ktp:N0|mc:98603|mtp:S|qry_typ:P|lang:en|wc:3|cs:7543|v=4,False,Tajpur Kalan,New Delhi,"House No.392, First Floor, Village Tajpur Kalan, North Delhi, Tajpur Kalan, New Delhi - 110036, Dist.Delhi, Delhi",8048212783,
"Kneaders Stainless Steel Baby Feeding Bottle, Capacity: 200 Ml, Size: 6 X 6 X 18 Cm",https://www.indiamart.com/proddetail/stainless-steel-baby-feeding-bottle-23187632155.html?pos=181&kwd=baby bottle accessories&tags=||||8223.226|Price|product|||TS|rsf:gd-|-qr_nm:gd|res:RC4|com-cf:nl|ptrs:na|ktp:N0|mc:98603|mtp:S|qry_typ:P|lang:en|wc:3|cs:7543|v=4,Tim Engineering,https://www.indiamart.com/timengineering-thane/?pos=181&kwd=baby bottle accessories&tags=||||8223.226|Price|product|||TS|rsf:gd-|-qr_nm:gd|res:RC4|com-cf:nl|ptrs:na|ktp:N0|mc:98603|mtp:S|qry_typ:P|lang:en|wc:3|cs:7543|v=4,False,Bhayandar West,Thane,"I-24, Swastik Ind.estate , Goddev Fatak Road, Bhayandar West, Thane - 401101, Dist.Thane, Maharashtra",8048954305,
"White Bonne Kid Plastic Baby Bottle, Age Group: 3-12 Months, Capacity: 160ml",https://www.indiamart.com/proddetail/bonne-kid-plastic-baby-bottle-26229713430.html?pos=182&kwd=baby bottle accessories&tags=||||8559.269||product|||TS|rsf:gd-|-qr_nm:gd|res:RC4|com-cf:nl|ptrs:na|ktp:N0|mc:98603|mtp:S|qry_typ:P|lang:en|wc:3|cs:7543|v=4,Subhash Stores,https://www.indiamart.com/subhash-stores/?pos=182&kwd=baby bottle accessories&tags=||||8559.269||product|||TS|rsf:gd-|-qr_nm:gd|res:RC4|com-cf:nl|ptrs:na|ktp:N0|mc:98603|mtp:S|qry_typ:P|lang:en|wc:3|cs:7543|v=4,False,Gadi Adda,Indore,"77, RANIPURA MAIN ROAD INDORE, Gadi Adda, Indore - 452001, Dist.Indore, Madhya Pradesh",8047698960,
Steel Baby Feeding Bottle 150ml,https://www.indiamart.com/proddetail/steel-baby-feeding-bottle-150ml-2854428613397.html?pos=183&kwd=baby bottle accessories&tags=||||8210.732|Price|product|||TS|rsf:gd-|-qr_nm:gd|res:RC4|com-cf:nl|ptrs:na|ktp:N0|mc:98603|mtp:S|qry_typ:P|lang:en|wc:3|cs:7543|v=4,B Shah Enterprises,https://www.indiamart.com/bshahenterprises/?pos=183&kwd=baby bottle accessories&tags=||||8210.732|Price|product|||TS|rsf:gd-|-qr_nm:gd|res:RC4|com-cf:nl|ptrs:na|ktp:N0|mc:98603|mtp:S|qry_typ:P|lang:en|wc:3|cs:7543|v=4,False,Vasai West,Vasai Virar,"Shop No 19, Dhuri Campus Building, Suncity, Near 100 feet Road,, Vasai West, Vasai Virar - 401202, Dist.Thane, Maharashtra",8047633191,
"White Steel Feeding Bottle For Baby, Design/Pattern: Round, Capacity: 150 ml",https://www.indiamart.com/proddetail/steel-feeding-bottle-for-baby-25383024533.html?pos=184&kwd=baby bottle accessories&tags=||||8954.051||product|||TS|rsf:gd-|-qr_nm:gd|res:RC4|com-cf:nl|ptrs:na|ktp:N0|mc:98603|mtp:S|qry_typ:P|lang:en|wc:3|cs:7543|v=4,Sha Mangnajee Bhawarlal,https://www.smbestore.in/?pos=184&kwd=baby bottle accessories&tags=||||8954.051||product|||TS|rsf:gd-|-qr_nm:gd|res:RC4|com-cf:nl|ptrs:na|ktp:N0|mc:98603|mtp:S|qry_typ:P|lang:en|wc:3|cs:7543|v=4,False,Sowcarpet,Chennai,"Building 33, Narayana Mudali Street Sowcarpet, Sowcarpet, Chennai - 600079, Dist.Chennai, Tamil Nadu",8048963829,
"Silver Metal Stainless Steel Baby Feeding Bottle, Design/Pattern: Round, Capacity: 200 mL",https://www.indiamart.com/proddetail/stainless-steel-baby-feeding-bottle-2853236379288.html?pos=185&kwd=baby bottle accessories&tags=||||8211.142|Price|product|||TS|rsf:gd-|-qr_nm:gd|res:RC4|com-cf:nl|ptrs:na|ktp:N0|mc:98603|mtp:S|qry_typ:P|lang:en|wc:3|cs:7543|v=4,Stallion Enterprise,https://www.stallionenterprise.com/?pos=185&kwd=baby bottle accessories&tags=||||8211.142|Price|product|||TS|rsf:gd-|-qr_nm:gd|res:RC4|com-cf:nl|ptrs:na|ktp:N0|mc:98603|mtp:S|qry_typ:P|lang:en|wc:3|cs:7543|v=4,False,Kandivali West,Mumbai,"Plot No. 136- ABC, Kandivali Government Industrial Estate Charkop, Kandivali West, Mumbai - 400067, Dist.Mumbai, Maharashtra",8048983208,
Stainless Steel Baby Feeding Bottle,https://www.indiamart.com/proddetail/stainless-steel-baby-feeding-bottle-2853962286362.html?pos=186&kwd=baby bottle accessories&tags=||||8038.093|Price|product|||TS|rsf:gd-|-qr_nm:gd|res:RC4|com-cf:nl|ptrs:na|ktp:N0|mc:98603|mtp:S|qry_typ:P|lang:en|wc:3|cs:7543|v=4,Trishul Marketing,https://www.trishulmarketing.com/?pos=186&kwd=baby bottle accessories&tags=||||8038.093|Price|product|||TS|rsf:gd-|-qr_nm:gd|res:RC4|com-cf:nl|ptrs:na|ktp:N0|mc:98603|mtp:S|qry_typ:P|lang:en|wc:3|cs:7543|v=4,False,Mavdi,Rajkot,"NR Shree Ram Sweet Mart, 1 Amar Nagar, Mavdi, Rajkot - 360004, Dist.Rajkot, Gujarat",7942564686,
"Plastic baby bottle, Age Group: 3-12 Months",https://www.indiamart.com/proddetail/baby-bottle-2854299635530.html?pos=187&kwd=baby bottle accessories&tags=||||8038.093|Price|product|||MDC|rsf:gd-|-qr_nm:gd|res:RC4|com-cf:nl|ptrs:na|ktp:N0|mc:98603|mtp:S|qry_typ:P|lang:en|wc:3|cs:7543|v=4,Prime Enterprise,https://www.indiamart.com/prime-enterpriserajkotgujarat/?pos=187&kwd=baby bottle accessories&tags=||||8038.093|Price|product|||MDC|rsf:gd-|-qr_nm:gd|res:RC4|com-cf:nl|ptrs:na|ktp:N0|mc:98603|mtp:S|qry_typ:P|lang:en|wc:3|cs:7543|v=4,False,Rajkot,Rajkot,"Prime Polymers Khodiyar Ind.Area, Dhebar Road, Rajkot, Rajkot - 360001, Dist.Rajkot, Gujarat",7949220525,
"60 ML PP Candy Red Plastic Baby Feeding Bottle, Packaging Type: Box, 3-12 Months",https://www.indiamart.com/proddetail/60-ml-pp-candy-red-plastic-baby-feeding-bottle-24231620491.html?pos=188&kwd=baby bottle accessories&tags=||||8238.463|Price|product|||TS|rsf:gd-|-qr_nm:gd|res:RC4|com-cf:nl|ptrs:na|ktp:N0|mc:98603|mtp:S|qry_typ:P|lang:en|wc:3|cs:7543|v=4,Chemco Plastic Industries Pvt. Ltd.,https://www.indiamart.com/chemcoplastic/?pos=188&kwd=baby bottle accessories&tags=||||8238.463|Price|product|||TS|rsf:gd-|-qr_nm:gd|res:RC4|com-cf:nl|ptrs:na|ktp:N0|mc:98603|mtp:S|qry_typ:P|lang:en|wc:3|cs:7543|v=4,False,Colaba,Silvassa,"Survey No 227/1/1, Chemco Complex, Silvassa Sayali Road, Colaba, Silvassa - 396230, Dist.Dadra and Nagar Haveli and Daman and Diu, Dadra and Nagar Haveli and Daman and Diu",8048616523,
Babies Tights,https://www.indiamart.com/proddetail/babies-tights-2852664967433.html?pos=189&kwd=baby bottle accessories&tags=||||8626.744||product|||TS|rsf:gd-|-qr_nm:gd|res:RC4|com-cf:nl|ptrs:na|ktp:N0|mc:98603|mtp:S|qry_typ:P|lang:en|wc:3|cs:7543|v=4,Srie K.S.K. Tex,https://www.indiamart.com/srieksktex-tiruppur/?pos=189&kwd=baby bottle accessories&tags=||||8626.744||product|||TS|rsf:gd-|-qr_nm:gd|res:RC4|com-cf:nl|ptrs:na|ktp:N0|mc:98603|mtp:S|qry_typ:P|lang:en|wc:3|cs:7543|v=4,False,Radha Nagar,Tiruppur,"28A, NA, Sv Colony, 6th Street, PN Road,Coimbatore, Radha Nagar, Tiruppur - 641602, Dist.Coimbatore, Tamil Nadu",8047850887,
"Sivam Export baby cotton muslin Burb Cloth, Packaging Type: Box",https://www.indiamart.com/proddetail/baby-cotton-muslin-burb-cloth-25396604348.html?pos=190&kwd=baby bottle accessories&tags=||||8706.263|Price|product|||TS|rsf:gd-|-qr_nm:gd|res:RC4|com-cf:nl|ptrs:na|ktp:N0|mc:98603|mtp:S|qry_typ:P|lang:en|wc:3|cs:7543|v=4,Sivam Export,https://www.indiamart.com/sivamexport-karur/?pos=190&kwd=baby bottle accessories&tags=||||8706.263|Price|product|||TS|rsf:gd-|-qr_nm:gd|res:RC4|com-cf:nl|ptrs:na|ktp:N0|mc:98603|mtp:S|qry_typ:P|lang:en|wc:3|cs:7543|v=4,False,,Karur,"6/1 Thiru Nagar,3rd Street, Karur - 639002, Dist.Karur, Tamil Nadu",8046050918,
Organic Baby Burp Cloth,https://www.indiamart.com/proddetail/organic-baby-burp-cloth-2853049784933.html?pos=191&kwd=baby bottle accessories&tags=||||8662.111|Price|product|||TS|rsf:gd-|-qr_nm:gd|res:RC4|com-cf:nl|ptrs:na|ktp:N0|mc:98603|mtp:S|qry_typ:P|lang:en|wc:3|cs:7543|v=4,Rovee Garments,https://www.indiamart.com/rovee-garments/?pos=191&kwd=baby bottle accessories&tags=||||8662.111|Price|product|||TS|rsf:gd-|-qr_nm:gd|res:RC4|com-cf:nl|ptrs:na|ktp:N0|mc:98603|mtp:S|qry_typ:P|lang:en|wc:3|cs:7543|v=4,False,State Bank Colony,Tirunelveli,"70, State Bank Colony, Ezhil Nagar, Ngo A Colony, State Bank Colony, Tirunelveli - 627007, Dist.Tirunelveli, Tamil Nadu",7942840922,
Babies Tights,https://www.indiamart.com/proddetail/babies-tights-2854191741688.html?pos=192&kwd=baby bottle accessories&tags=||||8829.931|Price|product|||TS|rsf:gd-|-qr_nm:gd|res:RC4|com-cf:nl|ptrs:na|ktp:N0|mc:98603|mtp:S|qry_typ:P|lang:en|wc:3|cs:7543|v=4,Equipment Engineering,https://www.indiamart.com/equipmentengineering/?pos=192&kwd=baby bottle accessories&tags=||||8829.931|Price|product|||TS|rsf:gd-|-qr_nm:gd|res:RC4|com-cf:nl|ptrs:na|ktp:N0|mc:98603|mtp:S|qry_typ:P|lang:en|wc:3|cs:7543|v=4,True,Sathuvachari,Kaniyambadi,"No. 4/72A, North Street, Munjurpet, Sathuvachari, Kaniyambadi - 632057, Dist.Vellore, Tamil Nadu",8043852492,
"Trust Haven Soft Baby Brush (Long Shape Handle), For Tooth Cleaning, Packaging Size: Medium",https://www.indiamart.com/proddetail/baby-brush-long-shape-handle-25700326591.html?pos=193&kwd=baby bottle accessories&tags=||||8230.883|Price|product|||TS|rsf:gd-|-qr_nm:gd|res:RC4|com-cf:nl|ptrs:na|ktp:N0|mc:98603|mtp:S|qry_typ:P|lang:en|wc:3|cs:7543|v=4,Trusthaven,https://www.indiamart.com/ankush-international-surat/?pos=193&kwd=baby bottle accessories&tags=||||8230.883|Price|product|||TS|rsf:gd-|-qr_nm:gd|res:RC4|com-cf:nl|ptrs:na|ktp:N0|mc:98603|mtp:S|qry_typ:P|lang:en|wc:3|cs:7543|v=4,False,Varni palace near rasi circle,Surat,"Buil-B, Flat No. B/501, Opp. Western Somchintamani, Sahstrafana Saubhagya Residency, Pal Katargam, Varni palace near rasi circle, Surat - 395009, Dist.Surat, Gujarat",8048964329,
White Baby Bath Robe,https://www.indiamart.com/proddetail/baby-bath-robe-11829398212.html?pos=194&kwd=baby bottle accessories&tags=||||8778.123|Price|product|||TS|rsf:gd-|-qr_nm:gd|res:RC4|com-cf:nl|ptrs:na|ktp:N0|mc:98603|mtp:S|qry_typ:P|lang:en|wc:3|cs:7543|v=4,Oscar Overseas,https://www.oscar-india.com/?pos=194&kwd=baby bottle accessories&tags=||||8778.123|Price|product|||TS|rsf:gd-|-qr_nm:gd|res:RC4|com-cf:nl|ptrs:na|ktp:N0|mc:98603|mtp:S|qry_typ:P|lang:en|wc:3|cs:7543|v=4,False,,Noida,"A-99 Sector 5, Noida - 201301, Dist.Gautam Budh Nagar, Uttar Pradesh",8046058290,
"Silver Apex baby bottle big 240 ML, Age Group: Newly Born",https://www.indiamart.com/proddetail/apex-baby-bottle-big-240-ml-2851671994373.html?pos=195&kwd=baby bottle accessories&tags=||||8752.144|Price|product|||TS|rsf:gd-|-qr_nm:gd|res:RC4|com-cf:nl|ptrs:na|ktp:N0|mc:98603|mtp:S|qry_typ:P|lang:en|wc:3|cs:7543|v=4,M/s Yamuna Impex,https://www.yamunaimpex.com/?pos=195&kwd=baby bottle accessories&tags=||||8752.144|Price|product|||TS|rsf:gd-|-qr_nm:gd|res:RC4|com-cf:nl|ptrs:na|ktp:N0|mc:98603|mtp:S|qry_typ:P|lang:en|wc:3|cs:7543|v=4,False,Chandni Chowk,New Delhi,"3751 groundfloor maman jamadar street pahadi sadar bazar delhi 06, Chandni Chowk, New Delhi - 110006, Dist.Delhi, Delhi",8047637986,
Stainless Steel Baby Feeding Milk Bottle,https://www.indiamart.com/proddetail/stainless-steel-baby-feeding-milk-bottle-2854137181388.html?pos=196&kwd=baby bottle accessories&tags=||||8584.299|Price|product|||TS|rsf:gd-|-qr_nm:gd|res:RC4|com-cf:nl|ptrs:na|ktp:N0|mc:98603|mtp:S|qry_typ:P|lang:en|wc:3|cs:7543|v=4,BKH Enterprises,https://www.bkhenterprises.net/?pos=196&kwd=baby bottle accessories&tags=||||8584.299|Price|product|||TS|rsf:gd-|-qr_nm:gd|res:RC4|com-cf:nl|ptrs:na|ktp:N0|mc:98603|mtp:S|qry_typ:P|lang:en|wc:3|cs:7543|v=4,False,Annai Indra Nagar,Coimbatore,"45,West Subramaniam Street,RS Puram, Annai Indra Nagar, Coimbatore - 641001, Dist.Coimbatore, Tamil Nadu",8046066722,
Baby Dry Robes,https://www.indiamart.com/proddetail/baby-dry-robes-3736970055.html?pos=197&kwd=baby bottle accessories&tags=||||8211.142||product|||TS|rsf:gd-|-qr_nm:gd|res:RC4|com-cf:nl|ptrs:na|ktp:N0|mc:98603|mtp:S|qry_typ:P|lang:en|wc:3|cs:7543|v=4,Dhrupti Creation,https://www.indiamart.com/littlecare/?pos=197&kwd=baby bottle accessories&tags=||||8211.142||product|||TS|rsf:gd-|-qr_nm:gd|res:RC4|com-cf:nl|ptrs:na|ktp:N0|mc:98603|mtp:S|qry_typ:P|lang:en|wc:3|cs:7543|v=4,False,Malad East,Mumbai,"Gala No. 3, Jignesh Diamond House, Near Vaishnavdevi Mandir, Subhash Lane, Malad East, Malad East, Mumbai - 400097, Dist.Mumbai, Maharashtra",8048970316,
available in 4 Color Cotton Unicorn Kids Bathrobe for Girls & Boys,https://www.indiamart.com/proddetail/cotton-unicorn-kids-bathrobe-for-girls-boys-2851950029562.html?pos=198&kwd=baby bottle accessories&tags=||||8747.223|Price|product|||TS|rsf:gd-|-qr_nm:gd|res:RC4|com-cf:nl|ptrs:na|ktp:N0|mc:98603|mtp:S|qry_typ:P|lang:en|wc:3|cs:7543|v=4,Rangoli Furnishings Private Limited,https://www.indiamart.com/rangolifurnishings/?pos=198&kwd=baby bottle accessories&tags=||||8747.223|Price|product|||TS|rsf:gd-|-qr_nm:gd|res:RC4|com-cf:nl|ptrs:na|ktp:N0|mc:98603|mtp:S|qry_typ:P|lang:en|wc:3|cs:7543|v=4,False,Sector 53,Sonipat,"300C, EPIP, Phase 2, HSIIDC Industrial Estate Kundli, GT Karnal Road, NH1, Sector 53, Sonipat - 131028, Dist.Sonipat, Haryana",8046068428,
Rapunzel Kids Costume,https://www.indiamart.com/proddetail/rapunzel-kids-costume-2852397436997.html?pos=199&kwd=baby bottle accessories&tags=||||8752.144|Price|product|||TS|rsf:gd-|-qr_nm:gd|res:RC4|com-cf:nl|ptrs:na|ktp:N0|mc:98603|mtp:S|qry_typ:P|lang:en|wc:3|cs:7543|v=4,Lugo Synthetics,https://www.indiamart.com/lugosynthetics/?pos=199&kwd=baby bottle accessories&tags=||||8752.144|Price|product|||TS|rsf:gd-|-qr_nm:gd|res:RC4|com-cf:nl|ptrs:na|ktp:N0|mc:98603|mtp:S|qry_typ:P|lang:en|wc:3|cs:7543|v=4,False,Mahavir Enclave,New Delhi,"Pole No-289 H No-337, Block-F, Mahavir Enclave Palam, Mahavir Enclave, New Delhi - 110045, Dist.Delhi, Delhi",8043859016,
Babies Stripe Tights,https://www.indiamart.com/proddetail/babies-stripe-tights-24264369088.html?pos=200&kwd=baby bottle accessories&tags=||||8741.812|Price|product|||TS|rsf:gd-|-qr_nm:gd|res:RC4|com-cf:nl|ptrs:na|ktp:N0|mc:98603|mtp:S|qry_typ:P|lang:en|wc:3|cs:7543|v=4,Renu Enterprises,https://www.indiamart.com/renu-enterprises-gurgaon/?pos=200&kwd=baby bottle accessories&tags=||||8741.812|Price|product|||TS|rsf:gd-|-qr_nm:gd|res:RC4|com-cf:nl|ptrs:na|ktp:N0|mc:98603|mtp:S|qry_typ:P|lang:en|wc:3|cs:7543|v=4,False,Palam Vihar,Gurugram,"Plot No. 19 P Sector-2 C, Near Vyapar Kendra Market , Palam Vihar, Palam Vihar, Gurugram - 122017, Dist.Gurgaon, Haryana",7942562752,
DISNEY BABY GIRLS SWEATPAN,https://www.indiamart.com/proddetail/disney-baby-girls-sweatpan-2849634830012.html?pos=201&kwd=baby bottle accessories&tags=||||8626.744|Price|product|||TS|rsf:gd-|-qr_nm:gd|res:RC4|com-cf:nl|ptrs:na|ktp:N0|mc:98603|mtp:S|qry_typ:P|lang:en|wc:3|cs:7543|v=4,Sree Raj Kondal Export Enterprises,https://www.indiamart.com/sreerajkondalexportenterprises/?pos=201&kwd=baby bottle accessories&tags=||||8626.744|Price|product|||TS|rsf:gd-|-qr_nm:gd|res:RC4|com-cf:nl|ptrs:na|ktp:N0|mc:98603|mtp:S|qry_typ:P|lang:en|wc:3|cs:7543|v=4,False,Gandhi Nagar,Tiruppur,"8/191 E, A V P Layout, Angeripalayam, Gandhi Nagar, Tiruppur - 641603, Dist.Coimbatore, Tamil Nadu",8043890249,
Muslin Burp Clothes,https://www.indiamart.com/proddetail/muslin-burp-clothes-2854169632712.html?pos=202&kwd=baby bottle accessories&tags=||||8668.838|Price|product|||TS|rsf:gd-|-qr_nm:gd|res:RC4|com-cf:nl|ptrs:na|ktp:N0|mc:98603|mtp:S|qry_typ:P|lang:en|wc:3|cs:7543|v=4,New Asia Textiles,https://www.indiamart.com/new-asia-textiles/?pos=202&kwd=baby bottle accessories&tags=||||8668.838|Price|product|||TS|rsf:gd-|-qr_nm:gd|res:RC4|com-cf:nl|ptrs:na|ktp:N0|mc:98603|mtp:S|qry_typ:P|lang:en|wc:3|cs:7543|v=4,False,,Erode,"42, Mosikeeranar Street-4 indra nagar, Erode - 638003, Dist.Erode, Tamil Nadu",8046070169,
Plastic Readymade Garments Accessories,https://www.indiamart.com/proddetail/readymade-garments-accessories-19808910297.html?pos=203&kwd=baby bottle accessories&tags=||||8231.259|Price|product|||TS|rsf:gd-|-qr_nm:gd|res:RC4|com-cf:nl|ptrs:na|ktp:N0|mc:98603|mtp:S|qry_typ:P|lang:en|wc:3|cs:7543|v=4,Naressh Enterprises,https://www.indiamart.com/nareshent/?pos=203&kwd=baby bottle accessories&tags=||||8231.259|Price|product|||TS|rsf:gd-|-qr_nm:gd|res:RC4|com-cf:nl|ptrs:na|ktp:N0|mc:98603|mtp:S|qry_typ:P|lang:en|wc:3|cs:7543|v=4,False,Kalher,Bhiwandi,"No.3- Gala No G/118, 1st Floor, Shiv Shakti Complex, Kalher Village, Kalher, Bhiwandi - 421302, Maharashtra",8047647177,
Radha Costume For Baby Girl,https://www.indiamart.com/proddetail/radha-costume-for-baby-girl-26339608248.html?pos=204&kwd=baby bottle accessories&tags=||||8706.587|Price|product|||TS|rsf:gd-|-qr_nm:gd|res:RC4|com-cf:nl|ptrs:na|ktp:N0|mc:98603|mtp:S|qry_typ:P|lang:en|wc:3|cs:7543|v=4,VVK Traders,https://www.indiamart.com/v-v-ktraders/?pos=204&kwd=baby bottle accessories&tags=||||8706.587|Price|product|||TS|rsf:gd-|-qr_nm:gd|res:RC4|com-cf:nl|ptrs:na|ktp:N0|mc:98603|mtp:S|qry_typ:P|lang:en|wc:3|cs:7543|v=4,False,Madurai Main,Madurai,"Plot 13, Mullai Malar 2nd Street, Thiruppalai,, Madurai Main, Madurai - 625014, Dist.Madurai, Tamil Nadu",8043858852,
300 Ml Baby Milk Bottle (Without Cap),https://www.indiamart.com/proddetail/300-ml-baby-milk-bottle-without-cap-2849631314873.html?pos=205&kwd=baby bottle accessories&tags=||||8861.147||product|||TS|rsf:gd-|-qr_nm:gd|res:RC4|com-cf:nl|ptrs:na|ktp:N0|mc:98603|mtp:S|qry_typ:P|lang:en|wc:3|cs:7543|v=4,Shopguru India,https://www.indiamart.com/shopguru-india/?pos=205&kwd=baby bottle accessories&tags=||||8861.147||product|||TS|rsf:gd-|-qr_nm:gd|res:RC4|com-cf:nl|ptrs:na|ktp:N0|mc:98603|mtp:S|qry_typ:P|lang:en|wc:3|cs:7543|v=4,False,,Firozabad,"0 Agra Road Firozabad, Firozabad - 283203, Dist.Firozabad, Uttar Pradesh",7942798332,
GANESH STAINLESS STEEL BABY FEEDING BOTTLE 8173,https://www.indiamart.com/proddetail/ganesh-stainless-steel-baby-feeding-bottle-8173-2853904304062.html?pos=206&kwd=baby bottle accessories&tags=||||8038.093|Price|product|||TS|rsf:gd-|-qr_nm:gd|res:RC4|com-cf:nl|ptrs:na|ktp:N0|mc:98603|mtp:S|qry_typ:P|lang:en|wc:3|cs:7543|v=4,Deodap,https://www.indiamart.com/deodap/?pos=206&kwd=baby bottle accessories&tags=||||8038.093|Price|product|||TS|rsf:gd-|-qr_nm:gd|res:RC4|com-cf:nl|ptrs:na|ktp:N0|mc:98603|mtp:S|qry_typ:P|lang:en|wc:3|cs:7543|v=4,False,Rajkot,Rajkot,"plot No. 9 Behind Patanjali Werhouse, Ruda Transport, Saat Hanuman Ahemdabad Road, Rajkot, Rajkot - 360005, Dist.Rajkot, Gujarat",8048972316,
"Plastic Mamta Baby Kids Small Feeding Bottle 125 ML, Age Group: 3-12 Months",https://www.indiamart.com/proddetail/mamta-baby-kids-small-feeding-bottle-125-ml-2852402781091.html?pos=207&kwd=baby bottle accessories&tags=||||9839.57|Price|product|||TS|rsf:gd-|-qr_nm:gd|res:RC4|com-cf:nl|ptrs:na|ktp:N0|mc:98603|mtp:S|qry_typ:P|lang:en|wc:3|cs:7543|v=4,Soni Brothers,https://www.indiamart.com/soni-brothers-kolkata/?pos=207&kwd=baby bottle accessories&tags=||||9839.57|Price|product|||TS|rsf:gd-|-qr_nm:gd|res:RC4|com-cf:nl|ptrs:na|ktp:N0|mc:98603|mtp:S|qry_typ:P|lang:en|wc:3|cs:7543|v=4,False,Vaishya Sabha,Kolkata,"15, Ram Mohan Mullick Lane, Vaishya Sabha, Kolkata - 700007, Dist.Kolkata, West Bengal",8048963399,
Baby feeding Bottle with character- 250 Ml,https://www.indiamart.com/proddetail/baby-feeding-bottle-with-character-250-ml-2850711107733.html?pos=208&kwd=baby bottle accessories&tags=||||9528.781|Price|product|||TS|rsf:gd-|-qr_nm:gd|res:RC4|com-cf:nl|ptrs:na|ktp:N0|mc:98603|mtp:S|qry_typ:P|lang:en|wc:3|cs:7543|v=4,Fingo Brain,https://www.indiamart.com/fingo-brain/?pos=208&kwd=baby bottle accessories&tags=||||9528.781|Price|product|||TS|rsf:gd-|-qr_nm:gd|res:RC4|com-cf:nl|ptrs:na|ktp:N0|mc:98603|mtp:S|qry_typ:P|lang:en|wc:3|cs:7543|v=4,False,Upper Bazar,Ranchi,"402, 5TH Floor, Nand Rani Tower,SBI Bank Building,Main Road Near Daily Market, Upper Bazar, Ranchi - 834001, Dist.Ranchi, Jharkhand",8047305952,
"Silver Baby Feeding Bottle, Capacity: 200 ml, Age Group: 3-12 Months",https://www.indiamart.com/proddetail/baby-feeding-bottle-2854275260430.html?pos=209&kwd=baby bottle accessories&tags=||||8663.873|Price|product|||MDC|rsf:gd-|-qr_nm:gd|res:RC4|com-cf:nl|ptrs:na|ktp:N0|mc:98603|mtp:S|qry_typ:P|lang:en|wc:3|cs:7543|v=4,Shivam Impex,https://www.indiamart.com/shivam-impex-bengaluru/?pos=209&kwd=baby bottle accessories&tags=||||8663.873|Price|product|||MDC|rsf:gd-|-qr_nm:gd|res:RC4|com-cf:nl|ptrs:na|ktp:N0|mc:98603|mtp:S|qry_typ:P|lang:en|wc:3|cs:7543|v=4,False,,Bengaluru,"Ground Floor, No.27, Ganigarpete, Mari Munianna Lane M.M LANE, Clumaxx Technologies Nagartapete Cross, Bengaluru Urban, Bengaluru - 560002, Dist.Bengaluru, Karnataka",8045735904,
"tallboy metal Baby Feeding Bottle, Capacity: 150, Newly Born",https://www.indiamart.com/proddetail/baby-feeding-bottle-21240252730.html?pos=210&kwd=baby bottle accessories&tags=||||8663.873|Price|product|||MDC|rsf:gd-|-qr_nm:gd|res:RC4|com-cf:nl|ptrs:na|ktp:N0|mc:98603|mtp:S|qry_typ:P|lang:en|wc:3|cs:7543|v=4,Adkraft (India),https://www.indiamart.com/adkraftindia/?pos=210&kwd=baby bottle accessories&tags=||||8663.873|Price|product|||MDC|rsf:gd-|-qr_nm:gd|res:RC4|com-cf:nl|ptrs:na|ktp:N0|mc:98603|mtp:S|qry_typ:P|lang:en|wc:3|cs:7543|v=4,False,Nagapura,Bengaluru,"452, 12th Cross, West Of Chord Road, 2 Stage, Nagapura, Bengaluru - 560086, Dist.Bengaluru, Karnataka",8046037274,
