product_title,product_link,company_name,company_link,is_verified_exporter,city_region,city,address_details,phone_number,phone_number_extension
Multicolor Baby Electric Nail Trimmer,https://www.indiamart.com/proddetail/baby-electric-nail-trimmer-2849179212830.html?pos=1&kwd=baby nail clippers&tags=A||||8230.883|Price|product|||TS|rsf:gd-|-stype:attr=1|qr_nm:gd|res:RC3|com-cf:nl|ptrs:na|ktp:N0|mc:208877|mtp:S|qry_typ:P|lang:en|wc:3|flavl:3|cs:9662|v=4,Buyerzone Enterprise,https://www.thebuyerzone.in/?pos=1&kwd=baby nail clippers&tags=A||||8230.883|Price|product|||TS|rsf:gd-|-stype:attr=1|qr_nm:gd|res:RC3|com-cf:nl|ptrs:na|ktp:N0|mc:208877|mtp:S|qry_typ:P|lang:en|wc:3|flavl:3|cs:9662|v=4,False,Katargam,Surat,"Plot No.247-1st Floor, Above E-Com Courier,Near Laxmi Residency, Katargam Vastadevadi Road, Katargam, Surat - 395004, Dist.Surat, Gujarat",8048966965,
"Red Baby Nail Trimmer, For Manual",https://www.indiamart.com/proddetail/baby-nail-trimmer-2848950077662.html?pos=2&kwd=baby nail clippers&tags=A||||8230.883|Price|product|||TS|rsf:gd-|-stype:attr=1|qr_nm:gd|res:RC3|com-cf:nl|ptrs:na|ktp:N0|mc:208877|mtp:S|qry_typ:P|lang:en|wc:3|flavl:3|cs:9662|v=4,Glorious Enterprise,https://www.indiamart.com/glorious-enterprisesurat/?pos=2&kwd=baby nail clippers&tags=A||||8230.883|Price|product|||TS|rsf:gd-|-stype:attr=1|qr_nm:gd|res:RC3|com-cf:nl|ptrs:na|ktp:N0|mc:208877|mtp:S|qry_typ:P|lang:en|wc:3|flavl:3|cs:9662|v=4,False,Varachha Road,Surat,"2nd Floor, Plot No.126, Shraddha Raw House, Varachha Road, Sarthana Community Hall, Nana Varachha, Varachha Road, Surat - 395006, Dist.Surat, Gujarat",8047805064,
Blue Baby Nail Trimmer,https://www.indiamart.com/proddetail/blue-baby-nail-trimmer-2854774035062.html?pos=3&kwd=baby nail clippers&tags=A||||8230.883|Price|product|||TS|rsf:gd-|-stype:attr=1|qr_nm:gd|res:RC3|com-cf:nl|ptrs:na|ktp:N0|mc:208877|mtp:S|qry_typ:P|lang:en|wc:3|flavl:3|cs:9662|v=4,Dass Enterprise,https://www.indiamart.com/dassenterprise/?pos=3&kwd=baby nail clippers&tags=A||||8230.883|Price|product|||TS|rsf:gd-|-stype:attr=1|qr_nm:gd|res:RC3|com-cf:nl|ptrs:na|ktp:N0|mc:208877|mtp:S|qry_typ:P|lang:en|wc:3|flavl:3|cs:9662|v=4,False,,Surat,"First Floor Shop No-111 Yogi Chowk The Galleria, Surat - 395010, Dist.Surat, Gujarat",7949340419,
New Baby Nail File,https://www.indiamart.com/proddetail/new-baby-nail-file-2851620556688.html?pos=4&kwd=baby nail clippers&tags=A||||8230.883|Price|product|||MDC|rsf:gd-|-stype:attr=1|qr_nm:gd|res:RC3|com-cf:nl|ptrs:na|ktp:N0|mc:208877|mtp:S|qry_typ:P|lang:en|wc:3|flavl:3|cs:9662|v=4,Bosig Mart,https://www.indiamart.com/bosigmart/?pos=4&kwd=baby nail clippers&tags=A||||8230.883|Price|product|||MDC|rsf:gd-|-stype:attr=1|qr_nm:gd|res:RC3|com-cf:nl|ptrs:na|ktp:N0|mc:208877|mtp:S|qry_typ:P|lang:en|wc:3|flavl:3|cs:9662|v=4,False,Dabholi Village,Surat,"27, Hari Om Nagar Society, Jahangirpura, Dabholi Village, Surat - 395005, Dist.Surat, Gujarat",7942837519,
"Blue Baby Nail Trimmer, Packaging Type: Bottle, 3-12 Months",https://www.indiamart.com/proddetail/baby-nail-trimmer-2854028353012.html?pos=5&kwd=baby nail clippers&tags=A||||8230.883|Price|product|||TS|rsf:gd-|-stype:attr=1|qr_nm:gd|res:RC3|com-cf:nl|ptrs:na|ktp:N0|mc:208877|mtp:S|qry_typ:P|lang:en|wc:3|flavl:3|cs:9662|v=4,Shree Lalankrupa Enterprise,https://www.indiamart.com/shree-lalankrupa-enterprise/?pos=5&kwd=baby nail clippers&tags=A||||8230.883|Price|product|||TS|rsf:gd-|-stype:attr=1|qr_nm:gd|res:RC3|com-cf:nl|ptrs:na|ktp:N0|mc:208877|mtp:S|qry_typ:P|lang:en|wc:3|flavl:3|cs:9662|v=4,False,Punagam,Surat,"132 Punagam Gautam Park Soc Chorasi Surat, Punagam, Surat - 395010, Dist.Surat, Gujarat",8044562706,
"Blue Automatic Baby Nail Trimmer, Electric, 3-12 Months",https://www.indiamart.com/proddetail/automatic-baby-nail-trimmer-2853948136212.html?pos=6&kwd=baby nail clippers&tags=A||||8230.883|Price|product|||TS|rsf:gd-|-stype:attr=1|qr_nm:gd|res:RC3|com-cf:nl|ptrs:na|ktp:N0|mc:208877|mtp:S|qry_typ:P|lang:en|wc:3|flavl:3|cs:9662|v=4,Manisha Enterprise,https://www.indiamart.com/manishaenterprisesurat/?pos=6&kwd=baby nail clippers&tags=A||||8230.883|Price|product|||TS|rsf:gd-|-stype:attr=1|qr_nm:gd|res:RC3|com-cf:nl|ptrs:na|ktp:N0|mc:208877|mtp:S|qry_typ:P|lang:en|wc:3|flavl:3|cs:9662|v=4,False,Amroli,Surat,"GF C-75, Somnath Adarshnagar 1, Chprabhata Road, Amroli, Amroli, Surat - 394107, Dist.Surat, Gujarat",7949372906,
Multicolor Baby Nail Trimmer Set,https://www.indiamart.com/proddetail/baby-nail-trimmer-set-2852086422273.html?pos=7&kwd=baby nail clippers&tags=A||||8230.883|Price|product|||TS|rsf:gd-|-stype:attr=1|qr_nm:gd|res:RC3|com-cf:nl|ptrs:na|ktp:N0|mc:208877|mtp:S|qry_typ:P|lang:en|wc:3|flavl:3|cs:9662|v=4,Indiab2btrade,https://www.indiab2btrade.com/?pos=7&kwd=baby nail clippers&tags=A||||8230.883|Price|product|||TS|rsf:gd-|-stype:attr=1|qr_nm:gd|res:RC3|com-cf:nl|ptrs:na|ktp:N0|mc:208877|mtp:S|qry_typ:P|lang:en|wc:3|flavl:3|cs:9662|v=4,False,Mota Varachha,Surat,"Ground Floor, Shop No. F/22, Shivdhara Complex, L.P Savani School,Near To Maharaja Farm,, Mota Varachha, Surat - 394105, Dist.Surat, Gujarat",8043816125,
"Rapid Multicolor Baby Nail Trimmer, Packaging Type: Box, Newly Born",https://www.indiamart.com/proddetail/baby-nail-trimmer-2853189638191.html?pos=8&kwd=baby nail clippers&tags=A||||8230.883|Price|product|||TS|rsf:gd-|-stype:attr=1|qr_nm:gd|res:RC3|com-cf:nl|ptrs:na|ktp:N0|mc:208877|mtp:S|qry_typ:P|lang:en|wc:3|flavl:3|cs:9662|v=4,Rapid Import & Export,https://www.indiamart.com/rapidimportexport/?pos=8&kwd=baby nail clippers&tags=A||||8230.883|Price|product|||TS|rsf:gd-|-stype:attr=1|qr_nm:gd|res:RC3|com-cf:nl|ptrs:na|ktp:N0|mc:208877|mtp:S|qry_typ:P|lang:en|wc:3|flavl:3|cs:9662|v=4,False,Dabholi,Surat,"Shade No 19, Nilkanth Park, Nr. Silver Stone Villa, Tulsi Chowk Dabholi Gam, Ved Road, Dabholi, Surat - 395004, Dist.Surat, Gujarat",7942960616,
"INFINITYKART BLUE Baby Nail Trimmer, Packaging Type: Box, 1-2 Years",https://www.indiamart.com/proddetail/baby-nail-trimmer-2853761129573.html?pos=9&kwd=baby nail clippers&tags=A||||8230.883|Price|product|||TS|rsf:gd-|-stype:attr=1|qr_nm:gd|res:RC3|com-cf:nl|ptrs:na|ktp:N0|mc:208877|mtp:S|qry_typ:P|lang:en|wc:3|flavl:3|cs:9662|v=4,INFINITYKART,https://www.indiamart.com/99-enterprises-surat/?pos=9&kwd=baby nail clippers&tags=A||||8230.883|Price|product|||TS|rsf:gd-|-stype:attr=1|qr_nm:gd|res:RC3|com-cf:nl|ptrs:na|ktp:N0|mc:208877|mtp:S|qry_typ:P|lang:en|wc:3|flavl:3|cs:9662|v=4,False,Katargam,Surat,"2nd, 201, Neminath Apartment, Sumal Dairy Road, Nita Textile Store, Katargam,, Katargam, Surat - 395004, Dist.Surat, Gujarat",7942710832,
dual tone Baby Nail Cutter,https://www.indiamart.com/proddetail/baby-nail-cutter-27452252248.html?pos=10&kwd=baby nail clippers&tags=A||||8211.142|Price|product|||TS|rsf:gd-|-stype:attr=1|qr_nm:gd|res:RC3|com-cf:nl|ptrs:na|ktp:N0|mc:208877|mtp:S|qry_typ:P|lang:en|wc:3|flavl:3|cs:9662|v=4,Sameer Collection,https://www.sameercollection.in/?pos=10&kwd=baby nail clippers&tags=A||||8211.142|Price|product|||TS|rsf:gd-|-stype:attr=1|qr_nm:gd|res:RC3|com-cf:nl|ptrs:na|ktp:N0|mc:208877|mtp:S|qry_typ:P|lang:en|wc:3|flavl:3|cs:9662|v=4,False,Princess Dock,Mumbai,"A-1901, Ansari Heights, Umar Kokil Marg, Princess Dock, Mumbai - 400009, Dist.Mumbai, Maharashtra",8046070689,
Mix color Baby Electric Nail Trimmer,https://www.indiamart.com/proddetail/baby-electric-nail-trimmer-25980706173.html?pos=11&kwd=baby nail clippers&tags=A||||8752.144|Price|product|||TS|rsf:gd-|-stype:attr=1|qr_nm:gd|res:RC3|com-cf:nl|ptrs:na|ktp:N0|mc:208877|mtp:S|qry_typ:P|lang:en|wc:3|flavl:3|cs:9662|v=4,Viyasha Enterprises,https://www.viyashaenterprise.com/?pos=11&kwd=baby nail clippers&tags=A||||8752.144|Price|product|||TS|rsf:gd-|-stype:attr=1|qr_nm:gd|res:RC3|com-cf:nl|ptrs:na|ktp:N0|mc:208877|mtp:S|qry_typ:P|lang:en|wc:3|flavl:3|cs:9662|v=4,False,Shastri Nagar,New Delhi,"E2- 45, Shastri Nagar, Gali No. 1, Shastri Nagar, New Delhi - 110052, Dist.Delhi, Delhi",8048952187,
"Pink Baby Nail Trimmer, Electric, Newly Born",https://www.indiamart.com/proddetail/baby-nail-trimmer-2849077371673.html?pos=12&kwd=baby nail clippers&tags=A||||8211.142|Price|product|||TS|rsf:gd-|-stype:attr=1|qr_nm:gd|res:RC3|com-cf:nl|ptrs:na|ktp:N0|mc:208877|mtp:S|qry_typ:P|lang:en|wc:3|flavl:3|cs:9662|v=4,A R Collection,https://www.malkanisbrothers.com/?pos=12&kwd=baby nail clippers&tags=A||||8211.142|Price|product|||TS|rsf:gd-|-stype:attr=1|qr_nm:gd|res:RC3|com-cf:nl|ptrs:na|ktp:N0|mc:208877|mtp:S|qry_typ:P|lang:en|wc:3|flavl:3|cs:9662|v=4,False,Mumbai Central,Mumbai,"Flat No. 403,4th Floor,K S A Heights,2nd Sankli Street,Mumbai, Mumbai Central, Mumbai - 400008, Dist.Mumbai, Maharashtra",8043807650,
"3 colors available Baby Nail Cutter, For Grooming",https://www.indiamart.com/proddetail/baby-nail-cutter-2852514496248.html?pos=13&kwd=baby nail clippers&tags=A||||8752.144|Price|product|||TS|rsf:gd-|-stype:attr=1|qr_nm:gd|res:RC3|com-cf:nl|ptrs:na|ktp:N0|mc:208877|mtp:S|qry_typ:P|lang:en|wc:3|flavl:3|cs:9662|v=4,Urbancube,https://www.indiamart.com/urbancube/?pos=13&kwd=baby nail clippers&tags=A||||8752.144|Price|product|||TS|rsf:gd-|-stype:attr=1|qr_nm:gd|res:RC3|com-cf:nl|ptrs:na|ktp:N0|mc:208877|mtp:S|qry_typ:P|lang:en|wc:3|flavl:3|cs:9662|v=4,False,Kamla Nagar,New Delhi,"Ground Floor, 14 UA, Jawahar Nagar, Kamla Nagar, New Delhi - 110007, Dist.Delhi, Delhi",8048980014,
"Blue Baby Electric Nail Trimmer, Newly Born",https://www.indiamart.com/proddetail/baby-electric-nail-trimmer-2854525488862.html?pos=14&kwd=baby nail clippers&tags=A||||8230.883|Price|product|||TS|rsf:gd-|-stype:attr=1|qr_nm:gd|res:RC3|com-cf:nl|ptrs:na|ktp:N0|mc:208877|mtp:S|qry_typ:P|lang:en|wc:3|flavl:3|cs:9662|v=4,Shivdhara Sales,https://www.indiamart.com/shivdhara-sales-surat/?pos=14&kwd=baby nail clippers&tags=A||||8230.883|Price|product|||TS|rsf:gd-|-stype:attr=1|qr_nm:gd|res:RC3|com-cf:nl|ptrs:na|ktp:N0|mc:208877|mtp:S|qry_typ:P|lang:en|wc:3|flavl:3|cs:9662|v=4,False,,Surat,"Plot No-35,Madhav Cables,Chhipwad, Surat - 395006, Dist.Surat, Gujarat",7949328430,
"Pink Baby Nail Trimmer, Packaging Type: Box, 3-12 Months",https://www.indiamart.com/proddetail/baby-nail-trimmer-2853158393597.html?pos=15&kwd=baby nail clippers&tags=A||||8752.144|Price|product|||TS|rsf:gd-|-stype:attr=1|qr_nm:gd|res:RC3|com-cf:nl|ptrs:na|ktp:N0|mc:208877|mtp:S|qry_typ:P|lang:en|wc:3|cs:8896|v=4,Shoppers World,https://www.indiamart.com/shoppersworld/?pos=15&kwd=baby nail clippers&tags=A||||8752.144|Price|product|||TS|rsf:gd-|-stype:attr=1|qr_nm:gd|res:RC3|com-cf:nl|ptrs:na|ktp:N0|mc:208877|mtp:S|qry_typ:P|lang:en|wc:3|cs:8896|v=4,False,Burari,New Delhi,"House No- 4737, 1st Floor, Sant Nagar, Street No- 112/6, Burari, North Delhi,, Burari, New Delhi - 110084, Dist.Delhi, Delhi",8047649373,
"Baby Nail Trimmer, For Household",https://www.indiamart.com/proddetail/baby-nail-trimmer-25569619591.html?pos=16&kwd=baby nail clippers&tags=A||||8230.883|Price|product|||TS|rsf:gd-|-stype:attr=1|qr_nm:gd|res:RC3|com-cf:nl|ptrs:na|ktp:N0|mc:208877|mtp:S|qry_typ:P|lang:en|wc:3|cs:8896|v=4,Valam Enterprise,https://www.valamenterprise.com/?pos=16&kwd=baby nail clippers&tags=A||||8230.883|Price|product|||TS|rsf:gd-|-stype:attr=1|qr_nm:gd|res:RC3|com-cf:nl|ptrs:na|ktp:N0|mc:208877|mtp:S|qry_typ:P|lang:en|wc:3|cs:8896|v=4,False,Dabholi,Surat,"First Floor 37 Nr Bapa Sitaram Chowk Gopinath Society-3 Katargam, Dabholi, Surat - 395004, Dist.Surat, Gujarat",8046058398,
"Blue Baby Nail Trimmer Kit, Manual, Newly Born",https://www.indiamart.com/proddetail/baby-nail-trimmer-kit-2854246898873.html?pos=17&kwd=baby nail clippers&tags=A||||8228.275|Price|product|||MDC|rsf:gd-|-stype:attr=1|qr_nm:gd|res:RC3|com-cf:nl|ptrs:na|ktp:N0|mc:208877|mtp:S|qry_typ:P|lang:en|wc:3|cs:8896|v=4,Div Systems LLP,https://www.indiamart.com/divsystem/?pos=17&kwd=baby nail clippers&tags=A||||8228.275|Price|product|||MDC|rsf:gd-|-stype:attr=1|qr_nm:gd|res:RC3|com-cf:nl|ptrs:na|ktp:N0|mc:208877|mtp:S|qry_typ:P|lang:en|wc:3|cs:8896|v=4,False,,Ahmedabad,"504, Vinayak Elegance, Opp J P Farm, Vill. Ghuma, Dascroi,, Ahmedabad - 380058, Dist.Ahmedabad, Gujarat",8045729839,
"NONE Multicolor Magnificier Baby Nail Clipper, Packaging Type: Box, 3-12 Months",https://www.indiamart.com/proddetail/magnificier-baby-nail-clipper-2853666342962.html?pos=18&kwd=baby nail clippers&tags=A||||8663.873|Price|product|||MDC|rsf:gd-|-stype:attr=1|qr_nm:gd|res:RC3|com-cf:nl|ptrs:na|ktp:N0|mc:208877|mtp:S|qry_typ:P|lang:en|wc:3|cs:8896|v=4,Nipika Vrapped Gifting,https://www.indiamart.com/nipika-vrapped-gifting/?pos=18&kwd=baby nail clippers&tags=A||||8663.873|Price|product|||MDC|rsf:gd-|-stype:attr=1|qr_nm:gd|res:RC3|com-cf:nl|ptrs:na|ktp:N0|mc:208877|mtp:S|qry_typ:P|lang:en|wc:3|cs:8896|v=4,False,Bengaluru Urban,Bengaluru,"9/1, 23rd Cross Road, Magadi Road, KP Agrahara, Bengaluru Urban, Bengaluru - 560023, Dist.Bengaluru, Karnataka",7949328723,
"MADHAV ENTERORISE Pink Baby Nail Clippers, Packaging Type: Box, 1-2 Years",https://www.indiamart.com/proddetail/baby-nail-clippers-2852515332891.html?pos=19&kwd=baby nail clippers&tags=A||||8230.883|Price|product|||TS|rsf:gd-|-stype:attr=1|qr_nm:gd|res:RC3|com-cf:nl|ptrs:na|ktp:N0|mc:208877|mtp:S|qry_typ:P|lang:en|wc:3|cs:8896|v=4,Preet Enterprise,https://www.indiamart.com/preetenterprise/?pos=19&kwd=baby nail clippers&tags=A||||8230.883|Price|product|||TS|rsf:gd-|-stype:attr=1|qr_nm:gd|res:RC3|com-cf:nl|ptrs:na|ktp:N0|mc:208877|mtp:S|qry_typ:P|lang:en|wc:3|cs:8896|v=4,False,Dabholi,Surat,"Plot No. 143/144, 1st Floor, Krushnanagar Society, Singanpur Road, Dabholi, Surat - 395004, Dist.Surat, Gujarat",8043885554,
"Find Back Pink Baby Nail Cutter, Packaging Type: Box, 3-12 Months",https://www.indiamart.com/proddetail/baby-nail-cutter-2853483852973.html?pos=20&kwd=baby nail clippers&tags=A||||8752.144|Price|product|||TS|rsf:gd-|-stype:attr=1|qr_nm:gd|res:RC3|com-cf:nl|ptrs:na|ktp:N0|mc:208877|mtp:S|qry_typ:P|lang:en|wc:3|cs:8896|v=4,B S Enterprise,https://www.bsenterpriseindia.co.in/?pos=20&kwd=baby nail clippers&tags=A||||8752.144|Price|product|||TS|rsf:gd-|-stype:attr=1|qr_nm:gd|res:RC3|com-cf:nl|ptrs:na|ktp:N0|mc:208877|mtp:S|qry_typ:P|lang:en|wc:3|cs:8896|v=4,False,Burari,New Delhi,"First Floor Plot No.65 Mustail No.17, Killa No.5/2, Burari, New Delhi - 110084, Dist.Delhi, Delhi",7949090899,
Baby Nail Trimmer,https://www.indiamart.com/proddetail/baby-nail-trimmer-2855000114962.html?pos=21&kwd=baby nail clippers&tags=A||||8230.883|Price|product|||TS|rsf:gd-|-stype:attr=1|qr_nm:gd|res:RC3|com-cf:nl|ptrs:na|ktp:N0|mc:208877|mtp:S|qry_typ:P|lang:en|wc:3|cs:8896|v=4,Alesso(A Brand Of Awxoqom),https://www.ashoppersvillage.com/?pos=21&kwd=baby nail clippers&tags=A||||8230.883|Price|product|||TS|rsf:gd-|-stype:attr=1|qr_nm:gd|res:RC3|com-cf:nl|ptrs:na|ktp:N0|mc:208877|mtp:S|qry_typ:P|lang:en|wc:3|cs:8896|v=4,False,Singanpor,Surat,"Plot No 30,gr Floor, Vijayraj Row House, Near Vijayraj Circle,singanpore Causeway Road,katargam, Singanpor, Surat - 395004, Dist.Surat, Gujarat",8048957223,
"Mix colour Baby nail trimmer, 3-12 Months",https://www.indiamart.com/proddetail/baby-nail-trimmer-25992537273.html?pos=22&kwd=baby nail clippers&tags=A||||8752.144|Price|product|||TS|rsf:gd-|-stype:attr=1|qr_nm:gd|res:RC3|com-cf:nl|ptrs:na|ktp:N0|mc:208877|mtp:S|qry_typ:P|lang:en|wc:3|cs:8896|v=4,LBM Import India,https://www.indiamart.com/lbmimportindia/?pos=22&kwd=baby nail clippers&tags=A||||8752.144|Price|product|||TS|rsf:gd-|-stype:attr=1|qr_nm:gd|res:RC3|com-cf:nl|ptrs:na|ktp:N0|mc:208877|mtp:S|qry_typ:P|lang:en|wc:3|cs:8896|v=4,False,Shastri Nagar,New Delhi,"House No. 253, Block E-2, Shastri Nagar, New Delhi - 110052, Dist.Delhi, Delhi",8046032633,
"Blue BABY NAIL CLIPPER, Manual, 1-2 Years",https://www.indiamart.com/proddetail/baby-nail-clipper-2854891307355.html?pos=23&kwd=baby nail clippers&tags=A||||8230.883|Price|product|||TS|rsf:gd-|-stype:attr=1|qr_nm:gd|res:RC3|com-cf:nl|ptrs:na|ktp:N0|mc:208877|mtp:S|qry_typ:P|lang:en|wc:3|cs:8896|v=4,BABYHOLIC,https://www.babyholic.in/?pos=23&kwd=baby nail clippers&tags=A||||8230.883|Price|product|||TS|rsf:gd-|-stype:attr=1|qr_nm:gd|res:RC3|com-cf:nl|ptrs:na|ktp:N0|mc:208877|mtp:S|qry_typ:P|lang:en|wc:3|cs:8896|v=4,False,,Surat,"Ground Floor, Plot No. F/56/, And F/57, Laxmi Narayan Industrial Estate, Udhana, Kailash Fashion, Surat - 394210, Dist.Surat, Gujarat",8045732096,
Pink Electric Baby Nail Cutter,https://www.indiamart.com/proddetail/electric-baby-nail-cutter-27607984430.html?pos=24&kwd=baby nail clippers&tags=A||||8211.142|Price|product|||TS|rsf:gd-|-stype:attr=1|qr_nm:gd|res:RC3|com-cf:nl|ptrs:na|ktp:N0|mc:208877|mtp:S|qry_typ:P|lang:en|wc:3|cs:8896|v=4,M N Trading Co.,https://www.mntraders.in/?pos=24&kwd=baby nail clippers&tags=A||||8211.142|Price|product|||TS|rsf:gd-|-stype:attr=1|qr_nm:gd|res:RC3|com-cf:nl|ptrs:na|ktp:N0|mc:208877|mtp:S|qry_typ:P|lang:en|wc:3|cs:8896|v=4,False,Town Hall,Mumbai,"GRD FLOOR R 19 SABOO SIDDIK ROAD, MANISH MARKET 128, AMANAH SHOPPING CENTRE FORT, Town Hall, Mumbai - 400001, Dist.Mumbai, Maharashtra",8048983957,
Multicolor Baby Nail Cutter Set,https://www.indiamart.com/proddetail/baby-nail-cutter-set-2851726696912.html?pos=25&kwd=baby nail clippers&tags=A||||8230.883|Price|product|||TS|rsf:gd-|-stype:attr=1|qr_nm:gd|res:RC3|com-cf:nl|ptrs:na|ktp:N0|mc:208877|mtp:S|qry_typ:P|lang:en|wc:3|cs:8896|v=4,The Florable,https://www.indiamart.com/theflorable/?pos=25&kwd=baby nail clippers&tags=A||||8230.883|Price|product|||TS|rsf:gd-|-stype:attr=1|qr_nm:gd|res:RC3|com-cf:nl|ptrs:na|ktp:N0|mc:208877|mtp:S|qry_typ:P|lang:en|wc:3|cs:8896|v=4,False,Archana Society,Surat,"GR Floor, SY No-54, Plot-New-47, Old-49, Archana Society, Surat - 395004, Dist.Surat, Gujarat",8046057332,
Pink Baby Nail Clipper,https://www.indiamart.com/proddetail/baby-nail-clipper-2852304847388.html?pos=26&kwd=baby nail clippers&tags=A||||8211.142|Price|product|||TS|rsf:gd-|-stype:attr=1|qr_nm:gd|res:RC3|com-cf:nl|ptrs:na|ktp:N0|mc:208877|mtp:S|qry_typ:P|lang:en|wc:3|cs:8896|v=4,P For Panda Baby Products Private Limited,https://www.p4pandababyproducts.com/?pos=26&kwd=baby nail clippers&tags=A||||8211.142|Price|product|||TS|rsf:gd-|-stype:attr=1|qr_nm:gd|res:RC3|com-cf:nl|ptrs:na|ktp:N0|mc:208877|mtp:S|qry_typ:P|lang:en|wc:3|cs:8896|v=4,False,Goregaon West,Mumbai,"904 A Wing,9 Th Floor,Triple S Heights,Jakeria Road, Goregaon West, Mumbai - 400064, Dist.Mumbai, Maharashtra",7942710871,
"Baby Nail Trimmer Clipper Set, Electric, 1-2 Years",https://www.indiamart.com/proddetail/baby-nail-trimmer-clipper-set-2854358546255.html?pos=27&kwd=baby nail clippers&tags=A||||8230.883|Price|product|||MDC|rsf:gd-|-stype:attr=1|qr_nm:gd|res:RC3|com-cf:nl|ptrs:na|ktp:N0|mc:208877|mtp:S|qry_typ:P|lang:en|wc:3|cs:8896|v=4,Swastik Enterprise,https://www.indiamart.com/swastikenterprisesuratgujarat/?pos=27&kwd=baby nail clippers&tags=A||||8230.883|Price|product|||MDC|rsf:gd-|-stype:attr=1|qr_nm:gd|res:RC3|com-cf:nl|ptrs:na|ktp:N0|mc:208877|mtp:S|qry_typ:P|lang:en|wc:3|cs:8896|v=4,False,,Surat,"180, Bhgavan Nagar Society, Siganpor Char Rasta, Surat - 395004, Dist.Surat, Gujarat",7949339707,
Pink Baby Nail Trimmer,https://www.indiamart.com/proddetail/baby-nail-trimmer-23715404812.html?pos=28&kwd=baby nail clippers&tags=A||||8230.331|Price|product|||TS|rsf:gd-|-stype:attr=1|qr_nm:gd|res:RC3|com-cf:nl|ptrs:na|ktp:N0|mc:208877|mtp:S|qry_typ:P|lang:en|wc:3|cs:8896|v=4,Zexmon,https://www.indiamart.com/boniry/?pos=28&kwd=baby nail clippers&tags=A||||8230.331|Price|product|||TS|rsf:gd-|-stype:attr=1|qr_nm:gd|res:RC3|com-cf:nl|ptrs:na|ktp:N0|mc:208877|mtp:S|qry_typ:P|lang:en|wc:3|cs:8896|v=4,False,Chadotar,Palanpur,"s No. 454 P 1 Bin Kheti Milkat No 2789/2 Patravalo Shed Gam Chadotar Akesan Road, Chadotar, Palanpur - 385001, Dist.Banaskantha, Gujarat",8048979536,
"Baby Nail Trimmer Grooming Scissors & Nail Clipper Set/Kit, Manicure (Set of 4 Pcs) with Box",https://www.indiamart.com/proddetail/baby-nail-trimmer-grooming-scissors-nail-clipper-set-kit-manicure-set-of-4-pcs-with-box-2853216517291.html?pos=29&kwd=baby nail clippers&tags=A||||8752.144|Price|product|||TS|rsf:gd-|-stype:attr=1|qr_nm:gd|res:RC3|com-cf:nl|ptrs:na|ktp:N0|mc:208877|mtp:S|qry_typ:P|lang:en|wc:3|cs:8896|v=4,Katyani Traders,https://www.indiamart.com/katyanitraders-new-delhi/?pos=29&kwd=baby nail clippers&tags=A||||8752.144|Price|product|||TS|rsf:gd-|-stype:attr=1|qr_nm:gd|res:RC3|com-cf:nl|ptrs:na|ktp:N0|mc:208877|mtp:S|qry_typ:P|lang:en|wc:3|cs:8896|v=4,False,Mayapuri,New Delhi,"Phase-1, B-125, Mayapuri Industrial Area, West Delhi, Mayapuri, New Delhi - 110064, Dist.Delhi, Delhi",8047529131,
Baby Nail Clipper,https://www.indiamart.com/proddetail/baby-nail-clipper-2852170565691.html?pos=30&kwd=baby nail clippers&tags=A||||8752.144|Price|product|||TS|rsf:gd-|-stype:attr=1|qr_nm:gd|res:RC3|com-cf:nl|ptrs:na|ktp:N0|mc:208877|mtp:S|qry_typ:P|lang:en|wc:3|cs:8896|v=4,United Lock House,https://www.indiamart.com/united-lock-house/?pos=30&kwd=baby nail clippers&tags=A||||8752.144|Price|product|||TS|rsf:gd-|-stype:attr=1|qr_nm:gd|res:RC3|com-cf:nl|ptrs:na|ktp:N0|mc:208877|mtp:S|qry_typ:P|lang:en|wc:3|cs:8896|v=4,False,Baratooti,New Delhi,"5333, Gali Peti Wali, Gandhi Market, Sadar Bazar, Baratooti, New Delhi - 110006, Dist.Delhi, Delhi",8048265811,
"Blue Baby Nail Trimmer, Electric, Newly Born",https://www.indiamart.com/proddetail/baby-nail-trimmer-2855083424312.html?pos=31&kwd=baby nail clippers&tags=A||||8211.142|Price|product|||TS|rsf:gd-|-stype:attr=1|qr_nm:gd|res:RC3|com-cf:nl|ptrs:na|ktp:N0|mc:208877|mtp:S|qry_typ:P|lang:en|wc:3|cs:8896|v=4,Champion Traders,https://www.indiamart.com/championtradersmumbai/?pos=31&kwd=baby nail clippers&tags=A||||8211.142|Price|product|||TS|rsf:gd-|-stype:attr=1|qr_nm:gd|res:RC3|com-cf:nl|ptrs:na|ktp:N0|mc:208877|mtp:S|qry_typ:P|lang:en|wc:3|cs:8896|v=4,False,Masjid Bandar,Mumbai,"s s musafirkhana road , b m c building no.2, shop no 8 , Mumbai 400001, Masjid Bandar, Mumbai - 400003, Dist.Mumbai, Maharashtra",8048971821,
"Blue Baby Nail Trimmer, Manual, More than 12 months",https://www.indiamart.com/proddetail/baby-nail-trimmer-2854415985333.html?pos=32&kwd=baby nail clippers&tags=A||||8752.144|Price|product|||TS|rsf:gd-|-stype:attr=1|qr_nm:gd|res:RC3|com-cf:nl|ptrs:na|ktp:N0|mc:208877|mtp:S|qry_typ:P|lang:en|wc:3|cs:8896|v=4,Sai Enterprises,https://www.indiamart.com/saienterprises-gokalpuri/?pos=32&kwd=baby nail clippers&tags=A||||8752.144|Price|product|||TS|rsf:gd-|-stype:attr=1|qr_nm:gd|res:RC3|com-cf:nl|ptrs:na|ktp:N0|mc:208877|mtp:S|qry_typ:P|lang:en|wc:3|cs:8896|v=4,False,Gokal Puri,New Delhi,"A-13, Main 100 Futa Road, Kabir Nagar, Gokal Puri, North East, Gokal Puri, New Delhi - 110094, Dist.Delhi, Delhi",7942799208,
Baby Nail Clipper,https://www.indiamart.com/proddetail/baby-nail-clipper-8728260933.html?pos=33&kwd=baby nail clippers&tags=A||||8954.051|Price|product|||TS|rsf:gd-|-stype:attr=1|qr_nm:gd|res:RC3|com-cf:nl|ptrs:na|ktp:N0|mc:208877|mtp:S|qry_typ:P|lang:en|wc:3|cs:8896|v=4,Auro Mira Medi Aids,https://www.indiamart.com/auromiramediaids/?pos=33&kwd=baby nail clippers&tags=A||||8954.051|Price|product|||TS|rsf:gd-|-stype:attr=1|qr_nm:gd|res:RC3|com-cf:nl|ptrs:na|ktp:N0|mc:208877|mtp:S|qry_typ:P|lang:en|wc:3|cs:8896|v=4,False,Adyar,Chennai,"New No. 36, Old No. 32, Shriram Nagar Main Road, Adyar, Chennai - 600113, Dist.Chennai, Tamil Nadu",8048988682,
Multicolor Plastic Baby Electric Nail Trimmer,https://www.indiamart.com/proddetail/baby-electric-nail-trimmer-2850141155991.html?pos=34&kwd=baby nail clippers&tags=A||||8211.142|Price|product|||TS|rsf:gd-|-stype:attr=1|qr_nm:gd|res:RC3|com-cf:nl|ptrs:na|ktp:N0|mc:208877|mtp:S|qry_typ:P|lang:en|wc:3|cs:8896|v=4,RAF India,https://www.rafindia.co.in/?pos=34&kwd=baby nail clippers&tags=A||||8211.142|Price|product|||TS|rsf:gd-|-stype:attr=1|qr_nm:gd|res:RC3|com-cf:nl|ptrs:na|ktp:N0|mc:208877|mtp:S|qry_typ:P|lang:en|wc:3|cs:8896|v=4,False,Pydhonie,Mumbai,"425, Ibrahim Rehmatulla Road, Pydhonie, Mumbai - 400003, Dist.Mumbai, Maharashtra",8047635175,
"Baby Nail Clipper Kit - BLUE, For Babies",https://www.indiamart.com/proddetail/baby-nail-clipper-kit-blue-2852393642130.html?pos=35&kwd=baby nail clippers&tags=A||||8752.144|Price|product|||TS|rsf:gd-|-stype:attr=1|qr_nm:gd|res:RC3|com-cf:nl|ptrs:na|ktp:N0|mc:208877|mtp:S|qry_typ:P|lang:en|wc:3|cs:8896|v=4,Ekta Overseas,https://www.indiamart.com/ektaoverseas-newdelhi/?pos=35&kwd=baby nail clippers&tags=A||||8752.144|Price|product|||TS|rsf:gd-|-stype:attr=1|qr_nm:gd|res:RC3|com-cf:nl|ptrs:na|ktp:N0|mc:208877|mtp:S|qry_typ:P|lang:en|wc:3|cs:8896|v=4,False,Shahdara,New Delhi,"1/95, Gali No.3, Near Navjeevan Phisical Center, Vishwas Nagar, Shahdara,, Shahdara, New Delhi - 110032, Dist.Delhi, Delhi",7942628926,
"NV Pink Baby Nail Trimmer, Packaging Type: Plastic Bottle, 0-5",https://www.indiamart.com/proddetail/baby-nail-trimmer-2850391081191.html?pos=36&kwd=baby nail clippers&tags=A||||8752.144|Price|product|||TS|rsf:gd-|-stype:attr=1|qr_nm:gd|res:RC3|com-cf:nl|ptrs:na|ktp:N0|mc:208877|mtp:S|qry_typ:P|lang:en|wc:3|cs:8896|v=4,NV Enterprises,https://www.indiamart.com/nventerprise-delhi/?pos=36&kwd=baby nail clippers&tags=A||||8752.144|Price|product|||TS|rsf:gd-|-stype:attr=1|qr_nm:gd|res:RC3|com-cf:nl|ptrs:na|ktp:N0|mc:208877|mtp:S|qry_typ:P|lang:en|wc:3|cs:8896|v=4,False,Shastri Nagar,New Delhi,"D 148, Street No. 2, Swaroop Nagar, Shastri Nagar, New Delhi - 110052, Dist.Delhi, Delhi",7942543916,
Silicon Baby nails grooming kit,https://www.indiamart.com/proddetail/baby-nails-grooming-kit-2854599021955.html?pos=37&kwd=baby nail clippers&tags=A||||8823.154|Price|product|||TS|rsf:gd-|-stype:attr=1|qr_nm:gd|res:RC3|com-cf:nl|ptrs:na|ktp:N0|mc:208877|mtp:S|qry_typ:P|lang:en|wc:3|cs:8896|v=4,Shri Anant International,https://www.indiamart.com/shrianantinternational/?pos=37&kwd=baby nail clippers&tags=A||||8823.154|Price|product|||TS|rsf:gd-|-stype:attr=1|qr_nm:gd|res:RC3|com-cf:nl|ptrs:na|ktp:N0|mc:208877|mtp:S|qry_typ:P|lang:en|wc:3|cs:8896|v=4,False,DayalBagh,Agra,"No.02,House 2,Alkapuri Phase Ii,Agra, DayalBagh, Agra - 282005, Dist.Agra, Uttar Pradesh",7942721451,
"Pink Baby Nail Trimmer, Packaging Type: Box, 3-12 Months",https://www.indiamart.com/proddetail/baby-nail-trimmer-2853741026697.html?pos=38&kwd=baby nail clippers&tags=A||||8785.791|Price|product|||MDC|rsf:gd-|-stype:attr=1|qr_nm:gd|res:RC3|com-cf:nl|ptrs:na|ktp:N0|mc:208877|mtp:S|qry_typ:P|lang:en|wc:3|cs:8896|v=4,B.S Enterprises,https://www.indiamart.com/bs-enterprisesuttarpradesh/?pos=38&kwd=baby nail clippers&tags=A||||8785.791|Price|product|||MDC|rsf:gd-|-stype:attr=1|qr_nm:gd|res:RC3|com-cf:nl|ptrs:na|ktp:N0|mc:208877|mtp:S|qry_typ:P|lang:en|wc:3|cs:8896|v=4,False,Rahul Vihar,Ghaziabad,"A-10/K H 174, Rahul Vihar, Behrampur, Rahul Vihar, Ghaziabad - 201009, Dist.Ghaziabad, Uttar Pradesh",7949082680,
Baby Nail Trimmer Electric,https://www.indiamart.com/proddetail/baby-nail-trimmer-electric-2854894716662.html?pos=39&kwd=baby nail clippers&tags=A||||8226.563|Price|product|||MDC|rsf:gd-|-stype:attr=1|qr_nm:gd|res:RC3|com-cf:nl|ptrs:na|ktp:N0|mc:208877|mtp:S|qry_typ:P|lang:en|wc:3|cs:8896|v=4,Sharkwave Retail,https://www.indiamart.com/sharkwave-retail/?pos=39&kwd=baby nail clippers&tags=A||||8226.563|Price|product|||MDC|rsf:gd-|-stype:attr=1|qr_nm:gd|res:RC3|com-cf:nl|ptrs:na|ktp:N0|mc:208877|mtp:S|qry_typ:P|lang:en|wc:3|cs:8896|v=4,False,,Navi Mumbai,"House No-174, Shop No-1 Datakurpa Building, Sector-5, Gajanand Chok, Near Shivsena Office, Sanpada, Navi Mumbai - 400705, Dist.Thane, Maharashtra",7949330591,
"BEYOND UNIQUE BLUE Baby Nail Trimmer Kit for Kids Safe & Effective Baby Nail Trimmer, Packaging Type: Box, 1-2 Years",https://www.indiamart.com/proddetail/baby-nail-trimmer-kit-for-kids-safe-effective-baby-nail-trimmer-2853162916748.html?pos=40&kwd=baby nail clippers&tags=A||||8230.883|Price|product|||MDC|rsf:gd-|-stype:attr=1|qr_nm:gd|res:RC3|com-cf:nl|ptrs:na|ktp:N0|mc:208877|mtp:S|qry_typ:P|lang:en|wc:3|cs:8896|v=4,Beyond Unique Enterprises,https://www.indiamart.com/beyonduniqueenterprises/?pos=40&kwd=baby nail clippers&tags=A||||8230.883|Price|product|||MDC|rsf:gd-|-stype:attr=1|qr_nm:gd|res:RC3|com-cf:nl|ptrs:na|ktp:N0|mc:208877|mtp:S|qry_typ:P|lang:en|wc:3|cs:8896|v=4,False,Katargam,Surat,"180, Bhagwan Nagar Society, Ved Nagar Char Rasta, Magan Nagar 2 Ni Pachhal, Katargam, Katargam, Surat - 395004, Dist.Surat, Gujarat",8047527253,
"Baby Nail Clippers, Baby Nail Trimmer Electric, with Light and 6 Grinding Pads",https://www.indiamart.com/proddetail/baby-nail-clippers-baby-nail-trimmer-electric-with-light-and-6-grinding-pads-2854756409391.html?pos=41&kwd=baby nail clippers&tags=BA||||8230.883|Price|product|||MDC|rsf:gd-|-stype:attr=1|qr_nm:gd|res:RC3|com-cf:nl|ptrs:na|ktp:N0|mc:208877|mtp:S|qry_typ:P|lang:en|wc:3|cs:8896|v=4,The Prime Traders,https://www.indiamart.com/the-prime-traders/?pos=41&kwd=baby nail clippers&tags=BA||||8230.883|Price|product|||MDC|rsf:gd-|-stype:attr=1|qr_nm:gd|res:RC3|com-cf:nl|ptrs:na|ktp:N0|mc:208877|mtp:S|qry_typ:P|lang:en|wc:3|cs:8896|v=4,False,,Surat,"183, Bhagvan Nagar Society, Singanpur Road, Katargam, Surat - 395004, Dist.Surat, Gujarat",8044459866,
Baby Nail Trimmer,,Global Collection,https://www.global-collection.net/?pos=42&kwd=baby nail clippers&tags=A||||8211.142|Price|product|||TS|rsf:gd-|-stype:attr=1|qr_nm:gd|res:RC3|com-cf:nl|ptrs:na|ktp:N0|mc:208877|mtp:S|qry_typ:P|lang:en|wc:3|cs:8896|v=4,False,Masjid,Mumbai,"Plot No 53/57,Ground Floor,M-1, Floor Meznine United Chambers,Essaji Street, Masjid,Mumbai, Masjid, Mumbai - 400003, Dist.Mumbai, Maharashtra",7942797553,
Baby Nail Clippers Set,https://www.indiamart.com/proddetail/baby-nail-clippers-set-2851109923655.html?pos=43&kwd=baby nail clippers&tags=A||||8752.144|Price|product|||TS|rsf:gd-|-stype:attr=1|qr_nm:gd|res:RC3|com-cf:nl|ptrs:na|ktp:N0|mc:208877|mtp:S|qry_typ:P|lang:en|wc:3|cs:8896|v=4,Izzi Shoppers,https://www.indiamart.com/izzi-shoppers/?pos=43&kwd=baby nail clippers&tags=A||||8752.144|Price|product|||TS|rsf:gd-|-stype:attr=1|qr_nm:gd|res:RC3|com-cf:nl|ptrs:na|ktp:N0|mc:208877|mtp:S|qry_typ:P|lang:en|wc:3|cs:8896|v=4,False,mohan garden,New Delhi,"Ground Floor, E-48, Mohan Garden, mohan garden, New Delhi - 110059, Dist.Delhi, Delhi",8047543831,
Multicolor Baby Nail Clippers With Magnifying Glass,https://www.indiamart.com/proddetail/baby-nail-clippers-with-magnifying-glass-27118564297.html?pos=44&kwd=baby nail clippers&tags=A||||8211.142|Price|product|||TS|rsf:gd-|-stype:attr=1|qr_nm:gd|res:RC3|com-cf:nl|ptrs:na|ktp:N0|mc:208877|mtp:S|qry_typ:P|lang:en|wc:3|cs:8896|v=4,Itsyyboo,https://www.indiamart.com/nontoxic/?pos=44&kwd=baby nail clippers&tags=A||||8211.142|Price|product|||TS|rsf:gd-|-stype:attr=1|qr_nm:gd|res:RC3|com-cf:nl|ptrs:na|ktp:N0|mc:208877|mtp:S|qry_typ:P|lang:en|wc:3|cs:8896|v=4,False,Borivali East,Mumbai,"201, Kusum Bharti CHS Ltd, Dattapada Road, Opp Tata Steel, Borivali East, Mumbai, Borivali East, Mumbai - 400066, Dist.Mumbai, Maharashtra",8046065186,
"Baby Nail Trimmer, Electric, Newly Born",https://www.indiamart.com/proddetail/baby-nail-trimmer-2854991166355.html?pos=45&kwd=baby nail clippers&tags=A||||8211.142|Price|product|||TS|rsf:gd-|-stype:attr=1|qr_nm:gd|res:RC3|com-cf:nl|ptrs:na|ktp:N0|mc:208877|mtp:S|qry_typ:P|lang:en|wc:3|cs:8896|v=4,Neugenz,https://www.neugenz.in/?pos=45&kwd=baby nail clippers&tags=A||||8211.142|Price|product|||TS|rsf:gd-|-stype:attr=1|qr_nm:gd|res:RC3|com-cf:nl|ptrs:na|ktp:N0|mc:208877|mtp:S|qry_typ:P|lang:en|wc:3|cs:8896|v=4,False,,Mumbai,"8th Floor, Flat No 803, K S A Heights, 2nd Sankli Street Shaikh Hafizuddin Marg, Mumbai - 400008, Dist.Mumbai, Maharashtra",8041014703,
"Baby Nail Cutter, Electric, 1-2 Years",https://www.indiamart.com/proddetail/baby-nail-cutter-2854855803488.html?pos=46&kwd=baby nail clippers&tags=A||||8752.144|Price|product|||TS|rsf:gd-|-stype:attr=1|qr_nm:gd|res:RC3|com-cf:nl|ptrs:na|ktp:N0|mc:208877|mtp:S|qry_typ:P|lang:en|wc:3|cs:8896|v=4,M A Enterprises,https://www.maenterprisess.com/?pos=46&kwd=baby nail clippers&tags=A||||8752.144|Price|product|||TS|rsf:gd-|-stype:attr=1|qr_nm:gd|res:RC3|com-cf:nl|ptrs:na|ktp:N0|mc:208877|mtp:S|qry_typ:P|lang:en|wc:3|cs:8896|v=4,False,azadpur delhi,New Delhi,"Plot No 32b bassment Rameswar nagar Azadpur, azadpur delhi, New Delhi - 110033, Dist.Delhi, Delhi",7949326748,
Multicolor Baby Nail Trimmer,https://www.indiamart.com/proddetail/baby-nail-trimmer-26284607255.html?pos=47&kwd=baby nail clippers&tags=A||||8230.883|Price|product|||TS|rsf:gd-|-stype:attr=1|qr_nm:gd|res:RC3|com-cf:nl|ptrs:na|ktp:N0|mc:208877|mtp:S|qry_typ:P|lang:en|wc:3|cs:8896|v=4,Gadhiya Impex.,https://www.gadhiyaimpex.com/?pos=47&kwd=baby nail clippers&tags=A||||8230.883|Price|product|||TS|rsf:gd-|-stype:attr=1|qr_nm:gd|res:RC3|com-cf:nl|ptrs:na|ktp:N0|mc:208877|mtp:S|qry_typ:P|lang:en|wc:3|cs:8896|v=4,False,Katargam,Surat,"8th, 804, Variav Road, Panchshila Sky, Katargam, Surat - 394520, Dist.Surat, Gujarat",8047619805,
BABY NAIL TRIMMER,https://www.indiamart.com/proddetail/baby-nail-trimmer-26071567355.html?pos=48&kwd=baby nail clippers&tags=A||||8230.883|Price|product|||TS|rsf:gd-|-stype:attr=1|qr_nm:gd|res:RC3|com-cf:nl|ptrs:na|ktp:N0|mc:208877|mtp:S|qry_typ:P|lang:en|wc:3|cs:8896|v=4,Seaspirit(A Brand Of Spirit Enterprise),https://www.indiamart.com/spiritenterprisesurat/?pos=48&kwd=baby nail clippers&tags=A||||8230.883|Price|product|||TS|rsf:gd-|-stype:attr=1|qr_nm:gd|res:RC3|com-cf:nl|ptrs:na|ktp:N0|mc:208877|mtp:S|qry_typ:P|lang:en|wc:3|cs:8896|v=4,False,Dabholi,Surat,"HOLIDAY GATE NO.1, Shop No.1 - HOLIDAY, OPP SHREENATHDWARA SOCIETY, B/S NEW DELUX MOTORS, NEAR CANCER HOSPITAL, Dabholi Road, KATARGAM, Dabholi, Surat - 395004, Dist.Surat, Gujarat",8046069933,
Pink Baby Nail Trimmer,https://www.indiamart.com/proddetail/baby-nail-trimmer-25690143355.html?pos=49&kwd=baby nail clippers&tags=A||||8230.883|Price|product|||TS|rsf:gd-|-stype:attr=1|qr_nm:gd|res:RC3|com-cf:nl|ptrs:na|ktp:N0|mc:208877|mtp:S|qry_typ:P|lang:en|wc:3|cs:8896|v=4,Dynamic Import & Export,https://www.dynamicimportandexport.com/?pos=49&kwd=baby nail clippers&tags=A||||8230.883|Price|product|||TS|rsf:gd-|-stype:attr=1|qr_nm:gd|res:RC3|com-cf:nl|ptrs:na|ktp:N0|mc:208877|mtp:S|qry_typ:P|lang:en|wc:3|cs:8896|v=4,False,Punagam,Surat,"Shade No 4, Besides B4Bakers, Opp Ami Park Society, Manishnagar Market Road, Dabholi, Katargam, Punagam, Surat - 395010, Dist.Surat, Gujarat",8046030878,
"Baby Nail Trimmer, For Kids",https://www.indiamart.com/proddetail/baby-nail-trimmer-2852913605562.html?pos=50&kwd=baby nail clippers&tags=A||||8211.142|Price|product|||TS|rsf:gd-|-stype:attr=1|qr_nm:gd|res:RC3|com-cf:nl|ptrs:na|ktp:N0|mc:208877|mtp:S|qry_typ:P|lang:en|wc:3|cs:8896|v=4,M. G. L. & Co.,https://www.kbamkay.com/?pos=50&kwd=baby nail clippers&tags=A||||8211.142|Price|product|||TS|rsf:gd-|-stype:attr=1|qr_nm:gd|res:RC3|com-cf:nl|ptrs:na|ktp:N0|mc:208877|mtp:S|qry_typ:P|lang:en|wc:3|cs:8896|v=4,False,,Mumbai,"2 Nd Floor Office No 8 Abdul Rehman Street 1115 Sufarwala Building, Mumbai - 400003, Dist.Mumbai, Maharashtra",7942867468,
Baby Nail Trimmer,https://www.indiamart.com/proddetail/baby-nail-trimmer-2854490495797.html?pos=51&kwd=baby nail clippers&tags=A||||8228.275|Price|product|||TS|rsf:gd-|-stype:attr=1|qr_nm:gd|res:RC3|com-cf:nl|ptrs:na|ktp:N0|mc:208877|mtp:S|qry_typ:P|lang:en|wc:3|cs:8896|v=4,Stepup Corporation,https://www.indiamart.com/stepup-corporation/?pos=51&kwd=baby nail clippers&tags=A||||8228.275|Price|product|||TS|rsf:gd-|-stype:attr=1|qr_nm:gd|res:RC3|com-cf:nl|ptrs:na|ktp:N0|mc:208877|mtp:S|qry_typ:P|lang:en|wc:3|cs:8896|v=4,False,,Ahmedabad,"66/A, Nigam Society Nr. Smruti Mandir Road, Ghodhar,380050, Ahmedabad - 380050, Dist.Ahmedabad, Gujarat",7949336313,
"mix color Baby Nail Trimmer Set, For Household",https://www.indiamart.com/proddetail/baby-nail-trimmer-set-26237895530.html?pos=52&kwd=baby nail clippers&tags=A||||8752.144|Price|product|||TS|rsf:gd-|-stype:attr=1|qr_nm:gd|res:RC3|com-cf:nl|ptrs:na|ktp:N0|mc:208877|mtp:S|qry_typ:P|lang:en|wc:3|cs:8896|v=4,J L Trading Company,https://www.jltrading.in/?pos=52&kwd=baby nail clippers&tags=A||||8752.144|Price|product|||TS|rsf:gd-|-stype:attr=1|qr_nm:gd|res:RC3|com-cf:nl|ptrs:na|ktp:N0|mc:208877|mtp:S|qry_typ:P|lang:en|wc:3|cs:8896|v=4,False,Shastri Nagar,New Delhi,"E2/253, 3rd Floor, ICICI Bank Building, Shastri Nagar, New Delhi - 110052, Dist.Delhi, Delhi",8048956600,
Multicolor Baby Electric Drill Nail Trimmer,https://www.indiamart.com/proddetail/baby-electric-drill-nail-trimmer-2851935796762.html?pos=53&kwd=baby nail clippers&tags=A||||8230.883|Price|product|||TS|rsf:gd-|-stype:attr=1|qr_nm:gd|res:RC3|com-cf:nl|ptrs:na|ktp:N0|mc:208877|mtp:S|qry_typ:P|lang:en|wc:3|cs:8896|v=4,Amara Impex,https://www.amaraimpex.in/?pos=53&kwd=baby nail clippers&tags=A||||8230.883|Price|product|||TS|rsf:gd-|-stype:attr=1|qr_nm:gd|res:RC3|com-cf:nl|ptrs:na|ktp:N0|mc:208877|mtp:S|qry_typ:P|lang:en|wc:3|cs:8896|v=4,False,Katargam,Surat,"148, Haridham Society, Amabatalavdi Road, Katargam,, Katargam, Surat - 395004, Dist.Surat, Gujarat",8048613226,
Pink Nail Clippers Trimmer with magnifier,https://www.indiamart.com/proddetail/nail-clippers-trimmer-with-magnifier-25229656888.html?pos=54&kwd=baby nail clippers&tags=A||||8752.144|Price|product|||MDC|rsf:gd-|-stype:attr=1|qr_nm:gd|res:RC3|com-cf:nl|ptrs:na|ktp:N0|mc:208877|mtp:S|qry_typ:P|lang:en|wc:3|cs:8896|v=4,B-Qube Enterprises,https://www.indiamart.com/bqube-enterprises/?pos=54&kwd=baby nail clippers&tags=A||||8752.144|Price|product|||MDC|rsf:gd-|-stype:attr=1|qr_nm:gd|res:RC3|com-cf:nl|ptrs:na|ktp:N0|mc:208877|mtp:S|qry_typ:P|lang:en|wc:3|cs:8896|v=4,False,Karol Bagh,New Delhi,"303, Iiird Floor,13/4, W.E.A.,Karol Bagh, Karol Bagh, New Delhi - 110005, Dist.Delhi, Delhi",8047313183,
"Blue Baby Nail Trimmer, Manual, 3-12 Months",https://www.indiamart.com/proddetail/baby-nail-trimmer-2855009188148.html?pos=55&kwd=baby nail clippers&tags=A||||8830.388|Price|product|||MDC|rsf:gd-|-stype:attr=1|qr_nm:gd|res:RC3|com-cf:nl|ptrs:na|ktp:N0|mc:208877|mtp:S|qry_typ:P|lang:en|wc:3|cs:8896|v=4,Branding Strategem,https://www.indiamart.com/branding-strategem/?pos=55&kwd=baby nail clippers&tags=A||||8830.388|Price|product|||MDC|rsf:gd-|-stype:attr=1|qr_nm:gd|res:RC3|com-cf:nl|ptrs:na|ktp:N0|mc:208877|mtp:S|qry_typ:P|lang:en|wc:3|cs:8896|v=4,False,,Gwalior,"Bhainsa Chowki, Khasgi Bazar, Lashkar,, Gwalior - 474001, Dist.Gwalior, Madhya Pradesh",7949312316,
"Baby Nail Clipper, Manual, 12 piece",https://www.indiamart.com/proddetail/baby-nail-clipper-2854881883462.html?pos=56&kwd=baby nail clippers&tags=A||||8211.142|Price|product|||MDC|rsf:gd-|-stype:attr=1|qr_nm:gd|res:RC3|com-cf:nl|ptrs:na|ktp:N0|mc:208877|mtp:S|qry_typ:P|lang:en|wc:3|cs:8896|v=4,Champion Traders,https://www.indiamart.com/champion-traders-mumbai/?pos=56&kwd=baby nail clippers&tags=A||||8211.142|Price|product|||MDC|rsf:gd-|-stype:attr=1|qr_nm:gd|res:RC3|com-cf:nl|ptrs:na|ktp:N0|mc:208877|mtp:S|qry_typ:P|lang:en|wc:3|cs:8896|v=4,False,,Mumbai,"1st Floor, Room No 25, 27, Ismail Building, Sutar Chawl, Abdul Rehman Street, Kalbadevi,, Mumbai - 400002, Dist.Mumbai, Maharashtra",8044459818,
"Pink Baby Nail Trimmer, Electric, More than 12 months",https://www.indiamart.com/proddetail/baby-nail-trimmer-2854760501830.html?pos=57&kwd=baby nail clippers&tags=A||||8230.883|Price|product|||MDC|rsf:gd-|-stype:attr=1|qr_nm:gd|res:RC3|com-cf:nl|ptrs:na|ktp:N0|mc:208877|mtp:S|qry_typ:P|lang:en|wc:3|cs:8896|v=4,Mahant Enterprise,https://www.indiamart.com/mahantenterprisegujarat/?pos=57&kwd=baby nail clippers&tags=A||||8230.883|Price|product|||MDC|rsf:gd-|-stype:attr=1|qr_nm:gd|res:RC3|com-cf:nl|ptrs:na|ktp:N0|mc:208877|mtp:S|qry_typ:P|lang:en|wc:3|cs:8896|v=4,False,Dabholi Village,Surat,"12, Ground Floor, Ankita Park Society, Unnamed Road, Ved Road, Dabholi Village, Surat - 395004, Dist.Surat, Gujarat",7942828700,
Mixed Baby Nail Trimmer,https://www.indiamart.com/proddetail/baby-nail-trimmer-26228672873.html?pos=58&kwd=baby nail clippers&tags=A||||8785.608|Price|product|||MDC|rsf:gd-|-stype:attr=1|qr_nm:gd|res:RC3|com-cf:nl|ptrs:na|ktp:N0|mc:208877|mtp:S|qry_typ:P|lang:en|wc:3|cs:8896|v=4,Samridh Bazaar,https://www.indiamart.com/samridh-bazaaryamunanagar/?pos=58&kwd=baby nail clippers&tags=A||||8785.608|Price|product|||MDC|rsf:gd-|-stype:attr=1|qr_nm:gd|res:RC3|com-cf:nl|ptrs:na|ktp:N0|mc:208877|mtp:S|qry_typ:P|lang:en|wc:3|cs:8896|v=4,False,Mustafabad (Yamuna Nagar),Yamuna Nagar,"37, Saraswati Gali, Mustafabad, Mustafabad (Yamuna Nagar), Yamuna Nagar - 133103, Dist.Yamuna Nagar, Haryana",8043873396,
Baby Electric Nail Trimmer,,Golden Eagle Enterprises,https://www.indiamart.com/goldeneagle-enterprises-india/?pos=59&kwd=baby nail clippers&tags=A||||8752.144|Price|product|||MDC|rsf:gd-|-stype:attr=1|qr_nm:gd|res:RC3|com-cf:nl|ptrs:na|ktp:N0|mc:208877|mtp:S|qry_typ:P|lang:en|wc:3|cs:8896|v=4,False,Gokalpur East North,New Delhi,"330, 11, Gokalpur East North, New Delhi - 110094, Dist.Delhi, Delhi",7949328878,
Blue Baby Electric Nail Trimmer Kit,https://www.indiamart.com/proddetail/electric-baby-nail-clipper-2854912611773.html?pos=60&kwd=baby nail clippers&tags=A||||8230.883|Price|product|||MDC|rsf:gd-|-stype:attr=1|qr_nm:gd|res:RC3|com-cf:nl|ptrs:na|ktp:N0|mc:208877|mtp:S|qry_typ:P|lang:en|wc:3|cs:8896|v=4,SN Enterprise,https://www.indiamart.com/snenterprise-surat/?pos=60&kwd=baby nail clippers&tags=A||||8230.883|Price|product|||MDC|rsf:gd-|-stype:attr=1|qr_nm:gd|res:RC3|com-cf:nl|ptrs:na|ktp:N0|mc:208877|mtp:S|qry_typ:P|lang:en|wc:3|cs:8896|v=4,False,,Surat,"Plot 130/131, 2nd Floor, Flat 201, Balaji Nagar SOC-1, Shri Siddhi Vinayak Place, Surat - 395004, Dist.Surat, Gujarat",8041015777,
Baby Electric Nail Trimmer,https://www.indiamart.com/proddetail/baby-electric-nail-trimmer-2854911787930.html?pos=61&kwd=baby nail clippers&tags=A||||8785.791|Price|product|||MDC|rsf:gd-|-stype:attr=1|qr_nm:gd|res:RC3|com-cf:nl|ptrs:na|ktp:N0|mc:208877|mtp:S|qry_typ:P|lang:en|wc:3|cs:8896|v=4,Personable Products,https://www.indiamart.com/personable-products/?pos=61&kwd=baby nail clippers&tags=A||||8785.791|Price|product|||MDC|rsf:gd-|-stype:attr=1|qr_nm:gd|res:RC3|com-cf:nl|ptrs:na|ktp:N0|mc:208877|mtp:S|qry_typ:P|lang:en|wc:3|cs:8896|v=4,False,,Ghaziabad,"11/3, Bharat Nagar, Khora Colony, Ghaziabad - 201020, Dist.Ghaziabad, Uttar Pradesh",8041015052,
Baby Electric Nail Trimmer,https://www.indiamart.com/proddetail/baby-electric-nail-trimmer-26009733912.html?pos=62&kwd=baby nail clippers&tags=A||||8752.144|Price|product|||MDC|rsf:gd-|-stype:attr=1|qr_nm:gd|res:RC3|com-cf:nl|ptrs:na|ktp:N0|mc:208877|mtp:S|qry_typ:P|lang:en|wc:3|cs:8896|v=4,Honey Bell Enterprises,https://www.indiamart.com/honey-bell-enterprises/?pos=62&kwd=baby nail clippers&tags=A||||8752.144|Price|product|||MDC|rsf:gd-|-stype:attr=1|qr_nm:gd|res:RC3|com-cf:nl|ptrs:na|ktp:N0|mc:208877|mtp:S|qry_typ:P|lang:en|wc:3|cs:8896|v=4,False,Shastri Nagar,New Delhi,"House No.39/1, Plot No.39,Ground Floor Block E-2, Shastri Nagar, Shastri Nagar, New Delhi - 110052, Dist.Delhi, Delhi",8048971968,
"Sky Blue Plastic Baby Electric Nail Clipper, 3-12 Months",https://www.indiamart.com/proddetail/plastic-baby-electric-nail-clipper-2853569927962.html?pos=63&kwd=baby nail clippers&tags=A||||8211.142|Price|product|||MDC|rsf:gd-|-stype:attr=1|qr_nm:gd|res:RC3|com-cf:nl|ptrs:na|ktp:N0|mc:208877|mtp:S|qry_typ:P|lang:en|wc:3|cs:8896|v=4,Kidsmall,https://www.indiamart.com/kidsmall/?pos=63&kwd=baby nail clippers&tags=A||||8211.142|Price|product|||MDC|rsf:gd-|-stype:attr=1|qr_nm:gd|res:RC3|com-cf:nl|ptrs:na|ktp:N0|mc:208877|mtp:S|qry_typ:P|lang:en|wc:3|cs:8896|v=4,False,East Mumbai,Mumbai,"Ground Floor, 195/199, Jaipur G Transport, Sant Tukaram Road, Dana Bunder, Masjid Bandar, East Mumbai, Mumbai - 400009, Dist.Mumbai, Maharashtra",8044010942,
Mix Baby Nail Clipper,https://www.indiamart.com/proddetail/baby-nail-clipper-2849536667491.html?pos=64&kwd=baby nail clippers&tags=BA||||8752.144|Price|product|||TS|rsf:gd-|-stype:attr=1|qr_nm:gd|res:RC3|com-cf:nl|ptrs:na|ktp:N0|mc:208877|mtp:S|qry_typ:P|lang:en|wc:3|cs:8896|v=4,Ambika Traders,https://www.vikosteels.com/?pos=64&kwd=baby nail clippers&tags=BA||||8752.144|Price|product|||TS|rsf:gd-|-stype:attr=1|qr_nm:gd|res:RC3|com-cf:nl|ptrs:na|ktp:N0|mc:208877|mtp:S|qry_typ:P|lang:en|wc:3|cs:8896|v=4,False,Teliwara,New Delhi,"2582 Mahavir Bazar Teliwara, Teliwara, New Delhi - 110006, Dist.Delhi, Delhi",8047636488,
mixed Baby Nail Trimmer,https://www.indiamart.com/proddetail/baby-nail-trimmer-2849294016312.html?pos=65&kwd=baby nail clippers&tags=BA||||8752.144|Price|product|||TS|rsf:gd-|-stype:attr=1|qr_nm:gd|res:RC3|com-cf:nl|ptrs:na|ktp:N0|mc:208877|mtp:S|qry_typ:P|lang:en|wc:3|cs:8896|v=4,J&D Sales,https://www.indiamart.com/j-d-sales/?pos=65&kwd=baby nail clippers&tags=BA||||8752.144|Price|product|||TS|rsf:gd-|-stype:attr=1|qr_nm:gd|res:RC3|com-cf:nl|ptrs:na|ktp:N0|mc:208877|mtp:S|qry_typ:P|lang:en|wc:3|cs:8896|v=4,False,Azadpur,New Delhi,"Ga-12,G/F,Gopal Nagar Azadpur,New Delhi, Azadpur, New Delhi - 110033, Dist.Delhi, Delhi",7942545246,
CUTOM Baby Nail Clipper Set,https://www.indiamart.com/proddetail/baby-nail-clipper-set-22001047688.html?pos=66&kwd=baby nail clippers&tags=BA||||8752.144|Price|product|||TS|rsf:gd-|-stype:attr=1|qr_nm:gd|res:RC3|com-cf:nl|ptrs:na|ktp:N0|mc:208877|mtp:S|qry_typ:P|lang:en|wc:3|cs:8896|v=4,Dua Traders,https://www.indiamart.com/duatraders-delhi/?pos=66&kwd=baby nail clippers&tags=BA||||8752.144|Price|product|||TS|rsf:gd-|-stype:attr=1|qr_nm:gd|res:RC3|com-cf:nl|ptrs:na|ktp:N0|mc:208877|mtp:S|qry_typ:P|lang:en|wc:3|cs:8896|v=4,False,Mandoli,New Delhi,"Plot No. 8, Kh No. 4/24, Mela Ram Vatika, E-block, JR Complex No. 4, Mandoli, Sevadham, Mandoli, New Delhi - 110093, Dist.Delhi, Delhi",8048971741,
Pink Baby Nail Trimmer,https://www.indiamart.com/proddetail/baby-nail-trimmer-25440049088.html?pos=67&kwd=baby nail clippers&tags=BA||||8230.883|Price|product|||MDC|rsf:gd-|-stype:attr=1|qr_nm:gd|res:RC3|com-cf:nl|ptrs:na|ktp:N0|mc:208877|mtp:S|qry_typ:P|lang:en|wc:3|cs:8896|v=4,V S Enterprise,https://www.indiamart.com/vsenterprise-gujarat/?pos=67&kwd=baby nail clippers&tags=BA||||8230.883|Price|product|||MDC|rsf:gd-|-stype:attr=1|qr_nm:gd|res:RC3|com-cf:nl|ptrs:na|ktp:N0|mc:208877|mtp:S|qry_typ:P|lang:en|wc:3|cs:8896|v=4,False,Katargam,Surat,"B/501, Buil- B Sahstrafana Saubhagya Residency, Opp Western Somchintamani, Pal, Katargam, Surat - 395009, Dist.Surat, Gujarat",8048971602,
Nail Cutter .,https://www.indiamart.com/proddetail/nail-cutter-21955678212.html?pos=68&kwd=baby nail clippers&tags=BA||||8211.142|Price|product|||MDC|rsf:gd-|-stype:attr=1|qr_nm:gd|res:RC3|com-cf:nl|ptrs:na|ktp:N0|mc:208877|mtp:S|qry_typ:P|lang:en|wc:3|cs:8896|v=4,Divyanayanaprabha Suppliers & Traders,https://www.indiamart.com/divyanayanprabha/?pos=68&kwd=baby nail clippers&tags=BA||||8211.142|Price|product|||MDC|rsf:gd-|-stype:attr=1|qr_nm:gd|res:RC3|com-cf:nl|ptrs:na|ktp:N0|mc:208877|mtp:S|qry_typ:P|lang:en|wc:3|cs:8896|v=4,False,Kalbadevi,Mumbai,"126/D, Jagannath Chawl, 1st Floor Room No. 18, Fanaswadi, S. P. Marg, Kalbadevi, Mumbai - 400002, Dist.Mumbai, Maharashtra",8046077436,
"Plastic Baby Nail Clippers, Newly Born",https://www.indiamart.com/proddetail/baby-nail-clippers-2854173214591.html?pos=69&kwd=baby nail clippers&tags=BA||||8230.883|Price|product|||TS|rsf:gd-|-stype:attr=1|qr_nm:gd|res:RC3|com-cf:nl|ptrs:na|ktp:N0|mc:208877|mtp:S|qry_typ:P|lang:en|wc:3|cs:8896|v=4,Dhwanit Enterprise,https://www.indiamart.com/dhwanit-enterprise-gujarat/?pos=69&kwd=baby nail clippers&tags=BA||||8230.883|Price|product|||TS|rsf:gd-|-stype:attr=1|qr_nm:gd|res:RC3|com-cf:nl|ptrs:na|ktp:N0|mc:208877|mtp:S|qry_typ:P|lang:en|wc:3|cs:8896|v=4,False,Shakti Vijay Society,Surat,"Fourth Floor, A-402, Jay Sahkar Co. Op. Housing Society, Ak Road, Rupakala Saree, Varachha, Shakti Vijay Society, Surat - 395008, Dist.Surat, Gujarat",8044561629,
Baby Gentle Nail Clipper With Magnifier,https://www.indiamart.com/proddetail/baby-gentle-nail-clipper-with-magnifier-20711979255.html?pos=70&kwd=baby nail clippers&tags=BA||||8752.144|Price|product|||TS|rsf:gd-|-stype:attr=1|qr_nm:gd|res:RC3|com-cf:nl|ptrs:na|ktp:N0|mc:208877|mtp:S|qry_typ:P|lang:en|wc:3|cs:8896|v=4,National Overseas,https://www.indiamart.com/nationaltraders-vishwashnagar/?pos=70&kwd=baby nail clippers&tags=BA||||8752.144|Price|product|||TS|rsf:gd-|-stype:attr=1|qr_nm:gd|res:RC3|com-cf:nl|ptrs:na|ktp:N0|mc:208877|mtp:S|qry_typ:P|lang:en|wc:3|cs:8896|v=4,False,Shahdara,New Delhi,"1/99, Gali No. 3, Vishwas Nagar, Shahdara, New Delhi - 110032, Dist.Delhi, Delhi",8046047673,
Pink Baby Nail Clippers,https://www.indiamart.com/proddetail/baby-nail-clippers-26158179588.html?pos=71&kwd=baby nail clippers&tags=BA||||8752.144|Price|product|||TS|rsf:gd-|-stype:attr=1|qr_nm:gd|res:RC3|com-cf:nl|ptrs:na|ktp:N0|mc:208877|mtp:S|qry_typ:P|lang:en|wc:3|cs:8896|v=4,Ganga Traders,https://www.indiamart.com/gangatradersdelhi/?pos=71&kwd=baby nail clippers&tags=BA||||8752.144|Price|product|||TS|rsf:gd-|-stype:attr=1|qr_nm:gd|res:RC3|com-cf:nl|ptrs:na|ktp:N0|mc:208877|mtp:S|qry_typ:P|lang:en|wc:3|cs:8896|v=4,False,Swasthya Vihar,New Delhi,"E-16/210, Ground Floor, Bapa Nagar, SHARMA, Swasthya Vihar, New Delhi - 110005, Dist.Delhi, Delhi",8043855678,
Multicolor Baby Nail Clippers Kit,https://www.indiamart.com/proddetail/baby-nail-clippers-kit-21902797748.html?pos=72&kwd=baby nail clippers&tags=BA||||8752.144|Price|product|||TS|rsf:gd-|-stype:attr=1|qr_nm:gd|res:RC3|com-cf:nl|ptrs:na|ktp:N0|mc:208877|mtp:S|qry_typ:P|lang:en|wc:3|cs:8896|v=4,Mom & Son,https://www.theindianchoice.com/?pos=72&kwd=baby nail clippers&tags=BA||||8752.144|Price|product|||TS|rsf:gd-|-stype:attr=1|qr_nm:gd|res:RC3|com-cf:nl|ptrs:na|ktp:N0|mc:208877|mtp:S|qry_typ:P|lang:en|wc:3|cs:8896|v=4,False,Karawal Nagar,New Delhi,"B-57 Gali Number-1 Mukund Vihar, Near Pnb Bank, Karawal Nagar, New Delhi - 110094, Dist.Delhi, Delhi",7942565509,
Baby Nail Clippers With Light,https://www.indiamart.com/proddetail/baby-nail-clippers-with-light-2854651374233.html?pos=73&kwd=baby nail clippers&tags=BA||||8557.848|Price|product|||TS|rsf:gd-|-stype:attr=1|qr_nm:gd|res:RC3|com-cf:nl|ptrs:na|ktp:N0|mc:208877|mtp:S|qry_typ:P|lang:en|wc:3|cs:8896|v=4,Deal IND ( A Brand of Store APT ),https://www.indiamart.com/deal-ind/?pos=73&kwd=baby nail clippers&tags=BA||||8557.848|Price|product|||TS|rsf:gd-|-stype:attr=1|qr_nm:gd|res:RC3|com-cf:nl|ptrs:na|ktp:N0|mc:208877|mtp:S|qry_typ:P|lang:en|wc:3|cs:8896|v=4,False,Kalanjoor,Pathanamthitta,"16/589 Kalanjoor Kalanjoor, Kalanjoor, Pathanamthitta - 689694, Dist.Pathanamthitta, Kerala",,
Multicolor Baby Nail Trimmer Electric Safe Baby Nail Clippers,https://www.indiamart.com/proddetail/baby-nail-trimmer-electric-safe-baby-nail-clippers-2850835880412.html?pos=74&kwd=baby nail clippers&tags=BA||||8752.144|Price|product|||TS|rsf:gd-|-stype:attr=1|qr_nm:gd|res:RC3|com-cf:nl|ptrs:na|ktp:N0|mc:208877|mtp:S|qry_typ:P|lang:en|wc:3|cs:8896|v=4,RV Enterprises,https://www.indiamart.com/r-v-enterprisesdelhi/?pos=74&kwd=baby nail clippers&tags=BA||||8752.144|Price|product|||TS|rsf:gd-|-stype:attr=1|qr_nm:gd|res:RC3|com-cf:nl|ptrs:na|ktp:N0|mc:208877|mtp:S|qry_typ:P|lang:en|wc:3|cs:8896|v=4,False,,New Delhi,"Kh. No.9/21, Shop No-3 Ground Floor, Kaushik Enclave, Block-B, New Delhi, North East Delhi, New Delhi - 110084, Dist.Delhi, Delhi",7942795485,
"Multicolor Baby Nail Clippers with Light, Electric Baby Nail Trimmer",https://www.indiamart.com/proddetail/baby-nail-clippers-with-light-electric-baby-nail-trimmer-2850550578262.html?pos=75&kwd=baby nail clippers&tags=BA||||8230.883|Price|product|||TS|rsf:gd-|-stype:attr=1|qr_nm:gd|res:RC3|com-cf:nl|ptrs:na|ktp:N0|mc:208877|mtp:S|qry_typ:P|lang:en|wc:3|cs:8896|v=4,Varni Sales,https://www.indiamart.com/varnisales/?pos=75&kwd=baby nail clippers&tags=BA||||8230.883|Price|product|||TS|rsf:gd-|-stype:attr=1|qr_nm:gd|res:RC3|com-cf:nl|ptrs:na|ktp:N0|mc:208877|mtp:S|qry_typ:P|lang:en|wc:3|cs:8896|v=4,False,Punagam,Surat,"117, Chamunda Nagar Society, Bombay Market, Punagam, Punagam, Surat - 395010, Dist.Surat, Gujarat",7942788932,
"Multicolor Baby Nail Clippers with Light, Electric Baby Nail Trimmer",https://www.indiamart.com/proddetail/baby-nail-clippers-with-light-electric-baby-nail-trimmer-2849631326397.html?pos=76&kwd=baby nail clippers&tags=BA||||8230.883|Price|product|||TS|rsf:gd-|-stype:attr=1|qr_nm:gd|res:RC3|com-cf:nl|ptrs:na|ktp:N0|mc:208877|mtp:S|qry_typ:P|lang:en|wc:3|cs:8896|v=4,M. Khodiyar Fashion,https://www.mkhodiyarfashion.com/?pos=76&kwd=baby nail clippers&tags=BA||||8230.883|Price|product|||TS|rsf:gd-|-stype:attr=1|qr_nm:gd|res:RC3|com-cf:nl|ptrs:na|ktp:N0|mc:208877|mtp:S|qry_typ:P|lang:en|wc:3|cs:8896|v=4,False,Singanpor,Surat,"243-244, GR FL, Shree Krushna Nagar SOC, NR. Multy Purpose Hall, Singanpore Road, Singanpor, Surat - 395004, Dist.Surat, Gujarat",7942791367,
Baby Nail Clipper And Filler,https://www.indiamart.com/proddetail/baby-nail-clipper-and-filler-2853556570633.html?pos=77&kwd=baby nail clippers&tags=BA||||8230.883|Price|product|||TS|rsf:gd-|-stype:attr=1|qr_nm:gd|res:RC3|com-cf:nl|ptrs:na|ktp:N0|mc:208877|mtp:S|qry_typ:P|lang:en|wc:3|cs:8896|v=4,Parth Traders,https://www.parthtraders.co.in/?pos=77&kwd=baby nail clippers&tags=BA||||8230.883|Price|product|||TS|rsf:gd-|-stype:attr=1|qr_nm:gd|res:RC3|com-cf:nl|ptrs:na|ktp:N0|mc:208877|mtp:S|qry_typ:P|lang:en|wc:3|cs:8896|v=4,False,Udhana,Surat,"BLOCK NO.298,NR. SANGAR FARM, KOSMADA NAHER, KOSMADA,KAMREJ, Udhana, Surat - 395006, Dist.Surat, Gujarat",8047690914,
"Baby Nail Trimmer Electric, Safe Baby Nail File, Baby Nail Clippers With Light",https://www.indiamart.com/proddetail/baby-nail-trimmer-electric-safe-baby-nail-file-baby-nail-clippers-with-light-2854348544455.html?pos=78&kwd=baby nail clippers&tags=BA||||8230.883|Price|product|||TS|rsf:gd-|-stype:attr=1|qr_nm:gd|res:RC3|com-cf:nl|ptrs:na|ktp:N0|mc:208877|mtp:S|qry_typ:P|lang:en|wc:3|cs:8896|v=4,Mozabee Enterprise,https://www.indiamart.com/mozabee-enterprise/?pos=78&kwd=baby nail clippers&tags=BA||||8230.883|Price|product|||TS|rsf:gd-|-stype:attr=1|qr_nm:gd|res:RC3|com-cf:nl|ptrs:na|ktp:N0|mc:208877|mtp:S|qry_typ:P|lang:en|wc:3|cs:8896|v=4,False,Amroli,Surat,"FLAT-501,ASTHA RESIDENCY WING-E,KOSAD ROAD,SURAT, Amroli, Surat - 394107, Dist.Surat, Gujarat",,
"Baby Nail Trimmer Electric, Safe Baby Nail File,Baby Nail Clippers with Light",https://www.indiamart.com/proddetail/baby-nail-trimmer-electric-safe-baby-nail-file-baby-nail-clippers-with-light-2853662613573.html?pos=79&kwd=baby nail clippers&tags=BA||||8228.275|Price|product|||TS|rsf:gd-|-stype:attr=1|qr_nm:gd|res:RC3|com-cf:nl|ptrs:na|ktp:N0|mc:208877|mtp:S|qry_typ:P|lang:en|wc:3|cs:8896|v=4,Vishwas Enterprise,https://www.indiamart.com/vishwasenterprise/?pos=79&kwd=baby nail clippers&tags=BA||||8228.275|Price|product|||TS|rsf:gd-|-stype:attr=1|qr_nm:gd|res:RC3|com-cf:nl|ptrs:na|ktp:N0|mc:208877|mtp:S|qry_typ:P|lang:en|wc:3|cs:8896|v=4,False,NIKOL,Ahmedabad,"70 Sahjanand Businesses Park Opp Plam Hotel, Behind Shree Marutinandan Restaurants, NIKOL, Ahmedabad - 382350, Dist.Ahmedabad, Gujarat",7942536201,
Baby Nail Trimmer with 6 Grinding Heads Safe for Newborn Baby Baby Nail Clippers with Light,https://www.indiamart.com/proddetail/baby-nail-trimmer-with-6-grinding-heads-safe-for-newborn-baby-baby-nail-clippers-with-light-2850667957055.html?pos=80&kwd=baby nail clippers&tags=BB||||8752.144|Price|product|||TS|rsf:gd-|-stype:attr=1|qr_nm:gd|res:RC3|com-cf:nl|ptrs:na|ktp:N0|mc:208877|mtp:S|qry_typ:P|lang:en|wc:3|cs:8896|v=4,Jainone Hub,https://www.indiamart.com/jainonehub/?pos=80&kwd=baby nail clippers&tags=BB||||8752.144|Price|product|||TS|rsf:gd-|-stype:attr=1|qr_nm:gd|res:RC3|com-cf:nl|ptrs:na|ktp:N0|mc:208877|mtp:S|qry_typ:P|lang:en|wc:3|cs:8896|v=4,False,Mandoli,New Delhi,"J- 8, Near Frooti Godown, Gali No. 4, Melaram Farm House Mandoli Sewadham Road, Mandoli, New Delhi - 110093, Dist.Delhi, Delhi",8048963941,
Baby Nail Clippers with Light - Electric Nail Trimmer for Safe and Easy Baby Nail Care (1 Pic),https://www.indiamart.com/proddetail/baby-nail-clippers-with-light-electric-nail-trimmer-for-safe-and-easy-baby-nail-care-1-pic-2853208253212.html?pos=81&kwd=baby nail clippers&tags=BA||||8230.883|Price|product|||TS|rsf:gd-|-stype:attr=1|qr_nm:gd|res:RC3|com-cf:nl|ptrs:na|ktp:N0|mc:208877|mtp:S|qry_typ:P|lang:en|wc:3|cs:8896|v=4,DS Enterprise,https://www.dsent.in/?pos=81&kwd=baby nail clippers&tags=BA||||8230.883|Price|product|||TS|rsf:gd-|-stype:attr=1|qr_nm:gd|res:RC3|com-cf:nl|ptrs:na|ktp:N0|mc:208877|mtp:S|qry_typ:P|lang:en|wc:3|cs:8896|v=4,False,Mota Varachha,Surat,"404, 4th Floor ,Green Plaza, Golden City Road, Mota Varachha, Surat - 394101, Dist.Surat, Gujarat",8048977036,
Baby Nail Trimmer Baby Nail Cutter,https://www.indiamart.com/proddetail/baby-nail-trimmer-baby-nail-cutter-2853626694712.html?pos=82&kwd=baby nail clippers&tags=BA||||8228.275|Price|product|||TS|rsf:gd-|-stype:attr=1|qr_nm:gd|res:RC3|com-cf:nl|ptrs:na|ktp:N0|mc:208877|mtp:S|qry_typ:P|lang:en|wc:3|cs:8896|v=4,Bajrang Traders,https://www.bajrangtraders.net/?pos=82&kwd=baby nail clippers&tags=BA||||8228.275|Price|product|||TS|rsf:gd-|-stype:attr=1|qr_nm:gd|res:RC3|com-cf:nl|ptrs:na|ktp:N0|mc:208877|mtp:S|qry_typ:P|lang:en|wc:3|cs:8896|v=4,False,,Ahmedabad,"491, Haja Patel Ni Pole, Behind Calico Dom, Relief Road, Ahmedabad - 380001, Dist.Ahmedabad, Gujarat",8046065251,
BABY NAIL TRIMMER,https://www.indiamart.com/proddetail/baby-nail-trimmer-2854228984530.html?pos=83&kwd=baby nail clippers&tags=BB||||8752.144|Price|product|||TS|rsf:gd-|-stype:attr=1|qr_nm:gd|res:RC3|com-cf:nl|ptrs:na|ktp:N0|mc:208877|mtp:S|qry_typ:P|lang:en|wc:3|cs:8896|v=4,Sabse Sasta Store,https://www.indiamart.com/sabsesastastorenewdelhi/?pos=83&kwd=baby nail clippers&tags=BB||||8752.144|Price|product|||TS|rsf:gd-|-stype:attr=1|qr_nm:gd|res:RC3|com-cf:nl|ptrs:na|ktp:N0|mc:208877|mtp:S|qry_typ:P|lang:en|wc:3|cs:8896|v=4,False,North West,New Delhi,"Ground Floor, BLK-C, House No.2/1, Village Mohamadpur Mazri, Near Main Kanjhawala, Rama Vihar, North West, New Delhi - 110081, Dist.Delhi, Delhi",7942721280,
Mix Baby Nail Trimmer,https://www.indiamart.com/proddetail/baby-nail-trimmer-2850184294362.html?pos=84&kwd=baby nail clippers&tags=BB||||8211.142|Price|product|||TS|rsf:gd-|-stype:attr=1|qr_nm:gd|res:RC3|com-cf:nl|ptrs:na|ktp:N0|mc:208877|mtp:S|qry_typ:P|lang:en|wc:3|cs:8896|v=4,M S Trader's,https://www.mstraders.in.net/?pos=84&kwd=baby nail clippers&tags=BB||||8211.142|Price|product|||TS|rsf:gd-|-stype:attr=1|qr_nm:gd|res:RC3|com-cf:nl|ptrs:na|ktp:N0|mc:208877|mtp:S|qry_typ:P|lang:en|wc:3|cs:8896|v=4,False,Town Hall,Mumbai,"2nd Floor 72/73 Saboo Siddik Road, Musafir Khana, Fort Bmc Dormitory Building, Town Hall, Mumbai - 400001, Dist.Mumbai, Maharashtra",7942541092,
"Blue baby nail trimmer, Electric, Newly Born",https://www.indiamart.com/proddetail/baby-nail-trimmer-2854650724555.html?pos=85&kwd=baby nail clippers&tags=BB||||8211.142|Price|product|||TS|rsf:gd-|-stype:attr=1|qr_nm:gd|res:RC3|com-cf:nl|ptrs:na|ktp:N0|mc:208877|mtp:S|qry_typ:P|lang:en|wc:3|cs:8896|v=4,Online Shopy NX,https://www.onlineshopynx.com/?pos=85&kwd=baby nail clippers&tags=BB||||8211.142|Price|product|||TS|rsf:gd-|-stype:attr=1|qr_nm:gd|res:RC3|com-cf:nl|ptrs:na|ktp:N0|mc:208877|mtp:S|qry_typ:P|lang:en|wc:3|cs:8896|v=4,False,Malad West,Mumbai,"Shop No 13, Ground Floor, Malad Shopping Center, Ismail Baug, S.V Road West, Suburban, Malad West, Mumbai - 400064, Dist.Mumbai, Maharashtra",8047674377,
Baby Nail Trimmer,https://www.indiamart.com/proddetail/baby-nail-trimmer-2854782256633.html?pos=86&kwd=baby nail clippers&tags=BB||||9189.305|Price|product|||TS|rsf:gd-|-stype:attr=1|qr_nm:gd|res:RC3|com-cf:nl|ptrs:na|ktp:N0|mc:208877|mtp:S|qry_typ:P|lang:en|wc:3|cs:8896|v=4,Sk Enterprises,https://www.indiamart.com/s-k-enterprises-allahabad/?pos=86&kwd=baby nail clippers&tags=BB||||9189.305|Price|product|||TS|rsf:gd-|-stype:attr=1|qr_nm:gd|res:RC3|com-cf:nl|ptrs:na|ktp:N0|mc:208877|mtp:S|qry_typ:P|lang:en|wc:3|cs:8896|v=4,False,,Prayagraj,"503 Katra Prayagraj, Prayagraj - 211002, Dist.Allahabad, Uttar Pradesh",8044460718,
"Multicolor Baby Nail Cutter, For Child",https://www.indiamart.com/proddetail/baby-nail-cutter-27437190273.html?pos=87&kwd=baby nail clippers&tags=BA||||8230.883|Price|product|||TS|rsf:gd-|-stype:attr=1|qr_nm:gd|res:RC3|com-cf:nl|ptrs:na|ktp:N0|mc:208877|mtp:S|qry_typ:P|lang:en|wc:3|cs:8896|v=4,Isabella (A Brand Of Shayona Creation),https://www.srkmart.com/?pos=87&kwd=baby nail clippers&tags=BA||||8230.883|Price|product|||TS|rsf:gd-|-stype:attr=1|qr_nm:gd|res:RC3|com-cf:nl|ptrs:na|ktp:N0|mc:208877|mtp:S|qry_typ:P|lang:en|wc:3|cs:8896|v=4,False,Utran,Surat,"208, Turning Point Near Bank Of Baroda Bank, Utran, Surat - 394105, Dist.Surat, Gujarat",8046057635,
Baby Electric Nail Trimmer,https://www.indiamart.com/proddetail/baby-electric-nail-trimmer-2854777487230.html?pos=88&kwd=baby nail clippers&tags=BA||||8230.883|Price|product|||TS|rsf:gd-|-stype:attr=1|qr_nm:gd|res:RC3|com-cf:nl|ptrs:na|ktp:N0|mc:208877|mtp:S|qry_typ:P|lang:en|wc:3|cs:8896|v=4,Iscon Mart,https://www.indiamart.com/iscon-mart-gujarat/?pos=88&kwd=baby nail clippers&tags=BA||||8230.883|Price|product|||TS|rsf:gd-|-stype:attr=1|qr_nm:gd|res:RC3|com-cf:nl|ptrs:na|ktp:N0|mc:208877|mtp:S|qry_typ:P|lang:en|wc:3|cs:8896|v=4,False,,Surat,"518 the gallery business hub 2 near mahavir chikuvadi nana varachha surat -395006, Surat - 395010, Dist.Surat, Gujarat",8045736488,
Baby Nail Trimmer,,Sneakdawg Apparel India Private Limited,https://www.indiamart.com/sneakdawgapparelindia/?pos=89&kwd=baby nail clippers&tags=BA||||8752.144|Price|product|||TS|rsf:gd-|-stype:attr=1|qr_nm:gd|res:RC3|com-cf:nl|ptrs:na|ktp:N0|mc:208877|mtp:S|qry_typ:P|lang:en|wc:3|cs:8896|v=4,False,Tagore Garden,New Delhi,"Ad-1, Upper G/f Tagore Garden West, Tagore Garden, New Delhi - 110027, Dist.Delhi, Delhi",7942713547,
"Blue Baby Nail Trimmer, Electric, Newly Born",https://www.indiamart.com/proddetail/baby-nail-trimmer-2854325901191.html?pos=90&kwd=baby nail clippers&tags=BB||||8230.883|Price|product|||TS|rsf:gd-|-stype:attr=1|qr_nm:gd|res:RC3|com-cf:nl|ptrs:na|ktp:N0|mc:208877|mtp:S|qry_typ:P|lang:en|wc:3|cs:8896|v=4,S R Entrprise,https://www.homekitchenproduct.com/?pos=90&kwd=baby nail clippers&tags=BB||||8230.883|Price|product|||TS|rsf:gd-|-stype:attr=1|qr_nm:gd|res:RC3|com-cf:nl|ptrs:na|ktp:N0|mc:208877|mtp:S|qry_typ:P|lang:en|wc:3|cs:8896|v=4,False,,Surat,"14th Floor, Flat No-D/1404, Rivanata Luxuria, Hazira Sayan Road, Surat - 394107, Dist.Surat, Gujarat",8045731417,
Pink Baby Nail Trimmer,https://www.indiamart.com/proddetail/baby-nail-trimmer-2853052242273.html?pos=91&kwd=baby nail clippers&tags=BA||||8230.883|Price|product|||TS|rsf:gd-|-stype:attr=1|qr_nm:gd|res:RC3|com-cf:nl|ptrs:na|ktp:N0|mc:208877|mtp:S|qry_typ:P|lang:en|wc:3|cs:8896|v=4,Basketo,https://www.basketo.net/?pos=91&kwd=baby nail clippers&tags=BA||||8230.883|Price|product|||TS|rsf:gd-|-stype:attr=1|qr_nm:gd|res:RC3|com-cf:nl|ptrs:na|ktp:N0|mc:208877|mtp:S|qry_typ:P|lang:en|wc:3|cs:8896|v=4,False,Singanpor,Surat,"PLOT NO-32,Laxmi Narayan Society,DABHOLI CHAR RASTA, VED ROAD,Surat, Singanpor, Surat - 395004, Dist.Surat, Gujarat",7942716532,
Multicolor Baby Nail Cutter,https://www.indiamart.com/proddetail/baby-nail-cutter-2852174268191.html?pos=92&kwd=baby nail clippers&tags=BA||||8752.144|Price|product|||TS|rsf:gd-|-stype:attr=1|qr_nm:gd|res:RC3|com-cf:nl|ptrs:na|ktp:N0|mc:208877|mtp:S|qry_typ:P|lang:en|wc:3|cs:8896|v=4,Sultan Enterprises,https://www.indiamart.com/sultanenterprises-newdelhi/?pos=92&kwd=baby nail clippers&tags=BA||||8752.144|Price|product|||TS|rsf:gd-|-stype:attr=1|qr_nm:gd|res:RC3|com-cf:nl|ptrs:na|ktp:N0|mc:208877|mtp:S|qry_typ:P|lang:en|wc:3|cs:8896|v=4,False,Tigri Extension,New Delhi,"414/ 9, Block - E, 7A, Sangam Vihar, Tigri Extension, New Delhi - 110062, Dist.Delhi, Delhi",8048954887,
Baby Nail Cutter,https://www.indiamart.com/proddetail/baby-nail-cutter-2853327191673.html?pos=93&kwd=baby nail clippers&tags=BA||||8752.144|Price|product|||TS|rsf:gd-|-stype:attr=1|qr_nm:gd|res:RC3|com-cf:nl|ptrs:na|ktp:N0|mc:208877|mtp:S|qry_typ:P|lang:en|wc:3|cs:8896|v=4,New India Trading Co.,https://www.indiamart.com/new-indiatradingco/?pos=93&kwd=baby nail clippers&tags=BA||||8752.144|Price|product|||TS|rsf:gd-|-stype:attr=1|qr_nm:gd|res:RC3|com-cf:nl|ptrs:na|ktp:N0|mc:208877|mtp:S|qry_typ:P|lang:en|wc:3|cs:8896|v=4,False,Jama Masjid,New Delhi,"MPL No-448 S/F, Gali Sarotey Wali Matia Mahal Jama Masjid, North, Jama Masjid, New Delhi - 110006, Dist.Delhi, Delhi",7948549987,
BABY NAIL TRIMMER,https://www.indiamart.com/proddetail/baby-nail-trimmer-2854266549830.html?pos=94&kwd=baby nail clippers&tags=BA||||8221.91|Price|product|||TS|rsf:gd-|-stype:attr=1|qr_nm:gd|res:RC3|com-cf:nl|ptrs:na|ktp:N0|mc:208877|mtp:S|qry_typ:P|lang:en|wc:3|cs:8896|v=4,Myroyal Multi Activity Private Limited,https://www.indiamart.com/myroyal-multi-activity/?pos=94&kwd=baby nail clippers&tags=BA||||8221.91|Price|product|||TS|rsf:gd-|-stype:attr=1|qr_nm:gd|res:RC3|com-cf:nl|ptrs:na|ktp:N0|mc:208877|mtp:S|qry_typ:P|lang:en|wc:3|cs:8896|v=4,False,Mahemdavad,Mehmedabad,"Vatsalya Complex, GF/B -11, Mahudha Road, Mahemdavad, Mehmedabad - 387130, Dist.Kheda, Gujarat",7942547852,
Baby Nail Trimmer,https://www.indiamart.com/proddetail/baby-nail-trimmer-2854655173448.html?pos=95&kwd=baby nail clippers&tags=BA||||8211.142|Price|product|||TS|rsf:gd-|-stype:attr=1|qr_nm:gd|res:RC3|com-cf:nl|ptrs:na|ktp:N0|mc:208877|mtp:S|qry_typ:P|lang:en|wc:3|cs:8896|v=4,Alino Collection,https://www.alinocollection.com/?pos=95&kwd=baby nail clippers&tags=BA||||8211.142|Price|product|||TS|rsf:gd-|-stype:attr=1|qr_nm:gd|res:RC3|com-cf:nl|ptrs:na|ktp:N0|mc:208877|mtp:S|qry_typ:P|lang:en|wc:3|cs:8896|v=4,False,Santacruz East,Mumbai,"Shop no 505, Building No 11, Motilal Nehru Nagar,Bandra BKC, Bandra East, Santacruz East, Mumbai - 400098, Dist.Mumbai, Maharashtra",8048970663,
"Multicolor Baby Nail Trimmer, For Babby Nails",https://www.indiamart.com/proddetail/baby-nail-trimmer-2851740241555.html?pos=96&kwd=baby nail clippers&tags=BB||||8752.144|Price|product|||TS|rsf:gd-|-stype:attr=1|qr_nm:gd|res:RC3|com-cf:nl|ptrs:na|ktp:N0|mc:208877|mtp:S|qry_typ:P|lang:en|wc:3|cs:8896|v=4,Style Line Enterprises,https://www.indiamart.com/stylelineenterprises/?pos=96&kwd=baby nail clippers&tags=BB||||8752.144|Price|product|||TS|rsf:gd-|-stype:attr=1|qr_nm:gd|res:RC3|com-cf:nl|ptrs:na|ktp:N0|mc:208877|mtp:S|qry_typ:P|lang:en|wc:3|cs:8896|v=4,False,Chandni Chowk,New Delhi,"419/16, Gopal Rai Market, hotel tara place Esplanade Road, Chandni Chowk, New Delhi - 110006, Dist.Delhi, Delhi",8048977111,
Mix Baby Nail Trimmer,https://www.indiamart.com/proddetail/baby-nail-trimmer-26088177855.html?pos=97&kwd=baby nail clippers&tags=BA||||8752.144|Price|product|||TS|rsf:gd-|-stype:attr=1|qr_nm:gd|res:RC3|com-cf:nl|ptrs:na|ktp:N0|mc:208877|mtp:S|qry_typ:P|lang:en|wc:3|cs:8896|v=4,JRC Trade India,https://www.indiamart.com/jrstradeindia/?pos=97&kwd=baby nail clippers&tags=BA||||8752.144|Price|product|||TS|rsf:gd-|-stype:attr=1|qr_nm:gd|res:RC3|com-cf:nl|ptrs:na|ktp:N0|mc:208877|mtp:S|qry_typ:P|lang:en|wc:3|cs:8896|v=4,False,Shastri Nagar,New Delhi,"House No. 253, Block E 2, Shastri Nagar, New Delhi - 110052, Dist.Delhi, Delhi",8047634068,
Multicolor Round Baby Nail Trimmer,https://www.indiamart.com/proddetail/round-baby-nail-trimmer-26041388591.html?pos=98&kwd=baby nail clippers&tags=BA||||8230.883|Price|product|||TS|rsf:gd-|-stype:attr=1|qr_nm:gd|res:RC3|com-cf:nl|ptrs:na|ktp:N0|mc:208877|mtp:S|qry_typ:P|lang:en|wc:3|cs:8896|v=4,TS MART,https://www.tsmart.co.in/?pos=98&kwd=baby nail clippers&tags=BA||||8230.883|Price|product|||TS|rsf:gd-|-stype:attr=1|qr_nm:gd|res:RC3|com-cf:nl|ptrs:na|ktp:N0|mc:208877|mtp:S|qry_typ:P|lang:en|wc:3|cs:8896|v=4,False,Vijay Nagar Society No 2,Surat,"Ground Floor Om Shiv Complex Yogi Chowk, Vijay Nagar Society No 2, Surat - 395010, Dist.Surat, Gujarat",8046054788,
"Pink Baby Nail Trimmer, For Household",https://www.indiamart.com/proddetail/baby-nail-trimmer-26468743591.html?pos=99&kwd=baby nail clippers&tags=BA||||8230.883|Price|product|||TS|rsf:gd-|-stype:attr=1|qr_nm:gd|res:RC3|com-cf:nl|ptrs:na|ktp:N0|mc:208877|mtp:S|qry_typ:P|lang:en|wc:3|cs:8896|v=4,Alpyog Marketing,https://www.alpyogmarketing.com/?pos=99&kwd=baby nail clippers&tags=BA||||8230.883|Price|product|||TS|rsf:gd-|-stype:attr=1|qr_nm:gd|res:RC3|com-cf:nl|ptrs:na|ktp:N0|mc:208877|mtp:S|qry_typ:P|lang:en|wc:3|cs:8896|v=4,False,Singanpor,Surat,"SY No,1-36, 1st Floor, Talav Falia, Rear Side, Post Siganpore, Katargam, Singanpor, Surat - 395004, Dist.Surat, Gujarat",8048968669,
dual tone Baby Nail Cutter,https://www.indiamart.com/proddetail/baby-nail-cutter-27452293712.html?pos=100&kwd=baby nail clippers&tags=BA||||8211.142|Price|product|||TS|rsf:gd-|-stype:attr=1|qr_nm:gd|res:RC3|com-cf:nl|ptrs:na|ktp:N0|mc:208877|mtp:S|qry_typ:P|lang:en|wc:3|cs:8896|v=4,Sam Cart,https://www.indiamart.com/sam-cart/?pos=100&kwd=baby nail clippers&tags=BA||||8211.142|Price|product|||TS|rsf:gd-|-stype:attr=1|qr_nm:gd|res:RC3|com-cf:nl|ptrs:na|ktp:N0|mc:208877|mtp:S|qry_typ:P|lang:en|wc:3|cs:8896|v=4,False,Town Hall,Mumbai,"Ground Floor,18/19, 5,B, M, C Dormitory Building Saboo Siddik,Road, Musafir Khana Fort,, Town Hall, Mumbai - 400001, Dist.Mumbai, Maharashtra",8048609217,
"Blue Baby Nail Trimmer, Electric, Newly Born",https://www.indiamart.com/proddetail/baby-nail-trimmer-2854874156397.html?pos=101&kwd=baby nail clippers&tags=BB||||8752.144|Price|product|||TS|rsf:gd-|-stype:attr=1|qr_nm:gd|res:RC3|com-cf:nl|ptrs:na|ktp:N0|mc:208877|mtp:S|qry_typ:P|lang:en|wc:3|cs:8896|v=4,Shree Swastik Solutions,https://www.indiamart.com/shreeswastiksolutions/?pos=101&kwd=baby nail clippers&tags=BB||||8752.144|Price|product|||TS|rsf:gd-|-stype:attr=1|qr_nm:gd|res:RC3|com-cf:nl|ptrs:na|ktp:N0|mc:208877|mtp:S|qry_typ:P|lang:en|wc:3|cs:8896|v=4,False,Rohini Sector -5,New Delhi,"House No 2, Second Floor, Pocket No. B- 6, North West, Rohini Sector -5, New Delhi - 110085, Dist.Delhi, Delhi",8047763835,
"Baby Nail Clipper And Trimmer, Manual",https://www.indiamart.com/proddetail/baby-nail-clipper-and-trimmer-2854750314462.html?pos=102&kwd=baby nail clippers&tags=BA||||8230.883|Price|product|||TS|rsf:gd-|-stype:attr=1|qr_nm:gd|res:RC3|com-cf:nl|ptrs:na|ktp:N0|mc:208877|mtp:S|qry_typ:P|lang:en|wc:3|cs:8896|v=4,Ocean Mart,https://www.indiamart.com/ocean-mart-surat/?pos=102&kwd=baby nail clippers&tags=BA||||8230.883|Price|product|||TS|rsf:gd-|-stype:attr=1|qr_nm:gd|res:RC3|com-cf:nl|ptrs:na|ktp:N0|mc:208877|mtp:S|qry_typ:P|lang:en|wc:3|cs:8896|v=4,False,Katargam,Surat,"Second Floor, Shop No. 224, Shivalik, Dabholi Road, Dabholi, Katargam, Surat - 395004, Dist.Surat, Gujarat",7949327356,
"Red Baby Nail Clipper, For Parlour, Packaging Size: 12 Pcs",https://www.indiamart.com/proddetail/baby-nail-clipper-25385999030.html?pos=103&kwd=baby nail clippers&tags=BA||||8813.969|Price|product|||TS|rsf:gd-|-stype:attr=1|qr_nm:gd|res:RC3|com-cf:nl|ptrs:na|ktp:N0|mc:208877|mtp:S|qry_typ:P|lang:en|wc:3|cs:8896|v=4,Tamanna Scissors,https://www.indiamart.com/tamanna-scissors-meerut/?pos=103&kwd=baby nail clippers&tags=BA||||8813.969|Price|product|||TS|rsf:gd-|-stype:attr=1|qr_nm:gd|res:RC3|com-cf:nl|ptrs:na|ktp:N0|mc:208877|mtp:S|qry_typ:P|lang:en|wc:3|cs:8896|v=4,False,KHAJOOR KA PED,Meerut,"3742, Lakhipura, Gali No. 8, KHAJOOR KA PED, Meerut - 250002, Dist.Meerut, Uttar Pradesh",7942554743,
Multicolor Baby Nail Trimmer,https://www.indiamart.com/proddetail/baby-nail-trimmer-26094704791.html?pos=104&kwd=baby nail clippers&tags=BB||||8230.883|Price|product|||TS|rsf:gd-|-stype:attr=1|qr_nm:gd|res:RC3|com-cf:nl|ptrs:na|ktp:N0|mc:208877|mtp:S|qry_typ:P|lang:en|wc:3|cs:8896|v=4,Sarvam Cart,https://www.sarvamcart.net/?pos=104&kwd=baby nail clippers&tags=BB||||8230.883|Price|product|||TS|rsf:gd-|-stype:attr=1|qr_nm:gd|res:RC3|com-cf:nl|ptrs:na|ktp:N0|mc:208877|mtp:S|qry_typ:P|lang:en|wc:3|cs:8896|v=4,False,Nana Varachha,Surat,"Shop No. 28 Puna Simada Road Anupam The Business Hub Yogi Chowk, Nana Varachha, Surat - 394211, Dist.Surat, Gujarat",8047634175,
Pink Baby Nail Clipper,https://www.indiamart.com/proddetail/baby-nail-clipper-2852044820848.html?pos=105&kwd=baby nail clippers&tags=BA||||8211.142|Price|product|||TS|rsf:gd-|-stype:attr=1|qr_nm:gd|res:RC3|com-cf:nl|ptrs:na|ktp:N0|mc:208877|mtp:S|qry_typ:P|lang:en|wc:3|cs:8896|v=4,Stallion Trading Company,https://www.stalliontradingcompany.com/?pos=105&kwd=baby nail clippers&tags=BA||||8211.142|Price|product|||TS|rsf:gd-|-stype:attr=1|qr_nm:gd|res:RC3|com-cf:nl|ptrs:na|ktp:N0|mc:208877|mtp:S|qry_typ:P|lang:en|wc:3|cs:8896|v=4,False,Princess Dock,Mumbai,"1306, 13th Floor, Plot-CS-No-1413, 1414, 1415, 99/103 Noble Tower, Zakaria Masjid Street,, Princess Dock, Mumbai - 400009, Dist.Mumbai, Maharashtra",8043850966,
Multicolor Baby Nail Trimmer,https://www.indiamart.com/proddetail/baby-nail-trimmer-2850827753162.html?pos=106&kwd=baby nail clippers&tags=BA||||8230.883|Price|product|||TS|rsf:gd-|-stype:attr=1|qr_nm:gd|res:RC3|com-cf:nl|ptrs:na|ktp:N0|mc:208877|mtp:S|qry_typ:P|lang:en|wc:3|cs:8896|v=4,Sixfire Pvt,https://www.sixfirepvt.com/?pos=106&kwd=baby nail clippers&tags=BA||||8230.883|Price|product|||TS|rsf:gd-|-stype:attr=1|qr_nm:gd|res:RC3|com-cf:nl|ptrs:na|ktp:N0|mc:208877|mtp:S|qry_typ:P|lang:en|wc:3|cs:8896|v=4,False,Singanpor,Surat,"Plot No-32, Ground Floor, Laxmi Narayan Co. Op. Housing Society, Ved Road, Singanpor, Surat - 395004, Dist.Surat, Gujarat",7942957589,
"U Multicolor Baby Nail Trimmer, Packaging Type: Box, 1-2 Years",https://www.indiamart.com/proddetail/baby-nail-trimmer-2849746267048.html?pos=107&kwd=baby nail clippers&tags=BA||||8230.883|Price|product|||TS|rsf:gd-|-stype:attr=1|qr_nm:gd|res:RC3|com-cf:nl|ptrs:na|ktp:N0|mc:208877|mtp:S|qry_typ:P|lang:en|wc:3|cs:8896|v=4,Hemiza Enterprise,https://www.hemiza.in/?pos=107&kwd=baby nail clippers&tags=BA||||8230.883|Price|product|||TS|rsf:gd-|-stype:attr=1|qr_nm:gd|res:RC3|com-cf:nl|ptrs:na|ktp:N0|mc:208877|mtp:S|qry_typ:P|lang:en|wc:3|cs:8896|v=4,False,Katargam,Surat,"71, Ground Floor, Shubhash Nagar Society Near Shakti Nagar Ni Vadi, Katargam, Surat - 395004, Dist.Surat, Gujarat",8048976391,
Pink Baby Nail Trimmer,https://www.indiamart.com/proddetail/baby-nail-trimmer-2850794487148.html?pos=108&kwd=baby nail clippers&tags=BA||||8752.144|Price|product|||TS|rsf:gd-|-stype:attr=1|qr_nm:gd|res:RC3|com-cf:nl|ptrs:na|ktp:N0|mc:208877|mtp:S|qry_typ:P|lang:en|wc:3|cs:8896|v=4,MPS Group,https://www.indiamart.com/mps-group-delhi/?pos=108&kwd=baby nail clippers&tags=BA||||8752.144|Price|product|||TS|rsf:gd-|-stype:attr=1|qr_nm:gd|res:RC3|com-cf:nl|ptrs:na|ktp:N0|mc:208877|mtp:S|qry_typ:P|lang:en|wc:3|cs:8896|v=4,False,Azadpur,New Delhi,"House No. 10, Suraj Nagar, Azadpur, North West, Azadpur, New Delhi - 110033, Dist.Delhi, Delhi",8047657378,
Multicolor New Baby Nail File Electric Trimmer with 6 Grinding Heads,https://www.indiamart.com/proddetail/new-baby-nail-file-electric-trimmer-with-6-grinding-heads-25943881462.html?pos=109&kwd=baby nail clippers&tags=BA||||8230.883|Price|product|||TS|rsf:gd-|-stype:attr=1|qr_nm:gd|res:RC3|com-cf:nl|ptrs:na|ktp:N0|mc:208877|mtp:S|qry_typ:P|lang:en|wc:3|cs:8896|v=4,Mahant,https://www.themahant.com/?pos=109&kwd=baby nail clippers&tags=BA||||8230.883|Price|product|||TS|rsf:gd-|-stype:attr=1|qr_nm:gd|res:RC3|com-cf:nl|ptrs:na|ktp:N0|mc:208877|mtp:S|qry_typ:P|lang:en|wc:3|cs:8896|v=4,False,Katargam,Surat,"E-1103, Shukan Heights, Opp, Kantareshwar Hanuman Temple, Singanpore, Katargam, Surat - 395004, Dist.Surat, Gujarat",8048954505,
Multicolor Baby Nail Trimmer,https://www.indiamart.com/proddetail/baby-nail-trimmer-25969127373.html?pos=110&kwd=baby nail clippers&tags=BA||||8230.883|Price|product|||TS|rsf:gd-|-stype:attr=1|qr_nm:gd|res:RC3|com-cf:nl|ptrs:na|ktp:N0|mc:208877|mtp:S|qry_typ:P|lang:en|wc:3|cs:8896|v=4,Quality Zone,https://www.qualityzoneindia.com/?pos=110&kwd=baby nail clippers&tags=BA||||8230.883|Price|product|||TS|rsf:gd-|-stype:attr=1|qr_nm:gd|res:RC3|com-cf:nl|ptrs:na|ktp:N0|mc:208877|mtp:S|qry_typ:P|lang:en|wc:3|cs:8896|v=4,False,Dabholi,Surat,"Plot No-17, Sy No-93/94, 1st Floor, Om Satyam Nagar Society, Ved Road, Dabholi Char Rasta, Dabholi, Surat - 395004, Dist.Surat, Gujarat",8048971766,
Multicolor Baby Nail Trimmer,https://www.indiamart.com/proddetail/baby-nail-trimmer-26014416555.html?pos=111&kwd=baby nail clippers&tags=BB||||8230.883|Price|product|||TS|rsf:gd-|-stype:attr=1|qr_nm:gd|res:RC3|com-cf:nl|ptrs:na|ktp:N0|mc:208877|mtp:S|qry_typ:P|lang:en|wc:3|cs:8896|v=4,Cheaperzone Ecom LLP,https://www.cheaperzonewholesale.com/?pos=111&kwd=baby nail clippers&tags=BB||||8230.883|Price|product|||TS|rsf:gd-|-stype:attr=1|qr_nm:gd|res:RC3|com-cf:nl|ptrs:na|ktp:N0|mc:208877|mtp:S|qry_typ:P|lang:en|wc:3|cs:8896|v=4,False,,Surat,"SY-108,109,PAIKI WEST SIDE,DABHOLI MAIN ROAD,Surat, Surat - 395004, Dist.Surat, Gujarat",8048985824,
"Baby Nail Trimmer, Baby Nail Clippers, for Newborn Infant Toddler Kids Fingernails Care Trim Polish",https://www.indiamart.com/proddetail/baby-nail-trimmer-baby-nail-clippers-for-newborn-infant-toddler-kids-fingernails-care-trim-polish-2850943266091.html?pos=112&kwd=baby nail clippers&tags=BA||||8230.883|Price|product|||SSnp|rsf:gd-|-stype:attr=1|qr_nm:gd|res:RC3|com-cf:nl|ptrs:na|ktp:N0|mc:208877|mtp:S|qry_typ:P|lang:en|wc:3|cs:8896|v=4,Trusthaven,https://www.indiamart.com/ankush-international-surat/?pos=112&kwd=baby nail clippers&tags=BA||||8230.883|Price|product|||SSnp|rsf:gd-|-stype:attr=1|qr_nm:gd|res:RC3|com-cf:nl|ptrs:na|ktp:N0|mc:208877|mtp:S|qry_typ:P|lang:en|wc:3|cs:8896|v=4,False,Varni palace near rasi circle,Surat,"Buil-B, Flat No. B/501, Opp. Western Somchintamani, Sahstrafana Saubhagya Residency, Pal Katargam, Varni palace near rasi circle, Surat - 395009, Dist.Surat, Gujarat",8048964329,
"Multicolor Baby Nail Trimmer, Packaging Type: Box, 1-2 Years",https://www.indiamart.com/proddetail/baby-nail-trimmer-27546223412.html?pos=113&kwd=baby nail clippers&tags=BA||||8211.142|Price|product|||TS|rsf:gd-|-stype:attr=1|qr_nm:gd|res:RC3|com-cf:nl|ptrs:na|ktp:N0|mc:208877|mtp:S|qry_typ:P|lang:en|wc:3|cs:8896|v=4,Burhani Novelties,https://www.burhaninovelties.in/?pos=113&kwd=baby nail clippers&tags=BA||||8211.142|Price|product|||TS|rsf:gd-|-stype:attr=1|qr_nm:gd|res:RC3|com-cf:nl|ptrs:na|ktp:N0|mc:208877|mtp:S|qry_typ:P|lang:en|wc:3|cs:8896|v=4,False,Mandvi,Mumbai,"Shop - 2, Grd Floor, Bhaji Pala Lane, 53, Burhani House, Shaikh Mohammed Ali, Allabux Road Nagdevi, Mandvi, Mandvi, Mumbai - 400003, Dist.Mumbai, Maharashtra",8043891100,
"Pink Baby Nail Cutter, Manual",https://www.indiamart.com/proddetail/baby-nail-cutter-2854847036991.html?pos=114&kwd=baby nail clippers&tags=BB||||8211.142|Price|product|||TS|rsf:gd-|-stype:attr=1|qr_nm:gd|res:RC3|com-cf:nl|ptrs:na|ktp:N0|mc:208877|mtp:S|qry_typ:P|lang:en|wc:3|cs:8896|v=4,ZU ENTERPRISES,https://www.zuenterprises.in/?pos=114&kwd=baby nail clippers&tags=BB||||8211.142|Price|product|||TS|rsf:gd-|-stype:attr=1|qr_nm:gd|res:RC3|com-cf:nl|ptrs:na|ktp:N0|mc:208877|mtp:S|qry_typ:P|lang:en|wc:3|cs:8896|v=4,False,MA Sarang marg,Mumbai,"Plot-31,Mohammadi House 4,Floor-Grd, Tandel Street South Khadak MA Sarang Marg, Chinchb, MA Sarang marg, Mumbai - 400009, Dist.Mumbai, Maharashtra",8048980079,
Blue Baby Nail Clipper And Filler,https://www.indiamart.com/proddetail/baby-nail-clipper-and-filler-2850840529833.html?pos=115&kwd=baby nail clippers&tags=BA||||8230.883|Price|product|||TS|rsf:gd-|-stype:attr=1|qr_nm:gd|res:RC3|com-cf:nl|ptrs:na|ktp:N0|mc:208877|mtp:S|qry_typ:P|lang:en|wc:3|cs:8896|v=4,Victory International,https://www.indiamart.com/victory-intl-surat/?pos=115&kwd=baby nail clippers&tags=BA||||8230.883|Price|product|||TS|rsf:gd-|-stype:attr=1|qr_nm:gd|res:RC3|com-cf:nl|ptrs:na|ktp:N0|mc:208877|mtp:S|qry_typ:P|lang:en|wc:3|cs:8896|v=4,False,Bhavani Estate,Surat,"LAND MARK EMPIRE, B G 39, OPP VAKIL VADI, NR PUNA JAKATNAKA, Bhavani Estate, Surat - 395010, Dist.Surat, Gujarat",7942636905,
"green,pink Baby Nail Trimmer",https://www.indiamart.com/proddetail/baby-nail-trimmer-2850667836062.html?pos=116&kwd=baby nail clippers&tags=BA||||8752.144|Price|product|||TS|rsf:gd-|-stype:attr=1|qr_nm:gd|res:RC3|com-cf:nl|ptrs:na|ktp:N0|mc:208877|mtp:S|qry_typ:P|lang:en|wc:3|cs:8896|v=4,Inquantity,https://www.indiamart.com/inquantity/?pos=116&kwd=baby nail clippers&tags=BA||||8752.144|Price|product|||TS|rsf:gd-|-stype:attr=1|qr_nm:gd|res:RC3|com-cf:nl|ptrs:na|ktp:N0|mc:208877|mtp:S|qry_typ:P|lang:en|wc:3|cs:8896|v=4,False,Shahdara,New Delhi,"1/6258, East Rohtash Nagar, Shahdara, Shahdara, New Delhi - 110032, Dist.Delhi, Delhi",8047620719,
"Pink Women Baby Nail Trimmer, Type Of Packaging: Box",https://www.indiamart.com/proddetail/baby-nail-trimmer-23996174291.html?pos=117&kwd=baby nail clippers&tags=BA||||8752.144|Price|product|||TS|rsf:gd-|-stype:attr=1|qr_nm:gd|res:RC3|com-cf:nl|ptrs:na|ktp:N0|mc:208877|mtp:S|qry_typ:P|lang:en|wc:3|cs:8896|v=4,Buyworld,https://www.buyworld.co.in/?pos=117&kwd=baby nail clippers&tags=BA||||8752.144|Price|product|||TS|rsf:gd-|-stype:attr=1|qr_nm:gd|res:RC3|com-cf:nl|ptrs:na|ktp:N0|mc:208877|mtp:S|qry_typ:P|lang:en|wc:3|cs:8896|v=4,False,AZADPUR,New Delhi,"A-17 UPPER GROUND FLOOR gopal nagar, AZADPUR, New Delhi - 110033, Dist.Delhi, Delhi",8048980744,
Mitsico Electric Baby Nail Trimmer Polish Trim File Kit Safe Nail Clippers for Newborn or Toddler,https://www.indiamart.com/proddetail/mitsico-electric-baby-nail-trimmer-polish-trim-file-kit-safe-nail-clippers-for-newborn-or-toddler-2854515050688.html?pos=118&kwd=baby nail clippers&tags=BB||||8230.883|Price|product|||TS|rsf:gd-|-stype:attr=1|qr_nm:gd|res:RC3|com-cf:nl|ptrs:na|ktp:N0|mc:208877|mtp:S|qry_typ:P|lang:en|wc:3|cs:8896|v=4,Mitsico,https://www.mitsico.in/?pos=118&kwd=baby nail clippers&tags=BB||||8230.883|Price|product|||TS|rsf:gd-|-stype:attr=1|qr_nm:gd|res:RC3|com-cf:nl|ptrs:na|ktp:N0|mc:208877|mtp:S|qry_typ:P|lang:en|wc:3|cs:8896|v=4,False,KATARGAM,Surat,"Basement-1, Shop No.- A1, Sunday Hub Shopping Center, Amba Talavadi, Opp. Shree Vinayak Residency, KATARGAM, Surat - 395004, Dist.Surat, Gujarat",8047649165,
Baby Electric Nail Trimmer For Baby Nail Cutter,https://www.indiamart.com/proddetail/baby-electric-nail-trimmer-for-baby-nail-cutter-2852394633455.html?pos=119&kwd=baby nail clippers&tags=BA||||8211.142|Price|product|||TS|rsf:gd-|-stype:attr=1|qr_nm:gd|res:RC3|com-cf:nl|ptrs:na|ktp:N0|mc:208877|mtp:S|qry_typ:P|lang:en|wc:3|cs:8896|v=4,Zhom Collection,https://www.indiamart.com/zhomcollection/?pos=119&kwd=baby nail clippers&tags=BA||||8211.142|Price|product|||TS|rsf:gd-|-stype:attr=1|qr_nm:gd|res:RC3|com-cf:nl|ptrs:na|ktp:N0|mc:208877|mtp:S|qry_typ:P|lang:en|wc:3|cs:8896|v=4,False,Princess Dock,Mumbai,"Narsi Natha Street Katha Bazar Masjid Bandar, Princess Dock, Mumbai - 400009, Dist.Mumbai, Maharashtra",8048970759,
"Blue Baby Electric Baby Nail Trimmer, 1-2 Years",https://www.indiamart.com/proddetail/baby-electric-baby-nail-trimmer-2854725088712.html?pos=120&kwd=baby nail clippers&tags=BB||||8211.142|Price|product|||TS|rsf:gd-|-stype:attr=1|qr_nm:gd|res:RC3|com-cf:nl|ptrs:na|ktp:N0|mc:208877|mtp:S|qry_typ:P|lang:en|wc:3|cs:8896|v=4,Morebuy Store,https://www.indiamart.com/morebuystore/?pos=120&kwd=baby nail clippers&tags=BB||||8211.142|Price|product|||TS|rsf:gd-|-stype:attr=1|qr_nm:gd|res:RC3|com-cf:nl|ptrs:na|ktp:N0|mc:208877|mtp:S|qry_typ:P|lang:en|wc:3|cs:8896|v=4,False,Masjid Bandar,Mumbai,"11/15,Khimji Meghji House,Essaji Street, Vadgadi,Masjid Station,Mumbai 11/15, First Floor, Khimji Meghji House, Essaji Street, Vadgadi, Masjid Station, Mumbai Suburban,40, Masjid Bandar, Mumbai - 400003, Dist.Mumbai, Maharashtra",8043863644,
Baby Electric Nail Trimmer,https://www.indiamart.com/proddetail/baby-electric-nail-trimmer-2849148544855.html?pos=121&kwd=baby nail clippers&tags=BB||||8230.883|Price|product|||TS|rsf:gd-|-stype:attr=1|qr_nm:gd|res:RC3|com-cf:nl|ptrs:na|ktp:N0|mc:208877|mtp:S|qry_typ:P|lang:en|wc:3|cs:8896|v=4,Revolution,https://www.indiamart.com/revolution-surat/?pos=121&kwd=baby nail clippers&tags=BB||||8230.883|Price|product|||TS|rsf:gd-|-stype:attr=1|qr_nm:gd|res:RC3|com-cf:nl|ptrs:na|ktp:N0|mc:208877|mtp:S|qry_typ:P|lang:en|wc:3|cs:8896|v=4,False,Katargam,Surat,"Sy 481, Plot - 3/37, 2nd, Vishal Nagar Society, Nr. Arogya Kendra, Katargam, Katargam, Surat - 395004, Dist.Surat, Gujarat",8046068651,
"Pink Baby Electric Nail Trimmer, Packaging Type: Box, Newly Born",https://www.indiamart.com/proddetail/baby-electric-nail-trimmer-25889311062.html?pos=122&kwd=baby nail clippers&tags=BB||||8741.812|Price|product|||TS|rsf:gd-|-stype:attr=1|qr_nm:gd|res:RC3|com-cf:nl|ptrs:na|ktp:N0|mc:208877|mtp:S|qry_typ:P|lang:en|wc:3|cs:8896|v=4,Trb Company,https://www.trbindia.com/?pos=122&kwd=baby nail clippers&tags=BB||||8741.812|Price|product|||TS|rsf:gd-|-stype:attr=1|qr_nm:gd|res:RC3|com-cf:nl|ptrs:na|ktp:N0|mc:208877|mtp:S|qry_typ:P|lang:en|wc:3|cs:8896|v=4,False,Malibu Town,Gurgaon,"2nd Floor Sf-221 Village Tikri, Sohna Road It Complex, Jmd Megapolis, Malibu Town, Gurgaon - 122018, Dist.Gurgaon, Haryana",8047307926,
"BLUE Baby Electric Nail Trimmer, 1-2 Years",https://www.indiamart.com/proddetail/baby-electric-nail-trimmer-26005510955.html?pos=123&kwd=baby nail clippers&tags=BA||||8778.123|Price|product|||SSnp|rsf:gd-|-stype:attr=1|qr_nm:gd|res:RC3|com-cf:nl|ptrs:na|ktp:N0|mc:208877|mtp:S|qry_typ:P|lang:en|wc:3|cs:8896|v=4,HK Imports,https://www.indiamart.com/hkimports/?pos=123&kwd=baby nail clippers&tags=BA||||8778.123|Price|product|||SSnp|rsf:gd-|-stype:attr=1|qr_nm:gd|res:RC3|com-cf:nl|ptrs:na|ktp:N0|mc:208877|mtp:S|qry_typ:P|lang:en|wc:3|cs:8896|v=4,False,Sector 65,Noida,"H-370,3rd floor,H block,gaur grandeur,sec119, Sector 65, Noida - 201305, Dist.Gautam Budh Nagar, Uttar Pradesh",8048972263,
"Multicolor Baby Electric Nail Trimmer, For Kids",https://www.indiamart.com/proddetail/baby-electric-nail-trimmer-2849914391112.html?pos=124&kwd=baby nail clippers&tags=BA||||8752.144|Price|product|||TS|rsf:gd-|-stype:attr=1|qr_nm:gd|res:RC3|com-cf:nl|ptrs:na|ktp:N0|mc:208877|mtp:S|qry_typ:P|lang:en|wc:3|cs:8896|v=4,Shoplive,https://www.shoplive.co.in/?pos=124&kwd=baby nail clippers&tags=BA||||8752.144|Price|product|||TS|rsf:gd-|-stype:attr=1|qr_nm:gd|res:RC3|com-cf:nl|ptrs:na|ktp:N0|mc:208877|mtp:S|qry_typ:P|lang:en|wc:3|cs:8896|v=4,False,Azadpur,New Delhi,"HOUSE NO. -41, G/F, KH. NO.-56, BLOCK-1, GOPAL NAGAR, AZAD PUR, North West Delhi,, Azadpur, New Delhi - 110033, Dist.Delhi, Delhi",8043894457,
SB-1073 BABY NAIL TRIMMER,https://www.indiamart.com/proddetail/sb-1073-baby-nail-trimmer-2852105790733.html?pos=125&kwd=baby nail clippers&tags=BA||||8752.144|Price|product|||TS|rsf:gd-|-stype:attr=1|qr_nm:gd|res:RC3|com-cf:nl|ptrs:na|ktp:N0|mc:208877|mtp:S|qry_typ:P|lang:en|wc:3|cs:8896|v=4,Saksham,https://www.indiamart.com/saksham-delhi/?pos=125&kwd=baby nail clippers&tags=BA||||8752.144|Price|product|||TS|rsf:gd-|-stype:attr=1|qr_nm:gd|res:RC3|com-cf:nl|ptrs:na|ktp:N0|mc:208877|mtp:S|qry_typ:P|lang:en|wc:3|cs:8896|v=4,False,Sangam Vihar,New Delhi,"Sangam Vihar New Delhi 110080 Gali No 15/A( Near By Hamdard Public School Gate No. 1), Sangam Vihar, New Delhi - 110034, Dist.Delhi, Delhi",8048265471,
"Baby Nail Cutter Kit, For Children",https://www.indiamart.com/proddetail/baby-nail-cutter-kit-26731271633.html?pos=126&kwd=baby nail clippers&tags=BA||||8785.791|Price|product|||TS|rsf:gd-|-stype:attr=1|qr_nm:gd|res:RC3|com-cf:nl|ptrs:na|ktp:N0|mc:208877|mtp:S|qry_typ:P|lang:en|wc:3|cs:8896|v=4,Paras Enterprises,https://www.claoberry.com/?pos=126&kwd=baby nail clippers&tags=BA||||8785.791|Price|product|||TS|rsf:gd-|-stype:attr=1|qr_nm:gd|res:RC3|com-cf:nl|ptrs:na|ktp:N0|mc:208877|mtp:S|qry_typ:P|lang:en|wc:3|cs:8896|v=4,False,Raj Nagar Extension,Ghaziabad,"KH.NO.-2565,VILLAGE KARHERA,MOHAN NAGAR,Ghaziabad, Raj Nagar Extension, Ghaziabad - 201007, Dist.Ghaziabad, Uttar Pradesh",8043862487,
"Baby Electric Nail Trimmer, 1-2 Years",https://www.indiamart.com/proddetail/baby-electric-nail-trimmer-2854777013855.html?pos=127&kwd=baby nail clippers&tags=BB||||8211.142|Price|product|||TS|rsf:gd-|-stype:attr=1|qr_nm:gd|res:RC3|com-cf:nl|ptrs:na|ktp:N0|mc:208877|mtp:S|qry_typ:P|lang:en|wc:3|cs:8896|v=4,Online Bazar,https://www.indiamart.com/onlinebazarmumbai/?pos=127&kwd=baby nail clippers&tags=BB||||8211.142|Price|product|||TS|rsf:gd-|-stype:attr=1|qr_nm:gd|res:RC3|com-cf:nl|ptrs:na|ktp:N0|mc:208877|mtp:S|qry_typ:P|lang:en|wc:3|cs:8896|v=4,False,Fort,Mumbai,"Floor 0,1, Municipal Society, Musafir Khana Road, Sabu Siddiquie Road, Fort, Mumbai - 400001, Dist.Mumbai, Maharashtra",7942625770,
Blue & Pink Multicolor Baby Nail Trimmer,https://www.indiamart.com/proddetail/multicolor-baby-nail-trimmer-2850574826448.html?pos=128&kwd=baby nail clippers&tags=BA||||8752.144|Price|product|||TS|rsf:gd-|-stype:attr=1|qr_nm:gd|res:RC3|com-cf:nl|ptrs:na|ktp:N0|mc:208877|mtp:S|qry_typ:P|lang:en|wc:3|cs:8896|v=4,Ishani Enterprises,https://www.ishanienterprises.in/?pos=128&kwd=baby nail clippers&tags=BA||||8752.144|Price|product|||TS|rsf:gd-|-stype:attr=1|qr_nm:gd|res:RC3|com-cf:nl|ptrs:na|ktp:N0|mc:208877|mtp:S|qry_typ:P|lang:en|wc:3|cs:8896|v=4,False,Burari,New Delhi,"Flat A-2, khasra no-877 Sant nagar labour chowk burari, Burari, New Delhi - 110084, Dist.Delhi, Delhi",8046035950,
Multicolor Baby Nail Cutter Kit,https://www.indiamart.com/proddetail/baby-nail-cutter-kit-2849626297773.html?pos=129&kwd=baby nail clippers&tags=BA||||8230.883|Price|product|||TS|rsf:gd-|-stype:attr=1|qr_nm:gd|res:RC3|com-cf:nl|ptrs:na|ktp:N0|mc:208877|mtp:S|qry_typ:P|lang:en|wc:3|cs:8896|v=4,Shreeji Retails,https://www.thesajanihouse.com/?pos=129&kwd=baby nail clippers&tags=BA||||8230.883|Price|product|||TS|rsf:gd-|-stype:attr=1|qr_nm:gd|res:RC3|com-cf:nl|ptrs:na|ktp:N0|mc:208877|mtp:S|qry_typ:P|lang:en|wc:3|cs:8896|v=4,False,Alankar Society,Surat,"PLOT NO- 17, OM SATYAM NAGAR SOC., DABHOLI CHAR RASTA, VED ROAD, Alankar Society, Surat - 395004, Dist.Surat, Gujarat",8047654270,
Multicolor Baby Electric Nail Trimmer,https://www.indiamart.com/proddetail/baby-electric-nail-trimmer-26039602162.html?pos=130&kwd=baby nail clippers&tags=BA||||8752.144|Price|product|||TS|rsf:gd-|-stype:attr=1|qr_nm:gd|res:RC3|com-cf:nl|ptrs:na|ktp:N0|mc:208877|mtp:S|qry_typ:P|lang:en|wc:3|cs:8896|v=4,Mount Emporium,https://www.indiamart.com/mount-emporium-delhi/?pos=130&kwd=baby nail clippers&tags=BA||||8752.144|Price|product|||TS|rsf:gd-|-stype:attr=1|qr_nm:gd|res:RC3|com-cf:nl|ptrs:na|ktp:N0|mc:208877|mtp:S|qry_typ:P|lang:en|wc:3|cs:8896|v=4,False,Nawada,New Delhi,"House No. A81 Road No. 04 Sidharth Enclave,Uttam Nagar, Nawada, New Delhi - 110059, Dist.Delhi, Delhi",8048977752,
Multicolor Baby Nail Trimmer Set,https://www.indiamart.com/proddetail/baby-nail-trimmer-set-25754885848.html?pos=131&kwd=baby nail clippers&tags=BA||||8230.883|Price|product|||TS|rsf:gd-|-stype:attr=1|qr_nm:gd|res:RC3|com-cf:nl|ptrs:na|ktp:N0|mc:208877|mtp:S|qry_typ:P|lang:en|wc:3|cs:8896|v=4,Jalaram Enterprise,https://www.indiamart.com/jalaram-enterprise-gujarat/?pos=131&kwd=baby nail clippers&tags=BA||||8230.883|Price|product|||TS|rsf:gd-|-stype:attr=1|qr_nm:gd|res:RC3|com-cf:nl|ptrs:na|ktp:N0|mc:208877|mtp:S|qry_typ:P|lang:en|wc:3|cs:8896|v=4,False,Katargam,Surat,"Kshama Society 237 AK. Road Near Dharam Nagar, Katargam, Surat - 395008, Dist.Surat, Gujarat",8048950859,
Pink SB-1073 Baby nail trimmer,https://www.indiamart.com/proddetail/sb-1073-baby-nail-trimmer-2849423830048.html?pos=132&kwd=baby nail clippers&tags=BA||||8752.144|Price|product|||TS|rsf:gd-|-stype:attr=1|qr_nm:gd|res:RC3|com-cf:nl|ptrs:na|ktp:N0|mc:208877|mtp:S|qry_typ:P|lang:en|wc:3|cs:8896|v=4,Flowrex Impex,https://www.indiamart.com/flowreximpex/?pos=132&kwd=baby nail clippers&tags=BA||||8752.144|Price|product|||TS|rsf:gd-|-stype:attr=1|qr_nm:gd|res:RC3|com-cf:nl|ptrs:na|ktp:N0|mc:208877|mtp:S|qry_typ:P|lang:en|wc:3|cs:8896|v=4,False,,New Delhi,"1st Floor House No 430 Plot No Old B/1l Siri Nagar, Gali No 1 Shakur Basti, New Delhi - 110034, Dist.Delhi, Delhi",7942549950,
"Pink Electric Baby Nail Trimmer, Packaging Type: Box, 1-2 Years",https://www.indiamart.com/proddetail/electric-baby-nail-trimmer-2853409292673.html?pos=133&kwd=baby nail clippers&tags=BB||||8038.093|Price|product|||TS|rsf:gd-|-stype:attr=1|qr_nm:gd|res:RC3|com-cf:nl|ptrs:na|ktp:N0|mc:208877|mtp:S|qry_typ:P|lang:en|wc:3|cs:8896|v=4,Madhav Enterprise,https://www.indiamart.com/madhav-enterpriserajkot-gujarat/?pos=133&kwd=baby nail clippers&tags=BB||||8038.093|Price|product|||TS|rsf:gd-|-stype:attr=1|qr_nm:gd|res:RC3|com-cf:nl|ptrs:na|ktp:N0|mc:208877|mtp:S|qry_typ:P|lang:en|wc:3|cs:8896|v=4,False,Kothariya,Rajkot,"New Ganeshnagar Streetno-5, Near Bapa Sitaram Chowk , Kothariya Main Road, Ganesh Marbel Street,, Kothariya, Rajkot - 360002, Dist.Rajkot, Gujarat",8048613186,
blue Baby Electric Nail Trimmer,https://www.indiamart.com/proddetail/baby-electric-nail-trimmer-2850416707997.html?pos=134&kwd=baby nail clippers&tags=BA||||8752.144|Price|product|||TS|rsf:gd-|-stype:attr=1|qr_nm:gd|res:RC3|com-cf:nl|ptrs:na|ktp:N0|mc:208877|mtp:S|qry_typ:P|lang:en|wc:3|cs:8896|v=4,Any Time Buy,https://www.anytimebuy.in/?pos=134&kwd=baby nail clippers&tags=BA||||8752.144|Price|product|||TS|rsf:gd-|-stype:attr=1|qr_nm:gd|res:RC3|com-cf:nl|ptrs:na|ktp:N0|mc:208877|mtp:S|qry_typ:P|lang:en|wc:3|cs:8896|v=4,False,Azadpur,New Delhi,"A-17, Gopal Nagar, Azadpur, Near Azadpur Flyover, Azadpur, New Delhi - 110033, Dist.Delhi, Delhi",8048604167,
"Baby Electric Drill Nail Trimmer, For Home",https://www.indiamart.com/proddetail/baby-electric-drill-nail-trimmer-2852425984255.html?pos=135&kwd=baby nail clippers&tags=BA||||8230.883|Price|product|||TS|rsf:gd-|-stype:attr=1|qr_nm:gd|res:RC3|com-cf:nl|ptrs:na|ktp:N0|mc:208877|mtp:S|qry_typ:P|lang:en|wc:3|cs:8896|v=4,Vraj Enterprises,https://www.devkikart.com/?pos=135&kwd=baby nail clippers&tags=BA||||8230.883|Price|product|||TS|rsf:gd-|-stype:attr=1|qr_nm:gd|res:RC3|com-cf:nl|ptrs:na|ktp:N0|mc:208877|mtp:S|qry_typ:P|lang:en|wc:3|cs:8896|v=4,False,Nana Varachha,Surat,"PLOT No. 35,SARDAR NAGAR - 1,PUNA KUMBHARIYA ROAD,Surat, Nana Varachha, Surat - 395010, Dist.Surat, Gujarat",7942865292,
Baby Nail Clippers Safe For Newborn Toddler Adult Toes Fingernails Care Trim Kit 6 Grinding Heads.,https://www.indiamart.com/proddetail/baby-nail-clippers-safe-for-newborn-toddler-adult-toes-fingernails-care-trim-kit-6-grinding-heads-2854245819230.html?pos=136&kwd=baby nail clippers&tags=BA||||8230.883|Price|product|||TS|rsf:gd-|-stype:attr=1|qr_nm:gd|res:RC3|com-cf:nl|ptrs:na|ktp:N0|mc:208877|mtp:S|qry_typ:P|lang:en|wc:3|cs:8896|v=4,River Velly Enterprise,https://www.indiamart.com/rivervellyenterprise/?pos=136&kwd=baby nail clippers&tags=BA||||8230.883|Price|product|||TS|rsf:gd-|-stype:attr=1|qr_nm:gd|res:RC3|com-cf:nl|ptrs:na|ktp:N0|mc:208877|mtp:S|qry_typ:P|lang:en|wc:3|cs:8896|v=4,False,Dimond Park,Surat,"Plot-22, Yamuna Nagar Society, Near Ganga Jamana Soc., Nana Varachha, Dimond Park, Surat - 395006, Dist.Surat, Gujarat",8047811801,
"Dritwa Impex Pink Baby Nail Clipper And Trimmer, 3-12 Months",https://www.indiamart.com/proddetail/baby-nail-clipper-and-trimmer-2853443096688.html?pos=137&kwd=baby nail clippers&tags=BA||||8230.883|Price|product|||TS|rsf:gd-|-stype:attr=1|qr_nm:gd|res:RC3|com-cf:nl|ptrs:na|ktp:N0|mc:208877|mtp:S|qry_typ:P|lang:en|wc:3|cs:8896|v=4,Dritwa Impex,https://www.dritwaimpex.com/?pos=137&kwd=baby nail clippers&tags=BA||||8230.883|Price|product|||TS|rsf:gd-|-stype:attr=1|qr_nm:gd|res:RC3|com-cf:nl|ptrs:na|ktp:N0|mc:208877|mtp:S|qry_typ:P|lang:en|wc:3|cs:8896|v=4,False,Kosad,Surat,"Second Floor A-204 New Kosad Road Satyam Residency Kosad Mashruwala Compound, Kosad, Surat - 394107, Dist.Surat, Gujarat",7949092278,
Pink Baby Nail Grooming Set (Luvlap),https://www.indiamart.com/proddetail/baby-nail-grooming-set-luvlap-26475263591.html?pos=138&kwd=baby nail clippers&tags=BA||||8706.587|Price|product|||TS|rsf:gd-|-stype:attr=1|qr_nm:gd|res:RC3|com-cf:nl|ptrs:na|ktp:N0|mc:208877|mtp:S|qry_typ:P|lang:en|wc:3|cs:8896|v=4,Sri Vela Pharmacy,https://www.srivelapharmacy.in/?pos=138&kwd=baby nail clippers&tags=BA||||8706.587|Price|product|||TS|rsf:gd-|-stype:attr=1|qr_nm:gd|res:RC3|com-cf:nl|ptrs:na|ktp:N0|mc:208877|mtp:S|qry_typ:P|lang:en|wc:3|cs:8896|v=4,False,Anna Nagar,Madurai,"HIG-28, 80 Feet, Main Road, Anna Nagar, Anna Nagar, Madurai - 625020, Dist.Madurai, Tamil Nadu",8048617702,
"White (Body) PVC Plastic Baby Nail Clipper, For Blunt Rounded Tips",https://www.indiamart.com/proddetail/pvc-plastic-baby-nail-clipper-2851564244288.html?pos=139&kwd=baby nail clippers&tags=BA||||8752.144|Price|product|||TS|rsf:gd-|-stype:attr=1|qr_nm:gd|res:RC3|com-cf:nl|ptrs:na|ktp:N0|mc:208877|mtp:S|qry_typ:P|lang:en|wc:3|cs:8896|v=4,The Buyland,https://www.indiamart.com/thebuyland/?pos=139&kwd=baby nail clippers&tags=BA||||8752.144|Price|product|||TS|rsf:gd-|-stype:attr=1|qr_nm:gd|res:RC3|com-cf:nl|ptrs:na|ktp:N0|mc:208877|mtp:S|qry_typ:P|lang:en|wc:3|cs:8896|v=4,False,Azadpur,New Delhi,"1775, Block J, New Delhi, North West Delhi, Azadpur, New Delhi - 110033, Dist.Delhi, Delhi",7942844187,
"Multicolor Baby Nail Cutter Grooming Set, For Regular",https://www.indiamart.com/proddetail/baby-nail-cutter-grooming-set-2850474109188.html?pos=140&kwd=baby nail clippers&tags=BA||||8752.144|Price|product|||TS|rsf:gd-|-stype:attr=1|qr_nm:gd|res:RC3|com-cf:nl|ptrs:na|ktp:N0|mc:208877|mtp:S|qry_typ:P|lang:en|wc:3|cs:8896|v=4,House Of Luxury,https://www.theholworld.net/?pos=140&kwd=baby nail clippers&tags=BA||||8752.144|Price|product|||TS|rsf:gd-|-stype:attr=1|qr_nm:gd|res:RC3|com-cf:nl|ptrs:na|ktp:N0|mc:208877|mtp:S|qry_typ:P|lang:en|wc:3|cs:8896|v=4,False,Budh Vihar,New Delhi,"Plot No - 5, Kh. No. - 89/10/2, 1, Block No. - I-1, Budh Vihar Phase 1, Delhi, North West Delhi, Del, Budh Vihar, New Delhi - 110086, Dist.Delhi, Delhi",7942819716,
Baby Nail Trimmer (Multi Color / 1 Pc / Battery not included) 13243,https://www.indiamart.com/proddetail/baby-nail-trimmer-multi-color-1-pc-battery-not-included-13243-2854581675848.html?pos=141&kwd=baby nail clippers&tags=BA||||8038.093|Price|product|||TS|rsf:gd-|-stype:attr=1|qr_nm:gd|res:RC3|com-cf:nl|ptrs:na|ktp:N0|mc:208877|mtp:S|qry_typ:P|lang:en|wc:3|cs:8896|v=4,Deodap,https://www.indiamart.com/deodap/?pos=141&kwd=baby nail clippers&tags=BA||||8038.093|Price|product|||TS|rsf:gd-|-stype:attr=1|qr_nm:gd|res:RC3|com-cf:nl|ptrs:na|ktp:N0|mc:208877|mtp:S|qry_typ:P|lang:en|wc:3|cs:8896|v=4,False,Rajkot,Rajkot,"plot No. 9 Behind Patanjali Werhouse, Ruda Transport, Saat Hanuman Ahemdabad Road, Rajkot, Rajkot - 360005, Dist.Rajkot, Gujarat",8048972316,
"Pink Baby Nail Trimmer File Electric-Safe, For Personal",https://www.indiamart.com/proddetail/baby-nail-trimmer-file-electric-safe-2852126784555.html?pos=142&kwd=baby nail clippers&tags=BA||||8211.142|Price|product|||TS|rsf:gd-|-stype:attr=1|qr_nm:gd|res:RC3|com-cf:nl|ptrs:na|ktp:N0|mc:208877|mtp:S|qry_typ:P|lang:en|wc:3|cs:8896|v=4,A One Collection,https://www.aonecollection.net/?pos=142&kwd=baby nail clippers&tags=BA||||8211.142|Price|product|||TS|rsf:gd-|-stype:attr=1|qr_nm:gd|res:RC3|com-cf:nl|ptrs:na|ktp:N0|mc:208877|mtp:S|qry_typ:P|lang:en|wc:3|cs:8896|v=4,False,Nr Fire Bridge Station,Mumbai,"Gala No 505, Bldg No 11, 5th Floor, Motilal Nehru Nagar, Bandra, Nr Fire Bridge Station, Mumbai - 400051, Dist.Mumbai, Maharashtra",8045910671,
Modulyss Baby Nail Trimmer Safe Nail Trimmer Kit Baby Manicure Tools Baby Electric Grooming kit,https://www.indiamart.com/proddetail/modulyss-baby-nail-trimmer-safe-nail-trimmer-kit-baby-manicure-tools-baby-electric-grooming-kit-2849885008062.html?pos=143&kwd=baby nail clippers&tags=BA||||8230.883|Price|product|||TS|rsf:gd-|-stype:attr=1|qr_nm:gd|res:RC3|com-cf:nl|ptrs:na|ktp:N0|mc:208877|mtp:S|qry_typ:P|lang:en|wc:3|cs:8896|v=4,Modulyss,https://www.modulyss.in/?pos=143&kwd=baby nail clippers&tags=BA||||8230.883|Price|product|||TS|rsf:gd-|-stype:attr=1|qr_nm:gd|res:RC3|com-cf:nl|ptrs:na|ktp:N0|mc:208877|mtp:S|qry_typ:P|lang:en|wc:3|cs:8896|v=4,False,Katargam,Surat,"Modulyss OFFICE NO :- 2 BASEMENT-1, SUNDAY HUB, NEAR AMBA TALAVDI, OPP ANKUR SCHOOL, KATARGAM, SURAT, Katargam, Surat - 395004, Dist.Surat, Gujarat",7942792869,
Mix Color Baby Nail Trimmer Set,https://www.indiamart.com/proddetail/mix-color-baby-nail-trimmer-set-2851211249430.html?pos=144&kwd=baby nail clippers&tags=BA||||8752.144|Price|product|||TS|rsf:gd-|-stype:attr=1|qr_nm:gd|res:RC3|com-cf:nl|ptrs:na|ktp:N0|mc:208877|mtp:S|qry_typ:P|lang:en|wc:3|cs:8896|v=4,A N Creations,https://www.indiamart.com/ancreations-delhi/?pos=144&kwd=baby nail clippers&tags=BA||||8752.144|Price|product|||TS|rsf:gd-|-stype:attr=1|qr_nm:gd|res:RC3|com-cf:nl|ptrs:na|ktp:N0|mc:208877|mtp:S|qry_typ:P|lang:en|wc:3|cs:8896|v=4,False,Rohini Sector 17,New Delhi,"Iind Floor A-4/175 Sector-17 Rohini North West Delhi, Rohini Sector 17, New Delhi - 110089, Dist.Delhi, Delhi",8047638940,
"Baby Nail Trimmer, Safe Baby Nail File for Newborn to Toddler Toes and Fingernails,",https://www.indiamart.com/proddetail/baby-nail-trimmer-safe-baby-nail-file-for-newborn-to-toddler-toes-and-fingernails-2853225703591.html?pos=145&kwd=baby nail clippers&tags=BA||||8228.275|Price|product|||TS|rsf:gd-|-stype:attr=1|qr_nm:gd|res:RC3|com-cf:nl|ptrs:na|ktp:N0|mc:208877|mtp:S|qry_typ:P|lang:en|wc:3|cs:8896|v=4,R J Enterprises,https://www.indiamart.com/rj-enterprisesahmedabad/?pos=145&kwd=baby nail clippers&tags=BA||||8228.275|Price|product|||TS|rsf:gd-|-stype:attr=1|qr_nm:gd|res:RC3|com-cf:nl|ptrs:na|ktp:N0|mc:208877|mtp:S|qry_typ:P|lang:en|wc:3|cs:8896|v=4,False,Odhav,Ahmedabad,"First Floor,Shop No. 1,Hariom Society,NH-8, Odhav, Ahmedabad - 382415, Dist.Ahmedabad, Gujarat",8047620106,
blue syga Baby Nail Clipper Scissor Set 2,https://www.indiamart.com/proddetail/syga-baby-nail-clipper-scissor-set-2-26420301688.html?pos=146&kwd=baby nail clippers&tags=BA||||8228.275|Price|product|||TS|rsf:gd-|-stype:attr=1|qr_nm:gd|res:RC3|com-cf:nl|ptrs:na|ktp:N0|mc:208877|mtp:S|qry_typ:P|lang:en|wc:3|cs:8896|v=4,Syga Home Furnishing,https://www.indiamart.com/sygahomefurnishing/?pos=146&kwd=baby nail clippers&tags=BA||||8228.275|Price|product|||TS|rsf:gd-|-stype:attr=1|qr_nm:gd|res:RC3|com-cf:nl|ptrs:na|ktp:N0|mc:208877|mtp:S|qry_typ:P|lang:en|wc:3|cs:8896|v=4,False,Navrangpura,Ahmedabad,"A-503, Samudra Complex, Near Girish Cold Drinks C. G. Road, Navrangpura, Navrangpura, Ahmedabad - 380009, Dist.Ahmedabad, Gujarat",8048985837,
"6 in 1 Baby nail drill and Pedicure Kit (Pedicure 811-5), For Household",https://www.indiamart.com/proddetail/6-in-1-baby-nail-drill-and-pedicure-kit-pedicure-811-5-26419269712.html?pos=147&kwd=baby nail clippers&tags=BA||||8752.144|Price|product|||TS|rsf:gd-|-stype:attr=1|qr_nm:gd|res:RC3|com-cf:nl|ptrs:na|ktp:N0|mc:208877|mtp:S|qry_typ:P|lang:en|wc:3|cs:8896|v=4,Gtglobal Trade India Private Limited,https://www.gtcglobal.in/?pos=147&kwd=baby nail clippers&tags=BA||||8752.144|Price|product|||TS|rsf:gd-|-stype:attr=1|qr_nm:gd|res:RC3|com-cf:nl|ptrs:na|ktp:N0|mc:208877|mtp:S|qry_typ:P|lang:en|wc:3|cs:8896|v=4,False,Swaroop Nagar,New Delhi,"Plot No 144/145 , Kh. No.16/10, Gali No-7 Swaroop Nagar Extension, Swaroop Nagar, New Delhi - 110042, Dist.Delhi, Delhi",8048960531,
"HEMICO Baby Nail Trimmer Packagi ail Trimmer, Packaging Type: Box, 1-5 years",https://www.indiamart.com/proddetail/hemico-baby-nail-trimmer-packagi-ail-trimmer-packaging-type-box-1-5-years-2852302150512.html?pos=148&kwd=baby nail clippers&tags=BA||||8230.883|Price|product|||TS|rsf:gd-|-stype:attr=1|qr_nm:gd|res:RC3|com-cf:nl|ptrs:na|ktp:N0|mc:208877|mtp:S|qry_typ:P|lang:en|wc:3|cs:8896|v=4,Hemico,https://www.hemico.in/?pos=148&kwd=baby nail clippers&tags=BA||||8230.883|Price|product|||TS|rsf:gd-|-stype:attr=1|qr_nm:gd|res:RC3|com-cf:nl|ptrs:na|ktp:N0|mc:208877|mtp:S|qry_typ:P|lang:en|wc:3|cs:8896|v=4,False,Katargam,Surat,"Basement Shop No.-1, Sunday Hub Shopping Center, Ambatalavdi Road KATARGAM, Katargam, Surat - 395004, Dist.Surat, Gujarat",7942544294,
Baby Nail Trimmer Filer for New Born Electric with 6 Grinding Heads Safe for Kids,https://www.indiamart.com/proddetail/baby-nail-trimmer-filer-for-new-born-electric-with-6-grinding-heads-safe-for-kids-2851301006373.html?pos=149&kwd=baby nail clippers&tags=BA||||8230.883|Price|product|||TS|rsf:gd-|-stype:attr=1|qr_nm:gd|res:RC3|com-cf:nl|ptrs:na|ktp:N0|mc:208877|mtp:S|qry_typ:P|lang:en|wc:3|cs:8896|v=4,RJ Enterprise,https://www.indiamart.com/rj-enterprise-surat/?pos=149&kwd=baby nail clippers&tags=BA||||8230.883|Price|product|||TS|rsf:gd-|-stype:attr=1|qr_nm:gd|res:RC3|com-cf:nl|ptrs:na|ktp:N0|mc:208877|mtp:S|qry_typ:P|lang:en|wc:3|cs:8896|v=4,False,Katargam,Surat,"134, Sahjanand Society, N/R Arogyakendra, Katargam, Katargam, Surat - 395004, Dist.Surat, Gujarat",7942555306,
Baby Nail Trimmer Filer for New Born Electric with 6 Grinding Heads Safe for Kids Manicure Kit,https://www.indiamart.com/proddetail/baby-nail-trimmer-filer-for-new-born-electric-with-6-grinding-heads-safe-for-kids-manicure-kit-2852001488612.html?pos=150&kwd=baby nail clippers&tags=BA||||8223.226|Price|product|||TS|rsf:gd-|-stype:attr=1|qr_nm:gd|res:RC3|com-cf:nl|ptrs:na|ktp:N0|mc:208877|mtp:S|qry_typ:P|lang:en|wc:3|cs:8896|v=4,Jenico World,https://www.jenicoworld.com/?pos=150&kwd=baby nail clippers&tags=BA||||8223.226|Price|product|||TS|rsf:gd-|-stype:attr=1|qr_nm:gd|res:RC3|com-cf:nl|ptrs:na|ktp:N0|mc:208877|mtp:S|qry_typ:P|lang:en|wc:3|cs:8896|v=4,False,Mira Road,Thane,"ndra Maternity And Surgical Nursing Home, GROUND FLOOR, D-8, FLAT NO - 002, Panchami Cooperative Housing Society Ltd, SECTOR - 7, Shanti Nagar,, Mira Road, Thane - 401107, Dist.Thane, Maharashtra",8043855594,
Baby Nail File Electric Trimmer cutter Kit with Light and 5 Grinding Heads and 4 Speed Control Modes,https://www.indiamart.com/proddetail/baby-nail-file-electric-trimmer-cutter-kit-with-light-and-5-grinding-heads-and-4-speed-control-modes-2852507956188.html?pos=151&kwd=baby nail clippers&tags=BA||||8230.883|Price|product|||TS|rsf:gd-|-stype:attr=1|qr_nm:gd|res:RC3|com-cf:nl|ptrs:na|ktp:N0|mc:208877|mtp:S|qry_typ:P|lang:en|wc:3|cs:8896|v=4,Hirpara Tech Enterprise,https://www.indiamart.com/hirparatechenterprise/?pos=151&kwd=baby nail clippers&tags=BA||||8230.883|Price|product|||TS|rsf:gd-|-stype:attr=1|qr_nm:gd|res:RC3|com-cf:nl|ptrs:na|ktp:N0|mc:208877|mtp:S|qry_typ:P|lang:en|wc:3|cs:8896|v=4,False,Pal Bhatha,Surat,"First Floor, 141-142, Bellissimo Hub, Gaurav Path Road, Nr Time Square, Limla, Pal Bhatha, Surat - 394510, Dist.Surat, Gujarat",7942866035,
"4-in-1 Grooming Kit/Manicure Kit for Babies/Infants/Toddler with Scissors, Nail Clipper, Filer,",https://www.indiamart.com/proddetail/4-in-1-grooming-kit-manicure-kit-for-babies-infants-toddler-with-scissors-nail-clipper-filer-2852125837691.html?pos=152&kwd=baby nail clippers&tags=BA||||8741.812|Price|product|||TS|rsf:gd-|-stype:attr=1|qr_nm:gd|res:RC3|com-cf:nl|ptrs:na|ktp:N0|mc:208877|mtp:S|qry_typ:P|lang:en|wc:3|cs:8896|v=4,Om Deal Online,https://www.indiamart.com/om-deal-online/?pos=152&kwd=baby nail clippers&tags=BA||||8741.812|Price|product|||TS|rsf:gd-|-stype:attr=1|qr_nm:gd|res:RC3|com-cf:nl|ptrs:na|ktp:N0|mc:208877|mtp:S|qry_typ:P|lang:en|wc:3|cs:8896|v=4,False,Sector 93,Gurugram,"114, IMT Road, Government High School, Hayatpur, Sector 93, Gurugram - 122505, Dist.Gurgaon, Haryana",7942836824,
"DB-548 Only Baby Nail Clipper, Manual, 1-2 Years",https://www.indiamart.com/proddetail/db-548-only-baby-nail-clipper-2854163606688.html?pos=153&kwd=baby nail clippers&tags=BA||||8693.162||product|||MDC|rsf:gd-|-stype:attr=1|qr_nm:gd|res:RC3|com-cf:nl|ptrs:na|ktp:N0|mc:208877|mtp:S|qry_typ:P|lang:en|wc:3|cs:8896|v=4,Dear Baby,https://www.indiamart.com/dearbaby/?pos=153&kwd=baby nail clippers&tags=BA||||8693.162||product|||MDC|rsf:gd-|-stype:attr=1|qr_nm:gd|res:RC3|com-cf:nl|ptrs:na|ktp:N0|mc:208877|mtp:S|qry_typ:P|lang:en|wc:3|cs:8896|v=4,False,Begambur,Dindigul,"2nd Floor, No 7, Ahmad Appartment, S P Nagar, Begambur, Begambur, Dindigul - 624002, Dist.Dindigul, Tamil Nadu",8045731862,
"Green Safety Cartoon Dolphin Baby Nail Clippers, For Cut Nails",https://www.indiamart.com/proddetail/safety-cartoon-dolphin-baby-nail-clippers-2852749455748.html?pos=154&kwd=baby nail clippers&tags=BA||||8752.144|Price|product|||MDC|rsf:gd-|-stype:attr=1|qr_nm:gd|res:RC3|com-cf:nl|ptrs:na|ktp:N0|mc:208877|mtp:S|qry_typ:P|lang:en|wc:3|cs:8896|v=4,DR. Nigams Clinic Private Limited,https://www.indiamart.com/drdad-newdelhi/?pos=154&kwd=baby nail clippers&tags=BA||||8752.144|Price|product|||MDC|rsf:gd-|-stype:attr=1|qr_nm:gd|res:RC3|com-cf:nl|ptrs:na|ktp:N0|mc:208877|mtp:S|qry_typ:P|lang:en|wc:3|cs:8896|v=4,False,Kailash Hill,New Delhi,"107 G/F F/F, Kailash Hills, Near OBS Bank, Kailash Hill, New Delhi - 110065, Dist.Delhi, Delhi",7942716962,
"Baby Nail Trimmer Electric, Safe Baby Nail File, Baby Nail Clippers with Light and 6 Grinding PG-246",https://www.indiamart.com/proddetail/baby-nail-trimmer-electric-safe-baby-nail-file-baby-nail-clippers-with-light-and-6-grinding-pg-246-2854718197773.html?pos=155&kwd=baby nail clippers&tags=BB||||8230.883|Price|product|||MDC|rsf:gd-|-stype:attr=1|qr_nm:gd|res:RC3|com-cf:nl|ptrs:na|ktp:N0|mc:208877|mtp:S|qry_typ:P|lang:en|wc:3|cs:8896|v=4,P G Impex,https://www.indiamart.com/pg-impex-surat/?pos=155&kwd=baby nail clippers&tags=BB||||8230.883|Price|product|||MDC|rsf:gd-|-stype:attr=1|qr_nm:gd|res:RC3|com-cf:nl|ptrs:na|ktp:N0|mc:208877|mtp:S|qry_typ:P|lang:en|wc:3|cs:8896|v=4,False,,Surat,"3rd Floor, 304, Sarjan Residency Wing-A, Sunganpor Road, Katargam, Surat - 395004, Dist.Surat, Gujarat",7949322822,
"White Baby Nail Clipper, For Cutting Nails",https://www.indiamart.com/proddetail/baby-nail-clipper-24550828230.html?pos=156&kwd=baby nail clippers&tags=BB||||8662.111|Price|product|||MDC|rsf:gd-|-stype:attr=1|qr_nm:gd|res:RC3|com-cf:nl|ptrs:na|ktp:N0|mc:208877|mtp:S|qry_typ:P|lang:en|wc:3|cs:8896|v=4,Habibi,https://www.indiamart.com/habibi/?pos=156&kwd=baby nail clippers&tags=BB||||8662.111|Price|product|||MDC|rsf:gd-|-stype:attr=1|qr_nm:gd|res:RC3|com-cf:nl|ptrs:na|ktp:N0|mc:208877|mtp:S|qry_typ:P|lang:en|wc:3|cs:8896|v=4,False,Melapalayam,Tirunelveli,"No.12/16E/2F Hameempuram North Street Palayamkottai, Melapalayam, Tirunelveli - 627005, Dist.Tirunelveli, Tamil Nadu",7942547388,
Baby Nail Trimmer,https://www.indiamart.com/proddetail/baby-nail-trimmer-2854900835430.html?pos=157&kwd=baby nail clippers&tags=BB||||8230.883||product|||MDC|rsf:gd-|-stype:attr=1|qr_nm:gd|res:RC3|com-cf:nl|ptrs:na|ktp:N0|mc:208877|mtp:S|qry_typ:P|lang:en|wc:3|cs:8896|v=4,AK Fashion,https://www.indiamart.com/akfashion-surat-gujarat/?pos=157&kwd=baby nail clippers&tags=BB||||8230.883||product|||MDC|rsf:gd-|-stype:attr=1|qr_nm:gd|res:RC3|com-cf:nl|ptrs:na|ktp:N0|mc:208877|mtp:S|qry_typ:P|lang:en|wc:3|cs:8896|v=4,False,Bombay Market,Surat,"Second Floor, 399, Muktidham CO. OP. Housing Society, Puna Bombay Market Road Dakshina Murathi School, Bombay Market, Surat - 395010, Dist.Surat, Gujarat",7949091628,
Baby nail cutter,https://www.indiamart.com/proddetail/baby-nail-cutter-2854246317730.html?pos=158&kwd=baby nail clippers&tags=BA||||8534.93||product|||MDC|rsf:gd-|-stype:attr=1|qr_nm:gd|res:RC3|com-cf:nl|ptrs:na|ktp:N0|mc:208877|mtp:S|qry_typ:P|lang:en|wc:3|cs:8896|v=4,Veecay Marketing,https://www.indiamart.com/veecay-marketing-puthuppally/?pos=158&kwd=baby nail clippers&tags=BA||||8534.93||product|||MDC|rsf:gd-|-stype:attr=1|qr_nm:gd|res:RC3|com-cf:nl|ptrs:na|ktp:N0|mc:208877|mtp:S|qry_typ:P|lang:en|wc:3|cs:8896|v=4,False,,Puthuppally,"2/378/D, Kadamuri, Pariyaram, Puthuppally - 686021, Dist.Alappuzha, Kerala",8045736459,
"Blue Baby Nail Clipper, Manual, Newly Born",https://www.indiamart.com/proddetail/baby-nail-clipper-2853652688630.html?pos=159&kwd=baby nail clippers&tags=BA||||8230.883|Price|product|||MDC|rsf:gd-|-stype:attr=1|qr_nm:gd|res:RC3|com-cf:nl|ptrs:na|ktp:N0|mc:208877|mtp:S|qry_typ:P|lang:en|wc:3|cs:8896|v=4,Mazon Sales,https://www.indiamart.com/mazon-sales/?pos=159&kwd=baby nail clippers&tags=BA||||8230.883|Price|product|||MDC|rsf:gd-|-stype:attr=1|qr_nm:gd|res:RC3|com-cf:nl|ptrs:na|ktp:N0|mc:208877|mtp:S|qry_typ:P|lang:en|wc:3|cs:8896|v=4,False,,Surat,"Flat 302, 3rd Floor, Wing C/2, Harikrushna Residency, Singanpor Road,, Surat - 395004, Dist.Surat, Gujarat",7949329529,
Baby Nail Clipper,https://www.indiamart.com/proddetail/baby-nail-clipper-12790765348.html?pos=160&kwd=baby nail clippers&tags=BB||||8223.226|Price|product|||MDC|rsf:gd-|-stype:attr=1|qr_nm:gd|res:RC3|com-cf:nl|ptrs:na|ktp:N0|mc:208877|mtp:S|qry_typ:P|lang:en|wc:3|cs:8896|v=4,Wecare Solutions,https://www.indiamart.com/wecare-solutions/?pos=160&kwd=baby nail clippers&tags=BB||||8223.226|Price|product|||MDC|rsf:gd-|-stype:attr=1|qr_nm:gd|res:RC3|com-cf:nl|ptrs:na|ktp:N0|mc:208877|mtp:S|qry_typ:P|lang:en|wc:3|cs:8896|v=4,False,Valiv,Thane,"Gala No. F-19-20, 1st Floor, Rajprabha Anand Industrial Estate Naikpada, Waliv, Valiv, Thane - 401208, Dist.Thane, Maharashtra",8047631791,
"Pink Baby Nail Clipper, Electric, 1-2 Years",https://www.indiamart.com/proddetail/baby-nail-clipper-2853781949462.html?pos=161&kwd=baby nail clippers&tags=BA||||8230.883|Price|product|||MDC|rsf:gd-|-stype:attr=1|qr_nm:gd|res:RC3|com-cf:nl|ptrs:na|ktp:N0|mc:208877|mtp:S|qry_typ:P|lang:en|wc:3|cs:8896|v=4,Niva Enterprise,https://www.indiamart.com/niva-enterprise-surat/?pos=161&kwd=baby nail clippers&tags=BA||||8230.883|Price|product|||MDC|rsf:gd-|-stype:attr=1|qr_nm:gd|res:RC3|com-cf:nl|ptrs:na|ktp:N0|mc:208877|mtp:S|qry_typ:P|lang:en|wc:3|cs:8896|v=4,False,Nana Varachha,Surat,"1st Floor, Plot No.12, Hastinapur Housing SOC, Punagam, Chorasi,, Nana Varachha, Surat - 395010, Dist.Surat, Gujarat",8045736549,
Baby Nail trimmer,,Abdul Taslim,https://www.indiamart.com/abdul-taslim/?pos=162&kwd=baby nail clippers&tags=BB||||8876.815|Price|product|||MDC|rsf:gd-|-stype:attr=1|qr_nm:gd|res:RC3|com-cf:nl|ptrs:na|ktp:N0|mc:208877|mtp:S|qry_typ:P|lang:en|wc:3|cs:8896|v=4,False,Siddharth Nagar,Nagpur,"Plot No.305, Near Badi Masjid, Siddharth Nagar, Teka, Siddharth Nagar, Nagpur - 440017, Dist.Nagpur, Maharashtra",8043891949,
"Green,Blue And Pink Baby Nail Clipper, For Personal",https://www.indiamart.com/proddetail/baby-nail-clipper-26869088362.html?pos=163&kwd=baby nail clippers&tags=BA||||8211.142|Price|product|||MDC|rsf:gd-|-stype:attr=1|qr_nm:gd|res:RC3|com-cf:nl|ptrs:na|ktp:N0|mc:208877|mtp:S|qry_typ:P|lang:en|wc:3|cs:8896|v=4,Shivam Keychains,https://www.indiamart.com/shivamkeychains/?pos=163&kwd=baby nail clippers&tags=BA||||8211.142|Price|product|||MDC|rsf:gd-|-stype:attr=1|qr_nm:gd|res:RC3|com-cf:nl|ptrs:na|ktp:N0|mc:208877|mtp:S|qry_typ:P|lang:en|wc:3|cs:8896|v=4,False,Mandvi,Mumbai,"4, Floor-1, 88/92, Tawawala Building, Bhaji Pala Lane, Nagdevi, Mandvi, Mandvi, Mumbai - 400003, Dist.Mumbai, Maharashtra",8043893365,
"Blue Baby Nail Clipper, Electric, Newly Born",https://www.indiamart.com/proddetail/baby-nail-clipper-2854208431462.html?pos=164&kwd=baby nail clippers&tags=BA||||8823.154|Price|product|||MDC|rsf:gd-|-stype:attr=1|qr_nm:gd|res:RC3|com-cf:nl|ptrs:na|ktp:N0|mc:208877|mtp:S|qry_typ:P|lang:en|wc:3|cs:8896|v=4,Shyam Balaji Associate,https://www.indiamart.com/shyambalajiassociate/?pos=164&kwd=baby nail clippers&tags=BA||||8823.154|Price|product|||MDC|rsf:gd-|-stype:attr=1|qr_nm:gd|res:RC3|com-cf:nl|ptrs:na|ktp:N0|mc:208877|mtp:S|qry_typ:P|lang:en|wc:3|cs:8896|v=4,False,,Agra,"1st Floor, Flat No.5, Shri Tulsi Magic, Nagla Albatiya, Agra - 282010, Dist.Agra, Uttar Pradesh",7949343889,
"impoted Sea Green Baby Nail Trimmer, Newly Born",https://www.indiamart.com/proddetail/baby-nail-trimmer-2850051989797.html?pos=165&kwd=baby nail clippers&tags=BA||||8230.883|Price|product|||MDC|rsf:gd-|-stype:attr=1|qr_nm:gd|res:RC3|com-cf:nl|ptrs:na|ktp:N0|mc:208877|mtp:S|qry_typ:P|lang:en|wc:3|cs:8896|v=4,Jay Impex,https://www.indiamart.com/jayimpexsurat/?pos=165&kwd=baby nail clippers&tags=BA||||8230.883|Price|product|||MDC|rsf:gd-|-stype:attr=1|qr_nm:gd|res:RC3|com-cf:nl|ptrs:na|ktp:N0|mc:208877|mtp:S|qry_typ:P|lang:en|wc:3|cs:8896|v=4,False,Athwa,Surat,"1st Floor, 77, Narmad Nagar Soc, Hirabaug,, Athwa, Surat - 395006, Dist.Surat, Gujarat",7942713335,
"BABY NAIL TRIMMER, Packaging Type: Box, 3-12 Months",https://www.indiamart.com/proddetail/baby-nail-trimmer-2853483618130.html?pos=166&kwd=baby nail clippers&tags=BA||||8230.883|Price|product|||MDC|rsf:gd-|-stype:attr=1|qr_nm:gd|res:RC3|com-cf:nl|ptrs:na|ktp:N0|mc:208877|mtp:S|qry_typ:P|lang:en|wc:3|cs:8896|v=4,Kitchenware Zone,https://www.indiamart.com/kitchenwarezone/?pos=166&kwd=baby nail clippers&tags=BA||||8230.883|Price|product|||MDC|rsf:gd-|-stype:attr=1|qr_nm:gd|res:RC3|com-cf:nl|ptrs:na|ktp:N0|mc:208877|mtp:S|qry_typ:P|lang:en|wc:3|cs:8896|v=4,False,Nana Varachha,Surat,"Ground Floor, Shop No.09, The Galleria, Yogi Chowk, Nana Varachha, Surat - 395010, Dist.Surat, Gujarat",7949222469,
BABY NAIL TRIMMER,https://www.indiamart.com/proddetail/baby-nail-trimmer-2854868947633.html?pos=167&kwd=baby nail clippers&tags=BB||||8230.883|Price|product|||MDC|rsf:gd-|-stype:attr=1|qr_nm:gd|res:RC3|com-cf:nl|ptrs:na|ktp:N0|mc:208877|mtp:S|qry_typ:P|lang:en|wc:3|cs:8896|v=4,Sarathi Enterprise,https://www.indiamart.com/sarathi-enterprise-surat/?pos=167&kwd=baby nail clippers&tags=BB||||8230.883|Price|product|||MDC|rsf:gd-|-stype:attr=1|qr_nm:gd|res:RC3|com-cf:nl|ptrs:na|ktp:N0|mc:208877|mtp:S|qry_typ:P|lang:en|wc:3|cs:8896|v=4,False,,Surat,"3rd Fl, Flat No. C/301, Megh Malhar Residency, B/H.Hari Krishna Daimonds, Sarthana Jakatnaka, Simada, Surat - 395006, Dist.Surat, Gujarat",8045165753,
"Pink,Blue Baby Nail Trimmer",https://www.indiamart.com/proddetail/baby-nail-trimmer-27280857030.html?pos=168&kwd=baby nail clippers&tags=BA||||8752.144|Price|product|||MDC|rsf:gd-|-stype:attr=1|qr_nm:gd|res:RC3|com-cf:nl|ptrs:na|ktp:N0|mc:208877|mtp:S|qry_typ:P|lang:en|wc:3|cs:8896|v=4,Devangi Enterprises,https://www.indiamart.com/devangienterprises/?pos=168&kwd=baby nail clippers&tags=BA||||8752.144|Price|product|||MDC|rsf:gd-|-stype:attr=1|qr_nm:gd|res:RC3|com-cf:nl|ptrs:na|ktp:N0|mc:208877|mtp:S|qry_typ:P|lang:en|wc:3|cs:8896|v=4,False,Uttam Nagar,New Delhi,"METRO PILLAR NO 707,RAM NAGAR, NEAR BAOZI MOMOS, Uttam Nagar, New Delhi - 110059, Dist.Delhi, Delhi",8048263946,
"Pink Baby Nail Trimmer, Electric, More than 12 months",https://www.indiamart.com/proddetail/baby-nail-trimmer-2854864516388.html?pos=169&kwd=baby nail clippers&tags=BB||||8230.883|Price|product|||MDC|rsf:gd-|-stype:attr=1|qr_nm:gd|res:RC3|com-cf:nl|ptrs:na|ktp:N0|mc:208877|mtp:S|qry_typ:P|lang:en|wc:3|cs:8896|v=4,Balar Corporation,https://www.indiamart.com/balar-corporation/?pos=169&kwd=baby nail clippers&tags=BB||||8230.883|Price|product|||MDC|rsf:gd-|-stype:attr=1|qr_nm:gd|res:RC3|com-cf:nl|ptrs:na|ktp:N0|mc:208877|mtp:S|qry_typ:P|lang:en|wc:3|cs:8896|v=4,False,,Surat,"C-504, Rameshvaram Regency, Utran, Surat - 394105, Dist.Surat, Gujarat",8045734410,
"Blue Baby Nail Trimmer, Electric",https://www.indiamart.com/proddetail/baby-nail-trimmer-2854795206188.html?pos=170&kwd=baby nail clippers&tags=BA||||8230.883|Price|product|||MDC|rsf:gd-|-stype:attr=1|qr_nm:gd|res:RC3|com-cf:nl|ptrs:na|ktp:N0|mc:208877|mtp:S|qry_typ:P|lang:en|wc:3|cs:8896|v=4,Khodal Creation,https://www.indiamart.com/khodalcreationsuratgujarat/?pos=170&kwd=baby nail clippers&tags=BA||||8230.883|Price|product|||MDC|rsf:gd-|-stype:attr=1|qr_nm:gd|res:RC3|com-cf:nl|ptrs:na|ktp:N0|mc:208877|mtp:S|qry_typ:P|lang:en|wc:3|cs:8896|v=4,False,Amroli,Surat,"8th Floor, E-804, Rivanta Luxeria, Variav Road,, Amroli, Surat - 394101, Dist.Surat, Gujarat",7949093501,
"Plastic Baby Nail Clipper, 3-12 Months",https://www.indiamart.com/proddetail/plastic-baby-nail-clipper-2854581281688.html?pos=171&kwd=baby nail clippers&tags=BA||||8211.142|Price|product|||MDC|rsf:gd-|-stype:attr=1|qr_nm:gd|res:RC3|com-cf:nl|ptrs:na|ktp:N0|mc:208877|mtp:S|qry_typ:P|lang:en|wc:3|cs:8896|v=4,Importex,https://www.indiamart.com/importexmumbai/?pos=171&kwd=baby nail clippers&tags=BA||||8211.142|Price|product|||MDC|rsf:gd-|-stype:attr=1|qr_nm:gd|res:RC3|com-cf:nl|ptrs:na|ktp:N0|mc:208877|mtp:S|qry_typ:P|lang:en|wc:3|cs:8896|v=4,False,,Mumbai,"Floor-1st, Room No - 4, 19,ismail Building, Sardar Vallabhbhai Patel Road, Null Bazar, Mandvi, Mumbai - 400003, Dist.Mumbai, Maharashtra",7949322019,
"Pink Baby Nail Care Set, 1-2 Years, Packaging Size: 15 ml",https://www.indiamart.com/proddetail/baby-nail-care-set-2854655496855.html?pos=172&kwd=baby nail clippers&tags=BA||||8769.508|Price|product|||MDC|rsf:gd-|-stype:attr=1|qr_nm:gd|res:RC3|com-cf:nl|ptrs:na|ktp:N0|mc:208877|mtp:S|qry_typ:P|lang:en|wc:3|cs:8896|v=4,9noc,https://www.indiamart.com/9noc/?pos=172&kwd=baby nail clippers&tags=BA||||8769.508|Price|product|||MDC|rsf:gd-|-stype:attr=1|qr_nm:gd|res:RC3|com-cf:nl|ptrs:na|ktp:N0|mc:208877|mtp:S|qry_typ:P|lang:en|wc:3|cs:8896|v=4,False,,Faridabad,"H No. - 1011, H.B.C Colony, Sector 21C, Faridabad - 121001, Dist.Faridabad, Haryana",7949329664,
Pink Baby Nail Trimmer,https://www.indiamart.com/proddetail/pink-baby-nail-trimmer-2850821398912.html?pos=173&kwd=baby nail clippers&tags=BA||||8230.883|Price|product|||MDC|rsf:gd-|-stype:attr=1|qr_nm:gd|res:RC3|com-cf:nl|ptrs:na|ktp:N0|mc:208877|mtp:S|qry_typ:P|lang:en|wc:3|cs:8896|v=4,Quick Shop,https://www.indiamart.com/quickshop-surat/?pos=173&kwd=baby nail clippers&tags=BA||||8230.883|Price|product|||MDC|rsf:gd-|-stype:attr=1|qr_nm:gd|res:RC3|com-cf:nl|ptrs:na|ktp:N0|mc:208877|mtp:S|qry_typ:P|lang:en|wc:3|cs:8896|v=4,False,Nana Varachha,Surat,"RS No-337, TP No-60, FP No-150, Ground Floor, The Galleria, Yogi Chowk To Kiran Road, Nana Varachha, Surat - 395010, Dist.Surat, Gujarat",7942957393,
"Pink Only Baby Plastic Nail Cutter, Packaging Type: Packet, 3-12 Months",https://www.indiamart.com/proddetail/only-baby-plastic-nail-cutter-2853925975191.html?pos=174&kwd=baby nail clippers&tags=BA||||8211.142|Price|product|||MDC|rsf:gd-|-stype:attr=1|qr_nm:gd|res:RC3|com-cf:nl|ptrs:na|ktp:N0|mc:208877|mtp:S|qry_typ:P|lang:en|wc:3|cs:8896|v=4,Mahakali Stationery & Printer,https://www.indiamart.com/mahakalistationeryprinter/?pos=174&kwd=baby nail clippers&tags=BA||||8211.142|Price|product|||MDC|rsf:gd-|-stype:attr=1|qr_nm:gd|res:RC3|com-cf:nl|ptrs:na|ktp:N0|mc:208877|mtp:S|qry_typ:P|lang:en|wc:3|cs:8896|v=4,False,Powai,Mumbai,"Ground Floor, Shop No 74, Powai Plaza Chs Ltd, Near Iit Hiranandani Gardens, J V Link Road Powai Suburban, Powai, Mumbai - 400076, Dist.Mumbai, Maharashtra",8044563937,
"Multicolor Baby Nail Cutter Grooming Set, Packaging Type: Plastic Bottle, 1-2 Years",https://www.indiamart.com/proddetail/baby-nail-cutter-grooming-set-2853453986212.html?pos=175&kwd=baby nail clippers&tags=BA||||9189.305|Price|product|||MDC|rsf:gd-|-stype:attr=1|qr_nm:gd|res:RC3|com-cf:nl|ptrs:na|ktp:N0|mc:208877|mtp:S|qry_typ:P|lang:en|wc:3|cs:8896|v=4,Sudhanjali Enterprises,https://www.indiamart.com/sudhanjalienterprises/?pos=175&kwd=baby nail clippers&tags=BA||||9189.305|Price|product|||MDC|rsf:gd-|-stype:attr=1|qr_nm:gd|res:RC3|com-cf:nl|ptrs:na|ktp:N0|mc:208877|mtp:S|qry_typ:P|lang:en|wc:3|cs:8896|v=4,False,,Prayagraj,"H No-10/7, Basahi, Nataka Babura, Khain, Prayagraj - 212307, Dist.Allahabad, Uttar Pradesh",7942964273,
Multicolor Baby Electric Nail Trimmer,https://www.indiamart.com/proddetail/baby-electric-nail-trimmer-2850446813312.html?pos=176&kwd=baby nail clippers&tags=BB||||8226.563|Price|product|||MDC|rsf:gd-|-stype:attr=1|qr_nm:gd|res:RC3|com-cf:nl|ptrs:na|ktp:N0|mc:208877|mtp:S|qry_typ:P|lang:en|wc:3|cs:8896|v=4,LABDHI E-COMMERCE HUB,https://www.indiamart.com/labdhiecommercehub/?pos=176&kwd=baby nail clippers&tags=BB||||8226.563|Price|product|||MDC|rsf:gd-|-stype:attr=1|qr_nm:gd|res:RC3|com-cf:nl|ptrs:na|ktp:N0|mc:208877|mtp:S|qry_typ:P|lang:en|wc:3|cs:8896|v=4,False,Ghansoli,Navi Mumbai,"H.No-1480-403, Balaram Wadi, Ghansoli, Navi Mumbai - 400701, Dist.Thane, Maharashtra",7942790679,
"Pink KHU Baby Nail Trimmer Electric, Packaging Type: Plastic Bottle, 3-12 Months",https://www.indiamart.com/proddetail/khu-baby-nail-trimmer-electric-2853174053288.html?pos=177&kwd=baby nail clippers&tags=BA||||8211.142|Price|product|||MDC|rsf:gd-|-stype:attr=1|qr_nm:gd|res:RC3|com-cf:nl|ptrs:na|ktp:N0|mc:208877|mtp:S|qry_typ:P|lang:en|wc:3|cs:8896|v=4,KHU Technologies,https://www.indiamart.com/khu-technologies/?pos=177&kwd=baby nail clippers&tags=BA||||8211.142|Price|product|||MDC|rsf:gd-|-stype:attr=1|qr_nm:gd|res:RC3|com-cf:nl|ptrs:na|ktp:N0|mc:208877|mtp:S|qry_typ:P|lang:en|wc:3|cs:8896|v=4,False,Mandvi,Mumbai,"1st Floor, Office No 5, Usman Chamber 22/24, Kazi Sayed Street Masjid Bunder West, Mumbai, Mandvi, Mumbai - 400009, Dist.Mumbai, Maharashtra",8046053657,
baby pink colour nail cutter,https://www.indiamart.com/proddetail/baby-pink-colour-nail-cutter-2850429290473.html?pos=178&kwd=baby nail clippers&tags=BA||||8752.144|Price|product|||MDC|rsf:gd-|-stype:attr=1|qr_nm:gd|res:RC3|com-cf:nl|ptrs:na|ktp:N0|mc:208877|mtp:S|qry_typ:P|lang:en|wc:3|cs:8896|v=4,Priyanshi International,https://www.indiamart.com/priyanshi-international-uttarpradesh/?pos=178&kwd=baby nail clippers&tags=BA||||8752.144|Price|product|||MDC|rsf:gd-|-stype:attr=1|qr_nm:gd|res:RC3|com-cf:nl|ptrs:na|ktp:N0|mc:208877|mtp:S|qry_typ:P|lang:en|wc:3|cs:8896|v=4,False,,New Delhi,"3,PROP NO S228,SCHOOL BLOCK,SHAKARPUR UGF, 3, Prop No S228, School Block, Shakarpur,110092, New Delhi - 110092, Dist.Delhi, Delhi",7942676139,
Hanumant Enterprise Baby Nail Trimmer,https://www.indiamart.com/proddetail/hanumant-enterprise-baby-nail-trimmer-2852880290555.html?pos=179&kwd=baby nail clippers&tags=BA||||8752.144|Price|product|||MDC|rsf:gd-|-stype:attr=1|qr_nm:gd|res:RC3|com-cf:nl|ptrs:na|ktp:N0|mc:208877|mtp:S|qry_typ:P|lang:en|wc:3|cs:8896|v=4,Mangalam Enterprises,https://www.indiamart.com/mangalamenterprises-newdelhi/?pos=179&kwd=baby nail clippers&tags=BA||||8752.144|Price|product|||MDC|rsf:gd-|-stype:attr=1|qr_nm:gd|res:RC3|com-cf:nl|ptrs:na|ktp:N0|mc:208877|mtp:S|qry_typ:P|lang:en|wc:3|cs:8896|v=4,False,Vijay Vihar,New Delhi,"2nd Floor, I-20 , Flat No-2, Vijay Vihar Phase -1, Rohini, North West Delhi, Vijay Vihar, New Delhi - 110085, Dist.Delhi, Delhi",8044015085,
"Red Vega Baby Nail Scissor Clipper Set, Packaging Type: Packet, 1-2 Years",https://www.indiamart.com/proddetail/vega-baby-nail-scissor-clipper-set-2853425875188.html?pos=180&kwd=baby nail clippers&tags=BA||||9618.383|Price|product|||MDC|rsf:gd-|-stype:attr=1|qr_nm:gd|res:RC3|com-cf:nl|ptrs:na|ktp:N0|mc:208877|mtp:S|qry_typ:P|lang:en|wc:3|cs:8896|v=4,Texco,https://www.indiamart.com/texco/?pos=180&kwd=baby nail clippers&tags=BA||||9618.383|Price|product|||MDC|rsf:gd-|-stype:attr=1|qr_nm:gd|res:RC3|com-cf:nl|ptrs:na|ktp:N0|mc:208877|mtp:S|qry_typ:P|lang:en|wc:3|cs:8896|v=4,False,Bistupur,Jamshedpur,"Shop No. 2, Main Road, Bistupur, Bistupur, Jamshedpur - 831001, Dist.East Singhbhum, Jharkhand",7949092933,
"Silver Budds Buddy Tiny Baby Nail Clipper, More than 12 months",https://www.indiamart.com/proddetail/budds-buddy-tiny-baby-nail-clipper-2854527602633.html?pos=181&kwd=baby nail clippers&tags=BA||||8038.093|Price|product|||MDC|rsf:gd-|-stype:attr=1|qr_nm:gd|res:RC3|com-cf:nl|ptrs:na|ktp:N0|mc:208877|mtp:S|qry_typ:P|lang:en|wc:3|cs:8896|v=4,My Medicine,https://www.indiamart.com/mymedicinerajkot/?pos=181&kwd=baby nail clippers&tags=BA||||8038.093|Price|product|||MDC|rsf:gd-|-stype:attr=1|qr_nm:gd|res:RC3|com-cf:nl|ptrs:na|ktp:N0|mc:208877|mtp:S|qry_typ:P|lang:en|wc:3|cs:8896|v=4,False,,Rajkot,"8, Git Gurjari Scoiety, My Medicine, Air Port Road, Opp. Nilkant Mahadev Temple, Rajkot - 360007, Dist.Rajkot, Gujarat",7949336599,
"Electric Nail File Drill for Baby No Sharp Claws Hurt, 6 in 1 Safety Cutter Trimmer",https://www.indiamart.com/proddetail/electric-nail-file-drill-for-baby-no-sharp-claws-hurt-6-in-1-safety-cutter-trimmer-2854586333262.html?pos=182&kwd=baby nail clippers&tags=BA||||8230.883|Price|product|||MDC|rsf:gd-|-stype:attr=1|qr_nm:gd|res:RC3|com-cf:nl|ptrs:na|ktp:N0|mc:208877|mtp:S|qry_typ:P|lang:en|wc:3|cs:8896|v=4,Smile Baby - Online,https://www.indiamart.com/smile-baby-online/?pos=182&kwd=baby nail clippers&tags=BA||||8230.883|Price|product|||MDC|rsf:gd-|-stype:attr=1|qr_nm:gd|res:RC3|com-cf:nl|ptrs:na|ktp:N0|mc:208877|mtp:S|qry_typ:P|lang:en|wc:3|cs:8896|v=4,False,,Surat,"Plot-154 GR. FLR,SY NO-24/1, Suyog Nagar Society, Bhatar Road,Althan Tenement,, Surat - 395007, Dist.Surat, Gujarat",7949330383,
"Electric Nail File Drill For Baby No Sharp Claws Hurt, 6 In 1 Safety Cutter Trimmer For Toes",https://www.indiamart.com/proddetail/electric-nail-file-drill-for-baby-no-sharp-claws-hurt-6-in-1-safety-cutter-trimmer-for-toes-2854758762597.html?pos=183&kwd=baby nail clippers&tags=BA||||8230.883|Price|product|||MDC|rsf:gd-|-stype:attr=1|qr_nm:gd|res:RC3|com-cf:nl|ptrs:na|ktp:N0|mc:208877|mtp:S|qry_typ:P|lang:en|wc:3|cs:8896|v=4,Brahma Wholesaler,https://www.indiamart.com/brahma-wholesaler/?pos=183&kwd=baby nail clippers&tags=BA||||8230.883|Price|product|||MDC|rsf:gd-|-stype:attr=1|qr_nm:gd|res:RC3|com-cf:nl|ptrs:na|ktp:N0|mc:208877|mtp:S|qry_typ:P|lang:en|wc:3|cs:8896|v=4,False,,Surat,"Ground Floor, 123, Harekrishna SOC, Katargam Road, Shreeji Provision Store, Surat - 395004, Dist.Surat, Gujarat",7949331498,
"Blue LEGIT Electric Nail Trimmer with 6 Replacment Pads, For Baby And Adults",https://www.indiamart.com/proddetail/legit-electric-nail-trimmer-with-6-replacment-pads-2852871267673.html?pos=184&kwd=baby nail clippers&tags=BA||||8661.854|Price|product|||MDC|rsf:gd-|-stype:attr=1|qr_nm:gd|res:RC3|com-cf:nl|ptrs:na|ktp:N0|mc:208877|mtp:S|qry_typ:P|lang:en|wc:3|cs:8896|v=4,FAIRDEAL AGENCIES PVT. LTD.,https://www.indiamart.com/fairdeal-agencies-ltd/?pos=184&kwd=baby nail clippers&tags=BA||||8661.854|Price|product|||MDC|rsf:gd-|-stype:attr=1|qr_nm:gd|res:RC3|com-cf:nl|ptrs:na|ktp:N0|mc:208877|mtp:S|qry_typ:P|lang:en|wc:3|cs:8896|v=4,False,Focal Point,Ludhiana,"B-XXX57, Opp. Hero Cycles Ltd, Grand Trunk Rd, Ludhiana, Punjab, Focal Point, Ludhiana - 141010, Dist.Ludhiana, Punjab",8048960987,
"Multicolor Quality Nail Clipper, For Personal, Type Of Packaging: Box",https://www.indiamart.com/proddetail/quality-nail-clipper-24804347055.html?pos=185&kwd=baby nail clippers&tags=BB||||8752.144|Price|product|||TS|rsf:gd-|-stype:attr=1|qr_nm:gd|res:RC3|com-cf:nl|ptrs:na|ktp:N0|mc:208877|mtp:S|qry_typ:P|lang:en|wc:3|cs:8896|v=4,Kohli Lock Company,https://www.ultracutscissor.com/?pos=185&kwd=baby nail clippers&tags=BB||||8752.144|Price|product|||TS|rsf:gd-|-stype:attr=1|qr_nm:gd|res:RC3|com-cf:nl|ptrs:na|ktp:N0|mc:208877|mtp:S|qry_typ:P|lang:en|wc:3|cs:8896|v=4,False,Delhi Sadar Bazar,New Delhi,"5260 Gandhi Market Sadar Bazar, Delhi Sadar Bazar, New Delhi - 110006, Dist.Delhi, Delhi",7942563419,
"Nail Clippers, For Personal",https://www.indiamart.com/proddetail/nail-clippers-20544374488.html?pos=186&kwd=baby nail clippers&tags=BA||||8211.142|Price|product|||TS|rsf:gd-|-stype:attr=1|qr_nm:gd|res:RC3|com-cf:nl|ptrs:na|ktp:N0|mc:208877|mtp:S|qry_typ:P|lang:en|wc:3|cs:8896|v=4,Ennar Enterprises,https://www.indiamart.com/ennar-entp-mumbai/?pos=186&kwd=baby nail clippers&tags=BA||||8211.142|Price|product|||TS|rsf:gd-|-stype:attr=1|qr_nm:gd|res:RC3|com-cf:nl|ptrs:na|ktp:N0|mc:208877|mtp:S|qry_typ:P|lang:en|wc:3|cs:8896|v=4,False,Masjid Bandar,Mumbai,"1st, M-101, Vardhaman Nagar, Dr R P Road, Masjid Bandar, Mumbai - 400080, Dist.Mumbai, Maharashtra",8046030904,
"black Nail Clipper With Magnifying Glass, For Parlour, Packaging Size: 200",https://www.indiamart.com/proddetail/nail-clipper-with-magnifying-glass-24730525733.html?pos=187&kwd=baby nail clippers&tags=BA||||8752.144|Price|product|||TS|rsf:gd-|-stype:attr=1|qr_nm:gd|res:RC3|com-cf:nl|ptrs:na|ktp:N0|mc:208877|mtp:S|qry_typ:P|lang:en|wc:3|cs:8896|v=4,Mahalaxmi Enterprises,https://www.indiamart.com/mahalaxmienterprises-newdelhi/?pos=187&kwd=baby nail clippers&tags=BA||||8752.144|Price|product|||TS|rsf:gd-|-stype:attr=1|qr_nm:gd|res:RC3|com-cf:nl|ptrs:na|ktp:N0|mc:208877|mtp:S|qry_typ:P|lang:en|wc:3|cs:8896|v=4,False,Dwarka,New Delhi,"D-1/42A,MANSA RAAM PARK,MANSA RAAM PARK,UTTAM NAGAR sec12a, Dwarka, New Delhi - 110059, Dist.Delhi, Delhi",8047631675,
Baby nailcutter set,,Aggarwal Glass House,https://www.indiamart.com/aggarwalglasshouse/?pos=188&kwd=baby nail clippers&tags=BB||||8752.144|Price|product|||MDC|rsf:gd-|-stype:attr=1|qr_nm:gd|res:RC3|com-cf:nl|ptrs:na|ktp:N0|mc:208877|mtp:S|qry_typ:P|lang:en|wc:3|cs:8896|v=4,False,Chandni Chowk,New Delhi,"5460/2 1st Floor, Ahmed Ki Sarai , Gandhi Market, Sadar Bazar, Chandni Chowk, New Delhi - 110006, Dist.Delhi, Delhi",8043857289,
Baby Nail Trimmer,,Trizen Enterprises,https://www.indiamart.com/trizenenterprises/?pos=189&kwd=baby nail clippers&tags=BA||||8211.142||product|||TS|rsf:gd-|-stype:attr=1|qr_nm:gd|res:RC3|com-cf:nl|ptrs:na|ktp:N0|mc:208877|mtp:S|qry_typ:P|lang:en|wc:3|cs:8896|v=4,False,Town Hall,Mumbai,"9, Ground Floor, Madina Building, Musafirkhana Road, Crawford Market, Next to Sara Market Gate, Town Hall, Mumbai - 400001, Dist.Mumbai, Maharashtra",8046070421,
Baby Nail Cutter,,A.K.N Traders,https://www.akntraders.com/?pos=190&kwd=baby nail clippers&tags=BA||||8211.142|Price|product|||TS|rsf:gd-|-stype:attr=1|qr_nm:gd|res:RC3|com-cf:nl|ptrs:na|ktp:N0|mc:208877|mtp:S|qry_typ:P|lang:en|wc:3|cs:8896|v=4,False,Mazgaon Road,Mumbai,"25th Floor, 250, Saifee Park, Mascrenhas Road, Mazogaon,, Mazgaon Road, Mumbai - 400010, Dist.Mumbai, Maharashtra",7942869187,
BABY NAIL TRIMMER,,Case Plus,https://www.indiamart.com/case-plus/?pos=191&kwd=baby nail clippers&tags=BB||||8281.036|Price|product|||MDC|rsf:gd-|-stype:attr=1|qr_nm:gd|res:RC3|com-cf:nl|ptrs:na|ktp:N0|mc:208877|mtp:S|qry_typ:P|lang:en|wc:3|cs:8896|v=4,False,,Vadodara,"A-22, Siddharth Annexe 3, Near Hotel Plazzo, Vemali, Vadodara - 391740, Dist.Vadodara, Gujarat",7949341771,
"Pink Baby Nail Clipper, Manual, Newly Born",https://www.indiamart.com/proddetail/baby-nail-clipper-2854722432397.html?pos=192&kwd=baby nail clippers&tags=A||||8228.275|Price|product|||NA|rsf:gd-|-stype:attr=1|qr_nm:gd|res:RC3|com-cf:nl|ptrs:na|ktp:N0|mc:208877|mtp:S|qry_typ:P|lang:en|wc:3|cs:8896|v=4,Shishu Apparels,https://www.indiamart.com/shishu-apparels/?pos=192&kwd=baby nail clippers&tags=A||||8228.275|Price|product|||NA|rsf:gd-|-stype:attr=1|qr_nm:gd|res:RC3|com-cf:nl|ptrs:na|ktp:N0|mc:208877|mtp:S|qry_typ:P|lang:en|wc:3|cs:8896|v=4,False,,Ahmedabad,"62, Laxmi Vishnu Market, Gheekanta Road, Ghee Kanta, Ahmedabad - 380001, Dist.Ahmedabad, Gujarat",7949322683,
AI Dayim Imports,,AI Dayim Imports,https://www.indiamart.com/aidayimimports/?pos=193&kwd=baby nail clippers&tags=BA||||8211.142||bl|||TS|rsf:gd-|-stype:attr=1|qr_nm:gd|res:RC3|com-cf:nl|ptrs:na|ktp:N0|mc:208877|mtp:S|qry_typ:P|lang:en|wc:3|cs:8896|v=4,False,Masjid Bandar,Mumbai,"Floor Grd -154/156 154 Surat Street Vohra House, Masjid Bandar, Mumbai - 400009, Dist.Mumbai, Maharashtra",8047671223,
Pink Baby Nail Clippers,https://www.indiamart.com/proddetail/baby-nail-clippers-23427557262.html?pos=194&kwd=baby nail clippers&tags=BA||||9829.308|Price|product|||NA|rsf:gd-|-stype:attr=1|qr_nm:gd|res:RC3|com-cf:nl|ptrs:na|ktp:N0|mc:208877|mtp:S|qry_typ:P|lang:en|wc:3|cs:8896|v=4,M/ S Naughty Baby Products,https://www.indiamart.com/naughty-baby-products/?pos=194&kwd=baby nail clippers&tags=BA||||9829.308|Price|product|||NA|rsf:gd-|-stype:attr=1|qr_nm:gd|res:RC3|com-cf:nl|ptrs:na|ktp:N0|mc:208877|mtp:S|qry_typ:P|lang:en|wc:3|cs:8896|v=4,False,Salkia,Howrah,"6, Kolu Para Lane, Salkia, Salkia, Howrah - 711106, Dist.Howrah, West Bengal",8048372620,444
"Blue ( Base) Baby Nail Clippers, For Use For Nails",https://www.indiamart.com/proddetail/baby-nail-clippers-2852176083130.html?pos=195&kwd=baby nail clippers&tags=BA||||8954.051|Price|product|||NA|rsf:gd-|-stype:attr=1|qr_nm:gd|res:RC3|com-cf:nl|ptrs:na|ktp:N0|mc:208877|mtp:S|qry_typ:P|lang:en|wc:3|cs:8896|v=4,Radhe Kids Mart,https://www.indiamart.com/radhekidsmartchennai/?pos=195&kwd=baby nail clippers&tags=BA||||8954.051|Price|product|||NA|rsf:gd-|-stype:attr=1|qr_nm:gd|res:RC3|com-cf:nl|ptrs:na|ktp:N0|mc:208877|mtp:S|qry_typ:P|lang:en|wc:3|cs:8896|v=4,False,Purasawalkam,Chennai,"Door No 51 B Saravana Perumal Street Purasawalkam, Purasawalkam, Chennai - 600084, Dist.Chennai, Tamil Nadu",7942656302,
Blue Baby Nail Clippers,https://www.indiamart.com/proddetail/blue-baby-nail-clippers-2853383385912.html?pos=196&kwd=baby nail clippers&tags=BA||||8234.203|Price|product|||NA|rsf:gd-|-stype:attr=1|qr_nm:gd|res:RC3|com-cf:nl|ptrs:na|ktp:N0|mc:208877|mtp:S|qry_typ:P|lang:en|wc:3|cs:8896|v=4,Inspire Hype,https://www.indiamart.com/inspirehype/?pos=196&kwd=baby nail clippers&tags=BA||||8234.203|Price|product|||NA|rsf:gd-|-stype:attr=1|qr_nm:gd|res:RC3|com-cf:nl|ptrs:na|ktp:N0|mc:208877|mtp:S|qry_typ:P|lang:en|wc:3|cs:8896|v=4,False,Denap,Visnagar,"4-B, C H Complex, Denap Tran Rasta Mahesana, Denap, Visnagar - 384315, Dist.Mehsana, Gujarat",7949224033,
"Nail Trimmer Electric, Safe Baby Nail File,Baby Nail Clippers with Light &6 Grinding Pads",https://www.indiamart.com/proddetail/nail-trimmer-electric-safe-baby-nail-file-baby-nail-clippers-with-light-6-grinding-pads-2853597696688.html?pos=197&kwd=baby nail clippers&tags=BA||||8876.815|Price|product|||NA|rsf:gd-|-stype:attr=1|qr_nm:gd|res:RC3|com-cf:nl|ptrs:na|ktp:N0|mc:208877|mtp:S|qry_typ:P|lang:en|wc:3|cs:8896|v=4,Sachidanand Store,https://www.indiamart.com/sachidanandstore/?pos=197&kwd=baby nail clippers&tags=BA||||8876.815|Price|product|||NA|rsf:gd-|-stype:attr=1|qr_nm:gd|res:RC3|com-cf:nl|ptrs:na|ktp:N0|mc:208877|mtp:S|qry_typ:P|lang:en|wc:3|cs:8896|v=4,False,Mahal,Nagpur,"Gangabai Ghat Road, Juni Managlwari, Pardi, Mahal, Nagpur - 440008, Dist.Nagpur, Maharashtra",7942966909,
"TLISMI Baby Nail Trimmer, Electric Safe Baby Nail Clippers Manicure Set Trim Polish Grooming kit .",https://www.indiamart.com/proddetail/tlismi-baby-nail-trimmer-electric-safe-baby-nail-clippers-manicure-set-trim-polish-grooming-kit-2850902019130.html?pos=198&kwd=baby nail clippers&tags=BA||||8752.144||product|||NA|rsf:gd-|-stype:attr=1|qr_nm:gd|res:RC3|com-cf:nl|ptrs:na|ktp:N0|mc:208877|mtp:S|qry_typ:P|lang:en|wc:3|cs:8896|v=4,Aarna Sales Corporation,https://www.indiamart.com/aarnasales-corporation/?pos=198&kwd=baby nail clippers&tags=BA||||8752.144||product|||NA|rsf:gd-|-stype:attr=1|qr_nm:gd|res:RC3|com-cf:nl|ptrs:na|ktp:N0|mc:208877|mtp:S|qry_typ:P|lang:en|wc:3|cs:8896|v=4,False,New Delhi North West,New Delhi,"Third Floor 481-82 Gali Sheesh Mehal, Sita Ram Bazar, New Delhi North West, New Delhi - 110006, Dist.Delhi, Delhi",8047636204,
Baby Nail Cutter,,Ramdev Novelty Centre,https://www.indiamart.com/ramdev-novelty-centre/?pos=199&kwd=baby nail clippers&tags=BB||||8954.051||product|||NA|rsf:gd-|-stype:attr=1|qr_nm:gd|res:RC3|com-cf:nl|ptrs:na|ktp:N0|mc:208877|mtp:S|qry_typ:P|lang:en|wc:3|cs:8896|v=4,False,Kasi Chetty Street,Chennai,"No. 20/53, Kasi Chetty Street, 1st Floor, Kasi Chetty Street, Chennai - 600079, Dist.Chennai, Tamil Nadu",8048372571,672
Multicolor Baby Nail Trimmer,,Buyviv,https://www.indiamart.com/buyviv/?pos=200&kwd=baby nail clippers&tags=BB||||8752.144|Price|product|||NA|rsf:gd-|-stype:attr=1|qr_nm:gd|res:RC3|com-cf:nl|ptrs:na|ktp:N0|mc:208877|mtp:S|qry_typ:P|lang:en|wc:3|cs:8896|v=4,False,,New Delhi,"K-36/B, Bal Udhyan Road, West Delhi, New Delhi - 110059, Dist.Delhi, Delhi",8043891605,
Multicolor Baby Nail Cutter,https://www.indiamart.com/proddetail/baby-nail-cutter-26432357562.html?pos=201&kwd=baby nail clippers&tags=BB||||8130.3813|Price|product|||NA|rsf:gd-|-stype:attr=1|qr_nm:gd|res:RC3|com-cf:nl|ptrs:na|ktp:N0|mc:208877|mtp:S|qry_typ:P|lang:en|wc:3|cs:8896|v=4,Seven Space,https://www.indiamart.com/seven-space/?pos=201&kwd=baby nail clippers&tags=BB||||8130.3813|Price|product|||NA|rsf:gd-|-stype:attr=1|qr_nm:gd|res:RC3|com-cf:nl|ptrs:na|ktp:N0|mc:208877|mtp:S|qry_typ:P|lang:en|wc:3|cs:8896|v=4,False,,Surendranagar,"Ground Floor, Ramparagam, Wadhwan Darvaja, Wadhwangam Taluka, Surendranagar - 363435, Dist.Surendra Nagar, Gujarat",8043848375,
Multy Baby Nail Trimmer,https://www.indiamart.com/proddetail/baby-nail-trimmer-2849500441991.html?pos=202&kwd=baby nail clippers&tags=BB||||8230.883|Price|product|||NA|rsf:gd-|-stype:attr=1|qr_nm:gd|res:RC3|com-cf:nl|ptrs:na|ktp:N0|mc:208877|mtp:S|qry_typ:P|lang:en|wc:3|cs:8896|v=4,Aarav International,https://www.indiamart.com/aaravinternational-surat/?pos=202&kwd=baby nail clippers&tags=BB||||8230.883|Price|product|||NA|rsf:gd-|-stype:attr=1|qr_nm:gd|res:RC3|com-cf:nl|ptrs:na|ktp:N0|mc:208877|mtp:S|qry_typ:P|lang:en|wc:3|cs:8896|v=4,False,,Surat,"93, 3rd Floor, Nirman Industires, Opp. Samsan Bhumi, Fulpada Road, Surat - 395004, Dist.Surat, Gujarat",8048213902,
"Blue Baby Nail Clipper, Electric, More than 12 months",https://www.indiamart.com/proddetail/baby-nail-clipper-2854732376673.html?pos=203&kwd=baby nail clippers&tags=BB||||8706.508|Price|product|||NA|rsf:gd-|-stype:attr=1|qr_nm:gd|res:RC3|com-cf:nl|ptrs:na|ktp:N0|mc:208877|mtp:S|qry_typ:P|lang:en|wc:3|cs:8896|v=4,URS Enterprises,https://www.indiamart.com/urs-enterprises-rohtak/?pos=203&kwd=baby nail clippers&tags=BB||||8706.508|Price|product|||NA|rsf:gd-|-stype:attr=1|qr_nm:gd|res:RC3|com-cf:nl|ptrs:na|ktp:N0|mc:208877|mtp:S|qry_typ:P|lang:en|wc:3|cs:8896|v=4,False,,Rohtak,"Opp Lps Plant 2,1st Floor Room No 2,Pratham Bhawan,Hissar Road,Rohtak,Rohtak, Rohtak - 124001, Dist.Rohtak, Haryana",8047311007,9361
IMPORTED BABY NAIL CLIPPER,https://www.indiamart.com/proddetail/baby-nail-clipper-19981060162.html?pos=204&kwd=baby nail clippers&tags=BB||||8223.226|Price|product|||NA|rsf:gd-|-stype:attr=1|qr_nm:gd|res:RC3|com-cf:nl|ptrs:na|ktp:N0|mc:208877|mtp:S|qry_typ:P|lang:en|wc:3|cs:8896|v=4,Kreative Gifts,https://www.indiamart.com/kreativegifts-mumbai/?pos=204&kwd=baby nail clippers&tags=BB||||8223.226|Price|product|||NA|rsf:gd-|-stype:attr=1|qr_nm:gd|res:RC3|com-cf:nl|ptrs:na|ktp:N0|mc:208877|mtp:S|qry_typ:P|lang:en|wc:3|cs:8896|v=4,False,Vashi,Thane,"Maitri Tower, 1101, Nerul, Vashi, Thane - 400703, Dist.Thane, Maharashtra",7942656365,
Baby Nail Trimmer,,Anaisha Enterprises,https://www.indiamart.com/anaisha-enterprises-delhi/?pos=205&kwd=baby nail clippers&tags=BB||||8752.144|Price|product|||NA|rsf:gd-|-stype:attr=1|qr_nm:gd|res:RC3|com-cf:nl|ptrs:na|ktp:N0|mc:208877|mtp:S|qry_typ:P|lang:en|wc:3|cs:8896|v=4,False,Dr Mukharji Nagar,New Delhi,"Mukherjee Nagar Batra Cinema, Dr Mukharji Nagar, New Delhi - 110009, Dist.Delhi, Delhi",8069051305,579
"Pink Baby Nail Trimmer, Newly Born",https://www.indiamart.com/proddetail/baby-nail-trimmer-2853554615991.html?pos=206&kwd=baby nail clippers&tags=BA||||8740.707|Price|product|||NA|rsf:gd-|-stype:attr=1|qr_nm:gd|res:RC3|com-cf:nl|ptrs:na|ktp:N0|mc:208877|mtp:S|qry_typ:P|lang:en|wc:3|cs:8896|v=4,Cayman Sales,https://www.indiamart.com/cayman-sales/?pos=206&kwd=baby nail clippers&tags=BA||||8740.707|Price|product|||NA|rsf:gd-|-stype:attr=1|qr_nm:gd|res:RC3|com-cf:nl|ptrs:na|ktp:N0|mc:208877|mtp:S|qry_typ:P|lang:en|wc:3|cs:8896|v=4,False,Industrial Area Mohali Phase 9,Sas Nagar,"Plot No 266, Industrial Area, Phase IX, Mohali, Industrial Area Mohali Phase 9, Sas Nagar - 140307, Dist.Mohali, Punjab",8044011643,
"White And Pink Baby Nail Trimmer, For Home",https://www.indiamart.com/proddetail/baby-nail-trimmer-26168550691.html?pos=207&kwd=baby nail clippers&tags=BB||||8038.093|Price|product|||NA|rsf:gd-|-stype:attr=1|qr_nm:gd|res:RC3|com-cf:nl|ptrs:na|ktp:N0|mc:208877|mtp:S|qry_typ:P|lang:en|wc:3|cs:8896|v=4,Neelkamal Enterprise,https://www.indiamart.com/neelkamal-enterprise-rajkot/?pos=207&kwd=baby nail clippers&tags=BB||||8038.093|Price|product|||NA|rsf:gd-|-stype:attr=1|qr_nm:gd|res:RC3|com-cf:nl|ptrs:na|ktp:N0|mc:208877|mtp:S|qry_typ:P|lang:en|wc:3|cs:8896|v=4,False,Sadar,Rajkot,"Shop No. 3, Ground Floor, Small City-1, Yagnik Road, Opp Jagnath Mandir, Sadar, Rajkot - 360001, Dist.Rajkot, Gujarat",8043864355,
"Multicolor Baby Nail Scissor, For Multi",https://www.indiamart.com/proddetail/baby-nail-scissor-23756958155.html?pos=208&kwd=baby nail clippers&tags=BB||||8230.883|Price|product|||NA|rsf:gd-|-stype:attr=1|qr_nm:gd|res:RC3|com-cf:nl|ptrs:na|ktp:N0|mc:208877|mtp:S|qry_typ:P|lang:en|wc:3|cs:8896|v=4,Deal Zone,https://www.indiamart.com/deal-zone/?pos=208&kwd=baby nail clippers&tags=BB||||8230.883|Price|product|||NA|rsf:gd-|-stype:attr=1|qr_nm:gd|res:RC3|com-cf:nl|ptrs:na|ktp:N0|mc:208877|mtp:S|qry_typ:P|lang:en|wc:3|cs:8896|v=4,False,,Surat,"1201, Saakar Building, Rang Raag Residency, Near Ashram, Jahangirpura, Rander, Surat - 395005, Dist.Surat, Gujarat",8046070286,
Silver Baby Nail Trimmer,https://www.indiamart.com/proddetail/baby-nail-trimmer-27462514173.html?pos=209&kwd=baby nail clippers&tags=BB||||8620.856|Price|product|||NA|rsf:gd-|-stype:attr=1|qr_nm:gd|res:RC3|com-cf:nl|ptrs:na|ktp:N0|mc:208877|mtp:S|qry_typ:P|lang:en|wc:3|cs:8896|v=4,Pocket Simple,https://www.indiamart.com/pocket-simple/?pos=209&kwd=baby nail clippers&tags=BB||||8620.856|Price|product|||NA|rsf:gd-|-stype:attr=1|qr_nm:gd|res:RC3|com-cf:nl|ptrs:na|ktp:N0|mc:208877|mtp:S|qry_typ:P|lang:en|wc:3|cs:8896|v=4,False,,Parbhani,"Near B Raghunath College, Parbhani - 431401, Dist.Parbhani, Maharashtra",7942673709,
Blue Baby Nail Trimmer,https://www.indiamart.com/proddetail/baby-nail-trimmer-2851883956191.html?pos=210&kwd=baby nail clippers&tags=BA||||8663.873|Price|product|||NA|rsf:gd-|-stype:attr=1|qr_nm:gd|res:RC3|com-cf:nl|ptrs:na|ktp:N0|mc:208877|mtp:S|qry_typ:P|lang:en|wc:3|cs:8896|v=4,Corpbay,https://www.indiamart.com/corpbay/?pos=210&kwd=baby nail clippers&tags=BA||||8663.873|Price|product|||NA|rsf:gd-|-stype:attr=1|qr_nm:gd|res:RC3|com-cf:nl|ptrs:na|ktp:N0|mc:208877|mtp:S|qry_typ:P|lang:en|wc:3|cs:8896|v=4,False,Krishnarajapura,Bengaluru,"60/A, 1st Building, Selvaraj Layout., Krishnarajapura, Bengaluru - 560049, Dist.Bengaluru, Karnataka",8046066909,
