product_title,product_link,company_name,company_link,is_verified_exporter,city_region,city,address_details,phone_number,phone_number_extension
"Micro Cotton Multi Pattern Round Baby Bed, 1.25KGS",https://www.indiamart.com/proddetail/round-baby-bed-26439969662.html?pos=1&kwd=baby carry bed&tags=A||||8752.144|Price|product|||TS|rsf:gd-|-stype:attr=1|qr_nm:gd|res:RC4|com-cf:nl|ptrs:na|ktp:N0|mc:182353|mtp:S|qry_typ:P|lang:en|wc:3|flavl:0|cs:9650|v=4,Verma Enterprises,https://www.styaloindia.com/?pos=1&kwd=baby carry bed&tags=A||||8752.144|Price|product|||TS|rsf:gd-|-stype:attr=1|qr_nm:gd|res:RC4|com-cf:nl|ptrs:na|ktp:N0|mc:182353|mtp:S|qry_typ:P|lang:en|wc:3|flavl:0|cs:9650|v=4,False,Samaypur,New Delhi,"Plot No.180/1-B, Kh.No. 955/1, 1st, Block-C, Raja Vihar, Siraspur, Badli, North West Delhi, Samaypur, New Delhi - 110042, Dist.Delhi, Delhi",8047654672,
"Blue Baby Sleeping Bag Cum Baby Carry Bag, Newly Born",https://www.indiamart.com/proddetail/baby-sleeping-bag-cum-baby-carry-bag-2852435958855.html?pos=2&kwd=baby carry bed&tags=A||||8230.883|Price|product|||TS|rsf:gd-|-stype:attr=1|qr_nm:gd|res:RC4|com-cf:nl|ptrs:na|ktp:N0|mc:182353|mtp:S|qry_typ:P|lang:en|wc:3|flavl:0|cs:9650|v=4,Concept Enterprise,https://www.cartforbaby.com/?pos=2&kwd=baby carry bed&tags=A||||8230.883|Price|product|||TS|rsf:gd-|-stype:attr=1|qr_nm:gd|res:RC4|com-cf:nl|ptrs:na|ktp:N0|mc:182353|mtp:S|qry_typ:P|lang:en|wc:3|flavl:0|cs:9650|v=4,False,Dabholi,Surat,"17, Bhumi Park Society, Near Dabholi Road, Katargam, Dabholi, Surat - 395004, Dist.Surat, Gujarat",8047546659,
Muslin Baby Carry Bed,https://www.indiamart.com/proddetail/muslin-baby-carry-bed-2854503163412.html?pos=3&kwd=baby carry bed&tags=A||||8211.142|Price|product|||TS|rsf:gd-|-stype:attr=1|qr_nm:gd|res:RC4|com-cf:nl|ptrs:na|ktp:N0|mc:182353|mtp:S|qry_typ:P|lang:en|wc:3|flavl:0|cs:9650|v=4,Sidhshlok Enterprises,https://www.indiamart.com/sidhshlokenterprises/?pos=3&kwd=baby carry bed&tags=A||||8211.142|Price|product|||TS|rsf:gd-|-stype:attr=1|qr_nm:gd|res:RC4|com-cf:nl|ptrs:na|ktp:N0|mc:182353|mtp:S|qry_typ:P|lang:en|wc:3|flavl:0|cs:9650|v=4,False,Mulund West,Mumbai,"A-9, Chagpar Khimaji, R R T Road, Mumbai Suburban, Mulund West, Mumbai - 400080, Dist.Mumbai, Maharashtra",7942832648,
"Blue Eco Friendly Soft Fabric Baby Carry Nest With Hood, 0-1 Year",https://www.indiamart.com/proddetail/baby-carry-nest-with-hood-14276892862.html?pos=4&kwd=baby carry bed&tags=A||||8778.123|Price|product|||TS|rsf:gd-|-stype:attr=1|qr_nm:gd|res:RC4|com-cf:nl|ptrs:na|ktp:N0|mc:182353|mtp:S|qry_typ:P|lang:en|wc:3|flavl:0|cs:9650|v=4,Oscar Overseas,https://www.oscar-india.com/?pos=4&kwd=baby carry bed&tags=A||||8778.123|Price|product|||TS|rsf:gd-|-stype:attr=1|qr_nm:gd|res:RC4|com-cf:nl|ptrs:na|ktp:N0|mc:182353|mtp:S|qry_typ:P|lang:en|wc:3|flavl:0|cs:9650|v=4,False,,Noida,"A-99 Sector 5, Noida - 201301, Dist.Gautam Budh Nagar, Uttar Pradesh",8046058290,
"Adhoniyah Pink Cotton Baby Carry Bed, Newly Born",https://www.indiamart.com/proddetail/pink-cotton-baby-carry-bed-25229550788.html?pos=5&kwd=baby carry bed&tags=A||||8954.051|Price|product|||MDC|rsf:gd-|-stype:attr=1|qr_nm:gd|res:RC4|com-cf:nl|ptrs:na|ktp:N0|mc:182353|mtp:S|qry_typ:P|lang:en|wc:3|flavl:0|cs:9650|v=4,Adhoniyah,https://www.indiamart.com/adhoniyah/?pos=5&kwd=baby carry bed&tags=A||||8954.051|Price|product|||MDC|rsf:gd-|-stype:attr=1|qr_nm:gd|res:RC4|com-cf:nl|ptrs:na|ktp:N0|mc:182353|mtp:S|qry_typ:P|lang:en|wc:3|flavl:0|cs:9650|v=4,False,Jamalia,Chennai,"Ground Floor,5/4,Strahans Road I St Street,Otteri, Jamalia, Chennai - 600012, Dist.Chennai, Tamil Nadu",8048274134,
Baby Carry Bed,https://www.indiamart.com/proddetail/baby-carry-bed-2854012203388.html?pos=6&kwd=baby carry bed&tags=A||||8559.269|Price|product|||TS|rsf:gd-|-stype:attr=1|qr_nm:gd|res:RC4|com-cf:nl|ptrs:na|ktp:N0|mc:182353|mtp:S|qry_typ:P|lang:en|wc:3|flavl:0|cs:9650|v=4,Central India Fabrics,https://www.centralindiafabrics.net/?pos=6&kwd=baby carry bed&tags=A||||8559.269|Price|product|||TS|rsf:gd-|-stype:attr=1|qr_nm:gd|res:RC4|com-cf:nl|ptrs:na|ktp:N0|mc:182353|mtp:S|qry_typ:P|lang:en|wc:3|flavl:0|cs:9650|v=4,True,Avantika Nagar,Indore,"2/A/C, Sector D, Sanwer Road Opposite Bandganga Police Station, Avantika Nagar, Indore - 452015, Dist.Indore, Madhya Pradesh",8048965370,
"COTTON Multicolor Baby Carry Nest, Age Group: Newly Born, Packaging Type: PVC Bags",https://www.indiamart.com/proddetail/baby-carry-nest-2853966593312.html?pos=7&kwd=baby carry bed&tags=A||||8228.275|Price|product|||MDC|rsf:gd-|-stype:attr=1|qr_nm:gd|res:RC4|com-cf:nl|ptrs:na|ktp:N0|mc:182353|mtp:S|qry_typ:P|lang:en|wc:3|flavl:0|cs:9650|v=4,Mahalaxmi Babycare Products LLP,https://www.indiamart.com/mahalaxmibabycareproducts/?pos=7&kwd=baby carry bed&tags=A||||8228.275|Price|product|||MDC|rsf:gd-|-stype:attr=1|qr_nm:gd|res:RC4|com-cf:nl|ptrs:na|ktp:N0|mc:182353|mtp:S|qry_typ:P|lang:en|wc:3|flavl:0|cs:9650|v=4,False,Bapunagar,Ahmedabad,"Survey No. 00697/4585, B No 697/4585 Gujarat Hou Board, Bapunagar, Bapunagar, Ahmedabad - 382424, Dist.Ahmedabad, Gujarat",8047787256,
Navy Blue Velvet Baby Carry Bed,https://www.indiamart.com/proddetail/navy-blue-velvet-baby-carry-bed-2854853218233.html?pos=8&kwd=baby carry bed&tags=A||||8752.144|Price|product|||MDC|rsf:gd-|-stype:attr=1|qr_nm:gd|res:RC4|com-cf:nl|ptrs:na|ktp:N0|mc:182353|mtp:S|qry_typ:P|lang:en|wc:3|flavl:0|cs:9650|v=4,V P Product,https://www.indiamart.com/vpproduct/?pos=8&kwd=baby carry bed&tags=A||||8752.144|Price|product|||MDC|rsf:gd-|-stype:attr=1|qr_nm:gd|res:RC4|com-cf:nl|ptrs:na|ktp:N0|mc:182353|mtp:S|qry_typ:P|lang:en|wc:3|flavl:0|cs:9650|v=4,False,,New Delhi,"Ground Floor, H.No.- E-5/139, Gali No. - 5, East Gokal Pur, North East Delhi, New Delhi - 110094, Dist.Delhi, Delhi",8044460681,
"Assorted Colors Baby Carry Bed, Packaging Type: Zipper Polybag, Newly Born",https://www.indiamart.com/proddetail/baby-carry-bed-26024933633.html?pos=9&kwd=baby carry bed&tags=A||||8626.744|Price|product|||TS|rsf:gd-|-stype:attr=1|qr_nm:gd|res:RC4|com-cf:nl|ptrs:na|ktp:N0|mc:182353|mtp:S|qry_typ:P|lang:en|wc:3|flavl:0|cs:9650|v=4,Sudarshaan Impex,https://www.indiamart.com/sudarshaan-impex/?pos=9&kwd=baby carry bed&tags=A||||8626.744|Price|product|||TS|rsf:gd-|-stype:attr=1|qr_nm:gd|res:RC4|com-cf:nl|ptrs:na|ktp:N0|mc:182353|mtp:S|qry_typ:P|lang:en|wc:3|flavl:0|cs:9650|v=4,False,Jeeva Nagar,Tiruppur,"No.8/398C, Selvalakshmi nagar, 1st street, Angeri palayam, Jeeva Nagar, Tiruppur - 641603, Dist.Coimbatore, Tamil Nadu",8046077280,
Blue Baby Cotton Carry Bed,https://www.indiamart.com/proddetail/blue-baby-cotton-carry-bed-13740793873.html?pos=10&kwd=baby carry bed&tags=A||||8663.873|Price|product|||TS|rsf:gd-|-stype:attr=1|qr_nm:gd|res:RC4|com-cf:nl|ptrs:na|ktp:N0|mc:182353|mtp:S|qry_typ:P|lang:en|wc:3|flavl:0|cs:9650|v=4,Kids International,https://www.indiamart.com/kidsinternational/?pos=10&kwd=baby carry bed&tags=A||||8663.873|Price|product|||TS|rsf:gd-|-stype:attr=1|qr_nm:gd|res:RC4|com-cf:nl|ptrs:na|ktp:N0|mc:182353|mtp:S|qry_typ:P|lang:en|wc:3|flavl:0|cs:9650|v=4,False,Malleswaram,Bengaluru,"Ground Floor, No-18, Yellappa Garden 10Th Cross, Malleswaram,Urban,, Malleswaram, Bengaluru - 560003, Dist.Bengaluru, Karnataka",8044013916,
Chhote Janab 5 Piece Baby Bedding Set,https://www.indiamart.com/proddetail/5-piece-baby-bedding-set-19619250130.html?pos=11&kwd=baby carry bed&tags=A||||8752.144|Price|product|||TS|rsf:gd-|-stype:attr=1|qr_nm:gd|res:RC4|com-cf:nl|ptrs:na|ktp:N0|mc:182353|mtp:S|qry_typ:P|lang:en|wc:3|flavl:0|cs:9650|v=4,Shree Balaji Infant Wear,https://www.indiamart.com/chhotejanab/?pos=11&kwd=baby carry bed&tags=A||||8752.144|Price|product|||TS|rsf:gd-|-stype:attr=1|qr_nm:gd|res:RC4|com-cf:nl|ptrs:na|ktp:N0|mc:182353|mtp:S|qry_typ:P|lang:en|wc:3|flavl:0|cs:9650|v=4,False,Pahari Dhiraj,New Delhi,"1583- 84, Hathi Khana, Aziz Ganj, Bahadur Garh Road, Pahari Dhiraj, New Delhi - 110006, Dist.Delhi, Delhi",8047639754,
Baby Carry Bed,https://www.indiamart.com/proddetail/baby-carry-bed-2854600038697.html?pos=12&kwd=baby carry bed&tags=A||||8747.203|Price|product|||MDC|rsf:gd-|-stype:attr=1|qr_nm:gd|res:RC4|com-cf:nl|ptrs:na|ktp:N0|mc:182353|mtp:S|qry_typ:P|lang:en|wc:3|flavl:0|cs:9650|v=4,Gandhi Wooltex,https://www.indiamart.com/gandhiwooltex/?pos=12&kwd=baby carry bed&tags=A||||8747.203|Price|product|||MDC|rsf:gd-|-stype:attr=1|qr_nm:gd|res:RC4|com-cf:nl|ptrs:na|ktp:N0|mc:182353|mtp:S|qry_typ:P|lang:en|wc:3|flavl:0|cs:9650|v=4,False,,Panipat,"H No. 538, Sector 12, Huda, Panipat - 132103, Dist.Panipat, Haryana",7949338841,
Cotton Red (Base) 250 GSM Newborn Baby Carrying Bed,https://www.indiamart.com/proddetail/250-gsm-newborn-baby-carrying-bed-2854482576733.html?pos=13&kwd=baby carry bed&tags=A||||8954.051|Price|product|||MDC|rsf:gd-|-stype:attr=1|qr_nm:gd|res:RC4|com-cf:nl|ptrs:na|ktp:N0|mc:182353|mtp:S|qry_typ:P|lang:en|wc:3|flavl:0|cs:9650|v=4,National Bag,https://www.indiamart.com/national-bag-chennai/?pos=13&kwd=baby carry bed&tags=A||||8954.051|Price|product|||MDC|rsf:gd-|-stype:attr=1|qr_nm:gd|res:RC4|com-cf:nl|ptrs:na|ktp:N0|mc:182353|mtp:S|qry_typ:P|lang:en|wc:3|flavl:0|cs:9650|v=4,False,,Chennai,"2nd Floor, 49 Narayana Mudali Street, Sowcarpet, Chennai - 600079, Dist.Chennai, Tamil Nadu",7949336940,
"Cotton Printed Sleeping Bag For New Born Baby / Newborn baby Godi bag, 0-6 Months",https://www.indiamart.com/proddetail/sleeping-bag-for-new-born-baby-newborn-baby-carry-bag-2853249999830.html?pos=14&kwd=baby carry bed&tags=BA||||8559.269|Price|product|||MDC|rsf:gd-|-stype:attr=1|qr_nm:gd|res:RC4|com-cf:nl|ptrs:na|ktp:N0|mc:182353|mtp:S|qry_typ:P|lang:en|wc:3|flavl:0|cs:9650|v=4,Sheza Enterprises,https://www.indiamart.com/shezaenterprises/?pos=14&kwd=baby carry bed&tags=BA||||8559.269|Price|product|||MDC|rsf:gd-|-stype:attr=1|qr_nm:gd|res:RC4|com-cf:nl|ptrs:na|ktp:N0|mc:182353|mtp:S|qry_typ:P|lang:en|wc:3|flavl:0|cs:9650|v=4,False,,Indore,"Alif House, 5, Khajrana Main Road, Opposite HP Petrol Pump,, Indore - 452001, Dist.Indore, Madhya Pradesh",7948547068,
Pink Blue Baby Cotton Bedding And Carrying Sleeping Bag,https://www.indiamart.com/proddetail/baby-cotton-bedding-and-carrying-sleeping-bag-20710676512.html?pos=15&kwd=baby carry bed&tags=BA||||8752.144|Price|product|||TS|rsf:gd-|-stype:attr=1|qr_nm:gd|res:RC4|com-cf:nl|ptrs:na|ktp:N0|mc:182353|mtp:S|qry_typ:P|lang:en|wc:3|cs:8887|v=4,National Overseas,https://www.indiamart.com/nationaltraders-vishwashnagar/?pos=15&kwd=baby carry bed&tags=BA||||8752.144|Price|product|||TS|rsf:gd-|-stype:attr=1|qr_nm:gd|res:RC4|com-cf:nl|ptrs:na|ktp:N0|mc:182353|mtp:S|qry_typ:P|lang:en|wc:3|cs:8887|v=4,False,Shahdara,New Delhi,"1/99, Gali No. 3, Vishwas Nagar, Shahdara, New Delhi - 110032, Dist.Delhi, Delhi",8046047673,
Baby Carry Bed,https://www.indiamart.com/proddetail/baby-carry-bed-22965018762.html?pos=16&kwd=baby carry bed&tags=A||||8752.144|Price|product|||TS|rsf:gd-|-stype:attr=1|qr_nm:gd|res:RC4|com-cf:nl|ptrs:na|ktp:N0|mc:182353|mtp:S|qry_typ:P|lang:en|wc:3|cs:8887|v=4,Gyasi Ram & Sons,https://www.indiamart.com/gyasi-ram-sons/?pos=16&kwd=baby carry bed&tags=A||||8752.144|Price|product|||TS|rsf:gd-|-stype:attr=1|qr_nm:gd|res:RC4|com-cf:nl|ptrs:na|ktp:N0|mc:182353|mtp:S|qry_typ:P|lang:en|wc:3|cs:8887|v=4,False,Sadar Bazaar,New Delhi,"No. 459, Main Road, Sadar Bazar, Sadar Bazaar, New Delhi - 110006, Dist.Delhi, Delhi",8043865798,
White(Base) Baby Printed Polyester Bed,https://www.indiamart.com/proddetail/baby-printed-polyester-bed-2854847208448.html?pos=17&kwd=baby carry bed&tags=A||||8785.791|Price|product|||MDC|rsf:gd-|-stype:attr=1|qr_nm:gd|res:RC4|com-cf:nl|ptrs:na|ktp:N0|mc:182353|mtp:S|qry_typ:P|lang:en|wc:3|cs:8887|v=4,J M D Inernational,https://www.indiamart.com/jmd-inernational-ghaziabad/?pos=17&kwd=baby carry bed&tags=A||||8785.791|Price|product|||MDC|rsf:gd-|-stype:attr=1|qr_nm:gd|res:RC4|com-cf:nl|ptrs:na|ktp:N0|mc:182353|mtp:S|qry_typ:P|lang:en|wc:3|cs:8887|v=4,False,,Ghaziabad,"Commercial First Floor C/2/25, Village Chikamberpur, Block-C,Rawal Pindi Garden, Ghaziabad - 201005, Dist.Ghaziabad, Uttar Pradesh",7949326628,
Baby Bed,https://www.indiamart.com/proddetail/baby-bed-2853101272491.html?pos=18&kwd=baby carry bed&tags=BA||||8734.695|Price|product|||TS|rsf:gd-|-stype:attr=1|qr_nm:gd|res:RC4|com-cf:nl|ptrs:na|ktp:N0|mc:182353|mtp:S|qry_typ:P|lang:en|wc:3|cs:8887|v=4,Welcome Polymers India Private Limited,https://www.welcomepolymers.com/?pos=18&kwd=baby carry bed&tags=BA||||8734.695|Price|product|||TS|rsf:gd-|-stype:attr=1|qr_nm:gd|res:RC4|com-cf:nl|ptrs:na|ktp:N0|mc:182353|mtp:S|qry_typ:P|lang:en|wc:3|cs:8887|v=4,False,Sector 17,Bahadurgarh,"Plot No.270, Sector 17, Sector 17, Bahadurgarh - 124507, Dist.Jhajjar, Haryana",8048986357,
"Multicolor cloth Adjustable Baby Carrier Cum Kangaroo Bag, Age Group: Newly Born, Packaging Type: Box",https://www.indiamart.com/proddetail/adjustable-baby-carrier-cum-kangaroo-bag-2855002487530.html?pos=19&kwd=baby carry bed&tags=BB||||8752.144|Price|product|||TS|rsf:gd-|-stype:attr=1|qr_nm:gd|res:RC4|com-cf:nl|ptrs:na|ktp:N0|mc:182353|mtp:S|qry_typ:P|lang:en|wc:3|cs:8887|v=4,Indial Premium Products,https://www.indiamart.com/indial-premium-products/?pos=19&kwd=baby carry bed&tags=BB||||8752.144|Price|product|||TS|rsf:gd-|-stype:attr=1|qr_nm:gd|res:RC4|com-cf:nl|ptrs:na|ktp:N0|mc:182353|mtp:S|qry_typ:P|lang:en|wc:3|cs:8887|v=4,False,,New Delhi,"68, K Block, Jahangirpuri North West Delhi, New Delhi - 110033, Dist.Delhi, Delhi",8045732973,
"RJ Enterprise MULTY Baby Bed, Sleeping Bag & Carry Nest, Cotton Baby Bedding, Packaging Type: Box, 0-2 YEAR",https://www.indiamart.com/proddetail/baby-bed-sleeping-bag-carry-nest-cotton-baby-bedding-2851723659591.html?pos=20&kwd=baby carry bed&tags=BA||||8230.883|Price|product|||TS|rsf:gd-|-stype:attr=1|qr_nm:gd|res:RC4|com-cf:nl|ptrs:na|ktp:N0|mc:182353|mtp:S|qry_typ:P|lang:en|wc:3|cs:8887|v=4,RJ Enterprise,https://www.indiamart.com/rj-enterprise-surat/?pos=20&kwd=baby carry bed&tags=BA||||8230.883|Price|product|||TS|rsf:gd-|-stype:attr=1|qr_nm:gd|res:RC4|com-cf:nl|ptrs:na|ktp:N0|mc:182353|mtp:S|qry_typ:P|lang:en|wc:3|cs:8887|v=4,False,Katargam,Surat,"134, Sahjanand Society, N/R Arogyakendra, Katargam, Katargam, Surat - 395004, Dist.Surat, Gujarat",7942555306,
Cotton Pink Baby Carry Bed,https://www.indiamart.com/proddetail/baby-carry-bed-24207953112.html?pos=21&kwd=baby carry bed&tags=BA||||8747.203|Price|product|||TS|rsf:gd-|-stype:attr=1|qr_nm:gd|res:RC4|com-cf:nl|ptrs:na|ktp:N0|mc:182353|mtp:S|qry_typ:P|lang:en|wc:3|cs:8887|v=4,Ambay Enterprises,https://www.crafteal.in/?pos=21&kwd=baby carry bed&tags=BA||||8747.203|Price|product|||TS|rsf:gd-|-stype:attr=1|qr_nm:gd|res:RC4|com-cf:nl|ptrs:na|ktp:N0|mc:182353|mtp:S|qry_typ:P|lang:en|wc:3|cs:8887|v=4,False,Colony,Panipat,"Near Guru Medical Store H/N 2270 Wadhawa Ram Colony, Colony, Panipat - 132103, Dist.Panipat, Haryana",7949092116,
"Sivam Export Black Baby Carry Bed, Packaging Type: Box, Newly Born",https://www.indiamart.com/proddetail/baby-carry-bed-25425668691.html?pos=22&kwd=baby carry bed&tags=BA||||8706.263|Price|product|||TS|rsf:gd-|-stype:attr=1|qr_nm:gd|res:RC4|com-cf:nl|ptrs:na|ktp:N0|mc:182353|mtp:S|qry_typ:P|lang:en|wc:3|cs:8887|v=4,Sivam Export,https://www.indiamart.com/sivamexport-karur/?pos=22&kwd=baby carry bed&tags=BA||||8706.263|Price|product|||TS|rsf:gd-|-stype:attr=1|qr_nm:gd|res:RC4|com-cf:nl|ptrs:na|ktp:N0|mc:182353|mtp:S|qry_typ:P|lang:en|wc:3|cs:8887|v=4,False,,Karur,"6/1 Thiru Nagar,3rd Street, Karur - 639002, Dist.Karur, Tamil Nadu",8046050918,
"Cotton Multicolor Baby Carry Bed, Packaging Type: Box, Newly Born",https://www.indiamart.com/proddetail/baby-carry-bed-22443076655.html?pos=23&kwd=baby carry bed&tags=BA||||9829.308|Price|product|||TS|rsf:gd-|-stype:attr=1|qr_nm:gd|res:RC4|com-cf:nl|ptrs:na|ktp:N0|mc:182353|mtp:S|qry_typ:P|lang:en|wc:3|cs:8887|v=4,Yash Garment,https://www.indiamart.com/yash-garment/?pos=23&kwd=baby carry bed&tags=BA||||9829.308|Price|product|||TS|rsf:gd-|-stype:attr=1|qr_nm:gd|res:RC4|com-cf:nl|ptrs:na|ktp:N0|mc:182353|mtp:S|qry_typ:P|lang:en|wc:3|cs:8887|v=4,False,Ross Road,Howrah,"Gali No.38/25, Ross Road, Howrah - 711101, Dist.Howrah, West Bengal",7942556350,
"OAPTIMO Rectangle Carrying Method Baby Carry Nest With Hood, Packaging Type: Box",https://www.indiamart.com/proddetail/baby-carry-nest-with-hood-2850472652230.html?pos=24&kwd=baby carry bed&tags=BA||||8706.263|Price|product|||TS|rsf:gd-|-stype:attr=1|qr_nm:gd|res:RC4|com-cf:nl|ptrs:na|ktp:N0|mc:182353|mtp:S|qry_typ:P|lang:en|wc:3|cs:8887|v=4,Mercury Weavers,https://www.indiamart.com/mercuryweavers/?pos=24&kwd=baby carry bed&tags=BA||||8706.263|Price|product|||TS|rsf:gd-|-stype:attr=1|qr_nm:gd|res:RC4|com-cf:nl|ptrs:na|ktp:N0|mc:182353|mtp:S|qry_typ:P|lang:en|wc:3|cs:8887|v=4,False,Gowripuram,Karur,"35/3, 2nd Floor, Gandhi Nagar 3rd Cross, Karur Town, Gowripuram, Karur - 639001, Dist.Karur, Tamil Nadu",8047641180,
Baby Bed,https://www.indiamart.com/proddetail/baby-bed-2852953152762.html?pos=25&kwd=baby carry bed&tags=BA||||8307.81|Price|product|||TS|rsf:gd-|-stype:attr=1|qr_nm:gd|res:RC4|com-cf:nl|ptrs:na|ktp:N0|mc:182353|mtp:S|qry_typ:P|lang:en|wc:3|cs:8887|v=4,Rohit Engineering,https://www.indiamart.com/rohitengineeringpune/?pos=25&kwd=baby carry bed&tags=BA||||8307.81|Price|product|||TS|rsf:gd-|-stype:attr=1|qr_nm:gd|res:RC4|com-cf:nl|ptrs:na|ktp:N0|mc:182353|mtp:S|qry_typ:P|lang:en|wc:3|cs:8887|v=4,False,Moshi,Pune,"452/1, Near Vakhar Mahamandal, Saikripa Colony, Tapkirnagar Moshi, Moshi, Pune - 411035, Dist.Pune, Maharashtra",8047520982,
Cotton Blue Baby Sleeping Bed,https://www.indiamart.com/proddetail/baby-sleeping-bed-27123794491.html?pos=26&kwd=baby carry bed&tags=BA||||8752.144|Price|product|||TS|rsf:gd-|-stype:attr=1|qr_nm:gd|res:RC4|com-cf:nl|ptrs:na|ktp:N0|mc:182353|mtp:S|qry_typ:P|lang:en|wc:3|cs:8887|v=4,Bankey Bihari Enterprises,https://www.indiamart.com/bankey-bihari-enterprisesnewdelhi/?pos=26&kwd=baby carry bed&tags=BA||||8752.144|Price|product|||TS|rsf:gd-|-stype:attr=1|qr_nm:gd|res:RC4|com-cf:nl|ptrs:na|ktp:N0|mc:182353|mtp:S|qry_typ:P|lang:en|wc:3|cs:8887|v=4,False,Jahangirpuri,New Delhi,"Plot No 51 First Floor Street No 11 Harijan Colony Village Bhalsva, Jahangirpuri, New Delhi - 110033, Dist.Delhi, Delhi",7942825166,
Newborn Baby Bed,https://www.indiamart.com/proddetail/newborn-baby-bed-4069361962.html?pos=27&kwd=baby carry bed&tags=BA||||8211.142|Price|product|||TS|rsf:gd-|-stype:attr=1|qr_nm:gd|res:RC4|com-cf:nl|ptrs:na|ktp:N0|mc:182353|mtp:S|qry_typ:P|lang:en|wc:3|cs:8887|v=4,Welcome Enterprise,https://www.welcomeenterprise.in/?pos=27&kwd=baby carry bed&tags=BA||||8211.142|Price|product|||TS|rsf:gd-|-stype:attr=1|qr_nm:gd|res:RC4|com-cf:nl|ptrs:na|ktp:N0|mc:182353|mtp:S|qry_typ:P|lang:en|wc:3|cs:8887|v=4,False,Santacruz West,Mumbai,"1,Gulam Rasul Chawl No. 149,Khot Wadi, Besant Road,Santacruz West, Santacruz West, Mumbai - 400054, Dist.Mumbai, Maharashtra",8048601972,
"Cosy Pillow Cotton,Polyester Baby Carrying Bed, Packaging Type: Bag, 1-3 year",https://www.indiamart.com/proddetail/baby-carrying-bed-11469178255.html?pos=28&kwd=baby carry bed&tags=BB||||8584.299|Price|product|||TS|rsf:gd-|-stype:attr=1|qr_nm:gd|res:RC4|com-cf:nl|ptrs:na|ktp:N0|mc:182353|mtp:S|qry_typ:P|lang:en|wc:3|cs:8887|v=4,Monigaa Shree Bed House,https://www.cosybedandpillowmsbh.com/?pos=28&kwd=baby carry bed&tags=BB||||8584.299|Price|product|||TS|rsf:gd-|-stype:attr=1|qr_nm:gd|res:RC4|com-cf:nl|ptrs:na|ktp:N0|mc:182353|mtp:S|qry_typ:P|lang:en|wc:3|cs:8887|v=4,False,Urumandampalayan,Coimbatore,"No. 28-D, 10/162, Sri Ragavendra Colony, GN Mill Post, Urumandampalayan, Coimbatore - 641029, Dist.Coimbatore, Tamil Nadu",8048610786,
"Sanskari Red,Cream Baby Carrier Travel Safe Bed",https://www.indiamart.com/proddetail/baby-carrier-travel-safe-bed-19354967433.html?pos=29&kwd=baby carry bed&tags=BA||||8706.263|Price|product|||TS|rsf:gd-|-stype:attr=1|qr_nm:gd|res:RC4|com-cf:nl|ptrs:na|ktp:N0|mc:182353|mtp:S|qry_typ:P|lang:en|wc:3|cs:8887|v=4,Sankari Plastic,https://www.spmosquitonet.com/?pos=29&kwd=baby carry bed&tags=BA||||8706.263|Price|product|||TS|rsf:gd-|-stype:attr=1|qr_nm:gd|res:RC4|com-cf:nl|ptrs:na|ktp:N0|mc:182353|mtp:S|qry_typ:P|lang:en|wc:3|cs:8887|v=4,False,Karur,Karur,"No. 59/A3, Thillai Nagar East, Karur, Karur - 639005, Dist.Karur, Tamil Nadu",8048954769,
"Inside synthetic cotton Portable Baby Crib, Size: XL",https://www.indiamart.com/proddetail/portable-baby-crib-21271572491.html?pos=30&kwd=baby carry bed&tags=BA||||9842.824|Price|product|||TS|rsf:gd-|-stype:attr=1|qr_nm:gd|res:RC4|com-cf:nl|ptrs:na|ktp:N0|mc:182353|mtp:S|qry_typ:P|lang:en|wc:3|cs:8887|v=4,Baby Mosquito Net Seller,https://www.indiamart.com/babymosquitonetseller/?pos=30&kwd=baby carry bed&tags=BA||||9842.824|Price|product|||TS|rsf:gd-|-stype:attr=1|qr_nm:gd|res:RC4|com-cf:nl|ptrs:na|ktp:N0|mc:182353|mtp:S|qry_typ:P|lang:en|wc:3|cs:8887|v=4,False,Kailash Nagar,Hooghly,"Paulpara, P. O. Bandel, Kailash Nagar, Hooghly - 712103, Dist.Hooghly, West Bengal",8048953197,
Cotton Multicolor Baby Carry Bed,https://www.indiamart.com/proddetail/baby-carry-bed-2854467988330.html?pos=31&kwd=baby carry bed&tags=BB||||8752.144|Price|product|||MDC|rsf:gd-|-stype:attr=1|qr_nm:gd|res:RC4|com-cf:nl|ptrs:na|ktp:N0|mc:182353|mtp:S|qry_typ:P|lang:en|wc:3|cs:8887|v=4,R K Enterprises,https://www.indiamart.com/r-kenterprisesnorthnewdelhi/?pos=31&kwd=baby carry bed&tags=BB||||8752.144|Price|product|||MDC|rsf:gd-|-stype:attr=1|qr_nm:gd|res:RC4|com-cf:nl|ptrs:na|ktp:N0|mc:182353|mtp:S|qry_typ:P|lang:en|wc:3|cs:8887|v=4,False,North Delhi,New Delhi,"House No-235, Yadav Nagar, Block-E, Samaypur, North Delhi, New Delhi - 110042, Dist.Delhi, Delhi",7949337344,
Baby Carry Bed,https://www.indiamart.com/proddetail/baby-carry-bed-2853493701973.html?pos=32&kwd=baby carry bed&tags=BA||||8954.051|Price|product|||MDC|rsf:gd-|-stype:attr=1|qr_nm:gd|res:RC4|com-cf:nl|ptrs:na|ktp:N0|mc:182353|mtp:S|qry_typ:P|lang:en|wc:3|cs:8887|v=4,Mom's Fashion World,https://www.indiamart.com/moms-fashion-world/?pos=32&kwd=baby carry bed&tags=BA||||8954.051|Price|product|||MDC|rsf:gd-|-stype:attr=1|qr_nm:gd|res:RC4|com-cf:nl|ptrs:na|ktp:N0|mc:182353|mtp:S|qry_typ:P|lang:en|wc:3|cs:8887|v=4,False,Adyar,Chennai,"10/2 ,12th Street, Bakthavatchallam Nagar,Nanganallur, Adyar, Chennai - 600061, Dist.Chennai, Tamil Nadu",7949091874,
DB-199A Baby Carry Bed,https://www.indiamart.com/proddetail/db-199a-baby-carry-bed-2854143919691.html?pos=33&kwd=baby carry bed&tags=BA||||8693.162||product|||MDC|rsf:gd-|-stype:attr=1|qr_nm:gd|res:RC4|com-cf:nl|ptrs:na|ktp:N0|mc:182353|mtp:S|qry_typ:P|lang:en|wc:3|cs:8887|v=4,Dear Baby,https://www.indiamart.com/dearbaby/?pos=33&kwd=baby carry bed&tags=BA||||8693.162||product|||MDC|rsf:gd-|-stype:attr=1|qr_nm:gd|res:RC4|com-cf:nl|ptrs:na|ktp:N0|mc:182353|mtp:S|qry_typ:P|lang:en|wc:3|cs:8887|v=4,False,Begambur,Dindigul,"2nd Floor, No 7, Ahmad Appartment, S P Nagar, Begambur, Begambur, Dindigul - 624002, Dist.Dindigul, Tamil Nadu",8045731862,
"Pink Baby Carry Bedding Bed, 2 Year",https://www.indiamart.com/proddetail/baby-carry-bedding-bed-24422576473.html?pos=34&kwd=baby carry bed&tags=BA||||8954.051|Price|product|||MDC|rsf:gd-|-stype:attr=1|qr_nm:gd|res:RC4|com-cf:nl|ptrs:na|ktp:N0|mc:182353|mtp:S|qry_typ:P|lang:en|wc:3|cs:8887|v=4,Upkar Agency,https://www.indiamart.com/upkaragency/?pos=34&kwd=baby carry bed&tags=BA||||8954.051|Price|product|||MDC|rsf:gd-|-stype:attr=1|qr_nm:gd|res:RC4|com-cf:nl|ptrs:na|ktp:N0|mc:182353|mtp:S|qry_typ:P|lang:en|wc:3|cs:8887|v=4,False,Sowcarpet,Chennai,",30,Strotten Muthiah Mudali Street,,Sowcarpet,,, Sowcarpet, Chennai - 600001, Dist.Chennai, Tamil Nadu",7942549213,
"Milee Denium Baby Denim Carry Cum Bed, Packaging Type: Poly Bag, 3-12 Months",https://www.indiamart.com/proddetail/baby-denim-carry-cum-bed-9417548091.html?pos=35&kwd=baby carry bed&tags=BA||||8211.142|Price|product|||MDC|rsf:gd-|-stype:attr=1|qr_nm:gd|res:RC4|com-cf:nl|ptrs:na|ktp:N0|mc:182353|mtp:S|qry_typ:P|lang:en|wc:3|cs:8887|v=4,Milee Fashion,https://www.indiamart.com/mileefashion/?pos=35&kwd=baby carry bed&tags=BA||||8211.142|Price|product|||MDC|rsf:gd-|-stype:attr=1|qr_nm:gd|res:RC4|com-cf:nl|ptrs:na|ktp:N0|mc:182353|mtp:S|qry_typ:P|lang:en|wc:3|cs:8887|v=4,False,Chedda Nagar,Mumbai,"Veer Sambhaji Nagar, Near Hanuman Mandir PL Lokhande Marg, Chembur, Chedda Nagar, Mumbai - 400089, Dist.Mumbai, Maharashtra",8048966118,
Cotton White Base Newborn Baby Carrying Bed,https://www.indiamart.com/proddetail/newborn-baby-carrying-bed-20189187491.html?pos=36&kwd=baby carry bed&tags=BA||||8687.614|Price|product|||MDC|rsf:gd-|-stype:attr=1|qr_nm:gd|res:RC4|com-cf:nl|ptrs:na|ktp:N0|mc:182353|mtp:S|qry_typ:P|lang:en|wc:3|cs:8887|v=4,K R Garments,https://www.indiamart.com/kr-garments-hosur/?pos=36&kwd=baby carry bed&tags=BA||||8687.614|Price|product|||MDC|rsf:gd-|-stype:attr=1|qr_nm:gd|res:RC4|com-cf:nl|ptrs:na|ktp:N0|mc:182353|mtp:S|qry_typ:P|lang:en|wc:3|cs:8887|v=4,False,Navadhi,Hosur,"No.11/14, RTO Office Adjoining, Mathigiri Koot Road, Amman Nagar, HSF Post,, Navadhi, Hosur - 635110, Dist.Krishnagiri, Tamil Nadu",7949227323,
"Cotton Printed Zipper Newborn Baby Comfy Bed, 1 Kg",https://www.indiamart.com/proddetail/zipper-newborn-baby-comfy-bed-2853682843455.html?pos=37&kwd=baby carry bed&tags=BA||||8752.144|Price|product|||MDC|rsf:gd-|-stype:attr=1|qr_nm:gd|res:RC4|com-cf:nl|ptrs:na|ktp:N0|mc:182353|mtp:S|qry_typ:P|lang:en|wc:3|cs:8887|v=4,R.S. International,https://www.indiamart.com/rsinternational-newdelhi/?pos=37&kwd=baby carry bed&tags=BA||||8752.144|Price|product|||MDC|rsf:gd-|-stype:attr=1|qr_nm:gd|res:RC4|com-cf:nl|ptrs:na|ktp:N0|mc:182353|mtp:S|qry_typ:P|lang:en|wc:3|cs:8887|v=4,False,Tagore Garden,New Delhi,"G/floor, B-21, Tagore Garden Shopping Centre 402 Azad Market New Delhi, Tagore Garden, New Delhi - 110027, Dist.Delhi, Delhi",7949082452,
"superminis Cotton baby nest, Packaging Type: pvc, Newly Born",https://www.indiamart.com/proddetail/baby-carry-nest-2852421714712.html?pos=38&kwd=baby carry bed&tags=BA||||8752.144|Price|product|||TS|rsf:gd-|-stype:attr=1|qr_nm:gd|res:RC4|com-cf:nl|ptrs:na|ktp:N0|mc:182353|mtp:S|qry_typ:P|lang:en|wc:3|cs:8887|v=4,ASW Retail Corporation,https://www.indiamart.com/aswretailcorporation/?pos=38&kwd=baby carry bed&tags=BA||||8752.144|Price|product|||TS|rsf:gd-|-stype:attr=1|qr_nm:gd|res:RC4|com-cf:nl|ptrs:na|ktp:N0|mc:182353|mtp:S|qry_typ:P|lang:en|wc:3|cs:8887|v=4,False,Naraina,New Delhi,"B-62/6 3rd Floor Phase II, Naraina Industrial Area, Naraina, New Delhi - 110032, Dist.Delhi, Delhi",8046060075,
Mix Polyester Baby travel bags for mothers carry with foldable,https://www.indiamart.com/proddetail/baby-travel-bags-for-mothers-carry-with-foldable-2849211633948.html?pos=39&kwd=baby carry bed&tags=BB||||8752.144|Price|product|||TS|rsf:gd-|-stype:attr=1|qr_nm:gd|res:RC4|com-cf:nl|ptrs:na|ktp:N0|mc:182353|mtp:S|qry_typ:P|lang:en|wc:3|cs:8887|v=4,Aman Impex,https://www.myamanimpex.com/?pos=39&kwd=baby carry bed&tags=BB||||8752.144|Price|product|||TS|rsf:gd-|-stype:attr=1|qr_nm:gd|res:RC4|com-cf:nl|ptrs:na|ktp:N0|mc:182353|mtp:S|qry_typ:P|lang:en|wc:3|cs:8887|v=4,False,Paschim Vihar,New Delhi,"Flat No. 681, S/F Janta Flats, Pocket-II, Paschim Puri, Paschim Vihar, New Delhi - 110063, Dist.Delhi, Delhi",8048600148,
Cane posing Square basket for Baby,https://www.indiamart.com/proddetail/cane-posing-square-basket-for-baby-2854559113255.html?pos=40&kwd=baby carry bed&tags=BA||||8752.144|Price|product|||TS|rsf:gd-|-stype:attr=1|qr_nm:gd|res:RC4|com-cf:nl|ptrs:na|ktp:N0|mc:182353|mtp:S|qry_typ:P|lang:en|wc:3|cs:8887|v=4,Craferia Export Llp,https://www.craferiaexport.com/?pos=40&kwd=baby carry bed&tags=BA||||8752.144|Price|product|||TS|rsf:gd-|-stype:attr=1|qr_nm:gd|res:RC4|com-cf:nl|ptrs:na|ktp:N0|mc:182353|mtp:S|qry_typ:P|lang:en|wc:3|cs:8887|v=4,True,N.S.I.T. Dwarka,New Delhi,"H.No 319, 3rd Floor, Pocket 1, Sector 12, Dwarka,Near Metro Station,, N.S.I.T. Dwarka, New Delhi - 110078, Dist.Delhi, Delhi",8047671940,
"Valvet Zadik Baby Bed Mosquito Net Baby Bed Cartoon, Size: Small",https://www.indiamart.com/proddetail/zadik-baby-bed-mosquito-net-baby-bed-cartoon-2850464767588.html?pos=41&kwd=baby carry bed&tags=BA||||8747.203|Price|product|||NA|rsf:gd-|-stype:attr=1|qr_nm:gd|res:RC4|com-cf:nl|ptrs:na|ktp:N0|mc:182353|mtp:S|qry_typ:P|lang:en|wc:3|cs:8887|v=4,Khatu Shyam Enterprises,https://www.indiamart.com/khatushyamenterprisesharyana/?pos=41&kwd=baby carry bed&tags=BA||||8747.203|Price|product|||NA|rsf:gd-|-stype:attr=1|qr_nm:gd|res:RC4|com-cf:nl|ptrs:na|ktp:N0|mc:182353|mtp:S|qry_typ:P|lang:en|wc:3|cs:8887|v=4,False,Jali Wala Karkhana,Panipat,"House Num 452, Rajiv Colony, Jali Wala Karkhana, Panipat - 132103, Dist.Panipat, Haryana",7942710513,
Baby Carry Bed,https://www.indiamart.com/proddetail/baby-carry-bed-16357403112.html?pos=42&kwd=baby carry bed&tags=BA||||8211.142|Price|product|||NA|rsf:gd-|-stype:attr=1|qr_nm:gd|res:RC4|com-cf:nl|ptrs:na|ktp:N0|mc:182353|mtp:S|qry_typ:P|lang:en|wc:3|cs:8887|v=4,Baby World,https://www.indiamart.com/babyworld/?pos=42&kwd=baby carry bed&tags=BA||||8211.142|Price|product|||NA|rsf:gd-|-stype:attr=1|qr_nm:gd|res:RC4|com-cf:nl|ptrs:na|ktp:N0|mc:182353|mtp:S|qry_typ:P|lang:en|wc:3|cs:8887|v=4,False,Masjid Bandar,Mumbai,"12, Gorund Floor, Fatimabai Building, Dharamashala Street, Umerkhadi, Chinchbunder, Masjid Bandar, Mumbai - 400009, Dist.Mumbai, Maharashtra",7942539685,
Baby Carry Bed,https://www.indiamart.com/proddetail/baby-carry-bed-16357403112.html?pos=43&kwd=baby carry bed&tags=BA||||8211.142|Price|product|||NA|rsf:gd-|-stype:attr=1|qr_nm:gd|res:RC4|com-cf:nl|ptrs:na|ktp:N0|mc:182353|mtp:S|qry_typ:P|lang:en|wc:3|cs:8887|v=4,Baby World,https://www.indiamart.com/babyworld/?pos=43&kwd=baby carry bed&tags=BA||||8211.142|Price|product|||NA|rsf:gd-|-stype:attr=1|qr_nm:gd|res:RC4|com-cf:nl|ptrs:na|ktp:N0|mc:182353|mtp:S|qry_typ:P|lang:en|wc:3|cs:8887|v=4,False,Masjid Bandar,Mumbai,"12, Gorund Floor, Fatimabai Building, Dharamashala Street, Umerkhadi, Chinchbunder, Masjid Bandar, Mumbai - 400009, Dist.Mumbai, Maharashtra",7942539685,
"Cotton Baby Carry Bed, Born Babies",https://www.indiamart.com/proddetail/baby-carry-bed-2849037948488.html?pos=44&kwd=baby carry bed&tags=BB||||8954.051|Price|product|||NA|rsf:gd-|-stype:attr=1|qr_nm:gd|res:RC4|com-cf:nl|ptrs:na|ktp:N0|mc:182353|mtp:S|qry_typ:P|lang:en|wc:3|cs:8887|v=4,Kit Kat Marketing,https://www.indiamart.com/kit-kat-marketingchennai/?pos=44&kwd=baby carry bed&tags=BB||||8954.051|Price|product|||NA|rsf:gd-|-stype:attr=1|qr_nm:gd|res:RC4|com-cf:nl|ptrs:na|ktp:N0|mc:182353|mtp:S|qry_typ:P|lang:en|wc:3|cs:8887|v=4,False,,Chennai,"1st Floor 226 409 Apparao Gardens Road, Chennai - 600112, Dist.Chennai, Tamil Nadu",8047531671,
Plastic 350 Grams Baby Carry Bed,https://www.indiamart.com/proddetail/baby-carry-bed-23175566773.html?pos=45&kwd=baby carry bed&tags=BB||||8954.051|Price|product|||NA|rsf:gd-|-stype:attr=1|qr_nm:gd|res:RC4|com-cf:nl|ptrs:na|ktp:N0|mc:182353|mtp:S|qry_typ:P|lang:en|wc:3|cs:8887|v=4,DJP Trading Company,https://www.indiamart.com/djp-trading-company/?pos=45&kwd=baby carry bed&tags=BB||||8954.051|Price|product|||NA|rsf:gd-|-stype:attr=1|qr_nm:gd|res:RC4|com-cf:nl|ptrs:na|ktp:N0|mc:182353|mtp:S|qry_typ:P|lang:en|wc:3|cs:8887|v=4,False,,Chennai,"7/132, Ayodhya Nagar, Triplicane, Chennai - 600005, Dist.Chennai, Tamil Nadu",8048976947,
Medium Baby Carry Bed,https://www.indiamart.com/proddetail/baby-carry-bed-20320288648.html?pos=46&kwd=baby carry bed&tags=BB||||8954.051|Price|product|||NA|rsf:gd-|-stype:attr=1|qr_nm:gd|res:RC4|com-cf:nl|ptrs:na|ktp:N0|mc:182353|mtp:S|qry_typ:P|lang:en|wc:3|cs:8887|v=4,Zam Zam Mat Stores,https://www.indiamart.com/zam-zam-mat-store/?pos=46&kwd=baby carry bed&tags=BB||||8954.051|Price|product|||NA|rsf:gd-|-stype:attr=1|qr_nm:gd|res:RC4|com-cf:nl|ptrs:na|ktp:N0|mc:182353|mtp:S|qry_typ:P|lang:en|wc:3|cs:8887|v=4,False,,Chennai,"No. 82, Yadhaval Street, Padi In Between Jain Koil & QM Hospital, Chennai - 600050, Dist.Chennai, Tamil Nadu",8047684573,
"Multicolor Cotton Baby Carry Bed, Below 12 Months",https://www.indiamart.com/proddetail/cotton-baby-carry-bed-2851221142112.html?pos=47&kwd=baby carry bed&tags=BB||||8584.299|Price|product|||NA|rsf:gd-|-stype:attr=1|qr_nm:gd|res:RC4|com-cf:nl|ptrs:na|ktp:N0|mc:182353|mtp:S|qry_typ:P|lang:en|wc:3|cs:8887|v=4,CA Creations,https://www.indiamart.com/ca-creations-coimbatore/?pos=47&kwd=baby carry bed&tags=BB||||8584.299|Price|product|||NA|rsf:gd-|-stype:attr=1|qr_nm:gd|res:RC4|com-cf:nl|ptrs:na|ktp:N0|mc:182353|mtp:S|qry_typ:P|lang:en|wc:3|cs:8887|v=4,False,,Coimbatore,"9A, Sivasakthi Nagar, Irugur, Coimbatore - 641103, Dist.Coimbatore, Tamil Nadu",7942833480,
Ees Ees 780gm Baby Printed Cotton Carry Bed,https://www.indiamart.com/proddetail/baby-printed-cotton-carry-bed-22926423797.html?pos=48&kwd=baby carry bed&tags=BA||||8706.263|Price|product|||NA|rsf:gd-|-stype:attr=1|qr_nm:gd|res:RC4|com-cf:nl|ptrs:na|ktp:N0|mc:182353|mtp:S|qry_typ:P|lang:en|wc:3|cs:8887|v=4,K. Saravanan Prop Ees Ees Agencies,https://www.indiamart.com/k-saravananprop-eesees-agencies/?pos=48&kwd=baby carry bed&tags=BA||||8706.263|Price|product|||NA|rsf:gd-|-stype:attr=1|qr_nm:gd|res:RC4|com-cf:nl|ptrs:na|ktp:N0|mc:182353|mtp:S|qry_typ:P|lang:en|wc:3|cs:8887|v=4,False,KARUR,Karur,"KUMARAPALAYAM PUDHUR VELLIYANAI NORTH, KARUR, Karur - 639118, Dist.Karur, Tamil Nadu",7942665369,
"Blue Printed Baby Carry Bed, Newly Born",https://www.indiamart.com/proddetail/blue-printed-baby-carry-bed-25111307955.html?pos=49&kwd=baby carry bed&tags=BB||||8038.093|Price|product|||NA|rsf:gd-|-stype:attr=1|qr_nm:gd|res:RC4|com-cf:nl|ptrs:na|ktp:N0|mc:182353|mtp:S|qry_typ:P|lang:en|wc:3|cs:8887|v=4,Fabric Master,https://www.indiamart.com/fabric-master-rajkot/?pos=49&kwd=baby carry bed&tags=BB||||8038.093|Price|product|||NA|rsf:gd-|-stype:attr=1|qr_nm:gd|res:RC4|com-cf:nl|ptrs:na|ktp:N0|mc:182353|mtp:S|qry_typ:P|lang:en|wc:3|cs:8887|v=4,False,,Rajkot,"Ankur Nana Mava Road, 117 Radha Nagar, Rajkot - 360004, Dist.Rajkot, Gujarat",8047301139,
Cotton 66 X 5 X 30 Cm Printed Baby Carry Bed,https://www.indiamart.com/proddetail/printed-baby-carry-bed-22684966388.html?pos=50&kwd=baby carry bed&tags=BB||||8211.142|Price|product|||NA|rsf:gd-|-stype:attr=1|qr_nm:gd|res:RC4|com-cf:nl|ptrs:na|ktp:N0|mc:182353|mtp:S|qry_typ:P|lang:en|wc:3|cs:8887|v=4,S.A.Garment,https://www.indiamart.com/sagarment/?pos=50&kwd=baby carry bed&tags=BB||||8211.142|Price|product|||NA|rsf:gd-|-stype:attr=1|qr_nm:gd|res:RC4|com-cf:nl|ptrs:na|ktp:N0|mc:182353|mtp:S|qry_typ:P|lang:en|wc:3|cs:8887|v=4,False,,Mumbai,"Floor-grd A/1-123 Mahatma Gandhi Road, Dharavi Social Nagar, Laxmi Baug, Mumbai - 400017, Dist.Mumbai, Maharashtra",8043805988,
Pink Cotton Printed Baby Carry Bed,https://www.indiamart.com/proddetail/cotton-printed-baby-carry-bed-2853383305255.html?pos=51&kwd=baby carry bed&tags=BA||||8234.203|Price|product|||NA|rsf:gd-|-stype:attr=1|qr_nm:gd|res:RC4|com-cf:nl|ptrs:na|ktp:N0|mc:182353|mtp:S|qry_typ:P|lang:en|wc:3|cs:8887|v=4,Inspire Hype,https://www.indiamart.com/inspirehype/?pos=51&kwd=baby carry bed&tags=BA||||8234.203|Price|product|||NA|rsf:gd-|-stype:attr=1|qr_nm:gd|res:RC4|com-cf:nl|ptrs:na|ktp:N0|mc:182353|mtp:S|qry_typ:P|lang:en|wc:3|cs:8887|v=4,False,Denap,Visnagar,"4-B, C H Complex, Denap Tran Rasta Mahesana, Denap, Visnagar - 384315, Dist.Mehsana, Gujarat",7949224033,
"Baby Carry Bed / BABY BED, Packaging Type: ZIPPED POUCH, Newly Born",https://www.indiamart.com/proddetail/baby-carry-bed-baby-bed-2851739827712.html?pos=52&kwd=baby carry bed&tags=BA||||8507.67||product|||NA|rsf:gd-|-stype:attr=1|qr_nm:gd|res:RC4|com-cf:nl|ptrs:na|ktp:N0|mc:182353|mtp:S|qry_typ:P|lang:en|wc:3|cs:8887|v=4,Jewish Apparel & Accessories,https://www.indiamart.com/jewish-apparel-accessories/?pos=52&kwd=baby carry bed&tags=BA||||8507.67||product|||NA|rsf:gd-|-stype:attr=1|qr_nm:gd|res:RC4|com-cf:nl|ptrs:na|ktp:N0|mc:182353|mtp:S|qry_typ:P|lang:en|wc:3|cs:8887|v=4,False,,Ernakulam,"32/324-A, Ladlee Towers, Vailopilly Road, Near Puthiya Road Junction, Thammanam PO, Ernakulam - 682032, Dist.Ernakulam, Kerala",8069033778,108
"PRINTED BABY CARRY NEST / BABY SLEEPING BED / BABY CARRY BED, Newly Born",https://www.indiamart.com/proddetail/baby-carry-nest-baby-sleeping-bed-baby-carry-bed-26665246297.html?pos=53&kwd=baby carry bed&tags=BA||||8236.946|Price|product|||NA|rsf:gd-|-stype:attr=1|qr_nm:gd|res:RC4|com-cf:nl|ptrs:na|ktp:N0|mc:182353|mtp:S|qry_typ:P|lang:en|wc:3|cs:8887|v=4,Pranita Textile,https://www.indiamart.com/pranita-textile/?pos=53&kwd=baby carry bed&tags=BA||||8236.946|Price|product|||NA|rsf:gd-|-stype:attr=1|qr_nm:gd|res:RC4|com-cf:nl|ptrs:na|ktp:N0|mc:182353|mtp:S|qry_typ:P|lang:en|wc:3|cs:8887|v=4,False,,Raigad,"Unit No 206, 2nd Fioor, Silver Springs, Taloja Midc, Taloja Panchanand, Raigad., Raigad - 410208, Maharashtra",8043855238,
"Printed Cotton Baby Carry Bed, 3-12 Months",https://www.indiamart.com/proddetail/printed-cotton-baby-carry-bed-25977546033.html?pos=54&kwd=baby carry bed&tags=BB||||8752.144|Price|product|||NA|rsf:gd-|-stype:attr=1|qr_nm:gd|res:RC4|com-cf:nl|ptrs:na|ktp:N0|mc:182353|mtp:S|qry_typ:P|lang:en|wc:3|cs:8887|v=4,Aashia Fashion,https://www.indiamart.com/aashia-fashion/?pos=54&kwd=baby carry bed&tags=BB||||8752.144|Price|product|||NA|rsf:gd-|-stype:attr=1|qr_nm:gd|res:RC4|com-cf:nl|ptrs:na|ktp:N0|mc:182353|mtp:S|qry_typ:P|lang:en|wc:3|cs:8887|v=4,False,,New Delhi,"A-21 Shiv Vihar, Vikas Nagar Near Rama Sweets, Uttam Nagar, New Delhi - 110059, Dist.Delhi, Delhi",8047676001,
"Blue(Base) Blue Cotton Baby Carry Bed, Newly Born",https://www.indiamart.com/proddetail/blue-cotton-baby-carry-bed-2850548165162.html?pos=55&kwd=baby carry bed&tags=BA||||8211.142|Price|product|||NA|rsf:gd-|-stype:attr=1|qr_nm:gd|res:RC4|com-cf:nl|ptrs:na|ktp:N0|mc:182353|mtp:S|qry_typ:P|lang:en|wc:3|cs:8887|v=4,Colours Baby Clothing Co.,https://www.indiamart.com/coloursbabyclothing/?pos=55&kwd=baby carry bed&tags=BA||||8211.142|Price|product|||NA|rsf:gd-|-stype:attr=1|qr_nm:gd|res:RC4|com-cf:nl|ptrs:na|ktp:N0|mc:182353|mtp:S|qry_typ:P|lang:en|wc:3|cs:8887|v=4,False,,Mumbai,"1st Floor Gandhi Industrial Estates Poomi Ka Road, Villlage Mohali, Mumbai - 400070, Dist.Mumbai, Maharashtra",8047785453,
"145x40 cm Cotton Zipper Baby Carry Bed, 3-12 Months",https://www.indiamart.com/proddetail/145x40-cm-cotton-zipper-baby-carry-bed-2850659033573.html?pos=56&kwd=baby carry bed&tags=BB||||8954.051|Price|product|||NA|rsf:gd-|-stype:attr=1|qr_nm:gd|res:RC4|com-cf:nl|ptrs:na|ktp:N0|mc:182353|mtp:S|qry_typ:P|lang:en|wc:3|cs:8887|v=4,Baby Doll Traders,https://www.indiamart.com/baby-doll-traders/?pos=56&kwd=baby carry bed&tags=BB||||8954.051|Price|product|||NA|rsf:gd-|-stype:attr=1|qr_nm:gd|res:RC4|com-cf:nl|ptrs:na|ktp:N0|mc:182353|mtp:S|qry_typ:P|lang:en|wc:3|cs:8887|v=4,False,,Chennai,"7/64, Pillaiyar Koil Street, Eadapalayam, Alamathi, Chennai - 600052, Dist.Chennai, Tamil Nadu",7942958583,
Cotton Merrie Baby carry nest-pink/orange,https://www.indiamart.com/proddetail/merrie-baby-carry-nest-pink-orange-2850361298533.html?pos=57&kwd=baby carry bed&tags=BA||||8211.142|Price|product|||NA|rsf:gd-|-stype:attr=1|qr_nm:gd|res:RC4|com-cf:nl|ptrs:na|ktp:N0|mc:182353|mtp:S|qry_typ:P|lang:en|wc:3|cs:8887|v=4,Dee Bee & Co.,https://www.indiamart.com/me-nmoms/?pos=57&kwd=baby carry bed&tags=BA||||8211.142|Price|product|||NA|rsf:gd-|-stype:attr=1|qr_nm:gd|res:RC4|com-cf:nl|ptrs:na|ktp:N0|mc:182353|mtp:S|qry_typ:P|lang:en|wc:3|cs:8887|v=4,False,,Mumbai,"A-202, 2nd floor, Aaradhya Nalanda, R B Mehta Marg, Mumbai, Mumbai Suburban, Mumbai - 400077, Dist.Mumbai, Maharashtra",7942792773,
Baby Bed,https://www.indiamart.com/proddetail/baby-bed-2854254230933.html?pos=58&kwd=baby carry bed&tags=BB||||8706.587|Price|product|||NA|rsf:gd-|-stype:attr=1|qr_nm:gd|res:RC4|com-cf:nl|ptrs:na|ktp:N0|mc:182353|mtp:S|qry_typ:P|lang:en|wc:3|cs:8887|v=4,Indico Soft Bed Works,https://www.indiamart.com/indico-soft-bed-works/?pos=58&kwd=baby carry bed&tags=BB||||8706.587|Price|product|||NA|rsf:gd-|-stype:attr=1|qr_nm:gd|res:RC4|com-cf:nl|ptrs:na|ktp:N0|mc:182353|mtp:S|qry_typ:P|lang:en|wc:3|cs:8887|v=4,False,,Madurai,"1st Floor,D No 6,Ramamoorthy Street,Chokkikulam,Madurai,Madurai, Madurai - 625002, Dist.Madurai, Tamil Nadu",8048370719,9025
Cotton Baby Nest Bed,https://www.indiamart.com/proddetail/baby-nest-bed-24305754612.html?pos=59&kwd=baby carry bed&tags=BA||||8457.459|Price|product|||NA|rsf:gd-|-stype:attr=1|qr_nm:gd|res:RC4|com-cf:nl|ptrs:na|ktp:N0|mc:182353|mtp:S|qry_typ:P|lang:en|wc:3|cs:8887|v=4,Knead Your Dream,https://www.indiamart.com/knead-your-dream/?pos=59&kwd=baby carry bed&tags=BA||||8457.459|Price|product|||NA|rsf:gd-|-stype:attr=1|qr_nm:gd|res:RC4|com-cf:nl|ptrs:na|ktp:N0|mc:182353|mtp:S|qry_typ:P|lang:en|wc:3|cs:8887|v=4,False,Kakkur,Kozhikode,"586 Kakkur Kakkuparambath Chelannur, Kakkur, Kozhikode - 673613, Dist.Kozhikode, Kerala",8043885486,
"Pink Baby Nest Bed, Newly Born",https://www.indiamart.com/proddetail/baby-nest-bed-24037326848.html?pos=60&kwd=baby carry bed&tags=BA||||8601.347|Price|product|||NA|rsf:gd-|-stype:attr=1|qr_nm:gd|res:RC4|com-cf:nl|ptrs:na|ktp:N0|mc:182353|mtp:S|qry_typ:P|lang:en|wc:3|cs:8887|v=4,Lakshay Kid'S Collection,https://www.indiamart.com/lakshaykids-collection/?pos=60&kwd=baby carry bed&tags=BA||||8601.347|Price|product|||NA|rsf:gd-|-stype:attr=1|qr_nm:gd|res:RC4|com-cf:nl|ptrs:na|ktp:N0|mc:182353|mtp:S|qry_typ:P|lang:en|wc:3|cs:8887|v=4,False,,Jaipur,"3/882, Malviya Nagar, Jaipur - 302017, Dist.Jaipur, Rajasthan",8048614670,
Baby Bed Rail,https://www.indiamart.com/proddetail/baby-bed-rail-2855085670148.html?pos=61&kwd=baby carry bed&tags=B||||8663.873|Price|product|||NA|rsf:gd-|-stype:attr=1|qr_nm:gd|res:RC4|com-cf:nl|ptrs:na|ktp:N0|mc:182353|mtp:S|qry_typ:P|lang:en|wc:3|cs:8887|v=4,Budsafe Solutions,https://www.indiamart.com/budsafe-solutions/?pos=61&kwd=baby carry bed&tags=B||||8663.873|Price|product|||NA|rsf:gd-|-stype:attr=1|qr_nm:gd|res:RC4|com-cf:nl|ptrs:na|ktp:N0|mc:182353|mtp:S|qry_typ:P|lang:en|wc:3|cs:8887|v=4,False,,Bengaluru,"13th Floor, Room 1 Of Flat No. 2132, Prestige West Woods, Binnipete, Bengaluru - 560023, Dist.Bengaluru, Karnataka",8048247089,5359
"NAP Red Newborn Baby Carrying Bed, Newly Born",https://www.indiamart.com/proddetail/newborn-baby-carrying-bed-2852168152333.html?pos=62&kwd=baby carry bed&tags=BA||||8786.56|Price|product|||NA|rsf:gd-|-stype:attr=1|qr_nm:gd|res:RC4|com-cf:nl|ptrs:na|ktp:N0|mc:182353|mtp:S|qry_typ:P|lang:en|wc:3|cs:8887|v=4,New Ayush Plastics,https://www.indiamart.com/newayushplastics-hyderabad/?pos=62&kwd=baby carry bed&tags=BA||||8786.56|Price|product|||NA|rsf:gd-|-stype:attr=1|qr_nm:gd|res:RC4|com-cf:nl|ptrs:na|ktp:N0|mc:182353|mtp:S|qry_typ:P|lang:en|wc:3|cs:8887|v=4,False,Afzal Gunj,Hyderabad,"15-8-451/1 And 2, Balaji Complex, Feelkhana Begum Bazar, Afzal Gunj, Hyderabad - 500012, Dist.Hyderabad, Telangana",8043868451,
"Thickness: 6 Inches Size: Single 45 GSM Printed Cotton Baby Bed, Packaging Type: Plastic Bag",https://www.indiamart.com/proddetail/45-gsm-printed-cotton-baby-bed-25962125455.html?pos=63&kwd=baby carry bed&tags=BB||||8211.142|Price|product|||NA|rsf:gd-|-stype:attr=1|qr_nm:gd|res:RC4|com-cf:nl|ptrs:na|ktp:N0|mc:182353|mtp:S|qry_typ:P|lang:en|wc:3|cs:8887|v=4,Star Creation,https://www.indiamart.com/starcreation-maharashtra/?pos=63&kwd=baby carry bed&tags=BB||||8211.142|Price|product|||NA|rsf:gd-|-stype:attr=1|qr_nm:gd|res:RC4|com-cf:nl|ptrs:na|ktp:N0|mc:182353|mtp:S|qry_typ:P|lang:en|wc:3|cs:8887|v=4,False,Sonapur Bhandup West,Mumbai,"Gala No.5, Kamraj Chawl Azad Nagar Dara Cross Road, Sonapur Bhandup West, Mumbai - 400078, Dist.Mumbai, Maharashtra",8048612883,
Ees Ees 780gm Baby Printed Cotton Carry Bed,https://www.indiamart.com/proddetail/baby-printed-cotton-carry-bed-22926423797.html?pos=64&kwd=baby carry bed&tags=BA||||8706.263|Price|product|||NA|rsf:gd-|-stype:attr=1|qr_nm:gd|res:RC4|com-cf:nl|ptrs:na|ktp:N0|mc:182353|mtp:S|qry_typ:P|lang:en|wc:3|cs:8887|v=4,K. Saravanan Prop Ees Ees Agencies,https://www.indiamart.com/k-saravananprop-eesees-agencies/?pos=64&kwd=baby carry bed&tags=BA||||8706.263|Price|product|||NA|rsf:gd-|-stype:attr=1|qr_nm:gd|res:RC4|com-cf:nl|ptrs:na|ktp:N0|mc:182353|mtp:S|qry_typ:P|lang:en|wc:3|cs:8887|v=4,False,KARUR,Karur,"KUMARAPALAYAM PUDHUR VELLIYANAI NORTH, KARUR, Karur - 639118, Dist.Karur, Tamil Nadu",7942665369,
"Maroon Velvet Baby Carry Bed, 3-12 Months",https://www.indiamart.com/proddetail/maroon-velvet-baby-carry-bed-24700207073.html?pos=65&kwd=baby carry bed&tags=BB||||8752.144|Price|product|||NA|rsf:gd-|-stype:attr=1|qr_nm:gd|res:RC4|com-cf:nl|ptrs:na|ktp:N0|mc:182353|mtp:S|qry_typ:P|lang:en|wc:3|cs:8887|v=4,Aashia Fashion,https://www.indiamart.com/aashia-fashion/?pos=65&kwd=baby carry bed&tags=BB||||8752.144|Price|product|||NA|rsf:gd-|-stype:attr=1|qr_nm:gd|res:RC4|com-cf:nl|ptrs:na|ktp:N0|mc:182353|mtp:S|qry_typ:P|lang:en|wc:3|cs:8887|v=4,False,,New Delhi,"A-21 Shiv Vihar, Vikas Nagar Near Rama Sweets, Uttam Nagar, New Delhi - 110059, Dist.Delhi, Delhi",8047676001,
Printed Baby Carry Bed Cum Sleeping Bag,https://www.indiamart.com/proddetail/printed-baby-carry-bed-cum-sleeping-bag-23476692762.html?pos=66&kwd=baby carry bed&tags=BB||||8954.051|Price|product|||NA|rsf:gd-|-stype:attr=1|qr_nm:gd|res:RC4|com-cf:nl|ptrs:na|ktp:N0|mc:182353|mtp:S|qry_typ:P|lang:en|wc:3|cs:8887|v=4,Ray India Inc,https://www.indiamart.com/rayindia-inc/?pos=66&kwd=baby carry bed&tags=BB||||8954.051|Price|product|||NA|rsf:gd-|-stype:attr=1|qr_nm:gd|res:RC4|com-cf:nl|ptrs:na|ktp:N0|mc:182353|mtp:S|qry_typ:P|lang:en|wc:3|cs:8887|v=4,False,,Chennai,"37/88, CYS Road, Samiyar Madam, Mangalapuram, Perambur, Chennai - 600012, Dist.Chennai, Tamil Nadu",7942563640,
"Baby Organic Cotton Printed Carry Bed, Premium quality(0 to 12mOnths) Sleeping Bag",https://www.indiamart.com/proddetail/baby-organic-cotton-printed-carry-bed-premium-quality-0-to-12months-sleeping-bag-2854184572133.html?pos=69&kwd=baby carry bed&tags=BB||||8663.873|Price|product|||NA|rsf:gd-|-stype:attr=1|qr_nm:gd|res:RC4|com-cf:nl|ptrs:na|ktp:N0|mc:182353|mtp:S|qry_typ:P|lang:en|wc:3|cs:8887|v=4,Chadu,https://www.indiamart.com/chadu/?pos=69&kwd=baby carry bed&tags=BB||||8663.873|Price|product|||NA|rsf:gd-|-stype:attr=1|qr_nm:gd|res:RC4|com-cf:nl|ptrs:na|ktp:N0|mc:182353|mtp:S|qry_typ:P|lang:en|wc:3|cs:8887|v=4,False,,Bengaluru,", Bengaluru - 560032, Dist.Bengaluru, Karnataka",8048370717,5972
"Mumma Mall Star Print Baby Grey Round Tub Bed Heart Pillow, Size/Dimension: 39x39x5 Inches",https://www.indiamart.com/proddetail/baby-grey-round-tub-bed-heart-pillow-2849704449730.html?pos=68&kwd=baby carry bed&tags=BB||||8032.138||product|||NA|rsf:gd-|-stype:attr=1|qr_nm:gd|res:RC4|com-cf:nl|ptrs:na|ktp:N0|mc:182353|mtp:S|qry_typ:P|lang:en|wc:3|cs:8887|v=4,Ambition Of Creativity,https://www.indiamart.com/ambitionofcreativitygondal/?pos=68&kwd=baby carry bed&tags=BB||||8032.138||product|||NA|rsf:gd-|-stype:attr=1|qr_nm:gd|res:RC4|com-cf:nl|ptrs:na|ktp:N0|mc:182353|mtp:S|qry_typ:P|lang:en|wc:3|cs:8887|v=4,False,Rajkot,Gondal,"Raiyaraj, Chokshi Nagar, Umvada Road,, Rajkot, Gondal - 360311, Dist.Rajkot, Gujarat",7942791225,
"Baby Organic Cotton Printed Carry Bed, Premium quality(0 to 12mOnths) Sleeping Bag",https://www.indiamart.com/proddetail/baby-organic-cotton-printed-carry-bed-premium-quality-0-to-12months-sleeping-bag-2854184572133.html?pos=69&kwd=baby carry bed&tags=BB||||8663.873|Price|product|||NA|rsf:gd-|-stype:attr=1|qr_nm:gd|res:RC4|com-cf:nl|ptrs:na|ktp:N0|mc:182353|mtp:S|qry_typ:P|lang:en|wc:3|cs:8887|v=4,Chadu,https://www.indiamart.com/chadu/?pos=69&kwd=baby carry bed&tags=BB||||8663.873|Price|product|||NA|rsf:gd-|-stype:attr=1|qr_nm:gd|res:RC4|com-cf:nl|ptrs:na|ktp:N0|mc:182353|mtp:S|qry_typ:P|lang:en|wc:3|cs:8887|v=4,False,,Bengaluru,", Bengaluru - 560032, Dist.Bengaluru, Karnataka",8048370717,5972
Baby Carry Bed,,First Smile,https://www.indiamart.com/first-smile-kolkata/?pos=70&kwd=baby carry bed&tags=BB||||9839.57||product|||NA|rsf:gd-|-stype:attr=1|qr_nm:gd|res:RC4|com-cf:nl|ptrs:na|ktp:N0|mc:182353|mtp:S|qry_typ:P|lang:en|wc:3|cs:8887|v=4,False,,Kolkata,"7B,C Tiljala Road Park Circus, Kolkata - 700026, Dist.Kolkata, West Bengal",8048372036,609
Baby Carry Bed,,Baby Care,https://www.indiamart.com/baby-care-tiruppur/?pos=80&kwd=baby carry bed&tags=BB||||8626.744||product|||NA|rsf:gd-|-stype:attr=1|qr_nm:gd|res:RC4|com-cf:nl|ptrs:na|ktp:N0|mc:182353|mtp:S|qry_typ:P|lang:en|wc:3|cs:8887|v=4,False,Udumalpet,Tiruppur,"Room No 3 First Floor 9a Kalpana Road, Udumalpet, Tiruppur - 642126, Dist.Coimbatore, Tamil Nadu",8048372265,743
Kids Carry Bed,,Arc Trading Co.,https://www.indiamart.com/arc-trading-company/?pos=72&kwd=baby carry bed&tags=BA||||8211.142||product|||NA|rsf:gd-|-stype:attr=1|qr_nm:gd|res:RC4|com-cf:nl|ptrs:na|ktp:N0|mc:182353|mtp:S|qry_typ:P|lang:en|wc:3|cs:8887|v=4,False,Vasai East,Mumbai,"Gala No. 107, Building No. 5, 1st Floor, Range Office, Vasai East, Mumbai - 401208, Dist.Mumbai, Maharashtra",7942658405,
Baby Bed,,H.B.Hosiery,https://www.indiamart.com/hbhosiery-ranchi/?pos=73&kwd=baby carry bed&tags=BA||||9528.781||product|||NA|rsf:gd-|-stype:attr=1|qr_nm:gd|res:RC4|com-cf:nl|ptrs:na|ktp:N0|mc:182353|mtp:S|qry_typ:P|lang:en|wc:3|cs:8887|v=4,False,,Ranchi,"1 St Floor D-15 Street Shop In Ground Floor And First Floor Chaitanya Market Upper Bazar Ranchi Near Gandhi Chowk Ku, Ranchi - 834001, Dist.Ranchi, Jharkhand",8047311011,7025
Baby Bed,,Baby Care International,https://www.indiamart.com/baby-care-international/?pos=74&kwd=baby carry bed&tags=BB||||9265.927|Price|product|||NA|rsf:gd-|-stype:attr=1|qr_nm:gd|res:RC4|com-cf:nl|ptrs:na|ktp:N0|mc:182353|mtp:S|qry_typ:P|lang:en|wc:3|cs:8887|v=4,False,,Anakapalli,"12-4-196/1,Ss Complex,Nehru Chowk,Anakapalle,Visakhapatnam, Anakapalli - 531001, Dist.Visakhapatnam, Andhra Pradesh",8048370720,7492
Baby Bed,,Gupta Ji Gift Gallery,https://www.indiamart.com/gupta-ji-gift-gallery/?pos=75&kwd=baby carry bed&tags=BA||||8769.508||product|||NA|rsf:gd-|-stype:attr=1|qr_nm:gd|res:RC4|com-cf:nl|ptrs:na|ktp:N0|mc:182353|mtp:S|qry_typ:P|lang:en|wc:3|cs:8887|v=4,False,,Faridabad,"Fca-135,Adarsh Nagar,Malarna Road,Ballabgarh,Sikri Industrial Area,Faridabad, Faridabad - 121004, Dist.Faridabad, Haryana",8048372423,896
Baby Bed Carrier,,The V Polyfabrics,https://www.indiamart.com/the-v-polyfabrics/?pos=76&kwd=baby carry bed&tags=BB||||8706.263|Price|product|||NA|rsf:gd-|-stype:attr=1|qr_nm:gd|res:RC4|com-cf:nl|ptrs:na|ktp:N0|mc:182353|mtp:S|qry_typ:P|lang:en|wc:3|cs:8887|v=4,False,,Karur,"7h O, Ramakrishnapuram West, Karur - 639001, Dist.Karur, Tamil Nadu",8047792325,
New Born Baby Carrey Bed,,4 Baby,https://www.indiamart.com/4-baby/?pos=77&kwd=baby carry bed&tags=BA||||8584.299||product|||NA|rsf:gd-|-stype:attr=1|qr_nm:gd|res:RC4|com-cf:nl|ptrs:na|ktp:N0|mc:182353|mtp:S|qry_typ:P|lang:en|wc:3|cs:8887|v=4,False,hope college,Coimbatore,"Hope College, Infront Of Bhart Petrolium Hopes College, Peelamedu 8075725822, hope college, Coimbatore - 641004, Dist.Coimbatore, Tamil Nadu",8043837781,
Carrying Bed,,Shiv Plastic,https://www.indiamart.com/shiv-plastic-hyderabad/?pos=78&kwd=baby carry bed&tags=BB||||8786.56||product|||NA|rsf:gd-|-stype:attr=1|qr_nm:gd|res:RC4|com-cf:nl|ptrs:na|ktp:N0|mc:182353|mtp:S|qry_typ:P|lang:en|wc:3|cs:8887|v=4,False,Afzal Gunj,Hyderabad,"15-8-511,shop no-18, ground floor,r.k. plaza ,nimbu market ,beside Aziz plaza ,Begum bazar,hydrabad-12(t.s.), Afzal Gunj, Hyderabad - 500012, Dist.Hyderabad, Telangana",8043821216,
Baby Carry Bed,,First Smile,https://www.indiamart.com/first-smile-kolkata/?pos=79&kwd=baby carry bed&tags=BB||||9839.57||product|||NA|rsf:gd-|-stype:attr=1|qr_nm:gd|res:RC4|com-cf:nl|ptrs:na|ktp:N0|mc:182353|mtp:S|qry_typ:P|lang:en|wc:3|cs:8887|v=4,False,,Kolkata,"7B,C Tiljala Road Park Circus, Kolkata - 700026, Dist.Kolkata, West Bengal",8048372036,609
Baby Carry Bed,,Baby Care,https://www.indiamart.com/baby-care-tiruppur/?pos=80&kwd=baby carry bed&tags=BB||||8626.744||product|||NA|rsf:gd-|-stype:attr=1|qr_nm:gd|res:RC4|com-cf:nl|ptrs:na|ktp:N0|mc:182353|mtp:S|qry_typ:P|lang:en|wc:3|cs:8887|v=4,False,Udumalpet,Tiruppur,"Room No 3 First Floor 9a Kalpana Road, Udumalpet, Tiruppur - 642126, Dist.Coimbatore, Tamil Nadu",8048372265,743
Baby Mosquito Net Bed,,Usha Creation House,https://www.indiamart.com/usha-creation-house/?pos=81&kwd=baby carry bed&tags=BB||||8206.306|Price|product|||NA|rsf:gd-|-stype:attr=1|qr_nm:gd|res:RC4|com-cf:nl|ptrs:na|ktp:N0|mc:182353|mtp:S|qry_typ:P|lang:en|wc:3|cs:8887|v=4,False,,Bhayander West,"4th, B 403, Jay Sai Vihar Chs Ltd, Kasturi Garden, Bhayander West - 401101, Maharashtra",8048370708,1984
Baby Zipper Beds,,Balaji Bag,https://www.indiamart.com/balaji-bag-selam/?pos=82&kwd=baby carry bed&tags=BB||||8717.056||product|||NA|rsf:gd-|-stype:attr=1|qr_nm:gd|res:RC4|com-cf:nl|ptrs:na|ktp:N0|mc:182353|mtp:S|qry_typ:P|lang:en|wc:3|cs:8887|v=4,False,I Agraharam,Salem,"No.-70/45,paul Street, I Agraharam, Salem - 636001, Dist.Salem, Tamil Nadu",8048371964,840
"White (Base) Baby Carry Bed, 12 Months",https://www.indiamart.com/proddetail/baby-carry-bed-2852715482730.html?pos=83&kwd=baby carry bed&tags=CC||||9136.286|Price|product|||TS|rsf:gd-|-stype:attr=1|qr_nm:gd|res:RC4|com-cf:nl|ptrs:na|ktp:N0|mc:182353|mtp:S|qry_typ:P|lang:en|wc:3|cs:8887|v=4,Sharif Traders,https://www.indiamart.com/shariftraders/?pos=83&kwd=baby carry bed&tags=CC||||9136.286|Price|product|||TS|rsf:gd-|-stype:attr=1|qr_nm:gd|res:RC4|com-cf:nl|ptrs:na|ktp:N0|mc:182353|mtp:S|qry_typ:P|lang:en|wc:3|cs:8887|v=4,False,Alcot Gardens,Rajahmundry,"Shop No 1 And 2, D No 45-29-23, Ambedkar Nagar Colony, Tadithota, Rajamahendravaram, East Godavari,, Alcot Gardens, Rajahmundry - 533101, Dist.East Godavari, Andhra Pradesh",7942717259,
Baby Carry Bed,https://www.indiamart.com/proddetail/baby-carry-bed-19514650630.html?pos=84&kwd=baby carry bed&tags=CC||||8211.142|Price|product|||TS|rsf:gd-|-stype:attr=1|qr_nm:gd|res:RC4|com-cf:nl|ptrs:na|ktp:N0|mc:182353|mtp:S|qry_typ:P|lang:en|wc:3|cs:8887|v=4,Child King Creation,https://www.indiamart.com/childkingcreation-mumbai/?pos=84&kwd=baby carry bed&tags=CC||||8211.142|Price|product|||TS|rsf:gd-|-stype:attr=1|qr_nm:gd|res:RC4|com-cf:nl|ptrs:na|ktp:N0|mc:182353|mtp:S|qry_typ:P|lang:en|wc:3|cs:8887|v=4,False,Malad West,Mumbai,"B 705, Seven Floor, Jagmagia Centre, Mamlatdar Wadi EXTN Road Nahar Nagar, Malad West, Suburban, Malad West, Mumbai - 400064, Dist.Mumbai, Maharashtra",8043805922,
White (base) Pure Cotton Baby Carry Bed,https://www.indiamart.com/proddetail/pure-cotton-baby-carry-bed-23059808288.html?pos=85&kwd=baby carry bed&tags=CC||||8281.036|Price|product|||TS|rsf:gd-|-stype:attr=1|qr_nm:gd|res:RC4|com-cf:nl|ptrs:na|ktp:N0|mc:182353|mtp:S|qry_typ:P|lang:en|wc:3|cs:8887|v=4,New Era,https://www.indiamart.com/new-era-vadodara/?pos=85&kwd=baby carry bed&tags=CC||||8281.036|Price|product|||TS|rsf:gd-|-stype:attr=1|qr_nm:gd|res:RC4|com-cf:nl|ptrs:na|ktp:N0|mc:182353|mtp:S|qry_typ:P|lang:en|wc:3|cs:8887|v=4,False,Bapunagar,Vadodara,"G-59 Warasia Ring Road Chaturbhai Park Society Warshiya Main Road, Bapunagar, Vadodara - 390006, Dist.Vadodara, Gujarat",8047768024,
Baby Printed Carry Bed Pice Mix Printes,https://www.indiamart.com/proddetail/baby-printed-carry-bed-pice-mix-printes-2850665255955.html?pos=86&kwd=baby carry bed&tags=CC||||8559.269|Price|product|||TS|rsf:gd-|-stype:attr=1|qr_nm:gd|res:RC4|com-cf:nl|ptrs:na|ktp:N0|mc:182353|mtp:S|qry_typ:P|lang:en|wc:3|cs:8887|v=4,Preeti Textiles,https://www.indiamart.com/preetitextiles/?pos=86&kwd=baby carry bed&tags=CC||||8559.269|Price|product|||TS|rsf:gd-|-stype:attr=1|qr_nm:gd|res:RC4|com-cf:nl|ptrs:na|ktp:N0|mc:182353|mtp:S|qry_typ:P|lang:en|wc:3|cs:8887|v=4,False,Vyankatesh Nagar,Indore,"133-134, 2nd Floor, Muchhal Chamber, MT Cloth Market, Vyankatesh Nagar, Indore - 452009, Dist.Indore, Madhya Pradesh",8048600421,
Cotton Green Baby Carrying Bed,https://www.indiamart.com/proddetail/green-baby-carrying-bed-2854147652862.html?pos=87&kwd=baby carry bed&tags=CC||||8792.661|Price|product|||MDC|rsf:gd-|-stype:attr=1|qr_nm:gd|res:RC4|com-cf:nl|ptrs:na|ktp:N0|mc:182353|mtp:S|qry_typ:P|lang:en|wc:3|cs:8887|v=4,Aadhi Vetrivel Textiles,https://www.indiamart.com/aadhi-vetrivel-textiles/?pos=87&kwd=baby carry bed&tags=CC||||8792.661|Price|product|||MDC|rsf:gd-|-stype:attr=1|qr_nm:gd|res:RC4|com-cf:nl|ptrs:na|ktp:N0|mc:182353|mtp:S|qry_typ:P|lang:en|wc:3|cs:8887|v=4,False,Kachirapalayam,Vadakkanandal,"0, SF NO 69/4, VIP Garden,Near Fire Office, Kachirapalayam Road, Kallakuruchi, Kachirapalayam, Vadakkanandal - 606207, Dist.Villupuram, Tamil Nadu",8045732300,
Sandal Cotton Baby Carry Bed,https://www.indiamart.com/proddetail/sandal-cotton-baby-carry-bed-2854690372833.html?pos=88&kwd=baby carry bed&tags=CC||||8954.051|Price|product|||MDC|rsf:gd-|-stype:attr=1|qr_nm:gd|res:RC4|com-cf:nl|ptrs:na|ktp:N0|mc:182353|mtp:S|qry_typ:P|lang:en|wc:3|cs:8887|v=4,Shanjay Enterprises,https://www.indiamart.com/shanjay-enterprises-chennai/?pos=88&kwd=baby carry bed&tags=CC||||8954.051|Price|product|||MDC|rsf:gd-|-stype:attr=1|qr_nm:gd|res:RC4|com-cf:nl|ptrs:na|ktp:N0|mc:182353|mtp:S|qry_typ:P|lang:en|wc:3|cs:8887|v=4,False,,Chennai,"No 5, Alapakkam Main Road, Maduravoyal, Chennai - 600095, Dist.Chennai, Tamil Nadu",8044461007,
Little care 3 Colors Baby Carry Nest,https://www.indiamart.com/proddetail/baby-carry-nest-11807908955.html?pos=89&kwd=baby carry bed&tags=CB||||8211.142|Price|product|||TS|rsf:gd-|-stype:attr=1|qr_nm:gd|res:RC4|com-cf:nl|ptrs:na|ktp:N0|mc:182353|mtp:S|qry_typ:P|lang:en|wc:3|cs:8887|v=4,Dhrupti Creation,https://www.indiamart.com/littlecare/?pos=89&kwd=baby carry bed&tags=CB||||8211.142|Price|product|||TS|rsf:gd-|-stype:attr=1|qr_nm:gd|res:RC4|com-cf:nl|ptrs:na|ktp:N0|mc:182353|mtp:S|qry_typ:P|lang:en|wc:3|cs:8887|v=4,False,Malad East,Mumbai,"Gala No. 3, Jignesh Diamond House, Near Vaishnavdevi Mandir, Subhash Lane, Malad East, Malad East, Mumbai - 400097, Dist.Mumbai, Maharashtra",8048970316,
"Gots, Grs, ISO Certified Organic Baby Crib Fabric & Baby Clothing Manufacturer from India",https://www.indiamart.com/proddetail/gots-grs-iso-certified-organic-baby-crib-fabric-baby-clothing-manufacturer-from-india-4783831488.html?pos=90&kwd=baby carry bed&tags=CC||||8668.838|Price|product|||TS|rsf:gd-|-stype:attr=1|qr_nm:gd|res:RC4|com-cf:nl|ptrs:na|ktp:N0|mc:182353|mtp:S|qry_typ:P|lang:en|wc:3|cs:8887|v=4,Sri Kalyan Export Private Limited,https://www.organictextileindia.com/?pos=90&kwd=baby carry bed&tags=CC||||8668.838|Price|product|||TS|rsf:gd-|-stype:attr=1|qr_nm:gd|res:RC4|com-cf:nl|ptrs:na|ktp:N0|mc:182353|mtp:S|qry_typ:P|lang:en|wc:3|cs:8887|v=4,False,Vilarasampatti,Erode,"192/4, Iswarya Garden, Vilarasampatti, Erode - 638107, Dist.Erode, Tamil Nadu",8048974551,
Stylish Baby Sleeping Bag,https://www.indiamart.com/proddetail/stylish-baby-sleeping-bag-2853603638748.html?pos=91&kwd=baby carry bed&tags=CC||||8230.883|Price|product|||MDC|rsf:gd-|-stype:attr=1|qr_nm:gd|res:RC4|com-cf:nl|ptrs:na|ktp:N0|mc:182353|mtp:S|qry_typ:P|lang:en|wc:3|cs:8887|v=4,Shri Shri Fashion,https://www.indiamart.com/shri-shri-fashion/?pos=91&kwd=baby carry bed&tags=CC||||8230.883|Price|product|||MDC|rsf:gd-|-stype:attr=1|qr_nm:gd|res:RC4|com-cf:nl|ptrs:na|ktp:N0|mc:182353|mtp:S|qry_typ:P|lang:en|wc:3|cs:8887|v=4,False,Varachha,Surat,"A-231, Narayan Nagar, Near Nalanda School, Punagam,, Varachha, Surat - 395010, Dist.Surat, Gujarat",7942712235,
"Limited Bed rail, 2kg, New Born",https://www.indiamart.com/proddetail/bed-rail-11221084373.html?pos=92&kwd=baby carry bed&tags=CC||||8752.144|Price|product|||MDC|rsf:gd-|-stype:attr=1|qr_nm:gd|res:RC4|com-cf:nl|ptrs:na|ktp:N0|mc:182353|mtp:S|qry_typ:P|lang:en|wc:3|cs:8887|v=4,Anil Steel Industries,https://www.indiamart.com/anilsteelindustries-delhi/?pos=92&kwd=baby carry bed&tags=CC||||8752.144|Price|product|||MDC|rsf:gd-|-stype:attr=1|qr_nm:gd|res:RC4|com-cf:nl|ptrs:na|ktp:N0|mc:182353|mtp:S|qry_typ:P|lang:en|wc:3|cs:8887|v=4,False,Kirti Nagar,New Delhi,"N-46, Shop Plot, Kirti Nagar, Kirti Nagar, New Delhi - 110015, Dist.Delhi, Delhi",8046057314,
Cotton Cream (Base) Baby Printed Carry Bed Set,https://www.indiamart.com/proddetail/baby-printed-bedding-set-2854977854055.html?pos=93&kwd=baby carry bed&tags=||||8786.56|Price|product|||MDC|rsf:gd-|-stype:attr=1|qr_nm:gd|res:RC4|com-cf:nl|ptrs:na|ktp:N0|mc:182353|mtp:S|qry_typ:P|lang:en|wc:3|cs:8887|v=4,Vinod And Company,https://www.indiamart.com/vinodcompany-hyderabad/?pos=93&kwd=baby carry bed&tags=||||8786.56|Price|product|||MDC|rsf:gd-|-stype:attr=1|qr_nm:gd|res:RC4|com-cf:nl|ptrs:na|ktp:N0|mc:182353|mtp:S|qry_typ:P|lang:en|wc:3|cs:8887|v=4,False,Feelkhana,Hyderabad,"15/8/514/1/D, Feelkhana, Begum Bazar, Feelkhana, Hyderabad - 500012, Dist.Hyderabad, Telangana",7949086154,
"3 in 1 Baby Bed, Sleeping Bag & Carry Nest, Cotton Baby Bedding Unisex Baby Sleeping Bed",https://www.indiamart.com/proddetail/3-in-1-baby-bed-sleeping-bag-carry-nest-cotton-baby-bedding-unisex-baby-sleeping-bed-2852997028091.html?pos=94&kwd=baby carry bed&tags=||||9842.824|Price|product|||TS|rsf:gd-|-stype:attr=1|qr_nm:gd|res:RC4|com-cf:nl|ptrs:na|ktp:N0|mc:182353|mtp:S|qry_typ:P|lang:en|wc:3|cs:8887|v=4,Indilittle Global Export,https://www.indiamart.com/indilittleglobalexport/?pos=94&kwd=baby carry bed&tags=||||9842.824|Price|product|||TS|rsf:gd-|-stype:attr=1|qr_nm:gd|res:RC4|com-cf:nl|ptrs:na|ktp:N0|mc:182353|mtp:S|qry_typ:P|lang:en|wc:3|cs:8887|v=4,False,Haripal,Hooghly,"BRAHMANPARA, NALIKUL PASCHIM, HARIPAL, Haripal, Hooghly - 712405, Dist.Hooghly, West Bengal",8048977919,
New Gen Enterprises,,New Gen Enterprises,https://www.indiamart.com/new-genenterprises/?pos=95&kwd=baby carry bed&tags=D||||8954.051||bl|||MDC|rsf:gd-|-stype:attr=1|qr_nm:gd|res:RC4|com-cf:nl|ptrs:na|ktp:N0|mc:182353|mtp:S|qry_typ:P|lang:en|wc:3|cs:8887|v=4,False,,Chennai,"115/3, B.D.Moorthi Nagar / Periyar Street, Padiyanallur, Tiruvallur, Chennai - 600052, Dist.Chennai, Tamil Nadu",7949340352,
"Cloth Orange Baby Carry Bag, Age Group: 1-2 Years, Packaging Type: Transparent",https://www.indiamart.com/proddetail/baby-carry-bag-2851743097562.html?pos=96&kwd=baby carry bed&tags=||||8783.355|Price|product|||MDC|rsf:gd-|-stype:attr=1|qr_nm:gd|res:RC4|com-cf:nl|ptrs:na|ktp:N0|mc:182353|mtp:S|qry_typ:P|lang:en|wc:3|cs:8887|v=4,Om Shiv International,https://www.indiamart.com/omshivinternational/?pos=96&kwd=baby carry bed&tags=||||8783.355|Price|product|||MDC|rsf:gd-|-stype:attr=1|qr_nm:gd|res:RC4|com-cf:nl|ptrs:na|ktp:N0|mc:182353|mtp:S|qry_typ:P|lang:en|wc:3|cs:8887|v=4,False,Baghpat,Aminagar Sarai,"170, Gauspur, Baghpat, Baghpat, Aminagar Sarai - 250606, Dist.Bagpat, Uttar Pradesh",8048616452,
"Cotton Red Baby Sleeping Bag Cum Baby Carry Bag, Newly Born",https://www.indiamart.com/proddetail/baby-sleeping-bag-cum-baby-carry-bag-2854946166648.html?pos=97&kwd=baby carry bed&tags=||||8230.883|Price|product|||MDC|rsf:gd-|-stype:attr=1|qr_nm:gd|res:RC4|com-cf:nl|ptrs:na|ktp:N0|mc:182353|mtp:S|qry_typ:P|lang:en|wc:3|cs:8887|v=4,Whopssy International,https://www.indiamart.com/whopssy-international/?pos=97&kwd=baby carry bed&tags=||||8230.883|Price|product|||MDC|rsf:gd-|-stype:attr=1|qr_nm:gd|res:RC4|com-cf:nl|ptrs:na|ktp:N0|mc:182353|mtp:S|qry_typ:P|lang:en|wc:3|cs:8887|v=4,False,,Surat,"First Floor, Plot No. 377, Ram Vatika V-2, Near Rangoli Chowkdi, Sayan Road, Velenja Gam, Sayan, Surat - 394150, Dist.Surat, Gujarat",7949340041,
68 X 42 Cm Velvet And Cotton Baby Carry Bed,https://www.indiamart.com/proddetail/baby-carry-bed-19123489933.html?pos=98&kwd=baby carry bed&tags=CA||||8954.051|Price|product|||NA|rsf:gd-|-stype:attr=1|qr_nm:gd|res:RC4|com-cf:nl|ptrs:na|ktp:N0|mc:182353|mtp:S|qry_typ:P|lang:en|wc:3|cs:8887|v=4,Dadabhoy Agencies,https://www.indiamart.com/dadabhoyagencies/?pos=98&kwd=baby carry bed&tags=CA||||8954.051|Price|product|||NA|rsf:gd-|-stype:attr=1|qr_nm:gd|res:RC4|com-cf:nl|ptrs:na|ktp:N0|mc:182353|mtp:S|qry_typ:P|lang:en|wc:3|cs:8887|v=4,False,Sowcarpet,Chennai,",100/8 - 9,NARAYANA MUDALI STREET,,SOWCARPET, Sowcarpet, Chennai - 600079, Dist.Chennai, Tamil Nadu",8043887096,
Baby Carry Bed,https://www.indiamart.com/proddetail/baby-carry-bed-14810983333.html?pos=99&kwd=baby carry bed&tags=CA||||8954.051|Price|product|||NA|rsf:gd-|-stype:attr=1|qr_nm:gd|res:RC4|com-cf:nl|ptrs:na|ktp:N0|mc:182353|mtp:S|qry_typ:P|lang:en|wc:3|cs:8887|v=4,Best Agency,https://www.indiamart.com/bestagency-chennai/?pos=99&kwd=baby carry bed&tags=CA||||8954.051|Price|product|||NA|rsf:gd-|-stype:attr=1|qr_nm:gd|res:RC4|com-cf:nl|ptrs:na|ktp:N0|mc:182353|mtp:S|qry_typ:P|lang:en|wc:3|cs:8887|v=4,False,George Town,Chennai,"59/13, Narayana Mudali Street, Sowcarpet, George Town, Chennai - 600079, Dist.Chennai, Tamil Nadu",8047664890,
Poly Cotton Green Baby Carry Bed,https://www.indiamart.com/proddetail/green-baby-carry-bed-21753172748.html?pos=101&kwd=baby carry bed&tags=CA||||8211.142|Price|product|||NA|rsf:gd-|-stype:attr=1|qr_nm:gd|res:RC4|com-cf:nl|ptrs:na|ktp:N0|mc:182353|mtp:S|qry_typ:P|lang:en|wc:3|cs:8887|v=4,Bakai Creation,https://www.indiamart.com/bakaicreation/?pos=101&kwd=baby carry bed&tags=CA||||8211.142|Price|product|||NA|rsf:gd-|-stype:attr=1|qr_nm:gd|res:RC4|com-cf:nl|ptrs:na|ktp:N0|mc:182353|mtp:S|qry_typ:P|lang:en|wc:3|cs:8887|v=4,False,,Mumbai,"81,FLOOR-GRD, NAYA NAGAR, RAHEJA HOSPITAL MARG,MAHIM Naya Nagar, 81, Raheja Hospital Marg, Mahim,400017,Mumbai, Mumbai - 400016, Dist.Mumbai, Maharashtra",8048372574,102
Poly Cotton Green Baby Carry Bed,https://www.indiamart.com/proddetail/green-baby-carry-bed-21753172748.html?pos=101&kwd=baby carry bed&tags=CA||||8211.142|Price|product|||NA|rsf:gd-|-stype:attr=1|qr_nm:gd|res:RC4|com-cf:nl|ptrs:na|ktp:N0|mc:182353|mtp:S|qry_typ:P|lang:en|wc:3|cs:8887|v=4,Bakai Creation,https://www.indiamart.com/bakaicreation/?pos=101&kwd=baby carry bed&tags=CA||||8211.142|Price|product|||NA|rsf:gd-|-stype:attr=1|qr_nm:gd|res:RC4|com-cf:nl|ptrs:na|ktp:N0|mc:182353|mtp:S|qry_typ:P|lang:en|wc:3|cs:8887|v=4,False,,Mumbai,"81,FLOOR-GRD, NAYA NAGAR, RAHEJA HOSPITAL MARG,MAHIM Naya Nagar, 81, Raheja Hospital Marg, Mahim,400017,Mumbai, Mumbai - 400016, Dist.Mumbai, Maharashtra",8048372574,102
"Open Mount Polyester Baby Mosquito Net Bed, For Home, Size: 50x55 cm",https://www.indiamart.com/proddetail/polyester-baby-mosquito-net-bed-2851612971273.html?pos=102&kwd=baby carry bed&tags=||||8661.854|Price|proxy|||MDC|rsf:gd-|-stype:attr=1|qr_nm:gd|res:RC4|com-cf:nl|ptrs:na|ktp:N0|mc:182353|mtp:S|qry_typ:P|lang:en|wc:3|cs:8887|v=4,Raj Industries,https://www.indiamart.com/raj-industries-punjab/?pos=102&kwd=baby carry bed&tags=||||8661.854|Price|proxy|||MDC|rsf:gd-|-stype:attr=1|qr_nm:gd|res:RC4|com-cf:nl|ptrs:na|ktp:N0|mc:182353|mtp:S|qry_typ:P|lang:en|wc:3|cs:8887|v=4,False,,Ludhiana,"H. No B 12 629, Kucha Anayat, Nr Div No 2 Brown Road, Ludhiana - 141008, Dist.Ludhiana, Punjab",7942800347,
"Soft Baby Wool Bedding Set - cream, For Home, Solid",https://www.indiamart.com/proddetail/soft-baby-wool-bedding-set-cream-2852506098430.html?pos=103&kwd=baby carry bed&tags=||||8752.144|Price|product|||TS|rsf:gd-|-stype:attr=1|qr_nm:gd|res:RC4|com-cf:nl|ptrs:na|ktp:N0|mc:182353|mtp:S|qry_typ:P|lang:en|wc:3|cs:8887|v=4,Ekta Overseas,https://www.indiamart.com/ektaoverseas-newdelhi/?pos=103&kwd=baby carry bed&tags=||||8752.144|Price|product|||TS|rsf:gd-|-stype:attr=1|qr_nm:gd|res:RC4|com-cf:nl|ptrs:na|ktp:N0|mc:182353|mtp:S|qry_typ:P|lang:en|wc:3|cs:8887|v=4,False,Shahdara,New Delhi,"1/95, Gali No.3, Near Navjeevan Phisical Center, Vishwas Nagar, Shahdara,, Shahdara, New Delhi - 110032, Dist.Delhi, Delhi",7942628926,
"Red & Black Plastic Baby Carrier Bag, Age Group: 3-12 Months, Packaging Type: LDPE",https://www.indiamart.com/proddetail/baby-carrier-bag-2854257770530.html?pos=104&kwd=baby carry bed&tags=||||8752.144|Price|product|||TS|rsf:gd-|-stype:attr=1|qr_nm:gd|res:RC4|com-cf:nl|ptrs:na|ktp:N0|mc:182353|mtp:S|qry_typ:P|lang:en|wc:3|cs:8887|v=4,Nimesh Enterprises,https://www.indiamart.com/nimesh-enterprises/?pos=104&kwd=baby carry bed&tags=||||8752.144|Price|product|||TS|rsf:gd-|-stype:attr=1|qr_nm:gd|res:RC4|com-cf:nl|ptrs:na|ktp:N0|mc:182353|mtp:S|qry_typ:P|lang:en|wc:3|cs:8887|v=4,False,Rajpur Khurd,New Delhi,"A- 8, Rajpur Khurd, Tivoli Garden, Rajpur Khurd, New Delhi - 110068, Dist.Delhi, Delhi",8047634050,
Baby Carrier Bag,https://www.indiamart.com/proddetail/baby-carrier-bag-23160857688.html?pos=105&kwd=baby carry bed&tags=||||8752.144|Price|product|||TS|rsf:gd-|-stype:attr=1|qr_nm:gd|res:RC4|com-cf:nl|ptrs:na|ktp:N0|mc:182353|mtp:S|qry_typ:P|lang:en|wc:3|cs:8887|v=4,Melvis,https://www.indiamart.com/melvis/?pos=105&kwd=baby carry bed&tags=||||8752.144|Price|product|||TS|rsf:gd-|-stype:attr=1|qr_nm:gd|res:RC4|com-cf:nl|ptrs:na|ktp:N0|mc:182353|mtp:S|qry_typ:P|lang:en|wc:3|cs:8887|v=4,False,Swaroop Nagar,New Delhi,"First Floor, House Number 185/12, Block-B, Yadav Market Road Chowk, Swaroop Nagar,, Swaroop Nagar, New Delhi - 110042, Dist.Delhi, Delhi",8047632851,
multy Soft Fabric Kangaroo Bag Baby Carrier,https://www.indiamart.com/proddetail/kangaroo-bag-baby-carrier-2852512135012.html?pos=106&kwd=baby carry bed&tags=||||8211.142|Price|product|||TS|rsf:gd-|-stype:attr=1|qr_nm:gd|res:RC4|com-cf:nl|ptrs:na|ktp:N0|mc:182353|mtp:S|qry_typ:P|lang:en|wc:3|cs:8887|v=4,P For Panda Baby Products Private Limited,https://www.p4pandababyproducts.com/?pos=106&kwd=baby carry bed&tags=||||8211.142|Price|product|||TS|rsf:gd-|-stype:attr=1|qr_nm:gd|res:RC4|com-cf:nl|ptrs:na|ktp:N0|mc:182353|mtp:S|qry_typ:P|lang:en|wc:3|cs:8887|v=4,False,Goregaon West,Mumbai,"904 A Wing,9 Th Floor,Triple S Heights,Jakeria Road, Goregaon West, Mumbai - 400064, Dist.Mumbai, Maharashtra",7942710871,
Multicolor Cotton New born baby sleeping Bag,https://www.indiamart.com/proddetail/new-born-baby-sleeping-bag-2854193141248.html?pos=107&kwd=baby carry bed&tags=||||9189.305|Price|product|||MDC|rsf:gd-|-stype:attr=1|qr_nm:gd|res:RC4|com-cf:nl|ptrs:na|ktp:N0|mc:182353|mtp:S|qry_typ:P|lang:en|wc:3|cs:8887|v=4,Sudhanjali Enterprises,https://www.indiamart.com/sudhanjalienterprises/?pos=107&kwd=baby carry bed&tags=||||9189.305|Price|product|||MDC|rsf:gd-|-stype:attr=1|qr_nm:gd|res:RC4|com-cf:nl|ptrs:na|ktp:N0|mc:182353|mtp:S|qry_typ:P|lang:en|wc:3|cs:8887|v=4,False,,Prayagraj,"H No-10/7, Basahi, Nataka Babura, Khain, Prayagraj - 212307, Dist.Allahabad, Uttar Pradesh",7942964273,
"Blue Rectangular Printed Baby Bedding Set, Cotton",https://www.indiamart.com/proddetail/printed-baby-bedding-set-2854715386597.html?pos=108&kwd=baby carry bed&tags=||||8663.873|Price|product|||MDC|rsf:gd-|-stype:attr=1|qr_nm:gd|res:RC4|com-cf:nl|ptrs:na|ktp:N0|mc:182353|mtp:S|qry_typ:P|lang:en|wc:3|cs:8887|v=4,Nipika Vrapped Gifting,https://www.indiamart.com/nipika-vrapped-gifting/?pos=108&kwd=baby carry bed&tags=||||8663.873|Price|product|||MDC|rsf:gd-|-stype:attr=1|qr_nm:gd|res:RC4|com-cf:nl|ptrs:na|ktp:N0|mc:182353|mtp:S|qry_typ:P|lang:en|wc:3|cs:8887|v=4,False,Bengaluru Urban,Bengaluru,"9/1, 23rd Cross Road, Magadi Road, KP Agrahara, Bengaluru Urban, Bengaluru - 560023, Dist.Bengaluru, Karnataka",7949328723,
Firozi Polyester Kangaroo Style Baby Carrier,https://www.indiamart.com/proddetail/polyester-kangaroo-style-baby-carrier-27455195630.html?pos=109&kwd=baby carry bed&tags=||||8752.144|Price|product|||MDC|rsf:gd-|-stype:attr=1|qr_nm:gd|res:RC4|com-cf:nl|ptrs:na|ktp:N0|mc:182353|mtp:S|qry_typ:P|lang:en|wc:3|cs:8887|v=4,Priyanshi International,https://www.indiamart.com/priyanshi-international-uttarpradesh/?pos=109&kwd=baby carry bed&tags=||||8752.144|Price|product|||MDC|rsf:gd-|-stype:attr=1|qr_nm:gd|res:RC4|com-cf:nl|ptrs:na|ktp:N0|mc:182353|mtp:S|qry_typ:P|lang:en|wc:3|cs:8887|v=4,False,,New Delhi,"3,PROP NO S228,SCHOOL BLOCK,SHAKARPUR UGF, 3, Prop No S228, School Block, Shakarpur,110092, New Delhi - 110092, Dist.Delhi, Delhi",7942676139,
Cotton Red Baby Mosquito Net Bed,https://www.indiamart.com/proddetail/baby-mosquito-net-bed-2853941099188.html?pos=110&kwd=baby carry bed&tags=||||8281.036|Price|product|||TS|rsf:gd-|-stype:attr=1|qr_nm:gd|res:RC4|com-cf:nl|ptrs:na|ktp:N0|mc:182353|mtp:S|qry_typ:P|lang:en|wc:3|cs:8887|v=4,Classic Mosquito Net ( A Brand of Prayosha Expo Pvt. Ltd ),https://www.classicmosquitonet.co.in/?pos=110&kwd=baby carry bed&tags=||||8281.036|Price|product|||TS|rsf:gd-|-stype:attr=1|qr_nm:gd|res:RC4|com-cf:nl|ptrs:na|ktp:N0|mc:182353|mtp:S|qry_typ:P|lang:en|wc:3|cs:8887|v=4,False,Industrial Estate,Vadodara,"C1B/267 Gidc, Opp. Prakruti Tiles, Makarpura Industrial Estate,, Industrial Estate, Vadodara - 390010, Dist.Vadodara, Gujarat",8046052164,
140 GSM Baby Carrier Bag,https://www.indiamart.com/proddetail/140-gsm-baby-carrier-bag-2854915281555.html?pos=111&kwd=baby carry bed&tags=||||8786.56|Price|product|||MDC|rsf:gd-|-stype:attr=1|qr_nm:gd|res:RC4|com-cf:nl|ptrs:na|ktp:N0|mc:182353|mtp:S|qry_typ:P|lang:en|wc:3|cs:8887|v=4,Jeneve Trutwein,https://www.indiamart.com/jeneve-trutwein/?pos=111&kwd=baby carry bed&tags=||||8786.56|Price|product|||MDC|rsf:gd-|-stype:attr=1|qr_nm:gd|res:RC4|com-cf:nl|ptrs:na|ktp:N0|mc:182353|mtp:S|qry_typ:P|lang:en|wc:3|cs:8887|v=4,False,,Hyderabad,"3rd Floor, Flat NO.302, Hriddhi Residency, Serilingampally, Plot NO.169/27, Rangareddy, Hyderabad - 500019, Dist.Hyderabad, Telangana",8041014428,
"Cotton cotton Blue Baby Carrier, Age Group: 3-12 Months, Packaging Type: Poly Bag",https://www.indiamart.com/proddetail/blue-baby-carrier-2854871447797.html?pos=112&kwd=baby carry bed&tags=||||8752.144|Price|product|||MDC|rsf:gd-|-stype:attr=1|qr_nm:gd|res:RC4|com-cf:nl|ptrs:na|ktp:N0|mc:182353|mtp:S|qry_typ:P|lang:en|wc:3|cs:8887|v=4,Boby Kid'S Care,https://www.indiamart.com/boby-kids-care/?pos=112&kwd=baby carry bed&tags=||||8752.144|Price|product|||MDC|rsf:gd-|-stype:attr=1|qr_nm:gd|res:RC4|com-cf:nl|ptrs:na|ktp:N0|mc:182353|mtp:S|qry_typ:P|lang:en|wc:3|cs:8887|v=4,False,Saboli,New Delhi,"Ist Floor, 273, Gali No. 14, Rana Mohalla, Vill. Saboli, Saboli, New Delhi - 110093, Dist.Delhi, Delhi",7942705842,
"Cotton Bed Newborn Baby Mosquito Net, Size: Medium",https://www.indiamart.com/proddetail/bed-newborn-baby-mosquito-net-2854722842391.html?pos=113&kwd=baby carry bed&tags=||||8211.142|Price|product|||MDC|rsf:gd-|-stype:attr=1|qr_nm:gd|res:RC4|com-cf:nl|ptrs:na|ktp:N0|mc:182353|mtp:S|qry_typ:P|lang:en|wc:3|cs:8887|v=4,Apple Kids,https://www.indiamart.com/applekids-mumbai/?pos=113&kwd=baby carry bed&tags=||||8211.142|Price|product|||MDC|rsf:gd-|-stype:attr=1|qr_nm:gd|res:RC4|com-cf:nl|ptrs:na|ktp:N0|mc:182353|mtp:S|qry_typ:P|lang:en|wc:3|cs:8887|v=4,False,,Mumbai,"Room No 1,211/4, Janu Seth Chawl, Puspa Park, Daftary Road, Malad East Suburban, Mumbai - 400097, Dist.Mumbai, Maharashtra",7949326883,
"Plastic Sky Blue Baby bather, Newly Born",https://www.indiamart.com/proddetail/baby-bather-2854646403273.html?pos=114&kwd=baby carry bed&tags=||||8785.791|Price|product|||MDC|rsf:gd-|-stype:attr=1|qr_nm:gd|res:RC4|com-cf:nl|ptrs:na|ktp:N0|mc:182353|mtp:S|qry_typ:P|lang:en|wc:3|cs:8887|v=4,Nihalson Enterprises,https://www.indiamart.com/nihalson-enterprises/?pos=114&kwd=baby carry bed&tags=||||8785.791|Price|product|||MDC|rsf:gd-|-stype:attr=1|qr_nm:gd|res:RC4|com-cf:nl|ptrs:na|ktp:N0|mc:182353|mtp:S|qry_typ:P|lang:en|wc:3|cs:8887|v=4,False,,Ghaziabad,"D-362, Laxmi Garden Loni ,Loni Ghaziabad Road, Indraprashth Awas Yojna, Banthla, Ghaziabad - 201102, Dist.Ghaziabad, Uttar Pradesh",7949336257,
"Cooton Baby Mosquito Net Bed, Size: Medium",https://www.indiamart.com/proddetail/baby-mosquito-net-bed-2851253821562.html?pos=115&kwd=baby carry bed&tags=||||8752.144||product|||MDC|rsf:gd-|-stype:attr=1|qr_nm:gd|res:RC4|com-cf:nl|ptrs:na|ktp:N0|mc:182353|mtp:S|qry_typ:P|lang:en|wc:3|cs:8887|v=4,Prince And Princess,https://www.indiamart.com/prince-princess-delhi/?pos=115&kwd=baby carry bed&tags=||||8752.144||product|||MDC|rsf:gd-|-stype:attr=1|qr_nm:gd|res:RC4|com-cf:nl|ptrs:na|ktp:N0|mc:182353|mtp:S|qry_typ:P|lang:en|wc:3|cs:8887|v=4,False,Gulabi Bagh,New Delhi,"Ground Floor, Garage No - 74, Gulabi Bagh Road,, Gulabi Bagh, New Delhi - 110007, Dist.Delhi, Delhi",8047629125,
"Polyester Sky Blue Child Carry Bag, Age Group: 1-2 Years",https://www.indiamart.com/proddetail/sky-blue-child-carry-bag-2854418601862.html?pos=116&kwd=baby carry bed&tags=||||8785.791|Price|product|||MDC|rsf:gd-|-stype:attr=1|qr_nm:gd|res:RC4|com-cf:nl|ptrs:na|ktp:N0|mc:182353|mtp:S|qry_typ:P|lang:en|wc:3|cs:8887|v=4,Adinath Handloom,https://www.indiamart.com/adinath-handloom-ghaziabad/?pos=116&kwd=baby carry bed&tags=||||8785.791|Price|product|||MDC|rsf:gd-|-stype:attr=1|qr_nm:gd|res:RC4|com-cf:nl|ptrs:na|ktp:N0|mc:182353|mtp:S|qry_typ:P|lang:en|wc:3|cs:8887|v=4,False,,Ghaziabad,"104, Vill, Asalatpur, Asalatpur Farakh Nagar, Ghaziabad - 201003, Dist.Ghaziabad, Uttar Pradesh",7942711074,
"Nylon Pink Baby Mosquito Net Bed, Size: Medium",https://www.indiamart.com/proddetail/pink-baby-mosquito-net-bed-2853389260948.html?pos=117&kwd=baby carry bed&tags=||||9842.824|Price|product|||MDC|rsf:gd-|-stype:attr=1|qr_nm:gd|res:RC4|com-cf:nl|ptrs:na|ktp:N0|mc:182353|mtp:S|qry_typ:P|lang:en|wc:3|cs:8887|v=4,P. K. Enterprise,https://www.indiamart.com/pk-enterprise-hooghly/?pos=117&kwd=baby carry bed&tags=||||9842.824|Price|product|||MDC|rsf:gd-|-stype:attr=1|qr_nm:gd|res:RC4|com-cf:nl|ptrs:na|ktp:N0|mc:182353|mtp:S|qry_typ:P|lang:en|wc:3|cs:8887|v=4,False,Subhash Nagar,Hooghly,"Bandel Station Road, 1 No Gandhi Colony, P.S - Chinsurah, P.O, Subhash Nagar, Hooghly - 712103, Dist.Hooghly, West Bengal",7949222298,
"Polyester Baby Bed With Mosquito Net, Size: Medium",https://www.indiamart.com/proddetail/baby-bed-with-mosquito-net-2854013419033.html?pos=118&kwd=baby carry bed&tags=||||8752.144||product|||MDC|rsf:gd-|-stype:attr=1|qr_nm:gd|res:RC4|com-cf:nl|ptrs:na|ktp:N0|mc:182353|mtp:S|qry_typ:P|lang:en|wc:3|cs:8887|v=4,Topscotch Enterprises,https://www.indiamart.com/topscotch-enterprises-newdelhi/?pos=118&kwd=baby carry bed&tags=||||8752.144||product|||MDC|rsf:gd-|-stype:attr=1|qr_nm:gd|res:RC4|com-cf:nl|ptrs:na|ktp:N0|mc:182353|mtp:S|qry_typ:P|lang:en|wc:3|cs:8887|v=4,False,North Delhi,New Delhi,"Street No 7 BLKB, Kadipur Ground Floor Plot No 99-A,KH. No. 1311 Swaroop Vihar, North Delhi, New Delhi - 110036, Dist.Delhi, Delhi",8044564980,
4-In-1-Cute-Baby-Carrier-Multicolor-Front-Carry-Facing-In-Baby-Original-Imaezm3Swrmbjyt7 (1),https://www.indiamart.com/proddetail/4-in-1-cute-baby-carrier-multicolor-front-carry-facing-in-baby-original-imaezm3swrmbjyt7-1-24187458597.html?pos=119&kwd=baby carry bed&tags=||||8752.144|Price|product|||TS|rsf:gd-|-stype:attr=1|qr_nm:gd|res:RC4|com-cf:nl|ptrs:na|ktp:N0|mc:182353|mtp:S|qry_typ:P|lang:en|wc:3|cs:8887|v=4,Chinmay Kids,https://www.indiamart.com/chinmaykids/?pos=119&kwd=baby carry bed&tags=||||8752.144|Price|product|||TS|rsf:gd-|-stype:attr=1|qr_nm:gd|res:RC4|com-cf:nl|ptrs:na|ktp:N0|mc:182353|mtp:S|qry_typ:P|lang:en|wc:3|cs:8887|v=4,False,Nayagaon,New Delhi,"C-99, Street No. 4, First Pusta, Nayagaon, New Delhi - 110053, Dist.Delhi, Delhi",8046054858,
"Baby Carrier Sling, Age Group: 3-12 Months",https://www.indiamart.com/proddetail/baby-carrier-sling-2854492577962.html?pos=120&kwd=baby carry bed&tags=||||8211.142|Price|product|||TS|rsf:gd-|-stype:attr=1|qr_nm:gd|res:RC4|com-cf:nl|ptrs:na|ktp:N0|mc:182353|mtp:S|qry_typ:P|lang:en|wc:3|cs:8887|v=4,M N Trading Co.,https://www.mntraders.in/?pos=120&kwd=baby carry bed&tags=||||8211.142|Price|product|||TS|rsf:gd-|-stype:attr=1|qr_nm:gd|res:RC4|com-cf:nl|ptrs:na|ktp:N0|mc:182353|mtp:S|qry_typ:P|lang:en|wc:3|cs:8887|v=4,False,Town Hall,Mumbai,"GRD FLOOR R 19 SABOO SIDDIK ROAD, MANISH MARKET 128, AMANAH SHOPPING CENTRE FORT, Town Hall, Mumbai - 400001, Dist.Mumbai, Maharashtra",8048983957,
PVC Pink Baby Bedding With Mosquito Net,https://www.indiamart.com/proddetail/baby-bedding-with-mosquito-net-23034287530.html?pos=121&kwd=baby carry bed&tags=||||9734.213||product|||MDC|rsf:gd-|-stype:attr=1|qr_nm:gd|res:RC4|com-cf:nl|ptrs:na|ktp:N0|mc:182353|mtp:S|qry_typ:P|lang:en|wc:3|cs:8887|v=4,Routh Textile,https://www.indiamart.com/routhtextile/?pos=121&kwd=baby carry bed&tags=||||9734.213||product|||MDC|rsf:gd-|-stype:attr=1|qr_nm:gd|res:RC4|com-cf:nl|ptrs:na|ktp:N0|mc:182353|mtp:S|qry_typ:P|lang:en|wc:3|cs:8887|v=4,False,,Narayangarh,"Kedar High School, Routh Textile, Routh Bhawan, Unnamed Road, Kedar, Narayangarh - 721445, West Bengal",7949368454,
"Polyester Baby Mosquito Net Bed, For Home, Size: Medium",https://www.indiamart.com/proddetail/baby-bed-mosquito-net-2854246883962.html?pos=122&kwd=baby carry bed&tags=||||9829.308|Price|product|||MDC|rsf:gd-|-stype:attr=1|qr_nm:gd|res:RC4|com-cf:nl|ptrs:na|ktp:N0|mc:182353|mtp:S|qry_typ:P|lang:en|wc:3|cs:8887|v=4,Alena Enterprise,https://www.indiamart.com/alenaenterprise/?pos=122&kwd=baby carry bed&tags=||||9829.308|Price|product|||MDC|rsf:gd-|-stype:attr=1|qr_nm:gd|res:RC4|com-cf:nl|ptrs:na|ktp:N0|mc:182353|mtp:S|qry_typ:P|lang:en|wc:3|cs:8887|v=4,False,,Howrah,"Kantagachi, Naul, Shyampur, Howrah - 711312, Dist.Howrah, West Bengal",7949325353,
"Polyester Orange Baby Mosquito Net, For Home, Size: 80*20cm",https://www.indiamart.com/proddetail/orange-baby-mosquito-net-19271852733.html?pos=123&kwd=baby carry bed&tags=||||8752.144|Price|product|||TS|rsf:gd-|-stype:attr=1|qr_nm:gd|res:RC4|com-cf:nl|ptrs:na|ktp:N0|mc:182353|mtp:S|qry_typ:P|lang:en|wc:3|cs:8887|v=4,Gehloth Enterprises,https://www.indiamart.com/gehloth-emporium/?pos=123&kwd=baby carry bed&tags=||||8752.144|Price|product|||TS|rsf:gd-|-stype:attr=1|qr_nm:gd|res:RC4|com-cf:nl|ptrs:na|ktp:N0|mc:182353|mtp:S|qry_typ:P|lang:en|wc:3|cs:8887|v=4,False,Hazrat Nizamuddin,New Delhi,"Galib Road, Hazrat Nizamuddin, New Delhi - 110013, Dist.Delhi, Delhi",8047634612,
"Single Bed Nylon Baby Mosquito Net, For Home",https://www.indiamart.com/proddetail/single-bed-nylon-baby-mosquito-net-2851245799773.html?pos=124&kwd=baby carry bed&tags=||||8813.969|Price|product|||TS|rsf:gd-|-stype:attr=1|qr_nm:gd|res:RC4|com-cf:nl|ptrs:na|ktp:N0|mc:182353|mtp:S|qry_typ:P|lang:en|wc:3|cs:8887|v=4,S.K.Enterprises,https://www.indiamart.com/skenterprisesmeerututtarpradesh/?pos=124&kwd=baby carry bed&tags=||||8813.969|Price|product|||TS|rsf:gd-|-stype:attr=1|qr_nm:gd|res:RC4|com-cf:nl|ptrs:na|ktp:N0|mc:182353|mtp:S|qry_typ:P|lang:en|wc:3|cs:8887|v=4,False,Ahmad Nagar,Meerut,"Khasra No-3623 H.No-2386 Zakir Colony Road, Dr Shameen Khan Clinic,, Ahmad Nagar, Meerut - 250002, Dist.Meerut, Uttar Pradesh",7942966042,
Newborn Baby Woolen Set,https://www.indiamart.com/proddetail/newborn-baby-woolen-set-2854859393348.html?pos=125&kwd=baby carry bed&tags=||||8954.051|Price|product|||TS|rsf:gd-|-stype:attr=1|qr_nm:gd|res:RC4|com-cf:nl|ptrs:na|ktp:N0|mc:182353|mtp:S|qry_typ:P|lang:en|wc:3|cs:8887|v=4,Sundar Garments,https://www.sundargarment.com/?pos=125&kwd=baby carry bed&tags=||||8954.051|Price|product|||TS|rsf:gd-|-stype:attr=1|qr_nm:gd|res:RC4|com-cf:nl|ptrs:na|ktp:N0|mc:182353|mtp:S|qry_typ:P|lang:en|wc:3|cs:8887|v=4,False,Kondithop,Chennai,"No-9 Murugesan Street Near Kondithope Park, Kondithop, Chennai - 600079, Dist.Chennai, Tamil Nadu",8048266539,
"Cotton Hand Block Printed Baby Bedding Set, Off White",https://www.indiamart.com/proddetail/hand-block-printed-baby-bedding-set-2850171132633.html?pos=126&kwd=baby carry bed&tags=||||8601.347|Price|product|||TS|rsf:gd-|-stype:attr=1|qr_nm:gd|res:RC4|com-cf:nl|ptrs:na|ktp:N0|mc:182353|mtp:S|qry_typ:P|lang:en|wc:3|cs:8887|v=4,Mohit Handicrafts And Textile,https://www.indiamart.com/mohit-handicrafts-and-textile/?pos=126&kwd=baby carry bed&tags=||||8601.347|Price|product|||TS|rsf:gd-|-stype:attr=1|qr_nm:gd|res:RC4|com-cf:nl|ptrs:na|ktp:N0|mc:182353|mtp:S|qry_typ:P|lang:en|wc:3|cs:8887|v=4,True,,Jaipur,"Sitarampuri, 50, Amer Road, Jaipur - 302002, Dist.Jaipur, Rajasthan",8043859041,
Mild Steel Pediatric Plain Bed,https://www.indiamart.com/proddetail/pediatric-plain-bed-2853300435597.html?pos=127&kwd=baby carry bed&tags=||||8307.81|Price|product|||TS|rsf:gd-|-stype:attr=1|qr_nm:gd|res:RC4|com-cf:nl|ptrs:na|ktp:N0|mc:182353|mtp:S|qry_typ:P|lang:en|wc:3|cs:8887|v=4,Procare,https://www.procareindia.co.in/?pos=127&kwd=baby carry bed&tags=||||8307.81|Price|product|||TS|rsf:gd-|-stype:attr=1|qr_nm:gd|res:RC4|com-cf:nl|ptrs:na|ktp:N0|mc:182353|mtp:S|qry_typ:P|lang:en|wc:3|cs:8887|v=4,False,Chikhali,Pune,"Gat No 197/198, Dehu Alandi Road, Jadhavwadi, Chikhali, Pimpri Chinchwad, Chikhali, Pune - 411062, Dist.Pune, Maharashtra",7942800254,
Multicolor Rectangular Baby Learning Pillow,https://www.indiamart.com/proddetail/baby-learning-pillow-2853189363830.html?pos=128&kwd=baby carry bed&tags=||||8230.883|Price|product|||TS|rsf:gd-|-stype:attr=1|qr_nm:gd|res:RC4|com-cf:nl|ptrs:na|ktp:N0|mc:182353|mtp:S|qry_typ:P|lang:en|wc:3|cs:8887|v=4,Rapid Import & Export,https://www.indiamart.com/rapidimportexport/?pos=128&kwd=baby carry bed&tags=||||8230.883|Price|product|||TS|rsf:gd-|-stype:attr=1|qr_nm:gd|res:RC4|com-cf:nl|ptrs:na|ktp:N0|mc:182353|mtp:S|qry_typ:P|lang:en|wc:3|cs:8887|v=4,False,Dabholi,Surat,"Shade No 19, Nilkanth Park, Nr. Silver Stone Villa, Tulsi Chowk Dabholi Gam, Ved Road, Dabholi, Surat - 395004, Dist.Surat, Gujarat",7942960616,
Pink Rectangular Kids Learning Cushion,https://www.indiamart.com/proddetail/kids-learning-cushion-2854761025612.html?pos=129&kwd=baby carry bed&tags=||||8230.883|Price|product|||TS|rsf:gd-|-stype:attr=1|qr_nm:gd|res:RC4|com-cf:nl|ptrs:na|ktp:N0|mc:182353|mtp:S|qry_typ:P|lang:en|wc:3|cs:8887|v=4,Onward Toys,https://www.indiamart.com/onwardtoys/?pos=129&kwd=baby carry bed&tags=||||8230.883|Price|product|||TS|rsf:gd-|-stype:attr=1|qr_nm:gd|res:RC4|com-cf:nl|ptrs:na|ktp:N0|mc:182353|mtp:S|qry_typ:P|lang:en|wc:3|cs:8887|v=4,False,Kamrej,Surat,"Plot No-82, Sidhdhivinayak Ind Estate, Kholvad, Sub Post Office, Kamrej,, Kamrej, Surat - 394180, Dist.Surat, Gujarat",8044561719,
Rectangular Baby Bed With Mosquito Net,https://www.indiamart.com/proddetail/baby-bed-with-mosquito-net-2853628235430.html?pos=130&kwd=baby carry bed&tags=||||8662.111|Price|product|||TS|rsf:gd-|-stype:attr=1|qr_nm:gd|res:RC4|com-cf:nl|ptrs:na|ktp:N0|mc:182353|mtp:S|qry_typ:P|lang:en|wc:3|cs:8887|v=4,Rovee Garments,https://www.indiamart.com/rovee-garments/?pos=130&kwd=baby carry bed&tags=||||8662.111|Price|product|||TS|rsf:gd-|-stype:attr=1|qr_nm:gd|res:RC4|com-cf:nl|ptrs:na|ktp:N0|mc:182353|mtp:S|qry_typ:P|lang:en|wc:3|cs:8887|v=4,False,State Bank Colony,Tirunelveli,"70, State Bank Colony, Ezhil Nagar, Ngo A Colony, State Bank Colony, Tirunelveli - 627007, Dist.Tirunelveli, Tamil Nadu",7942840922,
"Synthetic Baby Fancy Canopy Mosquito Net, Size: 6x3 Feet, 6x4 Feet",https://www.indiamart.com/proddetail/baby-fancy-canopy-mosquito-net-14164621012.html?pos=131&kwd=baby carry bed&tags=||||9839.57|Price|product|||TS|rsf:gd-|-stype:attr=1|qr_nm:gd|res:RC4|com-cf:nl|ptrs:na|ktp:N0|mc:182353|mtp:S|qry_typ:P|lang:en|wc:3|cs:8887|v=4,D. Saurabh Trexim Private Limited,https://www.indiamart.com/d-saurabh-trexim/?pos=131&kwd=baby carry bed&tags=||||9839.57|Price|product|||TS|rsf:gd-|-stype:attr=1|qr_nm:gd|res:RC4|com-cf:nl|ptrs:na|ktp:N0|mc:182353|mtp:S|qry_typ:P|lang:en|wc:3|cs:8887|v=4,False,Burrabazar,Kolkata,"Ground Floor, 19, Manohar Das Street, Burrabazar, Burrabazar, Kolkata - 700007, Dist.Kolkata, West Bengal",8043808936,
Rectangular Baby cotton bedding sheet set,https://www.indiamart.com/proddetail/baby-cotton-bedding-sheet-set-2853515623673.html?pos=132&kwd=baby carry bed&tags=||||8580.032|Price|product|||TS|rsf:gd-|-stype:attr=1|qr_nm:gd|res:RC4|com-cf:nl|ptrs:na|ktp:N0|mc:182353|mtp:S|qry_typ:P|lang:en|wc:3|cs:8887|v=4,Ritu Infants Care,https://www.indiamart.com/ritu-infants-care/?pos=132&kwd=baby carry bed&tags=||||8580.032|Price|product|||TS|rsf:gd-|-stype:attr=1|qr_nm:gd|res:RC4|com-cf:nl|ptrs:na|ktp:N0|mc:182353|mtp:S|qry_typ:P|lang:en|wc:3|cs:8887|v=4,False,Sunder Nagar,Amritsar,"232, Tilak Nagar, Shivala Colony, Sunder Nagar, Amritsar - 143001, Dist.Amritsar, Punjab",7942712512,
"3 in 1 Baby Bed, Sleeping Bag & Carry Nest, Cotton Baby Bedding Unisex Baby Sleeping Bed",https://www.indiamart.com/proddetail/3-in-1-baby-bed-sleeping-bag-carry-nest-cotton-baby-bedding-unisex-baby-sleeping-bed-2852997028091.html?pos=133&kwd=baby carry bed&tags=||||9842.824|Price|proxy|||TS|rsf:gd-|-stype:attr=1|qr_nm:gd|res:RC4|com-cf:nl|ptrs:na|ktp:N0|mc:182353|mtp:S|qry_typ:P|lang:en|wc:3|cs:8887|v=4,Indilittle Global Export,https://www.indiamart.com/indilittleglobalexport/?pos=133&kwd=baby carry bed&tags=||||9842.824|Price|proxy|||TS|rsf:gd-|-stype:attr=1|qr_nm:gd|res:RC4|com-cf:nl|ptrs:na|ktp:N0|mc:182353|mtp:S|qry_typ:P|lang:en|wc:3|cs:8887|v=4,False,Haripal,Hooghly,"BRAHMANPARA, NALIKUL PASCHIM, HARIPAL, Haripal, Hooghly - 712405, Dist.Hooghly, West Bengal",8048977919,
Baby Cotton Bedding and Carrying Sleeping Bag,https://www.indiamart.com/proddetail/baby-cotton-bedding-and-carrying-sleeping-bag-2853717602188.html?pos=134&kwd=baby carry bed&tags=||||8230.883|Price|product|||TS|rsf:gd-|-stype:attr=1|qr_nm:gd|res:RC4|com-cf:nl|ptrs:na|ktp:N0|mc:182353|mtp:S|qry_typ:P|lang:en|wc:3|cs:8887|v=4,Maa Kiran Handloom & Jiyana,https://www.indiamart.com/maakiranhandloomjiyana/?pos=134&kwd=baby carry bed&tags=||||8230.883|Price|product|||TS|rsf:gd-|-stype:attr=1|qr_nm:gd|res:RC4|com-cf:nl|ptrs:na|ktp:N0|mc:182353|mtp:S|qry_typ:P|lang:en|wc:3|cs:8887|v=4,False,Udhana,Surat,"Shop No.17, Ground Floor, Astha Business Centre, Canal Road,, Udhana, Surat - 394185, Dist.Surat, Gujarat",7942788374,
Cotton Printed Baby Sling Bag,https://www.indiamart.com/proddetail/baby-sling-bag-27379801691.html?pos=135&kwd=baby carry bed&tags=||||8211.142|Price|product|||MDC|rsf:gd-|-stype:attr=1|qr_nm:gd|res:RC4|com-cf:nl|ptrs:na|ktp:N0|mc:182353|mtp:S|qry_typ:P|lang:en|wc:3|cs:8887|v=4,Ambika Bags,https://www.indiamart.com/ambika-bagsmumbai/?pos=135&kwd=baby carry bed&tags=||||8211.142|Price|product|||MDC|rsf:gd-|-stype:attr=1|qr_nm:gd|res:RC4|com-cf:nl|ptrs:na|ktp:N0|mc:182353|mtp:S|qry_typ:P|lang:en|wc:3|cs:8887|v=4,False,Malad west,Mumbai,"3, Ram Lochan Chawl, Subhash Nagar, Jogeshwari East, Mumbai Suburban, Malad west, Mumbai - 400060, Dist.Mumbai, Maharashtra",8047551872,
meenu's Multicolor Baby New Born Cotton Quilts With Bolsters,https://www.indiamart.com/proddetail/baby-new-born-cotton-quilts-with-bolsters-2851565206673.html?pos=136&kwd=baby carry bed&tags=||||8668.838|Price|product|||TS|rsf:gd-|-stype:attr=1|qr_nm:gd|res:RC4|com-cf:nl|ptrs:na|ktp:N0|mc:182353|mtp:S|qry_typ:P|lang:en|wc:3|cs:8887|v=4,Meenu's Manchesters,https://www.hotelbedsheet.in/?pos=136&kwd=baby carry bed&tags=||||8668.838|Price|product|||TS|rsf:gd-|-stype:attr=1|qr_nm:gd|res:RC4|com-cf:nl|ptrs:na|ktp:N0|mc:182353|mtp:S|qry_typ:P|lang:en|wc:3|cs:8887|v=4,False,Edayankattuvalsu,Erode,"26, Nggo Colony, 1, Edayankattuvalsu, Erode - 638009, Dist.Erode, Tamil Nadu",8048609221,
Newborn Baby Folding Mosquito Net Portable Cots Foldable Crib Bottomless Bed - Blue,https://www.indiamart.com/proddetail/newborn-baby-folding-mosquito-net-portable-cots-foldable-crib-bottomless-bed-blue-2852641470762.html?pos=137&kwd=baby carry bed&tags=||||8663.873|Price|product|||TS|rsf:gd-|-stype:attr=1|qr_nm:gd|res:RC4|com-cf:nl|ptrs:na|ktp:N0|mc:182353|mtp:S|qry_typ:P|lang:en|wc:3|cs:8887|v=4,Color Myles,https://www.indiamart.com/colormyleskarnataka/?pos=137&kwd=baby carry bed&tags=||||8663.873|Price|product|||TS|rsf:gd-|-stype:attr=1|qr_nm:gd|res:RC4|com-cf:nl|ptrs:na|ktp:N0|mc:182353|mtp:S|qry_typ:P|lang:en|wc:3|cs:8887|v=4,False,Krishnarajapuram,Bengaluru,"No. 96, Basavanapura Main Road, Krishnarajapuram, Bengaluru - 560036, Dist.Bengaluru, Karnataka",8046044317,
Toddler Baby Carrier Baby Hipseat Ergonomic Baby Wrap Sling Travel Backpack,https://www.indiamart.com/proddetail/toddler-baby-carrier-baby-hipseat-ergonomic-baby-wrap-sling-travel-backpack-2853974300791.html?pos=138&kwd=baby carry bed&tags=||||8230.883|Price|product|||TS|rsf:gd-|-stype:attr=1|qr_nm:gd|res:RC4|com-cf:nl|ptrs:na|ktp:N0|mc:182353|mtp:S|qry_typ:P|lang:en|wc:3|cs:8887|v=4,Nika Enterprise,https://www.nikaenterprise.in/?pos=138&kwd=baby carry bed&tags=||||8230.883|Price|product|||TS|rsf:gd-|-stype:attr=1|qr_nm:gd|res:RC4|com-cf:nl|ptrs:na|ktp:N0|mc:182353|mtp:S|qry_typ:P|lang:en|wc:3|cs:8887|v=4,False,,Surat,"1st Floor,, Flat No-102, Plot No-173/174/175, Rs-109,504,, Vitthal Nagar Soc, Dabholi Char Rasta, Katargam, Surat - 395004, Dist.Surat, Gujarat",8047550715,
"For Home Zipper Green Printed Baby Mosquito Net Bed, Size: Medium",https://www.indiamart.com/proddetail/green-printed-baby-mosquito-net-bed-25450388073.html?pos=139&kwd=baby carry bed&tags=||||9839.57|Price|product|||MDC|rsf:gd-|-stype:attr=1|qr_nm:gd|res:RC4|com-cf:nl|ptrs:na|ktp:N0|mc:182353|mtp:S|qry_typ:P|lang:en|wc:3|cs:8887|v=4,Suman Mosquito Net,https://www.indiamart.com/suman-mosquito-net/?pos=139&kwd=baby carry bed&tags=||||9839.57|Price|product|||MDC|rsf:gd-|-stype:attr=1|qr_nm:gd|res:RC4|com-cf:nl|ptrs:na|ktp:N0|mc:182353|mtp:S|qry_typ:P|lang:en|wc:3|cs:8887|v=4,False,Hadia,Kolkata,"58/2/409, East Bidyadharpur, Shyamnagar North Twenty Four Parganas, Hadia, Kolkata - 743127, Dist.Kolkata, West Bengal",8047621063,
Baby Bedding,https://www.indiamart.com/proddetail/baby-bedding-20276318288.html?pos=140&kwd=baby carry bed&tags=||||8752.144|Price|product|||TS|rsf:gd-|-stype:attr=1|qr_nm:gd|res:RC4|com-cf:nl|ptrs:na|ktp:N0|mc:182353|mtp:S|qry_typ:P|lang:en|wc:3|cs:8887|v=4,Gyasi Ram & Associates,https://www.indiamart.com/gyasiram/?pos=140&kwd=baby carry bed&tags=||||8752.144|Price|product|||TS|rsf:gd-|-stype:attr=1|qr_nm:gd|res:RC4|com-cf:nl|ptrs:na|ktp:N0|mc:182353|mtp:S|qry_typ:P|lang:en|wc:3|cs:8887|v=4,False,Delhi Sadar Bazar,New Delhi,"458, Main Road, Sadar Bazar Near Bara Tooti Chowk, Delhi Sadar Bazar, New Delhi - 110006, Dist.Delhi, Delhi",8046043034,
"Polyester Blue Baby Bedding Mattress Mosquito Net, For Home, Size: Small",https://www.indiamart.com/proddetail/blue-baby-bedding-mattress-mosquito-net-2853807331873.html?pos=141&kwd=baby carry bed&tags=||||9045.955|Price|product|||MDC|rsf:gd-|-stype:attr=1|qr_nm:gd|res:RC4|com-cf:nl|ptrs:na|ktp:N0|mc:182353|mtp:S|qry_typ:P|lang:en|wc:3|cs:8887|v=4,Swadeshi Dengue Net Traders,https://www.indiamart.com/swadeshidenguenettraders/?pos=141&kwd=baby carry bed&tags=||||9045.955|Price|product|||MDC|rsf:gd-|-stype:attr=1|qr_nm:gd|res:RC4|com-cf:nl|ptrs:na|ktp:N0|mc:182353|mtp:S|qry_typ:P|lang:en|wc:3|cs:8887|v=4,False,Pipauri,Kanpur,"Mardan Pur, Pipauri, Kanpur Nagar, Pipauri, Kanpur - 208001, Uttar Pradesh",8045736196,
"Red and Pink Baby Carry Bed, 3-12 Months",https://www.indiamart.com/proddetail/baby-carry-bed-27594517633.html?pos=142&kwd=baby carry bed&tags=CB||||8556.61|Price|product|||NA|rsf:gd-|-stype:attr=1|qr_nm:gd|res:RC4|com-cf:nl|ptrs:na|ktp:N0|mc:182353|mtp:S|qry_typ:P|lang:en|wc:3|cs:8887|v=4,Select Baby World,https://www.indiamart.com/selectbabyworld/?pos=142&kwd=baby carry bed&tags=CB||||8556.61|Price|product|||NA|rsf:gd-|-stype:attr=1|qr_nm:gd|res:RC4|com-cf:nl|ptrs:na|ktp:N0|mc:182353|mtp:S|qry_typ:P|lang:en|wc:3|cs:8887|v=4,False,,Mysore,"No. 805 L-28 1st West Cross, Shop No. 1, Lashkar Mohalla, Mysore - 570001, Dist.Mysuru, Karnataka",8047548812,
Baby Carry Bed,,Mahalaxmi Products,https://www.indiamart.com/mahalaxmiproducts/?pos=143&kwd=baby carry bed&tags=CC||||8228.275||product|||NA|rsf:gd-|-stype:attr=1|qr_nm:gd|res:RC4|com-cf:nl|ptrs:na|ktp:N0|mc:182353|mtp:S|qry_typ:P|lang:en|wc:3|cs:8887|v=4,False,,Ahmedabad,",697/4585,BAPUNAGAR GHB,NR GHANTI STAND OPP SOMNATH TEMPLE,BAPUNAGAR Near Ghanti Stand, Bapunagar, Ahmedabad - 380024, Dist.Ahmedabad, Gujarat",8069707361,495
Baby Carry Bed,https://www.indiamart.com/proddetail/baby-carry-bed-2601016397.html?pos=144&kwd=baby carry bed&tags=CB||||8954.051||product|||NA|rsf:gd-|-stype:attr=1|qr_nm:gd|res:RC4|com-cf:nl|ptrs:na|ktp:N0|mc:182353|mtp:S|qry_typ:P|lang:en|wc:3|cs:8887|v=4,Utility Textiles,https://www.indiamart.com/utility-textiles/?pos=144&kwd=baby carry bed&tags=CB||||8954.051||product|||NA|rsf:gd-|-stype:attr=1|qr_nm:gd|res:RC4|com-cf:nl|ptrs:na|ktp:N0|mc:182353|mtp:S|qry_typ:P|lang:en|wc:3|cs:8887|v=4,False,Anna Nagar Shanthi Colony,Chennai,"AH 231, Ground Floor, 4th Street, Shanthi Colony, Anna Nagar, Anna Nagar Shanthi Colony, Chennai - 600040, Dist.Chennai, Tamil Nadu",8062245137,423
Baby Carry Bed,,Hosiery Emporium,https://www.indiamart.com/ms-hosiery-emporium/?pos=145&kwd=baby carry bed&tags=CC||||9045.955||product|||NA|rsf:gd-|-stype:attr=1|qr_nm:gd|res:RC4|com-cf:nl|ptrs:na|ktp:N0|mc:182353|mtp:S|qry_typ:P|lang:en|wc:3|cs:8887|v=4,False,,Kanpur,"No. 33/135, Gaya Parsad Lane, Meston Road, Kanpur - 208001, Uttar Pradesh",8048372762,844
Baby Carry Bed,https://www.indiamart.com/proddetail/baby-carry-bed-12707708255.html?pos=146&kwd=baby carry bed&tags=CB||||8954.051|Price|product|||NA|rsf:gd-|-stype:attr=1|qr_nm:gd|res:RC4|com-cf:nl|ptrs:na|ktp:N0|mc:182353|mtp:S|qry_typ:P|lang:en|wc:3|cs:8887|v=4,Nahar Business House,https://www.indiamart.com/naharbusinesshouse/?pos=146&kwd=baby carry bed&tags=CB||||8954.051|Price|product|||NA|rsf:gd-|-stype:attr=1|qr_nm:gd|res:RC4|com-cf:nl|ptrs:na|ktp:N0|mc:182353|mtp:S|qry_typ:P|lang:en|wc:3|cs:8887|v=4,False,,Chennai,"Shop No. 22, Prince Plaza, No. 46, Pantheon Road, Egmore, Chennai - 600008, Dist.Chennai, Tamil Nadu",8043823382,
Baby Carry Bed,,Kesar Bags,https://www.indiamart.com/kesar-bags/?pos=147&kwd=baby carry bed&tags=CC||||8492.956|Price|product|||NA|rsf:gd-|-stype:attr=1|qr_nm:gd|res:RC4|com-cf:nl|ptrs:na|ktp:N0|mc:182353|mtp:S|qry_typ:P|lang:en|wc:3|cs:8887|v=4,False,Mandipet,Davanagere,"520/12A, BT Galli, Mandipet, Davanagere - 577001, Dist.Davangere, Karnataka",8047796843,
"Fibbo Multicolor Baby Carry Bed, Medium",https://www.indiamart.com/proddetail/baby-carry-bed-19592588588.html?pos=148&kwd=baby carry bed&tags=CC||||8584.299|Price|product|||NA|rsf:gd-|-stype:attr=1|qr_nm:gd|res:RC4|com-cf:nl|ptrs:na|ktp:N0|mc:182353|mtp:S|qry_typ:P|lang:en|wc:3|cs:8887|v=4,ABCD Enterprises,https://www.indiamart.com/abcdenterprises/?pos=148&kwd=baby carry bed&tags=CC||||8584.299|Price|product|||NA|rsf:gd-|-stype:attr=1|qr_nm:gd|res:RC4|com-cf:nl|ptrs:na|ktp:N0|mc:182353|mtp:S|qry_typ:P|lang:en|wc:3|cs:8887|v=4,False,Puliakulam,Coimbatore,"Old No. 101, New No. 47, Appusamy Naidu Layout, Red Fields, Puliakulam, Coimbatore - 641045, Dist.Coimbatore, Tamil Nadu",7942612488,
1st Step Chuan Que Baby Basket Carry Bed,https://www.indiamart.com/proddetail/1st-step-chuan-que-baby-basket-carry-bed-3837238830.html?pos=149&kwd=baby carry bed&tags=CB||||8230.883||product|||NA|rsf:gd-|-stype:attr=1|qr_nm:gd|res:RC4|com-cf:nl|ptrs:na|ktp:N0|mc:182353|mtp:S|qry_typ:P|lang:en|wc:3|cs:8887|v=4,Yapaa Dot Com,https://www.indiamart.com/yapaa-dsurat/?pos=149&kwd=baby carry bed&tags=CB||||8230.883||product|||NA|rsf:gd-|-stype:attr=1|qr_nm:gd|res:RC4|com-cf:nl|ptrs:na|ktp:N0|mc:182353|mtp:S|qry_typ:P|lang:en|wc:3|cs:8887|v=4,False,,Surat,"Ghod Dod Road, Surat - 395007, Dist.Surat, Gujarat",8047308899,7252
Polyester 600g Printed Baby Carry Bed,https://www.indiamart.com/proddetail/printed-baby-carry-bed-23075442091.html?pos=150&kwd=baby carry bed&tags=CB||||8228.275|Price|product|||NA|rsf:gd-|-stype:attr=1|qr_nm:gd|res:RC4|com-cf:nl|ptrs:na|ktp:N0|mc:182353|mtp:S|qry_typ:P|lang:en|wc:3|cs:8887|v=4,Aryan Engineering,https://www.indiamart.com/aryan-engineeringahmedabad/?pos=150&kwd=baby carry bed&tags=CB||||8228.275|Price|product|||NA|rsf:gd-|-stype:attr=1|qr_nm:gd|res:RC4|com-cf:nl|ptrs:na|ktp:N0|mc:182353|mtp:S|qry_typ:P|lang:en|wc:3|cs:8887|v=4,False,uatamanagar,Ahmedabad,"SHED NO-48,SHARNAM INDUSTRIAL PARK,,B/H ZAVERI ESTATE,KATHWADA SINGARVA ROAD,,KATHWADA,TALUKO-DASKR SHED NO-48 B/H ZAVERI Estate,382430,Ahmedabad, uatamanagar, Ahmedabad - 382415, Dist.Ahmedabad, Gujarat",8048372650,615
"Printed Green Cotton Baby Carry Bed, Size: 120X120cm",https://www.indiamart.com/proddetail/cotton-baby-carry-bed-23755673688.html?pos=151&kwd=baby carry bed&tags=CC||||8663.873|Price|product|||NA|rsf:gd-|-stype:attr=1|qr_nm:gd|res:RC4|com-cf:nl|ptrs:na|ktp:N0|mc:182353|mtp:S|qry_typ:P|lang:en|wc:3|cs:8887|v=4,Kidz Care Garments,https://www.indiamart.com/kidzcaregarments/?pos=151&kwd=baby carry bed&tags=CC||||8663.873|Price|product|||NA|rsf:gd-|-stype:attr=1|qr_nm:gd|res:RC4|com-cf:nl|ptrs:na|ktp:N0|mc:182353|mtp:S|qry_typ:P|lang:en|wc:3|cs:8887|v=4,False,Banashankari,Bengaluru,"No. 36, 3rd Cross, Ganapathi Nagar, Mysore Road, Banashankari, Bengaluru - 560026, Dist.Bengaluru, Karnataka",8069033781,480
Blue Rectangular Baby Cotton carry bed,https://www.indiamart.com/proddetail/baby-cotton-carry-bed-23241115555.html?pos=152&kwd=baby carry bed&tags=CC||||8668.838|Price|product|||NA|rsf:gd-|-stype:attr=1|qr_nm:gd|res:RC4|com-cf:nl|ptrs:na|ktp:N0|mc:182353|mtp:S|qry_typ:P|lang:en|wc:3|cs:8887|v=4,Nowfa Traders,https://www.indiamart.com/nowfa-traders/?pos=152&kwd=baby carry bed&tags=CC||||8668.838|Price|product|||NA|rsf:gd-|-stype:attr=1|qr_nm:gd|res:RC4|com-cf:nl|ptrs:na|ktp:N0|mc:182353|mtp:S|qry_typ:P|lang:en|wc:3|cs:8887|v=4,False,,Erode,"112/4, Janaki Ammal Layout, Karungalpalayam, Erode - 638003, Dist.Erode, Tamil Nadu",8047835044,
Kids Wall Bed,https://www.indiamart.com/proddetail/kids-wall-bed-12029284230.html?pos=153&kwd=baby carry bed&tags=||||8307.81|Price|product|||TS|rsf:gd-|-stype:attr=1|qr_nm:gd|res:RC4|com-cf:nl|ptrs:na|ktp:N0|mc:182353|mtp:S|qry_typ:P|lang:en|wc:3|cs:8887|v=4,Spacemax Indoor Solutions Private Limited,https://www.indiamart.com/spacemax-indoor/?pos=153&kwd=baby carry bed&tags=||||8307.81|Price|product|||TS|rsf:gd-|-stype:attr=1|qr_nm:gd|res:RC4|com-cf:nl|ptrs:na|ktp:N0|mc:182353|mtp:S|qry_typ:P|lang:en|wc:3|cs:8887|v=4,False,Kharadi,Pune,"Shop No-4, Gagan Grant Bay Building, Block Sector-Kharadi, Grant Road, Kharadi, Pune - 411014, Dist.Pune, Maharashtra",8047645845,
"Single Kids Bunk Bed, Without Storage",https://www.indiamart.com/proddetail/kids-bunk-bed-2852421995230.html?pos=154&kwd=baby carry bed&tags=||||8752.144|Price|product|||TS|rsf:gd-|-stype:attr=1|qr_nm:gd|res:RC4|com-cf:nl|ptrs:na|ktp:N0|mc:182353|mtp:S|qry_typ:P|lang:en|wc:3|cs:8887|v=4,KS Creations,https://www.kscreations.net/?pos=154&kwd=baby carry bed&tags=||||8752.144|Price|product|||TS|rsf:gd-|-stype:attr=1|qr_nm:gd|res:RC4|com-cf:nl|ptrs:na|ktp:N0|mc:182353|mtp:S|qry_typ:P|lang:en|wc:3|cs:8887|v=4,False,Uttam Nagar,New Delhi,"A 31, Om Vihar Phase V, Uttam Nagar, New Delhi - 110059, Dist.Delhi, Delhi",7942534588,
"Black Metal Bunker Bed, For Hostel, Size: 6x3",https://www.indiamart.com/proddetail/metal-bunker-bed-22374693162.html?pos=155&kwd=baby carry bed&tags=||||8211.142|Price|product|||TS|rsf:gd-|-stype:attr=1|qr_nm:gd|res:RC4|com-cf:nl|ptrs:na|ktp:N0|mc:182353|mtp:S|qry_typ:P|lang:en|wc:3|cs:8887|v=4,Super Enterprises,https://www.super-enterprises.in/?pos=155&kwd=baby carry bed&tags=||||8211.142|Price|product|||TS|rsf:gd-|-stype:attr=1|qr_nm:gd|res:RC4|com-cf:nl|ptrs:na|ktp:N0|mc:182353|mtp:S|qry_typ:P|lang:en|wc:3|cs:8887|v=4,False,Kandivali West,Mumbai,"Gala No 25, Kandivali West, Mumbai - 401208, Dist.Mumbai, Maharashtra",7942551131,
Mild Steel Plastic Bed,https://www.indiamart.com/proddetail/plastic-bed-2849319308173.html?pos=156&kwd=baby carry bed&tags=||||8752.144|Price|product|||TS|rsf:gd-|-stype:attr=1|qr_nm:gd|res:RC4|com-cf:nl|ptrs:na|ktp:N0|mc:182353|mtp:S|qry_typ:P|lang:en|wc:3|cs:8887|v=4,S R International,https://www.passionplay.co.in/?pos=156&kwd=baby carry bed&tags=||||8752.144|Price|product|||TS|rsf:gd-|-stype:attr=1|qr_nm:gd|res:RC4|com-cf:nl|ptrs:na|ktp:N0|mc:182353|mtp:S|qry_typ:P|lang:en|wc:3|cs:8887|v=4,False,Jhandewalan,New Delhi,"Shop No. 83 A, Dda Cycle Market, Jhandewalan, West Delhi, Jhandewalan, New Delhi - 110055, Dist.Delhi, Delhi",7942785838,
"Maayaar Metal Kids Bunk Beds, For Home, Size: 2'x4'x54",https://www.indiamart.com/proddetail/kids-bunk-beds-22052025048.html?pos=157&kwd=baby carry bed&tags=||||8752.144|Price|product|||TS|rsf:gd-|-stype:attr=1|qr_nm:gd|res:RC4|com-cf:nl|ptrs:na|ktp:N0|mc:182353|mtp:S|qry_typ:P|lang:en|wc:3|cs:8887|v=4,Maayaar Engineers & Constructions Private Limited,https://www.indiamart.com/maayaar-engineers-constructions/?pos=157&kwd=baby carry bed&tags=||||8752.144|Price|product|||TS|rsf:gd-|-stype:attr=1|qr_nm:gd|res:RC4|com-cf:nl|ptrs:na|ktp:N0|mc:182353|mtp:S|qry_typ:P|lang:en|wc:3|cs:8887|v=4,False,,New Delhi,"B-79, Basement, Okhla Industrial Area Phase-2, New Delhi - 110020, Dist.Delhi, Delhi",8047670290,
Blue Single Stackable Daycare Bed,https://www.indiamart.com/proddetail/stackable-daycare-bed-22381522448.html?pos=158&kwd=baby carry bed&tags=||||8752.144|Price|product|||TS|rsf:gd-|-stype:attr=1|qr_nm:gd|res:RC4|com-cf:nl|ptrs:na|ktp:N0|mc:182353|mtp:S|qry_typ:P|lang:en|wc:3|cs:8887|v=4,Rudram International,https://www.adiplayindia.com/?pos=158&kwd=baby carry bed&tags=||||8752.144|Price|product|||TS|rsf:gd-|-stype:attr=1|qr_nm:gd|res:RC4|com-cf:nl|ptrs:na|ktp:N0|mc:182353|mtp:S|qry_typ:P|lang:en|wc:3|cs:8887|v=4,False,Bawana,New Delhi,"KH NO. 154 / 345 , Part 3 Village pooth khurd, Bawana, New Delhi - 110039, Dist.Delhi, Delhi",7942548502,
Single Kids Wooden Bunk Bed,https://www.indiamart.com/proddetail/kids-wooden-bunk-bed-2852058270962.html?pos=159&kwd=baby carry bed&tags=||||8752.144|Price|product|||TS|rsf:gd-|-stype:attr=1|qr_nm:gd|res:RC4|com-cf:nl|ptrs:na|ktp:N0|mc:182353|mtp:S|qry_typ:P|lang:en|wc:3|cs:8887|v=4,Glorious Enterprises,https://www.indiamart.com/glorious-enterprises-newdelhi/?pos=159&kwd=baby carry bed&tags=||||8752.144|Price|product|||TS|rsf:gd-|-stype:attr=1|qr_nm:gd|res:RC4|com-cf:nl|ptrs:na|ktp:N0|mc:182353|mtp:S|qry_typ:P|lang:en|wc:3|cs:8887|v=4,False,,New Delhi,"C-116, 2nd Floor, Block-C, Rohini, Sector-1, New Delhi - 110085, Dist.Delhi, Delhi",8043853647,
"Single Twin over Twin Kids Blue Double Bunk Bed, With Storage",https://www.indiamart.com/proddetail/twin-over-twin-kids-blue-double-bunk-bed-2849364847691.html?pos=160&kwd=baby carry bed&tags=||||8584.299|Price|product|||TS|rsf:gd-|-stype:attr=1|qr_nm:gd|res:RC4|com-cf:nl|ptrs:na|ktp:N0|mc:182353|mtp:S|qry_typ:P|lang:en|wc:3|cs:8887|v=4,Kidomate Retail India Private Limited,https://www.indiamart.com/kidomateretailindia/?pos=160&kwd=baby carry bed&tags=||||8584.299|Price|product|||TS|rsf:gd-|-stype:attr=1|qr_nm:gd|res:RC4|com-cf:nl|ptrs:na|ktp:N0|mc:182353|mtp:S|qry_typ:P|lang:en|wc:3|cs:8887|v=4,False,Chinnavedampatty,Coimbatore,"411, Thadagam Road, R.S. Puram,, Chinnavedampatty, Coimbatore - 641002, Dist.Coimbatore, Tamil Nadu",7942785795,
Imported Blue F828 Stackable Bed,https://www.indiamart.com/proddetail/f828-stackable-bed-18072066391.html?pos=161&kwd=baby carry bed&tags=||||8752.144|Price|product|||TS|rsf:gd-|-stype:attr=1|qr_nm:gd|res:RC4|com-cf:nl|ptrs:na|ktp:N0|mc:182353|mtp:S|qry_typ:P|lang:en|wc:3|cs:8887|v=4,Toy Park Delhi Private Limited,https://www.toypark.co.in/?pos=161&kwd=baby carry bed&tags=||||8752.144|Price|product|||TS|rsf:gd-|-stype:attr=1|qr_nm:gd|res:RC4|com-cf:nl|ptrs:na|ktp:N0|mc:182353|mtp:S|qry_typ:P|lang:en|wc:3|cs:8887|v=4,False,Karol Bagh,New Delhi,"No. 17A/56, W.E.A, Karol Bagh, Near Metro Pillar 98-99, Karol Bagh, New Delhi - 110005, Dist.Delhi, Delhi",8046052967,
"Double Mild Steel Bunk Beds, Without Storage, Suitable For: Kids & Adults",https://www.indiamart.com/proddetail/mild-steel-bunk-beds-2852814433648.html?pos=162&kwd=baby carry bed&tags=||||8302.941|Price|product|||TS|rsf:gd-|-stype:attr=1|qr_nm:gd|res:RC4|com-cf:nl|ptrs:na|ktp:N0|mc:182353|mtp:S|qry_typ:P|lang:en|wc:3|cs:8887|v=4,Fernicon Engineering,https://www.fernicon.com/?pos=162&kwd=baby carry bed&tags=||||8302.941|Price|product|||TS|rsf:gd-|-stype:attr=1|qr_nm:gd|res:RC4|com-cf:nl|ptrs:na|ktp:N0|mc:182353|mtp:S|qry_typ:P|lang:en|wc:3|cs:8887|v=4,False,Pawar Vasti,Pimpri Chinchwad,"Shanti complex industries, Akurdi road, Sane chouk(Pune) Pune, Pawar Vasti, Pimpri Chinchwad - 412114, Maharashtra",8043891769,
"Double Iron Hostel Bunk Bed, Suitable For: Kids, Without Storage",https://www.indiamart.com/proddetail/hostel-bunk-bed-24914972162.html?pos=163&kwd=baby carry bed&tags=||||8281.036|Price|product|||TS|rsf:gd-|-stype:attr=1|qr_nm:gd|res:RC4|com-cf:nl|ptrs:na|ktp:N0|mc:182353|mtp:S|qry_typ:P|lang:en|wc:3|cs:8887|v=4,Cooling Zone,https://www.indiamart.com/coolingzone-vadodara/?pos=163&kwd=baby carry bed&tags=||||8281.036|Price|product|||TS|rsf:gd-|-stype:attr=1|qr_nm:gd|res:RC4|com-cf:nl|ptrs:na|ktp:N0|mc:182353|mtp:S|qry_typ:P|lang:en|wc:3|cs:8887|v=4,False,Balaji Nagar,Vadodara,"132 Sai Krupa Society,Near Amit Nagar Circle Vip Road, Balaji Nagar, Vadodara - 390018, Dist.Vadodara, Gujarat",8048274991,
Cotton Full Work Baby Carry Bed,https://www.indiamart.com/proddetail/full-work-baby-carry-bed-2853609374262.html?pos=164&kwd=baby carry bed&tags=CC||||8230.883|Price|product|||NA|rsf:gd-|-stype:attr=1|qr_nm:gd|res:RC4|com-cf:nl|ptrs:na|ktp:N0|mc:182353|mtp:S|qry_typ:P|lang:en|wc:3|cs:8887|v=4,Glamica,https://www.indiamart.com/glamica/?pos=164&kwd=baby carry bed&tags=CC||||8230.883|Price|product|||NA|rsf:gd-|-stype:attr=1|qr_nm:gd|res:RC4|com-cf:nl|ptrs:na|ktp:N0|mc:182353|mtp:S|qry_typ:P|lang:en|wc:3|cs:8887|v=4,False,,Surat,"F-503 Near Nayara Petrol Pump, Surat - 395013, Dist.Surat, Gujarat",7949361651,
"Printed Pink Cotton Baby Carry Bed, 4Kg",https://www.indiamart.com/proddetail/pink-cotton-baby-carry-bed-2852543385191.html?pos=165&kwd=baby carry bed&tags=CC||||8717.056|Price|product|||NA|rsf:gd-|-stype:attr=1|qr_nm:gd|res:RC4|com-cf:nl|ptrs:na|ktp:N0|mc:182353|mtp:S|qry_typ:P|lang:en|wc:3|cs:8887|v=4,Sri Bharani Silks,https://www.indiamart.com/sri-bharani-silks/?pos=165&kwd=baby carry bed&tags=CC||||8717.056|Price|product|||NA|rsf:gd-|-stype:attr=1|qr_nm:gd|res:RC4|com-cf:nl|ptrs:na|ktp:N0|mc:182353|mtp:S|qry_typ:P|lang:en|wc:3|cs:8887|v=4,False,,Salem,"145,1st Agraharam, Salem - 636001, Dist.Salem, Tamil Nadu",7942867808,
Baby Carry Bed,,Safa Creation,https://www.indiamart.com/safa-creation/?pos=166&kwd=baby carry bed&tags=CC||||8584.299||product|||NA|rsf:gd-|-stype:attr=1|qr_nm:gd|res:RC4|com-cf:nl|ptrs:na|ktp:N0|mc:182353|mtp:S|qry_typ:P|lang:en|wc:3|cs:8887|v=4,False,Podanur Main Road,Coimbatore,"36 C, Ground Floor Bharathi Nagar,, Podanur Main Road, Coimbatore - 641023, Dist.Coimbatore, Tamil Nadu",8047824349,
Unisex Kids Chillax Printed Hoodies Track Pant Set,https://www.indiamart.com/proddetail/kids-chillax-printed-hoodies-track-pant-set-2854036171030.html?pos=167&kwd=baby carry bed&tags=||||8230.883|Price|product|||TS|rsf:gd-|-stype:attr=1|qr_nm:gd|res:RC4|com-cf:nl|ptrs:na|ktp:N0|mc:182353|mtp:S|qry_typ:P|lang:en|wc:3|cs:8887|v=4,Jani Collection,https://www.indiamart.com/janicollection/?pos=167&kwd=baby carry bed&tags=||||8230.883|Price|product|||TS|rsf:gd-|-stype:attr=1|qr_nm:gd|res:RC4|com-cf:nl|ptrs:na|ktp:N0|mc:182353|mtp:S|qry_typ:P|lang:en|wc:3|cs:8887|v=4,False,Katargam,Surat,"H.No. F.F., Plot 30-31, Parsottam Nagar, Idghawad, B/h Manavdharam Ashram, Gotalawadi, Katargam, Surat - 395003, Dist.Surat, Gujarat",8044562060,
"Load Pillow Baby Mosquito Net Bed, Size: Small",https://www.indiamart.com/proddetail/load-pillow-baby-mosquito-net-bed-2854922953691.html?pos=168&kwd=baby carry bed&tags=||||8876.815|Price|product|||MDC|rsf:gd-|-stype:attr=1|qr_nm:gd|res:RC4|com-cf:nl|ptrs:na|ktp:N0|mc:182353|mtp:S|qry_typ:P|lang:en|wc:3|cs:8887|v=4,Good Luck Trading,https://www.indiamart.com/goodlucktrading-nagpur/?pos=168&kwd=baby carry bed&tags=||||8876.815|Price|product|||MDC|rsf:gd-|-stype:attr=1|qr_nm:gd|res:RC4|com-cf:nl|ptrs:na|ktp:N0|mc:182353|mtp:S|qry_typ:P|lang:en|wc:3|cs:8887|v=4,False,,Nagpur,"Plot No. 807, Dharamchaya Fawara Chowk Builing, Nikalas Mandir Road, Itwari, Nagpur - 440002, Dist.Nagpur, Maharashtra",8041014474,
"Cotton Baby Bed Mosquito Net, Size: Small",https://www.indiamart.com/proddetail/baby-bed-mosquito-net-2853530623791.html?pos=169&kwd=baby carry bed&tags=||||8752.144|Price|product|||MDC|rsf:gd-|-stype:attr=1|qr_nm:gd|res:RC4|com-cf:nl|ptrs:na|ktp:N0|mc:182353|mtp:S|qry_typ:P|lang:en|wc:3|cs:8887|v=4,Kalra Traders,https://www.indiamart.com/kalra-traders-delhi/?pos=169&kwd=baby carry bed&tags=||||8752.144|Price|product|||MDC|rsf:gd-|-stype:attr=1|qr_nm:gd|res:RC4|com-cf:nl|ptrs:na|ktp:N0|mc:182353|mtp:S|qry_typ:P|lang:en|wc:3|cs:8887|v=4,False,Hari Nagar,New Delhi,"6056/18, Ground Floor, Bari Market Sadar Bazar, Hari Nagar, New Delhi - 110006, Dist.Delhi, Delhi",7942797732,
Baby Bed,https://www.indiamart.com/proddetail/baby-bed-2853990049862.html?pos=170&kwd=baby carry bed&tags=CC||||8957.905|Price|product|||NA|rsf:gd-|-stype:attr=1|qr_nm:gd|res:RC4|com-cf:nl|ptrs:na|ktp:N0|mc:182353|mtp:S|qry_typ:P|lang:en|wc:3|cs:8887|v=4,Smart Shop,https://www.indiamart.com/smart-shop-chhatarpur/?pos=170&kwd=baby carry bed&tags=CC||||8957.905|Price|product|||NA|rsf:gd-|-stype:attr=1|qr_nm:gd|res:RC4|com-cf:nl|ptrs:na|ktp:N0|mc:182353|mtp:S|qry_typ:P|lang:en|wc:3|cs:8887|v=4,False,ward no7,Chhatarpur,"Ward No 07 House No 35 Chowk Bazar Road Shuklana smart shop chhatarpur, ward no7, Chhatarpur - 471001, Dist.Chhatarpur, Madhya Pradesh",8048372218,178
"White Baby Bed, Packaging Type: Bottle, Newly Born",https://www.indiamart.com/proddetail/baby-bed-2851534125197.html?pos=171&kwd=baby carry bed&tags=CC||||8492.468|Price|product|||NA|rsf:gd-|-stype:attr=1|qr_nm:gd|res:RC4|com-cf:nl|ptrs:na|ktp:N0|mc:182353|mtp:S|qry_typ:P|lang:en|wc:3|cs:8887|v=4,Pooram Eco Crafts,https://www.indiamart.com/pooram-eco-crafts/?pos=171&kwd=baby carry bed&tags=CC||||8492.468|Price|product|||NA|rsf:gd-|-stype:attr=1|qr_nm:gd|res:RC4|com-cf:nl|ptrs:na|ktp:N0|mc:182353|mtp:S|qry_typ:P|lang:en|wc:3|cs:8887|v=4,False,,Perinjanam,"Xiii/194 Vk Gopalan Rd. Perinjannam West, Perinjanam - 680686, Dist.Thrissur, Kerala",8062245969,630
"Shiva Enterprise Green Baby play bed, Packaging Type: Box, 1-2 Years",https://www.indiamart.com/proddetail/baby-play-bed-2849187048212.html?pos=172&kwd=baby carry bed&tags=CC||||8752.144|Price|product|||NA|rsf:gd-|-stype:attr=1|qr_nm:gd|res:RC4|com-cf:nl|ptrs:na|ktp:N0|mc:182353|mtp:S|qry_typ:P|lang:en|wc:3|cs:8887|v=4,Shiva Enterprises,https://www.indiamart.com/shivaenterprises-121428227/?pos=172&kwd=baby carry bed&tags=CC||||8752.144|Price|product|||NA|rsf:gd-|-stype:attr=1|qr_nm:gd|res:RC4|com-cf:nl|ptrs:na|ktp:N0|mc:182353|mtp:S|qry_typ:P|lang:en|wc:3|cs:8887|v=4,False,bank of baroda,New Delhi,"Mukhiya Market, Near Desu Office, New Delhi, karawal nagar north, bank of baroda, New Delhi - 110094, Dist.Delhi, Delhi",8069857305,884
Baby Travel Bed,https://www.indiamart.com/proddetail/baby-travel-bed-23038245888.html?pos=173&kwd=baby carry bed&tags=CC||||8954.051||product|||NA|rsf:gd-|-stype:attr=1|qr_nm:gd|res:RC4|com-cf:nl|ptrs:na|ktp:N0|mc:182353|mtp:S|qry_typ:P|lang:en|wc:3|cs:8887|v=4,Tinny Baby,https://www.indiamart.com/tinnybaby/?pos=173&kwd=baby carry bed&tags=CC||||8954.051||product|||NA|rsf:gd-|-stype:attr=1|qr_nm:gd|res:RC4|com-cf:nl|ptrs:na|ktp:N0|mc:182353|mtp:S|qry_typ:P|lang:en|wc:3|cs:8887|v=4,False,Mannadi,Chennai,"71/25/2,,mylappa street,ayanavaram 36/72, Savari Muthu St 1st Floor,600001,Chennai, Mannadi, Chennai - 600023, Dist.Chennai, Tamil Nadu",7942642958,
PM Surgie Care white Born Baby Bed,https://www.indiamart.com/proddetail/born-baby-bed-19837820488.html?pos=174&kwd=baby carry bed&tags=CC||||8614.257|Price|product|||NA|rsf:gd-|-stype:attr=1|qr_nm:gd|res:RC4|com-cf:nl|ptrs:na|ktp:N0|mc:182353|mtp:S|qry_typ:P|lang:en|wc:3|cs:8887|v=4,PM Surgie Care,https://www.indiamart.com/pm-surgie-care/?pos=174&kwd=baby carry bed&tags=CC||||8614.257|Price|product|||NA|rsf:gd-|-stype:attr=1|qr_nm:gd|res:RC4|com-cf:nl|ptrs:na|ktp:N0|mc:182353|mtp:S|qry_typ:P|lang:en|wc:3|cs:8887|v=4,False,,Padmanabhapuram,"3/32, Eluthankottukonam, Appattuvilai,, Padmanabhapuram - 629175, Dist.Kanyakumari, Tamil Nadu",8048950050,
Blue (Base) Polyester Baby Carrier Bed,https://www.indiamart.com/proddetail/baby-carrier-bed-2849176215712.html?pos=175&kwd=baby carry bed&tags=CC||||8584.299|Price|product|||NA|rsf:gd-|-stype:attr=1|qr_nm:gd|res:RC4|com-cf:nl|ptrs:na|ktp:N0|mc:182353|mtp:S|qry_typ:P|lang:en|wc:3|cs:8887|v=4,3I Innovations,https://www.indiamart.com/3iinnovations/?pos=175&kwd=baby carry bed&tags=CC||||8584.299|Price|product|||NA|rsf:gd-|-stype:attr=1|qr_nm:gd|res:RC4|com-cf:nl|ptrs:na|ktp:N0|mc:182353|mtp:S|qry_typ:P|lang:en|wc:3|cs:8887|v=4,False,,Coimbatore,"448, Bharathiyar Road, P.N. Palayam, Coimbatore - 641037, Dist.Coimbatore, Tamil Nadu",7942633263,
Polyester Blue Baby Travel Bed,https://www.indiamart.com/proddetail/baby-travel-bed-23158785655.html?pos=176&kwd=baby carry bed&tags=CC||||8752.144|Price|product|||NA|rsf:gd-|-stype:attr=1|qr_nm:gd|res:RC4|com-cf:nl|ptrs:na|ktp:N0|mc:182353|mtp:S|qry_typ:P|lang:en|wc:3|cs:8887|v=4,Stok International,https://www.indiamart.com/stokinternational/?pos=176&kwd=baby carry bed&tags=CC||||8752.144|Price|product|||NA|rsf:gd-|-stype:attr=1|qr_nm:gd|res:RC4|com-cf:nl|ptrs:na|ktp:N0|mc:182353|mtp:S|qry_typ:P|lang:en|wc:3|cs:8887|v=4,False,Harkesh Nagar,New Delhi,"C-64/5 Okhla Phase 2, Harkesh Nagar, New Delhi - 110020, Dist.Delhi, Delhi",8048974694,
Grandma Baby Safe Bed,https://www.indiamart.com/proddetail/grandma-baby-safe-bed-12979666655.html?pos=177&kwd=baby carry bed&tags=CC||||8584.299||product|||NA|rsf:gd-|-stype:attr=1|qr_nm:gd|res:RC4|com-cf:nl|ptrs:na|ktp:N0|mc:182353|mtp:S|qry_typ:P|lang:en|wc:3|cs:8887|v=4,Electron Controller,https://www.indiamart.com/electron-controller-coimbatore/?pos=177&kwd=baby carry bed&tags=CC||||8584.299||product|||NA|rsf:gd-|-stype:attr=1|qr_nm:gd|res:RC4|com-cf:nl|ptrs:na|ktp:N0|mc:182353|mtp:S|qry_typ:P|lang:en|wc:3|cs:8887|v=4,False,Singanallur,Coimbatore,"615, Telungu Street, Singanallur, Singanallur, Coimbatore - 641001, Dist.Coimbatore, Tamil Nadu",7942628474,
Pure Natural Cotton 450 Grams Bueno Baby Travelling Bed,https://www.indiamart.com/proddetail/bueno-baby-travelling-bed-22708242355.html?pos=178&kwd=baby carry bed&tags=CC||||8505.002||product|||NA|rsf:gd-|-stype:attr=1|qr_nm:gd|res:RC4|com-cf:nl|ptrs:na|ktp:N0|mc:182353|mtp:S|qry_typ:P|lang:en|wc:3|cs:8887|v=4,K.V.H. Bed Works,https://www.indiamart.com/kvh-bed-work/?pos=178&kwd=baby carry bed&tags=CC||||8505.002||product|||NA|rsf:gd-|-stype:attr=1|qr_nm:gd|res:RC4|com-cf:nl|ptrs:na|ktp:N0|mc:182353|mtp:S|qry_typ:P|lang:en|wc:3|cs:8887|v=4,False,Perinthalmanna,Perinthalmanna,"Vengoor Post, Keezhttur Village, Perinthalmanna, Perinthalmanna - 679325, Dist.Malappuram, Kerala",8047806530,
Foldable Cotton New Born Baby Carrying Bed,https://www.indiamart.com/proddetail/new-born-baby-carrying-bed-21790133312.html?pos=179&kwd=baby carry bed&tags=CC||||8690.605|Price|product|||NA|rsf:gd-|-stype:attr=1|qr_nm:gd|res:RC4|com-cf:nl|ptrs:na|ktp:N0|mc:182353|mtp:S|qry_typ:P|lang:en|wc:3|cs:8887|v=4,Inbam Healthcare,https://www.indiamart.com/inbamhealthcare/?pos=179&kwd=baby carry bed&tags=CC||||8690.605|Price|product|||NA|rsf:gd-|-stype:attr=1|qr_nm:gd|res:RC4|com-cf:nl|ptrs:na|ktp:N0|mc:182353|mtp:S|qry_typ:P|lang:en|wc:3|cs:8887|v=4,False,Sarojini Complex,Udangudi,"shop no 218f, Sarojini Complex Bus Stand Road, Sarojini Complex, Udangudi - 628203, Dist.Tuticorin, Tamil Nadu",8043847795,
Multipurpose 2 in 1 Baby Bed & Bag,https://www.indiamart.com/proddetail/multipurpose-2-in-1-baby-bed-bag-2849388371155.html?pos=180&kwd=baby carry bed&tags=CC||||8752.144|Price|product|||NA|rsf:gd-|-stype:attr=1|qr_nm:gd|res:RC4|com-cf:nl|ptrs:na|ktp:N0|mc:182353|mtp:S|qry_typ:P|lang:en|wc:3|cs:8887|v=4,House of Luxury( A brand of RV Retail ),https://www.indiamart.com/vivek-trading-co-delhi/?pos=180&kwd=baby carry bed&tags=CC||||8752.144|Price|product|||NA|rsf:gd-|-stype:attr=1|qr_nm:gd|res:RC4|com-cf:nl|ptrs:na|ktp:N0|mc:182353|mtp:S|qry_typ:P|lang:en|wc:3|cs:8887|v=4,False,Budh Vihar,New Delhi,"I 1/5 B, Budh Vihar, Phase 1, Budh Vihar, New Delhi - 110086, Dist.Delhi, Delhi",8047634723,
Hospital exary bed,,Sai Engineers And Fabrication,https://www.indiamart.com/sai-engg-fabrication/?pos=181&kwd=baby carry bed&tags=CC||||8307.81||product|||NA|rsf:gd-|-stype:attr=1|qr_nm:gd|res:RC4|com-cf:nl|ptrs:na|ktp:N0|mc:182353|mtp:S|qry_typ:P|lang:en|wc:3|cs:8887|v=4,False,Chinchwad,Pune,"Farmer Industrial Complex, Block No 119, Near Kandota Temple, Akurdi aakurdi chinchawad, Chinchwad, Pune - 411019, Dist.Pune, Maharashtra",8048371863,362
Many colours are available Unisex Baby Packers,https://www.indiamart.com/proddetail/baby-packers-24269465133.html?pos=182&kwd=baby carry bed&tags=CC||||8747.203|Price|product|||NA|rsf:gd-|-stype:attr=1|qr_nm:gd|res:RC4|com-cf:nl|ptrs:na|ktp:N0|mc:182353|mtp:S|qry_typ:P|lang:en|wc:3|cs:8887|v=4,Mahadev Enterprises,https://www.indiamart.com/baby-textile/?pos=182&kwd=baby carry bed&tags=CC||||8747.203|Price|product|||NA|rsf:gd-|-stype:attr=1|qr_nm:gd|res:RC4|com-cf:nl|ptrs:na|ktp:N0|mc:182353|mtp:S|qry_typ:P|lang:en|wc:3|cs:8887|v=4,False,Panipat,Panipat,"86/8 Khai Bahar Panipat, Panipat, Panipat - 132103, Dist.Panipat, Haryana",8062245085,309
"Multi Colored Cotton Baby Beds With Mosquito Net Size Small,Miduam And Large Available Wholesale",https://www.indiamart.com/proddetail/multi-colored-cotton-baby-beds-with-mosquito-net-size-small-miduam-and-large-available-wholesale-20839344673.html?pos=183&kwd=baby carry bed&tags=CC||||8663.873|Price|product|||NA|rsf:gd-|-stype:attr=1|qr_nm:gd|res:RC4|com-cf:nl|ptrs:na|ktp:N0|mc:182353|mtp:S|qry_typ:P|lang:en|wc:3|cs:8887|v=4,M.M. Marketing,https://www.indiamart.com/m-mmarketing/?pos=183&kwd=baby carry bed&tags=CC||||8663.873|Price|product|||NA|rsf:gd-|-stype:attr=1|qr_nm:gd|res:RC4|com-cf:nl|ptrs:na|ktp:N0|mc:182353|mtp:S|qry_typ:P|lang:en|wc:3|cs:8887|v=4,False,Chickpet,Bengaluru,"No. 17, 1st Floor, 12th Cross, Cubbonpet, Chickpet, Bengaluru - 560002, Dist.Bengaluru, Karnataka",8047677597,
"Iron Single Bed With Storage, Suitable For: Kids & Adults",https://www.indiamart.com/proddetail/single-bed-with-storage-2849389288262.html?pos=184&kwd=baby carry bed&tags=||||8786.56|Price|product|||TS|rsf:gd-|-stype:attr=1|qr_nm:gd|res:RC4|com-cf:nl|ptrs:na|ktp:N0|mc:182353|mtp:S|qry_typ:P|lang:en|wc:3|cs:8887|v=4,A To Z Steel Works,https://www.atozsteelworks.com/?pos=184&kwd=baby carry bed&tags=||||8786.56|Price|product|||TS|rsf:gd-|-stype:attr=1|qr_nm:gd|res:RC4|com-cf:nl|ptrs:na|ktp:N0|mc:182353|mtp:S|qry_typ:P|lang:en|wc:3|cs:8887|v=4,False,Karwan,Hyderabad,"mallepally, Karwan, Hyderabad - 500006, Dist.Hyderabad, Telangana",8048977326,
Single Wooden Kids Bed,https://www.indiamart.com/proddetail/kids-bed-2854857633433.html?pos=185&kwd=baby carry bed&tags=||||8307.81||product|||TS|rsf:gd-|-stype:attr=1|qr_nm:gd|res:RC4|com-cf:nl|ptrs:na|ktp:N0|mc:182353|mtp:S|qry_typ:P|lang:en|wc:3|cs:8887|v=4,Kohinoor Furniture,https://www.kohinoorfurniture.in/?pos=185&kwd=baby carry bed&tags=||||8307.81||product|||TS|rsf:gd-|-stype:attr=1|qr_nm:gd|res:RC4|com-cf:nl|ptrs:na|ktp:N0|mc:182353|mtp:S|qry_typ:P|lang:en|wc:3|cs:8887|v=4,False,Bavdhan,Pune,"S NO 20/3/3 20/3/5 20/3/6A 20/3/9 20/3/10A,ZIENNEA,SHOP NO 11 Sr No. 20/3/3, Bavdhan, Bavdhan, Pune - 411021, Dist.Pune, Maharashtra",8048602619,
"Double Metal Bunk Bed with storage, Suitable For: Kids & Adults",https://www.indiamart.com/proddetail/bunk-bed-with-storage-2850572321291.html?pos=186&kwd=baby carry bed&tags=||||8307.81|Price|product|||TS|rsf:gd-|-stype:attr=1|qr_nm:gd|res:RC4|com-cf:nl|ptrs:na|ktp:N0|mc:182353|mtp:S|qry_typ:P|lang:en|wc:3|cs:8887|v=4,Royal School Furniture Industry,https://www.indiamart.com/royal-school-furniture-industry/?pos=186&kwd=baby carry bed&tags=||||8307.81|Price|product|||TS|rsf:gd-|-stype:attr=1|qr_nm:gd|res:RC4|com-cf:nl|ptrs:na|ktp:N0|mc:182353|mtp:S|qry_typ:P|lang:en|wc:3|cs:8887|v=4,False,DONJE,Pune,"Sr. No. 135, 2B, Yashodeep Society, NDA Road, DONJE, Pune - 411058, Dist.Pune, Maharashtra",7942672062,
2 Seater Engineered Wood Wooden Diwan Kids Bed,https://www.indiamart.com/proddetail/wooden-diwan-kids-bed-23806237012.html?pos=187&kwd=baby carry bed&tags=||||8663.873|Price|product|||TS|rsf:gd-|-stype:attr=1|qr_nm:gd|res:RC4|com-cf:nl|ptrs:na|ktp:N0|mc:182353|mtp:S|qry_typ:P|lang:en|wc:3|cs:8887|v=4,S.B Wooden & Steel Industries,https://www.indiamart.com/sbwoodenandsteelindustries/?pos=187&kwd=baby carry bed&tags=||||8663.873|Price|product|||TS|rsf:gd-|-stype:attr=1|qr_nm:gd|res:RC4|com-cf:nl|ptrs:na|ktp:N0|mc:182353|mtp:S|qry_typ:P|lang:en|wc:3|cs:8887|v=4,False,Wilson Garden,Bengaluru,"10/8, 2nd Floor, J C Road, 1st Cross Firewoks Colony, Opp Anjuman Vinobanagar, Wilson Garden, Bengaluru - 560027, Dist.Bengaluru, Karnataka",7942799292,
"Baby Cotton Carry Nest Sleeping Bag, 3 Month",https://www.indiamart.com/proddetail/baby-cotton-carry-nest-sleeping-bag-2855017246830.html?pos=188&kwd=baby carry bed&tags=||||8752.144|Price|product|||MDC|rsf:gd-|-stype:attr=1|qr_nm:gd|res:RC4|com-cf:nl|ptrs:na|ktp:N0|mc:182353|mtp:S|qry_typ:P|lang:en|wc:3|cs:8887|v=4,A.S.Enterprises,https://www.indiamart.com/a-senterprisesdelhi-india/?pos=188&kwd=baby carry bed&tags=||||8752.144|Price|product|||MDC|rsf:gd-|-stype:attr=1|qr_nm:gd|res:RC4|com-cf:nl|ptrs:na|ktp:N0|mc:182353|mtp:S|qry_typ:P|lang:en|wc:3|cs:8887|v=4,False,,New Delhi,"G F, 816, Pan Mandi, Near Press Street Sadar Bazar Area, Central Delhi, New Delhi - 110006, Dist.Delhi, Delhi",7942537259,
"Cotton Red Baby Sleeping Bag Cum Baby Carry Bag, Newly Born",https://www.indiamart.com/proddetail/baby-sleeping-bag-cum-baby-carry-bag-2854946166648.html?pos=189&kwd=baby carry bed&tags=||||8230.883|Price|product|||MDC|rsf:gd-|-stype:attr=1|qr_nm:gd|res:RC4|com-cf:nl|ptrs:na|ktp:N0|mc:182353|mtp:S|qry_typ:P|lang:en|wc:3|cs:8887|v=4,Whopssy International,https://www.indiamart.com/whopssy-international/?pos=189&kwd=baby carry bed&tags=||||8230.883|Price|product|||MDC|rsf:gd-|-stype:attr=1|qr_nm:gd|res:RC4|com-cf:nl|ptrs:na|ktp:N0|mc:182353|mtp:S|qry_typ:P|lang:en|wc:3|cs:8887|v=4,False,,Surat,"First Floor, Plot No. 377, Ram Vatika V-2, Near Rangoli Chowkdi, Sayan Road, Velenja Gam, Sayan, Surat - 394150, Dist.Surat, Gujarat",7949340041,
"PANDA Plastic & Soft Colth Baby Carry Cot, Yes",https://www.indiamart.com/proddetail/baby-carry-cot-20830683791.html?pos=190&kwd=baby carry bed&tags=||||8752.144|Price|product|||TS|rsf:gd-|-stype:attr=1|qr_nm:gd|res:RC4|com-cf:nl|ptrs:na|ktp:N0|mc:182353|mtp:S|qry_typ:P|lang:en|wc:3|cs:8887|v=4,Gupta Plastic Works,https://www.indiamart.com/guptaplasticworks/?pos=190&kwd=baby carry bed&tags=||||8752.144|Price|product|||TS|rsf:gd-|-stype:attr=1|qr_nm:gd|res:RC4|com-cf:nl|ptrs:na|ktp:N0|mc:182353|mtp:S|qry_typ:P|lang:en|wc:3|cs:8887|v=4,False,Azadpur,New Delhi,"A-80/1, G.T. Karnal Road, Industrial Area, Azadpur, New Delhi - 110033, Dist.Delhi, Delhi",8046032300,
"Twin Over Full Mild Steel Bunk Bed For Home, Without Storage, Suitable For: Kids & Adults",https://www.indiamart.com/proddetail/bunk-bed-for-home-25300067548.html?pos=191&kwd=baby carry bed&tags=||||8954.051|Price|product|||TS|rsf:gd-|-stype:attr=1|qr_nm:gd|res:RC4|com-cf:nl|ptrs:na|ktp:N0|mc:182353|mtp:S|qry_typ:P|lang:en|wc:3|cs:8887|v=4,ADJ Industries,https://www.adjindustries.in/?pos=191&kwd=baby carry bed&tags=||||8954.051|Price|product|||TS|rsf:gd-|-stype:attr=1|qr_nm:gd|res:RC4|com-cf:nl|ptrs:na|ktp:N0|mc:182353|mtp:S|qry_typ:P|lang:en|wc:3|cs:8887|v=4,False,Hasthinapuram,Chennai,"Shop No:A,82 ,M C Nagar 1st Main Road Hasthinapuram Chennai-600064, Hasthinapuram, Chennai - 600064, Dist.Chennai, Tamil Nadu",8045910881,
"Iron Single Metal Bunk Bed, Without Storage, Suitable For: Kids & Adults",https://www.indiamart.com/proddetail/metal-bunk-bed-2851922753655.html?pos=192&kwd=baby carry bed&tags=||||8954.051|Price|product|||TS|rsf:gd-|-stype:attr=1|qr_nm:gd|res:RC4|com-cf:nl|ptrs:na|ktp:N0|mc:182353|mtp:S|qry_typ:P|lang:en|wc:3|cs:8887|v=4,My Mom Enterprises,https://www.mymomenterprises.com/?pos=192&kwd=baby carry bed&tags=||||8954.051|Price|product|||TS|rsf:gd-|-stype:attr=1|qr_nm:gd|res:RC4|com-cf:nl|ptrs:na|ktp:N0|mc:182353|mtp:S|qry_typ:P|lang:en|wc:3|cs:8887|v=4,False,Gerugambakkam,Chennai,"First Floor, No.P 184/15, Anna Street, Gerugambakkam, Chengalpattu, Gerugambakkam, Chennai - 600128, Dist.Chennai, Tamil Nadu",7942874592,
"Single Twin Overful Bunk Bed, Suitable For: Kids & Adults, Without Storage",https://www.indiamart.com/proddetail/twin-overful-bunk-bed-25271673888.html?pos=193&kwd=baby carry bed&tags=||||8559.269|Price|product|||TS|rsf:gd-|-stype:attr=1|qr_nm:gd|res:RC4|com-cf:nl|ptrs:na|ktp:N0|mc:182353|mtp:S|qry_typ:P|lang:en|wc:3|cs:8887|v=4,Life Time Furniture,https://www.indiamart.com/life-time-furnitureindore/?pos=193&kwd=baby carry bed&tags=||||8559.269|Price|product|||TS|rsf:gd-|-stype:attr=1|qr_nm:gd|res:RC4|com-cf:nl|ptrs:na|ktp:N0|mc:182353|mtp:S|qry_typ:P|lang:en|wc:3|cs:8887|v=4,False,Azad Nagar,Indore,"New 110, Old 58, Aazad Nagar, Musakhedi Main Road, Azad Nagar, Indore - 452001, Dist.Indore, Madhya Pradesh",8047314097,
"Bedroom Interior Kids Designer Bed, Work Provided: Wood Work & Furniture",https://www.indiamart.com/proddetail/kids-designer-bed-22973196091.html?pos=194&kwd=baby carry bed&tags=||||8228.275|Price|product|||TS|rsf:gd-|-stype:attr=1|qr_nm:gd|res:RC4|com-cf:nl|ptrs:na|ktp:N0|mc:182353|mtp:S|qry_typ:P|lang:en|wc:3|cs:8887|v=4,Window Harmony,https://www.windowsharmony.com/?pos=194&kwd=baby carry bed&tags=||||8228.275|Price|product|||TS|rsf:gd-|-stype:attr=1|qr_nm:gd|res:RC4|com-cf:nl|ptrs:na|ktp:N0|mc:182353|mtp:S|qry_typ:P|lang:en|wc:3|cs:8887|v=4,False,2 FIRST FLOOR DHANRAJ COMPLEX,Ahmedabad,"Sarkhej Ujjala circle Dhanraj Complex,, 2 FIRST FLOOR DHANRAJ COMPLEX, Ahmedabad - 380001, Dist.Ahmedabad, Gujarat",8048263680,
"Multicolor Polyster Baby Carrier Bag, Age Group: 3-12 Months",https://www.indiamart.com/proddetail/baby-carrier-bag-2853262393812.html?pos=195&kwd=baby carry bed&tags=||||8752.144|Price|product|||TS|rsf:gd-|-stype:attr=1|qr_nm:gd|res:RC4|com-cf:nl|ptrs:na|ktp:N0|mc:182353|mtp:S|qry_typ:P|lang:en|wc:3|cs:8887|v=4,NV Enterprises,https://www.indiamart.com/nventerprise-delhi/?pos=195&kwd=baby carry bed&tags=||||8752.144|Price|product|||TS|rsf:gd-|-stype:attr=1|qr_nm:gd|res:RC4|com-cf:nl|ptrs:na|ktp:N0|mc:182353|mtp:S|qry_typ:P|lang:en|wc:3|cs:8887|v=4,False,Shastri Nagar,New Delhi,"D 148, Street No. 2, Swaroop Nagar, Shastri Nagar, New Delhi - 110052, Dist.Delhi, Delhi",7942543916,
"Cotton Multicolor Premium Quality Handblock Printed Bedding Set, Size: Double",https://www.indiamart.com/proddetail/premium-quality-handblock-printed-bedding-set-2853318463562.html?pos=196&kwd=baby carry bed&tags=||||8601.347|Price|product|||TS|rsf:gd-|-stype:attr=1|qr_nm:gd|res:RC4|com-cf:nl|ptrs:na|ktp:N0|mc:182353|mtp:S|qry_typ:P|lang:en|wc:3|cs:8887|v=4,Indus Art And Emporium,https://www.indusart.in/?pos=196&kwd=baby carry bed&tags=||||8601.347|Price|product|||TS|rsf:gd-|-stype:attr=1|qr_nm:gd|res:RC4|com-cf:nl|ptrs:na|ktp:N0|mc:182353|mtp:S|qry_typ:P|lang:en|wc:3|cs:8887|v=4,True,Mansarovar,Jaipur,"H/3, First Floor, RIICO Industrial Area, Mansarovar, Jaipur - 302020, Dist.Jaipur, Rajasthan",8048956816,
Zip Multi Colour Plain Single bed Mosquito Net,https://www.indiamart.com/proddetail/multi-colour-plain-single-bed-mosquito-net-2849455904133.html?pos=197&kwd=baby carry bed&tags=||||8939.562|Price|product|||TS|rsf:gd-|-stype:attr=1|qr_nm:gd|res:RC4|com-cf:nl|ptrs:na|ktp:N0|mc:182353|mtp:S|qry_typ:P|lang:en|wc:3|cs:8887|v=4,Sami Enterprises,https://www.samimosquitonet.com/?pos=197&kwd=baby carry bed&tags=||||8939.562|Price|product|||TS|rsf:gd-|-stype:attr=1|qr_nm:gd|res:RC4|com-cf:nl|ptrs:na|ktp:N0|mc:182353|mtp:S|qry_typ:P|lang:en|wc:3|cs:8887|v=4,False,,Rampur,"Bazar Nasrulla Khan, Rampur - 244901, Uttar Pradesh",8043806758,
Baby Net Bed,https://www.indiamart.com/proddetail/baby-net-bed-18133544773.html?pos=198&kwd=baby carry bed&tags=||||8584.299|Price|product|||TS|rsf:gd-|-stype:attr=1|qr_nm:gd|res:RC4|com-cf:nl|ptrs:na|ktp:N0|mc:182353|mtp:S|qry_typ:P|lang:en|wc:3|cs:8887|v=4,Sag Industries,https://www.sagbabygro.com/?pos=198&kwd=baby carry bed&tags=||||8584.299|Price|product|||TS|rsf:gd-|-stype:attr=1|qr_nm:gd|res:RC4|com-cf:nl|ptrs:na|ktp:N0|mc:182353|mtp:S|qry_typ:P|lang:en|wc:3|cs:8887|v=4,False,Ashok Nagar,Coimbatore,"59,,SRI KRISHNA NAGAR,CHOKKAMPUDUR ROAD, Ashok Nagar, Coimbatore - 641001, Dist.Coimbatore, Tamil Nadu",8048959921,
Blue Plastic DASH STAR CARRY COT Care 7 in 1 Baby Cozy Carry Cot,https://www.indiamart.com/proddetail/dash-star-carry-cot-care-7-in-1-baby-cozy-carry-cot-25739430255.html?pos=199&kwd=baby carry bed&tags=||||8752.144|Price|product|||TS|rsf:gd-|-stype:attr=1|qr_nm:gd|res:RC4|com-cf:nl|ptrs:na|ktp:N0|mc:182353|mtp:S|qry_typ:P|lang:en|wc:3|cs:8887|v=4,Ashish Trading Co.,https://www.indiamart.com/ashish-trading/?pos=199&kwd=baby carry bed&tags=||||8752.144|Price|product|||TS|rsf:gd-|-stype:attr=1|qr_nm:gd|res:RC4|com-cf:nl|ptrs:na|ktp:N0|mc:182353|mtp:S|qry_typ:P|lang:en|wc:3|cs:8887|v=4,False,Shalimar Bagh,New Delhi,"BC- 67 A, East Shalimar Bagh, Kela Godown Road Shalimar, Shalimar Bagh, New Delhi - 110088, Dist.Delhi, Delhi",8048979347,
Baby Bed,https://www.indiamart.com/proddetail/baby-bed-2853990049862.html?pos=200&kwd=baby carry bed&tags=CC||||8957.905|Price|product|||NA|rsf:gd-|-stype:attr=1|qr_nm:gd|res:RC4|com-cf:nl|ptrs:na|ktp:N0|mc:182353|mtp:S|qry_typ:P|lang:en|wc:3|cs:8887|v=4,Smart Shop,https://www.indiamart.com/smart-shop-chhatarpur/?pos=200&kwd=baby carry bed&tags=CC||||8957.905|Price|product|||NA|rsf:gd-|-stype:attr=1|qr_nm:gd|res:RC4|com-cf:nl|ptrs:na|ktp:N0|mc:182353|mtp:S|qry_typ:P|lang:en|wc:3|cs:8887|v=4,False,ward no7,Chhatarpur,"Ward No 07 House No 35 Chowk Bazar Road Shuklana smart shop chhatarpur, ward no7, Chhatarpur - 471001, Dist.Chhatarpur, Madhya Pradesh",8048372218,178
Blue & White Cotton 3D Mesh Baby Wraps Carrier,https://www.indiamart.com/proddetail/3d-mesh-baby-wraps-carrier-2852154884197.html?pos=201&kwd=baby carry bed&tags=||||8230.883|Price|product|||TS|rsf:gd-|-stype:attr=1|qr_nm:gd|res:RC4|com-cf:nl|ptrs:na|ktp:N0|mc:182353|mtp:S|qry_typ:P|lang:en|wc:3|cs:8887|v=4,Trendeasy,https://www.indiamart.com/trendeasy/?pos=201&kwd=baby carry bed&tags=||||8230.883|Price|product|||TS|rsf:gd-|-stype:attr=1|qr_nm:gd|res:RC4|com-cf:nl|ptrs:na|ktp:N0|mc:182353|mtp:S|qry_typ:P|lang:en|wc:3|cs:8887|v=4,False,Katargam,Surat,"Flat No. E/108, 1st Floor, Suman Sath, Ews-14, B/S Ambyvalley Heights, Utran, Katargam, Surat - 394101, Dist.Surat, Gujarat",8048272248,
Baby Mosquito Net Bed,,Swing 'N' Fly (A Brand of Zen Marketing),https://www.indiamart.com/zenmarketing-sahibabad/?pos=202&kwd=baby carry bed&tags=||||8752.144|Price|product|||TS|rsf:gd-|-stype:attr=1|qr_nm:gd|res:RC4|com-cf:nl|ptrs:na|ktp:N0|mc:182353|mtp:S|qry_typ:P|lang:en|wc:3|cs:8887|v=4,False,Alipur,New Delhi,"Ground Floor, Kh No 55/17/2, Pawan Triveni Colony, Village Bakhtawarpur triveni colony, Alipur, New Delhi - 110036, Dist.Delhi, Delhi",7942559295,
Baby Carry Bag Without Box,,Inquantity,https://www.indiamart.com/inquantity/?pos=203&kwd=baby carry bed&tags=||||8752.144|Price|product|||TS|rsf:gd-|-stype:attr=1|qr_nm:gd|res:RC4|com-cf:nl|ptrs:na|ktp:N0|mc:182353|mtp:S|qry_typ:P|lang:en|wc:3|cs:8887|v=4,False,Shahdara,New Delhi,"1/6258, East Rohtash Nagar, Shahdara, Shahdara, New Delhi - 110032, Dist.Delhi, Delhi",,
"Single Metal Bunker Bed, Without Storage, Suitable For: Kids & Adults",https://www.indiamart.com/proddetail/bunker-bed-27004804888.html?pos=204&kwd=baby carry bed&tags=||||8706.587|Price|product|||TS|rsf:gd-|-stype:attr=1|qr_nm:gd|res:RC4|com-cf:nl|ptrs:na|ktp:N0|mc:182353|mtp:S|qry_typ:P|lang:en|wc:3|cs:8887|v=4,V.M.A.Industry,https://www.vmaindustry.co.in/?pos=204&kwd=baby carry bed&tags=||||8706.587|Price|product|||TS|rsf:gd-|-stype:attr=1|qr_nm:gd|res:RC4|com-cf:nl|ptrs:na|ktp:N0|mc:182353|mtp:S|qry_typ:P|lang:en|wc:3|cs:8887|v=4,False,Mangulam,Madurai,"R.S.No.373/34, Plot No.12, Perungudi, Madurai, Perungudi, Mangulam, Madurai - 625022, Dist.Madurai, Tamil Nadu",7942560761,
"Polyester Baby Bed With Mosquito Net, Size: Medium",https://www.indiamart.com/proddetail/baby-bed-with-mosquito-net-2854013419033.html?pos=205&kwd=baby carry bed&tags=||||8752.144||product|||MDC|rsf:gd-|-stype:attr=1|qr_nm:gd|res:RC4|com-cf:nl|ptrs:na|ktp:N0|mc:182353|mtp:S|qry_typ:P|lang:en|wc:3|cs:8887|v=4,Topscotch Enterprises,https://www.indiamart.com/topscotch-enterprises-newdelhi/?pos=205&kwd=baby carry bed&tags=||||8752.144||product|||MDC|rsf:gd-|-stype:attr=1|qr_nm:gd|res:RC4|com-cf:nl|ptrs:na|ktp:N0|mc:182353|mtp:S|qry_typ:P|lang:en|wc:3|cs:8887|v=4,False,North Delhi,New Delhi,"Street No 7 BLKB, Kadipur Ground Floor Plot No 99-A,KH. No. 1311 Swaroop Vihar, North Delhi, New Delhi - 110036, Dist.Delhi, Delhi",8044564980,
"Hdpe Polybag Baby Mosquito Net, Size: Medium",https://www.indiamart.com/proddetail/baby-mosquito-net-22692793812.html?pos=206&kwd=baby carry bed&tags=CC||||8752.144|Price|product|||NA|rsf:gd-|-stype:attr=1|qr_nm:gd|res:RC4|com-cf:nl|ptrs:na|ktp:N0|mc:182353|mtp:S|qry_typ:P|lang:en|wc:3|cs:8887|v=4,Wadhwa Cloth House,https://www.indiamart.com/wadhwa-cloth-house-delhi/?pos=206&kwd=baby carry bed&tags=CC||||8752.144|Price|product|||NA|rsf:gd-|-stype:attr=1|qr_nm:gd|res:RC4|com-cf:nl|ptrs:na|ktp:N0|mc:182353|mtp:S|qry_typ:P|lang:en|wc:3|cs:8887|v=4,False,uttam nagar,New Delhi,"A1/14 MOHAN GARDEN, uttam nagar, New Delhi - 110059, Dist.Delhi, Delhi",8048371731,994
Pink (Base) Printed Cotton Baby Bedding Set,https://www.indiamart.com/proddetail/printed-cotton-baby-bedding-set-2850650074573.html?pos=207&kwd=baby carry bed&tags=||||8752.144|Price|product|||MDC|rsf:gd-|-stype:attr=1|qr_nm:gd|res:RC4|com-cf:nl|ptrs:na|ktp:N0|mc:182353|mtp:S|qry_typ:P|lang:en|wc:3|cs:8887|v=4,L T Textiles,https://www.indiamart.com/lttextiles/?pos=207&kwd=baby carry bed&tags=||||8752.144|Price|product|||MDC|rsf:gd-|-stype:attr=1|qr_nm:gd|res:RC4|com-cf:nl|ptrs:na|ktp:N0|mc:182353|mtp:S|qry_typ:P|lang:en|wc:3|cs:8887|v=4,False,Pahari Dhiraj,New Delhi,"5189-90 Main Road, Sadar Bazar, Pahari Dhiraj, New Delhi - 110006, Dist.Delhi, Delhi",7942958455,
Multicolor Rectangular MUSTARD SEEDS PILLOW FOR BORN BABY,https://www.indiamart.com/proddetail/mustard-seeds-pillow-for-born-baby-2849542403012.html?pos=208&kwd=baby carry bed&tags=||||8230.883|Price|product|||TS|rsf:gd-|-stype:attr=1|qr_nm:gd|res:RC4|com-cf:nl|ptrs:na|ktp:N0|mc:182353|mtp:S|qry_typ:P|lang:en|wc:3|cs:8887|v=4,Rozzby,https://www.cheaperzonetoys.com/?pos=208&kwd=baby carry bed&tags=||||8230.883|Price|product|||TS|rsf:gd-|-stype:attr=1|qr_nm:gd|res:RC4|com-cf:nl|ptrs:na|ktp:N0|mc:182353|mtp:S|qry_typ:P|lang:en|wc:3|cs:8887|v=4,False,Kosam,Surat,"1st Floor D-2,103 Vip Circle Shlok Recidency Utran, Kosam, Surat - 394105, Dist.Surat, Gujarat",8047622002,
IRA Snug Moses Basket,https://www.indiamart.com/proddetail/ira-snug-moses-basket-20736065448.html?pos=209&kwd=baby carry bed&tags=||||8254.475|Price|product|||TS|rsf:gd-|-stype:attr=1|qr_nm:gd|res:RC4|com-cf:nl|ptrs:na|ktp:N0|mc:182353|mtp:S|qry_typ:P|lang:en|wc:3|cs:8887|v=4,IRA Furniture,https://www.indiamart.com/irafurniture/?pos=209&kwd=baby carry bed&tags=||||8254.475|Price|product|||TS|rsf:gd-|-stype:attr=1|qr_nm:gd|res:RC4|com-cf:nl|ptrs:na|ktp:N0|mc:182353|mtp:S|qry_typ:P|lang:en|wc:3|cs:8887|v=4,False,Ashirwad Park,Bharuch,"Flat A1/ 901, Shyam Villa, Opposite Decor House, Ashirwad Park, Bharuch - 392001, Dist.Bharuch, Gujarat",8046058681,
Baby Bed Net,https://www.indiamart.com/proddetail/baby-bed-net-16117504148.html?pos=210&kwd=baby carry bed&tags=||||8752.144|Price|product|||TS|rsf:gd-|-stype:attr=1|qr_nm:gd|res:RC4|com-cf:nl|ptrs:na|ktp:N0|mc:182353|mtp:S|qry_typ:P|lang:en|wc:3|cs:8887|v=4,Surya Umbrella,https://www.suryaumbrella.com/?pos=210&kwd=baby carry bed&tags=||||8752.144|Price|product|||TS|rsf:gd-|-stype:attr=1|qr_nm:gd|res:RC4|com-cf:nl|ptrs:na|ktp:N0|mc:182353|mtp:S|qry_typ:P|lang:en|wc:3|cs:8887|v=4,False,Delhi Sadar Bazar,New Delhi,"Ground Floor, 998 Pan Mandi, Delhi Sadar Bazar, New Delhi - 110006, Dist.Delhi, Delhi",8048953754,
