product_title,product_link,company_name,company_link,is_verified_exporter,city_region,city,address_details,phone_number,phone_number_extension
"Bio Relief Oil, Grade Standard: A",https://www.indiamart.com/proddetail/bio-relief-oil-20271216348.html?pos=1&kwd=bio oil&tags=BA||||8740.707|Price|product|||TS|rsf:gd-|-stype:attr=1|qr_nm:gd|res:RC3|com-cf:nl|ptrs:na|ktp:N0|mc:105829|mtp:S|qry_typ:P|lang:en|wc:2|flavl:0|cs:9651|v=4,Lafiya Biotech,https://www.lafiyabiotech.com/?pos=1&kwd=bio oil&tags=BA||||8740.707|Price|product|||TS|rsf:gd-|-stype:attr=1|qr_nm:gd|res:RC3|com-cf:nl|ptrs:na|ktp:N0|mc:105829|mtp:S|qry_typ:P|lang:en|wc:2|flavl:0|cs:9651|v=4,False,Sector 63,Sas Nagar,"plot No 79 Phase 9 Industrial Area, Sector 63, Sas Nagar - 140603, Dist.Mohali, Punjab",8048609236,
"100ml Intense Repair Bio Hair Oil, Bottle",https://www.indiamart.com/proddetail/100ml-intense-repair-bio-hair-oil-2851227111688.html?pos=2&kwd=bio oil&tags=BA||||8681.79|Price|product|||MDC|rsf:gd-|-stype:attr=1|qr_nm:gd|res:RC3|com-cf:nl|ptrs:na|ktp:N0|mc:105829|mtp:S|qry_typ:P|lang:en|wc:2|flavl:0|cs:9651|v=4,Ayushman Ayurveda,https://www.indiamart.com/ayushmanayurveda/?pos=2&kwd=bio oil&tags=BA||||8681.79|Price|product|||MDC|rsf:gd-|-stype:attr=1|qr_nm:gd|res:RC3|com-cf:nl|ptrs:na|ktp:N0|mc:105829|mtp:S|qry_typ:P|lang:en|wc:2|flavl:0|cs:9651|v=4,False,Vikas Colony,Nabha,"115,Vikas Colony,Patiala, Vikas Colony, Nabha - 147201, Dist.Patiala, Punjab",7942831096,
"Bio Oil, Packaging Size: 60 Ml",https://www.indiamart.com/proddetail/bio-oil-23520969697.html?pos=3&kwd=bio oil&tags=BB||||8752.144||product|||NA|rsf:gd-|-stype:attr=1|qr_nm:gd|res:RC3|com-cf:nl|ptrs:na|ktp:N0|mc:105829|mtp:S|qry_typ:P|lang:en|wc:2|flavl:0|cs:9651|v=4,Amrit Pharma,https://www.indiamart.com/amrit-pharma-new-delhi/?pos=3&kwd=bio oil&tags=BB||||8752.144||product|||NA|rsf:gd-|-stype:attr=1|qr_nm:gd|res:RC3|com-cf:nl|ptrs:na|ktp:N0|mc:105829|mtp:S|qry_typ:P|lang:en|wc:2|flavl:0|cs:9651|v=4,False,,New Delhi,"663/8, GOVINDPURI Kalkaji, New Delhi - 110019, Dist.Delhi, Delhi",7942649275,
BIO OIL,https://www.indiamart.com/proddetail/bio-oil-19549556430.html?pos=4&kwd=bio oil&tags=BB||||8752.144||product|||NA|rsf:gd-|-stype:attr=1|qr_nm:gd|res:RC3|com-cf:nl|ptrs:na|ktp:N0|mc:105829|mtp:S|qry_typ:P|lang:en|wc:2|flavl:0|cs:9651|v=4,Jagdamba Medical Store,https://www.indiamart.com/jagdambamedicalstore/?pos=4&kwd=bio oil&tags=BB||||8752.144||product|||NA|rsf:gd-|-stype:attr=1|qr_nm:gd|res:RC3|com-cf:nl|ptrs:na|ktp:N0|mc:105829|mtp:S|qry_typ:P|lang:en|wc:2|flavl:0|cs:9651|v=4,False,Milap Bhawan,New Delhi,"Ground Floor Plot No. 1706/7 Bhagirath Palace,Chandni Chowk, Milap Bhawan, New Delhi - 110006, Dist.Delhi, Delhi",8043885954,
"Bio Oil, Packaging Size: 60ml",https://www.indiamart.com/proddetail/bio-oil-2854755723630.html?pos=5&kwd=bio oil&tags=BA||||8752.144|Price|product|||NA|rsf:gd-|-stype:attr=1|qr_nm:gd|res:RC3|com-cf:nl|ptrs:na|ktp:N0|mc:105829|mtp:S|qry_typ:P|lang:en|wc:2|flavl:0|cs:9651|v=4,Mathur Healthcare,https://www.indiamart.com/mathur-healthcare/?pos=5&kwd=bio oil&tags=BA||||8752.144|Price|product|||NA|rsf:gd-|-stype:attr=1|qr_nm:gd|res:RC3|com-cf:nl|ptrs:na|ktp:N0|mc:105829|mtp:S|qry_typ:P|lang:en|wc:2|flavl:0|cs:9651|v=4,False,,New Delhi,"Wz-34/15 Vishnu Garden New Delhi, New Delhi - 110018, Dist.Delhi, Delhi",8048370730,7085
Tera Bio Karanja Oil,https://www.indiamart.com/proddetail/tera-bio-karanja-oil-24932462273.html?pos=6&kwd=bio oil&tags=BA||||8954.051|Price|product|||NA|rsf:gd-|-stype:attr=1|qr_nm:gd|res:RC3|com-cf:nl|ptrs:na|ktp:N0|mc:105829|mtp:S|qry_typ:P|lang:en|wc:2|flavl:0|cs:9651|v=4,Terra Bio Naturals Private Limited,https://www.indiamart.com/terra-bio-naturals-private-limited/?pos=6&kwd=bio oil&tags=BA||||8954.051|Price|product|||NA|rsf:gd-|-stype:attr=1|qr_nm:gd|res:RC3|com-cf:nl|ptrs:na|ktp:N0|mc:105829|mtp:S|qry_typ:P|lang:en|wc:2|flavl:0|cs:9651|v=4,False,Pammal,Chennai,"No.5 ,Second Floor, Pozhichalur Main Road,, Pammal, Chennai - 600074, Dist.Chennai, Tamil Nadu",8048250235,757
"95% Pure Transparent Bio Oil, Grade: A Grade, Packaging Size: 500ml",https://www.indiamart.com/proddetail/95-pure-transparent-bio-oil-2851289951855.html?pos=7&kwd=bio oil&tags=BB||||7937.187|Price|product|||NA|rsf:gd-|-stype:attr=1|qr_nm:gd|res:RC3|com-cf:nl|ptrs:na|ktp:N0|mc:105829|mtp:S|qry_typ:P|lang:en|wc:2|flavl:0|cs:9651|v=4,KAI Corporation,https://www.indiamart.com/kaicorporation/?pos=7&kwd=bio oil&tags=BB||||7937.187|Price|product|||NA|rsf:gd-|-stype:attr=1|qr_nm:gd|res:RC3|com-cf:nl|ptrs:na|ktp:N0|mc:105829|mtp:S|qry_typ:P|lang:en|wc:2|flavl:0|cs:9651|v=4,False,Anjani Nagar,Bhuj,"Hina Park 1 Plot No. 29 Surlpd B/h. Yatimkhana Kachchh, Anjani Nagar, Bhuj - 370001, Dist.Kachchh, Gujarat",7942830132,
Bio Oil,,Sarange Agriculture,https://www.indiamart.com/sarange-agriculture/?pos=8&kwd=bio oil&tags=B||||8559.269||product|||NA|rsf:gd-|-stype:attr=1|qr_nm:gd|res:RC3|com-cf:nl|ptrs:na|ktp:N0|mc:105829|mtp:S|qry_typ:P|lang:en|wc:2|flavl:0|cs:9651|v=4,False,,Indore,"109,Tilak Nagar,Indore,Indore, Indore - 452018, Dist.Indore, Madhya Pradesh",8047311015,6068
Bio Oil,,Qaadir Trading,https://www.indiamart.com/qaadir-trading/?pos=9&kwd=bio oil&tags=BA||||8723.301|Price|product|||NA|rsf:gd-|-stype:attr=1|qr_nm:gd|res:RC3|com-cf:nl|ptrs:na|ktp:N0|mc:105829|mtp:S|qry_typ:P|lang:en|wc:2|flavl:0|cs:9651|v=4,False,Bhopal,Bhopal,"SHOP NO 45, AZAD MARKET GALI NO 1, Bhopal, Bhopal, Bhopal - 462001, Dist.Bhopal, Madhya Pradesh",8048250277,871
bio powar oil,,Vikas Autoparts,https://www.indiamart.com/vikas-autoparts/?pos=10&kwd=bio oil&tags=BB||||8223.226|Price|product|||NA|rsf:gd-|-stype:attr=1|qr_nm:gd|res:RC3|com-cf:nl|ptrs:na|ktp:N0|mc:105829|mtp:S|qry_typ:P|lang:en|wc:2|flavl:0|cs:9651|v=4,False,Thane West,Thane,"Shop No. 21, Road No. 27 Opposite ITI College, Wagle Estate, Thane West, Thane - 400604, Dist.Thane, Maharashtra",8048263062,443
Marico Bio Oil,,Bhartiya Medical Hall,https://www.indiamart.com/bhartiya-medical-store/?pos=11&kwd=bio oil&tags=BB||||8785.791||product|||NA|rsf:gd-|-stype:attr=1|qr_nm:gd|res:RC3|com-cf:nl|ptrs:na|ktp:N0|mc:105829|mtp:S|qry_typ:P|lang:en|wc:2|flavl:0|cs:9651|v=4,False,Ghanta Ghar,Ghaziabad,"Jawahar Gate, Ghanta Ghar, Ghanta Ghar, Ghaziabad - 201001, Dist.Ghaziabad, Uttar Pradesh",8069196775,267
Bio Oil,,Navkar Distributors,https://www.indiamart.com/navkardistributorsmumbai/?pos=12&kwd=bio oil&tags=CC||||8211.142|Price|product|||TS|rsf:gd-|-stype:attr=1|qr_nm:gd|res:RC3|com-cf:nl|ptrs:na|ktp:N0|mc:105829|mtp:S|qry_typ:P|lang:en|wc:2|flavl:0|cs:9651|v=4,False,Kalbadevi,Mumbai,"Floor No.5, Room No.110, 22/24, Anantwadi, Bhuleshwar,, Kalbadevi, Mumbai - 400002, Dist.Mumbai, Maharashtra",7942838637,
Bio Oil 60 Ml,https://www.indiamart.com/proddetail/bio-oil-60-ml-6393044688.html?pos=13&kwd=bio oil&tags=CC||||8752.144|Price|product|||MDC|rsf:gd-|-stype:attr=1|qr_nm:gd|res:RC3|com-cf:nl|ptrs:na|ktp:N0|mc:105829|mtp:S|qry_typ:P|lang:en|wc:2|flavl:0|cs:9651|v=4,3G Chemist,https://www.indiamart.com/3gchemist/?pos=13&kwd=bio oil&tags=CC||||8752.144|Price|product|||MDC|rsf:gd-|-stype:attr=1|qr_nm:gd|res:RC3|com-cf:nl|ptrs:na|ktp:N0|mc:105829|mtp:S|qry_typ:P|lang:en|wc:2|flavl:0|cs:9651|v=4,False,Defence Colony,New Delhi,"Shop No. 4, Main Market Near Gumbad Circle, Defence Colony, New Delhi - 110024, Dist.Delhi, Delhi",8048966744,
Stretch Mark Removal Bio Oil Manufacturer,https://www.indiamart.com/proddetail/stretch-mark-removal-bio-oil-manufacturer-2854461004291.html?pos=14&kwd=bio oil&tags=||||8723.301|Price|product|||TS|rsf:gd-|-stype:attr=1|qr_nm:gd|res:RC3|com-cf:nl|ptrs:na|ktp:N0|mc:105829|mtp:S|qry_typ:P|lang:en|wc:2|flavl:0|cs:9651|v=4,BTV Media Network,https://www.indiamart.com/btvmedianetwork/?pos=14&kwd=bio oil&tags=||||8723.301|Price|product|||TS|rsf:gd-|-stype:attr=1|qr_nm:gd|res:RC3|com-cf:nl|ptrs:na|ktp:N0|mc:105829|mtp:S|qry_typ:P|lang:en|wc:2|flavl:0|cs:9651|v=4,False,Aadharshila,Bhopal,"H.No.516, Aadharshila, Awadhpuri,, Aadharshila, Bhopal - 462021, Dist.Bhopal, Madhya Pradesh",8043834187,
"Ayurvedic Liver Tonic Syrup pcd, Stenroz Biotech, Packaging Size: 200 ml",https://www.indiamart.com/proddetail/ayurvedic-liver-tonic-syrup-21090738597.html?pos=15&kwd=bio oil&tags=||||8740.707|Price|product|||TS|rsf:gd-|-stype:attr=1|qr_nm:gd|res:RC3|com-cf:nl|ptrs:na|ktp:N0|mc:105829|mtp:S|qry_typ:P|lang:en|wc:2|cs:8888|v=4,Stenroz Biotech,https://www.indiamart.com/stenroz-biotech/?pos=15&kwd=bio oil&tags=||||8740.707|Price|product|||TS|rsf:gd-|-stype:attr=1|qr_nm:gd|res:RC3|com-cf:nl|ptrs:na|ktp:N0|mc:105829|mtp:S|qry_typ:P|lang:en|wc:2|cs:8888|v=4,False,Zirakpur,Sas Nagar,"Ist Floor,, 101, Bala Ji Enclave, Stenroz Biotech, Patiala Road, Zirakpur,, Zirakpur, Sas Nagar - 140603, Dist.Mohali, Punjab",8048976416,
"BIO HEALTH Herbal Pain Relief Oil, 60 ml",https://www.indiamart.com/proddetail/bio-health-herbal-pain-relief-oil-25219479255.html?pos=16&kwd=bio oil&tags=||||8601.347|Price|product|||TS|rsf:gd-|-stype:attr=1|qr_nm:gd|res:RC3|com-cf:nl|ptrs:na|ktp:N0|mc:105829|mtp:S|qry_typ:P|lang:en|wc:2|cs:8888|v=4,Bio Health India,https://www.biohealthindia.com/?pos=16&kwd=bio oil&tags=||||8601.347|Price|product|||TS|rsf:gd-|-stype:attr=1|qr_nm:gd|res:RC3|com-cf:nl|ptrs:na|ktp:N0|mc:105829|mtp:S|qry_typ:P|lang:en|wc:2|cs:8888|v=4,False,jhotwara,Jaipur,"76 B jai dadi nagar kalwar road, jhotwara, Jaipur - 303701, Dist.Jaipur, Rajasthan",8048267480,
"TVS Biotech Massage Oil For Muscular Pain, Packaging Type: Bottle, Packaging Size: 70 ml",https://www.indiamart.com/proddetail/massage-oil-for-muscular-pain-6731761573.html?pos=17&kwd=bio oil&tags=||||8717.056|Price|product|||TS|rsf:gd-|-stype:attr=1|qr_nm:gd|res:RC3|com-cf:nl|ptrs:na|ktp:N0|mc:105829|mtp:S|qry_typ:P|lang:en|wc:2|cs:8888|v=4,TVS Biotech,https://www.tvsbiotech.com/?pos=17&kwd=bio oil&tags=||||8717.056|Price|product|||TS|rsf:gd-|-stype:attr=1|qr_nm:gd|res:RC3|com-cf:nl|ptrs:na|ktp:N0|mc:105829|mtp:S|qry_typ:P|lang:en|wc:2|cs:8888|v=4,False,Annadanapatti,Salem,"4 355, Ramagounder, Thottam, Annadanapatti, Salem - 636002, Dist.Salem, Tamil Nadu",8048600877,
"Movistic Ayurvedic Pain Oil 75ml, Solace Biotech Limited, Packaging Type: Roll On Bottle",https://www.indiamart.com/proddetail/movistic-ayurvedic-pain-oil-75ml-23087807088.html?pos=18&kwd=bio oil&tags=||||8741.987|Price|product|||TS|rsf:gd-|-stype:attr=1|qr_nm:gd|res:RC3|com-cf:nl|ptrs:na|ktp:N0|mc:105829|mtp:S|qry_typ:P|lang:en|wc:2|cs:8888|v=4,Solace Biotech Ltd.,https://www.solacebiotech.org/?pos=18&kwd=bio oil&tags=||||8741.987|Price|product|||TS|rsf:gd-|-stype:attr=1|qr_nm:gd|res:RC3|com-cf:nl|ptrs:na|ktp:N0|mc:105829|mtp:S|qry_typ:P|lang:en|wc:2|cs:8888|v=4,False,Cantt,Ambala,"80, 1st Floor, H.S.I.I.D.C. Estate, Ambala Cantt, Cantt, Ambala - 133006, Dist.Ambala, Haryana",8048968465,
"Ayurvedic Pain Relief Oil ( B - WELL ) ( Sherwell Biotech ), Packaging Type: Flip Top",https://www.indiamart.com/proddetail/ayurvedic-pain-relief-oil-b-well-sherwell-biotech-23131261862.html?pos=19&kwd=bio oil&tags=||||8746.929|Price|product|||TS|rsf:gd-|-stype:attr=1|qr_nm:gd|res:RC3|com-cf:nl|ptrs:na|ktp:N0|mc:105829|mtp:S|qry_typ:P|lang:en|wc:2|cs:8888|v=4,Sherwell Biotech,https://www.indiamart.com/sherwellbiotech/?pos=19&kwd=bio oil&tags=||||8746.929|Price|product|||TS|rsf:gd-|-stype:attr=1|qr_nm:gd|res:RC3|com-cf:nl|ptrs:na|ktp:N0|mc:105829|mtp:S|qry_typ:P|lang:en|wc:2|cs:8888|v=4,False,Manimajra,Chandigarh,"SCF-386, Top Floor, Motor Market, Manimajra, Chandigarh - 160101, Chandigarh",7942562109,
"Biocare Mahanarayan Taila, Packaging Type: Bottle, Packaging Size: 50 ml",https://www.indiamart.com/proddetail/mahanarayana-oil-15339183397.html?pos=20&kwd=bio oil&tags=||||8237.554|Price|product|||MDC|rsf:gd-|-stype:attr=1|qr_nm:gd|res:RC3|com-cf:nl|ptrs:na|ktp:N0|mc:105829|mtp:S|qry_typ:P|lang:en|wc:2|cs:8888|v=4,Biocare Remedies Pvt.Ltd.,https://www.indiamart.com/biocareremedies/?pos=20&kwd=bio oil&tags=||||8237.554|Price|product|||MDC|rsf:gd-|-stype:attr=1|qr_nm:gd|res:RC3|com-cf:nl|ptrs:na|ktp:N0|mc:105829|mtp:S|qry_typ:P|lang:en|wc:2|cs:8888|v=4,False,,Gandhinagar,"Plot No.707, Biocare, GIDC, Sector-28, Gandhinagar - 382028, Gujarat",7942611541,
"Ayurvedic Joint Pain Relief Oil, 60 ml",https://www.indiamart.com/proddetail/ayurvedic-joint-pain-relief-oil-2853135683388.html?pos=21&kwd=bio oil&tags=||||8754.115|Price|product|||TS|rsf:gd-|-stype:attr=1|qr_nm:gd|res:RC3|com-cf:nl|ptrs:na|ktp:N0|mc:105829|mtp:S|qry_typ:P|lang:en|wc:2|cs:8888|v=4,Stelvedic(A Division of Stellar Bio Labs),https://www.stelvedic.in/?pos=21&kwd=bio oil&tags=||||8754.115|Price|product|||TS|rsf:gd-|-stype:attr=1|qr_nm:gd|res:RC3|com-cf:nl|ptrs:na|ktp:N0|mc:105829|mtp:S|qry_typ:P|lang:en|wc:2|cs:8888|v=4,False,Sector 8,Panchkula,"Plot No 340 Industrail Area Phase 2 Stellar Biolabs, Sector 8, Panchkula - 134112, Dist.Panchkula, Haryana",7942717030,
"Muscle Pain Relief Oil, 100 ml",https://www.indiamart.com/proddetail/muscle-pain-relief-oil-2854266850048.html?pos=22&kwd=bio oil&tags=||||8228.275|Price|product|||TS|rsf:gd-|-stype:attr=1|qr_nm:gd|res:RC3|com-cf:nl|ptrs:na|ktp:N0|mc:105829|mtp:S|qry_typ:P|lang:en|wc:2|cs:8888|v=4,Balaji Biotech,https://www.balajibiotech.in/?pos=22&kwd=bio oil&tags=||||8228.275|Price|product|||TS|rsf:gd-|-stype:attr=1|qr_nm:gd|res:RC3|com-cf:nl|ptrs:na|ktp:N0|mc:105829|mtp:S|qry_typ:P|lang:en|wc:2|cs:8888|v=4,False,Sarkhej,Ahmedabad,"8,,SAHJANAND ESTATE,,SARKHEJ,,AHMEDABAD, Sarkhej, Ahmedabad - 382210, Dist.Ahmedabad, Gujarat",7949323452,
"Neurokil Pain Relief Oil, 100 ml",https://www.indiamart.com/proddetail/neurokil-pain-relief-oil-10917111788.html?pos=23&kwd=bio oil&tags=||||8601.347|Price|product|||TS|rsf:gd-|-stype:attr=1|qr_nm:gd|res:RC3|com-cf:nl|ptrs:na|ktp:N0|mc:105829|mtp:S|qry_typ:P|lang:en|wc:2|cs:8888|v=4,Asia Biotech Pvt. Ltd.,https://www.asiabiotech.in/?pos=23&kwd=bio oil&tags=||||8601.347|Price|product|||TS|rsf:gd-|-stype:attr=1|qr_nm:gd|res:RC3|com-cf:nl|ptrs:na|ktp:N0|mc:105829|mtp:S|qry_typ:P|lang:en|wc:2|cs:8888|v=4,False,Malviya Nagar,Jaipur,"H1- 184, Malviya Industrial Area, Malviya Nagar, Jaipur - 302017, Dist.Jaipur, Rajasthan",8047692788,
"Muscle Pain Oil, 200 ml",https://www.indiamart.com/proddetail/muscle-pain-oil-2849318783073.html?pos=24&kwd=bio oil&tags=||||8760.897|Price|product|||TS|rsf:gd-|-stype:attr=1|qr_nm:gd|res:RC3|com-cf:nl|ptrs:na|ktp:N0|mc:105829|mtp:S|qry_typ:P|lang:en|wc:2|cs:8888|v=4,Ambastha Biotech,https://www.indiamart.com/ambastha-biotech/?pos=24&kwd=bio oil&tags=||||8760.897|Price|product|||TS|rsf:gd-|-stype:attr=1|qr_nm:gd|res:RC3|com-cf:nl|ptrs:na|ktp:N0|mc:105829|mtp:S|qry_typ:P|lang:en|wc:2|cs:8888|v=4,False,Railway Colony,Pinjore,"Sco-8/9/10, 1st Floor, Near Indian Petrol Pump, Tehsil Kalka, Marawala, Railway Colony, Pinjore - 134104, Dist.Panchkula, Haryana",8044562950,
"MK FAM JOINT OIL, 60 ml",https://www.indiamart.com/proddetail/mk-fam-joint-oil-2853433754073.html?pos=25&kwd=bio oil&tags=||||8651.144|Price|product|||TS|rsf:gd-|-stype:attr=1|qr_nm:gd|res:RC3|com-cf:nl|ptrs:na|ktp:N0|mc:105829|mtp:S|qry_typ:P|lang:en|wc:2|cs:8888|v=4,M K Biotech,https://www.indiamart.com/mk-biotech/?pos=25&kwd=bio oil&tags=||||8651.144|Price|product|||TS|rsf:gd-|-stype:attr=1|qr_nm:gd|res:RC3|com-cf:nl|ptrs:na|ktp:N0|mc:105829|mtp:S|qry_typ:P|lang:en|wc:2|cs:8888|v=4,False,,Sangrur,"Near Govt. Primary School, Sangrur Road, Ubhawal, Sangrur - 148001, Dist.Sangrur, Punjab",7942543906,
"100 ml Welpe Ayurvedic Oil, Box",https://www.indiamart.com/proddetail/100-ml-welpe-ayurvedic-oil-2853932159662.html?pos=26&kwd=bio oil&tags=||||8741.987|Price|product|||TS|rsf:gd-|-stype:attr=1|qr_nm:gd|res:RC3|com-cf:nl|ptrs:na|ktp:N0|mc:105829|mtp:S|qry_typ:P|lang:en|wc:2|cs:8888|v=4,Penardo Biotech Private Limited,https://www.penardobiotech.in/?pos=26&kwd=bio oil&tags=||||8741.987|Price|product|||TS|rsf:gd-|-stype:attr=1|qr_nm:gd|res:RC3|com-cf:nl|ptrs:na|ktp:N0|mc:105829|mtp:S|qry_typ:P|lang:en|wc:2|cs:8888|v=4,False,Nanhera,Ambala,"13, Arjun Nagar, Nanhera, Ambala Cantt, Nanhera, Ambala - 133004, Dist.Ambala, Haryana",8044565273,
"Mahanarayan Ayurvedic Pain Killer Oil, 60 ml",https://www.indiamart.com/proddetail/mahanarayan-ayurvedic-pain-killer-oil-26200128630.html?pos=27&kwd=bio oil&tags=||||8754.115|Price|product|||TS|rsf:gd-|-stype:attr=1|qr_nm:gd|res:RC3|com-cf:nl|ptrs:na|ktp:N0|mc:105829|mtp:S|qry_typ:P|lang:en|wc:2|cs:8888|v=4,Medrock Biotech,https://www.medrockbiotech.in/?pos=27&kwd=bio oil&tags=||||8754.115|Price|product|||TS|rsf:gd-|-stype:attr=1|qr_nm:gd|res:RC3|com-cf:nl|ptrs:na|ktp:N0|mc:105829|mtp:S|qry_typ:P|lang:en|wc:2|cs:8888|v=4,False,Mansa Devi Temple Complex,Panchkula,"02, Sco No 26, Swastik Vihar Mdc Sector 5, Mansa Devi Temple Complex, Panchkula - 134114, Dist.Panchkula, Haryana",8047655329,
"M-Ortho Liv Ayurvedic Pain Relief Oil, 60 ml",https://www.indiamart.com/proddetail/m-ortho-liv-ayurvedic-pain-relief-oil-26954268033.html?pos=28&kwd=bio oil&tags=||||8741.987|Price|product|||TS|rsf:gd-|-stype:attr=1|qr_nm:gd|res:RC3|com-cf:nl|ptrs:na|ktp:N0|mc:105829|mtp:S|qry_typ:P|lang:en|wc:2|cs:8888|v=4,Mundra Biotech,https://www.indiamart.com/mundra-biotech/?pos=28&kwd=bio oil&tags=||||8741.987|Price|product|||TS|rsf:gd-|-stype:attr=1|qr_nm:gd|res:RC3|com-cf:nl|ptrs:na|ktp:N0|mc:105829|mtp:S|qry_typ:P|lang:en|wc:2|cs:8888|v=4,False,Nanhera,Ambala,"15/4, First Floor, Nanhera Link Road, Nanhera, Ambala - 133004, Dist.Ambala, Haryana",8043895145,
Bio Oil,https://www.indiamart.com/proddetail/bio-oil-14202846355.html?pos=29&kwd=bio oil&tags=CA||||8701.695||product|||NA|rsf:gd-|-stype:attr=1|qr_nm:gd|res:RC3|com-cf:nl|ptrs:na|ktp:N0|mc:105829|mtp:S|qry_typ:P|lang:en|wc:2|cs:8888|v=4,Biovet Private Limited,https://www.indiamart.com/biovet-pvtltd/?pos=29&kwd=bio oil&tags=CA||||8701.695||product|||NA|rsf:gd-|-stype:attr=1|qr_nm:gd|res:RC3|com-cf:nl|ptrs:na|ktp:N0|mc:105829|mtp:S|qry_typ:P|lang:en|wc:2|cs:8888|v=4,False,AECS Layout,Malur,"No. 560, 1st Main, C Block, AECS Layout Kundalahalli, AECS Layout, Malur - 560037, Dist.Kolar, Karnataka",8043877506,
"Artho oil 100ml, For Muscle Pain",https://www.indiamart.com/proddetail/artho-oil-100ml-2854703752333.html?pos=30&kwd=bio oil&tags=||||8663.873|Price|product|||MDC|rsf:gd-|-stype:attr=1|qr_nm:gd|res:RC3|com-cf:nl|ptrs:na|ktp:N0|mc:105829|mtp:S|qry_typ:P|lang:en|wc:2|cs:8888|v=4,Brahmionline Retail Pvt. Ltd.,https://www.indiamart.com/brahmionline-retail/?pos=30&kwd=bio oil&tags=||||8663.873|Price|product|||MDC|rsf:gd-|-stype:attr=1|qr_nm:gd|res:RC3|com-cf:nl|ptrs:na|ktp:N0|mc:105829|mtp:S|qry_typ:P|lang:en|wc:2|cs:8888|v=4,False,New Bank Colony Ko,Bengaluru,"No 31 32, Ist Floor, Sri Durga, 2nd Cross,, New Bank Colony Ko, Bengaluru - 560062, Dist.Bengaluru, Karnataka",8047670272,
"MOVTEC OIL, 50 ml",https://www.indiamart.com/proddetail/movtec-oil-25858726633.html?pos=31&kwd=bio oil&tags=||||8752.144|Price|product|||TS|rsf:gd-|-stype:attr=1|qr_nm:gd|res:RC3|com-cf:nl|ptrs:na|ktp:N0|mc:105829|mtp:S|qry_typ:P|lang:en|wc:2|cs:8888|v=4,Gokul Pharma,https://www.indiamart.com/jantecpharma/?pos=31&kwd=bio oil&tags=||||8752.144|Price|product|||TS|rsf:gd-|-stype:attr=1|qr_nm:gd|res:RC3|com-cf:nl|ptrs:na|ktp:N0|mc:105829|mtp:S|qry_typ:P|lang:en|wc:2|cs:8888|v=4,False,Badli,New Delhi,"Third Floor, B-9/2, Phase-1, Dsiidc, Badli Industrial Area, Badli, New Delhi - 110042, Dist.Delhi, Delhi",8047631563,
"Liniment Oil, For Clinical, Packaging Size: 60ml",https://www.indiamart.com/proddetail/liniment-oil-14724333012.html?pos=32&kwd=bio oil&tags=||||8754.115|Price|product|||TS|rsf:gd-|-stype:attr=1|qr_nm:gd|res:RC3|com-cf:nl|ptrs:na|ktp:N0|mc:105829|mtp:S|qry_typ:P|lang:en|wc:2|cs:8888|v=4,Divine Dew Biotech,https://www.divinedewbiotech.in/?pos=32&kwd=bio oil&tags=||||8754.115|Price|product|||TS|rsf:gd-|-stype:attr=1|qr_nm:gd|res:RC3|com-cf:nl|ptrs:na|ktp:N0|mc:105829|mtp:S|qry_typ:P|lang:en|wc:2|cs:8888|v=4,False,Industrial Estate Panchkula,Panchkula,"Shed No 101, Industrial Area Phase 2, Industrial Estate Panchkula, Panchkula - 134113, Dist.Panchkula, Haryana",8048957868,
"Pain Oil, Grade Standard: Cosmetic Grade, Packaging Type: Bottle",https://www.indiamart.com/proddetail/pain-oil-22821762533.html?pos=33&kwd=bio oil&tags=||||8213.846|Price|product|||TS|rsf:gd-|-stype:attr=1|qr_nm:gd|res:RC3|com-cf:nl|ptrs:na|ktp:N0|mc:105829|mtp:S|qry_typ:P|lang:en|wc:2|cs:8888|v=4,Xenosys Biotech Private Limited,https://www.xenosysbiotech.com/?pos=33&kwd=bio oil&tags=||||8213.846|Price|product|||TS|rsf:gd-|-stype:attr=1|qr_nm:gd|res:RC3|com-cf:nl|ptrs:na|ktp:N0|mc:105829|mtp:S|qry_typ:P|lang:en|wc:2|cs:8888|v=4,False,Changodar,Changodar GIDC,"Shop no:59-60,Shivam Reality, Changodar, Changodar GIDC - 382213, Dist.Ahmedabad, Gujarat",8048966558,
Mahanarayan Oil,https://www.indiamart.com/proddetail/mahanarayan-oil-2853276658230.html?pos=34&kwd=bio oil&tags=||||8559.269|Price|product|||TS|rsf:gd-|-stype:attr=1|qr_nm:gd|res:RC3|com-cf:nl|ptrs:na|ktp:N0|mc:105829|mtp:S|qry_typ:P|lang:en|wc:2|cs:8888|v=4,Kshipra Biotech Private Limited,https://www.indiamart.com/kshipra-biotech/?pos=34&kwd=bio oil&tags=||||8559.269|Price|product|||TS|rsf:gd-|-stype:attr=1|qr_nm:gd|res:RC3|com-cf:nl|ptrs:na|ktp:N0|mc:105829|mtp:S|qry_typ:P|lang:en|wc:2|cs:8888|v=4,False,Indore Nagar,Indore,"221, 2nd Floor Phadnis Complex, Indore Nagar, Indore - 452007, Dist.Indore, Madhya Pradesh",8046053600,
Gufican Oil 20Ml,https://www.indiamart.com/proddetail/gufican-oil-20ml-2852164312733.html?pos=35&kwd=bio oil&tags=||||8752.144|Price|product|||TS|rsf:gd-|-stype:attr=1|qr_nm:gd|res:RC3|com-cf:nl|ptrs:na|ktp:N0|mc:105829|mtp:S|qry_typ:P|lang:en|wc:2|cs:8888|v=4,Pavit Hormone Point,https://www.pavithormonepoint.com/?pos=35&kwd=bio oil&tags=||||8752.144|Price|product|||TS|rsf:gd-|-stype:attr=1|qr_nm:gd|res:RC3|com-cf:nl|ptrs:na|ktp:N0|mc:105829|mtp:S|qry_typ:P|lang:en|wc:2|cs:8888|v=4,False,Vikaspuri,New Delhi,"Shop No-64, Second Floor, Block-J, Dda Market, Situated At Lsc Vikas Puri, New Delhi, Vikaspuri, New Delhi - 110018, Dist.Delhi, Delhi",7942820230,
"Orthoboost Oil Jount Pain, 100 ml",https://www.indiamart.com/proddetail/orthoboost-oil-jount-pain-21513125191.html?pos=36&kwd=bio oil&tags=||||8741.987|Price|product|||TS|rsf:gd-|-stype:attr=1|qr_nm:gd|res:RC3|com-cf:nl|ptrs:na|ktp:N0|mc:105829|mtp:S|qry_typ:P|lang:en|wc:2|cs:8888|v=4,Tulip Biotech,https://www.tulipbiotech.co.in/?pos=36&kwd=bio oil&tags=||||8741.987|Price|product|||TS|rsf:gd-|-stype:attr=1|qr_nm:gd|res:RC3|com-cf:nl|ptrs:na|ktp:N0|mc:105829|mtp:S|qry_typ:P|lang:en|wc:2|cs:8888|v=4,False,Kullarpur,Ambala,"Saraswati Vihar W.no 02 Old Kala Amb Road Old Kala Amb Road Naraingarh, Kullarpur, Ambala - 134203, Dist.Ambala, Haryana",7942533565,
"Herbal Pain Oil, 100 ml",https://www.indiamart.com/proddetail/herbal-pain-oil-2852540483262.html?pos=37&kwd=bio oil&tags=||||8751.045||product|||TS|rsf:gd-|-stype:attr=1|qr_nm:gd|res:RC3|com-cf:nl|ptrs:na|ktp:N0|mc:105829|mtp:S|qry_typ:P|lang:en|wc:2|cs:8888|v=4,Puremed Biotech,https://www.indiamart.com/puremedbiotech/?pos=37&kwd=bio oil&tags=||||8751.045||product|||TS|rsf:gd-|-stype:attr=1|qr_nm:gd|res:RC3|com-cf:nl|ptrs:na|ktp:N0|mc:105829|mtp:S|qry_typ:P|lang:en|wc:2|cs:8888|v=4,False,Sai,Baddi,"Generator House, S.C.O. No. 6, Opposite City Look Hotel, Sai Road, Sai, Baddi - 173205, Dist.Solan, Himachal Pradesh",8046076151,
"Aveer Massage Oil, 100 ml",https://www.indiamart.com/proddetail/aveer-massage-oil-23517171488.html?pos=38&kwd=bio oil&tags=||||8984.809|Price|product|||TS|rsf:gd-|-stype:attr=1|qr_nm:gd|res:RC3|com-cf:nl|ptrs:na|ktp:N0|mc:105829|mtp:S|qry_typ:P|lang:en|wc:2|cs:8888|v=4,American Biocare,https://www.americanbiocare.co.in/?pos=38&kwd=bio oil&tags=||||8984.809|Price|product|||TS|rsf:gd-|-stype:attr=1|qr_nm:gd|res:RC3|com-cf:nl|ptrs:na|ktp:N0|mc:105829|mtp:S|qry_typ:P|lang:en|wc:2|cs:8888|v=4,False,Napier Town,Jabalpur,"Maa Sharda Niwas 266, Napier Town, Near Bhawartal Garden, Napier Town, Jabalpur - 482001, Dist.Jabalpur, Madhya Pradesh",8048608199,
Natural Wintergreen Oil,https://www.indiamart.com/proddetail/natural-wintergreen-oil-22242358248.html?pos=39&kwd=bio oil&tags=||||8876.815|Price|product|||TS|rsf:gd-|-stype:attr=1|qr_nm:gd|res:RC3|com-cf:nl|ptrs:na|ktp:N0|mc:105829|mtp:S|qry_typ:P|lang:en|wc:2|cs:8888|v=4,Mangalam Agro,https://www.citspray.in/?pos=39&kwd=bio oil&tags=||||8876.815|Price|product|||TS|rsf:gd-|-stype:attr=1|qr_nm:gd|res:RC3|com-cf:nl|ptrs:na|ktp:N0|mc:105829|mtp:S|qry_typ:P|lang:en|wc:2|cs:8888|v=4,False,New Sneh Nagar,Nagpur,"B 101, Poonam Heights, Pande Layout, Khamla, New Sneh Nagar, Nagpur - 440025, Dist.Nagpur, Maharashtra",8048609072,
"Ortho Herb Oil, Packaging Size: 60ml",https://www.indiamart.com/proddetail/ortho-herb-oil-2851821484591.html?pos=40&kwd=bio oil&tags=||||8754.115|Price|product|||TS|rsf:gd-|-stype:attr=1|qr_nm:gd|res:RC3|com-cf:nl|ptrs:na|ktp:N0|mc:105829|mtp:S|qry_typ:P|lang:en|wc:2|cs:8888|v=4,Health Biologics,https://www.healthbiologicspharmafranchise.com/?pos=40&kwd=bio oil&tags=||||8754.115|Price|product|||TS|rsf:gd-|-stype:attr=1|qr_nm:gd|res:RC3|com-cf:nl|ptrs:na|ktp:N0|mc:105829|mtp:S|qry_typ:P|lang:en|wc:2|cs:8888|v=4,False,Sector 8,Panchkula,"1st Floor Plot No 97 Phase 1, Sector 8, Panchkula - 134103, Dist.Panchkula, Haryana",8047631743,
Herbal Pain Relief Oil,https://www.indiamart.com/proddetail/herbal-pain-relief-oil-2854327969573.html?pos=41&kwd=bio oil&tags=||||8747.223|Price|product|||TS|rsf:gd-|-stype:attr=1|qr_nm:gd|res:RC3|com-cf:nl|ptrs:na|ktp:N0|mc:105829|mtp:S|qry_typ:P|lang:en|wc:2|cs:8888|v=4,Yaxon Biocare Private Limited,https://www.indiamart.com/yaxonbiocare/?pos=41&kwd=bio oil&tags=||||8747.223|Price|product|||TS|rsf:gd-|-stype:attr=1|qr_nm:gd|res:RC3|com-cf:nl|ptrs:na|ktp:N0|mc:105829|mtp:S|qry_typ:P|lang:en|wc:2|cs:8888|v=4,False,Rai,Sonipat,"No. 7, HSIIDC, Rai Industrial Area, Rai, Sonipat - 131029, Dist.Sonipat, Haryana",8046031145,
Natural Pain Relief Oil,https://www.indiamart.com/proddetail/natural-pain-relief-oil-2850051281773.html?pos=42&kwd=bio oil&tags=||||8752.144|Price|product|||TS|rsf:gd-|-stype:attr=1|qr_nm:gd|res:RC3|com-cf:nl|ptrs:na|ktp:N0|mc:105829|mtp:S|qry_typ:P|lang:en|wc:2|cs:8888|v=4,Elisa Biotech Pvt. Ltd.,https://www.elisabiotechindia.com/?pos=42&kwd=bio oil&tags=||||8752.144|Price|product|||TS|rsf:gd-|-stype:attr=1|qr_nm:gd|res:RC3|com-cf:nl|ptrs:na|ktp:N0|mc:105829|mtp:S|qry_typ:P|lang:en|wc:2|cs:8888|v=4,False,Badli Industrial Estate,New Delhi,"Property No. 22 Second Floor Block-S Badli Industrial Estate, Badli Industrial Estate, New Delhi - 110042, Dist.Delhi, Delhi",8048604208,
"Herbal Pain Relief Oil, 60 ml",https://www.indiamart.com/proddetail/herbal-pain-relief-oil-2850296917555.html?pos=43&kwd=bio oil&tags=||||8740.707|Price|product|||TS|rsf:gd-|-stype:attr=1|qr_nm:gd|res:RC3|com-cf:nl|ptrs:na|ktp:N0|mc:105829|mtp:S|qry_typ:P|lang:en|wc:2|cs:8888|v=4,AB Allcare Biotech,https://www.aballcarebiotech.net/?pos=43&kwd=bio oil&tags=||||8740.707|Price|product|||TS|rsf:gd-|-stype:attr=1|qr_nm:gd|res:RC3|com-cf:nl|ptrs:na|ktp:N0|mc:105829|mtp:S|qry_typ:P|lang:en|wc:2|cs:8888|v=4,False,Pabhat,Sas Nagar,"Hadbast No.234,Khata No.698/818, G.F, Khasra No.18/20,21,22/1, Godown Area,Near Vivekanand School Village Pabhat,zirakpur, Pabhat, Sas Nagar - 140603, Dist.Mohali, Punjab",8046033921,
"Joint Pain Relief Oil, For Commerical, Packaging Type: Bottle",https://www.indiamart.com/proddetail/joint-pain-relief-oil-7747389555.html?pos=44&kwd=bio oil&tags=||||8740.707|Price|product|||TS|rsf:gd-|-stype:attr=1|qr_nm:gd|res:RC3|com-cf:nl|ptrs:na|ktp:N0|mc:105829|mtp:S|qry_typ:P|lang:en|wc:2|cs:8888|v=4,Segos Biocare,https://www.segosbiocare.co.in/?pos=44&kwd=bio oil&tags=||||8740.707|Price|product|||TS|rsf:gd-|-stype:attr=1|qr_nm:gd|res:RC3|com-cf:nl|ptrs:na|ktp:N0|mc:105829|mtp:S|qry_typ:P|lang:en|wc:2|cs:8888|v=4,False,Modern Enclave,Sas Nagar,"SCF-33/34 Modern Enclave, Modern Enclave, Sas Nagar - 140603, Dist.Mohali, Punjab",8047643205,
Ayurvedic Pain Relief Oil,https://www.indiamart.com/proddetail/ayurvedic-pain-relief-oil-2853653707888.html?pos=45&kwd=bio oil&tags=||||8754.115|Price|product|||TS|rsf:gd-|-stype:attr=1|qr_nm:gd|res:RC3|com-cf:nl|ptrs:na|ktp:N0|mc:105829|mtp:S|qry_typ:P|lang:en|wc:2|cs:8888|v=4,Ultra Healthcare,https://www.altiuslifesciences.in/?pos=45&kwd=bio oil&tags=||||8754.115|Price|product|||TS|rsf:gd-|-stype:attr=1|qr_nm:gd|res:RC3|com-cf:nl|ptrs:na|ktp:N0|mc:105829|mtp:S|qry_typ:P|lang:en|wc:2|cs:8888|v=4,False,Suketri,Panchkula,"Ground And First Floor 376 Saketri, Suketri, Panchkula - 134109, Dist.Panchkula, Haryana",8048971009,
"Ayurvedic Flexizine Pain Oil, 50 ml, Packaging Type: Box",https://www.indiamart.com/proddetail/ayurvedic-flexizine-pain-oil-22215064388.html?pos=46&kwd=bio oil&tags=||||8747.223|Price|product|||TS|rsf:gd-|-stype:attr=1|qr_nm:gd|res:RC3|com-cf:nl|ptrs:na|ktp:N0|mc:105829|mtp:S|qry_typ:P|lang:en|wc:2|cs:8888|v=4,Ethnic Biotech,https://www.ethnicbiotech.in/?pos=46&kwd=bio oil&tags=||||8747.223|Price|product|||TS|rsf:gd-|-stype:attr=1|qr_nm:gd|res:RC3|com-cf:nl|ptrs:na|ktp:N0|mc:105829|mtp:S|qry_typ:P|lang:en|wc:2|cs:8888|v=4,False,Sector 14,Sonipat,"Ethnic Biotech, Plot No 338, Hsidc, Sector 14, Sonipat - 131001, Dist.Sonipat, Haryana",8046035929,
"Pain Relief Ayurvedic Oil, 100 ml",https://www.indiamart.com/proddetail/pain-relief-ayurvedic-oil-21958295373.html?pos=47&kwd=bio oil&tags=||||8746.929|Price|product|||TS|rsf:gd-|-stype:attr=1|qr_nm:gd|res:RC3|com-cf:nl|ptrs:na|ktp:N0|mc:105829|mtp:S|qry_typ:P|lang:en|wc:2|cs:8888|v=4,Monark Biocare Private Limited,https://www.monarkbiocare.in/?pos=47&kwd=bio oil&tags=||||8746.929|Price|product|||TS|rsf:gd-|-stype:attr=1|qr_nm:gd|res:RC3|com-cf:nl|ptrs:na|ktp:N0|mc:105829|mtp:S|qry_typ:P|lang:en|wc:2|cs:8888|v=4,True,Manimajra,Chandigarh,"SCF-245 2nd floor MOTOR MARKET, Manimajra, Chandigarh - 160101, Chandigarh",8048970658,
"Joint Pain Relief Oil, 50 ml",https://www.indiamart.com/proddetail/joint-pain-relief-oil-2851660669262.html?pos=48&kwd=bio oil&tags=||||8601.347|Price|product|||TS|rsf:gd-|-stype:attr=1|qr_nm:gd|res:RC3|com-cf:nl|ptrs:na|ktp:N0|mc:105829|mtp:S|qry_typ:P|lang:en|wc:2|cs:8888|v=4,P R Herbal,https://www.prherbal.in/?pos=48&kwd=bio oil&tags=||||8601.347|Price|product|||TS|rsf:gd-|-stype:attr=1|qr_nm:gd|res:RC3|com-cf:nl|ptrs:na|ktp:N0|mc:105829|mtp:S|qry_typ:P|lang:en|wc:2|cs:8888|v=4,False,Shyam Nagar,Jaipur,"Shyam Nagar, Plot No 3, Charan Nadi, Nadi Ka Phatak, Benad Road, Shyam Nagar, Jaipur - 302012, Dist.Jaipur, Rajasthan",8047651125,
Ayurvedic Go Pain Oil,https://www.indiamart.com/proddetail/ayurvedic-go-pain-oil-2853878864788.html?pos=49&kwd=bio oil&tags=||||8746.929|Price|product|||TS|rsf:gd-|-stype:attr=1|qr_nm:gd|res:RC3|com-cf:nl|ptrs:na|ktp:N0|mc:105829|mtp:S|qry_typ:P|lang:en|wc:2|cs:8888|v=4,Caxton Biotech Private Limited,https://www.caxtonbiotech.com/?pos=49&kwd=bio oil&tags=||||8746.929|Price|product|||TS|rsf:gd-|-stype:attr=1|qr_nm:gd|res:RC3|com-cf:nl|ptrs:na|ktp:N0|mc:105829|mtp:S|qry_typ:P|lang:en|wc:2|cs:8888|v=4,False,Manimajra,Chandigarh,"SCF NO 251,,MOTOR MARKET,Chandigarh, Manimajra, Chandigarh - 160101, Chandigarh",8043856400,
"Nobipain Pain Relief Oil, 60 ml",https://www.indiamart.com/proddetail/nobipain-pain-relief-oil-25437372912.html?pos=50&kwd=bio oil&tags=||||8754.115|Price|product|||TS|rsf:gd-|-stype:attr=1|qr_nm:gd|res:RC3|com-cf:nl|ptrs:na|ktp:N0|mc:105829|mtp:S|qry_typ:P|lang:en|wc:2|cs:8888|v=4,Noble Bio Life Sciences,https://www.indiamart.com/noblebiolifesciences/?pos=50&kwd=bio oil&tags=||||8754.115|Price|product|||TS|rsf:gd-|-stype:attr=1|qr_nm:gd|res:RC3|com-cf:nl|ptrs:na|ktp:N0|mc:105829|mtp:S|qry_typ:P|lang:en|wc:2|cs:8888|v=4,False,PANCHKULA,Panchkula,"Plot 101, First Floor, Industrial Area Phase-2,, PANCHKULA, Panchkula - 134113, Dist.Panchkula, Haryana",8047658213,
"Ayurvedic Pain Oil (Dolfed Oil), 50 ml",https://www.indiamart.com/proddetail/ayurvedic-pain-oil-dolfed-oil-23027458262.html?pos=51&kwd=bio oil&tags=||||8749.33|Price|product|||TS|rsf:gd-|-stype:attr=1|qr_nm:gd|res:RC3|com-cf:nl|ptrs:na|ktp:N0|mc:105829|mtp:S|qry_typ:P|lang:en|wc:2|cs:8888|v=4,Gadin Biotech,https://www.indiamart.com/gadin-biotech/?pos=51&kwd=bio oil&tags=||||8749.33|Price|product|||TS|rsf:gd-|-stype:attr=1|qr_nm:gd|res:RC3|com-cf:nl|ptrs:na|ktp:N0|mc:105829|mtp:S|qry_typ:P|lang:en|wc:2|cs:8888|v=4,False,Dhakoli,Zirakpur,"SCO-28,GURU NANAK ENCLAVE DHAKOLI,TEH-DERABASSI,ZIRAKPUR,PUNJAB, Dhakoli, Zirakpur - 140604, Dist.Mohali, Punjab",8046041398,
"Joint and Muscular Pain Oil, Packaging Type: Bottle, Packaging Size: 60 ml",https://www.indiamart.com/proddetail/joint-and-muscular-pain-oil-12456037833.html?pos=52&kwd=bio oil&tags=||||8746.929|Price|product|||TS|rsf:gd-|-stype:attr=1|qr_nm:gd|res:RC3|com-cf:nl|ptrs:na|ktp:N0|mc:105829|mtp:S|qry_typ:P|lang:en|wc:2|cs:8888|v=4,UNIPURE BIOTECH,https://www.unipurebiotech.in/?pos=52&kwd=bio oil&tags=||||8746.929|Price|product|||TS|rsf:gd-|-stype:attr=1|qr_nm:gd|res:RC3|com-cf:nl|ptrs:na|ktp:N0|mc:105829|mtp:S|qry_typ:P|lang:en|wc:2|cs:8888|v=4,False,Manimajra,Chandigarh,"SCF 230, 2nd Floor, Motor Market, Manimajra, Chandigarh - 160101, Chandigarh",8047644721,
Ayurvedic Pain Oil All India,https://www.indiamart.com/proddetail/ayurvedic-pain-oil-all-india-23926483512.html?pos=53&kwd=bio oil&tags=||||8741.987|Price|product|||TS|rsf:gd-|-stype:attr=1|qr_nm:gd|res:RC3|com-cf:nl|ptrs:na|ktp:N0|mc:105829|mtp:S|qry_typ:P|lang:en|wc:2|cs:8888|v=4,Arrier Biotech Private Limited,https://www.arrierbiotech.co.in/?pos=53&kwd=bio oil&tags=||||8741.987|Price|product|||TS|rsf:gd-|-stype:attr=1|qr_nm:gd|res:RC3|com-cf:nl|ptrs:na|ktp:N0|mc:105829|mtp:S|qry_typ:P|lang:en|wc:2|cs:8888|v=4,False,Ratangarh,Ambala,"Markandey Complex, Ground Floor Shop No. 147-148 Sena Nagar, Ratangarh, Ambala - 134003, Dist.Ambala, Haryana",8048964288,
"Herbal Pain Relief Oil Manufacturer, 60 ml",https://www.indiamart.com/proddetail/herbal-pain-relief-oil-manufacturer-25442050797.html?pos=54&kwd=bio oil&tags=||||8754.115|Price|product|||TS|rsf:gd-|-stype:attr=1|qr_nm:gd|res:RC3|com-cf:nl|ptrs:na|ktp:N0|mc:105829|mtp:S|qry_typ:P|lang:en|wc:2|cs:8888|v=4,Iretus Biotech Private Limited,https://www.iretusbiotech.com/?pos=54&kwd=bio oil&tags=||||8754.115|Price|product|||TS|rsf:gd-|-stype:attr=1|qr_nm:gd|res:RC3|com-cf:nl|ptrs:na|ktp:N0|mc:105829|mtp:S|qry_typ:P|lang:en|wc:2|cs:8888|v=4,False,Budhanpur,Panchkula,"First Floor, Plot No. 151 Industrial Area, Phase 1, Budhanpur, Panchkula - 134113, Dist.Panchkula, Haryana",8048268767,
"Maha Bhringraj Herbal Hair Oil, 200 ml",https://www.indiamart.com/proddetail/maha-bhringraj-herbal-hair-oil-2850225880091.html?pos=55&kwd=bio oil&tags=||||8307.81|Price|product|||TS|rsf:gd-|-stype:attr=1|qr_nm:gd|res:RC3|com-cf:nl|ptrs:na|ktp:N0|mc:105829|mtp:S|qry_typ:P|lang:en|wc:2|cs:8888|v=4,New Mahalaxmi Agenciy,https://www.newmahalaxmiagency.in/?pos=55&kwd=bio oil&tags=||||8307.81|Price|product|||TS|rsf:gd-|-stype:attr=1|qr_nm:gd|res:RC3|com-cf:nl|ptrs:na|ktp:N0|mc:105829|mtp:S|qry_typ:P|lang:en|wc:2|cs:8888|v=4,False,Sadashiv Peth,Pune,"S.N.837, Shop No.1A/1B, Ground Floor, Off Kumthekar Road, Sadashiv Peth, Sadashiv Peth, Pune - 411030, Dist.Pune, Maharashtra",7942816563,
50 ml Neurokil Oil,https://www.indiamart.com/proddetail/50-ml-neurokil-oil-20724340362.html?pos=56&kwd=bio oil&tags=||||8663.873|Price|product|||MDC|rsf:gd-|-stype:attr=1|qr_nm:gd|res:RC3|com-cf:nl|ptrs:na|ktp:N0|mc:105829|mtp:S|qry_typ:P|lang:en|wc:2|cs:8888|v=4,Martand Pharmaceuticals,https://www.indiamart.com/martand-pharmaceuticals-bengaluru/?pos=56&kwd=bio oil&tags=||||8663.873|Price|product|||MDC|rsf:gd-|-stype:attr=1|qr_nm:gd|res:RC3|com-cf:nl|ptrs:na|ktp:N0|mc:105829|mtp:S|qry_typ:P|lang:en|wc:2|cs:8888|v=4,False,,Bengaluru,"4th Floor, 46-3-45, Albert Victoria Road Royan Circle 1st Main Road, Fab Links, Chamarajpet Bengaluru Urban, Bengaluru - 560018, Dist.Bengaluru, Karnataka",8047671233,
"Ayurvedic Pain Relieving Oil, 50 ML",https://www.indiamart.com/proddetail/ayurvedic-pain-relieving-oil-25335412488.html?pos=57&kwd=bio oil&tags=||||8754.115|Price|product|||MDC|rsf:gd-|-stype:attr=1|qr_nm:gd|res:RC3|com-cf:nl|ptrs:na|ktp:N0|mc:105829|mtp:S|qry_typ:P|lang:en|wc:2|cs:8888|v=4,ALICANTO BIOTECH PRIVATE LIMITED,https://www.indiamart.com/alicanto-biotech/?pos=57&kwd=bio oil&tags=||||8754.115|Price|product|||MDC|rsf:gd-|-stype:attr=1|qr_nm:gd|res:RC3|com-cf:nl|ptrs:na|ktp:N0|mc:105829|mtp:S|qry_typ:P|lang:en|wc:2|cs:8888|v=4,False,Panchkula Industrial Area Phase 1,Panchkula,"Plot No. 159 Phase 2, Industrial Area, Panchkula Industrial Area Phase 1, Panchkula - 134113, Dist.Panchkula, Haryana",8047306547,
shri Musli Plus Oil suppliers,https://www.indiamart.com/proddetail/musli-plus-oil-suppliers-23112764533.html?pos=58&kwd=bio oil&tags=||||9310.633|Price|product|||MDC|rsf:gd-|-stype:attr=1|qr_nm:gd|res:RC3|com-cf:nl|ptrs:na|ktp:N0|mc:105829|mtp:S|qry_typ:P|lang:en|wc:2|cs:8888|v=4,Shri Industry,https://www.indiamart.com/shriindustrychhattisgarh/?pos=58&kwd=bio oil&tags=||||9310.633|Price|product|||MDC|rsf:gd-|-stype:attr=1|qr_nm:gd|res:RC3|com-cf:nl|ptrs:na|ktp:N0|mc:105829|mtp:S|qry_typ:P|lang:en|wc:2|cs:8888|v=4,False,Ambikapur Town,Ambikapur,"10k, Ring Road, Bouripara, Surguja ambikapur, Ambikapur Town, Ambikapur - 497001, Dist.Surguja, Chhattisgarh",8048985495,
"Dr Back Bone Oil, 60 ml",https://www.indiamart.com/proddetail/dr-back-bone-oil-2852879829097.html?pos=59&kwd=bio oil&tags=||||8785.337|Price|product|||MDC|rsf:gd-|-stype:attr=1|qr_nm:gd|res:RC3|com-cf:nl|ptrs:na|ktp:N0|mc:105829|mtp:S|qry_typ:P|lang:en|wc:2|cs:8888|v=4,Biosun Discovery Private Limited,https://www.indiamart.com/biosun-discovery/?pos=59&kwd=bio oil&tags=||||8785.337|Price|product|||MDC|rsf:gd-|-stype:attr=1|qr_nm:gd|res:RC3|com-cf:nl|ptrs:na|ktp:N0|mc:105829|mtp:S|qry_typ:P|lang:en|wc:2|cs:8888|v=4,False,Palion,Kala Amb,"C/O Sarita Gupta, Near SR. SEC. School, NH 7, Dehradun Road, Mogi Nand, Moginand Industrial Area, Sirmaur,, Palion, Kala Amb - 173030, Himachal Pradesh",7942967040,
25ml Jodem Joint Muscular Pain Oil,https://www.indiamart.com/proddetail/25ml-jodem-joint-muscular-pain-oil-2854177897973.html?pos=60&kwd=bio oil&tags=||||8746.929|Price|product|||MDC|rsf:gd-|-stype:attr=1|qr_nm:gd|res:RC3|com-cf:nl|ptrs:na|ktp:N0|mc:105829|mtp:S|qry_typ:P|lang:en|wc:2|cs:8888|v=4,Jydem Bio Pharma Private Limited,https://www.indiamart.com/jydem-bio-pharma/?pos=60&kwd=bio oil&tags=||||8746.929|Price|product|||MDC|rsf:gd-|-stype:attr=1|qr_nm:gd|res:RC3|com-cf:nl|ptrs:na|ktp:N0|mc:105829|mtp:S|qry_typ:P|lang:en|wc:2|cs:8888|v=4,False,Sector 13,Chandigarh,"1st Floor SCF 262 Motor Market, Manimajra, Sector 13, Chandigarh - 160102, Chandigarh",8045729895,
Dic Volt Roll On Pain Relief Oil,https://www.indiamart.com/proddetail/dic-volt-roll-on-pain-relief-oil-24045640288.html?pos=61&kwd=bio oil&tags=||||8746.929|Price|product|||MDC|rsf:gd-|-stype:attr=1|qr_nm:gd|res:RC3|com-cf:nl|ptrs:na|ktp:N0|mc:105829|mtp:S|qry_typ:P|lang:en|wc:2|cs:8888|v=4,Carenix Bio Pharma Private Limited,https://www.indiamart.com/carenixbiopharma/?pos=61&kwd=bio oil&tags=||||8746.929|Price|product|||MDC|rsf:gd-|-stype:attr=1|qr_nm:gd|res:RC3|com-cf:nl|ptrs:na|ktp:N0|mc:105829|mtp:S|qry_typ:P|lang:en|wc:2|cs:8888|v=4,False,,Chandigarh,"Ground Floor And Basement, Shop No. 44/3A, Subhash Nagar, Manimajra, Chandigarh - 160101, Chandigarh",8046062071,
"Dhanwantari Orthorich Oil (Fast Action Formula For Pain Relief), Packaging Size: 75 Ml, Non prescription",https://www.indiamart.com/proddetail/orthorich-oil-fast-action-formula-for-pain-relief-22375683173.html?pos=62&kwd=bio oil&tags=||||9829.308|Price|product|||MDC|rsf:gd-|-stype:attr=1|qr_nm:gd|res:RC3|com-cf:nl|ptrs:na|ktp:N0|mc:105829|mtp:S|qry_typ:P|lang:en|wc:2|cs:8888|v=4,M/s. Shakti Oils & Fats,https://www.indiamart.com/shakti-oils/?pos=62&kwd=bio oil&tags=||||9829.308|Price|product|||MDC|rsf:gd-|-stype:attr=1|qr_nm:gd|res:RC3|com-cf:nl|ptrs:na|ktp:N0|mc:105829|mtp:S|qry_typ:P|lang:en|wc:2|cs:8888|v=4,False,Shibpur,Howrah,"Guru Kripa, No. 62/5 Atindra Mukherjee Lane, Shibpur, Howrah - 711102, Dist.Howrah, West Bengal",7942538617,
Herbal Joint Pain Relief,https://www.indiamart.com/proddetail/herbal-joint-pain-relief-17628076230.html?pos=63&kwd=bio oil&tags=||||8619.136|Price|product|||MDC|rsf:gd-|-stype:attr=1|qr_nm:gd|res:RC3|com-cf:nl|ptrs:na|ktp:N0|mc:105829|mtp:S|qry_typ:P|lang:en|wc:2|cs:8888|v=4,Bio Cline Prop S. Prabakaran,https://www.indiamart.com/bio-cline-thanjavur/?pos=63&kwd=bio oil&tags=||||8619.136|Price|product|||MDC|rsf:gd-|-stype:attr=1|qr_nm:gd|res:RC3|com-cf:nl|ptrs:na|ktp:N0|mc:105829|mtp:S|qry_typ:P|lang:en|wc:2|cs:8888|v=4,False,Periyar Nagar,Thanjavur,"No.212, Periyar Tbi, Periyar Maniammai University, Periyar Nagar, Periyar Nagar, Thanjavur - 613403, Dist.Thanjavur, Tamil Nadu",7942866292,
"Pain Relieving Oil - Pr - Best Oil, 60 ml",https://www.indiamart.com/proddetail/pain-relieving-oil-pr-best-oil-26094858397.html?pos=64&kwd=bio oil&tags=||||8740.707|Price|product|||TS|rsf:gd-|-stype:attr=1|qr_nm:gd|res:RC3|com-cf:nl|ptrs:na|ktp:N0|mc:105829|mtp:S|qry_typ:P|lang:en|wc:2|cs:8888|v=4,Soigner Pharma (a Division Of Arlak Biotech Private Limited),https://www.indiamart.com/soignerpharma/?pos=64&kwd=bio oil&tags=||||8740.707|Price|product|||TS|rsf:gd-|-stype:attr=1|qr_nm:gd|res:RC3|com-cf:nl|ptrs:na|ktp:N0|mc:105829|mtp:S|qry_typ:P|lang:en|wc:2|cs:8888|v=4,False,Baltana,Sas Nagar,"SCO 6, Wadhwa Nagar, Baltana, Sas Nagar - 140603, Dist.Mohali, Punjab",8048986628,
"Bio Oil, Pack Size: 60 Ml",https://www.indiamart.com/proddetail/bio-oil-15089343897.html?pos=65&kwd=bio oil&tags=CC||||8746.929||product|||NA|rsf:gd-|-stype:attr=1|qr_nm:gd|res:RC3|com-cf:nl|ptrs:na|ktp:N0|mc:105829|mtp:S|qry_typ:P|lang:en|wc:2|cs:8888|v=4,Amazing Goal Enterprises,https://www.indiamart.com/amazing-goal-enterprises/?pos=65&kwd=bio oil&tags=CC||||8746.929||product|||NA|rsf:gd-|-stype:attr=1|qr_nm:gd|res:RC3|com-cf:nl|ptrs:na|ktp:N0|mc:105829|mtp:S|qry_typ:P|lang:en|wc:2|cs:8888|v=4,False,Sector 51,Chandigarh,"1642, Sector 51, Sector 51, Chandigarh - 160047, Chandigarh",8048372833,441
"Bio Oil, for Personal",https://www.indiamart.com/proddetail/bio-oil-15776418997.html?pos=66&kwd=bio oil&tags=CC||||8687.934||product|||NA|rsf:gd-|-stype:attr=1|qr_nm:gd|res:RC3|com-cf:nl|ptrs:na|ktp:N0|mc:105829|mtp:S|qry_typ:P|lang:en|wc:2|cs:8888|v=4,ARR Enviro Tech,https://www.indiamart.com/arrenvirotech/?pos=66&kwd=bio oil&tags=CC||||8687.934||product|||NA|rsf:gd-|-stype:attr=1|qr_nm:gd|res:RC3|com-cf:nl|ptrs:na|ktp:N0|mc:105829|mtp:S|qry_typ:P|lang:en|wc:2|cs:8888|v=4,False,SS Complex,Virudhunagar,"2/814 F,DHANDAYUTHAPANIPURAM,,SIVAKASI ARR Enviro Tech, 70/1, SS Complex,624005,Dindigul, SS Complex, Virudhunagar - 626130, Dist.Virudhunagar, Tamil Nadu",8048371940,131
"Bio Oil, Pack Size: 60 mL",https://www.indiamart.com/proddetail/bio-oil-20379622062.html?pos=67&kwd=bio oil&tags=CC||||8752.144|Price|product|||NA|rsf:gd-|-stype:attr=1|qr_nm:gd|res:RC3|com-cf:nl|ptrs:na|ktp:N0|mc:105829|mtp:S|qry_typ:P|lang:en|wc:2|cs:8888|v=4,Paviter Medical Agency,https://www.indiamart.com/pavitermedicalagency/?pos=67&kwd=bio oil&tags=CC||||8752.144|Price|product|||NA|rsf:gd-|-stype:attr=1|qr_nm:gd|res:RC3|com-cf:nl|ptrs:na|ktp:N0|mc:105829|mtp:S|qry_typ:P|lang:en|wc:2|cs:8888|v=4,False,Chandni Chowk,New Delhi,"1705/3, IInd Floor, Onkar Bhawan, Bhagirath Palace, Chandni Chowk, New Delhi - 110006, Dist.Delhi, Delhi",8048975649,
Bio Oil,https://www.indiamart.com/proddetail/bio-oil-22972731491.html?pos=68&kwd=bio oil&tags=CC||||8742.853|Price|product|||NA|rsf:gd-|-stype:attr=1|qr_nm:gd|res:RC3|com-cf:nl|ptrs:na|ktp:N0|mc:105829|mtp:S|qry_typ:P|lang:en|wc:2|cs:8888|v=4,M.M Enterprises,https://www.indiamart.com/mmenterprisesharyana/?pos=68&kwd=bio oil&tags=CC||||8742.853|Price|product|||NA|rsf:gd-|-stype:attr=1|qr_nm:gd|res:RC3|com-cf:nl|ptrs:na|ktp:N0|mc:105829|mtp:S|qry_typ:P|lang:en|wc:2|cs:8888|v=4,False,,Sohna,"Plot No. 78, Textile Valley, Industrial Area, Rojkamew, Sohna - 122107, Dist.Gurgaon, Haryana",8047663753,
BIO OIL,https://www.indiamart.com/proddetail/bio-oil-25121123730.html?pos=69&kwd=bio oil&tags=CC||||8319.425||product|||NA|rsf:gd-|-stype:attr=1|qr_nm:gd|res:RC3|com-cf:nl|ptrs:na|ktp:N0|mc:105829|mtp:S|qry_typ:P|lang:en|wc:2|cs:8888|v=4,Mahadev Trading Co.,https://www.indiamart.com/mahadevtradingcompany-146852142/?pos=69&kwd=bio oil&tags=CC||||8319.425||product|||NA|rsf:gd-|-stype:attr=1|qr_nm:gd|res:RC3|com-cf:nl|ptrs:na|ktp:N0|mc:105829|mtp:S|qry_typ:P|lang:en|wc:2|cs:8888|v=4,False,CHB,Jodhpur,"Shop No.4,near Maharshtra Bank, Second Puliya,chb, CHB, Jodhpur - 342008, Dist.Jodhpur, Rajasthan",7949343830,
Bio Oil,https://www.indiamart.com/proddetail/bio-oil-23724708633.html?pos=70&kwd=bio oil&tags=CC||||8047.7524|Price|product|||NA|rsf:gd-|-stype:attr=1|qr_nm:gd|res:RC3|com-cf:nl|ptrs:na|ktp:N0|mc:105829|mtp:S|qry_typ:P|lang:en|wc:2|cs:8888|v=4,Bahuchar Ashish Enterprise,https://www.indiamart.com/bahuchar-ashish-enterprise/?pos=70&kwd=bio oil&tags=CC||||8047.7524|Price|product|||NA|rsf:gd-|-stype:attr=1|qr_nm:gd|res:RC3|com-cf:nl|ptrs:na|ktp:N0|mc:105829|mtp:S|qry_typ:P|lang:en|wc:2|cs:8888|v=4,False,,Morbi,"Plot No 59 P, House No 791, Near Ramji Temple, At Navi Pipali, Morbi - 363642, Dist.Rajkot, Gujarat",8046061081,
Bio Oil,https://www.indiamart.com/proddetail/bio-oil-14401428262.html?pos=71&kwd=bio oil&tags=CC||||8990.347||product|||NA|rsf:gd-|-stype:attr=1|qr_nm:gd|res:RC3|com-cf:nl|ptrs:na|ktp:N0|mc:105829|mtp:S|qry_typ:P|lang:en|wc:2|cs:8888|v=4,Sai Medical Store,https://www.indiamart.com/sai-medical-store-mahoba/?pos=71&kwd=bio oil&tags=CC||||8990.347||product|||NA|rsf:gd-|-stype:attr=1|qr_nm:gd|res:RC3|com-cf:nl|ptrs:na|ktp:N0|mc:105829|mtp:S|qry_typ:P|lang:en|wc:2|cs:8888|v=4,False,Gandhi Nagar,Mahoba,"Gandhi Nagar, Gandhi Nagar, Mahoba - 210427, Dist.Mahoba, Uttar Pradesh",8048247118,6779
Chanda Ayurvedic Pain Oil,https://www.indiamart.com/proddetail/chanda-ayurvedic-pain-oil-2854565956562.html?pos=72&kwd=bio oil&tags=||||8611.289|Price|proxy|||TS|rsf:gd-|-stype:attr=1|qr_nm:gd|res:RC3|com-cf:nl|ptrs:na|ktp:N0|mc:105829|mtp:S|qry_typ:P|lang:en|wc:2|cs:8888|v=4,Ayurvedic Medicine World,https://www.aayurvedicmedicineworld.com/?pos=72&kwd=bio oil&tags=||||8611.289|Price|proxy|||TS|rsf:gd-|-stype:attr=1|qr_nm:gd|res:RC3|com-cf:nl|ptrs:na|ktp:N0|mc:105829|mtp:S|qry_typ:P|lang:en|wc:2|cs:8888|v=4,False,Asnawar,Jhalrapatan,"HOUSE NO-52,,LODHA MOHALLA ,JHITAPURA,Jhalawar, Asnawar, Jhalrapatan - 326023, Dist.Jhalawar, Rajasthan",8047620526,
Ayurvedic Joint Pain Relief Oil,https://www.indiamart.com/proddetail/ayurvedic-joint-pain-relief-oil-2854267447430.html?pos=73&kwd=bio oil&tags=||||8601.347|Price|proxy|||TS|rsf:gd-|-stype:attr=1|qr_nm:gd|res:RC3|com-cf:nl|ptrs:na|ktp:N0|mc:105829|mtp:S|qry_typ:P|lang:en|wc:2|cs:8888|v=4,Bagda Enterprises,https://www.herbalindia.net/?pos=73&kwd=bio oil&tags=||||8601.347|Price|proxy|||TS|rsf:gd-|-stype:attr=1|qr_nm:gd|res:RC3|com-cf:nl|ptrs:na|ktp:N0|mc:105829|mtp:S|qry_typ:P|lang:en|wc:2|cs:8888|v=4,False,Gokulpura,Jaipur,"31,Ramkishan bagro ki dhani,Bishanpura,Radhakishanpura, Gokulpura, Jaipur - 303701, Dist.Jaipur, Rajasthan",7948547252,
100 Ml Black Gold Kalonji Oil,https://www.indiamart.com/proddetail/100-ml-black-gold-kalonji-oil-21446151033.html?pos=74&kwd=bio oil&tags=||||8211.142|Price|proxy|||TS|rsf:gd-|-stype:attr=1|qr_nm:gd|res:RC3|com-cf:nl|ptrs:na|ktp:N0|mc:105829|mtp:S|qry_typ:P|lang:en|wc:2|cs:8888|v=4,LooLoo Herbal,https://www.loolooherbal.com/?pos=74&kwd=bio oil&tags=||||8211.142|Price|proxy|||TS|rsf:gd-|-stype:attr=1|qr_nm:gd|res:RC3|com-cf:nl|ptrs:na|ktp:N0|mc:105829|mtp:S|qry_typ:P|lang:en|wc:2|cs:8888|v=4,False,Kumbharwada,Mumbai,"No. 176/186, Hirji Korshi House, Kumbharwada, Mumbai - 400003, Dist.Mumbai, Maharashtra",8047642427,
"Dr Ortho Ayurvedic Joint Pain Relief Oil, 60 ml",https://www.indiamart.com/proddetail/dr-ortho-ayurvedic-joint-pain-relief-oil-2852844649133.html?pos=75&kwd=bio oil&tags=||||8228.275|Price|proxy|||TS|rsf:gd-|-stype:attr=1|qr_nm:gd|res:RC3|com-cf:nl|ptrs:na|ktp:N0|mc:105829|mtp:S|qry_typ:P|lang:en|wc:2|cs:8888|v=4,Bilnath Healthcare,https://www.indiamart.com/bilnath-healthcare/?pos=75&kwd=bio oil&tags=||||8228.275|Price|proxy|||TS|rsf:gd-|-stype:attr=1|qr_nm:gd|res:RC3|com-cf:nl|ptrs:na|ktp:N0|mc:105829|mtp:S|qry_typ:P|lang:en|wc:2|cs:8888|v=4,False,Bopal,Ahmedabad,"D-379 & 380,Sobo Center,Gala Gymkhana Road South Bopal,Ahmedabad, Bopal, Ahmedabad - 380058, Dist.Ahmedabad, Gujarat",8048971661,
"Ayurvedic Pain Relief Oil, 100 ml",https://www.indiamart.com/proddetail/ayurvedic-pain-relief-oil-2854521197291.html?pos=76&kwd=bio oil&tags=||||9301.656|Price|proxy|||TS|rsf:gd-|-stype:attr=1|qr_nm:gd|res:RC3|com-cf:nl|ptrs:na|ktp:N0|mc:105829|mtp:S|qry_typ:P|lang:en|wc:2|cs:8888|v=4,Medi Cure Pharma,https://www.indiamart.com/medicure-pharma-varanasi/?pos=76&kwd=bio oil&tags=||||9301.656|Price|proxy|||TS|rsf:gd-|-stype:attr=1|qr_nm:gd|res:RC3|com-cf:nl|ptrs:na|ktp:N0|mc:105829|mtp:S|qry_typ:P|lang:en|wc:2|cs:8888|v=4,False,Kotwali,Varanasi,"C 13/98-B, Lahangpura, Aurangabad,, Kotwali, Varanasi - 221010, Dist.Varanasi, Uttar Pradesh",8043877480,
"Skincare Bio Oil, Pack Size: 60 Ml., for Personal",https://www.indiamart.com/proddetail/skincare-bio-oil-15321095362.html?pos=77&kwd=bio oil&tags=CC||||8281.036||product|||NA|rsf:gd-|-stype:attr=1|qr_nm:gd|res:RC3|com-cf:nl|ptrs:na|ktp:N0|mc:105829|mtp:S|qry_typ:P|lang:en|wc:2|cs:8888|v=4,Shree Padma Chemist & Drugist,https://www.indiamart.com/shree-padma-chemistanddrugistvadodara/?pos=77&kwd=bio oil&tags=CC||||8281.036||product|||NA|rsf:gd-|-stype:attr=1|qr_nm:gd|res:RC3|com-cf:nl|ptrs:na|ktp:N0|mc:105829|mtp:S|qry_typ:P|lang:en|wc:2|cs:8888|v=4,False,Tharali Road,Vadodara,"Shop No. 5, Sukumfi Complex, Opposite Canal, Tharali Road, Vadodara - 390024, Dist.Vadodara, Gujarat",8048371649,907
"Bio Skin Care Oil, Packaging Size: 60ml",https://www.indiamart.com/proddetail/bio-skin-care-oil-2853237486848.html?pos=78&kwd=bio oil&tags=CC||||8661.854|Price|product|||NA|rsf:gd-|-stype:attr=1|qr_nm:gd|res:RC3|com-cf:nl|ptrs:na|ktp:N0|mc:105829|mtp:S|qry_typ:P|lang:en|wc:2|cs:8888|v=4,Lucky Medicos,https://www.indiamart.com/luckymedicosludhiana/?pos=78&kwd=bio oil&tags=CC||||8661.854|Price|product|||NA|rsf:gd-|-stype:attr=1|qr_nm:gd|res:RC3|com-cf:nl|ptrs:na|ktp:N0|mc:105829|mtp:S|qry_typ:P|lang:en|wc:2|cs:8888|v=4,False,,Ludhiana,"Booth No. 9,10,19,20, I-Block Market, Sarabha Nagar, Ludhiana - 141001, Dist.Ludhiana, Punjab",7949221840,
Bio Oil-60ml,https://www.indiamart.com/proddetail/bio-oil-60ml-10693183091.html?pos=79&kwd=bio oil&tags=CC||||8786.56||product|||NA|rsf:gd-|-stype:attr=1|qr_nm:gd|res:RC3|com-cf:nl|ptrs:na|ktp:N0|mc:105829|mtp:S|qry_typ:P|lang:en|wc:2|cs:8888|v=4,Impex Trading Co.,https://www.indiamart.com/impex-tradingcompany/?pos=79&kwd=bio oil&tags=CC||||8786.56||product|||NA|rsf:gd-|-stype:attr=1|qr_nm:gd|res:RC3|com-cf:nl|ptrs:na|ktp:N0|mc:105829|mtp:S|qry_typ:P|lang:en|wc:2|cs:8888|v=4,False,Mayuri Nagar,Hyderabad,"LIG-133, HUDA, Mayuri Nagar Miyapur, Mayuri Nagar, Hyderabad - 500049, Dist.Hyderabad, Telangana",8048372756,567
"Bio oil for skin and hair, Packaging Size: 12",,sandip university nashik,https://www.indiamart.com/bhakti-ved-cosmetic-consultancy/?pos=80&kwd=bio oil&tags=CC||||8316.457|Price|product|||NA|rsf:gd-|-stype:attr=1|qr_nm:gd|res:RC3|com-cf:nl|ptrs:na|ktp:N0|mc:105829|mtp:S|qry_typ:P|lang:en|wc:2|cs:8888|v=4,False,Tidke Nagar,Nashik,"b.ved cosmetics,tidke nagar Nashik, Tidke Nagar, Nashik - 422009, Dist.Nashik, Maharashtra",8048247130,5583
"Herbal Moveasan Oil 60 mL, Inshaan Premium, Non Prescription",https://www.indiamart.com/proddetail/moveasan-oil-60-ml-23082808091.html?pos=81&kwd=bio oil&tags=CC||||9578.697|Price|product|||NA|rsf:gd-|-stype:attr=1|qr_nm:gd|res:RC3|com-cf:nl|ptrs:na|ktp:N0|mc:105829|mtp:S|qry_typ:P|lang:en|wc:2|cs:8888|v=4,Inshaan Healthcare Private Limited,https://www.indiamart.com/inshaan-healthcare-pvt-ltd/?pos=81&kwd=bio oil&tags=CC||||9578.697|Price|product|||NA|rsf:gd-|-stype:attr=1|qr_nm:gd|res:RC3|com-cf:nl|ptrs:na|ktp:N0|mc:105829|mtp:S|qry_typ:P|lang:en|wc:2|cs:8888|v=4,False,Kalyani Nagar,Cuttack,"Punjabi Lane, Madhupatana, Kalyani Nagar, Cuttack - 753013, Dist.Cuttack, Odisha",8047663665,
Bio-Oil For Scars,https://www.indiamart.com/proddetail/bio-oil-for-scars-23296794597.html?pos=82&kwd=bio oil&tags=CC||||8211.142||product|||NA|rsf:gd-|-stype:attr=1|qr_nm:gd|res:RC3|com-cf:nl|ptrs:na|ktp:N0|mc:105829|mtp:S|qry_typ:P|lang:en|wc:2|cs:8888|v=4,Dignite,https://www.indiamart.com/dignite/?pos=82&kwd=bio oil&tags=CC||||8211.142||product|||NA|rsf:gd-|-stype:attr=1|qr_nm:gd|res:RC3|com-cf:nl|ptrs:na|ktp:N0|mc:105829|mtp:S|qry_typ:P|lang:en|wc:2|cs:8888|v=4,False,Chembur,Mumbai,"504,Nellai Heights,Swastik Park Chembur, Mumbai, Chembur, Mumbai - 400071, Dist.Mumbai, Maharashtra",8048371948,918
100 Ml Emu Oil,https://www.indiamart.com/proddetail/100-ml-emu-oil-2853149684588.html?pos=83&kwd=bio oil&tags=||||8281.036|Price|proxy|||TS|rsf:gd-|-stype:attr=1|qr_nm:gd|res:RC3|com-cf:nl|ptrs:na|ktp:N0|mc:105829|mtp:S|qry_typ:P|lang:en|wc:2|cs:8888|v=4,Regrows Wellness INC.,https://www.indiamart.com/regrows-wellness-inc/?pos=83&kwd=bio oil&tags=||||8281.036|Price|proxy|||TS|rsf:gd-|-stype:attr=1|qr_nm:gd|res:RC3|com-cf:nl|ptrs:na|ktp:N0|mc:105829|mtp:S|qry_typ:P|lang:en|wc:2|cs:8888|v=4,False,Ajwa Road,Vadodara,"84, Akhand Anand Society-2, Behind Navjivan Bus Stand, Ajwa Road, Ajwa Road, Vadodara - 390019, Dist.Vadodara, Gujarat",7948548420,
"Joint Pain Relief Ayurvedic Oil, 200 ml",https://www.indiamart.com/proddetail/joint-pain-relief-ayurvedic-oil-2854080600312.html?pos=84&kwd=bio oil&tags=||||8767.721|Price|proxy|||TS|rsf:gd-|-stype:attr=1|qr_nm:gd|res:RC3|com-cf:nl|ptrs:na|ktp:N0|mc:105829|mtp:S|qry_typ:P|lang:en|wc:2|cs:8888|v=4,Rajrisht Herbal Pharma,https://www.indiamart.com/rajrisht-herbalpharma/?pos=84&kwd=bio oil&tags=||||8767.721|Price|proxy|||TS|rsf:gd-|-stype:attr=1|qr_nm:gd|res:RC3|com-cf:nl|ptrs:na|ktp:N0|mc:105829|mtp:S|qry_typ:P|lang:en|wc:2|cs:8888|v=4,False,Panchkula,Raipur Rani,"Village Gobindpur, Block Panchkula, Panchkula, Raipur Rani - 134204, Dist.Panchkula, Haryana",7942836512,
"Ayurvedic Double Relief Pain Oil, Packaging Type: Box, Packaging Size: 100 ml X 3 Bottles",https://www.indiamart.com/proddetail/ayurvedic-double-relief-pain-oil-20935009130.html?pos=85&kwd=bio oil&tags=||||8786.56|Price|proxy|||TS|rsf:gd-|-stype:attr=1|qr_nm:gd|res:RC3|com-cf:nl|ptrs:na|ktp:N0|mc:105829|mtp:S|qry_typ:P|lang:en|wc:2|cs:8888|v=4,Super Telebrands,https://www.indiamart.com/supertelebrands/?pos=85&kwd=bio oil&tags=||||8786.56|Price|proxy|||TS|rsf:gd-|-stype:attr=1|qr_nm:gd|res:RC3|com-cf:nl|ptrs:na|ktp:N0|mc:105829|mtp:S|qry_typ:P|lang:en|wc:2|cs:8888|v=4,False,Karmanghat,Hyderabad,"Plot No. 14, Raghava Nagar, Champapet, Karmanghat, Hyderabad - 500079, Dist.Hyderabad, Telangana",8047642554,
"Ayurvedic Body Pain Relief Oil, 100 ml",https://www.indiamart.com/proddetail/ayurvedic-body-pain-relief-oil-2852379371597.html?pos=86&kwd=bio oil&tags=||||8661.854|Price|proxy|||TS|rsf:gd-|-stype:attr=1|qr_nm:gd|res:RC3|com-cf:nl|ptrs:na|ktp:N0|mc:105829|mtp:S|qry_typ:P|lang:en|wc:2|cs:8888|v=4,Streamline Pharma Private Limited,https://www.herbalmedicinesonline.in/?pos=86&kwd=bio oil&tags=||||8661.854|Price|proxy|||TS|rsf:gd-|-stype:attr=1|qr_nm:gd|res:RC3|com-cf:nl|ptrs:na|ktp:N0|mc:105829|mtp:S|qry_typ:P|lang:en|wc:2|cs:8888|v=4,False,Raniwala Mohalla,Ludhiana,"Near Mann Cold Store, Kothe Aath Chak, Raniwala Mohalla, Ludhiana - 142026, Dist.Ludhiana, Punjab",8046076997,
"Ortho Plus Joint Pain Relief Oil, Packaging Size: 100 Ml, Rani Herbals",https://www.indiamart.com/proddetail/joint-pain-relief-oil-20221895362.html?pos=87&kwd=bio oil&tags=||||8601.347|Price|proxy|||TS|rsf:gd-|-stype:attr=1|qr_nm:gd|res:RC3|com-cf:nl|ptrs:na|ktp:N0|mc:105829|mtp:S|qry_typ:P|lang:en|wc:2|cs:8888|v=4,Rani Herbals,https://www.raniherbals.in/?pos=87&kwd=bio oil&tags=||||8601.347|Price|proxy|||TS|rsf:gd-|-stype:attr=1|qr_nm:gd|res:RC3|com-cf:nl|ptrs:na|ktp:N0|mc:105829|mtp:S|qry_typ:P|lang:en|wc:2|cs:8888|v=4,False,kalwar road jhotwara,Jaipur,"plot no 76-B, Jai Dadi nagar extension, kalwar road jhotwara, Jaipur - 302021, Dist.Jaipur, Rajasthan",8048978576,
Orthoplus joint pain oil,https://www.indiamart.com/proddetail/orthoplus-joint-pain-oil-2853770467155.html?pos=88&kwd=bio oil&tags=||||8785.608|Price|proxy|||TS|rsf:gd-|-stype:attr=1|qr_nm:gd|res:RC3|com-cf:nl|ptrs:na|ktp:N0|mc:105829|mtp:S|qry_typ:P|lang:en|wc:2|cs:8888|v=4,Alam Pharmacy,https://www.indiamart.com/alampharmacy/?pos=88&kwd=bio oil&tags=||||8785.608|Price|proxy|||TS|rsf:gd-|-stype:attr=1|qr_nm:gd|res:RC3|com-cf:nl|ptrs:na|ktp:N0|mc:105829|mtp:S|qry_typ:P|lang:en|wc:2|cs:8888|v=4,False,Sector 17,Yamuna Nagar,"Villagerampur Ariyan, P.Osadhaura, Jagadhri, Sector 17, Yamuna Nagar - 135001, Dist.Yamuna Nagar, Haryana",8046057077,
"Narayani Veda Joint Pain Oil, 100 ml",https://www.indiamart.com/proddetail/narayani-veda-joint-pain-oil-23417091648.html?pos=89&kwd=bio oil&tags=||||8752.144|Price|proxy|||TS|rsf:gd-|-stype:attr=1|qr_nm:gd|res:RC3|com-cf:nl|ptrs:na|ktp:N0|mc:105829|mtp:S|qry_typ:P|lang:en|wc:2|cs:8888|v=4,La Grande P Ltd,https://www.lanutra.co/?pos=89&kwd=bio oil&tags=||||8752.144|Price|proxy|||TS|rsf:gd-|-stype:attr=1|qr_nm:gd|res:RC3|com-cf:nl|ptrs:na|ktp:N0|mc:105829|mtp:S|qry_typ:P|lang:en|wc:2|cs:8888|v=4,True,Power House,New Delhi,"LA GRANDE PRIVATE LIMITED, Power House, New Delhi - 110035, Dist.Delhi, Delhi",8048980723,
"Pain Relief Oil, 60 ml",https://www.indiamart.com/proddetail/pain-relief-oil-27086755448.html?pos=90&kwd=bio oil&tags=||||8661.854|Price|proxy|||TS|rsf:gd-|-stype:attr=1|qr_nm:gd|res:RC3|com-cf:nl|ptrs:na|ktp:N0|mc:105829|mtp:S|qry_typ:P|lang:en|wc:2|cs:8888|v=4,Forever Herbal Products Private Limited,https://www.indiamart.com/foreverherbalproducts/?pos=90&kwd=bio oil&tags=||||8661.854|Price|proxy|||TS|rsf:gd-|-stype:attr=1|qr_nm:gd|res:RC3|com-cf:nl|ptrs:na|ktp:N0|mc:105829|mtp:S|qry_typ:P|lang:en|wc:2|cs:8888|v=4,False,Sandhu Nagar,Ludhiana,"SCO-25, Surjit Colony, Near Sangam Palace Jassian Road, Sandhu Nagar, Ludhiana - 141001, Dist.Ludhiana, Punjab",8046035747,
"Herbals Joint Pain Relief Oil, 60 ml",https://www.indiamart.com/proddetail/herbals-joint-pain-relief-oil-2854503540112.html?pos=91&kwd=bio oil&tags=||||8860.933|Price|proxy|||MDC|rsf:gd-|-stype:attr=1|qr_nm:gd|res:RC3|com-cf:nl|ptrs:na|ktp:N0|mc:105829|mtp:S|qry_typ:P|lang:en|wc:2|cs:8888|v=4,AVS Ventures,https://www.indiamart.com/avs-ventures/?pos=91&kwd=bio oil&tags=||||8860.933|Price|proxy|||MDC|rsf:gd-|-stype:attr=1|qr_nm:gd|res:RC3|com-cf:nl|ptrs:na|ktp:N0|mc:105829|mtp:S|qry_typ:P|lang:en|wc:2|cs:8888|v=4,False,,Dehradun,"84 Paltan Bazar, Dehradun - 248001, Dist.Dehradun, Uttarakhand",8045730930,
"Sandhi Guard Joint Pain Relief Oil, 50 ml",https://www.indiamart.com/proddetail/sandhi-guard-joint-pain-relief-oil-24469502830.html?pos=92&kwd=bio oil&tags=||||8785.791|Price|proxy|||TS|rsf:gd-|-stype:attr=1|qr_nm:gd|res:RC3|com-cf:nl|ptrs:na|ktp:N0|mc:105829|mtp:S|qry_typ:P|lang:en|wc:2|cs:8888|v=4,Aadya Life Sciences LLP,https://www.indiamart.com/aadya-life-sciences/?pos=92&kwd=bio oil&tags=||||8785.791|Price|proxy|||TS|rsf:gd-|-stype:attr=1|qr_nm:gd|res:RC3|com-cf:nl|ptrs:na|ktp:N0|mc:105829|mtp:S|qry_typ:P|lang:en|wc:2|cs:8888|v=4,False,Mohan Nagar,Ghaziabad,"first Floor 7/6 Site-2, Loni Road Mohan Nagar Mohan Nagar, Mohan Nagar, Ghaziabad - 201007, Dist.Ghaziabad, Uttar Pradesh",7942715821,
"PAINWAR OIL, For Muscle Pain, 60 ml",https://www.indiamart.com/proddetail/painwar-oil-2853301806912.html?pos=93&kwd=bio oil&tags=||||8785.791|Price|proxy|||TS|rsf:gd-|-stype:attr=1|qr_nm:gd|res:RC3|com-cf:nl|ptrs:na|ktp:N0|mc:105829|mtp:S|qry_typ:P|lang:en|wc:2|cs:8888|v=4,Unite Care,https://www.indiamart.com/unite-care/?pos=93&kwd=bio oil&tags=||||8785.791|Price|proxy|||TS|rsf:gd-|-stype:attr=1|qr_nm:gd|res:RC3|com-cf:nl|ptrs:na|ktp:N0|mc:105829|mtp:S|qry_typ:P|lang:en|wc:2|cs:8888|v=4,False,Delhi Gate,Ghaziabad,"Punjab Oil Expeller Compound Meerut Road, Delhi Gate, Ghaziabad - 201001, Dist.Ghaziabad, Uttar Pradesh",7942563762,
"Bio Skin Care Oil, Packaging Type: Box",https://www.indiamart.com/proddetail/bio-skin-care-oil-2852378650062.html?pos=94&kwd=bio oil&tags=CC||||8663.873|Price|product|||NA|rsf:gd-|-stype:attr=1|qr_nm:gd|res:RC3|com-cf:nl|ptrs:na|ktp:N0|mc:105829|mtp:S|qry_typ:P|lang:en|wc:2|cs:8888|v=4,Venkata Sai Durga Medicals & General Stores,https://www.indiamart.com/venkatasaidurgamedicalsgeneralstores/?pos=94&kwd=bio oil&tags=CC||||8663.873|Price|product|||NA|rsf:gd-|-stype:attr=1|qr_nm:gd|res:RC3|com-cf:nl|ptrs:na|ktp:N0|mc:105829|mtp:S|qry_typ:P|lang:en|wc:2|cs:8888|v=4,False,Halehalli,Bengaluru,"1st Floor, Shop No-2, SBD Complex, Kithiganur,Halehalli Village, Opp- To Srinivas Nagar, Halehalli, Bengaluru - 560036, Dist.Bengaluru, Karnataka",7942707600,
NOTOGESIC AYURVEDIC OIL & TABLET,https://www.indiamart.com/proddetail/notogesic-ayurvedic-oil-tablet-2854127676312.html?pos=95&kwd=bio oil&tags=||||9110.092|Price|proxy|||TS|rsf:gd-|-stype:attr=1|qr_nm:gd|res:RC3|com-cf:nl|ptrs:na|ktp:N0|mc:105829|mtp:S|qry_typ:P|lang:en|wc:2|cs:8888|v=4,Avail Healthcare Private Limited,https://www.availayurvedico.com/?pos=95&kwd=bio oil&tags=||||9110.092|Price|proxy|||TS|rsf:gd-|-stype:attr=1|qr_nm:gd|res:RC3|com-cf:nl|ptrs:na|ktp:N0|mc:105829|mtp:S|qry_typ:P|lang:en|wc:2|cs:8888|v=4,False,Hind Nagar,Lucknow,"Corporate Office- E-181, 1st Floor, Phase-1, Kanpur Road, Transport Nagar, Hind Nagar, Lucknow - 226012, Dist.Lucknow, Uttar Pradesh",8045908165,
Kneesol Magic Oil,https://www.indiamart.com/proddetail/kneesol-magic-oil-24042440273.html?pos=96&kwd=bio oil&tags=||||8230.883|Price|proxy|||MDC|rsf:gd-|-stype:attr=1|qr_nm:gd|res:RC3|com-cf:nl|ptrs:na|ktp:N0|mc:105829|mtp:S|qry_typ:P|lang:en|wc:2|cs:8888|v=4,Madhusudan Health Care,https://www.indiamart.com/madhusudan-healthcare/?pos=96&kwd=bio oil&tags=||||8230.883|Price|proxy|||MDC|rsf:gd-|-stype:attr=1|qr_nm:gd|res:RC3|com-cf:nl|ptrs:na|ktp:N0|mc:105829|mtp:S|qry_typ:P|lang:en|wc:2|cs:8888|v=4,False,Textile Market Area,Surat,"Higher Ground Floor, Ward No.-3, Hg-5, Raghunandan Textile Market, Textile Market Area, Surat - 395002, Dist.Surat, Gujarat",8043857596,
Muscle Pain Oil,https://www.indiamart.com/proddetail/muscle-pain-oil-2853112812348.html?pos=97&kwd=bio oil&tags=||||8601.347|Price|proxy|||TS|rsf:gd-|-stype:attr=1|qr_nm:gd|res:RC3|com-cf:nl|ptrs:na|ktp:N0|mc:105829|mtp:S|qry_typ:P|lang:en|wc:2|cs:8888|v=4,RK Herbal,https://www.rkherbal.com/?pos=97&kwd=bio oil&tags=||||8601.347|Price|proxy|||TS|rsf:gd-|-stype:attr=1|qr_nm:gd|res:RC3|com-cf:nl|ptrs:na|ktp:N0|mc:105829|mtp:S|qry_typ:P|lang:en|wc:2|cs:8888|v=4,False,Jaipur,Jaipur,"Plot No. 152, Unit No. S-2, Yogesh Residency, Shrinivas Nagar, Road No. 6, Vishwakarma, Jaipur, Jaipur - 302013, Dist.Jaipur, Rajasthan",8046034038,
50ml Hitkar Pain Relief Oil,https://www.indiamart.com/proddetail/50ml-hitkar-pain-relief-oil-6450007955.html?pos=98&kwd=bio oil&tags=||||8461.862|Price|proxy|||MDC|rsf:gd-|-stype:attr=1|qr_nm:gd|res:RC3|com-cf:nl|ptrs:na|ktp:N0|mc:105829|mtp:S|qry_typ:P|lang:en|wc:2|cs:8888|v=4,Hitkar Ayurved Bhavan,https://www.indiamart.com/hitkar-ayurved-bhavan/?pos=98&kwd=bio oil&tags=||||8461.862|Price|proxy|||MDC|rsf:gd-|-stype:attr=1|qr_nm:gd|res:RC3|com-cf:nl|ptrs:na|ktp:N0|mc:105829|mtp:S|qry_typ:P|lang:en|wc:2|cs:8888|v=4,False,Bhopal Ganj,Bhilwara,"Opp Sales Tax Office, Ajmer Road, Bhilwara, Bhopal Ganj, Bhilwara - 311001, Dist.Bhilwara, Rajasthan",8043876083,
"Fraink Ortho Care Ointment Oil, 50 ml",https://www.indiamart.com/proddetail/fraink-ortho-care-ointment-oil-2853740970591.html?pos=99&kwd=bio oil&tags=||||8915.672|Price|proxy|||MDC|rsf:gd-|-stype:attr=1|qr_nm:gd|res:RC3|com-cf:nl|ptrs:na|ktp:N0|mc:105829|mtp:S|qry_typ:P|lang:en|wc:2|cs:8888|v=4,Frank Formulation Ayurvedic Farmecy,https://www.indiamart.com/frankformulationayurvedicfarmecy/?pos=99&kwd=bio oil&tags=||||8915.672|Price|proxy|||MDC|rsf:gd-|-stype:attr=1|qr_nm:gd|res:RC3|com-cf:nl|ptrs:na|ktp:N0|mc:105829|mtp:S|qry_typ:P|lang:en|wc:2|cs:8888|v=4,False,Fatehpuri,Moradabad,"0, Fatehpuri, Bhjpur, Dharampur, Fatehpuri, Moradabad - 244001, Dist.Moradabad, Uttar Pradesh",8044013514,
stretch marks cream stretch marks cream for women bio oil for stretch marks,https://www.indiamart.com/proddetail/stretch-marks-cream-stretch-marks-cream-for-women-bio-oil-for-stretch-marks-2852844107333.html?pos=100&kwd=bio oil&tags=||||10151.025|Price|product|||NA|rsf:gd-|-stype:attr=1|qr_nm:gd|res:RC3|com-cf:nl|ptrs:na|ktp:N0|mc:105829|mtp:S|qry_typ:P|lang:en|wc:2|cs:8888|v=4,Jain Supply,https://www.indiamart.com/jain-supply/?pos=100&kwd=bio oil&tags=||||10151.025|Price|product|||NA|rsf:gd-|-stype:attr=1|qr_nm:gd|res:RC3|com-cf:nl|ptrs:na|ktp:N0|mc:105829|mtp:S|qry_typ:P|lang:en|wc:2|cs:8888|v=4,False,,Nalbari,"NA,,Krishna Nagar,Nalbari Krishna Nagar, Nalbari, Nalbari, Assam, 781335,,Guwahati, Nalbari - 781335, Dist.Nalbari, Assam",7949373924,
"Ortho No 1 Oil, Packaging Size: 100ml, Treatment: Pain Relief",https://www.indiamart.com/proddetail/ortho-no-1-oil-23537178688.html?pos=101&kwd=bio oil&tags=||||8754.115|Price|proxy|||TS|rsf:gd-|-stype:attr=1|qr_nm:gd|res:RC3|com-cf:nl|ptrs:na|ktp:N0|mc:105829|mtp:S|qry_typ:P|lang:en|wc:2|cs:8888|v=4,Tyzpure Lifesciences Private Limited,https://www.indiamart.com/tyzpurelifesciences/?pos=101&kwd=bio oil&tags=||||8754.115|Price|proxy|||TS|rsf:gd-|-stype:attr=1|qr_nm:gd|res:RC3|com-cf:nl|ptrs:na|ktp:N0|mc:105829|mtp:S|qry_typ:P|lang:en|wc:2|cs:8888|v=4,False,Sector 20,Panchkula,"Sco 95, First Floor, Sector 21, Sector 20, Panchkula - 134112, Dist.Panchkula, Haryana",8048985154,
"Herbal Rumawin Joint Pain Oil, 100 ml",https://www.indiamart.com/proddetail/herbal-rumawin-joint-pain-oil-2889792697.html?pos=102&kwd=bio oil&tags=||||8661.854|Price|proxy|||TS|rsf:gd-|-stype:attr=1|qr_nm:gd|res:RC3|com-cf:nl|ptrs:na|ktp:N0|mc:105829|mtp:S|qry_typ:P|lang:en|wc:2|cs:8888|v=4,Wintrust Pharmaceuticals Ltd.,https://www.wintrustpharmaceuticals.com/?pos=102&kwd=bio oil&tags=||||8661.854|Price|proxy|||TS|rsf:gd-|-stype:attr=1|qr_nm:gd|res:RC3|com-cf:nl|ptrs:na|ktp:N0|mc:105829|mtp:S|qry_typ:P|lang:en|wc:2|cs:8888|v=4,False,Manakwal,Ludhiana,"Dugri Dhandra Road, Urban Estate, Manakwal, Ludhiana - 141002, Dist.Ludhiana, Punjab",8047623002,
"Orthrex Pain Relief oil, 60 ml",https://www.indiamart.com/proddetail/orthrex-pain-relief-oil-23990212433.html?pos=103&kwd=bio oil&tags=||||8746.929|Price|proxy|||TS|rsf:gd-|-stype:attr=1|qr_nm:gd|res:RC3|com-cf:nl|ptrs:na|ktp:N0|mc:105829|mtp:S|qry_typ:P|lang:en|wc:2|cs:8888|v=4,Sunroxx Pharma,https://www.indiamart.com/sunroxx-pharma/?pos=103&kwd=bio oil&tags=||||8746.929|Price|proxy|||TS|rsf:gd-|-stype:attr=1|qr_nm:gd|res:RC3|com-cf:nl|ptrs:na|ktp:N0|mc:105829|mtp:S|qry_typ:P|lang:en|wc:2|cs:8888|v=4,False,Manimajra,Chandigarh,"S C F No. 461, 1st Floor, Motor Market, Manimajra, Chandigarh - 160101, Chandigarh",8046037540,
Cure On Pain Relieving Oil,https://www.indiamart.com/proddetail/cure-on-pain-relieving-oil-2024565688.html?pos=104&kwd=bio oil&tags=||||8223.226|Price|proxy|||TS|rsf:gd-|-stype:attr=1|qr_nm:gd|res:RC3|com-cf:nl|ptrs:na|ktp:N0|mc:105829|mtp:S|qry_typ:P|lang:en|wc:2|cs:8888|v=4,Pitambari Products Private Limited,https://www.pitambari.in/?pos=104&kwd=bio oil&tags=||||8223.226|Price|proxy|||TS|rsf:gd-|-stype:attr=1|qr_nm:gd|res:RC3|com-cf:nl|ptrs:na|ktp:N0|mc:105829|mtp:S|qry_typ:P|lang:en|wc:2|cs:8888|v=4,False,Naupada,Thane,"B Wing,3rd Floor,Hemendra C.H.S.Ltd.,Gokhale Road, Naupada,Thane West, Naupada, Thane - 400602, Dist.Thane, Maharashtra",8048966214,
stretch marks cream for women bio oil for stretch marks stretch marks cream after delivery,https://www.indiamart.com/proddetail/stretch-marks-cream-for-women-bio-oil-for-stretch-marks-stretch-marks-cream-after-delivery-2852549335373.html?pos=105&kwd=bio oil&tags=||||8741.812|Price|product|||NA|rsf:gd-|-stype:attr=1|qr_nm:gd|res:RC3|com-cf:nl|ptrs:na|ktp:N0|mc:105829|mtp:S|qry_typ:P|lang:en|wc:2|cs:8888|v=4,Krishna Collections,https://www.indiamart.com/krishna-collectionsgurugram/?pos=105&kwd=bio oil&tags=||||8741.812|Price|product|||NA|rsf:gd-|-stype:attr=1|qr_nm:gd|res:RC3|com-cf:nl|ptrs:na|ktp:N0|mc:105829|mtp:S|qry_typ:P|lang:en|wc:2|cs:8888|v=4,False,,Gurugram,"107, 2nd Floor, Ashok Vihar, Phase 2, Near Dr. Kaul Clinic, Street No 14, Gurugram - 122006, Dist.Gurgaon, Haryana",8043843945,
Vigini Natural Actives Erase Stretch Marks & Scars Removal Oil Cream With Bio Oils & Use As Body Butter | Remove Remover Removing Stretch Mark In During After Pregnancy For Women & Hyper Pigemantation Anti-Aging Uneven Skin Men Use-100ml,https://www.indiamart.com/proddetail/vigini-natural-actives-erase-stretch-marks-scars-removal-oil-cream-with-bio-oils-use-as-body-butter-remove-remover-removing-stretch-mark-in-during-after-pregnancy-for-women-hyper-pigemantation-anti-aging-uneven-skin-men-use-100ml-2850414498312.html?pos=106&kwd=bio oil&tags=||||8663.873||product|||NA|rsf:gd-|-stype:attr=1|qr_nm:gd|res:RC3|com-cf:nl|ptrs:na|ktp:N0|mc:105829|mtp:S|qry_typ:P|lang:en|wc:2|cs:8888|v=4,Global Medicare Inc,https://www.indiamart.com/global-medicare-inc/?pos=106&kwd=bio oil&tags=||||8663.873||product|||NA|rsf:gd-|-stype:attr=1|qr_nm:gd|res:RC3|com-cf:nl|ptrs:na|ktp:N0|mc:105829|mtp:S|qry_typ:P|lang:en|wc:2|cs:8888|v=4,False,,Bengaluru,"1207/343/1,9th Main,Sierra Cartel Coworking Spaces,Hsr Layout,Sector-7,Bengaluru Urban, Bengaluru - 560102, Dist.Bengaluru, Karnataka",8047309010,6647
"Dard Vinashak Oil, 60 ml",https://www.indiamart.com/proddetail/dard-vinashak-oil-2853746966112.html?pos=107&kwd=bio oil&tags=||||9301.656|Price|proxy|||MDC|rsf:gd-|-stype:attr=1|qr_nm:gd|res:RC3|com-cf:nl|ptrs:na|ktp:N0|mc:105829|mtp:S|qry_typ:P|lang:en|wc:2|cs:8888|v=4,Eleven One Global Industries Private Limited,https://www.indiamart.com/elevenoneglobal-industries/?pos=107&kwd=bio oil&tags=||||9301.656|Price|proxy|||MDC|rsf:gd-|-stype:attr=1|qr_nm:gd|res:RC3|com-cf:nl|ptrs:na|ktp:N0|mc:105829|mtp:S|qry_typ:P|lang:en|wc:2|cs:8888|v=4,False,Pindra,Varanasi,"71, Dhora, Barahi, Pindra, Varanasi - 221207, Dist.Varanasi, Uttar Pradesh",8044013688,
"Diknac Joint Pain Relief Oil, Packaging Size: 60ml",https://www.indiamart.com/proddetail/joint-pain-relief-oil-23685310797.html?pos=108&kwd=bio oil&tags=||||8860.933|Price|proxy|||TS|rsf:gd-|-stype:attr=1|qr_nm:gd|res:RC3|com-cf:nl|ptrs:na|ktp:N0|mc:105829|mtp:S|qry_typ:P|lang:en|wc:2|cs:8888|v=4,Pride Pharma,https://www.indiamart.com/pride-pharma/?pos=108&kwd=bio oil&tags=||||8860.933|Price|proxy|||TS|rsf:gd-|-stype:attr=1|qr_nm:gd|res:RC3|com-cf:nl|ptrs:na|ktp:N0|mc:105829|mtp:S|qry_typ:P|lang:en|wc:2|cs:8888|v=4,False,Balliwala,Dehradun,"94/1, Lane No 1, Shree Ram Puram Colony, 24 Shree Ram Complex, Kanwali Road, Balliwala, Dehradun - 248001, Dist.Dehradun, Uttarakhand",8047645561,
"Herbal Pain Relief Oil, 60 ml",https://www.indiamart.com/proddetail/herbal-pain-relief-oil-2850899369130.html?pos=109&kwd=bio oil&tags=||||8601.347|Price|proxy|||TS|rsf:gd-|-stype:attr=1|qr_nm:gd|res:RC3|com-cf:nl|ptrs:na|ktp:N0|mc:105829|mtp:S|qry_typ:P|lang:en|wc:2|cs:8888|v=4,Gaurav Enterprises,https://www.indiamart.com/gauraventerprisesjaipur/?pos=109&kwd=bio oil&tags=||||8601.347|Price|proxy|||TS|rsf:gd-|-stype:attr=1|qr_nm:gd|res:RC3|com-cf:nl|ptrs:na|ktp:N0|mc:105829|mtp:S|qry_typ:P|lang:en|wc:2|cs:8888|v=4,False,Vaishali Nagar,Jaipur,"Plot No.185 Kalwar, Vaishali Nagar, Jaipur - 303706, Dist.Jaipur, Rajasthan",8047655830,
"Ayurvedic Pain Kill Oil for Joints & Muscles - Natural, Fast Relief, 50 ml",https://www.indiamart.com/proddetail/ayurvedic-pain-kill-oil-for-joints-muscles-natural-fast-relief-2851609830973.html?pos=110&kwd=bio oil&tags=||||8601.347|Price|proxy|||TS|rsf:gd-|-stype:attr=1|qr_nm:gd|res:RC3|com-cf:nl|ptrs:na|ktp:N0|mc:105829|mtp:S|qry_typ:P|lang:en|wc:2|cs:8888|v=4,Ayubal Wellness Private Limited,https://www.ayubalherbal.com/?pos=110&kwd=bio oil&tags=||||8601.347|Price|proxy|||TS|rsf:gd-|-stype:attr=1|qr_nm:gd|res:RC3|com-cf:nl|ptrs:na|ktp:N0|mc:105829|mtp:S|qry_typ:P|lang:en|wc:2|cs:8888|v=4,False,jaipur,Jaipur,"H-1-896, Phase Third Riico Ind. Sitapura, jaipur, Jaipur - 302022, Dist.Jaipur, Rajasthan",8048603534,
"Pain Relief Oil, 60 ml",https://www.indiamart.com/proddetail/pain-relief-oil-24182840448.html?pos=111&kwd=bio oil&tags=||||9301.656||proxy|||TS|rsf:gd-|-stype:attr=1|qr_nm:gd|res:RC3|com-cf:nl|ptrs:na|ktp:N0|mc:105829|mtp:S|qry_typ:P|lang:en|wc:2|cs:8888|v=4,Ansum Healthcare,https://www.indiamart.com/ansumhealthcare/?pos=111&kwd=bio oil&tags=||||9301.656||proxy|||TS|rsf:gd-|-stype:attr=1|qr_nm:gd|res:RC3|com-cf:nl|ptrs:na|ktp:N0|mc:105829|mtp:S|qry_typ:P|lang:en|wc:2|cs:8888|v=4,False,Saket Nagar,Varanasi,"B 32/32 A210 A Saket Nagar Colony Lakshmi Narayan Chaubey, Saket Nagar, Varanasi - 221005, Dist.Varanasi, Uttar Pradesh",7942531734,
Joint Pain Oil,https://www.indiamart.com/proddetail/joint-pain-oil-2853368725230.html?pos=112&kwd=bio oil&tags=||||8799.955|Price|proxy|||TS|rsf:gd-|-stype:attr=1|qr_nm:gd|res:RC3|com-cf:nl|ptrs:na|ktp:N0|mc:105829|mtp:S|qry_typ:P|lang:en|wc:2|cs:8888|v=4,Naturepower Healthcare Private Limited,https://www.indiamart.com/naturepowerhealthcare/?pos=112&kwd=bio oil&tags=||||8799.955|Price|proxy|||TS|rsf:gd-|-stype:attr=1|qr_nm:gd|res:RC3|com-cf:nl|ptrs:na|ktp:N0|mc:105829|mtp:S|qry_typ:P|lang:en|wc:2|cs:8888|v=4,False,Hayatpur,Mahaban,"0, 0, Nagla Khema, Hayatpur, Mathura, Hayatpur, Mahaban - 281305, Dist.Mathura, Uttar Pradesh",7942967863,
"Jod Dard Vikar Bhedak Oil, Packaging Type: Box, Packaging Size: 60 Ml",https://www.indiamart.com/proddetail/jod-dard-vikar-bhedak-oil-20522487955.html?pos=113&kwd=bio oil&tags=||||8752.144|Price|proxy|||TS|rsf:gd-|-stype:attr=1|qr_nm:gd|res:RC3|com-cf:nl|ptrs:na|ktp:N0|mc:105829|mtp:S|qry_typ:P|lang:en|wc:2|cs:8888|v=4,Goodluck Ayurveda Private Limited,https://www.goodluckayurveda.co.in/?pos=113&kwd=bio oil&tags=||||8752.144|Price|proxy|||TS|rsf:gd-|-stype:attr=1|qr_nm:gd|res:RC3|com-cf:nl|ptrs:na|ktp:N0|mc:105829|mtp:S|qry_typ:P|lang:en|wc:2|cs:8888|v=4,False,Naharpur Village,New Delhi,"A-1/2, Sector 7, Rohini, Naharpur Village, New Delhi - 110085, Dist.Delhi, Delhi",8048957123,
"Sanwaria Joint Pain Relief Oil, 50 ml",https://www.indiamart.com/proddetail/sanwaria-joint-pain-relief-oil-2854098939062.html?pos=114&kwd=bio oil&tags=||||8753.51|Price|proxy|||MDC|rsf:gd-|-stype:attr=1|qr_nm:gd|res:RC3|com-cf:nl|ptrs:na|ktp:N0|mc:105829|mtp:S|qry_typ:P|lang:en|wc:2|cs:8888|v=4,Sanwaria Amar Life Care Private Limited,https://www.indiamart.com/sanwariaamarlifecare/?pos=114&kwd=bio oil&tags=||||8753.51|Price|proxy|||MDC|rsf:gd-|-stype:attr=1|qr_nm:gd|res:RC3|com-cf:nl|ptrs:na|ktp:N0|mc:105829|mtp:S|qry_typ:P|lang:en|wc:2|cs:8888|v=4,False,,Karnal,"OPP Old Panchayat Ghar, Village Kachwa, Karnal - 132001, Dist.Karnal, Haryana",7949353758,
"Muscle Pain Oil, 100 ml",https://www.indiamart.com/proddetail/muscle-pain-oil-2853648637333.html?pos=115&kwd=bio oil&tags=||||8754.115|Price|proxy|||TS|rsf:gd-|-stype:attr=1|qr_nm:gd|res:RC3|com-cf:nl|ptrs:na|ktp:N0|mc:105829|mtp:S|qry_typ:P|lang:en|wc:2|cs:8888|v=4,Heilen Life Pharmaceutical,https://www.heilenlife.com/?pos=115&kwd=bio oil&tags=||||8754.115|Price|proxy|||TS|rsf:gd-|-stype:attr=1|qr_nm:gd|res:RC3|com-cf:nl|ptrs:na|ktp:N0|mc:105829|mtp:S|qry_typ:P|lang:en|wc:2|cs:8888|v=4,False,Industrial Estate Panchkula,Panchkula,"Shed No 5, Plot No 357B, Industrial Estate Panchkula, Panchkula - 134113, Dist.Panchkula, Haryana",8047546282,
"Joint Pain Oil, 15 ml",https://www.indiamart.com/proddetail/joint-pain-oil-2850367858655.html?pos=116&kwd=bio oil&tags=||||9061.327|Price|proxy|||TS|rsf:gd-|-stype:attr=1|qr_nm:gd|res:RC3|com-cf:nl|ptrs:na|ktp:N0|mc:105829|mtp:S|qry_typ:P|lang:en|wc:2|cs:8888|v=4,Goswamy Ayurvedic Pharmacy,https://www.indiamart.com/goswamyayurvedicpharmacy/?pos=116&kwd=bio oil&tags=||||9061.327|Price|proxy|||TS|rsf:gd-|-stype:attr=1|qr_nm:gd|res:RC3|com-cf:nl|ptrs:na|ktp:N0|mc:105829|mtp:S|qry_typ:P|lang:en|wc:2|cs:8888|v=4,False,Jalal Pet,Machilipatnam,"29/321 And 322, Chintagunta Palem, Devanga Road, Machilipatnam, Krishna,, Jalal Pet, Machilipatnam - 521001, Dist.Krishna, Andhra Pradesh",8046072519,
"Rheuma Ayurvedic Gold Pain Oil, 50 ml, Prescription",https://www.indiamart.com/proddetail/rheuma-ayurvedic-gold-pain-oil-23718571362.html?pos=117&kwd=bio oil&tags=||||9839.57|Price|proxy|||TS|rsf:gd-|-stype:attr=1|qr_nm:gd|res:RC3|com-cf:nl|ptrs:na|ktp:N0|mc:105829|mtp:S|qry_typ:P|lang:en|wc:2|cs:8888|v=4,MHprakriti,https://www.mhprakriti.in/?pos=117&kwd=bio oil&tags=||||9839.57|Price|proxy|||TS|rsf:gd-|-stype:attr=1|qr_nm:gd|res:RC3|com-cf:nl|ptrs:na|ktp:N0|mc:105829|mtp:S|qry_typ:P|lang:en|wc:2|cs:8888|v=4,False,Machuabazar,Kolkata,"17, Amar Street Barabazar, Machuabazar, Kolkata - 700001, Dist.Kolkata, West Bengal",8048959896,
"Dardona Joint Pain Oil, 120 ml",https://www.indiamart.com/proddetail/dardona-joint-pain-oil-25331685712.html?pos=118&kwd=bio oil&tags=||||9152.274|Price|proxy|||TS|rsf:gd-|-stype:attr=1|qr_nm:gd|res:RC3|com-cf:nl|ptrs:na|ktp:N0|mc:105829|mtp:S|qry_typ:P|lang:en|wc:2|cs:8888|v=4,Shiv Ayurvedic,https://www.indiamart.com/shiv-ayurvedic/?pos=118&kwd=bio oil&tags=||||9152.274|Price|proxy|||TS|rsf:gd-|-stype:attr=1|qr_nm:gd|res:RC3|com-cf:nl|ptrs:na|ktp:N0|mc:105829|mtp:S|qry_typ:P|lang:en|wc:2|cs:8888|v=4,False,Itwari Bazar,Dhamtari,"Gokulpur Laxmi Nivas Chowk,Common Service Centre,, Itwari Bazar, Dhamtari - 493773, Dist.Dhamtari, Chhattisgarh",8048206502,
"Jodflex Oil, 100 ml",https://www.indiamart.com/proddetail/jodflex-oil-2853192718333.html?pos=119&kwd=bio oil&tags=||||9653.303|Price|proxy|||TS|rsf:gd-|-stype:attr=1|qr_nm:gd|res:RC3|com-cf:nl|ptrs:na|ktp:N0|mc:105829|mtp:S|qry_typ:P|lang:en|wc:2|cs:8888|v=4,Ashoka Ayurveda,https://www.indiamart.com/ashoka-ayurveda/?pos=119&kwd=bio oil&tags=||||9653.303|Price|proxy|||TS|rsf:gd-|-stype:attr=1|qr_nm:gd|res:RC3|com-cf:nl|ptrs:na|ktp:N0|mc:105829|mtp:S|qry_typ:P|lang:en|wc:2|cs:8888|v=4,False,Sheikhpura,Monghyr,", Sheikhpura, Monghyr - 811105, Dist.Munger, Bihar",8047671470,
"50ml Vat Fit Joint Pain Relief Oil, Packaging Type: Box",https://www.indiamart.com/proddetail/50ml-vat-fit-joint-pain-relief-oil-2852356071697.html?pos=120&kwd=bio oil&tags=||||9339.9375|Price|proxy|||TS|rsf:gd-|-stype:attr=1|qr_nm:gd|res:RC3|com-cf:nl|ptrs:na|ktp:N0|mc:105829|mtp:S|qry_typ:P|lang:en|wc:2|cs:8888|v=4,Ayurvedic Herbal,https://www.indiamart.com/ayurvedicherbal/?pos=120&kwd=bio oil&tags=||||9339.9375|Price|proxy|||TS|rsf:gd-|-stype:attr=1|qr_nm:gd|res:RC3|com-cf:nl|ptrs:na|ktp:N0|mc:105829|mtp:S|qry_typ:P|lang:en|wc:2|cs:8888|v=4,False,Bamhaur,Amilo,"Sadar, Salarpur, Azamgarh, Bamhaur, Amilo - 276404, Dist.Azamgarh, Uttar Pradesh",7942707811,
"Vatraj Oil, Grade Standard: Medicine Grade, Packaging Size: 50ml",https://www.indiamart.com/proddetail/vatraj-oil-3838513462.html?pos=121&kwd=bio oil&tags=||||8211.142|Price|proxy|||TS|rsf:gd-|-stype:attr=1|qr_nm:gd|res:RC3|com-cf:nl|ptrs:na|ktp:N0|mc:105829|mtp:S|qry_typ:P|lang:en|wc:2|cs:8888|v=4,Aliba Marketing/Rifca Medicure,https://www.indiamart.com/marudharagency/?pos=121&kwd=bio oil&tags=||||8211.142|Price|proxy|||TS|rsf:gd-|-stype:attr=1|qr_nm:gd|res:RC3|com-cf:nl|ptrs:na|ktp:N0|mc:105829|mtp:S|qry_typ:P|lang:en|wc:2|cs:8888|v=4,False,Antop Hill,Mumbai,"202,C/1/16, 2ND FLOOR, CHANDRAKIRAN CHS, SHAIKH MISREE ROAD, KALPAK ESTATE KALPAK ESTATE, Antop Hill, Mumbai - 400037, Dist.Mumbai, Maharashtra",8048970146,
Dashmool Herbal Pain Relief Oil,https://www.indiamart.com/proddetail/dashmool-herbal-pain-relief-oil-2851061269830.html?pos=122&kwd=bio oil&tags=||||8230.883|Price|proxy|||TS|rsf:gd-|-stype:attr=1|qr_nm:gd|res:RC3|com-cf:nl|ptrs:na|ktp:N0|mc:105829|mtp:S|qry_typ:P|lang:en|wc:2|cs:8888|v=4,Aarvi Enterprise,https://www.indiamart.com/aarvienterprisegujarat/?pos=122&kwd=bio oil&tags=||||8230.883|Price|proxy|||TS|rsf:gd-|-stype:attr=1|qr_nm:gd|res:RC3|com-cf:nl|ptrs:na|ktp:N0|mc:105829|mtp:S|qry_typ:P|lang:en|wc:2|cs:8888|v=4,False,Katargam,Surat,"Plot No. 96, Madhav Darshan Society, Dhabholi Char Rasta, Katargam, Katargam, Surat - 395004, Dist.Surat, Gujarat",7942832613,
"ORTHO-D ROLL ON OIL, 60 ml",https://www.indiamart.com/proddetail/ortho-d-roll-on-oil-26615879888.html?pos=123&kwd=bio oil&tags=||||8228.275|Price|proxy|||TS|rsf:gd-|-stype:attr=1|qr_nm:gd|res:RC3|com-cf:nl|ptrs:na|ktp:N0|mc:105829|mtp:S|qry_typ:P|lang:en|wc:2|cs:8888|v=4,Dhanraj Ayurvedic Pharmacy,https://www.indiamart.com/dhanrajayurvedicpharmacy/?pos=123&kwd=bio oil&tags=||||8228.275|Price|proxy|||TS|rsf:gd-|-stype:attr=1|qr_nm:gd|res:RC3|com-cf:nl|ptrs:na|ktp:N0|mc:105829|mtp:S|qry_typ:P|lang:en|wc:2|cs:8888|v=4,False,Mahadev Nagar Tekra,Ahmedabad,"57, Suyog-99 Society, Nr. Keyur Park, Opp Meldi Mata Mandir Nicol Nava Naroda, Mahadev Nagar Tekra, Ahmedabad - 382350, Dist.Ahmedabad, Gujarat",8043860940,
Ortho Plus Oil,https://www.indiamart.com/proddetail/ortho-plus-oil-23198863088.html?pos=124&kwd=bio oil&tags=||||8601.347|Price|proxy|||TS|rsf:gd-|-stype:attr=1|qr_nm:gd|res:RC3|com-cf:nl|ptrs:na|ktp:N0|mc:105829|mtp:S|qry_typ:P|lang:en|wc:2|cs:8888|v=4,Wellayu Herbotech,https://www.wellayuherbals.com/?pos=124&kwd=bio oil&tags=||||8601.347|Price|proxy|||TS|rsf:gd-|-stype:attr=1|qr_nm:gd|res:RC3|com-cf:nl|ptrs:na|ktp:N0|mc:105829|mtp:S|qry_typ:P|lang:en|wc:2|cs:8888|v=4,False,vishavkarma industrial area jaipur,Jaipur,"143 A,RIICO HOUSING COLONY,ROAD NO 1D, vkia, vishavkarma industrial area jaipur, Jaipur - 302012, Dist.Jaipur, Rajasthan",8048975561,
Dr Relaxi Oil,https://www.indiamart.com/proddetail/dr-relaxi-oil-23158309212.html?pos=125&kwd=bio oil&tags=||||8211.142|Price|proxy|||TS|rsf:gd-|-stype:attr=1|qr_nm:gd|res:RC3|com-cf:nl|ptrs:na|ktp:N0|mc:105829|mtp:S|qry_typ:P|lang:en|wc:2|cs:8888|v=4,Rajasthan Aushadhalaya Private Limited,https://www.rajasthanherbalsinternational.com/?pos=125&kwd=bio oil&tags=||||8211.142|Price|proxy|||TS|rsf:gd-|-stype:attr=1|qr_nm:gd|res:RC3|com-cf:nl|ptrs:na|ktp:N0|mc:105829|mtp:S|qry_typ:P|lang:en|wc:2|cs:8888|v=4,False,Jogeshwari West,Mumbai,"RAPL House, A Wing, Killedar Commercial Apartment Opposite MTNL Office, SV Road, Jogeshwari West, Jogeshwari West, Mumbai - 400102, Dist.Mumbai, Maharashtra",8046055750,
"Arthritis Pain Relief Oil, 8ml. 30ml,60ml",https://www.indiamart.com/proddetail/arthritis-pain-relief-oil-25617911791.html?pos=126&kwd=bio oil&tags=||||8211.142|Price|proxy|||TS|rsf:gd-|-stype:attr=1|qr_nm:gd|res:RC3|com-cf:nl|ptrs:na|ktp:N0|mc:105829|mtp:S|qry_typ:P|lang:en|wc:2|cs:8888|v=4,Doshi Laboratories,https://www.menthodexpainbalm.com/?pos=126&kwd=bio oil&tags=||||8211.142|Price|proxy|||TS|rsf:gd-|-stype:attr=1|qr_nm:gd|res:RC3|com-cf:nl|ptrs:na|ktp:N0|mc:105829|mtp:S|qry_typ:P|lang:en|wc:2|cs:8888|v=4,False,Bhayandar East,Mumbai,"No. 104, Sudama Industrial Estate, Opposite Reliance Energy Office, Kashimira Road Bhayandar East, Thane District, Bhayandar East, Mumbai - 401105, Dist.Mumbai, Maharashtra",8048986639,
"Artho Royal Pain Oil, 100 ml",https://www.indiamart.com/proddetail/artho-royal-pain-oil-2853037227391.html?pos=127&kwd=bio oil&tags=||||9140.514|Price|proxy|||MDC|rsf:gd-|-stype:attr=1|qr_nm:gd|res:RC3|com-cf:nl|ptrs:na|ktp:N0|mc:105829|mtp:S|qry_typ:P|lang:en|wc:2|cs:8888|v=4,Aarambh Ayurveda,https://www.indiamart.com/aarambhayurveda-raipur/?pos=127&kwd=bio oil&tags=||||9140.514|Price|proxy|||MDC|rsf:gd-|-stype:attr=1|qr_nm:gd|res:RC3|com-cf:nl|ptrs:na|ktp:N0|mc:105829|mtp:S|qry_typ:P|lang:en|wc:2|cs:8888|v=4,False,,Raipur,"LIG 1441 Housing Board Colony Sector 8 ,Anil Medical and General Store, Saddu, Raipur - 492001, Chhattisgarh",7942965568,
"60 mL Bio Resurge Herbal Arthritis Oil, Packaging Type: Flip Flop Bottle",https://www.indiamart.com/proddetail/bio-resurge-herbal-arthritis-oil-20671428633.html?pos=139&kwd=bio oil&tags=||||8752.144|Price|product|||NA|rsf:gd-|-stype:attr=1|qr_nm:gd|res:RC3|com-cf:nl|ptrs:na|ktp:N0|mc:105829|mtp:S|qry_typ:P|lang:en|wc:2|cs:8888|v=4,Bio Resurge Life Coaching Health Services Pvt. Ltd.,https://www.indiamart.com/bioresurgelifecoachinghealthservices/?pos=139&kwd=bio oil&tags=||||8752.144|Price|product|||NA|rsf:gd-|-stype:attr=1|qr_nm:gd|res:RC3|com-cf:nl|ptrs:na|ktp:N0|mc:105829|mtp:S|qry_typ:P|lang:en|wc:2|cs:8888|v=4,False,Barakhamba,New Delhi,"602, Indera Prakash Building- 21, Barakhamba, New Delhi - 110001, Dist.Delhi, Delhi",8048372425,613
Bio Ruma Liniment,https://www.indiamart.com/proddetail/bio-ruma-liniment-11086668633.html?pos=129&kwd=bio oil&tags=||||8663.873|Price|product|||NA|rsf:gd-|-stype:attr=1|qr_nm:gd|res:RC3|com-cf:nl|ptrs:na|ktp:N0|mc:105829|mtp:S|qry_typ:P|lang:en|wc:2|cs:8888|v=4,Advaith Bio Remedies,https://www.indiamart.com/advaith-bio-remidies/?pos=129&kwd=bio oil&tags=||||8663.873|Price|product|||NA|rsf:gd-|-stype:attr=1|qr_nm:gd|res:RC3|com-cf:nl|ptrs:na|ktp:N0|mc:105829|mtp:S|qry_typ:P|lang:en|wc:2|cs:8888|v=4,False,Electronic City,Bengaluru,"No. 26D, Veerasandra Industrial Area, Electronic City Phase 2, Nilgiris Factory, Electronic City, Bengaluru - 560099, Dist.Bengaluru, Karnataka",8048372006,959
"Ayurvedic Pain Relief Oil, 60 ml",https://www.indiamart.com/proddetail/ayurvedic-pain-relief-oil-2851695881697.html?pos=130&kwd=bio oil&tags=||||8767.721|Price|proxy|||TS|rsf:gd-|-stype:attr=1|qr_nm:gd|res:RC3|com-cf:nl|ptrs:na|ktp:N0|mc:105829|mtp:S|qry_typ:P|lang:en|wc:2|cs:8888|v=4,Riyansh Ayurveda,https://www.indiamart.com/riyansh-ayurveda/?pos=130&kwd=bio oil&tags=||||8767.721|Price|proxy|||TS|rsf:gd-|-stype:attr=1|qr_nm:gd|res:RC3|com-cf:nl|ptrs:na|ktp:N0|mc:105829|mtp:S|qry_typ:P|lang:en|wc:2|cs:8888|v=4,False,Barauna Chhota,Raipur Rani,"Khasra No 11, Near Radha Swami Satsang Bhawan, Khewat No 7 Khatoni No, Barwala Road, Panchkula, Barauna Chhota, Raipur Rani - 134204, Dist.Panchkula, Haryana",7942803778,
"Orthocort Fast Ayurvedic Pain Relief Oil, 60 ml",https://www.indiamart.com/proddetail/orthocort-fast-ayurvedic-pain-relief-oil-2854293960848.html?pos=131&kwd=bio oil&tags=||||9259.422|Price|proxy|||MDC|rsf:gd-|-stype:attr=1|qr_nm:gd|res:RC3|com-cf:nl|ptrs:na|ktp:N0|mc:105829|mtp:S|qry_typ:P|lang:en|wc:2|cs:8888|v=4,Uni Biotech Life Sciences,https://www.indiamart.com/unibiotechlifesciences/?pos=131&kwd=bio oil&tags=||||9259.422|Price|proxy|||MDC|rsf:gd-|-stype:attr=1|qr_nm:gd|res:RC3|com-cf:nl|ptrs:na|ktp:N0|mc:105829|mtp:S|qry_typ:P|lang:en|wc:2|cs:8888|v=4,False,,Mirzapur,"463/12A, Ward Number 6, Mission Compound, Mirzapur - 231001, Uttar Pradesh",8045736756,
"SBL Bio Combination-19, Joint Pain Relief Tablet, Non prescription, Treatment: Best",https://www.indiamart.com/proddetail/sbl-bio-combination-19-joint-pain-relief-tablet-25440536888.html?pos=132&kwd=bio oil&tags=||||8454.266|Price|product|||NA|rsf:gd-|-stype:attr=1|qr_nm:gd|res:RC3|com-cf:nl|ptrs:na|ktp:N0|mc:105829|mtp:S|qry_typ:P|lang:en|wc:2|cs:8888|v=4,Lovely Ayurveda & Homeo,https://www.indiamart.com/my-recharge-surat/?pos=132&kwd=bio oil&tags=||||8454.266|Price|product|||NA|rsf:gd-|-stype:attr=1|qr_nm:gd|res:RC3|com-cf:nl|ptrs:na|ktp:N0|mc:105829|mtp:S|qry_typ:P|lang:en|wc:2|cs:8888|v=4,False,Pandharpur,Pandharpur,"01, Pandharpur, Pandharpur, Pandharpur - 413304, Dist.Solapur, Maharashtra",7942659220,
"ASV Biotech Ayurvedic Pain Relief Oil, 50ml, Packaging Type: Bottle",https://www.indiamart.com/proddetail/ayurvedic-pain-relief-oil-23337011430.html?pos=133&kwd=bio oil&tags=||||8754.115|Price|product|||NA|rsf:gd-|-stype:attr=1|qr_nm:gd|res:RC3|com-cf:nl|ptrs:na|ktp:N0|mc:105829|mtp:S|qry_typ:P|lang:en|wc:2|cs:8888|v=4,ASV Biotech,https://www.indiamart.com/asv-biotech/?pos=133&kwd=bio oil&tags=||||8754.115|Price|product|||NA|rsf:gd-|-stype:attr=1|qr_nm:gd|res:RC3|com-cf:nl|ptrs:na|ktp:N0|mc:105829|mtp:S|qry_typ:P|lang:en|wc:2|cs:8888|v=4,False,,Panchkula,"Plot No. 315, 1st Floor, Phase 2, Industrial Area, Panchkula - 134113, Dist.Panchkula, Haryana",8046073202,
Allopathic Only Brand Orthro Ayurvedic Pain Oil,https://www.indiamart.com/proddetail/orthro-ayurvedic-pain-oil-14988186655.html?pos=134&kwd=bio oil&tags=||||8754.115|Price|product|||NA|rsf:gd-|-stype:attr=1|qr_nm:gd|res:RC3|com-cf:nl|ptrs:na|ktp:N0|mc:105829|mtp:S|qry_typ:P|lang:en|wc:2|cs:8888|v=4,Amista Labs Private Limited,https://www.indiamart.com/amista-labslimited/?pos=134&kwd=bio oil&tags=||||8754.115|Price|product|||NA|rsf:gd-|-stype:attr=1|qr_nm:gd|res:RC3|com-cf:nl|ptrs:na|ktp:N0|mc:105829|mtp:S|qry_typ:P|lang:en|wc:2|cs:8888|v=4,False,Sector 15 Panchkula,Panchkula,"Plot No 371,2nd Floor, RCC Hall, Phase Il, Industrial Area,, Sector 15 Panchkula, Panchkula - 134113, Dist.Panchkula, Haryana",8048986019,
Roy Biotech Rheuma Gold Oil,https://www.indiamart.com/proddetail/roy-biotech-rheuma-gold-oil-2853869328362.html?pos=135&kwd=bio oil&tags=||||8245.243|Price|product|||NA|rsf:gd-|-stype:attr=1|qr_nm:gd|res:RC3|com-cf:nl|ptrs:na|ktp:N0|mc:105829|mtp:S|qry_typ:P|lang:en|wc:2|cs:8888|v=4,Ayush Upchar,https://www.indiamart.com/ayush-upchar/?pos=135&kwd=bio oil&tags=||||8245.243|Price|product|||NA|rsf:gd-|-stype:attr=1|qr_nm:gd|res:RC3|com-cf:nl|ptrs:na|ktp:N0|mc:105829|mtp:S|qry_typ:P|lang:en|wc:2|cs:8888|v=4,False,,Ambarnath,"FLAT NO-B/602,MEERA ROYALE,BEHIND RANGOLI HOTEL,Ambarnath FLAT NO-B/602 BEHIND RANGOLI HOTEL MEERA ROYALE Ambarnath Thane Maharashtra 421501,421501,, Ambarnath - 421501, Dist.Thane, Maharashtra",,
"8ml Nivaran 90 Fast Pain Relief Universal Oil, Sujatha Biotech, Packaging Type: Glass Bottle",https://www.indiamart.com/proddetail/8ml-nivaran-90-fast-pain-relief-universal-oil-23757418997.html?pos=136&kwd=bio oil&tags=||||8954.051|Price|product|||NA|rsf:gd-|-stype:attr=1|qr_nm:gd|res:RC3|com-cf:nl|ptrs:na|ktp:N0|mc:105829|mtp:S|qry_typ:P|lang:en|wc:2|cs:8888|v=4,Sujatha Biotech,https://www.indiamart.com/sujathabiotech-chennai/?pos=136&kwd=bio oil&tags=||||8954.051|Price|product|||NA|rsf:gd-|-stype:attr=1|qr_nm:gd|res:RC3|com-cf:nl|ptrs:na|ktp:N0|mc:105829|mtp:S|qry_typ:P|lang:en|wc:2|cs:8888|v=4,False,,Chennai,"602 A Wing /442, Third Floor, Parsan Manere, Anna Salai, Thousand Lights, Chennai - 600006, Dist.Chennai, Tamil Nadu",8047648835,
"Arthrogesic Liniment Oil, 50 ml",https://www.indiamart.com/proddetail/arthrogesic-liniment-oil-17353960073.html?pos=137&kwd=bio oil&tags=||||8645.064||proxy|||TS|rsf:gd-|-stype:attr=1|qr_nm:gd|res:RC3|com-cf:nl|ptrs:na|ktp:N0|mc:105829|mtp:S|qry_typ:P|lang:en|wc:2|cs:8888|v=4,Zenacts Pharma Private Limited,https://www.indiamart.com/zenactspharma/?pos=137&kwd=bio oil&tags=||||8645.064||proxy|||TS|rsf:gd-|-stype:attr=1|qr_nm:gd|res:RC3|com-cf:nl|ptrs:na|ktp:N0|mc:105829|mtp:S|qry_typ:P|lang:en|wc:2|cs:8888|v=4,False,Sector 9,Barwala,"Basement And 2nd Floor, Plot No 136, Hsiidc, Barwala, Phase 2, Sector 10, Sector 9, Barwala - 134118, Haryana",8046069338,
"Ayurvedic Pain Oil, 60 ml",https://www.indiamart.com/proddetail/ayurvedic-pain-oil-2852489449430.html?pos=138&kwd=bio oil&tags=||||8754.115|Price|proxy|||TS|rsf:gd-|-stype:attr=1|qr_nm:gd|res:RC3|com-cf:nl|ptrs:na|ktp:N0|mc:105829|mtp:S|qry_typ:P|lang:en|wc:2|cs:8888|v=4,Kyriz Pharmaceuticals Private Limited,https://www.indiamart.com/kyrizpharmaceuticals-haryana/?pos=138&kwd=bio oil&tags=||||8754.115|Price|proxy|||TS|rsf:gd-|-stype:attr=1|qr_nm:gd|res:RC3|com-cf:nl|ptrs:na|ktp:N0|mc:105829|mtp:S|qry_typ:P|lang:en|wc:2|cs:8888|v=4,False,Sector 20 Panchkula,Panchkula,"HB 367, Second Floor, Sector 20, Sector 20 Panchkula, Panchkula - 134117, Dist.Panchkula, Haryana",7942826999,
"60 mL Bio Resurge Herbal Arthritis Oil, Packaging Type: Flip Flop Bottle",https://www.indiamart.com/proddetail/bio-resurge-herbal-arthritis-oil-20671428633.html?pos=139&kwd=bio oil&tags=||||8752.144|Price|product|||NA|rsf:gd-|-stype:attr=1|qr_nm:gd|res:RC3|com-cf:nl|ptrs:na|ktp:N0|mc:105829|mtp:S|qry_typ:P|lang:en|wc:2|cs:8888|v=4,Bio Resurge Life Coaching Health Services Pvt. Ltd.,https://www.indiamart.com/bioresurgelifecoachinghealthservices/?pos=139&kwd=bio oil&tags=||||8752.144|Price|product|||NA|rsf:gd-|-stype:attr=1|qr_nm:gd|res:RC3|com-cf:nl|ptrs:na|ktp:N0|mc:105829|mtp:S|qry_typ:P|lang:en|wc:2|cs:8888|v=4,False,Barakhamba,New Delhi,"602, Indera Prakash Building- 21, Barakhamba, New Delhi - 110001, Dist.Delhi, Delhi",8048372425,613
"Orthocem Pain Relief Oil, 60 ml",https://www.indiamart.com/proddetail/orthocem-pain-relief-oil-2852573962630.html?pos=140&kwd=bio oil&tags=||||8746.929|Price|proxy|||TS|rsf:gd-|-stype:attr=1|qr_nm:gd|res:RC3|com-cf:nl|ptrs:na|ktp:N0|mc:105829|mtp:S|qry_typ:P|lang:en|wc:2|cs:8888|v=4,Dycem Biotech Private Limited,https://www.indiamart.com/dycom-biotech/?pos=140&kwd=bio oil&tags=||||8746.929|Price|proxy|||TS|rsf:gd-|-stype:attr=1|qr_nm:gd|res:RC3|com-cf:nl|ptrs:na|ktp:N0|mc:105829|mtp:S|qry_typ:P|lang:en|wc:2|cs:8888|v=4,False,Manimajra,Chandigarh,"First Floor Sco-1004 Manimajra Motor Market, Manimajra, Chandigarh - 160101, Chandigarh",7942713082,
"Murivenna Ayurvedic Pain Oil, 450ml",https://www.indiamart.com/proddetail/murivenna-ayurvedic-pain-oil-23639747388.html?pos=141&kwd=bio oil&tags=||||8500.97|Price|proxy|||MDC|rsf:gd-|-stype:attr=1|qr_nm:gd|res:RC3|com-cf:nl|ptrs:na|ktp:N0|mc:105829|mtp:S|qry_typ:P|lang:en|wc:2|cs:8888|v=4,Everest Ayurveda,https://www.indiamart.com/everest-ayurveda-kerala/?pos=141&kwd=bio oil&tags=||||8500.97|Price|proxy|||MDC|rsf:gd-|-stype:attr=1|qr_nm:gd|res:RC3|com-cf:nl|ptrs:na|ktp:N0|mc:105829|mtp:S|qry_typ:P|lang:en|wc:2|cs:8888|v=4,False,Chiyyaram,Thrissur,"TC-31/122, Everest Ayurveda, Vakayil Road, Chiyyaram, Chiyyaram, Thrissur - 680026, Dist.Thrissur, Kerala",8046047420,
100ml Orthocare Gold Oil,https://www.indiamart.com/proddetail/100ml-orthocare-gold-oil-2854146888012.html?pos=142&kwd=bio oil&tags=||||8595.746|Price|proxy|||MDC|rsf:gd-|-stype:attr=1|qr_nm:gd|res:RC3|com-cf:nl|ptrs:na|ktp:N0|mc:105829|mtp:S|qry_typ:P|lang:en|wc:2|cs:8888|v=4,Sahib Arurvedic Pharma,https://www.indiamart.com/sahibarurvedicpharma/?pos=142&kwd=bio oil&tags=||||8595.746|Price|proxy|||MDC|rsf:gd-|-stype:attr=1|qr_nm:gd|res:RC3|com-cf:nl|ptrs:na|ktp:N0|mc:105829|mtp:S|qry_typ:P|lang:en|wc:2|cs:8888|v=4,False,,Moga,"Focal Point, Moga - 142001, Dist.Moga, Punjab",8045730961,
"Ayurvedic Pain Relief Oil, 60 ml",https://www.indiamart.com/proddetail/ayurvedic-pain-relief-oil-2853331511588.html?pos=143&kwd=bio oil&tags=||||8754.115|Price|proxy|||TS|rsf:gd-|-stype:attr=1|qr_nm:gd|res:RC3|com-cf:nl|ptrs:na|ktp:N0|mc:105829|mtp:S|qry_typ:P|lang:en|wc:2|cs:8888|v=4,Fuel Biotech,https://www.fuelbiotechpharma.com/?pos=143&kwd=bio oil&tags=||||8754.115|Price|proxy|||TS|rsf:gd-|-stype:attr=1|qr_nm:gd|res:RC3|com-cf:nl|ptrs:na|ktp:N0|mc:105829|mtp:S|qry_typ:P|lang:en|wc:2|cs:8888|v=4,False,Sector 20,Panchkula,"Shop No. D/F-5, Ahluwalia Complex, Sector-20, Sector 20, Panchkula - 134112, Dist.Panchkula, Haryana",8048272432,
"Ayurvedic Pain Oil, 60 ml",https://www.indiamart.com/proddetail/ayurvedic-pain-oil-24361066255.html?pos=144&kwd=bio oil&tags=||||8754.115|Price|proxy|||TS|rsf:gd-|-stype:attr=1|qr_nm:gd|res:RC3|com-cf:nl|ptrs:na|ktp:N0|mc:105829|mtp:S|qry_typ:P|lang:en|wc:2|cs:8888|v=4,Zenio Biotech Private Limited,https://www.indiamart.com/zeniobiotech/?pos=144&kwd=bio oil&tags=||||8754.115|Price|proxy|||TS|rsf:gd-|-stype:attr=1|qr_nm:gd|res:RC3|com-cf:nl|ptrs:na|ktp:N0|mc:105829|mtp:S|qry_typ:P|lang:en|wc:2|cs:8888|v=4,False,Budhanpur,Panchkula,"Industrial Area Phase-1 Plot No.133,, Budhanpur, Panchkula - 134113, Dist.Panchkula, Haryana",8048610577,
"Ayurvedic Pain Relief Oil, 50 ml",https://www.indiamart.com/proddetail/ayurvedic-pain-relief-oil-25941255855.html?pos=145&kwd=bio oil&tags=||||8754.115|Price|proxy|||TS|rsf:gd-|-stype:attr=1|qr_nm:gd|res:RC3|com-cf:nl|ptrs:na|ktp:N0|mc:105829|mtp:S|qry_typ:P|lang:en|wc:2|cs:8888|v=4,Crownmed Biotech,https://www.indiamart.com/crownmedbiotech/?pos=145&kwd=bio oil&tags=||||8754.115|Price|proxy|||TS|rsf:gd-|-stype:attr=1|qr_nm:gd|res:RC3|com-cf:nl|ptrs:na|ktp:N0|mc:105829|mtp:S|qry_typ:P|lang:en|wc:2|cs:8888|v=4,False,Mansa Devi Temple Complex,Panchkula,"Second Floor Sco No 22 Swastik Vihar Mdc Sector 5, Mansa Devi Temple Complex, Panchkula - 134109, Dist.Panchkula, Haryana",8047624336,
"Ayurvedic Painkiller Oil, 60 ml",https://www.indiamart.com/proddetail/ayurvedic-painkiller-oil-14460763430.html?pos=146&kwd=bio oil&tags=||||8754.115|Price|proxy|||TS|rsf:gd-|-stype:attr=1|qr_nm:gd|res:RC3|com-cf:nl|ptrs:na|ktp:N0|mc:105829|mtp:S|qry_typ:P|lang:en|wc:2|cs:8888|v=4,Healthkind Labs Private Limited,https://www.healthkindlabs.in/?pos=146&kwd=bio oil&tags=||||8754.115|Price|proxy|||TS|rsf:gd-|-stype:attr=1|qr_nm:gd|res:RC3|com-cf:nl|ptrs:na|ktp:N0|mc:105829|mtp:S|qry_typ:P|lang:en|wc:2|cs:8888|v=4,False,Budhanpur,Panchkula,"1st And 2nd Floor Plot No. 285 Phase-1 Industrial Area Panchkula, Budhanpur, Panchkula - 134113, Dist.Panchkula, Haryana",8048985307,
"Joint Pain Relief Oil, 60 ml",https://www.indiamart.com/proddetail/joint-pain-relief-oil-2853141616933.html?pos=147&kwd=bio oil&tags=||||8601.347|Price|proxy|||TS|rsf:gd-|-stype:attr=1|qr_nm:gd|res:RC3|com-cf:nl|ptrs:na|ktp:N0|mc:105829|mtp:S|qry_typ:P|lang:en|wc:2|cs:8888|v=4,In Cure Herbal,https://www.incureherbal.com/?pos=147&kwd=bio oil&tags=||||8601.347|Price|proxy|||TS|rsf:gd-|-stype:attr=1|qr_nm:gd|res:RC3|com-cf:nl|ptrs:na|ktp:N0|mc:105829|mtp:S|qry_typ:P|lang:en|wc:2|cs:8888|v=4,False,Govindgarh,Jaipur,"11, Near, Ward No, Anatpura, Chimanpura, Govindgarh, Jaipur - 303712, Dist.Jaipur, Rajasthan",8043893840,
Pain Relief Oil,https://www.indiamart.com/proddetail/pain-relief-oil-2852898278588.html?pos=148&kwd=bio oil&tags=||||8734.695|Price|proxy|||TS|rsf:gd-|-stype:attr=1|qr_nm:gd|res:RC3|com-cf:nl|ptrs:na|ktp:N0|mc:105829|mtp:S|qry_typ:P|lang:en|wc:2|cs:8888|v=4,S.R.D. Biotech,https://www.indiamart.com/srdbiotech-bahadurgarh/?pos=148&kwd=bio oil&tags=||||8734.695|Price|proxy|||TS|rsf:gd-|-stype:attr=1|qr_nm:gd|res:RC3|com-cf:nl|ptrs:na|ktp:N0|mc:105829|mtp:S|qry_typ:P|lang:en|wc:2|cs:8888|v=4,False,MIE Part-B,Bahadurgarh,"Khasra No 1671-1672, First Floor, Near Plot No 1315, M.I.E. Part 2, Bahadurgarh Distt, MIE Part-B, Bahadurgarh - 124507, Dist.Jhajjar, Haryana",8043837721,
"Ayurvedic Pain Relief Oil, 50 ml",https://www.indiamart.com/proddetail/ayurvedic-pain-relief-oil-25743496888.html?pos=149&kwd=bio oil&tags=||||8769.508|Price|proxy|||TS|rsf:gd-|-stype:attr=1|qr_nm:gd|res:RC3|com-cf:nl|ptrs:na|ktp:N0|mc:105829|mtp:S|qry_typ:P|lang:en|wc:2|cs:8888|v=4,Sankalp Therapeutics,https://www.indiamart.com/sankalptherapeutics/?pos=149&kwd=bio oil&tags=||||8769.508|Price|proxy|||TS|rsf:gd-|-stype:attr=1|qr_nm:gd|res:RC3|com-cf:nl|ptrs:na|ktp:N0|mc:105829|mtp:S|qry_typ:P|lang:en|wc:2|cs:8888|v=4,False,Neharpar Faridabad,Faridabad,"Plot No. 28, Kamera Industrial Area Post Badarpur, Neharpar Faridabad, Faridabad - 121101, Dist.Faridabad, Haryana",8048969509,
"Joint Rest Oil, 50 ml",https://www.indiamart.com/proddetail/joint-rest-oil-2854534051055.html?pos=150&kwd=bio oil&tags=||||8704.343|Price|proxy|||MDC|rsf:gd-|-stype:attr=1|qr_nm:gd|res:RC3|com-cf:nl|ptrs:na|ktp:N0|mc:105829|mtp:S|qry_typ:P|lang:en|wc:2|cs:8888|v=4,Sarwara & Co.,https://www.indiamart.com/sarwaraco/?pos=150&kwd=bio oil&tags=||||8704.343|Price|proxy|||MDC|rsf:gd-|-stype:attr=1|qr_nm:gd|res:RC3|com-cf:nl|ptrs:na|ktp:N0|mc:105829|mtp:S|qry_typ:P|lang:en|wc:2|cs:8888|v=4,False,,Patiala,"Khewat No. 187/182, Shop No.13, Khatouni No.334, Near Indian Gas Agency, Ghnour,, Patiala - 140702, Dist.Patiala, Punjab",7949331625,
"Ayurvedic Pain Oil, Packaging Type: Bottle, 100 ml",https://www.indiamart.com/proddetail/ayurvedic-pain-oil-19728513330.html?pos=151&kwd=bio oil&tags=||||8754.115|Price|proxy|||TS|rsf:gd-|-stype:attr=1|qr_nm:gd|res:RC3|com-cf:nl|ptrs:na|ktp:N0|mc:105829|mtp:S|qry_typ:P|lang:en|wc:2|cs:8888|v=4,Welnex Bio Private Limited,https://www.indiamart.com/welnexbio-chandigarh/?pos=151&kwd=bio oil&tags=||||8754.115|Price|proxy|||TS|rsf:gd-|-stype:attr=1|qr_nm:gd|res:RC3|com-cf:nl|ptrs:na|ktp:N0|mc:105829|mtp:S|qry_typ:P|lang:en|wc:2|cs:8888|v=4,False,Panchkula,Panchkula,"Phase-1 Industrial Plot No. 151 Industrial Area, Panchkula, Panchkula - 134113, Dist.Panchkula, Haryana",8046047503,
"Tocka Pain Relief Oil, 60 ml",https://www.indiamart.com/proddetail/tocka-pain-relief-oil-2853962894930.html?pos=152&kwd=bio oil&tags=||||8746.929|Price|proxy|||TS|rsf:gd-|-stype:attr=1|qr_nm:gd|res:RC3|com-cf:nl|ptrs:na|ktp:N0|mc:105829|mtp:S|qry_typ:P|lang:en|wc:2|cs:8888|v=4,Life Companion Biotech,https://www.indiamart.com/lifecompanionbiotech-chandigarh/?pos=152&kwd=bio oil&tags=||||8746.929|Price|proxy|||TS|rsf:gd-|-stype:attr=1|qr_nm:gd|res:RC3|com-cf:nl|ptrs:na|ktp:N0|mc:105829|mtp:S|qry_typ:P|lang:en|wc:2|cs:8888|v=4,False,Industrial Area Phase 2,Chandigarh,"Industrial Area No 26/5,,Phase II,Chandigarh, Industrial Area Phase 2, Chandigarh - 160002, Chandigarh",8044561787,
"Pain Relief Oil, 60 ml",https://www.indiamart.com/proddetail/pain-relief-oil-2853858837648.html?pos=153&kwd=bio oil&tags=||||8584.299|Price|proxy|||TS|rsf:gd-|-stype:attr=1|qr_nm:gd|res:RC3|com-cf:nl|ptrs:na|ktp:N0|mc:105829|mtp:S|qry_typ:P|lang:en|wc:2|cs:8888|v=4,Capital Pharma,https://www.capitalpharma.co.in/?pos=153&kwd=bio oil&tags=||||8584.299|Price|proxy|||TS|rsf:gd-|-stype:attr=1|qr_nm:gd|res:RC3|com-cf:nl|ptrs:na|ktp:N0|mc:105829|mtp:S|qry_typ:P|lang:en|wc:2|cs:8888|v=4,False,TVS Nagar,Coimbatore,"28, Lakshmipuram Main Road Poompukar Nagar, Edyarpalayam, TVS Nagar, Coimbatore - 641025, Dist.Coimbatore, Tamil Nadu",7942714536,
"Ortho Pain Oil, 60 ml",https://www.indiamart.com/proddetail/ortho-pain-oil-24298981412.html?pos=154&kwd=bio oil&tags=||||8746.929|Price|proxy|||TS|rsf:gd-|-stype:attr=1|qr_nm:gd|res:RC3|com-cf:nl|ptrs:na|ktp:N0|mc:105829|mtp:S|qry_typ:P|lang:en|wc:2|cs:8888|v=4,Janus Biotech India Private Limited,https://www.indiamart.com/janusbiotech/?pos=154&kwd=bio oil&tags=||||8746.929|Price|proxy|||TS|rsf:gd-|-stype:attr=1|qr_nm:gd|res:RC3|com-cf:nl|ptrs:na|ktp:N0|mc:105829|mtp:S|qry_typ:P|lang:en|wc:2|cs:8888|v=4,False,Raipur Kalan,Chandigarh,"Building No. 84, Ground Floor, Village Raipur Kalan, Near State Bank Of India, U.t. Chandigarh, Raipur Kalan, Chandigarh - 160102, Chandigarh",8048985590,
"Muscle Pain Oil, 60 ml",https://www.indiamart.com/proddetail/muscle-pain-oil-2851448688848.html?pos=155&kwd=bio oil&tags=||||8757.576|Price|proxy|||MDC|rsf:gd-|-stype:attr=1|qr_nm:gd|res:RC3|com-cf:nl|ptrs:na|ktp:N0|mc:105829|mtp:S|qry_typ:P|lang:en|wc:2|cs:8888|v=4,Celaxis Biotech,https://www.indiamart.com/celaxis-biotech/?pos=155&kwd=bio oil&tags=||||8757.576|Price|proxy|||MDC|rsf:gd-|-stype:attr=1|qr_nm:gd|res:RC3|com-cf:nl|ptrs:na|ktp:N0|mc:105829|mtp:S|qry_typ:P|lang:en|wc:2|cs:8888|v=4,False,Mansa Devi Temple Complex,Chandi Mandir,"Second Floor, Sco No 61, Sector 05 Mdc, Mansa Devi Temple Complex, Chandi Mandir - 134114, Dist.Panchkula, Haryana",7942831947,
"V2 Gesic Pain Oil, 60 ml",https://www.indiamart.com/proddetail/v2-gesic-pain-oil-2853269261630.html?pos=156&kwd=bio oil&tags=||||8752.144|Price|proxy|||MDC|rsf:gd-|-stype:attr=1|qr_nm:gd|res:RC3|com-cf:nl|ptrs:na|ktp:N0|mc:105829|mtp:S|qry_typ:P|lang:en|wc:2|cs:8888|v=4,Amazeen Pharmaceuticals Private Limited,https://www.indiamart.com/amazeen-pharmaceuticals/?pos=156&kwd=bio oil&tags=||||8752.144|Price|proxy|||MDC|rsf:gd-|-stype:attr=1|qr_nm:gd|res:RC3|com-cf:nl|ptrs:na|ktp:N0|mc:105829|mtp:S|qry_typ:P|lang:en|wc:2|cs:8888|v=4,False,Sangam Vihar,New Delhi,"H.No-259-A, Block-D, Gali No-5, Sangam Vihar, South, Sangam Vihar, New Delhi - 110062, Dist.Delhi, Delhi",7948547155,
Pain Relief Ayurvedic Oil,https://www.indiamart.com/proddetail/pain-relief-ayurvedic-oil-24012036491.html?pos=157&kwd=bio oil&tags=||||8746.929|Price|proxy|||TS|rsf:gd-|-stype:attr=1|qr_nm:gd|res:RC3|com-cf:nl|ptrs:na|ktp:N0|mc:105829|mtp:S|qry_typ:P|lang:en|wc:2|cs:8888|v=4,Spackle Biotech Private Limited,https://www.indiamart.com/spackle-biotech/?pos=157&kwd=bio oil&tags=||||8746.929|Price|proxy|||TS|rsf:gd-|-stype:attr=1|qr_nm:gd|res:RC3|com-cf:nl|ptrs:na|ktp:N0|mc:105829|mtp:S|qry_typ:P|lang:en|wc:2|cs:8888|v=4,False,Manimajra,Chandigarh,"First And Second Floor SCF No. 390 Motor Market And Commercial Complex, Manimajra, Chandigarh - 160101, Chandigarh",8048975257,
"Natural Bioactives Pain Relief Oil for Diabetics-Consytel Oil, Consytel Life Sciences Pvt ltd, Non prescription",https://www.indiamart.com/proddetail/pain-relief-oil-for-diabetics-consytel-oil-21693336948.html?pos=158&kwd=bio oil&tags=||||8786.56|Price|product|||NA|rsf:gd-|-stype:attr=1|qr_nm:gd|res:RC3|com-cf:nl|ptrs:na|ktp:N0|mc:105829|mtp:S|qry_typ:P|lang:en|wc:2|cs:8888|v=4,Consytel Life Sciences Private Limited,https://www.indiamart.com/consytellifesciences/?pos=158&kwd=bio oil&tags=||||8786.56|Price|product|||NA|rsf:gd-|-stype:attr=1|qr_nm:gd|res:RC3|com-cf:nl|ptrs:na|ktp:N0|mc:105829|mtp:S|qry_typ:P|lang:en|wc:2|cs:8888|v=4,False,Padmarao Nagar,Hyderabad,"205,Gharonda Mahima Apts, 6-1-285/17and 18, Padmarao Nagar, Hyderabad - 500025, Dist.Hyderabad, Telangana",8048372737,511
"Ayurvedic Pain Oil, 100 Ml, Non prescription",https://www.indiamart.com/proddetail/ayurvedic-pain-oil-23287100455.html?pos=159&kwd=bio oil&tags=||||8754.115|Price|product|||NA|rsf:gd-|-stype:attr=1|qr_nm:gd|res:RC3|com-cf:nl|ptrs:na|ktp:N0|mc:105829|mtp:S|qry_typ:P|lang:en|wc:2|cs:8888|v=4,Svamrit Remedies Private Limited,https://www.indiamart.com/svamritremedies/?pos=159&kwd=bio oil&tags=||||8754.115|Price|product|||NA|rsf:gd-|-stype:attr=1|qr_nm:gd|res:RC3|com-cf:nl|ptrs:na|ktp:N0|mc:105829|mtp:S|qry_typ:P|lang:en|wc:2|cs:8888|v=4,False,,Panchkula,"Clinic Site No 3, Sector 15, Panchkula - 134109, Dist.Panchkula, Haryana",8048978751,
"Ayurvedic Ortho Oil, 60 ml",https://www.indiamart.com/proddetail/ayurvedic-ortho-oil-24371611862.html?pos=160&kwd=bio oil&tags=||||9045.955|Price|product|||NA|rsf:gd-|-stype:attr=1|qr_nm:gd|res:RC3|com-cf:nl|ptrs:na|ktp:N0|mc:105829|mtp:S|qry_typ:P|lang:en|wc:2|cs:8888|v=4,Mahalakshmi Medicals & Surgicals,https://www.indiamart.com/mahalaxmi-medicals-and-surgicals/?pos=160&kwd=bio oil&tags=||||9045.955|Price|product|||NA|rsf:gd-|-stype:attr=1|qr_nm:gd|res:RC3|com-cf:nl|ptrs:na|ktp:N0|mc:105829|mtp:S|qry_typ:P|lang:en|wc:2|cs:8888|v=4,False,,Kanpur,"P 82 Yashoda Nagar , Kanpur Kanpur Nagar Gopal Nagar, Kanpur - 208011, Uttar Pradesh",8048372720,505
"Ramitra Pain Oil, 50ml",https://www.indiamart.com/proddetail/ramitra-pain-oil-2850218620055.html?pos=161&kwd=bio oil&tags=||||8741.987|Price|product|||NA|rsf:gd-|-stype:attr=1|qr_nm:gd|res:RC3|com-cf:nl|ptrs:na|ktp:N0|mc:105829|mtp:S|qry_typ:P|lang:en|wc:2|cs:8888|v=4,Ramitra Biotech,https://www.indiamart.com/ramitra-biotech/?pos=161&kwd=bio oil&tags=||||8741.987|Price|product|||NA|rsf:gd-|-stype:attr=1|qr_nm:gd|res:RC3|com-cf:nl|ptrs:na|ktp:N0|mc:105829|mtp:S|qry_typ:P|lang:en|wc:2|cs:8888|v=4,False,,Ambala,"6/29, 1st Floor, Ramitra Biotech, Nanhera Road, Ambala - 133004, Dist.Ambala, Haryana",8047551324,
"Bzoint Pain Oil, Grade Standard: Medicine Grade, Packaging Type: Bottle",https://www.indiamart.com/proddetail/bzoint-pain-oil-23322142212.html?pos=162&kwd=bio oil&tags=||||8740.707|Price|product|||NA|rsf:gd-|-stype:attr=1|qr_nm:gd|res:RC3|com-cf:nl|ptrs:na|ktp:N0|mc:105829|mtp:S|qry_typ:P|lang:en|wc:2|cs:8888|v=4,Biozoc INC,https://www.indiamart.com/zoic-biotech-private-limited/?pos=162&kwd=bio oil&tags=||||8740.707|Price|product|||NA|rsf:gd-|-stype:attr=1|qr_nm:gd|res:RC3|com-cf:nl|ptrs:na|ktp:N0|mc:105829|mtp:S|qry_typ:P|lang:en|wc:2|cs:8888|v=4,False,Jhungiyan,Sas Nagar,"Plot No. 203 Sector-82 Jlpl Industrial Estate Sas Nagar Mohali, Jhungiyan, Sas Nagar - 160055, Dist.Mohali, Punjab",8048964711,
Dhanwantari Ortho Rich Oil,https://www.indiamart.com/proddetail/dhanwantari-ortho-rich-oil-2852550103691.html?pos=163&kwd=bio oil&tags=||||8888.717|Price|product|||NA|rsf:gd-|-stype:attr=1|qr_nm:gd|res:RC3|com-cf:nl|ptrs:na|ktp:N0|mc:105829|mtp:S|qry_typ:P|lang:en|wc:2|cs:8888|v=4,Dhanwantari Franchisee Bhind,https://www.indiamart.com/dhanwantari-franchisee-bhind/?pos=163&kwd=bio oil&tags=||||8888.717|Price|product|||NA|rsf:gd-|-stype:attr=1|qr_nm:gd|res:RC3|com-cf:nl|ptrs:na|ktp:N0|mc:105829|mtp:S|qry_typ:P|lang:en|wc:2|cs:8888|v=4,False,Bhind,Bhind,"Near State Bank, Prohit Market, Shop 3-R, Lashkar Road near state bank purohit market lasker road bhind, Bhind, Bhind - 477001, Dist.Bhind, Madhya Pradesh",8047764566,
"Divyaveda Orthoamrit Joint Pain Oil, Packaging Size: 60ml",https://www.indiamart.com/proddetail/divyaveda-orthoamrit-pain-oil-23483294097.html?pos=164&kwd=bio oil&tags=||||9520.041|Price|product|||NA|rsf:gd-|-stype:attr=1|qr_nm:gd|res:RC3|com-cf:nl|ptrs:na|ktp:N0|mc:105829|mtp:S|qry_typ:P|lang:en|wc:2|cs:8888|v=4,Divyaveda Wellness Private Limited,https://www.indiamart.com/esterwin-biotech/?pos=164&kwd=bio oil&tags=||||9520.041|Price|product|||NA|rsf:gd-|-stype:attr=1|qr_nm:gd|res:RC3|com-cf:nl|ptrs:na|ktp:N0|mc:105829|mtp:S|qry_typ:P|lang:en|wc:2|cs:8888|v=4,False,Bhikhana Pahari,Patna,"Shop No- 9 Baldeo Place Beni Madhav Lane Govind Mitra Road, Bhikhana Pahari, Patna - 800004, Dist.Patna, Bihar",7942544656,
"Maciza Instant Pain Relief Oil, Grade Standard: Medicine Grade, Packaging Type: Plastic Bottle",https://www.indiamart.com/proddetail/instant-pain-relief-oil-22378503097.html?pos=165&kwd=bio oil&tags=||||8754.115|Price|product|||NA|rsf:gd-|-stype:attr=1|qr_nm:gd|res:RC3|com-cf:nl|ptrs:na|ktp:N0|mc:105829|mtp:S|qry_typ:P|lang:en|wc:2|cs:8888|v=4,Maciza Lifestyle Private Limited,https://www.indiamart.com/maciza-lifestyle/?pos=165&kwd=bio oil&tags=||||8754.115|Price|product|||NA|rsf:gd-|-stype:attr=1|qr_nm:gd|res:RC3|com-cf:nl|ptrs:na|ktp:N0|mc:105829|mtp:S|qry_typ:P|lang:en|wc:2|cs:8888|v=4,False,,Panchkula,"Industrial Shed No. 212, HSIIDC, Industrial Estate, Alipur, Barwala, Panchkula, Haryana Barwala, Panchkula - 134118, Dist.Panchkula, Haryana",8048371514,298
"MLS Pain relief Oil, Packaging Size: 100 ML",https://www.indiamart.com/proddetail/mls-pain-relief-oil-20308436655.html?pos=166&kwd=bio oil&tags=||||8407.171|Price|product|||NA|rsf:gd-|-stype:attr=1|qr_nm:gd|res:RC3|com-cf:nl|ptrs:na|ktp:N0|mc:105829|mtp:S|qry_typ:P|lang:en|wc:2|cs:8888|v=4,Biodelight Healthcare,https://www.indiamart.com/biodelight-healthcare/?pos=166&kwd=bio oil&tags=||||8407.171|Price|product|||NA|rsf:gd-|-stype:attr=1|qr_nm:gd|res:RC3|com-cf:nl|ptrs:na|ktp:N0|mc:105829|mtp:S|qry_typ:P|lang:en|wc:2|cs:8888|v=4,False,Bhingar,Ahmednagar,"Pl No - 96,S No - 269,Dwarkadhish Colony, Alamgir Road, Bhingar, Ahmednagar - 414002, Dist.Ahmed Nagar, Maharashtra",8048371900,284
"Gatlen Herbal Pain Oil, 50 ml",https://www.indiamart.com/proddetail/gatlen-herbal-pain-oil-24191746348.html?pos=167&kwd=bio oil&tags=||||8741.987|Price|product|||NA|rsf:gd-|-stype:attr=1|qr_nm:gd|res:RC3|com-cf:nl|ptrs:na|ktp:N0|mc:105829|mtp:S|qry_typ:P|lang:en|wc:2|cs:8888|v=4,Gatlen Biotech,https://www.indiamart.com/gatlen-biotech/?pos=167&kwd=bio oil&tags=||||8741.987|Price|product|||NA|rsf:gd-|-stype:attr=1|qr_nm:gd|res:RC3|com-cf:nl|ptrs:na|ktp:N0|mc:105829|mtp:S|qry_typ:P|lang:en|wc:2|cs:8888|v=4,False,,Ambala,"Khojikipur,sco no 47,54, Khojikipur, Khojkipur Road,Ambala 20, P.P Puram, Ambala Cant,133004,Ambala, Ambala - 133001, Dist.Ambala, Haryana",8045911583,
100ml Mac Ortho Oil,https://www.indiamart.com/proddetail/100ml-mac-ortho-oil-2851722290097.html?pos=168&kwd=bio oil&tags=||||8226.563|Price|product|||NA|rsf:gd-|-stype:attr=1|qr_nm:gd|res:RC3|com-cf:nl|ptrs:na|ktp:N0|mc:105829|mtp:S|qry_typ:P|lang:en|wc:2|cs:8888|v=4,Shree Ayucare Wellness,https://www.indiamart.com/shree-ayucare-wellness/?pos=168&kwd=bio oil&tags=||||8226.563|Price|product|||NA|rsf:gd-|-stype:attr=1|qr_nm:gd|res:RC3|com-cf:nl|ptrs:na|ktp:N0|mc:105829|mtp:S|qry_typ:P|lang:en|wc:2|cs:8888|v=4,False,Airoli,Navi Mumbai,"1st, 107, Sahadev Apartment, sector 9, Divagaon, Airoli, Thane, Airoli, Navi Mumbai - 400708, Dist.Thane, Maharashtra",7942874203,
"50ml Mahi Paras Oil, Box",https://www.indiamart.com/proddetail/50ml-mahi-paras-oil-22594598212.html?pos=169&kwd=bio oil&tags=||||8941.186|Price|product|||NA|rsf:gd-|-stype:attr=1|qr_nm:gd|res:RC3|com-cf:nl|ptrs:na|ktp:N0|mc:105829|mtp:S|qry_typ:P|lang:en|wc:2|cs:8888|v=4,Mahi Biotech Limited,https://www.indiamart.com/mahibiotech/?pos=169&kwd=bio oil&tags=||||8941.186|Price|product|||NA|rsf:gd-|-stype:attr=1|qr_nm:gd|res:RC3|com-cf:nl|ptrs:na|ktp:N0|mc:105829|mtp:S|qry_typ:P|lang:en|wc:2|cs:8888|v=4,False,Lavela Chouk,Budaun,"First floor, Prathma UP Grameen Bank near Shabbir Gate, Lavela Chouk, Budaun - 243601, Dist.Budaun, Uttar Pradesh",7942838956,
"Admix Quick Ortho Oil, 100 ml",https://www.indiamart.com/proddetail/admix-quick-ortho-oil-2850464679812.html?pos=170&kwd=bio oil&tags=||||9110.092|Price|product|||NA|rsf:gd-|-stype:attr=1|qr_nm:gd|res:RC3|com-cf:nl|ptrs:na|ktp:N0|mc:105829|mtp:S|qry_typ:P|lang:en|wc:2|cs:8888|v=4,Admix Healthcare Private Limited,https://www.indiamart.com/admixhealthcare/?pos=170&kwd=bio oil&tags=||||9110.092|Price|product|||NA|rsf:gd-|-stype:attr=1|qr_nm:gd|res:RC3|com-cf:nl|ptrs:na|ktp:N0|mc:105829|mtp:S|qry_typ:P|lang:en|wc:2|cs:8888|v=4,False,,Lucknow,"S/190, Transportnagar, Lucknow - 226012, Dist.Lucknow, Uttar Pradesh",8045910500,
RELAX-U PAIN RELIEF OIL,https://www.indiamart.com/proddetail/relax-u-pain-relief-oil-23918470230.html?pos=171&kwd=bio oil&tags=||||8752.144|Price|product|||NA|rsf:gd-|-stype:attr=1|qr_nm:gd|res:RC3|com-cf:nl|ptrs:na|ktp:N0|mc:105829|mtp:S|qry_typ:P|lang:en|wc:2|cs:8888|v=4,Ginni Enterprises,https://www.indiamart.com/ginni-enterprise-new-delhi/?pos=171&kwd=bio oil&tags=||||8752.144|Price|product|||NA|rsf:gd-|-stype:attr=1|qr_nm:gd|res:RC3|com-cf:nl|ptrs:na|ktp:N0|mc:105829|mtp:S|qry_typ:P|lang:en|wc:2|cs:8888|v=4,False,,New Delhi,"WZ 475,,MADIPUR VILLAGE,NEW DELHI Wz 475 Madipur Village,110063,New Delhi, New Delhi - 110026, Dist.Delhi, Delhi",8047698321,
"Sharma Pain Killer Oil, 60 ml",https://www.indiamart.com/proddetail/sharma-pain-killer-oil-2853262336612.html?pos=172&kwd=bio oil&tags=||||9134.948|Price|product|||NA|rsf:gd-|-stype:attr=1|qr_nm:gd|res:RC3|com-cf:nl|ptrs:na|ktp:N0|mc:105829|mtp:S|qry_typ:P|lang:en|wc:2|cs:8888|v=4,SHARMA VAID JEE,https://www.indiamart.com/sharmavaidjee/?pos=172&kwd=bio oil&tags=||||9134.948|Price|product|||NA|rsf:gd-|-stype:attr=1|qr_nm:gd|res:RC3|com-cf:nl|ptrs:na|ktp:N0|mc:105829|mtp:S|qry_typ:P|lang:en|wc:2|cs:8888|v=4,False,,Barabanki,"Baddupur, Badagaon, Barabanki - 225306, Dist.Barabanki, Uttar Pradesh",7942821928,
Mahua Oil (Madhuca Indica),https://www.indiamart.com/proddetail/mahua-oil-madhuca-indica-23178260955.html?pos=173&kwd=bio oil&tags=||||8817.752|Price|product|||NA|rsf:gd-|-stype:attr=1|qr_nm:gd|res:RC3|com-cf:nl|ptrs:na|ktp:N0|mc:105829|mtp:S|qry_typ:P|lang:en|wc:2|cs:8888|v=4,Tatvamasmi Consulting Services Private Limited,https://www.indiamart.com/tatvamasmi-consulting-services/?pos=173&kwd=bio oil&tags=||||8817.752|Price|product|||NA|rsf:gd-|-stype:attr=1|qr_nm:gd|res:RC3|com-cf:nl|ptrs:na|ktp:N0|mc:105829|mtp:S|qry_typ:P|lang:en|wc:2|cs:8888|v=4,False,,Hapur,"405, First Floor, Shivpuri, Hapur - 245101, Dist.Hapur, Uttar Pradesh",8048968375,
Dr Ortho Oil 120ml,https://www.indiamart.com/proddetail/dr-ortho-oil-120ml-2851519309691.html?pos=174&kwd=bio oil&tags=||||9528.781|Price|product|||NA|rsf:gd-|-stype:attr=1|qr_nm:gd|res:RC3|com-cf:nl|ptrs:na|ktp:N0|mc:105829|mtp:S|qry_typ:P|lang:en|wc:2|cs:8888|v=4,M/S Sri Ganpati Ayurved Bhawan,https://www.indiamart.com/ganpati-ayurved-bhawan/?pos=174&kwd=bio oil&tags=||||9528.781|Price|product|||NA|rsf:gd-|-stype:attr=1|qr_nm:gd|res:RC3|com-cf:nl|ptrs:na|ktp:N0|mc:105829|mtp:S|qry_typ:P|lang:en|wc:2|cs:8888|v=4,False,,Ranchi,"Near Durga Mandir, Cart Sarai Road, Upper Bazar, Ranchi, Jharkhand, Ranchi - 834001, Dist.Ranchi, Jharkhand",8043851023,
"Jointcare Oil 50 ml, Grade Standard: Medicine Grade, Packaging Type: Box",https://www.indiamart.com/proddetail/jointcare-oil-50-ml-12446897688.html?pos=175&kwd=bio oil&tags=||||8281.036|Price|product|||NA|rsf:gd-|-stype:attr=1|qr_nm:gd|res:RC3|com-cf:nl|ptrs:na|ktp:N0|mc:105829|mtp:S|qry_typ:P|lang:en|wc:2|cs:8888|v=4,Medbio Pharmaceutical,https://www.indiamart.com/medbio-pharmaceutical/?pos=175&kwd=bio oil&tags=||||8281.036|Price|product|||NA|rsf:gd-|-stype:attr=1|qr_nm:gd|res:RC3|com-cf:nl|ptrs:na|ktp:N0|mc:105829|mtp:S|qry_typ:P|lang:en|wc:2|cs:8888|v=4,False,Manjalpur,Vadodara,"A-4, Gangasagar Complex, Tarsali, Sushan Ring Road, Manjalpur, Vadodara - 390009, Dist.Vadodara, Gujarat",8047543959,
"Pain Relief Herbal Oil, 60 ml, Prescription",https://www.indiamart.com/proddetail/pain-relief-herbal-oil-21497119697.html?pos=176&kwd=bio oil&tags=||||8754.115|Price|product|||NA|rsf:gd-|-stype:attr=1|qr_nm:gd|res:RC3|com-cf:nl|ptrs:na|ktp:N0|mc:105829|mtp:S|qry_typ:P|lang:en|wc:2|cs:8888|v=4,Hi-Cure Biotech,https://www.indiamart.com/hicurebiotech/?pos=176&kwd=bio oil&tags=||||8754.115|Price|product|||NA|rsf:gd-|-stype:attr=1|qr_nm:gd|res:RC3|com-cf:nl|ptrs:na|ktp:N0|mc:105829|mtp:S|qry_typ:P|lang:en|wc:2|cs:8888|v=4,False,,Panchkula,"Phase-2, Industrial Plot No. 295, Industrial Area, Panchkula - 134109, Dist.Panchkula, Haryana",8046030499,
"Biocare Mahanarayan Taila, Packaging Type: Bottle, Packaging Size: 50 ml",https://www.indiamart.com/proddetail/mahanarayana-oil-15339183397.html?pos=177&kwd=bio oil&tags=||||8237.554|Price|proxy|||MDC|rsf:gd-|-stype:attr=1|qr_nm:gd|res:RC3|com-cf:nl|ptrs:na|ktp:N0|mc:105829|mtp:S|qry_typ:P|lang:en|wc:2|cs:8888|v=4,Biocare Remedies Pvt.Ltd.,https://www.indiamart.com/biocareremedies/?pos=177&kwd=bio oil&tags=||||8237.554|Price|proxy|||MDC|rsf:gd-|-stype:attr=1|qr_nm:gd|res:RC3|com-cf:nl|ptrs:na|ktp:N0|mc:105829|mtp:S|qry_typ:P|lang:en|wc:2|cs:8888|v=4,False,,Gandhinagar,"Plot No.707, Biocare, GIDC, Sector-28, Gandhinagar - 382028, Gujarat",7942611541,
"Ayurveda Ortho Pain Relief Oil, Packaging Size: 30mL, Packaging Type: Box",https://www.indiamart.com/proddetail/ayurveda-ortho-pain-relief-oil-20575885588.html?pos=178&kwd=bio oil&tags=||||8786.56|Price|product|||NA|rsf:gd-|-stype:attr=1|qr_nm:gd|res:RC3|com-cf:nl|ptrs:na|ktp:N0|mc:105829|mtp:S|qry_typ:P|lang:en|wc:2|cs:8888|v=4,Akheera Drugs & Cosmetics,https://www.indiamart.com/akheeradrugs-cosmetics/?pos=178&kwd=bio oil&tags=||||8786.56|Price|product|||NA|rsf:gd-|-stype:attr=1|qr_nm:gd|res:RC3|com-cf:nl|ptrs:na|ktp:N0|mc:105829|mtp:S|qry_typ:P|lang:en|wc:2|cs:8888|v=4,False,Ameerpet,Hyderabad,"Plot No. 26, Gate No. 1, IDA Balanagar, Ameerpet, Hyderabad - 500037, Dist.Hyderabad, Telangana",8047699215,
"Ayurvedic Pain Oil-Nurlx Pain Oil, 60 Ml, Prescription",https://www.indiamart.com/proddetail/ayurvedic-pain-oil-nurlx-pain-oil-23021253530.html?pos=179&kwd=bio oil&tags=||||8744.016|Price|product|||NA|rsf:gd-|-stype:attr=1|qr_nm:gd|res:RC3|com-cf:nl|ptrs:na|ktp:N0|mc:105829|mtp:S|qry_typ:P|lang:en|wc:2|cs:8888|v=4,Associated Biotech,https://www.indiamart.com/associatedbiotech-panchkula/?pos=179&kwd=bio oil&tags=||||8744.016|Price|product|||NA|rsf:gd-|-stype:attr=1|qr_nm:gd|res:RC3|com-cf:nl|ptrs:na|ktp:N0|mc:105829|mtp:S|qry_typ:P|lang:en|wc:2|cs:8888|v=4,False,Sector 8,Nalagarh,"Village Kisanpura Baddi Guru Majra Road Baddi Solan, Sector 8, Nalagarh - 174101, Dist.Solan, Himachal Pradesh",8048977237,
Natural Remedy For Muscular Pain Oil,https://www.indiamart.com/proddetail/natural-remedy-for-muscular-pain-oil-22405366755.html?pos=180&kwd=bio oil&tags=||||8813.969|Price|product|||NA|rsf:gd-|-stype:attr=1|qr_nm:gd|res:RC3|com-cf:nl|ptrs:na|ktp:N0|mc:105829|mtp:S|qry_typ:P|lang:en|wc:2|cs:8888|v=4,Age Biotech,https://www.indiamart.com/age-biotech/?pos=180&kwd=bio oil&tags=||||8813.969|Price|product|||NA|rsf:gd-|-stype:attr=1|qr_nm:gd|res:RC3|com-cf:nl|ptrs:na|ktp:N0|mc:105829|mtp:S|qry_typ:P|lang:en|wc:2|cs:8888|v=4,False,,Meerut,"1st Floor 114, Meerut College Commercial Complex ,Meerut -250001, Uttar Pardesh . 34 & 35 ,Khirki Extention , Malviya Nagar, New Delhi-17., Meerut - 250001, Dist.Meerut, Uttar Pradesh",7942539958,
"Ayurvedic Joint Pain Relief Oil, 60 ml",https://www.indiamart.com/proddetail/edison-ayurvedic-joint-pain-relief-oil-2854453713112.html?pos=181&kwd=bio oil&tags=||||9104.467|Price|product|||NA|rsf:gd-|-stype:attr=1|qr_nm:gd|res:RC3|com-cf:nl|ptrs:na|ktp:N0|mc:105829|mtp:S|qry_typ:P|lang:en|wc:2|cs:8888|v=4,Edison Biotech Private Limited,https://www.indiamart.com/edisonbiotech/?pos=181&kwd=bio oil&tags=||||9104.467|Price|product|||NA|rsf:gd-|-stype:attr=1|qr_nm:gd|res:RC3|com-cf:nl|ptrs:na|ktp:N0|mc:105829|mtp:S|qry_typ:P|lang:en|wc:2|cs:8888|v=4,False,,Durg,"Sector-B, Ward No 51, A-7, 1A, Near Pani Tanki, Borsi, Durg - 491001, Dist.Durg, Chhattisgarh",7949340009,
80ml Biowright Wrightia tinctoria Cocos Nucifera Oil,https://www.indiamart.com/proddetail/80ml-biowright-wrightia-tinctoria-cocos-nucifera-oil-2852616159133.html?pos=182&kwd=bio oil&tags=||||8706.587||product|||NA|rsf:gd-|-stype:attr=1|qr_nm:gd|res:RC3|com-cf:nl|ptrs:na|ktp:N0|mc:105829|mtp:S|qry_typ:P|lang:en|wc:2|cs:8888|v=4,Anu Medical Agency,https://www.indiamart.com/anumedical-agency/?pos=182&kwd=bio oil&tags=||||8706.587||product|||NA|rsf:gd-|-stype:attr=1|qr_nm:gd|res:RC3|com-cf:nl|ptrs:na|ktp:N0|mc:105829|mtp:S|qry_typ:P|lang:en|wc:2|cs:8888|v=4,False,Narimedu,Madurai,"1st Floor, 10, Rajendra Prasad Road, Narimedu Sellur,, Narimedu, Madurai - 625002, Dist.Madurai, Tamil Nadu",7942646724,
50ml Muscular And Joint Pain O Relieve Oil,https://www.indiamart.com/proddetail/50ml-muscular-and-joint-pain-o-relieve-oil-2850670716248.html?pos=183&kwd=bio oil&tags=||||8754.115|Price|product|||NA|rsf:gd-|-stype:attr=1|qr_nm:gd|res:RC3|com-cf:nl|ptrs:na|ktp:N0|mc:105829|mtp:S|qry_typ:P|lang:en|wc:2|cs:8888|v=4,Adept Biocare,https://www.indiamart.com/adeptbiocare-panchkula/?pos=183&kwd=bio oil&tags=||||8754.115|Price|product|||NA|rsf:gd-|-stype:attr=1|qr_nm:gd|res:RC3|com-cf:nl|ptrs:na|ktp:N0|mc:105829|mtp:S|qry_typ:P|lang:en|wc:2|cs:8888|v=4,False,,Panchkula,"Plot No. 290 ,Industrial Area PH1, Panchkula - 134113, Dist.Panchkula, Haryana",7942827462,
AYURVEDIC JOINT PAIN &Amp; OTHER PAINFUL CONDITIONS MASSAGE OIL,https://www.indiamart.com/proddetail/ayurvedic-joint-pain-other-painful-conditions-massage-oil-2849856661712.html?pos=184&kwd=bio oil&tags=||||8754.115|Price|product|||NA|rsf:gd-|-stype:attr=1|qr_nm:gd|res:RC3|com-cf:nl|ptrs:na|ktp:N0|mc:105829|mtp:S|qry_typ:P|lang:en|wc:2|cs:8888|v=4,Uni Biotech Healthcare Pvt. Ltd.,https://www.indiamart.com/unibiotech-healthcare/?pos=184&kwd=bio oil&tags=||||8754.115|Price|product|||NA|rsf:gd-|-stype:attr=1|qr_nm:gd|res:RC3|com-cf:nl|ptrs:na|ktp:N0|mc:105829|mtp:S|qry_typ:P|lang:en|wc:2|cs:8888|v=4,False,,Panchkula,"115 Industrial Area, Phase1 Panchkula, Panchkula - 134113, Dist.Panchkula, Haryana",8047656237,
Astha Cure,https://www.indiamart.com/proddetail/astha-cure-4279191091.html?pos=185&kwd=bio oil&tags=||||9839.57||product|||NA|rsf:gd-|-stype:attr=1|qr_nm:gd|res:RC3|com-cf:nl|ptrs:na|ktp:N0|mc:105829|mtp:S|qry_typ:P|lang:en|wc:2|cs:8888|v=4,Lila Agrotech Private Limited,https://www.indiamart.com/lila-agrotech-private-limited/?pos=185&kwd=bio oil&tags=||||9839.57||product|||NA|rsf:gd-|-stype:attr=1|qr_nm:gd|res:RC3|com-cf:nl|ptrs:na|ktp:N0|mc:105829|mtp:S|qry_typ:P|lang:en|wc:2|cs:8888|v=4,False,Madhyamgram,Kolkata,"Supravat Appartment, P 476 Basunagar, Madhyamgram, Madhyamgram, Kolkata - 700129, Dist.Kolkata, West Bengal",7942650883,
Ancient Living Pain Relief Oil,,Livysh,https://www.indiamart.com/livysh/?pos=186&kwd=bio oil&tags=||||8786.56|Price|product|||NA|rsf:gd-|-stype:attr=1|qr_nm:gd|res:RC3|com-cf:nl|ptrs:na|ktp:N0|mc:105829|mtp:S|qry_typ:P|lang:en|wc:2|cs:8888|v=4,False,,Hyderabad,"Alwal, Hyderabad - 500010, Dist.Hyderabad, Telangana",,
Joint Pain Relief Oil,https://www.indiamart.com/proddetail/joint-pain-relief-oil-2851211763555.html?pos=187&kwd=bio oil&tags=||||8281.036|Price|proxy|||NA|rsf:gd-|-stype:attr=1|qr_nm:gd|res:RC3|com-cf:nl|ptrs:na|ktp:N0|mc:105829|mtp:S|qry_typ:P|lang:en|wc:2|cs:8888|v=4,Khushi Herbal Care,https://www.indiamart.com/khushiherbalcare/?pos=187&kwd=bio oil&tags=||||8281.036|Price|proxy|||NA|rsf:gd-|-stype:attr=1|qr_nm:gd|res:RC3|com-cf:nl|ptrs:na|ktp:N0|mc:105829|mtp:S|qry_typ:P|lang:en|wc:2|cs:8888|v=4,False,,Vadodara,"0, C-17, Giri Park Society, Vasna Road, Opp. Shubham Party Plot, Vadodara - 390007, Dist.Vadodara, Gujarat",8045733655,
Ayurvedic Pain Relief Oil,https://www.indiamart.com/proddetail/ayurvedic-pain-relief-oil-2853485001855.html?pos=188&kwd=bio oil&tags=||||8741.987|Price|proxy|||NA|rsf:gd-|-stype:attr=1|qr_nm:gd|res:RC3|com-cf:nl|ptrs:na|ktp:N0|mc:105829|mtp:S|qry_typ:P|lang:en|wc:2|cs:8888|v=4,Aster Medical Agencies,https://www.indiamart.com/astermedicalagencies/?pos=188&kwd=bio oil&tags=||||8741.987|Price|proxy|||NA|rsf:gd-|-stype:attr=1|qr_nm:gd|res:RC3|com-cf:nl|ptrs:na|ktp:N0|mc:105829|mtp:S|qry_typ:P|lang:en|wc:2|cs:8888|v=4,False,,Ambala,"Ground 27 Jandli, Ambala - 134003, Dist.Ambala, Haryana",7942964242,
"Ayurvedic Joint Pain Relief Oil, 60 ml",https://www.indiamart.com/proddetail/ayurvedic-joint-pain-relief-oil-2854499293391.html?pos=189&kwd=bio oil&tags=||||8559.269|Price|proxy|||NA|rsf:gd-|-stype:attr=1|qr_nm:gd|res:RC3|com-cf:nl|ptrs:na|ktp:N0|mc:105829|mtp:S|qry_typ:P|lang:en|wc:2|cs:8888|v=4,Jeevamrit Enterprises Private Limited,https://www.indiamart.com/jeevamrit-enterprises/?pos=189&kwd=bio oil&tags=||||8559.269|Price|proxy|||NA|rsf:gd-|-stype:attr=1|qr_nm:gd|res:RC3|com-cf:nl|ptrs:na|ktp:N0|mc:105829|mtp:S|qry_typ:P|lang:en|wc:2|cs:8888|v=4,False,Navratan Bag,Indore,"14-b Kailash Park, Navratan Bag, Indore - 452001, Dist.Indore, Madhya Pradesh",7949372493,
"Linium Max Ayurvedic Joint & Muscular Pain Relief Oil, 60 ml",https://www.indiamart.com/proddetail/linium-max-ayurvedic-joint-muscular-pain-relief-oil-2853219305848.html?pos=190&kwd=bio oil&tags=||||9349.906|Price|proxy|||NA|rsf:gd-|-stype:attr=1|qr_nm:gd|res:RC3|com-cf:nl|ptrs:na|ktp:N0|mc:105829|mtp:S|qry_typ:P|lang:en|wc:2|cs:8888|v=4,Mycure Biotech Private Limited,https://www.indiamart.com/mycurebiotech/?pos=190&kwd=bio oil&tags=||||9349.906|Price|proxy|||NA|rsf:gd-|-stype:attr=1|qr_nm:gd|res:RC3|com-cf:nl|ptrs:na|ktp:N0|mc:105829|mtp:S|qry_typ:P|lang:en|wc:2|cs:8888|v=4,False,Raiganj,Gorakhpur,"Pandey Complex, 33, Kasiya Road, Bilandpur,Infront Of DIG Bungla, Sadar, Raiganj, Gorakhpur - 273001, Dist.Gorakhpur, Uttar Pradesh",7949092502,
50ml Pain Relief Oil,https://www.indiamart.com/proddetail/50ml-pain-relief-oil-20225589288.html?pos=191&kwd=bio oil&tags=||||8641.487|Price|proxy|||NA|rsf:gd-|-stype:attr=1|qr_nm:gd|res:RC3|com-cf:nl|ptrs:na|ktp:N0|mc:105829|mtp:S|qry_typ:P|lang:en|wc:2|cs:8888|v=4,Zeus Biotech,https://www.indiamart.com/zeusbiotech/?pos=191&kwd=bio oil&tags=||||8641.487|Price|proxy|||NA|rsf:gd-|-stype:attr=1|qr_nm:gd|res:RC3|com-cf:nl|ptrs:na|ktp:N0|mc:105829|mtp:S|qry_typ:P|lang:en|wc:2|cs:8888|v=4,False,,Jalandhar,"11, Tagore Nagar,, Jalandhar - 144001, Dist.Jalandhar, Punjab",8044011869,
"Pain Relief Oil, 60 ml",https://www.indiamart.com/proddetail/pain-relief-oil-2851028126791.html?pos=192&kwd=bio oil&tags=||||8746.929|Price|proxy|||NA|rsf:gd-|-stype:attr=1|qr_nm:gd|res:RC3|com-cf:nl|ptrs:na|ktp:N0|mc:105829|mtp:S|qry_typ:P|lang:en|wc:2|cs:8888|v=4,Ancare Life Sciences,https://www.indiamart.com/ancarelife-sciences-chandigarh/?pos=192&kwd=bio oil&tags=||||8746.929|Price|proxy|||NA|rsf:gd-|-stype:attr=1|qr_nm:gd|res:RC3|com-cf:nl|ptrs:na|ktp:N0|mc:105829|mtp:S|qry_typ:P|lang:en|wc:2|cs:8888|v=4,False,Sector 13,Chandigarh,"One Shop Along With One Room At Top Floor Shop No 5 Gobindpura Road, Sector 13, Chandigarh - 160101, Chandigarh",8046049560,
Bio Oil,,Aparna Medicos,https://www.indiamart.com/ms-aparna-medicos/?pos=193&kwd=bio oil&tags=CA||||8785.791||product|||NA|rsf:gd-|-stype:attr=1|qr_nm:gd|res:RC3|com-cf:nl|ptrs:na|ktp:N0|mc:105829|mtp:S|qry_typ:P|lang:en|wc:2|cs:8888|v=4,False,Indirapuram,Ghaziabad,"Vpl 21, Lower Ground Floor, Shipra Vista Plaza, Main Road, Indirapuram, Ghaziabad - 201014, Dist.Ghaziabad, Uttar Pradesh",8048371796,258
Bio Oil,,Aastha Agency,https://www.indiamart.com/aasthaagencies/?pos=194&kwd=bio oil&tags=CC||||8752.144||product|||NA|rsf:gd-|-stype:attr=1|qr_nm:gd|res:RC3|com-cf:nl|ptrs:na|ktp:N0|mc:105829|mtp:S|qry_typ:P|lang:en|wc:2|cs:8888|v=4,False,Shakarpur Khas,New Delhi,"block-1, H No-1 Gali No-24, Iind Floor Hari Nagar Extn, Badarpur, Shakarpur Khas, New Delhi - 110044, Dist.Delhi, Delhi",8043829637,
Bio Oil,,Ashok Khandauli Pharma,https://www.indiamart.com/ashok-khandauli-pharma/?pos=195&kwd=bio oil&tags=CC||||8823.154||product|||NA|rsf:gd-|-stype:attr=1|qr_nm:gd|res:RC3|com-cf:nl|ptrs:na|ktp:N0|mc:105829|mtp:S|qry_typ:P|lang:en|wc:2|cs:8888|v=4,False,,Agra,"14/34a/1 Fubbara Crossing,fubbara Johari Bazar, Agra - 282003, Dist.Agra, Uttar Pradesh",8069264814,546
bio oil,,Aggarwal Departmental Store,https://www.indiamart.com/aggarwal-departmental-store-ludhiana/?pos=196&kwd=bio oil&tags=CC||||8661.854|Price|product|||NA|rsf:gd-|-stype:attr=1|qr_nm:gd|res:RC3|com-cf:nl|ptrs:na|ktp:N0|mc:105829|mtp:S|qry_typ:P|lang:en|wc:2|cs:8888|v=4,False,,Ludhiana,"27 Phase-I,Main Market Dugri Ludhiana Ludhiana, Ludhiana - 141013, Dist.Ludhiana, Punjab",8048372617,647
Bio Oil,,Suhas Traders,https://www.indiamart.com/suhas-traders-chitradurga/?pos=197&kwd=bio oil&tags=CC||||8542.392||product|||NA|rsf:gd-|-stype:attr=1|qr_nm:gd|res:RC3|com-cf:nl|ptrs:na|ktp:N0|mc:105829|mtp:S|qry_typ:P|lang:en|wc:2|cs:8888|v=4,False,,Chitradurga,"11/1,Kondajji Road,Kakkaragolla,Davanagere, Chitradurga - 577589, Dist.Chitradurga, Karnataka",8069416009,636
Bio Oil,,Brajesh Medical Store,https://www.indiamart.com/brajesh-medical-store-agra/?pos=198&kwd=bio oil&tags=CC||||8823.154||product|||NA|rsf:gd-|-stype:attr=1|qr_nm:gd|res:RC3|com-cf:nl|ptrs:na|ktp:N0|mc:105829|mtp:S|qry_typ:P|lang:en|wc:2|cs:8888|v=4,False,Idgah Colony,Agra,"Near Sabji Mandi Jagner Road Naripura Agra Agra, Idgah Colony, Agra - 282001, Dist.Agra, Uttar Pradesh",8062270212,524
Bio oil,,Siddhivinayak Medical Store,https://www.indiamart.com/siddhivinayak-medical-store-nagpur/?pos=199&kwd=bio oil&tags=CC||||8876.815|Price|product|||NA|rsf:gd-|-stype:attr=1|qr_nm:gd|res:RC3|com-cf:nl|ptrs:na|ktp:N0|mc:105829|mtp:S|qry_typ:P|lang:en|wc:2|cs:8888|v=4,False,Shivaji Nagar,Nagpur,"Plot No 01 North Ambazari Road Himalaya Enclave Shivaji Nagar Nagpur, Shivaji Nagar, Nagpur - 440010, Dist.Nagpur, Maharashtra",8062270244,468
Bio Oil,,Globe Medicos,https://www.indiamart.com/globe-medicos/?pos=200&kwd=bio oil&tags=CC||||8752.144||product|||NA|rsf:gd-|-stype:attr=1|qr_nm:gd|res:RC3|com-cf:nl|ptrs:na|ktp:N0|mc:105829|mtp:S|qry_typ:P|lang:en|wc:2|cs:8888|v=4,False,Kailash Colony Market,New Delhi,"Gf, Hs-6B, Kailash Colony Mkt, Kailash Colony, Kailash Colony Market, New Delhi - 110048, Dist.Delhi, Delhi",8048372020,275
Bio Oil,,City Pharmacy,https://www.indiamart.com/city-pharmacy-newdelhi/?pos=201&kwd=bio oil&tags=CC||||8752.144||product|||NA|rsf:gd-|-stype:attr=1|qr_nm:gd|res:RC3|com-cf:nl|ptrs:na|ktp:N0|mc:105829|mtp:S|qry_typ:P|lang:en|wc:2|cs:8888|v=4,False,,New Delhi,"Gali No 8/684, New Delhi - 110019, Dist.Delhi, Delhi",8048262992,139
Bio Oil,,Sujit Medical & General Stores,https://www.indiamart.com/sujit-medical-general-stores/?pos=202&kwd=bio oil&tags=CC||||8876.815||product|||NA|rsf:gd-|-stype:attr=1|qr_nm:gd|res:RC3|com-cf:nl|ptrs:na|ktp:N0|mc:105829|mtp:S|qry_typ:P|lang:en|wc:2|cs:8888|v=4,False,Cotton Market,Nagpur,"204 A SHANIWARI COTTON MARKET, Cotton Market, Nagpur - 440018, Dist.Nagpur, Maharashtra",8043875585,
Bio Oil,,Bombay Medicos,https://www.indiamart.com/bombay-medicos/?pos=203&kwd=bio oil&tags=CC||||8769.508||product|||NA|rsf:gd-|-stype:attr=1|qr_nm:gd|res:RC3|com-cf:nl|ptrs:na|ktp:N0|mc:105829|mtp:S|qry_typ:P|lang:en|wc:2|cs:8888|v=4,False,,Faridabad,"Shop No. 120, Near Pristine Mall, Huda Market, Sector-31, Faridabad - 121003, Dist.Faridabad, Haryana",7949353135,
Bio Oil,,Amrit Medical Store,https://www.indiamart.com/amrit-medical-store-lucknow/?pos=204&kwd=bio oil&tags=CC||||9110.092||product|||NA|rsf:gd-|-stype:attr=1|qr_nm:gd|res:RC3|com-cf:nl|ptrs:na|ktp:N0|mc:105829|mtp:S|qry_typ:P|lang:en|wc:2|cs:8888|v=4,False,,Lucknow,"Ismailganj, Faizabad Road, Lucknow - 226010, Dist.Lucknow, Uttar Pradesh",8048249694,4222
Bio Oil,,Sukhsagar Dawaiwala,https://www.indiamart.com/sukh-sagar-dawai/?pos=205&kwd=bio oil&tags=CC||||9081.368||product|||NA|rsf:gd-|-stype:attr=1|qr_nm:gd|res:RC3|com-cf:nl|ptrs:na|ktp:N0|mc:105829|mtp:S|qry_typ:P|lang:en|wc:2|cs:8888|v=4,False,Ajay Medical Sindhi Camp,Satna,"Birla Road Beside Dr. Neeleswar Sharma, Ajay Medical Sindhi Camp, Satna - 485001, Dist.Satna, Madhya Pradesh",8048361299,193
Bio Oil,,Shree Enterprises Medical And General Store,https://www.indiamart.com/shree-enterprises-medical-and-general-store/?pos=206&kwd=bio oil&tags=CC||||8876.815||product|||NA|rsf:gd-|-stype:attr=1|qr_nm:gd|res:RC3|com-cf:nl|ptrs:na|ktp:N0|mc:105829|mtp:S|qry_typ:P|lang:en|wc:2|cs:8888|v=4,False,,Nagpur,"80 MEDICAL SQURE SURVE BUILDING NAGPUR Nagpur Maharashtra 440003, Nagpur - 440003, Dist.Nagpur, Maharashtra",8069051316,739
Bio Oil,,Afaque Medical Store,https://www.indiamart.com/ms-afaque-medical-store/?pos=207&kwd=bio oil&tags=CC||||9327.29||product|||NA|rsf:gd-|-stype:attr=1|qr_nm:gd|res:RC3|com-cf:nl|ptrs:na|ktp:N0|mc:105829|mtp:S|qry_typ:P|lang:en|wc:2|cs:8888|v=4,False,,Azamgarh,"Anjanshahid, Azamgarh - 276125, Dist.Azamgarh, Uttar Pradesh",8048249686,5283
Bio Oil,,Satguru Pharmacy,https://www.indiamart.com/satguru-pharmacy/?pos=208&kwd=bio oil&tags=CC||||8211.142||product|||NA|rsf:gd-|-stype:attr=1|qr_nm:gd|res:RC3|com-cf:nl|ptrs:na|ktp:N0|mc:105829|mtp:S|qry_typ:P|lang:en|wc:2|cs:8888|v=4,False,Dharavi,Mumbai,"Shop No A 6, Ground Floor, Tagore Srace, Anna Nagar, Dharavi, Mumbai - 400017, Dist.Mumbai, Maharashtra",8048250475,289
Bio Oil,,Mayureshwar Medical Store,https://www.indiamart.com/mayureshwar-medical-store/?pos=209&kwd=bio oil&tags=CC||||8476.868||product|||NA|rsf:gd-|-stype:attr=1|qr_nm:gd|res:RC3|com-cf:nl|ptrs:na|ktp:N0|mc:105829|mtp:S|qry_typ:P|lang:en|wc:2|cs:8888|v=4,False,Garkheda,Aurangabad,"Shop No- C 45/6, Shivaji Nagar Road Near Vani Community Center, Garkheda, Garkheda, Aurangabad - 431009, Maharashtra",8048260842,930
Bio Oil,,Prashant Medical & General Stores,https://www.indiamart.com/prashantmedical-general/?pos=210&kwd=bio oil&tags=CC||||8211.142||product|||NA|rsf:gd-|-stype:attr=1|qr_nm:gd|res:RC3|com-cf:nl|ptrs:na|ktp:N0|mc:105829|mtp:S|qry_typ:P|lang:en|wc:2|cs:8888|v=4,False,Goregaon West,Mumbai,",18, 19,17TH Siddharth Nagar Road,Soujanya Co Op soc Ltd,Goregoan, Goregaon West, Mumbai - 400062, Dist.Mumbai, Maharashtra",8048371960,332
