product_title,product_link,company_name,company_link,is_verified_exporter,city_region,city,address_details,phone_number,phone_number_extension
Brown Plastic Baby Carry Cot,https://www.indiamart.com/proddetail/baby-carry-cot-2851555870688.html?pos=1&kwd=carry cot&tags=A||||8231.259|Price|product|||TS|rsf:gd-|-stype:attr=1|qr_nm:gd|res:RC3|com-cf:nl|ptrs:na|ktp:N0|mc:654590|mtp:S|qry_typ:P|lang:en|wc:2|flavl:0|cs:9655|v=4,Shivam Marketing,https://www.indiamart.com/shivammarketing-maharashtra/?pos=1&kwd=carry cot&tags=A||||8231.259|Price|product|||TS|rsf:gd-|-stype:attr=1|qr_nm:gd|res:RC3|com-cf:nl|ptrs:na|ktp:N0|mc:654590|mtp:S|qry_typ:P|lang:en|wc:2|flavl:0|cs:9655|v=4,False,Dapode,Bhiwandi,"Building No- F, Gala No- 104, 105, 106, 107, First Floor, Jai Shri Ram Complex,, Dapode, Bhiwandi - 421302, Maharashtra",8043862956,
Baby Cradle with Net (GREEN) / Baby Cradle with Mosquito Net ( baby jhula ),https://www.indiamart.com/proddetail/baby-cradle-with-net-green-baby-cradle-with-mosquito-net-baby-jhula-2854268382497.html?pos=2&kwd=carry cot&tags=BB||||8307.81|Price|product|||TS|rsf:gd-|-stype:attr=1|qr_nm:gd|res:RC3|com-cf:nl|ptrs:na|ktp:N0|mc:654590|mtp:S|qry_typ:P|lang:en|wc:2|flavl:0|cs:9655|v=4,Lakshmi Electronics,https://www.indiamart.com/lakshmielectronics-pune/?pos=2&kwd=carry cot&tags=BB||||8307.81|Price|product|||TS|rsf:gd-|-stype:attr=1|qr_nm:gd|res:RC3|com-cf:nl|ptrs:na|ktp:N0|mc:654590|mtp:S|qry_typ:P|lang:en|wc:2|flavl:0|cs:9655|v=4,False,Pisoli,Pune,"Godown No. 3B, Milakat No. 591, Survey No 37 & HISSA No 1 To 4/1/3/1, Near Balaji Hotel, Behind Inspire Furniture Kondhwa Pisoli Road, Pisoli, Pisoli, Pune - 411060, Dist.Pune, Maharashtra",8048951362,
Blue Plastic Plan Carry Cot,https://www.indiamart.com/proddetail/plan-carry-cot-2853433137248.html?pos=3&kwd=carry cot&tags=BA||||8752.144|Price|product|||TS|rsf:gd-|-stype:attr=1|qr_nm:gd|res:RC3|com-cf:nl|ptrs:na|ktp:N0|mc:654590|mtp:S|qry_typ:P|lang:en|wc:2|flavl:0|cs:9655|v=4,Steel Art (A Brand Of Mittal Enterprises),https://www.indiamart.com/mittalentps-delhi/?pos=3&kwd=carry cot&tags=BA||||8752.144|Price|product|||TS|rsf:gd-|-stype:attr=1|qr_nm:gd|res:RC3|com-cf:nl|ptrs:na|ktp:N0|mc:654590|mtp:S|qry_typ:P|lang:en|wc:2|flavl:0|cs:9655|v=4,False,Mundka,New Delhi,"Ground Floor, Plot At Khasra No. 66/22, Gali No. 2, Mundka, Mundka, New Delhi - 110041, Dist.Delhi, Delhi",8046044378,
IRA Snug Moses Basket,https://www.indiamart.com/proddetail/ira-snug-moses-basket-20736065448.html?pos=4&kwd=carry cot&tags=BA||||8254.475|Price|product|||TS|rsf:gd-|-stype:attr=1|qr_nm:gd|res:RC3|com-cf:nl|ptrs:na|ktp:N0|mc:654590|mtp:S|qry_typ:P|lang:en|wc:2|flavl:0|cs:9655|v=4,IRA Furniture,https://www.indiamart.com/irafurniture/?pos=4&kwd=carry cot&tags=BA||||8254.475|Price|product|||TS|rsf:gd-|-stype:attr=1|qr_nm:gd|res:RC3|com-cf:nl|ptrs:na|ktp:N0|mc:654590|mtp:S|qry_typ:P|lang:en|wc:2|flavl:0|cs:9655|v=4,False,Ashirwad Park,Bharuch,"Flat A1/ 901, Shyam Villa, Opposite Decor House, Ashirwad Park, Bharuch - 392001, Dist.Bharuch, Gujarat",8046058681,
"Blue (base) PVC Plastic Honey Bee Bouncer Baby Carry Cot, Newly born, Packaging Type: Box",https://www.indiamart.com/proddetail/honey-bee-bouncer-baby-carry-cot-2854211411562.html?pos=5&kwd=carry cot&tags=BA||||8752.144|Price|product|||TS|rsf:gd-|-stype:attr=1|qr_nm:gd|res:RC3|com-cf:nl|ptrs:na|ktp:N0|mc:654590|mtp:S|qry_typ:P|lang:en|wc:2|flavl:0|cs:9655|v=4,Indial Premium Products,https://www.indiamart.com/indial-premium-products/?pos=5&kwd=carry cot&tags=BA||||8752.144|Price|product|||TS|rsf:gd-|-stype:attr=1|qr_nm:gd|res:RC3|com-cf:nl|ptrs:na|ktp:N0|mc:654590|mtp:S|qry_typ:P|lang:en|wc:2|flavl:0|cs:9655|v=4,False,,New Delhi,"68, K Block, Jahangirpuri North West Delhi, New Delhi - 110033, Dist.Delhi, Delhi",8045732973,
Baby Cot Bumper,https://www.indiamart.com/proddetail/baby-cot-bumper-13223308888.html?pos=6&kwd=carry cot&tags=BA||||8778.123|Price|product|||TS|rsf:gd-|-stype:attr=1|qr_nm:gd|res:RC3|com-cf:nl|ptrs:na|ktp:N0|mc:654590|mtp:S|qry_typ:P|lang:en|wc:2|flavl:0|cs:9655|v=4,Oscar Overseas,https://www.oscar-india.com/?pos=6&kwd=carry cot&tags=BA||||8778.123|Price|product|||TS|rsf:gd-|-stype:attr=1|qr_nm:gd|res:RC3|com-cf:nl|ptrs:na|ktp:N0|mc:654590|mtp:S|qry_typ:P|lang:en|wc:2|flavl:0|cs:9655|v=4,False,,Noida,"A-99 Sector 5, Noida - 201301, Dist.Gautam Budh Nagar, Uttar Pradesh",8046058290,
Multicolor Rectangular MUSTARD SEEDS PILLOW FOR BORN BABY,https://www.indiamart.com/proddetail/mustard-seeds-pillow-for-born-baby-2849542403012.html?pos=7&kwd=carry cot&tags=BA||||8230.883|Price|product|||TS|rsf:gd-|-stype:attr=1|qr_nm:gd|res:RC3|com-cf:nl|ptrs:na|ktp:N0|mc:654590|mtp:S|qry_typ:P|lang:en|wc:2|flavl:0|cs:9655|v=4,Rozzby,https://www.cheaperzonetoys.com/?pos=7&kwd=carry cot&tags=BA||||8230.883|Price|product|||TS|rsf:gd-|-stype:attr=1|qr_nm:gd|res:RC3|com-cf:nl|ptrs:na|ktp:N0|mc:654590|mtp:S|qry_typ:P|lang:en|wc:2|flavl:0|cs:9655|v=4,False,Kosam,Surat,"1st Floor D-2,103 Vip Circle Shlok Recidency Utran, Kosam, Surat - 394105, Dist.Surat, Gujarat",8047622002,
panda Baby Carry Cots 9 In 1,,Balaji Overseas Inc.,https://www.babyzon.in/?pos=8&kwd=carry cot&tags=BA||||8752.144||product|||TS|rsf:gd-|-stype:attr=1|qr_nm:gd|res:RC3|com-cf:nl|ptrs:na|ktp:N0|mc:654590|mtp:S|qry_typ:P|lang:en|wc:2|flavl:0|cs:9655|v=4,False,Tri Nagar,New Delhi,"1553/110, Landmark Ganesh Pura, Tri Nagar, Tri Nagar, New Delhi - 110035, Dist.Delhi, Delhi",8047532650,
"Local Multicolor Baby Carry Cot 8 In 1, Nope",https://www.indiamart.com/proddetail/baby-carry-cot-8-in-1-3459399212.html?pos=9&kwd=carry cot&tags=BA||||8239.3955|Price|product|||NA|rsf:gd-|-stype:attr=1|qr_nm:gd|res:RC3|com-cf:nl|ptrs:na|ktp:N0|mc:654590|mtp:S|qry_typ:P|lang:en|wc:2|flavl:0|cs:9655|v=4,Tiny Toes,https://www.indiamart.com/tiny-toes/?pos=9&kwd=carry cot&tags=BA||||8239.3955|Price|product|||NA|rsf:gd-|-stype:attr=1|qr_nm:gd|res:RC3|com-cf:nl|ptrs:na|ktp:N0|mc:654590|mtp:S|qry_typ:P|lang:en|wc:2|flavl:0|cs:9655|v=4,False,,Kalyan,"Shop No 4, Jai Sonali Building Dr. Ambedkar road, Kalyan - 421301, Dist.Thane, Maharashtra",8047699360,
Carry Cot,,Shiv Plastic,https://www.indiamart.com/shiv-plastic-hyderabad/?pos=10&kwd=carry cot&tags=BA||||8786.56||product|||NA|rsf:gd-|-stype:attr=1|qr_nm:gd|res:RC3|com-cf:nl|ptrs:na|ktp:N0|mc:654590|mtp:S|qry_typ:P|lang:en|wc:2|flavl:0|cs:9655|v=4,False,Afzal Gunj,Hyderabad,"15-8-511,shop no-18, ground floor,r.k. plaza ,nimbu market ,beside Aziz plaza ,Begum bazar,hydrabad-12(t.s.), Afzal Gunj, Hyderabad - 500012, Dist.Hyderabad, Telangana",8043821216,
Baby Carry Cot,,Krishna Collection,https://www.indiamart.com/krishnacollections-jaipur/?pos=11&kwd=carry cot&tags=BA||||8601.347||product|||NA|rsf:gd-|-stype:attr=1|qr_nm:gd|res:RC3|com-cf:nl|ptrs:na|ktp:N0|mc:654590|mtp:S|qry_typ:P|lang:en|wc:2|flavl:0|cs:9655|v=4,False,Link Road,Jaipur,"Krishna Collection Maniram Ji Ki Kothi Chokdi Ghat Ka Darwaja Rasta Dara Market, Shop No. 2530, Patwo Ka Rasta, Bupu Bazar, Link Road, Jaipur - 302003, Dist.Jaipur, Rajasthan",8062245965,435
Baby Bed Pillow Foam Kids Carry Cot,https://www.indiamart.com/proddetail/kids-carry-cot-21581550373.html?pos=12&kwd=carry cot&tags=CC||||8752.144|Price|product|||TS|rsf:gd-|-stype:attr=1|qr_nm:gd|res:RC3|com-cf:nl|ptrs:na|ktp:N0|mc:654590|mtp:S|qry_typ:P|lang:en|wc:2|flavl:0|cs:9655|v=4,Giriraj Enterprises,https://www.indiamart.com/giriraj-enterprises-delhi/?pos=12&kwd=carry cot&tags=CC||||8752.144|Price|product|||TS|rsf:gd-|-stype:attr=1|qr_nm:gd|res:RC3|com-cf:nl|ptrs:na|ktp:N0|mc:654590|mtp:S|qry_typ:P|lang:en|wc:2|flavl:0|cs:9655|v=4,False,Shakurpur,New Delhi,"WZ 313 A, Shakurpur Village, Shakurpur, New Delhi - 110034, Dist.Delhi, Delhi",8048262415,
"PANDA Plastic & Soft Colth Baby Carry Cot, Yes",https://www.indiamart.com/proddetail/baby-carry-cot-20830683791.html?pos=13&kwd=carry cot&tags=CC||||8752.144|Price|product|||TS|rsf:gd-|-stype:attr=1|qr_nm:gd|res:RC3|com-cf:nl|ptrs:na|ktp:N0|mc:654590|mtp:S|qry_typ:P|lang:en|wc:2|flavl:0|cs:9655|v=4,Gupta Plastic Works,https://www.indiamart.com/guptaplasticworks/?pos=13&kwd=carry cot&tags=CC||||8752.144|Price|product|||TS|rsf:gd-|-stype:attr=1|qr_nm:gd|res:RC3|com-cf:nl|ptrs:na|ktp:N0|mc:654590|mtp:S|qry_typ:P|lang:en|wc:2|flavl:0|cs:9655|v=4,False,Azadpur,New Delhi,"A-80/1, G.T. Karnal Road, Industrial Area, Azadpur, New Delhi - 110033, Dist.Delhi, Delhi",8046032300,
PINK Plastic DASH STAR CARRY COT Care 9 in 1 Baby Cozy Carry Cot,https://www.indiamart.com/proddetail/dash-star-carry-cot-care-9-in-1-baby-cozy-carry-cot-25739508797.html?pos=14&kwd=carry cot&tags=CC||||8752.144|Price|product|||TS|rsf:gd-|-stype:attr=1|qr_nm:gd|res:RC3|com-cf:nl|ptrs:na|ktp:N0|mc:654590|mtp:S|qry_typ:P|lang:en|wc:2|flavl:0|cs:9655|v=4,Ashish Trading Co.,https://www.indiamart.com/ashish-trading/?pos=14&kwd=carry cot&tags=CC||||8752.144|Price|product|||TS|rsf:gd-|-stype:attr=1|qr_nm:gd|res:RC3|com-cf:nl|ptrs:na|ktp:N0|mc:654590|mtp:S|qry_typ:P|lang:en|wc:2|flavl:0|cs:9655|v=4,False,Shalimar Bagh,New Delhi,"BC- 67 A, East Shalimar Bagh, Kela Godown Road Shalimar, Shalimar Bagh, New Delhi - 110088, Dist.Delhi, Delhi",8048979347,
R for Rabbit Picaboo Baby Carry Cot,https://www.indiamart.com/proddetail/r-for-rabbit-picaboo-baby-carry-cot-2852509900073.html?pos=15&kwd=carry cot&tags=CC||||9140.514|Price|product|||TS|rsf:gd-|-stype:attr=1|qr_nm:gd|res:RC3|com-cf:nl|ptrs:na|ktp:N0|mc:654590|mtp:S|qry_typ:P|lang:en|wc:2|cs:8892|v=4,Anjaneya Enterprises,https://www.ridenslide.in/?pos=15&kwd=carry cot&tags=CC||||9140.514|Price|product|||TS|rsf:gd-|-stype:attr=1|qr_nm:gd|res:RC3|com-cf:nl|ptrs:na|ktp:N0|mc:654590|mtp:S|qry_typ:P|lang:en|wc:2|cs:8892|v=4,False,Pandri,Raipur,"SHOP NO-10,SHOPPERS PARADISE,BEHIND CITY CENTER MALL,PANDRI,RAIPUR, Pandri, Raipur - 492001, Chhattisgarh",8046045761,
Baby 11 In 1 Carry Cot,https://www.indiamart.com/proddetail/baby-11-in-1-carry-cot-12514042133.html?pos=16&kwd=carry cot&tags=CC||||8211.142|Price|product|||MDC|rsf:gd-|-stype:attr=1|qr_nm:gd|res:RC3|com-cf:nl|ptrs:na|ktp:N0|mc:654590|mtp:S|qry_typ:P|lang:en|wc:2|cs:8892|v=4,Sara Traders,https://www.indiamart.com/saratradersmumbai/?pos=16&kwd=carry cot&tags=CC||||8211.142|Price|product|||MDC|rsf:gd-|-stype:attr=1|qr_nm:gd|res:RC3|com-cf:nl|ptrs:na|ktp:N0|mc:654590|mtp:S|qry_typ:P|lang:en|wc:2|cs:8892|v=4,False,Princess Dock,Mumbai,"Shop No. 2, Dastagir Building, 5/7, Nishanpada Cross Road Dongri, Princess Dock, Mumbai - 400009, Dist.Mumbai, Maharashtra",8048959409,
"Blue 10 In 1 Fun Ride Carry Cot, Packaging Type: Box",https://www.indiamart.com/proddetail/10-in-1-fun-ride-carry-cot-2854579765948.html?pos=17&kwd=carry cot&tags=CC||||8226.563|Price|product|||MDC|rsf:gd-|-stype:attr=1|qr_nm:gd|res:RC3|com-cf:nl|ptrs:na|ktp:N0|mc:654590|mtp:S|qry_typ:P|lang:en|wc:2|cs:8892|v=4,Virat,https://www.indiamart.com/virat-maharashtra/?pos=17&kwd=carry cot&tags=CC||||8226.563|Price|product|||MDC|rsf:gd-|-stype:attr=1|qr_nm:gd|res:RC3|com-cf:nl|ptrs:na|ktp:N0|mc:654590|mtp:S|qry_typ:P|lang:en|wc:2|cs:8892|v=4,False,,Navi Mumbai,"Ground Floor,Shop No. 6,Merchant Center,Plot No. 14D,Sector 19,Next To Kailash Enterprises Vashi, Navi Mumbai - 400703, Dist.Thane, Maharashtra",7949324680,
Multicolor Mild Steel Baby Carry Cot 8 in 1,https://www.indiamart.com/proddetail/baby-carry-cot-8-in-1-2853317403633.html?pos=18&kwd=carry cot&tags=||||8954.051|Price|product|||TS|rsf:gd-|-stype:attr=1|qr_nm:gd|res:RC3|com-cf:nl|ptrs:na|ktp:N0|mc:654590|mtp:S|qry_typ:P|lang:en|wc:2|cs:8892|v=4,Shah International,https://www.indiamart.com/shah-internationalchennai/?pos=18&kwd=carry cot&tags=||||8954.051|Price|product|||TS|rsf:gd-|-stype:attr=1|qr_nm:gd|res:RC3|com-cf:nl|ptrs:na|ktp:N0|mc:654590|mtp:S|qry_typ:P|lang:en|wc:2|cs:8892|v=4,False,Sydenhams lane,Chennai,"New No.195, Old No.137 & 138/1, Sydenhams Road, Periyamet, Sydenhams lane, Chennai - 600003, Dist.Chennai, Tamil Nadu",7942963807,
Ivory Stainless Steel Baby Carry Cot,https://www.indiamart.com/proddetail/baby-carry-cot-11266508697.html?pos=19&kwd=carry cot&tags=||||9829.308|Price|product|||TS|rsf:gd-|-stype:attr=1|qr_nm:gd|res:RC3|com-cf:nl|ptrs:na|ktp:N0|mc:654590|mtp:S|qry_typ:P|lang:en|wc:2|cs:8892|v=4,S I Surgical Corporation,https://www.indiamart.com/sisurgicalcorporation/?pos=19&kwd=carry cot&tags=||||9829.308|Price|product|||TS|rsf:gd-|-stype:attr=1|qr_nm:gd|res:RC3|com-cf:nl|ptrs:na|ktp:N0|mc:654590|mtp:S|qry_typ:P|lang:en|wc:2|cs:8892|v=4,False,Nibra,Howrah,"SIS House, NH6, 47/48Uttar Nibra, 2 No. Pump House, Nibra, Howrah - 711409, Dist.Howrah, West Bengal",8046045571,
Gray & Black Polyester Luvlap Baby Car Seat Cum Carry Cot,https://www.indiamart.com/proddetail/luvlap-baby-car-seat-cum-carry-cot-2853399467230.html?pos=20&kwd=carry cot&tags=||||8614.241|Price|product|||MDC|rsf:gd-|-stype:attr=1|qr_nm:gd|res:RC3|com-cf:nl|ptrs:na|ktp:N0|mc:654590|mtp:S|qry_typ:P|lang:en|wc:2|cs:8892|v=4,M.M. Toy World,https://www.indiamart.com/mmtoyworld/?pos=20&kwd=carry cot&tags=||||8614.241|Price|product|||MDC|rsf:gd-|-stype:attr=1|qr_nm:gd|res:RC3|com-cf:nl|ptrs:na|ktp:N0|mc:654590|mtp:S|qry_typ:P|lang:en|wc:2|cs:8892|v=4,False,Achli Gate,Batala,"M.M. Toys World, Bedian Gali, Khujari Gate, Gurdaspur, Achli Gate, Batala - 143505, Dist.Gurdaspur, Punjab",7949224330,
"Inside synthetic cotton Portable Baby Crib, Size: XL",https://www.indiamart.com/proddetail/portable-baby-crib-21271572491.html?pos=21&kwd=carry cot&tags=||||9842.824|Price|product|||TS|rsf:gd-|-stype:attr=1|qr_nm:gd|res:RC3|com-cf:nl|ptrs:na|ktp:N0|mc:654590|mtp:S|qry_typ:P|lang:en|wc:2|cs:8892|v=4,Baby Mosquito Net Seller,https://www.indiamart.com/babymosquitonetseller/?pos=21&kwd=carry cot&tags=||||9842.824|Price|product|||TS|rsf:gd-|-stype:attr=1|qr_nm:gd|res:RC3|com-cf:nl|ptrs:na|ktp:N0|mc:654590|mtp:S|qry_typ:P|lang:en|wc:2|cs:8892|v=4,False,Kailash Nagar,Hooghly,"Paulpara, P. O. Bandel, Kailash Nagar, Hooghly - 712103, Dist.Hooghly, West Bengal",8048953197,
White Maild steel Hospital Baby Cribs And Cot,https://www.indiamart.com/proddetail/hospital-baby-cribs-and-cot-27086956912.html?pos=22&kwd=carry cot&tags=||||8752.144|Price|product|||TS|rsf:gd-|-stype:attr=1|qr_nm:gd|res:RC3|com-cf:nl|ptrs:na|ktp:N0|mc:654590|mtp:S|qry_typ:P|lang:en|wc:2|cs:8892|v=4,Mohan Singh Hospital Furniture Manufacturer,https://www.mohansinghhospitalfurniture.com/?pos=22&kwd=carry cot&tags=||||8752.144|Price|product|||TS|rsf:gd-|-stype:attr=1|qr_nm:gd|res:RC3|com-cf:nl|ptrs:na|ktp:N0|mc:654590|mtp:S|qry_typ:P|lang:en|wc:2|cs:8892|v=4,False,Nangli Sakrawati,New Delhi,"Kh No. 27/4, Opposite Coco cola Godown Village Nangli Sakrawati, Najafgarh, Nangli Sakrawati, New Delhi - 110043, Dist.Delhi, Delhi",8046060021,
"Iron Full Size Folding Bed, With Storage",https://www.indiamart.com/proddetail/folding-bed-2850501464712.html?pos=23&kwd=carry cot&tags=||||8786.56|Price|product|||TS|rsf:gd-|-stype:attr=1|qr_nm:gd|res:RC3|com-cf:nl|ptrs:na|ktp:N0|mc:654590|mtp:S|qry_typ:P|lang:en|wc:2|cs:8892|v=4,Acupressure Health Care System,https://www.indiamart.com/acupressurehealth-caresystem-hyderabad/?pos=23&kwd=carry cot&tags=||||8786.56|Price|product|||TS|rsf:gd-|-stype:attr=1|qr_nm:gd|res:RC3|com-cf:nl|ptrs:na|ktp:N0|mc:654590|mtp:S|qry_typ:P|lang:en|wc:2|cs:8892|v=4,False,Kachi Guda,Hyderabad,"#3-5-1137/R/2,,KACHIGUDA X ROAD,Hyderabad, Kachi Guda, Hyderabad - 500027, Dist.Hyderabad, Telangana",7942555226,
White Mild Steel Hospital Baby Crib Trolley,https://www.indiamart.com/proddetail/white-mild-steel-hospital-baby-crib-trolley-2854348928373.html?pos=24&kwd=carry cot&tags=||||8663.873|Price|product|||MDC|rsf:gd-|-stype:attr=1|qr_nm:gd|res:RC3|com-cf:nl|ptrs:na|ktp:N0|mc:654590|mtp:S|qry_typ:P|lang:en|wc:2|cs:8892|v=4,Ramsil Private Limited,https://www.indiamart.com/ramsilbengaluru/?pos=24&kwd=carry cot&tags=||||8663.873|Price|product|||MDC|rsf:gd-|-stype:attr=1|qr_nm:gd|res:RC3|com-cf:nl|ptrs:na|ktp:N0|mc:654590|mtp:S|qry_typ:P|lang:en|wc:2|cs:8892|v=4,False,,Bengaluru,"4th, No. 28, 1st Main Road, Behind Msil, Yaswanthpura Road, Gokula, Bengaluru Urban, Bengaluru - 560022, Dist.Bengaluru, Karnataka",8045733926,
4 Fold Metal Single Folding Bed Attached 1inch Mattress,https://www.indiamart.com/proddetail/4-fold-metal-single-folding-bed-attached-1inch-mattress-2853358785830.html?pos=25&kwd=carry cot&tags=||||8813.969|Price|product|||MDC|rsf:gd-|-stype:attr=1|qr_nm:gd|res:RC3|com-cf:nl|ptrs:na|ktp:N0|mc:654590|mtp:S|qry_typ:P|lang:en|wc:2|cs:8892|v=4,Spf International,https://www.indiamart.com/spf-international/?pos=25&kwd=carry cot&tags=||||8813.969|Price|product|||MDC|rsf:gd-|-stype:attr=1|qr_nm:gd|res:RC3|com-cf:nl|ptrs:na|ktp:N0|mc:654590|mtp:S|qry_typ:P|lang:en|wc:2|cs:8892|v=4,False,Thapar Nagar,Meerut,"291, Gali No. 7 Thapar Nagar Road, Thapar Nagar, Meerut - 250001, Dist.Meerut, Uttar Pradesh",7949222769,
Iron Single Folding Cot Bed,https://www.indiamart.com/proddetail/iron-single-folding-cot-bed-2853669950833.html?pos=26&kwd=carry cot&tags=||||8813.969|Price|product|||TS|rsf:gd-|-stype:attr=1|qr_nm:gd|res:RC3|com-cf:nl|ptrs:na|ktp:N0|mc:654590|mtp:S|qry_typ:P|lang:en|wc:2|cs:8892|v=4,Sahni Industries,https://www.indiamart.com/sahniindustries/?pos=26&kwd=carry cot&tags=||||8813.969|Price|product|||TS|rsf:gd-|-stype:attr=1|qr_nm:gd|res:RC3|com-cf:nl|ptrs:na|ktp:N0|mc:654590|mtp:S|qry_typ:P|lang:en|wc:2|cs:8892|v=4,False,Thapar Nagar,Meerut,"House No. 170/3 Hall No 163, Thapar Nagar Road, Thapar Nagar Sub Post Office, Thapar Nagar, Thapar Nagar, Meerut - 250001, Dist.Meerut, Uttar Pradesh",7949092909,
Natural Printed 0.6mm Korai Silk FoldableMat,https://www.indiamart.com/proddetail/0-6mm-korai-silk-foldablemat-2852048762348.html?pos=27&kwd=carry cot&tags=||||8706.263|Price|product|||TS|rsf:gd-|-stype:attr=1|qr_nm:gd|res:RC3|com-cf:nl|ptrs:na|ktp:N0|mc:654590|mtp:S|qry_typ:P|lang:en|wc:2|cs:8892|v=4,GDM Global Enterprises,https://www.indiamart.com/gdm-globalenterprises/?pos=27&kwd=carry cot&tags=||||8706.263|Price|product|||TS|rsf:gd-|-stype:attr=1|qr_nm:gd|res:RC3|com-cf:nl|ptrs:na|ktp:N0|mc:654590|mtp:S|qry_typ:P|lang:en|wc:2|cs:8892|v=4,False,Vengamedu,Karur,"184A, GDM Global Enterprises, Vengamedu Post, Vengamedu, Karur - 639006, Dist.Karur, Tamil Nadu",7942872482,
Steel Base Foldable Bed,https://www.indiamart.com/proddetail/steel-base-foldable-bed-26747454133.html?pos=28&kwd=carry cot&tags=||||8706.263|Price|product|||TS|rsf:gd-|-stype:attr=1|qr_nm:gd|res:RC3|com-cf:nl|ptrs:na|ktp:N0|mc:654590|mtp:S|qry_typ:P|lang:en|wc:2|cs:8892|v=4,Gee Yea Home,https://www.indiamart.com/gee-yeahome/?pos=28&kwd=carry cot&tags=||||8706.263|Price|product|||TS|rsf:gd-|-stype:attr=1|qr_nm:gd|res:RC3|com-cf:nl|ptrs:na|ktp:N0|mc:654590|mtp:S|qry_typ:P|lang:en|wc:2|cs:8892|v=4,False,Tirumanilaiyur,Karur,"S.No. 4/196, Next To Goverment Bus Depot, Thirumanilaiyur, Tirumanilaiyur, Karur - 639003, Dist.Karur, Tamil Nadu",8048209166,
PATOYS | Asalvo | 12623 Travel Cot for kids Mix plus Animals Of The World,https://www.indiamart.com/proddetail/patoys-asalvo-12623-travel-cot-for-kids-mix-plus-animals-of-the-world-2851579838791.html?pos=29&kwd=carry cot&tags=||||8793.739|Price|product|||TS|rsf:gd-|-stype:attr=1|qr_nm:gd|res:RC3|com-cf:nl|ptrs:na|ktp:N0|mc:654590|mtp:S|qry_typ:P|lang:en|wc:2|cs:8892|v=4,Patoys,https://www.indiamart.com/patoys/?pos=29&kwd=carry cot&tags=||||8793.739|Price|product|||TS|rsf:gd-|-stype:attr=1|qr_nm:gd|res:RC3|com-cf:nl|ptrs:na|ktp:N0|mc:654590|mtp:S|qry_typ:P|lang:en|wc:2|cs:8892|v=4,False,Krishna Nagar,Mathura,"Ground Floor Shop No - 3 Krishna Nagar Krishna Plaza, Krishna Nagar, Mathura - 281004, Dist.Mathura, Uttar Pradesh",,
mix color Plastic Carrycot Plain,https://www.indiamart.com/proddetail/carrycot-plain-26867264797.html?pos=30&kwd=carry cot&tags=||||8752.144|Price|product|||TS|rsf:gd-|-stype:attr=1|qr_nm:gd|res:RC3|com-cf:nl|ptrs:na|ktp:N0|mc:654590|mtp:S|qry_typ:P|lang:en|wc:2|cs:8892|v=4,Bhasin Baby Furniture,https://www.indiamart.com/bhasinbabyfurniture/?pos=30&kwd=carry cot&tags=||||8752.144|Price|product|||TS|rsf:gd-|-stype:attr=1|qr_nm:gd|res:RC3|com-cf:nl|ptrs:na|ktp:N0|mc:654590|mtp:S|qry_typ:P|lang:en|wc:2|cs:8892|v=4,False,Tagore Garden Extension,New Delhi,"Khasra Number 110/11 Main Firni Road, Tagore Garden Extension, New Delhi - 110041, Dist.Delhi, Delhi",8048955729,
"Aluminium Black Acupressure Massage Bed- Metal (Triple Fold), 10 Kg",https://www.indiamart.com/proddetail/acupressure-massage-bed-metal-triple-fold-24635627148.html?pos=31&kwd=carry cot&tags=||||8752.144|Price|product|||TS|rsf:gd-|-stype:attr=1|qr_nm:gd|res:RC3|com-cf:nl|ptrs:na|ktp:N0|mc:654590|mtp:S|qry_typ:P|lang:en|wc:2|cs:8892|v=4,Khandoliya Industries,https://www.indiamart.com/khandoliya-industries/?pos=31&kwd=carry cot&tags=||||8752.144|Price|product|||TS|rsf:gd-|-stype:attr=1|qr_nm:gd|res:RC3|com-cf:nl|ptrs:na|ktp:N0|mc:654590|mtp:S|qry_typ:P|lang:en|wc:2|cs:8892|v=4,False,Karol Bagh,New Delhi,"Ground Floor, Plot No.3, Block No.6, Western Extension Area, Karol Bagh, Karol Bagh, New Delhi - 110005, Dist.Delhi, Delhi",8047636474,
Stainless Steel Pink Plastic Baby Cribs,https://www.indiamart.com/proddetail/pink-plastic-baby-cribs-2854844905791.html?pos=32&kwd=carry cot&tags=||||8785.791|Price|product|||MDC|rsf:gd-|-stype:attr=1|qr_nm:gd|res:RC3|com-cf:nl|ptrs:na|ktp:N0|mc:654590|mtp:S|qry_typ:P|lang:en|wc:2|cs:8892|v=4,Nonie Berzer (A Brand of Arora Products),https://www.indiamart.com/nonieberzer/?pos=32&kwd=carry cot&tags=||||8785.791|Price|product|||MDC|rsf:gd-|-stype:attr=1|qr_nm:gd|res:RC3|com-cf:nl|ptrs:na|ktp:N0|mc:654590|mtp:S|qry_typ:P|lang:en|wc:2|cs:8892|v=4,False,,Ghaziabad,"C-67, Sector B-3, Tronica City, Ghaziabad - 201102, Dist.Ghaziabad, Uttar Pradesh",8044456346,
"Single Folding Metal Bed, Size: 6*3",https://www.indiamart.com/proddetail/single-folding-metal-bed-23158797588.html?pos=33&kwd=carry cot&tags=||||8211.142|Price|product|||TS|rsf:gd-|-stype:attr=1|qr_nm:gd|res:RC3|com-cf:nl|ptrs:na|ktp:N0|mc:654590|mtp:S|qry_typ:P|lang:en|wc:2|cs:8892|v=4,Om Woods,https://www.omwoods.in/?pos=33&kwd=carry cot&tags=||||8211.142|Price|product|||TS|rsf:gd-|-stype:attr=1|qr_nm:gd|res:RC3|com-cf:nl|ptrs:na|ktp:N0|mc:654590|mtp:S|qry_typ:P|lang:en|wc:2|cs:8892|v=4,False,Kandivali West,Mumbai,"Shop No. 12/13, Sai Dham Nagar, Opposite Telephone Exchange, Near Charkop Bus Depot, Kandivali West, Kandivali West, Mumbai - 400067, Dist.Mumbai, Maharashtra",8048971646,
Designer Furniture Stainless Steel Hotel Folding Bed,https://www.indiamart.com/proddetail/hotel-folding-bed-8184213162.html?pos=34&kwd=carry cot&tags=||||8211.142|Price|product|||TS|rsf:gd-|-stype:attr=1|qr_nm:gd|res:RC3|com-cf:nl|ptrs:na|ktp:N0|mc:654590|mtp:S|qry_typ:P|lang:en|wc:2|cs:8892|v=4,Designer Furniture,https://www.designerfurniture.co.in/?pos=34&kwd=carry cot&tags=||||8211.142|Price|product|||TS|rsf:gd-|-stype:attr=1|qr_nm:gd|res:RC3|com-cf:nl|ptrs:na|ktp:N0|mc:654590|mtp:S|qry_typ:P|lang:en|wc:2|cs:8892|v=4,False,Bangur Nagar,Mumbai,"No. 343/2742, Motilal Nagar, No. 2, Ideal Showroom Lane, Off Link Road, Bangur Nagar, Goregaon West, Bangur Nagar, Mumbai - 400090, Dist.Mumbai, Maharashtra",8046046746,
Black Iron Plywood Folding Bed,https://www.indiamart.com/proddetail/plywood-folding-bed-22399713673.html?pos=35&kwd=carry cot&tags=||||8752.144|Price|product|||TS|rsf:gd-|-stype:attr=1|qr_nm:gd|res:RC3|com-cf:nl|ptrs:na|ktp:N0|mc:654590|mtp:S|qry_typ:P|lang:en|wc:2|cs:8892|v=4,Shri Krishna Traders,https://www.indiamart.com/shrikrishnatraders-delhi/?pos=35&kwd=carry cot&tags=||||8752.144|Price|product|||TS|rsf:gd-|-stype:attr=1|qr_nm:gd|res:RC3|com-cf:nl|ptrs:na|ktp:N0|mc:654590|mtp:S|qry_typ:P|lang:en|wc:2|cs:8892|v=4,False,Najafgarh,New Delhi,"House No 8, Gali No-2, Maksudabad Extn., Najafgarh, Najafgarh, New Delhi - 110043, Dist.Delhi, Delhi",8048975783,
Moulded Iron Folding Bed,https://www.indiamart.com/proddetail/moulded-iron-folding-bed-19317960491.html?pos=36&kwd=carry cot&tags=||||8752.144|Price|product|||TS|rsf:gd-|-stype:attr=1|qr_nm:gd|res:RC3|com-cf:nl|ptrs:na|ktp:N0|mc:654590|mtp:S|qry_typ:P|lang:en|wc:2|cs:8892|v=4,Office Unit,https://www.kylinseating.com/?pos=36&kwd=carry cot&tags=||||8752.144|Price|product|||TS|rsf:gd-|-stype:attr=1|qr_nm:gd|res:RC3|com-cf:nl|ptrs:na|ktp:N0|mc:654590|mtp:S|qry_typ:P|lang:en|wc:2|cs:8892|v=4,False,Multani Dhanda,New Delhi,"No. 6971, Gali No. 13, Furniture Market, Multani Dhanda Paharganj, Multani Dhanda, New Delhi - 110055, Dist.Delhi, Delhi",8048984889,
"Nylon Multicolor Niwar Folding Bed, Size: 6'x3'x15''",https://www.indiamart.com/proddetail/niwar-folding-bed-22384325797.html?pos=37&kwd=carry cot&tags=||||8211.142|Price|product|||TS|rsf:gd-|-stype:attr=1|qr_nm:gd|res:RC3|com-cf:nl|ptrs:na|ktp:N0|mc:654590|mtp:S|qry_typ:P|lang:en|wc:2|cs:8892|v=4,National Trading Corporation,https://www.indiamart.com/national-tradingcorporation/?pos=37&kwd=carry cot&tags=||||8211.142|Price|product|||TS|rsf:gd-|-stype:attr=1|qr_nm:gd|res:RC3|com-cf:nl|ptrs:na|ktp:N0|mc:654590|mtp:S|qry_typ:P|lang:en|wc:2|cs:8892|v=4,False,Kandivali West,Mumbai,"H/831, Building No. 3, Govardhan Nagar, Near Raghuleela Mall Borsapada Road, Kandivali West, Kandivali West, Mumbai - 400067, Dist.Mumbai, Maharashtra",8048950166,
"Black Metal Folding Bed, Size: 3 * 6",https://www.indiamart.com/proddetail/folding-bed-21491736133.html?pos=38&kwd=carry cot&tags=||||8307.81|Price|product|||MDC|rsf:gd-|-stype:attr=1|qr_nm:gd|res:RC3|com-cf:nl|ptrs:na|ktp:N0|mc:654590|mtp:S|qry_typ:P|lang:en|wc:2|cs:8892|v=4,Vishal Enterprises,https://www.indiamart.com/vishalentps-pune/?pos=38&kwd=carry cot&tags=||||8307.81|Price|product|||MDC|rsf:gd-|-stype:attr=1|qr_nm:gd|res:RC3|com-cf:nl|ptrs:na|ktp:N0|mc:654590|mtp:S|qry_typ:P|lang:en|wc:2|cs:8892|v=4,False,Kharadi,Pune,"Survey No. 134/2, Pune Nagar Highway, Next To Chandan Marble Near India Oil Petrol Pump, Kharadi, Pune - 411014, Dist.Pune, Maharashtra",8048605291,
"Black Metal Folding Cots, Size: 3x6 Ft",https://www.indiamart.com/proddetail/metal-folding-cots-22408674573.html?pos=39&kwd=carry cot&tags=||||8559.269|Price|product|||TS|rsf:gd-|-stype:attr=1|qr_nm:gd|res:RC3|com-cf:nl|ptrs:na|ktp:N0|mc:654590|mtp:S|qry_typ:P|lang:en|wc:2|cs:8892|v=4,MSR Furniture,https://www.indiamart.com/msr-furniture/?pos=39&kwd=carry cot&tags=||||8559.269|Price|product|||TS|rsf:gd-|-stype:attr=1|qr_nm:gd|res:RC3|com-cf:nl|ptrs:na|ktp:N0|mc:654590|mtp:S|qry_typ:P|lang:en|wc:2|cs:8892|v=4,False,Swades Nagar,Indore,"Shop LG 4, 35, Sneh Nagar, Navrang Plaza Tower Chouraha,, Swades Nagar, Indore - 452001, Dist.Indore, Madhya Pradesh",8048606941,
folding iron bed with mattress,https://www.indiamart.com/proddetail/folding-iron-bed-with-mattress-2853213181962.html?pos=40&kwd=carry cot&tags=||||8752.144|Price|proxy|||TS|rsf:gd-|-stype:attr=1|qr_nm:gd|res:RC3|com-cf:nl|ptrs:na|ktp:N0|mc:654590|mtp:S|qry_typ:P|lang:en|wc:2|cs:8892|v=4,Mayur Steel Furniture,https://www.stylemayur.com/?pos=40&kwd=carry cot&tags=||||8752.144|Price|proxy|||TS|rsf:gd-|-stype:attr=1|qr_nm:gd|res:RC3|com-cf:nl|ptrs:na|ktp:N0|mc:654590|mtp:S|qry_typ:P|lang:en|wc:2|cs:8892|v=4,False,Multani Dhanda,New Delhi,"9525 Street No. 13 Multani Dhanda Paharganj since 1989, Multani Dhanda, New Delhi - 110055, Dist.Delhi, Delhi",8047635904,
Red Single Foldable Cot,https://www.indiamart.com/proddetail/red-single-foldable-cot-2853525115091.html?pos=41&kwd=carry cot&tags=||||8954.051|Price|product|||MDC|rsf:gd-|-stype:attr=1|qr_nm:gd|res:RC3|com-cf:nl|ptrs:na|ktp:N0|mc:654590|mtp:S|qry_typ:P|lang:en|wc:2|cs:8892|v=4,S.R.Furn,https://www.indiamart.com/sr-furn/?pos=41&kwd=carry cot&tags=||||8954.051|Price|product|||MDC|rsf:gd-|-stype:attr=1|qr_nm:gd|res:RC3|com-cf:nl|ptrs:na|ktp:N0|mc:654590|mtp:S|qry_typ:P|lang:en|wc:2|cs:8892|v=4,False,Perambur,Chennai,"Plot No.108, A Block, Thanikachalam Nagar, Perambur, Chennai - 600110, Dist.Chennai, Tamil Nadu",7949091271,
Blue Plastic Carry Cot,https://www.indiamart.com/proddetail/carry-cot-2849596702091.html?pos=42&kwd=carry cot&tags=CC||||8752.144|Price|product|||NA|rsf:gd-|-stype:attr=1|qr_nm:gd|res:RC3|com-cf:nl|ptrs:na|ktp:N0|mc:654590|mtp:S|qry_typ:P|lang:en|wc:2|cs:8892|v=4,Ashoka Industries,https://www.indiamart.com/ashoka-industries-new-delhi/?pos=42&kwd=carry cot&tags=CC||||8752.144|Price|product|||NA|rsf:gd-|-stype:attr=1|qr_nm:gd|res:RC3|com-cf:nl|ptrs:na|ktp:N0|mc:654590|mtp:S|qry_typ:P|lang:en|wc:2|cs:8892|v=4,False,Vishnu Garden,New Delhi,"PLOT NO H-46,GROUND FLOOR, KHASRA NO -74/19 LAXMI PARK,NEW DELHI Vishnu Garden,110018,New Delhi, Vishnu Garden, New Delhi - 110041, Dist.Delhi, Delhi",8062245074,874
Brown Plastic Carry cot,https://www.indiamart.com/proddetail/carry-cot-24852513255.html?pos=43&kwd=carry cot&tags=CC||||8752.144|Price|product|||NA|rsf:gd-|-stype:attr=1|qr_nm:gd|res:RC3|com-cf:nl|ptrs:na|ktp:N0|mc:654590|mtp:S|qry_typ:P|lang:en|wc:2|cs:8892|v=4,Jain Trendz,https://www.indiamart.com/jaintrendznewdelhi/?pos=43&kwd=carry cot&tags=CC||||8752.144|Price|product|||NA|rsf:gd-|-stype:attr=1|qr_nm:gd|res:RC3|com-cf:nl|ptrs:na|ktp:N0|mc:654590|mtp:S|qry_typ:P|lang:en|wc:2|cs:8892|v=4,False,near Pacific Mall,New Delhi,"4/66 Sahibabad Industrial area Site 4 Ghaziabad, near Pacific Mall, New Delhi - 110029, Dist.Delhi, Delhi",8048609979,
Nalisev Baby Bed Pillow Kids Carry Cot,https://www.indiamart.com/proddetail/kids-carry-cot-21112395897.html?pos=44&kwd=carry cot&tags=CC||||8663.873|Price|product|||NA|rsf:gd-|-stype:attr=1|qr_nm:gd|res:RC3|com-cf:nl|ptrs:na|ktp:N0|mc:654590|mtp:S|qry_typ:P|lang:en|wc:2|cs:8892|v=4,Navelis,https://www.indiamart.com/navelis/?pos=44&kwd=carry cot&tags=CC||||8663.873|Price|product|||NA|rsf:gd-|-stype:attr=1|qr_nm:gd|res:RC3|com-cf:nl|ptrs:na|ktp:N0|mc:654590|mtp:S|qry_typ:P|lang:en|wc:2|cs:8892|v=4,False,Domlur,Bengaluru,"No. 118, Block C, Natasha Golf View Apartments, 1st Floor, 3rd Cross, Domlur Layout, Domlur, Bengaluru - 560071, Dist.Bengaluru, Karnataka",8048372771,733
Mee Mee Cotton Baby Carry Cot,https://www.indiamart.com/proddetail/baby-carry-cot-21926838491.html?pos=45&kwd=carry cot&tags=CC||||8601.347|Price|product|||NA|rsf:gd-|-stype:attr=1|qr_nm:gd|res:RC3|com-cf:nl|ptrs:na|ktp:N0|mc:654590|mtp:S|qry_typ:P|lang:en|wc:2|cs:8892|v=4,Reliable Enterprises,https://www.indiamart.com/reliable-entp-jaipur/?pos=45&kwd=carry cot&tags=CC||||8601.347|Price|product|||NA|rsf:gd-|-stype:attr=1|qr_nm:gd|res:RC3|com-cf:nl|ptrs:na|ktp:N0|mc:654590|mtp:S|qry_typ:P|lang:en|wc:2|cs:8892|v=4,False,KISHANPOLE BAZAR,Jaipur,"Shop No 6,7,Gulab Marg, Prem Nagar,Khatipura Road,Jhotwara 677,Shop No. 21, Ground Floor,C. K. Tower,302016,Jaipur, KISHANPOLE BAZAR, Jaipur - 302012, Dist.Jaipur, Rajasthan",8043811792,
Red 3-12 Months Baby Carry Cot,https://www.indiamart.com/proddetail/baby-carry-cot-20309186291.html?pos=46&kwd=carry cot&tags=CC||||8559.269||product|||NA|rsf:gd-|-stype:attr=1|qr_nm:gd|res:RC3|com-cf:nl|ptrs:na|ktp:N0|mc:654590|mtp:S|qry_typ:P|lang:en|wc:2|cs:8892|v=4,Jainam Toys & Gift Center,https://www.indiamart.com/jainamtoysgiftcenter/?pos=46&kwd=carry cot&tags=CC||||8559.269||product|||NA|rsf:gd-|-stype:attr=1|qr_nm:gd|res:RC3|com-cf:nl|ptrs:na|ktp:N0|mc:654590|mtp:S|qry_typ:P|lang:en|wc:2|cs:8892|v=4,False,Indore GPO,Indore,"36, Sikh Mohalla, Main Road, Aditya Villa Basement, Indore GPO, Indore - 452001, Dist.Indore, Madhya Pradesh",8043833004,
Foam Baby Carry Cot,https://www.indiamart.com/proddetail/baby-carry-cot-21362612730.html?pos=47&kwd=carry cot&tags=CC||||8307.81|Price|product|||NA|rsf:gd-|-stype:attr=1|qr_nm:gd|res:RC3|com-cf:nl|ptrs:na|ktp:N0|mc:654590|mtp:S|qry_typ:P|lang:en|wc:2|cs:8892|v=4,Manoj Trading Company,https://www.indiamart.com/manoj-trading-company-pune/?pos=47&kwd=carry cot&tags=CC||||8307.81|Price|product|||NA|rsf:gd-|-stype:attr=1|qr_nm:gd|res:RC3|com-cf:nl|ptrs:na|ktp:N0|mc:654590|mtp:S|qry_typ:P|lang:en|wc:2|cs:8892|v=4,False,,Pune,"Dattawadi Akurdi, Pune - 411035, Dist.Pune, Maharashtra",8048372686,187
Red - Blue Baby Carry Cot,https://www.indiamart.com/proddetail/baby-carry-cot-17869442012.html?pos=48&kwd=carry cot&tags=CC||||8281.036||product|||NA|rsf:gd-|-stype:attr=1|qr_nm:gd|res:RC3|com-cf:nl|ptrs:na|ktp:N0|mc:654590|mtp:S|qry_typ:P|lang:en|wc:2|cs:8892|v=4,Dyer Group International,https://www.indiamart.com/dyer-group/?pos=48&kwd=carry cot&tags=CC||||8281.036||product|||NA|rsf:gd-|-stype:attr=1|qr_nm:gd|res:RC3|com-cf:nl|ptrs:na|ktp:N0|mc:654590|mtp:S|qry_typ:P|lang:en|wc:2|cs:8892|v=4,False,Corner Of Madan Zampa Road,Vadodara,"Dyer House, Behind Nyay Mandir,, Corner Of Madan Zampa Road, Vadodara - 390001, Dist.Vadodara, Gujarat",8048202974,
Light Green (Base) Panda Carry Cot,https://www.indiamart.com/proddetail/panda-carry-cot-2851927668588.html?pos=49&kwd=carry cot&tags=CC||||8281.036|Price|product|||NA|rsf:gd-|-stype:attr=1|qr_nm:gd|res:RC3|com-cf:nl|ptrs:na|ktp:N0|mc:654590|mtp:S|qry_typ:P|lang:en|wc:2|cs:8892|v=4,Agrawal Cycles,https://www.indiamart.com/agrawalcycles/?pos=49&kwd=carry cot&tags=CC||||8281.036|Price|product|||NA|rsf:gd-|-stype:attr=1|qr_nm:gd|res:RC3|com-cf:nl|ptrs:na|ktp:N0|mc:654590|mtp:S|qry_typ:P|lang:en|wc:2|cs:8892|v=4,False,,Vadodara,"0, Hathi Ploe, Rajmahel Road, Vadodara - 390001, Dist.Vadodara, Gujarat",7942647539,
Blue Kids Carry Cot,https://www.indiamart.com/proddetail/kids-carry-cot-25880790455.html?pos=50&kwd=carry cot&tags=CC||||8595.936||product|||NA|rsf:gd-|-stype:attr=1|qr_nm:gd|res:RC3|com-cf:nl|ptrs:na|ktp:N0|mc:654590|mtp:S|qry_typ:P|lang:en|wc:2|cs:8892|v=4,Child World,https://www.indiamart.com/ms-child-world/?pos=50&kwd=carry cot&tags=CC||||8595.936||product|||NA|rsf:gd-|-stype:attr=1|qr_nm:gd|res:RC3|com-cf:nl|ptrs:na|ktp:N0|mc:654590|mtp:S|qry_typ:P|lang:en|wc:2|cs:8892|v=4,False,,Jammu,"Sundar Singh Road, Raghunath Bazar, Jammu, J&K, Jammu - 180001, Dist.Jammu, Jammu & Kashmir",8047806501,
Carry Cot (Rocking Base),https://www.indiamart.com/proddetail/carry-cot-rocking-base-3622052533.html?pos=51&kwd=carry cot&tags=CC||||8954.051||product|||NA|rsf:gd-|-stype:attr=1|qr_nm:gd|res:RC3|com-cf:nl|ptrs:na|ktp:N0|mc:654590|mtp:S|qry_typ:P|lang:en|wc:2|cs:8892|v=4,Kids World,https://www.indiamart.com/kids-world-chennai/?pos=51&kwd=carry cot&tags=CC||||8954.051||product|||NA|rsf:gd-|-stype:attr=1|qr_nm:gd|res:RC3|com-cf:nl|ptrs:na|ktp:N0|mc:654590|mtp:S|qry_typ:P|lang:en|wc:2|cs:8892|v=4,False,Choolai,Chennai,"Plot No.8, Nehru Timber Market, New No.41,, Old No.14,1st Floor, Sattanna Naicken Street, Choolai, Choolai, Chennai - 600112, Dist.Chennai, Tamil Nadu",8047793260,
Kids Cotton Carry Cot,https://www.indiamart.com/proddetail/kids-cotton-carry-cot-2852168153673.html?pos=52&kwd=carry cot&tags=CC||||8786.56|Price|product|||NA|rsf:gd-|-stype:attr=1|qr_nm:gd|res:RC3|com-cf:nl|ptrs:na|ktp:N0|mc:654590|mtp:S|qry_typ:P|lang:en|wc:2|cs:8892|v=4,New Ayush Plastics,https://www.indiamart.com/newayushplastics-hyderabad/?pos=52&kwd=carry cot&tags=CC||||8786.56|Price|product|||NA|rsf:gd-|-stype:attr=1|qr_nm:gd|res:RC3|com-cf:nl|ptrs:na|ktp:N0|mc:654590|mtp:S|qry_typ:P|lang:en|wc:2|cs:8892|v=4,False,Afzal Gunj,Hyderabad,"15-8-451/1 And 2, Balaji Complex, Feelkhana Begum Bazar, Afzal Gunj, Hyderabad - 500012, Dist.Hyderabad, Telangana",8043868451,
Blue Plastic Baby Carry cot 11 in 1,https://www.indiamart.com/proddetail/baby-carry-cot-11-in-1-25723759933.html?pos=53&kwd=carry cot&tags=CC||||8752.144|Price|product|||NA|rsf:gd-|-stype:attr=1|qr_nm:gd|res:RC3|com-cf:nl|ptrs:na|ktp:N0|mc:654590|mtp:S|qry_typ:P|lang:en|wc:2|cs:8892|v=4,Jai Guruji Tradind Co.,https://www.indiamart.com/jai-guruji-tradind-co/?pos=53&kwd=carry cot&tags=CC||||8752.144|Price|product|||NA|rsf:gd-|-stype:attr=1|qr_nm:gd|res:RC3|com-cf:nl|ptrs:na|ktp:N0|mc:654590|mtp:S|qry_typ:P|lang:en|wc:2|cs:8892|v=4,False,,New Delhi,"B 1603 Shastri Nagar Shastri Nagar, New Delhi - 110052, Dist.Delhi, Delhi",8069033847,867
3 in 1 Baby Carry Cot,https://www.indiamart.com/proddetail/3-in-1-baby-carry-cot-14458061412.html?pos=54&kwd=carry cot&tags=CC||||8500.97|Price|product|||NA|rsf:gd-|-stype:attr=1|qr_nm:gd|res:RC3|com-cf:nl|ptrs:na|ktp:N0|mc:654590|mtp:S|qry_typ:P|lang:en|wc:2|cs:8892|v=4,BGC Enterprises,https://www.indiamart.com/bgc-enterprises/?pos=54&kwd=carry cot&tags=CC||||8500.97|Price|product|||NA|rsf:gd-|-stype:attr=1|qr_nm:gd|res:RC3|com-cf:nl|ptrs:na|ktp:N0|mc:654590|mtp:S|qry_typ:P|lang:en|wc:2|cs:8892|v=4,False,Ikkandawarier Road,Thrissur,",8/308/1,IKKANDA WARRIER ROAD,,THRISSUR,,Thrissur,Kerala, Ikkandawarier Road, Thrissur - 680005, Dist.Thrissur, Kerala",8047694379,
Red Soft Fabric 10 In 1 Carry Cot Rider,https://www.indiamart.com/proddetail/10-in-1-carry-cot-rider-23138804333.html?pos=55&kwd=carry cot&tags=CC||||8823.154|Price|product|||NA|rsf:gd-|-stype:attr=1|qr_nm:gd|res:RC3|com-cf:nl|ptrs:na|ktp:N0|mc:654590|mtp:S|qry_typ:P|lang:en|wc:2|cs:8892|v=4,RDC Brothers,https://www.indiamart.com/rdc-brothers/?pos=55&kwd=carry cot&tags=CC||||8823.154|Price|product|||NA|rsf:gd-|-stype:attr=1|qr_nm:gd|res:RC3|com-cf:nl|ptrs:na|ktp:N0|mc:654590|mtp:S|qry_typ:P|lang:en|wc:2|cs:8892|v=4,False,Rajpur Chungi,Agra,"Near Rajeshwar mandir, Shamashabad road beside upadhyay tent house, Rajpur Chungi, Agra - 282001, Dist.Agra, Uttar Pradesh",8046067443,
1St Step Carry Cot With Back Storage ST-1051 (Cream Color),https://www.indiamart.com/proddetail/1st-step-carry-cot-with-back-storage-st-1051-cream-color-19226912712.html?pos=56&kwd=carry cot&tags=CC||||8954.051|Price|product|||NA|rsf:gd-|-stype:attr=1|qr_nm:gd|res:RC3|com-cf:nl|ptrs:na|ktp:N0|mc:654590|mtp:S|qry_typ:P|lang:en|wc:2|cs:8892|v=4,Mandot Impex,https://www.indiamart.com/mandotimpexchennai/?pos=56&kwd=carry cot&tags=CC||||8954.051|Price|product|||NA|rsf:gd-|-stype:attr=1|qr_nm:gd|res:RC3|com-cf:nl|ptrs:na|ktp:N0|mc:654590|mtp:S|qry_typ:P|lang:en|wc:2|cs:8892|v=4,False,Choolai,Chennai,"109, Sydenhams Road, 1st Floor, Choolai, Chennai - 600003, Dist.Chennai, Tamil Nadu",8043809214,
"Aluminum Printed Portable Smart Crib Cot, 1-12 Month",https://www.indiamart.com/proddetail/portable-smart-crib-cot-23486979648.html?pos=57&kwd=carry cot&tags=CC||||8741.812|Price|product|||NA|rsf:gd-|-stype:attr=1|qr_nm:gd|res:RC3|com-cf:nl|ptrs:na|ktp:N0|mc:654590|mtp:S|qry_typ:P|lang:en|wc:2|cs:8892|v=4,Keta Anjani Impex,https://www.indiamart.com/ketaanjaniimpex/?pos=57&kwd=carry cot&tags=CC||||8741.812|Price|product|||NA|rsf:gd-|-stype:attr=1|qr_nm:gd|res:RC3|com-cf:nl|ptrs:na|ktp:N0|mc:654590|mtp:S|qry_typ:P|lang:en|wc:2|cs:8892|v=4,False,Sector 90,Gurugram,"SF-221, 2nd Floor, IT Complex JMD Megapolis, Village Tikri, Sohna Road, Sector 90, Gurugram - 122001, Dist.Gurgaon, Haryana",8046063344,
"Fabric And Steel Blue Carrycot , Bouncer",https://www.indiamart.com/proddetail/carrycot-bouncer-24666470191.html?pos=58&kwd=carry cot&tags=CC||||8752.144|Price|product|||NA|rsf:gd-|-stype:attr=1|qr_nm:gd|res:RC3|com-cf:nl|ptrs:na|ktp:N0|mc:654590|mtp:S|qry_typ:P|lang:en|wc:2|cs:8892|v=4,Sanskar Steel Industries,https://www.indiamart.com/sanskarsteelindustries-new-delhi/?pos=58&kwd=carry cot&tags=CC||||8752.144|Price|product|||NA|rsf:gd-|-stype:attr=1|qr_nm:gd|res:RC3|com-cf:nl|ptrs:na|ktp:N0|mc:654590|mtp:S|qry_typ:P|lang:en|wc:2|cs:8892|v=4,False,Sultanpur Dabas,New Delhi,"Plot No. 4a, Kh 30/8, Ground Floor, Matiala Village, Uttam Nagar, West Delhi, Sultanpur Dabas, New Delhi - 110059, Dist.Delhi, Delhi",7942561721,
R-TEK Folding Rollway Bed,https://www.indiamart.com/proddetail/r-tek-folding-rollway-bed-3338990488.html?pos=59&kwd=carry cot&tags=||||8228.275|Price|product|||TS|rsf:gd-|-stype:attr=1|qr_nm:gd|res:RC3|com-cf:nl|ptrs:na|ktp:N0|mc:654590|mtp:S|qry_typ:P|lang:en|wc:2|cs:8892|v=4,R-tek Air Flow,https://www.indiamart.com/r-tekairflow/?pos=59&kwd=carry cot&tags=||||8228.275|Price|product|||TS|rsf:gd-|-stype:attr=1|qr_nm:gd|res:RC3|com-cf:nl|ptrs:na|ktp:N0|mc:654590|mtp:S|qry_typ:P|lang:en|wc:2|cs:8892|v=4,False,Kazipur Dariyapur,Ahmedabad,"Paras Bhuvan, Nr Tutorial High school, Behind Master Petrol Pump, Shahpur Gate, Kazipur Dariyapur, Ahmedabad - 380004, Dist.Ahmedabad, Gujarat",8046050140,
"Iron Single Plywood Folding Bed, With Storage",https://www.indiamart.com/proddetail/plywood-folding-bed-22369559512.html?pos=60&kwd=carry cot&tags=||||9839.57|Price|product|||TS|rsf:gd-|-stype:attr=1|qr_nm:gd|res:RC3|com-cf:nl|ptrs:na|ktp:N0|mc:654590|mtp:S|qry_typ:P|lang:en|wc:2|cs:8892|v=4,Charu Furniture,https://www.indiamart.com/charufurniture/?pos=60&kwd=carry cot&tags=||||9839.57|Price|product|||TS|rsf:gd-|-stype:attr=1|qr_nm:gd|res:RC3|com-cf:nl|ptrs:na|ktp:N0|mc:654590|mtp:S|qry_typ:P|lang:en|wc:2|cs:8892|v=4,False,Patuli,Kolkata,"F/247, B. P Township, Patuli, Patuli, Kolkata - 700094, Dist.Kolkata, West Bengal",8046037950,
"Black Iron Folding Bed, Size: 6*3",https://www.indiamart.com/proddetail/iron-folding-bed-22366969033.html?pos=61&kwd=carry cot&tags=||||9839.57|Price|product|||TS|rsf:gd-|-stype:attr=1|qr_nm:gd|res:RC3|com-cf:nl|ptrs:na|ktp:N0|mc:654590|mtp:S|qry_typ:P|lang:en|wc:2|cs:8892|v=4,Big Furniture,https://www.indiamart.com/bigfurniture/?pos=61&kwd=carry cot&tags=||||9839.57|Price|product|||TS|rsf:gd-|-stype:attr=1|qr_nm:gd|res:RC3|com-cf:nl|ptrs:na|ktp:N0|mc:654590|mtp:S|qry_typ:P|lang:en|wc:2|cs:8892|v=4,False,Topsia,Kolkata,"8/1B, Topsia Road, 4, Topsia, Kolkata - 700039, Dist.Kolkata, West Bengal",8048964243,
Blue Metal Triple Folding Bed,https://www.indiamart.com/proddetail/metal-triple-folding-bed-22406848291.html?pos=62&kwd=carry cot&tags=||||8228.275||product|||TS|rsf:gd-|-stype:attr=1|qr_nm:gd|res:RC3|com-cf:nl|ptrs:na|ktp:N0|mc:654590|mtp:S|qry_typ:P|lang:en|wc:2|cs:8892|v=4,Pramukh Plastic,https://www.pramukhplastic.com/?pos=62&kwd=carry cot&tags=||||8228.275||product|||TS|rsf:gd-|-stype:attr=1|qr_nm:gd|res:RC3|com-cf:nl|ptrs:na|ktp:N0|mc:654590|mtp:S|qry_typ:P|lang:en|wc:2|cs:8892|v=4,False,Bapunagar,Ahmedabad,"No. 4, Satadhar Chamber, Shreeji Vidhayalay Corner Opposite Chandraprasad Desai Hall, Bapunagar, Ahmedabad - 380024, Dist.Ahmedabad, Gujarat",8046050360,
"stainless steel foldable cot bed, Size: 26""x72""",https://www.indiamart.com/proddetail/stainless-steel-foldable-cot-bed-23213512112.html?pos=63&kwd=carry cot&tags=||||8228.275|Price|product|||TS|rsf:gd-|-stype:attr=1|qr_nm:gd|res:RC3|com-cf:nl|ptrs:na|ktp:N0|mc:654590|mtp:S|qry_typ:P|lang:en|wc:2|cs:8892|v=4,Chamunda Steel & Furniture,https://www.chamundasteelandfurniture.com/?pos=63&kwd=carry cot&tags=||||8228.275|Price|product|||TS|rsf:gd-|-stype:attr=1|qr_nm:gd|res:RC3|com-cf:nl|ptrs:na|ktp:N0|mc:654590|mtp:S|qry_typ:P|lang:en|wc:2|cs:8892|v=4,False,,Ahmedabad,"5, Somnath Society 3, Chhotalal Ni Chawl, Opp.DR.Janak Desai Hospital, Odhav, Ahmedabad - 382415, Dist.Ahmedabad, Gujarat",8047645831,
Elahi Wood Flower cot,https://www.indiamart.com/proddetail/flower-cot-20181022730.html?pos=64&kwd=carry cot&tags=||||8954.051|Price|product|||TS|rsf:gd-|-stype:attr=1|qr_nm:gd|res:RC3|com-cf:nl|ptrs:na|ktp:N0|mc:654590|mtp:S|qry_typ:P|lang:en|wc:2|cs:8892|v=4,Elahi Furniture,https://www.elahifurniture.in/?pos=64&kwd=carry cot&tags=||||8954.051|Price|product|||TS|rsf:gd-|-stype:attr=1|qr_nm:gd|res:RC3|com-cf:nl|ptrs:na|ktp:N0|mc:654590|mtp:S|qry_typ:P|lang:en|wc:2|cs:8892|v=4,False,Kolathur City Babu Nagar,Chennai,"Plot No. 146/337, Paper Mills Road, Kolathur City Babu Nagar, Chennai - 600082, Dist.Chennai, Tamil Nadu",8047639469,
Mild Steel Folding Cot Recliner,https://www.indiamart.com/proddetail/mild-steel-folding-cot-recliner-2849324048933.html?pos=65&kwd=carry cot&tags=||||8954.051|Price|product|||TS|rsf:gd-|-stype:attr=1|qr_nm:gd|res:RC3|com-cf:nl|ptrs:na|ktp:N0|mc:654590|mtp:S|qry_typ:P|lang:en|wc:2|cs:8892|v=4,Jasmine Furn,https://www.spacesavingfurniture.in/?pos=65&kwd=carry cot&tags=||||8954.051|Price|product|||TS|rsf:gd-|-stype:attr=1|qr_nm:gd|res:RC3|com-cf:nl|ptrs:na|ktp:N0|mc:654590|mtp:S|qry_typ:P|lang:en|wc:2|cs:8892|v=4,False,ANNA SALAI CHENNAI-02,Chennai,"94A, Ground Floor, 3rd Main Road, Thiruvallur, ANNA SALAI CHENNAI-02, Chennai - 600058, Dist.Chennai, Tamil Nadu",8047530031,
"Amaze Folding Beach Bed - Green, Size: 189 X 58 X 30 Cm",https://www.indiamart.com/proddetail/folding-beach-bed-green-4800944548.html?pos=66&kwd=carry cot&tags=||||8230.883|Price|product|||TS|rsf:gd-|-stype:attr=1|qr_nm:gd|res:RC3|com-cf:nl|ptrs:na|ktp:N0|mc:654590|mtp:S|qry_typ:P|lang:en|wc:2|cs:8892|v=4,Young India Impex,https://www.youngindiaimpex.in/?pos=66&kwd=carry cot&tags=||||8230.883|Price|product|||TS|rsf:gd-|-stype:attr=1|qr_nm:gd|res:RC3|com-cf:nl|ptrs:na|ktp:N0|mc:654590|mtp:S|qry_typ:P|lang:en|wc:2|cs:8892|v=4,False,L.P.Savani,Surat,"Anekant, B - 15, Surbhi Society, Near L. P. Savani School Honey Park Road, Adajan, L.P.Savani, Surat - 395005, Dist.Surat, Gujarat",8047631985,
"Plywood Ms Folded Bed, Size: 6x3",https://www.indiamart.com/proddetail/ms-folded-bed-23013810562.html?pos=67&kwd=carry cot&tags=||||9578.697|Price|product|||TS|rsf:gd-|-stype:attr=1|qr_nm:gd|res:RC3|com-cf:nl|ptrs:na|ktp:N0|mc:654590|mtp:S|qry_typ:P|lang:en|wc:2|cs:8892|v=4,Krushna Steel Enterprises,https://www.krushnasteelenterprises.com/?pos=67&kwd=carry cot&tags=||||9578.697|Price|product|||TS|rsf:gd-|-stype:attr=1|qr_nm:gd|res:RC3|com-cf:nl|ptrs:na|ktp:N0|mc:654590|mtp:S|qry_typ:P|lang:en|wc:2|cs:8892|v=4,False,Nayabazar,Cuttack,"Plot No-2152/2820,Khata No-614/720,mouja-nuapada, At-nuapada, Near Jagulai Temple, Po-Nayabazar, PS-Madhupatna,, Nayabazar, Cuttack - 753004, Dist.Cuttack, Odisha",8047634406,
Swimming Pool Furniture,https://www.indiamart.com/proddetail/swimming-pool-furniture-2854523176830.html?pos=68&kwd=carry cot&tags=||||8752.144|Price|product|||TS|rsf:gd-|-stype:attr=1|qr_nm:gd|res:RC3|com-cf:nl|ptrs:na|ktp:N0|mc:654590|mtp:S|qry_typ:P|lang:en|wc:2|cs:8892|v=4,Eagle Enterprises,https://www.flytop.in/?pos=68&kwd=carry cot&tags=||||8752.144|Price|product|||TS|rsf:gd-|-stype:attr=1|qr_nm:gd|res:RC3|com-cf:nl|ptrs:na|ktp:N0|mc:654590|mtp:S|qry_typ:P|lang:en|wc:2|cs:8892|v=4,False,New Manglapuri,New Delhi,"416, Sai Complex, Chattarpur Mandi Road, New Manglapuri, New Delhi - 110030, Dist.Delhi, Delhi",8046039599,
"Black Powder Coated Metal Folding Beds, Single, Size: 3x6 Ft",https://www.indiamart.com/proddetail/metal-folding-beds-22401827773.html?pos=69&kwd=carry cot&tags=||||8752.144|Price|product|||TS|rsf:gd-|-stype:attr=1|qr_nm:gd|res:RC3|com-cf:nl|ptrs:na|ktp:N0|mc:654590|mtp:S|qry_typ:P|lang:en|wc:2|cs:8892|v=4,Lisa India Enterprises,https://www.lisaindia.co.in/?pos=69&kwd=carry cot&tags=||||8752.144|Price|product|||TS|rsf:gd-|-stype:attr=1|qr_nm:gd|res:RC3|com-cf:nl|ptrs:na|ktp:N0|mc:654590|mtp:S|qry_typ:P|lang:en|wc:2|cs:8892|v=4,False,Badarpur,New Delhi,"Ground Floor, 92, Dda Flats,Badarpur, No.2, Badarpur, Badarpur, New Delhi - 110044, Dist.Delhi, Delhi",8047643914,
Folding Bed 4 Fold Green,https://www.indiamart.com/proddetail/folding-bed-4-fold-green-2850510124630.html?pos=70&kwd=carry cot&tags=||||8741.987|Price|product|||TS|rsf:gd-|-stype:attr=1|qr_nm:gd|res:RC3|com-cf:nl|ptrs:na|ktp:N0|mc:654590|mtp:S|qry_typ:P|lang:en|wc:2|cs:8892|v=4,Labpro International,https://www.indiamart.com/labpro-international/?pos=70&kwd=carry cot&tags=||||8741.987|Price|product|||TS|rsf:gd-|-stype:attr=1|qr_nm:gd|res:RC3|com-cf:nl|ptrs:na|ktp:N0|mc:654590|mtp:S|qry_typ:P|lang:en|wc:2|cs:8892|v=4,False,Nishat Bagh,Ambala,"48 A, Kunj Vihar, Behind B.D Flour Mill, Ambala Cantt, Nishat Bagh, Ambala - 133001, Dist.Ambala, Haryana",,
"Aluminium Black Acupressure Massage Bed- Metal (Triple Fold), 10 Kg",https://www.indiamart.com/proddetail/acupressure-massage-bed-metal-triple-fold-24635627148.html?pos=71&kwd=carry cot&tags=||||8752.144|Price|product|||TS|rsf:gd-|-stype:attr=1|qr_nm:gd|res:RC3|com-cf:nl|ptrs:na|ktp:N0|mc:654590|mtp:S|qry_typ:P|lang:en|wc:2|cs:8892|v=4,Khandoliya Industries,https://www.indiamart.com/khandoliya-industries/?pos=71&kwd=carry cot&tags=||||8752.144|Price|product|||TS|rsf:gd-|-stype:attr=1|qr_nm:gd|res:RC3|com-cf:nl|ptrs:na|ktp:N0|mc:654590|mtp:S|qry_typ:P|lang:en|wc:2|cs:8892|v=4,False,Karol Bagh,New Delhi,"Ground Floor, Plot No.3, Block No.6, Western Extension Area, Karol Bagh, Karol Bagh, New Delhi - 110005, Dist.Delhi, Delhi",8047636474,
"Powder Coated Iron Folding Bed, Single, Size: 6*3",https://www.indiamart.com/proddetail/iron-folding-bed-22401985855.html?pos=72&kwd=carry cot&tags=||||8663.873|Price|product|||TS|rsf:gd-|-stype:attr=1|qr_nm:gd|res:RC3|com-cf:nl|ptrs:na|ktp:N0|mc:654590|mtp:S|qry_typ:P|lang:en|wc:2|cs:8892|v=4,Ashithesh Enterprises,https://www.ashitheshseatingsystems.com/?pos=72&kwd=carry cot&tags=||||8663.873|Price|product|||TS|rsf:gd-|-stype:attr=1|qr_nm:gd|res:RC3|com-cf:nl|ptrs:na|ktp:N0|mc:654590|mtp:S|qry_typ:P|lang:en|wc:2|cs:8892|v=4,False,Peenya,Bengaluru,"Ashithesh Enterprises, No. 63/8, 2nd Cross Maruthi Layout, 2nd Phase, Peenya Industrial Area, Peenya, Bengaluru - 560058, Dist.Bengaluru, Karnataka",8047636182,
"70""x30""x17.7"" Brown Molded Folding Bed",https://www.indiamart.com/proddetail/molded-folding-bed-19469698373.html?pos=73&kwd=carry cot&tags=||||8752.144|Price|product|||TS|rsf:gd-|-stype:attr=1|qr_nm:gd|res:RC3|com-cf:nl|ptrs:na|ktp:N0|mc:654590|mtp:S|qry_typ:P|lang:en|wc:2|cs:8892|v=4,Crystal Furniture,https://www.indiamart.com/crystalfurniture-delhi/?pos=73&kwd=carry cot&tags=||||8752.144|Price|product|||TS|rsf:gd-|-stype:attr=1|qr_nm:gd|res:RC3|com-cf:nl|ptrs:na|ktp:N0|mc:654590|mtp:S|qry_typ:P|lang:en|wc:2|cs:8892|v=4,False,Multani Dhanda,New Delhi,"No. 10394/1, Street No. 13, Furniture Block, Multani Dhanda, Multani Dhanda, New Delhi - 110055, Dist.Delhi, Delhi",8048958754,
Cotton Children Bed/ Cot,https://www.indiamart.com/proddetail/children-bed-cot-2851265003391.html?pos=74&kwd=carry cot&tags=||||8663.873|Price|proxy|||TS|rsf:gd-|-stype:attr=1|qr_nm:gd|res:RC3|com-cf:nl|ptrs:na|ktp:N0|mc:654590|mtp:S|qry_typ:P|lang:en|wc:2|cs:8892|v=4,Quality Fiber And Plastic Products,https://www.qualityfiberproducts.com/?pos=74&kwd=carry cot&tags=||||8663.873|Price|proxy|||TS|rsf:gd-|-stype:attr=1|qr_nm:gd|res:RC3|com-cf:nl|ptrs:na|ktp:N0|mc:654590|mtp:S|qry_typ:P|lang:en|wc:2|cs:8892|v=4,False,Vidyamanya Nagar,Bengaluru,"#123 Bhayraveshwara Industrial Estate, Vidyamanya Nagar, Bengaluru - 560091, Dist.Bengaluru, Karnataka",8048604534,
"Aluminium (Frame) Grey Portable Folding Bed, Size: 75 (l) X 28 (w) X 17 (h) Inch",https://www.indiamart.com/proddetail/portable-folding-bed-21221371533.html?pos=75&kwd=carry cot&tags=||||8488.448|Price|product|||MDC|rsf:gd-|-stype:attr=1|qr_nm:gd|res:RC3|com-cf:nl|ptrs:na|ktp:N0|mc:654590|mtp:S|qry_typ:P|lang:en|wc:2|cs:8892|v=4,INDFURN,https://www.indiamart.com/indfurn/?pos=75&kwd=carry cot&tags=||||8488.448|Price|product|||MDC|rsf:gd-|-stype:attr=1|qr_nm:gd|res:RC3|com-cf:nl|ptrs:na|ktp:N0|mc:654590|mtp:S|qry_typ:P|lang:en|wc:2|cs:8892|v=4,False,Pattarkulam,Malappuram,"16/1038 R-V, JSS Shopping Mall, Pattarkulam, Malappuram - 676123, Dist.Malappuram, Kerala",8048974122,
Wood foam foldable bed,https://www.indiamart.com/proddetail/wood-foam-foldable-bed-2854077280733.html?pos=76&kwd=carry cot&tags=||||8663.873|Price|product|||MDC|rsf:gd-|-stype:attr=1|qr_nm:gd|res:RC3|com-cf:nl|ptrs:na|ktp:N0|mc:654590|mtp:S|qry_typ:P|lang:en|wc:2|cs:8892|v=4,Jai Maa Durga Handloom House,https://www.indiamart.com/jaimaadurga-handloomhouse/?pos=76&kwd=carry cot&tags=||||8663.873|Price|product|||MDC|rsf:gd-|-stype:attr=1|qr_nm:gd|res:RC3|com-cf:nl|ptrs:na|ktp:N0|mc:654590|mtp:S|qry_typ:P|lang:en|wc:2|cs:8892|v=4,False,Maruthi Nagar Madivala,Bengaluru,"Ground Floor, 6/14, 13th Cross Road, Venkateshwara Layout, 20th Main, BTM Layout Stage 1, Maruthi Nagar Madivala, Bengaluru - 560068, Dist.Bengaluru, Karnataka",8044563818,
"Carry Cot Cum Car Ceat, Newly Born",https://www.indiamart.com/proddetail/carry-cot-cum-car-seat-22042599933.html?pos=77&kwd=carry cot&tags=CC||||8661.854|Price|product|||NA|rsf:gd-|-stype:attr=1|qr_nm:gd|res:RC3|com-cf:nl|ptrs:na|ktp:N0|mc:654590|mtp:S|qry_typ:P|lang:en|wc:2|cs:8892|v=4,New Payal Gift House,https://www.indiamart.com/new-payal-gift-house/?pos=77&kwd=carry cot&tags=CC||||8661.854|Price|product|||NA|rsf:gd-|-stype:attr=1|qr_nm:gd|res:RC3|com-cf:nl|ptrs:na|ktp:N0|mc:654590|mtp:S|qry_typ:P|lang:en|wc:2|cs:8892|v=4,False,,Ludhiana,"KHALSA NATIONAL SCHOOL MKT,,,SHAHPUR ROAD,LUDHIAN 132-AB, Shahpur Road,141008,Ludhiana, Ludhiana - 141005, Dist.Ludhiana, Punjab",8048264926,
Multicolor Offspring Baby Carry Cot Cum Rocker,https://www.indiamart.com/proddetail/offspring-baby-carry-cot-cum-rocker-20147405255.html?pos=78&kwd=carry cot&tags=CC||||8211.142||product|||NA|rsf:gd-|-stype:attr=1|qr_nm:gd|res:RC3|com-cf:nl|ptrs:na|ktp:N0|mc:654590|mtp:S|qry_typ:P|lang:en|wc:2|cs:8892|v=4,Offspring,https://www.indiamart.com/offspring/?pos=78&kwd=carry cot&tags=CC||||8211.142||product|||NA|rsf:gd-|-stype:attr=1|qr_nm:gd|res:RC3|com-cf:nl|ptrs:na|ktp:N0|mc:654590|mtp:S|qry_typ:P|lang:en|wc:2|cs:8892|v=4,False,Ghatkopar West,Mumbai,"No. 316, Subhash Nagar, Dutt Nagar J. M. Mandir Road, Asalpha, Ghatkopar West, Ghatkopar West, Mumbai - 400084, Dist.Mumbai, Maharashtra",8047629614,
R For Rabbit Baby Carry Cot,https://www.indiamart.com/proddetail/r-for-rabbit-baby-carry-cot-2852163653033.html?pos=79&kwd=carry cot&tags=CC||||8752.144|Price|product|||NA|rsf:gd-|-stype:attr=1|qr_nm:gd|res:RC3|com-cf:nl|ptrs:na|ktp:N0|mc:654590|mtp:S|qry_typ:P|lang:en|wc:2|cs:8892|v=4,Pram Hut,https://www.indiamart.com/pram-hutdelhi/?pos=79&kwd=carry cot&tags=CC||||8752.144|Price|product|||NA|rsf:gd-|-stype:attr=1|qr_nm:gd|res:RC3|com-cf:nl|ptrs:na|ktp:N0|mc:654590|mtp:S|qry_typ:P|lang:en|wc:2|cs:8892|v=4,False,,New Delhi,"SHOP NO.- 156,ANARKALI COMPLEX,ANARKALI COMPLEX,New Delhi LOWER GROUND FLOOR, SHOP NO.- 156, ANARKALI COMPLEX, ANARKALI COMPLEX, JHANDEWALAN, New Delhi, Cent, New Delhi - 110055, Dist.Delhi, Delhi",7942701586,
"Multicolor Polka Tots Infant Carry Cot Cum Car Seat, Packaging Type: Box",https://www.indiamart.com/proddetail/polka-tots-infant-carry-cot-cum-car-seat-23480837297.html?pos=80&kwd=carry cot&tags=CC||||8228.275|Price|product|||NA|rsf:gd-|-stype:attr=1|qr_nm:gd|res:RC3|com-cf:nl|ptrs:na|ktp:N0|mc:654590|mtp:S|qry_typ:P|lang:en|wc:2|cs:8892|v=4,Eclat Globalbiz LLP,https://www.indiamart.com/eclatglobalbiz/?pos=80&kwd=carry cot&tags=CC||||8228.275|Price|product|||NA|rsf:gd-|-stype:attr=1|qr_nm:gd|res:RC3|com-cf:nl|ptrs:na|ktp:N0|mc:654590|mtp:S|qry_typ:P|lang:en|wc:2|cs:8892|v=4,False,,Ahmedabad,"Shilp Zaveri, Ahmedabad - 380004, Dist.Ahmedabad, Gujarat",8047627244,
Wooden Crest Honey Baby Cot,https://www.indiamart.com/proddetail/wooden-crest-honey-baby-cot-27120538930.html?pos=81&kwd=carry cot&tags=CC||||8319.425|Price|product|||NA|rsf:gd-|-stype:attr=1|qr_nm:gd|res:RC3|com-cf:nl|ptrs:na|ktp:N0|mc:654590|mtp:S|qry_typ:P|lang:en|wc:2|cs:8892|v=4,Silas Kids Products Private Limited,https://www.indiamart.com/silas-kids-products/?pos=81&kwd=carry cot&tags=CC||||8319.425|Price|product|||NA|rsf:gd-|-stype:attr=1|qr_nm:gd|res:RC3|com-cf:nl|ptrs:na|ktp:N0|mc:654590|mtp:S|qry_typ:P|lang:en|wc:2|cs:8892|v=4,False,,Jodhpur,"459, 5th A Road,, Jodhpur - 342003, Dist.Jodhpur, Rajasthan",8048213864,
"Baby Nest Bag, Newly Born",https://www.indiamart.com/proddetail/baby-nest-bag-2851919530691.html?pos=82&kwd=carry cot&tags=CC||||9829.308|Price|product|||NA|rsf:gd-|-stype:attr=1|qr_nm:gd|res:RC3|com-cf:nl|ptrs:na|ktp:N0|mc:654590|mtp:S|qry_typ:P|lang:en|wc:2|cs:8892|v=4,Sanvi Enterprise,https://www.indiamart.com/pakhus-krafts/?pos=82&kwd=carry cot&tags=CC||||9829.308|Price|product|||NA|rsf:gd-|-stype:attr=1|qr_nm:gd|res:RC3|com-cf:nl|ptrs:na|ktp:N0|mc:654590|mtp:S|qry_typ:P|lang:en|wc:2|cs:8892|v=4,False,Shibpur,Howrah,"BLOCK 8,Vivek Vihar Phase 5,493 C/A GT ROAD,Howrah 493 C/A GT Road, Vivek Vihar, Phase 5, Block 8, Flat 4D,711102,, Shibpur, Howrah - 711102, Dist.Howrah, West Bengal",8048372282,526
Blue(Base) Semicircular Baby Printed Nursing Feeding Pillow,https://www.indiamart.com/proddetail/baby-printed-nursing-feeding-pillow-2850548187273.html?pos=83&kwd=carry cot&tags=CC||||8211.142|Price|product|||NA|rsf:gd-|-stype:attr=1|qr_nm:gd|res:RC3|com-cf:nl|ptrs:na|ktp:N0|mc:654590|mtp:S|qry_typ:P|lang:en|wc:2|cs:8892|v=4,Colours Baby Clothing Co.,https://www.indiamart.com/coloursbabyclothing/?pos=83&kwd=carry cot&tags=CC||||8211.142|Price|product|||NA|rsf:gd-|-stype:attr=1|qr_nm:gd|res:RC3|com-cf:nl|ptrs:na|ktp:N0|mc:654590|mtp:S|qry_typ:P|lang:en|wc:2|cs:8892|v=4,False,,Mumbai,"1st Floor Gandhi Industrial Estates Poomi Ka Road, Villlage Mohali, Mumbai - 400070, Dist.Mumbai, Maharashtra",8047785453,
"Fabric High Compact Cradle, Packaging Type: Box",https://www.indiamart.com/proddetail/high-compact-cradle-26038357530.html?pos=84&kwd=carry cot&tags=CC||||8211.142|Price|product|||NA|rsf:gd-|-stype:attr=1|qr_nm:gd|res:RC3|com-cf:nl|ptrs:na|ktp:N0|mc:654590|mtp:S|qry_typ:P|lang:en|wc:2|cs:8892|v=4,Indravan,https://www.indiamart.com/indravan-mumbai/?pos=84&kwd=carry cot&tags=CC||||8211.142|Price|product|||NA|rsf:gd-|-stype:attr=1|qr_nm:gd|res:RC3|com-cf:nl|ptrs:na|ktp:N0|mc:654590|mtp:S|qry_typ:P|lang:en|wc:2|cs:8892|v=4,False,,Mumbai,"Flat No 06 2nd Floor, Utkarsh Building Sion Road No 1 Dalda Company Sion Fort Sion, Mumbai - 400022, Dist.Mumbai, Maharashtra",8047307171,
Baby Foam Butterfly Pillow,https://www.indiamart.com/proddetail/baby-foam-butterfly-pillow-23833410897.html?pos=85&kwd=carry cot&tags=CC||||9839.57|Price|product|||NA|rsf:gd-|-stype:attr=1|qr_nm:gd|res:RC3|com-cf:nl|ptrs:na|ktp:N0|mc:654590|mtp:S|qry_typ:P|lang:en|wc:2|cs:8892|v=4,India Shoppers Hub,https://www.indiamart.com/india-shoppers-hub/?pos=85&kwd=carry cot&tags=CC||||9839.57|Price|product|||NA|rsf:gd-|-stype:attr=1|qr_nm:gd|res:RC3|com-cf:nl|ptrs:na|ktp:N0|mc:654590|mtp:S|qry_typ:P|lang:en|wc:2|cs:8892|v=4,False,,Kolkata,"8, 6th Floor, Shantiniketan Building, Camac Street, Kolkata - 700017, Dist.Kolkata, West Bengal",8046042060,
Baby Wooden Cot,https://www.indiamart.com/proddetail/baby-wooden-cot-13631510791.html?pos=86&kwd=carry cot&tags=CC||||8706.263||product|||NA|rsf:gd-|-stype:attr=1|qr_nm:gd|res:RC3|com-cf:nl|ptrs:na|ktp:N0|mc:654590|mtp:S|qry_typ:P|lang:en|wc:2|cs:8892|v=4,Luk Luck - Port,https://www.indiamart.com/lukluckport/?pos=86&kwd=carry cot&tags=CC||||8706.263||product|||NA|rsf:gd-|-stype:attr=1|qr_nm:gd|res:RC3|com-cf:nl|ptrs:na|ktp:N0|mc:654590|mtp:S|qry_typ:P|lang:en|wc:2|cs:8892|v=4,False,Tambaram East,Karur,"43,P. R. MALLI PLAZA, SECOND FLOOR,,SENGUNTHAPURAM4THCROSS,SENGUNTHAPURAMPOST-KARUR 108, Gandhi Road, West Tambaram,600045,Chennai, Tambaram East, Karur - 639002, Dist.Karur, Tamil Nadu",8062245028,145
"Multicolor Foldable Diaper Bag, Packaging Type: Box, 3-12 Months",https://www.indiamart.com/proddetail/foldable-diaper-bag-2852139551633.html?pos=87&kwd=carry cot&tags=CC||||8752.144|Price|product|||NA|rsf:gd-|-stype:attr=1|qr_nm:gd|res:RC3|com-cf:nl|ptrs:na|ktp:N0|mc:654590|mtp:S|qry_typ:P|lang:en|wc:2|cs:8892|v=4,Indirocks,https://www.indiamart.com/indirocks/?pos=87&kwd=carry cot&tags=CC||||8752.144|Price|product|||NA|rsf:gd-|-stype:attr=1|qr_nm:gd|res:RC3|com-cf:nl|ptrs:na|ktp:N0|mc:654590|mtp:S|qry_typ:P|lang:en|wc:2|cs:8892|v=4,False,Kirari New Delhi,New Delhi,"Ground Floor, B-45 Sainik Enaclave, Vikas Nagar, Uttam Nagar, Hastsal, West Delhi,, Kirari New Delhi, New Delhi - 110059, Dist.Delhi, Delhi",7949221721,
"Pilllow Multicolor Cute Kid's Cartoon Plush Stuffed Soft Pillow, 45CM (Yellow)",https://www.indiamart.com/proddetail/cute-kid-s-cartoon-plush-stuffed-soft-pillow-45cm-yellow-23085733048.html?pos=88&kwd=carry cot&tags=CC||||8752.144|Price|product|||NA|rsf:gd-|-stype:attr=1|qr_nm:gd|res:RC3|com-cf:nl|ptrs:na|ktp:N0|mc:654590|mtp:S|qry_typ:P|lang:en|wc:2|cs:8892|v=4,Delmi India Private Limited,https://www.indiamart.com/evolutionary-supplier/?pos=88&kwd=carry cot&tags=CC||||8752.144|Price|product|||NA|rsf:gd-|-stype:attr=1|qr_nm:gd|res:RC3|com-cf:nl|ptrs:na|ktp:N0|mc:654590|mtp:S|qry_typ:P|lang:en|wc:2|cs:8892|v=4,False,Wazirabad,New Delhi,"Second Floor M-10 New Multan Nagar, Wazirabad, New Delhi - 110056, Dist.Delhi, Delhi",8043802564,
Clubindia Baby Breastfeeding Pillow For Newborn Babies For Home,https://www.indiamart.com/proddetail/clubindia-baby-breastfeeding-pillow-for-newborn-babies-22188514391.html?pos=89&kwd=carry cot&tags=CC||||8047.7524|Price|product|||NA|rsf:gd-|-stype:attr=1|qr_nm:gd|res:RC3|com-cf:nl|ptrs:na|ktp:N0|mc:654590|mtp:S|qry_typ:P|lang:en|wc:2|cs:8892|v=4,Club India,https://www.indiamart.com/club-india/?pos=89&kwd=carry cot&tags=CC||||8047.7524|Price|product|||NA|rsf:gd-|-stype:attr=1|qr_nm:gd|res:RC3|com-cf:nl|ptrs:na|ktp:N0|mc:654590|mtp:S|qry_typ:P|lang:en|wc:2|cs:8892|v=4,False,,Morbi,"Street No. 4, 153, Alif, Avenue Park, Ravapar Road, Morbi - 363641, Dist.Rajkot, Gujarat",8047666187,
Red And Off White Cotton Kids 4-in-1 Adjustable Baby Carrier Cum Kangaroo Bag/Baby Carry,https://www.indiamart.com/proddetail/kids-4-in-1-adjustable-baby-carrier-cum-kangaroo-bag-baby-carry-24746065633.html?pos=90&kwd=carry cot&tags=CC||||8211.142|Price|product|||NA|rsf:gd-|-stype:attr=1|qr_nm:gd|res:RC3|com-cf:nl|ptrs:na|ktp:N0|mc:654590|mtp:S|qry_typ:P|lang:en|wc:2|cs:8892|v=4,Baby World,https://www.indiamart.com/babyworld/?pos=90&kwd=carry cot&tags=CC||||8211.142|Price|product|||NA|rsf:gd-|-stype:attr=1|qr_nm:gd|res:RC3|com-cf:nl|ptrs:na|ktp:N0|mc:654590|mtp:S|qry_typ:P|lang:en|wc:2|cs:8892|v=4,False,Masjid Bandar,Mumbai,"12, Gorund Floor, Fatimabai Building, Dharamashala Street, Umerkhadi, Chinchbunder, Masjid Bandar, Mumbai - 400009, Dist.Mumbai, Maharashtra",7942539685,
Swing 'N' Fly (A Brand of Zen Marketing),,Swing 'N' Fly (A Brand of Zen Marketing),https://www.indiamart.com/zenmarketing-sahibabad/?pos=91&kwd=carry cot&tags=||||8752.144||bl|||TS|rsf:gd-|-stype:attr=1|qr_nm:gd|res:RC3|com-cf:nl|ptrs:na|ktp:N0|mc:654590|mtp:S|qry_typ:P|lang:en|wc:2|cs:8892|v=4,False,Alipur,New Delhi,"Ground Floor, Kh No 55/17/2, Pawan Triveni Colony, Village Bakhtawarpur triveni colony, Alipur, New Delhi - 110036, Dist.Delhi, Delhi",7942559295,
Plastic Baby Carry Cot,https://www.indiamart.com/proddetail/baby-carry-cot-22573660712.html?pos=92&kwd=carry cot&tags=||||8226.563|Price|product|||NA|rsf:gd-|-stype:attr=1|qr_nm:gd|res:RC3|com-cf:nl|ptrs:na|ktp:N0|mc:654590|mtp:S|qry_typ:P|lang:en|wc:2|cs:8892|v=4,Genie Enterprises,https://www.indiamart.com/genie-toy-world/?pos=92&kwd=carry cot&tags=||||8226.563|Price|product|||NA|rsf:gd-|-stype:attr=1|qr_nm:gd|res:RC3|com-cf:nl|ptrs:na|ktp:N0|mc:654590|mtp:S|qry_typ:P|lang:en|wc:2|cs:8892|v=4,False,Nerul West,Navi Mumbai,"R No 207 H- No 477,478,480/001 Sec-6 Sarsole Navi Mumbai Thane Sec -20, Nerul West, Navi Mumbai - 400706, Dist.Thane, Maharashtra",8048370038,8695
Baby Carry Cot 10 In 1,,Ashoka Industry,https://www.indiamart.com/ashoka-inds-newdelhi/?pos=93&kwd=carry cot&tags=||||8752.144||product|||NA|rsf:gd-|-stype:attr=1|qr_nm:gd|res:RC3|com-cf:nl|ptrs:na|ktp:N0|mc:654590|mtp:S|qry_typ:P|lang:en|wc:2|cs:8892|v=4,False,Paharganj,New Delhi,"9398/10, Multani Dhanda, Pahar Ganj S221/68, Street No. 2, Vishnu Garden, New Delhi-110018, Paharganj, New Delhi - 110055, Dist.Delhi, Delhi",8048372614,327
Picaboo 4 in 1 Multipurpose Car Seat Cum Carry Cot,https://www.indiamart.com/proddetail/picaboo-4-in-1-multipurpose-car-seat-cum-carry-cot-2851751638597.html?pos=94&kwd=carry cot&tags=||||8612.732|Price|product|||NA|rsf:gd-|-stype:attr=1|qr_nm:gd|res:RC3|com-cf:nl|ptrs:na|ktp:N0|mc:654590|mtp:S|qry_typ:P|lang:en|wc:2|cs:8892|v=4,Swift Healthcare & Hygiene Private Limited,https://www.indiamart.com/swift-healthcare-hygiene-private-limited-srinagar/?pos=94&kwd=carry cot&tags=||||8612.732|Price|product|||NA|rsf:gd-|-stype:attr=1|qr_nm:gd|res:RC3|com-cf:nl|ptrs:na|ktp:N0|mc:654590|mtp:S|qry_typ:P|lang:en|wc:2|cs:8892|v=4,False,Pampore,Srinagar,"1 1 Shiraz Road Srinagar Srinagar, Pampore, Srinagar - 190003, Dist.Srinagar, Jammu & Kashmir",,
1st Step Baby Carry Cot Pink,https://www.indiamart.com/proddetail/1st-step-baby-carry-cot-pink-3794222048.html?pos=95&kwd=carry cot&tags=||||8230.883||product|||NA|rsf:gd-|-stype:attr=1|qr_nm:gd|res:RC3|com-cf:nl|ptrs:na|ktp:N0|mc:654590|mtp:S|qry_typ:P|lang:en|wc:2|cs:8892|v=4,Yapaa Dot Com,https://www.indiamart.com/yapaa-dsurat/?pos=95&kwd=carry cot&tags=||||8230.883||product|||NA|rsf:gd-|-stype:attr=1|qr_nm:gd|res:RC3|com-cf:nl|ptrs:na|ktp:N0|mc:654590|mtp:S|qry_typ:P|lang:en|wc:2|cs:8892|v=4,False,,Surat,"Ghod Dod Road, Surat - 395007, Dist.Surat, Gujarat",8047308899,7252
Funride 9 In 1 Carry Cot Giraffe Print,,Bonzo Kids Apparel Private Limited,https://www.indiamart.com/bonzo-kids-apparels-private-limited/?pos=96&kwd=carry cot&tags=||||8752.144||product|||NA|rsf:gd-|-stype:attr=1|qr_nm:gd|res:RC3|com-cf:nl|ptrs:na|ktp:N0|mc:654590|mtp:S|qry_typ:P|lang:en|wc:2|cs:8892|v=4,False,,New Delhi,"S67 Okhla Phase II, New Delhi - 110020, Dist.Delhi, Delhi",8048372815,342
R For Rabbit Picaboo Car Seat Cum Carry Cot (Colorful),https://www.indiamart.com/proddetail/r-for-rabbit-picaboo-car-seat-cum-carry-cot-colorful-2853237075930.html?pos=97&kwd=carry cot&tags=||||8752.144|Price|product|||NA|rsf:gd-|-stype:attr=1|qr_nm:gd|res:RC3|com-cf:nl|ptrs:na|ktp:N0|mc:654590|mtp:S|qry_typ:P|lang:en|wc:2|cs:8892|v=4,BD Impex,https://www.indiamart.com/company/2395482/?pos=97&kwd=carry cot&tags=||||8752.144|Price|product|||NA|rsf:gd-|-stype:attr=1|qr_nm:gd|res:RC3|com-cf:nl|ptrs:na|ktp:N0|mc:654590|mtp:S|qry_typ:P|lang:en|wc:2|cs:8892|v=4,False,,New Delhi,"The Moms Darling - Baby Shop 163, Kapil Vihar, Pitampura, New Delhi - 110034, Dist.Delhi, Delhi",,
Baby Carry Cot,,Galaxy Baby Store,https://www.indiamart.com/galaxy-baby-store/?pos=98&kwd=carry cot&tags=||||8786.56|Price|product|||NA|rsf:gd-|-stype:attr=1|qr_nm:gd|res:RC3|com-cf:nl|ptrs:na|ktp:N0|mc:654590|mtp:S|qry_typ:P|lang:en|wc:2|cs:8892|v=4,False,,Hyderabad,"1-7-317/b, Bakaram, Opp Sagarlal Hospital, Hyderabad, Hyderabad,, Hyderabad - 500020, Dist.Hyderabad, Telangana",8044017620,
Carry Cot 10 In 1,,Rajendra Toys,https://www.indiamart.com/rajendra-toys/?pos=99&kwd=carry cot&tags=||||8663.873||product|||NA|rsf:gd-|-stype:attr=1|qr_nm:gd|res:RC3|com-cf:nl|ptrs:na|ktp:N0|mc:654590|mtp:S|qry_typ:P|lang:en|wc:2|cs:8892|v=4,False,Chickpet,Bengaluru,"NO.102/40 Mamulpet Banglore , 560053 Karnatka, Chickpet, Bengaluru - 560053, Dist.Bengaluru, Karnataka",7949374608,
Baby Carrier,https://www.indiamart.com/proddetail/baby-carrier-13732802148.html?pos=100&kwd=carry cot&tags=||||8211.142||product|||NA|rsf:gd-|-stype:attr=1|qr_nm:gd|res:RC3|com-cf:nl|ptrs:na|ktp:N0|mc:654590|mtp:S|qry_typ:P|lang:en|wc:2|cs:8892|v=4,Advance Baby Products LLP,https://www.indiamart.com/advance-baby-products-llp-mumbai/?pos=100&kwd=carry cot&tags=||||8211.142||product|||NA|rsf:gd-|-stype:attr=1|qr_nm:gd|res:RC3|com-cf:nl|ptrs:na|ktp:N0|mc:654590|mtp:S|qry_typ:P|lang:en|wc:2|cs:8892|v=4,False,Dadar West,Mumbai,"C-26,Antophill warehousing,vidya lankar college marg,wadala, Dadar West, Mumbai - 400028, Dist.Mumbai, Maharashtra",8069023912,425
CR Steel Standing Rollaway Cot With Bed,https://www.indiamart.com/proddetail/standing-rollaway-cot-with-bed-24810292255.html?pos=101&kwd=carry cot&tags=||||8706.263|Price|product|||NA|rsf:gd-|-stype:attr=1|qr_nm:gd|res:RC3|com-cf:nl|ptrs:na|ktp:N0|mc:654590|mtp:S|qry_typ:P|lang:en|wc:2|cs:8892|v=4,Pratica A Fabrics,https://www.indiamart.com/pratica-a-fabrics/?pos=101&kwd=carry cot&tags=||||8706.263|Price|product|||NA|rsf:gd-|-stype:attr=1|qr_nm:gd|res:RC3|com-cf:nl|ptrs:na|ktp:N0|mc:654590|mtp:S|qry_typ:P|lang:en|wc:2|cs:8892|v=4,False,Sengunthapuram,Karur,"No. 41, NA, Kamarajpuram North, Thirunagar Main, Sengunthapuram, Karur - 639002, Dist.Karur, Tamil Nadu",8047306388,
Plywood 45cm Folding Cot With Side Safety Support,https://www.indiamart.com/proddetail/folding-cot-with-side-safety-support-23253067630.html?pos=102&kwd=carry cot&tags=||||8954.051|Price|product|||NA|rsf:gd-|-stype:attr=1|qr_nm:gd|res:RC3|com-cf:nl|ptrs:na|ktp:N0|mc:654590|mtp:S|qry_typ:P|lang:en|wc:2|cs:8892|v=4,A.K Furniture,https://www.indiamart.com/akfurniture-chennai/?pos=102&kwd=carry cot&tags=||||8954.051|Price|product|||NA|rsf:gd-|-stype:attr=1|qr_nm:gd|res:RC3|com-cf:nl|ptrs:na|ktp:N0|mc:654590|mtp:S|qry_typ:P|lang:en|wc:2|cs:8892|v=4,False,Virugambakkam,Chennai,"27 A, Narayana Swamy Street, ViruGambakkam, Virugambakkam, Chennai - 600092, Dist.Chennai, Tamil Nadu",7942637193,
White Stainless Steel Small Size Baby Cot With Railing,https://www.indiamart.com/proddetail/small-size-baby-cot-with-railing-2853718926355.html?pos=103&kwd=carry cot&tags=||||8785.791|Price|product|||NA|rsf:gd-|-stype:attr=1|qr_nm:gd|res:RC3|com-cf:nl|ptrs:na|ktp:N0|mc:654590|mtp:S|qry_typ:P|lang:en|wc:2|cs:8892|v=4,Singhal Traders,https://www.indiamart.com/singhal-tradersghaziabad/?pos=103&kwd=carry cot&tags=||||8785.791|Price|product|||NA|rsf:gd-|-stype:attr=1|qr_nm:gd|res:RC3|com-cf:nl|ptrs:na|ktp:N0|mc:654590|mtp:S|qry_typ:P|lang:en|wc:2|cs:8892|v=4,False,,Ghaziabad,"270, Ghanta Ghar Near Puani Munsafi,, Ghaziabad - 201001, Dist.Ghaziabad, Uttar Pradesh",8047782855,
"Brown Plywood Folding Bed, Size: 3x6 Ft",https://www.indiamart.com/proddetail/plywood-folding-bed-22393952791.html?pos=104&kwd=carry cot&tags=||||8211.142|Price|product|||NA|rsf:gd-|-stype:attr=1|qr_nm:gd|res:RC3|com-cf:nl|ptrs:na|ktp:N0|mc:654590|mtp:S|qry_typ:P|lang:en|wc:2|cs:8892|v=4,KGM Interiors,https://www.indiamart.com/kgm-interiors/?pos=104&kwd=carry cot&tags=||||8211.142|Price|product|||NA|rsf:gd-|-stype:attr=1|qr_nm:gd|res:RC3|com-cf:nl|ptrs:na|ktp:N0|mc:654590|mtp:S|qry_typ:P|lang:en|wc:2|cs:8892|v=4,False,Dahisar East,Mumbai,"36/37B, Sukla Compound, Off. Shiv Vallabh Road, Ashokvan, Dahisar East, Mumbai - 400068, Dist.Mumbai, Maharashtra",8048371593,494
Iron Folding Bed,https://www.indiamart.com/proddetail/folding-bed-22210435330.html?pos=105&kwd=carry cot&tags=||||8304.726|Price|product|||NA|rsf:gd-|-stype:attr=1|qr_nm:gd|res:RC3|com-cf:nl|ptrs:na|ktp:N0|mc:654590|mtp:S|qry_typ:P|lang:en|wc:2|cs:8892|v=4,Nirmal Sai Coach Repairin,https://www.indiamart.com/nirmal-sai-coach/?pos=105&kwd=carry cot&tags=||||8304.726|Price|product|||NA|rsf:gd-|-stype:attr=1|qr_nm:gd|res:RC3|com-cf:nl|ptrs:na|ktp:N0|mc:654590|mtp:S|qry_typ:P|lang:en|wc:2|cs:8892|v=4,False,,Balasinor,"College Road Body Builder Abdulrasidhazi I. Saikh Village Balasinor Balasinor Taluka Balasinor, Balasinor - 388255, Dist.Kheda, Gujarat",8048372287,624
"Plywood Folding Bed, Size: 6*3",https://www.indiamart.com/proddetail/plywood-folding-bed-22377309288.html?pos=106&kwd=carry cot&tags=||||8742.853|Price|product|||NA|rsf:gd-|-stype:attr=1|qr_nm:gd|res:RC3|com-cf:nl|ptrs:na|ktp:N0|mc:654590|mtp:S|qry_typ:P|lang:en|wc:2|cs:8892|v=4,Decor In Design Interior,https://www.indiamart.com/decore-in-design-interior/?pos=106&kwd=carry cot&tags=||||8742.853|Price|product|||NA|rsf:gd-|-stype:attr=1|qr_nm:gd|res:RC3|com-cf:nl|ptrs:na|ktp:N0|mc:654590|mtp:S|qry_typ:P|lang:en|wc:2|cs:8892|v=4,False,,Sohna,"HN 12,,Block b gali no 4,Shani enclave Maruti Kunj bhondsi Near Ashoka International School, Sector 66, Badshahpur,122001,Gurgaon, Sohna - 122102, Dist.Gurgaon, Haryana",8048371503,662
Folding Bed,https://www.indiamart.com/proddetail/folding-bed-20439821248.html?pos=107&kwd=carry cot&tags=||||8752.144|Price|product|||NA|rsf:gd-|-stype:attr=1|qr_nm:gd|res:RC3|com-cf:nl|ptrs:na|ktp:N0|mc:654590|mtp:S|qry_typ:P|lang:en|wc:2|cs:8892|v=4,Deluxe Scientific Surgico Private Limited,https://www.indiamart.com/deluxe-scientific-surgico-private-limited/?pos=107&kwd=carry cot&tags=||||8752.144|Price|product|||NA|rsf:gd-|-stype:attr=1|qr_nm:gd|res:RC3|com-cf:nl|ptrs:na|ktp:N0|mc:654590|mtp:S|qry_typ:P|lang:en|wc:2|cs:8892|v=4,False,Industrial Area,New Delhi,"Desco House, 387 387, Desco House, Chaudhary Charan Singh Marg,, Industrial Area, New Delhi - 110092, Dist.Delhi, Delhi",8048372426,503
Hydraulic Iron Bed,https://www.indiamart.com/proddetail/hydraulic-iron-bed-15886788048.html?pos=108&kwd=carry cot&tags=||||8769.508|Price|product|||NA|rsf:gd-|-stype:attr=1|qr_nm:gd|res:RC3|com-cf:nl|ptrs:na|ktp:N0|mc:654590|mtp:S|qry_typ:P|lang:en|wc:2|cs:8892|v=4,Luxurious Iron Furniture,https://www.indiamart.com/luxurious-iron-furniture/?pos=108&kwd=carry cot&tags=||||8769.508|Price|product|||NA|rsf:gd-|-stype:attr=1|qr_nm:gd|res:RC3|com-cf:nl|ptrs:na|ktp:N0|mc:654590|mtp:S|qry_typ:P|lang:en|wc:2|cs:8892|v=4,False,Industrial Area,Faridabad,"Plot No. 6317, Saran School Road, Near Muskan Sweets House, NIT Industrial Area, Industrial Area, Faridabad - 121001, Dist.Faridabad, Haryana",8048261947,975
"Black Powder Coated Metal Folding Beds, Single, Size: 3x6 Ft",https://www.indiamart.com/proddetail/metal-folding-beds-22401899091.html?pos=109&kwd=carry cot&tags=||||8752.144||product|||NA|rsf:gd-|-stype:attr=1|qr_nm:gd|res:RC3|com-cf:nl|ptrs:na|ktp:N0|mc:654590|mtp:S|qry_typ:P|lang:en|wc:2|cs:8892|v=4,Matrix Systems,https://www.indiamart.com/matrixsystems-delhi/?pos=109&kwd=carry cot&tags=||||8752.144||product|||NA|rsf:gd-|-stype:attr=1|qr_nm:gd|res:RC3|com-cf:nl|ptrs:na|ktp:N0|mc:654590|mtp:S|qry_typ:P|lang:en|wc:2|cs:8892|v=4,False,,New Delhi,"CB 223,1, RING ROAD,NARAINA Building No. B-40/10, Mayapuri Industrial Area, Phase 1,110064,New Delhi, New Delhi - 110085, Dist.Delhi, Delhi",8048361260,873
"Black Powder Coated Metal Folding Bed, Single, Size: 3x6 Ft",https://www.indiamart.com/proddetail/metal-folding-bed-22403879088.html?pos=110&kwd=carry cot&tags=||||8752.144|Price|product|||NA|rsf:gd-|-stype:attr=1|qr_nm:gd|res:RC3|com-cf:nl|ptrs:na|ktp:N0|mc:654590|mtp:S|qry_typ:P|lang:en|wc:2|cs:8892|v=4,Rash Home Furniture,https://www.indiamart.com/rashhomefurniture/?pos=110&kwd=carry cot&tags=||||8752.144|Price|product|||NA|rsf:gd-|-stype:attr=1|qr_nm:gd|res:RC3|com-cf:nl|ptrs:na|ktp:N0|mc:654590|mtp:S|qry_typ:P|lang:en|wc:2|cs:8892|v=4,False,Kirti Nagar Industrial Area,New Delhi,"PLOT NO-6A,SAINIK ENCLAVE,NEW SAVITRI SCHOOL,UTTAM NAGAR 9/50, 3rd Floor,,110015,New Delhi, Kirti Nagar Industrial Area, New Delhi - 110059, Dist.Delhi, Delhi",8048372728,601
"Metal Plywood Folding Bed, Size: 6.5*3 Feet",https://www.indiamart.com/proddetail/plywood-folding-bed-22406667788.html?pos=111&kwd=carry cot&tags=||||8228.275|Price|product|||NA|rsf:gd-|-stype:attr=1|qr_nm:gd|res:RC3|com-cf:nl|ptrs:na|ktp:N0|mc:654590|mtp:S|qry_typ:P|lang:en|wc:2|cs:8892|v=4,Homedge,https://www.indiamart.com/homedge/?pos=111&kwd=carry cot&tags=||||8228.275|Price|product|||NA|rsf:gd-|-stype:attr=1|qr_nm:gd|res:RC3|com-cf:nl|ptrs:na|ktp:N0|mc:654590|mtp:S|qry_typ:P|lang:en|wc:2|cs:8892|v=4,False,Odhav,Ahmedabad,"Aayozan Interior, Plot No. 145, Road No. 5, Kathwada Gidc Kathwada, Odhav, Ahmedabad - 380054, Dist.Ahmedabad, Gujarat",8047632986,
"Brown Plywood Folding Bed, Size: 6x3 Ft",https://www.indiamart.com/proddetail/plywood-folding-bed-22401710773.html?pos=112&kwd=carry cot&tags=||||8752.144|Price|product|||NA|rsf:gd-|-stype:attr=1|qr_nm:gd|res:RC3|com-cf:nl|ptrs:na|ktp:N0|mc:654590|mtp:S|qry_typ:P|lang:en|wc:2|cs:8892|v=4,Ram Gallery Pvt. Ltd.,https://www.indiamart.com/ram-gallery/?pos=112&kwd=carry cot&tags=||||8752.144|Price|product|||NA|rsf:gd-|-stype:attr=1|qr_nm:gd|res:RC3|com-cf:nl|ptrs:na|ktp:N0|mc:654590|mtp:S|qry_typ:P|lang:en|wc:2|cs:8892|v=4,False,,New Delhi,"92, Main Market, Sant Nagar, Burari, New Delhi - 110084, Dist.Delhi, Delhi",8048371513,162
"Black MS Folding Bed, Size: 6*3 Feet",https://www.indiamart.com/proddetail/ms-folding-bed-22404567491.html?pos=113&kwd=carry cot&tags=||||8228.275|Price|product|||NA|rsf:gd-|-stype:attr=1|qr_nm:gd|res:RC3|com-cf:nl|ptrs:na|ktp:N0|mc:654590|mtp:S|qry_typ:P|lang:en|wc:2|cs:8892|v=4,Shree Furniture,https://www.indiamart.com/shree-furniture-ahmedabad/?pos=113&kwd=carry cot&tags=||||8228.275|Price|product|||NA|rsf:gd-|-stype:attr=1|qr_nm:gd|res:RC3|com-cf:nl|ptrs:na|ktp:N0|mc:654590|mtp:S|qry_typ:P|lang:en|wc:2|cs:8892|v=4,False,Shahibaug / Santej,Ahmedabad,"22, Agarwal Industrial Estate, Shahibaug / Santej, Ahmedabad - 380004, Dist.Ahmedabad, Gujarat",8043810618,
Multicolor Niwar Folding Bed,https://www.indiamart.com/proddetail/niwar-folding-bed-22377069348.html?pos=114&kwd=carry cot&tags=||||8785.791|Price|product|||NA|rsf:gd-|-stype:attr=1|qr_nm:gd|res:RC3|com-cf:nl|ptrs:na|ktp:N0|mc:654590|mtp:S|qry_typ:P|lang:en|wc:2|cs:8892|v=4,K.T.M. Furnitures,https://www.indiamart.com/ktmfurnitures/?pos=114&kwd=carry cot&tags=||||8785.791|Price|product|||NA|rsf:gd-|-stype:attr=1|qr_nm:gd|res:RC3|com-cf:nl|ptrs:na|ktp:N0|mc:654590|mtp:S|qry_typ:P|lang:en|wc:2|cs:8892|v=4,False,Naya Ganj,Ghaziabad,"Shop No. 1, Mohan Plaza, Ramte Ram Road, Naya Ganj, Ghaziabad - 201001, Dist.Ghaziabad, Uttar Pradesh",8043849646,
"Ply Wood Folding Bed, Size: 6 Feet Height Width 3 Feet",https://www.indiamart.com/proddetail/ply-wood-folding-bed-22280788073.html?pos=115&kwd=carry cot&tags=||||8741.987|Price|product|||NA|rsf:gd-|-stype:attr=1|qr_nm:gd|res:RC3|com-cf:nl|ptrs:na|ktp:N0|mc:654590|mtp:S|qry_typ:P|lang:en|wc:2|cs:8892|v=4,G.S Trader,https://www.indiamart.com/gs-trader-ambala/?pos=115&kwd=carry cot&tags=||||8741.987|Price|product|||NA|rsf:gd-|-stype:attr=1|qr_nm:gd|res:RC3|com-cf:nl|ptrs:na|ktp:N0|mc:654590|mtp:S|qry_typ:P|lang:en|wc:2|cs:8892|v=4,False,Ambala Cantt,Ambala,"116/A, OPP. GOVT COLLEGE, IDGAH ROAD, Ambala Cantt, Ambala - 133001, Dist.Ambala, Haryana",7949370573,
"Brown Plywood Folding Bed, Size: 6x3 Ft",https://www.indiamart.com/proddetail/plywood-folding-bed-22399250655.html?pos=116&kwd=carry cot&tags=||||8752.144|Price|product|||NA|rsf:gd-|-stype:attr=1|qr_nm:gd|res:RC3|com-cf:nl|ptrs:na|ktp:N0|mc:654590|mtp:S|qry_typ:P|lang:en|wc:2|cs:8892|v=4,New R.K.K.Steel Furniture,https://www.indiamart.com/new-rkk-steel-furniture/?pos=116&kwd=carry cot&tags=||||8752.144|Price|product|||NA|rsf:gd-|-stype:attr=1|qr_nm:gd|res:RC3|com-cf:nl|ptrs:na|ktp:N0|mc:654590|mtp:S|qry_typ:P|lang:en|wc:2|cs:8892|v=4,False,Janakpuri,New Delhi,"W Z 198, G Block, Hari Nagar, Jail Road, Janakpuri, New Delhi - 110058, Dist.Delhi, Delhi",8047819716,
"Mild Steel Foldable Bed With Mattress, Size: 3*6 Ft",https://www.indiamart.com/proddetail/mild-steel-foldable-bed-with-mattress-22377495688.html?pos=117&kwd=carry cot&tags=||||8584.299|Price|product|||NA|rsf:gd-|-stype:attr=1|qr_nm:gd|res:RC3|com-cf:nl|ptrs:na|ktp:N0|mc:654590|mtp:S|qry_typ:P|lang:en|wc:2|cs:8892|v=4,Aavishkaar,https://www.indiamart.com/aavishkaarcoimbatore/?pos=117&kwd=carry cot&tags=||||8584.299|Price|product|||NA|rsf:gd-|-stype:attr=1|qr_nm:gd|res:RC3|com-cf:nl|ptrs:na|ktp:N0|mc:654590|mtp:S|qry_typ:P|lang:en|wc:2|cs:8892|v=4,False,Karal Gowder Layout,Coimbatore,"189/1-A, Ground Floor, 8-11, Sree Daksha Saharsh, Karal Gowder Layout, Coimbatore - 641001, Dist.Coimbatore, Tamil Nadu",8048372535,286
"Black Powder Coated Metal Leg Folding Bed, Single, Size: 6x3 Ft",https://www.indiamart.com/proddetail/metal-leg-folding-bed-22401684133.html?pos=118&kwd=carry cot&tags=||||8752.144|Price|product|||NA|rsf:gd-|-stype:attr=1|qr_nm:gd|res:RC3|com-cf:nl|ptrs:na|ktp:N0|mc:654590|mtp:S|qry_typ:P|lang:en|wc:2|cs:8892|v=4,Parco India,https://www.indiamart.com/parco-india/?pos=118&kwd=carry cot&tags=||||8752.144|Price|product|||NA|rsf:gd-|-stype:attr=1|qr_nm:gd|res:RC3|com-cf:nl|ptrs:na|ktp:N0|mc:654590|mtp:S|qry_typ:P|lang:en|wc:2|cs:8892|v=4,False,,New Delhi,"2nd WZ-537 Shiv Nagar Janakpuri, New Delhi - 110058, Dist.Delhi, Delhi",8046042878,
plywood folding bed,https://www.indiamart.com/proddetail/plywood-folding-bed-22377492533.html?pos=119&kwd=carry cot&tags=||||8778.123|Price|product|||NA|rsf:gd-|-stype:attr=1|qr_nm:gd|res:RC3|com-cf:nl|ptrs:na|ktp:N0|mc:654590|mtp:S|qry_typ:P|lang:en|wc:2|cs:8892|v=4,Shree Company,https://www.indiamart.com/shreecompany-ghaziabad/?pos=119&kwd=carry cot&tags=||||8778.123|Price|product|||NA|rsf:gd-|-stype:attr=1|qr_nm:gd|res:RC3|com-cf:nl|ptrs:na|ktp:N0|mc:654590|mtp:S|qry_typ:P|lang:en|wc:2|cs:8892|v=4,False,,Noida,"khasra no.-127,khora colony,,khora road Ansal Fortune Arcade, Sector 18,201301,Noida, Noida - 201309, Dist.Gautam Budh Nagar, Uttar Pradesh",8047626220,
Ultrasoft Foam Folding - Slim Bed,https://www.indiamart.com/proddetail/ultrasoft-foam-folding-slim-bed-27593443455.html?pos=120&kwd=carry cot&tags=||||8584.299|Price|product|||NA|rsf:gd-|-stype:attr=1|qr_nm:gd|res:RC3|com-cf:nl|ptrs:na|ktp:N0|mc:654590|mtp:S|qry_typ:P|lang:en|wc:2|cs:8892|v=4,Vandana,https://www.indiamart.com/vandana-coimbatore/?pos=120&kwd=carry cot&tags=||||8584.299|Price|product|||NA|rsf:gd-|-stype:attr=1|qr_nm:gd|res:RC3|com-cf:nl|ptrs:na|ktp:N0|mc:654590|mtp:S|qry_typ:P|lang:en|wc:2|cs:8892|v=4,False,,Coimbatore,"395, Pankaja Mill Road, Ramasami Nagar, Ramanathapuram, Coimbatore - 641045, Dist.Coimbatore, Tamil Nadu",7942672048,
"Metal Plywood Folding Bed, Size: 6*3 Feet",https://www.indiamart.com/proddetail/plywood-folding-bed-22404690897.html?pos=121&kwd=carry cot&tags=||||8228.275|Price|product|||NA|rsf:gd-|-stype:attr=1|qr_nm:gd|res:RC3|com-cf:nl|ptrs:na|ktp:N0|mc:654590|mtp:S|qry_typ:P|lang:en|wc:2|cs:8892|v=4,Happy Furniture,https://www.indiamart.com/happy-furniture-gujarat/?pos=121&kwd=carry cot&tags=||||8228.275|Price|product|||NA|rsf:gd-|-stype:attr=1|qr_nm:gd|res:RC3|com-cf:nl|ptrs:na|ktp:N0|mc:654590|mtp:S|qry_typ:P|lang:en|wc:2|cs:8892|v=4,False,Vatva,Ahmedabad,"SHED NO 37,RAJDEEP INDUSTRIAL ESTATE,NEAR BIBI TALAV VATVA,AHMEDABAD 37,Rajdeep Estate, Nr Biblivtalav Cross Road, Vatva,382440,Ahmedabad, Vatva, Ahmedabad - 380050, Dist.Ahmedabad, Gujarat",8048371503,974
Iron Niwar Folding Bed,https://www.indiamart.com/proddetail/iron-niwar-folding-bed-2851156922191.html?pos=122&kwd=carry cot&tags=||||8793.739|Price|product|||NA|rsf:gd-|-stype:attr=1|qr_nm:gd|res:RC3|com-cf:nl|ptrs:na|ktp:N0|mc:654590|mtp:S|qry_typ:P|lang:en|wc:2|cs:8892|v=4,Shankar Steel Industries,https://www.indiamart.com/shankarsteelindustries/?pos=122&kwd=carry cot&tags=||||8793.739|Price|product|||NA|rsf:gd-|-stype:attr=1|qr_nm:gd|res:RC3|com-cf:nl|ptrs:na|ktp:N0|mc:654590|mtp:S|qry_typ:P|lang:en|wc:2|cs:8892|v=4,False,Chowk Bazar,Mathura,"0, Opp. Roopam Cinema, Masani Road, Chowk Bazar, Mathura - 281003, Dist.Mathura, Uttar Pradesh",7942870780,
Brown Plywood Folding Beds,https://www.indiamart.com/proddetail/plywood-folding-beds-22389032733.html?pos=123&kwd=carry cot&tags=||||8223.226|Price|product|||NA|rsf:gd-|-stype:attr=1|qr_nm:gd|res:RC3|com-cf:nl|ptrs:na|ktp:N0|mc:654590|mtp:S|qry_typ:P|lang:en|wc:2|cs:8892|v=4,Meka Steel Furniture,https://www.indiamart.com/mekasteelfurniture/?pos=123&kwd=carry cot&tags=||||8223.226|Price|product|||NA|rsf:gd-|-stype:attr=1|qr_nm:gd|res:RC3|com-cf:nl|ptrs:na|ktp:N0|mc:654590|mtp:S|qry_typ:P|lang:en|wc:2|cs:8892|v=4,False,Majiwada,Thane,"Next To Dadlani Park Society, Near Pipeline, Balkum West, Majiwada, Thane - 400608, Dist.Thane, Maharashtra",8048957984,
"Multicolor Niwar Folding Bed, Size: 6*3 Ft",https://www.indiamart.com/proddetail/niwar-folding-bed-22388962412.html?pos=124&kwd=carry cot&tags=||||8307.81||product|||NA|rsf:gd-|-stype:attr=1|qr_nm:gd|res:RC3|com-cf:nl|ptrs:na|ktp:N0|mc:654590|mtp:S|qry_typ:P|lang:en|wc:2|cs:8892|v=4,Vimal Industries,https://www.indiamart.com/vimalindustries-india/?pos=124&kwd=carry cot&tags=||||8307.81||product|||NA|rsf:gd-|-stype:attr=1|qr_nm:gd|res:RC3|com-cf:nl|ptrs:na|ktp:N0|mc:654590|mtp:S|qry_typ:P|lang:en|wc:2|cs:8892|v=4,False,Bhosari,Pune,"J Block, No. 217, Bhosari, MIDC Office Add, Sr. No. 38/2/2, Nakhate Wasti, Rahatani, Pimpri, Bhosari, Pune - 411017, Dist.Pune, Maharashtra",8043808111,
Plywood Folding Bed,https://www.indiamart.com/proddetail/plywood-folding-bed-25851545688.html?pos=125&kwd=carry cot&tags=||||8663.873|Price|product|||NA|rsf:gd-|-stype:attr=1|qr_nm:gd|res:RC3|com-cf:nl|ptrs:na|ktp:N0|mc:654590|mtp:S|qry_typ:P|lang:en|wc:2|cs:8892|v=4,Aarika Tattoo Supply,https://www.indiamart.com/aarika-tattoosupply/?pos=125&kwd=carry cot&tags=||||8663.873|Price|product|||NA|rsf:gd-|-stype:attr=1|qr_nm:gd|res:RC3|com-cf:nl|ptrs:na|ktp:N0|mc:654590|mtp:S|qry_typ:P|lang:en|wc:2|cs:8892|v=4,False,Nagarathpete,Bengaluru,"Shop No. 5, SM Tower, Ground Floor, Nagarathpete, Bengaluru - 560002, Dist.Bengaluru, Karnataka",8047667099,
Stainless Steel FOLDING BED CLOTH 6X2 FEET,https://www.indiamart.com/proddetail/folding-bed-cloth-6x2-feet-2850035347462.html?pos=126&kwd=carry cot&tags=||||8038.093|Price|product|||NA|rsf:gd-|-stype:attr=1|qr_nm:gd|res:RC3|com-cf:nl|ptrs:na|ktp:N0|mc:654590|mtp:S|qry_typ:P|lang:en|wc:2|cs:8892|v=4,Sahjanand Households,https://www.indiamart.com/sahjanandhouseholds/?pos=126&kwd=carry cot&tags=||||8038.093|Price|product|||NA|rsf:gd-|-stype:attr=1|qr_nm:gd|res:RC3|com-cf:nl|ptrs:na|ktp:N0|mc:654590|mtp:S|qry_typ:P|lang:en|wc:2|cs:8892|v=4,False,RAJKOT,Rajkot,"21 515 Mavdi, Patel Street, RAJKOT, Rajkot - 360004, Dist.Rajkot, Gujarat",8047544549,
"Best Quality H.r Pipe Plywood Folding Bed, Size: 3x6",https://www.indiamart.com/proddetail/plywood-folding-bed-23662040630.html?pos=127&kwd=carry cot&tags=||||8559.269|Price|product|||NA|rsf:gd-|-stype:attr=1|qr_nm:gd|res:RC3|com-cf:nl|ptrs:na|ktp:N0|mc:654590|mtp:S|qry_typ:P|lang:en|wc:2|cs:8892|v=4,Life Time Furniture,https://www.indiamart.com/life-time-furniture/?pos=127&kwd=carry cot&tags=||||8559.269|Price|product|||NA|rsf:gd-|-stype:attr=1|qr_nm:gd|res:RC3|com-cf:nl|ptrs:na|ktp:N0|mc:654590|mtp:S|qry_typ:P|lang:en|wc:2|cs:8892|v=4,False,Musakhedi,Indore,"110, Musakhedi Main Road, Azad Nagar Near Yadav Dharmshala, Musakhedi, Indore - 452001, Dist.Indore, Madhya Pradesh",8047678401,
IMPREXIS Rectangular Stainless Steel Handcraft Foldable Charpai / Cot / Khatiya / Bed / Khaat,https://www.indiamart.com/proddetail/imprexis-rectangular-stainless-steel-handcraft-foldable-charpai-cot-khatiya-bed-khaat-2852356349012.html?pos=128&kwd=carry cot&tags=||||8319.425|Price|product|||NA|rsf:gd-|-stype:attr=1|qr_nm:gd|res:RC3|com-cf:nl|ptrs:na|ktp:N0|mc:654590|mtp:S|qry_typ:P|lang:en|wc:2|cs:8892|v=4,Imprexis Overseas Private Limited,https://www.indiamart.com/imprexis-overseas/?pos=128&kwd=carry cot&tags=||||8319.425|Price|product|||NA|rsf:gd-|-stype:attr=1|qr_nm:gd|res:RC3|com-cf:nl|ptrs:na|ktp:N0|mc:654590|mtp:S|qry_typ:P|lang:en|wc:2|cs:8892|v=4,False,,Jodhpur,"Plot No. 64-65, Meera Colony, Pratap Nagar, Jodhpur - 342001, Dist.Jodhpur, Rajasthan",7942839296,
"Black Metal Centre Folding Bed, Single, Size: 3x6 Ft",https://www.indiamart.com/proddetail/metal-centre-folding-bed-22402125133.html?pos=129&kwd=carry cot&tags=||||8752.144|Price|product|||NA|rsf:gd-|-stype:attr=1|qr_nm:gd|res:RC3|com-cf:nl|ptrs:na|ktp:N0|mc:654590|mtp:S|qry_typ:P|lang:en|wc:2|cs:8892|v=4,Eppotum Initiatives Private Limited,https://www.indiamart.com/eppotuminitiatives/?pos=129&kwd=carry cot&tags=||||8752.144|Price|product|||NA|rsf:gd-|-stype:attr=1|qr_nm:gd|res:RC3|com-cf:nl|ptrs:na|ktp:N0|mc:654590|mtp:S|qry_typ:P|lang:en|wc:2|cs:8892|v=4,False,Ujwa,New Delhi,"Bullding No. 78, South West Delhi, Ujwa, New Delhi - 110073, Dist.Delhi, Delhi",7949355009,
"Black Plywood Folding Bed, Size: 3 X 6 Ft",https://www.indiamart.com/proddetail/plywood-folding-bed-22393910188.html?pos=130&kwd=carry cot&tags=||||8307.81||product|||NA|rsf:gd-|-stype:attr=1|qr_nm:gd|res:RC3|com-cf:nl|ptrs:na|ktp:N0|mc:654590|mtp:S|qry_typ:P|lang:en|wc:2|cs:8892|v=4,Ekdant Engineering & Fabricators,https://www.indiamart.com/ekdantengineeringfabricators/?pos=130&kwd=carry cot&tags=||||8307.81||product|||NA|rsf:gd-|-stype:attr=1|qr_nm:gd|res:RC3|com-cf:nl|ptrs:na|ktp:N0|mc:654590|mtp:S|qry_typ:P|lang:en|wc:2|cs:8892|v=4,False,,Pune,"1199/1, Shambhu Nagari, Near Ever Electronic, Vadhu Bk, Koregaon Bhima, Pune - 412216, Dist.Pune, Maharashtra",8047522975,
"Blue Folding Bed, Size: 6.5*3.5",https://www.indiamart.com/proddetail/folding-bed-22371759112.html?pos=131&kwd=carry cot&tags=||||8788.382|Price|product|||NA|rsf:gd-|-stype:attr=1|qr_nm:gd|res:RC3|com-cf:nl|ptrs:na|ktp:N0|mc:654590|mtp:S|qry_typ:P|lang:en|wc:2|cs:8892|v=4,Saifi Enterprises,https://www.indiamart.com/saifi-enterprises-greaternoida/?pos=131&kwd=carry cot&tags=||||8788.382|Price|product|||NA|rsf:gd-|-stype:attr=1|qr_nm:gd|res:RC3|com-cf:nl|ptrs:na|ktp:N0|mc:654590|mtp:S|qry_typ:P|lang:en|wc:2|cs:8892|v=4,False,Jalpura,Greater Noida,"HALDONI,BISRAKH ROAD,NEAR EIDGAH,GREATER NOIDA Main Bishrakh Road, Noida Extension,201310,Greater Noida, Jalpura, Greater Noida - 201306, Dist.Gautam Budh Nagar, Uttar Pradesh",8048983746,
"Metal Plywood Folding Bed, Size: 6.5*3 Feet",https://www.indiamart.com/proddetail/plywood-folding-bed-22406953530.html?pos=132&kwd=carry cot&tags=||||8228.275|Price|product|||NA|rsf:gd-|-stype:attr=1|qr_nm:gd|res:RC3|com-cf:nl|ptrs:na|ktp:N0|mc:654590|mtp:S|qry_typ:P|lang:en|wc:2|cs:8892|v=4,Jenika Enterprise,https://www.indiamart.com/jenikaenterprise/?pos=132&kwd=carry cot&tags=||||8228.275|Price|product|||NA|rsf:gd-|-stype:attr=1|qr_nm:gd|res:RC3|com-cf:nl|ptrs:na|ktp:N0|mc:654590|mtp:S|qry_typ:P|lang:en|wc:2|cs:8892|v=4,False,Shyamal,Ahmedabad,"K/L 3-4, Mahavirnagar Complex, Shyamal Cross Road, Shyamal, Ahmedabad - 380015, Dist.Ahmedabad, Gujarat",8047690618,
Carry Cot,,Venus Gift Corner,https://www.indiamart.com/venus-gift-corner-gondia/?pos=133&kwd=carry cot&tags=CC||||8996.244||product|||NA|rsf:gd-|-stype:attr=1|qr_nm:gd|res:RC3|com-cf:nl|ptrs:na|ktp:N0|mc:654590|mtp:S|qry_typ:P|lang:en|wc:2|cs:8892|v=4,False,Yash Complex,Gondia,"Yash Complex Gorelal Chowk Gondia, Yash Complex, Gondia - 441601, Dist.Gondia, Maharashtra",8048371704,743
Carry Cot,,Akay Rolling Mills Private Limited,https://www.indiamart.com/akay-rolling-mills/?pos=134&kwd=carry cot&tags=CC||||8752.144||product|||NA|rsf:gd-|-stype:attr=1|qr_nm:gd|res:RC3|com-cf:nl|ptrs:na|ktp:N0|mc:654590|mtp:S|qry_typ:P|lang:en|wc:2|cs:8892|v=4,False,Bali Nagar,New Delhi,"No. H-27, Bali Nagar, Bali Nagar, New Delhi - 110015, Dist.Delhi, Delhi",8048372274,137
Carry Cot,,Plk Babys World,https://www.indiamart.com/plk-babys-world/?pos=135&kwd=carry cot&tags=CC||||8774.064||product|||NA|rsf:gd-|-stype:attr=1|qr_nm:gd|res:RC3|com-cf:nl|ptrs:na|ktp:N0|mc:654590|mtp:S|qry_typ:P|lang:en|wc:2|cs:8892|v=4,False,,Tiruchirappalli,"No.356, 4th Cross, Chillai Nagar, Trichi, Tiruchirappalli - 620018, Dist.Tiruchirappalli, Tamil Nadu",8048372465,464
Carry Cot,,New Born The Baby Shop,https://www.indiamart.com/super-cycle-store/?pos=136&kwd=carry cot&tags=CC||||8752.144||product|||NA|rsf:gd-|-stype:attr=1|qr_nm:gd|res:RC3|com-cf:nl|ptrs:na|ktp:N0|mc:654590|mtp:S|qry_typ:P|lang:en|wc:2|cs:8892|v=4,False,Okhla,New Delhi,"Ground Floor, Nafees Road, F-19/7 Jamia Nagar, Batla House, Okhla, Okhla, New Delhi - 110025, Dist.Delhi, Delhi",8048372422,816
Baby Carry Cot,,Chaithra Enterprises,https://www.indiamart.com/chaithra-enterprises-mysuru/?pos=137&kwd=carry cot&tags=CC||||8556.61||product|||NA|rsf:gd-|-stype:attr=1|qr_nm:gd|res:RC3|com-cf:nl|ptrs:na|ktp:N0|mc:654590|mtp:S|qry_typ:P|lang:en|wc:2|cs:8892|v=4,False,,Mysuru,"No 294,Lalithadripura,Jss Layout 2nd Stage,Mysuru,Mysuru, Mysuru - 570028, Dist.Mysuru, Karnataka",8069196709,619
Child Carry Cot,,Variety Gift Shop,https://www.indiamart.com/variety-gift/?pos=138&kwd=carry cot&tags=CC||||8752.144||product|||NA|rsf:gd-|-stype:attr=1|qr_nm:gd|res:RC3|com-cf:nl|ptrs:na|ktp:N0|mc:654590|mtp:S|qry_typ:P|lang:en|wc:2|cs:8892|v=4,False,,New Delhi,"WZ 62 B, Possangipur Market, Janakpuri, New Delhi - 110058, Dist.Delhi, Delhi",8048372214,229
Baby Carry Cot,,Kids Kingdom,https://www.indiamart.com/kids-kingdbengaluru/?pos=139&kwd=carry cot&tags=CC||||8663.873||product|||NA|rsf:gd-|-stype:attr=1|qr_nm:gd|res:RC3|com-cf:nl|ptrs:na|ktp:N0|mc:654590|mtp:S|qry_typ:P|lang:en|wc:2|cs:8892|v=4,False,Malleswaram,Bengaluru,"No. 455/1, Sampige Road, Between 6th & 7th Cross, Malleshwaram, Malleswaram, Bengaluru - 560003, Dist.Bengaluru, Karnataka",8048361296,922
Baby Carry Cot,,Vishal Kids,https://www.indiamart.com/vishal-kids/?pos=140&kwd=carry cot&tags=CC||||8476.868||product|||NA|rsf:gd-|-stype:attr=1|qr_nm:gd|res:RC3|com-cf:nl|ptrs:na|ktp:N0|mc:654590|mtp:S|qry_typ:P|lang:en|wc:2|cs:8892|v=4,False,Aurangabad,Aurangabad,"House No. 3-5-28 Sarafa Road, Aurangabad, Aurangabad - 431001, Maharashtra",8062245080,517
Baby Carry Cot,,Baby Station,https://www.indiamart.com/baby-station/?pos=141&kwd=carry cot&tags=CC||||8239.3955||product|||NA|rsf:gd-|-stype:attr=1|qr_nm:gd|res:RC3|com-cf:nl|ptrs:na|ktp:N0|mc:654590|mtp:S|qry_typ:P|lang:en|wc:2|cs:8892|v=4,False,Murbad Road,Kalyan,"Shop No. 4, Voilet Apartment, Syndicate, Murbad Road, Kalyan - 421301, Dist.Thane, Maharashtra",8069196787,630
Kids Carry Cot,,Pankaj Agencies,https://www.indiamart.com/pankaj-agencies-jaipur/?pos=142&kwd=carry cot&tags=CC||||8601.347||product|||NA|rsf:gd-|-stype:attr=1|qr_nm:gd|res:RC3|com-cf:nl|ptrs:na|ktp:N0|mc:654590|mtp:S|qry_typ:P|lang:en|wc:2|cs:8892|v=4,False,,Jaipur,"34, 1st Ganesh Nagar, Opposite Lazeez Restaurent, New Sanganer Road Sodala, Jaipur - 302003, Dist.Jaipur, Rajasthan",8048371887,754
Carry Cot BF-890C-1,,Manisha Intarnational Private Limited,https://www.indiamart.com/manisha-international-india/?pos=143&kwd=carry cot&tags=CC||||8752.144||product|||NA|rsf:gd-|-stype:attr=1|qr_nm:gd|res:RC3|com-cf:nl|ptrs:na|ktp:N0|mc:654590|mtp:S|qry_typ:P|lang:en|wc:2|cs:8892|v=4,False,Saidulajab,New Delhi,"No. 1- A, First Floor, Khasra No. 275, Westend Marg, Saidulajab, Saidulajab, New Delhi - 110030, Dist.Delhi, Delhi",8047689247,
Kids Carry Cot Bouncer,,New Shiv Plastic,https://www.indiamart.com/new-shiv-plastic/?pos=144&kwd=carry cot&tags=CC||||8786.56||product|||NA|rsf:gd-|-stype:attr=1|qr_nm:gd|res:RC3|com-cf:nl|ptrs:na|ktp:N0|mc:654590|mtp:S|qry_typ:P|lang:en|wc:2|cs:8892|v=4,False,FeelKhana,Hyderabad,"15-8-511/12 to 17, Begum bazar, FeelKhana, Hyderabad - 500012, Dist.Hyderabad, Telangana",8048372841,531
Multicolour Baby Carry Cot,,Tatewar Cycle Stores,https://www.indiamart.com/tatewar-cycle-stores/?pos=145&kwd=carry cot&tags=CC||||8854.992||product|||NA|rsf:gd-|-stype:attr=1|qr_nm:gd|res:RC3|com-cf:nl|ptrs:na|ktp:N0|mc:654590|mtp:S|qry_typ:P|lang:en|wc:2|cs:8892|v=4,False,,Wani,"Prabhag No 5,Property No P5001144, Chowck,Wani,Wani,Yavatmal, Wani - 445304, Dist.Yavatmal, Maharashtra",8069857318,535
Carry Cot 12 X 1,,Chinar Bicycles,https://www.indiamart.com/chinar-bicycles-delhi/?pos=146&kwd=carry cot&tags=CC||||8752.144|Price|product|||NA|rsf:gd-|-stype:attr=1|qr_nm:gd|res:RC3|com-cf:nl|ptrs:na|ktp:N0|mc:654590|mtp:S|qry_typ:P|lang:en|wc:2|cs:8892|v=4,False,Nangloi,New Delhi,"B- 51 Lakshmi Park, Nangloi, Nangloi, New Delhi - 110041, Dist.Delhi, Delhi",8048372518,522
10 In One Rocking Baby Carry Cot,,Anant Toy Shop,https://www.indiamart.com/anant-toy-shop/?pos=147&kwd=carry cot&tags=CC||||8752.144||product|||NA|rsf:gd-|-stype:attr=1|qr_nm:gd|res:RC3|com-cf:nl|ptrs:na|ktp:N0|mc:654590|mtp:S|qry_typ:P|lang:en|wc:2|cs:8892|v=4,False,Pandav Nagar,Delhi,"A-51, Pandav Nagar, Near Mother Dairy Plant, Pandav Nagar, Delhi - 110092, Dist.Delhi, Delhi",8048372364,714
Carry Cots,,Nureca Limited,https://www.indiamart.com/nureca-limited-chandigarh/?pos=148&kwd=carry cot&tags=CC||||8746.929||product|||NA|rsf:gd-|-stype:attr=1|qr_nm:gd|res:RC3|com-cf:nl|ptrs:na|ktp:N0|mc:654590|mtp:S|qry_typ:P|lang:en|wc:2|cs:8892|v=4,False,Sector 9D Madhya Marg,Chandigarh,"plot Number 110 Industrial And Business Park Phase 1 SCO 6-7-8, 1st Floor, Sector 9D Madhya Marg, Chandigarh - 160002, Chandigarh",8069051328,350
Carry Cots,,Sweet Root,https://www.indiamart.com/sweet-root/?pos=149&kwd=carry cot&tags=CC||||8663.873||product|||NA|rsf:gd-|-stype:attr=1|qr_nm:gd|res:RC3|com-cf:nl|ptrs:na|ktp:N0|mc:654590|mtp:S|qry_typ:P|lang:en|wc:2|cs:8892|v=4,False,New Thippasandra,Bengaluru,"No. 5/1, First Floor, New Thippasandra Market Above Univercell HAL, 3rd Stage, New Thippasandra, Bengaluru - 560075, Dist.Bengaluru, Karnataka",8043842581,
BABE COMFORT 12 In 1 Musical Carry Cot Cum Bo,,Babe Comfort,https://www.indiamart.com/babe-comfort/?pos=150&kwd=carry cot&tags=CC||||8752.144||product|||NA|rsf:gd-|-stype:attr=1|qr_nm:gd|res:RC3|com-cf:nl|ptrs:na|ktp:N0|mc:654590|mtp:S|qry_typ:P|lang:en|wc:2|cs:8892|v=4,False,,New Delhi,"No. 51- A, Cycle Market, Jhandewalan Extension, New Delhi - 110055, Dist.Delhi, Delhi",8048249674,5304
Baby hug Spring 5 in 1 Carry Cot Cum Rocker,,First Cry.Com,https://www.indiamart.com/first-crycom-pune/?pos=151&kwd=carry cot&tags=CC||||8307.81|Price|product|||NA|rsf:gd-|-stype:attr=1|qr_nm:gd|res:RC3|com-cf:nl|ptrs:na|ktp:N0|mc:654590|mtp:S|qry_typ:P|lang:en|wc:2|cs:8892|v=4,False,,Pune,"Nr Abhiruchimall S.no. 60/7/1a/3 Shop No 1 Singhgad Road Ground Floor,, Pune - 411051, Dist.Pune, Maharashtra",8047311022,7423
Carrycot,,Shiva Enterprises,https://www.indiamart.com/shivaenterprises-145402865/?pos=152&kwd=carry cot&tags=CC||||8823.154||product|||NA|rsf:gd-|-stype:attr=1|qr_nm:gd|res:RC3|com-cf:nl|ptrs:na|ktp:N0|mc:654590|mtp:S|qry_typ:P|lang:en|wc:2|cs:8892|v=4,False,Lohamandi,Agra,"36/11, Alamganj, Lohamandi, Agra - 282002, Dist.Agra, Uttar Pradesh",8048371959,311
Carrycots,,National Traders,https://www.indiamart.com/national-traders-surat/?pos=153&kwd=carry cot&tags=CC||||8230.883|Price|product|||NA|rsf:gd-|-stype:attr=1|qr_nm:gd|res:RC3|com-cf:nl|ptrs:na|ktp:N0|mc:654590|mtp:S|qry_typ:P|lang:en|wc:2|cs:8892|v=4,False,Gopipura,Surat,"12/1339, Mughal Mahal Basement , Behind SMC, Turkiwad Turkiwad, Gopipura, Surat - 395003, Dist.Surat, Gujarat",8047668591,
Baby Carry Cot Car Seat,,Kiran Enterprises,https://www.indiamart.com/kiran-enterprisnew-delhi/?pos=154&kwd=carry cot&tags=CC||||8752.144||product|||NA|rsf:gd-|-stype:attr=1|qr_nm:gd|res:RC3|com-cf:nl|ptrs:na|ktp:N0|mc:654590|mtp:S|qry_typ:P|lang:en|wc:2|cs:8892|v=4,False,Rohini Sector -18,New Delhi,"F-15, Suraj Park, Rohini Sector -18, Rohini Sector -18, New Delhi - 110085, Dist.Delhi, Delhi",8048247112,1619
Carry Cot,,Nurture Baby Products,https://www.indiamart.com/nurture-baby-products/?pos=155&kwd=carry cot&tags=||||8752.144||product|||NA|rsf:gd-|-stype:attr=1|qr_nm:gd|res:RC3|com-cf:nl|ptrs:na|ktp:N0|mc:654590|mtp:S|qry_typ:P|lang:en|wc:2|cs:8892|v=4,False,,New Delhi,"339/1, Than Singh Nagar, Anand Parbat, New Delhi - 110005, Dist.Delhi, Delhi",8048250554,142
Carry Cot,,L S Textiles And Exports Private Limited,https://www.indiamart.com/l-s-textiles-and-exports-private-limited/?pos=156&kwd=carry cot&tags=||||8769.508||product|||NA|rsf:gd-|-stype:attr=1|qr_nm:gd|res:RC3|com-cf:nl|ptrs:na|ktp:N0|mc:654590|mtp:S|qry_typ:P|lang:en|wc:2|cs:8892|v=4,False,KARUR,Faridabad,"4/A, BHARATHI NAGAR WEST, KARUR, KARUR, Faridabad - 121001, Dist.Faridabad, Haryana",8069857447,983
Baby Carry Cot,,Dash Star LLP,https://www.indiamart.com/dashstarllp-ghaziabad/?pos=157&kwd=carry cot&tags=||||8785.791||product|||NA|rsf:gd-|-stype:attr=1|qr_nm:gd|res:RC3|com-cf:nl|ptrs:na|ktp:N0|mc:654590|mtp:S|qry_typ:P|lang:en|wc:2|cs:8892|v=4,False,Near Delhi Press Mangal Bazar,Ghaziabad,"18/38, Site-IV, Sahibabad Industrial Area Ghaziad-201010, Near Delhi Press Mangal Bazar, Ghaziabad - 201010, Dist.Ghaziabad, Uttar Pradesh",8048249948,431
Baby Carry Cot,,The National Trading Co. Of Delhi,https://www.indiamart.com/the-national-trading-co/?pos=158&kwd=carry cot&tags=||||8752.144||product|||NA|rsf:gd-|-stype:attr=1|qr_nm:gd|res:RC3|com-cf:nl|ptrs:na|ktp:N0|mc:654590|mtp:S|qry_typ:P|lang:en|wc:2|cs:8892|v=4,False,Sadar Bazar,New Delhi,"53, Qutab Road, Near Railway Booking Agency, Sadar Bazar, New Delhi - 110006, Dist.Delhi, Delhi",8069196729,321
Baby Carry Cot,,Smart Bazaar,https://www.indiamart.com/smart-bazaar/?pos=159&kwd=carry cot&tags=||||8211.142||product|||NA|rsf:gd-|-stype:attr=1|qr_nm:gd|res:RC3|com-cf:nl|ptrs:na|ktp:N0|mc:654590|mtp:S|qry_typ:P|lang:en|wc:2|cs:8892|v=4,False,Borivali,Mumbai,"Shop No.1 Poonam Residency, Shanti Park Vijay Park Mira Road East Thane, Borivali, Mumbai - 401107, Dist.Mumbai, Maharashtra",8048249685,1203
Babe Carry Cot,,Mahaveer Enterprises,https://www.indiamart.com/mahaveer-enterpriseshyderabad/?pos=160&kwd=carry cot&tags=||||8786.56|Price|product|||NA|rsf:gd-|-stype:attr=1|qr_nm:gd|res:RC3|com-cf:nl|ptrs:na|ktp:N0|mc:654590|mtp:S|qry_typ:P|lang:en|wc:2|cs:8892|v=4,False,Begum Bazar,Hyderabad,"15-8-512/F5, 1st Floor, Aziz Plaza, Feelkhana, Begum Bazar, Hyderabad - 500012, Dist.Hyderabad, Telangana",7942663249,
Baby Swinging Carry Cot,,G Z Enterprises,https://www.indiamart.com/gz-enterprises-bengaluru/?pos=161&kwd=carry cot&tags=||||8663.873||product|||NA|rsf:gd-|-stype:attr=1|qr_nm:gd|res:RC3|com-cf:nl|ptrs:na|ktp:N0|mc:654590|mtp:S|qry_typ:P|lang:en|wc:2|cs:8892|v=4,False,West Padarayanapura,Bengaluru,"Arfathnagar No. 22, 6th Cross, West Of Padarayanapura, West Padarayanapura, Bengaluru - 560026, Dist.Bengaluru, Karnataka",8048361322,401
8 In 1 Carry Cot,,R.S.Trading,https://www.indiamart.com/rstradingraipur/?pos=162&kwd=carry cot&tags=||||9140.514||product|||NA|rsf:gd-|-stype:attr=1|qr_nm:gd|res:RC3|com-cf:nl|ptrs:na|ktp:N0|mc:654590|mtp:S|qry_typ:P|lang:en|wc:2|cs:8892|v=4,False,MG Road,Raipur,"Mohsin Market,, MG Road, Raipur - 492001, Chhattisgarh",8048371948,839
Mee Mee Cotton Baby Carry Cot,,pahiile paul,https://www.indiamart.com/atarve-mens-wear/?pos=163&kwd=carry cot&tags=||||8307.81||product|||NA|rsf:gd-|-stype:attr=1|qr_nm:gd|res:RC3|com-cf:nl|ptrs:na|ktp:N0|mc:654590|mtp:S|qry_typ:P|lang:en|wc:2|cs:8892|v=4,False,Hadapsar,Pune,"Shop No 6 Hadapsar, Hadapsar, Pune - 411028, Dist.Pune, Maharashtra",8047311018,6113
10 In 1 Baby Carrier Carry Cot,,Ombuzz Online Private Limited,https://www.indiamart.com/ombuzz-online-pvt-ltd/?pos=164&kwd=carry cot&tags=||||9520.041|Price|product|||NA|rsf:gd-|-stype:attr=1|qr_nm:gd|res:RC3|com-cf:nl|ptrs:na|ktp:N0|mc:654590|mtp:S|qry_typ:P|lang:en|wc:2|cs:8892|v=4,False,,Patna,"Mithapur Patna, Bihar, Patna - 800001, Dist.Patna, Bihar",8043844568,
Cozy 3 In 1 Multipurpose Baby Carry Cot,,R For Rabbit Baby Products Pvt Ltd,https://www.indiamart.com/r-for-rabbit-baby-products-pvt-ltd/?pos=165&kwd=carry cot&tags=||||8228.275||product|||NA|rsf:gd-|-stype:attr=1|qr_nm:gd|res:RC3|com-cf:nl|ptrs:na|ktp:N0|mc:654590|mtp:S|qry_typ:P|lang:en|wc:2|cs:8892|v=4,False,,Ahmedabad,"888/807/810,fp-25,28,t 708 Prahladnagar Area Opp.royal Archade Pinnacle, Ahmedabad - 380015, Dist.Ahmedabad, Gujarat",8048249951,595
Carry Cots,,Apple Of My I,https://www.indiamart.com/apple-my-ibengaluru/?pos=166&kwd=carry cot&tags=||||8663.873||product|||NA|rsf:gd-|-stype:attr=1|qr_nm:gd|res:RC3|com-cf:nl|ptrs:na|ktp:N0|mc:654590|mtp:S|qry_typ:P|lang:en|wc:2|cs:8892|v=4,False,12th Main Indira Nagar,Bengaluru,"No. 2985, HAL 2nd Stage, 12th Main Indira Nagar, Bengaluru - 560038, Dist.Bengaluru, Karnataka",8048249700,3264
Baby Carry Cot 12 In 1,,Prakash Genral Store,https://www.indiamart.com/prakash-general-store-muzaffarnagar/?pos=167&kwd=carry cot&tags=||||8819.914||product|||NA|rsf:gd-|-stype:attr=1|qr_nm:gd|res:RC3|com-cf:nl|ptrs:na|ktp:N0|mc:654590|mtp:S|qry_typ:P|lang:en|wc:2|cs:8892|v=4,False,Shiv Chowk,Muzaffarnagar,"33 Bhagat Singh Road, Shiv Chowk, Muzaffarnagar - 251001, Dist.Muzaffarnagar, Uttar Pradesh",8045849960,382
Carry Cot 12 In 1 Baby Products,,Sohan Singh & Sons,https://www.indiamart.com/sohansingh-and-son/?pos=168&kwd=carry cot&tags=||||8580.032||product|||NA|rsf:gd-|-stype:attr=1|qr_nm:gd|res:RC3|com-cf:nl|ptrs:na|ktp:N0|mc:654590|mtp:S|qry_typ:P|lang:en|wc:2|cs:8892|v=4,False,Saheed Bhagat Singh Market,Amritsar,"Shop No. 72, Saheed Bhagat Singh Market, Amritsar - 143001, Dist.Amritsar, Punjab",8048372021,210
4 in 1 Multipurpose Baby Carry Cot Cum Car Seat,,Playpipers Industries LLP,https://www.indiamart.com/playpipers-industries/?pos=169&kwd=carry cot&tags=||||8228.275||product|||NA|rsf:gd-|-stype:graph-attr=1|qr_nm:gd|res:RC2|com-cf:nl|ptrs:na|ktp:N0|mc:654590|mtp:S|qry_typ:P|lang:en|wc:2|cs:9466|v=4,False,Makaraba,Ahmedabad,"52 D Block,Sur No 4/1,13/3/1,Tp 84/A ,Palm Greens, Makaraba, Ahmedabad - 380051, Dist.Ahmedabad, Gujarat",8069017262,731
"Gray,Black Grey LuvLap Infant Baby Car Seat",https://www.indiamart.com/proddetail/grey-luvlap-infant-baby-car-seat-24263696312.html?pos=170&kwd=carry cot&tags=||||8740.707|Price|product|||NA|rsf:gd-|-stype:graph-attr=1|qr_nm:gd|res:RC2|com-cf:nl|ptrs:na|ktp:N0|mc:654590|mtp:S|qry_typ:P|lang:en|wc:2|cs:9466|v=4,Atharva Enterprises,https://www.indiamart.com/atharvaenterprises-zirakpur/?pos=170&kwd=carry cot&tags=||||8740.707|Price|product|||NA|rsf:gd-|-stype:graph-attr=1|qr_nm:gd|res:RC2|com-cf:nl|ptrs:na|ktp:N0|mc:654590|mtp:S|qry_typ:P|lang:en|wc:2|cs:9466|v=4,False,SAS Nagar,Sas Nagar,"Shop No. 7, Near Community Centre, Luxmi Enclave, Dhakoli, SAS Nagar, Sas Nagar - 140603, Dist.Mohali, Punjab",7942538452,
"Iron,Plastic And Cloth BABY WALKER, 8",https://www.indiamart.com/proddetail/baby-walker-25985023255.html?pos=171&kwd=carry cot&tags=||||8752.144|Price|product|||NA|rsf:gd-|-stype:graph-attr=1|qr_nm:gd|res:RC2|com-cf:nl|ptrs:na|ktp:N0|mc:654590|mtp:S|qry_typ:P|lang:en|wc:2|cs:9466|v=4,N.G. Usma Gold Baby Try Cycle,https://www.indiamart.com/ngusma-gold-babytrycycle/?pos=171&kwd=carry cot&tags=||||8752.144|Price|product|||NA|rsf:gd-|-stype:graph-attr=1|qr_nm:gd|res:RC2|com-cf:nl|ptrs:na|ktp:N0|mc:654590|mtp:S|qry_typ:P|lang:en|wc:2|cs:9466|v=4,False,YAMUNA DAIRY,New Delhi,"H. No. 228, GF, Gali No. 7, New Kardam Puri, YAMUNA DAIRY, New Delhi - 110094, Dist.Delhi, Delhi",8048610135,
Carry Cot,,Nurture Baby Products,https://www.indiamart.com/nurture-baby-products/?pos=172&kwd=carry cot&tags=||||8752.144||product|||NA|rsf:gr-|-stype:graph-attr=1|qr_nm:gd|res:RC2|com-cf:nl|ptrs:na|ktp:N0|mc:654590|mtp:S|qry_typ:P|lang:en|wc:2|cs:9466|v=4,False,,New Delhi,"339/1, Than Singh Nagar, Anand Parbat, New Delhi - 110005, Dist.Delhi, Delhi",8048250554,142
Carry Cot,https://www.indiamart.com/proddetail/carry-cot-3752220348.html?pos=173&kwd=carry cot&tags=||||8752.144||product|||NA|rsf:gr-|-stype:graph-attr=1|qr_nm:gd|res:RC2|com-cf:nl|ptrs:na|ktp:N0|mc:654590|mtp:S|qry_typ:P|lang:en|wc:2|cs:9466|v=4,Waterlemons,https://www.indiamart.com/waterlemons/?pos=173&kwd=carry cot&tags=||||8752.144||product|||NA|rsf:gr-|-stype:graph-attr=1|qr_nm:gd|res:RC2|com-cf:nl|ptrs:na|ktp:N0|mc:654590|mtp:S|qry_typ:P|lang:en|wc:2|cs:9466|v=4,False,Tughlakabad,New Delhi,"w-115,1st floor, alaknanda road,greater kailsh part2 T -18 , Main Okhla Road, Lane No. 6, Third Floor,110030,Delhi, Tughlakabad, New Delhi - 110048, Dist.Delhi, Delhi",8062245039,290
Carry Cot,,Shiv Plastic,https://www.indiamart.com/shiv-plastic-hyderabad/?pos=174&kwd=carry cot&tags=BA||||8786.56||product|||NA|rsf:gr-|-stype:graph-attr=1|qr_nm:gd|res:RC2|com-cf:nl|ptrs:na|ktp:N0|mc:654590|mtp:S|qry_typ:P|lang:en|wc:2|cs:9466|v=4,False,Afzal Gunj,Hyderabad,"15-8-511,shop no-18, ground floor,r.k. plaza ,nimbu market ,beside Aziz plaza ,Begum bazar,hydrabad-12(t.s.), Afzal Gunj, Hyderabad - 500012, Dist.Hyderabad, Telangana",8043821216,
Carry Cot,,Shiv Plastic,https://www.indiamart.com/shiv-plastic-hyderabad/?pos=175&kwd=carry cot&tags=BA||||8786.56||product|||NA|rsf:gr-|-stype:graph-attr=1|qr_nm:gd|res:RC2|com-cf:nl|ptrs:na|ktp:N0|mc:654590|mtp:S|qry_typ:P|lang:en|wc:2|cs:9466|v=4,False,Afzal Gunj,Hyderabad,"15-8-511,shop no-18, ground floor,r.k. plaza ,nimbu market ,beside Aziz plaza ,Begum bazar,hydrabad-12(t.s.), Afzal Gunj, Hyderabad - 500012, Dist.Hyderabad, Telangana",8043821216,
carry cot,,Deshpande Toys Pvt. Ltd.,https://www.indiamart.com/deshpande-toys-pvt-ltd/?pos=176&kwd=carry cot&tags=||||8307.81|Price|product|||NA|rsf:gr-|-stype:graph-attr=1|qr_nm:gd|res:RC2|com-cf:nl|ptrs:na|ktp:N0|mc:654590|mtp:S|qry_typ:P|lang:en|wc:2|cs:9466|v=4,False,Erandwane,Pune,"Survey No 39/2/2, Mehendale Garage Rd, Erandwane, Pune - 411004, Dist.Pune, Maharashtra",8048371555,487
Carry Cot,https://www.indiamart.com/proddetail/carry-cot-12630340673.html?pos=177&kwd=carry cot&tags=||||8752.144||product|||NA|rsf:gr-|-stype:graph-attr=1|qr_nm:gd|res:RC2|com-cf:nl|ptrs:na|ktp:N0|mc:654590|mtp:S|qry_typ:P|lang:en|wc:2|cs:9466|v=4,Ashoka Furniture,https://www.indiamart.com/ashoka-furniture-newdelhi/?pos=177&kwd=carry cot&tags=||||8752.144||product|||NA|rsf:gr-|-stype:graph-attr=1|qr_nm:gd|res:RC2|com-cf:nl|ptrs:na|ktp:N0|mc:654590|mtp:S|qry_typ:P|lang:en|wc:2|cs:9466|v=4,False,Paharganj,New Delhi,"No. 6971, Multani Dhanda, Gali No. 13, Paharganj, Paharganj, New Delhi - 110055, Dist.Delhi, Delhi",8047807602,
Carry Cot,,Plk Babys World,https://www.indiamart.com/plk-babys-world/?pos=178&kwd=carry cot&tags=CC||||8774.064||product|||NA|rsf:gr-|-stype:graph-attr=1|qr_nm:gd|res:RC2|com-cf:nl|ptrs:na|ktp:N0|mc:654590|mtp:S|qry_typ:P|lang:en|wc:2|cs:9466|v=4,False,,Tiruchirappalli,"No.356, 4th Cross, Chillai Nagar, Trichi, Tiruchirappalli - 620018, Dist.Tiruchirappalli, Tamil Nadu",8048372465,464
Carry Cot,,Sagar Kids Zone,https://www.indiamart.com/sagar-kids-zone/?pos=179&kwd=carry cot&tags=||||8228.275|Price|product|||NA|rsf:gr-|-stype:graph-attr=1|qr_nm:gd|res:RC2|com-cf:nl|ptrs:na|ktp:N0|mc:654590|mtp:S|qry_typ:P|lang:en|wc:2|cs:9466|v=4,False,,Ahmedabad,"Gf-4, Venus Park Height, Vejalpur, Ahmedabad - 380055, Dist.Ahmedabad, Gujarat",8048372342,150
Carry Cot,,Mother Care,https://www.indiamart.com/mother-care-goa/?pos=180&kwd=carry cot&tags=||||8306.348||product|||NA|rsf:gr-|-stype:graph-attr=1|qr_nm:gd|res:RC2|com-cf:nl|ptrs:na|ktp:N0|mc:654590|mtp:S|qry_typ:P|lang:en|wc:2|cs:9466|v=4,False,,Goa,"Prop Mr. Domnic Misquita Hotel Suhas Shop No. 4 Opp Old Mapusa Clinic Mapusa, Goa - 403515, Dist.North Goa, Goa",8048370112,2218
Carry Cot,,Mother Care,https://www.indiamart.com/mother-care-goa/?pos=181&kwd=carry cot&tags=||||8306.348||product|||NA|rsf:gr-|-stype:graph-attr=1|qr_nm:gd|res:RC2|com-cf:nl|ptrs:na|ktp:N0|mc:654590|mtp:S|qry_typ:P|lang:en|wc:2|cs:9466|v=4,False,,Goa,"Prop Mr. Domnic Misquita Hotel Suhas Shop No. 4 Opp Old Mapusa Clinic Mapusa, Goa - 403515, Dist.North Goa, Goa",8048370112,2218
Carry Cot,https://www.indiamart.com/proddetail/carry-cot-13022034033.html?pos=182&kwd=carry cot&tags=||||8769.508|Price|product|||NA|rsf:gr-|-stype:graph-attr=1|qr_nm:gd|res:RC2|com-cf:nl|ptrs:na|ktp:N0|mc:654590|mtp:S|qry_typ:P|lang:en|wc:2|cs:9466|v=4,Samarth Co.,https://www.indiamart.com/samarth-co-faridabad/?pos=182&kwd=carry cot&tags=||||8769.508|Price|product|||NA|rsf:gr-|-stype:graph-attr=1|qr_nm:gd|res:RC2|com-cf:nl|ptrs:na|ktp:N0|mc:654590|mtp:S|qry_typ:P|lang:en|wc:2|cs:9466|v=4,False,Green Field Colony,Faridabad,"Green Field Colony, Green Field Colony, Faridabad - 121003, Dist.Faridabad, Haryana",8045374877,9816
