product_title,product_link,company_name,company_link,is_verified_exporter,city_region,city,address_details,phone_number,phone_number_extension
"Knotted Baby Bed Side Guard, Crib Protector, Depends On Size, 0-36 Months",https://www.indiamart.com/proddetail/baby-bed-side-guard-crib-protector-13223324155.html?pos=1&kwd=crib bedding set&tags=BA||||8778.123|Price|product|||TS|rsf:gd-|-stype:attr=1|qr_nm:gd|res:RC4|com-cf:nl|ptrs:na|ktp:N0|mc:55575|mtp:S|qry_typ:P|lang:en|wc:3|flavl:0-1|cs:9701|v=4,Oscar Overseas,https://www.oscar-india.com/?pos=1&kwd=crib bedding set&tags=BA||||8778.123|Price|product|||TS|rsf:gd-|-stype:attr=1|qr_nm:gd|res:RC4|com-cf:nl|ptrs:na|ktp:N0|mc:55575|mtp:S|qry_typ:P|lang:en|wc:3|flavl:0-1|cs:9701|v=4,False,,Noida,"A-99 Sector 5, Noida - 201301, Dist.Gautam Budh Nagar, Uttar Pradesh",8046058290,
Multicolor PVC Christmas Crib Christmas Nativity Set,https://www.indiamart.com/proddetail/christmas-crib-christmas-nativity-set-2853572115497.html?pos=2&kwd=crib bedding set&tags=BA||||8752.144|Price|product|||TS|rsf:gd-|-stype:attr=1|qr_nm:gd|res:RC4|com-cf:nl|ptrs:na|ktp:N0|mc:55575|mtp:S|qry_typ:P|lang:en|wc:3|flavl:0-1|cs:9701|v=4,Wonderland Garden Arts And Crafts,https://www.thewonderlandwholesaler.com/?pos=2&kwd=crib bedding set&tags=BA||||8752.144|Price|product|||TS|rsf:gd-|-stype:attr=1|qr_nm:gd|res:RC4|com-cf:nl|ptrs:na|ktp:N0|mc:55575|mtp:S|qry_typ:P|lang:en|wc:3|flavl:0-1|cs:9701|v=4,False,wonderland,New Delhi,"D-10/2, Okhla Industrial Phase 1, wonderland, New Delhi - 110020, Dist.Delhi, Delhi",8048988737,
"Solid Crib Bedding Set, For Home, multicolor",https://www.indiamart.com/proddetail/crib-bedding-set-2852926330988.html?pos=3&kwd=crib bedding set&tags=BA||||8662.111||product|||TS|rsf:gd-|-stype:attr=1|qr_nm:gd|res:RC4|com-cf:nl|ptrs:na|ktp:N0|mc:55575|mtp:S|qry_typ:P|lang:en|wc:3|flavl:0-1|cs:9701|v=4,Breeze Exports,https://www.indiamart.com/breeze-exports-tirunelveli/?pos=3&kwd=crib bedding set&tags=BA||||8662.111||product|||TS|rsf:gd-|-stype:attr=1|qr_nm:gd|res:RC4|com-cf:nl|ptrs:na|ktp:N0|mc:55575|mtp:S|qry_typ:P|lang:en|wc:3|flavl:0-1|cs:9701|v=4,False,NGO Colony,Tirunelveli,"A74/1, Shop No 4, MM Complex, 5th Street, NGO A Colony, NGO Colony, Tirunelveli - 627007, Dist.Tirunelveli, Tamil Nadu",8043858397,
Crib Set,https://www.indiamart.com/proddetail/crib-set-8026140697.html?pos=4&kwd=crib bedding set&tags=BA||||8752.144|Price|product|||TS|rsf:gd-|-stype:attr=1|qr_nm:gd|res:RC4|com-cf:nl|ptrs:na|ktp:N0|mc:55575|mtp:S|qry_typ:P|lang:en|wc:3|flavl:0-1|cs:9701|v=4,K V Trading Co.,https://www.festivedecoration.com/?pos=4&kwd=crib bedding set&tags=BA||||8752.144|Price|product|||TS|rsf:gd-|-stype:attr=1|qr_nm:gd|res:RC4|com-cf:nl|ptrs:na|ktp:N0|mc:55575|mtp:S|qry_typ:P|lang:en|wc:3|flavl:0-1|cs:9701|v=4,False,Delhi Sadar Bazar,New Delhi,"5767, Gandhi Market, 2nd Floor, Near Bada Gate Sadar Bazar, Delhi Sadar Bazar, New Delhi - 110006, Dist.Delhi, Delhi",8048616984,
"Woolen Printed 8 Piece Crib Nativity Set, For DECORATION, MULTI",https://www.indiamart.com/proddetail/8-piece-crib-nativity-set-2852574221291.html?pos=5&kwd=crib bedding set&tags=BA||||8211.142|Price|product|||TS|rsf:gd-|-stype:attr=1|qr_nm:gd|res:RC4|com-cf:nl|ptrs:na|ktp:N0|mc:55575|mtp:S|qry_typ:P|lang:en|wc:3|flavl:0-1|cs:9701|v=4,More Buy Trading,https://www.indiamart.com/morebuytrading/?pos=5&kwd=crib bedding set&tags=BA||||8211.142|Price|product|||TS|rsf:gd-|-stype:attr=1|qr_nm:gd|res:RC4|com-cf:nl|ptrs:na|ktp:N0|mc:55575|mtp:S|qry_typ:P|lang:en|wc:3|flavl:0-1|cs:9701|v=4,False,Masjid Bandar,Mumbai,"1st Floor-1,11/15,Khimji Meghji House CHS,Essaji Street,Masjid Bandar West, Masjid Bandar, Mumbai - 400003, Dist.Mumbai, Maharashtra",7942866894,
"Cotton Solid large crib sets, For Home",https://www.indiamart.com/proddetail/large-crib-sets-2850508825362.html?pos=6&kwd=crib bedding set&tags=BA||||9289.285|Price|product|||TS|rsf:gd-|-stype:attr=1|qr_nm:gd|res:RC4|com-cf:nl|ptrs:na|ktp:N0|mc:55575|mtp:S|qry_typ:P|lang:en|wc:3|flavl:0-1|cs:9701|v=4,Homesprings,https://www.indiamart.com/homesprings/?pos=6&kwd=crib bedding set&tags=BA||||9289.285|Price|product|||TS|rsf:gd-|-stype:attr=1|qr_nm:gd|res:RC4|com-cf:nl|ptrs:na|ktp:N0|mc:55575|mtp:S|qry_typ:P|lang:en|wc:3|flavl:0-1|cs:9701|v=4,False,MVP Colony,Visakhapatnam,"144,HOMESPRINGS,POSTOFFICE,Visakhapatnam, MVP Colony, Visakhapatnam - 530017, Dist.Visakhapatnam, Andhra Pradesh",7942822091,
CHRISTMAS NATIVITY CRIB SET 10413M3 ( 6 INCH 11 PIECES),https://www.indiamart.com/proddetail/christmas-nativity-crib-set-10413m3-6-inch-11-pieces-2852564940488.html?pos=7&kwd=crib bedding set&tags=BA||||8500.97|Price|product|||TS|rsf:gd-|-stype:attr=1|qr_nm:gd|res:RC4|com-cf:nl|ptrs:na|ktp:N0|mc:55575|mtp:S|qry_typ:P|lang:en|wc:3|flavl:0-1|cs:9701|v=4,"Carpenta Marbonit, Varakara.P.O.",https://www.indiamart.com/carpenta-marbonit-varakarapo/?pos=7&kwd=crib bedding set&tags=BA||||8500.97|Price|product|||TS|rsf:gd-|-stype:attr=1|qr_nm:gd|res:RC4|com-cf:nl|ptrs:na|ktp:N0|mc:55575|mtp:S|qry_typ:P|lang:en|wc:3|flavl:0-1|cs:9701|v=4,False,Varakkara P.O,Thrissur,"2/47b, Carpenta Marbonit, Mannampetta, Varakkara P.O, Thrissur - 680325, Dist.Thrissur, Kerala",8047550586,
20Inch Cribset Nativity Set Xmas Set,https://www.indiamart.com/proddetail/20inch-cribset-nativity-set-xmas-set-2852875002030.html?pos=8&kwd=crib bedding set&tags=BA||||8954.051||product|||TS|rsf:gd-|-stype:attr=1|qr_nm:gd|res:RC4|com-cf:nl|ptrs:na|ktp:N0|mc:55575|mtp:S|qry_typ:P|lang:en|wc:3|flavl:0-1|cs:9701|v=4,German Art Industries,https://www.indiamart.com/germanartindustries/?pos=8&kwd=crib bedding set&tags=BA||||8954.051||product|||TS|rsf:gd-|-stype:attr=1|qr_nm:gd|res:RC4|com-cf:nl|ptrs:na|ktp:N0|mc:55575|mtp:S|qry_typ:P|lang:en|wc:3|flavl:0-1|cs:9701|v=4,False,Pulianthope,Chennai,"No. 12, Parthasarathy Street, Near Pulianthope High Road Pulianthope, Pulianthope, Chennai - 600012, Dist.Chennai, Tamil Nadu",8046064618,
Multicolor Fiber Christmas Nativity Crib Set,https://www.indiamart.com/proddetail/christmas-nativity-crib-set-21703412573.html?pos=9&kwd=crib bedding set&tags=BA||||8774.064|Price|product|||TS|rsf:gd-|-stype:attr=1|qr_nm:gd|res:RC4|com-cf:nl|ptrs:na|ktp:N0|mc:55575|mtp:S|qry_typ:P|lang:en|wc:3|flavl:0-1|cs:9701|v=4,Therasa Markketing,https://www.indiamart.com/therasa-markketing/?pos=9&kwd=crib bedding set&tags=BA||||8774.064|Price|product|||TS|rsf:gd-|-stype:attr=1|qr_nm:gd|res:RC4|com-cf:nl|ptrs:na|ktp:N0|mc:55575|mtp:S|qry_typ:P|lang:en|wc:3|flavl:0-1|cs:9701|v=4,False,srirangam,Tiruchirappalli,"73/1, Mela Street, Melur, Srirangam, srirangam, Tiruchirappalli - 620006, Dist.Tiruchirappalli, Tamil Nadu",7942534667,
"White Wooden Christmas Crib Bedding Set, Size: 30x10 Cm",https://www.indiamart.com/proddetail/wooden-christmas-crib-bedding-set-22591448497.html?pos=10&kwd=crib bedding set&tags=BA||||8481.854|Price|product|||NA|rsf:gd-|-stype:attr=1|qr_nm:gd|res:RC4|com-cf:nl|ptrs:na|ktp:N0|mc:55575|mtp:S|qry_typ:P|lang:en|wc:3|flavl:0-1|cs:9701|v=4,Artehouse,https://www.indiamart.com/artehouse/?pos=10&kwd=crib bedding set&tags=BA||||8481.854|Price|product|||NA|rsf:gd-|-stype:attr=1|qr_nm:gd|res:RC4|com-cf:nl|ptrs:na|ktp:N0|mc:55575|mtp:S|qry_typ:P|lang:en|wc:3|flavl:0-1|cs:9701|v=4,False,Brahmakulam,Guruvayur,"English Cafe, Municipal Building, East Nada, Brahmakulam, Guruvayur - 680104, Dist.Thrissur, Kerala",8048262918,
Christmas Crib Set,,F N Roofs,https://www.indiamart.com/fnroofs/?pos=11&kwd=crib bedding set&tags=BB||||8511.139|Price|product|||NA|rsf:gd-|-stype:attr=1|qr_nm:gd|res:RC4|com-cf:nl|ptrs:na|ktp:N0|mc:55575|mtp:S|qry_typ:P|lang:en|wc:3|flavl:0-1|cs:9701|v=4,False,,Kadungalloor,"Xii/189c, Ground Floor, Near Railway Gate, Purayar,, Aluva, Kadungalloor - 683102, Dist.Ernakulam, Kerala",8043852735,
Christmas Crib Set,,Creation Art World,https://www.indiamart.com/creation-art-world/?pos=12&kwd=crib bedding set&tags=BA||||8211.142||product|||NA|rsf:gd-|-stype:attr=1|qr_nm:gd|res:RC4|com-cf:nl|ptrs:na|ktp:N0|mc:55575|mtp:S|qry_typ:P|lang:en|wc:3|flavl:0-1|cs:9701|v=4,False,Goregaon East,Mumbai,"B 33 Film City Road, Goregaon East, Mumbai - 400063, Dist.Mumbai, Maharashtra",7942661944,
"12"" Crib Set",https://www.indiamart.com/proddetail/12-crib-set-24235957497.html?pos=13&kwd=crib bedding set&tags=BA||||8774.064|Price|product|||NA|rsf:gd-|-stype:attr=1|qr_nm:gd|res:RC4|com-cf:nl|ptrs:na|ktp:N0|mc:55575|mtp:S|qry_typ:P|lang:en|wc:3|flavl:0-1|cs:9701|v=4,Kanya Krafts,https://www.indiamart.com/kanya-krafts/?pos=13&kwd=crib bedding set&tags=BA||||8774.064|Price|product|||NA|rsf:gd-|-stype:attr=1|qr_nm:gd|res:RC4|com-cf:nl|ptrs:na|ktp:N0|mc:55575|mtp:S|qry_typ:P|lang:en|wc:3|flavl:0-1|cs:9701|v=4,False,Sangaliandalpuram,Tiruchirappalli,"1, Kanya Krafts, Madonna Complex, Convent Road, Melapudur Opposite St. Annes Higher Secondary School, Sangaliandalpuram, Tiruchirappalli - 620001, Dist.Tiruchirappalli, Tamil Nadu",8043866387,
Nativity Crib Set,,Creative Arts,https://www.indiamart.com/creativeartsnewdelhi/?pos=14&kwd=crib bedding set&tags=BB||||8752.144|Price|product|||NA|rsf:gd-|-stype:attr=1|qr_nm:gd|res:RC4|com-cf:nl|ptrs:na|ktp:N0|mc:55575|mtp:S|qry_typ:P|lang:en|wc:3|flavl:0-1|cs:9701|v=4,False,,New Delhi,"H No-27 Matiyala Village Matiala, New Delhi - 110059, Dist.Delhi, Delhi",8046035448,
Multicolor Marble Christmas Nativity Crib Set,https://www.indiamart.com/proddetail/christmas-nativity-crib-set-22923721312.html?pos=15&kwd=crib bedding set&tags=BA||||8984.809||product|||NA|rsf:gd-|-stype:attr=1|qr_nm:gd|res:RC4|com-cf:nl|ptrs:na|ktp:N0|mc:55575|mtp:S|qry_typ:P|lang:en|wc:3|cs:8844|v=4,SK Craft,https://www.indiamart.com/sk-crafts/?pos=15&kwd=crib bedding set&tags=BA||||8984.809||product|||NA|rsf:gd-|-stype:attr=1|qr_nm:gd|res:RC4|com-cf:nl|ptrs:na|ktp:N0|mc:55575|mtp:S|qry_typ:P|lang:en|wc:3|cs:8844|v=4,False,Shakti Nagar,Jabalpur,"A2/1, Ratan Nagar, Gupteshwar Road, Shakti Nagar, Jabalpur - 482001, Dist.Jabalpur, Madhya Pradesh",8048371767,287
"Multicolor Resin Home Nativity Crib Set, Size: 8 Inch",https://www.indiamart.com/proddetail/resin-home-nativity-crib-set-27541442848.html?pos=16&kwd=crib bedding set&tags=BB||||8211.142|Price|product|||NA|rsf:gd-|-stype:attr=1|qr_nm:gd|res:RC4|com-cf:nl|ptrs:na|ktp:N0|mc:55575|mtp:S|qry_typ:P|lang:en|wc:3|cs:8844|v=4,G R Enterprises,https://www.indiamart.com/g-r-enterprisesmumbai/?pos=16&kwd=crib bedding set&tags=BB||||8211.142|Price|product|||NA|rsf:gd-|-stype:attr=1|qr_nm:gd|res:RC4|com-cf:nl|ptrs:na|ktp:N0|mc:55575|mtp:S|qry_typ:P|lang:en|wc:3|cs:8844|v=4,False,Suburban,Mumbai,"Shram Safalaya Society, A/7, Tilak Nagar, 90 Feet Road, Suburban, Mumbai - 400072, Dist.Mumbai, Maharashtra",7942675251,
Wooden Rectangular Christmas Crib Nativity Set Charni House,https://www.indiamart.com/proddetail/christmas-crib-nativity-set-charni-house-2853059498973.html?pos=17&kwd=crib bedding set&tags=BA||||9104.467|Price|product|||NA|rsf:gd-|-stype:attr=1|qr_nm:gd|res:RC4|com-cf:nl|ptrs:na|ktp:N0|mc:55575|mtp:S|qry_typ:P|lang:en|wc:3|cs:8844|v=4,VR Trade Cente,https://www.indiamart.com/vrtc-wooden-work/?pos=17&kwd=crib bedding set&tags=BA||||9104.467|Price|product|||NA|rsf:gd-|-stype:attr=1|qr_nm:gd|res:RC4|com-cf:nl|ptrs:na|ktp:N0|mc:55575|mtp:S|qry_typ:P|lang:en|wc:3|cs:8844|v=4,False,,Durg-Bhilai Nagar,"Sikola Bhata Dhamdha Road, Durg-Bhilai Nagar - 491001, Chhattisgarh",8048370026,7283
Christmas Crib Set,https://www.indiamart.com/proddetail/christmas-crib-set-22655271033.html?pos=18&kwd=crib bedding set&tags=BA||||8807.154||product|||NA|rsf:gd-|-stype:attr=1|qr_nm:gd|res:RC4|com-cf:nl|ptrs:na|ktp:N0|mc:55575|mtp:S|qry_typ:P|lang:en|wc:3|cs:8844|v=4,Johnson Statue Center,https://www.indiamart.com/johnson-statue-center/?pos=18&kwd=crib bedding set&tags=BA||||8807.154||product|||NA|rsf:gd-|-stype:attr=1|qr_nm:gd|res:RC4|com-cf:nl|ptrs:na|ktp:N0|mc:55575|mtp:S|qry_typ:P|lang:en|wc:3|cs:8844|v=4,False,,Sardhana,"Old Chhawni Nera Church Sardhana, Sardhana - 250342, Dist.Meerut, Uttar Pradesh",8048372414,337
Baby's Bedding set ( Pack of 6),https://www.indiamart.com/proddetail/baby-s-bedding-set-pack-of-6-2853400548430.html?pos=19&kwd=crib bedding set&tags=||||8211.142|Price|product|||TS|rsf:gd-|-stype:attr=1|qr_nm:gd|res:RC4|com-cf:nl|ptrs:na|ktp:N0|mc:55575|mtp:S|qry_typ:P|lang:en|wc:3|cs:8844|v=4,Sidhshlok Enterprises,https://www.indiamart.com/sidhshlokenterprises/?pos=19&kwd=crib bedding set&tags=||||8211.142|Price|product|||TS|rsf:gd-|-stype:attr=1|qr_nm:gd|res:RC4|com-cf:nl|ptrs:na|ktp:N0|mc:55575|mtp:S|qry_typ:P|lang:en|wc:3|cs:8844|v=4,False,Mulund West,Mumbai,"A-9, Chagpar Khimaji, R R T Road, Mumbai Suburban, Mulund West, Mumbai - 400080, Dist.Mumbai, Maharashtra",7942832648,
Christmas Crib Set,https://www.indiamart.com/proddetail/christmas-crib-set-2852997517355.html?pos=20&kwd=crib bedding set&tags=CC||||8601.347|Price|product|||MDC|rsf:gd-|-stype:attr=1|qr_nm:gd|res:RC4|com-cf:nl|ptrs:na|ktp:N0|mc:55575|mtp:S|qry_typ:P|lang:en|wc:3|cs:8844|v=4,Maatimeet Grameen private limited,https://www.indiamart.com/maatimeetgrameen/?pos=20&kwd=crib bedding set&tags=CC||||8601.347|Price|product|||MDC|rsf:gd-|-stype:attr=1|qr_nm:gd|res:RC4|com-cf:nl|ptrs:na|ktp:N0|mc:55575|mtp:S|qry_typ:P|lang:en|wc:3|cs:8844|v=4,False,Arjun Nagar,Jaipur,"18, Mahesh Path, Keshav Vihar, Gopal Pura Byepass, Arjun Nagar, Jaipur - 302018, Dist.Jaipur, Rajasthan",7942675794,
"Micro Cotton Multicolor Baby Sleeping Bed Set, For Home",https://www.indiamart.com/proddetail/baby-sleeping-bed-set-26266030697.html?pos=21&kwd=crib bedding set&tags=||||8752.144|Price|product|||TS|rsf:gd-|-stype:attr=1|qr_nm:gd|res:RC4|com-cf:nl|ptrs:na|ktp:N0|mc:55575|mtp:S|qry_typ:P|lang:en|wc:3|cs:8844|v=4,Verma Enterprises,https://www.styaloindia.com/?pos=21&kwd=crib bedding set&tags=||||8752.144|Price|product|||TS|rsf:gd-|-stype:attr=1|qr_nm:gd|res:RC4|com-cf:nl|ptrs:na|ktp:N0|mc:55575|mtp:S|qry_typ:P|lang:en|wc:3|cs:8844|v=4,False,Samaypur,New Delhi,"Plot No.180/1-B, Kh.No. 955/1, 1st, Block-C, Raja Vihar, Siraspur, Badli, North West Delhi, Samaypur, New Delhi - 110042, Dist.Delhi, Delhi",8047654672,
"Bedding Set Thick Base, Foldable Mattress, Colorful Pillow And Both Side Zip Closure Mosquito Net",https://www.indiamart.com/proddetail/bedding-set-thick-base-foldable-mattress-colorful-pillow-and-both-side-zip-closure-mosquito-net-24622598930.html?pos=22&kwd=crib bedding set&tags=||||9842.824|Price|product|||TS|rsf:gd-|-stype:attr=1|qr_nm:gd|res:RC4|com-cf:nl|ptrs:na|ktp:N0|mc:55575|mtp:S|qry_typ:P|lang:en|wc:3|cs:8844|v=4,Indilittle Global Export,https://www.indiamart.com/indilittleglobalexport/?pos=22&kwd=crib bedding set&tags=||||9842.824|Price|product|||TS|rsf:gd-|-stype:attr=1|qr_nm:gd|res:RC4|com-cf:nl|ptrs:na|ktp:N0|mc:55575|mtp:S|qry_typ:P|lang:en|wc:3|cs:8844|v=4,False,Haripal,Hooghly,"BRAHMANPARA, NALIKUL PASCHIM, HARIPAL, Haripal, Hooghly - 712405, Dist.Hooghly, West Bengal",8048977919,
"Soft Baby Wool Bedding Set - cream, For Home, Solid",https://www.indiamart.com/proddetail/soft-baby-wool-bedding-set-cream-2852506098430.html?pos=23&kwd=crib bedding set&tags=||||8752.144|Price|product|||TS|rsf:gd-|-stype:attr=1|qr_nm:gd|res:RC4|com-cf:nl|ptrs:na|ktp:N0|mc:55575|mtp:S|qry_typ:P|lang:en|wc:3|cs:8844|v=4,Ekta Overseas,https://www.indiamart.com/ektaoverseas-newdelhi/?pos=23&kwd=crib bedding set&tags=||||8752.144|Price|product|||TS|rsf:gd-|-stype:attr=1|qr_nm:gd|res:RC4|com-cf:nl|ptrs:na|ktp:N0|mc:55575|mtp:S|qry_typ:P|lang:en|wc:3|cs:8844|v=4,False,Shahdara,New Delhi,"1/95, Gali No.3, Near Navjeevan Phisical Center, Vishwas Nagar, Shahdara,, Shahdara, New Delhi - 110032, Dist.Delhi, Delhi",7942628926,
BABY BEDDING SET,https://www.indiamart.com/proddetail/baby-bedding-set-2849899207055.html?pos=24&kwd=crib bedding set&tags=||||8752.144|Price|product|||TS|rsf:gd-|-stype:attr=1|qr_nm:gd|res:RC4|com-cf:nl|ptrs:na|ktp:N0|mc:55575|mtp:S|qry_typ:P|lang:en|wc:3|cs:8844|v=4,National Overseas,https://www.indiamart.com/nationaltraders-vishwashnagar/?pos=24&kwd=crib bedding set&tags=||||8752.144|Price|product|||TS|rsf:gd-|-stype:attr=1|qr_nm:gd|res:RC4|com-cf:nl|ptrs:na|ktp:N0|mc:55575|mtp:S|qry_typ:P|lang:en|wc:3|cs:8844|v=4,False,Shahdara,New Delhi,"1/99, Gali No. 3, Vishwas Nagar, Shahdara, New Delhi - 110032, Dist.Delhi, Delhi",8046047673,
"Cotton Multicolor baby bedding set, For Home",https://www.indiamart.com/proddetail/baby-bedding-set-24427580912.html?pos=25&kwd=crib bedding set&tags=||||8228.275|Price|product|||TS|rsf:gd-|-stype:attr=1|qr_nm:gd|res:RC4|com-cf:nl|ptrs:na|ktp:N0|mc:55575|mtp:S|qry_typ:P|lang:en|wc:3|cs:8844|v=4,Panchratna Handicraft,https://www.indiamart.com/panchratnahadicraft/?pos=25&kwd=crib bedding set&tags=||||8228.275|Price|product|||TS|rsf:gd-|-stype:attr=1|qr_nm:gd|res:RC4|com-cf:nl|ptrs:na|ktp:N0|mc:55575|mtp:S|qry_typ:P|lang:en|wc:3|cs:8844|v=4,False,Nikol,Ahmedabad,"33, Ishwarkrupa Society, Opposite Jivanwadi, Nikol Gam Road, Nikol, Nikol, Ahmedabad - 382350, Dist.Ahmedabad, Gujarat",8048980894,
Chhote Janab Baby Bedding Razai Set,https://www.indiamart.com/proddetail/baby-bedding-razai-set-19619271155.html?pos=26&kwd=crib bedding set&tags=||||8752.144|Price|product|||TS|rsf:gd-|-stype:attr=1|qr_nm:gd|res:RC4|com-cf:nl|ptrs:na|ktp:N0|mc:55575|mtp:S|qry_typ:P|lang:en|wc:3|cs:8844|v=4,Shree Balaji Infant Wear,https://www.indiamart.com/chhotejanab/?pos=26&kwd=crib bedding set&tags=||||8752.144|Price|product|||TS|rsf:gd-|-stype:attr=1|qr_nm:gd|res:RC4|com-cf:nl|ptrs:na|ktp:N0|mc:55575|mtp:S|qry_typ:P|lang:en|wc:3|cs:8844|v=4,False,Pahari Dhiraj,New Delhi,"1583- 84, Hathi Khana, Aziz Ganj, Bahadur Garh Road, Pahari Dhiraj, New Delhi - 110006, Dist.Delhi, Delhi",8047639754,
"Indo Mix Cotton Baby Mosquito Net, For Home, 300 Gm",https://www.indiamart.com/proddetail/baby-mosquito-net-2850586317730.html?pos=27&kwd=crib bedding set&tags=||||8230.883|Price|product|||TS|rsf:gd-|-stype:attr=1|qr_nm:gd|res:RC4|com-cf:nl|ptrs:na|ktp:N0|mc:55575|mtp:S|qry_typ:P|lang:en|wc:3|cs:8844|v=4,Concept Enterprise,https://www.cartforbaby.com/?pos=27&kwd=crib bedding set&tags=||||8230.883|Price|product|||TS|rsf:gd-|-stype:attr=1|qr_nm:gd|res:RC4|com-cf:nl|ptrs:na|ktp:N0|mc:55575|mtp:S|qry_typ:P|lang:en|wc:3|cs:8844|v=4,False,Dabholi,Surat,"17, Bhumi Park Society, Near Dabholi Road, Katargam, Dabholi, Surat - 395004, Dist.Surat, Gujarat",8047546659,
Baby Bedset With Pillow,https://www.indiamart.com/proddetail/baby-bedset-with-pillow-22366228133.html?pos=28&kwd=crib bedding set&tags=||||9829.308|Price|product|||TS|rsf:gd-|-stype:attr=1|qr_nm:gd|res:RC4|com-cf:nl|ptrs:na|ktp:N0|mc:55575|mtp:S|qry_typ:P|lang:en|wc:3|cs:8844|v=4,Yash Garment,https://www.indiamart.com/yash-garment/?pos=28&kwd=crib bedding set&tags=||||9829.308|Price|product|||TS|rsf:gd-|-stype:attr=1|qr_nm:gd|res:RC4|com-cf:nl|ptrs:na|ktp:N0|mc:55575|mtp:S|qry_typ:P|lang:en|wc:3|cs:8844|v=4,False,Ross Road,Howrah,"Gali No.38/25, Ross Road, Howrah - 711101, Dist.Howrah, West Bengal",7942556350,
"Stripe Recron Blue Zipper Baby Bedding Set, For Home",https://www.indiamart.com/proddetail/blue-zipper-baby-bedding-set-24888050462.html?pos=29&kwd=crib bedding set&tags=||||8954.051|Price|product|||MDC|rsf:gd-|-stype:attr=1|qr_nm:gd|res:RC4|com-cf:nl|ptrs:na|ktp:N0|mc:55575|mtp:S|qry_typ:P|lang:en|wc:3|cs:8844|v=4,Adhoniyah,https://www.indiamart.com/adhoniyah/?pos=29&kwd=crib bedding set&tags=||||8954.051|Price|product|||MDC|rsf:gd-|-stype:attr=1|qr_nm:gd|res:RC4|com-cf:nl|ptrs:na|ktp:N0|mc:55575|mtp:S|qry_typ:P|lang:en|wc:3|cs:8844|v=4,False,Jamalia,Chennai,"Ground Floor,5/4,Strahans Road I St Street,Otteri, Jamalia, Chennai - 600012, Dist.Chennai, Tamil Nadu",8048274134,
Multicolor Rectangular New born baby bed set / Comfortable New Born Baby Bedding Set,https://www.indiamart.com/proddetail/new-born-baby-bed-set-comfortable-new-born-baby-bedding-set-2853711190397.html?pos=30&kwd=crib bedding set&tags=||||8559.269|Price|product|||MDC|rsf:gd-|-stype:attr=1|qr_nm:gd|res:RC4|com-cf:nl|ptrs:na|ktp:N0|mc:55575|mtp:S|qry_typ:P|lang:en|wc:3|cs:8844|v=4,Sheza Enterprises,https://www.indiamart.com/shezaenterprises/?pos=30&kwd=crib bedding set&tags=||||8559.269|Price|product|||MDC|rsf:gd-|-stype:attr=1|qr_nm:gd|res:RC4|com-cf:nl|ptrs:na|ktp:N0|mc:55575|mtp:S|qry_typ:P|lang:en|wc:3|cs:8844|v=4,False,,Indore,"Alif House, 5, Khajrana Main Road, Opposite HP Petrol Pump,, Indore - 452001, Dist.Indore, Madhya Pradesh",7948547068,
Newborn Baby Folding Mosquito Net Portable Cots Foldable Crib Bottomless Bed - Blue,https://www.indiamart.com/proddetail/newborn-baby-folding-mosquito-net-portable-cots-foldable-crib-bottomless-bed-blue-2852641470762.html?pos=31&kwd=crib bedding set&tags=||||8663.873|Price|product|||TS|rsf:gd-|-stype:attr=1|qr_nm:gd|res:RC4|com-cf:nl|ptrs:na|ktp:N0|mc:55575|mtp:S|qry_typ:P|lang:en|wc:3|cs:8844|v=4,Color Myles,https://www.indiamart.com/colormyleskarnataka/?pos=31&kwd=crib bedding set&tags=||||8663.873|Price|product|||TS|rsf:gd-|-stype:attr=1|qr_nm:gd|res:RC4|com-cf:nl|ptrs:na|ktp:N0|mc:55575|mtp:S|qry_typ:P|lang:en|wc:3|cs:8844|v=4,False,Krishnarajapuram,Bengaluru,"No. 96, Basavanapura Main Road, Krishnarajapuram, Bengaluru - 560036, Dist.Bengaluru, Karnataka",8046044317,
"Cotton Zip Baby Beds, Size: 20x36 Inch",https://www.indiamart.com/proddetail/baby-beds-19354913033.html?pos=32&kwd=crib bedding set&tags=||||8706.263|Price|product|||TS|rsf:gd-|-stype:attr=1|qr_nm:gd|res:RC4|com-cf:nl|ptrs:na|ktp:N0|mc:55575|mtp:S|qry_typ:P|lang:en|wc:3|cs:8844|v=4,Sankari Plastic,https://www.spmosquitonet.com/?pos=32&kwd=crib bedding set&tags=||||8706.263|Price|product|||TS|rsf:gd-|-stype:attr=1|qr_nm:gd|res:RC4|com-cf:nl|ptrs:na|ktp:N0|mc:55575|mtp:S|qry_typ:P|lang:en|wc:3|cs:8844|v=4,False,Karur,Karur,"No. 59/A3, Thillai Nagar East, Karur, Karur - 639005, Dist.Karur, Tamil Nadu",8048954769,
"Intelock With Wadding Aop Baby Hooded Bed, 800 Gms, New Born 0-2 Yrs",https://www.indiamart.com/proddetail/baby-hooded-bed-14180524512.html?pos=33&kwd=crib bedding set&tags=||||8626.744|Price|product|||TS|rsf:gd-|-stype:attr=1|qr_nm:gd|res:RC4|com-cf:nl|ptrs:na|ktp:N0|mc:55575|mtp:S|qry_typ:P|lang:en|wc:3|cs:8844|v=4,Sudarshaan Impex,https://www.sudarshaanimpex.com/?pos=33&kwd=crib bedding set&tags=||||8626.744|Price|product|||TS|rsf:gd-|-stype:attr=1|qr_nm:gd|res:RC4|com-cf:nl|ptrs:na|ktp:N0|mc:55575|mtp:S|qry_typ:P|lang:en|wc:3|cs:8844|v=4,False,Jeeva Nagar,Tiruppur,"No.8/398C, Selvalakshmi nagar, 1st street, Angeri palayam , Tirupur - 641603., Jeeva Nagar, Tiruppur - 641603, Dist.Coimbatore, Tamil Nadu",8047630683,
"Cotton Cartoon Printed Baby Mosquito Net Bed, Size: Small",https://www.indiamart.com/proddetail/cartoon-printed-baby-mosquito-net-bed-2853223846333.html?pos=34&kwd=crib bedding set&tags=||||8211.142||product|||MDC|rsf:gd-|-stype:attr=1|qr_nm:gd|res:RC4|com-cf:nl|ptrs:na|ktp:N0|mc:55575|mtp:S|qry_typ:P|lang:en|wc:3|cs:8844|v=4,Baby Boutique,https://www.indiamart.com/baby-boutiquemumbai/?pos=34&kwd=crib bedding set&tags=||||8211.142||product|||MDC|rsf:gd-|-stype:attr=1|qr_nm:gd|res:RC4|com-cf:nl|ptrs:na|ktp:N0|mc:55575|mtp:S|qry_typ:P|lang:en|wc:3|cs:8844|v=4,False,Masjid Bandar,Mumbai,"7th, 95/99 Flat No. 701, Noori Tower, Sherriff Devi Street, Mandvi, Masjid Bandar, West Mumbai, Masjid Bandar, Mumbai - 400003, Dist.Mumbai, Maharashtra",7942960570,
"Blue Rectangular Baby Sleeping Bed Set, Cotton",https://www.indiamart.com/proddetail/baby-sleeping-bed-set-19259131230.html?pos=35&kwd=crib bedding set&tags=||||8752.144|Price|product|||TS|rsf:gd-|-stype:attr=1|qr_nm:gd|res:RC4|com-cf:nl|ptrs:na|ktp:N0|mc:55575|mtp:S|qry_typ:P|lang:en|wc:3|cs:8844|v=4,Gyasi Ram & Sons,https://www.indiamart.com/gyasi-ram-sons/?pos=35&kwd=crib bedding set&tags=||||8752.144|Price|product|||TS|rsf:gd-|-stype:attr=1|qr_nm:gd|res:RC4|com-cf:nl|ptrs:na|ktp:N0|mc:55575|mtp:S|qry_typ:P|lang:en|wc:3|cs:8844|v=4,False,Sadar Bazaar,New Delhi,"No. 459, Main Road, Sadar Bazar, Sadar Bazaar, New Delhi - 110006, Dist.Delhi, Delhi",8043865798,
"Cotton Pink Baby Bedding Set, For Home",https://www.indiamart.com/proddetail/baby-bedding-set-13112766288.html?pos=36&kwd=crib bedding set&tags=||||8954.051|Price|product|||TS|rsf:gd-|-stype:attr=1|qr_nm:gd|res:RC4|com-cf:nl|ptrs:na|ktp:N0|mc:55575|mtp:S|qry_typ:P|lang:en|wc:3|cs:8844|v=4,Hindustan Industries,https://www.indiamart.com/hindustanindustries-chennai/?pos=36&kwd=crib bedding set&tags=||||8954.051|Price|product|||TS|rsf:gd-|-stype:attr=1|qr_nm:gd|res:RC4|com-cf:nl|ptrs:na|ktp:N0|mc:55575|mtp:S|qry_typ:P|lang:en|wc:3|cs:8844|v=4,False,Seven Wells,Chennai,"No. 10/40, Mangammal Street Seven Wells, Seven Wells, Chennai - 600001, Dist.Chennai, Tamil Nadu",8046071147,
"Red Rectangular Baby Bedding Set, Cotton",https://www.indiamart.com/proddetail/baby-bedding-set-8863476362.html?pos=37&kwd=crib bedding set&tags=||||8211.142|Price|product|||TS|rsf:gd-|-stype:attr=1|qr_nm:gd|res:RC4|com-cf:nl|ptrs:na|ktp:N0|mc:55575|mtp:S|qry_typ:P|lang:en|wc:3|cs:8844|v=4,Welcome Enterprise,https://www.welcomeenterprise.in/?pos=37&kwd=crib bedding set&tags=||||8211.142|Price|product|||TS|rsf:gd-|-stype:attr=1|qr_nm:gd|res:RC4|com-cf:nl|ptrs:na|ktp:N0|mc:55575|mtp:S|qry_typ:P|lang:en|wc:3|cs:8844|v=4,False,Santacruz West,Mumbai,"1,Gulam Rasul Chawl No. 149,Khot Wadi, Besant Road,Santacruz West, Santacruz West, Mumbai - 400054, Dist.Mumbai, Maharashtra",8048601972,
"Baby Dohar Baby Bedding, Size: 44*44 Inches",https://www.indiamart.com/proddetail/baby-dohar-baby-bedding-22834970930.html?pos=38&kwd=crib bedding set&tags=||||8601.347|Price|product|||TS|rsf:gd-|-stype:attr=1|qr_nm:gd|res:RC4|com-cf:nl|ptrs:na|ktp:N0|mc:55575|mtp:S|qry_typ:P|lang:en|wc:3|cs:8844|v=4,Meera Handicrafts,https://www.meerahandicrafts.in/?pos=38&kwd=crib bedding set&tags=||||8601.347|Price|product|||TS|rsf:gd-|-stype:attr=1|qr_nm:gd|res:RC4|com-cf:nl|ptrs:na|ktp:N0|mc:55575|mtp:S|qry_typ:P|lang:en|wc:3|cs:8844|v=4,True,Govind Nagar,Jaipur,"Govind Nagar Vistar, Plot No 54b, Dussehra Kothi, Amer Road, Govind Nagar, Jaipur - 302002, Dist.Jaipur, Rajasthan",8048618585,
"Flannel Printed Baby Bedding Set (FLANNO), For Home",https://www.indiamart.com/proddetail/baby-bedding-set-flanno-2850430437255.html?pos=39&kwd=crib bedding set&tags=||||8747.203|Price|product|||TS|rsf:gd-|-stype:attr=1|qr_nm:gd|res:RC4|com-cf:nl|ptrs:na|ktp:N0|mc:55575|mtp:S|qry_typ:P|lang:en|wc:3|cs:8844|v=4,Paras Blanket,https://www.parasblanket.com/?pos=39&kwd=crib bedding set&tags=||||8747.203|Price|product|||TS|rsf:gd-|-stype:attr=1|qr_nm:gd|res:RC4|com-cf:nl|ptrs:na|ktp:N0|mc:55575|mtp:S|qry_typ:P|lang:en|wc:3|cs:8844|v=4,False,Old Housing Board Colony,Panipat,"Shop No. 1, 2, 3, New Pachranga Market Pachranga Bazar, Old Housing Board Colony, Panipat - 132103, Dist.Panipat, Haryana",8048968656,
Baby Printed Bedding Set,https://www.indiamart.com/proddetail/baby-printed-bedding-set-22826957348.html?pos=40&kwd=crib bedding set&tags=||||8211.142|Price|product|||TS|rsf:gd-|-stype:attr=1|qr_nm:gd|res:RC4|com-cf:nl|ptrs:na|ktp:N0|mc:55575|mtp:S|qry_typ:P|lang:en|wc:3|cs:8844|v=4,Child King Creation,https://www.indiamart.com/childkingcreation-mumbai/?pos=40&kwd=crib bedding set&tags=||||8211.142|Price|product|||TS|rsf:gd-|-stype:attr=1|qr_nm:gd|res:RC4|com-cf:nl|ptrs:na|ktp:N0|mc:55575|mtp:S|qry_typ:P|lang:en|wc:3|cs:8844|v=4,False,Malad West,Mumbai,"B 705, Seven Floor, Jagmagia Centre, Mamlatdar Wadi EXTN Road Nahar Nagar, Malad West, Suburban, Malad West, Mumbai - 400064, Dist.Mumbai, Maharashtra",8043805922,
"Printed 100% Organic Cotton Baby Bedding Set, For Home",https://www.indiamart.com/proddetail/100-organic-cotton-baby-bedding-set-22954476855.html?pos=41&kwd=crib bedding set&tags=||||8663.873|Price|product|||TS|rsf:gd-|-stype:attr=1|qr_nm:gd|res:RC4|com-cf:nl|ptrs:na|ktp:N0|mc:55575|mtp:S|qry_typ:P|lang:en|wc:3|cs:8844|v=4,Alpha Organics Clothing India,https://www.indiamart.com/alphaorganicsclothingindia/?pos=41&kwd=crib bedding set&tags=||||8663.873|Price|product|||TS|rsf:gd-|-stype:attr=1|qr_nm:gd|res:RC4|com-cf:nl|ptrs:na|ktp:N0|mc:55575|mtp:S|qry_typ:P|lang:en|wc:3|cs:8844|v=4,True,Indiranagar,Bengaluru,"NO.3037,INDIRANAGAR,8TH MAIN ROAD, HAL 2ND STAGE,BANGALORE, Indiranagar, Bengaluru - 560038, Dist.Bengaluru, Karnataka",7942540831,
"Foam Pillow Multicolor Femfairy Baby Bedding Set, For Home",https://www.indiamart.com/proddetail/femfairy-baby-bedding-set-2849863760891.html?pos=42&kwd=crib bedding set&tags=||||8747.203|Price|product|||TS|rsf:gd-|-stype:attr=1|qr_nm:gd|res:RC4|com-cf:nl|ptrs:na|ktp:N0|mc:55575|mtp:S|qry_typ:P|lang:en|wc:3|cs:8844|v=4,ANB Handlooms,https://www.femfairy.com/?pos=42&kwd=crib bedding set&tags=||||8747.203|Price|product|||TS|rsf:gd-|-stype:attr=1|qr_nm:gd|res:RC4|com-cf:nl|ptrs:na|ktp:N0|mc:55575|mtp:S|qry_typ:P|lang:en|wc:3|cs:8844|v=4,False,Chadau Mohalla,Panipat,"455/9, Sanoli Road, Chadau Mohalla, Panipat - 132103, Dist.Panipat, Haryana",7942544537,
Baby Printed Bedding Set,https://www.indiamart.com/proddetail/baby-printed-bedding-set-22826957348.html?pos=43&kwd=crib bedding set&tags=||||8211.142|Price|product|||TS|rsf:gd-|-stype:attr=1|qr_nm:gd|res:RC4|com-cf:nl|ptrs:na|ktp:N0|mc:55575|mtp:S|qry_typ:P|lang:en|wc:3|cs:8844|v=4,Child King Creation,https://www.indiamart.com/childkingcreation-mumbai/?pos=43&kwd=crib bedding set&tags=||||8211.142|Price|product|||TS|rsf:gd-|-stype:attr=1|qr_nm:gd|res:RC4|com-cf:nl|ptrs:na|ktp:N0|mc:55575|mtp:S|qry_typ:P|lang:en|wc:3|cs:8844|v=4,False,Malad West,Mumbai,"B 705, Seven Floor, Jagmagia Centre, Mamlatdar Wadi EXTN Road Nahar Nagar, Malad West, Suburban, Malad West, Mumbai - 400064, Dist.Mumbai, Maharashtra",8043805922,
"Printed 100% Organic Cotton Baby Bedding Set, For Home",https://www.indiamart.com/proddetail/100-organic-cotton-baby-bedding-set-22954476855.html?pos=44&kwd=crib bedding set&tags=||||8663.873|Price|product|||TS|rsf:gd-|-stype:attr=1|qr_nm:gd|res:RC4|com-cf:nl|ptrs:na|ktp:N0|mc:55575|mtp:S|qry_typ:P|lang:en|wc:3|cs:8844|v=4,Alpha Organics Clothing India,https://www.indiamart.com/alphaorganicsclothingindia/?pos=44&kwd=crib bedding set&tags=||||8663.873|Price|product|||TS|rsf:gd-|-stype:attr=1|qr_nm:gd|res:RC4|com-cf:nl|ptrs:na|ktp:N0|mc:55575|mtp:S|qry_typ:P|lang:en|wc:3|cs:8844|v=4,True,Indiranagar,Bengaluru,"NO.3037,INDIRANAGAR,8TH MAIN ROAD, HAL 2ND STAGE,BANGALORE, Indiranagar, Bengaluru - 560038, Dist.Bengaluru, Karnataka",7942540831,
"Foam Pillow Multicolor Femfairy Baby Bedding Set, For Home",https://www.indiamart.com/proddetail/femfairy-baby-bedding-set-2849863760891.html?pos=45&kwd=crib bedding set&tags=||||8747.203|Price|product|||TS|rsf:gd-|-stype:attr=1|qr_nm:gd|res:RC4|com-cf:nl|ptrs:na|ktp:N0|mc:55575|mtp:S|qry_typ:P|lang:en|wc:3|cs:8844|v=4,ANB Handlooms,https://www.femfairy.com/?pos=45&kwd=crib bedding set&tags=||||8747.203|Price|product|||TS|rsf:gd-|-stype:attr=1|qr_nm:gd|res:RC4|com-cf:nl|ptrs:na|ktp:N0|mc:55575|mtp:S|qry_typ:P|lang:en|wc:3|cs:8844|v=4,False,Chadau Mohalla,Panipat,"455/9, Sanoli Road, Chadau Mohalla, Panipat - 132103, Dist.Panipat, Haryana",7942544537,
"Hand Block Printed Cotton Baby Bedding Set manufacturer, For Home",https://www.indiamart.com/proddetail/hand-block-printed-cotton-baby-bedding-set-manufacturer-2851669575633.html?pos=46&kwd=crib bedding set&tags=||||8601.347|Price|product|||TS|rsf:gd-|-stype:attr=1|qr_nm:gd|res:RC4|com-cf:nl|ptrs:na|ktp:N0|mc:55575|mtp:S|qry_typ:P|lang:en|wc:3|cs:8844|v=4,Vandana Handicraft,https://www.vandanahandicraft.net/?pos=46&kwd=crib bedding set&tags=||||8601.347|Price|product|||TS|rsf:gd-|-stype:attr=1|qr_nm:gd|res:RC4|com-cf:nl|ptrs:na|ktp:N0|mc:55575|mtp:S|qry_typ:P|lang:en|wc:3|cs:8844|v=4,True,Sitapura Industrial Area,Jaipur,"Plot No. H-1167, Sitapura Industrial Area, Phase III, Sitapura Industrial Area, Jaipur - 302022, Dist.Jaipur, Rajasthan",8046049036,
"100% Natural Organic Cotton Printed Beautiful Handmade Baby Toddler Bedding Set, For Crib,Toddler, Multi",https://www.indiamart.com/proddetail/beautiful-handmade-baby-toddler-bedding-set-2850374592830.html?pos=47&kwd=crib bedding set&tags=||||8601.347|Price|product|||TS|rsf:gd-|-stype:attr=1|qr_nm:gd|res:RC4|com-cf:nl|ptrs:na|ktp:N0|mc:55575|mtp:S|qry_typ:P|lang:en|wc:3|cs:8844|v=4,Trade Star Exports,https://www.tradestar.co.in/?pos=47&kwd=crib bedding set&tags=||||8601.347|Price|product|||TS|rsf:gd-|-stype:attr=1|qr_nm:gd|res:RC4|com-cf:nl|ptrs:na|ktp:N0|mc:55575|mtp:S|qry_typ:P|lang:en|wc:3|cs:8844|v=4,True,,Jaipur,"H 1 1256, Riico Industrial Area, Sitapura,, Jaipur - 302022, Dist.Jaipur, Rajasthan",8046033994,
Velvet Solid Baby Bedding Set With Mosquito Net,https://www.indiamart.com/proddetail/baby-bedding-set-with-mosquito-net-2850453837612.html?pos=48&kwd=crib bedding set&tags=||||8747.203|Price|product|||TS|rsf:gd-|-stype:attr=1|qr_nm:gd|res:RC4|com-cf:nl|ptrs:na|ktp:N0|mc:55575|mtp:S|qry_typ:P|lang:en|wc:3|cs:8844|v=4,Clovis Krafts,https://www.cloviskrafts.com/?pos=48&kwd=crib bedding set&tags=||||8747.203|Price|product|||TS|rsf:gd-|-stype:attr=1|qr_nm:gd|res:RC4|com-cf:nl|ptrs:na|ktp:N0|mc:55575|mtp:S|qry_typ:P|lang:en|wc:3|cs:8844|v=4,False,Tehsil Camp,Panipat,"Vikas Nagar 314 Tehsil Camp Near Ram Mandir, Tehsil Camp, Panipat - 132103, Dist.Panipat, Haryana",8047313394,
"Rectangular Baby cotton bedding with cotton sheet and 3 pillows, 3kg Approximate, 0 To 2 Year",https://www.indiamart.com/proddetail/baby-cotton-bedding-with-cotton-sheet-and-3-pillows-2853771419473.html?pos=49&kwd=crib bedding set&tags=||||8580.032|Price|product|||TS|rsf:gd-|-stype:attr=1|qr_nm:gd|res:RC4|com-cf:nl|ptrs:na|ktp:N0|mc:55575|mtp:S|qry_typ:P|lang:en|wc:3|cs:8844|v=4,Ritu Infants Care,https://www.indiamart.com/ritu-infants-care/?pos=49&kwd=crib bedding set&tags=||||8580.032|Price|product|||TS|rsf:gd-|-stype:attr=1|qr_nm:gd|res:RC4|com-cf:nl|ptrs:na|ktp:N0|mc:55575|mtp:S|qry_typ:P|lang:en|wc:3|cs:8844|v=4,False,Sunder Nagar,Amritsar,"232, Tilak Nagar, Shivala Colony, Sunder Nagar, Amritsar - 143001, Dist.Amritsar, Punjab",7942712512,
"Cotton Red Sleeping Monkey Printed Baby Bedding Set, For Home",https://www.indiamart.com/proddetail/red-sleeping-monkey-printed-baby-bedding-set-23705242112.html?pos=50&kwd=crib bedding set&tags=||||8752.144|Price|product|||TS|rsf:gd-|-stype:attr=1|qr_nm:gd|res:RC4|com-cf:nl|ptrs:na|ktp:N0|mc:55575|mtp:S|qry_typ:P|lang:en|wc:3|cs:8844|v=4,ASW Retail Corporation,https://www.indiamart.com/aswretailcorporation/?pos=50&kwd=crib bedding set&tags=||||8752.144|Price|product|||TS|rsf:gd-|-stype:attr=1|qr_nm:gd|res:RC4|com-cf:nl|ptrs:na|ktp:N0|mc:55575|mtp:S|qry_typ:P|lang:en|wc:3|cs:8844|v=4,False,Naraina,New Delhi,"B-62/6 3rd Floor Phase II, Naraina Industrial Area, Naraina, New Delhi - 110032, Dist.Delhi, Delhi",8046060075,
Baby Gadi Sets,https://www.indiamart.com/proddetail/baby-gadi-sets-3737005297.html?pos=51&kwd=crib bedding set&tags=||||8211.142|Price|product|||TS|rsf:gd-|-stype:attr=1|qr_nm:gd|res:RC4|com-cf:nl|ptrs:na|ktp:N0|mc:55575|mtp:S|qry_typ:P|lang:en|wc:3|cs:8844|v=4,Dhrupti Creation,https://www.indiamart.com/littlecare/?pos=51&kwd=crib bedding set&tags=||||8211.142|Price|product|||TS|rsf:gd-|-stype:attr=1|qr_nm:gd|res:RC4|com-cf:nl|ptrs:na|ktp:N0|mc:55575|mtp:S|qry_typ:P|lang:en|wc:3|cs:8844|v=4,False,Malad East,Mumbai,"Gala No. 3, Jignesh Diamond House, Near Vaishnavdevi Mandir, Subhash Lane, Malad East, Malad East, Mumbai - 400097, Dist.Mumbai, Maharashtra",8048970316,
Baby Bedding,https://www.indiamart.com/proddetail/baby-bedding-20276318288.html?pos=52&kwd=crib bedding set&tags=||||8752.144|Price|product|||TS|rsf:gd-|-stype:attr=1|qr_nm:gd|res:RC4|com-cf:nl|ptrs:na|ktp:N0|mc:55575|mtp:S|qry_typ:P|lang:en|wc:3|cs:8844|v=4,Gyasi Ram & Associates,https://www.indiamart.com/gyasiram/?pos=52&kwd=crib bedding set&tags=||||8752.144|Price|product|||TS|rsf:gd-|-stype:attr=1|qr_nm:gd|res:RC4|com-cf:nl|ptrs:na|ktp:N0|mc:55575|mtp:S|qry_typ:P|lang:en|wc:3|cs:8844|v=4,False,Delhi Sadar Bazar,New Delhi,"458, Main Road, Sadar Bazar Near Bara Tooti Chowk, Delhi Sadar Bazar, New Delhi - 110006, Dist.Delhi, Delhi",8046043034,
"Super Soft Blue Furry Baby Sets, For Home",https://www.indiamart.com/proddetail/furry-baby-sets-14304059491.html?pos=53&kwd=crib bedding set&tags=||||8747.203|Price|product|||TS|rsf:gd-|-stype:attr=1|qr_nm:gd|res:RC4|com-cf:nl|ptrs:na|ktp:N0|mc:55575|mtp:S|qry_typ:P|lang:en|wc:3|cs:8844|v=4,Shiv Shakti Handloom Industries,https://www.shivshaktihandloomindustries.com/?pos=53&kwd=crib bedding set&tags=||||8747.203|Price|product|||TS|rsf:gd-|-stype:attr=1|qr_nm:gd|res:RC4|com-cf:nl|ptrs:na|ktp:N0|mc:55575|mtp:S|qry_typ:P|lang:en|wc:3|cs:8844|v=4,False,Panipat City,Panipat,"Shop 12, Krishna Market, Pachranga Bazar, Panipat City, Panipat - 132103, Dist.Panipat, Haryana",8048970618,
"Hand Block Printed 100% Cotton Baby Bedding Sets, Size: 44x44 Inches",https://www.indiamart.com/proddetail/baby-bedding-sets-22426511897.html?pos=54&kwd=crib bedding set&tags=||||8601.347|Price|product|||TS|rsf:gd-|-stype:attr=1|qr_nm:gd|res:RC4|com-cf:nl|ptrs:na|ktp:N0|mc:55575|mtp:S|qry_typ:P|lang:en|wc:3|cs:8844|v=4,Shree Ganesh Handicrafts & Textiles,https://www.shreeganeshhandicrafts.com/?pos=54&kwd=crib bedding set&tags=||||8601.347|Price|product|||TS|rsf:gd-|-stype:attr=1|qr_nm:gd|res:RC4|com-cf:nl|ptrs:na|ktp:N0|mc:55575|mtp:S|qry_typ:P|lang:en|wc:3|cs:8844|v=4,True,Amer Road,Jaipur,"Govind Nagar Vistar, Plot No 54b, Dussehra Kothi, Amer Road, Amer Road, Jaipur - 302002, Dist.Jaipur, Rajasthan",8046036982,
Polyester Pink New Born Baby Bedding,https://www.indiamart.com/proddetail/new-born-baby-bedding-2854853200855.html?pos=55&kwd=crib bedding set&tags=||||8752.144|Price|product|||MDC|rsf:gd-|-stype:attr=1|qr_nm:gd|res:RC4|com-cf:nl|ptrs:na|ktp:N0|mc:55575|mtp:S|qry_typ:P|lang:en|wc:3|cs:8844|v=4,V P Product,https://www.indiamart.com/vpproduct/?pos=55&kwd=crib bedding set&tags=||||8752.144|Price|product|||MDC|rsf:gd-|-stype:attr=1|qr_nm:gd|res:RC4|com-cf:nl|ptrs:na|ktp:N0|mc:55575|mtp:S|qry_typ:P|lang:en|wc:3|cs:8844|v=4,False,,New Delhi,"Ground Floor, H.No.- E-5/139, Gali No. - 5, East Gokal Pur, North East Delhi, New Delhi - 110094, Dist.Delhi, Delhi",8044460681,
"Cotton Rop Swing Wishing Cloud Newborn baby hanging bed, 3.2KG, New Born -5",https://www.indiamart.com/proddetail/wishing-cloud-newborn-baby-hanging-bed-26034968730.html?pos=56&kwd=crib bedding set&tags=||||8307.81|Price|product|||TS|rsf:gd-|-stype:attr=1|qr_nm:gd|res:RC4|com-cf:nl|ptrs:na|ktp:N0|mc:55575|mtp:S|qry_typ:P|lang:en|wc:3|cs:8844|v=4,Bizbee Techologies Llp,https://www.indiamart.com/bizbee-technologies-pune/?pos=56&kwd=crib bedding set&tags=||||8307.81|Price|product|||TS|rsf:gd-|-stype:attr=1|qr_nm:gd|res:RC4|com-cf:nl|ptrs:na|ktp:N0|mc:55575|mtp:S|qry_typ:P|lang:en|wc:3|cs:8844|v=4,False,Maharshi Nagar,Pune,"C/O Laxmi Warehousing Survey Number 2329 Dhani Road, Wagholi Ganga Club Road, Maharshi Nagar, Pune - 412207, Dist.Pune, Maharashtra",8046054477,
Ultra soft suede Plain CraftX Baby Sofa Bedding,https://www.indiamart.com/proddetail/craftx-baby-sofa-bedding-21789225891.html?pos=57&kwd=crib bedding set&tags=||||8752.144|Price|product|||TS|rsf:gd-|-stype:attr=1|qr_nm:gd|res:RC4|com-cf:nl|ptrs:na|ktp:N0|mc:55575|mtp:S|qry_typ:P|lang:en|wc:3|cs:8844|v=4,Craftx Inc,https://www.indiamart.com/missru-trading-company/?pos=57&kwd=crib bedding set&tags=||||8752.144|Price|product|||TS|rsf:gd-|-stype:attr=1|qr_nm:gd|res:RC4|com-cf:nl|ptrs:na|ktp:N0|mc:55575|mtp:S|qry_typ:P|lang:en|wc:3|cs:8844|v=4,False,Bawana,New Delhi,"N-191, Sec-02, Bawana Industrial Area, Bawana, New Delhi - 110084, Dist.Delhi, Delhi",8048952385,
COTTON Stripe New Born Baby Bedding,https://www.indiamart.com/proddetail/new-born-baby-bedding-27595217662.html?pos=58&kwd=crib bedding set&tags=||||8706.263|Price|product|||TS|rsf:gd-|-stype:attr=1|qr_nm:gd|res:RC4|com-cf:nl|ptrs:na|ktp:N0|mc:55575|mtp:S|qry_typ:P|lang:en|wc:3|cs:8844|v=4,Karur Export Company,https://www.karurexportcompany.in/?pos=58&kwd=crib bedding set&tags=||||8706.263|Price|product|||TS|rsf:gd-|-stype:attr=1|qr_nm:gd|res:RC4|com-cf:nl|ptrs:na|ktp:N0|mc:55575|mtp:S|qry_typ:P|lang:en|wc:3|cs:8844|v=4,True,Sri Poonkuyil Nagar,Karur,"41, 43, Kuluthu Palayam Road, Vengamedu, Sri Poonkuyil Nagar, Karur - 639006, Dist.Karur, Tamil Nadu",8048600914,
DIGITAL BABY BEDDING SET,https://www.indiamart.com/proddetail/digital-baby-bedding-set-2854002261173.html?pos=59&kwd=crib bedding set&tags=||||8747.203|Price|product|||MDC|rsf:gd-|-stype:attr=1|qr_nm:gd|res:RC4|com-cf:nl|ptrs:na|ktp:N0|mc:55575|mtp:S|qry_typ:P|lang:en|wc:3|cs:8844|v=4,Sabmix,https://www.indiamart.com/sabmix/?pos=59&kwd=crib bedding set&tags=||||8747.203|Price|product|||MDC|rsf:gd-|-stype:attr=1|qr_nm:gd|res:RC4|com-cf:nl|ptrs:na|ktp:N0|mc:55575|mtp:S|qry_typ:P|lang:en|wc:3|cs:8844|v=4,False,Jattal,Panipat,"Nehar By-Pass Near Jattal Road, Near Deshwal Petrol Pump, Jattal, Panipat - 132103, Dist.Panipat, Haryana",8045165458,
"For Home Cotton Baby Bedding Set/Baby Mosquito Net Bedding Set, Size: Medium",https://www.indiamart.com/proddetail/baby-bedding-set-baby-mosquito-net-bedding-set-23900000662.html?pos=60&kwd=crib bedding set&tags=||||8752.144|Price|product|||MDC|rsf:gd-|-stype:attr=1|qr_nm:gd|res:RC4|com-cf:nl|ptrs:na|ktp:N0|mc:55575|mtp:S|qry_typ:P|lang:en|wc:3|cs:8844|v=4,Ajjanya Handicrafts India Private Limited,https://www.indiamart.com/ajjanyahandicraftsindia/?pos=60&kwd=crib bedding set&tags=||||8752.144|Price|product|||MDC|rsf:gd-|-stype:attr=1|qr_nm:gd|res:RC4|com-cf:nl|ptrs:na|ktp:N0|mc:55575|mtp:S|qry_typ:P|lang:en|wc:3|cs:8844|v=4,False,Chand Bagh,New Delhi,"E-115, Street No. 5, Khajoori Khas, Chand Bagh, New Delhi - 110094, Dist.Delhi, Delhi",8046069808,
Single Wooden Children Bed,https://www.indiamart.com/proddetail/children-bed-set-2850353436091.html?pos=61&kwd=crib bedding set&tags=||||8642.641|Price|product|||TS|rsf:gd-|-stype:attr=1|qr_nm:gd|res:RC4|com-cf:nl|ptrs:na|ktp:N0|mc:55575|mtp:S|qry_typ:P|lang:en|wc:3|cs:8844|v=4,Childwood Play Private Limited,https://www.indiamart.com/childwood-play/?pos=61&kwd=crib bedding set&tags=||||8642.641|Price|product|||TS|rsf:gd-|-stype:attr=1|qr_nm:gd|res:RC4|com-cf:nl|ptrs:na|ktp:N0|mc:55575|mtp:S|qry_typ:P|lang:en|wc:3|cs:8844|v=4,False,Harohalli,Kanakapura,"Plot No. 324-a4, Harohalli I.a, 2nd Phase, Kiadb Industrial Area, Harohalli, Kanakapura Taluk Bengaluru Rural Karnataka, Harohalli, Kanakapura - 562112, Dist.Ramanagar, Karnataka",7942818324,
Cradle Togs Available in multiple colors Rollover Baby Bed Set,https://www.indiamart.com/proddetail/rollover-baby-bed-set-16964351030.html?pos=62&kwd=crib bedding set&tags=||||8752.144|Price|product|||TS|rsf:gd-|-stype:attr=1|qr_nm:gd|res:RC4|com-cf:nl|ptrs:na|ktp:N0|mc:55575|mtp:S|qry_typ:P|lang:en|wc:3|cs:8844|v=4,Man Singh & Sons Private Limited,https://www.babyproductsmanufacturer.com/?pos=62&kwd=crib bedding set&tags=||||8752.144|Price|product|||TS|rsf:gd-|-stype:attr=1|qr_nm:gd|res:RC4|com-cf:nl|ptrs:na|ktp:N0|mc:55575|mtp:S|qry_typ:P|lang:en|wc:3|cs:8844|v=4,False,Karol Bagh,New Delhi,"No. 13/24, 1st Floor, W. E. A., Karol Bagh, Karol Bagh, New Delhi - 110005, Dist.Delhi, Delhi",8048978579,
"Velvet Queen Hello Kitty Bed Set, Printed",https://www.indiamart.com/proddetail/hello-kitty-bed-set-2854028914462.html?pos=63&kwd=crib bedding set&tags=||||8752.144|Price|product|||TS|rsf:gd-|-stype:attr=1|qr_nm:gd|res:RC4|com-cf:nl|ptrs:na|ktp:N0|mc:55575|mtp:S|qry_typ:P|lang:en|wc:3|cs:8844|v=4,SKF Decor,https://www.skfdecor.in/?pos=63&kwd=crib bedding set&tags=||||8752.144|Price|product|||TS|rsf:gd-|-stype:attr=1|qr_nm:gd|res:RC4|com-cf:nl|ptrs:na|ktp:N0|mc:55575|mtp:S|qry_typ:P|lang:en|wc:3|cs:8844|v=4,False,Lado Sarai,New Delhi,"Basement, House No.F-343, Brahm House, Near Crisent Moul, Lado Sarai, Lado Sarai, New Delhi - 110030, Dist.Delhi, Delhi",8048985633,
Baby Medium Net Bedding Set with Zip,https://www.indiamart.com/proddetail/baby-medium-net-bedding-set-with-zip-12810137555.html?pos=64&kwd=crib bedding set&tags=||||8223.226|Price|product|||MDC|rsf:gd-|-stype:attr=1|qr_nm:gd|res:RC4|com-cf:nl|ptrs:na|ktp:N0|mc:55575|mtp:S|qry_typ:P|lang:en|wc:3|cs:8844|v=4,Wecare Solutions,https://www.indiamart.com/wecare-solutions/?pos=64&kwd=crib bedding set&tags=||||8223.226|Price|product|||MDC|rsf:gd-|-stype:attr=1|qr_nm:gd|res:RC4|com-cf:nl|ptrs:na|ktp:N0|mc:55575|mtp:S|qry_typ:P|lang:en|wc:3|cs:8844|v=4,False,Valiv,Thane,"Gala No. F-19-20, 1st Floor, Rajprabha Anand Industrial Estate Naikpada, Waliv, Valiv, Thane - 401208, Dist.Thane, Maharashtra",8047631791,
"Blue And White Baby Mosquito Net Bedding Set, For Home, Cotton",https://www.indiamart.com/proddetail/baby-mosquito-net-bedding-set-2854490133030.html?pos=65&kwd=crib bedding set&tags=||||8769.508|Price|product|||MDC|rsf:gd-|-stype:attr=1|qr_nm:gd|res:RC4|com-cf:nl|ptrs:na|ktp:N0|mc:55575|mtp:S|qry_typ:P|lang:en|wc:3|cs:8844|v=4,9noc,https://www.indiamart.com/9noc/?pos=65&kwd=crib bedding set&tags=||||8769.508|Price|product|||MDC|rsf:gd-|-stype:attr=1|qr_nm:gd|res:RC4|com-cf:nl|ptrs:na|ktp:N0|mc:55575|mtp:S|qry_typ:P|lang:en|wc:3|cs:8844|v=4,False,,Faridabad,"H No. - 1011, H.B.C Colony, Sector 21C, Faridabad - 121001, Dist.Faridabad, Haryana",7949329664,
Cotton And Recron Cotton Red Baby Net Bed Sets 4 Ribs,https://www.indiamart.com/proddetail/baby-net-bed-sets-4-ribs-21658621691.html?pos=66&kwd=crib bedding set&tags=||||9842.824|Price|product|||TS|rsf:gd-|-stype:attr=1|qr_nm:gd|res:RC4|com-cf:nl|ptrs:na|ktp:N0|mc:55575|mtp:S|qry_typ:P|lang:en|wc:3|cs:8844|v=4,Baby Mosquito Net Seller,https://www.indiamart.com/babymosquitonetseller/?pos=66&kwd=crib bedding set&tags=||||9842.824|Price|product|||TS|rsf:gd-|-stype:attr=1|qr_nm:gd|res:RC4|com-cf:nl|ptrs:na|ktp:N0|mc:55575|mtp:S|qry_typ:P|lang:en|wc:3|cs:8844|v=4,False,Kailash Nagar,Hooghly,"Paulpara, P. O. Bandel, Kailash Nagar, Hooghly - 712103, Dist.Hooghly, West Bengal",8048953197,
Plain Shaneel Fabric Red Vivo set for kids for 0 to 3 yrs,https://www.indiamart.com/proddetail/vivo-set-for-kids-for-0-to-3-yrs-2849493999055.html?pos=67&kwd=crib bedding set&tags=||||8823.154|Price|product|||TS|rsf:gd-|-stype:attr=1|qr_nm:gd|res:RC4|com-cf:nl|ptrs:na|ktp:N0|mc:55575|mtp:S|qry_typ:P|lang:en|wc:3|cs:8844|v=4,Basant Bahar Hosiery,https://www.angelsoftindia.in/?pos=67&kwd=crib bedding set&tags=||||8823.154|Price|product|||TS|rsf:gd-|-stype:attr=1|qr_nm:gd|res:RC4|com-cf:nl|ptrs:na|ktp:N0|mc:55575|mtp:S|qry_typ:P|lang:en|wc:3|cs:8844|v=4,False,Mantola,Agra,"Plot No. 29/294, Katra Hazi Hassan, Mantola, Agra - 282003, Dist.Agra, Uttar Pradesh",8047643394,
"Pink Baby Carry Bedding Bed, 2 Year",https://www.indiamart.com/proddetail/baby-carry-bedding-bed-24422576473.html?pos=68&kwd=crib bedding set&tags=||||8954.051|Price|product|||MDC|rsf:gd-|-stype:attr=1|qr_nm:gd|res:RC4|com-cf:nl|ptrs:na|ktp:N0|mc:55575|mtp:S|qry_typ:P|lang:en|wc:3|cs:8844|v=4,Upkar Agency,https://www.indiamart.com/upkaragency/?pos=68&kwd=crib bedding set&tags=||||8954.051|Price|product|||MDC|rsf:gd-|-stype:attr=1|qr_nm:gd|res:RC4|com-cf:nl|ptrs:na|ktp:N0|mc:55575|mtp:S|qry_typ:P|lang:en|wc:3|cs:8844|v=4,False,Sowcarpet,Chennai,",30,Strotten Muthiah Mudali Street,,Sowcarpet,,, Sowcarpet, Chennai - 600001, Dist.Chennai, Tamil Nadu",7942549213,
Baby Godadi Set,https://www.indiamart.com/proddetail/baby-godadi-set-2854677779088.html?pos=69&kwd=crib bedding set&tags=||||8230.883|Price|product|||MDC|rsf:gd-|-stype:attr=1|qr_nm:gd|res:RC4|com-cf:nl|ptrs:na|ktp:N0|mc:55575|mtp:S|qry_typ:P|lang:en|wc:3|cs:8844|v=4,Grow More Enterprise,https://www.indiamart.com/growmoreenterprise-surat/?pos=69&kwd=crib bedding set&tags=||||8230.883|Price|product|||MDC|rsf:gd-|-stype:attr=1|qr_nm:gd|res:RC4|com-cf:nl|ptrs:na|ktp:N0|mc:55575|mtp:S|qry_typ:P|lang:en|wc:3|cs:8844|v=4,False,Punagam,Surat,"C 38, Matrushakti Society, Punagam, Punagam, Surat - 395010, Dist.Surat, Gujarat",7942722776,
Red Printed Baby Border Bed Set,https://www.indiamart.com/proddetail/baby-border-bed-set-9417640797.html?pos=70&kwd=crib bedding set&tags=||||8211.142|Price|product|||MDC|rsf:gd-|-stype:attr=1|qr_nm:gd|res:RC4|com-cf:nl|ptrs:na|ktp:N0|mc:55575|mtp:S|qry_typ:P|lang:en|wc:3|cs:8844|v=4,Milee Fashion,https://www.indiamart.com/mileefashion/?pos=70&kwd=crib bedding set&tags=||||8211.142|Price|product|||MDC|rsf:gd-|-stype:attr=1|qr_nm:gd|res:RC4|com-cf:nl|ptrs:na|ktp:N0|mc:55575|mtp:S|qry_typ:P|lang:en|wc:3|cs:8844|v=4,False,Chedda Nagar,Mumbai,"Veer Sambhaji Nagar, Near Hanuman Mandir PL Lokhande Marg, Chembur, Chedda Nagar, Mumbai - 400089, Dist.Mumbai, Maharashtra",8048966118,
"Hand Block Printed 100% Cotton Baby Bedding Sets, Size: 44x44 Inches",https://www.indiamart.com/proddetail/baby-bedding-sets-22426511897.html?pos=71&kwd=crib bedding set&tags=||||8601.347|Price|product|||TS|rsf:gd-|-stype:attr=1|qr_nm:gd|res:RC4|com-cf:nl|ptrs:na|ktp:N0|mc:55575|mtp:S|qry_typ:P|lang:en|wc:3|cs:8844|v=4,Shree Ganesh Handicrafts & Textiles,https://www.shreeganeshhandicrafts.com/?pos=71&kwd=crib bedding set&tags=||||8601.347|Price|product|||TS|rsf:gd-|-stype:attr=1|qr_nm:gd|res:RC4|com-cf:nl|ptrs:na|ktp:N0|mc:55575|mtp:S|qry_typ:P|lang:en|wc:3|cs:8844|v=4,True,Amer Road,Jaipur,"Govind Nagar Vistar, Plot No 54b, Dussehra Kothi, Amer Road, Amer Road, Jaipur - 302002, Dist.Jaipur, Rajasthan",8046036982,
White Rectangular Cotton Oekotex Animal Print TC Baby Bedding,https://www.indiamart.com/proddetail/cotton-oekotex-animal-print-tc-baby-bedding-2853593562688.html?pos=72&kwd=crib bedding set&tags=||||8747.203|Price|product|||TS|rsf:gd-|-stype:attr=1|qr_nm:gd|res:RC4|com-cf:nl|ptrs:na|ktp:N0|mc:55575|mtp:S|qry_typ:P|lang:en|wc:3|cs:8844|v=4,National Woollen & Finishers,https://www.nationalwoollen.com/?pos=72&kwd=crib bedding set&tags=||||8747.203|Price|product|||TS|rsf:gd-|-stype:attr=1|qr_nm:gd|res:RC4|com-cf:nl|ptrs:na|ktp:N0|mc:55575|mtp:S|qry_typ:P|lang:en|wc:3|cs:8844|v=4,True,Huda,Panipat,"Plot No. 302, Industrial Area, Sector 29, Part II, Huda, Panipat - 132103, Dist.Panipat, Haryana",8048601812,
"100% Natural Organic Cotton Printed Beautiful Handmade Baby Toddler Bedding Set, For Crib,Toddler, Multi",https://www.indiamart.com/proddetail/beautiful-handmade-baby-toddler-bedding-set-2850374592830.html?pos=73&kwd=crib bedding set&tags=||||8601.347|Price|product|||TS|rsf:gd-|-stype:attr=1|qr_nm:gd|res:RC4|com-cf:nl|ptrs:na|ktp:N0|mc:55575|mtp:S|qry_typ:P|lang:en|wc:3|cs:8844|v=4,Trade Star Exports,https://www.tradestar.co.in/?pos=73&kwd=crib bedding set&tags=||||8601.347|Price|product|||TS|rsf:gd-|-stype:attr=1|qr_nm:gd|res:RC4|com-cf:nl|ptrs:na|ktp:N0|mc:55575|mtp:S|qry_typ:P|lang:en|wc:3|cs:8844|v=4,True,,Jaipur,"H 1 1256, Riico Industrial Area, Sitapura,, Jaipur - 302022, Dist.Jaipur, Rajasthan",8046033994,
"Soft Baby Wool Bedding Set - cream, For Home, Solid",https://www.indiamart.com/proddetail/soft-baby-wool-bedding-set-cream-2852506098430.html?pos=74&kwd=crib bedding set&tags=||||8752.144|Price|product|||TS|rsf:gd-|-stype:attr=1|qr_nm:gd|res:RC4|com-cf:nl|ptrs:na|ktp:N0|mc:55575|mtp:S|qry_typ:P|lang:en|wc:3|cs:8844|v=4,Ekta Overseas,https://www.indiamart.com/ektaoverseas-newdelhi/?pos=74&kwd=crib bedding set&tags=||||8752.144|Price|product|||TS|rsf:gd-|-stype:attr=1|qr_nm:gd|res:RC4|com-cf:nl|ptrs:na|ktp:N0|mc:55575|mtp:S|qry_typ:P|lang:en|wc:3|cs:8844|v=4,False,Shahdara,New Delhi,"1/95, Gali No.3, Near Navjeevan Phisical Center, Vishwas Nagar, Shahdara,, Shahdara, New Delhi - 110032, Dist.Delhi, Delhi",7942628926,
"Cotton Red Sleeping Monkey Printed Baby Bedding Set, For Home",https://www.indiamart.com/proddetail/red-sleeping-monkey-printed-baby-bedding-set-23705242112.html?pos=75&kwd=crib bedding set&tags=||||8752.144|Price|product|||TS|rsf:gd-|-stype:attr=1|qr_nm:gd|res:RC4|com-cf:nl|ptrs:na|ktp:N0|mc:55575|mtp:S|qry_typ:P|lang:en|wc:3|cs:8844|v=4,ASW Retail Corporation,https://www.indiamart.com/aswretailcorporation/?pos=75&kwd=crib bedding set&tags=||||8752.144|Price|product|||TS|rsf:gd-|-stype:attr=1|qr_nm:gd|res:RC4|com-cf:nl|ptrs:na|ktp:N0|mc:55575|mtp:S|qry_typ:P|lang:en|wc:3|cs:8844|v=4,False,Naraina,New Delhi,"B-62/6 3rd Floor Phase II, Naraina Industrial Area, Naraina, New Delhi - 110032, Dist.Delhi, Delhi",8046060075,
COTTON Stripe New Born Baby Bedding,https://www.indiamart.com/proddetail/new-born-baby-bedding-27595217662.html?pos=76&kwd=crib bedding set&tags=||||8706.263|Price|product|||TS|rsf:gd-|-stype:attr=1|qr_nm:gd|res:RC4|com-cf:nl|ptrs:na|ktp:N0|mc:55575|mtp:S|qry_typ:P|lang:en|wc:3|cs:8844|v=4,Karur Export Company,https://www.karurexportcompany.in/?pos=76&kwd=crib bedding set&tags=||||8706.263|Price|product|||TS|rsf:gd-|-stype:attr=1|qr_nm:gd|res:RC4|com-cf:nl|ptrs:na|ktp:N0|mc:55575|mtp:S|qry_typ:P|lang:en|wc:3|cs:8844|v=4,True,Sri Poonkuyil Nagar,Karur,"41, 43, Kuluthu Palayam Road, Vengamedu, Sri Poonkuyil Nagar, Karur - 639006, Dist.Karur, Tamil Nadu",8048600914,
Ultra soft suede Plain CraftX Baby Sofa Bedding,https://www.indiamart.com/proddetail/craftx-baby-sofa-bedding-21789225891.html?pos=77&kwd=crib bedding set&tags=||||8752.144|Price|product|||TS|rsf:gd-|-stype:attr=1|qr_nm:gd|res:RC4|com-cf:nl|ptrs:na|ktp:N0|mc:55575|mtp:S|qry_typ:P|lang:en|wc:3|cs:8844|v=4,Craftx Inc,https://www.indiamart.com/missru-trading-company/?pos=77&kwd=crib bedding set&tags=||||8752.144|Price|product|||TS|rsf:gd-|-stype:attr=1|qr_nm:gd|res:RC4|com-cf:nl|ptrs:na|ktp:N0|mc:55575|mtp:S|qry_typ:P|lang:en|wc:3|cs:8844|v=4,False,Bawana,New Delhi,"N-191, Sec-02, Bawana Industrial Area, Bawana, New Delhi - 110084, Dist.Delhi, Delhi",8048952385,
"Cotton Rop Swing Wishing Cloud Newborn baby hanging bed, 3.2KG, New Born -5",https://www.indiamart.com/proddetail/wishing-cloud-newborn-baby-hanging-bed-26034968730.html?pos=78&kwd=crib bedding set&tags=||||8307.81|Price|product|||TS|rsf:gd-|-stype:attr=1|qr_nm:gd|res:RC4|com-cf:nl|ptrs:na|ktp:N0|mc:55575|mtp:S|qry_typ:P|lang:en|wc:3|cs:8844|v=4,Bizbee Techologies Llp,https://www.indiamart.com/bizbee-technologies-pune/?pos=78&kwd=crib bedding set&tags=||||8307.81|Price|product|||TS|rsf:gd-|-stype:attr=1|qr_nm:gd|res:RC4|com-cf:nl|ptrs:na|ktp:N0|mc:55575|mtp:S|qry_typ:P|lang:en|wc:3|cs:8844|v=4,False,Maharshi Nagar,Pune,"C/O Laxmi Warehousing Survey Number 2329 Dhani Road, Wagholi Ganga Club Road, Maharshi Nagar, Pune - 412207, Dist.Pune, Maharashtra",8046054477,
Multicolor Rectangular New born baby bed set / Comfortable New Born Baby Bedding Set,https://www.indiamart.com/proddetail/new-born-baby-bed-set-comfortable-new-born-baby-bedding-set-2853711190397.html?pos=79&kwd=crib bedding set&tags=||||8559.269|Price|product|||MDC|rsf:gd-|-stype:attr=1|qr_nm:gd|res:RC4|com-cf:nl|ptrs:na|ktp:N0|mc:55575|mtp:S|qry_typ:P|lang:en|wc:3|cs:8844|v=4,Sheza Enterprises,https://www.indiamart.com/shezaenterprises/?pos=79&kwd=crib bedding set&tags=||||8559.269|Price|product|||MDC|rsf:gd-|-stype:attr=1|qr_nm:gd|res:RC4|com-cf:nl|ptrs:na|ktp:N0|mc:55575|mtp:S|qry_typ:P|lang:en|wc:3|cs:8844|v=4,False,,Indore,"Alif House, 5, Khajrana Main Road, Opposite HP Petrol Pump,, Indore - 452001, Dist.Indore, Madhya Pradesh",7948547068,
Baby Bed Pillow Multicolor Organic Cotton Crib Sheets,https://www.indiamart.com/proddetail/organic-cotton-crib-sheets-baby-beddings-22897879012.html?pos=80&kwd=crib bedding set&tags=||||8668.838|Price|product|||MDC|rsf:gd-|-stype:attr=1|qr_nm:gd|res:RC4|com-cf:nl|ptrs:na|ktp:N0|mc:55575|mtp:S|qry_typ:P|lang:en|wc:3|cs:8844|v=4,Home Tex Life,https://www.indiamart.com/hometexlife/?pos=80&kwd=crib bedding set&tags=||||8668.838|Price|product|||MDC|rsf:gd-|-stype:attr=1|qr_nm:gd|res:RC4|com-cf:nl|ptrs:na|ktp:N0|mc:55575|mtp:S|qry_typ:P|lang:en|wc:3|cs:8844|v=4,False,,Erode,"1,13/1,Vijay Gugan Illam,Gandhi Nagar, Vettukatuvalasu, Erode - 638011, Dist.Erode, Tamil Nadu",8044460990,
"Red Rectangular Baby Bedding Set, Cotton",https://www.indiamart.com/proddetail/baby-bedding-set-8863476362.html?pos=81&kwd=crib bedding set&tags=||||8211.142|Price|product|||TS|rsf:gd-|-stype:attr=1|qr_nm:gd|res:RC4|com-cf:nl|ptrs:na|ktp:N0|mc:55575|mtp:S|qry_typ:P|lang:en|wc:3|cs:8844|v=4,Welcome Enterprise,https://www.welcomeenterprise.in/?pos=81&kwd=crib bedding set&tags=||||8211.142|Price|product|||TS|rsf:gd-|-stype:attr=1|qr_nm:gd|res:RC4|com-cf:nl|ptrs:na|ktp:N0|mc:55575|mtp:S|qry_typ:P|lang:en|wc:3|cs:8844|v=4,False,Santacruz West,Mumbai,"1,Gulam Rasul Chawl No. 149,Khot Wadi, Besant Road,Santacruz West, Santacruz West, Mumbai - 400054, Dist.Mumbai, Maharashtra",8048601972,
"Velvet Queen Hello Kitty Bed Set, Printed",https://www.indiamart.com/proddetail/hello-kitty-bed-set-2854028914462.html?pos=82&kwd=crib bedding set&tags=||||8752.144|Price|product|||TS|rsf:gd-|-stype:attr=1|qr_nm:gd|res:RC4|com-cf:nl|ptrs:na|ktp:N0|mc:55575|mtp:S|qry_typ:P|lang:en|wc:3|cs:8844|v=4,SKF Decor,https://www.skfdecor.in/?pos=82&kwd=crib bedding set&tags=||||8752.144|Price|product|||TS|rsf:gd-|-stype:attr=1|qr_nm:gd|res:RC4|com-cf:nl|ptrs:na|ktp:N0|mc:55575|mtp:S|qry_typ:P|lang:en|wc:3|cs:8844|v=4,False,Lado Sarai,New Delhi,"Basement, House No.F-343, Brahm House, Near Crisent Moul, Lado Sarai, Lado Sarai, New Delhi - 110030, Dist.Delhi, Delhi",8048985633,
Baby Medium Net Bedding Set with Zip,https://www.indiamart.com/proddetail/baby-medium-net-bedding-set-with-zip-12810137555.html?pos=83&kwd=crib bedding set&tags=||||8223.226|Price|product|||MDC|rsf:gd-|-stype:attr=1|qr_nm:gd|res:RC4|com-cf:nl|ptrs:na|ktp:N0|mc:55575|mtp:S|qry_typ:P|lang:en|wc:3|cs:8844|v=4,Wecare Solutions,https://www.indiamart.com/wecare-solutions/?pos=83&kwd=crib bedding set&tags=||||8223.226|Price|product|||MDC|rsf:gd-|-stype:attr=1|qr_nm:gd|res:RC4|com-cf:nl|ptrs:na|ktp:N0|mc:55575|mtp:S|qry_typ:P|lang:en|wc:3|cs:8844|v=4,False,Valiv,Thane,"Gala No. F-19-20, 1st Floor, Rajprabha Anand Industrial Estate Naikpada, Waliv, Valiv, Thane - 401208, Dist.Thane, Maharashtra",8047631791,
BORN BABY DIGITAL FOURPIS SET,https://www.indiamart.com/proddetail/born-baby-digital-fourpis-set-2853403599697.html?pos=84&kwd=crib bedding set&tags=||||8230.883|Price|product|||TS|rsf:gd-|-stype:attr=1|qr_nm:gd|res:RC4|com-cf:nl|ptrs:na|ktp:N0|mc:55575|mtp:S|qry_typ:P|lang:en|wc:3|cs:8844|v=4,Maa Kiran Handloom & Jiyana,https://www.indiamart.com/maakiranhandloomjiyana/?pos=84&kwd=crib bedding set&tags=||||8230.883|Price|product|||TS|rsf:gd-|-stype:attr=1|qr_nm:gd|res:RC4|com-cf:nl|ptrs:na|ktp:N0|mc:55575|mtp:S|qry_typ:P|lang:en|wc:3|cs:8844|v=4,False,Udhana,Surat,"Shop No.17, Ground Floor, Astha Business Centre, Canal Road,, Udhana, Surat - 394185, Dist.Surat, Gujarat",7942788374,
Multicolor Rectangular New born baby bed set / Comfortable New Born Baby Bedding Set,https://www.indiamart.com/proddetail/new-born-baby-bed-set-comfortable-new-born-baby-bedding-set-2853711190397.html?pos=85&kwd=crib bedding set&tags=||||8559.269|Price|product|||MDC|rsf:gd-|-stype:attr=1|qr_nm:gd|res:RC4|com-cf:nl|ptrs:na|ktp:N0|mc:55575|mtp:S|qry_typ:P|lang:en|wc:3|cs:8844|v=4,Sheza Enterprises,https://www.indiamart.com/shezaenterprises/?pos=85&kwd=crib bedding set&tags=||||8559.269|Price|product|||MDC|rsf:gd-|-stype:attr=1|qr_nm:gd|res:RC4|com-cf:nl|ptrs:na|ktp:N0|mc:55575|mtp:S|qry_typ:P|lang:en|wc:3|cs:8844|v=4,False,,Indore,"Alif House, 5, Khajrana Main Road, Opposite HP Petrol Pump,, Indore - 452001, Dist.Indore, Madhya Pradesh",7948547068,
Baby Bed Pillow Multicolor Organic Cotton Crib Sheets,https://www.indiamart.com/proddetail/organic-cotton-crib-sheets-baby-beddings-22897879012.html?pos=86&kwd=crib bedding set&tags=||||8668.838|Price|product|||MDC|rsf:gd-|-stype:attr=1|qr_nm:gd|res:RC4|com-cf:nl|ptrs:na|ktp:N0|mc:55575|mtp:S|qry_typ:P|lang:en|wc:3|cs:8844|v=4,Home Tex Life,https://www.indiamart.com/hometexlife/?pos=86&kwd=crib bedding set&tags=||||8668.838|Price|product|||MDC|rsf:gd-|-stype:attr=1|qr_nm:gd|res:RC4|com-cf:nl|ptrs:na|ktp:N0|mc:55575|mtp:S|qry_typ:P|lang:en|wc:3|cs:8844|v=4,False,,Erode,"1,13/1,Vijay Gugan Illam,Gandhi Nagar, Vettukatuvalasu, Erode - 638011, Dist.Erode, Tamil Nadu",8044460990,
"Red Rectangular Baby Bedding Set, Cotton",https://www.indiamart.com/proddetail/baby-bedding-set-8863476362.html?pos=87&kwd=crib bedding set&tags=||||8211.142|Price|product|||TS|rsf:gd-|-stype:attr=1|qr_nm:gd|res:RC4|com-cf:nl|ptrs:na|ktp:N0|mc:55575|mtp:S|qry_typ:P|lang:en|wc:3|cs:8844|v=4,Welcome Enterprise,https://www.welcomeenterprise.in/?pos=87&kwd=crib bedding set&tags=||||8211.142|Price|product|||TS|rsf:gd-|-stype:attr=1|qr_nm:gd|res:RC4|com-cf:nl|ptrs:na|ktp:N0|mc:55575|mtp:S|qry_typ:P|lang:en|wc:3|cs:8844|v=4,False,Santacruz West,Mumbai,"1,Gulam Rasul Chawl No. 149,Khot Wadi, Besant Road,Santacruz West, Santacruz West, Mumbai - 400054, Dist.Mumbai, Maharashtra",8048601972,
Baby Duvet Cover Set,https://www.indiamart.com/proddetail/baby-duvet-cover-set-2852593549948.html?pos=88&kwd=crib bedding set&tags=||||8747.203||product|||TS|rsf:gd-|-stype:attr=1|qr_nm:gd|res:RC4|com-cf:nl|ptrs:na|ktp:N0|mc:55575|mtp:S|qry_typ:P|lang:en|wc:3|cs:8844|v=4,Supercloudy Fashion World Private Limited,https://www.indiamart.com/supercloudyfashionworld/?pos=88&kwd=crib bedding set&tags=||||8747.203||product|||TS|rsf:gd-|-stype:attr=1|qr_nm:gd|res:RC4|com-cf:nl|ptrs:na|ktp:N0|mc:55575|mtp:S|qry_typ:P|lang:en|wc:3|cs:8844|v=4,False,Huda,Panipat,"Vpo Kurar, Near Jagmehar Hatchery, Huda, Panipat - 132103, Dist.Panipat, Haryana",8047303410,
BORN BABY DIGITAL FOURPIS SET,https://www.indiamart.com/proddetail/born-baby-digital-fourpis-set-2853403599697.html?pos=89&kwd=crib bedding set&tags=||||8230.883|Price|product|||TS|rsf:gd-|-stype:attr=1|qr_nm:gd|res:RC4|com-cf:nl|ptrs:na|ktp:N0|mc:55575|mtp:S|qry_typ:P|lang:en|wc:3|cs:8844|v=4,Maa Kiran Handloom & Jiyana,https://www.indiamart.com/maakiranhandloomjiyana/?pos=89&kwd=crib bedding set&tags=||||8230.883|Price|product|||TS|rsf:gd-|-stype:attr=1|qr_nm:gd|res:RC4|com-cf:nl|ptrs:na|ktp:N0|mc:55575|mtp:S|qry_typ:P|lang:en|wc:3|cs:8844|v=4,False,Udhana,Surat,"Shop No.17, Ground Floor, Astha Business Centre, Canal Road,, Udhana, Surat - 394185, Dist.Surat, Gujarat",7942788374,
Baby Bed,https://www.indiamart.com/proddetail/baby-bed-2853101272491.html?pos=90&kwd=crib bedding set&tags=||||8734.695|Price|product|||TS|rsf:gd-|-stype:attr=1|qr_nm:gd|res:RC4|com-cf:nl|ptrs:na|ktp:N0|mc:55575|mtp:S|qry_typ:P|lang:en|wc:3|cs:8844|v=4,Welcome Polymers India Private Limited,https://www.welcomepolymers.com/?pos=90&kwd=crib bedding set&tags=||||8734.695|Price|product|||TS|rsf:gd-|-stype:attr=1|qr_nm:gd|res:RC4|com-cf:nl|ptrs:na|ktp:N0|mc:55575|mtp:S|qry_typ:P|lang:en|wc:3|cs:8844|v=4,False,Sector 17,Bahadurgarh,"Plot No.270, Sector 17, Sector 17, Bahadurgarh - 124507, Dist.Jhajjar, Haryana",8048986357,
"Gots, Grs, ISO Certified Organic Baby Crib Fabric & Baby Clothing Manufacturer from India",https://www.indiamart.com/proddetail/gots-grs-iso-certified-organic-baby-crib-fabric-baby-clothing-manufacturer-from-india-4783831488.html?pos=91&kwd=crib bedding set&tags=||||8668.838|Price|product|||TS|rsf:gd-|-stype:attr=1|qr_nm:gd|res:RC4|com-cf:nl|ptrs:na|ktp:N0|mc:55575|mtp:S|qry_typ:P|lang:en|wc:3|cs:8844|v=4,Sri Kalyan Export Private Limited,https://www.organictextileindia.com/?pos=91&kwd=crib bedding set&tags=||||8668.838|Price|product|||TS|rsf:gd-|-stype:attr=1|qr_nm:gd|res:RC4|com-cf:nl|ptrs:na|ktp:N0|mc:55575|mtp:S|qry_typ:P|lang:en|wc:3|cs:8844|v=4,False,Vilarasampatti,Erode,"192/4, Iswarya Garden, Vilarasampatti, Erode - 638107, Dist.Erode, Tamil Nadu",8048974551,
Baby Printed Comforters,https://www.indiamart.com/proddetail/baby-printed-comforters-23969871988.html?pos=92&kwd=crib bedding set&tags=||||8601.347|Price|product|||TS|rsf:gd-|-stype:attr=1|qr_nm:gd|res:RC4|com-cf:nl|ptrs:na|ktp:N0|mc:55575|mtp:S|qry_typ:P|lang:en|wc:3|cs:8844|v=4,Ramanand Industries,https://www.ramanandindustries.com/?pos=92&kwd=crib bedding set&tags=||||8601.347|Price|product|||TS|rsf:gd-|-stype:attr=1|qr_nm:gd|res:RC4|com-cf:nl|ptrs:na|ktp:N0|mc:55575|mtp:S|qry_typ:P|lang:en|wc:3|cs:8844|v=4,False,Mukundpura,Jaipur,"RIICO Industrial Area, F-151, Village Heerawala, Mukundpura, Jaipur - 303012, Dist.Jaipur, Rajasthan",8048986941,
"Maxx Furniture Stainless Steel Bunk Bed, For Hostel, Without Box",https://www.indiamart.com/proddetail/stainless-steel-bunk-bed-21074446530.html?pos=93&kwd=crib bedding set&tags=||||9848.189|Price|product|||TS|rsf:gd-|-stype:attr=1|qr_nm:gd|res:RC4|com-cf:nl|ptrs:na|ktp:N0|mc:55575|mtp:S|qry_typ:P|lang:en|wc:3|cs:8844|v=4,Maxx Furniture,https://www.maxx-furniture.com/?pos=93&kwd=crib bedding set&tags=||||9848.189|Price|product|||TS|rsf:gd-|-stype:attr=1|qr_nm:gd|res:RC4|com-cf:nl|ptrs:na|ktp:N0|mc:55575|mtp:S|qry_typ:P|lang:en|wc:3|cs:8844|v=4,False,Haidarpara,Siliguri,"Sahudangi Haat, Bhelkipara, Siliguri, Jalpaiguri,, Haidarpara, Siliguri - 734006, Dist.Darjiling, West Bengal",8048989217,
"Cotton Star LOREM BABY BED BB12, For Home, 1-3",https://www.indiamart.com/proddetail/lorem-baby-bed-bb12-2848974473155.html?pos=94&kwd=crib bedding set&tags=||||8230.883|Price|product|||TS|rsf:gd-|-stype:attr=1|qr_nm:gd|res:RC4|com-cf:nl|ptrs:na|ktp:N0|mc:55575|mtp:S|qry_typ:P|lang:en|wc:3|cs:8844|v=4,S J Fashion,https://www.indiamart.com/sjfashion/?pos=94&kwd=crib bedding set&tags=||||8230.883|Price|product|||TS|rsf:gd-|-stype:attr=1|qr_nm:gd|res:RC4|com-cf:nl|ptrs:na|ktp:N0|mc:55575|mtp:S|qry_typ:P|lang:en|wc:3|cs:8844|v=4,False,Punagam,Surat,"B4, Basement, Polaris Mall Punagam BRTS canal Road,, Punagam, Surat - 395010, Dist.Surat, Gujarat",8048958543,
King Size Baby round bed,,Kapil Enterprises,https://www.indiamart.com/kapilenterprisesnew-delhi/?pos=95&kwd=crib bedding set&tags=||||8752.144|Price|product|||MDC|rsf:gd-|-stype:attr=1|qr_nm:gd|res:RC4|com-cf:nl|ptrs:na|ktp:N0|mc:55575|mtp:S|qry_typ:P|lang:en|wc:3|cs:8844|v=4,False,Vijay Vihar,New Delhi,"Ground Floor, E-25, Vijay Vihar, Near Badi Masjid, Rohini Sector 7, North West Delhi, Vijay Vihar, New Delhi - 110085, Dist.Delhi, Delhi",7949092118,
Rectangular (Base) White MDF Wood Baby Bedding,https://www.indiamart.com/proddetail/white-mdf-wood-baby-bedding-2854879304955.html?pos=96&kwd=crib bedding set&tags=||||8810.737|Price|product|||MDC|rsf:gd-|-stype:attr=1|qr_nm:gd|res:RC4|com-cf:nl|ptrs:na|ktp:N0|mc:55575|mtp:S|qry_typ:P|lang:en|wc:3|cs:8844|v=4,Muskan Arts,https://www.indiamart.com/muskan-arts-saharanpur/?pos=96&kwd=crib bedding set&tags=||||8810.737|Price|product|||MDC|rsf:gd-|-stype:attr=1|qr_nm:gd|res:RC4|com-cf:nl|ptrs:na|ktp:N0|mc:55575|mtp:S|qry_typ:P|lang:en|wc:3|cs:8844|v=4,False,,Saharanpur,"Near Farman Masjid, Khatakheri, Saharanpur - 247001, Dist.Saharanpur, Uttar Pradesh",8041014400,
Sky Blue Rectangular Baby Cotton Foam Bed,https://www.indiamart.com/proddetail/baby-cotton-foam-bed-24326908748.html?pos=97&kwd=crib bedding set&tags=||||9140.514|Price|product|||MDC|rsf:gd-|-stype:attr=1|qr_nm:gd|res:RC4|com-cf:nl|ptrs:na|ktp:N0|mc:55575|mtp:S|qry_typ:P|lang:en|wc:3|cs:8844|v=4,Shivay Trading & Manufacturing,https://www.indiamart.com/shivaytradingmanufacturing/?pos=97&kwd=crib bedding set&tags=||||9140.514|Price|product|||MDC|rsf:gd-|-stype:attr=1|qr_nm:gd|res:RC4|com-cf:nl|ptrs:na|ktp:N0|mc:55575|mtp:S|qry_typ:P|lang:en|wc:3|cs:8844|v=4,False,Pandri,Raipur,"Plot No.94, First Floor, Indira Gandhi Vyavsayik Parisar, Cloth Market, Pandri, Pandri, Raipur - 492001, Chhattisgarh",8044012762,
Cotton Multicolor Baby Crib Bedsheet,https://www.indiamart.com/proddetail/baby-crib-bedsheet-2850900518297.html?pos=98&kwd=crib bedding set&tags=||||8717.363|Price|product|||TS|rsf:gd-|-stype:attr=1|qr_nm:gd|res:RC4|com-cf:nl|ptrs:na|ktp:N0|mc:55575|mtp:S|qry_typ:P|lang:en|wc:3|cs:8844|v=4,Hublot Impex,https://www.hublotimpex.in/?pos=98&kwd=crib bedding set&tags=||||8717.363|Price|product|||TS|rsf:gd-|-stype:attr=1|qr_nm:gd|res:RC4|com-cf:nl|ptrs:na|ktp:N0|mc:55575|mtp:S|qry_typ:P|lang:en|wc:3|cs:8844|v=4,False,Swamy Nagar,Namakkal,"Second Floor 3/227e5/2d West Street, Nalipalayam Bypass Road K J Complex Nallipalayam, Swamy Nagar, Namakkal - 637003, Dist.Namakkal, Tamil Nadu",8048600000,
White CRCA JHE Baby Crib,https://www.indiamart.com/proddetail/jhe-baby-crib-2848987942562.html?pos=99&kwd=crib bedding set&tags=||||8752.144|Price|product|||TS|rsf:gd-|-stype:attr=1|qr_nm:gd|res:RC4|com-cf:nl|ptrs:na|ktp:N0|mc:55575|mtp:S|qry_typ:P|lang:en|wc:3|cs:8844|v=4,Jyoti Equipments Private Limited,https://www.jehospi.com/?pos=99&kwd=crib bedding set&tags=||||8752.144|Price|product|||TS|rsf:gd-|-stype:attr=1|qr_nm:gd|res:RC4|com-cf:nl|ptrs:na|ktp:N0|mc:55575|mtp:S|qry_typ:P|lang:en|wc:3|cs:8844|v=4,False,Nangloi,New Delhi,"Shop No. C - 04, Metro Bazar, Nangloi, New Delhi - 110041, Dist.Delhi, Delhi",8043825242,
Organic Cotton Flat Crib Sheet,https://www.indiamart.com/proddetail/organic-cotton-flat-crib-sheet-2852060049630.html?pos=100&kwd=crib bedding set&tags=||||8706.263|Price|product|||TS|rsf:gd-|-stype:attr=1|qr_nm:gd|res:RC4|com-cf:nl|ptrs:na|ktp:N0|mc:55575|mtp:S|qry_typ:P|lang:en|wc:3|cs:8844|v=4,Taruna Tex,https://www.indiamart.com/taruna-tex-karur/?pos=100&kwd=crib bedding set&tags=||||8706.263|Price|product|||TS|rsf:gd-|-stype:attr=1|qr_nm:gd|res:RC4|com-cf:nl|ptrs:na|ktp:N0|mc:55575|mtp:S|qry_typ:P|lang:en|wc:3|cs:8844|v=4,True,Veluswamypuram,Karur,"137, Nanthavana Street, Velusamypuram IV Cross, Andankoil West, Veluswamypuram, Karur - 639002, Dist.Karur, Tamil Nadu",7942874999,
Male CRCA TUBULAR FRAME WORK Baby Crib Trolley With Stand PC,https://www.indiamart.com/proddetail/baby-crib-trolley-with-stand-pc-20719072548.html?pos=101&kwd=crib bedding set&tags=||||8717.755|Price|product|||TS|rsf:gd-|-stype:attr=1|qr_nm:gd|res:RC4|com-cf:nl|ptrs:na|ktp:N0|mc:55575|mtp:S|qry_typ:P|lang:en|wc:3|cs:8844|v=4,Innovative Medical Systems,https://www.innovativemedisys.com/?pos=101&kwd=crib bedding set&tags=||||8717.755|Price|product|||TS|rsf:gd-|-stype:attr=1|qr_nm:gd|res:RC4|com-cf:nl|ptrs:na|ktp:N0|mc:55575|mtp:S|qry_typ:P|lang:en|wc:3|cs:8844|v=4,False,Saroornagar,Rangareddy,"2nd Floor, 11-10-215/1, Plot No. 15, Road No. 2, Vijayapuri Colony, Kothapet, Saroornagar, Rangareddy - 500035, Dist.Rangareddy, Telangana",8047635648,
Yellow Rectangular Baby Crib,https://www.indiamart.com/proddetail/baby-crib-21152799273.html?pos=102&kwd=crib bedding set&tags=||||8663.873|Price|product|||MDC|rsf:gd-|-stype:attr=1|qr_nm:gd|res:RC4|com-cf:nl|ptrs:na|ktp:N0|mc:55575|mtp:S|qry_typ:P|lang:en|wc:3|cs:8844|v=4,Giret International,https://www.indiamart.com/giretinternational/?pos=102&kwd=crib bedding set&tags=||||8663.873|Price|product|||MDC|rsf:gd-|-stype:attr=1|qr_nm:gd|res:RC4|com-cf:nl|ptrs:na|ktp:N0|mc:55575|mtp:S|qry_typ:P|lang:en|wc:3|cs:8844|v=4,False,Sheshadripuram,Bengaluru,"#9, 6th Cross, Kumara Park West,, Sheshadripuram, Bengaluru - 560020, Dist.Bengaluru, Karnataka",8048611902,
"Classic Mosquito Net Polyester Kids Baby Bed, Size: Small",https://www.indiamart.com/proddetail/classic-mosquito-net-polyester-kids-baby-bed-2853661286930.html?pos=103&kwd=crib bedding set&tags=||||8281.036|Price|product|||TS|rsf:gd-|-stype:attr=1|qr_nm:gd|res:RC4|com-cf:nl|ptrs:na|ktp:N0|mc:55575|mtp:S|qry_typ:P|lang:en|wc:3|cs:8844|v=4,Classic Mosquito Net ( A Brand of Prayosha Expo Pvt. Ltd ),https://www.classicmosquitonet.co.in/?pos=103&kwd=crib bedding set&tags=||||8281.036|Price|product|||TS|rsf:gd-|-stype:attr=1|qr_nm:gd|res:RC4|com-cf:nl|ptrs:na|ktp:N0|mc:55575|mtp:S|qry_typ:P|lang:en|wc:3|cs:8844|v=4,False,Industrial Estate,Vadodara,"C1B/267 Gidc, Opp. Prakruti Tiles, Makarpura Industrial Estate,, Industrial Estate, Vadodara - 390010, Dist.Vadodara, Gujarat",8046052164,
"Microfiber Plain SIE STORE Solid Crib Crib Baby Blanket, Size: 114 cm X 153 cm",https://www.indiamart.com/proddetail/sie-store-solid-crib-crib-baby-blanket-25556817297.html?pos=104&kwd=crib bedding set&tags=||||8601.347|Price|product|||MDC|rsf:gd-|-stype:attr=1|qr_nm:gd|res:RC4|com-cf:nl|ptrs:na|ktp:N0|mc:55575|mtp:S|qry_typ:P|lang:en|wc:3|cs:8844|v=4,Srknd India Enterprises,https://www.indiamart.com/srkndindiaenterprises/?pos=104&kwd=crib bedding set&tags=||||8601.347|Price|product|||MDC|rsf:gd-|-stype:attr=1|qr_nm:gd|res:RC4|com-cf:nl|ptrs:na|ktp:N0|mc:55575|mtp:S|qry_typ:P|lang:en|wc:3|cs:8844|v=4,False,Rawan Gate,Jaipur,"S-2, Plot No 83 Parth Sarthi Residency, Rawan Gate, Jaipur - 302012, Dist.Jaipur, Rajasthan",8048963972,
Non-woolen Nylon Combo Of 5 Daily Needs Baby Bedding Items,https://www.indiamart.com/proddetail/combo-of-5-daily-needs-baby-bedding-items-12954924255.html?pos=105&kwd=crib bedding set&tags=||||8223.731||product|||TS|rsf:gd-|-stype:attr=1|qr_nm:gd|res:RC4|com-cf:nl|ptrs:na|ktp:N0|mc:55575|mtp:S|qry_typ:P|lang:en|wc:3|cs:8844|v=4,Maitri Export,https://www.maitriexport.in/?pos=105&kwd=crib bedding set&tags=||||8223.731||product|||TS|rsf:gd-|-stype:attr=1|qr_nm:gd|res:RC4|com-cf:nl|ptrs:na|ktp:N0|mc:55575|mtp:S|qry_typ:P|lang:en|wc:3|cs:8844|v=4,False,Lambi Oty,Khambhat,"Kh-0199A, Khichdiya Ni Khadki,Ladwado, Near Jain Upashray, Lambi Oty, Khambhat - 388620, Dist.Anand, Gujarat",8046054414,
Baby Nest Comfyt Baby Pillow Portable Bassinet Newborn Bed Baby Cocoon Travel Crib Sleeping,https://www.indiamart.com/proddetail/baby-nest-comfyt-baby-pillow-portable-bassinet-newborn-bed-baby-cocoon-travel-crib-sleeping-2852551595612.html?pos=106&kwd=crib bedding set&tags=||||8211.142|Price|product|||TS|rsf:gd-|-stype:attr=1|qr_nm:gd|res:RC4|com-cf:nl|ptrs:na|ktp:N0|mc:55575|mtp:S|qry_typ:P|lang:en|wc:3|cs:8844|v=4,Homenity,https://www.homenity.in/?pos=106&kwd=crib bedding set&tags=||||8211.142|Price|product|||TS|rsf:gd-|-stype:attr=1|qr_nm:gd|res:RC4|com-cf:nl|ptrs:na|ktp:N0|mc:55575|mtp:S|qry_typ:P|lang:en|wc:3|cs:8844|v=4,False,Masjid Bandar,Mumbai,"203, 2nd Floor, Plot-13a Mehajabeen Arcade, Chakala Cross Lane, Mumbai, Mumbai, Maharashtra, Masjid Bandar, Mumbai - 400003, Dist.Mumbai, Maharashtra",8047673711,
White(Base) Rectangular Baby Chunky Soft Cotton Baby Bed Crib Sheet,https://www.indiamart.com/proddetail/baby-chunky-soft-cotton-baby-bed-crib-sheet-2854507557355.html?pos=107&kwd=crib bedding set&tags=||||8663.873|Price|product|||MDC|rsf:gd-|-stype:attr=1|qr_nm:gd|res:RC4|com-cf:nl|ptrs:na|ktp:N0|mc:55575|mtp:S|qry_typ:P|lang:en|wc:3|cs:8844|v=4,AQ Corporation,https://www.indiamart.com/aqcorporation/?pos=107&kwd=crib bedding set&tags=||||8663.873|Price|product|||MDC|rsf:gd-|-stype:attr=1|qr_nm:gd|res:RC4|com-cf:nl|ptrs:na|ktp:N0|mc:55575|mtp:S|qry_typ:P|lang:en|wc:3|cs:8844|v=4,False,,Bengaluru,"Ground And First Floor, No 88, 2nd Cross, 4th Main, NGEF Layout, Nagashetty Halli, Sanjaynagar Bengaluru Urban, Bengaluru - 560094, Dist.Bengaluru, Karnataka",7949325043,
Velvet 1 Kg New Born Baby Bedding Net,https://www.indiamart.com/proddetail/new-born-baby-bedding-net-22878204248.html?pos=108&kwd=crib bedding set&tags=||||8747.203|Price|product|||MDC|rsf:gd-|-stype:attr=1|qr_nm:gd|res:RC4|com-cf:nl|ptrs:na|ktp:N0|mc:55575|mtp:S|qry_typ:P|lang:en|wc:3|cs:8844|v=4,Nav Jyoti Creations,https://www.indiamart.com/nav-jyoti-creations/?pos=108&kwd=crib bedding set&tags=||||8747.203|Price|product|||MDC|rsf:gd-|-stype:attr=1|qr_nm:gd|res:RC4|com-cf:nl|ptrs:na|ktp:N0|mc:55575|mtp:S|qry_typ:P|lang:en|wc:3|cs:8844|v=4,False,Panipat N.S.M.,Panipat,"Shop No. 2, Dev Puri Road, Panipat N.S.M., Panipat - 132103, Dist.Panipat, Haryana",8046049761,
Multicolor Rectangular Baby Bedding Set Manufacturer,https://www.indiamart.com/proddetail/baby-bedding-set-manufacturer-2853931582673.html?pos=109&kwd=crib bedding set&tags=||||8752.144|Price|product|||TS|rsf:gd-|-stype:attr=1|qr_nm:gd|res:RC4|com-cf:nl|ptrs:na|ktp:N0|mc:55575|mtp:S|qry_typ:P|lang:en|wc:3|cs:8844|v=4,Mom & Son,https://www.theindianchoice.com/?pos=109&kwd=crib bedding set&tags=||||8752.144|Price|product|||TS|rsf:gd-|-stype:attr=1|qr_nm:gd|res:RC4|com-cf:nl|ptrs:na|ktp:N0|mc:55575|mtp:S|qry_typ:P|lang:en|wc:3|cs:8844|v=4,False,Karawal Nagar,New Delhi,"B-57 Gali Number-1 Mukund Vihar, Near Pnb Bank, Karawal Nagar, New Delhi - 110094, Dist.Delhi, Delhi",7942565509,
3 level New born baby cloth and accessories hanging almirah,https://www.indiamart.com/proddetail/3-level-new-born-baby-cloth-and-accessories-hanging-almirah-26281973788.html?pos=110&kwd=crib bedding set&tags=||||9839.57|Price|product|||TS|rsf:gd-|-stype:attr=1|qr_nm:gd|res:RC4|com-cf:nl|ptrs:na|ktp:N0|mc:55575|mtp:S|qry_typ:P|lang:en|wc:3|cs:8844|v=4,Addyz,https://www.indiamart.com/addyz/?pos=110&kwd=crib bedding set&tags=||||9839.57|Price|product|||TS|rsf:gd-|-stype:attr=1|qr_nm:gd|res:RC4|com-cf:nl|ptrs:na|ktp:N0|mc:55575|mtp:S|qry_typ:P|lang:en|wc:3|cs:8844|v=4,False,Kalakar Street,Kolkata,"Ground Floor 14 Nurmull Lohia Lane, Kalakar Street, Kolkata - 700007, Dist.Kolkata, West Bengal",8048614935,
"Baby Bed With Mosquito Net, For Home, Size: Small",https://www.indiamart.com/proddetail/baby-bed-with-mosquito-net-2852128322912.html?pos=111&kwd=crib bedding set&tags=||||8747.203||product|||TS|rsf:gd-|-stype:attr=1|qr_nm:gd|res:RC4|com-cf:nl|ptrs:na|ktp:N0|mc:55575|mtp:S|qry_typ:P|lang:en|wc:3|cs:8844|v=4,Karunamayi Textiles,https://www.indiamart.com/karunamayitextiles/?pos=111&kwd=crib bedding set&tags=||||8747.203||product|||TS|rsf:gd-|-stype:attr=1|qr_nm:gd|res:RC4|com-cf:nl|ptrs:na|ktp:N0|mc:55575|mtp:S|qry_typ:P|lang:en|wc:3|cs:8844|v=4,False,Netaji Colony,Panipat,"19/7, Sethi Road, Netaji Colony, Panipat - 132103, Dist.Panipat, Haryana",8043891244,
"White,Blue Cotton,Net Printed Baby Sleeping Bed, Newly Born",https://www.indiamart.com/proddetail/printed-baby-sleeping-bed-23235099655.html?pos=112&kwd=crib bedding set&tags=||||8281.036|Price|product|||TS|rsf:gd-|-stype:attr=1|qr_nm:gd|res:RC4|com-cf:nl|ptrs:na|ktp:N0|mc:55575|mtp:S|qry_typ:P|lang:en|wc:3|cs:8844|v=4,New Era,https://www.indiamart.com/new-era-vadodara/?pos=112&kwd=crib bedding set&tags=||||8281.036|Price|product|||TS|rsf:gd-|-stype:attr=1|qr_nm:gd|res:RC4|com-cf:nl|ptrs:na|ktp:N0|mc:55575|mtp:S|qry_typ:P|lang:en|wc:3|cs:8844|v=4,False,Bapunagar,Vadodara,"G-59 Warasia Ring Road Chaturbhai Park Society Warshiya Main Road, Bapunagar, Vadodara - 390006, Dist.Vadodara, Gujarat",8047768024,
Baby Bed,https://www.indiamart.com/proddetail/baby-bed-24208054797.html?pos=113&kwd=crib bedding set&tags=||||8747.203|Price|product|||TS|rsf:gd-|-stype:attr=1|qr_nm:gd|res:RC4|com-cf:nl|ptrs:na|ktp:N0|mc:55575|mtp:S|qry_typ:P|lang:en|wc:3|cs:8844|v=4,Ambay Enterprises,https://www.crafteal.in/?pos=113&kwd=crib bedding set&tags=||||8747.203|Price|product|||TS|rsf:gd-|-stype:attr=1|qr_nm:gd|res:RC4|com-cf:nl|ptrs:na|ktp:N0|mc:55575|mtp:S|qry_typ:P|lang:en|wc:3|cs:8844|v=4,False,Colony,Panipat,"Near Guru Medical Store H/N 2270 Wadhawa Ram Colony, Colony, Panipat - 132103, Dist.Panipat, Haryana",7949092116,
Cotton Playgym Baby Bed,https://www.indiamart.com/proddetail/playgym-baby-bed-2851242710697.html?pos=114&kwd=crib bedding set&tags=||||8752.144|Price|product|||TS|rsf:gd-|-stype:attr=1|qr_nm:gd|res:RC4|com-cf:nl|ptrs:na|ktp:N0|mc:55575|mtp:S|qry_typ:P|lang:en|wc:3|cs:8844|v=4,Bankey Bihari Enterprises,https://www.indiamart.com/bankey-bihari-enterprisesnewdelhi/?pos=114&kwd=crib bedding set&tags=||||8752.144|Price|product|||TS|rsf:gd-|-stype:attr=1|qr_nm:gd|res:RC4|com-cf:nl|ptrs:na|ktp:N0|mc:55575|mtp:S|qry_typ:P|lang:en|wc:3|cs:8844|v=4,False,Jahangirpuri,New Delhi,"Plot No 51 First Floor Street No 11 Harijan Colony Village Bhalsva, Jahangirpuri, New Delhi - 110033, Dist.Delhi, Delhi",7942825166,
"Cotton Baby Bed With Mosquito Net, For Home, Size: Medium",https://www.indiamart.com/proddetail/baby-bed-with-mosquito-net-23203413373.html?pos=115&kwd=crib bedding set&tags=||||8228.275|Price|product|||TS|rsf:gd-|-stype:attr=1|qr_nm:gd|res:RC4|com-cf:nl|ptrs:na|ktp:N0|mc:55575|mtp:S|qry_typ:P|lang:en|wc:3|cs:8844|v=4,Tulsi Jiyana,https://www.indiamart.com/tulsijiyana/?pos=115&kwd=crib bedding set&tags=||||8228.275|Price|product|||TS|rsf:gd-|-stype:attr=1|qr_nm:gd|res:RC4|com-cf:nl|ptrs:na|ktp:N0|mc:55575|mtp:S|qry_typ:P|lang:en|wc:3|cs:8844|v=4,False,Nikol,Ahmedabad,"C/14, Parishram Park Society Opposite Sun City, Nikol, Ahmedabad - 380001, Dist.Ahmedabad, Gujarat",8046078640,
Baby Net Bed,https://www.indiamart.com/proddetail/baby-net-bed-18133544773.html?pos=116&kwd=crib bedding set&tags=||||8584.299|Price|product|||TS|rsf:gd-|-stype:attr=1|qr_nm:gd|res:RC4|com-cf:nl|ptrs:na|ktp:N0|mc:55575|mtp:S|qry_typ:P|lang:en|wc:3|cs:8844|v=4,Sag Industries,https://www.sagbabygro.com/?pos=116&kwd=crib bedding set&tags=||||8584.299|Price|product|||TS|rsf:gd-|-stype:attr=1|qr_nm:gd|res:RC4|com-cf:nl|ptrs:na|ktp:N0|mc:55575|mtp:S|qry_typ:P|lang:en|wc:3|cs:8844|v=4,False,Ashok Nagar,Coimbatore,"59,,SRI KRISHNA NAGAR,CHOKKAMPUDUR ROAD, Ashok Nagar, Coimbatore - 641001, Dist.Coimbatore, Tamil Nadu",8048959921,
Oval Baby Bed,https://www.indiamart.com/proddetail/oval-baby-bed-3688241373.html?pos=117&kwd=crib bedding set&tags=||||8211.142|Price|product|||TS|rsf:gd-|-stype:attr=1|qr_nm:gd|res:RC4|com-cf:nl|ptrs:na|ktp:N0|mc:55575|mtp:S|qry_typ:P|lang:en|wc:3|cs:8844|v=4,Seward Systems Inc,https://www.indiamart.com/seward-systems/?pos=117&kwd=crib bedding set&tags=||||8211.142|Price|product|||TS|rsf:gd-|-stype:attr=1|qr_nm:gd|res:RC4|com-cf:nl|ptrs:na|ktp:N0|mc:55575|mtp:S|qry_typ:P|lang:en|wc:3|cs:8844|v=4,False,Borivali East,Mumbai,"No. 302, Triveni Krupa Building, Carter Road, No. 3, Borivali East, Mumbai - 400066, Dist.Mumbai, Maharashtra",8048602086,
Cotton VARIETY AVAILABLE MUSLIN REVERSABLE BABY NEST BED ROUND,https://www.indiamart.com/proddetail/muslin-reversable-baby-nest-bed-round-2854011989833.html?pos=118&kwd=crib bedding set&tags=||||8559.269|Price|product|||TS|rsf:gd-|-stype:attr=1|qr_nm:gd|res:RC4|com-cf:nl|ptrs:na|ktp:N0|mc:55575|mtp:S|qry_typ:P|lang:en|wc:3|cs:8844|v=4,Central India Fabrics,https://www.centralindiafabrics.net/?pos=118&kwd=crib bedding set&tags=||||8559.269|Price|product|||TS|rsf:gd-|-stype:attr=1|qr_nm:gd|res:RC4|com-cf:nl|ptrs:na|ktp:N0|mc:55575|mtp:S|qry_typ:P|lang:en|wc:3|cs:8844|v=4,True,Avantika Nagar,Indore,"2/A/C, Sector D, Sanwer Road Opposite Bandganga Police Station, Avantika Nagar, Indore - 452015, Dist.Indore, Madhya Pradesh",8048965370,
Cotton Neck Pillow Wooden baby bad,https://www.indiamart.com/proddetail/wooden-baby-bad-2853122000297.html?pos=119&kwd=crib bedding set&tags=||||8810.737|Price|product|||TS|rsf:gd-|-stype:attr=1|qr_nm:gd|res:RC4|com-cf:nl|ptrs:na|ktp:N0|mc:55575|mtp:S|qry_typ:P|lang:en|wc:3|cs:8844|v=4,M.I Handicrafts,https://www.mihandicraft.com/?pos=119&kwd=crib bedding set&tags=||||8810.737|Price|product|||TS|rsf:gd-|-stype:attr=1|qr_nm:gd|res:RC4|com-cf:nl|ptrs:na|ktp:N0|mc:55575|mtp:S|qry_typ:P|lang:en|wc:3|cs:8844|v=4,False,Khatakheri,Saharanpur,"81/4, Jain Colony, Gali No. 35, Khata Kheri, Khatakheri, Saharanpur - 247001, Dist.Saharanpur, Uttar Pradesh",8046076884,
BKT3317 BABY HOLDER ACROSS SHOULDER with NET,https://www.indiamart.com/proddetail/bkt3317-baby-holder-across-shoulder-with-net-2853418399155.html?pos=120&kwd=crib bedding set&tags=||||8741.812|Price|product|||TS|rsf:gd-|-stype:attr=1|qr_nm:gd|res:RC4|com-cf:nl|ptrs:na|ktp:N0|mc:55575|mtp:S|qry_typ:P|lang:en|wc:3|cs:8844|v=4,Blacktie Ecom Private Limited,https://www.indiamart.com/blacktieecom/?pos=120&kwd=crib bedding set&tags=||||8741.812|Price|product|||TS|rsf:gd-|-stype:attr=1|qr_nm:gd|res:RC4|com-cf:nl|ptrs:na|ktp:N0|mc:55575|mtp:S|qry_typ:P|lang:en|wc:3|cs:8844|v=4,False,Gurgaon South City Ii,Gurgaon,"CABIN 210 B 38 OLD DLF COLONY, Gurgaon South City Ii, Gurgaon - 122018, Dist.Gurgaon, Haryana",8046052578,
Baby Dry Sheet,https://www.indiamart.com/proddetail/baby-dry-sheet-2850405620255.html?pos=121&kwd=crib bedding set&tags=||||8752.144|Price|product|||TS|rsf:gd-|-stype:attr=1|qr_nm:gd|res:RC4|com-cf:nl|ptrs:na|ktp:N0|mc:55575|mtp:S|qry_typ:P|lang:en|wc:3|cs:8844|v=4,North Pole Sales,https://www.indiamart.com/north-pole-sales/?pos=121&kwd=crib bedding set&tags=||||8752.144|Price|product|||TS|rsf:gd-|-stype:attr=1|qr_nm:gd|res:RC4|com-cf:nl|ptrs:na|ktp:N0|mc:55575|mtp:S|qry_typ:P|lang:en|wc:3|cs:8844|v=4,False,Gandhi Nagar,New Delhi,"IX/6202, Second Floor, Gali Jain Mandir Chowk, Ram Nagar, Gandhi Nagar, New Delhi - 110031, Dist.Delhi, Delhi",7942789316,
"White Infant Bed, Age Group: 0-2",https://www.indiamart.com/proddetail/infant-bed-22049253955.html?pos=122&kwd=crib bedding set&tags=||||8752.144||product|||TS|rsf:gd-|-stype:attr=1|qr_nm:gd|res:RC4|com-cf:nl|ptrs:na|ktp:N0|mc:55575|mtp:S|qry_typ:P|lang:en|wc:3|cs:8844|v=4,Fairbizps,https://www.indiamart.com/fairbizps/?pos=122&kwd=crib bedding set&tags=||||8752.144||product|||TS|rsf:gd-|-stype:attr=1|qr_nm:gd|res:RC4|com-cf:nl|ptrs:na|ktp:N0|mc:55575|mtp:S|qry_typ:P|lang:en|wc:3|cs:8844|v=4,True,Laxmi Nagar,New Delhi,"No. 348/4A, Asha Ram, Street No. 4, Subedar Chowk Mandawali, Laxmi Nagar, New Delhi - 110092, Dist.Delhi, Delhi",8048610174,
Photography Prop Basket Cane Bamboo Doll Bed Basket Infant Girl Photography Props baske,https://www.indiamart.com/proddetail/photography-prop-basket-cane-bamboo-doll-bed-basket-infant-girl-photography-props-baske-2854558050573.html?pos=123&kwd=crib bedding set&tags=||||8752.144|Price|product|||TS|rsf:gd-|-stype:attr=1|qr_nm:gd|res:RC4|com-cf:nl|ptrs:na|ktp:N0|mc:55575|mtp:S|qry_typ:P|lang:en|wc:3|cs:8844|v=4,Craferia Export Llp,https://www.craferiaexport.com/?pos=123&kwd=crib bedding set&tags=||||8752.144|Price|product|||TS|rsf:gd-|-stype:attr=1|qr_nm:gd|res:RC4|com-cf:nl|ptrs:na|ktp:N0|mc:55575|mtp:S|qry_typ:P|lang:en|wc:3|cs:8844|v=4,True,N.S.I.T. Dwarka,New Delhi,"H.No 319, 3rd Floor, Pocket 1, Sector 12, Dwarka,Near Metro Station,, N.S.I.T. Dwarka, New Delhi - 110078, Dist.Delhi, Delhi",8047671940,
Baby Bed Play Gym,https://www.indiamart.com/proddetail/baby-bed-play-gym-2849778024597.html?pos=124&kwd=crib bedding set&tags=||||8747.203|Price|product|||TS|rsf:gd-|-stype:attr=1|qr_nm:gd|res:RC4|com-cf:nl|ptrs:na|ktp:N0|mc:55575|mtp:S|qry_typ:P|lang:en|wc:3|cs:8844|v=4,Shiv Textiles,https://www.indiamart.com/shivtextilespanipat/?pos=124&kwd=crib bedding set&tags=||||8747.203|Price|product|||TS|rsf:gd-|-stype:attr=1|qr_nm:gd|res:RC4|com-cf:nl|ptrs:na|ktp:N0|mc:55575|mtp:S|qry_typ:P|lang:en|wc:3|cs:8844|v=4,False,Jagjivan Ram Colony,Panipat,"Shop No.19-C, Aggarwal Gali Number 1, Gohana Road, Jagjivan Ram Colony, Panipat - 132103, Dist.Panipat, Haryana",7942665530,
"Baby Bed Protection - Comfy Baby Bed Rail Guard, Bed Rails For Baby & Toddler Safety",https://www.indiamart.com/proddetail/baby-bed-protection-comfy-baby-bed-rail-guard-bed-rails-for-baby-toddler-safety-2851752422888.html?pos=125&kwd=crib bedding set&tags=||||8230.883|Price|product|||TS|rsf:gd-|-stype:attr=1|qr_nm:gd|res:RC4|com-cf:nl|ptrs:na|ktp:N0|mc:55575|mtp:S|qry_typ:P|lang:en|wc:3|cs:8844|v=4,Emall,https://www.maharajmarketing.in/?pos=125&kwd=crib bedding set&tags=||||8230.883|Price|product|||TS|rsf:gd-|-stype:attr=1|qr_nm:gd|res:RC4|com-cf:nl|ptrs:na|ktp:N0|mc:55575|mtp:S|qry_typ:P|lang:en|wc:3|cs:8844|v=4,False,Dabholi,Surat,"C-202, Mahendrapark, Opp. Essar Petrol Pump, Near Iskon Circle,, Dabholi, Surat - 395004, Dist.Surat, Gujarat",8048961829,
"Cotton Bad BABY SHOWER SEAT BED 6308, 200 G, New Born",https://www.indiamart.com/proddetail/baby-shower-seat-bed-6308-2853401118088.html?pos=126&kwd=crib bedding set&tags=||||8038.093|Price|product|||TS|rsf:gd-|-stype:attr=1|qr_nm:gd|res:RC4|com-cf:nl|ptrs:na|ktp:N0|mc:55575|mtp:S|qry_typ:P|lang:en|wc:3|cs:8844|v=4,Deodap,https://www.indiamart.com/deodap/?pos=126&kwd=crib bedding set&tags=||||8038.093|Price|product|||TS|rsf:gd-|-stype:attr=1|qr_nm:gd|res:RC4|com-cf:nl|ptrs:na|ktp:N0|mc:55575|mtp:S|qry_typ:P|lang:en|wc:3|cs:8844|v=4,False,Rajkot,Rajkot,"plot No. 9 Behind Patanjali Werhouse, Ruda Transport, Saat Hanuman Ahemdabad Road, Rajkot, Rajkot - 360005, Dist.Rajkot, Gujarat",8048972316,
Poly Cotton Baby Mosquito Net Bed,https://www.indiamart.com/proddetail/baby-mosquito-net-bed-11469232433.html?pos=127&kwd=crib bedding set&tags=||||8584.299|Price|product|||TS|rsf:gd-|-stype:attr=1|qr_nm:gd|res:RC4|com-cf:nl|ptrs:na|ktp:N0|mc:55575|mtp:S|qry_typ:P|lang:en|wc:3|cs:8844|v=4,Monigaa Shree Bed House,https://www.cosybedandpillowmsbh.com/?pos=127&kwd=crib bedding set&tags=||||8584.299|Price|product|||TS|rsf:gd-|-stype:attr=1|qr_nm:gd|res:RC4|com-cf:nl|ptrs:na|ktp:N0|mc:55575|mtp:S|qry_typ:P|lang:en|wc:3|cs:8844|v=4,False,Urumandampalayan,Coimbatore,"No. 28-D, 10/162, Sri Ragavendra Colony, GN Mill Post, Urumandampalayan, Coimbatore - 641029, Dist.Coimbatore, Tamil Nadu",8048610786,
Fanem Blue Or Pink Baby Bassinet,https://www.indiamart.com/proddetail/baby-bassinet-15389000055.html?pos=128&kwd=crib bedding set&tags=||||8307.81|Price|product|||TS|rsf:gd-|-stype:attr=1|qr_nm:gd|res:RC4|com-cf:nl|ptrs:na|ktp:N0|mc:55575|mtp:S|qry_typ:P|lang:en|wc:3|cs:8844|v=4,Angel Medical Equipments,https://www.indiamart.com/angel-medical/?pos=128&kwd=crib bedding set&tags=||||8307.81|Price|product|||TS|rsf:gd-|-stype:attr=1|qr_nm:gd|res:RC4|com-cf:nl|ptrs:na|ktp:N0|mc:55575|mtp:S|qry_typ:P|lang:en|wc:3|cs:8844|v=4,False,Hadapsar,Pune,"Sr. No. 59/3, H. no. 7, Azad Nagar Nr. Kroot School, Hadapsar, Pune - 411028, Dist.Pune, Maharashtra",8048951108,
Baby Nest Bed,,Preeti Textiles,https://www.indiamart.com/preetitextiles/?pos=129&kwd=crib bedding set&tags=||||8559.269|Price|product|||TS|rsf:gd-|-stype:attr=1|qr_nm:gd|res:RC4|com-cf:nl|ptrs:na|ktp:N0|mc:55575|mtp:S|qry_typ:P|lang:en|wc:3|cs:8844|v=4,False,Vyankatesh Nagar,Indore,"133-134, 2nd Floor, Muchhal Chamber, MT Cloth Market, Vyankatesh Nagar, Indore - 452009, Dist.Indore, Madhya Pradesh",8048600421,
"pc print Baby Bed Clothes, 0-3years",https://www.indiamart.com/proddetail/baby-bed-clothes-4785348030.html?pos=130&kwd=crib bedding set&tags=||||8663.873|Price|product|||TS|rsf:gd-|-stype:attr=1|qr_nm:gd|res:RC4|com-cf:nl|ptrs:na|ktp:N0|mc:55575|mtp:S|qry_typ:P|lang:en|wc:3|cs:8844|v=4,Hira Textiles,https://www.indiamart.com/hiratextiles/?pos=130&kwd=crib bedding set&tags=||||8663.873|Price|product|||TS|rsf:gd-|-stype:attr=1|qr_nm:gd|res:RC4|com-cf:nl|ptrs:na|ktp:N0|mc:55575|mtp:S|qry_typ:P|lang:en|wc:3|cs:8844|v=4,False,Chickpet,Bengaluru,"No. 70,2nd Floor,Ambica Cloth Martket,Deewankhan Lane,Chickpet Cross, Chickpet, Bengaluru - 560053, Dist.Bengaluru, Karnataka",8046032799,
"Haitu Metal Baby Beds, 0 To 5",https://www.indiamart.com/proddetail/baby-beds-22501766848.html?pos=131&kwd=crib bedding set&tags=||||8307.81|Price|product|||TS|rsf:gd-|-stype:attr=1|qr_nm:gd|res:RC4|com-cf:nl|ptrs:na|ktp:N0|mc:55575|mtp:S|qry_typ:P|lang:en|wc:3|cs:8844|v=4,Haitu Engineers,https://www.haitupune.com/?pos=131&kwd=crib bedding set&tags=||||8307.81|Price|product|||TS|rsf:gd-|-stype:attr=1|qr_nm:gd|res:RC4|com-cf:nl|ptrs:na|ktp:N0|mc:55575|mtp:S|qry_typ:P|lang:en|wc:3|cs:8844|v=4,False,P&T Colony,Pune,"Opposite Mira Society, Gate No. 2, Shankar Sheth Road, P&T Colony, Pune - 411037, Dist.Pune, Maharashtra",8048611881,
White Stainless Steel Baby Cot,https://www.indiamart.com/proddetail/baby-cot-14713104555.html?pos=132&kwd=crib bedding set&tags=||||8954.051|Price|product|||TS|rsf:gd-|-stype:attr=1|qr_nm:gd|res:RC4|com-cf:nl|ptrs:na|ktp:N0|mc:55575|mtp:S|qry_typ:P|lang:en|wc:3|cs:8844|v=4,Ideal Surgical Company,https://www.idealsurgicalcompany.com/?pos=132&kwd=crib bedding set&tags=||||8954.051|Price|product|||TS|rsf:gd-|-stype:attr=1|qr_nm:gd|res:RC4|com-cf:nl|ptrs:na|ktp:N0|mc:55575|mtp:S|qry_typ:P|lang:en|wc:3|cs:8844|v=4,False,Chinthadripet,Chennai,"No. 840, Mount Road opp Anna Statue, Chinthadripet, Chennai - 600002, Dist.Chennai, Tamil Nadu",8048963463,
White(Base) Baby Rectangular Cotton Bedding Set,https://www.indiamart.com/proddetail/baby-rectangular-cotton-bedding-set-2854106155312.html?pos=133&kwd=crib bedding set&tags=||||8230.883|Price|product|||MDC|rsf:gd-|-stype:attr=1|qr_nm:gd|res:RC4|com-cf:nl|ptrs:na|ktp:N0|mc:55575|mtp:S|qry_typ:P|lang:en|wc:3|cs:8844|v=4,Shree Fab,https://www.indiamart.com/shree-fab-gujarat/?pos=133&kwd=crib bedding set&tags=||||8230.883|Price|product|||MDC|rsf:gd-|-stype:attr=1|qr_nm:gd|res:RC4|com-cf:nl|ptrs:na|ktp:N0|mc:55575|mtp:S|qry_typ:P|lang:en|wc:3|cs:8844|v=4,False,Dharati Society,Surat,"Plot-65 GR, Ground+ 1st Floor, Gothan Industrial SOC, A. K. Road, Jay Ambey Textile, Varachha, Dharati Society, Surat - 395006, Dist.Surat, Gujarat",8045732311,
Baby Wooden Cradle Bed,https://www.indiamart.com/proddetail/baby-wooden-cradle-bed-2853636777391.html?pos=134&kwd=crib bedding set&tags=||||9148.645|Price|product|||MDC|rsf:gd-|-stype:attr=1|qr_nm:gd|res:RC4|com-cf:nl|ptrs:na|ktp:N0|mc:55575|mtp:S|qry_typ:P|lang:en|wc:3|cs:8844|v=4,Sri Jaya Enterprises,https://www.indiamart.com/sri-jayaenterprises/?pos=134&kwd=crib bedding set&tags=||||9148.645|Price|product|||MDC|rsf:gd-|-stype:attr=1|qr_nm:gd|res:RC4|com-cf:nl|ptrs:na|ktp:N0|mc:55575|mtp:S|qry_typ:P|lang:en|wc:3|cs:8844|v=4,False,Machara,Mandapeta,"31-1-27/1, Ward No 13, Alamuru Road, Mandapeta, East Godavari, Machara, Mandapeta - 533308, Dist.East Godavari, Andhra Pradesh",7949093426,
"Plastic Pink and Sky Blue Baby Bather Bed, 3-12 Months",https://www.indiamart.com/proddetail/baby-bather-bed-2854707976988.html?pos=135&kwd=crib bedding set&tags=||||8226.563|Price|product|||MDC|rsf:gd-|-stype:attr=1|qr_nm:gd|res:RC4|com-cf:nl|ptrs:na|ktp:N0|mc:55575|mtp:S|qry_typ:P|lang:en|wc:3|cs:8844|v=4,Kamal Baby Cycle,https://www.indiamart.com/kamalbabycycle/?pos=135&kwd=crib bedding set&tags=||||8226.563|Price|product|||MDC|rsf:gd-|-stype:attr=1|qr_nm:gd|res:RC4|com-cf:nl|ptrs:na|ktp:N0|mc:55575|mtp:S|qry_typ:P|lang:en|wc:3|cs:8844|v=4,False,,Navi Mumbai,"Ground Floor, Below Flat No. 03, Choudhary House, Plot No.33, Sector No. 07, Koparkhairane,, Navi Mumbai - 400709, Dist.Thane, Maharashtra",7949324995,
Pink Cotton Baby Bed,https://www.indiamart.com/proddetail/pink-cotton-baby-bed-2854147597373.html?pos=136&kwd=crib bedding set&tags=||||8792.661|Price|product|||MDC|rsf:gd-|-stype:attr=1|qr_nm:gd|res:RC4|com-cf:nl|ptrs:na|ktp:N0|mc:55575|mtp:S|qry_typ:P|lang:en|wc:3|cs:8844|v=4,Aadhi Vetrivel Textiles,https://www.indiamart.com/aadhi-vetrivel-textiles/?pos=136&kwd=crib bedding set&tags=||||8792.661|Price|product|||MDC|rsf:gd-|-stype:attr=1|qr_nm:gd|res:RC4|com-cf:nl|ptrs:na|ktp:N0|mc:55575|mtp:S|qry_typ:P|lang:en|wc:3|cs:8844|v=4,False,Kachirapalayam,Vadakkanandal,"0, SF NO 69/4, VIP Garden,Near Fire Office, Kachirapalayam Road, Kallakuruchi, Kachirapalayam, Vadakkanandal - 606207, Dist.Villupuram, Tamil Nadu",8045732300,
Unisex Mix Baby Sherpa,https://www.indiamart.com/proddetail/mix-baby-sherpa-26392397555.html?pos=137&kwd=crib bedding set&tags=||||8661.854|Price|product|||MDC|rsf:gd-|-stype:attr=1|qr_nm:gd|res:RC4|com-cf:nl|ptrs:na|ktp:N0|mc:55575|mtp:S|qry_typ:P|lang:en|wc:3|cs:8844|v=4,Bansariwala Hosiery Mills,https://www.indiamart.com/bansariwalahosierymills/?pos=137&kwd=crib bedding set&tags=||||8661.854|Price|product|||MDC|rsf:gd-|-stype:attr=1|qr_nm:gd|res:RC4|com-cf:nl|ptrs:na|ktp:N0|mc:55575|mtp:S|qry_typ:P|lang:en|wc:3|cs:8844|v=4,False,Guru Arjan Dev Nagar,Ludhiana,"PHALAHI BAZAR LUDHIANA Phalahi Bazar, Ludhiana, Guru Arjan Dev Nagar, Ludhiana - 141008, Dist.Ludhiana, Punjab",8048974722,
"Unisex Casual Wear Pink Printed Cotton Newborn Baby Jabla, Age Group: 6-9 Months",https://www.indiamart.com/proddetail/pink-printed-cotton-newborn-baby-jabla-2853375345233.html?pos=138&kwd=crib bedding set&tags=||||8626.744|Price|product|||MDC|rsf:gd-|-stype:attr=1|qr_nm:gd|res:RC4|com-cf:nl|ptrs:na|ktp:N0|mc:55575|mtp:S|qry_typ:P|lang:en|wc:3|cs:8844|v=4,Senthoor Tex,https://www.indiamart.com/senthoor-tex/?pos=138&kwd=crib bedding set&tags=||||8626.744|Price|product|||MDC|rsf:gd-|-stype:attr=1|qr_nm:gd|res:RC4|com-cf:nl|ptrs:na|ktp:N0|mc:55575|mtp:S|qry_typ:P|lang:en|wc:3|cs:8844|v=4,False,Tiruppur North,Tiruppur,"8/1465B RS Puram, 1 Street, Pandiyan Nagar, Puluvupatti PO, Tiruppur North, Tiruppur - 641602, Dist.Coimbatore, Tamil Nadu",8045729718,
Little Bunny Baby Bed,https://www.indiamart.com/proddetail/little-bunny-baby-bed-2854383935991.html?pos=139&kwd=crib bedding set&tags=||||8954.051|Price|product|||MDC|rsf:gd-|-stype:attr=1|qr_nm:gd|res:RC4|com-cf:nl|ptrs:na|ktp:N0|mc:55575|mtp:S|qry_typ:P|lang:en|wc:3|cs:8844|v=4,Earthwise Collective Private Limited,https://www.indiamart.com/earthwise-collective/?pos=139&kwd=crib bedding set&tags=||||8954.051|Price|product|||MDC|rsf:gd-|-stype:attr=1|qr_nm:gd|res:RC4|com-cf:nl|ptrs:na|ktp:N0|mc:55575|mtp:S|qry_typ:P|lang:en|wc:3|cs:8844|v=4,False,,Chennai,"9/2, 35/2, Bagirathiammal Street, T Nagar,, Chennai - 600017, Dist.Chennai, Tamil Nadu",7942801118,
"Polyester Baby Mosquito Net Bed, For Home, Size: Small",https://www.indiamart.com/proddetail/baby-mosquito-net-bed-2853993466773.html?pos=140&kwd=crib bedding set&tags=||||8752.144|Price|product|||MDC|rsf:gd-|-stype:attr=1|qr_nm:gd|res:RC4|com-cf:nl|ptrs:na|ktp:N0|mc:55575|mtp:S|qry_typ:P|lang:en|wc:3|cs:8844|v=4,A.D. Enterprises,https://www.indiamart.com/adenterprises-burari-newdelhi/?pos=140&kwd=crib bedding set&tags=||||8752.144|Price|product|||MDC|rsf:gd-|-stype:attr=1|qr_nm:gd|res:RC4|com-cf:nl|ptrs:na|ktp:N0|mc:55575|mtp:S|qry_typ:P|lang:en|wc:3|cs:8844|v=4,False,North,New Delhi,"K.No-12/1, Main 25 FT. Road, Near Shyam Sweets, Uttranchal Enclave ,Kamal Pur, Burari, North, New Delhi - 110084, Dist.Delhi, Delhi",8044565004,
Unisex Mix Baby Sherpa,https://www.indiamart.com/proddetail/mix-baby-sherpa-26392397555.html?pos=141&kwd=crib bedding set&tags=||||8661.854|Price|product|||MDC|rsf:gd-|-stype:attr=1|qr_nm:gd|res:RC4|com-cf:nl|ptrs:na|ktp:N0|mc:55575|mtp:S|qry_typ:P|lang:en|wc:3|cs:8844|v=4,Bansariwala Hosiery Mills,https://www.indiamart.com/bansariwalahosierymills/?pos=141&kwd=crib bedding set&tags=||||8661.854|Price|product|||MDC|rsf:gd-|-stype:attr=1|qr_nm:gd|res:RC4|com-cf:nl|ptrs:na|ktp:N0|mc:55575|mtp:S|qry_typ:P|lang:en|wc:3|cs:8844|v=4,False,Guru Arjan Dev Nagar,Ludhiana,"PHALAHI BAZAR LUDHIANA Phalahi Bazar, Ludhiana, Guru Arjan Dev Nagar, Ludhiana - 141008, Dist.Ludhiana, Punjab",8048974722,
"Unisex Casual Wear Pink Printed Cotton Newborn Baby Jabla, Age Group: 6-9 Months",https://www.indiamart.com/proddetail/pink-printed-cotton-newborn-baby-jabla-2853375345233.html?pos=142&kwd=crib bedding set&tags=||||8626.744|Price|product|||MDC|rsf:gd-|-stype:attr=1|qr_nm:gd|res:RC4|com-cf:nl|ptrs:na|ktp:N0|mc:55575|mtp:S|qry_typ:P|lang:en|wc:3|cs:8844|v=4,Senthoor Tex,https://www.indiamart.com/senthoor-tex/?pos=142&kwd=crib bedding set&tags=||||8626.744|Price|product|||MDC|rsf:gd-|-stype:attr=1|qr_nm:gd|res:RC4|com-cf:nl|ptrs:na|ktp:N0|mc:55575|mtp:S|qry_typ:P|lang:en|wc:3|cs:8844|v=4,False,Tiruppur North,Tiruppur,"8/1465B RS Puram, 1 Street, Pandiyan Nagar, Puluvupatti PO, Tiruppur North, Tiruppur - 641602, Dist.Coimbatore, Tamil Nadu",8045729718,
Little Bunny Baby Bed,https://www.indiamart.com/proddetail/little-bunny-baby-bed-2854383935991.html?pos=143&kwd=crib bedding set&tags=||||8954.051|Price|product|||MDC|rsf:gd-|-stype:attr=1|qr_nm:gd|res:RC4|com-cf:nl|ptrs:na|ktp:N0|mc:55575|mtp:S|qry_typ:P|lang:en|wc:3|cs:8844|v=4,Earthwise Collective Private Limited,https://www.indiamart.com/earthwise-collective/?pos=143&kwd=crib bedding set&tags=||||8954.051|Price|product|||MDC|rsf:gd-|-stype:attr=1|qr_nm:gd|res:RC4|com-cf:nl|ptrs:na|ktp:N0|mc:55575|mtp:S|qry_typ:P|lang:en|wc:3|cs:8844|v=4,False,,Chennai,"9/2, 35/2, Bagirathiammal Street, T Nagar,, Chennai - 600017, Dist.Chennai, Tamil Nadu",7942801118,
"Polyester Baby Mosquito Net Bed, For Home, Size: Small",https://www.indiamart.com/proddetail/baby-mosquito-net-bed-2853993466773.html?pos=144&kwd=crib bedding set&tags=||||8752.144|Price|product|||MDC|rsf:gd-|-stype:attr=1|qr_nm:gd|res:RC4|com-cf:nl|ptrs:na|ktp:N0|mc:55575|mtp:S|qry_typ:P|lang:en|wc:3|cs:8844|v=4,A.D. Enterprises,https://www.indiamart.com/adenterprises-burari-newdelhi/?pos=144&kwd=crib bedding set&tags=||||8752.144|Price|product|||MDC|rsf:gd-|-stype:attr=1|qr_nm:gd|res:RC4|com-cf:nl|ptrs:na|ktp:N0|mc:55575|mtp:S|qry_typ:P|lang:en|wc:3|cs:8844|v=4,False,North,New Delhi,"K.No-12/1, Main 25 FT. Road, Near Shyam Sweets, Uttranchal Enclave ,Kamal Pur, Burari, North, New Delhi - 110084, Dist.Delhi, Delhi",8044565004,
Learning Pillow Cloth Book with English and Hindi Cushion Cotton Books for Kids Baby Children,https://www.indiamart.com/proddetail/learning-pillow-cloth-book-with-english-and-hindi-cushion-cotton-books-for-kids-baby-children-2853196760062.html?pos=145&kwd=crib bedding set&tags=||||8230.883|Price|product|||MDC|rsf:gd-|-stype:attr=1|qr_nm:gd|res:RC4|com-cf:nl|ptrs:na|ktp:N0|mc:55575|mtp:S|qry_typ:P|lang:en|wc:3|cs:8844|v=4,Shri Shri Fashion,https://www.indiamart.com/shri-shri-fashion/?pos=145&kwd=crib bedding set&tags=||||8230.883|Price|product|||MDC|rsf:gd-|-stype:attr=1|qr_nm:gd|res:RC4|com-cf:nl|ptrs:na|ktp:N0|mc:55575|mtp:S|qry_typ:P|lang:en|wc:3|cs:8844|v=4,False,Varachha,Surat,"A-231, Narayan Nagar, Near Nalanda School, Punagam,, Varachha, Surat - 395010, Dist.Surat, Gujarat",7942712235,
Pale Yellow Rectangular Newborn Baby Cotton Bed,https://www.indiamart.com/proddetail/newborn-baby-cotton-bed-2854184842588.html?pos=146&kwd=crib bedding set&tags=||||8228.275|Price|product|||MDC|rsf:gd-|-stype:attr=1|qr_nm:gd|res:RC4|com-cf:nl|ptrs:na|ktp:N0|mc:55575|mtp:S|qry_typ:P|lang:en|wc:3|cs:8844|v=4,Ramchand Tilumal,https://www.indiamart.com/ramchandtilumal/?pos=146&kwd=crib bedding set&tags=||||8228.275|Price|product|||MDC|rsf:gd-|-stype:attr=1|qr_nm:gd|res:RC4|com-cf:nl|ptrs:na|ktp:N0|mc:55575|mtp:S|qry_typ:P|lang:en|wc:3|cs:8844|v=4,False,Kalupur,Ahmedabad,"S-117, Sindhi Market, Revdi Bazar, Kalupur, Kalupur, Ahmedabad - 380001, Dist.Ahmedabad, Gujarat",8045731988,
Sky Blue Rectangular Cotton Baby Mosquito Net Bed,https://www.indiamart.com/proddetail/cotton-baby-mosquito-net-bed-2854690372191.html?pos=147&kwd=crib bedding set&tags=||||8954.051|Price|product|||MDC|rsf:gd-|-stype:attr=1|qr_nm:gd|res:RC4|com-cf:nl|ptrs:na|ktp:N0|mc:55575|mtp:S|qry_typ:P|lang:en|wc:3|cs:8844|v=4,Shanjay Enterprises,https://www.indiamart.com/shanjay-enterprises-chennai/?pos=147&kwd=crib bedding set&tags=||||8954.051|Price|product|||MDC|rsf:gd-|-stype:attr=1|qr_nm:gd|res:RC4|com-cf:nl|ptrs:na|ktp:N0|mc:55575|mtp:S|qry_typ:P|lang:en|wc:3|cs:8844|v=4,False,,Chennai,"No 5, Alapakkam Main Road, Maduravoyal, Chennai - 600095, Dist.Chennai, Tamil Nadu",8044461007,
Polyester Multicolor Baby Beddings,https://www.indiamart.com/proddetail/baby-beddings-2854787778155.html?pos=148&kwd=crib bedding set&tags=||||8752.144|Price|product|||MDC|rsf:gd-|-stype:attr=1|qr_nm:gd|res:RC4|com-cf:nl|ptrs:na|ktp:N0|mc:55575|mtp:S|qry_typ:P|lang:en|wc:3|cs:8844|v=4,Komal Embroidery,https://www.indiamart.com/komal-embroidery-newdelhi/?pos=148&kwd=crib bedding set&tags=||||8752.144|Price|product|||MDC|rsf:gd-|-stype:attr=1|qr_nm:gd|res:RC4|com-cf:nl|ptrs:na|ktp:N0|mc:55575|mtp:S|qry_typ:P|lang:en|wc:3|cs:8844|v=4,False,Rithala,New Delhi,"Ground Floor, Shop No. PVT-3, KH No. 1203, Lal Doora Village Rithala Near Surya Hotel, Rithala, New Delhi - 110085, Dist.Delhi, Delhi",8045730251,
6 L Copper Baby Beda,https://www.indiamart.com/proddetail/copper-baby-beda-2854339780133.html?pos=149&kwd=crib bedding set&tags=||||8038.093|Price|product|||MDC|rsf:gd-|-stype:attr=1|qr_nm:gd|res:RC4|com-cf:nl|ptrs:na|ktp:N0|mc:55575|mtp:S|qry_typ:P|lang:en|wc:3|cs:8844|v=4,Meera Product,https://www.indiamart.com/meeraproduct/?pos=149&kwd=crib bedding set&tags=||||8038.093|Price|product|||MDC|rsf:gd-|-stype:attr=1|qr_nm:gd|res:RC4|com-cf:nl|ptrs:na|ktp:N0|mc:55575|mtp:S|qry_typ:P|lang:en|wc:3|cs:8844|v=4,False,,Rajkot,"Plot No.4/2 1st Floor, Shed-B 66 Feet Road Gopnath Industrial Area, Rajkot - 360002, Dist.Rajkot, Gujarat",8045733748,
"Baby Cot With Mattress, Powder coated",https://www.indiamart.com/proddetail/baby-cot-with-mattress-2854320187233.html?pos=150&kwd=crib bedding set&tags=||||8752.144|Price|product|||MDC|rsf:gd-|-stype:attr=1|qr_nm:gd|res:RC4|com-cf:nl|ptrs:na|ktp:N0|mc:55575|mtp:S|qry_typ:P|lang:en|wc:3|cs:8844|v=4,Medicom International,https://www.indiamart.com/medicominternational/?pos=150&kwd=crib bedding set&tags=||||8752.144|Price|product|||MDC|rsf:gd-|-stype:attr=1|qr_nm:gd|res:RC4|com-cf:nl|ptrs:na|ktp:N0|mc:55575|mtp:S|qry_typ:P|lang:en|wc:3|cs:8844|v=4,False,,New Delhi,"Third Floor Plot No 121,Vani Vihar, Uttam Nagar,West Delhi, New Delhi - 110059, Dist.Delhi, Delhi",8045729241,
"Size: Single Cotton Cars Printed Kids Bed Sheet, For Home",https://www.indiamart.com/proddetail/cars-printed-kids-bed-sheet-2850708463173.html?pos=151&kwd=crib bedding set&tags=||||8584.299|Price|product|||MDC|rsf:gd-|-stype:attr=1|qr_nm:gd|res:RC4|com-cf:nl|ptrs:na|ktp:N0|mc:55575|mtp:S|qry_typ:P|lang:en|wc:3|cs:8844|v=4,Coimbatore Vandana Beds,https://www.indiamart.com/coimbatore-vandana-beds/?pos=151&kwd=crib bedding set&tags=||||8584.299|Price|product|||MDC|rsf:gd-|-stype:attr=1|qr_nm:gd|res:RC4|com-cf:nl|ptrs:na|ktp:N0|mc:55575|mtp:S|qry_typ:P|lang:en|wc:3|cs:8844|v=4,False,Town Hall,Coimbatore,"394, Oppanakara Street, Town Hall, Coimbatore - 641001, Dist.Coimbatore, Tamil Nadu",8047697480,
"Printed Cotton Baby Crib Bed Sheet, 180 gm, 0 To 2 Years",https://www.indiamart.com/proddetail/baby-crib-bed-sheet-21889273097.html?pos=152&kwd=crib bedding set&tags=||||8706.263|Price|product|||TS|rsf:gd-|-stype:attr=1|qr_nm:gd|res:RC4|com-cf:nl|ptrs:na|ktp:N0|mc:55575|mtp:S|qry_typ:P|lang:en|wc:3|cs:8844|v=4,Sivam Export,https://www.indiamart.com/sivamexport-karur/?pos=152&kwd=crib bedding set&tags=||||8706.263|Price|product|||TS|rsf:gd-|-stype:attr=1|qr_nm:gd|res:RC4|com-cf:nl|ptrs:na|ktp:N0|mc:55575|mtp:S|qry_typ:P|lang:en|wc:3|cs:8844|v=4,False,,Karur,"6/1 Thiru Nagar,3rd Street, Karur - 639002, Dist.Karur, Tamil Nadu",8046050918,
"Printed Organic Cotton Fitted Crib Sheet, For Baby Bedding, Size: Standard",https://www.indiamart.com/proddetail/organic-cotton-fitted-crib-sheet-3676609473.html?pos=153&kwd=crib bedding set&tags=||||8668.838|Price|product|||TS|rsf:gd-|-stype:attr=1|qr_nm:gd|res:RC4|com-cf:nl|ptrs:na|ktp:N0|mc:55575|mtp:S|qry_typ:P|lang:en|wc:3|cs:8844|v=4,Sri Kalyan Export Private Limited,https://www.kitchenlinens.in/?pos=153&kwd=crib bedding set&tags=||||8668.838|Price|product|||TS|rsf:gd-|-stype:attr=1|qr_nm:gd|res:RC4|com-cf:nl|ptrs:na|ktp:N0|mc:55575|mtp:S|qry_typ:P|lang:en|wc:3|cs:8844|v=4,True,Vilarasampatti,Erode,"No. 192/4, Iswarya Garden Sengodanpalayam, Vilarasampatti, Erode - 638107, Dist.Erode, Tamil Nadu",8048983341,
BORN BABY DIGITAL FOURPIS SET,https://www.indiamart.com/proddetail/born-baby-digital-fourpis-set-2853403599697.html?pos=154&kwd=crib bedding set&tags=||||8230.883|Price|product|||TS|rsf:gd-|-stype:attr=1|qr_nm:gd|res:RC4|com-cf:nl|ptrs:na|ktp:N0|mc:55575|mtp:S|qry_typ:P|lang:en|wc:3|cs:8844|v=4,Maa Kiran Handloom & Jiyana,https://www.indiamart.com/maakiranhandloomjiyana/?pos=154&kwd=crib bedding set&tags=||||8230.883|Price|product|||TS|rsf:gd-|-stype:attr=1|qr_nm:gd|res:RC4|com-cf:nl|ptrs:na|ktp:N0|mc:55575|mtp:S|qry_typ:P|lang:en|wc:3|cs:8844|v=4,False,Udhana,Surat,"Shop No.17, Ground Floor, Astha Business Centre, Canal Road,, Udhana, Surat - 394185, Dist.Surat, Gujarat",7942788374,
Multicolor Rectangular Baby Bedding Set Manufacturer,https://www.indiamart.com/proddetail/baby-bedding-set-manufacturer-2853931582673.html?pos=155&kwd=crib bedding set&tags=||||8752.144|Price|product|||TS|rsf:gd-|-stype:attr=1|qr_nm:gd|res:RC4|com-cf:nl|ptrs:na|ktp:N0|mc:55575|mtp:S|qry_typ:P|lang:en|wc:3|cs:8844|v=4,Mom & Son,https://www.theindianchoice.com/?pos=155&kwd=crib bedding set&tags=||||8752.144|Price|product|||TS|rsf:gd-|-stype:attr=1|qr_nm:gd|res:RC4|com-cf:nl|ptrs:na|ktp:N0|mc:55575|mtp:S|qry_typ:P|lang:en|wc:3|cs:8844|v=4,False,Karawal Nagar,New Delhi,"B-57 Gali Number-1 Mukund Vihar, Near Pnb Bank, Karawal Nagar, New Delhi - 110094, Dist.Delhi, Delhi",7942565509,
"Size: Single Cotton Cars Printed Kids Bed Sheet, For Home",https://www.indiamart.com/proddetail/cars-printed-kids-bed-sheet-2850708463173.html?pos=156&kwd=crib bedding set&tags=||||8584.299|Price|product|||MDC|rsf:gd-|-stype:attr=1|qr_nm:gd|res:RC4|com-cf:nl|ptrs:na|ktp:N0|mc:55575|mtp:S|qry_typ:P|lang:en|wc:3|cs:8844|v=4,Coimbatore Vandana Beds,https://www.indiamart.com/coimbatore-vandana-beds/?pos=156&kwd=crib bedding set&tags=||||8584.299|Price|product|||MDC|rsf:gd-|-stype:attr=1|qr_nm:gd|res:RC4|com-cf:nl|ptrs:na|ktp:N0|mc:55575|mtp:S|qry_typ:P|lang:en|wc:3|cs:8844|v=4,False,Town Hall,Coimbatore,"394, Oppanakara Street, Town Hall, Coimbatore - 641001, Dist.Coimbatore, Tamil Nadu",8047697480,
Multicolor Abracadabra Crib Bedding Set,https://www.indiamart.com/proddetail/crib-bedding-set-15237387430.html?pos=157&kwd=crib bedding set&tags=CA||||9839.57|Price|product|||NA|rsf:gd-|-stype:attr=1|qr_nm:gd|res:RC4|com-cf:nl|ptrs:na|ktp:N0|mc:55575|mtp:S|qry_typ:P|lang:en|wc:3|cs:8844|v=4,ARS Abundance,https://www.indiamart.com/ars-abundance-kolkata/?pos=157&kwd=crib bedding set&tags=CA||||9839.57|Price|product|||NA|rsf:gd-|-stype:attr=1|qr_nm:gd|res:RC4|com-cf:nl|ptrs:na|ktp:N0|mc:55575|mtp:S|qry_typ:P|lang:en|wc:3|cs:8844|v=4,False,Ballygunge,Kolkata,"1 A, Cornfield Road, Ballygunge, Kolkata - 700019, Dist.Kolkata, West Bengal",8048247130,1419
DIGITAL BABY BEDDING SET,https://www.indiamart.com/proddetail/digital-baby-bedding-set-2854002261173.html?pos=158&kwd=crib bedding set&tags=||||8747.203|Price|product|||MDC|rsf:gd-|-stype:attr=1|qr_nm:gd|res:RC4|com-cf:nl|ptrs:na|ktp:N0|mc:55575|mtp:S|qry_typ:P|lang:en|wc:3|cs:8844|v=4,Sabmix,https://www.indiamart.com/sabmix/?pos=158&kwd=crib bedding set&tags=||||8747.203|Price|product|||MDC|rsf:gd-|-stype:attr=1|qr_nm:gd|res:RC4|com-cf:nl|ptrs:na|ktp:N0|mc:55575|mtp:S|qry_typ:P|lang:en|wc:3|cs:8844|v=4,False,Jattal,Panipat,"Nehar By-Pass Near Jattal Road, Near Deshwal Petrol Pump, Jattal, Panipat - 132103, Dist.Panipat, Haryana",8045165458,
Crib Netting Cover Easy Installation Baby Nets Cover for Newborn Toddler Kids Blue,https://www.indiamart.com/proddetail/crib-netting-cover-easy-installation-baby-nets-cover-for-newborn-toddler-kids-blue-2854080617491.html?pos=159&kwd=crib bedding set&tags=||||8211.142|Price|product|||TS|rsf:gd-|-stype:attr=1|qr_nm:gd|res:RC4|com-cf:nl|ptrs:na|ktp:N0|mc:55575|mtp:S|qry_typ:P|lang:en|wc:3|cs:8844|v=4,Burhani Gift Gallery,https://www.burhanigiftgallery.com/?pos=159&kwd=crib bedding set&tags=||||8211.142|Price|product|||TS|rsf:gd-|-stype:attr=1|qr_nm:gd|res:RC4|com-cf:nl|ptrs:na|ktp:N0|mc:55575|mtp:S|qry_typ:P|lang:en|wc:3|cs:8844|v=4,False,Mandvi,Mumbai,"Office No57/59, Mandvi, Mumbai - 400003, Dist.Mumbai, Maharashtra",8048986076,
Crib Netting Cover Easy Installation Baby Nets Cover for Newborn Toddler Kids Blue,https://www.indiamart.com/proddetail/crib-netting-cover-easy-installation-baby-nets-cover-for-newborn-toddler-kids-blue-2854080629948.html?pos=160&kwd=crib bedding set&tags=||||8211.142|Price|product|||TS|rsf:gd-|-stype:attr=1|qr_nm:gd|res:RC4|com-cf:nl|ptrs:na|ktp:N0|mc:55575|mtp:S|qry_typ:P|lang:en|wc:3|cs:8844|v=4,Burhani Novelties,https://www.burhaninovelties.in/?pos=160&kwd=crib bedding set&tags=||||8211.142|Price|product|||TS|rsf:gd-|-stype:attr=1|qr_nm:gd|res:RC4|com-cf:nl|ptrs:na|ktp:N0|mc:55575|mtp:S|qry_typ:P|lang:en|wc:3|cs:8844|v=4,False,Mandvi,Mumbai,"Shop - 2, Grd Floor, Bhaji Pala Lane, 53, Burhani House, Shaikh Mohammed Ali, Allabux Road Nagdevi, Mandvi, Mandvi, Mumbai - 400003, Dist.Mumbai, Maharashtra",8043891100,
"Cotton Hand Block Printed Baby Bedding Set, Off White",https://www.indiamart.com/proddetail/hand-block-printed-baby-bedding-set-2850171132633.html?pos=161&kwd=crib bedding set&tags=||||8601.347|Price|product|||TS|rsf:gd-|-stype:attr=1|qr_nm:gd|res:RC4|com-cf:nl|ptrs:na|ktp:N0|mc:55575|mtp:S|qry_typ:P|lang:en|wc:3|cs:8844|v=4,Mohit Handicrafts And Textile,https://www.indiamart.com/mohit-handicrafts-and-textile/?pos=161&kwd=crib bedding set&tags=||||8601.347|Price|product|||TS|rsf:gd-|-stype:attr=1|qr_nm:gd|res:RC4|com-cf:nl|ptrs:na|ktp:N0|mc:55575|mtp:S|qry_typ:P|lang:en|wc:3|cs:8844|v=4,True,,Jaipur,"Sitarampuri, 50, Amer Road, Jaipur - 302002, Dist.Jaipur, Rajasthan",8043859041,
Cuddle Cloud Baby Foam Mattress With Mattress Protector,https://www.indiamart.com/proddetail/cuddle-cloud-baby-foam-mattress-with-mattress-protector-2853597674948.html?pos=162&kwd=crib bedding set&tags=||||8752.144|Price|product|||TS|rsf:gd-|-stype:attr=1|qr_nm:gd|res:RC4|com-cf:nl|ptrs:na|ktp:N0|mc:55575|mtp:S|qry_typ:P|lang:en|wc:3|cs:8844|v=4,Coir Comfort Industries (India) Pvt Ltd,https://www.indiamart.com/coir-comfort-industriesindia/?pos=162&kwd=crib bedding set&tags=||||8752.144|Price|product|||TS|rsf:gd-|-stype:attr=1|qr_nm:gd|res:RC4|com-cf:nl|ptrs:na|ktp:N0|mc:55575|mtp:S|qry_typ:P|lang:en|wc:3|cs:8844|v=4,False,Najafgarh,New Delhi,"Prop No-196, Khasra No-196/2, Ground Floor, Najafgarh Road, Najafgarh, New Delhi - 110043, Dist.Delhi, Delhi",8043819437,
Size: Single Cotton Baby Goddi,https://www.indiamart.com/proddetail/baby-goddi-2854231929188.html?pos=163&kwd=crib bedding set&tags=||||8230.883|Price|product|||TS|rsf:gd-|-stype:attr=1|qr_nm:gd|res:RC4|com-cf:nl|ptrs:na|ktp:N0|mc:55575|mtp:S|qry_typ:P|lang:en|wc:3|cs:8844|v=4,BABYHOLIC,https://www.babyholic.in/?pos=163&kwd=crib bedding set&tags=||||8230.883|Price|product|||TS|rsf:gd-|-stype:attr=1|qr_nm:gd|res:RC4|com-cf:nl|ptrs:na|ktp:N0|mc:55575|mtp:S|qry_typ:P|lang:en|wc:3|cs:8844|v=4,False,,Surat,"Ground Floor, Plot No. F/56/, And F/57, Laxmi Narayan Industrial Estate, Udhana, Kailash Fashion, Surat - 394210, Dist.Surat, Gujarat",8045732096,
Newborn Baby Woolen Set,https://www.indiamart.com/proddetail/newborn-baby-woolen-set-2854859393348.html?pos=164&kwd=crib bedding set&tags=||||8954.051|Price|product|||TS|rsf:gd-|-stype:attr=1|qr_nm:gd|res:RC4|com-cf:nl|ptrs:na|ktp:N0|mc:55575|mtp:S|qry_typ:P|lang:en|wc:3|cs:8844|v=4,Sundar Garments,https://www.sundargarment.com/?pos=164&kwd=crib bedding set&tags=||||8954.051|Price|product|||TS|rsf:gd-|-stype:attr=1|qr_nm:gd|res:RC4|com-cf:nl|ptrs:na|ktp:N0|mc:55575|mtp:S|qry_typ:P|lang:en|wc:3|cs:8844|v=4,False,Kondithop,Chennai,"No-9 Murugesan Street Near Kondithope Park, Kondithop, Chennai - 600079, Dist.Chennai, Tamil Nadu",8048266539,
"Size: Single Cotton Baby Mattress, Thickness: 2 inch",https://www.indiamart.com/proddetail/cotton-baby-mattress-2853987306473.html?pos=165&kwd=crib bedding set&tags=||||8228.275|Price|product|||MDC|rsf:gd-|-stype:attr=1|qr_nm:gd|res:RC4|com-cf:nl|ptrs:na|ktp:N0|mc:55575|mtp:S|qry_typ:P|lang:en|wc:3|cs:8844|v=4,Fashionmart India,https://www.indiamart.com/fashionmart-india/?pos=165&kwd=crib bedding set&tags=||||8228.275|Price|product|||MDC|rsf:gd-|-stype:attr=1|qr_nm:gd|res:RC4|com-cf:nl|ptrs:na|ktp:N0|mc:55575|mtp:S|qry_typ:P|lang:en|wc:3|cs:8844|v=4,False,Parshwanath Township,Ahmedabad,"BH-Rajiv Park, On Canal, Krishna Nagar, 10, Narnarayan Park, Nala Road, Amul Milk, Naroda, Parshwanath Township, Ahmedabad - 382345, Dist.Ahmedabad, Gujarat",8044564853,
"Open Mount Polyester Baby Mosquito Net Bed, For Home, Size: 50x55 cm",https://www.indiamart.com/proddetail/polyester-baby-mosquito-net-bed-2851612971273.html?pos=166&kwd=crib bedding set&tags=||||8661.854|Price|product|||MDC|rsf:gd-|-stype:attr=1|qr_nm:gd|res:RC4|com-cf:nl|ptrs:na|ktp:N0|mc:55575|mtp:S|qry_typ:P|lang:en|wc:3|cs:8844|v=4,Raj Industries,https://www.indiamart.com/raj-industries-punjab/?pos=166&kwd=crib bedding set&tags=||||8661.854|Price|product|||MDC|rsf:gd-|-stype:attr=1|qr_nm:gd|res:RC4|com-cf:nl|ptrs:na|ktp:N0|mc:55575|mtp:S|qry_typ:P|lang:en|wc:3|cs:8844|v=4,False,,Ludhiana,"H. No B 12 629, Kucha Anayat, Nr Div No 2 Brown Road, Ludhiana - 141008, Dist.Ludhiana, Punjab",7942800347,
"Polyster Cotton Baby Crib Bedding set, 0-6 Months",https://www.indiamart.com/proddetail/baby-crib-bedding-set-22597355855.html?pos=167&kwd=crib bedding set&tags=CC||||8752.144|Price|product|||NA|rsf:gd-|-stype:attr=1|qr_nm:gd|res:RC4|com-cf:nl|ptrs:na|ktp:N0|mc:55575|mtp:S|qry_typ:P|lang:en|wc:3|cs:8844|v=4,Ekanthika Enterprises,https://www.indiamart.com/ekanthika-enterprises/?pos=167&kwd=crib bedding set&tags=CC||||8752.144|Price|product|||NA|rsf:gd-|-stype:attr=1|qr_nm:gd|res:RC4|com-cf:nl|ptrs:na|ktp:N0|mc:55575|mtp:S|qry_typ:P|lang:en|wc:3|cs:8844|v=4,False,North West Delhi,New Delhi,"C-51/B, S No. 21, Second Floor, Khasra No. 214/2 Sector 07, North West Delhi, New Delhi - 110085, Dist.Delhi, Delhi",8048371865,554
Polyresin Christmas Crib Set,https://www.indiamart.com/proddetail/christmas-crib-set-17148209862.html?pos=168&kwd=crib bedding set&tags=CC||||8954.051||product|||NA|rsf:gd-|-stype:attr=1|qr_nm:gd|res:RC4|com-cf:nl|ptrs:na|ktp:N0|mc:55575|mtp:S|qry_typ:P|lang:en|wc:3|cs:8844|v=4,Amra Decoration,https://www.indiamart.com/amradecoration/?pos=168&kwd=crib bedding set&tags=CC||||8954.051||product|||NA|rsf:gd-|-stype:attr=1|qr_nm:gd|res:RC4|com-cf:nl|ptrs:na|ktp:N0|mc:55575|mtp:S|qry_typ:P|lang:en|wc:3|cs:8844|v=4,False,George Town,Chennai,"37, Bunder Street Corner, 1st Floor, George Town, Chennai - 600001, Dist.Chennai, Tamil Nadu",8047769682,
Polyresin Christmas Crib Set,https://www.indiamart.com/proddetail/christmas-crib-set-17148209862.html?pos=169&kwd=crib bedding set&tags=CC||||8954.051||product|||NA|rsf:gd-|-stype:attr=1|qr_nm:gd|res:RC4|com-cf:nl|ptrs:na|ktp:N0|mc:55575|mtp:S|qry_typ:P|lang:en|wc:3|cs:8844|v=4,Amra Decoration,https://www.indiamart.com/amradecoration/?pos=169&kwd=crib bedding set&tags=CC||||8954.051||product|||NA|rsf:gd-|-stype:attr=1|qr_nm:gd|res:RC4|com-cf:nl|ptrs:na|ktp:N0|mc:55575|mtp:S|qry_typ:P|lang:en|wc:3|cs:8844|v=4,False,George Town,Chennai,"37, Bunder Street Corner, 1st Floor, George Town, Chennai - 600001, Dist.Chennai, Tamil Nadu",8047769682,
Exemplary Design Babies Bloom Red and Purple Velvet Crib Bedding Set,https://www.indiamart.com/proddetail/babies-bloom-red-and-purple-velvet-crib-bedding-set-16414968233.html?pos=170&kwd=crib bedding set&tags=CC||||8752.144|Price|product|||NA|rsf:gd-|-stype:attr=1|qr_nm:gd|res:RC4|com-cf:nl|ptrs:na|ktp:N0|mc:55575|mtp:S|qry_typ:P|lang:en|wc:3|cs:8844|v=4,Babies Bloom Store,https://www.indiamart.com/babies-bloom-store/?pos=170&kwd=crib bedding set&tags=CC||||8752.144|Price|product|||NA|rsf:gd-|-stype:attr=1|qr_nm:gd|res:RC4|com-cf:nl|ptrs:na|ktp:N0|mc:55575|mtp:S|qry_typ:P|lang:en|wc:3|cs:8844|v=4,False,Paschim Vihar,New Delhi,"IST FLOOR,670,GH-14,,PASCHIM VIHAR,,,, Paschim Vihar, New Delhi - 110087, Dist.Delhi, Delhi",8062245014,210
Fancy Engineered Wood Crib,https://www.indiamart.com/proddetail/fancy-engineered-wood-crib-22699722091.html?pos=171&kwd=crib bedding set&tags=CC||||8482.091|Price|product|||NA|rsf:gd-|-stype:attr=1|qr_nm:gd|res:RC4|com-cf:nl|ptrs:na|ktp:N0|mc:55575|mtp:S|qry_typ:P|lang:en|wc:3|cs:8844|v=4,Gem Palace,https://www.indiamart.com/gempalace/?pos=171&kwd=crib bedding set&tags=CC||||8482.091|Price|product|||NA|rsf:gd-|-stype:attr=1|qr_nm:gd|res:RC4|com-cf:nl|ptrs:na|ktp:N0|mc:55575|mtp:S|qry_typ:P|lang:en|wc:3|cs:8844|v=4,False,Main Prem Nagar Foy Sagar Road,Ajmer,"717/5 B-12, Main Prem Nagar Foy Sagar Road, Ajmer - 305001, Dist.Ajmer, Rajasthan",8048372606,319
PVC Pink Baby Bedding With Mosquito Net,https://www.indiamart.com/proddetail/baby-bedding-with-mosquito-net-23034287530.html?pos=172&kwd=crib bedding set&tags=||||9734.213||product|||MDC|rsf:gd-|-stype:attr=1|qr_nm:gd|res:RC4|com-cf:nl|ptrs:na|ktp:N0|mc:55575|mtp:S|qry_typ:P|lang:en|wc:3|cs:8844|v=4,Routh Textile,https://www.indiamart.com/routhtextile/?pos=172&kwd=crib bedding set&tags=||||9734.213||product|||MDC|rsf:gd-|-stype:attr=1|qr_nm:gd|res:RC4|com-cf:nl|ptrs:na|ktp:N0|mc:55575|mtp:S|qry_typ:P|lang:en|wc:3|cs:8844|v=4,False,,Narayangarh,"Kedar High School, Routh Textile, Routh Bhawan, Unnamed Road, Kedar, Narayangarh - 721445, West Bengal",7949368454,
"White Hand Block Printed Cotton Baby Bedding Sets, For Home",https://www.indiamart.com/proddetail/hand-block-printed-cotton-baby-bedding-sets-26476482097.html?pos=173&kwd=crib bedding set&tags=||||8601.347|Price|product|||TS|rsf:gd-|-stype:attr=1|qr_nm:gd|res:RC4|com-cf:nl|ptrs:na|ktp:N0|mc:55575|mtp:S|qry_typ:P|lang:en|wc:3|cs:8844|v=4,Veer Handircrafts,https://www.veerhandicrafts.com/?pos=173&kwd=crib bedding set&tags=||||8601.347|Price|product|||TS|rsf:gd-|-stype:attr=1|qr_nm:gd|res:RC4|com-cf:nl|ptrs:na|ktp:N0|mc:55575|mtp:S|qry_typ:P|lang:en|wc:3|cs:8844|v=4,True,Shyam Nagar,Jaipur,"Basement, 192/331, Sector 19, Kumbha Marg, Shyam Nagar, Jaipur - 302029, Dist.Jaipur, Rajasthan",8043851762,
Unisex Kids Chillax Printed Hoodies Track Pant Set,https://www.indiamart.com/proddetail/kids-chillax-printed-hoodies-track-pant-set-2854036171030.html?pos=174&kwd=crib bedding set&tags=||||8230.883|Price|product|||TS|rsf:gd-|-stype:attr=1|qr_nm:gd|res:RC4|com-cf:nl|ptrs:na|ktp:N0|mc:55575|mtp:S|qry_typ:P|lang:en|wc:3|cs:8844|v=4,Jani Collection,https://www.indiamart.com/janicollection/?pos=174&kwd=crib bedding set&tags=||||8230.883|Price|product|||TS|rsf:gd-|-stype:attr=1|qr_nm:gd|res:RC4|com-cf:nl|ptrs:na|ktp:N0|mc:55575|mtp:S|qry_typ:P|lang:en|wc:3|cs:8844|v=4,False,Katargam,Surat,"H.No. F.F., Plot 30-31, Parsottam Nagar, Idghawad, B/h Manavdharam Ashram, Gotalawadi, Katargam, Surat - 395003, Dist.Surat, Gujarat",8044562060,
Thickness: 4 Inches Size: Single BABY CRIB BED MATTRESS SET,https://www.indiamart.com/proddetail/baby-crib-bed-mattress-set-2852423845148.html?pos=175&kwd=crib bedding set&tags=CC||||8236.946|Price|product|||NA|rsf:gd-|-stype:attr=1|qr_nm:gd|res:RC4|com-cf:nl|ptrs:na|ktp:N0|mc:55575|mtp:S|qry_typ:P|lang:en|wc:3|cs:8844|v=4,Pranita Textile,https://www.indiamart.com/pranita-textile/?pos=175&kwd=crib bedding set&tags=CC||||8236.946|Price|product|||NA|rsf:gd-|-stype:attr=1|qr_nm:gd|res:RC4|com-cf:nl|ptrs:na|ktp:N0|mc:55575|mtp:S|qry_typ:P|lang:en|wc:3|cs:8844|v=4,False,,Raigad,"Unit No 206, 2nd Fioor, Silver Springs, Taloja Midc, Taloja Panchanand, Raigad., Raigad - 410208, Maharashtra",8043855238,
"Cotton Printed Bedding Set, For Home, White",https://www.indiamart.com/proddetail/cotton-printed-bedding-set-24056685997.html?pos=176&kwd=crib bedding set&tags=CC||||8954.051|Price|product|||NA|rsf:gd-|-stype:attr=1|qr_nm:gd|res:RC4|com-cf:nl|ptrs:na|ktp:N0|mc:55575|mtp:S|qry_typ:P|lang:en|wc:3|cs:8844|v=4,MK Decors,https://www.indiamart.com/mk-decors/?pos=176&kwd=crib bedding set&tags=CC||||8954.051|Price|product|||NA|rsf:gd-|-stype:attr=1|qr_nm:gd|res:RC4|com-cf:nl|ptrs:na|ktp:N0|mc:55575|mtp:S|qry_typ:P|lang:en|wc:3|cs:8844|v=4,False,George Town,Chennai,"Old No-4, New No-06, Dharmaraja Koil Street, 1st Lane,, George Town, Chennai - 600001, Dist.Chennai, Tamil Nadu",8048984737,
VINTAGE Brown Wooden Baby Crib,https://www.indiamart.com/proddetail/wooden-baby-crib-12567948155.html?pos=177&kwd=crib bedding set&tags=CC||||9045.955||product|||NA|rsf:gd-|-stype:attr=1|qr_nm:gd|res:RC4|com-cf:nl|ptrs:na|ktp:N0|mc:55575|mtp:S|qry_typ:P|lang:en|wc:3|cs:8844|v=4,Subhash Colour Centre,https://www.indiamart.com/subhashcolourcentre/?pos=177&kwd=crib bedding set&tags=CC||||9045.955||product|||NA|rsf:gd-|-stype:attr=1|qr_nm:gd|res:RC4|com-cf:nl|ptrs:na|ktp:N0|mc:55575|mtp:S|qry_typ:P|lang:en|wc:3|cs:8844|v=4,False,,Kanpur,"111/435, Ashok Nagar, Kanpur - 208012, Uttar Pradesh",7942536814,
"Colgate Natural Plain Dual Firmness Foam Crib Mattress, Size: 6*3 Feet",https://www.indiamart.com/proddetail/dual-firmness-foam-crib-mattress-20550188430.html?pos=178&kwd=crib bedding set&tags=CC||||8954.051|Price|product|||NA|rsf:gd-|-stype:attr=1|qr_nm:gd|res:RC4|com-cf:nl|ptrs:na|ktp:N0|mc:55575|mtp:S|qry_typ:P|lang:en|wc:3|cs:8844|v=4,Furniture India,https://www.indiamart.com/furnitureindia-chennai/?pos=178&kwd=crib bedding set&tags=CC||||8954.051|Price|product|||NA|rsf:gd-|-stype:attr=1|qr_nm:gd|res:RC4|com-cf:nl|ptrs:na|ktp:N0|mc:55575|mtp:S|qry_typ:P|lang:en|wc:3|cs:8844|v=4,False,Ullagaram,Chennai,"No. 106/35, Medavakkam Main Road, Ullagaram, Chennai - 600091, Dist.Chennai, Tamil Nadu",7949368630,
Newborn Baby Bed Mattress,,Whopssy International,https://www.indiamart.com/whopssy-international/?pos=179&kwd=crib bedding set&tags=||||8230.883|Price|product|||MDC|rsf:gd-|-stype:attr=1|qr_nm:gd|res:RC4|com-cf:nl|ptrs:na|ktp:N0|mc:55575|mtp:S|qry_typ:P|lang:en|wc:3|cs:8844|v=4,False,,Surat,"First Floor, Plot No. 377, Ram Vatika V-2, Near Rangoli Chowkdi, Sayan Road, Velenja Gam, Sayan, Surat - 394150, Dist.Surat, Gujarat",7949340041,
Cotton Hand Block Printed Bedding Set,https://www.indiamart.com/proddetail/cotton-hand-block-printed-bedding-set-2854119026462.html?pos=180&kwd=crib bedding set&tags=||||8601.347|Price|product|||TS|rsf:gd-|-stype:attr=1|qr_nm:gd|res:RC4|com-cf:nl|ptrs:na|ktp:N0|mc:55575|mtp:S|qry_typ:P|lang:en|wc:3|cs:8844|v=4,Shyam Ji Textiles,https://www.indiamart.com/shyamji-textiles-jaipur/?pos=180&kwd=crib bedding set&tags=||||8601.347|Price|product|||TS|rsf:gd-|-stype:attr=1|qr_nm:gd|res:RC4|com-cf:nl|ptrs:na|ktp:N0|mc:55575|mtp:S|qry_typ:P|lang:en|wc:3|cs:8844|v=4,False,Sanganer Bazar,Jaipur,"Shop No.-1 Plot No 10, Sanganer, Sanganer Bazar, Jaipur - 302029, Dist.Jaipur, Rajasthan",8048210596,
"Blue Baby Bedding Set, Cotton",https://www.indiamart.com/proddetail/blue-baby-bedding-set-2854147655330.html?pos=181&kwd=crib bedding set&tags=||||8507.67|Price|product|||MDC|rsf:gd-|-stype:attr=1|qr_nm:gd|res:RC4|com-cf:nl|ptrs:na|ktp:N0|mc:55575|mtp:S|qry_typ:P|lang:en|wc:3|cs:8844|v=4,Ruby Traders And Distributors,https://www.indiamart.com/ruby-traders-distributors/?pos=181&kwd=crib bedding set&tags=||||8507.67|Price|product|||MDC|rsf:gd-|-stype:attr=1|qr_nm:gd|res:RC4|com-cf:nl|ptrs:na|ktp:N0|mc:55575|mtp:S|qry_typ:P|lang:en|wc:3|cs:8844|v=4,False,,Ernakulam,"Ground, 70/2535 A, Ruby Traders And Distributors, Deshabhimani Road, Near Bsnl Exchange, Desha Kochi, Ernakulam - 682017, Dist.Ernakulam, Kerala",8041015821,
"Cotton Baby Blue Bedding Set, Printed",https://www.indiamart.com/proddetail/baby-blue-bedding-set-22553510055.html?pos=182&kwd=crib bedding set&tags=||||8752.144|Price|product|||MDC|rsf:gd-|-stype:attr=1|qr_nm:gd|res:RC4|com-cf:nl|ptrs:na|ktp:N0|mc:55575|mtp:S|qry_typ:P|lang:en|wc:3|cs:8844|v=4,Kidz Creation,https://www.indiamart.com/kidzcreation/?pos=182&kwd=crib bedding set&tags=||||8752.144|Price|product|||MDC|rsf:gd-|-stype:attr=1|qr_nm:gd|res:RC4|com-cf:nl|ptrs:na|ktp:N0|mc:55575|mtp:S|qry_typ:P|lang:en|wc:3|cs:8844|v=4,False,,New Delhi,"Shop No. 279/517,Sabharwal Market, Tolia Wali Gali Sadar Bazar, North Delhi,, New Delhi - 110006, Dist.Delhi, Delhi",8047679212,
"King 5 pic set cotton, For BUSSINES, Printed",https://www.indiamart.com/proddetail/5-pic-set-cotton-2854564987548.html?pos=183&kwd=crib bedding set&tags=||||8601.347|Price|product|||TS|rsf:gd-|-stype:attr=1|qr_nm:gd|res:RC4|com-cf:nl|ptrs:na|ktp:N0|mc:55575|mtp:S|qry_typ:P|lang:en|wc:3|cs:8844|v=4,Perfect Look,https://www.perfectlookjpr.in/?pos=183&kwd=crib bedding set&tags=||||8601.347|Price|product|||TS|rsf:gd-|-stype:attr=1|qr_nm:gd|res:RC4|com-cf:nl|ptrs:na|ktp:N0|mc:55575|mtp:S|qry_typ:P|lang:en|wc:3|cs:8844|v=4,False,Sanganer,Jaipur,"Thana Sanganer Road Patel Bhawan, Sanganer, Jaipur - 302011, Dist.Jaipur, Rajasthan",8047630975,
"Cotton King 5 Pc Bedsheet Set, For Home, Printed",https://www.indiamart.com/proddetail/5-pc-bedsheet-set-2854382372348.html?pos=184&kwd=crib bedding set&tags=||||8747.203|Price|product|||TS|rsf:gd-|-stype:attr=1|qr_nm:gd|res:RC4|com-cf:nl|ptrs:na|ktp:N0|mc:55575|mtp:S|qry_typ:P|lang:en|wc:3|cs:8844|v=4,WD International,https://www.indiamart.com/wdinternational/?pos=184&kwd=crib bedding set&tags=||||8747.203|Price|product|||TS|rsf:gd-|-stype:attr=1|qr_nm:gd|res:RC4|com-cf:nl|ptrs:na|ktp:N0|mc:55575|mtp:S|qry_typ:P|lang:en|wc:3|cs:8844|v=4,False,Colony,Panipat,"Shop, Guru Nanak Pura Backside Of Goverment High School,, Colony, Panipat - 132103, Dist.Panipat, Haryana",8047309523,
Harley 4 pc Set,https://www.indiamart.com/proddetail/harley-4-pc-set-2853734617891.html?pos=185&kwd=crib bedding set&tags=||||8747.203|Price|product|||TS|rsf:gd-|-stype:attr=1|qr_nm:gd|res:RC4|com-cf:nl|ptrs:na|ktp:N0|mc:55575|mtp:S|qry_typ:P|lang:en|wc:3|cs:8844|v=4,Asham Overseas,https://www.ashamoverseas.com/?pos=185&kwd=crib bedding set&tags=||||8747.203|Price|product|||TS|rsf:gd-|-stype:attr=1|qr_nm:gd|res:RC4|com-cf:nl|ptrs:na|ktp:N0|mc:55575|mtp:S|qry_typ:P|lang:en|wc:3|cs:8844|v=4,False,Netaji Colony,Panipat,"396 A-Block, Ansal Sushant City, Netaji Colony, Panipat - 132103, Dist.Panipat, Haryana",8046070204,
Multicolor Rectangular REVERSIBLE PORTABLE COTTON BABY BED,https://www.indiamart.com/proddetail/reversible-portable-cotton-baby-bed-2854738047491.html?pos=186&kwd=crib bedding set&tags=||||8584.299|Price|product|||TS|rsf:gd-|-stype:attr=1|qr_nm:gd|res:RC4|com-cf:nl|ptrs:na|ktp:N0|mc:55575|mtp:S|qry_typ:P|lang:en|wc:3|cs:8844|v=4,Agam Home Furnishings,https://www.indiamart.com/agam-home-furnishings/?pos=186&kwd=crib bedding set&tags=||||8584.299|Price|product|||TS|rsf:gd-|-stype:attr=1|qr_nm:gd|res:RC4|com-cf:nl|ptrs:na|ktp:N0|mc:55575|mtp:S|qry_typ:P|lang:en|wc:3|cs:8844|v=4,False,Singanallur,Coimbatore,"1277, Tamil Nadu Housing Board Colony, Singanallur, Singanallur, Coimbatore - 641005, Dist.Coimbatore, Tamil Nadu",7942717816,
"Cotton Double Bedding Set, Printed",https://www.indiamart.com/proddetail/bedding-set-2854461333248.html?pos=187&kwd=crib bedding set&tags=||||8747.203|Price|product|||TS|rsf:gd-|-stype:attr=1|qr_nm:gd|res:RC4|com-cf:nl|ptrs:na|ktp:N0|mc:55575|mtp:S|qry_typ:P|lang:en|wc:3|cs:8844|v=4,M L Textile,https://www.indiamart.com/ml-textile/?pos=187&kwd=crib bedding set&tags=||||8747.203|Price|product|||TS|rsf:gd-|-stype:attr=1|qr_nm:gd|res:RC4|com-cf:nl|ptrs:na|ktp:N0|mc:55575|mtp:S|qry_typ:P|lang:en|wc:3|cs:8844|v=4,False,Jattal,Panipat,"8 Marla Colony Jattal Road Near Siti Cable, Jattal, Panipat - 132103, Dist.Panipat, Haryana",8046074237,
"Polycotton Double spin 5 pcs round cushion bedsheet set, For Home, Printed",https://www.indiamart.com/proddetail/spin-5-pcs-round-cushion-bedsheet-set-2853960418655.html?pos=188&kwd=crib bedding set&tags=||||8747.203|Price|product|||TS|rsf:gd-|-stype:attr=1|qr_nm:gd|res:RC4|com-cf:nl|ptrs:na|ktp:N0|mc:55575|mtp:S|qry_typ:P|lang:en|wc:3|cs:8844|v=4,Choice Home Textiles,https://www.choicehome.in/?pos=188&kwd=crib bedding set&tags=||||8747.203|Price|product|||TS|rsf:gd-|-stype:attr=1|qr_nm:gd|res:RC4|com-cf:nl|ptrs:na|ktp:N0|mc:55575|mtp:S|qry_typ:P|lang:en|wc:3|cs:8844|v=4,False,Manmohan Nagar,Panipat,"Dhoop Singh nagar gali no 21, Manmohan Nagar, Panipat - 132103, Dist.Panipat, Haryana",7942815204,
Floral Print Queen Size Multicolor Printed Cotton Double Bed Sheet Set,https://www.indiamart.com/proddetail/multicolor-printed-cotton-double-bed-sheet-set-2849423434862.html?pos=189&kwd=crib bedding set&tags=||||8601.347|Price|product|||TS|rsf:gd-|-stype:attr=1|qr_nm:gd|res:RC4|com-cf:nl|ptrs:na|ktp:N0|mc:55575|mtp:S|qry_typ:P|lang:en|wc:3|cs:8844|v=4,Touch Of Rajasthan,https://www.touchofrajasthan.com/?pos=189&kwd=crib bedding set&tags=||||8601.347|Price|product|||TS|rsf:gd-|-stype:attr=1|qr_nm:gd|res:RC4|com-cf:nl|ptrs:na|ktp:N0|mc:55575|mtp:S|qry_typ:P|lang:en|wc:3|cs:8844|v=4,False,Neota,Jaipur,"Village Keshiyawala, Post Muhana, Sanganer, Neota, Jaipur - 302029, Dist.Jaipur, Rajasthan",7942673835,
"Solid Baby Bedding Set, Red",https://www.indiamart.com/proddetail/baby-bedding-set-2853013683388.html?pos=190&kwd=crib bedding set&tags=||||8747.203|Price|product|||TS|rsf:gd-|-stype:attr=1|qr_nm:gd|res:RC4|com-cf:nl|ptrs:na|ktp:N0|mc:55575|mtp:S|qry_typ:P|lang:en|wc:3|cs:8844|v=4,Satya Textile,https://www.indiamart.com/satyatextile/?pos=190&kwd=crib bedding set&tags=||||8747.203|Price|product|||TS|rsf:gd-|-stype:attr=1|qr_nm:gd|res:RC4|com-cf:nl|ptrs:na|ktp:N0|mc:55575|mtp:S|qry_typ:P|lang:en|wc:3|cs:8844|v=4,False,Netaji Colony,Panipat,"SHOP No. 324/7, SETHI Chowk,NEAR LOTUS HOSPITAL FACTORY KUTANI ROAD, Netaji Colony, Panipat - 132103, Dist.Panipat, Haryana",8046062202,
Multicolor Gulab King Size Bedsheet Cushion Sets for Home,https://www.indiamart.com/proddetail/gulab-king-size-bedsheet-cushion-sets-22073902430.html?pos=191&kwd=crib bedding set&tags=||||9839.57|Price|product|||MDC|rsf:gd-|-stype:attr=1|qr_nm:gd|res:RC4|com-cf:nl|ptrs:na|ktp:N0|mc:55575|mtp:S|qry_typ:P|lang:en|wc:3|cs:8844|v=4,Anita Fabrics,https://www.indiamart.com/anitafabrics/?pos=191&kwd=crib bedding set&tags=||||9839.57|Price|product|||MDC|rsf:gd-|-stype:attr=1|qr_nm:gd|res:RC4|com-cf:nl|ptrs:na|ktp:N0|mc:55575|mtp:S|qry_typ:P|lang:en|wc:3|cs:8844|v=4,False,Kalakar Street,Kolkata,"4, Jagmohan Mullick Lane, 2nd Floor, Police Quarter, Kalakar Street, Kolkata - 700007, Dist.Kolkata, West Bengal",8046034176,
"Floral Printed King 5 Piece cotton Bed Sheet Set, For Everywhere",https://www.indiamart.com/proddetail/5-piece-cotton-bed-sheet-set-2851739577230.html?pos=192&kwd=crib bedding set&tags=||||8747.203|Price|product|||TS|rsf:gd-|-stype:attr=1|qr_nm:gd|res:RC4|com-cf:nl|ptrs:na|ktp:N0|mc:55575|mtp:S|qry_typ:P|lang:en|wc:3|cs:8844|v=4,Daya Handlooms Private Limited,https://www.dayahandloom.in/?pos=192&kwd=crib bedding set&tags=||||8747.203|Price|product|||TS|rsf:gd-|-stype:attr=1|qr_nm:gd|res:RC4|com-cf:nl|ptrs:na|ktp:N0|mc:55575|mtp:S|qry_typ:P|lang:en|wc:3|cs:8844|v=4,False,Chowk,Panipat,"Amar Bhawan Chowk Shop NO - 412 Ward NO- 7 Near Ram Mandir Gali, Chowk, Panipat - 132103, Dist.Panipat, Haryana",7942833117,
bedsheet set for corporate gift,https://www.indiamart.com/proddetail/bedsheet-set-for-corporate-gift-2854999379148.html?pos=193&kwd=crib bedding set&tags=||||8747.203|Price|product|||TS|rsf:gd-|-stype:attr=1|qr_nm:gd|res:RC4|com-cf:nl|ptrs:na|ktp:N0|mc:55575|mtp:S|qry_typ:P|lang:en|wc:3|cs:8844|v=4,Parth Exports,https://www.parthexport.in/?pos=193&kwd=crib bedding set&tags=||||8747.203|Price|product|||TS|rsf:gd-|-stype:attr=1|qr_nm:gd|res:RC4|com-cf:nl|ptrs:na|ktp:N0|mc:55575|mtp:S|qry_typ:P|lang:en|wc:3|cs:8844|v=4,False,Sector 25,Panipat,"532, Ground Floor, Sector-25 Part-II, Sector 25, Panipat - 132103, Dist.Panipat, Haryana",7942563308,
"Multocolor Striped Bed Sheet Fabric, For Upholstery",https://www.indiamart.com/proddetail/striped-bed-sheet-fabric-2850579596148.html?pos=194&kwd=crib bedding set&tags=||||8747.203|Price|product|||TS|rsf:gd-|-stype:attr=1|qr_nm:gd|res:RC4|com-cf:nl|ptrs:na|ktp:N0|mc:55575|mtp:S|qry_typ:P|lang:en|wc:3|cs:8844|v=4,Shree Ganpati Traders,https://www.indiamart.com/shri-ganpati-traders-panipat/?pos=194&kwd=crib bedding set&tags=||||8747.203|Price|product|||TS|rsf:gd-|-stype:attr=1|qr_nm:gd|res:RC4|com-cf:nl|ptrs:na|ktp:N0|mc:55575|mtp:S|qry_typ:P|lang:en|wc:3|cs:8844|v=4,False,Shiv Nagar,Panipat,"Shop No. 19, Maharja Aggarshan Towel Market, Opposite LK Honda, Gohana Road, Shiv Nagar, Panipat - 132103, Dist.Panipat, Haryana",7942534541,
"Gray Plain Bed Sheet Comforter Set, Size: King, Capacity: 1000 Pieces Per Day",https://www.indiamart.com/proddetail/bed-sheet-comforter-set-2852947120891.html?pos=195&kwd=crib bedding set&tags=||||8741.812|Price|product|||TS|rsf:gd-|-stype:attr=1|qr_nm:gd|res:RC4|com-cf:nl|ptrs:na|ktp:N0|mc:55575|mtp:S|qry_typ:P|lang:en|wc:3|cs:8844|v=4,Sleeping Owls Business Private Limited,https://www.indiamart.com/snera-creation/?pos=195&kwd=crib bedding set&tags=||||8741.812|Price|product|||TS|rsf:gd-|-stype:attr=1|qr_nm:gd|res:RC4|com-cf:nl|ptrs:na|ktp:N0|mc:55575|mtp:S|qry_typ:P|lang:en|wc:3|cs:8844|v=4,False,Palam Vihar,Gurgaon,"plot 257 Industrial area sector 37 phase 6 Gurgaon, Palam Vihar, Gurgaon - 122017, Dist.Gurgaon, Haryana",8048985631,
"Multicolor Medium Stripe Hospital Bedsheet, 60 Inch * 90 Inch",https://www.indiamart.com/proddetail/medium-stripe-hospital-bedsheet-2854919326555.html?pos=196&kwd=crib bedding set&tags=||||8668.838|Price|product|||TS|rsf:gd-|-stype:attr=1|qr_nm:gd|res:RC4|com-cf:nl|ptrs:na|ktp:N0|mc:55575|mtp:S|qry_typ:P|lang:en|wc:3|cs:8844|v=4,Meenu's Manchesters,https://www.hotelbedsheet.in/?pos=196&kwd=crib bedding set&tags=||||8668.838|Price|product|||TS|rsf:gd-|-stype:attr=1|qr_nm:gd|res:RC4|com-cf:nl|ptrs:na|ktp:N0|mc:55575|mtp:S|qry_typ:P|lang:en|wc:3|cs:8844|v=4,False,Edayankattuvalsu,Erode,"26, Nggo Colony, 1, Edayankattuvalsu, Erode - 638009, Dist.Erode, Tamil Nadu",8048609221,
"Polycotton Double 5 Piece Printed Cotton Bedding Set, For Home",https://www.indiamart.com/proddetail/5-piece-printed-cotton-bedding-set-2854015376548.html?pos=197&kwd=crib bedding set&tags=||||8747.203|Price|product|||TS|rsf:gd-|-stype:attr=1|qr_nm:gd|res:RC4|com-cf:nl|ptrs:na|ktp:N0|mc:55575|mtp:S|qry_typ:P|lang:en|wc:3|cs:8844|v=4,Eshika Industries,https://www.eshikahomefurnishing.com/?pos=197&kwd=crib bedding set&tags=||||8747.203|Price|product|||TS|rsf:gd-|-stype:attr=1|qr_nm:gd|res:RC4|com-cf:nl|ptrs:na|ktp:N0|mc:55575|mtp:S|qry_typ:P|lang:en|wc:3|cs:8844|v=4,False,HUDA,Panipat,"1825, Jyoti Colony, Near Main Road, HUDA, Panipat - 132103, Dist.Panipat, Haryana",7942826759,
"Cotton Block Printed Bed Sheet Sets, For Home",https://www.indiamart.com/proddetail/bed-sheet-sets-26191375355.html?pos=198&kwd=crib bedding set&tags=||||8747.203|Price|product|||TS|rsf:gd-|-stype:attr=1|qr_nm:gd|res:RC4|com-cf:nl|ptrs:na|ktp:N0|mc:55575|mtp:S|qry_typ:P|lang:en|wc:3|cs:8844|v=4,Parkash Overseas,https://www.indiamart.com/parkashoverseas/?pos=198&kwd=crib bedding set&tags=||||8747.203|Price|product|||TS|rsf:gd-|-stype:attr=1|qr_nm:gd|res:RC4|com-cf:nl|ptrs:na|ktp:N0|mc:55575|mtp:S|qry_typ:P|lang:en|wc:3|cs:8844|v=4,False,Huda,Panipat,"Plot No. 175, Sector 25, Part 2, Huda, Panipat - 132103, Dist.Panipat, Haryana",8048957761,
Brown Cotton Double Bed Set,https://www.indiamart.com/proddetail/brown-cotton-double-bed-set-2854185026112.html?pos=199&kwd=crib bedding set&tags=||||8228.275|Price|product|||MDC|rsf:gd-|-stype:attr=1|qr_nm:gd|res:RC4|com-cf:nl|ptrs:na|ktp:N0|mc:55575|mtp:S|qry_typ:P|lang:en|wc:3|cs:8844|v=4,Shree Hari Fabric,https://www.indiamart.com/shreeharifabric-ahmedabad/?pos=199&kwd=crib bedding set&tags=||||8228.275|Price|product|||MDC|rsf:gd-|-stype:attr=1|qr_nm:gd|res:RC4|com-cf:nl|ptrs:na|ktp:N0|mc:55575|mtp:S|qry_typ:P|lang:en|wc:3|cs:8844|v=4,False,Narol,Ahmedabad,"Shed No. 39, Shree Ram Industrial Park, Narol, OPP. Kozi Hotel, OPP. Vaishali Nagar, Ranipur Village, Narol, Ahmedabad - 382405, Dist.Ahmedabad, Gujarat",8045731079,
Cotton Cream (Base) Baby Printed Carry Bed Set,https://www.indiamart.com/proddetail/baby-printed-bedding-set-2854977854055.html?pos=200&kwd=crib bedding set&tags=||||8786.56|Price|product|||MDC|rsf:gd-|-stype:attr=1|qr_nm:gd|res:RC4|com-cf:nl|ptrs:na|ktp:N0|mc:55575|mtp:S|qry_typ:P|lang:en|wc:3|cs:8844|v=4,Vinod And Company,https://www.indiamart.com/vinodcompany-hyderabad/?pos=200&kwd=crib bedding set&tags=||||8786.56|Price|product|||MDC|rsf:gd-|-stype:attr=1|qr_nm:gd|res:RC4|com-cf:nl|ptrs:na|ktp:N0|mc:55575|mtp:S|qry_typ:P|lang:en|wc:3|cs:8844|v=4,False,Feelkhana,Hyderabad,"15/8/514/1/D, Feelkhana, Begum Bazar, Feelkhana, Hyderabad - 500012, Dist.Hyderabad, Telangana",7949086154,
"Woolen WOLLEN Wedding Sets, Packaging Type: Box Packing",https://www.indiamart.com/proddetail/wedding-sets-2853478714097.html?pos=201&kwd=crib bedding set&tags=||||8752.144|Price|product|||TS|rsf:gd-|-stype:attr=1|qr_nm:gd|res:RC4|com-cf:nl|ptrs:na|ktp:N0|mc:55575|mtp:S|qry_typ:P|lang:en|wc:3|cs:8844|v=4,Gugnani Textiles,https://www.indiamart.com/gugnani-textiles/?pos=201&kwd=crib bedding set&tags=||||8752.144|Price|product|||TS|rsf:gd-|-stype:attr=1|qr_nm:gd|res:RC4|com-cf:nl|ptrs:na|ktp:N0|mc:55575|mtp:S|qry_typ:P|lang:en|wc:3|cs:8844|v=4,False,Chandni Chowk,New Delhi,"Ground Floor, N-4794, Ram Bazar, Church Mission Marg, Central, Chandni Chowk, New Delhi - 110006, Dist.Delhi, Delhi",7942836712,
Sanganeri Printed Bedsheet,https://www.indiamart.com/proddetail/sanganeri-printed-bedsheet-2854620417955.html?pos=202&kwd=crib bedding set&tags=||||8601.347|Price|product|||TS|rsf:gd-|-stype:attr=1|qr_nm:gd|res:RC4|com-cf:nl|ptrs:na|ktp:N0|mc:55575|mtp:S|qry_typ:P|lang:en|wc:3|cs:8844|v=4,Hare Krishna Fab,https://www.hkfjaipur.com/?pos=202&kwd=crib bedding set&tags=||||8601.347|Price|product|||TS|rsf:gd-|-stype:attr=1|qr_nm:gd|res:RC4|com-cf:nl|ptrs:na|ktp:N0|mc:55575|mtp:S|qry_typ:P|lang:en|wc:3|cs:8844|v=4,False,Shri Rampura,Jaipur,"73, Gopi Nagar, Shri Rampura, Jaipur - 302029, Dist.Jaipur, Rajasthan",8047635219,
"White Hand Block Printed Cotton Baby Bedding Sets, For Home",https://www.indiamart.com/proddetail/hand-block-printed-cotton-baby-bedding-sets-26476482097.html?pos=203&kwd=crib bedding set&tags=||||8601.347|Price|product|||TS|rsf:gd-|-stype:attr=1|qr_nm:gd|res:RC4|com-cf:nl|ptrs:na|ktp:N0|mc:55575|mtp:S|qry_typ:P|lang:en|wc:3|cs:8844|v=4,Veer Handircrafts,https://www.veerhandicrafts.com/?pos=203&kwd=crib bedding set&tags=||||8601.347|Price|product|||TS|rsf:gd-|-stype:attr=1|qr_nm:gd|res:RC4|com-cf:nl|ptrs:na|ktp:N0|mc:55575|mtp:S|qry_typ:P|lang:en|wc:3|cs:8844|v=4,True,Shyam Nagar,Jaipur,"Basement, 192/331, Sector 19, Kumbha Marg, Shyam Nagar, Jaipur - 302029, Dist.Jaipur, Rajasthan",8043851762,
"Size: Single Cotton Premium Three PCS Bedsheet Set, For Home",https://www.indiamart.com/proddetail/premium-three-pcs-bedsheet-set-2851694738891.html?pos=204&kwd=crib bedding set&tags=||||8747.203|Price|product|||MDC|rsf:gd-|-stype:attr=1|qr_nm:gd|res:RC4|com-cf:nl|ptrs:na|ktp:N0|mc:55575|mtp:S|qry_typ:P|lang:en|wc:3|cs:8844|v=4,Satya Sai Handloom,https://www.satyasaihandlooms.com/?pos=204&kwd=crib bedding set&tags=||||8747.203|Price|product|||MDC|rsf:gd-|-stype:attr=1|qr_nm:gd|res:RC4|com-cf:nl|ptrs:na|ktp:N0|mc:55575|mtp:S|qry_typ:P|lang:en|wc:3|cs:8844|v=4,False,Shastri Colony,Panipat,"775/7,Amar Bhawan Chowk, Shastri Colony, Panipat - 132103, Dist.Panipat, Haryana",7942841137,
"Rectangular Baby cotton bedding with cotton sheet and 3 pillows, 3kg Approximate, 0 To 2 Year",https://www.indiamart.com/proddetail/baby-cotton-bedding-with-cotton-sheet-and-3-pillows-2853771419473.html?pos=205&kwd=crib bedding set&tags=||||8580.032|Price|product|||TS|rsf:gd-|-stype:attr=1|qr_nm:gd|res:RC4|com-cf:nl|ptrs:na|ktp:N0|mc:55575|mtp:S|qry_typ:P|lang:en|wc:3|cs:8844|v=4,Ritu Infants Care,https://www.indiamart.com/ritu-infants-care/?pos=205&kwd=crib bedding set&tags=||||8580.032|Price|product|||TS|rsf:gd-|-stype:attr=1|qr_nm:gd|res:RC4|com-cf:nl|ptrs:na|ktp:N0|mc:55575|mtp:S|qry_typ:P|lang:en|wc:3|cs:8844|v=4,False,Sunder Nagar,Amritsar,"232, Tilak Nagar, Shivala Colony, Sunder Nagar, Amritsar - 143001, Dist.Amritsar, Punjab",7942712512,
"Light Olive Green King Size Printed Cotton Bedsheet Set, For Home",https://www.indiamart.com/proddetail/light-olive-green-king-size-printed-cotton-bedsheet-set-2853462342497.html?pos=206&kwd=crib bedding set&tags=||||8601.347|Price|product|||MDC|rsf:gd-|-stype:attr=1|qr_nm:gd|res:RC4|com-cf:nl|ptrs:na|ktp:N0|mc:55575|mtp:S|qry_typ:P|lang:en|wc:3|cs:8844|v=4,Harsiddhi Enterprises,https://www.indiamart.com/harsiddhienterprises-jaipur/?pos=206&kwd=crib bedding set&tags=||||8601.347|Price|product|||MDC|rsf:gd-|-stype:attr=1|qr_nm:gd|res:RC4|com-cf:nl|ptrs:na|ktp:N0|mc:55575|mtp:S|qry_typ:P|lang:en|wc:3|cs:8844|v=4,False,Pratap Nagar,Jaipur,"Bherva Colony, Shop No 20, Aazzad Nagar, Sanganer, Pratap Nagar, Jaipur - 302029, Dist.Jaipur, Rajasthan",8043869830,
"Polycotton Double 5 Piece Bed Sheet Set, For Home, Printed",https://www.indiamart.com/proddetail/5-piece-bed-sheet-set-2854325137097.html?pos=207&kwd=crib bedding set&tags=||||8747.203|Price|product|||TS|rsf:gd-|-stype:attr=1|qr_nm:gd|res:RC4|com-cf:nl|ptrs:na|ktp:N0|mc:55575|mtp:S|qry_typ:P|lang:en|wc:3|cs:8844|v=4,JYOTAKSH By (Decora Emporium),https://www.jyotakshstore.com/?pos=207&kwd=crib bedding set&tags=||||8747.203|Price|product|||TS|rsf:gd-|-stype:attr=1|qr_nm:gd|res:RC4|com-cf:nl|ptrs:na|ktp:N0|mc:55575|mtp:S|qry_typ:P|lang:en|wc:3|cs:8844|v=4,False,New HB Colony,Panipat,"1307, Ist Floor, N.H.B.C, New HB Colony, Panipat - 132103, Dist.Panipat, Haryana",8047526631,
Baby Mosquito Net Bed,,Swing 'N' Fly (A Brand of Zen Marketing),https://www.indiamart.com/zenmarketing-sahibabad/?pos=208&kwd=crib bedding set&tags=||||8752.144|Price|proxy|||TS|rsf:gd-|-stype:attr=1|qr_nm:gd|res:RC4|com-cf:nl|ptrs:na|ktp:N0|mc:55575|mtp:S|qry_typ:P|lang:en|wc:3|cs:8844|v=4,False,Alipur,New Delhi,"Ground Floor, Kh No 55/17/2, Pawan Triveni Colony, Village Bakhtawarpur triveni colony, Alipur, New Delhi - 110036, Dist.Delhi, Delhi",7942559295,
"Parmi Textile Multicolor 150 GSM Printed Baby Cotton Quilts, Size: 44 X 44inch",https://www.indiamart.com/proddetail/150-gsm-printed-baby-cotton-quilts-2849902094873.html?pos=209&kwd=crib bedding set&tags=||||8601.347|Price|product|||TS|rsf:gd-|-stype:attr=1|qr_nm:gd|res:RC4|com-cf:nl|ptrs:na|ktp:N0|mc:55575|mtp:S|qry_typ:P|lang:en|wc:3|cs:8844|v=4,Parmi Textile,https://www.parmitextile.com/?pos=209&kwd=crib bedding set&tags=||||8601.347|Price|product|||TS|rsf:gd-|-stype:attr=1|qr_nm:gd|res:RC4|com-cf:nl|ptrs:na|ktp:N0|mc:55575|mtp:S|qry_typ:P|lang:en|wc:3|cs:8844|v=4,False,Sanganer,Jaipur,"192/331, Janki Devi Road, Sanganer, Jaipur - 302033, Dist.Jaipur, Rajasthan",7942801178,
Baby Bed Play Gym,https://www.indiamart.com/proddetail/baby-bed-play-gym-2849778024597.html?pos=210&kwd=crib bedding set&tags=||||8747.203|Price|product|||TS|rsf:gd-|-stype:attr=1|qr_nm:gd|res:RC4|com-cf:nl|ptrs:na|ktp:N0|mc:55575|mtp:S|qry_typ:P|lang:en|wc:3|cs:8844|v=4,Shiv Textiles,https://www.indiamart.com/shivtextilespanipat/?pos=210&kwd=crib bedding set&tags=||||8747.203|Price|product|||TS|rsf:gd-|-stype:attr=1|qr_nm:gd|res:RC4|com-cf:nl|ptrs:na|ktp:N0|mc:55575|mtp:S|qry_typ:P|lang:en|wc:3|cs:8844|v=4,False,Jagjivan Ram Colony,Panipat,"Shop No.19-C, Aggarwal Gali Number 1, Gohana Road, Jagjivan Ram Colony, Panipat - 132103, Dist.Panipat, Haryana",7942665530,
