product_title,product_link,company_name,company_link,is_verified_exporter,city_region,city,address_details,phone_number,phone_number_extension
"Honeyscoop Bamboo Charcoal Base Microfiber Insert Reusable Diaper, Age Group: 3-12 Months",https://www.indiamart.com/proddetail/honeyscoop-bamboo-charcoal-base-microfiber-insert-reusable-diaper-2852665783612.html?pos=1&kwd=diaper liners&tags=BA||||8823.154|Price|product|||TS|rsf:gd-|-qr_nm:gd|res:RC3|com-cf:nl|ptrs:na|ktp:N0|mc:26170|mtp:S|qry_typ:P|lang:en|wc:2|flavl:0|cs:8294|v=4,Shri Anant International,https://www.indiamart.com/shrianantinternational/?pos=1&kwd=diaper liners&tags=BA||||8823.154|Price|product|||TS|rsf:gd-|-qr_nm:gd|res:RC3|com-cf:nl|ptrs:na|ktp:N0|mc:26170|mtp:S|qry_typ:P|lang:en|wc:2|flavl:0|cs:8294|v=4,False,DayalBagh,Agra,"No.02,House 2,Alkapuri Phase Ii,Agra, DayalBagh, Agra - 282005, Dist.Agra, Uttar Pradesh",7942721451,
"Cotton Dumbledo Brown Resuable Diaper Liner, Medium",https://www.indiamart.com/proddetail/dumbledo-brown-resuable-diaper-liner-2853936240655.html?pos=2&kwd=diaper liners&tags=BB||||8211.142|Price|product|||MDC|rsf:gd-|-qr_nm:gd|res:RC3|com-cf:nl|ptrs:na|ktp:N0|mc:26170|mtp:S|qry_typ:P|lang:en|wc:2|flavl:0|cs:8294|v=4,Dumbledo,https://www.indiamart.com/dumbledo-mumbai/?pos=2&kwd=diaper liners&tags=BB||||8211.142|Price|product|||MDC|rsf:gd-|-qr_nm:gd|res:RC3|com-cf:nl|ptrs:na|ktp:N0|mc:26170|mtp:S|qry_typ:P|lang:en|wc:2|flavl:0|cs:8294|v=4,False,,Mumbai,"1st Floor, B/105, Bhoomi Valley, Thakur Village Road, Mumbai - 400101, Dist.Mumbai, Maharashtra",8044560722,
"Hosiery Baby Diaper Liner, Size: Small, Age Group: Newly Born",https://www.indiamart.com/proddetail/hosiery-baby-langot-liner-2854909052555.html?pos=3&kwd=diaper liners&tags=A||||8876.815|Price|product|||MDC|rsf:gd-|-qr_nm:gd|res:RC3|com-cf:nl|ptrs:na|ktp:N0|mc:26170|mtp:S|qry_typ:P|lang:en|wc:2|flavl:0|cs:8294|v=4,Good Luck Trading,https://www.indiamart.com/goodlucktrading-nagpur/?pos=3&kwd=diaper liners&tags=A||||8876.815|Price|product|||MDC|rsf:gd-|-qr_nm:gd|res:RC3|com-cf:nl|ptrs:na|ktp:N0|mc:26170|mtp:S|qry_typ:P|lang:en|wc:2|flavl:0|cs:8294|v=4,False,,Nagpur,"Plot No. 807, Dharamchaya Fawara Chowk Builing, Nikalas Mandir Road, Itwari, Nagpur - 440002, Dist.Nagpur, Maharashtra",8041014474,
Female Diaper Liner,https://www.indiamart.com/proddetail/diaper-liner-21245262097.html?pos=4&kwd=diaper liners&tags=BB||||8752.144|Price|product|||TS|rsf:gd-|-qr_nm:gd|res:RC3|com-cf:nl|ptrs:na|ktp:N0|mc:26170|mtp:S|qry_typ:P|lang:en|wc:2|flavl:0|cs:8294|v=4,National Overseas,https://www.indiamart.com/nationaltraders-vishwashnagar/?pos=4&kwd=diaper liners&tags=BB||||8752.144|Price|product|||TS|rsf:gd-|-qr_nm:gd|res:RC3|com-cf:nl|ptrs:na|ktp:N0|mc:26170|mtp:S|qry_typ:P|lang:en|wc:2|flavl:0|cs:8294|v=4,False,Shahdara,New Delhi,"1/99, Gali No. 3, Vishwas Nagar, Shahdara, New Delhi - 110032, Dist.Delhi, Delhi",8046047673,
"Baby Cloth Diaper Inserts, Size: Medium, Age Group: Newly Born",https://www.indiamart.com/proddetail/baby-cloth-diaper-inserts-2851207600212.html?pos=5&kwd=diaper liners&tags=BA||||8752.144|Price|product|||TS|rsf:gd-|-qr_nm:gd|res:RC3|com-cf:nl|ptrs:na|ktp:N0|mc:26170|mtp:S|qry_typ:P|lang:en|wc:2|flavl:0|cs:8294|v=4,Bikauaa Private Limited,https://www.indiamart.com/bikauaa/?pos=5&kwd=diaper liners&tags=BA||||8752.144|Price|product|||TS|rsf:gd-|-qr_nm:gd|res:RC3|com-cf:nl|ptrs:na|ktp:N0|mc:26170|mtp:S|qry_typ:P|lang:en|wc:2|flavl:0|cs:8294|v=4,False,Nangloi,New Delhi,"H.NO-C-64/2 ,KH-12/7/1, Amanpuri Nangloi West, Nangloi, New Delhi - 110041, Dist.Delhi, Delhi",7942796091,
"Bamboo Charcoal Haihabibi Baby Insert Diaper Pad, 12 x 31 cm (W x L)",https://www.indiamart.com/proddetail/haihabibi-baby-insert-diaper-pad-24461968288.html?pos=6&kwd=diaper liners&tags=BB||||8662.111|Price|product|||MDC|rsf:gd-|-qr_nm:gd|res:RC3|com-cf:nl|ptrs:na|ktp:N0|mc:26170|mtp:S|qry_typ:P|lang:en|wc:2|flavl:0|cs:8294|v=4,Habibi,https://www.indiamart.com/habibi/?pos=6&kwd=diaper liners&tags=BB||||8662.111|Price|product|||MDC|rsf:gd-|-qr_nm:gd|res:RC3|com-cf:nl|ptrs:na|ktp:N0|mc:26170|mtp:S|qry_typ:P|lang:en|wc:2|flavl:0|cs:8294|v=4,False,Melapalayam,Tirunelveli,"No.12/16E/2F Hameempuram North Street Palayamkottai, Melapalayam, Tirunelveli - 627005, Dist.Tirunelveli, Tamil Nadu",7942547388,
"Henky New Born Baby To 3 Year Baby Cloth Diaper Insert, Size: 13 cm x 9 cm x 5 cm, Age Group: new born to 3 year",https://www.indiamart.com/proddetail/cloth-diaper-insert-22678227755.html?pos=7&kwd=diaper liners&tags=BB||||8038.093|Price|product|||NA|rsf:gd-|-qr_nm:gd|res:RC3|com-cf:nl|ptrs:na|ktp:N0|mc:26170|mtp:S|qry_typ:P|lang:en|wc:2|flavl:0|cs:8294|v=4,Satyanarayan Enterprise,https://www.indiamart.com/satyanarayanent/?pos=7&kwd=diaper liners&tags=BB||||8038.093|Price|product|||NA|rsf:gd-|-qr_nm:gd|res:RC3|com-cf:nl|ptrs:na|ktp:N0|mc:26170|mtp:S|qry_typ:P|lang:en|wc:2|flavl:0|cs:8294|v=4,False,,Rajkot,"PL NO-11, Sitaram Society Main Road Near Over Bridge, Swati Society Main Road, Rajkot - 360002, Dist.Rajkot, Gujarat",8046061350,
Bum2bum Microfleece Reusable Stay Dry Fleece Nappy Liner,https://www.indiamart.com/proddetail/reusable-stay-dry-fleece-nappy-liner-20951910197.html?pos=8&kwd=diaper liners&tags=BB||||8954.051|Price|product|||NA|rsf:gd-|-qr_nm:gd|res:RC3|com-cf:nl|ptrs:na|ktp:N0|mc:26170|mtp:S|qry_typ:P|lang:en|wc:2|flavl:0|cs:8294|v=4,MFS Fashions,https://www.indiamart.com/mfsfashions/?pos=8&kwd=diaper liners&tags=BB||||8954.051|Price|product|||NA|rsf:gd-|-qr_nm:gd|res:RC3|com-cf:nl|ptrs:na|ktp:N0|mc:26170|mtp:S|qry_typ:P|lang:en|wc:2|flavl:0|cs:8294|v=4,False,Perambur,Chennai,"New No. 42/2, Old No. 15/2, Venkatraman Street, Perambur, Perambur, Chennai - 600011, Dist.Chennai, Tamil Nadu",8043804409,
"White Absorbent Cotton BABY NAPPY INSERT LINER PAD / REUSABLE BABY DIAPER INSERT PADS, Size: 30 X 11 CM",https://www.indiamart.com/proddetail/baby-nappy-insert-liner-pad-reusable-baby-diaper-insert-pads-2850659349212.html?pos=9&kwd=diaper liners&tags=BB||||8236.946|Price|product|||NA|rsf:gd-|-qr_nm:gd|res:RC3|com-cf:nl|ptrs:na|ktp:N0|mc:26170|mtp:S|qry_typ:P|lang:en|wc:2|flavl:0|cs:8294|v=4,Pranita Textile,https://www.indiamart.com/pranita-textile/?pos=9&kwd=diaper liners&tags=BB||||8236.946|Price|product|||NA|rsf:gd-|-qr_nm:gd|res:RC3|com-cf:nl|ptrs:na|ktp:N0|mc:26170|mtp:S|qry_typ:P|lang:en|wc:2|flavl:0|cs:8294|v=4,False,,Raigad,"Unit No 206, 2nd Fioor, Silver Springs, Taloja Midc, Taloja Panchanand, Raigad., Raigad - 410208, Maharashtra",8043855238,
"Cotton Cloth Diaper Baby Diapers, Age Group: New Born - 1 Year",https://www.indiamart.com/proddetail/baby-diapers-24809845933.html?pos=10&kwd=diaper liners&tags=BB||||8223.226||product|||NA|rsf:gd-|-qr_nm:gd|res:RC3|com-cf:nl|ptrs:na|ktp:N0|mc:26170|mtp:S|qry_typ:P|lang:en|wc:2|flavl:0|cs:8294|v=4,Babys Choice,https://www.indiamart.com/babys-choice-mumbai/?pos=10&kwd=diaper liners&tags=BB||||8223.226||product|||NA|rsf:gd-|-qr_nm:gd|res:RC3|com-cf:nl|ptrs:na|ktp:N0|mc:26170|mtp:S|qry_typ:P|lang:en|wc:2|flavl:0|cs:8294|v=4,False,Mumbai Suburan,Thane,"7,Sonal Darshan, Gaushala Road Mulund, Mumbai Suburan, Thane - 400080, Dist.Thane, Maharashtra",7942538240,
"Apple Blossom Cotton Reusable Fleece Diaper Liners, Size: Medium, Age Group: 1-2 Years",https://www.indiamart.com/proddetail/reusable-fleece-diaper-liners-23936082588.html?pos=11&kwd=diaper liners&tags=CA||||8584.299|Price|product|||TS|rsf:gd-|-qr_nm:gd|res:RC3|com-cf:nl|ptrs:na|ktp:N0|mc:26170|mtp:S|qry_typ:P|lang:en|wc:2|flavl:0|cs:8294|v=4,Apple Blossoms,https://www.indiamart.com/appleblossoms/?pos=11&kwd=diaper liners&tags=CA||||8584.299|Price|product|||TS|rsf:gd-|-qr_nm:gd|res:RC3|com-cf:nl|ptrs:na|ktp:N0|mc:26170|mtp:S|qry_typ:P|lang:en|wc:2|flavl:0|cs:8294|v=4,False,Gn Mills,Coimbatore,"555/1, 2nd Floor, Gandhi Nagar, Mettupalayam Road, Extension, GN Mills Post, Thudiyalur,, Gn Mills, Coimbatore - 641029, Dist.Coimbatore, Tamil Nadu",8048614461,
Baby Diaper Mircofiber Liner Pad - grey,https://www.indiamart.com/proddetail/baby-diaper-mircofiber-liner-pad-grey-2852489923948.html?pos=12&kwd=diaper liners&tags=||||8752.144|Price|product|||TS|rsf:gd-|-qr_nm:gd|res:RC3|com-cf:nl|ptrs:na|ktp:N0|mc:26170|mtp:S|qry_typ:P|lang:en|wc:2|flavl:0|cs:8294|v=4,Ekta Overseas,https://www.indiamart.com/ektaoverseas-newdelhi/?pos=12&kwd=diaper liners&tags=||||8752.144|Price|product|||TS|rsf:gd-|-qr_nm:gd|res:RC3|com-cf:nl|ptrs:na|ktp:N0|mc:26170|mtp:S|qry_typ:P|lang:en|wc:2|flavl:0|cs:8294|v=4,False,Shahdara,New Delhi,"1/95, Gali No.3, Near Navjeevan Phisical Center, Vishwas Nagar, Shahdara,, Shahdara, New Delhi - 110032, Dist.Delhi, Delhi",7942628926,
"Kreationery Disposable liner rolls for Reusable Diapers, Size: One Size Fits Most",https://www.indiamart.com/proddetail/disposable-liner-rolls-for-reusable-diapers-2848990939948.html?pos=13&kwd=diaper liners&tags=CC||||8584.299|Price|product|||TS|rsf:gd-|-qr_nm:gd|res:RC3|com-cf:nl|ptrs:na|ktp:N0|mc:26170|mtp:S|qry_typ:P|lang:en|wc:2|flavl:0|cs:8294|v=4,Kreationery,https://www.kreationery.com/?pos=13&kwd=diaper liners&tags=CC||||8584.299|Price|product|||TS|rsf:gd-|-qr_nm:gd|res:RC3|com-cf:nl|ptrs:na|ktp:N0|mc:26170|mtp:S|qry_typ:P|lang:en|wc:2|flavl:0|cs:8294|v=4,True,Neelambur,Coimbatore,"Site No 4B/5B Anna Nagar, Annai Ganga Nagar Township, Kreationery Neelambur, Coimbatore, Neelambur, Coimbatore - 641062, Dist.Coimbatore, Tamil Nadu",8046048436,
Cloth Diaper Fabric,https://www.indiamart.com/proddetail/cloth-diaper-fabric-2853164110862.html?pos=14&kwd=diaper liners&tags=||||8752.144|Price|product|||TS|rsf:gd-|-qr_nm:gd|res:RC3|com-cf:nl|ptrs:na|ktp:N0|mc:26170|mtp:S|qry_typ:P|lang:en|wc:2|flavl:0|cs:8294|v=4,Hetampuria Tex Fab,https://www.indiamart.com/hetampuria-tex-fab/?pos=14&kwd=diaper liners&tags=||||8752.144|Price|product|||TS|rsf:gd-|-qr_nm:gd|res:RC3|com-cf:nl|ptrs:na|ktp:N0|mc:26170|mtp:S|qry_typ:P|lang:en|wc:2|flavl:0|cs:8294|v=4,False,Chandni Chowk,New Delhi,"1 BAGH DIWAR (DHARAMSHALA) FATEHPURI, Chandni Chowk, New Delhi - 110006, Dist.Delhi, Delhi",7942814797,
Nonwoven Baby Reusable Diapers,https://www.indiamart.com/proddetail/baby-reusable-diapers-2853119651233.html?pos=15&kwd=diaper liners&tags=||||8211.142|Price|product|||TS|rsf:gd-|-qr_nm:gd|res:RC3|com-cf:nl|ptrs:na|ktp:N0|mc:26170|mtp:S|qry_typ:P|lang:en|wc:2|cs:7531|v=4,P For Panda Baby Products Private Limited,https://www.p4pandababyproducts.com/?pos=15&kwd=diaper liners&tags=||||8211.142|Price|product|||TS|rsf:gd-|-qr_nm:gd|res:RC3|com-cf:nl|ptrs:na|ktp:N0|mc:26170|mtp:S|qry_typ:P|lang:en|wc:2|cs:7531|v=4,False,Goregaon West,Mumbai,"904 A Wing,9 Th Floor,Triple S Heights,Jakeria Road, Goregaon West, Mumbai - 400064, Dist.Mumbai, Maharashtra",7942710871,
"White Microfiber Baby Cloth Diaper Inserts, Packaging Type: PACKET, 3M-24MONTH",https://www.indiamart.com/proddetail/cotton-baby-cloth-diaper-inserts-2853159916388.html?pos=16&kwd=diaper liners&tags=||||9189.305|Price|product|||MDC|rsf:gd-|-qr_nm:gd|res:RC3|com-cf:nl|ptrs:na|ktp:N0|mc:26170|mtp:S|qry_typ:P|lang:en|wc:2|cs:7531|v=4,Sudhanjali Enterprises,https://www.indiamart.com/sudhanjalienterprises/?pos=16&kwd=diaper liners&tags=||||9189.305|Price|product|||MDC|rsf:gd-|-qr_nm:gd|res:RC3|com-cf:nl|ptrs:na|ktp:N0|mc:26170|mtp:S|qry_typ:P|lang:en|wc:2|cs:7531|v=4,False,,Prayagraj,"H No-10/7, Basahi, Nataka Babura, Khain, Prayagraj - 212307, Dist.Allahabad, Uttar Pradesh",7942964273,
"Baby Cloth Diaper, Small, Age Group: 3to12 Months",https://www.indiamart.com/proddetail/baby-cloth-diaper-2853717099391.html?pos=17&kwd=diaper liners&tags=||||8752.144|Price|product|||TS|rsf:gd-|-qr_nm:gd|res:RC3|com-cf:nl|ptrs:na|ktp:N0|mc:26170|mtp:S|qry_typ:P|lang:en|wc:2|cs:7531|v=4,Sri Rajbhan Enterprises,https://www.indiamart.com/srirajbhanenterprises/?pos=17&kwd=diaper liners&tags=||||8752.144|Price|product|||TS|rsf:gd-|-qr_nm:gd|res:RC3|com-cf:nl|ptrs:na|ktp:N0|mc:26170|mtp:S|qry_typ:P|lang:en|wc:2|cs:7531|v=4,False,,New Delhi,"Flat No 18, Ganga Apartment, Alaknanda, New Delhi - 110019, Dist.Delhi, Delhi",7942956951,
Baby Reusable Cloth Diapers,https://www.indiamart.com/proddetail/baby-reusable-cloth-diapers-2850156900855.html?pos=18&kwd=diaper liners&tags=||||8752.144|Price|product|||MDC|rsf:gd-|-qr_nm:gd|res:RC3|com-cf:nl|ptrs:na|ktp:N0|mc:26170|mtp:S|qry_typ:P|lang:en|wc:2|cs:7531|v=4,Priyanshi International,https://www.indiamart.com/priyanshi-international-uttarpradesh/?pos=18&kwd=diaper liners&tags=||||8752.144|Price|product|||MDC|rsf:gd-|-qr_nm:gd|res:RC3|com-cf:nl|ptrs:na|ktp:N0|mc:26170|mtp:S|qry_typ:P|lang:en|wc:2|cs:7531|v=4,False,,New Delhi,"3,PROP NO S228,SCHOOL BLOCK,SHAKARPUR UGF, 3, Prop No S228, School Block, Shakarpur,110092, New Delhi - 110092, Dist.Delhi, Delhi",7942676139,
Plain Baby Diapers,https://www.indiamart.com/proddetail/plain-baby-diapers-2854225794897.html?pos=19&kwd=diaper liners&tags=||||8230.883|Price|product|||TS|rsf:gd-|-qr_nm:gd|res:RC3|com-cf:nl|ptrs:na|ktp:N0|mc:26170|mtp:S|qry_typ:P|lang:en|wc:2|cs:7531|v=4,BABYHOLIC,https://www.babyholic.in/?pos=19&kwd=diaper liners&tags=||||8230.883|Price|product|||TS|rsf:gd-|-qr_nm:gd|res:RC3|com-cf:nl|ptrs:na|ktp:N0|mc:26170|mtp:S|qry_typ:P|lang:en|wc:2|cs:7531|v=4,False,,Surat,"Ground Floor, Plot No. F/56/, And F/57, Laxmi Narayan Industrial Estate, Udhana, Kailash Fashion, Surat - 394210, Dist.Surat, Gujarat",8045732096,
"Cotton Baby Free Size Blue Diaper, Age Group: 3-12 Months",https://www.indiamart.com/proddetail/baby-free-size-blue-diaper-24195777855.html?pos=20&kwd=diaper liners&tags=||||8752.144|Price|proxy|||TS|rsf:gd-|-qr_nm:gd|res:RC3|com-cf:nl|ptrs:na|ktp:N0|mc:26170|mtp:S|qry_typ:P|lang:en|wc:2|cs:7531|v=4,Chinmay Kids,https://www.indiamart.com/chinmaykids/?pos=20&kwd=diaper liners&tags=||||8752.144|Price|proxy|||TS|rsf:gd-|-qr_nm:gd|res:RC3|com-cf:nl|ptrs:na|ktp:N0|mc:26170|mtp:S|qry_typ:P|lang:en|wc:2|cs:7531|v=4,False,Nayagaon,New Delhi,"C-99, Street No. 4, First Pusta, Nayagaon, New Delhi - 110053, Dist.Delhi, Delhi",8046054858,
"Reusable Washable Cloth Diaper BAMBOO CHARCOAL INSERTS, Age Group: 1-2 Years, Packaging Size: 100 G",https://www.indiamart.com/proddetail/bamboo-charcoal-inserts-25222822812.html?pos=21&kwd=diaper liners&tags=||||8752.144|Price|product|||MDC|rsf:gd-|-qr_nm:gd|res:RC3|com-cf:nl|ptrs:na|ktp:N0|mc:26170|mtp:S|qry_typ:P|lang:en|wc:2|cs:7531|v=4,B-Qube Enterprises,https://www.indiamart.com/bqube-enterprises/?pos=21&kwd=diaper liners&tags=||||8752.144|Price|product|||MDC|rsf:gd-|-qr_nm:gd|res:RC3|com-cf:nl|ptrs:na|ktp:N0|mc:26170|mtp:S|qry_typ:P|lang:en|wc:2|cs:7531|v=4,False,Karol Bagh,New Delhi,"303, Iiird Floor,13/4, W.E.A.,Karol Bagh, Karol Bagh, New Delhi - 110005, Dist.Delhi, Delhi",8047313183,
Laminated backsheet Plain And Printed Medium Super Jumbo Care Baby Diaper,https://www.indiamart.com/proddetail/medium-super-jumbo-care-baby-diaper-19405537612.html?pos=22&kwd=diaper liners&tags=||||8747.223|Price|product|||TS|rsf:gd-|-qr_nm:gd|res:RC3|com-cf:nl|ptrs:na|ktp:N0|mc:26170|mtp:S|qry_typ:P|lang:en|wc:2|cs:7531|v=4,Vivia International Private Limited,https://www.viviainternational.com/?pos=22&kwd=diaper liners&tags=||||8747.223|Price|product|||TS|rsf:gd-|-qr_nm:gd|res:RC3|com-cf:nl|ptrs:na|ktp:N0|mc:26170|mtp:S|qry_typ:P|lang:en|wc:2|cs:7531|v=4,False,Nathupur,Sonipat,"Khasra No. 36/9/2/1-2/8, Village Nathupur, Kundli, Nathupur, Sonipat - 131029, Dist.Sonipat, Haryana",8047643594,
Teddyy Baby Diaper Pant,https://www.indiamart.com/proddetail/teddyy-baby-diaper-pant-14803359173.html?pos=23&kwd=diaper liners&tags=||||8706.587|Price|product|||TS|rsf:gd-|-qr_nm:gd|res:RC3|com-cf:nl|ptrs:na|ktp:N0|mc:26170|mtp:S|qry_typ:P|lang:en|wc:2|cs:7531|v=4,Aruna Agencies,https://www.arunaagencies.in/?pos=23&kwd=diaper liners&tags=||||8706.587|Price|product|||TS|rsf:gd-|-qr_nm:gd|res:RC3|com-cf:nl|ptrs:na|ktp:N0|mc:26170|mtp:S|qry_typ:P|lang:en|wc:2|cs:7531|v=4,False,Simmakkal,Madurai,"Pooja Complex, No. 23, North Veli Street Ground Floor, Simmakkal, Simmakkal, Madurai - 625001, Dist.Madurai, Tamil Nadu",8048609760,
"Teddy Baby Diaper Pant Style, 46/ Per Small Packet",https://www.indiamart.com/proddetail/teddy-baby-diaper-pant-style-17522027430.html?pos=24&kwd=diaper liners&tags=||||8752.144|Price|product|||MDC|rsf:gd-|-qr_nm:gd|res:RC3|com-cf:nl|ptrs:na|ktp:N0|mc:26170|mtp:S|qry_typ:P|lang:en|wc:2|cs:7531|v=4,Preet Surgical Co.,https://www.indiamart.com/preetsurgicalco/?pos=24&kwd=diaper liners&tags=||||8752.144|Price|product|||MDC|rsf:gd-|-qr_nm:gd|res:RC3|com-cf:nl|ptrs:na|ktp:N0|mc:26170|mtp:S|qry_typ:P|lang:en|wc:2|cs:7531|v=4,False,Chandni Chowk,New Delhi,"1975/76, Shop No. 106, 1st Floor, Narain Bazar, Bhagirath Palace, Chandni Chowk, New Delhi - 110006, Dist.Delhi, Delhi",8048963374,
Star Print Reusable Adjustable Cloth Diaper,https://www.indiamart.com/proddetail/star-print-reusable-adjustable-cloth-diaper-2854503738148.html?pos=25&kwd=diaper liners&tags=||||8663.873|Price|product|||MDC|rsf:gd-|-qr_nm:gd|res:RC3|com-cf:nl|ptrs:na|ktp:N0|mc:26170|mtp:S|qry_typ:P|lang:en|wc:2|cs:7531|v=4,AQ Corporation,https://www.indiamart.com/aqcorporation/?pos=25&kwd=diaper liners&tags=||||8663.873|Price|product|||MDC|rsf:gd-|-qr_nm:gd|res:RC3|com-cf:nl|ptrs:na|ktp:N0|mc:26170|mtp:S|qry_typ:P|lang:en|wc:2|cs:7531|v=4,False,,Bengaluru,"Ground And First Floor, No 88, 2nd Cross, 4th Main, NGEF Layout, Nagashetty Halli, Sanjaynagar Bengaluru Urban, Bengaluru - 560094, Dist.Bengaluru, Karnataka",7949325043,
Sirona Premium Adult Diaper Disposal Bag,https://www.indiamart.com/proddetail/sirona-premium-adult-diaper-disposal-bag-21036793148.html?pos=26&kwd=diaper liners&tags=||||8752.144|Price|product|||MDC|rsf:gd-|-qr_nm:gd|res:RC3|com-cf:nl|ptrs:na|ktp:N0|mc:26170|mtp:S|qry_typ:P|lang:en|wc:2|cs:7531|v=4,Sirona Hygiene Private Limited,https://www.indiamart.com/first-step-digital/?pos=26&kwd=diaper liners&tags=||||8752.144|Price|product|||MDC|rsf:gd-|-qr_nm:gd|res:RC3|com-cf:nl|ptrs:na|ktp:N0|mc:26170|mtp:S|qry_typ:P|lang:en|wc:2|cs:7531|v=4,False,,New Delhi,"3rd Floor And Part Of 4th Floor, Plot No. 3, Ambience Tower, L.s.c Sector-A, Pocket-2, Near Car Market Vasant Kunj, New Delhi - 110070, Dist.Delhi, Delhi",8046073165,
"Printed BUM SUIT PREMIUM DIAPER PANTS M 72, Packaging Size: Medium",https://www.indiamart.com/proddetail/bum-suit-premium-diaper-pants-m-72-2854010222773.html?pos=27&kwd=diaper liners&tags=||||8231.259|Price|product|||MDC|rsf:gd-|-qr_nm:gd|res:RC3|com-cf:nl|ptrs:na|ktp:N0|mc:26170|mtp:S|qry_typ:P|lang:en|wc:2|cs:7531|v=4,Kaker Group,https://www.indiamart.com/kaker-group/?pos=27&kwd=diaper liners&tags=||||8231.259|Price|product|||MDC|rsf:gd-|-qr_nm:gd|res:RC3|com-cf:nl|ptrs:na|ktp:N0|mc:26170|mtp:S|qry_typ:P|lang:en|wc:2|cs:7531|v=4,False,Chavindra Naka,Bhiwandi,"Ghar No 1503/G-06 Tal Majla, Malasiya Sizing Kacheri Pada Nagaon-2,, Chavindra Naka, Bhiwandi - 421302, Maharashtra",8044561428,
"Cotton Baby Diapers, Medium",https://www.indiamart.com/proddetail/baby-diapers-2853608879297.html?pos=28&kwd=diaper liners&tags=||||8785.791|Price|proxy|||TS|rsf:gd-|-qr_nm:gd|res:RC3|com-cf:nl|ptrs:na|ktp:N0|mc:26170|mtp:S|qry_typ:P|lang:en|wc:2|cs:7531|v=4,Paras Enterprises,https://www.claoberry.com/?pos=28&kwd=diaper liners&tags=||||8785.791|Price|proxy|||TS|rsf:gd-|-qr_nm:gd|res:RC3|com-cf:nl|ptrs:na|ktp:N0|mc:26170|mtp:S|qry_typ:P|lang:en|wc:2|cs:7531|v=4,False,Raj Nagar Extension,Ghaziabad,"KH.NO.-2565,VILLAGE KARHERA,MOHAN NAGAR,Ghaziabad, Raj Nagar Extension, Ghaziabad - 201007, Dist.Ghaziabad, Uttar Pradesh",8043862487,
Medium Pampers Happy Skin Diaper Pant,https://www.indiamart.com/proddetail/medium-pampers-happy-skin-diaper-pant-2852689793073.html?pos=29&kwd=diaper liners&tags=||||8230.883|Price|product|||MDC|rsf:gd-|-qr_nm:gd|res:RC3|com-cf:nl|ptrs:na|ktp:N0|mc:26170|mtp:S|qry_typ:P|lang:en|wc:2|cs:7531|v=4,Oceanic Supplier,https://www.indiamart.com/oceanicsupplier/?pos=29&kwd=diaper liners&tags=||||8230.883|Price|product|||MDC|rsf:gd-|-qr_nm:gd|res:RC3|com-cf:nl|ptrs:na|ktp:N0|mc:26170|mtp:S|qry_typ:P|lang:en|wc:2|cs:7531|v=4,False,Varachha,Surat,"Plot No-136, Ashopalav Bunglows, Rangoli Chowadi Road, Abrama Velanja Road, Kamrej, Velanja, Varachha, Surat - 394150, Dist.Surat, Gujarat",7942720766,
Wetex New Born Baby Diapers,https://www.indiamart.com/proddetail/wetex-new-born-baby-diapers-2854921858412.html?pos=30&kwd=diaper liners&tags=||||8752.144|Price|product|||MDC|rsf:gd-|-qr_nm:gd|res:RC3|com-cf:nl|ptrs:na|ktp:N0|mc:26170|mtp:S|qry_typ:P|lang:en|wc:2|cs:7531|v=4,Walmark Meditech Private Limited,https://www.indiamart.com/walmarkmeditech/?pos=30&kwd=diaper liners&tags=||||8752.144|Price|product|||MDC|rsf:gd-|-qr_nm:gd|res:RC3|com-cf:nl|ptrs:na|ktp:N0|mc:26170|mtp:S|qry_typ:P|lang:en|wc:2|cs:7531|v=4,False,Dhantoli,New Delhi,"B 157,,OKHLA INDUSTRIAL AREA,NEW DELHI, Dhantoli, New Delhi - 110020, Dist.Delhi, Delhi",7942532407,
Kids Cloth Diapers,https://www.indiamart.com/proddetail/kids-cloth-diapers-21789983673.html?pos=31&kwd=diaper liners&tags=||||8752.144|Price|proxy|||TS|rsf:gd-|-qr_nm:gd|res:RC3|com-cf:nl|ptrs:na|ktp:N0|mc:26170|mtp:S|qry_typ:P|lang:en|wc:2|cs:7531|v=4,Shree Balaji Infant Wear,https://www.indiamart.com/chhotejanab/?pos=31&kwd=diaper liners&tags=||||8752.144|Price|proxy|||TS|rsf:gd-|-qr_nm:gd|res:RC3|com-cf:nl|ptrs:na|ktp:N0|mc:26170|mtp:S|qry_typ:P|lang:en|wc:2|cs:7531|v=4,False,Pahari Dhiraj,New Delhi,"1583- 84, Hathi Khana, Aziz Ganj, Bahadur Garh Road, Pahari Dhiraj, New Delhi - 110006, Dist.Delhi, Delhi",8047639754,
Diaper Liners,https://www.indiamart.com/proddetail/diaper-liners-2852318291673.html?pos=32&kwd=diaper liners&tags=CC||||9555.219|Price|product|||NA|rsf:gd-|-qr_nm:gd|res:RC3|com-cf:nl|ptrs:na|ktp:N0|mc:26170|mtp:S|qry_typ:P|lang:en|wc:2|cs:7531|v=4,Sonal Seafty Industries,https://www.indiamart.com/sonal-seafty-industries/?pos=32&kwd=diaper liners&tags=CC||||9555.219|Price|product|||NA|rsf:gd-|-qr_nm:gd|res:RC3|com-cf:nl|ptrs:na|ktp:N0|mc:26170|mtp:S|qry_typ:P|lang:en|wc:2|cs:7531|v=4,False,,Nawada,"Sweety Kumari,Mangar Bigha,Giriyak,Giriyak,Nalanda, Nawada - 803109, Dist.Nawada, Bihar",8047308668,9793
"Stay Dry Fleece Diaper Liners - Pack of 4, Size: Large",https://www.indiamart.com/proddetail/stay-dry-fleece-diaper-liners-pack-of-4-2853463440962.html?pos=33&kwd=diaper liners&tags=CC||||8663.873|Price|product|||NA|rsf:gd-|-qr_nm:gd|res:RC3|com-cf:nl|ptrs:na|ktp:N0|mc:26170|mtp:S|qry_typ:P|lang:en|wc:2|cs:7531|v=4,Bumpadum Manufacturing And Traders Private Limited,https://www.indiamart.com/bumpadum-manufacturing-traders-pvt-ltd/?pos=33&kwd=diaper liners&tags=CC||||8663.873|Price|product|||NA|rsf:gd-|-qr_nm:gd|res:RC3|com-cf:nl|ptrs:na|ktp:N0|mc:26170|mtp:S|qry_typ:P|lang:en|wc:2|cs:7531|v=4,False,J P Nagar,Bengaluru,"No. 86, 2nd Floor, 3rd Main, Guru Raghavendra Layout 7 Phase, J P Nagar, Bengaluru - 560078, Dist.Bengaluru, Karnataka",8048247116,2638
Bamboo Cotton Black And White Insert For Diaper,https://www.indiamart.com/proddetail/black-and-white-insert-for-diaper-25722572291.html?pos=34&kwd=diaper liners&tags=CC||||8752.144|Price|product|||NA|rsf:gd-|-qr_nm:gd|res:RC3|com-cf:nl|ptrs:na|ktp:N0|mc:26170|mtp:S|qry_typ:P|lang:en|wc:2|cs:7531|v=4,Narayan Traders,https://www.indiamart.com/narayantraders-66293525/?pos=34&kwd=diaper liners&tags=CC||||8752.144|Price|product|||NA|rsf:gd-|-qr_nm:gd|res:RC3|com-cf:nl|ptrs:na|ktp:N0|mc:26170|mtp:S|qry_typ:P|lang:en|wc:2|cs:7531|v=4,False,Shahdara,New Delhi,"4/1752, Bhola Nath Nagar Pandav Road Gali no. 3, Shahdara, New Delhi - 110032, Dist.Delhi, Delhi",8048250234,588
Aeromoov Air Layer,https://www.indiamart.com/proddetail/aeromoov-air-layer-24742081348.html?pos=35&kwd=diaper liners&tags=CC||||8752.144|Price|product|||NA|rsf:gd-|-qr_nm:gd|res:RC3|com-cf:nl|ptrs:na|ktp:N0|mc:26170|mtp:S|qry_typ:P|lang:en|wc:2|cs:7531|v=4,AK Enterprises,https://www.indiamart.com/akenterprises-122573535/?pos=35&kwd=diaper liners&tags=CC||||8752.144|Price|product|||NA|rsf:gd-|-qr_nm:gd|res:RC3|com-cf:nl|ptrs:na|ktp:N0|mc:26170|mtp:S|qry_typ:P|lang:en|wc:2|cs:7531|v=4,False,Vasant Kunj,Delhi,"Shop No.-677 Kc, Vasant Kunj, Delhi - 201545, Dist.Delhi, Delhi",,
Nappy Liner,https://www.indiamart.com/proddetail/nappy-liner-12492870212.html?pos=36&kwd=diaper liners&tags=CC||||8211.142|Price|product|||NA|rsf:gd-|-qr_nm:gd|res:RC3|com-cf:nl|ptrs:na|ktp:N0|mc:26170|mtp:S|qry_typ:P|lang:en|wc:2|cs:7531|v=4,Khodiyar Sons,https://www.indiamart.com/khodiyarsons/?pos=36&kwd=diaper liners&tags=CC||||8211.142|Price|product|||NA|rsf:gd-|-qr_nm:gd|res:RC3|com-cf:nl|ptrs:na|ktp:N0|mc:26170|mtp:S|qry_typ:P|lang:en|wc:2|cs:7531|v=4,False,Borivali East,Mumbai,"Ishwarbhai Desai Chawl, Chawl Number- 4, Room Number- 9, Shiv Vallabh Road, Borivali East, Mumbai - 400068, Dist.Mumbai, Maharashtra",8048371946,169
"Overnight Cotton Baby Cloth Diaper Liners, Size: Large, Age Group: Newly Born",https://www.indiamart.com/proddetail/overnight-cotton-baby-cloth-diaper-liners-25962597097.html?pos=37&kwd=diaper liners&tags=CC||||9839.57|Price|product|||NA|rsf:gd-|-qr_nm:gd|res:RC3|com-cf:nl|ptrs:na|ktp:N0|mc:26170|mtp:S|qry_typ:P|lang:en|wc:2|cs:7531|v=4,Anahat For Change Solutions Foundation,https://www.indiamart.com/anahatforchangesolutionsfoundation/?pos=37&kwd=diaper liners&tags=CC||||9839.57|Price|product|||NA|rsf:gd-|-qr_nm:gd|res:RC3|com-cf:nl|ptrs:na|ktp:N0|mc:26170|mtp:S|qry_typ:P|lang:en|wc:2|cs:7531|v=4,False,Behala,Kolkata,"City Enclave, 1st Floor, FL-1B, 28, DH Road, Behala, Kolkata - 700060, Dist.Kolkata, West Bengal",8047676089,
"Baby Cloth Diaper, Age Group: 3-12 Months",https://www.indiamart.com/proddetail/baby-cloth-diaper-2849910369388.html?pos=38&kwd=diaper liners&tags=CC||||8785.791|Price|product|||NA|rsf:gd-|-qr_nm:gd|res:RC3|com-cf:nl|ptrs:na|ktp:N0|mc:26170|mtp:S|qry_typ:P|lang:en|wc:2|cs:7531|v=4,RJ Sons,https://www.indiamart.com/rj-sons-ghaziabad/?pos=38&kwd=diaper liners&tags=CC||||8785.791|Price|product|||NA|rsf:gd-|-qr_nm:gd|res:RC3|com-cf:nl|ptrs:na|ktp:N0|mc:26170|mtp:S|qry_typ:P|lang:en|wc:2|cs:7531|v=4,False,,Ghaziabad,"Kh No- 232MI, Nand Gram, Sai Enclave Sai enclave opposite City forest, Ghaziabad - 201001, Dist.Ghaziabad, Uttar Pradesh",8048249730,1704
Baby Diaper 5 layer Bamboo Charcoal Inserts,https://www.indiamart.com/proddetail/baby-diaper-5-layer-bamboo-charcoal-inserts-25970731930.html?pos=39&kwd=diaper liners&tags=CC||||8228.275|Price|product|||NA|rsf:gd-|-qr_nm:gd|res:RC3|com-cf:nl|ptrs:na|ktp:N0|mc:26170|mtp:S|qry_typ:P|lang:en|wc:2|cs:7531|v=4,Eclat Globalbiz LLP,https://www.indiamart.com/eclatglobalbiz/?pos=39&kwd=diaper liners&tags=CC||||8228.275|Price|product|||NA|rsf:gd-|-qr_nm:gd|res:RC3|com-cf:nl|ptrs:na|ktp:N0|mc:26170|mtp:S|qry_typ:P|lang:en|wc:2|cs:7531|v=4,False,,Ahmedabad,"Shilp Zaveri, Ahmedabad - 380004, Dist.Ahmedabad, Gujarat",8047627244,
Diper Insert/Liner Soft 3 Layered Insert Cotton Baby Diaper Pads,https://www.indiamart.com/proddetail/soft-3-layered-insert-cotton-baby-diaper-pads-22044589488.html?pos=40&kwd=diaper liners&tags=CC||||8752.144|Price|product|||NA|rsf:gd-|-qr_nm:gd|res:RC3|com-cf:nl|ptrs:na|ktp:N0|mc:26170|mtp:S|qry_typ:P|lang:en|wc:2|cs:7531|v=4,SMBJ Impex,https://www.indiamart.com/smbjimpex/?pos=40&kwd=diaper liners&tags=CC||||8752.144|Price|product|||NA|rsf:gd-|-qr_nm:gd|res:RC3|com-cf:nl|ptrs:na|ktp:N0|mc:26170|mtp:S|qry_typ:P|lang:en|wc:2|cs:7531|v=4,False,Industrial Area,New Delhi,"Basement Floor,b-26,patparganj Industrial Area,,patparganj,,north Ea, Industrial Area, New Delhi - 110092, Dist.Delhi, Delhi",8048371512,509
"Washable,Reuseable. Cloth Diaper Baby daiper pad, Age Group: Newly Born, Packaging Size: 5 Piece Packing",https://www.indiamart.com/proddetail/baby-daiper-pad-25351051173.html?pos=41&kwd=diaper liners&tags=CC||||8211.142|Price|product|||NA|rsf:gd-|-qr_nm:gd|res:RC3|com-cf:nl|ptrs:na|ktp:N0|mc:26170|mtp:S|qry_typ:P|lang:en|wc:2|cs:7531|v=4,Keval Enterprises,https://www.indiamart.com/keval-enterprises-mumbai/?pos=41&kwd=diaper liners&tags=CC||||8211.142|Price|product|||NA|rsf:gd-|-qr_nm:gd|res:RC3|com-cf:nl|ptrs:na|ktp:N0|mc:26170|mtp:S|qry_typ:P|lang:en|wc:2|cs:7531|v=4,False,Dadar West,Mumbai,"Shop No. 20, Madhani Industrial Estate Senapati Bapat Marg, Dadar West, Mumbai - 400028, Dist.Mumbai, Maharashtra",8048951266,
"Cotton Baby Nappy Liners Diaper, Age Group: 3-12 Months",https://www.indiamart.com/proddetail/baby-nappy-liners-diaper-20808647062.html?pos=42&kwd=diaper liners&tags=||||8601.347|Price|product|||NA|rsf:gd-|-qr_nm:gd|res:RC3|com-cf:nl|ptrs:na|ktp:N0|mc:26170|mtp:S|qry_typ:P|lang:en|wc:2|cs:7531|v=4,Mamma Mia,https://www.indiamart.com/mammamia/?pos=42&kwd=diaper liners&tags=||||8601.347|Price|product|||NA|rsf:gd-|-qr_nm:gd|res:RC3|com-cf:nl|ptrs:na|ktp:N0|mc:26170|mtp:S|qry_typ:P|lang:en|wc:2|cs:7531|v=4,False,,Jaipur,"D 192-a, Moti Marg, Bapu Nagar, Jaipur - 302015, Dist.Jaipur, Rajasthan",8069013895,120
"Prevail Pant Liners (Unisex) - 52 Counts, Size: Medium",https://www.indiamart.com/proddetail/prevail-pant-liners-unisex-52-counts-2853412994488.html?pos=43&kwd=diaper liners&tags=||||8663.873|Price|product|||NA|rsf:gd-|-qr_nm:gd|res:RC3|com-cf:nl|ptrs:na|ktp:N0|mc:26170|mtp:S|qry_typ:P|lang:en|wc:2|cs:7531|v=4,Kosmochem Pvt. Ltd./ Kosmochem Home Healthcare Div Of KPL,https://www.indiamart.com/kosmochem-pvt-ltd-kosmochem-home-healthcare-div-of-kpl/?pos=43&kwd=diaper liners&tags=||||8663.873|Price|product|||NA|rsf:gd-|-qr_nm:gd|res:RC3|com-cf:nl|ptrs:na|ktp:N0|mc:26170|mtp:S|qry_typ:P|lang:en|wc:2|cs:7531|v=4,False,,Bengaluru,"3rd Floor,Uma Sree Dream World Survey No 49/1 And Survey No 49/2,Hongasandra Village Opposite Kuld, Bengaluru - 560068, Dist.Bengaluru, Karnataka",8069264899,315
100% Recycled Polyester Grey Smart Bottom Stay Dry Liners 5 Pack Diapers,https://www.indiamart.com/proddetail/smart-bottom-stay-dry-liners-5-pack-diapers-20075009633.html?pos=44&kwd=diaper liners&tags=||||8954.051|Price|product|||NA|rsf:gd-|-qr_nm:gd|res:RC3|com-cf:nl|ptrs:na|ktp:N0|mc:26170|mtp:S|qry_typ:P|lang:en|wc:2|cs:7531|v=4,Care 4 Little,https://www.indiamart.com/care-4-little/?pos=44&kwd=diaper liners&tags=||||8954.051|Price|product|||NA|rsf:gd-|-qr_nm:gd|res:RC3|com-cf:nl|ptrs:na|ktp:N0|mc:26170|mtp:S|qry_typ:P|lang:en|wc:2|cs:7531|v=4,False,Alwarpet,Chennai,"54/117, Alwarpet Street, Seetammal Colony, Sri Ram Nagar, Alwarpet, Alwarpet, Chennai - 600018, Dist.Chennai, Tamil Nadu",8048247139,1859
Bee Free Panty Liner Pad,https://www.indiamart.com/proddetail/bee-free-panty-liner-pad-20549547230.html?pos=45&kwd=diaper liners&tags=||||8752.144|Price|product|||NA|rsf:gd-|-qr_nm:gd|res:RC3|com-cf:nl|ptrs:na|ktp:N0|mc:26170|mtp:S|qry_typ:P|lang:en|wc:2|cs:7531|v=4,Shourya Hygienes,https://www.indiamart.com/shouryahygeines-delhi/?pos=45&kwd=diaper liners&tags=||||8752.144|Price|product|||NA|rsf:gd-|-qr_nm:gd|res:RC3|com-cf:nl|ptrs:na|ktp:N0|mc:26170|mtp:S|qry_typ:P|lang:en|wc:2|cs:7531|v=4,False,Model Town,New Delhi,"Plot No. 1, 204, Vardhman LSC, Rohit Kunj, Model Town, New Delhi - 110034, Dist.Delhi, Delhi",8062245003,831
"Mee Mee One-Way Protective Nappy Liners, 100 Count",https://www.indiamart.com/proddetail/mee-mee-one-way-protective-nappy-liners-100-count-2851751643991.html?pos=46&kwd=diaper liners&tags=||||8612.732|Price|product|||NA|rsf:gd-|-qr_nm:gd|res:RC3|com-cf:nl|ptrs:na|ktp:N0|mc:26170|mtp:S|qry_typ:P|lang:en|wc:2|cs:7531|v=4,Swift Healthcare & Hygiene Private Limited,https://www.indiamart.com/swift-healthcare-hygiene-private-limited-srinagar/?pos=46&kwd=diaper liners&tags=||||8612.732|Price|product|||NA|rsf:gd-|-qr_nm:gd|res:RC3|com-cf:nl|ptrs:na|ktp:N0|mc:26170|mtp:S|qry_typ:P|lang:en|wc:2|cs:7531|v=4,False,Pampore,Srinagar,"1 1 Shiraz Road Srinagar Srinagar, Pampore, Srinagar - 190003, Dist.Srinagar, Jammu & Kashmir",,
"Pink Organic Cotton Diaper, Size: Adjustable size",https://www.indiamart.com/proddetail/organic-cotton-diaper-2851096843373.html?pos=47&kwd=diaper liners&tags=||||8752.144|Price|proxy|||TS|rsf:gd-|-qr_nm:gd|res:RC3|com-cf:nl|ptrs:na|ktp:N0|mc:26170|mtp:S|qry_typ:P|lang:en|wc:2|cs:7531|v=4,Manvi Wellness India Private Limited,https://www.manviwellness.com/?pos=47&kwd=diaper liners&tags=||||8752.144|Price|proxy|||TS|rsf:gd-|-qr_nm:gd|res:RC3|com-cf:nl|ptrs:na|ktp:N0|mc:26170|mtp:S|qry_typ:P|lang:en|wc:2|cs:7531|v=4,False,Narela,New Delhi,"E 910, Dsidc Narela, Narela, New Delhi - 110040, Dist.Delhi, Delhi",7942832529,
"OEM Cotton Reusable Swim Diaper Pants for Babies, Age Group: 3-12 Months",https://www.indiamart.com/proddetail/reusable-swim-diaper-pants-for-babies-23163130188.html?pos=48&kwd=diaper liners&tags=||||8626.744|Price|product|||NA|rsf:gd-|-qr_nm:gd|res:RC3|com-cf:nl|ptrs:na|ktp:N0|mc:26170|mtp:S|qry_typ:P|lang:en|wc:2|cs:7531|v=4,Annamar Clothing,https://www.indiamart.com/annamarclothing/?pos=48&kwd=diaper liners&tags=||||8626.744|Price|product|||NA|rsf:gd-|-qr_nm:gd|res:RC3|com-cf:nl|ptrs:na|ktp:N0|mc:26170|mtp:S|qry_typ:P|lang:en|wc:2|cs:7531|v=4,False,,Tiruppur,"No. 577/2-A2, College Pudur, Near Tamil Nadu Theatre Palladam Road, Tiruppur - 641605, Dist.Coimbatore, Tamil Nadu",8062245064,878
Medium Size Baby Diaper,https://www.indiamart.com/proddetail/medium-size-baby-diaper-17843006730.html?pos=49&kwd=diaper liners&tags=||||8954.051||product|||NA|rsf:gd-|-qr_nm:gd|res:RC3|com-cf:nl|ptrs:na|ktp:N0|mc:26170|mtp:S|qry_typ:P|lang:en|wc:2|cs:7531|v=4,Nazer Enterprise,https://www.indiamart.com/nazerenterprise/?pos=49&kwd=diaper liners&tags=||||8954.051||product|||NA|rsf:gd-|-qr_nm:gd|res:RC3|com-cf:nl|ptrs:na|ktp:N0|mc:26170|mtp:S|qry_typ:P|lang:en|wc:2|cs:7531|v=4,False,Nungambakkam,Chennai,"No.1, Ramanathan St, 1st Floor, Nungambakkam, Nungambakkam, Chennai - 600034, Dist.Chennai, Tamil Nadu",8043849424,
"Huggies Diaper, Size: Medium, Age Group: 3-12 Months",https://www.indiamart.com/proddetail/huggies-diaper-27434969097.html?pos=50&kwd=diaper liners&tags=||||8258.58|Price|product|||NA|rsf:gd-|-qr_nm:gd|res:RC3|com-cf:nl|ptrs:na|ktp:N0|mc:26170|mtp:S|qry_typ:P|lang:en|wc:2|cs:7531|v=4,Shayona Fashion,https://www.indiamart.com/kalpana-baby-diapers-pant/?pos=50&kwd=diaper liners&tags=||||8258.58|Price|product|||NA|rsf:gd-|-qr_nm:gd|res:RC3|com-cf:nl|ptrs:na|ktp:N0|mc:26170|mtp:S|qry_typ:P|lang:en|wc:2|cs:7531|v=4,False,A. V. Road,Anand,"HOUSE NO 166/1, I, SUTHAR KHADKI, TRANOL, Anand Park Society, A. V. Road, Anand - 388335, Dist.Anand, Gujarat",8062245064,798
"Amusemac Nonwoven Baby Diaper / Disposable Baby Diaper, Packaging Size: 50 Pcs",https://www.indiamart.com/proddetail/baby-diaper-disposable-baby-diaper-23695070255.html?pos=51&kwd=diaper liners&tags=||||8513.952|Price|product|||NA|rsf:gd-|-qr_nm:gd|res:RC3|com-cf:nl|ptrs:na|ktp:N0|mc:26170|mtp:S|qry_typ:P|lang:en|wc:2|cs:7531|v=4,Amusemac.India,https://www.indiamart.com/amusemacindia/?pos=51&kwd=diaper liners&tags=||||8513.952|Price|product|||NA|rsf:gd-|-qr_nm:gd|res:RC3|com-cf:nl|ptrs:na|ktp:N0|mc:26170|mtp:S|qry_typ:P|lang:en|wc:2|cs:7531|v=4,False,,Badnagar,", Badnagar - 456771, Dist.Ujjain, Madhya Pradesh",8048361377,750
"Pampers Baby Diaper, Size: Small, Age Group: 3-12 Months",https://www.indiamart.com/proddetail/pampers-baby-diaper-27504864212.html?pos=52&kwd=diaper liners&tags=||||8534.86|Price|product|||NA|rsf:gd-|-qr_nm:gd|res:RC3|com-cf:nl|ptrs:na|ktp:N0|mc:26170|mtp:S|qry_typ:P|lang:en|wc:2|cs:7531|v=4,Jed Medical And General Store,https://www.indiamart.com/jed-medical-and-general-store/?pos=52&kwd=diaper liners&tags=||||8534.86|Price|product|||NA|rsf:gd-|-qr_nm:gd|res:RC3|com-cf:nl|ptrs:na|ktp:N0|mc:26170|mtp:S|qry_typ:P|lang:en|wc:2|cs:7531|v=4,False,Shekhawati Sikar,Fatehpur,"Ward No. 14, Near Dare Doulat Masjid Sikariya Chourasta, Shekhawati Sikar, Fatehpur - 332301, Rajasthan",8043865217,
"50-60 Pull Ups Disposable Adult Diaper, Size: Medium",https://www.indiamart.com/proddetail/disposable-adult-diaper-2851545045655.html?pos=53&kwd=diaper liners&tags=||||9667.5205|Price|product|||NA|rsf:gd-|-qr_nm:gd|res:RC3|com-cf:nl|ptrs:na|ktp:N0|mc:26170|mtp:S|qry_typ:P|lang:en|wc:2|cs:7531|v=4,Global Agro Product,https://www.indiamart.com/global-agro-product-saharsa/?pos=53&kwd=diaper liners&tags=||||9667.5205|Price|product|||NA|rsf:gd-|-qr_nm:gd|res:RC3|com-cf:nl|ptrs:na|ktp:N0|mc:26170|mtp:S|qry_typ:P|lang:en|wc:2|cs:7531|v=4,False,,Saharsa,"Darbhanga Road, Saharsa - 852216, Dist.Saharsa, Bihar",8062245970,596
"Cotton Blue Peppy Baby Diaper, Packaging Type: In Packets, Packaging Size: Regular",https://www.indiamart.com/proddetail/peppy-baby-diaper-16229921773.html?pos=54&kwd=diaper liners&tags=||||8739.675|Price|product|||NA|rsf:gd-|-qr_nm:gd|res:RC3|com-cf:nl|ptrs:na|ktp:N0|mc:26170|mtp:S|qry_typ:P|lang:en|wc:2|cs:7531|v=4,Tapasya Enterprises,https://www.indiamart.com/tapasya-enterprise-amravati/?pos=54&kwd=diaper liners&tags=||||8739.675|Price|product|||NA|rsf:gd-|-qr_nm:gd|res:RC3|com-cf:nl|ptrs:na|ktp:N0|mc:26170|mtp:S|qry_typ:P|lang:en|wc:2|cs:7531|v=4,False,Habib Nagar,Amravati,"Shegaon Naka, Habib Nagar, Amravati - 444604, Dist.Amravati, Maharashtra",7942660447,
"Pampers Baby Diaper, Size: Large, Age Group: 1-2 Years",https://www.indiamart.com/proddetail/pampers-baby-diaper-2850508250997.html?pos=55&kwd=diaper liners&tags=||||8741.812|Price|product|||NA|rsf:gd-|-qr_nm:gd|res:RC3|com-cf:nl|ptrs:na|ktp:N0|mc:26170|mtp:S|qry_typ:P|lang:en|wc:2|cs:7531|v=4,Yadav Medicos,https://www.indiamart.com/yadav-medicos-haryana/?pos=55&kwd=diaper liners&tags=||||8741.812|Price|product|||NA|rsf:gd-|-qr_nm:gd|res:RC3|com-cf:nl|ptrs:na|ktp:N0|mc:26170|mtp:S|qry_typ:P|lang:en|wc:2|cs:7531|v=4,False,Gurgaon,Gurugram,"Shop No 1 Near SGT Univercity Budhera, Gurgaon, Gurugram - 122505, Dist.Gurgaon, Haryana",7942823870,
Nonwoven Pant Diapers Large Diaper pants,https://www.indiamart.com/proddetail/large-diaper-pants-22760681048.html?pos=56&kwd=diaper liners&tags=||||8307.81|Price|product|||NA|rsf:gd-|-qr_nm:gd|res:RC3|com-cf:nl|ptrs:na|ktp:N0|mc:26170|mtp:S|qry_typ:P|lang:en|wc:2|cs:7531|v=4,Medicare Incorporated,https://www.indiamart.com/medicare-incorporated/?pos=56&kwd=diaper liners&tags=||||8307.81|Price|product|||NA|rsf:gd-|-qr_nm:gd|res:RC3|com-cf:nl|ptrs:na|ktp:N0|mc:26170|mtp:S|qry_typ:P|lang:en|wc:2|cs:7531|v=4,False,Rasta Peth,Pune,"339/B Rasta Peth Behind Kaka Halwai, Rasta Peth, Pune - 411011, Dist.Pune, Maharashtra",8048204618,
Cotton Baby Diaper Small Size (Pocket Langot),https://www.indiamart.com/proddetail/baby-diaper-small-size-pocket-langot-25099152888.html?pos=57&kwd=diaper liners&tags=||||8307.81|Price|product|||NA|rsf:gd-|-qr_nm:gd|res:RC3|com-cf:nl|ptrs:na|ktp:N0|mc:26170|mtp:S|qry_typ:P|lang:en|wc:2|cs:7531|v=4,Soham Technology,https://www.indiamart.com/soham-technology-thane/?pos=57&kwd=diaper liners&tags=||||8307.81|Price|product|||NA|rsf:gd-|-qr_nm:gd|res:RC3|com-cf:nl|ptrs:na|ktp:N0|mc:26170|mtp:S|qry_typ:P|lang:en|wc:2|cs:7531|v=4,False,,Pune,"A-4,DNYAN SAI VIHAR,Pune - Alandi Road,Vadmukhwadi - tal Haveli First,C-103/104,Miragaon,Mirasadan C.H.S.Ltd,Miraroad East,401104,Thane, Pune - 412105, Dist.Pune, Maharashtra",8047309010,2061
Unidry Pants Baby Diaper - Unidry,https://www.indiamart.com/proddetail/baby-diaper-unidry-17420132848.html?pos=58&kwd=diaper liners&tags=||||8503.868|Price|product|||NA|rsf:gd-|-qr_nm:gd|res:RC3|com-cf:nl|ptrs:na|ktp:N0|mc:26170|mtp:S|qry_typ:P|lang:en|wc:2|cs:7531|v=4,Vast Smart International Trading Company,https://www.indiamart.com/vastsmart-international/?pos=58&kwd=diaper liners&tags=||||8503.868|Price|product|||NA|rsf:gd-|-qr_nm:gd|res:RC3|com-cf:nl|ptrs:na|ktp:N0|mc:26170|mtp:S|qry_typ:P|lang:en|wc:2|cs:7531|v=4,False,Vazhakkala,Kochi,"XII/143, Pulikkal Building, Civil Lane Road, Vazhakkala, Vazhakkala, Kochi - 682030, Dist.Ernakulam, Kerala",8047696123,
"Cotton Pro Ease Baby Diaper Pants, Small",https://www.indiamart.com/proddetail/pro-ease-baby-diaper-pants-2853645674733.html?pos=59&kwd=diaper liners&tags=||||8307.81|Price|product|||NA|rsf:gd-|-qr_nm:gd|res:RC3|com-cf:nl|ptrs:na|ktp:N0|mc:26170|mtp:S|qry_typ:P|lang:en|wc:2|cs:7531|v=4,Wrushabh Enterprises,https://www.indiamart.com/wrushabhenterprises/?pos=59&kwd=diaper liners&tags=||||8307.81|Price|product|||NA|rsf:gd-|-qr_nm:gd|res:RC3|com-cf:nl|ptrs:na|ktp:N0|mc:26170|mtp:S|qry_typ:P|lang:en|wc:2|cs:7531|v=4,False,Sadashiv Peth,Pune,"Ground, 796, Office No .1, Dhanlaxmi Plaza, Br Gadgil Road, Nilay Institute, Sadashiv Peth, Sadashiv Peth, Pune - 411030, Dist.Pune, Maharashtra",8044562559,
Unique Pull Ups B Fit Economy Medium Adult Diaper,https://www.indiamart.com/proddetail/b-fit-economy-medium-adult-diaper-2851279098991.html?pos=60&kwd=diaper liners&tags=||||8778.123|Price|product|||NA|rsf:gd-|-qr_nm:gd|res:RC3|com-cf:nl|ptrs:na|ktp:N0|mc:26170|mtp:S|qry_typ:P|lang:en|wc:2|cs:7531|v=4,Indra Trading Co.,https://www.indiamart.com/indra-tradingco/?pos=60&kwd=diaper liners&tags=||||8778.123|Price|product|||NA|rsf:gd-|-qr_nm:gd|res:RC3|com-cf:nl|ptrs:na|ktp:N0|mc:26170|mtp:S|qry_typ:P|lang:en|wc:2|cs:7531|v=4,False,,Noida,"Village-Harola, Sector-5, Gautam Buddha Nagar, Noida - 201301, Dist.Gautam Budh Nagar, Uttar Pradesh",7942839428,
"5 Piece Brown Insert Reusable Baby Cloth Diaper, Size: Medium, Age Group: Newly Born",https://www.indiamart.com/proddetail/5-piece-brown-insert-reusable-baby-cloth-diaper-27185538212.html?pos=61&kwd=diaper liners&tags=||||8778.123|Price|product|||NA|rsf:gd-|-qr_nm:gd|res:RC3|com-cf:nl|ptrs:na|ktp:N0|mc:26170|mtp:S|qry_typ:P|lang:en|wc:2|cs:7531|v=4,Smart Tech,https://www.indiamart.com/smarttech/?pos=61&kwd=diaper liners&tags=||||8778.123|Price|product|||NA|rsf:gd-|-qr_nm:gd|res:RC3|com-cf:nl|ptrs:na|ktp:N0|mc:26170|mtp:S|qry_typ:P|lang:en|wc:2|cs:7531|v=4,False,,Noida,"H.No-RC97, Bharat Nagar-1, Khora, Indrapuram, Noida - 201309, Dist.Gautam Budh Nagar, Uttar Pradesh",8047546219,
Women diaper Panty for Incontinence with Capacity up to 450ml (Pack of 5),https://www.indiamart.com/proddetail/women-diaper-panty-for-incontinence-with-capacity-up-to-450ml-pack-of-5-2851788722848.html?pos=62&kwd=diaper liners&tags=||||8778.123|Price|product|||NA|rsf:gd-|-qr_nm:gd|res:RC3|com-cf:nl|ptrs:na|ktp:N0|mc:26170|mtp:S|qry_typ:P|lang:en|wc:2|cs:7531|v=4,White Square,https://www.indiamart.com/white-square-noida/?pos=62&kwd=diaper liners&tags=||||8778.123|Price|product|||NA|rsf:gd-|-qr_nm:gd|res:RC3|com-cf:nl|ptrs:na|ktp:N0|mc:26170|mtp:S|qry_typ:P|lang:en|wc:2|cs:7531|v=4,False,Sector 62,Noida,"46, Sanchar Vihar, C58/4, Sector 62, Gautambuddha Nagar, Sector 62, Noida - 201307, Dist.Gautam Budh Nagar, Uttar Pradesh",7942871407,
TotzTouch Pocket Diaper with 1 Wet-Free Thick Insert Reusable Adjustable Age Newborn to 5 Years,https://www.indiamart.com/proddetail/totztouch-pocket-diaper-with-1-wet-free-thick-insert-reusable-adjustable-age-newborn-to-5-years-23196961955.html?pos=63&kwd=diaper liners&tags=||||8663.873|Price|product|||NA|rsf:gd-|-qr_nm:gd|res:RC3|com-cf:nl|ptrs:na|ktp:N0|mc:26170|mtp:S|qry_typ:P|lang:en|wc:2|cs:7531|v=4,Kiratech,https://www.indiamart.com/kiratech-bengaluru/?pos=63&kwd=diaper liners&tags=||||8663.873|Price|product|||NA|rsf:gd-|-qr_nm:gd|res:RC3|com-cf:nl|ptrs:na|ktp:N0|mc:26170|mtp:S|qry_typ:P|lang:en|wc:2|cs:7531|v=4,False,Begur,Bengaluru,"Shop No. 408, 14th Cross, Begur, Bengaluru - 560068, Dist.Bengaluru, Karnataka",8043818336,
"Huggies diapers, Size: Large, Age Group: 3-12 Months",https://www.indiamart.com/proddetail/huggies-diapers-2850016897530.html?pos=64&kwd=diaper liners&tags=||||8728.5|Price|product|||NA|rsf:gd-|-qr_nm:gd|res:RC3|com-cf:nl|ptrs:na|ktp:N0|mc:26170|mtp:S|qry_typ:P|lang:en|wc:2|cs:7531|v=4,Hitasri Corporation,https://www.indiamart.com/inaa-marketing-kurnool/?pos=64&kwd=diaper liners&tags=||||8728.5|Price|product|||NA|rsf:gd-|-qr_nm:gd|res:RC3|com-cf:nl|ptrs:na|ktp:N0|mc:26170|mtp:S|qry_typ:P|lang:en|wc:2|cs:7531|v=4,False,Cyberabad,Kurnool,"near Andhra Bank 51/14-5a1 Bellary Road Opp. Ap Transco Office Kurnool, Cyberabad, Kurnool - 518003, Dist.Kurnool, Andhra Pradesh",8062245018,409
Diapers,https://www.indiamart.com/proddetail/diapers-6971320433.html?pos=65&kwd=diaper liners&tags=||||8234.609||product|||NA|rsf:gd-|-qr_nm:gd|res:RC3|com-cf:nl|ptrs:na|ktp:N0|mc:26170|mtp:S|qry_typ:P|lang:en|wc:2|cs:7531|v=4,Cotton Eco Fashion,https://www.indiamart.com/cotton-ecofashion/?pos=65&kwd=diaper liners&tags=||||8234.609||product|||NA|rsf:gd-|-qr_nm:gd|res:RC3|com-cf:nl|ptrs:na|ktp:N0|mc:26170|mtp:S|qry_typ:P|lang:en|wc:2|cs:7531|v=4,False,,Valsad,"C1B-250/2, GIDC, Umbergaon, Nr. Gol Canteen, Valsad - 396171, Dist.Valsad, Gujarat",8048372475,258
Double Snap OnSize Pocket Cloth Diapers,https://www.indiamart.com/proddetail/double-snap-onsize-pocket-cloth-diapers-13004629273.html?pos=66&kwd=diaper liners&tags=||||8663.873||product|||NA|rsf:gd-|-qr_nm:gd|res:RC3|com-cf:nl|ptrs:na|ktp:N0|mc:26170|mtp:S|qry_typ:P|lang:en|wc:2|cs:7531|v=4,Aerospace Engineers,https://www.indiamart.com/aerospace-engineers/?pos=66&kwd=diaper liners&tags=||||8663.873||product|||NA|rsf:gd-|-qr_nm:gd|res:RC3|com-cf:nl|ptrs:na|ktp:N0|mc:26170|mtp:S|qry_typ:P|lang:en|wc:2|cs:7531|v=4,False,Mathikere,Bengaluru,"No.30, 1st Crs,4th Mn,V R Lyt, Mathikere Gokul Railway Gate, Mathikere, Bengaluru - 560054, Dist.Bengaluru, Karnataka",8069416011,630
"Pampers Swaddlers Preemie P-3, 1.8lb (2 BAGS OF 32 DIAPERS)",https://www.indiamart.com/proddetail/pampers-swaddlers-preemie-p-3-1-8lb-2-bags-of-32-diapers-2849896570997.html?pos=67&kwd=diaper liners&tags=||||8228.275|Price|product|||NA|rsf:gd-|-qr_nm:gd|res:RC3|com-cf:nl|ptrs:na|ktp:N0|mc:26170|mtp:S|qry_typ:P|lang:en|wc:2|cs:7531|v=4,Ahmedabad Satsang S Association Store,https://www.indiamart.com/ahmedabad-satsang-s-association-store/?pos=67&kwd=diaper liners&tags=||||8228.275|Price|product|||NA|rsf:gd-|-qr_nm:gd|res:RC3|com-cf:nl|ptrs:na|ktp:N0|mc:26170|mtp:S|qry_typ:P|lang:en|wc:2|cs:7531|v=4,False,KATHWANI GALI,Ahmedabad,"18/b Nr.saibaba Mandir,kathwani Gali Sindhi Colony Sardar Nagar NR.SAIBABA MANDIR, KATHWANI GALI, Ahmedabad - 382475, Dist.Ahmedabad, Gujarat",8069857336,567
"Just Born Premium Baby Diapers - New Born (3-8 Kgs), Packaging Size: 25x17x10 Cms",https://www.indiamart.com/proddetail/premium-baby-diapers-new-born-3-8-kgs-3518688288.html?pos=68&kwd=diaper liners&tags=||||8954.051|Price|product|||NA|rsf:gd-|-qr_nm:gd|res:RC3|com-cf:nl|ptrs:na|ktp:N0|mc:26170|mtp:S|qry_typ:P|lang:en|wc:2|cs:7531|v=4,New India Sales Corporation,https://www.indiamart.com/new-india-sales-corporation-chennai/?pos=68&kwd=diaper liners&tags=||||8954.051|Price|product|||NA|rsf:gd-|-qr_nm:gd|res:RC3|com-cf:nl|ptrs:na|ktp:N0|mc:26170|mtp:S|qry_typ:P|lang:en|wc:2|cs:7531|v=4,False,Nungambakkam,Chennai,"flor No. 103, Nungambakkam High Road, Ganpat Hotel Building Nungambakkam High Road, Nungambakkam, Chennai - 600034, Dist.Chennai, Tamil Nadu",8048372060,589
All baby Daipers,https://www.indiamart.com/proddetail/all-baby-daipers-19657675955.html?pos=69&kwd=diaper liners&tags=||||8211.142|Price|product|||NA|rsf:gd-|-qr_nm:gd|res:RC3|com-cf:nl|ptrs:na|ktp:N0|mc:26170|mtp:S|qry_typ:P|lang:en|wc:2|cs:7531|v=4,MK Store,https://www.indiamart.com/mk-storemumbai/?pos=69&kwd=diaper liners&tags=||||8211.142|Price|product|||NA|rsf:gd-|-qr_nm:gd|res:RC3|com-cf:nl|ptrs:na|ktp:N0|mc:26170|mtp:S|qry_typ:P|lang:en|wc:2|cs:7531|v=4,False,,Mumbai,"Crawford Market, Mumbai - 400001, Dist.Mumbai, Maharashtra",8048372458,307
"Cotton Nixu Cloth Diaper for Babies Washable, Reusable Diaper, Packaging Size: 10x14, Size: Free Size",https://www.indiamart.com/proddetail/nixu-cloth-diaper-for-babies-washable-reusable-diaper-27460414088.html?pos=70&kwd=diaper liners&tags=||||8778.123|Price|product|||NA|rsf:gd-|-qr_nm:gd|res:RC3|com-cf:nl|ptrs:na|ktp:N0|mc:26170|mtp:S|qry_typ:P|lang:en|wc:2|cs:7531|v=4,R.S. Crazy World,https://www.indiamart.com/rs-crazy-world/?pos=70&kwd=diaper liners&tags=||||8778.123|Price|product|||NA|rsf:gd-|-qr_nm:gd|res:RC3|com-cf:nl|ptrs:na|ktp:N0|mc:26170|mtp:S|qry_typ:P|lang:en|wc:2|cs:7531|v=4,False,,Noida,"C- 116, First Floor, Industrial Area Sector- 10, Noida - 201301, Dist.Gautam Budh Nagar, Uttar Pradesh",8047531386,
"Cotton Disposable imported Pampers Premium Care Diapers Pants, Size: XS, Age Group: Newly Born",https://www.indiamart.com/proddetail/imported-pampers-premium-care-diapers-pants-25991192248.html?pos=71&kwd=diaper liners&tags=||||8211.142|Price|product|||NA|rsf:gd-|-qr_nm:gd|res:RC3|com-cf:nl|ptrs:na|ktp:N0|mc:26170|mtp:S|qry_typ:P|lang:en|wc:2|cs:7531|v=4,Baby Touch,https://www.indiamart.com/baby-touch/?pos=71&kwd=diaper liners&tags=||||8211.142|Price|product|||NA|rsf:gd-|-qr_nm:gd|res:RC3|com-cf:nl|ptrs:na|ktp:N0|mc:26170|mtp:S|qry_typ:P|lang:en|wc:2|cs:7531|v=4,False,Bandra West,Mumbai,"Shop No. 2 51 Hill Road Bindiya Ch Soc Ltd Bandra West, Bandra West, Mumbai - 400050, Dist.Mumbai, Maharashtra",8047683870,
Mom Care Cloth Diaper Reusable Muslin Baby Diapers,https://www.indiamart.com/proddetail/reusable-muslin-baby-diapers-23803888333.html?pos=72&kwd=diaper liners&tags=||||9839.57|Price|product|||NA|rsf:gd-|-qr_nm:gd|res:RC3|com-cf:nl|ptrs:na|ktp:N0|mc:26170|mtp:S|qry_typ:P|lang:en|wc:2|cs:7531|v=4,India Shoppers Hub,https://www.indiamart.com/india-shoppers-hub/?pos=72&kwd=diaper liners&tags=||||9839.57|Price|product|||NA|rsf:gd-|-qr_nm:gd|res:RC3|com-cf:nl|ptrs:na|ktp:N0|mc:26170|mtp:S|qry_typ:P|lang:en|wc:2|cs:7531|v=4,False,,Kolkata,"8, 6th Floor, Shantiniketan Building, Camac Street, Kolkata - 700017, Dist.Kolkata, West Bengal",8046042060,
Baby Diaper,,Sweet Angels,https://www.indiamart.com/sweet-angels/?pos=73&kwd=diaper liners&tags=||||8038.093||product|||NA|rsf:gd-|-qr_nm:gd|res:RC3|com-cf:nl|ptrs:na|ktp:N0|mc:26170|mtp:S|qry_typ:P|lang:en|wc:2|cs:7531|v=4,False,Kotecha Main Road,Rajkot,"Sunny Plaza, Kotecha Main Road, Rajkot - 360001, Dist.Rajkot, Gujarat",8047522019,
"huggies Huugggies diapers, Size: Small, Age Group: 3-12 Months",https://www.indiamart.com/proddetail/huugggies-diapers-2849775161212.html?pos=74&kwd=diaper liners&tags=||||8799.744|Price|product|||NA|rsf:gd-|-qr_nm:gd|res:RC3|com-cf:nl|ptrs:na|ktp:N0|mc:26170|mtp:S|qry_typ:P|lang:en|wc:2|cs:7531|v=4,Dishika Enterprises,https://www.indiamart.com/dishikaenterprises-modinagar/?pos=74&kwd=diaper liners&tags=||||8799.744|Price|product|||NA|rsf:gd-|-qr_nm:gd|res:RC3|com-cf:nl|ptrs:na|ktp:N0|mc:26170|mtp:S|qry_typ:P|lang:en|wc:2|cs:7531|v=4,False,Gali,Modinagar,"Gali No. 3, Santpura, Ghaziabad Modinagar, Gali, Modinagar - 201204, Dist.Ghaziabad, Uttar Pradesh",7949360429,
"Washable & Reusable Cotton Baby Diapers, Age Group: 0 to 1 Year, Packaging Size: 1 Piece",https://www.indiamart.com/proddetail/baby-diapers-23957980373.html?pos=75&kwd=diaper liners&tags=||||8622.305|Price|product|||NA|rsf:gd-|-qr_nm:gd|res:RC3|com-cf:nl|ptrs:na|ktp:N0|mc:26170|mtp:S|qry_typ:P|lang:en|wc:2|cs:7531|v=4,Kasduri Organic Store,https://www.indiamart.com/kasturiorganicstore/?pos=75&kwd=diaper liners&tags=||||8622.305|Price|product|||NA|rsf:gd-|-qr_nm:gd|res:RC3|com-cf:nl|ptrs:na|ktp:N0|mc:26170|mtp:S|qry_typ:P|lang:en|wc:2|cs:7531|v=4,False,Tower Junction,Nagercoil,"50/6, Crescent Complex, Putthan Banglow Road, East Of Tower Junction,, Tower Junction, Nagercoil - 629001, Dist.Kanyakumari, Tamil Nadu",8046048006,
"huggies diapers Hugggies ddiapers, Size: Small, Age Group: 3-12 Months",https://www.indiamart.com/proddetail/hugggies-ddiapers-2849773863433.html?pos=76&kwd=diaper liners&tags=||||10180.86|Price|product|||NA|rsf:gd-|-qr_nm:gd|res:RC3|com-cf:nl|ptrs:na|ktp:N0|mc:26170|mtp:S|qry_typ:P|lang:en|wc:2|cs:7531|v=4,Seeta International,https://www.indiamart.com/seeta-international/?pos=76&kwd=diaper liners&tags=||||10180.86|Price|product|||NA|rsf:gd-|-qr_nm:gd|res:RC3|com-cf:nl|ptrs:na|ktp:N0|mc:26170|mtp:S|qry_typ:P|lang:en|wc:2|cs:7531|v=4,False,Kamrup,Guwahati,"0,JAI KUMAR JAIN BUILDING,OLD POST OFFICE LANE , A K AZAD ROAD,OLD POST OFFICE LANE , A K AZAD ROAD 2, Arihant Tower Apartment, C K Road, Panbazar,781001,Kamrup, Kamrup, Guwahati - 781008, Dist.Kamrup, Assam",7949302597,
"Friends UltraThinz Slim Fit Adult Diapers, Size: XL",https://www.indiamart.com/proddetail/friends-ultrathinz-slim-fit-adult-diapers-2852102916073.html?pos=77&kwd=diaper liners&tags=||||8706.587|Price|product|||NA|rsf:gd-|-qr_nm:gd|res:RC3|com-cf:nl|ptrs:na|ktp:N0|mc:26170|mtp:S|qry_typ:P|lang:en|wc:2|cs:7531|v=4,Zenmed,https://www.indiamart.com/zenmed/?pos=77&kwd=diaper liners&tags=||||8706.587|Price|product|||NA|rsf:gd-|-qr_nm:gd|res:RC3|com-cf:nl|ptrs:na|ktp:N0|mc:26170|mtp:S|qry_typ:P|lang:en|wc:2|cs:7531|v=4,False,,Madurai,"194/6, Meenakshi Amman Bagar,5th North Street, Surya Nagar, Madurai - 625007, Dist.Madurai, Tamil Nadu",7942866545,
"Huggies Size 1 Diapers, Skin Essentials Baby Diapers, Size 1 (8-14 lbs), 198 Count",https://www.indiamart.com/proddetail/huggies-size-1-diapers-skin-essentials-baby-diapers-size-1-8-14-lbs-198-count-2854372399973.html?pos=78&kwd=diaper liners&tags=||||8663.873|Price|product|||NA|rsf:gd-|-qr_nm:gd|res:RC3|com-cf:nl|ptrs:na|ktp:N0|mc:26170|mtp:S|qry_typ:P|lang:en|wc:2|cs:7531|v=4,Ralecon It Consulting Services Pvt Ltd,https://www.indiamart.com/ralecon-it-consulting-services-pvt-ltd-bengaluru/?pos=78&kwd=diaper liners&tags=||||8663.873|Price|product|||NA|rsf:gd-|-qr_nm:gd|res:RC3|com-cf:nl|ptrs:na|ktp:N0|mc:26170|mtp:S|qry_typ:P|lang:en|wc:2|cs:7531|v=4,False,,Bengaluru,"3rd Floor Building No 3 Laxmi Layout, Munekolala, Varthur, Bengaluru - 560037, Dist.Bengaluru, Karnataka",8048370724,2612
"Organic Cotton Muslin Padded Nappies/Langot, Small, Age Group: Newly Born",https://www.indiamart.com/proddetail/organic-cotton-muslin-padded-nappies-langot-2854282320248.html?pos=79&kwd=diaper liners&tags=||||8230.883|Price|product|||NA|rsf:gd-|-qr_nm:gd|res:RC3|com-cf:nl|ptrs:na|ktp:N0|mc:26170|mtp:S|qry_typ:P|lang:en|wc:2|cs:7531|v=4,Arete Fashion,https://www.indiamart.com/arete-fashion/?pos=79&kwd=diaper liners&tags=||||8230.883|Price|product|||NA|rsf:gd-|-qr_nm:gd|res:RC3|com-cf:nl|ptrs:na|ktp:N0|mc:26170|mtp:S|qry_typ:P|lang:en|wc:2|cs:7531|v=4,False,Udhana,Surat,"Saffron House, Sai Ashish Industrial Estate, New 120ft. Bamroli road, near raika Circle, Surat Gujar Saffron House, Sai Ashish Industrial Estate, New 120ft. Bamroli road, near raika Circle, Surat Gujar, Udhana, Surat - 395010, Dist.Surat, Gujarat",8062245968,406
Cotton Aloe baby daiper,https://www.indiamart.com/proddetail/aloe-baby-daiper-2849753671712.html?pos=80&kwd=diaper liners&tags=||||8228.275|Price|proxy|||NA|rsf:gd-|-qr_nm:gd|res:RC3|com-cf:nl|ptrs:na|ktp:N0|mc:26170|mtp:S|qry_typ:P|lang:en|wc:2|cs:7531|v=4,Provectus Healthcare,https://www.indiamart.com/provectus-healthcare/?pos=80&kwd=diaper liners&tags=||||8228.275|Price|proxy|||NA|rsf:gd-|-qr_nm:gd|res:RC3|com-cf:nl|ptrs:na|ktp:N0|mc:26170|mtp:S|qry_typ:P|lang:en|wc:2|cs:7531|v=4,False,,Ahmedabad,"56 Arohi Road Ghuma Dascroi Pratham Vitika, Ahmedabad - 380058, Dist.Ahmedabad, Gujarat",8043861333,
Diaper Liners,,Om Traders,https://www.indiamart.com/om-traders-deuli/?pos=81&kwd=diaper liners&tags=CC||||9780.286|Price|product|||NA|rsf:gd-|-qr_nm:gd|res:RC3|com-cf:nl|ptrs:na|ktp:N0|mc:26170|mtp:S|qry_typ:P|lang:en|wc:2|cs:7531|v=4,False,,Deuli,"0,0,0,Belda,Tutranga,Paschim Medinipur, Deuli - 721424, Dist.Bankura, West Bengal",8062245990,695
Diaper Liners,,Pakhi Stationary And Cosmetics Centre,https://www.indiamart.com/ms-pakhi-stationary-and-cosmetics-centre/?pos=82&kwd=diaper liners&tags=CC||||8974.737||product|||NA|rsf:gd-|-qr_nm:gd|res:RC3|com-cf:nl|ptrs:na|ktp:N0|mc:26170|mtp:S|qry_typ:P|lang:en|wc:2|cs:7531|v=4,False,,Bareilly,"85, Gali No.1, Sainik Colony, Sanjay Nagar, Bareilly - 243122, Dist.Bareilly, Uttar Pradesh",8047309005,5917
Diaper Liners,,St.Marys Medicals,https://www.indiamart.com/stmarys-medicals/?pos=83&kwd=diaper liners&tags=CC||||8499.098|Price|product|||NA|rsf:gd-|-qr_nm:gd|res:RC3|com-cf:nl|ptrs:na|ktp:N0|mc:26170|mtp:S|qry_typ:P|lang:en|wc:2|cs:7531|v=4,False,,Njarackal,"Ii/44,St Marys Medicals,Njarackal,Njarackal,Ernakulam, Njarackal - 682505, Dist.Ernakulam, Kerala",8069707370,321
Diaper Liners,,Munazah Enterprises,https://www.indiamart.com/munazah-enterprises/?pos=84&kwd=diaper liners&tags=CC||||8612.732||product|||NA|rsf:gd-|-qr_nm:gd|res:RC3|com-cf:nl|ptrs:na|ktp:N0|mc:26170|mtp:S|qry_typ:P|lang:en|wc:2|cs:7531|v=4,False,,Srinagar,"Hyderbeigh Tcp,Hyderbeigh Tcp,Pattan,Baramulla,Jammu And Kashmir, Srinagar - 193121, Dist.Srinagar, Jammu & Kashmir",8062270242,747
Diaper Liners,,R K Enterprises,https://www.indiamart.com/rkenterprises-34852356/?pos=85&kwd=diaper liners&tags=CC||||8752.144||product|||NA|rsf:gd-|-qr_nm:gd|res:RC3|com-cf:nl|ptrs:na|ktp:N0|mc:26170|mtp:S|qry_typ:P|lang:en|wc:2|cs:7531|v=4,False,,New Delhi,"270, Molarband Village, Badarpur, New Delhi,, New Delhi - 110044, Dist.Delhi, Delhi",8069728225,871
Diaper Liners,,Gopal Enterprises,https://www.indiamart.com/gopal-enterprises-gaya/?pos=86&kwd=diaper liners&tags=CC||||9502.893||product|||NA|rsf:gd-|-qr_nm:gd|res:RC3|com-cf:nl|ptrs:na|ktp:N0|mc:26170|mtp:S|qry_typ:P|lang:en|wc:2|cs:7531|v=4,False,,Gaya,"W/O Anand Sharma,Gobardiha,Khizersarai,Gaya, Gaya - 824233, Dist.Gaya, Bihar",8048370677,3624
Diaper Liners,,Dev Traders,https://www.indiamart.com/devtraders-etah/?pos=87&kwd=diaper liners&tags=CC||||8891.51||product|||NA|rsf:gd-|-qr_nm:gd|res:RC3|com-cf:nl|ptrs:na|ktp:N0|mc:26170|mtp:S|qry_typ:P|lang:en|wc:2|cs:7531|v=4,False,,Etah,"Etah,Shikohabad Road,Etah Dehat,Etah, Etah - 207001, Dist.Etah, Uttar Pradesh",7949367664,
Diaper Liners,,Kutties Medicals,https://www.indiamart.com/kutties-medicals/?pos=88&kwd=diaper liners&tags=CC||||8488.448||product|||NA|rsf:gd-|-qr_nm:gd|res:RC3|com-cf:nl|ptrs:na|ktp:N0|mc:26170|mtp:S|qry_typ:P|lang:en|wc:2|cs:7531|v=4,False,,Malappuram,"4/302,Ground Floor,Kundurummal Building,Kuttikkad Sasmasanam Road,Ponnani,Malappuram, Malappuram - 679577, Dist.Malappuram, Kerala",8048250491,894
Diaper Liners,,Rs Traders,https://www.indiamart.com/rstraders-200236077/?pos=89&kwd=diaper liners&tags=CC||||8752.144|Price|product|||NA|rsf:gd-|-qr_nm:gd|res:RC3|com-cf:nl|ptrs:na|ktp:N0|mc:26170|mtp:S|qry_typ:P|lang:en|wc:2|cs:7531|v=4,False,,New Delhi,"Ground Floor,House No 12/18,Rajapur Village,Near Dharamveer Atta Chakki,Rohini Sector 9,New North We, New Delhi - 110085, Dist.Delhi, Delhi",8069707353,175
Diaper Liners,,Wovetex,https://www.indiamart.com/wovetex/?pos=90&kwd=diaper liners&tags=CC||||8478.36||product|||NA|rsf:gd-|-qr_nm:gd|res:RC3|com-cf:nl|ptrs:na|ktp:N0|mc:26170|mtp:S|qry_typ:P|lang:en|wc:2|cs:7531|v=4,False,,Vengara,"19/b Vengara Road Cherur Kannamangalam, Vengara - 676304, Dist.Malappuram, Kerala",8069707330,675
Diaper Liners,,Shiv Mart,https://www.indiamart.com/shiv-mart-azamgarh/?pos=91&kwd=diaper liners&tags=CC||||9327.29||product|||NA|rsf:gd-|-qr_nm:gd|res:RC3|com-cf:nl|ptrs:na|ktp:N0|mc:26170|mtp:S|qry_typ:P|lang:en|wc:2|cs:7531|v=4,False,,Azamgarh,"Shiv Mart,Kartarpur Brahmsthan,Post Bhawarnath,Azamgarh, Azamgarh - 276001, Dist.Azamgarh, Uttar Pradesh",8045849099,5014
Diaper Liners,,nn trading co.,https://www.indiamart.com/m-kumarbengaluru/?pos=92&kwd=diaper liners&tags=CC||||8663.873||product|||NA|rsf:gd-|-qr_nm:gd|res:RC3|com-cf:nl|ptrs:na|ktp:N0|mc:26170|mtp:S|qry_typ:P|lang:en|wc:2|cs:7531|v=4,False,Virupakshapura,Bengaluru,"no.475,1st floor, rajeev gandhi nagar, Virupakshapura, Bengaluru - 560092, Dist.Bengaluru, Karnataka",8062270227,193
Diaper Liners,,VK Enterprises,https://www.indiamart.com/vk-enterprises-dhaulpur/?pos=93&kwd=diaper liners&tags=CC||||8806.764||product|||NA|rsf:gd-|-qr_nm:gd|res:RC3|com-cf:nl|ptrs:na|ktp:N0|mc:26170|mtp:S|qry_typ:P|lang:en|wc:2|cs:7531|v=4,False,,Dhaulpur,"118,Chatar Singh,Tor A B Road,Tor-Dholpur,Dholpur Kushwaha, Dhaulpur - 328001, Dist.Dholpur, Rajasthan",8048249720,7857
Diaper Liners,,Star Agency,https://www.indiamart.com/staragency-kumbakonam/?pos=94&kwd=diaper liners&tags=CC||||8849.34|Price|product|||NA|rsf:gd-|-qr_nm:gd|res:RC3|com-cf:nl|ptrs:na|ktp:N0|mc:26170|mtp:S|qry_typ:P|lang:en|wc:2|cs:7531|v=4,False,Melacavery,Kumbakonam,"2/451-E, jamiya nagar, Melacavery, Kumbakonam - 612002, Dist.Thanjavur, Tamil Nadu",8048250514,170
Diaper Liners,,Bhatti Trading Company,https://www.indiamart.com/bhatti-trading-company-ludhiana/?pos=95&kwd=diaper liners&tags=CC||||8661.854|Price|product|||NA|rsf:gd-|-qr_nm:gd|res:RC3|com-cf:nl|ptrs:na|ktp:N0|mc:26170|mtp:S|qry_typ:P|lang:en|wc:2|cs:7531|v=4,False,,Ludhiana,"House No 52-B,Bhatti Trading Company,Gtb Nagar,Bhamian Kalan,Mundian Kalan,Ludhiana, Ludhiana - 141015, Dist.Ludhiana, Punjab",8048249715,2868
Stay Dry Liners,,Atlas Scientific,https://www.indiamart.com/atlasscientific/?pos=96&kwd=diaper liners&tags=CC||||8786.56||product|||NA|rsf:gd-|-qr_nm:gd|res:RC3|com-cf:nl|ptrs:na|ktp:N0|mc:26170|mtp:S|qry_typ:P|lang:en|wc:2|cs:7531|v=4,False,,Hyderabad,"Plot No 25,Floor-Co Op Industrial Estate,Gadhinagar,Qutbullapur,Medchal - Malkajgiri,Telangana, Hyderabad - 500054, Dist.Hyderabad, Telangana",8048372590,840
One Way Nappy Liners,,Rondeyvoo Eurasia,https://www.indiamart.com/rondeyvoo-eurasia-limited/?pos=97&kwd=diaper liners&tags=CC||||8786.56|Price|product|||NA|rsf:gd-|-qr_nm:gd|res:RC3|com-cf:nl|ptrs:na|ktp:N0|mc:26170|mtp:S|qry_typ:P|lang:en|wc:2|cs:7531|v=4,False,Old Bowenpally,Hyderabad,"8-7-47/10, RR Nagar Hyderabad, Old Bowenpally, Hyderabad - 500044, Dist.Hyderabad, Telangana",8069013481,476
Diaper Liner,,S V V S Agencies,https://www.indiamart.com/s-v-v-s-agencies/?pos=98&kwd=diaper liners&tags=CC||||9437.879|Price|product|||NA|rsf:gd-|-qr_nm:gd|res:RC3|com-cf:nl|ptrs:na|ktp:N0|mc:26170|mtp:S|qry_typ:P|lang:en|wc:2|cs:7531|v=4,False,,Sompeta,"4-138,Suryasa Street,Sompeta Post Office,Sompeta,Srikakulam, Sompeta - 532284, Dist.Srikakulam, Andhra Pradesh",8045849066,5339
Bamboo Charcoal & Microfiber Diaper Insert,,Perfect Creations,https://www.indiamart.com/perfect-creatins/?pos=99&kwd=diaper liners&tags=CC||||8752.144|Price|product|||NA|rsf:gd-|-stype:graph|qr_nm:gd|res:RC3|com-cf:nl|ptrs:na|ktp:N0|mc:26170|mtp:S|qry_typ:P|lang:en|wc:2|cs:8808|v=4,False,,New Delhi,"Ground Floor, Street No-12, House No 15 And 16, Kh. No.129/1, 4-03 And 10,1-04, New Delhi - 110039, Dist.Delhi, Delhi",8048249711,4896
Nappy Liner,,Plk Babys World,https://www.indiamart.com/plk-babys-world/?pos=100&kwd=diaper liners&tags=CC||||8774.064||product|||NA|rsf:gd-|-stype:graph|qr_nm:gd|res:RC3|com-cf:nl|ptrs:na|ktp:N0|mc:26170|mtp:S|qry_typ:P|lang:en|wc:2|cs:8808|v=4,False,,Tiruchirappalli,"No.356, 4th Cross, Chillai Nagar, Trichi, Tiruchirappalli - 620018, Dist.Tiruchirappalli, Tamil Nadu",8048372465,464
Nappy Liner,,Me N Moms Private Limited,https://www.indiamart.com/menmomsmumbai/?pos=101&kwd=diaper liners&tags=CC||||8211.142||product|||NA|rsf:gd-|-stype:graph|qr_nm:gd|res:RC3|com-cf:nl|ptrs:na|ktp:N0|mc:26170|mtp:S|qry_typ:P|lang:en|wc:2|cs:8808|v=4,False,,Mumbai,"No. 2, Amar CHS, 8th Road, TPS III, Behind Telephone Exchange, Khar West, Mumbai - 400052, Dist.Mumbai, Maharashtra",8069264888,551
color printed diaper with liner pad fo kid,,Junior Kids The Baby Shop,https://www.indiamart.com/juniour-kids/?pos=102&kwd=diaper liners&tags=||||8211.142||product|||NA|rsf:gd-|-stype:graph|qr_nm:gd|res:RC3|com-cf:nl|ptrs:na|ktp:N0|mc:26170|mtp:S|qry_typ:P|lang:en|wc:2|cs:8808|v=4,False,,Mumbai,"Ground Floor Shop No 4 Dhobi Street, Chakala Market Bottle House, Mumbai - 400003, Dist.Mumbai, Maharashtra",8069023898,255
