product_title,product_link,company_name,company_link,is_verified_exporter,city_region,city,address_details,phone_number,phone_number_extension
"7 soft Nonwoven Pant Style Disposable Baby Diaper, Size: Extra Large, Packaging Size: 26 Pieces",https://www.indiamart.com/proddetail/pant-style-disposable-baby-diaper-26211966755.html?pos=1&kwd=disposable diaper&tags=A||||8230.883|Price|product|||LSlc|rsf:gd-|-qr_nm:gd|res:RC4|com-cf:nl|ptrs:na|ktp:N0|mc:26680|mtp:S|qry_typ:P|lang:en|wc:2|flavl:0-1|cs:8395|v=4,M. D. Hygiene Private Limited,https://www.mdhygieneindia.com/?pos=1&kwd=disposable diaper&tags=A||||8230.883|Price|product|||LSlc|rsf:gd-|-qr_nm:gd|res:RC4|com-cf:nl|ptrs:na|ktp:N0|mc:26680|mtp:S|qry_typ:P|lang:en|wc:2|flavl:0-1|cs:8395|v=4,True,Tadkeshwar,Surat,"Block No. 959, Kim Mandvi Road, Tadkeshwar, Surat - 394170, Dist.Surat, Gujarat",8046050788,
"50+ Fluff Pulp Disposable Diaper, Size: Adult",https://www.indiamart.com/proddetail/disposable-diaper-2850511781430.html?pos=2&kwd=disposable diaper&tags=A||||8211.142||product|||TS|rsf:gd-|-qr_nm:gd|res:RC4|com-cf:nl|ptrs:na|ktp:N0|mc:26680|mtp:S|qry_typ:P|lang:en|wc:2|flavl:0-1|cs:8395|v=4,Shree Surgicals,https://www.indiamart.com/shreesurgicalsmumbai/?pos=2&kwd=disposable diaper&tags=A||||8211.142||product|||TS|rsf:gd-|-qr_nm:gd|res:RC4|com-cf:nl|ptrs:na|ktp:N0|mc:26680|mtp:S|qry_typ:P|lang:en|wc:2|flavl:0-1|cs:8395|v=4,False,Parel,Mumbai,"Shop No. 8,Atit Shopping Enterprise Pvt Ltd,J P Road,Mumbai, Parel, Mumbai - 400053, Dist.Mumbai, Maharashtra",7942817071,
Disposable Adult Diaper,https://www.indiamart.com/proddetail/disposable-adult-diaper-2854287632848.html?pos=3&kwd=disposable diaper&tags=A||||8038.093|Price|product|||TS|rsf:gd-|-qr_nm:gd|res:RC4|com-cf:nl|ptrs:na|ktp:N0|mc:26680|mtp:S|qry_typ:P|lang:en|wc:2|flavl:0-1|cs:8395|v=4,BM Hygienecare LLP,https://www.bmhygienecare.com/?pos=3&kwd=disposable diaper&tags=A||||8038.093|Price|product|||TS|rsf:gd-|-qr_nm:gd|res:RC4|com-cf:nl|ptrs:na|ktp:N0|mc:26680|mtp:S|qry_typ:P|lang:en|wc:2|flavl:0-1|cs:8395|v=4,False,Dhokaliya,Rajkot,"Madhapar Chowkdi Rajkot- Jamnagar Highway, Dhokaliya, Rajkot - 360007, Dist.Rajkot, Gujarat",8047642184,
Disposable Diaper,https://www.indiamart.com/proddetail/disposable-diaper-16589078197.html?pos=4&kwd=disposable diaper&tags=A||||8703.834|Price|product|||TS|rsf:gd-|-qr_nm:gd|res:RC4|com-cf:nl|ptrs:na|ktp:N0|mc:26680|mtp:S|qry_typ:P|lang:en|wc:2|flavl:0-1|cs:8395|v=4,Kamal Healthcare Products Private Limited,https://www.avmsuperdry.in/?pos=4&kwd=disposable diaper&tags=A||||8703.834|Price|product|||TS|rsf:gd-|-qr_nm:gd|res:RC4|com-cf:nl|ptrs:na|ktp:N0|mc:26680|mtp:S|qry_typ:P|lang:en|wc:2|flavl:0-1|cs:8395|v=4,False,Ezhil Nagar,Thoothukudi,"2nd Floor, No. 180, North Cotton Road, Ezhil Nagar, Thoothukudi - 628001, Dist.Tuticorin, Tamil Nadu",8048605186,
"Protective Underwear Non Woven Disposable Adult Diaper, Size: Xl",https://www.indiamart.com/proddetail/disposable-adult-diaper-2852110900091.html?pos=5&kwd=disposable diaper&tags=A||||8954.051|Price|product|||TS|rsf:gd-|-qr_nm:gd|res:RC4|com-cf:nl|ptrs:na|ktp:N0|mc:26680|mtp:S|qry_typ:P|lang:en|wc:2|flavl:0-1|cs:8395|v=4,Shriv Medicare Private Limited,https://www.shrivmedicare.com/?pos=5&kwd=disposable diaper&tags=A||||8954.051|Price|product|||TS|rsf:gd-|-qr_nm:gd|res:RC4|com-cf:nl|ptrs:na|ktp:N0|mc:26680|mtp:S|qry_typ:P|lang:en|wc:2|flavl:0-1|cs:8395|v=4,False,Noombal,Chennai,"Plot No.2, Survey No. 15/2B, Vada Noombal Road, Perumalagaram, Tiruverkadu, Noombal, Chennai - 600077, Dist.Chennai, Tamil Nadu",8043830699,
"Disposable Baby Diapers, Age Group: 1to2 Years, Size: Large",https://www.indiamart.com/proddetail/disposable-baby-diapers-2854570905673.html?pos=6&kwd=disposable diaper&tags=A||||8830.388|Price|product|||TS|rsf:gd-|-qr_nm:gd|res:RC4|com-cf:nl|ptrs:na|ktp:N0|mc:26680|mtp:S|qry_typ:P|lang:en|wc:2|flavl:0-1|cs:8395|v=4,Easeplus Healthcare Private Limited,https://www.ezoyplus.in/?pos=6&kwd=disposable diaper&tags=A||||8830.388|Price|product|||TS|rsf:gd-|-qr_nm:gd|res:RC4|com-cf:nl|ptrs:na|ktp:N0|mc:26680|mtp:S|qry_typ:P|lang:en|wc:2|flavl:0-1|cs:8395|v=4,False,DD Nagar,Gwalior,"T 1298 K-61,Vrikampur Chouraha,Satabdipuram D D Nagar,Gwalior, DD Nagar, Gwalior - 474005, Dist.Gwalior, Madhya Pradesh",8048265864,
"Disposable Baby Diapers, Age Group: 1-2 Years, Size: Medium",https://www.indiamart.com/proddetail/disposable-baby-diapers-2852538473397.html?pos=7&kwd=disposable diaper&tags=A||||8211.142|Price|product|||TS|rsf:gd-|-qr_nm:gd|res:RC4|com-cf:nl|ptrs:na|ktp:N0|mc:26680|mtp:S|qry_typ:P|lang:en|wc:2|flavl:0-1|cs:8395|v=4,PAC Healthcare & Surgicals,https://www.healthcaredealer.in/?pos=7&kwd=disposable diaper&tags=A||||8211.142|Price|product|||TS|rsf:gd-|-qr_nm:gd|res:RC4|com-cf:nl|ptrs:na|ktp:N0|mc:26680|mtp:S|qry_typ:P|lang:en|wc:2|flavl:0-1|cs:8395|v=4,False,Borivali West,Mumbai,"5, Bill Berry Apartment, I. C. Colony, Borivali West, Mumbai - 400103, Dist.Mumbai, Maharashtra",8048960800,
"XXL Disposable Baby Diaper, Age Group: 1-2 Years",https://www.indiamart.com/proddetail/xxl-disposable-baby-diaper-2851359747933.html?pos=8&kwd=disposable diaper&tags=A||||8211.142|Price|product|||TS|rsf:gd-|-qr_nm:gd|res:RC4|com-cf:nl|ptrs:na|ktp:N0|mc:26680|mtp:S|qry_typ:P|lang:en|wc:2|flavl:0-1|cs:8395|v=4,Aglodia Corporation,https://www.aglodiacorp.com/?pos=8&kwd=disposable diaper&tags=A||||8211.142|Price|product|||TS|rsf:gd-|-qr_nm:gd|res:RC4|com-cf:nl|ptrs:na|ktp:N0|mc:26680|mtp:S|qry_typ:P|lang:en|wc:2|flavl:0-1|cs:8395|v=4,False,Goregaon West,Mumbai,"315/2512 motilal nagar 2 MG road Goregaon west, Goregaon West, Mumbai - 400064, Dist.Mumbai, Maharashtra",7942842515,
"Pant & Pull Up Pull Ups Disposable Adult Diaper in Delhi, Size: M-l-xl",https://www.indiamart.com/proddetail/disposable-adult-diaper-in-delhi-2850469866991.html?pos=9&kwd=disposable diaper&tags=A||||8752.144|Price|product|||TS|rsf:gd-|-qr_nm:gd|res:RC4|com-cf:nl|ptrs:na|ktp:N0|mc:26680|mtp:S|qry_typ:P|lang:en|wc:2|flavl:0-1|cs:8395|v=4,Recherche World,https://www.rechercheworld.co.in/?pos=9&kwd=disposable diaper&tags=A||||8752.144|Price|product|||TS|rsf:gd-|-qr_nm:gd|res:RC4|com-cf:nl|ptrs:na|ktp:N0|mc:26680|mtp:S|qry_typ:P|lang:en|wc:2|flavl:0-1|cs:8395|v=4,False,Pandav Nagar,New Delhi,"Near Gurudwara, Ground Floor, A-13-14, Gali No.01, Pandav Nagar, East Delhi, Pandav Nagar, New Delhi - 110092, Dist.Delhi, Delhi",8047312171,
DISPOSABLE ADULT DIAPER STICKY TYPES.,https://www.indiamart.com/proddetail/disposable-adult-diaper-sticky-types-24385224897.html?pos=10&kwd=disposable diaper&tags=A||||8503.868|Price|product|||TS|rsf:gd-|-qr_nm:gd|res:RC4|com-cf:nl|ptrs:na|ktp:N0|mc:26680|mtp:S|qry_typ:P|lang:en|wc:2|flavl:0-1|cs:8395|v=4,Fasten Medical Private Limited,https://www.indiamart.com/fasten-medical/?pos=10&kwd=disposable diaper&tags=A||||8503.868|Price|product|||TS|rsf:gd-|-qr_nm:gd|res:RC4|com-cf:nl|ptrs:na|ktp:N0|mc:26680|mtp:S|qry_typ:P|lang:en|wc:2|flavl:0-1|cs:8395|v=4,False,Karukutty,Kochi,"2/290a,ground Floor, Fasten Medical Pvt Ltd, Aseezi Nagar Road, Mambra, Karukutty, ,, Karukutty, Kochi - 683576, Dist.Ernakulam, Kerala",8048617782,
"Small Disposable Baby Diapers, Age Group: Newly Born",https://www.indiamart.com/proddetail/small-disposable-baby-diapers-2853596817162.html?pos=11&kwd=disposable diaper&tags=A||||8767.009|Price|product|||TS|rsf:gd-|-qr_nm:gd|res:RC4|com-cf:nl|ptrs:na|ktp:N0|mc:26680|mtp:S|qry_typ:P|lang:en|wc:2|flavl:0-1|cs:8395|v=4,Dakshu Enterprise,https://www.indiamart.com/dakshu-enterprise/?pos=11&kwd=disposable diaper&tags=A||||8767.009|Price|product|||TS|rsf:gd-|-qr_nm:gd|res:RC4|com-cf:nl|ptrs:na|ktp:N0|mc:26680|mtp:S|qry_typ:P|lang:en|wc:2|flavl:0-1|cs:8395|v=4,False,,Baghpat,"0,,Delhi Saharanpur road,Baghpat, Baghpat - 250609, Dist.Bagpat, Uttar Pradesh",7949339950,
Above 20 Protective Underwear Disposable Adult Diaper,https://www.indiamart.com/proddetail/disposable-adult-diaper-2852998768091.html?pos=12&kwd=disposable diaper&tags=A||||8786.56|Price|product|||TS|rsf:gd-|-qr_nm:gd|res:RC4|com-cf:nl|ptrs:na|ktp:N0|mc:26680|mtp:S|qry_typ:P|lang:en|wc:2|flavl:0-1|cs:8395|v=4,Medvian Health Care,https://www.medvianhealthcare.in/?pos=12&kwd=disposable diaper&tags=A||||8786.56|Price|product|||TS|rsf:gd-|-qr_nm:gd|res:RC4|com-cf:nl|ptrs:na|ktp:N0|mc:26680|mtp:S|qry_typ:P|lang:en|wc:2|flavl:0-1|cs:8395|v=4,False,Dammaiguda,Hyderabad,"# 7-51, Anushakthi Nagar Dammaiguda Road, Nagaram, Near Dubai Building, Dammaiguda, Hyderabad - 500083, Dist.Hyderabad, Telangana",8047639534,
Absorbia Adult Diaper Size Large,https://www.indiamart.com/proddetail/absorbia-adult-diaper-size-large-2853772632162.html?pos=13&kwd=disposable diaper&tags=A||||8663.873|Price|product|||TS|rsf:gd-|-qr_nm:gd|res:RC4|com-cf:nl|ptrs:na|ktp:N0|mc:26680|mtp:S|qry_typ:P|lang:en|wc:2|flavl:0-1|cs:8395|v=4,Canadian Global Life And Educare Private Limited,https://www.healthheal.co.in/?pos=13&kwd=disposable diaper&tags=A||||8663.873|Price|product|||TS|rsf:gd-|-qr_nm:gd|res:RC4|com-cf:nl|ptrs:na|ktp:N0|mc:26680|mtp:S|qry_typ:P|lang:en|wc:2|flavl:0-1|cs:8395|v=4,False,Vijayanagar,Bengaluru,"No. 2260, 4th A Cross, 1st Main Road, Vijayanagar, Bengaluru - 560040, Dist.Bengaluru, Karnataka",8048608947,
"Pull Ups Lifree Adult Diapers, Size: M,L And Xl",https://www.indiamart.com/proddetail/lifree-adult-diapers-2852598922762.html?pos=14&kwd=disposable diaper&tags=A||||8954.051|Price|product|||TS|rsf:gd-|-qr_nm:gd|res:RC4|com-cf:nl|ptrs:na|ktp:N0|mc:26680|mtp:S|qry_typ:P|lang:en|wc:2|flavl:0-1|cs:8395|v=4,Chris Merchant Private Limited,https://www.chrismerchant.co.in/?pos=14&kwd=disposable diaper&tags=A||||8954.051|Price|product|||TS|rsf:gd-|-qr_nm:gd|res:RC4|com-cf:nl|ptrs:na|ktp:N0|mc:26680|mtp:S|qry_typ:P|lang:en|wc:2|flavl:0-1|cs:8395|v=4,False,Koyambedu,Chennai,"No. 5, Poonamalee High Road, Koyambedu, Chennai - 600107, Dist.Chennai, Tamil Nadu",8048956521,
"Nonwoven Disposable Newborn Baby Diaper, Age Group: Newly Born, Packaging Size: 24",https://www.indiamart.com/proddetail/baby-diaper-newborn-22990172433.html?pos=15&kwd=disposable diaper&tags=A||||9870.655|Price|product|||TS|rsf:gd-|-qr_nm:gd|res:RC4|com-cf:nl|ptrs:na|ktp:N0|mc:26680|mtp:S|qry_typ:P|lang:en|wc:2|cs:7538|v=4,Bengal Feminine Care,https://www.indiamart.com/bengal-feminine-care/?pos=15&kwd=disposable diaper&tags=A||||9870.655|Price|product|||TS|rsf:gd-|-qr_nm:gd|res:RC4|com-cf:nl|ptrs:na|ktp:N0|mc:26680|mtp:S|qry_typ:P|lang:en|wc:2|cs:7538|v=4,False,Barasat,Habra,"Habra, No. 2 ,Railway Gate, District North 24 Parganas, Barasat, Habra - 743263, Dist.North 24 Parganas, West Bengal",8046062955,
Adult Pull Up Diapers Extra Large-10pc Adult Choice,https://www.indiamart.com/proddetail/adult-pull-up-diapers-extra-large-10pc-adult-choice-2852722700012.html?pos=16&kwd=disposable diaper&tags=A||||8211.142|Price|product|||TS|rsf:gd-|-qr_nm:gd|res:RC4|com-cf:nl|ptrs:na|ktp:N0|mc:26680|mtp:S|qry_typ:P|lang:en|wc:2|cs:7538|v=4,Maxtech,https://www.maxtechhealth.in/?pos=16&kwd=disposable diaper&tags=A||||8211.142|Price|product|||TS|rsf:gd-|-qr_nm:gd|res:RC4|com-cf:nl|ptrs:na|ktp:N0|mc:26680|mtp:S|qry_typ:P|lang:en|wc:2|cs:7538|v=4,False,Rani Sati Marg,Mumbai,"Shop No. 10, Pragati Shopping Centre Manchu Bhai Road, Rani Sati Marg, Mumbai - 400097, Dist.Mumbai, Maharashtra",8048970842,
"Adult Diaper Unisex, Size: Medium",https://www.indiamart.com/proddetail/adult-diaper-unisex-2852811851773.html?pos=17&kwd=disposable diaper&tags=A||||8228.275|Price|product|||TS|rsf:gd-|-qr_nm:gd|res:RC4|com-cf:nl|ptrs:na|ktp:N0|mc:26680|mtp:S|qry_typ:P|lang:en|wc:2|cs:7538|v=4,Om Enterprises,https://www.indiamart.com/omenterprisesgujrat/?pos=17&kwd=disposable diaper&tags=A||||8228.275|Price|product|||TS|rsf:gd-|-qr_nm:gd|res:RC4|com-cf:nl|ptrs:na|ktp:N0|mc:26680|mtp:S|qry_typ:P|lang:en|wc:2|cs:7538|v=4,False,Maninagar,Ahmedabad,"Ground Floor, Shop No-1 ,Mani Nagar Road ,Rudra Appartment Maniyasa Society,Mani Nagar East, Maninagar, Ahmedabad - 380008, Dist.Ahmedabad, Gujarat",7942715310,
"Disposable Baby Diapers Pack 50, Size: Small",https://www.indiamart.com/proddetail/disposable-baby-diapers-pack-50-2854636197948.html?pos=18&kwd=disposable diaper&tags=A||||8211.142|Price|product|||TS|rsf:gd-|-qr_nm:gd|res:RC4|com-cf:nl|ptrs:na|ktp:N0|mc:26680|mtp:S|qry_typ:P|lang:en|wc:2|cs:7538|v=4,I Touch Surgical,https://www.itouchsurgical.co.in/?pos=18&kwd=disposable diaper&tags=A||||8211.142|Price|product|||TS|rsf:gd-|-qr_nm:gd|res:RC4|com-cf:nl|ptrs:na|ktp:N0|mc:26680|mtp:S|qry_typ:P|lang:en|wc:2|cs:7538|v=4,False,Goregaon,Mumbai,"4, Ekta Suprabhat, Siddharth Nagar, Goregaon West, Goregaon, Mumbai - 400104, Dist.Mumbai, Maharashtra",8048962190,
30 To 80 Protective Underwear Disposable Adult Diaper Medium,https://www.indiamart.com/proddetail/disposable-adult-diaper-medium-13646864097.html?pos=19&kwd=disposable diaper&tags=A||||8503.868|Price|product|||TS|rsf:gd-|-qr_nm:gd|res:RC4|com-cf:nl|ptrs:na|ktp:N0|mc:26680|mtp:S|qry_typ:P|lang:en|wc:2|cs:7538|v=4,Coble Impex Private Limited,https://www.indiamart.com/cobleimpex/?pos=19&kwd=disposable diaper&tags=A||||8503.868|Price|product|||TS|rsf:gd-|-qr_nm:gd|res:RC4|com-cf:nl|ptrs:na|ktp:N0|mc:26680|mtp:S|qry_typ:P|lang:en|wc:2|cs:7538|v=4,False,Kakkanad,Kochi,"No. 12/760 B, Manimala Estate, Padamugal Kakkanad, West Post Office, Kakkanad, Kochi - 682030, Dist.Ernakulam, Kerala",8048605079,
Dr. Rx Pant Style Cotton Adult Diapers,https://www.indiamart.com/proddetail/cotton-adult-diapers-27476520548.html?pos=20&kwd=disposable diaper&tags=A||||8786.56|Price|product|||TS|rsf:gd-|-qr_nm:gd|res:RC4|com-cf:nl|ptrs:na|ktp:N0|mc:26680|mtp:S|qry_typ:P|lang:en|wc:2|cs:7538|v=4,Prakar Enterprises,https://www.prakarenterprises.com/?pos=20&kwd=disposable diaper&tags=A||||8786.56|Price|product|||TS|rsf:gd-|-qr_nm:gd|res:RC4|com-cf:nl|ptrs:na|ktp:N0|mc:26680|mtp:S|qry_typ:P|lang:en|wc:2|cs:7538|v=4,False,Kothapet,Hyderabad,"13-1-2, Road no.1, Prabhath Nagar, Chaitanyapuri, Kothapet, Hyderabad - 500060, Dist.Hyderabad, Telangana",7942552841,
Soft N Care XL Adult Diaper,https://www.indiamart.com/proddetail/soft-n-care-xl-adult-diaper-22466664588.html?pos=21&kwd=disposable diaper&tags=A||||8281.036|Price|product|||TS|rsf:gd-|-qr_nm:gd|res:RC4|com-cf:nl|ptrs:na|ktp:N0|mc:26680|mtp:S|qry_typ:P|lang:en|wc:2|cs:7538|v=4,Novelty Hosiery,https://www.indiamart.com/novelty-hosiery/?pos=21&kwd=disposable diaper&tags=A||||8281.036|Price|product|||TS|rsf:gd-|-qr_nm:gd|res:RC4|com-cf:nl|ptrs:na|ktp:N0|mc:26680|mtp:S|qry_typ:P|lang:en|wc:2|cs:7538|v=4,False,Chokshi Bazar,Vadodara,"M G Road 00 Laheripura Gate Nr Angadiya Gali, Chokshi Bazar, Vadodara - 390001, Dist.Vadodara, Gujarat",7942565948,
Pant Type Disposable Baby Diaper M Size,https://www.indiamart.com/proddetail/baby-diaper-m-size-2851735277462.html?pos=22&kwd=disposable diaper&tags=A||||8230.883|Price|product|||TS|rsf:gd-|-qr_nm:gd|res:RC4|com-cf:nl|ptrs:na|ktp:N0|mc:26680|mtp:S|qry_typ:P|lang:en|wc:2|cs:7538|v=4,VR Hygiene Care,https://www.indiamart.com/vrhygienecare/?pos=22&kwd=disposable diaper&tags=A||||8230.883|Price|product|||TS|rsf:gd-|-qr_nm:gd|res:RC4|com-cf:nl|ptrs:na|ktp:N0|mc:26680|mtp:S|qry_typ:P|lang:en|wc:2|cs:7538|v=4,False,Saniya Hemad,Surat,"A-12, Subham Ind.-1, Saniya Hemad, Saniya Hemad, Surat - 395006, Dist.Surat, Gujarat",8048969848,
New Born Baby Diapers,https://www.indiamart.com/proddetail/new-born-baby-diapers-2854228376012.html?pos=23&kwd=disposable diaper&tags=A||||8747.223|Price|product|||TS|rsf:gd-|-qr_nm:gd|res:RC4|com-cf:nl|ptrs:na|ktp:N0|mc:26680|mtp:S|qry_typ:P|lang:en|wc:2|cs:7538|v=4,Pioneer Hygiene Industries LLP,https://www.pioneerhygiene.co.in/?pos=23&kwd=disposable diaper&tags=A||||8747.223|Price|product|||TS|rsf:gd-|-qr_nm:gd|res:RC4|com-cf:nl|ptrs:na|ktp:N0|mc:26680|mtp:S|qry_typ:P|lang:en|wc:2|cs:7538|v=4,True,,Sonipat,"Kila No. 95//1/1, 12/13, 19 And 22/1/1, Akbarpur Barota, Sonipat - 131103, Dist.Sonipat, Haryana",8045731181,
"Disposable Absorbia Pull Up Or Pant Type Diaper, Age Group: Adult",https://www.indiamart.com/proddetail/absorbia-pull-up-or-pant-type-diaper-22254996697.html?pos=24&kwd=disposable diaper&tags=A||||8663.873|Price|product|||TS|rsf:gd-|-qr_nm:gd|res:RC4|com-cf:nl|ptrs:na|ktp:N0|mc:26680|mtp:S|qry_typ:P|lang:en|wc:2|cs:7538|v=4,Saamipya Home Health Private Limited,https://www.indiamart.com/saamipyahomehealth/?pos=24&kwd=disposable diaper&tags=A||||8663.873|Price|product|||TS|rsf:gd-|-qr_nm:gd|res:RC4|com-cf:nl|ptrs:na|ktp:N0|mc:26680|mtp:S|qry_typ:P|lang:en|wc:2|cs:7538|v=4,False,Hosakerehalli,Bengaluru,"644, 1st Cross Road,1st Phase, Girinagar, Hosakerehalli Layout, Banashankari 3rd Stage,Ward No 161, Hosakerehalli, Bengaluru - 560085, Dist.Bengaluru, Karnataka",8048615170,
Sticking Disposable Adult Diaper Windel Large 10pc,https://www.indiamart.com/proddetail/disposable-adult-diaper-windel-large-10pc-2851615201362.html?pos=25&kwd=disposable diaper&tags=A||||8211.142|Price|product|||TS|rsf:gd-|-qr_nm:gd|res:RC4|com-cf:nl|ptrs:na|ktp:N0|mc:26680|mtp:S|qry_typ:P|lang:en|wc:2|cs:7538|v=4,Maxtech Healthcare Private Limited,https://www.indiamart.com/maxtech-healthcare/?pos=25&kwd=disposable diaper&tags=A||||8211.142|Price|product|||TS|rsf:gd-|-qr_nm:gd|res:RC4|com-cf:nl|ptrs:na|ktp:N0|mc:26680|mtp:S|qry_typ:P|lang:en|wc:2|cs:7538|v=4,False,Kandivali West,Mumbai,"Shop No. 10, Near Railway Station, Malad East, Pragati Shopping Center, Kandivali West, Mumbai - 400097, Dist.Mumbai, Maharashtra",8046077581,
"Belt Adult Incontinence Diaper, Seni Optima Super Medium A10, Size: 70 * 105",https://www.indiamart.com/proddetail/adult-incontinence-diaper-seni-optima-super-medium-a10-2851100781588.html?pos=26&kwd=disposable diaper&tags=A||||8663.873|Price|product|||TS|rsf:gd-|-qr_nm:gd|res:RC4|com-cf:nl|ptrs:na|ktp:N0|mc:26680|mtp:S|qry_typ:P|lang:en|wc:2|cs:7538|v=4,TZMO India South Private Limited,https://www.indiamart.com/tzmoindiasouth/?pos=26&kwd=disposable diaper&tags=A||||8663.873|Price|product|||TS|rsf:gd-|-qr_nm:gd|res:RC4|com-cf:nl|ptrs:na|ktp:N0|mc:26680|mtp:S|qry_typ:P|lang:en|wc:2|cs:7538|v=4,False,New Timber Yard Layout,Bengaluru,"No.2, 1st Floor, Featherlite Building, Mysore Road, New Timber Yard Layout, New Timber Yard Layout, Bengaluru - 560026, Dist.Bengaluru, Karnataka",8048619127,
"Disposable Baby Diapers, Age Group: 3to12 Months, Size: Small",https://www.indiamart.com/proddetail/disposable-baby-diapers-2854151446312.html?pos=27&kwd=disposable diaper&tags=A||||8228.275|Price|product|||TS|rsf:gd-|-qr_nm:gd|res:RC4|com-cf:nl|ptrs:na|ktp:N0|mc:26680|mtp:S|qry_typ:P|lang:en|wc:2|cs:7538|v=4,Shagun Enterprise,https://www.indiamart.com/shagun-enterpriseahmedabad/?pos=27&kwd=disposable diaper&tags=A||||8228.275|Price|product|||TS|rsf:gd-|-qr_nm:gd|res:RC4|com-cf:nl|ptrs:na|ktp:N0|mc:26680|mtp:S|qry_typ:P|lang:en|wc:2|cs:7538|v=4,False,Saraspur,Ahmedabad,"4th Floor Block G, 415, City Center, NR Idgha Gate, NR Girdharnagar Bridge, Asarwa,, Saraspur, Ahmedabad - 380016, Dist.Ahmedabad, Gujarat",7949226972,
"Cotton Disposable Baby Diaper Loose, Small",https://www.indiamart.com/proddetail/disposable-baby-diaper-loose-2853461376133.html?pos=28&kwd=disposable diaper&tags=A||||8230.883|Price|product|||TS|rsf:gd-|-qr_nm:gd|res:RC4|com-cf:nl|ptrs:na|ktp:N0|mc:26680|mtp:S|qry_typ:P|lang:en|wc:2|cs:7538|v=4,Shanti Medicare,https://www.indiamart.com/shanti-medicare/?pos=28&kwd=disposable diaper&tags=A||||8230.883|Price|product|||TS|rsf:gd-|-qr_nm:gd|res:RC4|com-cf:nl|ptrs:na|ktp:N0|mc:26680|mtp:S|qry_typ:P|lang:en|wc:2|cs:7538|v=4,False,126 shardha row row house,Surat,"S 20, Swastik Plaza, Yogi Chowk,, 126 shardha row row house, Surat - 395010, Dist.Surat, Gujarat",7942835980,
"Adult Diapers, Size: Large,38-60 Inch",https://www.indiamart.com/proddetail/adult-diapers-20875824055.html?pos=29&kwd=disposable diaper&tags=A||||8954.051|Price|product|||TS|rsf:gd-|-qr_nm:gd|res:RC4|com-cf:nl|ptrs:na|ktp:N0|mc:26680|mtp:S|qry_typ:P|lang:en|wc:2|cs:7538|v=4,Delite Surgicals,https://www.indiamart.com/delite-surgicals-chennai/?pos=29&kwd=disposable diaper&tags=A||||8954.051|Price|product|||TS|rsf:gd-|-qr_nm:gd|res:RC4|com-cf:nl|ptrs:na|ktp:N0|mc:26680|mtp:S|qry_typ:P|lang:en|wc:2|cs:7538|v=4,False,Park Town,Chennai,"107, Nyniappanaicken Street, Park Town, Park Town, Chennai - 600003, Dist.Chennai, Tamil Nadu",7942565474,
"Briefs Uni Pro Disposable Adult Diaper, Size: Large",https://www.indiamart.com/proddetail/uni-pro-disposable-adult-diaper-27359003330.html?pos=30&kwd=disposable diaper&tags=A||||8954.051|Price|product|||TS|rsf:gd-|-qr_nm:gd|res:RC4|com-cf:nl|ptrs:na|ktp:N0|mc:26680|mtp:S|qry_typ:P|lang:en|wc:2|cs:7538|v=4,Gayathri Medicare,https://www.indiamart.com/gayathri-medicarechennai/?pos=30&kwd=disposable diaper&tags=A||||8954.051|Price|product|||TS|rsf:gd-|-qr_nm:gd|res:RC4|com-cf:nl|ptrs:na|ktp:N0|mc:26680|mtp:S|qry_typ:P|lang:en|wc:2|cs:7538|v=4,False,West Mambalam.. 12 sai tower.station road.,Chennai,"No 48,Basement Floor, B-5,Navins Aishwarya Apartment,Brindavan Street,Chennai, West Mambalam.. 12 sai tower.station road., Chennai - 600033, Dist.Chennai, Tamil Nadu",8047552428,
Pant Style Pull Ups Disposable Adult Diaper,https://www.indiamart.com/proddetail/disposable-adult-diaper-2851724874088.html?pos=31&kwd=disposable diaper&tags=A||||8778.123|Price|product|||TS|rsf:gd-|-qr_nm:gd|res:RC4|com-cf:nl|ptrs:na|ktp:N0|mc:26680|mtp:S|qry_typ:P|lang:en|wc:2|cs:7538|v=4,Pleasure Paradise,https://www.wonderfeel.in/?pos=31&kwd=disposable diaper&tags=A||||8778.123|Price|product|||TS|rsf:gd-|-qr_nm:gd|res:RC4|com-cf:nl|ptrs:na|ktp:N0|mc:26680|mtp:S|qry_typ:P|lang:en|wc:2|cs:7538|v=4,False,Sector 137,Noida,"11, T12 1105, Paras Tierea, Sector 137, Sector 137, Noida - 201301, Dist.Gautam Budh Nagar, Uttar Pradesh",8048612980,
"Cotton Disposable Adult Diaper, Size: Large",https://www.indiamart.com/proddetail/disposable-adult-diaper-8314283173.html?pos=32&kwd=disposable diaper&tags=A||||8624.416|Price|product|||MDC|rsf:gd-|-qr_nm:gd|res:RC4|com-cf:nl|ptrs:na|ktp:N0|mc:26680|mtp:S|qry_typ:P|lang:en|wc:2|cs:7538|v=4,Supertech Surgical Company,https://www.indiamart.com/supertech-surgical-company/?pos=32&kwd=disposable diaper&tags=A||||8624.416|Price|product|||MDC|rsf:gd-|-qr_nm:gd|res:RC4|com-cf:nl|ptrs:na|ktp:N0|mc:26680|mtp:S|qry_typ:P|lang:en|wc:2|cs:7538|v=4,False,Shiv Nagar,Hisar,"Shop No. 1, Millgate Area, Shiv Nagar, Shiv Nagar, Hisar - 125001, Dist.Hisar, Haryana",8047642534,
"Disposable Baby Diapers, Size: Medium",https://www.indiamart.com/proddetail/disposable-baby-diapers-2852401775762.html?pos=33&kwd=disposable diaper&tags=A||||8830.079|Price|product|||MDC|rsf:gd-|-qr_nm:gd|res:RC4|com-cf:nl|ptrs:na|ktp:N0|mc:26680|mtp:S|qry_typ:P|lang:en|wc:2|cs:7538|v=4,Thara Traders Propx. Thara Senthilkumar,https://www.indiamart.com/thara-traders/?pos=33&kwd=disposable diaper&tags=A||||8830.079|Price|product|||MDC|rsf:gd-|-qr_nm:gd|res:RC4|com-cf:nl|ptrs:na|ktp:N0|mc:26680|mtp:S|qry_typ:P|lang:en|wc:2|cs:7538|v=4,False,Sathuvachari,Vellore,"546/2 Nethajibose Main Road, Tnhb, Phase 3, Vallalar A.r.complex,1st Floor, Nethaji Bose Main Road, Sathuvachari, Vellore - 632009, Dist.Vellore, Tamil Nadu",8048605071,
Briefs Disposable Adult Diaper,https://www.indiamart.com/proddetail/disposable-adult-diaper-2852001148291.html?pos=34&kwd=disposable diaper&tags=A||||8237.554|Price|product|||MDC|rsf:gd-|-qr_nm:gd|res:RC4|com-cf:nl|ptrs:na|ktp:N0|mc:26680|mtp:S|qry_typ:P|lang:en|wc:2|cs:7538|v=4,Stoe Life Private Limited,https://www.indiamart.com/stoelife-gujarat/?pos=34&kwd=disposable diaper&tags=A||||8237.554|Price|product|||MDC|rsf:gd-|-qr_nm:gd|res:RC4|com-cf:nl|ptrs:na|ktp:N0|mc:26680|mtp:S|qry_typ:P|lang:en|wc:2|cs:7538|v=4,False,Sector 6,Gandhinagar,"Unit C/5,Gujarat Garment Co-operative Industrial Estate, Airport Road,Koba, Sector 6, Gandhinagar - 382006, Gujarat",8048979339,
Wellstep adult diaper pants xxl-10pcs,https://www.indiamart.com/proddetail/wellstep-adult-diaper-pants-xxl-10pcs-2854982970397.html?pos=35&kwd=disposable diaper&tags=A||||8230.883|Price|product|||MDC|rsf:gd-|-qr_nm:gd|res:RC4|com-cf:nl|ptrs:na|ktp:N0|mc:26680|mtp:S|qry_typ:P|lang:en|wc:2|cs:7538|v=4,V R Barot,https://www.indiamart.com/v-r-barot/?pos=35&kwd=disposable diaper&tags=A||||8230.883|Price|product|||MDC|rsf:gd-|-qr_nm:gd|res:RC4|com-cf:nl|ptrs:na|ktp:N0|mc:26680|mtp:S|qry_typ:P|lang:en|wc:2|cs:7538|v=4,False,Bhagvati Nagar Housing Society,Surat,"B-19, Bhagavati Nagar Soc, Jahangirpura, Bhagvati Nagar Housing Society, Surat - 395005, Dist.Surat, Gujarat",7942968850,
"Absorbia L Adult Diaper, Large",https://www.indiamart.com/proddetail/absorbia-l-adult-diaper-2854410499591.html?pos=36&kwd=disposable diaper&tags=A||||8556.61|Price|product|||MDC|rsf:gd-|-qr_nm:gd|res:RC4|com-cf:nl|ptrs:na|ktp:N0|mc:26680|mtp:S|qry_typ:P|lang:en|wc:2|cs:7538|v=4,Arbatt Enterprises,https://www.indiamart.com/arbatt-enterprises/?pos=36&kwd=disposable diaper&tags=A||||8556.61|Price|product|||MDC|rsf:gd-|-qr_nm:gd|res:RC4|com-cf:nl|ptrs:na|ktp:N0|mc:26680|mtp:S|qry_typ:P|lang:en|wc:2|cs:7538|v=4,False,,Mysuru,"119/1, Devayyana Hundi Road, Srirampra 2nd Stage, Mysuru - 570008, Dist.Mysuru, Karnataka",8044458992,
"Dreamease Adult Pant L Size Disposable Diaper, Large",https://www.indiamart.com/proddetail/dreamease-adult-pant-l-size-disposable-diaper-2854250756391.html?pos=37&kwd=disposable diaper&tags=A||||8751.045|Price|product|||MDC|rsf:gd-|-qr_nm:gd|res:RC4|com-cf:nl|ptrs:na|ktp:N0|mc:26680|mtp:S|qry_typ:P|lang:en|wc:2|cs:7538|v=4,Aurum Medicare Private Limited,https://www.indiamart.com/aurum-medicare/?pos=37&kwd=disposable diaper&tags=A||||8751.045|Price|product|||MDC|rsf:gd-|-qr_nm:gd|res:RC4|com-cf:nl|ptrs:na|ktp:N0|mc:26680|mtp:S|qry_typ:P|lang:en|wc:2|cs:7538|v=4,False,,Baddi,"Himuda, 86 Phase-4, Plot No 86, Industrial Area Baddi, Himuda Industrial Area,, Baddi - 173205, Dist.Solan, Himachal Pradesh",8045737950,
"Disposable Tape Style Baby Diaper, Packaging Size: In Loose",https://www.indiamart.com/proddetail/tape-style-baby-diaper-23242315591.html?pos=38&kwd=disposable diaper&tags=A||||9839.57|Price|product|||TS|rsf:gd-|-qr_nm:gd|res:RC4|com-cf:nl|ptrs:na|ktp:N0|mc:26680|mtp:S|qry_typ:P|lang:en|wc:2|cs:7538|v=4,Solace Group Of Companies,https://www.indiamart.com/solace-group-of-companies/?pos=38&kwd=disposable diaper&tags=A||||9839.57|Price|product|||TS|rsf:gd-|-qr_nm:gd|res:RC4|com-cf:nl|ptrs:na|ktp:N0|mc:26680|mtp:S|qry_typ:P|lang:en|wc:2|cs:7538|v=4,False,Kulia,Kolkata,"95/D-2, Basundhara, Chingrighata, 3rd Floor Canal South Road, Kulia, Kolkata - 700105, Dist.Kolkata, West Bengal",8046057508,
"Disposable Baby Diapers, Size: Small",https://www.indiamart.com/proddetail/disposable-baby-diapers-26416566612.html?pos=39&kwd=disposable diaper&tags=A||||8954.051|Price|product|||TS|rsf:gd-|-qr_nm:gd|res:RC4|com-cf:nl|ptrs:na|ktp:N0|mc:26680|mtp:S|qry_typ:P|lang:en|wc:2|cs:7538|v=4,Immanlyn Old Age Traders,https://www.immanlyn.in/?pos=39&kwd=disposable diaper&tags=A||||8954.051|Price|product|||TS|rsf:gd-|-qr_nm:gd|res:RC4|com-cf:nl|ptrs:na|ktp:N0|mc:26680|mtp:S|qry_typ:P|lang:en|wc:2|cs:7538|v=4,False,T Nagar,Chennai,"Old No 6 New No 15, Saravana Street, T Nagar, T Nagar, Chennai - 600017, Dist.Chennai, Tamil Nadu",8046053387,
"Opt Care Adult Diapers, Medium",https://www.indiamart.com/proddetail/opt-care-adult-diapers-2851827367391.html?pos=40&kwd=disposable diaper&tags=A||||8859.558|Price|product|||MDC|rsf:gd-|-qr_nm:gd|res:RC4|com-cf:nl|ptrs:na|ktp:N0|mc:26680|mtp:S|qry_typ:P|lang:en|wc:2|cs:7538|v=4,Siva Lavanya Traders,https://www.indiamart.com/siva-lavanyatraders-andhrapradesh/?pos=40&kwd=disposable diaper&tags=A||||8859.558|Price|product|||MDC|rsf:gd-|-qr_nm:gd|res:RC4|com-cf:nl|ptrs:na|ktp:N0|mc:26680|mtp:S|qry_typ:P|lang:en|wc:2|cs:7538|v=4,False,venkateswara temple,Markapur,"3-189, Cumbum Road, Near Government Hospital, Vemula Kota,, venkateswara temple, Markapur - 523329, Dist.Prakasam, Andhra Pradesh",7949325093,
Non-woven 35 Over Disposable Adult Pull Up Diaper,https://www.indiamart.com/proddetail/disposable-adult-pull-up-diaper-18110329073.html?pos=41&kwd=disposable diaper&tags=BA||||8752.144|Price|product|||LSlc|rsf:gd-|-qr_nm:gd|res:RC4|com-cf:nl|ptrs:na|ktp:N0|mc:26680|mtp:S|qry_typ:P|lang:en|wc:2|cs:7538|v=4,Dispowear Sterite Company,https://www.dispowear.co.in/?pos=41&kwd=disposable diaper&tags=BA||||8752.144|Price|product|||LSlc|rsf:gd-|-qr_nm:gd|res:RC4|com-cf:nl|ptrs:na|ktp:N0|mc:26680|mtp:S|qry_typ:P|lang:en|wc:2|cs:7538|v=4,False,Janakpuri,New Delhi,"Pocket D-2 A, Flat No. 51 C, Janakpuri, Janakpuri, New Delhi - 110058, Dist.Delhi, Delhi",8048970362,
"Pull Ups Unisex Large Friends Disposable Adult Diapers, 10 Pieces, Packaging Type: Packet",https://www.indiamart.com/proddetail/large-friends-disposable-adult-diapers-21913593612.html?pos=42&kwd=disposable diaper&tags=A||||8954.051|Price|product|||TS|rsf:gd-|-qr_nm:gd|res:RC4|com-cf:nl|ptrs:na|ktp:N0|mc:26680|mtp:S|qry_typ:P|lang:en|wc:2|cs:7538|v=4,Sri Sai Surgicals,https://www.indiamart.com/sai-surgicalchennai/?pos=42&kwd=disposable diaper&tags=A||||8954.051|Price|product|||TS|rsf:gd-|-qr_nm:gd|res:RC4|com-cf:nl|ptrs:na|ktp:N0|mc:26680|mtp:S|qry_typ:P|lang:en|wc:2|cs:7538|v=4,False,Aminijikarai,Chennai,"New No.20,old No.43 Rajeswari Street Chennai Chennai, Aminijikarai, Chennai - 600029, Dist.Chennai, Tamil Nadu",7942535047,
Non-woven 35 Over Disposable Adult Pull Up Diaper,https://www.indiamart.com/proddetail/disposable-adult-pull-up-diaper-18110329073.html?pos=43&kwd=disposable diaper&tags=BA||||8752.144|Price|product|||LSlc|rsf:gd-|-qr_nm:gd|res:RC4|com-cf:nl|ptrs:na|ktp:N0|mc:26680|mtp:S|qry_typ:P|lang:en|wc:2|cs:7538|v=4,Dispowear Sterite Company,https://www.dispowear.co.in/?pos=43&kwd=disposable diaper&tags=BA||||8752.144|Price|product|||LSlc|rsf:gd-|-qr_nm:gd|res:RC4|com-cf:nl|ptrs:na|ktp:N0|mc:26680|mtp:S|qry_typ:P|lang:en|wc:2|cs:7538|v=4,False,Janakpuri,New Delhi,"Pocket D-2 A, Flat No. 51 C, Janakpuri, Janakpuri, New Delhi - 110058, Dist.Delhi, Delhi",8048970362,
"Pull Ups Unisex Large Friends Disposable Adult Diapers, 10 Pieces, Packaging Type: Packet",https://www.indiamart.com/proddetail/large-friends-disposable-adult-diapers-21913593612.html?pos=44&kwd=disposable diaper&tags=A||||8954.051|Price|product|||TS|rsf:gd-|-qr_nm:gd|res:RC4|com-cf:nl|ptrs:na|ktp:N0|mc:26680|mtp:S|qry_typ:P|lang:en|wc:2|cs:7538|v=4,Sri Sai Surgicals,https://www.indiamart.com/sai-surgicalchennai/?pos=44&kwd=disposable diaper&tags=A||||8954.051|Price|product|||TS|rsf:gd-|-qr_nm:gd|res:RC4|com-cf:nl|ptrs:na|ktp:N0|mc:26680|mtp:S|qry_typ:P|lang:en|wc:2|cs:7538|v=4,False,Aminijikarai,Chennai,"New No.20,old No.43 Rajeswari Street Chennai Chennai, Aminijikarai, Chennai - 600029, Dist.Chennai, Tamil Nadu",7942535047,
"Disposable Adult Diaper, Large",https://www.indiamart.com/proddetail/disposable-adult-diaper-2854377928655.html?pos=45&kwd=disposable diaper&tags=BA||||8228.275|Price|product|||TS|rsf:gd-|-qr_nm:gd|res:RC4|com-cf:nl|ptrs:na|ktp:N0|mc:26680|mtp:S|qry_typ:P|lang:en|wc:2|cs:7538|v=4,Curewell Pharma,https://www.curewellpharma.com/?pos=45&kwd=disposable diaper&tags=BA||||8228.275|Price|product|||TS|rsf:gd-|-qr_nm:gd|res:RC4|com-cf:nl|ptrs:na|ktp:N0|mc:26680|mtp:S|qry_typ:P|lang:en|wc:2|cs:7538|v=4,False,Ambavadi,Ahmedabad,"Ground Floor, GF-15, Doctor House, Parimal Crossing, Parimal Garden Junction,, Ambavadi, Ahmedabad - 380006, Dist.Ahmedabad, Gujarat",8044015333,
"Disposable Adult Diapers, Size: 390x280mm",https://www.indiamart.com/proddetail/disposable-adult-diapers-13588785555.html?pos=46&kwd=disposable diaper&tags=BA||||8954.051|Price|product|||TS|rsf:gd-|-qr_nm:gd|res:RC4|com-cf:nl|ptrs:na|ktp:N0|mc:26680|mtp:S|qry_typ:P|lang:en|wc:2|cs:7538|v=4,Universe Surgical Equipment Co.,https://www.viaaan.com/?pos=46&kwd=disposable diaper&tags=BA||||8954.051|Price|product|||TS|rsf:gd-|-qr_nm:gd|res:RC4|com-cf:nl|ptrs:na|ktp:N0|mc:26680|mtp:S|qry_typ:P|lang:en|wc:2|cs:7538|v=4,True,Park Town,Chennai,"No. 10/8, North Usman Road, T Nagar, Health & Glow, Park Town, Park Town, Chennai - 600003, Dist.Chennai, Tamil Nadu",8048264899,
Protective Underwear Disposable Adult Diaper,https://www.indiamart.com/proddetail/disposable-adult-diaper-2852167385497.html?pos=47&kwd=disposable diaper&tags=A||||8307.81|Price|product|||TS|rsf:gd-|-qr_nm:gd|res:RC4|com-cf:nl|ptrs:na|ktp:N0|mc:26680|mtp:S|qry_typ:P|lang:en|wc:2|cs:7538|v=4,SMILEPAD HYGIENE INDIA PVT. LTD.,https://www.indiamart.com/smilepadhygiene/?pos=47&kwd=disposable diaper&tags=A||||8307.81|Price|product|||TS|rsf:gd-|-qr_nm:gd|res:RC4|com-cf:nl|ptrs:na|ktp:N0|mc:26680|mtp:S|qry_typ:P|lang:en|wc:2|cs:7538|v=4,False,Mohammed Wadi,Pune,"SR.NO.284/01 Bhadale Nagar Uruli Devachi, Mohammed Wadi, Pune - 411060, Dist.Pune, Maharashtra",8048601512,
Protective Underwear Romsons Dignity Magna Adults Diaper,https://www.indiamart.com/proddetail/romsons-dignity-magna-adults-diaper-2852126285148.html?pos=48&kwd=disposable diaper&tags=A||||9110.092|Price|product|||TS|rsf:gd-|-qr_nm:gd|res:RC4|com-cf:nl|ptrs:na|ktp:N0|mc:26680|mtp:S|qry_typ:P|lang:en|wc:2|cs:7538|v=4,Maa Surgical And Equipments,https://www.indiamart.com/maasurgical-equipments/?pos=48&kwd=disposable diaper&tags=A||||9110.092|Price|product|||TS|rsf:gd-|-qr_nm:gd|res:RC4|com-cf:nl|ptrs:na|ktp:N0|mc:26680|mtp:S|qry_typ:P|lang:en|wc:2|cs:7538|v=4,False,Aishbagh,Lucknow,"Upper Ground Flour,Shop No U G F -01,Buddheshwar Business Centre,Vill Bhatpamau Ward Haiderganj, Aishbagh, Lucknow - 226004, Dist.Lucknow, Uttar Pradesh",7942873970,
"Wetex Adult Pull up Diapers Pants Unisex Premium 10 Pcs, Size: Xl",https://www.indiamart.com/proddetail/wetex-adult-pull-up-diapers-pants-unisex-premium-10-pcs-2850478269930.html?pos=49&kwd=disposable diaper&tags=A||||8307.81|Price|product|||TS|rsf:gd-|-qr_nm:gd|res:RC4|com-cf:nl|ptrs:na|ktp:N0|mc:26680|mtp:S|qry_typ:P|lang:en|wc:2|cs:7538|v=4,Ecomed Solutions,https://www.indiamart.com/ecomedsolutions/?pos=49&kwd=disposable diaper&tags=A||||8307.81|Price|product|||TS|rsf:gd-|-qr_nm:gd|res:RC4|com-cf:nl|ptrs:na|ktp:N0|mc:26680|mtp:S|qry_typ:P|lang:en|wc:2|cs:7538|v=4,False,Hadapsar,Pune,"Fld3/b403 Sn44a Sasane Nagar Vardhaman Township Hadapsar, Hadapsar, Pune - 411028, Dist.Pune, Maharashtra",8043853505,
Pant Style Adults Disposable Adult Pull Up Diaper,https://www.indiamart.com/proddetail/disposable-adult-pull-up-diaper-2853596926433.html?pos=50&kwd=disposable diaper&tags=BA||||9140.514|Price|product|||TS|rsf:gd-|-qr_nm:gd|res:RC4|com-cf:nl|ptrs:na|ktp:N0|mc:26680|mtp:S|qry_typ:P|lang:en|wc:2|cs:7538|v=4,Sefora Health And Hygiene,https://www.indiamart.com/seforahealthhygiene/?pos=50&kwd=disposable diaper&tags=BA||||9140.514|Price|product|||TS|rsf:gd-|-qr_nm:gd|res:RC4|com-cf:nl|ptrs:na|ktp:N0|mc:26680|mtp:S|qry_typ:P|lang:en|wc:2|cs:7538|v=4,False,Saddu,Raipur,"H No. 134 Extension, Avinash Capital Homes , Phase II, Saddu, Saddu, Raipur - 492014, Chhattisgarh",7942962364,
Unisex Adult Diaper,https://www.indiamart.com/proddetail/unisex-adult-diaper-22831355088.html?pos=51&kwd=disposable diaper&tags=BA||||8228.275|Price|product|||TS|rsf:gd-|-qr_nm:gd|res:RC4|com-cf:nl|ptrs:na|ktp:N0|mc:26680|mtp:S|qry_typ:P|lang:en|wc:2|cs:7538|v=4,Chamunda Surgical Agency,https://www.chamundasurgicalagency.com/?pos=51&kwd=disposable diaper&tags=BA||||8228.275|Price|product|||TS|rsf:gd-|-qr_nm:gd|res:RC4|com-cf:nl|ptrs:na|ktp:N0|mc:26680|mtp:S|qry_typ:P|lang:en|wc:2|cs:7538|v=4,False,Mithakhali,Ahmedabad,"9-10 - Medicare Center, Behind M.J Libary, Opp. Sanyas Ashram, Mithakhali, Ahmedabad - 380009, Dist.Ahmedabad, Gujarat",8047637438,
Pull Ups ALIFE CURE Pant Style Overnight Disposable Adult Diapers Unisex-XXL,https://www.indiamart.com/proddetail/alife-cure-pant-style-overnight-disposable-adult-diapers-unisex-xxl-2851872874562.html?pos=52&kwd=disposable diaper&tags=BA||||8228.275|Price|product|||TS|rsf:gd-|-qr_nm:gd|res:RC4|com-cf:nl|ptrs:na|ktp:N0|mc:26680|mtp:S|qry_typ:P|lang:en|wc:2|cs:7538|v=4,Akshaya Enterprise,https://www.indiamart.com/akshayaenterpriseahmedabad/?pos=52&kwd=disposable diaper&tags=BA||||8228.275|Price|product|||TS|rsf:gd-|-qr_nm:gd|res:RC4|com-cf:nl|ptrs:na|ktp:N0|mc:26680|mtp:S|qry_typ:P|lang:en|wc:2|cs:7538|v=4,False,Dudheshwar,Ahmedabad,"C-103, First Floor, Shri Hari Residency, Near Sakar School, New C.G. Road, Chandkheda, Dudheshwar, Ahmedabad - 382424, Dist.Ahmedabad, Gujarat",8048983196,
40-90 Yrs Ad-soft Adult Disposable Diaper,https://www.indiamart.com/proddetail/ad-soft-adult-disposable-diaper-26262477962.html?pos=53&kwd=disposable diaper&tags=BA||||8210.732|Price|product|||TS|rsf:gd-|-qr_nm:gd|res:RC4|com-cf:nl|ptrs:na|ktp:N0|mc:26680|mtp:S|qry_typ:P|lang:en|wc:2|cs:7538|v=4,S4 Health Care Private Limited,https://www.s4healthcare.in/?pos=53&kwd=disposable diaper&tags=BA||||8210.732|Price|product|||TS|rsf:gd-|-qr_nm:gd|res:RC4|com-cf:nl|ptrs:na|ktp:N0|mc:26680|mtp:S|qry_typ:P|lang:en|wc:2|cs:7538|v=4,False,Valiv,Vasai,"22-25, Sheetal Supreme Industrial Estate No. 2 Behind Dhuri Industrial Estate No. 2, Valiv, Vasai - 401208, Dist.Thane, Maharashtra",7942545279,
Lifree Large Super L10 Comfort Dry Pants,https://www.indiamart.com/proddetail/lifree-large-super-l10-comfort-dry-pants-2854600946591.html?pos=54&kwd=disposable diaper&tags=A||||8559.269|Price|product|||MDC|rsf:gd-|-qr_nm:gd|res:RC4|com-cf:nl|ptrs:na|ktp:N0|mc:26680|mtp:S|qry_typ:P|lang:en|wc:2|cs:7538|v=4,Hi Tech Logistics,https://www.indiamart.com/hitech-logistics-indore/?pos=54&kwd=disposable diaper&tags=A||||8559.269|Price|product|||MDC|rsf:gd-|-qr_nm:gd|res:RC4|com-cf:nl|ptrs:na|ktp:N0|mc:26680|mtp:S|qry_typ:P|lang:en|wc:2|cs:7538|v=4,False,,Indore,"Halka No. 17, Survey No. 13/2/1, Lasudiya Mori, Indore - 452010, Dist.Indore, Madhya Pradesh",8044460450,
"Small Disposable Baby Diapers, Age Group: Newly Born",https://www.indiamart.com/proddetail/printed-disposable-baby-diapers-2854601635330.html?pos=55&kwd=disposable diaper&tags=A||||8786.56|Price|product|||MDC|rsf:gd-|-qr_nm:gd|res:RC4|com-cf:nl|ptrs:na|ktp:N0|mc:26680|mtp:S|qry_typ:P|lang:en|wc:2|cs:7538|v=4,Popok Health Care,https://www.indiamart.com/popok-healthcare/?pos=55&kwd=disposable diaper&tags=A||||8786.56|Price|product|||MDC|rsf:gd-|-qr_nm:gd|res:RC4|com-cf:nl|ptrs:na|ktp:N0|mc:26680|mtp:S|qry_typ:P|lang:en|wc:2|cs:7538|v=4,False,,Hyderabad,"24-134, Anandbagh Medchal Malkajgiri, Hyderabad - 500047, Dist.Hyderabad, Telangana",7949330487,
"Briefs Uni Pro Disposable Adult Diaper, Size: Large",https://www.indiamart.com/proddetail/uni-pro-disposable-adult-diaper-27359003330.html?pos=56&kwd=disposable diaper&tags=A||||8954.051|Price|product|||TS|rsf:gd-|-qr_nm:gd|res:RC4|com-cf:nl|ptrs:na|ktp:N0|mc:26680|mtp:S|qry_typ:P|lang:en|wc:2|cs:7538|v=4,Gayathri Medicare,https://www.indiamart.com/gayathri-medicarechennai/?pos=56&kwd=disposable diaper&tags=A||||8954.051|Price|product|||TS|rsf:gd-|-qr_nm:gd|res:RC4|com-cf:nl|ptrs:na|ktp:N0|mc:26680|mtp:S|qry_typ:P|lang:en|wc:2|cs:7538|v=4,False,West Mambalam.. 12 sai tower.station road.,Chennai,"No 48,Basement Floor, B-5,Navins Aishwarya Apartment,Brindavan Street,Chennai, West Mambalam.. 12 sai tower.station road., Chennai - 600033, Dist.Chennai, Tamil Nadu",8047552428,
Disposable Diaper,https://www.indiamart.com/proddetail/disposable-diaper-2853156405555.html?pos=57&kwd=disposable diaper&tags=BA||||8954.051|Price|product|||TS|rsf:gd-|-qr_nm:gd|res:RC4|com-cf:nl|ptrs:na|ktp:N0|mc:26680|mtp:S|qry_typ:P|lang:en|wc:2|cs:7538|v=4,Murugan Surgicals,https://www.murugansurgicals.co.in/?pos=57&kwd=disposable diaper&tags=BA||||8954.051|Price|product|||TS|rsf:gd-|-qr_nm:gd|res:RC4|com-cf:nl|ptrs:na|ktp:N0|mc:26680|mtp:S|qry_typ:P|lang:en|wc:2|cs:7538|v=4,False,Mint Building,Chennai,"Old No.34/35 Newno.87, Walltax Road, Mint Building, Chennai - 600001, Dist.Chennai, Tamil Nadu",8048974268,
"Adults Pull Ups Disposable Adult Diaper, Size: Large",https://www.indiamart.com/proddetail/disposable-adult-diaper-2853029952730.html?pos=58&kwd=disposable diaper&tags=BA||||8723.301|Price|product|||MDC|rsf:gd-|-qr_nm:gd|res:RC4|com-cf:nl|ptrs:na|ktp:N0|mc:26680|mtp:S|qry_typ:P|lang:en|wc:2|cs:7538|v=4,Blissbury Care Private Limited,https://www.indiamart.com/blissbury-care-bhopal/?pos=58&kwd=disposable diaper&tags=BA||||8723.301|Price|product|||MDC|rsf:gd-|-qr_nm:gd|res:RC4|com-cf:nl|ptrs:na|ktp:N0|mc:26680|mtp:S|qry_typ:P|lang:en|wc:2|cs:7538|v=4,False,Gandhi Nagar,Bhopal,"D-46, Dwarkadham New Jail Road, Gram Badwai Huzur, Gandhi Nagar, Bhopal - 462001, Dist.Bhopal, Madhya Pradesh",7942963355,
"Pink Organic Cotton Diaper, Size: Adjustable size",https://www.indiamart.com/proddetail/organic-cotton-diaper-2851096843373.html?pos=59&kwd=disposable diaper&tags=BA||||8752.144|Price|product|||TS|rsf:gd-|-qr_nm:gd|res:RC4|com-cf:nl|ptrs:na|ktp:N0|mc:26680|mtp:S|qry_typ:P|lang:en|wc:2|cs:7538|v=4,Manvi Wellness India Private Limited,https://www.manviwellness.com/?pos=59&kwd=disposable diaper&tags=BA||||8752.144|Price|product|||TS|rsf:gd-|-qr_nm:gd|res:RC4|com-cf:nl|ptrs:na|ktp:N0|mc:26680|mtp:S|qry_typ:P|lang:en|wc:2|cs:7538|v=4,False,Narela,New Delhi,"E 910, Dsidc Narela, Narela, New Delhi - 110040, Dist.Delhi, Delhi",7942832529,
PP Non Woven Disposable Adult Diapers,https://www.indiamart.com/proddetail/disposable-adult-diapers-11104388433.html?pos=60&kwd=disposable diaper&tags=BA||||8954.051|Price|product|||TS|rsf:gd-|-qr_nm:gd|res:RC4|com-cf:nl|ptrs:na|ktp:N0|mc:26680|mtp:S|qry_typ:P|lang:en|wc:2|cs:7538|v=4,Universe Surgical Equipment Co.,https://www.medicallabequipments.com/?pos=60&kwd=disposable diaper&tags=BA||||8954.051|Price|product|||TS|rsf:gd-|-qr_nm:gd|res:RC4|com-cf:nl|ptrs:na|ktp:N0|mc:26680|mtp:S|qry_typ:P|lang:en|wc:2|cs:7538|v=4,False,Park Town,Chennai,"21,,NYNIAPPAN STREET,PARK TOWNCHENNAI, Park Town, Chennai - 600003, Dist.Chennai, Tamil Nadu",8048989078,
Above 18 Briefs XL Svaach Unisex Disposable Adult Diaper,https://www.indiamart.com/proddetail/xl-svaach-unisex-disposable-adult-diaper-25164203130.html?pos=61&kwd=disposable diaper&tags=BA||||8663.873|Price|product|||MDC|rsf:gd-|-qr_nm:gd|res:RC4|com-cf:nl|ptrs:na|ktp:N0|mc:26680|mtp:S|qry_typ:P|lang:en|wc:2|cs:7538|v=4,Samutthanam Health Care LLP,https://www.indiamart.com/samutthanamhealthcare/?pos=61&kwd=disposable diaper&tags=BA||||8663.873|Price|product|||MDC|rsf:gd-|-qr_nm:gd|res:RC4|com-cf:nl|ptrs:na|ktp:N0|mc:26680|mtp:S|qry_typ:P|lang:en|wc:2|cs:7538|v=4,False,Banashankari,Bengaluru,"644, 1st A cross 1st Phase, Girinagara, Hosakerehalli, BSK 3rd Stage, Urban, Banashankari, Bengaluru - 560085, Dist.Bengaluru, Karnataka",7942791482,
Pull Ups Disposable Adult Diaper,https://www.indiamart.com/proddetail/disposable-adult-diaper-23934386688.html?pos=62&kwd=disposable diaper&tags=A||||9839.57|Price|product|||MDC|rsf:gd-|-qr_nm:gd|res:RC4|com-cf:nl|ptrs:na|ktp:N0|mc:26680|mtp:S|qry_typ:P|lang:en|wc:2|cs:7538|v=4,R K Surgical Co.,https://www.indiamart.com/rk-surgical-co/?pos=62&kwd=disposable diaper&tags=A||||9839.57|Price|product|||MDC|rsf:gd-|-qr_nm:gd|res:RC4|com-cf:nl|ptrs:na|ktp:N0|mc:26680|mtp:S|qry_typ:P|lang:en|wc:2|cs:7538|v=4,False,Chittaranjan Avenue,Kolkata,"28, Rabindra Sarani 2nd Floor, Chittaranjan Avenue, Kolkata - 700073, Dist.Kolkata, West Bengal",7942564055,
"Cotton Disposable Friends Pullups Adult Diaper, Size: L-XL",https://www.indiamart.com/proddetail/friends-pullups-adult-diaper-22272350162.html?pos=63&kwd=disposable diaper&tags=BA||||8228.275|Price|product|||TS|rsf:gd-|-qr_nm:gd|res:RC4|com-cf:nl|ptrs:na|ktp:N0|mc:26680|mtp:S|qry_typ:P|lang:en|wc:2|cs:7538|v=4,First Choice Surgicals,https://www.indiamart.com/first-choice-surgicals/?pos=63&kwd=disposable diaper&tags=BA||||8228.275|Price|product|||TS|rsf:gd-|-qr_nm:gd|res:RC4|com-cf:nl|ptrs:na|ktp:N0|mc:26680|mtp:S|qry_typ:P|lang:en|wc:2|cs:7538|v=4,False,Ellisbridge,Ahmedabad,"4, Upper Level, Park Avenue Complex, Parimal Garden Cross Roads, Ellisbridge, Ahmedabad - 380006, Dist.Ahmedabad, Gujarat",8048262878,
"Pull Ups Disposable Adult Diaper, Age Group: Newly Born, Large",https://www.indiamart.com/proddetail/pull-ups-disposable-adult-diaper-2854294989812.html?pos=64&kwd=disposable diaper&tags=A||||8601.347|Price|product|||TS|rsf:gd-|-qr_nm:gd|res:RC4|com-cf:nl|ptrs:na|ktp:N0|mc:26680|mtp:S|qry_typ:P|lang:en|wc:2|cs:7538|v=4,Anuradha Enterprises,https://www.anuradhaenterprises.net/?pos=64&kwd=disposable diaper&tags=A||||8601.347|Price|product|||TS|rsf:gd-|-qr_nm:gd|res:RC4|com-cf:nl|ptrs:na|ktp:N0|mc:26680|mtp:S|qry_typ:P|lang:en|wc:2|cs:7538|v=4,True,Gopalpura,Jaipur,"150, Krishna Vihar, Gopalpura By Pass,, Gopalpura, Jaipur - 302015, Dist.Jaipur, Rajasthan",8045908792,
30 To 80 Protective Underwear Disposable Adult Diaper Medium,https://www.indiamart.com/proddetail/disposable-adult-diaper-medium-13646864097.html?pos=65&kwd=disposable diaper&tags=A||||8503.868|Price|product|||TS|rsf:gd-|-qr_nm:gd|res:RC4|com-cf:nl|ptrs:na|ktp:N0|mc:26680|mtp:S|qry_typ:P|lang:en|wc:2|cs:7538|v=4,Coble Impex Private Limited,https://www.indiamart.com/cobleimpex/?pos=65&kwd=disposable diaper&tags=A||||8503.868|Price|product|||TS|rsf:gd-|-qr_nm:gd|res:RC4|com-cf:nl|ptrs:na|ktp:N0|mc:26680|mtp:S|qry_typ:P|lang:en|wc:2|cs:7538|v=4,False,Kakkanad,Kochi,"No. 12/760 B, Manimala Estate, Padamugal Kakkanad, West Post Office, Kakkanad, Kochi - 682030, Dist.Ernakulam, Kerala",8048605079,
"Cotton Econap, Size: 60*90 cm",https://www.indiamart.com/proddetail/econap-2854339566755.html?pos=66&kwd=disposable diaper&tags=A||||8954.051|Price|product|||TS|rsf:gd-|-qr_nm:gd|res:RC4|com-cf:nl|ptrs:na|ktp:N0|mc:26680|mtp:S|qry_typ:P|lang:en|wc:2|cs:7538|v=4,Happy Zone Health Store,https://www.happyzonehealthstore.com/?pos=66&kwd=disposable diaper&tags=A||||8954.051|Price|product|||TS|rsf:gd-|-qr_nm:gd|res:RC4|com-cf:nl|ptrs:na|ktp:N0|mc:26680|mtp:S|qry_typ:P|lang:en|wc:2|cs:7538|v=4,False,Mylapore,Chennai,"NO.61 NACHIAPPA ST,MYLAPORE, Mylapore, Chennai - 600004, Dist.Chennai, Tamil Nadu",8046074663,
Tape Type Fluff Pulp Per Fit Prevail Adult Diapers,https://www.indiamart.com/proddetail/per-fit-prevail-adult-diapers-5664151812.html?pos=67&kwd=disposable diaper&tags=A||||8211.142||product|||TS|rsf:gd-|-qr_nm:gd|res:RC4|com-cf:nl|ptrs:na|ktp:N0|mc:26680|mtp:S|qry_typ:P|lang:en|wc:2|cs:7538|v=4,Kosmochem Private Limited,https://www.indiamart.com/kosmochemhomehealthcare/?pos=67&kwd=disposable diaper&tags=A||||8211.142||product|||TS|rsf:gd-|-qr_nm:gd|res:RC4|com-cf:nl|ptrs:na|ktp:N0|mc:26680|mtp:S|qry_typ:P|lang:en|wc:2|cs:7538|v=4,False,Mandvi,Mumbai,"Maskati House, 1st Floor, 76, Mohamedali Road,, Mandvi, Mumbai - 400003, Dist.Mumbai, Maharashtra",8048958842,
Briefs Lenity Adult Diapers XL SIZE,https://www.indiamart.com/proddetail/lenity-adult-diapers-xl-size-23196238962.html?pos=68&kwd=disposable diaper&tags=BA||||8228.275|Price|product|||TS|rsf:gd-|-qr_nm:gd|res:RC4|com-cf:nl|ptrs:na|ktp:N0|mc:26680|mtp:S|qry_typ:P|lang:en|wc:2|cs:7538|v=4,Zen Enterprise,https://www.zenenterprise.co.in/?pos=68&kwd=disposable diaper&tags=BA||||8228.275|Price|product|||TS|rsf:gd-|-qr_nm:gd|res:RC4|com-cf:nl|ptrs:na|ktp:N0|mc:26680|mtp:S|qry_typ:P|lang:en|wc:2|cs:7538|v=4,False,Thaltej,Ahmedabad,"205, Satva, Nr Padmavati Bunglows Opp Elligans Bunglows, Thaltej, Thaltej, Ahmedabad - 380054, Dist.Ahmedabad, Gujarat",8046046451,
Adult Tape Diapers 20pcs,https://www.indiamart.com/proddetail/adult-tape-diapers-20pcs-2852975024748.html?pos=69&kwd=disposable diaper&tags=BA||||8316.457|Price|product|||MDC|rsf:gd-|-qr_nm:gd|res:RC4|com-cf:nl|ptrs:na|ktp:N0|mc:26680|mtp:S|qry_typ:P|lang:en|wc:2|cs:7538|v=4,Manavata Hygiene,https://www.indiamart.com/manavatahygiene/?pos=69&kwd=disposable diaper&tags=BA||||8316.457|Price|product|||MDC|rsf:gd-|-qr_nm:gd|res:RC4|com-cf:nl|ptrs:na|ktp:N0|mc:26680|mtp:S|qry_typ:P|lang:en|wc:2|cs:7538|v=4,False,Vadangli,Nashik,"Shri Kruoa Nagar, Maparwadu Road, Sinnar,, Vadangli, Nashik - 422103, Dist.Nashik, Maharashtra",8047544880,
"Pant Style Disposable Baby Diaper, Size: Small",https://www.indiamart.com/proddetail/pant-style-disposable-baby-diaper-26196041662.html?pos=70&kwd=disposable diaper&tags=BA||||8752.144|Price|product|||TS|rsf:gd-|-qr_nm:gd|res:RC4|com-cf:nl|ptrs:na|ktp:N0|mc:26680|mtp:S|qry_typ:P|lang:en|wc:2|cs:7538|v=4,Tejas Enterprises,https://www.indiamart.com/tejasenterprises-delhi/?pos=70&kwd=disposable diaper&tags=BA||||8752.144|Price|product|||TS|rsf:gd-|-qr_nm:gd|res:RC4|com-cf:nl|ptrs:na|ktp:N0|mc:26680|mtp:S|qry_typ:P|lang:en|wc:2|cs:7538|v=4,False,New Mustafabad,New Delhi,"D - 6/162 - A, D - Block, Near Gali No.7, Main Road Brijpuri, New Mustafabad, New Delhi - 110094, Dist.Delhi, Delhi",8043855624,
"Imported Disposable Adult Diaper, XL",https://www.indiamart.com/proddetail/imported-disposable-adult-diaper-sealed-pack-2854586098397.html?pos=71&kwd=disposable diaper&tags=BB||||9110.092|Price|product|||MDC|rsf:gd-|-qr_nm:gd|res:RC4|com-cf:nl|ptrs:na|ktp:N0|mc:26680|mtp:S|qry_typ:P|lang:en|wc:2|cs:7538|v=4,Asian Hygiene,https://www.indiamart.com/asian-hygiene/?pos=71&kwd=disposable diaper&tags=BB||||9110.092|Price|product|||MDC|rsf:gd-|-qr_nm:gd|res:RC4|com-cf:nl|ptrs:na|ktp:N0|mc:26680|mtp:S|qry_typ:P|lang:en|wc:2|cs:7538|v=4,False,,Lucknow,"Shop No. 134, Kanpur Road, Transport Nagar,, Lucknow - 226012, Dist.Lucknow, Uttar Pradesh",7949330533,
"Pull Ups,Protective Underwear Adults Feel Free Adult Diaper",https://www.indiamart.com/proddetail/feel-free-adult-diaper-20112769197.html?pos=72&kwd=disposable diaper&tags=BA||||8954.051|Price|product|||TS|rsf:gd-|-qr_nm:gd|res:RC4|com-cf:nl|ptrs:na|ktp:N0|mc:26680|mtp:S|qry_typ:P|lang:en|wc:2|cs:7538|v=4,Thiripura Agencies,https://www.indiamart.com/thiripura-agencies/?pos=72&kwd=disposable diaper&tags=BA||||8954.051|Price|product|||TS|rsf:gd-|-qr_nm:gd|res:RC4|com-cf:nl|ptrs:na|ktp:N0|mc:26680|mtp:S|qry_typ:P|lang:en|wc:2|cs:7538|v=4,False,Vadapalani,Chennai,"87/38 Aadimula Perumal Koil Street Vadapalani, Vadapalani, Chennai - 600026, Dist.Chennai, Tamil Nadu",8047640570,
"Cotton Disposable Baby Diaper Pant, Age Group: Newly Born, Size: Large",https://www.indiamart.com/proddetail/cotton-disposable-baby-diaper-pant-2853301260312.html?pos=73&kwd=disposable diaper&tags=BA||||8559.269|Price|product|||TS|rsf:gd-|-qr_nm:gd|res:RC4|com-cf:nl|ptrs:na|ktp:N0|mc:26680|mtp:S|qry_typ:P|lang:en|wc:2|cs:7538|v=4,Pulkit Enterprises,https://www.indiamart.com/pulkitenterprises-indor/?pos=73&kwd=disposable diaper&tags=BA||||8559.269|Price|product|||TS|rsf:gd-|-qr_nm:gd|res:RC4|com-cf:nl|ptrs:na|ktp:N0|mc:26680|mtp:S|qry_typ:P|lang:en|wc:2|cs:7538|v=4,False,,Indore,"505, Kalpana Apartment, 1, 7,South Tukoganj, Indore - 452001, Dist.Indore, Madhya Pradesh",8048961141,
Protective Underwear Adult Diaper xl,https://www.indiamart.com/proddetail/adult-diaper-xl-2854039997833.html?pos=74&kwd=disposable diaper&tags=BA||||8228.275|Price|product|||MDC|rsf:gd-|-qr_nm:gd|res:RC4|com-cf:nl|ptrs:na|ktp:N0|mc:26680|mtp:S|qry_typ:P|lang:en|wc:2|cs:7538|v=4,Kamdhenu Pharma,https://www.indiamart.com/kamdhenupharmagujarat/?pos=74&kwd=disposable diaper&tags=BA||||8228.275|Price|product|||MDC|rsf:gd-|-qr_nm:gd|res:RC4|com-cf:nl|ptrs:na|ktp:N0|mc:26680|mtp:S|qry_typ:P|lang:en|wc:2|cs:7538|v=4,False,Jahangirpura,Ahmedabad,"4th, B-412, Abhishek Complex, NR, Asarva Bridge, Jahangirpura, Ahmedabad - 380016, Dist.Ahmedabad, Gujarat",8047806771,
"Pull Ups Disposable Adult Diaper, Size: 40x60 cm",https://www.indiamart.com/proddetail/disposable-adult-diaper-23255161988.html?pos=75&kwd=disposable diaper&tags=BA||||8663.873|Price|product|||TS|rsf:gd-|-qr_nm:gd|res:RC4|com-cf:nl|ptrs:na|ktp:N0|mc:26680|mtp:S|qry_typ:P|lang:en|wc:2|cs:7538|v=4,Rajendra Surgicals,https://www.rajendrasurgicals.com/?pos=75&kwd=disposable diaper&tags=BA||||8663.873|Price|product|||TS|rsf:gd-|-qr_nm:gd|res:RC4|com-cf:nl|ptrs:na|ktp:N0|mc:26680|mtp:S|qry_typ:P|lang:en|wc:2|cs:7538|v=4,False,Rajajinagar,Bengaluru,"Ground Floor, 3rd Block, No.210/38, Skanda, Dr Mallegowda Street, 50th Cross, Rajajinagar, Rajajinagar, Bengaluru - 560010, Dist.Bengaluru, Karnataka",8048961624,
"Disposable Baby Diaper, S m l xl xxl",https://www.indiamart.com/proddetail/disposable-baby-diaper-21905015373.html?pos=76&kwd=disposable diaper&tags=BA||||8954.051|Price|product|||TS|rsf:gd-|-qr_nm:gd|res:RC4|com-cf:nl|ptrs:na|ktp:N0|mc:26680|mtp:S|qry_typ:P|lang:en|wc:2|cs:7538|v=4,The Exultant Enterprises,https://www.theexultantenterprises.com/?pos=76&kwd=disposable diaper&tags=BA||||8954.051|Price|product|||TS|rsf:gd-|-qr_nm:gd|res:RC4|com-cf:nl|ptrs:na|ktp:N0|mc:26680|mtp:S|qry_typ:P|lang:en|wc:2|cs:7538|v=4,False,Velacheri,Chennai,"Building No. 13, New Secreterary Colony 6th Street,, Velacheri, Chennai - 600042, Dist.Chennai, Tamil Nadu",8048960064,
"Realcare Adult Diapers Premium, Size: Medium",https://www.indiamart.com/proddetail/realcare-adult-diapers-premium-16559102291.html?pos=77&kwd=disposable diaper&tags=BA||||8706.587|Price|product|||TS|rsf:gd-|-qr_nm:gd|res:RC4|com-cf:nl|ptrs:na|ktp:N0|mc:26680|mtp:S|qry_typ:P|lang:en|wc:2|cs:7538|v=4,Aruna Agencies,https://www.arunaagencies.in/?pos=77&kwd=disposable diaper&tags=BA||||8706.587|Price|product|||TS|rsf:gd-|-qr_nm:gd|res:RC4|com-cf:nl|ptrs:na|ktp:N0|mc:26680|mtp:S|qry_typ:P|lang:en|wc:2|cs:7538|v=4,False,Simmakkal,Madurai,"Pooja Complex, No. 23, North Veli Street Ground Floor, Simmakkal, Simmakkal, Madurai - 625001, Dist.Madurai, Tamil Nadu",8048609760,
Coronation Prestige Disposable Adult Diapers,,Dayal Traders,https://www.indiamart.com/dayaltraders-ludhiana/?pos=78&kwd=disposable diaper&tags=A||||8661.854|Price|product|||TS|rsf:gd-|-qr_nm:gd|res:RC4|com-cf:nl|ptrs:na|ktp:N0|mc:26680|mtp:S|qry_typ:P|lang:en|wc:2|cs:7538|v=4,False,Friends Colony,Ludhiana,"Shop No. 11, Dawar Complex, Gujjarmal Road Pindi Gali, Friends Colony, Ludhiana - 141008, Dist.Ludhiana, Punjab",8048953698,
Tape And Pant Pull Ups Disposable Adult Diaper,https://www.indiamart.com/proddetail/disposable-adult-diaper-2851157352333.html?pos=79&kwd=disposable diaper&tags=BA||||8954.051|Price|product|||TS|rsf:gd-|-qr_nm:gd|res:RC4|com-cf:nl|ptrs:na|ktp:N0|mc:26680|mtp:S|qry_typ:P|lang:en|wc:2|cs:7538|v=4,Munot Pharmaceuticals,https://www.hospitalequipmentsuppliers.com/?pos=79&kwd=disposable diaper&tags=BA||||8954.051|Price|product|||TS|rsf:gd-|-qr_nm:gd|res:RC4|com-cf:nl|ptrs:na|ktp:N0|mc:26680|mtp:S|qry_typ:P|lang:en|wc:2|cs:7538|v=4,False,Park Town,Chennai,"building no 5/118, Nyniappa Naicken Street, Park Town, Chennai - 600003, Dist.Chennai, Tamil Nadu",8048960650,
Adult Diapers(valcro or sticking type),https://www.indiamart.com/proddetail/adult-diapers-valcro-or-sticking-type-22323651948.html?pos=80&kwd=disposable diaper&tags=BA||||8211.142||product|||TS|rsf:gd-|-qr_nm:gd|res:RC4|com-cf:nl|ptrs:na|ktp:N0|mc:26680|mtp:S|qry_typ:P|lang:en|wc:2|cs:7538|v=4,Khanna Enterprise,https://www.indiamart.com/khannaentps-mumbai/?pos=80&kwd=disposable diaper&tags=BA||||8211.142||product|||TS|rsf:gd-|-qr_nm:gd|res:RC4|com-cf:nl|ptrs:na|ktp:N0|mc:26680|mtp:S|qry_typ:P|lang:en|wc:2|cs:7538|v=4,False,Chembur,Mumbai,"A-8, Gurukrupa Terrace, RC Marg, Chembur East, Chembur, Mumbai - 400071, Dist.Mumbai, Maharashtra",8046039664,
"Disposable Baby Diapers, Age Group: 3to12 Months, Size: Small",https://www.indiamart.com/proddetail/disposable-baby-diapers-2854652931988.html?pos=81&kwd=disposable diaper&tags=BB||||8038.093|Price|product|||MDC|rsf:gd-|-qr_nm:gd|res:RC4|com-cf:nl|ptrs:na|ktp:N0|mc:26680|mtp:S|qry_typ:P|lang:en|wc:2|cs:7538|v=4,Rudransh International,https://www.indiamart.com/rudransh-international-rajkot/?pos=81&kwd=disposable diaper&tags=BB||||8038.093|Price|product|||MDC|rsf:gd-|-qr_nm:gd|res:RC4|com-cf:nl|ptrs:na|ktp:N0|mc:26680|mtp:S|qry_typ:P|lang:en|wc:2|cs:7538|v=4,False,,Rajkot,"3-indira Nagar Laxmi Nivas Kothariya Main Road Near Bhavnath Temple, Rajkot - 360002, Dist.Rajkot, Gujarat",7949323742,
"Free Elduro Adult Diaper, Size: L M Xl Xxl",https://www.indiamart.com/proddetail/elduro-adult-diaper-2850053329012.html?pos=82&kwd=disposable diaper&tags=BA||||8228.275|Price|product|||TS|rsf:gd-|-qr_nm:gd|res:RC4|com-cf:nl|ptrs:na|ktp:N0|mc:26680|mtp:S|qry_typ:P|lang:en|wc:2|cs:7538|v=4,Girikandra Sales,https://www.girikandrasales.com/?pos=82&kwd=disposable diaper&tags=BA||||8228.275|Price|product|||TS|rsf:gd-|-qr_nm:gd|res:RC4|com-cf:nl|ptrs:na|ktp:N0|mc:26680|mtp:S|qry_typ:P|lang:en|wc:2|cs:7538|v=4,False,,Ahmedabad,"Fast Flower, F-111, Sumel 7, Soni Ni Chal, Sumel 7, Sumel 7, Ahmedabad - 380023, Dist.Ahmedabad, Gujarat",8048269013,
18+ Cotton Disposable Adult Diaper Pant,https://www.indiamart.com/proddetail/disposable-adult-diaper-pant-2854435900930.html?pos=83&kwd=disposable diaper&tags=BA||||8601.347|Price|product|||TS|rsf:gd-|-qr_nm:gd|res:RC4|com-cf:nl|ptrs:na|ktp:N0|mc:26680|mtp:S|qry_typ:P|lang:en|wc:2|cs:7538|v=4,T. C. Pharma,https://www.indiamart.com/tcpharma/?pos=83&kwd=disposable diaper&tags=BA||||8601.347|Price|product|||TS|rsf:gd-|-qr_nm:gd|res:RC4|com-cf:nl|ptrs:na|ktp:N0|mc:26680|mtp:S|qry_typ:P|lang:en|wc:2|cs:7538|v=4,False,Bambala,Jaipur,"162/214, Ground Floor, Sector-16, Pratap Nagar,, Bambala, Jaipur - 302033, Dist.Jaipur, Rajasthan",8048273054,
Small Disposable Adults Diapers,https://www.indiamart.com/proddetail/small-disposable-adults-diapers-2852945220730.html?pos=84&kwd=disposable diaper&tags=BA||||8778.123|Price|product|||MDC|rsf:gd-|-qr_nm:gd|res:RC4|com-cf:nl|ptrs:na|ktp:N0|mc:26680|mtp:S|qry_typ:P|lang:en|wc:2|cs:7538|v=4,Globiz Care Private Limited,https://www.indiamart.com/globiz-care/?pos=84&kwd=disposable diaper&tags=BA||||8778.123|Price|product|||MDC|rsf:gd-|-qr_nm:gd|res:RC4|com-cf:nl|ptrs:na|ktp:N0|mc:26680|mtp:S|qry_typ:P|lang:en|wc:2|cs:7538|v=4,False,Gautambuddha Nagar,Noida,"4th Floor, D-1, 310, J S Arcade Captain Vijayant Thapar Marg, Noida Sector 18 Metro Station, Sector 18, Gautambuddha Nagar, Noida - 201301, Dist.Gautam Budh Nagar, Uttar Pradesh",7942722798,
"Ez Life Adult Pull Up Diapers, XL",https://www.indiamart.com/proddetail/ez-life-adult-pull-up-diapers-2854256250697.html?pos=85&kwd=disposable diaper&tags=A||||8228.275|Price|product|||MDC|rsf:gd-|-qr_nm:gd|res:RC4|com-cf:nl|ptrs:na|ktp:N0|mc:26680|mtp:S|qry_typ:P|lang:en|wc:2|cs:7538|v=4,Navjivan Pharma,https://www.indiamart.com/navjivan-pharma-ahmedabad/?pos=85&kwd=disposable diaper&tags=A||||8228.275|Price|product|||MDC|rsf:gd-|-qr_nm:gd|res:RC4|com-cf:nl|ptrs:na|ktp:N0|mc:26680|mtp:S|qry_typ:P|lang:en|wc:2|cs:7538|v=4,False,,Ahmedabad,"Shop/B-106, Anand Sapphire,Opp. Vishwas City 7, Ahmedabad - 382481, Dist.Ahmedabad, Gujarat",8044014306,
tape style Disposable Adult Diaper,https://www.indiamart.com/proddetail/disposable-adult-diaper-25677337112.html?pos=86&kwd=disposable diaper&tags=A||||8211.142|Price|product|||TS|rsf:gd-|-qr_nm:gd|res:RC4|com-cf:nl|ptrs:na|ktp:N0|mc:26680|mtp:S|qry_typ:P|lang:en|wc:2|cs:7538|v=4,Stayzy Hygiene Private Limited,https://www.indiamart.com/synergy-fly/?pos=86&kwd=disposable diaper&tags=A||||8211.142|Price|product|||TS|rsf:gd-|-qr_nm:gd|res:RC4|com-cf:nl|ptrs:na|ktp:N0|mc:26680|mtp:S|qry_typ:P|lang:en|wc:2|cs:7538|v=4,False,Borivali West,Mumbai,"Bluechip Industrial Estate No 4 Sativali Road, Near Nexa Showroom, Waliv Naka, Borivali West, Mumbai - 401101, Dist.Mumbai, Maharashtra",8048604117,
Pull Ups Disposable Adult Diaper Pant,https://www.indiamart.com/proddetail/disposable-adult-diaper-pant-21072581812.html?pos=87&kwd=disposable diaper&tags=A||||8778.123|Price|product|||TS|rsf:gd-|-qr_nm:gd|res:RC4|com-cf:nl|ptrs:na|ktp:N0|mc:26680|mtp:S|qry_typ:P|lang:en|wc:2|cs:7538|v=4,Samyak Hygiene Care Private Limited,https://www.indiamart.com/samyakhygienecare/?pos=87&kwd=disposable diaper&tags=A||||8778.123|Price|product|||TS|rsf:gd-|-qr_nm:gd|res:RC4|com-cf:nl|ptrs:na|ktp:N0|mc:26680|mtp:S|qry_typ:P|lang:en|wc:2|cs:7538|v=4,False,Ward No 11,Noida,"Plot No. 1782, Chatanga Road, Jewar, Guttam Bhudi Nagar, Ward No 11, Noida - 203135, Dist.Gautam Budh Nagar, Uttar Pradesh",8047640159,
"Side Tape Novel Adult Diapers, Size: M",https://www.indiamart.com/proddetail/novel-adult-diapers-24000302888.html?pos=88&kwd=disposable diaper&tags=BA||||8478.165|Price|product|||TS|rsf:gd-|-qr_nm:gd|res:RC4|com-cf:nl|ptrs:na|ktp:N0|mc:26680|mtp:S|qry_typ:P|lang:en|wc:2|cs:7538|v=4,P & Q Hygiene Products,https://www.indiamart.com/pqhygieneproducts/?pos=88&kwd=disposable diaper&tags=BA||||8478.165|Price|product|||TS|rsf:gd-|-qr_nm:gd|res:RC4|com-cf:nl|ptrs:na|ktp:N0|mc:26680|mtp:S|qry_typ:P|lang:en|wc:2|cs:7538|v=4,False,,Thazhecode,"TP11/260 A, B, C, Olakkal Building, Thondimmal, Thiruvambadi, Thazhecode - 673603, Dist.Kozhikode, Kerala",7942532245,
White Toddlers Disposable Baby Diapers Large,https://www.indiamart.com/proddetail/toddlers-disposable-baby-diapers-large-20256381188.html?pos=89&kwd=disposable diaper&tags=A||||8786.56|Price|product|||TS|rsf:gd-|-qr_nm:gd|res:RC4|com-cf:nl|ptrs:na|ktp:N0|mc:26680|mtp:S|qry_typ:P|lang:en|wc:2|cs:7538|v=4,ADML(ADROIT MOLECULES),https://www.adroitmolecules.com/?pos=89&kwd=disposable diaper&tags=A||||8786.56|Price|product|||TS|rsf:gd-|-qr_nm:gd|res:RC4|com-cf:nl|ptrs:na|ktp:N0|mc:26680|mtp:S|qry_typ:P|lang:en|wc:2|cs:7538|v=4,False,Annaram,Hyderabad,"Plot No. 523/2 Dundigal Village , Medchal, Malkajgiri, Near Marri Laxman Reddy Engineering College, Annaram, Hyderabad - 500043, Dist.Hyderabad, Telangana",8046057643,
Baby Diapers 75 Pc,https://www.indiamart.com/proddetail/baby-diapers-75-pc-23564771797.html?pos=90&kwd=disposable diaper&tags=BA||||9839.57|Price|product|||TS|rsf:gd-|-qr_nm:gd|res:RC4|com-cf:nl|ptrs:na|ktp:N0|mc:26680|mtp:S|qry_typ:P|lang:en|wc:2|cs:7538|v=4,S.T.S. Traders,https://www.indiamart.com/sts-traders-kolkata/?pos=90&kwd=disposable diaper&tags=BA||||9839.57|Price|product|||TS|rsf:gd-|-qr_nm:gd|res:RC4|com-cf:nl|ptrs:na|ktp:N0|mc:26680|mtp:S|qry_typ:P|lang:en|wc:2|cs:7538|v=4,False,Gobra,Kolkata,"101- B Chittranjan Avenue 2nd Floor Flat No.3, Gobra, Kolkata - 700073, Dist.Kolkata, West Bengal",8048962268,
24-80 Stikin Adult Diapers Sticky Type,https://www.indiamart.com/proddetail/adult-diapers-sticky-type-15691716812.html?pos=91&kwd=disposable diaper&tags=BA||||8226.563|Price|product|||TS|rsf:gd-|-qr_nm:gd|res:RC4|com-cf:nl|ptrs:na|ktp:N0|mc:26680|mtp:S|qry_typ:P|lang:en|wc:2|cs:7538|v=4,Radiant Bio Science,https://www.indiamart.com/radiantbioscience/?pos=91&kwd=disposable diaper&tags=BA||||8226.563|Price|product|||TS|rsf:gd-|-qr_nm:gd|res:RC4|com-cf:nl|ptrs:na|ktp:N0|mc:26680|mtp:S|qry_typ:P|lang:en|wc:2|cs:7538|v=4,False,Sanpada,Navi Mumbai,"Shop 1, Plot 67, Behind Krishna Govind Tower Sector 22, Turbhe, Sanpada, Navi Mumbai - 400705, Dist.Thane, Maharashtra",8048617594,
Svaach Adult Diapers,https://www.indiamart.com/proddetail/svaach-adult-diapers-2853624126448.html?pos=92&kwd=disposable diaper&tags=BB||||8663.873|Price|product|||TS|rsf:gd-|-qr_nm:gd|res:RC4|com-cf:nl|ptrs:na|ktp:N0|mc:26680|mtp:S|qry_typ:P|lang:en|wc:2|cs:7538|v=4,SVK Healthcare Services,https://www.indiamart.com/svkhealthcareservice/?pos=92&kwd=disposable diaper&tags=BB||||8663.873|Price|product|||TS|rsf:gd-|-qr_nm:gd|res:RC4|com-cf:nl|ptrs:na|ktp:N0|mc:26680|mtp:S|qry_typ:P|lang:en|wc:2|cs:7538|v=4,False,Mahalakshmipuram Muneshwara Block,Bengaluru,"First Floor, No.123, 2nd Stage, 2nd Phase, 6th Main Road, Mahalakshmipuram Muneshwara Block, Bengaluru - 560086, Dist.Bengaluru, Karnataka",7949225739,
2.5 Years Cotton 75pcs Disposable Baby Diapers,https://www.indiamart.com/proddetail/75pcs-disposable-baby-diapers-2853717113791.html?pos=93&kwd=disposable diaper&tags=BA||||8752.144|Price|product|||TS|rsf:gd-|-qr_nm:gd|res:RC4|com-cf:nl|ptrs:na|ktp:N0|mc:26680|mtp:S|qry_typ:P|lang:en|wc:2|cs:7538|v=4,Sri Rajbhan Enterprises,https://www.indiamart.com/srirajbhanenterprises/?pos=93&kwd=disposable diaper&tags=BA||||8752.144|Price|product|||TS|rsf:gd-|-qr_nm:gd|res:RC4|com-cf:nl|ptrs:na|ktp:N0|mc:26680|mtp:S|qry_typ:P|lang:en|wc:2|cs:7538|v=4,False,,New Delhi,"Flat No 18, Ganga Apartment, Alaknanda, New Delhi - 110019, Dist.Delhi, Delhi",7942956951,
Cotton Disposable Diaper,https://www.indiamart.com/proddetail/disposable-diaper-2854912135212.html?pos=94&kwd=disposable diaper&tags=A||||8817.752||product|||MDC|rsf:gd-|-qr_nm:gd|res:RC4|com-cf:nl|ptrs:na|ktp:N0|mc:26680|mtp:S|qry_typ:P|lang:en|wc:2|cs:7538|v=4,Bhagwati Collection,https://www.indiamart.com/bhagwati-collection-hapur/?pos=94&kwd=disposable diaper&tags=A||||8817.752||product|||MDC|rsf:gd-|-qr_nm:gd|res:RC4|com-cf:nl|ptrs:na|ktp:N0|mc:26680|mtp:S|qry_typ:P|lang:en|wc:2|cs:7538|v=4,False,,Hapur,"Mukesh Garg, Krishna Gali, Khurja Pech Doymi Opp Ram Tent House, Hapur - 245101, Dist.Hapur, Uttar Pradesh",8041015469,
"Cotton Disposable Adult Diapers, Size: Large, Waist Size: 85mm",https://www.indiamart.com/proddetail/disposable-adult-diapers-21800102212.html?pos=95&kwd=disposable diaper&tags=A||||8876.815|Price|product|||TS|rsf:gd-|-qr_nm:gd|res:RC4|com-cf:nl|ptrs:na|ktp:N0|mc:26680|mtp:S|qry_typ:P|lang:en|wc:2|cs:7538|v=4,Smart Hygeia,https://www.indiamart.com/smarthygeia-nagpur/?pos=95&kwd=disposable diaper&tags=A||||8876.815|Price|product|||TS|rsf:gd-|-qr_nm:gd|res:RC4|com-cf:nl|ptrs:na|ktp:N0|mc:26680|mtp:S|qry_typ:P|lang:en|wc:2|cs:7538|v=4,False,Rahate Colony,Nagpur,"Block No 702, Naniks Ashtavinayak Park Avenue Nagpur Chhavni, Sadar Nagar, Rahate Colony, Nagpur - 440001, Dist.Nagpur, Maharashtra",7942566182,
Briefs Stiora Adult Diaper,https://www.indiamart.com/proddetail/stiora-adult-diaper-2850408571212.html?pos=96&kwd=disposable diaper&tags=BA||||8954.051|Price|product|||MDC|rsf:gd-|-qr_nm:gd|res:RC4|com-cf:nl|ptrs:na|ktp:N0|mc:26680|mtp:S|qry_typ:P|lang:en|wc:2|cs:7538|v=4,Forward Healthcare,https://www.indiamart.com/forwardhealthcare/?pos=96&kwd=disposable diaper&tags=BA||||8954.051|Price|product|||MDC|rsf:gd-|-qr_nm:gd|res:RC4|com-cf:nl|ptrs:na|ktp:N0|mc:26680|mtp:S|qry_typ:P|lang:en|wc:2|cs:7538|v=4,False,Nanganallur,Chennai,"no.B-75 A, Ground Floor, 6th Cross street, Hindu colony,Nanganallur,ch -61, Nanganallur, Chennai - 600061, Dist.Chennai, Tamil Nadu",7942548287,
Pull Ups Medium Adult Diaper,https://www.indiamart.com/proddetail/medium-adult-diaper-2852091377612.html?pos=97&kwd=disposable diaper&tags=A||||8663.873|Price|product|||TS|rsf:gd-|-qr_nm:gd|res:RC4|com-cf:nl|ptrs:na|ktp:N0|mc:26680|mtp:S|qry_typ:P|lang:en|wc:2|cs:7538|v=4,Wellcare Home Health Services,https://www.wellcaregroups.in/?pos=97&kwd=disposable diaper&tags=A||||8663.873|Price|product|||TS|rsf:gd-|-qr_nm:gd|res:RC4|com-cf:nl|ptrs:na|ktp:N0|mc:26680|mtp:S|qry_typ:P|lang:en|wc:2|cs:7538|v=4,False,Bapujinagar,Bengaluru,"370, First Floor, Welcare, 6th Cross, 3rd Main, New Kavika Layout, Maruthinagar, Bapujinagar, Urban, Bapujinagar, Bengaluru - 560026, Dist.Bengaluru, Karnataka",7942620555,
"Disposable Baby Diaper, Age Group: Newly Born",https://www.indiamart.com/proddetail/disposable-baby-diaper-12769162091.html?pos=98&kwd=disposable diaper&tags=A||||8559.269|Price|product|||TS|rsf:gd-|-qr_nm:gd|res:RC4|com-cf:nl|ptrs:na|ktp:N0|mc:26680|mtp:S|qry_typ:P|lang:en|wc:2|cs:7538|v=4,Madhav Overseas Corporation,https://www.madhavoverseascorporation.net/?pos=98&kwd=disposable diaper&tags=A||||8559.269|Price|product|||TS|rsf:gd-|-qr_nm:gd|res:RC4|com-cf:nl|ptrs:na|ktp:N0|mc:26680|mtp:S|qry_typ:P|lang:en|wc:2|cs:7538|v=4,False,Atal Khel Parisar Main Road,Indore,"Madhav Corporate Scheme No 78 , Sector D ,Plot No 4,, Atal Khel Parisar Main Road, Indore - 452010, Dist.Indore, Madhya Pradesh",8048980263,
"Disposable Adult Diaper, Size: XL",https://www.indiamart.com/proddetail/disposable-adult-diaper-23754551155.html?pos=99&kwd=disposable diaper&tags=A||||8752.144|Price|product|||MDC|rsf:gd-|-qr_nm:gd|res:RC4|com-cf:nl|ptrs:na|ktp:N0|mc:26680|mtp:S|qry_typ:P|lang:en|wc:2|cs:7538|v=4,Aksh Trading,https://www.indiamart.com/aksh-trading/?pos=99&kwd=disposable diaper&tags=A||||8752.144|Price|product|||MDC|rsf:gd-|-qr_nm:gd|res:RC4|com-cf:nl|ptrs:na|ktp:N0|mc:26680|mtp:S|qry_typ:P|lang:en|wc:2|cs:7538|v=4,False,Vikaspuri,New Delhi,"Flat No. 13A, CGHS Evershine Apartment, Vikash Puri, North West, Vikaspuri, New Delhi - 110018, Dist.Delhi, Delhi",7942660706,
"Disposable Cotton Adult Diaper, Size: Large",https://www.indiamart.com/proddetail/disposable-cotton-adult-diaper-2853383886773.html?pos=100&kwd=disposable diaper&tags=A||||8752.144|Price|product|||MDC|rsf:gd-|-qr_nm:gd|res:RC4|com-cf:nl|ptrs:na|ktp:N0|mc:26680|mtp:S|qry_typ:P|lang:en|wc:2|cs:7538|v=4,SW Health Care Private Limited,https://www.indiamart.com/sw-healthcare/?pos=100&kwd=disposable diaper&tags=A||||8752.144|Price|product|||MDC|rsf:gd-|-qr_nm:gd|res:RC4|com-cf:nl|ptrs:na|ktp:N0|mc:26680|mtp:S|qry_typ:P|lang:en|wc:2|cs:7538|v=4,False,Bawana,New Delhi,"Ground Floor Pocket I, Sec-4, Plot No 50, Bawana DSIDC, Near Ganga Toli Mandir, Bawana, New Delhi - 110039, Dist.Delhi, Delhi",7949224070,
Pant Type MKT Care Adult Diaper Pants / Pull-Ups : Ex Large,https://www.indiamart.com/proddetail/mkt-care-adult-diaper-pants-pull-ups-ex-large-24805300962.html?pos=101&kwd=disposable diaper&tags=BA||||8307.81|Price|product|||MDC|rsf:gd-|-qr_nm:gd|res:RC4|com-cf:nl|ptrs:na|ktp:N0|mc:26680|mtp:S|qry_typ:P|lang:en|wc:2|cs:7538|v=4,Tarmal Healthcare And Surgical,https://www.indiamart.com/tarmal-healthcaresurgical/?pos=101&kwd=disposable diaper&tags=BA||||8307.81|Price|product|||MDC|rsf:gd-|-qr_nm:gd|res:RC4|com-cf:nl|ptrs:na|ktp:N0|mc:26680|mtp:S|qry_typ:P|lang:en|wc:2|cs:7538|v=4,False,Wanowrie,Pune,"Shop No. 9, Picasso Kedari Arcade, Kedari Nagar, Wanwadi, Wanowrie, Pune - 411048, Dist.Pune, Maharashtra",8047639015,
Stick Briefs Disposable Adult Diaper,https://www.indiamart.com/proddetail/disposable-adult-diaper-22049889262.html?pos=102&kwd=disposable diaper&tags=BA||||8954.051|Price|product|||TS|rsf:gd-|-qr_nm:gd|res:RC4|com-cf:nl|ptrs:na|ktp:N0|mc:26680|mtp:S|qry_typ:P|lang:en|wc:2|cs:7538|v=4,Health Care Needs,https://www.thesurgicalproducts.com/?pos=102&kwd=disposable diaper&tags=BA||||8954.051|Price|product|||TS|rsf:gd-|-qr_nm:gd|res:RC4|com-cf:nl|ptrs:na|ktp:N0|mc:26680|mtp:S|qry_typ:P|lang:en|wc:2|cs:7538|v=4,False,Periyamet,Chennai,"New No. 273, Old No. 173, Sydenhams Road, 1st Floor, Nr. Choolai Roubtana, Periyamet, Chennai - 600003, Dist.Chennai, Tamil Nadu",8048982807,
Normal Disposable Adult Diaper,https://www.indiamart.com/proddetail/disposable-adult-diaper-22543992891.html?pos=103&kwd=disposable diaper&tags=BA||||8754.115|Price|product|||TS|rsf:gd-|-qr_nm:gd|res:RC4|com-cf:nl|ptrs:na|ktp:N0|mc:26680|mtp:S|qry_typ:P|lang:en|wc:2|cs:7538|v=4,Dnr Healthcare Private Limited,https://www.indiamart.com/dnrhealthcare/?pos=103&kwd=disposable diaper&tags=BA||||8754.115|Price|product|||TS|rsf:gd-|-qr_nm:gd|res:RC4|com-cf:nl|ptrs:na|ktp:N0|mc:26680|mtp:S|qry_typ:P|lang:en|wc:2|cs:7538|v=4,False,Sector 8,Panchkula,"Plot No. 151 Industrial Area Phase Ii phase-2, Sector 8, Panchkula - 134109, Dist.Panchkula, Haryana",8047647074,
Protective Underwear Caresome Adult Pants Diapers,https://www.indiamart.com/proddetail/caresome-adult-pants-diapers-2852883815273.html?pos=104&kwd=disposable diaper&tags=A||||8211.142|Price|product|||TS|rsf:gd-|-qr_nm:gd|res:RC4|com-cf:nl|ptrs:na|ktp:N0|mc:26680|mtp:S|qry_typ:P|lang:en|wc:2|cs:7538|v=4,S N Surgicals,https://www.indiamart.com/snsurgicals-mumbai/?pos=104&kwd=disposable diaper&tags=A||||8211.142|Price|product|||TS|rsf:gd-|-qr_nm:gd|res:RC4|com-cf:nl|ptrs:na|ktp:N0|mc:26680|mtp:S|qry_typ:P|lang:en|wc:2|cs:7538|v=4,False,Dahisar,Mumbai,"Shop No. G-16, Sai Krupa Mall, LT Road, Opp Railway Station, Dahisar West Suburban, Dahisar, Mumbai - 400068, Dist.Mumbai, Maharashtra",7942968320,
"Lyfcare Pant Type Disposable Adult Pull Up Diaper, Packaging Size: 10",https://www.indiamart.com/proddetail/disposable-adult-pull-up-diaper-25578953948.html?pos=105&kwd=disposable diaper&tags=A||||8038.093|Price|product|||TS|rsf:gd-|-qr_nm:gd|res:RC4|com-cf:nl|ptrs:na|ktp:N0|mc:26680|mtp:S|qry_typ:P|lang:en|wc:2|cs:7538|v=4,Rotech Healthcare Private Limited,https://www.lyfcareadultdiaper.com/?pos=105&kwd=disposable diaper&tags=A||||8038.093|Price|product|||TS|rsf:gd-|-qr_nm:gd|res:RC4|com-cf:nl|ptrs:na|ktp:N0|mc:26680|mtp:S|qry_typ:P|lang:en|wc:2|cs:7538|v=4,True,Near ankit ind.area,Rajkot,"Survey No.343, Plot No. 2 Rotech Healthcare pvt ltd Behind rotec submersible pumps llp, Near ankit ind.area, Rajkot - 360024, Dist.Rajkot, Gujarat",8047653782,
"Adult Diapers Medium (Unisex), Size: 76 - 101 cm",https://www.indiamart.com/proddetail/adult-diapers-medium-unisex-2850435886673.html?pos=106&kwd=disposable diaper&tags=A||||8226.563|Price|product|||TS|rsf:gd-|-qr_nm:gd|res:RC4|com-cf:nl|ptrs:na|ktp:N0|mc:26680|mtp:S|qry_typ:P|lang:en|wc:2|cs:7538|v=4,Angus Healthcare,https://www.indiamart.com/angushealthcare/?pos=106&kwd=disposable diaper&tags=A||||8226.563|Price|product|||TS|rsf:gd-|-qr_nm:gd|res:RC4|com-cf:nl|ptrs:na|ktp:N0|mc:26680|mtp:S|qry_typ:P|lang:en|wc:2|cs:7538|v=4,True,vashi,Navi Mumbai,"Off- A 4007,Pl no- 04,Sec- 19,Vashi, Navi Mumbai, vashi, Navi Mumbai - 400705, Dist.Thane, Maharashtra",7942546225,
Disposable Adult Diaper Pant,https://www.indiamart.com/proddetail/disposable-adult-diaper-pant-2854871472712.html?pos=107&kwd=disposable diaper&tags=A||||9578.697|Price|product|||MDC|rsf:gd-|-qr_nm:gd|res:RC4|com-cf:nl|ptrs:na|ktp:N0|mc:26680|mtp:S|qry_typ:P|lang:en|wc:2|cs:7538|v=4,Mahalaxmi Enterprises,https://www.indiamart.com/mahalaxmienterprises-odisha/?pos=107&kwd=disposable diaper&tags=A||||9578.697|Price|product|||MDC|rsf:gd-|-qr_nm:gd|res:RC4|com-cf:nl|ptrs:na|ktp:N0|mc:26680|mtp:S|qry_typ:P|lang:en|wc:2|cs:7538|v=4,False,Industrial Estate Khapuria,Cuttack,"Ground Floor Khata No-614/953, Plot No-2447/2267, Nuapada, Balisahi, Bali Sahi, Industrial Estate Khapuria, Cuttack - 753013, Dist.Cuttack, Odisha",7942964397,
"Kare Med Comfort Extra Large Adult Diapers Pants, 59 Inch, XL",https://www.indiamart.com/proddetail/kare-med-comfort-extra-large-disposable-adult-diapers-pants-2855071647597.html?pos=108&kwd=disposable diaper&tags=A||||8786.56|Price|product|||MDC|rsf:gd-|-qr_nm:gd|res:RC4|com-cf:nl|ptrs:na|ktp:N0|mc:26680|mtp:S|qry_typ:P|lang:en|wc:2|cs:7538|v=4,Maruthi Drugs,https://www.indiamart.com/maruthi-drugs/?pos=108&kwd=disposable diaper&tags=A||||8786.56|Price|product|||MDC|rsf:gd-|-qr_nm:gd|res:RC4|com-cf:nl|ptrs:na|ktp:N0|mc:26680|mtp:S|qry_typ:P|lang:en|wc:2|cs:7538|v=4,False,Nimboli Adda,Hyderabad,"Ground floor, 3-2-371/B, Sri Nilayam Kachiguda Road, Opposite To Priyas Aqua RO Water Solution, Nimboli Adda, Hyderabad - 500027, Dist.Hyderabad, Telangana",7949304578,
55-90 dipers Kare Med Adult Diaper with wetness Indicator Medium,https://www.indiamart.com/proddetail/kare-med-adult-diaper-with-wetness-indicator-medium-24730668555.html?pos=109&kwd=disposable diaper&tags=BA||||8228.275|Price|product|||TS|rsf:gd-|-qr_nm:gd|res:RC4|com-cf:nl|ptrs:na|ktp:N0|mc:26680|mtp:S|qry_typ:P|lang:en|wc:2|cs:7538|v=4,Classic Medical Supply,https://www.classicmedicalsupply.com/?pos=109&kwd=disposable diaper&tags=BA||||8228.275|Price|product|||TS|rsf:gd-|-qr_nm:gd|res:RC4|com-cf:nl|ptrs:na|ktp:N0|mc:26680|mtp:S|qry_typ:P|lang:en|wc:2|cs:7538|v=4,False,Bhadra,Ahmedabad,"Pragati Bank, 1 Classic Electronics, Relief Road, Ratanpur Pole, Bhadra, Ahmedabad - 380001, Dist.Ahmedabad, Gujarat",8048953386,
Total Care Adult Diaper,https://www.indiamart.com/proddetail/total-care-adult-diaper-20413445297.html?pos=110&kwd=disposable diaper&tags=BA||||8211.142|Price|product|||TS|rsf:gd-|-qr_nm:gd|res:RC4|com-cf:nl|ptrs:na|ktp:N0|mc:26680|mtp:S|qry_typ:P|lang:en|wc:2|cs:7538|v=4,Shah Trading Corporation,https://www.indiamart.com/shahtrading-corp/?pos=110&kwd=disposable diaper&tags=BA||||8211.142|Price|product|||TS|rsf:gd-|-qr_nm:gd|res:RC4|com-cf:nl|ptrs:na|ktp:N0|mc:26680|mtp:S|qry_typ:P|lang:en|wc:2|cs:7538|v=4,False,Kalbadevi,Mumbai,"Room No. 35, 2nd Floor, Shri Krishna Niwas 500, Kalbadevi Road, New Silk Bazar, Kalbadevi, Mumbai - 400002, Dist.Mumbai, Maharashtra",8046042417,
Easy Friends Adult Disposable Diaper -LARGE,https://www.indiamart.com/proddetail/easy-friends-adult-disposable-diaper-large-23845677130.html?pos=111&kwd=disposable diaper&tags=BA||||8899.625|Price|product|||TS|rsf:gd-|-qr_nm:gd|res:RC4|com-cf:nl|ptrs:na|ktp:N0|mc:26680|mtp:S|qry_typ:P|lang:en|wc:2|cs:7538|v=4,Sadhguru Surgicals Private Limited,https://www.indiamart.com/sadhguru-surgicals/?pos=111&kwd=disposable diaper&tags=BA||||8899.625|Price|product|||TS|rsf:gd-|-qr_nm:gd|res:RC4|com-cf:nl|ptrs:na|ktp:N0|mc:26680|mtp:S|qry_typ:P|lang:en|wc:2|cs:7538|v=4,False,Thirubuvanai,Pondicherry,"First Floor, 104, 4th Cross Street, Ragavendra Nagar, Thirubuvanai, Thirubuvanai, Pondicherry - 605107, Dist.Pondicherry, Pondicherry",8047645074,
Adult Diapers (KAREMED),https://www.indiamart.com/proddetail/adult-diapers-karemed-2854647305830.html?pos=112&kwd=disposable diaper&tags=BB||||8741.987|Price|product|||TS|rsf:gd-|-qr_nm:gd|res:RC4|com-cf:nl|ptrs:na|ktp:N0|mc:26680|mtp:S|qry_typ:P|lang:en|wc:2|cs:7538|v=4,Surgical Hub,https://www.indiamart.com/surgicalhub/?pos=112&kwd=disposable diaper&tags=BB||||8741.987|Price|product|||TS|rsf:gd-|-qr_nm:gd|res:RC4|com-cf:nl|ptrs:na|ktp:N0|mc:26680|mtp:S|qry_typ:P|lang:en|wc:2|cs:7538|v=4,False,,Ambala,"136 A, Phase-2, Near Dr Makkar, Jaggi Colony, Ambala - 134003, Dist.Ambala, Haryana",8043804768,
Poopy M Size Baby Dry Pants 5 pcs,https://www.indiamart.com/proddetail/poopy-m-size-baby-dry-pants-5-pcs-2850795196248.html?pos=113&kwd=disposable diaper&tags=A||||8830.388|Price|product|||MDC|rsf:gd-|-qr_nm:gd|res:RC4|com-cf:nl|ptrs:na|ktp:N0|mc:26680|mtp:S|qry_typ:P|lang:en|wc:2|cs:7538|v=4,Doubtfree Hygiene Care,https://www.indiamart.com/doubtfree-hygiene-care/?pos=113&kwd=disposable diaper&tags=A||||8830.388|Price|product|||MDC|rsf:gd-|-qr_nm:gd|res:RC4|com-cf:nl|ptrs:na|ktp:N0|mc:26680|mtp:S|qry_typ:P|lang:en|wc:2|cs:7538|v=4,False,Purani Chhawani,Gwalior,"Plot No. 49/50, Block-3,Phase-1,Tiwari Farm House, Purani Chhawani, Gwalior - 474010, Dist.Gwalior, Madhya Pradesh",8047522800,
Kare In Diapers,https://www.indiamart.com/proddetail/kare-in-diapers-2852680692997.html?pos=114&kwd=disposable diaper&tags=BA||||8954.051|Price|product|||MDC|rsf:gd-|-qr_nm:gd|res:RC4|com-cf:nl|ptrs:na|ktp:N0|mc:26680|mtp:S|qry_typ:P|lang:en|wc:2|cs:7538|v=4,Sai Pharma & Surgical,https://www.indiamart.com/sai-pharma-surgical/?pos=114&kwd=disposable diaper&tags=BA||||8954.051|Price|product|||MDC|rsf:gd-|-qr_nm:gd|res:RC4|com-cf:nl|ptrs:na|ktp:N0|mc:26680|mtp:S|qry_typ:P|lang:en|wc:2|cs:7538|v=4,False,Park Town,Chennai,"Door No. 5, Shop No. 2, Ground Floor, Issac Street, Park Town, Chennai - 600003, Dist.Chennai, Tamil Nadu",7942552194,
Unisex Adult Diaper,https://www.indiamart.com/proddetail/unisex-adult-diaper-22831355088.html?pos=115&kwd=disposable diaper&tags=BA||||8228.275|Price|product|||TS|rsf:gd-|-qr_nm:gd|res:RC4|com-cf:nl|ptrs:na|ktp:N0|mc:26680|mtp:S|qry_typ:P|lang:en|wc:2|cs:7538|v=4,Chamunda Surgical Agency,https://www.chamundasurgicalagency.com/?pos=115&kwd=disposable diaper&tags=BA||||8228.275|Price|product|||TS|rsf:gd-|-qr_nm:gd|res:RC4|com-cf:nl|ptrs:na|ktp:N0|mc:26680|mtp:S|qry_typ:P|lang:en|wc:2|cs:7538|v=4,False,Mithakhali,Ahmedabad,"9-10 - Medicare Center, Behind M.J Libary, Opp. Sanyas Ashram, Mithakhali, Ahmedabad - 380009, Dist.Ahmedabad, Gujarat",8047637438,
Plain Disposable Adult Diaper XL,https://www.indiamart.com/proddetail/disposable-adult-diaper-xl-2851886187962.html?pos=116&kwd=disposable diaper&tags=BA||||8716.212|Price|product|||MDC|rsf:gd-|-qr_nm:gd|res:RC4|com-cf:nl|ptrs:na|ktp:N0|mc:26680|mtp:S|qry_typ:P|lang:en|wc:2|cs:7538|v=4,AR Enterprises,https://www.indiamart.com/ar-enterprises-dharuhera/?pos=116&kwd=disposable diaper&tags=BA||||8716.212|Price|product|||MDC|rsf:gd-|-qr_nm:gd|res:RC4|com-cf:nl|ptrs:na|ktp:N0|mc:26680|mtp:S|qry_typ:P|lang:en|wc:2|cs:7538|v=4,False,Rewari,Dharuhera,"First Floor , 385 , Near Shiv Mandir , Sector 4A , Rewari, Rewari, Dharuhera - 123106, Dist.Rewari, Haryana",7942721074,
"Baby Disposable Diapers, Age Group: 1to2 Years, Size: XL",https://www.indiamart.com/proddetail/baby-disposable-diapers-2854915380791.html?pos=117&kwd=disposable diaper&tags=A||||8828.05|Price|product|||MDC|rsf:gd-|-qr_nm:gd|res:RC4|com-cf:nl|ptrs:na|ktp:N0|mc:26680|mtp:S|qry_typ:P|lang:en|wc:2|cs:7538|v=4,Sri Padmavathi Surgicals And Health Services,https://www.indiamart.com/sripadmavathisurgicalshealthservices/?pos=117&kwd=disposable diaper&tags=A||||8828.05|Price|product|||MDC|rsf:gd-|-qr_nm:gd|res:RC4|com-cf:nl|ptrs:na|ktp:N0|mc:26680|mtp:S|qry_typ:P|lang:en|wc:2|cs:7538|v=4,False,,Chittoor,"Ground Floor, 17-431, Sundarayya Street, Chittoor - 517001, Dist.Chittoor, Andhra Pradesh",8046046046,
80 Years Pull Ups Disposable Adult Diaper,https://www.indiamart.com/proddetail/disposable-adult-diaper-2850788361933.html?pos=118&kwd=disposable diaper&tags=BA||||8752.144|Price|product|||TS|rsf:gd-|-qr_nm:gd|res:RC4|com-cf:nl|ptrs:na|ktp:N0|mc:26680|mtp:S|qry_typ:P|lang:en|wc:2|cs:7538|v=4,Rama Enterprises,https://www.indiamart.com/rama-entprs-delhi/?pos=118&kwd=disposable diaper&tags=BA||||8752.144|Price|product|||TS|rsf:gd-|-qr_nm:gd|res:RC4|com-cf:nl|ptrs:na|ktp:N0|mc:26680|mtp:S|qry_typ:P|lang:en|wc:2|cs:7538|v=4,False,Gokalpur,New Delhi,"B-153 , Village Gokulpur , North East, Gokalpur, New Delhi - 110094, Dist.Delhi, Delhi",8047524470,
Non Woven Disposable Adult Diaper,https://www.indiamart.com/proddetail/disposable-adult-diaper-2851073760030.html?pos=119&kwd=disposable diaper&tags=BA||||8223.226|Price|product|||TS|rsf:gd-|-qr_nm:gd|res:RC4|com-cf:nl|ptrs:na|ktp:N0|mc:26680|mtp:S|qry_typ:P|lang:en|wc:2|cs:7538|v=4,Om Sairam Enterprises,https://www.omsairamsurgicalgown.com/?pos=119&kwd=disposable diaper&tags=BA||||8223.226|Price|product|||TS|rsf:gd-|-qr_nm:gd|res:RC4|com-cf:nl|ptrs:na|ktp:N0|mc:26680|mtp:S|qry_typ:P|lang:en|wc:2|cs:7538|v=4,False,Mira Road,Thane,"F 2, Sai Shraddha Chawl, Chimaji Nagar, Penkar Pada, Near Nirbha Devil Mandir, Mira Road East, Mira Road, Thane - 401107, Dist.Thane, Maharashtra",7942535057,
Disposable Adult Diaper,https://www.indiamart.com/proddetail/disposable-adult-diaper-2851493028088.html?pos=120&kwd=disposable diaper&tags=BA||||8281.036|Price|product|||TS|rsf:gd-|-qr_nm:gd|res:RC4|com-cf:nl|ptrs:na|ktp:N0|mc:26680|mtp:S|qry_typ:P|lang:en|wc:2|cs:7538|v=4,S I Surgicare,https://www.indiamart.com/si-surgicare/?pos=120&kwd=disposable diaper&tags=BA||||8281.036|Price|product|||TS|rsf:gd-|-qr_nm:gd|res:RC4|com-cf:nl|ptrs:na|ktp:N0|mc:26680|mtp:S|qry_typ:P|lang:en|wc:2|cs:7538|v=4,False,Pratham Upvan,Vadodara,"1st Floor Ff/17 Star Residency Tandalja Road, Pratham Upvan, Vadodara - 390006, Dist.Vadodara, Gujarat",7942831770,
Bio Care Disposable Adult Diaper,https://www.indiamart.com/proddetail/bio-care-disposable-adult-diaper-11142862530.html?pos=121&kwd=disposable diaper&tags=BA||||8786.56|Price|product|||TS|rsf:gd-|-qr_nm:gd|res:RC4|com-cf:nl|ptrs:na|ktp:N0|mc:26680|mtp:S|qry_typ:P|lang:en|wc:2|cs:7538|v=4,Biocare Surgical Industries,https://www.indiamart.com/biocaresurgicalindustries/?pos=121&kwd=disposable diaper&tags=BA||||8786.56|Price|product|||TS|rsf:gd-|-qr_nm:gd|res:RC4|com-cf:nl|ptrs:na|ktp:N0|mc:26680|mtp:S|qry_typ:P|lang:en|wc:2|cs:7538|v=4,False,Nagaram,Hyderabad,"Plot No. 16, 2nd Floor, dammaiguda Hyderabad Medchal, Malkajgiri, Nagaram, Hyderabad - 500062, Dist.Hyderabad, Telangana",8048957165,
Adult Diaper Pants,https://www.indiamart.com/proddetail/adult-diaper-pants-2853918272548.html?pos=122&kwd=disposable diaper&tags=A||||9301.656|Price|product|||MDC|rsf:gd-|-qr_nm:gd|res:RC4|com-cf:nl|ptrs:na|ktp:N0|mc:26680|mtp:S|qry_typ:P|lang:en|wc:2|cs:7538|v=4,Shashwat Enterprises,https://www.indiamart.com/shashwat-enterprises-varanasi/?pos=122&kwd=disposable diaper&tags=A||||9301.656|Price|product|||MDC|rsf:gd-|-qr_nm:gd|res:RC4|com-cf:nl|ptrs:na|ktp:N0|mc:26680|mtp:S|qry_typ:P|lang:en|wc:2|cs:7538|v=4,False,Mahmoorganj,Varanasi,"Shop No 11, Beriwala Market, Luxa Road, Mahmoorganj, Varanasi - 221001, Dist.Varanasi, Uttar Pradesh",7942533890,
"Disposable XXL Size Careloom Pant Style Adult Diaper, 72 Inch",https://www.indiamart.com/proddetail/xxl-size-careloom-pant-style-adult-diaper-2855070069533.html?pos=123&kwd=disposable diaper&tags=A||||8954.051|Price|product|||MDC|rsf:gd-|-qr_nm:gd|res:RC4|com-cf:nl|ptrs:na|ktp:N0|mc:26680|mtp:S|qry_typ:P|lang:en|wc:2|cs:7538|v=4,Careloom Health Care LLP,https://www.indiamart.com/careloom-health-care/?pos=123&kwd=disposable diaper&tags=A||||8954.051|Price|product|||MDC|rsf:gd-|-qr_nm:gd|res:RC4|com-cf:nl|ptrs:na|ktp:N0|mc:26680|mtp:S|qry_typ:P|lang:en|wc:2|cs:7538|v=4,False,,Chennai,"Plot No 193, Palkalai Nagar Avenue ,Palavakkam, Chennai - 600041, Dist.Chennai, Tamil Nadu",7949304995,
Disposable Adult Diaper- Uphealthy (FDA/ISO/CE Certified),https://www.indiamart.com/proddetail/disposable-adult-diaper-uphealthy-fda-iso-ce-certified-22917586391.html?pos=124&kwd=disposable diaper&tags=BA||||8774.064|Price|product|||TS|rsf:gd-|-qr_nm:gd|res:RC4|com-cf:nl|ptrs:na|ktp:N0|mc:26680|mtp:S|qry_typ:P|lang:en|wc:2|cs:7538|v=4,Logic Biomedical Technologies,https://www.indiamart.com/logicbiomedicaretechnologies/?pos=124&kwd=disposable diaper&tags=BA||||8774.064|Price|product|||TS|rsf:gd-|-qr_nm:gd|res:RC4|com-cf:nl|ptrs:na|ktp:N0|mc:26680|mtp:S|qry_typ:P|lang:en|wc:2|cs:7538|v=4,False,Chinthamani Police Colony,Tiruchirappalli,"7/ Old No. 4, Arabikula Street,, Chinthamani Police Colony, Tiruchirappalli - 620002, Dist.Tiruchirappalli, Tamil Nadu",8048954358,
"Above 60 Years Diapers Friends Easy Adult Diaper, Size: Large, 10 Pieces",https://www.indiamart.com/proddetail/friends-easy-adult-diaper-25476077362.html?pos=125&kwd=disposable diaper&tags=BA||||8584.299|Price|product|||TS|rsf:gd-|-qr_nm:gd|res:RC4|com-cf:nl|ptrs:na|ktp:N0|mc:26680|mtp:S|qry_typ:P|lang:en|wc:2|cs:7538|v=4,Sri Gokulam Surgicals,https://www.indiamart.com/sri-gokulam-surgicals/?pos=125&kwd=disposable diaper&tags=BA||||8584.299|Price|product|||TS|rsf:gd-|-qr_nm:gd|res:RC4|com-cf:nl|ptrs:na|ktp:N0|mc:26680|mtp:S|qry_typ:P|lang:en|wc:2|cs:7538|v=4,False,Central Bus Stand,Coimbatore,"205, Sastry Road, Central Bus Stand, Coimbatore - 641009, Dist.Coimbatore, Tamil Nadu",7942823895,
Seni Standard Air Adult Diaper,https://www.indiamart.com/proddetail/seni-standard-air-adult-diaper-20835389430.html?pos=126&kwd=disposable diaper&tags=BA||||8954.051||product|||TS|rsf:gd-|-qr_nm:gd|res:RC4|com-cf:nl|ptrs:na|ktp:N0|mc:26680|mtp:S|qry_typ:P|lang:en|wc:2|cs:7538|v=4,Amos Surgicals,https://www.indiamart.com/amos-health-tech/?pos=126&kwd=disposable diaper&tags=BA||||8954.051||product|||TS|rsf:gd-|-qr_nm:gd|res:RC4|com-cf:nl|ptrs:na|ktp:N0|mc:26680|mtp:S|qry_typ:P|lang:en|wc:2|cs:7538|v=4,False,,Chennai,"129/1 Arcotroad Virugambakkam, Chennai - 600092, Dist.Chennai, Tamil Nadu",8046079606,
Four40 Adult Diapers / Large Size / 10pcs PACK / Disposable Adult Diapers,https://www.indiamart.com/proddetail/four40-adult-diapers-large-size-10pcs-pack-disposable-adult-diapers-2853904734430.html?pos=127&kwd=disposable diaper&tags=BA||||8228.275|Price|product|||TS|rsf:gd-|-qr_nm:gd|res:RC4|com-cf:nl|ptrs:na|ktp:N0|mc:26680|mtp:S|qry_typ:P|lang:en|wc:2|cs:7538|v=4,Four40 Healthcare Private Limited,https://www.indiamart.com/four40-healthcare/?pos=127&kwd=disposable diaper&tags=BA||||8228.275|Price|product|||TS|rsf:gd-|-qr_nm:gd|res:RC4|com-cf:nl|ptrs:na|ktp:N0|mc:26680|mtp:S|qry_typ:P|lang:en|wc:2|cs:7538|v=4,False,Siddhapur,Ahmedabad,"401, Ashmaan Complex B/h Ganesh Plaza,, Siddhapur, Ahmedabad - 380013, Dist.Ahmedabad, Gujarat",7942843388,
White Cotton Medium Disposable Baby Diaper Pant B Garde,https://www.indiamart.com/proddetail/medium-disposable-baby-diaper-pant-2853037615433.html?pos=128&kwd=disposable diaper&tags=BA||||8785.791|Price|product|||MDC|rsf:gd-|-qr_nm:gd|res:RC4|com-cf:nl|ptrs:na|ktp:N0|mc:26680|mtp:S|qry_typ:P|lang:en|wc:2|cs:7538|v=4,Ghani Enterprises,https://www.indiamart.com/ghanienterprises/?pos=128&kwd=disposable diaper&tags=BA||||8785.791|Price|product|||MDC|rsf:gd-|-qr_nm:gd|res:RC4|com-cf:nl|ptrs:na|ktp:N0|mc:26680|mtp:S|qry_typ:P|lang:en|wc:2|cs:7538|v=4,False,,Ghaziabad,"House No-71 Chaman Colony, Islam Nagar, Ghaziabad - 201001, Dist.Ghaziabad, Uttar Pradesh",7942964362,
Disposable Adult Diaper,https://www.indiamart.com/proddetail/disposable-adult-diaper-16332297473.html?pos=129&kwd=disposable diaper&tags=BA||||8584.299|Price|product|||TS|rsf:gd-|-qr_nm:gd|res:RC4|com-cf:nl|ptrs:na|ktp:N0|mc:26680|mtp:S|qry_typ:P|lang:en|wc:2|cs:7538|v=4,Kalam Enterprises,https://www.kalament.co.in/?pos=129&kwd=disposable diaper&tags=BA||||8584.299|Price|product|||TS|rsf:gd-|-qr_nm:gd|res:RC4|com-cf:nl|ptrs:na|ktp:N0|mc:26680|mtp:S|qry_typ:P|lang:en|wc:2|cs:7538|v=4,False,Siddhapudur,Coimbatore,"No. 262 A, Ground Floor, New Siddhapudur, Siddhapudur, Coimbatore - 641044, Dist.Coimbatore, Tamil Nadu",8048981845,
"Protective Underwear Bestie Adult Diaper, Size: XL",https://www.indiamart.com/proddetail/bestie-adult-diaper-2854050742297.html?pos=130&kwd=disposable diaper&tags=BA||||8663.873|Price|product|||MDC|rsf:gd-|-qr_nm:gd|res:RC4|com-cf:nl|ptrs:na|ktp:N0|mc:26680|mtp:S|qry_typ:P|lang:en|wc:2|cs:7538|v=4,Karavali Plywoods,https://www.indiamart.com/karavaliplywoods/?pos=130&kwd=disposable diaper&tags=BA||||8663.873|Price|product|||MDC|rsf:gd-|-qr_nm:gd|res:RC4|com-cf:nl|ptrs:na|ktp:N0|mc:26680|mtp:S|qry_typ:P|lang:en|wc:2|cs:7538|v=4,False,Ramachandrapura,Bengaluru,"Shop No 1/2 4271/4, Ground Floor, 22nd Main Road Railway Parallel Road, A Block Diagonally Opp Veeranjaneta Swamy Temple, Ramachandrapura, Bengaluru - 560021, Dist.Bengaluru, Karnataka",8048268437,
10-100 Tape Type Disposable Diaper,https://www.indiamart.com/proddetail/disposable-diaper-26121603548.html?pos=131&kwd=disposable diaper&tags=BA||||8228.275|Price|product|||TS|rsf:gd-|-qr_nm:gd|res:RC4|com-cf:nl|ptrs:na|ktp:N0|mc:26680|mtp:S|qry_typ:P|lang:en|wc:2|cs:7538|v=4,Gurudev Healthcare,https://www.indiamart.com/gurudevhealthcare/?pos=131&kwd=disposable diaper&tags=BA||||8228.275|Price|product|||TS|rsf:gd-|-qr_nm:gd|res:RC4|com-cf:nl|ptrs:na|ktp:N0|mc:26680|mtp:S|qry_typ:P|lang:en|wc:2|cs:7538|v=4,False,Civil Hospital,Ahmedabad,"Shop No. 6, 464/A/5, Near Ambica Vijay Society, Opp Akshar Hotel, New Civil Road, Giridhar Nagar, Civil Hospital, Ahmedabad - 380004, Dist.Ahmedabad, Gujarat",8046053537,
Protective Underwear Disposable Adult Diaper,https://www.indiamart.com/proddetail/disposable-adult-diaper-23339294830.html?pos=132&kwd=disposable diaper&tags=BA||||8307.81|Price|product|||TS|rsf:gd-|-qr_nm:gd|res:RC4|com-cf:nl|ptrs:na|ktp:N0|mc:26680|mtp:S|qry_typ:P|lang:en|wc:2|cs:7538|v=4,Medoc Healthcare,https://www.medochealthcare.co.in/?pos=132&kwd=disposable diaper&tags=BA||||8307.81|Price|product|||TS|rsf:gd-|-qr_nm:gd|res:RC4|com-cf:nl|ptrs:na|ktp:N0|mc:26680|mtp:S|qry_typ:P|lang:en|wc:2|cs:7538|v=4,False,Baner,Pune,"S. No.-143/2, Shop No.-2, Balaji Infinity Aundh Baner Link Road, Baner, Pune - 411045, Dist.Pune, Maharashtra",8048978852,
Cotton Disposable Adult Diaper,https://www.indiamart.com/proddetail/disposable-adult-diaper-2851840686862.html?pos=133&kwd=disposable diaper&tags=BA||||9837.093|Price|product|||TS|rsf:gd-|-qr_nm:gd|res:RC4|com-cf:nl|ptrs:na|ktp:N0|mc:26680|mtp:S|qry_typ:P|lang:en|wc:2|cs:7538|v=4,Dheera Infoservices,https://www.indiamart.com/dheerainfoservices/?pos=133&kwd=disposable diaper&tags=BA||||9837.093|Price|product|||TS|rsf:gd-|-qr_nm:gd|res:RC4|com-cf:nl|ptrs:na|ktp:N0|mc:26680|mtp:S|qry_typ:P|lang:en|wc:2|cs:7538|v=4,False,Uttarpara Bazar,Uttarpara Kotrung,"24/12, Ground, K.K.D Chatterjee Street, Hooghly, Uttarpara Bazar, Uttarpara Kotrung - 712258, West Bengal",7942818965,
Briefs Disposable Adult Diaper,https://www.indiamart.com/proddetail/disposable-adult-diaper-27044434055.html?pos=134&kwd=disposable diaper&tags=BA||||8223.226||product|||TS|rsf:gd-|-qr_nm:gd|res:RC4|com-cf:nl|ptrs:na|ktp:N0|mc:26680|mtp:S|qry_typ:P|lang:en|wc:2|cs:7538|v=4,Amkay Products Private Limited,https://www.amkayproducts.net/?pos=134&kwd=disposable diaper&tags=BA||||8223.226||product|||TS|rsf:gd-|-qr_nm:gd|res:RC4|com-cf:nl|ptrs:na|ktp:N0|mc:26680|mtp:S|qry_typ:P|lang:en|wc:2|cs:7538|v=4,False,Gokhiware,Thane,"Amkay Enclave, 68, Rashmi Park Bungalow Dhumal Nagar, Waliv Road, Vasai East, Gokhiware, Thane - 401208, Dist.Thane, Maharashtra",8048969241,
"Million Disposable Baby Diapers Pants XXXL, Size: Newly Born to XL",https://www.indiamart.com/proddetail/million-disposable-baby-diapers-pants-xxxl-21733072212.html?pos=135&kwd=disposable diaper&tags=BA||||8559.269|Price|product|||TS|rsf:gd-|-qr_nm:gd|res:RC4|com-cf:nl|ptrs:na|ktp:N0|mc:26680|mtp:S|qry_typ:P|lang:en|wc:2|cs:7538|v=4,AL Arhan Trading Company,https://www.indiamart.com/al-arhan-trading-company/?pos=135&kwd=disposable diaper&tags=BA||||8559.269|Price|product|||TS|rsf:gd-|-qr_nm:gd|res:RC4|com-cf:nl|ptrs:na|ktp:N0|mc:26680|mtp:S|qry_typ:P|lang:en|wc:2|cs:7538|v=4,False,Nandlalpura,Indore,"380, Sector B, Chandan Nagar Ground Floor, Nandlalpura, Indore - 452002, Dist.Indore, Madhya Pradesh",8047635284,
Protective Underwear Adult Disposable Diaper,https://www.indiamart.com/proddetail/adult-disposable-diaper-22280964455.html?pos=136&kwd=disposable diaper&tags=BA||||8954.051|Price|product|||TS|rsf:gd-|-qr_nm:gd|res:RC4|com-cf:nl|ptrs:na|ktp:N0|mc:26680|mtp:S|qry_typ:P|lang:en|wc:2|cs:7538|v=4,Metro Surgical & Equipments,https://www.metrosurgical.co.in/?pos=136&kwd=disposable diaper&tags=BA||||8954.051|Price|product|||TS|rsf:gd-|-qr_nm:gd|res:RC4|com-cf:nl|ptrs:na|ktp:N0|mc:26680|mtp:S|qry_typ:P|lang:en|wc:2|cs:7538|v=4,False,Arumbakkam,Chennai,"No. 26/152, Maruthi Complex, Jawaharlal Nehru Salai, Arumbakkam, Chennai - 600106, Dist.Chennai, Tamil Nadu",8048956005,
Disposable Adult Diaper,https://www.indiamart.com/proddetail/disposable-adult-diaper-14800000812.html?pos=137&kwd=disposable diaper&tags=BA||||8954.051||product|||TS|rsf:gd-|-qr_nm:gd|res:RC4|com-cf:nl|ptrs:na|ktp:N0|mc:26680|mtp:S|qry_typ:P|lang:en|wc:2|cs:7538|v=4,Sidd Health Zon,https://www.oldagecarepro.com/?pos=137&kwd=disposable diaper&tags=BA||||8954.051||product|||TS|rsf:gd-|-qr_nm:gd|res:RC4|com-cf:nl|ptrs:na|ktp:N0|mc:26680|mtp:S|qry_typ:P|lang:en|wc:2|cs:7538|v=4,False,Anna Nagar,Chennai,"Ground Floor, AB 102, 104, PKS Arcade, 4th Avenue, Shanthi Colony, Nandhiniee Sweets, Anna Nagar, Anna Nagar, Chennai - 600040, Dist.Chennai, Tamil Nadu",8048986713,
Disposable Adult Diaper,https://www.indiamart.com/proddetail/disposable-adult-diaper-2853152841230.html?pos=138&kwd=disposable diaper&tags=BA||||8038.093||product|||TS|rsf:gd-|-qr_nm:gd|res:RC4|com-cf:nl|ptrs:na|ktp:N0|mc:26680|mtp:S|qry_typ:P|lang:en|wc:2|cs:7538|v=4,Apple Pharma,https://www.indiamart.com/applepharma/?pos=138&kwd=disposable diaper&tags=BA||||8038.093||product|||TS|rsf:gd-|-qr_nm:gd|res:RC4|com-cf:nl|ptrs:na|ktp:N0|mc:26680|mtp:S|qry_typ:P|lang:en|wc:2|cs:7538|v=4,False,Darashan Park,Rajkot,"1, UNIQUE SHOPPING CENTER,GROUND FLOOR, Near Astron Sardarnagar Main Road, Everest Complexes, Darashan Park, Rajkot - 360005, Dist.Rajkot, Gujarat",8047647421,
Adults Protective Underwear Disposable Adult Diaper,https://www.indiamart.com/proddetail/disposable-adult-diaper-2851741828073.html?pos=139&kwd=disposable diaper&tags=BA||||8752.144|Price|product|||TS|rsf:gd-|-qr_nm:gd|res:RC4|com-cf:nl|ptrs:na|ktp:N0|mc:26680|mtp:S|qry_typ:P|lang:en|wc:2|cs:7538|v=4,Wellcare Healthcare,https://www.wellcareindia.in/?pos=139&kwd=disposable diaper&tags=BA||||8752.144|Price|product|||TS|rsf:gd-|-qr_nm:gd|res:RC4|com-cf:nl|ptrs:na|ktp:N0|mc:26680|mtp:S|qry_typ:P|lang:en|wc:2|cs:7538|v=4,False,Nangloi Saiyed,New Delhi,"First Floor Shop No. 43 CSC , Pocket GH5 And 7, Zone G 17 DDA Market Paschim Vihar, Nangloi Saiyed, New Delhi - 110087, Dist.Delhi, Delhi",8047656066,
"Pant Cotton Disposable Adult Diaper, Size: Xxl",https://www.indiamart.com/proddetail/disposable-adult-diaper-11674890212.html?pos=140&kwd=disposable diaper&tags=BA||||8228.275|Price|product|||TS|rsf:gd-|-qr_nm:gd|res:RC4|com-cf:nl|ptrs:na|ktp:N0|mc:26680|mtp:S|qry_typ:P|lang:en|wc:2|cs:7538|v=4,Future Medisurgico,https://www.indiamart.com/futuremedisurgico/?pos=140&kwd=disposable diaper&tags=BA||||8228.275|Price|product|||TS|rsf:gd-|-qr_nm:gd|res:RC4|com-cf:nl|ptrs:na|ktp:N0|mc:26680|mtp:S|qry_typ:P|lang:en|wc:2|cs:7538|v=4,False,Ghatlodiya,Ahmedabad,"FF/18, Vishwash City 2, Near Pramukh Nagar Ghatlodiya, Ghatlodiya, Ahmedabad - 380061, Dist.Ahmedabad, Gujarat",8046057853,
"Strap,Pull-up Pull Ups Disposable Adult Diaper",https://www.indiamart.com/proddetail/disposable-adult-diaper-8728297973.html?pos=141&kwd=disposable diaper&tags=BA||||8954.051|Price|product|||TS|rsf:gd-|-qr_nm:gd|res:RC4|com-cf:nl|ptrs:na|ktp:N0|mc:26680|mtp:S|qry_typ:P|lang:en|wc:2|cs:7538|v=4,Auro Mira Medi Aids,https://www.indiamart.com/auromiramediaids/?pos=141&kwd=disposable diaper&tags=BA||||8954.051|Price|product|||TS|rsf:gd-|-qr_nm:gd|res:RC4|com-cf:nl|ptrs:na|ktp:N0|mc:26680|mtp:S|qry_typ:P|lang:en|wc:2|cs:7538|v=4,False,Adyar,Chennai,"New No. 36, Old No. 32, Shriram Nagar Main Road, Adyar, Chennai - 600113, Dist.Chennai, Tamil Nadu",8048988682,
Disposable Diaper Adult,https://www.indiamart.com/proddetail/disposable-diaper-adult-25566259730.html?pos=142&kwd=disposable diaper&tags=BA||||8752.144|Price|product|||TS|rsf:gd-|-qr_nm:gd|res:RC4|com-cf:nl|ptrs:na|ktp:N0|mc:26680|mtp:S|qry_typ:P|lang:en|wc:2|cs:7538|v=4,M/S Sterikare,https://www.indiamart.com/sterikare/?pos=142&kwd=disposable diaper&tags=BA||||8752.144|Price|product|||TS|rsf:gd-|-qr_nm:gd|res:RC4|com-cf:nl|ptrs:na|ktp:N0|mc:26680|mtp:S|qry_typ:P|lang:en|wc:2|cs:7538|v=4,False,Shahdara,New Delhi,"181/A3, Street No.15, Bhola Nath Nagar, Shahdara North East, Shahdara, New Delhi - 110032, Dist.Delhi, Delhi",8047308277,
Briefs Disposable Adult Diaper,https://www.indiamart.com/proddetail/disposable-adult-diaper-2850556645091.html?pos=143&kwd=disposable diaper&tags=BA||||8778.123|Price|product|||TS|rsf:gd-|-qr_nm:gd|res:RC4|com-cf:nl|ptrs:na|ktp:N0|mc:26680|mtp:S|qry_typ:P|lang:en|wc:2|cs:7538|v=4,Healoxy Private Limited,https://www.healoxyindia.in/?pos=143&kwd=disposable diaper&tags=BA||||8778.123|Price|product|||TS|rsf:gd-|-qr_nm:gd|res:RC4|com-cf:nl|ptrs:na|ktp:N0|mc:26680|mtp:S|qry_typ:P|lang:en|wc:2|cs:7538|v=4,False,Sector 35,Noida,"Sec 35, SHOP NO 1, PRADHAN MARKET, Morna, Gautam Buddha Nagar, Sector 35, Noida - 201307, Dist.Gautam Budh Nagar, Uttar Pradesh",7942804612,
PEARSONS Disposable Adult Diaper,https://www.indiamart.com/proddetail/disposable-adult-diaper-19748184773.html?pos=144&kwd=disposable diaper&tags=BB||||8813.969||product|||TS|rsf:gd-|-qr_nm:gd|res:RC4|com-cf:nl|ptrs:na|ktp:N0|mc:26680|mtp:S|qry_typ:P|lang:en|wc:2|cs:7538|v=4,Pearsons Healthcare Products,https://www.indiamart.com/pearsonshealthcareproducts/?pos=144&kwd=disposable diaper&tags=BB||||8813.969||product|||TS|rsf:gd-|-qr_nm:gd|res:RC4|com-cf:nl|ptrs:na|ktp:N0|mc:26680|mtp:S|qry_typ:P|lang:en|wc:2|cs:7538|v=4,False,Kalyan Nagar,Meerut,"1st Floor, 5A, Garh Road Murari Puram, Kalyan Nagar, Meerut - 250002, Dist.Meerut, Uttar Pradesh",8047696443,
Cotton Disposable Baby Diapers,https://www.indiamart.com/proddetail/disposable-baby-diapers-2852423072062.html?pos=145&kwd=disposable diaper&tags=BA||||9110.092|Price|product|||TS|rsf:gd-|-qr_nm:gd|res:RC4|com-cf:nl|ptrs:na|ktp:N0|mc:26680|mtp:S|qry_typ:P|lang:en|wc:2|cs:7538|v=4,Utkarsh Health Care,https://www.indiamart.com/utkarshhealthcare/?pos=145&kwd=disposable diaper&tags=BA||||9110.092|Price|product|||TS|rsf:gd-|-qr_nm:gd|res:RC4|com-cf:nl|ptrs:na|ktp:N0|mc:26680|mtp:S|qry_typ:P|lang:en|wc:2|cs:7538|v=4,False,Mahona,Lucknow,"Village Saraiya, Pargana Mahona, Baksi Ka Talab,, Mahona, Lucknow - 226203, Dist.Lucknow, Uttar Pradesh",7942865345,
"Disposable Baby Diapers, Age Group: 3-12 Months",https://www.indiamart.com/proddetail/disposable-baby-diapers-2852825263355.html?pos=146&kwd=disposable diaper&tags=BA||||8482.679|Price|product|||TS|rsf:gd-|-qr_nm:gd|res:RC4|com-cf:nl|ptrs:na|ktp:N0|mc:26680|mtp:S|qry_typ:P|lang:en|wc:2|cs:7538|v=4,On The Spot Infra.,https://www.indiamart.com/onthe-spotinfra/?pos=146&kwd=disposable diaper&tags=BA||||8482.679|Price|product|||TS|rsf:gd-|-qr_nm:gd|res:RC4|com-cf:nl|ptrs:na|ktp:N0|mc:26680|mtp:S|qry_typ:P|lang:en|wc:2|cs:7538|v=4,False,Bangrod,Ratlam,"Bangrod, Bangrod, Ratlam - 457001, Dist.Ratlam, Madhya Pradesh",7942559398,
Pull Ups Disposable Adult Diaper,https://www.indiamart.com/proddetail/disposable-adult-diaper-2851923133573.html?pos=147&kwd=disposable diaper&tags=BA||||8211.142|Price|product|||TS|rsf:gd-|-qr_nm:gd|res:RC4|com-cf:nl|ptrs:na|ktp:N0|mc:26680|mtp:S|qry_typ:P|lang:en|wc:2|cs:7538|v=4,Star Industries,https://www.indiamart.com/star-industries-maharashtra-mumbai/?pos=147&kwd=disposable diaper&tags=BA||||8211.142|Price|product|||TS|rsf:gd-|-qr_nm:gd|res:RC4|com-cf:nl|ptrs:na|ktp:N0|mc:26680|mtp:S|qry_typ:P|lang:en|wc:2|cs:7538|v=4,False,Ghodbunder,Mumbai,"Room No 8,Lalmani Building,Bhuleshwar Atmaram Merchant Road, Ghodbunder, Mumbai - 400002, Dist.Mumbai, Maharashtra",8047630527,
"30-60 Cotton Disposable Diaper M, Size: Medium",https://www.indiamart.com/proddetail/disposable-diaper-m-24751290055.html?pos=148&kwd=disposable diaper&tags=BA||||8663.873|Price|product|||TS|rsf:gd-|-qr_nm:gd|res:RC4|com-cf:nl|ptrs:na|ktp:N0|mc:26680|mtp:S|qry_typ:P|lang:en|wc:2|cs:7538|v=4,Surya Speciality Pharma,https://www.indiamart.com/suryaspecialitypharma/?pos=148&kwd=disposable diaper&tags=BA||||8663.873|Price|product|||TS|rsf:gd-|-qr_nm:gd|res:RC4|com-cf:nl|ptrs:na|ktp:N0|mc:26680|mtp:S|qry_typ:P|lang:en|wc:2|cs:7538|v=4,False,Kumaraswamy Layout,Bengaluru,"Ground Floor, No 33, Surya Speciality Pharma, 14th Main, Kumaraswamy Layout, 1st Stage, Kumaraswamy Layout, Bengaluru - 560078, Dist.Bengaluru, Karnataka",7942545026,
Disposable Adult Diaper,https://www.indiamart.com/proddetail/disposable-adult-diaper-2853277648830.html?pos=149&kwd=disposable diaper&tags=BA||||8860.933||product|||TS|rsf:gd-|-qr_nm:gd|res:RC4|com-cf:nl|ptrs:na|ktp:N0|mc:26680|mtp:S|qry_typ:P|lang:en|wc:2|cs:7538|v=4,Agarwal Enterprises,https://www.agarwalenterprises.in/?pos=149&kwd=disposable diaper&tags=BA||||8860.933||product|||TS|rsf:gd-|-qr_nm:gd|res:RC4|com-cf:nl|ptrs:na|ktp:N0|mc:26680|mtp:S|qry_typ:P|lang:en|wc:2|cs:7538|v=4,False,Ballupur,Dehradun,"1428 1429, GMS Road, Mauza Kanwali Behind Kritika Store, Kanwali, Ballupur, Dehradun - 248001, Dist.Dehradun, Uttarakhand",7942548712,
"Adults Disposable Adult Diaper, Size: M",https://www.indiamart.com/proddetail/disposable-adult-diaper-4707156912.html?pos=150&kwd=disposable diaper&tags=BA||||8663.873|Price|product|||TS|rsf:gd-|-qr_nm:gd|res:RC4|com-cf:nl|ptrs:na|ktp:N0|mc:26680|mtp:S|qry_typ:P|lang:en|wc:2|cs:7538|v=4,Exigo International Private Limited,https://www.exigointernational.in/?pos=150&kwd=disposable diaper&tags=BA||||8663.873|Price|product|||TS|rsf:gd-|-qr_nm:gd|res:RC4|com-cf:nl|ptrs:na|ktp:N0|mc:26680|mtp:S|qry_typ:P|lang:en|wc:2|cs:7538|v=4,False,Nayandahalli,Bengaluru,"NO. 31-32,FLOWER GARDEN,OPP BHEL FACTORY,,MYSORE ROAD, Nayandahalli, Bengaluru - 560026, Dist.Bengaluru, Karnataka",8047671942,
"Pull Ups Non Woven Disposable Adult Diaper, Size: Large, Waist Size: 41''-54''",https://www.indiamart.com/proddetail/disposable-adult-diaper-18748726388.html?pos=151&kwd=disposable diaper&tags=BA||||8307.81|Price|product|||TS|rsf:gd-|-qr_nm:gd|res:RC4|com-cf:nl|ptrs:na|ktp:N0|mc:26680|mtp:S|qry_typ:P|lang:en|wc:2|cs:7538|v=4,Namo Pharma,https://www.namopharma.net/?pos=151&kwd=disposable diaper&tags=BA||||8307.81|Price|product|||TS|rsf:gd-|-qr_nm:gd|res:RC4|com-cf:nl|ptrs:na|ktp:N0|mc:26680|mtp:S|qry_typ:P|lang:en|wc:2|cs:7538|v=4,False,Shukrawar Peth,Pune,"Shop No. 2, Krishna Complex Towards Sadashiv Peth, Shukrawar Peth, Pune - 411002, Dist.Pune, Maharashtra",8046030868,
12-100 Years VARSHA Disposable Adult Diaper,https://www.indiamart.com/proddetail/varsha-disposable-adult-diaper-25574342697.html?pos=152&kwd=disposable diaper&tags=BB||||9839.57|Price|product|||TS|rsf:gd-|-qr_nm:gd|res:RC4|com-cf:nl|ptrs:na|ktp:N0|mc:26680|mtp:S|qry_typ:P|lang:en|wc:2|cs:7538|v=4,Varsha Fashions,https://www.indiamart.com/varshafashions/?pos=152&kwd=disposable diaper&tags=BB||||9839.57|Price|product|||TS|rsf:gd-|-qr_nm:gd|res:RC4|com-cf:nl|ptrs:na|ktp:N0|mc:26680|mtp:S|qry_typ:P|lang:en|wc:2|cs:7538|v=4,False,Machua,Kolkata,"170A & 170B, Room No. 4 B2, 4th Floor Chittranjan Avenue, Machua, Kolkata - 700007, Dist.Kolkata, West Bengal",8046043605,
"Used For Babies Nonwoven Small Disposable Baby Diaper, Age Group: Upto 12 Months, Packaging Size: 70 Pieces",https://www.indiamart.com/proddetail/small-disposable-baby-diaper-2849548257991.html?pos=153&kwd=disposable diaper&tags=BA||||8559.269|Price|product|||TS|rsf:gd-|-qr_nm:gd|res:RC4|com-cf:nl|ptrs:na|ktp:N0|mc:26680|mtp:S|qry_typ:P|lang:en|wc:2|cs:7538|v=4,HZ Enterprises,https://www.indiamart.com/hz-enterprises-madhyapradesh/?pos=153&kwd=disposable diaper&tags=BA||||8559.269|Price|product|||TS|rsf:gd-|-qr_nm:gd|res:RC4|com-cf:nl|ptrs:na|ktp:N0|mc:26680|mtp:S|qry_typ:P|lang:en|wc:2|cs:7538|v=4,False,Sudama Nagar,Indore,"2, Manikbag Road, Sudama Nagar, Indore - 452009, Dist.Indore, Madhya Pradesh",7942791847,
Disposable Diaper,https://www.indiamart.com/proddetail/disposable-diaper-2854033335188.html?pos=154&kwd=disposable diaper&tags=BA||||8550.327|Price|product|||MDC|rsf:gd-|-qr_nm:gd|res:RC4|com-cf:nl|ptrs:na|ktp:N0|mc:26680|mtp:S|qry_typ:P|lang:en|wc:2|cs:7538|v=4,Janiz Medical Establishment,https://www.indiamart.com/janiz-medical-establishment/?pos=154&kwd=disposable diaper&tags=BA||||8550.327|Price|product|||MDC|rsf:gd-|-qr_nm:gd|res:RC4|com-cf:nl|ptrs:na|ktp:N0|mc:26680|mtp:S|qry_typ:P|lang:en|wc:2|cs:7538|v=4,False,Palakkad,Palakkad,"4/854, Nedukanni Bank Road, Alathur, Palakkad, Palakkad - 678541, Dist.Palakkad, Kerala",8044011456,
Disposable Diaper,https://www.indiamart.com/proddetail/disposable-diaper-2853561135248.html?pos=155&kwd=disposable diaper&tags=BA||||8788.382||product|||MDC|rsf:gd-|-qr_nm:gd|res:RC4|com-cf:nl|ptrs:na|ktp:N0|mc:26680|mtp:S|qry_typ:P|lang:en|wc:2|cs:7538|v=4,Scientific Supplies Corporation,https://www.indiamart.com/scientific-supplies-corporation/?pos=155&kwd=disposable diaper&tags=BA||||8788.382||product|||MDC|rsf:gd-|-qr_nm:gd|res:RC4|com-cf:nl|ptrs:na|ktp:N0|mc:26680|mtp:S|qry_typ:P|lang:en|wc:2|cs:7538|v=4,False,Gamma 1,Greater Noida,"Shop No. 63, Jagat Plaza 2, Jagat Farm, Sector Gamma 1, Gamma 1, Greater Noida - 201308, Dist.Gautam Budh Nagar, Uttar Pradesh",7948548083,
"Relaxed Disposable Adult Diapers, Waist Size: 80-150 cm, Large",https://www.indiamart.com/proddetail/disposable-adult-diapers-11552294091.html?pos=156&kwd=disposable diaper&tags=BA||||8752.144|Price|product|||TS|rsf:gd-|-qr_nm:gd|res:RC4|com-cf:nl|ptrs:na|ktp:N0|mc:26680|mtp:S|qry_typ:P|lang:en|wc:2|cs:7538|v=4,Menka Enterprises,https://www.indiamart.com/menka-enterprises/?pos=156&kwd=disposable diaper&tags=BA||||8752.144|Price|product|||TS|rsf:gd-|-qr_nm:gd|res:RC4|com-cf:nl|ptrs:na|ktp:N0|mc:26680|mtp:S|qry_typ:P|lang:en|wc:2|cs:7538|v=4,False,Bawana,New Delhi,"N-275, Sector 1, Bawana Industrial Area, Bawana, New Delhi - 110039, Dist.Delhi, Delhi",8047644299,
Cotton Disposable Baby Diapers,https://www.indiamart.com/proddetail/disposable-baby-diapers-2850963472888.html?pos=157&kwd=disposable diaper&tags=BA||||8785.791|Price|product|||TS|rsf:gd-|-qr_nm:gd|res:RC4|com-cf:nl|ptrs:na|ktp:N0|mc:26680|mtp:S|qry_typ:P|lang:en|wc:2|cs:7538|v=4,Kshristi Enterprises,https://www.indiamart.com/kshristi-enterprises/?pos=157&kwd=disposable diaper&tags=BA||||8785.791|Price|product|||TS|rsf:gd-|-qr_nm:gd|res:RC4|com-cf:nl|ptrs:na|ktp:N0|mc:26680|mtp:S|qry_typ:P|lang:en|wc:2|cs:7538|v=4,False,Sahibabad,Ghaziabad,"S 57 Harsha campound mohan nagar industrial area Ghaziabad Uttar Pradesh, Sahibabad, Ghaziabad - 201005, Dist.Ghaziabad, Uttar Pradesh",8046078120,
Adult Diaper,https://www.indiamart.com/proddetail/adult-diaper-9795068588.html?pos=158&kwd=disposable diaper&tags=BA||||8876.815|Price|product|||TS|rsf:gd-|-qr_nm:gd|res:RC4|com-cf:nl|ptrs:na|ktp:N0|mc:26680|mtp:S|qry_typ:P|lang:en|wc:2|cs:7538|v=4,Bms Meditron (i),https://www.indiamart.com/bmsmeditron/?pos=158&kwd=disposable diaper&tags=BA||||8876.815|Price|product|||TS|rsf:gd-|-qr_nm:gd|res:RC4|com-cf:nl|ptrs:na|ktp:N0|mc:26680|mtp:S|qry_typ:P|lang:en|wc:2|cs:7538|v=4,False,Lakadganj,Nagpur,"Plot No. 563-564, Near Rahate Hospital, Opp. Heera Plaza, Central Avenue, Lakadganj, Nagpur - 440008, Dist.Nagpur, Maharashtra",8046071050,
"Stick Pant Diapers Unisex Elduro Adult Diaper, Size: Large, Packaging Type: Packet",https://www.indiamart.com/proddetail/elduro-adult-diaper-21828111891.html?pos=159&kwd=disposable diaper&tags=BB||||9140.514|Price|product|||TS|rsf:gd-|-qr_nm:gd|res:RC4|com-cf:nl|ptrs:na|ktp:N0|mc:26680|mtp:S|qry_typ:P|lang:en|wc:2|cs:7538|v=4,H M Traders,https://www.hmtradersryp.com/?pos=159&kwd=disposable diaper&tags=BB||||9140.514|Price|product|||TS|rsf:gd-|-qr_nm:gd|res:RC4|com-cf:nl|ptrs:na|ktp:N0|mc:26680|mtp:S|qry_typ:P|lang:en|wc:2|cs:7538|v=4,False,Bajinath Para,Raipur,"Royal Complex, Nayapara, Sadar Bazar, Bajinath Para, Raipur - 492001, Chhattisgarh",7942549642,
Multicolor Flexographic Adult Diaper Packaging,https://www.indiamart.com/proddetail/adult-diaper-packaging-15338694630.html?pos=160&kwd=disposable diaper&tags=BB||||8752.144|Price|product|||TS|rsf:gd-|-qr_nm:gd|res:RC4|com-cf:nl|ptrs:na|ktp:N0|mc:26680|mtp:S|qry_typ:P|lang:en|wc:2|cs:7538|v=4,OM FLEX (INDIA),https://www.omflex.net/?pos=160&kwd=disposable diaper&tags=BB||||8752.144|Price|product|||TS|rsf:gd-|-qr_nm:gd|res:RC4|com-cf:nl|ptrs:na|ktp:N0|mc:26680|mtp:S|qry_typ:P|lang:en|wc:2|cs:7538|v=4,False,Okhla Industrial Estate,New Delhi,"B-196, Phase 1, Okhla Industrial Estate, New Delhi - 110020, Dist.Delhi, Delhi",8048967852,
Protective Underwear Large Adult Diaper,https://www.indiamart.com/proddetail/large-adult-diaper-22794076833.html?pos=161&kwd=disposable diaper&tags=BB||||8663.873|Price|product|||TS|rsf:gd-|-qr_nm:gd|res:RC4|com-cf:nl|ptrs:na|ktp:N0|mc:26680|mtp:S|qry_typ:P|lang:en|wc:2|cs:7538|v=4,Patil Pharmaceuticals,https://www.patilpharmaceuticals.com/?pos=161&kwd=disposable diaper&tags=BB||||8663.873|Price|product|||TS|rsf:gd-|-qr_nm:gd|res:RC4|com-cf:nl|ptrs:na|ktp:N0|mc:26680|mtp:S|qry_typ:P|lang:en|wc:2|cs:7538|v=4,False,Kirloskar Colony,Bengaluru,"No.13, 4th Cross, 2nd Main Kirloskar Colony, Kurubarahalli, Kirloskar Colony, Bengaluru - 560079, Dist.Bengaluru, Karnataka",8048983890,
Adult Diaper Large,https://www.indiamart.com/proddetail/adult-diaper-large-2850483612612.html?pos=162&kwd=disposable diaper&tags=BA||||8559.269|Price|product|||TS|rsf:gd-|-qr_nm:gd|res:RC4|com-cf:nl|ptrs:na|ktp:N0|mc:26680|mtp:S|qry_typ:P|lang:en|wc:2|cs:7538|v=4,Saify Traders,https://www.saifygroup.com/?pos=162&kwd=disposable diaper&tags=BA||||8559.269|Price|product|||TS|rsf:gd-|-qr_nm:gd|res:RC4|com-cf:nl|ptrs:na|ktp:N0|mc:26680|mtp:S|qry_typ:P|lang:en|wc:2|cs:7538|v=4,False,Gadi Adda,Indore,"14/1 - Gali No.1 Dawa Bazaar R.N.T Marg, Gadi Adda, Indore - 452001, Dist.Indore, Madhya Pradesh",8048967969,
"Open Prestige Adult Diapers, Size: M",https://www.indiamart.com/proddetail/prestige-adult-diapers-2850969200248.html?pos=163&kwd=disposable diaper&tags=BA||||9110.092|Price|product|||TS|rsf:gd-|-qr_nm:gd|res:RC4|com-cf:nl|ptrs:na|ktp:N0|mc:26680|mtp:S|qry_typ:P|lang:en|wc:2|cs:7538|v=4,Sunshine Health Care India,https://www.indiamart.com/sunshinehealthcareindia/?pos=163&kwd=disposable diaper&tags=BA||||9110.092|Price|product|||TS|rsf:gd-|-qr_nm:gd|res:RC4|com-cf:nl|ptrs:na|ktp:N0|mc:26680|mtp:S|qry_typ:P|lang:en|wc:2|cs:7538|v=4,False,Chinhat,Lucknow,"302, Shakti Heights Face-2, Malhaur Road, Chinhat, Chinhat, Lucknow - 226028, Dist.Lucknow, Uttar Pradesh",8046068776,
Superdry Adult Diaper,https://www.indiamart.com/proddetail/superdry-adult-diaper-22864510788.html?pos=164&kwd=disposable diaper&tags=BA||||8281.036|Price|product|||TS|rsf:gd-|-qr_nm:gd|res:RC4|com-cf:nl|ptrs:na|ktp:N0|mc:26680|mtp:S|qry_typ:P|lang:en|wc:2|cs:7538|v=4,Dr.AMS Healthcare,https://www.indiamart.com/drams-healthcare/?pos=164&kwd=disposable diaper&tags=BA||||8281.036|Price|product|||TS|rsf:gd-|-qr_nm:gd|res:RC4|com-cf:nl|ptrs:na|ktp:N0|mc:26680|mtp:S|qry_typ:P|lang:en|wc:2|cs:7538|v=4,True,Samwad,Vadodara,"Factory:14, Kishan Estate near manek estate thakor way bridge opp Kumar glass, Samwad, Vadodara - 390006, Dist.Vadodara, Gujarat",8047642774,
Dignity Adult Diaper,https://www.indiamart.com/proddetail/dignity-adult-diaper-20578200948.html?pos=165&kwd=disposable diaper&tags=BA||||8786.56|Price|product|||TS|rsf:gd-|-qr_nm:gd|res:RC4|com-cf:nl|ptrs:na|ktp:N0|mc:26680|mtp:S|qry_typ:P|lang:en|wc:2|cs:7538|v=4,Rxshopy India Private Limited,https://www.rxshopysurgicals.com/?pos=165&kwd=disposable diaper&tags=BA||||8786.56|Price|product|||TS|rsf:gd-|-qr_nm:gd|res:RC4|com-cf:nl|ptrs:na|ktp:N0|mc:26680|mtp:S|qry_typ:P|lang:en|wc:2|cs:7538|v=4,False,Punjagutta,Hyderabad,"Plot No - 34, 1st Floor, East Srinivasa Nagar Colony, Opp to Sr Hanuman Temple, SR Nagar, Hyderabad. SR Nagar, Punjagutta, Hyderabad - 500082, Dist.Hyderabad, Telangana",8047640054,
"Cotton Disposable Dry Safe Diaper, Age Group: ADULT, Packaging Size: 10 Pcs in A Poly Bag Pack",https://www.indiamart.com/proddetail/dry-safe-diaper-25561416933.html?pos=166&kwd=disposable diaper&tags=BA||||8230.883||product|||TS|rsf:gd-|-qr_nm:gd|res:RC4|com-cf:nl|ptrs:na|ktp:N0|mc:26680|mtp:S|qry_typ:P|lang:en|wc:2|cs:7538|v=4,Tvadartham Industries,https://www.tvadarthamindustries.com/?pos=166&kwd=disposable diaper&tags=BA||||8230.883||product|||TS|rsf:gd-|-qr_nm:gd|res:RC4|com-cf:nl|ptrs:na|ktp:N0|mc:26680|mtp:S|qry_typ:P|lang:en|wc:2|cs:7538|v=4,False,Dimond Park,Surat,"191, 2nd Floor, Vardhaman Society, Shyamham Chowk, Nana Varachha, Dimond Park, Surat - 395006, Dist.Surat, Gujarat",8048969812,
Adult Diaper Karemed,https://www.indiamart.com/proddetail/adult-diaper-karemed-22556594055.html?pos=167&kwd=disposable diaper&tags=BA||||9572.14|Price|product|||TS|rsf:gd-|-qr_nm:gd|res:RC4|com-cf:nl|ptrs:na|ktp:N0|mc:26680|mtp:S|qry_typ:P|lang:en|wc:2|cs:7538|v=4,Kalinga Biomedical,https://www.kalingabiomedical.in/?pos=167&kwd=disposable diaper&tags=BA||||9572.14|Price|product|||TS|rsf:gd-|-qr_nm:gd|res:RC4|com-cf:nl|ptrs:na|ktp:N0|mc:26680|mtp:S|qry_typ:P|lang:en|wc:2|cs:7538|v=4,False,Jagamara,Bhubaneswar,"Plot No-522/2389,Jagamara Mallick Complex,Lane-2,Infront of Klove Hotel, Jagamara, Bhubaneswar - 751030, Dist.Khorda, Odisha",7942558347,
"Superdry Adult Diaper, Waist Size: 28-57 inch",https://www.indiamart.com/proddetail/superdry-adult-diaper-21797454597.html?pos=168&kwd=disposable diaper&tags=BB||||8752.144|Price|product|||TS|rsf:gd-|-qr_nm:gd|res:RC4|com-cf:nl|ptrs:na|ktp:N0|mc:26680|mtp:S|qry_typ:P|lang:en|wc:2|cs:7538|v=4,Essone Global,https://www.indiamart.com/essoneglobal/?pos=168&kwd=disposable diaper&tags=BB||||8752.144|Price|product|||TS|rsf:gd-|-qr_nm:gd|res:RC4|com-cf:nl|ptrs:na|ktp:N0|mc:26680|mtp:S|qry_typ:P|lang:en|wc:2|cs:7538|v=4,False,Bawana,New Delhi,"M-117, Sector 1 Bawana Industrial Area, Bawana, New Delhi - 110039, Dist.Delhi, Delhi",7942553260,
"Protective Underwear Disposable Adult Diaper, Size: Xxl",https://www.indiamart.com/proddetail/disposable-adult-diaper-2852154803248.html?pos=169&kwd=disposable diaper&tags=BA||||8457.459|Price|product|||MDC|rsf:gd-|-qr_nm:gd|res:RC4|com-cf:nl|ptrs:na|ktp:N0|mc:26680|mtp:S|qry_typ:P|lang:en|wc:2|cs:7538|v=4,Real Care,https://www.indiamart.com/realcare-kerala/?pos=169&kwd=disposable diaper&tags=BA||||8457.459|Price|product|||MDC|rsf:gd-|-qr_nm:gd|res:RC4|com-cf:nl|ptrs:na|ktp:N0|mc:26680|mtp:S|qry_typ:P|lang:en|wc:2|cs:7538|v=4,False,Mumbra,Kozhikode,"Tp/9/171 H Grace Apartment, Real Care Tech, Thamarassery, Thamarassery,, Mumbra, Kozhikode - 673573, Dist.Kozhikode, Kerala",7942867820,
"Cotton With Gel Disposable Baby Diaper, Age Group: 3-12 Months",https://www.indiamart.com/proddetail/disposable-baby-diaper-20973819791.html?pos=170&kwd=disposable diaper&tags=BA||||8752.144|Price|product|||MDC|rsf:gd-|-qr_nm:gd|res:RC4|com-cf:nl|ptrs:na|ktp:N0|mc:26680|mtp:S|qry_typ:P|lang:en|wc:2|cs:7538|v=4,Balaji Entreprise,https://www.indiamart.com/balaji-entreprise/?pos=170&kwd=disposable diaper&tags=BA||||8752.144|Price|product|||MDC|rsf:gd-|-qr_nm:gd|res:RC4|com-cf:nl|ptrs:na|ktp:N0|mc:26680|mtp:S|qry_typ:P|lang:en|wc:2|cs:7538|v=4,False,Budh Vihar,New Delhi,"A-1/29, Budh Vihar, Phase 2, Rohini, Budh Vihar, New Delhi - 110086, Dist.Delhi, Delhi",8048974223,
"Adults Disposable Adult Diaper, Size: Pkt. Of 10 Piece",https://www.indiamart.com/proddetail/disposable-adult-diaper-23965596655.html?pos=171&kwd=disposable diaper&tags=BB||||8741.812||product|||MDC|rsf:gd-|-qr_nm:gd|res:RC4|com-cf:nl|ptrs:na|ktp:N0|mc:26680|mtp:S|qry_typ:P|lang:en|wc:2|cs:7538|v=4,Jain Surgical & Pharma,https://www.indiamart.com/jain-surgicalpharma/?pos=171&kwd=disposable diaper&tags=BB||||8741.812||product|||MDC|rsf:gd-|-qr_nm:gd|res:RC4|com-cf:nl|ptrs:na|ktp:N0|mc:26680|mtp:S|qry_typ:P|lang:en|wc:2|cs:7538|v=4,False,Basai Road,Gurgaon,"140/28, 1st Floor, Near Ashirwad Garden, Jyoti Park, Basai Road, Gurgaon - 122001, Dist.Gurgaon, Haryana",7942544076,
Tape Style Velcro Disposable Adult Diaper,https://www.indiamart.com/proddetail/disposable-adult-diaper-23493382855.html?pos=172&kwd=disposable diaper&tags=BA||||8601.347|Price|product|||MDC|rsf:gd-|-qr_nm:gd|res:RC4|com-cf:nl|ptrs:na|ktp:N0|mc:26680|mtp:S|qry_typ:P|lang:en|wc:2|cs:7538|v=4,Fleming Hygiene,https://www.indiamart.com/fleming-hygiene/?pos=172&kwd=disposable diaper&tags=BA||||8601.347|Price|product|||MDC|rsf:gd-|-qr_nm:gd|res:RC4|com-cf:nl|ptrs:na|ktp:N0|mc:26680|mtp:S|qry_typ:P|lang:en|wc:2|cs:7538|v=4,False,Gate,Jaipur,"774 Sanganeri Gate, Gate, Jaipur - 302003, Dist.Jaipur, Rajasthan",8047632456,
"Cotton Safex Disposable Baby Diaper, Age Group: Newly Born, Packaging Size: 5 Pcs",https://www.indiamart.com/proddetail/safex-disposable-baby-diaper-7001396955.html?pos=173&kwd=disposable diaper&tags=BA||||8584.299|Price|product|||MDC|rsf:gd-|-qr_nm:gd|res:RC4|com-cf:nl|ptrs:na|ktp:N0|mc:26680|mtp:S|qry_typ:P|lang:en|wc:2|cs:7538|v=4,Safex Hygiene Care,https://www.indiamart.com/safex-hygiene-care/?pos=173&kwd=disposable diaper&tags=BA||||8584.299|Price|product|||MDC|rsf:gd-|-qr_nm:gd|res:RC4|com-cf:nl|ptrs:na|ktp:N0|mc:26680|mtp:S|qry_typ:P|lang:en|wc:2|cs:7538|v=4,False,Kalveerampalayam,Coimbatore,"50/51, Thoppil Nagar, Kalveerampalyam, Kalveerampalayam, Coimbatore - 641046, Dist.Coimbatore, Tamil Nadu",8046037064,
Regular Pull Ups Disposable Adult Diaper,https://www.indiamart.com/proddetail/disposable-adult-diaper-23535405630.html?pos=174&kwd=disposable diaper&tags=BA||||9301.656|Price|product|||MDC|rsf:gd-|-qr_nm:gd|res:RC4|com-cf:nl|ptrs:na|ktp:N0|mc:26680|mtp:S|qry_typ:P|lang:en|wc:2|cs:7538|v=4,Komal Drug And Surgical Agency,https://www.indiamart.com/komaldrug-surgicalagency/?pos=174&kwd=disposable diaper&tags=BA||||9301.656|Price|product|||MDC|rsf:gd-|-qr_nm:gd|res:RC4|com-cf:nl|ptrs:na|ktp:N0|mc:26680|mtp:S|qry_typ:P|lang:en|wc:2|cs:7538|v=4,False,Luxa,Varanasi,"D 56/7A, Meerbagh Aurangabad, Luxa, Varanasi - 221010, Dist.Varanasi, Uttar Pradesh",8046065889,
Releivers Large Disposable Adult Diaper,https://www.indiamart.com/proddetail/releivers-large-disposable-adult-diaper-19262509555.html?pos=175&kwd=disposable diaper&tags=BA||||8752.144|Price|product|||TS|rsf:gd-|-qr_nm:gd|res:RC4|com-cf:nl|ptrs:na|ktp:N0|mc:26680|mtp:S|qry_typ:P|lang:en|wc:2|cs:7538|v=4,Health Care Hub,https://www.indiamart.com/blessingsofbalaji/?pos=175&kwd=disposable diaper&tags=BA||||8752.144|Price|product|||TS|rsf:gd-|-qr_nm:gd|res:RC4|com-cf:nl|ptrs:na|ktp:N0|mc:26680|mtp:S|qry_typ:P|lang:en|wc:2|cs:7538|v=4,False,M.B.S. Nagar,New Delhi,"68 nagar, M.B.S. Nagar, New Delhi - 110018, Dist.Delhi, Delhi",8046061856,
"Freshkins Disposable Baby Diapers Pants, Size: Small",https://www.indiamart.com/proddetail/freshkins-disposable-baby-diapers-pants-2854538073597.html?pos=176&kwd=disposable diaper&tags=BA||||8230.883||product|||TS|rsf:gd-|-qr_nm:gd|res:RC4|com-cf:nl|ptrs:na|ktp:N0|mc:26680|mtp:S|qry_typ:P|lang:en|wc:2|cs:7538|v=4,Hygiene Product,https://www.freshkin.co.in/?pos=176&kwd=disposable diaper&tags=BA||||8230.883||product|||TS|rsf:gd-|-qr_nm:gd|res:RC4|com-cf:nl|ptrs:na|ktp:N0|mc:26680|mtp:S|qry_typ:P|lang:en|wc:2|cs:7538|v=4,False,Sagrampura Putli,Surat,"9002 B, World Trade Center Ring Road, Sagrampura Putli, Surat - 395002, Dist.Surat, Gujarat",8048610916,
50-75 Protective Underwear Romsons Dignity Adults Diaper,https://www.indiamart.com/proddetail/romsons-dignity-adults-diaper-24883016288.html?pos=177&kwd=disposable diaper&tags=BA||||9301.656|Price|product|||TS|rsf:gd-|-qr_nm:gd|res:RC4|com-cf:nl|ptrs:na|ktp:N0|mc:26680|mtp:S|qry_typ:P|lang:en|wc:2|cs:7538|v=4,H.H Cares,https://www.indiamart.com/hhcares/?pos=177&kwd=disposable diaper&tags=BA||||9301.656|Price|product|||TS|rsf:gd-|-qr_nm:gd|res:RC4|com-cf:nl|ptrs:na|ktp:N0|mc:26680|mtp:S|qry_typ:P|lang:en|wc:2|cs:7538|v=4,False,Telibagh,Varanasi,"C-27/253 C-1, Das Nagar Colony, Maldahiya, Telibagh, Varanasi - 221002, Dist.Varanasi, Uttar Pradesh",8046055862,
Protective Underwear Large Size Adult Diapers,https://www.indiamart.com/proddetail/large-size-adult-diapers-2849549358988.html?pos=178&kwd=disposable diaper&tags=BA||||8228.275|Price|product|||TS|rsf:gd-|-qr_nm:gd|res:RC4|com-cf:nl|ptrs:na|ktp:N0|mc:26680|mtp:S|qry_typ:P|lang:en|wc:2|cs:7538|v=4,Sanjivani Surgicare,https://www.indiamart.com/sanjivani-surgicare/?pos=178&kwd=disposable diaper&tags=BA||||8228.275|Price|product|||TS|rsf:gd-|-qr_nm:gd|res:RC4|com-cf:nl|ptrs:na|ktp:N0|mc:26680|mtp:S|qry_typ:P|lang:en|wc:2|cs:7538|v=4,False,Kochrab Village,Ahmedabad,"2nd Floor, 5, Avdhesh House, Near Sudama Resort, Pritamnagar, Kochrab Village, Ahmedabad - 380006, Dist.Ahmedabad, Gujarat",7942792909,
"Briefs Dr. Aid Adult Diaper, Waist Size: 20""-28'', Size: Large",https://www.indiamart.com/proddetail/dr-aid-adult-diaper-22050356748.html?pos=179&kwd=disposable diaper&tags=BA||||8747.203|Price|product|||TS|rsf:gd-|-qr_nm:gd|res:RC4|com-cf:nl|ptrs:na|ktp:N0|mc:26680|mtp:S|qry_typ:P|lang:en|wc:2|cs:7538|v=4,Hargun Biotech,https://www.hargunbiotech.com/?pos=179&kwd=disposable diaper&tags=BA||||8747.203|Price|product|||TS|rsf:gd-|-qr_nm:gd|res:RC4|com-cf:nl|ptrs:na|ktp:N0|mc:26680|mtp:S|qry_typ:P|lang:en|wc:2|cs:7538|v=4,False,Model Town,Panipat,"641, Paruthi Chowk, Model Town, Model Town, Panipat - 132103, Dist.Panipat, Haryana",7942559513,
"Briefs Fluff Pulp Dry Safe Plus Adult Diaper, Size: Large",https://www.indiamart.com/proddetail/dry-safe-plus-adult-diaper-25972116673.html?pos=180&kwd=disposable diaper&tags=BA||||8307.81|Price|product|||TS|rsf:gd-|-qr_nm:gd|res:RC4|com-cf:nl|ptrs:na|ktp:N0|mc:26680|mtp:S|qry_typ:P|lang:en|wc:2|cs:7538|v=4,Anand Agencies,https://www.indiamart.com/anandagenciesmaharashtra/?pos=180&kwd=disposable diaper&tags=BA||||8307.81|Price|product|||TS|rsf:gd-|-qr_nm:gd|res:RC4|com-cf:nl|ptrs:na|ktp:N0|mc:26680|mtp:S|qry_typ:P|lang:en|wc:2|cs:7538|v=4,False,Kharadi,Pune,"2nd Floor, Arham Tower Pune Nagar Road,, Kharadi, Pune - 411009, Dist.Pune, Maharashtra",8047679161,
"Above 18 Year Kare Med Adult Unisex Diaper, Size: Xl",https://www.indiamart.com/proddetail/kare-med-adult-unisex-diaper-19565228462.html?pos=181&kwd=disposable diaper&tags=BA||||9839.57|Price|product|||TS|rsf:gd-|-qr_nm:gd|res:RC4|com-cf:nl|ptrs:na|ktp:N0|mc:26680|mtp:S|qry_typ:P|lang:en|wc:2|cs:7538|v=4,M/s Maa Annapurna Traders,https://www.indiamart.com/maannapurnatraders/?pos=181&kwd=disposable diaper&tags=BA||||9839.57|Price|product|||TS|rsf:gd-|-qr_nm:gd|res:RC4|com-cf:nl|ptrs:na|ktp:N0|mc:26680|mtp:S|qry_typ:P|lang:en|wc:2|cs:7538|v=4,False,Machuabazar,Kolkata,"5 Beadonstreet Goabagan Lane, Machuabazar, Kolkata - 700006, Dist.Kolkata, West Bengal",8047631185,
BFit Adult Diaper Large 10 pc,https://www.indiamart.com/proddetail/bfit-adult-diaper-large-10-pc-24771126288.html?pos=182&kwd=disposable diaper&tags=BA||||8580.032|Price|product|||TS|rsf:gd-|-qr_nm:gd|res:RC4|com-cf:nl|ptrs:na|ktp:N0|mc:26680|mtp:S|qry_typ:P|lang:en|wc:2|cs:7538|v=4,Apex International,https://www.apexmall.co.in/?pos=182&kwd=disposable diaper&tags=BA||||8580.032|Price|product|||TS|rsf:gd-|-qr_nm:gd|res:RC4|com-cf:nl|ptrs:na|ktp:N0|mc:26680|mtp:S|qry_typ:P|lang:en|wc:2|cs:7538|v=4,False,Market,Amritsar,"No. 2, Bright Way Market, Majitha Road, Market, Amritsar - 143001, Dist.Amritsar, Punjab",8048601734,
"Seni Super Breathable Adult Diaper, Size: Large",https://www.indiamart.com/proddetail/seni-super-breathable-adult-diaper-23569776497.html?pos=183&kwd=disposable diaper&tags=BA||||8663.873|Price|product|||TS|rsf:gd-|-qr_nm:gd|res:RC4|com-cf:nl|ptrs:na|ktp:N0|mc:26680|mtp:S|qry_typ:P|lang:en|wc:2|cs:7538|v=4,KR Health Care,https://www.indiamart.com/krhealthcare/?pos=183&kwd=disposable diaper&tags=BA||||8663.873|Price|product|||TS|rsf:gd-|-qr_nm:gd|res:RC4|com-cf:nl|ptrs:na|ktp:N0|mc:26680|mtp:S|qry_typ:P|lang:en|wc:2|cs:7538|v=4,False,Deepanjali Nagar,Bengaluru,"Ground Floor 12 1st Cross Anjanappa Layout Vijayanagar 2nd Stage Railway Paralel Road Bengaluru (Bangalore) Urban, Deepanjali Nagar, Bengaluru - 560040, Dist.Bengaluru, Karnataka",8048607261,
Disposable Baby Diapers,https://www.indiamart.com/proddetail/disposable-baby-diapers-2853430435833.html?pos=184&kwd=disposable diaper&tags=BB||||8242.731||product|||TS|rsf:gd-|-qr_nm:gd|res:RC4|com-cf:nl|ptrs:na|ktp:N0|mc:26680|mtp:S|qry_typ:P|lang:en|wc:2|cs:7538|v=4,A S Enterprises,https://www.indiamart.com/asenterprises-ulhasnagar/?pos=184&kwd=disposable diaper&tags=BB||||8242.731||product|||TS|rsf:gd-|-qr_nm:gd|res:RC4|com-cf:nl|ptrs:na|ktp:N0|mc:26680|mtp:S|qry_typ:P|lang:en|wc:2|cs:7538|v=4,False,Vitthalwadi,Ulhasnagar,"Near BK No 617, Shop , Room No 1, O T Section, Vitthalwadi, Ulhasnagar - 421002, Dist.Thane, Maharashtra",7942835156,
Plain Disposable Adult Diaper XL,https://www.indiamart.com/proddetail/disposable-adult-diaper-xl-2851886187962.html?pos=185&kwd=disposable diaper&tags=BA||||8716.212|Price|product|||MDC|rsf:gd-|-qr_nm:gd|res:RC4|com-cf:nl|ptrs:na|ktp:N0|mc:26680|mtp:S|qry_typ:P|lang:en|wc:2|cs:7538|v=4,AR Enterprises,https://www.indiamart.com/ar-enterprises-dharuhera/?pos=185&kwd=disposable diaper&tags=BA||||8716.212|Price|product|||MDC|rsf:gd-|-qr_nm:gd|res:RC4|com-cf:nl|ptrs:na|ktp:N0|mc:26680|mtp:S|qry_typ:P|lang:en|wc:2|cs:7538|v=4,False,Rewari,Dharuhera,"First Floor , 385 , Near Shiv Mandir , Sector 4A , Rewari, Rewari, Dharuhera - 123106, Dist.Rewari, Haryana",7942721074,
"Super Pant Printed Disposable Diaper, Size: Small",https://www.indiamart.com/proddetail/super-pant-printed-disposable-diaper-2853054634991.html?pos=186&kwd=disposable diaper&tags=BA||||8752.144|Price|product|||MDC|rsf:gd-|-qr_nm:gd|res:RC4|com-cf:nl|ptrs:na|ktp:N0|mc:26680|mtp:S|qry_typ:P|lang:en|wc:2|cs:7538|v=4,Dagar Hygiene Private Limited,https://www.indiamart.com/dagar-hygiene/?pos=186&kwd=disposable diaper&tags=BA||||8752.144|Price|product|||MDC|rsf:gd-|-qr_nm:gd|res:RC4|com-cf:nl|ptrs:na|ktp:N0|mc:26680|mtp:S|qry_typ:P|lang:en|wc:2|cs:7538|v=4,False,Karawal Nagar,New Delhi,"B-328, Kh-48/22, Maha Laxmi Enclave, Karawal Nagar North East, Karawal Nagar, New Delhi - 110094, Dist.Delhi, Delhi",7942965875,
Pull Ups Disposable Adult Pant Style Diaper,https://www.indiamart.com/proddetail/disposable-adult-pant-style-diaper-25462548788.html?pos=187&kwd=disposable diaper&tags=BA||||8954.051|Price|product|||MDC|rsf:gd-|-qr_nm:gd|res:RC4|com-cf:nl|ptrs:na|ktp:N0|mc:26680|mtp:S|qry_typ:P|lang:en|wc:2|cs:7538|v=4,MS PHARMA AND DISTRIBUTORS,https://www.indiamart.com/mspharma-distributors/?pos=187&kwd=disposable diaper&tags=BA||||8954.051|Price|product|||MDC|rsf:gd-|-qr_nm:gd|res:RC4|com-cf:nl|ptrs:na|ktp:N0|mc:26680|mtp:S|qry_typ:P|lang:en|wc:2|cs:7538|v=4,False,Aminjikarai,Chennai,"Old No:33,New No:61, Mayor Ramanathan Salai, Formarly VR Ramanathan Ayyar Salai And Spur Tank Road Chetpet, Aminjikarai, Chennai - 600031, Dist.Chennai, Tamil Nadu",8048614812,
Avm adult diapers,https://www.indiamart.com/proddetail/avm-adult-diapers-24843262655.html?pos=188&kwd=disposable diaper&tags=BA||||9829.308|Price|product|||TS|rsf:gd-|-qr_nm:gd|res:RC4|com-cf:nl|ptrs:na|ktp:N0|mc:26680|mtp:S|qry_typ:P|lang:en|wc:2|cs:7538|v=4,Doxymed Surgical Co.,https://www.indiamart.com/doxymedsurgical/?pos=188&kwd=disposable diaper&tags=BA||||9829.308|Price|product|||TS|rsf:gd-|-qr_nm:gd|res:RC4|com-cf:nl|ptrs:na|ktp:N0|mc:26680|mtp:S|qry_typ:P|lang:en|wc:2|cs:7538|v=4,False,Kadam Tala,Howrah,"Flat No-401, 4th Floor, 357/7, Belilious Road, LP-28/35, Kadam Tala, Howrah - 711101, Dist.Howrah, West Bengal",8048608597,
Protective Underwear Adult Diapers,https://www.indiamart.com/proddetail/adult-diapers-9357280762.html?pos=189&kwd=disposable diaper&tags=BA||||8786.56|Price|product|||TS|rsf:gd-|-qr_nm:gd|res:RC4|com-cf:nl|ptrs:na|ktp:N0|mc:26680|mtp:S|qry_typ:P|lang:en|wc:2|cs:7538|v=4,New Prince Agencies,https://www.indiamart.com/newprinceagencies/?pos=189&kwd=disposable diaper&tags=BA||||8786.56|Price|product|||TS|rsf:gd-|-qr_nm:gd|res:RC4|com-cf:nl|ptrs:na|ktp:N0|mc:26680|mtp:S|qry_typ:P|lang:en|wc:2|cs:7538|v=4,False,Dilsukhnagar Colony,Hyderabad,"G4, 2-41/2, Beside State Bank Of Mysore, Chaitanya Chambers Chaitanaypuri, Dilsukhnagar, Dilsukhnagar Colony, Hyderabad - 500060, Dist.Hyderabad, Telangana",8046030433,
"Mama Magic Diaper, Age Group: 1to2 Years, Size: XXL",https://www.indiamart.com/proddetail/mama-magic-diaper-2854976149973.html?pos=190&kwd=disposable diaper&tags=BA||||8559.269|Price|product|||TS|rsf:gd-|-qr_nm:gd|res:RC4|com-cf:nl|ptrs:na|ktp:N0|mc:26680|mtp:S|qry_typ:P|lang:en|wc:2|cs:7538|v=4,Aadaarsh Enterprise,https://www.hellosweetybabydaiper.com/?pos=190&kwd=disposable diaper&tags=BA||||8559.269|Price|product|||TS|rsf:gd-|-qr_nm:gd|res:RC4|com-cf:nl|ptrs:na|ktp:N0|mc:26680|mtp:S|qry_typ:P|lang:en|wc:2|cs:7538|v=4,False,,Indore,"2,Sher Shah Suri Nagar B, Khajrana, Indore - 452001, Dist.Indore, Madhya Pradesh",8043879050,
Briefs Hope Adult Diapers,https://www.indiamart.com/proddetail/hope-adult-diapers-24387992512.html?pos=191&kwd=disposable diaper&tags=BA||||9839.57|Price|product|||TS|rsf:gd-|-qr_nm:gd|res:RC4|com-cf:nl|ptrs:na|ktp:N0|mc:26680|mtp:S|qry_typ:P|lang:en|wc:2|cs:7538|v=4,Siddh Surgical,https://www.indiamart.com/siddh-surgical/?pos=191&kwd=disposable diaper&tags=BA||||9839.57|Price|product|||TS|rsf:gd-|-qr_nm:gd|res:RC4|com-cf:nl|ptrs:na|ktp:N0|mc:26680|mtp:S|qry_typ:P|lang:en|wc:2|cs:7538|v=4,False,Barabazar Market,Kolkata,"19A, Ground Floor Rammohan Dutt Road,Ground floor, Barabazar Market, Kolkata - 700020, Dist.Kolkata, West Bengal",7942544961,
"Nonwoven Disposable Baby Diapers, Medium",https://www.indiamart.com/proddetail/disposable-baby-diapers-2850576939962.html?pos=192&kwd=disposable diaper&tags=BA||||9839.57|Price|product|||TS|rsf:gd-|-qr_nm:gd|res:RC4|com-cf:nl|ptrs:na|ktp:N0|mc:26680|mtp:S|qry_typ:P|lang:en|wc:2|cs:7538|v=4,Aftab Trader,https://www.indiamart.com/aftab-trader-kolkata/?pos=192&kwd=disposable diaper&tags=BA||||9839.57|Price|product|||TS|rsf:gd-|-qr_nm:gd|res:RC4|com-cf:nl|ptrs:na|ktp:N0|mc:26680|mtp:S|qry_typ:P|lang:en|wc:2|cs:7538|v=4,False,Baitakkhana North,Kolkata,"H/4, 11/1 Harshi Street, Baitakkhana North, Kolkata - 700009, Dist.Kolkata, West Bengal",8047654403,
Ideal For Adults Comfort And Convenience MULTIPLE BRAND Adult Diapers,https://www.indiamart.com/proddetail/multiple-brand-adult-diapers-2851787291412.html?pos=193&kwd=disposable diaper&tags=BA||||8663.873|Price|product|||TS|rsf:gd-|-qr_nm:gd|res:RC4|com-cf:nl|ptrs:na|ktp:N0|mc:26680|mtp:S|qry_typ:P|lang:en|wc:2|cs:7538|v=4,Healing Bell Health Care,https://www.indiamart.com/healing-bell-health-care/?pos=193&kwd=disposable diaper&tags=BA||||8663.873|Price|product|||TS|rsf:gd-|-qr_nm:gd|res:RC4|com-cf:nl|ptrs:na|ktp:N0|mc:26680|mtp:S|qry_typ:P|lang:en|wc:2|cs:7538|v=4,False,,Bengaluru,"3rd Floor Old No 7k No 223/69/1b New No 8k 233/69/1 4th D Cross, Bengaluru - 560043, Dist.Bengaluru, Karnataka",7942706998,
Pant Pull Ups Medisorb Adult Diapers Xl Size,https://www.indiamart.com/proddetail/medisorb-adult-diapers-xl-size-2851062040273.html?pos=194&kwd=disposable diaper&tags=BA||||8211.142|Price|product|||TS|rsf:gd-|-qr_nm:gd|res:RC4|com-cf:nl|ptrs:na|ktp:N0|mc:26680|mtp:S|qry_typ:P|lang:en|wc:2|cs:7538|v=4,Neha Enterprise,https://www.indiamart.com/nehaenterprisemaharashtra/?pos=194&kwd=disposable diaper&tags=BA||||8211.142|Price|product|||TS|rsf:gd-|-qr_nm:gd|res:RC4|com-cf:nl|ptrs:na|ktp:N0|mc:26680|mtp:S|qry_typ:P|lang:en|wc:2|cs:7538|v=4,False,Ballard Estate,Mumbai,"34/2, Dossa House, Gunbow Street, Fort, Ballard Estate, Mumbai - 400001, Dist.Mumbai, Maharashtra",8048956891,
Flamingo Adult Diapers (Large),https://www.indiamart.com/proddetail/flamingo-adult-diapers-large-2851521530212.html?pos=195&kwd=disposable diaper&tags=BA||||8601.347|Price|product|||TS|rsf:gd-|-qr_nm:gd|res:RC4|com-cf:nl|ptrs:na|ktp:N0|mc:26680|mtp:S|qry_typ:P|lang:en|wc:2|cs:7538|v=4,Medipharm Global,https://www.indiamart.com/medipharmglobal/?pos=195&kwd=disposable diaper&tags=BA||||8601.347|Price|product|||TS|rsf:gd-|-qr_nm:gd|res:RC4|com-cf:nl|ptrs:na|ktp:N0|mc:26680|mtp:S|qry_typ:P|lang:en|wc:2|cs:7538|v=4,False,Jhotwara,Jaipur,"R. G Plaza, X-02B, Chandra Nagar, Kardhani Scheme, Kalwar Road, Jhotwara, Jaipur - 302012, Dist.Jaipur, Rajasthan",8047653066,
"Briefs ADULT DAIPERS, Size: M,L And Xl Available",https://www.indiamart.com/proddetail/adult-daipers-2850211266933.html?pos=196&kwd=disposable diaper&tags=BA||||8476.868||product|||TS|rsf:gd-|-qr_nm:gd|res:RC4|com-cf:nl|ptrs:na|ktp:N0|mc:26680|mtp:S|qry_typ:P|lang:en|wc:2|cs:7538|v=4,VDS Lifecare LLP,https://www.indiamart.com/vds-lifecare/?pos=196&kwd=disposable diaper&tags=BA||||8476.868||product|||TS|rsf:gd-|-qr_nm:gd|res:RC4|com-cf:nl|ptrs:na|ktp:N0|mc:26680|mtp:S|qry_typ:P|lang:en|wc:2|cs:7538|v=4,False,Samata Nagar,Aurangabad,"4-1-67, Baheti Complex, Keli Bazar Kolsewadi, Samata Nagar, Aurangabad - 431001, Maharashtra",8047619890,
Above 60 Adult Dypers Welcrow Elduro,https://www.indiamart.com/proddetail/adult-dypers-welcrow-elduro-27630118797.html?pos=197&kwd=disposable diaper&tags=BA||||8228.275|Price|product|||TS|rsf:gd-|-qr_nm:gd|res:RC4|com-cf:nl|ptrs:na|ktp:N0|mc:26680|mtp:S|qry_typ:P|lang:en|wc:2|cs:7538|v=4,Green Life Healthcare,https://www.indiamart.com/green-life-healthcare/?pos=197&kwd=disposable diaper&tags=BA||||8228.275|Price|product|||TS|rsf:gd-|-qr_nm:gd|res:RC4|com-cf:nl|ptrs:na|ktp:N0|mc:26680|mtp:S|qry_typ:P|lang:en|wc:2|cs:7538|v=4,False,Sarkhej Village,Ahmedabad,"11, J P ESTATE,NAVAPURA NR SHUKAN COMPLEX, Sarkhej Village, Ahmedabad - 382210, Dist.Ahmedabad, Gujarat",8048604726,
Adult Diapers XL,https://www.indiamart.com/proddetail/adult-diapers-xl-2852536433733.html?pos=198&kwd=disposable diaper&tags=BA||||8876.815||product|||TS|rsf:gd-|-qr_nm:gd|res:RC4|com-cf:nl|ptrs:na|ktp:N0|mc:26680|mtp:S|qry_typ:P|lang:en|wc:2|cs:7538|v=4,Fortune Global,https://www.indiamart.com/fortunesouthasiantradingcompany/?pos=198&kwd=disposable diaper&tags=BA||||8876.815||product|||TS|rsf:gd-|-qr_nm:gd|res:RC4|com-cf:nl|ptrs:na|ktp:N0|mc:26680|mtp:S|qry_typ:P|lang:en|wc:2|cs:7538|v=4,False,Ranapratap Nagar,Nagpur,"Itwari Nagpur, Nagpur, M, Ranapratap Nagar, Nagpur - 440022, Dist.Nagpur, Maharashtra",8048612414,
Disposable Diaper,,Royal Herbs,https://www.indiamart.com/royal-herbs/?pos=199&kwd=disposable diaper&tags=BA||||8211.142|Price|product|||TS|rsf:gd-|-qr_nm:gd|res:RC4|com-cf:nl|ptrs:na|ktp:N0|mc:26680|mtp:S|qry_typ:P|lang:en|wc:2|cs:7538|v=4,False,Malad East,Mumbai,"Kurar Village Road, Ambewadi, Shantaram Talav, Malad East, Malad East, Mumbai - 400097, Dist.Mumbai, Maharashtra",7942541679,
Romsons Dignity Magna Adult Diapers (L)- Pack of 10,https://www.indiamart.com/proddetail/romsons-dignity-magna-adult-diapers-l-pack-of-10-26186995955.html?pos=200&kwd=disposable diaper&tags=BA||||8507.67|Price|product|||TS|rsf:gd-|-qr_nm:gd|res:RC4|com-cf:nl|ptrs:na|ktp:N0|mc:26680|mtp:S|qry_typ:P|lang:en|wc:2|cs:7538|v=4,Kogland Commerce Private Limited,https://www.indiamart.com/koglandcommerce/?pos=200&kwd=disposable diaper&tags=BA||||8507.67|Price|product|||TS|rsf:gd-|-qr_nm:gd|res:RC4|com-cf:nl|ptrs:na|ktp:N0|mc:26680|mtp:S|qry_typ:P|lang:en|wc:2|cs:7538|v=4,False,Infopark,Ernakulam,"Unit IV B, 2nd Floor, Phase I, Carnival Infopark, Infopark, Kakkand, Infopark, Ernakulam - 682030, Dist.Ernakulam, Kerala",8047306904,
Dignity Overnight Adult Diapers,https://www.indiamart.com/proddetail/dignity-overnight-adult-diapers-2849732211888.html?pos=201&kwd=disposable diaper&tags=BB||||8211.142|Price|product|||TS|rsf:gd-|-qr_nm:gd|res:RC4|com-cf:nl|ptrs:na|ktp:N0|mc:26680|mtp:S|qry_typ:P|lang:en|wc:2|cs:7538|v=4,Manglik Corp,https://www.indiamart.com/manglik-corp/?pos=201&kwd=disposable diaper&tags=BB||||8211.142|Price|product|||TS|rsf:gd-|-qr_nm:gd|res:RC4|com-cf:nl|ptrs:na|ktp:N0|mc:26680|mtp:S|qry_typ:P|lang:en|wc:2|cs:7538|v=4,False,Masjid Bandar,Mumbai,"G/2, Aashirwad Premises, Ahemdabad Street, Masjid Bunder East,, Masjid Bandar, Mumbai - 400009, Dist.Mumbai, Maharashtra",8046074635,
Plain Adult Diapers,https://www.indiamart.com/proddetail/adult-diapers-2851057322230.html?pos=202&kwd=disposable diaper&tags=BA||||10180.86|Price|product|||TS|rsf:gd-|-qr_nm:gd|res:RC4|com-cf:nl|ptrs:na|ktp:N0|mc:26680|mtp:S|qry_typ:P|lang:en|wc:2|cs:7538|v=4,J.N.M. Enterprise,https://www.jnmenterprise.com/?pos=202&kwd=disposable diaper&tags=BA||||10180.86|Price|product|||TS|rsf:gd-|-qr_nm:gd|res:RC4|com-cf:nl|ptrs:na|ktp:N0|mc:26680|mtp:S|qry_typ:P|lang:en|wc:2|cs:7538|v=4,False,Pan Bazaar,Guwahati,"1st Floor S S Road Nahar Mansion Lakhtokia, Pan Bazaar, Guwahati - 781001, Dist.Kamrup, Assam",7942827915,
Briefs Disposable Adult Diaper,https://www.indiamart.com/proddetail/white-sparrow-imported-disposable-adult-diaper-2850639770773.html?pos=203&kwd=disposable diaper&tags=BA||||9110.092|Price|product|||TS|rsf:gd-|-qr_nm:gd|res:RC4|com-cf:nl|ptrs:na|ktp:N0|mc:26680|mtp:S|qry_typ:P|lang:en|wc:2|cs:7538|v=4,Shashwat Udyog,https://www.indiamart.com/shashwatudyog-uttarpradesh/?pos=203&kwd=disposable diaper&tags=BA||||9110.092|Price|product|||TS|rsf:gd-|-qr_nm:gd|res:RC4|com-cf:nl|ptrs:na|ktp:N0|mc:26680|mtp:S|qry_typ:P|lang:en|wc:2|cs:7538|v=4,False,Gomti,Lucknow,"302, Omaxe Heights, Vibhuti Khand, Gomti Nagar, Gomti, Lucknow - 226010, Dist.Lucknow, Uttar Pradesh",8048616780,
"Protective Underwear Dignity Magna Adult Diapers, Size: Large",https://www.indiamart.com/proddetail/dignity-magna-adult-diapers-23677092730.html?pos=204&kwd=disposable diaper&tags=BA||||8752.144|Price|product|||TS|rsf:gd-|-qr_nm:gd|res:RC4|com-cf:nl|ptrs:na|ktp:N0|mc:26680|mtp:S|qry_typ:P|lang:en|wc:2|cs:7538|v=4,AGS Techno Vision,https://www.agstechnovision.com/?pos=204&kwd=disposable diaper&tags=BA||||8752.144|Price|product|||TS|rsf:gd-|-qr_nm:gd|res:RC4|com-cf:nl|ptrs:na|ktp:N0|mc:26680|mtp:S|qry_typ:P|lang:en|wc:2|cs:7538|v=4,False,DAKSHINPURI,New Delhi,"Shop No. 64 & 65, 1st & 2nd Floor, J Block, DDA Central Market, DAKSHINPURI, New Delhi - 110062, Dist.Delhi, Delhi",8048979964,
"Large Size B Grade Disposable Baby Diaper Pant Stylr, Age Group: 1to2 Years, Size: Medium",https://www.indiamart.com/proddetail/large-size-b-grade-disposable-baby-diaper-pant-stylr-2854674936633.html?pos=205&kwd=disposable diaper&tags=BA||||8954.051|Price|product|||TS|rsf:gd-|-qr_nm:gd|res:RC4|com-cf:nl|ptrs:na|ktp:N0|mc:26680|mtp:S|qry_typ:P|lang:en|wc:2|cs:7538|v=4,Krithisha Enterprises,https://www.indiamart.com/krithisha-enterprises/?pos=205&kwd=disposable diaper&tags=BA||||8954.051|Price|product|||TS|rsf:gd-|-qr_nm:gd|res:RC4|com-cf:nl|ptrs:na|ktp:N0|mc:26680|mtp:S|qry_typ:P|lang:en|wc:2|cs:7538|v=4,False,Royapuram Anjaneya Nagar,Chennai,"New No.75, Old No.151, Prakasam Salai, Pophams Broadway, Royapuram Anjaneya Nagar, Chennai - 600001, Dist.Chennai, Tamil Nadu",8048951811,
AVM WET WIPES ADULT 32CMX32CM,https://www.indiamart.com/proddetail/avm-wet-wipes-adult-32cmx32cm-2854584351133.html?pos=206&kwd=disposable diaper&tags=BA||||8954.051||product|||TS|rsf:gd-|-qr_nm:gd|res:RC4|com-cf:nl|ptrs:na|ktp:N0|mc:26680|mtp:S|qry_typ:P|lang:en|wc:2|cs:7538|v=4,Shanmuga Medical And Surgical,https://www.indiamart.com/shanmuga-medical-surgical/?pos=206&kwd=disposable diaper&tags=BA||||8954.051||product|||TS|rsf:gd-|-qr_nm:gd|res:RC4|com-cf:nl|ptrs:na|ktp:N0|mc:26680|mtp:S|qry_typ:P|lang:en|wc:2|cs:7538|v=4,False,Arumbakkam,Chennai,"Ashok Nagar, No 6a, Ashoknagar West Street, Arumbakkam, Arumbakkam, Chennai - 600106, Dist.Chennai, Tamil Nadu",8047823161,
"Discrete Blader Protection Protective Underwear Medi Adult Diapers(EXTRA LARGE), Size: 48""-68""",https://www.indiamart.com/proddetail/medi-adult-diapers-extra-large-2851829956888.html?pos=207&kwd=disposable diaper&tags=BA||||8954.051|Price|product|||TS|rsf:gd-|-qr_nm:gd|res:RC4|com-cf:nl|ptrs:na|ktp:N0|mc:26680|mtp:S|qry_typ:P|lang:en|wc:2|cs:7538|v=4,"Dr.S Manjuparkavi, Alpha Lifecare",https://www.indiamart.com/drs-manjuparkavialpha-lifecare/?pos=207&kwd=disposable diaper&tags=BA||||8954.051|Price|product|||TS|rsf:gd-|-qr_nm:gd|res:RC4|com-cf:nl|ptrs:na|ktp:N0|mc:26680|mtp:S|qry_typ:P|lang:en|wc:2|cs:7538|v=4,False,Kaiveli,Chennai,"247/12, Velachery Main Road, Thanthai Periyar Nagar, Kaiveli, Kaiveli, Chennai - 600042, Dist.Chennai, Tamil Nadu",7942955668,
"18 -56 Pull Ups Adult Disposable Diapers, Size: 40-55",https://www.indiamart.com/proddetail/adult-disposable-diapers-2849982181755.html?pos=208&kwd=disposable diaper&tags=BA||||8407.171|Price|product|||MDC|rsf:gd-|-qr_nm:gd|res:RC4|com-cf:nl|ptrs:na|ktp:N0|mc:26680|mtp:S|qry_typ:P|lang:en|wc:2|cs:7538|v=4,Ganesh Enterprises,https://www.indiamart.com/ganesh-enterprisesahmednagar/?pos=208&kwd=disposable diaper&tags=BA||||8407.171|Price|product|||MDC|rsf:gd-|-qr_nm:gd|res:RC4|com-cf:nl|ptrs:na|ktp:N0|mc:26680|mtp:S|qry_typ:P|lang:en|wc:2|cs:7538|v=4,False,Midc,Ahmednagar,"L- 161, Midc, Midc, Ahmednagar - 414111, Dist.Ahmed Nagar, Maharashtra",8046072484,
"Pull Ups Disposable Adult Diapers, Size: XL",https://www.indiamart.com/proddetail/disposable-adult-diapers-22437560697.html?pos=209&kwd=disposable diaper&tags=BA||||8752.144|Price|product|||MDC|rsf:gd-|-qr_nm:gd|res:RC4|com-cf:nl|ptrs:na|ktp:N0|mc:26680|mtp:S|qry_typ:P|lang:en|wc:2|cs:7538|v=4,Walmark Meditech Private Limited,https://www.indiamart.com/walmarkmeditech/?pos=209&kwd=disposable diaper&tags=BA||||8752.144|Price|product|||MDC|rsf:gd-|-qr_nm:gd|res:RC4|com-cf:nl|ptrs:na|ktp:N0|mc:26680|mtp:S|qry_typ:P|lang:en|wc:2|cs:7538|v=4,False,Dhantoli,New Delhi,"B 157,,OKHLA INDUSTRIAL AREA,NEW DELHI, Dhantoli, New Delhi - 110020, Dist.Delhi, Delhi",7942532407,
Tape Type Disposable Adult Diapers,https://www.indiamart.com/proddetail/disposable-adult-diapers-8123868130.html?pos=210&kwd=disposable diaper&tags=BA||||9045.955|Price|product|||MDC|rsf:gd-|-qr_nm:gd|res:RC4|com-cf:nl|ptrs:na|ktp:N0|mc:26680|mtp:S|qry_typ:P|lang:en|wc:2|cs:7538|v=4,Shanti Surgical Private Limited,https://www.indiamart.com/surgicaldressing-absorbentcotton/?pos=210&kwd=disposable diaper&tags=BA||||9045.955|Price|product|||MDC|rsf:gd-|-qr_nm:gd|res:RC4|com-cf:nl|ptrs:na|ktp:N0|mc:26680|mtp:S|qry_typ:P|lang:en|wc:2|cs:7538|v=4,False,Dada Nagar,Kanpur,"G-28, Panki Industrial Area, Site No. 1, Dada Nagar, Kanpur - 208022, Uttar Pradesh",8048972268,
