product_title,product_link,company_name,company_link,is_verified_exporter,city_region,city,address_details,phone_number,phone_number_extension
"Disposable Baby Diaper, Age Group: Newly Born",https://www.indiamart.com/proddetail/disposable-baby-diaper-12769162091.html?pos=1&kwd=disposable baby diapers&tags=A||||8559.269|Price|product|||TS|rsf:gd-|-stype:attr=1|qr_nm:gd|res:RC4|com-cf:nl|ptrs:na|ktp:N0|mc:26674|mtp:S|qry_typ:P|lang:en|wc:3|flavl:0|cs:9605|v=4,Madhav Overseas Corporation,https://www.madhavoverseascorporation.net/?pos=1&kwd=disposable baby diapers&tags=A||||8559.269|Price|product|||TS|rsf:gd-|-stype:attr=1|qr_nm:gd|res:RC4|com-cf:nl|ptrs:na|ktp:N0|mc:26674|mtp:S|qry_typ:P|lang:en|wc:3|flavl:0|cs:9605|v=4,False,Atal Khel Parisar Main Road,Indore,"Madhav Corporate Scheme No 78 , Sector D ,Plot No 4,, Atal Khel Parisar Main Road, Indore - 452010, Dist.Indore, Madhya Pradesh",8048980263,
"Disposable Baby Diapers, Age Group: 1-2 Years, Size: Medium",https://www.indiamart.com/proddetail/disposable-baby-diapers-2852152378655.html?pos=2&kwd=disposable baby diapers&tags=A||||8830.388|Price|product|||TS|rsf:gd-|-stype:attr=1|qr_nm:gd|res:RC4|com-cf:nl|ptrs:na|ktp:N0|mc:26674|mtp:S|qry_typ:P|lang:en|wc:3|flavl:0|cs:9605|v=4,Easeplus Healthcare Private Limited,https://www.ezoyplus.in/?pos=2&kwd=disposable baby diapers&tags=A||||8830.388|Price|product|||TS|rsf:gd-|-stype:attr=1|qr_nm:gd|res:RC4|com-cf:nl|ptrs:na|ktp:N0|mc:26674|mtp:S|qry_typ:P|lang:en|wc:3|flavl:0|cs:9605|v=4,False,DD Nagar,Gwalior,"T 1298 K-61,Vrikampur Chouraha,Satabdipuram D D Nagar,Gwalior, DD Nagar, Gwalior - 474005, Dist.Gwalior, Madhya Pradesh",8048265864,
"Disposable Baby Diapers, Age Group: 3to12 Months, Size: Medium",https://www.indiamart.com/proddetail/disposable-baby-diapers-2854236951255.html?pos=3&kwd=disposable baby diapers&tags=A||||8778.123|Price|product|||TS|rsf:gd-|-stype:attr=1|qr_nm:gd|res:RC4|com-cf:nl|ptrs:na|ktp:N0|mc:26674|mtp:S|qry_typ:P|lang:en|wc:3|flavl:0|cs:9605|v=4,Pleasure Paradise,https://www.wonderfeel.in/?pos=3&kwd=disposable baby diapers&tags=A||||8778.123|Price|product|||TS|rsf:gd-|-stype:attr=1|qr_nm:gd|res:RC4|com-cf:nl|ptrs:na|ktp:N0|mc:26674|mtp:S|qry_typ:P|lang:en|wc:3|flavl:0|cs:9605|v=4,False,Sector 137,Noida,"11, T12 1105, Paras Tierea, Sector 137, Sector 137, Noida - 201301, Dist.Gautam Budh Nagar, Uttar Pradesh",8048612980,
"White Printed Disposable Baby Diaper, Age Group: 3-12 Months, Size: Large",https://www.indiamart.com/proddetail/white-printed-disposable-baby-diaper-2852539928288.html?pos=4&kwd=disposable baby diapers&tags=A||||8038.093|Price|product|||TS|rsf:gd-|-stype:attr=1|qr_nm:gd|res:RC4|com-cf:nl|ptrs:na|ktp:N0|mc:26674|mtp:S|qry_typ:P|lang:en|wc:3|flavl:0|cs:9605|v=4,Glowlyf Tradelink Private Limited,https://www.indiamart.com/glowlyftradelinkprivatelimited/?pos=4&kwd=disposable baby diapers&tags=A||||8038.093|Price|product|||TS|rsf:gd-|-stype:attr=1|qr_nm:gd|res:RC4|com-cf:nl|ptrs:na|ktp:N0|mc:26674|mtp:S|qry_typ:P|lang:en|wc:3|flavl:0|cs:9605|v=4,False,GIDC,Rajkot,"Gidc 2, Plot No 136, Opp. R M Steel, Aji Industrial Estate, Rajkot Industrial Area Dhamalpar, GIDC, Rajkot - 360003, Dist.Rajkot, Gujarat",7942711689,
Disposable Baby Diapers,https://www.indiamart.com/proddetail/disposable-baby-diapers-2853135445133.html?pos=5&kwd=disposable baby diapers&tags=A||||8741.812|Price|product|||TS|rsf:gd-|-stype:attr=1|qr_nm:gd|res:RC4|com-cf:nl|ptrs:na|ktp:N0|mc:26674|mtp:S|qry_typ:P|lang:en|wc:3|flavl:0|cs:9605|v=4,Jayshi Healthcare Private Limited,https://www.freesteps.in/?pos=5&kwd=disposable baby diapers&tags=A||||8741.812|Price|product|||TS|rsf:gd-|-stype:attr=1|qr_nm:gd|res:RC4|com-cf:nl|ptrs:na|ktp:N0|mc:26674|mtp:S|qry_typ:P|lang:en|wc:3|flavl:0|cs:9605|v=4,False,,Gurugram,"Near Khasi Ram Medical, Gurugram ,HR, 413/4, Jacubpura, Gurugram, New Railway Road near Jeevan multi specialist hospital, Gurugram - 122001, Dist.Gurgaon, Haryana",8045909409,
"Cotton Disposable Loose Baby Diaper (LARGE), Age Group: 1-2 Years, Packaging Size: 500",https://www.indiamart.com/proddetail/loose-baby-diaper-large-24257063630.html?pos=6&kwd=disposable baby diapers&tags=A||||8230.883|Price|product|||TS|rsf:gd-|-stype:attr=1|qr_nm:gd|res:RC4|com-cf:nl|ptrs:na|ktp:N0|mc:26674|mtp:S|qry_typ:P|lang:en|wc:3|flavl:0|cs:9605|v=4,M. D. Hygiene Private Limited,https://www.mdhygieneindia.com/?pos=6&kwd=disposable baby diapers&tags=A||||8230.883|Price|product|||TS|rsf:gd-|-stype:attr=1|qr_nm:gd|res:RC4|com-cf:nl|ptrs:na|ktp:N0|mc:26674|mtp:S|qry_typ:P|lang:en|wc:3|flavl:0|cs:9605|v=4,True,Tadkeshwar,Surat,"Block No. 959, Kim Mandvi Road, Tadkeshwar, Surat - 394170, Dist.Surat, Gujarat",8046050788,
"Bella Happy Baby Diapers Large 80 Pcs, Age Group: 5 Year",https://www.indiamart.com/proddetail/bella-happy-baby-diapers-large-80-pcs-27627308933.html?pos=7&kwd=disposable baby diapers&tags=A||||8663.873|Price|product|||TS|rsf:gd-|-stype:attr=1|qr_nm:gd|res:RC4|com-cf:nl|ptrs:na|ktp:N0|mc:26674|mtp:S|qry_typ:P|lang:en|wc:3|flavl:0|cs:9605|v=4,TZMO India South Private Limited,https://www.indiamart.com/tzmoindiasouth/?pos=7&kwd=disposable baby diapers&tags=A||||8663.873|Price|product|||TS|rsf:gd-|-stype:attr=1|qr_nm:gd|res:RC4|com-cf:nl|ptrs:na|ktp:N0|mc:26674|mtp:S|qry_typ:P|lang:en|wc:3|flavl:0|cs:9605|v=4,False,New Timber Yard Layout,Bengaluru,"No.2, 1st Floor, Featherlite Building, Mysore Road, New Timber Yard Layout, New Timber Yard Layout, Bengaluru - 560026, Dist.Bengaluru, Karnataka",8048619127,
"Mix Day Night Care Baby Diapers (Small, Medium, Large), Packaging Type: Pouches, Age Group: 3-12 Months",https://www.indiamart.com/proddetail/day-night-care-baby-diapers-small-medium-large-2851616726548.html?pos=8&kwd=disposable baby diapers&tags=A||||8752.144|Price|product|||TS|rsf:gd-|-stype:attr=1|qr_nm:gd|res:RC4|com-cf:nl|ptrs:na|ktp:N0|mc:26674|mtp:S|qry_typ:P|lang:en|wc:3|flavl:0|cs:9605|v=4,MSND Manufacturing,https://www.indiamart.com/msnd-manufacturing/?pos=8&kwd=disposable baby diapers&tags=A||||8752.144|Price|product|||TS|rsf:gd-|-stype:attr=1|qr_nm:gd|res:RC4|com-cf:nl|ptrs:na|ktp:N0|mc:26674|mtp:S|qry_typ:P|lang:en|wc:3|flavl:0|cs:9605|v=4,False,Mandoli,New Delhi,"Ground Floor at C-2/80, floor-Kh. No. 34/1/1, G/F, Gali No.2, Harsh Vihar,, Mandoli, New Delhi - 110093, Dist.Delhi, Delhi",8046032266,
BUNNYPOKOPANTS Nonwoven Baby Diaper Pant,https://www.indiamart.com/proddetail/baby-diaper-pant-23265599455.html?pos=9&kwd=disposable baby diapers&tags=A||||9228.171|Price|product|||TS|rsf:gd-|-stype:attr=1|qr_nm:gd|res:RC4|com-cf:nl|ptrs:na|ktp:N0|mc:26674|mtp:S|qry_typ:P|lang:en|wc:3|flavl:0|cs:9605|v=4,Evergreen Care,https://www.indiamart.com/evergreencare-faizabad/?pos=9&kwd=disposable baby diapers&tags=A||||9228.171|Price|product|||TS|rsf:gd-|-stype:attr=1|qr_nm:gd|res:RC4|com-cf:nl|ptrs:na|ktp:N0|mc:26674|mtp:S|qry_typ:P|lang:en|wc:3|flavl:0|cs:9605|v=4,False,Faizabad Cantt,Faizabad,"Near Raebareilly Bypass, Faizabad Cantt, Faizabad - 224202, Uttar Pradesh",8046054746,
"Disposable Baby Diapers, Age Group: 1to2 Years, Size: Medium",https://www.indiamart.com/proddetail/disposable-baby-diapers-26885298573.html?pos=10&kwd=disposable baby diapers&tags=A||||8210.732|Price|product|||TS|rsf:gd-|-stype:attr=1|qr_nm:gd|res:RC4|com-cf:nl|ptrs:na|ktp:N0|mc:26674|mtp:S|qry_typ:P|lang:en|wc:3|flavl:0|cs:9605|v=4,M S Enterprises,https://www.indiamart.com/m-senterprisesmumbai/?pos=10&kwd=disposable baby diapers&tags=A||||8210.732|Price|product|||TS|rsf:gd-|-stype:attr=1|qr_nm:gd|res:RC4|com-cf:nl|ptrs:na|ktp:N0|mc:26674|mtp:S|qry_typ:P|lang:en|wc:3|flavl:0|cs:9605|v=4,False,Andheri East,Vasai,"1st Floor, Gala No 113, Rajprabha Industrial Enclave No 6, Boidapada, Vasai East Palghar, Andheri East, Vasai - 401208, Dist.Thane, Maharashtra",8048974810,
Nonwoven Baby Diaper Xl Size suitable for 12-18 kg baby,https://www.indiamart.com/proddetail/baby-diaper-xl-size-suitable-for-12-18-kg-baby-2854907079097.html?pos=11&kwd=disposable baby diapers&tags=A||||8228.275|Price|product|||TS|rsf:gd-|-stype:attr=1|qr_nm:gd|res:RC4|com-cf:nl|ptrs:na|ktp:N0|mc:26674|mtp:S|qry_typ:P|lang:en|wc:3|flavl:0|cs:9605|v=4,Patoliya Exports Private Limited,https://www.indiamart.com/patoliya-exports-ahmedabad/?pos=11&kwd=disposable baby diapers&tags=A||||8228.275|Price|product|||TS|rsf:gd-|-stype:attr=1|qr_nm:gd|res:RC4|com-cf:nl|ptrs:na|ktp:N0|mc:26674|mtp:S|qry_typ:P|lang:en|wc:3|flavl:0|cs:9605|v=4,False,OPP GVMM,Ahmedabad,"B-62, Bileshwar Industrial Estate, OPP GVMM, Ahmedabad - 382415, Dist.Ahmedabad, Gujarat",8044458925,
"Mama Magic Diaper, Age Group: 1to2 Years, Size: XXL",https://www.indiamart.com/proddetail/mama-magic-diaper-2854976149973.html?pos=12&kwd=disposable baby diapers&tags=A||||8559.269|Price|product|||TS|rsf:gd-|-stype:attr=1|qr_nm:gd|res:RC4|com-cf:nl|ptrs:na|ktp:N0|mc:26674|mtp:S|qry_typ:P|lang:en|wc:3|flavl:0|cs:9605|v=4,Aadaarsh Enterprise,https://www.hellosweetybabydaiper.com/?pos=12&kwd=disposable baby diapers&tags=A||||8559.269|Price|product|||TS|rsf:gd-|-stype:attr=1|qr_nm:gd|res:RC4|com-cf:nl|ptrs:na|ktp:N0|mc:26674|mtp:S|qry_typ:P|lang:en|wc:3|flavl:0|cs:9605|v=4,False,,Indore,"2,Sher Shah Suri Nagar B, Khajrana, Indore - 452001, Dist.Indore, Madhya Pradesh",8043879050,
"Non Branded Nonwoven Disposable Cotton Baby Diaper, Packaging Size: 75 Pieces",https://www.indiamart.com/proddetail/disposable-cotton-baby-diaper-24408777388.html?pos=13&kwd=disposable baby diapers&tags=A||||8760.897|Price|product|||MDC|rsf:gd-|-stype:attr=1|qr_nm:gd|res:RC4|com-cf:nl|ptrs:na|ktp:N0|mc:26674|mtp:S|qry_typ:P|lang:en|wc:3|flavl:0|cs:9605|v=4,Lavin Health Vision,https://www.indiamart.com/lavin-health-vision/?pos=13&kwd=disposable baby diapers&tags=A||||8760.897|Price|product|||MDC|rsf:gd-|-stype:attr=1|qr_nm:gd|res:RC4|com-cf:nl|ptrs:na|ktp:N0|mc:26674|mtp:S|qry_typ:P|lang:en|wc:3|flavl:0|cs:9605|v=4,False,Fatehpur Diwanwala,Pinjore,"2081, Green Valley, Ghatiwala, Dharampur Road, Fatehpur Diwanwala, Pinjore - 134204, Dist.Panchkula, Haryana",8046069282,
Disposable Baby Diapers,https://www.indiamart.com/proddetail/disposable-baby-diapers-2853717099291.html?pos=14&kwd=disposable baby diapers&tags=A||||8752.144|Price|product|||TS|rsf:gd-|-stype:attr=1|qr_nm:gd|res:RC4|com-cf:nl|ptrs:na|ktp:N0|mc:26674|mtp:S|qry_typ:P|lang:en|wc:3|flavl:0|cs:9605|v=4,Sri Rajbhan Enterprises,https://www.indiamart.com/srirajbhanenterprises/?pos=14&kwd=disposable baby diapers&tags=A||||8752.144|Price|product|||TS|rsf:gd-|-stype:attr=1|qr_nm:gd|res:RC4|com-cf:nl|ptrs:na|ktp:N0|mc:26674|mtp:S|qry_typ:P|lang:en|wc:3|flavl:0|cs:9605|v=4,False,,New Delhi,"Flat No 18, Ganga Apartment, Alaknanda, New Delhi - 110019, Dist.Delhi, Delhi",7942956951,
"Baby Printed Cotton Disposable Diapers, Large",https://www.indiamart.com/proddetail/baby-printed-cotton-disposable-diapers-2854712654833.html?pos=15&kwd=disposable baby diapers&tags=A||||8752.144|Price|product|||MDC|rsf:gd-|-stype:attr=1|qr_nm:gd|res:RC4|com-cf:nl|ptrs:na|ktp:N0|mc:26674|mtp:S|qry_typ:P|lang:en|wc:3|cs:8842|v=4,Siddiqui And Sons,https://www.indiamart.com/siddiqui-sons-northdelhi/?pos=15&kwd=disposable baby diapers&tags=A||||8752.144|Price|product|||MDC|rsf:gd-|-stype:attr=1|qr_nm:gd|res:RC4|com-cf:nl|ptrs:na|ktp:N0|mc:26674|mtp:S|qry_typ:P|lang:en|wc:3|cs:8842|v=4,False,,New Delhi,"S/F, B-38, B- Block Gokal Puri, Near Post Office, North East Delhi,, New Delhi - 110094, Dist.Delhi, Delhi",7949324358,
White Cotton Medium Disposable Baby Diaper Pant B Garde,https://www.indiamart.com/proddetail/medium-disposable-baby-diaper-pant-2853037615433.html?pos=16&kwd=disposable baby diapers&tags=A||||8785.791|Price|product|||MDC|rsf:gd-|-stype:attr=1|qr_nm:gd|res:RC4|com-cf:nl|ptrs:na|ktp:N0|mc:26674|mtp:S|qry_typ:P|lang:en|wc:3|cs:8842|v=4,Ghani Enterprises,https://www.indiamart.com/ghanienterprises/?pos=16&kwd=disposable baby diapers&tags=A||||8785.791|Price|product|||MDC|rsf:gd-|-stype:attr=1|qr_nm:gd|res:RC4|com-cf:nl|ptrs:na|ktp:N0|mc:26674|mtp:S|qry_typ:P|lang:en|wc:3|cs:8842|v=4,False,,Ghaziabad,"House No-71 Chaman Colony, Islam Nagar, Ghaziabad - 201001, Dist.Ghaziabad, Uttar Pradesh",7942964362,
Disposable XL Baby Diaper Pant,https://www.indiamart.com/proddetail/disposable-xl-baby-diaper-pant-2853060987888.html?pos=17&kwd=disposable baby diapers&tags=A||||8767.009|Price|product|||TS|rsf:gd-|-stype:attr=1|qr_nm:gd|res:RC4|com-cf:nl|ptrs:na|ktp:N0|mc:26674|mtp:S|qry_typ:P|lang:en|wc:3|cs:8842|v=4,Dakshu Enterprise,https://www.indiamart.com/dakshu-enterprise/?pos=17&kwd=disposable baby diapers&tags=A||||8767.009|Price|product|||TS|rsf:gd-|-stype:attr=1|qr_nm:gd|res:RC4|com-cf:nl|ptrs:na|ktp:N0|mc:26674|mtp:S|qry_typ:P|lang:en|wc:3|cs:8842|v=4,False,,Baghpat,"0,,Delhi Saharanpur road,Baghpat, Baghpat - 250609, Dist.Bagpat, Uttar Pradesh",7949339950,
"White Cotton Disposable Baby Diapers, Size: Medium",https://www.indiamart.com/proddetail/cotton-disposable-baby-diapers-2851980183073.html?pos=18&kwd=disposable baby diapers&tags=A||||9501.713|Price|product|||TS|rsf:gd-|-stype:attr=1|qr_nm:gd|res:RC4|com-cf:nl|ptrs:na|ktp:N0|mc:26674|mtp:S|qry_typ:P|lang:en|wc:3|cs:8842|v=4,No.1 Health Care,https://www.indiamart.com/no1-healthcare/?pos=18&kwd=disposable baby diapers&tags=A||||9501.713|Price|product|||TS|rsf:gd-|-stype:attr=1|qr_nm:gd|res:RC4|com-cf:nl|ptrs:na|ktp:N0|mc:26674|mtp:S|qry_typ:P|lang:en|wc:3|cs:8842|v=4,False,Musahri,Motihari,"Baluwa,Malahi Panchbalua,Paharpur,Purbi Champaran, Musahri, Motihari - 845422, Dist.East Champaran, Bihar",8048981915,
"XXL Disposable Baby Diaper, Age Group: 1-2 Years",https://www.indiamart.com/proddetail/xxl-disposable-baby-diaper-2851359747933.html?pos=19&kwd=disposable baby diapers&tags=A||||8211.142|Price|product|||TS|rsf:gd-|-stype:attr=1|qr_nm:gd|res:RC4|com-cf:nl|ptrs:na|ktp:N0|mc:26674|mtp:S|qry_typ:P|lang:en|wc:3|cs:8842|v=4,Aglodia Corporation,https://www.aglodiacorp.com/?pos=19&kwd=disposable baby diapers&tags=A||||8211.142|Price|product|||TS|rsf:gd-|-stype:attr=1|qr_nm:gd|res:RC4|com-cf:nl|ptrs:na|ktp:N0|mc:26674|mtp:S|qry_typ:P|lang:en|wc:3|cs:8842|v=4,False,Goregaon West,Mumbai,"315/2512 motilal nagar 2 MG road Goregaon west, Goregaon West, Mumbai - 400064, Dist.Mumbai, Maharashtra",7942842515,
Cotton Disposable Baby Diapers,https://www.indiamart.com/proddetail/disposable-baby-diapers-2850963472888.html?pos=20&kwd=disposable baby diapers&tags=A||||8785.791|Price|product|||TS|rsf:gd-|-stype:attr=1|qr_nm:gd|res:RC4|com-cf:nl|ptrs:na|ktp:N0|mc:26674|mtp:S|qry_typ:P|lang:en|wc:3|cs:8842|v=4,Kshristi Enterprises,https://www.indiamart.com/kshristi-enterprises/?pos=20&kwd=disposable baby diapers&tags=A||||8785.791|Price|product|||TS|rsf:gd-|-stype:attr=1|qr_nm:gd|res:RC4|com-cf:nl|ptrs:na|ktp:N0|mc:26674|mtp:S|qry_typ:P|lang:en|wc:3|cs:8842|v=4,False,Sahibabad,Ghaziabad,"S 57 Harsha campound mohan nagar industrial area Ghaziabad Uttar Pradesh, Sahibabad, Ghaziabad - 201005, Dist.Ghaziabad, Uttar Pradesh",8046078120,
"Disposable Baby Diapers, Age Group: 1-2 Years, Size: Medium",https://www.indiamart.com/proddetail/disposable-baby-diapers-2852538473397.html?pos=21&kwd=disposable baby diapers&tags=A||||8211.142|Price|product|||TS|rsf:gd-|-stype:attr=1|qr_nm:gd|res:RC4|com-cf:nl|ptrs:na|ktp:N0|mc:26674|mtp:S|qry_typ:P|lang:en|wc:3|cs:8842|v=4,PAC Healthcare & Surgicals,https://www.healthcaredealer.in/?pos=21&kwd=disposable baby diapers&tags=A||||8211.142|Price|product|||TS|rsf:gd-|-stype:attr=1|qr_nm:gd|res:RC4|com-cf:nl|ptrs:na|ktp:N0|mc:26674|mtp:S|qry_typ:P|lang:en|wc:3|cs:8842|v=4,False,Borivali West,Mumbai,"5, Bill Berry Apartment, I. C. Colony, Borivali West, Mumbai - 400103, Dist.Mumbai, Maharashtra",8048960800,
White Toddlers Disposable Baby Diapers Large,https://www.indiamart.com/proddetail/toddlers-disposable-baby-diapers-large-20256381188.html?pos=22&kwd=disposable baby diapers&tags=A||||8786.56|Price|product|||TS|rsf:gd-|-stype:attr=1|qr_nm:gd|res:RC4|com-cf:nl|ptrs:na|ktp:N0|mc:26674|mtp:S|qry_typ:P|lang:en|wc:3|cs:8842|v=4,ADML(ADROIT MOLECULES),https://www.adroitmolecules.com/?pos=22&kwd=disposable baby diapers&tags=A||||8786.56|Price|product|||TS|rsf:gd-|-stype:attr=1|qr_nm:gd|res:RC4|com-cf:nl|ptrs:na|ktp:N0|mc:26674|mtp:S|qry_typ:P|lang:en|wc:3|cs:8842|v=4,False,Annaram,Hyderabad,"Plot No. 523/2 Dundigal Village , Medchal, Malkajgiri, Near Marri Laxman Reddy Engineering College, Annaram, Hyderabad - 500043, Dist.Hyderabad, Telangana",8046057643,
"Disposable Baby Diapers, Size: Small",https://www.indiamart.com/proddetail/disposable-baby-diapers-26416566612.html?pos=23&kwd=disposable baby diapers&tags=A||||8954.051|Price|product|||TS|rsf:gd-|-stype:attr=1|qr_nm:gd|res:RC4|com-cf:nl|ptrs:na|ktp:N0|mc:26674|mtp:S|qry_typ:P|lang:en|wc:3|cs:8842|v=4,Immanlyn Old Age Traders,https://www.immanlyn.in/?pos=23&kwd=disposable baby diapers&tags=A||||8954.051|Price|product|||TS|rsf:gd-|-stype:attr=1|qr_nm:gd|res:RC4|com-cf:nl|ptrs:na|ktp:N0|mc:26674|mtp:S|qry_typ:P|lang:en|wc:3|cs:8842|v=4,False,T Nagar,Chennai,"Old No 6 New No 15, Saravana Street, T Nagar, T Nagar, Chennai - 600017, Dist.Chennai, Tamil Nadu",8046053387,
Cotton Disposable Baby Diapers,https://www.indiamart.com/proddetail/disposable-baby-diapers-2852423072062.html?pos=24&kwd=disposable baby diapers&tags=A||||9110.092|Price|product|||TS|rsf:gd-|-stype:attr=1|qr_nm:gd|res:RC4|com-cf:nl|ptrs:na|ktp:N0|mc:26674|mtp:S|qry_typ:P|lang:en|wc:3|cs:8842|v=4,Utkarsh Health Care,https://www.indiamart.com/utkarshhealthcare/?pos=24&kwd=disposable baby diapers&tags=A||||9110.092|Price|product|||TS|rsf:gd-|-stype:attr=1|qr_nm:gd|res:RC4|com-cf:nl|ptrs:na|ktp:N0|mc:26674|mtp:S|qry_typ:P|lang:en|wc:3|cs:8842|v=4,False,Mahona,Lucknow,"Village Saraiya, Pargana Mahona, Baksi Ka Talab,, Mahona, Lucknow - 226203, Dist.Lucknow, Uttar Pradesh",7942865345,
"Disposable Baby Diapers, Age Group: Newly Born, Size: Small",https://www.indiamart.com/proddetail/disposable-baby-diapers-2852357379573.html?pos=25&kwd=disposable baby diapers&tags=A||||8717.056|Price|product|||TS|rsf:gd-|-stype:attr=1|qr_nm:gd|res:RC4|com-cf:nl|ptrs:na|ktp:N0|mc:26674|mtp:S|qry_typ:P|lang:en|wc:3|cs:8842|v=4,Best Diapers,https://www.bestdiapers.net/?pos=25&kwd=disposable baby diapers&tags=A||||8717.056|Price|product|||TS|rsf:gd-|-stype:attr=1|qr_nm:gd|res:RC4|com-cf:nl|ptrs:na|ktp:N0|mc:26674|mtp:S|qry_typ:P|lang:en|wc:3|cs:8842|v=4,False,Tata Colony,Salem,"591/3 Pillayar Nagar Siddharkoil Main Road Pillayar Nagar, Siddhar Koil Main Road, Tata Colony, Salem - 636005, Dist.Salem, Tamil Nadu",7942703611,
"Cotton Disposable Baby Diaper Pant, Age Group: Newly Born, Size: Large",https://www.indiamart.com/proddetail/cotton-disposable-baby-diaper-pant-2853301260312.html?pos=26&kwd=disposable baby diapers&tags=A||||8559.269|Price|product|||TS|rsf:gd-|-stype:attr=1|qr_nm:gd|res:RC4|com-cf:nl|ptrs:na|ktp:N0|mc:26674|mtp:S|qry_typ:P|lang:en|wc:3|cs:8842|v=4,Pulkit Enterprises,https://www.indiamart.com/pulkitenterprises-indor/?pos=26&kwd=disposable baby diapers&tags=A||||8559.269|Price|product|||TS|rsf:gd-|-stype:attr=1|qr_nm:gd|res:RC4|com-cf:nl|ptrs:na|ktp:N0|mc:26674|mtp:S|qry_typ:P|lang:en|wc:3|cs:8842|v=4,False,,Indore,"505, Kalpana Apartment, 1, 7,South Tukoganj, Indore - 452001, Dist.Indore, Madhya Pradesh",8048961141,
"Million Disposable Baby Diapers Pants XXXL, Size: Newly Born to XL",https://www.indiamart.com/proddetail/million-disposable-baby-diapers-pants-xxxl-21733072212.html?pos=27&kwd=disposable baby diapers&tags=A||||8559.269|Price|product|||TS|rsf:gd-|-stype:attr=1|qr_nm:gd|res:RC4|com-cf:nl|ptrs:na|ktp:N0|mc:26674|mtp:S|qry_typ:P|lang:en|wc:3|cs:8842|v=4,AL Arhan Trading Company,https://www.indiamart.com/al-arhan-trading-company/?pos=27&kwd=disposable baby diapers&tags=A||||8559.269|Price|product|||TS|rsf:gd-|-stype:attr=1|qr_nm:gd|res:RC4|com-cf:nl|ptrs:na|ktp:N0|mc:26674|mtp:S|qry_typ:P|lang:en|wc:3|cs:8842|v=4,False,Nandlalpura,Indore,"380, Sector B, Chandan Nagar Ground Floor, Nandlalpura, Indore - 452002, Dist.Indore, Madhya Pradesh",8047635284,
"Disposable Baby Diaper, S m l xl xxl",https://www.indiamart.com/proddetail/disposable-baby-diaper-21905015373.html?pos=28&kwd=disposable baby diapers&tags=A||||8954.051|Price|product|||TS|rsf:gd-|-stype:attr=1|qr_nm:gd|res:RC4|com-cf:nl|ptrs:na|ktp:N0|mc:26674|mtp:S|qry_typ:P|lang:en|wc:3|cs:8842|v=4,The Exultant Enterprises,https://www.theexultantenterprises.com/?pos=28&kwd=disposable baby diapers&tags=A||||8954.051|Price|product|||TS|rsf:gd-|-stype:attr=1|qr_nm:gd|res:RC4|com-cf:nl|ptrs:na|ktp:N0|mc:26674|mtp:S|qry_typ:P|lang:en|wc:3|cs:8842|v=4,False,Velacheri,Chennai,"Building No. 13, New Secreterary Colony 6th Street,, Velacheri, Chennai - 600042, Dist.Chennai, Tamil Nadu",8048960064,
Cotton Bebe Baby Diaper - Premature,https://www.indiamart.com/proddetail/bebe-baby-diaper-premature-2852386252455.html?pos=29&kwd=disposable baby diapers&tags=A||||8954.051|Price|product|||TS|rsf:gd-|-stype:attr=1|qr_nm:gd|res:RC4|com-cf:nl|ptrs:na|ktp:N0|mc:26674|mtp:S|qry_typ:P|lang:en|wc:3|cs:8842|v=4,Realcare Hygienic Products Private Limited,https://www.realcarefmcg.com/?pos=29&kwd=disposable baby diapers&tags=A||||8954.051|Price|product|||TS|rsf:gd-|-stype:attr=1|qr_nm:gd|res:RC4|com-cf:nl|ptrs:na|ktp:N0|mc:26674|mtp:S|qry_typ:P|lang:en|wc:3|cs:8842|v=4,False,Sidco Industrial Estate,Chennai,"No 69 C, Sidco Industrial Estate, 12th Street, Ambattur, Sidco Industrial Estate, Chennai - 600098, Dist.Chennai, Tamil Nadu",8046064437,
Stay Sure Baby Diaper,https://www.indiamart.com/proddetail/stay-sure-baby-diaper-15123847173.html?pos=30&kwd=disposable baby diapers&tags=A||||8307.81|Price|product|||TS|rsf:gd-|-stype:attr=1|qr_nm:gd|res:RC4|com-cf:nl|ptrs:na|ktp:N0|mc:26674|mtp:S|qry_typ:P|lang:en|wc:3|cs:8842|v=4,Eternis Hygiene Products,https://www.indiamart.com/eternis-hygiene-products/?pos=30&kwd=disposable baby diapers&tags=A||||8307.81|Price|product|||TS|rsf:gd-|-stype:attr=1|qr_nm:gd|res:RC4|com-cf:nl|ptrs:na|ktp:N0|mc:26674|mtp:S|qry_typ:P|lang:en|wc:3|cs:8842|v=4,False,Kharabwadi,Pune,"Plot No. 5, Gat No. 357/95 Waghjai Nagar, Kharabwadi, Chakan, Khed, Kharabwadi, Pune - 410501, Dist.Pune, Maharashtra",8046042766,
"Disposable Tape Style Baby Diaper, Packaging Size: In Loose",https://www.indiamart.com/proddetail/tape-style-baby-diaper-23242315591.html?pos=31&kwd=disposable baby diapers&tags=A||||9839.57|Price|product|||TS|rsf:gd-|-stype:attr=1|qr_nm:gd|res:RC4|com-cf:nl|ptrs:na|ktp:N0|mc:26674|mtp:S|qry_typ:P|lang:en|wc:3|cs:8842|v=4,Solace Group Of Companies,https://www.indiamart.com/solace-group-of-companies/?pos=31&kwd=disposable baby diapers&tags=A||||9839.57|Price|product|||TS|rsf:gd-|-stype:attr=1|qr_nm:gd|res:RC4|com-cf:nl|ptrs:na|ktp:N0|mc:26674|mtp:S|qry_typ:P|lang:en|wc:3|cs:8842|v=4,False,Kulia,Kolkata,"95/D-2, Basundhara, Chingrighata, 3rd Floor Canal South Road, Kulia, Kolkata - 700105, Dist.Kolkata, West Bengal",8046057508,
"CAREFOR Nonwoven Disposable Baby Diaper, Age Group: 3-12 Months",https://www.indiamart.com/proddetail/disposable-baby-diaper-14458471988.html?pos=32&kwd=disposable baby diapers&tags=A||||8500.97|Price|product|||TS|rsf:gd-|-stype:attr=1|qr_nm:gd|res:RC4|com-cf:nl|ptrs:na|ktp:N0|mc:26674|mtp:S|qry_typ:P|lang:en|wc:3|cs:8842|v=4,Arambans Exporters Private Limited,https://www.indiamart.com/arambansexporters/?pos=32&kwd=disposable baby diapers&tags=A||||8500.97|Price|product|||TS|rsf:gd-|-stype:attr=1|qr_nm:gd|res:RC4|com-cf:nl|ptrs:na|ktp:N0|mc:26674|mtp:S|qry_typ:P|lang:en|wc:3|cs:8842|v=4,False,Kuriachira,Thrissur,"Attokaran, TT Road, Kuriachira PO, Kuriachira, Thrissur - 680006, Dist.Thrissur, Kerala",8046058355,
"Disposable Baby Diapers, Age Group: 3-12 Months, Size: XL",https://www.indiamart.com/proddetail/disposable-baby-diapers-2852794759791.html?pos=33&kwd=disposable baby diapers&tags=A||||8785.791|Price|product|||MDC|rsf:gd-|-stype:attr=1|qr_nm:gd|res:RC4|com-cf:nl|ptrs:na|ktp:N0|mc:26674|mtp:S|qry_typ:P|lang:en|wc:3|cs:8842|v=4,Rajput Enterprises,https://www.indiamart.com/rajputenterprises-uttarpradesh/?pos=33&kwd=disposable baby diapers&tags=A||||8785.791|Price|product|||MDC|rsf:gd-|-stype:attr=1|qr_nm:gd|res:RC4|com-cf:nl|ptrs:na|ktp:N0|mc:26674|mtp:S|qry_typ:P|lang:en|wc:3|cs:8842|v=4,False,Vaishali,Ghaziabad,"5/598, Vaishali, Ghaziabad, Vaishali, Ghaziabad - 201019, Dist.Ghaziabad, Uttar Pradesh",7942800806,
"Disposable Cotton Baby Diapers, Age Group: 3to12 Months, Size: Medium",https://www.indiamart.com/proddetail/disposable-cotton-baby-diapers-2853884351097.html?pos=34&kwd=disposable baby diapers&tags=A||||9110.092|Price|product|||MDC|rsf:gd-|-stype:attr=1|qr_nm:gd|res:RC4|com-cf:nl|ptrs:na|ktp:N0|mc:26674|mtp:S|qry_typ:P|lang:en|wc:3|cs:8842|v=4,King Import And Export,https://www.indiamart.com/kingimportexport/?pos=34&kwd=disposable baby diapers&tags=A||||9110.092|Price|product|||MDC|rsf:gd-|-stype:attr=1|qr_nm:gd|res:RC4|com-cf:nl|ptrs:na|ktp:N0|mc:26674|mtp:S|qry_typ:P|lang:en|wc:3|cs:8842|v=4,False,Hind Nagar,Lucknow,"F-489, Lucknow Bypass, Parking No 9, Transport Nagar, Hind Nagar, Lucknow - 226012, Dist.Lucknow, Uttar Pradesh",7949086924,
White(base) Cotton Small Baby Diaper,https://www.indiamart.com/proddetail/cotton-small-baby-diaper-2852467236312.html?pos=35&kwd=disposable baby diapers&tags=A||||8601.347|Price|product|||MDC|rsf:gd-|-stype:attr=1|qr_nm:gd|res:RC4|com-cf:nl|ptrs:na|ktp:N0|mc:26674|mtp:S|qry_typ:P|lang:en|wc:3|cs:8842|v=4,Smilemax Hygiene Pvt. Ltd.,https://www.indiamart.com/smilemaxhygiene/?pos=35&kwd=disposable baby diapers&tags=A||||8601.347|Price|product|||MDC|rsf:gd-|-stype:attr=1|qr_nm:gd|res:RC4|com-cf:nl|ptrs:na|ktp:N0|mc:26674|mtp:S|qry_typ:P|lang:en|wc:3|cs:8842|v=4,False,Ashok Nagar,Jaipur,"C-61A C-Scheme Sarojini Marg, Ashok Nagar, Jaipur - 302001, Dist.Jaipur, Rajasthan",7942711844,
Disposable Baby Diapers,https://www.indiamart.com/proddetail/disposable-baby-diapers-2854878513462.html?pos=36&kwd=disposable baby diapers&tags=A||||8739.675|Price|product|||MDC|rsf:gd-|-stype:attr=1|qr_nm:gd|res:RC4|com-cf:nl|ptrs:na|ktp:N0|mc:26674|mtp:S|qry_typ:P|lang:en|wc:3|cs:8842|v=4,Sneh Industry,https://www.indiamart.com/snehindustry/?pos=36&kwd=disposable baby diapers&tags=A||||8739.675|Price|product|||MDC|rsf:gd-|-stype:attr=1|qr_nm:gd|res:RC4|com-cf:nl|ptrs:na|ktp:N0|mc:26674|mtp:S|qry_typ:P|lang:en|wc:3|cs:8842|v=4,False,Sultanpur,Amravati,"Near Gram Panchayat, Sultanpur, Revsa, Sultanpur, Amravati - 444801, Dist.Amravati, Maharashtra",7942784375,
Nonwoven Loose Baby Diapers,https://www.indiamart.com/proddetail/loose-baby-diapers-2851807947255.html?pos=37&kwd=disposable baby diapers&tags=A||||8694.802|Price|product|||MDC|rsf:gd-|-stype:attr=1|qr_nm:gd|res:RC4|com-cf:nl|ptrs:na|ktp:N0|mc:26674|mtp:S|qry_typ:P|lang:en|wc:3|cs:8842|v=4,Usha Enterprises,https://www.indiamart.com/usha-enterprises-bawal/?pos=37&kwd=disposable baby diapers&tags=A||||8694.802|Price|product|||MDC|rsf:gd-|-stype:attr=1|qr_nm:gd|res:RC4|com-cf:nl|ptrs:na|ktp:N0|mc:26674|mtp:S|qry_typ:P|lang:en|wc:3|cs:8842|v=4,False,Jaliawas,Bawal,"Plot No-195, Ground Floor, Sector-3, Hsiidc- Bawal, Rewari, Jaliawas, Bawal - 123501, Dist.Rewari, Haryana",8047830686,
"Printed Baby Diaper Pants, Packaging Size: Large",https://www.indiamart.com/proddetail/baby-diaper-pants-2853394783091.html?pos=38&kwd=disposable baby diapers&tags=A||||8228.275|Price|product|||MDC|rsf:gd-|-stype:attr=1|qr_nm:gd|res:RC4|com-cf:nl|ptrs:na|ktp:N0|mc:26674|mtp:S|qry_typ:P|lang:en|wc:3|cs:8842|v=4,Ashok Sunderdas Jarwani,https://www.indiamart.com/ashoksunderdasjarwani/?pos=38&kwd=disposable baby diapers&tags=A||||8228.275|Price|product|||MDC|rsf:gd-|-stype:attr=1|qr_nm:gd|res:RC4|com-cf:nl|ptrs:na|ktp:N0|mc:26674|mtp:S|qry_typ:P|lang:en|wc:3|cs:8842|v=4,False,Sardarnagar,Ahmedabad,"17, First Floor, Sardarnagar Main Road Rukmani Market, Sardarnagar, Ahmedabad - 382475, Dist.Ahmedabad, Gujarat",7942958384,
SafeEver Nonwoven Tape Style Baby Diaper,https://www.indiamart.com/proddetail/tape-style-baby-diaper-21843584562.html?pos=39&kwd=disposable baby diapers&tags=A||||8316.457|Price|product|||MDC|rsf:gd-|-stype:attr=1|qr_nm:gd|res:RC4|com-cf:nl|ptrs:na|ktp:N0|mc:26674|mtp:S|qry_typ:P|lang:en|wc:3|cs:8842|v=4,Manavata Hygiene,https://www.indiamart.com/manavatahygiene/?pos=39&kwd=disposable baby diapers&tags=A||||8316.457|Price|product|||MDC|rsf:gd-|-stype:attr=1|qr_nm:gd|res:RC4|com-cf:nl|ptrs:na|ktp:N0|mc:26674|mtp:S|qry_typ:P|lang:en|wc:3|cs:8842|v=4,False,Vadangli,Nashik,"Shri Kruoa Nagar, Maparwadu Road, Sinnar,, Vadangli, Nashik - 422103, Dist.Nashik, Maharashtra",8047544880,
"Cotton Disposable Baby Diapers, Medium",https://www.indiamart.com/proddetail/disposable-baby-diapers-2854759715497.html?pos=40&kwd=disposable baby diapers&tags=A||||8752.144|Price|product|||MDC|rsf:gd-|-stype:attr=1|qr_nm:gd|res:RC4|com-cf:nl|ptrs:na|ktp:N0|mc:26674|mtp:S|qry_typ:P|lang:en|wc:3|cs:8842|v=4,Ayavic Products Enterprises,https://www.indiamart.com/ayavic-products-enterprises/?pos=40&kwd=disposable baby diapers&tags=A||||8752.144|Price|product|||MDC|rsf:gd-|-stype:attr=1|qr_nm:gd|res:RC4|com-cf:nl|ptrs:na|ktp:N0|mc:26674|mtp:S|qry_typ:P|lang:en|wc:3|cs:8842|v=4,False,(West),New Delhi,"Ground Floor,H No. 169, Shop No.2, Uttam Nagar, Vipin Garden Extension, (West), New Delhi - 110059, Dist.Delhi, Delhi",8044564544,
"Cotton Baby diaper PKT, XL",https://www.indiamart.com/proddetail/baby-diaper-pkt-2853854963497.html?pos=41&kwd=disposable baby diapers&tags=A||||8559.269|Price|product|||MDC|rsf:gd-|-stype:attr=1|qr_nm:gd|res:RC4|com-cf:nl|ptrs:na|ktp:N0|mc:26674|mtp:S|qry_typ:P|lang:en|wc:3|cs:8842|v=4,Macsona Industries,https://www.indiamart.com/macsonaindustries/?pos=41&kwd=disposable baby diapers&tags=A||||8559.269|Price|product|||MDC|rsf:gd-|-stype:attr=1|qr_nm:gd|res:RC4|com-cf:nl|ptrs:na|ktp:N0|mc:26674|mtp:S|qry_typ:P|lang:en|wc:3|cs:8842|v=4,False,Bhagyashree Colony,Indore,"Scheme No 53, 36 Scheme N 53, Medanta Hospital, Bhagyashree Colony, Indore - 452010, Dist.Indore, Madhya Pradesh",7942825123,
"Disposable Baby Diapers, Age Group: 3-12 Months",https://www.indiamart.com/proddetail/disposable-baby-diapers-2852825263355.html?pos=42&kwd=disposable baby diapers&tags=A||||8482.679|Price|product|||TS|rsf:gd-|-stype:attr=1|qr_nm:gd|res:RC4|com-cf:nl|ptrs:na|ktp:N0|mc:26674|mtp:S|qry_typ:P|lang:en|wc:3|cs:8842|v=4,On The Spot Infra.,https://www.indiamart.com/onthe-spotinfra/?pos=42&kwd=disposable baby diapers&tags=A||||8482.679|Price|product|||TS|rsf:gd-|-stype:attr=1|qr_nm:gd|res:RC4|com-cf:nl|ptrs:na|ktp:N0|mc:26674|mtp:S|qry_typ:P|lang:en|wc:3|cs:8842|v=4,False,Bangrod,Ratlam,"Bangrod, Bangrod, Ratlam - 457001, Dist.Ratlam, Madhya Pradesh",7942559398,
New Born Baby Diapers,https://www.indiamart.com/proddetail/new-born-baby-diapers-2854228376012.html?pos=43&kwd=disposable baby diapers&tags=A||||8747.223|Price|product|||TS|rsf:gd-|-stype:attr=1|qr_nm:gd|res:RC4|com-cf:nl|ptrs:na|ktp:N0|mc:26674|mtp:S|qry_typ:P|lang:en|wc:3|cs:8842|v=4,Pioneer Hygiene Industries LLP,https://www.pioneerhygiene.co.in/?pos=43&kwd=disposable baby diapers&tags=A||||8747.223|Price|product|||TS|rsf:gd-|-stype:attr=1|qr_nm:gd|res:RC4|com-cf:nl|ptrs:na|ktp:N0|mc:26674|mtp:S|qry_typ:P|lang:en|wc:3|cs:8842|v=4,True,,Sonipat,"Kila No. 95//1/1, 12/13, 19 And 22/1/1, Akbarpur Barota, Sonipat - 131103, Dist.Sonipat, Haryana",8045731181,
"Disposable Baby Diapers, Age Group: 3to12 Months, Size: Small",https://www.indiamart.com/proddetail/disposable-baby-diapers-2854652931988.html?pos=44&kwd=disposable baby diapers&tags=A||||8038.093|Price|product|||MDC|rsf:gd-|-stype:attr=1|qr_nm:gd|res:RC4|com-cf:nl|ptrs:na|ktp:N0|mc:26674|mtp:S|qry_typ:P|lang:en|wc:3|cs:8842|v=4,Rudransh International,https://www.indiamart.com/rudransh-international-rajkot/?pos=44&kwd=disposable baby diapers&tags=A||||8038.093|Price|product|||MDC|rsf:gd-|-stype:attr=1|qr_nm:gd|res:RC4|com-cf:nl|ptrs:na|ktp:N0|mc:26674|mtp:S|qry_typ:P|lang:en|wc:3|cs:8842|v=4,False,,Rajkot,"3-indira Nagar Laxmi Nivas Kothariya Main Road Near Bhavnath Temple, Rajkot - 360002, Dist.Rajkot, Gujarat",7949323742,
Kids Disposable Diaper,https://www.indiamart.com/proddetail/kids-disposable-diaper-27218322691.html?pos=45&kwd=disposable baby diapers&tags=A||||8211.142|Price|product|||MDC|rsf:gd-|-stype:attr=1|qr_nm:gd|res:RC4|com-cf:nl|ptrs:na|ktp:N0|mc:26674|mtp:S|qry_typ:P|lang:en|wc:3|cs:8842|v=4,Shri Sai Pharma,https://www.indiamart.com/shrisaipharma/?pos=45&kwd=disposable baby diapers&tags=A||||8211.142|Price|product|||MDC|rsf:gd-|-stype:attr=1|qr_nm:gd|res:RC4|com-cf:nl|ptrs:na|ktp:N0|mc:26674|mtp:S|qry_typ:P|lang:en|wc:3|cs:8842|v=4,False,Sion,Mumbai,"No. 1 Building, 112, Ashok Nagar, Sion-Trombay Road Sion, Chunabhatti, Sion, Mumbai - 400022, Dist.Mumbai, Maharashtra",8046055538,
"Disposable Baby Diapers, Age Group: Newly Born, Size: Medium",https://www.indiamart.com/proddetail/disposable-baby-diapers-pants-2854885808655.html?pos=46&kwd=disposable baby diapers&tags=A||||8038.093|Price|product|||MDC|rsf:gd-|-stype:attr=1|qr_nm:gd|res:RC4|com-cf:nl|ptrs:na|ktp:N0|mc:26674|mtp:S|qry_typ:P|lang:en|wc:3|cs:8842|v=4,Kinshav Hub,https://www.indiamart.com/kinshavhub/?pos=46&kwd=disposable baby diapers&tags=A||||8038.093|Price|product|||MDC|rsf:gd-|-stype:attr=1|qr_nm:gd|res:RC4|com-cf:nl|ptrs:na|ktp:N0|mc:26674|mtp:S|qry_typ:P|lang:en|wc:3|cs:8842|v=4,False,,Rajkot,"Flat No. 301, Ankita Apartment, Bhakti Nagar Station Plot, Godown Road, Jay Oil Centre, Manohar Plot, Rajkot - 360002, Dist.Rajkot, Gujarat",8041015587,
"Cotton Baby Diaper, Small",https://www.indiamart.com/proddetail/baby-diaper-2851810567448.html?pos=47&kwd=disposable baby diapers&tags=A||||8723.301|Price|product|||MDC|rsf:gd-|-stype:attr=1|qr_nm:gd|res:RC4|com-cf:nl|ptrs:na|ktp:N0|mc:26674|mtp:S|qry_typ:P|lang:en|wc:3|cs:8842|v=4,SRV Group,https://www.indiamart.com/srv-group-bhopal/?pos=47&kwd=disposable baby diapers&tags=A||||8723.301|Price|product|||MDC|rsf:gd-|-stype:attr=1|qr_nm:gd|res:RC4|com-cf:nl|ptrs:na|ktp:N0|mc:26674|mtp:S|qry_typ:P|lang:en|wc:3|cs:8842|v=4,False,Kolar Road,Bhopal,"Dk-2/243, Danish Kunj, Kolar Road,, Kolar Road, Bhopal - 462042, Dist.Bhopal, Madhya Pradesh",7942559830,
"Disposable Baby Diapers, Age Group: 1-2 Years, Size: Medium",https://www.indiamart.com/proddetail/disposable-baby-diapers-2852538457612.html?pos=48&kwd=disposable baby diapers&tags=A||||8899.625||product|||TS|rsf:gd-|-stype:attr=1|qr_nm:gd|res:RC4|com-cf:nl|ptrs:na|ktp:N0|mc:26674|mtp:S|qry_typ:P|lang:en|wc:3|cs:8842|v=4,Sri Goutham Surgicals,https://www.indiamart.com/sri-goutham-surgicals/?pos=48&kwd=disposable baby diapers&tags=A||||8899.625||product|||TS|rsf:gd-|-stype:attr=1|qr_nm:gd|res:RC4|com-cf:nl|ptrs:na|ktp:N0|mc:26674|mtp:S|qry_typ:P|lang:en|wc:3|cs:8842|v=4,False,Heritage Town,Pondicherry,"First Floor 156, Ambalathadayar Madam Street Kosakadi Street, Heritage Town, Pondicherry - 605001, Dist.Pondicherry, Pondicherry",7942799905,
"Disposable Baby Diapers, Age Group: 1-2 Years, Size: Medium",https://www.indiamart.com/proddetail/disposable-baby-diapers-2852538478230.html?pos=49&kwd=disposable baby diapers&tags=A||||8782.67||product|||TS|rsf:gd-|-stype:attr=1|qr_nm:gd|res:RC4|com-cf:nl|ptrs:na|ktp:N0|mc:26674|mtp:S|qry_typ:P|lang:en|wc:3|cs:8842|v=4,Medisky Surgicals,https://www.indiamart.com/medisky-surgicals/?pos=49&kwd=disposable baby diapers&tags=A||||8782.67||product|||TS|rsf:gd-|-stype:attr=1|qr_nm:gd|res:RC4|com-cf:nl|ptrs:na|ktp:N0|mc:26674|mtp:S|qry_typ:P|lang:en|wc:3|cs:8842|v=4,False,Uchipuli,Ramanathapuram,"12/2865-30, Pattinamkathan, Madurai Rameshwaram Road, Achchundanvayal, Uchipuli, Ramanathapuram - 623502, Dist.Ramanathapuram, Tamil Nadu",7942960183,
"Mamy Poko Pants, Age Group: Newly Born",https://www.indiamart.com/proddetail/mamy-poko-pants-2852619499291.html?pos=50&kwd=disposable baby diapers&tags=A||||8954.051|Price|product|||TS|rsf:gd-|-stype:attr=1|qr_nm:gd|res:RC4|com-cf:nl|ptrs:na|ktp:N0|mc:26674|mtp:S|qry_typ:P|lang:en|wc:3|cs:8842|v=4,Chris Merchant Private Limited,https://www.chrismerchant.co.in/?pos=50&kwd=disposable baby diapers&tags=A||||8954.051|Price|product|||TS|rsf:gd-|-stype:attr=1|qr_nm:gd|res:RC4|com-cf:nl|ptrs:na|ktp:N0|mc:26674|mtp:S|qry_typ:P|lang:en|wc:3|cs:8842|v=4,False,Koyambedu,Chennai,"No. 5, Poonamalee High Road, Koyambedu, Chennai - 600107, Dist.Chennai, Tamil Nadu",8048956521,
Nonwoven Baby Diaper Pants,https://www.indiamart.com/proddetail/baby-diaper-pants-2852729199248.html?pos=51&kwd=disposable baby diapers&tags=A||||8228.275|Price|product|||TS|rsf:gd-|-stype:attr=1|qr_nm:gd|res:RC4|com-cf:nl|ptrs:na|ktp:N0|mc:26674|mtp:S|qry_typ:P|lang:en|wc:3|cs:8842|v=4,Akshaya Enterprise,https://www.indiamart.com/akshayaenterpriseahmedabad/?pos=51&kwd=disposable baby diapers&tags=A||||8228.275|Price|product|||TS|rsf:gd-|-stype:attr=1|qr_nm:gd|res:RC4|com-cf:nl|ptrs:na|ktp:N0|mc:26674|mtp:S|qry_typ:P|lang:en|wc:3|cs:8842|v=4,False,Dudheshwar,Ahmedabad,"C-103, First Floor, Shri Hari Residency, Near Sakar School, New C.G. Road, Chandkheda, Dudheshwar, Ahmedabad - 382424, Dist.Ahmedabad, Gujarat",8048983196,
"Disposable Baby Diapers, Size: Medium",https://www.indiamart.com/proddetail/disposable-baby-diapers-2852401775762.html?pos=52&kwd=disposable baby diapers&tags=A||||8830.079|Price|product|||MDC|rsf:gd-|-stype:attr=1|qr_nm:gd|res:RC4|com-cf:nl|ptrs:na|ktp:N0|mc:26674|mtp:S|qry_typ:P|lang:en|wc:3|cs:8842|v=4,Thara Traders Propx. Thara Senthilkumar,https://www.indiamart.com/thara-traders/?pos=52&kwd=disposable baby diapers&tags=A||||8830.079|Price|product|||MDC|rsf:gd-|-stype:attr=1|qr_nm:gd|res:RC4|com-cf:nl|ptrs:na|ktp:N0|mc:26674|mtp:S|qry_typ:P|lang:en|wc:3|cs:8842|v=4,False,Sathuvachari,Vellore,"546/2 Nethajibose Main Road, Tnhb, Phase 3, Vallalar A.r.complex,1st Floor, Nethaji Bose Main Road, Sathuvachari, Vellore - 632009, Dist.Vellore, Tamil Nadu",8048605071,
"Plain Mummy Care Pants, Medium",https://www.indiamart.com/proddetail/mummy-care-disposable-diaper-pants-2854493326473.html?pos=53&kwd=disposable baby diapers&tags=A||||8753.51|Price|product|||MDC|rsf:gd-|-stype:attr=1|qr_nm:gd|res:RC4|com-cf:nl|ptrs:na|ktp:N0|mc:26674|mtp:S|qry_typ:P|lang:en|wc:3|cs:8842|v=4,RDR Pharma And Surgical,https://www.indiamart.com/rdr-pharma-surgical/?pos=53&kwd=disposable baby diapers&tags=A||||8753.51|Price|product|||MDC|rsf:gd-|-stype:attr=1|qr_nm:gd|res:RC4|com-cf:nl|ptrs:na|ktp:N0|mc:26674|mtp:S|qry_typ:P|lang:en|wc:3|cs:8842|v=4,False,,Karnal,"Mangalpur R K Puram, Karnal - 132001, Dist.Karnal, Haryana",7949327081,
"S Disposable Baby Diapers, Age Group: Newly Born, Size: Small",https://www.indiamart.com/proddetail/small-disposable-baby-diapers-2854914687033.html?pos=54&kwd=disposable baby diapers&tags=A||||8767.829|Price|product|||MDC|rsf:gd-|-stype:attr=1|qr_nm:gd|res:RC4|com-cf:nl|ptrs:na|ktp:N0|mc:26674|mtp:S|qry_typ:P|lang:en|wc:3|cs:8842|v=4,RSG Healthcare,https://www.indiamart.com/rsg-healthcare/?pos=54&kwd=disposable baby diapers&tags=A||||8767.829|Price|product|||MDC|rsf:gd-|-stype:attr=1|qr_nm:gd|res:RC4|com-cf:nl|ptrs:na|ktp:N0|mc:26674|mtp:S|qry_typ:P|lang:en|wc:3|cs:8842|v=4,False,,Palwal,"Khasra No 1501 Railway Station Road Patida Kirana Store, Shayam Nagar, Palwal - 121102, Dist.Palwal, Haryana",8041014767,
"Kids Disposable Diaper, Age Group: 1to2 Years",https://www.indiamart.com/proddetail/kids-disposable-diaper-2855085565697.html?pos=55&kwd=disposable baby diapers&tags=A||||8626.744|Price|product|||MDC|rsf:gd-|-stype:attr=1|qr_nm:gd|res:RC4|com-cf:nl|ptrs:na|ktp:N0|mc:26674|mtp:S|qry_typ:P|lang:en|wc:3|cs:8842|v=4,Rich Plus Garment,https://www.indiamart.com/rich-plus-garment/?pos=55&kwd=disposable baby diapers&tags=A||||8626.744|Price|product|||MDC|rsf:gd-|-stype:attr=1|qr_nm:gd|res:RC4|com-cf:nl|ptrs:na|ktp:N0|mc:26674|mtp:S|qry_typ:P|lang:en|wc:3|cs:8842|v=4,False,Rayapuram,Tiruppur,"22, 2/92 B Kumarappapuram 2nd Street, Rayapuram, Tiruppur - 641601, Dist.Coimbatore, Tamil Nadu",7949092088,
"Disposable Baby Diapers, Size: Small",https://www.indiamart.com/proddetail/disposable-baby-diapers-2852725716662.html?pos=56&kwd=disposable baby diapers&tags=A||||8752.144|Price|product|||TS|rsf:gd-|-stype:attr=1|qr_nm:gd|res:RC4|com-cf:nl|ptrs:na|ktp:N0|mc:26674|mtp:S|qry_typ:P|lang:en|wc:3|cs:8842|v=4,Quality Healthcare Industries,https://www.indiamart.com/qualityhealthcareindustries/?pos=56&kwd=disposable baby diapers&tags=A||||8752.144|Price|product|||TS|rsf:gd-|-stype:attr=1|qr_nm:gd|res:RC4|com-cf:nl|ptrs:na|ktp:N0|mc:26674|mtp:S|qry_typ:P|lang:en|wc:3|cs:8842|v=4,False,Mundka,New Delhi,"G/F Plot At KH No. 370,Pole No. MDKK314,Guga Park Situated In The Revenue Estate Of Villa , Mundka, Mundka, New Delhi - 110041, Dist.Delhi, Delhi",7942716926,
"Loose Baby Diapers Pants, Age Group: 1-2 Years, Size: XL",https://www.indiamart.com/proddetail/loose-baby-diapers-pants-2851871387730.html?pos=57&kwd=disposable baby diapers&tags=A||||8047.7524|Price|product|||TS|rsf:gd-|-stype:attr=1|qr_nm:gd|res:RC4|com-cf:nl|ptrs:na|ktp:N0|mc:26674|mtp:S|qry_typ:P|lang:en|wc:3|cs:8842|v=4,Proctus Lifecare LLP,https://www.indiamart.com/proctuslifecarellp-morbi/?pos=57&kwd=disposable baby diapers&tags=A||||8047.7524|Price|product|||TS|rsf:gd-|-stype:attr=1|qr_nm:gd|res:RC4|com-cf:nl|ptrs:na|ktp:N0|mc:26674|mtp:S|qry_typ:P|lang:en|wc:3|cs:8842|v=4,False,Bagathala,Morbi,"Survey No 350, Railway Crossing No 48, Khakhrala Bagathala Road, Plot No 3 and 4 Navlakhi Highway, Khakhrala, Morbi, Bagathala, Morbi - 363641, Dist.Rajkot, Gujarat",8048212116,
"Disposable Baby Diapers Pants, Size: Small",https://www.indiamart.com/proddetail/disposable-baby-diapers-pants-2853243365773.html?pos=58&kwd=disposable baby diapers&tags=A||||8584.299|Price|product|||TS|rsf:gd-|-stype:attr=1|qr_nm:gd|res:RC4|com-cf:nl|ptrs:na|ktp:N0|mc:26674|mtp:S|qry_typ:P|lang:en|wc:3|cs:8842|v=4,Raws N Greens Healthcare Private Limited,https://www.rawsngreens.com/?pos=58&kwd=disposable baby diapers&tags=A||||8584.299|Price|product|||TS|rsf:gd-|-stype:attr=1|qr_nm:gd|res:RC4|com-cf:nl|ptrs:na|ktp:N0|mc:26674|mtp:S|qry_typ:P|lang:en|wc:3|cs:8842|v=4,False,Saravanampatti,Coimbatore,"No.24 B Vky Vilankurichi Road, Chitra Nagar SARAVANAMPATTI, Saravanampatti, Coimbatore - 641035, Dist.Coimbatore, Tamil Nadu",7942799211,
"Cotton Enora Baby Diaper, Small",https://www.indiamart.com/proddetail/enora-baby-diaper-2853740039412.html?pos=59&kwd=disposable baby diapers&tags=A||||8584.299|Price|product|||TS|rsf:gd-|-stype:attr=1|qr_nm:gd|res:RC4|com-cf:nl|ptrs:na|ktp:N0|mc:26674|mtp:S|qry_typ:P|lang:en|wc:3|cs:8842|v=4,Enora Naturals Enterprises,https://www.enoranaturals.co.in/?pos=59&kwd=disposable baby diapers&tags=A||||8584.299|Price|product|||TS|rsf:gd-|-stype:attr=1|qr_nm:gd|res:RC4|com-cf:nl|ptrs:na|ktp:N0|mc:26674|mtp:S|qry_typ:P|lang:en|wc:3|cs:8842|v=4,False,Velandi Palayam,Coimbatore,"6b, Karuppakonar Street, Kovilmedu, Kovai Corporation, Velandi Palayam, Velandi Palayam, Coimbatore - 641025, Dist.Coimbatore, Tamil Nadu",8044010068,
"Disposable Baby Diapers, Age Group: Newly Born, Size: Small",https://www.indiamart.com/proddetail/disposable-baby-diapers-2854847980873.html?pos=60&kwd=disposable baby diapers&tags=A||||9349.906|Price|product|||MDC|rsf:gd-|-stype:attr=1|qr_nm:gd|res:RC4|com-cf:nl|ptrs:na|ktp:N0|mc:26674|mtp:S|qry_typ:P|lang:en|wc:3|cs:8842|v=4,R N Sons,https://www.indiamart.com/rnsons-gorakhpur/?pos=60&kwd=disposable baby diapers&tags=A||||9349.906|Price|product|||MDC|rsf:gd-|-stype:attr=1|qr_nm:gd|res:RC4|com-cf:nl|ptrs:na|ktp:N0|mc:26674|mtp:S|qry_typ:P|lang:en|wc:3|cs:8842|v=4,False,,Gorakhpur,"Gautam Vihar Vistar, Gorakhpur - 273017, Dist.Gorakhpur, Uttar Pradesh",8044456211,
Newly Born Baby 10 Pcs Mafatlal Disposable Diapers,https://www.indiamart.com/proddetail/newly-born-baby-10-pcs-mafatlal-disposable-diapers-2854033094591.html?pos=61&kwd=disposable baby diapers&tags=A||||9110.092|Price|product|||MDC|rsf:gd-|-stype:attr=1|qr_nm:gd|res:RC4|com-cf:nl|ptrs:na|ktp:N0|mc:26674|mtp:S|qry_typ:P|lang:en|wc:3|cs:8842|v=4,Beyond Basics,https://www.indiamart.com/beyondbasics/?pos=61&kwd=disposable baby diapers&tags=A||||9110.092|Price|product|||MDC|rsf:gd-|-stype:attr=1|qr_nm:gd|res:RC4|com-cf:nl|ptrs:na|ktp:N0|mc:26674|mtp:S|qry_typ:P|lang:en|wc:3|cs:8842|v=4,False,Husainabad,Lucknow,"458/127 Shivpuri, Murg Khana Husainabad, Husainabad, Lucknow - 226003, Dist.Lucknow, Uttar Pradesh",8044562757,
Cotton 35 Piece XL Size Silk Sense Baby Diapers,https://www.indiamart.com/proddetail/35-piece-xl-size-silk-sense-baby-diapers-2854674101862.html?pos=62&kwd=disposable baby diapers&tags=A||||8307.81|Price|product|||MDC|rsf:gd-|-stype:attr=1|qr_nm:gd|res:RC4|com-cf:nl|ptrs:na|ktp:N0|mc:26674|mtp:S|qry_typ:P|lang:en|wc:3|cs:8842|v=4,Brother Enterprises,https://www.indiamart.com/brotherenterprisespune/?pos=62&kwd=disposable baby diapers&tags=A||||8307.81|Price|product|||MDC|rsf:gd-|-stype:attr=1|qr_nm:gd|res:RC4|com-cf:nl|ptrs:na|ktp:N0|mc:26674|mtp:S|qry_typ:P|lang:en|wc:3|cs:8842|v=4,False,,Pune,"Balewadi Road, 150/1/1, Muktai Bld, Chakankar Mala Baner, Pune - 411045, Dist.Pune, Maharashtra",7949326791,
"Kids Disposable Diaper, Size: Small",https://www.indiamart.com/proddetail/kids-disposable-diaper-2849423975612.html?pos=63&kwd=disposable baby diapers&tags=BA||||8601.347|Price|product|||TS|rsf:gd-|-stype:attr=1|qr_nm:gd|res:RC4|com-cf:nl|ptrs:na|ktp:N0|mc:26674|mtp:S|qry_typ:P|lang:en|wc:3|cs:8842|v=4,Jayom Choice Industries,https://www.jayomchoice.com/?pos=63&kwd=disposable baby diapers&tags=BA||||8601.347|Price|product|||TS|rsf:gd-|-stype:attr=1|qr_nm:gd|res:RC4|com-cf:nl|ptrs:na|ktp:N0|mc:26674|mtp:S|qry_typ:P|lang:en|wc:3|cs:8842|v=4,False,Sukhdeopura Nohara,Jaipur,"EF-152 Gulmohar Garden Phase-III Vatika Road, Manpur Bhatawala, Sukhdeopura Nohara, Jaipur - 303905, Dist.Jaipur, Rajasthan",8048975546,
Cotton Large Size Baby Diaper,https://www.indiamart.com/proddetail/large-size-baby-diaper-2852152837448.html?pos=64&kwd=disposable baby diapers&tags=A||||8752.144|Price|product|||TS|rsf:gd-|-stype:attr=1|qr_nm:gd|res:RC4|com-cf:nl|ptrs:na|ktp:N0|mc:26674|mtp:S|qry_typ:P|lang:en|wc:3|cs:8842|v=4,Jai Shree Industries ( Regd.),https://www.jaishreeindustries.in/?pos=64&kwd=disposable baby diapers&tags=A||||8752.144|Price|product|||TS|rsf:gd-|-stype:attr=1|qr_nm:gd|res:RC4|com-cf:nl|ptrs:na|ktp:N0|mc:26674|mtp:S|qry_typ:P|lang:en|wc:3|cs:8842|v=4,False,Karam Pura,New Delhi,"No. 107, Magnum House II, First Floor, Karampura Commercial Complex, Karam Pura, New Delhi - 110015, Dist.Delhi, Delhi",8048981957,
Pant Type Disposable Baby Diaper M Size,https://www.indiamart.com/proddetail/baby-diaper-m-size-2851735277462.html?pos=65&kwd=disposable baby diapers&tags=BA||||8230.883|Price|product|||TS|rsf:gd-|-stype:attr=1|qr_nm:gd|res:RC4|com-cf:nl|ptrs:na|ktp:N0|mc:26674|mtp:S|qry_typ:P|lang:en|wc:3|cs:8842|v=4,VR Hygiene Care,https://www.indiamart.com/vrhygienecare/?pos=65&kwd=disposable baby diapers&tags=BA||||8230.883|Price|product|||TS|rsf:gd-|-stype:attr=1|qr_nm:gd|res:RC4|com-cf:nl|ptrs:na|ktp:N0|mc:26674|mtp:S|qry_typ:P|lang:en|wc:3|cs:8842|v=4,False,Saniya Hemad,Surat,"A-12, Subham Ind.-1, Saniya Hemad, Saniya Hemad, Surat - 395006, Dist.Surat, Gujarat",8048969848,
White Printed Disposable Baby Diaper,https://www.indiamart.com/proddetail/disposable-baby-diaper-21046372562.html?pos=66&kwd=disposable baby diapers&tags=A||||8778.123|Price|product|||TS|rsf:gd-|-stype:attr=1|qr_nm:gd|res:RC4|com-cf:nl|ptrs:na|ktp:N0|mc:26674|mtp:S|qry_typ:P|lang:en|wc:3|cs:8842|v=4,Samyak Hygiene Care Private Limited,https://www.indiamart.com/samyakhygienecare/?pos=66&kwd=disposable baby diapers&tags=A||||8778.123|Price|product|||TS|rsf:gd-|-stype:attr=1|qr_nm:gd|res:RC4|com-cf:nl|ptrs:na|ktp:N0|mc:26674|mtp:S|qry_typ:P|lang:en|wc:3|cs:8842|v=4,False,Ward No 11,Noida,"Plot No. 1782, Chatanga Road, Jewar, Guttam Bhudi Nagar, Ward No 11, Noida - 203135, Dist.Gautam Budh Nagar, Uttar Pradesh",8047640159,
"Evelance Baby Dry Pants Medium Size Bubble sheet care pants, for 7-12kg Baby Weight - M (66 Pieces)",https://www.indiamart.com/proddetail/evelance-baby-dry-pants-medium-size-bubble-sheet-care-pants-for-7-12kg-baby-weight-m-66-pieces-2854777462248.html?pos=67&kwd=disposable baby diapers&tags=BA||||8740.707|Price|product|||MDC|rsf:gd-|-stype:attr=1|qr_nm:gd|res:RC4|com-cf:nl|ptrs:na|ktp:N0|mc:26674|mtp:S|qry_typ:P|lang:en|wc:3|cs:8842|v=4,Parv Industries,https://www.indiamart.com/parvindustries-punjab/?pos=67&kwd=disposable baby diapers&tags=BA||||8740.707|Price|product|||MDC|rsf:gd-|-stype:attr=1|qr_nm:gd|res:RC4|com-cf:nl|ptrs:na|ktp:N0|mc:26674|mtp:S|qry_typ:P|lang:en|wc:3|cs:8842|v=4,False,,Sas Nagar,"34/2/2/2/2-1 8, Parv Industries, Pabhat, Zirakpur,, Sas Nagar - 140301, Dist.Mohali, Punjab",8044011342,
"Nonwoven Disposable Baby Diapers, Medium",https://www.indiamart.com/proddetail/disposable-baby-diapers-2850576939962.html?pos=68&kwd=disposable baby diapers&tags=A||||9839.57|Price|product|||TS|rsf:gd-|-stype:attr=1|qr_nm:gd|res:RC4|com-cf:nl|ptrs:na|ktp:N0|mc:26674|mtp:S|qry_typ:P|lang:en|wc:3|cs:8842|v=4,Aftab Trader,https://www.indiamart.com/aftab-trader-kolkata/?pos=68&kwd=disposable baby diapers&tags=A||||9839.57|Price|product|||TS|rsf:gd-|-stype:attr=1|qr_nm:gd|res:RC4|com-cf:nl|ptrs:na|ktp:N0|mc:26674|mtp:S|qry_typ:P|lang:en|wc:3|cs:8842|v=4,False,Baitakkhana North,Kolkata,"H/4, 11/1 Harshi Street, Baitakkhana North, Kolkata - 700009, Dist.Kolkata, West Bengal",8047654403,
"Disposable Baby Diapers, Age Group: 3to12 Months, Size: Small",https://www.indiamart.com/proddetail/disposable-baby-diapers-2854151446312.html?pos=69&kwd=disposable baby diapers&tags=A||||8228.275|Price|product|||TS|rsf:gd-|-stype:attr=1|qr_nm:gd|res:RC4|com-cf:nl|ptrs:na|ktp:N0|mc:26674|mtp:S|qry_typ:P|lang:en|wc:3|cs:8842|v=4,Shagun Enterprise,https://www.indiamart.com/shagun-enterpriseahmedabad/?pos=69&kwd=disposable baby diapers&tags=A||||8228.275|Price|product|||TS|rsf:gd-|-stype:attr=1|qr_nm:gd|res:RC4|com-cf:nl|ptrs:na|ktp:N0|mc:26674|mtp:S|qry_typ:P|lang:en|wc:3|cs:8842|v=4,False,Saraspur,Ahmedabad,"4th Floor Block G, 415, City Center, NR Idgha Gate, NR Girdharnagar Bridge, Asarwa,, Saraspur, Ahmedabad - 380016, Dist.Ahmedabad, Gujarat",7949226972,
"Disposable Baby Diapers Pack 50, Size: Small",https://www.indiamart.com/proddetail/disposable-baby-diapers-pack-50-2854636197948.html?pos=70&kwd=disposable baby diapers&tags=A||||8211.142|Price|product|||TS|rsf:gd-|-stype:attr=1|qr_nm:gd|res:RC4|com-cf:nl|ptrs:na|ktp:N0|mc:26674|mtp:S|qry_typ:P|lang:en|wc:3|cs:8842|v=4,I Touch Surgical,https://www.itouchsurgical.co.in/?pos=70&kwd=disposable baby diapers&tags=A||||8211.142|Price|product|||TS|rsf:gd-|-stype:attr=1|qr_nm:gd|res:RC4|com-cf:nl|ptrs:na|ktp:N0|mc:26674|mtp:S|qry_typ:P|lang:en|wc:3|cs:8842|v=4,False,Goregaon,Mumbai,"4, Ekta Suprabhat, Siddharth Nagar, Goregaon West, Goregaon, Mumbai - 400104, Dist.Mumbai, Maharashtra",8048962190,
"Large Size B Grade Disposable Baby Diaper Pant Stylr, Age Group: 1to2 Years, Size: Medium",https://www.indiamart.com/proddetail/large-size-b-grade-disposable-baby-diaper-pant-stylr-2854674936633.html?pos=71&kwd=disposable baby diapers&tags=A||||8954.051|Price|product|||TS|rsf:gd-|-stype:attr=1|qr_nm:gd|res:RC4|com-cf:nl|ptrs:na|ktp:N0|mc:26674|mtp:S|qry_typ:P|lang:en|wc:3|cs:8842|v=4,Krithisha Enterprises,https://www.indiamart.com/krithisha-enterprises/?pos=71&kwd=disposable baby diapers&tags=A||||8954.051|Price|product|||TS|rsf:gd-|-stype:attr=1|qr_nm:gd|res:RC4|com-cf:nl|ptrs:na|ktp:N0|mc:26674|mtp:S|qry_typ:P|lang:en|wc:3|cs:8842|v=4,False,Royapuram Anjaneya Nagar,Chennai,"New No.75, Old No.151, Prakasam Salai, Pophams Broadway, Royapuram Anjaneya Nagar, Chennai - 600001, Dist.Chennai, Tamil Nadu",8048951811,
Baby Pant Diaper NB To XL,https://www.indiamart.com/proddetail/baby-pant-diaper-nb-to-xl-24830944030.html?pos=72&kwd=disposable baby diapers&tags=A||||8754.115|Price|product|||TS|rsf:gd-|-stype:attr=1|qr_nm:gd|res:RC4|com-cf:nl|ptrs:na|ktp:N0|mc:26674|mtp:S|qry_typ:P|lang:en|wc:3|cs:8842|v=4,Dnr Healthcare Private Limited,https://www.indiamart.com/dnrhealthcare/?pos=72&kwd=disposable baby diapers&tags=A||||8754.115|Price|product|||TS|rsf:gd-|-stype:attr=1|qr_nm:gd|res:RC4|com-cf:nl|ptrs:na|ktp:N0|mc:26674|mtp:S|qry_typ:P|lang:en|wc:3|cs:8842|v=4,False,Sector 8,Panchkula,"Plot No. 151 Industrial Area Phase Ii phase-2, Sector 8, Panchkula - 134109, Dist.Panchkula, Haryana",8047647074,
"Nonwoven Disposable Baby Diapers, Age Group: Newly Born",https://www.indiamart.com/proddetail/disposable-baby-diapers-2852357085597.html?pos=73&kwd=disposable baby diapers&tags=A||||8307.81|Price|product|||MDC|rsf:gd-|-stype:attr=1|qr_nm:gd|res:RC4|com-cf:nl|ptrs:na|ktp:N0|mc:26674|mtp:S|qry_typ:P|lang:en|wc:3|cs:8842|v=4,Ashstylo Collection,https://www.indiamart.com/ashstylocollection/?pos=73&kwd=disposable baby diapers&tags=A||||8307.81|Price|product|||MDC|rsf:gd-|-stype:attr=1|qr_nm:gd|res:RC4|com-cf:nl|ptrs:na|ktp:N0|mc:26674|mtp:S|qry_typ:P|lang:en|wc:3|cs:8842|v=4,False,Kondhwa,Pune,"Kamaldeep Garden, A/26, Kondhwa, Kondhwa, Pune - 411048, Dist.Pune, Maharashtra",7942712072,
Disposable Baby Diapers,https://www.indiamart.com/proddetail/disposable-baby-diapers-2855005958548.html?pos=74&kwd=disposable baby diapers&tags=A||||9045.955|Price|product|||MDC|rsf:gd-|-stype:attr=1|qr_nm:gd|res:RC4|com-cf:nl|ptrs:na|ktp:N0|mc:26674|mtp:S|qry_typ:P|lang:en|wc:3|cs:8842|v=4,Kushwaha Enterprises,https://www.indiamart.com/kushwahaenterpriseskanpur/?pos=74&kwd=disposable baby diapers&tags=A||||9045.955|Price|product|||MDC|rsf:gd-|-stype:attr=1|qr_nm:gd|res:RC4|com-cf:nl|ptrs:na|ktp:N0|mc:26674|mtp:S|qry_typ:P|lang:en|wc:3|cs:8842|v=4,False,,Kanpur,"Araji No.109, Bhisijar Gaon, Sachendi Urf Chacheri, Kanpur Nagar,, Kanpur - 209304, Uttar Pradesh",7949369468,
"Disposable Baby Diapers, Age Group: 1-2 Years, Size: Medium",https://www.indiamart.com/proddetail/disposable-baby-diapers-2852538469333.html?pos=75&kwd=disposable baby diapers&tags=A||||8624.416|Price|product|||MDC|rsf:gd-|-stype:attr=1|qr_nm:gd|res:RC4|com-cf:nl|ptrs:na|ktp:N0|mc:26674|mtp:S|qry_typ:P|lang:en|wc:3|cs:8842|v=4,Supertech Surgical Company,https://www.indiamart.com/supertech-surgical-company/?pos=75&kwd=disposable baby diapers&tags=A||||8624.416|Price|product|||MDC|rsf:gd-|-stype:attr=1|qr_nm:gd|res:RC4|com-cf:nl|ptrs:na|ktp:N0|mc:26674|mtp:S|qry_typ:P|lang:en|wc:3|cs:8842|v=4,False,Shiv Nagar,Hisar,"Shop No. 1, Millgate Area, Shiv Nagar, Shiv Nagar, Hisar - 125001, Dist.Hisar, Haryana",8047642534,
"Small Disposable Baby Diapers, Age Group: Newly Born",https://www.indiamart.com/proddetail/small-disposable-baby-diapers-2854421675562.html?pos=76&kwd=disposable baby diapers&tags=A||||9110.092|Price|product|||MDC|rsf:gd-|-stype:attr=1|qr_nm:gd|res:RC4|com-cf:nl|ptrs:na|ktp:N0|mc:26674|mtp:S|qry_typ:P|lang:en|wc:3|cs:8842|v=4,ACME Health And Hygiene,https://www.indiamart.com/acme-health-hygiene/?pos=76&kwd=disposable baby diapers&tags=A||||9110.092|Price|product|||MDC|rsf:gd-|-stype:attr=1|qr_nm:gd|res:RC4|com-cf:nl|ptrs:na|ktp:N0|mc:26674|mtp:S|qry_typ:P|lang:en|wc:3|cs:8842|v=4,False,,Lucknow,"9/108, Jankipuram Vishtar, Jankipuram, Lucknow - 226021, Dist.Lucknow, Uttar Pradesh",7949325102,
Ultra Soft Baby Disposable Diaper,https://www.indiamart.com/proddetail/ultra-soft-baby-disposable-diaper-2854421394862.html?pos=77&kwd=disposable baby diapers&tags=A||||8228.275|Price|product|||MDC|rsf:gd-|-stype:attr=1|qr_nm:gd|res:RC4|com-cf:nl|ptrs:na|ktp:N0|mc:26674|mtp:S|qry_typ:P|lang:en|wc:3|cs:8842|v=4,Protect Healthcare,https://www.indiamart.com/protect-healthcare-ahmedabad/?pos=77&kwd=disposable baby diapers&tags=A||||8228.275|Price|product|||MDC|rsf:gd-|-stype:attr=1|qr_nm:gd|res:RC4|com-cf:nl|ptrs:na|ktp:N0|mc:26674|mtp:S|qry_typ:P|lang:en|wc:3|cs:8842|v=4,False,,Ahmedabad,"2/1, Ramvila Hights, UMA Vidhyalay Road, Gopal Chowk ,Nikol, Ahmedabad - 382350, Dist.Ahmedabad, Gujarat",7949337627,
"White(base) Extra Large Printed Disposable Baby Diaper, Age Group: 2-3 years",https://www.indiamart.com/proddetail/extra-large-printed-disposable-baby-diaper-2pcs-pouch-2850591116573.html?pos=78&kwd=disposable baby diapers&tags=A||||9839.57|Price|product|||MDC|rsf:gd-|-stype:attr=1|qr_nm:gd|res:RC4|com-cf:nl|ptrs:na|ktp:N0|mc:26674|mtp:S|qry_typ:P|lang:en|wc:3|cs:8842|v=4,A.S. International,https://www.indiamart.com/as-international-westbengal/?pos=78&kwd=disposable baby diapers&tags=A||||9839.57|Price|product|||MDC|rsf:gd-|-stype:attr=1|qr_nm:gd|res:RC4|com-cf:nl|ptrs:na|ktp:N0|mc:26674|mtp:S|qry_typ:P|lang:en|wc:3|cs:8842|v=4,False,Topsia,Kolkata,"15a/1, Golam Jilani Khan Road, 2nd Floor Block - C, Topsia, Kolkata, Topsia, Kolkata - 700039, Dist.Kolkata, West Bengal",7942957749,
"Pampers Baby Diaper, Age Group: 3to12 Months, Size: Large",https://www.indiamart.com/proddetail/ezoy-plus-baby-diaper-2854907155997.html?pos=79&kwd=disposable baby diapers&tags=A||||8211.142|Price|product|||MDC|rsf:gd-|-stype:attr=1|qr_nm:gd|res:RC4|com-cf:nl|ptrs:na|ktp:N0|mc:26674|mtp:S|qry_typ:P|lang:en|wc:3|cs:8842|v=4,Mahendra Enterprises & Suppliers,https://www.indiamart.com/mahendra-enterprises-suppliers/?pos=79&kwd=disposable baby diapers&tags=A||||8211.142|Price|product|||MDC|rsf:gd-|-stype:attr=1|qr_nm:gd|res:RC4|com-cf:nl|ptrs:na|ktp:N0|mc:26674|mtp:S|qry_typ:P|lang:en|wc:3|cs:8842|v=4,False,,Mumbai,"5, Jaydabi Chawl, Hanuman Nagar, P. N Road, Mumbai Suburban,, Mumbai - 400078, Dist.Mumbai, Maharashtra",7949330192,
"Cotton loose baby diaper 75 pcs, Large",https://www.indiamart.com/proddetail/loose-baby-diaper-75-pcs-2854982983197.html?pos=80&kwd=disposable baby diapers&tags=BA||||8230.883|Price|product|||MDC|rsf:gd-|-stype:attr=1|qr_nm:gd|res:RC4|com-cf:nl|ptrs:na|ktp:N0|mc:26674|mtp:S|qry_typ:P|lang:en|wc:3|cs:8842|v=4,V R Barot,https://www.indiamart.com/v-r-barot/?pos=80&kwd=disposable baby diapers&tags=BA||||8230.883|Price|product|||MDC|rsf:gd-|-stype:attr=1|qr_nm:gd|res:RC4|com-cf:nl|ptrs:na|ktp:N0|mc:26674|mtp:S|qry_typ:P|lang:en|wc:3|cs:8842|v=4,False,Bhagvati Nagar Housing Society,Surat,"B-19, Bhagavati Nagar Soc, Jahangirpura, Bhagvati Nagar Housing Society, Surat - 395005, Dist.Surat, Gujarat",7942968850,
"Cotton With Gel Disposable Baby Diaper, Age Group: 3-12 Months",https://www.indiamart.com/proddetail/disposable-baby-diaper-20973819791.html?pos=81&kwd=disposable baby diapers&tags=BA||||8752.144|Price|product|||MDC|rsf:gd-|-stype:attr=1|qr_nm:gd|res:RC4|com-cf:nl|ptrs:na|ktp:N0|mc:26674|mtp:S|qry_typ:P|lang:en|wc:3|cs:8842|v=4,Balaji Entreprise,https://www.indiamart.com/balaji-entreprise/?pos=81&kwd=disposable baby diapers&tags=BA||||8752.144|Price|product|||MDC|rsf:gd-|-stype:attr=1|qr_nm:gd|res:RC4|com-cf:nl|ptrs:na|ktp:N0|mc:26674|mtp:S|qry_typ:P|lang:en|wc:3|cs:8842|v=4,False,Budh Vihar,New Delhi,"A-1/29, Budh Vihar, Phase 2, Rohini, Budh Vihar, New Delhi - 110086, Dist.Delhi, Delhi",8048974223,
"Disposable Baby Bamboo Diapers, Small",https://www.indiamart.com/proddetail/disposable-baby-bamboo-diapers-2851544304591.html?pos=82&kwd=disposable baby diapers&tags=A||||8584.299|Price|product|||MDC|rsf:gd-|-stype:attr=1|qr_nm:gd|res:RC4|com-cf:nl|ptrs:na|ktp:N0|mc:26674|mtp:S|qry_typ:P|lang:en|wc:3|cs:8842|v=4,Herbalica Pads,https://www.indiamart.com/herbalica-pads/?pos=82&kwd=disposable baby diapers&tags=A||||8584.299|Price|product|||MDC|rsf:gd-|-stype:attr=1|qr_nm:gd|res:RC4|com-cf:nl|ptrs:na|ktp:N0|mc:26674|mtp:S|qry_typ:P|lang:en|wc:3|cs:8842|v=4,False,Vilankurichi,Coimbatore,"27, Bankars Colony Phase II, Kongu Managar, India Post Payments Bank, Vilankurichi, Vilankurichi, Coimbatore - 641035, Dist.Coimbatore, Tamil Nadu",8044015874,
"Nubaby Baby Diapers,Xl (Xl), 70 Count, Above 13 Kg (Shipping Charges Extra)",https://www.indiamart.com/proddetail/nubaby-baby-diapers-xl-xl-70-count-above-13-kg-shipping-charges-extra-2849231253573.html?pos=83&kwd=disposable baby diapers&tags=A||||8786.56|Price|product|||MDC|rsf:gd-|-stype:attr=1|qr_nm:gd|res:RC4|com-cf:nl|ptrs:na|ktp:N0|mc:26674|mtp:S|qry_typ:P|lang:en|wc:3|cs:8842|v=4,MAK Overseas,https://www.indiamart.com/makoverseashyderabad/?pos=83&kwd=disposable baby diapers&tags=A||||8786.56|Price|product|||MDC|rsf:gd-|-stype:attr=1|qr_nm:gd|res:RC4|com-cf:nl|ptrs:na|ktp:N0|mc:26674|mtp:S|qry_typ:P|lang:en|wc:3|cs:8842|v=4,False,Saidabad,Hyderabad,"Floor 4, Office 401 17-1-A/1 MIG H.No.1/A Saidabad Santhosh Nagar Rangareddy, Saidabad, Hyderabad - 500059, Dist.Hyderabad, Telangana",7942712102,
Cotton Disposable Baby Diaper,https://www.indiamart.com/proddetail/disposable-baby-diaper-2850832103048.html?pos=84&kwd=disposable baby diapers&tags=BA||||8752.144|Price|product|||TS|rsf:gd-|-stype:attr=1|qr_nm:gd|res:RC4|com-cf:nl|ptrs:na|ktp:N0|mc:26674|mtp:S|qry_typ:P|lang:en|wc:3|cs:8842|v=4,Midas Touch,https://www.indiamart.com/midastouchnewdelhi/?pos=84&kwd=disposable baby diapers&tags=BA||||8752.144|Price|product|||TS|rsf:gd-|-stype:attr=1|qr_nm:gd|res:RC4|com-cf:nl|ptrs:na|ktp:N0|mc:26674|mtp:S|qry_typ:P|lang:en|wc:3|cs:8842|v=4,False,Shalimar Bagh,New Delhi,"Upper Ground Plot No-423 Near Raghunath Mandir Bh Shalimar Bagh East Delhi, Shalimar Bagh, New Delhi - 110088, Dist.Delhi, Delhi",7942825260,
"Cotton Disposable Baby Diapers, Age Group: 1-2 Years, Packaging Size: Packet",https://www.indiamart.com/proddetail/disposable-baby-diapers-26857286791.html?pos=85&kwd=disposable baby diapers&tags=A||||8823.154|Price|product|||TS|rsf:gd-|-stype:attr=1|qr_nm:gd|res:RC4|com-cf:nl|ptrs:na|ktp:N0|mc:26674|mtp:S|qry_typ:P|lang:en|wc:3|cs:8842|v=4,Sahaj Enterprises,https://www.compulsory.co.in/?pos=85&kwd=disposable baby diapers&tags=A||||8823.154|Price|product|||TS|rsf:gd-|-stype:attr=1|qr_nm:gd|res:RC4|com-cf:nl|ptrs:na|ktp:N0|mc:26674|mtp:S|qry_typ:P|lang:en|wc:3|cs:8842|v=4,False,Sikandra,Agra,"13/18-A, Avas Vikas Colony, Sikandra, Sikandra, Agra - 282007, Dist.Agra, Uttar Pradesh",8047639490,
Aarvi Ultra Soft Disposable Baby Diaper,https://www.indiamart.com/proddetail/disposable-baby-diaper-23480923930.html?pos=86&kwd=disposable baby diapers&tags=A||||8584.299|Price|product|||TS|rsf:gd-|-stype:attr=1|qr_nm:gd|res:RC4|com-cf:nl|ptrs:na|ktp:N0|mc:26674|mtp:S|qry_typ:P|lang:en|wc:3|cs:8842|v=4,Naturo-Health Organic Enterprises,https://www.indiamart.com/naturohealthorganicenterprises/?pos=86&kwd=disposable baby diapers&tags=A||||8584.299|Price|product|||TS|rsf:gd-|-stype:attr=1|qr_nm:gd|res:RC4|com-cf:nl|ptrs:na|ktp:N0|mc:26674|mtp:S|qry_typ:P|lang:en|wc:3|cs:8842|v=4,False,Edayarpalayam,Coimbatore,"B83, Anna Nagar, Housing Unit Edayarpalayam, Edayarpalayam, Coimbatore - 641025, Dist.Coimbatore, Tamil Nadu",8047632292,
"Used For Babies Nonwoven Small Disposable Baby Diaper, Age Group: Upto 12 Months, Packaging Size: 70 Pieces",https://www.indiamart.com/proddetail/small-disposable-baby-diaper-2849548257991.html?pos=87&kwd=disposable baby diapers&tags=A||||8559.269|Price|product|||TS|rsf:gd-|-stype:attr=1|qr_nm:gd|res:RC4|com-cf:nl|ptrs:na|ktp:N0|mc:26674|mtp:S|qry_typ:P|lang:en|wc:3|cs:8842|v=4,HZ Enterprises,https://www.indiamart.com/hz-enterprises-madhyapradesh/?pos=87&kwd=disposable baby diapers&tags=A||||8559.269|Price|product|||TS|rsf:gd-|-stype:attr=1|qr_nm:gd|res:RC4|com-cf:nl|ptrs:na|ktp:N0|mc:26674|mtp:S|qry_typ:P|lang:en|wc:3|cs:8842|v=4,False,Sudama Nagar,Indore,"2, Manikbag Road, Sudama Nagar, Indore - 452009, Dist.Indore, Madhya Pradesh",7942791847,
"Cotton Disposable Baby Diaper Loose, Small",https://www.indiamart.com/proddetail/disposable-baby-diaper-loose-2853461376133.html?pos=88&kwd=disposable baby diapers&tags=A||||8230.883|Price|product|||TS|rsf:gd-|-stype:attr=1|qr_nm:gd|res:RC4|com-cf:nl|ptrs:na|ktp:N0|mc:26674|mtp:S|qry_typ:P|lang:en|wc:3|cs:8842|v=4,Shanti Medicare,https://www.indiamart.com/shanti-medicare/?pos=88&kwd=disposable baby diapers&tags=A||||8230.883|Price|product|||TS|rsf:gd-|-stype:attr=1|qr_nm:gd|res:RC4|com-cf:nl|ptrs:na|ktp:N0|mc:26674|mtp:S|qry_typ:P|lang:en|wc:3|cs:8842|v=4,False,126 shardha row row house,Surat,"S 20, Swastik Plaza, Yogi Chowk,, 126 shardha row row house, Surat - 395010, Dist.Surat, Gujarat",7942835980,
Printed Medium Size B Grade Disposable Baby Diapers Pant Stylr,https://www.indiamart.com/proddetail/medium-size-b-grade-disposable-baby-diapers-pant-stylr-2851587822191.html?pos=89&kwd=disposable baby diapers&tags=A||||8559.269|Price|product|||TS|rsf:gd-|-stype:attr=1|qr_nm:gd|res:RC4|com-cf:nl|ptrs:na|ktp:N0|mc:26674|mtp:S|qry_typ:P|lang:en|wc:3|cs:8842|v=4,ITO Healthcare Private Limited,https://www.indiamart.com/itohealthcare-madhyapradesh/?pos=89&kwd=disposable baby diapers&tags=A||||8559.269|Price|product|||TS|rsf:gd-|-stype:attr=1|qr_nm:gd|res:RC4|com-cf:nl|ptrs:na|ktp:N0|mc:26674|mtp:S|qry_typ:P|lang:en|wc:3|cs:8842|v=4,False,Manglaya Sadak,Indore,"558 Talawali Chanda Panchvati Colony, Manglaya Sadak, Indore - 453771, Dist.Indore, Madhya Pradesh",7942956583,
"Baby Diapers In Bulk, Size: Medium",https://www.indiamart.com/proddetail/baby-diapers-in-bulk-21565234512.html?pos=90&kwd=disposable baby diapers&tags=A||||8706.587|Price|product|||TS|rsf:gd-|-stype:attr=1|qr_nm:gd|res:RC4|com-cf:nl|ptrs:na|ktp:N0|mc:26674|mtp:S|qry_typ:P|lang:en|wc:3|cs:8842|v=4,Aruna Agencies,https://www.arunaagencies.in/?pos=90&kwd=disposable baby diapers&tags=A||||8706.587|Price|product|||TS|rsf:gd-|-stype:attr=1|qr_nm:gd|res:RC4|com-cf:nl|ptrs:na|ktp:N0|mc:26674|mtp:S|qry_typ:P|lang:en|wc:3|cs:8842|v=4,False,Simmakkal,Madurai,"Pooja Complex, No. 23, North Veli Street Ground Floor, Simmakkal, Simmakkal, Madurai - 625001, Dist.Madurai, Tamil Nadu",8048609760,
"Small Disposable Baby Diapers, Age Group: Newly Born",https://www.indiamart.com/proddetail/printed-disposable-baby-diapers-2854601635330.html?pos=91&kwd=disposable baby diapers&tags=BA||||8786.56|Price|product|||MDC|rsf:gd-|-stype:attr=1|qr_nm:gd|res:RC4|com-cf:nl|ptrs:na|ktp:N0|mc:26674|mtp:S|qry_typ:P|lang:en|wc:3|cs:8842|v=4,Popok Health Care,https://www.indiamart.com/popok-healthcare/?pos=91&kwd=disposable baby diapers&tags=BA||||8786.56|Price|product|||MDC|rsf:gd-|-stype:attr=1|qr_nm:gd|res:RC4|com-cf:nl|ptrs:na|ktp:N0|mc:26674|mtp:S|qry_typ:P|lang:en|wc:3|cs:8842|v=4,False,,Hyderabad,"24-134, Anandbagh Medchal Malkajgiri, Hyderabad - 500047, Dist.Hyderabad, Telangana",7949330487,
"Disposable Baby Diapers, Age Group: 3to12 Months, Size: Medium",https://www.indiamart.com/proddetail/disposable-baby-diapers-2854912134333.html?pos=92&kwd=disposable baby diapers&tags=A||||8817.752||product|||MDC|rsf:gd-|-stype:attr=1|qr_nm:gd|res:RC4|com-cf:nl|ptrs:na|ktp:N0|mc:26674|mtp:S|qry_typ:P|lang:en|wc:3|cs:8842|v=4,Bhagwati Collection,https://www.indiamart.com/bhagwati-collection-hapur/?pos=92&kwd=disposable baby diapers&tags=A||||8817.752||product|||MDC|rsf:gd-|-stype:attr=1|qr_nm:gd|res:RC4|com-cf:nl|ptrs:na|ktp:N0|mc:26674|mtp:S|qry_typ:P|lang:en|wc:3|cs:8842|v=4,False,,Hapur,"Mukesh Garg, Krishna Gali, Khurja Pech Doymi Opp Ram Tent House, Hapur - 245101, Dist.Hapur, Uttar Pradesh",8041015469,
"Baby Disposable Diapers, Age Group: 1to2 Years, Size: XL",https://www.indiamart.com/proddetail/baby-disposable-diapers-2854915380791.html?pos=93&kwd=disposable baby diapers&tags=A||||8828.05|Price|product|||MDC|rsf:gd-|-stype:attr=1|qr_nm:gd|res:RC4|com-cf:nl|ptrs:na|ktp:N0|mc:26674|mtp:S|qry_typ:P|lang:en|wc:3|cs:8842|v=4,Sri Padmavathi Surgicals And Health Services,https://www.indiamart.com/sripadmavathisurgicalshealthservices/?pos=93&kwd=disposable baby diapers&tags=A||||8828.05|Price|product|||MDC|rsf:gd-|-stype:attr=1|qr_nm:gd|res:RC4|com-cf:nl|ptrs:na|ktp:N0|mc:26674|mtp:S|qry_typ:P|lang:en|wc:3|cs:8842|v=4,False,,Chittoor,"Ground Floor, 17-431, Sundarayya Street, Chittoor - 517001, Dist.Chittoor, Andhra Pradesh",8046046046,
Absorbia Baby Diapers XL 56,https://www.indiamart.com/proddetail/absorbia-baby-diapers-xl-56-2854581590997.html?pos=94&kwd=disposable baby diapers&tags=A||||8211.142|Price|product|||MDC|rsf:gd-|-stype:attr=1|qr_nm:gd|res:RC4|com-cf:nl|ptrs:na|ktp:N0|mc:26674|mtp:S|qry_typ:P|lang:en|wc:3|cs:8842|v=4,S. P. Hygiene Products,https://www.indiamart.com/sphygieneproductsmumbai/?pos=94&kwd=disposable baby diapers&tags=A||||8211.142|Price|product|||MDC|rsf:gd-|-stype:attr=1|qr_nm:gd|res:RC4|com-cf:nl|ptrs:na|ktp:N0|mc:26674|mtp:S|qry_typ:P|lang:en|wc:3|cs:8842|v=4,False,,Mumbai,"Ground Floor, Shop No.3, 46/A, Modern Mill Compound, Jagannath Bhatankar Marg, Near S T Depot Prabhadevi,, Mumbai - 400025, Dist.Mumbai, Maharashtra",7949338427,
Wetex New Born Baby Diapers,https://www.indiamart.com/proddetail/wetex-new-born-baby-diapers-2854921858412.html?pos=95&kwd=disposable baby diapers&tags=A||||8752.144|Price|product|||MDC|rsf:gd-|-stype:attr=1|qr_nm:gd|res:RC4|com-cf:nl|ptrs:na|ktp:N0|mc:26674|mtp:S|qry_typ:P|lang:en|wc:3|cs:8842|v=4,Walmark Meditech Private Limited,https://www.indiamart.com/walmarkmeditech/?pos=95&kwd=disposable baby diapers&tags=A||||8752.144|Price|product|||MDC|rsf:gd-|-stype:attr=1|qr_nm:gd|res:RC4|com-cf:nl|ptrs:na|ktp:N0|mc:26674|mtp:S|qry_typ:P|lang:en|wc:3|cs:8842|v=4,False,Dhantoli,New Delhi,"B 157,,OKHLA INDUSTRIAL AREA,NEW DELHI, Dhantoli, New Delhi - 110020, Dist.Delhi, Delhi",7942532407,
Nonwoven Small Fit Wel Baby Diapers,https://www.indiamart.com/proddetail/small-fit-wel-baby-diapers-2851604141862.html?pos=96&kwd=disposable baby diapers&tags=A||||8307.81|Price|product|||MDC|rsf:gd-|-stype:attr=1|qr_nm:gd|res:RC4|com-cf:nl|ptrs:na|ktp:N0|mc:26674|mtp:S|qry_typ:P|lang:en|wc:3|cs:8842|v=4,Goodluck Diapers,https://www.indiamart.com/goodluckdiapers/?pos=96&kwd=disposable baby diapers&tags=A||||8307.81|Price|product|||MDC|rsf:gd-|-stype:attr=1|qr_nm:gd|res:RC4|com-cf:nl|ptrs:na|ktp:N0|mc:26674|mtp:S|qry_typ:P|lang:en|wc:3|cs:8842|v=4,False,Pimpri,Pune,"Shop No D22, Prem Park Commercial Complex Masulkar Colony, Pimpri, Pune - 411018, Dist.Pune, Maharashtra",7942839329,
Imported Newborn Baby Diapers NB (Sealed Pack),https://www.indiamart.com/proddetail/imported-newborn-baby-diapers-nb-sealed-pack-2854586596912.html?pos=97&kwd=disposable baby diapers&tags=A||||9110.092|Price|product|||MDC|rsf:gd-|-stype:attr=1|qr_nm:gd|res:RC4|com-cf:nl|ptrs:na|ktp:N0|mc:26674|mtp:S|qry_typ:P|lang:en|wc:3|cs:8842|v=4,Asian Hygiene,https://www.indiamart.com/asian-hygiene/?pos=97&kwd=disposable baby diapers&tags=A||||9110.092|Price|product|||MDC|rsf:gd-|-stype:attr=1|qr_nm:gd|res:RC4|com-cf:nl|ptrs:na|ktp:N0|mc:26674|mtp:S|qry_typ:P|lang:en|wc:3|cs:8842|v=4,False,,Lucknow,"Shop No. 134, Kanpur Road, Transport Nagar,, Lucknow - 226012, Dist.Lucknow, Uttar Pradesh",7949330533,
"Mamy KIDS LIFE BABY DIAPERS SIZE- M 38 PCS, Medium",https://www.indiamart.com/proddetail/kids-life-baby-diapers-size-m-38-pcs-22778425330.html?pos=98&kwd=disposable baby diapers&tags=A||||8230.883|Price|product|||MDC|rsf:gd-|-stype:attr=1|qr_nm:gd|res:RC4|com-cf:nl|ptrs:na|ktp:N0|mc:26674|mtp:S|qry_typ:P|lang:en|wc:3|cs:8842|v=4,G.G. Jetani & Sons,https://www.indiamart.com/ggjetanisons/?pos=98&kwd=disposable baby diapers&tags=A||||8230.883|Price|product|||MDC|rsf:gd-|-stype:attr=1|qr_nm:gd|res:RC4|com-cf:nl|ptrs:na|ktp:N0|mc:26674|mtp:S|qry_typ:P|lang:en|wc:3|cs:8842|v=4,False,Mota Varachha,Surat,"Office 4, Lalitya Residency, Near Mauni International School Utran Petrol Pump, Mota Varachha, Mota Varachha, Surat - 394101, Dist.Surat, Gujarat",8046063287,
"Pant Style Disposable Baby Diaper, Size: Small",https://www.indiamart.com/proddetail/pant-style-disposable-baby-diaper-26196041662.html?pos=99&kwd=disposable baby diapers&tags=BA||||8752.144|Price|product|||TS|rsf:gd-|-stype:attr=1|qr_nm:gd|res:RC4|com-cf:nl|ptrs:na|ktp:N0|mc:26674|mtp:S|qry_typ:P|lang:en|wc:3|cs:8842|v=4,Tejas Enterprises,https://www.indiamart.com/tejasenterprises-delhi/?pos=99&kwd=disposable baby diapers&tags=BA||||8752.144|Price|product|||TS|rsf:gd-|-stype:attr=1|qr_nm:gd|res:RC4|com-cf:nl|ptrs:na|ktp:N0|mc:26674|mtp:S|qry_typ:P|lang:en|wc:3|cs:8842|v=4,False,New Mustafabad,New Delhi,"D - 6/162 - A, D - Block, Near Gali No.7, Main Road Brijpuri, New Mustafabad, New Delhi - 110094, Dist.Delhi, Delhi",8043855624,
"Diaper Nonwoven Disposable Diapers (Camay Baby), Size: Various sizes, Age Group: 3-12 Months",https://www.indiamart.com/proddetail/disposable-diapers-camay-baby-3610708962.html?pos=100&kwd=disposable baby diapers&tags=BA||||8242.731|Price|product|||MDC|rsf:gd-|-stype:attr=1|qr_nm:gd|res:RC4|com-cf:nl|ptrs:na|ktp:N0|mc:26674|mtp:S|qry_typ:P|lang:en|wc:3|cs:8842|v=4,Moti Enterprises,https://www.indiamart.com/moti-enterprises/?pos=100&kwd=disposable baby diapers&tags=BA||||8242.731|Price|product|||MDC|rsf:gd-|-stype:attr=1|qr_nm:gd|res:RC4|com-cf:nl|ptrs:na|ktp:N0|mc:26674|mtp:S|qry_typ:P|lang:en|wc:3|cs:8842|v=4,False,Sidhi Vinayak Nagar,Ulhasnagar,"B. K. 424, Room No. 8, Behind Heera Panna Building, Sidhi Vinayak Nagar, Ulhasnagar - 421001, Dist.Thane, Maharashtra",8046068234,
"Printed Pant Style Baby Diapers, Small",https://www.indiamart.com/proddetail/pant-style-baby-diapers-2854947257873.html?pos=101&kwd=disposable baby diapers&tags=BA||||8038.093|Price|product|||MDC|rsf:gd-|-stype:attr=1|qr_nm:gd|res:RC4|com-cf:nl|ptrs:na|ktp:N0|mc:26674|mtp:S|qry_typ:P|lang:en|wc:3|cs:8842|v=4,Bramhani Products,https://www.indiamart.com/bramhaniproducts/?pos=101&kwd=disposable baby diapers&tags=BA||||8038.093|Price|product|||MDC|rsf:gd-|-stype:attr=1|qr_nm:gd|res:RC4|com-cf:nl|ptrs:na|ktp:N0|mc:26674|mtp:S|qry_typ:P|lang:en|wc:3|cs:8842|v=4,False,Swati Park,Rajkot,"Kothariya Part, Radhe Shyam Industrial Area, Plot No 9, Swati Road, Opp.Kanbi Electricals, Swati Park, Rajkot - 360002, Dist.Rajkot, Gujarat",8044456440,
"Freshkins Disposable Baby Diapers Pants, Size: Small",https://www.indiamart.com/proddetail/freshkins-disposable-baby-diapers-pants-2854538073597.html?pos=102&kwd=disposable baby diapers&tags=A||||8230.883||product|||TS|rsf:gd-|-stype:attr=1|qr_nm:gd|res:RC4|com-cf:nl|ptrs:na|ktp:N0|mc:26674|mtp:S|qry_typ:P|lang:en|wc:3|cs:8842|v=4,Hygiene Product,https://www.freshkin.co.in/?pos=102&kwd=disposable baby diapers&tags=A||||8230.883||product|||TS|rsf:gd-|-stype:attr=1|qr_nm:gd|res:RC4|com-cf:nl|ptrs:na|ktp:N0|mc:26674|mtp:S|qry_typ:P|lang:en|wc:3|cs:8842|v=4,False,Sagrampura Putli,Surat,"9002 B, World Trade Center Ring Road, Sagrampura Putli, Surat - 395002, Dist.Surat, Gujarat",8048610916,
Little Angel Baby Diapers,https://www.indiamart.com/proddetail/little-angel-baby-diapers-22834637348.html?pos=103&kwd=disposable baby diapers&tags=A||||8281.036|Price|product|||TS|rsf:gd-|-stype:attr=1|qr_nm:gd|res:RC4|com-cf:nl|ptrs:na|ktp:N0|mc:26674|mtp:S|qry_typ:P|lang:en|wc:3|cs:8842|v=4,Novelty Hosiery,https://www.indiamart.com/novelty-hosiery/?pos=103&kwd=disposable baby diapers&tags=A||||8281.036|Price|product|||TS|rsf:gd-|-stype:attr=1|qr_nm:gd|res:RC4|com-cf:nl|ptrs:na|ktp:N0|mc:26674|mtp:S|qry_typ:P|lang:en|wc:3|cs:8842|v=4,False,Chokshi Bazar,Vadodara,"M G Road 00 Laheripura Gate Nr Angadiya Gali, Chokshi Bazar, Vadodara - 390001, Dist.Vadodara, Gujarat",7942565948,
"Baby Nappies, Size: Medium, Age Group: 3to12 Months",https://www.indiamart.com/proddetail/baby-nappies-20634344512.html?pos=104&kwd=disposable baby diapers&tags=A||||8752.144|Price|product|||TS|rsf:gd-|-stype:attr=1|qr_nm:gd|res:RC4|com-cf:nl|ptrs:na|ktp:N0|mc:26674|mtp:S|qry_typ:P|lang:en|wc:3|cs:8842|v=4,Gyasi Ram & Sons,https://www.indiamart.com/gyasi-ram-sons/?pos=104&kwd=disposable baby diapers&tags=A||||8752.144|Price|product|||TS|rsf:gd-|-stype:attr=1|qr_nm:gd|res:RC4|com-cf:nl|ptrs:na|ktp:N0|mc:26674|mtp:S|qry_typ:P|lang:en|wc:3|cs:8842|v=4,False,Sadar Bazaar,New Delhi,"No. 459, Main Road, Sadar Bazar, Sadar Bazaar, New Delhi - 110006, Dist.Delhi, Delhi",8043865798,
"Plain Careloom Baby Pant Diapers, Small",https://www.indiamart.com/proddetail/careloom-baby-pant-diapers-2854874206888.html?pos=105&kwd=disposable baby diapers&tags=A||||8954.051|Price|product|||MDC|rsf:gd-|-stype:attr=1|qr_nm:gd|res:RC4|com-cf:nl|ptrs:na|ktp:N0|mc:26674|mtp:S|qry_typ:P|lang:en|wc:3|cs:8842|v=4,Careloom Health Care LLP,https://www.indiamart.com/careloom-health-care/?pos=105&kwd=disposable baby diapers&tags=A||||8954.051|Price|product|||MDC|rsf:gd-|-stype:attr=1|qr_nm:gd|res:RC4|com-cf:nl|ptrs:na|ktp:N0|mc:26674|mtp:S|qry_typ:P|lang:en|wc:3|cs:8842|v=4,False,,Chennai,"Plot No 193, Palkalai Nagar Avenue ,Palavakkam, Chennai - 600041, Dist.Chennai, Tamil Nadu",7949304995,
"L 62 Little Baby Diaper Pants, Large",https://www.indiamart.com/proddetail/l-62-little-baby-diaper-pants-2855000818855.html?pos=106&kwd=disposable baby diapers&tags=A||||8752.144|Price|product|||MDC|rsf:gd-|-stype:attr=1|qr_nm:gd|res:RC4|com-cf:nl|ptrs:na|ktp:N0|mc:26674|mtp:S|qry_typ:P|lang:en|wc:3|cs:8842|v=4,Curepills Healthcare Private Limited,https://www.indiamart.com/curepillshealthcare/?pos=106&kwd=disposable baby diapers&tags=A||||8752.144|Price|product|||MDC|rsf:gd-|-stype:attr=1|qr_nm:gd|res:RC4|com-cf:nl|ptrs:na|ktp:N0|mc:26674|mtp:S|qry_typ:P|lang:en|wc:3|cs:8842|v=4,False,,New Delhi,"Second Floor, B-37, DDA Shed, Okhla Industrial Estate Phase 2, South East Delhi, New Delhi - 110020, Dist.Delhi, Delhi",7949308749,
Easy Teddy Baby Diaper Pants,https://www.indiamart.com/proddetail/easy-teddy-baby-diaper-pants-2850346521697.html?pos=107&kwd=disposable baby diapers&tags=A||||9839.57|Price|product|||MDC|rsf:gd-|-stype:attr=1|qr_nm:gd|res:RC4|com-cf:nl|ptrs:na|ktp:N0|mc:26674|mtp:S|qry_typ:P|lang:en|wc:3|cs:8842|v=4,Bagaria Agencies Private Limited,https://www.indiamart.com/bagariaagencies/?pos=107&kwd=disposable baby diapers&tags=A||||9839.57|Price|product|||MDC|rsf:gd-|-stype:attr=1|qr_nm:gd|res:RC4|com-cf:nl|ptrs:na|ktp:N0|mc:26674|mtp:S|qry_typ:P|lang:en|wc:3|cs:8842|v=4,False,Barabazar Market,Kolkata,"Room No 10, Floor No 1, 12 Pollock Street, Kolkata, Barabazar Market, Kolkata - 700001, Dist.Kolkata, West Bengal",7942818112,
Disposable Baby Diapers,https://www.indiamart.com/proddetail/disposable-baby-diapers-2854622348012.html?pos=108&kwd=disposable baby diapers&tags=BB||||8601.347|Price|product|||TS|rsf:gd-|-stype:attr=1|qr_nm:gd|res:RC4|com-cf:nl|ptrs:na|ktp:N0|mc:26674|mtp:S|qry_typ:P|lang:en|wc:3|cs:8842|v=4,JSM Traders,https://www.indiamart.com/jsmtraders/?pos=108&kwd=disposable baby diapers&tags=BB||||8601.347|Price|product|||TS|rsf:gd-|-stype:attr=1|qr_nm:gd|res:RC4|com-cf:nl|ptrs:na|ktp:N0|mc:26674|mtp:S|qry_typ:P|lang:en|wc:3|cs:8842|v=4,False,Jhotwara,Jaipur,"47-A, Shivpuri Colony, Jhotwara, Jhotwara, Jaipur - 302012, Dist.Jaipur, Rajasthan",8046059170,
"Disposable Baby Diapers, Age Group: 3-12 Months, Size: Small",https://www.indiamart.com/proddetail/disposable-baby-diapers-26332693791.html?pos=109&kwd=disposable baby diapers&tags=BA||||8741.987|Price|product|||TS|rsf:gd-|-stype:attr=1|qr_nm:gd|res:RC4|com-cf:nl|ptrs:na|ktp:N0|mc:26674|mtp:S|qry_typ:P|lang:en|wc:3|cs:8842|v=4,Devik Trader,https://www.latestproductsupplier.com/?pos=109&kwd=disposable baby diapers&tags=BA||||8741.987|Price|product|||TS|rsf:gd-|-stype:attr=1|qr_nm:gd|res:RC4|com-cf:nl|ptrs:na|ktp:N0|mc:26674|mtp:S|qry_typ:P|lang:en|wc:3|cs:8842|v=4,False,Nanhera,Ambala,"Nanehra, Nanhera, Ambala - 133001, Dist.Ambala, Haryana",8048603229,
"Disposable Baby Diapers, Age Group: Newly Born, Size: Medium",https://www.indiamart.com/proddetail/disposable-baby-diapers-2851749054573.html?pos=110&kwd=disposable baby diapers&tags=BA||||8588.208||product|||TS|rsf:gd-|-stype:attr=1|qr_nm:gd|res:RC4|com-cf:nl|ptrs:na|ktp:N0|mc:26674|mtp:S|qry_typ:P|lang:en|wc:3|cs:8842|v=4,Dinesh Medicals,https://www.indiamart.com/dineshmedicals-kota/?pos=110&kwd=disposable baby diapers&tags=BA||||8588.208||product|||TS|rsf:gd-|-stype:attr=1|qr_nm:gd|res:RC4|com-cf:nl|ptrs:na|ktp:N0|mc:26674|mtp:S|qry_typ:P|lang:en|wc:3|cs:8842|v=4,False,Ladpura,Kota,"Near Jagdish Hotel, Ladpura, Ladpura, Kota - 324006, Rajasthan",8043862482,
Non Woven Disposable Baby Diapers,https://www.indiamart.com/proddetail/disposable-baby-diapers-2853254351488.html?pos=111&kwd=disposable baby diapers&tags=BA||||8307.81|Price|product|||TS|rsf:gd-|-stype:attr=1|qr_nm:gd|res:RC4|com-cf:nl|ptrs:na|ktp:N0|mc:26674|mtp:S|qry_typ:P|lang:en|wc:3|cs:8842|v=4,MRM Healthcare,https://www.mrmhealthcare.com/?pos=111&kwd=disposable baby diapers&tags=BA||||8307.81|Price|product|||TS|rsf:gd-|-stype:attr=1|qr_nm:gd|res:RC4|com-cf:nl|ptrs:na|ktp:N0|mc:26674|mtp:S|qry_typ:P|lang:en|wc:3|cs:8842|v=4,False,Hadapsar,Pune,"Ground Floor Shope Number 1, H No 1355, Unit No 1 Suyog Apartment Chimnya Ganpati Chowk, Near Chimnya Ganpati Chowk. Bajirao Road Sadashiv Peth, Hadapsar, Pune - 411030, Dist.Pune, Maharashtra",7942800377,
"Disposable Baby Diapers, Age Group: 3-12 Months, Size: Large",https://www.indiamart.com/proddetail/disposable-baby-diapers-2852676857073.html?pos=112&kwd=disposable baby diapers&tags=BA||||8752.144|Price|product|||TS|rsf:gd-|-stype:attr=1|qr_nm:gd|res:RC4|com-cf:nl|ptrs:na|ktp:N0|mc:26674|mtp:S|qry_typ:P|lang:en|wc:3|cs:8842|v=4,V.P. Healthcare,https://www.vphealthcare.in/?pos=112&kwd=disposable baby diapers&tags=BA||||8752.144|Price|product|||TS|rsf:gd-|-stype:attr=1|qr_nm:gd|res:RC4|com-cf:nl|ptrs:na|ktp:N0|mc:26674|mtp:S|qry_typ:P|lang:en|wc:3|cs:8842|v=4,False,Gokalpur,New Delhi,"A-132, Street No.1, Kabir Nagar, Babarpur,, Gokalpur, New Delhi - 110094, Dist.Delhi, Delhi",8047306785,
"Disposable Baby Diapers, Age Group: Newly Born, Size: XXL",https://www.indiamart.com/proddetail/disposable-baby-diapers-2852950707730.html?pos=113&kwd=disposable baby diapers&tags=BA||||9520.041|Price|product|||TS|rsf:gd-|-stype:attr=1|qr_nm:gd|res:RC4|com-cf:nl|ptrs:na|ktp:N0|mc:26674|mtp:S|qry_typ:P|lang:en|wc:3|cs:8842|v=4,Tatpar Imports-Exports,https://www.indiamart.com/tatpar-importsexports-patna/?pos=113&kwd=disposable baby diapers&tags=BA||||9520.041|Price|product|||TS|rsf:gd-|-stype:attr=1|qr_nm:gd|res:RC4|com-cf:nl|ptrs:na|ktp:N0|mc:26674|mtp:S|qry_typ:P|lang:en|wc:3|cs:8842|v=4,False,Gautam Nagar,Patna,"plot no - 203 2nd, Floor Gautam Nagar Gardanibagh, Gautam Nagar, Patna - 800001, Dist.Patna, Bihar",7942708730,
"sterikare PULP Disposable Lint Free Baby Diapers, Medium, Age Group: 3-12 Months",https://www.indiamart.com/proddetail/disposable-lint-free-baby-diapers-25674990197.html?pos=114&kwd=disposable baby diapers&tags=BA||||8752.144|Price|product|||TS|rsf:gd-|-stype:attr=1|qr_nm:gd|res:RC4|com-cf:nl|ptrs:na|ktp:N0|mc:26674|mtp:S|qry_typ:P|lang:en|wc:3|cs:8842|v=4,M/S Sterikare,https://www.indiamart.com/sterikare/?pos=114&kwd=disposable baby diapers&tags=BA||||8752.144|Price|product|||TS|rsf:gd-|-stype:attr=1|qr_nm:gd|res:RC4|com-cf:nl|ptrs:na|ktp:N0|mc:26674|mtp:S|qry_typ:P|lang:en|wc:3|cs:8842|v=4,False,Shahdara,New Delhi,"181/A3, Street No.15, Bhola Nath Nagar, Shahdara North East, Shahdara, New Delhi - 110032, Dist.Delhi, Delhi",8047308277,
Extra Small Bella Happy Disposable Baby Diapers,https://www.indiamart.com/proddetail/extra-small-bella-happy-disposable-baby-diapers-21700527988.html?pos=115&kwd=disposable baby diapers&tags=BA||||8571.301|Price|product|||TS|rsf:gd-|-stype:attr=1|qr_nm:gd|res:RC4|com-cf:nl|ptrs:na|ktp:N0|mc:26674|mtp:S|qry_typ:P|lang:en|wc:3|cs:8842|v=4,Atomlife Healthcare And Reseacrh Private Limited,https://www.indiamart.com/atomlifehealthcareresearch/?pos=115&kwd=disposable baby diapers&tags=BA||||8571.301|Price|product|||TS|rsf:gd-|-stype:attr=1|qr_nm:gd|res:RC4|com-cf:nl|ptrs:na|ktp:N0|mc:26674|mtp:S|qry_typ:P|lang:en|wc:3|cs:8842|v=4,False,Thycaud,Thiruvananthapuram,"TC 24/449, Thycaud, Thiruvananthapuram - 695014, Dist.Thiruvananthapuram, Kerala",8048263415,
"Nonwoven Printed Disposable Baby Diaper, Size: Medium, Age Group: 3-12 Months",https://www.indiamart.com/proddetail/disposable-baby-diaper-12798161991.html?pos=116&kwd=disposable baby diapers&tags=BA||||8752.144|Price|product|||TS|rsf:gd-|-stype:attr=1|qr_nm:gd|res:RC4|com-cf:nl|ptrs:na|ktp:N0|mc:26674|mtp:S|qry_typ:P|lang:en|wc:3|cs:8842|v=4,Chinmay Kids,https://www.indiamart.com/chinmaykids/?pos=116&kwd=disposable baby diapers&tags=BA||||8752.144|Price|product|||TS|rsf:gd-|-stype:attr=1|qr_nm:gd|res:RC4|com-cf:nl|ptrs:na|ktp:N0|mc:26674|mtp:S|qry_typ:P|lang:en|wc:3|cs:8842|v=4,False,Nayagaon,New Delhi,"C-99, Street No. 4, First Pusta, Nayagaon, New Delhi - 110053, Dist.Delhi, Delhi",8046054858,
Disposable Baby Diapers,https://www.indiamart.com/proddetail/disposable-baby-diapers-2853430435833.html?pos=117&kwd=disposable baby diapers&tags=BA||||8242.731||product|||TS|rsf:gd-|-stype:attr=1|qr_nm:gd|res:RC4|com-cf:nl|ptrs:na|ktp:N0|mc:26674|mtp:S|qry_typ:P|lang:en|wc:3|cs:8842|v=4,A S Enterprises,https://www.indiamart.com/asenterprises-ulhasnagar/?pos=117&kwd=disposable baby diapers&tags=BA||||8242.731||product|||TS|rsf:gd-|-stype:attr=1|qr_nm:gd|res:RC4|com-cf:nl|ptrs:na|ktp:N0|mc:26674|mtp:S|qry_typ:P|lang:en|wc:3|cs:8842|v=4,False,Vitthalwadi,Ulhasnagar,"Near BK No 617, Shop , Room No 1, O T Section, Vitthalwadi, Ulhasnagar - 421002, Dist.Thane, Maharashtra",7942835156,
"Polyester,Cotton Terry Off White Reusable Diaper Insert, Small",https://www.indiamart.com/proddetail/off-white-reusable-diaper-insert-26747958833.html?pos=118&kwd=disposable baby diapers&tags=BA||||8752.144|Price|product|||TS|rsf:gd-|-stype:attr=1|qr_nm:gd|res:RC4|com-cf:nl|ptrs:na|ktp:N0|mc:26674|mtp:S|qry_typ:P|lang:en|wc:3|cs:8842|v=4,Insight Products,https://www.indiamart.com/insightproducts/?pos=118&kwd=disposable baby diapers&tags=BA||||8752.144|Price|product|||TS|rsf:gd-|-stype:attr=1|qr_nm:gd|res:RC4|com-cf:nl|ptrs:na|ktp:N0|mc:26674|mtp:S|qry_typ:P|lang:en|wc:3|cs:8842|v=4,False,Bhagwati Garden,New Delhi,"10, Jai Bharat Enclave, Nr. Bhagwati Garden Extn, Mohan Garden, West Delhi, Bhagwati Garden, New Delhi - 110059, Dist.Delhi, Delhi",8043802833,
"Reusable Baby Diper, Age Group: 1to2 Years",https://www.indiamart.com/proddetail/reusable-baby-diper-2853641093648.html?pos=119&kwd=disposable baby diapers&tags=BB||||8228.275|Price|product|||TS|rsf:gd-|-stype:attr=1|qr_nm:gd|res:RC4|com-cf:nl|ptrs:na|ktp:N0|mc:26674|mtp:S|qry_typ:P|lang:en|wc:3|cs:8842|v=4,JSPM Traders,https://www.jspmtraders.com/?pos=119&kwd=disposable baby diapers&tags=BB||||8228.275|Price|product|||TS|rsf:gd-|-stype:attr=1|qr_nm:gd|res:RC4|com-cf:nl|ptrs:na|ktp:N0|mc:26674|mtp:S|qry_typ:P|lang:en|wc:3|cs:8842|v=4,False,Dudheshwar,Ahmedabad,"407, 4th, Block-B, Sumel Business Park-9, Dudheshwar, Dudheshwar, Ahmedabad - 380004, Dist.Ahmedabad, Gujarat",8045908277,
"Printed Baby Diaper Pants Small, 78 Count, with upto 12 Hour protection",https://www.indiamart.com/proddetail/baby-diaper-pants-small-78-count-with-upto-12-hour-protection-2854913646291.html?pos=120&kwd=disposable baby diapers&tags=BA||||8786.56|Price|product|||TS|rsf:gd-|-stype:attr=1|qr_nm:gd|res:RC4|com-cf:nl|ptrs:na|ktp:N0|mc:26674|mtp:S|qry_typ:P|lang:en|wc:3|cs:8842|v=4,Biocare Surgical Industries,https://www.indiamart.com/biocaresurgicalindustries/?pos=120&kwd=disposable baby diapers&tags=BA||||8786.56|Price|product|||TS|rsf:gd-|-stype:attr=1|qr_nm:gd|res:RC4|com-cf:nl|ptrs:na|ktp:N0|mc:26674|mtp:S|qry_typ:P|lang:en|wc:3|cs:8842|v=4,False,Nagaram,Hyderabad,"Plot No. 16, 2nd Floor, dammaiguda Hyderabad Medchal, Malkajgiri, Nagaram, Hyderabad - 500062, Dist.Hyderabad, Telangana",8048957165,
"Velcro Type Freshkins Baby Diaper, Size: Medium",https://www.indiamart.com/proddetail/velcro-type-freshkins-baby-diaper-2851845801788.html?pos=121&kwd=disposable baby diapers&tags=BA||||9578.697|Price|product|||TS|rsf:gd-|-stype:attr=1|qr_nm:gd|res:RC4|com-cf:nl|ptrs:na|ktp:N0|mc:26674|mtp:S|qry_typ:P|lang:en|wc:3|cs:8842|v=4,Jyotsna Associate,https://www.indiamart.com/jyotsnaassociate/?pos=121&kwd=disposable baby diapers&tags=BA||||9578.697|Price|product|||TS|rsf:gd-|-stype:attr=1|qr_nm:gd|res:RC4|com-cf:nl|ptrs:na|ktp:N0|mc:26674|mtp:S|qry_typ:P|lang:en|wc:3|cs:8842|v=4,False,Mangalabag,Cuttack,"New Colony, 183/H/3, Buxibazar, Gamadia, Mangalabag, Cuttack - 753001, Dist.Cuttack, Odisha",7942836140,
Nonwoven Baby Diaper Loose,https://www.indiamart.com/proddetail/baby-diaper-loose-2852799530933.html?pos=122&kwd=disposable baby diapers&tags=BA||||9734.362|Price|product|||TS|rsf:gd-|-stype:attr=1|qr_nm:gd|res:RC4|com-cf:nl|ptrs:na|ktp:N0|mc:26674|mtp:S|qry_typ:P|lang:en|wc:3|cs:8842|v=4,Shree Krishna Traders,https://www.jasminehygiene.in/?pos=122&kwd=disposable baby diapers&tags=BA||||9734.362|Price|product|||TS|rsf:gd-|-stype:attr=1|qr_nm:gd|res:RC4|com-cf:nl|ptrs:na|ktp:N0|mc:26674|mtp:S|qry_typ:P|lang:en|wc:3|cs:8842|v=4,False,Jogbani,Jogabani,"Plot No 649,650,2852,2853, Ward No 14, Post Office Road, Jogbani Post Office, Jogbani, Jogabani - 854328, Dist.Araria, Bihar",7942964191,
BABA'S NAPPY PANT DAIPERS,https://www.indiamart.com/proddetail/baba-s-nappy-pant-daipers-2854137693155.html?pos=123&kwd=disposable baby diapers&tags=BA||||9110.092|Price|product|||TS|rsf:gd-|-stype:attr=1|qr_nm:gd|res:RC4|com-cf:nl|ptrs:na|ktp:N0|mc:26674|mtp:S|qry_typ:P|lang:en|wc:3|cs:8842|v=4,Sunshine Health Care India,https://www.indiamart.com/sunshinehealthcareindia/?pos=123&kwd=disposable baby diapers&tags=BA||||9110.092|Price|product|||TS|rsf:gd-|-stype:attr=1|qr_nm:gd|res:RC4|com-cf:nl|ptrs:na|ktp:N0|mc:26674|mtp:S|qry_typ:P|lang:en|wc:3|cs:8842|v=4,False,Chinhat,Lucknow,"302, Shakti Heights Face-2, Malhaur Road, Chinhat, Chinhat, Lucknow - 226028, Dist.Lucknow, Uttar Pradesh",8046068776,
"Bamboo Cotton Baby Disposables Diaper, Age Group: 1-2 Years",https://www.indiamart.com/proddetail/baby-disposables-diaper-20461849912.html?pos=124&kwd=disposable baby diapers&tags=BA||||8752.144|Price|product|||TS|rsf:gd-|-stype:attr=1|qr_nm:gd|res:RC4|com-cf:nl|ptrs:na|ktp:N0|mc:26674|mtp:S|qry_typ:P|lang:en|wc:3|cs:8842|v=4,Shaifali Traders,https://www.shopphiez.com/?pos=124&kwd=disposable baby diapers&tags=BA||||8752.144|Price|product|||TS|rsf:gd-|-stype:attr=1|qr_nm:gd|res:RC4|com-cf:nl|ptrs:na|ktp:N0|mc:26674|mtp:S|qry_typ:P|lang:en|wc:3|cs:8842|v=4,False,PATPARGANJ,New Delhi,"Plot No 10, main road patparganj ganj, PATPARGANJ, New Delhi - 110091, Dist.Delhi, Delhi",8046033629,
"Baby Disposable Diapers, Size: Medium",https://www.indiamart.com/proddetail/baby-disposable-diapers-2853425436988.html?pos=125&kwd=disposable baby diapers&tags=BA||||8211.142|Price|product|||MDC|rsf:gd-|-stype:attr=1|qr_nm:gd|res:RC4|com-cf:nl|ptrs:na|ktp:N0|mc:26674|mtp:S|qry_typ:P|lang:en|wc:3|cs:8842|v=4,H M H Corporation,https://www.indiamart.com/hmhcorporation/?pos=125&kwd=disposable baby diapers&tags=BA||||8211.142|Price|product|||MDC|rsf:gd-|-stype:attr=1|qr_nm:gd|res:RC4|com-cf:nl|ptrs:na|ktp:N0|mc:26674|mtp:S|qry_typ:P|lang:en|wc:3|cs:8842|v=4,False,Grant Road,Mumbai,"3B/ Plot No-3, Ground Floor, LNH Orphanage Compound, KM Munshi Marg, Babulnath Temple, Grant Road, Grant Road, Mumbai - 400007, Dist.Mumbai, Maharashtra",7942959739,
"Nonwoven Disposable Baby Diapers, Small",https://www.indiamart.com/proddetail/disposable-baby-diapers-2853733967488.html?pos=126&kwd=disposable baby diapers&tags=BA||||8786.56|Price|product|||MDC|rsf:gd-|-stype:attr=1|qr_nm:gd|res:RC4|com-cf:nl|ptrs:na|ktp:N0|mc:26674|mtp:S|qry_typ:P|lang:en|wc:3|cs:8842|v=4,Saharsh Pharma Private Limited,https://www.indiamart.com/saharshpharma/?pos=126&kwd=disposable baby diapers&tags=BA||||8786.56|Price|product|||MDC|rsf:gd-|-stype:attr=1|qr_nm:gd|res:RC4|com-cf:nl|ptrs:na|ktp:N0|mc:26674|mtp:S|qry_typ:P|lang:en|wc:3|cs:8842|v=4,False,,Hyderabad,"7-1-276/18, Bk Guda, Suprabhat Nagar, Hyderabad - 500016, Dist.Hyderabad, Telangana",7942833936,
"Disposable Baby Diapers, Age Group: Newly Born",https://www.indiamart.com/proddetail/disposable-baby-diapers-22612619562.html?pos=127&kwd=disposable baby diapers&tags=BB||||8281.036|Price|product|||MDC|rsf:gd-|-stype:attr=1|qr_nm:gd|res:RC4|com-cf:nl|ptrs:na|ktp:N0|mc:26674|mtp:S|qry_typ:P|lang:en|wc:3|cs:8842|v=4,Fashion Live,https://www.indiamart.com/newsuperfashionlive/?pos=127&kwd=disposable baby diapers&tags=BB||||8281.036|Price|product|||MDC|rsf:gd-|-stype:attr=1|qr_nm:gd|res:RC4|com-cf:nl|ptrs:na|ktp:N0|mc:26674|mtp:S|qry_typ:P|lang:en|wc:3|cs:8842|v=4,False,Karelibagh,Vadodara,"D-48, Vrundavan Tounship, Harni Road,, Karelibagh, Vadodara - 390022, Dist.Vadodara, Gujarat",8046037163,
"Disposable Baby Diapers, Age Group: 1to2 Years, Size: XL",https://www.indiamart.com/proddetail/disposable-baby-diapers-2854951837362.html?pos=128&kwd=disposable baby diapers&tags=BB||||8038.093|Price|product|||MDC|rsf:gd-|-stype:attr=1|qr_nm:gd|res:RC4|com-cf:nl|ptrs:na|ktp:N0|mc:26674|mtp:S|qry_typ:P|lang:en|wc:3|cs:8842|v=4,Siyaram Enterprise,https://www.indiamart.com/siyaramenterprise/?pos=128&kwd=disposable baby diapers&tags=BB||||8038.093|Price|product|||MDC|rsf:gd-|-stype:attr=1|qr_nm:gd|res:RC4|com-cf:nl|ptrs:na|ktp:N0|mc:26674|mtp:S|qry_typ:P|lang:en|wc:3|cs:8842|v=4,False,Mavdi,Rajkot,"2016/0011387, Mavdi Vistar, Street No-15, Mavdi, Rajkot - 360004, Dist.Rajkot, Gujarat",8044012484,
"Disposable Baby Diapers, Age Group: Newly Born, Size: Small",https://www.indiamart.com/proddetail/disposable-baby-diapers-2853677069033.html?pos=129&kwd=disposable baby diapers&tags=BA||||8230.883|Price|product|||MDC|rsf:gd-|-stype:attr=1|qr_nm:gd|res:RC4|com-cf:nl|ptrs:na|ktp:N0|mc:26674|mtp:S|qry_typ:P|lang:en|wc:3|cs:8842|v=4,Zainab Enterprise,https://www.indiamart.com/zainabenterprise-surat/?pos=129&kwd=disposable baby diapers&tags=BA||||8230.883|Price|product|||MDC|rsf:gd-|-stype:attr=1|qr_nm:gd|res:RC4|com-cf:nl|ptrs:na|ktp:N0|mc:26674|mtp:S|qry_typ:P|lang:en|wc:3|cs:8842|v=4,False,Begampura,Surat,"Shop No.5,Ground Floor,Al Meena Appt.,,2210 - Zapabazar,Zampa Surat Surat City, Begampura, Surat - 395003, Dist.Surat, Gujarat",8048956780,
"L Size Disposable Baby Diaper, Age Group: 3 Year, Size: Large",https://www.indiamart.com/proddetail/l-size-disposable-baby-diaper-2852702152097.html?pos=130&kwd=disposable baby diapers&tags=BA||||8230.883|Price|product|||MDC|rsf:gd-|-stype:attr=1|qr_nm:gd|res:RC4|com-cf:nl|ptrs:na|ktp:N0|mc:26674|mtp:S|qry_typ:P|lang:en|wc:3|cs:8842|v=4,A To Z Hygiene,https://www.indiamart.com/atozhygiene/?pos=130&kwd=disposable baby diapers&tags=BA||||8230.883|Price|product|||MDC|rsf:gd-|-stype:attr=1|qr_nm:gd|res:RC4|com-cf:nl|ptrs:na|ktp:N0|mc:26674|mtp:S|qry_typ:P|lang:en|wc:3|cs:8842|v=4,False,Amroli,Surat,"Flat No. B/1, 101, Part E/7, R.S. No-68, Block No. 89, Shreeji Residency, -, Chhaprabhatha, Amroli, Surat - 394107, Dist.Surat, Gujarat",7942716862,
"Cotton Safex Disposable Baby Diaper, Age Group: Newly Born, Packaging Size: 5 Pcs",https://www.indiamart.com/proddetail/safex-disposable-baby-diaper-7001396955.html?pos=131&kwd=disposable baby diapers&tags=BA||||8584.299|Price|product|||MDC|rsf:gd-|-stype:attr=1|qr_nm:gd|res:RC4|com-cf:nl|ptrs:na|ktp:N0|mc:26674|mtp:S|qry_typ:P|lang:en|wc:3|cs:8842|v=4,Safex Hygiene Care,https://www.indiamart.com/safex-hygiene-care/?pos=131&kwd=disposable baby diapers&tags=BA||||8584.299|Price|product|||MDC|rsf:gd-|-stype:attr=1|qr_nm:gd|res:RC4|com-cf:nl|ptrs:na|ktp:N0|mc:26674|mtp:S|qry_typ:P|lang:en|wc:3|cs:8842|v=4,False,Kalveerampalayam,Coimbatore,"50/51, Thoppil Nagar, Kalveerampalyam, Kalveerampalayam, Coimbatore - 641046, Dist.Coimbatore, Tamil Nadu",8046037064,
"Printed Baby Disposable Diapers, Age Group: 1to2 Years, Small",https://www.indiamart.com/proddetail/printed-baby-disposable-diapers-2854419066062.html?pos=132&kwd=disposable baby diapers&tags=BA||||8228.275|Price|product|||MDC|rsf:gd-|-stype:attr=1|qr_nm:gd|res:RC4|com-cf:nl|ptrs:na|ktp:N0|mc:26674|mtp:S|qry_typ:P|lang:en|wc:3|cs:8842|v=4,Gurukrupa Enterprise,https://www.indiamart.com/gurukrupa-enterprisegujarat-india/?pos=132&kwd=disposable baby diapers&tags=BA||||8228.275|Price|product|||MDC|rsf:gd-|-stype:attr=1|qr_nm:gd|res:RC4|com-cf:nl|ptrs:na|ktp:N0|mc:26674|mtp:S|qry_typ:P|lang:en|wc:3|cs:8842|v=4,False,Thakkarbapa Nagar,Ahmedabad,"C/5, Vikramaditya Society, B/H Vikram Park, Nr. Kewdaji Ni Chali, Thakkarbapa Nagar, Ahmedabad - 382350, Dist.Ahmedabad, Gujarat",7949337219,
"Morisons Disposable Baby Diapers, Age Group: Newly Born, Size: Small",https://www.indiamart.com/proddetail/morisons-disposable-baby-diapers-2854337125612.html?pos=133&kwd=disposable baby diapers&tags=BA||||8876.815|Price|product|||MDC|rsf:gd-|-stype:attr=1|qr_nm:gd|res:RC4|com-cf:nl|ptrs:na|ktp:N0|mc:26674|mtp:S|qry_typ:P|lang:en|wc:3|cs:8842|v=4,Mangalam Pharma,https://www.indiamart.com/mangalampharma/?pos=133&kwd=disposable baby diapers&tags=BA||||8876.815|Price|product|||MDC|rsf:gd-|-stype:attr=1|qr_nm:gd|res:RC4|com-cf:nl|ptrs:na|ktp:N0|mc:26674|mtp:S|qry_typ:P|lang:en|wc:3|cs:8842|v=4,False,,Nagpur,"F-104, Plot No 802, Saptashru-NGI Apartment, Sudampuri,, Nagpur - 440009, Dist.Nagpur, Maharashtra",8047831433,
"Small Disposable Baby Diapers, Age Group: 8 Month",https://www.indiamart.com/proddetail/small-disposable-baby-diapers-2852815210630.html?pos=134&kwd=disposable baby diapers&tags=BA||||9017.212|Price|product|||MDC|rsf:gd-|-stype:attr=1|qr_nm:gd|res:RC4|com-cf:nl|ptrs:na|ktp:N0|mc:26674|mtp:S|qry_typ:P|lang:en|wc:3|cs:8842|v=4,Rathour Pharma Private Limited,https://www.indiamart.com/rathourpharma/?pos=134&kwd=disposable baby diapers&tags=BA||||9017.212|Price|product|||MDC|rsf:gd-|-stype:attr=1|qr_nm:gd|res:RC4|com-cf:nl|ptrs:na|ktp:N0|mc:26674|mtp:S|qry_typ:P|lang:en|wc:3|cs:8842|v=4,False,Nigohi,Shahjahanpur,"C/O Hari Sharan, Powayan Road, Nigohi, Near Railway Crossing, Shahzadpur,, Nigohi, Shahjahanpur - 242407, Uttar Pradesh",7942967102,
Bamboo Cotton Disposable Baby Nappies,https://www.indiamart.com/proddetail/disposable-baby-nappies-2850427773397.html?pos=135&kwd=disposable baby diapers&tags=BA||||8785.791|Price|product|||MDC|rsf:gd-|-stype:attr=1|qr_nm:gd|res:RC4|com-cf:nl|ptrs:na|ktp:N0|mc:26674|mtp:S|qry_typ:P|lang:en|wc:3|cs:8842|v=4,First Smile Enterprises,https://www.indiamart.com/firstsmileenterprises/?pos=135&kwd=disposable baby diapers&tags=BA||||8785.791|Price|product|||MDC|rsf:gd-|-stype:attr=1|qr_nm:gd|res:RC4|com-cf:nl|ptrs:na|ktp:N0|mc:26674|mtp:S|qry_typ:P|lang:en|wc:3|cs:8842|v=4,False,Ahmed Nagar Nawada,Ghaziabad,"Khasra No 263, New Anand Vihar, Loni,, Ahmed Nagar Nawada, Ghaziabad - 201102, Dist.Ghaziabad, Uttar Pradesh",8043850100,
"White Disposable Baby Cotton Diaper, Size: Small",https://www.indiamart.com/proddetail/disposable-baby-cotton-diaper-2853997471948.html?pos=136&kwd=disposable baby diapers&tags=BA||||8778.123|Price|product|||MDC|rsf:gd-|-stype:attr=1|qr_nm:gd|res:RC4|com-cf:nl|ptrs:na|ktp:N0|mc:26674|mtp:S|qry_typ:P|lang:en|wc:3|cs:8842|v=4,Keshri Balaji Industries,https://www.indiamart.com/keshribalajiindustries/?pos=136&kwd=disposable baby diapers&tags=BA||||8778.123|Price|product|||MDC|rsf:gd-|-stype:attr=1|qr_nm:gd|res:RC4|com-cf:nl|ptrs:na|ktp:N0|mc:26674|mtp:S|qry_typ:P|lang:en|wc:3|cs:8842|v=4,False,Sector 63 A,Noida,"SD-021, Sector - 63A, Sector 63 A, Noida - 201301, Dist.Gautam Budh Nagar, Uttar Pradesh",8044015948,
"White Disposable Baby Diaper Pant, Age Group: Newly Born",https://www.indiamart.com/proddetail/white-disposable-baby-diaper-pant-22701749730.html?pos=137&kwd=disposable baby diapers&tags=BA||||8601.347|Price|product|||MDC|rsf:gd-|-stype:attr=1|qr_nm:gd|res:RC4|com-cf:nl|ptrs:na|ktp:N0|mc:26674|mtp:S|qry_typ:P|lang:en|wc:3|cs:8842|v=4,Fleming Hygiene,https://www.indiamart.com/fleming-hygiene/?pos=137&kwd=disposable baby diapers&tags=BA||||8601.347|Price|product|||MDC|rsf:gd-|-stype:attr=1|qr_nm:gd|res:RC4|com-cf:nl|ptrs:na|ktp:N0|mc:26674|mtp:S|qry_typ:P|lang:en|wc:3|cs:8842|v=4,False,Gate,Jaipur,"774 Sanganeri Gate, Gate, Jaipur - 302003, Dist.Jaipur, Rajasthan",8047632456,
Teddy Baby Diapers,https://www.indiamart.com/proddetail/teddy-baby-diapers-2854120471462.html?pos=138&kwd=disposable baby diapers&tags=BA||||8788.382|Price|product|||MDC|rsf:gd-|-stype:attr=1|qr_nm:gd|res:RC4|com-cf:nl|ptrs:na|ktp:N0|mc:26674|mtp:S|qry_typ:P|lang:en|wc:3|cs:8842|v=4,Health4u,https://www.indiamart.com/health4u-greaternoida/?pos=138&kwd=disposable baby diapers&tags=BA||||8788.382|Price|product|||MDC|rsf:gd-|-stype:attr=1|qr_nm:gd|res:RC4|com-cf:nl|ptrs:na|ktp:N0|mc:26674|mtp:S|qry_typ:P|lang:en|wc:3|cs:8842|v=4,False,,Greater Noida,"Shop No-5, H No-3, Pandat Complex, Ram Shyam Enclave, Chipiyana Buzurg,, Greater Noida - 201306, Dist.Gautam Budh Nagar, Uttar Pradesh",8045731446,
"Baby Medium Disposable Diaper Pants, Age Group: Newly Born",https://www.indiamart.com/proddetail/baby-medium-disposable-diaper-pants-2853064735755.html?pos=139&kwd=disposable baby diapers&tags=BA||||8752.144|Price|product|||MDC|rsf:gd-|-stype:attr=1|qr_nm:gd|res:RC4|com-cf:nl|ptrs:na|ktp:N0|mc:26674|mtp:S|qry_typ:P|lang:en|wc:3|cs:8842|v=4,Dagar Hygiene Private Limited,https://www.indiamart.com/dagar-hygiene/?pos=139&kwd=disposable baby diapers&tags=BA||||8752.144|Price|product|||MDC|rsf:gd-|-stype:attr=1|qr_nm:gd|res:RC4|com-cf:nl|ptrs:na|ktp:N0|mc:26674|mtp:S|qry_typ:P|lang:en|wc:3|cs:8842|v=4,False,Karawal Nagar,New Delhi,"B-328, Kh-48/22, Maha Laxmi Enclave, Karawal Nagar North East, Karawal Nagar, New Delhi - 110094, Dist.Delhi, Delhi",7942965875,
"Jiswap Premium Quality Disposable Baby Diaper, Age Group: 1to2 Years, Size: XXL",https://www.indiamart.com/proddetail/jiswap-premium-quality-disposable-baby-diaper-24828206730.html?pos=140&kwd=disposable baby diapers&tags=BA||||8038.093|Price|product|||MDC|rsf:gd-|-stype:attr=1|qr_nm:gd|res:RC4|com-cf:nl|ptrs:na|ktp:N0|mc:26674|mtp:S|qry_typ:P|lang:en|wc:3|cs:8842|v=4,Empresa Industries,https://www.indiamart.com/empresaindustries/?pos=140&kwd=disposable baby diapers&tags=BA||||8038.093|Price|product|||MDC|rsf:gd-|-stype:attr=1|qr_nm:gd|res:RC4|com-cf:nl|ptrs:na|ktp:N0|mc:26674|mtp:S|qry_typ:P|lang:en|wc:3|cs:8842|v=4,False,,Rajkot,"Serve No.36, Plot No.4, Shade No 6, Village Vavdi, Near Om Casting, BH Krishna Park, Gondal Road,, Rajkot - 360004, Dist.Rajkot, Gujarat",8045738690,
"White Cotton Disposable Baby Diaper, Size: Large",https://www.indiamart.com/proddetail/cotton-disposable-baby-diaper-2852736961662.html?pos=141&kwd=disposable baby diapers&tags=BA||||9228.171|Price|product|||MDC|rsf:gd-|-stype:attr=1|qr_nm:gd|res:RC4|com-cf:nl|ptrs:na|ktp:N0|mc:26674|mtp:S|qry_typ:P|lang:en|wc:3|cs:8842|v=4,Anaya Manufacturer,https://www.indiamart.com/anaya-manufacturer/?pos=141&kwd=disposable baby diapers&tags=BA||||9228.171|Price|product|||MDC|rsf:gd-|-stype:attr=1|qr_nm:gd|res:RC4|com-cf:nl|ptrs:na|ktp:N0|mc:26674|mtp:S|qry_typ:P|lang:en|wc:3|cs:8842|v=4,False,,Faizabad,"Ranikpur,, Faizabad - 224153, Uttar Pradesh",8043816419,
"Cotton Sansafe Junior Baby Diapers, Small",https://www.indiamart.com/proddetail/sansafe-junior-baby-diapers-2853101605397.html?pos=142&kwd=disposable baby diapers&tags=BA||||8747.223|Price|product|||MDC|rsf:gd-|-stype:attr=1|qr_nm:gd|res:RC4|com-cf:nl|ptrs:na|ktp:N0|mc:26674|mtp:S|qry_typ:P|lang:en|wc:3|cs:8842|v=4,Daily Hygiene Solution Private Limited,https://www.indiamart.com/daily-hygiene-solution/?pos=142&kwd=disposable baby diapers&tags=BA||||8747.223|Price|product|||MDC|rsf:gd-|-stype:attr=1|qr_nm:gd|res:RC4|com-cf:nl|ptrs:na|ktp:N0|mc:26674|mtp:S|qry_typ:P|lang:en|wc:3|cs:8842|v=4,False,Omaxe City,Sonipat,"Allure Tower No.10 Flat No.202 Omaxe Heights, Omaxe City, Sonipat - 131001, Dist.Sonipat, Haryana",7942966236,
"New Born Non Woven NB Medical Grade Disposable Baby Diaper, Size: 8 Inch(l)",https://www.indiamart.com/proddetail/nb-medical-grade-disposable-baby-diaper-2851987937473.html?pos=143&kwd=disposable baby diapers&tags=BA||||9110.092|Price|product|||MDC|rsf:gd-|-stype:attr=1|qr_nm:gd|res:RC4|com-cf:nl|ptrs:na|ktp:N0|mc:26674|mtp:S|qry_typ:P|lang:en|wc:3|cs:8842|v=4,Hygiene Health Care,https://www.indiamart.com/hygiene-health-care/?pos=143&kwd=disposable baby diapers&tags=BA||||9110.092|Price|product|||MDC|rsf:gd-|-stype:attr=1|qr_nm:gd|res:RC4|com-cf:nl|ptrs:na|ktp:N0|mc:26674|mtp:S|qry_typ:P|lang:en|wc:3|cs:8842|v=4,False,Husainabad,Lucknow,"390/29/01, Rustam Nagar Near Bagh Wali Masjid Saadat Ganj, Lucknow, Husainabad, Lucknow - 226003, Dist.Lucknow, Uttar Pradesh",7942866266,
"Body Guard Baby Diapers Disposal, Packaging Type: Box",https://www.indiamart.com/proddetail/body-guard-baby-diapers-disposal-21036039162.html?pos=144&kwd=disposable baby diapers&tags=BA||||8752.144|Price|product|||MDC|rsf:gd-|-stype:attr=1|qr_nm:gd|res:RC4|com-cf:nl|ptrs:na|ktp:N0|mc:26674|mtp:S|qry_typ:P|lang:en|wc:3|cs:8842|v=4,Sirona Hygiene Private Limited,https://www.indiamart.com/first-step-digital/?pos=144&kwd=disposable baby diapers&tags=BA||||8752.144|Price|product|||MDC|rsf:gd-|-stype:attr=1|qr_nm:gd|res:RC4|com-cf:nl|ptrs:na|ktp:N0|mc:26674|mtp:S|qry_typ:P|lang:en|wc:3|cs:8842|v=4,False,,New Delhi,"3rd Floor And Part Of 4th Floor, Plot No. 3, Ambience Tower, L.s.c Sector-A, Pocket-2, Near Car Market Vasant Kunj, New Delhi - 110070, Dist.Delhi, Delhi",8046073165,
Printed XXL Bonecam Baby Diaper Pant,https://www.indiamart.com/proddetail/xxl-bonecam-baby-diaper-pant-2853964534633.html?pos=145&kwd=disposable baby diapers&tags=BA||||8231.259|Price|product|||MDC|rsf:gd-|-stype:attr=1|qr_nm:gd|res:RC4|com-cf:nl|ptrs:na|ktp:N0|mc:26674|mtp:S|qry_typ:P|lang:en|wc:3|cs:8842|v=4,Kaker Group,https://www.indiamart.com/kaker-group/?pos=145&kwd=disposable baby diapers&tags=BA||||8231.259|Price|product|||MDC|rsf:gd-|-stype:attr=1|qr_nm:gd|res:RC4|com-cf:nl|ptrs:na|ktp:N0|mc:26674|mtp:S|qry_typ:P|lang:en|wc:3|cs:8842|v=4,False,Chavindra Naka,Bhiwandi,"Ghar No 1503/G-06 Tal Majla, Malasiya Sizing Kacheri Pada Nagaon-2,, Chavindra Naka, Bhiwandi - 421302, Maharashtra",8044561428,
Chota bheem Bumtum Large Baby Diaper Pants,https://www.indiamart.com/proddetail/chota-bheem-bumtum-large-baby-diaper-pants-2852784454797.html?pos=146&kwd=disposable baby diapers&tags=BA||||8786.56|Price|product|||MDC|rsf:gd-|-stype:attr=1|qr_nm:gd|res:RC4|com-cf:nl|ptrs:na|ktp:N0|mc:26674|mtp:S|qry_typ:P|lang:en|wc:3|cs:8842|v=4,Aaraniyar Enterprises,https://www.indiamart.com/aaraniyar-enterprises-hyderabad/?pos=146&kwd=disposable baby diapers&tags=BA||||8786.56|Price|product|||MDC|rsf:gd-|-stype:attr=1|qr_nm:gd|res:RC4|com-cf:nl|ptrs:na|ktp:N0|mc:26674|mtp:S|qry_typ:P|lang:en|wc:3|cs:8842|v=4,False,Amberpet,Hyderabad,"3-14-36/8/10, Near Yaadaiah Hotel,Vivek Nagar, Amberpet, Ramanthapur, Amberpet, Hyderabad - 500013, Dist.Hyderabad, Telangana",7942717866,
"Cotton Disposable Diaper Pants, Packaging Size: Pouch",https://www.indiamart.com/proddetail/disposable-diaper-pants-27019932012.html?pos=147&kwd=disposable baby diapers&tags=BA||||8601.347|Price|product|||MDC|rsf:gd-|-stype:attr=1|qr_nm:gd|res:RC4|com-cf:nl|ptrs:na|ktp:N0|mc:26674|mtp:S|qry_typ:P|lang:en|wc:3|cs:8842|v=4,Solution India,https://www.indiamart.com/solutionindia-jaipur/?pos=147&kwd=disposable baby diapers&tags=BA||||8601.347|Price|product|||MDC|rsf:gd-|-stype:attr=1|qr_nm:gd|res:RC4|com-cf:nl|ptrs:na|ktp:N0|mc:26674|mtp:S|qry_typ:P|lang:en|wc:3|cs:8842|v=4,False,Jhotwara,Jaipur,"G-3, Block 3A, Moon Resi, Behind Shanti Niketan Vidhya Mandir, Laxmi Nagar, Jhotwara, Jaipur - 302012, Dist.Jaipur, Rajasthan",8046044590,
Baby Diaper,https://www.indiamart.com/proddetail/baby-diaper-9414464688.html?pos=148&kwd=disposable baby diapers&tags=BA||||9836.03|Price|product|||MDC|rsf:gd-|-stype:attr=1|qr_nm:gd|res:RC4|com-cf:nl|ptrs:na|ktp:N0|mc:26674|mtp:S|qry_typ:P|lang:en|wc:3|cs:8842|v=4,Shubham Pharmaceuticals,https://www.indiamart.com/shubhampharmaceuticals/?pos=148&kwd=disposable baby diapers&tags=BA||||9836.03|Price|product|||MDC|rsf:gd-|-stype:attr=1|qr_nm:gd|res:RC4|com-cf:nl|ptrs:na|ktp:N0|mc:26674|mtp:S|qry_typ:P|lang:en|wc:3|cs:8842|v=4,False,Kanaipur,Kanaipur,"Village Nawpara, Post Office Kanaipur, Kanaipur, Kanaipur - 712234, Dist.Hooghly, West Bengal",8046037575,
Loose Baby Diaper,https://www.indiamart.com/proddetail/loose-baby-diaper-2853446561197.html?pos=149&kwd=disposable baby diapers&tags=BA||||8038.093|Price|product|||MDC|rsf:gd-|-stype:attr=1|qr_nm:gd|res:RC4|com-cf:nl|ptrs:na|ktp:N0|mc:26674|mtp:S|qry_typ:P|lang:en|wc:3|cs:8842|v=4,Balaji Pharmacy,https://www.indiamart.com/balajipharmacy-rajkot/?pos=149&kwd=disposable baby diapers&tags=BA||||8038.093|Price|product|||MDC|rsf:gd-|-stype:attr=1|qr_nm:gd|res:RC4|com-cf:nl|ptrs:na|ktp:N0|mc:26674|mtp:S|qry_typ:P|lang:en|wc:3|cs:8842|v=4,False,Jangleshwar,Rajkot,"Ground Floor,Shop No.2, Quater No.76,Surey No.249, Hudco Quarters, Kothariya Main Road, Jangleshwar, Rajkot - 360002, Dist.Rajkot, Gujarat",8044013220,
"Fresh Feeling Cotton Baby Diaper, Small",https://www.indiamart.com/proddetail/fresh-feeling-cotton-baby-diaper-2853173358588.html?pos=150&kwd=disposable baby diapers&tags=BA||||7964.7354|Price|product|||MDC|rsf:gd-|-stype:attr=1|qr_nm:gd|res:RC4|com-cf:nl|ptrs:na|ktp:N0|mc:26674|mtp:S|qry_typ:P|lang:en|wc:3|cs:8842|v=4,Mahalaxmi Enterprises,https://www.indiamart.com/mahalaxmienterprisesjamnagar/?pos=150&kwd=disposable baby diapers&tags=BA||||7964.7354|Price|product|||MDC|rsf:gd-|-stype:attr=1|qr_nm:gd|res:RC4|com-cf:nl|ptrs:na|ktp:N0|mc:26674|mtp:S|qry_typ:P|lang:en|wc:3|cs:8842|v=4,False,Mangal Bag,Jamnagar,"Ground Floor, C-34, Saru Section Road, Near Modi School, M.P. Shah Udhyognagar, Bedi, Mangal Bag, Jamnagar - 361002, Dist.Jamnagar, Gujarat",8045732864,
Plain Little's XXL Premium Comfy Baby Pants,https://www.indiamart.com/proddetail/little-s-xxl-premium-comfy-baby-pants-2853455832933.html?pos=151&kwd=disposable baby diapers&tags=BA||||8752.144|Price|product|||MDC|rsf:gd-|-stype:attr=1|qr_nm:gd|res:RC4|com-cf:nl|ptrs:na|ktp:N0|mc:26674|mtp:S|qry_typ:P|lang:en|wc:3|cs:8842|v=4,Balaji Solutions,https://www.indiamart.com/balaji-solutionsdelhi/?pos=151&kwd=disposable baby diapers&tags=BA||||8752.144|Price|product|||MDC|rsf:gd-|-stype:attr=1|qr_nm:gd|res:RC4|com-cf:nl|ptrs:na|ktp:N0|mc:26674|mtp:S|qry_typ:P|lang:en|wc:3|cs:8842|v=4,False,Mohan Garden,New Delhi,"Plot P-153 SF Back Side Kh No-25/12, Mohan Garden Near, West Delhi, Mohan Garden, New Delhi - 110059, Dist.Delhi, Delhi",8047654514,
Disposable Baby Diapers,,Royal Baby,https://www.indiamart.com/royal-baby-thane/?pos=152&kwd=disposable baby diapers&tags=A||||8223.226|Price|product|||MDC|rsf:gd-|-stype:attr=1|qr_nm:gd|res:RC4|com-cf:nl|ptrs:na|ktp:N0|mc:26674|mtp:S|qry_typ:P|lang:en|wc:3|cs:8842|v=4,False,,Thane,"Ground Floor, Shop No. 03, Savitri Niwas Mumbai Pune Road, Amrutnagar, Sub Post Office, Mumbra, Thane - 400612, Dist.Thane, Maharashtra",8045734604,
"Cotton Disposable Baby Diapers, Small",https://www.indiamart.com/proddetail/disposable-baby-diapers-2851236578148.html?pos=153&kwd=disposable baby diapers&tags=BA||||8228.275|Price|product|||TS|rsf:gd-|-stype:attr=1|qr_nm:gd|res:RC4|com-cf:nl|ptrs:na|ktp:N0|mc:26674|mtp:S|qry_typ:P|lang:en|wc:3|cs:8842|v=4,Aspire Healthcare,https://www.indiamart.com/aspire-healthcare/?pos=153&kwd=disposable baby diapers&tags=BA||||8228.275|Price|product|||TS|rsf:gd-|-stype:attr=1|qr_nm:gd|res:RC4|com-cf:nl|ptrs:na|ktp:N0|mc:26674|mtp:S|qry_typ:P|lang:en|wc:3|cs:8842|v=4,False,Gota,Ahmedabad,"Shop no -19 ,Serenity Space,S G Highway, New Gota, Gota, Ahmedabad - 382481, Dist.Ahmedabad, Gujarat",8046039668,
Baby Diapers,https://www.indiamart.com/proddetail/baby-diapers-2854455655591.html?pos=154&kwd=disposable baby diapers&tags=BA||||8752.144|Price|product|||TS|rsf:gd-|-stype:attr=1|qr_nm:gd|res:RC4|com-cf:nl|ptrs:na|ktp:N0|mc:26674|mtp:S|qry_typ:P|lang:en|wc:3|cs:8842|v=4,Maitri Health And Hygiene,https://www.indiamart.com/maitri-healthandhygiene/?pos=154&kwd=disposable baby diapers&tags=BA||||8752.144|Price|product|||TS|rsf:gd-|-stype:attr=1|qr_nm:gd|res:RC4|com-cf:nl|ptrs:na|ktp:N0|mc:26674|mtp:S|qry_typ:P|lang:en|wc:3|cs:8842|v=4,False,Shalimar Bagh,New Delhi,"Flat No. 10-D/E, Block And Pocket-Cc, Shalimar Bagh, Shalimar Bagh, New Delhi - 110088, Dist.Delhi, Delhi",8047658643,
Disposable Baby Diapers,,S L K Enterprises,https://www.indiamart.com/slkenterprises/?pos=155&kwd=disposable baby diapers&tags=BA||||8223.226|Price|product|||MDC|rsf:gd-|-stype:attr=1|qr_nm:gd|res:RC4|com-cf:nl|ptrs:na|ktp:N0|mc:26674|mtp:S|qry_typ:P|lang:en|wc:3|cs:8842|v=4,False,Opp. Raza Masjid Amrut Nagar Mumbra,Thane,"Ground Floor, Flat No.001, Zoha Apartment, Sharifa Road,, Opp. Raza Masjid Amrut Nagar Mumbra, Thane - 400612, Dist.Thane, Maharashtra",7949082283,
Nonwoven Baby Diaper Jumbo Pack,https://www.indiamart.com/proddetail/baby-diaper-jumbo-pack-2853265712212.html?pos=156&kwd=disposable baby diapers&tags=BA||||8307.81|Price|product|||TS|rsf:gd-|-stype:attr=1|qr_nm:gd|res:RC4|com-cf:nl|ptrs:na|ktp:N0|mc:26674|mtp:S|qry_typ:P|lang:en|wc:3|cs:8842|v=4,SMILEPAD HYGIENE INDIA PVT. LTD.,https://www.indiamart.com/smilepadhygiene/?pos=156&kwd=disposable baby diapers&tags=BA||||8307.81|Price|product|||TS|rsf:gd-|-stype:attr=1|qr_nm:gd|res:RC4|com-cf:nl|ptrs:na|ktp:N0|mc:26674|mtp:S|qry_typ:P|lang:en|wc:3|cs:8842|v=4,False,Mohammed Wadi,Pune,"SR.NO.284/01 Bhadale Nagar Uruli Devachi, Mohammed Wadi, Pune - 411060, Dist.Pune, Maharashtra",8048601512,
Teddyy Baby Diapers,https://www.indiamart.com/proddetail/teddyy-baby-diapers-2850611151933.html?pos=157&kwd=disposable baby diapers&tags=BA||||8954.051||product|||TS|rsf:gd-|-stype:attr=1|qr_nm:gd|res:RC4|com-cf:nl|ptrs:na|ktp:N0|mc:26674|mtp:S|qry_typ:P|lang:en|wc:3|cs:8842|v=4,Auro Mira Medi Aids,https://www.indiamart.com/auromiramediaids/?pos=157&kwd=disposable baby diapers&tags=BA||||8954.051||product|||TS|rsf:gd-|-stype:attr=1|qr_nm:gd|res:RC4|com-cf:nl|ptrs:na|ktp:N0|mc:26674|mtp:S|qry_typ:P|lang:en|wc:3|cs:8842|v=4,False,Adyar,Chennai,"New No. 36, Old No. 32, Shriram Nagar Main Road, Adyar, Chennai - 600113, Dist.Chennai, Tamil Nadu",8048988682,
"Unisex Disposable Newborn Baby Diapers - 10ps Packet, Age Group: Newly Born, Packaging Size: 10 Pieces",https://www.indiamart.com/proddetail/newborn-baby-diapers-10ps-packet-24139585891.html?pos=158&kwd=disposable baby diapers&tags=BB||||8478.165|Price|product|||TS|rsf:gd-|-stype:attr=1|qr_nm:gd|res:RC4|com-cf:nl|ptrs:na|ktp:N0|mc:26674|mtp:S|qry_typ:P|lang:en|wc:3|cs:8842|v=4,P & Q Hygiene Products,https://www.indiamart.com/pqhygieneproducts/?pos=158&kwd=disposable baby diapers&tags=BB||||8478.165|Price|product|||TS|rsf:gd-|-stype:attr=1|qr_nm:gd|res:RC4|com-cf:nl|ptrs:na|ktp:N0|mc:26674|mtp:S|qry_typ:P|lang:en|wc:3|cs:8842|v=4,False,,Thazhecode,"TP11/260 A, B, C, Olakkal Building, Thondimmal, Thiruvambadi, Thazhecode - 673603, Dist.Kozhikode, Kerala",7942532245,
"Advanced Dipers Pant Type Babyhug Diapers, Size: Small, Packaging Size: 3 Pc",https://www.indiamart.com/proddetail/babyhug-diapers-2849645511891.html?pos=159&kwd=disposable baby diapers&tags=BA||||8740.707|Price|product|||TS|rsf:gd-|-stype:attr=1|qr_nm:gd|res:RC4|com-cf:nl|ptrs:na|ktp:N0|mc:26674|mtp:S|qry_typ:P|lang:en|wc:3|cs:8842|v=4,Arihant Solutions,https://www.indiamart.com/arihantsolutions/?pos=159&kwd=disposable baby diapers&tags=BA||||8740.707|Price|product|||TS|rsf:gd-|-stype:attr=1|qr_nm:gd|res:RC4|com-cf:nl|ptrs:na|ktp:N0|mc:26674|mtp:S|qry_typ:P|lang:en|wc:3|cs:8842|v=4,False,JLPL Industrial Area,Sas Nagar,"First Floor Plot No. 1250 JLPL, Sector 82, JLPL Industrial Area, Sas Nagar - 160055, Dist.Mohali, Punjab",8047645834,
"Pant Type Hugfit Small Baby Diapers Pants 10 Pcs, Packaging Size: 2pc/pack",https://www.indiamart.com/proddetail/hugfit-small-baby-diapers-pants-10-pcs-22174919248.html?pos=160&kwd=disposable baby diapers&tags=BB||||8211.142||product|||TS|rsf:gd-|-stype:attr=1|qr_nm:gd|res:RC4|com-cf:nl|ptrs:na|ktp:N0|mc:26674|mtp:S|qry_typ:P|lang:en|wc:3|cs:8842|v=4,Royal Herbs,https://www.indiamart.com/royal-herbs/?pos=160&kwd=disposable baby diapers&tags=BB||||8211.142||product|||TS|rsf:gd-|-stype:attr=1|qr_nm:gd|res:RC4|com-cf:nl|ptrs:na|ktp:N0|mc:26674|mtp:S|qry_typ:P|lang:en|wc:3|cs:8842|v=4,False,Malad East,Mumbai,"Kurar Village Road, Ambewadi, Shantaram Talav, Malad East, Malad East, Mumbai - 400097, Dist.Mumbai, Maharashtra",7942541679,
PP Non Woven Uni-Pro Adult Diapers,https://www.indiamart.com/proddetail/uni-pro-adult-diapers-7901074673.html?pos=161&kwd=disposable baby diapers&tags=BB||||8954.051|Price|product|||TS|rsf:gd-|-stype:attr=1|qr_nm:gd|res:RC4|com-cf:nl|ptrs:na|ktp:N0|mc:26674|mtp:S|qry_typ:P|lang:en|wc:3|cs:8842|v=4,Universe Surgical Equipment Co.,https://www.medicallabequipments.com/?pos=161&kwd=disposable baby diapers&tags=BB||||8954.051|Price|product|||TS|rsf:gd-|-stype:attr=1|qr_nm:gd|res:RC4|com-cf:nl|ptrs:na|ktp:N0|mc:26674|mtp:S|qry_typ:P|lang:en|wc:3|cs:8842|v=4,False,Park Town,Chennai,"21,,NYNIAPPAN STREET,PARK TOWNCHENNAI, Park Town, Chennai - 600003, Dist.Chennai, Tamil Nadu",8048989078,
"Nonwoven MCP Baby Diapers, S, M, L, XL, XXL",https://www.indiamart.com/proddetail/mcp-baby-diapers-s-m-l-xl-xxl-2852571457988.html?pos=162&kwd=disposable baby diapers&tags=BA||||8752.144|Price|product|||TS|rsf:gd-|-stype:attr=1|qr_nm:gd|res:RC4|com-cf:nl|ptrs:na|ktp:N0|mc:26674|mtp:S|qry_typ:P|lang:en|wc:3|cs:8842|v=4,Jindal Medical & Scientific Instruments Company (pvt.) Ltd.,https://www.indiamart.com/jindalmedical/?pos=162&kwd=disposable baby diapers&tags=BA||||8752.144|Price|product|||TS|rsf:gd-|-stype:attr=1|qr_nm:gd|res:RC4|com-cf:nl|ptrs:na|ktp:N0|mc:26674|mtp:S|qry_typ:P|lang:en|wc:3|cs:8842|v=4,False,Mansarover Garden,New Delhi,"No. C 53-A, Mansarovar Garden, Mansarover Garden, New Delhi - 110015, Dist.Delhi, Delhi",8048978967,
Nonwoven Disposable Baby Diapers,https://www.indiamart.com/proddetail/disposable-baby-diapers-26759918691.html?pos=163&kwd=disposable baby diapers&tags=BB||||8767.829|Price|product|||MDC|rsf:gd-|-stype:attr=1|qr_nm:gd|res:RC4|com-cf:nl|ptrs:na|ktp:N0|mc:26674|mtp:S|qry_typ:P|lang:en|wc:3|cs:8842|v=4,Hema Engineering Solution,https://www.indiamart.com/hemaengineeringsolution/?pos=163&kwd=disposable baby diapers&tags=BB||||8767.829|Price|product|||MDC|rsf:gd-|-stype:attr=1|qr_nm:gd|res:RC4|com-cf:nl|ptrs:na|ktp:N0|mc:26674|mtp:S|qry_typ:P|lang:en|wc:3|cs:8842|v=4,False,Piyush City,Palwal,"644, First Floor, 1, Happy Homes, Omaxe City, Palwal, Piyush City, Palwal - 121102, Dist.Palwal, Haryana",8043853768,
"White Disposable Cotton Baby Diapers Pants, Size: Medium",https://www.indiamart.com/proddetail/disposable-cotton-baby-diapers-pants-2854082661230.html?pos=164&kwd=disposable baby diapers&tags=BA||||9180.034|Price|product|||MDC|rsf:gd-|-stype:attr=1|qr_nm:gd|res:RC4|com-cf:nl|ptrs:na|ktp:N0|mc:26674|mtp:S|qry_typ:P|lang:en|wc:3|cs:8842|v=4,U & G Healthcare,https://www.indiamart.com/ug-healthcare/?pos=164&kwd=disposable baby diapers&tags=BA||||9180.034|Price|product|||MDC|rsf:gd-|-stype:attr=1|qr_nm:gd|res:RC4|com-cf:nl|ptrs:na|ktp:N0|mc:26674|mtp:S|qry_typ:P|lang:en|wc:3|cs:8842|v=4,False,South,Bahraich,"Kanoongapura South Infront Of Mahila Hospita Gate, South, Bahraich - 271801, Dist.Bahraich, Uttar Pradesh",8044561766,
"Medium Pampers Disposable Baby Diapers, Age Group: 1to2 Years",https://www.indiamart.com/proddetail/medium-pampers-disposable-baby-diapers-2853739690297.html?pos=165&kwd=disposable baby diapers&tags=BA||||8230.883|Price|product|||MDC|rsf:gd-|-stype:attr=1|qr_nm:gd|res:RC4|com-cf:nl|ptrs:na|ktp:N0|mc:26674|mtp:S|qry_typ:P|lang:en|wc:3|cs:8842|v=4,KP Sales & Exports,https://www.indiamart.com/kp-sales-exports/?pos=165&kwd=disposable baby diapers&tags=BA||||8230.883|Price|product|||MDC|rsf:gd-|-stype:attr=1|qr_nm:gd|res:RC4|com-cf:nl|ptrs:na|ktp:N0|mc:26674|mtp:S|qry_typ:P|lang:en|wc:3|cs:8842|v=4,False,Mirambika Society,Surat,"3rd Floor,T-6,Shubh Plaza,Puna Gam Main Road,Puna Gam,Surat,Surat, Mirambika Society, Surat - 395010, Dist.Surat, Gujarat",8044013408,
Nonwoven Third Party Manufacturers Baby Diapers,https://www.indiamart.com/proddetail/third-party-manufacturers-baby-diapers-2851545192012.html?pos=166&kwd=disposable baby diapers&tags=BA||||8307.81|Price|product|||MDC|rsf:gd-|-stype:attr=1|qr_nm:gd|res:RC4|com-cf:nl|ptrs:na|ktp:N0|mc:26674|mtp:S|qry_typ:P|lang:en|wc:3|cs:8842|v=4,A Brothers Enterprise,https://www.indiamart.com/a-brothers-enterprise/?pos=166&kwd=disposable baby diapers&tags=BA||||8307.81|Price|product|||MDC|rsf:gd-|-stype:attr=1|qr_nm:gd|res:RC4|com-cf:nl|ptrs:na|ktp:N0|mc:26674|mtp:S|qry_typ:P|lang:en|wc:3|cs:8842|v=4,False,Congress House Road,Pune,"House No.2, Ground Floor, Patil Estate, Pune Mumbai Road, Congress House Road, Pune - 411005, Dist.Pune, Maharashtra",8047307059,
Plain Pull Up Adult Diaper,https://www.indiamart.com/proddetail/pull-up-adult-diaper-2851235822088.html?pos=167&kwd=disposable baby diapers&tags=BA||||8038.093|Price|product|||MDC|rsf:gd-|-stype:attr=1|qr_nm:gd|res:RC4|com-cf:nl|ptrs:na|ktp:N0|mc:26674|mtp:S|qry_typ:P|lang:en|wc:3|cs:8842|v=4,Happy+ Healthcare Products,https://www.indiamart.com/happyhealthcareproducts/?pos=167&kwd=disposable baby diapers&tags=BA||||8038.093|Price|product|||MDC|rsf:gd-|-stype:attr=1|qr_nm:gd|res:RC4|com-cf:nl|ptrs:na|ktp:N0|mc:26674|mtp:S|qry_typ:P|lang:en|wc:3|cs:8842|v=4,False,Sri Ram Krupa,Rajkot,"RADHAPARK STREET NO.1,NEAR TRISHUL DAIRY,OPP.DIAMOND PARTY PLOT. RADHAPARK MAIN ROAD, Sri Ram Krupa, Rajkot - 360002, Dist.Rajkot, Gujarat",8048618001,
"Plain Baby Diaper Pants, Size: Medium",https://www.indiamart.com/proddetail/baby-diaper-pants-2851612701488.html?pos=168&kwd=disposable baby diapers&tags=A||||8559.269|Price|proxy|||TS|rsf:gd-|-stype:attr=1|qr_nm:gd|res:RC4|com-cf:nl|ptrs:na|ktp:N0|mc:26674|mtp:S|qry_typ:P|lang:en|wc:3|cs:8842|v=4,Soch Care,https://www.sochcare.co.in/?pos=168&kwd=disposable baby diapers&tags=A||||8559.269|Price|proxy|||TS|rsf:gd-|-stype:attr=1|qr_nm:gd|res:RC4|com-cf:nl|ptrs:na|ktp:N0|mc:26674|mtp:S|qry_typ:P|lang:en|wc:3|cs:8842|v=4,False,Mayur Nagar,Indore,"401 Block - O Shalimar Palms, Mayur Nagar, Indore - 452001, Dist.Indore, Madhya Pradesh",8048611870,
"Printed M size KidsLife Pant Style Baby Diapers, Medium",https://www.indiamart.com/proddetail/m-size-kidslife-pant-style-baby-diapers-2854441122297.html?pos=169&kwd=disposable baby diapers&tags=A||||8211.142|Price|proxy|||TS|rsf:gd-|-stype:attr=1|qr_nm:gd|res:RC4|com-cf:nl|ptrs:na|ktp:N0|mc:26674|mtp:S|qry_typ:P|lang:en|wc:3|cs:8842|v=4,Stayzy Hygiene Private Limited,https://www.indiamart.com/synergy-fly/?pos=169&kwd=disposable baby diapers&tags=A||||8211.142|Price|proxy|||TS|rsf:gd-|-stype:attr=1|qr_nm:gd|res:RC4|com-cf:nl|ptrs:na|ktp:N0|mc:26674|mtp:S|qry_typ:P|lang:en|wc:3|cs:8842|v=4,False,Borivali West,Mumbai,"Bluechip Industrial Estate No 4 Sativali Road, Near Nexa Showroom, Waliv Naka, Borivali West, Mumbai - 401101, Dist.Mumbai, Maharashtra",8048604117,
Cotton Baby Diaper,https://www.indiamart.com/proddetail/baby-diaper-2852736720162.html?pos=170&kwd=disposable baby diapers&tags=A||||8752.144|Price|product|||NA|rsf:gd-|-stype:attr=1|qr_nm:gd|res:RC4|com-cf:nl|ptrs:na|ktp:N0|mc:26674|mtp:S|qry_typ:P|lang:en|wc:3|cs:8842|v=4,E Green Healthcare Private Limited,https://www.indiamart.com/egreen-healthcare/?pos=170&kwd=disposable baby diapers&tags=A||||8752.144|Price|product|||NA|rsf:gd-|-stype:attr=1|qr_nm:gd|res:RC4|com-cf:nl|ptrs:na|ktp:N0|mc:26674|mtp:S|qry_typ:P|lang:en|wc:3|cs:8842|v=4,False,Chuna Mandi,New Delhi,"2251/19 F/F, Wazir Singh Street, Chuna Mandi, Central, Chuna Mandi, New Delhi - 110055, Dist.Delhi, Delhi",7942817362,
Pull Ups Extra Care Adult Disposable Diaper Pant,https://www.indiamart.com/proddetail/extra-care-adult-disposable-diaper-pant-2852557960012.html?pos=171&kwd=disposable baby diapers&tags=A||||8559.269|Price|product|||NA|rsf:gd-|-stype:attr=1|qr_nm:gd|res:RC4|com-cf:nl|ptrs:na|ktp:N0|mc:26674|mtp:S|qry_typ:P|lang:en|wc:3|cs:8842|v=4,Shivam Health And Hygiene,https://www.indiamart.com/shivamhealth-hygiene/?pos=171&kwd=disposable baby diapers&tags=A||||8559.269|Price|product|||NA|rsf:gd-|-stype:attr=1|qr_nm:gd|res:RC4|com-cf:nl|ptrs:na|ktp:N0|mc:26674|mtp:S|qry_typ:P|lang:en|wc:3|cs:8842|v=4,False,Old Agarwal Nagar,Indore,"112, B. M. Tower, Sapna Sangeeta Road, Old Agarwal Nagar, Indore - 452001, Dist.Indore, Madhya Pradesh",7942707717,
"Disposable Baby Diapers, Age Group: 3to12 Months, Size: Medium",https://www.indiamart.com/proddetail/disposable-adult-diapers-2854741499173.html?pos=172&kwd=disposable baby diapers&tags=A||||8823.154|Price|product|||NA|rsf:gd-|-stype:attr=1|qr_nm:gd|res:RC4|com-cf:nl|ptrs:na|ktp:N0|mc:26674|mtp:S|qry_typ:P|lang:en|wc:3|cs:8842|v=4,Anshika Enterprises,https://www.indiamart.com/anshika-enterprisesagra/?pos=172&kwd=disposable baby diapers&tags=A||||8823.154|Price|product|||NA|rsf:gd-|-stype:attr=1|qr_nm:gd|res:RC4|com-cf:nl|ptrs:na|ktp:N0|mc:26674|mtp:S|qry_typ:P|lang:en|wc:3|cs:8842|v=4,False,,Agra,"Khasra No. 28, Fatehpur Sikri Road, Agra Jaipur Highway, Sahara, Agra - 283105, Dist.Agra, Uttar Pradesh",7949341145,
"Disposable Baby Diapers, Age Group: 1-2 Years",https://www.indiamart.com/proddetail/disposable-baby-diapers-2851530918991.html?pos=173&kwd=disposable baby diapers&tags=A||||8559.269|Price|product|||NA|rsf:gd-|-stype:attr=1|qr_nm:gd|res:RC4|com-cf:nl|ptrs:na|ktp:N0|mc:26674|mtp:S|qry_typ:P|lang:en|wc:3|cs:8842|v=4,Baby Zone,https://www.indiamart.com/baby-zone-indore/?pos=173&kwd=disposable baby diapers&tags=A||||8559.269|Price|product|||NA|rsf:gd-|-stype:attr=1|qr_nm:gd|res:RC4|com-cf:nl|ptrs:na|ktp:N0|mc:26674|mtp:S|qry_typ:P|lang:en|wc:3|cs:8842|v=4,False,Bombay Bazaar,Indore,"355-A,,CHANDAN NAGAR,Indore, Bombay Bazaar, Indore - 452002, Dist.Indore, Madhya Pradesh",8043839127,
"Disposable Baby Diapers Pants, Age Group: Newly Born, Size: Small",https://www.indiamart.com/proddetail/disposable-baby-diapers-pants-2850317615830.html?pos=174&kwd=disposable baby diapers&tags=A||||8752.144|Price|product|||NA|rsf:gd-|-stype:attr=1|qr_nm:gd|res:RC4|com-cf:nl|ptrs:na|ktp:N0|mc:26674|mtp:S|qry_typ:P|lang:en|wc:3|cs:8842|v=4,C R Trading Company,https://www.indiamart.com/crtradingcompany/?pos=174&kwd=disposable baby diapers&tags=A||||8752.144|Price|product|||NA|rsf:gd-|-stype:attr=1|qr_nm:gd|res:RC4|com-cf:nl|ptrs:na|ktp:N0|mc:26674|mtp:S|qry_typ:P|lang:en|wc:3|cs:8842|v=4,False,Mandoli,New Delhi,"Ground Floor, B - 528, Main 30 Futa Road, Rajiv Nagar, Near R.b. Convent School,, Mandoli, New Delhi - 110093, Dist.Delhi, Delhi",7942718563,
Cotton Newborn Baby Diapers,https://www.indiamart.com/proddetail/newborn-baby-diapers-2852624683197.html?pos=175&kwd=disposable baby diapers&tags=BA||||8876.815|Price|proxy|||TS|rsf:gd-|-stype:attr=1|qr_nm:gd|res:RC4|com-cf:nl|ptrs:na|ktp:N0|mc:26674|mtp:S|qry_typ:P|lang:en|wc:3|cs:8842|v=4,Smart Hygeia,https://www.indiamart.com/smarthygeia-nagpur/?pos=175&kwd=disposable baby diapers&tags=BA||||8876.815|Price|proxy|||TS|rsf:gd-|-stype:attr=1|qr_nm:gd|res:RC4|com-cf:nl|ptrs:na|ktp:N0|mc:26674|mtp:S|qry_typ:P|lang:en|wc:3|cs:8842|v=4,False,Rahate Colony,Nagpur,"Block No 702, Naniks Ashtavinayak Park Avenue Nagpur Chhavni, Sadar Nagar, Rahate Colony, Nagpur - 440001, Dist.Nagpur, Maharashtra",7942566182,
Medizone Surgical,,Medizone Surgical,https://www.indiamart.com/medizone-surgical/?pos=176&kwd=disposable baby diapers&tags=BA||||8752.144||bl|||MDC|rsf:gd-|-stype:attr=1|qr_nm:gd|res:RC4|com-cf:nl|ptrs:na|ktp:N0|mc:26674|mtp:S|qry_typ:P|lang:en|wc:3|cs:8842|v=4,False,Uttam Nagar,New Delhi,"A-88, Vidya Vihar, Hastsal Industrial Area Uttam Nagar, Uttam Nagar, New Delhi - 110059, Dist.Delhi, Delhi",8048955337,
Small Disposable Adults Diapers,https://www.indiamart.com/proddetail/small-disposable-adults-diapers-2852945220730.html?pos=177&kwd=disposable baby diapers&tags=BA||||8778.123|Price|proxy|||MDC|rsf:gd-|-stype:attr=1|qr_nm:gd|res:RC4|com-cf:nl|ptrs:na|ktp:N0|mc:26674|mtp:S|qry_typ:P|lang:en|wc:3|cs:8842|v=4,Globiz Care Private Limited,https://www.indiamart.com/globiz-care/?pos=177&kwd=disposable baby diapers&tags=BA||||8778.123|Price|proxy|||MDC|rsf:gd-|-stype:attr=1|qr_nm:gd|res:RC4|com-cf:nl|ptrs:na|ktp:N0|mc:26674|mtp:S|qry_typ:P|lang:en|wc:3|cs:8842|v=4,False,Gautambuddha Nagar,Noida,"4th Floor, D-1, 310, J S Arcade Captain Vijayant Thapar Marg, Noida Sector 18 Metro Station, Sector 18, Gautambuddha Nagar, Noida - 201301, Dist.Gautam Budh Nagar, Uttar Pradesh",7942722798,
Disposable Baby Diapers,https://www.indiamart.com/proddetail/disposable-baby-diapers-2850417870030.html?pos=178&kwd=disposable baby diapers&tags=BB||||8752.144|Price|product|||NA|rsf:gd-|-stype:attr=1|qr_nm:gd|res:RC4|com-cf:nl|ptrs:na|ktp:N0|mc:26674|mtp:S|qry_typ:P|lang:en|wc:3|cs:8842|v=4,Manmeet Sanitary Mart,https://www.indiamart.com/manmeet-sanitary-mart/?pos=178&kwd=disposable baby diapers&tags=BB||||8752.144|Price|product|||NA|rsf:gd-|-stype:attr=1|qr_nm:gd|res:RC4|com-cf:nl|ptrs:na|ktp:N0|mc:26674|mtp:S|qry_typ:P|lang:en|wc:3|cs:8842|v=4,False,,Delhi,", Delhi, Dist.Delhi, Delhi",8047309003,3019
Disposable Baby Diapers,https://www.indiamart.com/proddetail/disposable-baby-diapers-2853178267962.html?pos=179&kwd=disposable baby diapers&tags=BA||||8752.144|Price|product|||NA|rsf:gd-|-stype:attr=1|qr_nm:gd|res:RC4|com-cf:nl|ptrs:na|ktp:N0|mc:26674|mtp:S|qry_typ:P|lang:en|wc:3|cs:8842|v=4,Hargobind INC,https://www.indiamart.com/hargobind-inc/?pos=179&kwd=disposable baby diapers&tags=BA||||8752.144|Price|product|||NA|rsf:gd-|-stype:attr=1|qr_nm:gd|res:RC4|com-cf:nl|ptrs:na|ktp:N0|mc:26674|mtp:S|qry_typ:P|lang:en|wc:3|cs:8842|v=4,False,SHAM NAGAR,New Delhi,"B/side A-19 UG FLOOR, sham nagar, SHAM NAGAR, New Delhi - 110018, Dist.Delhi, Delhi",8069264838,450
"Disposable Baby Diapers, Size: Medium",,OMG Trader'S,https://www.indiamart.com/omg-traders-ghaziabad/?pos=180&kwd=disposable baby diapers&tags=BB||||8785.791|Price|product|||NA|rsf:gd-|-stype:attr=1|qr_nm:gd|res:RC4|com-cf:nl|ptrs:na|ktp:N0|mc:26674|mtp:S|qry_typ:P|lang:en|wc:3|cs:8842|v=4,False,,Ghaziabad,"310,Sector 3 near onyx plaza vasundhara Husain, Ghaziabad - 201012, Dist.Ghaziabad, Uttar Pradesh",8069857323,602
"Disposable Baby Diapers, Size: Medium",https://www.indiamart.com/proddetail/disposable-baby-diapers-2854487429791.html?pos=181&kwd=disposable baby diapers&tags=BA||||8254.475|Price|product|||NA|rsf:gd-|-stype:attr=1|qr_nm:gd|res:RC4|com-cf:nl|ptrs:na|ktp:N0|mc:26674|mtp:S|qry_typ:P|lang:en|wc:3|cs:8842|v=4,Rumi Colletion,https://www.indiamart.com/rumi-colletion/?pos=181&kwd=disposable baby diapers&tags=BA||||8254.475|Price|product|||NA|rsf:gd-|-stype:attr=1|qr_nm:gd|res:RC4|com-cf:nl|ptrs:na|ktp:N0|mc:26674|mtp:S|qry_typ:P|lang:en|wc:3|cs:8842|v=4,False,,Bharuch,", Bharuch - 392001, Dist.Bharuch, Gujarat",8048370729,6548
Cotton Large Disposable Baby Diapers,https://www.indiamart.com/proddetail/large-disposable-baby-diapers-2852167368712.html?pos=182&kwd=disposable baby diapers&tags=BA||||8752.144|Price|product|||NA|rsf:gd-|-stype:attr=1|qr_nm:gd|res:RC4|com-cf:nl|ptrs:na|ktp:N0|mc:26674|mtp:S|qry_typ:P|lang:en|wc:3|cs:8842|v=4,Partham Enterprises,https://www.indiamart.com/partham-enterprises-delhi/?pos=182&kwd=disposable baby diapers&tags=BA||||8752.144|Price|product|||NA|rsf:gd-|-stype:attr=1|qr_nm:gd|res:RC4|com-cf:nl|ptrs:na|ktp:N0|mc:26674|mtp:S|qry_typ:P|lang:en|wc:3|cs:8842|v=4,False,,New Delhi,"C-20/4, Amar Vihar, Gali No-4, Karawal Nagar North East Delhi, New Delhi - 110094, Dist.Delhi, Delhi",7942710470,
"Disposable Baby Diapers, Age Group: 3-12 Months, Size: Medium",https://www.indiamart.com/proddetail/disposable-baby-diapers-2853141540873.html?pos=183&kwd=disposable baby diapers&tags=BA||||8612.732|Price|product|||NA|rsf:gd-|-stype:attr=1|qr_nm:gd|res:RC4|com-cf:nl|ptrs:na|ktp:N0|mc:26674|mtp:S|qry_typ:P|lang:en|wc:3|cs:8842|v=4,Paish Investors,https://www.indiamart.com/paish-investors/?pos=183&kwd=disposable baby diapers&tags=BA||||8612.732|Price|product|||NA|rsf:gd-|-stype:attr=1|qr_nm:gd|res:RC4|com-cf:nl|ptrs:na|ktp:N0|mc:26674|mtp:S|qry_typ:P|lang:en|wc:3|cs:8842|v=4,False,,Srinagar,"C/O Mohd Akbar Mian,Mian Mohalla Pattan,Pattan,Baramulla C/O Mohd Akbar Mian,Mian Mohalla Pattan,Pattan,Baramulla,Jammu And Kashmir, Srinagar - 193121, Dist.Srinagar, Jammu & Kashmir",8045849053,8178
"Disposable Baby Diapers, Size: Small, Age Group: 3 Month",https://www.indiamart.com/proddetail/disposable-baby-diapers-2849889388497.html?pos=184&kwd=disposable baby diapers&tags=BA||||9528.781|Price|product|||NA|rsf:gd-|-stype:attr=1|qr_nm:gd|res:RC4|com-cf:nl|ptrs:na|ktp:N0|mc:26674|mtp:S|qry_typ:P|lang:en|wc:3|cs:8842|v=4,A R Traders,https://www.indiamart.com/artradersranchi/?pos=184&kwd=disposable baby diapers&tags=BA||||9528.781|Price|product|||NA|rsf:gd-|-stype:attr=1|qr_nm:gd|res:RC4|com-cf:nl|ptrs:na|ktp:N0|mc:26674|mtp:S|qry_typ:P|lang:en|wc:3|cs:8842|v=4,False,Main Road,Ranchi,"1350/B, Banai Raja Lane, Tiwary Tank Road, Main Road, Ranchi - 834001, Dist.Ranchi, Jharkhand",7942656528,
"Disposable Baby Diapers, Age Group: 3to12 Months, Size: Medium",https://www.indiamart.com/proddetail/disposable-baby-diapers-2854622082888.html?pos=185&kwd=disposable baby diapers&tags=B||||8503.868||product|||NA|rsf:gd-|-stype:attr=1|qr_nm:gd|res:RC4|com-cf:nl|ptrs:na|ktp:N0|mc:26674|mtp:S|qry_typ:P|lang:en|wc:3|cs:8842|v=4,Beeta Traders & Agencies,https://www.indiamart.com/beeta-traders-and-agencies-pvt-ltd/?pos=185&kwd=disposable baby diapers&tags=B||||8503.868||product|||NA|rsf:gd-|-stype:attr=1|qr_nm:gd|res:RC4|com-cf:nl|ptrs:na|ktp:N0|mc:26674|mtp:S|qry_typ:P|lang:en|wc:3|cs:8842|v=4,False,,Kochi,"Elavungal House, Palarivattom, Kochi - 682025, Dist.Ernakulam, Kerala",8047847554,
Baby Disposable Diapers,https://www.indiamart.com/proddetail/baby-disposable-diapers-22637767733.html?pos=186&kwd=disposable baby diapers&tags=BB||||8752.144||product|||NA|rsf:gd-|-stype:attr=1|qr_nm:gd|res:RC4|com-cf:nl|ptrs:na|ktp:N0|mc:26674|mtp:S|qry_typ:P|lang:en|wc:3|cs:8842|v=4,Dhatree Udyog,https://www.indiamart.com/dhatreeudyog/?pos=186&kwd=disposable baby diapers&tags=BB||||8752.144||product|||NA|rsf:gd-|-stype:attr=1|qr_nm:gd|res:RC4|com-cf:nl|ptrs:na|ktp:N0|mc:26674|mtp:S|qry_typ:P|lang:en|wc:3|cs:8842|v=4,False,,New Delhi,"LANDMARK ICE FACTORY,,DSIDC BAWANA, SECTOR-5, DSIDC, Bawana Industrial Area, New Delhi - 110039, Dist.Delhi, Delhi",8046039459,
"Sana Hygiene Nonwoven Disposable Baby Diapers, Medium, Age Group: 1-2 Years",https://www.indiamart.com/proddetail/disposable-baby-diapers-23057781888.html?pos=187&kwd=disposable baby diapers&tags=BA||||9019.235|Price|product|||NA|rsf:gd-|-stype:attr=1|qr_nm:gd|res:RC4|com-cf:nl|ptrs:na|ktp:N0|mc:26674|mtp:S|qry_typ:P|lang:en|wc:3|cs:8842|v=4,Sana Hygiene Products,https://www.indiamart.com/sana-hygiene-products/?pos=187&kwd=disposable baby diapers&tags=BA||||9019.235|Price|product|||NA|rsf:gd-|-stype:attr=1|qr_nm:gd|res:RC4|com-cf:nl|ptrs:na|ktp:N0|mc:26674|mtp:S|qry_typ:P|lang:en|wc:3|cs:8842|v=4,False,Vijaywada,Krishna,"18-357 Andhra Pradesh, Vijaywada, Krishna - 520007, Dist.Krishna, Andhra Pradesh",8069728238,249
"Disposable Baby Diapers, Age Group: 3-12 Months, Size: Small",https://www.indiamart.com/proddetail/disposable-baby-diapers-2851886641355.html?pos=188&kwd=disposable baby diapers&tags=BB||||9645.63|Price|product|||NA|rsf:gd-|-stype:attr=1|qr_nm:gd|res:RC4|com-cf:nl|ptrs:na|ktp:N0|mc:26674|mtp:S|qry_typ:P|lang:en|wc:3|cs:8842|v=4,Ajanta Enterprises,https://www.indiamart.com/ajanta-enterprises-jamshedpur/?pos=188&kwd=disposable baby diapers&tags=BB||||9645.63|Price|product|||NA|rsf:gd-|-stype:attr=1|qr_nm:gd|res:RC4|com-cf:nl|ptrs:na|ktp:N0|mc:26674|mtp:S|qry_typ:P|lang:en|wc:3|cs:8842|v=4,False,,Ghatsila,"Mouza Sandpura Plot No 65 Thana No 109 Po Ghatshila Ps, Ghatsila - 832303, Dist.East Singhbhum, Jharkhand",8069416046,943
"Disposable Baby Diapers, Size: 8cm X 14cm ( H X W ), Age Group: Newly Born",https://www.indiamart.com/proddetail/disposable-baby-diapers-2848991552048.html?pos=189&kwd=disposable baby diapers&tags=BB||||8752.144|Price|product|||NA|rsf:gd-|-stype:attr=1|qr_nm:gd|res:RC4|com-cf:nl|ptrs:na|ktp:N0|mc:26674|mtp:S|qry_typ:P|lang:en|wc:3|cs:8842|v=4,JD Enterprises,https://www.indiamart.com/delhi-jdenterprises/?pos=189&kwd=disposable baby diapers&tags=BB||||8752.144|Price|product|||NA|rsf:gd-|-stype:attr=1|qr_nm:gd|res:RC4|com-cf:nl|ptrs:na|ktp:N0|mc:26674|mtp:S|qry_typ:P|lang:en|wc:3|cs:8842|v=4,False,,New Delhi,"H.No-509/4, Ground Floor, Kh No-41, Gali No-6, Vijay Park, Maujpur , East, New Delhi - 110053, Dist.Delhi, Delhi",8047549131,
"Disposable Baby Diaper Loose, Age Group: 1-2 Years, Size: Large",https://www.indiamart.com/proddetail/disposable-baby-diaper-loose-2852168637888.html?pos=190&kwd=disposable baby diapers&tags=BA||||8601.347|Price|product|||NA|rsf:gd-|-stype:attr=1|qr_nm:gd|res:RC4|com-cf:nl|ptrs:na|ktp:N0|mc:26674|mtp:S|qry_typ:P|lang:en|wc:3|cs:8842|v=4,Indian Medical Hall,https://www.indiamart.com/indianmedicalhall/?pos=190&kwd=disposable baby diapers&tags=BA||||8601.347|Price|product|||NA|rsf:gd-|-stype:attr=1|qr_nm:gd|res:RC4|com-cf:nl|ptrs:na|ktp:N0|mc:26674|mtp:S|qry_typ:P|lang:en|wc:3|cs:8842|v=4,False,Transport Nagar,Jaipur,"608 A , Ground Floor , Sindhi Colony , Near Jain Hospital, Transport Nagar, Jaipur - 302003, Dist.Jaipur, Rajasthan",8043803294,
"Disposable Baby Diapers, Age Group: 1-2 Years, Size: Small",https://www.indiamart.com/proddetail/disposable-baby-diapers-2850707345955.html?pos=191&kwd=disposable baby diapers&tags=BA||||8228.275|Price|product|||NA|rsf:gd-|-stype:attr=1|qr_nm:gd|res:RC4|com-cf:nl|ptrs:na|ktp:N0|mc:26674|mtp:S|qry_typ:P|lang:en|wc:3|cs:8842|v=4,Aerorise International Private Limited,https://www.indiamart.com/aerorise-international-ahmedabad/?pos=191&kwd=disposable baby diapers&tags=BA||||8228.275|Price|product|||NA|rsf:gd-|-stype:attr=1|qr_nm:gd|res:RC4|com-cf:nl|ptrs:na|ktp:N0|mc:26674|mtp:S|qry_typ:P|lang:en|wc:3|cs:8842|v=4,False,,Ahmedabad,"6, B-605, Shakti Etc, New SG Road, Shri Krishna Farm Party Plot, Chandlodiya,, Ahmedabad - 382481, Dist.Ahmedabad, Gujarat",7942675917,
"Disposable Baby Diapers, Age Group: 3-12 Months, Size: Medium",https://www.indiamart.com/proddetail/disposable-baby-diapers-2853111041088.html?pos=192&kwd=disposable baby diapers&tags=BA||||8244.971|Price|product|||NA|rsf:gd-|-stype:attr=1|qr_nm:gd|res:RC4|com-cf:nl|ptrs:na|ktp:N0|mc:26674|mtp:S|qry_typ:P|lang:en|wc:3|cs:8842|v=4,Maa Ambe Bengals Stors,https://www.indiamart.com/maa-ambe-bangle-kirana-store/?pos=192&kwd=disposable baby diapers&tags=BA||||8244.971|Price|product|||NA|rsf:gd-|-stype:attr=1|qr_nm:gd|res:RC4|com-cf:nl|ptrs:na|ktp:N0|mc:26674|mtp:S|qry_typ:P|lang:en|wc:3|cs:8842|v=4,False,Satlasana Kheralu,Kheralu,"00, Near Jivandhara Hospital, Satlsana, Mahesana Satlasana, Kheralu, Satlasana Kheralu, Kheralu - 384330, Dist.Mehsana, Gujarat",7942660105,
"Cotton Disposable Baby Diapers, Age Group: 1 - 3 Years",https://www.indiamart.com/proddetail/disposable-baby-diapers-21278356833.html?pos=193&kwd=disposable baby diapers&tags=BB||||9110.092|Price|product|||NA|rsf:gd-|-stype:attr=1|qr_nm:gd|res:RC4|com-cf:nl|ptrs:na|ktp:N0|mc:26674|mtp:S|qry_typ:P|lang:en|wc:3|cs:8842|v=4,J. N. Associates,https://www.indiamart.com/jnassociates-lucknow/?pos=193&kwd=disposable baby diapers&tags=BB||||9110.092|Price|product|||NA|rsf:gd-|-stype:attr=1|qr_nm:gd|res:RC4|com-cf:nl|ptrs:na|ktp:N0|mc:26674|mtp:S|qry_typ:P|lang:en|wc:3|cs:8842|v=4,False,,Lucknow,"House No. 9/108, Jankipuram, Vistar, Lucknow - 226021, Dist.Lucknow, Uttar Pradesh",8069196700,912
Disposable Baby Diapers,https://www.indiamart.com/proddetail/disposable-baby-diapers-2850373961088.html?pos=194&kwd=disposable baby diapers&tags=BA||||9217.583|Price|product|||NA|rsf:gd-|-stype:attr=1|qr_nm:gd|res:RC4|com-cf:nl|ptrs:na|ktp:N0|mc:26674|mtp:S|qry_typ:P|lang:en|wc:3|cs:8842|v=4,Hari Medical Agency,https://www.indiamart.com/harimedicalagency/?pos=194&kwd=disposable baby diapers&tags=BA||||9217.583|Price|product|||NA|rsf:gd-|-stype:attr=1|qr_nm:gd|res:RC4|com-cf:nl|ptrs:na|ktp:N0|mc:26674|mtp:S|qry_typ:P|lang:en|wc:3|cs:8842|v=4,False,,Sultanpur,"0 Bihind Nagar Kotwali Uttam Singh Complex, Sultanpur - 228001, Uttar Pradesh",7942786786,
"Disposable Baby Diapers, Size: Medium",https://www.indiamart.com/proddetail/disposable-baby-diapers-2854774634830.html?pos=195&kwd=disposable baby diapers&tags=BA||||8786.56|Price|product|||NA|rsf:gd-|-stype:attr=1|qr_nm:gd|res:RC4|com-cf:nl|ptrs:na|ktp:N0|mc:26674|mtp:S|qry_typ:P|lang:en|wc:3|cs:8842|v=4,Sri Kanakadurga Industry,https://www.indiamart.com/srikanakadurgaindustry/?pos=195&kwd=disposable baby diapers&tags=BA||||8786.56|Price|product|||NA|rsf:gd-|-stype:attr=1|qr_nm:gd|res:RC4|com-cf:nl|ptrs:na|ktp:N0|mc:26674|mtp:S|qry_typ:P|lang:en|wc:3|cs:8842|v=4,False,,Hyderabad,"Teachers Prtu Colony, Plot No 87, Balapur Mandal, Meerpet, Rangareddy, Hyderabad - 500097, Dist.Hyderabad, Telangana",7949330619,
"Disposable Baby Diapers, Size: Medium",https://www.indiamart.com/proddetail/disposable-baby-diapers-2854985958888.html?pos=196&kwd=disposable baby diapers&tags=BB||||8752.144|Price|product|||NA|rsf:gd-|-stype:attr=1|qr_nm:gd|res:RC4|com-cf:nl|ptrs:na|ktp:N0|mc:26674|mtp:S|qry_typ:P|lang:en|wc:3|cs:8842|v=4,Rohivi Smart Shop,https://www.indiamart.com/company/157779690/?pos=196&kwd=disposable baby diapers&tags=BB||||8752.144|Price|product|||NA|rsf:gd-|-stype:attr=1|qr_nm:gd|res:RC4|com-cf:nl|ptrs:na|ktp:N0|mc:26674|mtp:S|qry_typ:P|lang:en|wc:3|cs:8842|v=4,False,,Delhi,"uttam nagar nabada ., Delhi - 110059, Dist.Delhi, Delhi",8048247104,4262
Disposable Baby Diapers,https://www.indiamart.com/proddetail/disposable-baby-diapers-2853565651097.html?pos=197&kwd=disposable baby diapers&tags=BA||||7964.7354|Price|product|||NA|rsf:gd-|-stype:attr=1|qr_nm:gd|res:RC4|com-cf:nl|ptrs:na|ktp:N0|mc:26674|mtp:S|qry_typ:P|lang:en|wc:3|cs:8842|v=4,Balaji International,https://www.indiamart.com/balajiinternationalgujarat/?pos=197&kwd=disposable baby diapers&tags=BA||||7964.7354|Price|product|||NA|rsf:gd-|-stype:attr=1|qr_nm:gd|res:RC4|com-cf:nl|ptrs:na|ktp:N0|mc:26674|mtp:S|qry_typ:P|lang:en|wc:3|cs:8842|v=4,False,Bhakti Nagar,Jamnagar,"NR Gitamill, Patel Vadi, Kalavad Main Road, Kalavad, Bhakti Nagar, Jamnagar - 361160, Dist.Jamnagar, Gujarat",7948547512,
Nonwoven Disposable Baby Diapers,https://www.indiamart.com/proddetail/disposable-baby-diapers-2851762318612.html?pos=198&kwd=disposable baby diapers&tags=BB||||9667.5205|Price|product|||NA|rsf:gd-|-stype:attr=1|qr_nm:gd|res:RC4|com-cf:nl|ptrs:na|ktp:N0|mc:26674|mtp:S|qry_typ:P|lang:en|wc:3|cs:8842|v=4,Global Agro Product,https://www.indiamart.com/global-agro-product-saharsa/?pos=198&kwd=disposable baby diapers&tags=BB||||9667.5205|Price|product|||NA|rsf:gd-|-stype:attr=1|qr_nm:gd|res:RC4|com-cf:nl|ptrs:na|ktp:N0|mc:26674|mtp:S|qry_typ:P|lang:en|wc:3|cs:8842|v=4,False,,Saharsa,"Darbhanga Road, Saharsa - 852216, Dist.Saharsa, Bihar",8062245970,596
"Disposable Baby Diapers, Age Group: 3to12 Months, Size: Medium",https://www.indiamart.com/proddetail/disposable-baby-diapers-2854080558173.html?pos=199&kwd=disposable baby diapers&tags=BA||||8752.144|Price|product|||NA|rsf:gd-|-stype:attr=1|qr_nm:gd|res:RC4|com-cf:nl|ptrs:na|ktp:N0|mc:26674|mtp:S|qry_typ:P|lang:en|wc:3|cs:8842|v=4,Bhai Ji Enterprises,https://www.indiamart.com/bhaijienterprises/?pos=199&kwd=disposable baby diapers&tags=BA||||8752.144|Price|product|||NA|rsf:gd-|-stype:attr=1|qr_nm:gd|res:RC4|com-cf:nl|ptrs:na|ktp:N0|mc:26674|mtp:S|qry_typ:P|lang:en|wc:3|cs:8842|v=4,False,Shahdara,New Delhi,"S-52, Shop No.2, Gali No.10 Main Road, Gautampuri, North East, Shahdara, New Delhi - 110053, Dist.Delhi, Delhi",8045167137,
"Baby Disposable Diapers, Age Group: 3to12 Months, Size: Small",https://www.indiamart.com/proddetail/baby-disposable-diapers-2854620591173.html?pos=200&kwd=disposable baby diapers&tags=BB||||8954.051|Price|product|||NA|rsf:gd-|-stype:attr=1|qr_nm:gd|res:RC4|com-cf:nl|ptrs:na|ktp:N0|mc:26674|mtp:S|qry_typ:P|lang:en|wc:3|cs:8842|v=4,Digjital Dreams,https://www.indiamart.com/cine-matrix/?pos=200&kwd=disposable baby diapers&tags=BB||||8954.051|Price|product|||NA|rsf:gd-|-stype:attr=1|qr_nm:gd|res:RC4|com-cf:nl|ptrs:na|ktp:N0|mc:26674|mtp:S|qry_typ:P|lang:en|wc:3|cs:8842|v=4,False,Kodambakkam,Chennai,"2 3/7 / Cs4 Palayakaran Cross Street Vibha Flats Kodambakkam, Kodambakkam, Chennai - 600024, Dist.Chennai, Tamil Nadu",7949345597,
Cotton Disposable Baby Diapers,https://www.indiamart.com/proddetail/disposable-baby-diapers-2851213859255.html?pos=201&kwd=disposable baby diapers&tags=BA||||8038.093|Price|product|||NA|rsf:gd-|-stype:attr=1|qr_nm:gd|res:RC4|com-cf:nl|ptrs:na|ktp:N0|mc:26674|mtp:S|qry_typ:P|lang:en|wc:3|cs:8842|v=4,Aark Enterprise,https://www.indiamart.com/aark-enterprise-rajkot/?pos=201&kwd=disposable baby diapers&tags=BA||||8038.093|Price|product|||NA|rsf:gd-|-stype:attr=1|qr_nm:gd|res:RC4|com-cf:nl|ptrs:na|ktp:N0|mc:26674|mtp:S|qry_typ:P|lang:en|wc:3|cs:8842|v=4,False,,Rajkot,"Shiv, Indian Park Main Road, Opp. Vikram Marble, Raiya Road,, Rajkot - 360007, Dist.Rajkot, Gujarat",8048613096,
"Loose Nonwoven Disposable Baby Diapers, Age Group: 3-12 Months, Packaging Size: 50 Peice",https://www.indiamart.com/proddetail/disposable-baby-diapers-25439183788.html?pos=202&kwd=disposable baby diapers&tags=BB||||8038.093|Price|product|||NA|rsf:gd-|-stype:attr=1|qr_nm:gd|res:RC4|com-cf:nl|ptrs:na|ktp:N0|mc:26674|mtp:S|qry_typ:P|lang:en|wc:3|cs:8842|v=4,JH Healthcare Products,https://www.indiamart.com/jhhealthcareproducts/?pos=202&kwd=disposable baby diapers&tags=BB||||8038.093|Price|product|||NA|rsf:gd-|-stype:attr=1|qr_nm:gd|res:RC4|com-cf:nl|ptrs:na|ktp:N0|mc:26674|mtp:S|qry_typ:P|lang:en|wc:3|cs:8842|v=4,False,,Rajkot,"Nandini Park-A,, 1st Floor, Opp. Rdc Bank,, New Naheru Nagar 80 Ft. Road, Rajkot - 360002, Dist.Rajkot, Gujarat",8047309995,
"Disposable Baby Diapers, Size: Small",,Gurjar Remedies,https://www.indiamart.com/gurjar-remedies/?pos=203&kwd=disposable baby diapers&tags=BB||||8863.977|Price|product|||NA|rsf:gd-|-stype:attr=1|qr_nm:gd|res:RC4|com-cf:nl|ptrs:na|ktp:N0|mc:26674|mtp:S|qry_typ:P|lang:en|wc:3|cs:8842|v=4,False,Sukalpuri,Gajraula,"Sukla Market, Dhanaura Road, Sukalpuri, Gajraula - 244235, Dist.Amroha, Uttar Pradesh",8047627843,
"Disposable Baby Diapers, Size: XL",https://www.indiamart.com/proddetail/disposable-baby-diapers-2850233224862.html?pos=204&kwd=disposable baby diapers&tags=BB||||8752.144||product|||NA|rsf:gd-|-stype:attr=1|qr_nm:gd|res:RC4|com-cf:nl|ptrs:na|ktp:N0|mc:26674|mtp:S|qry_typ:P|lang:en|wc:3|cs:8842|v=4,Cross Hooks Mother-Baby Care Product,https://www.indiamart.com/crosshooks-motherbaby-careproduct/?pos=204&kwd=disposable baby diapers&tags=BB||||8752.144||product|||NA|rsf:gd-|-stype:attr=1|qr_nm:gd|res:RC4|com-cf:nl|ptrs:na|ktp:N0|mc:26674|mtp:S|qry_typ:P|lang:en|wc:3|cs:8842|v=4,False,,New Delhi,"Block - A-2 No 4,5,24,25 Khasra No 83/6 Utsav Vihar Village Karala, New Delhi - 110081, Dist.Delhi, Delhi",7942658885,
"Disposable Baby Diapers, Age Group: 1 Year, Size: Medium",https://www.indiamart.com/proddetail/disposable-baby-diapers-25685056073.html?pos=205&kwd=disposable baby diapers&tags=BA||||8038.093|Price|product|||NA|rsf:gd-|-stype:attr=1|qr_nm:gd|res:RC4|com-cf:nl|ptrs:na|ktp:N0|mc:26674|mtp:S|qry_typ:P|lang:en|wc:3|cs:8842|v=4,Kayra Tradelink,https://www.indiamart.com/kayra-tradelink-rajkot/?pos=205&kwd=disposable baby diapers&tags=BA||||8038.093|Price|product|||NA|rsf:gd-|-stype:attr=1|qr_nm:gd|res:RC4|com-cf:nl|ptrs:na|ktp:N0|mc:26674|mtp:S|qry_typ:P|lang:en|wc:3|cs:8842|v=4,False,,Rajkot,"Matel Park Street No.3, Plot No.-14-15/3, Near Bilesvar Temple, Kothariya Ring Road, Kothariya,, Rajkot - 360022, Dist.Rajkot, Gujarat",7942866325,
"Nonwoven Disposable Baby Diapers, Size: XL, Age Group: 1-2 Years",https://www.indiamart.com/proddetail/disposable-baby-diapers-23764793788.html?pos=206&kwd=disposable baby diapers&tags=BB||||9421.769|Price|product|||NA|rsf:gd-|-stype:attr=1|qr_nm:gd|res:RC4|com-cf:nl|ptrs:na|ktp:N0|mc:26674|mtp:S|qry_typ:P|lang:en|wc:3|cs:8842|v=4,Kariox Health & Hygiene India,https://www.indiamart.com/kariox-healthandhygiene/?pos=206&kwd=disposable baby diapers&tags=BB||||9421.769|Price|product|||NA|rsf:gd-|-stype:attr=1|qr_nm:gd|res:RC4|com-cf:nl|ptrs:na|ktp:N0|mc:26674|mtp:S|qry_typ:P|lang:en|wc:3|cs:8842|v=4,False,,Ballia,"H. No. 1-A/357, Awas Vikash Colony, Harpur, Ballia City,, Ballia - 277001, Dist.Ballia, Uttar Pradesh",8046062035,
"Disposable Baby Diapers Manufacturer In India, Age Group: Newly Born, Size: Small",https://www.indiamart.com/proddetail/disposable-baby-diapers-manufacturer-in-india-2854609048697.html?pos=207&kwd=disposable baby diapers&tags=BA||||8752.144|Price|product|||NA|rsf:gd-|-stype:attr=1|qr_nm:gd|res:RC4|com-cf:nl|ptrs:na|ktp:N0|mc:26674|mtp:S|qry_typ:P|lang:en|wc:3|cs:8842|v=4,Kalito India Private Limited,https://www.indiamart.com/kalitoindia/?pos=207&kwd=disposable baby diapers&tags=BA||||8752.144|Price|product|||NA|rsf:gd-|-stype:attr=1|qr_nm:gd|res:RC4|com-cf:nl|ptrs:na|ktp:N0|mc:26674|mtp:S|qry_typ:P|lang:en|wc:3|cs:8842|v=4,False,Seelampur,New Delhi,"JB-6/245, Welcome, Seelampur III, East, Seelampur, New Delhi - 110053, Dist.Delhi, Delhi",7942873118,
"Disposable Baby Diapers, Age Group: Newly Born, Size: Small",https://www.indiamart.com/proddetail/disposable-baby-diapers-2854289978312.html?pos=208&kwd=disposable baby diapers&tags=BA||||8663.873|Price|product|||NA|rsf:gd-|-stype:attr=1|qr_nm:gd|res:RC4|com-cf:nl|ptrs:na|ktp:N0|mc:26674|mtp:S|qry_typ:P|lang:en|wc:3|cs:8842|v=4,Novelty Impex,https://www.indiamart.com/noveltyimpex-bengaluru/?pos=208&kwd=disposable baby diapers&tags=BA||||8663.873|Price|product|||NA|rsf:gd-|-stype:attr=1|qr_nm:gd|res:RC4|com-cf:nl|ptrs:na|ktp:N0|mc:26674|mtp:S|qry_typ:P|lang:en|wc:3|cs:8842|v=4,False,Bengaluru Urban,Bengaluru,"Ground Floor, No.103, Shop No.45, Maharaja Plaza, Mamulpet, Bengaluru Urban, Bengaluru - 560053, Dist.Bengaluru, Karnataka",8045730369,
"Disposable Baby Diapers Pants, Size: XL, Age Group: 1-2 Years",https://www.indiamart.com/proddetail/disposable-baby-diapers-pants-2848957433633.html?pos=209&kwd=disposable baby diapers&tags=BB||||8863.315|Price|product|||NA|rsf:gd-|-stype:attr=1|qr_nm:gd|res:RC4|com-cf:nl|ptrs:na|ktp:N0|mc:26674|mtp:S|qry_typ:P|lang:en|wc:3|cs:8842|v=4,AJFO Export India Private Limited,https://www.indiamart.com/ajfoexportindia/?pos=209&kwd=disposable baby diapers&tags=BB||||8863.315|Price|product|||NA|rsf:gd-|-stype:attr=1|qr_nm:gd|res:RC4|com-cf:nl|ptrs:na|ktp:N0|mc:26674|mtp:S|qry_typ:P|lang:en|wc:3|cs:8842|v=4,False,,Sagar,"153, Ward No-3, Sanjay Colony, Banda, Sagar - 470336, Madhya Pradesh",7942674705,
"Printed Disposable Baby Diapers Pants, Size: Large",https://www.indiamart.com/proddetail/disposable-baby-diapers-pants-27119355462.html?pos=210&kwd=disposable baby diapers&tags=BB||||8230.883|Price|product|||NA|rsf:gd-|-stype:attr=1|qr_nm:gd|res:RC4|com-cf:nl|ptrs:na|ktp:N0|mc:26674|mtp:S|qry_typ:P|lang:en|wc:3|cs:8842|v=4,Minriz Hygiene,https://www.indiamart.com/minriz-hygiene-surat/?pos=210&kwd=disposable baby diapers&tags=BB||||8230.883|Price|product|||NA|rsf:gd-|-stype:attr=1|qr_nm:gd|res:RC4|com-cf:nl|ptrs:na|ktp:N0|mc:26674|mtp:S|qry_typ:P|lang:en|wc:3|cs:8842|v=4,False,,Surat,"Plot No 32, 1st Floor, Amrut Udhyog Nagar-1, Near Diamond Nagar, Kamrej Road, Surat - 395013, Dist.Surat, Gujarat",8047787976,
