product_title,product_link,company_name,company_link,is_verified_exporter,city_region,city,address_details,phone_number,phone_number_extension
"Medical 603 Automatic Double Breast Pump Kit, For Homecare",https://www.indiamart.com/proddetail/603-automatic-double-breast-pump-kit-21823796930.html?pos=1&kwd=electric breast pump&tags=BA|PL|||8752.144|Price|product|||LSlc|rsf:pl-|-stype:attr=1|qr_nm:gd|res:RC4|com-cf:nl|ptrs:na|ktp:SA1|mc:224339|mtp:S|qry_typ:P|lang:en|wc:3|flavl:0-1|cs:9816|v=4,Life Optoelectronics,https://www.indiamart.com/life-optoelectronics/?pos=1&kwd=electric breast pump&tags=BA|PL|||8752.144|Price|product|||LSlc|rsf:pl-|-stype:attr=1|qr_nm:gd|res:RC4|com-cf:nl|ptrs:na|ktp:SA1|mc:224339|mtp:S|qry_typ:P|lang:en|wc:3|flavl:0-1|cs:9816|v=4,False,Malka Ganj,New Delhi,"H-12, Malkaganj, Malka Ganj, New Delhi - 110007, Dist.Delhi, Delhi",8048607596,
Bistos Electric Breast Pump,https://www.indiamart.com/proddetail/bistos-electric-breast-pump-20059753491.html?pos=2&kwd=electric breast pump&tags=A||||8663.873||product|||TS|rsf:gd-|-stype:attr=1|qr_nm:gd|res:RC4|com-cf:nl|ptrs:na|ktp:SA1|mc:224339|mtp:S|qry_typ:P|lang:en|wc:3|flavl:0-1|cs:9816|v=4,PIKA Medical Private Limited,https://www.indiamart.com/pikamedical-bengaluru/?pos=2&kwd=electric breast pump&tags=A||||8663.873||product|||TS|rsf:gd-|-stype:attr=1|qr_nm:gd|res:RC4|com-cf:nl|ptrs:na|ktp:SA1|mc:224339|mtp:S|qry_typ:P|lang:en|wc:3|flavl:0-1|cs:9816|v=4,False,Mahatma Gandhi Road,Bengaluru,"1212 B, Mittal Tower, 6- Mahatma Gandhi Road,, Mahatma Gandhi Road, Bengaluru - 560001, Dist.Bengaluru, Karnataka",8046052840,
Perfecxa Automatic Electric Double Breast Pump With Dual Mode - Electric,https://www.indiamart.com/proddetail/perfecxa-automatic-electric-double-breast-pump-with-dual-mode-electric-25165797888.html?pos=3&kwd=electric breast pump&tags=A||||8228.275|Price|product|||TS|rsf:gd-|-stype:attr=1|qr_nm:gd|res:RC4|com-cf:nl|ptrs:na|ktp:SA1|mc:224339|mtp:S|qry_typ:P|lang:en|wc:3|flavl:0-1|cs:9816|v=4,Zen Enterprise,https://www.zenenterprise.co.in/?pos=3&kwd=electric breast pump&tags=A||||8228.275|Price|product|||TS|rsf:gd-|-stype:attr=1|qr_nm:gd|res:RC4|com-cf:nl|ptrs:na|ktp:SA1|mc:224339|mtp:S|qry_typ:P|lang:en|wc:3|flavl:0-1|cs:9816|v=4,False,Thaltej,Ahmedabad,"205, Satva, Nr Padmavati Bunglows Opp Elligans Bunglows, Thaltej, Thaltej, Ahmedabad - 380054, Dist.Ahmedabad, Gujarat",8046046451,
"Mother & Baby Care OmnoStar Electric Breast Pump- EBP 09, For Feeding",https://www.indiamart.com/proddetail/omnostar-electric-breast-pump-ebp-09-24950997048.html?pos=4&kwd=electric breast pump&tags=A||||8307.81|Price|product|||TS|rsf:gd-|-stype:attr=1|qr_nm:gd|res:RC4|com-cf:nl|ptrs:na|ktp:SA1|mc:224339|mtp:S|qry_typ:P|lang:en|wc:3|flavl:0-1|cs:9816|v=4,Omnostar Import And Export,https://www.omnostarmobility.com/?pos=4&kwd=electric breast pump&tags=A||||8307.81|Price|product|||TS|rsf:gd-|-stype:attr=1|qr_nm:gd|res:RC4|com-cf:nl|ptrs:na|ktp:SA1|mc:224339|mtp:S|qry_typ:P|lang:en|wc:3|flavl:0-1|cs:9816|v=4,False,Erandwane,Pune,"Shop No 1 S No 16, 0, Poonam Chambers, Karve Road, Erandwana, Erandwane, Pune - 411004, Dist.Pune, Maharashtra",8047305492,
"Unimom Breast Pump - OPERA, For extraction of milk",https://www.indiamart.com/proddetail/unimom-breast-pump-opera-2853357180973.html?pos=5&kwd=electric breast pump&tags=A||||8752.144|Price|product|||TS|rsf:gd-|-stype:attr=1|qr_nm:gd|res:RC4|com-cf:nl|ptrs:na|ktp:SA1|mc:224339|mtp:S|qry_typ:P|lang:en|wc:3|flavl:0-1|cs:9816|v=4,BEN Meditechnology,https://www.benmeditech.com/?pos=5&kwd=electric breast pump&tags=A||||8752.144|Price|product|||TS|rsf:gd-|-stype:attr=1|qr_nm:gd|res:RC4|com-cf:nl|ptrs:na|ktp:SA1|mc:224339|mtp:S|qry_typ:P|lang:en|wc:3|flavl:0-1|cs:9816|v=4,False,Nasirpur,New Delhi,"Flat No 101, Eil Appartment, Plot No 13, Pocket-6, Dwarka Sector 1A, Palam Village, Dabri, South West, Nasirpur, New Delhi - 110045, Dist.Delhi, Delhi",7942825969,
"Medela Mini Electric Breast Pump, For Hospital",https://www.indiamart.com/proddetail/medela-mini-electric-breast-pump-15472528355.html?pos=6&kwd=electric breast pump&tags=A||||8954.051|Price|product|||TS|rsf:gd-|-stype:attr=1|qr_nm:gd|res:RC4|com-cf:nl|ptrs:na|ktp:SA1|mc:224339|mtp:S|qry_typ:P|lang:en|wc:3|flavl:0-1|cs:9816|v=4,Auro Mira Medi Aids,https://www.indiamart.com/auromiramediaids/?pos=6&kwd=electric breast pump&tags=A||||8954.051|Price|product|||TS|rsf:gd-|-stype:attr=1|qr_nm:gd|res:RC4|com-cf:nl|ptrs:na|ktp:SA1|mc:224339|mtp:S|qry_typ:P|lang:en|wc:3|flavl:0-1|cs:9816|v=4,False,Adyar,Chennai,"New No. 36, Old No. 32, Shriram Nagar Main Road, Adyar, Chennai - 600113, Dist.Chennai, Tamil Nadu",8048988682,
"Electric Breast Pump Spectra, For Baby Feeding",https://www.indiamart.com/proddetail/electric-breast-pump-spectra-23541443862.html?pos=7&kwd=electric breast pump&tags=A||||8211.142||product|||TS|rsf:gd-|-stype:attr=1|qr_nm:gd|res:RC4|com-cf:nl|ptrs:na|ktp:SA1|mc:224339|mtp:S|qry_typ:P|lang:en|wc:3|flavl:0-1|cs:9816|v=4,Aditya Enterprise,https://www.aditya-enterprise.com/?pos=7&kwd=electric breast pump&tags=A||||8211.142||product|||TS|rsf:gd-|-stype:attr=1|qr_nm:gd|res:RC4|com-cf:nl|ptrs:na|ktp:SA1|mc:224339|mtp:S|qry_typ:P|lang:en|wc:3|flavl:0-1|cs:9816|v=4,False,Malad West,Mumbai,"Shop No 8, Sainath Chambers ,sainath Road ,opp Life Line Hospital, Near Malad Subway, Malad West, Malad West, Mumbai - 400064, Dist.Mumbai, Maharashtra",8048966469,
Breast Pump,https://www.indiamart.com/proddetail/breast-pump-24049693233.html?pos=8&kwd=electric breast pump&tags=A||||8954.051|Price|product|||TS|rsf:gd-|-stype:attr=1|qr_nm:gd|res:RC4|com-cf:nl|ptrs:na|ktp:SA1|mc:224339|mtp:S|qry_typ:P|lang:en|wc:3|flavl:0-1|cs:9816|v=4,Delite Surgicals,https://www.indiamart.com/delite-surgicals-chennai/?pos=8&kwd=electric breast pump&tags=A||||8954.051|Price|product|||TS|rsf:gd-|-stype:attr=1|qr_nm:gd|res:RC4|com-cf:nl|ptrs:na|ktp:SA1|mc:224339|mtp:S|qry_typ:P|lang:en|wc:3|flavl:0-1|cs:9816|v=4,False,Park Town,Chennai,"107, Nyniappanaicken Street, Park Town, Park Town, Chennai - 600003, Dist.Chennai, Tamil Nadu",7942565474,
"Electric Breast Pump, For High Pressure Feeding, SE-1300",https://www.indiamart.com/proddetail/electric-breast-pump-25601709630.html?pos=9&kwd=electric breast pump&tags=A||||8954.051|Price|product|||TS|rsf:gd-|-stype:attr=1|qr_nm:gd|res:RC4|com-cf:nl|ptrs:na|ktp:SA1|mc:224339|mtp:S|qry_typ:P|lang:en|wc:3|flavl:0-1|cs:9816|v=4,Murugan Surgicals,https://www.murugansurgicals.co.in/?pos=9&kwd=electric breast pump&tags=A||||8954.051|Price|product|||TS|rsf:gd-|-stype:attr=1|qr_nm:gd|res:RC4|com-cf:nl|ptrs:na|ktp:SA1|mc:224339|mtp:S|qry_typ:P|lang:en|wc:3|flavl:0-1|cs:9816|v=4,False,Mint Building,Chennai,"Old No.34/35 Newno.87, Walltax Road, Mint Building, Chennai - 600001, Dist.Chennai, Tamil Nadu",8048974268,
Electric Breast Pump,https://www.indiamart.com/proddetail/electric-breast-pump-2853088993633.html?pos=10&kwd=electric breast pump&tags=A||||8752.144|Price|product|||TS|rsf:gd-|-stype:attr=1|qr_nm:gd|res:RC4|com-cf:nl|ptrs:na|ktp:SA1|mc:224339|mtp:S|qry_typ:P|lang:en|wc:3|flavl:0-1|cs:9816|v=4,Kapoor Agencies,https://www.sagarproducts.co.in/?pos=10&kwd=electric breast pump&tags=A||||8752.144|Price|product|||TS|rsf:gd-|-stype:attr=1|qr_nm:gd|res:RC4|com-cf:nl|ptrs:na|ktp:SA1|mc:224339|mtp:S|qry_typ:P|lang:en|wc:3|flavl:0-1|cs:9816|v=4,False,Shahdara,New Delhi,"Iv/1697,Mahavir Block,Bhola Nath Nagar,Shahdar, Shahdara, New Delhi - 110032, Dist.Delhi, Delhi",8046069171,
"Manual Breast Pump- Electric (MEHAR), For Industrial",https://www.indiamart.com/proddetail/breast-pump-electric-mehar-2851012450373.html?pos=11&kwd=electric breast pump&tags=A||||8774.064|Price|product|||TS|rsf:gd-|-stype:attr=1|qr_nm:gd|res:RC4|com-cf:nl|ptrs:na|ktp:SA1|mc:224339|mtp:S|qry_typ:P|lang:en|wc:3|flavl:0-1|cs:9816|v=4,Logic Biomedical Technologies,https://www.indiamart.com/logicbiomedicaretechnologies/?pos=11&kwd=electric breast pump&tags=A||||8774.064|Price|product|||TS|rsf:gd-|-stype:attr=1|qr_nm:gd|res:RC4|com-cf:nl|ptrs:na|ktp:SA1|mc:224339|mtp:S|qry_typ:P|lang:en|wc:3|flavl:0-1|cs:9816|v=4,False,Chinthamani Police Colony,Tiruchirappalli,"7/ Old No. 4, Arabikula Street,, Chinthamani Police Colony, Tiruchirappalli - 620002, Dist.Tiruchirappalli, Tamil Nadu",8048954358,
"Electric Breast Pump, For Personal",https://www.indiamart.com/proddetail/electric-breast-pump-26006625873.html?pos=12&kwd=electric breast pump&tags=A||||8752.144|Price|product|||TS|rsf:gd-|-stype:attr=1|qr_nm:gd|res:RC4|com-cf:nl|ptrs:na|ktp:SA1|mc:224339|mtp:S|qry_typ:P|lang:en|wc:3|flavl:0-1|cs:9816|v=4,Goonj Communication & Electronic Scale Co.,https://www.indiamart.com/goonjcommunication/?pos=12&kwd=electric breast pump&tags=A||||8752.144|Price|product|||TS|rsf:gd-|-stype:attr=1|qr_nm:gd|res:RC4|com-cf:nl|ptrs:na|ktp:SA1|mc:224339|mtp:S|qry_typ:P|lang:en|wc:3|flavl:0-1|cs:9816|v=4,False,Dilshad Garden,New Delhi,"Registered Office- 56 B Damodar Park Dilshad Garden, Dilshad Garden, New Delhi - 110095, Dist.Delhi, Delhi",8048980971,
"Philips Avent Electric Breast Pump, SCF323/11",https://www.indiamart.com/proddetail/philips-avent-electric-breast-pump-2854898074873.html?pos=13&kwd=electric breast pump&tags=A||||8954.051|Price|product|||TS|rsf:gd-|-stype:attr=1|qr_nm:gd|res:RC4|com-cf:nl|ptrs:na|ktp:SA1|mc:224339|mtp:S|qry_typ:P|lang:en|wc:3|flavl:0-1|cs:9816|v=4,Golden Age Mart,https://www.indiamart.com/golden-age-mart/?pos=13&kwd=electric breast pump&tags=A||||8954.051|Price|product|||TS|rsf:gd-|-stype:attr=1|qr_nm:gd|res:RC4|com-cf:nl|ptrs:na|ktp:SA1|mc:224339|mtp:S|qry_typ:P|lang:en|wc:3|flavl:0-1|cs:9816|v=4,False,Police Colony,Chennai,"Ground Floor, No.87d, Kanniamman Koil Street, Kelambakkam Vandalur Road, Keelakottiyur Chengalpattu, Police Colony, Chennai - 600127, Dist.Chennai, Tamil Nadu",7949086669,
"Electric Breast Pump, For High Pressure Feeding",https://www.indiamart.com/proddetail/electric-breast-pump-2852886260555.html?pos=14&kwd=electric breast pump&tags=A||||8752.144|Price|product|||MDC|rsf:gd-|-stype:attr=1|qr_nm:gd|res:RC4|com-cf:nl|ptrs:na|ktp:SA1|mc:224339|mtp:S|qry_typ:P|lang:en|wc:3|flavl:0-1|cs:9816|v=4,Caremate,https://www.indiamart.com/caremate/?pos=14&kwd=electric breast pump&tags=A||||8752.144|Price|product|||MDC|rsf:gd-|-stype:attr=1|qr_nm:gd|res:RC4|com-cf:nl|ptrs:na|ktp:SA1|mc:224339|mtp:S|qry_typ:P|lang:en|wc:3|flavl:0-1|cs:9816|v=4,False,Gujranwala Town,New Delhi,"66 A, 2nd Floor, D Block, Mahendra Enclave, North West Delhi, Gujranwala Town, New Delhi - 110052, Dist.Delhi, Delhi",7942967491,
"Phoenix Electric Breast Pump, EB01",https://www.indiamart.com/proddetail/phoenix-electric-breast-pump-2854253263688.html?pos=15&kwd=electric breast pump&tags=A||||8238.463||product|||MDC|rsf:gd-|-stype:attr=1|qr_nm:gd|res:RC4|com-cf:nl|ptrs:na|ktp:SA1|mc:224339|mtp:S|qry_typ:P|lang:en|wc:3|cs:8959|v=4,Sun Imports,https://www.indiamart.com/sun-imports-silvassa/?pos=15&kwd=electric breast pump&tags=A||||8238.463||product|||MDC|rsf:gd-|-stype:attr=1|qr_nm:gd|res:RC4|com-cf:nl|ptrs:na|ktp:SA1|mc:224339|mtp:S|qry_typ:P|lang:en|wc:3|cs:8959|v=4,False,,Silvassa,"16, Commercial Complex, Green Park, Tokarkhada, Silvassa - 396230, Dist.Dadra and Nagar Haveli and Daman and Diu, Dadra and Nagar Haveli and Daman and Diu",8045730354,
PHILIPS AVENT SCF395/11 ELECTRIC BREAST PUMP,https://www.indiamart.com/proddetail/philips-avent-scf395-11-electric-breast-pump-2853235935897.html?pos=16&kwd=electric breast pump&tags=A||||8307.81|Price|product|||TS|rsf:gd-|-stype:attr=1|qr_nm:gd|res:RC4|com-cf:nl|ptrs:na|ktp:SA1|mc:224339|mtp:S|qry_typ:P|lang:en|wc:3|cs:8959|v=4,Mahavir World,https://www.indiamart.com/mahavir-world/?pos=16&kwd=electric breast pump&tags=A||||8307.81|Price|product|||TS|rsf:gd-|-stype:attr=1|qr_nm:gd|res:RC4|com-cf:nl|ptrs:na|ktp:SA1|mc:224339|mtp:S|qry_typ:P|lang:en|wc:3|cs:8959|v=4,False,Ganj Peth,Pune,"845, Shukrawarpeth, Opposite Vallabh Sarees, Near Jain Temple, Ganj Peth, Pune - 411002, Dist.Pune, Maharashtra",8046049692,
"Battery Powered Electric Breast Pump, For Boiler Feeding, MZ-602",https://www.indiamart.com/proddetail/electric-breast-pump-2850563821462.html?pos=17&kwd=electric breast pump&tags=A||||8584.299|Price|product|||TS|rsf:gd-|-stype:attr=1|qr_nm:gd|res:RC4|com-cf:nl|ptrs:na|ktp:SA1|mc:224339|mtp:S|qry_typ:P|lang:en|wc:3|cs:8959|v=4,Happymeds Solutions,https://www.happymedsindia.in/?pos=17&kwd=electric breast pump&tags=A||||8584.299|Price|product|||TS|rsf:gd-|-stype:attr=1|qr_nm:gd|res:RC4|com-cf:nl|ptrs:na|ktp:SA1|mc:224339|mtp:S|qry_typ:P|lang:en|wc:3|cs:8959|v=4,False,Upplipalayam,Coimbatore,"140-1, Cooperative Colony, Near Perks School Back Gate, Uppilipalayam Post, Upplipalayam, Coimbatore - 641015, Dist.Coimbatore, Tamil Nadu",8048210785,
Electric Breast Pumping Machine,https://www.indiamart.com/proddetail/electric-breast-pumping-machine-2849322541797.html?pos=18&kwd=electric breast pump&tags=A||||8786.56|Price|product|||TS|rsf:gd-|-stype:attr=1|qr_nm:gd|res:RC4|com-cf:nl|ptrs:na|ktp:SA1|mc:224339|mtp:S|qry_typ:P|lang:en|wc:3|cs:8959|v=4,Ramdev Acupressure Products,https://www.indiamart.com/ramdev-acupressure-products/?pos=18&kwd=electric breast pump&tags=A||||8786.56|Price|product|||TS|rsf:gd-|-stype:attr=1|qr_nm:gd|res:RC4|com-cf:nl|ptrs:na|ktp:SA1|mc:224339|mtp:S|qry_typ:P|lang:en|wc:3|cs:8959|v=4,False,Kachi Guda,Hyderabad,"3-4-16\1 dr bhoomanha line salini hospital, Kachi Guda, Hyderabad - 500027, Dist.Hyderabad, Telangana",8048604617,
"Electric Breast feeding Pump, For Home/ Hospital",https://www.indiamart.com/proddetail/electric-breastfeeding-pump-26241469655.html?pos=19&kwd=electric breast pump&tags=A||||8752.144|Price|product|||TS|rsf:gd-|-stype:attr=1|qr_nm:gd|res:RC4|com-cf:nl|ptrs:na|ktp:SA1|mc:224339|mtp:S|qry_typ:P|lang:en|wc:3|cs:8959|v=4,OSR Medplus,https://www.indiamart.com/osr-medplus/?pos=19&kwd=electric breast pump&tags=A||||8752.144|Price|product|||TS|rsf:gd-|-stype:attr=1|qr_nm:gd|res:RC4|com-cf:nl|ptrs:na|ktp:SA1|mc:224339|mtp:S|qry_typ:P|lang:en|wc:3|cs:8959|v=4,False,Badli,New Delhi,"Kh.No-22/25/2,Gali No-4, Industrial Area Village, Samaipur, Badli, New Delhi - 110042, Dist.Delhi, Delhi",8046056352,
"Electric Breast Pump, BP-151",https://www.indiamart.com/proddetail/electric-breast-pump-2853906264233.html?pos=20&kwd=electric breast pump&tags=A||||8228.275|Price|product|||TS|rsf:gd-|-stype:attr=1|qr_nm:gd|res:RC4|com-cf:nl|ptrs:na|ktp:SA1|mc:224339|mtp:S|qry_typ:P|lang:en|wc:3|cs:8959|v=4,Life Healthcare,https://www.lifehealthcare.in.net/?pos=20&kwd=electric breast pump&tags=A||||8228.275|Price|product|||TS|rsf:gd-|-stype:attr=1|qr_nm:gd|res:RC4|com-cf:nl|ptrs:na|ktp:SA1|mc:224339|mtp:S|qry_typ:P|lang:en|wc:3|cs:8959|v=4,False,Dabgarwad,Ahmedabad,"6/7 Ground Floor, Relife Shopping Center, G P O, Dabgarwad, Ahmedabad - 380001, Dist.Ahmedabad, Gujarat",7942871208,
"Adore Electric Breast Pump, For Boiler Feeding",https://www.indiamart.com/proddetail/adore-electric-breast-pump-2853223112797.html?pos=21&kwd=electric breast pump&tags=A||||8531.645|Price|product|||TS|rsf:gd-|-stype:attr=1|qr_nm:gd|res:RC4|com-cf:nl|ptrs:na|ktp:SA1|mc:224339|mtp:S|qry_typ:P|lang:en|wc:3|cs:8959|v=4,Perfect Life,https://www.indiamart.com/perfectlife-changanacherry/?pos=21&kwd=electric breast pump&tags=A||||8531.645|Price|product|||TS|rsf:gd-|-stype:attr=1|qr_nm:gd|res:RC4|com-cf:nl|ptrs:na|ktp:SA1|mc:224339|mtp:S|qry_typ:P|lang:en|wc:3|cs:8959|v=4,False,Fathimapuram,Changanacherry,"CMC 21/377 New No. 16/388, Near Fathimamatha Church, Fathimapuram Po, Kottayam, Fathimapuram, Changanacherry - 686102, Dist.Kottayam, Kerala",7948547478,
"Accusure Electric Breast pump, For Milk",https://www.indiamart.com/proddetail/accusure-electric-breast-pump-2854794343148.html?pos=22&kwd=electric breast pump&tags=A||||8954.051|Price|product|||TS|rsf:gd-|-stype:attr=1|qr_nm:gd|res:RC4|com-cf:nl|ptrs:na|ktp:SA1|mc:224339|mtp:S|qry_typ:P|lang:en|wc:3|cs:8959|v=4,Bharath Enterprises,https://www.indiamart.com/bharatenterpriseschennai/?pos=22&kwd=electric breast pump&tags=A||||8954.051|Price|product|||TS|rsf:gd-|-stype:attr=1|qr_nm:gd|res:RC4|com-cf:nl|ptrs:na|ktp:SA1|mc:224339|mtp:S|qry_typ:P|lang:en|wc:3|cs:8959|v=4,False,Mannady,Chennai,"New No. 38, Old No. 69, Sembudoss Street, Mannady, Chennai - 600001, Dist.Chennai, Tamil Nadu",8048612312,
"Intelligent Breast Pump, For New Born Baby Feeding",https://www.indiamart.com/proddetail/intelligent-breast-pump-2854184636612.html?pos=23&kwd=electric breast pump&tags=A||||8752.144|Price|product|||TS|rsf:gd-|-stype:attr=1|qr_nm:gd|res:RC4|com-cf:nl|ptrs:na|ktp:SA1|mc:224339|mtp:S|qry_typ:P|lang:en|wc:3|cs:8959|v=4,Med-India-Surgicals,https://www.indiamart.com/medindiasurgicals/?pos=23&kwd=electric breast pump&tags=A||||8752.144|Price|product|||TS|rsf:gd-|-stype:attr=1|qr_nm:gd|res:RC4|com-cf:nl|ptrs:na|ktp:SA1|mc:224339|mtp:S|qry_typ:P|lang:en|wc:3|cs:8959|v=4,False,Swaroop Nagar North Delhi,New Delhi,"KH.NO. 367,KUsha,ROAD BLK-K SWAROOP NAGAR KHADDA COLONY,New Delhi, Swaroop Nagar North Delhi, New Delhi - 110042, Dist.Delhi, Delhi",8045730980,
"Dr Odin Electric Breast Pump, For PERSONAL USE, OD302",https://www.indiamart.com/proddetail/dr-odin-electric-breast-pump-2854341806512.html?pos=24&kwd=electric breast pump&tags=A||||8838.804|Price|product|||MDC|rsf:gd-|-stype:attr=1|qr_nm:gd|res:RC4|com-cf:nl|ptrs:na|ktp:SA1|mc:224339|mtp:S|qry_typ:P|lang:en|wc:3|cs:8959|v=4,Rajput Surgical,https://www.indiamart.com/rajput-surgical/?pos=24&kwd=electric breast pump&tags=A||||8838.804|Price|product|||MDC|rsf:gd-|-stype:attr=1|qr_nm:gd|res:RC4|com-cf:nl|ptrs:na|ktp:SA1|mc:224339|mtp:S|qry_typ:P|lang:en|wc:3|cs:8959|v=4,False,Market,Aligarh,"S - 001 Ground Floor ROMOTEK BUILDING Near Champion, Market, Aligarh - 202001, Uttar Pradesh",7942547617,
POCT Breast Pump Electric,https://www.indiamart.com/proddetail/poct-breast-pump-electric-2854789217391.html?pos=25&kwd=electric breast pump&tags=A||||8706.587||product|||MDC|rsf:gd-|-stype:attr=1|qr_nm:gd|res:RC4|com-cf:nl|ptrs:na|ktp:SA1|mc:224339|mtp:S|qry_typ:P|lang:en|wc:3|cs:8959|v=4,Arumugam Medicals,https://www.indiamart.com/arumugam-medicals/?pos=25&kwd=electric breast pump&tags=A||||8706.587||product|||MDC|rsf:gd-|-stype:attr=1|qr_nm:gd|res:RC4|com-cf:nl|ptrs:na|ktp:SA1|mc:224339|mtp:S|qry_typ:P|lang:en|wc:3|cs:8959|v=4,False,,Madurai,"240, Kamarajar Road, Madurai - 625009, Dist.Madurai, Tamil Nadu",7948217676,
"Medical UNIMOM FORTE - ELECTRIC BREAST PUMP, For EXPRESSIOM OF MOTHER MILK",https://www.indiamart.com/proddetail/unimom-forte-electric-breast-pump-2853102112912.html?pos=26&kwd=electric breast pump&tags=A||||8752.144|Price|product|||MDC|rsf:gd-|-stype:attr=1|qr_nm:gd|res:RC4|com-cf:nl|ptrs:na|ktp:SA1|mc:224339|mtp:S|qry_typ:P|lang:en|wc:3|cs:8959|v=4,Bes Meditechnology Private Limited,https://www.indiamart.com/besmeditechnology/?pos=26&kwd=electric breast pump&tags=A||||8752.144|Price|product|||MDC|rsf:gd-|-stype:attr=1|qr_nm:gd|res:RC4|com-cf:nl|ptrs:na|ktp:SA1|mc:224339|mtp:S|qry_typ:P|lang:en|wc:3|cs:8959|v=4,False,Dwarka Sector 1,New Delhi,"101, 1st Floor, EIL apartments, Plot No 13, pocket 6, dhasrathpuri, Dwarka Sector 1, New Delhi - 110045, Dist.Delhi, Delhi",7942720290,
"Electric Breast Pump USB Charging, For Porsnal",https://www.indiamart.com/proddetail/electric-breast-pump-usb-charging-2854164209062.html?pos=27&kwd=electric breast pump&tags=BA||||8230.883|Price|product|||TS|rsf:gd-|-stype:attr=1|qr_nm:gd|res:RC4|com-cf:nl|ptrs:na|ktp:SA1|mc:224339|mtp:S|qry_typ:P|lang:en|wc:3|cs:8959|v=4,SHUNYA WATCHES,https://www.indiamart.com/shunya-watches-gujarat/?pos=27&kwd=electric breast pump&tags=BA||||8230.883|Price|product|||TS|rsf:gd-|-stype:attr=1|qr_nm:gd|res:RC4|com-cf:nl|ptrs:na|ktp:SA1|mc:224339|mtp:S|qry_typ:P|lang:en|wc:3|cs:8959|v=4,False,Surat,Surat,"376, Ground, Gadhpur Township, Kathodara Road,Pasodara, Kamrej, Surat, Surat - 394326, Dist.Surat, Gujarat",8048606207,
"Portable Brest Feeding Pump, For Industrial",https://www.indiamart.com/proddetail/brest-feeding-pump-23711952888.html?pos=28&kwd=electric breast pump&tags=BA||||8230.883|Price|product|||TS|rsf:gd-|-stype:attr=1|qr_nm:gd|res:RC4|com-cf:nl|ptrs:na|ktp:SA1|mc:224339|mtp:S|qry_typ:P|lang:en|wc:3|cs:8959|v=4,Technocare Medisystems,https://www.technocarem.com/?pos=28&kwd=electric breast pump&tags=BA||||8230.883|Price|product|||TS|rsf:gd-|-stype:attr=1|qr_nm:gd|res:RC4|com-cf:nl|ptrs:na|ktp:SA1|mc:224339|mtp:S|qry_typ:P|lang:en|wc:3|cs:8959|v=4,False,Umarwada,Surat,"No. C-1310/11, Umarwada, Umarwada, Surat - 395010, Dist.Surat, Gujarat",8048976048,
FISIO Pro Breast Pump,https://www.indiamart.com/proddetail/fisio-pro-breast-pump-2854784012588.html?pos=29&kwd=electric breast pump&tags=BA||||8785.791|Price|product|||MDC|rsf:gd-|-stype:attr=1|qr_nm:gd|res:RC4|com-cf:nl|ptrs:na|ktp:SA1|mc:224339|mtp:S|qry_typ:P|lang:en|wc:3|cs:8959|v=4,Beta Matrix Healthcare,https://www.indiamart.com/beta-matrix-healthcare/?pos=29&kwd=electric breast pump&tags=BA||||8785.791|Price|product|||MDC|rsf:gd-|-stype:attr=1|qr_nm:gd|res:RC4|com-cf:nl|ptrs:na|ktp:SA1|mc:224339|mtp:S|qry_typ:P|lang:en|wc:3|cs:8959|v=4,False,,Ghaziabad,"14, MP Nagar, Ghaziabad - 201002, Dist.Ghaziabad, Uttar Pradesh",8044459117,
"Home Use Electric Breast Pump, For Normal Feeding, EBP-01",https://www.indiamart.com/proddetail/electric-breast-pump-21006553633.html?pos=30&kwd=electric breast pump&tags=A||||8752.144|Price|product|||TS|rsf:gd-|-stype:attr=1|qr_nm:gd|res:RC4|com-cf:nl|ptrs:na|ktp:SA1|mc:224339|mtp:S|qry_typ:P|lang:en|wc:3|cs:8959|v=4,Ashok Enterprises,https://www.niscomed.com/?pos=30&kwd=electric breast pump&tags=A||||8752.144|Price|product|||TS|rsf:gd-|-stype:attr=1|qr_nm:gd|res:RC4|com-cf:nl|ptrs:na|ktp:SA1|mc:224339|mtp:S|qry_typ:P|lang:en|wc:3|cs:8959|v=4,False,Padam Nagar,New Delhi,"No. 400, Padam Nagar, Padam Nagar, New Delhi - 110007, Dist.Delhi, Delhi",8048970189,
"Pack Best Chicoo Electric Breast Pump, For Boiler Feeding",https://www.indiamart.com/proddetail/chicoo-electric-breast-pump-2852422283288.html?pos=31&kwd=electric breast pump&tags=A||||8307.81|Price|product|||TS|rsf:gd-|-stype:attr=1|qr_nm:gd|res:RC4|com-cf:nl|ptrs:na|ktp:SA1|mc:224339|mtp:S|qry_typ:P|lang:en|wc:3|cs:8959|v=4,Dev Medical,https://www.devmedicalindia.com/?pos=31&kwd=electric breast pump&tags=A||||8307.81|Price|product|||TS|rsf:gd-|-stype:attr=1|qr_nm:gd|res:RC4|com-cf:nl|ptrs:na|ktp:SA1|mc:224339|mtp:S|qry_typ:P|lang:en|wc:3|cs:8959|v=4,False,Pune,Pune,"Shop No-6,Survey Number -32 Hissa No. B,32 A-7,C.T.S. Number-640,Kamal Heights,Aditya Birla Hospital Marg,Datta Nagar, Thergaon, Pune, Pune - 411033, Dist.Pune, Maharashtra",8048266955,
Electric Breast Pump,https://www.indiamart.com/proddetail/electric-breast-pump-2854231230997.html?pos=32&kwd=electric breast pump&tags=A||||8785.791|Price|product|||MDC|rsf:gd-|-stype:attr=1|qr_nm:gd|res:RC4|com-cf:nl|ptrs:na|ktp:SA1|mc:224339|mtp:S|qry_typ:P|lang:en|wc:3|cs:8959|v=4,Laxmi Enterprises,https://www.indiamart.com/laxmienterprisesgaziabaduttarpradesh/?pos=32&kwd=electric breast pump&tags=A||||8785.791|Price|product|||MDC|rsf:gd-|-stype:attr=1|qr_nm:gd|res:RC4|com-cf:nl|ptrs:na|ktp:SA1|mc:224339|mtp:S|qry_typ:P|lang:en|wc:3|cs:8959|v=4,False,,Ghaziabad,"G-175, Lajpat Nagar, Sahibabad, Ghaziabad - 201005, Dist.Ghaziabad, Uttar Pradesh",8045734074,
Electric Breast Pump,https://www.indiamart.com/proddetail/electric-breast-pump-2854957878762.html?pos=33&kwd=electric breast pump&tags=A||||8469.325|Price|product|||MDC|rsf:gd-|-stype:attr=1|qr_nm:gd|res:RC4|com-cf:nl|ptrs:na|ktp:SA1|mc:224339|mtp:S|qry_typ:P|lang:en|wc:3|cs:8959|v=4,Srinivas Trading Company,https://www.indiamart.com/srinivas-trading-company/?pos=33&kwd=electric breast pump&tags=A||||8469.325|Price|product|||MDC|rsf:gd-|-stype:attr=1|qr_nm:gd|res:RC4|com-cf:nl|ptrs:na|ktp:SA1|mc:224339|mtp:S|qry_typ:P|lang:en|wc:3|cs:8959|v=4,False,,Gadag Betigeri,"Ground Floor, Cts No. 6735/a1, Mulgund Complex, Municipal Office Opp. Station Road, Gadag Betigeri,, Gadag Betigeri - 582101, Dist.Gadag, Karnataka",8041011374,
Breast Enhancement Cup Electronic,https://www.indiamart.com/proddetail/breast-enhancement-cup-electronic-2854829548048.html?pos=34&kwd=electric breast pump&tags=A||||9189.305|Price|product|||TS|rsf:gd-|-stype:attr=1|qr_nm:gd|res:RC4|com-cf:nl|ptrs:na|ktp:SA1|mc:224339|mtp:S|qry_typ:P|lang:en|wc:3|cs:8959|v=4,Acupressure Health Care System,https://www.indiamart.com/acupressure-health-caresystem-prayagraj/?pos=34&kwd=electric breast pump&tags=A||||9189.305|Price|product|||TS|rsf:gd-|-stype:attr=1|qr_nm:gd|res:RC4|com-cf:nl|ptrs:na|ktp:SA1|mc:224339|mtp:S|qry_typ:P|lang:en|wc:3|cs:8959|v=4,False,,Prayagraj,"49/24a, Minto Road, Behind Bhs, Prayagraj - 211002, Dist.Allahabad, Uttar Pradesh",8041013919,
"Electric Breast Feeding pump, BosmEMP-02",https://www.indiamart.com/proddetail/electric-breast-feeding-pump-2854160585591.html?pos=35&kwd=electric breast pump&tags=A||||8752.144|Price|product|||MDC|rsf:gd-|-stype:attr=1|qr_nm:gd|res:RC4|com-cf:nl|ptrs:na|ktp:SA1|mc:224339|mtp:S|qry_typ:P|lang:en|wc:3|cs:8959|v=4,H C G Health Cure Generation,https://www.indiamart.com/hcghealthcuregeneration/?pos=35&kwd=electric breast pump&tags=A||||8752.144|Price|product|||MDC|rsf:gd-|-stype:attr=1|qr_nm:gd|res:RC4|com-cf:nl|ptrs:na|ktp:SA1|mc:224339|mtp:S|qry_typ:P|lang:en|wc:3|cs:8959|v=4,False,,New Delhi,"Ground Floor, 308/1, Gali No-5, Bagh Kare Khan, North, New Delhi - 110007, Dist.Delhi, Delhi",8044017282,
Philips Avent Single Electric Breast Pump,https://www.indiamart.com/proddetail/philips-avent-single-electric-breast-pump-2854879206073.html?pos=36&kwd=electric breast pump&tags=A||||8584.299|Price|product|||MDC|rsf:gd-|-stype:attr=1|qr_nm:gd|res:RC4|com-cf:nl|ptrs:na|ktp:SA1|mc:224339|mtp:S|qry_typ:P|lang:en|wc:3|cs:8959|v=4,Vino Mani Enterprises,https://www.indiamart.com/vino-mani-enterprises/?pos=36&kwd=electric breast pump&tags=A||||8584.299|Price|product|||MDC|rsf:gd-|-stype:attr=1|qr_nm:gd|res:RC4|com-cf:nl|ptrs:na|ktp:SA1|mc:224339|mtp:S|qry_typ:P|lang:en|wc:3|cs:8959|v=4,False,,Coimbatore,"No 89A, NA, Azad Road, R S Puram, Coimbatore - 641002, Dist.Coimbatore, Tamil Nadu",7942546353,
"Electric Breast Pump, For Boiler Feeding",https://www.indiamart.com/proddetail/electric-breast-pump-2849745452930.html?pos=37&kwd=electric breast pump&tags=BA||||8752.144|Price|product|||TS|rsf:gd-|-stype:attr=1|qr_nm:gd|res:RC4|com-cf:nl|ptrs:na|ktp:SA1|mc:224339|mtp:S|qry_typ:P|lang:en|wc:3|cs:8959|v=4,Pal Surgical Works,https://www.medicalequipmentsupply.in/?pos=37&kwd=electric breast pump&tags=BA||||8752.144|Price|product|||TS|rsf:gd-|-stype:attr=1|qr_nm:gd|res:RC4|com-cf:nl|ptrs:na|ktp:SA1|mc:224339|mtp:S|qry_typ:P|lang:en|wc:3|cs:8959|v=4,True,Delhi,New Delhi,"Khasra No.9/13, H.No.5, Street No.2, Sonu Farm House, Jawahar Nagar, Delhi, New Delhi - 110094, Dist.Delhi, Delhi",8048969369,
"AccuSure Double Electric Breast Pump Stimulation, For Boiler Feeding",https://www.indiamart.com/proddetail/accusure-double-electric-breast-pump-stimulation-2852395622830.html?pos=38&kwd=electric breast pump&tags=A||||8752.144|Price|product|||MDC|rsf:gd-|-stype:attr=1|qr_nm:gd|res:RC4|com-cf:nl|ptrs:na|ktp:SA1|mc:224339|mtp:S|qry_typ:P|lang:en|wc:3|cs:8959|v=4,Sabhealth Retail,https://www.indiamart.com/sabhealth-retail/?pos=38&kwd=electric breast pump&tags=A||||8752.144|Price|product|||MDC|rsf:gd-|-stype:attr=1|qr_nm:gd|res:RC4|com-cf:nl|ptrs:na|ktp:SA1|mc:224339|mtp:S|qry_typ:P|lang:en|wc:3|cs:8959|v=4,False,Jamia Nagar,New Delhi,"4th Floor, N-12b, Abul Fazal Enclave-Ii, Jamia Nagar, Jamia Nagar, New Delhi - 110025, Dist.Delhi, Delhi",7942707189,
"Bilateral Unilateral USB Silent Electric Breast Pump, For High Pressure Feeding",https://www.indiamart.com/proddetail/bilateral-unilateral-usb-silent-electric-breast-pump-2853785150512.html?pos=39&kwd=electric breast pump&tags=A||||8954.051|Price|product|||MDC|rsf:gd-|-stype:attr=1|qr_nm:gd|res:RC4|com-cf:nl|ptrs:na|ktp:SA1|mc:224339|mtp:S|qry_typ:P|lang:en|wc:3|cs:8959|v=4,Oracare,https://www.indiamart.com/oracare-chennai/?pos=39&kwd=electric breast pump&tags=A||||8954.051|Price|product|||MDC|rsf:gd-|-stype:attr=1|qr_nm:gd|res:RC4|com-cf:nl|ptrs:na|ktp:SA1|mc:224339|mtp:S|qry_typ:P|lang:en|wc:3|cs:8959|v=4,False,Maraimalai Nagar,Chennai,"Ground Floor, 132, LIG, NH1 Ambedkar Street, Maraimalai Nagar, Kancheepuram, Maraimalai Nagar, Chennai - 603209, Dist.Chennai, Tamil Nadu",7949095662,
"Zeal FISIO Breast Pump, For High Pressure Feeding",https://www.indiamart.com/proddetail/zeal-fisio-breast-pump-2854913748062.html?pos=40&kwd=electric breast pump&tags=A||||8364.597|Price|product|||MDC|rsf:gd-|-stype:attr=1|qr_nm:gd|res:RC4|com-cf:nl|ptrs:na|ktp:SA1|mc:224339|mtp:S|qry_typ:P|lang:en|wc:3|cs:8959|v=4,Addlife Biomedical Solutions,https://www.indiamart.com/addlifebiomedicalsolutions/?pos=40&kwd=electric breast pump&tags=A||||8364.597|Price|product|||MDC|rsf:gd-|-stype:attr=1|qr_nm:gd|res:RC4|com-cf:nl|ptrs:na|ktp:SA1|mc:224339|mtp:S|qry_typ:P|lang:en|wc:3|cs:8959|v=4,False,,Udaipur,"Third Floor, 304, Archi Arihant Apartment, Near Fortis JK Hospital, Sobhagpura, Udaipur - 313001, Rajasthan",8044459330,
Electric Breast Pump,https://www.indiamart.com/proddetail/electric-breast-pump-2850262216973.html?pos=41&kwd=electric breast pump&tags=BA||||8223.226||product|||TS|rsf:gd-|-stype:attr=1|qr_nm:gd|res:RC4|com-cf:nl|ptrs:na|ktp:SA1|mc:224339|mtp:S|qry_typ:P|lang:en|wc:3|cs:8959|v=4,Amkay Products Private Limited,https://www.amkayproducts.net/?pos=41&kwd=electric breast pump&tags=BA||||8223.226||product|||TS|rsf:gd-|-stype:attr=1|qr_nm:gd|res:RC4|com-cf:nl|ptrs:na|ktp:SA1|mc:224339|mtp:S|qry_typ:P|lang:en|wc:3|cs:8959|v=4,False,Gokhiware,Thane,"Amkay Enclave, 68, Rashmi Park Bungalow Dhumal Nagar, Waliv Road, Vasai East, Gokhiware, Thane - 401208, Dist.Thane, Maharashtra",8048969241,
Medela Electric Single Breast Pump,https://www.indiamart.com/proddetail/medela-electric-single-breast-pump-2853743003391.html?pos=42&kwd=electric breast pump&tags=BA||||8663.873|Price|product|||TS|rsf:gd-|-stype:attr=1|qr_nm:gd|res:RC4|com-cf:nl|ptrs:na|ktp:SA1|mc:224339|mtp:S|qry_typ:P|lang:en|wc:3|cs:8959|v=4,Getfast Pharmaceuticals Private Limited,https://www.indiamart.com/getfast-pharmaceuticals/?pos=42&kwd=electric breast pump&tags=BA||||8663.873|Price|product|||TS|rsf:gd-|-stype:attr=1|qr_nm:gd|res:RC4|com-cf:nl|ptrs:na|ktp:SA1|mc:224339|mtp:S|qry_typ:P|lang:en|wc:3|cs:8959|v=4,False,Banashankari,Bengaluru,"Ground Floor, No 113/d, 34th Cross Yarab Nagar Banashankari 2nd Stage, Banashankari, Bengaluru - 560070, Dist.Bengaluru, Karnataka",8044012123,
Medela Electric Single Breast Pump,https://www.indiamart.com/proddetail/medela-electric-single-breast-pump-2853743003391.html?pos=43&kwd=electric breast pump&tags=BA||||8663.873|Price|product|||TS|rsf:gd-|-stype:attr=1|qr_nm:gd|res:RC4|com-cf:nl|ptrs:na|ktp:SA1|mc:224339|mtp:S|qry_typ:P|lang:en|wc:3|cs:8959|v=4,Getfast Pharmaceuticals Private Limited,https://www.indiamart.com/getfast-pharmaceuticals/?pos=43&kwd=electric breast pump&tags=BA||||8663.873|Price|product|||TS|rsf:gd-|-stype:attr=1|qr_nm:gd|res:RC4|com-cf:nl|ptrs:na|ktp:SA1|mc:224339|mtp:S|qry_typ:P|lang:en|wc:3|cs:8959|v=4,False,Banashankari,Bengaluru,"Ground Floor, No 113/d, 34th Cross Yarab Nagar Banashankari 2nd Stage, Banashankari, Bengaluru - 560070, Dist.Bengaluru, Karnataka",8044012123,
Perfecxa Intelligent Automatic Double Breast Pump,https://www.indiamart.com/proddetail/perfecxa-intelligent-automatic-double-breast-pump-2853965980848.html?pos=44&kwd=electric breast pump&tags=BA||||8239.3955|Price|product|||TS|rsf:gd-|-stype:attr=1|qr_nm:gd|res:RC4|com-cf:nl|ptrs:na|ktp:SA1|mc:224339|mtp:S|qry_typ:P|lang:en|wc:3|cs:8959|v=4,Mahadev NX Medical Store,https://www.indiamart.com/mahadev-nxmedicalstore/?pos=44&kwd=electric breast pump&tags=BA||||8239.3955|Price|product|||TS|rsf:gd-|-stype:attr=1|qr_nm:gd|res:RC4|com-cf:nl|ptrs:na|ktp:SA1|mc:224339|mtp:S|qry_typ:P|lang:en|wc:3|cs:8959|v=4,False,,Kalyan,"-, Subash Chowk, Murbad Road,, Kalyan - 421301, Dist.Thane, Maharashtra",8044015418,
Standard Electric Breast Pump,https://www.indiamart.com/proddetail/electric-breast-pump-15640235973.html?pos=45&kwd=electric breast pump&tags=A||||8954.051||product|||TS|rsf:gd-|-stype:attr=1|qr_nm:gd|res:RC4|com-cf:nl|ptrs:na|ktp:SA1|mc:224339|mtp:S|qry_typ:P|lang:en|wc:3|cs:8959|v=4,Sree Meditec,https://www.indiamart.com/sreemeditec/?pos=45&kwd=electric breast pump&tags=A||||8954.051||product|||TS|rsf:gd-|-stype:attr=1|qr_nm:gd|res:RC4|com-cf:nl|ptrs:na|ktp:SA1|mc:224339|mtp:S|qry_typ:P|lang:en|wc:3|cs:8959|v=4,False,Rajakilpakkam,Chennai,"New No. 18, Old No. 2, Bajanai Koil Street, Rajakilpakkam, Chennai - 600073, Dist.Chennai, Tamil Nadu",8048984833,
"Healthcare Electric Breast Pump, FOR HOME",https://www.indiamart.com/proddetail/electric-breast-pump-2854620419230.html?pos=46&kwd=electric breast pump&tags=BB||||8830.079|Price|product|||TS|rsf:gd-|-stype:attr=1|qr_nm:gd|res:RC4|com-cf:nl|ptrs:na|ktp:SA1|mc:224339|mtp:S|qry_typ:P|lang:en|wc:3|cs:8959|v=4,S3 Enterprises,https://www.indiamart.com/s3enterprises-vellore/?pos=46&kwd=electric breast pump&tags=BB||||8830.079|Price|product|||TS|rsf:gd-|-stype:attr=1|qr_nm:gd|res:RC4|com-cf:nl|ptrs:na|ktp:SA1|mc:224339|mtp:S|qry_typ:P|lang:en|wc:3|cs:8959|v=4,False,Kasturba Nagar,Vellore,"I Floor, 37/66, Murugappan Street, Abt Parcel Services, Arakonam, Ranipet, Kasturba Nagar, Vellore - 631001, Dist.Vellore, Tamil Nadu",8047309651,
Electric Breast Pump,https://www.indiamart.com/proddetail/electric-breast-pump-2853721792955.html?pos=47&kwd=electric breast pump&tags=BA||||8752.144|Price|product|||TS|rsf:gd-|-stype:attr=1|qr_nm:gd|res:RC4|com-cf:nl|ptrs:na|ktp:SA1|mc:224339|mtp:S|qry_typ:P|lang:en|wc:3|cs:8959|v=4,Lord Krishna Surgicals,https://www.indiamart.com/lordkrishnasurgicals/?pos=47&kwd=electric breast pump&tags=BA||||8752.144|Price|product|||TS|rsf:gd-|-stype:attr=1|qr_nm:gd|res:RC4|com-cf:nl|ptrs:na|ktp:SA1|mc:224339|mtp:S|qry_typ:P|lang:en|wc:3|cs:8959|v=4,False,Chandni Chowk,New Delhi,"G/f, 1933 Pvt, S.no. 16 Gf Argara, Fountain, Mohan Bazar Chandni Chowk, Chandni Chowk, New Delhi - 110006, Dist.Delhi, Delhi",8047693362,
"Double Electric Breast Pump, For Baby Feeding",https://www.indiamart.com/proddetail/double-electric-breast-pump-2851488718991.html?pos=48&kwd=electric breast pump&tags=BA||||8228.275|Price|product|||TS|rsf:gd-|-stype:attr=1|qr_nm:gd|res:RC4|com-cf:nl|ptrs:na|ktp:SA1|mc:224339|mtp:S|qry_typ:P|lang:en|wc:3|cs:8959|v=4,Syga Home Furnishing,https://www.indiamart.com/sygahomefurnishing/?pos=48&kwd=electric breast pump&tags=BA||||8228.275|Price|product|||TS|rsf:gd-|-stype:attr=1|qr_nm:gd|res:RC4|com-cf:nl|ptrs:na|ktp:SA1|mc:224339|mtp:S|qry_typ:P|lang:en|wc:3|cs:8959|v=4,False,Navrangpura,Ahmedabad,"A-503, Samudra Complex, Near Girish Cold Drinks C. G. Road, Navrangpura, Navrangpura, Ahmedabad - 380009, Dist.Ahmedabad, Gujarat",8048985837,
"Manual Breast Pump Electric, For High Pressure Feeding, Se 1300",https://www.indiamart.com/proddetail/breast-pump-electric-2854581943730.html?pos=49&kwd=electric breast pump&tags=BA||||8038.093||product|||TS|rsf:gd-|-stype:attr=1|qr_nm:gd|res:RC4|com-cf:nl|ptrs:na|ktp:SA1|mc:224339|mtp:S|qry_typ:P|lang:en|wc:3|cs:8959|v=4,Western Surgical,https://www.indiamart.com/western-surgical/?pos=49&kwd=electric breast pump&tags=BA||||8038.093||product|||TS|rsf:gd-|-stype:attr=1|qr_nm:gd|res:RC4|com-cf:nl|ptrs:na|ktp:SA1|mc:224339|mtp:S|qry_typ:P|lang:en|wc:3|cs:8959|v=4,False,Rajkot Municipal Corporation,Rajkot,"Happy Home, 1st Floor, No. 23, Karanpara Behind Rajkot Municipal Corporation, Kanak Road, Rajkot Municipal Corporation, Rajkot - 360001, Dist.Rajkot, Gujarat",8048983915,
"Electric Breast Pump, dhbp081",https://www.indiamart.com/proddetail/electric-breast-pump-27371777512.html?pos=50&kwd=electric breast pump&tags=BA||||8752.144|Price|product|||TS|rsf:gd-|-stype:attr=1|qr_nm:gd|res:RC4|com-cf:nl|ptrs:na|ktp:SA1|mc:224339|mtp:S|qry_typ:P|lang:en|wc:3|cs:8959|v=4,Manu Shree Surgical Udyog,https://www.medwear.in/?pos=50&kwd=electric breast pump&tags=BA||||8752.144|Price|product|||TS|rsf:gd-|-stype:attr=1|qr_nm:gd|res:RC4|com-cf:nl|ptrs:na|ktp:SA1|mc:224339|mtp:S|qry_typ:P|lang:en|wc:3|cs:8959|v=4,False,Patel Nagar,New Delhi,"C-19, West Patel Nagar, Patel Nagar, New Delhi - 110008, Dist.Delhi, Delhi",7942544025,
Electric Breast Pump,https://www.indiamart.com/proddetail/electric-breast-pump-25441160197.html?pos=51&kwd=electric breast pump&tags=BA||||8786.56|Price|product|||TS|rsf:gd-|-stype:attr=1|qr_nm:gd|res:RC4|com-cf:nl|ptrs:na|ktp:SA1|mc:224339|mtp:S|qry_typ:P|lang:en|wc:3|cs:8959|v=4,Prakar Enterprises,https://www.prakarenterprises.com/?pos=51&kwd=electric breast pump&tags=BA||||8786.56|Price|product|||TS|rsf:gd-|-stype:attr=1|qr_nm:gd|res:RC4|com-cf:nl|ptrs:na|ktp:SA1|mc:224339|mtp:S|qry_typ:P|lang:en|wc:3|cs:8959|v=4,False,Kothapet,Hyderabad,"13-1-2, Road no.1, Prabhath Nagar, Chaitanyapuri, Kothapet, Hyderabad - 500060, Dist.Hyderabad, Telangana",7942552841,
Electric Breast Pump,https://www.indiamart.com/proddetail/electric-breast-pump-2849596363512.html?pos=52&kwd=electric breast pump&tags=BA||||8752.144|Price|product|||TS|rsf:gd-|-stype:attr=1|qr_nm:gd|res:RC4|com-cf:nl|ptrs:na|ktp:SA1|mc:224339|mtp:S|qry_typ:P|lang:en|wc:3|cs:8959|v=4,Filixtrue,https://www.indiamart.com/filixtrue/?pos=52&kwd=electric breast pump&tags=BA||||8752.144|Price|product|||TS|rsf:gd-|-stype:attr=1|qr_nm:gd|res:RC4|com-cf:nl|ptrs:na|ktp:SA1|mc:224339|mtp:S|qry_typ:P|lang:en|wc:3|cs:8959|v=4,False,Alipur,New Delhi,"House No 2270,,Apni Colony Alipur, Garhi Alipur North West,New Delhi, Alipur, New Delhi - 110036, Dist.Delhi, Delhi",7942793967,
"Fiber Personal Electric Breast Pump, For Boiler Feeding, G1",https://www.indiamart.com/proddetail/electric-breast-pump-23587410962.html?pos=53&kwd=electric breast pump&tags=BA||||8663.873|Price|product|||TS|rsf:gd-|-stype:attr=1|qr_nm:gd|res:RC4|com-cf:nl|ptrs:na|ktp:SA1|mc:224339|mtp:S|qry_typ:P|lang:en|wc:3|cs:8959|v=4,Genev,https://www.genev-als.in/?pos=53&kwd=electric breast pump&tags=BA||||8663.873|Price|product|||TS|rsf:gd-|-stype:attr=1|qr_nm:gd|res:RC4|com-cf:nl|ptrs:na|ktp:SA1|mc:224339|mtp:S|qry_typ:P|lang:en|wc:3|cs:8959|v=4,False,Sahakara Nagar,Bengaluru,"1705, 20th B Cross, C Block, Sahakara Nagar Sahakanagar, Benguluru Urban, Sahakara Nagar, Bengaluru - 560092, Dist.Bengaluru, Karnataka",8046076643,
"Electric Breast Pump, Model Name/Number: Ready Baby Intellisense",https://www.indiamart.com/proddetail/electric-breast-pump-21230382033.html?pos=54&kwd=electric breast pump&tags=BB||||9572.14|Price|product|||TS|rsf:gd-|-stype:attr=1|qr_nm:gd|res:RC4|com-cf:nl|ptrs:na|ktp:SA1|mc:224339|mtp:S|qry_typ:P|lang:en|wc:3|cs:8959|v=4,Sourya Medical Systems,https://www.indiamart.com/sourya-medicalsystems/?pos=54&kwd=electric breast pump&tags=BB||||9572.14|Price|product|||TS|rsf:gd-|-stype:attr=1|qr_nm:gd|res:RC4|com-cf:nl|ptrs:na|ktp:SA1|mc:224339|mtp:S|qry_typ:P|lang:en|wc:3|cs:8959|v=4,False,Bhubaneswar Court,Bhubaneswar,"Shop No 26, Ground Floor, Lewis Plaza, Lewis Road, Bhubaneswar, Khordha, Bhubaneswar Court, Bhubaneswar - 751014, Dist.Khorda, Odisha",8048264301,
Electric Breast Pump,https://www.indiamart.com/proddetail/electric-breast-pump-2854155745148.html?pos=55&kwd=electric breast pump&tags=BA||||8954.051|Price|product|||TS|rsf:gd-|-stype:attr=1|qr_nm:gd|res:RC4|com-cf:nl|ptrs:na|ktp:SA1|mc:224339|mtp:S|qry_typ:P|lang:en|wc:3|cs:8959|v=4,Sterling Diagnostics & Therapy Equipments Private Limited,https://www.indiamart.com/sterlingdiagnostics-therapy/?pos=55&kwd=electric breast pump&tags=BA||||8954.051|Price|product|||TS|rsf:gd-|-stype:attr=1|qr_nm:gd|res:RC4|com-cf:nl|ptrs:na|ktp:SA1|mc:224339|mtp:S|qry_typ:P|lang:en|wc:3|cs:8959|v=4,False,Arumbakkam,Chennai,"F2-B, Raksha Towers, No. 600/601, P. H. Road, Arumbakkam, Chennai - 600106, Dist.Chennai, Tamil Nadu",8046071223,
"Electric Breast Pump, BSH200062",https://www.indiamart.com/proddetail/electric-breast-pump-2850214950491.html?pos=56&kwd=electric breast pump&tags=BA||||8996.244|Price|product|||TS|rsf:gd-|-stype:attr=1|qr_nm:gd|res:RC4|com-cf:nl|ptrs:na|ktp:SA1|mc:224339|mtp:S|qry_typ:P|lang:en|wc:3|cs:8959|v=4,Memtech Innovation,https://www.indiamart.com/memtech-innovation/?pos=56&kwd=electric breast pump&tags=BA||||8996.244|Price|product|||TS|rsf:gd-|-stype:attr=1|qr_nm:gd|res:RC4|com-cf:nl|ptrs:na|ktp:SA1|mc:224339|mtp:S|qry_typ:P|lang:en|wc:3|cs:8959|v=4,False,Gondia Bazar,Gondia,"Gani Bazar, Gondia, Gondia Bazar, Gondia - 441601, Dist.Gondia, Maharashtra",8047789252,
Electric Breast Pump,https://www.indiamart.com/proddetail/electric-breast-pump-21302636291.html?pos=57&kwd=electric breast pump&tags=BA||||8785.791|Price|product|||TS|rsf:gd-|-stype:attr=1|qr_nm:gd|res:RC4|com-cf:nl|ptrs:na|ktp:SA1|mc:224339|mtp:S|qry_typ:P|lang:en|wc:3|cs:8959|v=4,Global Healthcare,https://www.indiamart.com/globalhealthcare-ghaziabad/?pos=57&kwd=electric breast pump&tags=BA||||8785.791|Price|product|||TS|rsf:gd-|-stype:attr=1|qr_nm:gd|res:RC4|com-cf:nl|ptrs:na|ktp:SA1|mc:224339|mtp:S|qry_typ:P|lang:en|wc:3|cs:8959|v=4,False,Sahibabad,Ghaziabad,"Ground Floor, E-35/c, Lajpat Nagar, Sahibabad, Sahibabad, Ghaziabad - 201005, Dist.Ghaziabad, Uttar Pradesh",8047639745,
Medigold SE-1300 Electric Breast Pump,https://www.indiamart.com/proddetail/medigold-se-1300-electric-breast-pump-25698810997.html?pos=58&kwd=electric breast pump&tags=BB||||8752.144|Price|product|||TS|rsf:gd-|-stype:attr=1|qr_nm:gd|res:RC4|com-cf:nl|ptrs:na|ktp:SA1|mc:224339|mtp:S|qry_typ:P|lang:en|wc:3|cs:8959|v=4,JAS Enterprises,https://www.indiamart.com/jasenterprisesnewdelhi/?pos=58&kwd=electric breast pump&tags=BB||||8752.144|Price|product|||TS|rsf:gd-|-stype:attr=1|qr_nm:gd|res:RC4|com-cf:nl|ptrs:na|ktp:SA1|mc:224339|mtp:S|qry_typ:P|lang:en|wc:3|cs:8959|v=4,False,Chandni Chowk,New Delhi,"1521-A Bhagirath Palace Chandni Chowk, Chandni Chowk, New Delhi - 110006, Dist.Delhi, Delhi",8047658253,
Niscomed Electric Breast Pump,https://www.indiamart.com/proddetail/niscomed-electric-breast-pump-22440132291.html?pos=59&kwd=electric breast pump&tags=BB||||8954.051|Price|product|||TS|rsf:gd-|-stype:attr=1|qr_nm:gd|res:RC4|com-cf:nl|ptrs:na|ktp:SA1|mc:224339|mtp:S|qry_typ:P|lang:en|wc:3|cs:8959|v=4,Surya Surgical Industries,https://www.indiamart.com/suryasurgicalindustries/?pos=59&kwd=electric breast pump&tags=BB||||8954.051|Price|product|||TS|rsf:gd-|-stype:attr=1|qr_nm:gd|res:RC4|com-cf:nl|ptrs:na|ktp:SA1|mc:224339|mtp:S|qry_typ:P|lang:en|wc:3|cs:8959|v=4,False,Chetput,Chennai,"No. 69, Old No. 67, M C Nichols Road, Chetput, Chennai - 600031, Dist.Chennai, Tamil Nadu",8048976119,
Medela Electric Breast Pump,https://www.indiamart.com/proddetail/medela-electric-breast-pump-23168617262.html?pos=60&kwd=electric breast pump&tags=BA||||8223.226|Price|product|||TS|rsf:gd-|-stype:attr=1|qr_nm:gd|res:RC4|com-cf:nl|ptrs:na|ktp:SA1|mc:224339|mtp:S|qry_typ:P|lang:en|wc:3|cs:8959|v=4,Service One,https://www.indiamart.com/service-one-thane/?pos=60&kwd=electric breast pump&tags=BA||||8223.226|Price|product|||TS|rsf:gd-|-stype:attr=1|qr_nm:gd|res:RC4|com-cf:nl|ptrs:na|ktp:SA1|mc:224339|mtp:S|qry_typ:P|lang:en|wc:3|cs:8959|v=4,False,Mira Road,Thane,"Office No. 6, Sandstone Apartment, Near Mira Road East, Mira Road, Thane - 401107, Dist.Thane, Maharashtra",8046069372,
"Kitett FISIO Electric Breast Pump, For High Pressure Feeding",https://www.indiamart.com/proddetail/kitett-fisio-electric-breast-pump-2851516693030.html?pos=61&kwd=electric breast pump&tags=BB||||8211.142|Price|product|||TS|rsf:gd-|-stype:attr=1|qr_nm:gd|res:RC4|com-cf:nl|ptrs:na|ktp:SA1|mc:224339|mtp:S|qry_typ:P|lang:en|wc:3|cs:8959|v=4,Seward Systems Inc,https://www.indiamart.com/seward-systems/?pos=61&kwd=electric breast pump&tags=BB||||8211.142|Price|product|||TS|rsf:gd-|-stype:attr=1|qr_nm:gd|res:RC4|com-cf:nl|ptrs:na|ktp:SA1|mc:224339|mtp:S|qry_typ:P|lang:en|wc:3|cs:8959|v=4,False,Borivali East,Mumbai,"No. 302, Triveni Krupa Building, Carter Road, No. 3, Borivali East, Mumbai - 400066, Dist.Mumbai, Maharashtra",8048602086,
Breast Pump Electric pigeon,https://www.indiamart.com/proddetail/breast-pump-electric-pigeon-23887481355.html?pos=62&kwd=electric breast pump&tags=BA||||8785.791|Price|product|||TS|rsf:gd-|-stype:attr=1|qr_nm:gd|res:RC4|com-cf:nl|ptrs:na|ktp:SA1|mc:224339|mtp:S|qry_typ:P|lang:en|wc:3|cs:8959|v=4,Medi Life Products & Services,https://www.medilifeproducts.com/?pos=62&kwd=electric breast pump&tags=BA||||8785.791|Price|product|||TS|rsf:gd-|-stype:attr=1|qr_nm:gd|res:RC4|com-cf:nl|ptrs:na|ktp:SA1|mc:224339|mtp:S|qry_typ:P|lang:en|wc:3|cs:8959|v=4,False,Vaishali,Ghaziabad,"588, Shop No. 1, Sector-1, Near Max Super Specialist Hospital, Vaishali, Vaishali, Ghaziabad - 201010, Dist.Ghaziabad, Uttar Pradesh",8048605701,
"Beurer Electric Breast Pump, For High Pressure Feeding, By 40",https://www.indiamart.com/proddetail/beurer-electric-breast-pump-23469031648.html?pos=63&kwd=electric breast pump&tags=BA||||9572.14|Price|product|||TS|rsf:gd-|-stype:attr=1|qr_nm:gd|res:RC4|com-cf:nl|ptrs:na|ktp:SA1|mc:224339|mtp:S|qry_typ:P|lang:en|wc:3|cs:8959|v=4,Susama Agencies,https://www.indiamart.com/susama-agencies/?pos=63&kwd=electric breast pump&tags=BA||||9572.14|Price|product|||TS|rsf:gd-|-stype:attr=1|qr_nm:gd|res:RC4|com-cf:nl|ptrs:na|ktp:SA1|mc:224339|mtp:S|qry_typ:P|lang:en|wc:3|cs:8959|v=4,False,Saheed Nagar,Bhubaneswar,"Plot No. - A/151, Ground Floor, Saheed Nagar, Near Sparsh Hospital, Saheed Nagar, Bhubaneswar - 751007, Dist.Khorda, Odisha",8046064198,
Electric Breast Pump Imported,,Bharat Surgical Co.,https://www.indiamart.com/bharatsurgicalcompany/?pos=64&kwd=electric breast pump&tags=BA||||8741.812|Price|product|||TS|rsf:gd-|-stype:attr=1|qr_nm:gd|res:RC4|com-cf:nl|ptrs:na|ktp:SA1|mc:224339|mtp:S|qry_typ:P|lang:en|wc:3|cs:8959|v=4,False,Basai Road,Gurgaon,"Plot No.38, Street No 2, Govindpuri Basai Road, Basai Road, Gurgaon - 122001, Dist.Gurgaon, Haryana",8047655655,
"Mehar Electric Breast Pump, For Industrial",https://www.indiamart.com/proddetail/mehar-electric-breast-pump-2849363950591.html?pos=65&kwd=electric breast pump&tags=BA||||8752.144|Price|product|||TS|rsf:gd-|-stype:attr=1|qr_nm:gd|res:RC4|com-cf:nl|ptrs:na|ktp:SA1|mc:224339|mtp:S|qry_typ:P|lang:en|wc:3|cs:8959|v=4,Krishna Surgical,https://www.krishnasurgicalbp.com/?pos=65&kwd=electric breast pump&tags=BA||||8752.144|Price|product|||TS|rsf:gd-|-stype:attr=1|qr_nm:gd|res:RC4|com-cf:nl|ptrs:na|ktp:SA1|mc:224339|mtp:S|qry_typ:P|lang:en|wc:3|cs:8959|v=4,False,Chandni Chowk,New Delhi,"1933/9, Mohan Bazar, Bhagirath Palace, North Delhi, Chandni Chowk, New Delhi - 110006, Dist.Delhi, Delhi",7942786926,
"Smart Care Electric Breast Pump, Model Name/Number: HL-0823",https://www.indiamart.com/proddetail/smart-care-electric-breast-pump-20952606788.html?pos=66&kwd=electric breast pump&tags=BA||||8559.269|Price|product|||TS|rsf:gd-|-stype:attr=1|qr_nm:gd|res:RC4|com-cf:nl|ptrs:na|ktp:SA1|mc:224339|mtp:S|qry_typ:P|lang:en|wc:3|cs:8959|v=4,Saify Traders,https://www.saifygroup.com/?pos=66&kwd=electric breast pump&tags=BA||||8559.269|Price|product|||TS|rsf:gd-|-stype:attr=1|qr_nm:gd|res:RC4|com-cf:nl|ptrs:na|ktp:SA1|mc:224339|mtp:S|qry_typ:P|lang:en|wc:3|cs:8959|v=4,False,Gadi Adda,Indore,"14/1 - Gali No.1 Dawa Bazaar R.N.T Marg, Gadi Adda, Indore - 452001, Dist.Indore, Madhya Pradesh",8048967969,
Luvlap Elite Electric Breast Pump,https://www.indiamart.com/proddetail/luvlap-elite-electric-breast-pump-25905973873.html?pos=67&kwd=electric breast pump&tags=BA||||8706.587|Price|product|||TS|rsf:gd-|-stype:attr=1|qr_nm:gd|res:RC4|com-cf:nl|ptrs:na|ktp:SA1|mc:224339|mtp:S|qry_typ:P|lang:en|wc:3|cs:8959|v=4,Sri Vela Pharmacy,https://www.srivelapharmacy.in/?pos=67&kwd=electric breast pump&tags=BA||||8706.587|Price|product|||TS|rsf:gd-|-stype:attr=1|qr_nm:gd|res:RC4|com-cf:nl|ptrs:na|ktp:SA1|mc:224339|mtp:S|qry_typ:P|lang:en|wc:3|cs:8959|v=4,False,Anna Nagar,Madurai,"HIG-28, 80 Feet, Main Road, Anna Nagar, Anna Nagar, Madurai - 625020, Dist.Madurai, Tamil Nadu",8048617702,
Philips Avent electric Breast Pump,https://www.indiamart.com/proddetail/philips-avent-electric-breast-pump-23825759791.html?pos=68&kwd=electric breast pump&tags=BA||||8307.81|Price|product|||TS|rsf:gd-|-stype:attr=1|qr_nm:gd|res:RC4|com-cf:nl|ptrs:na|ktp:SA1|mc:224339|mtp:S|qry_typ:P|lang:en|wc:3|cs:8959|v=4,R M Pharmaceuticals,https://www.indiamart.com/rm-pharmaceuticals/?pos=68&kwd=electric breast pump&tags=BA||||8307.81|Price|product|||TS|rsf:gd-|-stype:attr=1|qr_nm:gd|res:RC4|com-cf:nl|ptrs:na|ktp:SA1|mc:224339|mtp:S|qry_typ:P|lang:en|wc:3|cs:8959|v=4,True,Sadashiv Peth,Pune,"Malwadi A-103 S No 168/1011 Tupe Nagar Madhav Baug Sadashiv Peth, Sadashiv Peth, Pune - 411028, Dist.Pune, Maharashtra",7942556859,
"Luv Lap Electric Breast Pump, For Feeding",https://www.indiamart.com/proddetail/luv-lap-electric-breast-pump-2851648044191.html?pos=69&kwd=electric breast pump&tags=BA||||8954.051|Price|product|||TS|rsf:gd-|-stype:attr=1|qr_nm:gd|res:RC4|com-cf:nl|ptrs:na|ktp:SA1|mc:224339|mtp:S|qry_typ:P|lang:en|wc:3|cs:8959|v=4,Amos Surgicals,https://www.indiamart.com/amos-health-tech/?pos=69&kwd=electric breast pump&tags=BA||||8954.051|Price|product|||TS|rsf:gd-|-stype:attr=1|qr_nm:gd|res:RC4|com-cf:nl|ptrs:na|ktp:SA1|mc:224339|mtp:S|qry_typ:P|lang:en|wc:3|cs:8959|v=4,False,,Chennai,"129/1 Arcotroad Virugambakkam, Chennai - 600092, Dist.Chennai, Tamil Nadu",8046079606,
"Perfecxa Wearable Electric Breast Pump, For Industrial, VHS-0320",https://www.indiamart.com/proddetail/perfecxa-wearable-electric-breast-pump-25140900012.html?pos=70&kwd=electric breast pump&tags=BA||||8778.123|Price|product|||TS|rsf:gd-|-stype:attr=1|qr_nm:gd|res:RC4|com-cf:nl|ptrs:na|ktp:SA1|mc:224339|mtp:S|qry_typ:P|lang:en|wc:3|cs:8959|v=4,Vertech Health Solutions India Private Limited,https://www.diabascan.com/?pos=70&kwd=electric breast pump&tags=BA||||8778.123|Price|product|||TS|rsf:gd-|-stype:attr=1|qr_nm:gd|res:RC4|com-cf:nl|ptrs:na|ktp:SA1|mc:224339|mtp:S|qry_typ:P|lang:en|wc:3|cs:8959|v=4,False,Sector 1,Noida,"A - 90, Second And Third Floor, Block -A, Sector-80, Sector 1, Noida - 201305, Dist.Gautam Budh Nagar, Uttar Pradesh",8048604526,
"Electric Breast Feeding pump BosmEMP-02, For Normal",https://www.indiamart.com/proddetail/electric-breast-feeding-pump-bosmemp-02-2854008939912.html?pos=71&kwd=electric breast pump&tags=BA||||8752.144|Price|product|||TS|rsf:gd-|-stype:attr=1|qr_nm:gd|res:RC4|com-cf:nl|ptrs:na|ktp:SA1|mc:224339|mtp:S|qry_typ:P|lang:en|wc:3|cs:8959|v=4,Bos Medicare Surgical,https://www.bosmedicare.com/?pos=71&kwd=electric breast pump&tags=BA||||8752.144|Price|product|||TS|rsf:gd-|-stype:attr=1|qr_nm:gd|res:RC4|com-cf:nl|ptrs:na|ktp:SA1|mc:224339|mtp:S|qry_typ:P|lang:en|wc:3|cs:8959|v=4,False,Kishan Ganj,New Delhi,"Shop No 155, Kishan Ganj Market, Old Rohtak Road, Kishan Ganj, Kishan Ganj, New Delhi - 110007, Dist.Delhi, Delhi",7942826425,
"Plastic Dr Odin Electric Breast Pump, For SOFT, OD-302",https://www.indiamart.com/proddetail/dr-odin-electric-breast-pump-2853180303088.html?pos=72&kwd=electric breast pump&tags=BA||||8663.873|Price|product|||TS|rsf:gd-|-stype:attr=1|qr_nm:gd|res:RC4|com-cf:nl|ptrs:na|ktp:SA1|mc:224339|mtp:S|qry_typ:P|lang:en|wc:3|cs:8959|v=4,Surya Speciality Pharma,https://www.indiamart.com/suryaspecialitypharma/?pos=72&kwd=electric breast pump&tags=BA||||8663.873|Price|product|||TS|rsf:gd-|-stype:attr=1|qr_nm:gd|res:RC4|com-cf:nl|ptrs:na|ktp:SA1|mc:224339|mtp:S|qry_typ:P|lang:en|wc:3|cs:8959|v=4,False,Kumaraswamy Layout,Bengaluru,"Ground Floor, No 33, Surya Speciality Pharma, 14th Main, Kumaraswamy Layout, 1st Stage, Kumaraswamy Layout, Bengaluru - 560078, Dist.Bengaluru, Karnataka",7942545026,
Mehar Ready Baby Electric Breast Pump,https://www.indiamart.com/proddetail/mehar-ready-baby-electric-breast-pump-2850516287273.html?pos=73&kwd=electric breast pump&tags=BA||||8693.162||product|||TS|rsf:gd-|-stype:attr=1|qr_nm:gd|res:RC4|com-cf:nl|ptrs:na|ktp:SA1|mc:224339|mtp:S|qry_typ:P|lang:en|wc:3|cs:8959|v=4,National Hospital Suppliers,https://www.indiamart.com/national-hospital-suppliers/?pos=73&kwd=electric breast pump&tags=BA||||8693.162||product|||TS|rsf:gd-|-stype:attr=1|qr_nm:gd|res:RC4|com-cf:nl|ptrs:na|ktp:SA1|mc:224339|mtp:S|qry_typ:P|lang:en|wc:3|cs:8959|v=4,False,Mendonsa Colony,Dindigul,"61A, VMR Patti, Mendonsa Colony, Dindigul - 624005, Dist.Dindigul, Tamil Nadu",7942824059,
Beurer (BY 40) Electric Breast Pump,https://www.indiamart.com/proddetail/beurer-by-40-electric-breast-pump-27310586133.html?pos=74&kwd=electric breast pump&tags=BA||||8507.67|Price|product|||TS|rsf:gd-|-stype:attr=1|qr_nm:gd|res:RC4|com-cf:nl|ptrs:na|ktp:SA1|mc:224339|mtp:S|qry_typ:P|lang:en|wc:3|cs:8959|v=4,Kogland Commerce Private Limited,https://www.indiamart.com/koglandcommerce/?pos=74&kwd=electric breast pump&tags=BA||||8507.67|Price|product|||TS|rsf:gd-|-stype:attr=1|qr_nm:gd|res:RC4|com-cf:nl|ptrs:na|ktp:SA1|mc:224339|mtp:S|qry_typ:P|lang:en|wc:3|cs:8959|v=4,False,Infopark,Ernakulam,"Unit IV B, 2nd Floor, Phase I, Carnival Infopark, Infopark, Kakkand, Infopark, Ernakulam - 682030, Dist.Ernakulam, Kerala",8047306904,
Electric Breast Pump Vacuum Cups Butt Lifting Machine,https://www.indiamart.com/proddetail/electric-breast-pump-vacuum-cups-butt-lifting-machine-2853303015788.html?pos=75&kwd=electric breast pump&tags=BA||||8752.144|Price|product|||TS|rsf:gd-|-stype:attr=1|qr_nm:gd|res:RC4|com-cf:nl|ptrs:na|ktp:SA1|mc:224339|mtp:S|qry_typ:P|lang:en|wc:3|cs:8959|v=4,Solution Forever,https://www.biotronixsolutionforever.com/?pos=75&kwd=electric breast pump&tags=BA||||8752.144|Price|product|||TS|rsf:gd-|-stype:attr=1|qr_nm:gd|res:RC4|com-cf:nl|ptrs:na|ktp:SA1|mc:224339|mtp:S|qry_typ:P|lang:en|wc:3|cs:8959|v=4,False,Kirti Nagar,New Delhi,"F - 400, Sudershan Park, Moti Nagar, Near Gopal Dairy, Kirti Nagar, New Delhi - 110015, Dist.Delhi, Delhi",8048601881,
Rechargeable Electric Breast Massager,https://www.indiamart.com/proddetail/rechargeable-electric-breast-massager-2855024763433.html?pos=76&kwd=electric breast pump&tags=BA||||9097.53|Price|product|||TS|rsf:gd-|-stype:attr=1|qr_nm:gd|res:RC4|com-cf:nl|ptrs:na|ktp:SA1|mc:224339|mtp:S|qry_typ:P|lang:en|wc:3|cs:8959|v=4,My Bear Hugs,https://www.indiamart.com/bear-hugs/?pos=76&kwd=electric breast pump&tags=BA||||9097.53|Price|product|||TS|rsf:gd-|-stype:attr=1|qr_nm:gd|res:RC4|com-cf:nl|ptrs:na|ktp:SA1|mc:224339|mtp:S|qry_typ:P|lang:en|wc:3|cs:8959|v=4,False,,Fatehpur,"44/38,,CHAUDHARANA,Fatehpur Ist Floor 44/38 Chaudharana,212601,, Fatehpur - 212601, Uttar Pradesh",,
"Carum True Hospital Breast Pump, For Hospital- Mother Feeding Rooms",https://www.indiamart.com/proddetail/carum-true-hospital-breast-pump-2850783265030.html?pos=77&kwd=electric breast pump&tags=BA||||8747.203|Price|product|||TS|rsf:gd-|-stype:attr=1|qr_nm:gd|res:RC4|com-cf:nl|ptrs:na|ktp:SA1|mc:224339|mtp:S|qry_typ:P|lang:en|wc:3|cs:8959|v=4,I. S. Healthcare Services,https://www.ishealthcare.in/?pos=77&kwd=electric breast pump&tags=BA||||8747.203|Price|product|||TS|rsf:gd-|-stype:attr=1|qr_nm:gd|res:RC4|com-cf:nl|ptrs:na|ktp:SA1|mc:224339|mtp:S|qry_typ:P|lang:en|wc:3|cs:8959|v=4,False,Sat Kartar Nagar,Panipat,"Mukhija Colony, Near Refinery Byepass, Near Deshwal Petrol Pump,, Sat Kartar Nagar, Panipat - 132103, Dist.Panipat, Haryana",8048965841,
Manual Breast Pump LD-101 And LD-202,https://www.indiamart.com/proddetail/manual-breast-pump-ld-101-and-ld-202-2854255534833.html?pos=78&kwd=electric breast pump&tags=BA||||8752.144|Price|product|||TS|rsf:gd-|-stype:attr=1|qr_nm:gd|res:RC4|com-cf:nl|ptrs:na|ktp:SA1|mc:224339|mtp:S|qry_typ:P|lang:en|wc:3|cs:8959|v=4,Ayansh Trading Private Limited,https://www.kartzons.in/?pos=78&kwd=electric breast pump&tags=BA||||8752.144|Price|product|||TS|rsf:gd-|-stype:attr=1|qr_nm:gd|res:RC4|com-cf:nl|ptrs:na|ktp:SA1|mc:224339|mtp:S|qry_typ:P|lang:en|wc:3|cs:8959|v=4,False,96979-88399 Azad Nagar,New Delhi,"72/1, Gali No 9, West Azad Nagar, East Delhi, 96979-88399 Azad Nagar, New Delhi - 110051, Dist.Delhi, Delhi",8047845326,
Electric breast pump,https://www.indiamart.com/proddetail/electric-breast-pump-2854221198062.html?pos=79&kwd=electric breast pump&tags=BA||||8230.883|Price|product|||MDC|rsf:gd-|-stype:attr=1|qr_nm:gd|res:RC4|com-cf:nl|ptrs:na|ktp:SA1|mc:224339|mtp:S|qry_typ:P|lang:en|wc:3|cs:8959|v=4,Krishnaben Rameshbhai Patoliya,https://www.indiamart.com/krishnabenrameshbhaipatoliya/?pos=79&kwd=electric breast pump&tags=BA||||8230.883|Price|product|||MDC|rsf:gd-|-stype:attr=1|qr_nm:gd|res:RC4|com-cf:nl|ptrs:na|ktp:SA1|mc:224339|mtp:S|qry_typ:P|lang:en|wc:3|cs:8959|v=4,False,,Surat,"Third Floor, Block No.75, Plot No.18, Navapara Ind Estate, Mangrol, Mota Borsara, Surat - 394110, Dist.Surat, Gujarat",8045736753,
"Next Mamas Electric Breast Pump, For High Pressure Feeding, WZ-602",https://www.indiamart.com/proddetail/electric-breast-pump-2852779400855.html?pos=80&kwd=electric breast pump&tags=BA||||8752.144|Price|product|||MDC|rsf:gd-|-stype:attr=1|qr_nm:gd|res:RC4|com-cf:nl|ptrs:na|ktp:SA1|mc:224339|mtp:S|qry_typ:P|lang:en|wc:3|cs:8959|v=4,P. K. Traders,https://www.indiamart.com/p-k-tradersdelhi/?pos=80&kwd=electric breast pump&tags=BA||||8752.144|Price|product|||MDC|rsf:gd-|-stype:attr=1|qr_nm:gd|res:RC4|com-cf:nl|ptrs:na|ktp:SA1|mc:224339|mtp:S|qry_typ:P|lang:en|wc:3|cs:8959|v=4,False,Shahdara,New Delhi,"First Floor, Shop No.1, 1/11955-B/11, Panchsheel Garden, Naveen Shahdara New, Shahdara, New Delhi - 110032, Dist.Delhi, Delhi",8047529449,
"Electric Breast Pump, For Baby",https://www.indiamart.com/proddetail/electric-breast-pump-26527466712.html?pos=81&kwd=electric breast pump&tags=BA||||8823.343|Price|product|||MDC|rsf:gd-|-stype:attr=1|qr_nm:gd|res:RC4|com-cf:nl|ptrs:na|ktp:SA1|mc:224339|mtp:S|qry_typ:P|lang:en|wc:3|cs:8959|v=4,Radha Medicals/Radha Medical & General Stores,https://www.indiamart.com/radhamedicalsradhamedicalgeneralstores/?pos=81&kwd=electric breast pump&tags=BA||||8823.343|Price|product|||MDC|rsf:gd-|-stype:attr=1|qr_nm:gd|res:RC4|com-cf:nl|ptrs:na|ktp:SA1|mc:224339|mtp:S|qry_typ:P|lang:en|wc:3|cs:8959|v=4,False,,Wardha,"Ingole Chowk, Main Road,, Wardha - 442001, Dist.Wardha, Maharashtra",8044456270,
"Electric Breast Pump, For High Pressure Feeding",https://www.indiamart.com/proddetail/electric-breast-pump-2853166464691.html?pos=82&kwd=electric breast pump&tags=BB||||8778.123|Price|product|||MDC|rsf:gd-|-stype:attr=1|qr_nm:gd|res:RC4|com-cf:nl|ptrs:na|ktp:SA1|mc:224339|mtp:S|qry_typ:P|lang:en|wc:3|cs:8959|v=4,Medicare Surgicals,https://www.indiamart.com/medicare-surgicals/?pos=82&kwd=electric breast pump&tags=BB||||8778.123|Price|product|||MDC|rsf:gd-|-stype:attr=1|qr_nm:gd|res:RC4|com-cf:nl|ptrs:na|ktp:SA1|mc:224339|mtp:S|qry_typ:P|lang:en|wc:3|cs:8959|v=4,False,Sector 6,Noida,"B-115 Sector 65, B Block, Sector 6, Noida - 201301, Dist.Gautam Budh Nagar, Uttar Pradesh",7942570485,
Electric Breast Pump,https://www.indiamart.com/proddetail/electric-breast-pump-2854671384297.html?pos=83&kwd=electric breast pump&tags=BA||||8752.144|Price|product|||MDC|rsf:gd-|-stype:attr=1|qr_nm:gd|res:RC4|com-cf:nl|ptrs:na|ktp:SA1|mc:224339|mtp:S|qry_typ:P|lang:en|wc:3|cs:8959|v=4,Restine Medical Equipment And Devices Private Limited,https://www.indiamart.com/restinemedical-equipmentdevices/?pos=83&kwd=electric breast pump&tags=BA||||8752.144|Price|product|||MDC|rsf:gd-|-stype:attr=1|qr_nm:gd|res:RC4|com-cf:nl|ptrs:na|ktp:SA1|mc:224339|mtp:S|qry_typ:P|lang:en|wc:3|cs:8959|v=4,False,,New Delhi,"D-458, F/F Pul Pehladpur, South Dehli, New Delhi - 110044, Dist.Delhi, Delhi",7949330303,
Electric Breast Pump,https://www.indiamart.com/proddetail/electric-breast-pump-2853406430562.html?pos=84&kwd=electric breast pump&tags=BA||||8752.144|Price|product|||MDC|rsf:gd-|-stype:attr=1|qr_nm:gd|res:RC4|com-cf:nl|ptrs:na|ktp:SA1|mc:224339|mtp:S|qry_typ:P|lang:en|wc:3|cs:8959|v=4,SW Health Care Private Limited,https://www.indiamart.com/sw-healthcare/?pos=84&kwd=electric breast pump&tags=BA||||8752.144|Price|product|||MDC|rsf:gd-|-stype:attr=1|qr_nm:gd|res:RC4|com-cf:nl|ptrs:na|ktp:SA1|mc:224339|mtp:S|qry_typ:P|lang:en|wc:3|cs:8959|v=4,False,Bawana,New Delhi,"Ground Floor Pocket I, Sec-4, Plot No 50, Bawana DSIDC, Near Ganga Toli Mandir, Bawana, New Delhi - 110039, Dist.Delhi, Delhi",7949224070,
"Luvlap Electric Breast Pump, For High Pressure Feeding",https://www.indiamart.com/proddetail/luvlap-electric-breast-pump-2854259039697.html?pos=85&kwd=electric breast pump&tags=BA||||8706.587|Price|product|||MDC|rsf:gd-|-stype:attr=1|qr_nm:gd|res:RC4|com-cf:nl|ptrs:na|ktp:SA1|mc:224339|mtp:S|qry_typ:P|lang:en|wc:3|cs:8959|v=4,Bawaa Medicals,https://www.indiamart.com/bawaa-medicals-madurai/?pos=85&kwd=electric breast pump&tags=BA||||8706.587|Price|product|||MDC|rsf:gd-|-stype:attr=1|qr_nm:gd|res:RC4|com-cf:nl|ptrs:na|ktp:SA1|mc:224339|mtp:S|qry_typ:P|lang:en|wc:3|cs:8959|v=4,False,,Madurai,"24 25, American College Complex, Goripalayam, Madurai - 625002, Dist.Madurai, Tamil Nadu",8047850991,
"Medela Lactina Electric Breastpump, For High Pressure Feeding",https://www.indiamart.com/proddetail/medela-lactina-electric-breastpump-2853345948448.html?pos=86&kwd=electric breast pump&tags=BA||||8601.347|Price|product|||TS|rsf:gd-|-stype:attr=1|qr_nm:gd|res:RC4|com-cf:nl|ptrs:na|ktp:SA1|mc:224339|mtp:S|qry_typ:P|lang:en|wc:3|cs:8959|v=4,Pioneer Medical Devices,https://www.indiamart.com/pioneermedicaldevices/?pos=86&kwd=electric breast pump&tags=BA||||8601.347|Price|product|||TS|rsf:gd-|-stype:attr=1|qr_nm:gd|res:RC4|com-cf:nl|ptrs:na|ktp:SA1|mc:224339|mtp:S|qry_typ:P|lang:en|wc:3|cs:8959|v=4,False,Rajasthan Police Academy,Jaipur,"Shop No. 41-42, Kalptaru Shopping Center, Rajasthan Police Academy, Jaipur - 302023, Dist.Jaipur, Rajasthan",8047674856,
"Luvlap Adore Electric Breast Pump, For High Pressure Feeding",https://www.indiamart.com/proddetail/luvlap-adore-electric-breast-pump-2854168096273.html?pos=87&kwd=electric breast pump&tags=BA||||8788.382|Price|product|||MDC|rsf:gd-|-stype:attr=1|qr_nm:gd|res:RC4|com-cf:nl|ptrs:na|ktp:SA1|mc:224339|mtp:S|qry_typ:P|lang:en|wc:3|cs:8959|v=4,Health4u,https://www.indiamart.com/health4u-greaternoida/?pos=87&kwd=electric breast pump&tags=BA||||8788.382|Price|product|||MDC|rsf:gd-|-stype:attr=1|qr_nm:gd|res:RC4|com-cf:nl|ptrs:na|ktp:SA1|mc:224339|mtp:S|qry_typ:P|lang:en|wc:3|cs:8959|v=4,False,,Greater Noida,"Shop No-5, H No-3, Pandat Complex, Ram Shyam Enclave, Chipiyana Buzurg,, Greater Noida - 201306, Dist.Gautam Budh Nagar, Uttar Pradesh",8045731446,
Pigeon Electric Portable Breast Pump,https://www.indiamart.com/proddetail/pigeon-electric-portable-breast-pump-2852306767891.html?pos=88&kwd=electric breast pump&tags=BA||||8307.81|Price|product|||MDC|rsf:gd-|-stype:attr=1|qr_nm:gd|res:RC4|com-cf:nl|ptrs:na|ktp:SA1|mc:224339|mtp:S|qry_typ:P|lang:en|wc:3|cs:8959|v=4,Bhavana Agency,https://www.indiamart.com/bhavana-agency/?pos=88&kwd=electric breast pump&tags=BA||||8307.81|Price|product|||MDC|rsf:gd-|-stype:attr=1|qr_nm:gd|res:RC4|com-cf:nl|ptrs:na|ktp:SA1|mc:224339|mtp:S|qry_typ:P|lang:en|wc:3|cs:8959|v=4,False,Sadashiv Peth,Pune,"S No 4, 841/1, Asset Gold, Sadashiv Peth, Sadashiv Peth, Pune - 411030, Dist.Pune, Maharashtra",8047788291,
"Next Mamas Electric Breast Pump, For High Pressure Feeding, WZ-602",https://www.indiamart.com/proddetail/electric-breast-pump-2852779400855.html?pos=89&kwd=electric breast pump&tags=BA||||8752.144|Price|product|||MDC|rsf:gd-|-stype:attr=1|qr_nm:gd|res:RC4|com-cf:nl|ptrs:na|ktp:SA1|mc:224339|mtp:S|qry_typ:P|lang:en|wc:3|cs:8959|v=4,P. K. Traders,https://www.indiamart.com/p-k-tradersdelhi/?pos=89&kwd=electric breast pump&tags=BA||||8752.144|Price|product|||MDC|rsf:gd-|-stype:attr=1|qr_nm:gd|res:RC4|com-cf:nl|ptrs:na|ktp:SA1|mc:224339|mtp:S|qry_typ:P|lang:en|wc:3|cs:8959|v=4,False,Shahdara,New Delhi,"First Floor, Shop No.1, 1/11955-B/11, Panchsheel Garden, Naveen Shahdara New, Shahdara, New Delhi - 110032, Dist.Delhi, Delhi",8047529449,
"Breast Pump Minikit Solo, KMKS24L-N1",https://www.indiamart.com/proddetail/minikit-solo-2854395725197.html?pos=90&kwd=electric breast pump&tags=BA||||8746.929|Price|product|||SSnp|rsf:gd-|-stype:attr=1|qr_nm:gd|res:RC4|com-cf:nl|ptrs:na|ktp:SA1|mc:224339|mtp:S|qry_typ:P|lang:en|wc:3|cs:8959|v=4,Sanrai Retail,https://www.indiamart.com/sanrai-retail/?pos=90&kwd=electric breast pump&tags=BA||||8746.929|Price|product|||SSnp|rsf:gd-|-stype:attr=1|qr_nm:gd|res:RC4|com-cf:nl|ptrs:na|ktp:SA1|mc:224339|mtp:S|qry_typ:P|lang:en|wc:3|cs:8959|v=4,False,Industrial Area Phase 1,Chandigarh,"Plot No. 339, First Floor, Industrial Area, Phase 2, Industrial Area Phase 1, Chandigarh - 160002, Chandigarh",8046058723,
Electric Breast Massager Bra,https://www.indiamart.com/proddetail/electric-breast-massager-bra-2853224911697.html?pos=91&kwd=electric breast pump&tags=BA||||8230.883|Price|product|||MDC|rsf:gd-|-stype:attr=1|qr_nm:gd|res:RC4|com-cf:nl|ptrs:na|ktp:SA1|mc:224339|mtp:S|qry_typ:P|lang:en|wc:3|cs:8959|v=4,Jay Dwarkadhish Enterprise,https://www.indiamart.com/jay-dwarkadhish-enterprisesurat/?pos=91&kwd=electric breast pump&tags=BA||||8230.883|Price|product|||MDC|rsf:gd-|-stype:attr=1|qr_nm:gd|res:RC4|com-cf:nl|ptrs:na|ktp:SA1|mc:224339|mtp:S|qry_typ:P|lang:en|wc:3|cs:8959|v=4,False,Singanpor,Surat,"4th Floor Flat No 405 Plot No 831 To 835 Singanpore Opp ryam Residency, Shreehari General Store, Singanpor, Surat, Singanpor, Surat - 395004, Dist.Surat, Gujarat",7942784094,
ACCUSURE ELECTRIC BREST PUMP,,R B Health Care Pharma And Surgical,https://www.indiamart.com/rbhealth-care-pharmasurgical/?pos=92&kwd=electric breast pump&tags=BB||||8954.051|Price|product|||MDC|rsf:gd-|-stype:attr=1|qr_nm:gd|res:RC4|com-cf:nl|ptrs:na|ktp:SA1|mc:224339|mtp:S|qry_typ:P|lang:en|wc:3|cs:8959|v=4,False,,Chennai,"Ground Floor, 2/311, Kandaswamy Nagar, 5 TH Cross Street, Chennai - 600041, Dist.Chennai, Tamil Nadu",8044560975,
"PSR-513A Automatic Milk Feeding Pumps, BPA Free, Portable, Electric Breast Pump - Electric",https://www.indiamart.com/proddetail/psr-513a-automatic-milk-feeding-pumps-bpa-free-portable-electric-breast-pump-electric-2854892538312.html?pos=93&kwd=electric breast pump&tags=BB||||8752.144|Price|product|||MDC|rsf:gd-|-stype:attr=1|qr_nm:gd|res:RC4|com-cf:nl|ptrs:na|ktp:SA1|mc:224339|mtp:S|qry_typ:P|lang:en|wc:3|cs:8959|v=4,PSR Enterprises,https://www.indiamart.com/psr-enterprises-newdelhi/?pos=93&kwd=electric breast pump&tags=BB||||8752.144|Price|product|||MDC|rsf:gd-|-stype:attr=1|qr_nm:gd|res:RC4|com-cf:nl|ptrs:na|ktp:SA1|mc:224339|mtp:S|qry_typ:P|lang:en|wc:3|cs:8959|v=4,False,,New Delhi,"Ground Floor, House No 24/21, Master Mohalla Libaspur, Street No 6, North Delhi, New Delhi - 110042, Dist.Delhi, Delhi",7949324002,
"Box Perfecxa Intelligent Automatic Double Breast Pump, For High Pressure Feeding",https://www.indiamart.com/proddetail/perfecxa-intelligent-automatic-double-breast-pump-2854138347062.html?pos=94&kwd=electric breast pump&tags=BA||||8307.81|Price|product|||MDC|rsf:gd-|-stype:attr=1|qr_nm:gd|res:RC4|com-cf:nl|ptrs:na|ktp:SA1|mc:224339|mtp:S|qry_typ:P|lang:en|wc:3|cs:8959|v=4,Siddhi Agency,https://www.indiamart.com/siddhi-agency/?pos=94&kwd=electric breast pump&tags=BA||||8307.81|Price|product|||MDC|rsf:gd-|-stype:attr=1|qr_nm:gd|res:RC4|com-cf:nl|ptrs:na|ktp:SA1|mc:224339|mtp:S|qry_typ:P|lang:en|wc:3|cs:8959|v=4,False,Chinchwad,Pune,"Ground Floor, SR No. 269, Office No 1 And Shop No 1, Kashmira Apartment, Main Road, Chinchwad, Chinchwad, Pune - 411033, Dist.Pune, Maharashtra",8045731192,
Charging electric breast massage bra heating stimulator massager chrageable,https://www.indiamart.com/proddetail/charging-electric-breast-massage-bra-heating-stimulator-massager-chrageable-2853142572262.html?pos=95&kwd=electric breast pump&tags=BA||||8230.883|Price|product|||MDC|rsf:gd-|-stype:attr=1|qr_nm:gd|res:RC4|com-cf:nl|ptrs:na|ktp:SA1|mc:224339|mtp:S|qry_typ:P|lang:en|wc:3|cs:8959|v=4,Swabsmart,https://www.indiamart.com/swabsmart/?pos=95&kwd=electric breast pump&tags=BA||||8230.883|Price|product|||MDC|rsf:gd-|-stype:attr=1|qr_nm:gd|res:RC4|com-cf:nl|ptrs:na|ktp:SA1|mc:224339|mtp:S|qry_typ:P|lang:en|wc:3|cs:8959|v=4,False,,Surat,"Eight Floor, Flat No 804, Silver Stone Homes, Singanpor Dabholi Link Road, Surat - 395004, Dist.Surat, Gujarat",8047667469,
"Electric Breast Pump, Model Name/Number: H&w_breastpump",https://www.indiamart.com/proddetail/electric-breast-pump-2852331352062.html?pos=96&kwd=electric breast pump&tags=BA||||9045.955|Price|product|||TS|rsf:gd-|-stype:attr=1|qr_nm:gd|res:RC4|com-cf:nl|ptrs:na|ktp:SA1|mc:224339|mtp:S|qry_typ:P|lang:en|wc:3|cs:8959|v=4,Krishna Surgicals,https://www.indiamart.com/krishnasurgicals/?pos=96&kwd=electric breast pump&tags=BA||||9045.955|Price|product|||TS|rsf:gd-|-stype:attr=1|qr_nm:gd|res:RC4|com-cf:nl|ptrs:na|ktp:SA1|mc:224339|mtp:S|qry_typ:P|lang:en|wc:3|cs:8959|v=4,False,Narayan Purwa,Kanpur,"117 / N / 39 Kakadeo N Block Kanpur Kanpur Nagar, Narayan Purwa, Kanpur - 208005, Uttar Pradesh",8048965625,
"Electric Breast Pump, For Hospital, 200 - 350 Gm",https://www.indiamart.com/proddetail/electric-breast-pump-21142854688.html?pos=97&kwd=electric breast pump&tags=BA||||8823.154|Price|product|||TS|rsf:gd-|-stype:attr=1|qr_nm:gd|res:RC4|com-cf:nl|ptrs:na|ktp:SA1|mc:224339|mtp:S|qry_typ:P|lang:en|wc:3|cs:8959|v=4,Harsons Surgical And Medico,https://www.indiamart.com/harsonssurgicalmedico/?pos=97&kwd=electric breast pump&tags=BA||||8823.154|Price|product|||TS|rsf:gd-|-stype:attr=1|qr_nm:gd|res:RC4|com-cf:nl|ptrs:na|ktp:SA1|mc:224339|mtp:S|qry_typ:P|lang:en|wc:3|cs:8959|v=4,False,Transport Nagar,Agra,"Rajendar Market 7, Hospital Road, S.N. Medical College, Transport Nagar, Agra - 282002, Dist.Agra, Uttar Pradesh",8047636410,
Apex Breast Pump Electric,https://www.indiamart.com/proddetail/breast-pump-electric-6495976855.html?pos=98&kwd=electric breast pump&tags=BA||||8580.032|Price|product|||TS|rsf:gd-|-stype:attr=1|qr_nm:gd|res:RC4|com-cf:nl|ptrs:na|ktp:SA1|mc:224339|mtp:S|qry_typ:P|lang:en|wc:3|cs:8959|v=4,Apex International,https://www.apexmall.co.in/?pos=98&kwd=electric breast pump&tags=BA||||8580.032|Price|product|||TS|rsf:gd-|-stype:attr=1|qr_nm:gd|res:RC4|com-cf:nl|ptrs:na|ktp:SA1|mc:224339|mtp:S|qry_typ:P|lang:en|wc:3|cs:8959|v=4,False,Market,Amritsar,"No. 2, Bright Way Market, Majitha Road, Market, Amritsar - 143001, Dist.Amritsar, Punjab",8048601734,
Electric Breast Pump,https://www.indiamart.com/proddetail/electric-breast-pump-25612707748.html?pos=99&kwd=electric breast pump&tags=BA||||8228.275|Price|product|||TS|rsf:gd-|-stype:attr=1|qr_nm:gd|res:RC4|com-cf:nl|ptrs:na|ktp:SA1|mc:224339|mtp:S|qry_typ:P|lang:en|wc:3|cs:8959|v=4,Aspire Healthcare,https://www.indiamart.com/aspire-healthcare/?pos=99&kwd=electric breast pump&tags=BA||||8228.275|Price|product|||TS|rsf:gd-|-stype:attr=1|qr_nm:gd|res:RC4|com-cf:nl|ptrs:na|ktp:SA1|mc:224339|mtp:S|qry_typ:P|lang:en|wc:3|cs:8959|v=4,False,Gota,Ahmedabad,"Shop no -19 ,Serenity Space,S G Highway, New Gota, Gota, Ahmedabad - 382481, Dist.Ahmedabad, Gujarat",8046039668,
Life Line Breast Pump,https://www.indiamart.com/proddetail/breast-pump-18886794448.html?pos=100&kwd=electric breast pump&tags=BA||||8228.275|Price|product|||TS|rsf:gd-|-stype:attr=1|qr_nm:gd|res:RC4|com-cf:nl|ptrs:na|ktp:SA1|mc:224339|mtp:S|qry_typ:P|lang:en|wc:3|cs:8959|v=4,Green Life Healthcare,https://www.indiamart.com/green-life-healthcare/?pos=100&kwd=electric breast pump&tags=BA||||8228.275|Price|product|||TS|rsf:gd-|-stype:attr=1|qr_nm:gd|res:RC4|com-cf:nl|ptrs:na|ktp:SA1|mc:224339|mtp:S|qry_typ:P|lang:en|wc:3|cs:8959|v=4,False,Sarkhej Village,Ahmedabad,"11, J P ESTATE,NAVAPURA NR SHUKAN COMPLEX, Sarkhej Village, Ahmedabad - 382210, Dist.Ahmedabad, Gujarat",8048604726,
"Beurer Breast Pump Electronic Breast Pump, For Boiler Feeding",https://www.indiamart.com/proddetail/beurer-breast-pump-electronic-breast-pump-6529475155.html?pos=101&kwd=electric breast pump&tags=BA||||8954.051|Price|product|||TS|rsf:gd-|-stype:attr=1|qr_nm:gd|res:RC4|com-cf:nl|ptrs:na|ktp:SA1|mc:224339|mtp:S|qry_typ:P|lang:en|wc:3|cs:8959|v=4,Right Med Bio System,https://www.rightmedbiosystem.com/?pos=101&kwd=electric breast pump&tags=BA||||8954.051|Price|product|||TS|rsf:gd-|-stype:attr=1|qr_nm:gd|res:RC4|com-cf:nl|ptrs:na|ktp:SA1|mc:224339|mtp:S|qry_typ:P|lang:en|wc:3|cs:8959|v=4,False,Kovilambakkam,Chennai,"Plot No. 28, Ground Floor 1st Street, Devi Karumari Amman Nagar, Kovilambakkam, Chennai - 600129, Dist.Chennai, Tamil Nadu",8048965404,
Niscomed Breast Pump,https://www.indiamart.com/proddetail/niscomed-breast-pump-2854015287448.html?pos=102&kwd=electric breast pump&tags=BA||||8723.301|Price|product|||TS|rsf:gd-|-stype:attr=1|qr_nm:gd|res:RC4|com-cf:nl|ptrs:na|ktp:SA1|mc:224339|mtp:S|qry_typ:P|lang:en|wc:3|cs:8959|v=4,IISEQ Scientific,https://www.indiamart.com/iiseq-scientific/?pos=102&kwd=electric breast pump&tags=BA||||8723.301|Price|product|||TS|rsf:gd-|-stype:attr=1|qr_nm:gd|res:RC4|com-cf:nl|ptrs:na|ktp:SA1|mc:224339|mtp:S|qry_typ:P|lang:en|wc:3|cs:8959|v=4,False,Misrod,Bhopal,"Chamber 2, 1st, Mahendra Medisquare, Danish Kunj Road, Misrod, Bhopal - 462026, Dist.Bhopal, Madhya Pradesh",8047686099,
Morisons Manual Breast Pump,https://www.indiamart.com/proddetail/morisons-manual-breast-pump-14242170588.html?pos=103&kwd=electric breast pump&tags=BB||||8223.226|Price|product|||TS|rsf:gd-|-stype:attr=1|qr_nm:gd|res:RC4|com-cf:nl|ptrs:na|ktp:SA1|mc:224339|mtp:S|qry_typ:P|lang:en|wc:3|cs:8959|v=4,D.N. Surgicals & Dressings,https://www.indiamart.com/dnsurgicals-dressings/?pos=103&kwd=electric breast pump&tags=BB||||8223.226|Price|product|||TS|rsf:gd-|-stype:attr=1|qr_nm:gd|res:RC4|com-cf:nl|ptrs:na|ktp:SA1|mc:224339|mtp:S|qry_typ:P|lang:en|wc:3|cs:8959|v=4,False,Mira,Thane,"Shop No. 7, L 1-2-3 Poonam Vihar Chs Ltd, Poonam Vihar, Mira Road East, Mira Bhayandar, Mira, Thane - 401107, Dist.Thane, Maharashtra",7942797333,
"Breast Pump Or Reliever, Model Number: HI-S102",https://www.indiamart.com/proddetail/breast-pump-or-reliever-20878140855.html?pos=104&kwd=electric breast pump&tags=BB||||8785.791|Price|product|||TS|rsf:gd-|-stype:attr=1|qr_nm:gd|res:RC4|com-cf:nl|ptrs:na|ktp:SA1|mc:224339|mtp:S|qry_typ:P|lang:en|wc:3|cs:8959|v=4,Hiakan International,https://www.hiakan.com/?pos=104&kwd=electric breast pump&tags=BB||||8785.791|Price|product|||TS|rsf:gd-|-stype:attr=1|qr_nm:gd|res:RC4|com-cf:nl|ptrs:na|ktp:SA1|mc:224339|mtp:S|qry_typ:P|lang:en|wc:3|cs:8959|v=4,False,Rajendra Nagar,Ghaziabad,"Kh No.-3539, Raghubeer Enclave,Paragana Loni,, Rajendra Nagar, Ghaziabad - 201005, Dist.Ghaziabad, Uttar Pradesh",8047645889,
"Manual Breast Pump With Bottle, Model Name/Number: Saga",https://www.indiamart.com/proddetail/manual-breast-pump-with-bottle-2850871226588.html?pos=105&kwd=electric breast pump&tags=BA||||8601.347|Price|product|||TS|rsf:gd-|-stype:attr=1|qr_nm:gd|res:RC4|com-cf:nl|ptrs:na|ktp:SA1|mc:224339|mtp:S|qry_typ:P|lang:en|wc:3|cs:8959|v=4,Medipharm Global,https://www.indiamart.com/medipharmglobal/?pos=105&kwd=electric breast pump&tags=BA||||8601.347|Price|product|||TS|rsf:gd-|-stype:attr=1|qr_nm:gd|res:RC4|com-cf:nl|ptrs:na|ktp:SA1|mc:224339|mtp:S|qry_typ:P|lang:en|wc:3|cs:8959|v=4,False,Jhotwara,Jaipur,"R. G Plaza, X-02B, Chandra Nagar, Kardhani Scheme, Kalwar Road, Jhotwara, Jaipur - 302012, Dist.Jaipur, Rajasthan",8047653066,
"Philips Avent Breast Pump, Model Name/Number: Scf 430/01",https://www.indiamart.com/proddetail/philips-avent-breast-pump-2852202864597.html?pos=106&kwd=electric breast pump&tags=BA||||8307.81|Price|product|||MDC|rsf:gd-|-stype:attr=1|qr_nm:gd|res:RC4|com-cf:nl|ptrs:na|ktp:SA1|mc:224339|mtp:S|qry_typ:P|lang:en|wc:3|cs:8959|v=4,Sure Surgicals,https://www.indiamart.com/suresurgicals/?pos=106&kwd=electric breast pump&tags=BA||||8307.81|Price|product|||MDC|rsf:gd-|-stype:attr=1|qr_nm:gd|res:RC4|com-cf:nl|ptrs:na|ktp:SA1|mc:224339|mtp:S|qry_typ:P|lang:en|wc:3|cs:8959|v=4,False,Agarkar Nagar,Pune,"Shop No 2,Sitaram Park, Garden View KO App Housing Society, Plot No 47-408,Somwar Peth, Haveli, Agarkar Nagar, Pune - 411011, Dist.Pune, Maharashtra",8047676420,
"Plenum Tech Syringe Infusion Pump, For Hospital",https://www.indiamart.com/proddetail/syringe-infusion-pump-4965048033.html?pos=107&kwd=electric breast pump&tags=BA||||8211.142|Price|product|||MDC|rsf:gd-|-stype:attr=1|qr_nm:gd|res:RC4|com-cf:nl|ptrs:na|ktp:SA1|mc:224339|mtp:S|qry_typ:P|lang:en|wc:3|cs:8959|v=4,Mehta Surgical Emporium,https://www.indiamart.com/mehtasurgicalemporium/?pos=107&kwd=electric breast pump&tags=BA||||8211.142|Price|product|||MDC|rsf:gd-|-stype:attr=1|qr_nm:gd|res:RC4|com-cf:nl|ptrs:na|ktp:SA1|mc:224339|mtp:S|qry_typ:P|lang:en|wc:3|cs:8959|v=4,False,Kalbadevi,Mumbai,"1ST FLOOR,201,PRINCESS STREET,KESAR BUILDING,KALBADEVI Princess Street, Kalbadevi, Mumbai - 400002, Dist.Mumbai, Maharashtra",8046068388,
Electric Breast Pump,,Jai Maa Laxmi Agency,https://www.indiamart.com/jaimaalaxmiagency/?pos=108&kwd=electric breast pump&tags=BA||||9110.092|Price|product|||MDC|rsf:gd-|-stype:attr=1|qr_nm:gd|res:RC4|com-cf:nl|ptrs:na|ktp:SA1|mc:224339|mtp:S|qry_typ:P|lang:en|wc:3|cs:8959|v=4,False,,Lucknow,"E-2468,Rajajipuram,Near Rupam Tailor,, Lucknow - 226017, Dist.Lucknow, Uttar Pradesh",7949339166,
"Battery Powered Wearable Electric Breast Pump, For Baby Feeding Product",https://www.indiamart.com/proddetail/wearable-electric-breast-pump-24006511888.html?pos=109&kwd=electric breast pump&tags=A||||8559.269||product|||NA|rsf:gd-|-stype:attr=1|qr_nm:gd|res:RC4|com-cf:nl|ptrs:na|ktp:SA1|mc:224339|mtp:S|qry_typ:P|lang:en|wc:3|cs:8959|v=4,Meeple Technologies Private Limited,https://www.indiamart.com/meeple-technologies-private-limited/?pos=109&kwd=electric breast pump&tags=A||||8559.269||product|||NA|rsf:gd-|-stype:attr=1|qr_nm:gd|res:RC4|com-cf:nl|ptrs:na|ktp:SA1|mc:224339|mtp:S|qry_typ:P|lang:en|wc:3|cs:8959|v=4,False,,Indore,"107, 9930 Spaces, Plot No 3 Mangal Nagar, Rajeev Gandhi Square, Indore - 452014, Dist.Indore, Madhya Pradesh",8048247112,3674
"Perfecxa Automatic Double Breast Pump, For High Pressure Feeding",https://www.indiamart.com/proddetail/perfecxa-automatic-double-breast-pump-2854331868562.html?pos=110&kwd=electric breast pump&tags=BA||||8860.933|Price|product|||NA|rsf:gd-|-stype:attr=1|qr_nm:gd|res:RC4|com-cf:nl|ptrs:na|ktp:SA1|mc:224339|mtp:S|qry_typ:P|lang:en|wc:3|cs:8959|v=4,Kumaun Surgical Store,https://www.indiamart.com/kumaunsurgical-store/?pos=110&kwd=electric breast pump&tags=BA||||8860.933|Price|product|||NA|rsf:gd-|-stype:attr=1|qr_nm:gd|res:RC4|com-cf:nl|ptrs:na|ktp:SA1|mc:224339|mtp:S|qry_typ:P|lang:en|wc:3|cs:8959|v=4,False,,Dehradun,"Nagar Nigam No 96, Amrit Kaur Road, Dwarka Store, Dehradun - 248001, Dist.Dehradun, Uttarakhand",8045729099,
Electric Breast Pump,https://www.indiamart.com/proddetail/electric-breast-pump-2851275559697.html?pos=111&kwd=electric breast pump&tags=BB||||8741.812|Price|product|||NA|rsf:gd-|-stype:attr=1|qr_nm:gd|res:RC4|com-cf:nl|ptrs:na|ktp:SA1|mc:224339|mtp:S|qry_typ:P|lang:en|wc:3|cs:8959|v=4,Cimpact Enterprises,https://www.indiamart.com/cimpact-enterprises/?pos=111&kwd=electric breast pump&tags=BB||||8741.812|Price|product|||NA|rsf:gd-|-stype:attr=1|qr_nm:gd|res:RC4|com-cf:nl|ptrs:na|ktp:SA1|mc:224339|mtp:S|qry_typ:P|lang:en|wc:3|cs:8959|v=4,False,Sushant Lok Phase 1,Gurugram,"Block C, Sushant Lok Phase 1, Gurugram - 122001, Dist.Gurgaon, Haryana",8047308881,2777
"Electric Breast Pump, For Baby Feeding",https://www.indiamart.com/proddetail/electric-breast-pump-2848958341573.html?pos=112&kwd=electric breast pump&tags=BB||||8706.714|Price|product|||NA|rsf:gd-|-stype:attr=1|qr_nm:gd|res:RC4|com-cf:nl|ptrs:na|ktp:SA1|mc:224339|mtp:S|qry_typ:P|lang:en|wc:3|cs:8959|v=4,Anjali Agency,https://www.indiamart.com/anjali-agency-telangana/?pos=112&kwd=electric breast pump&tags=BB||||8706.714|Price|product|||NA|rsf:gd-|-stype:attr=1|qr_nm:gd|res:RC4|com-cf:nl|ptrs:na|ktp:SA1|mc:224339|mtp:S|qry_typ:P|lang:en|wc:3|cs:8959|v=4,False,Gadwal,Gadwal,"9-5-3, Ram Nagar, Gadwal Town, Jogulamba, Gadwal, Gadwal - 509125, Dist.Mahabub Nagar, Telangana",8043894510,
"Electric Breast Pump, For Clinic",https://www.indiamart.com/proddetail/electric-breast-pump-22520260291.html?pos=113&kwd=electric breast pump&tags=BB||||8746.929|Price|product|||NA|rsf:gd-|-stype:attr=1|qr_nm:gd|res:RC4|com-cf:nl|ptrs:na|ktp:SA1|mc:224339|mtp:S|qry_typ:P|lang:en|wc:3|cs:8959|v=4,Netgen World,https://www.indiamart.com/netgenworld/?pos=113&kwd=electric breast pump&tags=BB||||8746.929|Price|product|||NA|rsf:gd-|-stype:attr=1|qr_nm:gd|res:RC4|com-cf:nl|ptrs:na|ktp:SA1|mc:224339|mtp:S|qry_typ:P|lang:en|wc:3|cs:8959|v=4,False,Phase II,Chandigarh,"Plot No. 186, Industrial Area,, Phase II, Chandigarh - 160002, Chandigarh",8047683152,
"Breast Pump Electric, For Baby Feeding",https://www.indiamart.com/proddetail/breast-pump-electric-26419638188.html?pos=114&kwd=electric breast pump&tags=BB||||8752.144|Price|product|||NA|rsf:gd-|-stype:attr=1|qr_nm:gd|res:RC4|com-cf:nl|ptrs:na|ktp:SA1|mc:224339|mtp:S|qry_typ:P|lang:en|wc:3|cs:8959|v=4,Aegel Distributors,https://www.indiamart.com/aegel-distributors/?pos=114&kwd=electric breast pump&tags=BB||||8752.144|Price|product|||NA|rsf:gd-|-stype:attr=1|qr_nm:gd|res:RC4|com-cf:nl|ptrs:na|ktp:SA1|mc:224339|mtp:S|qry_typ:P|lang:en|wc:3|cs:8959|v=4,False,,New Delhi,"Plot No 81 And 81A, F/F Front Side, Block J, Mohan Garden, Uttam Nagar, West Delhi, New Delhi - 110059, Dist.Delhi, Delhi",8047652926,
Electric Breast Pump,https://www.indiamart.com/proddetail/electric-breast-pump-2854951311391.html?pos=115&kwd=electric breast pump&tags=BB||||8601.347|Price|product|||NA|rsf:gd-|-stype:attr=1|qr_nm:gd|res:RC4|com-cf:nl|ptrs:na|ktp:SA1|mc:224339|mtp:S|qry_typ:P|lang:en|wc:3|cs:8959|v=4,Shreeja India,https://www.indiamart.com/shreeja-india/?pos=115&kwd=electric breast pump&tags=BB||||8601.347|Price|product|||NA|rsf:gd-|-stype:attr=1|qr_nm:gd|res:RC4|com-cf:nl|ptrs:na|ktp:SA1|mc:224339|mtp:S|qry_typ:P|lang:en|wc:3|cs:8959|v=4,False,,Jaipur,", Jaipur - 302020, Dist.Jaipur, Rajasthan",8048247102,1151
"Electric Breast Pump, For High Pressure Feeding, 333",https://www.indiamart.com/proddetail/electric-breast-pump-2854024523462.html?pos=116&kwd=electric breast pump&tags=BA||||8723.301|Price|product|||NA|rsf:gd-|-stype:attr=1|qr_nm:gd|res:RC4|com-cf:nl|ptrs:na|ktp:SA1|mc:224339|mtp:S|qry_typ:P|lang:en|wc:3|cs:8959|v=4,Krishna Medical And Surgicals,https://www.indiamart.com/krishna-medical-and-surgicals/?pos=116&kwd=electric breast pump&tags=BA||||8723.301|Price|product|||NA|rsf:gd-|-stype:attr=1|qr_nm:gd|res:RC4|com-cf:nl|ptrs:na|ktp:SA1|mc:224339|mtp:S|qry_typ:P|lang:en|wc:3|cs:8959|v=4,False,Gulmohar Colony,Bhopal,"E8/124 Trilochan Nager, Trilanga Road, Gulmohar Colony, Bhopal - 462039, Dist.Bhopal, Madhya Pradesh",8069013894,869
Breast Pump Electric,https://www.indiamart.com/proddetail/breast-pump-electric-26954592733.html?pos=117&kwd=electric breast pump&tags=BB||||8954.051|Price|product|||NA|rsf:gd-|-stype:attr=1|qr_nm:gd|res:RC4|com-cf:nl|ptrs:na|ktp:SA1|mc:224339|mtp:S|qry_typ:P|lang:en|wc:3|cs:8959|v=4,Dhariwal'S Pharma Distributors,https://www.indiamart.com/dhariwalstraders/?pos=117&kwd=electric breast pump&tags=BB||||8954.051|Price|product|||NA|rsf:gd-|-stype:attr=1|qr_nm:gd|res:RC4|com-cf:nl|ptrs:na|ktp:SA1|mc:224339|mtp:S|qry_typ:P|lang:en|wc:3|cs:8959|v=4,False,,Chennai,"First Floor Justice Prakash Singh Building Ioa Complex Thiru-vi-ka, High Road Iplicane, Chennai - 600014, Dist.Chennai, Tamil Nadu",8048981945,
"Personal Care Breast Pump Electric, For High Pressure Feeding, Mehar",https://www.indiamart.com/proddetail/breast-pump-electric-2849146868233.html?pos=118&kwd=electric breast pump&tags=BB||||8752.144|Price|product|||NA|rsf:gd-|-stype:attr=1|qr_nm:gd|res:RC4|com-cf:nl|ptrs:na|ktp:SA1|mc:224339|mtp:S|qry_typ:P|lang:en|wc:3|cs:8959|v=4,New Surgical Enterprises,https://www.indiamart.com/new-surgical-enterprisesnewdelhi/?pos=118&kwd=electric breast pump&tags=BB||||8752.144|Price|product|||NA|rsf:gd-|-stype:attr=1|qr_nm:gd|res:RC4|com-cf:nl|ptrs:na|ktp:SA1|mc:224339|mtp:S|qry_typ:P|lang:en|wc:3|cs:8959|v=4,False,Shastri Nagar,New Delhi,"B-993, Ground Floor, Shastri Nagar, Shastri Nagar, New Delhi - 110052, Dist.Delhi, Delhi",8047652463,
"ELECTRIC BREAST PUMP, 453",,The Medical Equipment Co.,https://www.indiamart.com/themedical-equipment-company/?pos=119&kwd=electric breast pump&tags=BA||||8211.142||product|||NA|rsf:gd-|-stype:attr=1|qr_nm:gd|res:RC4|com-cf:nl|ptrs:na|ktp:SA1|mc:224339|mtp:S|qry_typ:P|lang:en|wc:3|cs:8959|v=4,False,Marine Lines,Mumbai,"No. 6/10, Soraboji Santuk Lane, Anmol Apartment, 2nd Floor, Shop No. 23, Marine Lines, Marine Lines, Mumbai - 400002, Dist.Mumbai, Maharashtra",8047666500,
Electric Breast Pump,,V.N.Medical Services,https://www.indiamart.com/vnmedicalservices/?pos=120&kwd=electric breast pump&tags=BB||||8954.051|Price|product|||NA|rsf:gd-|-stype:attr=1|qr_nm:gd|res:RC4|com-cf:nl|ptrs:na|ktp:SA1|mc:224339|mtp:S|qry_typ:P|lang:en|wc:3|cs:8959|v=4,False,,Chennai,"17 Mariammal Nagar 1st Street Kavangarai, Puzhal, Chennai - 600066, Dist.Chennai, Tamil Nadu",8048983488,
"Electric breast pump, For High Pressure Feeding",,Limras Surgicals,https://www.indiamart.com/limrassurgical/?pos=121&kwd=electric breast pump&tags=BA||||8752.144|Price|product|||NA|rsf:gd-|-stype:attr=1|qr_nm:gd|res:RC4|com-cf:nl|ptrs:na|ktp:SA1|mc:224339|mtp:S|qry_typ:P|lang:en|wc:3|cs:8959|v=4,False,Ashok Vihar,New Delhi,"Ground Floor House No 607a/38 Onkar Nagar-c, Ashok Vihar, New Delhi - 110035, Dist.Delhi, Delhi",8047626646,
Electric Breast Pump,,Sri Ram Surgicals,https://www.indiamart.com/sriram-surgicals-madurai/?pos=122&kwd=electric breast pump&tags=BA||||8706.587|Price|product|||NA|rsf:gd-|-stype:attr=1|qr_nm:gd|res:RC4|com-cf:nl|ptrs:na|ktp:SA1|mc:224339|mtp:S|qry_typ:P|lang:en|wc:3|cs:8959|v=4,False,,Madurai,"First Floor 239 Naicker New Street, Madurai - 625001, Dist.Madurai, Tamil Nadu",7948547340,
"Breast pump Electric Perfecxa, Vhs 0310",https://www.indiamart.com/proddetail/breast-pump-electric-perfecxa-2854781581762.html?pos=123&kwd=electric breast pump&tags=BB||||8493.708|Price|product|||NA|rsf:gd-|-stype:attr=1|qr_nm:gd|res:RC4|com-cf:nl|ptrs:na|ktp:SA1|mc:224339|mtp:S|qry_typ:P|lang:en|wc:3|cs:8959|v=4,Hexa Medcare,https://www.indiamart.com/hexa-medcare-manjeri/?pos=123&kwd=electric breast pump&tags=BB||||8493.708|Price|product|||NA|rsf:gd-|-stype:attr=1|qr_nm:gd|res:RC4|com-cf:nl|ptrs:na|ktp:SA1|mc:224339|mtp:S|qry_typ:P|lang:en|wc:3|cs:8959|v=4,False,,Manjeri,"8/1238 B,C,D,F,G & H Calicut Road, Manjeri, Manjeri - 676121, Dist.Malappuram, Kerala",8047311026,3935
"Hospital Grade Breastpump Electric Breast Pump Rental, For Industrial, Carum",https://www.indiamart.com/proddetail/electric-breast-pump-rental-23018969133.html?pos=124&kwd=electric breast pump&tags=BA||||8752.144|Price|product|||NA|rsf:gd-|-stype:attr=1|qr_nm:gd|res:RC4|com-cf:nl|ptrs:na|ktp:SA1|mc:224339|mtp:S|qry_typ:P|lang:en|wc:3|cs:8959|v=4,True Healthcare Services,https://www.indiamart.com/true-healthcare-services/?pos=124&kwd=electric breast pump&tags=BA||||8752.144|Price|product|||NA|rsf:gd-|-stype:attr=1|qr_nm:gd|res:RC4|com-cf:nl|ptrs:na|ktp:SA1|mc:224339|mtp:S|qry_typ:P|lang:en|wc:3|cs:8959|v=4,False,,New Delhi,"NEW DELHI, New Delhi - 110015, Dist.Delhi, Delhi",8047665030,
Unigrip Electric Breast Pump,https://www.indiamart.com/proddetail/unigrip-electric-breast-pump-21981700291.html?pos=125&kwd=electric breast pump&tags=BB||||8663.873|Price|product|||NA|rsf:gd-|-stype:attr=1|qr_nm:gd|res:RC4|com-cf:nl|ptrs:na|ktp:SA1|mc:224339|mtp:S|qry_typ:P|lang:en|wc:3|cs:8959|v=4,Medico Remedies,https://www.indiamart.com/medico-remedies-bengaluru/?pos=125&kwd=electric breast pump&tags=BB||||8663.873|Price|product|||NA|rsf:gd-|-stype:attr=1|qr_nm:gd|res:RC4|com-cf:nl|ptrs:na|ktp:SA1|mc:224339|mtp:S|qry_typ:P|lang:en|wc:3|cs:8959|v=4,False,Cottonpet,Bengaluru,"1st Floor,No.18,2nd Cross, Subbannachari Lane, Cottonpet, Bengaluru - 560053, Dist.Bengaluru, Karnataka",8043873916,
"Electric Double Breast Pump, For High Pressure Feeding, VHS-0310",https://www.indiamart.com/proddetail/electric-double-breast-pump-2851913550673.html?pos=126&kwd=electric breast pump&tags=BB||||8307.81|Price|product|||NA|rsf:gd-|-stype:attr=1|qr_nm:gd|res:RC4|com-cf:nl|ptrs:na|ktp:SA1|mc:224339|mtp:S|qry_typ:P|lang:en|wc:3|cs:8959|v=4,Jai Surgical And Pharmaceuticals,https://www.indiamart.com/jai-surgical-pharmaceuticals/?pos=126&kwd=electric breast pump&tags=BB||||8307.81|Price|product|||NA|rsf:gd-|-stype:attr=1|qr_nm:gd|res:RC4|com-cf:nl|ptrs:na|ktp:SA1|mc:224339|mtp:S|qry_typ:P|lang:en|wc:3|cs:8959|v=4,False,Maharshi Nagar,Pune,"Ground Floor, Shop No.1, Patvardhan Wada, Sr No-1363, Sadashiv Peth,, Maharshi Nagar, Pune - 411002, Dist.Pune, Maharashtra",8043818395,
Biofusion Electric Breast Pump,https://www.indiamart.com/proddetail/biofusion-electric-breast-pump-2853426506748.html?pos=127&kwd=electric breast pump&tags=BA||||8754.115||product|||NA|rsf:gd-|-stype:attr=1|qr_nm:gd|res:RC4|com-cf:nl|ptrs:na|ktp:SA1|mc:224339|mtp:S|qry_typ:P|lang:en|wc:3|cs:8959|v=4,Biofusion Technomedicals,https://www.indiamart.com/biofusiontechnomedicals/?pos=127&kwd=electric breast pump&tags=BA||||8754.115||product|||NA|rsf:gd-|-stype:attr=1|qr_nm:gd|res:RC4|com-cf:nl|ptrs:na|ktp:SA1|mc:224339|mtp:S|qry_typ:P|lang:en|wc:3|cs:8959|v=4,False,,Panchkula,"Sector 17 Market, Site no.1033, Panchkula - 134109, Dist.Panchkula, Haryana",7949226789,
Mehar Electric Breast Pump,https://www.indiamart.com/proddetail/mehar-electric-breast-pump-25118665755.html?pos=128&kwd=electric breast pump&tags=BB||||8954.051|Price|product|||NA|rsf:gd-|-stype:attr=1|qr_nm:gd|res:RC4|com-cf:nl|ptrs:na|ktp:SA1|mc:224339|mtp:S|qry_typ:P|lang:en|wc:3|cs:8959|v=4,Arunachalam Surgical Private Limited,https://www.indiamart.com/arunachalamsurgical/?pos=128&kwd=electric breast pump&tags=BB||||8954.051|Price|product|||NA|rsf:gd-|-stype:attr=1|qr_nm:gd|res:RC4|com-cf:nl|ptrs:na|ktp:SA1|mc:224339|mtp:S|qry_typ:P|lang:en|wc:3|cs:8959|v=4,False,Park Town,Chennai,"34/35 , Nyniappa Naicken Street, Park Town, Chennai - 600003, Dist.Chennai, Tamil Nadu",8047304823,
Chicco Electric Breast Pump,https://www.indiamart.com/proddetail/chicco-electric-breast-pump-26216159473.html?pos=129&kwd=electric breast pump&tags=BB||||8307.81|Price|product|||NA|rsf:gd-|-stype:attr=1|qr_nm:gd|res:RC4|com-cf:nl|ptrs:na|ktp:SA1|mc:224339|mtp:S|qry_typ:P|lang:en|wc:3|cs:8959|v=4,A V Traders,https://www.indiamart.com/avtraders-pune/?pos=129&kwd=electric breast pump&tags=BB||||8307.81|Price|product|||NA|rsf:gd-|-stype:attr=1|qr_nm:gd|res:RC4|com-cf:nl|ptrs:na|ktp:SA1|mc:224339|mtp:S|qry_typ:P|lang:en|wc:3|cs:8959|v=4,False,,Pune,"1131 Plot No 102 Bhopatkar Road Vishnu Prasad Society Sadashiv Peth, Pune - 411030, Dist.Pune, Maharashtra",8047683868,
"Infinity Electric Breast Pump, For Hospital",https://www.indiamart.com/proddetail/infinity-electric-breast-pump-21382705897.html?pos=130&kwd=electric breast pump&tags=BB||||8752.144||product|||NA|rsf:gd-|-stype:attr=1|qr_nm:gd|res:RC4|com-cf:nl|ptrs:na|ktp:SA1|mc:224339|mtp:S|qry_typ:P|lang:en|wc:3|cs:8959|v=4,Infinity Mediquip India Private Limited,https://www.indiamart.com/infinity-mediquip/?pos=130&kwd=electric breast pump&tags=BB||||8752.144||product|||NA|rsf:gd-|-stype:attr=1|qr_nm:gd|res:RC4|com-cf:nl|ptrs:na|ktp:SA1|mc:224339|mtp:S|qry_typ:P|lang:en|wc:3|cs:8959|v=4,False,Sector 7 Rohini,New Delhi,"No. 164, First Floor, Naharpur Village, Sector 7 Rohini, New Delhi - 110085, Dist.Delhi, Delhi",8047822639,
Accusure electric breast pump,https://www.indiamart.com/proddetail/accusure-electric-breast-pump-2851055199662.html?pos=131&kwd=electric breast pump&tags=BA||||8226.563|Price|product|||NA|rsf:gd-|-stype:attr=1|qr_nm:gd|res:RC4|com-cf:nl|ptrs:na|ktp:SA1|mc:224339|mtp:S|qry_typ:P|lang:en|wc:3|cs:8959|v=4,Kreesha Enterprises,https://www.indiamart.com/kreesha-enterprises/?pos=131&kwd=electric breast pump&tags=BA||||8226.563|Price|product|||NA|rsf:gd-|-stype:attr=1|qr_nm:gd|res:RC4|com-cf:nl|ptrs:na|ktp:SA1|mc:224339|mtp:S|qry_typ:P|lang:en|wc:3|cs:8959|v=4,False,,Navi Mumbai,"Groung Floor Shop No. 01 Sector No. 28 Sai Sangh Cooperative Housing Society, Navi Mumbai - 400706, Dist.Thane, Maharashtra",7942798965,
MotherLike Rechargable Electric Breast Pump,https://www.indiamart.com/proddetail/motherlike-rechargable-electric-breast-pump-22292144533.html?pos=132&kwd=electric breast pump&tags=BB||||8601.347|Price|product|||NA|rsf:gd-|-stype:attr=1|qr_nm:gd|res:RC4|com-cf:nl|ptrs:na|ktp:SA1|mc:224339|mtp:S|qry_typ:P|lang:en|wc:3|cs:8959|v=4,Motherlike,https://www.indiamart.com/motherlike/?pos=132&kwd=electric breast pump&tags=BB||||8601.347|Price|product|||NA|rsf:gd-|-stype:attr=1|qr_nm:gd|res:RC4|com-cf:nl|ptrs:na|ktp:SA1|mc:224339|mtp:S|qry_typ:P|lang:en|wc:3|cs:8959|v=4,False,Malviya Nagar,Jaipur,"C-158, Malviya Nagar, Jaipur - 302017, Dist.Jaipur, Rajasthan",7942563960,
"Dr Odin Electric Breast Pump, For High Pressure Feeding",https://www.indiamart.com/proddetail/dr-odin-electric-breast-pump-25607950362.html?pos=133&kwd=electric breast pump&tags=BB||||8584.299|Price|product|||NA|rsf:gd-|-stype:attr=1|qr_nm:gd|res:RC4|com-cf:nl|ptrs:na|ktp:SA1|mc:224339|mtp:S|qry_typ:P|lang:en|wc:3|cs:8959|v=4,Saffron Surgicals,https://www.indiamart.com/saffronsurgicals/?pos=133&kwd=electric breast pump&tags=BB||||8584.299|Price|product|||NA|rsf:gd-|-stype:attr=1|qr_nm:gd|res:RC4|com-cf:nl|ptrs:na|ktp:SA1|mc:224339|mtp:S|qry_typ:P|lang:en|wc:3|cs:8959|v=4,False,,Coimbatore,"Door No 411/B/1, Ground Floor, Bharathiyar Road, New Sidhapudur,, Coimbatore - 641044, Dist.Coimbatore, Tamil Nadu",8043861332,
Pigeon Gomini Electric Breast Pump,https://www.indiamart.com/proddetail/pigeon-gomini-electric-breast-pump-2849632020312.html?pos=134&kwd=electric breast pump&tags=BB||||8307.81|Price|product|||NA|rsf:gd-|-stype:attr=1|qr_nm:gd|res:RC4|com-cf:nl|ptrs:na|ktp:SA1|mc:224339|mtp:S|qry_typ:P|lang:en|wc:3|cs:8959|v=4,ARL Enterprises,https://www.indiamart.com/arlenterprises/?pos=134&kwd=electric breast pump&tags=BB||||8307.81|Price|product|||NA|rsf:gd-|-stype:attr=1|qr_nm:gd|res:RC4|com-cf:nl|ptrs:na|ktp:SA1|mc:224339|mtp:S|qry_typ:P|lang:en|wc:3|cs:8959|v=4,False,,Pune,"Sr No 178, Flat No 205 ,Piyush Residency Bhosale Village, Bhekari Nagar Road, Fursungi, Pune - 412308, Dist.Pune, Maharashtra",7942791993,
"Suction Type Accu Sure Electric Breast Pump, For Boiler Feeding",https://www.indiamart.com/proddetail/accu-sure-electric-breast-pump-2853121500930.html?pos=135&kwd=electric breast pump&tags=BA||||8584.299|Price|product|||NA|rsf:gd-|-stype:attr=1|qr_nm:gd|res:RC4|com-cf:nl|ptrs:na|ktp:SA1|mc:224339|mtp:S|qry_typ:P|lang:en|wc:3|cs:8959|v=4,Nalam Agency,https://www.indiamart.com/nalam-agency-coimbatore/?pos=135&kwd=electric breast pump&tags=BA||||8584.299|Price|product|||NA|rsf:gd-|-stype:attr=1|qr_nm:gd|res:RC4|com-cf:nl|ptrs:na|ktp:SA1|mc:224339|mtp:S|qry_typ:P|lang:en|wc:3|cs:8959|v=4,False,Coimbatore,Coimbatore,"12/4A, LIC Agent Colony, Kurichi, Sundarapuram, Coimbatore, Coimbatore - 641024, Dist.Coimbatore, Tamil Nadu",7942838424,
"Philips Avent Single Electric Breast Pump, For Baby Feeding",https://www.indiamart.com/proddetail/philips-avent-single-electric-breast-pump-2851515464688.html?pos=136&kwd=electric breast pump&tags=BA||||8211.142||product|||NA|rsf:gd-|-stype:attr=1|qr_nm:gd|res:RC4|com-cf:nl|ptrs:na|ktp:SA1|mc:224339|mtp:S|qry_typ:P|lang:en|wc:3|cs:8959|v=4,Synergy Medtech Solutions LLP,https://www.indiamart.com/synergy-medtech-solutions/?pos=136&kwd=electric breast pump&tags=BA||||8211.142||product|||NA|rsf:gd-|-stype:attr=1|qr_nm:gd|res:RC4|com-cf:nl|ptrs:na|ktp:SA1|mc:224339|mtp:S|qry_typ:P|lang:en|wc:3|cs:8959|v=4,False,,Mumbai,"Shop No. 3, Neelsagar CHS, Tata Colony, Mulund East, Mumbai - 400081, Dist.Mumbai, Maharashtra",7942840696,
"Noymi Single Electric Breast Pump, For Feeding",https://www.indiamart.com/proddetail/noymi-single-electric-breast-pump-24159621633.html?pos=137&kwd=electric breast pump&tags=BB||||8740.707|Price|product|||NA|rsf:gd-|-stype:attr=1|qr_nm:gd|res:RC4|com-cf:nl|ptrs:na|ktp:SA1|mc:224339|mtp:S|qry_typ:P|lang:en|wc:3|cs:8959|v=4,Trending Youth Technologies Private Limited,https://www.indiamart.com/trendingyouthtechnologies/?pos=137&kwd=electric breast pump&tags=BB||||8740.707|Price|product|||NA|rsf:gd-|-stype:attr=1|qr_nm:gd|res:RC4|com-cf:nl|ptrs:na|ktp:SA1|mc:224339|mtp:S|qry_typ:P|lang:en|wc:3|cs:8959|v=4,False,,Mohali,"Ground Floor Plot No. F-34 Phase-8 Industrial Area Sas Nagar, Mohali - 160057, Dist.Mohali, Punjab",8045907943,
"Dr. Odin Electric Breast Pump, OD302",https://www.indiamart.com/proddetail/dr-odin-electric-breast-pump-23406296530.html?pos=138&kwd=electric breast pump&tags=BB||||8954.051|Price|product|||NA|rsf:gd-|-stype:attr=1|qr_nm:gd|res:RC4|com-cf:nl|ptrs:na|ktp:SA1|mc:224339|mtp:S|qry_typ:P|lang:en|wc:3|cs:8959|v=4,Orange Surgicals,https://www.indiamart.com/orangesurgicals/?pos=138&kwd=electric breast pump&tags=BB||||8954.051|Price|product|||NA|rsf:gd-|-stype:attr=1|qr_nm:gd|res:RC4|com-cf:nl|ptrs:na|ktp:SA1|mc:224339|mtp:S|qry_typ:P|lang:en|wc:3|cs:8959|v=4,False,near egmore baby hospital,Chennai,"OLD NO.111,NEW NO.40,GROUND FLOOR,FIRST FLOOR,Egmore High Road,Chennai Old No.924,new No.2 Periyar E.v.r. Salai, Ground Floor Purasawalkam,600084,Chennai, near egmore baby hospital, Chennai - 600008, Dist.Chennai, Tamil Nadu",8046048973,
"Dr Odin Electric Breast Pump, For Clinic, Od 302",https://www.indiamart.com/proddetail/dr-odin-electric-breast-pump-26951280397.html?pos=139&kwd=electric breast pump&tags=BA||||8584.299||product|||NA|rsf:gd-|-stype:attr=1|qr_nm:gd|res:RC4|com-cf:nl|ptrs:na|ktp:SA1|mc:224339|mtp:S|qry_typ:P|lang:en|wc:3|cs:8959|v=4,Med Partner,https://www.indiamart.com/med-partner/?pos=139&kwd=electric breast pump&tags=BA||||8584.299||product|||NA|rsf:gd-|-stype:attr=1|qr_nm:gd|res:RC4|com-cf:nl|ptrs:na|ktp:SA1|mc:224339|mtp:S|qry_typ:P|lang:en|wc:3|cs:8959|v=4,False,Ctc Staff Quarters,Coimbatore,"No.163/B1, Venkatachalam Road West, R.S.Puram, Ctc Staff Quarters, Coimbatore - 641002, Dist.Coimbatore, Tamil Nadu",8048211772,
"Pur Infinitiy Electric Breast Pump, 1 Kg",https://www.indiamart.com/proddetail/pur-infinitiy-electric-breast-pump-21546420255.html?pos=140&kwd=electric breast pump&tags=BB||||8226.563|Price|product|||NA|rsf:gd-|-stype:attr=1|qr_nm:gd|res:RC4|com-cf:nl|ptrs:na|ktp:SA1|mc:224339|mtp:S|qry_typ:P|lang:en|wc:3|cs:8959|v=4,Saiswara Enterprises,https://www.indiamart.com/saiswara-enterprises-navi-mumbai/?pos=140&kwd=electric breast pump&tags=BB||||8226.563|Price|product|||NA|rsf:gd-|-stype:attr=1|qr_nm:gd|res:RC4|com-cf:nl|ptrs:na|ktp:SA1|mc:224339|mtp:S|qry_typ:P|lang:en|wc:3|cs:8959|v=4,False,Sector 15 Vashi,Navi Mumbai,"Main Road, Sector 15 Vashi, Navi Mumbai - 400703, Dist.Thane, Maharashtra",8048247130,7339
"Electric Breast Pump, For Baby Feeding",https://www.indiamart.com/proddetail/electric-breast-pump-2848958341573.html?pos=141&kwd=electric breast pump&tags=BB||||8706.714|Price|product|||NA|rsf:gd-|-stype:attr=1|qr_nm:gd|res:RC4|com-cf:nl|ptrs:na|ktp:SA1|mc:224339|mtp:S|qry_typ:P|lang:en|wc:3|cs:8959|v=4,Anjali Agency,https://www.indiamart.com/anjali-agency-telangana/?pos=141&kwd=electric breast pump&tags=BB||||8706.714|Price|product|||NA|rsf:gd-|-stype:attr=1|qr_nm:gd|res:RC4|com-cf:nl|ptrs:na|ktp:SA1|mc:224339|mtp:S|qry_typ:P|lang:en|wc:3|cs:8959|v=4,False,Gadwal,Gadwal,"9-5-3, Ram Nagar, Gadwal Town, Jogulamba, Gadwal, Gadwal - 509125, Dist.Mahabub Nagar, Telangana",8043894510,
ARDO Calypso Single Electric Breast Pump,https://www.indiamart.com/proddetail/ardo-calypso-single-electric-breast-pump-23013517855.html?pos=142&kwd=electric breast pump&tags=BA||||8752.144|Price|product|||NA|rsf:gd-|-stype:attr=1|qr_nm:gd|res:RC4|com-cf:nl|ptrs:na|ktp:SA1|mc:224339|mtp:S|qry_typ:P|lang:en|wc:3|cs:8959|v=4,Kinett,https://www.indiamart.com/kinett/?pos=142&kwd=electric breast pump&tags=BA||||8752.144|Price|product|||NA|rsf:gd-|-stype:attr=1|qr_nm:gd|res:RC4|com-cf:nl|ptrs:na|ktp:SA1|mc:224339|mtp:S|qry_typ:P|lang:en|wc:3|cs:8959|v=4,False,Burari,New Delhi,"3223, Block B, Sant Nagar, Burari, New Delhi - 110084, Dist.Delhi, Delhi",8048608058,
"Dr. Browns Single Electric Breast Pump, For Baby Feeding",https://www.indiamart.com/proddetail/dr-browns-single-electric-breast-pump-2852173904012.html?pos=143&kwd=electric breast pump&tags=BA||||8752.144|Price|product|||NA|rsf:gd-|-stype:attr=1|qr_nm:gd|res:RC4|com-cf:nl|ptrs:na|ktp:SA1|mc:224339|mtp:S|qry_typ:P|lang:en|wc:3|cs:8959|v=4,Pram Hut,https://www.indiamart.com/pram-hutdelhi/?pos=143&kwd=electric breast pump&tags=BA||||8752.144|Price|product|||NA|rsf:gd-|-stype:attr=1|qr_nm:gd|res:RC4|com-cf:nl|ptrs:na|ktp:SA1|mc:224339|mtp:S|qry_typ:P|lang:en|wc:3|cs:8959|v=4,False,,New Delhi,"SHOP NO.- 156,ANARKALI COMPLEX,ANARKALI COMPLEX,New Delhi LOWER GROUND FLOOR, SHOP NO.- 156, ANARKALI COMPLEX, ANARKALI COMPLEX, JHANDEWALAN, New Delhi, Cent, New Delhi - 110055, Dist.Delhi, Delhi",7942701586,
Feeding Dr Odin Electric Breast Pump (OEP002),https://www.indiamart.com/proddetail/dr-odin-electric-breast-pump-oep002-2855000970712.html?pos=144&kwd=electric breast pump&tags=BB||||8754.115||product|||NA|rsf:gd-|-stype:attr=1|qr_nm:gd|res:RC4|com-cf:nl|ptrs:na|ktp:SA1|mc:224339|mtp:S|qry_typ:P|lang:en|wc:3|cs:8959|v=4,Passim Lifesciences Limited,https://www.indiamart.com/passim-lifesciences-limited/?pos=144&kwd=electric breast pump&tags=BB||||8754.115||product|||NA|rsf:gd-|-stype:attr=1|qr_nm:gd|res:RC4|com-cf:nl|ptrs:na|ktp:SA1|mc:224339|mtp:S|qry_typ:P|lang:en|wc:3|cs:8959|v=4,False,,Panchkula,"Plot No. 45, Industrial Area Phase 2, Panchkula - 134113, Dist.Panchkula, Haryana",8048247104,1647
Pigeon Breast Pump,https://www.indiamart.com/proddetail/pigeon-breast-pump-24305249733.html?pos=145&kwd=electric breast pump&tags=BA||||8457.459|Price|product|||NA|rsf:gd-|-stype:attr=1|qr_nm:gd|res:RC4|com-cf:nl|ptrs:na|ktp:SA1|mc:224339|mtp:S|qry_typ:P|lang:en|wc:3|cs:8959|v=4,Capital Medcare,https://www.indiamart.com/capital-medcare/?pos=145&kwd=electric breast pump&tags=BA||||8457.459|Price|product|||NA|rsf:gd-|-stype:attr=1|qr_nm:gd|res:RC4|com-cf:nl|ptrs:na|ktp:SA1|mc:224339|mtp:S|qry_typ:P|lang:en|wc:3|cs:8959|v=4,False,Kozhikode,Kozhikode,"Meyon Building, Jail Road, Opp. Dhanalakshmi Bank, Kozhikode, Kozhikode - 673004, Dist.Kozhikode, Kerala",7942633527,
Breast Pump Electronic,https://www.indiamart.com/proddetail/breast-pump-electronic-26096957812.html?pos=146&kwd=electric breast pump&tags=BB||||8706.587|Price|product|||NA|rsf:gd-|-stype:attr=1|qr_nm:gd|res:RC4|com-cf:nl|ptrs:na|ktp:SA1|mc:224339|mtp:S|qry_typ:P|lang:en|wc:3|cs:8959|v=4,Sugam Surgicals,https://www.indiamart.com/sugamsurgicals/?pos=146&kwd=electric breast pump&tags=BB||||8706.587|Price|product|||NA|rsf:gd-|-stype:attr=1|qr_nm:gd|res:RC4|com-cf:nl|ptrs:na|ktp:SA1|mc:224339|mtp:S|qry_typ:P|lang:en|wc:3|cs:8959|v=4,False,,Madurai,"No.65 Tamil Sangam Road, Madurai - 625001, Dist.Madurai, Tamil Nadu",7942565892,
"Neonatal Care Personal & Hospital Grade Electric Breast Pump, For Baby Feeding",https://www.indiamart.com/proddetail/personal-hospital-grade-electric-breast-pump-20222595562.html?pos=147&kwd=electric breast pump&tags=BA||||8876.815|Price|product|||NA|rsf:gd-|-stype:attr=1|qr_nm:gd|res:RC4|com-cf:nl|ptrs:na|ktp:SA1|mc:224339|mtp:S|qry_typ:P|lang:en|wc:3|cs:8959|v=4,Orcus Lifesciences,https://www.indiamart.com/orcus/?pos=147&kwd=electric breast pump&tags=BA||||8876.815|Price|product|||NA|rsf:gd-|-stype:attr=1|qr_nm:gd|res:RC4|com-cf:nl|ptrs:na|ktp:SA1|mc:224339|mtp:S|qry_typ:P|lang:en|wc:3|cs:8959|v=4,False,Aundh,Nagpur,"SWATI SURESH BAWANKAR,KAMPTHI,KAMPTHI CITY,NAGPUR C/o InCube Space, 2nd Floor, Lane No.2,411007,Pune, Aundh, Nagpur - 441002, Dist.Nagpur, Maharashtra",8048249671,3455
Philips Avent Electric Single Breast Pump SCF395/11,https://www.indiamart.com/proddetail/philips-avent-electric-single-breast-pump-scf395-11-2853244415091.html?pos=148&kwd=electric breast pump&tags=BA||||8954.051|Price|product|||NA|rsf:gd-|-stype:attr=1|qr_nm:gd|res:RC4|com-cf:nl|ptrs:na|ktp:SA1|mc:224339|mtp:S|qry_typ:P|lang:en|wc:3|cs:8959|v=4,Ramdev Impex,https://www.indiamart.com/ramdev-impex-chennai/?pos=148&kwd=electric breast pump&tags=BA||||8954.051|Price|product|||NA|rsf:gd-|-stype:attr=1|qr_nm:gd|res:RC4|com-cf:nl|ptrs:na|ktp:SA1|mc:224339|mtp:S|qry_typ:P|lang:en|wc:3|cs:8959|v=4,False,Sowcarpet,Chennai,"25 NEW NO 51,NA,NARAYANA MUDALI STREET,, Sowcarpet, Chennai - 600079, Dist.Chennai, Tamil Nadu",8047812326,
Plastic Point Of Care EBB 10 Breast Pump Electric,https://www.indiamart.com/proddetail/point-of-care-ebb-10-breast-pump-electric-2849704388388.html?pos=149&kwd=electric breast pump&tags=BB||||8954.051|Price|product|||NA|rsf:gd-|-stype:attr=1|qr_nm:gd|res:RC4|com-cf:nl|ptrs:na|ktp:SA1|mc:224339|mtp:S|qry_typ:P|lang:en|wc:3|cs:8959|v=4,R.L. HANS RAJ & CO.,https://www.indiamart.com/rl-hansraj-cochennai/?pos=149&kwd=electric breast pump&tags=BB||||8954.051|Price|product|||NA|rsf:gd-|-stype:attr=1|qr_nm:gd|res:RC4|com-cf:nl|ptrs:na|ktp:SA1|mc:224339|mtp:S|qry_typ:P|lang:en|wc:3|cs:8959|v=4,False,,Chennai,"3/10 ,Ground Floor, Ganesh Complex,Nyniappa Naick Street, Park Town, Chennai - 600003, Dist.Chennai, Tamil Nadu",8047831946,
"Medigold Electronic Breast Pump, For Boiler Feeding",https://www.indiamart.com/proddetail/medigold-electronic-breast-pump-24819177233.html?pos=150&kwd=electric breast pump&tags=BB||||8752.144|Price|product|||NA|rsf:gd-|-stype:attr=1|qr_nm:gd|res:RC4|com-cf:nl|ptrs:na|ktp:SA1|mc:224339|mtp:S|qry_typ:P|lang:en|wc:3|cs:8959|v=4,Surgical Enterprises,https://www.indiamart.com/surgical-enterprises/?pos=150&kwd=electric breast pump&tags=BB||||8752.144|Price|product|||NA|rsf:gd-|-stype:attr=1|qr_nm:gd|res:RC4|com-cf:nl|ptrs:na|ktp:SA1|mc:224339|mtp:S|qry_typ:P|lang:en|wc:3|cs:8959|v=4,False,,New Delhi,"A-34, Ground Floor, Naraina Industrial Area, Phase-II, South West Delhi, New Delhi - 110028, Dist.Delhi, Delhi",8047300337,
Medela Solo Electronic Breast Pump,,Medela,https://www.indiamart.com/medela/?pos=151&kwd=electric breast pump&tags=BA||||8786.56|Price|product|||NA|rsf:gd-|-stype:attr=1|qr_nm:gd|res:RC4|com-cf:nl|ptrs:na|ktp:SA1|mc:224339|mtp:S|qry_typ:P|lang:en|wc:3|cs:8959|v=4,False,prakash nagar Begumpet,Hyderabad,"1-10-27/34, prakash nagar Begumpet, Hyderabad - 500016, Dist.Hyderabad, Telangana",8069707333,564
LuvLap Sunshine Electrical Breast Pump,https://www.indiamart.com/proddetail/luvlap-sunshine-electrical-breast-pump-22912581148.html?pos=152&kwd=electric breast pump&tags=BB||||8706.587|Price|product|||NA|rsf:gd-|-stype:attr=1|qr_nm:gd|res:RC4|com-cf:nl|ptrs:na|ktp:SA1|mc:224339|mtp:S|qry_typ:P|lang:en|wc:3|cs:8959|v=4,Star Agency,https://www.indiamart.com/staragency-madurai/?pos=152&kwd=electric breast pump&tags=BB||||8706.587|Price|product|||NA|rsf:gd-|-stype:attr=1|qr_nm:gd|res:RC4|com-cf:nl|ptrs:na|ktp:SA1|mc:224339|mtp:S|qry_typ:P|lang:en|wc:3|cs:8959|v=4,False,Tallakulam,Madurai,"No. 4C, Kamala Nagar, Thamukkam Park Rd, Tallakulam, Tallakulam, Madurai - 625002, Dist.Madurai, Tamil Nadu",8047793832,
"Flexbile Pacifier Beurer baby care breast pump, For High Pressure Feeding, BY15",https://www.indiamart.com/proddetail/beurer-baby-care-breast-pump-2853626695591.html?pos=153&kwd=electric breast pump&tags=BA||||8669.942|Price|product|||NA|rsf:gd-|-stype:attr=1|qr_nm:gd|res:RC4|com-cf:nl|ptrs:na|ktp:SA1|mc:224339|mtp:S|qry_typ:P|lang:en|wc:3|cs:8959|v=4,Sankar Pharma Surgicalss,https://www.indiamart.com/sankar-pharma-surgicalss/?pos=153&kwd=electric breast pump&tags=BA||||8669.942|Price|product|||NA|rsf:gd-|-stype:attr=1|qr_nm:gd|res:RC4|com-cf:nl|ptrs:na|ktp:SA1|mc:224339|mtp:S|qry_typ:P|lang:en|wc:3|cs:8959|v=4,False,Kamarajapuram Colony,Sivakasi,"2041A, Periyakaruppan Road, Sivakasi, Virudhunagar, Kamarajapuram Colony, Sivakasi - 626189, Dist.Virudhunagar, Tamil Nadu",8043864537,
"Mehar Ready Baby Electrical Breast Pump, Easy N Electric",https://www.indiamart.com/proddetail/mehar-ready-baby-electrical-breast-pump-2853307999797.html?pos=154&kwd=electric breast pump&tags=BA||||8876.815|Price|product|||NA|rsf:gd-|-stype:attr=1|qr_nm:gd|res:RC4|com-cf:nl|ptrs:na|ktp:SA1|mc:224339|mtp:S|qry_typ:P|lang:en|wc:3|cs:8959|v=4,Jai Surgicals,https://www.indiamart.com/jaisurgicals/?pos=154&kwd=electric breast pump&tags=BA||||8876.815|Price|product|||NA|rsf:gd-|-stype:attr=1|qr_nm:gd|res:RC4|com-cf:nl|ptrs:na|ktp:SA1|mc:224339|mtp:S|qry_typ:P|lang:en|wc:3|cs:8959|v=4,False,Gandhibagh,Nagpur,"Shop No. 107, General Merchant Market, Gandhi Bagh, Gandhibagh, Nagpur - 440002, Dist.Nagpur, Maharashtra",7942817450,
"Roboson Wearable Electric Breast Pump with 3 Modes & 9 levels, Rechargeable Battery, Digital Screen.",https://www.indiamart.com/proddetail/roboson-wearable-electric-breast-pump-with-3-modes-9-levels-rechargeable-battery-digital-screen-2852952168997.html?pos=155&kwd=electric breast pump&tags=BA||||8307.81|Price|product|||NA|rsf:gd-|-stype:attr=1|qr_nm:gd|res:RC4|com-cf:nl|ptrs:na|ktp:SA1|mc:224339|mtp:S|qry_typ:P|lang:en|wc:3|cs:8959|v=4,Roboson India,https://www.indiamart.com/roboson-india/?pos=155&kwd=electric breast pump&tags=BA||||8307.81|Price|product|||NA|rsf:gd-|-stype:attr=1|qr_nm:gd|res:RC4|com-cf:nl|ptrs:na|ktp:SA1|mc:224339|mtp:S|qry_typ:P|lang:en|wc:3|cs:8959|v=4,False,Pune,Pune,"403, Chhajed Glory Sakore Nagar, Viman Nagar, Pune, Pune - 411014, Dist.Pune, Maharashtra",8048372167,708
Dr.Odin (Electric Breast Pump),,Capital Surgical Devices,https://www.indiamart.com/capital-surgical-devices/?pos=156&kwd=electric breast pump&tags=BB||||8668.838||product|||NA|rsf:gd-|-stype:attr=1|qr_nm:gd|res:RC4|com-cf:nl|ptrs:na|ktp:SA1|mc:224339|mtp:S|qry_typ:P|lang:en|wc:3|cs:8959|v=4,False,,Erode,"No.393/1 Brough Road, Palaniyappa Street, Opp Federal Bank, Erode - 638009, Dist.Erode, Tamil Nadu",8048371979,925
LKS Breast Pump,https://www.indiamart.com/proddetail/lks-breast-pump-2849694487397.html?pos=157&kwd=electric breast pump&tags=BA||||8974.737|Price|product|||NA|rsf:gd-|-stype:attr=1|qr_nm:gd|res:RC4|com-cf:nl|ptrs:na|ktp:SA1|mc:224339|mtp:S|qry_typ:P|lang:en|wc:3|cs:8959|v=4,Adhiraj Medical And Surgical,https://www.indiamart.com/adhirajmedicalsurgical/?pos=157&kwd=electric breast pump&tags=BA||||8974.737|Price|product|||NA|rsf:gd-|-stype:attr=1|qr_nm:gd|res:RC4|com-cf:nl|ptrs:na|ktp:SA1|mc:224339|mtp:S|qry_typ:P|lang:en|wc:3|cs:8959|v=4,False,Rajendra Nagar,Bareilly,"Khasra No 216/2209, Arshna Residency, Village Rehpura Choudhary, E-block Near Ram Duwar Gate, Rajendra Nagar, Bareilly - 243122, Dist.Bareilly, Uttar Pradesh",8047814682,
Ready Baby Manual Breast Pump,https://www.indiamart.com/proddetail/ready-baby-manual-breast-pump-23254299530.html?pos=158&kwd=electric breast pump&tags=BB||||8717.056|Price|product|||NA|rsf:gd-|-stype:attr=1|qr_nm:gd|res:RC4|com-cf:nl|ptrs:na|ktp:SA1|mc:224339|mtp:S|qry_typ:P|lang:en|wc:3|cs:8959|v=4,Sri Saraswathi Suppliers,https://www.indiamart.com/srisaraswathisuppliers/?pos=158&kwd=electric breast pump&tags=BB||||8717.056|Price|product|||NA|rsf:gd-|-stype:attr=1|qr_nm:gd|res:RC4|com-cf:nl|ptrs:na|ktp:SA1|mc:224339|mtp:S|qry_typ:P|lang:en|wc:3|cs:8959|v=4,False,,Salem,"No.116/2, First Floor, Cinima Nagar, Pallapatti Win Tower, Salem - 636009, Dist.Salem, Tamil Nadu",8046050175,
Electric Breast Pump,,V.N.Medical Services,https://www.indiamart.com/vnmedicalservices/?pos=159&kwd=electric breast pump&tags=BB||||8954.051|Price|product|||NA|rsf:gd-|-stype:attr=1|qr_nm:gd|res:RC4|com-cf:nl|ptrs:na|ktp:SA1|mc:224339|mtp:S|qry_typ:P|lang:en|wc:3|cs:8959|v=4,False,,Chennai,"17 Mariammal Nagar 1st Street Kavangarai, Puzhal, Chennai - 600066, Dist.Chennai, Tamil Nadu",8048983488,
Electric Breast Pump,,Yogmaya Medicare,https://www.indiamart.com/yogmaya-medicare/?pos=160&kwd=electric breast pump&tags=BB||||9349.906|Price|product|||NA|rsf:gd-|-stype:attr=1|qr_nm:gd|res:RC4|com-cf:nl|ptrs:na|ktp:SA1|mc:224339|mtp:S|qry_typ:P|lang:en|wc:3|cs:8959|v=4,False,,Gorakhpur,"Swastik Trade Centre,Lower Ground Floor SHOP NO.10,LGF, Gandhi Gali,Golghar Gorakhpur, Gorakhpur - 273001, Dist.Gorakhpur, Uttar Pradesh",8062245029,498
Elctric Breast Pump,,V.J Surgicals,https://www.indiamart.com/vj-surgicals/?pos=161&kwd=electric breast pump&tags=BB||||8954.051|Price|product|||NA|rsf:gd-|-stype:attr=1|qr_nm:gd|res:RC4|com-cf:nl|ptrs:na|ktp:SA1|mc:224339|mtp:S|qry_typ:P|lang:en|wc:3|cs:8959|v=4,False,,Chennai,"Ground Floor, No.32/306 Lingi Chetty Street, Chennai - 600001, Dist.Chennai, Tamil Nadu",7942832955,
Electric Breast Pump,https://www.indiamart.com/proddetail/electric-breast-pump-2854358682891.html?pos=162&kwd=electric breast pump&tags=CC||||8307.81||product|||TS|rsf:gd-|-stype:attr=1|qr_nm:gd|res:RC4|com-cf:nl|ptrs:na|ktp:SA1|mc:224339|mtp:S|qry_typ:P|lang:en|wc:3|cs:8959|v=4,Rizen Healthcare,https://www.rizenhealthcare.co.in/?pos=162&kwd=electric breast pump&tags=CC||||8307.81||product|||TS|rsf:gd-|-stype:attr=1|qr_nm:gd|res:RC4|com-cf:nl|ptrs:na|ktp:SA1|mc:224339|mtp:S|qry_typ:P|lang:en|wc:3|cs:8959|v=4,False,Parvati,Pune,"Shop No. 1, 2 & 3, Laxminarayan Apartment, Plot No. 30 Velankar Colony, Behind Laxmi Narayan Theatre & Shalimar Furniture, Parvati, Pune - 411009, Dist.Pune, Maharashtra",8048955239,
Electric Breast Pump,https://www.indiamart.com/proddetail/electric-breast-pump-8309320673.html?pos=163&kwd=electric breast pump&tags=CC||||8747.223|Price|product|||TS|rsf:gd-|-stype:attr=1|qr_nm:gd|res:RC4|com-cf:nl|ptrs:na|ktp:SA1|mc:224339|mtp:S|qry_typ:P|lang:en|wc:3|cs:8959|v=4,New Life Medicare,https://www.indiamart.com/newlifemedicare/?pos=163&kwd=electric breast pump&tags=CC||||8747.223|Price|product|||TS|rsf:gd-|-stype:attr=1|qr_nm:gd|res:RC4|com-cf:nl|ptrs:na|ktp:SA1|mc:224339|mtp:S|qry_typ:P|lang:en|wc:3|cs:8959|v=4,False,Anand Nagar,Sonipat,"New Jeevan Nagar, 50a, Opp. Kapoor Refrigerator, Old D.c.road, Sonepat,, Anand Nagar, Sonipat - 131001, Dist.Sonipat, Haryana",8047646743,
Electric Breast Pump,https://www.indiamart.com/proddetail/electric-breast-pump-2848943986955.html?pos=164&kwd=electric breast pump&tags=CC||||8659.139|Price|product|||TS|rsf:gd-|-stype:attr=1|qr_nm:gd|res:RC4|com-cf:nl|ptrs:na|ktp:SA1|mc:224339|mtp:S|qry_typ:P|lang:en|wc:3|cs:8959|v=4,Orion Pharma,https://www.orionpharmaindia.com/?pos=164&kwd=electric breast pump&tags=CC||||8659.139|Price|product|||TS|rsf:gd-|-stype:attr=1|qr_nm:gd|res:RC4|com-cf:nl|ptrs:na|ktp:SA1|mc:224339|mtp:S|qry_typ:P|lang:en|wc:3|cs:8959|v=4,False,Bhandaraj Bk,Akola,"Huda Colony, Gut No 13/1 Sur No 1, Ground Floor, Washim Bypass Road, Bhandaraj Bk, Akola - 444001, Dist.Akola, Maharashtra",8048989171,
"Eleectric Electric Breast Pump, For Boiler Feeding, EBP-10",https://www.indiamart.com/proddetail/electric-breast-pump-2854409864030.html?pos=165&kwd=electric breast pump&tags=CC||||8230.883|Price|product|||TS|rsf:gd-|-stype:attr=1|qr_nm:gd|res:RC4|com-cf:nl|ptrs:na|ktp:SA1|mc:224339|mtp:S|qry_typ:P|lang:en|wc:3|cs:8959|v=4,United Medicare,https://www.unitedmedicare.in/?pos=165&kwd=electric breast pump&tags=CC||||8230.883|Price|product|||TS|rsf:gd-|-stype:attr=1|qr_nm:gd|res:RC4|com-cf:nl|ptrs:na|ktp:SA1|mc:224339|mtp:S|qry_typ:P|lang:en|wc:3|cs:8959|v=4,False,,Surat,"Shop No.23 Ramnagar Rang Avdhut Society 3, Surat - 395005, Dist.Surat, Gujarat",8045734127,
"Electric Breast Pump, For High Pressure Feeding",https://www.indiamart.com/proddetail/electric-breast-pump-2850970991062.html?pos=166&kwd=electric breast pump&tags=CC||||8559.269|Price|product|||TS|rsf:gd-|-stype:attr=1|qr_nm:gd|res:RC4|com-cf:nl|ptrs:na|ktp:SA1|mc:224339|mtp:S|qry_typ:P|lang:en|wc:3|cs:8959|v=4,Samadhi Samadha Pharmacy,https://www.surgicalglovesindia.com/?pos=166&kwd=electric breast pump&tags=CC||||8559.269|Price|product|||TS|rsf:gd-|-stype:attr=1|qr_nm:gd|res:RC4|com-cf:nl|ptrs:na|ktp:SA1|mc:224339|mtp:S|qry_typ:P|lang:en|wc:3|cs:8959|v=4,False,Professors Colony,Indore,"plot no 38, 1,2 and 3rd floor, Shivswarop Heights, Mangal Nagar, Near Rajiv Gandhi Chouraha,, Professors Colony, Indore - 452001, Dist.Indore, Madhya Pradesh",8048981682,
Symphony Double Electric Breast Pump,https://www.indiamart.com/proddetail/symphony-double-electric-breast-pump-21270222597.html?pos=167&kwd=electric breast pump&tags=CC||||8740.707||product|||TS|rsf:gd-|-stype:attr=1|qr_nm:gd|res:RC4|com-cf:nl|ptrs:na|ktp:SA1|mc:224339|mtp:S|qry_typ:P|lang:en|wc:3|cs:8959|v=4,Cardio Care,https://www.indiamart.com/cardio-care-mohali/?pos=167&kwd=electric breast pump&tags=CC||||8740.707||product|||TS|rsf:gd-|-stype:attr=1|qr_nm:gd|res:RC4|com-cf:nl|ptrs:na|ktp:SA1|mc:224339|mtp:S|qry_typ:P|lang:en|wc:3|cs:8959|v=4,True,Papri Village,Mohali,"Plot 197 Jlpl Ind Park Sec 82 Cardio Care Jlpl Ind Park Sec 82, Papri Village, Mohali - 140306, Dist.Mohali, Punjab",8048973649,
Philips Avent Electric Breast Pump SCF323,https://www.indiamart.com/proddetail/philips-avent-electric-breast-pump-scf323-2852433631388.html?pos=168&kwd=electric breast pump&tags=CC||||9140.514|Price|product|||TS|rsf:gd-|-stype:attr=1|qr_nm:gd|res:RC4|com-cf:nl|ptrs:na|ktp:SA1|mc:224339|mtp:S|qry_typ:P|lang:en|wc:3|cs:8959|v=4,Anjaneya Enterprises,https://www.ridenslide.in/?pos=168&kwd=electric breast pump&tags=CC||||9140.514|Price|product|||TS|rsf:gd-|-stype:attr=1|qr_nm:gd|res:RC4|com-cf:nl|ptrs:na|ktp:SA1|mc:224339|mtp:S|qry_typ:P|lang:en|wc:3|cs:8959|v=4,False,Pandri,Raipur,"SHOP NO-10,SHOPPERS PARADISE,BEHIND CITY CENTER MALL,PANDRI,RAIPUR, Pandri, Raipur - 492001, Chhattisgarh",8046045761,
Breast Pump ( Mothers Room),https://www.indiamart.com/proddetail/breast-pump-mothers-room-2854219382733.html?pos=169&kwd=electric breast pump&tags=CC||||8663.873|Price|product|||TS|rsf:gd-|-stype:attr=1|qr_nm:gd|res:RC4|com-cf:nl|ptrs:na|ktp:SA1|mc:224339|mtp:S|qry_typ:P|lang:en|wc:3|cs:8959|v=4,Arunodhaya Enterprises,https://www.indiamart.com/arunothaya-enterprises/?pos=169&kwd=electric breast pump&tags=CC||||8663.873|Price|product|||TS|rsf:gd-|-stype:attr=1|qr_nm:gd|res:RC4|com-cf:nl|ptrs:na|ktp:SA1|mc:224339|mtp:S|qry_typ:P|lang:en|wc:3|cs:8959|v=4,False,Gandhipuram,Bengaluru,"2nd Cross, No.78, Ground Floor Whitefield, Bengaluru Rural, Gandhipuram, Bengaluru - 560066, Dist.Bengaluru, Karnataka",8045731539,
"Perfecxa Intelligent Automatic Double Breast Pump, Model Name/Number: Vhs 0310",https://www.indiamart.com/proddetail/perfecxa-intelligent-automatic-double-breast-pump-2851648077055.html?pos=170&kwd=electric breast pump&tags=CC||||8500.97|Price|product|||TS|rsf:gd-|-stype:attr=1|qr_nm:gd|res:RC4|com-cf:nl|ptrs:na|ktp:SA1|mc:224339|mtp:S|qry_typ:P|lang:en|wc:3|cs:8959|v=4,Aswathi Medico Surgicals,https://www.indiamart.com/aswathi-medicosurgicals/?pos=170&kwd=electric breast pump&tags=CC||||8500.97|Price|product|||TS|rsf:gd-|-stype:attr=1|qr_nm:gd|res:RC4|com-cf:nl|ptrs:na|ktp:SA1|mc:224339|mtp:S|qry_typ:P|lang:en|wc:3|cs:8959|v=4,False,Chembukabu,Thrissur,"28/293/7, R V Trade Centre, Near Karthyani Nursing Home, Patturaikkal, Chembukabu, Thrissur - 680020, Dist.Thrissur, Kerala",7942619047,
Electronic Breast Pump With Double Bottle,,Surgi King,https://www.indiamart.com/surgi-king/?pos=171&kwd=electric breast pump&tags=CC||||8661.854|Price|product|||TS|rsf:gd-|-stype:attr=1|qr_nm:gd|res:RC4|com-cf:nl|ptrs:na|ktp:SA1|mc:224339|mtp:S|qry_typ:P|lang:en|wc:3|cs:8959|v=4,False,Railway Colony,Ludhiana,"Shop No-8, Manmohan Market ,Pindi Gali,, Railway Colony, Ludhiana - 141008, Dist.Ludhiana, Punjab",8046030681,
MEDIGOLD BREAST PUMP ELECTRIC,,National Surgicals,https://www.indiamart.com/national-surgicals-patna/?pos=172&kwd=electric breast pump&tags=CC||||9520.041||product|||TS|rsf:gd-|-stype:attr=1|qr_nm:gd|res:RC4|com-cf:nl|ptrs:na|ktp:SA1|mc:224339|mtp:S|qry_typ:P|lang:en|wc:3|cs:8959|v=4,False,Langar Toli,Patna,"Janta Place, Govind Mitra Road, National Surgicals, Patna bankipur, Langar Toli, Patna - 800004, Dist.Patna, Bihar",8048607829,
Electric Breast Pump,https://www.indiamart.com/proddetail/electric-breast-pump-25020052091.html?pos=173&kwd=electric breast pump&tags=CC||||8588.208|Price|product|||MDC|rsf:gd-|-stype:attr=1|qr_nm:gd|res:RC4|com-cf:nl|ptrs:na|ktp:SA1|mc:224339|mtp:S|qry_typ:P|lang:en|wc:3|cs:8959|v=4,Aarohi Distributors,https://www.indiamart.com/aarohidistributors/?pos=173&kwd=electric breast pump&tags=CC||||8588.208|Price|product|||MDC|rsf:gd-|-stype:attr=1|qr_nm:gd|res:RC4|com-cf:nl|ptrs:na|ktp:SA1|mc:224339|mtp:S|qry_typ:P|lang:en|wc:3|cs:8959|v=4,False,Borkheda,Kota,"Plot No. 14, Near Durga Mata Mandir, Bajrang Nagar, Main Road, Borkheda, Kota - 324002, Rajasthan",8048273399,
Electric Breast Pump,https://www.indiamart.com/proddetail/electric-breast-pump-2854354568448.html?pos=174&kwd=electric breast pump&tags=CC||||8281.036|Price|product|||MDC|rsf:gd-|-stype:attr=1|qr_nm:gd|res:RC4|com-cf:nl|ptrs:na|ktp:SA1|mc:224339|mtp:S|qry_typ:P|lang:en|wc:3|cs:8959|v=4,Aniva Healthcare Products,https://www.indiamart.com/anivahealthcareproducts/?pos=174&kwd=electric breast pump&tags=CC||||8281.036|Price|product|||MDC|rsf:gd-|-stype:attr=1|qr_nm:gd|res:RC4|com-cf:nl|ptrs:na|ktp:SA1|mc:224339|mtp:S|qry_typ:P|lang:en|wc:3|cs:8959|v=4,False,Sayajigunj,Vadodara,"GF-39, Alankar Tower, Shree Magan Bhai Shankar Bhai Patel Marg Pride Hotel , Sayajigunj, Sayajigunj, Vadodara - 390005, Dist.Vadodara, Gujarat",8044562863,
Electric Breast Pump,https://www.indiamart.com/proddetail/electric-breast-pump-2854134834988.html?pos=175&kwd=electric breast pump&tags=CC||||8559.269|Price|product|||MDC|rsf:gd-|-stype:attr=1|qr_nm:gd|res:RC4|com-cf:nl|ptrs:na|ktp:SA1|mc:224339|mtp:S|qry_typ:P|lang:en|wc:3|cs:8959|v=4,Arpit Care Private Limited,https://www.indiamart.com/arpit-care/?pos=175&kwd=electric breast pump&tags=CC||||8559.269|Price|product|||MDC|rsf:gd-|-stype:attr=1|qr_nm:gd|res:RC4|com-cf:nl|ptrs:na|ktp:SA1|mc:224339|mtp:S|qry_typ:P|lang:en|wc:3|cs:8959|v=4,False,,Indore,"210, HIG, Indore Kanadia Road, Scheme No 94, Indore - 452016, Dist.Indore, Madhya Pradesh",8044015285,
Electric Breast Pump,,S.G. Enterprises,https://www.indiamart.com/sg-enterprisesnewdelhi/?pos=176&kwd=electric breast pump&tags=CC||||8752.144|Price|product|||MDC|rsf:gd-|-stype:attr=1|qr_nm:gd|res:RC4|com-cf:nl|ptrs:na|ktp:SA1|mc:224339|mtp:S|qry_typ:P|lang:en|wc:3|cs:8959|v=4,False,Dwarka Sector 16d,New Delhi,"Commercial Centre Plot No 7, Space No 228 2Nd Floor Vardhman Jay Pee Plaza, Vardhman Jay Pee Plaza,, Dwarka Sector 16d, New Delhi - 110075, Dist.Delhi, Delhi",8047627249,
"Dr. Odin Advanced Digital Electric Breast Pump, Massage & Suction at 1Mile Healthcare",https://www.indiamart.com/proddetail/dr-odin-advanced-digital-electric-breast-pump-massage-suction-at-1mile-healthcare-2850679870048.html?pos=177&kwd=electric breast pump&tags=CC||||8461.862|Price|product|||TS|rsf:gd-|-stype:attr=1|qr_nm:gd|res:RC4|com-cf:nl|ptrs:na|ktp:SA1|mc:224339|mtp:S|qry_typ:P|lang:en|wc:3|cs:8959|v=4,1mile Healthcare,https://www.indiamart.com/onemilehealthcare/?pos=177&kwd=electric breast pump&tags=CC||||8461.862|Price|product|||TS|rsf:gd-|-stype:attr=1|qr_nm:gd|res:RC4|com-cf:nl|ptrs:na|ktp:SA1|mc:224339|mtp:S|qry_typ:P|lang:en|wc:3|cs:8959|v=4,False,Near Gambhir Hospital,Bhilwara,"1st Floor, Galaxy Marketing, Near Gambhir Hospital, Bhilwara - 311001, Dist.Bhilwara, Rajasthan",8048975771,
"BabyGo Electric Breast Pump, For Boiler Feeding",https://www.indiamart.com/proddetail/babygo-electric-breast-pump-24681027662.html?pos=178&kwd=electric breast pump&tags=CC||||8752.144|Price|product|||MDC|rsf:gd-|-stype:attr=1|qr_nm:gd|res:RC4|com-cf:nl|ptrs:na|ktp:SA1|mc:224339|mtp:S|qry_typ:P|lang:en|wc:3|cs:8959|v=4,Narulas Healthcare,https://www.indiamart.com/narulas-healthcare/?pos=178&kwd=electric breast pump&tags=CC||||8752.144|Price|product|||MDC|rsf:gd-|-stype:attr=1|qr_nm:gd|res:RC4|com-cf:nl|ptrs:na|ktp:SA1|mc:224339|mtp:S|qry_typ:P|lang:en|wc:3|cs:8959|v=4,False,Darya Ganj,New Delhi,"Shop No 5011, Ground Floor,15/16 Sterling House, Netaji Subhash Marg, Daryaganj, Darya Ganj, New Delhi - 110002, Dist.Delhi, Delhi",7942538078,
INFI ELECTRIC BREAST PUMP,https://www.indiamart.com/proddetail/infi-electric-breast-pump-25222177455.html?pos=179&kwd=electric breast pump&tags=CC||||8211.142|Price|product|||MDC|rsf:gd-|-stype:attr=1|qr_nm:gd|res:RC4|com-cf:nl|ptrs:na|ktp:SA1|mc:224339|mtp:S|qry_typ:P|lang:en|wc:3|cs:8959|v=4,Gurukrupa Enterprises,https://www.indiamart.com/gurukrupa-enterprisesmaharashtra/?pos=179&kwd=electric breast pump&tags=CC||||8211.142|Price|product|||MDC|rsf:gd-|-stype:attr=1|qr_nm:gd|res:RC4|com-cf:nl|ptrs:na|ktp:SA1|mc:224339|mtp:S|qry_typ:P|lang:en|wc:3|cs:8959|v=4,False,Jogeshwari West,Mumbai,"Gala No. 19, Vakharia Industrial Estate, Ram Mandir Road Goregaon West, Jogeshwari West, Mumbai - 400104, Dist.Mumbai, Maharashtra",7942552053,
CHICCO PORTABLE ELECTRIC BREAST PUMP,https://www.indiamart.com/proddetail/chicco-portable-electric-breast-pump-2851591025473.html?pos=180&kwd=electric breast pump&tags=CC||||8223.226||product|||MDC|rsf:gd-|-stype:attr=1|qr_nm:gd|res:RC4|com-cf:nl|ptrs:na|ktp:SA1|mc:224339|mtp:S|qry_typ:P|lang:en|wc:3|cs:8959|v=4,Shree Guru Pharma,https://www.indiamart.com/shreeguru-pharma/?pos=180&kwd=electric breast pump&tags=CC||||8223.226||product|||MDC|rsf:gd-|-stype:attr=1|qr_nm:gd|res:RC4|com-cf:nl|ptrs:na|ktp:SA1|mc:224339|mtp:S|qry_typ:P|lang:en|wc:3|cs:8959|v=4,False,Mira Road,Thane,"Shop No C-67 101, Ground Floor, Shanti Shopping Centre Premises Chs Ltd, Shopping Centre, Mira Road Mira Road Village Bhanyander, District Thane, Mira Road, Thane - 401107, Dist.Thane, Maharashtra",8045910994,
"Poct EBP 10 Electric Breast Pump, For High Pressure Feeding",https://www.indiamart.com/proddetail/poct-ebp-10-electric-breast-pump-2853718533133.html?pos=181&kwd=electric breast pump&tags=CC||||8786.56|Price|product|||MDC|rsf:gd-|-stype:attr=1|qr_nm:gd|res:RC4|com-cf:nl|ptrs:na|ktp:SA1|mc:224339|mtp:S|qry_typ:P|lang:en|wc:3|cs:8959|v=4,RM Pharma,https://www.indiamart.com/rmpharmahyderabad/?pos=181&kwd=electric breast pump&tags=CC||||8786.56|Price|product|||MDC|rsf:gd-|-stype:attr=1|qr_nm:gd|res:RC4|com-cf:nl|ptrs:na|ktp:SA1|mc:224339|mtp:S|qry_typ:P|lang:en|wc:3|cs:8959|v=4,False,,Hyderabad,"1st Floor, Plot No. 75, 8-3-169, Sr Nagar, Sidharth Nagar, Hyderabad - 500038, Dist.Hyderabad, Telangana",8044457928,
Pigeon Gomini Plus Electric Breast Pump,https://www.indiamart.com/proddetail/pigeon-gomini-plus-electric-breast-pump-2854227210112.html?pos=182&kwd=electric breast pump&tags=CC||||8534.93|Price|product|||MDC|rsf:gd-|-stype:attr=1|qr_nm:gd|res:RC4|com-cf:nl|ptrs:na|ktp:SA1|mc:224339|mtp:S|qry_typ:P|lang:en|wc:3|cs:8959|v=4,Veecay Marketing,https://www.indiamart.com/veecay-marketing-puthuppally/?pos=182&kwd=electric breast pump&tags=CC||||8534.93|Price|product|||MDC|rsf:gd-|-stype:attr=1|qr_nm:gd|res:RC4|com-cf:nl|ptrs:na|ktp:SA1|mc:224339|mtp:S|qry_typ:P|lang:en|wc:3|cs:8959|v=4,False,,Puthuppally,"2/378/D, Kadamuri, Pariyaram, Puthuppally - 686021, Dist.Alappuzha, Kerala",8045736459,
ABS Plastic Electric Breast Milk Pump,https://www.indiamart.com/proddetail/abs-plastic-electric-breast-milk-pump-2853686334933.html?pos=183&kwd=electric breast pump&tags=CC||||8752.144|Price|product|||MDC|rsf:gd-|-stype:attr=1|qr_nm:gd|res:RC4|com-cf:nl|ptrs:na|ktp:SA1|mc:224339|mtp:S|qry_typ:P|lang:en|wc:3|cs:8959|v=4,J V M Thermometer Industries,https://www.indiamart.com/jvm-thermometer-industries/?pos=183&kwd=electric breast pump&tags=CC||||8752.144|Price|product|||MDC|rsf:gd-|-stype:attr=1|qr_nm:gd|res:RC4|com-cf:nl|ptrs:na|ktp:SA1|mc:224339|mtp:S|qry_typ:P|lang:en|wc:3|cs:8959|v=4,False,Naraina,New Delhi,"1st Floor, B-103/5, Naraina Industrial Area, Phase-I, South West Delhi, Naraina, New Delhi - 110028, Dist.Delhi, Delhi",7942622289,
"Mee Mee Electrical Breast Pump, For High Pressure Feeding",https://www.indiamart.com/proddetail/mee-mee-electrical-breast-pump-2853403148955.html?pos=184&kwd=electric breast pump&tags=CC||||9618.383|Price|product|||MDC|rsf:gd-|-stype:attr=1|qr_nm:gd|res:RC4|com-cf:nl|ptrs:na|ktp:SA1|mc:224339|mtp:S|qry_typ:P|lang:en|wc:3|cs:8959|v=4,Texco,https://www.indiamart.com/texco/?pos=184&kwd=electric breast pump&tags=CC||||9618.383|Price|product|||MDC|rsf:gd-|-stype:attr=1|qr_nm:gd|res:RC4|com-cf:nl|ptrs:na|ktp:SA1|mc:224339|mtp:S|qry_typ:P|lang:en|wc:3|cs:8959|v=4,False,Bistupur,Jamshedpur,"Shop No. 2, Main Road, Bistupur, Bistupur, Jamshedpur - 831001, Dist.East Singhbhum, Jharkhand",7949092933,
Mehar Ready Baby Electrical Breast Pump,https://www.indiamart.com/proddetail/mehar-ready-baby-electrical-breast-pump-24834226833.html?pos=185&kwd=electric breast pump&tags=CC||||8752.144|Price|product|||MDC|rsf:gd-|-stype:attr=1|qr_nm:gd|res:RC4|com-cf:nl|ptrs:na|ktp:SA1|mc:224339|mtp:S|qry_typ:P|lang:en|wc:3|cs:8959|v=4,K.N.Surgicals,https://www.indiamart.com/knsurgicals/?pos=185&kwd=electric breast pump&tags=CC||||8752.144|Price|product|||MDC|rsf:gd-|-stype:attr=1|qr_nm:gd|res:RC4|com-cf:nl|ptrs:na|ktp:SA1|mc:224339|mtp:S|qry_typ:P|lang:en|wc:3|cs:8959|v=4,False,Shahdara,New Delhi,"1/11829, E Block, Panchsheel Garden, East Delhi, Shahdara, New Delhi - 110032, Dist.Delhi, Delhi",8047524495,
PERFECXA INTELLIGENT AUTOMATIC DOUBLE BREAST PUMP VHS-0310,https://www.indiamart.com/proddetail/perfecxa-intelligent-automatic-double-breast-pump-vhs-0310-2853518066088.html?pos=186&kwd=electric breast pump&tags=CC||||8601.347|Price|product|||MDC|rsf:gd-|-stype:attr=1|qr_nm:gd|res:RC4|com-cf:nl|ptrs:na|ktp:SA1|mc:224339|mtp:S|qry_typ:P|lang:en|wc:3|cs:8959|v=4,M. S. Medical & Surgicals,https://www.indiamart.com/msmedicalsurgicals/?pos=186&kwd=electric breast pump&tags=CC||||8601.347|Price|product|||MDC|rsf:gd-|-stype:attr=1|qr_nm:gd|res:RC4|com-cf:nl|ptrs:na|ktp:SA1|mc:224339|mtp:S|qry_typ:P|lang:en|wc:3|cs:8959|v=4,False,Sector 12,Jaipur,"Plot No. 12-13, Shiv Chambers, Kirti Nagar-L, Khejdo Ka Bass, Iskcon Road,, Sector 12, Jaipur - 302020, Dist.Jaipur, Rajasthan",8043812807,
Breast Pump Manual And Electric,https://www.indiamart.com/proddetail/breast-pump-manual-and-electric-2853671435091.html?pos=187&kwd=electric breast pump&tags=||||8663.873||product|||TS|rsf:gd-|-stype:attr=1|qr_nm:gd|res:RC4|com-cf:nl|ptrs:na|ktp:SA1|mc:224339|mtp:S|qry_typ:P|lang:en|wc:3|cs:8959|v=4,Healcure Implants & Surgicals,https://www.indiamart.com/healcure-implants-surgicals/?pos=187&kwd=electric breast pump&tags=||||8663.873||product|||TS|rsf:gd-|-stype:attr=1|qr_nm:gd|res:RC4|com-cf:nl|ptrs:na|ktp:SA1|mc:224339|mtp:S|qry_typ:P|lang:en|wc:3|cs:8959|v=4,False,Chamarajpet,Bengaluru,"No 238,Ground Floor,Suvas,3rd Cross 3rd Main Road,Chamarajapet, Chamarajpet, Bengaluru - 560018, Dist.Bengaluru, Karnataka",7942828403,
"Manual Breast Pump, Model Name/Number: Mom N Baby",https://www.indiamart.com/proddetail/manual-breast-pump-2854704942955.html?pos=188&kwd=electric breast pump&tags=||||8747.203|Price|product|||TS|rsf:gd-|-stype:attr=1|qr_nm:gd|res:RC4|com-cf:nl|ptrs:na|ktp:SA1|mc:224339|mtp:S|qry_typ:P|lang:en|wc:3|cs:8959|v=4,P.P.H. Sales Corporation,https://www.pphsurgicals.com/?pos=188&kwd=electric breast pump&tags=||||8747.203|Price|product|||TS|rsf:gd-|-stype:attr=1|qr_nm:gd|res:RC4|com-cf:nl|ptrs:na|ktp:SA1|mc:224339|mtp:S|qry_typ:P|lang:en|wc:3|cs:8959|v=4,False,,Panipat,"Plot No. 44, Barsat Road, Jyoti Colony, Panipat - 132103, Dist.Panipat, Haryana",8043800097,
"Breast Pump Reliever Part Only, Model Name/Number: Nhc -pp101",https://www.indiamart.com/proddetail/breast-pump-reliever-part-only-22493431188.html?pos=189&kwd=electric breast pump&tags=||||8752.144|Price|product|||TS|rsf:gd-|-stype:attr=1|qr_nm:gd|res:RC4|com-cf:nl|ptrs:na|ktp:SA1|mc:224339|mtp:S|qry_typ:P|lang:en|wc:3|cs:8959|v=4,Noble Healthcare,https://www.derbyhealthcare.in/?pos=189&kwd=electric breast pump&tags=||||8752.144|Price|product|||TS|rsf:gd-|-stype:attr=1|qr_nm:gd|res:RC4|com-cf:nl|ptrs:na|ktp:SA1|mc:224339|mtp:S|qry_typ:P|lang:en|wc:3|cs:8959|v=4,False,Subhash Nagar,New Delhi,"Shop No. 14/127, Ground Floor, Subhash Nagar, Subhash Nagar, New Delhi - 110027, Dist.Delhi, Delhi",8048955013,
"Cadle Baby Manual Breast Feeding Pump, Model Name/Number: CB200",https://www.indiamart.com/proddetail/cadle-baby-manual-breast-feeding-pump-2851072147962.html?pos=190&kwd=electric breast pump&tags=||||8788.382|Price|product|||MDC|rsf:gd-|-stype:attr=1|qr_nm:gd|res:RC4|com-cf:nl|ptrs:na|ktp:SA1|mc:224339|mtp:S|qry_typ:P|lang:en|wc:3|cs:8959|v=4,Loop Techno Systems Private Limited,https://www.indiamart.com/loop-technosystems/?pos=190&kwd=electric breast pump&tags=||||8788.382|Price|product|||MDC|rsf:gd-|-stype:attr=1|qr_nm:gd|res:RC4|com-cf:nl|ptrs:na|ktp:SA1|mc:224339|mtp:S|qry_typ:P|lang:en|wc:3|cs:8959|v=4,False,Surajpur Site V,Greater Noida,"Plot No. J-023, Site 5, Kasna Ind, Area,Gautam Buddha Nagar, Surajpur Site V, Greater Noida - 201308, Dist.Gautam Budh Nagar, Uttar Pradesh",7942830535,
Manual Breast Pump Bottle,https://www.indiamart.com/proddetail/manual-breast-pump-bottle-2853920173191.html?pos=191&kwd=electric breast pump&tags=||||8954.051|Price|product|||MDC|rsf:gd-|-stype:attr=1|qr_nm:gd|res:RC4|com-cf:nl|ptrs:na|ktp:SA1|mc:224339|mtp:S|qry_typ:P|lang:en|wc:3|cs:8959|v=4,For Lil Ones LLP,https://www.indiamart.com/for-lilones/?pos=191&kwd=electric breast pump&tags=||||8954.051|Price|product|||MDC|rsf:gd-|-stype:attr=1|qr_nm:gd|res:RC4|com-cf:nl|ptrs:na|ktp:SA1|mc:224339|mtp:S|qry_typ:P|lang:en|wc:3|cs:8959|v=4,False,Perungalattur,Chennai,"30/4, Rajaji Street, Srinivasa Nagar, Perungalattur, Chengalpattu, Perungalattur, Chennai - 600063, Dist.Chennai, Tamil Nadu",8044012811,
Healthshine Breast Pump Manual,https://www.indiamart.com/proddetail/healthshine-breast-pump-manual-2851891256062.html?pos=192&kwd=electric breast pump&tags=||||8663.873|Price|product|||TS|rsf:gd-|-stype:attr=1|qr_nm:gd|res:RC4|com-cf:nl|ptrs:na|ktp:SA1|mc:224339|mtp:S|qry_typ:P|lang:en|wc:3|cs:8959|v=4,Prajwal Surgical And Scientifics Private Limited,https://www.indiamart.com/prajwal-surgical-and-scientifics/?pos=192&kwd=electric breast pump&tags=||||8663.873|Price|product|||TS|rsf:gd-|-stype:attr=1|qr_nm:gd|res:RC4|com-cf:nl|ptrs:na|ktp:SA1|mc:224339|mtp:S|qry_typ:P|lang:en|wc:3|cs:8959|v=4,False,Peenya,Bengaluru,"2nd Floor, 254/A PID No 11-161-254A, Old Sonal Garments, 100 Feet Road, Peenya Industrial Area Stage, Peenya, Bengaluru - 560058, Dist.Bengaluru, Karnataka",7942842256,
Manual Breast Pump,https://www.indiamart.com/proddetail/manual-breast-pump-2854095202948.html?pos=193&kwd=electric breast pump&tags=||||8752.144||product|||TS|rsf:gd-|-stype:attr=1|qr_nm:gd|res:RC4|com-cf:nl|ptrs:na|ktp:SA1|mc:224339|mtp:S|qry_typ:P|lang:en|wc:3|cs:8959|v=4,Times Healthcare,https://www.indiamart.com/timeshealthcare/?pos=193&kwd=electric breast pump&tags=||||8752.144||product|||TS|rsf:gd-|-stype:attr=1|qr_nm:gd|res:RC4|com-cf:nl|ptrs:na|ktp:SA1|mc:224339|mtp:S|qry_typ:P|lang:en|wc:3|cs:8959|v=4,False,,New Delhi,"Ground Floor, Plot No 97-A & 98-a, Main Pandav Road, Block No-25, Vishwas Nagar, New Delhi - 110032, Dist.Delhi, Delhi",7942554793,
Manual Breastfeeding Pump,https://www.indiamart.com/proddetail/manual-breastfeeding-pump-2852745300130.html?pos=194&kwd=electric breast pump&tags=||||8752.144|Price|product|||TS|rsf:gd-|-stype:attr=1|qr_nm:gd|res:RC4|com-cf:nl|ptrs:na|ktp:SA1|mc:224339|mtp:S|qry_typ:P|lang:en|wc:3|cs:8959|v=4,Mico Surgical Equipments (India) Private Limited,https://www.indiamart.com/micosurgicalequipments/?pos=194&kwd=electric breast pump&tags=||||8752.144|Price|product|||TS|rsf:gd-|-stype:attr=1|qr_nm:gd|res:RC4|com-cf:nl|ptrs:na|ktp:SA1|mc:224339|mtp:S|qry_typ:P|lang:en|wc:3|cs:8959|v=4,False,Pahari Dhiraj,New Delhi,"3141/42, Barwala Chowk, Pahari Dhiraj, Central Delhi, Pahari Dhiraj, New Delhi - 110006, Dist.Delhi, Delhi",8047833268,
"HealthSense Breast Pump for Feeding Mothers, Handsfree Electric Pump, Rechargable, LCD Touch Panel",https://www.indiamart.com/proddetail/healthsense-breast-pump-for-feeding-mothers-handsfree-electric-pump-rechargable-lcd-touch-panel-2853503929891.html?pos=195&kwd=electric breast pump&tags=||||8307.81|Price|product|||TS|rsf:gd-|-stype:attr=1|qr_nm:gd|res:RC4|com-cf:nl|ptrs:na|ktp:SA1|mc:224339|mtp:S|qry_typ:P|lang:en|wc:3|cs:8959|v=4,DB Brands Private Limited,https://www.goodscity.co.in/?pos=195&kwd=electric breast pump&tags=||||8307.81|Price|product|||TS|rsf:gd-|-stype:attr=1|qr_nm:gd|res:RC4|com-cf:nl|ptrs:na|ktp:SA1|mc:224339|mtp:S|qry_typ:P|lang:en|wc:3|cs:8959|v=4,False,Amanora,Pune,"DB Brands Private Limited, Amanora Park, Sector R 8 T 98 2004, Town Sadesatra, Amanora, Pune - 411028, Dist.Pune, Maharashtra",7948547612,
Breast model.,,T D Model And Scientific Co,https://www.indiamart.com/tdmodelsscientificcompany/?pos=196&kwd=electric breast pump&tags=||||8741.987|Price|product|||TS|rsf:gd-|-stype:attr=1|qr_nm:gd|res:RC4|com-cf:nl|ptrs:na|ktp:SA1|mc:224339|mtp:S|qry_typ:P|lang:en|wc:3|cs:8959|v=4,False,Cantt,Ambala,"Plot 86, Hsiidc Industrial Estaet, Sector-1, Phase-1, Saha, Ambala Cantt, Cantt, Ambala - 133001, Dist.Ambala, Haryana",8046035748,
Manual Breast Pump,https://www.indiamart.com/proddetail/manual-breast-pump-2854309957773.html?pos=197&kwd=electric breast pump&tags=||||8752.144|Price|product|||MDC|rsf:gd-|-stype:attr=1|qr_nm:gd|res:RC4|com-cf:nl|ptrs:na|ktp:SA1|mc:224339|mtp:S|qry_typ:P|lang:en|wc:3|cs:8959|v=4,Shivam Enterprises,https://www.indiamart.com/shivamenterprises-delhiindia/?pos=197&kwd=electric breast pump&tags=||||8752.144|Price|product|||MDC|rsf:gd-|-stype:attr=1|qr_nm:gd|res:RC4|com-cf:nl|ptrs:na|ktp:SA1|mc:224339|mtp:S|qry_typ:P|lang:en|wc:3|cs:8959|v=4,False,North West Delhi,New Delhi,"Ground, E-10, Begum Pur, Bharat Vihar Extn, Brahama Shakti Public School, North West Delhi, New Delhi - 110086, Dist.Delhi, Delhi",8045732571,
Rubber Breast Reliever Bulb,https://www.indiamart.com/proddetail/rubber-breast-reliever-bulb-17985820788.html?pos=198&kwd=electric breast pump&tags=||||8741.987|Price|product|||TS|rsf:gd-|-stype:attr=1|qr_nm:gd|res:RC4|com-cf:nl|ptrs:na|ktp:SA1|mc:224339|mtp:S|qry_typ:P|lang:en|wc:3|cs:8959|v=4,Rubbertron Industries,https://www.rubbertron.com/?pos=198&kwd=electric breast pump&tags=||||8741.987|Price|product|||TS|rsf:gd-|-stype:attr=1|qr_nm:gd|res:RC4|com-cf:nl|ptrs:na|ktp:SA1|mc:224339|mtp:S|qry_typ:P|lang:en|wc:3|cs:8959|v=4,False,Tribune Colony,Ambala,"No. 2580/29/A-2, Subhash Park Road, Tribune Colony, Ambala - 133001, Dist.Ambala, Haryana",8048610933,
Nursing Manual Breast Pump,https://www.indiamart.com/proddetail/manual-breast-pump-22415337830.html?pos=199&kwd=electric breast pump&tags=||||8752.144|Price|product|||TS|rsf:gd-|-stype:attr=1|qr_nm:gd|res:RC4|com-cf:nl|ptrs:na|ktp:SA1|mc:224339|mtp:S|qry_typ:P|lang:en|wc:3|cs:8959|v=4,Mallard Solution,https://www.indiamart.com/mallard-solution/?pos=199&kwd=electric breast pump&tags=||||8752.144|Price|product|||TS|rsf:gd-|-stype:attr=1|qr_nm:gd|res:RC4|com-cf:nl|ptrs:na|ktp:SA1|mc:224339|mtp:S|qry_typ:P|lang:en|wc:3|cs:8959|v=4,False,Jamia Nagar,New Delhi,"House No. G 9, Ground Floor, Shaheen Bagh Abul Fazal Enclave, Part 2, Jamia Nagar, New Delhi - 110025, Dist.Delhi, Delhi",8048960517,
"BREAST PUMP MANUAL, Model Name/Number: LD-101",https://www.indiamart.com/proddetail/breast-pump-manual-23733811433.html?pos=200&kwd=electric breast pump&tags=||||8954.051|Price|product|||TS|rsf:gd-|-stype:attr=1|qr_nm:gd|res:RC4|com-cf:nl|ptrs:na|ktp:SA1|mc:224339|mtp:S|qry_typ:P|lang:en|wc:3|cs:8959|v=4,Chris Merchant Private Limited,https://www.chrismerchant.co.in/?pos=200&kwd=electric breast pump&tags=||||8954.051|Price|product|||TS|rsf:gd-|-stype:attr=1|qr_nm:gd|res:RC4|com-cf:nl|ptrs:na|ktp:SA1|mc:224339|mtp:S|qry_typ:P|lang:en|wc:3|cs:8959|v=4,False,Koyambedu,Chennai,"No. 5, Poonamalee High Road, Koyambedu, Chennai - 600107, Dist.Chennai, Tamil Nadu",8048956521,
Breast Pump Relever,https://www.indiamart.com/proddetail/breast-pump-relever-2853353018930.html?pos=201&kwd=electric breast pump&tags=||||8601.347|Price|product|||TS|rsf:gd-|-stype:attr=1|qr_nm:gd|res:RC4|com-cf:nl|ptrs:na|ktp:SA1|mc:224339|mtp:S|qry_typ:P|lang:en|wc:3|cs:8959|v=4,T. C. Pharma,https://www.indiamart.com/tcpharma/?pos=201&kwd=electric breast pump&tags=||||8601.347|Price|product|||TS|rsf:gd-|-stype:attr=1|qr_nm:gd|res:RC4|com-cf:nl|ptrs:na|ktp:SA1|mc:224339|mtp:S|qry_typ:P|lang:en|wc:3|cs:8959|v=4,False,Bambala,Jaipur,"162/214, Ground Floor, Sector-16, Pratap Nagar,, Bambala, Jaipur - 302033, Dist.Jaipur, Rajasthan",8048273054,
"Max-Life Breast Pump Manual, Model Name/Number: ZSE:A272",https://www.indiamart.com/proddetail/max-life-breast-pump-manual-2854113965033.html?pos=202&kwd=electric breast pump&tags=||||8752.144|Price|product|||TS|rsf:gd-|-stype:attr=1|qr_nm:gd|res:RC4|com-cf:nl|ptrs:na|ktp:SA1|mc:224339|mtp:S|qry_typ:P|lang:en|wc:3|cs:8959|v=4,Zohra Surgical Enterprises,https://www.indiamart.com/zohra-surgical-enterprises/?pos=202&kwd=electric breast pump&tags=||||8752.144|Price|product|||TS|rsf:gd-|-stype:attr=1|qr_nm:gd|res:RC4|com-cf:nl|ptrs:na|ktp:SA1|mc:224339|mtp:S|qry_typ:P|lang:en|wc:3|cs:8959|v=4,False,Chandni Chowk,New Delhi,"II/1933, Shop No.308, IIIrd Floor , Shiv Shankar Market , Bhagirathi Place, Chandni Chowk ,, Chandni Chowk, New Delhi - 110006, Dist.Delhi, Delhi",8043802007,
Manual Breast Pump,https://www.indiamart.com/proddetail/manual-breast-pump-26764231530.html?pos=203&kwd=electric breast pump&tags=||||8752.144||product|||TS|rsf:gd-|-stype:attr=1|qr_nm:gd|res:RC4|com-cf:nl|ptrs:na|ktp:SA1|mc:224339|mtp:S|qry_typ:P|lang:en|wc:3|cs:8959|v=4,Vishal Scientific & Surgical Udyog,https://www.indiamart.com/vssu/?pos=203&kwd=electric breast pump&tags=||||8752.144||product|||TS|rsf:gd-|-stype:attr=1|qr_nm:gd|res:RC4|com-cf:nl|ptrs:na|ktp:SA1|mc:224339|mtp:S|qry_typ:P|lang:en|wc:3|cs:8959|v=4,False,Shastri Nagar,New Delhi,"E-2/103-A, Near Metro Station, Shastri Nagar, New Delhi - 110052, Dist.Delhi, Delhi",8047638558,
Breast Pump,https://www.indiamart.com/proddetail/breast-pump-2851246622897.html?pos=204&kwd=electric breast pump&tags=||||8547.131||product|||MDC|rsf:gd-|-stype:attr=1|qr_nm:gd|res:RC4|com-cf:nl|ptrs:na|ktp:SA1|mc:224339|mtp:S|qry_typ:P|lang:en|wc:3|cs:8959|v=4,Ambaa & Sons,https://www.indiamart.com/ambaaandsons/?pos=204&kwd=electric breast pump&tags=||||8547.131||product|||MDC|rsf:gd-|-stype:attr=1|qr_nm:gd|res:RC4|com-cf:nl|ptrs:na|ktp:SA1|mc:224339|mtp:S|qry_typ:P|lang:en|wc:3|cs:8959|v=4,False,Akvn Industrial Area,Mhow,"264 Umariya Colony Umariya Mhow, Akvn Industrial Area, Mhow - 453441, Dist.Indore, Madhya Pradesh",8046039551,
Shashico Manual Breast Pump,https://www.indiamart.com/proddetail/shashico-manual-breast-pump-2852490721762.html?pos=205&kwd=electric breast pump&tags=||||8752.144|Price|product|||TS|rsf:gd-|-stype:attr=1|qr_nm:gd|res:RC4|com-cf:nl|ptrs:na|ktp:SA1|mc:224339|mtp:S|qry_typ:P|lang:en|wc:3|cs:8959|v=4,A.D.Enterprises,https://www.indiamart.com/adenterprises-shahdara/?pos=205&kwd=electric breast pump&tags=||||8752.144|Price|product|||TS|rsf:gd-|-stype:attr=1|qr_nm:gd|res:RC4|com-cf:nl|ptrs:na|ktp:SA1|mc:224339|mtp:S|qry_typ:P|lang:en|wc:3|cs:8959|v=4,False,Shahdara,New Delhi,"S/F, 1/5113, Gali No.5, Balbir Nagar, Shahdara, Shahdara, New Delhi - 110032, Dist.Delhi, Delhi",7942707293,
Manual Breast Pump,https://www.indiamart.com/proddetail/manual-breast-pump-2854541184555.html?pos=206&kwd=electric breast pump&tags=||||8752.144|Price|product|||MDC|rsf:gd-|-stype:attr=1|qr_nm:gd|res:RC4|com-cf:nl|ptrs:na|ktp:SA1|mc:224339|mtp:S|qry_typ:P|lang:en|wc:3|cs:8959|v=4,Newgen Partners,https://www.indiamart.com/newgenpartners/?pos=206&kwd=electric breast pump&tags=||||8752.144|Price|product|||MDC|rsf:gd-|-stype:attr=1|qr_nm:gd|res:RC4|com-cf:nl|ptrs:na|ktp:SA1|mc:224339|mtp:S|qry_typ:P|lang:en|wc:3|cs:8959|v=4,False,,New Delhi,"Jawahar Park, E-34A, Ground Floor, Laxmi Nagar, East Delhi,, New Delhi - 110092, Dist.Delhi, Delhi",8048213363,
Manual Breast Pump,https://www.indiamart.com/proddetail/manual-breast-pump-2854881685573.html?pos=207&kwd=electric breast pump&tags=||||8828.05|Price|product|||MDC|rsf:gd-|-stype:attr=1|qr_nm:gd|res:RC4|com-cf:nl|ptrs:na|ktp:SA1|mc:224339|mtp:S|qry_typ:P|lang:en|wc:3|cs:8959|v=4,Sri Padmavathi Surgicals And Health Services,https://www.indiamart.com/sripadmavathisurgicalshealthservices/?pos=207&kwd=electric breast pump&tags=||||8828.05|Price|product|||MDC|rsf:gd-|-stype:attr=1|qr_nm:gd|res:RC4|com-cf:nl|ptrs:na|ktp:SA1|mc:224339|mtp:S|qry_typ:P|lang:en|wc:3|cs:8959|v=4,False,,Chittoor,"Ground Floor, 17-431, Sundarayya Street, Chittoor - 517001, Dist.Chittoor, Andhra Pradesh",8046046046,
Breast Reliever Pump,https://www.indiamart.com/proddetail/breast-reliever-pump-2854144226191.html?pos=208&kwd=electric breast pump&tags=||||9572.14|Price|product|||MDC|rsf:gd-|-stype:attr=1|qr_nm:gd|res:RC4|com-cf:nl|ptrs:na|ktp:SA1|mc:224339|mtp:S|qry_typ:P|lang:en|wc:3|cs:8959|v=4,Suhasini Pharmaceuticals,https://www.indiamart.com/suhasinipharmaceuticals/?pos=208&kwd=electric breast pump&tags=||||9572.14|Price|product|||MDC|rsf:gd-|-stype:attr=1|qr_nm:gd|res:RC4|com-cf:nl|ptrs:na|ktp:SA1|mc:224339|mtp:S|qry_typ:P|lang:en|wc:3|cs:8959|v=4,False,,Bhubaneswar,"Ground Floor, OSHC Complex, Plot No-24, Unit-111,Old Administrative Building, Kharavelanagar, Bhubaneswar - 751001, Dist.Khorda, Odisha",8045732380,
"Printed Transparent Tender Flo Manual Breast Pump, Noraml, Capacity: 150 ml",https://www.indiamart.com/proddetail/tender-flo-manual-breast-pump-24495226573.html?pos=209&kwd=electric breast pump&tags=||||8778.123|Price|product|||TS|rsf:gd-|-stype:attr=1|qr_nm:gd|res:RC4|com-cf:nl|ptrs:na|ktp:SA1|mc:224339|mtp:S|qry_typ:P|lang:en|wc:3|cs:8959|v=4,Bonny Products Private Limited,https://www.feedingbottles.com/?pos=209&kwd=electric breast pump&tags=||||8778.123|Price|product|||TS|rsf:gd-|-stype:attr=1|qr_nm:gd|res:RC4|com-cf:nl|ptrs:na|ktp:SA1|mc:224339|mtp:S|qry_typ:P|lang:en|wc:3|cs:8959|v=4,False,Sector 63,Noida,"D240, Sector 63, Sector 63, Noida - 201307, Dist.Gautam Budh Nagar, Uttar Pradesh",8046040824,
Breast Pump Manual Plastic,https://www.indiamart.com/proddetail/breast-pump-manual-plastic-22450562248.html?pos=210&kwd=electric breast pump&tags=||||8752.144||product|||MDC|rsf:gd-|-stype:attr=1|qr_nm:gd|res:RC4|com-cf:nl|ptrs:na|ktp:SA1|mc:224339|mtp:S|qry_typ:P|lang:en|wc:3|cs:8959|v=4,Trishir Overseas,https://www.indiamart.com/trishir-overseas-delhi/?pos=210&kwd=electric breast pump&tags=||||8752.144||product|||MDC|rsf:gd-|-stype:attr=1|qr_nm:gd|res:RC4|com-cf:nl|ptrs:na|ktp:SA1|mc:224339|mtp:S|qry_typ:P|lang:en|wc:3|cs:8959|v=4,False,Punjabi Bagh,New Delhi,"C 34, 2nd Floor, Bhagwan Dass Nagar, Punjabi Bagh, New Delhi - 110026, Dist.Delhi, Delhi",8048989280,
