product_title,product_link,company_name,company_link,is_verified_exporter,city_region,city,address_details,phone_number,phone_number_extension
Green Feeding Gown Maternity Dress,https://www.indiamart.com/proddetail/feeding-gown-maternity-dress-10725664655.html?pos=1&kwd=feeding gown&tags=A||||8601.347|Price|product|||TS|rsf:gd-|-stype:attr=1|qr_nm:gd|res:RC3|com-cf:nl|ptrs:na|ktp:N0|mc:190798|mtp:S|qry_typ:P|lang:en|wc:2|flavl:0|cs:9660|v=4,Jaipuri Bandhej,https://www.jaipuribandhej.net/?pos=1&kwd=feeding gown&tags=A||||8601.347|Price|product|||TS|rsf:gd-|-stype:attr=1|qr_nm:gd|res:RC3|com-cf:nl|ptrs:na|ktp:N0|mc:190798|mtp:S|qry_typ:P|lang:en|wc:2|flavl:0|cs:9660|v=4,False,Vidhyadhar Nagar,Jaipur,"Laxmi Niwas, 42-A, Hans Vatika Naya Khera, Vidhyadhar Nagar, Vidhyadhar Nagar, Jaipur - 302039, Dist.Jaipur, Rajasthan",8048619795,
Maternity Feeding Gown,https://www.indiamart.com/proddetail/maternity-feeding-gown-2852611776030.html?pos=2&kwd=feeding gown&tags=A||||8601.347|Price|product|||TS|rsf:gd-|-stype:attr=1|qr_nm:gd|res:RC3|com-cf:nl|ptrs:na|ktp:N0|mc:190798|mtp:S|qry_typ:P|lang:en|wc:2|flavl:0|cs:9660|v=4,Namokar Enterprises,https://www.indiamart.com/namokarenterprises/?pos=2&kwd=feeding gown&tags=A||||8601.347|Price|product|||TS|rsf:gd-|-stype:attr=1|qr_nm:gd|res:RC3|com-cf:nl|ptrs:na|ktp:N0|mc:190798|mtp:S|qry_typ:P|lang:en|wc:2|flavl:0|cs:9660|v=4,False,Mansarovar,Jaipur,"119/67, Thadi Market, Agarwal Farm, Mansarovar, Mansarovar, Jaipur - 302020, Dist.Jaipur, Rajasthan",8047530717,
Cotton Printed Feeding Gown,https://www.indiamart.com/proddetail/feeding-gown-21459347530.html?pos=3&kwd=feeding gown&tags=A||||8601.347|Price|product|||TS|rsf:gd-|-stype:attr=1|qr_nm:gd|res:RC3|com-cf:nl|ptrs:na|ktp:N0|mc:190798|mtp:S|qry_typ:P|lang:en|wc:2|flavl:0|cs:9660|v=4,Mudrika Fashions (A Brand of Silver Organisation),https://www.indiamart.com/silverorganisation/?pos=3&kwd=feeding gown&tags=A||||8601.347|Price|product|||TS|rsf:gd-|-stype:attr=1|qr_nm:gd|res:RC3|com-cf:nl|ptrs:na|ktp:N0|mc:190798|mtp:S|qry_typ:P|lang:en|wc:2|flavl:0|cs:9660|v=4,False,Luniawas,Jaipur,"A-1, Kanji Nagar, Luniawas, Jaipur - 302031, Dist.Jaipur, Rajasthan",8046042577,
Unisex Ot Room Wear Ladies Maternity Feeding Gown,https://www.indiamart.com/proddetail/ladies-maternity-feeding-gown-21371751655.html?pos=4&kwd=feeding gown&tags=A||||8661.854|Price|product|||TS|rsf:gd-|-stype:attr=1|qr_nm:gd|res:RC3|com-cf:nl|ptrs:na|ktp:N0|mc:190798|mtp:S|qry_typ:P|lang:en|wc:2|flavl:0|cs:9660|v=4,Preet Medi Wears,https://www.preetmediwears.com/?pos=4&kwd=feeding gown&tags=A||||8661.854|Price|product|||TS|rsf:gd-|-stype:attr=1|qr_nm:gd|res:RC3|com-cf:nl|ptrs:na|ktp:N0|mc:190798|mtp:S|qry_typ:P|lang:en|wc:2|flavl:0|cs:9660|v=4,False,Guru Arjan Dev Nagar,Ludhiana,"Verma Colony, Bansal Colony, Near Essar Petrol Pump, Churpur Haibowal Kalan, Guru Arjan Dev Nagar, Ludhiana - 141007, Dist.Ludhiana, Punjab",8048967968,
"Green Solid Women's Hosiery Cotton Nursing/Maternity/Feeding Night, Half Sleeve",https://www.indiamart.com/proddetail/women-s-hosiery-cotton-nursing-maternity-feeding-night-2851517110297.html?pos=5&kwd=feeding gown&tags=A||||8752.144|Price|product|||TS|rsf:gd-|-stype:attr=1|qr_nm:gd|res:RC3|com-cf:nl|ptrs:na|ktp:N0|mc:190798|mtp:S|qry_typ:P|lang:en|wc:2|flavl:0|cs:9660|v=4,Aggarwal & Sons,https://www.indiamart.com/aggarwal-sons-dehli/?pos=5&kwd=feeding gown&tags=A||||8752.144|Price|product|||TS|rsf:gd-|-stype:attr=1|qr_nm:gd|res:RC3|com-cf:nl|ptrs:na|ktp:N0|mc:190798|mtp:S|qry_typ:P|lang:en|wc:2|flavl:0|cs:9660|v=4,False,Karawal Nagar,New Delhi,"H No.-3 G/f Kh No.-5/27/1 ,Main Road Kamal Vihar Nr Police Station, Karawal Nagar, New Delhi - 110094, Dist.Delhi, Delhi",7942804253,
Cotton Ladies Feeding Gown,https://www.indiamart.com/proddetail/ladies-feeding-gown-2854258268862.html?pos=6&kwd=feeding gown&tags=A||||8601.347|Price|product|||TS|rsf:gd-|-stype:attr=1|qr_nm:gd|res:RC3|com-cf:nl|ptrs:na|ktp:N0|mc:190798|mtp:S|qry_typ:P|lang:en|wc:2|flavl:0|cs:9660|v=4,Pooja Trends,https://www.indiamart.com/poojatrends-jaipur/?pos=6&kwd=feeding gown&tags=A||||8601.347|Price|product|||TS|rsf:gd-|-stype:attr=1|qr_nm:gd|res:RC3|com-cf:nl|ptrs:na|ktp:N0|mc:190798|mtp:S|qry_typ:P|lang:en|wc:2|flavl:0|cs:9660|v=4,False,Sanganer Jaipur,Jaipur,"Nk Tower , Shop no. 3 Nagar Nigam Road, Sanganer Jaipur, Jaipur - 302029, Dist.Jaipur, Rajasthan",8048211271,
"Ladies Blue Printed Cotton Nightgown, Sleeveless",https://www.indiamart.com/proddetail/ladies-blue-printed-sleeveless-cotton-nightgown-2851975673297.html?pos=7&kwd=feeding gown&tags=A||||8242.731|Price|product|||MDC|rsf:gd-|-stype:attr=1|qr_nm:gd|res:RC3|com-cf:nl|ptrs:na|ktp:N0|mc:190798|mtp:S|qry_typ:P|lang:en|wc:2|flavl:0|cs:9660|v=4,Shanaya Garments,https://www.indiamart.com/shanayagarments/?pos=7&kwd=feeding gown&tags=A||||8242.731|Price|product|||MDC|rsf:gd-|-stype:attr=1|qr_nm:gd|res:RC3|com-cf:nl|ptrs:na|ktp:N0|mc:190798|mtp:S|qry_typ:P|lang:en|wc:2|flavl:0|cs:9660|v=4,False,Ulhasnagar-5,Ulhasnagar,"BRK No. 2108, Shivaji Chawl No 01, Near Lalchakki, Ulhasnagar-5, Ulhasnagar - 421005, Dist.Thane, Maharashtra",8044460414,
Maternity Feeding Kurti,https://www.indiamart.com/proddetail/maternity-feeding-kurti-2853568219912.html?pos=8&kwd=feeding gown&tags=A||||8601.347|Price|product|||MDC|rsf:gd-|-stype:attr=1|qr_nm:gd|res:RC3|com-cf:nl|ptrs:na|ktp:N0|mc:190798|mtp:S|qry_typ:P|lang:en|wc:2|flavl:0|cs:9660|v=4,Runway Enterprises,https://www.indiamart.com/runwayenterprises/?pos=8&kwd=feeding gown&tags=A||||8601.347|Price|product|||MDC|rsf:gd-|-stype:attr=1|qr_nm:gd|res:RC3|com-cf:nl|ptrs:na|ktp:N0|mc:190798|mtp:S|qry_typ:P|lang:en|wc:2|flavl:0|cs:9660|v=4,False,Jamna Puri,Jaipur,"Plot No 133, Benar Road, Scheme Shri Jorawar Nagar,, Jamna Puri, Jaipur - 302039, Dist.Jaipur, Rajasthan",7942718276,
Green Printed Maternity Feeding Gown,https://www.indiamart.com/proddetail/green-printed-maternity-feeding-gown-2853998835848.html?pos=9&kwd=feeding gown&tags=A||||8601.347|Price|product|||MDC|rsf:gd-|-stype:attr=1|qr_nm:gd|res:RC3|com-cf:nl|ptrs:na|ktp:N0|mc:190798|mtp:S|qry_typ:P|lang:en|wc:2|flavl:0|cs:9660|v=4,Aditya Enterprises,https://www.indiamart.com/adityaenterprises-jaipurrajasthan/?pos=9&kwd=feeding gown&tags=A||||8601.347|Price|product|||MDC|rsf:gd-|-stype:attr=1|qr_nm:gd|res:RC3|com-cf:nl|ptrs:na|ktp:N0|mc:190798|mtp:S|qry_typ:P|lang:en|wc:2|flavl:0|cs:9660|v=4,False,Murlipura,Jaipur,"First Floor, Plot No.330, MDS Tirvedi Complex, Flate No G-2, Shiv Nagar-I, Murlipura, Murlipura, Jaipur - 302039, Dist.Jaipur, Rajasthan",8044011776,
"Cotton Floral Print Maternity feeding gown, Three fourth sleeve",https://www.indiamart.com/proddetail/maternity-feeding-gown-2853235199830.html?pos=10&kwd=feeding gown&tags=A||||8601.347|Price|product|||TS|rsf:gd-|-stype:attr=1|qr_nm:gd|res:RC3|com-cf:nl|ptrs:na|ktp:N0|mc:190798|mtp:S|qry_typ:P|lang:en|wc:2|flavl:0|cs:9660|v=4,Luxury Fashion,https://www.indiamart.com/luxury-fashion/?pos=10&kwd=feeding gown&tags=A||||8601.347|Price|product|||TS|rsf:gd-|-stype:attr=1|qr_nm:gd|res:RC3|com-cf:nl|ptrs:na|ktp:N0|mc:190798|mtp:S|qry_typ:P|lang:en|wc:2|flavl:0|cs:9660|v=4,False,Sanganer Bazar,Jaipur,"Plot No 13, Suraj Nagar, Dadabadi, Sanganer,, Sanganer Bazar, Jaipur - 302029, Dist.Jaipur, Rajasthan",7942707166,
"Small Ladies Short Cotton Kurtis, Printed",https://www.indiamart.com/proddetail/ladies-short-cotton-kurtis-2854860804555.html?pos=11&kwd=feeding gown&tags=A||||8230.883|Price|product|||TS|rsf:gd-|-stype:attr=1|qr_nm:gd|res:RC3|com-cf:nl|ptrs:na|ktp:N0|mc:190798|mtp:S|qry_typ:P|lang:en|wc:2|flavl:0|cs:9660|v=4,Fashion Gaon,https://www.indiamart.com/fashiongaon/?pos=11&kwd=feeding gown&tags=A||||8230.883|Price|product|||TS|rsf:gd-|-stype:attr=1|qr_nm:gd|res:RC3|com-cf:nl|ptrs:na|ktp:N0|mc:190798|mtp:S|qry_typ:P|lang:en|wc:2|flavl:0|cs:9660|v=4,False,Shashwat Plaza Parvat Patiya,Surat,"Shashwat Plaza, Puna Brts,Canal Road, 7600124242, Shashwat Plaza Parvat Patiya, Surat - 395010, Dist.Surat, Gujarat",7942710160,
Ladies Feeding Gown,https://www.indiamart.com/proddetail/ladies-feeding-gown-2852798533212.html?pos=12&kwd=feeding gown&tags=A||||8626.744|Price|product|||TS|rsf:gd-|-stype:attr=1|qr_nm:gd|res:RC3|com-cf:nl|ptrs:na|ktp:N0|mc:190798|mtp:S|qry_typ:P|lang:en|wc:2|flavl:0|cs:9660|v=4,Rainbow Creations,https://www.indiamart.com/rainbowcreations/?pos=12&kwd=feeding gown&tags=A||||8626.744|Price|product|||TS|rsf:gd-|-stype:attr=1|qr_nm:gd|res:RC3|com-cf:nl|ptrs:na|ktp:N0|mc:190798|mtp:S|qry_typ:P|lang:en|wc:2|flavl:0|cs:9660|v=4,False,Renganatha Puram,Tiruppur,"No. 7- 24, murugasamy layout 1street, Renganatha Puram, Tiruppur - 641607, Dist.Coimbatore, Tamil Nadu",8048955272,
"Solid Butta Silk Feeding Gown, Cap Sleeve",https://www.indiamart.com/proddetail/butta-silk-feeding-gown-2853460644288.html?pos=13&kwd=feeding gown&tags=A||||8584.299|Price|product|||MDC|rsf:gd-|-stype:attr=1|qr_nm:gd|res:RC3|com-cf:nl|ptrs:na|ktp:N0|mc:190798|mtp:S|qry_typ:P|lang:en|wc:2|flavl:0|cs:9660|v=4,Emma Fashions,https://www.indiamart.com/emma-fashions/?pos=13&kwd=feeding gown&tags=A||||8584.299|Price|product|||MDC|rsf:gd-|-stype:attr=1|qr_nm:gd|res:RC3|com-cf:nl|ptrs:na|ktp:N0|mc:190798|mtp:S|qry_typ:P|lang:en|wc:2|flavl:0|cs:9660|v=4,False,,Coimbatore,"2/62, Shanmuga Nagar, Sanganoor Main Road, Rathinapuri, Coimbatore - 641027, Dist.Coimbatore, Tamil Nadu",8047832283,
"Printed Maternity Feeding Gown, Three fourth sleeve",https://www.indiamart.com/proddetail/maternity-feeding-gown-2853178528291.html?pos=14&kwd=feeding gown&tags=A||||8601.347|Price|product|||TS|rsf:gd-|-stype:attr=1|qr_nm:gd|res:RC3|com-cf:nl|ptrs:na|ktp:N0|mc:190798|mtp:S|qry_typ:P|lang:en|wc:2|flavl:0|cs:9660|v=4,Ganpati Handicrafts,https://www.ganpatihandicrafts.com/?pos=14&kwd=feeding gown&tags=A||||8601.347|Price|product|||TS|rsf:gd-|-stype:attr=1|qr_nm:gd|res:RC3|com-cf:nl|ptrs:na|ktp:N0|mc:190798|mtp:S|qry_typ:P|lang:en|wc:2|flavl:0|cs:9660|v=4,False,Kundan Nagar,Jaipur,"Ganpati Handicrafts, Paliwal Garden Behind Salim Kazgi Industry, Sanganer, Kundan Nagar, Jaipur - 302029, Dist.Jaipur, Rajasthan",8046061432,
Soft Cotton Maternity + Feeding Gown,https://www.indiamart.com/proddetail/soft-cotton-maternity-feeding-gown-2850891709330.html?pos=15&kwd=feeding gown&tags=A||||8230.883|Price|product|||TS|rsf:gd-|-stype:attr=1|qr_nm:gd|res:RC3|com-cf:nl|ptrs:na|ktp:N0|mc:190798|mtp:S|qry_typ:P|lang:en|wc:2|cs:8897|v=4,Kajal Creation,https://www.kajalcreation.com/?pos=15&kwd=feeding gown&tags=A||||8230.883|Price|product|||TS|rsf:gd-|-stype:attr=1|qr_nm:gd|res:RC3|com-cf:nl|ptrs:na|ktp:N0|mc:190798|mtp:S|qry_typ:P|lang:en|wc:2|cs:8897|v=4,False,Varachha,Surat,"Shop No 3,Plot No 10,Ground Floor,Muktidham Society,Punagam,Surat,Surat, Varachha, Surat - 395010, Dist.Surat, Gujarat",7942633510,
Maternity Feeding Gown,https://www.indiamart.com/proddetail/maternity-feeding-gown-2853276076455.html?pos=16&kwd=feeding gown&tags=A||||8601.347|Price|product|||TS|rsf:gd-|-stype:attr=1|qr_nm:gd|res:RC3|com-cf:nl|ptrs:na|ktp:N0|mc:190798|mtp:S|qry_typ:P|lang:en|wc:2|cs:8897|v=4,Aaivan Fashion Hubb,https://www.indiamart.com/aaivanfashionhub/?pos=16&kwd=feeding gown&tags=A||||8601.347|Price|product|||TS|rsf:gd-|-stype:attr=1|qr_nm:gd|res:RC3|com-cf:nl|ptrs:na|ktp:N0|mc:190798|mtp:S|qry_typ:P|lang:en|wc:2|cs:8897|v=4,False,Sitapura Industrial Area,Jaipur,"2nd Floor, C-49 Raj Complex, Sitapura Industrial Area, Sitapura Industrial Area, Jaipur - 302022, Dist.Jaipur, Rajasthan",7942714492,
"Printed Dark Blue Cotton Feeding Maternity Gowns, Three fourth sleeve",https://www.indiamart.com/proddetail/dark-blue-cotton-feeding-maternity-gowns-2852795414297.html?pos=17&kwd=feeding gown&tags=BA||||8601.347|Price|product|||TS|rsf:gd-|-stype:attr=1|qr_nm:gd|res:RC3|com-cf:nl|ptrs:na|ktp:N0|mc:190798|mtp:S|qry_typ:P|lang:en|wc:2|cs:8897|v=4,Shree Shyam Creation,https://www.shreeshyamcreations.in/?pos=17&kwd=feeding gown&tags=BA||||8601.347|Price|product|||TS|rsf:gd-|-stype:attr=1|qr_nm:gd|res:RC3|com-cf:nl|ptrs:na|ktp:N0|mc:190798|mtp:S|qry_typ:P|lang:en|wc:2|cs:8897|v=4,False,Sanganer,Jaipur,"Saini Bhawan, 18, Kanwar Ka Bag Ladko Ki Dhani Panchavti Colony, Sanganer, Sanganer, Jaipur - 302011, Dist.Jaipur, Rajasthan",7942717795,
"10 Color Feeding Maternity Gown, 200, Sleeves: Half",https://www.indiamart.com/proddetail/feeding-maternity-gown-23768715362.html?pos=18&kwd=feeding gown&tags=A||||8230.883|Price|product|||TS|rsf:gd-|-stype:attr=1|qr_nm:gd|res:RC3|com-cf:nl|ptrs:na|ktp:N0|mc:190798|mtp:S|qry_typ:P|lang:en|wc:2|cs:8897|v=4,Fashion Hub,https://www.indiamart.com/fashionhub-gujarat/?pos=18&kwd=feeding gown&tags=A||||8230.883|Price|product|||TS|rsf:gd-|-stype:attr=1|qr_nm:gd|res:RC3|com-cf:nl|ptrs:na|ktp:N0|mc:190798|mtp:S|qry_typ:P|lang:en|wc:2|cs:8897|v=4,False,Mota Varachha,Surat,"E-104,,Shrinidhi Residency,,Nr. Sudama Chowk,,Mota Varachha,, Mota Varachha, Surat - 394101, Dist.Surat, Gujarat",8048956108,
"Premium Soft Cotton Maternity with Feeding Gown, 3/4 Sleeve",https://www.indiamart.com/proddetail/premium-soft-cotton-maternity-with-feeding-gown-2851260816888.html?pos=19&kwd=feeding gown&tags=A||||8230.883|Price|product|||TS|rsf:gd-|-stype:attr=1|qr_nm:gd|res:RC3|com-cf:nl|ptrs:na|ktp:N0|mc:190798|mtp:S|qry_typ:P|lang:en|wc:2|cs:8897|v=4,Zenny Creation,https://www.zennycreation.com/?pos=19&kwd=feeding gown&tags=A||||8230.883|Price|product|||TS|rsf:gd-|-stype:attr=1|qr_nm:gd|res:RC3|com-cf:nl|ptrs:na|ktp:N0|mc:190798|mtp:S|qry_typ:P|lang:en|wc:2|cs:8897|v=4,False,Parvat,Surat,"6th Floor, Shop No. F-6047/A, Avadh Rituraj Textile Hub, Parvat Godadra Road, Brts Road, Parvat, Surat - 395010, Dist.Surat, Gujarat",8048978256,
Cotton Printed Feeding gown and tops,https://www.indiamart.com/proddetail/feeding-gown-and-tops-2854641071497.html?pos=20&kwd=feeding gown&tags=A||||8663.873|Price|product|||MDC|rsf:gd-|-stype:attr=1|qr_nm:gd|res:RC3|com-cf:nl|ptrs:na|ktp:N0|mc:190798|mtp:S|qry_typ:P|lang:en|wc:2|cs:8897|v=4,Sri Suswani Creations,https://www.indiamart.com/srisuswanicreations/?pos=20&kwd=feeding gown&tags=A||||8663.873|Price|product|||MDC|rsf:gd-|-stype:attr=1|qr_nm:gd|res:RC3|com-cf:nl|ptrs:na|ktp:N0|mc:190798|mtp:S|qry_typ:P|lang:en|wc:2|cs:8897|v=4,False,Bengaluru Urban,Bengaluru,"Ground Floor, Part A, 44, MH Plaza, Mamulpet,, Bengaluru Urban, Bengaluru - 560053, Dist.Bengaluru, Karnataka",7949327781,
Cotton Nursing Mother Feeding Gown,https://www.indiamart.com/proddetail/nursing-mother-feeding-gown-2854902303055.html?pos=21&kwd=feeding gown&tags=A||||8767.829|Price|product|||MDC|rsf:gd-|-stype:attr=1|qr_nm:gd|res:RC3|com-cf:nl|ptrs:na|ktp:N0|mc:190798|mtp:S|qry_typ:P|lang:en|wc:2|cs:8897|v=4,E-Factory,https://www.indiamart.com/efactory-palwal/?pos=21&kwd=feeding gown&tags=A||||8767.829|Price|product|||MDC|rsf:gd-|-stype:attr=1|qr_nm:gd|res:RC3|com-cf:nl|ptrs:na|ktp:N0|mc:190798|mtp:S|qry_typ:P|lang:en|wc:2|cs:8897|v=4,False,,Palwal,"Gali No - 1, Railway Road, Near Bus Stand,, Palwal - 121102, Dist.Palwal, Haryana",8044458489,
"Printed Ladies Peach Feeding Gown, Half Sleeve",https://www.indiamart.com/proddetail/ladies-peach-feeding-gown-2852767181533.html?pos=22&kwd=feeding gown&tags=BA||||8601.347|Price|product|||MDC|rsf:gd-|-stype:attr=1|qr_nm:gd|res:RC3|com-cf:nl|ptrs:na|ktp:N0|mc:190798|mtp:S|qry_typ:P|lang:en|wc:2|cs:8897|v=4,Sheffali,https://www.indiamart.com/sheffali/?pos=22&kwd=feeding gown&tags=BA||||8601.347|Price|product|||MDC|rsf:gd-|-stype:attr=1|qr_nm:gd|res:RC3|com-cf:nl|ptrs:na|ktp:N0|mc:190798|mtp:S|qry_typ:P|lang:en|wc:2|cs:8897|v=4,False,Ajmer Road,Jaipur,"C-61, Opp. Kabra Eye Hospital, Jamna Nagar, Sodala, Ajmer Road, Jaipur - 302006, Dist.Jaipur, Rajasthan",7942720926,
Feeding Nightgown,https://www.indiamart.com/proddetail/feeding-nightgown-2854569792555.html?pos=23&kwd=feeding gown&tags=A||||8626.744|Price|product|||TS|rsf:gd-|-stype:attr=1|qr_nm:gd|res:RC3|com-cf:nl|ptrs:na|ktp:N0|mc:190798|mtp:S|qry_typ:P|lang:en|wc:2|cs:8897|v=4,RVR Garments,https://www.indiamart.com/rvr-garments-tiruppur/?pos=23&kwd=feeding gown&tags=A||||8626.744|Price|product|||TS|rsf:gd-|-stype:attr=1|qr_nm:gd|res:RC3|com-cf:nl|ptrs:na|ktp:N0|mc:190798|mtp:S|qry_typ:P|lang:en|wc:2|cs:8897|v=4,False,Weavers Colony,Tiruppur,"4-1/19, Babuji Nagar 3rd Street,Kumarananthapuram, Weavers Colony, Tiruppur - 641602, Dist.Coimbatore, Tamil Nadu",7942962984,
Maternity Gown On Rent,https://www.indiamart.com/proddetail/maternity-gown-on-rent-2850810307591.html?pos=24&kwd=feeding gown&tags=BA||||8228.275|Price|product|||TS|rsf:gd-|-stype:attr=1|qr_nm:gd|res:RC3|com-cf:nl|ptrs:na|ktp:N0|mc:190798|mtp:S|qry_typ:P|lang:en|wc:2|cs:8897|v=4,Gitanjali Enterprise,https://www.indiamart.com/gitanjali-enterprise-ahmedabad/?pos=24&kwd=feeding gown&tags=BA||||8228.275|Price|product|||TS|rsf:gd-|-stype:attr=1|qr_nm:gd|res:RC3|com-cf:nl|ptrs:na|ktp:N0|mc:190798|mtp:S|qry_typ:P|lang:en|wc:2|cs:8897|v=4,False,Isanpur,Ahmedabad,"Near Jognimata Temple, Isanpur Gam, Isanpur, Isanpur, Ahmedabad - 382443, Dist.Ahmedabad, Gujarat",8047640750,
"Rayon Embroidered Feeding Maternity Gown, 3/4 Sleeve",https://www.indiamart.com/proddetail/feeding-maternity-gown-2850884639188.html?pos=25&kwd=feeding gown&tags=BB||||8601.347|Price|product|||TS|rsf:gd-|-stype:attr=1|qr_nm:gd|res:RC3|com-cf:nl|ptrs:na|ktp:N0|mc:190798|mtp:S|qry_typ:P|lang:en|wc:2|cs:8897|v=4,Hkf Jaipur Industries Private Limited,https://www.hkfjaipurindustries.com/?pos=25&kwd=feeding gown&tags=BB||||8601.347|Price|product|||TS|rsf:gd-|-stype:attr=1|qr_nm:gd|res:RC3|com-cf:nl|ptrs:na|ktp:N0|mc:190798|mtp:S|qry_typ:P|lang:en|wc:2|cs:8897|v=4,False,Sanganer Shri Rampura,Jaipur,"PLOT NO. 72, 1ST FLOOR, GOPI NAGAR, RAILWAY STATION ROAD,, Sanganer Shri Rampura, Jaipur - 302029, Dist.Jaipur, Rajasthan",8047674124,
"Hosiery Printed Feeding Gown, Half Sleeve",https://www.indiamart.com/proddetail/feeding-gown-25996920848.html?pos=26&kwd=feeding gown&tags=BA||||8228.275|Price|product|||TS|rsf:gd-|-stype:attr=1|qr_nm:gd|res:RC3|com-cf:nl|ptrs:na|ktp:N0|mc:190798|mtp:S|qry_typ:P|lang:en|wc:2|cs:8897|v=4,Ramdev Fabrics,https://www.indiamart.com/ramdevfabrics-ahmedabad/?pos=26&kwd=feeding gown&tags=BA||||8228.275|Price|product|||TS|rsf:gd-|-stype:attr=1|qr_nm:gd|res:RC3|com-cf:nl|ptrs:na|ktp:N0|mc:190798|mtp:S|qry_typ:P|lang:en|wc:2|cs:8897|v=4,False,Odhav,Ahmedabad,"19, Krishna Chambers, Vihal Park Part 2, Opposite Maheshwari Nagar, Odhav, Ahmedabad - 382415, Dist.Ahmedabad, Gujarat",8047639305,
Feeding Gown,https://www.indiamart.com/proddetail/feeding-gown-2854766870030.html?pos=27&kwd=feeding gown&tags=BB||||8601.347|Price|product|||TS|rsf:gd-|-stype:attr=1|qr_nm:gd|res:RC3|com-cf:nl|ptrs:na|ktp:N0|mc:190798|mtp:S|qry_typ:P|lang:en|wc:2|cs:8897|v=4,Tanishi Crafts,https://www.tanishicrafts.com/?pos=27&kwd=feeding gown&tags=BB||||8601.347|Price|product|||TS|rsf:gd-|-stype:attr=1|qr_nm:gd|res:RC3|com-cf:nl|ptrs:na|ktp:N0|mc:190798|mtp:S|qry_typ:P|lang:en|wc:2|cs:8897|v=4,False,Jaipur,Jaipur,"Bani Park, F-61 Sindhi Colony, Jaipur, Iti Sanstha Ke Piche, Sindhi Colony, Jaipur, Jaipur - 302016, Dist.Jaipur, Rajasthan",8047622196,
"LUCKY HANDICRAFT Cotton Feeding Maternity Gown, Size: FREE",https://www.indiamart.com/proddetail/feeding-maternity-gown-2849551766997.html?pos=28&kwd=feeding gown&tags=BA||||8601.347|Price|product|||TS|rsf:gd-|-stype:attr=1|qr_nm:gd|res:RC3|com-cf:nl|ptrs:na|ktp:N0|mc:190798|mtp:S|qry_typ:P|lang:en|wc:2|cs:8897|v=4,Lucky Handicraft,https://www.luckyhandicraft.in/?pos=28&kwd=feeding gown&tags=BA||||8601.347|Price|product|||TS|rsf:gd-|-stype:attr=1|qr_nm:gd|res:RC3|com-cf:nl|ptrs:na|ktp:N0|mc:190798|mtp:S|qry_typ:P|lang:en|wc:2|cs:8897|v=4,False,Govind Nagar,Jaipur,"190, Govind Nagar East, Amer Road, Govind Nagar, Jaipur - 302002, Dist.Jaipur, Rajasthan",8046067577,
"Cotton Printed Maternity Feeding Gown, Half Sleeve",https://www.indiamart.com/proddetail/maternity-feeding-gown-2851823306633.html?pos=29&kwd=feeding gown&tags=BA||||8717.056|Price|product|||TS|rsf:gd-|-stype:attr=1|qr_nm:gd|res:RC3|com-cf:nl|ptrs:na|ktp:N0|mc:190798|mtp:S|qry_typ:P|lang:en|wc:2|cs:8897|v=4,SKT Textile Service India Private Limited,https://www.textilemanufacturersintamilnadu.com/?pos=29&kwd=feeding gown&tags=BA||||8717.056|Price|product|||TS|rsf:gd-|-stype:attr=1|qr_nm:gd|res:RC3|com-cf:nl|ptrs:na|ktp:N0|mc:190798|mtp:S|qry_typ:P|lang:en|wc:2|cs:8897|v=4,False,Vellalagundam,Salem,"RST Number 3/288, 343 South Land, Vellalagundam, Salem - 636111, Dist.Salem, Tamil Nadu",8047631524,
Casual Women''s Maternity Feeding Gown,https://www.indiamart.com/proddetail/women-s-maternity-feeding-gown-22456151730.html?pos=30&kwd=feeding gown&tags=BA||||8876.815|Price|product|||TS|rsf:gd-|-stype:attr=1|qr_nm:gd|res:RC3|com-cf:nl|ptrs:na|ktp:N0|mc:190798|mtp:S|qry_typ:P|lang:en|wc:2|cs:8897|v=4,Sakar Fair Trade Incorporated,https://www.indiamart.com/sakarfair-trade-incorporated/?pos=30&kwd=feeding gown&tags=BA||||8876.815|Price|product|||TS|rsf:gd-|-stype:attr=1|qr_nm:gd|res:RC3|com-cf:nl|ptrs:na|ktp:N0|mc:190798|mtp:S|qry_typ:P|lang:en|wc:2|cs:8897|v=4,False,Wadi,Nagpur,"Ground floor, Shop No. 22, 8A, Laxmi Vaibhav, Laxmi Nagar Chowk, Wadi, Nagpur - 440010, Dist.Nagpur, Maharashtra",7942541012,
"Ladies Printed Maternity Feeding Gown, Half Sleeve",https://www.indiamart.com/proddetail/ladies-printed-maternity-feeding-gown-2851885884691.html?pos=31&kwd=feeding gown&tags=BA||||8687.934|Price|product|||TS|rsf:gd-|-stype:attr=1|qr_nm:gd|res:RC3|com-cf:nl|ptrs:na|ktp:N0|mc:190798|mtp:S|qry_typ:P|lang:en|wc:2|cs:8897|v=4,Shree Fashions,https://www.indiamart.com/jbr-vesture/?pos=31&kwd=feeding gown&tags=BA||||8687.934|Price|product|||TS|rsf:gd-|-stype:attr=1|qr_nm:gd|res:RC3|com-cf:nl|ptrs:na|ktp:N0|mc:190798|mtp:S|qry_typ:P|lang:en|wc:2|cs:8897|v=4,False,Rajapalaiyam,Virudhunagar,"2/126B4, Teachers Colony, Chettiarpatti, Rajapalaiyam, Virudhunagar - 626188, Dist.Virudhunagar, Tamil Nadu",7942870856,
"Cotton Printed 1509 Ladies Maternity Feeding Gown, Half Sleeve",https://www.indiamart.com/proddetail/1509-ladies-maternity-feeding-gown-26249231491.html?pos=32&kwd=feeding gown&tags=BA||||8210.732|Price|product|||TS|rsf:gd-|-stype:attr=1|qr_nm:gd|res:RC3|com-cf:nl|ptrs:na|ktp:N0|mc:190798|mtp:S|qry_typ:P|lang:en|wc:2|cs:8897|v=4,M.K.Enterprises,https://www.ohlady.in/?pos=32&kwd=feeding gown&tags=BA||||8210.732|Price|product|||TS|rsf:gd-|-stype:attr=1|qr_nm:gd|res:RC3|com-cf:nl|ptrs:na|ktp:N0|mc:190798|mtp:S|qry_typ:P|lang:en|wc:2|cs:8897|v=4,False,Kandivali West,Vasai,"Gala No-209, 2nd Second Floor, Shri Hari Industrial Estate Bldg No 2, Bilalpada, Vasai East,, Kandivali West, Vasai - 401208, Dist.Thane, Maharashtra",7942565560,
"Printed Cotton Feeding Gowns, Sleeveless",https://www.indiamart.com/proddetail/cotton-feeding-gowns-2849910395730.html?pos=33&kwd=feeding gown&tags=BA||||8601.347|Price|product|||TS|rsf:gd-|-stype:attr=1|qr_nm:gd|res:RC3|com-cf:nl|ptrs:na|ktp:N0|mc:190798|mtp:S|qry_typ:P|lang:en|wc:2|cs:8897|v=4,Kartavya,https://www.kurtisupplier.com/?pos=33&kwd=feeding gown&tags=BA||||8601.347|Price|product|||TS|rsf:gd-|-stype:attr=1|qr_nm:gd|res:RC3|com-cf:nl|ptrs:na|ktp:N0|mc:190798|mtp:S|qry_typ:P|lang:en|wc:2|cs:8897|v=4,False,Sanganer,Jaipur,"15, Adarsh Basti, Market Road, Sanganer, Jaipur - 302015, Dist.Jaipur, Rajasthan",8043858523,
"Printed Ladies Navy Blue Cotton Feeding Gown, Three fourth sleeve",https://www.indiamart.com/proddetail/ladies-navy-blue-cotton-feeding-gown-2852884467897.html?pos=34&kwd=feeding gown&tags=BA||||8601.347|Price|product|||TS|rsf:gd-|-stype:attr=1|qr_nm:gd|res:RC3|com-cf:nl|ptrs:na|ktp:N0|mc:190798|mtp:S|qry_typ:P|lang:en|wc:2|cs:8897|v=4,Mamta Fashion,https://www.indiamart.com/mamtafashion-jaipur/?pos=34&kwd=feeding gown&tags=BA||||8601.347|Price|product|||TS|rsf:gd-|-stype:attr=1|qr_nm:gd|res:RC3|com-cf:nl|ptrs:na|ktp:N0|mc:190798|mtp:S|qry_typ:P|lang:en|wc:2|cs:8897|v=4,False,Kapoorawala,Jaipur,"Plot No-46, Sarita Vihar, Rampura Road , Gyanodaya Public School , Shankar Nagar Near Dev, Kapoorawala, Jaipur - 302029, Dist.Jaipur, Rajasthan",7942723523,
Printed Cotton Feeding Kurti,https://www.indiamart.com/proddetail/printed-cotton-feeding-kurti-2848977933091.html?pos=35&kwd=feeding gown&tags=BA||||8601.347|Price|product|||TS|rsf:gd-|-stype:attr=1|qr_nm:gd|res:RC3|com-cf:nl|ptrs:na|ktp:N0|mc:190798|mtp:S|qry_typ:P|lang:en|wc:2|cs:8897|v=4,Vinayak Enterprises,https://www.vinayakenterprisesindia.com/?pos=35&kwd=feeding gown&tags=BA||||8601.347|Price|product|||TS|rsf:gd-|-stype:attr=1|qr_nm:gd|res:RC3|com-cf:nl|ptrs:na|ktp:N0|mc:190798|mtp:S|qry_typ:P|lang:en|wc:2|cs:8897|v=4,True,Vistar,Jaipur,"Vinayak Enterprises, B-61, Barkat Nagar Vistar, Near Arjun Nagar Underpass, Vistar, Jaipur - 302031, Dist.Jaipur, Rajasthan",8047652854,
"Cotton Printed Maternity Ladies Feeding Gown, 3/4 Sleeve",https://www.indiamart.com/proddetail/maternity-ladies-feeding-gown-2850484386262.html?pos=36&kwd=feeding gown&tags=BA||||8601.347|Price|product|||TS|rsf:gd-|-stype:attr=1|qr_nm:gd|res:RC3|com-cf:nl|ptrs:na|ktp:N0|mc:190798|mtp:S|qry_typ:P|lang:en|wc:2|cs:8897|v=4,Vinayak Vestures,https://www.vinayakvestures.com/?pos=36&kwd=feeding gown&tags=BA||||8601.347|Price|product|||TS|rsf:gd-|-stype:attr=1|qr_nm:gd|res:RC3|com-cf:nl|ptrs:na|ktp:N0|mc:190798|mtp:S|qry_typ:P|lang:en|wc:2|cs:8897|v=4,False,Jhotwara,Jaipur,"39, MOTI NAGAR, JHOTWARA, Jhotwara, Jaipur - 302012, Dist.Jaipur, Rajasthan",8046044062,
"Printed Feeding Gown, Three fourth sleeve",https://www.indiamart.com/proddetail/feeding-gown-2854897237255.html?pos=37&kwd=feeding gown&tags=BA||||8601.347|Price|product|||MDC|rsf:gd-|-stype:attr=1|qr_nm:gd|res:RC3|com-cf:nl|ptrs:na|ktp:N0|mc:190798|mtp:S|qry_typ:P|lang:en|wc:2|cs:8897|v=4,Chopra Textiles,https://www.indiamart.com/chopra-textiles-jaipur/?pos=37&kwd=feeding gown&tags=BA||||8601.347|Price|product|||MDC|rsf:gd-|-stype:attr=1|qr_nm:gd|res:RC3|com-cf:nl|ptrs:na|ktp:N0|mc:190798|mtp:S|qry_typ:P|lang:en|wc:2|cs:8897|v=4,False,,Jaipur,"1, Opp. Triveni Gas Godam, Jaipur Ring Road, Indane Gas Agency, Village Kherigokulpura, Jaipur - 303905, Dist.Jaipur, Rajasthan",7949327483,
"Cotton Printed Women Feeding Gown, Half Sleeve",https://www.indiamart.com/proddetail/women-feeding-gown-25690364730.html?pos=38&kwd=feeding gown&tags=BA||||8228.275|Price|product|||TS|rsf:gd-|-stype:attr=1|qr_nm:gd|res:RC3|com-cf:nl|ptrs:na|ktp:N0|mc:190798|mtp:S|qry_typ:P|lang:en|wc:2|cs:8897|v=4,J.D.Fashion,https://www.indiamart.com/jd-fashion-gujarat/?pos=38&kwd=feeding gown&tags=BA||||8228.275|Price|product|||TS|rsf:gd-|-stype:attr=1|qr_nm:gd|res:RC3|com-cf:nl|ptrs:na|ktp:N0|mc:190798|mtp:S|qry_typ:P|lang:en|wc:2|cs:8897|v=4,False,Vastral,Ahmedabad,"347,Maheshvari Nagar, Part 1 C.H.S., Rajvi Nagar Odhav, Vastral, Ahmedabad - 382415, Dist.Ahmedabad, Gujarat",8046061235,
Maternity Feeding Gown,https://www.indiamart.com/proddetail/maternity-feeding-gown-2854358116555.html?pos=39&kwd=feeding gown&tags=BA||||8752.144|Price|product|||MDC|rsf:gd-|-stype:attr=1|qr_nm:gd|res:RC3|com-cf:nl|ptrs:na|ktp:N0|mc:190798|mtp:S|qry_typ:P|lang:en|wc:2|cs:8897|v=4,Siyaram Enterprises,https://www.indiamart.com/siyaram-enterprises-newdelhi/?pos=39&kwd=feeding gown&tags=BA||||8752.144|Price|product|||MDC|rsf:gd-|-stype:attr=1|qr_nm:gd|res:RC3|com-cf:nl|ptrs:na|ktp:N0|mc:190798|mtp:S|qry_typ:P|lang:en|wc:2|cs:8897|v=4,False,,New Delhi,"76-D, A PKT, Third Floor Vikas Puri EXTN, West Delhi, New Delhi - 110018, Dist.Delhi, Delhi",8045737683,
Aarya Trendz Cotton Kurti For Baby Feeding and During Maternity Period,https://www.indiamart.com/proddetail/aarya-trendz-cotton-kurti-for-baby-feeding-and-during-maternity-period-27107457933.html?pos=40&kwd=feeding gown&tags=BA||||8230.883|Price|product|||TS|rsf:gd-|-stype:attr=1|qr_nm:gd|res:RC3|com-cf:nl|ptrs:na|ktp:N0|mc:190798|mtp:S|qry_typ:P|lang:en|wc:2|cs:8897|v=4,Aarya Trendz,https://www.indiamart.com/aarya-trendz/?pos=40&kwd=feeding gown&tags=BA||||8230.883|Price|product|||TS|rsf:gd-|-stype:attr=1|qr_nm:gd|res:RC3|com-cf:nl|ptrs:na|ktp:N0|mc:190798|mtp:S|qry_typ:P|lang:en|wc:2|cs:8897|v=4,False,,Surat,"30, Shree Krupa Industrial Estate Kapodra, Varachha Main Road, Surat - 395006, Dist.Surat, Gujarat",8046034119,
"Maternity Mother Breastfeeding Feeding Nursing Cover, Cloak, Apron - 100% Organic Cotton",https://www.indiamart.com/proddetail/maternity-mother-breastfeeding-feeding-nursing-cover-cloak-apron-100-organic-cotton-20962064255.html?pos=41&kwd=feeding gown&tags=BA||||8668.838|Price|product|||TS|rsf:gd-|-stype:attr=1|qr_nm:gd|res:RC3|com-cf:nl|ptrs:na|ktp:N0|mc:190798|mtp:S|qry_typ:P|lang:en|wc:2|cs:8897|v=4,Sri Kalyan Export Private Limited,https://www.firstinbabydress.com/?pos=41&kwd=feeding gown&tags=BA||||8668.838|Price|product|||TS|rsf:gd-|-stype:attr=1|qr_nm:gd|res:RC3|com-cf:nl|ptrs:na|ktp:N0|mc:190798|mtp:S|qry_typ:P|lang:en|wc:2|cs:8897|v=4,False,Vilarasampatti,Erode,"192/4, Ishwarya Garden, Sengodampalayam, Villarasampatti Post, Erode,, Vilarasampatti, Erode - 638107, Dist.Erode, Tamil Nadu",8046030291,
"Solid Blue Cotton Feeding Gown, Three fourth sleeve",https://www.indiamart.com/proddetail/blue-cotton-feeding-gown-2854490587462.html?pos=42&kwd=feeding gown&tags=BB||||8954.051|Price|product|||MDC|rsf:gd-|-stype:attr=1|qr_nm:gd|res:RC3|com-cf:nl|ptrs:na|ktp:N0|mc:190798|mtp:S|qry_typ:P|lang:en|wc:2|cs:8897|v=4,Earthwise Collective Private Limited,https://www.indiamart.com/earthwise-collective/?pos=42&kwd=feeding gown&tags=BB||||8954.051|Price|product|||MDC|rsf:gd-|-stype:attr=1|qr_nm:gd|res:RC3|com-cf:nl|ptrs:na|ktp:N0|mc:190798|mtp:S|qry_typ:P|lang:en|wc:2|cs:8897|v=4,False,,Chennai,"9/2, 35/2, Bagirathiammal Street, T Nagar,, Chennai - 600017, Dist.Chennai, Tamil Nadu",7942801118,
"Maroon Fabric: Rayon Maternity Feeding Gowns, Size: Medium",https://www.indiamart.com/proddetail/maternity-feeding-gowns-23762153691.html?pos=43&kwd=feeding gown&tags=BA||||8559.269|Price|product|||TS|rsf:gd-|-stype:attr=1|qr_nm:gd|res:RC3|com-cf:nl|ptrs:na|ktp:N0|mc:190798|mtp:S|qry_typ:P|lang:en|wc:2|cs:8897|v=4,Nirmala Overseas,https://www.nirmalaoverseas.com/?pos=43&kwd=feeding gown&tags=BA||||8559.269|Price|product|||TS|rsf:gd-|-stype:attr=1|qr_nm:gd|res:RC3|com-cf:nl|ptrs:na|ktp:N0|mc:190798|mtp:S|qry_typ:P|lang:en|wc:2|cs:8897|v=4,False,Jaora Compound,Indore,"No. 56, Jaora Compound, Jaora Compound, Indore - 452001, Dist.Indore, Madhya Pradesh",8047300753,
"Cotton Printed Feeding & Nursing Cover, Sleeveless",https://www.indiamart.com/proddetail/feeding-nursing-cover-11829403248.html?pos=44&kwd=feeding gown&tags=BA||||8778.123|Price|product|||TS|rsf:gd-|-stype:attr=1|qr_nm:gd|res:RC3|com-cf:nl|ptrs:na|ktp:N0|mc:190798|mtp:S|qry_typ:P|lang:en|wc:2|cs:8897|v=4,Oscar Overseas,https://www.oscar-india.com/?pos=44&kwd=feeding gown&tags=BA||||8778.123|Price|product|||TS|rsf:gd-|-stype:attr=1|qr_nm:gd|res:RC3|com-cf:nl|ptrs:na|ktp:N0|mc:190798|mtp:S|qry_typ:P|lang:en|wc:2|cs:8897|v=4,False,,Noida,"A-99 Sector 5, Noida - 201301, Dist.Gautam Budh Nagar, Uttar Pradesh",8046058290,
Feeding Gown,https://www.indiamart.com/proddetail/feeding-gown-2852933797797.html?pos=45&kwd=feeding gown&tags=BA||||8601.347|Price|product|||MDC|rsf:gd-|-stype:attr=1|qr_nm:gd|res:RC3|com-cf:nl|ptrs:na|ktp:N0|mc:190798|mtp:S|qry_typ:P|lang:en|wc:2|cs:8897|v=4,Dazzle Hub,https://www.indiamart.com/dazzlehub/?pos=45&kwd=feeding gown&tags=BA||||8601.347|Price|product|||MDC|rsf:gd-|-stype:attr=1|qr_nm:gd|res:RC3|com-cf:nl|ptrs:na|ktp:N0|mc:190798|mtp:S|qry_typ:P|lang:en|wc:2|cs:8897|v=4,False,Pratap Nagar,Jaipur,"Basement Floor, 86/SP-89, Kumbha Marg, Pratap Nagar, Sanganer, Pratap Nagar, Jaipur - 302033, Dist.Jaipur, Rajasthan",8048611932,
Feeding Gown,https://www.indiamart.com/proddetail/feeding-gown-2854721757391.html?pos=46&kwd=feeding gown&tags=BB||||8601.347|Price|product|||MDC|rsf:gd-|-stype:attr=1|qr_nm:gd|res:RC3|com-cf:nl|ptrs:na|ktp:N0|mc:190798|mtp:S|qry_typ:P|lang:en|wc:2|cs:8897|v=4,Supreme Reliable Retail Private Limited,https://www.indiamart.com/supremereliableretail/?pos=46&kwd=feeding gown&tags=BB||||8601.347|Price|product|||MDC|rsf:gd-|-stype:attr=1|qr_nm:gd|res:RC3|com-cf:nl|ptrs:na|ktp:N0|mc:190798|mtp:S|qry_typ:P|lang:en|wc:2|cs:8897|v=4,False,Kalyan Puri,Jaipur,"SHANTI PATH, GOPAL PURA,, Kalyan Puri, Jaipur - 302020, Dist.Jaipur, Rajasthan",7942539088,
"Printed Feeding Cotton Gown, Cap Sleeve",https://www.indiamart.com/proddetail/feeding-cotton-gown-2853143501962.html?pos=47&kwd=feeding gown&tags=BA||||8601.347|Price|product|||MDC|rsf:gd-|-stype:attr=1|qr_nm:gd|res:RC3|com-cf:nl|ptrs:na|ktp:N0|mc:190798|mtp:S|qry_typ:P|lang:en|wc:2|cs:8897|v=4,Z Creation,https://www.indiamart.com/z-creation-rajasthan/?pos=47&kwd=feeding gown&tags=BA||||8601.347|Price|product|||MDC|rsf:gd-|-stype:attr=1|qr_nm:gd|res:RC3|com-cf:nl|ptrs:na|ktp:N0|mc:190798|mtp:S|qry_typ:P|lang:en|wc:2|cs:8897|v=4,False,sanganer,Jaipur,"Plot No F16 Shop No F-09 & 10 Sidhi Vinayak Plaza, Chordiya Petrol Pump Sanganer, sanganer, Jaipur - 302029, Dist.Jaipur, Rajasthan",7942962509,
"Cotton Self Design Maternity Feeding Gown, Three fourth sleeve",https://www.indiamart.com/proddetail/maternity-feeding-gown-2851768609648.html?pos=48&kwd=feeding gown&tags=BA||||8601.347|Price|product|||TS|rsf:gd-|-stype:attr=1|qr_nm:gd|res:RC3|com-cf:nl|ptrs:na|ktp:N0|mc:190798|mtp:S|qry_typ:P|lang:en|wc:2|cs:8897|v=4,Jaanya Creations,https://www.flyfinns.com/?pos=48&kwd=feeding gown&tags=BA||||8601.347|Price|product|||TS|rsf:gd-|-stype:attr=1|qr_nm:gd|res:RC3|com-cf:nl|ptrs:na|ktp:N0|mc:190798|mtp:S|qry_typ:P|lang:en|wc:2|cs:8897|v=4,False,Sanganer Station,Jaipur,"405, Dajy Manglam Ananda, Neear Sanganer Station, Sanganer Station, Jaipur - 302029, Dist.Jaipur, Rajasthan",7942789055,
"Cotton Floral Print Feeding Gown, Cap Sleeve",https://www.indiamart.com/proddetail/feeding-gown-2853877982373.html?pos=49&kwd=feeding gown&tags=BA||||8626.744|Price|product|||MDC|rsf:gd-|-stype:attr=1|qr_nm:gd|res:RC3|com-cf:nl|ptrs:na|ktp:N0|mc:190798|mtp:S|qry_typ:P|lang:en|wc:2|cs:8897|v=4,Elshada Clothing,https://www.indiamart.com/elshada-clothing-tiruppur/?pos=49&kwd=feeding gown&tags=BA||||8626.744|Price|product|||MDC|rsf:gd-|-stype:attr=1|qr_nm:gd|res:RC3|com-cf:nl|ptrs:na|ktp:N0|mc:190798|mtp:S|qry_typ:P|lang:en|wc:2|cs:8897|v=4,False,Padmavathi Puram,Tiruppur,"105A Ashar Mill Labour Colony, Padmavathipuram, Padmavathi Puram, Tiruppur - 641603, Dist.Coimbatore, Tamil Nadu",7942720305,
Rayon Red Feeding Gown,https://www.indiamart.com/proddetail/rayon-red-feeding-gown-2854309596173.html?pos=50&kwd=feeding gown&tags=BA||||8601.347|Price|product|||MDC|rsf:gd-|-stype:attr=1|qr_nm:gd|res:RC3|com-cf:nl|ptrs:na|ktp:N0|mc:190798|mtp:S|qry_typ:P|lang:en|wc:2|cs:8897|v=4,Shaifali Fashions,https://www.indiamart.com/shaifali-fashions/?pos=50&kwd=feeding gown&tags=BA||||8601.347|Price|product|||MDC|rsf:gd-|-stype:attr=1|qr_nm:gd|res:RC3|com-cf:nl|ptrs:na|ktp:N0|mc:190798|mtp:S|qry_typ:P|lang:en|wc:2|cs:8897|v=4,False,,Jaipur,"37-A,Pratap Nagar,Golimar Garden Ke Pichhe,Amer Road,Brahmpuri, Jaipur - 302002, Dist.Jaipur, Rajasthan",8045732152,
"Printed Women Feeding Kurtis/Gown, Three fourth sleeve",https://www.indiamart.com/proddetail/women-feeding-kurtis-gown-2852582472991.html?pos=51&kwd=feeding gown&tags=BA||||8601.347|Price|product|||MDC|rsf:gd-|-stype:attr=1|qr_nm:gd|res:RC3|com-cf:nl|ptrs:na|ktp:N0|mc:190798|mtp:S|qry_typ:P|lang:en|wc:2|cs:8897|v=4,Jai Ambay Fashion,https://www.indiamart.com/jai-ambay-fashion/?pos=51&kwd=feeding gown&tags=BA||||8601.347|Price|product|||MDC|rsf:gd-|-stype:attr=1|qr_nm:gd|res:RC3|com-cf:nl|ptrs:na|ktp:N0|mc:190798|mtp:S|qry_typ:P|lang:en|wc:2|cs:8897|v=4,False,Sanganer,Jaipur,"Bawdi Ka Bas Kunjaro Ki Dhani, Sanganer, Jaipur - 302029, Dist.Jaipur, Rajasthan",7942715038,
"baby feeding Gown, Sleeves: Full",https://www.indiamart.com/proddetail/baby-feeding-gown-2849146527191.html?pos=52&kwd=feeding gown&tags=BA||||8601.347|Price|product|||MDC|rsf:gd-|-stype:attr=1|qr_nm:gd|res:RC3|com-cf:nl|ptrs:na|ktp:N0|mc:190798|mtp:S|qry_typ:P|lang:en|wc:2|cs:8897|v=4,Nihaan Impex,https://www.indiamart.com/nihaanimpex-jaipur/?pos=52&kwd=feeding gown&tags=BA||||8601.347|Price|product|||MDC|rsf:gd-|-stype:attr=1|qr_nm:gd|res:RC3|com-cf:nl|ptrs:na|ktp:N0|mc:190798|mtp:S|qry_typ:P|lang:en|wc:2|cs:8897|v=4,False,Pratap Nagar,Jaipur,"28, Raghunath Puri, Khokha Bass, Sanganer, Pratap Nagar, Jaipur - 302011, Dist.Jaipur, Rajasthan",8047551915,
"Feeding Maternity Gown, 120, Sleeves: 3",https://www.indiamart.com/proddetail/feeding-maternity-gown-23898648697.html?pos=53&kwd=feeding gown&tags=BA||||8601.347|Price|product|||MDC|rsf:gd-|-stype:attr=1|qr_nm:gd|res:RC3|com-cf:nl|ptrs:na|ktp:N0|mc:190798|mtp:S|qry_typ:P|lang:en|wc:2|cs:8897|v=4,Jain Trade Link,https://www.indiamart.com/jaintradelink-jaipur/?pos=53&kwd=feeding gown&tags=BA||||8601.347|Price|product|||MDC|rsf:gd-|-stype:attr=1|qr_nm:gd|res:RC3|com-cf:nl|ptrs:na|ktp:N0|mc:190798|mtp:S|qry_typ:P|lang:en|wc:2|cs:8897|v=4,False,Kasturba Nagar,Jaipur,"Plot No 26, Dharam Nagar, Badarwas, Kasturba Nagar, Jaipur - 302019, Dist.Jaipur, Rajasthan",8048959284,
"3/4 Sleeve Women Rayon Maternity Pink Feeding Gown, L",https://www.indiamart.com/proddetail/women-rayon-maternity-pink-feeding-gown-2852870595548.html?pos=54&kwd=feeding gown&tags=BA||||8601.347|Price|product|||MDC|rsf:gd-|-stype:attr=1|qr_nm:gd|res:RC3|com-cf:nl|ptrs:na|ktp:N0|mc:190798|mtp:S|qry_typ:P|lang:en|wc:2|cs:8897|v=4,Chalwal Threads,https://www.indiamart.com/chalwal-threads/?pos=54&kwd=feeding gown&tags=BA||||8601.347|Price|product|||MDC|rsf:gd-|-stype:attr=1|qr_nm:gd|res:RC3|com-cf:nl|ptrs:na|ktp:N0|mc:190798|mtp:S|qry_typ:P|lang:en|wc:2|cs:8897|v=4,False,Pratap Nagar Sector 12,Jaipur,"Plot No. 14 Krishi Nagar Toll Tax, Near C.I.S.F., Sanganer, Sanganer, Jaipur, Pratap Nagar Sector 12, Jaipur - 302033, Dist.Jaipur, Rajasthan",8045737928,
"Cotton Ladies Black Printed Maternity Feeding Gown, Full Sleeve",https://www.indiamart.com/proddetail/ladies-black-printed-maternity-feeding-gown-2854128891655.html?pos=55&kwd=feeding gown&tags=BA||||8601.347|Price|product|||MDC|rsf:gd-|-stype:attr=1|qr_nm:gd|res:RC3|com-cf:nl|ptrs:na|ktp:N0|mc:190798|mtp:S|qry_typ:P|lang:en|wc:2|cs:8897|v=4,Saanvi Collection,https://www.indiamart.com/saanvi-collection-jaipur/?pos=55&kwd=feeding gown&tags=BA||||8601.347|Price|product|||MDC|rsf:gd-|-stype:attr=1|qr_nm:gd|res:RC3|com-cf:nl|ptrs:na|ktp:N0|mc:190798|mtp:S|qry_typ:P|lang:en|wc:2|cs:8897|v=4,False,Raj Nagar 2,Jaipur,"75/310, RHB Pratap Nagar ,Sanganer,, Raj Nagar 2, Jaipur - 302029, Dist.Jaipur, Rajasthan",8045733365,
"Cotton Ladies Sky Blue Floral Printed Feeding Gown, Three fourth sleeve",https://www.indiamart.com/proddetail/ladies-sky-blue-floral-printed-feeding-gown-2852821904155.html?pos=56&kwd=feeding gown&tags=BA||||8601.347|Price|product|||MDC|rsf:gd-|-stype:attr=1|qr_nm:gd|res:RC3|com-cf:nl|ptrs:na|ktp:N0|mc:190798|mtp:S|qry_typ:P|lang:en|wc:2|cs:8897|v=4,Silak Fashion Hub,https://www.indiamart.com/silak-fashion-hub/?pos=56&kwd=feeding gown&tags=BA||||8601.347|Price|product|||MDC|rsf:gd-|-stype:attr=1|qr_nm:gd|res:RC3|com-cf:nl|ptrs:na|ktp:N0|mc:190798|mtp:S|qry_typ:P|lang:en|wc:2|cs:8897|v=4,False,Kundan Nagar,Jaipur,"64/361, Sector 6, RHB Pratap Nagar, Sanganer,, Kundan Nagar, Jaipur - 302033, Dist.Jaipur, Rajasthan",7942720255,
"Cotton Aaram Feed Brown Printed Feeding Gown, Three fourth sleeve",https://www.indiamart.com/proddetail/aaram-feed-brown-printed-feeding-gown-2850048780391.html?pos=57&kwd=feeding gown&tags=BA||||8663.873|Price|product|||MDC|rsf:gd-|-stype:attr=1|qr_nm:gd|res:RC3|com-cf:nl|ptrs:na|ktp:N0|mc:190798|mtp:S|qry_typ:P|lang:en|wc:2|cs:8897|v=4,Samkith Creations,https://www.indiamart.com/samkithcreations/?pos=57&kwd=feeding gown&tags=BA||||8663.873|Price|product|||MDC|rsf:gd-|-stype:attr=1|qr_nm:gd|res:RC3|com-cf:nl|ptrs:na|ktp:N0|mc:190798|mtp:S|qry_typ:P|lang:en|wc:2|cs:8897|v=4,False,Basaveshwar Nagar,Bengaluru,"2nd Floor , No,154/13, 5th Main , 1st Cross , Shankar Mutt Road,Chamrajpet, Urban, Basaveshwar Nagar, Bengaluru - 560019, Dist.Bengaluru, Karnataka",7942721702,
Pregnancy Gowns,https://www.indiamart.com/proddetail/pregnancy-gowns-2851322025630.html?pos=58&kwd=feeding gown&tags=BA||||8786.56|Price|product|||TS|rsf:gd-|-stype:attr=1|qr_nm:gd|res:RC3|com-cf:nl|ptrs:na|ktp:N0|mc:190798|mtp:S|qry_typ:P|lang:en|wc:2|cs:8897|v=4,M/s Axon Biotech Pharmaceuticals,https://www.indiamart.com/axonbiotechpharmaceuticals/?pos=58&kwd=feeding gown&tags=BA||||8786.56|Price|product|||TS|rsf:gd-|-stype:attr=1|qr_nm:gd|res:RC3|com-cf:nl|ptrs:na|ktp:N0|mc:190798|mtp:S|qry_typ:P|lang:en|wc:2|cs:8897|v=4,False,Chandanagar,Hyderabad,"H.No.6-47/2, 1st Floor, Venkatadri Colony, Chanda Nagar, Serilingampally, Ranga Reddy District Chandanagar (v), Serilingampally (M), Chandanagar, Hyderabad - 500050, Dist.Hyderabad, Telangana",8048613235,
"Babymoon Light Blue Off Shoulder Maternity Gown, Size: XL, Sleeves: Full Sleeves",https://www.indiamart.com/proddetail/babymoon-light-blue-off-shoulder-maternity-gown-26090774897.html?pos=59&kwd=feeding gown&tags=BB||||8228.275|Price|product|||MDC|rsf:gd-|-stype:attr=1|qr_nm:gd|res:RC3|com-cf:nl|ptrs:na|ktp:N0|mc:190798|mtp:S|qry_typ:P|lang:en|wc:2|cs:8897|v=4,Dream Works,https://www.indiamart.com/dreamworks-ahmedabad/?pos=59&kwd=feeding gown&tags=BB||||8228.275|Price|product|||MDC|rsf:gd-|-stype:attr=1|qr_nm:gd|res:RC3|com-cf:nl|ptrs:na|ktp:N0|mc:190798|mtp:S|qry_typ:P|lang:en|wc:2|cs:8897|v=4,False,Sanathal,Ahmedabad,"5,Chanakya Bunglows,Nr Lad Society Common Plot,Vastrapur, Sanathal, Ahmedabad - 380054, Dist.Ahmedabad, Gujarat",8047663803,
Women Grey Floor Length Party Maxi Maternity Gown,https://www.indiamart.com/proddetail/women-grey-floor-length-party-maxi-maternity-gown-2853701165933.html?pos=60&kwd=feeding gown&tags=BA||||8752.144|Price|product|||MDC|rsf:gd-|-stype:attr=1|qr_nm:gd|res:RC3|com-cf:nl|ptrs:na|ktp:N0|mc:190798|mtp:S|qry_typ:P|lang:en|wc:2|cs:8897|v=4,Ekaavali,https://www.indiamart.com/ekaavali/?pos=60&kwd=feeding gown&tags=BA||||8752.144|Price|product|||MDC|rsf:gd-|-stype:attr=1|qr_nm:gd|res:RC3|com-cf:nl|ptrs:na|ktp:N0|mc:190798|mtp:S|qry_typ:P|lang:en|wc:2|cs:8897|v=4,False,Palam,New Delhi,"Flat No-263, Excellence Apartments, Sector 18A, Dwarka, Palam, New Delhi - 110075, Dist.Delhi, Delhi",7949095107,
"Western Cotton Feeding Nighties, MIX, Stitched",https://www.indiamart.com/proddetail/cotton-feeding-nighties-21288709888.html?pos=61&kwd=feeding gown&tags=BA||||8661.854|Price|product|||TS|rsf:gd-|-stype:attr=1|qr_nm:gd|res:RC3|com-cf:nl|ptrs:na|ktp:N0|mc:190798|mtp:S|qry_typ:P|lang:en|wc:2|cs:8897|v=4,R K Products,https://www.nightpartner.in/?pos=61&kwd=feeding gown&tags=BA||||8661.854|Price|product|||TS|rsf:gd-|-stype:attr=1|qr_nm:gd|res:RC3|com-cf:nl|ptrs:na|ktp:N0|mc:190798|mtp:S|qry_typ:P|lang:en|wc:2|cs:8897|v=4,False,Dev Nagar,Ludhiana,"Shop Number 2, 8&10, Chaura Bazar Factory Near Samrala Chownk & H.NO. 1450 NEW CHANDER NAGAR ST. NO.7 OPP. D.M.C HOSPITAL BASSI NURSING HOMEST, Dev Nagar, Ludhiana - 141001, Dist.Ludhiana, Punjab",8047638898,
Cotton Maternity Dresses,https://www.indiamart.com/proddetail/cotton-maternity-dresses-2852649652912.html?pos=62&kwd=feeding gown&tags=BA||||8601.347|Price|product|||TS|rsf:gd-|-stype:attr=1|qr_nm:gd|res:RC3|com-cf:nl|ptrs:na|ktp:N0|mc:190798|mtp:S|qry_typ:P|lang:en|wc:2|cs:8897|v=4,Kismat Collection,https://www.kismatcollectionjaipur.com/?pos=62&kwd=feeding gown&tags=BA||||8601.347|Price|product|||TS|rsf:gd-|-stype:attr=1|qr_nm:gd|res:RC3|com-cf:nl|ptrs:na|ktp:N0|mc:190798|mtp:S|qry_typ:P|lang:en|wc:2|cs:8897|v=4,False,Raj Nagar 2,Jaipur,"A-15,,PATEL NAGAR NAMDEV COLONY,SANGANER, JAIPUR, Raj Nagar 2, Jaipur - 302029, Dist.Jaipur, Rajasthan",7942869763,
"Mix of Polyester & Cotton Half Sleeves Feeding Patient Gown, Size: S, M, L",https://www.indiamart.com/proddetail/feeding-patient-gown-20970626355.html?pos=63&kwd=feeding gown&tags=BA||||9839.57|Price|product|||MDC|rsf:gd-|-stype:attr=1|qr_nm:gd|res:RC3|com-cf:nl|ptrs:na|ktp:N0|mc:190798|mtp:S|qry_typ:P|lang:en|wc:2|cs:8897|v=4,Rashmi's,https://www.indiamart.com/rashmis-kolkata/?pos=63&kwd=feeding gown&tags=BA||||9839.57|Price|product|||MDC|rsf:gd-|-stype:attr=1|qr_nm:gd|res:RC3|com-cf:nl|ptrs:na|ktp:N0|mc:190798|mtp:S|qry_typ:P|lang:en|wc:2|cs:8897|v=4,False,Khengrapatti,Kolkata,"No. 10B, Jackson Lane, 1st Floor, China Bazar Beside Haldirams, Brabourne Road, Khengrapatti, Kolkata - 700001, Dist.Kolkata, West Bengal",8046068863,
Long Rayon Print Anarkali Suit With Dupatta,https://www.indiamart.com/proddetail/long-rayon-print-anarkali-suit-with-dupatta-2852670784133.html?pos=64&kwd=feeding gown&tags=BA||||8601.347|Price|product|||TS|rsf:gd-|-stype:attr=1|qr_nm:gd|res:RC3|com-cf:nl|ptrs:na|ktp:N0|mc:190798|mtp:S|qry_typ:P|lang:en|wc:2|cs:8897|v=4,C K Creation,https://www.indiamart.com/c-k-creation-jaipur/?pos=64&kwd=feeding gown&tags=BA||||8601.347|Price|product|||TS|rsf:gd-|-stype:attr=1|qr_nm:gd|res:RC3|com-cf:nl|ptrs:na|ktp:N0|mc:190798|mtp:S|qry_typ:P|lang:en|wc:2|cs:8897|v=4,False,Bambala,Jaipur,"1-A, Rani Ka Talab, Malpura Gate Ke Paas,, Bambala, Jaipur - 302029, Dist.Jaipur, Rajasthan",7942841456,
Meternity-70,https://www.indiamart.com/proddetail/meternity-70-22488831162.html?pos=65&kwd=feeding gown&tags=BA||||8231.259|Price|product|||TS|rsf:gd-|-stype:attr=1|qr_nm:gd|res:RC3|com-cf:nl|ptrs:na|ktp:N0|mc:190798|mtp:S|qry_typ:P|lang:en|wc:2|cs:8897|v=4,Red Rose ( A Brand Of Sagar Products),https://www.indiamart.com/redrose-mumbai/?pos=65&kwd=feeding gown&tags=BA||||8231.259|Price|product|||TS|rsf:gd-|-stype:attr=1|qr_nm:gd|res:RC3|com-cf:nl|ptrs:na|ktp:N0|mc:190798|mtp:S|qry_typ:P|lang:en|wc:2|cs:8897|v=4,False,Saravali,Bhiwandi,"C6, Asmeeta Textile Park Additional Kalyan Bhiwandi Highway, Saravali, Bhiwandi - 421311, Maharashtra",8048603606,
Full Length Cotton Feeding Nighty,https://www.indiamart.com/proddetail/cotton-feeding-nighty-21714070455.html?pos=66&kwd=feeding gown&tags=BA||||8601.347|Price|product|||TS|rsf:gd-|-stype:attr=1|qr_nm:gd|res:RC3|com-cf:nl|ptrs:na|ktp:N0|mc:190798|mtp:S|qry_typ:P|lang:en|wc:2|cs:8897|v=4,Rajlok Enterprises,https://www.indiamart.com/rajlok-enterprises/?pos=66&kwd=feeding gown&tags=BA||||8601.347|Price|product|||TS|rsf:gd-|-stype:attr=1|qr_nm:gd|res:RC3|com-cf:nl|ptrs:na|ktp:N0|mc:190798|mtp:S|qry_typ:P|lang:en|wc:2|cs:8897|v=4,False,Kapoorawala,Jaipur,"Shop No. 23, Shiv Bazar, Near Sparsh Hospital New Sanganer Road, Kapoorawala, Jaipur - 302029, Dist.Jaipur, Rajasthan",7942548592,
Maternity Tunic feeding gwon,https://www.indiamart.com/proddetail/maternity-tunic-feeding-gwon-2850085386133.html?pos=67&kwd=feeding gown&tags=BA||||8601.347|Price|product|||TS|rsf:gd-|-stype:attr=1|qr_nm:gd|res:RC3|com-cf:nl|ptrs:na|ktp:N0|mc:190798|mtp:S|qry_typ:P|lang:en|wc:2|cs:8897|v=4,Prince Enterprises,https://www.indiamart.com/princeenterprisesjaipur/?pos=67&kwd=feeding gown&tags=BA||||8601.347|Price|product|||TS|rsf:gd-|-stype:attr=1|qr_nm:gd|res:RC3|com-cf:nl|ptrs:na|ktp:N0|mc:190798|mtp:S|qry_typ:P|lang:en|wc:2|cs:8897|v=4,False,Mansarovar,Jaipur,"115/137 Agarwal Farm,mansarovar, Mansarovar, Jaipur - 302020, Dist.Jaipur, Rajasthan",8048963229,
Womens Printed Dark Purple Rayon Maternity Night Gown,https://www.indiamart.com/proddetail/womens-printed-dark-purple-rayon-maternity-night-gown-2854694019988.html?pos=68&kwd=feeding gown&tags=BB||||8601.347|Price|product|||MDC|rsf:gd-|-stype:attr=1|qr_nm:gd|res:RC3|com-cf:nl|ptrs:na|ktp:N0|mc:190798|mtp:S|qry_typ:P|lang:en|wc:2|cs:8897|v=4,V R Fashions,https://www.indiamart.com/vrfashions-jaipur/?pos=68&kwd=feeding gown&tags=BB||||8601.347|Price|product|||MDC|rsf:gd-|-stype:attr=1|qr_nm:gd|res:RC3|com-cf:nl|ptrs:na|ktp:N0|mc:190798|mtp:S|qry_typ:P|lang:en|wc:2|cs:8897|v=4,False,,Jaipur,"Ground Floor 10, Thana Circle, Khokhawas, Mahaveer Nagar, Near Sanganer Thana, Sanganer, Jaipur - 302029, Dist.Jaipur, Rajasthan",7949322594,
cotton anarkali feeding/maternity kurti,https://www.indiamart.com/proddetail/cotton-anarkali-feeding-maternity-kurti-2852386300397.html?pos=69&kwd=feeding gown&tags=BA||||8601.347|Price|product|||TS|rsf:gd-|-stype:attr=1|qr_nm:gd|res:RC3|com-cf:nl|ptrs:na|ktp:N0|mc:190798|mtp:S|qry_typ:P|lang:en|wc:2|cs:8897|v=4,Guru Kripa Creation,https://www.indiamart.com/guru-kripa-creationjaipur/?pos=69&kwd=feeding gown&tags=BA||||8601.347|Price|product|||TS|rsf:gd-|-stype:attr=1|qr_nm:gd|res:RC3|com-cf:nl|ptrs:na|ktp:N0|mc:190798|mtp:S|qry_typ:P|lang:en|wc:2|cs:8897|v=4,False,Sanganer Bazar,Jaipur,"01, Radha Ballabh Marg, Joshiyo Ka Mohalla, Sanganer, Sanganer Bazar, Jaipur - 302029, Dist.Jaipur, Rajasthan",7942956353,
Women Cotton Printed Maternity & Feeding Top & Pyjama Set,https://www.indiamart.com/proddetail/women-cotton-printed-maternity-feeding-top-pyjama-set-2851015850697.html?pos=70&kwd=feeding gown&tags=BA||||8211.142|Price|product|||MDC|rsf:gd-|-stype:attr=1|qr_nm:gd|res:RC3|com-cf:nl|ptrs:na|ktp:N0|mc:190798|mtp:S|qry_typ:P|lang:en|wc:2|cs:8897|v=4,Sarvodaya,https://www.indiamart.com/sarvodayamumbai/?pos=70&kwd=feeding gown&tags=BA||||8211.142|Price|product|||MDC|rsf:gd-|-stype:attr=1|qr_nm:gd|res:RC3|com-cf:nl|ptrs:na|ktp:N0|mc:190798|mtp:S|qry_typ:P|lang:en|wc:2|cs:8897|v=4,False,Kandivali West,Mumbai,"305, Shree Nikunj Bldg. No. 2, Off. S. V. Road, Mumbai Suburban, Kandivali West, Mumbai - 400067, Dist.Mumbai, Maharashtra",7942793851,
Feeding Gown,,Parasnath Traders,https://www.indiamart.com/parasnathtraders-jaipur/?pos=71&kwd=feeding gown&tags=BA||||8601.347|Price|product|||MDC|rsf:gd-|-stype:attr=1|qr_nm:gd|res:RC3|com-cf:nl|ptrs:na|ktp:N0|mc:190798|mtp:S|qry_typ:P|lang:en|wc:2|cs:8897|v=4,False,Mansarovar,Jaipur,"Plot No. 34-35A, Shri Ram Nagar, Near Kids Club School, New Sanganer Road, Mansarovar, Mansarovar, Jaipur - 302020, Dist.Jaipur, Rajasthan",7948547962,
Feeding Gown,,SR Clothing,https://www.indiamart.com/sr-clothing-tamilnadu/?pos=72&kwd=feeding gown&tags=BB||||8626.744|Price|product|||MDC|rsf:gd-|-stype:attr=1|qr_nm:gd|res:RC3|com-cf:nl|ptrs:na|ktp:N0|mc:190798|mtp:S|qry_typ:P|lang:en|wc:2|cs:8897|v=4,False,Samalapuram,Tiruppur,"5/177-F1,,Jeeva Nagar 7th Street,Samalapuram, Samalapuram, Tiruppur - 641663, Dist.Coimbatore, Tamil Nadu",7949095886,
"Crepe Ladies Cotton Feeding Gown, Half Sleeve",https://www.indiamart.com/proddetail/ladies-cotton-feeding-gown-2854338145762.html?pos=73&kwd=feeding gown&tags=A||||8663.873|Price|product|||NA|rsf:gd-|-stype:attr=1|qr_nm:gd|res:RC3|com-cf:nl|ptrs:na|ktp:N0|mc:190798|mtp:S|qry_typ:P|lang:en|wc:2|cs:8897|v=4,Navkar Garment,https://www.indiamart.com/navkargarmentbengaluru/?pos=73&kwd=feeding gown&tags=A||||8663.873|Price|product|||NA|rsf:gd-|-stype:attr=1|qr_nm:gd|res:RC3|com-cf:nl|ptrs:na|ktp:N0|mc:190798|mtp:S|qry_typ:P|lang:en|wc:2|cs:8897|v=4,False,Old Tharagupet Sultanpet Bengaluru Urban,Bengaluru,"Third Floor, Bbmp Ward No 28 New Ward 109 No 1 Old No 35, Previous No 130, 5th Cross, Old Tharagupet Sultanpet Bengaluru Urban, Bengaluru - 560053, Dist.Bengaluru, Karnataka",8045735848,
"Printed Black Spun Feeding Gown, Half Sleeve",https://www.indiamart.com/proddetail/black-spun-feeding-gown-2851784732448.html?pos=74&kwd=feeding gown&tags=BA||||8663.873|Price|product|||NA|rsf:gd-|-stype:attr=1|qr_nm:gd|res:RC3|com-cf:nl|ptrs:na|ktp:N0|mc:190798|mtp:S|qry_typ:P|lang:en|wc:2|cs:8897|v=4,Hindustan Trading,https://www.indiamart.com/hindustan-trading-bengaluru/?pos=74&kwd=feeding gown&tags=BA||||8663.873|Price|product|||NA|rsf:gd-|-stype:attr=1|qr_nm:gd|res:RC3|com-cf:nl|ptrs:na|ktp:N0|mc:190798|mtp:S|qry_typ:P|lang:en|wc:2|cs:8897|v=4,False,Chickpet,Bengaluru,"3rd Floor No Tf-4, No 90 A S Char Street Metro Plaza, Chickpet, Bengaluru - 560053, Dist.Bengaluru, Karnataka",7942842330,
"Cotton Printed Feeding Gown, Three fourth sleeve",https://www.indiamart.com/proddetail/feeding-gown-2854630038462.html?pos=75&kwd=feeding gown&tags=BB||||8601.347|Price|product|||NA|rsf:gd-|-stype:attr=1|qr_nm:gd|res:RC3|com-cf:nl|ptrs:na|ktp:N0|mc:190798|mtp:S|qry_typ:P|lang:en|wc:2|cs:8897|v=4,Jai Vijay Creations,https://www.indiamart.com/company/205494748/?pos=75&kwd=feeding gown&tags=BB||||8601.347|Price|product|||NA|rsf:gd-|-stype:attr=1|qr_nm:gd|res:RC3|com-cf:nl|ptrs:na|ktp:N0|mc:190798|mtp:S|qry_typ:P|lang:en|wc:2|cs:8897|v=4,False,,Jaipur,"Ground Floor 10 Mahaveer Nagar Thana Circle, Khokhawas, Jaipur - 302029, Dist.Jaipur, Rajasthan",8047311027,8568
Soft Georgette Printed Feeding Maternity Gown,https://www.indiamart.com/proddetail/feeding-maternity-gown-25974501912.html?pos=76&kwd=feeding gown&tags=BA||||8230.883|Price|product|||NA|rsf:gd-|-stype:attr=1|qr_nm:gd|res:RC3|com-cf:nl|ptrs:na|ktp:N0|mc:190798|mtp:S|qry_typ:P|lang:en|wc:2|cs:8897|v=4,Korat Clothing Studio,https://www.indiamart.com/koratclothingstudio/?pos=76&kwd=feeding gown&tags=BA||||8230.883|Price|product|||NA|rsf:gd-|-stype:attr=1|qr_nm:gd|res:RC3|com-cf:nl|ptrs:na|ktp:N0|mc:190798|mtp:S|qry_typ:P|lang:en|wc:2|cs:8897|v=4,False,,Surat,"., Surat - 395010, Dist.Surat, Gujarat",8048955432,
Ladies Rayon Feeding Gown,https://www.indiamart.com/proddetail/ladies-rayon-feeding-gown-27504961512.html?pos=77&kwd=feeding gown&tags=BB||||8601.347|Price|product|||NA|rsf:gd-|-stype:attr=1|qr_nm:gd|res:RC3|com-cf:nl|ptrs:na|ktp:N0|mc:190798|mtp:S|qry_typ:P|lang:en|wc:2|cs:8897|v=4,Amina Enterprises,https://www.indiamart.com/amina-enterprises-jaipur/?pos=77&kwd=feeding gown&tags=BB||||8601.347|Price|product|||NA|rsf:gd-|-stype:attr=1|qr_nm:gd|res:RC3|com-cf:nl|ptrs:na|ktp:N0|mc:190798|mtp:S|qry_typ:P|lang:en|wc:2|cs:8897|v=4,False,,Jaipur,"68, Ganesh Colony, Mapura Gate Ke Bahar, Jaipur - 302029, Dist.Jaipur, Rajasthan",7942671769,
"Printed Cotton Ankle Length Maternity Feeding Gown, 3/4 Sleeve",https://www.indiamart.com/proddetail/ankle-length-maternity-feeding-gown-2850514593648.html?pos=78&kwd=feeding gown&tags=BB||||8601.347|Price|product|||NA|rsf:gd-|-stype:attr=1|qr_nm:gd|res:RC3|com-cf:nl|ptrs:na|ktp:N0|mc:190798|mtp:S|qry_typ:P|lang:en|wc:2|cs:8897|v=4,Tada Traders,https://www.indiamart.com/tadatraders/?pos=78&kwd=feeding gown&tags=BB||||8601.347|Price|product|||NA|rsf:gd-|-stype:attr=1|qr_nm:gd|res:RC3|com-cf:nl|ptrs:na|ktp:N0|mc:190798|mtp:S|qry_typ:P|lang:en|wc:2|cs:8897|v=4,False,,Jaipur,"Jamwar Ramgarh, Naradpura, Natata, Jaipur - 302028, Dist.Jaipur, Rajasthan",7942823743,
"Rayon Purple Feeding Gown, Half Sleeve",https://www.indiamart.com/proddetail/rayon-purple-feeding-gown-2851841194362.html?pos=79&kwd=feeding gown&tags=BA||||8601.347|Price|product|||NA|rsf:gd-|-stype:attr=1|qr_nm:gd|res:RC3|com-cf:nl|ptrs:na|ktp:N0|mc:190798|mtp:S|qry_typ:P|lang:en|wc:2|cs:8897|v=4,Janki Textile,https://www.indiamart.com/jankitextile-jaipur/?pos=79&kwd=feeding gown&tags=BA||||8601.347|Price|product|||NA|rsf:gd-|-stype:attr=1|qr_nm:gd|res:RC3|com-cf:nl|ptrs:na|ktp:N0|mc:190798|mtp:S|qry_typ:P|lang:en|wc:2|cs:8897|v=4,False,Kundan Nagar,Jaipur,"6/33, Ganesh Colony, Sanganer, Kundan Nagar, Jaipur - 302029, Dist.Jaipur, Rajasthan",8048957370,
"Printed Ladies Cotton Feeding Gown, 3/4 Sleeve",https://www.indiamart.com/proddetail/ladies-cotton-feeding-gown-2849749248630.html?pos=80&kwd=feeding gown&tags=BA||||8601.347|Price|product|||NA|rsf:gd-|-stype:attr=1|qr_nm:gd|res:RC3|com-cf:nl|ptrs:na|ktp:N0|mc:190798|mtp:S|qry_typ:P|lang:en|wc:2|cs:8897|v=4,Aradhana Fashion,https://www.indiamart.com/aradhanafashion-jaipur/?pos=80&kwd=feeding gown&tags=BA||||8601.347|Price|product|||NA|rsf:gd-|-stype:attr=1|qr_nm:gd|res:RC3|com-cf:nl|ptrs:na|ktp:N0|mc:190798|mtp:S|qry_typ:P|lang:en|wc:2|cs:8897|v=4,False,Sanganer,Jaipur,"191 - C, Shri Ji Nagar, Rampura Road Near Railway Station, Sanganer, Sanganer, Jaipur - 302016, Dist.Jaipur, Rajasthan",7942797317,
"Rayon Printed Feeding Gown, 3/4 Sleeve",https://www.indiamart.com/proddetail/rayon-printed-feeding-gown-2849115548655.html?pos=81&kwd=feeding gown&tags=BB||||8601.347|Price|product|||NA|rsf:gd-|-stype:attr=1|qr_nm:gd|res:RC3|com-cf:nl|ptrs:na|ktp:N0|mc:190798|mtp:S|qry_typ:P|lang:en|wc:2|cs:8897|v=4,Sunita Textiles,https://www.indiamart.com/sunita-textiles-jaipur/?pos=81&kwd=feeding gown&tags=BB||||8601.347|Price|product|||NA|rsf:gd-|-stype:attr=1|qr_nm:gd|res:RC3|com-cf:nl|ptrs:na|ktp:N0|mc:190798|mtp:S|qry_typ:P|lang:en|wc:2|cs:8897|v=4,False,,Jaipur,"25, Sri Ram Vihar Colony Mansarovar, Jaipur - 302020, Dist.Jaipur, Rajasthan",8047684830,
"Printed Ladies cotton feeding gown, Half Sleeve",https://www.indiamart.com/proddetail/ladies-cotton-feeding-gown-2848945157112.html?pos=82&kwd=feeding gown&tags=BA||||8211.142|Price|product|||NA|rsf:gd-|-stype:attr=1|qr_nm:gd|res:RC3|com-cf:nl|ptrs:na|ktp:N0|mc:190798|mtp:S|qry_typ:P|lang:en|wc:2|cs:8897|v=4,Raj Collection,https://www.indiamart.com/raj-collectionmaharashtra/?pos=82&kwd=feeding gown&tags=BA||||8211.142|Price|product|||NA|rsf:gd-|-stype:attr=1|qr_nm:gd|res:RC3|com-cf:nl|ptrs:na|ktp:N0|mc:190798|mtp:S|qry_typ:P|lang:en|wc:2|cs:8897|v=4,False,,Mumbai,"Shop No. 14 B1 S.V.Road Sai Mangal Chs Ltd Malad West, Mumbai - 400064, Dist.Mumbai, Maharashtra",8046041437,
"Green Ladies Cotton Maternity Feeding Gown, 3/4 Sleeve, Size: XL",https://www.indiamart.com/proddetail/ladies-cotton-maternity-feeding-gown-26520847262.html?pos=83&kwd=feeding gown&tags=BA||||8601.347|Price|product|||NA|rsf:gd-|-stype:attr=1|qr_nm:gd|res:RC3|com-cf:nl|ptrs:na|ktp:N0|mc:190798|mtp:S|qry_typ:P|lang:en|wc:2|cs:8897|v=4,M/S Janvi Creation'S,https://www.indiamart.com/msjanvicreations/?pos=83&kwd=feeding gown&tags=BA||||8601.347|Price|product|||NA|rsf:gd-|-stype:attr=1|qr_nm:gd|res:RC3|com-cf:nl|ptrs:na|ktp:N0|mc:190798|mtp:S|qry_typ:P|lang:en|wc:2|cs:8897|v=4,False,,Jaipur,"113/08, Ramthirath Marg, Vijay Path, Masarovar, Jaipur - 302020, Dist.Jaipur, Rajasthan",8048208958,
"Maroon Maternity Feeding Gown Style Kurti, Size: XL, Sleeves: Ful Sleeve",https://www.indiamart.com/proddetail/maternity-feeding-gown-style-kurti-2849539860497.html?pos=84&kwd=feeding gown&tags=BB||||9814.149|Price|product|||NA|rsf:gd-|-stype:attr=1|qr_nm:gd|res:RC3|com-cf:nl|ptrs:na|ktp:N0|mc:190798|mtp:S|qry_typ:P|lang:en|wc:2|cs:8897|v=4,SK Garment,https://www.indiamart.com/sk-garment-karari/?pos=84&kwd=feeding gown&tags=BB||||9814.149|Price|product|||NA|rsf:gd-|-stype:attr=1|qr_nm:gd|res:RC3|com-cf:nl|ptrs:na|ktp:N0|mc:190798|mtp:S|qry_typ:P|lang:en|wc:2|cs:8897|v=4,False,,Chaspara,"Mofijuddin Biswas Para, Chaspara, Malda, Chaspara - 732206, Dist.Malda, West Bengal",7942791369,
Pink Cotton Feeding Nighty,https://www.indiamart.com/proddetail/cotton-feeding-nighty-21790101633.html?pos=85&kwd=feeding gown&tags=BB||||8891.556|Price|product|||NA|rsf:gd-|-stype:attr=1|qr_nm:gd|res:RC3|com-cf:nl|ptrs:na|ktp:N0|mc:190798|mtp:S|qry_typ:P|lang:en|wc:2|cs:8897|v=4,Sri Revathy Enterprises,https://www.indiamart.com/srirevathyenterprises/?pos=85&kwd=feeding gown&tags=BB||||8891.556|Price|product|||NA|rsf:gd-|-stype:attr=1|qr_nm:gd|res:RC3|com-cf:nl|ptrs:na|ktp:N0|mc:190798|mtp:S|qry_typ:P|lang:en|wc:2|cs:8897|v=4,False,Sai Ganesh Nagar,Kanchipuram,"87 17th cross street Sai Ganesh Nagar, Jalladianpet, Sai Ganesh Nagar, Kanchipuram - 600100, Dist.Kanchipuram, Tamil Nadu",8046076815,
Festive Wear Printed Women Rayon Feeding Long Gown,https://www.indiamart.com/proddetail/women-rayon-feeding-long-gown-23001893530.html?pos=86&kwd=feeding gown&tags=BB||||8601.347|Price|product|||NA|rsf:gd-|-stype:attr=1|qr_nm:gd|res:RC3|com-cf:nl|ptrs:na|ktp:N0|mc:190798|mtp:S|qry_typ:P|lang:en|wc:2|cs:8897|v=4,Purvansh Enterprises,https://www.indiamart.com/purvanshenterprises/?pos=86&kwd=feeding gown&tags=BB||||8601.347|Price|product|||NA|rsf:gd-|-stype:attr=1|qr_nm:gd|res:RC3|com-cf:nl|ptrs:na|ktp:N0|mc:190798|mtp:S|qry_typ:P|lang:en|wc:2|cs:8897|v=4,False,,Jaipur,"Plot No. 17, Balaji Vihar 2, Govindpura, Kalwar Road, Jaipur - 302012, Dist.Jaipur, Rajasthan",7942564962,
"Printed Cotton Feeding Gown, Sleeves: Half Sleeves",https://www.indiamart.com/proddetail/cotton-feeding-gown-26120167712.html?pos=87&kwd=feeding gown&tags=BB||||8242.731|Price|product|||NA|rsf:gd-|-stype:attr=1|qr_nm:gd|res:RC3|com-cf:nl|ptrs:na|ktp:N0|mc:190798|mtp:S|qry_typ:P|lang:en|wc:2|cs:8897|v=4,Shubham Traders,https://www.indiamart.com/shubhamtraders-ulhasnagar/?pos=87&kwd=feeding gown&tags=BB||||8242.731|Price|product|||NA|rsf:gd-|-stype:attr=1|qr_nm:gd|res:RC3|com-cf:nl|ptrs:na|ktp:N0|mc:190798|mtp:S|qry_typ:P|lang:en|wc:2|cs:8897|v=4,False,,Ulhasnagar,"NR BK 1829, Sai Baba Mandir, Section-39, Opp. Krishna APT, Thane, Ulhasnagar - 421005, Dist.Thane, Maharashtra",8043857875,
"Printed Maternity Feeding Gown, Three fourth sleeve",https://www.indiamart.com/proddetail/maternity-feeding-gown-2853742305355.html?pos=88&kwd=feeding gown&tags=BA||||8230.883|Price|product|||NA|rsf:gd-|-stype:attr=1|qr_nm:gd|res:RC3|com-cf:nl|ptrs:na|ktp:N0|mc:190798|mtp:S|qry_typ:P|lang:en|wc:2|cs:8897|v=4,Bansi Enterprise,https://www.indiamart.com/bansienterprise/?pos=88&kwd=feeding gown&tags=BA||||8230.883|Price|product|||NA|rsf:gd-|-stype:attr=1|qr_nm:gd|res:RC3|com-cf:nl|ptrs:na|ktp:N0|mc:190798|mtp:S|qry_typ:P|lang:en|wc:2|cs:8897|v=4,False,Hirabaugh,Surat,"145, Krishna Park Society, NR.Gelambe Mandir,Kamraj,, Hirabaugh, Surat - 394180, Dist.Surat, Gujarat",7942620842,
Printed Blue Sarina Feeding Nighty,https://www.indiamart.com/proddetail/blue-sarina-feeding-nighty-20752741291.html?pos=89&kwd=feeding gown&tags=BA||||8223.226|Price|product|||NA|rsf:gd-|-stype:attr=1|qr_nm:gd|res:RC3|com-cf:nl|ptrs:na|ktp:N0|mc:190798|mtp:S|qry_typ:P|lang:en|wc:2|cs:8897|v=4,Lucky Maxi,https://www.indiamart.com/lucky-maxi/?pos=89&kwd=feeding gown&tags=BA||||8223.226|Price|product|||NA|rsf:gd-|-stype:attr=1|qr_nm:gd|res:RC3|com-cf:nl|ptrs:na|ktp:N0|mc:190798|mtp:S|qry_typ:P|lang:en|wc:2|cs:8897|v=4,False,Kailash Colony,Thane,"NEAR BK NO. 1855,ROOM NO. 10,, SECTION- 39, ULHASNAGAR, Kailash Colony, Thane - 421005, Dist.Thane, Maharashtra",8043853414,
"Ethnic Green Feeding Gown, Printed, Stitched",https://www.indiamart.com/proddetail/feeding-gown-25495336791.html?pos=90&kwd=feeding gown&tags=BB||||8876.815|Price|product|||NA|rsf:gd-|-stype:attr=1|qr_nm:gd|res:RC3|com-cf:nl|ptrs:na|ktp:N0|mc:190798|mtp:S|qry_typ:P|lang:en|wc:2|cs:8897|v=4,Dhanshree Gown Collection,https://www.indiamart.com/dhanshreegowncollection/?pos=90&kwd=feeding gown&tags=BB||||8876.815|Price|product|||NA|rsf:gd-|-stype:attr=1|qr_nm:gd|res:RC3|com-cf:nl|ptrs:na|ktp:N0|mc:190798|mtp:S|qry_typ:P|lang:en|wc:2|cs:8897|v=4,False,Gandhibagh,Nagpur,"Soot Market, Soot And Resham Bazar, Gandhibagh, Nagpur - 440002, Dist.Nagpur, Maharashtra",7942551076,
"Printed Full Length Ethnic Cotton Feeding Nighty, Stitched",https://www.indiamart.com/proddetail/printed-full-length-ethnic-cotton-feeding-nighty-25381939062.html?pos=91&kwd=feeding gown&tags=BB||||8242.731|Price|product|||NA|rsf:gd-|-stype:attr=1|qr_nm:gd|res:RC3|com-cf:nl|ptrs:na|ktp:N0|mc:190798|mtp:S|qry_typ:P|lang:en|wc:2|cs:8897|v=4,Dhanlaxmi Traders,https://www.indiamart.com/dhanlaxmitradersulhasnagar/?pos=91&kwd=feeding gown&tags=BB||||8242.731|Price|product|||NA|rsf:gd-|-stype:attr=1|qr_nm:gd|res:RC3|com-cf:nl|ptrs:na|ktp:N0|mc:190798|mtp:S|qry_typ:P|lang:en|wc:2|cs:8897|v=4,False,,Ulhasnagar,"Shop No 93, Dhanlaxmi Traders, Doodh Naka, Gown Bazar, Near Soni Gown Centre Thane, Ulhasnagar - 421005, Dist.Thane, Maharashtra",8048271196,
"Full Length Cotton Ladies Printed Gujri Feeding Nighty, Free Size",https://www.indiamart.com/proddetail/ladies-printed-gujri-feeding-nighty-23942162048.html?pos=92&kwd=feeding gown&tags=BB||||8559.269|Price|product|||NA|rsf:gd-|-stype:attr=1|qr_nm:gd|res:RC3|com-cf:nl|ptrs:na|ktp:N0|mc:190798|mtp:S|qry_typ:P|lang:en|wc:2|cs:8897|v=4,Mahajan Clothing,https://www.indiamart.com/mahajan-clothing/?pos=92&kwd=feeding gown&tags=BB||||8559.269|Price|product|||NA|rsf:gd-|-stype:attr=1|qr_nm:gd|res:RC3|com-cf:nl|ptrs:na|ktp:N0|mc:190798|mtp:S|qry_typ:P|lang:en|wc:2|cs:8897|v=4,False,Near Global Heights School,Indore,"3293 E Sudama Nagar, Near Global Heights School, Indore - 452009, Dist.Indore, Madhya Pradesh",8048361380,191
"Ladies Printed Feeding Gown, Pink, Stitched",https://www.indiamart.com/proddetail/ladies-printed-feeding-gown-22930365255.html?pos=93&kwd=feeding gown&tags=BB||||8242.731|Price|product|||NA|rsf:gd-|-stype:attr=1|qr_nm:gd|res:RC3|com-cf:nl|ptrs:na|ktp:N0|mc:190798|mtp:S|qry_typ:P|lang:en|wc:2|cs:8897|v=4,Satyam Gown,https://www.indiamart.com/satyamgown/?pos=93&kwd=feeding gown&tags=BB||||8242.731|Price|product|||NA|rsf:gd-|-stype:attr=1|qr_nm:gd|res:RC3|com-cf:nl|ptrs:na|ktp:N0|mc:190798|mtp:S|qry_typ:P|lang:en|wc:2|cs:8897|v=4,False,,Ulhasnagar,"Bk No.1811, Room No.4, Section-38, Near Fish Market, Ulhasnagar, Ulhasnagar - 421005, Dist.Thane, Maharashtra",8043852051,
Mom's kurtiz maternity wear Feeding kurti,https://www.indiamart.com/proddetail/mom-s-kurtiz-maternity-wear-feeding-kurti-22982921473.html?pos=94&kwd=feeding gown&tags=BB||||8901.821|Price|product|||NA|rsf:gd-|-stype:attr=1|qr_nm:gd|res:RC3|com-cf:nl|ptrs:na|ktp:N0|mc:190798|mtp:S|qry_typ:P|lang:en|wc:2|cs:8897|v=4,Azure Sapphire Global Solutions,https://www.indiamart.com/azure-sapphire-global-solutions/?pos=94&kwd=feeding gown&tags=BB||||8901.821|Price|product|||NA|rsf:gd-|-stype:attr=1|qr_nm:gd|res:RC3|com-cf:nl|ptrs:na|ktp:N0|mc:190798|mtp:S|qry_typ:P|lang:en|wc:2|cs:8897|v=4,False,,Kotdwara,"Teen Universe, Kotdwara - 246149, Dist.Pauri Garhwal, Uttarakhand",8048361381,649
Printed Pink Cotton Maternity Feeding Gown,https://www.indiamart.com/proddetail/pink-cotton-maternity-feeding-gown-2854325696948.html?pos=95&kwd=feeding gown&tags=BA||||8601.347|Price|product|||NA|rsf:gd-|-stype:attr=1|qr_nm:gd|res:RC3|com-cf:nl|ptrs:na|ktp:N0|mc:190798|mtp:S|qry_typ:P|lang:en|wc:2|cs:8897|v=4,Garima Fashion,https://www.indiamart.com/garimafashionjaipur/?pos=95&kwd=feeding gown&tags=BA||||8601.347|Price|product|||NA|rsf:gd-|-stype:attr=1|qr_nm:gd|res:RC3|com-cf:nl|ptrs:na|ktp:N0|mc:190798|mtp:S|qry_typ:P|lang:en|wc:2|cs:8897|v=4,False,,Jaipur,"93, Panchwati Colony, Block E, Kanwar Ka Baag, Sanganer Bazar, Sanganer, Jaipur - 302029, Dist.Jaipur, Rajasthan",8045734075,
Maternity Photoshoot Gown,https://www.indiamart.com/proddetail/maternity-photoshoot-gown-2851743854688.html?pos=96&kwd=feeding gown&tags=BB||||8230.883|Price|product|||NA|rsf:gd-|-stype:attr=1|qr_nm:gd|res:RC3|com-cf:nl|ptrs:na|ktp:N0|mc:190798|mtp:S|qry_typ:P|lang:en|wc:2|cs:8897|v=4,Dhara Fashion,https://www.indiamart.com/dharafashionsurat/?pos=96&kwd=feeding gown&tags=BB||||8230.883|Price|product|||NA|rsf:gd-|-stype:attr=1|qr_nm:gd|res:RC3|com-cf:nl|ptrs:na|ktp:N0|mc:190798|mtp:S|qry_typ:P|lang:en|wc:2|cs:8897|v=4,False,,Surat,"Plot-15/321, Shed No-23, GR. Floor, Pavthawala Comp, Jain Mandir Road, Vasta Devdi Road, Kataragam, Surat - 395004, Dist.Surat, Gujarat",8047647921,
"Cotton Feeding Gowns, Stitched",https://www.indiamart.com/proddetail/cotton-feeding-gowns-25699211612.html?pos=97&kwd=feeding gown&tags=BB||||8242.731|Price|product|||NA|rsf:gd-|-stype:attr=1|qr_nm:gd|res:RC3|com-cf:nl|ptrs:na|ktp:N0|mc:190798|mtp:S|qry_typ:P|lang:en|wc:2|cs:8897|v=4,Mahaveer Enterprises,https://www.indiamart.com/mahaveerenterprisesmaharashtra/?pos=97&kwd=feeding gown&tags=BB||||8242.731|Price|product|||NA|rsf:gd-|-stype:attr=1|qr_nm:gd|res:RC3|com-cf:nl|ptrs:na|ktp:N0|mc:190798|mtp:S|qry_typ:P|lang:en|wc:2|cs:8897|v=4,False,Vithalwadi,Ulhasnagar,"BK No. 703, Room No. 5,6, Opp. Central Police Station, Central Hospital Area, Vithalwadi, Ulhasnagar - 421003, Dist.Thane, Maharashtra",8048269541,
"Ethnic Mother Feeding Gown, Stitched",https://www.indiamart.com/proddetail/mother-feeding-gown-25006080948.html?pos=98&kwd=feeding gown&tags=BB||||8071.104|Price|product|||NA|rsf:gd-|-stype:attr=1|qr_nm:gd|res:RC3|com-cf:nl|ptrs:na|ktp:N0|mc:190798|mtp:S|qry_typ:P|lang:en|wc:2|cs:8897|v=4,Dwij,https://www.indiamart.com/kalyan-gruh-udyog/?pos=98&kwd=feeding gown&tags=BB||||8071.104|Price|product|||NA|rsf:gd-|-stype:attr=1|qr_nm:gd|res:RC3|com-cf:nl|ptrs:na|ktp:N0|mc:190798|mtp:S|qry_typ:P|lang:en|wc:2|cs:8897|v=4,False,,Amreli,"Main Bazar, Bagasara, Amreli - 365440, Dist.Amreli, Gujarat",8048250339,660
Cotton Printed Feeding Gown,https://www.indiamart.com/proddetail/cotton-printed-feeding-gown-25226090012.html?pos=99&kwd=feeding gown&tags=BB||||8954.051||product|||NA|rsf:gd-|-stype:attr=1|qr_nm:gd|res:RC3|com-cf:nl|ptrs:na|ktp:N0|mc:190798|mtp:S|qry_typ:P|lang:en|wc:2|cs:8897|v=4,Vastra Vedhika,https://www.indiamart.com/vastra-vedhika/?pos=99&kwd=feeding gown&tags=BB||||8954.051||product|||NA|rsf:gd-|-stype:attr=1|qr_nm:gd|res:RC3|com-cf:nl|ptrs:na|ktp:N0|mc:190798|mtp:S|qry_typ:P|lang:en|wc:2|cs:8897|v=4,False,,Chennai,"DOOR NO 104,Arihant Frangipani Apartments, Chennai - 603103, Dist.Chennai, Tamil Nadu",8048372153,388
"Printed Hosiery 5459- Feeding Gown Combo, Size: Large",https://www.indiamart.com/proddetail/5459-feeding-gown-combo-20914403573.html?pos=100&kwd=feeding gown&tags=BB||||8228.275|Price|product|||NA|rsf:gd-|-stype:attr=1|qr_nm:gd|res:RC3|com-cf:nl|ptrs:na|ktp:N0|mc:190798|mtp:S|qry_typ:P|lang:en|wc:2|cs:8897|v=4,Shree Santoshi Agencies,https://www.indiamart.com/shreesantoshiagencies/?pos=100&kwd=feeding gown&tags=BB||||8228.275|Price|product|||NA|rsf:gd-|-stype:attr=1|qr_nm:gd|res:RC3|com-cf:nl|ptrs:na|ktp:N0|mc:190798|mtp:S|qry_typ:P|lang:en|wc:2|cs:8897|v=4,False,Khadia,Ahmedabad,"857/1,opp Jain Gyan Mandir,tankshal Road,, Khadia, Ahmedabad - 380001, Dist.Ahmedabad, Gujarat",7942562849,
"Rayon Floral Print Ladies Purple Feeding Gown, 3/4 Sleeve",https://www.indiamart.com/proddetail/ladies-purple-feeding-gown-2850392642433.html?pos=101&kwd=feeding gown&tags=BB||||8601.347|Price|product|||NA|rsf:gd-|-stype:attr=1|qr_nm:gd|res:RC3|com-cf:nl|ptrs:na|ktp:N0|mc:190798|mtp:S|qry_typ:P|lang:en|wc:2|cs:8897|v=4,Vedanta Textile,https://www.indiamart.com/vedantatextile-rajasthan/?pos=101&kwd=feeding gown&tags=BB||||8601.347|Price|product|||NA|rsf:gd-|-stype:attr=1|qr_nm:gd|res:RC3|com-cf:nl|ptrs:na|ktp:N0|mc:190798|mtp:S|qry_typ:P|lang:en|wc:2|cs:8897|v=4,False,Sanganer,Jaipur,"Plot No 31 Shikarpura Road Rajkiye Sanskrit School Ke Pass, Sanganer, Jaipur - 302029, Dist.Jaipur, Rajasthan",7942820566,
Cotton Women Feeding Dresses,https://www.indiamart.com/proddetail/women-feeding-dresses-2853680935655.html?pos=102&kwd=feeding gown&tags=BA||||8584.299||product|||NA|rsf:gd-|-stype:attr=1|qr_nm:gd|res:RC3|com-cf:nl|ptrs:na|ktp:N0|mc:190798|mtp:S|qry_typ:P|lang:en|wc:2|cs:8897|v=4,The First Date,https://www.indiamart.com/the-first-date/?pos=102&kwd=feeding gown&tags=BA||||8584.299||product|||NA|rsf:gd-|-stype:attr=1|qr_nm:gd|res:RC3|com-cf:nl|ptrs:na|ktp:N0|mc:190798|mtp:S|qry_typ:P|lang:en|wc:2|cs:8897|v=4,False,Kalapatti,Coimbatore,"4th Floor, 403, Smukas Eagle Nest Apartments, KPK Nagar, Veeriyampalayam, Kalapatti,, Kalapatti, Coimbatore - 641048, Dist.Coimbatore, Tamil Nadu",7942666286,
"Ladies Blue Printed Cotton Feeding Gown, Size: M",https://www.indiamart.com/proddetail/ladies-blue-printed-cotton-feeding-gown-25944275233.html?pos=103&kwd=feeding gown&tags=BB||||8601.347|Price|product|||NA|rsf:gd-|-stype:attr=1|qr_nm:gd|res:RC3|com-cf:nl|ptrs:na|ktp:N0|mc:190798|mtp:S|qry_typ:P|lang:en|wc:2|cs:8897|v=4,Sanjeevani Fashion,https://www.indiamart.com/sanjeevanifashion/?pos=103&kwd=feeding gown&tags=BB||||8601.347|Price|product|||NA|rsf:gd-|-stype:attr=1|qr_nm:gd|res:RC3|com-cf:nl|ptrs:na|ktp:N0|mc:190798|mtp:S|qry_typ:P|lang:en|wc:2|cs:8897|v=4,False,,Jaipur,"26/252, Subash Colony, Gular Ka Bandha, Jaipur - 302029, Dist.Jaipur, Rajasthan",8043801751,
"Multicolor Three fourth sleeve Reyon Embroidery Feeding Kurti, Size: Free",https://www.indiamart.com/proddetail/reyon-embroidery-feeding-kurti-2852620062548.html?pos=104&kwd=feeding gown&tags=BA||||8230.883|Price|product|||NA|rsf:gd-|-stype:attr=1|qr_nm:gd|res:RC3|com-cf:nl|ptrs:na|ktp:N0|mc:190798|mtp:S|qry_typ:P|lang:en|wc:2|cs:8897|v=4,Jay Bholenath Enterprise,https://www.indiamart.com/jay-bholenath-enterprise/?pos=104&kwd=feeding gown&tags=BA||||8230.883|Price|product|||NA|rsf:gd-|-stype:attr=1|qr_nm:gd|res:RC3|com-cf:nl|ptrs:na|ktp:N0|mc:190798|mtp:S|qry_typ:P|lang:en|wc:2|cs:8897|v=4,False,Varachha,Surat,"117,Amrut Udhyog Nagar,Laskana, Kamrej,surat, Varachha, Surat - 394185, Dist.Surat, Gujarat",7942865158,
"Printed Ladies XL Blue Cotton Feeding Gown, Half Sleeve",https://www.indiamart.com/proddetail/ladies-xl-blue-cotton-feeding-gown-2853330344230.html?pos=105&kwd=feeding gown&tags=BA||||8211.142|Price|product|||NA|rsf:gd-|-stype:attr=1|qr_nm:gd|res:RC3|com-cf:nl|ptrs:na|ktp:N0|mc:190798|mtp:S|qry_typ:P|lang:en|wc:2|cs:8897|v=4,Weldon Creations,https://www.indiamart.com/weldon-creations/?pos=105&kwd=feeding gown&tags=BA||||8211.142|Price|product|||NA|rsf:gd-|-stype:attr=1|qr_nm:gd|res:RC3|com-cf:nl|ptrs:na|ktp:N0|mc:190798|mtp:S|qry_typ:P|lang:en|wc:2|cs:8897|v=4,False,Kandivali East,Mumbai,"Opp Basra Studio, Samata Nagar, Sai Prasad Society, Singh Estate, Beside Hemant Power Laundry, Kandivali East, Mumbai - 400101, Dist.Mumbai, Maharashtra",7949224539,
Feeding Gown in Hosiery Print for Womens (CB-317),https://www.indiamart.com/proddetail/feeding-gown-in-hosiery-print-for-womens-cb-317-2850841271055.html?pos=106&kwd=feeding gown&tags=BA||||8559.269|Price|product|||NA|rsf:gd-|-stype:attr=1|qr_nm:gd|res:RC3|com-cf:nl|ptrs:na|ktp:N0|mc:190798|mtp:S|qry_typ:P|lang:en|wc:2|cs:8897|v=4,Giriraj Industries,https://www.indiamart.com/girirajindustries/?pos=106&kwd=feeding gown&tags=BA||||8559.269|Price|product|||NA|rsf:gd-|-stype:attr=1|qr_nm:gd|res:RC3|com-cf:nl|ptrs:na|ktp:N0|mc:190798|mtp:S|qry_typ:P|lang:en|wc:2|cs:8897|v=4,False,,Indore,"402, Block A, Silver Mall, Rnt Marg, Rnt Marg,, Indore - 452001, Dist.Indore, Madhya Pradesh",7942956912,
"Pink Maternity Gown, Size: S, Sleeves: Half",https://www.indiamart.com/proddetail/pink-maternity-gown-1488707355.html?pos=107&kwd=feeding gown&tags=BB||||8752.144|Price|product|||NA|rsf:gd-|-stype:attr=1|qr_nm:gd|res:RC3|com-cf:nl|ptrs:na|ktp:N0|mc:190798|mtp:S|qry_typ:P|lang:en|wc:2|cs:8897|v=4,Bell Hospitality,https://www.indiamart.com/bellhospitality/?pos=107&kwd=feeding gown&tags=BB||||8752.144|Price|product|||NA|rsf:gd-|-stype:attr=1|qr_nm:gd|res:RC3|com-cf:nl|ptrs:na|ktp:N0|mc:190798|mtp:S|qry_typ:P|lang:en|wc:2|cs:8897|v=4,False,,New Delhi,"N, 1st, 4, MALVIYA NAGAR, S.O, MALVIYA NAGAR, South Delhi, New Delhi - 110017, Dist.Delhi, Delhi",7942543860,
"Cotton Maroon Printed Feeding Gown, Sleeveless",https://www.indiamart.com/proddetail/maroon-printed-feeding-gown-2851841681855.html?pos=108&kwd=feeding gown&tags=BA||||8601.347|Price|product|||NA|rsf:gd-|-stype:attr=1|qr_nm:gd|res:RC3|com-cf:nl|ptrs:na|ktp:N0|mc:190798|mtp:S|qry_typ:P|lang:en|wc:2|cs:8897|v=4,Sadhana Garments,https://www.indiamart.com/sadhanagarments-jaipur/?pos=108&kwd=feeding gown&tags=BA||||8601.347|Price|product|||NA|rsf:gd-|-stype:attr=1|qr_nm:gd|res:RC3|com-cf:nl|ptrs:na|ktp:N0|mc:190798|mtp:S|qry_typ:P|lang:en|wc:2|cs:8897|v=4,False,Sanganer,Jaipur,"PNO 19,20,21, Vaishno Vihar III Block C, Kokawas, Sanganer, Sanganer, Jaipur - 302029, Dist.Jaipur, Rajasthan",8048616262,
"5 COLORS Cotton Feeding Nighties, Size: XL, Sleeves: Half Sleeves",https://www.indiamart.com/proddetail/cotton-feeding-nighties-2850264872473.html?pos=109&kwd=feeding gown&tags=BA||||8786.56||product|||NA|rsf:gd-|-stype:attr=1|qr_nm:gd|res:RC3|com-cf:nl|ptrs:na|ktp:N0|mc:190798|mtp:S|qry_typ:P|lang:en|wc:2|cs:8897|v=4,S B Creations,https://www.indiamart.com/sbcreationzcom/?pos=109&kwd=feeding gown&tags=BA||||8786.56||product|||NA|rsf:gd-|-stype:attr=1|qr_nm:gd|res:RC3|com-cf:nl|ptrs:na|ktp:N0|mc:190798|mtp:S|qry_typ:P|lang:en|wc:2|cs:8897|v=4,False,Pathar Gatti,Hyderabad,"22-7-269, Dewan Devdi Opp. Post Office, Pathar Gatti, Hyderabad - 500002, Dist.Hyderabad, Telangana",7942563454,
Plain Denim Maternity Feeding,https://www.indiamart.com/proddetail/plain-denim-maternity-feeding-11480030062.html?pos=110&kwd=feeding gown&tags=BB||||8211.142||product|||NA|rsf:gd-|-stype:attr=1|qr_nm:gd|res:RC3|com-cf:nl|ptrs:na|ktp:N0|mc:190798|mtp:S|qry_typ:P|lang:en|wc:2|cs:8897|v=4,Mothers 2 B NX,https://www.indiamart.com/mothers-2bnx/?pos=110&kwd=feeding gown&tags=BB||||8211.142||product|||NA|rsf:gd-|-stype:attr=1|qr_nm:gd|res:RC3|com-cf:nl|ptrs:na|ktp:N0|mc:190798|mtp:S|qry_typ:P|lang:en|wc:2|cs:8897|v=4,False,Santacruz West,Mumbai,"No. 37, Vazir Chawl, Bhim Wada, SV Road, Santacruz West, Mumbai - 400054, Dist.Mumbai, Maharashtra",8048972477,
"Full Length Cotton LITTLE SMART COAT FEEDING, Free Size",https://www.indiamart.com/proddetail/little-smart-coat-feeding-24313627897.html?pos=111&kwd=feeding gown&tags=BB||||8668.838|Price|product|||NA|rsf:gd-|-stype:attr=1|qr_nm:gd|res:RC3|com-cf:nl|ptrs:na|ktp:N0|mc:190798|mtp:S|qry_typ:P|lang:en|wc:2|cs:8897|v=4,Metro Tex,https://www.indiamart.com/metro-tex/?pos=111&kwd=feeding gown&tags=BB||||8668.838|Price|product|||NA|rsf:gd-|-stype:attr=1|qr_nm:gd|res:RC3|com-cf:nl|ptrs:na|ktp:N0|mc:190798|mtp:S|qry_typ:P|lang:en|wc:2|cs:8897|v=4,False,,Erode,"265/2, Easwaran Koil Street, Erode - 638001, Dist.Erode, Tamil Nadu",7942556794,
"Navy Blue(Base) Printed Viscose Rayon Maternity Feeding Zipper Kurti, Size: Large",https://www.indiamart.com/proddetail/printed-viscose-rayon-maternity-feeding-zipper-kurti-2850948936191.html?pos=112&kwd=feeding gown&tags=BB||||8601.347|Price|product|||NA|rsf:gd-|-stype:attr=1|qr_nm:gd|res:RC3|com-cf:nl|ptrs:na|ktp:N0|mc:190798|mtp:S|qry_typ:P|lang:en|wc:2|cs:8897|v=4,Heeranandani Enterprises,https://www.indiamart.com/heeranandani-enterprises/?pos=112&kwd=feeding gown&tags=BB||||8601.347|Price|product|||NA|rsf:gd-|-stype:attr=1|qr_nm:gd|res:RC3|com-cf:nl|ptrs:na|ktp:N0|mc:190798|mtp:S|qry_typ:P|lang:en|wc:2|cs:8897|v=4,False,Jawahar Nagar,Jaipur,"645, Sector 2, Near Geeta Mandir, Jawahar Nagar,, Jawahar Nagar, Jaipur - 302004, Dist.Jaipur, Rajasthan",7942833556,
Maternity Photoshoot Gown,https://www.indiamart.com/proddetail/maternity-photoshoot-gown-2851924608288.html?pos=113&kwd=feeding gown&tags=BA||||8559.269|Price|product|||NA|rsf:gd-|-stype:attr=1|qr_nm:gd|res:RC3|com-cf:nl|ptrs:na|ktp:N0|mc:190798|mtp:S|qry_typ:P|lang:en|wc:2|cs:8897|v=4,Get Easy Enterprises,https://www.indiamart.com/get-easy-enterprises/?pos=113&kwd=feeding gown&tags=BA||||8559.269|Price|product|||NA|rsf:gd-|-stype:attr=1|qr_nm:gd|res:RC3|com-cf:nl|ptrs:na|ktp:N0|mc:190798|mtp:S|qry_typ:P|lang:en|wc:2|cs:8897|v=4,False,INDORE,Indore,"FF/12,Shopping Complex - A, A.B Road,Indore 452010, INDORE, Indore - 452010, Dist.Indore, Madhya Pradesh",8069017409,474
Light blue Cotton Maternity Gowns,https://www.indiamart.com/proddetail/cotton-maternity-gowns-2849889053597.html?pos=114&kwd=feeding gown&tags=BB||||8601.347|Price|product|||NA|rsf:gd-|-stype:attr=1|qr_nm:gd|res:RC3|com-cf:nl|ptrs:na|ktp:N0|mc:190798|mtp:S|qry_typ:P|lang:en|wc:2|cs:8897|v=4,Priya Collection,https://www.indiamart.com/priyacollectionjaipur/?pos=114&kwd=feeding gown&tags=BB||||8601.347|Price|product|||NA|rsf:gd-|-stype:attr=1|qr_nm:gd|res:RC3|com-cf:nl|ptrs:na|ktp:N0|mc:190798|mtp:S|qry_typ:P|lang:en|wc:2|cs:8897|v=4,False,,Jaipur,"125, AGRA ROAD, Jaipur - 303012, Dist.Jaipur, Rajasthan",8047543036,
MomToBe Women''''s Rayon Salmon Peach Maternity/Feeding/Nursing Maternity Dress,https://www.indiamart.com/proddetail/momtobe-women-s-rayon-salmon-peach-maternity-feeding-nursing-maternity-dress-24868619612.html?pos=115&kwd=feeding gown&tags=BB||||8211.142|Price|product|||NA|rsf:gd-|-stype:attr=1|qr_nm:gd|res:RC3|com-cf:nl|ptrs:na|ktp:N0|mc:190798|mtp:S|qry_typ:P|lang:en|wc:2|cs:8897|v=4,Classapart Apparels LLP,https://www.indiamart.com/class-apart-apparels/?pos=115&kwd=feeding gown&tags=BB||||8211.142|Price|product|||NA|rsf:gd-|-stype:attr=1|qr_nm:gd|res:RC3|com-cf:nl|ptrs:na|ktp:N0|mc:190798|mtp:S|qry_typ:P|lang:en|wc:2|cs:8897|v=4,False,Malad West,Mumbai,"209, Nirmand Industrial Estate, Link Road, Malad West, Mumbai - 400064, Dist.Mumbai, Maharashtra",8043888259,
Maternity And Nursing Wear,https://www.indiamart.com/proddetail/maternity-and-nursing-wear-2851811946273.html?pos=116&kwd=feeding gown&tags=BA||||8507.67||product|||NA|rsf:gd-|-stype:attr=1|qr_nm:gd|res:RC3|com-cf:nl|ptrs:na|ktp:N0|mc:190798|mtp:S|qry_typ:P|lang:en|wc:2|cs:8897|v=4,Jewish Apparel & Accessories,https://www.indiamart.com/jewish-apparel-accessories/?pos=116&kwd=feeding gown&tags=BA||||8507.67||product|||NA|rsf:gd-|-stype:attr=1|qr_nm:gd|res:RC3|com-cf:nl|ptrs:na|ktp:N0|mc:190798|mtp:S|qry_typ:P|lang:en|wc:2|cs:8897|v=4,False,,Ernakulam,"32/324-A, Ladlee Towers, Vailopilly Road, Near Puthiya Road Junction, Thammanam PO, Ernakulam - 682032, Dist.Ernakulam, Kerala",8069033778,108
Multicolor Feeding Kurtis,https://www.indiamart.com/proddetail/feeding-kurtis-2853568410691.html?pos=117&kwd=feeding gown&tags=BA||||8228.275|Price|product|||NA|rsf:gd-|-stype:attr=1|qr_nm:gd|res:RC3|com-cf:nl|ptrs:na|ktp:N0|mc:190798|mtp:S|qry_typ:P|lang:en|wc:2|cs:8897|v=4,Chandra Fab Tex,https://www.indiamart.com/chandrafabtex/?pos=117&kwd=feeding gown&tags=BA||||8228.275|Price|product|||NA|rsf:gd-|-stype:attr=1|qr_nm:gd|res:RC3|com-cf:nl|ptrs:na|ktp:N0|mc:190798|mtp:S|qry_typ:P|lang:en|wc:2|cs:8897|v=4,False,,Ahmedabad,"3rd Floor, 301, Simandhar Green, Behind Orchid Green, Giridhar Nagar, Ahmedabad - 380016, Dist.Ahmedabad, Gujarat",7942797447,
"Printed Feeding Cotton Nighties, Half Sleeve",https://www.indiamart.com/proddetail/feeding-cotton-nighties-2851753167597.html?pos=118&kwd=feeding gown&tags=BA||||8717.056|Price|product|||NA|rsf:gd-|-stype:attr=1|qr_nm:gd|res:RC3|com-cf:nl|ptrs:na|ktp:N0|mc:190798|mtp:S|qry_typ:P|lang:en|wc:2|cs:8897|v=4,Janaki Textiles,https://www.indiamart.com/janakitextiles/?pos=118&kwd=feeding gown&tags=BA||||8717.056|Price|product|||NA|rsf:gd-|-stype:attr=1|qr_nm:gd|res:RC3|com-cf:nl|ptrs:na|ktp:N0|mc:190798|mtp:S|qry_typ:P|lang:en|wc:2|cs:8897|v=4,False,,Salem,"No 82, V.O.C Nagar, KN Colony,, Dadampatty Post, Ammapet, Salem - 636003, Dist.Salem, Tamil Nadu",8046045583,
Women Feeding Kurtis,https://www.indiamart.com/proddetail/women-feeding-kurtis-2854771915697.html?pos=119&kwd=feeding gown&tags=BB||||8601.347|Price|product|||NA|rsf:gd-|-stype:attr=1|qr_nm:gd|res:RC3|com-cf:nl|ptrs:na|ktp:N0|mc:190798|mtp:S|qry_typ:P|lang:en|wc:2|cs:8897|v=4,Chandra Fashion Hub,https://www.indiamart.com/chandra-fashion-hub/?pos=119&kwd=feeding gown&tags=BB||||8601.347|Price|product|||NA|rsf:gd-|-stype:attr=1|qr_nm:gd|res:RC3|com-cf:nl|ptrs:na|ktp:N0|mc:190798|mtp:S|qry_typ:P|lang:en|wc:2|cs:8897|v=4,False,,Jaipur,"Plot No 45,,Shri Kalyan Nagar B Sanganer,Jaipur Plot No 45 Shri Kalyan Nagar B Sanganer Jaipur Jaipur Rajasthan 302029,302029,, Jaipur - 302029, Dist.Jaipur, Rajasthan",8048370713,6426
"Casual Wear Anarkali Mother Feeding Kurtis, Wash Care: Machine wash",https://www.indiamart.com/proddetail/mother-feeding-kurtis-23328219312.html?pos=120&kwd=feeding gown&tags=BA||||8230.883|Price|product|||NA|rsf:gd-|-stype:attr=1|qr_nm:gd|res:RC3|com-cf:nl|ptrs:na|ktp:N0|mc:190798|mtp:S|qry_typ:P|lang:en|wc:2|cs:8897|v=4,Aruna Fashion,https://www.indiamart.com/aruna-fashion/?pos=120&kwd=feeding gown&tags=BA||||8230.883|Price|product|||NA|rsf:gd-|-stype:attr=1|qr_nm:gd|res:RC3|com-cf:nl|ptrs:na|ktp:N0|mc:190798|mtp:S|qry_typ:P|lang:en|wc:2|cs:8897|v=4,False,Amroli,Surat,"Ground Floor Plot No. A/27, Shop No.3 Amroli-kosad Road Vardhman Park Society Amroli, Amroli, Surat - 394107, Dist.Surat, Gujarat",8048975248,
Ladies Feeding Dress,https://www.indiamart.com/proddetail/ladies-feeding-dress-2850319207848.html?pos=121&kwd=feeding gown&tags=BA||||8954.051|Price|product|||NA|rsf:gd-|-stype:attr=1|qr_nm:gd|res:RC3|com-cf:nl|ptrs:na|ktp:N0|mc:190798|mtp:S|qry_typ:P|lang:en|wc:2|cs:8897|v=4,Aryan Creations,https://www.indiamart.com/aryancreationstamilnadu/?pos=121&kwd=feeding gown&tags=BA||||8954.051|Price|product|||NA|rsf:gd-|-stype:attr=1|qr_nm:gd|res:RC3|com-cf:nl|ptrs:na|ktp:N0|mc:190798|mtp:S|qry_typ:P|lang:en|wc:2|cs:8897|v=4,False,,Chennai,"88 1st Floor Maniss Arcade, M.C.Road Oldwashermenpet, Chennai - 600021, Dist.Chennai, Tamil Nadu",7942796481,
"Party Wear 3/4th Sleeve Maternity Feeding Rayon Kurti, Wash Care: Machine wash",https://www.indiamart.com/proddetail/maternity-feeding-rayon-kurti-22690623097.html?pos=122&kwd=feeding gown&tags=BB||||8228.275|Price|product|||NA|rsf:gd-|-stype:attr=1|qr_nm:gd|res:RC3|com-cf:nl|ptrs:na|ktp:N0|mc:190798|mtp:S|qry_typ:P|lang:en|wc:2|cs:8897|v=4,Shashwat Life Style,https://www.indiamart.com/shashwat-life-style/?pos=122&kwd=feeding gown&tags=BB||||8228.275|Price|product|||NA|rsf:gd-|-stype:attr=1|qr_nm:gd|res:RC3|com-cf:nl|ptrs:na|ktp:N0|mc:190798|mtp:S|qry_typ:P|lang:en|wc:2|cs:8897|v=4,False,,Ahmedabad,"B-150,PUSHP INDUSTRIAL PARK, NEAR SHITAL CINEMA, RAKHIAL,AHMEDABAD B-150, Pushp Industrial Park, Gate No. 3, Near Sheetal Cinema, Rakhial,380021,Ahmedabad, Ahmedabad - 380023, Dist.Ahmedabad, Gujarat",7942649690,
"Printed Cotton Maternity Feeding And Nursing Nighty, Pink",https://www.indiamart.com/proddetail/maternity-feeding-and-nursing-nighty-22229862155.html?pos=123&kwd=feeding gown&tags=BB||||9789.054|Price|product|||NA|rsf:gd-|-stype:attr=1|qr_nm:gd|res:RC3|com-cf:nl|ptrs:na|ktp:N0|mc:190798|mtp:S|qry_typ:P|lang:en|wc:2|cs:8897|v=4,Clymaa,https://www.indiamart.com/clymaa/?pos=123&kwd=feeding gown&tags=BB||||9789.054|Price|product|||NA|rsf:gd-|-stype:attr=1|qr_nm:gd|res:RC3|com-cf:nl|ptrs:na|ktp:N0|mc:190798|mtp:S|qry_typ:P|lang:en|wc:2|cs:8897|v=4,False,Sripally Ambagan,Bardhaman,"Shop No. 21, Nutanganj, Sripally Ambagan, Bardhaman - 713102, Dist.Purba Bardhaman, West Bengal",8047842473,
"RAYON PREMIUM Floral Print FEEDING GOWN/KURTI, 3/4 Sleeve",https://www.indiamart.com/proddetail/feeding-gown-kurti-2850483989291.html?pos=124&kwd=feeding gown&tags=BA||||8601.347|Price|product|||NA|rsf:gd-|-stype:attr=1|qr_nm:gd|res:RC3|com-cf:nl|ptrs:na|ktp:N0|mc:190798|mtp:S|qry_typ:P|lang:en|wc:2|cs:8897|v=4,Kabir Fashion World,https://www.indiamart.com/kabirfashion-world/?pos=124&kwd=feeding gown&tags=BA||||8601.347|Price|product|||NA|rsf:gd-|-stype:attr=1|qr_nm:gd|res:RC3|com-cf:nl|ptrs:na|ktp:N0|mc:190798|mtp:S|qry_typ:P|lang:en|wc:2|cs:8897|v=4,False,,Jaipur,"5-AA Ground Floor, Ganesh Vihar Near Park, Darbar Colony Near Delhi By Pass Road, Jaipur - 302003, Dist.Jaipur, Rajasthan",8048207508,
"Aagam Voguish Maternity Kurtis, Cotton",https://www.indiamart.com/proddetail/aagam-voguish-maternity-kurtis-23714018273.html?pos=125&kwd=feeding gown&tags=BB||||8230.883|Price|product|||NA|rsf:gd-|-stype:attr=1|qr_nm:gd|res:RC3|com-cf:nl|ptrs:na|ktp:N0|mc:190798|mtp:S|qry_typ:P|lang:en|wc:2|cs:8897|v=4,Om Creation,https://www.indiamart.com/omcreation-131219951/?pos=125&kwd=feeding gown&tags=BB||||8230.883|Price|product|||NA|rsf:gd-|-stype:attr=1|qr_nm:gd|res:RC3|com-cf:nl|ptrs:na|ktp:N0|mc:190798|mtp:S|qry_typ:P|lang:en|wc:2|cs:8897|v=4,False,Yogi Chowk,Surat,"3rd Floor 310 Yogi Chowk Abhishek Arcade, Yogi Chowk, Surat - 394150, Dist.Surat, Gujarat",8048372373,973
"Full Length Cotton Ladies Stitched Nightgown, Free size",https://www.indiamart.com/proddetail/ladies-stitched-nightgown-22794576048.html?pos=126&kwd=feeding gown&tags=BB||||8235.633|Price|product|||NA|rsf:gd-|-stype:attr=1|qr_nm:gd|res:RC3|com-cf:nl|ptrs:na|ktp:N0|mc:190798|mtp:S|qry_typ:P|lang:en|wc:2|cs:8897|v=4,Mukul Textile Mills,https://www.indiamart.com/mukul-textile-mills/?pos=126&kwd=feeding gown&tags=BB||||8235.633|Price|product|||NA|rsf:gd-|-stype:attr=1|qr_nm:gd|res:RC3|com-cf:nl|ptrs:na|ktp:N0|mc:190798|mtp:S|qry_typ:P|lang:en|wc:2|cs:8897|v=4,False,,Balotra,"Shri Ram Process House, Office No.2 M/s Mukul Textile Mills Industrial Area E-89a, 1st Phase, Balotra - 344022, Dist.Barmer, Rajasthan",8046063703,
"Ladies Maroon Printed Cotton Nightgown, Short Sleeve",https://www.indiamart.com/proddetail/ladies-maroon-printed-cotton-nightgown-2850806312597.html?pos=127&kwd=feeding gown&tags=BB||||9111.322|Price|product|||NA|rsf:gd-|-stype:attr=1|qr_nm:gd|res:RC3|com-cf:nl|ptrs:na|ktp:N0|mc:190798|mtp:S|qry_typ:P|lang:en|wc:2|cs:8897|v=4,Malhotra Products,https://www.indiamart.com/malhotraproducts/?pos=127&kwd=feeding gown&tags=BB||||9111.322|Price|product|||NA|rsf:gd-|-stype:attr=1|qr_nm:gd|res:RC3|com-cf:nl|ptrs:na|ktp:N0|mc:190798|mtp:S|qry_typ:P|lang:en|wc:2|cs:8897|v=4,False,,Bhilai,"B-21, Uttar Gangotri, Durg, Bhilai - 490023, Dist.Durg, Chhattisgarh",8047664331,
Feeding Top For Women,https://www.indiamart.com/proddetail/feeding-top-for-women-2854289147288.html?pos=128&kwd=feeding gown&tags=BB||||8550.327|Price|product|||NA|rsf:gd-|-stype:attr=1|qr_nm:gd|res:RC3|com-cf:nl|ptrs:na|ktp:N0|mc:190798|mtp:S|qry_typ:P|lang:en|wc:2|cs:8897|v=4,Clevergirl Enterprises,https://www.indiamart.com/clevergirl-enterprises/?pos=128&kwd=feeding gown&tags=BB||||8550.327|Price|product|||NA|rsf:gd-|-stype:attr=1|qr_nm:gd|res:RC3|com-cf:nl|ptrs:na|ktp:N0|mc:190798|mtp:S|qry_typ:P|lang:en|wc:2|cs:8897|v=4,False,,Palakkad,"9/497,,Koduvayur Trippalur Road,Koduvayur 678501, Palakkad - 678501, Dist.Palakkad, Kerala",8048370721,2476
Printed Hosiery Cotton Maternity Women's Nursing Feeding Nightwear With Zipper.,https://www.indiamart.com/proddetail/printed-hosiery-cotton-maternity-women-s-nursing-feeding-nightwear-with-zipper-2850480428791.html?pos=129&kwd=feeding gown&tags=BB||||8579.528|Price|product|||NA|rsf:gd-|-stype:attr=1|qr_nm:gd|res:RC3|com-cf:nl|ptrs:na|ktp:N0|mc:190798|mtp:S|qry_typ:P|lang:en|wc:2|cs:8897|v=4,Shiva Enterprises,https://www.indiamart.com/shiva-enterprises-rajasthan/?pos=129&kwd=feeding gown&tags=BB||||8579.528|Price|product|||NA|rsf:gd-|-stype:attr=1|qr_nm:gd|res:RC3|com-cf:nl|ptrs:na|ktp:N0|mc:190798|mtp:S|qry_typ:P|lang:en|wc:2|cs:8897|v=4,False,,Jhunjhunu,"H.No. 217, Dhani Firaswali, Kankariya, Jhunjhunu - 333053, Dist.Jhujhunu, Rajasthan",7942787666,
"Rayon Floral Printed Calf Length Maternity Dress, Gown, 3/4th Sleeves",https://www.indiamart.com/proddetail/floral-printed-calf-length-maternity-dress-25326945612.html?pos=130&kwd=feeding gown&tags=BB||||8571.301|Price|product|||NA|rsf:gd-|-stype:attr=1|qr_nm:gd|res:RC3|com-cf:nl|ptrs:na|ktp:N0|mc:190798|mtp:S|qry_typ:P|lang:en|wc:2|cs:8897|v=4,Mommies,https://www.indiamart.com/mommies-thiruvananthapuram/?pos=130&kwd=feeding gown&tags=BB||||8571.301|Price|product|||NA|rsf:gd-|-stype:attr=1|qr_nm:gd|res:RC3|com-cf:nl|ptrs:na|ktp:N0|mc:190798|mtp:S|qry_typ:P|lang:en|wc:2|cs:8897|v=4,False,Kowdiar,Thiruvananthapuram,"TC 24/3088, Dotspace Business Center, Ushasandya Building Devasom Board Road, Kowdiar, Thiruvananthapuram - 695003, Dist.Thiruvananthapuram, Kerala",8048268238,
Feeding Gown,,Kaka Enterprises,https://www.indiamart.com/kaka-enterprises-jaipur/?pos=131&kwd=feeding gown&tags=BB||||8601.347|Price|product|||NA|rsf:gd-|-stype:attr=1|qr_nm:gd|res:RC3|com-cf:nl|ptrs:na|ktp:N0|mc:190798|mtp:S|qry_typ:P|lang:en|wc:2|cs:8897|v=4,False,,Jaipur,"E187,Balaji Vihar 6 Vistar,Benar Road,Kamal Jan Swasthya Pramarsh Clinic K Pass,Boytawala,Jaipur,Jai, Jaipur - 302012, Dist.Jaipur, Rajasthan",8047311012,4186
Feeding Gown,,Bhama Sales Corporation,https://www.indiamart.com/bhama-sales-corporation/?pos=132&kwd=feeding gown&tags=BB||||8601.347|Price|product|||NA|rsf:gd-|-stype:attr=1|qr_nm:gd|res:RC3|com-cf:nl|ptrs:na|ktp:N0|mc:190798|mtp:S|qry_typ:P|lang:en|wc:2|cs:8897|v=4,False,,Jaipur,"PROFESSOR COLONY,PROFESSOR COLONY,,NEAR V.P. GIRLS COLLEGE 20/182, Kaveri Path, Mansarovar,302020,Jaipur, Jaipur - 302020, Dist.Jaipur, Rajasthan",8048371873,874
Stitched Feeding Nighties,,Valanka Agencies,https://www.indiamart.com/valanka-agency/?pos=133&kwd=feeding gown&tags=BA||||8295.25||product|||NA|rsf:gd-|-stype:attr=1|qr_nm:gd|res:RC3|com-cf:nl|ptrs:na|ktp:N0|mc:190798|mtp:S|qry_typ:P|lang:en|wc:2|cs:8897|v=4,False,Near Canara Bank,Ponda,"2 Bldg No 19 Near Nh-17 Highway Curti Housing Boar Colony, Near Canara Bank, Ponda - 403401, Dist.South Goa, Goa",8069013096,642
Maternity Feeding Nighty,,Veni Garments,https://www.indiamart.com/veni-garments-rajapalayam/?pos=134&kwd=feeding gown&tags=BA||||8639.861||product|||NA|rsf:gd-|-stype:attr=1|qr_nm:gd|res:RC3|com-cf:nl|ptrs:na|ktp:N0|mc:190798|mtp:S|qry_typ:P|lang:en|wc:2|cs:8897|v=4,False,,Rajapalayam,"1/75k Kamaraj Nagar Pmss. Subramanian Dhalavaipuram Virudhunagar, Rajapalayam - 626188, Dist.Virudhunagar, Tamil Nadu",8048250469,915
Blue Cotton Maternity Gown,,Guru Kripa Garments,https://www.indiamart.com/gurukripagarmentsjaipur/?pos=135&kwd=feeding gown&tags=BB||||8601.347|Price|product|||NA|rsf:gd-|-stype:attr=1|qr_nm:gd|res:RC3|com-cf:nl|ptrs:na|ktp:N0|mc:190798|mtp:S|qry_typ:P|lang:en|wc:2|cs:8897|v=4,False,Shikarpura,Jaipur,"Plot No-L- 56 B - Block, J D A Colony, Govindpura Sanganer, Shikarpura, Jaipur - 302029, Dist.Jaipur, Rajasthan",8048987470,
"Printed Rayon Ladies Alpine Feeding Nightgown, Brown, Size: Medium",https://www.indiamart.com/proddetail/ladies-alpine-feeding-nightgown-2853401788855.html?pos=136&kwd=feeding gown&tags=||||8228.275|Price|product|||TS|rsf:gd-|-stype:attr=1|qr_nm:gd|res:RC3|com-cf:nl|ptrs:na|ktp:N0|mc:190798|mtp:S|qry_typ:P|lang:en|wc:2|cs:8897|v=4,Kundan Night Wear,https://www.indiamart.com/kundan-night-wear/?pos=136&kwd=feeding gown&tags=||||8228.275|Price|product|||TS|rsf:gd-|-stype:attr=1|qr_nm:gd|res:RC3|com-cf:nl|ptrs:na|ktp:N0|mc:190798|mtp:S|qry_typ:P|lang:en|wc:2|cs:8897|v=4,False,Kalupur,Ahmedabad,"1st Floor, 469/11, B.G Chembers, Sakar Bazar, Kalupur, Ahmedabad - 380002, Dist.Ahmedabad, Gujarat",7949225829,
"Green Feeding Rayon Printed Gown, Three fourth sleeve",https://www.indiamart.com/proddetail/green-feeding-rayon-printed-kurti-2854022619048.html?pos=137&kwd=feeding gown&tags=||||8211.142|Price|product|||MDC|rsf:gd-|-stype:attr=1|qr_nm:gd|res:RC3|com-cf:nl|ptrs:na|ktp:N0|mc:190798|mtp:S|qry_typ:P|lang:en|wc:2|cs:8897|v=4,Dhanlaxmi Creation,https://www.indiamart.com/dhanlaxmi-creationmumbai/?pos=137&kwd=feeding gown&tags=||||8211.142|Price|product|||MDC|rsf:gd-|-stype:attr=1|qr_nm:gd|res:RC3|com-cf:nl|ptrs:na|ktp:N0|mc:190798|mtp:S|qry_typ:P|lang:en|wc:2|cs:8897|v=4,False,Dadar West,Mumbai,"Ground Floor, G-101, Dadar Manish Market, Near Dadar Railway Station, Dadar West,, Dadar West, Mumbai - 400028, Dist.Mumbai, Maharashtra",8044562073,
Multicolor Half Sleeves Feeding Maternity Gown,https://www.indiamart.com/proddetail/feeding-maternity-gown-20399234573.html?pos=138&kwd=feeding gown&tags=CC||||8752.144||product|||TS|rsf:gd-|-stype:attr=1|qr_nm:gd|res:RC3|com-cf:nl|ptrs:na|ktp:N0|mc:190798|mtp:S|qry_typ:P|lang:en|wc:2|cs:8897|v=4,Ara India,https://www.araindia.in/?pos=138&kwd=feeding gown&tags=CC||||8752.144||product|||TS|rsf:gd-|-stype:attr=1|qr_nm:gd|res:RC3|com-cf:nl|ptrs:na|ktp:N0|mc:190798|mtp:S|qry_typ:P|lang:en|wc:2|cs:8897|v=4,True,Vikaspuri,New Delhi,"C-472, Ground Floor, Vikaspuri, New Delhi - 110018, Dist.Delhi, Delhi",8046049586,
Cotton Printed Feeding Gown,https://www.indiamart.com/proddetail/feeding-gown-2853084345330.html?pos=139&kwd=feeding gown&tags=CC||||8228.275|Price|product|||MDC|rsf:gd-|-stype:attr=1|qr_nm:gd|res:RC3|com-cf:nl|ptrs:na|ktp:N0|mc:190798|mtp:S|qry_typ:P|lang:en|wc:2|cs:8897|v=4,Karan Fab,https://www.indiamart.com/hellopartner/?pos=139&kwd=feeding gown&tags=CC||||8228.275|Price|product|||MDC|rsf:gd-|-stype:attr=1|qr_nm:gd|res:RC3|com-cf:nl|ptrs:na|ktp:N0|mc:190798|mtp:S|qry_typ:P|lang:en|wc:2|cs:8897|v=4,False,Panchkuva,Ahmedabad,"SHOP NO.468/3,SAKAR BAZAR,Opp maskati market GATE NO.3,NR.KOTAK MAHINDRA BANK,, Panchkuva, Ahmedabad - 380002, Dist.Ahmedabad, Gujarat",8048605993,
"Green Printed Cotton Feeding Nighties Gown, Full Sleeve",https://www.indiamart.com/proddetail/cotton-feeding-nighties-gown-2853636714055.html?pos=140&kwd=feeding gown&tags=CC||||9148.645|Price|product|||MDC|rsf:gd-|-stype:attr=1|qr_nm:gd|res:RC3|com-cf:nl|ptrs:na|ktp:N0|mc:190798|mtp:S|qry_typ:P|lang:en|wc:2|cs:8897|v=4,Sri Jaya Enterprises,https://www.indiamart.com/sri-jayaenterprises/?pos=140&kwd=feeding gown&tags=CC||||9148.645|Price|product|||MDC|rsf:gd-|-stype:attr=1|qr_nm:gd|res:RC3|com-cf:nl|ptrs:na|ktp:N0|mc:190798|mtp:S|qry_typ:P|lang:en|wc:2|cs:8897|v=4,False,Machara,Mandapeta,"31-1-27/1, Ward No 13, Alamuru Road, Mandapeta, East Godavari, Machara, Mandapeta - 533308, Dist.East Godavari, Andhra Pradesh",7949093426,
Slumber Maternity Gown,https://www.indiamart.com/proddetail/slumber-maternity-gown-2852907426997.html?pos=141&kwd=feeding gown&tags=CC||||8228.275|Price|product|||MDC|rsf:gd-|-stype:attr=1|qr_nm:gd|res:RC3|com-cf:nl|ptrs:na|ktp:N0|mc:190798|mtp:S|qry_typ:P|lang:en|wc:2|cs:8897|v=4,Platonic Lifestyle Private Limited,https://www.indiamart.com/platoniclifestyle/?pos=141&kwd=feeding gown&tags=CC||||8228.275|Price|product|||MDC|rsf:gd-|-stype:attr=1|qr_nm:gd|res:RC3|com-cf:nl|ptrs:na|ktp:N0|mc:190798|mtp:S|qry_typ:P|lang:en|wc:2|cs:8897|v=4,False,Darpan Society,Ahmedabad,"D-237, Sumel Business Park 4, Opp-Amdupura, Saraspur,, Darpan Society, Ahmedabad - 380009, Dist.Ahmedabad, Gujarat",7942968468,
"Printed Ladies Cotton Maternity Feeding Gown, Three fourth sleeve",https://www.indiamart.com/proddetail/ladies-cotton-maternity-feeding-gown-2853270194197.html?pos=142&kwd=feeding gown&tags=CC||||8601.347|Price|product|||MDC|rsf:gd-|-stype:attr=1|qr_nm:gd|res:RC3|com-cf:nl|ptrs:na|ktp:N0|mc:190798|mtp:S|qry_typ:P|lang:en|wc:2|cs:8897|v=4,Shivam Enterprises,https://www.indiamart.com/shivamenterprisesrampur/?pos=142&kwd=feeding gown&tags=CC||||8601.347|Price|product|||MDC|rsf:gd-|-stype:attr=1|qr_nm:gd|res:RC3|com-cf:nl|ptrs:na|ktp:N0|mc:190798|mtp:S|qry_typ:P|lang:en|wc:2|cs:8897|v=4,False,Mansarovar,Jaipur,"Polt No 1 ,Pratap Vihar ,Rampura Road ,Sanganer, Mansarovar, Jaipur - 302029, Dist.Jaipur, Rajasthan",7949226911,
Green Hospital Patient Cotton Feeding Gown,https://www.indiamart.com/proddetail/hospital-patient-cotton-feeding-gown-21832569655.html?pos=143&kwd=feeding gown&tags=CC||||8515.687|Price|product|||MDC|rsf:gd-|-stype:attr=1|qr_nm:gd|res:RC3|com-cf:nl|ptrs:na|ktp:N0|mc:190798|mtp:S|qry_typ:P|lang:en|wc:2|cs:8897|v=4,S M Surgiwears,https://www.indiamart.com/sm-surgiwear/?pos=143&kwd=feeding gown&tags=CC||||8515.687|Price|product|||MDC|rsf:gd-|-stype:attr=1|qr_nm:gd|res:RC3|com-cf:nl|ptrs:na|ktp:N0|mc:190798|mtp:S|qry_typ:P|lang:en|wc:2|cs:8897|v=4,False,,Solapur,"102D/87 Bhavani Peth, Solapur - 413002, Dist.Solapur, Maharashtra",7942543046,
Cotton Baby Feeding Gown,https://www.indiamart.com/proddetail/baby-feeding-gown-20190391848.html?pos=144&kwd=feeding gown&tags=CC||||8601.347|Price|product|||TS|rsf:gd-|-stype:attr=1|qr_nm:gd|res:RC3|com-cf:nl|ptrs:na|ktp:N0|mc:190798|mtp:S|qry_typ:P|lang:en|wc:2|cs:8897|v=4,Global Enterprises,https://www.hospitalgarments.in/?pos=144&kwd=feeding gown&tags=CC||||8601.347|Price|product|||TS|rsf:gd-|-stype:attr=1|qr_nm:gd|res:RC3|com-cf:nl|ptrs:na|ktp:N0|mc:190798|mtp:S|qry_typ:P|lang:en|wc:2|cs:8897|v=4,False,Mahapura,Jaipur,"Kachi Basti, Mahapura, Sanganer, Mahapura, Jaipur - 302026, Dist.Jaipur, Rajasthan",8046032418,
"Ladies Pure Cotton Printed Maternity Nightgowns, Blue(Base)",https://www.indiamart.com/proddetail/ladies-pure-cotton-printed-maternity-nightgowns-2854047965691.html?pos=145&kwd=feeding gown&tags=CC||||8601.347|Price|product|||TS|rsf:gd-|-stype:attr=1|qr_nm:gd|res:RC3|com-cf:nl|ptrs:na|ktp:N0|mc:190798|mtp:S|qry_typ:P|lang:en|wc:2|cs:8897|v=4,Rushi Creation,https://www.indiamart.com/rushicreationjaipur/?pos=145&kwd=feeding gown&tags=CC||||8601.347|Price|product|||TS|rsf:gd-|-stype:attr=1|qr_nm:gd|res:RC3|com-cf:nl|ptrs:na|ktp:N0|mc:190798|mtp:S|qry_typ:P|lang:en|wc:2|cs:8897|v=4,False,Sanganer,Jaipur,"Showroom No.G-24,Ground Floor,Fagna Plaza,Nagar Nigam Road,Jaipur, Sanganer, Jaipur - 302029, Dist.Jaipur, Rajasthan",8044562714,
Ladies Blue Rayon Printed Feeding Anarkali Kurti,https://www.indiamart.com/proddetail/ladies-blue-rayon-printed-feeding-anarkali-kurti-2854750801673.html?pos=146&kwd=feeding gown&tags=||||8601.347|Price|product|||MDC|rsf:gd-|-stype:attr=1|qr_nm:gd|res:RC3|com-cf:nl|ptrs:na|ktp:N0|mc:190798|mtp:S|qry_typ:P|lang:en|wc:2|cs:8897|v=4,Ajesh Traders,https://www.indiamart.com/ajesh-tradersjaipur/?pos=146&kwd=feeding gown&tags=||||8601.347|Price|product|||MDC|rsf:gd-|-stype:attr=1|qr_nm:gd|res:RC3|com-cf:nl|ptrs:na|ktp:N0|mc:190798|mtp:S|qry_typ:P|lang:en|wc:2|cs:8897|v=4,False,,Jaipur,"53 Jamdoli Road, Agra Road, Behind Marudhar School, Bharat Vihar B, Jaipur - 302031, Dist.Jaipur, Rajasthan",8044459778,
"Green (Base) Printed Saloni Dull Cotton Mother Feeding Nightgown, Half Sleeve",https://www.indiamart.com/proddetail/saloni-dull-cotton-mother-feeding-nightgown-2850476955473.html?pos=147&kwd=feeding gown&tags=||||8786.56|Price|product|||MDC|rsf:gd-|-stype:attr=1|qr_nm:gd|res:RC3|com-cf:nl|ptrs:na|ktp:N0|mc:190798|mtp:S|qry_typ:P|lang:en|wc:2|cs:8897|v=4,Saloni Textile,https://www.indiamart.com/saloni-textiles/?pos=147&kwd=feeding gown&tags=||||8786.56|Price|product|||MDC|rsf:gd-|-stype:attr=1|qr_nm:gd|res:RC3|com-cf:nl|ptrs:na|ktp:N0|mc:190798|mtp:S|qry_typ:P|lang:en|wc:2|cs:8897|v=4,False,Rasoolpura,Hyderabad,"24, Margadarshini Colony , Rasool Pura, Rasoolpura, Hyderabad - 500003, Dist.Hyderabad, Telangana",7942823938,
Printed Full Length Women Feeding Cotton Nighty,https://www.indiamart.com/proddetail/women-feeding-cotton-nighty-14190109955.html?pos=148&kwd=feeding gown&tags=||||8230.883|Price|product|||TS|rsf:gd-|-stype:attr=1|qr_nm:gd|res:RC3|com-cf:nl|ptrs:na|ktp:N0|mc:190798|mtp:S|qry_typ:P|lang:en|wc:2|cs:8897|v=4,Sadabahar Fashion,https://www.sadabaharfashion.com/?pos=148&kwd=feeding gown&tags=||||8230.883|Price|product|||TS|rsf:gd-|-stype:attr=1|qr_nm:gd|res:RC3|com-cf:nl|ptrs:na|ktp:N0|mc:190798|mtp:S|qry_typ:P|lang:en|wc:2|cs:8897|v=4,False,Rander,Surat,"Shop No 13-14 , patra ni chal, Ramnagar, Rander Road, Sindhi Colony,, Rander, Surat - 395005, Dist.Surat, Gujarat",8048962373,
XXL 53 Cotton Embroidered Feeding Nighties,https://www.indiamart.com/proddetail/xxl-53-cotton-embroidered-feeding-nighties-2853608063755.html?pos=149&kwd=feeding gown&tags=||||8614.311|Price|product|||MDC|rsf:gd-|-stype:attr=1|qr_nm:gd|res:RC3|com-cf:nl|ptrs:na|ktp:N0|mc:190798|mtp:S|qry_typ:P|lang:en|wc:2|cs:8897|v=4,Kushi Nighties & Garments,https://www.indiamart.com/kushi-nighties-garments/?pos=149&kwd=feeding gown&tags=||||8614.311|Price|product|||MDC|rsf:gd-|-stype:attr=1|qr_nm:gd|res:RC3|com-cf:nl|ptrs:na|ktp:N0|mc:190798|mtp:S|qry_typ:P|lang:en|wc:2|cs:8897|v=4,False,Padikkattupalli,Tenkasi,"2-11-51, Tenkasi-Madurai Main Road, Elathoor, Shengottai Tk, Padikkattupalli, Tenkasi - 627803, Dist.Tirunelveli, Tamil Nadu",8045165561,
3/4 Sleeve Feeding Kalamkari Anarkali Kurti,https://www.indiamart.com/proddetail/feeding-kalamkari-anarkali-kurti-2853647721797.html?pos=150&kwd=feeding gown&tags=||||8668.838|Price|product|||MDC|rsf:gd-|-stype:attr=1|qr_nm:gd|res:RC3|com-cf:nl|ptrs:na|ktp:N0|mc:190798|mtp:S|qry_typ:P|lang:en|wc:2|cs:8897|v=4,Paris Hub,https://www.indiamart.com/paris-huberode/?pos=150&kwd=feeding gown&tags=||||8668.838|Price|product|||MDC|rsf:gd-|-stype:attr=1|qr_nm:gd|res:RC3|com-cf:nl|ptrs:na|ktp:N0|mc:190798|mtp:S|qry_typ:P|lang:en|wc:2|cs:8897|v=4,False,Erode,Erode,"Shop No-1020, 220/12,Erode Textile Mall P Ltd, NH-7 Salem-Coimbatore High Way,Gangapuram, Chithode, Erode, Erode - 638102, Dist.Erode, Tamil Nadu",7949082067,
Cotton Feeding Nighties,https://www.indiamart.com/proddetail/cotton-feeding-nighties-27574241497.html?pos=151&kwd=feeding gown&tags=||||8211.142||product|||TS|rsf:gd-|-stype:attr=1|qr_nm:gd|res:RC3|com-cf:nl|ptrs:na|ktp:N0|mc:190798|mtp:S|qry_typ:P|lang:en|wc:2|cs:8897|v=4,Kiran Sons,https://www.indiamart.com/kiransons/?pos=151&kwd=feeding gown&tags=||||8211.142||product|||TS|rsf:gd-|-stype:attr=1|qr_nm:gd|res:RC3|com-cf:nl|ptrs:na|ktp:N0|mc:190798|mtp:S|qry_typ:P|lang:en|wc:2|cs:8897|v=4,False,Kalbadevi,Mumbai,"C/O. J.K. Brothers, 25, Vithalwadi, Kalbadevi, Mumbai - 400002, Dist.Mumbai, Maharashtra",8047645351,
Cotton Ladies Feeding Nighty,https://www.indiamart.com/proddetail/ladies-feeding-nighty-22408935188.html?pos=152&kwd=feeding gown&tags=||||8954.051|Price|product|||TS|rsf:gd-|-stype:attr=1|qr_nm:gd|res:RC3|com-cf:nl|ptrs:na|ktp:N0|mc:190798|mtp:S|qry_typ:P|lang:en|wc:2|cs:8897|v=4,Sai Collection,https://www.indiamart.com/saicollection-chennai/?pos=152&kwd=feeding gown&tags=||||8954.051|Price|product|||TS|rsf:gd-|-stype:attr=1|qr_nm:gd|res:RC3|com-cf:nl|ptrs:na|ktp:N0|mc:190798|mtp:S|qry_typ:P|lang:en|wc:2|cs:8897|v=4,False,T Nagar,Chennai,"1st Floor,no 78/79 Shop- 2,pondy Bazzar,fathima Plaza,t Nagar, T Nagar, Chennai - 600017, Dist.Chennai, Tamil Nadu",8046039974,
Cotton Ladies Feeding Nighty,https://www.indiamart.com/proddetail/ladies-feeding-nighty-2853497433948.html?pos=153&kwd=feeding gown&tags=||||8235.633|Price|product|||TS|rsf:gd-|-stype:attr=1|qr_nm:gd|res:RC3|com-cf:nl|ptrs:na|ktp:N0|mc:190798|mtp:S|qry_typ:P|lang:en|wc:2|cs:8897|v=4,Padmawati Trade Link,https://www.indiamart.com/padmawati-tradelink/?pos=153&kwd=feeding gown&tags=||||8235.633|Price|product|||TS|rsf:gd-|-stype:attr=1|qr_nm:gd|res:RC3|com-cf:nl|ptrs:na|ktp:N0|mc:190798|mtp:S|qry_typ:P|lang:en|wc:2|cs:8897|v=4,False,Tapra,Balotra,"Sindhiyon Ka Wass, Ward No.7 Nayapura , Barmer, Tapra, Balotra - 344022, Dist.Barmer, Rajasthan",8048269332,
"Polyester Ladies Night Gown Dress feeding, Sleeves: Half",https://www.indiamart.com/proddetail/ladies-night-gown-dress-feeding-2849032802791.html?pos=154&kwd=feeding gown&tags=||||8228.275|Price|product|||MDC|rsf:gd-|-stype:attr=1|qr_nm:gd|res:RC3|com-cf:nl|ptrs:na|ktp:N0|mc:190798|mtp:S|qry_typ:P|lang:en|wc:2|cs:8897|v=4,Dev Creation,https://www.indiamart.com/devcreation-ahmedabad-gujarat/?pos=154&kwd=feeding gown&tags=||||8228.275|Price|product|||MDC|rsf:gd-|-stype:attr=1|qr_nm:gd|res:RC3|com-cf:nl|ptrs:na|ktp:N0|mc:190798|mtp:S|qry_typ:P|lang:en|wc:2|cs:8897|v=4,False,Saraspur,Ahmedabad,"A-232, Sumel Business Park-4, New Gujarat Synthetic Mill Compound, Opp Amdupura Saraspur, Saraspur, Ahmedabad - 380018, Dist.Ahmedabad, Gujarat",8043892750,
"Red Printed Ladies Feeding Cotton Nightgown, Half Sleeve",https://www.indiamart.com/proddetail/ladies-feeding-cotton-nightgown-2853598298991.html?pos=155&kwd=feeding gown&tags=||||8307.81|Price|product|||MDC|rsf:gd-|-stype:attr=1|qr_nm:gd|res:RC3|com-cf:nl|ptrs:na|ktp:N0|mc:190798|mtp:S|qry_typ:P|lang:en|wc:2|cs:8897|v=4,Pearl Fashion,https://www.indiamart.com/pearl-fashion-pune/?pos=155&kwd=feeding gown&tags=||||8307.81|Price|product|||MDC|rsf:gd-|-stype:attr=1|qr_nm:gd|res:RC3|com-cf:nl|ptrs:na|ktp:N0|mc:190798|mtp:S|qry_typ:P|lang:en|wc:2|cs:8897|v=4,False,Raviwar Peth,Pune,"Floor No 1, 1083 SH-225B 702, 703, 704, 993C, Tara Mali, Raviwar Peth, Raviwar Peth, Pune - 411002, Dist.Pune, Maharashtra",7949226132,
"Dark Olive Printed Women Cotton Invisible Zip Feeding Nighty, Half Sleeve",https://www.indiamart.com/proddetail/women-cotton-invisible-zip-feeding-nighty-2853313513712.html?pos=156&kwd=feeding gown&tags=||||8228.275|Price|product|||MDC|rsf:gd-|-stype:attr=1|qr_nm:gd|res:RC3|com-cf:nl|ptrs:na|ktp:N0|mc:190798|mtp:S|qry_typ:P|lang:en|wc:2|cs:8897|v=4,Mayur Lifestyle,https://www.indiamart.com/mayur-lifestyle-gujarat/?pos=156&kwd=feeding gown&tags=||||8228.275|Price|product|||MDC|rsf:gd-|-stype:attr=1|qr_nm:gd|res:RC3|com-cf:nl|ptrs:na|ktp:N0|mc:190798|mtp:S|qry_typ:P|lang:en|wc:2|cs:8897|v=4,False,Saraspur,Ahmedabad,"First Floor, Block F-1, Sumel 10, Saraspur Road, Saraspur, Ahmedabad - 380018, Dist.Ahmedabad, Gujarat",7942966913,
"Base Pink Cotton Ladies Half Sleeve Nightgown, Size: L",https://www.indiamart.com/proddetail/ladies-half-sleeve-nightgown-20638908473.html?pos=157&kwd=feeding gown&tags=||||8954.051|Price|product|||TS|rsf:gd-|-stype:attr=1|qr_nm:gd|res:RC3|com-cf:nl|ptrs:na|ktp:N0|mc:190798|mtp:S|qry_typ:P|lang:en|wc:2|cs:8897|v=4,Neelam Tex,https://www.indiamart.com/neelamtex/?pos=157&kwd=feeding gown&tags=||||8954.051|Price|product|||TS|rsf:gd-|-stype:attr=1|qr_nm:gd|res:RC3|com-cf:nl|ptrs:na|ktp:N0|mc:190798|mtp:S|qry_typ:P|lang:en|wc:2|cs:8897|v=4,False,Old Washermanpet,Chennai,"8/6, Robinson Park colony , 2nd Lane, MC Road, Old Washermanpet, Chennai - 600021, Dist.Chennai, Tamil Nadu",8048977278,
Beige Hosiery Floral Printed Short Nighty/Loungewear/Night Dress/Nightwear For Women Nightgown,https://www.indiamart.com/proddetail/beige-hosiery-floral-printed-short-nighty-loungewear-night-dress-nightwear-for-women-nightgown-2854381109730.html?pos=158&kwd=feeding gown&tags=||||8601.347|Price|product|||MDC|rsf:gd-|-stype:attr=1|qr_nm:gd|res:RC3|com-cf:nl|ptrs:na|ktp:N0|mc:190798|mtp:S|qry_typ:P|lang:en|wc:2|cs:8897|v=4,Kashaya Fabs,https://www.indiamart.com/kashaya-fabs/?pos=158&kwd=feeding gown&tags=||||8601.347|Price|product|||MDC|rsf:gd-|-stype:attr=1|qr_nm:gd|res:RC3|com-cf:nl|ptrs:na|ktp:N0|mc:190798|mtp:S|qry_typ:P|lang:en|wc:2|cs:8897|v=4,False,Mansarovar,Jaipur,"H-1-51/66A, RIICO Industrial Area, Mansarovar, Mansarovar, Jaipur - 302020, Dist.Jaipur, Rajasthan",8044015615,
Cotton Feeding Kurtis,https://www.indiamart.com/proddetail/feeding-kurtis-2853919212648.html?pos=159&kwd=feeding gown&tags=||||8601.347|Price|product|||MDC|rsf:gd-|-stype:attr=1|qr_nm:gd|res:RC3|com-cf:nl|ptrs:na|ktp:N0|mc:190798|mtp:S|qry_typ:P|lang:en|wc:2|cs:8897|v=4,Mishika Fashion,https://www.indiamart.com/mishika-fashion/?pos=159&kwd=feeding gown&tags=||||8601.347|Price|product|||MDC|rsf:gd-|-stype:attr=1|qr_nm:gd|res:RC3|com-cf:nl|ptrs:na|ktp:N0|mc:190798|mtp:S|qry_typ:P|lang:en|wc:2|cs:8897|v=4,False,Goardhan Nagar,Jaipur,"Plot No 40 Shiksha Sagar Govind Pura Jaipur Jaipur, Goardhan Nagar, Jaipur - 302029, Dist.Jaipur, Rajasthan",7949372347,
Full Length Cotton Feeding Suits c,https://www.indiamart.com/proddetail/feeding-suits-c-23939844248.html?pos=160&kwd=feeding gown&tags=||||8876.815|Price|product|||TS|rsf:gd-|-stype:attr=1|qr_nm:gd|res:RC3|com-cf:nl|ptrs:na|ktp:N0|mc:190798|mtp:S|qry_typ:P|lang:en|wc:2|cs:8897|v=4,Jsm Collection,https://www.indiamart.com/sanvifashions/?pos=160&kwd=feeding gown&tags=||||8876.815|Price|product|||TS|rsf:gd-|-stype:attr=1|qr_nm:gd|res:RC3|com-cf:nl|ptrs:na|ktp:N0|mc:190798|mtp:S|qry_typ:P|lang:en|wc:2|cs:8897|v=4,False,Lalganj,Nagpur,"Tipre Galli Near Gandhi Putlla, Plot No. 956, Jsm Collection, C A Road, Lalganj, Nagpur - 440002, Dist.Nagpur, Maharashtra",8047632801,
Cotton Feeding Kurtis,https://www.indiamart.com/proddetail/cotton-feeding-kurtis-25507151755.html?pos=161&kwd=feeding gown&tags=||||8663.873|Price|product|||TS|rsf:gd-|-stype:attr=1|qr_nm:gd|res:RC3|com-cf:nl|ptrs:na|ktp:N0|mc:190798|mtp:S|qry_typ:P|lang:en|wc:2|cs:8897|v=4,Suntex Inc.,https://www.indiamart.com/suntexinc/?pos=161&kwd=feeding gown&tags=||||8663.873|Price|product|||TS|rsf:gd-|-stype:attr=1|qr_nm:gd|res:RC3|com-cf:nl|ptrs:na|ktp:N0|mc:190798|mtp:S|qry_typ:P|lang:en|wc:2|cs:8897|v=4,False,Sudhama Nagar,Bengaluru,"No 9, 1st Floor, 1st 'B' Main Road, 2nd Cross , Sudhamanagar,Lalbagh Road Cross, Sudhama Nagar, Bengaluru - 560027, Dist.Bengaluru, Karnataka",8048982054,
"Printed Cotton Evolvoe Nightgown For Women, Green, Packaging Type: Packets",https://www.indiamart.com/proddetail/evolvoe-nightgown-for-women-1992295030.html?pos=162&kwd=feeding gown&tags=||||8211.142|Price|product|||TS|rsf:gd-|-stype:attr=1|qr_nm:gd|res:RC3|com-cf:nl|ptrs:na|ktp:N0|mc:190798|mtp:S|qry_typ:P|lang:en|wc:2|cs:8897|v=4,Paras Dyeing And Printing Mills,https://www.tulsicotton.com/?pos=162&kwd=feeding gown&tags=||||8211.142|Price|product|||TS|rsf:gd-|-stype:attr=1|qr_nm:gd|res:RC3|com-cf:nl|ptrs:na|ktp:N0|mc:190798|mtp:S|qry_typ:P|lang:en|wc:2|cs:8897|v=4,True,Lower Parel,Mumbai,"No. 240, Kewal Industrial Estate, S. B. Marg, Lower Parel, Mumbai - 400013, Dist.Mumbai, Maharashtra",8048989910,
Printed Black Color New Designer Navratri Ladies Gown,https://www.indiamart.com/proddetail/new-designer-navratri-ladies-gown-22587191862.html?pos=163&kwd=feeding gown&tags=||||8230.883|Price|product|||TS|rsf:gd-|-stype:attr=1|qr_nm:gd|res:RC3|com-cf:nl|ptrs:na|ktp:N0|mc:190798|mtp:S|qry_typ:P|lang:en|wc:2|cs:8897|v=4,Leranath Fashion,https://www.leranathfashion.in/?pos=163&kwd=feeding gown&tags=||||8230.883|Price|product|||TS|rsf:gd-|-stype:attr=1|qr_nm:gd|res:RC3|com-cf:nl|ptrs:na|ktp:N0|mc:190798|mtp:S|qry_typ:P|lang:en|wc:2|cs:8897|v=4,True,Vishal Nagar,Surat,"5th Floor, Office No. 501D, V Plaza, Akshar Kunj Society, Vishal Nagar, Surat - 395004, Dist.Surat, Gujarat",8047640072,
Georgette Embroidered Ladies Fancy Party Wear Gown,https://www.indiamart.com/proddetail/ladies-fancy-party-wear-gown-26028387273.html?pos=164&kwd=feeding gown&tags=||||8230.883|Price|product|||TS|rsf:gd-|-stype:attr=1|qr_nm:gd|res:RC3|com-cf:nl|ptrs:na|ktp:N0|mc:190798|mtp:S|qry_typ:P|lang:en|wc:2|cs:8897|v=4,Fab Zone,https://www.fabzonefab.com/?pos=164&kwd=feeding gown&tags=||||8230.883|Price|product|||TS|rsf:gd-|-stype:attr=1|qr_nm:gd|res:RC3|com-cf:nl|ptrs:na|ktp:N0|mc:190798|mtp:S|qry_typ:P|lang:en|wc:2|cs:8897|v=4,True,Sharaddha Society,Surat,"102, Ugam Chamber, Sharaddha Society, Surat - 395006, Dist.Surat, Gujarat",8046073565,
Peach Cotton Printed Gown,https://www.indiamart.com/proddetail/peach-cotton-printed-gown-2853639644333.html?pos=165&kwd=feeding gown&tags=||||8211.142|Price|product|||MDC|rsf:gd-|-stype:attr=1|qr_nm:gd|res:RC3|com-cf:nl|ptrs:na|ktp:N0|mc:190798|mtp:S|qry_typ:P|lang:en|wc:2|cs:8897|v=4,Fly Garments,https://www.indiamart.com/fly-garments/?pos=165&kwd=feeding gown&tags=||||8211.142|Price|product|||MDC|rsf:gd-|-stype:attr=1|qr_nm:gd|res:RC3|com-cf:nl|ptrs:na|ktp:N0|mc:190798|mtp:S|qry_typ:P|lang:en|wc:2|cs:8897|v=4,False,Bandra East,Mumbai,"Shop No.338, Navpada Peoples Welfare, Gali No.4, Gate No.18, Ghas Bazar, Bandra East, Suburban, Bandra East, Mumbai - 400051, Dist.Mumbai, Maharashtra",8045168132,
"Multicolor Three fourth sleeve Women Feeding Dresses, Size: Free",https://www.indiamart.com/proddetail/women-feeding-dresses-2852698562662.html?pos=166&kwd=feeding gown&tags=||||8601.347|Price|proxy|||TS|rsf:gd-|-stype:attr=1|qr_nm:gd|res:RC3|com-cf:nl|ptrs:na|ktp:N0|mc:190798|mtp:S|qry_typ:P|lang:en|wc:2|cs:8897|v=4,Rama Exports,https://www.indiamart.com/ramaexportsjaipur/?pos=166&kwd=feeding gown&tags=||||8601.347|Price|proxy|||TS|rsf:gd-|-stype:attr=1|qr_nm:gd|res:RC3|com-cf:nl|ptrs:na|ktp:N0|mc:190798|mtp:S|qry_typ:P|lang:en|wc:2|cs:8897|v=4,False,Ghat Ki Guni,Jaipur,"Plot No 19-B,Ambedkar Colony,Durga Pura Bypass Tonk Road,Jaipur, Ghat Ki Guni, Jaipur - 302018, Dist.Jaipur, Rajasthan",7942868623,
"Printed Prakruti Soft Lizzy Fabric Nightgown, MULTIPLE COLOURS, Size: Free Size",https://www.indiamart.com/proddetail/prakruti-soft-lizzy-fabric-nightgown-2852727211930.html?pos=167&kwd=feeding gown&tags=||||8876.815|Price|proxy|||MDC|rsf:gd-|-stype:attr=1|qr_nm:gd|res:RC3|com-cf:nl|ptrs:na|ktp:N0|mc:190798|mtp:S|qry_typ:P|lang:en|wc:2|cs:8897|v=4,Gobind Enterprises,https://www.indiamart.com/gobindenterprises-nagpur/?pos=167&kwd=feeding gown&tags=||||8876.815|Price|proxy|||MDC|rsf:gd-|-stype:attr=1|qr_nm:gd|res:RC3|com-cf:nl|ptrs:na|ktp:N0|mc:190798|mtp:S|qry_typ:P|lang:en|wc:2|cs:8897|v=4,False,Lalganj,Nagpur,"01, Bajirao Gally, Ganjakhet, Lalganj, Nagpur - 440002, Dist.Nagpur, Maharashtra",7942719482,
"Red Cotton Feeding Nighty, Size: Small, Sleeves: Half Sleeve",https://www.indiamart.com/proddetail/red-cotton-feeding-nighty-23154511788.html?pos=168&kwd=feeding gown&tags=CA||||8319.425|Price|product|||NA|rsf:gd-|-stype:attr=1|qr_nm:gd|res:RC3|com-cf:nl|ptrs:na|ktp:N0|mc:190798|mtp:S|qry_typ:P|lang:en|wc:2|cs:8897|v=4,Roop Shree Tex,https://www.indiamart.com/roop-shree-tex/?pos=168&kwd=feeding gown&tags=CA||||8319.425|Price|product|||NA|rsf:gd-|-stype:attr=1|qr_nm:gd|res:RC3|com-cf:nl|ptrs:na|ktp:N0|mc:190798|mtp:S|qry_typ:P|lang:en|wc:2|cs:8897|v=4,False,,Jodhpur,"G 571 B, Mia, Basni II Phase, Jodhpur - 342005, Dist.Jodhpur, Rajasthan",8047814430,
Aarohi Rayon Plain Feeding Gown,https://www.indiamart.com/proddetail/plain-feeding-gown-21813086897.html?pos=169&kwd=feeding gown&tags=CA||||8211.142|Price|product|||NA|rsf:gd-|-stype:attr=1|qr_nm:gd|res:RC3|com-cf:nl|ptrs:na|ktp:N0|mc:190798|mtp:S|qry_typ:P|lang:en|wc:2|cs:8897|v=4,Aarohi Apperals,https://www.indiamart.com/aarohiapperals/?pos=169&kwd=feeding gown&tags=CA||||8211.142|Price|product|||NA|rsf:gd-|-stype:attr=1|qr_nm:gd|res:RC3|com-cf:nl|ptrs:na|ktp:N0|mc:190798|mtp:S|qry_typ:P|lang:en|wc:2|cs:8897|v=4,False,Jogeshwari East,Mumbai,"147/A, Shop No. 2, Below Shubhas Road, Jogeshwari East, Mumbai - 400060, Dist.Mumbai, Maharashtra",8048370717,6623
Blue Cotton Baby Feeding Gown,https://www.indiamart.com/proddetail/cotton-baby-feeding-gown-22227630497.html?pos=170&kwd=feeding gown&tags=CA||||8228.275|Price|product|||NA|rsf:gd-|-stype:attr=1|qr_nm:gd|res:RC3|com-cf:nl|ptrs:na|ktp:N0|mc:190798|mtp:S|qry_typ:P|lang:en|wc:2|cs:8897|v=4,Riddhi Siddhi Textiles,https://www.indiamart.com/riddhisiddhi-textiles/?pos=170&kwd=feeding gown&tags=CA||||8228.275|Price|product|||NA|rsf:gd-|-stype:attr=1|qr_nm:gd|res:RC3|com-cf:nl|ptrs:na|ktp:N0|mc:190798|mtp:S|qry_typ:P|lang:en|wc:2|cs:8897|v=4,False,Kankaria,Ahmedabad,"A 57, Ground Floor, Sumel Business Park 2, Kankaria, Ahmedabad - 380022, Dist.Ahmedabad, Gujarat",8048372739,733
Solid REUSABLE FEEDING GOWN,https://www.indiamart.com/proddetail/reusable-feeding-gown-25957626930.html?pos=171&kwd=feeding gown&tags=CA||||8507.67|Price|product|||NA|rsf:gd-|-stype:attr=1|qr_nm:gd|res:RC3|com-cf:nl|ptrs:na|ktp:N0|mc:190798|mtp:S|qry_typ:P|lang:en|wc:2|cs:8897|v=4,Dhroni,https://www.indiamart.com/dhronivestures/?pos=171&kwd=feeding gown&tags=CA||||8507.67|Price|product|||NA|rsf:gd-|-stype:attr=1|qr_nm:gd|res:RC3|com-cf:nl|ptrs:na|ktp:N0|mc:190798|mtp:S|qry_typ:P|lang:en|wc:2|cs:8897|v=4,False,P.O Muvattupuzha,Ernakulam,"XV/275, 276, Mudavoor P.O., Muvattupuzha, P.O Muvattupuzha, Ernakulam - 686669, Dist.Ernakulam, Kerala",7942551409,
"Net Self Design Mom Daughter Gown, ONION PINK",https://www.indiamart.com/proddetail/mom-daughter-gown-2849421617588.html?pos=172&kwd=feeding gown&tags=||||8786.56|Price|product|||TS|rsf:gd-|-stype:attr=1|qr_nm:gd|res:RC3|com-cf:nl|ptrs:na|ktp:N0|mc:190798|mtp:S|qry_typ:P|lang:en|wc:2|cs:8897|v=4,ANU CHAUHAN FASHIONS (OPC) PRIVATE LIMITED,https://www.indiamart.com/anu-chauhan-fashions-opc/?pos=172&kwd=feeding gown&tags=||||8786.56|Price|product|||TS|rsf:gd-|-stype:attr=1|qr_nm:gd|res:RC3|com-cf:nl|ptrs:na|ktp:N0|mc:190798|mtp:S|qry_typ:P|lang:en|wc:2|cs:8897|v=4,False,Kukatpally Kphb Colony Phase 7,Hyderabad,"2nd Floor, DG5-G/02/05 Flat No. 205, Malaysian Township, Phase 5, KPHB Colony, Kukatpally Raintree Park, Near Club House Rangareddy, Kukatpally Kphb Colony Phase 7, Hyderabad - 500085, Dist.Hyderabad, Telangana",8048953054,
Designer party wear beautiful multi color georgette with embroidery work regulars sleeve long gown,https://www.indiamart.com/proddetail/designer-party-wear-beautiful-multi-color-georgette-with-embroidery-work-regulars-sleeve-long-gown-27619222791.html?pos=173&kwd=feeding gown&tags=||||8230.883|Price|product|||TS|rsf:gd-|-stype:attr=1|qr_nm:gd|res:RC3|com-cf:nl|ptrs:na|ktp:N0|mc:190798|mtp:S|qry_typ:P|lang:en|wc:2|cs:8897|v=4,Alphanumero Corporation,https://www.indiamart.com/alphanumero-corporation/?pos=173&kwd=feeding gown&tags=||||8230.883|Price|product|||TS|rsf:gd-|-stype:attr=1|qr_nm:gd|res:RC3|com-cf:nl|ptrs:na|ktp:N0|mc:190798|mtp:S|qry_typ:P|lang:en|wc:2|cs:8897|v=4,False,Varachha Road,Surat,"B37-39 , Shubham industry, Saniya hemad, Varachha Road, Surat - 395006, Dist.Surat, Gujarat",8047545881,
Silk Printed Ladies Festive Wear Gown,https://www.indiamart.com/proddetail/ladies-festive-wear-gown-2854220469373.html?pos=174&kwd=feeding gown&tags=||||8230.883|Price|product|||MDC|rsf:gd-|-stype:attr=1|qr_nm:gd|res:RC3|com-cf:nl|ptrs:na|ktp:N0|mc:190798|mtp:S|qry_typ:P|lang:en|wc:2|cs:8897|v=4,Ayan Creation,https://www.indiamart.com/ayan-creation-surat/?pos=174&kwd=feeding gown&tags=||||8230.883|Price|product|||MDC|rsf:gd-|-stype:attr=1|qr_nm:gd|res:RC3|com-cf:nl|ptrs:na|ktp:N0|mc:190798|mtp:S|qry_typ:P|lang:en|wc:2|cs:8897|v=4,False,,Surat,"4th Floor 4 Ved Road Patel Industrial Co Op Ser Soc Sy No 19 Paiki, Surat - 395004, Dist.Surat, Gujarat",8045737219,
"Handicraft-Palace Cotton Printed Short Kaftan Maxi Gown Sleepwear, 15-80 Year, Size: Fit Up to 66"" Inch",https://www.indiamart.com/proddetail/cotton-printed-short-kaftan-maxi-gown-sleepwear-21306951373.html?pos=175&kwd=feeding gown&tags=||||8601.347|Price|proxy|||TS|rsf:gd-|-stype:attr=1|qr_nm:gd|res:RC3|com-cf:nl|ptrs:na|ktp:N0|mc:190798|mtp:S|qry_typ:P|lang:en|wc:2|cs:8897|v=4,Gopali Arts,https://www.gopaliarts.in/?pos=175&kwd=feeding gown&tags=||||8601.347|Price|proxy|||TS|rsf:gd-|-stype:attr=1|qr_nm:gd|res:RC3|com-cf:nl|ptrs:na|ktp:N0|mc:190798|mtp:S|qry_typ:P|lang:en|wc:2|cs:8897|v=4,False,G1-652 Sitapura Phase-1,Jaipur,"G1-652, Sitapura Phase-1, G1-652 Sitapura Phase-1, Jaipur - 302022, Dist.Jaipur, Rajasthan",8048264082,
"Solid Satin Ladies Night Gowns, Purple",https://www.indiamart.com/proddetail/ladies-night-gowns-20340809133.html?pos=176&kwd=feeding gown&tags=||||8752.144||product|||TS|rsf:gd-|-stype:attr=1|qr_nm:gd|res:RC3|com-cf:nl|ptrs:na|ktp:N0|mc:190798|mtp:S|qry_typ:P|lang:en|wc:2|cs:8897|v=4,Shradha Sai Enterprises,https://www.indiamart.com/shradhasaienterprises-delhi/?pos=176&kwd=feeding gown&tags=||||8752.144||product|||TS|rsf:gd-|-stype:attr=1|qr_nm:gd|res:RC3|com-cf:nl|ptrs:na|ktp:N0|mc:190798|mtp:S|qry_typ:P|lang:en|wc:2|cs:8897|v=4,False,Gokalpur,New Delhi,"A652, Gali No. 8, Meet Nagar, Near TR Sawhney Maruti Showroom, Gokalpur, New Delhi - 110094, Dist.Delhi, Delhi",8047633852,
"Plain Satin Nighty 6 Peice, Free Size",https://www.indiamart.com/proddetail/satin-nighty-6-peice-14775931630.html?pos=177&kwd=feeding gown&tags=||||8752.144|Price|product|||TS|rsf:gd-|-stype:attr=1|qr_nm:gd|res:RC3|com-cf:nl|ptrs:na|ktp:N0|mc:190798|mtp:S|qry_typ:P|lang:en|wc:2|cs:8897|v=4,Ansari Hosiery,https://www.indiamart.com/ansari-hosiery/?pos=177&kwd=feeding gown&tags=||||8752.144|Price|product|||TS|rsf:gd-|-stype:attr=1|qr_nm:gd|res:RC3|com-cf:nl|ptrs:na|ktp:N0|mc:190798|mtp:S|qry_typ:P|lang:en|wc:2|cs:8897|v=4,False,New Mustafabad,New Delhi,"H. No. 750, Gali No. 10, New Mustafabad Rajiv Gandhi Nagar, New Mustafabad, New Delhi - 110094, Dist.Delhi, Delhi",8046063096,
"Multicolor Printed Party Wear Long Gowns, Anarkali",https://www.indiamart.com/proddetail/party-wear-long-gowns-22894262533.html?pos=178&kwd=feeding gown&tags=||||8230.883|Price|product|||TS|rsf:gd-|-stype:attr=1|qr_nm:gd|res:RC3|com-cf:nl|ptrs:na|ktp:N0|mc:190798|mtp:S|qry_typ:P|lang:en|wc:2|cs:8897|v=4,Unique Enterprise,https://www.indiamart.com/uniqueenterprisessurat/?pos=178&kwd=feeding gown&tags=||||8230.883|Price|product|||TS|rsf:gd-|-stype:attr=1|qr_nm:gd|res:RC3|com-cf:nl|ptrs:na|ktp:N0|mc:190798|mtp:S|qry_typ:P|lang:en|wc:2|cs:8897|v=4,False,Khatodra Wadi,Surat,"RAMESHWARAM HILLS, ALTHAN BAMROLI EXPRESSWAY, Khatodra Wadi, Surat - 394221, Dist.Surat, Gujarat",8048619028,
"Full Length Ladies Flower Printed Cotton Nighty, M",https://www.indiamart.com/proddetail/ladies-flower-printed-cotton-nighty-17757892633.html?pos=179&kwd=feeding gown&tags=||||8668.838|Price|product|||MDC|rsf:gd-|-stype:attr=1|qr_nm:gd|res:RC3|com-cf:nl|ptrs:na|ktp:N0|mc:190798|mtp:S|qry_typ:P|lang:en|wc:2|cs:8897|v=4,Vembarasan Garments,https://www.indiamart.com/vembarasangarments/?pos=179&kwd=feeding gown&tags=||||8668.838|Price|product|||MDC|rsf:gd-|-stype:attr=1|qr_nm:gd|res:RC3|com-cf:nl|ptrs:na|ktp:N0|mc:190798|mtp:S|qry_typ:P|lang:en|wc:2|cs:8897|v=4,False,Surampattivalasu,Erode,"25, Kangayam Main Road , Othakadai VP Subbiyan Street, Vengampur, Surampattivalasu, Erode - 638151, Dist.Erode, Tamil Nadu",8048612367,
"Multicolor Three fourth sleeve Feeding Dress, Size: XL",https://www.indiamart.com/proddetail/feeding-dress-2853346517155.html?pos=180&kwd=feeding gown&tags=D||||8786.56|Price|proxy|||TS|rsf:gd-|-stype:attr=1|qr_nm:gd|res:RC3|com-cf:nl|ptrs:na|ktp:N0|mc:190798|mtp:S|qry_typ:P|lang:en|wc:2|cs:8897|v=4,Y. S. Traders,https://www.indiamart.com/ystraders/?pos=180&kwd=feeding gown&tags=D||||8786.56|Price|proxy|||TS|rsf:gd-|-stype:attr=1|qr_nm:gd|res:RC3|com-cf:nl|ptrs:na|ktp:N0|mc:190798|mtp:S|qry_typ:P|lang:en|wc:2|cs:8897|v=4,False,Pathar Gatti,Hyderabad,"Shop No. 8, 4th Floor, I Square Tower, Dewan Devdi, Charminar, Pathar Gatti, Hyderabad - 500002, Dist.Hyderabad, Telangana",8047633157,
"Three fourth sleeve Cotton Printed Feeding Dress, Size: XXL",https://www.indiamart.com/proddetail/cotton-printed-feeding-dress-2851946697848.html?pos=181&kwd=feeding gown&tags=D||||8601.347|Price|proxy|||MDC|rsf:gd-|-stype:attr=1|qr_nm:gd|res:RC3|com-cf:nl|ptrs:na|ktp:N0|mc:190798|mtp:S|qry_typ:P|lang:en|wc:2|cs:8897|v=4,Bhargavi Hand Printers,https://www.indiamart.com/bhargavi-hand-printers/?pos=181&kwd=feeding gown&tags=D||||8601.347|Price|proxy|||MDC|rsf:gd-|-stype:attr=1|qr_nm:gd|res:RC3|com-cf:nl|ptrs:na|ktp:N0|mc:190798|mtp:S|qry_typ:P|lang:en|wc:2|cs:8897|v=4,False,Bagru,Jaipur,"1, Takiya Bus Stand Bagru, Bagru, Jaipur - 303007, Dist.Jaipur, Rajasthan",8043854406,
Feeding Gown,https://www.indiamart.com/proddetail/feeding-gown-22695319012.html?pos=182&kwd=feeding gown&tags=CC||||8230.883|Price|product|||NA|rsf:gd-|-stype:attr=1|qr_nm:gd|res:RC3|com-cf:nl|ptrs:na|ktp:N0|mc:190798|mtp:S|qry_typ:P|lang:en|wc:2|cs:8897|v=4,One Times,https://www.indiamart.com/one-times/?pos=182&kwd=feeding gown&tags=CC||||8230.883|Price|product|||NA|rsf:gd-|-stype:attr=1|qr_nm:gd|res:RC3|com-cf:nl|ptrs:na|ktp:N0|mc:190798|mtp:S|qry_typ:P|lang:en|wc:2|cs:8897|v=4,False,PUNAGAM SILVER CHOWCK VARACHHA,Surat,"B-404,4TH FLOOR, JALDARSHAN FLATS, PARSIWAD, SINGANPORE GAM,SURAT 223,SAYONA PLAZA, PUNAGAM ,SILVER CHOWCK,VARACHHA,395010,Surat, PUNAGAM SILVER CHOWCK VARACHHA, Surat - 395004, Dist.Surat, Gujarat",8048371518,105
Feeding Gown,,Juliet Apparels Private Limited,https://www.indiamart.com/juliet-apparels/?pos=183&kwd=feeding gown&tags=CC||||8211.142||product|||NA|rsf:gd-|-stype:attr=1|qr_nm:gd|res:RC3|com-cf:nl|ptrs:na|ktp:N0|mc:190798|mtp:S|qry_typ:P|lang:en|wc:2|cs:8897|v=4,False,T. J. Road,Mumbai,"227, Nilgiri Industrial Estate, T. J. Road, T. J. Road, Mumbai - 400015, Dist.Mumbai, Maharashtra",8062245084,544
"Solid Feeding Gown, Three fourth sleeve",https://www.indiamart.com/proddetail/feeding-gown-2851727870488.html?pos=184&kwd=feeding gown&tags=CC||||8601.347|Price|product|||NA|rsf:gd-|-stype:attr=1|qr_nm:gd|res:RC3|com-cf:nl|ptrs:na|ktp:N0|mc:190798|mtp:S|qry_typ:P|lang:en|wc:2|cs:8897|v=4,Maya Textiles And Apparels,https://www.indiamart.com/maya-textiles-and-apparels/?pos=184&kwd=feeding gown&tags=CC||||8601.347|Price|product|||NA|rsf:gd-|-stype:attr=1|qr_nm:gd|res:RC3|com-cf:nl|ptrs:na|ktp:N0|mc:190798|mtp:S|qry_typ:P|lang:en|wc:2|cs:8897|v=4,False,Riico kanta,Jaipur,"shop no. 20 sachivalya vihar, Riico kanta, Jaipur - 304001, Dist.Jaipur, Rajasthan",8047311000,7413
Full Length Cotton Ladies Green Printed Nightgown,https://www.indiamart.com/proddetail/ladies-green-printed-nightgown-21424669448.html?pos=185&kwd=feeding gown&tags=||||8706.587|Price|proxy|||TS|rsf:gd-|-stype:attr=1|qr_nm:gd|res:RC3|com-cf:nl|ptrs:na|ktp:N0|mc:190798|mtp:S|qry_typ:P|lang:en|wc:2|cs:8897|v=4,Rasathe Garments,https://www.indiamart.com/rasathe-garments/?pos=185&kwd=feeding gown&tags=||||8706.587|Price|proxy|||TS|rsf:gd-|-stype:attr=1|qr_nm:gd|res:RC3|com-cf:nl|ptrs:na|ktp:N0|mc:190798|mtp:S|qry_typ:P|lang:en|wc:2|cs:8897|v=4,False,Madurai East,Madurai,"Shed 104, Sidco Hosiery, Industrial Estate, Madurai East, Madurai - 625020, Dist.Madurai, Tamil Nadu",8048963380,
"Ladies Printed Satin Nightgown, Black",https://www.indiamart.com/proddetail/ladies-printed-satin-nightgown-22554467288.html?pos=186&kwd=feeding gown&tags=||||8813.969|Price|proxy|||TS|rsf:gd-|-stype:attr=1|qr_nm:gd|res:RC3|com-cf:nl|ptrs:na|ktp:N0|mc:190798|mtp:S|qry_typ:P|lang:en|wc:2|cs:8897|v=4,Shree Shyam Enterprises,https://www.indiamart.com/shreeshyamenterprisesmeerut/?pos=186&kwd=feeding gown&tags=||||8813.969|Price|proxy|||TS|rsf:gd-|-stype:attr=1|qr_nm:gd|res:RC3|com-cf:nl|ptrs:na|ktp:N0|mc:190798|mtp:S|qry_typ:P|lang:en|wc:2|cs:8897|v=4,False,Shastri Nagar,Meerut,"Shop No. 36, Shastri Nagar, Meerut - 250002, Dist.Meerut, Uttar Pradesh",8048964240,
Floral Printed Cotton Nightgown,https://www.indiamart.com/proddetail/floral-printed-cotton-nightgown-13782945630.html?pos=187&kwd=feeding gown&tags=||||8668.838|Price|proxy|||TS|rsf:gd-|-stype:attr=1|qr_nm:gd|res:RC3|com-cf:nl|ptrs:na|ktp:N0|mc:190798|mtp:S|qry_typ:P|lang:en|wc:2|cs:8897|v=4,Naveen Garments,https://www.indiamart.com/naveengarments-erode/?pos=187&kwd=feeding gown&tags=||||8668.838|Price|proxy|||TS|rsf:gd-|-stype:attr=1|qr_nm:gd|res:RC3|com-cf:nl|ptrs:na|ktp:N0|mc:190798|mtp:S|qry_typ:P|lang:en|wc:2|cs:8897|v=4,False,Veerappanchatram,Erode,"73, Municipal Colony, Thiru Vee Ka Road, Veerappan Chattram, Veerappanchatram, Erode - 638004, Dist.Erode, Tamil Nadu",7942557239,
"Printed Ladies Cotton Nightgown, Half Sleeve",https://www.indiamart.com/proddetail/ladies-cotton-nightgown-2852645961988.html?pos=188&kwd=feeding gown&tags=||||8242.731|Price|proxy|||TS|rsf:gd-|-stype:attr=1|qr_nm:gd|res:RC3|com-cf:nl|ptrs:na|ktp:N0|mc:190798|mtp:S|qry_typ:P|lang:en|wc:2|cs:8897|v=4,Amber Traders,https://www.indiamart.com/ambertradersulhasnagar/?pos=188&kwd=feeding gown&tags=||||8242.731|Price|proxy|||TS|rsf:gd-|-stype:attr=1|qr_nm:gd|res:RC3|com-cf:nl|ptrs:na|ktp:N0|mc:190798|mtp:S|qry_typ:P|lang:en|wc:2|cs:8897|v=4,False,Yashwant Colony,Ulhasnagar,"Shop No-2, Bk No-1848, Room No-1, Section-39 Thane, Yashwant Colony, Ulhasnagar - 421005, Dist.Thane, Maharashtra",7942714559,
Cotton Nightgown,https://www.indiamart.com/proddetail/cotton-nightgown-2854453339130.html?pos=189&kwd=feeding gown&tags=||||8316.457|Price|proxy|||TS|rsf:gd-|-stype:attr=1|qr_nm:gd|res:RC3|com-cf:nl|ptrs:na|ktp:N0|mc:190798|mtp:S|qry_typ:P|lang:en|wc:2|cs:8897|v=4,Shree Ganesh Enterprises,https://www.indiamart.com/shreeganesh-enterprises/?pos=189&kwd=feeding gown&tags=||||8316.457|Price|proxy|||TS|rsf:gd-|-stype:attr=1|qr_nm:gd|res:RC3|com-cf:nl|ptrs:na|ktp:N0|mc:190798|mtp:S|qry_typ:P|lang:en|wc:2|cs:8897|v=4,False,Nashik Road,Nashik,"No. 6, Sahara, Opposite Holy Flower School Lokhande Mala, Jail Road, Nashik Road, Nashik Road, Nashik - 422101, Dist.Nashik, Maharashtra",8048615247,
"Multicolor Printed Cotton Night Gown, Half Sleeve",https://www.indiamart.com/proddetail/cotton-night-gown-2850183013873.html?pos=190&kwd=feeding gown&tags=||||8230.883|Price|proxy|||TS|rsf:gd-|-stype:attr=1|qr_nm:gd|res:RC3|com-cf:nl|ptrs:na|ktp:N0|mc:190798|mtp:S|qry_typ:P|lang:en|wc:2|cs:8897|v=4,Ashish Trading,https://www.indiamart.com/ashish-trading-surat/?pos=190&kwd=feeding gown&tags=||||8230.883|Price|proxy|||TS|rsf:gd-|-stype:attr=1|qr_nm:gd|res:RC3|com-cf:nl|ptrs:na|ktp:N0|mc:190798|mtp:S|qry_typ:P|lang:en|wc:2|cs:8897|v=4,False,Rander,Surat,"Block No 229, Rander Road, Rander, Surat - 395004, Dist.Surat, Gujarat",8043852987,
"Western Multicolor Ladies Feeding Gown, Printed, Stitched",https://www.indiamart.com/proddetail/ladies-feeding-gown-23470295230.html?pos=191&kwd=feeding gown&tags=CC||||8228.275|Price|product|||NA|rsf:gd-|-stype:attr=1|qr_nm:gd|res:RC3|com-cf:nl|ptrs:na|ktp:N0|mc:190798|mtp:S|qry_typ:P|lang:en|wc:2|cs:8897|v=4,Shree Balaji Textiles,https://www.indiamart.com/shreebalajitextiles-ahmedabad/?pos=191&kwd=feeding gown&tags=CC||||8228.275|Price|product|||NA|rsf:gd-|-stype:attr=1|qr_nm:gd|res:RC3|com-cf:nl|ptrs:na|ktp:N0|mc:190798|mtp:S|qry_typ:P|lang:en|wc:2|cs:8897|v=4,False,Raipur,Ahmedabad,"F-206, Sumel Business Park-3, Opp. New Cloth Market,, Raipur, Ahmedabad - 380013, Dist.Ahmedabad, Gujarat",8048267522,
Women Printed Feeding Gown,https://www.indiamart.com/proddetail/women-printed-feeding-gown-22941760555.html?pos=192&kwd=feeding gown&tags=CC||||8302.941|Price|product|||NA|rsf:gd-|-stype:attr=1|qr_nm:gd|res:RC3|com-cf:nl|ptrs:na|ktp:N0|mc:190798|mtp:S|qry_typ:P|lang:en|wc:2|cs:8897|v=4,Pink Panda,https://www.indiamart.com/pink-panda/?pos=192&kwd=feeding gown&tags=CC||||8302.941|Price|product|||NA|rsf:gd-|-stype:attr=1|qr_nm:gd|res:RC3|com-cf:nl|ptrs:na|ktp:N0|mc:190798|mtp:S|qry_typ:P|lang:en|wc:2|cs:8897|v=4,False,Chaitanya Vihar,Chinchwad,"Plot No B405, Chaitanya Vihar, Chinchwad - 411033, Dist.Pune, Maharashtra",8048372546,294
Checked Orange Ladies Cotton Feeding Gown,https://www.indiamart.com/proddetail/ladies-cotton-feeding-gown-21897000497.html?pos=193&kwd=feeding gown&tags=CC||||8307.81|Price|product|||NA|rsf:gd-|-stype:attr=1|qr_nm:gd|res:RC3|com-cf:nl|ptrs:na|ktp:N0|mc:190798|mtp:S|qry_typ:P|lang:en|wc:2|cs:8897|v=4,Shobho Enterprises LLP,https://www.indiamart.com/shobho-enterprises-llp/?pos=193&kwd=feeding gown&tags=CC||||8307.81|Price|product|||NA|rsf:gd-|-stype:attr=1|qr_nm:gd|res:RC3|com-cf:nl|ptrs:na|ktp:N0|mc:190798|mtp:S|qry_typ:P|lang:en|wc:2|cs:8897|v=4,False,Popular Nagar,Pune,"Building No. C2, Flat No.14, Popular Nagar, Pune - 411029, Dist.Pune, Maharashtra",8047632638,
"Red Half Ladies Feeding Cotton Gown, Size: M",https://www.indiamart.com/proddetail/ladies-feeding-cotton-gown-15799680997.html?pos=194&kwd=feeding gown&tags=CC||||8723.301|Price|product|||NA|rsf:gd-|-stype:attr=1|qr_nm:gd|res:RC3|com-cf:nl|ptrs:na|ktp:N0|mc:190798|mtp:S|qry_typ:P|lang:en|wc:2|cs:8897|v=4,Kavjay Enterprises,https://www.indiamart.com/kavjayenterprises-india/?pos=194&kwd=feeding gown&tags=CC||||8723.301|Price|product|||NA|rsf:gd-|-stype:attr=1|qr_nm:gd|res:RC3|com-cf:nl|ptrs:na|ktp:N0|mc:190798|mtp:S|qry_typ:P|lang:en|wc:2|cs:8897|v=4,False,Aradhana Nagar,Bhopal,"172, Sudama Nagar, Kotra Sultanabad, Aradhana Nagar, Bhopal - 462003, Dist.Bhopal, Madhya Pradesh",8043844870,
Women Hosiery Printed Feeding Gown,https://www.indiamart.com/proddetail/women-hosiery-printed-feeding-gown-2853385649148.html?pos=195&kwd=feeding gown&tags=CC||||8752.144|Price|product|||NA|rsf:gd-|-stype:attr=1|qr_nm:gd|res:RC3|com-cf:nl|ptrs:na|ktp:N0|mc:190798|mtp:S|qry_typ:P|lang:en|wc:2|cs:8897|v=4,Malhotra Garments,https://www.indiamart.com/malhotra-garments-newdelhi/?pos=195&kwd=feeding gown&tags=CC||||8752.144|Price|product|||NA|rsf:gd-|-stype:attr=1|qr_nm:gd|res:RC3|com-cf:nl|ptrs:na|ktp:N0|mc:190798|mtp:S|qry_typ:P|lang:en|wc:2|cs:8897|v=4,False,Gandhi Nagar,New Delhi,"1230, Subhash Road, Gandhi Nagar, Gandhi Nagar, New Delhi - 110031, Dist.Delhi, Delhi",7949224256,
"Ethnic ROYAL BLUE Feeding Gown, BLOCK PRINTED, Stitched",https://www.indiamart.com/proddetail/feeding-gown-25420063648.html?pos=196&kwd=feeding gown&tags=CC||||8601.347|Price|product|||NA|rsf:gd-|-stype:attr=1|qr_nm:gd|res:RC3|com-cf:nl|ptrs:na|ktp:N0|mc:190798|mtp:S|qry_typ:P|lang:en|wc:2|cs:8897|v=4,Jaipur Gold,https://www.indiamart.com/jaipurgold-jaipur/?pos=196&kwd=feeding gown&tags=CC||||8601.347|Price|product|||NA|rsf:gd-|-stype:attr=1|qr_nm:gd|res:RC3|com-cf:nl|ptrs:na|ktp:N0|mc:190798|mtp:S|qry_typ:P|lang:en|wc:2|cs:8897|v=4,False,Gem Hospital,Jaipur,"Plot No.- 96 Jem Vihar, Back Of Stadium, Sanganer Stadium, Gem Hospital, Jaipur - 302029, Dist.Jaipur, Rajasthan",8048372725,942
Printed Peach Ankle Length Maternity And Feeding Gown,https://www.indiamart.com/proddetail/peach-ankle-length-maternity-and-feeding-gown-22933005188.html?pos=197&kwd=feeding gown&tags=CC||||8211.142|Price|product|||NA|rsf:gd-|-stype:attr=1|qr_nm:gd|res:RC3|com-cf:nl|ptrs:na|ktp:N0|mc:190798|mtp:S|qry_typ:P|lang:en|wc:2|cs:8897|v=4,Govardhan Enterprise,https://www.indiamart.com/goverdhan-enterprise-mumbai/?pos=197&kwd=feeding gown&tags=CC||||8211.142|Price|product|||NA|rsf:gd-|-stype:attr=1|qr_nm:gd|res:RC3|com-cf:nl|ptrs:na|ktp:N0|mc:190798|mtp:S|qry_typ:P|lang:en|wc:2|cs:8897|v=4,False,,Mumbai,"4, New Panchganga Vistapit Society, Slum Colony, Pantnagar Ghatkopar East, Mumbai - 400075, Dist.Mumbai, Maharashtra",8048372478,311
"Embroidered ALPINE FEEDING NIGHTY, Half Sleeve",https://www.indiamart.com/proddetail/alpine-feeding-nighty-25619769455.html?pos=198&kwd=feeding gown&tags=CB||||8228.275|Price|product|||NA|rsf:gd-|-stype:attr=1|qr_nm:gd|res:RC3|com-cf:nl|ptrs:na|ktp:N0|mc:190798|mtp:S|qry_typ:P|lang:en|wc:2|cs:8897|v=4,Kalavati Fashion,https://www.indiamart.com/kalavatifashionahmedabad/?pos=198&kwd=feeding gown&tags=CB||||8228.275|Price|product|||NA|rsf:gd-|-stype:attr=1|qr_nm:gd|res:RC3|com-cf:nl|ptrs:na|ktp:N0|mc:190798|mtp:S|qry_typ:P|lang:en|wc:2|cs:8897|v=4,False,Sherkotda,Ahmedabad,"A-2010 And A-2011, 2nd Floor, City Center-2, Opp Arya Samaj Mandir, Raipur Kankaria Road, Sherkotda, Ahmedabad - 380001, Dist.Ahmedabad, Gujarat",7942540677,
Half Sleeve XXL Ladies Feeding Gown,https://www.indiamart.com/proddetail/ladies-feeding-gown-18978355530.html?pos=199&kwd=feeding gown&tags=CC||||8242.731|Price|product|||NA|rsf:gd-|-stype:attr=1|qr_nm:gd|res:RC3|com-cf:nl|ptrs:na|ktp:N0|mc:190798|mtp:S|qry_typ:P|lang:en|wc:2|cs:8897|v=4,Soni Gown Centre,https://www.indiamart.com/sonigown-centre/?pos=199&kwd=feeding gown&tags=CC||||8242.731|Price|product|||NA|rsf:gd-|-stype:attr=1|qr_nm:gd|res:RC3|com-cf:nl|ptrs:na|ktp:N0|mc:190798|mtp:S|qry_typ:P|lang:en|wc:2|cs:8897|v=4,False,Doodh Naka,Ulhasnagar,"Jhulelal Bazar, Doodh Naka, Ulhasnagar - 421005, Dist.Thane, Maharashtra",8048372692,931
Western Stitched Mothers Feeding Gown,https://www.indiamart.com/proddetail/mothers-feeding-gown-21541760291.html?pos=200&kwd=feeding gown&tags=CC||||9183.349|Price|product|||NA|rsf:gd-|-stype:attr=1|qr_nm:gd|res:RC3|com-cf:nl|ptrs:na|ktp:N0|mc:190798|mtp:S|qry_typ:P|lang:en|wc:2|cs:8897|v=4,Riddhi Siddhi Fashions,https://www.indiamart.com/riddhisiddhifashions/?pos=200&kwd=feeding gown&tags=CC||||9183.349|Price|product|||NA|rsf:gd-|-stype:attr=1|qr_nm:gd|res:RC3|com-cf:nl|ptrs:na|ktp:N0|mc:190798|mtp:S|qry_typ:P|lang:en|wc:2|cs:8897|v=4,False,,Kakinada,"Opposite Bank Of India, Temple Street 27-04-26, Kakinada - 533001, Dist.East Godavari, Andhra Pradesh",8048371989,281
Designer Gown For Women,https://www.indiamart.com/proddetail/designer-gown-for-women-2854924928512.html?pos=201&kwd=feeding gown&tags=||||8230.883|Price|proxy|||TS|rsf:gd-|-stype:attr=1|qr_nm:gd|res:RC3|com-cf:nl|ptrs:na|ktp:N0|mc:190798|mtp:S|qry_typ:P|lang:en|wc:2|cs:8897|v=4,Shree Ambe Enterprise,https://www.indiamart.com/shreeambeenterprise-surat/?pos=201&kwd=feeding gown&tags=||||8230.883|Price|proxy|||TS|rsf:gd-|-stype:attr=1|qr_nm:gd|res:RC3|com-cf:nl|ptrs:na|ktp:N0|mc:190798|mtp:S|qry_typ:P|lang:en|wc:2|cs:8897|v=4,False,Nana Varachha,Surat,"Shop No.104, As per Plan 103, First Floor, Leonard Square, Puna Simada Road, Nana Varachha, Surat - 395010, Dist.Surat, Gujarat",8047622565,
"Printed MIRU NIGHTY COTTON NIGHT GOWN, Half Sleeve",https://www.indiamart.com/proddetail/miru-nighty-cotton-night-gown-1012-2852911004897.html?pos=202&kwd=feeding gown&tags=||||8228.275|Price|proxy|||TS|rsf:gd-|-stype:attr=1|qr_nm:gd|res:RC3|com-cf:nl|ptrs:na|ktp:N0|mc:190798|mtp:S|qry_typ:P|lang:en|wc:2|cs:8897|v=4,Sanket Enterprise,https://www.indiamart.com/sanketenterprise-gujarat/?pos=202&kwd=feeding gown&tags=||||8228.275|Price|proxy|||TS|rsf:gd-|-stype:attr=1|qr_nm:gd|res:RC3|com-cf:nl|ptrs:na|ktp:N0|mc:190798|mtp:S|qry_typ:P|lang:en|wc:2|cs:8897|v=4,False,Raipur,Ahmedabad,"540, New Cloth Market, Raipur Road, Raipur, Ahmedabad - 380002, Dist.Ahmedabad, Gujarat",7942626038,
House Of Brands Fashion LLP,,House Of Brands Fashion LLP,https://www.chinawholesale.in/?pos=203&kwd=feeding gown&tags=||||8752.144||bl|||TS|rsf:gd-|-stype:attr=1|qr_nm:gd|res:RC3|com-cf:nl|ptrs:na|ktp:N0|mc:190798|mtp:S|qry_typ:P|lang:en|wc:2|cs:8897|v=4,False,,New Delhi,"3rd Floor, 5 And 6, E-Block, Mangolpuri Industrial Area, Phase II, New Delhi - 110083, Dist.Delhi, Delhi",7942545295,
Ladies Rayon Printed Gown Feeding Zip Maternity Yellow Kurti.,https://www.indiamart.com/proddetail/ladies-rayon-printed-gown-feeding-zip-maternity-yellow-kurti-2850660193612.html?pos=204&kwd=feeding gown&tags=CC||||8601.347|Price|product|||NA|rsf:gd-|-stype:attr=1|qr_nm:gd|res:RC3|com-cf:nl|ptrs:na|ktp:N0|mc:190798|mtp:S|qry_typ:P|lang:en|wc:2|cs:8897|v=4,NR Textiles Fashions,https://www.indiamart.com/nr-textiles-fashions/?pos=204&kwd=feeding gown&tags=CC||||8601.347|Price|product|||NA|rsf:gd-|-stype:attr=1|qr_nm:gd|res:RC3|com-cf:nl|ptrs:na|ktp:N0|mc:190798|mtp:S|qry_typ:P|lang:en|wc:2|cs:8897|v=4,False,,Jaipur,"35/70, Sector-3, Sheopur Road, Jaipur - 302033, Dist.Jaipur, Rajasthan",7942956701,
Printed Free Size Feeding Gown,https://www.indiamart.com/proddetail/feeding-gown-16595675391.html?pos=205&kwd=feeding gown&tags=CC||||8876.815|Price|product|||NA|rsf:gd-|-stype:attr=1|qr_nm:gd|res:RC3|com-cf:nl|ptrs:na|ktp:N0|mc:190798|mtp:S|qry_typ:P|lang:en|wc:2|cs:8897|v=4,Fabric Studio,https://www.indiamart.com/fabricstudio-nagpur/?pos=205&kwd=feeding gown&tags=CC||||8876.815|Price|product|||NA|rsf:gd-|-stype:attr=1|qr_nm:gd|res:RC3|com-cf:nl|ptrs:na|ktp:N0|mc:190798|mtp:S|qry_typ:P|lang:en|wc:2|cs:8897|v=4,False,New Sneh Nagar,Nagpur,"Malviya Nagar, Near Indraprastha Karlalay, New Sneh Nagar, Nagpur - 440025, Dist.Nagpur, Maharashtra",8048372665,237
Cotton Feeding Gown,,GG Enterprises,https://www.indiamart.com/ggenterprises-180496944/?pos=206&kwd=feeding gown&tags=CC||||8601.347||product|||NA|rsf:gd-|-stype:attr=1|qr_nm:gd|res:RC3|com-cf:nl|ptrs:na|ktp:N0|mc:190798|mtp:S|qry_typ:P|lang:en|wc:2|cs:8897|v=4,False,,Jaipur,"23 Arjun Puri imli vala phatak Jaipur, Jaipur - 302029, Dist.Jaipur, Rajasthan",8069416029,506
Black Fabric: Crepe Feeding Gown,https://www.indiamart.com/proddetail/feeding-gown-25770070248.html?pos=207&kwd=feeding gown&tags=CC||||8230.883|Price|product|||NA|rsf:gd-|-stype:attr=1|qr_nm:gd|res:RC3|com-cf:nl|ptrs:na|ktp:N0|mc:190798|mtp:S|qry_typ:P|lang:en|wc:2|cs:8897|v=4,Knock Knock Studio,https://www.indiamart.com/knock-knock-studio/?pos=207&kwd=feeding gown&tags=CC||||8230.883|Price|product|||NA|rsf:gd-|-stype:attr=1|qr_nm:gd|res:RC3|com-cf:nl|ptrs:na|ktp:N0|mc:190798|mtp:S|qry_typ:P|lang:en|wc:2|cs:8897|v=4,False,,Surat,"1st Floor, 175 Kubernagar-1 Katargam Darwaja Surat, Surat - 395004, Dist.Surat, Gujarat",8047624363,
Feeding Gown,,TR Jaiswal Fashion Store,https://www.indiamart.com/netsoftinformatics/?pos=208&kwd=feeding gown&tags=CB||||8788.382|Price|product|||NA|rsf:gd-|-stype:attr=1|qr_nm:gd|res:RC3|com-cf:nl|ptrs:na|ktp:N0|mc:190798|mtp:S|qry_typ:P|lang:en|wc:2|cs:8897|v=4,False,Greater Noida West,Greater Noida,"GREATER NOIDA WEST,SITUATED AT GREATER NOIDA WEST, SECTOR 16 B, SHOP NO-F-37 SKY PLAZA,Greater Noid Greater Noida WestGreater Noida West, Sector 16 B, Shop No-f-37,201308,Gautam Budh Nagar, Greater Noida West, Greater Noida - 201318, Dist.Gautam Budh Nagar, Uttar Pradesh",8048372153,429
"Casual Pink Ladies Printed Alpine Gown, Size: L",https://www.indiamart.com/proddetail/pink-ladies-printed-alpine-gown-21084436188.html?pos=209&kwd=feeding gown&tags=||||8515.687|Price|proxy|||TS|rsf:gd-|-stype:attr=1|qr_nm:gd|res:RC3|com-cf:nl|ptrs:na|ktp:N0|mc:190798|mtp:S|qry_typ:P|lang:en|wc:2|cs:8897|v=4,Osia Traders,https://www.indiamart.com/osia-life-style/?pos=209&kwd=feeding gown&tags=||||8515.687|Price|proxy|||TS|rsf:gd-|-stype:attr=1|qr_nm:gd|res:RC3|com-cf:nl|ptrs:na|ktp:N0|mc:190798|mtp:S|qry_typ:P|lang:en|wc:2|cs:8897|v=4,False,Mangalwar Peth,Solapur,"C.s.no.2589/a, Mh No.437 Shop No 7 Status Symbol, Chati Galli West Mangalwar Peth, Mangalwar Peth, Solapur - 413002, Dist.Solapur, Maharashtra",8047634583,
"Ethnic Nightgowns, Stitched",https://www.indiamart.com/proddetail/nightgowns-22596590012.html?pos=210&kwd=feeding gown&tags=||||8774.064|Price|proxy|||TS|rsf:gd-|-stype:attr=1|qr_nm:gd|res:RC3|com-cf:nl|ptrs:na|ktp:N0|mc:190798|mtp:S|qry_typ:P|lang:en|wc:2|cs:8897|v=4,K.M Silks,https://www.indiamart.com/kmsilks/?pos=210&kwd=feeding gown&tags=||||8774.064|Price|proxy|||TS|rsf:gd-|-stype:attr=1|qr_nm:gd|res:RC3|com-cf:nl|ptrs:na|ktp:N0|mc:190798|mtp:S|qry_typ:P|lang:en|wc:2|cs:8897|v=4,False,Sembakkam,Tiruchirappalli,"106 / 4, 1ST FLOOR PREME APARTMENTS, KEENADY STREET, KAMARAJ NAGAR, Sembakkam, Tiruchirappalli - 620007, Dist.Tiruchirappalli, Tamil Nadu",7942562779,
