product_title,product_link,company_name,company_link,is_verified_exporter,city_region,city,address_details,phone_number,phone_number_extension
"Red Three fourth sleeve Feeding Kurti Feeding Dress, Size: XXL",https://www.indiamart.com/proddetail/feeding-kurti-feeding-dress-2852611818855.html?pos=1&kwd=feeding dress&tags=A||||8601.347|Price|product|||TS|rsf:gd-|-stype:attr=1|qr_nm:gd|res:RC3|com-cf:nl|ptrs:na|ktp:N0|mc:190782|mtp:S|qry_typ:P|lang:en|wc:2|flavl:3|cs:9656|v=4,Namokar Enterprises,https://www.indiamart.com/namokarenterprises/?pos=1&kwd=feeding dress&tags=A||||8601.347|Price|product|||TS|rsf:gd-|-stype:attr=1|qr_nm:gd|res:RC3|com-cf:nl|ptrs:na|ktp:N0|mc:190782|mtp:S|qry_typ:P|lang:en|wc:2|flavl:3|cs:9656|v=4,False,Mansarovar,Jaipur,"119/67, Thadi Market, Agarwal Farm, Mansarovar, Mansarovar, Jaipur - 302020, Dist.Jaipur, Rajasthan",8047530717,
Green Feeding Dress,https://www.indiamart.com/proddetail/feeding-dress-10785533891.html?pos=2&kwd=feeding dress&tags=A||||8601.347|Price|product|||LSnp|rsf:gd-|-stype:attr=1|qr_nm:gd|res:RC3|com-cf:nl|ptrs:na|ktp:N0|mc:190782|mtp:S|qry_typ:P|lang:en|wc:2|flavl:3|cs:9656|v=4,Jaipuri Bandhej,https://www.jaipuribandhej.net/?pos=2&kwd=feeding dress&tags=A||||8601.347|Price|product|||LSnp|rsf:gd-|-stype:attr=1|qr_nm:gd|res:RC3|com-cf:nl|ptrs:na|ktp:N0|mc:190782|mtp:S|qry_typ:P|lang:en|wc:2|flavl:3|cs:9656|v=4,False,Vidhyadhar Nagar,Jaipur,"Laxmi Niwas, 42-A, Hans Vatika Naya Khera, Vidhyadhar Nagar, Vidhyadhar Nagar, Jaipur - 302039, Dist.Jaipur, Rajasthan",8048619795,
"Multicolor Half Cotton Feeding Dress, Size: Free",https://www.indiamart.com/proddetail/cotton-feeding-dress-2852798499997.html?pos=3&kwd=feeding dress&tags=A||||8626.744|Price|product|||TS|rsf:gd-|-stype:attr=1|qr_nm:gd|res:RC3|com-cf:nl|ptrs:na|ktp:N0|mc:190782|mtp:S|qry_typ:P|lang:en|wc:2|flavl:3|cs:9656|v=4,Rainbow Creations,https://www.indiamart.com/rainbowcreations/?pos=3&kwd=feeding dress&tags=A||||8626.744|Price|product|||TS|rsf:gd-|-stype:attr=1|qr_nm:gd|res:RC3|com-cf:nl|ptrs:na|ktp:N0|mc:190782|mtp:S|qry_typ:P|lang:en|wc:2|flavl:3|cs:9656|v=4,False,Renganatha Puram,Tiruppur,"No. 7- 24, murugasamy layout 1street, Renganatha Puram, Tiruppur - 641607, Dist.Coimbatore, Tamil Nadu",8048955272,
Feeding Dress,https://www.indiamart.com/proddetail/feeding-dress-2853132531133.html?pos=4&kwd=feeding dress&tags=A||||8601.347|Price|product|||MDC|rsf:gd-|-stype:attr=1|qr_nm:gd|res:RC3|com-cf:nl|ptrs:na|ktp:N0|mc:190782|mtp:S|qry_typ:P|lang:en|wc:2|flavl:3|cs:9656|v=4,Runway Enterprises,https://www.indiamart.com/runwayenterprises/?pos=4&kwd=feeding dress&tags=A||||8601.347|Price|product|||MDC|rsf:gd-|-stype:attr=1|qr_nm:gd|res:RC3|com-cf:nl|ptrs:na|ktp:N0|mc:190782|mtp:S|qry_typ:P|lang:en|wc:2|flavl:3|cs:9656|v=4,False,Jamna Puri,Jaipur,"Plot No 133, Benar Road, Scheme Shri Jorawar Nagar,, Jamna Puri, Jaipur - 302039, Dist.Jaipur, Rajasthan",7942718276,
Pink Feeding Maxi Dress,https://www.indiamart.com/proddetail/feeding-maxi-dress-23033263091.html?pos=5&kwd=feeding dress&tags=A||||8601.347|Price|product|||TS|rsf:gd-|-stype:attr=1|qr_nm:gd|res:RC3|com-cf:nl|ptrs:na|ktp:N0|mc:190782|mtp:S|qry_typ:P|lang:en|wc:2|flavl:3|cs:9656|v=4,Mudrika Fashions (A Brand of Silver Organisation),https://www.indiamart.com/silverorganisation/?pos=5&kwd=feeding dress&tags=A||||8601.347|Price|product|||TS|rsf:gd-|-stype:attr=1|qr_nm:gd|res:RC3|com-cf:nl|ptrs:na|ktp:N0|mc:190782|mtp:S|qry_typ:P|lang:en|wc:2|flavl:3|cs:9656|v=4,False,Luniawas,Jaipur,"A-1, Kanji Nagar, Luniawas, Jaipur - 302031, Dist.Jaipur, Rajasthan",8046042577,
Feeding Dress,https://www.indiamart.com/proddetail/feeding-dress-2851639917973.html?pos=6&kwd=feeding dress&tags=A||||8601.347|Price|product|||TS|rsf:gd-|-stype:attr=1|qr_nm:gd|res:RC3|com-cf:nl|ptrs:na|ktp:N0|mc:190782|mtp:S|qry_typ:P|lang:en|wc:2|flavl:3|cs:9656|v=4,Hkf Jaipur Industries Private Limited,https://www.hkfjaipurindustries.com/?pos=6&kwd=feeding dress&tags=A||||8601.347|Price|product|||TS|rsf:gd-|-stype:attr=1|qr_nm:gd|res:RC3|com-cf:nl|ptrs:na|ktp:N0|mc:190782|mtp:S|qry_typ:P|lang:en|wc:2|flavl:3|cs:9656|v=4,False,Sanganer Shri Rampura,Jaipur,"PLOT NO. 72, 1ST FLOOR, GOPI NAGAR, RAILWAY STATION ROAD,, Sanganer Shri Rampura, Jaipur - 302029, Dist.Jaipur, Rajasthan",8047674124,
Ladies Hosiery Cotton Feeding Nighty,https://www.indiamart.com/proddetail/ladies-hosiery-cotton-feeding-nighty-2853761695455.html?pos=7&kwd=feeding dress&tags=A||||8752.144|Price|product|||TS|rsf:gd-|-stype:attr=1|qr_nm:gd|res:RC3|com-cf:nl|ptrs:na|ktp:N0|mc:190782|mtp:S|qry_typ:P|lang:en|wc:2|flavl:3|cs:9656|v=4,Aggarwal & Sons,https://www.indiamart.com/aggarwal-sons-dehli/?pos=7&kwd=feeding dress&tags=A||||8752.144|Price|product|||TS|rsf:gd-|-stype:attr=1|qr_nm:gd|res:RC3|com-cf:nl|ptrs:na|ktp:N0|mc:190782|mtp:S|qry_typ:P|lang:en|wc:2|flavl:3|cs:9656|v=4,False,Karawal Nagar,New Delhi,"H No.-3 G/f Kh No.-5/27/1 ,Main Road Kamal Vihar Nr Police Station, Karawal Nagar, New Delhi - 110094, Dist.Delhi, Delhi",7942804253,
"3/4 Sleeve Feeding Anarkali Kurtis, XL",https://www.indiamart.com/proddetail/feeding-anarkali-kurtis-2852226385833.html?pos=8&kwd=feeding dress&tags=A||||8601.347|Price|product|||TS|rsf:gd-|-stype:attr=1|qr_nm:gd|res:RC3|com-cf:nl|ptrs:na|ktp:N0|mc:190782|mtp:S|qry_typ:P|lang:en|wc:2|flavl:3|cs:9656|v=4,Luxury Fashion,https://www.indiamart.com/luxury-fashion/?pos=8&kwd=feeding dress&tags=A||||8601.347|Price|product|||TS|rsf:gd-|-stype:attr=1|qr_nm:gd|res:RC3|com-cf:nl|ptrs:na|ktp:N0|mc:190782|mtp:S|qry_typ:P|lang:en|wc:2|flavl:3|cs:9656|v=4,False,Sanganer Bazar,Jaipur,"Plot No 13, Suraj Nagar, Dadabadi, Sanganer,, Sanganer Bazar, Jaipur - 302029, Dist.Jaipur, Rajasthan",7942707166,
Cotton Ladies Feeding Dress,https://www.indiamart.com/proddetail/ladies-feeding-dress-2854258268630.html?pos=9&kwd=feeding dress&tags=A||||8601.347|Price|product|||TS|rsf:gd-|-stype:attr=1|qr_nm:gd|res:RC3|com-cf:nl|ptrs:na|ktp:N0|mc:190782|mtp:S|qry_typ:P|lang:en|wc:2|flavl:3|cs:9656|v=4,Pooja Trends,https://www.indiamart.com/poojatrends-jaipur/?pos=9&kwd=feeding dress&tags=A||||8601.347|Price|product|||TS|rsf:gd-|-stype:attr=1|qr_nm:gd|res:RC3|com-cf:nl|ptrs:na|ktp:N0|mc:190782|mtp:S|qry_typ:P|lang:en|wc:2|flavl:3|cs:9656|v=4,False,Sanganer Jaipur,Jaipur,"Nk Tower , Shop no. 3 Nagar Nigam Road, Sanganer Jaipur, Jaipur - 302029, Dist.Jaipur, Rajasthan",8048211271,
"Small Ladies Short Cotton Kurtis, Printed",https://www.indiamart.com/proddetail/ladies-short-cotton-kurtis-2854860804555.html?pos=10&kwd=feeding dress&tags=A||||8230.883|Price|product|||TS|rsf:gd-|-stype:attr=1|qr_nm:gd|res:RC3|com-cf:nl|ptrs:na|ktp:N0|mc:190782|mtp:S|qry_typ:P|lang:en|wc:2|flavl:3|cs:9656|v=4,Fashion Gaon,https://www.indiamart.com/fashiongaon/?pos=10&kwd=feeding dress&tags=A||||8230.883|Price|product|||TS|rsf:gd-|-stype:attr=1|qr_nm:gd|res:RC3|com-cf:nl|ptrs:na|ktp:N0|mc:190782|mtp:S|qry_typ:P|lang:en|wc:2|flavl:3|cs:9656|v=4,False,Shashwat Plaza Parvat Patiya,Surat,"Shashwat Plaza, Puna Brts,Canal Road, 7600124242, Shashwat Plaza Parvat Patiya, Surat - 395010, Dist.Surat, Gujarat",7942710160,
"Multicolor Three fourth sleeve Women Feeding Dresses, Size: Free",https://www.indiamart.com/proddetail/women-feeding-dresses-2852698562662.html?pos=11&kwd=feeding dress&tags=A||||8601.347|Price|product|||TS|rsf:gd-|-stype:attr=1|qr_nm:gd|res:RC3|com-cf:nl|ptrs:na|ktp:N0|mc:190782|mtp:S|qry_typ:P|lang:en|wc:2|flavl:3|cs:9656|v=4,Rama Exports,https://www.indiamart.com/ramaexportsjaipur/?pos=11&kwd=feeding dress&tags=A||||8601.347|Price|product|||TS|rsf:gd-|-stype:attr=1|qr_nm:gd|res:RC3|com-cf:nl|ptrs:na|ktp:N0|mc:190782|mtp:S|qry_typ:P|lang:en|wc:2|flavl:3|cs:9656|v=4,False,Ghat Ki Guni,Jaipur,"Plot No 19-B,Ambedkar Colony,Durga Pura Bypass Tonk Road,Jaipur, Ghat Ki Guni, Jaipur - 302018, Dist.Jaipur, Rajasthan",7942868623,
Multicolor Feeding Kurti Feeding Dress,https://www.indiamart.com/proddetail/feeding-kurti-feeding-dress-26791949112.html?pos=12&kwd=feeding dress&tags=A||||8601.347|Price|product|||LSnp|rsf:gd-|-stype:attr=1|qr_nm:gd|res:RC3|com-cf:nl|ptrs:na|ktp:N0|mc:190782|mtp:S|qry_typ:P|lang:en|wc:2|flavl:3|cs:9656|v=4,Ganpati Handicrafts,https://www.ganpatihandicrafts.com/?pos=12&kwd=feeding dress&tags=A||||8601.347|Price|product|||LSnp|rsf:gd-|-stype:attr=1|qr_nm:gd|res:RC3|com-cf:nl|ptrs:na|ktp:N0|mc:190782|mtp:S|qry_typ:P|lang:en|wc:2|flavl:3|cs:9656|v=4,False,Kundan Nagar,Jaipur,"Ganpati Handicrafts, Paliwal Garden Behind Salim Kazgi Industry, Sanganer, Kundan Nagar, Jaipur - 302029, Dist.Jaipur, Rajasthan",8046061432,
Green Leaf Printed Maternity Feeding Dress,https://www.indiamart.com/proddetail/green-leaf-printed-maternity-feeding-dress-2854004759688.html?pos=13&kwd=feeding dress&tags=A||||8601.347|Price|product|||MDC|rsf:gd-|-stype:attr=1|qr_nm:gd|res:RC3|com-cf:nl|ptrs:na|ktp:N0|mc:190782|mtp:S|qry_typ:P|lang:en|wc:2|flavl:3|cs:9656|v=4,Aditya Enterprises,https://www.indiamart.com/adityaenterprises-jaipurrajasthan/?pos=13&kwd=feeding dress&tags=A||||8601.347|Price|product|||MDC|rsf:gd-|-stype:attr=1|qr_nm:gd|res:RC3|com-cf:nl|ptrs:na|ktp:N0|mc:190782|mtp:S|qry_typ:P|lang:en|wc:2|flavl:3|cs:9656|v=4,False,Murlipura,Jaipur,"First Floor, Plot No.330, MDS Tirvedi Complex, Flate No G-2, Shiv Nagar-I, Murlipura, Murlipura, Jaipur - 302039, Dist.Jaipur, Rajasthan",8044011776,
Rayon Feeding Kurtis,https://www.indiamart.com/proddetail/feeding-kurtis-2854202692933.html?pos=14&kwd=feeding dress&tags=A||||8211.142|Price|product|||MDC|rsf:gd-|-stype:attr=1|qr_nm:gd|res:RC3|com-cf:nl|ptrs:na|ktp:N0|mc:190782|mtp:S|qry_typ:P|lang:en|wc:2|flavl:3|cs:9656|v=4,Dhanlaxmi Creation,https://www.indiamart.com/dhanlaxmi-creationmumbai/?pos=14&kwd=feeding dress&tags=A||||8211.142|Price|product|||MDC|rsf:gd-|-stype:attr=1|qr_nm:gd|res:RC3|com-cf:nl|ptrs:na|ktp:N0|mc:190782|mtp:S|qry_typ:P|lang:en|wc:2|flavl:3|cs:9656|v=4,False,Dadar West,Mumbai,"Ground Floor, G-101, Dadar Manish Market, Near Dadar Railway Station, Dadar West,, Dadar West, Mumbai - 400028, Dist.Mumbai, Maharashtra",8044562073,
"Multicolor Cotton Maternity Dresses, Size: Free",https://www.indiamart.com/proddetail/cotton-maternity-dresses-2853373885691.html?pos=15&kwd=feeding dress&tags=A||||8626.744|Price|product|||MDC|rsf:gd-|-stype:attr=1|qr_nm:gd|res:RC3|com-cf:nl|ptrs:na|ktp:N0|mc:190782|mtp:S|qry_typ:P|lang:en|wc:2|cs:8890|v=4,Elshada Clothing,https://www.indiamart.com/elshada-clothing-tiruppur/?pos=15&kwd=feeding dress&tags=A||||8626.744|Price|product|||MDC|rsf:gd-|-stype:attr=1|qr_nm:gd|res:RC3|com-cf:nl|ptrs:na|ktp:N0|mc:190782|mtp:S|qry_typ:P|lang:en|wc:2|cs:8890|v=4,False,Padmavathi Puram,Tiruppur,"105A Ashar Mill Labour Colony, Padmavathipuram, Padmavathi Puram, Tiruppur - 641603, Dist.Coimbatore, Tamil Nadu",7942720305,
Ladies Blue Rayon Printed Feeding Anarkali Kurti,https://www.indiamart.com/proddetail/ladies-blue-rayon-printed-feeding-anarkali-kurti-2854750801673.html?pos=16&kwd=feeding dress&tags=A||||8601.347|Price|product|||MDC|rsf:gd-|-stype:attr=1|qr_nm:gd|res:RC3|com-cf:nl|ptrs:na|ktp:N0|mc:190782|mtp:S|qry_typ:P|lang:en|wc:2|cs:8890|v=4,Ajesh Traders,https://www.indiamart.com/ajesh-tradersjaipur/?pos=16&kwd=feeding dress&tags=A||||8601.347|Price|product|||MDC|rsf:gd-|-stype:attr=1|qr_nm:gd|res:RC3|com-cf:nl|ptrs:na|ktp:N0|mc:190782|mtp:S|qry_typ:P|lang:en|wc:2|cs:8890|v=4,False,,Jaipur,"53 Jamdoli Road, Agra Road, Behind Marudhar School, Bharat Vihar B, Jaipur - 302031, Dist.Jaipur, Rajasthan",8044459778,
Momtobe Women's Rayon Teal Green Maternity Feeding Nursing Maternity Dress,https://www.indiamart.com/proddetail/momtobe-women-s-rayon-teal-green-maternity-feeding-nursing-maternity-dress-2853110315748.html?pos=17&kwd=feeding dress&tags=A||||8228.275|Price|product|||TS|rsf:gd-|-stype:attr=1|qr_nm:gd|res:RC3|com-cf:nl|ptrs:na|ktp:N0|mc:190782|mtp:S|qry_typ:P|lang:en|wc:2|cs:8890|v=4,K. Kushal Kumar,https://www.indiamart.com/kkushalkumar/?pos=17&kwd=feeding dress&tags=A||||8228.275|Price|product|||TS|rsf:gd-|-stype:attr=1|qr_nm:gd|res:RC3|com-cf:nl|ptrs:na|ktp:N0|mc:190782|mtp:S|qry_typ:P|lang:en|wc:2|cs:8890|v=4,False,Girdhar Nagar,Ahmedabad,"C Block, Fourth Floor Shop No. 413/A City Centre, Near Asarva Bridge, Idgah Road,Ahmedabad, Girdhar Nagar, Ahmedabad - 380016, Dist.Ahmedabad, Gujarat",7942702493,
Green XL 28 Cotton Feeding Nighties,https://www.indiamart.com/proddetail/xl-28-cotton-feeding-nighties-2853607874862.html?pos=18&kwd=feeding dress&tags=A||||8614.311|Price|product|||MDC|rsf:gd-|-stype:attr=1|qr_nm:gd|res:RC3|com-cf:nl|ptrs:na|ktp:N0|mc:190782|mtp:S|qry_typ:P|lang:en|wc:2|cs:8890|v=4,Kushi Nighties & Garments,https://www.indiamart.com/kushi-nighties-garments/?pos=18&kwd=feeding dress&tags=A||||8614.311|Price|product|||MDC|rsf:gd-|-stype:attr=1|qr_nm:gd|res:RC3|com-cf:nl|ptrs:na|ktp:N0|mc:190782|mtp:S|qry_typ:P|lang:en|wc:2|cs:8890|v=4,False,Padikkattupalli,Tenkasi,"2-11-51, Tenkasi-Madurai Main Road, Elathoor, Shengottai Tk, Padikkattupalli, Tenkasi - 627803, Dist.Tirunelveli, Tamil Nadu",8045165561,
"Multicolor Three fourth sleeve Feeding Dress, Size: XL",https://www.indiamart.com/proddetail/feeding-dress-2853346517155.html?pos=19&kwd=feeding dress&tags=A||||8786.56|Price|product|||TS|rsf:gd-|-stype:attr=1|qr_nm:gd|res:RC3|com-cf:nl|ptrs:na|ktp:N0|mc:190782|mtp:S|qry_typ:P|lang:en|wc:2|cs:8890|v=4,Y. S. Traders,https://www.indiamart.com/ystraders/?pos=19&kwd=feeding dress&tags=A||||8786.56|Price|product|||TS|rsf:gd-|-stype:attr=1|qr_nm:gd|res:RC3|com-cf:nl|ptrs:na|ktp:N0|mc:190782|mtp:S|qry_typ:P|lang:en|wc:2|cs:8890|v=4,False,Pathar Gatti,Hyderabad,"Shop No. 8, 4th Floor, I Square Tower, Dewan Devdi, Charminar, Pathar Gatti, Hyderabad - 500002, Dist.Hyderabad, Telangana",8047633157,
Half Sleeves Full length Ladies Feeding Dress,https://www.indiamart.com/proddetail/full-length-ladies-feeding-dress-21334296233.html?pos=20&kwd=feeding dress&tags=A||||8668.838|Price|product|||TS|rsf:gd-|-stype:attr=1|qr_nm:gd|res:RC3|com-cf:nl|ptrs:na|ktp:N0|mc:190782|mtp:S|qry_typ:P|lang:en|wc:2|cs:8890|v=4,Naveen Garments,https://www.indiamart.com/naveengarments-erode/?pos=20&kwd=feeding dress&tags=A||||8668.838|Price|product|||TS|rsf:gd-|-stype:attr=1|qr_nm:gd|res:RC3|com-cf:nl|ptrs:na|ktp:N0|mc:190782|mtp:S|qry_typ:P|lang:en|wc:2|cs:8890|v=4,False,Veerappanchatram,Erode,"73, Municipal Colony, Thiru Vee Ka Road, Veerappan Chattram, Veerappanchatram, Erode - 638004, Dist.Erode, Tamil Nadu",7942557239,
Cotton Feeding Nighty,https://www.indiamart.com/proddetail/cotton-feeding-nighty-2849146585873.html?pos=21&kwd=feeding dress&tags=A||||8228.275|Price|product|||TS|rsf:gd-|-stype:attr=1|qr_nm:gd|res:RC3|com-cf:nl|ptrs:na|ktp:N0|mc:190782|mtp:S|qry_typ:P|lang:en|wc:2|cs:8890|v=4,Simran Nightwear,https://www.indiamart.com/jai-adeshwar-textile/?pos=21&kwd=feeding dress&tags=A||||8228.275|Price|product|||TS|rsf:gd-|-stype:attr=1|qr_nm:gd|res:RC3|com-cf:nl|ptrs:na|ktp:N0|mc:190782|mtp:S|qry_typ:P|lang:en|wc:2|cs:8890|v=4,False,,Ahmedabad,"43/1/A/1, Bohra House Navneet Prakashan Building, Nr Uttam Dairy Sukhramnagar Rakhial, Ahmedabad - 380021, Dist.Ahmedabad, Gujarat",8047632003,
Cotton Feeding Nighties,https://www.indiamart.com/proddetail/cotton-feeding-nighties-2854569704330.html?pos=22&kwd=feeding dress&tags=A||||8626.744|Price|product|||TS|rsf:gd-|-stype:attr=1|qr_nm:gd|res:RC3|com-cf:nl|ptrs:na|ktp:N0|mc:190782|mtp:S|qry_typ:P|lang:en|wc:2|cs:8890|v=4,RVR Garments,https://www.indiamart.com/rvr-garments-tiruppur/?pos=22&kwd=feeding dress&tags=A||||8626.744|Price|product|||TS|rsf:gd-|-stype:attr=1|qr_nm:gd|res:RC3|com-cf:nl|ptrs:na|ktp:N0|mc:190782|mtp:S|qry_typ:P|lang:en|wc:2|cs:8890|v=4,False,Weavers Colony,Tiruppur,"4-1/19, Babuji Nagar 3rd Street,Kumarananthapuram, Weavers Colony, Tiruppur - 641602, Dist.Coimbatore, Tamil Nadu",7942962984,
Cotton Mother Feeding Kurtis,https://www.indiamart.com/proddetail/mother-feeding-kurtis-2854079149748.html?pos=23&kwd=feeding dress&tags=A||||8601.347|Price|product|||MDC|rsf:gd-|-stype:attr=1|qr_nm:gd|res:RC3|com-cf:nl|ptrs:na|ktp:N0|mc:190782|mtp:S|qry_typ:P|lang:en|wc:2|cs:8890|v=4,Mishika Fashion,https://www.indiamart.com/mishika-fashion/?pos=23&kwd=feeding dress&tags=A||||8601.347|Price|product|||MDC|rsf:gd-|-stype:attr=1|qr_nm:gd|res:RC3|com-cf:nl|ptrs:na|ktp:N0|mc:190782|mtp:S|qry_typ:P|lang:en|wc:2|cs:8890|v=4,False,Goardhan Nagar,Jaipur,"Plot No 40 Shiksha Sagar Govind Pura Jaipur Jaipur, Goardhan Nagar, Jaipur - 302029, Dist.Jaipur, Rajasthan",7949372347,
Georgette feeding dress,https://www.indiamart.com/proddetail/georgette-feeding-dress-2854945269491.html?pos=24&kwd=feeding dress&tags=A||||8584.299|Price|product|||MDC|rsf:gd-|-stype:attr=1|qr_nm:gd|res:RC3|com-cf:nl|ptrs:na|ktp:N0|mc:190782|mtp:S|qry_typ:P|lang:en|wc:2|cs:8890|v=4,Emma Fashions,https://www.indiamart.com/emma-fashions/?pos=24&kwd=feeding dress&tags=A||||8584.299|Price|product|||MDC|rsf:gd-|-stype:attr=1|qr_nm:gd|res:RC3|com-cf:nl|ptrs:na|ktp:N0|mc:190782|mtp:S|qry_typ:P|lang:en|wc:2|cs:8890|v=4,False,,Coimbatore,"2/62, Shanmuga Nagar, Sanganoor Main Road, Rathinapuri, Coimbatore - 641027, Dist.Coimbatore, Tamil Nadu",8047832283,
Rayon Feeding Kurtis,https://www.indiamart.com/proddetail/feeding-kurtis-2853950315597.html?pos=25&kwd=feeding dress&tags=A||||8211.142|Price|product|||TS|rsf:gd-|-stype:attr=1|qr_nm:gd|res:RC3|com-cf:nl|ptrs:na|ktp:N0|mc:190782|mtp:S|qry_typ:P|lang:en|wc:2|cs:8890|v=4,Poonam Garment,https://www.indiamart.com/poonamgarment-mumbai/?pos=25&kwd=feeding dress&tags=A||||8211.142|Price|product|||TS|rsf:gd-|-stype:attr=1|qr_nm:gd|res:RC3|com-cf:nl|ptrs:na|ktp:N0|mc:190782|mtp:S|qry_typ:P|lang:en|wc:2|cs:8890|v=4,False,Bandra East,Mumbai,"Makrani Cross Galli, Room No. 78, Behram Nagar, A. K. Marg, Bandra - East, Mumbai Suburban, Bandra East, Mumbai - 400051, Dist.Mumbai, Maharashtra",8047847659,
Red Three fourth sleeve Maternity Feeding Night Dresses,https://www.indiamart.com/proddetail/maternity-feeding-night-dresses-2851572449555.html?pos=26&kwd=feeding dress&tags=A||||8601.347|Price|product|||TS|rsf:gd-|-stype:attr=1|qr_nm:gd|res:RC3|com-cf:nl|ptrs:na|ktp:N0|mc:190782|mtp:S|qry_typ:P|lang:en|wc:2|cs:8890|v=4,Aanadhya Fashion,https://www.indiamart.com/aanadhya-fashion-jaipur/?pos=26&kwd=feeding dress&tags=A||||8601.347|Price|product|||TS|rsf:gd-|-stype:attr=1|qr_nm:gd|res:RC3|com-cf:nl|ptrs:na|ktp:N0|mc:190782|mtp:S|qry_typ:P|lang:en|wc:2|cs:8890|v=4,False,Shikarpura,Jaipur,"14, Govind Nagar, Goolar Ka Bandha, Shikarpura Road, Sanganer, Shikarpura, Jaipur - 302029, Dist.Jaipur, Rajasthan",7942958103,
Rayon Maternity Feeding Kurti,https://www.indiamart.com/proddetail/maternity-feeding-kurti-2854527687962.html?pos=27&kwd=feeding dress&tags=A||||8228.275|Price|product|||MDC|rsf:gd-|-stype:attr=1|qr_nm:gd|res:RC3|com-cf:nl|ptrs:na|ktp:N0|mc:190782|mtp:S|qry_typ:P|lang:en|wc:2|cs:8890|v=4,Bayosa Impex,https://www.indiamart.com/bayosaimpex-ahmedabad/?pos=27&kwd=feeding dress&tags=A||||8228.275|Price|product|||MDC|rsf:gd-|-stype:attr=1|qr_nm:gd|res:RC3|com-cf:nl|ptrs:na|ktp:N0|mc:190782|mtp:S|qry_typ:P|lang:en|wc:2|cs:8890|v=4,False,Gordhanwadi,Ahmedabad,"3rd Floor,D/325,Sumel Business Park-II,NR Vanijybhavan,Kankaria, Gordhanwadi, Ahmedabad - 380022, Dist.Ahmedabad, Gujarat",8044010259,
Ladies Feeding Kurtis,https://www.indiamart.com/proddetail/ladies-feeding-kurtis-23859148897.html?pos=28&kwd=feeding dress&tags=BA||||8228.275|Price|product|||TS|rsf:gd-|-stype:attr=1|qr_nm:gd|res:RC3|com-cf:nl|ptrs:na|ktp:N0|mc:190782|mtp:S|qry_typ:P|lang:en|wc:2|cs:8890|v=4,Maa Sachiyay Fashion,https://www.maasachiyayfashion.com/?pos=28&kwd=feeding dress&tags=BA||||8228.275|Price|product|||TS|rsf:gd-|-stype:attr=1|qr_nm:gd|res:RC3|com-cf:nl|ptrs:na|ktp:N0|mc:190782|mtp:S|qry_typ:P|lang:en|wc:2|cs:8890|v=4,False,Prem Darwaza,Ahmedabad,"D-32, 3rd Floor Sumel Business Park -4 Amdupura, Kalupur, Prem Darwaza, Ahmedabad - 380002, Dist.Ahmedabad, Gujarat",8048604630,
"Printed Rayon Feeding / maternity short nighty slip, Half Sleeve",https://www.indiamart.com/proddetail/rayon-feeding-maternity-short-nighty-slip-2853172983948.html?pos=29&kwd=feeding dress&tags=A||||8211.142|Price|product|||TS|rsf:gd-|-stype:attr=1|qr_nm:gd|res:RC3|com-cf:nl|ptrs:na|ktp:N0|mc:190782|mtp:S|qry_typ:P|lang:en|wc:2|cs:8890|v=4,Anmol Hosiery,https://www.indiamart.com/anmolhosiery/?pos=29&kwd=feeding dress&tags=A||||8211.142|Price|product|||TS|rsf:gd-|-stype:attr=1|qr_nm:gd|res:RC3|com-cf:nl|ptrs:na|ktp:N0|mc:190782|mtp:S|qry_typ:P|lang:en|wc:2|cs:8890|v=4,False,Borivali East,Mumbai,"24/173, Kuldeep Society, Borivali East, Borivali East, Mumbai - 400066, Dist.Mumbai, Maharashtra",8048987762,
"Black Three fourth sleeve Feeding Dress, Size: Free",https://www.indiamart.com/proddetail/feeding-dress-2853276082033.html?pos=30&kwd=feeding dress&tags=A||||8601.347|Price|product|||TS|rsf:gd-|-stype:attr=1|qr_nm:gd|res:RC3|com-cf:nl|ptrs:na|ktp:N0|mc:190782|mtp:S|qry_typ:P|lang:en|wc:2|cs:8890|v=4,Aaivan Fashion Hubb,https://www.indiamart.com/aaivanfashionhub/?pos=30&kwd=feeding dress&tags=A||||8601.347|Price|product|||TS|rsf:gd-|-stype:attr=1|qr_nm:gd|res:RC3|com-cf:nl|ptrs:na|ktp:N0|mc:190782|mtp:S|qry_typ:P|lang:en|wc:2|cs:8890|v=4,False,Sitapura Industrial Area,Jaipur,"2nd Floor, C-49 Raj Complex, Sitapura Industrial Area, Sitapura Industrial Area, Jaipur - 302022, Dist.Jaipur, Rajasthan",7942714492,
Cotton Mother Feeding Nighties,https://www.indiamart.com/proddetail/mother-feeding-nighties-2854415794862.html?pos=31&kwd=feeding dress&tags=A||||8242.731|Price|product|||MDC|rsf:gd-|-stype:attr=1|qr_nm:gd|res:RC3|com-cf:nl|ptrs:na|ktp:N0|mc:190782|mtp:S|qry_typ:P|lang:en|wc:2|cs:8890|v=4,Shiv Garments,https://www.indiamart.com/shivgarmentsmaharashtra/?pos=31&kwd=feeding dress&tags=A||||8242.731|Price|product|||MDC|rsf:gd-|-stype:attr=1|qr_nm:gd|res:RC3|com-cf:nl|ptrs:na|ktp:N0|mc:190782|mtp:S|qry_typ:P|lang:en|wc:2|cs:8890|v=4,False,,Ulhasnagar,"BK No 1848, Room No 10, Section 39, Ulhasnagar 5, Ulhasnagar - 421005, Dist.Thane, Maharashtra",8044560771,
Cotton Maternity Dresses,https://www.indiamart.com/proddetail/cotton-maternity-dresses-2852649652912.html?pos=32&kwd=feeding dress&tags=A||||8601.347|Price|product|||TS|rsf:gd-|-stype:attr=1|qr_nm:gd|res:RC3|com-cf:nl|ptrs:na|ktp:N0|mc:190782|mtp:S|qry_typ:P|lang:en|wc:2|cs:8890|v=4,Kismat Collection,https://www.kismatcollectionjaipur.com/?pos=32&kwd=feeding dress&tags=A||||8601.347|Price|product|||TS|rsf:gd-|-stype:attr=1|qr_nm:gd|res:RC3|com-cf:nl|ptrs:na|ktp:N0|mc:190782|mtp:S|qry_typ:P|lang:en|wc:2|cs:8890|v=4,False,Raj Nagar 2,Jaipur,"A-15,,PATEL NAGAR NAMDEV COLONY,SANGANER, JAIPUR, Raj Nagar 2, Jaipur - 302029, Dist.Jaipur, Rajasthan",7942869763,
"Green Half Ladies Fancy Feeding Night Suit, Printed, Hosiery",https://www.indiamart.com/proddetail/ladies-fancy-feeding-night-suit-21516238855.html?pos=33&kwd=feeding dress&tags=BA||||8210.732|Price|product|||TS|rsf:gd-|-stype:attr=1|qr_nm:gd|res:RC3|com-cf:nl|ptrs:na|ktp:N0|mc:190782|mtp:S|qry_typ:P|lang:en|wc:2|cs:8890|v=4,M.K.Enterprises,https://www.ohlady.in/?pos=33&kwd=feeding dress&tags=BA||||8210.732|Price|product|||TS|rsf:gd-|-stype:attr=1|qr_nm:gd|res:RC3|com-cf:nl|ptrs:na|ktp:N0|mc:190782|mtp:S|qry_typ:P|lang:en|wc:2|cs:8890|v=4,False,Kandivali West,Vasai,"Gala No-209, 2nd Second Floor, Shri Hari Industrial Estate Bldg No 2, Bilalpada, Vasai East,, Kandivali West, Vasai - 401208, Dist.Thane, Maharashtra",7942565560,
Party Wear Maxi Dress,https://www.indiamart.com/proddetail/maxi-dress-2853900092491.html?pos=34&kwd=feeding dress&tags=A||||8230.883|Price|product|||TS|rsf:gd-|-stype:attr=1|qr_nm:gd|res:RC3|com-cf:nl|ptrs:na|ktp:N0|mc:190782|mtp:S|qry_typ:P|lang:en|wc:2|cs:8890|v=4,Yadu Nandan Fashion,https://www.indiamart.com/yadunandan-fashions-surat/?pos=34&kwd=feeding dress&tags=A||||8230.883|Price|product|||TS|rsf:gd-|-stype:attr=1|qr_nm:gd|res:RC3|com-cf:nl|ptrs:na|ktp:N0|mc:190782|mtp:S|qry_typ:P|lang:en|wc:2|cs:8890|v=4,True,Bharthana,Surat,"2002-2005, 2015-2018, Jai Radhe Textile Market, Ring Road, Bharthana, Surat - 395003, Dist.Surat, Gujarat",7942801171,
"Multicolor Mother Feeding Nighties, Size: XXL",https://www.indiamart.com/proddetail/mother-feeding-nighties-2853205572030.html?pos=35&kwd=feeding dress&tags=BA||||8228.275|Price|product|||TS|rsf:gd-|-stype:attr=1|qr_nm:gd|res:RC3|com-cf:nl|ptrs:na|ktp:N0|mc:190782|mtp:S|qry_typ:P|lang:en|wc:2|cs:8890|v=4,Janta Clothing Co.,https://www.indiamart.com/jantaclothingcompany/?pos=35&kwd=feeding dress&tags=BA||||8228.275|Price|product|||TS|rsf:gd-|-stype:attr=1|qr_nm:gd|res:RC3|com-cf:nl|ptrs:na|ktp:N0|mc:190782|mtp:S|qry_typ:P|lang:en|wc:2|cs:8890|v=4,False,M D Marg,Ahmedabad,"Plot No. C 192, 2nd Floor, Behind Safal 2, M D Marg, Ahmedabad - 380022, Dist.Ahmedabad, Gujarat",8046044672,
Feeding Kurti With Zip,https://www.indiamart.com/proddetail/feeding-kurti-with-zip-2854474496555.html?pos=36&kwd=feeding dress&tags=BA||||8230.883|Price|product|||MDC|rsf:gd-|-stype:attr=1|qr_nm:gd|res:RC3|com-cf:nl|ptrs:na|ktp:N0|mc:190782|mtp:S|qry_typ:P|lang:en|wc:2|cs:8890|v=4,7 Flowers,https://www.indiamart.com/7-flowers/?pos=36&kwd=feeding dress&tags=BA||||8230.883|Price|product|||MDC|rsf:gd-|-stype:attr=1|qr_nm:gd|res:RC3|com-cf:nl|ptrs:na|ktp:N0|mc:190782|mtp:S|qry_typ:P|lang:en|wc:2|cs:8890|v=4,False,Beside Mama Dev Mandir,Surat,"Ground Floor, Plot No. 463, Bhagyodaya Industrial Estate, Aai Mata Road, Nr. Ratan Namkin, Punagam, Beside Mama Dev Mandir, Surat - 395010, Dist.Surat, Gujarat",8045738659,
"MULTY Cotton Fading Nighty, Size: FREE SIZE, Sleeves: Half Sleeve",https://www.indiamart.com/proddetail/cotton-fading-nighty-24186057762.html?pos=37&kwd=feeding dress&tags=BA||||8228.275|Price|product|||TS|rsf:gd-|-stype:attr=1|qr_nm:gd|res:RC3|com-cf:nl|ptrs:na|ktp:N0|mc:190782|mtp:S|qry_typ:P|lang:en|wc:2|cs:8890|v=4,J.D.Fashion,https://www.indiamart.com/jd-fashion-gujarat/?pos=37&kwd=feeding dress&tags=BA||||8228.275|Price|product|||TS|rsf:gd-|-stype:attr=1|qr_nm:gd|res:RC3|com-cf:nl|ptrs:na|ktp:N0|mc:190782|mtp:S|qry_typ:P|lang:en|wc:2|cs:8890|v=4,False,Vastral,Ahmedabad,"347,Maheshvari Nagar, Part 1 C.H.S., Rajvi Nagar Odhav, Vastral, Ahmedabad - 382415, Dist.Ahmedabad, Gujarat",8046061235,
"Maternity Mother Breastfeeding Feeding Nursing Cover, Cloak, Apron - 100% Organic Cotton",https://www.indiamart.com/proddetail/maternity-mother-breastfeeding-feeding-nursing-cover-cloak-apron-100-organic-cotton-20962064255.html?pos=38&kwd=feeding dress&tags=A||||8668.838|Price|product|||TS|rsf:gd-|-stype:attr=1|qr_nm:gd|res:RC3|com-cf:nl|ptrs:na|ktp:N0|mc:190782|mtp:S|qry_typ:P|lang:en|wc:2|cs:8890|v=4,Sri Kalyan Export Private Limited,https://www.firstinbabydress.com/?pos=38&kwd=feeding dress&tags=A||||8668.838|Price|product|||TS|rsf:gd-|-stype:attr=1|qr_nm:gd|res:RC3|com-cf:nl|ptrs:na|ktp:N0|mc:190782|mtp:S|qry_typ:P|lang:en|wc:2|cs:8890|v=4,False,Vilarasampatti,Erode,"192/4, Ishwarya Garden, Sengodampalayam, Villarasampatti Post, Erode,, Vilarasampatti, Erode - 638107, Dist.Erode, Tamil Nadu",8046030291,
"Maroon Fabric: Rayon Maternity Feeding Gowns, Size: Medium",https://www.indiamart.com/proddetail/maternity-feeding-gowns-23762153691.html?pos=39&kwd=feeding dress&tags=A||||8559.269|Price|product|||TS|rsf:gd-|-stype:attr=1|qr_nm:gd|res:RC3|com-cf:nl|ptrs:na|ktp:N0|mc:190782|mtp:S|qry_typ:P|lang:en|wc:2|cs:8890|v=4,Nirmala Overseas,https://www.nirmalaoverseas.com/?pos=39&kwd=feeding dress&tags=A||||8559.269|Price|product|||TS|rsf:gd-|-stype:attr=1|qr_nm:gd|res:RC3|com-cf:nl|ptrs:na|ktp:N0|mc:190782|mtp:S|qry_typ:P|lang:en|wc:2|cs:8890|v=4,False,Jaora Compound,Indore,"No. 56, Jaora Compound, Jaora Compound, Indore - 452001, Dist.Indore, Madhya Pradesh",8047300753,
Georgette Janasya Women's Multicolour Cotton Geometric A-Line Maternity Dress,https://www.indiamart.com/proddetail/janasya-women-s-multicolour-cotton-geometric-a-line-maternity-dress-25590678762.html?pos=40&kwd=feeding dress&tags=A||||8230.883|Price|product|||TS|rsf:gd-|-stype:attr=1|qr_nm:gd|res:RC3|com-cf:nl|ptrs:na|ktp:N0|mc:190782|mtp:S|qry_typ:P|lang:en|wc:2|cs:8890|v=4,Thread Bucket Studio LLP,https://www.threadbucketstudio.in/?pos=40&kwd=feeding dress&tags=A||||8230.883|Price|product|||TS|rsf:gd-|-stype:attr=1|qr_nm:gd|res:RC3|com-cf:nl|ptrs:na|ktp:N0|mc:190782|mtp:S|qry_typ:P|lang:en|wc:2|cs:8890|v=4,False,Udhna,Surat,"A-15/4 Road No. 8, Udhna, Surat - 394210, Dist.Surat, Gujarat",8046052440,
Blue Rayon Maternity Dress,https://www.indiamart.com/proddetail/blue-rayon-maternity-dress-2852795143188.html?pos=41&kwd=feeding dress&tags=A||||8601.347|Price|product|||TS|rsf:gd-|-stype:attr=1|qr_nm:gd|res:RC3|com-cf:nl|ptrs:na|ktp:N0|mc:190782|mtp:S|qry_typ:P|lang:en|wc:2|cs:8890|v=4,Shree Shyam Creation,https://www.shreeshyamcreations.in/?pos=41&kwd=feeding dress&tags=A||||8601.347|Price|product|||TS|rsf:gd-|-stype:attr=1|qr_nm:gd|res:RC3|com-cf:nl|ptrs:na|ktp:N0|mc:190782|mtp:S|qry_typ:P|lang:en|wc:2|cs:8890|v=4,False,Sanganer,Jaipur,"Saini Bhawan, 18, Kanwar Ka Bag Ladko Ki Dhani Panchavti Colony, Sanganer, Sanganer, Jaipur - 302011, Dist.Jaipur, Rajasthan",7942717795,
Long Rayon Print Anarkali Suit With Dupatta,https://www.indiamart.com/proddetail/long-rayon-print-anarkali-suit-with-dupatta-2852670784133.html?pos=42&kwd=feeding dress&tags=A||||8601.347|Price|product|||TS|rsf:gd-|-stype:attr=1|qr_nm:gd|res:RC3|com-cf:nl|ptrs:na|ktp:N0|mc:190782|mtp:S|qry_typ:P|lang:en|wc:2|cs:8890|v=4,C K Creation,https://www.indiamart.com/c-k-creation-jaipur/?pos=42&kwd=feeding dress&tags=A||||8601.347|Price|product|||TS|rsf:gd-|-stype:attr=1|qr_nm:gd|res:RC3|com-cf:nl|ptrs:na|ktp:N0|mc:190782|mtp:S|qry_typ:P|lang:en|wc:2|cs:8890|v=4,False,Bambala,Jaipur,"1-A, Rani Ka Talab, Malpura Gate Ke Paas,, Bambala, Jaipur - 302029, Dist.Jaipur, Rajasthan",7942841456,
Cotton Feeding Dress,https://www.indiamart.com/proddetail/feeding-dress-2853904304712.html?pos=43&kwd=feeding dress&tags=BA||||8687.934|Price|product|||TS|rsf:gd-|-stype:attr=1|qr_nm:gd|res:RC3|com-cf:nl|ptrs:na|ktp:N0|mc:190782|mtp:S|qry_typ:P|lang:en|wc:2|cs:8890|v=4,Shree Fashions,https://www.indiamart.com/jbr-vesture/?pos=43&kwd=feeding dress&tags=BA||||8687.934|Price|product|||TS|rsf:gd-|-stype:attr=1|qr_nm:gd|res:RC3|com-cf:nl|ptrs:na|ktp:N0|mc:190782|mtp:S|qry_typ:P|lang:en|wc:2|cs:8890|v=4,False,Rajapalaiyam,Virudhunagar,"2/126B4, Teachers Colony, Chettiarpatti, Rajapalaiyam, Virudhunagar - 626188, Dist.Virudhunagar, Tamil Nadu",7942870856,
3/4 Sleeve Feeding Kalamkari Anarkali Kurti,https://www.indiamart.com/proddetail/feeding-kalamkari-anarkali-kurti-2853647721797.html?pos=44&kwd=feeding dress&tags=BA||||8668.838|Price|product|||MDC|rsf:gd-|-stype:attr=1|qr_nm:gd|res:RC3|com-cf:nl|ptrs:na|ktp:N0|mc:190782|mtp:S|qry_typ:P|lang:en|wc:2|cs:8890|v=4,Paris Hub,https://www.indiamart.com/paris-huberode/?pos=44&kwd=feeding dress&tags=BA||||8668.838|Price|product|||MDC|rsf:gd-|-stype:attr=1|qr_nm:gd|res:RC3|com-cf:nl|ptrs:na|ktp:N0|mc:190782|mtp:S|qry_typ:P|lang:en|wc:2|cs:8890|v=4,False,Erode,Erode,"Shop No-1020, 220/12,Erode Textile Mall P Ltd, NH-7 Salem-Coimbatore High Way,Gangapuram, Chithode, Erode, Erode - 638102, Dist.Erode, Tamil Nadu",7949082067,
Cotton Feeding Kurtis,https://www.indiamart.com/proddetail/feeding-kurtis-2854766853688.html?pos=45&kwd=feeding dress&tags=BA||||8601.347|Price|product|||TS|rsf:gd-|-stype:attr=1|qr_nm:gd|res:RC3|com-cf:nl|ptrs:na|ktp:N0|mc:190782|mtp:S|qry_typ:P|lang:en|wc:2|cs:8890|v=4,Tanishi Crafts,https://www.tanishicrafts.com/?pos=45&kwd=feeding dress&tags=BA||||8601.347|Price|product|||TS|rsf:gd-|-stype:attr=1|qr_nm:gd|res:RC3|com-cf:nl|ptrs:na|ktp:N0|mc:190782|mtp:S|qry_typ:P|lang:en|wc:2|cs:8890|v=4,False,Jaipur,Jaipur,"Bani Park, F-61 Sindhi Colony, Jaipur, Iti Sanstha Ke Piche, Sindhi Colony, Jaipur, Jaipur - 302016, Dist.Jaipur, Rajasthan",8047622196,
"Maternity Feeding Kurti, Sleeves: Ankel",https://www.indiamart.com/proddetail/maternity-feeding-kurti-2850385612697.html?pos=46&kwd=feeding dress&tags=BA||||8601.347|Price|product|||SSnp|rsf:gd-|-stype:attr=1|qr_nm:gd|res:RC3|com-cf:nl|ptrs:na|ktp:N0|mc:190782|mtp:S|qry_typ:P|lang:en|wc:2|cs:8890|v=4,Kartavya,https://www.kurtisupplier.com/?pos=46&kwd=feeding dress&tags=BA||||8601.347|Price|product|||SSnp|rsf:gd-|-stype:attr=1|qr_nm:gd|res:RC3|com-cf:nl|ptrs:na|ktp:N0|mc:190782|mtp:S|qry_typ:P|lang:en|wc:2|cs:8890|v=4,False,Sanganer,Jaipur,"15, Adarsh Basti, Market Road, Sanganer, Jaipur - 302015, Dist.Jaipur, Rajasthan",8043858523,
"Maternity Feeding Kurti, Size: Free",https://www.indiamart.com/proddetail/maternity-feeding-kurti-2853636195148.html?pos=47&kwd=feeding dress&tags=BA||||8230.883|Price|product|||TS|rsf:gd-|-stype:attr=1|qr_nm:gd|res:RC3|com-cf:nl|ptrs:na|ktp:N0|mc:190782|mtp:S|qry_typ:P|lang:en|wc:2|cs:8890|v=4,7 Season's,https://www.indiamart.com/7-seasons/?pos=47&kwd=feeding dress&tags=BA||||8230.883|Price|product|||TS|rsf:gd-|-stype:attr=1|qr_nm:gd|res:RC3|com-cf:nl|ptrs:na|ktp:N0|mc:190782|mtp:S|qry_typ:P|lang:en|wc:2|cs:8890|v=4,False,Parvat Patiya,Surat,"2nd Floor, Sudarshan Complex, Above Dhiraj Sons, Parvat Patiya, Surat - 395010, Dist.Surat, Gujarat",8048974394,
"Cotton Regular Mother Feeding Kurtis, Wash Care: Handwash",https://www.indiamart.com/proddetail/mother-feeding-kurtis-23510858491.html?pos=48&kwd=feeding dress&tags=BB||||8230.883|Price|product|||TS|rsf:gd-|-stype:attr=1|qr_nm:gd|res:RC3|com-cf:nl|ptrs:na|ktp:N0|mc:190782|mtp:S|qry_typ:P|lang:en|wc:2|cs:8890|v=4,JK Enterprise,https://www.indiamart.com/jkenterprise-gujrat/?pos=48&kwd=feeding dress&tags=BB||||8230.883|Price|product|||TS|rsf:gd-|-stype:attr=1|qr_nm:gd|res:RC3|com-cf:nl|ptrs:na|ktp:N0|mc:190782|mtp:S|qry_typ:P|lang:en|wc:2|cs:8890|v=4,False,Katargam,Surat,"123 JKP nagar near dhanmora, Katargam, Surat - 395004, Dist.Surat, Gujarat",8048979293,
"Western Cotton Feeding Nighties, MIX, Stitched",https://www.indiamart.com/proddetail/cotton-feeding-nighties-21288709888.html?pos=49&kwd=feeding dress&tags=BA||||8661.854|Price|product|||TS|rsf:gd-|-stype:attr=1|qr_nm:gd|res:RC3|com-cf:nl|ptrs:na|ktp:N0|mc:190782|mtp:S|qry_typ:P|lang:en|wc:2|cs:8890|v=4,R K Products,https://www.nightpartner.in/?pos=49&kwd=feeding dress&tags=BA||||8661.854|Price|product|||TS|rsf:gd-|-stype:attr=1|qr_nm:gd|res:RC3|com-cf:nl|ptrs:na|ktp:N0|mc:190782|mtp:S|qry_typ:P|lang:en|wc:2|cs:8890|v=4,False,Dev Nagar,Ludhiana,"Shop Number 2, 8&10, Chaura Bazar Factory Near Samrala Chownk & H.NO. 1450 NEW CHANDER NAGAR ST. NO.7 OPP. D.M.C HOSPITAL BASSI NURSING HOMEST, Dev Nagar, Ludhiana - 141001, Dist.Ludhiana, Punjab",8047638898,
Cotton Ladies Feeding Nighty,https://www.indiamart.com/proddetail/ladies-feeding-nighty-22408935188.html?pos=50&kwd=feeding dress&tags=BA||||8954.051|Price|product|||TS|rsf:gd-|-stype:attr=1|qr_nm:gd|res:RC3|com-cf:nl|ptrs:na|ktp:N0|mc:190782|mtp:S|qry_typ:P|lang:en|wc:2|cs:8890|v=4,Sai Collection,https://www.indiamart.com/saicollection-chennai/?pos=50&kwd=feeding dress&tags=BA||||8954.051|Price|product|||TS|rsf:gd-|-stype:attr=1|qr_nm:gd|res:RC3|com-cf:nl|ptrs:na|ktp:N0|mc:190782|mtp:S|qry_typ:P|lang:en|wc:2|cs:8890|v=4,False,T Nagar,Chennai,"1st Floor,no 78/79 Shop- 2,pondy Bazzar,fathima Plaza,t Nagar, T Nagar, Chennai - 600017, Dist.Chennai, Tamil Nadu",8046039974,
BLACK SKY PINK BLUE Feeding and during Maternity kurti,https://www.indiamart.com/proddetail/feeding-and-during-maternity-kurti-2849225359773.html?pos=51&kwd=feeding dress&tags=BA||||8230.883|Price|product|||TS|rsf:gd-|-stype:attr=1|qr_nm:gd|res:RC3|com-cf:nl|ptrs:na|ktp:N0|mc:190782|mtp:S|qry_typ:P|lang:en|wc:2|cs:8890|v=4,Fab Zone,https://www.fabzonefab.com/?pos=51&kwd=feeding dress&tags=BA||||8230.883|Price|product|||TS|rsf:gd-|-stype:attr=1|qr_nm:gd|res:RC3|com-cf:nl|ptrs:na|ktp:N0|mc:190782|mtp:S|qry_typ:P|lang:en|wc:2|cs:8890|v=4,True,Sharaddha Society,Surat,"102, Ugam Chamber, Sharaddha Society, Surat - 395006, Dist.Surat, Gujarat",8046073565,
Cotton Kurti For Baby Feeding and During Maternity Period,https://www.indiamart.com/proddetail/cotton-kurti-for-baby-feeding-and-during-maternity-period-27086875112.html?pos=52&kwd=feeding dress&tags=BA||||8230.883|Price|product|||TS|rsf:gd-|-stype:attr=1|qr_nm:gd|res:RC3|com-cf:nl|ptrs:na|ktp:N0|mc:190782|mtp:S|qry_typ:P|lang:en|wc:2|cs:8890|v=4,Aarya Trendz,https://www.indiamart.com/aarya-trendz/?pos=52&kwd=feeding dress&tags=BA||||8230.883|Price|product|||TS|rsf:gd-|-stype:attr=1|qr_nm:gd|res:RC3|com-cf:nl|ptrs:na|ktp:N0|mc:190782|mtp:S|qry_typ:P|lang:en|wc:2|cs:8890|v=4,False,,Surat,"30, Shree Krupa Industrial Estate Kapodra, Varachha Main Road, Surat - 395006, Dist.Surat, Gujarat",8046034119,
Ladies Feeding Nighty,https://www.indiamart.com/proddetail/ladies-feeding-nighty-2853916121433.html?pos=53&kwd=feeding dress&tags=BA||||8609.232|Price|product|||TS|rsf:gd-|-stype:attr=1|qr_nm:gd|res:RC3|com-cf:nl|ptrs:na|ktp:N0|mc:190782|mtp:S|qry_typ:P|lang:en|wc:2|cs:8890|v=4,Babumills,https://www.babumills.in/?pos=53&kwd=feeding dress&tags=BA||||8609.232|Price|product|||TS|rsf:gd-|-stype:attr=1|qr_nm:gd|res:RC3|com-cf:nl|ptrs:na|ktp:N0|mc:190782|mtp:S|qry_typ:P|lang:en|wc:2|cs:8890|v=4,False,SOMANUR,Karumathampatti,"3/396, Kozhippannai, Kombakattupudur, Itchippatti, SOMANUR, Karumathampatti - 641668, Dist.Coimbatore, Tamil Nadu",8046054857,
"Cotton Self Design Maternity Feeding Gown, Three fourth sleeve",https://www.indiamart.com/proddetail/maternity-feeding-gown-2851768609648.html?pos=54&kwd=feeding dress&tags=BA||||8601.347|Price|product|||TS|rsf:gd-|-stype:attr=1|qr_nm:gd|res:RC3|com-cf:nl|ptrs:na|ktp:N0|mc:190782|mtp:S|qry_typ:P|lang:en|wc:2|cs:8890|v=4,Jaanya Creations,https://www.flyfinns.com/?pos=54&kwd=feeding dress&tags=BA||||8601.347|Price|product|||TS|rsf:gd-|-stype:attr=1|qr_nm:gd|res:RC3|com-cf:nl|ptrs:na|ktp:N0|mc:190782|mtp:S|qry_typ:P|lang:en|wc:2|cs:8890|v=4,False,Sanganer Station,Jaipur,"405, Dajy Manglam Ananda, Neear Sanganer Station, Sanganer Station, Jaipur - 302029, Dist.Jaipur, Rajasthan",7942789055,
Maternity Feeding Night Dresses,https://www.indiamart.com/proddetail/maternity-feeding-night-dresses-25192432248.html?pos=55&kwd=feeding dress&tags=BA||||8230.883|Price|product|||TS|rsf:gd-|-stype:attr=1|qr_nm:gd|res:RC3|com-cf:nl|ptrs:na|ktp:N0|mc:190782|mtp:S|qry_typ:P|lang:en|wc:2|cs:8890|v=4,Fashion Hub,https://www.indiamart.com/fashionhub-gujarat/?pos=55&kwd=feeding dress&tags=BA||||8230.883|Price|product|||TS|rsf:gd-|-stype:attr=1|qr_nm:gd|res:RC3|com-cf:nl|ptrs:na|ktp:N0|mc:190782|mtp:S|qry_typ:P|lang:en|wc:2|cs:8890|v=4,False,Mota Varachha,Surat,"E-104,,Shrinidhi Residency,,Nr. Sudama Chowk,,Mota Varachha,, Mota Varachha, Surat - 394101, Dist.Surat, Gujarat",8048956108,
"Red Half Mother Feeding Nighties, Size: XL",https://www.indiamart.com/proddetail/mother-feeding-nighties-2853637382948.html?pos=56&kwd=feeding dress&tags=BA||||9148.645|Price|product|||MDC|rsf:gd-|-stype:attr=1|qr_nm:gd|res:RC3|com-cf:nl|ptrs:na|ktp:N0|mc:190782|mtp:S|qry_typ:P|lang:en|wc:2|cs:8890|v=4,Sri Jaya Enterprises,https://www.indiamart.com/sri-jayaenterprises/?pos=56&kwd=feeding dress&tags=BA||||9148.645|Price|product|||MDC|rsf:gd-|-stype:attr=1|qr_nm:gd|res:RC3|com-cf:nl|ptrs:na|ktp:N0|mc:190782|mtp:S|qry_typ:P|lang:en|wc:2|cs:8890|v=4,False,Machara,Mandapeta,"31-1-27/1, Ward No 13, Alamuru Road, Mandapeta, East Godavari, Machara, Mandapeta - 533308, Dist.East Godavari, Andhra Pradesh",7949093426,
"Multicolor Cotton Feeding Nighties, Size: XL",https://www.indiamart.com/proddetail/cotton-feeding-nighties-2851887991948.html?pos=57&kwd=feeding dress&tags=BA||||8228.275|Price|product|||MDC|rsf:gd-|-stype:attr=1|qr_nm:gd|res:RC3|com-cf:nl|ptrs:na|ktp:N0|mc:190782|mtp:S|qry_typ:P|lang:en|wc:2|cs:8890|v=4,Karan Fab,https://www.indiamart.com/hellopartner/?pos=57&kwd=feeding dress&tags=BA||||8228.275|Price|product|||MDC|rsf:gd-|-stype:attr=1|qr_nm:gd|res:RC3|com-cf:nl|ptrs:na|ktp:N0|mc:190782|mtp:S|qry_typ:P|lang:en|wc:2|cs:8890|v=4,False,Panchkuva,Ahmedabad,"SHOP NO.468/3,SAKAR BAZAR,Opp maskati market GATE NO.3,NR.KOTAK MAHINDRA BANK,, Panchkuva, Ahmedabad - 380002, Dist.Ahmedabad, Gujarat",8048605993,
Cotton Womens Maroon Feeding Kurti,https://www.indiamart.com/proddetail/womens-maroon-feeding-kurti-2854146998488.html?pos=58&kwd=feeding dress&tags=BA||||8668.838|Price|product|||MDC|rsf:gd-|-stype:attr=1|qr_nm:gd|res:RC3|com-cf:nl|ptrs:na|ktp:N0|mc:190782|mtp:S|qry_typ:P|lang:en|wc:2|cs:8890|v=4,Mothersbay India Private Limited,https://www.indiamart.com/mothersbay-india-erode/?pos=58&kwd=feeding dress&tags=BA||||8668.838|Price|product|||MDC|rsf:gd-|-stype:attr=1|qr_nm:gd|res:RC3|com-cf:nl|ptrs:na|ktp:N0|mc:190782|mtp:S|qry_typ:P|lang:en|wc:2|cs:8890|v=4,False,Chidambaram Colony,Erode,"No, 10 Chidambaram Colony, Chidambaram Colony, Erode - 638001, Dist.Erode, Tamil Nadu",8045737096,
Pink Cotton Feeding Kurti,https://www.indiamart.com/proddetail/pink-cotton-feeding-kurti-2854493464988.html?pos=59&kwd=feeding dress&tags=BA||||8954.051|Price|product|||MDC|rsf:gd-|-stype:attr=1|qr_nm:gd|res:RC3|com-cf:nl|ptrs:na|ktp:N0|mc:190782|mtp:S|qry_typ:P|lang:en|wc:2|cs:8890|v=4,Earthwise Collective Private Limited,https://www.indiamart.com/earthwise-collective/?pos=59&kwd=feeding dress&tags=BA||||8954.051|Price|product|||MDC|rsf:gd-|-stype:attr=1|qr_nm:gd|res:RC3|com-cf:nl|ptrs:na|ktp:N0|mc:190782|mtp:S|qry_typ:P|lang:en|wc:2|cs:8890|v=4,False,,Chennai,"9/2, 35/2, Bagirathiammal Street, T Nagar,, Chennai - 600017, Dist.Chennai, Tamil Nadu",7942801118,
Meternity-70,https://www.indiamart.com/proddetail/meternity-70-22488831162.html?pos=60&kwd=feeding dress&tags=BA||||8231.259|Price|product|||TS|rsf:gd-|-stype:attr=1|qr_nm:gd|res:RC3|com-cf:nl|ptrs:na|ktp:N0|mc:190782|mtp:S|qry_typ:P|lang:en|wc:2|cs:8890|v=4,Red Rose ( A Brand Of Sagar Products),https://www.indiamart.com/redrose-mumbai/?pos=60&kwd=feeding dress&tags=BA||||8231.259|Price|product|||TS|rsf:gd-|-stype:attr=1|qr_nm:gd|res:RC3|com-cf:nl|ptrs:na|ktp:N0|mc:190782|mtp:S|qry_typ:P|lang:en|wc:2|cs:8890|v=4,False,Saravali,Bhiwandi,"C6, Asmeeta Textile Park Additional Kalyan Bhiwandi Highway, Saravali, Bhiwandi - 421311, Maharashtra",8048603606,
Full Length Cotton Feeding Suits c,https://www.indiamart.com/proddetail/feeding-suits-c-23939844248.html?pos=61&kwd=feeding dress&tags=BA||||8876.815|Price|product|||TS|rsf:gd-|-stype:attr=1|qr_nm:gd|res:RC3|com-cf:nl|ptrs:na|ktp:N0|mc:190782|mtp:S|qry_typ:P|lang:en|wc:2|cs:8890|v=4,Jsm Collection,https://www.indiamart.com/sanvifashions/?pos=61&kwd=feeding dress&tags=BA||||8876.815|Price|product|||TS|rsf:gd-|-stype:attr=1|qr_nm:gd|res:RC3|com-cf:nl|ptrs:na|ktp:N0|mc:190782|mtp:S|qry_typ:P|lang:en|wc:2|cs:8890|v=4,False,Lalganj,Nagpur,"Tipre Galli Near Gandhi Putlla, Plot No. 956, Jsm Collection, C A Road, Lalganj, Nagpur - 440002, Dist.Nagpur, Maharashtra",8047632801,
Full Length Cotton Feeding Nighty,https://www.indiamart.com/proddetail/cotton-feeding-nighty-21714070455.html?pos=62&kwd=feeding dress&tags=BA||||8601.347|Price|product|||TS|rsf:gd-|-stype:attr=1|qr_nm:gd|res:RC3|com-cf:nl|ptrs:na|ktp:N0|mc:190782|mtp:S|qry_typ:P|lang:en|wc:2|cs:8890|v=4,Rajlok Enterprises,https://www.indiamart.com/rajlok-enterprises/?pos=62&kwd=feeding dress&tags=BA||||8601.347|Price|product|||TS|rsf:gd-|-stype:attr=1|qr_nm:gd|res:RC3|com-cf:nl|ptrs:na|ktp:N0|mc:190782|mtp:S|qry_typ:P|lang:en|wc:2|cs:8890|v=4,False,Kapoorawala,Jaipur,"Shop No. 23, Shiv Bazar, Near Sparsh Hospital New Sanganer Road, Kapoorawala, Jaipur - 302029, Dist.Jaipur, Rajasthan",7942548592,
Maternity Feeding Kurti,https://www.indiamart.com/proddetail/maternity-feeding-kurti-2850573092555.html?pos=63&kwd=feeding dress&tags=BA||||8601.347|Price|product|||TS|rsf:gd-|-stype:attr=1|qr_nm:gd|res:RC3|com-cf:nl|ptrs:na|ktp:N0|mc:190782|mtp:S|qry_typ:P|lang:en|wc:2|cs:8890|v=4,Asudani Garment,https://www.indiamart.com/asudanigarment/?pos=63&kwd=feeding dress&tags=BA||||8601.347|Price|product|||TS|rsf:gd-|-stype:attr=1|qr_nm:gd|res:RC3|com-cf:nl|ptrs:na|ktp:N0|mc:190782|mtp:S|qry_typ:P|lang:en|wc:2|cs:8890|v=4,False,Sanganer Bazar,Jaipur,"Shop no 4, Opposite Sanganer Stadium,, Sanganer Bazar, Jaipur - 302029, Dist.Jaipur, Rajasthan",8045907464,
Cotton Feeding Kurtis,https://www.indiamart.com/proddetail/cotton-feeding-kurtis-25507151755.html?pos=64&kwd=feeding dress&tags=BA||||8663.873|Price|product|||TS|rsf:gd-|-stype:attr=1|qr_nm:gd|res:RC3|com-cf:nl|ptrs:na|ktp:N0|mc:190782|mtp:S|qry_typ:P|lang:en|wc:2|cs:8890|v=4,Suntex Inc.,https://www.indiamart.com/suntexinc/?pos=64&kwd=feeding dress&tags=BA||||8663.873|Price|product|||TS|rsf:gd-|-stype:attr=1|qr_nm:gd|res:RC3|com-cf:nl|ptrs:na|ktp:N0|mc:190782|mtp:S|qry_typ:P|lang:en|wc:2|cs:8890|v=4,False,Sudhama Nagar,Bengaluru,"No 9, 1st Floor, 1st 'B' Main Road, 2nd Cross , Sudhamanagar,Lalbagh Road Cross, Sudhama Nagar, Bengaluru - 560027, Dist.Bengaluru, Karnataka",8048982054,
Cotton Ladies Feeding Nighty,https://www.indiamart.com/proddetail/ladies-feeding-nighty-2853497433948.html?pos=65&kwd=feeding dress&tags=BA||||8235.633|Price|product|||TS|rsf:gd-|-stype:attr=1|qr_nm:gd|res:RC3|com-cf:nl|ptrs:na|ktp:N0|mc:190782|mtp:S|qry_typ:P|lang:en|wc:2|cs:8890|v=4,Padmawati Trade Link,https://www.indiamart.com/padmawati-tradelink/?pos=65&kwd=feeding dress&tags=BA||||8235.633|Price|product|||TS|rsf:gd-|-stype:attr=1|qr_nm:gd|res:RC3|com-cf:nl|ptrs:na|ktp:N0|mc:190782|mtp:S|qry_typ:P|lang:en|wc:2|cs:8890|v=4,False,Tapra,Balotra,"Sindhiyon Ka Wass, Ward No.7 Nayapura , Barmer, Tapra, Balotra - 344022, Dist.Barmer, Rajasthan",8048269332,
Multicolor Feeding & Nursing Cover Made In Fine & Soft Eco Friendly Cotton Fabric,https://www.indiamart.com/proddetail/feeding-nursing-cover-made-in-fine-soft-eco-friendly-cotton-fabric-22969723648.html?pos=66&kwd=feeding dress&tags=BA||||8778.123|Price|product|||TS|rsf:gd-|-stype:attr=1|qr_nm:gd|res:RC3|com-cf:nl|ptrs:na|ktp:N0|mc:190782|mtp:S|qry_typ:P|lang:en|wc:2|cs:8890|v=4,Oscar Overseas,https://www.oscar-india.com/?pos=66&kwd=feeding dress&tags=BA||||8778.123|Price|product|||TS|rsf:gd-|-stype:attr=1|qr_nm:gd|res:RC3|com-cf:nl|ptrs:na|ktp:N0|mc:190782|mtp:S|qry_typ:P|lang:en|wc:2|cs:8890|v=4,False,,Noida,"A-99 Sector 5, Noida - 201301, Dist.Gautam Budh Nagar, Uttar Pradesh",8046058290,
"Red Feeding Kurti With Zip, Sleeves: Half Sleev",https://www.indiamart.com/proddetail/feeding-kurti-with-zip-2849607959233.html?pos=67&kwd=feeding dress&tags=BA||||8230.883|Price|product|||TS|rsf:gd-|-stype:attr=1|qr_nm:gd|res:RC3|com-cf:nl|ptrs:na|ktp:N0|mc:190782|mtp:S|qry_typ:P|lang:en|wc:2|cs:8890|v=4,Pearl Fashion,https://www.pearlfashion.co.in/?pos=67&kwd=feeding dress&tags=BA||||8230.883|Price|product|||TS|rsf:gd-|-stype:attr=1|qr_nm:gd|res:RC3|com-cf:nl|ptrs:na|ktp:N0|mc:190782|mtp:S|qry_typ:P|lang:en|wc:2|cs:8890|v=4,False,Katargam,Surat,"Plot No. 73 Opp. Katargam Police Station, Katargam D.k. Nagar Co Op Hou Society shop number 7105-7106 Avadha textile market, Katargam, Surat - 395004, Dist.Surat, Gujarat",8046079626,
MANGAI Maternity Wear & Feeding Wear & Long Zipper Nighties,https://www.indiamart.com/proddetail/mangai-maternity-wear-feeding-wear-long-zipper-nighties-2854314581897.html?pos=68&kwd=feeding dress&tags=BA||||8668.838|Price|product|||TS|rsf:gd-|-stype:attr=1|qr_nm:gd|res:RC3|com-cf:nl|ptrs:na|ktp:N0|mc:190782|mtp:S|qry_typ:P|lang:en|wc:2|cs:8890|v=4,Texvalley Market Limited,https://www.texvalleyb2b.com/?pos=68&kwd=feeding dress&tags=BA||||8668.838|Price|product|||TS|rsf:gd-|-stype:attr=1|qr_nm:gd|res:RC3|com-cf:nl|ptrs:na|ktp:N0|mc:190782|mtp:S|qry_typ:P|lang:en|wc:2|cs:8890|v=4,False,Erode,Erode,"Gangapuram Nh47 Chithode Salem Covai National Highways, Erode, Erode - 638102, Dist.Erode, Tamil Nadu",7942648889,
Profiklen maternity Shield Transparent Dressing with Pad:25x10 CM,https://www.indiamart.com/proddetail/profiklen-maternity-shield-transparent-dressing-with-pad-25x10-cm-2852753442748.html?pos=69&kwd=feeding dress&tags=BA||||8752.144|Price|product|||MDC|rsf:gd-|-stype:attr=1|qr_nm:gd|res:RC3|com-cf:nl|ptrs:na|ktp:N0|mc:190782|mtp:S|qry_typ:P|lang:en|wc:2|cs:8890|v=4,Ambica Surgicare,https://www.indiamart.com/ambicasurgicare/?pos=69&kwd=feeding dress&tags=BA||||8752.144|Price|product|||MDC|rsf:gd-|-stype:attr=1|qr_nm:gd|res:RC3|com-cf:nl|ptrs:na|ktp:N0|mc:190782|mtp:S|qry_typ:P|lang:en|wc:2|cs:8890|v=4,False,Dwarka Sector 2,New Delhi,"RZ-4B, Lower Ground Floor Palam Vihar Dwarka, Dwarka Sector 2, New Delhi - 110075, Dist.Delhi, Delhi",8047646352,
Alpine Feeding Nighty,https://www.indiamart.com/proddetail/alpine-feeding-nighty-27091952848.html?pos=70&kwd=feeding dress&tags=BA||||8302.941||product|||MDC|rsf:gd-|-stype:attr=1|qr_nm:gd|res:RC3|com-cf:nl|ptrs:na|ktp:N0|mc:190782|mtp:S|qry_typ:P|lang:en|wc:2|cs:8890|v=4,Nehas World Of Fashion,https://www.indiamart.com/nehasworldoffashion/?pos=70&kwd=feeding dress&tags=BA||||8302.941||product|||MDC|rsf:gd-|-stype:attr=1|qr_nm:gd|res:RC3|com-cf:nl|ptrs:na|ktp:N0|mc:190782|mtp:S|qry_typ:P|lang:en|wc:2|cs:8890|v=4,False,Punawale,Pimpri Chinchwad,"FIRST, SHOP NO 110, PESH PLATINUM, THERMAX CHOWK CHINCHWAD, Pimpri Chinchwad, Pune, Punawale, Pimpri Chinchwad - 411019, Maharashtra",8047628708,
Multicolor Three fourth sleeve Maternity Feeding Dress,https://www.indiamart.com/proddetail/maternity-feeding-dress-2849227757391.html?pos=71&kwd=feeding dress&tags=BA||||8601.347|Price|product|||MDC|rsf:gd-|-stype:attr=1|qr_nm:gd|res:RC3|com-cf:nl|ptrs:na|ktp:N0|mc:190782|mtp:S|qry_typ:P|lang:en|wc:2|cs:8890|v=4,Nihaan Impex,https://www.indiamart.com/nihaanimpex-jaipur/?pos=71&kwd=feeding dress&tags=BA||||8601.347|Price|product|||MDC|rsf:gd-|-stype:attr=1|qr_nm:gd|res:RC3|com-cf:nl|ptrs:na|ktp:N0|mc:190782|mtp:S|qry_typ:P|lang:en|wc:2|cs:8890|v=4,False,Pratap Nagar,Jaipur,"28, Raghunath Puri, Khokha Bass, Sanganer, Pratap Nagar, Jaipur - 302011, Dist.Jaipur, Rajasthan",8047551915,
Ladies Crepe White Printed Maternity Kurti,https://www.indiamart.com/proddetail/ladies-crepe-white-printed-maternity-kurti-26890974588.html?pos=72&kwd=feeding dress&tags=BB||||8786.56|Price|product|||TS|rsf:gd-|-stype:attr=1|qr_nm:gd|res:RC3|com-cf:nl|ptrs:na|ktp:N0|mc:190782|mtp:S|qry_typ:P|lang:en|wc:2|cs:8890|v=4,M/S Vquality Products,https://www.indiamart.com/vquality-products/?pos=72&kwd=feeding dress&tags=BB||||8786.56|Price|product|||TS|rsf:gd-|-stype:attr=1|qr_nm:gd|res:RC3|com-cf:nl|ptrs:na|ktp:N0|mc:190782|mtp:S|qry_typ:P|lang:en|wc:2|cs:8890|v=4,False,Kukatpally Bhagat Singh Nagar,Hyderabad,"Plot no 422, Flot No 202, Bhagath Singh Nagar Phase-1,KPHB, Kukatpally Bhagat Singh Nagar, Hyderabad - 500085, Dist.Hyderabad, Telangana",8043894114,
cotton anarkali feeding/maternity kurti,https://www.indiamart.com/proddetail/cotton-anarkali-feeding-maternity-kurti-2852386300397.html?pos=73&kwd=feeding dress&tags=BA||||8601.347|Price|product|||TS|rsf:gd-|-stype:attr=1|qr_nm:gd|res:RC3|com-cf:nl|ptrs:na|ktp:N0|mc:190782|mtp:S|qry_typ:P|lang:en|wc:2|cs:8890|v=4,Guru Kripa Creation,https://www.indiamart.com/guru-kripa-creationjaipur/?pos=73&kwd=feeding dress&tags=BA||||8601.347|Price|product|||TS|rsf:gd-|-stype:attr=1|qr_nm:gd|res:RC3|com-cf:nl|ptrs:na|ktp:N0|mc:190782|mtp:S|qry_typ:P|lang:en|wc:2|cs:8890|v=4,False,Sanganer Bazar,Jaipur,"01, Radha Ballabh Marg, Joshiyo Ka Mohalla, Sanganer, Sanganer Bazar, Jaipur - 302029, Dist.Jaipur, Rajasthan",7942956353,
Ladies Red Printed Cotton Maternity Dress,https://www.indiamart.com/proddetail/ladies-red-printed-cotton-maternity-dress-2852984522230.html?pos=74&kwd=feeding dress&tags=BA||||8601.347|Price|product|||MDC|rsf:gd-|-stype:attr=1|qr_nm:gd|res:RC3|com-cf:nl|ptrs:na|ktp:N0|mc:190782|mtp:S|qry_typ:P|lang:en|wc:2|cs:8890|v=4,Z Creation,https://www.indiamart.com/z-creation-rajasthan/?pos=74&kwd=feeding dress&tags=BA||||8601.347|Price|product|||MDC|rsf:gd-|-stype:attr=1|qr_nm:gd|res:RC3|com-cf:nl|ptrs:na|ktp:N0|mc:190782|mtp:S|qry_typ:P|lang:en|wc:2|cs:8890|v=4,False,sanganer,Jaipur,"Plot No F16 Shop No F-09 & 10 Sidhi Vinayak Plaza, Chordiya Petrol Pump Sanganer, sanganer, Jaipur - 302029, Dist.Jaipur, Rajasthan",7942962509,
"Ladies Rayon Printed Feeding Gown, Three fourth sleeve, Size: XL",https://www.indiamart.com/proddetail/ladies-rayon-printed-feeding-gown-2852822442555.html?pos=75&kwd=feeding dress&tags=BA||||8601.347|Price|product|||MDC|rsf:gd-|-stype:attr=1|qr_nm:gd|res:RC3|com-cf:nl|ptrs:na|ktp:N0|mc:190782|mtp:S|qry_typ:P|lang:en|wc:2|cs:8890|v=4,Silak Fashion Hub,https://www.indiamart.com/silak-fashion-hub/?pos=75&kwd=feeding dress&tags=BA||||8601.347|Price|product|||MDC|rsf:gd-|-stype:attr=1|qr_nm:gd|res:RC3|com-cf:nl|ptrs:na|ktp:N0|mc:190782|mtp:S|qry_typ:P|lang:en|wc:2|cs:8890|v=4,False,Kundan Nagar,Jaipur,"64/361, Sector 6, RHB Pratap Nagar, Sanganer,, Kundan Nagar, Jaipur - 302033, Dist.Jaipur, Rajasthan",7942720255,
"Printed Ladies Casual Wear Rayon Maternity Feeding Gown, Three fourth sleeve",https://www.indiamart.com/proddetail/ladies-casual-wear-rayon-maternity-feeding-gown-2853270194497.html?pos=76&kwd=feeding dress&tags=BA||||8601.347|Price|product|||MDC|rsf:gd-|-stype:attr=1|qr_nm:gd|res:RC3|com-cf:nl|ptrs:na|ktp:N0|mc:190782|mtp:S|qry_typ:P|lang:en|wc:2|cs:8890|v=4,Shivam Enterprises,https://www.indiamart.com/shivamenterprisesrampur/?pos=76&kwd=feeding dress&tags=BA||||8601.347|Price|product|||MDC|rsf:gd-|-stype:attr=1|qr_nm:gd|res:RC3|com-cf:nl|ptrs:na|ktp:N0|mc:190782|mtp:S|qry_typ:P|lang:en|wc:2|cs:8890|v=4,False,Mansarovar,Jaipur,"Polt No 1 ,Pratap Vihar ,Rampura Road ,Sanganer, Mansarovar, Jaipur - 302029, Dist.Jaipur, Rajasthan",7949226911,
"Cotton Aaram Feed Blue Striped Short Feeding Gown, Three fourth sleeve",https://www.indiamart.com/proddetail/aaram-feed-blue-striped-short-feeding-gown-2852882786573.html?pos=77&kwd=feeding dress&tags=BA||||8663.873|Price|product|||MDC|rsf:gd-|-stype:attr=1|qr_nm:gd|res:RC3|com-cf:nl|ptrs:na|ktp:N0|mc:190782|mtp:S|qry_typ:P|lang:en|wc:2|cs:8890|v=4,Samkith Creations,https://www.indiamart.com/samkithcreations/?pos=77&kwd=feeding dress&tags=BA||||8663.873|Price|product|||MDC|rsf:gd-|-stype:attr=1|qr_nm:gd|res:RC3|com-cf:nl|ptrs:na|ktp:N0|mc:190782|mtp:S|qry_typ:P|lang:en|wc:2|cs:8890|v=4,False,Basaveshwar Nagar,Bengaluru,"2nd Floor , No,154/13, 5th Main , 1st Cross , Shankar Mutt Road,Chamrajpet, Urban, Basaveshwar Nagar, Bengaluru - 560019, Dist.Bengaluru, Karnataka",7942721702,
Printed Cotton Feeding Kurti,https://www.indiamart.com/proddetail/printed-cotton-feeding-kurti-2848977933091.html?pos=78&kwd=feeding dress&tags=BA||||8601.347|Price|product|||TS|rsf:gd-|-stype:attr=1|qr_nm:gd|res:RC3|com-cf:nl|ptrs:na|ktp:N0|mc:190782|mtp:S|qry_typ:P|lang:en|wc:2|cs:8890|v=4,Vinayak Enterprises,https://www.vinayakenterprisesindia.com/?pos=78&kwd=feeding dress&tags=BA||||8601.347|Price|product|||TS|rsf:gd-|-stype:attr=1|qr_nm:gd|res:RC3|com-cf:nl|ptrs:na|ktp:N0|mc:190782|mtp:S|qry_typ:P|lang:en|wc:2|cs:8890|v=4,True,Vistar,Jaipur,"Vinayak Enterprises, B-61, Barkat Nagar Vistar, Near Arjun Nagar Underpass, Vistar, Jaipur - 302031, Dist.Jaipur, Rajasthan",8047652854,
"Three fourth sleeve Cotton Printed Feeding Dress, Size: XXL",https://www.indiamart.com/proddetail/cotton-printed-feeding-dress-2851946697848.html?pos=79&kwd=feeding dress&tags=BA||||8601.347|Price|product|||MDC|rsf:gd-|-stype:attr=1|qr_nm:gd|res:RC3|com-cf:nl|ptrs:na|ktp:N0|mc:190782|mtp:S|qry_typ:P|lang:en|wc:2|cs:8890|v=4,Bhargavi Hand Printers,https://www.indiamart.com/bhargavi-hand-printers/?pos=79&kwd=feeding dress&tags=BA||||8601.347|Price|product|||MDC|rsf:gd-|-stype:attr=1|qr_nm:gd|res:RC3|com-cf:nl|ptrs:na|ktp:N0|mc:190782|mtp:S|qry_typ:P|lang:en|wc:2|cs:8890|v=4,False,Bagru,Jaipur,"1, Takiya Bus Stand Bagru, Bagru, Jaipur - 303007, Dist.Jaipur, Rajasthan",8043854406,
"Chikankari 6 color New Look Fancy Dresses, Handwash, Ethnic Wear",https://www.indiamart.com/proddetail/new-look-fancy-dresses-2853998559512.html?pos=80&kwd=feeding dress&tags=BA||||8230.883|Price|product|||TS|rsf:gd-|-stype:attr=1|qr_nm:gd|res:RC3|com-cf:nl|ptrs:na|ktp:N0|mc:190782|mtp:S|qry_typ:P|lang:en|wc:2|cs:8890|v=4,Leranath Fashion,https://www.leranathfashion.in/?pos=80&kwd=feeding dress&tags=BA||||8230.883|Price|product|||TS|rsf:gd-|-stype:attr=1|qr_nm:gd|res:RC3|com-cf:nl|ptrs:na|ktp:N0|mc:190782|mtp:S|qry_typ:P|lang:en|wc:2|cs:8890|v=4,True,Vishal Nagar,Surat,"5th Floor, Office No. 501D, V Plaza, Akshar Kunj Society, Vishal Nagar, Surat - 395004, Dist.Surat, Gujarat",8047640072,
Maternity Tunic feeding gwon,https://www.indiamart.com/proddetail/maternity-tunic-feeding-gwon-2850085386133.html?pos=81&kwd=feeding dress&tags=BA||||8601.347|Price|product|||TS|rsf:gd-|-stype:attr=1|qr_nm:gd|res:RC3|com-cf:nl|ptrs:na|ktp:N0|mc:190782|mtp:S|qry_typ:P|lang:en|wc:2|cs:8890|v=4,Prince Enterprises,https://www.indiamart.com/princeenterprisesjaipur/?pos=81&kwd=feeding dress&tags=BA||||8601.347|Price|product|||TS|rsf:gd-|-stype:attr=1|qr_nm:gd|res:RC3|com-cf:nl|ptrs:na|ktp:N0|mc:190782|mtp:S|qry_typ:P|lang:en|wc:2|cs:8890|v=4,False,Mansarovar,Jaipur,"115/137 Agarwal Farm,mansarovar, Mansarovar, Jaipur - 302020, Dist.Jaipur, Rajasthan",8048963229,
"Rayon Printed feeding Nighty, Half Sleeve",https://www.indiamart.com/proddetail/rayon-printed-feeding-nighty-2850456292348.html?pos=82&kwd=feeding dress&tags=BA||||8228.275|Price|product|||TS|rsf:gd-|-stype:attr=1|qr_nm:gd|res:RC3|com-cf:nl|ptrs:na|ktp:N0|mc:190782|mtp:S|qry_typ:P|lang:en|wc:2|cs:8890|v=4,Shree Nakoda Bhairav Fab Tex,https://www.indiamart.com/shree-nakoda-bhairav-fabtex/?pos=82&kwd=feeding dress&tags=BA||||8228.275|Price|product|||TS|rsf:gd-|-stype:attr=1|qr_nm:gd|res:RC3|com-cf:nl|ptrs:na|ktp:N0|mc:190782|mtp:S|qry_typ:P|lang:en|wc:2|cs:8890|v=4,False,Jahangirpura,Ahmedabad,"2nd Floor, E-213/ A, Prem Darwaja Road, Near Idgah Circle, City Center, Jahangirpura, Ahmedabad - 380016, Dist.Ahmedabad, Gujarat",8047306382,
"JAF Feeding Printed Green Gown, Three fourth sleeve",https://www.indiamart.com/proddetail/jaf-feeding-printed-green-gown-2852582515912.html?pos=83&kwd=feeding dress&tags=BA||||8601.347|Price|product|||MDC|rsf:gd-|-stype:attr=1|qr_nm:gd|res:RC3|com-cf:nl|ptrs:na|ktp:N0|mc:190782|mtp:S|qry_typ:P|lang:en|wc:2|cs:8890|v=4,Jai Ambay Fashion,https://www.indiamart.com/jai-ambay-fashion/?pos=83&kwd=feeding dress&tags=BA||||8601.347|Price|product|||MDC|rsf:gd-|-stype:attr=1|qr_nm:gd|res:RC3|com-cf:nl|ptrs:na|ktp:N0|mc:190782|mtp:S|qry_typ:P|lang:en|wc:2|cs:8890|v=4,False,Sanganer,Jaipur,"Bawdi Ka Bas Kunjaro Ki Dhani, Sanganer, Jaipur - 302029, Dist.Jaipur, Rajasthan",7942715038,
Women Cotton Printed Maternity & Feeding Top & Pyjama Set,https://www.indiamart.com/proddetail/women-cotton-printed-maternity-feeding-top-pyjama-set-2851015850697.html?pos=84&kwd=feeding dress&tags=BA||||8211.142|Price|product|||MDC|rsf:gd-|-stype:attr=1|qr_nm:gd|res:RC3|com-cf:nl|ptrs:na|ktp:N0|mc:190782|mtp:S|qry_typ:P|lang:en|wc:2|cs:8890|v=4,Sarvodaya,https://www.indiamart.com/sarvodayamumbai/?pos=84&kwd=feeding dress&tags=BA||||8211.142|Price|product|||MDC|rsf:gd-|-stype:attr=1|qr_nm:gd|res:RC3|com-cf:nl|ptrs:na|ktp:N0|mc:190782|mtp:S|qry_typ:P|lang:en|wc:2|cs:8890|v=4,False,Kandivali West,Mumbai,"305, Shree Nikunj Bldg. No. 2, Off. S. V. Road, Mumbai Suburban, Kandivali West, Mumbai - 400067, Dist.Mumbai, Maharashtra",7942793851,
"Printed Ladies Peach Feeding Gown, Half Sleeve",https://www.indiamart.com/proddetail/ladies-peach-feeding-gown-2852767181533.html?pos=85&kwd=feeding dress&tags=BA||||8601.347|Price|product|||MDC|rsf:gd-|-stype:attr=1|qr_nm:gd|res:RC3|com-cf:nl|ptrs:na|ktp:N0|mc:190782|mtp:S|qry_typ:P|lang:en|wc:2|cs:8890|v=4,Sheffali,https://www.indiamart.com/sheffali/?pos=85&kwd=feeding dress&tags=BA||||8601.347|Price|product|||MDC|rsf:gd-|-stype:attr=1|qr_nm:gd|res:RC3|com-cf:nl|ptrs:na|ktp:N0|mc:190782|mtp:S|qry_typ:P|lang:en|wc:2|cs:8890|v=4,False,Ajmer Road,Jaipur,"C-61, Opp. Kabra Eye Hospital, Jamna Nagar, Sodala, Ajmer Road, Jaipur - 302006, Dist.Jaipur, Rajasthan",7942720926,
Feeding Dress,,SR Clothing,https://www.indiamart.com/sr-clothing-tamilnadu/?pos=86&kwd=feeding dress&tags=BB||||8626.744|Price|product|||MDC|rsf:gd-|-stype:attr=1|qr_nm:gd|res:RC3|com-cf:nl|ptrs:na|ktp:N0|mc:190782|mtp:S|qry_typ:P|lang:en|wc:2|cs:8890|v=4,False,Samalapuram,Tiruppur,"5/177-F1,,Jeeva Nagar 7th Street,Samalapuram, Samalapuram, Tiruppur - 641663, Dist.Coimbatore, Tamil Nadu",7949095886,
Rayon Feeding Kurti,,Bhakti Kurti,https://www.indiamart.com/bhakti/?pos=87&kwd=feeding dress&tags=BA||||8211.142||product|||MDC|rsf:gd-|-stype:attr=1|qr_nm:gd|res:RC3|com-cf:nl|ptrs:na|ktp:N0|mc:190782|mtp:S|qry_typ:P|lang:en|wc:2|cs:8890|v=4,False,Bhawani Shankar,Mumbai,"Plot-510,first Floor 1/112 Babu Rao Parulaker Marg Jay Gopal Industrial Estate Gate Mumbai, Bhawani Shankar, Mumbai - 400028, Dist.Mumbai, Maharashtra",8048608220,
Women Grey Floor Length Party Maxi Maternity Gown,https://www.indiamart.com/proddetail/women-grey-floor-length-party-maxi-maternity-gown-2853701165933.html?pos=88&kwd=feeding dress&tags=A||||8752.144|Price|proxy|||MDC|rsf:gd-|-stype:attr=1|qr_nm:gd|res:RC3|com-cf:nl|ptrs:na|ktp:N0|mc:190782|mtp:S|qry_typ:P|lang:en|wc:2|cs:8890|v=4,Ekaavali,https://www.indiamart.com/ekaavali/?pos=88&kwd=feeding dress&tags=A||||8752.144|Price|proxy|||MDC|rsf:gd-|-stype:attr=1|qr_nm:gd|res:RC3|com-cf:nl|ptrs:na|ktp:N0|mc:190782|mtp:S|qry_typ:P|lang:en|wc:2|cs:8890|v=4,False,Palam,New Delhi,"Flat No-263, Excellence Apartments, Sector 18A, Dwarka, Palam, New Delhi - 110075, Dist.Delhi, Delhi",7949095107,
Cotton Zipless Maternity Feeding Loungewear,https://www.indiamart.com/proddetail/zipless-maternity-feeding-loungewear-2854269753391.html?pos=89&kwd=feeding dress&tags=A||||8626.744|Price|product|||NA|rsf:gd-|-stype:attr=1|qr_nm:gd|res:RC3|com-cf:nl|ptrs:na|ktp:N0|mc:190782|mtp:S|qry_typ:P|lang:en|wc:2|cs:8890|v=4,Md Creations,https://www.indiamart.com/company/224055559/?pos=89&kwd=feeding dress&tags=A||||8626.744|Price|product|||NA|rsf:gd-|-stype:attr=1|qr_nm:gd|res:RC3|com-cf:nl|ptrs:na|ktp:N0|mc:190782|mtp:S|qry_typ:P|lang:en|wc:2|cs:8890|v=4,False,,Tiruppur,"Ground Floor No-2/820l Amaravathi Nagar Extn, Veerapandi K Chettipalayam, Tiruppur - 641605, Dist.Coimbatore, Tamil Nadu",7942632580,
Aline kurtis,https://www.indiamart.com/proddetail/aline-kurtis-2851606702530.html?pos=90&kwd=feeding dress&tags=BA||||8654.703|Price|proxy|||TS|rsf:gd-|-stype:attr=1|qr_nm:gd|res:RC3|com-cf:nl|ptrs:na|ktp:N0|mc:190782|mtp:S|qry_typ:P|lang:en|wc:2|cs:8890|v=4,Namma Trends,https://www.indiamart.com/nammatrends-perundurai/?pos=90&kwd=feeding dress&tags=BA||||8654.703|Price|proxy|||TS|rsf:gd-|-stype:attr=1|qr_nm:gd|res:RC3|com-cf:nl|ptrs:na|ktp:N0|mc:190782|mtp:S|qry_typ:P|lang:en|wc:2|cs:8890|v=4,False,Perundurai,Perundurai,"40, Raja Street, Erode, Perundurai, Perundurai - 638052, Dist.Erode, Tamil Nadu",7942834704,
Ladies Maternity Kurtis,https://www.indiamart.com/proddetail/ladies-maternity-kurtis-2853293361788.html?pos=91&kwd=feeding dress&tags=BA||||8601.347|Price|product|||NA|rsf:gd-|-stype:attr=1|qr_nm:gd|res:RC3|com-cf:nl|ptrs:na|ktp:N0|mc:190782|mtp:S|qry_typ:P|lang:en|wc:2|cs:8890|v=4,Pacific Overseas,https://www.indiamart.com/pacific-overseas-jaipur/?pos=91&kwd=feeding dress&tags=BA||||8601.347|Price|product|||NA|rsf:gd-|-stype:attr=1|qr_nm:gd|res:RC3|com-cf:nl|ptrs:na|ktp:N0|mc:190782|mtp:S|qry_typ:P|lang:en|wc:2|cs:8890|v=4,False,,Jaipur,"Plot No 154 Sanganer Dada Gurudev Nagar, Jaipur - 302029, Dist.Jaipur, Rajasthan",7942803814,
Feeding Kurti Feeding Dress,https://www.indiamart.com/proddetail/feeding-kurti-feeding-dress-2852127289362.html?pos=92&kwd=feeding dress&tags=BA||||8601.347|Price|product|||NA|rsf:gd-|-stype:attr=1|qr_nm:gd|res:RC3|com-cf:nl|ptrs:na|ktp:N0|mc:190782|mtp:S|qry_typ:P|lang:en|wc:2|cs:8890|v=4,The Cotton Factory,https://www.indiamart.com/thecottonfactory-rajasthan/?pos=92&kwd=feeding dress&tags=BA||||8601.347|Price|product|||NA|rsf:gd-|-stype:attr=1|qr_nm:gd|res:RC3|com-cf:nl|ptrs:na|ktp:N0|mc:190782|mtp:S|qry_typ:P|lang:en|wc:2|cs:8890|v=4,False,,Jaipur,"3/280 Vidhayadhar Nagar, Jaipur - 302039, Dist.Jaipur, Rajasthan",8047522771,
Crepe Printed feeding dress,https://www.indiamart.com/proddetail/printed-feeding-dress-2854296994473.html?pos=93&kwd=feeding dress&tags=BA||||8206.306|Price|product|||NA|rsf:gd-|-stype:attr=1|qr_nm:gd|res:RC3|com-cf:nl|ptrs:na|ktp:N0|mc:190782|mtp:S|qry_typ:P|lang:en|wc:2|cs:8890|v=4,Mehta Creation,https://www.indiamart.com/mehta-creation-thane/?pos=93&kwd=feeding dress&tags=BA||||8206.306|Price|product|||NA|rsf:gd-|-stype:attr=1|qr_nm:gd|res:RC3|com-cf:nl|ptrs:na|ktp:N0|mc:190782|mtp:S|qry_typ:P|lang:en|wc:2|cs:8890|v=4,False,Bhayandar West,Bhayander West,"B 5, Amba Smruti, Maharana Pratap Road, Hanuman Mandir, Thane, Bhayandar West, Bhayander West - 401101, Maharashtra",8045166707,
Plain Blue Cotton Feeding Dress,https://www.indiamart.com/proddetail/blue-cotton-feeding-dress-2849074786673.html?pos=94&kwd=feeding dress&tags=BB||||8230.883|Price|product|||NA|rsf:gd-|-stype:attr=1|qr_nm:gd|res:RC3|com-cf:nl|ptrs:na|ktp:N0|mc:190782|mtp:S|qry_typ:P|lang:en|wc:2|cs:8890|v=4,Look At Fabonic,https://www.indiamart.com/lookatfabonic/?pos=94&kwd=feeding dress&tags=BB||||8230.883|Price|product|||NA|rsf:gd-|-stype:attr=1|qr_nm:gd|res:RC3|com-cf:nl|ptrs:na|ktp:N0|mc:190782|mtp:S|qry_typ:P|lang:en|wc:2|cs:8890|v=4,False,,Surat,"Office No.473, Fourth Flour, Times Trade Centre, Canal Road, Surat - 395010, Dist.Surat, Gujarat",8047545517,
Ladies Cotton Maternity Feeding Dress,https://www.indiamart.com/proddetail/ladies-cotton-maternity-feeding-dress-2849036111762.html?pos=95&kwd=feeding dress&tags=BB||||8211.142|Price|product|||NA|rsf:gd-|-stype:attr=1|qr_nm:gd|res:RC3|com-cf:nl|ptrs:na|ktp:N0|mc:190782|mtp:S|qry_typ:P|lang:en|wc:2|cs:8890|v=4,Manas Apparels,https://www.indiamart.com/manasapparels-mumbai/?pos=95&kwd=feeding dress&tags=BB||||8211.142|Price|product|||NA|rsf:gd-|-stype:attr=1|qr_nm:gd|res:RC3|com-cf:nl|ptrs:na|ktp:N0|mc:190782|mtp:S|qry_typ:P|lang:en|wc:2|cs:8890|v=4,False,,Mumbai,"Office No 520, Kenorita Garment Hub, Sanjay Gandhi Nagar, Caves Road, Jogeshwari East, Suburban, Mumbai - 400060, Dist.Mumbai, Maharashtra",7942672323,
Mother baby feeding kurti,https://www.indiamart.com/proddetail/mother-baby-feeding-kurti-2849562721188.html?pos=96&kwd=feeding dress&tags=BB||||8788.159|Price|product|||NA|rsf:gd-|-stype:attr=1|qr_nm:gd|res:RC3|com-cf:nl|ptrs:na|ktp:N0|mc:190782|mtp:S|qry_typ:P|lang:en|wc:2|cs:8890|v=4,Sanskriti,https://www.indiamart.com/sanskriti-secunderabad/?pos=96&kwd=feeding dress&tags=BB||||8788.159|Price|product|||NA|rsf:gd-|-stype:attr=1|qr_nm:gd|res:RC3|com-cf:nl|ptrs:na|ktp:N0|mc:190782|mtp:S|qry_typ:P|lang:en|wc:2|cs:8890|v=4,False,Kalasiguda,Secunderabad,"3-4-130, Naka Bazar , Behind Mahankali Temple, Near Oswal Saree Center, Kalasiguda, Secunderabad - 500003, Dist.Hyderabad, Telangana",8062245068,493
"Ladies Feeding Nighty, Sleeves: Full Sleeves",https://www.indiamart.com/proddetail/ladies-feeding-nighty-25619769297.html?pos=97&kwd=feeding dress&tags=BA||||8228.275|Price|product|||NA|rsf:gd-|-stype:attr=1|qr_nm:gd|res:RC3|com-cf:nl|ptrs:na|ktp:N0|mc:190782|mtp:S|qry_typ:P|lang:en|wc:2|cs:8890|v=4,Kalavati Fashion,https://www.indiamart.com/kalavatifashionahmedabad/?pos=97&kwd=feeding dress&tags=BA||||8228.275|Price|product|||NA|rsf:gd-|-stype:attr=1|qr_nm:gd|res:RC3|com-cf:nl|ptrs:na|ktp:N0|mc:190782|mtp:S|qry_typ:P|lang:en|wc:2|cs:8890|v=4,False,Sherkotda,Ahmedabad,"A-2010 And A-2011, 2nd Floor, City Center-2, Opp Arya Samaj Mandir, Raipur Kankaria Road, Sherkotda, Ahmedabad - 380001, Dist.Ahmedabad, Gujarat",7942540677,
Three fourth sleeve Feeding Kurtis,https://www.indiamart.com/proddetail/feeding-kurtis-2852657665091.html?pos=98&kwd=feeding dress&tags=BA||||8230.883|Price|product|||NA|rsf:gd-|-stype:attr=1|qr_nm:gd|res:RC3|com-cf:nl|ptrs:na|ktp:N0|mc:190782|mtp:S|qry_typ:P|lang:en|wc:2|cs:8890|v=4,Gurukrupa Creation,https://www.indiamart.com/gurukrupa-creation-gujarat/?pos=98&kwd=feeding dress&tags=BA||||8230.883|Price|product|||NA|rsf:gd-|-stype:attr=1|qr_nm:gd|res:RC3|com-cf:nl|ptrs:na|ktp:N0|mc:190782|mtp:S|qry_typ:P|lang:en|wc:2|cs:8890|v=4,False,,Surat,"Plot No 68, 1st Floor, Darshan Industrial Society, Dr KV Hagrenad Road, Surat - 395017, Dist.Surat, Gujarat",7942821872,
"Green Cotton Feeding Nighty, Printed, Stitched",https://www.indiamart.com/proddetail/cotton-feeding-nighty-24269543562.html?pos=99&kwd=feeding dress&tags=BB||||8228.275|Price|product|||NA|rsf:gd-|-stype:attr=1|qr_nm:gd|res:RC3|com-cf:nl|ptrs:na|ktp:N0|mc:190782|mtp:S|qry_typ:P|lang:en|wc:2|cs:8890|v=4,Laxmi Textile,https://www.indiamart.com/laxmitextile-ahmedabad/?pos=99&kwd=feeding dress&tags=BB||||8228.275|Price|product|||NA|rsf:gd-|-stype:attr=1|qr_nm:gd|res:RC3|com-cf:nl|ptrs:na|ktp:N0|mc:190782|mtp:S|qry_typ:P|lang:en|wc:2|cs:8890|v=4,False,Sindhi Market Azad Sweet Gali,Ahmedabad,"S- 109- South Revdi Bazar, Sindhi Market Azad Sweet Gali, Ahmedabad - 380002, Dist.Ahmedabad, Gujarat",8047300549,
Cotton Ladies Feeding Kurties,https://www.indiamart.com/proddetail/ladies-feeding-kurties-2854240430397.html?pos=100&kwd=feeding dress&tags=BB||||8230.883|Price|product|||NA|rsf:gd-|-stype:attr=1|qr_nm:gd|res:RC3|com-cf:nl|ptrs:na|ktp:N0|mc:190782|mtp:S|qry_typ:P|lang:en|wc:2|cs:8890|v=4,Ladli Creations,https://www.indiamart.com/ladlicreations-surat/?pos=100&kwd=feeding dress&tags=BB||||8230.883|Price|product|||NA|rsf:gd-|-stype:attr=1|qr_nm:gd|res:RC3|com-cf:nl|ptrs:na|ktp:N0|mc:190782|mtp:S|qry_typ:P|lang:en|wc:2|cs:8890|v=4,False,,Surat,"Time Trade Center Near Polaris Punagam Surat Gujarat, Surat - 395010, Dist.Surat, Gujarat",8048370719,5766
"Medium Cotton Feeding Kurtis, Wash Care: Machine wash, Printed",https://www.indiamart.com/proddetail/cotton-feeding-kurtis-24662058073.html?pos=101&kwd=feeding dress&tags=BB||||8601.347|Price|product|||NA|rsf:gd-|-stype:attr=1|qr_nm:gd|res:RC3|com-cf:nl|ptrs:na|ktp:N0|mc:190782|mtp:S|qry_typ:P|lang:en|wc:2|cs:8890|v=4,Jaipur Trendz,https://www.indiamart.com/jaipurtrendz/?pos=101&kwd=feeding dress&tags=BB||||8601.347|Price|product|||NA|rsf:gd-|-stype:attr=1|qr_nm:gd|res:RC3|com-cf:nl|ptrs:na|ktp:N0|mc:190782|mtp:S|qry_typ:P|lang:en|wc:2|cs:8890|v=4,False,Sodala,Jaipur,"First Floor 56, Mohan Colony, Ram Nagar Vistar, Sodala, Jaipur - 302019, Dist.Jaipur, Rajasthan",7942534742,
Cotton Feeding Nighties,https://www.indiamart.com/proddetail/cotton-feeding-nighties-2854048693930.html?pos=102&kwd=feeding dress&tags=BA||||8675.569|Price|product|||NA|rsf:gd-|-stype:attr=1|qr_nm:gd|res:RC3|com-cf:nl|ptrs:na|ktp:N0|mc:190782|mtp:S|qry_typ:P|lang:en|wc:2|cs:8890|v=4,Inthiyaz Textiles & Garments,https://www.indiamart.com/inthiyaz-textiles-garments/?pos=102&kwd=feeding dress&tags=BA||||8675.569|Price|product|||NA|rsf:gd-|-stype:attr=1|qr_nm:gd|res:RC3|com-cf:nl|ptrs:na|ktp:N0|mc:190782|mtp:S|qry_typ:P|lang:en|wc:2|cs:8890|v=4,False,,Pamidi,"4/199 Utlamanu Street Pamidi Anantapur, Pamidi - 515775, Dist.Anantapur, Andhra Pradesh",8048370705,4818
"Multicolor Half Feeding Dress, Size: XL",https://www.indiamart.com/proddetail/feeding-dress-2851917709162.html?pos=103&kwd=feeding dress&tags=BA||||8584.299|Price|product|||NA|rsf:gd-|-stype:attr=1|qr_nm:gd|res:RC3|com-cf:nl|ptrs:na|ktp:N0|mc:190782|mtp:S|qry_typ:P|lang:en|wc:2|cs:8890|v=4,Mystique Collection,https://www.indiamart.com/mystique-collection/?pos=103&kwd=feeding dress&tags=BA||||8584.299|Price|product|||NA|rsf:gd-|-stype:attr=1|qr_nm:gd|res:RC3|com-cf:nl|ptrs:na|ktp:N0|mc:190782|mtp:S|qry_typ:P|lang:en|wc:2|cs:8890|v=4,False,,Coimbatore,"86 Nandha Nagar Singanallur, Coimbatore - 641005, Dist.Coimbatore, Tamil Nadu",8069033848,551
Cotton Feeding Dress,https://www.indiamart.com/proddetail/feeding-dress-2853733923697.html?pos=104&kwd=feeding dress&tags=BA||||8778.123|Price|product|||NA|rsf:gd-|-stype:attr=1|qr_nm:gd|res:RC3|com-cf:nl|ptrs:na|ktp:N0|mc:190782|mtp:S|qry_typ:P|lang:en|wc:2|cs:8890|v=4,Angloindu Fashion Private Limited,https://www.indiamart.com/angloindufashion/?pos=104&kwd=feeding dress&tags=BA||||8778.123|Price|product|||NA|rsf:gd-|-stype:attr=1|qr_nm:gd|res:RC3|com-cf:nl|ptrs:na|ktp:N0|mc:190782|mtp:S|qry_typ:P|lang:en|wc:2|cs:8890|v=4,False,,Noida,"Ground Floor F-69 Sector-41, Noida - 201303, Dist.Gautam Budh Nagar, Uttar Pradesh",7942830126,
Soild Pink Maternity Feeding Kurti,https://www.indiamart.com/proddetail/soild-pink-maternity-feeding-kurti-25532120662.html?pos=105&kwd=feeding dress&tags=BB||||9814.149|Price|product|||NA|rsf:gd-|-stype:attr=1|qr_nm:gd|res:RC3|com-cf:nl|ptrs:na|ktp:N0|mc:190782|mtp:S|qry_typ:P|lang:en|wc:2|cs:8890|v=4,SK Garment,https://www.indiamart.com/sk-garment-karari/?pos=105&kwd=feeding dress&tags=BB||||9814.149|Price|product|||NA|rsf:gd-|-stype:attr=1|qr_nm:gd|res:RC3|com-cf:nl|ptrs:na|ktp:N0|mc:190782|mtp:S|qry_typ:P|lang:en|wc:2|cs:8890|v=4,False,,Chaspara,"Mofijuddin Biswas Para, Chaspara, Malda, Chaspara - 732206, Dist.Malda, West Bengal",7942791369,
"Cotton Formal Wear Women Feeding Dress, Wash Care: Handwash",https://www.indiamart.com/proddetail/women-feeding-dress-23086791133.html?pos=106&kwd=feeding dress&tags=BB||||8601.347|Price|product|||NA|rsf:gd-|-stype:attr=1|qr_nm:gd|res:RC3|com-cf:nl|ptrs:na|ktp:N0|mc:190782|mtp:S|qry_typ:P|lang:en|wc:2|cs:8890|v=4,Purvansh Enterprises,https://www.indiamart.com/purvanshenterprises/?pos=106&kwd=feeding dress&tags=BB||||8601.347|Price|product|||NA|rsf:gd-|-stype:attr=1|qr_nm:gd|res:RC3|com-cf:nl|ptrs:na|ktp:N0|mc:190782|mtp:S|qry_typ:P|lang:en|wc:2|cs:8890|v=4,False,,Jaipur,"Plot No. 17, Balaji Vihar 2, Govindpura, Kalwar Road, Jaipur - 302012, Dist.Jaipur, Rajasthan",7942564962,
Ladies Feeding Dress,https://www.indiamart.com/proddetail/ladies-feeding-dress-2850319207848.html?pos=107&kwd=feeding dress&tags=BA||||8954.051|Price|product|||NA|rsf:gd-|-stype:attr=1|qr_nm:gd|res:RC3|com-cf:nl|ptrs:na|ktp:N0|mc:190782|mtp:S|qry_typ:P|lang:en|wc:2|cs:8890|v=4,Aryan Creations,https://www.indiamart.com/aryancreationstamilnadu/?pos=107&kwd=feeding dress&tags=BA||||8954.051|Price|product|||NA|rsf:gd-|-stype:attr=1|qr_nm:gd|res:RC3|com-cf:nl|ptrs:na|ktp:N0|mc:190782|mtp:S|qry_typ:P|lang:en|wc:2|cs:8890|v=4,False,,Chennai,"88 1st Floor Maniss Arcade, M.C.Road Oldwashermenpet, Chennai - 600021, Dist.Chennai, Tamil Nadu",7942796481,
Maternity Women's Frock Pattern Feeding Kurti,https://www.indiamart.com/proddetail/maternity-women-s-frock-pattern-feeding-kurti-2853087697062.html?pos=108&kwd=feeding dress&tags=BA||||8601.347|Price|product|||NA|rsf:gd-|-stype:attr=1|qr_nm:gd|res:RC3|com-cf:nl|ptrs:na|ktp:N0|mc:190782|mtp:S|qry_typ:P|lang:en|wc:2|cs:8890|v=4,Vyshivka India Private Limited,https://www.indiamart.com/vyshivka-india/?pos=108&kwd=feeding dress&tags=BA||||8601.347|Price|product|||NA|rsf:gd-|-stype:attr=1|qr_nm:gd|res:RC3|com-cf:nl|ptrs:na|ktp:N0|mc:190782|mtp:S|qry_typ:P|lang:en|wc:2|cs:8890|v=4,False,Sector 75,Jaipur,"Plot No. 1, Bajrang Nagar Ext 2 Bajrang Vihar, Sector 75, Jaipur - 302029, Dist.Jaipur, Rajasthan",8048986925,
"Maroon Feeding Dress, Sleeves: 3quarter",https://www.indiamart.com/proddetail/feeding-dress-25517821755.html?pos=109&kwd=feeding dress&tags=BB||||8785.791|Price|product|||NA|rsf:gd-|-stype:attr=1|qr_nm:gd|res:RC3|com-cf:nl|ptrs:na|ktp:N0|mc:190782|mtp:S|qry_typ:P|lang:en|wc:2|cs:8890|v=4,9happymonths Maternity Care Private Limited,https://www.indiamart.com/9happymonths-maternity-care-private-limited/?pos=109&kwd=feeding dress&tags=BB||||8785.791|Price|product|||NA|rsf:gd-|-stype:attr=1|qr_nm:gd|res:RC3|com-cf:nl|ptrs:na|ktp:N0|mc:190782|mtp:S|qry_typ:P|lang:en|wc:2|cs:8890|v=4,False,,Ghaziabad,"FLAT NO-B1005, SHIPRA KRISHNA VISTA, AHINSA KHAND-I, INDIRAPURAM, GHAZIABAD flat No-b1005 Ahinsa Khand-i, Indirapuram Shipra Krishna Vista Ghaziabad, 201014, Delhi, Ghaziabad - 201014, Dist.Ghaziabad, Uttar Pradesh",8069033811,797
"Pink Three fourth sleeve Designer Premium Maternity And Feeding Dress, Size: 5XL",https://www.indiamart.com/proddetail/designer-premium-maternity-and-feeding-dress-2852133489491.html?pos=110&kwd=feeding dress&tags=BA||||8230.883|Price|product|||NA|rsf:gd-|-stype:attr=1|qr_nm:gd|res:RC3|com-cf:nl|ptrs:na|ktp:N0|mc:190782|mtp:S|qry_typ:P|lang:en|wc:2|cs:8890|v=4,Jay Bholenath Enterprise,https://www.indiamart.com/jay-bholenath-enterprise/?pos=110&kwd=feeding dress&tags=BA||||8230.883|Price|product|||NA|rsf:gd-|-stype:attr=1|qr_nm:gd|res:RC3|com-cf:nl|ptrs:na|ktp:N0|mc:190782|mtp:S|qry_typ:P|lang:en|wc:2|cs:8890|v=4,False,Varachha,Surat,"117,Amrut Udhyog Nagar,Laskana, Kamrej,surat, Varachha, Surat - 394185, Dist.Surat, Gujarat",7942865158,
"Feeding Kurtis, Size: L",https://www.indiamart.com/proddetail/feeding-kurtis-25802453433.html?pos=111&kwd=feeding dress&tags=BA||||8307.81|Price|product|||NA|rsf:gd-|-stype:attr=1|qr_nm:gd|res:RC3|com-cf:nl|ptrs:na|ktp:N0|mc:190782|mtp:S|qry_typ:P|lang:en|wc:2|cs:8890|v=4,Maa Rohini Garments,https://www.indiamart.com/maa-rohini-garments/?pos=111&kwd=feeding dress&tags=BA||||8307.81|Price|product|||NA|rsf:gd-|-stype:attr=1|qr_nm:gd|res:RC3|com-cf:nl|ptrs:na|ktp:N0|mc:190782|mtp:S|qry_typ:P|lang:en|wc:2|cs:8890|v=4,False,,Pune,"CTS No 670 671 683 A 683 B 683 C 1, Fourth Flr Office No 16, Anand Mall, Rawivar Peth, Pune - 411002, Dist.Pune, Maharashtra",7949361159,
Multicolor Feeding Kurtis,https://www.indiamart.com/proddetail/feeding-kurtis-2853568410691.html?pos=112&kwd=feeding dress&tags=BA||||8228.275|Price|product|||NA|rsf:gd-|-stype:attr=1|qr_nm:gd|res:RC3|com-cf:nl|ptrs:na|ktp:N0|mc:190782|mtp:S|qry_typ:P|lang:en|wc:2|cs:8890|v=4,Chandra Fab Tex,https://www.indiamart.com/chandrafabtex/?pos=112&kwd=feeding dress&tags=BA||||8228.275|Price|product|||NA|rsf:gd-|-stype:attr=1|qr_nm:gd|res:RC3|com-cf:nl|ptrs:na|ktp:N0|mc:190782|mtp:S|qry_typ:P|lang:en|wc:2|cs:8890|v=4,False,,Ahmedabad,"3rd Floor, 301, Simandhar Green, Behind Orchid Green, Giridhar Nagar, Ahmedabad - 380016, Dist.Ahmedabad, Gujarat",7942797447,
"Red Feeding nighty, Size: XXL",https://www.indiamart.com/proddetail/feeding-nighty-2851911809062.html?pos=113&kwd=feeding dress&tags=BA||||8717.056|Price|product|||NA|rsf:gd-|-stype:attr=1|qr_nm:gd|res:RC3|com-cf:nl|ptrs:na|ktp:N0|mc:190782|mtp:S|qry_typ:P|lang:en|wc:2|cs:8890|v=4,Janaki Textiles,https://www.indiamart.com/janakitextiles/?pos=113&kwd=feeding dress&tags=BA||||8717.056|Price|product|||NA|rsf:gd-|-stype:attr=1|qr_nm:gd|res:RC3|com-cf:nl|ptrs:na|ktp:N0|mc:190782|mtp:S|qry_typ:P|lang:en|wc:2|cs:8890|v=4,False,,Salem,"No 82, V.O.C Nagar, KN Colony,, Dadampatty Post, Ammapet, Salem - 636003, Dist.Salem, Tamil Nadu",8046045583,
XXL Cotton Feeding Nighty,https://www.indiamart.com/proddetail/feeding-nighty-17438973233.html?pos=114&kwd=feeding dress&tags=BA||||8706.587||product|||NA|rsf:gd-|-stype:attr=1|qr_nm:gd|res:RC3|com-cf:nl|ptrs:na|ktp:N0|mc:190782|mtp:S|qry_typ:P|lang:en|wc:2|cs:8890|v=4,Soundarya Sarees Cotton Nites,https://www.indiamart.com/soundarya-tex/?pos=114&kwd=feeding dress&tags=BA||||8706.587||product|||NA|rsf:gd-|-stype:attr=1|qr_nm:gd|res:RC3|com-cf:nl|ptrs:na|ktp:N0|mc:190782|mtp:S|qry_typ:P|lang:en|wc:2|cs:8890|v=4,False,,Madurai,"11B/1, Vinayaga Nagari Street, Madurai - 625020, Dist.Madurai, Tamil Nadu",8062245125,510
Cotton Feeding Nighty,https://www.indiamart.com/proddetail/feeding-nighty-24056101212.html?pos=115&kwd=feeding dress&tags=BB||||8637.297||product|||NA|rsf:gd-|-stype:attr=1|qr_nm:gd|res:RC3|com-cf:nl|ptrs:na|ktp:N0|mc:190782|mtp:S|qry_typ:P|lang:en|wc:2|cs:8890|v=4,Sivanarul Textiles,https://www.indiamart.com/sivanarul-textiles/?pos=115&kwd=feeding dress&tags=BB||||8637.297||product|||NA|rsf:gd-|-stype:attr=1|qr_nm:gd|res:RC3|com-cf:nl|ptrs:na|ktp:N0|mc:190782|mtp:S|qry_typ:P|lang:en|wc:2|cs:8890|v=4,False,,Chettiarpatti,"11a/2 Muhavoor Rastha Keelpuram Seithur Muhavoor Rastha keelpuram, Chettiarpatti - 626111, Tamil Nadu",8048372605,578
Mother Feeding Kurtis,https://www.indiamart.com/proddetail/mother-feeding-kurtis-2852696259473.html?pos=116&kwd=feeding dress&tags=BA||||8601.347|Price|product|||NA|rsf:gd-|-stype:attr=1|qr_nm:gd|res:RC3|com-cf:nl|ptrs:na|ktp:N0|mc:190782|mtp:S|qry_typ:P|lang:en|wc:2|cs:8890|v=4,Janvi Creation,https://www.indiamart.com/janvicreation-rajasthan/?pos=116&kwd=feeding dress&tags=BA||||8601.347|Price|product|||NA|rsf:gd-|-stype:attr=1|qr_nm:gd|res:RC3|com-cf:nl|ptrs:na|ktp:N0|mc:190782|mtp:S|qry_typ:P|lang:en|wc:2|cs:8890|v=4,False,Kapoorawala,Jaipur,"Na, Gurjaro Ka Mohalla, Sanganer,, Kapoorawala, Jaipur - 302029, Dist.Jaipur, Rajasthan",7942871604,
Rayon Women Feeding Dresses,https://www.indiamart.com/proddetail/women-feeding-dresses-2854771894573.html?pos=117&kwd=feeding dress&tags=BB||||8601.347|Price|product|||NA|rsf:gd-|-stype:attr=1|qr_nm:gd|res:RC3|com-cf:nl|ptrs:na|ktp:N0|mc:190782|mtp:S|qry_typ:P|lang:en|wc:2|cs:8890|v=4,Chandra Fashion Hub,https://www.indiamart.com/chandra-fashion-hub/?pos=117&kwd=feeding dress&tags=BB||||8601.347|Price|product|||NA|rsf:gd-|-stype:attr=1|qr_nm:gd|res:RC3|com-cf:nl|ptrs:na|ktp:N0|mc:190782|mtp:S|qry_typ:P|lang:en|wc:2|cs:8890|v=4,False,,Jaipur,"Plot No 45,,Shri Kalyan Nagar B Sanganer,Jaipur Plot No 45 Shri Kalyan Nagar B Sanganer Jaipur Jaipur Rajasthan 302029,302029,, Jaipur - 302029, Dist.Jaipur, Rajasthan",8048370713,6426
"Casual Wear Anarkali Mother Feeding Kurtis, Wash Care: Machine wash",https://www.indiamart.com/proddetail/mother-feeding-kurtis-23328219312.html?pos=118&kwd=feeding dress&tags=BA||||8230.883|Price|product|||NA|rsf:gd-|-stype:attr=1|qr_nm:gd|res:RC3|com-cf:nl|ptrs:na|ktp:N0|mc:190782|mtp:S|qry_typ:P|lang:en|wc:2|cs:8890|v=4,Aruna Fashion,https://www.indiamart.com/aruna-fashion/?pos=118&kwd=feeding dress&tags=BA||||8230.883|Price|product|||NA|rsf:gd-|-stype:attr=1|qr_nm:gd|res:RC3|com-cf:nl|ptrs:na|ktp:N0|mc:190782|mtp:S|qry_typ:P|lang:en|wc:2|cs:8890|v=4,False,Amroli,Surat,"Ground Floor Plot No. A/27, Shop No.3 Amroli-kosad Road Vardhman Park Society Amroli, Amroli, Surat - 394107, Dist.Surat, Gujarat",8048975248,
"Printed Maternity Feeding Gown, Three fourth sleeve",https://www.indiamart.com/proddetail/maternity-feeding-gown-2853742577648.html?pos=119&kwd=feeding dress&tags=BA||||8230.883|Price|product|||NA|rsf:gd-|-stype:attr=1|qr_nm:gd|res:RC3|com-cf:nl|ptrs:na|ktp:N0|mc:190782|mtp:S|qry_typ:P|lang:en|wc:2|cs:8890|v=4,Bansi Enterprise,https://www.indiamart.com/bansienterprise/?pos=119&kwd=feeding dress&tags=BA||||8230.883|Price|product|||NA|rsf:gd-|-stype:attr=1|qr_nm:gd|res:RC3|com-cf:nl|ptrs:na|ktp:N0|mc:190782|mtp:S|qry_typ:P|lang:en|wc:2|cs:8890|v=4,False,Hirabaugh,Surat,"145, Krishna Park Society, NR.Gelambe Mandir,Kamraj,, Hirabaugh, Surat - 394180, Dist.Surat, Gujarat",7942620842,
"Women Feeding Dress, Sleeves: Half",https://www.indiamart.com/proddetail/women-feeding-dress-22986369233.html?pos=120&kwd=feeding dress&tags=BB||||8752.144|Price|product|||NA|rsf:gd-|-stype:attr=1|qr_nm:gd|res:RC3|com-cf:nl|ptrs:na|ktp:N0|mc:190782|mtp:S|qry_typ:P|lang:en|wc:2|cs:8890|v=4,JD Fashions,https://www.indiamart.com/jdfashions/?pos=120&kwd=feeding dress&tags=BB||||8752.144|Price|product|||NA|rsf:gd-|-stype:attr=1|qr_nm:gd|res:RC3|com-cf:nl|ptrs:na|ktp:N0|mc:190782|mtp:S|qry_typ:P|lang:en|wc:2|cs:8890|v=4,False,Matiyala Uttam Nagar,New Delhi,"Office No. C-60/60 A, Nanhey Park, Matiyala Uttam Nagar, New Delhi - 110059, Dist.Delhi, Delhi",8048372759,640
"White (Base) Mother Feeding Dress, Sleeves: Sleeveless",https://www.indiamart.com/proddetail/mother-feeding-dress-25611145097.html?pos=121&kwd=feeding dress&tags=BB||||8601.347|Price|product|||NA|rsf:gd-|-stype:attr=1|qr_nm:gd|res:RC3|com-cf:nl|ptrs:na|ktp:N0|mc:190782|mtp:S|qry_typ:P|lang:en|wc:2|cs:8890|v=4,HV Exports,https://www.indiamart.com/hvexports-jaipur/?pos=121&kwd=feeding dress&tags=BB||||8601.347|Price|product|||NA|rsf:gd-|-stype:attr=1|qr_nm:gd|res:RC3|com-cf:nl|ptrs:na|ktp:N0|mc:190782|mtp:S|qry_typ:P|lang:en|wc:2|cs:8890|v=4,False,,Jaipur,"210 Frontier Colony Adarsh Nagar, Jaipur - 302004, Dist.Jaipur, Rajasthan",8047651863,
"Brown Women's Cotton Printed Maternity Dress, Size: Free Size, Sleeves: Half Sleeve",https://www.indiamart.com/proddetail/women-s-cotton-printed-maternity-dress-2850819864691.html?pos=122&kwd=feeding dress&tags=BA||||8601.347|Price|product|||NA|rsf:gd-|-stype:attr=1|qr_nm:gd|res:RC3|com-cf:nl|ptrs:na|ktp:N0|mc:190782|mtp:S|qry_typ:P|lang:en|wc:2|cs:8890|v=4,Aaryahi Global,https://www.indiamart.com/aaryahiglobal/?pos=122&kwd=feeding dress&tags=BA||||8601.347|Price|product|||NA|rsf:gd-|-stype:attr=1|qr_nm:gd|res:RC3|com-cf:nl|ptrs:na|ktp:N0|mc:190782|mtp:S|qry_typ:P|lang:en|wc:2|cs:8890|v=4,False,Bajaj Nagar,Jaipur,"BB-10 B, Road No-6, Anita Colony Bajaj Nagar, Bajaj Nagar, Jaipur - 302015, Dist.Jaipur, Rajasthan",8047549365,
"Party Wear 3/4th Sleeve Maternity Feeding Rayon Kurti, Wash Care: Machine wash",https://www.indiamart.com/proddetail/maternity-feeding-rayon-kurti-22690623097.html?pos=123&kwd=feeding dress&tags=BB||||8228.275|Price|product|||NA|rsf:gd-|-stype:attr=1|qr_nm:gd|res:RC3|com-cf:nl|ptrs:na|ktp:N0|mc:190782|mtp:S|qry_typ:P|lang:en|wc:2|cs:8890|v=4,Shashwat Life Style,https://www.indiamart.com/shashwat-life-style/?pos=123&kwd=feeding dress&tags=BB||||8228.275|Price|product|||NA|rsf:gd-|-stype:attr=1|qr_nm:gd|res:RC3|com-cf:nl|ptrs:na|ktp:N0|mc:190782|mtp:S|qry_typ:P|lang:en|wc:2|cs:8890|v=4,False,,Ahmedabad,"B-150,PUSHP INDUSTRIAL PARK, NEAR SHITAL CINEMA, RAKHIAL,AHMEDABAD B-150, Pushp Industrial Park, Gate No. 3, Near Sheetal Cinema, Rakhial,380021,Ahmedabad, Ahmedabad - 380023, Dist.Ahmedabad, Gujarat",7942649690,
Mayil Premier Feeding Nigties,https://www.indiamart.com/proddetail/mayil-premier-feeding-nigties-25152672033.html?pos=124&kwd=feeding dress&tags=BB||||8706.587|Price|product|||NA|rsf:gd-|-stype:attr=1|qr_nm:gd|res:RC3|com-cf:nl|ptrs:na|ktp:N0|mc:190782|mtp:S|qry_typ:P|lang:en|wc:2|cs:8890|v=4,Thirumayil Nighties,https://www.indiamart.com/thirumayil-nighties/?pos=124&kwd=feeding dress&tags=BB||||8706.587|Price|product|||NA|rsf:gd-|-stype:attr=1|qr_nm:gd|res:RC3|com-cf:nl|ptrs:na|ktp:N0|mc:190782|mtp:S|qry_typ:P|lang:en|wc:2|cs:8890|v=4,False,,Madurai,"41-A, First Floor, Mahal, 1st Street, Madurai - 625001, Dist.Madurai, Tamil Nadu",8047303601,
RnP Cotton Feeding Nighty,,Onyx Creations,https://www.indiamart.com/onyx-creations-bengaluru/?pos=125&kwd=feeding dress&tags=BB||||8663.873|Price|product|||NA|rsf:gd-|-stype:attr=1|qr_nm:gd|res:RC3|com-cf:nl|ptrs:na|ktp:N0|mc:190782|mtp:S|qry_typ:P|lang:en|wc:2|cs:8890|v=4,False,,Bengaluru,"31 KGF MUNIREDDY LAYOUT 6TH CROSS MAHADEVAPURA Agrawal, Bengaluru - 560048, Dist.Bengaluru, Karnataka",8048250109,237
"Grey Cotton Maternity Feeding Dress, Sleeves: Half Sleeves",https://www.indiamart.com/proddetail/grey-cotton-maternity-feeding-dress-12936475233.html?pos=126&kwd=feeding dress&tags=BB||||8211.142||product|||NA|rsf:gd-|-stype:attr=1|qr_nm:gd|res:RC3|com-cf:nl|ptrs:na|ktp:N0|mc:190782|mtp:S|qry_typ:P|lang:en|wc:2|cs:8890|v=4,Mothers 2 B NX,https://www.indiamart.com/mothers-2bnx/?pos=126&kwd=feeding dress&tags=BB||||8211.142||product|||NA|rsf:gd-|-stype:attr=1|qr_nm:gd|res:RC3|com-cf:nl|ptrs:na|ktp:N0|mc:190782|mtp:S|qry_typ:P|lang:en|wc:2|cs:8890|v=4,False,Santacruz West,Mumbai,"No. 37, Vazir Chawl, Bhim Wada, SV Road, Santacruz West, Mumbai - 400054, Dist.Mumbai, Maharashtra",8048972477,
"Printed Black Rayon Feeding Dress, Size: Medium",https://www.indiamart.com/proddetail/printed-black-rayon-feeding-dress-2851011398091.html?pos=127&kwd=feeding dress&tags=BB||||8601.347|Price|product|||NA|rsf:gd-|-stype:attr=1|qr_nm:gd|res:RC3|com-cf:nl|ptrs:na|ktp:N0|mc:190782|mtp:S|qry_typ:P|lang:en|wc:2|cs:8890|v=4,Shree Shyam Fabricaters,https://www.indiamart.com/shree-shyam-fabricaters/?pos=127&kwd=feeding dress&tags=BB||||8601.347|Price|product|||NA|rsf:gd-|-stype:attr=1|qr_nm:gd|res:RC3|com-cf:nl|ptrs:na|ktp:N0|mc:190782|mtp:S|qry_typ:P|lang:en|wc:2|cs:8890|v=4,False,,Jaipur,"Ghyan Chand S/0 Shri Gopal Saini, Khasra No3445, Sanganer, Jaipur - 302029, Dist.Jaipur, Rajasthan",8048600283,
Feeding Dress,,Nevisha Style,https://www.indiamart.com/nevisha-style/?pos=128&kwd=feeding dress&tags=BB||||8601.347||product|||NA|rsf:gd-|-stype:attr=1|qr_nm:gd|res:RC3|com-cf:nl|ptrs:na|ktp:N0|mc:190782|mtp:S|qry_typ:P|lang:en|wc:2|cs:8890|v=4,False,,Jaipur,"94,B Keshav Nagar,Jamdoli Agra Road,Jaipur,Jaipur, Jaipur - 302003, Dist.Jaipur, Rajasthan",8069707331,645
"Sleeveless Ladies Cotton Printed Mother Feeding Nighties, Size: 4XL",https://www.indiamart.com/proddetail/ladies-cotton-printed-mother-feeding-nighties-2853394191148.html?pos=129&kwd=feeding dress&tags=BA||||8786.56|Price|product|||NA|rsf:gd-|-stype:attr=1|qr_nm:gd|res:RC3|com-cf:nl|ptrs:na|ktp:N0|mc:190782|mtp:S|qry_typ:P|lang:en|wc:2|cs:8890|v=4,Pinkal Agencies,https://www.indiamart.com/pinkal-agencieshyderabad/?pos=129&kwd=feeding dress&tags=BA||||8786.56|Price|product|||NA|rsf:gd-|-stype:attr=1|qr_nm:gd|res:RC3|com-cf:nl|ptrs:na|ktp:N0|mc:190782|mtp:S|qry_typ:P|lang:en|wc:2|cs:8890|v=4,False,,Hyderabad,"Ground Floor, 3-4-130/135, Hima Apartments, Kachiguda, Barkatpura,, Hyderabad - 500027, Dist.Hyderabad, Telangana",7949224631,
"Medium Round Light Pink Cotton Maternity Feeding Kurti, Printed",https://www.indiamart.com/proddetail/light-pink-cotton-maternity-feeding-kurti-2851034304412.html?pos=130&kwd=feeding dress&tags=BA||||8601.347|Price|product|||NA|rsf:gd-|-stype:attr=1|qr_nm:gd|res:RC3|com-cf:nl|ptrs:na|ktp:N0|mc:190782|mtp:S|qry_typ:P|lang:en|wc:2|cs:8890|v=4,Mahima Creation,https://www.indiamart.com/mahimacreation-jaipur/?pos=130&kwd=feeding dress&tags=BA||||8601.347|Price|product|||NA|rsf:gd-|-stype:attr=1|qr_nm:gd|res:RC3|com-cf:nl|ptrs:na|ktp:N0|mc:190782|mtp:S|qry_typ:P|lang:en|wc:2|cs:8890|v=4,False,Sanganer,Jaipur,"Plot No.-15, North Part, Jai Baba RI Suraj Nagar II Dada Bari Road,, Sanganer, Jaipur - 302029, Dist.Jaipur, Rajasthan",7942831655,
Maroon Feeding kurti,https://www.indiamart.com/proddetail/feeding-kurti-26012132355.html?pos=131&kwd=feeding dress&tags=BB||||8507.67|Price|product|||NA|rsf:gd-|-stype:attr=1|qr_nm:gd|res:RC3|com-cf:nl|ptrs:na|ktp:N0|mc:190782|mtp:S|qry_typ:P|lang:en|wc:2|cs:8890|v=4,Urbaan Collections,https://www.indiamart.com/urban-collection-ernakulam/?pos=131&kwd=feeding dress&tags=BB||||8507.67|Price|product|||NA|rsf:gd-|-stype:attr=1|qr_nm:gd|res:RC3|com-cf:nl|ptrs:na|ktp:N0|mc:190782|mtp:S|qry_typ:P|lang:en|wc:2|cs:8890|v=4,False,Edappally,Ernakulam,"Oberon Mall, Edapally, Edappally, Ernakulam - 682024, Dist.Ernakulam, Kerala",8048372185,504
Georgette Women Feeding Dresses,https://www.indiamart.com/proddetail/women-feeding-dresses-2854288972748.html?pos=132&kwd=feeding dress&tags=BA||||8550.327|Price|product|||NA|rsf:gd-|-stype:attr=1|qr_nm:gd|res:RC3|com-cf:nl|ptrs:na|ktp:N0|mc:190782|mtp:S|qry_typ:P|lang:en|wc:2|cs:8890|v=4,Clevergirl Enterprises,https://www.indiamart.com/clevergirl-enterprises/?pos=132&kwd=feeding dress&tags=BA||||8550.327|Price|product|||NA|rsf:gd-|-stype:attr=1|qr_nm:gd|res:RC3|com-cf:nl|ptrs:na|ktp:N0|mc:190782|mtp:S|qry_typ:P|lang:en|wc:2|cs:8890|v=4,False,,Palakkad,"9/497,,Koduvayur Trippalur Road,Koduvayur 678501, Palakkad - 678501, Dist.Palakkad, Kerala",8048370721,2476
Cotton Women Feeding Dresses,https://www.indiamart.com/proddetail/women-feeding-dresses-2853680935655.html?pos=133&kwd=feeding dress&tags=BA||||8584.299||product|||NA|rsf:gd-|-stype:attr=1|qr_nm:gd|res:RC3|com-cf:nl|ptrs:na|ktp:N0|mc:190782|mtp:S|qry_typ:P|lang:en|wc:2|cs:8890|v=4,The First Date,https://www.indiamart.com/the-first-date/?pos=133&kwd=feeding dress&tags=BA||||8584.299||product|||NA|rsf:gd-|-stype:attr=1|qr_nm:gd|res:RC3|com-cf:nl|ptrs:na|ktp:N0|mc:190782|mtp:S|qry_typ:P|lang:en|wc:2|cs:8890|v=4,False,Kalapatti,Coimbatore,"4th Floor, 403, Smukas Eagle Nest Apartments, KPK Nagar, Veeriyampalayam, Kalapatti,, Kalapatti, Coimbatore - 641048, Dist.Coimbatore, Tamil Nadu",7942666286,
"Maroon Half Women Printed Maternity Feeding Nighty, Size: Free",https://www.indiamart.com/proddetail/women-printed-maternity-feeding-nighty-2853061896512.html?pos=134&kwd=feeding dress&tags=BA||||8242.731|Price|product|||NA|rsf:gd-|-stype:attr=1|qr_nm:gd|res:RC3|com-cf:nl|ptrs:na|ktp:N0|mc:190782|mtp:S|qry_typ:P|lang:en|wc:2|cs:8890|v=4,Mahaveer Enterprises,https://www.indiamart.com/mahaveerenterprisesmaharashtra/?pos=134&kwd=feeding dress&tags=BA||||8242.731|Price|product|||NA|rsf:gd-|-stype:attr=1|qr_nm:gd|res:RC3|com-cf:nl|ptrs:na|ktp:N0|mc:190782|mtp:S|qry_typ:P|lang:en|wc:2|cs:8890|v=4,False,Vithalwadi,Ulhasnagar,"BK No. 703, Room No. 5,6, Opp. Central Police Station, Central Hospital Area, Vithalwadi, Ulhasnagar - 421003, Dist.Thane, Maharashtra",8048269541,
Ladies Feeding Nighty,https://www.indiamart.com/proddetail/ladies-feeding-nighty-2850379209488.html?pos=135&kwd=feeding dress&tags=BB||||8228.275|Price|product|||NA|rsf:gd-|-stype:attr=1|qr_nm:gd|res:RC3|com-cf:nl|ptrs:na|ktp:N0|mc:190782|mtp:S|qry_typ:P|lang:en|wc:2|cs:8890|v=4,Makhija Textile,https://www.indiamart.com/makhijatextile/?pos=135&kwd=feeding dress&tags=BB||||8228.275|Price|product|||NA|rsf:gd-|-stype:attr=1|qr_nm:gd|res:RC3|com-cf:nl|ptrs:na|ktp:N0|mc:190782|mtp:S|qry_typ:P|lang:en|wc:2|cs:8890|v=4,False,,Ahmedabad,"111, Old G Ward, Kubernagar, Ahmedabad - 382340, Dist.Ahmedabad, Gujarat",8048274288,
Feeding Dresses,,Baby & Mom,https://www.indiamart.com/baby-and-mom-clothing/?pos=136&kwd=feeding dress&tags=BA||||8307.81|Price|product|||NA|rsf:gd-|-stype:attr=1|qr_nm:gd|res:RC3|com-cf:nl|ptrs:na|ktp:N0|mc:190782|mtp:S|qry_typ:P|lang:en|wc:2|cs:8890|v=4,False,Kothrud,Pune,"House No- 3, Kothrud, Pune - 411038, Dist.Pune, Maharashtra",8048371837,988
Cotton Aswati feeding nighty,https://www.indiamart.com/proddetail/aswati-feeding-nighty-2853732469988.html?pos=137&kwd=feeding dress&tags=BA||||8663.873|Price|product|||NA|rsf:gd-|-stype:attr=1|qr_nm:gd|res:RC3|com-cf:nl|ptrs:na|ktp:N0|mc:190782|mtp:S|qry_typ:P|lang:en|wc:2|cs:8890|v=4,Prabhakar Enterprises,https://www.indiamart.com/prabhakar-enterprises-bengaluru/?pos=137&kwd=feeding dress&tags=BA||||8663.873|Price|product|||NA|rsf:gd-|-stype:attr=1|qr_nm:gd|res:RC3|com-cf:nl|ptrs:na|ktp:N0|mc:190782|mtp:S|qry_typ:P|lang:en|wc:2|cs:8890|v=4,False,Rajajinagar,Bengaluru,"F 32 3rd cross 3rd main Ramachandrapuram Ramachandrapuram, Rajajinagar, Bengaluru - 560021, Dist.Bengaluru, Karnataka",8069264878,963
"MIX COLOR Printed Ladies Feeding Nighty, Size: XL",https://www.indiamart.com/proddetail/ladies-feeding-nighty-23104561791.html?pos=138&kwd=feeding dress&tags=BA||||8786.56|Price|product|||NA|rsf:gd-|-stype:attr=1|qr_nm:gd|res:RC3|com-cf:nl|ptrs:na|ktp:N0|mc:190782|mtp:S|qry_typ:P|lang:en|wc:2|cs:8890|v=4,S B Creations,https://www.indiamart.com/sbcreationzcom/?pos=138&kwd=feeding dress&tags=BA||||8786.56|Price|product|||NA|rsf:gd-|-stype:attr=1|qr_nm:gd|res:RC3|com-cf:nl|ptrs:na|ktp:N0|mc:190782|mtp:S|qry_typ:P|lang:en|wc:2|cs:8890|v=4,False,Pathar Gatti,Hyderabad,"22-7-269, Dewan Devdi Opp. Post Office, Pathar Gatti, Hyderabad - 500002, Dist.Hyderabad, Telangana",7942563454,
Pink Layered Cotton Maternity And Feeding Dress,https://www.indiamart.com/proddetail/pink-layered-cotton-maternity-and-feeding-dress-25127899155.html?pos=139&kwd=feeding dress&tags=BB||||8663.873|Price|product|||NA|rsf:gd-|-stype:attr=1|qr_nm:gd|res:RC3|com-cf:nl|ptrs:na|ktp:N0|mc:190782|mtp:S|qry_typ:P|lang:en|wc:2|cs:8890|v=4,Moms Ever,https://www.indiamart.com/moms-ever/?pos=139&kwd=feeding dress&tags=BB||||8663.873|Price|product|||NA|rsf:gd-|-stype:attr=1|qr_nm:gd|res:RC3|com-cf:nl|ptrs:na|ktp:N0|mc:190782|mtp:S|qry_typ:P|lang:en|wc:2|cs:8890|v=4,False,,Bengaluru,"T1b 703, Candeur Carlisle, Itpl Main Road, Mahadevpura T1B 703 Candeur Carlisle,, Bengaluru - 560048, Dist.Bengaluru, Karnataka",,
"Feeding Kurti With Zip, Sleeves: Half",https://www.indiamart.com/proddetail/feeding-kurti-with-zip-26031369997.html?pos=140&kwd=feeding dress&tags=BB||||8954.051|Price|product|||NA|rsf:gd-|-stype:attr=1|qr_nm:gd|res:RC3|com-cf:nl|ptrs:na|ktp:N0|mc:190782|mtp:S|qry_typ:P|lang:en|wc:2|cs:8890|v=4,Chikinya Designer Boutique,https://www.indiamart.com/chikinya-designer-boutique/?pos=140&kwd=feeding dress&tags=BB||||8954.051|Price|product|||NA|rsf:gd-|-stype:attr=1|qr_nm:gd|res:RC3|com-cf:nl|ptrs:na|ktp:N0|mc:190782|mtp:S|qry_typ:P|lang:en|wc:2|cs:8890|v=4,False,Abirami Apartments Raji street,Chennai,"1A Singarathottam Vandalur, Abirami Apartments Raji street, Chennai - 600048, Dist.Chennai, Tamil Nadu",8048250411,738
Feeding Kurtis,,Sowndaryam Collections Ds96,https://www.indiamart.com/sowndaryam-collections/?pos=141&kwd=feeding dress&tags=BB||||8954.051|Price|product|||NA|rsf:gd-|-stype:attr=1|qr_nm:gd|res:RC3|com-cf:nl|ptrs:na|ktp:N0|mc:190782|mtp:S|qry_typ:P|lang:en|wc:2|cs:8890|v=4,False,Kancheepuram,Chennai,"P No.152/153, G M Garden 4th Cr St,Govindarajapuram, Kancheepuram, Chennai - 603202, Dist.Chennai, Tamil Nadu",8069857340,798
"Green Half MAYRA KIARA VOl-6 FEEDING KURTI UMBRELLA, Size: 3XL",https://www.indiamart.com/proddetail/mayra-kiara-vol-6-feeding-kurti-umbrella-2852942793348.html?pos=142&kwd=feeding dress&tags=BA||||8230.883|Price|product|||NA|rsf:gd-|-stype:attr=1|qr_nm:gd|res:RC3|com-cf:nl|ptrs:na|ktp:N0|mc:190782|mtp:S|qry_typ:P|lang:en|wc:2|cs:8890|v=4,Priyanjal Ethnicity,https://www.indiamart.com/priyanjal-ethnicity-surat/?pos=142&kwd=feeding dress&tags=BA||||8230.883|Price|product|||NA|rsf:gd-|-stype:attr=1|qr_nm:gd|res:RC3|com-cf:nl|ptrs:na|ktp:N0|mc:190782|mtp:S|qry_typ:P|lang:en|wc:2|cs:8890|v=4,False,,Surat,"Sh No.110 Model Town Road Shree Punjan Plazza, Surat - 395010, Dist.Surat, Gujarat",7942871057,
Cotton Ikkat Printed Feeding Kurti Side Cut,https://www.indiamart.com/proddetail/cotton-ikkat-printed-feeding-kurti-side-cut-25226093533.html?pos=143&kwd=feeding dress&tags=BB||||8954.051||product|||NA|rsf:gd-|-stype:attr=1|qr_nm:gd|res:RC3|com-cf:nl|ptrs:na|ktp:N0|mc:190782|mtp:S|qry_typ:P|lang:en|wc:2|cs:8890|v=4,Vastra Vedhika,https://www.indiamart.com/vastra-vedhika/?pos=143&kwd=feeding dress&tags=BB||||8954.051||product|||NA|rsf:gd-|-stype:attr=1|qr_nm:gd|res:RC3|com-cf:nl|ptrs:na|ktp:N0|mc:190782|mtp:S|qry_typ:P|lang:en|wc:2|cs:8890|v=4,False,,Chennai,"DOOR NO 104,Arihant Frangipani Apartments, Chennai - 603103, Dist.Chennai, Tamil Nadu",8048372153,388
Light Green Printed Viscose Rayon Maternity Feeding Zipper Kurti,https://www.indiamart.com/proddetail/light-green-printed-viscose-rayon-maternity-feeding-zipper-kurti-2850948937433.html?pos=144&kwd=feeding dress&tags=BA||||8601.347|Price|product|||NA|rsf:gd-|-stype:attr=1|qr_nm:gd|res:RC3|com-cf:nl|ptrs:na|ktp:N0|mc:190782|mtp:S|qry_typ:P|lang:en|wc:2|cs:8890|v=4,Heeranandani Enterprises,https://www.indiamart.com/heeranandani-enterprises/?pos=144&kwd=feeding dress&tags=BA||||8601.347|Price|product|||NA|rsf:gd-|-stype:attr=1|qr_nm:gd|res:RC3|com-cf:nl|ptrs:na|ktp:N0|mc:190782|mtp:S|qry_typ:P|lang:en|wc:2|cs:8890|v=4,False,Jawahar Nagar,Jaipur,"645, Sector 2, Near Geeta Mandir, Jawahar Nagar,, Jawahar Nagar, Jaipur - 302004, Dist.Jaipur, Rajasthan",7942833556,
Printed Hosiery Cotton Maternity Women's Nursing Feeding Nightwear With Zipper.,https://www.indiamart.com/proddetail/printed-hosiery-cotton-maternity-women-s-nursing-feeding-nightwear-with-zipper-2850480428791.html?pos=145&kwd=feeding dress&tags=BB||||8579.528|Price|product|||NA|rsf:gd-|-stype:attr=1|qr_nm:gd|res:RC3|com-cf:nl|ptrs:na|ktp:N0|mc:190782|mtp:S|qry_typ:P|lang:en|wc:2|cs:8890|v=4,Shiva Enterprises,https://www.indiamart.com/shiva-enterprises-rajasthan/?pos=145&kwd=feeding dress&tags=BB||||8579.528|Price|product|||NA|rsf:gd-|-stype:attr=1|qr_nm:gd|res:RC3|com-cf:nl|ptrs:na|ktp:N0|mc:190782|mtp:S|qry_typ:P|lang:en|wc:2|cs:8890|v=4,False,,Jhunjhunu,"H.No. 217, Dhani Firaswali, Kankariya, Jhunjhunu - 333053, Dist.Jhujhunu, Rajasthan",7942787666,
"Black Maternity Dress, Sleeves: Sleeveless",https://www.indiamart.com/proddetail/maternity-dress-23105263548.html?pos=146&kwd=feeding dress&tags=BA||||8752.144|Price|product|||NA|rsf:gd-|-stype:attr=1|qr_nm:gd|res:RC3|com-cf:nl|ptrs:na|ktp:N0|mc:190782|mtp:S|qry_typ:P|lang:en|wc:2|cs:8890|v=4,Suz De' Monz,https://www.indiamart.com/dmb/?pos=146&kwd=feeding dress&tags=BA||||8752.144|Price|product|||NA|rsf:gd-|-stype:attr=1|qr_nm:gd|res:RC3|com-cf:nl|ptrs:na|ktp:N0|mc:190782|mtp:S|qry_typ:P|lang:en|wc:2|cs:8890|v=4,False,,New Delhi,"F/F WZ 30A Village Tihar, Near Samuday Bhawan, New Delhi - 110018, Dist.Delhi, Delhi",8048372303,376
"Printed Calf Length Maternity Dress, Sleeves: Orange And White",https://www.indiamart.com/proddetail/printed-calf-length-maternity-dress-24765500473.html?pos=147&kwd=feeding dress&tags=BB||||8571.301|Price|product|||NA|rsf:gd-|-stype:attr=1|qr_nm:gd|res:RC3|com-cf:nl|ptrs:na|ktp:N0|mc:190782|mtp:S|qry_typ:P|lang:en|wc:2|cs:8890|v=4,Mommies,https://www.indiamart.com/mommies-thiruvananthapuram/?pos=147&kwd=feeding dress&tags=BB||||8571.301|Price|product|||NA|rsf:gd-|-stype:attr=1|qr_nm:gd|res:RC3|com-cf:nl|ptrs:na|ktp:N0|mc:190782|mtp:S|qry_typ:P|lang:en|wc:2|cs:8890|v=4,False,Kowdiar,Thiruvananthapuram,"TC 24/3088, Dotspace Business Center, Ushasandya Building Devasom Board Road, Kowdiar, Thiruvananthapuram - 695003, Dist.Thiruvananthapuram, Kerala",8048268238,
Fiding nighaty,,Jatrara Junction,https://www.indiamart.com/jatrara-junction-mumbai/?pos=148&kwd=feeding dress&tags=BA||||8211.142|Price|product|||NA|rsf:gd-|-stype:attr=1|qr_nm:gd|res:RC3|com-cf:nl|ptrs:na|ktp:N0|mc:190782|mtp:S|qry_typ:P|lang:en|wc:2|cs:8890|v=4,False,,Mumbai,"Survey No-4, Near Maharashtra Kanta, 18, LBS Marg, Kurla Mumbai Suburban, Mumbai - 400070, Dist.Mumbai, Maharashtra",7942828184,
"Green Ladies Maternity Kurtis, Size: M L XL XXL",https://www.indiamart.com/proddetail/ladies-maternity-kurtis-23926127988.html?pos=149&kwd=feeding dress&tags=BB||||8601.347|Price|product|||NA|rsf:gd-|-stype:attr=1|qr_nm:gd|res:RC3|com-cf:nl|ptrs:na|ktp:N0|mc:190782|mtp:S|qry_typ:P|lang:en|wc:2|cs:8890|v=4,G D Enterprises,https://www.indiamart.com/gdenterprises-jaipur/?pos=149&kwd=feeding dress&tags=BB||||8601.347|Price|product|||NA|rsf:gd-|-stype:attr=1|qr_nm:gd|res:RC3|com-cf:nl|ptrs:na|ktp:N0|mc:190782|mtp:S|qry_typ:P|lang:en|wc:2|cs:8890|v=4,False,Malpura Gate Sanganer,Jaipur,"Shop No. 10-11, Kisan Colony, Malpura Gate Sanganer, Jaipur - 302029, Dist.Jaipur, Rajasthan",7942558057,
MomToBe Women's Rayon Navy Blue Maternity/Feeding/Nursing Dress,https://www.indiamart.com/proddetail/momtobe-women-s-rayon-navy-blue-maternity-feeding-nursing-dress-24883122891.html?pos=150&kwd=feeding dress&tags=BB||||8211.142|Price|product|||NA|rsf:gd-|-stype:attr=1|qr_nm:gd|res:RC3|com-cf:nl|ptrs:na|ktp:N0|mc:190782|mtp:S|qry_typ:P|lang:en|wc:2|cs:8890|v=4,Classapart Apparels LLP,https://www.indiamart.com/class-apart-apparels/?pos=150&kwd=feeding dress&tags=BB||||8211.142|Price|product|||NA|rsf:gd-|-stype:attr=1|qr_nm:gd|res:RC3|com-cf:nl|ptrs:na|ktp:N0|mc:190782|mtp:S|qry_typ:P|lang:en|wc:2|cs:8890|v=4,False,Malad West,Mumbai,"209, Nirmand Industrial Estate, Link Road, Malad West, Mumbai - 400064, Dist.Mumbai, Maharashtra",8043888259,
Maternity And Nursing Wear,https://www.indiamart.com/proddetail/maternity-and-nursing-wear-2851812016462.html?pos=151&kwd=feeding dress&tags=BA||||8507.67||product|||NA|rsf:gd-|-stype:attr=1|qr_nm:gd|res:RC3|com-cf:nl|ptrs:na|ktp:N0|mc:190782|mtp:S|qry_typ:P|lang:en|wc:2|cs:8890|v=4,Jewish Apparel & Accessories,https://www.indiamart.com/jewish-apparel-accessories/?pos=151&kwd=feeding dress&tags=BA||||8507.67||product|||NA|rsf:gd-|-stype:attr=1|qr_nm:gd|res:RC3|com-cf:nl|ptrs:na|ktp:N0|mc:190782|mtp:S|qry_typ:P|lang:en|wc:2|cs:8890|v=4,False,,Ernakulam,"32/324-A, Ladlee Towers, Vailopilly Road, Near Puthiya Road Junction, Thammanam PO, Ernakulam - 682032, Dist.Ernakulam, Kerala",8069033778,108
Stylish Women Maternity Kurti And Zip - M,https://www.indiamart.com/proddetail/stylish-women-maternity-kurti-and-zip-m-2852005178648.html?pos=152&kwd=feeding dress&tags=BA||||8444.1|Price|product|||NA|rsf:gd-|-stype:attr=1|qr_nm:gd|res:RC3|com-cf:nl|ptrs:na|ktp:N0|mc:190782|mtp:S|qry_typ:P|lang:en|wc:2|cs:8890|v=4,Pankaj Pan and Recharge Shop,https://www.indiamart.com/pankaj-pan-and-recharge-shop/?pos=152&kwd=feeding dress&tags=BA||||8444.1|Price|product|||NA|rsf:gd-|-stype:attr=1|qr_nm:gd|res:RC3|com-cf:nl|ptrs:na|ktp:N0|mc:190782|mtp:S|qry_typ:P|lang:en|wc:2|cs:8890|v=4,False,,Shirpur,"pankaj pan center Shirpur bus stand, Shirpur - 425405, Dist.Dhule, Maharashtra",,
"Pink (Base) Printed Rayon Maternity Feeding Gown, 3/4 Sleeve",https://www.indiamart.com/proddetail/rayon-maternity-feeding-gown-2850514850573.html?pos=153&kwd=feeding dress&tags=BB||||8601.347|Price|product|||NA|rsf:gd-|-stype:attr=1|qr_nm:gd|res:RC3|com-cf:nl|ptrs:na|ktp:N0|mc:190782|mtp:S|qry_typ:P|lang:en|wc:2|cs:8890|v=4,Tada Traders,https://www.indiamart.com/tadatraders/?pos=153&kwd=feeding dress&tags=BB||||8601.347|Price|product|||NA|rsf:gd-|-stype:attr=1|qr_nm:gd|res:RC3|com-cf:nl|ptrs:na|ktp:N0|mc:190782|mtp:S|qry_typ:P|lang:en|wc:2|cs:8890|v=4,False,,Jaipur,"Jamwar Ramgarh, Naradpura, Natata, Jaipur - 302028, Dist.Jaipur, Rajasthan",7942823743,
"Half Sleeve Ladies Feeding T Shirt, Daily Wear, Printed",https://www.indiamart.com/proddetail/ladies-feeding-t-shirt-2852426992462.html?pos=154&kwd=feeding dress&tags=BA||||8230.883|Price|product|||NA|rsf:gd-|-stype:attr=1|qr_nm:gd|res:RC3|com-cf:nl|ptrs:na|ktp:N0|mc:190782|mtp:S|qry_typ:P|lang:en|wc:2|cs:8890|v=4,Arvi International,https://www.indiamart.com/arvi-international/?pos=154&kwd=feeding dress&tags=BA||||8230.883|Price|product|||NA|rsf:gd-|-stype:attr=1|qr_nm:gd|res:RC3|com-cf:nl|ptrs:na|ktp:N0|mc:190782|mtp:S|qry_typ:P|lang:en|wc:2|cs:8890|v=4,False,Punagam,Surat,"4084, International Fashion Market, Punagam, Surat - 395010, Dist.Surat, Gujarat",8048976424,
"Large Cotto green feeding kurti for Women, Printed",https://www.indiamart.com/proddetail/cotto-green-feeding-kurti-for-women-2850542165162.html?pos=155&kwd=feeding dress&tags=BB||||8601.347|Price|product|||NA|rsf:gd-|-stype:attr=1|qr_nm:gd|res:RC3|com-cf:nl|ptrs:na|ktp:N0|mc:190782|mtp:S|qry_typ:P|lang:en|wc:2|cs:8890|v=4,Guru Kripa Garments,https://www.indiamart.com/gurukripagarmentsjaipur/?pos=155&kwd=feeding dress&tags=BB||||8601.347|Price|product|||NA|rsf:gd-|-stype:attr=1|qr_nm:gd|res:RC3|com-cf:nl|ptrs:na|ktp:N0|mc:190782|mtp:S|qry_typ:P|lang:en|wc:2|cs:8890|v=4,False,Shikarpura,Jaipur,"Plot No-L- 56 B - Block, J D A Colony, Govindpura Sanganer, Shikarpura, Jaipur - 302029, Dist.Jaipur, Rajasthan",8048987470,
"Green Ankle Length Maternity And Feeding Gown, Size: L,XL",https://www.indiamart.com/proddetail/green-ankle-length-maternity-and-feeding-gown-22933005330.html?pos=156&kwd=feeding dress&tags=BB||||8211.142|Price|product|||NA|rsf:gd-|-stype:attr=1|qr_nm:gd|res:RC3|com-cf:nl|ptrs:na|ktp:N0|mc:190782|mtp:S|qry_typ:P|lang:en|wc:2|cs:8890|v=4,Govardhan Enterprise,https://www.indiamart.com/goverdhan-enterprise-mumbai/?pos=156&kwd=feeding dress&tags=BB||||8211.142|Price|product|||NA|rsf:gd-|-stype:attr=1|qr_nm:gd|res:RC3|com-cf:nl|ptrs:na|ktp:N0|mc:190782|mtp:S|qry_typ:P|lang:en|wc:2|cs:8890|v=4,False,,Mumbai,"4, New Panchganga Vistapit Society, Slum Colony, Pantnagar Ghatkopar East, Mumbai - 400075, Dist.Mumbai, Maharashtra",8048372478,311
"Women Green Tie Dye Rayon Feeding Dress, Size: Medium",https://www.indiamart.com/proddetail/women-green-tie-dye-rayon-feeding-dress-2851124788933.html?pos=157&kwd=feeding dress&tags=BA||||8601.347|Price|product|||NA|rsf:gd-|-stype:attr=1|qr_nm:gd|res:RC3|com-cf:nl|ptrs:na|ktp:N0|mc:190782|mtp:S|qry_typ:P|lang:en|wc:2|cs:8890|v=4,Shree Karni Fashion,https://www.indiamart.com/shreekarnifashion/?pos=157&kwd=feeding dress&tags=BA||||8601.347|Price|product|||NA|rsf:gd-|-stype:attr=1|qr_nm:gd|res:RC3|com-cf:nl|ptrs:na|ktp:N0|mc:190782|mtp:S|qry_typ:P|lang:en|wc:2|cs:8890|v=4,False,,Jaipur,"135, Shree Karni Fashion , Banshi Puri , Jagatpura, Jaipur - 302017, Dist.Jaipur, Rajasthan",7942834218,
"RAYON PREMIUM Floral Print FEEDING GOWN/KURTI, 3/4 Sleeve",https://www.indiamart.com/proddetail/feeding-gown-kurti-2850483989291.html?pos=158&kwd=feeding dress&tags=BA||||8601.347|Price|product|||NA|rsf:gd-|-stype:attr=1|qr_nm:gd|res:RC3|com-cf:nl|ptrs:na|ktp:N0|mc:190782|mtp:S|qry_typ:P|lang:en|wc:2|cs:8890|v=4,Kabir Fashion World,https://www.indiamart.com/kabirfashion-world/?pos=158&kwd=feeding dress&tags=BA||||8601.347|Price|product|||NA|rsf:gd-|-stype:attr=1|qr_nm:gd|res:RC3|com-cf:nl|ptrs:na|ktp:N0|mc:190782|mtp:S|qry_typ:P|lang:en|wc:2|cs:8890|v=4,False,,Jaipur,"5-AA Ground Floor, Ganesh Vihar Near Park, Darbar Colony Near Delhi By Pass Road, Jaipur - 302003, Dist.Jaipur, Rajasthan",8048207508,
Feeding Dress,,Manu Garments,https://www.indiamart.com/manu-garments-thodupuzha/?pos=159&kwd=feeding dress&tags=BA||||8553.468|Price|product|||NA|rsf:gd-|-stype:attr=1|qr_nm:gd|res:RC3|com-cf:nl|ptrs:na|ktp:N0|mc:190782|mtp:S|qry_typ:P|lang:en|wc:2|cs:8890|v=4,False,,Thodupuzha,"Viii/169a,169b Ezhumuttom, Thodupuzha - 685605, Dist.Idukki, Kerala",8048371764,228
"3/4 Sleeve Sky Blue Floral Print Rayon Anarkali Kurti, M",https://www.indiamart.com/proddetail/sky-blue-floral-print-rayon-anarkali-kurti-2851203679491.html?pos=160&kwd=feeding dress&tags=BB||||8601.347|Price|product|||NA|rsf:gd-|-stype:attr=1|qr_nm:gd|res:RC3|com-cf:nl|ptrs:na|ktp:N0|mc:190782|mtp:S|qry_typ:P|lang:en|wc:2|cs:8890|v=4,Namokar Collection,https://www.indiamart.com/namokar-collection-jaipur/?pos=160&kwd=feeding dress&tags=BB||||8601.347|Price|product|||NA|rsf:gd-|-stype:attr=1|qr_nm:gd|res:RC3|com-cf:nl|ptrs:na|ktp:N0|mc:190782|mtp:S|qry_typ:P|lang:en|wc:2|cs:8890|v=4,False,,Jaipur,"Basement, 11, Gopalam Plaza, Nagar Nigam Road,, Jaipur - 302029, Dist.Jaipur, Rajasthan",7942834438,
"Aagam Voguish Maternity Kurtis, Cotton",https://www.indiamart.com/proddetail/aagam-voguish-maternity-kurtis-23714018273.html?pos=161&kwd=feeding dress&tags=BB||||8230.883|Price|product|||NA|rsf:gd-|-stype:attr=1|qr_nm:gd|res:RC3|com-cf:nl|ptrs:na|ktp:N0|mc:190782|mtp:S|qry_typ:P|lang:en|wc:2|cs:8890|v=4,Om Creation,https://www.indiamart.com/omcreation-131219951/?pos=161&kwd=feeding dress&tags=BB||||8230.883|Price|product|||NA|rsf:gd-|-stype:attr=1|qr_nm:gd|res:RC3|com-cf:nl|ptrs:na|ktp:N0|mc:190782|mtp:S|qry_typ:P|lang:en|wc:2|cs:8890|v=4,False,Yogi Chowk,Surat,"3rd Floor 310 Yogi Chowk Abhishek Arcade, Yogi Chowk, Surat - 394150, Dist.Surat, Gujarat",8048372373,973
Blue Maternity Designer Gown,https://www.indiamart.com/proddetail/maternity-designer-gown-2848940420230.html?pos=162&kwd=feeding dress&tags=BB||||9045.955|Price|product|||NA|rsf:gd-|-stype:attr=1|qr_nm:gd|res:RC3|com-cf:nl|ptrs:na|ktp:N0|mc:190782|mtp:S|qry_typ:P|lang:en|wc:2|cs:8890|v=4,Nids Inclination,https://www.indiamart.com/nids-inclination/?pos=162&kwd=feeding dress&tags=BB||||9045.955|Price|product|||NA|rsf:gd-|-stype:attr=1|qr_nm:gd|res:RC3|com-cf:nl|ptrs:na|ktp:N0|mc:190782|mtp:S|qry_typ:P|lang:en|wc:2|cs:8890|v=4,False,,Kanpur,"Ews-237 Sector-07 Swarn Jayanti Vihar, Yashoda Nagar AVADH VIHAR YOJNA, Kanpur - 208011, Uttar Pradesh",8048250315,159
"Plain Rayon Feeding Maxi Nightwear, Red with Green",https://www.indiamart.com/proddetail/feeding-maxi-nightwear-26119078191.html?pos=163&kwd=feeding dress&tags=BB||||8626.744|Price|product|||NA|rsf:gd-|-stype:attr=1|qr_nm:gd|res:RC3|com-cf:nl|ptrs:na|ktp:N0|mc:190782|mtp:S|qry_typ:P|lang:en|wc:2|cs:8890|v=4,Fabric Store,https://www.indiamart.com/fabricstore-tiruppur/?pos=163&kwd=feeding dress&tags=BB||||8626.744|Price|product|||NA|rsf:gd-|-stype:attr=1|qr_nm:gd|res:RC3|com-cf:nl|ptrs:na|ktp:N0|mc:190782|mtp:S|qry_typ:P|lang:en|wc:2|cs:8890|v=4,False,,Tiruppur,"8B, A.V.P Layout, 3rd Street,, Tiruppur - 641603, Dist.Coimbatore, Tamil Nadu",8043857522,
"Printed Hosiery 5459- Feeding Gown Combo, Size: Large",https://www.indiamart.com/proddetail/5459-feeding-gown-combo-20914403573.html?pos=164&kwd=feeding dress&tags=BB||||8228.275|Price|product|||NA|rsf:gd-|-stype:attr=1|qr_nm:gd|res:RC3|com-cf:nl|ptrs:na|ktp:N0|mc:190782|mtp:S|qry_typ:P|lang:en|wc:2|cs:8890|v=4,Shree Santoshi Agencies,https://www.indiamart.com/shreesantoshiagencies/?pos=164&kwd=feeding dress&tags=BB||||8228.275|Price|product|||NA|rsf:gd-|-stype:attr=1|qr_nm:gd|res:RC3|com-cf:nl|ptrs:na|ktp:N0|mc:190782|mtp:S|qry_typ:P|lang:en|wc:2|cs:8890|v=4,False,Khadia,Ahmedabad,"857/1,opp Jain Gyan Mandir,tankshal Road,, Khadia, Ahmedabad - 380001, Dist.Ahmedabad, Gujarat",7942562849,
"Printed Ladies Cotton Feeding Nighties, Blue",https://www.indiamart.com/proddetail/ladies-cotton-feeding-nighties-24148814373.html?pos=165&kwd=feeding dress&tags=BB||||8668.838|Price|product|||NA|rsf:gd-|-stype:attr=1|qr_nm:gd|res:RC3|com-cf:nl|ptrs:na|ktp:N0|mc:190782|mtp:S|qry_typ:P|lang:en|wc:2|cs:8890|v=4,Anto Garments,https://www.indiamart.com/antogarments/?pos=165&kwd=feeding dress&tags=BB||||8668.838|Price|product|||NA|rsf:gd-|-stype:attr=1|qr_nm:gd|res:RC3|com-cf:nl|ptrs:na|ktp:N0|mc:190782|mtp:S|qry_typ:P|lang:en|wc:2|cs:8890|v=4,False,,Erode,"58/3, Ramamoorthi Nagar, Karungalpalayam, Erode - 638003, Dist.Erode, Tamil Nadu",8045907298,
"Ladies Blue Printed Cotton Feeding Gown, Size: M",https://www.indiamart.com/proddetail/ladies-blue-printed-cotton-feeding-gown-25944275233.html?pos=166&kwd=feeding dress&tags=BB||||8601.347|Price|product|||NA|rsf:gd-|-stype:attr=1|qr_nm:gd|res:RC3|com-cf:nl|ptrs:na|ktp:N0|mc:190782|mtp:S|qry_typ:P|lang:en|wc:2|cs:8890|v=4,Sanjeevani Fashion,https://www.indiamart.com/sanjeevanifashion/?pos=166&kwd=feeding dress&tags=BB||||8601.347|Price|product|||NA|rsf:gd-|-stype:attr=1|qr_nm:gd|res:RC3|com-cf:nl|ptrs:na|ktp:N0|mc:190782|mtp:S|qry_typ:P|lang:en|wc:2|cs:8890|v=4,False,,Jaipur,"26/252, Subash Colony, Gular Ka Bandha, Jaipur - 302029, Dist.Jaipur, Rajasthan",8043801751,
cotton Anarkali feeding / maternity kurti,https://www.indiamart.com/proddetail/cotton-anarkali-feeding-maternity-kurti-2852726240455.html?pos=167&kwd=feeding dress&tags=BA||||8230.883|Price|product|||NA|rsf:gd-|-stype:attr=1|qr_nm:gd|res:RC3|com-cf:nl|ptrs:na|ktp:N0|mc:190782|mtp:S|qry_typ:P|lang:en|wc:2|cs:8890|v=4,D.Aksharam,https://www.indiamart.com/daksharam/?pos=167&kwd=feeding dress&tags=BA||||8230.883|Price|product|||NA|rsf:gd-|-stype:attr=1|qr_nm:gd|res:RC3|com-cf:nl|ptrs:na|ktp:N0|mc:190782|mtp:S|qry_typ:P|lang:en|wc:2|cs:8890|v=4,False,Udhana,Surat,"13th Floor, Wing-B, Flat-1302, Blue Candle, Causeway Road, Udhana, Surat - 395004, Dist.Surat, Gujarat",7942829878,
Women's Midi Slip dress universal trend indian kurti & Kurta Maxi dresses,https://www.indiamart.com/proddetail/women-s-midi-slip-dress-universal-trend-indian-kurti-kurta-maxi-dresses-2852746579988.html?pos=168&kwd=feeding dress&tags=BA||||8601.347|Price|product|||NA|rsf:gd-|-stype:attr=1|qr_nm:gd|res:RC3|com-cf:nl|ptrs:na|ktp:N0|mc:190782|mtp:S|qry_typ:P|lang:en|wc:2|cs:8890|v=4,Belish Enterprises,https://www.indiamart.com/belishenterprises/?pos=168&kwd=feeding dress&tags=BA||||8601.347|Price|product|||NA|rsf:gd-|-stype:attr=1|qr_nm:gd|res:RC3|com-cf:nl|ptrs:na|ktp:N0|mc:190782|mtp:S|qry_typ:P|lang:en|wc:2|cs:8890|v=4,False,,Jaipur,"Plot No. R-12 Gas Godam Colony Sanganer, Jaipur - 302029, Dist.Jaipur, Rajasthan",8046072891,
GOOD NEWS 14KG REYON HEAVY EMBROIDERY WORK FEEDING SPECIAL BOTH SIDE ZIP KURTI,https://www.indiamart.com/proddetail/good-news-14kg-reyon-heavy-embroidery-work-feeding-special-both-side-zip-kurti-2850943293130.html?pos=169&kwd=feeding dress&tags=BA||||8230.883|Price|product|||NA|rsf:gd-|-stype:attr=1|qr_nm:gd|res:RC3|com-cf:nl|ptrs:na|ktp:N0|mc:190782|mtp:S|qry_typ:P|lang:en|wc:2|cs:8890|v=4,S3Forever,https://www.indiamart.com/s3forever/?pos=169&kwd=feeding dress&tags=BA||||8230.883|Price|product|||NA|rsf:gd-|-stype:attr=1|qr_nm:gd|res:RC3|com-cf:nl|ptrs:na|ktp:N0|mc:190782|mtp:S|qry_typ:P|lang:en|wc:2|cs:8890|v=4,False,Surat,Surat,"Shop No-4013, 4th Floor, New Sardar Traders Market, Puna Kumbhariya Road, Surat, Surat - 395010, Dist.Surat, Gujarat",8045909150,
"Full Length Cotton Pakhi Nighty, Free Size",https://www.indiamart.com/proddetail/pakhi-nighty-23552455312.html?pos=170&kwd=feeding dress&tags=BB||||9839.57|Price|product|||NA|rsf:gd-|-stype:attr=1|qr_nm:gd|res:RC3|com-cf:nl|ptrs:na|ktp:N0|mc:190782|mtp:S|qry_typ:P|lang:en|wc:2|cs:8890|v=4,Mamoni Dresses,https://www.indiamart.com/mamoni-dresses/?pos=170&kwd=feeding dress&tags=BB||||9839.57|Price|product|||NA|rsf:gd-|-stype:attr=1|qr_nm:gd|res:RC3|com-cf:nl|ptrs:na|ktp:N0|mc:190782|mtp:S|qry_typ:P|lang:en|wc:2|cs:8890|v=4,False,Barasat,Kolkata,"303,M C GARDEN ROAD,,KOLKATA Plot No.86/1,700124,Kolkata, Barasat, Kolkata - 700030, Dist.Kolkata, West Bengal",8047791154,
Maternity Wear,https://www.indiamart.com/proddetail/maternity-wear-14674378797.html?pos=171&kwd=feeding dress&tags=BB||||8752.144|Price|product|||NA|rsf:gd-|-stype:attr=1|qr_nm:gd|res:RC3|com-cf:nl|ptrs:na|ktp:N0|mc:190782|mtp:S|qry_typ:P|lang:en|wc:2|cs:8890|v=4,Harihar Sahu Exports India Private Limited,https://www.indiamart.com/thehariharsahugroup/?pos=171&kwd=feeding dress&tags=BB||||8752.144|Price|product|||NA|rsf:gd-|-stype:attr=1|qr_nm:gd|res:RC3|com-cf:nl|ptrs:na|ktp:N0|mc:190782|mtp:S|qry_typ:P|lang:en|wc:2|cs:8890|v=4,False,,New Delhi,"Tughalakabad, 80/10, South Extension Part 1, New Delhi - 110049, Dist.Delhi, Delhi",8069264894,103
"Printed Ladies Cotton Night Dress, Half Sleeve, Sky Blue",https://www.indiamart.com/proddetail/ladies-cotton-night-dress-2849207702391.html?pos=172&kwd=feeding dress&tags=BB||||9839.57|Price|product|||NA|rsf:gd-|-stype:attr=1|qr_nm:gd|res:RC3|com-cf:nl|ptrs:na|ktp:N0|mc:190782|mtp:S|qry_typ:P|lang:en|wc:2|cs:8890|v=4,Debarpan,https://www.indiamart.com/debarpan/?pos=172&kwd=feeding dress&tags=BB||||9839.57|Price|product|||NA|rsf:gd-|-stype:attr=1|qr_nm:gd|res:RC3|com-cf:nl|ptrs:na|ktp:N0|mc:190782|mtp:S|qry_typ:P|lang:en|wc:2|cs:8890|v=4,False,,Kolkata,"8/8/235, West Kabiraj Para, Nabanagar, Halisahar, North Twenty Four Parganas,, Kolkata - 743136, Dist.Kolkata, West Bengal",7942784813,
Feeding Kurtis,,Shifa Collection,https://www.indiamart.com/shifacollection-110296118/?pos=173&kwd=feeding dress&tags=B||||8211.142|Price|product|||NA|rsf:gd-|-stype:attr=1|qr_nm:gd|res:RC3|com-cf:nl|ptrs:na|ktp:N0|mc:190782|mtp:S|qry_typ:P|lang:en|wc:2|cs:8890|v=4,False,Kuresh Nagar Kurla,Mumbai,"SHOP NO 22 22A GHAS BAZAR 1ST GALLI NAVPADA BANDRA EAST Mumbai Suburban Maharashtra 400051, Kuresh Nagar Kurla, Mumbai - 400070, Dist.Mumbai, Maharashtra",8062245594,335
Feeding Kurtis,,Ayu'S Apparel,https://www.indiamart.com/ayus-apparel/?pos=174&kwd=feeding dress&tags=BB||||8239.3955||product|||NA|rsf:gd-|-stype:attr=1|qr_nm:gd|res:RC3|com-cf:nl|ptrs:na|ktp:N0|mc:190782|mtp:S|qry_typ:P|lang:en|wc:2|cs:8890|v=4,False,Vicco naka Dombivili (East),Kalyan,"UNIT NO-3,THIRD FLOOR, GNP GALLERIA, PLOT NO- KALYAN THANE, KALYAN DOMBIVLI,Kalyan Unit no 3, 3rd floor, GNP Galleria mall,421203,Mumbai, Vicco naka Dombivili (East), Kalyan - 421204, Dist.Thane, Maharashtra",8069017270,197
Feeding Dress,,Clymaa,https://www.indiamart.com/clymaa/?pos=175&kwd=feeding dress&tags=BB||||9789.054|Price|product|||NA|rsf:gd-|-stype:attr=1|qr_nm:gd|res:RC3|com-cf:nl|ptrs:na|ktp:N0|mc:190782|mtp:S|qry_typ:P|lang:en|wc:2|cs:8890|v=4,False,Sripally Ambagan,Bardhaman,"Shop No. 21, Nutanganj, Sripally Ambagan, Bardhaman - 713102, Dist.Purba Bardhaman, West Bengal",8047842473,
Maternity Feeding Dress,,A.M Enterprises,https://www.indiamart.com/amenterprises-45125763/?pos=176&kwd=feeding dress&tags=B||||8601.347||product|||NA|rsf:gd-|-stype:attr=1|qr_nm:gd|res:RC3|com-cf:nl|ptrs:na|ktp:N0|mc:190782|mtp:S|qry_typ:P|lang:en|wc:2|cs:8890|v=4,False,Ganpati Nagar,Jaipur,"1,keshavpura Ajmer Road Near Kamal Nehru Nagar Azad Nagar, Ganpati Nagar, Jaipur - 302021, Dist.Jaipur, Rajasthan",8069728312,752
Feeding Dress,,A & S Enterprises,https://www.indiamart.com/asenterprises-84119287/?pos=177&kwd=feeding dress&tags=BA||||8601.347||product|||NA|rsf:gd-|-stype:attr=1|qr_nm:gd|res:RC3|com-cf:nl|ptrs:na|ktp:N0|mc:190782|mtp:S|qry_typ:P|lang:en|wc:2|cs:8890|v=4,False,,Jaipur,"Basement, Plot Number 166 Akeda Doongar, Badharna, Karni Vihar-a, Road No 17 Vki, Jaipur - 302013, Dist.Jaipur, Rajasthan",8048371577,845
Feeding Kurti,,Sri Maruthi Cut Piece,https://www.indiamart.com/sri-maruthi-cut-piece/?pos=178&kwd=feeding dress&tags=BB||||8706.587||product|||NA|rsf:gd-|-stype:attr=1|qr_nm:gd|res:RC3|com-cf:nl|ptrs:na|ktp:N0|mc:190782|mtp:S|qry_typ:P|lang:en|wc:2|cs:8890|v=4,False,East Perumal,Madurai,"60 Maistry Street, East Perumal, Madurai - 625001, Dist.Madurai, Tamil Nadu",8048371995,463
Feeding Kurti With Zip,,Sarala Silks,https://www.indiamart.com/sarala-silks/?pos=179&kwd=feeding dress&tags=BB||||8550.327||product|||NA|rsf:gd-|-stype:attr=1|qr_nm:gd|res:RC3|com-cf:nl|ptrs:na|ktp:N0|mc:190782|mtp:S|qry_typ:P|lang:en|wc:2|cs:8890|v=4,False,,Palakkad,"Ground Floor,31/865 29 And 30,B.O.C. Road,Sarala Silks,Palakkad Boc Road, Palakkad - 678014, Dist.Palakkad, Kerala",8048249693,2813
Women's Cotton Maternity Kurti,,Mohini Fashion,https://www.indiamart.com/mohini-fashion-jaipur/?pos=180&kwd=feeding dress&tags=BB||||8601.347||product|||NA|rsf:gd-|-stype:attr=1|qr_nm:gd|res:RC3|com-cf:nl|ptrs:na|ktp:N0|mc:190782|mtp:S|qry_typ:P|lang:en|wc:2|cs:8890|v=4,False,,Jaipur,"North Part Plot No 15 Suraj Nagar Ii Jai Baba Ri, Jaipur - 302029, Dist.Jaipur, Rajasthan",8069196749,487
Maternity Feeding Nighty,,Sumee Collections,https://www.indiamart.com/sumee-collection/?pos=181&kwd=feeding dress&tags=BB||||8605.651|Price|product|||NA|rsf:gd-|-stype:attr=1|qr_nm:gd|res:RC3|com-cf:nl|ptrs:na|ktp:N0|mc:190782|mtp:S|qry_typ:P|lang:en|wc:2|cs:8890|v=4,False,,Kangayampalayam,"5/340 C-1, Bharath Nagar, Kadampadi Post, Kangayampalayam - 641401, Dist.Coimbatore, Tamil Nadu",8043892646,
Combo of trendy feeding zip maternity dress,,J.K Fashion,https://www.indiamart.com/jkfashion-158188227/?pos=182&kwd=feeding dress&tags=B||||8601.347|Price|product|||NA|rsf:gd-|-stype:attr=1|qr_nm:gd|res:RC3|com-cf:nl|ptrs:na|ktp:N0|mc:190782|mtp:S|qry_typ:P|lang:en|wc:2|cs:8890|v=4,False,Sanganer,Jaipur,"01 Tejaji Ka Bada, Sanganer, Jaipur - 302029, Dist.Jaipur, Rajasthan",8048372671,498
Printed Pink Cotton Maternity Feeding Gown,https://www.indiamart.com/proddetail/pink-cotton-maternity-feeding-gown-2854325696948.html?pos=183&kwd=feeding dress&tags=A||||8601.347|Price|proxy|||NA|rsf:gd-|-stype:attr=1|qr_nm:gd|res:RC3|com-cf:nl|ptrs:na|ktp:N0|mc:190782|mtp:S|qry_typ:P|lang:en|wc:2|cs:8890|v=4,Garima Fashion,https://www.indiamart.com/garimafashionjaipur/?pos=183&kwd=feeding dress&tags=A||||8601.347|Price|proxy|||NA|rsf:gd-|-stype:attr=1|qr_nm:gd|res:RC3|com-cf:nl|ptrs:na|ktp:N0|mc:190782|mtp:S|qry_typ:P|lang:en|wc:2|cs:8890|v=4,False,,Jaipur,"93, Panchwati Colony, Block E, Kanwar Ka Baag, Sanganer Bazar, Sanganer, Jaipur - 302029, Dist.Jaipur, Rajasthan",8045734075,
Women BABY BUMP GOWN ON RENTAL,https://www.indiamart.com/proddetail/baby-bump-gown-on-rental-26892250955.html?pos=184&kwd=feeding dress&tags=CC||||8228.275|Price|product|||TS|rsf:gd-|-stype:attr=1|qr_nm:gd|res:RC3|com-cf:nl|ptrs:na|ktp:N0|mc:190782|mtp:S|qry_typ:P|lang:en|wc:2|cs:8890|v=4,Gitanjali Enterprise,https://www.indiamart.com/gitanjali-enterprise-ahmedabad/?pos=184&kwd=feeding dress&tags=CC||||8228.275|Price|product|||TS|rsf:gd-|-stype:attr=1|qr_nm:gd|res:RC3|com-cf:nl|ptrs:na|ktp:N0|mc:190782|mtp:S|qry_typ:P|lang:en|wc:2|cs:8890|v=4,False,Isanpur,Ahmedabad,"Near Jognimata Temple, Isanpur Gam, Isanpur, Isanpur, Ahmedabad - 382443, Dist.Ahmedabad, Gujarat",8047640750,
Feeding Nighty,https://www.indiamart.com/proddetail/feeding-nighty-27574233091.html?pos=185&kwd=feeding dress&tags=CC||||8211.142||product|||TS|rsf:gd-|-stype:attr=1|qr_nm:gd|res:RC3|com-cf:nl|ptrs:na|ktp:N0|mc:190782|mtp:S|qry_typ:P|lang:en|wc:2|cs:8890|v=4,Kiran Sons,https://www.indiamart.com/kiransons/?pos=185&kwd=feeding dress&tags=CC||||8211.142||product|||TS|rsf:gd-|-stype:attr=1|qr_nm:gd|res:RC3|com-cf:nl|ptrs:na|ktp:N0|mc:190782|mtp:S|qry_typ:P|lang:en|wc:2|cs:8890|v=4,False,Kalbadevi,Mumbai,"C/O. J.K. Brothers, 25, Vithalwadi, Kalbadevi, Mumbai - 400002, Dist.Mumbai, Maharashtra",8047645351,
Cotton Feeding Kurtis,https://www.indiamart.com/proddetail/cotton-feeding-kurtis-24008204830.html?pos=186&kwd=feeding dress&tags=CC||||8230.883|Price|product|||TS|rsf:gd-|-stype:attr=1|qr_nm:gd|res:RC3|com-cf:nl|ptrs:na|ktp:N0|mc:190782|mtp:S|qry_typ:P|lang:en|wc:2|cs:8890|v=4,The Clothes Villa,https://www.theclothesvilla.com/?pos=186&kwd=feeding dress&tags=CC||||8230.883|Price|product|||TS|rsf:gd-|-stype:attr=1|qr_nm:gd|res:RC3|com-cf:nl|ptrs:na|ktp:N0|mc:190782|mtp:S|qry_typ:P|lang:en|wc:2|cs:8890|v=4,False,Meghdoot Society,Surat,"Plot 27, 2nd Floor, 44/2, Sumangal Prabhat Society, Meghdoot Society, Surat - 395001, Dist.Surat, Gujarat",7942562795,
Cotton Feeding Nighties,https://www.indiamart.com/proddetail/cotton-feeding-nighties-2854263074997.html?pos=187&kwd=feeding dress&tags=CC||||8752.144|Price|product|||MDC|rsf:gd-|-stype:attr=1|qr_nm:gd|res:RC3|com-cf:nl|ptrs:na|ktp:N0|mc:190782|mtp:S|qry_typ:P|lang:en|wc:2|cs:8890|v=4,Siami Apparels Private Limited,https://www.indiamart.com/siami-apparels/?pos=187&kwd=feeding dress&tags=CC||||8752.144|Price|product|||MDC|rsf:gd-|-stype:attr=1|qr_nm:gd|res:RC3|com-cf:nl|ptrs:na|ktp:N0|mc:190782|mtp:S|qry_typ:P|lang:en|wc:2|cs:8890|v=4,False,Gandhi Nagar,New Delhi,"IX/6423, Mukherji Gali, Gandhi Nagar, East Delhi, Gandhi Nagar, New Delhi - 110031, Dist.Delhi, Delhi",7949086631,
Mother Feeding Kurtis,https://www.indiamart.com/proddetail/mother-feeding-kurtis-2854448277730.html?pos=188&kwd=feeding dress&tags=CC||||8228.275|Price|product|||MDC|rsf:gd-|-stype:attr=1|qr_nm:gd|res:RC3|com-cf:nl|ptrs:na|ktp:N0|mc:190782|mtp:S|qry_typ:P|lang:en|wc:2|cs:8890|v=4,Aura Creation,https://www.indiamart.com/auracreationgujarat/?pos=188&kwd=feeding dress&tags=CC||||8228.275|Price|product|||MDC|rsf:gd-|-stype:attr=1|qr_nm:gd|res:RC3|com-cf:nl|ptrs:na|ktp:N0|mc:190782|mtp:S|qry_typ:P|lang:en|wc:2|cs:8890|v=4,False,Saraspur,Ahmedabad,"Third Floor, B-310, City Centre-1, Opp. Idgah Masjid, Premdarwaja Road,, Saraspur, Ahmedabad - 380018, Dist.Ahmedabad, Gujarat",7942713567,
Blue Georgette Printed Flared Maternity Dress,https://www.indiamart.com/proddetail/blue-georgette-printed-flared-maternity-dress-2854535784362.html?pos=189&kwd=feeding dress&tags=CC||||8752.144|Price|product|||MDC|rsf:gd-|-stype:attr=1|qr_nm:gd|res:RC3|com-cf:nl|ptrs:na|ktp:N0|mc:190782|mtp:S|qry_typ:P|lang:en|wc:2|cs:8890|v=4,Siyaram Enterprises,https://www.indiamart.com/siyaram-enterprises-newdelhi/?pos=189&kwd=feeding dress&tags=CC||||8752.144|Price|product|||MDC|rsf:gd-|-stype:attr=1|qr_nm:gd|res:RC3|com-cf:nl|ptrs:na|ktp:N0|mc:190782|mtp:S|qry_typ:P|lang:en|wc:2|cs:8890|v=4,False,,New Delhi,"76-D, A PKT, Third Floor Vikas Puri EXTN, West Delhi, New Delhi - 110018, Dist.Delhi, Delhi",8045737683,
"Polyester Ladies Night Gown Dress feeding, Sleeves: Half",https://www.indiamart.com/proddetail/ladies-night-gown-dress-feeding-2849032802791.html?pos=190&kwd=feeding dress&tags=CC||||8228.275|Price|product|||MDC|rsf:gd-|-stype:attr=1|qr_nm:gd|res:RC3|com-cf:nl|ptrs:na|ktp:N0|mc:190782|mtp:S|qry_typ:P|lang:en|wc:2|cs:8890|v=4,Dev Creation,https://www.indiamart.com/devcreation-ahmedabad-gujarat/?pos=190&kwd=feeding dress&tags=CC||||8228.275|Price|product|||MDC|rsf:gd-|-stype:attr=1|qr_nm:gd|res:RC3|com-cf:nl|ptrs:na|ktp:N0|mc:190782|mtp:S|qry_typ:P|lang:en|wc:2|cs:8890|v=4,False,Saraspur,Ahmedabad,"A-232, Sumel Business Park-4, New Gujarat Synthetic Mill Compound, Opp Amdupura Saraspur, Saraspur, Ahmedabad - 380018, Dist.Ahmedabad, Gujarat",8043892750,
"Brown (Base) Party Wear Ladies Maaya Rayon Feeding Kurti, Half Sleeve",https://www.indiamart.com/proddetail/party-wear-ladies-maaya-rayon-feeding-kurti-2853323448333.html?pos=191&kwd=feeding dress&tags=CC||||8228.275|Price|product|||MDC|rsf:gd-|-stype:attr=1|qr_nm:gd|res:RC3|com-cf:nl|ptrs:na|ktp:N0|mc:190782|mtp:S|qry_typ:P|lang:en|wc:2|cs:8890|v=4,Tarun Prints,https://www.indiamart.com/tarunprints/?pos=191&kwd=feeding dress&tags=CC||||8228.275|Price|product|||MDC|rsf:gd-|-stype:attr=1|qr_nm:gd|res:RC3|com-cf:nl|ptrs:na|ktp:N0|mc:190782|mtp:S|qry_typ:P|lang:en|wc:2|cs:8890|v=4,False,Saraspur,Ahmedabad,"D/115, City Centre, Nr. Idghah gate, Nr. Girdharnagar Bridge, Asarwa, Saraspur, Ahmedabad - 380016, Dist.Ahmedabad, Gujarat",7949222397,
"LUCKY HANDICRAFT Cotton Feeding Maternity Gown, Size: FREE",https://www.indiamart.com/proddetail/feeding-maternity-gown-2849551766997.html?pos=192&kwd=feeding dress&tags=||||8601.347|Price|product|||TS|rsf:gd-|-stype:attr=1|qr_nm:gd|res:RC3|com-cf:nl|ptrs:na|ktp:N0|mc:190782|mtp:S|qry_typ:P|lang:en|wc:2|cs:8890|v=4,Lucky Handicraft,https://www.luckyhandicraft.in/?pos=192&kwd=feeding dress&tags=||||8601.347|Price|product|||TS|rsf:gd-|-stype:attr=1|qr_nm:gd|res:RC3|com-cf:nl|ptrs:na|ktp:N0|mc:190782|mtp:S|qry_typ:P|lang:en|wc:2|cs:8890|v=4,False,Govind Nagar,Jaipur,"190, Govind Nagar East, Amer Road, Govind Nagar, Jaipur - 302002, Dist.Jaipur, Rajasthan",8046067577,
Cotton Baby Feeding Gown,https://www.indiamart.com/proddetail/baby-feeding-gown-20190391848.html?pos=193&kwd=feeding dress&tags=CC||||8601.347|Price|product|||TS|rsf:gd-|-stype:attr=1|qr_nm:gd|res:RC3|com-cf:nl|ptrs:na|ktp:N0|mc:190782|mtp:S|qry_typ:P|lang:en|wc:2|cs:8890|v=4,Global Enterprises,https://www.hospitalgarments.in/?pos=193&kwd=feeding dress&tags=CC||||8601.347|Price|product|||TS|rsf:gd-|-stype:attr=1|qr_nm:gd|res:RC3|com-cf:nl|ptrs:na|ktp:N0|mc:190782|mtp:S|qry_typ:P|lang:en|wc:2|cs:8890|v=4,False,Mahapura,Jaipur,"Kachi Basti, Mahapura, Sanganer, Mahapura, Jaipur - 302026, Dist.Jaipur, Rajasthan",8046032418,
"Ladies Blue Printed Cotton Nightgown, Sleeveless",https://www.indiamart.com/proddetail/ladies-blue-printed-sleeveless-cotton-nightgown-2851975673297.html?pos=194&kwd=feeding dress&tags=||||8242.731|Price|product|||MDC|rsf:gd-|-stype:attr=1|qr_nm:gd|res:RC3|com-cf:nl|ptrs:na|ktp:N0|mc:190782|mtp:S|qry_typ:P|lang:en|wc:2|cs:8890|v=4,Shanaya Garments,https://www.indiamart.com/shanayagarments/?pos=194&kwd=feeding dress&tags=||||8242.731|Price|product|||MDC|rsf:gd-|-stype:attr=1|qr_nm:gd|res:RC3|com-cf:nl|ptrs:na|ktp:N0|mc:190782|mtp:S|qry_typ:P|lang:en|wc:2|cs:8890|v=4,False,Ulhasnagar-5,Ulhasnagar,"BRK No. 2108, Shivaji Chawl No 01, Near Lalchakki, Ulhasnagar-5, Ulhasnagar - 421005, Dist.Thane, Maharashtra",8044460414,
Women Peach Grey Feeding Night Suit,https://www.indiamart.com/proddetail/women-peach-grey-feeding-night-suit-2854336392148.html?pos=195&kwd=feeding dress&tags=||||8211.142|Price|product|||MDC|rsf:gd-|-stype:attr=1|qr_nm:gd|res:RC3|com-cf:nl|ptrs:na|ktp:N0|mc:190782|mtp:S|qry_typ:P|lang:en|wc:2|cs:8890|v=4,M.K.Garments,https://www.indiamart.com/mkgarments-mumbai-maharashtra/?pos=195&kwd=feeding dress&tags=||||8211.142|Price|product|||MDC|rsf:gd-|-stype:attr=1|qr_nm:gd|res:RC3|com-cf:nl|ptrs:na|ktp:N0|mc:190782|mtp:S|qry_typ:P|lang:en|wc:2|cs:8890|v=4,False,,Mumbai,"1, R.k.pandey Chawl, Gaondevi Road, Poisar, Kandivali East, Mumbai Suburban, Mumbai - 400101, Dist.Mumbai, Maharashtra",8045736968,
"Green (Base) Printed Saloni Dull Cotton Mother Feeding Nightgown, Half Sleeve",https://www.indiamart.com/proddetail/saloni-dull-cotton-mother-feeding-nightgown-2850476955473.html?pos=196&kwd=feeding dress&tags=CC||||8786.56|Price|product|||MDC|rsf:gd-|-stype:attr=1|qr_nm:gd|res:RC3|com-cf:nl|ptrs:na|ktp:N0|mc:190782|mtp:S|qry_typ:P|lang:en|wc:2|cs:8890|v=4,Saloni Textile,https://www.indiamart.com/saloni-textiles/?pos=196&kwd=feeding dress&tags=CC||||8786.56|Price|product|||MDC|rsf:gd-|-stype:attr=1|qr_nm:gd|res:RC3|com-cf:nl|ptrs:na|ktp:N0|mc:190782|mtp:S|qry_typ:P|lang:en|wc:2|cs:8890|v=4,False,Rasoolpura,Hyderabad,"24, Margadarshini Colony , Rasool Pura, Rasoolpura, Hyderabad - 500003, Dist.Hyderabad, Telangana",7942823938,
Tops For Milk Feeding Women,https://www.indiamart.com/proddetail/tops-for-milk-feeding-women-2852784443362.html?pos=197&kwd=feeding dress&tags=CC||||8223.226|Price|product|||TS|rsf:gd-|-stype:attr=1|qr_nm:gd|res:RC3|com-cf:nl|ptrs:na|ktp:N0|mc:190782|mtp:S|qry_typ:P|lang:en|wc:2|cs:8890|v=4,M/S Beauty Fashion Textile,https://www.indiamart.com/ms-beauty-fashion-textile/?pos=197&kwd=feeding dress&tags=CC||||8223.226|Price|product|||TS|rsf:gd-|-stype:attr=1|qr_nm:gd|res:RC3|com-cf:nl|ptrs:na|ktp:N0|mc:190782|mtp:S|qry_typ:P|lang:en|wc:2|cs:8890|v=4,False,Thane West,Thane,"Gala C/216, 2nd Floor, Paresh Complex, Pipeline Naka, Kalher, Thane West, Thane - 421302, Dist.Thane, Maharashtra",8047634233,
Printed Full Length Women Feeding Cotton Nighty,https://www.indiamart.com/proddetail/women-feeding-cotton-nighty-14190109955.html?pos=198&kwd=feeding dress&tags=||||8230.883|Price|product|||TS|rsf:gd-|-stype:attr=1|qr_nm:gd|res:RC3|com-cf:nl|ptrs:na|ktp:N0|mc:190782|mtp:S|qry_typ:P|lang:en|wc:2|cs:8890|v=4,Sadabahar Fashion,https://www.sadabaharfashion.com/?pos=198&kwd=feeding dress&tags=||||8230.883|Price|product|||TS|rsf:gd-|-stype:attr=1|qr_nm:gd|res:RC3|com-cf:nl|ptrs:na|ktp:N0|mc:190782|mtp:S|qry_typ:P|lang:en|wc:2|cs:8890|v=4,False,Rander,Surat,"Shop No 13-14 , patra ni chal, Ramnagar, Rander Road, Sindhi Colony,, Rander, Surat - 395005, Dist.Surat, Gujarat",8048962373,
"Mix of Polyester & Cotton Half Sleeves Feeding Patient Gown, Size: S, M, L",https://www.indiamart.com/proddetail/feeding-patient-gown-20970626355.html?pos=199&kwd=feeding dress&tags=||||9839.57|Price|product|||MDC|rsf:gd-|-stype:attr=1|qr_nm:gd|res:RC3|com-cf:nl|ptrs:na|ktp:N0|mc:190782|mtp:S|qry_typ:P|lang:en|wc:2|cs:8890|v=4,Rashmi's,https://www.indiamart.com/rashmis-kolkata/?pos=199&kwd=feeding dress&tags=||||9839.57|Price|product|||MDC|rsf:gd-|-stype:attr=1|qr_nm:gd|res:RC3|com-cf:nl|ptrs:na|ktp:N0|mc:190782|mtp:S|qry_typ:P|lang:en|wc:2|cs:8890|v=4,False,Khengrapatti,Kolkata,"No. 10B, Jackson Lane, 1st Floor, China Bazar Beside Haldirams, Brabourne Road, Khengrapatti, Kolkata - 700001, Dist.Kolkata, West Bengal",8046068863,
"Three fourth sleeve Maternity Feeding Kurti, Size: L",https://www.indiamart.com/proddetail/ladies-grey-maternity-feeding-gown-2852706585455.html?pos=200&kwd=feeding dress&tags=||||8601.347|Price|product|||MDC|rsf:gd-|-stype:attr=1|qr_nm:gd|res:RC3|com-cf:nl|ptrs:na|ktp:N0|mc:190782|mtp:S|qry_typ:P|lang:en|wc:2|cs:8890|v=4,Dazzle Hub,https://www.indiamart.com/dazzlehub/?pos=200&kwd=feeding dress&tags=||||8601.347|Price|product|||MDC|rsf:gd-|-stype:attr=1|qr_nm:gd|res:RC3|com-cf:nl|ptrs:na|ktp:N0|mc:190782|mtp:S|qry_typ:P|lang:en|wc:2|cs:8890|v=4,False,Pratap Nagar,Jaipur,"Basement Floor, 86/SP-89, Kumbha Marg, Pratap Nagar, Sanganer, Pratap Nagar, Jaipur - 302033, Dist.Jaipur, Rajasthan",8048611932,
"Cotton Ladies Black Printed Maternity Feeding Gown, Full Sleeve",https://www.indiamart.com/proddetail/ladies-black-printed-maternity-feeding-gown-2854128891655.html?pos=201&kwd=feeding dress&tags=||||8601.347|Price|product|||MDC|rsf:gd-|-stype:attr=1|qr_nm:gd|res:RC3|com-cf:nl|ptrs:na|ktp:N0|mc:190782|mtp:S|qry_typ:P|lang:en|wc:2|cs:8890|v=4,Saanvi Collection,https://www.indiamart.com/saanvi-collection-jaipur/?pos=201&kwd=feeding dress&tags=||||8601.347|Price|product|||MDC|rsf:gd-|-stype:attr=1|qr_nm:gd|res:RC3|com-cf:nl|ptrs:na|ktp:N0|mc:190782|mtp:S|qry_typ:P|lang:en|wc:2|cs:8890|v=4,False,Raj Nagar 2,Jaipur,"75/310, RHB Pratap Nagar ,Sanganer,, Raj Nagar 2, Jaipur - 302029, Dist.Jaipur, Rajasthan",8045733365,
"Red Printed Ladies Feeding Cotton Nightgown, Half Sleeve",https://www.indiamart.com/proddetail/ladies-feeding-cotton-nightgown-2853598298991.html?pos=202&kwd=feeding dress&tags=||||8307.81|Price|product|||MDC|rsf:gd-|-stype:attr=1|qr_nm:gd|res:RC3|com-cf:nl|ptrs:na|ktp:N0|mc:190782|mtp:S|qry_typ:P|lang:en|wc:2|cs:8890|v=4,Pearl Fashion,https://www.indiamart.com/pearl-fashion-pune/?pos=202&kwd=feeding dress&tags=||||8307.81|Price|product|||MDC|rsf:gd-|-stype:attr=1|qr_nm:gd|res:RC3|com-cf:nl|ptrs:na|ktp:N0|mc:190782|mtp:S|qry_typ:P|lang:en|wc:2|cs:8890|v=4,False,Raviwar Peth,Pune,"Floor No 1, 1083 SH-225B 702, 703, 704, 993C, Tara Mali, Raviwar Peth, Raviwar Peth, Pune - 411002, Dist.Pune, Maharashtra",7949226132,
"Dark Olive Printed Women Cotton Invisible Zip Feeding Nighty, Half Sleeve",https://www.indiamart.com/proddetail/women-cotton-invisible-zip-feeding-nighty-2853313513712.html?pos=203&kwd=feeding dress&tags=||||8228.275|Price|product|||MDC|rsf:gd-|-stype:attr=1|qr_nm:gd|res:RC3|com-cf:nl|ptrs:na|ktp:N0|mc:190782|mtp:S|qry_typ:P|lang:en|wc:2|cs:8890|v=4,Mayur Lifestyle,https://www.indiamart.com/mayur-lifestyle-gujarat/?pos=203&kwd=feeding dress&tags=||||8228.275|Price|product|||MDC|rsf:gd-|-stype:attr=1|qr_nm:gd|res:RC3|com-cf:nl|ptrs:na|ktp:N0|mc:190782|mtp:S|qry_typ:P|lang:en|wc:2|cs:8890|v=4,False,Saraspur,Ahmedabad,"First Floor, Block F-1, Sumel 10, Saraspur Road, Saraspur, Ahmedabad - 380018, Dist.Ahmedabad, Gujarat",7942966913,
Womens Printed Dark Purple Rayon Maternity Night Gown,https://www.indiamart.com/proddetail/womens-printed-dark-purple-rayon-maternity-night-gown-2854694019988.html?pos=204&kwd=feeding dress&tags=||||8601.347|Price|product|||MDC|rsf:gd-|-stype:attr=1|qr_nm:gd|res:RC3|com-cf:nl|ptrs:na|ktp:N0|mc:190782|mtp:S|qry_typ:P|lang:en|wc:2|cs:8890|v=4,V R Fashions,https://www.indiamart.com/vrfashions-jaipur/?pos=204&kwd=feeding dress&tags=||||8601.347|Price|product|||MDC|rsf:gd-|-stype:attr=1|qr_nm:gd|res:RC3|com-cf:nl|ptrs:na|ktp:N0|mc:190782|mtp:S|qry_typ:P|lang:en|wc:2|cs:8890|v=4,False,,Jaipur,"Ground Floor 10, Thana Circle, Khokhawas, Mahaveer Nagar, Near Sanganer Thana, Sanganer, Jaipur - 302029, Dist.Jaipur, Rajasthan",7949322594,
"Ladies Blue Pure Cotton Printed Night Dress, 3/4 Sleeve, Blue,White",https://www.indiamart.com/proddetail/ladies-blue-pure-cotton-printed-night-dress-2854041098555.html?pos=205&kwd=feeding dress&tags=||||8601.347|Price|product|||TS|rsf:gd-|-stype:attr=1|qr_nm:gd|res:RC3|com-cf:nl|ptrs:na|ktp:N0|mc:190782|mtp:S|qry_typ:P|lang:en|wc:2|cs:8890|v=4,Rushi Creation,https://www.indiamart.com/rushicreationjaipur/?pos=205&kwd=feeding dress&tags=||||8601.347|Price|product|||TS|rsf:gd-|-stype:attr=1|qr_nm:gd|res:RC3|com-cf:nl|ptrs:na|ktp:N0|mc:190782|mtp:S|qry_typ:P|lang:en|wc:2|cs:8890|v=4,False,Sanganer,Jaipur,"Showroom No.G-24,Ground Floor,Fagna Plaza,Nagar Nigam Road,Jaipur, Sanganer, Jaipur - 302029, Dist.Jaipur, Rajasthan",8044562714,
"Hosiery Printed Feeding Gown, Half Sleeve",https://www.indiamart.com/proddetail/feeding-gown-25996920848.html?pos=206&kwd=feeding dress&tags=||||8228.275|Price|product|||TS|rsf:gd-|-stype:attr=1|qr_nm:gd|res:RC3|com-cf:nl|ptrs:na|ktp:N0|mc:190782|mtp:S|qry_typ:P|lang:en|wc:2|cs:8890|v=4,Ramdev Fabrics,https://www.indiamart.com/ramdevfabrics-ahmedabad/?pos=206&kwd=feeding dress&tags=||||8228.275|Price|product|||TS|rsf:gd-|-stype:attr=1|qr_nm:gd|res:RC3|com-cf:nl|ptrs:na|ktp:N0|mc:190782|mtp:S|qry_typ:P|lang:en|wc:2|cs:8890|v=4,False,Odhav,Ahmedabad,"19, Krishna Chambers, Vihal Park Part 2, Opposite Maheshwari Nagar, Odhav, Ahmedabad - 382415, Dist.Ahmedabad, Gujarat",8047639305,
Multicolor Half Sleeves Feeding Maternity Gown,https://www.indiamart.com/proddetail/feeding-maternity-gown-20399234573.html?pos=207&kwd=feeding dress&tags=||||8752.144||product|||TS|rsf:gd-|-stype:attr=1|qr_nm:gd|res:RC3|com-cf:nl|ptrs:na|ktp:N0|mc:190782|mtp:S|qry_typ:P|lang:en|wc:2|cs:8890|v=4,Ara India,https://www.araindia.in/?pos=207&kwd=feeding dress&tags=||||8752.144||product|||TS|rsf:gd-|-stype:attr=1|qr_nm:gd|res:RC3|com-cf:nl|ptrs:na|ktp:N0|mc:190782|mtp:S|qry_typ:P|lang:en|wc:2|cs:8890|v=4,True,Vikaspuri,New Delhi,"C-472, Ground Floor, Vikaspuri, New Delhi - 110018, Dist.Delhi, Delhi",8046049586,
Rayon Mohter Feeding kurtis /Kurta / Zip kurti,https://www.indiamart.com/proddetail/mohter-feeding-kurtis-kurta-zip-kurti-2854721749848.html?pos=208&kwd=feeding dress&tags=||||8601.347|Price|product|||MDC|rsf:gd-|-stype:attr=1|qr_nm:gd|res:RC3|com-cf:nl|ptrs:na|ktp:N0|mc:190782|mtp:S|qry_typ:P|lang:en|wc:2|cs:8890|v=4,Supreme Reliable Retail Private Limited,https://www.indiamart.com/supremereliableretail/?pos=208&kwd=feeding dress&tags=||||8601.347|Price|product|||MDC|rsf:gd-|-stype:attr=1|qr_nm:gd|res:RC3|com-cf:nl|ptrs:na|ktp:N0|mc:190782|mtp:S|qry_typ:P|lang:en|wc:2|cs:8890|v=4,False,Kalyan Puri,Jaipur,"SHANTI PATH, GOPAL PURA,, Kalyan Puri, Jaipur - 302020, Dist.Jaipur, Rajasthan",7942539088,
Women Night Dresses,,Neelam Tex,https://www.indiamart.com/neelamtex/?pos=209&kwd=feeding dress&tags=||||8954.051||product|||TS|rsf:gd-|-stype:attr=1|qr_nm:gd|res:RC3|com-cf:nl|ptrs:na|ktp:N0|mc:190782|mtp:S|qry_typ:P|lang:en|wc:2|cs:8890|v=4,False,Old Washermanpet,Chennai,"8/6, Robinson Park colony , 2nd Lane, MC Road, Old Washermanpet, Chennai - 600021, Dist.Chennai, Tamil Nadu",8048977278,
Pink Hosiery Floral Printed Short Nighty/Loungewear/Night Dress/Nightwear For Women Nightgown,https://www.indiamart.com/proddetail/pink-hosiery-floral-printed-short-nighty-loungewear-night-dress-nightwear-for-women-nightgown-2854381463873.html?pos=210&kwd=feeding dress&tags=||||8601.347|Price|product|||MDC|rsf:gd-|-stype:attr=1|qr_nm:gd|res:RC3|com-cf:nl|ptrs:na|ktp:N0|mc:190782|mtp:S|qry_typ:P|lang:en|wc:2|cs:8890|v=4,Kashaya Fabs,https://www.indiamart.com/kashaya-fabs/?pos=210&kwd=feeding dress&tags=||||8601.347|Price|product|||MDC|rsf:gd-|-stype:attr=1|qr_nm:gd|res:RC3|com-cf:nl|ptrs:na|ktp:N0|mc:190782|mtp:S|qry_typ:P|lang:en|wc:2|cs:8890|v=4,False,Mansarovar,Jaipur,"H-1-51/66A, RIICO Industrial Area, Mansarovar, Mansarovar, Jaipur - 302020, Dist.Jaipur, Rajasthan",8044015615,
