product_title,product_link,company_name,company_link,is_verified_exporter,city_region,city,address_details,phone_number,phone_number_extension
"Little One Orange 500gm Suction Plates Babies, 3-12 Months",https://www.indiamart.com/proddetail/500gm-suction-plates-babies-26634104962.html?pos=1&kwd=feeding set&tags=A||||8769.508|Price|product|||MDC|rsf:gd-|-stype:attr=1|qr_nm:gd|res:RC3|com-cf:nl|ptrs:na|ktp:N0|mc:68319|mtp:S|qry_typ:P|lang:en|wc:2|flavl:3|cs:9608|v=4,Anand Enterprises,https://www.indiamart.com/anand-enterprisesfaridabad/?pos=1&kwd=feeding set&tags=A||||8769.508|Price|product|||MDC|rsf:gd-|-stype:attr=1|qr_nm:gd|res:RC3|com-cf:nl|ptrs:na|ktp:N0|mc:68319|mtp:S|qry_typ:P|lang:en|wc:2|flavl:3|cs:9608|v=4,False,Sect,Faridabad,"72 Kheri Road Kastori Faridabad, Sect, Faridabad - 121002, Dist.Faridabad, Haryana",7942703101,
Blue Silicon baby feeding set,https://www.indiamart.com/proddetail/silicon-baby-feeding-set-2854472687162.html?pos=2&kwd=feeding set&tags=A||||7981.7773|Price|product|||TS|rsf:gd-|-stype:attr=1|qr_nm:gd|res:RC3|com-cf:nl|ptrs:na|ktp:N0|mc:68319|mtp:S|qry_typ:P|lang:en|wc:2|flavl:3|cs:9608|v=4,Shreeji Enterprise,https://www.indiamart.com/shreejienterprisegandhidham/?pos=2&kwd=feeding set&tags=A||||7981.7773|Price|product|||TS|rsf:gd-|-stype:attr=1|qr_nm:gd|res:RC3|com-cf:nl|ptrs:na|ktp:N0|mc:68319|mtp:S|qry_typ:P|lang:en|wc:2|flavl:3|cs:9608|v=4,False,Golden Heights,Gandhidham,"108, Golden Height, Opposite Hotel Shiv Grand, Behind Petrol Pump, Golden Heights, Gandhidham - 370201, Dist.Kachchh, Gujarat",7942553471,
PP Feeding Cup Milk/Medicine,,Kapoor Agencies,https://www.sagarproducts.co.in/?pos=3&kwd=feeding set&tags=BA||||8752.144|Price|product|||TS|rsf:gd-|-stype:attr=1|qr_nm:gd|res:RC3|com-cf:nl|ptrs:na|ktp:N0|mc:68319|mtp:S|qry_typ:P|lang:en|wc:2|flavl:3|cs:9608|v=4,False,Shahdara,New Delhi,"Iv/1697,Mahavir Block,Bhola Nath Nagar,Shahdar, Shahdara, New Delhi - 110032, Dist.Delhi, Delhi",8046069171,
"Baby Feeding Set For Kids And Toddlers,Children Children Dinnerware Set 8175",https://www.indiamart.com/proddetail/baby-feeding-set-for-kids-and-toddlers-children-children-dinnerware-set-8175-2853261534712.html?pos=4&kwd=feeding set&tags=A||||8038.093|Price|product|||TS|rsf:gd-|-stype:attr=1|qr_nm:gd|res:RC3|com-cf:nl|ptrs:na|ktp:N0|mc:68319|mtp:S|qry_typ:P|lang:en|wc:2|flavl:3|cs:9608|v=4,Deodap,https://www.indiamart.com/deodap/?pos=4&kwd=feeding set&tags=A||||8038.093|Price|product|||TS|rsf:gd-|-stype:attr=1|qr_nm:gd|res:RC3|com-cf:nl|ptrs:na|ktp:N0|mc:68319|mtp:S|qry_typ:P|lang:en|wc:2|flavl:3|cs:9608|v=4,False,Rajkot,Rajkot,"plot No. 9 Behind Patanjali Werhouse, Ruda Transport, Saat Hanuman Ahemdabad Road, Rajkot, Rajkot - 360005, Dist.Rajkot, Gujarat",8048972316,
Silicone Baby Feeding Set Of 8 Pcs,,ABK Impex,https://www.indiamart.com/abk-impex-delhi/?pos=5&kwd=feeding set&tags=BA||||8752.144|Price|product|||TS|rsf:gd-|-stype:attr=1|qr_nm:gd|res:RC3|com-cf:nl|ptrs:na|ktp:N0|mc:68319|mtp:S|qry_typ:P|lang:en|wc:2|flavl:3|cs:9608|v=4,False,Wazirpur Industrial Area,New Delhi,"C-56/2, First Floor, Wazirpur Industrial Area Road, New Delhi, Wazirpur Industrial Area, New Delhi - 110052, Dist.Delhi, Delhi",7942821519,
"Silicone Baby Feeding Set, 6pcs Baby Feeding Product,Suction Plate, Bowl,Cup, Spoon, Fork",https://www.indiamart.com/proddetail/silicone-baby-feeding-set-6pcs-baby-feeding-product-suction-plate-bowl-cup-spoon-fork-2854759955833.html?pos=6&kwd=feeding set&tags=BB||||8230.883|Price|product|||TS|rsf:gd-|-stype:attr=1|qr_nm:gd|res:RC3|com-cf:nl|ptrs:na|ktp:N0|mc:68319|mtp:S|qry_typ:P|lang:en|wc:2|flavl:3|cs:9608|v=4,Tallin Sales,https://www.indiamart.com/tallin-sales/?pos=6&kwd=feeding set&tags=BB||||8230.883|Price|product|||TS|rsf:gd-|-stype:attr=1|qr_nm:gd|res:RC3|com-cf:nl|ptrs:na|ktp:N0|mc:68319|mtp:S|qry_typ:P|lang:en|wc:2|flavl:3|cs:9608|v=4,False,Singanpor,Surat,"Lakshmi Enclave Basement near Gajera School, Singanpor, Surat - 395004, Dist.Surat, Gujarat",7942542891,
White 10 Months Feeding Set Silicone Plate,https://www.indiamart.com/proddetail/10-months-feeding-set-silicone-plate-2852885366230.html?pos=7&kwd=feeding set&tags=BA||||8457.459|Price|product|||MDC|rsf:gd-|-stype:attr=1|qr_nm:gd|res:RC3|com-cf:nl|ptrs:na|ktp:N0|mc:68319|mtp:S|qry_typ:P|lang:en|wc:2|flavl:3|cs:9608|v=4,B4brain Labs LLP,https://www.indiamart.com/b4brainlabs/?pos=7&kwd=feeding set&tags=BA||||8457.459|Price|product|||MDC|rsf:gd-|-stype:attr=1|qr_nm:gd|res:RC3|com-cf:nl|ptrs:na|ktp:N0|mc:68319|mtp:S|qry_typ:P|lang:en|wc:2|flavl:3|cs:9608|v=4,False,Palazhi,Kozhikode,"Door No 12/478, C/o Ahamed Shafi E P, Ariyayil Potta Vellayikode, Perumanna, Palazhi, Kozhikode - 673019, Dist.Kozhikode, Kerala",7942721906,
"Lilly Ware Baby Feeding Plate, 1-2 Years",https://www.indiamart.com/proddetail/baby-feeding-plate-2853129355333.html?pos=8&kwd=feeding set&tags=BA||||8769.508|Price|product|||MDC|rsf:gd-|-stype:attr=1|qr_nm:gd|res:RC3|com-cf:nl|ptrs:na|ktp:N0|mc:68319|mtp:S|qry_typ:P|lang:en|wc:2|flavl:3|cs:9608|v=4,G's Grace,https://www.indiamart.com/gsgrace/?pos=8&kwd=feeding set&tags=BA||||8769.508|Price|product|||MDC|rsf:gd-|-stype:attr=1|qr_nm:gd|res:RC3|com-cf:nl|ptrs:na|ktp:N0|mc:68319|mtp:S|qry_typ:P|lang:en|wc:2|flavl:3|cs:9608|v=4,False,New Industrial Township 5,Faridabad,"Ground Floor 19 Block G, NIT 5, New Industrial Township 5, Faridabad - 121001, Dist.Faridabad, Haryana",7942723249,
Feeding Toddler Bowl,https://www.indiamart.com/proddetail/feeding-toddler-bowl-23948426091.html?pos=9&kwd=feeding set&tags=BA||||8038.093|Price|product|||TS|rsf:gd-|-stype:attr=1|qr_nm:gd|res:RC3|com-cf:nl|ptrs:na|ktp:N0|mc:68319|mtp:S|qry_typ:P|lang:en|wc:2|flavl:3|cs:9608|v=4,Madhav Enterprise,https://www.indiamart.com/madhav-enterpriserajkot-gujarat/?pos=9&kwd=feeding set&tags=BA||||8038.093|Price|product|||TS|rsf:gd-|-stype:attr=1|qr_nm:gd|res:RC3|com-cf:nl|ptrs:na|ktp:N0|mc:68319|mtp:S|qry_typ:P|lang:en|wc:2|flavl:3|cs:9608|v=4,False,Kothariya,Rajkot,"New Ganeshnagar Streetno-5, Near Bapa Sitaram Chowk , Kothariya Main Road, Ganesh Marbel Street,, Kothariya, Rajkot - 360002, Dist.Rajkot, Gujarat",8048613186,
Yellow Printed Baby Feeding Set,https://www.indiamart.com/proddetail/printed-baby-feeding-set-2852681277991.html?pos=10&kwd=feeding set&tags=BA||||8752.144|Price|product|||NA|rsf:gd-|-stype:attr=1|qr_nm:gd|res:RC3|com-cf:nl|ptrs:na|ktp:N0|mc:68319|mtp:S|qry_typ:P|lang:en|wc:2|flavl:3|cs:9608|v=4,Diamond Cubik,https://www.indiamart.com/diamond-cubik/?pos=10&kwd=feeding set&tags=BA||||8752.144|Price|product|||NA|rsf:gd-|-stype:attr=1|qr_nm:gd|res:RC3|com-cf:nl|ptrs:na|ktp:N0|mc:68319|mtp:S|qry_typ:P|lang:en|wc:2|flavl:3|cs:9608|v=4,False,Punjabi Bagh,New Delhi,"House No 8, Temp Road NO. 22, Punjabi Bagh East, North West, Punjabi Bagh, New Delhi - 110026, Dist.Delhi, Delhi",7942716381,
Blue Silicone Baby Feeding Set,https://www.indiamart.com/proddetail/silicone-baby-feeding-set-2855027631491.html?pos=11&kwd=feeding set&tags=BB||||8211.142|Price|product|||NA|rsf:gd-|-stype:attr=1|qr_nm:gd|res:RC3|com-cf:nl|ptrs:na|ktp:N0|mc:68319|mtp:S|qry_typ:P|lang:en|wc:2|flavl:3|cs:9608|v=4,Sonal Communication,https://www.indiamart.com/sonal-communication-mumbai/?pos=11&kwd=feeding set&tags=BB||||8211.142|Price|product|||NA|rsf:gd-|-stype:attr=1|qr_nm:gd|res:RC3|com-cf:nl|ptrs:na|ktp:N0|mc:68319|mtp:S|qry_typ:P|lang:en|wc:2|flavl:3|cs:9608|v=4,False,,Mumbai,"B/602, Comet Building, Bhakti Park, Near Imax Cinema, Wadala,, Mumbai - 400037, Dist.Mumbai, Maharashtra",8047656217,
"Seint Utensil Combo Grey Silicon Feeding Plate Set, 2 Years",https://www.indiamart.com/proddetail/grey-silicon-feeding-plate-set-2849545461262.html?pos=12&kwd=feeding set&tags=BB||||8663.873||product|||NA|rsf:gd-|-stype:attr=1|qr_nm:gd|res:RC3|com-cf:nl|ptrs:na|ktp:N0|mc:68319|mtp:S|qry_typ:P|lang:en|wc:2|flavl:3|cs:9608|v=4,Subha Exim International,https://www.indiamart.com/subha-exim-international/?pos=12&kwd=feeding set&tags=BB||||8663.873||product|||NA|rsf:gd-|-stype:attr=1|qr_nm:gd|res:RC3|com-cf:nl|ptrs:na|ktp:N0|mc:68319|mtp:S|qry_typ:P|lang:en|wc:2|flavl:3|cs:9608|v=4,False,,Bengaluru,"A109, Greenville Apartment, 165/2 5th Cross, Urban, Bengaluru - 560066, Dist.Bengaluru, Karnataka",7942792684,
Premium Silicone Suction Plate for Babies Feeding Set Divider Plate With Spoon Fork,https://www.indiamart.com/proddetail/premium-silicone-suction-plate-for-babies-feeding-set-divider-plate-with-spoon-fork-2852823396197.html?pos=13&kwd=feeding set&tags=BA||||8841.674|Price|product|||NA|rsf:gd-|-stype:attr=1|qr_nm:gd|res:RC3|com-cf:nl|ptrs:na|ktp:N0|mc:68319|mtp:S|qry_typ:P|lang:en|wc:2|flavl:3|cs:9608|v=4,Clarx Trail,https://www.indiamart.com/clarx-trail/?pos=13&kwd=feeding set&tags=BA||||8841.674|Price|product|||NA|rsf:gd-|-stype:attr=1|qr_nm:gd|res:RC3|com-cf:nl|ptrs:na|ktp:N0|mc:68319|mtp:S|qry_typ:P|lang:en|wc:2|flavl:3|cs:9608|v=4,False,,Roorkee,"100/1,,sukhdev nagar,ROORKEE Roorkee,247667,, Roorkee - 247667, Dist.Haridwar, Uttarakhand",8069033792,719
Green silicon bowl set,https://www.indiamart.com/proddetail/green-silicon-bowl-set-2851740366391.html?pos=14&kwd=feeding set&tags=BB||||8584.299||product|||NA|rsf:gd-|-stype:attr=1|qr_nm:gd|res:RC3|com-cf:nl|ptrs:na|ktp:N0|mc:68319|mtp:S|qry_typ:P|lang:en|wc:2|flavl:3|cs:9608|v=4,Buttercup Baby Clothing,https://www.indiamart.com/buttercup-baby-clothing/?pos=14&kwd=feeding set&tags=BB||||8584.299||product|||NA|rsf:gd-|-stype:attr=1|qr_nm:gd|res:RC3|com-cf:nl|ptrs:na|ktp:N0|mc:68319|mtp:S|qry_typ:P|lang:en|wc:2|flavl:3|cs:9608|v=4,False,,Coimbatore,"33-8, East Ponnurangam Road, RS Puram, Coimbatore - 641002, Dist.Coimbatore, Tamil Nadu",8043824974,
Silicone Feeding Set_4 Piece Set_Owl Design,https://www.indiamart.com/proddetail/silicone-feeding-set-4-piece-set-owl-design-2850639611862.html?pos=15&kwd=feeding set&tags=BA||||9839.57||product|||NA|rsf:gd-|-stype:attr=1|qr_nm:gd|res:RC3|com-cf:nl|ptrs:na|ktp:N0|mc:68319|mtp:S|qry_typ:P|lang:en|wc:2|cs:8842|v=4,Kode Ventures Consulting LLP,https://www.indiamart.com/kode-ventures-consulting-llp/?pos=15&kwd=feeding set&tags=BA||||9839.57||product|||NA|rsf:gd-|-stype:attr=1|qr_nm:gd|res:RC3|com-cf:nl|ptrs:na|ktp:N0|mc:68319|mtp:S|qry_typ:P|lang:en|wc:2|cs:8842|v=4,False,,Kolkata,"30/a/1 Nabalia Para Road Lp 79/14 Kolkata Kolkata, Kolkata - 700008, Dist.Kolkata, West Bengal",8069196775,284
"Silicone Baby Feeding Set of 7 pcs: BPA-Free Suction Plate, Baby Bib, Bowl, Cup, Lid Cap Spoon, Fork",https://www.indiamart.com/proddetail/silicone-baby-feeding-set-of-7-pcs-bpa-free-suction-plate-baby-bib-bowl-cup-lid-cap-spoon-fork-2854320972791.html?pos=16&kwd=feeding set&tags=BA||||8038.093|Price|product|||NA|rsf:gd-|-stype:attr=1|qr_nm:gd|res:RC3|com-cf:nl|ptrs:na|ktp:N0|mc:68319|mtp:S|qry_typ:P|lang:en|wc:2|cs:8842|v=4,Mak Global,https://www.indiamart.com/makglobal/?pos=16&kwd=feeding set&tags=BA||||8038.093|Price|product|||NA|rsf:gd-|-stype:attr=1|qr_nm:gd|res:RC3|com-cf:nl|ptrs:na|ktp:N0|mc:68319|mtp:S|qry_typ:P|lang:en|wc:2|cs:8842|v=4,False,,Rajkot,"1, Kayaji Plot, Opp. A J Company, Ravapar Road, Rajkot - 363641, Dist.Rajkot, Gujarat",7942833407,
"Blue Plastic Baby Feeding Set, Capacity: 100 mL",https://www.indiamart.com/proddetail/baby-feeding-set-2854530303930.html?pos=17&kwd=feeding set&tags=BA||||8211.142|Price|product|||NA|rsf:gd-|-stype:attr=1|qr_nm:gd|res:RC3|com-cf:nl|ptrs:na|ktp:N0|mc:68319|mtp:S|qry_typ:P|lang:en|wc:2|cs:8842|v=4,Jenisha Enterprises,https://www.indiamart.com/jenisha-enterprises-mumbai/?pos=17&kwd=feeding set&tags=BA||||8211.142|Price|product|||NA|rsf:gd-|-stype:attr=1|qr_nm:gd|res:RC3|com-cf:nl|ptrs:na|ktp:N0|mc:68319|mtp:S|qry_typ:P|lang:en|wc:2|cs:8842|v=4,False,,Mumbai,"C-1203,HARMONY TOWER,Brijlal Manik Astik Marg,Mumbai C-1203,HARMONY TOWER,Brijlal Manik Astik Marg,Mumbai,400080,, Mumbai - 400080, Dist.Mumbai, Maharashtra",8048370730,9910
Feeding Set,,Niyo Toys,https://www.indiamart.com/niyo-toys/?pos=18&kwd=feeding set&tags=BA||||8211.142||product|||NA|rsf:gd-|-stype:attr=1|qr_nm:gd|res:RC3|com-cf:nl|ptrs:na|ktp:N0|mc:68319|mtp:S|qry_typ:P|lang:en|wc:2|cs:8842|v=4,False,Pant Nagar,Mumbai,"A - 1501 Embassy Tower, Next To Building No. 185 Ghatkopar East, Pant Nagar, Mumbai - 400075, Dist.Mumbai, Maharashtra",8043804037,
Blue Silicone Baby Feeding Set,,Vatsalya Enterprise,https://www.indiamart.com/company/185359534/?pos=19&kwd=feeding set&tags=BA||||8230.883|Price|product|||NA|rsf:gd-|-stype:attr=1|qr_nm:gd|res:RC3|com-cf:nl|ptrs:na|ktp:N0|mc:68319|mtp:S|qry_typ:P|lang:en|wc:2|cs:8842|v=4,False,,Surat,"2nd Floor, Shop-218, Shree Vinayak Arcade, Sudama Chowk, Surat - 394105, Dist.Surat, Gujarat",8048247102,9333
Silicone 3 pcs baby feeding set Olive Green,,RG Global,https://www.indiamart.com/rg-global-hyderabad/?pos=20&kwd=feeding set&tags=BB||||8786.56|Price|product|||NA|rsf:gd-|-stype:attr=1|qr_nm:gd|res:RC3|com-cf:nl|ptrs:na|ktp:N0|mc:68319|mtp:S|qry_typ:P|lang:en|wc:2|cs:8842|v=4,False,,Hyderabad,"1-e 3-4-255 Kachiguda Station Road Kanakadurga Bhawan, Hyderabad - 500027, Dist.Hyderabad, Telangana",8048372920,621
"Plastic Pink And Blue Cadle Baby 240ml Anti Colic Feeding Bottle Set, Age Group: Newly Born",https://www.indiamart.com/proddetail/cadle-baby-240ml-anti-colic-feeding-bottle-set-2851071621397.html?pos=21&kwd=feeding set&tags=||||8788.382|Price|product|||MDC|rsf:gd-|-stype:attr=1|qr_nm:gd|res:RC3|com-cf:nl|ptrs:na|ktp:N0|mc:68319|mtp:S|qry_typ:P|lang:en|wc:2|cs:8842|v=4,Loop Techno Systems Private Limited,https://www.indiamart.com/loop-technosystems/?pos=21&kwd=feeding set&tags=||||8788.382|Price|product|||MDC|rsf:gd-|-stype:attr=1|qr_nm:gd|res:RC3|com-cf:nl|ptrs:na|ktp:N0|mc:68319|mtp:S|qry_typ:P|lang:en|wc:2|cs:8842|v=4,False,Surajpur Site V,Greater Noida,"Plot No. J-023, Site 5, Kasna Ind, Area,Gautam Buddha Nagar, Surajpur Site V, Greater Noida - 201308, Dist.Gautam Budh Nagar, Uttar Pradesh",7942830535,
Baby Feeding Set For Kids And Toddlers (7 Pcs Set),https://www.indiamart.com/proddetail/baby-feeding-set-for-kids-and-toddlers-7-pcs-set-2854779881255.html?pos=22&kwd=feeding set&tags=CC||||8692.544|Price|product|||MDC|rsf:gd-|-stype:attr=1|qr_nm:gd|res:RC3|com-cf:nl|ptrs:na|ktp:N0|mc:68319|mtp:S|qry_typ:P|lang:en|wc:2|cs:8842|v=4,Demrot Bangles And Manufacture,https://www.indiamart.com/demrotbanglesmanufacture/?pos=22&kwd=feeding set&tags=CC||||8692.544|Price|product|||MDC|rsf:gd-|-stype:attr=1|qr_nm:gd|res:RC3|com-cf:nl|ptrs:na|ktp:N0|mc:68319|mtp:S|qry_typ:P|lang:en|wc:2|cs:8842|v=4,False,Kishangarh Bas,Alwar,"Vashishtha Market, Kishangarh Bass, Kishangarh Bas, Alwar - 301405, Dist.Alwar, Rajasthan",,
"Green Kids Silicone Feeding Plate, 2 Year",https://www.indiamart.com/proddetail/kids-silicone-feeding-plate-2852785711430.html?pos=23&kwd=feeding set&tags=CC||||8752.144|Price|product|||MDC|rsf:gd-|-stype:attr=1|qr_nm:gd|res:RC3|com-cf:nl|ptrs:na|ktp:N0|mc:68319|mtp:S|qry_typ:P|lang:en|wc:2|cs:8842|v=4,Bombay Pen Store,https://www.indiamart.com/bombaypenstorenewdelhi/?pos=23&kwd=feeding set&tags=CC||||8752.144|Price|product|||MDC|rsf:gd-|-stype:attr=1|qr_nm:gd|res:RC3|com-cf:nl|ptrs:na|ktp:N0|mc:68319|mtp:S|qry_typ:P|lang:en|wc:2|cs:8842|v=4,False,Delhi Sadar Bazar,New Delhi,"Second Floor, 6054, Main Road Sadar Bazar, Near Qutub Road Chowk, North Delhi, Delhi Sadar Bazar, New Delhi - 110006, Dist.Delhi, Delhi",8047666043,
"Pink and Red 250ml Plastic Feeding Bottle Set, Age Group: Newly Born",https://www.indiamart.com/proddetail/250ml-plastic-feeding-bottle-set-25743021273.html?pos=24&kwd=feeding set&tags=||||8752.144|Price|product|||MDC|rsf:gd-|-stype:attr=1|qr_nm:gd|res:RC3|com-cf:nl|ptrs:na|ktp:N0|mc:68319|mtp:S|qry_typ:P|lang:en|wc:2|cs:8842|v=4,Little Kingdom Baby Product,https://www.indiamart.com/little-kingdombaby-product/?pos=24&kwd=feeding set&tags=||||8752.144|Price|product|||MDC|rsf:gd-|-stype:attr=1|qr_nm:gd|res:RC3|com-cf:nl|ptrs:na|ktp:N0|mc:68319|mtp:S|qry_typ:P|lang:en|wc:2|cs:8842|v=4,False,Bawana,New Delhi,"Plot No. 16, PKT-G, Sector-3, DSIIDC, Bawana, North West Delhi, Bawana, New Delhi - 110039, Dist.Delhi, Delhi",8047648589,
Wheat Straw Tableware Set Plate Spoon & Fork Set 15.7 x 15.7 Cm,https://www.indiamart.com/proddetail/wheat-straw-tableware-set-plate-spoon-fork-set-15-7-x-15-7-cm-2854142718791.html?pos=25&kwd=feeding set&tags=CC||||8785.791|Price|product|||TS|rsf:gd-|-stype:attr=1|qr_nm:gd|res:RC3|com-cf:nl|ptrs:na|ktp:N0|mc:68319|mtp:S|qry_typ:P|lang:en|wc:2|cs:8842|v=4,Rident Kitchen,https://www.ridentkitchen.in/?pos=25&kwd=feeding set&tags=CC||||8785.791|Price|product|||TS|rsf:gd-|-stype:attr=1|qr_nm:gd|res:RC3|com-cf:nl|ptrs:na|ktp:N0|mc:68319|mtp:S|qry_typ:P|lang:en|wc:2|cs:8842|v=4,False,Mohan Nagar,Ghaziabad,"Plot No. 30, Second floor Rajender Nagar Industrial Area, Street No. 4, Mohan Nagar, Ghaziabad - 201007, Dist.Ghaziabad, Uttar Pradesh",8048262052,
"Size: medium Silicon Baby Feeding Bottle, Age Group: 3-12 Months, Capacity: 250ml",https://www.indiamart.com/proddetail/silicon-baby-feeding-bottle-26171228255.html?pos=26&kwd=feeding set&tags=||||8752.144|Price|product|||TS|rsf:gd-|-stype:attr=1|qr_nm:gd|res:RC3|com-cf:nl|ptrs:na|ktp:N0|mc:68319|mtp:S|qry_typ:P|lang:en|wc:2|cs:8842|v=4,Urbancube,https://www.indiamart.com/urbancube/?pos=26&kwd=feeding set&tags=||||8752.144|Price|product|||TS|rsf:gd-|-stype:attr=1|qr_nm:gd|res:RC3|com-cf:nl|ptrs:na|ktp:N0|mc:68319|mtp:S|qry_typ:P|lang:en|wc:2|cs:8842|v=4,False,Kamla Nagar,New Delhi,"Ground Floor, 14 UA, Jawahar Nagar, Kamla Nagar, New Delhi - 110007, Dist.Delhi, Delhi",8048980014,
"Plastic Baby Spoon Feeder, Capacity: 125 ml",https://www.indiamart.com/proddetail/baby-spoon-feeder-2854075887497.html?pos=27&kwd=feeding set&tags=||||8823.154|Price|product|||TS|rsf:gd-|-stype:attr=1|qr_nm:gd|res:RC3|com-cf:nl|ptrs:na|ktp:N0|mc:68319|mtp:S|qry_typ:P|lang:en|wc:2|cs:8842|v=4,Shri Anant International,https://www.indiamart.com/shrianantinternational/?pos=27&kwd=feeding set&tags=||||8823.154|Price|product|||TS|rsf:gd-|-stype:attr=1|qr_nm:gd|res:RC3|com-cf:nl|ptrs:na|ktp:N0|mc:68319|mtp:S|qry_typ:P|lang:en|wc:2|cs:8842|v=4,False,DayalBagh,Agra,"No.02,House 2,Alkapuri Phase Ii,Agra, DayalBagh, Agra - 282005, Dist.Agra, Uttar Pradesh",7942721451,
Multicolor Silicone Toy Teethers,https://www.indiamart.com/proddetail/silicone-toy-teethers-2586470712.html?pos=28&kwd=feeding set&tags=||||8752.144|Price|product|||TS|rsf:gd-|-stype:attr=1|qr_nm:gd|res:RC3|com-cf:nl|ptrs:na|ktp:N0|mc:68319|mtp:S|qry_typ:P|lang:en|wc:2|cs:8842|v=4,Dolphin Baby Product,https://www.dolphinbabyproducts.com/?pos=28&kwd=feeding set&tags=||||8752.144|Price|product|||TS|rsf:gd-|-stype:attr=1|qr_nm:gd|res:RC3|com-cf:nl|ptrs:na|ktp:N0|mc:68319|mtp:S|qry_typ:P|lang:en|wc:2|cs:8842|v=4,False,Inderlok,New Delhi,"No. 488, 1st Floor, Shahzada Bagh, Industrial Area Phase 1, Inderlok, New Delhi - 110035, Dist.Delhi, Delhi",8048965296,
"White PP feeding bottle, Capacity: 125 ml, Age Group: Newly Born",https://www.indiamart.com/proddetail/pp-feeding-bottle-2854771119391.html?pos=29&kwd=feeding set&tags=||||8785.791|Price|product|||TS|rsf:gd-|-stype:attr=1|qr_nm:gd|res:RC3|com-cf:nl|ptrs:na|ktp:N0|mc:68319|mtp:S|qry_typ:P|lang:en|wc:2|cs:8842|v=4,Paras Enterprises,https://www.claoberry.com/?pos=29&kwd=feeding set&tags=||||8785.791|Price|product|||TS|rsf:gd-|-stype:attr=1|qr_nm:gd|res:RC3|com-cf:nl|ptrs:na|ktp:N0|mc:68319|mtp:S|qry_typ:P|lang:en|wc:2|cs:8842|v=4,False,Raj Nagar Extension,Ghaziabad,"KH.NO.-2565,VILLAGE KARHERA,MOHAN NAGAR,Ghaziabad, Raj Nagar Extension, Ghaziabad - 201007, Dist.Ghaziabad, Uttar Pradesh",8043862487,
"Plastic Mee Mee Premium Feeding Bottle, Capacity: 250 ml, Age Group: Newly Born",https://www.indiamart.com/proddetail/mee-mee-premium-feeding-bottle-2853403126012.html?pos=30&kwd=feeding set&tags=||||9618.383|Price|product|||MDC|rsf:gd-|-stype:attr=1|qr_nm:gd|res:RC3|com-cf:nl|ptrs:na|ktp:N0|mc:68319|mtp:S|qry_typ:P|lang:en|wc:2|cs:8842|v=4,Texco,https://www.indiamart.com/texco/?pos=30&kwd=feeding set&tags=||||9618.383|Price|product|||MDC|rsf:gd-|-stype:attr=1|qr_nm:gd|res:RC3|com-cf:nl|ptrs:na|ktp:N0|mc:68319|mtp:S|qry_typ:P|lang:en|wc:2|cs:8842|v=4,False,Bistupur,Jamshedpur,"Shop No. 2, Main Road, Bistupur, Bistupur, Jamshedpur - 831001, Dist.East Singhbhum, Jharkhand",7949092933,
little monkeys Easy Squeezy Silicone Food Feeder Spoon (Soft Tip) Bottle,https://www.indiamart.com/proddetail/little-monkeys-easy-squeezy-silicone-food-feeder-spoon-soft-tip-bottle-2851497326212.html?pos=31&kwd=feeding set&tags=||||8752.144|Price|product|||TS|rsf:gd-|-stype:attr=1|qr_nm:gd|res:RC3|com-cf:nl|ptrs:na|ktp:N0|mc:68319|mtp:S|qry_typ:P|lang:en|wc:2|cs:8842|v=4,Ekta Overseas,https://www.indiamart.com/ektaoverseas-newdelhi/?pos=31&kwd=feeding set&tags=||||8752.144|Price|product|||TS|rsf:gd-|-stype:attr=1|qr_nm:gd|res:RC3|com-cf:nl|ptrs:na|ktp:N0|mc:68319|mtp:S|qry_typ:P|lang:en|wc:2|cs:8842|v=4,False,Shahdara,New Delhi,"1/95, Gali No.3, Near Navjeevan Phisical Center, Vishwas Nagar, Shahdara,, Shahdara, New Delhi - 110032, Dist.Delhi, Delhi",7942628926,
"Plastic White Baby Feeding Bottle, 50 mL, Age Group: 3-12 Months",https://www.indiamart.com/proddetail/baby-feeding-bottle-2852304848030.html?pos=32&kwd=feeding set&tags=||||8211.142|Price|product|||TS|rsf:gd-|-stype:attr=1|qr_nm:gd|res:RC3|com-cf:nl|ptrs:na|ktp:N0|mc:68319|mtp:S|qry_typ:P|lang:en|wc:2|cs:8842|v=4,P For Panda Baby Products Private Limited,https://www.p4pandababyproducts.com/?pos=32&kwd=feeding set&tags=||||8211.142|Price|product|||TS|rsf:gd-|-stype:attr=1|qr_nm:gd|res:RC3|com-cf:nl|ptrs:na|ktp:N0|mc:68319|mtp:S|qry_typ:P|lang:en|wc:2|cs:8842|v=4,False,Goregaon West,Mumbai,"904 A Wing,9 Th Floor,Triple S Heights,Jakeria Road, Goregaon West, Mumbai - 400064, Dist.Mumbai, Maharashtra",7942710871,
"Baby Suction Bowl with Lid, Toddler Bowls Baby Feeding Set with Child Utensils, BPA Free",https://www.indiamart.com/proddetail/baby-suction-bowl-with-lid-toddler-bowls-baby-feeding-set-with-child-utensils-bpa-free-2854847463073.html?pos=33&kwd=feeding set&tags=||||8752.144|Price|product|||TS|rsf:gd-|-stype:attr=1|qr_nm:gd|res:RC3|com-cf:nl|ptrs:na|ktp:N0|mc:68319|mtp:S|qry_typ:P|lang:en|wc:2|cs:8842|v=4,R. K. Traders,https://www.indiamart.com/rk-traders-rajkot/?pos=33&kwd=feeding set&tags=||||8752.144|Price|product|||TS|rsf:gd-|-stype:attr=1|qr_nm:gd|res:RC3|com-cf:nl|ptrs:na|ktp:N0|mc:68319|mtp:S|qry_typ:P|lang:en|wc:2|cs:8842|v=4,False,Pooth Khurd,New Delhi,"Plot/Khasra No-155/434, Ground Floor, Extended Lal Dora, Industrial Plot Village Pooth Khurd,, Pooth Khurd, New Delhi - 110039, Dist.Delhi, Delhi",7942558440,
kids suction Feeding Bowl with spoon Feeding Bowl Set with Thermo-Sensitive Spoons,https://www.indiamart.com/proddetail/kids-suction-feeding-bowl-with-spoon-feeding-bowl-set-with-thermo-sensitive-spoons-2854181933188.html?pos=34&kwd=feeding set&tags=||||8954.051|Price|product|||MDC|rsf:gd-|-stype:attr=1|qr_nm:gd|res:RC3|com-cf:nl|ptrs:na|ktp:N0|mc:68319|mtp:S|qry_typ:P|lang:en|wc:2|cs:8842|v=4,Munmur E Ventures,https://www.indiamart.com/munmur-e-ventureschennai/?pos=34&kwd=feeding set&tags=||||8954.051|Price|product|||MDC|rsf:gd-|-stype:attr=1|qr_nm:gd|res:RC3|com-cf:nl|ptrs:na|ktp:N0|mc:68319|mtp:S|qry_typ:P|lang:en|wc:2|cs:8842|v=4,False,Ponniammanmedu,Chennai,"No.97, Poongavanam Thootam, Periya Salai, Ponniammanmedu, Ponniammanmedu, Chennai - 600110, Dist.Chennai, Tamil Nadu",8044564242,
Stainless Steel Baby Feeding Bottle,https://www.indiamart.com/proddetail/stainless-steel-baby-feeding-bottle-2854078303797.html?pos=35&kwd=feeding set&tags=||||8752.144|Price|product|||MDC|rsf:gd-|-stype:attr=1|qr_nm:gd|res:RC3|com-cf:nl|ptrs:na|ktp:N0|mc:68319|mtp:S|qry_typ:P|lang:en|wc:2|cs:8842|v=4,Shubh Shakti Traders,https://www.indiamart.com/shubhshaktitraders/?pos=35&kwd=feeding set&tags=||||8752.144|Price|product|||MDC|rsf:gd-|-stype:attr=1|qr_nm:gd|res:RC3|com-cf:nl|ptrs:na|ktp:N0|mc:68319|mtp:S|qry_typ:P|lang:en|wc:2|cs:8842|v=4,False,Wazirpur,New Delhi,"Ground Floor, House No.51, DSIDC Complex. Wazirpur Indl. Area, Landmark Old SBI Building, North West, Wazirpur, New Delhi - 110052, Dist.Delhi, Delhi",7949224945,
Baby Soother .,https://www.indiamart.com/proddetail/baby-soother-2853570013930.html?pos=36&kwd=feeding set&tags=||||8228.275|Price|product|||TS|rsf:gd-|-stype:attr=1|qr_nm:gd|res:RC3|com-cf:nl|ptrs:na|ktp:N0|mc:68319|mtp:S|qry_typ:P|lang:en|wc:2|cs:8842|v=4,Smonkare Impex Private Limited,https://www.psychiatricmedicines.com/?pos=36&kwd=feeding set&tags=||||8228.275|Price|product|||TS|rsf:gd-|-stype:attr=1|qr_nm:gd|res:RC3|com-cf:nl|ptrs:na|ktp:N0|mc:68319|mtp:S|qry_typ:P|lang:en|wc:2|cs:8842|v=4,False,Chanakyapuri,Ahmedabad,"1st Floor,1,2, Malhar Complex, Near Sola Railway Overbridge Science City Road, Chanakyapuri, Ahmedabad - 380060, Dist.Ahmedabad, Gujarat",8048985231,
Silicone Baby Bowl with Spoon Set for Baby,https://www.indiamart.com/proddetail/silicone-baby-bowl-with-spoon-set-for-baby-2852614449448.html?pos=37&kwd=feeding set&tags=||||8786.56|Price|product|||TS|rsf:gd-|-stype:attr=1|qr_nm:gd|res:RC3|com-cf:nl|ptrs:na|ktp:N0|mc:68319|mtp:S|qry_typ:P|lang:en|wc:2|cs:8842|v=4,Totcase Services Private Limited,https://www.totcase.com/?pos=37&kwd=feeding set&tags=||||8786.56|Price|product|||TS|rsf:gd-|-stype:attr=1|qr_nm:gd|res:RC3|com-cf:nl|ptrs:na|ktp:N0|mc:68319|mtp:S|qry_typ:P|lang:en|wc:2|cs:8842|v=4,False,Alwal,Hyderabad,"1-4-177/ A13/402 Shivasai Residency Greenwood Colony Old Alwal, Alwal, Hyderabad - 500010, Dist.Hyderabad, Telangana",8045910096,
"Plastic White Auto Flow Baby Set, Capacity: 250 ml, Age Group: Newly Born",https://www.indiamart.com/proddetail/auto-flow-baby-set-2854534916433.html?pos=38&kwd=feeding set&tags=||||8038.093|Price|product|||MDC|rsf:gd-|-stype:attr=1|qr_nm:gd|res:RC3|com-cf:nl|ptrs:na|ktp:N0|mc:68319|mtp:S|qry_typ:P|lang:en|wc:2|cs:8842|v=4,My Medicine,https://www.indiamart.com/mymedicinerajkot/?pos=38&kwd=feeding set&tags=||||8038.093|Price|product|||MDC|rsf:gd-|-stype:attr=1|qr_nm:gd|res:RC3|com-cf:nl|ptrs:na|ktp:N0|mc:68319|mtp:S|qry_typ:P|lang:en|wc:2|cs:8842|v=4,False,,Rajkot,"8, Git Gurjari Scoiety, My Medicine, Air Port Road, Opp. Nilkant Mahadev Temple, Rajkot - 360007, Dist.Rajkot, Gujarat",7949336599,
Transparent Designer Feeding Bottles,https://www.indiamart.com/proddetail/designer-feeding-bottles-10699273830.html?pos=39&kwd=feeding set&tags=||||8778.123|Price|product|||TS|rsf:gd-|-stype:attr=1|qr_nm:gd|res:RC3|com-cf:nl|ptrs:na|ktp:N0|mc:68319|mtp:S|qry_typ:P|lang:en|wc:2|cs:8842|v=4,Bonny Products Private Limited,https://www.feedingbottles.com/?pos=39&kwd=feeding set&tags=||||8778.123|Price|product|||TS|rsf:gd-|-stype:attr=1|qr_nm:gd|res:RC3|com-cf:nl|ptrs:na|ktp:N0|mc:68319|mtp:S|qry_typ:P|lang:en|wc:2|cs:8842|v=4,False,Sector 63,Noida,"D240, Sector 63, Sector 63, Noida - 201307, Dist.Gautam Budh Nagar, Uttar Pradesh",8046040824,
Red Silicon Chewing BAR Baby Teethers Feeders Soothers 100% Safe BPA Free,https://www.indiamart.com/proddetail/red-silicon-chewing-bar-baby-teethers-feeders-soothers-100-safe-bpa-free-2852714730255.html?pos=40&kwd=feeding set&tags=||||8778.123|Price|product|||TS|rsf:gd-|-stype:attr=1|qr_nm:gd|res:RC3|com-cf:nl|ptrs:na|ktp:N0|mc:68319|mtp:S|qry_typ:P|lang:en|wc:2|cs:8842|v=4,GM'S Speechgears Private Limited,https://www.indiamart.com/gmsspeechgears/?pos=40&kwd=feeding set&tags=||||8778.123|Price|product|||TS|rsf:gd-|-stype:attr=1|qr_nm:gd|res:RC3|com-cf:nl|ptrs:na|ktp:N0|mc:68319|mtp:S|qry_typ:P|lang:en|wc:2|cs:8842|v=4,False,Sector 65,Noida,"1st Floor, A-77, Sector-65, Gautambuddha Nagar, Sector 65, Noida - 201301, Dist.Gautam Budh Nagar, Uttar Pradesh",7942713454,
Baby Pacifier Silicone Fresh Fruit Teether,https://www.indiamart.com/proddetail/baby-pacifier-silicone-fresh-fruit-teether-2854957104812.html?pos=41&kwd=feeding set&tags=||||8752.144|Price|product|||MDC|rsf:gd-|-stype:attr=1|qr_nm:gd|res:RC3|com-cf:nl|ptrs:na|ktp:N0|mc:68319|mtp:S|qry_typ:P|lang:en|wc:2|cs:8842|v=4,Yami Enterprises,https://www.indiamart.com/yamienterprises/?pos=41&kwd=feeding set&tags=||||8752.144|Price|product|||MDC|rsf:gd-|-stype:attr=1|qr_nm:gd|res:RC3|com-cf:nl|ptrs:na|ktp:N0|mc:68319|mtp:S|qry_typ:P|lang:en|wc:2|cs:8842|v=4,False,,New Delhi,"B-85, Prem Nagar 2, Kirari Suleman Nagar, North West Delhi, New Delhi - 110086, Dist.Delhi, Delhi",8045734447,
"Transparent Philips Feeding Bottles And Sippers, Baby",https://www.indiamart.com/proddetail/philips-feeding-bottles-and-sippers-2853433608497.html?pos=42&kwd=feeding set&tags=||||8663.873|Price|product|||TS|rsf:gd-|-stype:attr=1|qr_nm:gd|res:RC3|com-cf:nl|ptrs:na|ktp:N0|mc:68319|mtp:S|qry_typ:P|lang:en|wc:2|cs:8842|v=4,Prajwal Surgical And Scientifics Private Limited,https://www.indiamart.com/prajwal-surgical-and-scientifics/?pos=42&kwd=feeding set&tags=||||8663.873|Price|product|||TS|rsf:gd-|-stype:attr=1|qr_nm:gd|res:RC3|com-cf:nl|ptrs:na|ktp:N0|mc:68319|mtp:S|qry_typ:P|lang:en|wc:2|cs:8842|v=4,False,Peenya,Bengaluru,"2nd Floor, 254/A PID No 11-161-254A, Old Sonal Garments, 100 Feet Road, Peenya Industrial Area Stage, Peenya, Bengaluru - 560058, Dist.Bengaluru, Karnataka",7942842256,
Baby Medicine Feeder Set with Graduated Dropper and Spoon (Blue)(Pack of 1),https://www.indiamart.com/proddetail/baby-medicine-feeder-set-with-graduated-dropper-and-spoon-blue-pack-of-1-2853217461833.html?pos=43&kwd=feeding set&tags=||||8230.883|Price|product|||TS|rsf:gd-|-stype:attr=1|qr_nm:gd|res:RC3|com-cf:nl|ptrs:na|ktp:N0|mc:68319|mtp:S|qry_typ:P|lang:en|wc:2|cs:8842|v=4,Rozzby,https://www.cheaperzonetoys.com/?pos=43&kwd=feeding set&tags=||||8230.883|Price|product|||TS|rsf:gd-|-stype:attr=1|qr_nm:gd|res:RC3|com-cf:nl|ptrs:na|ktp:N0|mc:68319|mtp:S|qry_typ:P|lang:en|wc:2|cs:8842|v=4,False,Kosam,Surat,"1st Floor D-2,103 Vip Circle Shlok Recidency Utran, Kosam, Surat - 394105, Dist.Surat, Gujarat",8047622002,
Baby Feeding Syringe,https://www.indiamart.com/proddetail/baby-feeding-syringe-24271161273.html?pos=44&kwd=feeding set&tags=||||8752.144|Price|product|||MDC|rsf:gd-|-stype:attr=1|qr_nm:gd|res:RC3|com-cf:nl|ptrs:na|ktp:N0|mc:68319|mtp:S|qry_typ:P|lang:en|wc:2|cs:8842|v=4,Honey Bell Enterprises,https://www.indiamart.com/honey-bell-enterprises/?pos=44&kwd=feeding set&tags=||||8752.144|Price|product|||MDC|rsf:gd-|-stype:attr=1|qr_nm:gd|res:RC3|com-cf:nl|ptrs:na|ktp:N0|mc:68319|mtp:S|qry_typ:P|lang:en|wc:2|cs:8842|v=4,False,Shastri Nagar,New Delhi,"House No.39/1, Plot No.39,Ground Floor Block E-2, Shastri Nagar, Shastri Nagar, New Delhi - 110052, Dist.Delhi, Delhi",8048971968,
"Plastic Transparent Baby Baul Set, Capacity: 150 ml",https://www.indiamart.com/proddetail/baby-baul-set-2855017275588.html?pos=45&kwd=feeding set&tags=||||8752.144|Price|product|||MDC|rsf:gd-|-stype:attr=1|qr_nm:gd|res:RC3|com-cf:nl|ptrs:na|ktp:N0|mc:68319|mtp:S|qry_typ:P|lang:en|wc:2|cs:8842|v=4,A.S.Enterprises,https://www.indiamart.com/a-senterprisesdelhi-india/?pos=45&kwd=feeding set&tags=||||8752.144|Price|product|||MDC|rsf:gd-|-stype:attr=1|qr_nm:gd|res:RC3|com-cf:nl|ptrs:na|ktp:N0|mc:68319|mtp:S|qry_typ:P|lang:en|wc:2|cs:8842|v=4,False,,New Delhi,"G F, 816, Pan Mandi, Near Press Street Sadar Bazar Area, Central Delhi, New Delhi - 110006, Dist.Delhi, Delhi",7942537259,
Round Baby Feeding Bowl,https://www.indiamart.com/proddetail/round-baby-feeding-bowl-2852619517630.html?pos=46&kwd=feeding set&tags=||||8528.988|Price|product|||MDC|rsf:gd-|-stype:attr=1|qr_nm:gd|res:RC3|com-cf:nl|ptrs:na|ktp:N0|mc:68319|mtp:S|qry_typ:P|lang:en|wc:2|cs:8842|v=4,Pearl Polymers,https://www.indiamart.com/pearl-polymers-kerala/?pos=46&kwd=feeding set&tags=||||8528.988|Price|product|||MDC|rsf:gd-|-stype:attr=1|qr_nm:gd|res:RC3|com-cf:nl|ptrs:na|ktp:N0|mc:68319|mtp:S|qry_typ:P|lang:en|wc:2|cs:8842|v=4,False,Perumbavoor,Perumbavoor,"X111/850-A, Valayanchirangara, Pulluvazhy, Ernakulam, Perumbavoor, Perumbavoor - 683556, Dist.Ernakulam, Kerala",7948547866,
HomeCloud Set of 2pc (1000 + 200ml) BPA-Free,https://www.indiamart.com/proddetail/homecloud-set-of-2pc-1000-200ml-bpa-free-2854540113155.html?pos=47&kwd=feeding set&tags=||||8752.144|Price|product|||MDC|rsf:gd-|-stype:attr=1|qr_nm:gd|res:RC3|com-cf:nl|ptrs:na|ktp:N0|mc:68319|mtp:S|qry_typ:P|lang:en|wc:2|cs:8842|v=4,Moulshree Impex,https://www.indiamart.com/moulshree-impex-delhi/?pos=47&kwd=feeding set&tags=||||8752.144|Price|product|||MDC|rsf:gd-|-stype:attr=1|qr_nm:gd|res:RC3|com-cf:nl|ptrs:na|ktp:N0|mc:68319|mtp:S|qry_typ:P|lang:en|wc:2|cs:8842|v=4,False,Karol Bagh,New Delhi,"khasra No. 25/14, Karol Bagh, New Delhi - 110041, Dist.Delhi, Delhi",7942843759,
Multicolor Plastic Baby Sucking Bowl Cup Children Feeding Warming Plate Dishes,https://www.indiamart.com/proddetail/baby-sucking-bowl-cup-children-feeding-warming-plate-dishes-21644764830.html?pos=48&kwd=feeding set&tags=||||8230.883|Price|product|||MDC|rsf:gd-|-stype:attr=1|qr_nm:gd|res:RC3|com-cf:nl|ptrs:na|ktp:N0|mc:68319|mtp:S|qry_typ:P|lang:en|wc:2|cs:8842|v=4,Unique Buyer,https://www.indiamart.com/unique-buyer/?pos=48&kwd=feeding set&tags=||||8230.883|Price|product|||MDC|rsf:gd-|-stype:attr=1|qr_nm:gd|res:RC3|com-cf:nl|ptrs:na|ktp:N0|mc:68319|mtp:S|qry_typ:P|lang:en|wc:2|cs:8842|v=4,False,Katargam,Surat,"C 25 shaymdham soc, opp archana soc,near vijayraj circal, Singanpore,, Katargam, Surat - 395004, Dist.Surat, Gujarat",7942544685,
Baby Silicone Nipple,https://www.indiamart.com/proddetail/baby-silicone-nipple-10789253097.html?pos=49&kwd=feeding set&tags=||||8211.142|Price|product|||TS|rsf:gd-|-stype:attr=1|qr_nm:gd|res:RC3|com-cf:nl|ptrs:na|ktp:N0|mc:68319|mtp:S|qry_typ:P|lang:en|wc:2|cs:8842|v=4,Adinath Engineering Co.,https://www.adinathengineering.com/?pos=49&kwd=feeding set&tags=||||8211.142|Price|product|||TS|rsf:gd-|-stype:attr=1|qr_nm:gd|res:RC3|com-cf:nl|ptrs:na|ktp:N0|mc:68319|mtp:S|qry_typ:P|lang:en|wc:2|cs:8842|v=4,False,Mulund West,Mumbai,"501, Tarangan Building, V. P. Road Mulund West, Mulund West, Mumbai - 400080, Dist.Mumbai, Maharashtra",8048966949,
"White Baby Feeding Silicone Nipple, 3 Months",https://www.indiamart.com/proddetail/baby-feeding-silicone-nipple-25599636191.html?pos=50&kwd=feeding set&tags=||||8211.142|Price|product|||TS|rsf:gd-|-stype:attr=1|qr_nm:gd|res:RC3|com-cf:nl|ptrs:na|ktp:N0|mc:68319|mtp:S|qry_typ:P|lang:en|wc:2|cs:8842|v=4,Silicone Products (India),https://www.indiamart.com/silicone-products-india/?pos=50&kwd=feeding set&tags=||||8211.142|Price|product|||TS|rsf:gd-|-stype:attr=1|qr_nm:gd|res:RC3|com-cf:nl|ptrs:na|ktp:N0|mc:68319|mtp:S|qry_typ:P|lang:en|wc:2|cs:8842|v=4,False,Borivali,Mumbai,"102, Aadinath Park Chs, 51 St Road, Shimpoli, Borivali West, Mumbai Suburban, Borivali, Mumbai - 400092, Dist.Mumbai, Maharashtra",8047652110,
Bee Baby White Wide Neck Feeding Bottle,https://www.indiamart.com/proddetail/wide-neck-feeding-bottle-19326205362.html?pos=51&kwd=feeding set&tags=||||8211.906|Price|product|||TS|rsf:gd-|-stype:attr=1|qr_nm:gd|res:RC3|com-cf:nl|ptrs:na|ktp:N0|mc:68319|mtp:S|qry_typ:P|lang:en|wc:2|cs:8842|v=4,Punamiya Exim Private Limited,https://www.punamiyaexim.co.in/?pos=51&kwd=feeding set&tags=||||8211.906|Price|product|||TS|rsf:gd-|-stype:attr=1|qr_nm:gd|res:RC3|com-cf:nl|ptrs:na|ktp:N0|mc:68319|mtp:S|qry_typ:P|lang:en|wc:2|cs:8842|v=4,False,Umargam,Umargam,"Near To Sonal Plastic, Plot No 828 A GIDC, Plot No 828 A GIDC, Umbergaon Station Road, GIDC, Umargam, Umargam - 396171, Dist.Valsad, Gujarat",8048976705,
260Ml 304G Baby Milk Feeding Bottle,https://www.indiamart.com/proddetail/260ml-304g-baby-milk-feeding-bottle-22008534812.html?pos=52&kwd=feeding set&tags=||||8752.144|Price|product|||TS|rsf:gd-|-stype:attr=1|qr_nm:gd|res:RC3|com-cf:nl|ptrs:na|ktp:N0|mc:68319|mtp:S|qry_typ:P|lang:en|wc:2|cs:8842|v=4,Aradhya Steel Industries,https://www.indiamart.com/aradhya-steel-industries/?pos=52&kwd=feeding set&tags=||||8752.144|Price|product|||TS|rsf:gd-|-stype:attr=1|qr_nm:gd|res:RC3|com-cf:nl|ptrs:na|ktp:N0|mc:68319|mtp:S|qry_typ:P|lang:en|wc:2|cs:8842|v=4,False,Wazirpur Industrial Area,New Delhi,"A-29, Group, Wazirpur Industrial Area, Wazirpur Industrial Area, New Delhi - 110052, Dist.Delhi, Delhi",7942533471,
Baby Silicone Teether,https://www.indiamart.com/proddetail/baby-silicone-teether-2854773891091.html?pos=53&kwd=feeding set&tags=||||8038.093|Price|product|||TS|rsf:gd-|-stype:attr=1|qr_nm:gd|res:RC3|com-cf:nl|ptrs:na|ktp:N0|mc:68319|mtp:S|qry_typ:P|lang:en|wc:2|cs:8842|v=4,Aditi Techno LLP,https://www.indiamart.com/adititechno/?pos=53&kwd=feeding set&tags=||||8038.093|Price|product|||TS|rsf:gd-|-stype:attr=1|qr_nm:gd|res:RC3|com-cf:nl|ptrs:na|ktp:N0|mc:68319|mtp:S|qry_typ:P|lang:en|wc:2|cs:8842|v=4,False,Metoda,Rajkot,"Plot No-2628/3, Gate No-1, Main Road, Metoda GIDC,, Metoda, Rajkot - 360021, Dist.Rajkot, Gujarat",8046041944,
Chemical Nylon Baby Water Pad Baby Slapped Pad,https://www.indiamart.com/proddetail/chemical-nylon-baby-water-pad-baby-slapped-pad-25956933073.html?pos=54&kwd=feeding set&tags=||||8752.144|Price|product|||TS|rsf:gd-|-stype:attr=1|qr_nm:gd|res:RC3|com-cf:nl|ptrs:na|ktp:N0|mc:68319|mtp:S|qry_typ:P|lang:en|wc:2|cs:8842|v=4,Shiv Darshan Sansthan,https://www.shivdarshansansthan.com/?pos=54&kwd=feeding set&tags=||||8752.144|Price|product|||TS|rsf:gd-|-stype:attr=1|qr_nm:gd|res:RC3|com-cf:nl|ptrs:na|ktp:N0|mc:68319|mtp:S|qry_typ:P|lang:en|wc:2|cs:8842|v=4,False,Pandav Nagar,New Delhi,"Bunglow, Plot No. 10, Pandav Nagar, New Delhi - 110092, Dist.Delhi, Delhi",8048984990,
"Multicolor Baby Silicone Food Feeder Spoon (90ML) (BB-4), For Home, Spoon Shape: Round",https://www.indiamart.com/proddetail/baby-silicone-food-feeder-spoon-90ml-bb-4-2850305543791.html?pos=55&kwd=feeding set&tags=||||8752.144|Price|product|||TS|rsf:gd-|-stype:attr=1|qr_nm:gd|res:RC3|com-cf:nl|ptrs:na|ktp:N0|mc:68319|mtp:S|qry_typ:P|lang:en|wc:2|cs:8842|v=4,Gtglobal Trade India Private Limited,https://www.gtcglobal.in/?pos=55&kwd=feeding set&tags=||||8752.144|Price|product|||TS|rsf:gd-|-stype:attr=1|qr_nm:gd|res:RC3|com-cf:nl|ptrs:na|ktp:N0|mc:68319|mtp:S|qry_typ:P|lang:en|wc:2|cs:8842|v=4,False,Swaroop Nagar,New Delhi,"Plot No 144/145 , Kh. No.16/10, Gali No-7 Swaroop Nagar Extension, Swaroop Nagar, New Delhi - 110042, Dist.Delhi, Delhi",8048960531,
Philips Avent SCF041/27 Natural 2. 0 Teat for Newborn 0 Month+ (Set of 2 Units),https://www.indiamart.com/proddetail/philips-avent-scf041-27-natural-2-0-teat-for-newborn-0-month-set-of-2-units-2850954196491.html?pos=56&kwd=feeding set&tags=||||8752.144|Price|product|||TS|rsf:gd-|-stype:attr=1|qr_nm:gd|res:RC3|com-cf:nl|ptrs:na|ktp:N0|mc:68319|mtp:S|qry_typ:P|lang:en|wc:2|cs:8842|v=4,Sai Global,https://www.saiglobalindia.in/?pos=56&kwd=feeding set&tags=||||8752.144|Price|product|||TS|rsf:gd-|-stype:attr=1|qr_nm:gd|res:RC3|com-cf:nl|ptrs:na|ktp:N0|mc:68319|mtp:S|qry_typ:P|lang:en|wc:2|cs:8842|v=4,False,Dwarka Sector 16c,New Delhi,"Property No-114, Basement, Pocket C-8, Sector-17, Dwarka, Dwarka Sector 16c, New Delhi - 110075, Dist.Delhi, Delhi",7942559122,
"Chhote Janab White Fruit Feeder Baby, Packaging Type: Box, Newly Born",https://www.indiamart.com/proddetail/fruit-feeder-baby-21790594548.html?pos=57&kwd=feeding set&tags=||||8752.144|Price|product|||TS|rsf:gd-|-stype:attr=1|qr_nm:gd|res:RC3|com-cf:nl|ptrs:na|ktp:N0|mc:68319|mtp:S|qry_typ:P|lang:en|wc:2|cs:8842|v=4,Shree Balaji Infant Wear,https://www.indiamart.com/chhotejanab/?pos=57&kwd=feeding set&tags=||||8752.144|Price|product|||TS|rsf:gd-|-stype:attr=1|qr_nm:gd|res:RC3|com-cf:nl|ptrs:na|ktp:N0|mc:68319|mtp:S|qry_typ:P|lang:en|wc:2|cs:8842|v=4,False,Pahari Dhiraj,New Delhi,"1583- 84, Hathi Khana, Aziz Ganj, Bahadur Garh Road, Pahari Dhiraj, New Delhi - 110006, Dist.Delhi, Delhi",8047639754,
Feeding Spoon Bottle with Standing Base for Infants - 90ml,https://www.indiamart.com/proddetail/feeding-spoon-bottle-with-standing-base-for-infants-90ml-2851601641397.html?pos=58&kwd=feeding set&tags=||||8752.144|Price|product|||TS|rsf:gd-|-stype:attr=1|qr_nm:gd|res:RC3|com-cf:nl|ptrs:na|ktp:N0|mc:68319|mtp:S|qry_typ:P|lang:en|wc:2|cs:8842|v=4,Jainone Hub,https://www.indiamart.com/jainonehub/?pos=58&kwd=feeding set&tags=||||8752.144|Price|product|||TS|rsf:gd-|-stype:attr=1|qr_nm:gd|res:RC3|com-cf:nl|ptrs:na|ktp:N0|mc:68319|mtp:S|qry_typ:P|lang:en|wc:2|cs:8842|v=4,False,Mandoli,New Delhi,"J- 8, Near Frooti Godown, Gali No. 4, Melaram Farm House Mandoli Sewadham Road, Mandoli, New Delhi - 110093, Dist.Delhi, Delhi",8048963941,
"White Silicone Baby Feeding Bottle, Age Group: 3-12 Months",https://www.indiamart.com/proddetail/silicone-baby-feeding-bottle-2854220077733.html?pos=59&kwd=feeding set&tags=||||8230.883|Price|product|||TS|rsf:gd-|-stype:attr=1|qr_nm:gd|res:RC3|com-cf:nl|ptrs:na|ktp:N0|mc:68319|mtp:S|qry_typ:P|lang:en|wc:2|cs:8842|v=4,BABYHOLIC,https://www.babyholic.in/?pos=59&kwd=feeding set&tags=||||8230.883|Price|product|||TS|rsf:gd-|-stype:attr=1|qr_nm:gd|res:RC3|com-cf:nl|ptrs:na|ktp:N0|mc:68319|mtp:S|qry_typ:P|lang:en|wc:2|cs:8842|v=4,False,,Surat,"Ground Floor, Plot No. F/56/, And F/57, Laxmi Narayan Industrial Estate, Udhana, Kailash Fashion, Surat - 394210, Dist.Surat, Gujarat",8045732096,
Capacity: 1 Litre Motivational Bottle (3 Bottle Set),https://www.indiamart.com/proddetail/motivational-bottle-3-bottle-set-2854580057073.html?pos=60&kwd=feeding set&tags=||||8211.142|Price|product|||TS|rsf:gd-|-stype:attr=1|qr_nm:gd|res:RC3|com-cf:nl|ptrs:na|ktp:N0|mc:68319|mtp:S|qry_typ:P|lang:en|wc:2|cs:8842|v=4,Aksh Mobile & Accessories,https://www.indiamart.com/aksh-mobile-and-accessories/?pos=60&kwd=feeding set&tags=||||8211.142|Price|product|||TS|rsf:gd-|-stype:attr=1|qr_nm:gd|res:RC3|com-cf:nl|ptrs:na|ktp:N0|mc:68319|mtp:S|qry_typ:P|lang:en|wc:2|cs:8842|v=4,False,Mumbai Central,Mumbai,"Platinum Mall , Rubberwala , Grant road Station , Mumbai, Mumbai Central, Mumbai - 400008, Dist.Mumbai, Maharashtra",8047628423,
"Plastic Green Baby Feeding Spoon Bottle, 100 mL, Age Group: 3-12 Months",https://www.indiamart.com/proddetail/baby-feeding-spoon-bottle-2851667421148.html?pos=61&kwd=feeding set&tags=||||8752.144|Price|product|||MDC|rsf:gd-|-stype:attr=1|qr_nm:gd|res:RC3|com-cf:nl|ptrs:na|ktp:N0|mc:68319|mtp:S|qry_typ:P|lang:en|wc:2|cs:8842|v=4,JMD Enterprises,https://www.indiamart.com/jmdenterprisesnewdelhi-india/?pos=61&kwd=feeding set&tags=||||8752.144|Price|product|||MDC|rsf:gd-|-stype:attr=1|qr_nm:gd|res:RC3|com-cf:nl|ptrs:na|ktp:N0|mc:68319|mtp:S|qry_typ:P|lang:en|wc:2|cs:8842|v=4,False,Najafgarh,New Delhi,"Durga Vihar Phase-2, Plot No.-151 A, Main Paprawat Road Deenpur, Najafgarh Behind Radha Swani Satsang Bhawa, South West Delhi, Najafgarh, New Delhi - 110043, Dist.Delhi, Delhi",8046040114,
"Steel Feeding Bottle, Capacity: 120ml To 280ml",https://www.indiamart.com/proddetail/steel-feeding-bottle-21942050848.html?pos=62&kwd=feeding set&tags=||||8223.226|Price|product|||MDC|rsf:gd-|-stype:attr=1|qr_nm:gd|res:RC3|com-cf:nl|ptrs:na|ktp:N0|mc:68319|mtp:S|qry_typ:P|lang:en|wc:2|cs:8842|v=4,Wecare Solutions,https://www.indiamart.com/wecare-solutions/?pos=62&kwd=feeding set&tags=||||8223.226|Price|product|||MDC|rsf:gd-|-stype:attr=1|qr_nm:gd|res:RC3|com-cf:nl|ptrs:na|ktp:N0|mc:68319|mtp:S|qry_typ:P|lang:en|wc:2|cs:8842|v=4,False,Valiv,Thane,"Gala No. F-19-20, 1st Floor, Rajprabha Anand Industrial Estate Naikpada, Waliv, Valiv, Thane - 401208, Dist.Thane, Maharashtra",8047631791,
240ml Pigeon WN3 PP Baby Feeding Bottle,https://www.indiamart.com/proddetail/240ml-pigeon-wn3-pp-baby-feeding-bottle-2852307368388.html?pos=63&kwd=feeding set&tags=||||8307.81|Price|product|||MDC|rsf:gd-|-stype:attr=1|qr_nm:gd|res:RC3|com-cf:nl|ptrs:na|ktp:N0|mc:68319|mtp:S|qry_typ:P|lang:en|wc:2|cs:8842|v=4,Bhavana Agency,https://www.indiamart.com/bhavana-agency/?pos=63&kwd=feeding set&tags=||||8307.81|Price|product|||MDC|rsf:gd-|-stype:attr=1|qr_nm:gd|res:RC3|com-cf:nl|ptrs:na|ktp:N0|mc:68319|mtp:S|qry_typ:P|lang:en|wc:2|cs:8842|v=4,False,Sadashiv Peth,Pune,"S No 4, 841/1, Asset Gold, Sadashiv Peth, Sadashiv Peth, Pune - 411030, Dist.Pune, Maharashtra",8047788291,
"Transparent Plastic baby Silicone Food/Fruit Nibbler, Baby Food and Fruit Feeder",https://www.indiamart.com/proddetail/baby-silicone-food-fruit-nibbler-baby-food-and-fruit-feeder-2854794185648.html?pos=64&kwd=feeding set&tags=||||8230.883|Price|product|||MDC|rsf:gd-|-stype:attr=1|qr_nm:gd|res:RC3|com-cf:nl|ptrs:na|ktp:N0|mc:68319|mtp:S|qry_typ:P|lang:en|wc:2|cs:8842|v=4,P G Impex,https://www.indiamart.com/pg-impex-surat/?pos=64&kwd=feeding set&tags=||||8230.883|Price|product|||MDC|rsf:gd-|-stype:attr=1|qr_nm:gd|res:RC3|com-cf:nl|ptrs:na|ktp:N0|mc:68319|mtp:S|qry_typ:P|lang:en|wc:2|cs:8842|v=4,False,,Surat,"3rd Floor, 304, Sarjan Residency Wing-A, Sunganpor Road, Katargam, Surat - 395004, Dist.Surat, Gujarat",7949322822,
"triple b White Silicone Food Nibbler for Fruit and Veggie with Rattle Handle, Packaging Type: Box, Newly Born",https://www.indiamart.com/proddetail/silicone-food-nibbler-for-fruit-and-veggie-with-rattle-handle-2850553591888.html?pos=65&kwd=feeding set&tags=||||8752.144|Price|product|||MDC|rsf:gd-|-stype:attr=1|qr_nm:gd|res:RC3|com-cf:nl|ptrs:na|ktp:N0|mc:68319|mtp:S|qry_typ:P|lang:en|wc:2|cs:8842|v=4,B-Qube Enterprises,https://www.indiamart.com/bqube-enterprises/?pos=65&kwd=feeding set&tags=||||8752.144|Price|product|||MDC|rsf:gd-|-stype:attr=1|qr_nm:gd|res:RC3|com-cf:nl|ptrs:na|ktp:N0|mc:68319|mtp:S|qry_typ:P|lang:en|wc:2|cs:8842|v=4,False,Karol Bagh,New Delhi,"303, Iiird Floor,13/4, W.E.A.,Karol Bagh, Karol Bagh, New Delhi - 110005, Dist.Delhi, Delhi",8047313183,
Baby Food Feeder,https://www.indiamart.com/proddetail/baby-food-feeder-2853523323433.html?pos=66&kwd=feeding set&tags=||||8752.144|Price|product|||MDC|rsf:gd-|-stype:attr=1|qr_nm:gd|res:RC3|com-cf:nl|ptrs:na|ktp:N0|mc:68319|mtp:S|qry_typ:P|lang:en|wc:2|cs:8842|v=4,Santosh Enterprises,https://www.indiamart.com/santosh-enterprises-delhiindia/?pos=66&kwd=feeding set&tags=||||8752.144|Price|product|||MDC|rsf:gd-|-stype:attr=1|qr_nm:gd|res:RC3|com-cf:nl|ptrs:na|ktp:N0|mc:68319|mtp:S|qry_typ:P|lang:en|wc:2|cs:8842|v=4,False,North Delhi,New Delhi,"Ground Floor A 44 Khera Garhi Colony Gali No 01, North Delhi, New Delhi - 110082, Dist.Delhi, Delhi",8047837949,
Baby Steel Feeding Bottle,https://www.indiamart.com/proddetail/baby-steel-feeding-bottle-2853567440973.html?pos=67&kwd=feeding set&tags=||||8624.416|Price|product|||MDC|rsf:gd-|-stype:attr=1|qr_nm:gd|res:RC3|com-cf:nl|ptrs:na|ktp:N0|mc:68319|mtp:S|qry_typ:P|lang:en|wc:2|cs:8842|v=4,Dayawanti Traders,https://www.indiamart.com/dayawati-trader/?pos=67&kwd=feeding set&tags=||||8624.416|Price|product|||MDC|rsf:gd-|-stype:attr=1|qr_nm:gd|res:RC3|com-cf:nl|ptrs:na|ktp:N0|mc:68319|mtp:S|qry_typ:P|lang:en|wc:2|cs:8842|v=4,False,Indira Colony,Hisar,"Plot No. 137 Dhani Kishandutt, Near Asha High School, Nancy Beauty Parlour, Indira Colony, Indira Colony, Hisar - 125001, Dist.Hisar, Haryana",7942701403,
"Silver And Orange 230ml Stainless Steel Feeding Bottle, Design/Pattern: Capacity Printed, 1-2 Years",https://www.indiamart.com/proddetail/230ml-stainless-steel-feeding-bottle-2850527328330.html?pos=68&kwd=feeding set&tags=||||8706.508|Price|product|||MDC|rsf:gd-|-stype:attr=1|qr_nm:gd|res:RC3|com-cf:nl|ptrs:na|ktp:N0|mc:68319|mtp:S|qry_typ:P|lang:en|wc:2|cs:8842|v=4,Young Vision,https://www.indiamart.com/young-vision-rohtak/?pos=68&kwd=feeding set&tags=||||8706.508|Price|product|||MDC|rsf:gd-|-stype:attr=1|qr_nm:gd|res:RC3|com-cf:nl|ptrs:na|ktp:N0|mc:68319|mtp:S|qry_typ:P|lang:en|wc:2|cs:8842|v=4,False,Janta Colony,Rohtak,"949/31 Azad Nagar, Janta Colony, Rohtak - 124001, Dist.Rohtak, Haryana",8047688329,
"Blue Plastic Baby Fruit Feeder, Capacity: 100 mL",https://www.indiamart.com/proddetail/baby-fruit-feeder-2853670432773.html?pos=69&kwd=feeding set&tags=||||8663.873|Price|product|||MDC|rsf:gd-|-stype:attr=1|qr_nm:gd|res:RC3|com-cf:nl|ptrs:na|ktp:N0|mc:68319|mtp:S|qry_typ:P|lang:en|wc:2|cs:8842|v=4,Nipika Vrapped Gifting,https://www.indiamart.com/nipika-vrapped-gifting/?pos=69&kwd=feeding set&tags=||||8663.873|Price|product|||MDC|rsf:gd-|-stype:attr=1|qr_nm:gd|res:RC3|com-cf:nl|ptrs:na|ktp:N0|mc:68319|mtp:S|qry_typ:P|lang:en|wc:2|cs:8842|v=4,False,Bengaluru Urban,Bengaluru,"9/1, 23rd Cross Road, Magadi Road, KP Agrahara, Bengaluru Urban, Bengaluru - 560023, Dist.Bengaluru, Karnataka",7949328723,
Baby Feeding Bottle,https://www.indiamart.com/proddetail/baby-feeding-bottle-2852468343491.html?pos=70&kwd=feeding set&tags=||||8038.093|Price|product|||TS|rsf:gd-|-stype:attr=1|qr_nm:gd|res:RC3|com-cf:nl|ptrs:na|ktp:N0|mc:68319|mtp:S|qry_typ:P|lang:en|wc:2|cs:8842|v=4,Tirth Kitchenware(Brand Of H V Industries),https://www.indiamart.com/hvindustries/?pos=70&kwd=feeding set&tags=||||8038.093|Price|product|||TS|rsf:gd-|-stype:attr=1|qr_nm:gd|res:RC3|com-cf:nl|ptrs:na|ktp:N0|mc:68319|mtp:S|qry_typ:P|lang:en|wc:2|cs:8842|v=4,False,Bhakti Nagar,Rajkot,"Mahadev Industrial Area, Plot No. 14, Kothariya Solvant, Bhakti Nagar, Rajkot - 360002, Dist.Rajkot, Gujarat",8047658781,
"Metal Feeding steel bottles, Capacity: 150 mL, 3-12 Months",https://www.indiamart.com/proddetail/feeding-steel-bottles-2851282527591.html?pos=71&kwd=feeding set&tags=||||8786.56|Price|product|||TS|rsf:gd-|-stype:attr=1|qr_nm:gd|res:RC3|com-cf:nl|ptrs:na|ktp:N0|mc:68319|mtp:S|qry_typ:P|lang:en|wc:2|cs:8842|v=4,Sri Vinayaka Steel Palace,https://www.indiamart.com/sri-vinayaka-steelpalace/?pos=71&kwd=feeding set&tags=||||8786.56|Price|product|||TS|rsf:gd-|-stype:attr=1|qr_nm:gd|res:RC3|com-cf:nl|ptrs:na|ktp:N0|mc:68319|mtp:S|qry_typ:P|lang:en|wc:2|cs:8842|v=4,False,Ameerpet,Hyderabad,"No. 7-1-191/4,, Ameerpet, Hyderabad - 500016, Dist.Hyderabad, Telangana",8047647521,
"Silver and Sky Blue Stainless Steel Milk Feeding Bottle, Capacity: 200 mL, Newly Born",https://www.indiamart.com/proddetail/stainless-steel-milk-feeding-bottle-2852725756262.html?pos=72&kwd=feeding set&tags=||||8752.144|Price|product|||TS|rsf:gd-|-stype:attr=1|qr_nm:gd|res:RC3|com-cf:nl|ptrs:na|ktp:N0|mc:68319|mtp:S|qry_typ:P|lang:en|wc:2|cs:8842|v=4,Laxmi Enterprises,https://www.indiamart.com/laxmi-enterprises-delhiindia/?pos=72&kwd=feeding set&tags=||||8752.144|Price|product|||TS|rsf:gd-|-stype:attr=1|qr_nm:gd|res:RC3|com-cf:nl|ptrs:na|ktp:N0|mc:68319|mtp:S|qry_typ:P|lang:en|wc:2|cs:8842|v=4,False,Motia Khan,New Delhi,"C-302, RG Complex, Motia Khan, Near Rani Jhansi Goal Chakkar, Paharganj, Motia Khan, New Delhi - 110055, Dist.Delhi, Delhi",8043846767,
"Plastic Green 240 Ml Baby Feeding Bottel, Age Group: 1-2 Years",https://www.indiamart.com/proddetail/240-ml-baby-feeding-bottel-2851552960273.html?pos=73&kwd=feeding set&tags=||||8752.144|Price|product|||MDC|rsf:gd-|-stype:attr=1|qr_nm:gd|res:RC3|com-cf:nl|ptrs:na|ktp:N0|mc:68319|mtp:S|qry_typ:P|lang:en|wc:2|cs:8842|v=4,Goldensun,https://www.indiamart.com/goldensun/?pos=73&kwd=feeding set&tags=||||8752.144|Price|product|||MDC|rsf:gd-|-stype:attr=1|qr_nm:gd|res:RC3|com-cf:nl|ptrs:na|ktp:N0|mc:68319|mtp:S|qry_typ:P|lang:en|wc:2|cs:8842|v=4,False,Rajouri Garden,New Delhi,"Shop No 44, Ground Floor, DDU Market Tatarpur Rajouri Garden, West, Rajouri Garden, New Delhi - 110027, Dist.Delhi, Delhi",7942788270,
"06 Stainless Steel Feeding Bottle, Capacity: 250 mL, Baby",https://www.indiamart.com/proddetail/06-stainless-steel-feeding-bottle-2853972014362.html?pos=74&kwd=feeding set&tags=||||8954.051|Price|product|||MDC|rsf:gd-|-stype:attr=1|qr_nm:gd|res:RC3|com-cf:nl|ptrs:na|ktp:N0|mc:68319|mtp:S|qry_typ:P|lang:en|wc:2|cs:8842|v=4,Mahavir Enterprises,https://www.indiamart.com/mahavir-enterprises-tamilnadu/?pos=74&kwd=feeding set&tags=||||8954.051|Price|product|||MDC|rsf:gd-|-stype:attr=1|qr_nm:gd|res:RC3|com-cf:nl|ptrs:na|ktp:N0|mc:68319|mtp:S|qry_typ:P|lang:en|wc:2|cs:8842|v=4,False,Old Washermanpet Seven Wells,Chennai,"Old No 117/118 New No 8, NA, Sevenwells Street George Town, Old Washermanpet Seven Wells, Chennai - 600001, Dist.Chennai, Tamil Nadu",7949087437,
Portable Non Spill Feeding Toddler Gyro Bowl 360 Degree Rotate Dishes For Kids Food (Multicolor),https://www.indiamart.com/proddetail/portable-non-spill-feeding-toddler-gyro-bowl-360-degree-rotate-dishes-for-kids-food-multicolor-22473319188.html?pos=75&kwd=feeding set&tags=||||8752.144|Price|product|||TS|rsf:gd-|-stype:attr=1|qr_nm:gd|res:RC3|com-cf:nl|ptrs:na|ktp:N0|mc:68319|mtp:S|qry_typ:P|lang:en|wc:2|cs:8842|v=4,Aryan Collection,https://www.aryancollections.com/?pos=75&kwd=feeding set&tags=||||8752.144|Price|product|||TS|rsf:gd-|-stype:attr=1|qr_nm:gd|res:RC3|com-cf:nl|ptrs:na|ktp:N0|mc:68319|mtp:S|qry_typ:P|lang:en|wc:2|cs:8842|v=4,False,Nangloi,New Delhi,"Kh No 9/1,,Village Kamruddin Nagar,Nangloi Near Daulat Ram School, Nangloi, New Delhi - 110041, Dist.Delhi, Delhi",8048609299,
SYGA Baby Feeding Bowl Snack Catcher Cup Safe Container Traveling Double Handle Plastic Bowl,https://www.indiamart.com/proddetail/syga-baby-feeding-bowl-snack-catcher-cup-safe-container-traveling-double-handle-plastic-bowl-20234176288.html?pos=76&kwd=feeding set&tags=||||8228.275|Price|product|||TS|rsf:gd-|-stype:attr=1|qr_nm:gd|res:RC3|com-cf:nl|ptrs:na|ktp:N0|mc:68319|mtp:S|qry_typ:P|lang:en|wc:2|cs:8842|v=4,Syga Home Furnishing,https://www.indiamart.com/sygahomefurnishing/?pos=76&kwd=feeding set&tags=||||8228.275|Price|product|||TS|rsf:gd-|-stype:attr=1|qr_nm:gd|res:RC3|com-cf:nl|ptrs:na|ktp:N0|mc:68319|mtp:S|qry_typ:P|lang:en|wc:2|cs:8842|v=4,False,Navrangpura,Ahmedabad,"A-503, Samudra Complex, Near Girish Cold Drinks C. G. Road, Navrangpura, Navrangpura, Ahmedabad - 380009, Dist.Ahmedabad, Gujarat",8048985837,
Capacity: 1000 mL ANGLE SIPPER BOTTLE,https://www.indiamart.com/proddetail/angle-sipper-bottle-2850570676848.html?pos=77&kwd=feeding set&tags=||||8228.275|Price|product|||TS|rsf:gd-|-stype:attr=1|qr_nm:gd|res:RC3|com-cf:nl|ptrs:na|ktp:N0|mc:68319|mtp:S|qry_typ:P|lang:en|wc:2|cs:8842|v=4,Mayur Plastics And Toys,https://www.mayurplasticproducts.com/?pos=77&kwd=feeding set&tags=||||8228.275|Price|product|||TS|rsf:gd-|-stype:attr=1|qr_nm:gd|res:RC3|com-cf:nl|ptrs:na|ktp:N0|mc:68319|mtp:S|qry_typ:P|lang:en|wc:2|cs:8842|v=4,False,Rajpur Hirpur,Ahmedabad,"479/2842, Gujarat Housing Board dengra, Rajpur Hirpur, Ahmedabad - 380023, Dist.Ahmedabad, Gujarat",8048964748,
EAR BOTTLE,https://www.indiamart.com/proddetail/ear-bottle-2854185787391.html?pos=78&kwd=feeding set&tags=||||8752.144|Price|product|||TS|rsf:gd-|-stype:attr=1|qr_nm:gd|res:RC3|com-cf:nl|ptrs:na|ktp:N0|mc:68319|mtp:S|qry_typ:P|lang:en|wc:2|cs:8842|v=4,D&V Engineering,https://www.qbmindia.in/?pos=78&kwd=feeding set&tags=||||8752.144|Price|product|||TS|rsf:gd-|-stype:attr=1|qr_nm:gd|res:RC3|com-cf:nl|ptrs:na|ktp:N0|mc:68319|mtp:S|qry_typ:P|lang:en|wc:2|cs:8842|v=4,False,Badarpur,New Delhi,"Plot No-2, Near Gurudwara, Jaitpur Village, Badarpur, Badarpur, New Delhi - 110044, Dist.Delhi, Delhi",7942543621,
"Silver Stainless Steel Feeding Bottle 140ml, Age Group: 1-2 Years",https://www.indiamart.com/proddetail/stainless-steel-feeding-bottle-140ml-2851871197873.html?pos=79&kwd=feeding set&tags=||||8747.223|Price|proxy|||TS|rsf:gd-|-stype:attr=1|qr_nm:gd|res:RC3|com-cf:nl|ptrs:na|ktp:N0|mc:68319|mtp:S|qry_typ:P|lang:en|wc:2|cs:8842|v=4,Dewdrop Bottles Pvt. Ltd.,https://www.dewdropbottles.com/?pos=79&kwd=feeding set&tags=||||8747.223|Price|proxy|||TS|rsf:gd-|-stype:attr=1|qr_nm:gd|res:RC3|com-cf:nl|ptrs:na|ktp:N0|mc:68319|mtp:S|qry_typ:P|lang:en|wc:2|cs:8842|v=4,False,Sector 42,Sonipat,"Rect. And Killa No. 102//14/1/1, Revenue Estate, Akbarpur Barota, Sector 42, Sonipat - 131103, Dist.Sonipat, Haryana",7942840290,
"Stainless steel Feeding Bottle royal model, Capacity: 250 mL",https://www.indiamart.com/proddetail/stainless-steel-feeding-bottle-royal-model-2854766685391.html?pos=80&kwd=feeding set&tags=||||8921.206|Price|proxy|||MDC|rsf:gd-|-stype:attr=1|qr_nm:gd|res:RC3|com-cf:nl|ptrs:na|ktp:N0|mc:68319|mtp:S|qry_typ:P|lang:en|wc:2|cs:8842|v=4,Malar Metalware Products,https://www.indiamart.com/malarmetalware-products/?pos=80&kwd=feeding set&tags=||||8921.206|Price|proxy|||MDC|rsf:gd-|-stype:attr=1|qr_nm:gd|res:RC3|com-cf:nl|ptrs:na|ktp:N0|mc:68319|mtp:S|qry_typ:P|lang:en|wc:2|cs:8842|v=4,False,,Chengalpattu,"133a, Sembakkam, Indira Nagar,, Sembakkam Village, Chengalpattu - 603108, Dist.Kanchipuram, Tamil Nadu",8044460341,
Feeding System- Female Adjustable Grill,https://www.indiamart.com/proddetail/feeding-system-female-adjustable-grill-2717925597.html?pos=81&kwd=feeding set&tags=CA||||8307.81||product|||NA|rsf:gd-|-stype:attr=1|qr_nm:gd|res:RC3|com-cf:nl|ptrs:na|ktp:N0|mc:68319|mtp:S|qry_typ:P|lang:en|wc:2|cs:8842|v=4,Dhumal Industries,https://www.indiamart.com/dhumalindustries-3679458/?pos=81&kwd=feeding set&tags=CA||||8307.81||product|||NA|rsf:gd-|-stype:attr=1|qr_nm:gd|res:RC3|com-cf:nl|ptrs:na|ktp:N0|mc:68319|mtp:S|qry_typ:P|lang:en|wc:2|cs:8842|v=4,False,,Pune,"S. No. 268/3, Sahyadri Building, Opposite Siddhi & Archor, Lawns At Post, Bhugaon, Tal Mulshi, Pune - 411042, Dist.Pune, Maharashtra",7949357475,
Silicone Kids Plate Set,https://www.indiamart.com/proddetail/silicone-kids-plate-set-2853317020691.html?pos=82&kwd=feeding set&tags=||||8752.144|Price|product|||MDC|rsf:gd-|-stype:attr=1|qr_nm:gd|res:RC3|com-cf:nl|ptrs:na|ktp:N0|mc:68319|mtp:S|qry_typ:P|lang:en|wc:2|cs:8842|v=4,18influence,https://www.indiamart.com/18influence/?pos=82&kwd=feeding set&tags=||||8752.144|Price|product|||MDC|rsf:gd-|-stype:attr=1|qr_nm:gd|res:RC3|com-cf:nl|ptrs:na|ktp:N0|mc:68319|mtp:S|qry_typ:P|lang:en|wc:2|cs:8842|v=4,False,Naraina,New Delhi,"Mezzanine Floor, B-191, Phase-1, Naraina Industrial Area, South West Delhi, Naraina, New Delhi - 110028, Dist.Delhi, Delhi",7942570402,
"Plastic White Baby Feeding Spoon Bottle, Capacity: 125 ml, Age Group: 3-12 Months",https://www.indiamart.com/proddetail/baby-feeding-spoon-bottle-2850831615712.html?pos=83&kwd=feeding set&tags=||||8752.144|Price|proxy|||TS|rsf:gd-|-stype:attr=1|qr_nm:gd|res:RC3|com-cf:nl|ptrs:na|ktp:N0|mc:68319|mtp:S|qry_typ:P|lang:en|wc:2|cs:8842|v=4,Anand Garments Pvt Ltd,https://www.indiamart.com/anand-garments-newdelhi/?pos=83&kwd=feeding set&tags=||||8752.144|Price|proxy|||TS|rsf:gd-|-stype:attr=1|qr_nm:gd|res:RC3|com-cf:nl|ptrs:na|ktp:N0|mc:68319|mtp:S|qry_typ:P|lang:en|wc:2|cs:8842|v=4,False,mundka,New Delhi,"Plot No-276, Area Pocket-m Sector-1, Dsiidc Bawana,, mundka, New Delhi - 110039, Dist.Delhi, Delhi",8048262855,
G4GIFT BPA Free Unicorn Theme Cartoon Kids Serving Bowls Microwave Safe Toddlers,https://www.indiamart.com/proddetail/g4gift-bpa-free-unicorn-theme-cartoon-kids-serving-bowls-microwave-safe-toddlers-26734782662.html?pos=84&kwd=feeding set&tags=||||8228.275|Price|product|||TS|rsf:gd-|-stype:attr=1|qr_nm:gd|res:RC3|com-cf:nl|ptrs:na|ktp:N0|mc:68319|mtp:S|qry_typ:P|lang:en|wc:2|cs:8842|v=4,R J Enterprises,https://www.indiamart.com/rj-enterprisesahmedabad/?pos=84&kwd=feeding set&tags=||||8228.275|Price|product|||TS|rsf:gd-|-stype:attr=1|qr_nm:gd|res:RC3|com-cf:nl|ptrs:na|ktp:N0|mc:68319|mtp:S|qry_typ:P|lang:en|wc:2|cs:8842|v=4,False,Odhav,Ahmedabad,"First Floor,Shop No. 1,Hariom Society,NH-8, Odhav, Ahmedabad - 382415, Dist.Ahmedabad, Gujarat",8047620106,
Portable Toddler Gyro Bowl,https://www.indiamart.com/proddetail/portable-toddler-gyro-bowl-22980998455.html?pos=85&kwd=feeding set&tags=||||8228.275|Price|product|||TS|rsf:gd-|-stype:attr=1|qr_nm:gd|res:RC3|com-cf:nl|ptrs:na|ktp:N0|mc:68319|mtp:S|qry_typ:P|lang:en|wc:2|cs:8842|v=4,See Inside,https://www.seeinside.co.in/?pos=85&kwd=feeding set&tags=||||8228.275|Price|product|||TS|rsf:gd-|-stype:attr=1|qr_nm:gd|res:RC3|com-cf:nl|ptrs:na|ktp:N0|mc:68319|mtp:S|qry_typ:P|lang:en|wc:2|cs:8842|v=4,False,Kathwada,Ahmedabad,"A/6 - Zaveri Estate, Odhav Industrial Estate, Singarwa Kathwada Rd, Nr. Shubh Industrial Estate Kathwada, Kathwada, Ahmedabad - 382430, Dist.Ahmedabad, Gujarat",8048611458,
"Silver Stainless Steel Baby Feeding Bottle, Capacity: 200 ml, 3-12 Months",https://www.indiamart.com/proddetail/stainless-steel-baby-feeding-bottle-23215957797.html?pos=86&kwd=feeding set&tags=||||8545.6045|Price|proxy|||MDC|rsf:gd-|-stype:attr=1|qr_nm:gd|res:RC3|com-cf:nl|ptrs:na|ktp:N0|mc:68319|mtp:S|qry_typ:P|lang:en|wc:2|cs:8842|v=4,Shri Siddhivinayak Traders,https://www.indiamart.com/shrisiddhivinayaktraders-firozpur/?pos=86&kwd=feeding set&tags=||||8545.6045|Price|proxy|||MDC|rsf:gd-|-stype:attr=1|qr_nm:gd|res:RC3|com-cf:nl|ptrs:na|ktp:N0|mc:68319|mtp:S|qry_typ:P|lang:en|wc:2|cs:8842|v=4,False,Basti Nizamdin,Firozpur,"No.94, Anand Avenue, Backside Marked Office, Malwal Road, Firozpur City, Basti Nizamdin, Firozpur - 152002, Dist.Firozpur, Punjab",8046066644,
Plain Silver 300 Ml Stainless Steel Feeding Bottle With Printed,https://www.indiamart.com/proddetail/300-ml-stainless-steel-feeding-bottle-with-printed-19094668233.html?pos=87&kwd=feeding set&tags=||||8954.051|Price|proxy|||MDC|rsf:gd-|-stype:attr=1|qr_nm:gd|res:RC3|com-cf:nl|ptrs:na|ktp:N0|mc:68319|mtp:S|qry_typ:P|lang:en|wc:2|cs:8842|v=4,Bhairavi Metal Works,https://www.indiamart.com/bhairavimetalworks/?pos=87&kwd=feeding set&tags=||||8954.051|Price|proxy|||MDC|rsf:gd-|-stype:attr=1|qr_nm:gd|res:RC3|com-cf:nl|ptrs:na|ktp:N0|mc:68319|mtp:S|qry_typ:P|lang:en|wc:2|cs:8842|v=4,False,Thiruporur,Chennai,"No. 24, Sandror Street,, Thiruporur, Chennai - 603110, Dist.Chennai, Tamil Nadu",8046052032,
"Transparent 150ml Plastic Baby Feeding Bottle, Age Group: 3-12 Months",https://www.indiamart.com/proddetail/150ml-plastic-baby-feeding-bottle-20213693162.html?pos=88&kwd=feeding set&tags=||||8228.275|Price|proxy|||TS|rsf:gd-|-stype:attr=1|qr_nm:gd|res:RC3|com-cf:nl|ptrs:na|ktp:N0|mc:68319|mtp:S|qry_typ:P|lang:en|wc:2|cs:8842|v=4,Madhu Products,https://www.indiamart.com/madhu-products-ahmedabad/?pos=88&kwd=feeding set&tags=||||8228.275|Price|proxy|||TS|rsf:gd-|-stype:attr=1|qr_nm:gd|res:RC3|com-cf:nl|ptrs:na|ktp:N0|mc:68319|mtp:S|qry_typ:P|lang:en|wc:2|cs:8842|v=4,False,Saraspur,Ahmedabad,"825, Kadiawad, Saraspur, Saraspur, Ahmedabad - 380018, Dist.Ahmedabad, Gujarat",8046075412,
"Pink Children Feeding Set, Packaging Type: Box",https://www.indiamart.com/proddetail/children-feeding-set-24187153262.html?pos=89&kwd=feeding set&tags=CC||||8741.812|Price|product|||NA|rsf:gd-|-stype:attr=1|qr_nm:gd|res:RC3|com-cf:nl|ptrs:na|ktp:N0|mc:68319|mtp:S|qry_typ:P|lang:en|wc:2|cs:8842|v=4,Godspeed Enterprises,https://www.indiamart.com/godspeed-enterprises-gurgaon/?pos=89&kwd=feeding set&tags=CC||||8741.812|Price|product|||NA|rsf:gd-|-stype:attr=1|qr_nm:gd|res:RC3|com-cf:nl|ptrs:na|ktp:N0|mc:68319|mtp:S|qry_typ:P|lang:en|wc:2|cs:8842|v=4,False,,Gurgaon,"Flat 0b Tower Gh-6 Sector 56 VTC Sikanderpur Ghosi68 Po Dlf Q Suncity Gurugram, Gurgaon - 122002, Dist.Gurgaon, Haryana",8069017252,487
"Orange Baby Feeding Set, Packaging Type: Plastic Bottle, 3-12 Months",https://www.indiamart.com/proddetail/baby-feeding-set-23759260933.html?pos=90&kwd=feeding set&tags=CC||||8307.81|Price|product|||NA|rsf:gd-|-stype:attr=1|qr_nm:gd|res:RC3|com-cf:nl|ptrs:na|ktp:N0|mc:68319|mtp:S|qry_typ:P|lang:en|wc:2|cs:8842|v=4,Balaji CNG Kit Fittings And Hydro Testing Center Pune,https://www.indiamart.com/balaji-cng-kit-and-hudro-testing-center/?pos=90&kwd=feeding set&tags=CC||||8307.81|Price|product|||NA|rsf:gd-|-stype:attr=1|qr_nm:gd|res:RC3|com-cf:nl|ptrs:na|ktp:N0|mc:68319|mtp:S|qry_typ:P|lang:en|wc:2|cs:8842|v=4,False,,Pune,"Flat No-10, Pl No-17 And 18, Shalini Corner, Near Pmt Bus Stop, Karvenagar, Pune - 411052, Dist.Pune, Maharashtra",8047665006,
Red Silicone Suction Plate,https://www.indiamart.com/proddetail/silicone-feeding-plate-set-2854553503597.html?pos=91&kwd=feeding set&tags=CC||||8211.142|Price|product|||NA|rsf:gd-|-stype:attr=1|qr_nm:gd|res:RC3|com-cf:nl|ptrs:na|ktp:N0|mc:68319|mtp:S|qry_typ:P|lang:en|wc:2|cs:8842|v=4,Glam Aroma Cosmetics,https://www.indiamart.com/glamaroma/?pos=91&kwd=feeding set&tags=CC||||8211.142|Price|product|||NA|rsf:gd-|-stype:attr=1|qr_nm:gd|res:RC3|com-cf:nl|ptrs:na|ktp:N0|mc:68319|mtp:S|qry_typ:P|lang:en|wc:2|cs:8842|v=4,False,,Mumbai,"157, 08, W.R.E.B Staff Qtrs, New D.N Nagar Andheri East Mumbai Suburban,, Mumbai - 400053, Dist.Mumbai, Maharashtra",8048370732,1251
"Generic Bamboo Fiber Kids Feeding Set (5pc), 1-2 Years",https://www.indiamart.com/proddetail/bamboo-fiber-kids-feeding-set-5pc-22482220930.html?pos=92&kwd=feeding set&tags=CC||||8211.142|Price|product|||NA|rsf:gd-|-stype:attr=1|qr_nm:gd|res:RC3|com-cf:nl|ptrs:na|ktp:N0|mc:68319|mtp:S|qry_typ:P|lang:en|wc:2|cs:8842|v=4,Hashmart - The Online Store,https://www.indiamart.com/qodo/?pos=92&kwd=feeding set&tags=CC||||8211.142|Price|product|||NA|rsf:gd-|-stype:attr=1|qr_nm:gd|res:RC3|com-cf:nl|ptrs:na|ktp:N0|mc:68319|mtp:S|qry_typ:P|lang:en|wc:2|cs:8842|v=4,False,Nagpada,Mumbai,"1st F 31, Huzaria Street, 1st F Huzaria Street Mastan Talab Nawab Building, Nagpada, Mumbai - 400008, Dist.Mumbai, Maharashtra",8048372243,588
Baby Feeding Set of - 4,https://www.indiamart.com/proddetail/baby-feeding-set-of-4-22157136291.html?pos=93&kwd=feeding set&tags=CC||||8601.347||product|||NA|rsf:gd-|-stype:attr=1|qr_nm:gd|res:RC3|com-cf:nl|ptrs:na|ktp:N0|mc:68319|mtp:S|qry_typ:P|lang:en|wc:2|cs:8842|v=4,Mangalam Enterprises,https://www.indiamart.com/mangalam-enterprises-lucknow/?pos=93&kwd=feeding set&tags=CC||||8601.347||product|||NA|rsf:gd-|-stype:attr=1|qr_nm:gd|res:RC3|com-cf:nl|ptrs:na|ktp:N0|mc:68319|mtp:S|qry_typ:P|lang:en|wc:2|cs:8842|v=4,False,Nirman Nagar,Jaipur,"Plot No D 190,Lane No 08, Gautam Marg,Nirman Nagar D-190, Lane No. 8, Gautam Marg,226001,Jaipur, Nirman Nagar, Jaipur - 302019, Dist.Jaipur, Rajasthan",8043811522,
Polka Tots Kids Feeding Dinner Set,https://www.indiamart.com/proddetail/polka-tots-kids-feeding-dinner-set-21566540673.html?pos=94&kwd=feeding set&tags=CC||||8228.275|Price|product|||NA|rsf:gd-|-stype:attr=1|qr_nm:gd|res:RC3|com-cf:nl|ptrs:na|ktp:N0|mc:68319|mtp:S|qry_typ:P|lang:en|wc:2|cs:8842|v=4,Eclat Globalbiz LLP,https://www.indiamart.com/eclatglobalbiz/?pos=94&kwd=feeding set&tags=CC||||8228.275|Price|product|||NA|rsf:gd-|-stype:attr=1|qr_nm:gd|res:RC3|com-cf:nl|ptrs:na|ktp:N0|mc:68319|mtp:S|qry_typ:P|lang:en|wc:2|cs:8842|v=4,False,,Ahmedabad,"Shilp Zaveri, Ahmedabad - 380004, Dist.Ahmedabad, Gujarat",8047627244,
Cute Rabbit Bamboo Fiber 5pcs Feeding Set,https://www.indiamart.com/proddetail/cute-rabbit-bamboo-fiber-5pcs-feeding-set-2854516021033.html?pos=95&kwd=feeding set&tags=CC||||9558.3125|Price|product|||FCPE|rsf:gd-|-stype:attr=1|qr_nm:gd|res:RC3|com-cf:nl|ptrs:na|ktp:N0|mc:68319|mtp:S|qry_typ:P|lang:en|wc:2|cs:8842|v=4,Abhiaksh India Private Limited,https://www.indiamart.com/abhiaksh-india-private-limited/?pos=95&kwd=feeding set&tags=CC||||9558.3125|Price|product|||FCPE|rsf:gd-|-stype:attr=1|qr_nm:gd|res:RC3|com-cf:nl|ptrs:na|ktp:N0|mc:68319|mtp:S|qry_typ:P|lang:en|wc:2|cs:8842|v=4,False,,Sitamarhi,"Na,National Market,Main Road . Kiran Chowk,Sitamarhi, Sitamarhi - 843302, Dist.Sitamarhi, Bihar",,
Feeding Plate,,Wecare Solutions,https://www.indiamart.com/wecaresolutions-mumbai/?pos=96&kwd=feeding set&tags=CC||||8211.142||product|||NA|rsf:gd-|-stype:attr=1|qr_nm:gd|res:RC3|com-cf:nl|ptrs:na|ktp:N0|mc:68319|mtp:S|qry_typ:P|lang:en|wc:2|cs:8842|v=4,False,,Mumbai,"Gala No. F1/F2/F3, Rajprabha Anand Industrial Estate, 1st Floor, Building No. 3, Naikpada, Waliv Vasai East, Mumbai - 400068, Dist.Mumbai, Maharashtra",8047309003,7582
Baby Feeding Set For Kids And Toddlers (7 Pcs Set),https://www.indiamart.com/proddetail/baby-feeding-set-for-kids-and-toddlers-7-pcs-set-2855036647433.html?pos=97&kwd=feeding set&tags=CC||||7981.7773|Price|product|||FCPE|rsf:gd-|-stype:attr=1|qr_nm:gd|res:RC3|com-cf:nl|ptrs:na|ktp:N0|mc:68319|mtp:S|qry_typ:P|lang:en|wc:2|cs:8842|v=4,Aakash Enterprise,https://www.indiamart.com/aakash-enterprise-gandhidham/?pos=97&kwd=feeding set&tags=CC||||7981.7773|Price|product|||FCPE|rsf:gd-|-stype:attr=1|qr_nm:gd|res:RC3|com-cf:nl|ptrs:na|ktp:N0|mc:68319|mtp:S|qry_typ:P|lang:en|wc:2|cs:8842|v=4,False,GANDHIDHAM,Gandhidham,"PLOT NO-81,,NH NO -8/A,PADANA PLOT NO 81 SURVEY 90,370201, GANDHIDHAM, Gandhidham - 370201, Dist.Kachchh, Gujarat",,
Baby Feeding Set For Kids And Toddlers (7 Pcs Set),https://www.indiamart.com/proddetail/baby-feeding-set-for-kids-and-toddlers-7-pcs-set-2854513959248.html?pos=98&kwd=feeding set&tags=CC||||8741.812|Price|product|||NA|rsf:gd-|-stype:attr=1|qr_nm:gd|res:RC3|com-cf:nl|ptrs:na|ktp:N0|mc:68319|mtp:S|qry_typ:P|lang:en|wc:2|cs:8842|v=4,Go5 Incorporation,https://www.indiamart.com/go5incorporation/?pos=98&kwd=feeding set&tags=CC||||8741.812|Price|product|||NA|rsf:gd-|-stype:attr=1|qr_nm:gd|res:RC3|com-cf:nl|ptrs:na|ktp:N0|mc:68319|mtp:S|qry_typ:P|lang:en|wc:2|cs:8842|v=4,False,,Gurugram,"T 2/13, DLF Phase 3, Gurugram - 122002, Dist.Gurgaon, Haryana",,
Baby Feeding Set For Kids And Toddlers (7 Pcs Set),https://www.indiamart.com/proddetail/baby-feeding-set-for-kids-and-toddlers-7-pcs-set-2853102549733.html?pos=99&kwd=feeding set&tags=CC||||8038.093|Price|product|||NA|rsf:gd-|-stype:attr=1|qr_nm:gd|res:RC3|com-cf:nl|ptrs:na|ktp:N0|mc:68319|mtp:S|qry_typ:P|lang:en|wc:2|cs:8842|v=4,Deodap International Private Limited,https://www.indiamart.com/deodapinternationalprivatelimited-rajkot/?pos=99&kwd=feeding set&tags=CC||||8038.093|Price|product|||NA|rsf:gd-|-stype:attr=1|qr_nm:gd|res:RC3|com-cf:nl|ptrs:na|ktp:N0|mc:68319|mtp:S|qry_typ:P|lang:en|wc:2|cs:8842|v=4,False,,Rajkot,"Plot No. 1 Rsn 112/3 Rangoli Masala Street Nr Ruda Transport Nagar Ruda Transport Nagar, Rajkot - 360003, Dist.Rajkot, Gujarat",,
Baby Feeding Set For Kids And Toddlers (7 Pcs Set),https://www.indiamart.com/proddetail/baby-feeding-set-for-kids-and-toddlers-7-pcs-set-2855060695688.html?pos=100&kwd=feeding set&tags=CC||||9289.285|Price|product|||FCPE|rsf:gd-|-stype:attr=1|qr_nm:gd|res:RC3|com-cf:nl|ptrs:na|ktp:N0|mc:68319|mtp:S|qry_typ:P|lang:en|wc:2|cs:8842|v=4,darling lifestyle,https://www.indiamart.com/darling-lifestyle/?pos=100&kwd=feeding set&tags=CC||||9289.285|Price|product|||FCPE|rsf:gd-|-stype:attr=1|qr_nm:gd|res:RC3|com-cf:nl|ptrs:na|ktp:N0|mc:68319|mtp:S|qry_typ:P|lang:en|wc:2|cs:8842|v=4,False,,Visakhapatnam,"karri banu s/o k abbainaidu ration depo 3 karri street s rayavaram po vill md visakhapatnam distc andhrapradesh, Visakhapatnam - 531060, Dist.Visakhapatnam, Andhra Pradesh",,
Baby Feeding Set For Kids And Toddlers (7 Pcs Set),https://www.indiamart.com/proddetail/baby-feeding-set-for-kids-and-toddlers-7-pcs-set-2854348942397.html?pos=101&kwd=feeding set&tags=CC||||8706.587|Price|product|||NA|rsf:gd-|-stype:attr=1|qr_nm:gd|res:RC3|com-cf:nl|ptrs:na|ktp:N0|mc:68319|mtp:S|qry_typ:P|lang:en|wc:2|cs:8842|v=4,offersonlineshop.in,https://www.indiamart.com/offersonlineshopin/?pos=101&kwd=feeding set&tags=CC||||8706.587|Price|product|||NA|rsf:gd-|-stype:attr=1|qr_nm:gd|res:RC3|com-cf:nl|ptrs:na|ktp:N0|mc:68319|mtp:S|qry_typ:P|lang:en|wc:2|cs:8842|v=4,False,,Madurai,"Pin code :- 625514 City :- madurai State :- tamilnadu madurai 625514 Tamil Nadu, Madurai - 625514, Dist.Madurai, Tamil Nadu",,
Baby Feeding Set For Kids And Toddlers (7 Pcs Set),https://www.indiamart.com/proddetail/baby-feeding-set-for-kids-and-toddlers-7-pcs-set-2854863755591.html?pos=102&kwd=feeding set&tags=CC||||8786.56|Price|product|||FCPE|rsf:gd-|-stype:attr=1|qr_nm:gd|res:RC3|com-cf:nl|ptrs:na|ktp:N0|mc:68319|mtp:S|qry_typ:P|lang:en|wc:2|cs:8842|v=4,Jaatara,https://www.indiamart.com/company/225931792/?pos=102&kwd=feeding set&tags=CC||||8786.56|Price|product|||FCPE|rsf:gd-|-stype:attr=1|qr_nm:gd|res:RC3|com-cf:nl|ptrs:na|ktp:N0|mc:68319|mtp:S|qry_typ:P|lang:en|wc:2|cs:8842|v=4,False,,Cyberabad,"8-4-376/22, New Shastri Nagar Erragadda, Hyderabad - 500018 Telangana, Cyberabad - 500018, Dist.Hyderabad, Andhra Pradesh",,
Baby Feeding Set For Kids And Toddlers (7 Pcs Set),https://www.indiamart.com/proddetail/baby-feeding-set-for-kids-and-toddlers-7-pcs-set-2854643132997.html?pos=103&kwd=feeding set&tags=CC||||9848.189|Price|product|||NA|rsf:gd-|-stype:attr=1|qr_nm:gd|res:RC3|com-cf:nl|ptrs:na|ktp:N0|mc:68319|mtp:S|qry_typ:P|lang:en|wc:2|cs:8842|v=4,Offers Voyage,https://www.indiamart.com/offers-voyage/?pos=103&kwd=feeding set&tags=CC||||9848.189|Price|product|||NA|rsf:gd-|-stype:attr=1|qr_nm:gd|res:RC3|com-cf:nl|ptrs:na|ktp:N0|mc:68319|mtp:S|qry_typ:P|lang:en|wc:2|cs:8842|v=4,False,,Siliguri,"Dasrath Pally Bhanu Nagar, Siliguri - 734001, Dist.Darjiling, West Bengal",,
Baby Bottle Feeding Sets,https://www.indiamart.com/proddetail/baby-bottle-feeding-sets-15162194130.html?pos=104&kwd=feeding set&tags=CC||||8228.275||product|||NA|rsf:gd-|-stype:attr=1|qr_nm:gd|res:RC3|com-cf:nl|ptrs:na|ktp:N0|mc:68319|mtp:S|qry_typ:P|lang:en|wc:2|cs:8842|v=4,Matter Motor Works Private Limited,https://www.indiamart.com/matter-motor-works-private-limited/?pos=104&kwd=feeding set&tags=CC||||8228.275||product|||NA|rsf:gd-|-stype:attr=1|qr_nm:gd|res:RC3|com-cf:nl|ptrs:na|ktp:N0|mc:68319|mtp:S|qry_typ:P|lang:en|wc:2|cs:8842|v=4,False,,Ahmedabad,"301, PARISHRAM BUILDING, 5B RASHMI SOCIETY, NR. MITHAKHALI SIX ROAD, NAVRANGPURA, AHMEDABAD 301 5b Rashmi Society, Parishram Building Navrangpura, 380009, Noida, Ahmedabad - 380009, Dist.Ahmedabad, Gujarat",8069033870,240
"Baby Feeding Set for Kids and Toddlers,Children Children Dinnerware Set - Bamboo Fibre Feeding Set for Kids, Cartoon Design Plate, Cup, Spoon, Fork and Chopsticks, Tableware Cutlery for Kids Microwave & Dishwasher Safe (7 Pcs Set)",https://www.indiamart.com/proddetail/baby-feeding-set-for-kids-and-toddlers-children-children-dinnerware-set-bamboo-fibre-feeding-set-for-kids-cartoon-design-plate-cup-spoon-fork-and-chopsticks-tableware-cutlery-for-kids-microwave-dishwasher-safe-7-pcs-set-2853497027191.html?pos=105&kwd=feeding set&tags=CC||||9733.506|Price|product|||NA|rsf:gd-|-stype:attr=1|qr_nm:gd|res:RC3|com-cf:nl|ptrs:na|ktp:N0|mc:68319|mtp:S|qry_typ:P|lang:en|wc:2|cs:8842|v=4,WaferKart,https://www.indiamart.com/waferkart/?pos=105&kwd=feeding set&tags=CC||||9733.506|Price|product|||NA|rsf:gd-|-stype:attr=1|qr_nm:gd|res:RC3|com-cf:nl|ptrs:na|ktp:N0|mc:68319|mtp:S|qry_typ:P|lang:en|wc:2|cs:8842|v=4,False,,Durgapur,"RAILPAR TANKITALA PANAGARH, Durgapur - 713148, West Bengal",,
Wellthya NourishMeal Toolkit - Rainbow,https://www.indiamart.com/proddetail/wellthya-nourishmeal-toolkit-rainbow-2854511427348.html?pos=106&kwd=feeding set&tags=CC||||8482.679|Price|product|||NA|rsf:gd-|-stype:attr=1|qr_nm:gd|res:RC3|com-cf:nl|ptrs:na|ktp:N0|mc:68319|mtp:S|qry_typ:P|lang:en|wc:2|cs:8842|v=4,Wellthyawellness Distribution Private Limited,https://www.indiamart.com/wellthyawellness-distribution-private-limited/?pos=106&kwd=feeding set&tags=CC||||8482.679|Price|product|||NA|rsf:gd-|-stype:attr=1|qr_nm:gd|res:RC3|com-cf:nl|ptrs:na|ktp:N0|mc:68319|mtp:S|qry_typ:P|lang:en|wc:2|cs:8842|v=4,False,,Ratlam,"27,,TASHKAND MARG,Ratlam 27,,TASHKAND MARG,Ratlam,457001,, Ratlam - 457001, Dist.Ratlam, Madhya Pradesh",8048370731,5739
"Multicolor Baby Kid Silicone Squeeze Feeding Bottle, 100 mL, Age Group: 1-2 Years",https://www.indiamart.com/proddetail/baby-kid-silicone-squeeze-feeding-bottle-2851632784255.html?pos=107&kwd=feeding set&tags=||||8752.144|Price|proxy|||TS|rsf:gd-|-stype:attr=1|qr_nm:gd|res:RC3|com-cf:nl|ptrs:na|ktp:N0|mc:68319|mtp:S|qry_typ:P|lang:en|wc:2|cs:8842|v=4,Inquantity,https://www.indiamart.com/inquantity/?pos=107&kwd=feeding set&tags=||||8752.144|Price|proxy|||TS|rsf:gd-|-stype:attr=1|qr_nm:gd|res:RC3|com-cf:nl|ptrs:na|ktp:N0|mc:68319|mtp:S|qry_typ:P|lang:en|wc:2|cs:8842|v=4,False,Shahdara,New Delhi,"1/6258, East Rohtash Nagar, Shahdara, Shahdara, New Delhi - 110032, Dist.Delhi, Delhi",8047620719,
Plastic Glass Baby Feeding Bottle,https://www.indiamart.com/proddetail/glass-baby-feeding-bottle-2854287451573.html?pos=108&kwd=feeding set&tags=||||8223.226|Price|proxy|||MDC|rsf:gd-|-stype:attr=1|qr_nm:gd|res:RC3|com-cf:nl|ptrs:na|ktp:N0|mc:68319|mtp:S|qry_typ:P|lang:en|wc:2|cs:8842|v=4,Royal Baby,https://www.indiamart.com/royal-baby-thane/?pos=108&kwd=feeding set&tags=||||8223.226|Price|proxy|||MDC|rsf:gd-|-stype:attr=1|qr_nm:gd|res:RC3|com-cf:nl|ptrs:na|ktp:N0|mc:68319|mtp:S|qry_typ:P|lang:en|wc:2|cs:8842|v=4,False,,Thane,"Ground Floor, Shop No. 03, Savitri Niwas Mumbai Pune Road, Amrutnagar, Sub Post Office, Mumbra, Thane - 400612, Dist.Thane, Maharashtra",8045734604,
Newborn Baby Squeeze Silicone Feeding Bottle with Spoon for Baby feeding Milk/juice/Water,https://www.indiamart.com/proddetail/newborn-baby-squeeze-silicone-feeding-bottle-with-spoon-for-baby-feeding-milk-juice-water-2854404728662.html?pos=109&kwd=feeding set&tags=||||8752.144|Price|proxy|||MDC|rsf:gd-|-stype:attr=1|qr_nm:gd|res:RC3|com-cf:nl|ptrs:na|ktp:N0|mc:68319|mtp:S|qry_typ:P|lang:en|wc:2|cs:8842|v=4,JMC Enterprises,https://www.indiamart.com/jmc-enterprises-newdelhi/?pos=109&kwd=feeding set&tags=||||8752.144|Price|proxy|||MDC|rsf:gd-|-stype:attr=1|qr_nm:gd|res:RC3|com-cf:nl|ptrs:na|ktp:N0|mc:68319|mtp:S|qry_typ:P|lang:en|wc:2|cs:8842|v=4,False,,New Delhi,"H.No. A-49 Ph-1, Block-A, Harsukh Prem Nagar -1, North West Delhi, New Delhi - 110086, Dist.Delhi, Delhi",8045735053,
"Mady Baby Glass Feeder, Capacity: 200 mL",https://www.indiamart.com/proddetail/mady-baby-glass-feeder-2854371891455.html?pos=110&kwd=feeding set&tags=||||8752.144|Price|proxy|||MDC|rsf:gd-|-stype:attr=1|qr_nm:gd|res:RC3|com-cf:nl|ptrs:na|ktp:N0|mc:68319|mtp:S|qry_typ:P|lang:en|wc:2|cs:8842|v=4,Household Mart,https://www.indiamart.com/household-mart-newdelhi/?pos=110&kwd=feeding set&tags=||||8752.144|Price|proxy|||MDC|rsf:gd-|-stype:attr=1|qr_nm:gd|res:RC3|com-cf:nl|ptrs:na|ktp:N0|mc:68319|mtp:S|qry_typ:P|lang:en|wc:2|cs:8842|v=4,False,,New Delhi,"2nd Floor Ganesh Pura A Kanhiya Nagar Tri Nagar, House 3904 Plot No Old -171 Street No 14, North West Delhi, New Delhi - 110035, Dist.Delhi, Delhi",7949337207,
Mee Mee Feeding Bottles,https://www.indiamart.com/proddetail/mee-mee-feeding-bottles-10740837273.html?pos=111&kwd=feeding set&tags=||||8786.56|Price|product|||NA|rsf:gd-|-stype:attr=1|qr_nm:gd|res:RC3|com-cf:nl|ptrs:na|ktp:N0|mc:68319|mtp:S|qry_typ:P|lang:en|wc:2|cs:8842|v=4,Yash Agencies,https://www.indiamart.com/yashagencies-hyderabad/?pos=111&kwd=feeding set&tags=||||8786.56|Price|product|||NA|rsf:gd-|-stype:attr=1|qr_nm:gd|res:RC3|com-cf:nl|ptrs:na|ktp:N0|mc:68319|mtp:S|qry_typ:P|lang:en|wc:2|cs:8842|v=4,False,Ameerpet,Hyderabad,"Door No. 6-3-850/1 & 9/7, Sirisha Plaza, Opposite Sheeshmahal Theatre, Ameerpet, Mahesh Bank, Ameerpet, Hyderabad - 500016, Dist.Hyderabad, Telangana",8043838007,
"Plastic Mee Mee Premium Feeding Bottle, 100 mL, Age Group: Newly Born",https://www.indiamart.com/proddetail/mee-mee-premium-feeding-bottle-2851318152288.html?pos=112&kwd=feeding set&tags=||||8236.946|Price|product|||NA|rsf:gd-|-stype:attr=1|qr_nm:gd|res:RC3|com-cf:nl|ptrs:na|ktp:N0|mc:68319|mtp:S|qry_typ:P|lang:en|wc:2|cs:8842|v=4,Toy Safari,https://www.indiamart.com/toy-safari/?pos=112&kwd=feeding set&tags=||||8236.946|Price|product|||NA|rsf:gd-|-stype:attr=1|qr_nm:gd|res:RC3|com-cf:nl|ptrs:na|ktp:N0|mc:68319|mtp:S|qry_typ:P|lang:en|wc:2|cs:8842|v=4,False,,Raigad,"304,3rd Floor,Love Spring,Sector 07 Plot No 11,Navi Mumbai,Raigad, Raigad - 410209, Maharashtra",8069196799,376
Feeding Bottle - Light Blue,https://www.indiamart.com/proddetail/feeding-bottle-light-blue-6331148173.html?pos=113&kwd=feeding set&tags=||||8752.144||product|||NA|rsf:gd-|-stype:attr=1|qr_nm:gd|res:RC3|com-cf:nl|ptrs:na|ktp:N0|mc:68319|mtp:S|qry_typ:P|lang:en|wc:2|cs:8842|v=4,Goyal Knitting Industies,https://www.indiamart.com/goyal-knitting-industriesdelhi/?pos=113&kwd=feeding set&tags=||||8752.144||product|||NA|rsf:gd-|-stype:attr=1|qr_nm:gd|res:RC3|com-cf:nl|ptrs:na|ktp:N0|mc:68319|mtp:S|qry_typ:P|lang:en|wc:2|cs:8842|v=4,False,Shastri Nagar,New Delhi,",F-44,SHASTRI NAGAR,, Shastri Nagar, New Delhi - 110052, Dist.Delhi, Delhi",8047671909,
Mee Mee water Feeding Bottles,https://www.indiamart.com/proddetail/mee-mee-water-feeding-bottles-2853350234348.html?pos=114&kwd=feeding set&tags=||||8954.051|Price|product|||NA|rsf:gd-|-stype:attr=1|qr_nm:gd|res:RC3|com-cf:nl|ptrs:na|ktp:N0|mc:68319|mtp:S|qry_typ:P|lang:en|wc:2|cs:8842|v=4,K Enterprises,https://www.indiamart.com/k-enterpriseschennai/?pos=114&kwd=feeding set&tags=||||8954.051|Price|product|||NA|rsf:gd-|-stype:attr=1|qr_nm:gd|res:RC3|com-cf:nl|ptrs:na|ktp:N0|mc:68319|mtp:S|qry_typ:P|lang:en|wc:2|cs:8842|v=4,False,,Chennai,"New No 42,Old No 65,Gandhi Street,West Mambalam,Chennai,Chennai, Chennai - 600033, Dist.Chennai, Tamil Nadu",7942638362,
"Mee Mee Kids Glass Feeding Bottle, Capacity: 200 mL",https://www.indiamart.com/proddetail/mee-mee-kids-glass-feeding-bottle-2852603869691.html?pos=115&kwd=feeding set&tags=||||8740.707|Price|product|||NA|rsf:gd-|-stype:attr=1|qr_nm:gd|res:RC3|com-cf:nl|ptrs:na|ktp:N0|mc:68319|mtp:S|qry_typ:P|lang:en|wc:2|cs:8842|v=4,Shoppers Delight,https://www.indiamart.com/shoppersdelight/?pos=115&kwd=feeding set&tags=||||8740.707|Price|product|||NA|rsf:gd-|-stype:attr=1|qr_nm:gd|res:RC3|com-cf:nl|ptrs:na|ktp:N0|mc:68319|mtp:S|qry_typ:P|lang:en|wc:2|cs:8842|v=4,False,,Mohali,"Ground And Basement, Booth No 14, Shoppers Delight, Clockton Market Omaxe Phase 1 Unique Brew, Sector 13, New Chandigarh, Sas Nagar, Mohali - 140901, Dist.Mohali, Punjab",8043877997,
Mee Mee Baby Toddler Feeding Bowl,https://www.indiamart.com/proddetail/mee-mee-baby-toddler-feeding-bowl-2851843909355.html?pos=116&kwd=feeding set&tags=||||8500.97|Price|product|||NA|rsf:gd-|-stype:attr=1|qr_nm:gd|res:RC3|com-cf:nl|ptrs:na|ktp:N0|mc:68319|mtp:S|qry_typ:P|lang:en|wc:2|cs:8842|v=4,Alpha Enterprises,https://www.indiamart.com/alphaenterprises/?pos=116&kwd=feeding set&tags=||||8500.97|Price|product|||NA|rsf:gd-|-stype:attr=1|qr_nm:gd|res:RC3|com-cf:nl|ptrs:na|ktp:N0|mc:68319|mtp:S|qry_typ:P|lang:en|wc:2|cs:8842|v=4,False,,Thrissur,"15/71,Post Office Road,Chiyyaram, Thrissur - 680026, Dist.Thrissur, Kerala",7942871618,
Mee Baby Bottle,https://www.indiamart.com/proddetail/mee-baby-bottle-16486569512.html?pos=117&kwd=feeding set&tags=||||8226.563|Price|product|||NA|rsf:gd-|-stype:attr=1|qr_nm:gd|res:RC3|com-cf:nl|ptrs:na|ktp:N0|mc:68319|mtp:S|qry_typ:P|lang:en|wc:2|cs:8842|v=4,Cubic Corporation,https://www.indiamart.com/cubiccorporation/?pos=117&kwd=feeding set&tags=||||8226.563|Price|product|||NA|rsf:gd-|-stype:attr=1|qr_nm:gd|res:RC3|com-cf:nl|ptrs:na|ktp:N0|mc:68319|mtp:S|qry_typ:P|lang:en|wc:2|cs:8842|v=4,False,Pawne,Navi Mumbai,"Gala No. 3, 1st Floor, Gami Industrial MIDC, Opp. Weighbridge, Plot No. C-39/A Pawn MIDC ITC Ind Area, Pawne, Navi Mumbai - 400709, Dist.Thane, Maharashtra",8048372550,180
Mommas Baby Feeding Bottle,https://www.indiamart.com/proddetail/mommas-baby-feeding-bottle-14458547312.html?pos=118&kwd=feeding set&tags=||||8500.97|Price|product|||NA|rsf:gd-|-stype:attr=1|qr_nm:gd|res:RC3|com-cf:nl|ptrs:na|ktp:N0|mc:68319|mtp:S|qry_typ:P|lang:en|wc:2|cs:8842|v=4,BGC Enterprises,https://www.indiamart.com/bgc-enterprises/?pos=118&kwd=feeding set&tags=||||8500.97|Price|product|||NA|rsf:gd-|-stype:attr=1|qr_nm:gd|res:RC3|com-cf:nl|ptrs:na|ktp:N0|mc:68319|mtp:S|qry_typ:P|lang:en|wc:2|cs:8842|v=4,False,Ikkandawarier Road,Thrissur,",8/308/1,IKKANDA WARRIER ROAD,,THRISSUR,,Thrissur,Kerala, Ikkandawarier Road, Thrissur - 680005, Dist.Thrissur, Kerala",8047694379,
"Baby Feeding Bottle Combo Set, Design/Pattern: Plain, 6 Months",https://www.indiamart.com/proddetail/baby-feeding-bottle-combo-set-24427944488.html?pos=119&kwd=feeding set&tags=||||8830.079|Price|product|||NA|rsf:gd-|-stype:attr=1|qr_nm:gd|res:RC3|com-cf:nl|ptrs:na|ktp:N0|mc:68319|mtp:S|qry_typ:P|lang:en|wc:2|cs:8842|v=4,Goodmunchkins Private Limited,https://www.indiamart.com/goodmunchkins/?pos=119&kwd=feeding set&tags=||||8830.079|Price|product|||NA|rsf:gd-|-stype:attr=1|qr_nm:gd|res:RC3|com-cf:nl|ptrs:na|ktp:N0|mc:68319|mtp:S|qry_typ:P|lang:en|wc:2|cs:8842|v=4,False,Gandhi Nagar,Vellore,"No.31, Ground Floor, Jaganathan Nagar Main Road, Gandhi Nagar, Vellore - 632006, Dist.Vellore, Tamil Nadu",7942555990,
Born Babies Stainless Steel Feeding Bottle Set,https://www.indiamart.com/proddetail/born-babies-stainless-steel-feeding-bottle-set-2850111067433.html?pos=120&kwd=feeding set&tags=||||8584.299|Price|product|||NA|rsf:gd-|-stype:attr=1|qr_nm:gd|res:RC3|com-cf:nl|ptrs:na|ktp:N0|mc:68319|mtp:S|qry_typ:P|lang:en|wc:2|cs:8842|v=4,Born Babies India Private Limited,https://www.indiamart.com/bornbabies-coimbatore/?pos=120&kwd=feeding set&tags=||||8584.299|Price|product|||NA|rsf:gd-|-stype:attr=1|qr_nm:gd|res:RC3|com-cf:nl|ptrs:na|ktp:N0|mc:68319|mtp:S|qry_typ:P|lang:en|wc:2|cs:8842|v=4,False,Ram Nagar,Coimbatore,"NO-69/2, Thiruvenkatasamy Road, R S Puram, Ram Nagar, Coimbatore - 641002, Dist.Coimbatore, Tamil Nadu",7942788170,
Silicone Silicon Fruit Baby Pacifier,https://www.indiamart.com/proddetail/silicon-fruit-baby-pacifier-2854104996197.html?pos=121&kwd=feeding set&tags=||||8038.093|Price|proxy|||MDC|rsf:gd-|-stype:attr=1|qr_nm:gd|res:RC3|com-cf:nl|ptrs:na|ktp:N0|mc:68319|mtp:S|qry_typ:P|lang:en|wc:2|cs:8842|v=4,Kemlin International,https://www.indiamart.com/kemlin-international/?pos=121&kwd=feeding set&tags=||||8038.093|Price|proxy|||MDC|rsf:gd-|-stype:attr=1|qr_nm:gd|res:RC3|com-cf:nl|ptrs:na|ktp:N0|mc:68319|mtp:S|qry_typ:P|lang:en|wc:2|cs:8842|v=4,False,Sant Bhojaram Society,Rajkot,"Shed No. 2, Plot No. 17, R.s. No. 264, Kothariya, Sant Bhojaram Society, Rajkot - 360002, Dist.Rajkot, Gujarat",8044560767,
Orange Silicone Smooth Rubber Teether,https://www.indiamart.com/proddetail/orange-silicone-smooth-rubber-teether-2854023064830.html?pos=122&kwd=feeding set&tags=||||8228.275|Price|product|||NA|rsf:gd-|-stype:attr=1|qr_nm:gd|res:RC3|com-cf:nl|ptrs:na|ktp:N0|mc:68319|mtp:S|qry_typ:P|lang:en|wc:2|cs:8842|v=4,Sun Flight Toys,https://www.indiamart.com/sun-flight-toys/?pos=122&kwd=feeding set&tags=||||8228.275|Price|product|||NA|rsf:gd-|-stype:attr=1|qr_nm:gd|res:RC3|com-cf:nl|ptrs:na|ktp:N0|mc:68319|mtp:S|qry_typ:P|lang:en|wc:2|cs:8842|v=4,False,Nikol,Ahmedabad,"PLOT NO 50,Gopal Charan Industrial Zone,Unnamed Road,Ahmedabad, Nikol, Ahmedabad - 382415, Dist.Ahmedabad, Gujarat",8044013771,
"Size: 14 cm Material: Plastic Baby Feeding Bottle Spoon, For Home",https://www.indiamart.com/proddetail/baby-feeding-bottle-spoon-2854989211297.html?pos=123&kwd=feeding set&tags=||||8647.052|Price|product|||NA|rsf:gd-|-stype:attr=1|qr_nm:gd|res:RC3|com-cf:nl|ptrs:na|ktp:N0|mc:68319|mtp:S|qry_typ:P|lang:en|wc:2|cs:8842|v=4,K.K Traders,https://www.indiamart.com/radhaswami-g-traders/?pos=123&kwd=feeding set&tags=||||8647.052|Price|product|||NA|rsf:gd-|-stype:attr=1|qr_nm:gd|res:RC3|com-cf:nl|ptrs:na|ktp:N0|mc:68319|mtp:S|qry_typ:P|lang:en|wc:2|cs:8842|v=4,False,Jagdish Colony,Hansi,"House No. 636, Jind Hansi Road, Jagdish Colony, Hansi - 125033, Dist.Hisar, Haryana",8048247087,7980
"Green Manual Ardo Bottle Set 3x1 Box, Newly Born, Size: 0.03 X 0.03 X 0.03 Cm",https://www.indiamart.com/proddetail/ardo-bottle-set-3x1-box-23013665033.html?pos=124&kwd=feeding set&tags=||||8752.144|Price|product|||NA|rsf:gd-|-stype:attr=1|qr_nm:gd|res:RC3|com-cf:nl|ptrs:na|ktp:N0|mc:68319|mtp:S|qry_typ:P|lang:en|wc:2|cs:8842|v=4,Kinett,https://www.indiamart.com/kinett/?pos=124&kwd=feeding set&tags=||||8752.144|Price|product|||NA|rsf:gd-|-stype:attr=1|qr_nm:gd|res:RC3|com-cf:nl|ptrs:na|ktp:N0|mc:68319|mtp:S|qry_typ:P|lang:en|wc:2|cs:8842|v=4,False,Burari,New Delhi,"3223, Block B, Sant Nagar, Burari, New Delhi - 110084, Dist.Delhi, Delhi",8048608058,
Dr Browns Travel Fresh Divided Bowl and Soft-Tip Spoon Set with Travel Lid,https://www.indiamart.com/proddetail/dr-browns-travel-fresh-divided-bowl-and-soft-tip-spoon-set-with-travel-lid-2853337909855.html?pos=125&kwd=feeding set&tags=||||8752.144|Price|product|||NA|rsf:gd-|-stype:attr=1|qr_nm:gd|res:RC3|com-cf:nl|ptrs:na|ktp:N0|mc:68319|mtp:S|qry_typ:P|lang:en|wc:2|cs:8842|v=4,BD Impex,https://www.indiamart.com/company/2395482/?pos=125&kwd=feeding set&tags=||||8752.144|Price|product|||NA|rsf:gd-|-stype:attr=1|qr_nm:gd|res:RC3|com-cf:nl|ptrs:na|ktp:N0|mc:68319|mtp:S|qry_typ:P|lang:en|wc:2|cs:8842|v=4,False,,New Delhi,"The Moms Darling - Baby Shop 163, Kapil Vihar, Pitampura, New Delhi - 110034, Dist.Delhi, Delhi",,
Om Anvay Food Grade Silicone Non Slip Self Feeding Suction Food Bowl for Baby Toddler Kids,https://www.indiamart.com/proddetail/om-anvay-food-grade-silicone-non-slip-self-feeding-suction-food-bowl-for-baby-toddler-kids-2852920288288.html?pos=126&kwd=feeding set&tags=||||8230.883|Price|product|||NA|rsf:gd-|-stype:attr=1|qr_nm:gd|res:RC3|com-cf:nl|ptrs:na|ktp:N0|mc:68319|mtp:S|qry_typ:P|lang:en|wc:2|cs:8842|v=4,Om Anvay Enterprise,https://www.indiamart.com/om-anvay-enterprise/?pos=126&kwd=feeding set&tags=||||8230.883|Price|product|||NA|rsf:gd-|-stype:attr=1|qr_nm:gd|res:RC3|com-cf:nl|ptrs:na|ktp:N0|mc:68319|mtp:S|qry_typ:P|lang:en|wc:2|cs:8842|v=4,False,Katargam,Surat,"TPS-19,SY NO-248/2,271, LAKSHMI ENCLVE, GAJERA SCHOOL ROAD,KATARGAM,SURAT Lakshmi Enclave-1 Basement,395004,Surat, Katargam, Surat - 394150, Dist.Surat, Gujarat",8047662284,
Maxbell Set of 20PCS Pacifier Suspender Clips For Pacifier Holder Bib Clips Ribbon Craft Jewelry Findings 20MM Silver,https://www.indiamart.com/proddetail/maxbell-set-of-20pcs-pacifier-suspender-clips-for-pacifier-holder-bib-clips-ribbon-craft-jewelry-findings-20mm-silver-2851588711662.html?pos=127&kwd=feeding set&tags=||||8752.144|Price|product|||FCPE|rsf:gd-|-stype:attr=1|qr_nm:gd|res:RC3|com-cf:nl|ptrs:na|ktp:N0|mc:68319|mtp:S|qry_typ:P|lang:en|wc:2|cs:8842|v=4,Aladdin Shoppers,https://www.indiamart.com/aladdin-shoppers/?pos=127&kwd=feeding set&tags=||||8752.144|Price|product|||FCPE|rsf:gd-|-stype:attr=1|qr_nm:gd|res:RC3|com-cf:nl|ptrs:na|ktp:N0|mc:68319|mtp:S|qry_typ:P|lang:en|wc:2|cs:8842|v=4,False,,New Delhi,"1/5496-B, Gali No. 16, Balbir Nagar Extn, Shahdara, East Delhi, New Delhi - 110032, Dist.Delhi, Delhi",,
Feeding Baby Soother Nibbler Pacifier Teether,https://www.indiamart.com/proddetail/baby-soother-nibbler-pacifier-teether-2850225256512.html?pos=128&kwd=feeding set&tags=||||8752.144|Price|product|||NA|rsf:gd-|-stype:attr=1|qr_nm:gd|res:RC3|com-cf:nl|ptrs:na|ktp:N0|mc:68319|mtp:S|qry_typ:P|lang:en|wc:2|cs:8842|v=4,Gupta Creations,https://www.indiamart.com/guptacreations-134727805/?pos=128&kwd=feeding set&tags=||||8752.144|Price|product|||NA|rsf:gd-|-stype:attr=1|qr_nm:gd|res:RC3|com-cf:nl|ptrs:na|ktp:N0|mc:68319|mtp:S|qry_typ:P|lang:en|wc:2|cs:8842|v=4,False,Near Sport Sun,New Delhi,"B-977 Shastri Nagar New Delhi, Near Sport Sun, New Delhi - 110052, Dist.Delhi, Delhi",8069023939,192
Bloombaby PES Microwave Safe Light Glass Standard Neck Baby Feeding Bottle125 ml (White),https://www.indiamart.com/proddetail/bloombaby-pes-microwave-safe-light-glass-standard-neck-baby-feeding-bottle125-ml-white-21929803288.html?pos=129&kwd=feeding set&tags=||||8752.144|Price|product|||NA|rsf:gd-|-stype:attr=1|qr_nm:gd|res:RC3|com-cf:nl|ptrs:na|ktp:N0|mc:68319|mtp:S|qry_typ:P|lang:en|wc:2|cs:8842|v=4,Sushil Agencies,https://www.indiamart.com/sushil-agencies/?pos=129&kwd=feeding set&tags=||||8752.144|Price|product|||NA|rsf:gd-|-stype:attr=1|qr_nm:gd|res:RC3|com-cf:nl|ptrs:na|ktp:N0|mc:68319|mtp:S|qry_typ:P|lang:en|wc:2|cs:8842|v=4,False,Hari Nagar,New Delhi,"Sita Bhawan Be 339 B Street No 2 Hari Nagar, Hari Nagar, New Delhi - 110064, Dist.Delhi, Delhi",7949350493,
Silicone Baby Fruit Feeder,https://www.indiamart.com/proddetail/silicone-baby-fruit-feeder-26934416530.html?pos=130&kwd=feeding set&tags=||||8230.883|Price|product|||NA|rsf:gd-|-stype:attr=1|qr_nm:gd|res:RC3|com-cf:nl|ptrs:na|ktp:N0|mc:68319|mtp:S|qry_typ:P|lang:en|wc:2|cs:8842|v=4,Aarav International,https://www.indiamart.com/aaravinternational-surat/?pos=130&kwd=feeding set&tags=||||8230.883|Price|product|||NA|rsf:gd-|-stype:attr=1|qr_nm:gd|res:RC3|com-cf:nl|ptrs:na|ktp:N0|mc:68319|mtp:S|qry_typ:P|lang:en|wc:2|cs:8842|v=4,False,,Surat,"93, 3rd Floor, Nirman Industires, Opp. Samsan Bhumi, Fulpada Road, Surat - 395004, Dist.Surat, Gujarat",8048213902,
Silicone Fruit Shape Teether,https://www.indiamart.com/proddetail/silicone-fruit-shape-teether-2853706439888.html?pos=131&kwd=feeding set&tags=||||8785.791|Price|product|||NA|rsf:gd-|-stype:attr=1|qr_nm:gd|res:RC3|com-cf:nl|ptrs:na|ktp:N0|mc:68319|mtp:S|qry_typ:P|lang:en|wc:2|cs:8842|v=4,Mahakal Traders,https://www.indiamart.com/mahakaltradersghaziabad/?pos=131&kwd=feeding set&tags=||||8785.791|Price|product|||NA|rsf:gd-|-stype:attr=1|qr_nm:gd|res:RC3|com-cf:nl|ptrs:na|ktp:N0|mc:68319|mtp:S|qry_typ:P|lang:en|wc:2|cs:8842|v=4,False,Marium Nagar,Ghaziabad,"C 1152, Nandgram, Marium Nagar, Ghaziabad - 201003, Dist.Ghaziabad, Uttar Pradesh",7949373396,
"Silicone Baby Food and Fruit Feeder Cum Nibbler Two Feeder BPA Free, Hygenic Teether and Feeder",https://www.indiamart.com/proddetail/silicone-baby-food-and-fruit-feeder-cum-nibbler-two-feeder-bpa-free-hygenic-teether-and-feeder-2850562870948.html?pos=132&kwd=feeding set&tags=||||8752.144|Price|product|||NA|rsf:gd-|-stype:attr=1|qr_nm:gd|res:RC3|com-cf:nl|ptrs:na|ktp:N0|mc:68319|mtp:S|qry_typ:P|lang:en|wc:2|cs:8842|v=4,Arora Enterprises,https://www.indiamart.com/aroraenterprises-63320207/?pos=132&kwd=feeding set&tags=||||8752.144|Price|product|||NA|rsf:gd-|-stype:attr=1|qr_nm:gd|res:RC3|com-cf:nl|ptrs:na|ktp:N0|mc:68319|mtp:S|qry_typ:P|lang:en|wc:2|cs:8842|v=4,False,Krishna Nagar,New Delhi,"House No. 72, Old Anarkali, Krishna Nagar, Near Balaji Mandir, Krishna Nagar, New Delhi - 110051, Dist.Delhi, Delhi",8048371922,654
"Blue Minitree 270 ML Plastic Baby Feeding Bottle, Age Group: 3-12 Months",https://www.indiamart.com/proddetail/minitree-270-ml-plastic-baby-feeding-bottle-age-group-3-12-months-23949978873.html?pos=133&kwd=feeding set&tags=||||9110.092|Price|product|||NA|rsf:gd-|-stype:attr=1|qr_nm:gd|res:RC3|com-cf:nl|ptrs:na|ktp:N0|mc:68319|mtp:S|qry_typ:P|lang:en|wc:2|cs:8842|v=4,Newborn,https://www.indiamart.com/newborn/?pos=133&kwd=feeding set&tags=||||9110.092|Price|product|||NA|rsf:gd-|-stype:attr=1|qr_nm:gd|res:RC3|com-cf:nl|ptrs:na|ktp:N0|mc:68319|mtp:S|qry_typ:P|lang:en|wc:2|cs:8842|v=4,False,lucknow,Lucknow,"226/20 Nai Basti bhadwwan aishbagh, lucknow, Lucknow - 226004, Dist.Lucknow, Uttar Pradesh",8043830778,
White And Green Polypropylene Feeding Bottle 250ml,,Arrowin Health Care,https://www.indiamart.com/arrowin-healthcare/?pos=134&kwd=feeding set&tags=||||8275.938|Price|product|||NA|rsf:gd-|-stype:attr=1|qr_nm:gd|res:RC3|com-cf:nl|ptrs:na|ktp:N0|mc:68319|mtp:S|qry_typ:P|lang:en|wc:2|cs:8842|v=4,False,TA.Himatnagar,Himatnagar,"Milkat.No.51at.Pratappura Po.Jambudi, TA.Himatnagar, Himatnagar - 308001, Dist.Sabarkantha, Gujarat",8048372615,794
Baby Pacifier,https://www.indiamart.com/proddetail/baby-pacifier-2853974843848.html?pos=135&kwd=feeding set&tags=||||8752.144|Price|product|||NA|rsf:gd-|-stype:attr=1|qr_nm:gd|res:RC3|com-cf:nl|ptrs:na|ktp:N0|mc:68319|mtp:S|qry_typ:P|lang:en|wc:2|cs:8842|v=4,Darshan Globals,https://www.indiamart.com/darshan-globals/?pos=135&kwd=feeding set&tags=||||8752.144|Price|product|||NA|rsf:gd-|-stype:attr=1|qr_nm:gd|res:RC3|com-cf:nl|ptrs:na|ktp:N0|mc:68319|mtp:S|qry_typ:P|lang:en|wc:2|cs:8842|v=4,False,,New Delhi,"Kh No-32/17,18 & 19 Plot No-49 U/f/f Back Side, Abchal Nagar Part- 1 Nilothi Extension, New Delhi - 110041, Dist.Delhi, Delhi",8041014014,
"Multicolor Mix U Shaped Toothbrush for Baby, 1-2 Years",https://www.indiamart.com/proddetail/mix-u-shaped-toothbrush-for-baby-1-2-years-2850783424012.html?pos=136&kwd=feeding set&tags=||||8752.144|Price|product|||NA|rsf:gd-|-stype:attr=1|qr_nm:gd|res:RC3|com-cf:nl|ptrs:na|ktp:N0|mc:68319|mtp:S|qry_typ:P|lang:en|wc:2|cs:8842|v=4,Shri Enterprises,https://www.indiamart.com/shrienterprises-newdelhi/?pos=136&kwd=feeding set&tags=||||8752.144|Price|product|||NA|rsf:gd-|-stype:attr=1|qr_nm:gd|res:RC3|com-cf:nl|ptrs:na|ktp:N0|mc:68319|mtp:S|qry_typ:P|lang:en|wc:2|cs:8842|v=4,False,41 Foota Road West Sant Nagar 110084,New Delhi,"Shop No1 Kh.no.20/10 B Block- A-2 Ground Floor Himgiri Encalave, 41 Foota Road West Sant Nagar 110084, New Delhi - 110084, Dist.Delhi, Delhi",7942823693,
"Metal Stainless Steel Baby Feeding Bottle, Capacity: 250 mL",https://www.indiamart.com/proddetail/stainless-steel-baby-feeding-bottle-2854996871330.html?pos=137&kwd=feeding set&tags=||||8752.144|Price|product|||NA|rsf:gd-|-stype:attr=1|qr_nm:gd|res:RC3|com-cf:nl|ptrs:na|ktp:N0|mc:68319|mtp:S|qry_typ:P|lang:en|wc:2|cs:8842|v=4,Oriental Global,https://www.indiamart.com/company/107970244/?pos=137&kwd=feeding set&tags=||||8752.144|Price|product|||NA|rsf:gd-|-stype:attr=1|qr_nm:gd|res:RC3|com-cf:nl|ptrs:na|ktp:N0|mc:68319|mtp:S|qry_typ:P|lang:en|wc:2|cs:8842|v=4,False,,New Delhi,"1st Floor Hall, 66, Engineers Enclave, Pitampura, New Delhi - 110034, Dist.Delhi, Delhi",8048247104,3730
"Orange (Base) Emprouim Baby Spoon Feeder Bottle, 100 mL, Age Group: 3-12 Months",https://www.indiamart.com/proddetail/emprouim-baby-spoon-feeder-bottle-2852933322388.html?pos=138&kwd=feeding set&tags=||||8752.144|Price|product|||NA|rsf:gd-|-stype:attr=1|qr_nm:gd|res:RC3|com-cf:nl|ptrs:na|ktp:N0|mc:68319|mtp:S|qry_typ:P|lang:en|wc:2|cs:8842|v=4,S.K Enterprises,https://www.indiamart.com/skenterprises-maujpur/?pos=138&kwd=feeding set&tags=||||8752.144|Price|product|||NA|rsf:gd-|-stype:attr=1|qr_nm:gd|res:RC3|com-cf:nl|ptrs:na|ktp:N0|mc:68319|mtp:S|qry_typ:P|lang:en|wc:2|cs:8842|v=4,False,Maujpur,New Delhi,"First Floor, Old H.No. 83, Old Maujpur, Maujpur, North East Delhi, Maujpur, New Delhi - 110053, Dist.Delhi, Delhi",7942721855,
Light Green 90ml silicone Baby Feeding spoon Bottle,https://www.indiamart.com/proddetail/90ml-silicone-baby-feeding-spoon-bottle-2852419213488.html?pos=139&kwd=feeding set&tags=||||8734.695|Price|product|||NA|rsf:gd-|-stype:attr=1|qr_nm:gd|res:RC3|com-cf:nl|ptrs:na|ktp:N0|mc:68319|mtp:S|qry_typ:P|lang:en|wc:2|cs:8842|v=4,Shree RK Enterprise,https://www.indiamart.com/shreerk-enterprise/?pos=139&kwd=feeding set&tags=||||8734.695|Price|product|||NA|rsf:gd-|-stype:attr=1|qr_nm:gd|res:RC3|com-cf:nl|ptrs:na|ktp:N0|mc:68319|mtp:S|qry_typ:P|lang:en|wc:2|cs:8842|v=4,False,,Bahadurgarh,"Second Floor, 644, Ward No 8, Shastri Nagar, Line Par, Bahadurgarh, Bahadurgarh - 124507, Dist.Jhajjar, Haryana",7942564104,
Baby Soother,,Shiv Dayal Gupta & Sons,https://www.indiamart.com/shiv-dayal-gupta-sons/?pos=140&kwd=feeding set&tags=||||9045.955|Price|product|||NA|rsf:gd-|-stype:attr=1|qr_nm:gd|res:RC3|com-cf:nl|ptrs:na|ktp:N0|mc:68319|mtp:S|qry_typ:P|lang:en|wc:2|cs:8842|v=4,False,Kanpur,Kanpur,"81/63, Coolie Bazar, Dhankutti 81/63 subzi mandi, Kanpur, Kanpur - 208001, Uttar Pradesh",7949369685,
Baby Fruit Feeder Nipple Pacifier Nibbler,https://www.indiamart.com/proddetail/baby-fruit-feeder-nipple-pacifier-nibbler-2854975696888.html?pos=141&kwd=feeding set&tags=||||8752.144|Price|product|||NA|rsf:gd-|-stype:attr=1|qr_nm:gd|res:RC3|com-cf:nl|ptrs:na|ktp:N0|mc:68319|mtp:S|qry_typ:P|lang:en|wc:2|cs:8842|v=4,Virenika Industries,https://www.indiamart.com/virenika-industries/?pos=141&kwd=feeding set&tags=||||8752.144|Price|product|||NA|rsf:gd-|-stype:attr=1|qr_nm:gd|res:RC3|com-cf:nl|ptrs:na|ktp:N0|mc:68319|mtp:S|qry_typ:P|lang:en|wc:2|cs:8842|v=4,False,,New Delhi,"A-61, indirapark , masudabad , najafgarh najafgarh, New Delhi - 110053, Dist.Delhi, Delhi",8047662058,
Kids Plastic Doctor Toy Kit,https://www.indiamart.com/proddetail/kids-plastic-doctor-toy-kit-2851570974591.html?pos=142&kwd=feeding set&tags=||||8954.051|Price|product|||NA|rsf:gd-|-stype:attr=1|qr_nm:gd|res:RC3|com-cf:nl|ptrs:na|ktp:N0|mc:68319|mtp:S|qry_typ:P|lang:en|wc:2|cs:8842|v=4,Ramdev Impex,https://www.indiamart.com/ramdev-impex-chennai/?pos=142&kwd=feeding set&tags=||||8954.051|Price|product|||NA|rsf:gd-|-stype:attr=1|qr_nm:gd|res:RC3|com-cf:nl|ptrs:na|ktp:N0|mc:68319|mtp:S|qry_typ:P|lang:en|wc:2|cs:8842|v=4,False,Sowcarpet,Chennai,"25 NEW NO 51,NA,NARAYANA MUDALI STREET,, Sowcarpet, Chennai - 600079, Dist.Chennai, Tamil Nadu",8047812326,
"Plastic Silicone Baby Fruit Feeder, Capacity: 50 mL, 3MONTH -2YEAR",https://www.indiamart.com/proddetail/silicone-baby-fruit-feeder-2852977067797.html?pos=143&kwd=feeding set&tags=||||8752.144|Price|product|||NA|rsf:gd-|-stype:attr=1|qr_nm:gd|res:RC3|com-cf:nl|ptrs:na|ktp:N0|mc:68319|mtp:S|qry_typ:P|lang:en|wc:2|cs:8842|v=4,Gagan Traders,https://www.indiamart.com/gagantraders-142649743/?pos=143&kwd=feeding set&tags=||||8752.144|Price|product|||NA|rsf:gd-|-stype:attr=1|qr_nm:gd|res:RC3|com-cf:nl|ptrs:na|ktp:N0|mc:68319|mtp:S|qry_typ:P|lang:en|wc:2|cs:8842|v=4,False,CHANDAR NAGAR,New Delhi,"S/F 25/1 Chander Nagar Silver Park SILVER PARK, CHANDAR NAGAR, New Delhi - 110051, Dist.Delhi, Delhi",8047311007,7318
Clubindia The Fruit Pacifier For Newborn Babies,https://www.indiamart.com/proddetail/clubindia-the-fruit-pacifier-for-newborn-babies-22192711530.html?pos=144&kwd=feeding set&tags=||||8047.7524|Price|product|||NA|rsf:gd-|-stype:attr=1|qr_nm:gd|res:RC3|com-cf:nl|ptrs:na|ktp:N0|mc:68319|mtp:S|qry_typ:P|lang:en|wc:2|cs:8842|v=4,Club India,https://www.indiamart.com/club-india/?pos=144&kwd=feeding set&tags=||||8047.7524|Price|product|||NA|rsf:gd-|-stype:attr=1|qr_nm:gd|res:RC3|com-cf:nl|ptrs:na|ktp:N0|mc:68319|mtp:S|qry_typ:P|lang:en|wc:2|cs:8842|v=4,False,,Morbi,"Street No. 4, 153, Alif, Avenue Park, Ravapar Road, Morbi - 363641, Dist.Rajkot, Gujarat",8047666187,
"Happy Yellow And White Baby Plastic Sipper Cup, Packaging Type: Pack, Newly Born",https://www.indiamart.com/proddetail/baby-plastic-sipper-cup-2850162861855.html?pos=145&kwd=feeding set&tags=||||8331.224|Price|product|||NA|rsf:gd-|-stype:attr=1|qr_nm:gd|res:RC3|com-cf:nl|ptrs:na|ktp:N0|mc:68319|mtp:S|qry_typ:P|lang:en|wc:2|cs:8842|v=4,Minakshi Garments,https://www.indiamart.com/minakshi-garments-kolhapur/?pos=145&kwd=feeding set&tags=||||8331.224|Price|product|||NA|rsf:gd-|-stype:attr=1|qr_nm:gd|res:RC3|com-cf:nl|ptrs:na|ktp:N0|mc:68319|mtp:S|qry_typ:P|lang:en|wc:2|cs:8842|v=4,False,Tarabai Park,Kolhapur,"Gala No 14 B Parvati Plaza, Main Market Road Swastik Market, Gandhinagar, Tarabai Park, Kolhapur - 416119, Dist.Kolhapur, Maharashtra",7942670858,
"Plastic White 250ml Baby Feeding Bottle, Age Group: Newly Born",https://www.indiamart.com/proddetail/250ml-baby-feeding-bottle-2853995365048.html?pos=146&kwd=feeding set&tags=||||8234.203|Price|product|||NA|rsf:gd-|-stype:attr=1|qr_nm:gd|res:RC3|com-cf:nl|ptrs:na|ktp:N0|mc:68319|mtp:S|qry_typ:P|lang:en|wc:2|cs:8842|v=4,Inspire Hype,https://www.indiamart.com/inspirehype/?pos=146&kwd=feeding set&tags=||||8234.203|Price|product|||NA|rsf:gd-|-stype:attr=1|qr_nm:gd|res:RC3|com-cf:nl|ptrs:na|ktp:N0|mc:68319|mtp:S|qry_typ:P|lang:en|wc:2|cs:8842|v=4,False,Denap,Visnagar,"4-B, C H Complex, Denap Tran Rasta Mahesana, Denap, Visnagar - 384315, Dist.Mehsana, Gujarat",7949224033,
"Baby Feeding Bottle, Age Group: 0 - 12 Months, Capacity: 150ml / 250 Ml",https://www.indiamart.com/proddetail/baby-feeding-bottle-21587295688.html?pos=147&kwd=feeding set&tags=||||9421.978|Price|product|||NA|rsf:gd-|-stype:attr=1|qr_nm:gd|res:RC3|com-cf:nl|ptrs:na|ktp:N0|mc:68319|mtp:S|qry_typ:P|lang:en|wc:2|cs:8842|v=4,Khushbu Enterprises,https://www.indiamart.com/khushbu-enterprises-dehri/?pos=147&kwd=feeding set&tags=||||9421.978|Price|product|||NA|rsf:gd-|-stype:attr=1|qr_nm:gd|res:RC3|com-cf:nl|ptrs:na|ktp:N0|mc:68319|mtp:S|qry_typ:P|lang:en|wc:2|cs:8842|v=4,False,Adarsh Nagar,Dehri,"Mohan Bigha Market, Adarsh Nagar, Dehri - 821307, Dist.Rohtas, Bihar",8062245002,556
Baby Feeding Bottle,https://www.indiamart.com/proddetail/baby-feeding-bottle-15351719688.html?pos=148&kwd=feeding set&tags=||||8752.144|Price|product|||NA|rsf:gd-|-stype:attr=1|qr_nm:gd|res:RC3|com-cf:nl|ptrs:na|ktp:N0|mc:68319|mtp:S|qry_typ:P|lang:en|wc:2|cs:8842|v=4,Radhey Shyam Raj Kumar,https://www.indiamart.com/radhey-shyam-raj-kumar/?pos=148&kwd=feeding set&tags=||||8752.144|Price|product|||NA|rsf:gd-|-stype:attr=1|qr_nm:gd|res:RC3|com-cf:nl|ptrs:na|ktp:N0|mc:68319|mtp:S|qry_typ:P|lang:en|wc:2|cs:8842|v=4,False,,New Delhi,"62 A, Gali Tolia Wali, Sadar Bazar, New Delhi - 110006, Dist.Delhi, Delhi",8048247118,9971
Silicone Baby Soother,https://www.indiamart.com/proddetail/silicone-baby-soother-2854778191930.html?pos=149&kwd=feeding set&tags=||||8307.81|Price|product|||NA|rsf:gd-|-stype:attr=1|qr_nm:gd|res:RC3|com-cf:nl|ptrs:na|ktp:N0|mc:68319|mtp:S|qry_typ:P|lang:en|wc:2|cs:8842|v=4,Afifa Life Science,https://www.indiamart.com/afifa-life-science-pune/?pos=149&kwd=feeding set&tags=||||8307.81|Price|product|||NA|rsf:gd-|-stype:attr=1|qr_nm:gd|res:RC3|com-cf:nl|ptrs:na|ktp:N0|mc:68319|mtp:S|qry_typ:P|lang:en|wc:2|cs:8842|v=4,False,,Pune,"S. No. 53/8/1, Kalepadal, Opp. Havale Engineering, Hadapsar,, Pune - 411028, Dist.Pune, Maharashtra",8069051319,314
"White Baby Fruit Nipple, Newly Born,Baby Fruit Feeder, Teether",https://www.indiamart.com/proddetail/baby-fruit-nipple-newly-born-baby-fruit-feeder-teether-2851481994588.html?pos=150&kwd=feeding set&tags=||||8752.144|Price|product|||NA|rsf:gd-|-stype:attr=1|qr_nm:gd|res:RC3|com-cf:nl|ptrs:na|ktp:N0|mc:68319|mtp:S|qry_typ:P|lang:en|wc:2|cs:8842|v=4,PKLO,https://www.indiamart.com/pklo/?pos=150&kwd=feeding set&tags=||||8752.144|Price|product|||NA|rsf:gd-|-stype:attr=1|qr_nm:gd|res:RC3|com-cf:nl|ptrs:na|ktp:N0|mc:68319|mtp:S|qry_typ:P|lang:en|wc:2|cs:8842|v=4,False,,New Delhi,"Second Floor, R.Z.B-35, Gurudwara Road Mahavir Enclave, Palam,, New Delhi - 110045, Dist.Delhi, Delhi",7942834919,
Baby Feeding Bottle,https://www.indiamart.com/proddetail/baby-feeding-bottle-23968046673.html?pos=151&kwd=feeding set&tags=||||8752.144|Price|product|||NA|rsf:gd-|-stype:attr=1|qr_nm:gd|res:RC3|com-cf:nl|ptrs:na|ktp:N0|mc:68319|mtp:S|qry_typ:P|lang:en|wc:2|cs:8842|v=4,SG Enterprises,https://www.indiamart.com/sgenterprises-97037139/?pos=151&kwd=feeding set&tags=||||8752.144|Price|product|||NA|rsf:gd-|-stype:attr=1|qr_nm:gd|res:RC3|com-cf:nl|ptrs:na|ktp:N0|mc:68319|mtp:S|qry_typ:P|lang:en|wc:2|cs:8842|v=4,False,delhi,New Delhi,"H.no. 981 Mangolpuri Block-b, delhi, New Delhi - 110083, Dist.Delhi, Delhi",8047678782,
"Baby Fruit Nibbler Pacifier Nipple, 50 gm",https://www.indiamart.com/proddetail/baby-fruit-nibbler-pacifier-nipple-2850888774388.html?pos=152&kwd=feeding set&tags=||||8319.425|Price|product|||NA|rsf:gd-|-stype:attr=1|qr_nm:gd|res:RC3|com-cf:nl|ptrs:na|ktp:N0|mc:68319|mtp:S|qry_typ:P|lang:en|wc:2|cs:8842|v=4,Saga Commercial,https://www.indiamart.com/amit-lightings/?pos=152&kwd=feeding set&tags=||||8319.425|Price|product|||NA|rsf:gd-|-stype:attr=1|qr_nm:gd|res:RC3|com-cf:nl|ptrs:na|ktp:N0|mc:68319|mtp:S|qry_typ:P|lang:en|wc:2|cs:8842|v=4,False,Nandri,Jodhpur,"Kh -107 P 93 Nandari Nandra Kalla Mandore Ramdev Nagar, Nandri, Jodhpur - 342027, Dist.Jodhpur, Rajasthan",8069196748,109
Baby Milk Powder Container,https://www.indiamart.com/proddetail/baby-milk-powder-container-2852740931597.html?pos=153&kwd=feeding set&tags=||||8211.142|Price|product|||NA|rsf:gd-|-stype:attr=1|qr_nm:gd|res:RC3|com-cf:nl|ptrs:na|ktp:N0|mc:68319|mtp:S|qry_typ:P|lang:en|wc:2|cs:8842|v=4,Baby House,https://www.indiamart.com/babyhouse/?pos=153&kwd=feeding set&tags=||||8211.142|Price|product|||NA|rsf:gd-|-stype:attr=1|qr_nm:gd|res:RC3|com-cf:nl|ptrs:na|ktp:N0|mc:68319|mtp:S|qry_typ:P|lang:en|wc:2|cs:8842|v=4,False,Kalbadevi,Mumbai,"Baby House Ist Floor 214/216 Nag Devi Street, Kalbadevi, Mumbai - 400002, Dist.Mumbai, Maharashtra",7942714120,
Baby Care Pacifiers,https://www.indiamart.com/proddetail/baby-care-pacifiers-2175487012.html?pos=154&kwd=feeding set&tags=||||8228.275|Price|product|||NA|rsf:gd-|-stype:attr=1|qr_nm:gd|res:RC3|com-cf:nl|ptrs:na|ktp:N0|mc:68319|mtp:S|qry_typ:P|lang:en|wc:2|cs:8842|v=4,Motiba Silicone Private Limited,https://www.indiamart.com/motibasilicone/?pos=154&kwd=feeding set&tags=||||8228.275|Price|product|||NA|rsf:gd-|-stype:attr=1|qr_nm:gd|res:RC3|com-cf:nl|ptrs:na|ktp:N0|mc:68319|mtp:S|qry_typ:P|lang:en|wc:2|cs:8842|v=4,False,Bhandup West,Ahmedabad,"Ground Floor,Plot, No. 1a Survey, No.139-140 Paiki Behind, Divya Bhaskar Press Off, Ahmedabad Rajkot Highway, Chacharwadi Vasna, Taluka Sanand, Bhandup West, Ahmedabad - 382213, Dist.Ahmedabad, Gujarat",8047631391,
"Silver Metal Stainless Steel Baby Feeding Bottle, Design/Pattern: Round, Capacity: 200 mL",https://www.indiamart.com/proddetail/stainless-steel-baby-feeding-bottle-2853236379288.html?pos=155&kwd=feeding set&tags=||||8211.142|Price|proxy|||TS|rsf:gd-|-stype:attr=1|qr_nm:gd|res:RC3|com-cf:nl|ptrs:na|ktp:N0|mc:68319|mtp:S|qry_typ:P|lang:en|wc:2|cs:8842|v=4,Stallion Enterprise,https://www.stallionenterprise.com/?pos=155&kwd=feeding set&tags=||||8211.142|Price|proxy|||TS|rsf:gd-|-stype:attr=1|qr_nm:gd|res:RC3|com-cf:nl|ptrs:na|ktp:N0|mc:68319|mtp:S|qry_typ:P|lang:en|wc:2|cs:8842|v=4,False,Kandivali West,Mumbai,"Plot No. 136- ABC, Kandivali Government Industrial Estate Charkop, Kandivali West, Mumbai - 400067, Dist.Mumbai, Maharashtra",8048983208,
"White Metal Stainless Steel Feeding Bottle, Capacity: 200 mL, Baby",https://www.indiamart.com/proddetail/stainless-steel-feeding-bottle-2853433643797.html?pos=156&kwd=feeding set&tags=||||9301.656|Price|proxy|||MDC|rsf:gd-|-stype:attr=1|qr_nm:gd|res:RC3|com-cf:nl|ptrs:na|ktp:N0|mc:68319|mtp:S|qry_typ:P|lang:en|wc:2|cs:8842|v=4,Suraj Stainless Steel,https://www.indiamart.com/surajstainlesssteel/?pos=156&kwd=feeding set&tags=||||9301.656|Price|proxy|||MDC|rsf:gd-|-stype:attr=1|qr_nm:gd|res:RC3|com-cf:nl|ptrs:na|ktp:N0|mc:68319|mtp:S|qry_typ:P|lang:en|wc:2|cs:8842|v=4,False,Sidhgiribagh,Varanasi,"D-60/15A,Chotti Gaivi, Sidhgiribagh, Sidhgiribagh, Varanasi - 221001, Dist.Varanasi, Uttar Pradesh",8043884935,
Material: Stainless Steel Baby Feeder / Paladi / Bondla,https://www.indiamart.com/proddetail/baby-feeder-paladi-bondla-2853350678930.html?pos=157&kwd=feeding set&tags=||||8223.226|Price|proxy|||TS|rsf:gd-|-stype:attr=1|qr_nm:gd|res:RC3|com-cf:nl|ptrs:na|ktp:N0|mc:68319|mtp:S|qry_typ:P|lang:en|wc:2|cs:8842|v=4,Manek Metals,https://www.manekmetals.com/?pos=157&kwd=feeding set&tags=||||8223.226|Price|proxy|||TS|rsf:gd-|-stype:attr=1|qr_nm:gd|res:RC3|com-cf:nl|ptrs:na|ktp:N0|mc:68319|mtp:S|qry_typ:P|lang:en|wc:2|cs:8842|v=4,False,Jacob Circle,Thane,"Collage Road, Vakdun Goan, Taluka Dhanu, Jacob Circle, Thane - 401602, Dist.Thane, Maharashtra",7942534574,
Feeding Bottles,https://www.indiamart.com/proddetail/feeding-bottles-5354821412.html?pos=158&kwd=feeding set&tags=||||8211.142||product|||NA|rsf:gd-|-stype:attr=1|qr_nm:gd|res:RC3|com-cf:nl|ptrs:na|ktp:N0|mc:68319|mtp:S|qry_typ:P|lang:en|wc:2|cs:8842|v=4,The Hind Bottle Stores,https://www.indiamart.com/the-hind-bottle-stores/?pos=158&kwd=feeding set&tags=||||8211.142||product|||NA|rsf:gd-|-stype:attr=1|qr_nm:gd|res:RC3|com-cf:nl|ptrs:na|ktp:N0|mc:68319|mtp:S|qry_typ:P|lang:en|wc:2|cs:8842|v=4,False,,Mumbai,"No. 127, Sheriff Devji, Chakla Street, Mumbai - 400003, Dist.Mumbai, Maharashtra",8047683027,
Bonne Baby Feeding Bottle,,Ansh International Trading,https://www.indiamart.com/ansh-international-trading/?pos=159&kwd=feeding set&tags=||||9444.79|Price|product|||NA|rsf:gd-|-stype:attr=1|qr_nm:gd|res:RC3|com-cf:nl|ptrs:na|ktp:N0|mc:68319|mtp:S|qry_typ:P|lang:en|wc:2|cs:8842|v=4,False,Siwan,Siwan,"0,0, 0, GAUSHALA ROAD,BADHARIYA STAND CHAKIYA MORE Siwan gaushala road,841227,Siwan, Siwan, Siwan - 841226, Dist.Siwan, Bihar",8048372022,612
Baby Feeding Bottles,https://www.indiamart.com/proddetail/baby-feeding-bottles-5605671530.html?pos=160&kwd=feeding set&tags=||||8211.142||product|||NA|rsf:gd-|-stype:attr=1|qr_nm:gd|res:RC3|com-cf:nl|ptrs:na|ktp:N0|mc:68319|mtp:S|qry_typ:P|lang:en|wc:2|cs:8842|v=4,Chemco Plastic Industries Private Limited,https://www.indiamart.com/chemco-plastic-industries-private-limited-mumbai/?pos=160&kwd=feeding set&tags=||||8211.142||product|||NA|rsf:gd-|-stype:attr=1|qr_nm:gd|res:RC3|com-cf:nl|ptrs:na|ktp:N0|mc:68319|mtp:S|qry_typ:P|lang:en|wc:2|cs:8842|v=4,False,Goregaon East,Mumbai,"No. 78, Virvani Industrial Estate, Western Express Highway, Goregaon East, Mumbai - 400063, Dist.Mumbai, Maharashtra",8062245067,486
"Plastic White Kid Feeding Bottle, 100 mL, Age Group: Newly Born",https://www.indiamart.com/proddetail/kid-feeding-bottle-2852112423662.html?pos=161&kwd=feeding set&tags=||||8752.144|Price|product|||NA|rsf:gd-|-stype:attr=1|qr_nm:gd|res:RC3|com-cf:nl|ptrs:na|ktp:N0|mc:68319|mtp:S|qry_typ:P|lang:en|wc:2|cs:8842|v=4,Jee Hosiery Factory,https://www.indiamart.com/jee-hosiery-factory/?pos=161&kwd=feeding set&tags=||||8752.144|Price|product|||NA|rsf:gd-|-stype:attr=1|qr_nm:gd|res:RC3|com-cf:nl|ptrs:na|ktp:N0|mc:68319|mtp:S|qry_typ:P|lang:en|wc:2|cs:8842|v=4,False,,New Delhi,"L 134 Shastri Nagar North West, New Delhi - 110052, Dist.Delhi, Delhi",8047311004,3293
Baby Feeding Bottle,https://www.indiamart.com/proddetail/baby-feeding-bottle-2849306481633.html?pos=162&kwd=feeding set&tags=||||8954.051||product|||NA|rsf:gd-|-stype:attr=1|qr_nm:gd|res:RC3|com-cf:nl|ptrs:na|ktp:N0|mc:68319|mtp:S|qry_typ:P|lang:en|wc:2|cs:8842|v=4,Swastik Marketing,https://www.indiamart.com/swastikmarketingchennai/?pos=162&kwd=feeding set&tags=||||8954.051||product|||NA|rsf:gd-|-stype:attr=1|qr_nm:gd|res:RC3|com-cf:nl|ptrs:na|ktp:N0|mc:68319|mtp:S|qry_typ:P|lang:en|wc:2|cs:8842|v=4,False,,Chennai,"52,,GOVINDAPPA NAICKEN STREET,CHENNAI 52 Govindappa Naicken Street Chennai,600001,, Chennai - 600001, Dist.Chennai, Tamil Nadu",8043825466,
Green And Clear Kiana Natural Feeding Bottle,https://www.indiamart.com/proddetail/kiana-natural-feeding-bottle-20219203297.html?pos=163&kwd=feeding set&tags=||||8752.144|Price|product|||NA|rsf:gd-|-stype:attr=1|qr_nm:gd|res:RC3|com-cf:nl|ptrs:na|ktp:N0|mc:68319|mtp:S|qry_typ:P|lang:en|wc:2|cs:8842|v=4,Care Venture Llp,https://www.indiamart.com/care-venture-llp/?pos=163&kwd=feeding set&tags=||||8752.144|Price|product|||NA|rsf:gd-|-stype:attr=1|qr_nm:gd|res:RC3|com-cf:nl|ptrs:na|ktp:N0|mc:68319|mtp:S|qry_typ:P|lang:en|wc:2|cs:8842|v=4,False,,New Delhi,"C-77, First Floor, Okhla Phase 1, Okhla Industrial Area, Dda Shed, New Delhi - 110020, Dist.Delhi, Delhi",8048372834,199
"Bonne Blue And White 125ml Kid Fresh Comfort Feeding Bottle, Packaging Type: Box, Newly Born",https://www.indiamart.com/proddetail/125ml-kid-fresh-comfort-feeding-bottle-2850518970397.html?pos=164&kwd=feeding set&tags=||||8559.269|Price|product|||NA|rsf:gd-|-stype:attr=1|qr_nm:gd|res:RC3|com-cf:nl|ptrs:na|ktp:N0|mc:68319|mtp:S|qry_typ:P|lang:en|wc:2|cs:8842|v=4,Prayas Enterprises,https://www.indiamart.com/prayasenterprises-madhyapradesh/?pos=164&kwd=feeding set&tags=||||8559.269|Price|product|||NA|rsf:gd-|-stype:attr=1|qr_nm:gd|res:RC3|com-cf:nl|ptrs:na|ktp:N0|mc:68319|mtp:S|qry_typ:P|lang:en|wc:2|cs:8842|v=4,False,,Indore,"13-14,Shop No 101,RNT Marg,Third Floor,Dawa Bajar, Indore - 452001, Dist.Indore, Madhya Pradesh",7942662592,
"Silver Stainless Steel Baby Feeding Bottle, Design/Pattern: Plain, Capacity: 240 Ml And 500 Ml",https://www.indiamart.com/proddetail/stainless-steel-baby-feeding-bottle-22978124888.html?pos=165&kwd=feeding set&tags=||||8915.672|Price|product|||NA|rsf:gd-|-stype:attr=1|qr_nm:gd|res:RC3|com-cf:nl|ptrs:na|ktp:N0|mc:68319|mtp:S|qry_typ:P|lang:en|wc:2|cs:8842|v=4,Parvez Handicrafts,https://www.indiamart.com/parvez-handicrafts/?pos=165&kwd=feeding set&tags=||||8915.672|Price|product|||NA|rsf:gd-|-stype:attr=1|qr_nm:gd|res:RC3|com-cf:nl|ptrs:na|ktp:N0|mc:68319|mtp:S|qry_typ:P|lang:en|wc:2|cs:8842|v=4,False,Katghar Pachpedh,Moradabad,"katghar, Katghar Pachpedh, Moradabad - 244001, Dist.Moradabad, Uttar Pradesh",8048208119,
Stainless steel baby feeding bottle,https://www.indiamart.com/proddetail/stainless-steel-baby-feeding-bottle-21950795530.html?pos=166&kwd=feeding set&tags=||||8752.144|Price|product|||NA|rsf:gd-|-stype:attr=1|qr_nm:gd|res:RC3|com-cf:nl|ptrs:na|ktp:N0|mc:68319|mtp:S|qry_typ:P|lang:en|wc:2|cs:8842|v=4,Jain Traders,https://www.indiamart.com/jain-tradersindia/?pos=166&kwd=feeding set&tags=||||8752.144|Price|product|||NA|rsf:gd-|-stype:attr=1|qr_nm:gd|res:RC3|com-cf:nl|ptrs:na|ktp:N0|mc:68319|mtp:S|qry_typ:P|lang:en|wc:2|cs:8842|v=4,False,,New Delhi,"26/4782, Deputy Ganj, Sadar Bazar, New Delhi - 110006, Dist.Delhi, Delhi",8047640499,
Baby Water Bottle Sipper & Feeding Bottle With Spoon Straw Baby Training Sipper,https://www.indiamart.com/proddetail/baby-water-bottle-sipper-feeding-bottle-with-spoon-straw-baby-training-sipper-20838700091.html?pos=167&kwd=feeding set&tags=||||8663.873|Price|product|||NA|rsf:gd-|-stype:attr=1|qr_nm:gd|res:RC3|com-cf:nl|ptrs:na|ktp:N0|mc:68319|mtp:S|qry_typ:P|lang:en|wc:2|cs:8842|v=4,M.M. Marketing,https://www.indiamart.com/m-mmarketing/?pos=167&kwd=feeding set&tags=||||8663.873|Price|product|||NA|rsf:gd-|-stype:attr=1|qr_nm:gd|res:RC3|com-cf:nl|ptrs:na|ktp:N0|mc:68319|mtp:S|qry_typ:P|lang:en|wc:2|cs:8842|v=4,False,Chickpet,Bengaluru,"No. 17, 1st Floor, 12th Cross, Cubbonpet, Chickpet, Bengaluru - 560002, Dist.Bengaluru, Karnataka",8047677597,
Blue Seven In One Feeding Series For Little King,https://www.indiamart.com/proddetail/blue-seven-in-one-feeding-series-for-little-king-13839966588.html?pos=168&kwd=feeding set&tags=||||8752.144||product|||NA|rsf:gd-|-stype:attr=1|qr_nm:gd|res:RC3|com-cf:nl|ptrs:na|ktp:N0|mc:68319|mtp:S|qry_typ:P|lang:en|wc:2|cs:8842|v=4,Babies Bloom Store,https://www.indiamart.com/babies-bloom-store/?pos=168&kwd=feeding set&tags=||||8752.144||product|||NA|rsf:gd-|-stype:attr=1|qr_nm:gd|res:RC3|com-cf:nl|ptrs:na|ktp:N0|mc:68319|mtp:S|qry_typ:P|lang:en|wc:2|cs:8842|v=4,False,Paschim Vihar,New Delhi,"IST FLOOR,670,GH-14,,PASCHIM VIHAR,,,, Paschim Vihar, New Delhi - 110087, Dist.Delhi, Delhi",8062245014,210
"Plastic Smart Angel Japan Wide Neck Baby Feeding Bottle, Pack Of 3, 250ml Each, Age Group: 3-12 Months",https://www.indiamart.com/proddetail/smart-angel-japan-wide-neck-baby-feeding-bottle-pack-of-3-250ml-each-2850920084873.html?pos=169&kwd=feeding set&tags=||||8211.001|Price|product|||NA|rsf:gd-|-stype:attr=1|qr_nm:gd|res:RC3|com-cf:nl|ptrs:na|ktp:N0|mc:68319|mtp:S|qry_typ:P|lang:en|wc:2|cs:8842|v=4,Aaaaa Trade India Private Limited,https://www.indiamart.com/aaaaa-trade-india-private-limited/?pos=169&kwd=feeding set&tags=||||8211.001|Price|product|||NA|rsf:gd-|-stype:attr=1|qr_nm:gd|res:RC3|com-cf:nl|ptrs:na|ktp:N0|mc:68319|mtp:S|qry_typ:P|lang:en|wc:2|cs:8842|v=4,False,Oshiwara Industry Goregaon,Goregaon,"2nd floor 267 New Link Road Oshiwara Indust Estate Mumbai City, Oshiwara Industry Goregaon, Goregaon - 400104, Dist.Mumbai, Maharashtra",8048372537,890
"Metal Stainless Steel Baby Feeding Bottle, Capacity: 200 mL, 1-2 Years",https://www.indiamart.com/proddetail/stainless-steel-baby-feeding-bottle-2851671746073.html?pos=170&kwd=feeding set&tags=||||8915.672|Price|product|||NA|rsf:gd-|-stype:attr=1|qr_nm:gd|res:RC3|com-cf:nl|ptrs:na|ktp:N0|mc:68319|mtp:S|qry_typ:P|lang:en|wc:2|cs:8842|v=4,Nxtgenexports,https://www.indiamart.com/nextgenexports/?pos=170&kwd=feeding set&tags=||||8915.672|Price|product|||NA|rsf:gd-|-stype:attr=1|qr_nm:gd|res:RC3|com-cf:nl|ptrs:na|ktp:N0|mc:68319|mtp:S|qry_typ:P|lang:en|wc:2|cs:8842|v=4,False,,Moradabad,"0,Asim Bihari Road,Near Asim Bihari School,Udpura,Moradabad,Moradabad 0,Asim Bihari Road,Near Asim Bihari School,Udpura,Moradabad,Moradabad, Moradabad - 244001, Dist.Moradabad, Uttar Pradesh",8062270233,999
"Huf & Nuf Blue Color Silicon Food Feeder Bottle, Capacity: 90 ml, Size: 27x9x9 cm",https://www.indiamart.com/proddetail/huf-nuf-blue-color-silicon-food-feeder-bottle-25690374891.html?pos=171&kwd=feeding set&tags=||||8752.144|Price|product|||NA|rsf:gd-|-stype:attr=1|qr_nm:gd|res:RC3|com-cf:nl|ptrs:na|ktp:N0|mc:68319|mtp:S|qry_typ:P|lang:en|wc:2|cs:8842|v=4,AWNIB Consultants,https://www.indiamart.com/awnibconsultants/?pos=171&kwd=feeding set&tags=||||8752.144|Price|product|||NA|rsf:gd-|-stype:attr=1|qr_nm:gd|res:RC3|com-cf:nl|ptrs:na|ktp:N0|mc:68319|mtp:S|qry_typ:P|lang:en|wc:2|cs:8842|v=4,False,,New Delhi,"175D, 3rd Floor, Block AG-1, Vikaspuri, West Delhi, New Delhi - 110018, Dist.Delhi, Delhi",8047654774,
"Legit White Baby Food Maker, For Personal, Size: 225x178x210mm",https://www.indiamart.com/proddetail/baby-food-maker-23056687830.html?pos=172&kwd=feeding set&tags=||||8661.854|Price|product|||NA|rsf:gd-|-stype:attr=1|qr_nm:gd|res:RC3|com-cf:nl|ptrs:na|ktp:N0|mc:68319|mtp:S|qry_typ:P|lang:en|wc:2|cs:8842|v=4,Legit Appliances And Electronics Private Limited,https://www.indiamart.com/legit-appliances-andelectronics/?pos=172&kwd=feeding set&tags=||||8661.854|Price|product|||NA|rsf:gd-|-stype:attr=1|qr_nm:gd|res:RC3|com-cf:nl|ptrs:na|ktp:N0|mc:68319|mtp:S|qry_typ:P|lang:en|wc:2|cs:8842|v=4,False,G.T. Road,Ludhiana,"BXXX-57, Opp Hero Cycle, G.T. Road, G.T. Road, Ludhiana - 141010, Dist.Ludhiana, Punjab",8048985866,
Nipple Plastic Bottle,https://www.indiamart.com/proddetail/nipple-plastic-bottle-10672996173.html?pos=173&kwd=feeding set&tags=||||8752.144||product|||NA|rsf:gd-|-stype:attr=1|qr_nm:gd|res:RC3|com-cf:nl|ptrs:na|ktp:N0|mc:68319|mtp:S|qry_typ:P|lang:en|wc:2|cs:8842|v=4,Yadav Enterprises,https://www.indiamart.com/yadav-enterprises-newdelhi/?pos=173&kwd=feeding set&tags=||||8752.144||product|||NA|rsf:gd-|-stype:attr=1|qr_nm:gd|res:RC3|com-cf:nl|ptrs:na|ktp:N0|mc:68319|mtp:S|qry_typ:P|lang:en|wc:2|cs:8842|v=4,False,Bawana Industrial Area,New Delhi,"H-220, Sector - 3 bawana industrial area, Bawana Industrial Area, New Delhi - 110039, Dist.Delhi, Delhi",8043832188,
"Multicolor Plastic Baby Food Feeder Baby Medicine Feeder, 3-12 Months",https://www.indiamart.com/proddetail/baby-food-feeder-baby-medicine-feeder-27462434812.html?pos=174&kwd=feeding set&tags=||||8620.856|Price|product|||NA|rsf:gd-|-stype:attr=1|qr_nm:gd|res:RC3|com-cf:nl|ptrs:na|ktp:N0|mc:68319|mtp:S|qry_typ:P|lang:en|wc:2|cs:8842|v=4,Pocket Simple,https://www.indiamart.com/pocket-simple/?pos=174&kwd=feeding set&tags=||||8620.856|Price|product|||NA|rsf:gd-|-stype:attr=1|qr_nm:gd|res:RC3|com-cf:nl|ptrs:na|ktp:N0|mc:68319|mtp:S|qry_typ:P|lang:en|wc:2|cs:8842|v=4,False,,Parbhani,"Near B Raghunath College, Parbhani - 431401, Dist.Parbhani, Maharashtra",7942673709,
"Tiny Care Plastic Baby Feeding Bottle, Age Group: Newly Born, Capacity: 250ml",https://www.indiamart.com/proddetail/tiny-care-plastic-baby-feeding-bottle-23250698762.html?pos=175&kwd=feeding set&tags=||||9839.57|Price|product|||NA|rsf:gd-|-stype:attr=1|qr_nm:gd|res:RC3|com-cf:nl|ptrs:na|ktp:N0|mc:68319|mtp:S|qry_typ:P|lang:en|wc:2|cs:8842|v=4,Ajanta Enterprise,https://www.indiamart.com/ajanta-enterprises-kolkata/?pos=175&kwd=feeding set&tags=||||9839.57|Price|product|||NA|rsf:gd-|-stype:attr=1|qr_nm:gd|res:RC3|com-cf:nl|ptrs:na|ktp:N0|mc:68319|mtp:S|qry_typ:P|lang:en|wc:2|cs:8842|v=4,False,,Kolkata,"155, Netaji Subhas Road, Kolkata - 712258, Dist.Kolkata, West Bengal",8048615369,
"Pigeon Feeding Dish,For 6 + Month Babies, White & Yellow (4902508033145)",https://www.indiamart.com/proddetail/pigeon-feeding-dish-for-6-month-babies-white-yellow-4902508033145-2853741371297.html?pos=176&kwd=feeding set&tags=||||8663.873|Price|product|||NA|rsf:gd-|-stype:attr=1|qr_nm:gd|res:RC3|com-cf:nl|ptrs:na|ktp:N0|mc:68319|mtp:S|qry_typ:P|lang:en|wc:2|cs:8842|v=4,Wellnex,https://www.indiamart.com/wellnex/?pos=176&kwd=feeding set&tags=||||8663.873|Price|product|||NA|rsf:gd-|-stype:attr=1|qr_nm:gd|res:RC3|com-cf:nl|ptrs:na|ktp:N0|mc:68319|mtp:S|qry_typ:P|lang:en|wc:2|cs:8842|v=4,False,Bangalore,Bengaluru,"NO.25 9TH CROSS, 1ST MAIN, MAGADI ROAD PRASHANTH NAGAR 9th cross, Prashant Nagar, Bangalore, Bengaluru - 560079, Dist.Bengaluru, Karnataka",8046033558,
"Multicolor Feeding Bottle With Spoon 125. ML, Age Group: 3-12 Months, Capacity: 125MML",https://www.indiamart.com/proddetail/feeding-bottle-with-spoon-125-ml-25087329591.html?pos=177&kwd=feeding set&tags=||||8752.144|Price|product|||NA|rsf:gd-|-stype:attr=1|qr_nm:gd|res:RC3|com-cf:nl|ptrs:na|ktp:N0|mc:68319|mtp:S|qry_typ:P|lang:en|wc:2|cs:8842|v=4,Narula Overseas Industries Private Limited,https://www.indiamart.com/narulaoverseasindustries/?pos=177&kwd=feeding set&tags=||||8752.144|Price|product|||NA|rsf:gd-|-stype:attr=1|qr_nm:gd|res:RC3|com-cf:nl|ptrs:na|ktp:N0|mc:68319|mtp:S|qry_typ:P|lang:en|wc:2|cs:8842|v=4,False,,New Delhi,"First Floor,70/A-48,Rama Road, Industrial Area,Moti Nagar, New Delhi - 110015, Dist.Delhi, Delhi",7942541501,
"PP White 125ml Jessica Bonne Kid Mamma Amore Feeding Bottle, Age Group: Newly Born",https://www.indiamart.com/proddetail/125ml-jessica-bonne-kid-mamma-amore-feeding-bottle-14590853055.html?pos=178&kwd=feeding set&tags=||||8752.144|Price|proxy|||NA|rsf:gd-|-stype:attr=1|qr_nm:gd|res:RC3|com-cf:nl|ptrs:na|ktp:N0|mc:68319|mtp:S|qry_typ:P|lang:en|wc:2|cs:8842|v=4,Paul Manufacturing Co.,https://www.indiamart.com/paulmanufacturingco/?pos=178&kwd=feeding set&tags=||||8752.144|Price|proxy|||NA|rsf:gd-|-stype:attr=1|qr_nm:gd|res:RC3|com-cf:nl|ptrs:na|ktp:N0|mc:68319|mtp:S|qry_typ:P|lang:en|wc:2|cs:8842|v=4,False,Mayapuri,New Delhi,"C-278, Phase II, Mayapuri Industrial Area, West Delhi, Mayapuri, New Delhi - 110064, Dist.Delhi, Delhi",8044562548,
Feeding Set BF-240A,,Manisha Intarnational Private Limited,https://www.indiamart.com/manisha-international-india/?pos=179&kwd=feeding set&tags=CA||||8752.144||product|||NA|rsf:gd-|-stype:attr=1|qr_nm:gd|res:RC3|com-cf:nl|ptrs:na|ktp:N0|mc:68319|mtp:S|qry_typ:P|lang:en|wc:2|cs:8842|v=4,False,Saidulajab,New Delhi,"No. 1- A, First Floor, Khasra No. 275, Westend Marg, Saidulajab, Saidulajab, New Delhi - 110030, Dist.Delhi, Delhi",8047689247,
Feeding Set,,Shree Jaganath Steel Corporation,https://www.indiamart.com/shree-jaganath-steel-corporations/?pos=180&kwd=feeding set&tags=CC||||9578.697||product|||NA|rsf:gd-|-stype:attr=1|qr_nm:gd|res:RC3|com-cf:nl|ptrs:na|ktp:N0|mc:68319|mtp:S|qry_typ:P|lang:en|wc:2|cs:8842|v=4,False,College Square Cuttack,Cuttack,"00 Shree Jaganath Steel Corporationck, College Square Cuttack, Cuttack - 753003, Dist.Cuttack, Odisha",8048371822,214
Feeding Set,,National Steel And Hardware,https://www.indiamart.com/national-steel-and-hardwares-gonda/?pos=181&kwd=feeding set&tags=CC||||9212.675||product|||NA|rsf:gd-|-stype:attr=1|qr_nm:gd|res:RC3|com-cf:nl|ptrs:na|ktp:N0|mc:68319|mtp:S|qry_typ:P|lang:en|wc:2|cs:8842|v=4,False,,Gonda,"Near Kamal Petrol Pump,Faizabad Road,Gonda,Gonda, Gonda - 271001, Dist.Gonda, Uttar Pradesh",8048371536,796
Feeding Set,,City Paints Decor,https://www.indiamart.com/city-paints-decor/?pos=182&kwd=feeding set&tags=CC||||8211.142||product|||NA|rsf:gd-|-stype:attr=1|qr_nm:gd|res:RC3|com-cf:nl|ptrs:na|ktp:N0|mc:68319|mtp:S|qry_typ:P|lang:en|wc:2|cs:8842|v=4,False,Kurla West,Mumbai,"Kurla West, Kurla West, Mumbai - 400070, Dist.Mumbai, Maharashtra",8048371804,389
Feeding Set,,Tribus Security Solutions Group-Tssg,https://www.indiamart.com/tribus-security-solutions-group-tssg/?pos=183&kwd=feeding set&tags=CC||||8752.144||product|||NA|rsf:gd-|-stype:attr=1|qr_nm:gd|res:RC3|com-cf:nl|ptrs:na|ktp:N0|mc:68319|mtp:S|qry_typ:P|lang:en|wc:2|cs:8842|v=4,False,,New Delhi,"B-57,B/M,Ho Chi Minh Marg,New South, New Delhi - 110017, Dist.Delhi, Delhi",8069196710,833
Feeding Set,,Marvel CNC Technologies,https://www.indiamart.com/marvel-cnc-technologies/?pos=184&kwd=feeding set&tags=CC||||8663.873||product|||NA|rsf:gd-|-stype:attr=1|qr_nm:gd|res:RC3|com-cf:nl|ptrs:na|ktp:N0|mc:68319|mtp:S|qry_typ:P|lang:en|wc:2|cs:8842|v=4,False,2nd Stage,Bengaluru,"No.07/A 1st Main Road Peenya Industrial Area, 2nd Stage, Bengaluru - 560058, Dist.Bengaluru, Karnataka",8048249700,7708
Feeding Set,,Durga Enterprises,https://www.indiamart.com/durgaenterprises-190766891/?pos=185&kwd=feeding set&tags=CC||||8752.144|Price|product|||NA|rsf:gd-|-stype:attr=1|qr_nm:gd|res:RC3|com-cf:nl|ptrs:na|ktp:N0|mc:68319|mtp:S|qry_typ:P|lang:en|wc:2|cs:8842|v=4,False,,New Delhi,"H.NO-13,,BLOCK-A,New Delhi ,110059,, New Delhi - 110059, Dist.Delhi, Delhi",8062270202,781
Feeding Set,,Sri Balaji Distributors,https://www.indiamart.com/sri-balaji-distributors-mangaluru/?pos=186&kwd=feeding set&tags=CC||||8367.188||product|||NA|rsf:gd-|-stype:attr=1|qr_nm:gd|res:RC3|com-cf:nl|ptrs:na|ktp:N0|mc:68319|mtp:S|qry_typ:P|lang:en|wc:2|cs:8842|v=4,False,,Mangaluru,"11-7-584/12,Singala Chambers,Maidan Iv Cross,Mangalore,Dakshina Kannada, Mangaluru - 575001, Karnataka",8048249731,6249
Feeding Set,,Maa N Mee,https://www.indiamart.com/maanmee-pune/?pos=187&kwd=feeding set&tags=CC||||8307.81||product|||NA|rsf:gd-|-stype:attr=1|qr_nm:gd|res:RC3|com-cf:nl|ptrs:na|ktp:N0|mc:68319|mtp:S|qry_typ:P|lang:en|wc:2|cs:8842|v=4,False,Kharadi,Pune,"Majestic Plaza, Shop No. 2, Next To Columbia Asia Hospital, Kharadi, Pune - 411014, Dist.Pune, Maharashtra",8043840338,
Feeding Set,,Ever Traders,https://www.indiamart.com/ms-ever-traders/?pos=188&kwd=feeding set&tags=CC||||9110.092||product|||NA|rsf:gd-|-stype:attr=1|qr_nm:gd|res:RC3|com-cf:nl|ptrs:na|ktp:N0|mc:68319|mtp:S|qry_typ:P|lang:en|wc:2|cs:8842|v=4,False,ALAMBAGH,Lucknow,"551k/349r, Tripathi Bhawan, Madhuban Nagar, Alambagh,, ALAMBAGH, Lucknow - 226005, Dist.Lucknow, Uttar Pradesh",8069264853,485
Baby Feeding Set,,Tarun Agencies,https://www.indiamart.com/tarun-agency-jagdalpur/?pos=189&kwd=feeding set&tags=CC||||9167.972|Price|product|||NA|rsf:gd-|-stype:attr=1|qr_nm:gd|res:RC3|com-cf:nl|ptrs:na|ktp:N0|mc:68319|mtp:S|qry_typ:P|lang:en|wc:2|cs:8842|v=4,False,Jagdalpur,Jagdalpur,"0 Palace Road Sadar Ward No.10 Jagdalpur Bastar 0 Palace Road Sadar Ward No.10 Jagdalpur Bastar, Jagdalpur, Jagdalpur - 494001, Dist.Bastar, Chhattisgarh",8069728216,873
Silver Baby Feeding Set,,Nancy Fashion,https://www.indiamart.com/nancyfashion-140235877/?pos=190&kwd=feeding set&tags=CC||||8230.883||product|||NA|rsf:gd-|-stype:attr=1|qr_nm:gd|res:RC3|com-cf:nl|ptrs:na|ktp:N0|mc:68319|mtp:S|qry_typ:P|lang:en|wc:2|cs:8842|v=4,False,,Surat,"2nd Floor Shop No. 2122 Wing E Opp. Navawab Wadi New Textile Market Begumpura Surat, Surat - 395002, Dist.Surat, Gujarat",8048250105,148
Silver Baby Feeding Set,,Moon Silver House,https://www.indiamart.com/moonsilverhouse/?pos=191&kwd=feeding set&tags=CC||||8211.142||product|||NA|rsf:gd-|-stype:attr=1|qr_nm:gd|res:RC3|com-cf:nl|ptrs:na|ktp:N0|mc:68319|mtp:S|qry_typ:P|lang:en|wc:2|cs:8842|v=4,False,Kalbadevi,Mumbai,"Shop No. 9-11A, Opposite Shetty Hotel, Zaveri Bazar, Kalbadevi, Mumbai - 400002, Dist.Mumbai, Maharashtra",7942628095,
Hanging Rooster Water Feeding Set,,Shree Maruthi Wire Knittings,https://www.indiamart.com/sri-maruthi-wire-netting-company/?pos=192&kwd=feeding set&tags=CC||||8584.299||product|||NA|rsf:gd-|-stype:attr=1|qr_nm:gd|res:RC3|com-cf:nl|ptrs:na|ktp:N0|mc:68319|mtp:S|qry_typ:P|lang:en|wc:2|cs:8842|v=4,False,Chinthamanipudur,Coimbatore,"18,,Ranganathapuram Street 4,Coimbatore 191 Trichy Road,641103,Coimbatore, Chinthamanipudur, Coimbatore - 641015, Dist.Coimbatore, Tamil Nadu",7948219185,
Silver Plated Baby Feeding Set,,Sugandh Corporation,https://www.indiamart.com/sugandh-corporation/?pos=193&kwd=feeding set&tags=CC||||8245.243||product|||NA|rsf:gd-|-stype:attr=1|qr_nm:gd|res:RC3|com-cf:nl|ptrs:na|ktp:N0|mc:68319|mtp:S|qry_typ:P|lang:en|wc:2|cs:8842|v=4,False,Vadol Gaon,Ambarnath,"a 8, Sugandh Corporation Industrial Area, Ambernath, Ambernath, Thane Ambernath West, District Thane, Vadol Gaon, Ambarnath - 421501, Dist.Thane, Maharashtra",8069728211,926
Round kid set,,Surbhi Metal Store,https://www.indiamart.com/surbhi-metal-store/?pos=194&kwd=feeding set&tags=CC||||8810.737||product|||NA|rsf:gd-|-stype:attr=1|qr_nm:gd|res:RC3|com-cf:nl|ptrs:na|ktp:N0|mc:68319|mtp:S|qry_typ:P|lang:en|wc:2|cs:8842|v=4,False,Near Shivalik Bank Subzi Mandi,Saharanpur,",NEAR SHIVALIK COPRATIVE BANK,ANSARI ROAD,SAHARANPUR,Uttar Pradesh,247001, Near Shivalik Bank Subzi Mandi, Saharanpur - 247001, Dist.Saharanpur, Uttar Pradesh",8048247133,3863
"4 In 1 Camera New Safe Feeding Set(180ML, Model NO 20116)",,Prem Medical And Optical Store,https://www.indiamart.com/prem-medical-optical-store/?pos=195&kwd=feeding set&tags=CC||||8675.777|Price|product|||NA|rsf:gd-|-stype:attr=1|qr_nm:gd|res:RC3|com-cf:nl|ptrs:na|ktp:N0|mc:68319|mtp:S|qry_typ:P|lang:en|wc:2|cs:8842|v=4,False,Hoshiarpur,Hoshiarpur,",H No - 302 Railway Road, Hoshiarpur, Hoshiarpur - 146001, Dist.Hoshiarpur, Punjab",8043819984,
"Kids Dinner Sets,Kids Plate Sets",,Smart Home Store,https://www.indiamart.com/smart-home-store/?pos=196&kwd=feeding set&tags=CC||||8732.092|Price|product|||NA|rsf:gd-|-stype:attr=1|qr_nm:gd|res:RC3|com-cf:nl|ptrs:na|ktp:N0|mc:68319|mtp:S|qry_typ:P|lang:en|wc:2|cs:8842|v=4,False,,Manesar,"2101 Ss Coralwood Sector 84 Tower-e Gurgaon, Manesar - 122051, Dist.Gurgaon, Haryana",8069196798,341
Mee Mee Feeding Bottles,,Surgical City,https://www.indiamart.com/surgical-city/?pos=197&kwd=feeding set&tags=||||8383.764|Price|product|||NA|rsf:gd-|-stype:attr=1|qr_nm:gd|res:RC3|com-cf:nl|ptrs:na|ktp:N0|mc:68319|mtp:S|qry_typ:P|lang:en|wc:2|cs:8842|v=4,False,,Baramati,"ground Floor Milkat No 5a5000181 Old- 62-2 Shop No 02 Indapur, Baramati - 413102, Dist.Pune, Maharashtra",8069023915,323
Mee Mee Feeding Bottle,,JMD Traders,https://www.indiamart.com/jmdtraders-148998611/?pos=198&kwd=feeding set&tags=||||8752.144||product|||NA|rsf:gd-|-stype:attr=1|qr_nm:gd|res:RC3|com-cf:nl|ptrs:na|ktp:N0|mc:68319|mtp:S|qry_typ:P|lang:en|wc:2|cs:8842|v=4,False,,New Delhi,"356, G/F, S/O Mr. Mahender, Sarita Vihar, Aali Village, South East Delhi, New Delhi - 110044, Dist.Delhi, Delhi",8045169636,
Philips Avent Natural,,KBM Enterprises,https://www.indiamart.com/kbm-enterprises-gurgaon/?pos=199&kwd=feeding set&tags=||||8741.812||product|||NA|rsf:gd-|-stype:attr=1|qr_nm:gd|res:RC3|com-cf:nl|ptrs:na|ktp:N0|mc:68319|mtp:S|qry_typ:P|lang:en|wc:2|cs:8842|v=4,False,,Gurgaon,"H.No.641/A/18, Om Nagar Khandsa Marg Bir Singh, Gurgaon - 122001, Dist.Gurgaon, Haryana",8069017230,660
Printed Stainless Steel Hot & Cold Baby Feeding Bottle Set Pink color,,Paras Enterprises,https://www.indiamart.com/parasenterprises-5350981/?pos=200&kwd=feeding set&tags=||||8752.144|Price|product|||NA|rsf:gd-|-stype:attr=1|qr_nm:gd|res:RC3|com-cf:nl|ptrs:na|ktp:N0|mc:68319|mtp:S|qry_typ:P|lang:en|wc:2|cs:8842|v=4,False,Sahibabad,New Delhi,"Sahibabad, Sahibabad, New Delhi - 110032, Dist.Delhi, Delhi",7942668151,
Philips Avent Anticolic Teat SCF042/27 (1M+) Set Of 2,,Aalap Services,https://www.indiamart.com/aalap-services/?pos=201&kwd=feeding set&tags=||||8228.275|Price|product|||NA|rsf:gd-|-stype:attr=1|qr_nm:gd|res:RC3|com-cf:nl|ptrs:na|ktp:N0|mc:68319|mtp:S|qry_typ:P|lang:en|wc:2|cs:8842|v=4,False,Navrangpura,Ahmedabad,"Swastik Char Rasta Corner C G Road, Navrangpura, Navrangpura, Ahmedabad - 380009, Dist.Ahmedabad, Gujarat",8048249693,3831
Bonne Glasso Feeder Bottle Combo Set 125ml + 250 Ml offer pack,,Radha Krishna Enterprises,https://www.indiamart.com/radhakrishnaenterprises-agra/?pos=202&kwd=feeding set&tags=||||8823.154|Price|product|||NA|rsf:gd-|-stype:attr=1|qr_nm:gd|res:RC3|com-cf:nl|ptrs:na|ktp:N0|mc:68319|mtp:S|qry_typ:P|lang:en|wc:2|cs:8842|v=4,False,,Agra,"Raj Nagar Colony, Opp. Mandi Samiti, Shahdra, Kuberpur, Agra - 282006, Dist.Agra, Uttar Pradesh",8047311026,9054
BONNE Feeding Bottle,,Indian Marketing Solutions,https://www.indiamart.com/indian-marketing-solutions/?pos=203&kwd=feeding set&tags=||||8661.854||product|||NA|rsf:gd-|-stype:attr=1|qr_nm:gd|res:RC3|com-cf:nl|ptrs:na|ktp:N0|mc:68319|mtp:S|qry_typ:P|lang:en|wc:2|cs:8842|v=4,False,,Ludhiana,"SHOP NO. 296, MANAKWAL ABADI INCLAVE,NEAR AXIS BANK,MANAKWALA RD, Ludhiana - 141116, Dist.Ludhiana, Punjab",8048361302,543
Baby Fruit Feeder & Nibbler,,Poppins-The Baby Shop,https://www.indiamart.com/poppinsthe-baby-shop/?pos=204&kwd=feeding set&tags=||||8731.3545||product|||NA|rsf:gd-|-stype:attr=1|qr_nm:gd|res:RC3|com-cf:nl|ptrs:na|ktp:N0|mc:68319|mtp:S|qry_typ:P|lang:en|wc:2|cs:8842|v=4,False,,Kadiri,"1/357,Bypass Road,Kadiri,Kadiri Brahmanapalle,Sri Sathyasai, Kadiri - 515591, Dist.Anantapur, Andhra Pradesh",8048370710,7082
Baby Pacifiers Teethers,,Moo Doodle,https://www.indiamart.com/moo-doodle/?pos=205&kwd=feeding set&tags=||||8891.556||product|||NA|rsf:gd-|-stype:attr=1|qr_nm:gd|res:RC3|com-cf:nl|ptrs:na|ktp:N0|mc:68319|mtp:S|qry_typ:P|lang:en|wc:2|cs:8842|v=4,False,,Kanchipuram,"Shop 1 B,Plot No 2,Ground Floor,Jeevarathna Complex,Addison Nagar Main Road,Chennai,Chengalpattu, Kanchipuram - 600122, Dist.Kanchipuram, Tamil Nadu",8047311004,4320
Mags Baby Soother,,Sha Sukraj Pitajee,https://www.indiamart.com/sha-sukraj-pitajee-vijayawada/?pos=206&kwd=feeding set&tags=||||9010.878|Price|product|||NA|rsf:gd-|-stype:attr=1|qr_nm:gd|res:RC3|com-cf:nl|ptrs:na|ktp:N0|mc:68319|mtp:S|qry_typ:P|lang:en|wc:2|cs:8842|v=4,False,,Vijayawada,"11-40-56, Pulipativari Street, Vijayawada, Krishna, Andhra Pradesh, 520001, Vijayawada - 520001, Dist.Krishna, Andhra Pradesh",8069023936,182
Baby Nibbler Fruit Feeder combo,,Nashal Consumer Products Private Limited,https://www.indiamart.com/nashal-consumer-products-private-limited/?pos=207&kwd=feeding set&tags=||||8704.343|Price|product|||NA|rsf:gd-|-stype:attr=1|qr_nm:gd|res:RC3|com-cf:nl|ptrs:na|ktp:N0|mc:68319|mtp:S|qry_typ:P|lang:en|wc:2|cs:8842|v=4,False,,Patiala,"C-59,Focal Point,Patiala,Patiala, Patiala - 147001, Dist.Patiala, Punjab",8047311014,2089
BABY TEETHERS,,Baby Corner,https://www.indiamart.com/marc-office-automations/?pos=208&kwd=feeding set&tags=||||8954.051|Price|product|||NA|rsf:gd-|-stype:attr=1|qr_nm:gd|res:RC3|com-cf:nl|ptrs:na|ktp:N0|mc:68319|mtp:S|qry_typ:P|lang:en|wc:2|cs:8842|v=4,False,Mannar Street,Chennai,"1st Floor No.14/102 Narayana Mudali Street M M Complex, Mannar Street, Chennai - 600001, Dist.Chennai, Tamil Nadu",8048249856,168
Plastic Baby Feeding Bottle,,Chaithra Enterprises,https://www.indiamart.com/chaithra-enterprises-mysuru/?pos=209&kwd=feeding set&tags=||||8556.61||product|||NA|rsf:gd-|-stype:attr=1|qr_nm:gd|res:RC3|com-cf:nl|ptrs:na|ktp:N0|mc:68319|mtp:S|qry_typ:P|lang:en|wc:2|cs:8842|v=4,False,,Mysuru,"No 294,Lalithadripura,Jss Layout 2nd Stage,Mysuru,Mysuru, Mysuru - 570028, Dist.Mysuru, Karnataka",8069196709,619
"Kids Baby Feeding Bottle, 3-12 Months",,Kidlite Products,https://www.indiamart.com/kidlite-products-noida/?pos=210&kwd=feeding set&tags=||||8778.123||product|||NA|rsf:gd-|-stype:attr=1|qr_nm:gd|res:RC3|com-cf:nl|ptrs:na|ktp:N0|mc:68319|mtp:S|qry_typ:P|lang:en|wc:2|cs:8842|v=4,False,Noida,Noida,"Flat No A3/201 Gardenia Glory Sector 46 Gautam Buddha Nagar, Noida, Noida - 201301, Dist.Gautam Budh Nagar, Uttar Pradesh",8048250486,755
