product_title,product_link,company_name,company_link,is_verified_exporter,city_region,city,address_details,phone_number,phone_number_extension
Uncle Benit 100% Cotton Baby Blanket,https://www.indiamart.com/proddetail/baby-blanket-21440903973.html?pos=1&kwd=flannel baby blanket&tags=A||||8661.854|Price|product|||TS|rsf:gd-|-stype:attr=1|qr_nm:gd|res:RC4|com-cf:nl|ptrs:na|ktp:N0|mc:214612|mtp:S|qry_typ:P|lang:en|wc:3|flavl:0|cs:9644|v=4,Uncle Benit Global Inc,https://www.indiamart.com/unclebenitglobal/?pos=1&kwd=flannel baby blanket&tags=A||||8661.854|Price|product|||TS|rsf:gd-|-stype:attr=1|qr_nm:gd|res:RC4|com-cf:nl|ptrs:na|ktp:N0|mc:214612|mtp:S|qry_typ:P|lang:en|wc:3|flavl:0|cs:9644|v=4,False,Mundian,Ludhiana,"Opposite Fortis Hospital, NH-95 Chandigarh Road, Mundian Khurd, Mundian, Ludhiana - 141110, Dist.Ludhiana, Punjab",8046075831,
Polyester Multicolor Baby Flannel Blankets,https://www.indiamart.com/proddetail/baby-flannel-blankets-2852649330030.html?pos=2&kwd=flannel baby blanket&tags=A||||8747.203|Price|product|||TS|rsf:gd-|-stype:attr=1|qr_nm:gd|res:RC4|com-cf:nl|ptrs:na|ktp:N0|mc:214612|mtp:S|qry_typ:P|lang:en|wc:3|flavl:0|cs:9644|v=4,Jessa Ram Khushi Ram,https://www.jessaramkhushiram.com/?pos=2&kwd=flannel baby blanket&tags=A||||8747.203|Price|product|||TS|rsf:gd-|-stype:attr=1|qr_nm:gd|res:RC4|com-cf:nl|ptrs:na|ktp:N0|mc:214612|mtp:S|qry_typ:P|lang:en|wc:3|flavl:0|cs:9644|v=4,False,Old Housing Board Colony,Panipat,"Gaba Building, Pachranga Bazar, Old Housing Board Colony, Panipat - 132103, Dist.Panipat, Haryana",8043864954,
"Cotton Pink Flannel Baby Blanket, Size: Singe",https://www.indiamart.com/proddetail/flannel-baby-blanket-2852593477333.html?pos=3&kwd=flannel baby blanket&tags=A||||8747.203||product|||TS|rsf:gd-|-stype:attr=1|qr_nm:gd|res:RC4|com-cf:nl|ptrs:na|ktp:N0|mc:214612|mtp:S|qry_typ:P|lang:en|wc:3|flavl:0|cs:9644|v=4,Supercloudy Fashion World Private Limited,https://www.indiamart.com/supercloudyfashionworld/?pos=3&kwd=flannel baby blanket&tags=A||||8747.203||product|||TS|rsf:gd-|-stype:attr=1|qr_nm:gd|res:RC4|com-cf:nl|ptrs:na|ktp:N0|mc:214612|mtp:S|qry_typ:P|lang:en|wc:3|flavl:0|cs:9644|v=4,False,Huda,Panipat,"Vpo Kurar, Near Jagmehar Hatchery, Huda, Panipat - 132103, Dist.Panipat, Haryana",8047303410,
"Cotton Multicolor Baby Soft Flannel Blankets set, Size/Dimension: Large, 750 Gm",https://www.indiamart.com/proddetail/baby-soft-flannel-blankets-set-22496604473.html?pos=4&kwd=flannel baby blanket&tags=A||||8307.81|Price|product|||TS|rsf:gd-|-stype:attr=1|qr_nm:gd|res:RC4|com-cf:nl|ptrs:na|ktp:N0|mc:214612|mtp:S|qry_typ:P|lang:en|wc:3|flavl:0|cs:9644|v=4,Lazytoddler Solutions Private Limited,https://www.indiamart.com/lazytoddler-solutions/?pos=4&kwd=flannel baby blanket&tags=A||||8307.81|Price|product|||TS|rsf:gd-|-stype:attr=1|qr_nm:gd|res:RC4|com-cf:nl|ptrs:na|ktp:N0|mc:214612|mtp:S|qry_typ:P|lang:en|wc:3|flavl:0|cs:9644|v=4,False,Wakad,Pune,"A2-1001, Fl-A1, Behind Madhuban Hotel, S.No-40, Armada Parkhe Wasti, Wakad, Wakad, Pune - 411057, Dist.Pune, Maharashtra",8043819563,
La Realeza New Flano Baby Blanket,https://www.indiamart.com/proddetail/flano-baby-blanket-13602703033.html?pos=5&kwd=flannel baby blanket&tags=A||||8747.203|Price|product|||TS|rsf:gd-|-stype:attr=1|qr_nm:gd|res:RC4|com-cf:nl|ptrs:na|ktp:N0|mc:214612|mtp:S|qry_typ:P|lang:en|wc:3|flavl:0|cs:9644|v=4,Siddharth Texstyles,https://www.textilefabricsindia.com/?pos=5&kwd=flannel baby blanket&tags=A||||8747.203|Price|product|||TS|rsf:gd-|-stype:attr=1|qr_nm:gd|res:RC4|com-cf:nl|ptrs:na|ktp:N0|mc:214612|mtp:S|qry_typ:P|lang:en|wc:3|flavl:0|cs:9644|v=4,False,,Panipat,"41, Old Housing Board Colony, Panipat, Panipat - 132103, Dist.Panipat, Haryana",8048603694,
Cotton Flannel Baby Blanket,https://www.indiamart.com/proddetail/flannel-baby-blanket-2855066315991.html?pos=6&kwd=flannel baby blanket&tags=A||||10180.86|Price|product|||MDC|rsf:gd-|-stype:attr=1|qr_nm:gd|res:RC4|com-cf:nl|ptrs:na|ktp:N0|mc:214612|mtp:S|qry_typ:P|lang:en|wc:3|flavl:0|cs:9644|v=4,Shubh Enterprise,https://www.indiamart.com/shubhenterprise-guwahati/?pos=6&kwd=flannel baby blanket&tags=A||||10180.86|Price|product|||MDC|rsf:gd-|-stype:attr=1|qr_nm:gd|res:RC4|com-cf:nl|ptrs:na|ktp:N0|mc:214612|mtp:S|qry_typ:P|lang:en|wc:3|flavl:0|cs:9644|v=4,False,,Guwahati,"2nd Floor, 84, Charu Market, SRCB Road, Fancy Bazar, Kamrup Metropolitan, Guwahati - 781001, Dist.Kamrup, Assam",8044017365,
Red Fleece Kids Blanket,https://www.indiamart.com/proddetail/fleece-kids-blanket-23885551988.html?pos=7&kwd=flannel baby blanket&tags=BB||||8752.144|Price|product|||TS|rsf:gd-|-stype:attr=1|qr_nm:gd|res:RC4|com-cf:nl|ptrs:na|ktp:N0|mc:214612|mtp:S|qry_typ:P|lang:en|wc:3|flavl:0|cs:9644|v=4,Krishna Handloom,https://www.krishnahandloom.co.in/?pos=7&kwd=flannel baby blanket&tags=BB||||8752.144|Price|product|||TS|rsf:gd-|-stype:attr=1|qr_nm:gd|res:RC4|com-cf:nl|ptrs:na|ktp:N0|mc:214612|mtp:S|qry_typ:P|lang:en|wc:3|flavl:0|cs:9644|v=4,False,Tilak Nagar,New Delhi,"First Floor, 54/9, Ashok Nagar Opposite Jankie Vaishno Dhaba, Tilak Nagar, New Delhi - 110018, Dist.Delhi, Delhi",8048982699,
Cotton Colorful Kuddle-Up Flannel Baby Blankets(Dinosaur Print),https://www.indiamart.com/proddetail/kuddle-up-flannel-baby-blankets-dinosaur-print-2853771378812.html?pos=8&kwd=flannel baby blanket&tags=BA||||8307.81||product|||MDC|rsf:gd-|-stype:attr=1|qr_nm:gd|res:RC4|com-cf:nl|ptrs:na|ktp:N0|mc:214612|mtp:S|qry_typ:P|lang:en|wc:3|flavl:0|cs:9644|v=4,Medline Healthcare Industries Private Limited,https://www.indiamart.com/medlinehealthcareindustries/?pos=8&kwd=flannel baby blanket&tags=BA||||8307.81||product|||MDC|rsf:gd-|-stype:attr=1|qr_nm:gd|res:RC4|com-cf:nl|ptrs:na|ktp:N0|mc:214612|mtp:S|qry_typ:P|lang:en|wc:3|flavl:0|cs:9644|v=4,False,Viman Nagar,Pune,"101, Garnets Bay, Next To Hotel Four Points By Sheraton Viman Nagar, Ahmednagar Road, Viman Nagar, Pune - 411014, Dist.Pune, Maharashtra",8048958807,
Printed Baby Blanket,https://www.indiamart.com/proddetail/baby-blanket-22286603488.html?pos=9&kwd=flannel baby blanket&tags=BB||||8211.142|Price|product|||TS|rsf:gd-|-stype:attr=1|qr_nm:gd|res:RC4|com-cf:nl|ptrs:na|ktp:N0|mc:214612|mtp:S|qry_typ:P|lang:en|wc:3|flavl:0|cs:9644|v=4,Mahalaxmi Textiles,https://www.indiamart.com/mahalaxmitextiles-maharashtra/?pos=9&kwd=flannel baby blanket&tags=BB||||8211.142|Price|product|||TS|rsf:gd-|-stype:attr=1|qr_nm:gd|res:RC4|com-cf:nl|ptrs:na|ktp:N0|mc:214612|mtp:S|qry_typ:P|lang:en|wc:3|flavl:0|cs:9644|v=4,False,Kalbadevi,Mumbai,"R. No. 11, 1st Floor, 23 Lohia Sadan, Kalbadevi Road Borana, Kalbadevi, Mumbai - 400002, Dist.Mumbai, Maharashtra",7942535985,
Polyester Multicolor Baby Soft Flannel Blankets,https://www.indiamart.com/proddetail/baby-soft-flannel-blankets-2853328067191.html?pos=10&kwd=flannel baby blanket&tags=BA||||8747.203||product|||TS|rsf:gd-|-stype:attr=1|qr_nm:gd|res:RC4|com-cf:nl|ptrs:na|ktp:N0|mc:214612|mtp:S|qry_typ:P|lang:en|wc:3|flavl:0|cs:9644|v=4,Paras Blanket,https://www.parasblanket.com/?pos=10&kwd=flannel baby blanket&tags=BA||||8747.203||product|||TS|rsf:gd-|-stype:attr=1|qr_nm:gd|res:RC4|com-cf:nl|ptrs:na|ktp:N0|mc:214612|mtp:S|qry_typ:P|lang:en|wc:3|flavl:0|cs:9644|v=4,False,Old Housing Board Colony,Panipat,"Shop No. 1, 2, 3, New Pachranga Market Pachranga Bazar, Old Housing Board Colony, Panipat - 132103, Dist.Panipat, Haryana",8048968656,
Fleece Blue Flannel Baby Blanket,https://www.indiamart.com/proddetail/flannel-baby-blanket-23811017473.html?pos=11&kwd=flannel baby blanket&tags=BA||||8747.203|Price|product|||TS|rsf:gd-|-stype:attr=1|qr_nm:gd|res:RC4|com-cf:nl|ptrs:na|ktp:N0|mc:214612|mtp:S|qry_typ:P|lang:en|wc:3|flavl:0|cs:9644|v=4,Shiv Shakti Handloom Industries,https://www.shivshaktihandloomindustries.com/?pos=11&kwd=flannel baby blanket&tags=BA||||8747.203|Price|product|||TS|rsf:gd-|-stype:attr=1|qr_nm:gd|res:RC4|com-cf:nl|ptrs:na|ktp:N0|mc:214612|mtp:S|qry_typ:P|lang:en|wc:3|flavl:0|cs:9644|v=4,False,Panipat City,Panipat,"Shop 12, Krishna Market, Pachranga Bazar, Panipat City, Panipat - 132103, Dist.Panipat, Haryana",8048970618,
LG Polyester Flannel Baby Blanket,https://www.indiamart.com/proddetail/flannel-baby-blanket-25976296062.html?pos=12&kwd=flannel baby blanket&tags=BA||||8747.203|Price|product|||TS|rsf:gd-|-stype:attr=1|qr_nm:gd|res:RC4|com-cf:nl|ptrs:na|ktp:N0|mc:214612|mtp:S|qry_typ:P|lang:en|wc:3|flavl:0|cs:9644|v=4,M L Textile,https://www.indiamart.com/ml-textile/?pos=12&kwd=flannel baby blanket&tags=BA||||8747.203|Price|product|||TS|rsf:gd-|-stype:attr=1|qr_nm:gd|res:RC4|com-cf:nl|ptrs:na|ktp:N0|mc:214612|mtp:S|qry_typ:P|lang:en|wc:3|flavl:0|cs:9644|v=4,False,Jattal,Panipat,"8 Marla Colony Jattal Road Near Siti Cable, Jattal, Panipat - 132103, Dist.Panipat, Haryana",8046074237,
"Babyzone Pink Flannel Baby Blanket, 400 G, Size: 32*42",https://www.indiamart.com/proddetail/flannel-baby-blanket-23894016033.html?pos=13&kwd=flannel baby blanket&tags=BA||||8661.854|Price|product|||TS|rsf:gd-|-stype:attr=1|qr_nm:gd|res:RC4|com-cf:nl|ptrs:na|ktp:N0|mc:214612|mtp:S|qry_typ:P|lang:en|wc:3|flavl:0|cs:9644|v=4,Aggarwal Creations,https://www.aggarwalcreations.com/?pos=13&kwd=flannel baby blanket&tags=BA||||8661.854|Price|product|||TS|rsf:gd-|-stype:attr=1|qr_nm:gd|res:RC4|com-cf:nl|ptrs:na|ktp:N0|mc:214612|mtp:S|qry_typ:P|lang:en|wc:3|flavl:0|cs:9644|v=4,False,Ramesh Nagar,Ludhiana,"Geeta Nagar, Street No. 7, Tajpur Road, Ramesh Nagar, Ludhiana - 141008, Dist.Ludhiana, Punjab",8048962321,
Fleece Multicolor Flannel Baby Blanket,https://www.indiamart.com/proddetail/flannel-baby-blanket-2853220871797.html?pos=14&kwd=flannel baby blanket&tags=BA||||8211.142|Price|product|||TS|rsf:gd-|-stype:attr=1|qr_nm:gd|res:RC4|com-cf:nl|ptrs:na|ktp:N0|mc:214612|mtp:S|qry_typ:P|lang:en|wc:3|flavl:0|cs:9644|v=4,Parass Trading,https://www.indiamart.com/parasstrading/?pos=14&kwd=flannel baby blanket&tags=BA||||8211.142|Price|product|||TS|rsf:gd-|-stype:attr=1|qr_nm:gd|res:RC4|com-cf:nl|ptrs:na|ktp:N0|mc:214612|mtp:S|qry_typ:P|lang:en|wc:3|flavl:0|cs:9644|v=4,False,Chembur,Mumbai,"Room no 3, First Floor, Plot no 39, Next to Shivaji Nagar police station,Kherwadi Plot no 39, Chembur, Mumbai - 400071, Dist.Mumbai, Maharashtra",8047631170,
Flannel Baby Blanket,https://www.indiamart.com/proddetail/flannel-baby-blanket-2852262250030.html?pos=15&kwd=flannel baby blanket&tags=BA||||8752.144|Price|product|||TS|rsf:gd-|-stype:attr=1|qr_nm:gd|res:RC4|com-cf:nl|ptrs:na|ktp:N0|mc:214612|mtp:S|qry_typ:P|lang:en|wc:3|cs:8881|v=4,Shivani Bed Cover,https://www.indiamart.com/shivanibedcover-delhi/?pos=15&kwd=flannel baby blanket&tags=BA||||8752.144|Price|product|||TS|rsf:gd-|-stype:attr=1|qr_nm:gd|res:RC4|com-cf:nl|ptrs:na|ktp:N0|mc:214612|mtp:S|qry_typ:P|lang:en|wc:3|cs:8881|v=4,False,Kamla Nagar,New Delhi,"5164, Kohlapur Road, Kamla Nagar, Kamla Nagar, New Delhi - 110007, Dist.Delhi, Delhi",8047803363,
"Multicolor Flannel Butterthief Children Blanket 0-5 Year Ac Blanket 100 X 140Cm for kids, Size: Singe",https://www.indiamart.com/proddetail/butterthief-children-blanket-0-5-year-ac-blanket-100-x-140cm-for-kids-2853994885048.html?pos=16&kwd=flannel baby blanket&tags=BA||||8752.144|Price|product|||TS|rsf:gd-|-stype:attr=1|qr_nm:gd|res:RC4|com-cf:nl|ptrs:na|ktp:N0|mc:214612|mtp:S|qry_typ:P|lang:en|wc:3|cs:8881|v=4,Instabuyz,https://www.indiamart.com/instabuyz/?pos=16&kwd=flannel baby blanket&tags=BA||||8752.144|Price|product|||TS|rsf:gd-|-stype:attr=1|qr_nm:gd|res:RC4|com-cf:nl|ptrs:na|ktp:N0|mc:214612|mtp:S|qry_typ:P|lang:en|wc:3|cs:8881|v=4,False,Paschim Vihar,New Delhi,"GH-4/319, Meera Apartments, Paschim Vihar, West Delhi, Paschim Vihar, New Delhi - 110063, Dist.Delhi, Delhi",8047696143,
"FABIA DECOR Polyester Flannel Kids Blanket, 0-2, Size: 30*40",https://www.indiamart.com/proddetail/flannel-kids-blanket-2851965618073.html?pos=17&kwd=flannel baby blanket&tags=BA||||8747.203|Price|product|||TS|rsf:gd-|-stype:attr=1|qr_nm:gd|res:RC4|com-cf:nl|ptrs:na|ktp:N0|mc:214612|mtp:S|qry_typ:P|lang:en|wc:3|cs:8881|v=4,M/S Salwania Textiles,https://www.indiamart.com/salwaniatextiles/?pos=17&kwd=flannel baby blanket&tags=BA||||8747.203|Price|product|||TS|rsf:gd-|-stype:attr=1|qr_nm:gd|res:RC4|com-cf:nl|ptrs:na|ktp:N0|mc:214612|mtp:S|qry_typ:P|lang:en|wc:3|cs:8881|v=4,False,Old Housing Board Colony,Panipat,"Shop No. 8, Balmukund Market, Circular Road, Old Housing Board Colony, Panipat - 132103, Dist.Panipat, Haryana",8046064865,
Cotton White Flannel Baby Receiving Blankets,https://www.indiamart.com/proddetail/flannel-baby-receiving-blankets-2358653762.html?pos=18&kwd=flannel baby blanket&tags=BA||||8559.269|Price|product|||TS|rsf:gd-|-stype:attr=1|qr_nm:gd|res:RC4|com-cf:nl|ptrs:na|ktp:N0|mc:214612|mtp:S|qry_typ:P|lang:en|wc:3|cs:8881|v=4,Central India Fabrics,https://www.centralindiafabrics.net/?pos=18&kwd=flannel baby blanket&tags=BA||||8559.269|Price|product|||TS|rsf:gd-|-stype:attr=1|qr_nm:gd|res:RC4|com-cf:nl|ptrs:na|ktp:N0|mc:214612|mtp:S|qry_typ:P|lang:en|wc:3|cs:8881|v=4,True,Avantika Nagar,Indore,"2/A/C, Sector D, Sanwer Road Opposite Bandganga Police Station, Avantika Nagar, Indore - 452015, Dist.Indore, Madhya Pradesh",8048965370,
Cotton Multicolor Flannel Baby Blankets,https://www.indiamart.com/proddetail/flannel-baby-blankets-2854165418112.html?pos=19&kwd=flannel baby blanket&tags=BB||||8559.269|Price|product|||TS|rsf:gd-|-stype:attr=1|qr_nm:gd|res:RC4|com-cf:nl|ptrs:na|ktp:N0|mc:214612|mtp:S|qry_typ:P|lang:en|wc:3|cs:8881|v=4,Nayak Textile Private Limited,https://www.flannelmanufacturer.com/?pos=19&kwd=flannel baby blanket&tags=BB||||8559.269|Price|product|||TS|rsf:gd-|-stype:attr=1|qr_nm:gd|res:RC4|com-cf:nl|ptrs:na|ktp:N0|mc:214612|mtp:S|qry_typ:P|lang:en|wc:3|cs:8881|v=4,False,Industrial Area,Indore,"100,Industrial Area,Sector F,Sanwer Road,Indore, Industrial Area, Indore - 452015, Dist.Indore, Madhya Pradesh",7942789323,
"Many Colour Available Printed Baby Wrap Blanket, 0-12 Months",https://www.indiamart.com/proddetail/baby-wrap-blanket-22683937473.html?pos=20&kwd=flannel baby blanket&tags=BA||||8752.144|Price|product|||TS|rsf:gd-|-stype:attr=1|qr_nm:gd|res:RC4|com-cf:nl|ptrs:na|ktp:N0|mc:214612|mtp:S|qry_typ:P|lang:en|wc:3|cs:8881|v=4,Shree Balaji Infant Wear,https://www.indiamart.com/chhotejanab/?pos=20&kwd=flannel baby blanket&tags=BA||||8752.144|Price|product|||TS|rsf:gd-|-stype:attr=1|qr_nm:gd|res:RC4|com-cf:nl|ptrs:na|ktp:N0|mc:214612|mtp:S|qry_typ:P|lang:en|wc:3|cs:8881|v=4,False,Pahari Dhiraj,New Delhi,"1583- 84, Hathi Khana, Aziz Ganj, Bahadur Garh Road, Pahari Dhiraj, New Delhi - 110006, Dist.Delhi, Delhi",8047639754,
4 Pcs Baby Velvet Cotton Swaddle Flannel Baby Printed Blanket for Toddler Newborn Infant,https://www.indiamart.com/proddetail/4-pcs-baby-velvet-cotton-swaddle-flannel-baby-printed-blanket-for-toddler-newborn-infant-2851490860591.html?pos=21&kwd=flannel baby blanket&tags=BA||||8228.275|Price|product|||TS|rsf:gd-|-stype:attr=1|qr_nm:gd|res:RC4|com-cf:nl|ptrs:na|ktp:N0|mc:214612|mtp:S|qry_typ:P|lang:en|wc:3|cs:8881|v=4,Syga Home Furnishing,https://www.indiamart.com/sygahomefurnishing/?pos=21&kwd=flannel baby blanket&tags=BA||||8228.275|Price|product|||TS|rsf:gd-|-stype:attr=1|qr_nm:gd|res:RC4|com-cf:nl|ptrs:na|ktp:N0|mc:214612|mtp:S|qry_typ:P|lang:en|wc:3|cs:8881|v=4,False,Navrangpura,Ahmedabad,"A-503, Samudra Complex, Near Girish Cold Drinks C. G. Road, Navrangpura, Navrangpura, Ahmedabad - 380009, Dist.Ahmedabad, Gujarat",8048985837,
Baby Blanket 0-2 Years - Crib Infant Blanket for Boys & Girls (2 Layer Reversible),https://www.indiamart.com/proddetail/baby-blanket-0-2-years-crib-infant-blanket-for-boys-girls-2-layer-reversible-21361766397.html?pos=22&kwd=flannel baby blanket&tags=BA||||8668.838|Price|product|||TS|rsf:gd-|-stype:attr=1|qr_nm:gd|res:RC4|com-cf:nl|ptrs:na|ktp:N0|mc:214612|mtp:S|qry_typ:P|lang:en|wc:3|cs:8881|v=4,Sri Kalyan Export Private Limited,https://www.firstinbabydress.com/?pos=22&kwd=flannel baby blanket&tags=BA||||8668.838|Price|product|||TS|rsf:gd-|-stype:attr=1|qr_nm:gd|res:RC4|com-cf:nl|ptrs:na|ktp:N0|mc:214612|mtp:S|qry_typ:P|lang:en|wc:3|cs:8881|v=4,False,Vilarasampatti,Erode,"192/4, Ishwarya Garden, Sengodampalayam, Villarasampatti Post, Erode,, Vilarasampatti, Erode - 638107, Dist.Erode, Tamil Nadu",8046030291,
"Handicraftofpinkcity Cotton Hand Block Print Baby Wrap, 1 To 3, Size: 44x44''",https://www.indiamart.com/proddetail/hand-block-print-baby-wrap-22020923291.html?pos=23&kwd=flannel baby blanket&tags=BA||||8601.347|Price|product|||TS|rsf:gd-|-stype:attr=1|qr_nm:gd|res:RC4|com-cf:nl|ptrs:na|ktp:N0|mc:214612|mtp:S|qry_typ:P|lang:en|wc:3|cs:8881|v=4,Shree Shyam Textiles & Handicrafts,https://www.shreeshyamtextileandhandicraft.com/?pos=23&kwd=flannel baby blanket&tags=BA||||8601.347|Price|product|||TS|rsf:gd-|-stype:attr=1|qr_nm:gd|res:RC4|com-cf:nl|ptrs:na|ktp:N0|mc:214612|mtp:S|qry_typ:P|lang:en|wc:3|cs:8881|v=4,True,Sitapura,Jaipur,"Oppoiste Police Station, Manoharpur, Shahpura, Sitapura, Jaipur - 303104, Dist.Jaipur, Rajasthan",7942547785,
"Yellow (Base) Flannel Baby Blanket, Size: Single",https://www.indiamart.com/proddetail/flannel-baby-blanket-2853147960255.html?pos=24&kwd=flannel baby blanket&tags=BA||||8559.269|Price|product|||MDC|rsf:gd-|-stype:attr=1|qr_nm:gd|res:RC4|com-cf:nl|ptrs:na|ktp:N0|mc:214612|mtp:S|qry_typ:P|lang:en|wc:3|cs:8881|v=4,Akash Enterprises,https://www.indiamart.com/akashenterprises-indoremadhyapradesh/?pos=24&kwd=flannel baby blanket&tags=BA||||8559.269|Price|product|||MDC|rsf:gd-|-stype:attr=1|qr_nm:gd|res:RC4|com-cf:nl|ptrs:na|ktp:N0|mc:214612|mtp:S|qry_typ:P|lang:en|wc:3|cs:8881|v=4,False,Sudama Nagar,Indore,"1058K Sudama Nagar, Sudama Nagar, Indore - 452009, Dist.Indore, Madhya Pradesh",7942720321,
"Double Printed Flannel Baby Blanket, 1800, Size: 90x100",https://www.indiamart.com/proddetail/flannel-baby-blanket-21972486862.html?pos=25&kwd=flannel baby blanket&tags=BA||||8747.203|Price|product|||MDC|rsf:gd-|-stype:attr=1|qr_nm:gd|res:RC4|com-cf:nl|ptrs:na|ktp:N0|mc:214612|mtp:S|qry_typ:P|lang:en|wc:3|cs:8881|v=4,Varindavan Impex Private Limited,https://www.indiamart.com/varindavan-impex/?pos=25&kwd=flannel baby blanket&tags=BA||||8747.203|Price|product|||MDC|rsf:gd-|-stype:attr=1|qr_nm:gd|res:RC4|com-cf:nl|ptrs:na|ktp:N0|mc:214612|mtp:S|qry_typ:P|lang:en|wc:3|cs:8881|v=4,False,,Panipat,"Plot No-110,Sector-25,Huda, Part-2,Panipat, Panipat - 132103, Dist.Panipat, Haryana",8046035175,
Fleece White Baby Flannel Blankets,https://www.indiamart.com/proddetail/baby-flannel-blankets-23262378673.html?pos=26&kwd=flannel baby blanket&tags=BA||||8752.144|Price|product|||MDC|rsf:gd-|-stype:attr=1|qr_nm:gd|res:RC4|com-cf:nl|ptrs:na|ktp:N0|mc:214612|mtp:S|qry_typ:P|lang:en|wc:3|cs:8881|v=4,TGB Marketing,https://www.indiamart.com/tgb-marketing/?pos=26&kwd=flannel baby blanket&tags=BA||||8752.144|Price|product|||MDC|rsf:gd-|-stype:attr=1|qr_nm:gd|res:RC4|com-cf:nl|ptrs:na|ktp:N0|mc:214612|mtp:S|qry_typ:P|lang:en|wc:3|cs:8881|v=4,False,Chandni Chowk,New Delhi,"101, Second Floor, Khursid Market, Chandni Chowk, New Delhi - 110006, Dist.Delhi, Delhi",8046075932,
"Baby Pink (Base) Double Cotton Flannel Blanket, 750g, Size: 6x6 Feet (lxw)",https://www.indiamart.com/proddetail/cotton-flannel-blanket-27267832373.html?pos=27&kwd=flannel baby blanket&tags=BA||||8559.269|Price|product|||MDC|rsf:gd-|-stype:attr=1|qr_nm:gd|res:RC4|com-cf:nl|ptrs:na|ktp:N0|mc:214612|mtp:S|qry_typ:P|lang:en|wc:3|cs:8881|v=4,Nayak Textiles Processing Mills,https://www.indiamart.com/nayaktextilesprocessingmills/?pos=27&kwd=flannel baby blanket&tags=BA||||8559.269|Price|product|||MDC|rsf:gd-|-stype:attr=1|qr_nm:gd|res:RC4|com-cf:nl|ptrs:na|ktp:N0|mc:214612|mtp:S|qry_typ:P|lang:en|wc:3|cs:8881|v=4,False,Sanver Road Industrial Area,Indore,"308/B Industrial Area,Sector-F,Sanwer Road, Sanver Road Industrial Area, Indore - 452003, Dist.Indore, Madhya Pradesh",8047673203,
"Velvet mix Baby Wrap Blanket, Size: Singe",https://www.indiamart.com/proddetail/baby-wrap-blanket-2852453710648.html?pos=28&kwd=flannel baby blanket&tags=BA||||8752.144|Price|product|||TS|rsf:gd-|-stype:attr=1|qr_nm:gd|res:RC4|com-cf:nl|ptrs:na|ktp:N0|mc:214612|mtp:S|qry_typ:P|lang:en|wc:3|cs:8881|v=4,Man Singh & Sons Private Limited,https://www.babyproductsmanufacturer.com/?pos=28&kwd=flannel baby blanket&tags=BA||||8752.144|Price|product|||TS|rsf:gd-|-stype:attr=1|qr_nm:gd|res:RC4|com-cf:nl|ptrs:na|ktp:N0|mc:214612|mtp:S|qry_typ:P|lang:en|wc:3|cs:8881|v=4,False,Karol Bagh,New Delhi,"No. 13/24, 1st Floor, W. E. A., Karol Bagh, Karol Bagh, New Delhi - 110005, Dist.Delhi, Delhi",8048978579,
Plain Blue Fleece Baby Blanket,https://www.indiamart.com/proddetail/fleece-baby-blanket-2851448053262.html?pos=29&kwd=flannel baby blanket&tags=BB||||8747.203|Price|product|||TS|rsf:gd-|-stype:attr=1|qr_nm:gd|res:RC4|com-cf:nl|ptrs:na|ktp:N0|mc:214612|mtp:S|qry_typ:P|lang:en|wc:3|cs:8881|v=4,Ambey Spinning Mills,https://www.indiamart.com/ambey-spinning-mill/?pos=29&kwd=flannel baby blanket&tags=BB||||8747.203|Price|product|||TS|rsf:gd-|-stype:attr=1|qr_nm:gd|res:RC4|com-cf:nl|ptrs:na|ktp:N0|mc:214612|mtp:S|qry_typ:P|lang:en|wc:3|cs:8881|v=4,False,Kabri,Panipat,"Behind Shri Ram Dharam Kanta, Near Prem Petrol Pump Pakka Fatak, Kabri Road, Kabri, Panipat - 132103, Dist.Panipat, Haryana",8048601302,
"Flannel Multicolor Cartoon Baby Pillow cum baby Blanket, Shape: Oval, Size/Dimension: 14 X 14 Inch",https://www.indiamart.com/proddetail/cartoon-baby-pillow-cum-baby-blanket-2849120748988.html?pos=30&kwd=flannel baby blanket&tags=BA||||8747.203|Price|product|||TS|rsf:gd-|-stype:attr=1|qr_nm:gd|res:RC4|com-cf:nl|ptrs:na|ktp:N0|mc:214612|mtp:S|qry_typ:P|lang:en|wc:3|cs:8881|v=4,Shiv Textiles,https://www.indiamart.com/shivtextilespanipat/?pos=30&kwd=flannel baby blanket&tags=BA||||8747.203|Price|product|||TS|rsf:gd-|-stype:attr=1|qr_nm:gd|res:RC4|com-cf:nl|ptrs:na|ktp:N0|mc:214612|mtp:S|qry_typ:P|lang:en|wc:3|cs:8881|v=4,False,Jagjivan Ram Colony,Panipat,"Shop No.19-C, Aggarwal Gali Number 1, Gohana Road, Jagjivan Ram Colony, Panipat - 132103, Dist.Panipat, Haryana",7942665530,
"Character-Themed Baby Blanket Cum Towel Soft, Absorbent & Multi-Purpose",https://www.indiamart.com/proddetail/character-themed-baby-blanket-cum-towel-soft-absorbent-multi-purpose-2854921577797.html?pos=31&kwd=flannel baby blanket&tags=BB||||8661.854|Price|product|||TS|rsf:gd-|-stype:attr=1|qr_nm:gd|res:RC4|com-cf:nl|ptrs:na|ktp:N0|mc:214612|mtp:S|qry_typ:P|lang:en|wc:3|cs:8881|v=4,Adwaita Export,https://www.indiamart.com/adwaitaexport/?pos=31&kwd=flannel baby blanket&tags=BB||||8661.854|Price|product|||TS|rsf:gd-|-stype:attr=1|qr_nm:gd|res:RC4|com-cf:nl|ptrs:na|ktp:N0|mc:214612|mtp:S|qry_typ:P|lang:en|wc:3|cs:8881|v=4,False,Joshi Nagar,Ludhiana,"B-34-3912,,DURGA PURI,HAIBOWAL KALAN LUDHIANA, Joshi Nagar, Ludhiana - 141001, Dist.Ludhiana, Punjab",8044015715,
Hooded Baby Blanket,https://www.indiamart.com/proddetail/hooded-baby-blanket-2852379491662.html?pos=32&kwd=flannel baby blanket&tags=BA||||8211.142|Price|product|||TS|rsf:gd-|-stype:attr=1|qr_nm:gd|res:RC4|com-cf:nl|ptrs:na|ktp:N0|mc:214612|mtp:S|qry_typ:P|lang:en|wc:3|cs:8881|v=4,P For Panda Baby Products Private Limited,https://www.p4pandababyproducts.com/?pos=32&kwd=flannel baby blanket&tags=BA||||8211.142|Price|product|||TS|rsf:gd-|-stype:attr=1|qr_nm:gd|res:RC4|com-cf:nl|ptrs:na|ktp:N0|mc:214612|mtp:S|qry_typ:P|lang:en|wc:3|cs:8881|v=4,False,Goregaon West,Mumbai,"904 A Wing,9 Th Floor,Triple S Heights,Jakeria Road, Goregaon West, Mumbai - 400064, Dist.Mumbai, Maharashtra",7942710871,
Floral Print Velvet Baby Fleece Blanket,https://www.indiamart.com/proddetail/baby-fleece-blanket-26275248388.html?pos=33&kwd=flannel baby blanket&tags=BA||||8752.144|Price|proxy|||TS|rsf:gd-|-stype:attr=1|qr_nm:gd|res:RC4|com-cf:nl|ptrs:na|ktp:N0|mc:214612|mtp:S|qry_typ:P|lang:en|wc:3|cs:8881|v=4,Verma Enterprises,https://www.styaloindia.com/?pos=33&kwd=flannel baby blanket&tags=BA||||8752.144|Price|proxy|||TS|rsf:gd-|-stype:attr=1|qr_nm:gd|res:RC4|com-cf:nl|ptrs:na|ktp:N0|mc:214612|mtp:S|qry_typ:P|lang:en|wc:3|cs:8881|v=4,False,Samaypur,New Delhi,"Plot No.180/1-B, Kh.No. 955/1, 1st, Block-C, Raja Vihar, Siraspur, Badli, North West Delhi, Samaypur, New Delhi - 110042, Dist.Delhi, Delhi",8047654672,
"Printed Orange Flannel Baby Blanket, Size: 32x42 Inch",https://www.indiamart.com/proddetail/orange-flannel-baby-blanket-25987259330.html?pos=34&kwd=flannel baby blanket&tags=BB||||8747.203|Price|product|||NA|rsf:gd-|-stype:attr=1|qr_nm:gd|res:RC4|com-cf:nl|ptrs:na|ktp:N0|mc:214612|mtp:S|qry_typ:P|lang:en|wc:3|cs:8881|v=4,Yash Wooltex,https://www.indiamart.com/yashwooltex/?pos=34&kwd=flannel baby blanket&tags=BB||||8747.203|Price|product|||NA|rsf:gd-|-stype:attr=1|qr_nm:gd|res:RC4|com-cf:nl|ptrs:na|ktp:N0|mc:214612|mtp:S|qry_typ:P|lang:en|wc:3|cs:8881|v=4,False,,Panipat,"Opp Shivam Furnishings, Hotel Wali Gali, Kutani Road, Panipat - 132103, Dist.Panipat, Haryana",8043854666,
"Printed and Plain Baby Flannel Toy Blanket, Upto 6 Months",https://www.indiamart.com/proddetail/baby-flannel-toy-blanket-23744769797.html?pos=35&kwd=flannel baby blanket&tags=BB||||10180.86|Price|product|||NA|rsf:gd-|-stype:attr=1|qr_nm:gd|res:RC4|com-cf:nl|ptrs:na|ktp:N0|mc:214612|mtp:S|qry_typ:P|lang:en|wc:3|cs:8881|v=4,A Square International,https://www.indiamart.com/a-square-international/?pos=35&kwd=flannel baby blanket&tags=BB||||10180.86|Price|product|||NA|rsf:gd-|-stype:attr=1|qr_nm:gd|res:RC4|com-cf:nl|ptrs:na|ktp:N0|mc:214612|mtp:S|qry_typ:P|lang:en|wc:3|cs:8881|v=4,False,,Guwahati,"308, 3rd Floor, Allahabad Bank Building, SRCB Road, Fancy Bazar, Kamrup Metropolitan, Guwahati - 781001, Dist.Kamrup, Assam",8048986953,
"purple jali Little Cubs Violet Flannel Baby Blanket, 0-2 Years, Size: 100 X 90 Cm",https://www.indiamart.com/proddetail/little-cubs-violet-flannel-baby-blanket-21462848430.html?pos=36&kwd=flannel baby blanket&tags=BA||||8752.144|Price|product|||NA|rsf:gd-|-stype:attr=1|qr_nm:gd|res:RC4|com-cf:nl|ptrs:na|ktp:N0|mc:214612|mtp:S|qry_typ:P|lang:en|wc:3|cs:8881|v=4,Navkaar Traders,https://www.indiamart.com/navkaartraders/?pos=36&kwd=flannel baby blanket&tags=BA||||8752.144|Price|product|||NA|rsf:gd-|-stype:attr=1|qr_nm:gd|res:RC4|com-cf:nl|ptrs:na|ktp:N0|mc:214612|mtp:S|qry_typ:P|lang:en|wc:3|cs:8881|v=4,False,Mahendru Enclave,New Delhi,"C-37, 1st Floor, Gali No. 3, Mahendru Enclave, Mahendru Enclave, New Delhi - 110033, Dist.Delhi, Delhi",7942532296,
"Kids and Teenager Blanket Plush Cloudy Fleece, Flannel Blanket ,Box Packing",https://www.indiamart.com/proddetail/kids-and-teenager-blanket-plush-cloudy-fleece-flannel-blanket-box-packing-2851843322491.html?pos=37&kwd=flannel baby blanket&tags=BA||||8747.203||product|||NA|rsf:gd-|-stype:attr=1|qr_nm:gd|res:RC4|com-cf:nl|ptrs:na|ktp:N0|mc:214612|mtp:S|qry_typ:P|lang:en|wc:3|cs:8881|v=4,Vivek Woollen Ind.,https://www.indiamart.com/vivekwoollenindustries/?pos=37&kwd=flannel baby blanket&tags=BA||||8747.203||product|||NA|rsf:gd-|-stype:attr=1|qr_nm:gd|res:RC4|com-cf:nl|ptrs:na|ktp:N0|mc:214612|mtp:S|qry_typ:P|lang:en|wc:3|cs:8881|v=4,False,,Panipat,"38, Old Housing Board Colony, Panipat, Panipat - 132103, Dist.Panipat, Haryana",8048210193,
Gopal Darshan Baby Blanket Wrap,https://www.indiamart.com/proddetail/baby-blanket-wrap-15964941448.html?pos=38&kwd=flannel baby blanket&tags=BB||||8661.854|Price|product|||NA|rsf:gd-|-stype:attr=1|qr_nm:gd|res:RC4|com-cf:nl|ptrs:na|ktp:N0|mc:214612|mtp:S|qry_typ:P|lang:en|wc:3|cs:8881|v=4,Gopal Darshan Textile,https://www.indiamart.com/gopal-darshan-textiles/?pos=38&kwd=flannel baby blanket&tags=BB||||8661.854|Price|product|||NA|rsf:gd-|-stype:attr=1|qr_nm:gd|res:RC4|com-cf:nl|ptrs:na|ktp:N0|mc:214612|mtp:S|qry_typ:P|lang:en|wc:3|cs:8881|v=4,False,,Ludhiana,"3929/3 Hargobind Pura 4, Ludhiana - 141008, Dist.Ludhiana, Punjab",8048956657,
"k-decor Flannel Baby Blanket, 0 To2",https://www.indiamart.com/proddetail/baby-blanket-24299977233.html?pos=39&kwd=flannel baby blanket&tags=BB||||8752.144|Price|product|||NA|rsf:gd-|-stype:attr=1|qr_nm:gd|res:RC4|com-cf:nl|ptrs:na|ktp:N0|mc:214612|mtp:S|qry_typ:P|lang:en|wc:3|cs:8881|v=4,Shree Radhe Krishan Trading,https://www.indiamart.com/shreeradhekrishantrading/?pos=39&kwd=flannel baby blanket&tags=BB||||8752.144|Price|product|||NA|rsf:gd-|-stype:attr=1|qr_nm:gd|res:RC4|com-cf:nl|ptrs:na|ktp:N0|mc:214612|mtp:S|qry_typ:P|lang:en|wc:3|cs:8881|v=4,False,Tilak Nagar,New Delhi,"11/12 Ab, First Floor, Tilak Nagar, Delhi, West Delhi, , Delhi, Tilak Nagar, New Delhi - 110018, Dist.Delhi, Delhi",8048979718,
"Soft Velvet Cartoon Baby Wrapping Blanket, 0 To 2",https://www.indiamart.com/proddetail/baby-wrapping-blanket-21911222873.html?pos=40&kwd=flannel baby blanket&tags=BB||||8211.142||product|||NA|rsf:gd-|-stype:attr=1|qr_nm:gd|res:RC4|com-cf:nl|ptrs:na|ktp:N0|mc:214612|mtp:S|qry_typ:P|lang:en|wc:3|cs:8881|v=4,Shri Sainath Store,https://www.indiamart.com/shri-sainath-store/?pos=40&kwd=flannel baby blanket&tags=BB||||8211.142||product|||NA|rsf:gd-|-stype:attr=1|qr_nm:gd|res:RC4|com-cf:nl|ptrs:na|ktp:N0|mc:214612|mtp:S|qry_typ:P|lang:en|wc:3|cs:8881|v=4,False,Malad West,Mumbai,"Shop No.-16/ A, Natraj Market, Malad West, Mumbai - 400064, Dist.Mumbai, Maharashtra",8048247120,4517
"KGN INTERNATIONAL Flannel Twinkle Star Baby Blanket, Size: Singe, 0-2 Year",https://www.indiamart.com/proddetail/twinkle-star-baby-blanket-2850403122162.html?pos=41&kwd=flannel baby blanket&tags=BA||||8661.854|Price|product|||NA|rsf:gd-|-stype:attr=1|qr_nm:gd|res:RC4|com-cf:nl|ptrs:na|ktp:N0|mc:214612|mtp:S|qry_typ:P|lang:en|wc:3|cs:8881|v=4,K.G.N. International,https://www.indiamart.com/kgn-internationalludhiana/?pos=41&kwd=flannel baby blanket&tags=BA||||8661.854|Price|product|||NA|rsf:gd-|-stype:attr=1|qr_nm:gd|res:RC4|com-cf:nl|ptrs:na|ktp:N0|mc:214612|mtp:S|qry_typ:P|lang:en|wc:3|cs:8881|v=4,False,Haibowal Kalan,Ludhiana,"House No 18, Street No 5 Ajit Nagar, Haibowal Kalan, Ludhiana - 141001, Dist.Ludhiana, Punjab",7942802358,
CHARACTER BLANKET FOR BABY WINTER BLANKETS,https://www.indiamart.com/proddetail/character-blanket-for-baby-winter-blankets-2852328508897.html?pos=42&kwd=flannel baby blanket&tags=BB||||8661.854|Price|product|||NA|rsf:gd-|-stype:attr=1|qr_nm:gd|res:RC4|com-cf:nl|ptrs:na|ktp:N0|mc:214612|mtp:S|qry_typ:P|lang:en|wc:3|cs:8881|v=4,DAYAL DASS TRADERS,https://www.indiamart.com/dayaldasstraders/?pos=42&kwd=flannel baby blanket&tags=BB||||8661.854|Price|product|||NA|rsf:gd-|-stype:attr=1|qr_nm:gd|res:RC4|com-cf:nl|ptrs:na|ktp:N0|mc:214612|mtp:S|qry_typ:P|lang:en|wc:3|cs:8881|v=4,False,,Ludhiana,"123, New Raj Guru Nagar,, Ludhiana - 141001, Dist.Ludhiana, Punjab",8047650977,
CHARACTER BLANKET FOR BABY WINTER BLANKETS,https://www.indiamart.com/proddetail/character-blanket-for-baby-winter-blankets-2852328508897.html?pos=43&kwd=flannel baby blanket&tags=BB||||8661.854|Price|product|||NA|rsf:gd-|-stype:attr=1|qr_nm:gd|res:RC4|com-cf:nl|ptrs:na|ktp:N0|mc:214612|mtp:S|qry_typ:P|lang:en|wc:3|cs:8881|v=4,DAYAL DASS TRADERS,https://www.indiamart.com/dayaldasstraders/?pos=43&kwd=flannel baby blanket&tags=BB||||8661.854|Price|product|||NA|rsf:gd-|-stype:attr=1|qr_nm:gd|res:RC4|com-cf:nl|ptrs:na|ktp:N0|mc:214612|mtp:S|qry_typ:P|lang:en|wc:3|cs:8881|v=4,False,,Ludhiana,"123, New Raj Guru Nagar,, Ludhiana - 141001, Dist.Ludhiana, Punjab",8047650977,
Plain BABY MUSLIN SWADDLE WARP OR MUSLIN SWADDLE BLANKET,https://www.indiamart.com/proddetail/baby-muslin-swaddle-warp-or-muslin-swaddle-blanket-2849665520073.html?pos=44&kwd=flannel baby blanket&tags=BB||||8626.744|Price|product|||NA|rsf:gd-|-stype:attr=1|qr_nm:gd|res:RC4|com-cf:nl|ptrs:na|ktp:N0|mc:214612|mtp:S|qry_typ:P|lang:en|wc:3|cs:8881|v=4,Sedulous Clothings,https://www.indiamart.com/sedulous-clothings/?pos=44&kwd=flannel baby blanket&tags=BB||||8626.744|Price|product|||NA|rsf:gd-|-stype:attr=1|qr_nm:gd|res:RC4|com-cf:nl|ptrs:na|ktp:N0|mc:214612|mtp:S|qry_typ:P|lang:en|wc:3|cs:8881|v=4,False,,Tiruppur,"1/402 KNP Colony Post K Chettipalayam Dharapuram Road, Tiruppur - 641608, Dist.Coimbatore, Tamil Nadu",7942794994,
China Baby Blanket,,Vikas Textile Industries,https://www.indiamart.com/vikas-textileindustries/?pos=45&kwd=flannel baby blanket&tags=BB||||8747.203|Price|product|||NA|rsf:gd-|-stype:attr=1|qr_nm:gd|res:RC4|com-cf:nl|ptrs:na|ktp:N0|mc:214612|mtp:S|qry_typ:P|lang:en|wc:3|cs:8881|v=4,False,,Panipat,"Basement And Ground Floor Shop No. 108 New Pachranga Bazaar Market, Panipat - 132103, Dist.Panipat, Haryana",8043854022,
Flano Baby Blanket,,Roopali Handloom,https://www.indiamart.com/roopali-handloom/?pos=46&kwd=flannel baby blanket&tags=BB||||8747.203||product|||NA|rsf:gd-|-stype:attr=1|qr_nm:gd|res:RC4|com-cf:nl|ptrs:na|ktp:N0|mc:214612|mtp:S|qry_typ:P|lang:en|wc:3|cs:8881|v=4,False,,Panipat,"1 Pachranga Bazar Panipat Panipat, Panipat - 132103, Dist.Panipat, Haryana",8048249727,6101
Baby Wrapper/ Baby Blanket,,Krishna Krishna Enterprises,https://www.indiamart.com/ms-krishna-krishna-enterprises/?pos=47&kwd=flannel baby blanket&tags=BB||||8747.203||product|||NA|rsf:gd-|-stype:attr=1|qr_nm:gd|res:RC4|com-cf:nl|ptrs:na|ktp:N0|mc:214612|mtp:S|qry_typ:P|lang:en|wc:3|cs:8881|v=4,False,Sethi chowk,Panipat,"66/8 near lal masjid, Sethi chowk, Panipat - 132103, Dist.Panipat, Haryana",8069013436,735
Kids Blanket,,Goyal Textiles,https://www.indiamart.com/goyal-textiles/?pos=48&kwd=flannel baby blanket&tags=BB||||8661.854||product|||NA|rsf:gd-|-stype:attr=1|qr_nm:gd|res:RC4|com-cf:nl|ptrs:na|ktp:N0|mc:214612|mtp:S|qry_typ:P|lang:en|wc:3|cs:8881|v=4,False,,Ludhiana,"B VIII 343, Mochpura Bazar, Gali No. 1 Near Gujral Shawl Market, Ludhiana - 141008, Dist.Ludhiana, Punjab",8069033835,499
Fancy Kids Blankets,,G.H.W. Knitwears Pvt.Ltd.,https://www.indiamart.com/ghwknitwears/?pos=50&kwd=flannel baby blanket&tags=BA||||8661.854|Price|product|||NA|rsf:gd-|-stype:attr=1|qr_nm:gd|res:RC4|com-cf:nl|ptrs:na|ktp:N0|mc:214612|mtp:S|qry_typ:P|lang:en|wc:3|cs:8881|v=4,False,Miller Ganj,Ludhiana,"B-V-1187, Brahampuri, Opp. SBI, Miller Ganj, Ludhiana - 141008, Dist.Ludhiana, Punjab",8047314154,
Fancy Kids Blankets,,G.H.W. Knitwears Pvt.Ltd.,https://www.indiamart.com/ghwknitwears/?pos=50&kwd=flannel baby blanket&tags=BA||||8661.854|Price|product|||NA|rsf:gd-|-stype:attr=1|qr_nm:gd|res:RC4|com-cf:nl|ptrs:na|ktp:N0|mc:214612|mtp:S|qry_typ:P|lang:en|wc:3|cs:8881|v=4,False,Miller Ganj,Ludhiana,"B-V-1187, Brahampuri, Opp. SBI, Miller Ganj, Ludhiana - 141008, Dist.Ludhiana, Punjab",8047314154,
Velvet Baby Wrap Blanket,https://www.indiamart.com/proddetail/baby-wrap-blanket-2852308135773.html?pos=51&kwd=flannel baby blanket&tags=CC||||8747.203|Price|product|||TS|rsf:gd-|-stype:attr=1|qr_nm:gd|res:RC4|com-cf:nl|ptrs:na|ktp:N0|mc:214612|mtp:S|qry_typ:P|lang:en|wc:3|cs:8881|v=4,Tulsi Handicraft,https://www.indiamart.com/tulsihandicraftpanipat/?pos=51&kwd=flannel baby blanket&tags=CC||||8747.203|Price|product|||TS|rsf:gd-|-stype:attr=1|qr_nm:gd|res:RC4|com-cf:nl|ptrs:na|ktp:N0|mc:214612|mtp:S|qry_typ:P|lang:en|wc:3|cs:8881|v=4,False,Netaji Colony,Panipat,"10, Gangapuri Road, Netaji Colony, Panipat - 132103, Dist.Panipat, Haryana",7942837797,
Printed Baby Blanket,,RR Creations,https://www.rrcreation.co.in/?pos=52&kwd=flannel baby blanket&tags=CC||||8601.347|Price|product|||TS|rsf:gd-|-stype:attr=1|qr_nm:gd|res:RC4|com-cf:nl|ptrs:na|ktp:N0|mc:214612|mtp:S|qry_typ:P|lang:en|wc:3|cs:8881|v=4,False,Raghunathgarh,Jaipur,"A7D, Raghunath Colony, Galta Gate, Raghunathgarh, Jaipur - 302003, Dist.Jaipur, Rajasthan",8047620731,
Alphabet Printed Baby Wrap Blanket,https://www.indiamart.com/proddetail/alphabet-printed-baby-wrap-blanket-2854158251797.html?pos=53&kwd=flannel baby blanket&tags=CC||||8661.854|Price|product|||MDC|rsf:gd-|-stype:attr=1|qr_nm:gd|res:RC4|com-cf:nl|ptrs:na|ktp:N0|mc:214612|mtp:S|qry_typ:P|lang:en|wc:3|cs:8881|v=4,Sai Trading Company,https://www.indiamart.com/sai-tradingcompany-ludhiana/?pos=53&kwd=flannel baby blanket&tags=CC||||8661.854|Price|product|||MDC|rsf:gd-|-stype:attr=1|qr_nm:gd|res:RC4|com-cf:nl|ptrs:na|ktp:N0|mc:214612|mtp:S|qry_typ:P|lang:en|wc:3|cs:8881|v=4,False,Chaura Bazar Area,Ludhiana,"Mochpura Bazar, No. 139 Block Viii, Rajesh Shawls, Chaura Bazar Area, Ludhiana - 141008, Dist.Ludhiana, Punjab",8045736579,
Pink Soft Baby Blanket,https://www.indiamart.com/proddetail/soft-baby-blanket-22756878488.html?pos=54&kwd=flannel baby blanket&tags=CC||||8747.203|Price|product|||TS|rsf:gd-|-stype:attr=1|qr_nm:gd|res:RC4|com-cf:nl|ptrs:na|ktp:N0|mc:214612|mtp:S|qry_typ:P|lang:en|wc:3|cs:8881|v=4,Muskan Collections,https://www.indiamart.com/muskan-collections-haryana/?pos=54&kwd=flannel baby blanket&tags=CC||||8747.203|Price|product|||TS|rsf:gd-|-stype:attr=1|qr_nm:gd|res:RC4|com-cf:nl|ptrs:na|ktp:N0|mc:214612|mtp:S|qry_typ:P|lang:en|wc:3|cs:8881|v=4,False,Kabul Bagh,Panipat,"GALI NO 3 UGRA KHERI MOD, Kabul Bagh, Panipat - 132103, Dist.Panipat, Haryana",8047633020,
Polyester Multicolor Flannel Baby Blanket,https://www.indiamart.com/proddetail/flannel-baby-blanket-2854310014391.html?pos=55&kwd=flannel baby blanket&tags=CC||||8747.203||product|||MDC|rsf:gd-|-stype:attr=1|qr_nm:gd|res:RC4|com-cf:nl|ptrs:na|ktp:N0|mc:214612|mtp:S|qry_typ:P|lang:en|wc:3|cs:8881|v=4,Aman Furnishings,https://www.indiamart.com/amanfurnishings/?pos=55&kwd=flannel baby blanket&tags=CC||||8747.203||product|||MDC|rsf:gd-|-stype:attr=1|qr_nm:gd|res:RC4|com-cf:nl|ptrs:na|ktp:N0|mc:214612|mtp:S|qry_typ:P|lang:en|wc:3|cs:8881|v=4,False,Chawla Colony,Panipat,"OPP Kanta Fabrics, Gali No. 6, Ganesh Nagar Welfare Society, Sanoli Road, Chawla Colony, Panipat - 132103, Dist.Panipat, Haryana",8044012199,
"Raymond Home Printed Flannel Baby Blanket, Size: 60*90 Inch",https://www.indiamart.com/proddetail/flannel-baby-blanket-19445179948.html?pos=56&kwd=flannel baby blanket&tags=CC||||8236.946|Price|product|||TS|rsf:gd-|-stype:attr=1|qr_nm:gd|res:RC4|com-cf:nl|ptrs:na|ktp:N0|mc:214612|mtp:S|qry_typ:P|lang:en|wc:3|cs:8881|v=4,Ashraj Handlooms,https://www.indiamart.com/ashrajhandlooms/?pos=56&kwd=flannel baby blanket&tags=CC||||8236.946|Price|product|||TS|rsf:gd-|-stype:attr=1|qr_nm:gd|res:RC4|com-cf:nl|ptrs:na|ktp:N0|mc:214612|mtp:S|qry_typ:P|lang:en|wc:3|cs:8881|v=4,False,Khanda Colony,Raigad,"Plot No. 90, CKT Road, Khanda Colony, Raigad - 410206, Maharashtra",8047641387,
ananda Mix Flannel Baby Blanket,https://www.indiamart.com/proddetail/flannel-baby-blanket-2849707585412.html?pos=57&kwd=flannel baby blanket&tags=CC||||8747.203|Price|product|||TS|rsf:gd-|-stype:attr=1|qr_nm:gd|res:RC4|com-cf:nl|ptrs:na|ktp:N0|mc:214612|mtp:S|qry_typ:P|lang:en|wc:3|cs:8881|v=4,Anand Fabrics,https://www.indiamart.com/anandfabricspanipat/?pos=57&kwd=flannel baby blanket&tags=CC||||8747.203|Price|product|||TS|rsf:gd-|-stype:attr=1|qr_nm:gd|res:RC4|com-cf:nl|ptrs:na|ktp:N0|mc:214612|mtp:S|qry_typ:P|lang:en|wc:3|cs:8881|v=4,False,Huda,Panipat,"104, SD College Road, Huda, Panipat - 132103, Dist.Panipat, Haryana",7942556232,
assorted Loft Fleece Baby Blanket harshit international,https://www.indiamart.com/proddetail/loft-fleece-baby-blanket-harshit-international-12429978633.html?pos=58&kwd=flannel baby blanket&tags=CC||||8747.203|Price|product|||TS|rsf:gd-|-stype:attr=1|qr_nm:gd|res:RC4|com-cf:nl|ptrs:na|ktp:N0|mc:214612|mtp:S|qry_typ:P|lang:en|wc:3|cs:8881|v=4,Harshit International,https://www.indiamart.com/harshitinternational/?pos=58&kwd=flannel baby blanket&tags=CC||||8747.203|Price|product|||TS|rsf:gd-|-stype:attr=1|qr_nm:gd|res:RC4|com-cf:nl|ptrs:na|ktp:N0|mc:214612|mtp:S|qry_typ:P|lang:en|wc:3|cs:8881|v=4,False,Huda,Panipat,"Urban Estate, Sector- 12, 600, Near SD Vidya Mandir, Huda, Panipat - 132103, Dist.Panipat, Haryana",8046047820,
"Single Olive Green And Pink Babymoon Merino Wool Flannel Baby Blanket, 0-1 Year, Size: 30 X 35cm",https://www.indiamart.com/proddetail/babymoon-merino-wool-flannel-baby-blanket-22052678373.html?pos=59&kwd=flannel baby blanket&tags=CC||||8228.275|Price|product|||MDC|rsf:gd-|-stype:attr=1|qr_nm:gd|res:RC4|com-cf:nl|ptrs:na|ktp:N0|mc:214612|mtp:S|qry_typ:P|lang:en|wc:3|cs:8881|v=4,Dream Works,https://www.indiamart.com/dreamworks-ahmedabad/?pos=59&kwd=flannel baby blanket&tags=CC||||8228.275|Price|product|||MDC|rsf:gd-|-stype:attr=1|qr_nm:gd|res:RC4|com-cf:nl|ptrs:na|ktp:N0|mc:214612|mtp:S|qry_typ:P|lang:en|wc:3|cs:8881|v=4,False,Sanathal,Ahmedabad,"5,Chanakya Bunglows,Nr Lad Society Common Plot,Vastrapur, Sanathal, Ahmedabad - 380054, Dist.Ahmedabad, Gujarat",8047663803,
"BABY Flannel Baby Blanket, Size: Singe, 0 To 5 Years",https://www.indiamart.com/proddetail/baby-flannel-baby-blanket-size-singe-2851243104033.html?pos=60&kwd=flannel baby blanket&tags=CC||||8677.154|Price|product|||MDC|rsf:gd-|-stype:attr=1|qr_nm:gd|res:RC4|com-cf:nl|ptrs:na|ktp:N0|mc:214612|mtp:S|qry_typ:P|lang:en|wc:3|cs:8881|v=4,Divisha International,https://www.indiamart.com/divishainternational/?pos=60&kwd=flannel baby blanket&tags=CC||||8677.154|Price|product|||MDC|rsf:gd-|-stype:attr=1|qr_nm:gd|res:RC4|com-cf:nl|ptrs:na|ktp:N0|mc:214612|mtp:S|qry_typ:P|lang:en|wc:3|cs:8881|v=4,False,Doraha,Doraha,"C-25, Punjab Apparel Park, Near Macdonalds, GT. Road, Doraha, Doraha - 141421, Dist.Ludhiana, Punjab",7942623438,
"Double Milled Printed Flannel Blanket, Size: 5x7''",https://www.indiamart.com/proddetail/printed-flannel-blanket-22659509733.html?pos=61&kwd=flannel baby blanket&tags=CC||||8747.203|Price|product|||TS|rsf:gd-|-stype:attr=1|qr_nm:gd|res:RC4|com-cf:nl|ptrs:na|ktp:N0|mc:214612|mtp:S|qry_typ:P|lang:en|wc:3|cs:8881|v=4,Mansimrat Textiles,https://www.indiamart.com/mansimrat-textiles/?pos=61&kwd=flannel baby blanket&tags=CC||||8747.203|Price|product|||TS|rsf:gd-|-stype:attr=1|qr_nm:gd|res:RC4|com-cf:nl|ptrs:na|ktp:N0|mc:214612|mtp:S|qry_typ:P|lang:en|wc:3|cs:8881|v=4,False,Chawla Colony,Panipat,"Khasra No 295/2, Mansimrat Textiles, Ward-11 Near Matta Chowk, Chawla Colony, Panipat - 132103, Dist.Panipat, Haryana",8046040249,
"Multicolor Single 30x40 Inch Cloudy Flannel Blanket, Size: Singe, Packaging Type: Packet",https://www.indiamart.com/proddetail/30x40-inch-cloudy-flannel-blanket-25350355391.html?pos=62&kwd=flannel baby blanket&tags=CC||||8747.203|Price|product|||TS|rsf:gd-|-stype:attr=1|qr_nm:gd|res:RC4|com-cf:nl|ptrs:na|ktp:N0|mc:214612|mtp:S|qry_typ:P|lang:en|wc:3|cs:8881|v=4,Anand International,https://www.bestvaluewholesale.co.in/?pos=62&kwd=flannel baby blanket&tags=CC||||8747.203|Price|product|||TS|rsf:gd-|-stype:attr=1|qr_nm:gd|res:RC4|com-cf:nl|ptrs:na|ktp:N0|mc:214612|mtp:S|qry_typ:P|lang:en|wc:3|cs:8881|v=4,False,Shiv Nagar,Panipat,"Plot No-181, Anand International, Sec-25 Part-2, Huda,, Shiv Nagar, Panipat - 132103, Dist.Panipat, Haryana",8047314578,
"Multicolor Printed Organic Cotton Baby Blanket, Size: Double",https://www.indiamart.com/proddetail/organic-cotton-baby-blanket-2850900517991.html?pos=63&kwd=flannel baby blanket&tags=CC||||8717.363|Price|product|||TS|rsf:gd-|-stype:attr=1|qr_nm:gd|res:RC4|com-cf:nl|ptrs:na|ktp:N0|mc:214612|mtp:S|qry_typ:P|lang:en|wc:3|cs:8881|v=4,Hublot Impex,https://www.hublotimpex.in/?pos=63&kwd=flannel baby blanket&tags=CC||||8717.363|Price|product|||TS|rsf:gd-|-stype:attr=1|qr_nm:gd|res:RC4|com-cf:nl|ptrs:na|ktp:N0|mc:214612|mtp:S|qry_typ:P|lang:en|wc:3|cs:8881|v=4,False,Swamy Nagar,Namakkal,"Second Floor 3/227e5/2d West Street, Nalipalayam Bypass Road K J Complex Nallipalayam, Swamy Nagar, Namakkal - 637003, Dist.Namakkal, Tamil Nadu",8048600000,
Kids Blanket,,Invogue Collection,https://www.indiamart.com/invogue-mumbai/?pos=64&kwd=flannel baby blanket&tags=CC||||8211.142|Price|product|||TS|rsf:gd-|-stype:attr=1|qr_nm:gd|res:RC4|com-cf:nl|ptrs:na|ktp:N0|mc:214612|mtp:S|qry_typ:P|lang:en|wc:3|cs:8881|v=4,False,Malad East,Mumbai,"17, Plot no 33/B, Sarvar Manzil, Pushpa Park, Malad East, Suburban, Malad East, Mumbai - 400097, Dist.Mumbai, Maharashtra",8047677715,
Brown (Base) Printed Flannel Baby Blanket,https://www.indiamart.com/proddetail/printed-flannel-baby-blanket-2853895764562.html?pos=67&kwd=flannel baby blanket&tags=CC||||8747.203|Price|product|||MDC|rsf:gd-|-stype:attr=1|qr_nm:gd|res:RC4|com-cf:nl|ptrs:na|ktp:N0|mc:214612|mtp:S|qry_typ:P|lang:en|wc:3|cs:8881|v=4,Sai Impex,https://www.indiamart.com/sai-impex-panipat/?pos=67&kwd=flannel baby blanket&tags=CC||||8747.203|Price|product|||MDC|rsf:gd-|-stype:attr=1|qr_nm:gd|res:RC4|com-cf:nl|ptrs:na|ktp:N0|mc:214612|mtp:S|qry_typ:P|lang:en|wc:3|cs:8881|v=4,False,,Panipat,"581/4, Circular Road, Near Amar, Bhawan Chowk,, Panipat - 132103, Dist.Panipat, Haryana",7949329674,
"Jewelkraft Designs Cartoon Kids Blanket, 4+, Size: 43*58",https://www.indiamart.com/proddetail/kids-blanket-22203369588.html?pos=66&kwd=flannel baby blanket&tags=CC||||8228.275|Price|product|||MDC|rsf:gd-|-stype:attr=1|qr_nm:gd|res:RC4|com-cf:nl|ptrs:na|ktp:N0|mc:214612|mtp:S|qry_typ:P|lang:en|wc:3|cs:8881|v=4,Jewelkraft Designs,https://www.indiamart.com/jewelkraftdesigns/?pos=66&kwd=flannel baby blanket&tags=CC||||8228.275|Price|product|||MDC|rsf:gd-|-stype:attr=1|qr_nm:gd|res:RC4|com-cf:nl|ptrs:na|ktp:N0|mc:214612|mtp:S|qry_typ:P|lang:en|wc:3|cs:8881|v=4,False,Acharya Narendradev Nagar,Ahmedabad,"B-502, Samas Appartment Opposite AMA Hall, Acharya Narendradev Nagar, Ahmedabad - 380015, Dist.Ahmedabad, Gujarat",8046063650,
Brown (Base) Printed Flannel Baby Blanket,https://www.indiamart.com/proddetail/printed-flannel-baby-blanket-2853895764562.html?pos=67&kwd=flannel baby blanket&tags=CC||||8747.203|Price|product|||MDC|rsf:gd-|-stype:attr=1|qr_nm:gd|res:RC4|com-cf:nl|ptrs:na|ktp:N0|mc:214612|mtp:S|qry_typ:P|lang:en|wc:3|cs:8881|v=4,Sai Impex,https://www.indiamart.com/sai-impex-panipat/?pos=67&kwd=flannel baby blanket&tags=CC||||8747.203|Price|product|||MDC|rsf:gd-|-stype:attr=1|qr_nm:gd|res:RC4|com-cf:nl|ptrs:na|ktp:N0|mc:214612|mtp:S|qry_typ:P|lang:en|wc:3|cs:8881|v=4,False,,Panipat,"581/4, Circular Road, Near Amar, Bhawan Chowk,, Panipat - 132103, Dist.Panipat, Haryana",7949329674,
Super Soft Cloudy Baby Blankets,https://www.indiamart.com/proddetail/super-soft-cloudy-baby-blankets-2852051905873.html?pos=68&kwd=flannel baby blanket&tags=CC||||9045.955||product|||MDC|rsf:gd-|-stype:attr=1|qr_nm:gd|res:RC4|com-cf:nl|ptrs:na|ktp:N0|mc:214612|mtp:S|qry_typ:P|lang:en|wc:3|cs:8881|v=4,The Textiles,https://www.indiamart.com/textiles-kanpur/?pos=68&kwd=flannel baby blanket&tags=CC||||9045.955||product|||MDC|rsf:gd-|-stype:attr=1|qr_nm:gd|res:RC4|com-cf:nl|ptrs:na|ktp:N0|mc:214612|mtp:S|qry_typ:P|lang:en|wc:3|cs:8881|v=4,False,Meerpur Cantt,Kanpur,"66, Faithful Ganj Kanpur Nagar, Meerpur Cantt, Kanpur - 208004, Uttar Pradesh",7942865242,
"White (Base) Jamdani Cotton Baby Swaddle, 6 Month, Size: 30 X 30 Inch",https://www.indiamart.com/proddetail/jamdani-cotton-baby-swaddle-2850387149388.html?pos=69&kwd=flannel baby blanket&tags=CC||||9839.57|Price|product|||MDC|rsf:gd-|-stype:attr=1|qr_nm:gd|res:RC4|com-cf:nl|ptrs:na|ktp:N0|mc:214612|mtp:S|qry_typ:P|lang:en|wc:3|cs:8881|v=4,ARS Fabrics And Embroidery,https://www.indiamart.com/arsfabrics-embroidery/?pos=69&kwd=flannel baby blanket&tags=CC||||9839.57|Price|product|||MDC|rsf:gd-|-stype:attr=1|qr_nm:gd|res:RC4|com-cf:nl|ptrs:na|ktp:N0|mc:214612|mtp:S|qry_typ:P|lang:en|wc:3|cs:8881|v=4,False,Santoshpur,Kolkata,"Bl-A/16, Flat-4D, 4 Floor, Saptrishi Apartment, Nandan Kanan, Kalikapur, Santoshpur Link Road, Santoshpur, Kolkata - 700075, Dist.Kolkata, West Bengal",7942818233,
"Oscar White Hooded Swaddle Wrapper / Baby Blanket, 0-9 Months, Size: 68 X 74 Cms",https://www.indiamart.com/proddetail/hooded-swaddle-wrapper-baby-blanket-21448518112.html?pos=70&kwd=flannel baby blanket&tags=||||8778.123|Price|product|||TS|rsf:gd-|-stype:attr=1|qr_nm:gd|res:RC4|com-cf:nl|ptrs:na|ktp:N0|mc:214612|mtp:S|qry_typ:P|lang:en|wc:3|cs:8881|v=4,Oscar Overseas,https://www.oscar-india.com/?pos=70&kwd=flannel baby blanket&tags=||||8778.123|Price|product|||TS|rsf:gd-|-stype:attr=1|qr_nm:gd|res:RC4|com-cf:nl|ptrs:na|ktp:N0|mc:214612|mtp:S|qry_typ:P|lang:en|wc:3|cs:8881|v=4,False,,Noida,"A-99 Sector 5, Noida - 201301, Dist.Gautam Budh Nagar, Uttar Pradesh",8046058290,
"Yellow Print 100% Organic Cotton Baby Muslin Swaddles, Size: Singe",https://www.indiamart.com/proddetail/baby-muslin-swaddles-2854362104230.html?pos=71&kwd=flannel baby blanket&tags=||||8706.263|Price|product|||TS|rsf:gd-|-stype:attr=1|qr_nm:gd|res:RC4|com-cf:nl|ptrs:na|ktp:N0|mc:214612|mtp:S|qry_typ:P|lang:en|wc:3|cs:8881|v=4,Bowerbird Interios,https://www.organicfabricmanufacturer.com/?pos=71&kwd=flannel baby blanket&tags=||||8706.263|Price|product|||TS|rsf:gd-|-stype:attr=1|qr_nm:gd|res:RC4|com-cf:nl|ptrs:na|ktp:N0|mc:214612|mtp:S|qry_typ:P|lang:en|wc:3|cs:8881|v=4,False,Ramanujam Nagar,Karur,"1/137, Covai Road South, Ramanujam Nagar, Karur - 639002, Dist.Karur, Tamil Nadu",8048971552,
Baby Flannel Flat Sheets,https://www.indiamart.com/proddetail/baby-flannel-flat-sheets-13442227655.html?pos=72&kwd=flannel baby blanket&tags=||||8559.269|Price|product|||MDC|rsf:gd-|-stype:attr=1|qr_nm:gd|res:RC4|com-cf:nl|ptrs:na|ktp:N0|mc:214612|mtp:S|qry_typ:P|lang:en|wc:3|cs:8881|v=4,Navkar Textiles,https://www.indiamart.com/navkartextilesindore/?pos=72&kwd=flannel baby blanket&tags=||||8559.269|Price|product|||MDC|rsf:gd-|-stype:attr=1|qr_nm:gd|res:RC4|com-cf:nl|ptrs:na|ktp:N0|mc:214612|mtp:S|qry_typ:P|lang:en|wc:3|cs:8881|v=4,False,Shivaji Nagar,Indore,"No. 339, Shivaji Nagar, Behind Hukumchand Mill, Shivaji Nagar, Indore - 452003, Dist.Indore, Madhya Pradesh",8046069243,
Size: Single Flannel Unicorn Soft Toy Cum Blanket,https://www.indiamart.com/proddetail/unicorn-soft-toy-cum-blanket-2850616062355.html?pos=73&kwd=flannel baby blanket&tags=||||8752.144|Price|product|||MDC|rsf:gd-|-stype:attr=1|qr_nm:gd|res:RC4|com-cf:nl|ptrs:na|ktp:N0|mc:214612|mtp:S|qry_typ:P|lang:en|wc:3|cs:8881|v=4,L T Textiles,https://www.indiamart.com/lttextiles/?pos=73&kwd=flannel baby blanket&tags=||||8752.144|Price|product|||MDC|rsf:gd-|-stype:attr=1|qr_nm:gd|res:RC4|com-cf:nl|ptrs:na|ktp:N0|mc:214612|mtp:S|qry_typ:P|lang:en|wc:3|cs:8881|v=4,False,Pahari Dhiraj,New Delhi,"5189-90 Main Road, Sadar Bazar, Pahari Dhiraj, New Delhi - 110006, Dist.Delhi, Delhi",7942958455,
"Multicolor Printed Flannel Blanket, Size: Double",https://www.indiamart.com/proddetail/printed-flannel-blanket-2850438699248.html?pos=74&kwd=flannel baby blanket&tags=||||8747.203||product|||TS|rsf:gd-|-stype:attr=1|qr_nm:gd|res:RC4|com-cf:nl|ptrs:na|ktp:N0|mc:214612|mtp:S|qry_typ:P|lang:en|wc:3|cs:8881|v=4,J M D Textiles,https://www.indiamart.com/jmdtextiles-panipat/?pos=74&kwd=flannel baby blanket&tags=||||8747.203||product|||TS|rsf:gd-|-stype:attr=1|qr_nm:gd|res:RC4|com-cf:nl|ptrs:na|ktp:N0|mc:214612|mtp:S|qry_typ:P|lang:en|wc:3|cs:8881|v=4,False,Colony,Panipat,"Ward No 11, Colony, Panipat - 132103, Dist.Panipat, Haryana",8048969059,
"Multicolor Micro Kids Printed Dohar Blanket, Size: 140 X 210 cm,55 X 83 Inch",https://www.indiamart.com/proddetail/kids-printed-dohar-blanket-22197106062.html?pos=75&kwd=flannel baby blanket&tags=||||8228.275|Price|product|||TS|rsf:gd-|-stype:attr=1|qr_nm:gd|res:RC4|com-cf:nl|ptrs:na|ktp:N0|mc:214612|mtp:S|qry_typ:P|lang:en|wc:3|cs:8881|v=4,CTM Homestyle Private Limited,https://www.indiamart.com/ctm-homestyle/?pos=75&kwd=flannel baby blanket&tags=||||8228.275|Price|product|||TS|rsf:gd-|-stype:attr=1|qr_nm:gd|res:RC4|com-cf:nl|ptrs:na|ktp:N0|mc:214612|mtp:S|qry_typ:P|lang:en|wc:3|cs:8881|v=4,False,Amraiwadi,Ahmedabad,"CTM Textile Mills, CTM Char Rasta, Ramol Road, Amraiwadi, Ahmedabad - 380026, Dist.Ahmedabad, Gujarat",8048953900,
Velvet Mix Newborn Baby blanket,https://www.indiamart.com/proddetail/newborn-baby-blanket-27262907730.html?pos=76&kwd=flannel baby blanket&tags=||||8954.051|Price|product|||TS|rsf:gd-|-stype:attr=1|qr_nm:gd|res:RC4|com-cf:nl|ptrs:na|ktp:N0|mc:214612|mtp:S|qry_typ:P|lang:en|wc:3|cs:8881|v=4,Sundar Garments,https://www.sundargarment.com/?pos=76&kwd=flannel baby blanket&tags=||||8954.051|Price|product|||TS|rsf:gd-|-stype:attr=1|qr_nm:gd|res:RC4|com-cf:nl|ptrs:na|ktp:N0|mc:214612|mtp:S|qry_typ:P|lang:en|wc:3|cs:8881|v=4,False,Kondithop,Chennai,"No-9 Murugesan Street Near Kondithope Park, Kondithop, Chennai - 600079, Dist.Chennai, Tamil Nadu",8048266539,
"White Muslin Baby Blanket, Size: Double",https://www.indiamart.com/proddetail/muslin-baby-blanket-2852594380133.html?pos=77&kwd=flannel baby blanket&tags=||||8954.051|Price|product|||TS|rsf:gd-|-stype:attr=1|qr_nm:gd|res:RC4|com-cf:nl|ptrs:na|ktp:N0|mc:214612|mtp:S|qry_typ:P|lang:en|wc:3|cs:8881|v=4,Tetra Clothing,https://www.tetraclothing.in/?pos=77&kwd=flannel baby blanket&tags=||||8954.051|Price|product|||TS|rsf:gd-|-stype:attr=1|qr_nm:gd|res:RC4|com-cf:nl|ptrs:na|ktp:N0|mc:214612|mtp:S|qry_typ:P|lang:en|wc:3|cs:8881|v=4,True,Gopichettipalaiyam,Chennai,"No. 59/28, Balu Building, Gopichettipalaiyam, Chennai - 638476, Dist.Chennai, Tamil Nadu",8048957951,
"Sage Green Baby Fleece Blanket, 1 Year, Size: 30x30 cm",https://www.indiamart.com/proddetail/sage-green-baby-fleece-blanket-2851612834697.html?pos=78&kwd=flannel baby blanket&tags=||||8661.854|Price|product|||MDC|rsf:gd-|-stype:attr=1|qr_nm:gd|res:RC4|com-cf:nl|ptrs:na|ktp:N0|mc:214612|mtp:S|qry_typ:P|lang:en|wc:3|cs:8881|v=4,Raj Industries,https://www.indiamart.com/raj-industries-punjab/?pos=78&kwd=flannel baby blanket&tags=||||8661.854|Price|product|||MDC|rsf:gd-|-stype:attr=1|qr_nm:gd|res:RC4|com-cf:nl|ptrs:na|ktp:N0|mc:214612|mtp:S|qry_typ:P|lang:en|wc:3|cs:8881|v=4,False,,Ludhiana,"H. No B 12 629, Kucha Anayat, Nr Div No 2 Brown Road, Ludhiana - 141008, Dist.Ludhiana, Punjab",7942800347,
Baby Girl Blanket,https://www.indiamart.com/proddetail/baby-girl-blanket-20322453588.html?pos=79&kwd=flannel baby blanket&tags=||||8706.587|Price|product|||MDC|rsf:gd-|-stype:attr=1|qr_nm:gd|res:RC4|com-cf:nl|ptrs:na|ktp:N0|mc:214612|mtp:S|qry_typ:P|lang:en|wc:3|cs:8881|v=4,Mukunda Fashions,https://www.indiamart.com/mukunda-fashions/?pos=79&kwd=flannel baby blanket&tags=||||8706.587|Price|product|||MDC|rsf:gd-|-stype:attr=1|qr_nm:gd|res:RC4|com-cf:nl|ptrs:na|ktp:N0|mc:214612|mtp:S|qry_typ:P|lang:en|wc:3|cs:8881|v=4,False,Kamarajar Salai,Madurai,"No. 3, New Pankajam Colony, Kamarajar Salai, Madurai - 625009, Dist.Madurai, Tamil Nadu",8046045955,
"Meenu's Manchesters White 100 percent premium cotton Swaddles, Size: Singe, New Born Babies",https://www.indiamart.com/proddetail/100-percent-premium-cotton-swaddles-2851565208891.html?pos=80&kwd=flannel baby blanket&tags=||||8668.838|Price|product|||TS|rsf:gd-|-stype:attr=1|qr_nm:gd|res:RC4|com-cf:nl|ptrs:na|ktp:N0|mc:214612|mtp:S|qry_typ:P|lang:en|wc:3|cs:8881|v=4,Meenu's Manchesters,https://www.hotelbedsheet.in/?pos=80&kwd=flannel baby blanket&tags=||||8668.838|Price|product|||TS|rsf:gd-|-stype:attr=1|qr_nm:gd|res:RC4|com-cf:nl|ptrs:na|ktp:N0|mc:214612|mtp:S|qry_typ:P|lang:en|wc:3|cs:8881|v=4,False,Edayankattuvalsu,Erode,"26, Nggo Colony, 1, Edayankattuvalsu, Erode - 638009, Dist.Erode, Tamil Nadu",8048609221,
Purple Apple Printed Baby Sleeping Bag,https://www.indiamart.com/proddetail/purple-apple-printed-baby-sleeping-bag-2853733785991.html?pos=81&kwd=flannel baby blanket&tags=||||8230.883|Price|product|||TS|rsf:gd-|-stype:attr=1|qr_nm:gd|res:RC4|com-cf:nl|ptrs:na|ktp:N0|mc:214612|mtp:S|qry_typ:P|lang:en|wc:3|cs:8881|v=4,Concept Enterprise,https://www.cartforbaby.com/?pos=81&kwd=flannel baby blanket&tags=||||8230.883|Price|product|||TS|rsf:gd-|-stype:attr=1|qr_nm:gd|res:RC4|com-cf:nl|ptrs:na|ktp:N0|mc:214612|mtp:S|qry_typ:P|lang:en|wc:3|cs:8881|v=4,False,Dabholi,Surat,"17, Bhumi Park Society, Near Dabholi Road, Katargam, Dabholi, Surat - 395004, Dist.Surat, Gujarat",8047546659,
"White Floral Hand Block Printed Cotton Mulmul Reversible Dohar,, Size: 60*90''",https://www.indiamart.com/proddetail/hand-block-printed-cotton-mulmul-reversible-dohar-20954150033.html?pos=82&kwd=flannel baby blanket&tags=||||8601.347|Price|product|||TS|rsf:gd-|-stype:attr=1|qr_nm:gd|res:RC4|com-cf:nl|ptrs:na|ktp:N0|mc:214612|mtp:S|qry_typ:P|lang:en|wc:3|cs:8881|v=4,Indus Art And Emporium,https://www.indusart.in/?pos=82&kwd=flannel baby blanket&tags=||||8601.347|Price|product|||TS|rsf:gd-|-stype:attr=1|qr_nm:gd|res:RC4|com-cf:nl|ptrs:na|ktp:N0|mc:214612|mtp:S|qry_typ:P|lang:en|wc:3|cs:8881|v=4,True,Mansarovar,Jaipur,"H/3, First Floor, RIICO Industrial Area, Mansarovar, Jaipur - 302020, Dist.Jaipur, Rajasthan",8048956816,
White Size: Single 3 layered 100% cotton muslin baby blanket,https://www.indiamart.com/proddetail/3-layered-100-cotton-muslin-baby-blanket-2854613184112.html?pos=83&kwd=flannel baby blanket&tags=||||8211.142|Price|product|||TS|rsf:gd-|-stype:attr=1|qr_nm:gd|res:RC4|com-cf:nl|ptrs:na|ktp:N0|mc:214612|mtp:S|qry_typ:P|lang:en|wc:3|cs:8881|v=4,Sidhshlok Enterprises,https://www.indiamart.com/sidhshlokenterprises/?pos=83&kwd=flannel baby blanket&tags=||||8211.142|Price|product|||TS|rsf:gd-|-stype:attr=1|qr_nm:gd|res:RC4|com-cf:nl|ptrs:na|ktp:N0|mc:214612|mtp:S|qry_typ:P|lang:en|wc:3|cs:8881|v=4,False,Mulund West,Mumbai,"A-9, Chagpar Khimaji, R R T Road, Mumbai Suburban, Mulund West, Mumbai - 400080, Dist.Mumbai, Maharashtra",7942832648,
"Size: Double 1+2 Solid Pencil Flannel Blanket, Packaging Type: Bale Packing",https://www.indiamart.com/proddetail/1-2-solid-pencil-flannel-blanket-2854552375588.html?pos=84&kwd=flannel baby blanket&tags=||||8747.203|Price|product|||TS|rsf:gd-|-stype:attr=1|qr_nm:gd|res:RC4|com-cf:nl|ptrs:na|ktp:N0|mc:214612|mtp:S|qry_typ:P|lang:en|wc:3|cs:8881|v=4,HOMZY Brand of (Mahalaxmi Silicates Pvt. Ltd.),https://www.indiamart.com/mahalaxmi-silicates/?pos=84&kwd=flannel baby blanket&tags=||||8747.203|Price|product|||TS|rsf:gd-|-stype:attr=1|qr_nm:gd|res:RC4|com-cf:nl|ptrs:na|ktp:N0|mc:214612|mtp:S|qry_typ:P|lang:en|wc:3|cs:8881|v=4,False,,Panipat,"Sector-29 58 Part-2 Huda, Panipat - 132103, Dist.Panipat, Haryana",8047684113,
"Polyester Night Glow Baby Blanket, Size: Singe",https://www.indiamart.com/proddetail/night-glow-baby-blanket-2854218355248.html?pos=85&kwd=flannel baby blanket&tags=||||8230.883|Price|product|||TS|rsf:gd-|-stype:attr=1|qr_nm:gd|res:RC4|com-cf:nl|ptrs:na|ktp:N0|mc:214612|mtp:S|qry_typ:P|lang:en|wc:3|cs:8881|v=4,BABYHOLIC,https://www.babyholic.in/?pos=85&kwd=flannel baby blanket&tags=||||8230.883|Price|product|||TS|rsf:gd-|-stype:attr=1|qr_nm:gd|res:RC4|com-cf:nl|ptrs:na|ktp:N0|mc:214612|mtp:S|qry_typ:P|lang:en|wc:3|cs:8881|v=4,False,,Surat,"Ground Floor, Plot No. F/56/, And F/57, Laxmi Narayan Industrial Estate, Udhana, Kailash Fashion, Surat - 394210, Dist.Surat, Gujarat",8045732096,
Size: Single Flannel Unicorn Soft Toy Cum Blanket,https://www.indiamart.com/proddetail/unicorn-soft-toy-cum-blanket-2850616062355.html?pos=86&kwd=flannel baby blanket&tags=||||8752.144|Price|product|||MDC|rsf:gd-|-stype:attr=1|qr_nm:gd|res:RC4|com-cf:nl|ptrs:na|ktp:N0|mc:214612|mtp:S|qry_typ:P|lang:en|wc:3|cs:8881|v=4,L T Textiles,https://www.indiamart.com/lttextiles/?pos=86&kwd=flannel baby blanket&tags=||||8752.144|Price|product|||MDC|rsf:gd-|-stype:attr=1|qr_nm:gd|res:RC4|com-cf:nl|ptrs:na|ktp:N0|mc:214612|mtp:S|qry_typ:P|lang:en|wc:3|cs:8881|v=4,False,Pahari Dhiraj,New Delhi,"5189-90 Main Road, Sadar Bazar, Pahari Dhiraj, New Delhi - 110006, Dist.Delhi, Delhi",7942958455,
"Mercury Printed New Born Baby 100% Cotton Soft Hooded Baby Blanket, 0- 12 Months",https://www.indiamart.com/proddetail/new-born-baby-100-cotton-soft-hooded-baby-blanket-22290033655.html?pos=87&kwd=flannel baby blanket&tags=||||8706.263|Price|product|||TS|rsf:gd-|-stype:attr=1|qr_nm:gd|res:RC4|com-cf:nl|ptrs:na|ktp:N0|mc:214612|mtp:S|qry_typ:P|lang:en|wc:3|cs:8881|v=4,Mercury Weavers,https://www.indiamart.com/mercuryweavers/?pos=87&kwd=flannel baby blanket&tags=||||8706.263|Price|product|||TS|rsf:gd-|-stype:attr=1|qr_nm:gd|res:RC4|com-cf:nl|ptrs:na|ktp:N0|mc:214612|mtp:S|qry_typ:P|lang:en|wc:3|cs:8881|v=4,False,Gowripuram,Karur,"35/3, 2nd Floor, Gandhi Nagar 3rd Cross, Karur Town, Gowripuram, Karur - 639001, Dist.Karur, Tamil Nadu",8047641180,
"Multicolor Flanno Blanket, Packaging Type: Polybag, Size: King",https://www.indiamart.com/proddetail/flanno-blanket-23915380833.html?pos=88&kwd=flannel baby blanket&tags=||||8747.203|Price|product|||TS|rsf:gd-|-stype:attr=1|qr_nm:gd|res:RC4|com-cf:nl|ptrs:na|ktp:N0|mc:214612|mtp:S|qry_typ:P|lang:en|wc:3|cs:8881|v=4,Krishna Texo Fab,https://www.indiamart.com/krishna-texo-fab/?pos=88&kwd=flannel baby blanket&tags=||||8747.203|Price|product|||TS|rsf:gd-|-stype:attr=1|qr_nm:gd|res:RC4|com-cf:nl|ptrs:na|ktp:N0|mc:214612|mtp:S|qry_typ:P|lang:en|wc:3|cs:8881|v=4,False,Old Housing Board Colony,Panipat,"1091/3 Pachranga Bazar, Old Housing Board Colony, Panipat - 132103, Dist.Panipat, Haryana",8048960024,
Cotton White base printed Hooded Baby Blanket,https://www.indiamart.com/proddetail/hooded-baby-blanket-2851209756255.html?pos=89&kwd=flannel baby blanket&tags=||||8668.838|Price|product|||TS|rsf:gd-|-stype:attr=1|qr_nm:gd|res:RC4|com-cf:nl|ptrs:na|ktp:N0|mc:214612|mtp:S|qry_typ:P|lang:en|wc:3|cs:8881|v=4,Ram Textiles,https://www.indiamart.com/ram-textiles/?pos=89&kwd=flannel baby blanket&tags=||||8668.838|Price|product|||TS|rsf:gd-|-stype:attr=1|qr_nm:gd|res:RC4|com-cf:nl|ptrs:na|ktp:N0|mc:214612|mtp:S|qry_typ:P|lang:en|wc:3|cs:8881|v=4,False,Veerappanchatram,Erode,"No. 131, M. G. R. Street-1, Veerappanchatram, Veerappanchatram, Erode - 638004, Dist.Erode, Tamil Nadu",8048611846,
"Pink Cotton Baby Sleeping bag, 3-12 Months",https://www.indiamart.com/proddetail/baby-sleeping-bag-2851102122262.html?pos=90&kwd=flannel baby blanket&tags=||||8752.144|Price|product|||TS|rsf:gd-|-stype:attr=1|qr_nm:gd|res:RC4|com-cf:nl|ptrs:na|ktp:N0|mc:214612|mtp:S|qry_typ:P|lang:en|wc:3|cs:8881|v=4,National Overseas,https://www.indiamart.com/nationaltraders-vishwashnagar/?pos=90&kwd=flannel baby blanket&tags=||||8752.144|Price|product|||TS|rsf:gd-|-stype:attr=1|qr_nm:gd|res:RC4|com-cf:nl|ptrs:na|ktp:N0|mc:214612|mtp:S|qry_typ:P|lang:en|wc:3|cs:8881|v=4,False,Shahdara,New Delhi,"1/99, Gali No. 3, Vishwas Nagar, Shahdara, New Delhi - 110032, Dist.Delhi, Delhi",8046047673,
White Plain Muslin Swaddle Blankets,https://www.indiamart.com/proddetail/muslin-swaddle-blankets-2854117916091.html?pos=91&kwd=flannel baby blanket&tags=||||8706.263|Price|product|||TS|rsf:gd-|-stype:attr=1|qr_nm:gd|res:RC4|com-cf:nl|ptrs:na|ktp:N0|mc:214612|mtp:S|qry_typ:P|lang:en|wc:3|cs:8881|v=4,P.R.Cottons,https://www.indiamart.com/prcottons/?pos=91&kwd=flannel baby blanket&tags=||||8706.263|Price|product|||TS|rsf:gd-|-stype:attr=1|qr_nm:gd|res:RC4|com-cf:nl|ptrs:na|ktp:N0|mc:214612|mtp:S|qry_typ:P|lang:en|wc:3|cs:8881|v=4,True,Near,Karur,"Ground Floor Room No.1, Door No.79/1, Vaiyapurinagar Ist Cross, Near, Karur - 639002, Dist.Karur, Tamil Nadu",8048608767,
Cotton Multicolor Hand Block Baby Blanket,https://www.indiamart.com/proddetail/hand-block-baby-blanket-26438743348.html?pos=92&kwd=flannel baby blanket&tags=||||8601.347|Price|product|||TS|rsf:gd-|-stype:attr=1|qr_nm:gd|res:RC4|com-cf:nl|ptrs:na|ktp:N0|mc:214612|mtp:S|qry_typ:P|lang:en|wc:3|cs:8881|v=4,Veer Handircrafts,https://www.veerhandicrafts.com/?pos=92&kwd=flannel baby blanket&tags=||||8601.347|Price|product|||TS|rsf:gd-|-stype:attr=1|qr_nm:gd|res:RC4|com-cf:nl|ptrs:na|ktp:N0|mc:214612|mtp:S|qry_typ:P|lang:en|wc:3|cs:8881|v=4,True,Shyam Nagar,Jaipur,"Basement, 192/331, Sector 19, Kumbha Marg, Shyam Nagar, Jaipur - 302029, Dist.Jaipur, Rajasthan",8043851762,
"Pink Cotton Baby sleeping bag, Packaging Type: Plastic cover, Newly Born",https://www.indiamart.com/proddetail/baby-sleeping-bag-2849605699691.html?pos=93&kwd=flannel baby blanket&tags=||||8954.051|Price|product|||MDC|rsf:gd-|-stype:attr=1|qr_nm:gd|res:RC4|com-cf:nl|ptrs:na|ktp:N0|mc:214612|mtp:S|qry_typ:P|lang:en|wc:3|cs:8881|v=4,Adhoniyah,https://www.indiamart.com/adhoniyah/?pos=93&kwd=flannel baby blanket&tags=||||8954.051|Price|product|||MDC|rsf:gd-|-stype:attr=1|qr_nm:gd|res:RC4|com-cf:nl|ptrs:na|ktp:N0|mc:214612|mtp:S|qry_typ:P|lang:en|wc:3|cs:8881|v=4,False,Jamalia,Chennai,"Ground Floor,5/4,Strahans Road I St Street,Otteri, Jamalia, Chennai - 600012, Dist.Chennai, Tamil Nadu",8048274134,
Velvet Mix Newborn Baby blanket,https://www.indiamart.com/proddetail/newborn-baby-blanket-27262907730.html?pos=94&kwd=flannel baby blanket&tags=||||8954.051|Price|product|||TS|rsf:gd-|-stype:attr=1|qr_nm:gd|res:RC4|com-cf:nl|ptrs:na|ktp:N0|mc:214612|mtp:S|qry_typ:P|lang:en|wc:3|cs:8881|v=4,Sundar Garments,https://www.sundargarment.com/?pos=94&kwd=flannel baby blanket&tags=||||8954.051|Price|product|||TS|rsf:gd-|-stype:attr=1|qr_nm:gd|res:RC4|com-cf:nl|ptrs:na|ktp:N0|mc:214612|mtp:S|qry_typ:P|lang:en|wc:3|cs:8881|v=4,False,Kondithop,Chennai,"No-9 Murugesan Street Near Kondithope Park, Kondithop, Chennai - 600079, Dist.Chennai, Tamil Nadu",8048266539,
"White Muslin Baby Blanket, Size: Double",https://www.indiamart.com/proddetail/muslin-baby-blanket-2852594380133.html?pos=95&kwd=flannel baby blanket&tags=||||8954.051|Price|product|||TS|rsf:gd-|-stype:attr=1|qr_nm:gd|res:RC4|com-cf:nl|ptrs:na|ktp:N0|mc:214612|mtp:S|qry_typ:P|lang:en|wc:3|cs:8881|v=4,Tetra Clothing,https://www.tetraclothing.in/?pos=95&kwd=flannel baby blanket&tags=||||8954.051|Price|product|||TS|rsf:gd-|-stype:attr=1|qr_nm:gd|res:RC4|com-cf:nl|ptrs:na|ktp:N0|mc:214612|mtp:S|qry_typ:P|lang:en|wc:3|cs:8881|v=4,True,Gopichettipalaiyam,Chennai,"No. 59/28, Balu Building, Gopichettipalaiyam, Chennai - 638476, Dist.Chennai, Tamil Nadu",8048957951,
Size: Double Multicolor 1+2 fleno blanket,https://www.indiamart.com/proddetail/1-2-fleno-blanket-2854864897097.html?pos=96&kwd=flannel baby blanket&tags=||||8747.203||product|||TS|rsf:gd-|-stype:attr=1|qr_nm:gd|res:RC4|com-cf:nl|ptrs:na|ktp:N0|mc:214612|mtp:S|qry_typ:P|lang:en|wc:3|cs:8881|v=4,Arihant Handloom Industries,https://www.indiamart.com/arihant-handloom-industries/?pos=96&kwd=flannel baby blanket&tags=||||8747.203||product|||TS|rsf:gd-|-stype:attr=1|qr_nm:gd|res:RC4|com-cf:nl|ptrs:na|ktp:N0|mc:214612|mtp:S|qry_typ:P|lang:en|wc:3|cs:8881|v=4,False,Old Housing Board Colony,Panipat,"Opposite R.K. Public School,Chawla Colony, Kutani Road,Panipat, Old Housing Board Colony, Panipat - 132103, Dist.Panipat, Haryana",7942784484,
Velvet Size: Double Baby Blankets,https://www.indiamart.com/proddetail/baby-blankets-2854715411062.html?pos=97&kwd=flannel baby blanket&tags=||||8661.854|Price|product|||MDC|rsf:gd-|-stype:attr=1|qr_nm:gd|res:RC4|com-cf:nl|ptrs:na|ktp:N0|mc:214612|mtp:S|qry_typ:P|lang:en|wc:3|cs:8881|v=4,Universal Traders,https://www.indiamart.com/universaltraderspunjab/?pos=97&kwd=flannel baby blanket&tags=||||8661.854|Price|product|||MDC|rsf:gd-|-stype:attr=1|qr_nm:gd|res:RC4|com-cf:nl|ptrs:na|ktp:N0|mc:214612|mtp:S|qry_typ:P|lang:en|wc:3|cs:8881|v=4,False,Iqbal Ganj,Ludhiana,"B-X- 435, Telian Street, Near Iqbal Ganj Chowk, Iqbal Ganj, Ludhiana - 141008, Dist.Ludhiana, Punjab",8045731865,
"White Floral Hand Block Printed Cotton Mulmul Reversible Dohar,, Size: 60*90''",https://www.indiamart.com/proddetail/hand-block-printed-cotton-mulmul-reversible-dohar-20954150033.html?pos=98&kwd=flannel baby blanket&tags=||||8601.347|Price|product|||TS|rsf:gd-|-stype:attr=1|qr_nm:gd|res:RC4|com-cf:nl|ptrs:na|ktp:N0|mc:214612|mtp:S|qry_typ:P|lang:en|wc:3|cs:8881|v=4,Indus Art And Emporium,https://www.indusart.in/?pos=98&kwd=flannel baby blanket&tags=||||8601.347|Price|product|||TS|rsf:gd-|-stype:attr=1|qr_nm:gd|res:RC4|com-cf:nl|ptrs:na|ktp:N0|mc:214612|mtp:S|qry_typ:P|lang:en|wc:3|cs:8881|v=4,True,Mansarovar,Jaipur,"H/3, First Floor, RIICO Industrial Area, Mansarovar, Jaipur - 302020, Dist.Jaipur, Rajasthan",8048956816,
"Multicolor Camrbic Cotton Single Bed Dohar Blanket, Size: 60 X 90 Inch",https://www.indiamart.com/proddetail/single-bed-dohar-blanket-24692576855.html?pos=99&kwd=flannel baby blanket&tags=||||8228.275|Price|product|||TS|rsf:gd-|-stype:attr=1|qr_nm:gd|res:RC4|com-cf:nl|ptrs:na|ktp:N0|mc:214612|mtp:S|qry_typ:P|lang:en|wc:3|cs:8881|v=4,Vardhaman Handloom,https://www.vardhamanhandloom.com/?pos=99&kwd=flannel baby blanket&tags=||||8228.275|Price|product|||TS|rsf:gd-|-stype:attr=1|qr_nm:gd|res:RC4|com-cf:nl|ptrs:na|ktp:N0|mc:214612|mtp:S|qry_typ:P|lang:en|wc:3|cs:8881|v=4,False,Isanpur,Ahmedabad,"7th, B-704, Dhwani Heights, Nr. Dhwani Tenements, B/h Muni. School, Isanpur, Isanpur, Ahmedabad - 382443, Dist.Ahmedabad, Gujarat",8047638897,
"Multicolor Woolen And Polyester Mink Blanket By Weight, Size: Double, Modern",https://www.indiamart.com/proddetail/mink-blanket-by-weight-25050219297.html?pos=100&kwd=flannel baby blanket&tags=||||8747.203|Price|product|||TS|rsf:gd-|-stype:attr=1|qr_nm:gd|res:RC4|com-cf:nl|ptrs:na|ktp:N0|mc:214612|mtp:S|qry_typ:P|lang:en|wc:3|cs:8881|v=4,Vidya Sagar Textiles,https://www.vidyasagartextiles.com/?pos=100&kwd=flannel baby blanket&tags=||||8747.203|Price|product|||TS|rsf:gd-|-stype:attr=1|qr_nm:gd|res:RC4|com-cf:nl|ptrs:na|ktp:N0|mc:214612|mtp:S|qry_typ:P|lang:en|wc:3|cs:8881|v=4,False,Mal Godown Road,Panipat,"6, Mal Godam Road, Near Sangeet Cinema Gate, Mal Godown Road, Panipat - 132103, Dist.Panipat, Haryana",8047308149,
"Mix Cotton Blankets For Kids, Size: Singe",https://www.indiamart.com/proddetail/blankets-for-kids-2851925676355.html?pos=101&kwd=flannel baby blanket&tags=||||8747.203|Price|product|||TS|rsf:gd-|-stype:attr=1|qr_nm:gd|res:RC4|com-cf:nl|ptrs:na|ktp:N0|mc:214612|mtp:S|qry_typ:P|lang:en|wc:3|cs:8881|v=4,Vardan Home Furnishings,https://www.vardanhomefurnishings.com/?pos=101&kwd=flannel baby blanket&tags=||||8747.203|Price|product|||TS|rsf:gd-|-stype:attr=1|qr_nm:gd|res:RC4|com-cf:nl|ptrs:na|ktp:N0|mc:214612|mtp:S|qry_typ:P|lang:en|wc:3|cs:8881|v=4,False,Chowk,Panipat,"Pehlwan Chowk, Vardan Home Furnishings, Kutani Road, Chowk, Panipat - 132103, Dist.Panipat, Haryana",7942957417,
Multicolor Baby Comforter,https://www.indiamart.com/proddetail/baby-comforter-2854456693933.html?pos=102&kwd=flannel baby blanket&tags=||||8747.203|Price|product|||TS|rsf:gd-|-stype:attr=1|qr_nm:gd|res:RC4|com-cf:nl|ptrs:na|ktp:N0|mc:214612|mtp:S|qry_typ:P|lang:en|wc:3|cs:8881|v=4,Pawansut Enterprises,https://www.indiamart.com/pawansutenterprises-panipat/?pos=102&kwd=flannel baby blanket&tags=||||8747.203|Price|product|||TS|rsf:gd-|-stype:attr=1|qr_nm:gd|res:RC4|com-cf:nl|ptrs:na|ktp:N0|mc:214612|mtp:S|qry_typ:P|lang:en|wc:3|cs:8881|v=4,False,Netaji Colony,Panipat,"179 Virat Nagar,,Model Town,Panipat, Netaji Colony, Panipat - 132103, Dist.Panipat, Haryana",7942956898,
Baby Pillow Cum Blanket,https://www.indiamart.com/proddetail/baby-pillow-cum-blanket-2854338251788.html?pos=103&kwd=flannel baby blanket&tags=||||8747.203|Price|product|||MDC|rsf:gd-|-stype:attr=1|qr_nm:gd|res:RC4|com-cf:nl|ptrs:na|ktp:N0|mc:214612|mtp:S|qry_typ:P|lang:en|wc:3|cs:8881|v=4,Sabmix,https://www.indiamart.com/sabmix/?pos=103&kwd=flannel baby blanket&tags=||||8747.203|Price|product|||MDC|rsf:gd-|-stype:attr=1|qr_nm:gd|res:RC4|com-cf:nl|ptrs:na|ktp:N0|mc:214612|mtp:S|qry_typ:P|lang:en|wc:3|cs:8881|v=4,False,Jattal,Panipat,"Nehar By-Pass Near Jattal Road, Near Deshwal Petrol Pump, Jattal, Panipat - 132103, Dist.Panipat, Haryana",8045165458,
"Sage Green Baby Fleece Blanket, 1 Year, Size: 30x30 cm",https://www.indiamart.com/proddetail/sage-green-baby-fleece-blanket-2851612834697.html?pos=104&kwd=flannel baby blanket&tags=||||8661.854|Price|product|||MDC|rsf:gd-|-stype:attr=1|qr_nm:gd|res:RC4|com-cf:nl|ptrs:na|ktp:N0|mc:214612|mtp:S|qry_typ:P|lang:en|wc:3|cs:8881|v=4,Raj Industries,https://www.indiamart.com/raj-industries-punjab/?pos=104&kwd=flannel baby blanket&tags=||||8661.854|Price|product|||MDC|rsf:gd-|-stype:attr=1|qr_nm:gd|res:RC4|com-cf:nl|ptrs:na|ktp:N0|mc:214612|mtp:S|qry_typ:P|lang:en|wc:3|cs:8881|v=4,False,,Ludhiana,"H. No B 12 629, Kucha Anayat, Nr Div No 2 Brown Road, Ludhiana - 141008, Dist.Ludhiana, Punjab",7942800347,
Kids cotton single bed dohar,https://www.indiamart.com/proddetail/kids-cotton-single-bed-dohar-2852086968062.html?pos=105&kwd=flannel baby blanket&tags=||||8601.347|Price|product|||TS|rsf:gd-|-stype:attr=1|qr_nm:gd|res:RC4|com-cf:nl|ptrs:na|ktp:N0|mc:214612|mtp:S|qry_typ:P|lang:en|wc:3|cs:8881|v=4,Tanchui Textile,https://www.indiamart.com/tanchui-textile-jaipur/?pos=105&kwd=flannel baby blanket&tags=||||8601.347|Price|product|||TS|rsf:gd-|-stype:attr=1|qr_nm:gd|res:RC4|com-cf:nl|ptrs:na|ktp:N0|mc:214612|mtp:S|qry_typ:P|lang:en|wc:3|cs:8881|v=4,False,Bagru,Jaipur,"Aachriyo Ka Mohlla,, Bagru, Jaipur - 303007, Dist.Jaipur, Rajasthan",8048954896,
Cartoon Kids single bed cotton dohar,https://www.indiamart.com/proddetail/kids-single-bed-cotton-dohar-2852100099633.html?pos=106&kwd=flannel baby blanket&tags=||||8601.347|Price|product|||TS|rsf:gd-|-stype:attr=1|qr_nm:gd|res:RC4|com-cf:nl|ptrs:na|ktp:N0|mc:214612|mtp:S|qry_typ:P|lang:en|wc:3|cs:8881|v=4,Paras Hastkala Block Prints,https://www.indiamart.com/parashastkalablockprints/?pos=106&kwd=flannel baby blanket&tags=||||8601.347|Price|product|||TS|rsf:gd-|-stype:attr=1|qr_nm:gd|res:RC4|com-cf:nl|ptrs:na|ktp:N0|mc:214612|mtp:S|qry_typ:P|lang:en|wc:3|cs:8881|v=4,False,Bagru,Jaipur,"Jain Mandir Nasiya Ji Ke Pass,Mahaveer Nagar,Link Road,Bagru Pooniya Colony, Jain Mandir Nasiya Ji Ke Pass, Mahaveer Nagar, Link Road, Bagru Hast Kala Printers,, Bagru, Jaipur - 303007, Dist.Jaipur, Rajasthan",7942871996,
"Grey Milled Magic Blanket Glow in The Dark, Packaging Type: Polybag, Size: Single",https://www.indiamart.com/proddetail/magic-blanket-glow-in-the-dark-2854326238591.html?pos=107&kwd=flannel baby blanket&tags=||||8211.142|Price|product|||TS|rsf:gd-|-stype:attr=1|qr_nm:gd|res:RC4|com-cf:nl|ptrs:na|ktp:N0|mc:214612|mtp:S|qry_typ:P|lang:en|wc:3|cs:8881|v=4,Parshwa Traders,https://www.parshwatrader.com/?pos=107&kwd=flannel baby blanket&tags=||||8211.142|Price|product|||TS|rsf:gd-|-stype:attr=1|qr_nm:gd|res:RC4|com-cf:nl|ptrs:na|ktp:N0|mc:214612|mtp:S|qry_typ:P|lang:en|wc:3|cs:8881|v=4,False,Masjiid bunder,Mumbai,"Crawford Market, Mumbai, 1st Floor, Shop No.4A, Amaan Mansion, 91 Sarang Street, Masjiid bunder, Mumbai - 400003, Dist.Mumbai, Maharashtra",8048963161,
Magic Glow in The Dark Blanket (Big Size) Glow in The Dark Radium Blanket for Kids Super Soft,https://www.indiamart.com/proddetail/magic-glow-in-the-dark-blanket-big-size-glow-in-the-dark-radium-blanket-for-kids-super-soft-2853134328491.html?pos=108&kwd=flannel baby blanket&tags=||||8752.144|Price|product|||TS|rsf:gd-|-stype:attr=1|qr_nm:gd|res:RC4|com-cf:nl|ptrs:na|ktp:N0|mc:214612|mtp:S|qry_typ:P|lang:en|wc:3|cs:8881|v=4,Ganga Traders,https://www.indiamart.com/gangatradersdelhi/?pos=108&kwd=flannel baby blanket&tags=||||8752.144|Price|product|||TS|rsf:gd-|-stype:attr=1|qr_nm:gd|res:RC4|com-cf:nl|ptrs:na|ktp:N0|mc:214612|mtp:S|qry_typ:P|lang:en|wc:3|cs:8881|v=4,False,Swasthya Vihar,New Delhi,"E-16/210, Ground Floor, Bapa Nagar, SHARMA, Swasthya Vihar, New Delhi - 110005, Dist.Delhi, Delhi",8043855678,
Plain Fur Sling Bag,https://www.indiamart.com/proddetail/fur-sling-bag-2851971331512.html?pos=109&kwd=flannel baby blanket&tags=||||8307.81|Price|product|||MDC|rsf:gd-|-stype:attr=1|qr_nm:gd|res:RC4|com-cf:nl|ptrs:na|ktp:N0|mc:214612|mtp:S|qry_typ:P|lang:en|wc:3|cs:8881|v=4,Neharsh Collection,https://www.indiamart.com/neharsh-collection/?pos=109&kwd=flannel baby blanket&tags=||||8307.81|Price|product|||MDC|rsf:gd-|-stype:attr=1|qr_nm:gd|res:RC4|com-cf:nl|ptrs:na|ktp:N0|mc:214612|mtp:S|qry_typ:P|lang:en|wc:3|cs:8881|v=4,False,Moshi,Pune,"C-1202 Survey No. 669 Nakshtra Land, Moshi Alandi Road, Moshi Chowk, Moshi, Pune - 412105, Dist.Pune, Maharashtra",8048604456,
"Cotton Multicolor baby godri / new born baby razai / baby quilt / bedding for cot, Single Bed, Printed",https://www.indiamart.com/proddetail/new-born-baby-blanket-baby-quilt-bedding-for-cot-baby-godri-2853243927388.html?pos=110&kwd=flannel baby blanket&tags=||||8559.269|Price|product|||MDC|rsf:gd-|-stype:attr=1|qr_nm:gd|res:RC4|com-cf:nl|ptrs:na|ktp:N0|mc:214612|mtp:S|qry_typ:P|lang:en|wc:3|cs:8881|v=4,Sheza Enterprises,https://www.indiamart.com/shezaenterprises/?pos=110&kwd=flannel baby blanket&tags=||||8559.269|Price|product|||MDC|rsf:gd-|-stype:attr=1|qr_nm:gd|res:RC4|com-cf:nl|ptrs:na|ktp:N0|mc:214612|mtp:S|qry_typ:P|lang:en|wc:3|cs:8881|v=4,False,,Indore,"Alif House, 5, Khajrana Main Road, Opposite HP Petrol Pump,, Indore - 452001, Dist.Indore, Madhya Pradesh",7948547068,
"Pink Glow In The Dark Blanket For Kids | 150 X 200 Cm | 0-15 Years, Queen Size Unicorn Flannel Blanket | Birthday Gift For Kids Bed, Sofa, Or Couch",https://www.indiamart.com/proddetail/pink-glow-in-the-dark-blanket-for-kids-150-x-200-cm-0-15-years-queen-size-unicorn-flannel-blanket-birthday-gift-for-kids-bed-sofa-or-couch-2854989799888.html?pos=111&kwd=flannel baby blanket&tags=||||8211.142|Price|product|||MDC|rsf:gd-|-stype:attr=1|qr_nm:gd|res:RC4|com-cf:nl|ptrs:na|ktp:N0|mc:214612|mtp:S|qry_typ:P|lang:en|wc:3|cs:8881|v=4,Gift To Love,https://www.indiamart.com/gifttolove/?pos=111&kwd=flannel baby blanket&tags=||||8211.142|Price|product|||MDC|rsf:gd-|-stype:attr=1|qr_nm:gd|res:RC4|com-cf:nl|ptrs:na|ktp:N0|mc:214612|mtp:S|qry_typ:P|lang:en|wc:3|cs:8881|v=4,False,,Mumbai,"BLDG B 20, Flat No - Unit No 3, Rashtiya Mazdoor CHS Ltd, Ashok Nagar, Opp Vijaya Bank, Dahisar-East Mumbai Suburban, Mumbai - 400068, Dist.Mumbai, Maharashtra",,
Printed Newborn Infant Baby Swaddle Blanket Sleeping Swaddle With Bag,https://www.indiamart.com/proddetail/newborn-infant-baby-swaddle-blanket-sleeping-swaddle-with-bag-23761603991.html?pos=112&kwd=flannel baby blanket&tags=||||8601.347|Price|product|||TS|rsf:gd-|-stype:attr=1|qr_nm:gd|res:RC4|com-cf:nl|ptrs:na|ktp:N0|mc:214612|mtp:S|qry_typ:P|lang:en|wc:3|cs:8881|v=4,Gopali Arts,https://www.gopaliarts.in/?pos=112&kwd=flannel baby blanket&tags=||||8601.347|Price|product|||TS|rsf:gd-|-stype:attr=1|qr_nm:gd|res:RC4|com-cf:nl|ptrs:na|ktp:N0|mc:214612|mtp:S|qry_typ:P|lang:en|wc:3|cs:8881|v=4,False,G1-652 Sitapura Phase-1,Jaipur,"G1-652, Sitapura Phase-1, G1-652 Sitapura Phase-1, Jaipur - 302022, Dist.Jaipur, Rajasthan",8048264082,
Single Printed Pink Bamboo Swaddling Blanket,https://www.indiamart.com/proddetail/pink-bamboo-swaddling-blanket-23486965388.html?pos=113&kwd=flannel baby blanket&tags=CA||||8741.812|Price|product|||NA|rsf:gd-|-stype:attr=1|qr_nm:gd|res:RC4|com-cf:nl|ptrs:na|ktp:N0|mc:214612|mtp:S|qry_typ:P|lang:en|wc:3|cs:8881|v=4,Keta Anjani Impex,https://www.indiamart.com/ketaanjaniimpex/?pos=113&kwd=flannel baby blanket&tags=CA||||8741.812|Price|product|||NA|rsf:gd-|-stype:attr=1|qr_nm:gd|res:RC4|com-cf:nl|ptrs:na|ktp:N0|mc:214612|mtp:S|qry_typ:P|lang:en|wc:3|cs:8881|v=4,False,Sector 90,Gurugram,"SF-221, 2nd Floor, IT Complex JMD Megapolis, Village Tikri, Sohna Road, Sector 90, Gurugram - 122001, Dist.Gurgaon, Haryana",8046063344,
Plain Fur Sling Bag,https://www.indiamart.com/proddetail/fur-sling-bag-2851971331512.html?pos=114&kwd=flannel baby blanket&tags=||||8307.81|Price|product|||MDC|rsf:gd-|-stype:attr=1|qr_nm:gd|res:RC4|com-cf:nl|ptrs:na|ktp:N0|mc:214612|mtp:S|qry_typ:P|lang:en|wc:3|cs:8881|v=4,Neharsh Collection,https://www.indiamart.com/neharsh-collection/?pos=114&kwd=flannel baby blanket&tags=||||8307.81|Price|product|||MDC|rsf:gd-|-stype:attr=1|qr_nm:gd|res:RC4|com-cf:nl|ptrs:na|ktp:N0|mc:214612|mtp:S|qry_typ:P|lang:en|wc:3|cs:8881|v=4,False,Moshi,Pune,"C-1202 Survey No. 669 Nakshtra Land, Moshi Alandi Road, Moshi Chowk, Moshi, Pune - 412105, Dist.Pune, Maharashtra",8048604456,
"Cotton Multicolor baby godri / new born baby razai / baby quilt / bedding for cot, Single Bed, Printed",https://www.indiamart.com/proddetail/new-born-baby-blanket-baby-quilt-bedding-for-cot-baby-godri-2853243927388.html?pos=115&kwd=flannel baby blanket&tags=||||8559.269|Price|product|||MDC|rsf:gd-|-stype:attr=1|qr_nm:gd|res:RC4|com-cf:nl|ptrs:na|ktp:N0|mc:214612|mtp:S|qry_typ:P|lang:en|wc:3|cs:8881|v=4,Sheza Enterprises,https://www.indiamart.com/shezaenterprises/?pos=115&kwd=flannel baby blanket&tags=||||8559.269|Price|product|||MDC|rsf:gd-|-stype:attr=1|qr_nm:gd|res:RC4|com-cf:nl|ptrs:na|ktp:N0|mc:214612|mtp:S|qry_typ:P|lang:en|wc:3|cs:8881|v=4,False,,Indore,"Alif House, 5, Khajrana Main Road, Opposite HP Petrol Pump,, Indore - 452001, Dist.Indore, Madhya Pradesh",7948547068,
"Pink Glow In The Dark Blanket For Kids | 150 X 200 Cm | 0-15 Years, Queen Size Unicorn Flannel Blanket | Birthday Gift For Kids Bed, Sofa, Or Couch",https://www.indiamart.com/proddetail/pink-glow-in-the-dark-blanket-for-kids-150-x-200-cm-0-15-years-queen-size-unicorn-flannel-blanket-birthday-gift-for-kids-bed-sofa-or-couch-2854989799888.html?pos=116&kwd=flannel baby blanket&tags=||||8211.142|Price|product|||MDC|rsf:gd-|-stype:attr=1|qr_nm:gd|res:RC4|com-cf:nl|ptrs:na|ktp:N0|mc:214612|mtp:S|qry_typ:P|lang:en|wc:3|cs:8881|v=4,Gift To Love,https://www.indiamart.com/gifttolove/?pos=116&kwd=flannel baby blanket&tags=||||8211.142|Price|product|||MDC|rsf:gd-|-stype:attr=1|qr_nm:gd|res:RC4|com-cf:nl|ptrs:na|ktp:N0|mc:214612|mtp:S|qry_typ:P|lang:en|wc:3|cs:8881|v=4,False,,Mumbai,"BLDG B 20, Flat No - Unit No 3, Rashtiya Mazdoor CHS Ltd, Ashok Nagar, Opp Vijaya Bank, Dahisar-East Mumbai Suburban, Mumbai - 400068, Dist.Mumbai, Maharashtra",,
Printed Newborn Infant Baby Swaddle Blanket Sleeping Swaddle With Bag,https://www.indiamart.com/proddetail/newborn-infant-baby-swaddle-blanket-sleeping-swaddle-with-bag-23761603991.html?pos=117&kwd=flannel baby blanket&tags=||||8601.347|Price|product|||TS|rsf:gd-|-stype:attr=1|qr_nm:gd|res:RC4|com-cf:nl|ptrs:na|ktp:N0|mc:214612|mtp:S|qry_typ:P|lang:en|wc:3|cs:8881|v=4,Gopali Arts,https://www.gopaliarts.in/?pos=117&kwd=flannel baby blanket&tags=||||8601.347|Price|product|||TS|rsf:gd-|-stype:attr=1|qr_nm:gd|res:RC4|com-cf:nl|ptrs:na|ktp:N0|mc:214612|mtp:S|qry_typ:P|lang:en|wc:3|cs:8881|v=4,False,G1-652 Sitapura Phase-1,Jaipur,"G1-652, Sitapura Phase-1, G1-652 Sitapura Phase-1, Jaipur - 302022, Dist.Jaipur, Rajasthan",8048264082,
"Multicolor Woolen And Polyester Mink Blanket By Weight, Size: Double, Modern",https://www.indiamart.com/proddetail/mink-blanket-by-weight-25050219297.html?pos=118&kwd=flannel baby blanket&tags=||||8747.203|Price|product|||TS|rsf:gd-|-stype:attr=1|qr_nm:gd|res:RC4|com-cf:nl|ptrs:na|ktp:N0|mc:214612|mtp:S|qry_typ:P|lang:en|wc:3|cs:8881|v=4,Vidya Sagar Textiles,https://www.vidyasagartextiles.com/?pos=118&kwd=flannel baby blanket&tags=||||8747.203|Price|product|||TS|rsf:gd-|-stype:attr=1|qr_nm:gd|res:RC4|com-cf:nl|ptrs:na|ktp:N0|mc:214612|mtp:S|qry_typ:P|lang:en|wc:3|cs:8881|v=4,False,Mal Godown Road,Panipat,"6, Mal Godam Road, Near Sangeet Cinema Gate, Mal Godown Road, Panipat - 132103, Dist.Panipat, Haryana",8047308149,
"little monkeys jumbo size baby cotton mosquito net bed, For Home, Size: XL",https://www.indiamart.com/proddetail/little-monkeys-jumbo-size-baby-cotton-mosquito-net-bed-2851532198888.html?pos=119&kwd=flannel baby blanket&tags=||||8752.144|Price|product|||TS|rsf:gd-|-stype:attr=1|qr_nm:gd|res:RC4|com-cf:nl|ptrs:na|ktp:N0|mc:214612|mtp:S|qry_typ:P|lang:en|wc:3|cs:8881|v=4,Ekta Overseas,https://www.indiamart.com/ektaoverseas-newdelhi/?pos=119&kwd=flannel baby blanket&tags=||||8752.144|Price|product|||TS|rsf:gd-|-stype:attr=1|qr_nm:gd|res:RC4|com-cf:nl|ptrs:na|ktp:N0|mc:214612|mtp:S|qry_typ:P|lang:en|wc:3|cs:8881|v=4,False,Shahdara,New Delhi,"1/95, Gali No.3, Near Navjeevan Phisical Center, Vishwas Nagar, Shahdara,, Shahdara, New Delhi - 110032, Dist.Delhi, Delhi",7942628926,
"Micro Kids Print Dohar, Size: Double",https://www.indiamart.com/proddetail/micro-kids-print-dohar-22208088455.html?pos=120&kwd=flannel baby blanket&tags=||||8601.347|Price|product|||TS|rsf:gd-|-stype:attr=1|qr_nm:gd|res:RC4|com-cf:nl|ptrs:na|ktp:N0|mc:214612|mtp:S|qry_typ:P|lang:en|wc:3|cs:8881|v=4,Vicky Garments,https://www.hotellinenmanufacturer.com/?pos=120&kwd=flannel baby blanket&tags=||||8601.347|Price|product|||TS|rsf:gd-|-stype:attr=1|qr_nm:gd|res:RC4|com-cf:nl|ptrs:na|ktp:N0|mc:214612|mtp:S|qry_typ:P|lang:en|wc:3|cs:8881|v=4,False,Jhotwara,Jaipur,"No. 82, Ganga Vihar Colony, Nagal Jaisa Bohra Dadi Ka Phatak, Jhotwara, Jaipur - 302012, Dist.Jaipur, Rajasthan",8046042378,
Cotton Multicolor Baby Receiving Blanket,https://www.indiamart.com/proddetail/baby-receiving-blanket-23352378462.html?pos=121&kwd=flannel baby blanket&tags=||||8228.275|Price|product|||TS|rsf:gd-|-stype:attr=1|qr_nm:gd|res:RC4|com-cf:nl|ptrs:na|ktp:N0|mc:214612|mtp:S|qry_typ:P|lang:en|wc:3|cs:8881|v=4,King Enterprise,https://www.kingenterpriseindia.com/?pos=121&kwd=flannel baby blanket&tags=||||8228.275|Price|product|||TS|rsf:gd-|-stype:attr=1|qr_nm:gd|res:RC4|com-cf:nl|ptrs:na|ktp:N0|mc:214612|mtp:S|qry_typ:P|lang:en|wc:3|cs:8881|v=4,False,Opp. Haripura Bus Stand,Ahmedabad,"Block- E 28, Ground Floor, Abhishek Estate-1, Opp. Haripura Bus Stand, Ahmedabad - 380016, Dist.Ahmedabad, Gujarat",8047632934,
"Cartoon Baby Hooded Blanket, Size: Singe, 0-2",https://www.indiamart.com/proddetail/baby-hooded-blanket-2851789151030.html?pos=122&kwd=flannel baby blanket&tags=||||8661.854||product|||TS|rsf:gd-|-stype:attr=1|qr_nm:gd|res:RC4|com-cf:nl|ptrs:na|ktp:N0|mc:214612|mtp:S|qry_typ:P|lang:en|wc:3|cs:8881|v=4,A K Davinder Hosiery,https://www.nnhgroups.com/?pos=122&kwd=flannel baby blanket&tags=||||8661.854||product|||TS|rsf:gd-|-stype:attr=1|qr_nm:gd|res:RC4|com-cf:nl|ptrs:na|ktp:N0|mc:214612|mtp:S|qry_typ:P|lang:en|wc:3|cs:8881|v=4,False,Madhopuri,Ludhiana,"873, Tilak Nagar, (Ganji Chhapri), Madhopuri, Ludhiana - 141008, Dist.Ludhiana, Punjab",8048607076,
"Flannel Rectangle Dohar (Single Bed A/c) Blanket Set (Pack of Two), Size: 60x90 Inches",https://www.indiamart.com/proddetail/dohar-single-bed-a-c-blanket-set-pack-of-two-2850171216855.html?pos=123&kwd=flannel baby blanket&tags=||||8601.347|Price|product|||TS|rsf:gd-|-stype:attr=1|qr_nm:gd|res:RC4|com-cf:nl|ptrs:na|ktp:N0|mc:214612|mtp:S|qry_typ:P|lang:en|wc:3|cs:8881|v=4,Gunjan Udyog,https://www.gunjanudyog.com/?pos=123&kwd=flannel baby blanket&tags=||||8601.347|Price|product|||TS|rsf:gd-|-stype:attr=1|qr_nm:gd|res:RC4|com-cf:nl|ptrs:na|ktp:N0|mc:214612|mtp:S|qry_typ:P|lang:en|wc:3|cs:8881|v=4,False,Mansarovar,Jaipur,"3/6, S F S, Near P N B Bank, Mansarovar,, Mansarovar, Jaipur - 302020, Dist.Jaipur, Rajasthan",8047650540,
Cotton Muslin baby Swaddle Blanket Printed with appropriate baby prints,https://www.indiamart.com/proddetail/cotton-muslin-baby-swaddle-blanket-printed-with-appropriate-baby-prints-2851877901212.html?pos=124&kwd=flannel baby blanket&tags=||||8668.838|Price|product|||TS|rsf:gd-|-stype:attr=1|qr_nm:gd|res:RC4|com-cf:nl|ptrs:na|ktp:N0|mc:214612|mtp:S|qry_typ:P|lang:en|wc:3|cs:8881|v=4,Manish Mills,https://www.manishmills.in/?pos=124&kwd=flannel baby blanket&tags=||||8668.838|Price|product|||TS|rsf:gd-|-stype:attr=1|qr_nm:gd|res:RC4|com-cf:nl|ptrs:na|ktp:N0|mc:214612|mtp:S|qry_typ:P|lang:en|wc:3|cs:8881|v=4,False,Erode Fort,Erode,"Suki Towers, No. 261, Easwaran Koil Street, Erode Fort, Erode - 638001, Dist.Erode, Tamil Nadu",8048961063,
Multicolor Organic Cotton Baby Muslin Swaddle,https://www.indiamart.com/proddetail/organic-cotton-baby-muslin-swaddle-2852060049430.html?pos=125&kwd=flannel baby blanket&tags=||||8706.263|Price|product|||TS|rsf:gd-|-stype:attr=1|qr_nm:gd|res:RC4|com-cf:nl|ptrs:na|ktp:N0|mc:214612|mtp:S|qry_typ:P|lang:en|wc:3|cs:8881|v=4,Taruna Tex,https://www.indiamart.com/taruna-tex-karur/?pos=125&kwd=flannel baby blanket&tags=||||8706.263|Price|product|||TS|rsf:gd-|-stype:attr=1|qr_nm:gd|res:RC4|com-cf:nl|ptrs:na|ktp:N0|mc:214612|mtp:S|qry_typ:P|lang:en|wc:3|cs:8881|v=4,True,Veluswamypuram,Karur,"137, Nanthavana Street, Velusamypuram IV Cross, Andankoil West, Veluswamypuram, Karur - 639002, Dist.Karur, Tamil Nadu",7942874999,
"Meenu's Manchesters White 100 percent premium cotton Swaddles, Size: Singe, New Born Babies",https://www.indiamart.com/proddetail/100-percent-premium-cotton-swaddles-2851565208891.html?pos=126&kwd=flannel baby blanket&tags=||||8668.838|Price|product|||TS|rsf:gd-|-stype:attr=1|qr_nm:gd|res:RC4|com-cf:nl|ptrs:na|ktp:N0|mc:214612|mtp:S|qry_typ:P|lang:en|wc:3|cs:8881|v=4,Meenu's Manchesters,https://www.hotelbedsheet.in/?pos=126&kwd=flannel baby blanket&tags=||||8668.838|Price|product|||TS|rsf:gd-|-stype:attr=1|qr_nm:gd|res:RC4|com-cf:nl|ptrs:na|ktp:N0|mc:214612|mtp:S|qry_typ:P|lang:en|wc:3|cs:8881|v=4,False,Edayankattuvalsu,Erode,"26, Nggo Colony, 1, Edayankattuvalsu, Erode - 638009, Dist.Erode, Tamil Nadu",8048609221,
"Woolen Baby Blankets, Size: Singe",https://www.indiamart.com/proddetail/baby-blankets-2853118109597.html?pos=127&kwd=flannel baby blanket&tags=||||8747.203|Price|product|||TS|rsf:gd-|-stype:attr=1|qr_nm:gd|res:RC4|com-cf:nl|ptrs:na|ktp:N0|mc:214612|mtp:S|qry_typ:P|lang:en|wc:3|cs:8881|v=4,Navya Enterprises,https://www.enterprisesnavya.com/?pos=127&kwd=flannel baby blanket&tags=||||8747.203|Price|product|||TS|rsf:gd-|-stype:attr=1|qr_nm:gd|res:RC4|com-cf:nl|ptrs:na|ktp:N0|mc:214612|mtp:S|qry_typ:P|lang:en|wc:3|cs:8881|v=4,False,Chadau Mohalla,Panipat,"H No.809, Purewal Colony, Chadau Mohalla, Panipat - 132103, Dist.Panipat, Haryana",8048968729,
"Mix Cotton Blankets For Kids, Size: Singe",https://www.indiamart.com/proddetail/blankets-for-kids-2851925676355.html?pos=128&kwd=flannel baby blanket&tags=||||8747.203|Price|product|||TS|rsf:gd-|-stype:attr=1|qr_nm:gd|res:RC4|com-cf:nl|ptrs:na|ktp:N0|mc:214612|mtp:S|qry_typ:P|lang:en|wc:3|cs:8881|v=4,Vardan Home Furnishings,https://www.vardanhomefurnishings.com/?pos=128&kwd=flannel baby blanket&tags=||||8747.203|Price|product|||TS|rsf:gd-|-stype:attr=1|qr_nm:gd|res:RC4|com-cf:nl|ptrs:na|ktp:N0|mc:214612|mtp:S|qry_typ:P|lang:en|wc:3|cs:8881|v=4,False,Chowk,Panipat,"Pehlwan Chowk, Vardan Home Furnishings, Kutani Road, Chowk, Panipat - 132103, Dist.Panipat, Haryana",7942957417,
"Multicolor Cotton Baby Sleeping Bags, Packaging Type: Box",https://www.indiamart.com/proddetail/baby-sleeping-bags-15275273933.html?pos=129&kwd=flannel baby blanket&tags=||||8706.263||product|||TS|rsf:gd-|-stype:attr=1|qr_nm:gd|res:RC4|com-cf:nl|ptrs:na|ktp:N0|mc:214612|mtp:S|qry_typ:P|lang:en|wc:3|cs:8881|v=4,Saravana Traders,https://www.indiamart.com/saravana-traders-karur/?pos=129&kwd=flannel baby blanket&tags=||||8706.263||product|||TS|rsf:gd-|-stype:attr=1|qr_nm:gd|res:RC4|com-cf:nl|ptrs:na|ktp:N0|mc:214612|mtp:S|qry_typ:P|lang:en|wc:3|cs:8881|v=4,True,Lvb Nagar,Karur,"No. 71, Lvb Nagar, Karur - 639002, Dist.Karur, Tamil Nadu",8048958966,
"Cotton Grey Printed Baby Blanket, Size: 18x22inch",https://www.indiamart.com/proddetail/printed-baby-blanket-24314819091.html?pos=130&kwd=flannel baby blanket&tags=||||8228.275|Price|product|||MDC|rsf:gd-|-stype:attr=1|qr_nm:gd|res:RC4|com-cf:nl|ptrs:na|ktp:N0|mc:214612|mtp:S|qry_typ:P|lang:en|wc:3|cs:8881|v=4,Sanskriti Inc,https://www.indiamart.com/sanskriti-inc/?pos=130&kwd=flannel baby blanket&tags=||||8228.275|Price|product|||MDC|rsf:gd-|-stype:attr=1|qr_nm:gd|res:RC4|com-cf:nl|ptrs:na|ktp:N0|mc:214612|mtp:S|qry_typ:P|lang:en|wc:3|cs:8881|v=4,False,Nikol,Ahmedabad,"Shop No-26, Surjit Co Op H Soc Ltd, Nr. India Colony, Nikol Road, Nikol, Ahmedabad - 382350, Dist.Ahmedabad, Gujarat",8046047726,
Dvk Handicraft 100% Cotton Reversible Rainbow Kantha Cot Quilt Baby Blanket,https://www.indiamart.com/proddetail/reversible-rainbow-kantha-cot-quilt-baby-blanket-13906344055.html?pos=131&kwd=flannel baby blanket&tags=||||8601.347|Price|product|||TS|rsf:gd-|-stype:attr=1|qr_nm:gd|res:RC4|com-cf:nl|ptrs:na|ktp:N0|mc:214612|mtp:S|qry_typ:P|lang:en|wc:3|cs:8881|v=4,DVK Handicraft Private Limited,https://www.dvkhandicraft.net/?pos=131&kwd=flannel baby blanket&tags=||||8601.347|Price|product|||TS|rsf:gd-|-stype:attr=1|qr_nm:gd|res:RC4|com-cf:nl|ptrs:na|ktp:N0|mc:214612|mtp:S|qry_typ:P|lang:en|wc:3|cs:8881|v=4,True,Vaishali Nagar,Jaipur,"B-24, Ground Floor Lalrpura Aayodhya Nagar Vaisha Gandhi Path, Vaishali Nagar, Vaishali Nagar, Jaipur - 302021, Dist.Jaipur, Rajasthan",8048608928,
"Multicolor Baby Cotton Muslin Swaddle, Size: Singe",https://www.indiamart.com/proddetail/baby-cotton-muslin-swaddle-2849329098130.html?pos=132&kwd=flannel baby blanket&tags=||||8211.142|Price|product|||TS|rsf:gd-|-stype:attr=1|qr_nm:gd|res:RC4|com-cf:nl|ptrs:na|ktp:N0|mc:214612|mtp:S|qry_typ:P|lang:en|wc:3|cs:8881|v=4,ShanBuyers,https://www.indiamart.com/shanbuyers/?pos=132&kwd=flannel baby blanket&tags=||||8211.142|Price|product|||TS|rsf:gd-|-stype:attr=1|qr_nm:gd|res:RC4|com-cf:nl|ptrs:na|ktp:N0|mc:214612|mtp:S|qry_typ:P|lang:en|wc:3|cs:8881|v=4,False,Dahisar East,Mumbai,"316, Floor No. 3rd, Sarita Building, Prabhat Ind Complex, Road Western Express Highway, Toll Naka, Dahisar, Dahisar East, Mumbai - 400068, Dist.Mumbai, Maharashtra",8047670828,
Unisex Baby Carry Nest/Baby Sleeping Bag/Baby Wrap for Newborn Baby Boys Girls (0-3 Months),https://www.indiamart.com/proddetail/unisex-baby-carry-nest-baby-sleeping-bag-baby-wrap-for-newborn-baby-boys-girls-0-3-months-2852997270755.html?pos=133&kwd=flannel baby blanket&tags=||||9842.824|Price|product|||TS|rsf:gd-|-stype:attr=1|qr_nm:gd|res:RC4|com-cf:nl|ptrs:na|ktp:N0|mc:214612|mtp:S|qry_typ:P|lang:en|wc:3|cs:8881|v=4,Indilittle Global Export,https://www.indiamart.com/indilittleglobalexport/?pos=133&kwd=flannel baby blanket&tags=||||9842.824|Price|product|||TS|rsf:gd-|-stype:attr=1|qr_nm:gd|res:RC4|com-cf:nl|ptrs:na|ktp:N0|mc:214612|mtp:S|qry_typ:P|lang:en|wc:3|cs:8881|v=4,False,Haripal,Hooghly,"BRAHMANPARA, NALIKUL PASCHIM, HARIPAL, Haripal, Hooghly - 712405, Dist.Hooghly, West Bengal",8048977919,
Fleece Multicolor Printed Baby Blanket,https://www.indiamart.com/proddetail/printed-baby-blanket-2853713691355.html?pos=134&kwd=flannel baby blanket&tags=||||8747.203|Price|product|||TS|rsf:gd-|-stype:attr=1|qr_nm:gd|res:RC4|com-cf:nl|ptrs:na|ktp:N0|mc:214612|mtp:S|qry_typ:P|lang:en|wc:3|cs:8881|v=4,Cotton Bolls Textiles,https://www.indiamart.com/cottonbollstextilespanipat/?pos=134&kwd=flannel baby blanket&tags=||||8747.203|Price|product|||TS|rsf:gd-|-stype:attr=1|qr_nm:gd|res:RC4|com-cf:nl|ptrs:na|ktp:N0|mc:214612|mtp:S|qry_typ:P|lang:en|wc:3|cs:8881|v=4,False,Huda,Panipat,"House No - 485 Sector 13-17, Huda, Panipat - 132103, Dist.Panipat, Haryana",8043855324,
Printed Baby Fleece Blanket,https://www.indiamart.com/proddetail/printed-baby-fleece-blanket-26110388462.html?pos=135&kwd=flannel baby blanket&tags=||||8661.854|Price|product|||TS|rsf:gd-|-stype:attr=1|qr_nm:gd|res:RC4|com-cf:nl|ptrs:na|ktp:N0|mc:214612|mtp:S|qry_typ:P|lang:en|wc:3|cs:8881|v=4,J.S Ahuja Hosiery Works,https://www.indiamart.com/jsahujahosieryworks/?pos=135&kwd=flannel baby blanket&tags=||||8661.854|Price|product|||TS|rsf:gd-|-stype:attr=1|qr_nm:gd|res:RC4|com-cf:nl|ptrs:na|ktp:N0|mc:214612|mtp:S|qry_typ:P|lang:en|wc:3|cs:8881|v=4,False,Sector 39-A,Ludhiana,"B-XXX-3983, St. No.2, Hargobind Pura, Near Samrala Chowk, Sector 39-A, Ludhiana - 141008, Dist.Ludhiana, Punjab",8043859618,
White (Base) Cotton Muslin Swaddle Blanket,https://www.indiamart.com/proddetail/cotton-muslin-swaddle-blanket-23904997948.html?pos=136&kwd=flannel baby blanket&tags=||||8231.259|Price|product|||MDC|rsf:gd-|-stype:attr=1|qr_nm:gd|res:RC4|com-cf:nl|ptrs:na|ktp:N0|mc:214612|mtp:S|qry_typ:P|lang:en|wc:3|cs:8881|v=4,Hemp Ecotex,https://www.indiamart.com/hempecotex/?pos=136&kwd=flannel baby blanket&tags=||||8231.259|Price|product|||MDC|rsf:gd-|-stype:attr=1|qr_nm:gd|res:RC4|com-cf:nl|ptrs:na|ktp:N0|mc:214612|mtp:S|qry_typ:P|lang:en|wc:3|cs:8881|v=4,False,Val,Bhiwandi,"1st Floor, H. No 1661/12 Gala No 106, BL-K, Dharam Complex, Phase-I, Rahnal Village, Val, Bhiwandi - 421302, Maharashtra",7949092530,
"Pink Cotton Newborn Baby Sleeping Bags, Newly Born",https://www.indiamart.com/proddetail/newborn-baby-sleeping-bags-2854892034255.html?pos=137&kwd=flannel baby blanket&tags=||||8230.883|Price|product|||MDC|rsf:gd-|-stype:attr=1|qr_nm:gd|res:RC4|com-cf:nl|ptrs:na|ktp:N0|mc:214612|mtp:S|qry_typ:P|lang:en|wc:3|cs:8881|v=4,Whopssy International,https://www.indiamart.com/whopssy-international/?pos=137&kwd=flannel baby blanket&tags=||||8230.883|Price|product|||MDC|rsf:gd-|-stype:attr=1|qr_nm:gd|res:RC4|com-cf:nl|ptrs:na|ktp:N0|mc:214612|mtp:S|qry_typ:P|lang:en|wc:3|cs:8881|v=4,False,,Surat,"First Floor, Plot No. 377, Ram Vatika V-2, Near Rangoli Chowkdi, Sayan Road, Velenja Gam, Sayan, Surat - 394150, Dist.Surat, Gujarat",7949340041,
"Multicolor Flannel Blankets, Packaging Type: Packet, Size: Double",https://www.indiamart.com/proddetail/flannel-blankets-26925416091.html?pos=138&kwd=flannel baby blanket&tags=||||8747.203|Price|product|||TS|rsf:gd-|-stype:attr=1|qr_nm:gd|res:RC4|com-cf:nl|ptrs:na|ktp:N0|mc:214612|mtp:S|qry_typ:P|lang:en|wc:3|cs:8881|v=4,Pavitra Textile,https://www.pavitratextile.com/?pos=138&kwd=flannel baby blanket&tags=||||8747.203|Price|product|||TS|rsf:gd-|-stype:attr=1|qr_nm:gd|res:RC4|com-cf:nl|ptrs:na|ktp:N0|mc:214612|mtp:S|qry_typ:P|lang:en|wc:3|cs:8881|v=4,False,Panipat N.S.M.,Panipat,"1560/10, Sanoli Road Pujara Sweets, Panipat N.S.M., Panipat - 132103, Dist.Panipat, Haryana",8047655734,
Green Flannel Double Bed Blanket,https://www.indiamart.com/proddetail/green-flannel-double-bed-blanket-2853974689348.html?pos=139&kwd=flannel baby blanket&tags=||||8785.791|Price|product|||TS|rsf:gd-|-stype:attr=1|qr_nm:gd|res:RC4|com-cf:nl|ptrs:na|ktp:N0|mc:214612|mtp:S|qry_typ:P|lang:en|wc:3|cs:8881|v=4,Shivmani Impex,https://www.indiamart.com/shivmaniimpex/?pos=139&kwd=flannel baby blanket&tags=||||8785.791|Price|product|||TS|rsf:gd-|-stype:attr=1|qr_nm:gd|res:RC4|com-cf:nl|ptrs:na|ktp:N0|mc:214612|mtp:S|qry_typ:P|lang:en|wc:3|cs:8881|v=4,False,Vasundhra,Ghaziabad,"A-08/1101, OLIVE COUNTY, SECTOR-05,OLIVE COUNTY,VASUNDHRA,VASUNDHRA, Vasundhra, Ghaziabad - 201012, Dist.Ghaziabad, Uttar Pradesh",7949090237,
Printed Floral Print Baby Blanket,https://www.indiamart.com/proddetail/floral-print-baby-blanket-24686439030.html?pos=140&kwd=flannel baby blanket&tags=||||8230.883|Price|product|||MDC|rsf:gd-|-stype:attr=1|qr_nm:gd|res:RC4|com-cf:nl|ptrs:na|ktp:N0|mc:214612|mtp:S|qry_typ:P|lang:en|wc:3|cs:8881|v=4,Dharmnandan Creation,https://www.indiamart.com/dharmnandancreation/?pos=140&kwd=flannel baby blanket&tags=||||8230.883|Price|product|||MDC|rsf:gd-|-stype:attr=1|qr_nm:gd|res:RC4|com-cf:nl|ptrs:na|ktp:N0|mc:214612|mtp:S|qry_typ:P|lang:en|wc:3|cs:8881|v=4,False,Udhana,Surat,"Plot No. A/10, City Ind. Estate, Udhana, Udhan Road,, Udhana, Surat - 394210, Dist.Surat, Gujarat",7942543669,
Printed Baby Fleece Blanket,https://www.indiamart.com/proddetail/baby-fleece-blanket-20967303055.html?pos=141&kwd=flannel baby blanket&tags=||||8747.203|Price|product|||TS|rsf:gd-|-stype:attr=1|qr_nm:gd|res:RC4|com-cf:nl|ptrs:na|ktp:N0|mc:214612|mtp:S|qry_typ:P|lang:en|wc:3|cs:8881|v=4,Mahalaxmi Woollen Processors,https://www.mahalaxmiwoollen.in/?pos=141&kwd=flannel baby blanket&tags=||||8747.203|Price|product|||TS|rsf:gd-|-stype:attr=1|qr_nm:gd|res:RC4|com-cf:nl|ptrs:na|ktp:N0|mc:214612|mtp:S|qry_typ:P|lang:en|wc:3|cs:8881|v=4,False,Desraj Colony,Panipat,"Desraj Colony, Desraj Colony, Panipat - 132103, Dist.Panipat, Haryana",8047645393,
Cotton Plain Baby Sleeping Bag,https://www.indiamart.com/proddetail/cotton-plain-baby-sleeping-bag-2854922515955.html?pos=142&kwd=flannel baby blanket&tags=||||8876.815|Price|product|||MDC|rsf:gd-|-stype:attr=1|qr_nm:gd|res:RC4|com-cf:nl|ptrs:na|ktp:N0|mc:214612|mtp:S|qry_typ:P|lang:en|wc:3|cs:8881|v=4,Good Luck Trading,https://www.indiamart.com/goodlucktrading-nagpur/?pos=142&kwd=flannel baby blanket&tags=||||8876.815|Price|product|||MDC|rsf:gd-|-stype:attr=1|qr_nm:gd|res:RC4|com-cf:nl|ptrs:na|ktp:N0|mc:214612|mtp:S|qry_typ:P|lang:en|wc:3|cs:8881|v=4,False,,Nagpur,"Plot No. 807, Dharamchaya Fawara Chowk Builing, Nikalas Mandir Road, Itwari, Nagpur - 440002, Dist.Nagpur, Maharashtra",8041014474,
"Cotton Baby Blue Sleeping Bags, Newly Born",https://www.indiamart.com/proddetail/baby-sleeping-bags-2854674347530.html?pos=143&kwd=flannel baby blanket&tags=||||8211.142|Price|product|||MDC|rsf:gd-|-stype:attr=1|qr_nm:gd|res:RC4|com-cf:nl|ptrs:na|ktp:N0|mc:214612|mtp:S|qry_typ:P|lang:en|wc:3|cs:8881|v=4,Apple Kids,https://www.indiamart.com/applekids-mumbai/?pos=143&kwd=flannel baby blanket&tags=||||8211.142|Price|product|||MDC|rsf:gd-|-stype:attr=1|qr_nm:gd|res:RC4|com-cf:nl|ptrs:na|ktp:N0|mc:214612|mtp:S|qry_typ:P|lang:en|wc:3|cs:8881|v=4,False,,Mumbai,"Room No 1,211/4, Janu Seth Chawl, Puspa Park, Daftary Road, Malad East Suburban, Mumbai - 400097, Dist.Mumbai, Maharashtra",7949326883,
TexKing Multicolor Kids Single Bed Cotton Comforter/ Bag Packing Best For Gift,https://www.indiamart.com/proddetail/kids-single-bed-cotton-comforter-bag-packing-best-for-gift-2854267015333.html?pos=144&kwd=flannel baby blanket&tags=||||8747.203|Price|product|||TS|rsf:gd-|-stype:attr=1|qr_nm:gd|res:RC4|com-cf:nl|ptrs:na|ktp:N0|mc:214612|mtp:S|qry_typ:P|lang:en|wc:3|cs:8881|v=4,Sri Siddhivinayak Associates,https://www.indiamart.com/sri-siddhivinayak-associates-panipat/?pos=144&kwd=flannel baby blanket&tags=||||8747.203|Price|product|||TS|rsf:gd-|-stype:attr=1|qr_nm:gd|res:RC4|com-cf:nl|ptrs:na|ktp:N0|mc:214612|mtp:S|qry_typ:P|lang:en|wc:3|cs:8881|v=4,False,,Panipat,"7,Hali Park Shopping Complex,Industrial Area,Panipat, Panipat - 132103, Dist.Panipat, Haryana",8045736424,
"Pink Cotton-muslin Home Printed Crib Swaddling Baby Blanket for AC Room, Size: Singe",https://www.indiamart.com/proddetail/home-printed-crib-swaddling-baby-blanket-for-ac-room-2853776874555.html?pos=145&kwd=flannel baby blanket&tags=||||8706.263|Price|product|||TS|rsf:gd-|-stype:attr=1|qr_nm:gd|res:RC4|com-cf:nl|ptrs:na|ktp:N0|mc:214612|mtp:S|qry_typ:P|lang:en|wc:3|cs:8881|v=4,Shree Garments,https://www.indiamart.com/shree-garments-karur/?pos=145&kwd=flannel baby blanket&tags=||||8706.263|Price|product|||TS|rsf:gd-|-stype:attr=1|qr_nm:gd|res:RC4|com-cf:nl|ptrs:na|ktp:N0|mc:214612|mtp:S|qry_typ:P|lang:en|wc:3|cs:8881|v=4,False,Vengamedu,Karur,"6, Maruthamuthu Thottam, Opp To Sp Colony, Vengameduvengamedu,, Vengamedu, Karur - 639006, Dist.Karur, Tamil Nadu",7942719649,
Hooded Star Printed Baby Wrap Wearable Blanket For Baby Boys and Girls,https://www.indiamart.com/proddetail/hooded-star-printed-baby-wrap-wearable-blanket-for-baby-boys-and-girls-2854434392188.html?pos=146&kwd=flannel baby blanket&tags=||||8661.854|Price|product|||MDC|rsf:gd-|-stype:attr=1|qr_nm:gd|res:RC4|com-cf:nl|ptrs:na|ktp:N0|mc:214612|mtp:S|qry_typ:P|lang:en|wc:3|cs:8881|v=4,S.R Woollen Textile,https://www.indiamart.com/srwoollentextile/?pos=146&kwd=flannel baby blanket&tags=||||8661.854|Price|product|||MDC|rsf:gd-|-stype:attr=1|qr_nm:gd|res:RC4|com-cf:nl|ptrs:na|ktp:N0|mc:214612|mtp:S|qry_typ:P|lang:en|wc:3|cs:8881|v=4,False,Old Ludhiana,Ludhiana,"435, Chauri Sarak, Bazzrian Mohalla, Old Ludhiana, Ludhiana - 141008, Dist.Ludhiana, Punjab",7942873909,
Velvet Size: Double Baby Blankets,https://www.indiamart.com/proddetail/baby-blankets-2854715411062.html?pos=147&kwd=flannel baby blanket&tags=||||8661.854|Price|product|||MDC|rsf:gd-|-stype:attr=1|qr_nm:gd|res:RC4|com-cf:nl|ptrs:na|ktp:N0|mc:214612|mtp:S|qry_typ:P|lang:en|wc:3|cs:8881|v=4,Universal Traders,https://www.indiamart.com/universaltraderspunjab/?pos=147&kwd=flannel baby blanket&tags=||||8661.854|Price|product|||MDC|rsf:gd-|-stype:attr=1|qr_nm:gd|res:RC4|com-cf:nl|ptrs:na|ktp:N0|mc:214612|mtp:S|qry_typ:P|lang:en|wc:3|cs:8881|v=4,False,Iqbal Ganj,Ludhiana,"B-X- 435, Telian Street, Near Iqbal Ganj Chowk, Iqbal Ganj, Ludhiana - 141008, Dist.Ludhiana, Punjab",8045731865,
Woolen Printed Baby Blanket,https://www.indiamart.com/proddetail/printed-baby-blanket-2854728183773.html?pos=148&kwd=flannel baby blanket&tags=||||8661.854|Price|product|||TS|rsf:gd-|-stype:attr=1|qr_nm:gd|res:RC4|com-cf:nl|ptrs:na|ktp:N0|mc:214612|mtp:S|qry_typ:P|lang:en|wc:3|cs:8881|v=4,Royal Blanket,https://www.indiamart.com/royalblanket/?pos=148&kwd=flannel baby blanket&tags=||||8661.854|Price|product|||TS|rsf:gd-|-stype:attr=1|qr_nm:gd|res:RC4|com-cf:nl|ptrs:na|ktp:N0|mc:214612|mtp:S|qry_typ:P|lang:en|wc:3|cs:8881|v=4,False,Harbans Pura,Ludhiana,"B-24.H.No.4211,Street No.2, New Madho Puri, Harbans Pura, Ludhiana - 141008, Dist.Ludhiana, Punjab",8046059378,
Multicolor Baby Comforter,https://www.indiamart.com/proddetail/baby-comforter-2854456693933.html?pos=149&kwd=flannel baby blanket&tags=||||8747.203|Price|product|||TS|rsf:gd-|-stype:attr=1|qr_nm:gd|res:RC4|com-cf:nl|ptrs:na|ktp:N0|mc:214612|mtp:S|qry_typ:P|lang:en|wc:3|cs:8881|v=4,Pawansut Enterprises,https://www.indiamart.com/pawansutenterprises-panipat/?pos=149&kwd=flannel baby blanket&tags=||||8747.203|Price|product|||TS|rsf:gd-|-stype:attr=1|qr_nm:gd|res:RC4|com-cf:nl|ptrs:na|ktp:N0|mc:214612|mtp:S|qry_typ:P|lang:en|wc:3|cs:8881|v=4,False,Netaji Colony,Panipat,"179 Virat Nagar,,Model Town,Panipat, Netaji Colony, Panipat - 132103, Dist.Panipat, Haryana",7942956898,
"Heavy Flannel Blankets, Size: King",https://www.indiamart.com/proddetail/heavy-flannel-blankets-2853138331773.html?pos=150&kwd=flannel baby blanket&tags=||||8747.203||product|||TS|rsf:gd-|-stype:attr=1|qr_nm:gd|res:RC4|com-cf:nl|ptrs:na|ktp:N0|mc:214612|mtp:S|qry_typ:P|lang:en|wc:3|cs:8881|v=4,Mokshay (A Brand Of S P Wooltex),https://www.mokshay.in/?pos=150&kwd=flannel baby blanket&tags=||||8747.203||product|||TS|rsf:gd-|-stype:attr=1|qr_nm:gd|res:RC4|com-cf:nl|ptrs:na|ktp:N0|mc:214612|mtp:S|qry_typ:P|lang:en|wc:3|cs:8881|v=4,False,Huda,Panipat,"Opp. Sardar Jali Wala, Ganesh Nagar, Sanoli Road,, Huda, Panipat - 132103, Dist.Panipat, Haryana",7942870300,
"Divine Overseas Kids Single Bed Comforter/ Bag Packing Best For Gift ((Single, Moon Star Design)",https://www.indiamart.com/proddetail/divine-overseas-kids-single-bed-comforter-bag-packing-best-for-gift-single-moon-star-design-2849766378891.html?pos=151&kwd=flannel baby blanket&tags=||||8747.203|Price|product|||TS|rsf:gd-|-stype:attr=1|qr_nm:gd|res:RC4|com-cf:nl|ptrs:na|ktp:N0|mc:214612|mtp:S|qry_typ:P|lang:en|wc:3|cs:8881|v=4,Divine Overseas,https://www.indiamart.com/divineoverseas-panipat/?pos=151&kwd=flannel baby blanket&tags=||||8747.203|Price|product|||TS|rsf:gd-|-stype:attr=1|qr_nm:gd|res:RC4|com-cf:nl|ptrs:na|ktp:N0|mc:214612|mtp:S|qry_typ:P|lang:en|wc:3|cs:8881|v=4,False,Kabul Bagh,Panipat,"21, Sanoli Road, Kabul Bagh, Panipat - 132103, Dist.Panipat, Haryana",8048955077,
Printed Floral Print Baby Blanket,https://www.indiamart.com/proddetail/floral-print-baby-blanket-24686439030.html?pos=152&kwd=flannel baby blanket&tags=||||8230.883|Price|product|||MDC|rsf:gd-|-stype:attr=1|qr_nm:gd|res:RC4|com-cf:nl|ptrs:na|ktp:N0|mc:214612|mtp:S|qry_typ:P|lang:en|wc:3|cs:8881|v=4,Dharmnandan Creation,https://www.indiamart.com/dharmnandancreation/?pos=152&kwd=flannel baby blanket&tags=||||8230.883|Price|product|||MDC|rsf:gd-|-stype:attr=1|qr_nm:gd|res:RC4|com-cf:nl|ptrs:na|ktp:N0|mc:214612|mtp:S|qry_typ:P|lang:en|wc:3|cs:8881|v=4,False,Udhana,Surat,"Plot No. A/10, City Ind. Estate, Udhana, Udhan Road,, Udhana, Surat - 394210, Dist.Surat, Gujarat",7942543669,
"Double Printed 200 X 240 Cm Award Imported Mink Blanket, With Cover",https://www.indiamart.com/proddetail/200-x-240-cm-award-imported-mink-blanket-22851027148.html?pos=153&kwd=flannel baby blanket&tags=||||8663.873||product|||TS|rsf:gd-|-stype:attr=1|qr_nm:gd|res:RC4|com-cf:nl|ptrs:na|ktp:N0|mc:214612|mtp:S|qry_typ:P|lang:en|wc:3|cs:8881|v=4,True Heart Overseas,https://www.indiamart.com/true-heart-overseas/?pos=153&kwd=flannel baby blanket&tags=||||8663.873||product|||TS|rsf:gd-|-stype:attr=1|qr_nm:gd|res:RC4|com-cf:nl|ptrs:na|ktp:N0|mc:214612|mtp:S|qry_typ:P|lang:en|wc:3|cs:8881|v=4,False,Cox Town,Bengaluru,"100FT Road, 653/3 A Anninaiah Reddy Layout, Banaswadi, Cox Town, Bengaluru - 560043, Dist.Bengaluru, Karnataka",8048963916,
Woolen Size: Single Pv New Born Baby Blanket,https://www.indiamart.com/proddetail/pv-new-born-baby-blanket-2854715122955.html?pos=154&kwd=flannel baby blanket&tags=||||8661.854|Price|product|||MDC|rsf:gd-|-stype:attr=1|qr_nm:gd|res:RC4|com-cf:nl|ptrs:na|ktp:N0|mc:214612|mtp:S|qry_typ:P|lang:en|wc:3|cs:8881|v=4,Miglani Hosiery Factory,https://www.indiamart.com/miglani-hosiery-factory/?pos=154&kwd=flannel baby blanket&tags=||||8661.854|Price|product|||MDC|rsf:gd-|-stype:attr=1|qr_nm:gd|res:RC4|com-cf:nl|ptrs:na|ktp:N0|mc:214612|mtp:S|qry_typ:P|lang:en|wc:3|cs:8881|v=4,False,,Ludhiana,"B-IV-524, Pansari Bazar, Ludhiana - 141008, Dist.Ludhiana, Punjab",7949324357,
Plain Fur Sling Bag,https://www.indiamart.com/proddetail/fur-sling-bag-2851971331512.html?pos=155&kwd=flannel baby blanket&tags=||||8307.81|Price|product|||MDC|rsf:gd-|-stype:attr=1|qr_nm:gd|res:RC4|com-cf:nl|ptrs:na|ktp:N0|mc:214612|mtp:S|qry_typ:P|lang:en|wc:3|cs:8881|v=4,Neharsh Collection,https://www.indiamart.com/neharsh-collection/?pos=155&kwd=flannel baby blanket&tags=||||8307.81|Price|product|||MDC|rsf:gd-|-stype:attr=1|qr_nm:gd|res:RC4|com-cf:nl|ptrs:na|ktp:N0|mc:214612|mtp:S|qry_typ:P|lang:en|wc:3|cs:8881|v=4,False,Moshi,Pune,"C-1202 Survey No. 669 Nakshtra Land, Moshi Alandi Road, Moshi Chowk, Moshi, Pune - 412105, Dist.Pune, Maharashtra",8048604456,
"Cotton Multicolor baby godri / new born baby razai / baby quilt / bedding for cot, Single Bed, Printed",https://www.indiamart.com/proddetail/new-born-baby-blanket-baby-quilt-bedding-for-cot-baby-godri-2853243927388.html?pos=156&kwd=flannel baby blanket&tags=||||8559.269|Price|product|||MDC|rsf:gd-|-stype:attr=1|qr_nm:gd|res:RC4|com-cf:nl|ptrs:na|ktp:N0|mc:214612|mtp:S|qry_typ:P|lang:en|wc:3|cs:8881|v=4,Sheza Enterprises,https://www.indiamart.com/shezaenterprises/?pos=156&kwd=flannel baby blanket&tags=||||8559.269|Price|product|||MDC|rsf:gd-|-stype:attr=1|qr_nm:gd|res:RC4|com-cf:nl|ptrs:na|ktp:N0|mc:214612|mtp:S|qry_typ:P|lang:en|wc:3|cs:8881|v=4,False,,Indore,"Alif House, 5, Khajrana Main Road, Opposite HP Petrol Pump,, Indore - 452001, Dist.Indore, Madhya Pradesh",7948547068,
Printed Newborn Infant Baby Swaddle Blanket Sleeping Swaddle With Bag,https://www.indiamart.com/proddetail/newborn-infant-baby-swaddle-blanket-sleeping-swaddle-with-bag-23761603991.html?pos=157&kwd=flannel baby blanket&tags=||||8601.347|Price|product|||TS|rsf:gd-|-stype:attr=1|qr_nm:gd|res:RC4|com-cf:nl|ptrs:na|ktp:N0|mc:214612|mtp:S|qry_typ:P|lang:en|wc:3|cs:8881|v=4,Gopali Arts,https://www.gopaliarts.in/?pos=157&kwd=flannel baby blanket&tags=||||8601.347|Price|product|||TS|rsf:gd-|-stype:attr=1|qr_nm:gd|res:RC4|com-cf:nl|ptrs:na|ktp:N0|mc:214612|mtp:S|qry_typ:P|lang:en|wc:3|cs:8881|v=4,False,G1-652 Sitapura Phase-1,Jaipur,"G1-652, Sitapura Phase-1, G1-652 Sitapura Phase-1, Jaipur - 302022, Dist.Jaipur, Rajasthan",8048264082,
"little monkeys jumbo size baby cotton mosquito net bed, For Home, Size: XL",https://www.indiamart.com/proddetail/little-monkeys-jumbo-size-baby-cotton-mosquito-net-bed-2851532198888.html?pos=158&kwd=flannel baby blanket&tags=||||8752.144|Price|product|||TS|rsf:gd-|-stype:attr=1|qr_nm:gd|res:RC4|com-cf:nl|ptrs:na|ktp:N0|mc:214612|mtp:S|qry_typ:P|lang:en|wc:3|cs:8881|v=4,Ekta Overseas,https://www.indiamart.com/ektaoverseas-newdelhi/?pos=158&kwd=flannel baby blanket&tags=||||8752.144|Price|product|||TS|rsf:gd-|-stype:attr=1|qr_nm:gd|res:RC4|com-cf:nl|ptrs:na|ktp:N0|mc:214612|mtp:S|qry_typ:P|lang:en|wc:3|cs:8881|v=4,False,Shahdara,New Delhi,"1/95, Gali No.3, Near Navjeevan Phisical Center, Vishwas Nagar, Shahdara,, Shahdara, New Delhi - 110032, Dist.Delhi, Delhi",7942628926,
"Micro Kids Print Dohar, Size: Double",https://www.indiamart.com/proddetail/micro-kids-print-dohar-22208088455.html?pos=159&kwd=flannel baby blanket&tags=||||8601.347|Price|product|||TS|rsf:gd-|-stype:attr=1|qr_nm:gd|res:RC4|com-cf:nl|ptrs:na|ktp:N0|mc:214612|mtp:S|qry_typ:P|lang:en|wc:3|cs:8881|v=4,Vicky Garments,https://www.hotellinenmanufacturer.com/?pos=159&kwd=flannel baby blanket&tags=||||8601.347|Price|product|||TS|rsf:gd-|-stype:attr=1|qr_nm:gd|res:RC4|com-cf:nl|ptrs:na|ktp:N0|mc:214612|mtp:S|qry_typ:P|lang:en|wc:3|cs:8881|v=4,False,Jhotwara,Jaipur,"No. 82, Ganga Vihar Colony, Nagal Jaisa Bohra Dadi Ka Phatak, Jhotwara, Jaipur - 302012, Dist.Jaipur, Rajasthan",8046042378,
Pink Baby Muslin Swaddles,https://www.indiamart.com/proddetail/baby-muslin-swaddles-2853954058412.html?pos=160&kwd=flannel baby blanket&tags=||||8706.263|Price|product|||TS|rsf:gd-|-stype:attr=1|qr_nm:gd|res:RC4|com-cf:nl|ptrs:na|ktp:N0|mc:214612|mtp:S|qry_typ:P|lang:en|wc:3|cs:8881|v=4,L S Textiles And Exports Private Limited,https://www.indiamart.com/lstextiles/?pos=160&kwd=flannel baby blanket&tags=||||8706.263|Price|product|||TS|rsf:gd-|-stype:attr=1|qr_nm:gd|res:RC4|com-cf:nl|ptrs:na|ktp:N0|mc:214612|mtp:S|qry_typ:P|lang:en|wc:3|cs:8881|v=4,True,Punnam,Karur,"S.F.No.141/13 South Punnam Village, Pugalur Taluk Palamapuram, Punnam, Karur - 639136, Dist.Karur, Tamil Nadu",8047851645,
"100% Organic Cotton Printed Baby Fleece Blanket, New Born To 3 Yrs, Size: 120X120",https://www.indiamart.com/proddetail/baby-fleece-blanket-22954589855.html?pos=161&kwd=flannel baby blanket&tags=||||8663.873|Price|product|||TS|rsf:gd-|-stype:attr=1|qr_nm:gd|res:RC4|com-cf:nl|ptrs:na|ktp:N0|mc:214612|mtp:S|qry_typ:P|lang:en|wc:3|cs:8881|v=4,Alpha Organics Clothing India,https://www.indiamart.com/alphaorganicsclothingindia/?pos=161&kwd=flannel baby blanket&tags=||||8663.873|Price|product|||TS|rsf:gd-|-stype:attr=1|qr_nm:gd|res:RC4|com-cf:nl|ptrs:na|ktp:N0|mc:214612|mtp:S|qry_typ:P|lang:en|wc:3|cs:8881|v=4,True,Indiranagar,Bengaluru,"NO.3037,INDIRANAGAR,8TH MAIN ROAD, HAL 2ND STAGE,BANGALORE, Indiranagar, Bengaluru - 560038, Dist.Bengaluru, Karnataka",7942540831,
Plastic Baby Play Gym Hanging Toys,https://www.indiamart.com/proddetail/baby-play-gym-hanging-toys-2854208428973.html?pos=162&kwd=flannel baby blanket&tags=||||8752.144|Price|product|||TS|rsf:gd-|-stype:attr=1|qr_nm:gd|res:RC4|com-cf:nl|ptrs:na|ktp:N0|mc:214612|mtp:S|qry_typ:P|lang:en|wc:3|cs:8881|v=4,Indial Premium Products,https://www.indiamart.com/indial-premium-products/?pos=162&kwd=flannel baby blanket&tags=||||8752.144|Price|product|||TS|rsf:gd-|-stype:attr=1|qr_nm:gd|res:RC4|com-cf:nl|ptrs:na|ktp:N0|mc:214612|mtp:S|qry_typ:P|lang:en|wc:3|cs:8881|v=4,False,,New Delhi,"68, K Block, Jahangirpuri North West Delhi, New Delhi - 110033, Dist.Delhi, Delhi",8045732973,
Cotton Multicolor Baby Receiving Blanket,https://www.indiamart.com/proddetail/baby-receiving-blanket-23352378462.html?pos=163&kwd=flannel baby blanket&tags=||||8228.275|Price|product|||TS|rsf:gd-|-stype:attr=1|qr_nm:gd|res:RC4|com-cf:nl|ptrs:na|ktp:N0|mc:214612|mtp:S|qry_typ:P|lang:en|wc:3|cs:8881|v=4,King Enterprise,https://www.kingenterpriseindia.com/?pos=163&kwd=flannel baby blanket&tags=||||8228.275|Price|product|||TS|rsf:gd-|-stype:attr=1|qr_nm:gd|res:RC4|com-cf:nl|ptrs:na|ktp:N0|mc:214612|mtp:S|qry_typ:P|lang:en|wc:3|cs:8881|v=4,False,Opp. Haripura Bus Stand,Ahmedabad,"Block- E 28, Ground Floor, Abhishek Estate-1, Opp. Haripura Bus Stand, Ahmedabad - 380016, Dist.Ahmedabad, Gujarat",8047632934,
"Cartoon Baby Hooded Blanket, Size: Singe, 0-2",https://www.indiamart.com/proddetail/baby-hooded-blanket-2851789151030.html?pos=164&kwd=flannel baby blanket&tags=||||8661.854||product|||TS|rsf:gd-|-stype:attr=1|qr_nm:gd|res:RC4|com-cf:nl|ptrs:na|ktp:N0|mc:214612|mtp:S|qry_typ:P|lang:en|wc:3|cs:8881|v=4,A K Davinder Hosiery,https://www.nnhgroups.com/?pos=164&kwd=flannel baby blanket&tags=||||8661.854||product|||TS|rsf:gd-|-stype:attr=1|qr_nm:gd|res:RC4|com-cf:nl|ptrs:na|ktp:N0|mc:214612|mtp:S|qry_typ:P|lang:en|wc:3|cs:8881|v=4,False,Madhopuri,Ludhiana,"873, Tilak Nagar, (Ganji Chhapri), Madhopuri, Ludhiana - 141008, Dist.Ludhiana, Punjab",8048607076,
"Cloudy Baby Blanket, Size: Singe",https://www.indiamart.com/proddetail/cloudy-baby-blanket-2851877609388.html?pos=165&kwd=flannel baby blanket&tags=||||8747.203|Price|product|||TS|rsf:gd-|-stype:attr=1|qr_nm:gd|res:RC4|com-cf:nl|ptrs:na|ktp:N0|mc:214612|mtp:S|qry_typ:P|lang:en|wc:3|cs:8881|v=4,Shivam Handloom,https://www.indiamart.com/shivamhandloompanipat/?pos=165&kwd=flannel baby blanket&tags=||||8747.203|Price|product|||TS|rsf:gd-|-stype:attr=1|qr_nm:gd|res:RC4|com-cf:nl|ptrs:na|ktp:N0|mc:214612|mtp:S|qry_typ:P|lang:en|wc:3|cs:8881|v=4,False,Sethi Chowk Area,Panipat,"Near Ramlilla Ground, Dawar Colony, Sethi Chowk Area, Panipat - 132103, Dist.Panipat, Haryana",7942544231,
Grey (Base) Flannel Double Bed Blanket cover,https://www.indiamart.com/proddetail/flannel-double-bed-blanket-cover-2854281380762.html?pos=166&kwd=flannel baby blanket&tags=||||8747.203|Price|product|||TS|rsf:gd-|-stype:attr=1|qr_nm:gd|res:RC4|com-cf:nl|ptrs:na|ktp:N0|mc:214612|mtp:S|qry_typ:P|lang:en|wc:3|cs:8881|v=4,Satyam Cottex India Pvt. Ltd.,https://www.indiamart.com/satyam-cottex-india/?pos=166&kwd=flannel baby blanket&tags=||||8747.203|Price|product|||TS|rsf:gd-|-stype:attr=1|qr_nm:gd|res:RC4|com-cf:nl|ptrs:na|ktp:N0|mc:214612|mtp:S|qry_typ:P|lang:en|wc:3|cs:8881|v=4,False,,Panipat,"Opp. Baba Peer, G.T. Road, Sewah, Panipat - 132103, Dist.Panipat, Haryana",8045729152,
Grey Polyester King Size Mink Blanket,https://www.indiamart.com/proddetail/king-size-mink-blanket-2853298634562.html?pos=167&kwd=flannel baby blanket&tags=||||8747.203|Price|product|||MDC|rsf:gd-|-stype:attr=1|qr_nm:gd|res:RC4|com-cf:nl|ptrs:na|ktp:N0|mc:214612|mtp:S|qry_typ:P|lang:en|wc:3|cs:8881|v=4,Four Seasons Handloom,https://www.indiamart.com/fourseasons-handloom/?pos=167&kwd=flannel baby blanket&tags=||||8747.203|Price|product|||MDC|rsf:gd-|-stype:attr=1|qr_nm:gd|res:RC4|com-cf:nl|ptrs:na|ktp:N0|mc:214612|mtp:S|qry_typ:P|lang:en|wc:3|cs:8881|v=4,False,Chowk,Panipat,"Shop No. R-182, Near Ram Mandir Gali, Amar Bhawan Chowk, Chowk, Panipat - 132103, Dist.Panipat, Haryana",7942707762,
"Cotton Baby White Sleeping Bag, Newly Born",https://www.indiamart.com/proddetail/baby-white-sleeping-bag-2853468608188.html?pos=168&kwd=flannel baby blanket&tags=||||8752.144|Price|product|||MDC|rsf:gd-|-stype:attr=1|qr_nm:gd|res:RC4|com-cf:nl|ptrs:na|ktp:N0|mc:214612|mtp:S|qry_typ:P|lang:en|wc:3|cs:8881|v=4,Kapil Enterprises,https://www.indiamart.com/kapilenterprisesnew-delhi/?pos=168&kwd=flannel baby blanket&tags=||||8752.144|Price|product|||MDC|rsf:gd-|-stype:attr=1|qr_nm:gd|res:RC4|com-cf:nl|ptrs:na|ktp:N0|mc:214612|mtp:S|qry_typ:P|lang:en|wc:3|cs:8881|v=4,False,Vijay Vihar,New Delhi,"Ground Floor, E-25, Vijay Vihar, Near Badi Masjid, Rohini Sector 7, North West Delhi, Vijay Vihar, New Delhi - 110085, Dist.Delhi, Delhi",7949092118,
Baby bedding quilt blanket set5in one,https://www.indiamart.com/proddetail/baby-bedding-quilt-blanket-set5in-one-2852624913733.html?pos=169&kwd=flannel baby blanket&tags=||||8580.032|Price|product|||TS|rsf:gd-|-stype:attr=1|qr_nm:gd|res:RC4|com-cf:nl|ptrs:na|ktp:N0|mc:214612|mtp:S|qry_typ:P|lang:en|wc:3|cs:8881|v=4,Ritu Infants Care,https://www.indiamart.com/ritu-infants-care/?pos=169&kwd=flannel baby blanket&tags=||||8580.032|Price|product|||TS|rsf:gd-|-stype:attr=1|qr_nm:gd|res:RC4|com-cf:nl|ptrs:na|ktp:N0|mc:214612|mtp:S|qry_typ:P|lang:en|wc:3|cs:8881|v=4,False,Sunder Nagar,Amritsar,"232, Tilak Nagar, Shivala Colony, Sunder Nagar, Amritsar - 143001, Dist.Amritsar, Punjab",7942712512,
Unisex Baby Carry Nest/Baby Sleeping Bag/Baby Wrap for Newborn Baby Boys Girls (0-3 Months),https://www.indiamart.com/proddetail/unisex-baby-carry-nest-baby-sleeping-bag-baby-wrap-for-newborn-baby-boys-girls-0-3-months-2852997270755.html?pos=170&kwd=flannel baby blanket&tags=||||9842.824|Price|product|||TS|rsf:gd-|-stype:attr=1|qr_nm:gd|res:RC4|com-cf:nl|ptrs:na|ktp:N0|mc:214612|mtp:S|qry_typ:P|lang:en|wc:3|cs:8881|v=4,Indilittle Global Export,https://www.indiamart.com/indilittleglobalexport/?pos=170&kwd=flannel baby blanket&tags=||||9842.824|Price|product|||TS|rsf:gd-|-stype:attr=1|qr_nm:gd|res:RC4|com-cf:nl|ptrs:na|ktp:N0|mc:214612|mtp:S|qry_typ:P|lang:en|wc:3|cs:8881|v=4,False,Haripal,Hooghly,"BRAHMANPARA, NALIKUL PASCHIM, HARIPAL, Haripal, Hooghly - 712405, Dist.Hooghly, West Bengal",8048977919,
"Multicolor Baby Cotton Muslin Swaddle, Size: Singe",https://www.indiamart.com/proddetail/baby-cotton-muslin-swaddle-2849329098130.html?pos=171&kwd=flannel baby blanket&tags=||||8211.142|Price|product|||TS|rsf:gd-|-stype:attr=1|qr_nm:gd|res:RC4|com-cf:nl|ptrs:na|ktp:N0|mc:214612|mtp:S|qry_typ:P|lang:en|wc:3|cs:8881|v=4,ShanBuyers,https://www.indiamart.com/shanbuyers/?pos=171&kwd=flannel baby blanket&tags=||||8211.142|Price|product|||TS|rsf:gd-|-stype:attr=1|qr_nm:gd|res:RC4|com-cf:nl|ptrs:na|ktp:N0|mc:214612|mtp:S|qry_typ:P|lang:en|wc:3|cs:8881|v=4,False,Dahisar East,Mumbai,"316, Floor No. 3rd, Sarita Building, Prabhat Ind Complex, Road Western Express Highway, Toll Naka, Dahisar, Dahisar East, Mumbai - 400068, Dist.Mumbai, Maharashtra",8047670828,
Cotton Baby wrapper,https://www.indiamart.com/proddetail/baby-wrapper-20089869591.html?pos=172&kwd=flannel baby blanket&tags=||||8211.142|Price|product|||MDC|rsf:gd-|-stype:attr=1|qr_nm:gd|res:RC4|com-cf:nl|ptrs:na|ktp:N0|mc:214612|mtp:S|qry_typ:P|lang:en|wc:3|cs:8881|v=4,Padam Kids,https://www.indiamart.com/padam-kids/?pos=172&kwd=flannel baby blanket&tags=||||8211.142|Price|product|||MDC|rsf:gd-|-stype:attr=1|qr_nm:gd|res:RC4|com-cf:nl|ptrs:na|ktp:N0|mc:214612|mtp:S|qry_typ:P|lang:en|wc:3|cs:8881|v=4,False,,Mumbai,"CKP Colony, Near Dargah, Behind Dr. Manish Bhatt Eksar Road, Borivali West, Mumbai - 400092, Dist.Mumbai, Maharashtra",8046057613,
"Polyester Newborn Baby Brown Hooded Wrapper Towel, Size: Medium",https://www.indiamart.com/proddetail/newborn-baby-brown-hooded-wrapper-towel-2852544604291.html?pos=173&kwd=flannel baby blanket&tags=||||8752.144|Price|product|||MDC|rsf:gd-|-stype:attr=1|qr_nm:gd|res:RC4|com-cf:nl|ptrs:na|ktp:N0|mc:214612|mtp:S|qry_typ:P|lang:en|wc:3|cs:8881|v=4,B N Hosiery,https://www.indiamart.com/bnhosiery/?pos=173&kwd=flannel baby blanket&tags=||||8752.144|Price|product|||MDC|rsf:gd-|-stype:attr=1|qr_nm:gd|res:RC4|com-cf:nl|ptrs:na|ktp:N0|mc:214612|mtp:S|qry_typ:P|lang:en|wc:3|cs:8881|v=4,False,Ashok Vihar,New Delhi,"House No 130l, Block-E, Phase-1,Ashok, Vihar, Ashok Vihar, New Delhi - 110052, Dist.Delhi, Delhi",7942706809,
Navy Blue Velvet Baby Carry Bed,https://www.indiamart.com/proddetail/navy-blue-velvet-baby-carry-bed-2854853218233.html?pos=174&kwd=flannel baby blanket&tags=||||8752.144|Price|product|||MDC|rsf:gd-|-stype:attr=1|qr_nm:gd|res:RC4|com-cf:nl|ptrs:na|ktp:N0|mc:214612|mtp:S|qry_typ:P|lang:en|wc:3|cs:8881|v=4,V P Product,https://www.indiamart.com/vpproduct/?pos=174&kwd=flannel baby blanket&tags=||||8752.144|Price|product|||MDC|rsf:gd-|-stype:attr=1|qr_nm:gd|res:RC4|com-cf:nl|ptrs:na|ktp:N0|mc:214612|mtp:S|qry_typ:P|lang:en|wc:3|cs:8881|v=4,False,,New Delhi,"Ground Floor, H.No.- E-5/139, Gali No. - 5, East Gokal Pur, North East Delhi, New Delhi - 110094, Dist.Delhi, Delhi",8044460681,
"Multicolor Cotton Baby Sleeping Bags, Newly Born",https://www.indiamart.com/proddetail/baby-sleeping-bags-2853966594733.html?pos=175&kwd=flannel baby blanket&tags=||||8228.275|Price|product|||MDC|rsf:gd-|-stype:attr=1|qr_nm:gd|res:RC4|com-cf:nl|ptrs:na|ktp:N0|mc:214612|mtp:S|qry_typ:P|lang:en|wc:3|cs:8881|v=4,Mahalaxmi Babycare Products LLP,https://www.indiamart.com/mahalaxmibabycareproducts/?pos=175&kwd=flannel baby blanket&tags=||||8228.275|Price|product|||MDC|rsf:gd-|-stype:attr=1|qr_nm:gd|res:RC4|com-cf:nl|ptrs:na|ktp:N0|mc:214612|mtp:S|qry_typ:P|lang:en|wc:3|cs:8881|v=4,False,Bapunagar,Ahmedabad,"Survey No. 00697/4585, B No 697/4585 Gujarat Hou Board, Bapunagar, Bapunagar, Ahmedabad - 382424, Dist.Ahmedabad, Gujarat",8047787256,
Printed Size: Single Organic Muslin Swaddles 100-100cms,https://www.indiamart.com/proddetail/muslin-printed-baby-blanket-2848990627133.html?pos=176&kwd=flannel baby blanket&tags=||||8626.744|Price|product|||MDC|rsf:gd-|-stype:attr=1|qr_nm:gd|res:RC4|com-cf:nl|ptrs:na|ktp:N0|mc:214612|mtp:S|qry_typ:P|lang:en|wc:3|cs:8881|v=4,Bawse Baby,https://www.indiamart.com/bawseebaby/?pos=176&kwd=flannel baby blanket&tags=||||8626.744|Price|product|||MDC|rsf:gd-|-stype:attr=1|qr_nm:gd|res:RC4|com-cf:nl|ptrs:na|ktp:N0|mc:214612|mtp:S|qry_typ:P|lang:en|wc:3|cs:8881|v=4,False,,Tiruppur,"1/125A Semmetuth Thottam, Kulathuputhur, Andipalayam, Tiruppur - 641687, Dist.Coimbatore, Tamil Nadu",8047552265,
"Charlie Printed Hooded Baby Blanket, Size: Large",https://www.indiamart.com/proddetail/hooded-baby-blanket-16496894130.html?pos=177&kwd=flannel baby blanket&tags=||||8747.203|Price|product|||TS|rsf:gd-|-stype:attr=1|qr_nm:gd|res:RC4|com-cf:nl|ptrs:na|ktp:N0|mc:214612|mtp:S|qry_typ:P|lang:en|wc:3|cs:8881|v=4,Hari Anchal Handloom,https://www.indiamart.com/harianchal-handloom/?pos=177&kwd=flannel baby blanket&tags=||||8747.203|Price|product|||TS|rsf:gd-|-stype:attr=1|qr_nm:gd|res:RC4|com-cf:nl|ptrs:na|ktp:N0|mc:214612|mtp:S|qry_typ:P|lang:en|wc:3|cs:8881|v=4,False,Panipat,Panipat,"No. 814/3, Near Prem Mandir, Pachranga Bazar 814/3, Near Prem Mandir Panipat, Panipat, Panipat - 132103, Dist.Panipat, Haryana",8048961474,
Printed Multicolor Kids Baby Blanket,https://www.indiamart.com/proddetail/kids-baby-blanket-24419932297.html?pos=178&kwd=flannel baby blanket&tags=||||8788.382|Price|product|||TS|rsf:gd-|-stype:attr=1|qr_nm:gd|res:RC4|com-cf:nl|ptrs:na|ktp:N0|mc:214612|mtp:S|qry_typ:P|lang:en|wc:3|cs:8881|v=4,CLOVER (A Brand of Delhi Garments Private Limited),https://www.indiamart.com/delhigarments/?pos=178&kwd=flannel baby blanket&tags=||||8788.382|Price|product|||TS|rsf:gd-|-stype:attr=1|qr_nm:gd|res:RC4|com-cf:nl|ptrs:na|ktp:N0|mc:214612|mtp:S|qry_typ:P|lang:en|wc:3|cs:8881|v=4,False,,Greater Noida,"43 Block C Sector 88, Greater Noida - 201306, Dist.Gautam Budh Nagar, Uttar Pradesh",8048265597,
"Polyester Multicolor Polar Baby Blanket, Packaging Type: Packet",https://www.indiamart.com/proddetail/polar-baby-blanket-24514336762.html?pos=179&kwd=flannel baby blanket&tags=||||8785.791|Price|product|||TS|rsf:gd-|-stype:attr=1|qr_nm:gd|res:RC4|com-cf:nl|ptrs:na|ktp:N0|mc:214612|mtp:S|qry_typ:P|lang:en|wc:3|cs:8881|v=4,Ilaki Intercraft (India),https://www.indiamart.com/ilakiintercraft/?pos=179&kwd=flannel baby blanket&tags=||||8785.791|Price|product|||TS|rsf:gd-|-stype:attr=1|qr_nm:gd|res:RC4|com-cf:nl|ptrs:na|ktp:N0|mc:214612|mtp:S|qry_typ:P|lang:en|wc:3|cs:8881|v=4,False,Tronica City,Ghaziabad,"D-69 Sector D-1 Tronica City, Tronica City, Ghaziabad - 201103, Dist.Ghaziabad, Uttar Pradesh",7942552124,
Fleece Multicolor Printed Baby Blanket,https://www.indiamart.com/proddetail/printed-baby-blanket-2853713691355.html?pos=180&kwd=flannel baby blanket&tags=||||8747.203|Price|product|||TS|rsf:gd-|-stype:attr=1|qr_nm:gd|res:RC4|com-cf:nl|ptrs:na|ktp:N0|mc:214612|mtp:S|qry_typ:P|lang:en|wc:3|cs:8881|v=4,Cotton Bolls Textiles,https://www.indiamart.com/cottonbollstextilespanipat/?pos=180&kwd=flannel baby blanket&tags=||||8747.203|Price|product|||TS|rsf:gd-|-stype:attr=1|qr_nm:gd|res:RC4|com-cf:nl|ptrs:na|ktp:N0|mc:214612|mtp:S|qry_typ:P|lang:en|wc:3|cs:8881|v=4,False,Huda,Panipat,"House No - 485 Sector 13-17, Huda, Panipat - 132103, Dist.Panipat, Haryana",8043855324,
Red Size: Single Printed Woolen Baby Blanket,https://www.indiamart.com/proddetail/printed-woolen-baby-blanket-26719394888.html?pos=181&kwd=flannel baby blanket&tags=||||8790.945|Price|product|||MDC|rsf:gd-|-stype:attr=1|qr_nm:gd|res:RC4|com-cf:nl|ptrs:na|ktp:N0|mc:214612|mtp:S|qry_typ:P|lang:en|wc:3|cs:8881|v=4,Luxmi Cloth House,https://www.indiamart.com/luxmi-cloth-housebilaspur/?pos=181&kwd=flannel baby blanket&tags=||||8790.945|Price|product|||MDC|rsf:gd-|-stype:attr=1|qr_nm:gd|res:RC4|com-cf:nl|ptrs:na|ktp:N0|mc:214612|mtp:S|qry_typ:P|lang:en|wc:3|cs:8881|v=4,False,,Bilaspur,"Main Bazar, Bilaspur - 135102, Haryana",8041015143,
Mink Hetvik Enterprises Baby Blanket,https://www.indiamart.com/proddetail/hetvik-enterprises-baby-blanket-24680021597.html?pos=182&kwd=flannel baby blanket&tags=||||8747.203|Price|product|||TS|rsf:gd-|-stype:attr=1|qr_nm:gd|res:RC4|com-cf:nl|ptrs:na|ktp:N0|mc:214612|mtp:S|qry_typ:P|lang:en|wc:3|cs:8881|v=4,Hetvik Enterprise,https://www.indiamart.com/hetvik-enterprise/?pos=182&kwd=flannel baby blanket&tags=||||8747.203|Price|product|||TS|rsf:gd-|-stype:attr=1|qr_nm:gd|res:RC4|com-cf:nl|ptrs:na|ktp:N0|mc:214612|mtp:S|qry_typ:P|lang:en|wc:3|cs:8881|v=4,False,Kawi,Panipat,"Office No-1, Basement, Preet Tower, Tau Devi Lal Complex,, Kawi, Panipat - 132103, Dist.Panipat, Haryana",8046065237,
"Pink Printed Baby Blanket, Size: Singe",https://www.indiamart.com/proddetail/pink-printed-baby-blanket-2853684882555.html?pos=183&kwd=flannel baby blanket&tags=||||9848.189|Price|product|||TS|rsf:gd-|-stype:attr=1|qr_nm:gd|res:RC4|com-cf:nl|ptrs:na|ktp:N0|mc:214612|mtp:S|qry_typ:P|lang:en|wc:3|cs:8881|v=4,Balaji Stores,https://www.indiamart.com/balajistores-siliguri/?pos=183&kwd=flannel baby blanket&tags=||||9848.189|Price|product|||TS|rsf:gd-|-stype:attr=1|qr_nm:gd|res:RC4|com-cf:nl|ptrs:na|ktp:N0|mc:214612|mtp:S|qry_typ:P|lang:en|wc:3|cs:8881|v=4,False,,Siliguri,"H/22/8/188/273/737,,B ROAD WARD NO 12 P.O SILIGURI,Siliguri, Siliguri - 734001, Dist.Darjiling, West Bengal",8045734046,
"Vaibhav Exports Plain 100 Cotton Flannel Bath Blankets, Adults, Size: 60 X 90 Inches,90 X 90 Inches",https://www.indiamart.com/proddetail/100-cotton-flannel-bath-blankets-22253271348.html?pos=184&kwd=flannel baby blanket&tags=||||8747.203|Price|product|||TS|rsf:gd-|-stype:attr=1|qr_nm:gd|res:RC4|com-cf:nl|ptrs:na|ktp:N0|mc:214612|mtp:S|qry_typ:P|lang:en|wc:3|cs:8881|v=4,Vaibhav Exports,https://www.vaibhavexports.net/?pos=184&kwd=flannel baby blanket&tags=||||8747.203|Price|product|||TS|rsf:gd-|-stype:attr=1|qr_nm:gd|res:RC4|com-cf:nl|ptrs:na|ktp:N0|mc:214612|mtp:S|qry_typ:P|lang:en|wc:3|cs:8881|v=4,True,Huda,Panipat,"No. 603, Sector 12, Huda, Panipat - 132103, Dist.Panipat, Haryana",8048981000,
"Multicolor Hand Block Printed Cotton Baby Dohar, Size: 44 X 44 Inches",https://www.indiamart.com/proddetail/hand-block-printed-cotton-baby-dohar-24425418630.html?pos=185&kwd=flannel baby blanket&tags=||||8601.347|Price|product|||TS|rsf:gd-|-stype:attr=1|qr_nm:gd|res:RC4|com-cf:nl|ptrs:na|ktp:N0|mc:214612|mtp:S|qry_typ:P|lang:en|wc:3|cs:8881|v=4,Shree Ganesh Handicrafts & Textiles,https://www.shreeganeshhandicrafts.com/?pos=185&kwd=flannel baby blanket&tags=||||8601.347|Price|product|||TS|rsf:gd-|-stype:attr=1|qr_nm:gd|res:RC4|com-cf:nl|ptrs:na|ktp:N0|mc:214612|mtp:S|qry_typ:P|lang:en|wc:3|cs:8881|v=4,True,Amer Road,Jaipur,"Govind Nagar Vistar, Plot No 54b, Dussehra Kothi, Amer Road, Amer Road, Jaipur - 302002, Dist.Jaipur, Rajasthan",8046036982,
"Cotton Baby sleeping bag, 0-6 months",https://www.indiamart.com/proddetail/baby-sleeping-bag-2852720865833.html?pos=186&kwd=flannel baby blanket&tags=||||8752.144|Price|product|||MDC|rsf:gd-|-stype:attr=1|qr_nm:gd|res:RC4|com-cf:nl|ptrs:na|ktp:N0|mc:214612|mtp:S|qry_typ:P|lang:en|wc:3|cs:8881|v=4,M.K. Manufacturer,https://www.indiamart.com/mk-manufacturer-delhi/?pos=186&kwd=flannel baby blanket&tags=||||8752.144|Price|product|||MDC|rsf:gd-|-stype:attr=1|qr_nm:gd|res:RC4|com-cf:nl|ptrs:na|ktp:N0|mc:214612|mtp:S|qry_typ:P|lang:en|wc:3|cs:8881|v=4,False,,New Delhi,"S/F, E-468, Kh No. 539, Gali No. 11, Subhash Vihar, North Ghonda, North East, New Delhi - 110053, Dist.Delhi, Delhi",8047648752,
"Pale Lavender Baby Cotton Sleeping Bag, Newly Born",https://www.indiamart.com/proddetail/baby-cotton-sleeping-bag-2854184919691.html?pos=187&kwd=flannel baby blanket&tags=||||8228.275|Price|product|||MDC|rsf:gd-|-stype:attr=1|qr_nm:gd|res:RC4|com-cf:nl|ptrs:na|ktp:N0|mc:214612|mtp:S|qry_typ:P|lang:en|wc:3|cs:8881|v=4,Ramchand Tilumal,https://www.indiamart.com/ramchandtilumal/?pos=187&kwd=flannel baby blanket&tags=||||8228.275|Price|product|||MDC|rsf:gd-|-stype:attr=1|qr_nm:gd|res:RC4|com-cf:nl|ptrs:na|ktp:N0|mc:214612|mtp:S|qry_typ:P|lang:en|wc:3|cs:8881|v=4,False,Kalupur,Ahmedabad,"S-117, Sindhi Market, Revdi Bazar, Kalupur, Kalupur, Ahmedabad - 380001, Dist.Ahmedabad, Gujarat",8045731988,
Polyester Blue Sleeping Bag,https://www.indiamart.com/proddetail/blue-sleeping-bag-2849739025412.html?pos=188&kwd=flannel baby blanket&tags=||||8752.144||product|||MDC|rsf:gd-|-stype:attr=1|qr_nm:gd|res:RC4|com-cf:nl|ptrs:na|ktp:N0|mc:214612|mtp:S|qry_typ:P|lang:en|wc:3|cs:8881|v=4,Jaidka Enterprises,https://www.indiamart.com/jaidka-enterprises-delhi/?pos=188&kwd=flannel baby blanket&tags=||||8752.144||product|||MDC|rsf:gd-|-stype:attr=1|qr_nm:gd|res:RC4|com-cf:nl|ptrs:na|ktp:N0|mc:214612|mtp:S|qry_typ:P|lang:en|wc:3|cs:8881|v=4,False,Rohini,New Delhi,"House No, Pul Pheladpur, Rohini, New Delhi - 110044, Dist.Delhi, Delhi",7942795311,
Blue Cotton Baby Sleeping Bag,https://www.indiamart.com/proddetail/blue-cotton-baby-sleeping-bag-2854178036273.html?pos=189&kwd=flannel baby blanket&tags=||||8752.144|Price|product|||MDC|rsf:gd-|-stype:attr=1|qr_nm:gd|res:RC4|com-cf:nl|ptrs:na|ktp:N0|mc:214612|mtp:S|qry_typ:P|lang:en|wc:3|cs:8881|v=4,Komal Embroidery,https://www.indiamart.com/komal-embroidery-newdelhi/?pos=189&kwd=flannel baby blanket&tags=||||8752.144|Price|product|||MDC|rsf:gd-|-stype:attr=1|qr_nm:gd|res:RC4|com-cf:nl|ptrs:na|ktp:N0|mc:214612|mtp:S|qry_typ:P|lang:en|wc:3|cs:8881|v=4,False,Rithala,New Delhi,"Ground Floor, Shop No. PVT-3, KH No. 1203, Lal Doora Village Rithala Near Surya Hotel, Rithala, New Delhi - 110085, Dist.Delhi, Delhi",8045730251,
Hooded Baby Blanket,https://www.indiamart.com/proddetail/hooded-baby-blanket-2854848143312.html?pos=190&kwd=flannel baby blanket&tags=||||8747.203|Price|product|||MDC|rsf:gd-|-stype:attr=1|qr_nm:gd|res:RC4|com-cf:nl|ptrs:na|ktp:N0|mc:214612|mtp:S|qry_typ:P|lang:en|wc:3|cs:8881|v=4,Delite Home Furnishings,https://www.indiamart.com/delitehomefurnishings/?pos=190&kwd=flannel baby blanket&tags=||||8747.203|Price|product|||MDC|rsf:gd-|-stype:attr=1|qr_nm:gd|res:RC4|com-cf:nl|ptrs:na|ktp:N0|mc:214612|mtp:S|qry_typ:P|lang:en|wc:3|cs:8881|v=4,False,Chowk,Panipat,"First Floor, H.No 1629, SEC 11, Near Sai Baba Chowk, Back Side of Pruthi Hospital, NHBC Sector 11, Chowk, Panipat - 132103, Dist.Panipat, Haryana",7942969606,
Cotton Mulmul Multicolor Hooded Baby Blanket,https://www.indiamart.com/proddetail/hooded-baby-blanket-2854988062273.html?pos=191&kwd=flannel baby blanket&tags=||||8364.597|Price|product|||MDC|rsf:gd-|-stype:attr=1|qr_nm:gd|res:RC4|com-cf:nl|ptrs:na|ktp:N0|mc:214612|mtp:S|qry_typ:P|lang:en|wc:3|cs:8881|v=4,Mohammedi Hosiery,https://www.indiamart.com/mohammedi-hosiery/?pos=191&kwd=flannel baby blanket&tags=||||8364.597|Price|product|||MDC|rsf:gd-|-stype:attr=1|qr_nm:gd|res:RC4|com-cf:nl|ptrs:na|ktp:N0|mc:214612|mtp:S|qry_typ:P|lang:en|wc:3|cs:8881|v=4,False,,Udaipur,"115, Bapur Bazar, Udaipur - 313001, Rajasthan",7949331447,
"Woolen Blue Baby Blanket, Size: Singe",https://www.indiamart.com/proddetail/baby-blanket-24208054988.html?pos=192&kwd=flannel baby blanket&tags=||||8747.203|Price|product|||TS|rsf:gd-|-stype:attr=1|qr_nm:gd|res:RC4|com-cf:nl|ptrs:na|ktp:N0|mc:214612|mtp:S|qry_typ:P|lang:en|wc:3|cs:8881|v=4,Ambay Enterprises,https://www.crafteal.in/?pos=192&kwd=flannel baby blanket&tags=||||8747.203|Price|product|||TS|rsf:gd-|-stype:attr=1|qr_nm:gd|res:RC4|com-cf:nl|ptrs:na|ktp:N0|mc:214612|mtp:S|qry_typ:P|lang:en|wc:3|cs:8881|v=4,False,Colony,Panipat,"Near Guru Medical Store H/N 2270 Wadhawa Ram Colony, Colony, Panipat - 132103, Dist.Panipat, Haryana",7949092116,
"Cotton Multicolor Printed Baby Blanket, Size: Singe",https://www.indiamart.com/proddetail/printed-baby-blanket-2850870920488.html?pos=193&kwd=flannel baby blanket&tags=||||8747.203|Price|product|||TS|rsf:gd-|-stype:attr=1|qr_nm:gd|res:RC4|com-cf:nl|ptrs:na|ktp:N0|mc:214612|mtp:S|qry_typ:P|lang:en|wc:3|cs:8881|v=4,Siya Ram Enterprises,https://www.indiamart.com/siyaram-enterprises-panipat/?pos=193&kwd=flannel baby blanket&tags=||||8747.203|Price|product|||TS|rsf:gd-|-stype:attr=1|qr_nm:gd|res:RC4|com-cf:nl|ptrs:na|ktp:N0|mc:214612|mtp:S|qry_typ:P|lang:en|wc:3|cs:8881|v=4,False,Huda,Panipat,"Gali Number 3, Near Ahuja Furniture Sanoli Road, Huda, Panipat - 132103, Dist.Panipat, Haryana",8048959822,
"Navy blue Printed FLANNEL BLANKET 120 D Super Soft & Super Shine 1, Packaging Type: Polybag, Size: 220X240",https://www.indiamart.com/proddetail/flannel-blanket-120-d-super-soft-super-shine-1-2852109484597.html?pos=194&kwd=flannel baby blanket&tags=||||8747.203|Price|product|||MDC|rsf:gd-|-stype:attr=1|qr_nm:gd|res:RC4|com-cf:nl|ptrs:na|ktp:N0|mc:214612|mtp:S|qry_typ:P|lang:en|wc:3|cs:8881|v=4,Satya Sai Handloom,https://www.satyasaihandlooms.com/?pos=194&kwd=flannel baby blanket&tags=||||8747.203|Price|product|||MDC|rsf:gd-|-stype:attr=1|qr_nm:gd|res:RC4|com-cf:nl|ptrs:na|ktp:N0|mc:214612|mtp:S|qry_typ:P|lang:en|wc:3|cs:8881|v=4,False,Shastri Colony,Panipat,"775/7,Amar Bhawan Chowk, Shastri Colony, Panipat - 132103, Dist.Panipat, Haryana",7942841137,
Size: Single Flanno Blanket Roll,https://www.indiamart.com/proddetail/flanno-blanket-roll-2855003406897.html?pos=195&kwd=flannel baby blanket&tags=||||8752.144|Price|product|||MDC|rsf:gd-|-stype:attr=1|qr_nm:gd|res:RC4|com-cf:nl|ptrs:na|ktp:N0|mc:214612|mtp:S|qry_typ:P|lang:en|wc:3|cs:8881|v=4,Mehta Fabrics,https://www.indiamart.com/mehta-fabrics/?pos=195&kwd=flannel baby blanket&tags=||||8752.144|Price|product|||MDC|rsf:gd-|-stype:attr=1|qr_nm:gd|res:RC4|com-cf:nl|ptrs:na|ktp:N0|mc:214612|mtp:S|qry_typ:P|lang:en|wc:3|cs:8881|v=4,False,Gandhi Nagar,New Delhi,"IX/3431, Dharam Pura, Gandhi Nagar, East Delhi, Gandhi Nagar, New Delhi - 110031, Dist.Delhi, Delhi",7949095584,
Cartoon Blue Printed Baby Blanket,https://www.indiamart.com/proddetail/blue-printed-baby-blanket-23897595133.html?pos=196&kwd=flannel baby blanket&tags=||||8752.144|Price|product|||MDC|rsf:gd-|-stype:attr=1|qr_nm:gd|res:RC4|com-cf:nl|ptrs:na|ktp:N0|mc:214612|mtp:S|qry_typ:P|lang:en|wc:3|cs:8881|v=4,Kidz Creation,https://www.indiamart.com/kidzcreation/?pos=196&kwd=flannel baby blanket&tags=||||8752.144|Price|product|||MDC|rsf:gd-|-stype:attr=1|qr_nm:gd|res:RC4|com-cf:nl|ptrs:na|ktp:N0|mc:214612|mtp:S|qry_typ:P|lang:en|wc:3|cs:8881|v=4,False,,New Delhi,"Shop No. 279/517,Sabharwal Market, Tolia Wali Gali Sadar Bazar, North Delhi,, New Delhi - 110006, Dist.Delhi, Delhi",8047679212,
"Pink Cotton-muslin Home Printed Crib Swaddling Baby Blanket for AC Room, Size: Singe",https://www.indiamart.com/proddetail/home-printed-crib-swaddling-baby-blanket-for-ac-room-2853776874555.html?pos=197&kwd=flannel baby blanket&tags=||||8706.263|Price|product|||TS|rsf:gd-|-stype:attr=1|qr_nm:gd|res:RC4|com-cf:nl|ptrs:na|ktp:N0|mc:214612|mtp:S|qry_typ:P|lang:en|wc:3|cs:8881|v=4,Shree Garments,https://www.indiamart.com/shree-garments-karur/?pos=197&kwd=flannel baby blanket&tags=||||8706.263|Price|product|||TS|rsf:gd-|-stype:attr=1|qr_nm:gd|res:RC4|com-cf:nl|ptrs:na|ktp:N0|mc:214612|mtp:S|qry_typ:P|lang:en|wc:3|cs:8881|v=4,False,Vengamedu,Karur,"6, Maruthamuthu Thottam, Opp To Sp Colony, Vengameduvengamedu,, Vengamedu, Karur - 639006, Dist.Karur, Tamil Nadu",7942719649,
"Various Printed Super Soft Flannel Blanket, Packaging Type: Plastic Bag, Size: Double Bed",https://www.indiamart.com/proddetail/super-soft-flannel-blanket-26238355091.html?pos=198&kwd=flannel baby blanket&tags=||||9839.57|Price|product|||TS|rsf:gd-|-stype:attr=1|qr_nm:gd|res:RC4|com-cf:nl|ptrs:na|ktp:N0|mc:214612|mtp:S|qry_typ:P|lang:en|wc:3|cs:8881|v=4,Ramesh Kumar Khanna And Grand Sons,https://www.indiamart.com/ramesh-kumarkhannagrandsons/?pos=198&kwd=flannel baby blanket&tags=||||9839.57|Price|product|||TS|rsf:gd-|-stype:attr=1|qr_nm:gd|res:RC4|com-cf:nl|ptrs:na|ktp:N0|mc:214612|mtp:S|qry_typ:P|lang:en|wc:3|cs:8881|v=4,False,Burrabazar,Kolkata,"35, Ground Floor, Jamuna Lal Bajaj Street, Burrabazar, Burrabazar, Kolkata - 700007, Dist.Kolkata, West Bengal",8043864207,
Flannel Blankets,https://www.indiamart.com/proddetail/flannel-blankets-2854872806130.html?pos=199&kwd=flannel baby blanket&tags=||||8747.203|Price|product|||TS|rsf:gd-|-stype:attr=1|qr_nm:gd|res:RC4|com-cf:nl|ptrs:na|ktp:N0|mc:214612|mtp:S|qry_typ:P|lang:en|wc:3|cs:8881|v=4,Raks India,https://www.indiamart.com/raksindia-panipat/?pos=199&kwd=flannel baby blanket&tags=||||8747.203|Price|product|||TS|rsf:gd-|-stype:attr=1|qr_nm:gd|res:RC4|com-cf:nl|ptrs:na|ktp:N0|mc:214612|mtp:S|qry_typ:P|lang:en|wc:3|cs:8881|v=4,False,Bhagat Nagar,Panipat,"Behind Bhola Dharam Kanta, Barsat Road, Bhagat Nagar, Panipat - 132103, Dist.Panipat, Haryana",8047310009,
"Multicolor Flannel Acrylic Blankets, Size: Double",https://www.indiamart.com/proddetail/acrylic-blankets-2853711985697.html?pos=200&kwd=flannel baby blanket&tags=||||8752.144|Price|product|||TS|rsf:gd-|-stype:attr=1|qr_nm:gd|res:RC4|com-cf:nl|ptrs:na|ktp:N0|mc:214612|mtp:S|qry_typ:P|lang:en|wc:3|cs:8881|v=4,Gugnani Textiles,https://www.indiamart.com/gugnani-textiles/?pos=200&kwd=flannel baby blanket&tags=||||8752.144|Price|product|||TS|rsf:gd-|-stype:attr=1|qr_nm:gd|res:RC4|com-cf:nl|ptrs:na|ktp:N0|mc:214612|mtp:S|qry_typ:P|lang:en|wc:3|cs:8881|v=4,False,Chandni Chowk,New Delhi,"Ground Floor, N-4794, Ram Bazar, Church Mission Marg, Central, Chandni Chowk, New Delhi - 110006, Dist.Delhi, Delhi",7942836712,
"Plain Blue Mink Blanket, For Home, Size: 90x100 Inch",https://www.indiamart.com/proddetail/blue-mink-blanket-25471531073.html?pos=201&kwd=flannel baby blanket&tags=||||8668.838|Price|product|||TS|rsf:gd-|-stype:attr=1|qr_nm:gd|res:RC4|com-cf:nl|ptrs:na|ktp:N0|mc:214612|mtp:S|qry_typ:P|lang:en|wc:3|cs:8881|v=4,M.M. Ashok Kumar,https://www.indiamart.com/mm-ashokkumar/?pos=201&kwd=flannel baby blanket&tags=||||8668.838|Price|product|||TS|rsf:gd-|-stype:attr=1|qr_nm:gd|res:RC4|com-cf:nl|ptrs:na|ktp:N0|mc:214612|mtp:S|qry_typ:P|lang:en|wc:3|cs:8881|v=4,False,Erode East,Erode,"55, Opp Gokul Lodge, Kamraj Street,, Erode East, Erode - 638001, Dist.Erode, Tamil Nadu",8047623598,
Hooded Star Printed Baby Wrap Wearable Blanket For Baby Boys and Girls,https://www.indiamart.com/proddetail/hooded-star-printed-baby-wrap-wearable-blanket-for-baby-boys-and-girls-2854434392188.html?pos=202&kwd=flannel baby blanket&tags=||||8661.854|Price|product|||MDC|rsf:gd-|-stype:attr=1|qr_nm:gd|res:RC4|com-cf:nl|ptrs:na|ktp:N0|mc:214612|mtp:S|qry_typ:P|lang:en|wc:3|cs:8881|v=4,S.R Woollen Textile,https://www.indiamart.com/srwoollentextile/?pos=202&kwd=flannel baby blanket&tags=||||8661.854|Price|product|||MDC|rsf:gd-|-stype:attr=1|qr_nm:gd|res:RC4|com-cf:nl|ptrs:na|ktp:N0|mc:214612|mtp:S|qry_typ:P|lang:en|wc:3|cs:8881|v=4,False,Old Ludhiana,Ludhiana,"435, Chauri Sarak, Bazzrian Mohalla, Old Ludhiana, Ludhiana - 141008, Dist.Ludhiana, Punjab",7942873909,
"Meera Handicrafts Cotton Baby Fur Blanket Dohra, Size: 44*44 Inch",https://www.indiamart.com/proddetail/baby-fur-blanket-dohra-22831584797.html?pos=203&kwd=flannel baby blanket&tags=||||8601.347|Price|product|||TS|rsf:gd-|-stype:attr=1|qr_nm:gd|res:RC4|com-cf:nl|ptrs:na|ktp:N0|mc:214612|mtp:S|qry_typ:P|lang:en|wc:3|cs:8881|v=4,Meera Handicrafts,https://www.meerahandicrafts.in/?pos=203&kwd=flannel baby blanket&tags=||||8601.347|Price|product|||TS|rsf:gd-|-stype:attr=1|qr_nm:gd|res:RC4|com-cf:nl|ptrs:na|ktp:N0|mc:214612|mtp:S|qry_typ:P|lang:en|wc:3|cs:8881|v=4,True,Govind Nagar,Jaipur,"Govind Nagar Vistar, Plot No 54b, Dussehra Kothi, Amer Road, Govind Nagar, Jaipur - 302002, Dist.Jaipur, Rajasthan",8048618585,
Fleece Blue Printed Baby Blanket,https://www.indiamart.com/proddetail/printed-baby-blanket-27278242362.html?pos=204&kwd=flannel baby blanket&tags=||||8228.275|Price|product|||MDC|rsf:gd-|-stype:attr=1|qr_nm:gd|res:RC4|com-cf:nl|ptrs:na|ktp:N0|mc:214612|mtp:S|qry_typ:P|lang:en|wc:3|cs:8881|v=4,Kashyap Enterprise,https://www.indiamart.com/kashyap-enterprise-ahmedabad/?pos=204&kwd=flannel baby blanket&tags=||||8228.275|Price|product|||MDC|rsf:gd-|-stype:attr=1|qr_nm:gd|res:RC4|com-cf:nl|ptrs:na|ktp:N0|mc:214612|mtp:S|qry_typ:P|lang:en|wc:3|cs:8881|v=4,False,,Ahmedabad,"4th Floor, 432, Block - F, Sumel -6, Jupiter Mill Compound, Dudheshwar, Ahmedabad - 380004, Dist.Ahmedabad, Gujarat",8044460052,
Cartoon Blue Printed Baby Blanket,https://www.indiamart.com/proddetail/blue-printed-baby-blanket-23897595133.html?pos=205&kwd=flannel baby blanket&tags=||||8752.144|Price|product|||MDC|rsf:gd-|-stype:attr=1|qr_nm:gd|res:RC4|com-cf:nl|ptrs:na|ktp:N0|mc:214612|mtp:S|qry_typ:P|lang:en|wc:3|cs:8881|v=4,Kidz Creation,https://www.indiamart.com/kidzcreation/?pos=205&kwd=flannel baby blanket&tags=||||8752.144|Price|product|||MDC|rsf:gd-|-stype:attr=1|qr_nm:gd|res:RC4|com-cf:nl|ptrs:na|ktp:N0|mc:214612|mtp:S|qry_typ:P|lang:en|wc:3|cs:8881|v=4,False,,New Delhi,"Shop No. 279/517,Sabharwal Market, Tolia Wali Gali Sadar Bazar, North Delhi,, New Delhi - 110006, Dist.Delhi, Delhi",8047679212,
Blue Baby Cotton Carry Bed,https://www.indiamart.com/proddetail/blue-baby-cotton-carry-bed-13740793873.html?pos=206&kwd=flannel baby blanket&tags=||||8663.873|Price|product|||TS|rsf:gd-|-stype:attr=1|qr_nm:gd|res:RC4|com-cf:nl|ptrs:na|ktp:N0|mc:214612|mtp:S|qry_typ:P|lang:en|wc:3|cs:8881|v=4,Kids International,https://www.indiamart.com/kidsinternational/?pos=206&kwd=flannel baby blanket&tags=||||8663.873|Price|product|||TS|rsf:gd-|-stype:attr=1|qr_nm:gd|res:RC4|com-cf:nl|ptrs:na|ktp:N0|mc:214612|mtp:S|qry_typ:P|lang:en|wc:3|cs:8881|v=4,False,Malleswaram,Bengaluru,"Ground Floor, No-18, Yellappa Garden 10Th Cross, Malleswaram,Urban,, Malleswaram, Bengaluru - 560003, Dist.Bengaluru, Karnataka",8044013916,
Baby bedding quilt blanket set5in one,https://www.indiamart.com/proddetail/baby-bedding-quilt-blanket-set5in-one-2852624913733.html?pos=207&kwd=flannel baby blanket&tags=||||8580.032|Price|product|||TS|rsf:gd-|-stype:attr=1|qr_nm:gd|res:RC4|com-cf:nl|ptrs:na|ktp:N0|mc:214612|mtp:S|qry_typ:P|lang:en|wc:3|cs:8881|v=4,Ritu Infants Care,https://www.indiamart.com/ritu-infants-care/?pos=207&kwd=flannel baby blanket&tags=||||8580.032|Price|product|||TS|rsf:gd-|-stype:attr=1|qr_nm:gd|res:RC4|com-cf:nl|ptrs:na|ktp:N0|mc:214612|mtp:S|qry_typ:P|lang:en|wc:3|cs:8881|v=4,False,Sunder Nagar,Amritsar,"232, Tilak Nagar, Shivala Colony, Sunder Nagar, Amritsar - 143001, Dist.Amritsar, Punjab",7942712512,
Ankit International Presents Red Non Woven Blanket Cover Transparent With Handel,https://www.indiamart.com/proddetail/ankit-international-presents-red-non-woven-blanket-cover-transparent-with-handel-24145089791.html?pos=208&kwd=flannel baby blanket&tags=||||8601.347|Price|product|||TS|rsf:gd-|-stype:attr=1|qr_nm:gd|res:RC4|com-cf:nl|ptrs:na|ktp:N0|mc:214612|mtp:S|qry_typ:P|lang:en|wc:3|cs:8881|v=4,Ankit International,https://www.indiamart.com/ankit-international-jaipur/?pos=208&kwd=flannel baby blanket&tags=||||8601.347|Price|product|||TS|rsf:gd-|-stype:attr=1|qr_nm:gd|res:RC4|com-cf:nl|ptrs:na|ktp:N0|mc:214612|mtp:S|qry_typ:P|lang:en|wc:3|cs:8881|v=4,False,Jhotwara,Jaipur,"Plot No 4, Om Durge Colony,near Gulab Badi, Factory Area Road, Jhotwara, Jhotwara, Jaipur - 302012, Dist.Jaipur, Rajasthan",8048954848,
"Cotton White Baby Swaddle Wrap, Size: Medium",https://www.indiamart.com/proddetail/baby-swaddle-wrap-2853100102555.html?pos=209&kwd=flannel baby blanket&tags=||||8734.695|Price|product|||TS|rsf:gd-|-stype:attr=1|qr_nm:gd|res:RC4|com-cf:nl|ptrs:na|ktp:N0|mc:214612|mtp:S|qry_typ:P|lang:en|wc:3|cs:8881|v=4,Welcome Polymers India Private Limited,https://www.welcomepolymers.com/?pos=209&kwd=flannel baby blanket&tags=||||8734.695|Price|product|||TS|rsf:gd-|-stype:attr=1|qr_nm:gd|res:RC4|com-cf:nl|ptrs:na|ktp:N0|mc:214612|mtp:S|qry_typ:P|lang:en|wc:3|cs:8881|v=4,False,Sector 17,Bahadurgarh,"Plot No.270, Sector 17, Sector 17, Bahadurgarh - 124507, Dist.Jhajjar, Haryana",8048986357,
"Baby Sleeping Bed, Newly Born",https://www.indiamart.com/proddetail/baby-sleeping-bed-2852778198188.html?pos=210&kwd=flannel baby blanket&tags=||||8626.744|Price|product|||TS|rsf:gd-|-stype:attr=1|qr_nm:gd|res:RC4|com-cf:nl|ptrs:na|ktp:N0|mc:214612|mtp:S|qry_typ:P|lang:en|wc:3|cs:8881|v=4,Sudarshaan Impex,https://www.indiamart.com/sudarshaan-impex/?pos=210&kwd=flannel baby blanket&tags=||||8626.744|Price|product|||TS|rsf:gd-|-stype:attr=1|qr_nm:gd|res:RC4|com-cf:nl|ptrs:na|ktp:N0|mc:214612|mtp:S|qry_typ:P|lang:en|wc:3|cs:8881|v=4,False,Jeeva Nagar,Tiruppur,"No.8/398C, Selvalakshmi nagar, 1st street, Angeri palayam, Jeeva Nagar, Tiruppur - 641603, Dist.Coimbatore, Tamil Nadu",8046077280,
