product_title,product_link,company_name,company_link,is_verified_exporter,city_region,city,address_details,phone_number,phone_number_extension
Black And Blue 3.15ft 8 Wheel Baby Stroller,https://www.indiamart.com/proddetail/8-wheel-baby-stroller-2852721419830.html?pos=1&kwd=folding stroller&tags=A||||8785.791|Price|product|||MDC|rsf:gd-|-qr_nm:gd|res:RC3|com-cf:nl|ptrs:na|ktp:N0|mc:104570|mtp:S|qry_typ:P|lang:en|wc:2|flavl:0|cs:8343|v=4,Falguni Baby Product,https://www.indiamart.com/falguni-baby-product/?pos=1&kwd=folding stroller&tags=A||||8785.791|Price|product|||MDC|rsf:gd-|-qr_nm:gd|res:RC3|com-cf:nl|ptrs:na|ktp:N0|mc:104570|mtp:S|qry_typ:P|lang:en|wc:2|flavl:0|cs:8343|v=4,False,,Ghaziabad,"E - 19, Sector A - 7 P - 1, Tronica City, Ghaziabad - 201102, Dist.Ghaziabad, Uttar Pradesh",8045731457,
"Black Alloy Baby Folding Stroller Pram, Age Group: 1-3 years, Packaging Type: Carton Box",https://www.indiamart.com/proddetail/baby-folding-stroller-pram-2853643799997.html?pos=2&kwd=folding stroller&tags=A||||8206.45|Price|product|||MDC|rsf:gd-|-qr_nm:gd|res:RC3|com-cf:nl|ptrs:na|ktp:N0|mc:104570|mtp:S|qry_typ:P|lang:en|wc:2|flavl:0|cs:8343|v=4,APDD E Commerce India LLP,https://www.indiamart.com/apddecommerceindia/?pos=2&kwd=folding stroller&tags=A||||8206.45|Price|product|||MDC|rsf:gd-|-qr_nm:gd|res:RC3|com-cf:nl|ptrs:na|ktp:N0|mc:104570|mtp:S|qry_typ:P|lang:en|wc:2|flavl:0|cs:8343|v=4,False,Vishnu Nagar,Palghar,"2ndFloor, Block No.301,D-Wing, Jivadani Complex, Mahim Road, National Cooperative Bank, Vishnu Nagar, Vishnu Nagar, Palghar - 401404, Dist.Thane, Maharashtra",8047307898,
Zippie Voyage - Early Intervention Stroller,https://www.indiamart.com/proddetail/zippie-voyage-early-intervention-stroller-22242706362.html?pos=3&kwd=folding stroller&tags=BA||||8663.873||product|||TS|rsf:gd-|-qr_nm:gd|res:RC3|com-cf:nl|ptrs:na|ktp:N0|mc:104570|mtp:S|qry_typ:P|lang:en|wc:2|flavl:0|cs:8343|v=4,KTWO Healthcare Private Limited,https://www.theprosthesis.com/?pos=3&kwd=folding stroller&tags=BA||||8663.873||product|||TS|rsf:gd-|-qr_nm:gd|res:RC3|com-cf:nl|ptrs:na|ktp:N0|mc:104570|mtp:S|qry_typ:P|lang:en|wc:2|flavl:0|cs:8343|v=4,False,Bilekahalli,Bengaluru,"No. 93, 2nd floor, 6th Cross, 2nd Stage, BTM Layout, Bilekahalli, Bengaluru - 560076, Dist.Bengaluru, Karnataka",8048989676,
"Blue Metal & Cloth Pram (Cutie Dlx.) Crome Wheel, Age Group: Newly Born, Packaging Type: Box",https://www.indiamart.com/proddetail/cloth-baby-pram-crome-2850512777233.html?pos=4&kwd=folding stroller&tags=BA||||8752.144|Price|product|||TS|rsf:gd-|-qr_nm:gd|res:RC3|com-cf:nl|ptrs:na|ktp:N0|mc:104570|mtp:S|qry_typ:P|lang:en|wc:2|flavl:0|cs:8343|v=4,Steel Art (A Brand Of Mittal Enterprises),https://www.indiamart.com/mittalentps-delhi/?pos=4&kwd=folding stroller&tags=BA||||8752.144|Price|product|||TS|rsf:gd-|-qr_nm:gd|res:RC3|com-cf:nl|ptrs:na|ktp:N0|mc:104570|mtp:S|qry_typ:P|lang:en|wc:2|flavl:0|cs:8343|v=4,False,Mundka,New Delhi,"Ground Floor, Plot At Khasra No. 66/22, Gali No. 2, Mundka, Mundka, New Delhi - 110041, Dist.Delhi, Delhi",8046044378,
"Mild Steel,Polyester Cotton Baby Dyna Pram Deluxe With Reversible Handle, 6",https://www.indiamart.com/proddetail/baby-dyna-pram-deluxe-with-reversible-handle-21911570433.html?pos=5&kwd=folding stroller&tags=BA||||8211.142|Price|product|||TS|rsf:gd-|-qr_nm:gd|res:RC3|com-cf:nl|ptrs:na|ktp:N0|mc:104570|mtp:S|qry_typ:P|lang:en|wc:2|flavl:0|cs:8343|v=4,New Natraj Industries,https://www.indiamart.com/newnatrajindustries/?pos=5&kwd=folding stroller&tags=BA||||8211.142|Price|product|||TS|rsf:gd-|-qr_nm:gd|res:RC3|com-cf:nl|ptrs:na|ktp:N0|mc:104570|mtp:S|qry_typ:P|lang:en|wc:2|flavl:0|cs:8343|v=4,False,Andheri,Mumbai,"2nd,47 A,VEERA DESAI ROAD,GHANSHYAM INDUSTRIAL ESTATE,ANDHERI WEST, Andheri, Mumbai - 400053, Dist.Mumbai, Maharashtra",8048609903,
"Pink Plastic Baby Folding Stroller, Age Group: 3-12 Months, Packaging Type: Cartoon",https://www.indiamart.com/proddetail/baby-folding-stroller-2854781841297.html?pos=6&kwd=folding stroller&tags=BA||||8211.142|Price|product|||TS|rsf:gd-|-qr_nm:gd|res:RC3|com-cf:nl|ptrs:na|ktp:N0|mc:104570|mtp:S|qry_typ:P|lang:en|wc:2|flavl:0|cs:8343|v=4,P For Panda Baby Products Private Limited,https://www.p4pandababyproducts.com/?pos=6&kwd=folding stroller&tags=BA||||8211.142|Price|product|||TS|rsf:gd-|-qr_nm:gd|res:RC3|com-cf:nl|ptrs:na|ktp:N0|mc:104570|mtp:S|qry_typ:P|lang:en|wc:2|flavl:0|cs:8343|v=4,False,Goregaon West,Mumbai,"904 A Wing,9 Th Floor,Triple S Heights,Jakeria Road, Goregaon West, Mumbai - 400064, Dist.Mumbai, Maharashtra",7942710871,
PATOYS | Asalvo Spain 14221 Double Stroller - Black,https://www.indiamart.com/proddetail/patoys-asalvo-spain-14221-double-stroller-black-2851579840833.html?pos=7&kwd=folding stroller&tags=BA||||8793.739|Price|product|||TS|rsf:gd-|-qr_nm:gd|res:RC3|com-cf:nl|ptrs:na|ktp:N0|mc:104570|mtp:S|qry_typ:P|lang:en|wc:2|flavl:0|cs:8343|v=4,Patoys,https://www.indiamart.com/patoys/?pos=7&kwd=folding stroller&tags=BA||||8793.739|Price|product|||TS|rsf:gd-|-qr_nm:gd|res:RC3|com-cf:nl|ptrs:na|ktp:N0|mc:104570|mtp:S|qry_typ:P|lang:en|wc:2|flavl:0|cs:8343|v=4,False,Krishna Nagar,Mathura,"Ground Floor Shop No - 3 Krishna Nagar Krishna Plaza, Krishna Nagar, Mathura - 281004, Dist.Mathura, Uttar Pradesh",,
Red And Black 2 Side Baby Seaters,https://www.indiamart.com/proddetail/2-side-kids-stroller-2854745876912.html?pos=8&kwd=folding stroller&tags=BB||||8230.883|Price|product|||MDC|rsf:gd-|-qr_nm:gd|res:RC3|com-cf:nl|ptrs:na|ktp:N0|mc:104570|mtp:S|qry_typ:P|lang:en|wc:2|flavl:0|cs:8343|v=4,Shree Shree Khilona,https://www.indiamart.com/shreeshree-khilona/?pos=8&kwd=folding stroller&tags=BB||||8230.883|Price|product|||MDC|rsf:gd-|-qr_nm:gd|res:RC3|com-cf:nl|ptrs:na|ktp:N0|mc:104570|mtp:S|qry_typ:P|lang:en|wc:2|flavl:0|cs:8343|v=4,False,Turava Compound Heera Bagh,Surat,"Lower Ground Floor, Shop No-L/9 To L/13, Sarthi CO-OP Housing Society LTD, Varachha Main Road, Turava Compound Heera Bagh, Surat - 395006, Dist.Surat, Gujarat",7949322132,
Polyester Baby Stroller,https://www.indiamart.com/proddetail/baby-stroller-20830363362.html?pos=9&kwd=folding stroller&tags=BA||||8752.144|Price|product|||TS|rsf:gd-|-qr_nm:gd|res:RC3|com-cf:nl|ptrs:na|ktp:N0|mc:104570|mtp:S|qry_typ:P|lang:en|wc:2|flavl:0|cs:8343|v=4,Gupta Plastic Works,https://www.indiamart.com/guptaplasticworks/?pos=9&kwd=folding stroller&tags=BA||||8752.144|Price|product|||TS|rsf:gd-|-qr_nm:gd|res:RC3|com-cf:nl|ptrs:na|ktp:N0|mc:104570|mtp:S|qry_typ:P|lang:en|wc:2|flavl:0|cs:8343|v=4,False,Azadpur,New Delhi,"A-80/1, G.T. Karnal Road, Industrial Area, Azadpur, New Delhi - 110033, Dist.Delhi, Delhi",8046032300,
"Multicolor 2.5 Feet Baby Stroller Pram, 8 Wheel, Packaging Type: Box Packing",https://www.indiamart.com/proddetail/baby-stroller-pram-2854219439473.html?pos=10&kwd=folding stroller&tags=BA||||8752.144|Price|product|||TS|rsf:gd-|-qr_nm:gd|res:RC3|com-cf:nl|ptrs:na|ktp:N0|mc:104570|mtp:S|qry_typ:P|lang:en|wc:2|flavl:0|cs:8343|v=4,Indial Premium Products,https://www.indiamart.com/indial-premium-products/?pos=10&kwd=folding stroller&tags=BA||||8752.144|Price|product|||TS|rsf:gd-|-qr_nm:gd|res:RC3|com-cf:nl|ptrs:na|ktp:N0|mc:104570|mtp:S|qry_typ:P|lang:en|wc:2|flavl:0|cs:8343|v=4,False,,New Delhi,"68, K Block, Jahangirpuri North West Delhi, New Delhi - 110033, Dist.Delhi, Delhi",8045732973,
"2 Feet Plastic Folding Baby Walker, 6 Wheel",https://www.indiamart.com/proddetail/folding-baby-walker-2852374816088.html?pos=11&kwd=folding stroller&tags=BA||||8752.144|Price|product|||TS|rsf:gd-|-qr_nm:gd|res:RC3|com-cf:nl|ptrs:na|ktp:N0|mc:104570|mtp:S|qry_typ:P|lang:en|wc:2|flavl:0|cs:8343|v=4,Rocky India,https://www.indiamart.com/rocky-india/?pos=11&kwd=folding stroller&tags=BA||||8752.144|Price|product|||TS|rsf:gd-|-qr_nm:gd|res:RC3|com-cf:nl|ptrs:na|ktp:N0|mc:104570|mtp:S|qry_typ:P|lang:en|wc:2|flavl:0|cs:8343|v=4,False,Brahampuri,New Delhi,"Ground Floor, I-36/10, Gali No. 10, Brahampuri, Brahampuri, New Delhi - 110053, Dist.Delhi, Delhi",7942708012,
"B.O.B Gear Revolution Flex 3.0 Jogging Stroller, Ultra Smooth Ride Graphite Black",https://www.indiamart.com/proddetail/b-o-b-gear-revolution-flex-3-0-jogging-stroller-ultra-smooth-ride-graphite-black-2853666123048.html?pos=12&kwd=folding stroller&tags=BA||||8752.144|Price|product|||TS|rsf:gd-|-qr_nm:gd|res:RC3|com-cf:nl|ptrs:na|ktp:N0|mc:104570|mtp:S|qry_typ:P|lang:en|wc:2|flavl:0|cs:8343|v=4,Ayansh Trading Private Limited,https://www.kartzons.in/?pos=12&kwd=folding stroller&tags=BA||||8752.144|Price|product|||TS|rsf:gd-|-qr_nm:gd|res:RC3|com-cf:nl|ptrs:na|ktp:N0|mc:104570|mtp:S|qry_typ:P|lang:en|wc:2|flavl:0|cs:8343|v=4,False,96979-88399 Azad Nagar,New Delhi,"72/1, Gali No 9, West Azad Nagar, East Delhi, 96979-88399 Azad Nagar, New Delhi - 110051, Dist.Delhi, Delhi",8047845326,
Baby Stroller DLX,https://www.indiamart.com/proddetail/baby-stroller-dlx-13456451073.html?pos=13&kwd=folding stroller&tags=BA||||8211.142|Price|product|||MDC|rsf:gd-|-qr_nm:gd|res:RC3|com-cf:nl|ptrs:na|ktp:N0|mc:104570|mtp:S|qry_typ:P|lang:en|wc:2|flavl:0|cs:8343|v=4,Sara Traders,https://www.indiamart.com/saratradersmumbai/?pos=13&kwd=folding stroller&tags=BA||||8211.142|Price|product|||MDC|rsf:gd-|-qr_nm:gd|res:RC3|com-cf:nl|ptrs:na|ktp:N0|mc:104570|mtp:S|qry_typ:P|lang:en|wc:2|flavl:0|cs:8343|v=4,False,Princess Dock,Mumbai,"Shop No. 2, Dastagir Building, 5/7, Nishanpada Cross Road Dongri, Princess Dock, Mumbai - 400009, Dist.Mumbai, Maharashtra",8048959409,
"Plastic Folding Stroller, Age Group: 1-2 Years",,Mayank Toys,https://www.indiamart.com/mayank-toys/?pos=14&kwd=folding stroller&tags=BA||||8752.144||product|||NA|rsf:gd-|-qr_nm:gd|res:RC3|com-cf:nl|ptrs:na|ktp:N0|mc:104570|mtp:S|qry_typ:P|lang:en|wc:2|flavl:0|cs:8343|v=4,False,North East,New Delhi,"Ground Floor, B 382, Street No. 5, Prem Vihar, Karawal Nagar, North East, New Delhi - 110094, Dist.Delhi, Delhi",7949226824,
Red Baby Folding Stroller,https://www.indiamart.com/proddetail/baby-folding-stroller-14080699362.html?pos=15&kwd=folding stroller&tags=BB||||8752.144|Price|product|||NA|rsf:gd-|-qr_nm:gd|res:RC3|com-cf:nl|ptrs:na|ktp:N0|mc:104570|mtp:S|qry_typ:P|lang:en|wc:2|cs:7580|v=4,Rajbir Trading Company,https://www.indiamart.com/rajbirtradingcompany/?pos=15&kwd=folding stroller&tags=BB||||8752.144|Price|product|||NA|rsf:gd-|-qr_nm:gd|res:RC3|com-cf:nl|ptrs:na|ktp:N0|mc:104570|mtp:S|qry_typ:P|lang:en|wc:2|cs:7580|v=4,False,Vishnu Garden,New Delhi,"Nw- 26 B, Vishnu Garden, Nikat Cement, Godam Ke Pass, Vishnu Garden, New Delhi - 110018, Dist.Delhi, Delhi",8048981497,
Folding Stroller and waker,,Venkatesh Toys gift and cycle,https://www.indiamart.com/venkatesh-toys-gift-and-cycle/?pos=16&kwd=folding stroller&tags=BB||||8620.856|Price|product|||NA|rsf:gd-|-qr_nm:gd|res:RC3|com-cf:nl|ptrs:na|ktp:N0|mc:104570|mtp:S|qry_typ:P|lang:en|wc:2|cs:7580|v=4,False,Basmat Road,Parbhani,"Shivaji college complex,shop No 23 Vasmat Road, Parbhani, Basmat Road, Parbhani - 431401, Dist.Parbhani, Maharashtra",8048249780,5944
Stroller Walker,https://www.indiamart.com/proddetail/stroller-walker-12450363662.html?pos=17&kwd=folding stroller&tags=BB||||8954.051|Price|product|||NA|rsf:gd-|-qr_nm:gd|res:RC3|com-cf:nl|ptrs:na|ktp:N0|mc:104570|mtp:S|qry_typ:P|lang:en|wc:2|cs:7580|v=4,Kankaria International,https://www.indiamart.com/kankariainternational/?pos=17&kwd=folding stroller&tags=BB||||8954.051|Price|product|||NA|rsf:gd-|-qr_nm:gd|res:RC3|com-cf:nl|ptrs:na|ktp:N0|mc:104570|mtp:S|qry_typ:P|lang:en|wc:2|cs:7580|v=4,False,Krishnammal Road,Chennai,"Shop No. 148, Krishnammal Road, Chennai - 600034, Dist.Chennai, Tamil Nadu",8043802944,
"5 Ft MS Pipes Baby Stroller, 8, G7",https://www.indiamart.com/proddetail/baby-stroller-2850473709697.html?pos=18&kwd=folding stroller&tags=BB||||8752.144|Price|product|||NA|rsf:gd-|-qr_nm:gd|res:RC3|com-cf:nl|ptrs:na|ktp:N0|mc:104570|mtp:S|qry_typ:P|lang:en|wc:2|cs:7580|v=4,Nishad Cycle Industries,https://www.indiamart.com/nishadcycleindustries/?pos=18&kwd=folding stroller&tags=BB||||8752.144|Price|product|||NA|rsf:gd-|-qr_nm:gd|res:RC3|com-cf:nl|ptrs:na|ktp:N0|mc:104570|mtp:S|qry_typ:P|lang:en|wc:2|cs:7580|v=4,False,,New Delhi,"H.No.-166, PKT-C, Sec-4, DSIDC, Bawana, New Delhi - 110039, Dist.Delhi, Delhi",7942821632,
"MS And Rexine QX-205 Sun Shine Stroller, 6 Wheel",https://www.indiamart.com/proddetail/qx-205-sun-shine-stroller-22647516333.html?pos=19&kwd=folding stroller&tags=BB||||8752.144|Price|product|||NA|rsf:gd-|-qr_nm:gd|res:RC3|com-cf:nl|ptrs:na|ktp:N0|mc:104570|mtp:S|qry_typ:P|lang:en|wc:2|cs:7580|v=4,Cyllid Solution Hub Private Limited,https://www.indiamart.com/cyllidsolutionhub/?pos=19&kwd=folding stroller&tags=BB||||8752.144|Price|product|||NA|rsf:gd-|-qr_nm:gd|res:RC3|com-cf:nl|ptrs:na|ktp:N0|mc:104570|mtp:S|qry_typ:P|lang:en|wc:2|cs:7580|v=4,False,,New Delhi,"SECOND FLOOR, HOUSE NO-2B, BLOCK D, ASHOKA ROAD,, ADARSH NAGAR, North West Delhi,, New Delhi - 110033, Dist.Delhi, Delhi",8048980570,
"1-3 Feet Eva Foam,Steel Baby Folding Stroller, 4 Wheel",https://www.indiamart.com/proddetail/baby-folding-stroller-21882208030.html?pos=20&kwd=folding stroller&tags=BA||||8752.144|Price|product|||NA|rsf:gd-|-qr_nm:gd|res:RC3|com-cf:nl|ptrs:na|ktp:N0|mc:104570|mtp:S|qry_typ:P|lang:en|wc:2|cs:7580|v=4,Tradex Pro Private Limited,https://www.indiamart.com/tradexpro/?pos=20&kwd=folding stroller&tags=BA||||8752.144|Price|product|||NA|rsf:gd-|-qr_nm:gd|res:RC3|com-cf:nl|ptrs:na|ktp:N0|mc:104570|mtp:S|qry_typ:P|lang:en|wc:2|cs:7580|v=4,False,Adarsh Nagar,New Delhi,"G Block Kh-8/20 Swaroop Nagar, Adarsh Nagar, New Delhi - 110042, Dist.Delhi, Delhi",7942559159,
Blue Printed Umbrella Fold Light Weight Stroller Zebra Print,https://www.indiamart.com/proddetail/umbrella-fold-light-weight-stroller-zebra-print-21911813862.html?pos=21&kwd=folding stroller&tags=BA||||8228.275|Price|product|||NA|rsf:gd-|-qr_nm:gd|res:RC3|com-cf:nl|ptrs:na|ktp:N0|mc:104570|mtp:S|qry_typ:P|lang:en|wc:2|cs:7580|v=4,Eclat Globalbiz LLP,https://www.indiamart.com/eclatglobalbiz/?pos=21&kwd=folding stroller&tags=BA||||8228.275|Price|product|||NA|rsf:gd-|-qr_nm:gd|res:RC3|com-cf:nl|ptrs:na|ktp:N0|mc:104570|mtp:S|qry_typ:P|lang:en|wc:2|cs:7580|v=4,False,,Ahmedabad,"Shilp Zaveri, Ahmedabad - 380004, Dist.Ahmedabad, Gujarat",8047627244,
"Multicolor Stainless Steel Folding Stroller, Age Group: 1-5, Packaging Type: Box",https://www.indiamart.com/proddetail/folding-stroller-2854077259462.html?pos=22&kwd=folding stroller&tags=CC||||8752.144|Price|product|||MDC|rsf:gd-|-qr_nm:gd|res:RC3|com-cf:nl|ptrs:na|ktp:N0|mc:104570|mtp:S|qry_typ:P|lang:en|wc:2|cs:7580|v=4,Swastik Toys,https://www.indiamart.com/swastik-toys-delhi/?pos=22&kwd=folding stroller&tags=CC||||8752.144|Price|product|||MDC|rsf:gd-|-qr_nm:gd|res:RC3|com-cf:nl|ptrs:na|ktp:N0|mc:104570|mtp:S|qry_typ:P|lang:en|wc:2|cs:7580|v=4,False,Tihar,New Delhi,"WZ 125, Mahakavi Goswami Tulsidas Marg, Tihar, West Delhi, Tihar, New Delhi - 110018, Dist.Delhi, Delhi",8044015186,
R for Rabbit Pocket Stroller Lite Baby Stroller,https://www.indiamart.com/proddetail/r-for-rabbit-pocket-stroller-lite-baby-stroller-2852509824091.html?pos=23&kwd=folding stroller&tags=CC||||9140.514|Price|product|||TS|rsf:gd-|-qr_nm:gd|res:RC3|com-cf:nl|ptrs:na|ktp:N0|mc:104570|mtp:S|qry_typ:P|lang:en|wc:2|cs:7580|v=4,Anjaneya Enterprises,https://www.ridenslide.in/?pos=23&kwd=folding stroller&tags=CC||||9140.514|Price|product|||TS|rsf:gd-|-qr_nm:gd|res:RC3|com-cf:nl|ptrs:na|ktp:N0|mc:104570|mtp:S|qry_typ:P|lang:en|wc:2|cs:7580|v=4,False,Pandri,Raipur,"SHOP NO-10,SHOPPERS PARADISE,BEHIND CITY CENTER MALL,PANDRI,RAIPUR, Pandri, Raipur - 492001, Chhattisgarh",8046045761,
"Plastic Black Baby Folding Stroller, Age Group: 3-12 Months",https://www.indiamart.com/proddetail/black-baby-folding-stroller-2853400178997.html?pos=24&kwd=folding stroller&tags=CC||||9618.383|Price|product|||MDC|rsf:gd-|-qr_nm:gd|res:RC3|com-cf:nl|ptrs:na|ktp:N0|mc:104570|mtp:S|qry_typ:P|lang:en|wc:2|cs:7580|v=4,Texco,https://www.indiamart.com/texco/?pos=24&kwd=folding stroller&tags=CC||||9618.383|Price|product|||MDC|rsf:gd-|-qr_nm:gd|res:RC3|com-cf:nl|ptrs:na|ktp:N0|mc:104570|mtp:S|qry_typ:P|lang:en|wc:2|cs:7580|v=4,False,Bistupur,Jamshedpur,"Shop No. 2, Main Road, Bistupur, Bistupur, Jamshedpur - 831001, Dist.East Singhbhum, Jharkhand",7949092933,
"Standard Children Baby Stroller, 4",https://www.indiamart.com/proddetail/children-baby-stroller-26436306973.html?pos=25&kwd=folding stroller&tags=CC||||8307.81|Price|product|||TS|rsf:gd-|-qr_nm:gd|res:RC3|com-cf:nl|ptrs:na|ktp:N0|mc:104570|mtp:S|qry_typ:P|lang:en|wc:2|cs:7580|v=4,Porwal Cycle And Motor Company,https://www.indiamart.com/porwal-cycle-motor/?pos=25&kwd=folding stroller&tags=CC||||8307.81|Price|product|||TS|rsf:gd-|-qr_nm:gd|res:RC3|com-cf:nl|ptrs:na|ktp:N0|mc:104570|mtp:S|qry_typ:P|lang:en|wc:2|cs:7580|v=4,False,Budhwar Peth,Pune,"185/2 B, Ground Floor, Porwal Cycle And Motor Company, Laxmi Road, Budhwar Peth, Budhwar Peth, Pune - 411002, Dist.Pune, Maharashtra",8043811727,
"Joie Muze lx One Hand fold Stroller with Flat Reclining seat, 4",https://www.indiamart.com/proddetail/joie-muze-lx-one-hand-fold-stroller-with-flat-reclining-seat-2851664890988.html?pos=26&kwd=folding stroller&tags=CC||||8752.144|Price|product|||TS|rsf:gd-|-qr_nm:gd|res:RC3|com-cf:nl|ptrs:na|ktp:N0|mc:104570|mtp:S|qry_typ:P|lang:en|wc:2|cs:7580|v=4,Luxtronic Technologies,https://www.indiamart.com/luxtronic-technologies/?pos=26&kwd=folding stroller&tags=CC||||8752.144|Price|product|||TS|rsf:gd-|-qr_nm:gd|res:RC3|com-cf:nl|ptrs:na|ktp:N0|mc:104570|mtp:S|qry_typ:P|lang:en|wc:2|cs:7580|v=4,False,Burari,New Delhi,"Khasra No.19/1, Shastri Park Burari,, Burari, New Delhi - 110084, Dist.Delhi, Delhi",7942835637,
Baby Stroller Fold for Newborn Baby Reversible Handle Bracker Easy Carry Travel,https://www.indiamart.com/proddetail/baby-stroller-fold-for-newborn-baby-reversible-handle-bracker-easy-carry-travel-2854759076612.html?pos=27&kwd=folding stroller&tags=||||8230.883|Price|product|||MDC|rsf:gd-|-qr_nm:gd|res:RC3|com-cf:nl|ptrs:na|ktp:N0|mc:104570|mtp:S|qry_typ:P|lang:en|wc:2|cs:7580|v=4,Shiv Marketing,https://www.indiamart.com/shivmarketing/?pos=27&kwd=folding stroller&tags=||||8230.883|Price|product|||MDC|rsf:gd-|-qr_nm:gd|res:RC3|com-cf:nl|ptrs:na|ktp:N0|mc:104570|mtp:S|qry_typ:P|lang:en|wc:2|cs:7580|v=4,False,Katargam,Surat,"2nd Floor Blog-F, Flat 201, Shivam Avenue, Singanpore Dabholi Road, Katargam,, Katargam, Surat - 395004, Dist.Surat, Gujarat",7949093095,
Pram Stroller,https://www.indiamart.com/proddetail/pram-stroller-2062212912.html?pos=28&kwd=folding stroller&tags=CC||||8752.144|Price|product|||MDC|rsf:gd-|-qr_nm:gd|res:RC3|com-cf:nl|ptrs:na|ktp:N0|mc:104570|mtp:S|qry_typ:P|lang:en|wc:2|cs:7580|v=4,Bajaj Bicycle Company,https://www.indiamart.com/bajajbicycle/?pos=28&kwd=folding stroller&tags=CC||||8752.144|Price|product|||MDC|rsf:gd-|-qr_nm:gd|res:RC3|com-cf:nl|ptrs:na|ktp:N0|mc:104570|mtp:S|qry_typ:P|lang:en|wc:2|cs:7580|v=4,False,Dilshad Garden,New Delhi,"O-35-A-1, Dilshad Garden, Dilshad Garden, New Delhi - 110095, Dist.Delhi, Delhi",8048600091,
"Costway Baby Stroller, Size/Dimension: 60 x 47 x 98 cm",https://www.indiamart.com/proddetail/costway-baby-stroller-20915475191.html?pos=29&kwd=folding stroller&tags=CC||||8500.97||product|||MDC|rsf:gd-|-qr_nm:gd|res:RC3|com-cf:nl|ptrs:na|ktp:N0|mc:104570|mtp:S|qry_typ:P|lang:en|wc:2|cs:7580|v=4,Central Surgicals,https://www.indiamart.com/centralsurgicals/?pos=29&kwd=folding stroller&tags=CC||||8500.97||product|||MDC|rsf:gd-|-qr_nm:gd|res:RC3|com-cf:nl|ptrs:na|ktp:N0|mc:104570|mtp:S|qry_typ:P|lang:en|wc:2|cs:7580|v=4,False,Patturaikkal,Thrissur,"Silver Building, Aswani Hospital Via, Patturaikkal. P.o Thiruvambadi, Patturaikkal, Thrissur - 680022, Dist.Thrissur, Kerala",8046056678,
Fancy Baby Walker,,Mayur Steel Furniture,https://www.stylemayur.com/?pos=30&kwd=folding stroller&tags=CC||||8752.144||product|||TS|rsf:gd-|-qr_nm:gd|res:RC3|com-cf:nl|ptrs:na|ktp:N0|mc:104570|mtp:S|qry_typ:P|lang:en|wc:2|cs:7580|v=4,False,Multani Dhanda,New Delhi,"9525 Street No. 13 Multani Dhanda Paharganj since 1989, Multani Dhanda, New Delhi - 110055, Dist.Delhi, Delhi",8047635904,
"Joie Air Twin Stroller, 4",https://www.indiamart.com/proddetail/joie-air-twin-stroller-26745603762.html?pos=31&kwd=folding stroller&tags=||||8211.142|Price|product|||TS|rsf:gd-|-qr_nm:gd|res:RC3|com-cf:nl|ptrs:na|ktp:N0|mc:104570|mtp:S|qry_typ:P|lang:en|wc:2|cs:7580|v=4,Mini World,https://www.indiamart.com/miniworld/?pos=31&kwd=folding stroller&tags=||||8211.142|Price|product|||TS|rsf:gd-|-qr_nm:gd|res:RC3|com-cf:nl|ptrs:na|ktp:N0|mc:104570|mtp:S|qry_typ:P|lang:en|wc:2|cs:7580|v=4,False,Goregaon West,Mumbai,"SHOP No 2,16, Ground Floor, Unnath Nagar 3, M.G. Road, Goregaon MG Road, Goregaon West, Mumbai - 400062, Dist.Mumbai, Maharashtra",8046034221,
3.5 Feet 4 Wheel Mild Steel Baby Pram Stroller,https://www.indiamart.com/proddetail/4-wheel-mild-steel-baby-pram-stroller-2850295461362.html?pos=32&kwd=folding stroller&tags=||||8752.144|Price|product|||TS|rsf:gd-|-qr_nm:gd|res:RC3|com-cf:nl|ptrs:na|ktp:N0|mc:104570|mtp:S|qry_typ:P|lang:en|wc:2|cs:7580|v=4,Neelam Enterprises,https://www.indiamart.com/neelam-enterprisesdelhi/?pos=32&kwd=folding stroller&tags=||||8752.144|Price|product|||TS|rsf:gd-|-qr_nm:gd|res:RC3|com-cf:nl|ptrs:na|ktp:N0|mc:104570|mtp:S|qry_typ:P|lang:en|wc:2|cs:7580|v=4,False,North East,New Delhi,"Gf,Pradhan Parshadi Lal Market,Main Tukmirpur Road,Karawal Nagar, North East, New Delhi - 110094, Dist.Delhi, Delhi",7942814861,
Joie Stroller,https://www.indiamart.com/proddetail/joie-stroller-2852488076891.html?pos=33&kwd=folding stroller&tags=||||8211.142|Price|product|||TS|rsf:gd-|-qr_nm:gd|res:RC3|com-cf:nl|ptrs:na|ktp:N0|mc:104570|mtp:S|qry_typ:P|lang:en|wc:2|cs:7580|v=4,Mabel The Fashion Hub,https://www.mabelbabies.com/?pos=33&kwd=folding stroller&tags=||||8211.142|Price|product|||TS|rsf:gd-|-qr_nm:gd|res:RC3|com-cf:nl|ptrs:na|ktp:N0|mc:104570|mtp:S|qry_typ:P|lang:en|wc:2|cs:7580|v=4,False,Andheri East,Mumbai,"Shop No 1, Teresa Triumph Chs, J B Nagar, Andheri East, Mumbai - 400059, Dist.Mumbai, Maharashtra",8047635478,
"2 Feet Metal Kids Stroller & Prams, 8",https://www.indiamart.com/proddetail/kids-stroller-prams-23352181030.html?pos=34&kwd=folding stroller&tags=||||8752.144|Price|product|||TS|rsf:gd-|-qr_nm:gd|res:RC3|com-cf:nl|ptrs:na|ktp:N0|mc:104570|mtp:S|qry_typ:P|lang:en|wc:2|cs:7580|v=4,Ashish Trading Co.,https://www.indiamart.com/ashish-trading/?pos=34&kwd=folding stroller&tags=||||8752.144|Price|product|||TS|rsf:gd-|-qr_nm:gd|res:RC3|com-cf:nl|ptrs:na|ktp:N0|mc:104570|mtp:S|qry_typ:P|lang:en|wc:2|cs:7580|v=4,False,Shalimar Bagh,New Delhi,"BC- 67 A, East Shalimar Bagh, Kela Godown Road Shalimar, Shalimar Bagh, New Delhi - 110088, Dist.Delhi, Delhi",8048979347,
LUVLAP TUTTI FRUTTI STROLLER/BUGGY 18274 COMPACT AND TRAVEL FRIENDLY,https://www.indiamart.com/proddetail/luvlap-tutti-frutti-stroller-buggy-18274-compact-and-travel-friendly-2851553140912.html?pos=35&kwd=folding stroller&tags=||||8614.241|Price|product|||MDC|rsf:gd-|-qr_nm:gd|res:RC3|com-cf:nl|ptrs:na|ktp:N0|mc:104570|mtp:S|qry_typ:P|lang:en|wc:2|cs:7580|v=4,M.M. Toy World,https://www.indiamart.com/mmtoyworld/?pos=35&kwd=folding stroller&tags=||||8614.241|Price|product|||MDC|rsf:gd-|-qr_nm:gd|res:RC3|com-cf:nl|ptrs:na|ktp:N0|mc:104570|mtp:S|qry_typ:P|lang:en|wc:2|cs:7580|v=4,False,Achli Gate,Batala,"M.M. Toys World, Bedian Gali, Khujari Gate, Gurdaspur, Achli Gate, Batala - 143505, Dist.Gurdaspur, Punjab",,
"Black Baybee Metal Stroller Travel System, Age Group: 3-12 Months",https://www.indiamart.com/proddetail/baybee-metal-stroller-travel-system-2853491632648.html?pos=36&kwd=folding stroller&tags=||||8954.051|Price|product|||MDC|rsf:gd-|-qr_nm:gd|res:RC3|com-cf:nl|ptrs:na|ktp:N0|mc:104570|mtp:S|qry_typ:P|lang:en|wc:2|cs:7580|v=4,Mom's Fashion World,https://www.indiamart.com/moms-fashion-world/?pos=36&kwd=folding stroller&tags=||||8954.051|Price|product|||MDC|rsf:gd-|-qr_nm:gd|res:RC3|com-cf:nl|ptrs:na|ktp:N0|mc:104570|mtp:S|qry_typ:P|lang:en|wc:2|cs:7580|v=4,False,Adyar,Chennai,"10/2 ,12th Street, Bakthavatchallam Nagar,Nanganallur, Adyar, Chennai - 600061, Dist.Chennai, Tamil Nadu",7949091874,
Assorted Baby Carrier Newborn to Toddler Wrap Carrier,https://www.indiamart.com/proddetail/baby-carrier-newborn-to-toddler-wrap-carrier-2851765642412.html?pos=37&kwd=folding stroller&tags=||||8211.142|Price|product|||TS|rsf:gd-|-qr_nm:gd|res:RC3|com-cf:nl|ptrs:na|ktp:N0|mc:104570|mtp:S|qry_typ:P|lang:en|wc:2|cs:7580|v=4,Homenity,https://www.homenity.in/?pos=37&kwd=folding stroller&tags=||||8211.142|Price|product|||TS|rsf:gd-|-qr_nm:gd|res:RC3|com-cf:nl|ptrs:na|ktp:N0|mc:104570|mtp:S|qry_typ:P|lang:en|wc:2|cs:7580|v=4,False,Masjid Bandar,Mumbai,"203, 2nd Floor, Plot-13a Mehajabeen Arcade, Chakala Cross Lane, Mumbai, Mumbai, Maharashtra, Masjid Bandar, Mumbai - 400003, Dist.Mumbai, Maharashtra",8047673711,
"50 Plastic Baby Walkers Toys, 6, R.p",https://www.indiamart.com/proddetail/baby-walkers-toys-25005792273.html?pos=38&kwd=folding stroller&tags=||||8752.144|Price|product|||TS|rsf:gd-|-qr_nm:gd|res:RC3|com-cf:nl|ptrs:na|ktp:N0|mc:104570|mtp:S|qry_typ:P|lang:en|wc:2|cs:7580|v=4,Raja Plastic,https://www.rajaplastic.co.in/?pos=38&kwd=folding stroller&tags=||||8752.144|Price|product|||TS|rsf:gd-|-qr_nm:gd|res:RC3|com-cf:nl|ptrs:na|ktp:N0|mc:104570|mtp:S|qry_typ:P|lang:en|wc:2|cs:7580|v=4,False,Pahari Dhiraj,New Delhi,"1444/45 Main Gali Fayaz Ganj,Bahadurgarh Road, Pahari Dhiraj, New Delhi - 110006, Dist.Delhi, Delhi",8048956783,
Chicco London Stroller,,Maruti Kids Zone,https://www.indiamart.com/maruti-kids-zone/?pos=39&kwd=folding stroller&tags=CA||||9839.57||product|||NA|rsf:gd-|-qr_nm:gd|res:RC3|com-cf:nl|ptrs:na|ktp:N0|mc:104570|mtp:S|qry_typ:P|lang:en|wc:2|cs:7580|v=4,False,Muktaram Babu Street,Kolkata,"No. 109, 1st Floor, Muktaram Babu Street, Kolkata - 700007, Dist.Kolkata, West Bengal",7949342709,
"4 Feet PVC And SS Baby Folding Stroller, 2",https://www.indiamart.com/proddetail/baby-folding-stroller-2851767589230.html?pos=40&kwd=folding stroller&tags=CC||||8661.854|Price|product|||NA|rsf:gd-|-qr_nm:gd|res:RC3|com-cf:nl|ptrs:na|ktp:N0|mc:104570|mtp:S|qry_typ:P|lang:en|wc:2|cs:7580|v=4,Balwinder Singh & Sons,https://www.indiamart.com/rs-medical-agency-sansarpur-terrace-growth-centre-industrial-area/?pos=40&kwd=folding stroller&tags=CC||||8661.854|Price|product|||NA|rsf:gd-|-qr_nm:gd|res:RC3|com-cf:nl|ptrs:na|ktp:N0|mc:104570|mtp:S|qry_typ:P|lang:en|wc:2|cs:7580|v=4,False,,Ludhiana,"House No. 1188 Karta Ram Street Vikram Sood, Ludhiana - 141008, Dist.Ludhiana, Punjab",8069196745,495
"2feet SS Red Folding Stroller, 8",https://www.indiamart.com/proddetail/red-folding-stroller-2851077700030.html?pos=41&kwd=folding stroller&tags=CC||||9140.514|Price|product|||NA|rsf:gd-|-qr_nm:gd|res:RC3|com-cf:nl|ptrs:na|ktp:N0|mc:104570|mtp:S|qry_typ:P|lang:en|wc:2|cs:7580|v=4,M S Traders,https://www.indiamart.com/mstraders-raipur/?pos=41&kwd=folding stroller&tags=CC||||9140.514|Price|product|||NA|rsf:gd-|-qr_nm:gd|res:RC3|com-cf:nl|ptrs:na|ktp:N0|mc:104570|mtp:S|qry_typ:P|lang:en|wc:2|cs:7580|v=4,False,,Raipur,"Parwani Building, Jairam Complex M G Road, Sharda Chowk, Raipur - 492001, Chhattisgarh",7942834181,
"Mild Steel And Plastic Polyester Baby Folding Stroller, 4",https://www.indiamart.com/proddetail/polyester-baby-folding-stroller-2851867634648.html?pos=42&kwd=folding stroller&tags=CC||||9110.092|Price|product|||NA|rsf:gd-|-qr_nm:gd|res:RC3|com-cf:nl|ptrs:na|ktp:N0|mc:104570|mtp:S|qry_typ:P|lang:en|wc:2|cs:7580|v=4,Bombay Kiddies,https://www.indiamart.com/bombay-kiddies/?pos=42&kwd=folding stroller&tags=CC||||9110.092|Price|product|||NA|rsf:gd-|-qr_nm:gd|res:RC3|com-cf:nl|ptrs:na|ktp:N0|mc:104570|mtp:S|qry_typ:P|lang:en|wc:2|cs:7580|v=4,False,Aminabad,Lucknow,"Shop No. 39, Mumtaz Market, Bagh Gunge Nawab, Aminabad, Aminabad, Lucknow - 226018, Dist.Lucknow, Uttar Pradesh",8047828824,
Stroller P660,https://www.indiamart.com/proddetail/stroller-p660-9164411097.html?pos=43&kwd=folding stroller&tags=CC||||8211.142||product|||NA|rsf:gd-|-qr_nm:gd|res:RC3|com-cf:nl|ptrs:na|ktp:N0|mc:104570|mtp:S|qry_typ:P|lang:en|wc:2|cs:7580|v=4,Mahesh & Sons HUF,https://www.indiamart.com/mahesh-and-sons-huf/?pos=43&kwd=folding stroller&tags=CC||||8211.142||product|||NA|rsf:gd-|-qr_nm:gd|res:RC3|com-cf:nl|ptrs:na|ktp:N0|mc:104570|mtp:S|qry_typ:P|lang:en|wc:2|cs:7580|v=4,False,Santacruz East,Mumbai,"B 3/2, BK Chhabra Estate, Santacruz East, Mumbai - 400055, Dist.Mumbai, Maharashtra",8047668053,
Sunbaby Annabelle Buggy Cum Stroller,https://www.indiamart.com/proddetail/sunbaby-annabelle-buggy-cum-stroller-16034261448.html?pos=44&kwd=folding stroller&tags=CC||||8752.144|Price|product|||NA|rsf:gd-|-qr_nm:gd|res:RC3|com-cf:nl|ptrs:na|ktp:N0|mc:104570|mtp:S|qry_typ:P|lang:en|wc:2|cs:7580|v=4,I Tigar Shop Dot Com,https://www.indiamart.com/i-tigar-shopcom/?pos=44&kwd=folding stroller&tags=CC||||8752.144|Price|product|||NA|rsf:gd-|-qr_nm:gd|res:RC3|com-cf:nl|ptrs:na|ktp:N0|mc:104570|mtp:S|qry_typ:P|lang:en|wc:2|cs:7580|v=4,False,,New Delhi,"Near Indira Gandhi Gandhi International Airport, New Delhi - 110037, Dist.Delhi, Delhi",8048372371,331
DOTMOM Uber Flyer Stroller (Black),https://www.indiamart.com/proddetail/dotmom-uber-flyer-stroller-black-2852308062773.html?pos=45&kwd=folding stroller&tags=CC||||8741.812|Price|product|||NA|rsf:gd-|-qr_nm:gd|res:RC3|com-cf:nl|ptrs:na|ktp:N0|mc:104570|mtp:S|qry_typ:P|lang:en|wc:2|cs:7580|v=4,Keta Anjani Impex,https://www.indiamart.com/ketaanjaniimpex/?pos=45&kwd=folding stroller&tags=CC||||8741.812|Price|product|||NA|rsf:gd-|-qr_nm:gd|res:RC3|com-cf:nl|ptrs:na|ktp:N0|mc:104570|mtp:S|qry_typ:P|lang:en|wc:2|cs:7580|v=4,False,Sector 90,Gurugram,"SF-221, 2nd Floor, IT Complex JMD Megapolis, Village Tikri, Sohna Road, Sector 90, Gurugram - 122001, Dist.Gurgaon, Haryana",,
"OUTDOOR AIR WALKER / AIR STROLLER, PRSA005",https://www.indiamart.com/proddetail/outdoor-air-walker-air-stroller-25786627855.html?pos=46&kwd=folding stroller&tags=CC||||8641.487|Price|product|||NA|rsf:gd-|-qr_nm:gd|res:RC3|com-cf:nl|ptrs:na|ktp:N0|mc:104570|mtp:S|qry_typ:P|lang:en|wc:2|cs:7580|v=4,Param Sports And Fitness,https://www.indiamart.com/paramengineers-jalandhar/?pos=46&kwd=folding stroller&tags=CC||||8641.487|Price|product|||NA|rsf:gd-|-qr_nm:gd|res:RC3|com-cf:nl|ptrs:na|ktp:N0|mc:104570|mtp:S|qry_typ:P|lang:en|wc:2|cs:7580|v=4,False,Basti Danishmandan,Jalandhar,"224 224 Basti Danishmanda Shivaji Nagar Jalandhar, Basti Danishmandan, Jalandhar - 144002, Dist.Jalandhar, Punjab",8069033844,376
MS Printed Blue Cradle Cum Stroller,https://www.indiamart.com/proddetail/ms-printed-blue-cradle-cum-stroller-2853631671112.html?pos=47&kwd=folding stroller&tags=CC||||8663.873|Price|product|||NA|rsf:gd-|-qr_nm:gd|res:RC3|com-cf:nl|ptrs:na|ktp:N0|mc:104570|mtp:S|qry_typ:P|lang:en|wc:2|cs:7580|v=4,K.M.C Enterprises,https://www.indiamart.com/kmcenterprisesbengaluru/?pos=47&kwd=folding stroller&tags=CC||||8663.873|Price|product|||NA|rsf:gd-|-qr_nm:gd|res:RC3|com-cf:nl|ptrs:na|ktp:N0|mc:104570|mtp:S|qry_typ:P|lang:en|wc:2|cs:7580|v=4,False,,Bengaluru,"Ground Floor, 2, 6th Cross, Vinayaka Nagar, Bengaluru, Bengaluru Urban, Bengaluru - 560026, Dist.Bengaluru, Karnataka",7949340741,
Metal Colorful Stroller Easy Fold- Purple Grey,https://www.indiamart.com/proddetail/colorful-stroller-easy-fold-purple-grey-2852151483412.html?pos=48&kwd=folding stroller&tags=CC||||8316.457|Price|product|||NA|rsf:gd-|-qr_nm:gd|res:RC3|com-cf:nl|ptrs:na|ktp:N0|mc:104570|mtp:S|qry_typ:P|lang:en|wc:2|cs:7580|v=4,Kihama Toys LLP,https://www.indiamart.com/kihamatoys/?pos=48&kwd=folding stroller&tags=CC||||8316.457|Price|product|||NA|rsf:gd-|-qr_nm:gd|res:RC3|com-cf:nl|ptrs:na|ktp:N0|mc:104570|mtp:S|qry_typ:P|lang:en|wc:2|cs:7580|v=4,False,Gangapur Road,Nashik,"A Wing, Office No 1A, Rushiraj Riviers, Gangapur Road, Near Bhonsla Military School, Gangapur Road, Nashik - 422013, Dist.Nashik, Maharashtra",7942837923,
Stroller Cum Swing for Newborn Baby,https://www.indiamart.com/proddetail/stroller-cum-swing-for-newborn-baby-23294571073.html?pos=49&kwd=folding stroller&tags=CC||||8752.144||product|||NA|rsf:gd-|-qr_nm:gd|res:RC3|com-cf:nl|ptrs:na|ktp:N0|mc:104570|mtp:S|qry_typ:P|lang:en|wc:2|cs:7580|v=4,DM Exclusive,https://www.indiamart.com/dms-exclusive/?pos=49&kwd=folding stroller&tags=CC||||8752.144||product|||NA|rsf:gd-|-qr_nm:gd|res:RC3|com-cf:nl|ptrs:na|ktp:N0|mc:104570|mtp:S|qry_typ:P|lang:en|wc:2|cs:7580|v=4,False,,New Delhi,"1st Floor O-109 Sector-2, New Delhi - 110039, Dist.Delhi, Delhi",7942622411,
R for Rabbit Pocket Stroller Rental Service,https://www.indiamart.com/proddetail/r-for-rabbit-pocket-stroller-rental-service-19413672630.html?pos=50&kwd=folding stroller&tags=CC||||8211.142|Price|product|||NA|rsf:gd-|-qr_nm:gd|res:RC3|com-cf:nl|ptrs:na|ktp:N0|mc:104570|mtp:S|qry_typ:P|lang:en|wc:2|cs:7580|v=4,T-Lab Tradecom Private Limited,https://www.indiamart.com/bragpacker/?pos=50&kwd=folding stroller&tags=CC||||8211.142|Price|product|||NA|rsf:gd-|-qr_nm:gd|res:RC3|com-cf:nl|ptrs:na|ktp:N0|mc:104570|mtp:S|qry_typ:P|lang:en|wc:2|cs:7580|v=4,False,Juhu,Mumbai,"701, Jal Darshan Apartment, Gandhigram Road, Juhu, Juhu, Mumbai - 400049, Dist.Mumbai, Maharashtra",8047671411,
"98 cm Eva Foam LuvLap Tutti Frutti Baby Stroller Buggy, 8",https://www.indiamart.com/proddetail/eva-foam-luvlap-tutti-frutti-baby-stroller-buggy-24263478748.html?pos=51&kwd=folding stroller&tags=CC||||8740.707|Price|product|||NA|rsf:gd-|-qr_nm:gd|res:RC3|com-cf:nl|ptrs:na|ktp:N0|mc:104570|mtp:S|qry_typ:P|lang:en|wc:2|cs:7580|v=4,Atharva Enterprises,https://www.indiamart.com/atharvaenterprises-zirakpur/?pos=51&kwd=folding stroller&tags=CC||||8740.707|Price|product|||NA|rsf:gd-|-qr_nm:gd|res:RC3|com-cf:nl|ptrs:na|ktp:N0|mc:104570|mtp:S|qry_typ:P|lang:en|wc:2|cs:7580|v=4,False,SAS Nagar,Sas Nagar,"Shop No. 7, Near Community Centre, Luxmi Enclave, Dhakoli, SAS Nagar, Sas Nagar - 140603, Dist.Mohali, Punjab",7942538452,
R for Rabbit - Pixie Buggy Stroller (Grey),https://www.indiamart.com/proddetail/r-for-rabbit-pixie-buggy-stroller-grey-2851751638333.html?pos=52&kwd=folding stroller&tags=CC||||8612.732|Price|product|||NA|rsf:gd-|-qr_nm:gd|res:RC3|com-cf:nl|ptrs:na|ktp:N0|mc:104570|mtp:S|qry_typ:P|lang:en|wc:2|cs:7580|v=4,Swift Healthcare & Hygiene Private Limited,https://www.indiamart.com/swift-healthcare-hygiene-private-limited-srinagar/?pos=52&kwd=folding stroller&tags=CC||||8612.732|Price|product|||NA|rsf:gd-|-qr_nm:gd|res:RC3|com-cf:nl|ptrs:na|ktp:N0|mc:104570|mtp:S|qry_typ:P|lang:en|wc:2|cs:7580|v=4,False,Pampore,Srinagar,"1 1 Shiraz Road Srinagar Srinagar, Pampore, Srinagar - 190003, Dist.Srinagar, Jammu & Kashmir",,
R For Rabbit Pocket Stroller Lite - Grey,https://www.indiamart.com/proddetail/r-for-rabbit-pocket-stroller-lite-grey-2853237500033.html?pos=53&kwd=folding stroller&tags=CC||||8752.144|Price|product|||NA|rsf:gd-|-qr_nm:gd|res:RC3|com-cf:nl|ptrs:na|ktp:N0|mc:104570|mtp:S|qry_typ:P|lang:en|wc:2|cs:7580|v=4,BD Impex,https://www.indiamart.com/company/2395482/?pos=53&kwd=folding stroller&tags=CC||||8752.144|Price|product|||NA|rsf:gd-|-qr_nm:gd|res:RC3|com-cf:nl|ptrs:na|ktp:N0|mc:104570|mtp:S|qry_typ:P|lang:en|wc:2|cs:7580|v=4,False,,New Delhi,"The Moms Darling - Baby Shop 163, Kapil Vihar, Pitampura, New Delhi - 110034, Dist.Delhi, Delhi",,
Notty Ride Three Wheel Light Weight Baby Stroller (Blue),https://www.indiamart.com/proddetail/notty-ride-three-wheel-light-weight-baby-stroller-blue-10987807862.html?pos=54&kwd=folding stroller&tags=CC||||9839.57||product|||NA|rsf:gd-|-qr_nm:gd|res:RC3|com-cf:nl|ptrs:na|ktp:N0|mc:104570|mtp:S|qry_typ:P|lang:en|wc:2|cs:7580|v=4,Headway Inc,https://www.indiamart.com/headway-inc/?pos=54&kwd=folding stroller&tags=CC||||9839.57||product|||NA|rsf:gd-|-qr_nm:gd|res:RC3|com-cf:nl|ptrs:na|ktp:N0|mc:104570|mtp:S|qry_typ:P|lang:en|wc:2|cs:7580|v=4,False,,Kolkata,"No. 55, Ezra Street, 1st Floor, Kolkata - 700001, Dist.Kolkata, West Bengal",8047843118,
"Evohouse Foldable, Lightweight Stroller With Food Tray For 0-4 Year Baby Boys, Girls Travel Friendly With Full Canopy, 360 Wheels & Easy Fold, Reclining Pram",https://www.indiamart.com/proddetail/evohouse-foldable-lightweight-stroller-with-food-tray-for-0-4-year-baby-boys-girls-travel-friendly-with-full-canopy-360-wheels-easy-fold-reclining-pram-2853410528888.html?pos=55&kwd=folding stroller&tags=CC||||8786.56|Price|product|||NA|rsf:gd-|-qr_nm:gd|res:RC3|com-cf:nl|ptrs:na|ktp:N0|mc:104570|mtp:S|qry_typ:P|lang:en|wc:2|cs:7580|v=4,Springkart,https://www.indiamart.com/springkart/?pos=55&kwd=folding stroller&tags=CC||||8786.56|Price|product|||NA|rsf:gd-|-qr_nm:gd|res:RC3|com-cf:nl|ptrs:na|ktp:N0|mc:104570|mtp:S|qry_typ:P|lang:en|wc:2|cs:7580|v=4,False,Moula Ali,Hyderabad,"Flat No. 103, Saipriya Residency, M. J. Colony, Moula Ali, Hyderabad - 500080, Dist.Hyderabad, Telangana",,
Mirage Solo With Daydream,,Awky Bazar,https://www.indiamart.com/awky-bazar/?pos=56&kwd=folding stroller&tags=CC||||8752.144||product|||NA|rsf:gd-|-qr_nm:gd|res:RC3|com-cf:nl|ptrs:na|ktp:N0|mc:104570|mtp:S|qry_typ:P|lang:en|wc:2|cs:7580|v=4,False,South West,New Delhi,"Gurgaon Road, South West, South West, New Delhi - 110037, Dist.Delhi, Delhi",8048371922,475
1st Step Baby Strollers Orange,https://www.indiamart.com/proddetail/1st-step-baby-strollers-orange-3837312388.html?pos=57&kwd=folding stroller&tags=CB||||8230.883||product|||NA|rsf:gd-|-qr_nm:gd|res:RC3|com-cf:nl|ptrs:na|ktp:N0|mc:104570|mtp:S|qry_typ:P|lang:en|wc:2|cs:7580|v=4,Yapaa Dot Com,https://www.indiamart.com/yapaa-dsurat/?pos=57&kwd=folding stroller&tags=CB||||8230.883||product|||NA|rsf:gd-|-qr_nm:gd|res:RC3|com-cf:nl|ptrs:na|ktp:N0|mc:104570|mtp:S|qry_typ:P|lang:en|wc:2|cs:7580|v=4,False,,Surat,"Ghod Dod Road, Surat - 395007, Dist.Surat, Gujarat",8047308899,7252
"Smart Folding Stroller Travel System, Age Group: Newly Born, 4",https://www.indiamart.com/proddetail/smart-folding-stroller-travel-system-21173012530.html?pos=58&kwd=folding stroller&tags=CC||||8661.854|Price|product|||NA|rsf:gd-|-qr_nm:gd|res:RC3|com-cf:nl|ptrs:na|ktp:N0|mc:104570|mtp:S|qry_typ:P|lang:en|wc:2|cs:7580|v=4,New Payal Gift House,https://www.indiamart.com/new-payal-gift-house/?pos=58&kwd=folding stroller&tags=CC||||8661.854|Price|product|||NA|rsf:gd-|-qr_nm:gd|res:RC3|com-cf:nl|ptrs:na|ktp:N0|mc:104570|mtp:S|qry_typ:P|lang:en|wc:2|cs:7580|v=4,False,,Ludhiana,"KHALSA NATIONAL SCHOOL MKT,,,SHAHPUR ROAD,LUDHIAN 132-AB, Shahpur Road,141008,Ludhiana, Ludhiana - 141005, Dist.Ludhiana, Punjab",8048264926,
Stroller,https://www.indiamart.com/proddetail/stroller-10273418662.html?pos=59&kwd=folding stroller&tags=CC||||8281.036||product|||NA|rsf:gd-|-qr_nm:gd|res:RC3|com-cf:nl|ptrs:na|ktp:N0|mc:104570|mtp:S|qry_typ:P|lang:en|wc:2|cs:7580|v=4,Kiddies,https://www.indiamart.com/kiddies-company/?pos=59&kwd=folding stroller&tags=CC||||8281.036||product|||NA|rsf:gd-|-qr_nm:gd|res:RC3|com-cf:nl|ptrs:na|ktp:N0|mc:104570|mtp:S|qry_typ:P|lang:en|wc:2|cs:7580|v=4,False,harni road,Vadodara,"107 vedant complex meera char rasta harni road HARNI ROAD BAORDA, harni road, Vadodara - 390005, Dist.Vadodara, Gujarat",8047791180,
Baby Stroller,https://www.indiamart.com/proddetail/baby-stroller-7447477191.html?pos=60&kwd=folding stroller&tags=CC||||8242.532||product|||NA|rsf:gd-|-qr_nm:gd|res:RC3|com-cf:nl|ptrs:na|ktp:N0|mc:104570|mtp:S|qry_typ:P|lang:en|wc:2|cs:7580|v=4,Guru Kirpa Garments,https://www.indiamart.com/guru-kirpa-garments/?pos=60&kwd=folding stroller&tags=CC||||8242.532||product|||NA|rsf:gd-|-qr_nm:gd|res:RC3|com-cf:nl|ptrs:na|ktp:N0|mc:104570|mtp:S|qry_typ:P|lang:en|wc:2|cs:7580|v=4,False,,Mansa,"Khoo Wali Gali, Opposite Vijaya Bank Mans, Mansa - 151505, Gujarat",8048249733,8007
Baby Stroller,https://www.indiamart.com/proddetail/baby-stroller-8201529673.html?pos=61&kwd=folding stroller&tags=CC||||8752.144||product|||NA|rsf:gd-|-qr_nm:gd|res:RC3|com-cf:nl|ptrs:na|ktp:N0|mc:104570|mtp:S|qry_typ:P|lang:en|wc:2|cs:7580|v=4,Pragati International,https://www.indiamart.com/babypower/?pos=61&kwd=folding stroller&tags=CC||||8752.144||product|||NA|rsf:gd-|-qr_nm:gd|res:RC3|com-cf:nl|ptrs:na|ktp:N0|mc:104570|mtp:S|qry_typ:P|lang:en|wc:2|cs:7580|v=4,False,Rohini Sector 9 Parvana Vihar,New Delhi,"Plot Number- I-6, Parvana Vihar, Sector 9, Rohini, Rohini Sector 9 Parvana Vihar, New Delhi - 110085, Dist.Delhi, Delhi",8048371914,871
Baby Stroller,https://www.indiamart.com/proddetail/baby-stroller-9559268191.html?pos=62&kwd=folding stroller&tags=CC||||8752.144||product|||NA|rsf:gd-|-qr_nm:gd|res:RC3|com-cf:nl|ptrs:na|ktp:N0|mc:104570|mtp:S|qry_typ:P|lang:en|wc:2|cs:7580|v=4,Neha International,https://www.indiamart.com/neha-international-delhi/?pos=62&kwd=folding stroller&tags=CC||||8752.144||product|||NA|rsf:gd-|-qr_nm:gd|res:RC3|com-cf:nl|ptrs:na|ktp:N0|mc:104570|mtp:S|qry_typ:P|lang:en|wc:2|cs:7580|v=4,False,Preet Vihar,New Delhi,"C-39, Preet Vihar, New Delhi - 110092, Dist.Delhi, Delhi",8043887600,
Male Baby Stroller,https://www.indiamart.com/proddetail/baby-stroller-13112996462.html?pos=63&kwd=folding stroller&tags=CC||||8663.873|Price|product|||NA|rsf:gd-|-qr_nm:gd|res:RC3|com-cf:nl|ptrs:na|ktp:N0|mc:104570|mtp:S|qry_typ:P|lang:en|wc:2|cs:7580|v=4,Benaka Scientifics,https://www.indiamart.com/benakascientifics/?pos=63&kwd=folding stroller&tags=CC||||8663.873|Price|product|||NA|rsf:gd-|-qr_nm:gd|res:RC3|com-cf:nl|ptrs:na|ktp:N0|mc:104570|mtp:S|qry_typ:P|lang:en|wc:2|cs:7580|v=4,False,SVG Nagar,Bengaluru,"No. 16, Mahamane, 1st Floor, 3rd Cross, Svg Nagar Mudalapalya, SVG Nagar, Bengaluru - 560072, Dist.Bengaluru, Karnataka",8047696865,
"hello world Baby Stroller, 4",https://www.indiamart.com/proddetail/baby-stroller-21718360255.html?pos=64&kwd=folding stroller&tags=CC||||8752.144|Price|product|||NA|rsf:gd-|-qr_nm:gd|res:RC3|com-cf:nl|ptrs:na|ktp:N0|mc:104570|mtp:S|qry_typ:P|lang:en|wc:2|cs:7580|v=4,C M Jain Enterprises,https://www.indiamart.com/c-m-jain-enterprises/?pos=64&kwd=folding stroller&tags=CC||||8752.144|Price|product|||NA|rsf:gd-|-qr_nm:gd|res:RC3|com-cf:nl|ptrs:na|ktp:N0|mc:104570|mtp:S|qry_typ:P|lang:en|wc:2|cs:7580|v=4,False,,New Delhi,"6 -27 W E A,IST FLOOR, AJMAL KHAN ROAD, KAROL BAGH,KAROL BAGH Karol Bagh,,New Delhi, New Delhi - 110005, Dist.Delhi, Delhi",8048361341,627
Baby Stroller,https://www.indiamart.com/proddetail/baby-stroller-10517988533.html?pos=65&kwd=folding stroller&tags=CC||||8785.791|Price|product|||NA|rsf:gd-|-qr_nm:gd|res:RC3|com-cf:nl|ptrs:na|ktp:N0|mc:104570|mtp:S|qry_typ:P|lang:en|wc:2|cs:7580|v=4,Littles Camp,https://www.indiamart.com/littles-camp/?pos=65&kwd=folding stroller&tags=CC||||8785.791|Price|product|||NA|rsf:gd-|-qr_nm:gd|res:RC3|com-cf:nl|ptrs:na|ktp:N0|mc:104570|mtp:S|qry_typ:P|lang:en|wc:2|cs:7580|v=4,False,Ghanta Ghar,Ghaziabad,"Shop No. A1, Main G. T. Road, Ghanta Ghar, Ghaziabad - 201001, Dist.Ghaziabad, Uttar Pradesh",8047767245,
Baby Stroller,,Novelty Plastic Industries,https://www.indiamart.com/noveltyplasticindustries/?pos=66&kwd=folding stroller&tags=CC||||8752.144||product|||NA|rsf:gd-|-qr_nm:gd|res:RC3|com-cf:nl|ptrs:na|ktp:N0|mc:104570|mtp:S|qry_typ:P|lang:en|wc:2|cs:7580|v=4,False,Jhilmil Colony,New Delhi,"S-26,,School Block,Shakarpur A9/2, Jhilmil Industrial Area, Dilshad Garden Metro, Shakarpur,110095,Delhi, Jhilmil Colony, New Delhi - 110092, Dist.Delhi, Delhi",7949350057,
Travel System Stroller,https://www.indiamart.com/proddetail/travel-system-stroller-9442399612.html?pos=67&kwd=folding stroller&tags=CC||||8752.144|Price|product|||NA|rsf:gd-|-qr_nm:gd|res:RC3|com-cf:nl|ptrs:na|ktp:N0|mc:104570|mtp:S|qry_typ:P|lang:en|wc:2|cs:7580|v=4,Meco Industries ( India ),https://www.indiamart.com/mecoindustries/?pos=67&kwd=folding stroller&tags=CC||||8752.144|Price|product|||NA|rsf:gd-|-qr_nm:gd|res:RC3|com-cf:nl|ptrs:na|ktp:N0|mc:104570|mtp:S|qry_typ:P|lang:en|wc:2|cs:7580|v=4,False,Uttam Nagar,New Delhi,"No. 3- A, Vikas Vihar, Vikas Nagar,, Uttam Nagar, New Delhi - 110059, Dist.Delhi, Delhi",7942614605,
Black And Red Stylish Baby Stroller,https://www.indiamart.com/proddetail/stylish-baby-stroller-3517872697.html?pos=68&kwd=folding stroller&tags=CC||||9839.57|Price|product|||NA|rsf:gd-|-qr_nm:gd|res:RC3|com-cf:nl|ptrs:na|ktp:N0|mc:104570|mtp:S|qry_typ:P|lang:en|wc:2|cs:7580|v=4,Saroj International Trading Co.,https://www.indiamart.com/sarojinternationaltradingco/?pos=68&kwd=folding stroller&tags=CC||||9839.57|Price|product|||NA|rsf:gd-|-qr_nm:gd|res:RC3|com-cf:nl|ptrs:na|ktp:N0|mc:104570|mtp:S|qry_typ:P|lang:en|wc:2|cs:7580|v=4,False,,Kolkata,"7B C Tiljala Road Park Circus, Kolkata - 700046, Dist.Kolkata, West Bengal",8047646422,
Comfort Baby Stroller,https://www.indiamart.com/proddetail/comfort-baby-stroller-13727181573.html?pos=69&kwd=folding stroller&tags=CC||||8476.868|Price|product|||NA|rsf:gd-|-qr_nm:gd|res:RC3|com-cf:nl|ptrs:na|ktp:N0|mc:104570|mtp:S|qry_typ:P|lang:en|wc:2|cs:7580|v=4,J L Morison India Limited,https://www.indiamart.com/sydler-remedies/?pos=69&kwd=folding stroller&tags=CC||||8476.868|Price|product|||NA|rsf:gd-|-qr_nm:gd|res:RC3|com-cf:nl|ptrs:na|ktp:N0|mc:104570|mtp:S|qry_typ:P|lang:en|wc:2|cs:7580|v=4,False,MIDC,Aurangabad,"E-95/1, M. I. D. C, Waluj, MIDC, Aurangabad - 431136, Maharashtra",7942612193,
"3 Feet Metal And Cloth luvlap baby stroller, 4, lvlp001",https://www.indiamart.com/proddetail/luvlap-baby-stroller-3463181212.html?pos=70&kwd=folding stroller&tags=CC||||8228.275|Price|product|||NA|rsf:gd-|-qr_nm:gd|res:RC3|com-cf:nl|ptrs:na|ktp:N0|mc:104570|mtp:S|qry_typ:P|lang:en|wc:2|cs:7580|v=4,New Twinkle Toys,https://www.indiamart.com/newtwinkle-toys/?pos=70&kwd=folding stroller&tags=CC||||8228.275|Price|product|||NA|rsf:gd-|-qr_nm:gd|res:RC3|com-cf:nl|ptrs:na|ktp:N0|mc:104570|mtp:S|qry_typ:P|lang:en|wc:2|cs:7580|v=4,False,Satellite,Ahmedabad,"Shop No. B-14, Neelkanth Palace, 100 Feet Ring Road Satellite, Opposite Seema Hall, Satellite, Ahmedabad - 380015, Dist.Ahmedabad, Gujarat",8043818949,
Baby Stroller (Retro Series),https://www.indiamart.com/proddetail/baby-stroller-retro-series-3621578873.html?pos=71&kwd=folding stroller&tags=CC||||8954.051||product|||NA|rsf:gd-|-qr_nm:gd|res:RC3|com-cf:nl|ptrs:na|ktp:N0|mc:104570|mtp:S|qry_typ:P|lang:en|wc:2|cs:7580|v=4,Kids World,https://www.indiamart.com/kids-world-chennai/?pos=71&kwd=folding stroller&tags=CC||||8954.051||product|||NA|rsf:gd-|-qr_nm:gd|res:RC3|com-cf:nl|ptrs:na|ktp:N0|mc:104570|mtp:S|qry_typ:P|lang:en|wc:2|cs:7580|v=4,False,Choolai,Chennai,"Plot No.8, Nehru Timber Market, New No.41,, Old No.14,1st Floor, Sattanna Naicken Street, Choolai, Choolai, Chennai - 600112, Dist.Chennai, Tamil Nadu",8047793260,
Baby Stroller Britax Holiday,https://www.indiamart.com/proddetail/baby-stroller-britax-holiday-19458149297.html?pos=72&kwd=folding stroller&tags=CC||||8211.142|Price|product|||NA|rsf:gd-|-qr_nm:gd|res:RC3|com-cf:nl|ptrs:na|ktp:N0|mc:104570|mtp:S|qry_typ:P|lang:en|wc:2|cs:7580|v=4,Resper International (India) Private Limited,https://www.indiamart.com/reltrix-fincorp/?pos=72&kwd=folding stroller&tags=CC||||8211.142|Price|product|||NA|rsf:gd-|-qr_nm:gd|res:RC3|com-cf:nl|ptrs:na|ktp:N0|mc:104570|mtp:S|qry_typ:P|lang:en|wc:2|cs:7580|v=4,False,Dharavi,Mumbai,"144, Ashok Mill Compound Sion Bandra Link Road, Dharavi, Mumbai - 400017, Dist.Mumbai, Maharashtra",8048371522,634
Sunbaby Anabelle Buggy cum stroller,https://www.indiamart.com/proddetail/sunbaby-anabelle-buggy-cum-stroller-6617531148.html?pos=73&kwd=folding stroller&tags=CC||||8228.275||product|||NA|rsf:gd-|-qr_nm:gd|res:RC3|com-cf:nl|ptrs:na|ktp:N0|mc:104570|mtp:S|qry_typ:P|lang:en|wc:2|cs:7580|v=4,Nikiz Dot Com,https://www.indiamart.com/nikiz-ahmedabad/?pos=73&kwd=folding stroller&tags=CC||||8228.275||product|||NA|rsf:gd-|-qr_nm:gd|res:RC3|com-cf:nl|ptrs:na|ktp:N0|mc:104570|mtp:S|qry_typ:P|lang:en|wc:2|cs:7580|v=4,False,Navrangpura,Ahmedabad,"Webtech System, No. 203, Kashiparekh Complex, Opposite City Centre, Swastik Cross Roads, Navrangpura, Navrangpura, Ahmedabad - 380009, Dist.Ahmedabad, Gujarat",8045849605,562
"3-3.5 Feet Stainless Steel And Plastic Pram-Stroller, 8 Wheel, G14",https://www.indiamart.com/proddetail/pram-stroller-21844082397.html?pos=74&kwd=folding stroller&tags=CC||||8752.144|Price|product|||NA|rsf:gd-|-qr_nm:gd|res:RC3|com-cf:nl|ptrs:na|ktp:N0|mc:104570|mtp:S|qry_typ:P|lang:en|wc:2|cs:7580|v=4,Childfun Walker Mfg Co.,https://www.indiamart.com/childfun-walker-mfg-co/?pos=74&kwd=folding stroller&tags=CC||||8752.144|Price|product|||NA|rsf:gd-|-qr_nm:gd|res:RC3|com-cf:nl|ptrs:na|ktp:N0|mc:104570|mtp:S|qry_typ:P|lang:en|wc:2|cs:7580|v=4,False,Bawana DSIDC,New Delhi,"C166, Sector 4, Bawana DSIDC, New Delhi - 110039, Dist.Delhi, Delhi",8047667477,
"Eva Foam Luvlap Galaxy Stroller (3, Green, Black), 4",https://www.indiamart.com/proddetail/luvlap-galaxy-stroller-3-green-black-24301487830.html?pos=75&kwd=folding stroller&tags=CC||||8752.144|Price|product|||NA|rsf:gd-|-qr_nm:gd|res:RC3|com-cf:nl|ptrs:na|ktp:N0|mc:104570|mtp:S|qry_typ:P|lang:en|wc:2|cs:7580|v=4,DRR Tele Services,https://www.indiamart.com/drr-tele-services/?pos=75&kwd=folding stroller&tags=CC||||8752.144|Price|product|||NA|rsf:gd-|-qr_nm:gd|res:RC3|com-cf:nl|ptrs:na|ktp:N0|mc:104570|mtp:S|qry_typ:P|lang:en|wc:2|cs:7580|v=4,False,,New Delhi,"House No. G1/54B, Kunwar Singh Nagar, Nangloi, West Delhi, New Delhi - 110041, Dist.Delhi, Delhi",8048247131,5649
"Plastic Fancy Baby Walker, Packaging Type: Box",https://www.indiamart.com/proddetail/fancy-baby-walker-2852726869573.html?pos=76&kwd=folding stroller&tags=CC||||8228.275|Price|product|||NA|rsf:gd-|-qr_nm:gd|res:RC3|com-cf:nl|ptrs:na|ktp:N0|mc:104570|mtp:S|qry_typ:P|lang:en|wc:2|cs:7580|v=4,Patel Ravjibhai Dayabhai & Son,https://www.indiamart.com/patel-ravjibhai-dayabhai-son/?pos=76&kwd=folding stroller&tags=CC||||8228.275|Price|product|||NA|rsf:gd-|-qr_nm:gd|res:RC3|com-cf:nl|ptrs:na|ktp:N0|mc:104570|mtp:S|qry_typ:P|lang:en|wc:2|cs:7580|v=4,False,,Ahmedabad,"Aiyubtaiyub Surati Building Inside Dhoraji Gate Aiyubtaiyub Surati Building Inside Dhoraji Gate, , Ahmedabad-360370, Gujarat,India, Ahmedabad - 360370, Dist.Ahmedabad, Gujarat",8069013459,227
Male baby stroller 3 in 1 newborn infant folding baby pram,https://www.indiamart.com/proddetail/baby-stroller-3-in-1-newborn-infant-folding-baby-pram-20977707397.html?pos=77&kwd=folding stroller&tags=||||8509.724|Price|product|||NA|rsf:gd-|-qr_nm:gd|res:RC3|com-cf:nl|ptrs:na|ktp:N0|mc:104570|mtp:S|qry_typ:P|lang:en|wc:2|cs:7580|v=4,Bebe Moma,https://www.indiamart.com/bebe-moma/?pos=77&kwd=folding stroller&tags=||||8509.724|Price|product|||NA|rsf:gd-|-qr_nm:gd|res:RC3|com-cf:nl|ptrs:na|ktp:N0|mc:104570|mtp:S|qry_typ:P|lang:en|wc:2|cs:7580|v=4,False,Vellakkinar,Alappuzha,", Vellakkinar, Alappuzha, Dist.Alappuzha, Kerala",8045849754,228
Pink Baby Cradle Cot Cum Stroller,https://www.indiamart.com/proddetail/baby-cradle-cot-cum-stroller-20686404312.html?pos=78&kwd=folding stroller&tags=||||8752.144|Price|product|||NA|rsf:gd-|-qr_nm:gd|res:RC3|com-cf:nl|ptrs:na|ktp:N0|mc:104570|mtp:S|qry_typ:P|lang:en|wc:2|cs:7580|v=4,Bajrang Trading Co.,https://www.indiamart.com/bajrang-tradingcompany/?pos=78&kwd=folding stroller&tags=||||8752.144|Price|product|||NA|rsf:gd-|-qr_nm:gd|res:RC3|com-cf:nl|ptrs:na|ktp:N0|mc:104570|mtp:S|qry_typ:P|lang:en|wc:2|cs:7580|v=4,False,Bawana,New Delhi,"57-A,SOUTH ANARKALI EXTN,,DELHI Plot No. 254, 1st Floor, Pocket D, Sector 3,110039,Delhi, Bawana, New Delhi - 110051, Dist.Delhi, Delhi",8048372778,933
Mild Steel Kids Folding Cradle,https://www.indiamart.com/proddetail/mild-steel-kids-folding-cradle-2850140247773.html?pos=79&kwd=folding stroller&tags=||||8661.854|Price|product|||NA|rsf:gd-|-qr_nm:gd|res:RC3|com-cf:nl|ptrs:na|ktp:N0|mc:104570|mtp:S|qry_typ:P|lang:en|wc:2|cs:7580|v=4,Satnam Products,https://www.indiamart.com/satnamproducts/?pos=79&kwd=folding stroller&tags=||||8661.854|Price|product|||NA|rsf:gd-|-qr_nm:gd|res:RC3|com-cf:nl|ptrs:na|ktp:N0|mc:104570|mtp:S|qry_typ:P|lang:en|wc:2|cs:7580|v=4,False,Dhandari Kalan,Ludhiana,"Plot No 536/35D/8A Guru Gobind Singh Colony,Dhandari Kalan - Satnam Products, Dhandari Kalan, Ludhiana - 141014, Dist.Ludhiana, Punjab",7942803490,
"Wiggle Lightweight Easy Fold Baby Stroller for Travel, Large Storage Basket (Grey)",https://www.indiamart.com/proddetail/wiggle-lightweight-easy-fold-baby-stroller-for-travel-large-storage-basket-grey-2852549652012.html?pos=80&kwd=folding stroller&tags=||||8211.142|Price|product|||NA|rsf:gd-|-qr_nm:gd|res:RC3|com-cf:nl|ptrs:na|ktp:N0|mc:104570|mtp:S|qry_typ:P|lang:en|wc:2|cs:7580|v=4,Istuff365,https://www.indiamart.com/istuff/?pos=80&kwd=folding stroller&tags=||||8211.142|Price|product|||NA|rsf:gd-|-qr_nm:gd|res:RC3|com-cf:nl|ptrs:na|ktp:N0|mc:104570|mtp:S|qry_typ:P|lang:en|wc:2|cs:7580|v=4,False,Charni Road East,Mumbai,"Office No. 2B, First Floor, Unity House Near Royal Opera House, Charni Road East, Mumbai - 400004, Dist.Mumbai, Maharashtra",7942711049,
Baby Stroller,https://www.indiamart.com/proddetail/baby-stroller-20702453812.html?pos=81&kwd=folding stroller&tags=||||8752.144|Price|product|||NA|rsf:gd-|-qr_nm:gd|res:RC3|com-cf:nl|ptrs:na|ktp:N0|mc:104570|mtp:S|qry_typ:P|lang:en|wc:2|cs:7580|v=4,Magadi Metallon Trading Corporation,https://www.indiamart.com/magadimetallontradingcorporation/?pos=81&kwd=folding stroller&tags=||||8752.144|Price|product|||NA|rsf:gd-|-qr_nm:gd|res:RC3|com-cf:nl|ptrs:na|ktp:N0|mc:104570|mtp:S|qry_typ:P|lang:en|wc:2|cs:7580|v=4,False,New Friends Colony,New Delhi,"B10, SF, Maharani Bagh, New Friends Colony, New Delhi - 110065, Dist.Delhi, Delhi",8048372067,297
3 In1 Swing,,Vikas Enterprises,https://www.indiamart.com/vikasentp-delhi/?pos=82&kwd=folding stroller&tags=||||8752.144|Price|proxy|||MDC|rsf:gd-|-qr_nm:gd|res:RC3|com-cf:nl|ptrs:na|ktp:N0|mc:104570|mtp:S|qry_typ:P|lang:en|wc:2|cs:7580|v=4,False,Nangloi,New Delhi,"HN 35, Tyagi Colony, Rajendra Park, Main Rohtak Road Nangloi, Nangloi, New Delhi - 110041, Dist.Delhi, Delhi",8046065409,
"S602 Baby Stroller, 8 Wheel",https://www.indiamart.com/proddetail/s602-baby-stroller-2852549497355.html?pos=83&kwd=folding stroller&tags=||||8211.142|Price|product|||NA|rsf:gd-|-qr_nm:gd|res:RC3|com-cf:nl|ptrs:na|ktp:N0|mc:104570|mtp:S|qry_typ:P|lang:en|wc:2|cs:7580|v=4,Spinners Bicycles And Fitness,https://www.indiamart.com/spinnersbicyclesfitness/?pos=83&kwd=folding stroller&tags=||||8211.142|Price|product|||NA|rsf:gd-|-qr_nm:gd|res:RC3|com-cf:nl|ptrs:na|ktp:N0|mc:104570|mtp:S|qry_typ:P|lang:en|wc:2|cs:7580|v=4,False,,Mumbai,"Mezzanine Floor, 203/205, Cream Apartment, Sheriff Devji Street, Chakla, Mandvi,, Mumbai - 400003, Dist.Mumbai, Maharashtra",7942711423,
"Baby Prams And Stroller, 8 Wheels, Ace",https://www.indiamart.com/proddetail/baby-prams-and-stroller-23513117555.html?pos=84&kwd=folding stroller&tags=||||8752.144|Price|product|||NA|rsf:gd-|-qr_nm:gd|res:RC3|com-cf:nl|ptrs:na|ktp:N0|mc:104570|mtp:S|qry_typ:P|lang:en|wc:2|cs:7580|v=4,Citizen Baby Products,https://www.indiamart.com/citizen-baby-products-delhi/?pos=84&kwd=folding stroller&tags=||||8752.144|Price|product|||NA|rsf:gd-|-qr_nm:gd|res:RC3|com-cf:nl|ptrs:na|ktp:N0|mc:104570|mtp:S|qry_typ:P|lang:en|wc:2|cs:7580|v=4,False,,New Delhi,"Door No 87-a, Jhandewalan Extension, New Delhi - 110055, Dist.Delhi, Delhi",8045849770,392
"Black 34 X 14 X 18 cm Multi Inner Bag for Stroller, PGU052401, Packaging Type: Cardboard Box",https://www.indiamart.com/proddetail/multi-inner-bag-for-stroller-2854526662933.html?pos=85&kwd=folding stroller&tags=||||8752.144||product|||NA|rsf:gd-|-qr_nm:gd|res:RC3|com-cf:nl|ptrs:na|ktp:N0|mc:104570|mtp:S|qry_typ:P|lang:en|wc:2|cs:7580|v=4,Carry Trading Private Limited,https://www.indiamart.com/carry-trading-private-limited/?pos=85&kwd=folding stroller&tags=||||8752.144||product|||NA|rsf:gd-|-qr_nm:gd|res:RC3|com-cf:nl|ptrs:na|ktp:N0|mc:104570|mtp:S|qry_typ:P|lang:en|wc:2|cs:7580|v=4,False,New Delhi,New Delhi,"80/40b,Malvi Nagar,New Delhi Malviya Nagar, New Delhi, New Delhi - 110017, Dist.Delhi, Delhi",8069033799,744
"Stylish Baby Stroller Travel System, 1",https://www.indiamart.com/proddetail/stylish-baby-stroller-travel-system-2852128779548.html?pos=86&kwd=folding stroller&tags=||||9618.383|Price|product|||NA|rsf:gd-|-qr_nm:gd|res:RC3|com-cf:nl|ptrs:na|ktp:N0|mc:104570|mtp:S|qry_typ:P|lang:en|wc:2|cs:7580|v=4,Roy Interprises,https://www.indiamart.com/roy-interprises/?pos=86&kwd=folding stroller&tags=||||9618.383|Price|product|||NA|rsf:gd-|-qr_nm:gd|res:RC3|com-cf:nl|ptrs:na|ktp:N0|mc:104570|mtp:S|qry_typ:P|lang:en|wc:2|cs:7580|v=4,False,,Jamshedpur,", Jamshedpur - 831002, Dist.East Singhbhum, Jharkhand",8069017451,799
"Aluminium Sunbaby Blue Angel Baby Stroller, 8",https://www.indiamart.com/proddetail/sunbaby-blue-angel-baby-stroller-24760810612.html?pos=87&kwd=folding stroller&tags=||||8752.144|Price|product|||NA|rsf:gd-|-qr_nm:gd|res:RC3|com-cf:nl|ptrs:na|ktp:N0|mc:104570|mtp:S|qry_typ:P|lang:en|wc:2|cs:7580|v=4,Krona Liquatec Ltd.,https://www.indiamart.com/kronaliquatec/?pos=87&kwd=folding stroller&tags=||||8752.144|Price|product|||NA|rsf:gd-|-qr_nm:gd|res:RC3|com-cf:nl|ptrs:na|ktp:N0|mc:104570|mtp:S|qry_typ:P|lang:en|wc:2|cs:7580|v=4,False,,New Delhi,"B Ii/96, M.C.I.E, Badarpur, South Delhi, New Delhi - 110044, Dist.Delhi, Delhi",8047303429,
Orange And Black Buddy Stroller With Reversible Handle,https://www.indiamart.com/proddetail/buddy-stroller-with-reversible-handle-20843737797.html?pos=88&kwd=folding stroller&tags=||||8211.142||product|||NA|rsf:gd-|-qr_nm:gd|res:RC3|com-cf:nl|ptrs:na|ktp:N0|mc:104570|mtp:S|qry_typ:P|lang:en|wc:2|cs:7580|v=4,Offspring,https://www.indiamart.com/offspring/?pos=88&kwd=folding stroller&tags=||||8211.142||product|||NA|rsf:gd-|-qr_nm:gd|res:RC3|com-cf:nl|ptrs:na|ktp:N0|mc:104570|mtp:S|qry_typ:P|lang:en|wc:2|cs:7580|v=4,False,Ghatkopar West,Mumbai,"No. 316, Subhash Nagar, Dutt Nagar J. M. Mandir Road, Asalpha, Ghatkopar West, Ghatkopar West, Mumbai - 400084, Dist.Mumbai, Maharashtra",8047629614,
"101 cm Plastic Black Twin Lightweight Baby Stroller, Four, S1703ADEMB000",https://www.indiamart.com/proddetail/black-twin-lightweight-baby-stroller-2852165340788.html?pos=89&kwd=folding stroller&tags=||||8752.144|Price|product|||NA|rsf:gd-|-qr_nm:gd|res:RC3|com-cf:nl|ptrs:na|ktp:N0|mc:104570|mtp:S|qry_typ:P|lang:en|wc:2|cs:7580|v=4,Pram Hut,https://www.indiamart.com/pram-hutdelhi/?pos=89&kwd=folding stroller&tags=||||8752.144|Price|product|||NA|rsf:gd-|-qr_nm:gd|res:RC3|com-cf:nl|ptrs:na|ktp:N0|mc:104570|mtp:S|qry_typ:P|lang:en|wc:2|cs:7580|v=4,False,,New Delhi,"SHOP NO.- 156,ANARKALI COMPLEX,ANARKALI COMPLEX,New Delhi LOWER GROUND FLOOR, SHOP NO.- 156, ANARKALI COMPLEX, ANARKALI COMPLEX, JHANDEWALAN, New Delhi, Cent, New Delhi - 110055, Dist.Delhi, Delhi",7942701586,
Fisher Price - Rover Stroller Cum Pram,https://www.indiamart.com/proddetail/fisher-price-rover-stroller-cum-pram-14100940833.html?pos=90&kwd=folding stroller&tags=||||8752.144|Price|product|||NA|rsf:gd-|-qr_nm:gd|res:RC3|com-cf:nl|ptrs:na|ktp:N0|mc:104570|mtp:S|qry_typ:P|lang:en|wc:2|cs:7580|v=4,Alex Daisy,https://www.indiamart.com/alex-daisy/?pos=90&kwd=folding stroller&tags=||||8752.144|Price|product|||NA|rsf:gd-|-qr_nm:gd|res:RC3|com-cf:nl|ptrs:na|ktp:N0|mc:104570|mtp:S|qry_typ:P|lang:en|wc:2|cs:7580|v=4,False,Kirti Nagar,New Delhi,"No. 4/1, WHS Block-2, Main Furniture Market Road, Kirti Nagar Opp. Metro Pillar No. 120, Ghitorni, MG Road, New Delhi-30, Kirti Nagar, New Delhi - 110015, Dist.Delhi, Delhi",7949369266,
Joy Stroller AERIA S W/ RC & ADPT,https://www.indiamart.com/proddetail/joy-stroller-aeria-s-w-rc-adpt-2853742832830.html?pos=91&kwd=folding stroller&tags=||||8752.144|Price|product|||NA|rsf:gd-|-qr_nm:gd|res:RC3|com-cf:nl|ptrs:na|ktp:N0|mc:104570|mtp:S|qry_typ:P|lang:en|wc:2|cs:7580|v=4,Ghodela Enterprises,https://www.indiamart.com/ghodela-enterprises/?pos=91&kwd=folding stroller&tags=||||8752.144|Price|product|||NA|rsf:gd-|-qr_nm:gd|res:RC3|com-cf:nl|ptrs:na|ktp:N0|mc:104570|mtp:S|qry_typ:P|lang:en|wc:2|cs:7580|v=4,False,,New Delhi,"Ground Floor H. No 235, Kh No-114 Ambedkar Colony Gali No-8 Chhatarpur South West Delhi, New Delhi - 110074, Dist.Delhi, Delhi",8048372639,879
"1.0 Leather Cruz V2 UPPAbaby Baby Strollers Extra-Large Easy-Access, 4",https://www.indiamart.com/proddetail/cruz-v2-uppababy-baby-strollers-extra-large-easy-access-2852650005091.html?pos=92&kwd=folding stroller&tags=||||8592.183|Price|product|||NA|rsf:gd-|-qr_nm:gd|res:RC3|com-cf:nl|ptrs:na|ktp:N0|mc:104570|mtp:S|qry_typ:P|lang:en|wc:2|cs:7580|v=4,Rkg Global,https://www.indiamart.com/rkg-global-tumakuru/?pos=92&kwd=folding stroller&tags=||||8592.183|Price|product|||NA|rsf:gd-|-qr_nm:gd|res:RC3|com-cf:nl|ptrs:na|ktp:N0|mc:104570|mtp:S|qry_typ:P|lang:en|wc:2|cs:7580|v=4,False,Niwai,Tonk,"F-86 Gali No 3 Deendayal Colony Niwai GALI NO 3 DEENDAYAL COLONY, BEHIND SBI BANK, Niwai, Tonk - 304021, Dist.Tonk, Rajasthan",8047311016,5747
Baby Stroller,https://www.indiamart.com/proddetail/baby-stroller-2330086933.html?pos=93&kwd=folding stroller&tags=||||8752.144||product|||NA|rsf:gd-|-qr_nm:gd|res:RC3|com-cf:nl|ptrs:na|ktp:N0|mc:104570|mtp:S|qry_typ:P|lang:en|wc:2|cs:7580|v=4,Akay Rolling Mills Private Limited,https://www.indiamart.com/akay-rolling-mills/?pos=93&kwd=folding stroller&tags=||||8752.144||product|||NA|rsf:gd-|-qr_nm:gd|res:RC3|com-cf:nl|ptrs:na|ktp:N0|mc:104570|mtp:S|qry_typ:P|lang:en|wc:2|cs:7580|v=4,False,Bali Nagar,New Delhi,"No. H-27, Bali Nagar, Bali Nagar, New Delhi - 110015, Dist.Delhi, Delhi",8048372274,137
Multicolor Mee Mee Portable & Convenient Stroller BL-11,https://www.indiamart.com/proddetail/mee-mee-portable-convenient-stroller-bl-11-20517307530.html?pos=94&kwd=folding stroller&tags=||||8954.051|Price|product|||NA|rsf:gd-|-qr_nm:gd|res:RC3|com-cf:nl|ptrs:na|ktp:N0|mc:104570|mtp:S|qry_typ:P|lang:en|wc:2|cs:7580|v=4,Babylou,https://www.indiamart.com/baby-lou/?pos=94&kwd=folding stroller&tags=||||8954.051|Price|product|||NA|rsf:gd-|-qr_nm:gd|res:RC3|com-cf:nl|ptrs:na|ktp:N0|mc:104570|mtp:S|qry_typ:P|lang:en|wc:2|cs:7580|v=4,False,Mylapore,Chennai,"114 Luz Church Road Near Alwarpet Anjaneyar Temple, Mylapore, Chennai - 600004, Dist.Chennai, Tamil Nadu",8043800763,
Baby Strollers Baby Pram Baby Buggy,https://www.indiamart.com/proddetail/baby-strollers-baby-pram-baby-buggy-24737061948.html?pos=95&kwd=folding stroller&tags=||||8752.144|Price|product|||NA|rsf:gd-|-qr_nm:gd|res:RC3|com-cf:nl|ptrs:na|ktp:N0|mc:104570|mtp:S|qry_typ:P|lang:en|wc:2|cs:7580|v=4,Fatevalley,https://www.indiamart.com/fatevalley/?pos=95&kwd=folding stroller&tags=||||8752.144|Price|product|||NA|rsf:gd-|-qr_nm:gd|res:RC3|com-cf:nl|ptrs:na|ktp:N0|mc:104570|mtp:S|qry_typ:P|lang:en|wc:2|cs:7580|v=4,False,Rohini,New Delhi,"A-222 RAMESH ENCLAVE STREET NO 8 DELHI North Near Rohini Sector-21, Rohini, New Delhi - 110086, Dist.Delhi, Delhi",8047690254,
"Iron,Plastic And Cloth Baby Pram, with Black Wheel, 4",https://www.indiamart.com/proddetail/baby-pram-with-black-wheel-25049698473.html?pos=96&kwd=folding stroller&tags=||||8752.144|Price|product|||NA|rsf:gd-|-qr_nm:gd|res:RC3|com-cf:nl|ptrs:na|ktp:N0|mc:104570|mtp:S|qry_typ:P|lang:en|wc:2|cs:7580|v=4,N.G. Usma Gold Baby Try Cycle,https://www.indiamart.com/ngusma-gold-babytrycycle/?pos=96&kwd=folding stroller&tags=||||8752.144|Price|product|||NA|rsf:gd-|-qr_nm:gd|res:RC3|com-cf:nl|ptrs:na|ktp:N0|mc:104570|mtp:S|qry_typ:P|lang:en|wc:2|cs:7580|v=4,False,YAMUNA DAIRY,New Delhi,"H. No. 228, GF, Gali No. 7, New Kardam Puri, YAMUNA DAIRY, New Delhi - 110094, Dist.Delhi, Delhi",8048610135,
"Black (base) Natraj Mild Steel Baby Dyna Pram, Age Group: Newly Born",https://www.indiamart.com/proddetail/natraj-mild-steel-baby-pram-2853186268573.html?pos=97&kwd=folding stroller&tags=||||8752.144|Price|product|||NA|rsf:gd-|-qr_nm:gd|res:RC3|com-cf:nl|ptrs:na|ktp:N0|mc:104570|mtp:S|qry_typ:P|lang:en|wc:2|cs:7580|v=4,The Glimpse Creations,https://www.indiamart.com/theglimpsecreations/?pos=97&kwd=folding stroller&tags=||||8752.144|Price|product|||NA|rsf:gd-|-qr_nm:gd|res:RC3|com-cf:nl|ptrs:na|ktp:N0|mc:104570|mtp:S|qry_typ:P|lang:en|wc:2|cs:7580|v=4,False,,New Delhi,"First Floor, RZ-48A/1, Gali No.5/4, KH No.-29, Main Sagarpur, South West Delhi, New Delhi - 110046, Dist.Delhi, Delhi",7942962264,
Folding Stroller,,Shri Krishna Traders,https://www.indiamart.com/shrikrishnatraders-rohtak/?pos=98&kwd=folding stroller&tags=CC||||8706.508||product|||NA|rsf:gd-|-qr_nm:gd|res:RC3|com-cf:nl|ptrs:na|ktp:N0|mc:104570|mtp:S|qry_typ:P|lang:en|wc:2|cs:7580|v=4,False,Janta Colony,Rohtak,"938/35, Janta Colony, Rohtak - 124001, Dist.Rohtak, Haryana",8048249679,6703
Folding Stroller,,Chaithra Enterprises,https://www.indiamart.com/chaithra-enterprises-mysuru/?pos=99&kwd=folding stroller&tags=CC||||8556.61||product|||NA|rsf:gd-|-qr_nm:gd|res:RC3|com-cf:nl|ptrs:na|ktp:N0|mc:104570|mtp:S|qry_typ:P|lang:en|wc:2|cs:7580|v=4,False,,Mysuru,"No 294,Lalithadripura,Jss Layout 2nd Stage,Mysuru,Mysuru, Mysuru - 570028, Dist.Mysuru, Karnataka",8069196709,619
Folding Stroller,,Babu Traders,https://www.indiamart.com/babu-traders-titlagarh/?pos=100&kwd=folding stroller&tags=CC||||9292.973||product|||NA|rsf:gd-|-qr_nm:gd|res:RC3|com-cf:nl|ptrs:na|ktp:N0|mc:104570|mtp:S|qry_typ:P|lang:en|wc:2|cs:7580|v=4,False,Titlagarh,Titlagarh,"Near Dav College infornt od Dav college, Titlagarh, Titlagarh - 767033, Odisha",8047311015,6451
Folding Stroller,,Varahi Cycle Agency,https://www.indiamart.com/aarti-cycles/?pos=101&kwd=folding stroller&tags=CC||||8307.81||product|||NA|rsf:gd-|-qr_nm:gd|res:RC3|com-cf:nl|ptrs:na|ktp:N0|mc:104570|mtp:S|qry_typ:P|lang:en|wc:2|cs:7580|v=4,False,Dhankawadi,Pune,"Preet Arcade, Pune-Satara Road, Dhankawadi, Pune - 411043, Dist.Pune, Maharashtra",8048372607,544
Folding Stroller,,TOYCHEM INTERNATIONAL,https://www.indiamart.com/namokar-trading-new-delhi/?pos=102&kwd=folding stroller&tags=CC||||8785.791||product|||NA|rsf:gd-|-qr_nm:gd|res:RC3|com-cf:nl|ptrs:na|ktp:N0|mc:104570|mtp:S|qry_typ:P|lang:en|wc:2|cs:7580|v=4,False,Shalimar Garden,Ghaziabad,"B- 136/1a Extension 2, Shalimar Garden, Ghaziabad - 201005, Dist.Ghaziabad, Uttar Pradesh",8069017287,446
Strollers Luxury Folding Stroller,,Yash Enterprises,https://www.indiamart.com/yashenterprises-38206944/?pos=103&kwd=folding stroller&tags=CC||||8302.941||product|||NA|rsf:gd-|-qr_nm:gd|res:RC3|com-cf:nl|ptrs:na|ktp:N0|mc:104570|mtp:S|qry_typ:P|lang:en|wc:2|cs:7580|v=4,False,,Pimpri Chinchwad,"Shop No 352,Ground Floor,Sector-24,Tilak Road,Nigadi,Pune, Pimpri Chinchwad - 411044, Maharashtra",8047311001,5019
Baby Folding Stroller,,kilkari baby and mom care,https://www.indiamart.com/kilkari-baby-and-mom-care/?pos=104&kwd=folding stroller&tags=CC||||8689.424||product|||NA|rsf:gd-|-qr_nm:gd|res:RC3|com-cf:nl|ptrs:na|ktp:N0|mc:104570|mtp:S|qry_typ:P|lang:en|wc:2|cs:7580|v=4,False,Chanakyapuri,Sehore,"Shop No.7, Krishna Complex in front of Vishal mega mart, Chanakyapuri, Sehore - 466001, Dist.Sehore, Madhya Pradesh",8048261678,852
Rabbit Pocket Air Stroller Baby Stroller,,Playpipers Industries LLP,https://www.indiamart.com/playpipers-industries/?pos=105&kwd=folding stroller&tags=CC||||8228.275||product|||NA|rsf:gd-|-qr_nm:gd|res:RC3|com-cf:nl|ptrs:na|ktp:N0|mc:104570|mtp:S|qry_typ:P|lang:en|wc:2|cs:7580|v=4,False,Makaraba,Ahmedabad,"52 D Block,Sur No 4/1,13/3/1,Tp 84/A ,Palm Greens, Makaraba, Ahmedabad - 380051, Dist.Ahmedabad, Gujarat",8069017262,731
BSA stroller D380-B-2 pink,,Maruti Craft,https://www.indiamart.com/maruti-craft/?pos=106&kwd=folding stroller&tags=CC||||10180.86||product|||NA|rsf:gd-|-qr_nm:gd|res:RC3|com-cf:nl|ptrs:na|ktp:N0|mc:104570|mtp:S|qry_typ:P|lang:en|wc:2|cs:7580|v=4,False,Santipur,Guwahati,"KRC ROAD,,KUMARPARA,GUWAHATI Mauja Silasundri Ghopa, Hajo Road Amingaon, North 3,781031,Guwahati, Santipur, Guwahati - 781009, Dist.Kamrup, Assam",8048371585,818
Evenflo Journeylite Marianna Stroller,,Kids Zone,https://www.indiamart.com/kids-zone-jodhpur/?pos=107&kwd=folding stroller&tags=CC||||8319.425||product|||NA|rsf:gd-|-qr_nm:gd|res:RC3|com-cf:nl|ptrs:na|ktp:N0|mc:104570|mtp:S|qry_typ:P|lang:en|wc:2|cs:7580|v=4,False,Railway Station Road,Jodhpur,"651, 11TH C ROAD, SARDARPURA, Rajasthan 651,11th 'C' Road Sardarpura, Railway Station Road, Jodhpur - 342001, Dist.Jodhpur, Rajasthan",8048361249,371
Mothercare Insect Net Stroller,,Maru Collection,https://www.indiamart.com/maru-collection/?pos=108&kwd=folding stroller&tags=CC||||8211.142||product|||NA|rsf:gd-|-qr_nm:gd|res:RC3|com-cf:nl|ptrs:na|ktp:N0|mc:104570|mtp:S|qry_typ:P|lang:en|wc:2|cs:7580|v=4,False,Kandivali West,Mumbai,"No. 4, Shyam Bhuwan, Mathuradas Road, Kandivali-West, Kandivali West, Mumbai - 400067, Dist.Mumbai, Maharashtra",7949365989,
KKWLITUPNK0000 Kinderkraft Lite Up Pushchair Pink Stroller,,Tejal International,https://www.indiamart.com/tejal-international/?pos=109&kwd=folding stroller&tags=CC||||8211.142||product|||NA|rsf:gd-|-qr_nm:gd|res:RC3|com-cf:nl|ptrs:na|ktp:N0|mc:104570|mtp:S|qry_typ:P|lang:en|wc:2|cs:7580|v=4,False,Manak Nagar,Mumbai,"301,Sarovar Vasant Complex CHS Ltd, Mahavir Nagar,Dhanukar Wadi,Kandivali West,Mumbai B/5, 52, Chandawarkar Road Manak Nagar Punjabi Lane Borivali West,400092,Mumbai, Manak Nagar, Mumbai - 400067, Dist.Mumbai, Maharashtra",8069013442,922
Lipstick Mirage Noir,,Harsh Cosmetics,https://www.indiamart.com/harshcosmetics/?pos=110&kwd=folding stroller&tags=CC||||8752.144||product|||NA|rsf:gd-|-qr_nm:gd|res:RC3|com-cf:nl|ptrs:na|ktp:N0|mc:104570|mtp:S|qry_typ:P|lang:en|wc:2|cs:7580|v=4,False,Khureji Khas,New Delhi,"Shop No:-3, Khureji Khas, Delhi, Khureji Khas, New Delhi - 110051, Dist.Delhi, Delhi",8048371880,138
Mirage Solo With Daydrea,,Khushal IT Security Solution,https://www.indiamart.com/khushalitsecuritysolution/?pos=111&kwd=folding stroller&tags=CC||||8741.812||product|||NA|rsf:gd-|-qr_nm:gd|res:RC3|com-cf:nl|ptrs:na|ktp:N0|mc:104570|mtp:S|qry_typ:P|lang:en|wc:2|cs:7580|v=4,False,harsaru,Gurgaon,"Sector 88, Pataudi Road, harsaru, Gurgaon - 122505, Dist.Gurgaon, Haryana",8048371834,632
Mirage Solo,,Aditya Mobile Care,https://www.indiamart.com/aditya-mobilecare/?pos=112&kwd=folding stroller&tags=CC||||8786.56||product|||NA|rsf:gd-|-qr_nm:gd|res:RC3|com-cf:nl|ptrs:na|ktp:N0|mc:104570|mtp:S|qry_typ:P|lang:en|wc:2|cs:7580|v=4,False,Hyedrabad,Hyderabad,"21-1-403/2, Recov Gung Near Gupta Hospital, Hyedrabad, Hyedrabad, Hyderabad - 500012, Dist.Hyderabad, Telangana",8048263666,199
Babin Threds,,Ridhi Yarn & Thread,https://www.indiamart.com/ridhi-yarn-thread/?pos=113&kwd=folding stroller&tags=CC||||8663.873||product|||NA|rsf:gd-|-qr_nm:gd|res:RC3|com-cf:nl|ptrs:na|ktp:N0|mc:104570|mtp:S|qry_typ:P|lang:en|wc:2|cs:7580|v=4,False,,Bengaluru,"1st Floor 48/1 Chandana Layout S G Kavalu Magadi Road, Bengaluru - 560091, Dist.Bengaluru, Karnataka",8062270201,362
Babin,,Om Sakthivel Tex Spares,https://www.indiamart.com/om-sakthivel-tex-spares/?pos=114&kwd=folding stroller&tags=CC||||8717.056||product|||NA|rsf:gd-|-qr_nm:gd|res:RC3|com-cf:nl|ptrs:na|ktp:N0|mc:104570|mtp:S|qry_typ:P|lang:en|wc:2|cs:7580|v=4,False,,Salem,"NO 2, CONGRESS OFFICE STREET, JARI KONDALAMPATTY, Salem, Tamil Nadu, Salem - 636010, Dist.Salem, Tamil Nadu",8069196776,326
"Stroller/Pram, Easy Fold for Newborn Baby/Kids, 0-3 Years (Blue)",,Mihir Ramakda Ghar,https://www.indiamart.com/mihir-toy-shop/?pos=115&kwd=folding stroller&tags=CC||||8228.275||product|||NA|rsf:gd-|-qr_nm:gd|res:RC3|com-cf:nl|ptrs:na|ktp:N0|mc:104570|mtp:S|qry_typ:P|lang:en|wc:2|cs:7580|v=4,False,Wonder Point,Ahmedabad,"1 rajkumar complex, Wonder Point, Ahmedabad - 380026, Dist.Ahmedabad, Gujarat",8048372517,853
Stroller,,Kohinoor Trading Company / Bhagwanji Ramji & Co.,https://www.indiamart.com/kohinoor-trading-company-bhagwanji-ramji-co/?pos=116&kwd=folding stroller&tags=CC||||8223.226|Price|product|||NA|rsf:gd-|-qr_nm:gd|res:RC3|com-cf:nl|ptrs:na|ktp:N0|mc:104570|mtp:S|qry_typ:P|lang:en|wc:2|cs:7580|v=4,False,,Thane,"Ground Floor,Shop No.1,Narsi Natha Street,Narsi Natha Street,Bhat Bazar Mumbai,Mumbai City, Thane - 400009, Dist.Thane, Maharashtra",8048249702,5796
Stroller,,Parth Kids Collection,https://www.indiamart.com/parth-kids-collection/?pos=117&kwd=folding stroller&tags=CC||||8228.275||product|||NA|rsf:gd-|-qr_nm:gd|res:RC3|com-cf:nl|ptrs:na|ktp:N0|mc:104570|mtp:S|qry_typ:P|lang:en|wc:2|cs:7580|v=4,False,Naranpura,Ahmedabad,"1, Shivalik Complex, Amikunj Cross Road, Naranpura, Ahmedabad - 380015, Dist.Ahmedabad, Gujarat",8048249698,2267
Stroller,,Manglam,https://www.indiamart.com/manglam-patna/?pos=118&kwd=folding stroller&tags=CC||||9520.041||product|||NA|rsf:gd-|-qr_nm:gd|res:RC3|com-cf:nl|ptrs:na|ktp:N0|mc:104570|mtp:S|qry_typ:P|lang:en|wc:2|cs:7580|v=4,False,,Patna,"Rajeshwar Complex,,KANKAR BAG,Patna kankarbagh, near vishal mega mart,,Patna, Patna - 800020, Dist.Patna, Bihar",8048371701,459
Stroller,,Babies Plus Point,https://www.indiamart.com/pluspoint/?pos=119&kwd=folding stroller&tags=CC||||8229.666||product|||NA|rsf:gd-|-qr_nm:gd|res:RC3|com-cf:nl|ptrs:na|ktp:N0|mc:104570|mtp:S|qry_typ:P|lang:en|wc:2|cs:7580|v=4,False,Chala Daman Road,Vapi,"No. 106, Royal Dreams, Chala, Daman Road, Chala Daman Road, Vapi - 396191, Dist.Valsad, Gujarat",7942640924,
Stroller,,The Kids Window,https://www.indiamart.com/kidswindow/?pos=120&kwd=folding stroller&tags=CC||||8663.873||product|||NA|rsf:gd-|-qr_nm:gd|res:RC3|com-cf:nl|ptrs:na|ktp:N0|mc:104570|mtp:S|qry_typ:P|lang:en|wc:2|cs:7580|v=4,False,Basavangudi,Bengaluru,"#7/3, Bull Temple Road, opp. More Megamart, Basavangudi, Basavangudi, Bengaluru - 560004, Dist.Bengaluru, Karnataka",8048371871,308
Stroller,,Sweet Root,https://www.indiamart.com/sweet-root/?pos=121&kwd=folding stroller&tags=CC||||8663.873||product|||NA|rsf:gd-|-qr_nm:gd|res:RC3|com-cf:nl|ptrs:na|ktp:N0|mc:104570|mtp:S|qry_typ:P|lang:en|wc:2|cs:7580|v=4,False,New Thippasandra,Bengaluru,"No. 5/1, First Floor, New Thippasandra Market Above Univercell HAL, 3rd Stage, New Thippasandra, Bengaluru - 560075, Dist.Bengaluru, Karnataka",8043842581,
Baby Stroller,,Ankita Dental Care,https://www.indiamart.com/ankita-dental-care/?pos=122&kwd=folding stroller&tags=CC||||8692.544||product|||NA|rsf:gd-|-qr_nm:gd|res:RC3|com-cf:nl|ptrs:na|ktp:N0|mc:104570|mtp:S|qry_typ:P|lang:en|wc:2|cs:7580|v=4,False,Jyoti Nagar,Alwar,"Near Manju Hospital, Jyoti Nagar, Alwar - 301001, Dist.Alwar, Rajasthan",8069264888,202
Baby Stroller,,Grah Vastu Bhandar,https://www.indiamart.com/grah-vastu-bhandar/?pos=123&kwd=folding stroller&tags=CC||||8211.142||product|||NA|rsf:gd-|-qr_nm:gd|res:RC3|com-cf:nl|ptrs:na|ktp:N0|mc:104570|mtp:S|qry_typ:P|lang:en|wc:2|cs:7580|v=4,False,Malad West,Mumbai,"No. 34/3, Station Road, Malad West, Malad West, Mumbai - 400064, Dist.Mumbai, Maharashtra",8048372784,622
Baby Stroller,,Walk Over Toys,https://www.indiamart.com/walk-over-toys/?pos=124&kwd=folding stroller&tags=CC||||8276.311||product|||NA|rsf:gd-|-qr_nm:gd|res:RC3|com-cf:nl|ptrs:na|ktp:N0|mc:104570|mtp:S|qry_typ:P|lang:en|wc:2|cs:7580|v=4,False,,Panaji,"Opp. Muncipal Market, Near Navtara Restaurant, Panaji - 403006, Dist.North Goa, Goa",8048372669,715
Baby Stroller,,Sansar In Style,https://www.indiamart.com/sansar-in-style/?pos=125&kwd=folding stroller&tags=CC||||8663.873||product|||NA|rsf:gd-|-qr_nm:gd|res:RC3|com-cf:nl|ptrs:na|ktp:N0|mc:104570|mtp:S|qry_typ:P|lang:en|wc:2|cs:7580|v=4,False,New Thippasandra,Bengaluru,"No. 54/4, Shivagiri Complex, Vighanan Nagar, Kaggadasapura Main Road ,, New Thippasandra, Bengaluru - 560075, Dist.Bengaluru, Karnataka",8048372163,332
Baby Stroller,,Toys World,https://www.indiamart.com/toysworld-hyderabad/?pos=126&kwd=folding stroller&tags=CC||||8786.56||product|||NA|rsf:gd-|-qr_nm:gd|res:RC3|com-cf:nl|ptrs:na|ktp:N0|mc:104570|mtp:S|qry_typ:P|lang:en|wc:2|cs:7580|v=4,False,Addagutta,Hyderabad,"Shop No. 2X3, Ground Flor, Srinivasa Towers, Addagutta Near Miyapur Main Road, Addagutta, Hyderabad - 500049, Dist.Hyderabad, Telangana",8048372670,558
Joie Aire Twin Stroller,https://www.indiamart.com/proddetail/joie-aire-twin-stroller-13962590073.html?pos=127&kwd=folding stroller&tags=CC||||8954.051||product|||NA|rsf:gd-|-qr_nm:gd|res:RC3|com-cf:nl|ptrs:na|ktp:N0|mc:104570|mtp:S|qry_typ:P|lang:en|wc:2|cs:7580|v=4,Mothercare,https://www.indiamart.com/mothercare-chennai/?pos=127&kwd=folding stroller&tags=CC||||8954.051||product|||NA|rsf:gd-|-qr_nm:gd|res:RC3|com-cf:nl|ptrs:na|ktp:N0|mc:104570|mtp:S|qry_typ:P|lang:en|wc:2|cs:7580|v=4,False,Royapettah,Chennai,"Shop No. 252 2nd Floor, Express Avenue Mall, Royapettah, Chennai - 600014, Dist.Chennai, Tamil Nadu",8048371639,665
Baby Stroller,,Khilouna Zone,https://www.indiamart.com/khilona-zone-rajkot/?pos=128&kwd=folding stroller&tags=CC||||8038.093||product|||NA|rsf:gd-|-qr_nm:gd|res:RC3|com-cf:nl|ptrs:na|ktp:N0|mc:104570|mtp:S|qry_typ:P|lang:en|wc:2|cs:7580|v=4,False,Mavdi,Rajkot,"Shivji Park - 1, Near Mahadev Temple, Ahmedabad National Highway, Navagam, Mavdi, Rajkot - 360005, Dist.Rajkot, Gujarat",8048264141,515
Baby Stroller,,Kartik Kids Collection,https://www.indiamart.com/kaartik-collection/?pos=129&kwd=folding stroller&tags=CC||||8741.987||product|||NA|rsf:gd-|-qr_nm:gd|res:RC3|com-cf:nl|ptrs:na|ktp:N0|mc:104570|mtp:S|qry_typ:P|lang:en|wc:2|cs:7580|v=4,False,Jalbera Road,Ambala,"Jalbera Road, Near Sharda Department,, Jalbera Road, Ambala - 134003, Dist.Ambala, Haryana",8069013436,631
Baby Stroller,,Jenesis NX,https://www.indiamart.com/jenesis-nx/?pos=130&kwd=folding stroller&tags=CC||||8307.81||product|||NA|rsf:gd-|-qr_nm:gd|res:RC3|com-cf:nl|ptrs:na|ktp:N0|mc:104570|mtp:S|qry_typ:P|lang:en|wc:2|cs:7580|v=4,False,Chandan Nagar,Pune,"Shop Number 3, Sangharash Chauk, Chandan Nagar, Pune - 411014, Dist.Pune, Maharashtra",8048371917,273
Baby Stroller,,Bhagyashri Gifts,https://www.indiamart.com/bhagyashri-gifts/?pos=131&kwd=folding stroller&tags=CC||||8229.666||product|||NA|rsf:gd-|-qr_nm:gd|res:RC3|com-cf:nl|ptrs:na|ktp:N0|mc:104570|mtp:S|qry_typ:P|lang:en|wc:2|cs:7580|v=4,False,Balakhadi,Vapi,"Opposite D.C.O High School, Shop No. 11, Anand Apartment, Balakhadi, Vapi - 396125, Dist.Valsad, Gujarat",8043819573,
Baby Stroller,,B.N.R Trading Company,https://www.indiamart.com/bnr-trading-company/?pos=132&kwd=folding stroller&tags=CC||||9644.414||product|||NA|rsf:gd-|-qr_nm:gd|res:RC3|com-cf:nl|ptrs:na|ktp:N0|mc:104570|mtp:S|qry_typ:P|lang:en|wc:2|cs:7580|v=4,False,Hirapur,Dhanbad,",OPPSITE POLICE LINE GROUND,,POLICE LINE,HIRAPUR, Dhanbad, Hirapur, Dhanbad - 826001, Dist.Dhanbad, Jharkhand",8062245113,935
Baby Stroller,,Dewan Chand Chaman Lal,https://www.indiamart.com/dewan-chand-chaman/?pos=133&kwd=folding stroller&tags=CC||||8752.144||product|||NA|rsf:gd-|-qr_nm:gd|res:RC3|com-cf:nl|ptrs:na|ktp:N0|mc:104570|mtp:S|qry_typ:P|lang:en|wc:2|cs:7580|v=4,False,Jhandewalan,New Delhi,"108- A, Opposite Videocon Tower, DDA Cycle Market Jhandewalan, Jhandewalan, New Delhi - 110055, Dist.Delhi, Delhi",8047831155,
Baby Stroller,,Kiran Enterprises,https://www.indiamart.com/kiran-enterprisnew-delhi/?pos=134&kwd=folding stroller&tags=CC||||8752.144||product|||NA|rsf:gd-|-qr_nm:gd|res:RC3|com-cf:nl|ptrs:na|ktp:N0|mc:104570|mtp:S|qry_typ:P|lang:en|wc:2|cs:7580|v=4,False,Rohini Sector -18,New Delhi,"F-15, Suraj Park, Rohini Sector -18, Rohini Sector -18, New Delhi - 110085, Dist.Delhi, Delhi",8048247112,1619
Baby Stroller,,Sushma Tandon,https://www.indiamart.com/toystation-more-ludhiana/?pos=135&kwd=folding stroller&tags=CC||||8661.854||product|||NA|rsf:gd-|-qr_nm:gd|res:RC3|com-cf:nl|ptrs:na|ktp:N0|mc:104570|mtp:S|qry_typ:P|lang:en|wc:2|cs:7580|v=4,False,HIG Flates,Ludhiana,",5-GF,HIG FLAT,RANI JHANSI ROAD,CIVIL LINES,Punjab,141001, HIG Flates, Ludhiana - 141001, Dist.Ludhiana, Punjab",8048372633,509
Baby Stroller,,Little Baby,https://www.indiamart.com/little-babymumbai/?pos=136&kwd=folding stroller&tags=CC||||8211.142||product|||NA|rsf:gd-|-qr_nm:gd|res:RC3|com-cf:nl|ptrs:na|ktp:N0|mc:104570|mtp:S|qry_typ:P|lang:en|wc:2|cs:7580|v=4,False,Saifee Manzil,Mumbai,"103, Sarang Street, 1st Floor, Shop No. 1, Saifee Manzil, Mumbai - 400003, Dist.Mumbai, Maharashtra",8048247115,5635
Baby Stroller,,Diamond Caps,https://www.indiamart.com/diamond-caps/?pos=137&kwd=folding stroller&tags=CC||||8786.56||product|||NA|rsf:gd-|-qr_nm:gd|res:RC3|com-cf:nl|ptrs:na|ktp:N0|mc:104570|mtp:S|qry_typ:P|lang:en|wc:2|cs:7580|v=4,False,Begumbazar,Hyderabad,"Shop No. 17, Sri Krshna Plaza, Feelkhana, Begumbazar, Hyderabad - 500012, Dist.Hyderabad, Telangana",8048247131,6897
Baby Ride Stroller,,Wonder Multi Store,https://www.indiamart.com/srs-ent/?pos=138&kwd=folding stroller&tags=CC||||8556.61|Price|product|||NA|rsf:gd-|-qr_nm:gd|res:RC3|com-cf:nl|ptrs:na|ktp:N0|mc:104570|mtp:S|qry_typ:P|lang:en|wc:2|cs:7580|v=4,False,,Mysore,"Ground Floor And Cellar D No 13/a Sathya Marga Siddartha Layout Near Gss School, Mysore - 570011, Dist.Mysuru, Karnataka",8048372744,588
Baby Jogger Stroller,,Independent Seller,https://www.indiamart.com/independent-seller-gurgaon/?pos=139&kwd=folding stroller&tags=CC||||8741.812|Price|product|||NA|rsf:gd-|-qr_nm:gd|res:RC3|com-cf:nl|ptrs:na|ktp:N0|mc:104570|mtp:S|qry_typ:P|lang:en|wc:2|cs:7580|v=4,False,Near Hayatpur,Gurgaon,"A-021, 2nd Floor, Tower A, Raheja Navodaya, Sector 92, Near Hayatpur, Near Hayatpur, Gurgaon - 122505, Dist.Gurgaon, Haryana",8048263500,605
Mother-care Nanu Stroller,,Royal Baby,https://www.indiamart.com/royal-baby/?pos=140&kwd=folding stroller&tags=CC||||8226.563||product|||NA|rsf:gd-|-qr_nm:gd|res:RC3|com-cf:nl|ptrs:na|ktp:N0|mc:104570|mtp:S|qry_typ:P|lang:en|wc:2|cs:7580|v=4,False,Sector 17,Navi Mumbai,"Shop No 12, Plot No -1,Nerul, Sector 17, Navi Mumbai - 400706, Dist.Thane, Maharashtra",8069196744,220
Stroller Travel System,,planet toys,https://www.indiamart.com/planet-toys/?pos=141&kwd=folding stroller&tags=CC||||8915.672||product|||NA|rsf:gd-|-qr_nm:gd|res:RC3|com-cf:nl|ptrs:na|ktp:N0|mc:104570|mtp:S|qry_typ:P|lang:en|wc:2|cs:7580|v=4,False,Pat Pat Sarai,Moradabad,"Ganj Bazar Near Neem Ka Piyau , Moradabad, Pat Pat Sarai, Moradabad - 244001, Dist.Moradabad, Uttar Pradesh",8047309005,3679
Luvlap Baby Stroller,,SPS Traders,https://www.indiamart.com/sps-traders-roorkee/?pos=142&kwd=folding stroller&tags=CC||||8841.674||product|||NA|rsf:gd-|-qr_nm:gd|res:RC3|com-cf:nl|ptrs:na|ktp:N0|mc:104570|mtp:S|qry_typ:P|lang:en|wc:2|cs:7580|v=4,False,nagar,Roorkee,"new adarsh, nagar, Roorkee - 247667, Dist.Haridwar, Uttarakhand",8047677780,
Baby Stroller BF-889C,,Manisha Intarnational Private Limited,https://www.indiamart.com/manisha-international-india/?pos=143&kwd=folding stroller&tags=CC||||8752.144||product|||NA|rsf:gd-|-qr_nm:gd|res:RC3|com-cf:nl|ptrs:na|ktp:N0|mc:104570|mtp:S|qry_typ:P|lang:en|wc:2|cs:7580|v=4,False,Saidulajab,New Delhi,"No. 1- A, First Floor, Khasra No. 275, Westend Marg, Saidulajab, Saidulajab, New Delhi - 110030, Dist.Delhi, Delhi",8047689247,
Luxury Baby Stroller,,Trailstory Production,https://www.indiamart.com/trailstoryproduction/?pos=144&kwd=folding stroller&tags=CC||||8752.144||product|||NA|rsf:gd-|-qr_nm:gd|res:RC3|com-cf:nl|ptrs:na|ktp:N0|mc:104570|mtp:S|qry_typ:P|lang:en|wc:2|cs:7580|v=4,False,lajpat nagar,New Delhi,"B-112 Lajpat Nagar , Part-1, lajpat nagar, New Delhi - 110017, Dist.Delhi, Delhi",8062245034,487
LuvLap Sunshine Best Stroller Pram,,Dream Interio Pune,https://www.indiamart.com/dream-interio-pune/?pos=145&kwd=folding stroller&tags=CC||||8307.81||product|||NA|rsf:gd-|-qr_nm:gd|res:RC3|com-cf:nl|ptrs:na|ktp:N0|mc:104570|mtp:S|qry_typ:P|lang:en|wc:2|cs:7580|v=4,False,Kondhwa Budruk,Pune,"Khadi Machine, Kondhwa Budruk, Pune - 411048, Dist.Pune, Maharashtra",8069264881,554
"Ginny And Johnny Stroller - Compact Fold, Dual Basket, Multi-Position Recline Seat, Rear Brake",,R For Rabbit Baby Products Pvt Ltd,https://www.indiamart.com/r-for-rabbit-baby-products-pvt-ltd/?pos=146&kwd=folding stroller&tags=CC||||8228.275|Price|product|||NA|rsf:gd-|-qr_nm:gd|res:RC3|com-cf:nl|ptrs:na|ktp:N0|mc:104570|mtp:S|qry_typ:P|lang:en|wc:2|cs:7580|v=4,False,,Ahmedabad,"888/807/810,fp-25,28,t 708 Prahladnagar Area Opp.royal Archade Pinnacle, Ahmedabad - 380015, Dist.Ahmedabad, Gujarat",8048249951,595
Baby Strollers,,Anmol Baby Cycle,https://www.indiamart.com/anmol-baby-cycle-mumbai/?pos=147&kwd=folding stroller&tags=CC||||8211.142||product|||NA|rsf:gd-|-qr_nm:gd|res:RC3|com-cf:nl|ptrs:na|ktp:N0|mc:104570|mtp:S|qry_typ:P|lang:en|wc:2|cs:7580|v=4,False,Ghatkopar West,Mumbai,"Shed No. 11, L.B.S. Marg, Harichand Textile Mill Compound, Vikhroli, Ghatkopar West, Mumbai - 400079, Dist.Mumbai, Maharashtra",8047518830,
Baby Strollers,,Comfort Creations Private Limited,https://www.indiamart.com/comfort-creations-pvt-ltd/?pos=148&kwd=folding stroller&tags=CC||||8752.144||product|||NA|rsf:gd-|-qr_nm:gd|res:RC3|com-cf:nl|ptrs:na|ktp:N0|mc:104570|mtp:S|qry_typ:P|lang:en|wc:2|cs:7580|v=4,False,Jhilmil Industrial Area,New Delhi,"No. 22, BSI Dsidc , Jhilmil Industrial Area, Jhilmil Industrial Area, New Delhi - 110095, Dist.Delhi, Delhi",8043869155,
Sunbaby Devine Roller,,Ahuja Traders,https://www.indiamart.com/ahuja-traders-cycle-dealer/?pos=149&kwd=folding stroller&tags=CC||||8915.672|Price|product|||NA|rsf:gd-|-qr_nm:gd|res:RC3|com-cf:nl|ptrs:na|ktp:N0|mc:104570|mtp:S|qry_typ:P|lang:en|wc:2|cs:7580|v=4,False,kunwar cinema,Moradabad,"Station Road, Kunwar Cinema, kunwar cinema, Moradabad - 244001, Dist.Moradabad, Uttar Pradesh",8048372756,374
Baby Stoller,,5-Star Toy Mall,https://www.indiamart.com/5-star-toy-mall/?pos=150&kwd=folding stroller&tags=CC||||8230.883||product|||NA|rsf:gd-|-qr_nm:gd|res:RC3|com-cf:nl|ptrs:na|ktp:N0|mc:104570|mtp:S|qry_typ:P|lang:en|wc:2|cs:7580|v=4,False,Honey Park,Surat,"G-2/3, Dayaliji Park Building, Opp. Ayodhiya Nagari, Nr. Anavil Petrol Pump, Patel Pragati Mandal Wadi, Adajan, Honey Park, Surat - 395009, Dist.Surat, Gujarat",8047518753,
Twin Z Fold Premium Travel Stroller Blue (Small Fold Stroller),,Hunyhuny Overseas Private Limited,https://www.indiamart.com/hunyhuny-overseas-private-limited-gurugram/?pos=151&kwd=folding stroller&tags=||||8741.812|Price|product|||NA|rsf:gd-|-qr_nm:gd|res:RC3|com-cf:nl|ptrs:na|ktp:N0|mc:104570|mtp:S|qry_typ:P|lang:en|wc:2|cs:7580|v=4,False,,Gurugram,"L.g Floor Lg-46 Mehrauli Gurgaon Road Metropolis Mall, Gurugram - 122002, Dist.Gurgaon, Haryana",8069196758,448
StarAndDaisy Coballe Smart Folding Travel Luxury Stroller - Grey,,Boho Baby,https://www.indiamart.com/boho-baby/?pos=152&kwd=folding stroller&tags=||||8571.301||product|||NA|rsf:gd-|-qr_nm:gd|res:RC3|com-cf:nl|ptrs:na|ktp:N0|mc:104570|mtp:S|qry_typ:P|lang:en|wc:2|cs:7580|v=4,False,Hari Har Complex,Thiruvananthapuram,"Ground Floor Shop No 30 Ambattur, Hari Har Complex, Thiruvananthapuram - 695101, Dist.Thiruvananthapuram, Kerala",8048372844,356
