product_title,product_link,company_name,company_link,is_verified_exporter,city_region,city,address_details,phone_number,phone_number_extension
Adults & Patients Pull Ups Friends Easy Adult Diapers Large,https://www.indiamart.com/proddetail/friends-easy-adult-diapers-large-2850127040191.html?pos=1&kwd=friends adult diapers&tags=A||||8752.144|Price|product|||TS|rsf:gd-|-stype:attr=1-br|qr_nm:gd|res:RC4|com-cf:nl|ptrs:na|ktp:N0|mc:184743|mtp:S|qry_typ:P|lang:en|wc:3|flavl:0|cs:9912|v=4,Recherche World,https://www.rechercheworld.co.in/?pos=1&kwd=friends adult diapers&tags=A||||8752.144|Price|product|||TS|rsf:gd-|-stype:attr=1-br|qr_nm:gd|res:RC4|com-cf:nl|ptrs:na|ktp:N0|mc:184743|mtp:S|qry_typ:P|lang:en|wc:3|flavl:0|cs:9912|v=4,False,Pandav Nagar,New Delhi,"Near Gurudwara, Ground Floor, A-13-14, Gali No.01, Pandav Nagar, East Delhi, Pandav Nagar, New Delhi - 110092, Dist.Delhi, Delhi",8047312171,
"Friends Adult Diapers, Size: Medium",https://www.indiamart.com/proddetail/friends-adult-diapers-2850791515933.html?pos=2&kwd=friends adult diapers&tags=A||||8211.142|Price|product|||TS|rsf:gd-|-stype:attr=1-br|qr_nm:gd|res:RC4|com-cf:nl|ptrs:na|ktp:N0|mc:184743|mtp:S|qry_typ:P|lang:en|wc:3|flavl:0|cs:9912|v=4,Shree Surgicals,https://www.indiamart.com/shreesurgicalsmumbai/?pos=2&kwd=friends adult diapers&tags=A||||8211.142|Price|product|||TS|rsf:gd-|-stype:attr=1-br|qr_nm:gd|res:RC4|com-cf:nl|ptrs:na|ktp:N0|mc:184743|mtp:S|qry_typ:P|lang:en|wc:3|flavl:0|cs:9912|v=4,False,Parel,Mumbai,"Shop No. 8,Atit Shopping Enterprise Pvt Ltd,J P Road,Mumbai, Parel, Mumbai - 400053, Dist.Mumbai, Maharashtra",7942817071,
"Friends Large Pull Ups Adult Diaper, 10 Pic",https://www.indiamart.com/proddetail/friends-large-pull-ups-adult-diaper-26403635797.html?pos=3&kwd=friends adult diapers&tags=A||||8281.036|Price|product|||TS|rsf:gd-|-stype:attr=1-br|qr_nm:gd|res:RC4|com-cf:nl|ptrs:na|ktp:N0|mc:184743|mtp:S|qry_typ:P|lang:en|wc:3|flavl:0|cs:9912|v=4,Novelty Hosiery,https://www.indiamart.com/novelty-hosiery/?pos=3&kwd=friends adult diapers&tags=A||||8281.036|Price|product|||TS|rsf:gd-|-stype:attr=1-br|qr_nm:gd|res:RC4|com-cf:nl|ptrs:na|ktp:N0|mc:184743|mtp:S|qry_typ:P|lang:en|wc:3|flavl:0|cs:9912|v=4,False,Chokshi Bazar,Vadodara,"M G Road 00 Laheripura Gate Nr Angadiya Gali, Chokshi Bazar, Vadodara - 390001, Dist.Vadodara, Gujarat",7942565948,
"Friends Adult Diapers, Size: Large",https://www.indiamart.com/proddetail/friends-adult-diapers-2852883815330.html?pos=4&kwd=friends adult diapers&tags=A||||8211.142|Price|product|||TS|rsf:gd-|-stype:attr=1-br|qr_nm:gd|res:RC4|com-cf:nl|ptrs:na|ktp:N0|mc:184743|mtp:S|qry_typ:P|lang:en|wc:3|flavl:0|cs:9912|v=4,S N Surgicals,https://www.indiamart.com/snsurgicals-mumbai/?pos=4&kwd=friends adult diapers&tags=A||||8211.142|Price|product|||TS|rsf:gd-|-stype:attr=1-br|qr_nm:gd|res:RC4|com-cf:nl|ptrs:na|ktp:N0|mc:184743|mtp:S|qry_typ:P|lang:en|wc:3|flavl:0|cs:9912|v=4,False,Dahisar,Mumbai,"Shop No. G-16, Sai Krupa Mall, LT Road, Opp Railway Station, Dahisar West Suburban, Dahisar, Mumbai - 400068, Dist.Mumbai, Maharashtra",7942968320,
"Stick On Friends Adult Diapers Medium, Waist Size: 29""-40'', 1",https://www.indiamart.com/proddetail/friends-adult-diapers-medium-20085049062.html?pos=5&kwd=friends adult diapers&tags=A||||8211.142|Price|product|||SSnp|rsf:gd-|-stype:attr=1-br|qr_nm:gd|res:RC4|com-cf:nl|ptrs:na|ktp:N0|mc:184743|mtp:S|qry_typ:P|lang:en|wc:3|flavl:0|cs:9912|v=4,PAC Healthcare & Surgicals,https://www.healthcaredealer.in/?pos=5&kwd=friends adult diapers&tags=A||||8211.142|Price|product|||SSnp|rsf:gd-|-stype:attr=1-br|qr_nm:gd|res:RC4|com-cf:nl|ptrs:na|ktp:N0|mc:184743|mtp:S|qry_typ:P|lang:en|wc:3|flavl:0|cs:9912|v=4,False,Borivali West,Mumbai,"5, Bill Berry Apartment, I. C. Colony, Borivali West, Mumbai - 400103, Dist.Mumbai, Maharashtra",8048960800,
Friends Adult Diapers Pants Xl,https://www.indiamart.com/proddetail/friends-adult-diapers-pants-xl-2853951653791.html?pos=6&kwd=friends adult diapers&tags=A||||8876.815|Price|product|||TS|rsf:gd-|-stype:attr=1-br|qr_nm:gd|res:RC4|com-cf:nl|ptrs:na|ktp:N0|mc:184743|mtp:S|qry_typ:P|lang:en|wc:3|flavl:0|cs:9912|v=4,Jindal Tradelinks,https://www.indiamart.com/jindaltradelinksnagpur/?pos=6&kwd=friends adult diapers&tags=A||||8876.815|Price|product|||TS|rsf:gd-|-stype:attr=1-br|qr_nm:gd|res:RC4|com-cf:nl|ptrs:na|ktp:N0|mc:184743|mtp:S|qry_typ:P|lang:en|wc:3|flavl:0|cs:9912|v=4,False,Sitabuldi,Nagpur,"House No. 330, Jindal House, Sitabuldi, Nagpur - 440012, Dist.Nagpur, Maharashtra",7942536296,
Friends Adult Diapers,https://www.indiamart.com/proddetail/friends-adult-diapers-2852623891773.html?pos=7&kwd=friends adult diapers&tags=A||||8954.051|Price|product|||TS|rsf:gd-|-stype:attr=1-br|qr_nm:gd|res:RC4|com-cf:nl|ptrs:na|ktp:N0|mc:184743|mtp:S|qry_typ:P|lang:en|wc:3|flavl:0|cs:9912|v=4,Chris Merchant Private Limited,https://www.chrismerchant.co.in/?pos=7&kwd=friends adult diapers&tags=A||||8954.051|Price|product|||TS|rsf:gd-|-stype:attr=1-br|qr_nm:gd|res:RC4|com-cf:nl|ptrs:na|ktp:N0|mc:184743|mtp:S|qry_typ:P|lang:en|wc:3|flavl:0|cs:9912|v=4,False,Koyambedu,Chennai,"No. 5, Poonamalee High Road, Koyambedu, Chennai - 600107, Dist.Chennai, Tamil Nadu",8048956521,
"Belted Undergarments Friends Adult Diapers, Waist Size: 38-60 inches, Size: Large",https://www.indiamart.com/proddetail/friends-adult-diapers-21048860262.html?pos=8&kwd=friends adult diapers&tags=A||||8211.142|Price|product|||LSnp|rsf:gd-|-stype:attr=1-br|qr_nm:gd|res:RC4|com-cf:nl|ptrs:na|ktp:N0|mc:184743|mtp:S|qry_typ:P|lang:en|wc:3|flavl:0|cs:9912|v=4,Maxtech,https://www.maxtechhealth.in/?pos=8&kwd=friends adult diapers&tags=A||||8211.142|Price|product|||LSnp|rsf:gd-|-stype:attr=1-br|qr_nm:gd|res:RC4|com-cf:nl|ptrs:na|ktp:N0|mc:184743|mtp:S|qry_typ:P|lang:en|wc:3|flavl:0|cs:9912|v=4,False,Rani Sati Marg,Mumbai,"Shop No. 10, Pragati Shopping Centre Manchu Bhai Road, Rani Sati Marg, Mumbai - 400097, Dist.Mumbai, Maharashtra",8048970842,
"Friends Adult Diaper, Size: Medium",https://www.indiamart.com/proddetail/friends-adult-diaper-2850802807833.html?pos=9&kwd=friends adult diapers&tags=A||||8211.142|Price|product|||MDC|rsf:gd-|-stype:attr=1-br|qr_nm:gd|res:RC4|com-cf:nl|ptrs:na|ktp:N0|mc:184743|mtp:S|qry_typ:P|lang:en|wc:3|flavl:0|cs:9912|v=4,Fine Health Care,https://www.indiamart.com/fine-health-care/?pos=9&kwd=friends adult diapers&tags=A||||8211.142|Price|product|||MDC|rsf:gd-|-stype:attr=1-br|qr_nm:gd|res:RC4|com-cf:nl|ptrs:na|ktp:N0|mc:184743|mtp:S|qry_typ:P|lang:en|wc:3|flavl:0|cs:9912|v=4,False,Kandivali East Mumbai Suburban,Mumbai,"GR19, Wing-J, Shree Gokul Garden CHS LTD, Thakur Complex, W E Highway, NR Camre School, Kandivali East Mumbai Suburban, Mumbai - 400101, Dist.Mumbai, Maharashtra",7949324611,
"Briefs Friends Disposable Adult Diaper, Size: Large",https://www.indiamart.com/proddetail/friends-disposable-adult-diaper-2853156175755.html?pos=10&kwd=friends adult diapers&tags=A||||8954.051|Price|product|||TS|rsf:gd-|-stype:attr=1-br|qr_nm:gd|res:RC4|com-cf:nl|ptrs:na|ktp:N0|mc:184743|mtp:S|qry_typ:P|lang:en|wc:3|flavl:0|cs:9912|v=4,Murugan Surgicals,https://www.murugansurgicals.co.in/?pos=10&kwd=friends adult diapers&tags=A||||8954.051|Price|product|||TS|rsf:gd-|-stype:attr=1-br|qr_nm:gd|res:RC4|com-cf:nl|ptrs:na|ktp:N0|mc:184743|mtp:S|qry_typ:P|lang:en|wc:3|flavl:0|cs:9912|v=4,False,Mint Building,Chennai,"Old No.34/35 Newno.87, Walltax Road, Mint Building, Chennai - 600001, Dist.Chennai, Tamil Nadu",8048974268,
"Pull Ups Friends Adult Diapers, Size: XL, 10",https://www.indiamart.com/proddetail/friends-adult-diapers-21934206533.html?pos=11&kwd=friends adult diapers&tags=A||||8954.051|Price|product|||TS|rsf:gd-|-stype:attr=1-br|qr_nm:gd|res:RC4|com-cf:nl|ptrs:na|ktp:N0|mc:184743|mtp:S|qry_typ:P|lang:en|wc:3|flavl:0|cs:9912|v=4,Sri Sai Surgicals,https://www.indiamart.com/sai-surgicalchennai/?pos=11&kwd=friends adult diapers&tags=A||||8954.051|Price|product|||TS|rsf:gd-|-stype:attr=1-br|qr_nm:gd|res:RC4|com-cf:nl|ptrs:na|ktp:N0|mc:184743|mtp:S|qry_typ:P|lang:en|wc:3|flavl:0|cs:9912|v=4,False,Aminijikarai,Chennai,"New No.20,old No.43 Rajeswari Street Chennai Chennai, Aminijikarai, Chennai - 600029, Dist.Chennai, Tamil Nadu",7942535047,
Friends Adult Diapers (Pack of 8),https://www.indiamart.com/proddetail/friends-adult-diapers-18357991588.html?pos=12&kwd=friends adult diapers&tags=A||||8211.142|Price|product|||TS|rsf:gd-|-stype:attr=1-br|qr_nm:gd|res:RC4|com-cf:nl|ptrs:na|ktp:N0|mc:184743|mtp:S|qry_typ:P|lang:en|wc:3|flavl:0|cs:9912|v=4,Shah Trading Corporation,https://www.indiamart.com/shahtrading-corp/?pos=12&kwd=friends adult diapers&tags=A||||8211.142|Price|product|||TS|rsf:gd-|-stype:attr=1-br|qr_nm:gd|res:RC4|com-cf:nl|ptrs:na|ktp:N0|mc:184743|mtp:S|qry_typ:P|lang:en|wc:3|flavl:0|cs:9912|v=4,False,Kalbadevi,Mumbai,"Room No. 35, 2nd Floor, Shri Krishna Niwas 500, Kalbadevi Road, New Silk Bazar, Kalbadevi, Mumbai - 400002, Dist.Mumbai, Maharashtra",8046042417,
Tap Style Friends Adult Diaper OvernightXL,https://www.indiamart.com/proddetail/friends-adult-diaper-overnightxl-2852425826155.html?pos=13&kwd=friends adult diapers&tags=A||||8954.051|Price|product|||TS|rsf:gd-|-stype:attr=1-br|qr_nm:gd|res:RC4|com-cf:nl|ptrs:na|ktp:N0|mc:184743|mtp:S|qry_typ:P|lang:en|wc:3|flavl:0|cs:9912|v=4,Gayathri Medicare,https://www.indiamart.com/gayathri-medicarechennai/?pos=13&kwd=friends adult diapers&tags=A||||8954.051|Price|product|||TS|rsf:gd-|-stype:attr=1-br|qr_nm:gd|res:RC4|com-cf:nl|ptrs:na|ktp:N0|mc:184743|mtp:S|qry_typ:P|lang:en|wc:3|flavl:0|cs:9912|v=4,False,West Mambalam.. 12 sai tower.station road.,Chennai,"No 48,Basement Floor, B-5,Navins Aishwarya Apartment,Brindavan Street,Chennai, West Mambalam.. 12 sai tower.station road., Chennai - 600033, Dist.Chennai, Tamil Nadu",8047552428,
"Friends Easy Adult Diaper, Size: Medium",https://www.indiamart.com/proddetail/friends-easy-adult-diaper-23724265730.html?pos=14&kwd=friends adult diapers&tags=A||||8211.142|Price|product|||TS|rsf:gd-|-stype:attr=1-br|qr_nm:gd|res:RC4|com-cf:nl|ptrs:na|ktp:N0|mc:184743|mtp:S|qry_typ:P|lang:en|wc:3|flavl:0|cs:9912|v=4,Manu Healthcare,https://www.manuhealthcareandsurgical.com/?pos=14&kwd=friends adult diapers&tags=A||||8211.142|Price|product|||TS|rsf:gd-|-stype:attr=1-br|qr_nm:gd|res:RC4|com-cf:nl|ptrs:na|ktp:N0|mc:184743|mtp:S|qry_typ:P|lang:en|wc:3|flavl:0|cs:9912|v=4,False,Kandivali West,Mumbai,"Block D 16, Lijjat Godavari Chs New Dahanukar Wadi, Shivaji X Rd, Kandivl Vinayak Hospital, Kandivali West, Mumbai - 400067, Dist.Mumbai, Maharashtra",8048972911,
"30-100 Age Protective Underwear Friends Overnight Adults Diaper Pants, Size: XL",https://www.indiamart.com/proddetail/friends-overnight-adults-diaper-pants-26936093673.html?pos=15&kwd=friends adult diapers&tags=A||||8211.142|Price|product|||TS|rsf:gd-|-stype:attr=1-br|qr_nm:gd|res:RC4|com-cf:nl|ptrs:na|ktp:N0|mc:184743|mtp:S|qry_typ:P|lang:en|wc:3|cs:9149|v=4,GBSS Enterprises,https://www.indiamart.com/gbss-enterprise/?pos=15&kwd=friends adult diapers&tags=A||||8211.142|Price|product|||TS|rsf:gd-|-stype:attr=1-br|qr_nm:gd|res:RC4|com-cf:nl|ptrs:na|ktp:N0|mc:184743|mtp:S|qry_typ:P|lang:en|wc:3|cs:9149|v=4,False,Kandivali West,Mumbai,"Sector-2, Plot No-202, Room No C-3, Sagar C.H.S.L, Charkop, Kandivali West, Charkhop, Kandivali West, Mumbai - 400067, Dist.Mumbai, Maharashtra",8047820540,
"Tape Style Friends Adult Diapers, Size: Large",https://www.indiamart.com/proddetail/friends-adult-diapers-23255184833.html?pos=16&kwd=friends adult diapers&tags=A||||8663.873|Price|product|||TS|rsf:gd-|-stype:attr=1-br|qr_nm:gd|res:RC4|com-cf:nl|ptrs:na|ktp:N0|mc:184743|mtp:S|qry_typ:P|lang:en|wc:3|cs:9149|v=4,Rajendra Surgicals,https://www.rajendrasurgicals.com/?pos=16&kwd=friends adult diapers&tags=A||||8663.873|Price|product|||TS|rsf:gd-|-stype:attr=1-br|qr_nm:gd|res:RC4|com-cf:nl|ptrs:na|ktp:N0|mc:184743|mtp:S|qry_typ:P|lang:en|wc:3|cs:9149|v=4,False,Rajajinagar,Bengaluru,"Ground Floor, 3rd Block, No.210/38, Skanda, Dr Mallegowda Street, 50th Cross, Rajajinagar, Rajajinagar, Bengaluru - 560010, Dist.Bengaluru, Karnataka",8048961624,
"Friends Adult Diapers, Size: XL",https://www.indiamart.com/proddetail/friends-adult-diapers-2854338408773.html?pos=17&kwd=friends adult diapers&tags=A||||8954.051|Price|product|||TS|rsf:gd-|-stype:attr=1-br|qr_nm:gd|res:RC4|com-cf:nl|ptrs:na|ktp:N0|mc:184743|mtp:S|qry_typ:P|lang:en|wc:3|cs:9149|v=4,Happy Zone Health Store,https://www.happyzonehealthstore.com/?pos=17&kwd=friends adult diapers&tags=A||||8954.051|Price|product|||TS|rsf:gd-|-stype:attr=1-br|qr_nm:gd|res:RC4|com-cf:nl|ptrs:na|ktp:N0|mc:184743|mtp:S|qry_typ:P|lang:en|wc:3|cs:9149|v=4,False,Mylapore,Chennai,"NO.61 NACHIAPPA ST,MYLAPORE, Mylapore, Chennai - 600004, Dist.Chennai, Tamil Nadu",8046074663,
"Cotton Disposable Friends Pullups Adult Diaper, Size: L-XL",https://www.indiamart.com/proddetail/friends-pullups-adult-diaper-22272350162.html?pos=18&kwd=friends adult diapers&tags=A||||8228.275|Price|product|||TS|rsf:gd-|-stype:attr=1-br|qr_nm:gd|res:RC4|com-cf:nl|ptrs:na|ktp:N0|mc:184743|mtp:S|qry_typ:P|lang:en|wc:3|cs:9149|v=4,First Choice Surgicals,https://www.indiamart.com/first-choice-surgicals/?pos=18&kwd=friends adult diapers&tags=A||||8228.275|Price|product|||TS|rsf:gd-|-stype:attr=1-br|qr_nm:gd|res:RC4|com-cf:nl|ptrs:na|ktp:N0|mc:184743|mtp:S|qry_typ:P|lang:en|wc:3|cs:9149|v=4,False,Ellisbridge,Ahmedabad,"4, Upper Level, Park Avenue Complex, Parimal Garden Cross Roads, Ellisbridge, Ahmedabad - 380006, Dist.Ahmedabad, Gujarat",8048262878,
Velcro Type Friends Overnight 16hrs Adult Diaper,https://www.indiamart.com/proddetail/friends-overnight-16hrs-adult-diaper-25695578212.html?pos=19&kwd=friends adult diapers&tags=A||||8706.587|Price|product|||TS|rsf:gd-|-stype:attr=1-br|qr_nm:gd|res:RC4|com-cf:nl|ptrs:na|ktp:N0|mc:184743|mtp:S|qry_typ:P|lang:en|wc:3|cs:9149|v=4,Aruna Agencies,https://www.arunaagencies.in/?pos=19&kwd=friends adult diapers&tags=A||||8706.587|Price|product|||TS|rsf:gd-|-stype:attr=1-br|qr_nm:gd|res:RC4|com-cf:nl|ptrs:na|ktp:N0|mc:184743|mtp:S|qry_typ:P|lang:en|wc:3|cs:9149|v=4,False,Simmakkal,Madurai,"Pooja Complex, No. 23, North Veli Street Ground Floor, Simmakkal, Simmakkal, Madurai - 625001, Dist.Madurai, Tamil Nadu",8048609760,
"Friends Adult Diapers, Size: Medium, Age Group: Newly Born",https://www.indiamart.com/proddetail/friends-adult-diapers-2853348622197.html?pos=20&kwd=friends adult diapers&tags=A||||8211.142|Price|product|||MDC|rsf:gd-|-stype:attr=1-br|qr_nm:gd|res:RC4|com-cf:nl|ptrs:na|ktp:N0|mc:184743|mtp:S|qry_typ:P|lang:en|wc:3|cs:9149|v=4,Lucky Health Care,https://www.indiamart.com/luckyhealthcare/?pos=20&kwd=friends adult diapers&tags=A||||8211.142|Price|product|||MDC|rsf:gd-|-stype:attr=1-br|qr_nm:gd|res:RC4|com-cf:nl|ptrs:na|ktp:N0|mc:184743|mtp:S|qry_typ:P|lang:en|wc:3|cs:9149|v=4,False,Malad East,Mumbai,"1st Floor, Shreya General Stores Ravi, Shankar Chawl Gen A K V Marg Malad, Navsha Compd Near Riddhi Garden, Suburban, Malad East, Mumbai - 400097, Dist.Mumbai, Maharashtra",7949227835,
"Friends Adult Diapers, Size: Medium, Age Group: Newly Born",https://www.indiamart.com/proddetail/friends-adult-diapers-21161868812.html?pos=21&kwd=friends adult diapers&tags=A||||8581.569|Price|product|||MDC|rsf:gd-|-stype:attr=1-br|qr_nm:gd|res:RC4|com-cf:nl|ptrs:na|ktp:N0|mc:184743|mtp:S|qry_typ:P|lang:en|wc:3|cs:9149|v=4,Fakhri Chemicals,https://www.indiamart.com/fakhri-chemicals/?pos=21&kwd=friends adult diapers&tags=A||||8581.569|Price|product|||MDC|rsf:gd-|-stype:attr=1-br|qr_nm:gd|res:RC4|com-cf:nl|ptrs:na|ktp:N0|mc:184743|mtp:S|qry_typ:P|lang:en|wc:3|cs:9149|v=4,False,,Dewas,"75, Haibat Rao Marg, Rajwada Road, Dewas - 455001, Dist.Dewas, Madhya Pradesh",7942640768,
"Friends Premium Adult Diapers, Size: Medium",https://www.indiamart.com/proddetail/friends-premium-adult-diapers-2852778358791.html?pos=22&kwd=friends adult diapers&tags=A||||8211.142|Price|product|||MDC|rsf:gd-|-stype:attr=1-br|qr_nm:gd|res:RC4|com-cf:nl|ptrs:na|ktp:N0|mc:184743|mtp:S|qry_typ:P|lang:en|wc:3|cs:9149|v=4,R M Pharma & Surgical,https://www.indiamart.com/rm-pharma-surgical/?pos=22&kwd=friends adult diapers&tags=A||||8211.142|Price|product|||MDC|rsf:gd-|-stype:attr=1-br|qr_nm:gd|res:RC4|com-cf:nl|ptrs:na|ktp:N0|mc:184743|mtp:S|qry_typ:P|lang:en|wc:3|cs:9149|v=4,False,Ghatkopar West Mumbai Suburban,Mumbai,"Ground Floor, Shop No 04, Sunil CHS Ltd, Sant Narsi Mehta Road, Shreevigna Harta Ganesh Temple, Ghatkopar West Mumbai Suburban, Mumbai - 400086, Dist.Mumbai, Maharashtra",8044458210,
"Economy Friends Adult Diapers, Size: XL",https://www.indiamart.com/proddetail/economy-friends-adult-diapers-2850346521891.html?pos=23&kwd=friends adult diapers&tags=A||||9839.57|Price|product|||MDC|rsf:gd-|-stype:attr=1-br|qr_nm:gd|res:RC4|com-cf:nl|ptrs:na|ktp:N0|mc:184743|mtp:S|qry_typ:P|lang:en|wc:3|cs:9149|v=4,Bagaria Agencies Private Limited,https://www.indiamart.com/bagariaagencies/?pos=23&kwd=friends adult diapers&tags=A||||9839.57|Price|product|||MDC|rsf:gd-|-stype:attr=1-br|qr_nm:gd|res:RC4|com-cf:nl|ptrs:na|ktp:N0|mc:184743|mtp:S|qry_typ:P|lang:en|wc:3|cs:9149|v=4,False,Barabazar Market,Kolkata,"Room No 10, Floor No 1, 12 Pollock Street, Kolkata, Barabazar Market, Kolkata - 700001, Dist.Kolkata, West Bengal",7942818112,
"Friends Adult Diapers, Size: Large",https://www.indiamart.com/proddetail/friends-adult-diapers-2854565188448.html?pos=24&kwd=friends adult diapers&tags=A||||8830.388|Price|product|||TS|rsf:gd-|-stype:attr=1-br|qr_nm:gd|res:RC4|com-cf:nl|ptrs:na|ktp:N0|mc:184743|mtp:S|qry_typ:P|lang:en|wc:3|cs:9149|v=4,Easeplus Healthcare Private Limited,https://www.ezoyplus.in/?pos=24&kwd=friends adult diapers&tags=A||||8830.388|Price|product|||TS|rsf:gd-|-stype:attr=1-br|qr_nm:gd|res:RC4|com-cf:nl|ptrs:na|ktp:N0|mc:184743|mtp:S|qry_typ:P|lang:en|wc:3|cs:9149|v=4,False,DD Nagar,Gwalior,"T 1298 K-61,Vrikampur Chouraha,Satabdipuram D D Nagar,Gwalior, DD Nagar, Gwalior - 474005, Dist.Gwalior, Madhya Pradesh",8048265864,
"Briefs Friends Easy Adult Diapers, Size: XL, 10",https://www.indiamart.com/proddetail/friends-easy-adult-diapers-2849911978812.html?pos=25&kwd=friends adult diapers&tags=A||||8899.625|Price|product|||TS|rsf:gd-|-stype:attr=1-br|qr_nm:gd|res:RC4|com-cf:nl|ptrs:na|ktp:N0|mc:184743|mtp:S|qry_typ:P|lang:en|wc:3|cs:9149|v=4,Sri Goutham Surgicals,https://www.indiamart.com/sri-goutham-surgicals/?pos=25&kwd=friends adult diapers&tags=A||||8899.625|Price|product|||TS|rsf:gd-|-stype:attr=1-br|qr_nm:gd|res:RC4|com-cf:nl|ptrs:na|ktp:N0|mc:184743|mtp:S|qry_typ:P|lang:en|wc:3|cs:9149|v=4,False,Heritage Town,Pondicherry,"First Floor 156, Ambalathadayar Madam Street Kosakadi Street, Heritage Town, Pondicherry - 605001, Dist.Pondicherry, Pondicherry",7942799905,
Friends Overnight Adult Diaper,https://www.indiamart.com/proddetail/friends-overnight-adult-diaper-15681242873.html?pos=26&kwd=friends adult diapers&tags=A||||8954.051|Price|product|||TS|rsf:gd-|-stype:attr=1-br|qr_nm:gd|res:RC4|com-cf:nl|ptrs:na|ktp:N0|mc:184743|mtp:S|qry_typ:P|lang:en|wc:3|cs:9149|v=4,Thiripura Agencies,https://www.indiamart.com/thiripura-agencies/?pos=26&kwd=friends adult diapers&tags=A||||8954.051|Price|product|||TS|rsf:gd-|-stype:attr=1-br|qr_nm:gd|res:RC4|com-cf:nl|ptrs:na|ktp:N0|mc:184743|mtp:S|qry_typ:P|lang:en|wc:3|cs:9149|v=4,False,Vadapalani,Chennai,"87/38 Aadimula Perumal Koil Street Vadapalani, Vadapalani, Chennai - 600026, Dist.Chennai, Tamil Nadu",8047640570,
Friends Overnight Adult Diaper,https://www.indiamart.com/proddetail/friends-overnight-adult-diaper-2851647702030.html?pos=27&kwd=friends adult diapers&tags=A||||8954.051|Price|product|||TS|rsf:gd-|-stype:attr=1-br|qr_nm:gd|res:RC4|com-cf:nl|ptrs:na|ktp:N0|mc:184743|mtp:S|qry_typ:P|lang:en|wc:3|cs:9149|v=4,Amos Surgicals,https://www.indiamart.com/amos-health-tech/?pos=27&kwd=friends adult diapers&tags=A||||8954.051|Price|product|||TS|rsf:gd-|-stype:attr=1-br|qr_nm:gd|res:RC4|com-cf:nl|ptrs:na|ktp:N0|mc:184743|mtp:S|qry_typ:P|lang:en|wc:3|cs:9149|v=4,False,,Chennai,"129/1 Arcotroad Virugambakkam, Chennai - 600092, Dist.Chennai, Tamil Nadu",8046079606,
"18+ Pant Style Friends Adult Dry Pants, Size: XXL, 10 Pieces",https://www.indiamart.com/proddetail/friends-adult-dry-pants-25987081688.html?pos=28&kwd=friends adult diapers&tags=A||||8307.81|Price|product|||TS|rsf:gd-|-stype:attr=1-br|qr_nm:gd|res:RC4|com-cf:nl|ptrs:na|ktp:N0|mc:184743|mtp:S|qry_typ:P|lang:en|wc:3|cs:9149|v=4,Ecomed Solutions,https://www.indiamart.com/ecomedsolutions/?pos=28&kwd=friends adult diapers&tags=A||||8307.81|Price|product|||TS|rsf:gd-|-stype:attr=1-br|qr_nm:gd|res:RC4|com-cf:nl|ptrs:na|ktp:N0|mc:184743|mtp:S|qry_typ:P|lang:en|wc:3|cs:9149|v=4,False,Hadapsar,Pune,"Fld3/b403 Sn44a Sasane Nagar Vardhaman Township Hadapsar, Hadapsar, Pune - 411028, Dist.Pune, Maharashtra",8043853505,
Pull Ups Friends Adult Diaper Pants(classic)-extra Large,https://www.indiamart.com/proddetail/friends-adult-diaper-pants-classic-extra-large-23847920288.html?pos=29&kwd=friends adult diapers&tags=A||||8899.625|Price|product|||TS|rsf:gd-|-stype:attr=1-br|qr_nm:gd|res:RC4|com-cf:nl|ptrs:na|ktp:N0|mc:184743|mtp:S|qry_typ:P|lang:en|wc:3|cs:9149|v=4,Sadhguru Surgicals Private Limited,https://www.indiamart.com/sadhguru-surgicals/?pos=29&kwd=friends adult diapers&tags=A||||8899.625|Price|product|||TS|rsf:gd-|-stype:attr=1-br|qr_nm:gd|res:RC4|com-cf:nl|ptrs:na|ktp:N0|mc:184743|mtp:S|qry_typ:P|lang:en|wc:3|cs:9149|v=4,False,Thirubuvanai,Pondicherry,"First Floor, 104, 4th Cross Street, Ragavendra Nagar, Thirubuvanai, Thirubuvanai, Pondicherry - 605107, Dist.Pondicherry, Pondicherry",8047645074,
"Protective Underwear Friends Classic Adult Dry Pants, Size: Medium",https://www.indiamart.com/proddetail/friends-classic-adult-dry-pants-2849947701212.html?pos=30&kwd=friends adult diapers&tags=A||||8307.81|Price|product|||TS|rsf:gd-|-stype:attr=1-br|qr_nm:gd|res:RC4|com-cf:nl|ptrs:na|ktp:N0|mc:184743|mtp:S|qry_typ:P|lang:en|wc:3|cs:9149|v=4,MRM Healthcare,https://www.mrmhealthcare.com/?pos=30&kwd=friends adult diapers&tags=A||||8307.81|Price|product|||TS|rsf:gd-|-stype:attr=1-br|qr_nm:gd|res:RC4|com-cf:nl|ptrs:na|ktp:N0|mc:184743|mtp:S|qry_typ:P|lang:en|wc:3|cs:9149|v=4,False,Hadapsar,Pune,"Ground Floor Shope Number 1, H No 1355, Unit No 1 Suyog Apartment Chimnya Ganpati Chowk, Near Chimnya Ganpati Chowk. Bajirao Road Sadashiv Peth, Hadapsar, Pune - 411030, Dist.Pune, Maharashtra",7942800377,
"Friends Adult Diapers, Size: Large",https://www.indiamart.com/proddetail/friends-adult-diapers-21352837012.html?pos=31&kwd=friends adult diapers&tags=A||||8211.142|Price|product|||MDC|rsf:gd-|-stype:attr=1-br|qr_nm:gd|res:RC4|com-cf:nl|ptrs:na|ktp:N0|mc:184743|mtp:S|qry_typ:P|lang:en|wc:3|cs:9149|v=4,Aarav Surgical,https://www.indiamart.com/aarav-surgical/?pos=31&kwd=friends adult diapers&tags=A||||8211.142|Price|product|||MDC|rsf:gd-|-stype:attr=1-br|qr_nm:gd|res:RC4|com-cf:nl|ptrs:na|ktp:N0|mc:184743|mtp:S|qry_typ:P|lang:en|wc:3|cs:9149|v=4,False,Dahisar East,Mumbai,"Shop No. 05 A/5, Shanti Apartment, Chsl., C.S.C. Road No. 3 Near Shakti Nagar, Dahisar East, Mumbai - 400068, Dist.Mumbai, Maharashtra",8048261724,
"Friends Adult Diapers, Size: Medium",https://www.indiamart.com/proddetail/friends-adult-diapers-23155723055.html?pos=32&kwd=friends adult diapers&tags=A||||8476.868|Price|product|||MDC|rsf:gd-|-stype:attr=1-br|qr_nm:gd|res:RC4|com-cf:nl|ptrs:na|ktp:N0|mc:184743|mtp:S|qry_typ:P|lang:en|wc:3|cs:9149|v=4,Ramkrushna Pharma Distributors,https://www.indiamart.com/ramkrushna-pharma-distributors/?pos=32&kwd=friends adult diapers&tags=A||||8476.868|Price|product|||MDC|rsf:gd-|-stype:attr=1-br|qr_nm:gd|res:RC4|com-cf:nl|ptrs:na|ktp:N0|mc:184743|mtp:S|qry_typ:P|lang:en|wc:3|cs:9149|v=4,False,,Aurangabad,"Upper Floor, Shop No 10, Global Avenue, Paithan Gate, Chhatrapati Sambhaji Nagar, Aurangabad - 431001, Maharashtra",8043861084,
"Friends Adult Diapers Premium, Size: XL",https://www.indiamart.com/proddetail/friends-adult-diapers-premium-2853901069155.html?pos=33&kwd=friends adult diapers&tags=A||||8211.142|Price|product|||MDC|rsf:gd-|-stype:attr=1-br|qr_nm:gd|res:RC4|com-cf:nl|ptrs:na|ktp:N0|mc:184743|mtp:S|qry_typ:P|lang:en|wc:3|cs:9149|v=4,Vandana Enterprises,https://www.indiamart.com/vandanaenterprises-mumbai-maharashtra/?pos=33&kwd=friends adult diapers&tags=A||||8211.142|Price|product|||MDC|rsf:gd-|-stype:attr=1-br|qr_nm:gd|res:RC4|com-cf:nl|ptrs:na|ktp:N0|mc:184743|mtp:S|qry_typ:P|lang:en|wc:3|cs:9149|v=4,False,Jogeshwari East,Mumbai,"Chawl No 8, 12, Nasirkhan Rasulkhan Chawl, Meghwadi, Near Shiv Sena Office, Jogeshwari Suburban East, Jogeshwari East, Mumbai - 400060, Dist.Mumbai, Maharashtra",7949093226,
"Tape Medium Friends Easy Adult Diapers, 10",https://www.indiamart.com/proddetail/medium-friends-easy-adult-diapers-2850833910591.html?pos=34&kwd=friends adult diapers&tags=A||||8786.56|Price|product|||MDC|rsf:gd-|-stype:attr=1-br|qr_nm:gd|res:RC4|com-cf:nl|ptrs:na|ktp:N0|mc:184743|mtp:S|qry_typ:P|lang:en|wc:3|cs:9149|v=4,N K Corporation,https://www.indiamart.com/nkcorporation-telangana/?pos=34&kwd=friends adult diapers&tags=A||||8786.56|Price|product|||MDC|rsf:gd-|-stype:attr=1-br|qr_nm:gd|res:RC4|com-cf:nl|ptrs:na|ktp:N0|mc:184743|mtp:S|qry_typ:P|lang:en|wc:3|cs:9149|v=4,False,,Hyderabad,"14-3-239,Goshamahal,, Hyderabad - 500012, Dist.Hyderabad, Telangana",8048982215,
"50 Years Pull Ups Economy Friends Adult Diaper, Size: Xl",https://www.indiamart.com/proddetail/economy-friends-adult-diaper-24661383130.html?pos=35&kwd=friends adult diapers&tags=A||||8954.051|Price|product|||MDC|rsf:gd-|-stype:attr=1-br|qr_nm:gd|res:RC4|com-cf:nl|ptrs:na|ktp:N0|mc:184743|mtp:S|qry_typ:P|lang:en|wc:3|cs:9149|v=4,Sai Pharma & Surgical,https://www.indiamart.com/sai-pharma-surgical/?pos=35&kwd=friends adult diapers&tags=A||||8954.051|Price|product|||MDC|rsf:gd-|-stype:attr=1-br|qr_nm:gd|res:RC4|com-cf:nl|ptrs:na|ktp:N0|mc:184743|mtp:S|qry_typ:P|lang:en|wc:3|cs:9149|v=4,False,Park Town,Chennai,"Door No. 5, Shop No. 2, Ground Floor, Issac Street, Park Town, Chennai - 600003, Dist.Chennai, Tamil Nadu",7942552194,
Friends Classic XL Pull Up Style Adult Dry Pants,https://www.indiamart.com/proddetail/friends-classic-xl-pull-up-style-adult-dry-pants-2854167287362.html?pos=36&kwd=friends adult diapers&tags=A||||8860.933|Price|product|||MDC|rsf:gd-|-stype:attr=1-br|qr_nm:gd|res:RC4|com-cf:nl|ptrs:na|ktp:N0|mc:184743|mtp:S|qry_typ:P|lang:en|wc:3|cs:9149|v=4,City Surgical And Medical,https://www.indiamart.com/citysurgical-medical/?pos=36&kwd=friends adult diapers&tags=A||||8860.933|Price|product|||MDC|rsf:gd-|-stype:attr=1-br|qr_nm:gd|res:RC4|com-cf:nl|ptrs:na|ktp:N0|mc:184743|mtp:S|qry_typ:P|lang:en|wc:3|cs:9149|v=4,False,Race Course,Dehradun,"82, Sahlin Arcade, New Road, EC Road Dwarka Store, Race Course, Race Course, Dehradun - 248001, Dist.Dehradun, Uttarakhand",8045738461,
Sticking Diaper Friends Adult Diapers Large,https://www.indiamart.com/proddetail/friends-adult-diapers-large-15390344262.html?pos=37&kwd=friends adult diapers&tags=BA||||8954.051|Price|product|||TS|rsf:gd-|-stype:attr=1-br|qr_nm:gd|res:RC4|com-cf:nl|ptrs:na|ktp:N0|mc:184743|mtp:S|qry_typ:P|lang:en|wc:3|cs:9149|v=4,Immanlyn Old Age Traders,https://www.immanlyn.in/?pos=37&kwd=friends adult diapers&tags=BA||||8954.051|Price|product|||TS|rsf:gd-|-stype:attr=1-br|qr_nm:gd|res:RC4|com-cf:nl|ptrs:na|ktp:N0|mc:184743|mtp:S|qry_typ:P|lang:en|wc:3|cs:9149|v=4,False,T Nagar,Chennai,"Old No 6 New No 15, Saravana Street, T Nagar, T Nagar, Chennai - 600017, Dist.Chennai, Tamil Nadu",8046053387,
Friends Adults Diaper Pants,https://www.indiamart.com/proddetail/friends-adults-diaper-pants-22066442348.html?pos=38&kwd=friends adult diapers&tags=BA||||8876.815|Price|product|||MDC|rsf:gd-|-stype:attr=1-br|qr_nm:gd|res:RC4|com-cf:nl|ptrs:na|ktp:N0|mc:184743|mtp:S|qry_typ:P|lang:en|wc:3|cs:9149|v=4,Mangalam Pharma,https://www.indiamart.com/mangalampharma/?pos=38&kwd=friends adult diapers&tags=BA||||8876.815|Price|product|||MDC|rsf:gd-|-stype:attr=1-br|qr_nm:gd|res:RC4|com-cf:nl|ptrs:na|ktp:N0|mc:184743|mtp:S|qry_typ:P|lang:en|wc:3|cs:9149|v=4,False,,Nagpur,"F-104, Plot No 802, Saptashru-NGI Apartment, Sudampuri,, Nagpur - 440009, Dist.Nagpur, Maharashtra",8047831433,
"Friends Adult Diaper, 3",https://www.indiamart.com/proddetail/friends-adult-diaper-16332973891.html?pos=39&kwd=friends adult diapers&tags=A||||8584.299|Price|product|||TS|rsf:gd-|-stype:attr=1-br|qr_nm:gd|res:RC4|com-cf:nl|ptrs:na|ktp:N0|mc:184743|mtp:S|qry_typ:P|lang:en|wc:3|cs:9149|v=4,Kalam Enterprises,https://www.kalament.co.in/?pos=39&kwd=friends adult diapers&tags=A||||8584.299|Price|product|||TS|rsf:gd-|-stype:attr=1-br|qr_nm:gd|res:RC4|com-cf:nl|ptrs:na|ktp:N0|mc:184743|mtp:S|qry_typ:P|lang:en|wc:3|cs:9149|v=4,False,Siddhapudur,Coimbatore,"No. 262 A, Ground Floor, New Siddhapudur, Siddhapudur, Coimbatore - 641044, Dist.Coimbatore, Tamil Nadu",8048981845,
"Friends Adult Diapers- ALL sizes Available, Size: Medium",https://www.indiamart.com/proddetail/friends-adult-diapers-all-sizes-available-2854873602548.html?pos=40&kwd=friends adult diapers&tags=A||||8788.159|Price|product|||TS|rsf:gd-|-stype:attr=1-br|qr_nm:gd|res:RC4|com-cf:nl|ptrs:na|ktp:N0|mc:184743|mtp:S|qry_typ:P|lang:en|wc:3|cs:9149|v=4,Zephyr Technologies,https://www.indiamart.com/zephyrtechnologies/?pos=40&kwd=friends adult diapers&tags=A||||8788.159|Price|product|||TS|rsf:gd-|-stype:attr=1-br|qr_nm:gd|res:RC4|com-cf:nl|ptrs:na|ktp:N0|mc:184743|mtp:S|qry_typ:P|lang:en|wc:3|cs:9149|v=4,False,,Secunderabad,"Ground Floor Plot No 53 Thokata Village Asbestos Colony Karkhana, Secunderabad - 500009, Dist.Hyderabad, Telangana",7942552933,
"Friends Adult Diapers, Size: Large",https://www.indiamart.com/proddetail/friends-adult-diapers-2854944739862.html?pos=41&kwd=friends adult diapers&tags=A||||8601.347|Price|product|||MDC|rsf:gd-|-stype:attr=1-br|qr_nm:gd|res:RC4|com-cf:nl|ptrs:na|ktp:N0|mc:184743|mtp:S|qry_typ:P|lang:en|wc:3|cs:9149|v=4,Muskaan Home Care Services,https://www.indiamart.com/muskaanhomecareservices/?pos=41&kwd=friends adult diapers&tags=A||||8601.347|Price|product|||MDC|rsf:gd-|-stype:attr=1-br|qr_nm:gd|res:RC4|com-cf:nl|ptrs:na|ktp:N0|mc:184743|mtp:S|qry_typ:P|lang:en|wc:3|cs:9149|v=4,False,,Jaipur,"Plot NO.54, Saroj Bhawan, Khatipura Road,Jasram Public School, Ganesh Colony Parivahan Nagar, Jaipur - 302012, Dist.Jaipur, Rajasthan",8044458247,
"Friends Adult Diapers, Large Size, Pack of 10, Premium Comfort, Leak Protection, Odour Lock",https://www.indiamart.com/proddetail/friends-adult-diapers-large-size-pack-of-10-premium-comfort-leak-protection-odour-lock-2854605445533.html?pos=42&kwd=friends adult diapers&tags=A||||8752.144|Price|product|||TS|rsf:gd-|-stype:attr=1-br|qr_nm:gd|res:RC4|com-cf:nl|ptrs:na|ktp:N0|mc:184743|mtp:S|qry_typ:P|lang:en|wc:3|cs:9149|v=4,Mediseller ( A Unit Of Medicare),https://www.medisellers.com/?pos=42&kwd=friends adult diapers&tags=A||||8752.144|Price|product|||TS|rsf:gd-|-stype:attr=1-br|qr_nm:gd|res:RC4|com-cf:nl|ptrs:na|ktp:N0|mc:184743|mtp:S|qry_typ:P|lang:en|wc:3|cs:9149|v=4,True,Chandni Chowk,New Delhi,"No. 1520/110, First Floor, Jagson Pal Building Bhagirath Palace, Chandni Chowk, New Delhi - 110006, Dist.Delhi, Delhi",8048606035,
Friends Economy Adult Diapers,https://www.indiamart.com/proddetail/friends-economy-adult-diapers-2853995878148.html?pos=43&kwd=friends adult diapers&tags=A||||9839.57|Price|product|||MDC|rsf:gd-|-stype:attr=1-br|qr_nm:gd|res:RC4|com-cf:nl|ptrs:na|ktp:N0|mc:184743|mtp:S|qry_typ:P|lang:en|wc:3|cs:9149|v=4,S.R Enterprise,https://www.indiamart.com/sr-enterprisewestbengal-kolkata/?pos=43&kwd=friends adult diapers&tags=A||||9839.57|Price|product|||MDC|rsf:gd-|-stype:attr=1-br|qr_nm:gd|res:RC4|com-cf:nl|ptrs:na|ktp:N0|mc:184743|mtp:S|qry_typ:P|lang:en|wc:3|cs:9149|v=4,False,Belgharia,Kolkata,"3rd Floor 18 Sonar Bangla Belgharia North Twenty Four Parganas, Belgharia, Kolkata - 700056, Dist.Kolkata, West Bengal",8045165892,
"M10 Nobel Hygiene Friends Adult Diaper, Size: Medium",https://www.indiamart.com/proddetail/m10-nobel-hygiene-friends-adult-diaper-2854900836397.html?pos=44&kwd=friends adult diapers&tags=A||||8707.773|Price|product|||MDC|rsf:gd-|-stype:attr=1-br|qr_nm:gd|res:RC4|com-cf:nl|ptrs:na|ktp:N0|mc:184743|mtp:S|qry_typ:P|lang:en|wc:3|cs:9149|v=4,AC SurgiPro,https://www.indiamart.com/acsurgipro/?pos=44&kwd=friends adult diapers&tags=A||||8707.773|Price|product|||MDC|rsf:gd-|-stype:attr=1-br|qr_nm:gd|res:RC4|com-cf:nl|ptrs:na|ktp:N0|mc:184743|mtp:S|qry_typ:P|lang:en|wc:3|cs:9149|v=4,False,Leftinent Ravinder Chikkara Chowk Shiv Colony,Jhajjar,"Khewat No 4864 Khata No 4978 Deswal Plaza Market, Leftinent Ravinder Chikkara Chowk Shiv Colony, Jhajjar - 124103, Dist.Jhajjar, Haryana",7949331561,
"Sticking Briefs Friends Adult Diapers, Size: Large, 12*10",https://www.indiamart.com/proddetail/friends-adult-diapers-22290626888.html?pos=45&kwd=friends adult diapers&tags=BA||||8226.563|Price|product|||TS|rsf:gd-|-stype:attr=1-br|qr_nm:gd|res:RC4|com-cf:nl|ptrs:na|ktp:N0|mc:184743|mtp:S|qry_typ:P|lang:en|wc:3|cs:9149|v=4,Radiant Bio Science,https://www.indiamart.com/radiantbioscience/?pos=45&kwd=friends adult diapers&tags=BA||||8226.563|Price|product|||TS|rsf:gd-|-stype:attr=1-br|qr_nm:gd|res:RC4|com-cf:nl|ptrs:na|ktp:N0|mc:184743|mtp:S|qry_typ:P|lang:en|wc:3|cs:9149|v=4,False,Sanpada,Navi Mumbai,"Shop 1, Plot 67, Behind Krishna Govind Tower Sector 22, Turbhe, Sanpada, Navi Mumbai - 400705, Dist.Thane, Maharashtra",8048617594,
"Pull Ups Friends Adult Diapers, Size: Large",https://www.indiamart.com/proddetail/friends-adult-diapers-2853420764397.html?pos=46&kwd=friends adult diapers&tags=BA||||8663.873|Price|product|||TS|rsf:gd-|-stype:attr=1-br|qr_nm:gd|res:RC4|com-cf:nl|ptrs:na|ktp:N0|mc:184743|mtp:S|qry_typ:P|lang:en|wc:3|cs:9149|v=4,SVK Healthcare Services,https://www.indiamart.com/svkhealthcareservice/?pos=46&kwd=friends adult diapers&tags=BA||||8663.873|Price|product|||TS|rsf:gd-|-stype:attr=1-br|qr_nm:gd|res:RC4|com-cf:nl|ptrs:na|ktp:N0|mc:184743|mtp:S|qry_typ:P|lang:en|wc:3|cs:9149|v=4,False,Mahalakshmipuram Muneshwara Block,Bengaluru,"First Floor, No.123, 2nd Stage, 2nd Phase, 6th Main Road, Mahalakshmipuram Muneshwara Block, Bengaluru - 560086, Dist.Bengaluru, Karnataka",7949225739,
"40 To 50 Years Diapers Friends Premium Adult Dry Pants, Size: Large, 10 Pieces",https://www.indiamart.com/proddetail/friends-premium-adult-dry-pants-25476077488.html?pos=47&kwd=friends adult diapers&tags=BA||||8584.299|Price|product|||TS|rsf:gd-|-stype:attr=1-br|qr_nm:gd|res:RC4|com-cf:nl|ptrs:na|ktp:N0|mc:184743|mtp:S|qry_typ:P|lang:en|wc:3|cs:9149|v=4,Sri Gokulam Surgicals,https://www.indiamart.com/sri-gokulam-surgicals/?pos=47&kwd=friends adult diapers&tags=BA||||8584.299|Price|product|||TS|rsf:gd-|-stype:attr=1-br|qr_nm:gd|res:RC4|com-cf:nl|ptrs:na|ktp:N0|mc:184743|mtp:S|qry_typ:P|lang:en|wc:3|cs:9149|v=4,False,Central Bus Stand,Coimbatore,"205, Sastry Road, Central Bus Stand, Coimbatore - 641009, Dist.Coimbatore, Tamil Nadu",7942823895,
Friends Adult Diapers,https://www.indiamart.com/proddetail/friends-adult-diapers-2853295514455.html?pos=48&kwd=friends adult diapers&tags=BA||||8954.051|Price|product|||TS|rsf:gd-|-stype:attr=1-br|qr_nm:gd|res:RC4|com-cf:nl|ptrs:na|ktp:N0|mc:184743|mtp:S|qry_typ:P|lang:en|wc:3|cs:9149|v=4,Sunway Health Care,https://www.sunwayhealthcare.co.in/?pos=48&kwd=friends adult diapers&tags=BA||||8954.051|Price|product|||TS|rsf:gd-|-stype:attr=1-br|qr_nm:gd|res:RC4|com-cf:nl|ptrs:na|ktp:N0|mc:184743|mtp:S|qry_typ:P|lang:en|wc:3|cs:9149|v=4,False,Perungudi,Chennai,"No. 22, 1st Floor, Old Mahabalipuram Road Seevaram, Perungudi, Perungudi, Chennai - 600096, Dist.Chennai, Tamil Nadu",8047645995,
16 Above Briefs Friends Adult Diapers Economy Medium,https://www.indiamart.com/proddetail/friends-adult-diapers-economy-medium-2851721097412.html?pos=49&kwd=friends adult diapers&tags=BA||||8228.275|Price|product|||TS|rsf:gd-|-stype:attr=1-br|qr_nm:gd|res:RC4|com-cf:nl|ptrs:na|ktp:N0|mc:184743|mtp:S|qry_typ:P|lang:en|wc:3|cs:9149|v=4,Tirupati Surgicals Private Limited,https://www.indiamart.com/tirupati-surgicals-gujarat/?pos=49&kwd=friends adult diapers&tags=BA||||8228.275|Price|product|||TS|rsf:gd-|-stype:attr=1-br|qr_nm:gd|res:RC4|com-cf:nl|ptrs:na|ktp:N0|mc:184743|mtp:S|qry_typ:P|lang:en|wc:3|cs:9149|v=4,False,Bopal,Ahmedabad,"Shop No. 12 Nr Bhavya Park Brts Daskroi C/o Shiv Complex, Bopal, Ahmedabad - 380058, Dist.Ahmedabad, Gujarat",7942871739,
"Friends Adult Diaper Large, 10 Diapers In One Packet",https://www.indiamart.com/proddetail/friends-adult-diaper-large-23574050662.html?pos=50&kwd=friends adult diapers&tags=BB||||8747.203|Price|product|||TS|rsf:gd-|-stype:attr=1-br|qr_nm:gd|res:RC4|com-cf:nl|ptrs:na|ktp:N0|mc:184743|mtp:S|qry_typ:P|lang:en|wc:3|cs:9149|v=4,Hargun Biotech,https://www.hargunbiotech.com/?pos=50&kwd=friends adult diapers&tags=BB||||8747.203|Price|product|||TS|rsf:gd-|-stype:attr=1-br|qr_nm:gd|res:RC4|com-cf:nl|ptrs:na|ktp:N0|mc:184743|mtp:S|qry_typ:P|lang:en|wc:3|cs:9149|v=4,False,Model Town,Panipat,"641, Paruthi Chowk, Model Town, Model Town, Panipat - 132103, Dist.Panipat, Haryana",7942559513,
"Pull Ups Friends Adult Diapers, 10 Pieces, Packaging Type: Packet",https://www.indiamart.com/proddetail/friends-adult-diapers-18748728797.html?pos=51&kwd=friends adult diapers&tags=BB||||8307.81|Price|product|||TS|rsf:gd-|-stype:attr=1-br|qr_nm:gd|res:RC4|com-cf:nl|ptrs:na|ktp:N0|mc:184743|mtp:S|qry_typ:P|lang:en|wc:3|cs:9149|v=4,Namo Pharma,https://www.namopharma.net/?pos=51&kwd=friends adult diapers&tags=BB||||8307.81|Price|product|||TS|rsf:gd-|-stype:attr=1-br|qr_nm:gd|res:RC4|com-cf:nl|ptrs:na|ktp:N0|mc:184743|mtp:S|qry_typ:P|lang:en|wc:3|cs:9149|v=4,False,Shukrawar Peth,Pune,"Shop No. 2, Krishna Complex Towards Sadashiv Peth, Shukrawar Peth, Pune - 411002, Dist.Pune, Maharashtra",8046030868,
Friends Adult Diapers,https://www.indiamart.com/proddetail/friends-adult-diapers-2853414624397.html?pos=52&kwd=friends adult diapers&tags=BA||||8954.051||product|||TS|rsf:gd-|-stype:attr=1-br|qr_nm:gd|res:RC4|com-cf:nl|ptrs:na|ktp:N0|mc:184743|mtp:S|qry_typ:P|lang:en|wc:3|cs:9149|v=4,J R Enterprises,https://www.indiamart.com/jrenterpriseschennai/?pos=52&kwd=friends adult diapers&tags=BA||||8954.051||product|||TS|rsf:gd-|-stype:attr=1-br|qr_nm:gd|res:RC4|com-cf:nl|ptrs:na|ktp:N0|mc:184743|mtp:S|qry_typ:P|lang:en|wc:3|cs:9149|v=4,False,Medavakkam,Chennai,"No. 23 Ground floor vengateshwara nagar main road, medavakkam, Medavakkam, Chennai - 600100, Dist.Chennai, Tamil Nadu",8047523320,
"karemed Pant Friends Adult Diapers, 10",https://www.indiamart.com/proddetail/friends-adult-diapers-23566891491.html?pos=53&kwd=friends adult diapers&tags=BB||||8584.299|Price|product|||TS|rsf:gd-|-stype:attr=1-br|qr_nm:gd|res:RC4|com-cf:nl|ptrs:na|ktp:N0|mc:184743|mtp:S|qry_typ:P|lang:en|wc:3|cs:9149|v=4,Baba Electronics,https://www.babaelectronics.co.in/?pos=53&kwd=friends adult diapers&tags=BB||||8584.299|Price|product|||TS|rsf:gd-|-stype:attr=1-br|qr_nm:gd|res:RC4|com-cf:nl|ptrs:na|ktp:N0|mc:184743|mtp:S|qry_typ:P|lang:en|wc:3|cs:9149|v=4,False,Gandhipuram,Coimbatore,"No. 109, 9th Street X-cut road, Gandhipuram, Coimbatore - 641012, Dist.Coimbatore, Tamil Nadu",8046057024,
"Adult Diapers, Size: Medium",https://www.indiamart.com/proddetail/friends-adult-diapers-2853996417648.html?pos=54&kwd=friends adult diapers&tags=B||||9110.092||product|||TS|rsf:gd-|-stype:attr=1-br|qr_nm:gd|res:RC4|com-cf:nl|ptrs:na|ktp:N0|mc:184743|mtp:S|qry_typ:P|lang:en|wc:3|cs:9149|v=4,Saubhagya Pharma & Surg,https://www.indiamart.com/saubhagya-surgical-suppliers/?pos=54&kwd=friends adult diapers&tags=B||||9110.092||product|||TS|rsf:gd-|-stype:attr=1-br|qr_nm:gd|res:RC4|com-cf:nl|ptrs:na|ktp:N0|mc:184743|mtp:S|qry_typ:P|lang:en|wc:3|cs:9149|v=4,False,Lucknow,Lucknow,"2/C-73 Chandra Kamal complex kursi road vikas nagar, Lucknow, Lucknow - 226013, Dist.Lucknow, Uttar Pradesh",8047307981,
Friends Adult Diapers,https://www.indiamart.com/proddetail/friends-adult-diapers-25425545655.html?pos=55&kwd=friends adult diapers&tags=BA||||8876.815|Price|product|||TS|rsf:gd-|-stype:attr=1-br|qr_nm:gd|res:RC4|com-cf:nl|ptrs:na|ktp:N0|mc:184743|mtp:S|qry_typ:P|lang:en|wc:3|cs:9149|v=4,Bms Meditron (i),https://www.indiamart.com/bmsmeditron/?pos=55&kwd=friends adult diapers&tags=BA||||8876.815|Price|product|||TS|rsf:gd-|-stype:attr=1-br|qr_nm:gd|res:RC4|com-cf:nl|ptrs:na|ktp:N0|mc:184743|mtp:S|qry_typ:P|lang:en|wc:3|cs:9149|v=4,False,Lakadganj,Nagpur,"Plot No. 563-564, Near Rahate Hospital, Opp. Heera Plaza, Central Avenue, Lakadganj, Nagpur - 440008, Dist.Nagpur, Maharashtra",8046071050,
"Friends Easy Adult Diapers, Size: Medium",https://www.indiamart.com/proddetail/friends-easy-adult-diapers-2853985480055.html?pos=56&kwd=friends adult diapers&tags=BA||||8830.079|Price|product|||TS|rsf:gd-|-stype:attr=1-br|qr_nm:gd|res:RC4|com-cf:nl|ptrs:na|ktp:N0|mc:184743|mtp:S|qry_typ:P|lang:en|wc:3|cs:9149|v=4,S3 Enterprises,https://www.indiamart.com/s3enterprises-vellore/?pos=56&kwd=friends adult diapers&tags=BA||||8830.079|Price|product|||TS|rsf:gd-|-stype:attr=1-br|qr_nm:gd|res:RC4|com-cf:nl|ptrs:na|ktp:N0|mc:184743|mtp:S|qry_typ:P|lang:en|wc:3|cs:9149|v=4,False,Kasturba Nagar,Vellore,"I Floor, 37/66, Murugappan Street, Abt Parcel Services, Arakonam, Ranipet, Kasturba Nagar, Vellore - 631001, Dist.Vellore, Tamil Nadu",8047309651,
"Friends Easy Adult Diapers, Size: Large, 10 Piece",https://www.indiamart.com/proddetail/friends-easy-adult-diapers-23656962033.html?pos=57&kwd=friends adult diapers&tags=BB||||8785.791|Price|product|||TS|rsf:gd-|-stype:attr=1-br|qr_nm:gd|res:RC4|com-cf:nl|ptrs:na|ktp:N0|mc:184743|mtp:S|qry_typ:P|lang:en|wc:3|cs:9149|v=4,Medi Life Products & Services,https://www.medilifeproducts.com/?pos=57&kwd=friends adult diapers&tags=BB||||8785.791|Price|product|||TS|rsf:gd-|-stype:attr=1-br|qr_nm:gd|res:RC4|com-cf:nl|ptrs:na|ktp:N0|mc:184743|mtp:S|qry_typ:P|lang:en|wc:3|cs:9149|v=4,False,Vaishali,Ghaziabad,"588, Shop No. 1, Sector-1, Near Max Super Specialist Hospital, Vaishali, Vaishali, Ghaziabad - 201010, Dist.Ghaziabad, Uttar Pradesh",8048605701,
"Stick Friends Adult Diapers M, Size: Medium",https://www.indiamart.com/proddetail/friends-adult-diapers-m-25788723948.html?pos=58&kwd=friends adult diapers&tags=BA||||8223.226|Price|product|||TS|rsf:gd-|-stype:attr=1-br|qr_nm:gd|res:RC4|com-cf:nl|ptrs:na|ktp:N0|mc:184743|mtp:S|qry_typ:P|lang:en|wc:3|cs:9149|v=4,Aman Pharma,https://www.indiamart.com/amanpharma/?pos=58&kwd=friends adult diapers&tags=BA||||8223.226|Price|product|||TS|rsf:gd-|-stype:attr=1-br|qr_nm:gd|res:RC4|com-cf:nl|ptrs:na|ktp:N0|mc:184743|mtp:S|qry_typ:P|lang:en|wc:3|cs:9149|v=4,False,Mira Road,Thane,"Shop No 01,Mira Road East Crystal Plaza Building,Opp Mira Road RLY Station, Mira Road, Thane - 401107, Dist.Thane, Maharashtra",8047624958,
Adults Pull Ups FRIENDS ADULT DIAPERS 'XXL' SIZE,https://www.indiamart.com/proddetail/friends-adult-diapers-xxl-size-2853050112662.html?pos=59&kwd=friends adult diapers&tags=BA||||8663.873|Price|product|||TS|rsf:gd-|-stype:attr=1-br|qr_nm:gd|res:RC4|com-cf:nl|ptrs:na|ktp:N0|mc:184743|mtp:S|qry_typ:P|lang:en|wc:3|cs:9149|v=4,Surya Speciality Pharma,https://www.indiamart.com/suryaspecialitypharma/?pos=59&kwd=friends adult diapers&tags=BA||||8663.873|Price|product|||TS|rsf:gd-|-stype:attr=1-br|qr_nm:gd|res:RC4|com-cf:nl|ptrs:na|ktp:N0|mc:184743|mtp:S|qry_typ:P|lang:en|wc:3|cs:9149|v=4,False,Kumaraswamy Layout,Bengaluru,"Ground Floor, No 33, Surya Speciality Pharma, 14th Main, Kumaraswamy Layout, 1st Stage, Kumaraswamy Layout, Bengaluru - 560078, Dist.Bengaluru, Karnataka",7942545026,
"Adults Protective Underwear Friends Economy Adult Diapers, Size: Large, 10 Piece",https://www.indiamart.com/proddetail/friends-economy-adult-diapers-2851814195530.html?pos=60&kwd=friends adult diapers&tags=BA||||8793.619|Price|product|||TS|rsf:gd-|-stype:attr=1-br|qr_nm:gd|res:RC4|com-cf:nl|ptrs:na|ktp:N0|mc:184743|mtp:S|qry_typ:P|lang:en|wc:3|cs:9149|v=4,Muthu Surgicals,https://www.indiamart.com/muthu-surgicals-perambalur/?pos=60&kwd=friends adult diapers&tags=BA||||8793.619|Price|product|||TS|rsf:gd-|-stype:attr=1-br|qr_nm:gd|res:RC4|com-cf:nl|ptrs:na|ktp:N0|mc:184743|mtp:S|qry_typ:P|lang:en|wc:3|cs:9149|v=4,False,Thuraimangalam,Perambalur,"No. 8/8, Main Road, Maravanatham Post, V Kalathur, Thuraimangalam, Perambalur - 621117, Dist.Perambalur, Tamil Nadu",7942873124,
"Pant Type Friends Economy Adult Diapers M, Size: Medium, 10",https://www.indiamart.com/proddetail/friends-economy-adult-diapers-m-24254328797.html?pos=61&kwd=friends adult diapers&tags=BB||||8228.275|Price|product|||TS|rsf:gd-|-stype:attr=1-br|qr_nm:gd|res:RC4|com-cf:nl|ptrs:na|ktp:N0|mc:184743|mtp:S|qry_typ:P|lang:en|wc:3|cs:9149|v=4,Classic Medical Supply,https://www.classicmedicalsupply.com/?pos=61&kwd=friends adult diapers&tags=BB||||8228.275|Price|product|||TS|rsf:gd-|-stype:attr=1-br|qr_nm:gd|res:RC4|com-cf:nl|ptrs:na|ktp:N0|mc:184743|mtp:S|qry_typ:P|lang:en|wc:3|cs:9149|v=4,False,Bhadra,Ahmedabad,"Pragati Bank, 1 Classic Electronics, Relief Road, Ratanpur Pole, Bhadra, Ahmedabad - 380001, Dist.Ahmedabad, Gujarat",8048953386,
"Friends Ultra Thin Adult Diapers Pant, Size: Medium",https://www.indiamart.com/proddetail/friends-ultra-thin-adult-diapers-pant-2853252270533.html?pos=62&kwd=friends adult diapers&tags=BA||||8767.009|Price|product|||TS|rsf:gd-|-stype:attr=1-br|qr_nm:gd|res:RC4|com-cf:nl|ptrs:na|ktp:N0|mc:184743|mtp:S|qry_typ:P|lang:en|wc:3|cs:9149|v=4,Dakshu Enterprise,https://www.indiamart.com/dakshu-enterprise/?pos=62&kwd=friends adult diapers&tags=BA||||8767.009|Price|product|||TS|rsf:gd-|-stype:attr=1-br|qr_nm:gd|res:RC4|com-cf:nl|ptrs:na|ktp:N0|mc:184743|mtp:S|qry_typ:P|lang:en|wc:3|cs:9149|v=4,False,,Baghpat,"0,,Delhi Saharanpur road,Baghpat, Baghpat - 250609, Dist.Bagpat, Uttar Pradesh",7949339950,
Friends Adult Diaper,https://www.indiamart.com/proddetail/friends-adult-diaper-20113225230.html?pos=63&kwd=friends adult diapers&tags=BA||||8231.259|Price|product|||TS|rsf:gd-|-stype:attr=1-br|qr_nm:gd|res:RC4|com-cf:nl|ptrs:na|ktp:N0|mc:184743|mtp:S|qry_typ:P|lang:en|wc:3|cs:9149|v=4,Jeegar Enterprises,https://www.indiamart.com/jeegarenterprises/?pos=63&kwd=friends adult diapers&tags=BA||||8231.259|Price|product|||TS|rsf:gd-|-stype:attr=1-br|qr_nm:gd|res:RC4|com-cf:nl|ptrs:na|ktp:N0|mc:184743|mtp:S|qry_typ:P|lang:en|wc:3|cs:9149|v=4,False,Kandivali West,Bhiwandi,"A-18 Gr Floor, Prerna Complex, Velpada, Val, Kandivali West, Bhiwandi - 421302, Maharashtra",8047646102,
"Friends Adult Diaper, Size: Medium",https://www.indiamart.com/proddetail/friends-adult-diaper-27509149030.html?pos=64&kwd=friends adult diapers&tags=BA||||8954.051|Price|product|||TS|rsf:gd-|-stype:attr=1-br|qr_nm:gd|res:RC4|com-cf:nl|ptrs:na|ktp:N0|mc:184743|mtp:S|qry_typ:P|lang:en|wc:3|cs:9149|v=4,Medichems,https://www.indiamart.com/medichems-tamilnadu/?pos=64&kwd=friends adult diapers&tags=BA||||8954.051|Price|product|||TS|rsf:gd-|-stype:attr=1-br|qr_nm:gd|res:RC4|com-cf:nl|ptrs:na|ktp:N0|mc:184743|mtp:S|qry_typ:P|lang:en|wc:3|cs:9149|v=4,False,PARK TOWN,Chennai,"122, Nyniappa Naicken Street, Park Town, PARK TOWN, Chennai - 600003, Dist.Chennai, Tamil Nadu",8048986542,
"Above 30 Pull Ups Friends Adult Diaper M, Size: Medium, 10",https://www.indiamart.com/proddetail/friends-adult-diaper-m-2851647254862.html?pos=65&kwd=friends adult diapers&tags=BA||||8500.97|Price|product|||TS|rsf:gd-|-stype:attr=1-br|qr_nm:gd|res:RC4|com-cf:nl|ptrs:na|ktp:N0|mc:184743|mtp:S|qry_typ:P|lang:en|wc:3|cs:9149|v=4,Aswathi Medico Surgicals,https://www.indiamart.com/aswathi-medicosurgicals/?pos=65&kwd=friends adult diapers&tags=BA||||8500.97|Price|product|||TS|rsf:gd-|-stype:attr=1-br|qr_nm:gd|res:RC4|com-cf:nl|ptrs:na|ktp:N0|mc:184743|mtp:S|qry_typ:P|lang:en|wc:3|cs:9149|v=4,False,Chembukabu,Thrissur,"28/293/7, R V Trade Centre, Near Karthyani Nursing Home, Patturaikkal, Chembukabu, Thrissur - 680020, Dist.Thrissur, Kerala",7942619047,
Protective Underwear EASY FRIENDS ADULT DAIPERS,https://www.indiamart.com/proddetail/easy-friends-adult-daipers-22648725691.html?pos=66&kwd=friends adult diapers&tags=BA||||8571.301|Price|product|||TS|rsf:gd-|-stype:attr=1-br|qr_nm:gd|res:RC4|com-cf:nl|ptrs:na|ktp:N0|mc:184743|mtp:S|qry_typ:P|lang:en|wc:3|cs:9149|v=4,Atomlife Healthcare And Reseacrh Private Limited,https://www.indiamart.com/atomlifehealthcareresearch/?pos=66&kwd=friends adult diapers&tags=BA||||8571.301|Price|product|||TS|rsf:gd-|-stype:attr=1-br|qr_nm:gd|res:RC4|com-cf:nl|ptrs:na|ktp:N0|mc:184743|mtp:S|qry_typ:P|lang:en|wc:3|cs:9149|v=4,False,Thycaud,Thiruvananthapuram,"TC 24/449, Thycaud, Thiruvananthapuram - 695014, Dist.Thiruvananthapuram, Kerala",8048263415,
Friends Economy Adult Diapers Tape Style - 10 Count - Medium Waist Size 27.56 -49.21 Inch,https://www.indiamart.com/proddetail/friends-economy-adult-diapers-tape-style-10-count-medium-waist-size-27-56-49-21-inch-25556547991.html?pos=67&kwd=friends adult diapers&tags=BA||||8601.347|Price|product|||TS|rsf:gd-|-stype:attr=1-br|qr_nm:gd|res:RC4|com-cf:nl|ptrs:na|ktp:N0|mc:184743|mtp:S|qry_typ:P|lang:en|wc:3|cs:9149|v=4,Medipharm Global,https://www.indiamart.com/medipharmglobal/?pos=67&kwd=friends adult diapers&tags=BA||||8601.347|Price|product|||TS|rsf:gd-|-stype:attr=1-br|qr_nm:gd|res:RC4|com-cf:nl|ptrs:na|ktp:N0|mc:184743|mtp:S|qry_typ:P|lang:en|wc:3|cs:9149|v=4,False,Jhotwara,Jaipur,"R. G Plaza, X-02B, Chandra Nagar, Kardhani Scheme, Kalwar Road, Jhotwara, Jaipur - 302012, Dist.Jaipur, Rajasthan",8047653066,
Friends Adult Diapers,https://www.indiamart.com/proddetail/friends-adult-diapers-2854036324373.html?pos=68&kwd=friends adult diapers&tags=BA||||8584.299|Price|product|||MDC|rsf:gd-|-stype:attr=1-br|qr_nm:gd|res:RC4|com-cf:nl|ptrs:na|ktp:N0|mc:184743|mtp:S|qry_typ:P|lang:en|wc:3|cs:9149|v=4,Wellness Health Care,https://www.indiamart.com/wellnesshealthcare-tamilnadu/?pos=68&kwd=friends adult diapers&tags=BA||||8584.299|Price|product|||MDC|rsf:gd-|-stype:attr=1-br|qr_nm:gd|res:RC4|com-cf:nl|ptrs:na|ktp:N0|mc:184743|mtp:S|qry_typ:P|lang:en|wc:3|cs:9149|v=4,False,Podanur,Coimbatore,"9/27, Sri Ram Nagar, 7th Street East, Podanur,, Podanur, Coimbatore - 641023, Dist.Coimbatore, Tamil Nadu",8045165099,
"Unisex Tapping Friends Adult Diapers, 10's",https://www.indiamart.com/proddetail/friends-adult-diapers-22527681633.html?pos=69&kwd=friends adult diapers&tags=BA||||8211.142|Price|product|||MDC|rsf:gd-|-stype:attr=1-br|qr_nm:gd|res:RC4|com-cf:nl|ptrs:na|ktp:N0|mc:184743|mtp:S|qry_typ:P|lang:en|wc:3|cs:9149|v=4,Shri Sai Pharma,https://www.indiamart.com/shrisaipharma/?pos=69&kwd=friends adult diapers&tags=BA||||8211.142|Price|product|||MDC|rsf:gd-|-stype:attr=1-br|qr_nm:gd|res:RC4|com-cf:nl|ptrs:na|ktp:N0|mc:184743|mtp:S|qry_typ:P|lang:en|wc:3|cs:9149|v=4,False,Sion,Mumbai,"No. 1 Building, 112, Ashok Nagar, Sion-Trombay Road Sion, Chunabhatti, Sion, Mumbai - 400022, Dist.Mumbai, Maharashtra",8046055538,
"Friends Adult Diapers, Size: Large",https://www.indiamart.com/proddetail/friends-adult-diapers-23796112933.html?pos=70&kwd=friends adult diapers&tags=BA||||8307.81|Price|product|||MDC|rsf:gd-|-stype:attr=1-br|qr_nm:gd|res:RC4|com-cf:nl|ptrs:na|ktp:N0|mc:184743|mtp:S|qry_typ:P|lang:en|wc:3|cs:9149|v=4,Tarmal Healthcare And Surgical,https://www.indiamart.com/tarmal-healthcaresurgical/?pos=70&kwd=friends adult diapers&tags=BA||||8307.81|Price|product|||MDC|rsf:gd-|-stype:attr=1-br|qr_nm:gd|res:RC4|com-cf:nl|ptrs:na|ktp:N0|mc:184743|mtp:S|qry_typ:P|lang:en|wc:3|cs:9149|v=4,False,Wanowrie,Pune,"Shop No. 9, Picasso Kedari Arcade, Kedari Nagar, Wanwadi, Wanowrie, Pune - 411048, Dist.Pune, Maharashtra",8047639015,
Friends Adult Diapers,,Bhayani Pharma,https://www.indiamart.com/bhayani-pharma/?pos=71&kwd=friends adult diapers&tags=A||||8211.142||product|||TS|rsf:gd-|-stype:attr=1-br|qr_nm:gd|res:RC4|com-cf:nl|ptrs:na|ktp:N0|mc:184743|mtp:S|qry_typ:P|lang:en|wc:3|cs:9149|v=4,False,Ghatkopar West,Mumbai,"C-112, L B S Marg, Behind R City Mall, Ghatkopar Ind Estate, Ghatkopar West, Mumbai - 400086, Dist.Mumbai, Maharashtra",7942562954,
XL Friends Adult Diapers,https://www.indiamart.com/proddetail/xl-friends-adult-diapers-2854147657930.html?pos=72&kwd=friends adult diapers&tags=BA||||8584.299|Price|product|||MDC|rsf:gd-|-stype:attr=1-br|qr_nm:gd|res:RC4|com-cf:nl|ptrs:na|ktp:N0|mc:184743|mtp:S|qry_typ:P|lang:en|wc:3|cs:9149|v=4,Thai Surgical,https://www.indiamart.com/thai-surgical/?pos=72&kwd=friends adult diapers&tags=BA||||8584.299|Price|product|||MDC|rsf:gd-|-stype:attr=1-br|qr_nm:gd|res:RC4|com-cf:nl|ptrs:na|ktp:N0|mc:184743|mtp:S|qry_typ:P|lang:en|wc:3|cs:9149|v=4,False,Ramanathapuram,Coimbatore,"215, Ramanathapuram, Angannan Saite, Ramanathapuram, Coimbatore - 641045, Dist.Coimbatore, Tamil Nadu",8045738113,
"Friends Overnight Adult Diapers, Size: Large",https://www.indiamart.com/proddetail/friends-overnight-adult-diapers-2854191096188.html?pos=73&kwd=friends adult diapers&tags=BA||||8769.508|Price|product|||MDC|rsf:gd-|-stype:attr=1-br|qr_nm:gd|res:RC4|com-cf:nl|ptrs:na|ktp:N0|mc:184743|mtp:S|qry_typ:P|lang:en|wc:3|cs:9149|v=4,Shivij Enterprises,https://www.indiamart.com/shivij-enterprises/?pos=73&kwd=friends adult diapers&tags=BA||||8769.508|Price|product|||MDC|rsf:gd-|-stype:attr=1-br|qr_nm:gd|res:RC4|com-cf:nl|ptrs:na|ktp:N0|mc:184743|mtp:S|qry_typ:P|lang:en|wc:3|cs:9149|v=4,False,,Faridabad,"Plot-11, Sec-15A, Vishwash Complax, Faridabad - 121004, Dist.Faridabad, Haryana",8045734144,
"Eco Tape Style Friends Adult Diapers Economy, Size: Medium, 10",https://www.indiamart.com/proddetail/friends-adult-diapers-economy-2850393413348.html?pos=74&kwd=friends adult diapers&tags=BA||||8663.873|Price|product|||MDC|rsf:gd-|-stype:attr=1-br|qr_nm:gd|res:RC4|com-cf:nl|ptrs:na|ktp:N0|mc:184743|mtp:S|qry_typ:P|lang:en|wc:3|cs:9149|v=4,Gayathri Enterprises,https://www.indiamart.com/gayathrienterprises-india/?pos=74&kwd=friends adult diapers&tags=BA||||8663.873|Price|product|||MDC|rsf:gd-|-stype:attr=1-br|qr_nm:gd|res:RC4|com-cf:nl|ptrs:na|ktp:N0|mc:184743|mtp:S|qry_typ:P|lang:en|wc:3|cs:9149|v=4,False,Kalasipalyam,Bengaluru,"10, Paxal Towers, K.R Road, City Market, Urban, Kalasipalyam, Bengaluru - 560002, Dist.Bengaluru, Karnataka",8043853174,
"Protective Underwear FRIENDS EASY ADULT DIAPERS, Size: small, 10 Pcs",https://www.indiamart.com/proddetail/friends-easy-adult-diapers-27526751491.html?pos=75&kwd=friends adult diapers&tags=BA||||8507.67|Price|product|||MDC|rsf:gd-|-stype:attr=1-br|qr_nm:gd|res:RC4|com-cf:nl|ptrs:na|ktp:N0|mc:184743|mtp:S|qry_typ:P|lang:en|wc:3|cs:9149|v=4,Roys Surgicals,https://www.indiamart.com/royssurgicals/?pos=75&kwd=friends adult diapers&tags=BA||||8507.67|Price|product|||MDC|rsf:gd-|-stype:attr=1-br|qr_nm:gd|res:RC4|com-cf:nl|ptrs:na|ktp:N0|mc:184743|mtp:S|qry_typ:P|lang:en|wc:3|cs:9149|v=4,False,Thrippunithura,Ernakulam,"11/ 305A, Thekkinethu, Sea Port Airport Road Irimpanam, Thrippunithura, Ernakulam - 682309, Dist.Ernakulam, Kerala",8047630278,
"Friends Premium Adult Diapers, Size: Medium",https://www.indiamart.com/proddetail/friends-premium-adult-diapers-2854453940673.html?pos=76&kwd=friends adult diapers&tags=BA||||8954.051|Price|product|||MDC|rsf:gd-|-stype:attr=1-br|qr_nm:gd|res:RC4|com-cf:nl|ptrs:na|ktp:N0|mc:184743|mtp:S|qry_typ:P|lang:en|wc:3|cs:9149|v=4,Healthcare Service,https://www.indiamart.com/healthcare-service-chennai/?pos=76&kwd=friends adult diapers&tags=BA||||8954.051|Price|product|||MDC|rsf:gd-|-stype:attr=1-br|qr_nm:gd|res:RC4|com-cf:nl|ptrs:na|ktp:N0|mc:184743|mtp:S|qry_typ:P|lang:en|wc:3|cs:9149|v=4,False,Kodungaiyur,Chennai,"No. 8/1,Narayanaswamy Garden, 2nd Main Road, Kodungaiyur, Chennai - 600110, Dist.Chennai, Tamil Nadu",7949337234,
"Above 60 Years Briefs Friends Easy Adult Diapers, Size: Medium",https://www.indiamart.com/proddetail/friends-easy-adult-diapers-23630514755.html?pos=77&kwd=friends adult diapers&tags=BA||||10166.867||product|||MDC|rsf:gd-|-stype:attr=1-br|qr_nm:gd|res:RC4|com-cf:nl|ptrs:na|ktp:N0|mc:184743|mtp:S|qry_typ:P|lang:en|wc:3|cs:9149|v=4,Lifeline Surgicals,https://www.indiamart.com/lifeline-surgicals-kamrup/?pos=77&kwd=friends adult diapers&tags=BA||||10166.867||product|||MDC|rsf:gd-|-stype:attr=1-br|qr_nm:gd|res:RC4|com-cf:nl|ptrs:na|ktp:N0|mc:184743|mtp:S|qry_typ:P|lang:en|wc:3|cs:9149|v=4,False,Pan Bazaar,Kamrup,"Sri Karuna Kar Sarma, Opp. Hotel Mayflower, KC Road, Panbazar, Metropolitan, Pan Bazaar, Kamrup - 781001, Dist.Kamrup, Assam",7942966187,
"L Friends Adult Diapers, Size: Large",https://www.indiamart.com/proddetail/l-friends-adult-diapers-2853716936630.html?pos=78&kwd=friends adult diapers&tags=BA||||8954.051|Price|product|||MDC|rsf:gd-|-stype:attr=1-br|qr_nm:gd|res:RC4|com-cf:nl|ptrs:na|ktp:N0|mc:184743|mtp:S|qry_typ:P|lang:en|wc:3|cs:9149|v=4,Biosens Surgicals & Health Care Products,https://www.indiamart.com/biosens-surgicalshealthcare-products/?pos=78&kwd=friends adult diapers&tags=BA||||8954.051|Price|product|||MDC|rsf:gd-|-stype:attr=1-br|qr_nm:gd|res:RC4|com-cf:nl|ptrs:na|ktp:N0|mc:184743|mtp:S|qry_typ:P|lang:en|wc:3|cs:9149|v=4,False,Medavakkam,Chennai,"1/1175, Velachery Road, Annai Teresa Hospital, Medavakkam, Medavakkam, Chennai - 600100, Dist.Chennai, Tamil Nadu",8045165722,
"Tape Friends Easy Adult Diapers, 10 Pieces, Size: Xl",https://www.indiamart.com/proddetail/friends-easy-adult-diapers-2850652604330.html?pos=79&kwd=friends adult diapers&tags=BB||||8954.051|Price|product|||MDC|rsf:gd-|-stype:attr=1-br|qr_nm:gd|res:RC4|com-cf:nl|ptrs:na|ktp:N0|mc:184743|mtp:S|qry_typ:P|lang:en|wc:3|cs:9149|v=4,Starmed Pharmacy,https://www.indiamart.com/starmedpharmacy-chennai/?pos=79&kwd=friends adult diapers&tags=BB||||8954.051|Price|product|||MDC|rsf:gd-|-stype:attr=1-br|qr_nm:gd|res:RC4|com-cf:nl|ptrs:na|ktp:N0|mc:184743|mtp:S|qry_typ:P|lang:en|wc:3|cs:9149|v=4,False,Selaivayal,Chennai,"Plot No 52, Parthasarathy Street, KK Thazhai, MMC Post, Chennai, Selaivayal, Chennai - 600051, Dist.Chennai, Tamil Nadu",7942959094,
"Friends Classic Adult Diapers Pants, Size: Medium",https://www.indiamart.com/proddetail/friends-classic-adult-diapers-pants-25366141433.html?pos=80&kwd=friends adult diapers&tags=BA||||8752.144|Price|product|||MDC|rsf:gd-|-stype:attr=1-br|qr_nm:gd|res:RC4|com-cf:nl|ptrs:na|ktp:N0|mc:184743|mtp:S|qry_typ:P|lang:en|wc:3|cs:9149|v=4,Garg Surgimed,https://www.indiamart.com/garg-surgimed/?pos=80&kwd=friends adult diapers&tags=BA||||8752.144|Price|product|||MDC|rsf:gd-|-stype:attr=1-br|qr_nm:gd|res:RC4|com-cf:nl|ptrs:na|ktp:N0|mc:184743|mtp:S|qry_typ:P|lang:en|wc:3|cs:9149|v=4,False,Safdarjung Enclave,New Delhi,"61c,,Near Sukhmani Hospital,Arjun Nagar, Safdurjung Enclave, Safdarjung Enclave, New Delhi - 110029, Dist.Delhi, Delhi",8047303781,
"Pull Ups Friends Premium Adult Diaper Pants, Size: Medium",https://www.indiamart.com/proddetail/friends-premium-adult-diaper-pants-2853061904148.html?pos=81&kwd=friends adult diapers&tags=BA||||9528.781|Price|product|||MDC|rsf:gd-|-stype:attr=1-br|qr_nm:gd|res:RC4|com-cf:nl|ptrs:na|ktp:N0|mc:184743|mtp:S|qry_typ:P|lang:en|wc:3|cs:9149|v=4,Medilife Surgical,https://www.indiamart.com/medilife-surgical/?pos=81&kwd=friends adult diapers&tags=BA||||9528.781|Price|product|||MDC|rsf:gd-|-stype:attr=1-br|qr_nm:gd|res:RC4|com-cf:nl|ptrs:na|ktp:N0|mc:184743|mtp:S|qry_typ:P|lang:en|wc:3|cs:9149|v=4,False,Pahadi Mandir Lane,Ranchi,"New Shastri Nagar,Madhukam,Ratu Road, Pahadi Mandir Lane, Ranchi - 834005, Dist.Ranchi, Jharkhand",8047805286,
"Friends Adult Diapers L Size, Size: Large, Age Group: 3to12 Months",https://www.indiamart.com/proddetail/friends-adult-diapers-l-size-2854888688097.html?pos=82&kwd=friends adult diapers&tags=BA||||8663.873|Price|product|||MDC|rsf:gd-|-stype:attr=1-br|qr_nm:gd|res:RC4|com-cf:nl|ptrs:na|ktp:N0|mc:184743|mtp:S|qry_typ:P|lang:en|wc:3|cs:9149|v=4,Charith Pharma,https://www.indiamart.com/charith-pharma/?pos=82&kwd=friends adult diapers&tags=BA||||8663.873|Price|product|||MDC|rsf:gd-|-stype:attr=1-br|qr_nm:gd|res:RC4|com-cf:nl|ptrs:na|ktp:N0|mc:184743|mtp:S|qry_typ:P|lang:en|wc:3|cs:9149|v=4,False,,Bengaluru,"No.22/1, Rbl Layout, Jp Nagar, 7th Phase, Chunchagatta Main Road, Om Shivashakthi Temple Road Bengaluru Urban, Bengaluru - 560062, Dist.Bengaluru, Karnataka",8044458044,
Friends Easy Adult Diapers Medium 30s pack mrp 1570,https://www.indiamart.com/proddetail/friends-easy-adult-diapers-medium-30s-pack-mrp-1570-2854701481097.html?pos=83&kwd=friends adult diapers&tags=BA||||8706.587|Price|product|||MDC|rsf:gd-|-stype:attr=1-br|qr_nm:gd|res:RC4|com-cf:nl|ptrs:na|ktp:N0|mc:184743|mtp:S|qry_typ:P|lang:en|wc:3|cs:9149|v=4,Bawaa Medicals,https://www.indiamart.com/bawaa-medicals-madurai/?pos=83&kwd=friends adult diapers&tags=BA||||8706.587|Price|product|||MDC|rsf:gd-|-stype:attr=1-br|qr_nm:gd|res:RC4|com-cf:nl|ptrs:na|ktp:N0|mc:184743|mtp:S|qry_typ:P|lang:en|wc:3|cs:9149|v=4,False,,Madurai,"24 25, American College Complex, Goripalayam, Madurai - 625002, Dist.Madurai, Tamil Nadu",8047850991,
"L Friends Adult Diaper, Size: Large",https://www.indiamart.com/proddetail/l-friends-adult-diaper-2853859398191.html?pos=84&kwd=friends adult diapers&tags=BA||||8228.275|Price|product|||MDC|rsf:gd-|-stype:attr=1-br|qr_nm:gd|res:RC4|com-cf:nl|ptrs:na|ktp:N0|mc:184743|mtp:S|qry_typ:P|lang:en|wc:3|cs:9149|v=4,Krishna Surgicals,https://www.indiamart.com/krishnasurgicalsahmedabad/?pos=84&kwd=friends adult diapers&tags=BA||||8228.275|Price|product|||MDC|rsf:gd-|-stype:attr=1-br|qr_nm:gd|res:RC4|com-cf:nl|ptrs:na|ktp:N0|mc:184743|mtp:S|qry_typ:P|lang:en|wc:3|cs:9149|v=4,False,Gheekanta,Ahmedabad,"Ground Floor, 25, Ratnamani Complex, Relief Road Nagar Sheth No Vando Beside M J Market Gheekanta, 20, Gheekanta, Ahmedabad - 380001, Dist.Ahmedabad, Gujarat",7949086523,
"Friends Adult Diaper, Size: XL, 10 Piece",https://www.indiamart.com/proddetail/friends-adult-diaper-25389623755.html?pos=85&kwd=friends adult diapers&tags=BA||||8860.933|Price|product|||MDC|rsf:gd-|-stype:attr=1-br|qr_nm:gd|res:RC4|com-cf:nl|ptrs:na|ktp:N0|mc:184743|mtp:S|qry_typ:P|lang:en|wc:3|cs:9149|v=4,Empire Trading Company,https://www.indiamart.com/empiretradingcompany/?pos=85&kwd=friends adult diapers&tags=BA||||8860.933|Price|product|||MDC|rsf:gd-|-stype:attr=1-br|qr_nm:gd|res:RC4|com-cf:nl|ptrs:na|ktp:N0|mc:184743|mtp:S|qry_typ:P|lang:en|wc:3|cs:9149|v=4,False,Kaulagarh,Dehradun,"541/3, Chuna Bhatta Road, Kaulagarh, Kaulagarh, Dehradun - 248001, Dist.Dehradun, Uttarakhand",8047619958,
Classic Friends Adult Underpad,https://www.indiamart.com/proddetail/classic-friends-adult-underpad-24834226797.html?pos=86&kwd=friends adult diapers&tags=BB||||8752.144|Price|product|||MDC|rsf:gd-|-stype:attr=1-br|qr_nm:gd|res:RC4|com-cf:nl|ptrs:na|ktp:N0|mc:184743|mtp:S|qry_typ:P|lang:en|wc:3|cs:9149|v=4,K.N.Surgicals,https://www.indiamart.com/knsurgicals/?pos=86&kwd=friends adult diapers&tags=BB||||8752.144|Price|product|||MDC|rsf:gd-|-stype:attr=1-br|qr_nm:gd|res:RC4|com-cf:nl|ptrs:na|ktp:N0|mc:184743|mtp:S|qry_typ:P|lang:en|wc:3|cs:9149|v=4,False,Shahdara,New Delhi,"1/11829, E Block, Panchsheel Garden, East Delhi, Shahdara, New Delhi - 110032, Dist.Delhi, Delhi",8047524495,
"Tape Diapers Friends Economy Adult Diaper, Size: Medium, 10 Piece",https://www.indiamart.com/proddetail/friends-economy-adult-diaper-27477375488.html?pos=87&kwd=friends adult diapers&tags=BA||||9140.514|Price|product|||MDC|rsf:gd-|-stype:attr=1-br|qr_nm:gd|res:RC4|com-cf:nl|ptrs:na|ktp:N0|mc:184743|mtp:S|qry_typ:P|lang:en|wc:3|cs:9149|v=4,Stuti Medical Agency,https://www.indiamart.com/stuti-medical-agencyraipur/?pos=87&kwd=friends adult diapers&tags=BA||||9140.514|Price|product|||MDC|rsf:gd-|-stype:attr=1-br|qr_nm:gd|res:RC4|com-cf:nl|ptrs:na|ktp:N0|mc:184743|mtp:S|qry_typ:P|lang:en|wc:3|cs:9149|v=4,False,Chowk,Raipur,"Shop No-33, Farishta Complex, Rajbandha Maidan,, Chowk, Raipur - 492001, Chhattisgarh",7942671922,
"L Friends Disposable Adult Diaper, Size: Large",https://www.indiamart.com/proddetail/l-friends-disposable-adult-diaper-2854468153791.html?pos=88&kwd=friends adult diapers&tags=BA||||8307.81|Price|product|||MDC|rsf:gd-|-stype:attr=1-br|qr_nm:gd|res:RC4|com-cf:nl|ptrs:na|ktp:N0|mc:184743|mtp:S|qry_typ:P|lang:en|wc:3|cs:9149|v=4,New Mahalaxmi Medico,https://www.indiamart.com/newmahalaxmimedico/?pos=88&kwd=friends adult diapers&tags=BA||||8307.81|Price|product|||MDC|rsf:gd-|-stype:attr=1-br|qr_nm:gd|res:RC4|com-cf:nl|ptrs:na|ktp:N0|mc:184743|mtp:S|qry_typ:P|lang:en|wc:3|cs:9149|v=4,False,,Pune,"S No 80, Shop No E1/16, Ganga Orchard, Mundhwa Road, Pingale Wasti,, Pune - 411036, Dist.Pune, Maharashtra",7949324112,
"Economy Friends Adult Diaper, Size: Large, 10 Piece",https://www.indiamart.com/proddetail/economy-friends-adult-diaper-2850676125255.html?pos=89&kwd=friends adult diapers&tags=BA||||8774.064|Price|product|||MDC|rsf:gd-|-stype:attr=1-br|qr_nm:gd|res:RC4|com-cf:nl|ptrs:na|ktp:N0|mc:184743|mtp:S|qry_typ:P|lang:en|wc:3|cs:9149|v=4,Shree Thillai Pharma,https://www.indiamart.com/shree-thillai-pharma/?pos=89&kwd=friends adult diapers&tags=BA||||8774.064|Price|product|||MDC|rsf:gd-|-stype:attr=1-br|qr_nm:gd|res:RC4|com-cf:nl|ptrs:na|ktp:N0|mc:184743|mtp:S|qry_typ:P|lang:en|wc:3|cs:9149|v=4,False,Tennur,Tiruchirappalli,"New No.31/1 Old No 30A/7, Ground Floor, Vikram Appartment, Tennur High Road, Tennur, Tiruchirappalli - 620017, Dist.Tiruchirappalli, Tamil Nadu",7942959255,
Friends Medium Adult Diaper,https://www.indiamart.com/proddetail/friends-medium-adult-diaper-2852939374173.html?pos=90&kwd=friends adult diapers&tags=BA||||8228.275|Price|product|||MDC|rsf:gd-|-stype:attr=1-br|qr_nm:gd|res:RC4|com-cf:nl|ptrs:na|ktp:N0|mc:184743|mtp:S|qry_typ:P|lang:en|wc:3|cs:9149|v=4,Capsule Pharmacy,https://www.indiamart.com/capsulepharmacy/?pos=90&kwd=friends adult diapers&tags=BA||||8228.275|Price|product|||MDC|rsf:gd-|-stype:attr=1-br|qr_nm:gd|res:RC4|com-cf:nl|ptrs:na|ktp:N0|mc:184743|mtp:S|qry_typ:P|lang:en|wc:3|cs:9149|v=4,False,Shilaj,Ahmedabad,"D-702, Silver Brook, Sardar Patel Ring Road, Shilaj,, Shilaj, Ahmedabad - 380059, Dist.Ahmedabad, Gujarat",7942968730,
"Tape Style Briefs Friends Easy Unisex Adult Diaper, Size: XL, 2 Diapers Per Pack",https://www.indiamart.com/proddetail/friends-easy-unisex-adult-diaper-2851845424748.html?pos=91&kwd=friends adult diapers&tags=BA||||8954.051|Price|product|||MDC|rsf:gd-|-stype:attr=1-br|qr_nm:gd|res:RC4|com-cf:nl|ptrs:na|ktp:N0|mc:184743|mtp:S|qry_typ:P|lang:en|wc:3|cs:9149|v=4,Sri Vari Agencies,https://www.indiamart.com/sri-variagencies/?pos=91&kwd=friends adult diapers&tags=BA||||8954.051|Price|product|||MDC|rsf:gd-|-stype:attr=1-br|qr_nm:gd|res:RC4|com-cf:nl|ptrs:na|ktp:N0|mc:184743|mtp:S|qry_typ:P|lang:en|wc:3|cs:9149|v=4,False,Mylapore,Chennai,"Old No.22, New No.40, Venkatesa Agraharam Street, Mylapore, Mylapore, Chennai - 600004, Dist.Chennai, Tamil Nadu",7942832299,
"Friends Premium Adult Diaper Pant, Size: Large",https://www.indiamart.com/proddetail/friends-premium-adult-diaper-pant-21855953448.html?pos=92&kwd=friends adult diapers&tags=BA||||8226.563|Price|product|||MDC|rsf:gd-|-stype:attr=1-br|qr_nm:gd|res:RC4|com-cf:nl|ptrs:na|ktp:N0|mc:184743|mtp:S|qry_typ:P|lang:en|wc:3|cs:9149|v=4,Mednox Life Science,https://www.indiamart.com/mednoxlifescience/?pos=92&kwd=friends adult diapers&tags=BA||||8226.563|Price|product|||MDC|rsf:gd-|-stype:attr=1-br|qr_nm:gd|res:RC4|com-cf:nl|ptrs:na|ktp:N0|mc:184743|mtp:S|qry_typ:P|lang:en|wc:3|cs:9149|v=4,False,Sanpada,Navi Mumbai,"Ground Floor, Shop No.2, Plot No.34 And 35 Sector 1 Himalay Chs Ltd Sanpada, Sanpada, Navi Mumbai - 400705, Dist.Thane, Maharashtra",8048975180,
60 + Yrs Pull Ups Friends Classic Adult DRY Pants,https://www.indiamart.com/proddetail/friends-classic-adult-dry-pants-2852705636230.html?pos=93&kwd=friends adult diapers&tags=BA||||8663.873|Price|product|||MDC|rsf:gd-|-stype:attr=1-br|qr_nm:gd|res:RC4|com-cf:nl|ptrs:na|ktp:N0|mc:184743|mtp:S|qry_typ:P|lang:en|wc:3|cs:9149|v=4,Asterales Lifesciences Private Limited,https://www.indiamart.com/asterales-lifesciences/?pos=93&kwd=friends adult diapers&tags=BA||||8663.873|Price|product|||MDC|rsf:gd-|-stype:attr=1-br|qr_nm:gd|res:RC4|com-cf:nl|ptrs:na|ktp:N0|mc:184743|mtp:S|qry_typ:P|lang:en|wc:3|cs:9149|v=4,False,J P Nagar,Bengaluru,"1st Floor No.120, Shop Number-01 9th Cross, 80 Feet Road J P Nagar 1st Phase, J P Nagar, Bengaluru - 560078, Dist.Bengaluru, Karnataka",7942716348,
"Above 50 Briefs Friends Premium Adult Dry Pants, Size: Medium",https://www.indiamart.com/proddetail/friends-premium-adult-dry-pants-2853135735833.html?pos=94&kwd=friends adult diapers&tags=BA||||8513.271|Price|product|||MDC|rsf:gd-|-stype:attr=1-br|qr_nm:gd|res:RC4|com-cf:nl|ptrs:na|ktp:N0|mc:184743|mtp:S|qry_typ:P|lang:en|wc:3|cs:9149|v=4,Shanthi Surgicals,https://www.indiamart.com/shanthi-surgicals-kerala/?pos=94&kwd=friends adult diapers&tags=BA||||8513.271|Price|product|||MDC|rsf:gd-|-stype:attr=1-br|qr_nm:gd|res:RC4|com-cf:nl|ptrs:na|ktp:N0|mc:184743|mtp:S|qry_typ:P|lang:en|wc:3|cs:9149|v=4,False,Edathala,Aluva,"First Floor, II/408/O, Pearl Building, AM Road Choondy, Opposit ST Pius Church Choondy, Edathala, Edathala, Aluva - 683112, Dist.Ernakulam, Kerala",7942963069,
"Briefs Friends Classic Adult Dry Pants, Size: Medium",https://www.indiamart.com/proddetail/friends-classic-adult-dry-pants-2853174309473.html?pos=95&kwd=friends adult diapers&tags=BA||||9839.57|Price|product|||MDC|rsf:gd-|-stype:attr=1-br|qr_nm:gd|res:RC4|com-cf:nl|ptrs:na|ktp:N0|mc:184743|mtp:S|qry_typ:P|lang:en|wc:3|cs:9149|v=4,S.G.Enterprise,https://www.indiamart.com/sg-enterprise-bahadur/?pos=95&kwd=friends adult diapers&tags=BA||||9839.57|Price|product|||MDC|rsf:gd-|-stype:attr=1-br|qr_nm:gd|res:RC4|com-cf:nl|ptrs:na|ktp:N0|mc:184743|mtp:S|qry_typ:P|lang:en|wc:3|cs:9149|v=4,False,Behala,Kolkata,"222 Roy Bahadur Road Behala South Twenty Four Parganas, Behala, Kolkata - 700053, Dist.Kolkata, West Bengal",7948549197,
"Friends Premium Adult Diaper Pants, Size: XL",https://www.indiamart.com/proddetail/friends-premium-adult-diaper-pants-2854766243648.html?pos=96&kwd=friends adult diapers&tags=BA||||8954.051|Price|product|||MDC|rsf:gd-|-stype:attr=1-br|qr_nm:gd|res:RC4|com-cf:nl|ptrs:na|ktp:N0|mc:184743|mtp:S|qry_typ:P|lang:en|wc:3|cs:9149|v=4,Asian Fathima H2O Medical,https://www.indiamart.com/asianfathima-h2omedical/?pos=96&kwd=friends adult diapers&tags=BA||||8954.051|Price|product|||MDC|rsf:gd-|-stype:attr=1-br|qr_nm:gd|res:RC4|com-cf:nl|ptrs:na|ktp:N0|mc:184743|mtp:S|qry_typ:P|lang:en|wc:3|cs:9149|v=4,False,,Chennai,"1/3, Wallace Garden 1st Street, Nungabakkam, Chennai - 600006, Dist.Chennai, Tamil Nadu",7949324678,
Friends Premium Adult Dry Pants,https://www.indiamart.com/proddetail/friends-premium-adult-dry-pants-2855085000791.html?pos=97&kwd=friends adult diapers&tags=BB||||8663.873|Price|product|||MDC|rsf:gd-|-stype:attr=1-br|qr_nm:gd|res:RC4|com-cf:nl|ptrs:na|ktp:N0|mc:184743|mtp:S|qry_typ:P|lang:en|wc:3|cs:9149|v=4,Krishna Medicals,https://www.indiamart.com/krishnamedicals-karnataka/?pos=97&kwd=friends adult diapers&tags=BB||||8663.873|Price|product|||MDC|rsf:gd-|-stype:attr=1-br|qr_nm:gd|res:RC4|com-cf:nl|ptrs:na|ktp:N0|mc:184743|mtp:S|qry_typ:P|lang:en|wc:3|cs:9149|v=4,False,Bengaluru Urban,Bengaluru,"No.45/1 Old No.1027, 6th Cross Road, 9th Main, Banashankari 1 Stage, 2nd Block, Ashok Nagar,, Bengaluru Urban, Bengaluru - 560050, Dist.Bengaluru, Karnataka",7949305810,
"Friends Classic Adult Dry Pants MEDIUM, 10",https://www.indiamart.com/proddetail/friends-classic-adult-dry-pants-medium-2851855890612.html?pos=98&kwd=friends adult diapers&tags=BA||||8954.051|Price|product|||MDC|rsf:gd-|-stype:attr=1-br|qr_nm:gd|res:RC4|com-cf:nl|ptrs:na|ktp:N0|mc:184743|mtp:S|qry_typ:P|lang:en|wc:3|cs:9149|v=4,Evergreen Healthcare & Surgical,https://www.indiamart.com/evergreen-healthcare-surgical/?pos=98&kwd=friends adult diapers&tags=BA||||8954.051|Price|product|||MDC|rsf:gd-|-stype:attr=1-br|qr_nm:gd|res:RC4|com-cf:nl|ptrs:na|ktp:N0|mc:184743|mtp:S|qry_typ:P|lang:en|wc:3|cs:9149|v=4,False,Royapuram,Chennai,"35/1, First Floor, Manarsamy Koil Street, Royapuram, Royapuram, Chennai - 600013, Dist.Chennai, Tamil Nadu",7942842952,
Friends Diaper Pull Up (Pack of 20),https://www.indiamart.com/proddetail/friends-diaper-pull-up-17659448148.html?pos=99&kwd=friends adult diapers&tags=BA||||8752.144|Price|product|||MDC|rsf:gd-|-stype:attr=1-br|qr_nm:gd|res:RC4|com-cf:nl|ptrs:na|ktp:N0|mc:184743|mtp:S|qry_typ:P|lang:en|wc:3|cs:9149|v=4,Preet Surgical Co.,https://www.indiamart.com/preetsurgicalco/?pos=99&kwd=friends adult diapers&tags=BA||||8752.144|Price|product|||MDC|rsf:gd-|-stype:attr=1-br|qr_nm:gd|res:RC4|com-cf:nl|ptrs:na|ktp:N0|mc:184743|mtp:S|qry_typ:P|lang:en|wc:3|cs:9149|v=4,False,Chandni Chowk,New Delhi,"1975/76, Shop No. 106, 1st Floor, Narain Bazar, Bhagirath Palace, Chandni Chowk, New Delhi - 110006, Dist.Delhi, Delhi",8048963374,
"Friends Adults Diaper Pants, Size: Medium",https://www.indiamart.com/proddetail/friends-adults-diaper-pants-2853867726773.html?pos=100&kwd=friends adult diapers&tags=BA||||8601.347|Price|product|||MDC|rsf:gd-|-stype:attr=1-br|qr_nm:gd|res:RC4|com-cf:nl|ptrs:na|ktp:N0|mc:184743|mtp:S|qry_typ:P|lang:en|wc:3|cs:9149|v=4,Solution India,https://www.indiamart.com/solutionindia-jaipur/?pos=100&kwd=friends adult diapers&tags=BA||||8601.347|Price|product|||MDC|rsf:gd-|-stype:attr=1-br|qr_nm:gd|res:RC4|com-cf:nl|ptrs:na|ktp:N0|mc:184743|mtp:S|qry_typ:P|lang:en|wc:3|cs:9149|v=4,False,Jhotwara,Jaipur,"G-3, Block 3A, Moon Resi, Behind Shanti Niketan Vidhya Mandir, Laxmi Nagar, Jhotwara, Jaipur - 302012, Dist.Jaipur, Rajasthan",8046044590,
"Pant Style Pull Ups Friends Adults Diaper Pants, Size: Medium",https://www.indiamart.com/proddetail/friends-adults-diaper-pants-2851753178362.html?pos=101&kwd=friends adult diapers&tags=BA||||8785.791|Price|product|||MDC|rsf:gd-|-stype:attr=1-br|qr_nm:gd|res:RC4|com-cf:nl|ptrs:na|ktp:N0|mc:184743|mtp:S|qry_typ:P|lang:en|wc:3|cs:9149|v=4,Ediagno Healthcare Private Limited,https://www.indiamart.com/ediagnohealthcare/?pos=101&kwd=friends adult diapers&tags=BA||||8785.791|Price|product|||MDC|rsf:gd-|-stype:attr=1-br|qr_nm:gd|res:RC4|com-cf:nl|ptrs:na|ktp:N0|mc:184743|mtp:S|qry_typ:P|lang:en|wc:3|cs:9149|v=4,False,Vaishali,Ghaziabad,"1/580, Shop No. 1, Ground Floor, Vaishali, Vaishali, Ghaziabad - 201010, Dist.Ghaziabad, Uttar Pradesh",8043852624,
"Friends Classic Adults Dry Pants, Size: XL",https://www.indiamart.com/proddetail/friends-classic-adults-dry-pants-2854467639955.html?pos=102&kwd=friends adult diapers&tags=BA||||8307.81|Price|product|||MDC|rsf:gd-|-stype:attr=1-br|qr_nm:gd|res:RC4|com-cf:nl|ptrs:na|ktp:N0|mc:184743|mtp:S|qry_typ:P|lang:en|wc:3|cs:9149|v=4,Chaitanya Medical And General Stores,https://www.indiamart.com/chaitanyamedical-generalstores/?pos=102&kwd=friends adult diapers&tags=BA||||8307.81|Price|product|||MDC|rsf:gd-|-stype:attr=1-br|qr_nm:gd|res:RC4|com-cf:nl|ptrs:na|ktp:N0|mc:184743|mtp:S|qry_typ:P|lang:en|wc:3|cs:9149|v=4,False,,Pune,"PLT No. 69 And 53, Shop No. 10, Aditya Apartments, Survey No. 28/2, Anand Nagar,, Pune - 411051, Dist.Pune, Maharashtra",7942659651,
"Adults Basic Friends Adult Diapers, Size: XL",https://www.indiamart.com/proddetail/friends-adult-diapers-2850451727288.html?pos=103&kwd=friends adult diapers&tags=BA||||8307.81|Price|product|||TS|rsf:gd-|-stype:attr=1-br|qr_nm:gd|res:RC4|com-cf:nl|ptrs:na|ktp:N0|mc:184743|mtp:S|qry_typ:P|lang:en|wc:3|cs:9149|v=4,Biometrics,https://www.biometricsindia.in/?pos=103&kwd=friends adult diapers&tags=BA||||8307.81|Price|product|||TS|rsf:gd-|-stype:attr=1-br|qr_nm:gd|res:RC4|com-cf:nl|ptrs:na|ktp:N0|mc:184743|mtp:S|qry_typ:P|lang:en|wc:3|cs:9149|v=4,False,Sadashiv Peth,Pune,"101/3, PMC Conony, Rajendra Nagar, Navi Peth, Sadashiv Peth, Pune - 411030, Dist.Pune, Maharashtra",7942541225,
Friends Classic Unisex Diaper,https://www.indiamart.com/proddetail/friends-classic-unisex-diaper-25898222797.html?pos=104&kwd=friends adult diapers&tags=BB||||9839.57|Price|product|||TS|rsf:gd-|-stype:attr=1-br|qr_nm:gd|res:RC4|com-cf:nl|ptrs:na|ktp:N0|mc:184743|mtp:S|qry_typ:P|lang:en|wc:3|cs:9149|v=4,Aftab Trader,https://www.indiamart.com/aftab-trader-kolkata/?pos=104&kwd=friends adult diapers&tags=BB||||9839.57|Price|product|||TS|rsf:gd-|-stype:attr=1-br|qr_nm:gd|res:RC4|com-cf:nl|ptrs:na|ktp:N0|mc:184743|mtp:S|qry_typ:P|lang:en|wc:3|cs:9149|v=4,False,Baitakkhana North,Kolkata,"H/4, 11/1 Harshi Street, Baitakkhana North, Kolkata - 700009, Dist.Kolkata, West Bengal",8047654403,
Friends Adult Diaper,,Logic Biomedical Technologies,https://www.indiamart.com/logicbiomedicaretechnologies/?pos=105&kwd=friends adult diapers&tags=BA||||8774.064|Price|product|||TS|rsf:gd-|-stype:attr=1-br|qr_nm:gd|res:RC4|com-cf:nl|ptrs:na|ktp:N0|mc:184743|mtp:S|qry_typ:P|lang:en|wc:3|cs:9149|v=4,False,Chinthamani Police Colony,Tiruchirappalli,"7/ Old No. 4, Arabikula Street,, Chinthamani Police Colony, Tiruchirappalli - 620002, Dist.Tiruchirappalli, Tamil Nadu",8048954358,
Friends Adult Diapers,,Dev Pharma,https://www.indiamart.com/dev-pharma-bengaluru/?pos=106&kwd=friends adult diapers&tags=BA||||8663.873|Price|product|||MDC|rsf:gd-|-stype:attr=1-br|qr_nm:gd|res:RC4|com-cf:nl|ptrs:na|ktp:N0|mc:184743|mtp:S|qry_typ:P|lang:en|wc:3|cs:9149|v=4,False,Chamrajpet,Bengaluru,"129/1 9th Cross, 3rd Main Road, Urban, Chamrajpet, Bengaluru - 560018, Dist.Bengaluru, Karnataka",7942817674,
"Friends Large Economy Adult Diapers, 10 Piece",https://www.indiamart.com/proddetail/friends-large-economy-adult-diapers-24277895948.html?pos=107&kwd=friends adult diapers&tags=A||||9644.414|Price|product|||NA|rsf:gd-|-stype:attr=1-br|qr_nm:gd|res:RC4|com-cf:nl|ptrs:na|ktp:N0|mc:184743|mtp:S|qry_typ:P|lang:en|wc:3|cs:9149|v=4,Kanhaiya Enterprises,https://www.indiamart.com/kanhaiya-enterprises-dhanbad/?pos=107&kwd=friends adult diapers&tags=A||||9644.414|Price|product|||NA|rsf:gd-|-stype:attr=1-br|qr_nm:gd|res:RC4|com-cf:nl|ptrs:na|ktp:N0|mc:184743|mtp:S|qry_typ:P|lang:en|wc:3|cs:9149|v=4,False,,Dhanbad,"Ratanji Road, Purana Bazar, Dhanbad - 826001, Dist.Dhanbad, Jharkhand",8046043892,
"Cotton Disposable Friends Adult Diapers, Size: Large, 100 Pieces",https://www.indiamart.com/proddetail/friends-adult-diapers-26078039973.html?pos=108&kwd=friends adult diapers&tags=BB||||8823.154|Price|product|||NA|rsf:gd-|-stype:attr=1-br|qr_nm:gd|res:RC4|com-cf:nl|ptrs:na|ktp:N0|mc:184743|mtp:S|qry_typ:P|lang:en|wc:3|cs:9149|v=4,Ritik Pharma,https://www.indiamart.com/ritik-pharma-agra/?pos=108&kwd=friends adult diapers&tags=BB||||8823.154|Price|product|||NA|rsf:gd-|-stype:attr=1-br|qr_nm:gd|res:RC4|com-cf:nl|ptrs:na|ktp:N0|mc:184743|mtp:S|qry_typ:P|lang:en|wc:3|cs:9149|v=4,False,,Agra,"20/87, 2nd Floor, Jamuna kInara, Opposite Ambedkar Bridge, Agra - 282003, Dist.Agra, Uttar Pradesh",8043860365,
"Unisex Friends Adult Diapers, Packaging Type: Packet",https://www.indiamart.com/proddetail/friends-adult-diapers-14927045591.html?pos=109&kwd=friends adult diapers&tags=BB||||8281.036|Price|product|||NA|rsf:gd-|-stype:attr=1-br|qr_nm:gd|res:RC4|com-cf:nl|ptrs:na|ktp:N0|mc:184743|mtp:S|qry_typ:P|lang:en|wc:3|cs:9149|v=4,Arora Enterprise,https://www.indiamart.com/arora-enterprises-vadodara/?pos=109&kwd=friends adult diapers&tags=BB||||8281.036|Price|product|||NA|rsf:gd-|-stype:attr=1-br|qr_nm:gd|res:RC4|com-cf:nl|ptrs:na|ktp:N0|mc:184743|mtp:S|qry_typ:P|lang:en|wc:3|cs:9149|v=4,False,,Vadodara,"Inside Sanstha Vasahat, Raopura, Vadodara - 390001, Dist.Vadodara, Gujarat",8047647473,
Friends Adult Diapers,https://www.indiamart.com/proddetail/friends-adult-diapers-26414374091.html?pos=110&kwd=friends adult diapers&tags=BB||||8601.347|Price|product|||NA|rsf:gd-|-stype:attr=1-br|qr_nm:gd|res:RC4|com-cf:nl|ptrs:na|ktp:N0|mc:184743|mtp:S|qry_typ:P|lang:en|wc:3|cs:9149|v=4,Onepluse Surgicals Private Limited,https://www.indiamart.com/oneplusesurgicals/?pos=110&kwd=friends adult diapers&tags=BB||||8601.347|Price|product|||NA|rsf:gd-|-stype:attr=1-br|qr_nm:gd|res:RC4|com-cf:nl|ptrs:na|ktp:N0|mc:184743|mtp:S|qry_typ:P|lang:en|wc:3|cs:9149|v=4,False,,Jaipur,"G-12 Ground Floor, Aaluda House, Choura Rasta, Jaipur - 302003, Dist.Jaipur, Rajasthan",8043853680,
"Friends Adult Diapers, Size: Large",https://www.indiamart.com/proddetail/friends-adult-diapers-25986932973.html?pos=111&kwd=friends adult diapers&tags=BB||||8307.81|Price|product|||NA|rsf:gd-|-stype:attr=1-br|qr_nm:gd|res:RC4|com-cf:nl|ptrs:na|ktp:N0|mc:184743|mtp:S|qry_typ:P|lang:en|wc:3|cs:9149|v=4,Health Pharma And Surgical,https://www.indiamart.com/healthpharmasurgical/?pos=111&kwd=friends adult diapers&tags=BB||||8307.81|Price|product|||NA|rsf:gd-|-stype:attr=1-br|qr_nm:gd|res:RC4|com-cf:nl|ptrs:na|ktp:N0|mc:184743|mtp:S|qry_typ:P|lang:en|wc:3|cs:9149|v=4,False,,Pune,"Shop No. A-5, Ground Floor, H. A. Developer, Phase-II, Sr. No. 4/1, 4/2, Priyadarshani Nagar, Sangvi, Pune - 411027, Dist.Pune, Maharashtra",8043852002,
"Pant Style,Normal Friends Adult Diapers, Medium",https://www.indiamart.com/proddetail/friends-adult-diapers-17867296333.html?pos=112&kwd=friends adult diapers&tags=BA||||9839.57|Price|product|||NA|rsf:gd-|-stype:attr=1-br|qr_nm:gd|res:RC4|com-cf:nl|ptrs:na|ktp:N0|mc:184743|mtp:S|qry_typ:P|lang:en|wc:3|cs:9149|v=4,Krishna Traders,https://www.indiamart.com/krishnatradekolkata/?pos=112&kwd=friends adult diapers&tags=BA||||9839.57|Price|product|||NA|rsf:gd-|-stype:attr=1-br|qr_nm:gd|res:RC4|com-cf:nl|ptrs:na|ktp:N0|mc:184743|mtp:S|qry_typ:P|lang:en|wc:3|cs:9149|v=4,False,Bijoygarh,Kolkata,"Kalyani,Nadia, Bijoygarh, Kolkata - 700032, Dist.Kolkata, West Bengal",8069023790,894
"Briefs Friends Adult Diapers, Size: Large",https://www.indiamart.com/proddetail/friends-adult-diapers-2853199209888.html?pos=113&kwd=friends adult diapers&tags=BA||||8211.142|Price|product|||NA|rsf:gd-|-stype:attr=1-br|qr_nm:gd|res:RC4|com-cf:nl|ptrs:na|ktp:N0|mc:184743|mtp:S|qry_typ:P|lang:en|wc:3|cs:9149|v=4,A1 Stores,https://www.indiamart.com/a1-stores-mumbai/?pos=113&kwd=friends adult diapers&tags=BA||||8211.142|Price|product|||NA|rsf:gd-|-stype:attr=1-br|qr_nm:gd|res:RC4|com-cf:nl|ptrs:na|ktp:N0|mc:184743|mtp:S|qry_typ:P|lang:en|wc:3|cs:9149|v=4,False,,Mumbai,"Ground Floor 82 Hill Road, Bandra West A1 Stores, Mumbai - 400050, Dist.Mumbai, Maharashtra",8069707351,918
Friends Adult Diapers,https://www.indiamart.com/proddetail/friends-adult-diapers-2854600967755.html?pos=114&kwd=friends adult diapers&tags=BB||||8926.468||product|||NA|rsf:gd-|-stype:attr=1-br|qr_nm:gd|res:RC4|com-cf:nl|ptrs:na|ktp:N0|mc:184743|mtp:S|qry_typ:P|lang:en|wc:3|cs:9149|v=4,Paras Surgicals And Chemicals,https://www.indiamart.com/ms-paras-surgicals-and-chemicals/?pos=114&kwd=friends adult diapers&tags=BB||||8926.468||product|||NA|rsf:gd-|-stype:attr=1-br|qr_nm:gd|res:RC4|com-cf:nl|ptrs:na|ktp:N0|mc:184743|mtp:S|qry_typ:P|lang:en|wc:3|cs:9149|v=4,False,mothilal street,Tiruvallur,"No 15 Mothilal Street Thiruvallur, mothilal street, Tiruvallur - 602001, Dist.Tiruvallur, Tamil Nadu",8069017460,171
"Friends Adult Diapers, Size: XL",https://www.indiamart.com/proddetail/friends-adult-diapers-27475489562.html?pos=115&kwd=friends adult diapers&tags=BB||||8211.142|Price|product|||NA|rsf:gd-|-stype:attr=1-br|qr_nm:gd|res:RC4|com-cf:nl|ptrs:na|ktp:N0|mc:184743|mtp:S|qry_typ:P|lang:en|wc:3|cs:9149|v=4,Advik Enterprises,https://www.indiamart.com/advikenterprisesmumbai/?pos=115&kwd=friends adult diapers&tags=BB||||8211.142|Price|product|||NA|rsf:gd-|-stype:attr=1-br|qr_nm:gd|res:RC4|com-cf:nl|ptrs:na|ktp:N0|mc:184743|mtp:S|qry_typ:P|lang:en|wc:3|cs:9149|v=4,False,Dahisar East Mira Bhayandar,Mumbai,"Shop No. 1, Ground Floor Mumbai Suburban, Dahisar East Mira Bhayandar, Mumbai - 400068, Dist.Mumbai, Maharashtra",7942674280,
"18+ Pant Friends Adult Diapers, Size: XL, 10PCS",https://www.indiamart.com/proddetail/friends-adult-diapers-2850780910033.html?pos=116&kwd=friends adult diapers&tags=BA||||8228.275|Price|product|||NA|rsf:gd-|-stype:attr=1-br|qr_nm:gd|res:RC4|com-cf:nl|ptrs:na|ktp:N0|mc:184743|mtp:S|qry_typ:P|lang:en|wc:3|cs:9149|v=4,Aerorise International Private Limited,https://www.indiamart.com/aerorise-international-ahmedabad/?pos=116&kwd=friends adult diapers&tags=BA||||8228.275|Price|product|||NA|rsf:gd-|-stype:attr=1-br|qr_nm:gd|res:RC4|com-cf:nl|ptrs:na|ktp:N0|mc:184743|mtp:S|qry_typ:P|lang:en|wc:3|cs:9149|v=4,False,,Ahmedabad,"6, B-605, Shakti Etc, New SG Road, Shri Krishna Farm Party Plot, Chandlodiya,, Ahmedabad - 382481, Dist.Ahmedabad, Gujarat",7942675917,
"Friends Adult Diapers, Size: Medium",https://www.indiamart.com/proddetail/friends-adult-diapers-2853309377962.html?pos=117&kwd=friends adult diapers&tags=BA||||8706.587|Price|product|||NA|rsf:gd-|-stype:attr=1-br|qr_nm:gd|res:RC4|com-cf:nl|ptrs:na|ktp:N0|mc:184743|mtp:S|qry_typ:P|lang:en|wc:3|cs:9149|v=4,One Point Surgicals,https://www.indiamart.com/one-point-surgicals/?pos=117&kwd=friends adult diapers&tags=BA||||8706.587|Price|product|||NA|rsf:gd-|-stype:attr=1-br|qr_nm:gd|res:RC4|com-cf:nl|ptrs:na|ktp:N0|mc:184743|mtp:S|qry_typ:P|lang:en|wc:3|cs:9149|v=4,False,,Madurai,"124, Naikkar New Street, Simmakkal, Madurai - 625001, Dist.Madurai, Tamil Nadu",8047627466,
"Friends Adult Diapers, Size: XL",,Anand Medical Agencies,https://www.indiamart.com/anand-medical-agencies-tiruvallur/?pos=118&kwd=friends adult diapers&tags=BB||||8926.468||product|||NA|rsf:gd-|-stype:attr=1-br|qr_nm:gd|res:RC4|com-cf:nl|ptrs:na|ktp:N0|mc:184743|mtp:S|qry_typ:P|lang:en|wc:3|cs:9149|v=4,False,,Tiruvallur,"Ground Floor, No. 15/1, 15/2, Mothilal Street, Tiruvallur - 602001, Dist.Tiruvallur, Tamil Nadu",8048370727,5744
"Protective Underwear Friends Easy Adult Diapers, Size: Small, 10 Diaper",https://www.indiamart.com/proddetail/friends-easy-adult-diapers-2851869981030.html?pos=119&kwd=friends adult diapers&tags=BB||||8413.825|Price|product|||NA|rsf:gd-|-stype:attr=1-br|qr_nm:gd|res:RC4|com-cf:nl|ptrs:na|ktp:N0|mc:184743|mtp:S|qry_typ:P|lang:en|wc:3|cs:9149|v=4,Rajesh Pharma,https://www.indiamart.com/rajeshpharma-hubli/?pos=119&kwd=friends adult diapers&tags=BB||||8413.825|Price|product|||NA|rsf:gd-|-stype:attr=1-br|qr_nm:gd|res:RC4|com-cf:nl|ptrs:na|ktp:N0|mc:184743|mtp:S|qry_typ:P|lang:en|wc:3|cs:9149|v=4,False,,Hubballi,"2nd, 53 54 55, Eureka Centre, Koppikar Road, Hubballi - 580020, Karnataka",7942865420,
"Friends Adult Diapers, Size: Large",,Krishna Medical And Surgical/Krsna Medical And Ge/Mango Sweet,https://www.indiamart.com/krishna-medical-and-surgicalkrsna-medical-and-gemango-sweet/?pos=120&kwd=friends adult diapers&tags=BB||||8307.81|Price|product|||NA|rsf:gd-|-stype:attr=1-br|qr_nm:gd|res:RC4|com-cf:nl|ptrs:na|ktp:N0|mc:184743|mtp:S|qry_typ:P|lang:en|wc:3|cs:9149|v=4,False,Somwar Peth,Pune,"Shop No. 1 Somwar Peth Shantiniketan Kem hospital gate no 1, Somwar Peth, Pune - 411011, Dist.Pune, Maharashtra",8047845590,
"Protective Underwear Friends Adult Diapers, Size: Medium, 10 Diaper",https://www.indiamart.com/proddetail/friends-adult-diapers-2850891039233.html?pos=121&kwd=friends adult diapers&tags=BB||||8228.275|Price|product|||NA|rsf:gd-|-stype:attr=1-br|qr_nm:gd|res:RC4|com-cf:nl|ptrs:na|ktp:N0|mc:184743|mtp:S|qry_typ:P|lang:en|wc:3|cs:9149|v=4,Tirupati Surgicals,https://www.indiamart.com/tirupati-surgicals-ahmedabad/?pos=121&kwd=friends adult diapers&tags=BB||||8228.275|Price|product|||NA|rsf:gd-|-stype:attr=1-br|qr_nm:gd|res:RC4|com-cf:nl|ptrs:na|ktp:N0|mc:184743|mtp:S|qry_typ:P|lang:en|wc:3|cs:9149|v=4,False,,Ahmedabad,"SHOP NO.12, FIRST FLOOR, SHIV COMPLEX, NANDAN PARK BOPAL GHUMA ROAD, Ahmedabad - 380058, Dist.Ahmedabad, Gujarat",7942642580,
"Friends Adult Diapers, Size: XL",https://www.indiamart.com/proddetail/friends-adult-diapers-26017812148.html?pos=122&kwd=friends adult diapers&tags=BA||||8778.123|Price|product|||NA|rsf:gd-|-stype:attr=1-br|qr_nm:gd|res:RC4|com-cf:nl|ptrs:na|ktp:N0|mc:184743|mtp:S|qry_typ:P|lang:en|wc:3|cs:9149|v=4,Washim Pampers,https://www.indiamart.com/washim-pampers/?pos=122&kwd=friends adult diapers&tags=BA||||8778.123|Price|product|||NA|rsf:gd-|-stype:attr=1-br|qr_nm:gd|res:RC4|com-cf:nl|ptrs:na|ktp:N0|mc:184743|mtp:S|qry_typ:P|lang:en|wc:3|cs:9149|v=4,False,,Noida,"Mahalaxmi Garden, Phase-1, Ground Floor, Choudhary Charan Singh Gate, Khora Colony, Noida - 201309, Dist.Gautam Budh Nagar, Uttar Pradesh",8047300175,
"Above 70 Tape Friends Adult Diapers, Size: Large, Box",https://www.indiamart.com/proddetail/friends-adult-diapers-27374255112.html?pos=123&kwd=friends adult diapers&tags=BB||||8746.929|Price|product|||NA|rsf:gd-|-stype:attr=1-br|qr_nm:gd|res:RC4|com-cf:nl|ptrs:na|ktp:N0|mc:184743|mtp:S|qry_typ:P|lang:en|wc:3|cs:9149|v=4,Mahaluxmi Surgical & Medicine Distributors,https://www.indiamart.com/mahaluxmisurgical-medicinedistributors/?pos=123&kwd=friends adult diapers&tags=BB||||8746.929|Price|product|||NA|rsf:gd-|-stype:attr=1-br|qr_nm:gd|res:RC4|com-cf:nl|ptrs:na|ktp:N0|mc:184743|mtp:S|qry_typ:P|lang:en|wc:3|cs:9149|v=4,False,,Chandigarh,"SCO 85-86, 2nd Floor, Sector 16D, Chandigarh - 160016, Chandigarh",8047549414,
"Economy Friends Adult Diapers, Size: Medium",https://www.indiamart.com/proddetail/friends-adult-diapers-2851070326973.html?pos=124&kwd=friends adult diapers&tags=BA||||8752.144|Price|product|||NA|rsf:gd-|-stype:attr=1-br|qr_nm:gd|res:RC4|com-cf:nl|ptrs:na|ktp:N0|mc:184743|mtp:S|qry_typ:P|lang:en|wc:3|cs:9149|v=4,Kapoor Pharma,https://www.indiamart.com/kapoor-pharma-delhi/?pos=124&kwd=friends adult diapers&tags=BA||||8752.144|Price|product|||NA|rsf:gd-|-stype:attr=1-br|qr_nm:gd|res:RC4|com-cf:nl|ptrs:na|ktp:N0|mc:184743|mtp:S|qry_typ:P|lang:en|wc:3|cs:9149|v=4,False,Nangloi Saiyed,New Delhi,"Shop No-38, First Floor, Dda Pkt Gh 5 And 7, Paschim Vihar, Nangloi Saiyed, New Delhi - 110087, Dist.Delhi, Delhi",8046043957,
"Friends Adult Diapers, Size: L, 10",https://www.indiamart.com/proddetail/friends-adult-diapers-20987193233.html?pos=125&kwd=friends adult diapers&tags=BB||||9839.57|Price|product|||NA|rsf:gd-|-stype:attr=1-br|qr_nm:gd|res:RC4|com-cf:nl|ptrs:na|ktp:N0|mc:184743|mtp:S|qry_typ:P|lang:en|wc:3|cs:9149|v=4,Dalmadal Traders.,https://www.indiamart.com/dalmadal-traders/?pos=125&kwd=friends adult diapers&tags=BB||||9839.57|Price|product|||NA|rsf:gd-|-stype:attr=1-br|qr_nm:gd|res:RC4|com-cf:nl|ptrs:na|ktp:N0|mc:184743|mtp:S|qry_typ:P|lang:en|wc:3|cs:9149|v=4,False,Machuabazar,Kolkata,"Plot No 127 keshab Chandra sen street, Machuabazar, Kolkata - 700009, Dist.Kolkata, West Bengal",8048247120,4801
"Friends Adult Diapers, Size: Large, 10 Pieces",https://www.indiamart.com/proddetail/friends-adult-diapers-25376712362.html?pos=126&kwd=friends adult diapers&tags=BB||||8954.051|Price|product|||NA|rsf:gd-|-stype:attr=1-br|qr_nm:gd|res:RC4|com-cf:nl|ptrs:na|ktp:N0|mc:184743|mtp:S|qry_typ:P|lang:en|wc:3|cs:9149|v=4,R. R. Pharmacy,https://www.indiamart.com/rrpharmacy/?pos=126&kwd=friends adult diapers&tags=BB||||8954.051|Price|product|||NA|rsf:gd-|-stype:attr=1-br|qr_nm:gd|res:RC4|com-cf:nl|ptrs:na|ktp:N0|mc:184743|mtp:S|qry_typ:P|lang:en|wc:3|cs:9149|v=4,False,,Chennai,"181-G,Luz Church Road,Mylapore, Chennai - 600004, Dist.Chennai, Tamil Nadu",8048265688,
"Sticker Friends Adult Diapers, 10 Pieces",https://www.indiamart.com/proddetail/friends-adult-diapers-25487698888.html?pos=127&kwd=friends adult diapers&tags=BA||||8584.299|Price|product|||NA|rsf:gd-|-stype:attr=1-br|qr_nm:gd|res:RC4|com-cf:nl|ptrs:na|ktp:N0|mc:184743|mtp:S|qry_typ:P|lang:en|wc:3|cs:9149|v=4,Karthiyayani Trading & Consulting,https://www.indiamart.com/karthiyayani-trading-consulting/?pos=127&kwd=friends adult diapers&tags=BA||||8584.299|Price|product|||NA|rsf:gd-|-stype:attr=1-br|qr_nm:gd|res:RC4|com-cf:nl|ptrs:na|ktp:N0|mc:184743|mtp:S|qry_typ:P|lang:en|wc:3|cs:9149|v=4,False,Kuniyamuthur,Coimbatore,"20/6, Rajnaicker Thottam, II Nd Street, Kuniyamuthur, Kuniyamuthur, Coimbatore - 641008, Dist.Coimbatore, Tamil Nadu",8048262420,
"Friends Adults Diaper Pants, Size: Medium",https://www.indiamart.com/proddetail/friends-adults-diaper-pants-2851805149473.html?pos=128&kwd=friends adult diapers&tags=BA||||8226.563|Price|product|||NA|rsf:gd-|-stype:attr=1-br|qr_nm:gd|res:RC4|com-cf:nl|ptrs:na|ktp:N0|mc:184743|mtp:S|qry_typ:P|lang:en|wc:3|cs:9149|v=4,Kreesha Enterprises,https://www.indiamart.com/kreesha-enterprises/?pos=128&kwd=friends adult diapers&tags=BA||||8226.563|Price|product|||NA|rsf:gd-|-stype:attr=1-br|qr_nm:gd|res:RC4|com-cf:nl|ptrs:na|ktp:N0|mc:184743|mtp:S|qry_typ:P|lang:en|wc:3|cs:9149|v=4,False,,Navi Mumbai,"Groung Floor Shop No. 01 Sector No. 28 Sai Sangh Cooperative Housing Society, Navi Mumbai - 400706, Dist.Thane, Maharashtra",7942798965,
"70+ Pull Up Friends Adult Diapers, Size: Large, 10 Pieces",https://www.indiamart.com/proddetail/friends-adult-diapers-26767969173.html?pos=129&kwd=friends adult diapers&tags=BA||||8584.299||product|||NA|rsf:gd-|-stype:attr=1-br|qr_nm:gd|res:RC4|com-cf:nl|ptrs:na|ktp:N0|mc:184743|mtp:S|qry_typ:P|lang:en|wc:3|cs:9149|v=4,Med Partner,https://www.indiamart.com/med-partner/?pos=129&kwd=friends adult diapers&tags=BA||||8584.299||product|||NA|rsf:gd-|-stype:attr=1-br|qr_nm:gd|res:RC4|com-cf:nl|ptrs:na|ktp:N0|mc:184743|mtp:S|qry_typ:P|lang:en|wc:3|cs:9149|v=4,False,Ctc Staff Quarters,Coimbatore,"No.163/B1, Venkatachalam Road West, R.S.Puram, Ctc Staff Quarters, Coimbatore - 641002, Dist.Coimbatore, Tamil Nadu",8048211772,
Friends Adult Diapers,https://www.indiamart.com/proddetail/friends-adult-diapers-20495178788.html?pos=130&kwd=friends adult diapers&tags=BA||||8307.81|Price|product|||NA|rsf:gd-|-stype:attr=1-br|qr_nm:gd|res:RC4|com-cf:nl|ptrs:na|ktp:N0|mc:184743|mtp:S|qry_typ:P|lang:en|wc:3|cs:9149|v=4,Aarush Enterprises,https://www.indiamart.com/aarushenterprisespune/?pos=130&kwd=friends adult diapers&tags=BA||||8307.81|Price|product|||NA|rsf:gd-|-stype:attr=1-br|qr_nm:gd|res:RC4|com-cf:nl|ptrs:na|ktp:N0|mc:184743|mtp:S|qry_typ:P|lang:en|wc:3|cs:9149|v=4,False,Markal,Pune,"Dhanore Gaon H No. 552 Alandi Markal Road Khandobache Wadi Dhanore, Taluka Khed, Markal, Pune - 412105, Dist.Pune, Maharashtra",8047638035,
"Pull Ups Friends Adult Diapers, Size: Medium, 10Piece",https://www.indiamart.com/proddetail/friends-adult-diapers-2852591951091.html?pos=131&kwd=friends adult diapers&tags=BA||||8559.269|Price|product|||NA|rsf:gd-|-stype:attr=1-br|qr_nm:gd|res:RC4|com-cf:nl|ptrs:na|ktp:N0|mc:184743|mtp:S|qry_typ:P|lang:en|wc:3|cs:9149|v=4,Shivam Health And Hygiene,https://www.indiamart.com/shivamhealth-hygiene/?pos=131&kwd=friends adult diapers&tags=BA||||8559.269|Price|product|||NA|rsf:gd-|-stype:attr=1-br|qr_nm:gd|res:RC4|com-cf:nl|ptrs:na|ktp:N0|mc:184743|mtp:S|qry_typ:P|lang:en|wc:3|cs:9149|v=4,False,Old Agarwal Nagar,Indore,"112, B. M. Tower, Sapna Sangeeta Road, Old Agarwal Nagar, Indore - 452001, Dist.Indore, Madhya Pradesh",7942707717,
"Unisex Regular Friends Easy Adult Diapers, Size: Medium",https://www.indiamart.com/proddetail/friends-easy-adult-diapers-25850815430.html?pos=132&kwd=friends adult diapers&tags=BA||||8954.051|Price|product|||NA|rsf:gd-|-stype:attr=1-br|qr_nm:gd|res:RC4|com-cf:nl|ptrs:na|ktp:N0|mc:184743|mtp:S|qry_typ:P|lang:en|wc:3|cs:9149|v=4,Diaperkart Health Store,https://www.indiamart.com/diaperkart-healthstore/?pos=132&kwd=friends adult diapers&tags=BA||||8954.051|Price|product|||NA|rsf:gd-|-stype:attr=1-br|qr_nm:gd|res:RC4|com-cf:nl|ptrs:na|ktp:N0|mc:184743|mtp:S|qry_typ:P|lang:en|wc:3|cs:9149|v=4,False,,Chennai,"Ground Floor, 140, Luz Ginza Complex, Royapettah High Road,, Chennai - 600004, Dist.Chennai, Tamil Nadu",8047314774,
Friends L Adult Diapers,https://www.indiamart.com/proddetail/friends-l-adult-diapers-24317646488.html?pos=133&kwd=friends adult diapers&tags=BB||||8307.81|Price|product|||NA|rsf:gd-|-stype:attr=1-br|qr_nm:gd|res:RC4|com-cf:nl|ptrs:na|ktp:N0|mc:184743|mtp:S|qry_typ:P|lang:en|wc:3|cs:9149|v=4,Bhikshu Distributors,https://www.indiamart.com/bhikshu-distributors/?pos=133&kwd=friends adult diapers&tags=BB||||8307.81|Price|product|||NA|rsf:gd-|-stype:attr=1-br|qr_nm:gd|res:RC4|com-cf:nl|ptrs:na|ktp:N0|mc:184743|mtp:S|qry_typ:P|lang:en|wc:3|cs:9149|v=4,False,Sadashiv peth,Pune,"Shop No 02, Wing A, Ground Floor, Rajnigandha Building Near Nimbalkar Talim, Next To Ved Pharma, Sadashiv peth, Pune - 411030, Dist.Pune, Maharashtra",7942531671,
"Disposable Friends Adult Diaper, 10, Packaging Size: 12",https://www.indiamart.com/proddetail/friends-adult-diaper-25681830797.html?pos=134&kwd=friends adult diapers&tags=BA||||8861.185|Price|product|||NA|rsf:gd-|-stype:attr=1-br|qr_nm:gd|res:RC4|com-cf:nl|ptrs:na|ktp:N0|mc:184743|mtp:S|qry_typ:P|lang:en|wc:3|cs:9149|v=4,Ambar Agencies,https://www.indiamart.com/ms-ambar-agencies-jhansi/?pos=134&kwd=friends adult diapers&tags=BA||||8861.185|Price|product|||NA|rsf:gd-|-stype:attr=1-br|qr_nm:gd|res:RC4|com-cf:nl|ptrs:na|ktp:N0|mc:184743|mtp:S|qry_typ:P|lang:en|wc:3|cs:9149|v=4,False,Jhansi,Jhansi,"198 Laxman Ganj Laxman Ganj, Jhansi, Jhansi - 284002, Dist.Jhansi, Uttar Pradesh",8048371968,520
"Regular Friends Overnight Adult Diapers, Size: Medium, 10 Pcs",https://www.indiamart.com/proddetail/friends-overnight-adult-diapers-25558422973.html?pos=135&kwd=friends adult diapers&tags=BB||||8211.142|Price|product|||NA|rsf:gd-|-stype:attr=1-br|qr_nm:gd|res:RC4|com-cf:nl|ptrs:na|ktp:N0|mc:184743|mtp:S|qry_typ:P|lang:en|wc:3|cs:9149|v=4,Jeegar Surgical,https://www.indiamart.com/jeegar-surgical/?pos=135&kwd=friends adult diapers&tags=BB||||8211.142|Price|product|||NA|rsf:gd-|-stype:attr=1-br|qr_nm:gd|res:RC4|com-cf:nl|ptrs:na|ktp:N0|mc:184743|mtp:S|qry_typ:P|lang:en|wc:3|cs:9149|v=4,False,Opposite Telephone Exchange Malad West Suburban,Mumbai,"Room No 4,Bawdigalli,Hindustan Naka, Charkop,Kandivali West Shop No. 28,Maharaja Apartment, S. V. Road,400064,Mumbai, Opposite Telephone Exchange Malad West Suburban, Mumbai - 400067, Dist.Mumbai, Maharashtra",8047652652,
"Diaper Pant Friends Classic Adult Diapers Pants, Size: Large, 10",https://www.indiamart.com/proddetail/friends-classic-adult-diapers-pants-24735020462.html?pos=136&kwd=friends adult diapers&tags=BB||||8223.226|Price|product|||NA|rsf:gd-|-stype:attr=1-br|qr_nm:gd|res:RC4|com-cf:nl|ptrs:na|ktp:N0|mc:184743|mtp:S|qry_typ:P|lang:en|wc:3|cs:9149|v=4,Craztal Health & Hygiene LLP,https://www.indiamart.com/craztal-health-hygiene/?pos=136&kwd=friends adult diapers&tags=BB||||8223.226|Price|product|||NA|rsf:gd-|-stype:attr=1-br|qr_nm:gd|res:RC4|com-cf:nl|ptrs:na|ktp:N0|mc:184743|mtp:S|qry_typ:P|lang:en|wc:3|cs:9149|v=4,False,,Thane,"203 Devendra Industrial Estate Lokmanya Nagar, Thane - 400606, Dist.Thane, Maharashtra",8048964186,
"Friends Premium Adult Diapers, Size: XL",https://www.indiamart.com/proddetail/friends-premium-adult-diapers-2851508761130.html?pos=137&kwd=friends adult diapers&tags=BA||||8281.036|Price|product|||NA|rsf:gd-|-stype:attr=1-br|qr_nm:gd|res:RC4|com-cf:nl|ptrs:na|ktp:N0|mc:184743|mtp:S|qry_typ:P|lang:en|wc:3|cs:9149|v=4,V Care Surgicals,https://www.indiamart.com/vcaresurgicals/?pos=137&kwd=friends adult diapers&tags=BA||||8281.036|Price|product|||NA|rsf:gd-|-stype:attr=1-br|qr_nm:gd|res:RC4|com-cf:nl|ptrs:na|ktp:N0|mc:184743|mtp:S|qry_typ:P|lang:en|wc:3|cs:9149|v=4,False,,Vadodara,"Gf-2, N.j. Chambers, Shiyapura Road, Opp Tanna Manna Mension, Raopura, Vadodara - 390001, Dist.Vadodara, Gujarat",8047797837,
"Above 50 Protective Underwear Easy Friends Adult Diapers, Size: M",https://www.indiamart.com/proddetail/easy-friends-adult-diapers-2852396821973.html?pos=138&kwd=friends adult diapers&tags=BA||||8584.299|Price|product|||NA|rsf:gd-|-stype:attr=1-br|qr_nm:gd|res:RC4|com-cf:nl|ptrs:na|ktp:N0|mc:184743|mtp:S|qry_typ:P|lang:en|wc:3|cs:9149|v=4,Kovai Orange Surgicals,https://www.indiamart.com/kovai-orange-surgicals/?pos=138&kwd=friends adult diapers&tags=BA||||8584.299|Price|product|||NA|rsf:gd-|-stype:attr=1-br|qr_nm:gd|res:RC4|com-cf:nl|ptrs:na|ktp:N0|mc:184743|mtp:S|qry_typ:P|lang:en|wc:3|cs:9149|v=4,False,,Coimbatore,"721,Trichy Road, Ramanathapuram, Coimbatore - 641045, Dist.Coimbatore, Tamil Nadu",7942707732,
"Briefs Economy Friends Adult Diapers, Size: Medium, 10 Piece",https://www.indiamart.com/proddetail/economy-friends-adult-diapers-2851694428055.html?pos=139&kwd=friends adult diapers&tags=BA||||8778.123|Price|product|||NA|rsf:gd-|-stype:attr=1-br|qr_nm:gd|res:RC4|com-cf:nl|ptrs:na|ktp:N0|mc:184743|mtp:S|qry_typ:P|lang:en|wc:3|cs:9149|v=4,Ons Surgical Private Limited,https://www.indiamart.com/onssurgical/?pos=139&kwd=friends adult diapers&tags=BA||||8778.123|Price|product|||NA|rsf:gd-|-stype:attr=1-br|qr_nm:gd|res:RC4|com-cf:nl|ptrs:na|ktp:N0|mc:184743|mtp:S|qry_typ:P|lang:en|wc:3|cs:9149|v=4,False,,Noida,"Shop No. 12 Parthala Chowk Khasra No. 60 Noida, Noida - 201307, Dist.Gautam Budh Nagar, Uttar Pradesh",7942831097,
"Friends Overnight Adult Diaper, Size: Medium",https://www.indiamart.com/proddetail/friends-overnight-adult-diaper-2853884638573.html?pos=140&kwd=friends adult diapers&tags=BA||||8211.142|Price|product|||NA|rsf:gd-|-stype:attr=1-br|qr_nm:gd|res:RC4|com-cf:nl|ptrs:na|ktp:N0|mc:184743|mtp:S|qry_typ:P|lang:en|wc:3|cs:9149|v=4,Khodiyar Enterprise,https://www.indiamart.com/khodiyar-enterprisemumbai/?pos=140&kwd=friends adult diapers&tags=BA||||8211.142|Price|product|||NA|rsf:gd-|-stype:attr=1-br|qr_nm:gd|res:RC4|com-cf:nl|ptrs:na|ktp:N0|mc:184743|mtp:S|qry_typ:P|lang:en|wc:3|cs:9149|v=4,False,Borivali H.O,Mumbai,"02,D-8, Yogi Prabhat Chs. Ltd,Eksar Road, Borivali H.O, Mumbai - 400091, Dist.Mumbai, Maharashtra",7949372928,
"Easy Friends Adult Diapers, Size: Large",https://www.indiamart.com/proddetail/easy-friends-adult-diapers-24235455655.html?pos=141&kwd=friends adult diapers&tags=BB||||8211.304|Price|product|||NA|rsf:gd-|-stype:attr=1-br|qr_nm:gd|res:RC4|com-cf:nl|ptrs:na|ktp:N0|mc:184743|mtp:S|qry_typ:P|lang:en|wc:3|cs:9149|v=4,Allmedz Surgicals And Pharmaceutical,https://www.indiamart.com/allmedzsurgicalspharmaceutical/?pos=141&kwd=friends adult diapers&tags=BB||||8211.304|Price|product|||NA|rsf:gd-|-stype:attr=1-br|qr_nm:gd|res:RC4|com-cf:nl|ptrs:na|ktp:N0|mc:184743|mtp:S|qry_typ:P|lang:en|wc:3|cs:9149|v=4,False,,Bhayandar,"A-102, Jyoti Apartment, Ramchandra Nagar, BP Road, District Thane, Bhayandar - 401105, Dist.Thane, Maharashtra",8046071810,
"Tape Type Friends Easy Adult Diapers, 10, Size: Large",https://www.indiamart.com/proddetail/friends-easy-adult-diapers-24174903291.html?pos=142&kwd=friends adult diapers&tags=BA||||8668.838|Price|product|||NA|rsf:gd-|-stype:attr=1-br|qr_nm:gd|res:RC4|com-cf:nl|ptrs:na|ktp:N0|mc:184743|mtp:S|qry_typ:P|lang:en|wc:3|cs:9149|v=4,The Royal Surgicals,https://www.indiamart.com/the-royal-surgicals/?pos=142&kwd=friends adult diapers&tags=BA||||8668.838|Price|product|||NA|rsf:gd-|-stype:attr=1-br|qr_nm:gd|res:RC4|com-cf:nl|ptrs:na|ktp:N0|mc:184743|mtp:S|qry_typ:P|lang:en|wc:3|cs:9149|v=4,False,Chidambaram Colony,Erode,"27, Patel Street,, Chidambaram Colony, Erode - 638001, Dist.Erode, Tamil Nadu",7942827077,
Friends Adult Diapers Large,https://www.indiamart.com/proddetail/friends-adult-diapers-large-2849037181173.html?pos=143&kwd=friends adult diapers&tags=BB||||8668.295||product|||NA|rsf:gd-|-stype:attr=1-br|qr_nm:gd|res:RC4|com-cf:nl|ptrs:na|ktp:N0|mc:184743|mtp:S|qry_typ:P|lang:en|wc:3|cs:9149|v=4,Happy Health Care Solutions,https://www.indiamart.com/happyhealth-caresolution/?pos=143&kwd=friends adult diapers&tags=BB||||8668.295||product|||NA|rsf:gd-|-stype:attr=1-br|qr_nm:gd|res:RC4|com-cf:nl|ptrs:na|ktp:N0|mc:184743|mtp:S|qry_typ:P|lang:en|wc:3|cs:9149|v=4,False,,Oddanchatram,"397J, Palani road, Oddanchatram - 624619, Dist.Dindigul, Tamil Nadu",8043856665,
"Friends Old Age Friend Plastic Adult Diaper, Size: Large",https://www.indiamart.com/proddetail/friend-plastic-adult-diaper-2850042396933.html?pos=144&kwd=friends adult diapers&tags=BB||||8785.791|Price|product|||NA|rsf:gd-|-stype:attr=1-br|qr_nm:gd|res:RC4|com-cf:nl|ptrs:na|ktp:N0|mc:184743|mtp:S|qry_typ:P|lang:en|wc:3|cs:9149|v=4,Nav Durga Sales Corporation,https://www.indiamart.com/nav-durgasales-corporation/?pos=144&kwd=friends adult diapers&tags=BB||||8785.791|Price|product|||NA|rsf:gd-|-stype:attr=1-br|qr_nm:gd|res:RC4|com-cf:nl|ptrs:na|ktp:N0|mc:184743|mtp:S|qry_typ:P|lang:en|wc:3|cs:9149|v=4,False,,Ghaziabad,"RC 800, New Ajant Park, Khora Makanpur,, Ghaziabad - 201001, Dist.Ghaziabad, Uttar Pradesh",7942796665,
"60 Years Tab Style Diaper Extra Large Friends Adult Diapers, Size: XL",https://www.indiamart.com/proddetail/extra-large-friends-adult-diapers-26466619412.html?pos=145&kwd=friends adult diapers&tags=BB||||8307.81|Price|product|||NA|rsf:gd-|-stype:attr=1-br|qr_nm:gd|res:RC4|com-cf:nl|ptrs:na|ktp:N0|mc:184743|mtp:S|qry_typ:P|lang:en|wc:3|cs:9149|v=4,S K Distributors,https://www.indiamart.com/s-kdistributors/?pos=145&kwd=friends adult diapers&tags=BB||||8307.81|Price|product|||NA|rsf:gd-|-stype:attr=1-br|qr_nm:gd|res:RC4|com-cf:nl|ptrs:na|ktp:N0|mc:184743|mtp:S|qry_typ:P|lang:en|wc:3|cs:9149|v=4,False,,Pune,"1376/1394, sadashiv Oeth, Prerana Apt, Near chimnya Ganpati, Pune - 411030, Dist.Pune, Maharashtra",8047619801,
"80 Years Briefs Friends Economy Adult Diapers, Size: XL",https://www.indiamart.com/proddetail/friends-economy-adult-diapers-2851217968873.html?pos=146&kwd=friends adult diapers&tags=BA||||8234.609|Price|product|||NA|rsf:gd-|-stype:attr=1-br|qr_nm:gd|res:RC4|com-cf:nl|ptrs:na|ktp:N0|mc:184743|mtp:S|qry_typ:P|lang:en|wc:3|cs:9149|v=4,Unique Pharmacy,https://www.indiamart.com/uniquepharmacy-valsad/?pos=146&kwd=friends adult diapers&tags=BA||||8234.609|Price|product|||NA|rsf:gd-|-stype:attr=1-br|qr_nm:gd|res:RC4|com-cf:nl|ptrs:na|ktp:N0|mc:184743|mtp:S|qry_typ:P|lang:en|wc:3|cs:9149|v=4,False,,Valsad,"Ground Floor Shop No 1 Chharwada Road Opp Nandan Apt Bhole Baba Co.op Housing Society Vapi, Valsad, Valsad - 396191, Dist.Valsad, Gujarat",8043885011,
"99 Year Heavy Friends Easy Adult Diapers, Size: Large",https://www.indiamart.com/proddetail/friends-easy-adult-diapers-2851279100130.html?pos=147&kwd=friends adult diapers&tags=BA||||8778.123|Price|product|||NA|rsf:gd-|-stype:attr=1-br|qr_nm:gd|res:RC4|com-cf:nl|ptrs:na|ktp:N0|mc:184743|mtp:S|qry_typ:P|lang:en|wc:3|cs:9149|v=4,Indra Trading Co.,https://www.indiamart.com/indra-tradingco/?pos=147&kwd=friends adult diapers&tags=BA||||8778.123|Price|product|||NA|rsf:gd-|-stype:attr=1-br|qr_nm:gd|res:RC4|com-cf:nl|ptrs:na|ktp:N0|mc:184743|mtp:S|qry_typ:P|lang:en|wc:3|cs:9149|v=4,False,,Noida,"Village-Harola, Sector-5, Gautam Buddha Nagar, Noida - 201301, Dist.Gautam Budh Nagar, Uttar Pradesh",7942839428,
"Premium Friends Adult Diapers, Packaging Type: Box, Waist Size: 29-40 inch",https://www.indiamart.com/proddetail/premium-friends-adult-diapers-19610888097.html?pos=148&kwd=friends adult diapers&tags=BB||||8954.051|Price|product|||NA|rsf:gd-|-stype:attr=1-br|qr_nm:gd|res:RC4|com-cf:nl|ptrs:na|ktp:N0|mc:184743|mtp:S|qry_typ:P|lang:en|wc:3|cs:9149|v=4,Alpha Lifemed,https://www.indiamart.com/hitwinhealthcare/?pos=148&kwd=friends adult diapers&tags=BB||||8954.051|Price|product|||NA|rsf:gd-|-stype:attr=1-br|qr_nm:gd|res:RC4|com-cf:nl|ptrs:na|ktp:N0|mc:184743|mtp:S|qry_typ:P|lang:en|wc:3|cs:9149|v=4,False,Arumbakkam,Chennai,"20S,PREMIER BUILDING,VENUGOPAL STREET,VENUGOPAL STREET No. 7, 10, Jaganathan Nagar,600106,Chennai, Arumbakkam, Chennai - 600037, Dist.Chennai, Tamil Nadu",8046034955,
"Pant Type Briefs Friends Adult Diapers Medium, 10",https://www.indiamart.com/proddetail/friends-adult-diapers-medium-2852331489673.html?pos=149&kwd=friends adult diapers&tags=BA||||8954.051|Price|product|||NA|rsf:gd-|-stype:attr=1-br|qr_nm:gd|res:RC4|com-cf:nl|ptrs:na|ktp:N0|mc:184743|mtp:S|qry_typ:P|lang:en|wc:3|cs:9149|v=4,4 Routes,https://www.indiamart.com/4-routes/?pos=149&kwd=friends adult diapers&tags=BA||||8954.051|Price|product|||NA|rsf:gd-|-stype:attr=1-br|qr_nm:gd|res:RC4|com-cf:nl|ptrs:na|ktp:N0|mc:184743|mtp:S|qry_typ:P|lang:en|wc:3|cs:9149|v=4,False,Villivakkam,Chennai,"2/2 D Type, 16th Street, Sidco Nagar , Villivakkam,, Villivakkam, Chennai - 600049, Dist.Chennai, Tamil Nadu",7942867341,
"Briefs XL Friends Adult Diapers, 10 Pieces",https://www.indiamart.com/proddetail/xl-friends-adult-diapers-2851745116630.html?pos=150&kwd=friends adult diapers&tags=BA||||8584.299|Price|product|||NA|rsf:gd-|-stype:attr=1-br|qr_nm:gd|res:RC4|com-cf:nl|ptrs:na|ktp:N0|mc:184743|mtp:S|qry_typ:P|lang:en|wc:3|cs:9149|v=4,Lifeline Agency,https://www.indiamart.com/lifeline-agency-coimbatore/?pos=150&kwd=friends adult diapers&tags=BA||||8584.299|Price|product|||NA|rsf:gd-|-stype:attr=1-br|qr_nm:gd|res:RC4|com-cf:nl|ptrs:na|ktp:N0|mc:184743|mtp:S|qry_typ:P|lang:en|wc:3|cs:9149|v=4,False,Sidhapudur,Coimbatore,"1st Floor, No.760, Dr Radhakrishnan Road, Tatabad, Sidhapudur, Coimbatore - 641012, Dist.Coimbatore, Tamil Nadu",7942874619,
Friends Adult Diapers Pull Ups,,Baba Medical Store,https://www.indiamart.com/himaliya-traders-anantnag/?pos=151&kwd=friends adult diapers&tags=BA||||8639.0||product|||NA|rsf:gd-|-stype:attr=1-br|qr_nm:gd|res:RC4|com-cf:nl|ptrs:na|ktp:N0|mc:184743|mtp:S|qry_typ:P|lang:en|wc:3|cs:9149|v=4,False,Masjid,Anantnag,"Janglat Mandi, Anantnag, Anantnag,, Masjid, Anantnag - 192101, Dist.Anantnag, Jammu & Kashmir",8048250520,461
Friends Adults Diaper Pants,,Surgical Hub,https://www.indiamart.com/surgical-hub-new-delhi/?pos=152&kwd=friends adult diapers&tags=BB||||8752.144|Price|product|||NA|rsf:gd-|-stype:attr=1-br|qr_nm:gd|res:RC4|com-cf:nl|ptrs:na|ktp:N0|mc:184743|mtp:S|qry_typ:P|lang:en|wc:3|cs:9149|v=4,False,,New Delhi,"KAILKA JI MAIN MARKET, New Delhi - 110019, Dist.Delhi, Delhi",8069264848,471
Sticky Type Friends Easy Adult Diapers 10 Pcs Medium,https://www.indiamart.com/proddetail/friends-easy-adult-diapers-10-pcs-medium-25324152088.html?pos=153&kwd=friends adult diapers&tags=BB||||8954.051|Price|product|||NA|rsf:gd-|-stype:attr=1-br|qr_nm:gd|res:RC4|com-cf:nl|ptrs:na|ktp:N0|mc:184743|mtp:S|qry_typ:P|lang:en|wc:3|cs:9149|v=4,Padmavasan Healthcare,https://www.indiamart.com/padmavasan-healthcare/?pos=153&kwd=friends adult diapers&tags=BB||||8954.051|Price|product|||NA|rsf:gd-|-stype:attr=1-br|qr_nm:gd|res:RC4|com-cf:nl|ptrs:na|ktp:N0|mc:184743|mtp:S|qry_typ:P|lang:en|wc:3|cs:9149|v=4,False,,Chennai,"22/13, Andavar Nagar, 3rd Street, Kodambakkam, Chennai - 600024, Dist.Chennai, Tamil Nadu",8043863431,
"Tape Pull Ups XL Easy Friends Adult Diapers, 10 Pieces",https://www.indiamart.com/proddetail/xl-easy-friends-adult-diapers-2851620600148.html?pos=154&kwd=friends adult diapers&tags=BA||||8954.051|Price|product|||NA|rsf:gd-|-stype:attr=1-br|qr_nm:gd|res:RC4|com-cf:nl|ptrs:na|ktp:N0|mc:184743|mtp:S|qry_typ:P|lang:en|wc:3|cs:9149|v=4,Champion Traders,https://www.indiamart.com/champion-traders-chennai/?pos=154&kwd=friends adult diapers&tags=BA||||8954.051|Price|product|||NA|rsf:gd-|-stype:attr=1-br|qr_nm:gd|res:RC4|com-cf:nl|ptrs:na|ktp:N0|mc:184743|mtp:S|qry_typ:P|lang:en|wc:3|cs:9149|v=4,False,,Chennai,"3rd Floor, 5/11, Balasubramaniam Street, Old Washermenpet,, Chennai - 600021, Dist.Chennai, Tamil Nadu",7942838993,
"Protective Underwear Friends Disposable Adult Diaper, Size: XL, 10 Pieces",https://www.indiamart.com/proddetail/friends-disposable-adult-diaper-25860741891.html?pos=155&kwd=friends adult diapers&tags=BB||||8281.036|Price|product|||NA|rsf:gd-|-stype:attr=1-br|qr_nm:gd|res:RC4|com-cf:nl|ptrs:na|ktp:N0|mc:184743|mtp:S|qry_typ:P|lang:en|wc:3|cs:9149|v=4,Navya Enterprise,https://www.indiamart.com/navyaenterprisevadodara/?pos=155&kwd=friends adult diapers&tags=BB||||8281.036|Price|product|||NA|rsf:gd-|-stype:attr=1-br|qr_nm:gd|res:RC4|com-cf:nl|ptrs:na|ktp:N0|mc:184743|mtp:S|qry_typ:P|lang:en|wc:3|cs:9149|v=4,False,,Vadodara,"1, G/F, Patani Mohallo, Wadi Wadi Raopura,, Vadodara - 390001, Dist.Vadodara, Gujarat",8047543244,
Friends Easy Adult Diapers Xl,https://www.indiamart.com/proddetail/friends-easy-adult-diapers-xl-2853482103048.html?pos=156&kwd=friends adult diapers&tags=BA||||8625.563|Price|product|||NA|rsf:gd-|-stype:attr=1-br|qr_nm:gd|res:RC4|com-cf:nl|ptrs:na|ktp:N0|mc:184743|mtp:S|qry_typ:P|lang:en|wc:3|cs:9149|v=4,Sanjana E Trade,https://www.indiamart.com/sanjana-e-trade/?pos=156&kwd=friends adult diapers&tags=BA||||8625.563|Price|product|||NA|rsf:gd-|-stype:attr=1-br|qr_nm:gd|res:RC4|com-cf:nl|ptrs:na|ktp:N0|mc:184743|mtp:S|qry_typ:P|lang:en|wc:3|cs:9149|v=4,False,Kanniservaipatti,Chinnamanur,"No. 45/ B, 5th Street V O C Nagar, Theni, Kanniservaipatti, Chinnamanur - 625515, Dist.Theni, Tamil Nadu",7942871182,
"Slim Fit Protective Underwear Friends Ultra Thin Adult Diapers, Size: Large",https://www.indiamart.com/proddetail/friends-ultra-thin-adult-diapers-2852102337162.html?pos=157&kwd=friends adult diapers&tags=BB||||8706.587|Price|product|||NA|rsf:gd-|-stype:attr=1-br|qr_nm:gd|res:RC4|com-cf:nl|ptrs:na|ktp:N0|mc:184743|mtp:S|qry_typ:P|lang:en|wc:3|cs:9149|v=4,Zenmed,https://www.indiamart.com/zenmed/?pos=157&kwd=friends adult diapers&tags=BB||||8706.587|Price|product|||NA|rsf:gd-|-stype:attr=1-br|qr_nm:gd|res:RC4|com-cf:nl|ptrs:na|ktp:N0|mc:184743|mtp:S|qry_typ:P|lang:en|wc:3|cs:9149|v=4,False,,Madurai,"194/6, Meenakshi Amman Bagar,5th North Street, Surya Nagar, Madurai - 625007, Dist.Madurai, Tamil Nadu",7942866545,
"Protective Underwear Friends Easy Adult Diapers Medium, 10 Diaper",https://www.indiamart.com/proddetail/friends-easy-adult-diapers-medium-2849497076897.html?pos=158&kwd=friends adult diapers&tags=BA||||8668.838|Price|product|||NA|rsf:gd-|-stype:attr=1-br|qr_nm:gd|res:RC4|com-cf:nl|ptrs:na|ktp:N0|mc:184743|mtp:S|qry_typ:P|lang:en|wc:3|cs:9149|v=4,Erode Surgicals,https://www.indiamart.com/erode-surgicals/?pos=158&kwd=friends adult diapers&tags=BA||||8668.838|Price|product|||NA|rsf:gd-|-stype:attr=1-br|qr_nm:gd|res:RC4|com-cf:nl|ptrs:na|ktp:N0|mc:184743|mtp:S|qry_typ:P|lang:en|wc:3|cs:9149|v=4,False,,Erode,"12, Patel Street, Erode - 638001, Dist.Erode, Tamil Nadu",7942789371,
"60 Year Protective Underwear Friends Economy Adult Diapers Tape Style, Size: XL",https://www.indiamart.com/proddetail/friends-economy-adult-diapers-tape-style-2849085512430.html?pos=159&kwd=friends adult diapers&tags=BB||||8663.873|Price|product|||NA|rsf:gd-|-stype:attr=1-br|qr_nm:gd|res:RC4|com-cf:nl|ptrs:na|ktp:N0|mc:184743|mtp:S|qry_typ:P|lang:en|wc:3|cs:9149|v=4,Medihelp Solutions Private Limited,https://www.indiamart.com/medihelp-solutions-karnataka/?pos=159&kwd=friends adult diapers&tags=BB||||8663.873|Price|product|||NA|rsf:gd-|-stype:attr=1-br|qr_nm:gd|res:RC4|com-cf:nl|ptrs:na|ktp:N0|mc:184743|mtp:S|qry_typ:P|lang:en|wc:3|cs:9149|v=4,False,Urban,Bengaluru,"No.12/5 Nayak Layout JP Nagar 8TH Phase 3RD Cross Bengaluru, Urban, Bengaluru - 560078, Dist.Bengaluru, Karnataka",8043814824,
Pant Briefs XL Size Easy Friends Adult Diapers,https://www.indiamart.com/proddetail/xl-size-easy-friends-adult-diapers-24688363512.html?pos=160&kwd=friends adult diapers&tags=BB||||8954.051|Price|product|||NA|rsf:gd-|-stype:attr=1-br|qr_nm:gd|res:RC4|com-cf:nl|ptrs:na|ktp:N0|mc:184743|mtp:S|qry_typ:P|lang:en|wc:3|cs:9149|v=4,Padam Pharmaceuticals,https://www.indiamart.com/padampharmaceuticals/?pos=160&kwd=friends adult diapers&tags=BB||||8954.051|Price|product|||NA|rsf:gd-|-stype:attr=1-br|qr_nm:gd|res:RC4|com-cf:nl|ptrs:na|ktp:N0|mc:184743|mtp:S|qry_typ:P|lang:en|wc:3|cs:9149|v=4,False,,Chennai,"1 Old No.31, New No.83 Sattanan Street, Choolai, Chennai - 600112, Dist.Chennai, Tamil Nadu",8048261303,
Friends Adult Diapers Pants Xxl Xxxl,https://www.indiamart.com/proddetail/friends-adult-diapers-pants-xxl-xxxl-2854038724555.html?pos=161&kwd=friends adult diapers&tags=BB||||8723.301|Price|product|||NA|rsf:gd-|-stype:attr=1-br|qr_nm:gd|res:RC4|com-cf:nl|ptrs:na|ktp:N0|mc:184743|mtp:S|qry_typ:P|lang:en|wc:3|cs:9149|v=4,Krishna Medical And Surgicals,https://www.indiamart.com/krishna-medical-and-surgicals/?pos=161&kwd=friends adult diapers&tags=BB||||8723.301|Price|product|||NA|rsf:gd-|-stype:attr=1-br|qr_nm:gd|res:RC4|com-cf:nl|ptrs:na|ktp:N0|mc:184743|mtp:S|qry_typ:P|lang:en|wc:3|cs:9149|v=4,False,Gulmohar Colony,Bhopal,"E8/124 Trilochan Nager, Trilanga Road, Gulmohar Colony, Bhopal - 462039, Dist.Bhopal, Madhya Pradesh",8069013894,869
"Unisex Friends Adult Diaper, 10 Piece, Packaging Type: Packet",https://www.indiamart.com/proddetail/friends-adult-diaper-21644633912.html?pos=162&kwd=friends adult diapers&tags=BB||||8706.587|Price|product|||NA|rsf:gd-|-stype:attr=1-br|qr_nm:gd|res:RC4|com-cf:nl|ptrs:na|ktp:N0|mc:184743|mtp:S|qry_typ:P|lang:en|wc:3|cs:9149|v=4,Madurai Surgicals,https://www.indiamart.com/maduraisurgicals/?pos=162&kwd=friends adult diapers&tags=BB||||8706.587|Price|product|||NA|rsf:gd-|-stype:attr=1-br|qr_nm:gd|res:RC4|com-cf:nl|ptrs:na|ktp:N0|mc:184743|mtp:S|qry_typ:P|lang:en|wc:3|cs:9149|v=4,False,near AR plaza complex,Madurai,"24,1st floor pechiamman padithurai road, near AR plaza complex, Madurai - 625001, Dist.Madurai, Tamil Nadu",7942635582,
"Briefs Friends Adult Diaper, Size: Medium, 10's",https://www.indiamart.com/proddetail/friends-adult-diaper-26100340455.html?pos=163&kwd=friends adult diapers&tags=BB||||8954.051|Price|product|||NA|rsf:gd-|-stype:attr=1-br|qr_nm:gd|res:RC4|com-cf:nl|ptrs:na|ktp:N0|mc:184743|mtp:S|qry_typ:P|lang:en|wc:3|cs:9149|v=4,Orange Surgicals,https://www.indiamart.com/orangesurgicals/?pos=163&kwd=friends adult diapers&tags=BB||||8954.051|Price|product|||NA|rsf:gd-|-stype:attr=1-br|qr_nm:gd|res:RC4|com-cf:nl|ptrs:na|ktp:N0|mc:184743|mtp:S|qry_typ:P|lang:en|wc:3|cs:9149|v=4,False,near egmore baby hospital,Chennai,"OLD NO.111,NEW NO.40,GROUND FLOOR,FIRST FLOOR,Egmore High Road,Chennai Old No.924,new No.2 Periyar E.v.r. Salai, Ground Floor Purasawalkam,600084,Chennai, near egmore baby hospital, Chennai - 600008, Dist.Chennai, Tamil Nadu",8046048973,
"Friends Adult Diaper, Size: Xl",https://www.indiamart.com/proddetail/friends-adult-diaper-20977414830.html?pos=164&kwd=friends adult diapers&tags=BA||||8954.051|Price|product|||NA|rsf:gd-|-stype:attr=1-br|qr_nm:gd|res:RC4|com-cf:nl|ptrs:na|ktp:N0|mc:184743|mtp:S|qry_typ:P|lang:en|wc:3|cs:9149|v=4,Safe Line Surgical Equipment Co.,https://www.indiamart.com/safelinesurgicalequipmentcompany/?pos=164&kwd=friends adult diapers&tags=BA||||8954.051|Price|product|||NA|rsf:gd-|-stype:attr=1-br|qr_nm:gd|res:RC4|com-cf:nl|ptrs:na|ktp:N0|mc:184743|mtp:S|qry_typ:P|lang:en|wc:3|cs:9149|v=4,False,Washermanpet,Chennai,"1097 T.h. Road Na, Washermanpet, Chennai - 600021, Dist.Chennai, Tamil Nadu",8046033463,
"Blue Friends Diapers Underpad, Size/Dimension: 60x90 cm",https://www.indiamart.com/proddetail/friends-diapers-underpad-2853037007612.html?pos=165&kwd=friends adult diapers&tags=BA||||8706.587|Price|product|||NA|rsf:gd-|-stype:attr=1-br|qr_nm:gd|res:RC4|com-cf:nl|ptrs:na|ktp:N0|mc:184743|mtp:S|qry_typ:P|lang:en|wc:3|cs:9149|v=4,Sri Gayaathri Meditech,https://www.indiamart.com/srigayaathrimeditech-madurai/?pos=165&kwd=friends adult diapers&tags=BA||||8706.587|Price|product|||NA|rsf:gd-|-stype:attr=1-br|qr_nm:gd|res:RC4|com-cf:nl|ptrs:na|ktp:N0|mc:184743|mtp:S|qry_typ:P|lang:en|wc:3|cs:9149|v=4,False,,Madurai,"173, Vakkil New Street, Madurai - 625001, Dist.Madurai, Tamil Nadu",7942965542,
Briefs Friends Easy Adult Diapers XL 10 pcs,https://www.indiamart.com/proddetail/friends-easy-adult-diapers-xl-10-pcs-23412692333.html?pos=166&kwd=friends adult diapers&tags=BB||||8211.142|Price|product|||NA|rsf:gd-|-stype:attr=1-br|qr_nm:gd|res:RC4|com-cf:nl|ptrs:na|ktp:N0|mc:184743|mtp:S|qry_typ:P|lang:en|wc:3|cs:9149|v=4,S P Hygiene Products,https://www.indiamart.com/sphygieneproducts/?pos=166&kwd=friends adult diapers&tags=BB||||8211.142|Price|product|||NA|rsf:gd-|-stype:attr=1-br|qr_nm:gd|res:RC4|com-cf:nl|ptrs:na|ktp:N0|mc:184743|mtp:S|qry_typ:P|lang:en|wc:3|cs:9149|v=4,False,,Mumbai,"Shop No. 3 46/A, Morden Mills Compound Jagannath Bhatankar Marg, Parel S T Depot, Mumbai - 400015, Dist.Mumbai, Maharashtra",8047641235,
Friends Adult Diaper Pants,https://www.indiamart.com/proddetail/friends-adult-diaper-pants-22331661691.html?pos=167&kwd=friends adult diapers&tags=BB||||8228.275|Price|product|||NA|rsf:gd-|-stype:attr=1-br|qr_nm:gd|res:RC4|com-cf:nl|ptrs:na|ktp:N0|mc:184743|mtp:S|qry_typ:P|lang:en|wc:3|cs:9149|v=4,Star Care Global,https://www.indiamart.com/starcareglobal/?pos=167&kwd=friends adult diapers&tags=BB||||8228.275|Price|product|||NA|rsf:gd-|-stype:attr=1-br|qr_nm:gd|res:RC4|com-cf:nl|ptrs:na|ktp:N0|mc:184743|mtp:S|qry_typ:P|lang:en|wc:3|cs:9149|v=4,False,THAKKARBAPANAGAR ROAD,Ahmedabad,"1st Floor, C-25 ANJANA SOCIETY, THAKKARBAPANAGAR ROAD, Ahmedabad - 382350, Dist.Ahmedabad, Gujarat",7942557862,
"Friends Adult Diaper Medium, 10 Diapers",https://www.indiamart.com/proddetail/friends-adult-diaper-medium-21295137712.html?pos=168&kwd=friends adult diapers&tags=BA||||8663.873|Price|product|||NA|rsf:gd-|-stype:attr=1-br|qr_nm:gd|res:RC4|com-cf:nl|ptrs:na|ktp:N0|mc:184743|mtp:S|qry_typ:P|lang:en|wc:3|cs:9149|v=4,Wecare Health Solutions,https://www.indiamart.com/wecarehealthsolutions/?pos=168&kwd=friends adult diapers&tags=BA||||8663.873|Price|product|||NA|rsf:gd-|-stype:attr=1-br|qr_nm:gd|res:RC4|com-cf:nl|ptrs:na|ktp:N0|mc:184743|mtp:S|qry_typ:P|lang:en|wc:3|cs:9149|v=4,False,,Bengaluru,"No. 5, 2nd Cross, 1st Main, Venkatadri Layout, Behind Apollo Hospital B. G. Road, Bengaluru - 560076, Dist.Bengaluru, Karnataka",8046076079,
"Pull Ups Friends Hospital Adult Diaper, Size: Medium, 10 Pieces",https://www.indiamart.com/proddetail/friends-hospital-adult-diaper-25064651755.html?pos=169&kwd=friends adult diapers&tags=BB||||8663.873|Price|product|||NA|rsf:gd-|-stype:attr=1-br|qr_nm:gd|res:RC4|com-cf:nl|ptrs:na|ktp:N0|mc:184743|mtp:S|qry_typ:P|lang:en|wc:3|cs:9149|v=4,Srivari Enterprises,https://www.indiamart.com/srivarienterpriseskarnataka/?pos=169&kwd=friends adult diapers&tags=BB||||8663.873|Price|product|||NA|rsf:gd-|-stype:attr=1-br|qr_nm:gd|res:RC4|com-cf:nl|ptrs:na|ktp:N0|mc:184743|mtp:S|qry_typ:P|lang:en|wc:3|cs:9149|v=4,False,,Bengaluru,"No-51, Shop No-1, Ground Floor, Telecom Colony, HBCS Layout, New Timber Yard Layout,, Bengaluru - 560026, Dist.Bengaluru, Karnataka",8048273900,
"Easy Care Friends Disposable Adult Diaper, Size: XL, 10 Pcs",https://www.indiamart.com/proddetail/friends-disposable-adult-diaper-24691154662.html?pos=170&kwd=friends adult diapers&tags=BB||||8229.666|Price|product|||NA|rsf:gd-|-stype:attr=1-br|qr_nm:gd|res:RC4|com-cf:nl|ptrs:na|ktp:N0|mc:184743|mtp:S|qry_typ:P|lang:en|wc:3|cs:9149|v=4,Rishi Pharma,https://www.indiamart.com/rishi-pharma-gujarat/?pos=170&kwd=friends adult diapers&tags=BB||||8229.666|Price|product|||NA|rsf:gd-|-stype:attr=1-br|qr_nm:gd|res:RC4|com-cf:nl|ptrs:na|ktp:N0|mc:184743|mtp:S|qry_typ:P|lang:en|wc:3|cs:9149|v=4,False,,Vapi,"House No. 1997 Ground Floor, Kiritkumar Manilal Vashi House,, Vapi - 396191, Dist.Valsad, Gujarat",8047302198,
"Friends Adult Insert Pads, Size: Medium",https://www.indiamart.com/proddetail/friends-adult-insert-pads-2853254887373.html?pos=171&kwd=friends adult diapers&tags=BA||||8211.142|Price|product|||NA|rsf:gd-|-stype:attr=1-br|qr_nm:gd|res:RC4|com-cf:nl|ptrs:na|ktp:N0|mc:184743|mtp:S|qry_typ:P|lang:en|wc:3|cs:9149|v=4,Silver Signature Surgical Co.,https://www.indiamart.com/silver-signature-surgicalco/?pos=171&kwd=friends adult diapers&tags=BA||||8211.142|Price|product|||NA|rsf:gd-|-stype:attr=1-br|qr_nm:gd|res:RC4|com-cf:nl|ptrs:na|ktp:N0|mc:184743|mtp:S|qry_typ:P|lang:en|wc:3|cs:9149|v=4,False,Masjid,Mumbai,"Ground Floor, Shop No. 9, Jaan Mohammad Apartment, Aqsa Masjid Road, State Bank of India Jogeshwari West, Mumbai Suburban, Masjid, Mumbai - 400102, Dist.Mumbai, Maharashtra",7942562661,
"Friends Adult Dry Pants, Size: Large, 10 Pieces",https://www.indiamart.com/proddetail/friends-adult-dry-pants-24033835855.html?pos=172&kwd=friends adult diapers&tags=BB||||9104.467|Price|product|||NA|rsf:gd-|-stype:attr=1-br|qr_nm:gd|res:RC4|com-cf:nl|ptrs:na|ktp:N0|mc:184743|mtp:S|qry_typ:P|lang:en|wc:3|cs:9149|v=4,Quality Agency,https://www.indiamart.com/qualityagency-chhattisgarh/?pos=172&kwd=friends adult diapers&tags=BB||||9104.467|Price|product|||NA|rsf:gd-|-stype:attr=1-br|qr_nm:gd|res:RC4|com-cf:nl|ptrs:na|ktp:N0|mc:184743|mtp:S|qry_typ:P|lang:en|wc:3|cs:9149|v=4,False,,Durg,"Santra Badi, Station Road, Quality Hotel,, Durg - 491001, Dist.Durg, Chhattisgarh",7942551701,
"70 Years Old Protective Underwear Friends Disposable Adult Diaper, Size: Large, 10 Diapers",https://www.indiamart.com/proddetail/friends-disposable-adult-diaper-2851632242648.html?pos=173&kwd=friends adult diapers&tags=BA||||8211.142|Price|product|||NA|rsf:gd-|-stype:attr=1-br|qr_nm:gd|res:RC4|com-cf:nl|ptrs:na|ktp:N0|mc:184743|mtp:S|qry_typ:P|lang:en|wc:3|cs:9149|v=4,Thakkar Pharma Station,https://www.indiamart.com/thakkar-pharma-station/?pos=173&kwd=friends adult diapers&tags=BA||||8211.142|Price|product|||NA|rsf:gd-|-stype:attr=1-br|qr_nm:gd|res:RC4|com-cf:nl|ptrs:na|ktp:N0|mc:184743|mtp:S|qry_typ:P|lang:en|wc:3|cs:9149|v=4,False,Ghatkopar West,Mumbai,"1st Floor , A/129 , Ghatkopar Industrial Estate , LBS Marg , West , Suburban, Ghatkopar West, Mumbai - 400086, Dist.Mumbai, Maharashtra",7942836002,
"Protective Underwear Friends Disposable Adult Diaper, Size: XL, 10Piece",https://www.indiamart.com/proddetail/friends-disposable-adult-diaper-26509401897.html?pos=174&kwd=friends adult diapers&tags=BB||||10180.86|Price|product|||NA|rsf:gd-|-stype:attr=1-br|qr_nm:gd|res:RC4|com-cf:nl|ptrs:na|ktp:N0|mc:184743|mtp:S|qry_typ:P|lang:en|wc:3|cs:9149|v=4,Positra Healthcare Private Limited,https://www.indiamart.com/positrahealthcare/?pos=174&kwd=friends adult diapers&tags=BB||||10180.86|Price|product|||NA|rsf:gd-|-stype:attr=1-br|qr_nm:gd|res:RC4|com-cf:nl|ptrs:na|ktp:N0|mc:184743|mtp:S|qry_typ:P|lang:en|wc:3|cs:9149|v=4,False,Bongaon,Guwahati,"Bonboni Path House No 5 Income Tax Colony Road , Beltola Bongaon Guwahati Kamrup Metropolitan, Bongaon, Guwahati - 781028, Dist.Kamrup, Assam",8048213081,
"Friends Disposable Adult Diaper, Size: Medium, 12 Piece",https://www.indiamart.com/proddetail/friends-disposable-adult-diaper-25558893291.html?pos=175&kwd=friends adult diapers&tags=BB||||8242.731||product|||NA|rsf:gd-|-stype:attr=1-br|qr_nm:gd|res:RC4|com-cf:nl|ptrs:na|ktp:N0|mc:184743|mtp:S|qry_typ:P|lang:en|wc:3|cs:9149|v=4,Med Surgical,https://www.indiamart.com/medsurgical-thane/?pos=175&kwd=friends adult diapers&tags=BB||||8242.731||product|||NA|rsf:gd-|-stype:attr=1-br|qr_nm:gd|res:RC4|com-cf:nl|ptrs:na|ktp:N0|mc:184743|mtp:S|qry_typ:P|lang:en|wc:3|cs:9149|v=4,False,,Ulhasnagar,"Shop No C-120, 1st Floor, Regency Plaza 2 Co Op Premises Society, Kalyan Ambernath Road,, Ulhasnagar - 421003, Dist.Thane, Maharashtra",8047648794,
"Adult Sticking Friends Economy Diapers xl, 10 Pcs",https://www.indiamart.com/proddetail/friends-economy-diapers-xl-26715671597.html?pos=176&kwd=friends adult diapers&tags=BB||||8211.142|Price|product|||NA|rsf:gd-|-stype:attr=1-br|qr_nm:gd|res:RC4|com-cf:nl|ptrs:na|ktp:N0|mc:184743|mtp:S|qry_typ:P|lang:en|wc:3|cs:9149|v=4,Manav Seva Surgical,https://www.indiamart.com/manavsevasurgical/?pos=176&kwd=friends adult diapers&tags=BB||||8211.142|Price|product|||NA|rsf:gd-|-stype:attr=1-br|qr_nm:gd|res:RC4|com-cf:nl|ptrs:na|ktp:N0|mc:184743|mtp:S|qry_typ:P|lang:en|wc:3|cs:9149|v=4,False,,Mumbai,"SH No-12 Link Rd Ganesh Chowk, NR Bapa Sitaram Mandir Adarsh Nagar Charkop Poisar, Kandiwali West Mumbai, Mumbai - 400067, Dist.Mumbai, Maharashtra",8043851140,
"Pant Style Premium Friends Diapers Pants, Size: XL, 10",https://www.indiamart.com/proddetail/premium-friends-diapers-pants-25407549362.html?pos=177&kwd=friends adult diapers&tags=BB||||8584.299||product|||NA|rsf:gd-|-stype:attr=1-br|qr_nm:gd|res:RC4|com-cf:nl|ptrs:na|ktp:N0|mc:184743|mtp:S|qry_typ:P|lang:en|wc:3|cs:9149|v=4,SBA Surgical & Health Care,https://www.indiamart.com/sbasurgicalhealthcare/?pos=177&kwd=friends adult diapers&tags=BB||||8584.299||product|||NA|rsf:gd-|-stype:attr=1-br|qr_nm:gd|res:RC4|com-cf:nl|ptrs:na|ktp:N0|mc:184743|mtp:S|qry_typ:P|lang:en|wc:3|cs:9149|v=4,False,,Coimbatore,"41, Sathy Road, Sivanandapuram, Sarvanampatti Post,, Coimbatore - 641035, Dist.Coimbatore, Tamil Nadu",8047622891,
"Adults Classic Dry Pants M Size Friends UltraThinz Slim Fit Adult Diapers, Size: Medium, 9N",https://www.indiamart.com/proddetail/m-size-friends-ultrathinz-slim-fit-adult-diapers-2852119794788.html?pos=178&kwd=friends adult diapers&tags=BA||||8668.838|Price|product|||NA|rsf:gd-|-stype:attr=1-br|qr_nm:gd|res:RC4|com-cf:nl|ptrs:na|ktp:N0|mc:184743|mtp:S|qry_typ:P|lang:en|wc:3|cs:9149|v=4,Capital Surgical Devices,https://www.indiamart.com/capital-surgical-devices-erode/?pos=178&kwd=friends adult diapers&tags=BA||||8668.838|Price|product|||NA|rsf:gd-|-stype:attr=1-br|qr_nm:gd|res:RC4|com-cf:nl|ptrs:na|ktp:N0|mc:184743|mtp:S|qry_typ:P|lang:en|wc:3|cs:9149|v=4,False,Surampattivalasu,Erode,"No.393/1, Brough Road, Palaniyappa Street Opp, Federal Bank, Surampattivalasu, Erode - 638009, Dist.Erode, Tamil Nadu",7942701933,
"Pull Ups Friends Classic Adult Dry Pants, 10 S Pack",https://www.indiamart.com/proddetail/friends-classic-adult-dry-pants-2850169091173.html?pos=179&kwd=friends adult diapers&tags=BB||||8954.051|Price|product|||NA|rsf:gd-|-stype:attr=1-br|qr_nm:gd|res:RC4|com-cf:nl|ptrs:na|ktp:N0|mc:184743|mtp:S|qry_typ:P|lang:en|wc:3|cs:9149|v=4,JMA Enterprises,https://www.indiamart.com/jma-enterprises/?pos=179&kwd=friends adult diapers&tags=BB||||8954.051|Price|product|||NA|rsf:gd-|-stype:attr=1-br|qr_nm:gd|res:RC4|com-cf:nl|ptrs:na|ktp:N0|mc:184743|mtp:S|qry_typ:P|lang:en|wc:3|cs:9149|v=4,False,,Chennai,"I St Floor 4/162E 5th Cross Street, Ellaiamman Kovil Street Neelankarai, Chennai - 600115, Dist.Chennai, Tamil Nadu",7942559330,
"Pant FRIENDS ADULT CALSSIC DIAPER MEDIUM, 10",https://www.indiamart.com/proddetail/friends-adult-calssic-diaper-medium-23370871812.html?pos=180&kwd=friends adult diapers&tags=BB||||8211.142|Price|product|||NA|rsf:gd-|-stype:attr=1-br|qr_nm:gd|res:RC4|com-cf:nl|ptrs:na|ktp:N0|mc:184743|mtp:S|qry_typ:P|lang:en|wc:3|cs:9149|v=4,Care N Care,https://www.indiamart.com/care-n-care-mumbai/?pos=180&kwd=friends adult diapers&tags=BB||||8211.142|Price|product|||NA|rsf:gd-|-stype:attr=1-br|qr_nm:gd|res:RC4|com-cf:nl|ptrs:na|ktp:N0|mc:184743|mtp:S|qry_typ:P|lang:en|wc:3|cs:9149|v=4,False,,Mumbai,"Shop No 21 L.B.S. Marg Pipermintwala Estate Bhandup West Mumbai Suburban, Mumbai - 400078, Dist.Mumbai, Maharashtra",8043826850,
Friends Classic Adult Dry Pants,,Super Surgicals,https://www.indiamart.com/super-surgicals-new-delhi/?pos=181&kwd=friends adult diapers&tags=BB||||8752.144||product|||NA|rsf:gd-|-stype:attr=1-br|qr_nm:gd|res:RC4|com-cf:nl|ptrs:na|ktp:N0|mc:184743|mtp:S|qry_typ:P|lang:en|wc:3|cs:9149|v=4,False,Nilothi Extn,New Delhi,"A 42 Vikas Vihar, Nilothi Extn, New Delhi - 110041, Dist.Delhi, Delhi",8069013093,319
"Sticking Nonwoven Friends Adult Dry Pant Diaper, 10 Pcs, Age Group: Above 18 Years",https://www.indiamart.com/proddetail/friends-adult-dry-pant-diaper-25914126491.html?pos=182&kwd=friends adult diapers&tags=BB||||8954.051|Price|product|||NA|rsf:gd-|-stype:attr=1-br|qr_nm:gd|res:RC4|com-cf:nl|ptrs:na|ktp:N0|mc:184743|mtp:S|qry_typ:P|lang:en|wc:3|cs:9149|v=4,Hicure Pharmacare Private Limited,https://www.indiamart.com/hicure-pharmacare/?pos=182&kwd=friends adult diapers&tags=BB||||8954.051|Price|product|||NA|rsf:gd-|-stype:attr=1-br|qr_nm:gd|res:RC4|com-cf:nl|ptrs:na|ktp:N0|mc:184743|mtp:S|qry_typ:P|lang:en|wc:3|cs:9149|v=4,False,periyar road,Chennai,"18/14 Periyar Road Ccs Towers T Nagar, periyar road, Chennai - 600017, Dist.Chennai, Tamil Nadu",8047673318,
"XL Size Friends Adult Diaper, 10 Diapers",https://www.indiamart.com/proddetail/xl-size-friends-adult-diaper-22488731573.html?pos=183&kwd=friends adult diapers&tags=BB||||8601.347|Price|product|||NA|rsf:gd-|-stype:attr=1-br|qr_nm:gd|res:RC4|com-cf:nl|ptrs:na|ktp:N0|mc:184743|mtp:S|qry_typ:P|lang:en|wc:3|cs:9149|v=4,Super Pharma,https://www.indiamart.com/super-pharma-jaipur/?pos=183&kwd=friends adult diapers&tags=BB||||8601.347|Price|product|||NA|rsf:gd-|-stype:attr=1-br|qr_nm:gd|res:RC4|com-cf:nl|ptrs:na|ktp:N0|mc:184743|mtp:S|qry_typ:P|lang:en|wc:3|cs:9149|v=4,False,,Jaipur,"GROUND FLOOR,PLOT NO. 465, ACHARYA KRIPLANI MARG,ADARSH NAGAR Third Floor, 412, 414, 415, MALL 21, Bhagwan Das Road, C-Scheme, Rajasthan, 302001,302001,Jaipur, Jaipur - 302004, Dist.Jaipur, Rajasthan",8048371510,336
"Friends Easy Large Adult Diaper, Packaging Type: Packet",https://www.indiamart.com/proddetail/friends-easy-large-adult-diaper-19659184697.html?pos=184&kwd=friends adult diapers&tags=BB||||8954.051|Price|product|||NA|rsf:gd-|-stype:attr=1-br|qr_nm:gd|res:RC4|com-cf:nl|ptrs:na|ktp:N0|mc:184743|mtp:S|qry_typ:P|lang:en|wc:3|cs:9149|v=4,Arulsharves Enterprise,https://www.indiamart.com/arulsharvesenterprise/?pos=184&kwd=friends adult diapers&tags=BB||||8954.051|Price|product|||NA|rsf:gd-|-stype:attr=1-br|qr_nm:gd|res:RC4|com-cf:nl|ptrs:na|ktp:N0|mc:184743|mtp:S|qry_typ:P|lang:en|wc:3|cs:9149|v=4,False,West Mambalam,Chennai,"56/143, Kodambakkam Road, Mettupalamyam Market, West Mambalam, Chennai - 600033, Dist.Chennai, Tamil Nadu",8043848767,
"Friends Premium Adult Dry Pants, Size: XL",https://www.indiamart.com/proddetail/friends-premium-adult-dry-pants-2848942755455.html?pos=185&kwd=friends adult diapers&tags=BB||||8752.144|Price|product|||NA|rsf:gd-|-stype:attr=1-br|qr_nm:gd|res:RC4|com-cf:nl|ptrs:na|ktp:N0|mc:184743|mtp:S|qry_typ:P|lang:en|wc:3|cs:9149|v=4,Pal Enterprises,https://www.indiamart.com/palenterprises-newdelhi/?pos=185&kwd=friends adult diapers&tags=BB||||8752.144|Price|product|||NA|rsf:gd-|-stype:attr=1-br|qr_nm:gd|res:RC4|com-cf:nl|ptrs:na|ktp:N0|mc:184743|mtp:S|qry_typ:P|lang:en|wc:3|cs:9149|v=4,False,,New Delhi,"Plot No. 133, R-III A Block, Mohan Garden, Uttam Nagar, West Delhi, New Delhi - 110059, Dist.Delhi, Delhi",8043893507,
"20 - 60 Protective Underwear Friends Classic Adult Dry Pants, Size: XL",https://www.indiamart.com/proddetail/friends-classic-adult-dry-pants-2853120695555.html?pos=186&kwd=friends adult diapers&tags=BA||||8584.299|Price|product|||NA|rsf:gd-|-stype:attr=1-br|qr_nm:gd|res:RC4|com-cf:nl|ptrs:na|ktp:N0|mc:184743|mtp:S|qry_typ:P|lang:en|wc:3|cs:9149|v=4,Nalam Agency,https://www.indiamart.com/nalam-agency-coimbatore/?pos=186&kwd=friends adult diapers&tags=BA||||8584.299|Price|product|||NA|rsf:gd-|-stype:attr=1-br|qr_nm:gd|res:RC4|com-cf:nl|ptrs:na|ktp:N0|mc:184743|mtp:S|qry_typ:P|lang:en|wc:3|cs:9149|v=4,False,Coimbatore,Coimbatore,"12/4A, LIC Agent Colony, Kurichi, Sundarapuram, Coimbatore, Coimbatore - 641024, Dist.Coimbatore, Tamil Nadu",7942838424,
"Friends Classic Adult Dry Pants, Size: Large, 10 Pieces",https://www.indiamart.com/proddetail/friends-classic-adult-dry-pants-24098099262.html?pos=187&kwd=friends adult diapers&tags=BB||||8706.587|Price|product|||NA|rsf:gd-|-stype:attr=1-br|qr_nm:gd|res:RC4|com-cf:nl|ptrs:na|ktp:N0|mc:184743|mtp:S|qry_typ:P|lang:en|wc:3|cs:9149|v=4,Suba Surgicals,https://www.indiamart.com/subasurgicals-tamilnadu/?pos=187&kwd=friends adult diapers&tags=BB||||8706.587|Price|product|||NA|rsf:gd-|-stype:attr=1-br|qr_nm:gd|res:RC4|com-cf:nl|ptrs:na|ktp:N0|mc:184743|mtp:S|qry_typ:P|lang:en|wc:3|cs:9149|v=4,False,Transport Nagar,Madurai,"DOOR NO 3/87,,NORTH PERUMAL MASITRY STREET,MADURAI No. 269,,625022,Madurai, Transport Nagar, Madurai - 625001, Dist.Madurai, Tamil Nadu",8046076990,
"Pull Ups Friends Easy XL Adult Diaper, 10 Piece",https://www.indiamart.com/proddetail/friends-easy-xl-adult-diaper-2851611538230.html?pos=188&kwd=friends adult diapers&tags=BB||||8774.064|Price|product|||NA|rsf:gd-|-stype:attr=1-br|qr_nm:gd|res:RC4|com-cf:nl|ptrs:na|ktp:N0|mc:184743|mtp:S|qry_typ:P|lang:en|wc:3|cs:9149|v=4,Sundaram Enterprises,https://www.indiamart.com/sundaram-enterprises-tiruchirapalli/?pos=188&kwd=friends adult diapers&tags=BB||||8774.064|Price|product|||NA|rsf:gd-|-stype:attr=1-br|qr_nm:gd|res:RC4|com-cf:nl|ptrs:na|ktp:N0|mc:184743|mtp:S|qry_typ:P|lang:en|wc:3|cs:9149|v=4,False,Tennur,Tiruchirappalli,"Ground Floor, C39, Thillai Nagar 7th Cross Street, Tennur, Tiruchirappalli - 620018, Dist.Tiruchirappalli, Tamil Nadu",7942839794,
"Pull Ups Friends Classic Adult Dry Pants, Size: Medium, 10 Piece",https://www.indiamart.com/proddetail/friends-classic-adult-dry-pants-27549619591.html?pos=189&kwd=friends adult diapers&tags=BA||||8281.036|Price|product|||NA|rsf:gd-|-stype:attr=1-br|qr_nm:gd|res:RC4|com-cf:nl|ptrs:na|ktp:N0|mc:184743|mtp:S|qry_typ:P|lang:en|wc:3|cs:9149|v=4,Shaswat Surgical,https://www.indiamart.com/shaswatsurgicals/?pos=189&kwd=friends adult diapers&tags=BA||||8281.036|Price|product|||NA|rsf:gd-|-stype:attr=1-br|qr_nm:gd|res:RC4|com-cf:nl|ptrs:na|ktp:N0|mc:184743|mtp:S|qry_typ:P|lang:en|wc:3|cs:9149|v=4,False,Raopura,Vadodara,"0,B/H White House Building,NR Shiyapura Police Chowki Lane, Raopura, Vadodara - 390001, Dist.Vadodara, Gujarat",7942672555,
Friends Adult Insert Pad Unisex,https://www.indiamart.com/proddetail/friends-adult-insert-pad-unisex-2853735656412.html?pos=190&kwd=friends adult diapers&tags=BA||||8752.144|Price|product|||NA|rsf:gd-|-stype:attr=1-br|qr_nm:gd|res:RC4|com-cf:nl|ptrs:na|ktp:N0|mc:184743|mtp:S|qry_typ:P|lang:en|wc:3|cs:9149|v=4,Rizlife Healthcare,https://www.indiamart.com/rizlife-healthcare/?pos=190&kwd=friends adult diapers&tags=BA||||8752.144|Price|product|||NA|rsf:gd-|-stype:attr=1-br|qr_nm:gd|res:RC4|com-cf:nl|ptrs:na|ktp:N0|mc:184743|mtp:S|qry_typ:P|lang:en|wc:3|cs:9149|v=4,False,Okhla Industrial Estate Phase 1,New Delhi,"First Floor, D-58, Office- 1, Okhla Industrial Area Phase-1, South Delhi, Okhla Industrial Estate Phase 1, New Delhi - 110020, Dist.Delhi, Delhi",7949087800,
Briefs Friends Large Premium Adult Diaper,https://www.indiamart.com/proddetail/friends-large-premium-adult-diaper-2853291430762.html?pos=191&kwd=friends adult diapers&tags=BA||||8706.587|Price|product|||NA|rsf:gd-|-stype:attr=1-br|qr_nm:gd|res:RC4|com-cf:nl|ptrs:na|ktp:N0|mc:184743|mtp:S|qry_typ:P|lang:en|wc:3|cs:9149|v=4,Sri Ram Surgicals,https://www.indiamart.com/sriram-surgicals-madurai/?pos=191&kwd=friends adult diapers&tags=BA||||8706.587|Price|product|||NA|rsf:gd-|-stype:attr=1-br|qr_nm:gd|res:RC4|com-cf:nl|ptrs:na|ktp:N0|mc:184743|mtp:S|qry_typ:P|lang:en|wc:3|cs:9149|v=4,False,,Madurai,"First Floor 239 Naicker New Street, Madurai - 625001, Dist.Madurai, Tamil Nadu",7948547340,
"Cotton Disposable Large Friends Classic Adult Dry Pants, Packaging Size: 10 Piece",https://www.indiamart.com/proddetail/large-friends-classic-adult-dry-pants-25750416112.html?pos=192&kwd=friends adult diapers&tags=BA||||8413.825|Price|product|||NA|rsf:gd-|-stype:attr=1-br|qr_nm:gd|res:RC4|com-cf:nl|ptrs:na|ktp:N0|mc:184743|mtp:S|qry_typ:P|lang:en|wc:3|cs:9149|v=4,Balaji Limb Fitting Centre,https://www.indiamart.com/balajilimbfittingcenter/?pos=192&kwd=friends adult diapers&tags=BA||||8413.825|Price|product|||NA|rsf:gd-|-stype:attr=1-br|qr_nm:gd|res:RC4|com-cf:nl|ptrs:na|ktp:N0|mc:184743|mtp:S|qry_typ:P|lang:en|wc:3|cs:9149|v=4,False,tirupati bazar,Hubli,"114/B, Vijaya Nagar, Dharwad, tirupati bazar, Hubli - 580032, Dist.Dharwad, Karnataka",8047654164,
"Briefs Friends Premium Adult Dry Pant Diaper, Size: Large, 10 Piece",https://www.indiamart.com/proddetail/friends-premium-adult-dry-pant-diaper-2851207024630.html?pos=193&kwd=friends adult diapers&tags=BB||||8954.051|Price|product|||NA|rsf:gd-|-stype:attr=1-br|qr_nm:gd|res:RC4|com-cf:nl|ptrs:na|ktp:N0|mc:184743|mtp:S|qry_typ:P|lang:en|wc:3|cs:9149|v=4,V.J Surgicals,https://www.indiamart.com/vj-surgicals/?pos=193&kwd=friends adult diapers&tags=BB||||8954.051|Price|product|||NA|rsf:gd-|-stype:attr=1-br|qr_nm:gd|res:RC4|com-cf:nl|ptrs:na|ktp:N0|mc:184743|mtp:S|qry_typ:P|lang:en|wc:3|cs:9149|v=4,False,,Chennai,"Ground Floor, No.32/306 Lingi Chetty Street, Chennai - 600001, Dist.Chennai, Tamil Nadu",7942832955,
"Friends Classic Adult Dry Pants Xl, Size: Large",,Mahavir Surgicals,https://www.indiamart.com/mahavir-surgicals-mumbai/?pos=194&kwd=friends adult diapers&tags=BB||||8211.142||product|||NA|rsf:gd-|-stype:attr=1-br|qr_nm:gd|res:RC4|com-cf:nl|ptrs:na|ktp:N0|mc:184743|mtp:S|qry_typ:P|lang:en|wc:3|cs:9149|v=4,False,,Mumbai,"101, Madhu Kunj, Hingwala Cross Lane, Mumbai 101, 1, Madhu Kunj, Hingwala Cross Lane, 101, 1, Madhu Kunj, Hingwala Cross Lane, Mumbai, Mumbai Suburban, Maharashtra, 400077,400077,, Mumbai - 400077, Dist.Mumbai, Maharashtra",8048370690,8442
"Friends diapper, Size: Large, Age Group: 3to12 Months",https://www.indiamart.com/proddetail/friends-diapper-2854868526833.html?pos=195&kwd=friends adult diapers&tags=BB||||8211.142|Price|product|||NA|rsf:gd-|-stype:attr=1-br|qr_nm:gd|res:RC4|com-cf:nl|ptrs:na|ktp:N0|mc:184743|mtp:S|qry_typ:P|lang:en|wc:3|cs:9149|v=4,R.M. Enterprises,https://www.indiamart.com/company/231309528/?pos=195&kwd=friends adult diapers&tags=BB||||8211.142|Price|product|||NA|rsf:gd-|-stype:attr=1-br|qr_nm:gd|res:RC4|com-cf:nl|ptrs:na|ktp:N0|mc:184743|mtp:S|qry_typ:P|lang:en|wc:3|cs:9149|v=4,False,,Mumbai,"Shop No.2, Dr.5 Ram Mandir Road Ganesh Co Op Hsg Soc, Mumbai - 400104, Dist.Mumbai, Maharashtra",8048247087,4308
"Middle Age,Senior Citizen Friends Adults Diapers large & Medium size",https://www.indiamart.com/proddetail/friends-adults-diapers-large-medium-size-23832655788.html?pos=196&kwd=friends adult diapers&tags=BA||||8307.81|Price|product|||NA|rsf:gd-|-stype:attr=1-br|qr_nm:gd|res:RC4|com-cf:nl|ptrs:na|ktp:N0|mc:184743|mtp:S|qry_typ:P|lang:en|wc:3|cs:9149|v=4,Avikshit Lifesciences And Pharmaceuticals Private Limited,https://www.indiamart.com/avikshit-lifesciences/?pos=196&kwd=friends adult diapers&tags=BA||||8307.81|Price|product|||NA|rsf:gd-|-stype:attr=1-br|qr_nm:gd|res:RC4|com-cf:nl|ptrs:na|ktp:N0|mc:184743|mtp:S|qry_typ:P|lang:en|wc:3|cs:9149|v=4,False,,Pune,"Aqua Marina Sr No 139/3 Shinde Vasti Flat No 111 Ravet, Pune - 411017, Dist.Pune, Maharashtra",8048372282,964
"Pull Ups Friends Adults Diaper Pants, Size: Large",https://www.indiamart.com/proddetail/friends-adults-diaper-pants-2852994583630.html?pos=197&kwd=friends adult diapers&tags=BA||||9189.305|Price|product|||NA|rsf:gd-|-stype:attr=1-br|qr_nm:gd|res:RC4|com-cf:nl|ptrs:na|ktp:N0|mc:184743|mtp:S|qry_typ:P|lang:en|wc:3|cs:9149|v=4,Drishti Surgical And Pharma,https://www.indiamart.com/drishti-surgical-pharma/?pos=197&kwd=friends adult diapers&tags=BA||||9189.305|Price|product|||NA|rsf:gd-|-stype:attr=1-br|qr_nm:gd|res:RC4|com-cf:nl|ptrs:na|ktp:N0|mc:184743|mtp:S|qry_typ:P|lang:en|wc:3|cs:9149|v=4,False,Naini,Prayagraj,"C H-27, ADA Colony, Naini, Naini, Prayagraj - 211008, Dist.Allahabad, Uttar Pradesh",7942865557,
Pant Type Friends Premium Pull Up Dry Pants,https://www.indiamart.com/proddetail/friends-premium-pull-up-dry-pants-7170470391.html?pos=198&kwd=friends adult diapers&tags=BB||||8954.051|Price|product|||NA|rsf:gd-|-stype:attr=1-br|qr_nm:gd|res:RC4|com-cf:nl|ptrs:na|ktp:N0|mc:184743|mtp:S|qry_typ:P|lang:en|wc:3|cs:9149|v=4,Hemaas Health Store,https://www.indiamart.com/hemaashealthstore/?pos=198&kwd=friends adult diapers&tags=BB||||8954.051|Price|product|||NA|rsf:gd-|-stype:attr=1-br|qr_nm:gd|res:RC4|com-cf:nl|ptrs:na|ktp:N0|mc:184743|mtp:S|qry_typ:P|lang:en|wc:3|cs:9149|v=4,False,,Chennai,"No. 107/1, A-7, Ground Floor, Deen Mahal, L. B. Road, Mosque Complex, Chennai - 600020, Dist.Chennai, Tamil Nadu",8047803265,
Briefs Friends Adult Diapers,https://www.indiamart.com/proddetail/friends-adult-diapers-2850484064333.html?pos=199&kwd=friends adult diapers&tags=BB||||8584.299|Price|product|||NA|rsf:gd-|-stype:attr=1-br|qr_nm:gd|res:RC4|com-cf:nl|ptrs:na|ktp:N0|mc:184743|mtp:S|qry_typ:P|lang:en|wc:3|cs:9149|v=4,Geethas Pharmacy,https://www.indiamart.com/geethas-pharmacy/?pos=199&kwd=friends adult diapers&tags=BB||||8584.299|Price|product|||NA|rsf:gd-|-stype:attr=1-br|qr_nm:gd|res:RC4|com-cf:nl|ptrs:na|ktp:N0|mc:184743|mtp:S|qry_typ:P|lang:en|wc:3|cs:9149|v=4,False,,Coimbatore,"317 Dr.alagappa Road Coimbatore, Coimbatore - 641012, Dist.Coimbatore, Tamil Nadu",8047619212,
"18-80 Friends Adult Daiper, Size: Large, 10",https://www.indiamart.com/proddetail/friends-adult-daiper-2850083974530.html?pos=200&kwd=friends adult diapers&tags=BB||||8242.731|Price|product|||NA|rsf:gd-|-stype:attr=1-br|qr_nm:gd|res:RC4|com-cf:nl|ptrs:na|ktp:N0|mc:184743|mtp:S|qry_typ:P|lang:en|wc:3|cs:9149|v=4,Curecraft Healthcare LLP,https://www.indiamart.com/curecraft-healthcare-llp/?pos=200&kwd=friends adult diapers&tags=BB||||8242.731|Price|product|||NA|rsf:gd-|-stype:attr=1-br|qr_nm:gd|res:RC4|com-cf:nl|ptrs:na|ktp:N0|mc:184743|mtp:S|qry_typ:P|lang:en|wc:3|cs:9149|v=4,False,,Ulhasnagar,"1st Floor Shop No. A2, 1st Floor, A Wing Station Road Unr-3 Woodland Complex, Ulhasnagar - 421002, Dist.Thane, Maharashtra",8047311025,2424
Friends Corner,,Friends Corner,https://www.indiamart.com/friends-corner-aurangabad/?pos=201&kwd=friends adult diapers&tags=B||||8476.868||product|||NA|rsf:gd-|-stype:attr=1-br|qr_nm:gd|res:RC4|com-cf:nl|ptrs:na|ktp:N0|mc:184743|mtp:S|qry_typ:P|lang:en|wc:3|cs:9149|v=4,False,,Aurangabad,"RM 123/1, , ,COLGATE CHOWK, BAJAJ NAGAR AURANGABAD Rm 123/1 ,colgate Chowk Bajaj Nagar, 431136, Aurangabad, Aurangabad - 431136, Maharashtra",8048249727,8857
Friends Adult Diapers,,Agraj Traders,https://www.indiamart.com/agraj-traders/?pos=202&kwd=friends adult diapers&tags=B||||9110.092|Price|product|||NA|rsf:gd-|-stype:attr=1-br|qr_nm:gd|res:RC4|com-cf:nl|ptrs:na|ktp:N0|mc:184743|mtp:S|qry_typ:P|lang:en|wc:3|cs:9149|v=4,False,,Lucknow,"Shop No-4 M D Plaza,Ground Floor,Gata No 13,Kursi Road,Dashauli,Lucknow, Lucknow - 226026, Dist.Lucknow, Uttar Pradesh",8047308889,1295
Friends Adult Diapers,,Shri Traders,https://www.indiamart.com/shri-traders-salem/?pos=203&kwd=friends adult diapers&tags=BA||||8717.056|Price|product|||NA|rsf:gd-|-stype:attr=1-br|qr_nm:gd|res:RC4|com-cf:nl|ptrs:na|ktp:N0|mc:184743|mtp:S|qry_typ:P|lang:en|wc:3|cs:9149|v=4,False,,Salem,"118/1 Kumaran Nager, Salem - 636008, Dist.Salem, Tamil Nadu",8048250462,650
Friends Adult Diapers,,M H Traders,https://www.indiamart.com/mhtraders-94179883/?pos=204&kwd=friends adult diapers&tags=BB||||8211.142||product|||NA|rsf:gd-|-stype:attr=1-br|qr_nm:gd|res:RC4|com-cf:nl|ptrs:na|ktp:N0|mc:184743|mtp:S|qry_typ:P|lang:en|wc:3|cs:9149|v=4,False,Kurla,Mumbai,"Kalina Cst Road, Opp Goodluck Home New Manipada, Santacruz East Shop no 77 hira kumbhar chawl cst road near kurla Station kurla west 400070, Kurla, Mumbai - 400098, Dist.Mumbai, Maharashtra",8047523736,
Friends Adult Diapers,,Awadh Medicos Agency,https://www.indiamart.com/awadh-medicos-agencies/?pos=205&kwd=friends adult diapers&tags=BB||||8752.144|Price|product|||NA|rsf:gd-|-stype:attr=1-br|qr_nm:gd|res:RC4|com-cf:nl|ptrs:na|ktp:N0|mc:184743|mtp:S|qry_typ:P|lang:en|wc:3|cs:9149|v=4,False,Prajapati Colony,New Delhi,"1st Floor A-3, Indra Park Uttam Nagar, Prajapati Colony, New Delhi - 110059, Dist.Delhi, Delhi",8069017471,719
Friends Adult Diapers,,Health Care Medico And Supermarket,https://www.indiamart.com/health-care-medico-and-supermarket/?pos=206&kwd=friends adult diapers&tags=BB||||8307.81|Price|product|||NA|rsf:gd-|-stype:attr=1-br|qr_nm:gd|res:RC4|com-cf:nl|ptrs:na|ktp:N0|mc:184743|mtp:S|qry_typ:P|lang:en|wc:3|cs:9149|v=4,False,,Pune,"Ground 104 Kondhawa Road Jayashree Ramesh Agawane, Hill View Society, Pune - 411048, Dist.Pune, Maharashtra",8048247088,6180
Friends Adult Diapers,,Plusone Trader,https://www.indiamart.com/company/231147957/?pos=207&kwd=friends adult diapers&tags=BB||||8785.791||product|||NA|rsf:gd-|-stype:attr=1-br|qr_nm:gd|res:RC4|com-cf:nl|ptrs:na|ktp:N0|mc:184743|mtp:S|qry_typ:P|lang:en|wc:3|cs:9149|v=4,False,Vaishali,Ghaziabad,"Plot No 717C GF Sector 5, Vaishali, Ghaziabad - 201010, Dist.Ghaziabad, Uttar Pradesh",8048247089,7140
Friends Adult Diapers,,The Alpha Medicos & Surgicals,https://www.indiamart.com/the-alpha-medicose-and-surgical-wholesale-and-distributor/?pos=208&kwd=friends adult diapers&tags=BB||||8876.815|Price|product|||NA|rsf:gd-|-stype:attr=1-br|qr_nm:gd|res:RC4|com-cf:nl|ptrs:na|ktp:N0|mc:184743|mtp:S|qry_typ:P|lang:en|wc:3|cs:9149|v=4,False,Nagpur,Nagpur,"First Floor F-101a Dighori Naka Khobragade Complex Gohohnisim Umred Road Dighori Nagpur, Nagpur, Nagpur - 440024, Dist.Nagpur, Maharashtra",8069264821,502
Friends Adult Diapers,,Sharanya Enterprises,https://www.indiamart.com/sharanya-enterprises-vadodara/?pos=209&kwd=friends adult diapers&tags=BB||||8281.036||product|||NA|rsf:gd-|-stype:attr=1-br|qr_nm:gd|res:RC4|com-cf:nl|ptrs:na|ktp:N0|mc:184743|mtp:S|qry_typ:P|lang:en|wc:3|cs:9149|v=4,False,Atladara,Vadodara,"7, Atri kutir, Amli Faliya,shiyapura,raopura,vadodra 390001, Atladara, Vadodara - 390012, Dist.Vadodara, Gujarat",8041013961,
Friends Adult Diapers,,Hitesh Sales,https://www.indiamart.com/hitesh-sales-nagpur/?pos=210&kwd=friends adult diapers&tags=BA||||8876.815||product|||NA|rsf:gd-|-stype:attr=1-br|qr_nm:gd|res:RC4|com-cf:nl|ptrs:na|ktp:N0|mc:184743|mtp:S|qry_typ:P|lang:en|wc:3|cs:9149|v=4,False,Gandhibagh,Nagpur,"SHOP NO. 34-35,GENERAL MARCHANT MARKET,GANDHIBAGH,NAGPUR Shop No. 35, Medicine Market, Gandhibagh,,440005,Nagpur, Gandhibagh, Nagpur - 440002, Dist.Nagpur, Maharashtra",7949084989,
