product_title,product_link,company_name,company_link,is_verified_exporter,city_region,city,address_details,phone_number,phone_number_extension
"Printed Glass Baby Feeding Bottle, 3-12 Months",https://www.indiamart.com/proddetail/printed-glass-baby-feeding-bottle-23215958162.html?pos=1&kwd=glass baby feeding bottle&tags=A||||8545.6045|Price|product|||MDC|rsf:gd-|-stype:attr=1|qr_nm:gd|res:RC4|com-cf:nl|ptrs:na|ktp:N0|mc:443896|mtp:S|qry_typ:P|lang:en|wc:4|flavl:0|cs:9663|v=4,Shri Siddhivinayak Traders,https://www.indiamart.com/shrisiddhivinayaktraders-firozpur/?pos=1&kwd=glass baby feeding bottle&tags=A||||8545.6045|Price|product|||MDC|rsf:gd-|-stype:attr=1|qr_nm:gd|res:RC4|com-cf:nl|ptrs:na|ktp:N0|mc:443896|mtp:S|qry_typ:P|lang:en|wc:4|flavl:0|cs:9663|v=4,False,Basti Nizamdin,Firozpur,"No.94, Anand Avenue, Backside Marked Office, Malwal Road, Firozpur City, Basti Nizamdin, Firozpur - 152002, Dist.Firozpur, Punjab",8046066644,
"Transparent Glass Baby Feeding Bottle with silicone cover, Capacity: 150 mL",https://www.indiamart.com/proddetail/glass-baby-feeding-bottle-with-silicone-cover-2855096770155.html?pos=2&kwd=glass baby feeding bottle&tags=A||||8545.6045|Price|product|||MDC|rsf:gd-|-stype:attr=1|qr_nm:gd|res:RC4|com-cf:nl|ptrs:na|ktp:N0|mc:443896|mtp:S|qry_typ:P|lang:en|wc:4|flavl:0|cs:9663|v=4,Shraddha Saburi,https://www.indiamart.com/shraddhasaburi/?pos=2&kwd=glass baby feeding bottle&tags=A||||8545.6045|Price|product|||MDC|rsf:gd-|-stype:attr=1|qr_nm:gd|res:RC4|com-cf:nl|ptrs:na|ktp:N0|mc:443896|mtp:S|qry_typ:P|lang:en|wc:4|flavl:0|cs:9663|v=4,False,Cantonment Area,Firozpur,"263, Suji Bazar, M/s Shraddha Saburi, Ferozepur Cantt, Cantonment Area, Firozpur - 152001, Dist.Firozpur, Punjab",8048979628,
Baby Glass Feeding Bottle 120ml With Sleeve (Cover),https://www.indiamart.com/proddetail/baby-glass-feeding-bottle-120ml-with-sleeve-cover-2854979627573.html?pos=3&kwd=glass baby feeding bottle&tags=A||||8752.144|Price|product|||TS|rsf:gd-|-stype:attr=1|qr_nm:gd|res:RC4|com-cf:nl|ptrs:na|ktp:N0|mc:443896|mtp:S|qry_typ:P|lang:en|wc:4|flavl:0|cs:9663|v=4,Dolphin Baby Product,https://www.dolphinbabyproducts.com/?pos=3&kwd=glass baby feeding bottle&tags=A||||8752.144|Price|product|||TS|rsf:gd-|-stype:attr=1|qr_nm:gd|res:RC4|com-cf:nl|ptrs:na|ktp:N0|mc:443896|mtp:S|qry_typ:P|lang:en|wc:4|flavl:0|cs:9663|v=4,False,Inderlok,New Delhi,"No. 488, 1st Floor, Shahzada Bagh, Industrial Area Phase 1, Inderlok, New Delhi - 110035, Dist.Delhi, Delhi",8048965296,
"Transparent Plastic Feeding Bottle, Capacity: 200 mL, Baby",https://www.indiamart.com/proddetail/baby-feeding-bottle-2854899842891.html?pos=4&kwd=glass baby feeding bottle&tags=A||||8752.144|Price|product|||TS|rsf:gd-|-stype:attr=1|qr_nm:gd|res:RC4|com-cf:nl|ptrs:na|ktp:N0|mc:443896|mtp:S|qry_typ:P|lang:en|wc:4|flavl:0|cs:9663|v=4,Dua Traders,https://www.indiamart.com/duatraders-delhi/?pos=4&kwd=glass baby feeding bottle&tags=A||||8752.144|Price|product|||TS|rsf:gd-|-stype:attr=1|qr_nm:gd|res:RC4|com-cf:nl|ptrs:na|ktp:N0|mc:443896|mtp:S|qry_typ:P|lang:en|wc:4|flavl:0|cs:9663|v=4,False,Mandoli,New Delhi,"Plot No. 8, Kh No. 4/24, Mela Ram Vatika, E-block, JR Complex No. 4, Mandoli, Sevadham, Mandoli, New Delhi - 110093, Dist.Delhi, Delhi",8048971741,
"URBAN CUBE Transparent Glass Baby Feeding Bottle, 3-12 Months",https://www.indiamart.com/proddetail/glass-baby-feeding-bottle-26438729997.html?pos=5&kwd=glass baby feeding bottle&tags=A||||8752.144|Price|product|||SSnp|rsf:gd-|-stype:attr=1|qr_nm:gd|res:RC4|com-cf:nl|ptrs:na|ktp:N0|mc:443896|mtp:S|qry_typ:P|lang:en|wc:4|flavl:0|cs:9663|v=4,Urbancube,https://www.indiamart.com/urbancube/?pos=5&kwd=glass baby feeding bottle&tags=A||||8752.144|Price|product|||SSnp|rsf:gd-|-stype:attr=1|qr_nm:gd|res:RC4|com-cf:nl|ptrs:na|ktp:N0|mc:443896|mtp:S|qry_typ:P|lang:en|wc:4|flavl:0|cs:9663|v=4,False,Kamla Nagar,New Delhi,"Ground Floor, 14 UA, Jawahar Nagar, Kamla Nagar, New Delhi - 110007, Dist.Delhi, Delhi",8048980014,
"750ml Gloory Borosilicate Glass Water Bottle, For Home",https://www.indiamart.com/proddetail/750ml-gloory-borosilicate-glass-water-bottle-2849817200255.html?pos=6&kwd=glass baby feeding bottle&tags=BA||||8741.987|Price|product|||TS|rsf:gd-|-stype:attr=1|qr_nm:gd|res:RC4|com-cf:nl|ptrs:na|ktp:N0|mc:443896|mtp:S|qry_typ:P|lang:en|wc:4|flavl:0|cs:9663|v=4,Excel Industries,https://www.borosilicateglassindia.com/?pos=6&kwd=glass baby feeding bottle&tags=BA||||8741.987|Price|product|||TS|rsf:gd-|-stype:attr=1|qr_nm:gd|res:RC4|com-cf:nl|ptrs:na|ktp:N0|mc:443896|mtp:S|qry_typ:P|lang:en|wc:4|flavl:0|cs:9663|v=4,False,Gandhi Nagar,Ambala,"2/14/4, Punjabi Bagh, Near Drum Factory, Gandhi Nagar, Ambala - 133001, Dist.Ambala, Haryana",7942797708,
Multicolored Baby Feeding Bottle Cover,https://www.indiamart.com/proddetail/multicolored-baby-feeding-bottle-cover-20730819712.html?pos=7&kwd=glass baby feeding bottle&tags=A||||8752.144|Price|product|||TS|rsf:gd-|-stype:attr=1|qr_nm:gd|res:RC4|com-cf:nl|ptrs:na|ktp:N0|mc:443896|mtp:S|qry_typ:P|lang:en|wc:4|flavl:0|cs:9663|v=4,National Overseas,https://www.indiamart.com/nationaltraders-vishwashnagar/?pos=7&kwd=glass baby feeding bottle&tags=A||||8752.144|Price|product|||TS|rsf:gd-|-stype:attr=1|qr_nm:gd|res:RC4|com-cf:nl|ptrs:na|ktp:N0|mc:443896|mtp:S|qry_typ:P|lang:en|wc:4|flavl:0|cs:9663|v=4,False,Shahdara,New Delhi,"1/99, Gali No. 3, Vishwas Nagar, Shahdara, New Delhi - 110032, Dist.Delhi, Delhi",8046047673,
"Transparent Borosilicate Glass Baby Feeding Bottle, Capacity: 100 mL",https://www.indiamart.com/proddetail/borosilicate-glass-baby-feeding-bottle-2854399303591.html?pos=8&kwd=glass baby feeding bottle&tags=A||||8741.987|Price|product|||TS|rsf:gd-|-stype:attr=1|qr_nm:gd|res:RC4|com-cf:nl|ptrs:na|ktp:N0|mc:443896|mtp:S|qry_typ:P|lang:en|wc:4|flavl:0|cs:9663|v=4,Myson Exports Assistance,https://www.indiamart.com/myson-exports-assistance/?pos=8&kwd=glass baby feeding bottle&tags=A||||8741.987|Price|product|||TS|rsf:gd-|-stype:attr=1|qr_nm:gd|res:RC4|com-cf:nl|ptrs:na|ktp:N0|mc:443896|mtp:S|qry_typ:P|lang:en|wc:4|flavl:0|cs:9663|v=4,False,Sadar Bazar,Ambala,"Shop No 4, Ist Floor, 5507-11/5555 Anaj Mandi, Nicholson Road, Ambala Cantt, Sadar Bazar, Ambala - 133001, Dist.Ambala, Haryana",8046073164,
Transparent SKYBLUE - Baby Glass Feeding Bottle - 120ml,https://www.indiamart.com/proddetail/skyblue-baby-glass-feeding-bottle-120ml-2853805041433.html?pos=9&kwd=glass baby feeding bottle&tags=A||||8752.144|Price|product|||TS|rsf:gd-|-stype:attr=1|qr_nm:gd|res:RC4|com-cf:nl|ptrs:na|ktp:N0|mc:443896|mtp:S|qry_typ:P|lang:en|wc:4|flavl:0|cs:9663|v=4,Ekta Overseas,https://www.indiamart.com/ektaoverseas-newdelhi/?pos=9&kwd=glass baby feeding bottle&tags=A||||8752.144|Price|product|||TS|rsf:gd-|-stype:attr=1|qr_nm:gd|res:RC4|com-cf:nl|ptrs:na|ktp:N0|mc:443896|mtp:S|qry_typ:P|lang:en|wc:4|flavl:0|cs:9663|v=4,False,Shahdara,New Delhi,"1/95, Gali No.3, Near Navjeevan Phisical Center, Vishwas Nagar, Shahdara,, Shahdara, New Delhi - 110032, Dist.Delhi, Delhi",7942628926,
300 Ml Baby Milk Glass Bottle,https://www.indiamart.com/proddetail/300-ml-baby-milk-glass-bottle-23552281188.html?pos=10&kwd=glass baby feeding bottle&tags=A||||8861.147|Price|product|||TS|rsf:gd-|-stype:attr=1|qr_nm:gd|res:RC4|com-cf:nl|ptrs:na|ktp:N0|mc:443896|mtp:S|qry_typ:P|lang:en|wc:4|flavl:0|cs:9663|v=4,Eagle Glass Deco Private Limited,https://www.indiamart.com/eagleglassdeco/?pos=10&kwd=glass baby feeding bottle&tags=A||||8861.147|Price|product|||TS|rsf:gd-|-stype:attr=1|qr_nm:gd|res:RC4|com-cf:nl|ptrs:na|ktp:N0|mc:443896|mtp:S|qry_typ:P|lang:en|wc:4|flavl:0|cs:9663|v=4,True,Sukhmalpur Nizamabad,Firozabad,"C-19, 20, Industrial Estate Bhau Ka Nagla, Sukhmalpur Nizamabad, Firozabad - 283203, Dist.Firozabad, Uttar Pradesh",8047631366,
"Transparent Plastic Little Bee Premium Baby Glass Feeding Bottle, Capacity: 50 mL",https://www.indiamart.com/proddetail/little-bee-premium-baby-glass-feeding-bottle-2854528306712.html?pos=11&kwd=glass baby feeding bottle&tags=A||||8752.144|Price|product|||MDC|rsf:gd-|-stype:attr=1|qr_nm:gd|res:RC4|com-cf:nl|ptrs:na|ktp:N0|mc:443896|mtp:S|qry_typ:P|lang:en|wc:4|flavl:0|cs:9663|v=4,Priyanshi International,https://www.indiamart.com/priyanshi-international-uttarpradesh/?pos=11&kwd=glass baby feeding bottle&tags=A||||8752.144|Price|product|||MDC|rsf:gd-|-stype:attr=1|qr_nm:gd|res:RC4|com-cf:nl|ptrs:na|ktp:N0|mc:443896|mtp:S|qry_typ:P|lang:en|wc:4|flavl:0|cs:9663|v=4,False,,New Delhi,"3,PROP NO S228,SCHOOL BLOCK,SHAKARPUR UGF, 3, Prop No S228, School Block, Shakarpur,110092, New Delhi - 110092, Dist.Delhi, Delhi",7942676139,
"White Metal 125ml Baby GLASS Feeding Bottle, Capacity: 150 mL",https://www.indiamart.com/proddetail/125ml-baby-glass-feeding-bottle-2854627139355.html?pos=12&kwd=glass baby feeding bottle&tags=BA||||8752.144|Price|product|||MDC|rsf:gd-|-stype:attr=1|qr_nm:gd|res:RC4|com-cf:nl|ptrs:na|ktp:N0|mc:443896|mtp:S|qry_typ:P|lang:en|wc:4|flavl:0|cs:9663|v=4,Little Kingdom Baby Product,https://www.indiamart.com/little-kingdombaby-product/?pos=12&kwd=glass baby feeding bottle&tags=BA||||8752.144|Price|product|||MDC|rsf:gd-|-stype:attr=1|qr_nm:gd|res:RC4|com-cf:nl|ptrs:na|ktp:N0|mc:443896|mtp:S|qry_typ:P|lang:en|wc:4|flavl:0|cs:9663|v=4,False,Bawana,New Delhi,"Plot No. 16, PKT-G, Sector-3, DSIIDC, Bawana, North West Delhi, Bawana, New Delhi - 110039, Dist.Delhi, Delhi",8047648589,
Baby feeding Bottle with character- 250 Ml,https://www.indiamart.com/proddetail/baby-feeding-bottle-with-character-250-ml-2850711107733.html?pos=13&kwd=glass baby feeding bottle&tags=A||||9528.781|Price|product|||TS|rsf:gd-|-stype:attr=1|qr_nm:gd|res:RC4|com-cf:nl|ptrs:na|ktp:N0|mc:443896|mtp:S|qry_typ:P|lang:en|wc:4|flavl:0|cs:9663|v=4,Fingo Brain,https://www.indiamart.com/fingo-brain/?pos=13&kwd=glass baby feeding bottle&tags=A||||9528.781|Price|product|||TS|rsf:gd-|-stype:attr=1|qr_nm:gd|res:RC4|com-cf:nl|ptrs:na|ktp:N0|mc:443896|mtp:S|qry_typ:P|lang:en|wc:4|flavl:0|cs:9663|v=4,False,Upper Bazar,Ranchi,"402, 5TH Floor, Nand Rani Tower,SBI Bank Building,Main Road Near Daily Market, Upper Bazar, Ranchi - 834001, Dist.Ranchi, Jharkhand",8047305952,
"Chinmay kids Baby Feeding bottle, 3-12 Months",https://www.indiamart.com/proddetail/baby-feeding-bottle-23414935112.html?pos=14&kwd=glass baby feeding bottle&tags=BA||||8752.144|Price|product|||TS|rsf:gd-|-stype:attr=1|qr_nm:gd|res:RC4|com-cf:nl|ptrs:na|ktp:N0|mc:443896|mtp:S|qry_typ:P|lang:en|wc:4|flavl:0|cs:9663|v=4,Chinmay Kids,https://www.indiamart.com/chinmaykids/?pos=14&kwd=glass baby feeding bottle&tags=BA||||8752.144|Price|product|||TS|rsf:gd-|-stype:attr=1|qr_nm:gd|res:RC4|com-cf:nl|ptrs:na|ktp:N0|mc:443896|mtp:S|qry_typ:P|lang:en|wc:4|flavl:0|cs:9663|v=4,False,Nayagaon,New Delhi,"C-99, Street No. 4, First Pusta, Nayagaon, New Delhi - 110053, Dist.Delhi, Delhi",8046054858,
"Baby Feeding Bottle Cover, Capacity: 250ml",https://www.indiamart.com/proddetail/baby-feeding-bottle-cover-2851755433162.html?pos=15&kwd=glass baby feeding bottle&tags=A||||8752.144|Price|product|||MDC|rsf:gd-|-stype:attr=1|qr_nm:gd|res:RC4|com-cf:nl|ptrs:na|ktp:N0|mc:443896|mtp:S|qry_typ:P|lang:en|wc:4|cs:8900|v=4,B-Qube Enterprises,https://www.indiamart.com/bqube-enterprises/?pos=15&kwd=glass baby feeding bottle&tags=A||||8752.144|Price|product|||MDC|rsf:gd-|-stype:attr=1|qr_nm:gd|res:RC4|com-cf:nl|ptrs:na|ktp:N0|mc:443896|mtp:S|qry_typ:P|lang:en|wc:4|cs:8900|v=4,False,Karol Bagh,New Delhi,"303, Iiird Floor,13/4, W.E.A.,Karol Bagh, Karol Bagh, New Delhi - 110005, Dist.Delhi, Delhi",8047313183,
"Transparent Glass Baby Feeding Bottle, Capacity: 200 mL, 3-12 Months",https://www.indiamart.com/proddetail/glass-baby-feeding-bottle-2852522969088.html?pos=16&kwd=glass baby feeding bottle&tags=BA||||8785.791|Price|product|||TS|rsf:gd-|-stype:attr=1|qr_nm:gd|res:RC4|com-cf:nl|ptrs:na|ktp:N0|mc:443896|mtp:S|qry_typ:P|lang:en|wc:4|cs:8900|v=4,Paras Enterprises,https://www.claoberry.com/?pos=16&kwd=glass baby feeding bottle&tags=BA||||8785.791|Price|product|||TS|rsf:gd-|-stype:attr=1|qr_nm:gd|res:RC4|com-cf:nl|ptrs:na|ktp:N0|mc:443896|mtp:S|qry_typ:P|lang:en|wc:4|cs:8900|v=4,False,Raj Nagar Extension,Ghaziabad,"KH.NO.-2565,VILLAGE KARHERA,MOHAN NAGAR,Ghaziabad, Raj Nagar Extension, Ghaziabad - 201007, Dist.Ghaziabad, Uttar Pradesh",8043862487,
"Small Wonder Blue 250 ML Glass Baby Feeding Bottle, 3-12 Months",https://www.indiamart.com/proddetail/250-ml-glass-baby-feeding-bottle-25293524791.html?pos=17&kwd=glass baby feeding bottle&tags=BB||||8238.463|Price|product|||TS|rsf:gd-|-stype:attr=1|qr_nm:gd|res:RC4|com-cf:nl|ptrs:na|ktp:N0|mc:443896|mtp:S|qry_typ:P|lang:en|wc:4|cs:8900|v=4,Chemco Plastic Industries Pvt. Ltd.,https://www.indiamart.com/chemcoplastic/?pos=17&kwd=glass baby feeding bottle&tags=BB||||8238.463|Price|product|||TS|rsf:gd-|-stype:attr=1|qr_nm:gd|res:RC4|com-cf:nl|ptrs:na|ktp:N0|mc:443896|mtp:S|qry_typ:P|lang:en|wc:4|cs:8900|v=4,False,Colaba,Silvassa,"Survey No 227/1/1, Chemco Complex, Silvassa Sayali Road, Colaba, Silvassa - 396230, Dist.Dadra and Nagar Haveli and Daman and Diu, Dadra and Nagar Haveli and Daman and Diu",8048616523,
"Mastela Multicolor Baby Glass Feeder Bottle, 3-12 Months, Size: 125 ml And 250 ml",https://www.indiamart.com/proddetail/baby-glass-feeder-bottle-24832916630.html?pos=18&kwd=glass baby feeding bottle&tags=BA||||8752.144|Price|product|||TS|rsf:gd-|-stype:attr=1|qr_nm:gd|res:RC4|com-cf:nl|ptrs:na|ktp:N0|mc:443896|mtp:S|qry_typ:P|lang:en|wc:4|cs:8900|v=4,Anand Garments Pvt Ltd,https://www.indiamart.com/anand-garments-newdelhi/?pos=18&kwd=glass baby feeding bottle&tags=BA||||8752.144|Price|product|||TS|rsf:gd-|-stype:attr=1|qr_nm:gd|res:RC4|com-cf:nl|ptrs:na|ktp:N0|mc:443896|mtp:S|qry_typ:P|lang:en|wc:4|cs:8900|v=4,False,mundka,New Delhi,"Plot No-276, Area Pocket-m Sector-1, Dsiidc Bawana,, mundka, New Delhi - 110039, Dist.Delhi, Delhi",8048262855,
Baby Glass Feeder Bottle,https://www.indiamart.com/proddetail/baby-glass-feeder-bottle-2853899066755.html?pos=19&kwd=glass baby feeding bottle&tags=BA||||8746.929|Price|product|||TS|rsf:gd-|-stype:attr=1|qr_nm:gd|res:RC4|com-cf:nl|ptrs:na|ktp:N0|mc:443896|mtp:S|qry_typ:P|lang:en|wc:4|cs:8900|v=4,Growson Healthcare,https://www.indiamart.com/growson-healthcare/?pos=19&kwd=glass baby feeding bottle&tags=BA||||8746.929|Price|product|||TS|rsf:gd-|-stype:attr=1|qr_nm:gd|res:RC4|com-cf:nl|ptrs:na|ktp:N0|mc:443896|mtp:S|qry_typ:P|lang:en|wc:4|cs:8900|v=4,False,Manimajra,Chandigarh,"Building No. 36/5, 2nd Floor, PWT, Manimajra, Chandigarh - 160101, Chandigarh",8047643425,
Bee Baby Glass Feeding Bottles,https://www.indiamart.com/proddetail/glass-feeding-bottles-20395228762.html?pos=20&kwd=glass baby feeding bottle&tags=BB||||8211.906|Price|product|||TS|rsf:gd-|-stype:attr=1|qr_nm:gd|res:RC4|com-cf:nl|ptrs:na|ktp:N0|mc:443896|mtp:S|qry_typ:P|lang:en|wc:4|cs:8900|v=4,Punamiya Exim Private Limited,https://www.punamiyaexim.co.in/?pos=20&kwd=glass baby feeding bottle&tags=BB||||8211.906|Price|product|||TS|rsf:gd-|-stype:attr=1|qr_nm:gd|res:RC4|com-cf:nl|ptrs:na|ktp:N0|mc:443896|mtp:S|qry_typ:P|lang:en|wc:4|cs:8900|v=4,False,Umargam,Umargam,"Near To Sonal Plastic, Plot No 828 A GIDC, Plot No 828 A GIDC, Umbergaon Station Road, GIDC, Umargam, Umargam - 396171, Dist.Valsad, Gujarat",8048976705,
Baby Feeding Glass Bottle,https://www.indiamart.com/proddetail/baby-feeding-glass-bottle-2853981934273.html?pos=21&kwd=glass baby feeding bottle&tags=BA||||8746.929|Price|product|||MDC|rsf:gd-|-stype:attr=1|qr_nm:gd|res:RC4|com-cf:nl|ptrs:na|ktp:N0|mc:443896|mtp:S|qry_typ:P|lang:en|wc:4|cs:8900|v=4,Umima Pharma,https://www.indiamart.com/umimapharma/?pos=21&kwd=glass baby feeding bottle&tags=BA||||8746.929|Price|product|||MDC|rsf:gd-|-stype:attr=1|qr_nm:gd|res:RC4|com-cf:nl|ptrs:na|ktp:N0|mc:443896|mtp:S|qry_typ:P|lang:en|wc:4|cs:8900|v=4,False,Manimajra,Chandigarh,"262- B, Ground Floor, Gali No. 05, Shanti Nagar, Manimajra, Manimajra, Chandigarh - 160101, Chandigarh",7942553056,
Glass Baby Feeding Bottle,https://www.indiamart.com/proddetail/glass-baby-feeding-bottle-2850942625673.html?pos=22&kwd=glass baby feeding bottle&tags=BA||||8752.144|Price|product|||MDC|rsf:gd-|-stype:attr=1|qr_nm:gd|res:RC4|com-cf:nl|ptrs:na|ktp:N0|mc:443896|mtp:S|qry_typ:P|lang:en|wc:4|cs:8900|v=4,Goldensun,https://www.indiamart.com/goldensun/?pos=22&kwd=glass baby feeding bottle&tags=BA||||8752.144|Price|product|||MDC|rsf:gd-|-stype:attr=1|qr_nm:gd|res:RC4|com-cf:nl|ptrs:na|ktp:N0|mc:443896|mtp:S|qry_typ:P|lang:en|wc:4|cs:8900|v=4,False,Rajouri Garden,New Delhi,"Shop No 44, Ground Floor, DDU Market Tatarpur Rajouri Garden, West, Rajouri Garden, New Delhi - 110027, Dist.Delhi, Delhi",7942788270,
"Plastic Mix Glass Feeding Bottle, Capacity: 125 mL - 250 mL",https://www.indiamart.com/proddetail/glass-feeding-bottle-21942101012.html?pos=23&kwd=glass baby feeding bottle&tags=BA||||8223.226|Price|product|||MDC|rsf:gd-|-stype:attr=1|qr_nm:gd|res:RC4|com-cf:nl|ptrs:na|ktp:N0|mc:443896|mtp:S|qry_typ:P|lang:en|wc:4|cs:8900|v=4,Wecare Solutions,https://www.indiamart.com/wecare-solutions/?pos=23&kwd=glass baby feeding bottle&tags=BA||||8223.226|Price|product|||MDC|rsf:gd-|-stype:attr=1|qr_nm:gd|res:RC4|com-cf:nl|ptrs:na|ktp:N0|mc:443896|mtp:S|qry_typ:P|lang:en|wc:4|cs:8900|v=4,False,Valiv,Thane,"Gala No. F-19-20, 1st Floor, Rajprabha Anand Industrial Estate Naikpada, Waliv, Valiv, Thane - 401208, Dist.Thane, Maharashtra",8047631791,
"Baby Love Glass Feeding Bottle, Capacity: 250 ml, Age Group: Newly Born",https://www.indiamart.com/proddetail/baby-love-glass-feeding-bottle-23823318130.html?pos=24&kwd=glass baby feeding bottle&tags=BA||||8752.144|Price|product|||MDC|rsf:gd-|-stype:attr=1|qr_nm:gd|res:RC4|com-cf:nl|ptrs:na|ktp:N0|mc:443896|mtp:S|qry_typ:P|lang:en|wc:4|cs:8900|v=4,Kidz Creation,https://www.indiamart.com/kidzcreation/?pos=24&kwd=glass baby feeding bottle&tags=BA||||8752.144|Price|product|||MDC|rsf:gd-|-stype:attr=1|qr_nm:gd|res:RC4|com-cf:nl|ptrs:na|ktp:N0|mc:443896|mtp:S|qry_typ:P|lang:en|wc:4|cs:8900|v=4,False,,New Delhi,"Shop No. 279/517,Sabharwal Market, Tolia Wali Gali Sadar Bazar, North Delhi,, New Delhi - 110006, Dist.Delhi, Delhi",8047679212,
"Blue 8330-PREMIUM WARMER GLASS FEEDING BOTTLE, Capacity: 150 mL, Newly Born",https://www.indiamart.com/proddetail/8330-premium-warmer-glass-feeding-bottle-2851549718148.html?pos=25&kwd=glass baby feeding bottle&tags=BA||||8741.987||product|||MDC|rsf:gd-|-stype:attr=1|qr_nm:gd|res:RC4|com-cf:nl|ptrs:na|ktp:N0|mc:443896|mtp:S|qry_typ:P|lang:en|wc:4|cs:8900|v=4,Lab-Tech International,https://www.indiamart.com/labtechinternational/?pos=25&kwd=glass baby feeding bottle&tags=BA||||8741.987||product|||MDC|rsf:gd-|-stype:attr=1|qr_nm:gd|res:RC4|com-cf:nl|ptrs:na|ktp:N0|mc:443896|mtp:S|qry_typ:P|lang:en|wc:4|cs:8900|v=4,False,Cantt,Ambala,"11 -A, Herman City Road,Khudda,Ambala Cantt, Cantt, Ambala - 133001, Dist.Ambala, Haryana",7942550112,
"Chicco Well Glass Feeding Bottle, Age Group: 3-12 Months",https://www.indiamart.com/proddetail/chicco-well-glass-feeding-bottle-2854593346955.html?pos=26&kwd=glass baby feeding bottle&tags=BA||||8661.854|Price|product|||MDC|rsf:gd-|-stype:attr=1|qr_nm:gd|res:RC4|com-cf:nl|ptrs:na|ktp:N0|mc:443896|mtp:S|qry_typ:P|lang:en|wc:4|cs:8900|v=4,Yashika Enterprises,https://www.indiamart.com/yashikaenterprisespunjab/?pos=26&kwd=glass baby feeding bottle&tags=BA||||8661.854|Price|product|||MDC|rsf:gd-|-stype:attr=1|qr_nm:gd|res:RC4|com-cf:nl|ptrs:na|ktp:N0|mc:443896|mtp:S|qry_typ:P|lang:en|wc:4|cs:8900|v=4,False,,Ludhiana,"Backisde Luminous Battery Godown,10-A, Brinda Vihar, Haider Enclave, Ludhiana - 141008, Dist.Ludhiana, Punjab",7949324098,
"Transparent Plastic Feeding Bottle, Capacity: 50 mL, New Born Baby",https://www.indiamart.com/proddetail/chicco-glass-feeding-bottle-120-ml-2853685620188.html?pos=27&kwd=glass baby feeding bottle&tags=BA||||9045.955|Price|product|||MDC|rsf:gd-|-stype:attr=1|qr_nm:gd|res:RC4|com-cf:nl|ptrs:na|ktp:N0|mc:443896|mtp:S|qry_typ:P|lang:en|wc:4|cs:8900|v=4,Rekha Agencies,https://www.indiamart.com/rekhaagencieskanpur/?pos=27&kwd=glass baby feeding bottle&tags=BA||||9045.955|Price|product|||MDC|rsf:gd-|-stype:attr=1|qr_nm:gd|res:RC4|com-cf:nl|ptrs:na|ktp:N0|mc:443896|mtp:S|qry_typ:P|lang:en|wc:4|cs:8900|v=4,False,,Kanpur,"B/386, Awas Vikas Hanspuram, Kanpur - 208021, Uttar Pradesh",8044460697,
500 mL Glass Bottle For Kids,https://www.indiamart.com/proddetail/glass-bottle-for-kids-2853680209197.html?pos=28&kwd=glass baby feeding bottle&tags=BB||||8211.142|Price|product|||TS|rsf:gd-|-stype:attr=1|qr_nm:gd|res:RC4|com-cf:nl|ptrs:na|ktp:N0|mc:443896|mtp:S|qry_typ:P|lang:en|wc:4|cs:8900|v=4,J Star Mobile Accessories Private Limited,https://www.jstarmobiles.com/?pos=28&kwd=glass baby feeding bottle&tags=BB||||8211.142|Price|product|||TS|rsf:gd-|-stype:attr=1|qr_nm:gd|res:RC4|com-cf:nl|ptrs:na|ktp:N0|mc:443896|mtp:S|qry_typ:P|lang:en|wc:4|cs:8900|v=4,False,Mumbai Central,Mumbai,"Office No. 23R, 13th Floor, Navjivan Commercial Premises Ltd, Bldg No.3, Lemington Road, Mumbai Central, Mumbai Central, Mumbai - 400008, Dist.Mumbai, Maharashtra",8048961910,
"Mee Mee Glass Bottle, 3-12 Months",,Bawaa Medicals,https://www.indiamart.com/bawaa-medicals-madurai/?pos=29&kwd=glass baby feeding bottle&tags=BA||||8706.587|Price|product|||MDC|rsf:gd-|-stype:attr=1|qr_nm:gd|res:RC4|com-cf:nl|ptrs:na|ktp:N0|mc:443896|mtp:S|qry_typ:P|lang:en|wc:4|cs:8900|v=4,False,,Madurai,"24 25, American College Complex, Goripalayam, Madurai - 625002, Dist.Madurai, Tamil Nadu",8047850991,
Baby Glass Feeding Bottles,,Shri Anant International,https://www.indiamart.com/shrianantinternational/?pos=30&kwd=glass baby feeding bottle&tags=BA||||8823.154|Price|product|||TS|rsf:gd-|-stype:attr=1|qr_nm:gd|res:RC4|com-cf:nl|ptrs:na|ktp:N0|mc:443896|mtp:S|qry_typ:P|lang:en|wc:4|cs:8900|v=4,False,DayalBagh,Agra,"No.02,House 2,Alkapuri Phase Ii,Agra, DayalBagh, Agra - 282005, Dist.Agra, Uttar Pradesh",7942721451,
Glass Baby Feeding Bottle,,R.B Handicrafts,https://www.indiamart.com/rbhandicrafts/?pos=31&kwd=glass baby feeding bottle&tags=BA||||8915.672|Price|product|||MDC|rsf:gd-|-stype:attr=1|qr_nm:gd|res:RC4|com-cf:nl|ptrs:na|ktp:N0|mc:443896|mtp:S|qry_typ:P|lang:en|wc:4|cs:8900|v=4,False,Bartan Bazaar,Moradabad,"0, Thatera Street Mazar Wali Gali, Bartan Bazaar, Moradabad - 244001, Dist.Moradabad, Uttar Pradesh",8043829840,
"Transparent Baby Feeder borosilicate glass bottle, 3-12 Months, Size: 250ML",https://www.indiamart.com/proddetail/baby-feeder-borosilicate-glass-bottle-2850464176462.html?pos=32&kwd=glass baby feeding bottle&tags=BA||||8741.987|Price|product|||NA|rsf:gd-|-stype:attr=1|qr_nm:gd|res:RC4|com-cf:nl|ptrs:na|ktp:N0|mc:443896|mtp:S|qry_typ:P|lang:en|wc:4|cs:8900|v=4,Kay Jay Lab Instruments,https://www.indiamart.com/kayjaylabinstruments/?pos=32&kwd=glass baby feeding bottle&tags=BA||||8741.987|Price|product|||NA|rsf:gd-|-stype:attr=1|qr_nm:gd|res:RC4|com-cf:nl|ptrs:na|ktp:N0|mc:443896|mtp:S|qry_typ:P|lang:en|wc:4|cs:8900|v=4,False,,Ambala,"65/101, Ra Prade, Top Khana, Ambala - 133001, Dist.Ambala, Haryana",7942820024,
"White Baby Feeding Bottle Glass, 1-2 Years",https://www.indiamart.com/proddetail/baby-feeding-bottle-glass-23759260773.html?pos=33&kwd=glass baby feeding bottle&tags=BB||||8307.81|Price|product|||NA|rsf:gd-|-stype:attr=1|qr_nm:gd|res:RC4|com-cf:nl|ptrs:na|ktp:N0|mc:443896|mtp:S|qry_typ:P|lang:en|wc:4|cs:8900|v=4,Balaji CNG Kit Fittings And Hydro Testing Center Pune,https://www.indiamart.com/balaji-cng-kit-and-hudro-testing-center/?pos=33&kwd=glass baby feeding bottle&tags=BB||||8307.81|Price|product|||NA|rsf:gd-|-stype:attr=1|qr_nm:gd|res:RC4|com-cf:nl|ptrs:na|ktp:N0|mc:443896|mtp:S|qry_typ:P|lang:en|wc:4|cs:8900|v=4,False,,Pune,"Flat No-10, Pl No-17 And 18, Shalini Corner, Near Pmt Bus Stop, Karvenagar, Pune - 411052, Dist.Pune, Maharashtra",8047665006,
"Blue Glass Baby Feeding Bottle, Newly Born",https://www.indiamart.com/proddetail/glass-baby-feeding-bottle-26427296233.html?pos=34&kwd=glass baby feeding bottle&tags=BB||||8915.672||product|||NA|rsf:gd-|-stype:attr=1|qr_nm:gd|res:RC4|com-cf:nl|ptrs:na|ktp:N0|mc:443896|mtp:S|qry_typ:P|lang:en|wc:4|cs:8900|v=4,The Little Lookers,https://www.indiamart.com/thelittlelookers-moradabad/?pos=34&kwd=glass baby feeding bottle&tags=BB||||8915.672||product|||NA|rsf:gd-|-stype:attr=1|qr_nm:gd|res:RC4|com-cf:nl|ptrs:na|ktp:N0|mc:443896|mtp:S|qry_typ:P|lang:en|wc:4|cs:8900|v=4,False,,Moradabad,"4-B-145, Buddhi Vihar Yozna Mbd, Moradabad - 244001, Dist.Moradabad, Uttar Pradesh",8047655658,
Blue Baby Glass Feeding Bottle,https://www.indiamart.com/proddetail/baby-glass-feeding-bottle-2854722490597.html?pos=35&kwd=glass baby feeding bottle&tags=BA||||8228.275|Price|product|||NA|rsf:gd-|-stype:attr=1|qr_nm:gd|res:RC4|com-cf:nl|ptrs:na|ktp:N0|mc:443896|mtp:S|qry_typ:P|lang:en|wc:4|cs:8900|v=4,Shishu Apparels,https://www.indiamart.com/shishu-apparels/?pos=35&kwd=glass baby feeding bottle&tags=BA||||8228.275|Price|product|||NA|rsf:gd-|-stype:attr=1|qr_nm:gd|res:RC4|com-cf:nl|ptrs:na|ktp:N0|mc:443896|mtp:S|qry_typ:P|lang:en|wc:4|cs:8900|v=4,False,,Ahmedabad,"62, Laxmi Vishnu Market, Gheekanta Road, Ghee Kanta, Ahmedabad - 380001, Dist.Ahmedabad, Gujarat",7949322683,
"60ml Glass Baby Feeding Bottle, Newly Born",https://www.indiamart.com/proddetail/60ml-glass-baby-feeding-bottle-2853016797291.html?pos=36&kwd=glass baby feeding bottle&tags=BA||||8741.987|Price|product|||NA|rsf:gd-|-stype:attr=1|qr_nm:gd|res:RC4|com-cf:nl|ptrs:na|ktp:N0|mc:443896|mtp:S|qry_typ:P|lang:en|wc:4|cs:8900|v=4,Mahadev Glass Works,https://www.indiamart.com/mahadevglassworks/?pos=36&kwd=glass baby feeding bottle&tags=BA||||8741.987|Price|product|||NA|rsf:gd-|-stype:attr=1|qr_nm:gd|res:RC4|com-cf:nl|ptrs:na|ktp:N0|mc:443896|mtp:S|qry_typ:P|lang:en|wc:4|cs:8900|v=4,False,HSIDC Industrial Estate,Ambala,"Rollon Road, S.S. Nagar, Ambala Cantt,, HSIDC Industrial Estate, Ambala - 133001, Dist.Ambala, Haryana",7942965563,
"Transparent 125 mL Baby Feeding Glass Bottle, 3-12 Months",https://www.indiamart.com/proddetail/125-ml-baby-feeding-glass-bottle-21576670473.html?pos=37&kwd=glass baby feeding bottle&tags=BA||||8741.987|Price|product|||NA|rsf:gd-|-stype:attr=1|qr_nm:gd|res:RC4|com-cf:nl|ptrs:na|ktp:N0|mc:443896|mtp:S|qry_typ:P|lang:en|wc:4|cs:8900|v=4,K.K. Glass Works,https://www.indiamart.com/kkglassworks/?pos=37&kwd=glass baby feeding bottle&tags=BA||||8741.987|Price|product|||NA|rsf:gd-|-stype:attr=1|qr_nm:gd|res:RC4|com-cf:nl|ptrs:na|ktp:N0|mc:443896|mtp:S|qry_typ:P|lang:en|wc:4|cs:8900|v=4,False,Shahzadpur Tehsil Naraingarh,Ambala,"Near Dakhghar,Maya Enclave, Saha Link Road, Saha,Ambala Ambala Road, Near Krishna Rice Mill,134202,Ambala, Shahzadpur Tehsil Naraingarh, Ambala - 133104, Dist.Ambala, Haryana",8048371514,748
Transparent Glass baby feeding bottle 120 ml,https://www.indiamart.com/proddetail/glass-baby-feeding-bottle-120-ml-2854728644555.html?pos=38&kwd=glass baby feeding bottle&tags=BB||||9327.29|Price|product|||NA|rsf:gd-|-stype:attr=1|qr_nm:gd|res:RC4|com-cf:nl|ptrs:na|ktp:N0|mc:443896|mtp:S|qry_typ:P|lang:en|wc:4|cs:8900|v=4,Easy Care Enterprises,https://www.indiamart.com/easy-clean-azamgarh/?pos=38&kwd=glass baby feeding bottle&tags=BB||||9327.29|Price|product|||NA|rsf:gd-|-stype:attr=1|qr_nm:gd|res:RC4|com-cf:nl|ptrs:na|ktp:N0|mc:443896|mtp:S|qry_typ:P|lang:en|wc:4|cs:8900|v=4,False,purvanchal express way flyover,Azamgarh,"01 Babu Ahmed Seed Store Mahatma Gandhi Marg Uttar Pradesh, purvanchal express way flyover, Azamgarh - 276001, Dist.Azamgarh, Uttar Pradesh",7949083851,
"Mee Mee Kids Glass Feeding Bottle, Capacity: 200 mL",https://www.indiamart.com/proddetail/mee-mee-kids-glass-feeding-bottle-2852603869691.html?pos=39&kwd=glass baby feeding bottle&tags=BA||||8740.707|Price|product|||NA|rsf:gd-|-stype:attr=1|qr_nm:gd|res:RC4|com-cf:nl|ptrs:na|ktp:N0|mc:443896|mtp:S|qry_typ:P|lang:en|wc:4|cs:8900|v=4,Shoppers Delight,https://www.indiamart.com/shoppersdelight/?pos=39&kwd=glass baby feeding bottle&tags=BA||||8740.707|Price|product|||NA|rsf:gd-|-stype:attr=1|qr_nm:gd|res:RC4|com-cf:nl|ptrs:na|ktp:N0|mc:443896|mtp:S|qry_typ:P|lang:en|wc:4|cs:8900|v=4,False,,Mohali,"Ground And Basement, Booth No 14, Shoppers Delight, Clockton Market Omaxe Phase 1 Unique Brew, Sector 13, New Chandigarh, Sas Nagar, Mohali - 140901, Dist.Mohali, Punjab",8043877997,
"Pink And Transparent 125ml Baby Glass Feeder Bottle, Newly Born",https://www.indiamart.com/proddetail/125ml-baby-glass-feeder-bottle-26374945791.html?pos=40&kwd=glass baby feeding bottle&tags=BB||||8752.144|Price|product|||NA|rsf:gd-|-stype:attr=1|qr_nm:gd|res:RC4|com-cf:nl|ptrs:na|ktp:N0|mc:443896|mtp:S|qry_typ:P|lang:en|wc:4|cs:8900|v=4,Hopshoptop E-Commerce (OPC) Private Limited,https://www.indiamart.com/hopshoptop-e-commerce/?pos=40&kwd=glass baby feeding bottle&tags=BB||||8752.144|Price|product|||NA|rsf:gd-|-stype:attr=1|qr_nm:gd|res:RC4|com-cf:nl|ptrs:na|ktp:N0|mc:443896|mtp:S|qry_typ:P|lang:en|wc:4|cs:8900|v=4,False,,New Delhi,"H. No 64, Bank Vihar, Pitampura, North West Delhi, New Delhi - 110034, Dist.Delhi, Delhi",8047681265,
Glass Feeding Bottles In Borosilicate 60Ml,https://www.indiamart.com/proddetail/glass-feeding-bottles-in-borosilicate-60ml-2852204336448.html?pos=41&kwd=glass baby feeding bottle&tags=BA||||8580.032|Price|product|||NA|rsf:gd-|-stype:attr=1|qr_nm:gd|res:RC4|com-cf:nl|ptrs:na|ktp:N0|mc:443896|mtp:S|qry_typ:P|lang:en|wc:4|cs:8900|v=4,A.J.Traders,https://www.indiamart.com/ajtraderspunjab/?pos=41&kwd=glass baby feeding bottle&tags=BA||||8580.032|Price|product|||NA|rsf:gd-|-stype:attr=1|qr_nm:gd|res:RC4|com-cf:nl|ptrs:na|ktp:N0|mc:443896|mtp:S|qry_typ:P|lang:en|wc:4|cs:8900|v=4,False,Guru Amar Dass Nagar,Amritsar,"137, Krishna Nagar, Tarn Taran Road, Guru Amar Dass Nagar, Amritsar - 143001, Dist.Amritsar, Punjab",7942551590,
"Multicolor Glass Feeding Bottles, 3-12 Months, Size: Standard",https://www.indiamart.com/proddetail/glass-feeding-bottles-22414185430.html?pos=42&kwd=glass baby feeding bottle&tags=BB||||8752.144|Price|product|||NA|rsf:gd-|-stype:attr=1|qr_nm:gd|res:RC4|com-cf:nl|ptrs:na|ktp:N0|mc:443896|mtp:S|qry_typ:P|lang:en|wc:4|cs:8900|v=4,Rajah Trading Co,https://www.indiamart.com/rajahtradingco/?pos=42&kwd=glass baby feeding bottle&tags=BB||||8752.144|Price|product|||NA|rsf:gd-|-stype:attr=1|qr_nm:gd|res:RC4|com-cf:nl|ptrs:na|ktp:N0|mc:443896|mtp:S|qry_typ:P|lang:en|wc:4|cs:8900|v=4,False,,New Delhi,"5237, Ground Floor, Gandhi Market,rui Mandi,near Sardar Tea Stall, Sadar Bazar, New Delhi - 110006, Dist.Delhi, Delhi",7942557744,
"Multicolor Glass Feeding Bottles, 3-12 Months, Size: Standard",https://www.indiamart.com/proddetail/glass-feeding-bottles-22414185430.html?pos=43&kwd=glass baby feeding bottle&tags=BB||||8752.144|Price|product|||NA|rsf:gd-|-stype:attr=1|qr_nm:gd|res:RC4|com-cf:nl|ptrs:na|ktp:N0|mc:443896|mtp:S|qry_typ:P|lang:en|wc:4|cs:8900|v=4,Rajah Trading Co,https://www.indiamart.com/rajahtradingco/?pos=43&kwd=glass baby feeding bottle&tags=BB||||8752.144|Price|product|||NA|rsf:gd-|-stype:attr=1|qr_nm:gd|res:RC4|com-cf:nl|ptrs:na|ktp:N0|mc:443896|mtp:S|qry_typ:P|lang:en|wc:4|cs:8900|v=4,False,,New Delhi,"5237, Ground Floor, Gandhi Market,rui Mandi,near Sardar Tea Stall, Sadar Bazar, New Delhi - 110006, Dist.Delhi, Delhi",7942557744,
Steel Feeding Bottle For Baby,,Newborn,https://www.indiamart.com/newborn/?pos=44&kwd=glass baby feeding bottle&tags=BB||||9110.092|Price|product|||NA|rsf:gd-|-stype:attr=1|qr_nm:gd|res:RC4|com-cf:nl|ptrs:na|ktp:N0|mc:443896|mtp:S|qry_typ:P|lang:en|wc:4|cs:8900|v=4,False,lucknow,Lucknow,"226/20 Nai Basti bhadwwan aishbagh, lucknow, Lucknow - 226004, Dist.Lucknow, Uttar Pradesh",8043830778,
Baby Glass Feeder Bottle,,Fashion Enterprises,https://www.indiamart.com/fashion-enterprises-delhi/?pos=45&kwd=glass baby feeding bottle&tags=BB||||8752.144|Price|product|||NA|rsf:gd-|-stype:attr=1|qr_nm:gd|res:RC4|com-cf:nl|ptrs:na|ktp:N0|mc:443896|mtp:S|qry_typ:P|lang:en|wc:4|cs:8900|v=4,False,,New Delhi,"1443/7. Ground Floor ,Gali Chuley Wali Sadar Bazar Central, New Delhi - 110006, Dist.Delhi, Delhi",8043889627,
Glass Feeders Silicon Cover Bottles,,Uttam Bros,https://www.indiamart.com/uttam-brothers/?pos=46&kwd=glass baby feeding bottle&tags=BB||||8752.144|Price|product|||NA|rsf:gd-|-stype:attr=1|qr_nm:gd|res:RC4|com-cf:nl|ptrs:na|ktp:N0|mc:443896|mtp:S|qry_typ:P|lang:en|wc:4|cs:8900|v=4,False,Sadar Bazar,New Delhi,"No. 241, Post Office Street, Gali Toliya Wali, Sadar Bazar, New Delhi - 110006, Dist.Delhi, Delhi",8047694714,
300 Ml Baby Milk Bottle (Without Cap),https://www.indiamart.com/proddetail/300-ml-baby-milk-bottle-without-cap-2849631314873.html?pos=47&kwd=glass baby feeding bottle&tags=CC||||8861.147||product|||TS|rsf:gd-|-stype:attr=1|qr_nm:gd|res:RC4|com-cf:nl|ptrs:na|ktp:N0|mc:443896|mtp:S|qry_typ:P|lang:en|wc:4|cs:8900|v=4,Shopguru India,https://www.indiamart.com/shopguru-india/?pos=47&kwd=glass baby feeding bottle&tags=CC||||8861.147||product|||TS|rsf:gd-|-stype:attr=1|qr_nm:gd|res:RC4|com-cf:nl|ptrs:na|ktp:N0|mc:443896|mtp:S|qry_typ:P|lang:en|wc:4|cs:8900|v=4,False,,Firozabad,"0 Agra Road Firozabad, Firozabad - 283203, Dist.Firozabad, Uttar Pradesh",7942798332,
"Transparent Bonne Glasso Glass feeding bottles, Capacity: 150 mL",https://www.indiamart.com/proddetail/bonne-glasso-glass-feeding-bottles-2851569103948.html?pos=48&kwd=glass baby feeding bottle&tags=CC||||8559.269|Price|product|||TS|rsf:gd-|-stype:attr=1|qr_nm:gd|res:RC4|com-cf:nl|ptrs:na|ktp:N0|mc:443896|mtp:S|qry_typ:P|lang:en|wc:4|cs:8900|v=4,Subhash Stores,https://www.indiamart.com/subhash-stores/?pos=48&kwd=glass baby feeding bottle&tags=CC||||8559.269|Price|product|||TS|rsf:gd-|-stype:attr=1|qr_nm:gd|res:RC4|com-cf:nl|ptrs:na|ktp:N0|mc:443896|mtp:S|qry_typ:P|lang:en|wc:4|cs:8900|v=4,False,Gadi Adda,Indore,"77, RANIPURA MAIN ROAD INDORE, Gadi Adda, Indore - 452001, Dist.Indore, Madhya Pradesh",8047698960,
"Plastic Baby Glass Feeder Bottle, Capacity: 200 mL",https://www.indiamart.com/proddetail/baby-glass-feeder-bottle-2854185294512.html?pos=49&kwd=glass baby feeding bottle&tags=CC||||8038.093|Price|product|||MDC|rsf:gd-|-stype:attr=1|qr_nm:gd|res:RC4|com-cf:nl|ptrs:na|ktp:N0|mc:443896|mtp:S|qry_typ:P|lang:en|wc:4|cs:8900|v=4,Rameshwar Industries,https://www.indiamart.com/rameshwarindustries-rajkot-gujarat/?pos=49&kwd=glass baby feeding bottle&tags=CC||||8038.093|Price|product|||MDC|rsf:gd-|-stype:attr=1|qr_nm:gd|res:RC4|com-cf:nl|ptrs:na|ktp:N0|mc:443896|mtp:S|qry_typ:P|lang:en|wc:4|cs:8900|v=4,False,Veraval,Rajkot,"Old RS No 107/1 Palki 2,Behined Muscat Polymer Plot No 11,Revnue Survey No 271/2,, Veraval, Rajkot - 360024, Dist.Rajkot, Gujarat",8044013909,
"Violet DB-504 Plastic Baby Feeding Bottle, Capacity: 125 ml, Age Group: 3-12 Months",https://www.indiamart.com/proddetail/db-504-plastic-baby-feeding-bottle-2854160583091.html?pos=50&kwd=glass baby feeding bottle&tags=CC||||8693.162|Price|product|||MDC|rsf:gd-|-stype:attr=1|qr_nm:gd|res:RC4|com-cf:nl|ptrs:na|ktp:N0|mc:443896|mtp:S|qry_typ:P|lang:en|wc:4|cs:8900|v=4,Dear Baby,https://www.indiamart.com/dearbaby/?pos=50&kwd=glass baby feeding bottle&tags=CC||||8693.162|Price|product|||MDC|rsf:gd-|-stype:attr=1|qr_nm:gd|res:RC4|com-cf:nl|ptrs:na|ktp:N0|mc:443896|mtp:S|qry_typ:P|lang:en|wc:4|cs:8900|v=4,False,Begambur,Dindigul,"2nd Floor, No 7, Ahmad Appartment, S P Nagar, Begambur, Begambur, Dindigul - 624002, Dist.Dindigul, Tamil Nadu",8045731862,
Plastic Glass Baby Feeding Bottle,https://www.indiamart.com/proddetail/glass-baby-feeding-bottle-2854287451573.html?pos=51&kwd=glass baby feeding bottle&tags=||||8223.226|Price|product|||MDC|rsf:gd-|-stype:attr=1|qr_nm:gd|res:RC4|com-cf:nl|ptrs:na|ktp:N0|mc:443896|mtp:S|qry_typ:P|lang:en|wc:4|cs:8900|v=4,Royal Baby,https://www.indiamart.com/royal-baby-thane/?pos=51&kwd=glass baby feeding bottle&tags=||||8223.226|Price|product|||MDC|rsf:gd-|-stype:attr=1|qr_nm:gd|res:RC4|com-cf:nl|ptrs:na|ktp:N0|mc:443896|mtp:S|qry_typ:P|lang:en|wc:4|cs:8900|v=4,False,,Thane,"Ground Floor, Shop No. 03, Savitri Niwas Mumbai Pune Road, Amrutnagar, Sub Post Office, Mumbra, Thane - 400612, Dist.Thane, Maharashtra",8045734604,
Round Feeding Stainless Steel Bottle 140ml,https://www.indiamart.com/proddetail/round-feeding-stainless-steel-bottle-140ml-2853771949691.html?pos=52&kwd=glass baby feeding bottle&tags=||||8747.223|Price|product|||TS|rsf:gd-|-stype:attr=1|qr_nm:gd|res:RC4|com-cf:nl|ptrs:na|ktp:N0|mc:443896|mtp:S|qry_typ:P|lang:en|wc:4|cs:8900|v=4,Dewdrop Bottles Pvt. Ltd.,https://www.dewdropbottles.com/?pos=52&kwd=glass baby feeding bottle&tags=||||8747.223|Price|product|||TS|rsf:gd-|-stype:attr=1|qr_nm:gd|res:RC4|com-cf:nl|ptrs:na|ktp:N0|mc:443896|mtp:S|qry_typ:P|lang:en|wc:4|cs:8900|v=4,False,Sector 42,Sonipat,"Rect. And Killa No. 102//14/1/1, Revenue Estate, Akbarpur Barota, Sector 42, Sonipat - 131103, Dist.Sonipat, Haryana",7942840290,
"Plastic White Baby Feeding Bottle, 50 mL, Age Group: 3-12 Months",https://www.indiamart.com/proddetail/baby-feeding-bottle-2852304848030.html?pos=53&kwd=glass baby feeding bottle&tags=||||8211.142|Price|product|||TS|rsf:gd-|-stype:attr=1|qr_nm:gd|res:RC4|com-cf:nl|ptrs:na|ktp:N0|mc:443896|mtp:S|qry_typ:P|lang:en|wc:4|cs:8900|v=4,P For Panda Baby Products Private Limited,https://www.p4pandababyproducts.com/?pos=53&kwd=glass baby feeding bottle&tags=||||8211.142|Price|product|||TS|rsf:gd-|-stype:attr=1|qr_nm:gd|res:RC4|com-cf:nl|ptrs:na|ktp:N0|mc:443896|mtp:S|qry_typ:P|lang:en|wc:4|cs:8900|v=4,False,Goregaon West,Mumbai,"904 A Wing,9 Th Floor,Triple S Heights,Jakeria Road, Goregaon West, Mumbai - 400064, Dist.Mumbai, Maharashtra",7942710871,
"250ml Polished Stainless Steel Feeding Bottle, Baby",https://www.indiamart.com/proddetail/250ml-polished-stainless-steel-feeding-bottle-2849083782297.html?pos=54&kwd=glass baby feeding bottle&tags=||||8592.634|Price|product|||MDC|rsf:gd-|-stype:attr=1|qr_nm:gd|res:RC4|com-cf:nl|ptrs:na|ktp:N0|mc:443896|mtp:S|qry_typ:P|lang:en|wc:4|cs:8900|v=4,Steel Hawk Traders,https://www.indiamart.com/steel-hawk-traders/?pos=54&kwd=glass baby feeding bottle&tags=||||8592.634|Price|product|||MDC|rsf:gd-|-stype:attr=1|qr_nm:gd|res:RC4|com-cf:nl|ptrs:na|ktp:N0|mc:443896|mtp:S|qry_typ:P|lang:en|wc:4|cs:8900|v=4,False,,Chettipalayam,"SF.No.301,302/1, Thillaiamman Valarmathi Nagar, Kuylai Pirivu,, Chettipalayam - 641201, Tamil Nadu",7949324072,
"SS MATT FINISH Metal Stainless Steel Baby Feeding Bottle, Capacity: 300 mL, Newly Born",https://www.indiamart.com/proddetail/stainless-steel-baby-feeding-bottle-2851855371130.html?pos=55&kwd=glass baby feeding bottle&tags=||||8752.144|Price|product|||TS|rsf:gd-|-stype:attr=1|qr_nm:gd|res:RC4|com-cf:nl|ptrs:na|ktp:N0|mc:443896|mtp:S|qry_typ:P|lang:en|wc:4|cs:8900|v=4,Ishvan Impex Private Limited,https://www.ishvanimpex.com/?pos=55&kwd=glass baby feeding bottle&tags=||||8752.144|Price|product|||TS|rsf:gd-|-stype:attr=1|qr_nm:gd|res:RC4|com-cf:nl|ptrs:na|ktp:N0|mc:443896|mtp:S|qry_typ:P|lang:en|wc:4|cs:8900|v=4,False,Chandni Chowk,New Delhi,"Ground Floor, Shop No. 1, Bagh Diwar, Fatehpuri, Chandni Chowk, Central Delhi, Chandni Chowk, New Delhi - 110006, Dist.Delhi, Delhi",8048974995,
"Milestone Silver Kiddy Steel Feeding Bottle, Design/Pattern: Plain",https://www.indiamart.com/proddetail/kiddy-steel-feeding-bottle-22292800991.html?pos=56&kwd=glass baby feeding bottle&tags=||||8211.142|Price|product|||TS|rsf:gd-|-stype:attr=1|qr_nm:gd|res:RC4|com-cf:nl|ptrs:na|ktp:N0|mc:443896|mtp:S|qry_typ:P|lang:en|wc:4|cs:8900|v=4,Mahavir Industries,https://www.mahavirmilestone.in/?pos=56&kwd=glass baby feeding bottle&tags=||||8211.142|Price|product|||TS|rsf:gd-|-stype:attr=1|qr_nm:gd|res:RC4|com-cf:nl|ptrs:na|ktp:N0|mc:443896|mtp:S|qry_typ:P|lang:en|wc:4|cs:8900|v=4,True,Vasai East,Mumbai,"29, NJ Industrial Estate, Chinchpada, Waliv Road, Vasai East, Mumbai - 401208, Dist.Mumbai, Maharashtra",8048962615,
"Metal Silver Stainless Steel Baby Feeding Bottle, Capacity: 250 ml, Age Group: 3-12 Months",https://www.indiamart.com/proddetail/stainless-steel-baby-feeding-bottle-2854294554788.html?pos=57&kwd=glass baby feeding bottle&tags=||||8778.123|Price|product|||TS|rsf:gd-|-stype:attr=1|qr_nm:gd|res:RC4|com-cf:nl|ptrs:na|ktp:N0|mc:443896|mtp:S|qry_typ:P|lang:en|wc:4|cs:8900|v=4,Radiant Enterprises,https://www.indiamart.com/radiant-enterprisesgautam-budhnagar/?pos=57&kwd=glass baby feeding bottle&tags=||||8778.123|Price|product|||TS|rsf:gd-|-stype:attr=1|qr_nm:gd|res:RC4|com-cf:nl|ptrs:na|ktp:N0|mc:443896|mtp:S|qry_typ:P|lang:en|wc:4|cs:8900|v=4,False,,Noida,"Tower-3,Flat-2601,Lotus 300,Noida,Gautam Buddha Nagar, Noida - 201304, Dist.Gautam Budh Nagar, Uttar Pradesh",7942828511,
"Metal STAINLESS STEEL BABY FEEDING BOTTLE, Capacity: 250 mL",https://www.indiamart.com/proddetail/stainless-steel-baby-feeding-bottle-22036586230.html?pos=58&kwd=glass baby feeding bottle&tags=||||8223.226|Price|product|||TS|rsf:gd-|-stype:attr=1|qr_nm:gd|res:RC4|com-cf:nl|ptrs:na|ktp:N0|mc:443896|mtp:S|qry_typ:P|lang:en|wc:4|cs:8900|v=4,Speedy Household Industry,https://www.indiamart.com/speedy-household-industry/?pos=58&kwd=glass baby feeding bottle&tags=||||8223.226|Price|product|||TS|rsf:gd-|-stype:attr=1|qr_nm:gd|res:RC4|com-cf:nl|ptrs:na|ktp:N0|mc:443896|mtp:S|qry_typ:P|lang:en|wc:4|cs:8900|v=4,False,Bhayandar East,Thane,"0/6, Vikas Udyog Nagar, Behind Goddev Fathak Road, Bhayandar East, Bhayandar East, Thane - 401105, Dist.Thane, Maharashtra",8048962061,
"Metal Silver Speedex feeding bottle, Capacity: 250 mL, Baby",https://www.indiamart.com/proddetail/speedex-feeding-bottle-2854766686233.html?pos=59&kwd=glass baby feeding bottle&tags=||||8921.206|Price|product|||MDC|rsf:gd-|-stype:attr=1|qr_nm:gd|res:RC4|com-cf:nl|ptrs:na|ktp:N0|mc:443896|mtp:S|qry_typ:P|lang:en|wc:4|cs:8900|v=4,Malar Metalware Products,https://www.indiamart.com/malarmetalware-products/?pos=59&kwd=glass baby feeding bottle&tags=||||8921.206|Price|product|||MDC|rsf:gd-|-stype:attr=1|qr_nm:gd|res:RC4|com-cf:nl|ptrs:na|ktp:N0|mc:443896|mtp:S|qry_typ:P|lang:en|wc:4|cs:8900|v=4,False,,Chengalpattu,"133a, Sembakkam, Indira Nagar,, Sembakkam Village, Chengalpattu - 603108, Dist.Kanchipuram, Tamil Nadu",8044460341,
"Transparent Glass Baby Feeding Bottle, Capacity: 200 mL, 3-12 Months",https://www.indiamart.com/proddetail/glass-baby-feeding-bottle-2852522969088.html?pos=60&kwd=glass baby feeding bottle&tags=||||8785.791|Price|product|||TS|rsf:gd-|-stype:attr=1|qr_nm:gd|res:RC4|com-cf:nl|ptrs:na|ktp:N0|mc:443896|mtp:S|qry_typ:P|lang:en|wc:4|cs:8900|v=4,Paras Enterprises,https://www.claoberry.com/?pos=60&kwd=glass baby feeding bottle&tags=||||8785.791|Price|product|||TS|rsf:gd-|-stype:attr=1|qr_nm:gd|res:RC4|com-cf:nl|ptrs:na|ktp:N0|mc:443896|mtp:S|qry_typ:P|lang:en|wc:4|cs:8900|v=4,False,Raj Nagar Extension,Ghaziabad,"KH.NO.-2565,VILLAGE KARHERA,MOHAN NAGAR,Ghaziabad, Raj Nagar Extension, Ghaziabad - 201007, Dist.Ghaziabad, Uttar Pradesh",8043862487,
"Newly Born Silver SS Baby Feeding Bottle 120 Ml, Packaging Type: Box",https://www.indiamart.com/proddetail/ss-baby-feeding-bottle-120-ml-19094667662.html?pos=61&kwd=glass baby feeding bottle&tags=||||8954.051|Price|product|||MDC|rsf:gd-|-stype:attr=1|qr_nm:gd|res:RC4|com-cf:nl|ptrs:na|ktp:N0|mc:443896|mtp:S|qry_typ:P|lang:en|wc:4|cs:8900|v=4,Bhairavi Metal Works,https://www.indiamart.com/bhairavimetalworks/?pos=61&kwd=glass baby feeding bottle&tags=||||8954.051|Price|product|||MDC|rsf:gd-|-stype:attr=1|qr_nm:gd|res:RC4|com-cf:nl|ptrs:na|ktp:N0|mc:443896|mtp:S|qry_typ:P|lang:en|wc:4|cs:8900|v=4,False,Thiruporur,Chennai,"No. 24, Sandror Street,, Thiruporur, Chennai - 603110, Dist.Chennai, Tamil Nadu",8046052032,
Baby Glass Feeding Bottle 120ml With Sleeve (Cover),https://www.indiamart.com/proddetail/baby-glass-feeding-bottle-120ml-with-sleeve-cover-2854979627573.html?pos=62&kwd=glass baby feeding bottle&tags=||||8752.144|Price|product|||TS|rsf:gd-|-stype:attr=1|qr_nm:gd|res:RC4|com-cf:nl|ptrs:na|ktp:N0|mc:443896|mtp:S|qry_typ:P|lang:en|wc:4|cs:8900|v=4,Dolphin Baby Product,https://www.dolphinbabyproducts.com/?pos=62&kwd=glass baby feeding bottle&tags=||||8752.144|Price|product|||TS|rsf:gd-|-stype:attr=1|qr_nm:gd|res:RC4|com-cf:nl|ptrs:na|ktp:N0|mc:443896|mtp:S|qry_typ:P|lang:en|wc:4|cs:8900|v=4,False,Inderlok,New Delhi,"No. 488, 1st Floor, Shahzada Bagh, Industrial Area Phase 1, Inderlok, New Delhi - 110035, Dist.Delhi, Delhi",8048965296,
"Plastic Baby Feeding Bottle 350 Ml, Age Group: 1-2 Years",https://www.indiamart.com/proddetail/baby-feeding-bottle-350-ml-2854786037188.html?pos=63&kwd=glass baby feeding bottle&tags=||||8038.093|Price|product|||TS|rsf:gd-|-stype:attr=1|qr_nm:gd|res:RC4|com-cf:nl|ptrs:na|ktp:N0|mc:443896|mtp:S|qry_typ:P|lang:en|wc:4|cs:8900|v=4,Kite Enterprise,https://www.indiamart.com/kiteenterprise/?pos=63&kwd=glass baby feeding bottle&tags=||||8038.093|Price|product|||TS|rsf:gd-|-stype:attr=1|qr_nm:gd|res:RC4|com-cf:nl|ptrs:na|ktp:N0|mc:443896|mtp:S|qry_typ:P|lang:en|wc:4|cs:8900|v=4,False,Geeta Nagar,Rajkot,"10/11, Laxmiwadi Nr. Anil Aquarium, Geeta Nagar, Rajkot - 360002, Dist.Rajkot, Gujarat",8047630757,
"Silver Stainless Steel Feeding Bottle, Design/Pattern: ML Marking Pattern, Newly Born",https://www.indiamart.com/proddetail/stainless-steel-feeding-bottle-2849508964391.html?pos=64&kwd=glass baby feeding bottle&tags=||||8752.144|Price|product|||TS|rsf:gd-|-stype:attr=1|qr_nm:gd|res:RC4|com-cf:nl|ptrs:na|ktp:N0|mc:443896|mtp:S|qry_typ:P|lang:en|wc:4|cs:8900|v=4,R B Enterprises,https://www.indiamart.com/rbenterpriseskondalinewdelhi/?pos=64&kwd=glass baby feeding bottle&tags=||||8752.144|Price|product|||TS|rsf:gd-|-stype:attr=1|qr_nm:gd|res:RC4|com-cf:nl|ptrs:na|ktp:N0|mc:443896|mtp:S|qry_typ:P|lang:en|wc:4|cs:8900|v=4,False,Gharoli,New Delhi,"Ground, 58 F/F/R/S Brahman Basti, Kondli Main Road, Kondli Gharoli,, Gharoli, New Delhi - 110094, Dist.Delhi, Delhi",7942535965,
Fruit & Food Nutritional Feeder with Feed Pusher BPA Free Baby Grip Feeder to Push Food,https://www.indiamart.com/proddetail/fruit-food-nutritional-feeder-with-feed-pusher-bpa-free-baby-grip-feeder-to-push-food-2853216702048.html?pos=65&kwd=glass baby feeding bottle&tags=||||8230.883|Price|product|||TS|rsf:gd-|-stype:attr=1|qr_nm:gd|res:RC4|com-cf:nl|ptrs:na|ktp:N0|mc:443896|mtp:S|qry_typ:P|lang:en|wc:4|cs:8900|v=4,Rozzby,https://www.cheaperzonetoys.com/?pos=65&kwd=glass baby feeding bottle&tags=||||8230.883|Price|product|||TS|rsf:gd-|-stype:attr=1|qr_nm:gd|res:RC4|com-cf:nl|ptrs:na|ktp:N0|mc:443896|mtp:S|qry_typ:P|lang:en|wc:4|cs:8900|v=4,False,Kosam,Surat,"1st Floor D-2,103 Vip Circle Shlok Recidency Utran, Kosam, Surat - 394105, Dist.Surat, Gujarat",8047622002,
Red Nipple Feeding Milk Bottle 0.5 Ltr & 1 Ltr,https://www.indiamart.com/proddetail/nipple-feeding-milk-bottle-0-5-ltr-1-ltr-2852852925830.html?pos=66&kwd=glass baby feeding bottle&tags=||||8038.093|Price|product|||TS|rsf:gd-|-stype:attr=1|qr_nm:gd|res:RC4|com-cf:nl|ptrs:na|ktp:N0|mc:443896|mtp:S|qry_typ:P|lang:en|wc:4|cs:8900|v=4,Chamunda Enterprise,https://www.indiamart.com/chamundaenterpriserajkot/?pos=66&kwd=glass baby feeding bottle&tags=||||8038.093|Price|product|||TS|rsf:gd-|-stype:attr=1|qr_nm:gd|res:RC4|com-cf:nl|ptrs:na|ktp:N0|mc:443896|mtp:S|qry_typ:P|lang:en|wc:4|cs:8900|v=4,False,Rajkot,Rajkot,"274, Near HDFC Bank, Rajkot Ahmedabad Highway, Maliyasan,, Rajkot, Rajkot - 360003, Dist.Rajkot, Gujarat",8048969596,
"Silver Baby Feeding Bottle, Capacity: 250 ml, Age Group: 1-2 Years",https://www.indiamart.com/proddetail/silver-baby-feeding-bottle-2853932627155.html?pos=67&kwd=glass baby feeding bottle&tags=||||8954.051|Price|product|||MDC|rsf:gd-|-stype:attr=1|qr_nm:gd|res:RC4|com-cf:nl|ptrs:na|ktp:N0|mc:443896|mtp:S|qry_typ:P|lang:en|wc:4|cs:8900|v=4,For Lil Ones LLP,https://www.indiamart.com/for-lilones/?pos=67&kwd=glass baby feeding bottle&tags=||||8954.051|Price|product|||MDC|rsf:gd-|-stype:attr=1|qr_nm:gd|res:RC4|com-cf:nl|ptrs:na|ktp:N0|mc:443896|mtp:S|qry_typ:P|lang:en|wc:4|cs:8900|v=4,False,Perungalattur,Chennai,"30/4, Rajaji Street, Srinivasa Nagar, Perungalattur, Chengalpattu, Perungalattur, Chennai - 600063, Dist.Chennai, Tamil Nadu",8044012811,
"Metal Feeding Steel Bottle 240 Ml, Baby",https://www.indiamart.com/proddetail/feeding-steel-bottle-240-ml-2854494474362.html?pos=68&kwd=glass baby feeding bottle&tags=||||8706.508|Price|product|||MDC|rsf:gd-|-stype:attr=1|qr_nm:gd|res:RC4|com-cf:nl|ptrs:na|ktp:N0|mc:443896|mtp:S|qry_typ:P|lang:en|wc:4|cs:8900|v=4,Young Vision,https://www.indiamart.com/young-vision-rohtak/?pos=68&kwd=glass baby feeding bottle&tags=||||8706.508|Price|product|||MDC|rsf:gd-|-stype:attr=1|qr_nm:gd|res:RC4|com-cf:nl|ptrs:na|ktp:N0|mc:443896|mtp:S|qry_typ:P|lang:en|wc:4|cs:8900|v=4,False,Janta Colony,Rohtak,"949/31 Azad Nagar, Janta Colony, Rohtak - 124001, Dist.Rohtak, Haryana",8047688329,
Blue 6Pcs Silicone Suction Plates Kids,https://www.indiamart.com/proddetail/6pcs-silicone-suction-plates-kids-26633839173.html?pos=69&kwd=glass baby feeding bottle&tags=||||8769.508|Price|product|||MDC|rsf:gd-|-stype:attr=1|qr_nm:gd|res:RC4|com-cf:nl|ptrs:na|ktp:N0|mc:443896|mtp:S|qry_typ:P|lang:en|wc:4|cs:8900|v=4,Anand Enterprises,https://www.indiamart.com/anand-enterprisesfaridabad/?pos=69&kwd=glass baby feeding bottle&tags=||||8769.508|Price|product|||MDC|rsf:gd-|-stype:attr=1|qr_nm:gd|res:RC4|com-cf:nl|ptrs:na|ktp:N0|mc:443896|mtp:S|qry_typ:P|lang:en|wc:4|cs:8900|v=4,False,Sect,Faridabad,"72 Kheri Road Kastori Faridabad, Sect, Faridabad - 121002, Dist.Faridabad, Haryana",7942703101,
"GLOBAL Black,Blue & Red Straight Steel Bottle Coloed (750 ml), Sipper",https://www.indiamart.com/proddetail/straight-steel-bottle-coloed-750-ml-25835357673.html?pos=70&kwd=glass baby feeding bottle&tags=||||8752.144|Price|product|||TS|rsf:gd-|-stype:attr=1|qr_nm:gd|res:RC4|com-cf:nl|ptrs:na|ktp:N0|mc:443896|mtp:S|qry_typ:P|lang:en|wc:4|cs:8900|v=4,Global Productions,https://www.indiamart.com/global-productions-newdelhi/?pos=70&kwd=glass baby feeding bottle&tags=||||8752.144|Price|product|||TS|rsf:gd-|-stype:attr=1|qr_nm:gd|res:RC4|com-cf:nl|ptrs:na|ktp:N0|mc:443896|mtp:S|qry_typ:P|lang:en|wc:4|cs:8900|v=4,False,Motia Khan,New Delhi,"Ground Floor Shop No. 163 Janta Market, Motia Khan, New Delhi - 110055, Dist.Delhi, Delhi",8047302269,
"Baby Feeding Bottle, Capacity: 125 ml",https://www.indiamart.com/proddetail/baby-feeding-bottle-2855092139962.html?pos=71&kwd=glass baby feeding bottle&tags=||||8786.56||product|||MDC|rsf:gd-|-stype:attr=1|qr_nm:gd|res:RC4|com-cf:nl|ptrs:na|ktp:N0|mc:443896|mtp:S|qry_typ:P|lang:en|wc:4|cs:8900|v=4,Nabhodh Traders,https://www.indiamart.com/nabhodh-traders/?pos=71&kwd=glass baby feeding bottle&tags=||||8786.56||product|||MDC|rsf:gd-|-stype:attr=1|qr_nm:gd|res:RC4|com-cf:nl|ptrs:na|ktp:N0|mc:443896|mtp:S|qry_typ:P|lang:en|wc:4|cs:8900|v=4,False,,Hyderabad,"Plot No 60, Shilpa Avenue, Hyder Nagar Medchal Malkajgiri, Hyderabad - 500072, Dist.Hyderabad, Telangana",8044460917,
Baby Glass Feeding Bottles,,Shri Anant International,https://www.indiamart.com/shrianantinternational/?pos=72&kwd=glass baby feeding bottle&tags=||||8823.154|Price|product|||TS|rsf:gd-|-stype:attr=1|qr_nm:gd|res:RC4|com-cf:nl|ptrs:na|ktp:N0|mc:443896|mtp:S|qry_typ:P|lang:en|wc:4|cs:8900|v=4,False,DayalBagh,Agra,"No.02,House 2,Alkapuri Phase Ii,Agra, DayalBagh, Agra - 282005, Dist.Agra, Uttar Pradesh",7942721451,
2 Cavity Fully Automatic Handfeed Plastic Bottle Machine Machine,https://www.indiamart.com/proddetail/2-cavity-fully-automatic-handfeed-plastic-bottle-machine-machine-2852092684191.html?pos=73&kwd=glass baby feeding bottle&tags=||||8769.508|Price|product|||TS|rsf:gd-|-stype:attr=1|qr_nm:gd|res:RC4|com-cf:nl|ptrs:na|ktp:N0|mc:443896|mtp:S|qry_typ:P|lang:en|wc:4|cs:8900|v=4,Pet Plast India,https://www.indiamart.com/petplast/?pos=73&kwd=glass baby feeding bottle&tags=||||8769.508|Price|product|||TS|rsf:gd-|-stype:attr=1|qr_nm:gd|res:RC4|com-cf:nl|ptrs:na|ktp:N0|mc:443896|mtp:S|qry_typ:P|lang:en|wc:4|cs:8900|v=4,False,Ballabhgarh,Faridabad,"Plot No. 10, Astal Road, Adjacent Poultry Farm, Near Maruti Nanadandharam Kanta, Near Maruti Nandan Dharam Canta, Bhakri-Pali Road, Ballabhgarh, Faridabad - 121004, Dist.Faridabad, Haryana",8048961828,
Metal Stainless Steel Feeding Bottle For Baby 240ml,https://www.indiamart.com/proddetail/stainless-steel-feeding-bottle-for-baby-240ml-2848973893262.html?pos=74&kwd=glass baby feeding bottle&tags=||||8752.144|Price|product|||TS|rsf:gd-|-stype:attr=1|qr_nm:gd|res:RC4|com-cf:nl|ptrs:na|ktp:N0|mc:443896|mtp:S|qry_typ:P|lang:en|wc:4|cs:8900|v=4,Maharaja Cookers Private Limited,https://www.speedexind.co.in/?pos=74&kwd=glass baby feeding bottle&tags=||||8752.144|Price|product|||TS|rsf:gd-|-stype:attr=1|qr_nm:gd|res:RC4|com-cf:nl|ptrs:na|ktp:N0|mc:443896|mtp:S|qry_typ:P|lang:en|wc:4|cs:8900|v=4,False,Narela,New Delhi,"H-1311, DSIIDC Industrial Area, Narela, New Delhi - 110040, Dist.Delhi, Delhi",8048981827,
"Sipfe Silver 500ml Stainless Steel Feeding Bottle, 5 Months",https://www.indiamart.com/proddetail/500ml-stainless-steel-feeding-bottle-24228687348.html?pos=75&kwd=glass baby feeding bottle&tags=||||8891.556|Price|product|||TS|rsf:gd-|-stype:attr=1|qr_nm:gd|res:RC4|com-cf:nl|ptrs:na|ktp:N0|mc:443896|mtp:S|qry_typ:P|lang:en|wc:4|cs:8900|v=4,Sipfe Industries,https://www.indiamart.com/sipfe-industries/?pos=75&kwd=glass baby feeding bottle&tags=||||8891.556|Price|product|||TS|rsf:gd-|-stype:attr=1|qr_nm:gd|res:RC4|com-cf:nl|ptrs:na|ktp:N0|mc:443896|mtp:S|qry_typ:P|lang:en|wc:4|cs:8900|v=4,False,Maraimalai Nagar,Kanchipuram,"Sf No.191/2c1, Plot No.41 Sengundram Road, Alamelumangapuram, Chengalpattu, Maraimalai Nagar, Kanchipuram - 603204, Dist.Kanchipuram, Tamil Nadu",7942562152,
"AAditya White Baby Silicone Nipple, Packaging Type: Box, 1-2 Years",https://www.indiamart.com/proddetail/baby-silicone-nipple-22513633397.html?pos=76&kwd=glass baby feeding bottle&tags=||||8210.732|Price|product|||TS|rsf:gd-|-stype:attr=1|qr_nm:gd|res:RC4|com-cf:nl|ptrs:na|ktp:N0|mc:443896|mtp:S|qry_typ:P|lang:en|wc:4|cs:8900|v=4,Aditya Polymers,https://www.aadityapolymers.com/?pos=76&kwd=glass baby feeding bottle&tags=||||8210.732|Price|product|||TS|rsf:gd-|-stype:attr=1|qr_nm:gd|res:RC4|com-cf:nl|ptrs:na|ktp:N0|mc:443896|mtp:S|qry_typ:P|lang:en|wc:4|cs:8900|v=4,False,Gokhiware,Vasai,"106, A V Udhyog No. 3, Near Rajprabha Near Golani, Gokhiware, Vasai - 401208, Dist.Thane, Maharashtra",8048987383,
"Silver Baby Feeding Bottle 300 ML, Age Group: 1-2 Years",https://www.indiamart.com/proddetail/baby-feeding-bottle-300-ml-2850630404397.html?pos=77&kwd=glass baby feeding bottle&tags=||||8954.051|Price|product|||TS|rsf:gd-|-stype:attr=1|qr_nm:gd|res:RC4|com-cf:nl|ptrs:na|ktp:N0|mc:443896|mtp:S|qry_typ:P|lang:en|wc:4|cs:8900|v=4,Anita Steel Centre,https://www.indiamart.com/anita-steel-center/?pos=77&kwd=glass baby feeding bottle&tags=||||8954.051|Price|product|||TS|rsf:gd-|-stype:attr=1|qr_nm:gd|res:RC4|com-cf:nl|ptrs:na|ktp:N0|mc:443896|mtp:S|qry_typ:P|lang:en|wc:4|cs:8900|v=4,False,Park Town,Chennai,"39/54, Nyniappa Maistry Street, Park Town, Chennai - 600003, Dist.Chennai, Tamil Nadu",8048985784,
Philips Avent Baby Feeding Bottles,https://www.indiamart.com/proddetail/philips-avent-baby-feeding-bottles-20706886412.html?pos=78&kwd=glass baby feeding bottle&tags=||||8954.051|Price|product|||TS|rsf:gd-|-stype:attr=1|qr_nm:gd|res:RC4|com-cf:nl|ptrs:na|ktp:N0|mc:443896|mtp:S|qry_typ:P|lang:en|wc:4|cs:8900|v=4,Auro Mira Medi Aids,https://www.indiamart.com/auromiramediaids/?pos=78&kwd=glass baby feeding bottle&tags=||||8954.051|Price|product|||TS|rsf:gd-|-stype:attr=1|qr_nm:gd|res:RC4|com-cf:nl|ptrs:na|ktp:N0|mc:443896|mtp:S|qry_typ:P|lang:en|wc:4|cs:8900|v=4,False,Adyar,Chennai,"New No. 36, Old No. 32, Shriram Nagar Main Road, Adyar, Chennai - 600113, Dist.Chennai, Tamil Nadu",8048988682,
"Transparent Philips Feeding Bottles And Sippers, Baby",https://www.indiamart.com/proddetail/philips-feeding-bottles-and-sippers-2853433608497.html?pos=79&kwd=glass baby feeding bottle&tags=||||8663.873|Price|product|||TS|rsf:gd-|-stype:attr=1|qr_nm:gd|res:RC4|com-cf:nl|ptrs:na|ktp:N0|mc:443896|mtp:S|qry_typ:P|lang:en|wc:4|cs:8900|v=4,Prajwal Surgical And Scientifics Private Limited,https://www.indiamart.com/prajwal-surgical-and-scientifics/?pos=79&kwd=glass baby feeding bottle&tags=||||8663.873|Price|product|||TS|rsf:gd-|-stype:attr=1|qr_nm:gd|res:RC4|com-cf:nl|ptrs:na|ktp:N0|mc:443896|mtp:S|qry_typ:P|lang:en|wc:4|cs:8900|v=4,False,Peenya,Bengaluru,"2nd Floor, 254/A PID No 11-161-254A, Old Sonal Garments, 100 Feet Road, Peenya Industrial Area Stage, Peenya, Bengaluru - 560058, Dist.Bengaluru, Karnataka",7942842256,
PHILIPS AVENT SCF813/20 ANTI-COLIC BABY BOTTLE,https://www.indiamart.com/proddetail/philips-avent-scf813-20-anti-colic-baby-bottle-2853235936033.html?pos=80&kwd=glass baby feeding bottle&tags=||||8307.81|Price|product|||TS|rsf:gd-|-stype:attr=1|qr_nm:gd|res:RC4|com-cf:nl|ptrs:na|ktp:N0|mc:443896|mtp:S|qry_typ:P|lang:en|wc:4|cs:8900|v=4,Mahavir World,https://www.indiamart.com/mahavir-world/?pos=80&kwd=glass baby feeding bottle&tags=||||8307.81|Price|product|||TS|rsf:gd-|-stype:attr=1|qr_nm:gd|res:RC4|com-cf:nl|ptrs:na|ktp:N0|mc:443896|mtp:S|qry_typ:P|lang:en|wc:4|cs:8900|v=4,False,Ganj Peth,Pune,"845, Shukrawarpeth, Opposite Vallabh Sarees, Near Jain Temple, Ganj Peth, Pune - 411002, Dist.Pune, Maharashtra",8046049692,
Metal Stainless Steel Baby Feeding Bottle,https://www.indiamart.com/proddetail/stainless-steel-baby-feeding-bottle-2854887561391.html?pos=81&kwd=glass baby feeding bottle&tags=||||8206.306|Price|product|||MDC|rsf:gd-|-stype:attr=1|qr_nm:gd|res:RC4|com-cf:nl|ptrs:na|ktp:N0|mc:443896|mtp:S|qry_typ:P|lang:en|wc:4|cs:8900|v=4,Maya Industries,https://www.indiamart.com/maya-industries-maharashtra/?pos=81&kwd=glass baby feeding bottle&tags=||||8206.306|Price|product|||MDC|rsf:gd-|-stype:attr=1|qr_nm:gd|res:RC4|com-cf:nl|ptrs:na|ktp:N0|mc:443896|mtp:S|qry_typ:P|lang:en|wc:4|cs:8900|v=4,False,Bhayandar West,Bhayander West,"B-102, Pawan Kunj Apartment, 60 Feet Road, Nakoda Hospital, Mira Bhayandar, Thane, Bhayandar West, Bhayander West - 401101, Maharashtra",7949090316,
White Metal Red Kitchen Chef Stainless steel Baby feeding bottle - 250 ml,https://www.indiamart.com/proddetail/red-kitchen-chef-stainless-steel-baby-feeding-bottle-250-ml-2854179718862.html?pos=82&kwd=glass baby feeding bottle&tags=||||8663.873|Price|product|||TS|rsf:gd-|-stype:attr=1|qr_nm:gd|res:RC4|com-cf:nl|ptrs:na|ktp:N0|mc:443896|mtp:S|qry_typ:P|lang:en|wc:4|cs:8900|v=4,Suranas,https://www.suranas.in/?pos=82&kwd=glass baby feeding bottle&tags=||||8663.873|Price|product|||TS|rsf:gd-|-stype:attr=1|qr_nm:gd|res:RC4|com-cf:nl|ptrs:na|ktp:N0|mc:443896|mtp:S|qry_typ:P|lang:en|wc:4|cs:8900|v=4,False,Basavanagudi,Bengaluru,"14/38, 1st model house street, Basavanagudi, Bengaluru - 560004, Dist.Bengaluru, Karnataka",8047547443,
"Plastic White 260ml Philips Avent Natural Response Baby Feeding Bottle, Age Group: Newly Born",https://www.indiamart.com/proddetail/260ml-philips-avent-natural-response-baby-feeding-bottle-2854976863848.html?pos=83&kwd=glass baby feeding bottle&tags=||||8584.299|Price|product|||MDC|rsf:gd-|-stype:attr=1|qr_nm:gd|res:RC4|com-cf:nl|ptrs:na|ktp:N0|mc:443896|mtp:S|qry_typ:P|lang:en|wc:4|cs:8900|v=4,Vino Mani Enterprises,https://www.indiamart.com/vino-mani-enterprises/?pos=83&kwd=glass baby feeding bottle&tags=||||8584.299|Price|product|||MDC|rsf:gd-|-stype:attr=1|qr_nm:gd|res:RC4|com-cf:nl|ptrs:na|ktp:N0|mc:443896|mtp:S|qry_typ:P|lang:en|wc:4|cs:8900|v=4,False,,Coimbatore,"No 89A, NA, Azad Road, R S Puram, Coimbatore - 641002, Dist.Coimbatore, Tamil Nadu",7942546353,
"White LuvLap Natura Flo Wide Neck Glass Feeding Bottle, Capacity: 150 mL, 3-12 Months",https://www.indiamart.com/proddetail/luvlap-natura-flo-wide-neck-glass-feeding-bottle-2852984553055.html?pos=84&kwd=glass baby feeding bottle&tags=||||8752.144|Price|product|||MDC|rsf:gd-|-stype:attr=1|qr_nm:gd|res:RC4|com-cf:nl|ptrs:na|ktp:N0|mc:443896|mtp:S|qry_typ:P|lang:en|wc:4|cs:8900|v=4,Deep Surgical,https://www.indiamart.com/deepsurgical/?pos=84&kwd=glass baby feeding bottle&tags=||||8752.144|Price|product|||MDC|rsf:gd-|-stype:attr=1|qr_nm:gd|res:RC4|com-cf:nl|ptrs:na|ktp:N0|mc:443896|mtp:S|qry_typ:P|lang:en|wc:4|cs:8900|v=4,False,Chandni Chowk,New Delhi,"1933/42, Narayan Bazar, Katra Lachoo Singh, Bhagirath Place, North, Chandni Chowk, New Delhi - 110006, Dist.Delhi, Delhi",7942965243,
"Transparent Baby Sipper Bottle, Capacity: 100 mL",https://www.indiamart.com/proddetail/baby-sipper-bottle-2853673848891.html?pos=85&kwd=glass baby feeding bottle&tags=||||8624.416|Price|product|||MDC|rsf:gd-|-stype:attr=1|qr_nm:gd|res:RC4|com-cf:nl|ptrs:na|ktp:N0|mc:443896|mtp:S|qry_typ:P|lang:en|wc:4|cs:8900|v=4,Dayawanti Traders,https://www.indiamart.com/dayawati-trader/?pos=85&kwd=glass baby feeding bottle&tags=||||8624.416|Price|product|||MDC|rsf:gd-|-stype:attr=1|qr_nm:gd|res:RC4|com-cf:nl|ptrs:na|ktp:N0|mc:443896|mtp:S|qry_typ:P|lang:en|wc:4|cs:8900|v=4,False,Indira Colony,Hisar,"Plot No. 137 Dhani Kishandutt, Near Asha High School, Nancy Beauty Parlour, Indira Colony, Indira Colony, Hisar - 125001, Dist.Hisar, Haryana",7942701403,
"PP Transperent Baby Feeding Bottle 125ml, Age Group: 3-12 Months",https://www.indiamart.com/proddetail/baby-feeding-bottle-125ml-2854998287997.html?pos=86&kwd=glass baby feeding bottle&tags=||||8752.144|Price|product|||TS|rsf:gd-|-stype:attr=1|qr_nm:gd|res:RC4|com-cf:nl|ptrs:na|ktp:N0|mc:443896|mtp:S|qry_typ:P|lang:en|wc:4|cs:8900|v=4,Kapoor Agencies,https://www.sagarproducts.co.in/?pos=86&kwd=glass baby feeding bottle&tags=||||8752.144|Price|product|||TS|rsf:gd-|-stype:attr=1|qr_nm:gd|res:RC4|com-cf:nl|ptrs:na|ktp:N0|mc:443896|mtp:S|qry_typ:P|lang:en|wc:4|cs:8900|v=4,False,Shahdara,New Delhi,"Iv/1697,Mahavir Block,Bhola Nath Nagar,Shahdar, Shahdara, New Delhi - 110032, Dist.Delhi, Delhi",8046069171,
"Sky Blue Fancy Plastic Handy Feeding Bottle,120 ml, Age Group: 12 Months",https://www.indiamart.com/proddetail/fancy-plastic-handy-feeding-bottle-120-ml-2854006939673.html?pos=87&kwd=glass baby feeding bottle&tags=||||9302.824|Price|product|||MDC|rsf:gd-|-stype:attr=1|qr_nm:gd|res:RC4|com-cf:nl|ptrs:na|ktp:N0|mc:443896|mtp:S|qry_typ:P|lang:en|wc:4|cs:8900|v=4,Hadi Enterprises,https://www.indiamart.com/hadienterprisessaraimir/?pos=87&kwd=glass baby feeding bottle&tags=||||9302.824|Price|product|||MDC|rsf:gd-|-stype:attr=1|qr_nm:gd|res:RC4|com-cf:nl|ptrs:na|ktp:N0|mc:443896|mtp:S|qry_typ:P|lang:en|wc:4|cs:8900|v=4,False,Nizamabad,Sarai Mir,"0, Lahidiha ,, Nizamabad, Sarai Mir - 276305, Uttar Pradesh",8044564222,
"Silver Stainless Steel Baby Feeding Bottle, Capacity: 300 mL",https://www.indiamart.com/proddetail/stainless-steel-baby-feeding-bottle-2853302145748.html?pos=88&kwd=glass baby feeding bottle&tags=||||8210.732|Price|product|||TS|rsf:gd-|-stype:attr=1|qr_nm:gd|res:RC4|com-cf:nl|ptrs:na|ktp:N0|mc:443896|mtp:S|qry_typ:P|lang:en|wc:4|cs:8900|v=4,Arushi Enterprises,https://www.indiamart.com/arushi-enterprisesvasai-virar/?pos=88&kwd=glass baby feeding bottle&tags=||||8210.732|Price|product|||TS|rsf:gd-|-stype:attr=1|qr_nm:gd|res:RC4|com-cf:nl|ptrs:na|ktp:N0|mc:443896|mtp:S|qry_typ:P|lang:en|wc:4|cs:8900|v=4,False,Pelhar,Vasai,"Mira Industrial Estate, G.No F/6 S.No.74 H-2471 Nalasopara East, Pelhar, Palghar, Pelhar, Vasai - 401208, Dist.Thane, Maharashtra",7942825056,
"imported Multicolor kids 3D Sipper Glass, 1-5",https://www.indiamart.com/proddetail/kids-3d-sipper-glass-21408629555.html?pos=89&kwd=glass baby feeding bottle&tags=||||8226.563|Price|product|||TS|rsf:gd-|-stype:attr=1|qr_nm:gd|res:RC4|com-cf:nl|ptrs:na|ktp:N0|mc:443896|mtp:S|qry_typ:P|lang:en|wc:4|cs:8900|v=4,Kreative Kitchen,https://www.kreativekitchen.co.in/?pos=89&kwd=glass baby feeding bottle&tags=||||8226.563|Price|product|||TS|rsf:gd-|-stype:attr=1|qr_nm:gd|res:RC4|com-cf:nl|ptrs:na|ktp:N0|mc:443896|mtp:S|qry_typ:P|lang:en|wc:4|cs:8900|v=4,False,Vashi,Navi Mumbai,"Plot No. 29/30, 502, Ornate Apartment Sector 28, Vashi, Navi Mumbai - 400703, Dist.Thane, Maharashtra",8048954656,
HDPE Plastic Baby Feeding Bottle,https://www.indiamart.com/proddetail/hdpe-plastic-baby-feeding-bottle-2854907459755.html?pos=90&kwd=glass baby feeding bottle&tags=||||8741.812|Price|product|||MDC|rsf:gd-|-stype:attr=1|qr_nm:gd|res:RC4|com-cf:nl|ptrs:na|ktp:N0|mc:443896|mtp:S|qry_typ:P|lang:en|wc:4|cs:8900|v=4,Meesha Enterprises,https://www.indiamart.com/meeshaenterprises-gurugram/?pos=90&kwd=glass baby feeding bottle&tags=||||8741.812|Price|product|||MDC|rsf:gd-|-stype:attr=1|qr_nm:gd|res:RC4|com-cf:nl|ptrs:na|ktp:N0|mc:443896|mtp:S|qry_typ:P|lang:en|wc:4|cs:8900|v=4,False,,Gurugram,"2nd, 2061A, C Block, Sushant Lok 1,, Gurugram - 122002, Dist.Gurgaon, Haryana",8041015150,
120ml Plastic Baby Feeding Bottle,https://www.indiamart.com/proddetail/120ml-plastic-baby-feeding-bottle-2854382182688.html?pos=91&kwd=glass baby feeding bottle&tags=||||9110.092|Price|product|||MDC|rsf:gd-|-stype:attr=1|qr_nm:gd|res:RC4|com-cf:nl|ptrs:na|ktp:N0|mc:443896|mtp:S|qry_typ:P|lang:en|wc:4|cs:8900|v=4,Jai Maa Laxmi Agency,https://www.indiamart.com/jaimaalaxmiagency/?pos=91&kwd=glass baby feeding bottle&tags=||||9110.092|Price|product|||MDC|rsf:gd-|-stype:attr=1|qr_nm:gd|res:RC4|com-cf:nl|ptrs:na|ktp:N0|mc:443896|mtp:S|qry_typ:P|lang:en|wc:4|cs:8900|v=4,False,,Lucknow,"E-2468,Rajajipuram,Near Rupam Tailor,, Lucknow - 226017, Dist.Lucknow, Uttar Pradesh",7949339166,
"LuvLap Essential Slim Neck Glass Feeding Bottle For Newborn Babies up to 3 Months, Medium Hole Nipple,Easy Grip and Hygiene Ensured,Transparent 250ml",https://www.indiamart.com/proddetail/luvlap-essential-slim-neck-glass-feeding-bottle-for-newborn-babies-up-to-3-months-medium-hole-nipple-easy-grip-and-hygiene-ensured-transparent-250ml-2851573645555.html?pos=92&kwd=glass baby feeding bottle&tags=||||8614.241|Price|product|||MDC|rsf:gd-|-stype:attr=1|qr_nm:gd|res:RC4|com-cf:nl|ptrs:na|ktp:N0|mc:443896|mtp:S|qry_typ:P|lang:en|wc:4|cs:8900|v=4,M.M. Toy World,https://www.indiamart.com/mmtoyworld/?pos=92&kwd=glass baby feeding bottle&tags=||||8614.241|Price|product|||MDC|rsf:gd-|-stype:attr=1|qr_nm:gd|res:RC4|com-cf:nl|ptrs:na|ktp:N0|mc:443896|mtp:S|qry_typ:P|lang:en|wc:4|cs:8900|v=4,False,Achli Gate,Batala,"M.M. Toys World, Bedian Gali, Khujari Gate, Gurdaspur, Achli Gate, Batala - 143505, Dist.Gurdaspur, Punjab",,
"Transparent Wide Mouth Baby Feeding Bottles, Size: 150 ML",https://www.indiamart.com/proddetail/wide-mouth-baby-feeding-bottles-10699245648.html?pos=93&kwd=glass baby feeding bottle&tags=||||8778.123|Price|product|||TS|rsf:gd-|-stype:attr=1|qr_nm:gd|res:RC4|com-cf:nl|ptrs:na|ktp:N0|mc:443896|mtp:S|qry_typ:P|lang:en|wc:4|cs:8900|v=4,Bonny Products Private Limited,https://www.feedingbottles.com/?pos=93&kwd=glass baby feeding bottle&tags=||||8778.123|Price|product|||TS|rsf:gd-|-stype:attr=1|qr_nm:gd|res:RC4|com-cf:nl|ptrs:na|ktp:N0|mc:443896|mtp:S|qry_typ:P|lang:en|wc:4|cs:8900|v=4,False,Sector 63,Noida,"D240, Sector 63, Sector 63, Noida - 201307, Dist.Gautam Budh Nagar, Uttar Pradesh",8046040824,
"Plastic Little Lookers Glass Feeding Bottle, Capacity: 150 mL, Baby",https://www.indiamart.com/proddetail/baby-glass-cover-feeder-2855016873788.html?pos=94&kwd=glass baby feeding bottle&tags=||||8752.144|Price|product|||MDC|rsf:gd-|-stype:attr=1|qr_nm:gd|res:RC4|com-cf:nl|ptrs:na|ktp:N0|mc:443896|mtp:S|qry_typ:P|lang:en|wc:4|cs:8900|v=4,A.S.Enterprises,https://www.indiamart.com/a-senterprisesdelhi-india/?pos=94&kwd=glass baby feeding bottle&tags=||||8752.144|Price|product|||MDC|rsf:gd-|-stype:attr=1|qr_nm:gd|res:RC4|com-cf:nl|ptrs:na|ktp:N0|mc:443896|mtp:S|qry_typ:P|lang:en|wc:4|cs:8900|v=4,False,,New Delhi,"G F, 816, Pan Mandi, Near Press Street Sadar Bazar Area, Central Delhi, New Delhi - 110006, Dist.Delhi, Delhi",7942537259,
"Plastic Baby Feeding Bottle, Capacity: 125 ml",https://www.indiamart.com/proddetail/plastic-baby-feeding-bottle-2853930537497.html?pos=95&kwd=glass baby feeding bottle&tags=||||8786.56|Price|product|||MDC|rsf:gd-|-stype:attr=1|qr_nm:gd|res:RC4|com-cf:nl|ptrs:na|ktp:N0|mc:443896|mtp:S|qry_typ:P|lang:en|wc:4|cs:8900|v=4,Annapurna Agencies,https://www.indiamart.com/annapurna-agencies-hyderabad/?pos=95&kwd=glass baby feeding bottle&tags=||||8786.56|Price|product|||MDC|rsf:gd-|-stype:attr=1|qr_nm:gd|res:RC4|com-cf:nl|ptrs:na|ktp:N0|mc:443896|mtp:S|qry_typ:P|lang:en|wc:4|cs:8900|v=4,False,Mansoorabad,Hyderabad,"3-9-586/1, Plot No 99, Road No 2, Balaji Nagar, Mansoorabad, L.B. Nagar, Rangareddy, Mansoorabad, Hyderabad - 500068, Dist.Hyderabad, Telangana",7949082672,
Red Baby Feeding Bottle Cover,https://www.indiamart.com/proddetail/red-baby-feeding-bottle-cover-2852419626430.html?pos=96&kwd=glass baby feeding bottle&tags=||||8752.144|Price|product|||MDC|rsf:gd-|-stype:attr=1|qr_nm:gd|res:RC4|com-cf:nl|ptrs:na|ktp:N0|mc:443896|mtp:S|qry_typ:P|lang:en|wc:4|cs:8900|v=4,Shopindia,https://www.indiamart.com/shopindia-delhi/?pos=96&kwd=glass baby feeding bottle&tags=||||8752.144|Price|product|||MDC|rsf:gd-|-stype:attr=1|qr_nm:gd|res:RC4|com-cf:nl|ptrs:na|ktp:N0|mc:443896|mtp:S|qry_typ:P|lang:en|wc:4|cs:8900|v=4,False,Khyala,New Delhi,"F/F, RZ-129 Old No.RZ-57, West Block, Vishnu Garden, Khyala, New Delhi - 110018, Dist.Delhi, Delhi",8047832403,
"Plastic Blue Kids Sipper Glass, Capacity: 500 mL",https://www.indiamart.com/proddetail/blue-kids-sipper-glass-2854571636348.html?pos=97&kwd=glass baby feeding bottle&tags=||||8752.144|Price|product|||MDC|rsf:gd-|-stype:attr=1|qr_nm:gd|res:RC4|com-cf:nl|ptrs:na|ktp:N0|mc:443896|mtp:S|qry_typ:P|lang:en|wc:4|cs:8900|v=4,Stellar Stars Enterprises,https://www.indiamart.com/stellarstarsenterprises/?pos=97&kwd=glass baby feeding bottle&tags=||||8752.144|Price|product|||MDC|rsf:gd-|-stype:attr=1|qr_nm:gd|res:RC4|com-cf:nl|ptrs:na|ktp:N0|mc:443896|mtp:S|qry_typ:P|lang:en|wc:4|cs:8900|v=4,False,North West Delhi,New Delhi,"Ground Floor, 526, Block C, Maharishi Parshuram Marg, Pitampura,, North West Delhi, New Delhi - 110034, Dist.Delhi, Delhi",7949324218,
"Mady Baby Glass Feeder, Capacity: 200 mL",https://www.indiamart.com/proddetail/mady-baby-glass-feeder-2854371891455.html?pos=98&kwd=glass baby feeding bottle&tags=||||8752.144|Price|product|||MDC|rsf:gd-|-stype:attr=1|qr_nm:gd|res:RC4|com-cf:nl|ptrs:na|ktp:N0|mc:443896|mtp:S|qry_typ:P|lang:en|wc:4|cs:8900|v=4,Household Mart,https://www.indiamart.com/household-mart-newdelhi/?pos=98&kwd=glass baby feeding bottle&tags=||||8752.144|Price|product|||MDC|rsf:gd-|-stype:attr=1|qr_nm:gd|res:RC4|com-cf:nl|ptrs:na|ktp:N0|mc:443896|mtp:S|qry_typ:P|lang:en|wc:4|cs:8900|v=4,False,,New Delhi,"2nd Floor Ganesh Pura A Kanhiya Nagar Tri Nagar, House 3904 Plot No Old -171 Street No 14, North West Delhi, New Delhi - 110035, Dist.Delhi, Delhi",7949337207,
"PP Blue (Base) Baby Spoon Feeder Bottle, Capacity: 150 ml, Age Group: Newly Born",https://www.indiamart.com/proddetail/baby-spoon-feeder-bottle-24273996288.html?pos=99&kwd=glass baby feeding bottle&tags=||||8752.144|Price|product|||MDC|rsf:gd-|-stype:attr=1|qr_nm:gd|res:RC4|com-cf:nl|ptrs:na|ktp:N0|mc:443896|mtp:S|qry_typ:P|lang:en|wc:4|cs:8900|v=4,Drishti E-Commerce,https://www.indiamart.com/drishti-e-commerce/?pos=99&kwd=glass baby feeding bottle&tags=||||8752.144|Price|product|||MDC|rsf:gd-|-stype:attr=1|qr_nm:gd|res:RC4|com-cf:nl|ptrs:na|ktp:N0|mc:443896|mtp:S|qry_typ:P|lang:en|wc:4|cs:8900|v=4,False,Jahangirpura,New Delhi,"B-29, Ground Floor, Kh No-238/2, Gali No-5/12, Gurunanak Dev Colony, Bhalswa, North Delhi, Jahangirpura, New Delhi - 110042, Dist.Delhi, Delhi",7949082368,
"Airplane Shape Water Bottle, Leak-Proof & Portable Kids Sipper Water Bottle For School,",https://www.indiamart.com/proddetail/airplane-shape-water-bottle-leak-proof-portable-kids-sipper-water-bottle-for-school-2855093189730.html?pos=100&kwd=glass baby feeding bottle&tags=||||8230.883|Price|product|||TS|rsf:gd-|-stype:attr=1|qr_nm:gd|res:RC4|com-cf:nl|ptrs:na|ktp:N0|mc:443896|mtp:S|qry_typ:P|lang:en|wc:4|cs:8900|v=4,Khilona House,https://www.indiamart.com/khilona-house-surat/?pos=100&kwd=glass baby feeding bottle&tags=||||8230.883|Price|product|||TS|rsf:gd-|-stype:attr=1|qr_nm:gd|res:RC4|com-cf:nl|ptrs:na|ktp:N0|mc:443896|mtp:S|qry_typ:P|lang:en|wc:4|cs:8900|v=4,False,Singanpor,Surat,"SY.No.-0047, Plot A/19, First, Madhav Mandir Society-1, Dabholi Road, Katargam, Singanpor, Surat - 395004, Dist.Surat, Gujarat",8047783031,
"Silver VALENTINE Baby Bottle KIDDY 140 ML, 1-2 year",https://www.indiamart.com/proddetail/valentine-baby-bottle-kiddy-140-ml-2849388363748.html?pos=101&kwd=glass baby feeding bottle&tags=||||8752.144|Price|product|||MDC|rsf:gd-|-stype:attr=1|qr_nm:gd|res:RC4|com-cf:nl|ptrs:na|ktp:N0|mc:443896|mtp:S|qry_typ:P|lang:en|wc:4|cs:8900|v=4,Maharaja Metalik Group,https://www.indiamart.com/maharaja-metalik-group/?pos=101&kwd=glass baby feeding bottle&tags=||||8752.144|Price|product|||MDC|rsf:gd-|-stype:attr=1|qr_nm:gd|res:RC4|com-cf:nl|ptrs:na|ktp:N0|mc:443896|mtp:S|qry_typ:P|lang:en|wc:4|cs:8900|v=4,False,Wazirpur Industrial Area,New Delhi,"A- 87/5 Wazirpur Industrial Area, Wazirpur Industrial Area, New Delhi - 110052, Dist.Delhi, Delhi",8047699043,
White Metal Red Kitchen Chef Stainless steel Baby feeding bottle - 250 ml,https://www.indiamart.com/proddetail/red-kitchen-chef-stainless-steel-baby-feeding-bottle-250-ml-2854179718862.html?pos=102&kwd=glass baby feeding bottle&tags=||||8663.873|Price|product|||TS|rsf:gd-|-stype:attr=1|qr_nm:gd|res:RC4|com-cf:nl|ptrs:na|ktp:N0|mc:443896|mtp:S|qry_typ:P|lang:en|wc:4|cs:8900|v=4,Suranas,https://www.suranas.in/?pos=102&kwd=glass baby feeding bottle&tags=||||8663.873|Price|product|||TS|rsf:gd-|-stype:attr=1|qr_nm:gd|res:RC4|com-cf:nl|ptrs:na|ktp:N0|mc:443896|mtp:S|qry_typ:P|lang:en|wc:4|cs:8900|v=4,False,Basavanagudi,Bengaluru,"14/38, 1st model house street, Basavanagudi, Bengaluru - 560004, Dist.Bengaluru, Karnataka",8047547443,
Baby Stainless Steel Feeding Milk Bottle,,A.K.Metal Pressing,https://www.indiamart.com/akmetalpressing/?pos=103&kwd=glass baby feeding bottle&tags=||||8954.051|Price|product|||MDC|rsf:gd-|-stype:attr=1|qr_nm:gd|res:RC4|com-cf:nl|ptrs:na|ktp:N0|mc:443896|mtp:S|qry_typ:P|lang:en|wc:4|cs:8900|v=4,False,Sattangadu,Chennai,"No-33/15, Gandhi Nagar Main Road, Thiruvoittyur, Thiruvallur, Sattangadu, Chennai - 600019, Dist.Chennai, Tamil Nadu",8047647689,
"Silver Baby Feeding Bottle 300 ML, Age Group: 1-2 Years",https://www.indiamart.com/proddetail/baby-feeding-bottle-300-ml-2850630404397.html?pos=104&kwd=glass baby feeding bottle&tags=||||8954.051|Price|product|||TS|rsf:gd-|-stype:attr=1|qr_nm:gd|res:RC4|com-cf:nl|ptrs:na|ktp:N0|mc:443896|mtp:S|qry_typ:P|lang:en|wc:4|cs:8900|v=4,Anita Steel Centre,https://www.indiamart.com/anita-steel-center/?pos=104&kwd=glass baby feeding bottle&tags=||||8954.051|Price|product|||TS|rsf:gd-|-stype:attr=1|qr_nm:gd|res:RC4|com-cf:nl|ptrs:na|ktp:N0|mc:443896|mtp:S|qry_typ:P|lang:en|wc:4|cs:8900|v=4,False,Park Town,Chennai,"39/54, Nyniappa Maistry Street, Park Town, Chennai - 600003, Dist.Chennai, Tamil Nadu",8048985784,
"Metal Silver Stainless Steel Baby Feeding Bottle, Capacity: 250 ml, Age Group: 3-12 Months",https://www.indiamart.com/proddetail/stainless-steel-baby-feeding-bottle-2854294554788.html?pos=105&kwd=glass baby feeding bottle&tags=||||8778.123|Price|product|||TS|rsf:gd-|-stype:attr=1|qr_nm:gd|res:RC4|com-cf:nl|ptrs:na|ktp:N0|mc:443896|mtp:S|qry_typ:P|lang:en|wc:4|cs:8900|v=4,Radiant Enterprises,https://www.indiamart.com/radiant-enterprisesgautam-budhnagar/?pos=105&kwd=glass baby feeding bottle&tags=||||8778.123|Price|product|||TS|rsf:gd-|-stype:attr=1|qr_nm:gd|res:RC4|com-cf:nl|ptrs:na|ktp:N0|mc:443896|mtp:S|qry_typ:P|lang:en|wc:4|cs:8900|v=4,False,,Noida,"Tower-3,Flat-2601,Lotus 300,Noida,Gautam Buddha Nagar, Noida - 201304, Dist.Gautam Budh Nagar, Uttar Pradesh",7942828511,
"Transparent Nifty Feeding Cup 40 ml - Reusable,, New Born Baby",https://www.indiamart.com/proddetail/nifty-feeding-cup-40-ml-reusable-2854140731212.html?pos=106&kwd=glass baby feeding bottle&tags=||||8752.144|Price|product|||TS|rsf:gd-|-stype:attr=1|qr_nm:gd|res:RC4|com-cf:nl|ptrs:na|ktp:N0|mc:443896|mtp:S|qry_typ:P|lang:en|wc:4|cs:8900|v=4,BEN Meditechnology,https://www.benmeditech.com/?pos=106&kwd=glass baby feeding bottle&tags=||||8752.144|Price|product|||TS|rsf:gd-|-stype:attr=1|qr_nm:gd|res:RC4|com-cf:nl|ptrs:na|ktp:N0|mc:443896|mtp:S|qry_typ:P|lang:en|wc:4|cs:8900|v=4,False,Nasirpur,New Delhi,"Flat No 101, Eil Appartment, Plot No 13, Pocket-6, Dwarka Sector 1A, Palam Village, Dabri, South West, Nasirpur, New Delhi - 110045, Dist.Delhi, Delhi",7942825969,
"Transparent Baby Plastic Feeding Bottle, Age Group: 3-12 Months, Capacity: 180ml",https://www.indiamart.com/proddetail/baby-plastic-feeding-bottle-20213693297.html?pos=107&kwd=glass baby feeding bottle&tags=||||8228.275|Price|product|||TS|rsf:gd-|-stype:attr=1|qr_nm:gd|res:RC4|com-cf:nl|ptrs:na|ktp:N0|mc:443896|mtp:S|qry_typ:P|lang:en|wc:4|cs:8900|v=4,Madhu Products,https://www.indiamart.com/madhu-products-ahmedabad/?pos=107&kwd=glass baby feeding bottle&tags=||||8228.275|Price|product|||TS|rsf:gd-|-stype:attr=1|qr_nm:gd|res:RC4|com-cf:nl|ptrs:na|ktp:N0|mc:443896|mtp:S|qry_typ:P|lang:en|wc:4|cs:8900|v=4,False,Saraspur,Ahmedabad,"825, Kadiawad, Saraspur, Saraspur, Ahmedabad - 380018, Dist.Ahmedabad, Gujarat",8046075412,
"Multicolor Baby Kid Silicone Squeeze Feeding Bottle, 100 mL, Age Group: 1-2 Years",https://www.indiamart.com/proddetail/baby-kid-silicone-squeeze-feeding-bottle-2851632784255.html?pos=108&kwd=glass baby feeding bottle&tags=||||8752.144|Price|product|||TS|rsf:gd-|-stype:attr=1|qr_nm:gd|res:RC4|com-cf:nl|ptrs:na|ktp:N0|mc:443896|mtp:S|qry_typ:P|lang:en|wc:4|cs:8900|v=4,Inquantity,https://www.indiamart.com/inquantity/?pos=108&kwd=glass baby feeding bottle&tags=||||8752.144|Price|product|||TS|rsf:gd-|-stype:attr=1|qr_nm:gd|res:RC4|com-cf:nl|ptrs:na|ktp:N0|mc:443896|mtp:S|qry_typ:P|lang:en|wc:4|cs:8900|v=4,False,Shahdara,New Delhi,"1/6258, East Rohtash Nagar, Shahdara, Shahdara, New Delhi - 110032, Dist.Delhi, Delhi",8047620719,
"Transparent Baby Sipper Bottle, Capacity: 100 mL",https://www.indiamart.com/proddetail/baby-sipper-bottle-2853673848891.html?pos=109&kwd=glass baby feeding bottle&tags=||||8624.416|Price|product|||MDC|rsf:gd-|-stype:attr=1|qr_nm:gd|res:RC4|com-cf:nl|ptrs:na|ktp:N0|mc:443896|mtp:S|qry_typ:P|lang:en|wc:4|cs:8900|v=4,Dayawanti Traders,https://www.indiamart.com/dayawati-trader/?pos=109&kwd=glass baby feeding bottle&tags=||||8624.416|Price|product|||MDC|rsf:gd-|-stype:attr=1|qr_nm:gd|res:RC4|com-cf:nl|ptrs:na|ktp:N0|mc:443896|mtp:S|qry_typ:P|lang:en|wc:4|cs:8900|v=4,False,Indira Colony,Hisar,"Plot No. 137 Dhani Kishandutt, Near Asha High School, Nancy Beauty Parlour, Indira Colony, Indira Colony, Hisar - 125001, Dist.Hisar, Haryana",7942701403,
"White Metal 125ml Baby GLASS Feeding Bottle, Capacity: 150 mL",https://www.indiamart.com/proddetail/125ml-baby-glass-feeding-bottle-2854627139355.html?pos=110&kwd=glass baby feeding bottle&tags=||||8752.144|Price|product|||MDC|rsf:gd-|-stype:attr=1|qr_nm:gd|res:RC4|com-cf:nl|ptrs:na|ktp:N0|mc:443896|mtp:S|qry_typ:P|lang:en|wc:4|cs:8900|v=4,Little Kingdom Baby Product,https://www.indiamart.com/little-kingdombaby-product/?pos=110&kwd=glass baby feeding bottle&tags=||||8752.144|Price|product|||MDC|rsf:gd-|-stype:attr=1|qr_nm:gd|res:RC4|com-cf:nl|ptrs:na|ktp:N0|mc:443896|mtp:S|qry_typ:P|lang:en|wc:4|cs:8900|v=4,False,Bawana,New Delhi,"Plot No. 16, PKT-G, Sector-3, DSIIDC, Bawana, North West Delhi, Bawana, New Delhi - 110039, Dist.Delhi, Delhi",8047648589,
Baby milk bottle pacifier,https://www.indiamart.com/proddetail/baby-milk-bottle-pacifier-2854639589273.html?pos=111&kwd=glass baby feeding bottle&tags=||||8038.093|Price|product|||MDC|rsf:gd-|-stype:attr=1|qr_nm:gd|res:RC4|com-cf:nl|ptrs:na|ktp:N0|mc:443896|mtp:S|qry_typ:P|lang:en|wc:4|cs:8900|v=4,Creative Automation,https://www.indiamart.com/creativeautomationrajkot/?pos=111&kwd=glass baby feeding bottle&tags=||||8038.093|Price|product|||MDC|rsf:gd-|-stype:attr=1|qr_nm:gd|res:RC4|com-cf:nl|ptrs:na|ktp:N0|mc:443896|mtp:S|qry_typ:P|lang:en|wc:4|cs:8900|v=4,False,Rajkot,Rajkot,"Plot No.19, kailash Manu, Sidhdheshwar Griding, Atika ndustrial, Street No.3, Dhebar Road South Near Jaydev Foundry, Rajkot, Rajkot - 360002, Dist.Rajkot, Gujarat",7942570968,
"Steel Feeding Bottle For Baby, Capacity: 250 mL",https://www.indiamart.com/proddetail/steel-feeding-bottle-for-baby-2853709987448.html?pos=112&kwd=glass baby feeding bottle&tags=||||8785.791|Price|product|||MDC|rsf:gd-|-stype:attr=1|qr_nm:gd|res:RC4|com-cf:nl|ptrs:na|ktp:N0|mc:443896|mtp:S|qry_typ:P|lang:en|wc:4|cs:8900|v=4,Aadya Traders,https://www.indiamart.com/aadyatradersghaziabad/?pos=112&kwd=glass baby feeding bottle&tags=||||8785.791|Price|product|||MDC|rsf:gd-|-stype:attr=1|qr_nm:gd|res:RC4|com-cf:nl|ptrs:na|ktp:N0|mc:443896|mtp:S|qry_typ:P|lang:en|wc:4|cs:8900|v=4,False,Nand Gram,Ghaziabad,"C 465, Nand Gram, Nand Gram, Ghaziabad - 201003, Dist.Ghaziabad, Uttar Pradesh",7949086086,
"Green Plastic 500ml Unicorn Horse Feeding Straw Sipper Glass, 1-2 Years",https://www.indiamart.com/proddetail/500ml-unicorn-horse-feeding-straw-sipper-glass-2852229147433.html?pos=113&kwd=glass baby feeding bottle&tags=||||8752.144|Price|product|||TS|rsf:gd-|-stype:attr=1|qr_nm:gd|res:RC4|com-cf:nl|ptrs:na|ktp:N0|mc:443896|mtp:S|qry_typ:P|lang:en|wc:4|cs:8900|v=4,V R International,https://www.indiamart.com/vr-international-newdelhi/?pos=113&kwd=glass baby feeding bottle&tags=||||8752.144|Price|product|||TS|rsf:gd-|-stype:attr=1|qr_nm:gd|res:RC4|com-cf:nl|ptrs:na|ktp:N0|mc:443896|mtp:S|qry_typ:P|lang:en|wc:4|cs:8900|v=4,False,Sadar Bazaar,New Delhi,"1st Floor, 5911/8 Shop No 12, Swadeshi Market, Sadar Bazar, Sadar Bazaar, New Delhi - 110006, Dist.Delhi, Delhi",7942704333,
"Rainbow Color Magic Lighting Cup 250 ml, For Home",https://www.indiamart.com/proddetail/rainbow-color-magic-lighting-cup-250-ml-2851859430130.html?pos=114&kwd=glass baby feeding bottle&tags=||||8601.347|Price|product|||TS|rsf:gd-|-stype:attr=1|qr_nm:gd|res:RC4|com-cf:nl|ptrs:na|ktp:N0|mc:443896|mtp:S|qry_typ:P|lang:en|wc:4|cs:8900|v=4,Mehai Retails LLP,https://www.indiamart.com/mehai-retails-llp/?pos=114&kwd=glass baby feeding bottle&tags=||||8601.347|Price|product|||TS|rsf:gd-|-stype:attr=1|qr_nm:gd|res:RC4|com-cf:nl|ptrs:na|ktp:N0|mc:443896|mtp:S|qry_typ:P|lang:en|wc:4|cs:8900|v=4,False,Baba Harishchandra Marg,Jaipur,"S-88, 2nd Floor, Raisar Plaza,, Baba Harishchandra Marg, Jaipur - 302001, Dist.Jaipur, Rajasthan",8047657191,
Horizontal Bottle Sterilizer,https://www.indiamart.com/proddetail/bottle-sterilizer-4966522591.html?pos=115&kwd=glass baby feeding bottle&tags=||||8258.58|Price|product|||TS|rsf:gd-|-stype:attr=1|qr_nm:gd|res:RC4|com-cf:nl|ptrs:na|ktp:N0|mc:443896|mtp:S|qry_typ:P|lang:en|wc:4|cs:8900|v=4,Shreya Engineering Works,https://www.shreyaengineering.co.in/?pos=115&kwd=glass baby feeding bottle&tags=||||8258.58|Price|product|||TS|rsf:gd-|-stype:attr=1|qr_nm:gd|res:RC4|com-cf:nl|ptrs:na|ktp:N0|mc:443896|mtp:S|qry_typ:P|lang:en|wc:4|cs:8900|v=4,True,Vithal Udyognagar,Anand,"Zone E-3, Shed No. C-1/309, Vithal Udyognagar, Anand - 388121, Dist.Anand, Gujarat",8048968541,
Plain Milk Glass Bottle With Cap 500 mL,https://www.indiamart.com/proddetail/500-ml-plain-milk-glass-bottle-with-cap-2852379923148.html?pos=116&kwd=glass baby feeding bottle&tags=||||8861.147|Price|product|||TS|rsf:gd-|-stype:attr=1|qr_nm:gd|res:RC4|com-cf:nl|ptrs:na|ktp:N0|mc:443896|mtp:S|qry_typ:P|lang:en|wc:4|cs:8900|v=4,Tirupati Glass Industries,https://www.tirupatiglassindustries.com/?pos=116&kwd=glass baby feeding bottle&tags=||||8861.147|Price|product|||TS|rsf:gd-|-stype:attr=1|qr_nm:gd|res:RC4|com-cf:nl|ptrs:na|ktp:N0|mc:443896|mtp:S|qry_typ:P|lang:en|wc:4|cs:8900|v=4,False,Dakhal,Firozabad,"0, 0, 0, Jaroli Kalan, Agra Road, Dakhal, Firozabad - 283203, Dist.Firozabad, Uttar Pradesh",7942822055,
Capacity: 1000 mL ANGLE SIPPER BOTTLE,https://www.indiamart.com/proddetail/angle-sipper-bottle-2850570676848.html?pos=117&kwd=glass baby feeding bottle&tags=||||8228.275|Price|product|||TS|rsf:gd-|-stype:attr=1|qr_nm:gd|res:RC4|com-cf:nl|ptrs:na|ktp:N0|mc:443896|mtp:S|qry_typ:P|lang:en|wc:4|cs:8900|v=4,Mayur Plastics And Toys,https://www.mayurplasticproducts.com/?pos=117&kwd=glass baby feeding bottle&tags=||||8228.275|Price|product|||TS|rsf:gd-|-stype:attr=1|qr_nm:gd|res:RC4|com-cf:nl|ptrs:na|ktp:N0|mc:443896|mtp:S|qry_typ:P|lang:en|wc:4|cs:8900|v=4,False,Rajpur Hirpur,Ahmedabad,"479/2842, Gujarat Housing Board dengra, Rajpur Hirpur, Ahmedabad - 380023, Dist.Ahmedabad, Gujarat",8048964748,
"167ml Ocean Delight One Scoop Cup - P02615, For Restaurant",https://www.indiamart.com/proddetail/167ml-ocean-delight-one-scoop-cup-p02615-2854620801030.html?pos=118&kwd=glass baby feeding bottle&tags=||||8778.123|Price|product|||TS|rsf:gd-|-stype:attr=1|qr_nm:gd|res:RC4|com-cf:nl|ptrs:na|ktp:N0|mc:443896|mtp:S|qry_typ:P|lang:en|wc:4|cs:8900|v=4,Horecamate,https://www.indiamart.com/horecamate/?pos=118&kwd=glass baby feeding bottle&tags=||||8778.123|Price|product|||TS|rsf:gd-|-stype:attr=1|qr_nm:gd|res:RC4|com-cf:nl|ptrs:na|ktp:N0|mc:443896|mtp:S|qry_typ:P|lang:en|wc:4|cs:8900|v=4,False,Sector 8,Noida,"28 B, D4 Sector 82 Udyog Vihar Noida Gautambuddha Nagar Uttar Pradesh, Sector 8, Noida - 201301, Dist.Gautam Budh Nagar, Uttar Pradesh",7949091631,
300ml Glass Milk Bottles For Babies,https://www.indiamart.com/proddetail/300ml-glass-milk-bottles-for-babies-19328536730.html?pos=119&kwd=glass baby feeding bottle&tags=||||8861.147|Price|product|||TS|rsf:gd-|-stype:attr=1|qr_nm:gd|res:RC4|com-cf:nl|ptrs:na|ktp:N0|mc:443896|mtp:S|qry_typ:P|lang:en|wc:4|cs:8900|v=4,G.M Overseas,https://www.glassbottlejar.com/?pos=119&kwd=glass baby feeding bottle&tags=||||8861.147|Price|product|||TS|rsf:gd-|-stype:attr=1|qr_nm:gd|res:RC4|com-cf:nl|ptrs:na|ktp:N0|mc:443896|mtp:S|qry_typ:P|lang:en|wc:4|cs:8900|v=4,True,Humaunpur,Firozabad,"48 Blank, Khanjapur,, Humaunpur, Firozabad - 283203, Dist.Firozabad, Uttar Pradesh",8048952817,
Baby Feeding Bottle Cover,https://www.indiamart.com/proddetail/baby-feeding-bottle-cover-2854279715712.html?pos=120&kwd=glass baby feeding bottle&tags=||||9189.305|Price|product|||MDC|rsf:gd-|-stype:attr=1|qr_nm:gd|res:RC4|com-cf:nl|ptrs:na|ktp:N0|mc:443896|mtp:S|qry_typ:P|lang:en|wc:4|cs:8900|v=4,Sudhanjali Enterprises,https://www.indiamart.com/sudhanjalienterprises/?pos=120&kwd=glass baby feeding bottle&tags=||||9189.305|Price|product|||MDC|rsf:gd-|-stype:attr=1|qr_nm:gd|res:RC4|com-cf:nl|ptrs:na|ktp:N0|mc:443896|mtp:S|qry_typ:P|lang:en|wc:4|cs:8900|v=4,False,,Prayagraj,"H No-10/7, Basahi, Nataka Babura, Khain, Prayagraj - 212307, Dist.Allahabad, Uttar Pradesh",7942964273,
"Tube Material: Soft Glass AIR PORTABLE BABY BOTTLE STRELIZER & DRYER, Dc 5v, Automation Grade: Automatic",https://www.indiamart.com/proddetail/air-portable-baby-bottle-strelizer-dryer-26435303788.html?pos=121&kwd=glass baby feeding bottle&tags=||||8752.144|Price|product|||MDC|rsf:gd-|-stype:attr=1|qr_nm:gd|res:RC4|com-cf:nl|ptrs:na|ktp:N0|mc:443896|mtp:S|qry_typ:P|lang:en|wc:4|cs:8900|v=4,KamaIndia Private Limited,https://www.indiamart.com/kamaindia/?pos=121&kwd=glass baby feeding bottle&tags=||||8752.144|Price|product|||MDC|rsf:gd-|-stype:attr=1|qr_nm:gd|res:RC4|com-cf:nl|ptrs:na|ktp:N0|mc:443896|mtp:S|qry_typ:P|lang:en|wc:4|cs:8900|v=4,False,Yusuf Sarai,New Delhi,"BPS House, 2nd Floor, M-161, Community Centre, Yusuf Sarai, New Delhi - 110049, Dist.Delhi, Delhi",8048619490,
Transparent Sipper Glass For Children,https://www.indiamart.com/proddetail/sipper-glass-for-children-2853222561855.html?pos=122&kwd=glass baby feeding bottle&tags=||||8211.142|Price|product|||MDC|rsf:gd-|-stype:attr=1|qr_nm:gd|res:RC4|com-cf:nl|ptrs:na|ktp:N0|mc:443896|mtp:S|qry_typ:P|lang:en|wc:4|cs:8900|v=4,National Stationary,https://www.indiamart.com/nationalstationary/?pos=122&kwd=glass baby feeding bottle&tags=||||8211.142|Price|product|||MDC|rsf:gd-|-stype:attr=1|qr_nm:gd|res:RC4|com-cf:nl|ptrs:na|ktp:N0|mc:443896|mtp:S|qry_typ:P|lang:en|wc:4|cs:8900|v=4,False,Mandvi,Mumbai,"304, 1st Floor, Biryaniwala Building, Abdul Rehman Street, Mandvi, Mumbai - 400003, Dist.Mumbai, Maharashtra",7942536905,
Chic Buddy Silicone Baby Tiny Cup with Spoon for Infants First Stage Training,https://www.indiamart.com/proddetail/chic-buddy-silicone-baby-tiny-cup-with-spoon-for-infants-first-stage-training-2848988232762.html?pos=123&kwd=glass baby feeding bottle&tags=||||8786.56|Price|product|||TS|rsf:gd-|-stype:attr=1|qr_nm:gd|res:RC4|com-cf:nl|ptrs:na|ktp:N0|mc:443896|mtp:S|qry_typ:P|lang:en|wc:4|cs:8900|v=4,Totcase Services Private Limited,https://www.totcase.com/?pos=123&kwd=glass baby feeding bottle&tags=||||8786.56|Price|product|||TS|rsf:gd-|-stype:attr=1|qr_nm:gd|res:RC4|com-cf:nl|ptrs:na|ktp:N0|mc:443896|mtp:S|qry_typ:P|lang:en|wc:4|cs:8900|v=4,False,Alwal,Hyderabad,"1-4-177/ A13/402 Shivasai Residency Greenwood Colony Old Alwal, Alwal, Hyderabad - 500010, Dist.Hyderabad, Telangana",8045910096,
"Metal Stainless Steel Feeding Bottle, Capacity: 300 mL, 3-12 Months",https://www.indiamart.com/proddetail/stainless-steel-feeding-bottle-2852451353848.html?pos=124&kwd=glass baby feeding bottle&tags=||||8211.142|Price|product|||TS|rsf:gd-|-stype:attr=1|qr_nm:gd|res:RC4|com-cf:nl|ptrs:na|ktp:N0|mc:443896|mtp:S|qry_typ:P|lang:en|wc:4|cs:8900|v=4,Prabhu Industries,https://www.indiamart.com/prabhu-industries-mumbai/?pos=124&kwd=glass baby feeding bottle&tags=||||8211.142|Price|product|||TS|rsf:gd-|-stype:attr=1|qr_nm:gd|res:RC4|com-cf:nl|ptrs:na|ktp:N0|mc:443896|mtp:S|qry_typ:P|lang:en|wc:4|cs:8900|v=4,False,Andheri East,Mumbai,"B2-701, 7th Floor, Preeti Apartment, J.B.Nagar, Kanti Nagar, Andheri East, Andheri East, Mumbai - 400059, Dist.Mumbai, Maharashtra",8047304103,
"Transparent Plastic Milk Bottle, Capacity: 200 ml",https://www.indiamart.com/proddetail/plastic-milk-bottle-2853958493330.html?pos=125&kwd=glass baby feeding bottle&tags=||||9572.14|Price|product|||TS|rsf:gd-|-stype:attr=1|qr_nm:gd|res:RC4|com-cf:nl|ptrs:na|ktp:N0|mc:443896|mtp:S|qry_typ:P|lang:en|wc:4|cs:8900|v=4,Apoorba Industries,https://www.indiamart.com/apoorbaindustries/?pos=125&kwd=glass baby feeding bottle&tags=||||9572.14|Price|product|||TS|rsf:gd-|-stype:attr=1|qr_nm:gd|res:RC4|com-cf:nl|ptrs:na|ktp:N0|mc:443896|mtp:S|qry_typ:P|lang:en|wc:4|cs:8900|v=4,False,Pokhariput,Bhubaneswar,"Plot No - HIG 23, Phase 1, BDA Colony, Pokhariput, Khordha, Pokhariput, Bhubaneswar - 751020, Dist.Khorda, Odisha",7942967428,
"Plastic Sipper Glasses, Capacity: 300 mL",https://www.indiamart.com/proddetail/sipper-glasses-2851721860091.html?pos=126&kwd=glass baby feeding bottle&tags=||||8954.051||product|||MDC|rsf:gd-|-stype:attr=1|qr_nm:gd|res:RC4|com-cf:nl|ptrs:na|ktp:N0|mc:443896|mtp:S|qry_typ:P|lang:en|wc:4|cs:8900|v=4,Metalic Paper House,https://www.indiamart.com/metalic-paper-house/?pos=126&kwd=glass baby feeding bottle&tags=||||8954.051||product|||MDC|rsf:gd-|-stype:attr=1|qr_nm:gd|res:RC4|com-cf:nl|ptrs:na|ktp:N0|mc:443896|mtp:S|qry_typ:P|lang:en|wc:4|cs:8900|v=4,False,Sowcarpet,Chennai,"86, Narayan Mudali Street, Sowcarpet, Chennai - 600079, Dist.Chennai, Tamil Nadu",7942829750,
"Mady Baby Glass Feeder, Capacity: 200 mL",https://www.indiamart.com/proddetail/mady-baby-glass-feeder-2854371891455.html?pos=127&kwd=glass baby feeding bottle&tags=||||8752.144|Price|product|||MDC|rsf:gd-|-stype:attr=1|qr_nm:gd|res:RC4|com-cf:nl|ptrs:na|ktp:N0|mc:443896|mtp:S|qry_typ:P|lang:en|wc:4|cs:8900|v=4,Household Mart,https://www.indiamart.com/household-mart-newdelhi/?pos=127&kwd=glass baby feeding bottle&tags=||||8752.144|Price|product|||MDC|rsf:gd-|-stype:attr=1|qr_nm:gd|res:RC4|com-cf:nl|ptrs:na|ktp:N0|mc:443896|mtp:S|qry_typ:P|lang:en|wc:4|cs:8900|v=4,False,,New Delhi,"2nd Floor Ganesh Pura A Kanhiya Nagar Tri Nagar, House 3904 Plot No Old -171 Street No 14, North West Delhi, New Delhi - 110035, Dist.Delhi, Delhi",7949337207,
"Pink Baby Feeding Plastic Bottle, Age Group: 3-12 Months, Capacity: 200ml",https://www.indiamart.com/proddetail/baby-feeding-plastic-bottle-24335339188.html?pos=129&kwd=glass baby feeding bottle&tags=||||8752.144|Price|product|||TS|rsf:gd-|-stype:attr=1|qr_nm:gd|res:RC4|com-cf:nl|ptrs:na|ktp:N0|mc:443896|mtp:S|qry_typ:P|lang:en|wc:4|cs:8900|v=4,Moonstar Enterprisrs,https://www.hamaarishop.com/?pos=129&kwd=glass baby feeding bottle&tags=||||8752.144|Price|product|||TS|rsf:gd-|-stype:attr=1|qr_nm:gd|res:RC4|com-cf:nl|ptrs:na|ktp:N0|mc:443896|mtp:S|qry_typ:P|lang:en|wc:4|cs:8900|v=4,False,,New Delhi,"House No 258,Gali No 7 Block B Ph 2 Landmark Prem Nagar,Delhi, New Delhi - 110041, Dist.Delhi, Delhi",7942538796,
"Pink Baby Feeding Plastic Bottle, Age Group: 3-12 Months, Capacity: 200ml",https://www.indiamart.com/proddetail/baby-feeding-plastic-bottle-24335339188.html?pos=129&kwd=glass baby feeding bottle&tags=||||8752.144|Price|product|||TS|rsf:gd-|-stype:attr=1|qr_nm:gd|res:RC4|com-cf:nl|ptrs:na|ktp:N0|mc:443896|mtp:S|qry_typ:P|lang:en|wc:4|cs:8900|v=4,Moonstar Enterprisrs,https://www.hamaarishop.com/?pos=129&kwd=glass baby feeding bottle&tags=||||8752.144|Price|product|||TS|rsf:gd-|-stype:attr=1|qr_nm:gd|res:RC4|com-cf:nl|ptrs:na|ktp:N0|mc:443896|mtp:S|qry_typ:P|lang:en|wc:4|cs:8900|v=4,False,,New Delhi,"House No 258,Gali No 7 Block B Ph 2 Landmark Prem Nagar,Delhi, New Delhi - 110041, Dist.Delhi, Delhi",7942538796,
"Size: 20 cm Material: Plastic KidEarth Baby Spoon Feeder, For Home, Capacity: 200 mL",https://www.indiamart.com/proddetail/kidearth-baby-spoon-feeder-2854760457012.html?pos=130&kwd=glass baby feeding bottle&tags=||||8752.144|Price|product|||MDC|rsf:gd-|-stype:attr=1|qr_nm:gd|res:RC4|com-cf:nl|ptrs:na|ktp:N0|mc:443896|mtp:S|qry_typ:P|lang:en|wc:4|cs:8900|v=4,L T Textiles,https://www.indiamart.com/lttextiles/?pos=130&kwd=glass baby feeding bottle&tags=||||8752.144|Price|product|||MDC|rsf:gd-|-stype:attr=1|qr_nm:gd|res:RC4|com-cf:nl|ptrs:na|ktp:N0|mc:443896|mtp:S|qry_typ:P|lang:en|wc:4|cs:8900|v=4,False,Pahari Dhiraj,New Delhi,"5189-90 Main Road, Sadar Bazar, Pahari Dhiraj, New Delhi - 110006, Dist.Delhi, Delhi",7942958455,
Transparent Silicone Baby Fruit Feeder,https://www.indiamart.com/proddetail/silicone-baby-fruit-feeder-2850184193055.html?pos=131&kwd=glass baby feeding bottle&tags=||||8752.144|Price|product|||TS|rsf:gd-|-stype:attr=1|qr_nm:gd|res:RC4|com-cf:nl|ptrs:na|ktp:N0|mc:443896|mtp:S|qry_typ:P|lang:en|wc:4|cs:8900|v=4,Aastha Trading Company,https://www.indiamart.com/aasthatradingcompany-delhi/?pos=131&kwd=glass baby feeding bottle&tags=||||8752.144|Price|product|||TS|rsf:gd-|-stype:attr=1|qr_nm:gd|res:RC4|com-cf:nl|ptrs:na|ktp:N0|mc:443896|mtp:S|qry_typ:P|lang:en|wc:4|cs:8900|v=4,False,Mangolpuri,New Delhi,"Ground floor Block M Shop no-534, Mangolpuri, New Delhi - 110083, Dist.Delhi, Delhi",8046030692,
"Silver VALENTINE Baby Bottle KIDDY 140 ML, 1-2 year",https://www.indiamart.com/proddetail/valentine-baby-bottle-kiddy-140-ml-2849388363748.html?pos=132&kwd=glass baby feeding bottle&tags=||||8752.144|Price|product|||MDC|rsf:gd-|-stype:attr=1|qr_nm:gd|res:RC4|com-cf:nl|ptrs:na|ktp:N0|mc:443896|mtp:S|qry_typ:P|lang:en|wc:4|cs:8900|v=4,Maharaja Metalik Group,https://www.indiamart.com/maharaja-metalik-group/?pos=132&kwd=glass baby feeding bottle&tags=||||8752.144|Price|product|||MDC|rsf:gd-|-stype:attr=1|qr_nm:gd|res:RC4|com-cf:nl|ptrs:na|ktp:N0|mc:443896|mtp:S|qry_typ:P|lang:en|wc:4|cs:8900|v=4,False,Wazirpur Industrial Area,New Delhi,"A- 87/5 Wazirpur Industrial Area, Wazirpur Industrial Area, New Delhi - 110052, Dist.Delhi, Delhi",8047699043,
"Plastic White And Blue A-BRITE Feeding Bottle, Capacity: 250 ml, Age Group: 1-2 Years",https://www.indiamart.com/proddetail/a-brite-feeding-bottle-2854875474712.html?pos=133&kwd=glass baby feeding bottle&tags=||||8211.142|Price|product|||MDC|rsf:gd-|-stype:attr=1|qr_nm:gd|res:RC4|com-cf:nl|ptrs:na|ktp:N0|mc:443896|mtp:S|qry_typ:P|lang:en|wc:4|cs:8900|v=4,Champion Traders,https://www.indiamart.com/champion-traders-mumbai/?pos=133&kwd=glass baby feeding bottle&tags=||||8211.142|Price|product|||MDC|rsf:gd-|-stype:attr=1|qr_nm:gd|res:RC4|com-cf:nl|ptrs:na|ktp:N0|mc:443896|mtp:S|qry_typ:P|lang:en|wc:4|cs:8900|v=4,False,,Mumbai,"1st Floor, Room No 25, 27, Ismail Building, Sutar Chawl, Abdul Rehman Street, Kalbadevi,, Mumbai - 400002, Dist.Mumbai, Maharashtra",8044459818,
"Plastic Baby Feeding Bottle, Age Group: 3-12 Months",https://www.indiamart.com/proddetail/plastic-baby-feeding-bottle-2853732758430.html?pos=134&kwd=glass baby feeding bottle&tags=||||8752.144|Price|product|||TS|rsf:gd-|-stype:attr=1|qr_nm:gd|res:RC4|com-cf:nl|ptrs:na|ktp:N0|mc:443896|mtp:S|qry_typ:P|lang:en|wc:4|cs:8900|v=4,Aman Impex,https://www.myamanimpex.com/?pos=134&kwd=glass baby feeding bottle&tags=||||8752.144|Price|product|||TS|rsf:gd-|-stype:attr=1|qr_nm:gd|res:RC4|com-cf:nl|ptrs:na|ktp:N0|mc:443896|mtp:S|qry_typ:P|lang:en|wc:4|cs:8900|v=4,False,Paschim Vihar,New Delhi,"Flat No. 681, S/F Janta Flats, Pocket-II, Paschim Puri, Paschim Vihar, New Delhi - 110063, Dist.Delhi, Delhi",8048600148,
"Plastic Mamta Baby Kids Small Feeding Bottle 125 ML, Age Group: 3-12 Months",https://www.indiamart.com/proddetail/mamta-baby-kids-small-feeding-bottle-125-ml-2852402781091.html?pos=135&kwd=glass baby feeding bottle&tags=||||9839.57|Price|product|||TS|rsf:gd-|-stype:attr=1|qr_nm:gd|res:RC4|com-cf:nl|ptrs:na|ktp:N0|mc:443896|mtp:S|qry_typ:P|lang:en|wc:4|cs:8900|v=4,Soni Brothers,https://www.indiamart.com/soni-brothers-kolkata/?pos=135&kwd=glass baby feeding bottle&tags=||||9839.57|Price|product|||TS|rsf:gd-|-stype:attr=1|qr_nm:gd|res:RC4|com-cf:nl|ptrs:na|ktp:N0|mc:443896|mtp:S|qry_typ:P|lang:en|wc:4|cs:8900|v=4,False,Vaishya Sabha,Kolkata,"15, Ram Mohan Mullick Lane, Vaishya Sabha, Kolkata - 700007, Dist.Kolkata, West Bengal",8048963399,
Stainless Steel Baby Feeding Bottle,https://www.indiamart.com/proddetail/stainless-steel-baby-feeding-bottle-2854718516173.html?pos=136&kwd=glass baby feeding bottle&tags=||||8786.56||product|||TS|rsf:gd-|-stype:attr=1|qr_nm:gd|res:RC4|com-cf:nl|ptrs:na|ktp:N0|mc:443896|mtp:S|qry_typ:P|lang:en|wc:4|cs:8900|v=4,Vishalandhra Industries,https://www.indiamart.com/vishalandhra-industries-hyderabad/?pos=136&kwd=glass baby feeding bottle&tags=||||8786.56||product|||TS|rsf:gd-|-stype:attr=1|qr_nm:gd|res:RC4|com-cf:nl|ptrs:na|ktp:N0|mc:443896|mtp:S|qry_typ:P|lang:en|wc:4|cs:8900|v=4,False,Kavadiguda,Hyderabad,"1-7-148/4/2/A Bakaram, Musheerabad Main Road Opp. Metro Pillar No. 1079 Musheerabad, Kavadiguda, Hyderabad - 500020, Dist.Hyderabad, Telangana",7942817189,
"Baby Feeding Bottle Wth Hot Case Cover, Capacity: 0.5 Ltr",https://www.indiamart.com/proddetail/baby-feeding-bottle-wth-hot-case-cover-27007290012.html?pos=137&kwd=glass baby feeding bottle&tags=||||8785.791|Price|product|||TS|rsf:gd-|-stype:attr=1|qr_nm:gd|res:RC4|com-cf:nl|ptrs:na|ktp:N0|mc:443896|mtp:S|qry_typ:P|lang:en|wc:4|cs:8900|v=4,Tatva By Gopika,https://www.urika.in/?pos=137&kwd=glass baby feeding bottle&tags=||||8785.791|Price|product|||TS|rsf:gd-|-stype:attr=1|qr_nm:gd|res:RC4|com-cf:nl|ptrs:na|ktp:N0|mc:443896|mtp:S|qry_typ:P|lang:en|wc:4|cs:8900|v=4,False,Indirapuram,Ghaziabad,"SD-035, LGF, Jaipuria Sunrise Greens, Plot No-12A, Ahinsha Khand, Indirapuram,, Indirapuram, Ghaziabad - 201014, Dist.Ghaziabad, Uttar Pradesh",8047673566,
"White 30ml PP Feeding Cup, Newly Born",https://www.indiamart.com/proddetail/30ml-pp-feeding-cup-2852312214133.html?pos=138&kwd=glass baby feeding bottle&tags=||||8228.275|Price|product|||MDC|rsf:gd-|-stype:attr=1|qr_nm:gd|res:RC4|com-cf:nl|ptrs:na|ktp:N0|mc:443896|mtp:S|qry_typ:P|lang:en|wc:4|cs:8900|v=4,HHPL Healthcare,https://www.indiamart.com/hhpl-healthcare/?pos=138&kwd=glass baby feeding bottle&tags=||||8228.275|Price|product|||MDC|rsf:gd-|-stype:attr=1|qr_nm:gd|res:RC4|com-cf:nl|ptrs:na|ktp:N0|mc:443896|mtp:S|qry_typ:P|lang:en|wc:4|cs:8900|v=4,False,Shanti Nagar,Ahmedabad,"5, Vinay Co-Op H Society Ltd, Near Ayodhyanagar Flat, Near Sahjivan Society, Usmanpura, Shanti Nagar, Ahmedabad - 380013, Dist.Ahmedabad, Gujarat",8047665110,
Stainless Steel Baby Feeding Bottle,https://www.indiamart.com/proddetail/stainless-steel-baby-feeding-bottle-2854078303797.html?pos=139&kwd=glass baby feeding bottle&tags=||||8752.144|Price|product|||MDC|rsf:gd-|-stype:attr=1|qr_nm:gd|res:RC4|com-cf:nl|ptrs:na|ktp:N0|mc:443896|mtp:S|qry_typ:P|lang:en|wc:4|cs:8900|v=4,Shubh Shakti Traders,https://www.indiamart.com/shubhshaktitraders/?pos=139&kwd=glass baby feeding bottle&tags=||||8752.144|Price|product|||MDC|rsf:gd-|-stype:attr=1|qr_nm:gd|res:RC4|com-cf:nl|ptrs:na|ktp:N0|mc:443896|mtp:S|qry_typ:P|lang:en|wc:4|cs:8900|v=4,False,Wazirpur,New Delhi,"Ground Floor, House No.51, DSIDC Complex. Wazirpur Indl. Area, Landmark Old SBI Building, North West, Wazirpur, New Delhi - 110052, Dist.Delhi, Delhi",7949224945,
240ml Pigeon PP Baby Feeding Bottle,https://www.indiamart.com/proddetail/240ml-pigeon-pp-baby-feeding-bottle-2852307272962.html?pos=140&kwd=glass baby feeding bottle&tags=||||8307.81|Price|product|||MDC|rsf:gd-|-stype:attr=1|qr_nm:gd|res:RC4|com-cf:nl|ptrs:na|ktp:N0|mc:443896|mtp:S|qry_typ:P|lang:en|wc:4|cs:8900|v=4,Bhavana Agency,https://www.indiamart.com/bhavana-agency/?pos=140&kwd=glass baby feeding bottle&tags=||||8307.81|Price|product|||MDC|rsf:gd-|-stype:attr=1|qr_nm:gd|res:RC4|com-cf:nl|ptrs:na|ktp:N0|mc:443896|mtp:S|qry_typ:P|lang:en|wc:4|cs:8900|v=4,False,Sadashiv Peth,Pune,"S No 4, 841/1, Asset Gold, Sadashiv Peth, Sadashiv Peth, Pune - 411030, Dist.Pune, Maharashtra",8047788291,
"Plastic Baby Feeding Bottle, 100 mL, Age Group: Newly Born",https://www.indiamart.com/proddetail/plastic-baby-feeding-bottle-2850051971691.html?pos=141&kwd=glass baby feeding bottle&tags=||||8230.883|Price|product|||MDC|rsf:gd-|-stype:attr=1|qr_nm:gd|res:RC4|com-cf:nl|ptrs:na|ktp:N0|mc:443896|mtp:S|qry_typ:P|lang:en|wc:4|cs:8900|v=4,Jay Impex,https://www.indiamart.com/jayimpexsurat/?pos=141&kwd=glass baby feeding bottle&tags=||||8230.883|Price|product|||MDC|rsf:gd-|-stype:attr=1|qr_nm:gd|res:RC4|com-cf:nl|ptrs:na|ktp:N0|mc:443896|mtp:S|qry_typ:P|lang:en|wc:4|cs:8900|v=4,False,Athwa,Surat,"1st Floor, 77, Narmad Nagar Soc, Hirabaug,, Athwa, Surat - 395006, Dist.Surat, Gujarat",7942713335,
"SS Baby Feeding Bottle, Capacity: 150 mL",https://www.indiamart.com/proddetail/ss-baby-feeding-bottle-1247331755.html?pos=142&kwd=glass baby feeding bottle&tags=||||8752.144|Price|product|||MDC|rsf:gd-|-stype:attr=1|qr_nm:gd|res:RC4|com-cf:nl|ptrs:na|ktp:N0|mc:443896|mtp:S|qry_typ:P|lang:en|wc:4|cs:8900|v=4,Neelkanth Metal Trading Co.,https://www.indiamart.com/neelkanthmetal-tradingco/?pos=142&kwd=glass baby feeding bottle&tags=||||8752.144|Price|product|||MDC|rsf:gd-|-stype:attr=1|qr_nm:gd|res:RC4|com-cf:nl|ptrs:na|ktp:N0|mc:443896|mtp:S|qry_typ:P|lang:en|wc:4|cs:8900|v=4,False,North West Delhi,New Delhi,"Ground Floor, House No X 1/9, Kh.No 83/15, Block -V-1, Budh Vihar Phase 1, North West Delhi, New Delhi - 110086, Dist.Delhi, Delhi",8047795143,
"Plastic Mix Glass Feeding Bottle, Capacity: 125 mL - 250 mL",https://www.indiamart.com/proddetail/glass-feeding-bottle-21942101012.html?pos=143&kwd=glass baby feeding bottle&tags=||||8223.226|Price|product|||MDC|rsf:gd-|-stype:attr=1|qr_nm:gd|res:RC4|com-cf:nl|ptrs:na|ktp:N0|mc:443896|mtp:S|qry_typ:P|lang:en|wc:4|cs:8900|v=4,Wecare Solutions,https://www.indiamart.com/wecare-solutions/?pos=143&kwd=glass baby feeding bottle&tags=||||8223.226|Price|product|||MDC|rsf:gd-|-stype:attr=1|qr_nm:gd|res:RC4|com-cf:nl|ptrs:na|ktp:N0|mc:443896|mtp:S|qry_typ:P|lang:en|wc:4|cs:8900|v=4,False,Valiv,Thane,"Gala No. F-19-20, 1st Floor, Rajprabha Anand Industrial Estate Naikpada, Waliv, Valiv, Thane - 401208, Dist.Thane, Maharashtra",8047631791,
"Transparent Glass Baby Feeding Bottle with silicone cover, Capacity: 150 mL",https://www.indiamart.com/proddetail/glass-baby-feeding-bottle-with-silicone-cover-2855096770155.html?pos=144&kwd=glass baby feeding bottle&tags=||||8545.6045|Price|product|||MDC|rsf:gd-|-stype:attr=1|qr_nm:gd|res:RC4|com-cf:nl|ptrs:na|ktp:N0|mc:443896|mtp:S|qry_typ:P|lang:en|wc:4|cs:8900|v=4,Shraddha Saburi,https://www.indiamart.com/shraddhasaburi/?pos=144&kwd=glass baby feeding bottle&tags=||||8545.6045|Price|product|||MDC|rsf:gd-|-stype:attr=1|qr_nm:gd|res:RC4|com-cf:nl|ptrs:na|ktp:N0|mc:443896|mtp:S|qry_typ:P|lang:en|wc:4|cs:8900|v=4,False,Cantonment Area,Firozpur,"263, Suji Bazar, M/s Shraddha Saburi, Ferozepur Cantt, Cantonment Area, Firozpur - 152001, Dist.Firozpur, Punjab",8048979628,
"Stainless Steel Baby Feeding Bottle, Capacity: 200 mL",https://www.indiamart.com/proddetail/stainless-steel-baby-feeding-bottle-2854703140191.html?pos=145&kwd=glass baby feeding bottle&tags=||||8211.142||product|||MDC|rsf:gd-|-stype:attr=1|qr_nm:gd|res:RC4|com-cf:nl|ptrs:na|ktp:N0|mc:443896|mtp:S|qry_typ:P|lang:en|wc:4|cs:8900|v=4,Brinox International,https://www.indiamart.com/brinox-international/?pos=145&kwd=glass baby feeding bottle&tags=||||8211.142||product|||MDC|rsf:gd-|-stype:attr=1|qr_nm:gd|res:RC4|com-cf:nl|ptrs:na|ktp:N0|mc:443896|mtp:S|qry_typ:P|lang:en|wc:4|cs:8900|v=4,False,,Mumbai,"501/502,5th Floor,Padmavati Niwas,Sadashiv Cross Lane, Nr. Sanskar Bal Mandir,Girgaon, Mumbai - 400004, Dist.Mumbai, Maharashtra",7949324583,
"White Metal Stainless Steel Baby Feeding Bottle, Capacity: 200 mL",https://www.indiamart.com/proddetail/stainless-steel-baby-feeding-bottle-2853858030548.html?pos=146&kwd=glass baby feeding bottle&tags=||||8210.732||product|||MDC|rsf:gd-|-stype:attr=1|qr_nm:gd|res:RC4|com-cf:nl|ptrs:na|ktp:N0|mc:443896|mtp:S|qry_typ:P|lang:en|wc:4|cs:8900|v=4,Navkar 9 Plastics & Steels,https://www.indiamart.com/navkar9-plastics-steels/?pos=146&kwd=glass baby feeding bottle&tags=||||8210.732||product|||MDC|rsf:gd-|-stype:attr=1|qr_nm:gd|res:RC4|com-cf:nl|ptrs:na|ktp:N0|mc:443896|mtp:S|qry_typ:P|lang:en|wc:4|cs:8900|v=4,False,Vasai East,Vasai Virar,"Ground Floor Gala No. 04 Raees Nagar, Khairpada, Bilalpada, Vasai East, Vasai Virar - 401208, Dist.Thane, Maharashtra",7949086716,
"Plastic Doraemon Gold Feeding Bottle Baby Milk Bottle, Capacity: 250 ml, Age Group: Newly Born",https://www.indiamart.com/proddetail/doraemon-gold-feeding-bottle-baby-milk-bottle-2854534507512.html?pos=147&kwd=glass baby feeding bottle&tags=||||8038.093|Price|product|||MDC|rsf:gd-|-stype:attr=1|qr_nm:gd|res:RC4|com-cf:nl|ptrs:na|ktp:N0|mc:443896|mtp:S|qry_typ:P|lang:en|wc:4|cs:8900|v=4,My Medicine,https://www.indiamart.com/mymedicinerajkot/?pos=147&kwd=glass baby feeding bottle&tags=||||8038.093|Price|product|||MDC|rsf:gd-|-stype:attr=1|qr_nm:gd|res:RC4|com-cf:nl|ptrs:na|ktp:N0|mc:443896|mtp:S|qry_typ:P|lang:en|wc:4|cs:8900|v=4,False,,Rajkot,"8, Git Gurjari Scoiety, My Medicine, Air Port Road, Opp. Nilkant Mahadev Temple, Rajkot - 360007, Dist.Rajkot, Gujarat",7949336599,
30ml Amber Glass Spray Bottle,https://www.indiamart.com/proddetail/amber-glass-spray-bottle-19914850297.html?pos=148&kwd=glass baby feeding bottle&tags=D||||8663.873|Price|proxy|||TS|rsf:gd-|-stype:attr=1|qr_nm:gd|res:RC4|com-cf:nl|ptrs:na|ktp:N0|mc:443896|mtp:S|qry_typ:P|lang:en|wc:4|cs:8900|v=4,Nandini Marketing Company,https://www.nandinimarketing.com/?pos=148&kwd=glass baby feeding bottle&tags=D||||8663.873|Price|proxy|||TS|rsf:gd-|-stype:attr=1|qr_nm:gd|res:RC4|com-cf:nl|ptrs:na|ktp:N0|mc:443896|mtp:S|qry_typ:P|lang:en|wc:4|cs:8900|v=4,False,Rajarajeshwari Nagar Janapriya Abodes,Bengaluru,"174, Ground Floor, Nandini Mansion, 3rd Main, 5th Cross, Kenchenahalli, Rajarajeshwari Nagar, Bangalore,bengaluru (Bangalore) Urban, Rajarajeshwari Nagar Janapriya Abodes, Bengaluru - 560098, Dist.Bengaluru, Karnataka",8048976564,
"Plastic NICE KIDS BOTTLE, Capacity: 500 mL",https://www.indiamart.com/proddetail/nice-kids-bottle-2854404322462.html?pos=149&kwd=glass baby feeding bottle&tags=||||8230.883|Price|product|||TS|rsf:gd-|-stype:attr=1|qr_nm:gd|res:RC4|com-cf:nl|ptrs:na|ktp:N0|mc:443896|mtp:S|qry_typ:P|lang:en|wc:4|cs:8900|v=4,Isabella (A Brand Of Shayona Creation),https://www.srkmart.com/?pos=149&kwd=glass baby feeding bottle&tags=||||8230.883|Price|product|||TS|rsf:gd-|-stype:attr=1|qr_nm:gd|res:RC4|com-cf:nl|ptrs:na|ktp:N0|mc:443896|mtp:S|qry_typ:P|lang:en|wc:4|cs:8900|v=4,False,Utran,Surat,"208, Turning Point Near Bank Of Baroda Bank, Utran, Surat - 394105, Dist.Surat, Gujarat",8046057635,
"Silicone Baby Feeding Set, 6pcs Baby Feeding Product,Suction Plate, Bowl,Cup, Spoon, Fork",https://www.indiamart.com/proddetail/silicone-baby-feeding-set-6pcs-baby-feeding-product-suction-plate-bowl-cup-spoon-fork-2854759955833.html?pos=150&kwd=glass baby feeding bottle&tags=||||8230.883|Price|product|||TS|rsf:gd-|-stype:attr=1|qr_nm:gd|res:RC4|com-cf:nl|ptrs:na|ktp:N0|mc:443896|mtp:S|qry_typ:P|lang:en|wc:4|cs:8900|v=4,Tallin Sales,https://www.indiamart.com/tallin-sales/?pos=150&kwd=glass baby feeding bottle&tags=||||8230.883|Price|product|||TS|rsf:gd-|-stype:attr=1|qr_nm:gd|res:RC4|com-cf:nl|ptrs:na|ktp:N0|mc:443896|mtp:S|qry_typ:P|lang:en|wc:4|cs:8900|v=4,False,Singanpor,Surat,"Lakshmi Enclave Basement near Gajera School, Singanpor, Surat - 395004, Dist.Surat, Gujarat",7942542891,
Baby Silicone Soother,https://www.indiamart.com/proddetail/baby-silicone-soother-15491972597.html?pos=151&kwd=glass baby feeding bottle&tags=||||8211.142|Price|product|||TS|rsf:gd-|-stype:attr=1|qr_nm:gd|res:RC4|com-cf:nl|ptrs:na|ktp:N0|mc:443896|mtp:S|qry_typ:P|lang:en|wc:4|cs:8900|v=4,Gujarat Polymers,https://www.indiamart.com/gujaratpolymers-maharashtra/?pos=151&kwd=glass baby feeding bottle&tags=||||8211.142|Price|product|||TS|rsf:gd-|-stype:attr=1|qr_nm:gd|res:RC4|com-cf:nl|ptrs:na|ktp:N0|mc:443896|mtp:S|qry_typ:P|lang:en|wc:4|cs:8900|v=4,False,Andheri West,Mumbai,"No. 602, Centre Square, SV Road, Andheri West, Andheri West, Mumbai - 400058, Dist.Mumbai, Maharashtra",8046078043,
Blue Silicon baby feeding set,https://www.indiamart.com/proddetail/silicon-baby-feeding-set-2854472687162.html?pos=152&kwd=glass baby feeding bottle&tags=||||7981.7773|Price|product|||TS|rsf:gd-|-stype:attr=1|qr_nm:gd|res:RC4|com-cf:nl|ptrs:na|ktp:N0|mc:443896|mtp:S|qry_typ:P|lang:en|wc:4|cs:8900|v=4,Shreeji Enterprise,https://www.indiamart.com/shreejienterprisegandhidham/?pos=152&kwd=glass baby feeding bottle&tags=||||7981.7773|Price|product|||TS|rsf:gd-|-stype:attr=1|qr_nm:gd|res:RC4|com-cf:nl|ptrs:na|ktp:N0|mc:443896|mtp:S|qry_typ:P|lang:en|wc:4|cs:8900|v=4,False,Golden Heights,Gandhidham,"108, Golden Height, Opposite Hotel Shiv Grand, Behind Petrol Pump, Golden Heights, Gandhidham - 370201, Dist.Kachchh, Gujarat",7942553471,
"Transparent Plastic Baby Fruit Feeder, Capacity: 50 mL, 3-12 Months",https://www.indiamart.com/proddetail/baby-fruit-feeder-2852991118033.html?pos=153&kwd=glass baby feeding bottle&tags=||||8752.144|Price|product|||TS|rsf:gd-|-stype:attr=1|qr_nm:gd|res:RC4|com-cf:nl|ptrs:na|ktp:N0|mc:443896|mtp:S|qry_typ:P|lang:en|wc:4|cs:8900|v=4,B.S. ENTERPRISES,https://www.indiamart.com/yoneedo-delhi/?pos=153&kwd=glass baby feeding bottle&tags=||||8752.144|Price|product|||TS|rsf:gd-|-stype:attr=1|qr_nm:gd|res:RC4|com-cf:nl|ptrs:na|ktp:N0|mc:443896|mtp:S|qry_typ:P|lang:en|wc:4|cs:8900|v=4,False,Shalimar Village,New Delhi,"C-61 GALI NO 8 SHALIMAR VILLAGE Shalimar Village, Shalimar Village, New Delhi - 110088, Dist.Delhi, Delhi",8048955523,
"Blue Squeezy Silicone Food Feeder, Age Group: 3-12 Months, Capacity: 125ml",https://www.indiamart.com/proddetail/squeezy-silicone-food-feeder-25599631391.html?pos=154&kwd=glass baby feeding bottle&tags=||||8211.142|Price|product|||TS|rsf:gd-|-stype:attr=1|qr_nm:gd|res:RC4|com-cf:nl|ptrs:na|ktp:N0|mc:443896|mtp:S|qry_typ:P|lang:en|wc:4|cs:8900|v=4,Silicone Products (India),https://www.indiamart.com/silicone-products-india/?pos=154&kwd=glass baby feeding bottle&tags=||||8211.142|Price|product|||TS|rsf:gd-|-stype:attr=1|qr_nm:gd|res:RC4|com-cf:nl|ptrs:na|ktp:N0|mc:443896|mtp:S|qry_typ:P|lang:en|wc:4|cs:8900|v=4,False,Borivali,Mumbai,"102, Aadinath Park Chs, 51 St Road, Shimpoli, Borivali West, Mumbai Suburban, Borivali, Mumbai - 400092, Dist.Mumbai, Maharashtra",8047652110,
Bos Medicare Baby Nipple,https://www.indiamart.com/proddetail/bos-medicare-baby-nipple-25013868873.html?pos=155&kwd=glass baby feeding bottle&tags=||||8752.144|Price|product|||TS|rsf:gd-|-stype:attr=1|qr_nm:gd|res:RC4|com-cf:nl|ptrs:na|ktp:N0|mc:443896|mtp:S|qry_typ:P|lang:en|wc:4|cs:8900|v=4,Bos Medicare Surgical,https://www.bosmedicare.com/?pos=155&kwd=glass baby feeding bottle&tags=||||8752.144|Price|product|||TS|rsf:gd-|-stype:attr=1|qr_nm:gd|res:RC4|com-cf:nl|ptrs:na|ktp:N0|mc:443896|mtp:S|qry_typ:P|lang:en|wc:4|cs:8900|v=4,False,Kishan Ganj,New Delhi,"Shop No 155, Kishan Ganj Market, Old Rohtak Road, Kishan Ganj, Kishan Ganj, New Delhi - 110007, Dist.Delhi, Delhi",7942826425,
Baby Soother .,https://www.indiamart.com/proddetail/baby-soother-2853570013930.html?pos=156&kwd=glass baby feeding bottle&tags=||||8228.275|Price|product|||TS|rsf:gd-|-stype:attr=1|qr_nm:gd|res:RC4|com-cf:nl|ptrs:na|ktp:N0|mc:443896|mtp:S|qry_typ:P|lang:en|wc:4|cs:8900|v=4,Smonkare Impex Private Limited,https://www.psychiatricmedicines.com/?pos=156&kwd=glass baby feeding bottle&tags=||||8228.275|Price|product|||TS|rsf:gd-|-stype:attr=1|qr_nm:gd|res:RC4|com-cf:nl|ptrs:na|ktp:N0|mc:443896|mtp:S|qry_typ:P|lang:en|wc:4|cs:8900|v=4,False,Chanakyapuri,Ahmedabad,"1st Floor,1,2, Malhar Complex, Near Sola Railway Overbridge Science City Road, Chanakyapuri, Ahmedabad - 380060, Dist.Ahmedabad, Gujarat",8048985231,
"Mild Steel Baby Bottle Warmer, For Hospital",https://www.indiamart.com/proddetail/baby-bottle-warmer-22488847730.html?pos=157&kwd=glass baby feeding bottle&tags=||||9110.092|Price|product|||TS|rsf:gd-|-stype:attr=1|qr_nm:gd|res:RC4|com-cf:nl|ptrs:na|ktp:N0|mc:443896|mtp:S|qry_typ:P|lang:en|wc:4|cs:8900|v=4,Amraa Enterprises,https://www.amraaenterprises.com/?pos=157&kwd=glass baby feeding bottle&tags=||||9110.092|Price|product|||TS|rsf:gd-|-stype:attr=1|qr_nm:gd|res:RC4|com-cf:nl|ptrs:na|ktp:N0|mc:443896|mtp:S|qry_typ:P|lang:en|wc:4|cs:8900|v=4,False,Rajajipuram,Lucknow,"Plot No. 16, Devpur, Kesari Khera Ward, Rajajipuram, Rajajipuram, Lucknow - 226017, Dist.Lucknow, Uttar Pradesh",7942539974,
Chic Buddy Silicone Baby Tiny Cup with Spoon for Infants First Stage Training,https://www.indiamart.com/proddetail/chic-buddy-silicone-baby-tiny-cup-with-spoon-for-infants-first-stage-training-2848988232762.html?pos=158&kwd=glass baby feeding bottle&tags=||||8786.56|Price|product|||TS|rsf:gd-|-stype:attr=1|qr_nm:gd|res:RC4|com-cf:nl|ptrs:na|ktp:N0|mc:443896|mtp:S|qry_typ:P|lang:en|wc:4|cs:8900|v=4,Totcase Services Private Limited,https://www.totcase.com/?pos=158&kwd=glass baby feeding bottle&tags=||||8786.56|Price|product|||TS|rsf:gd-|-stype:attr=1|qr_nm:gd|res:RC4|com-cf:nl|ptrs:na|ktp:N0|mc:443896|mtp:S|qry_typ:P|lang:en|wc:4|cs:8900|v=4,False,Alwal,Hyderabad,"1-4-177/ A13/402 Shivasai Residency Greenwood Colony Old Alwal, Alwal, Hyderabad - 500010, Dist.Hyderabad, Telangana",8045910096,
"Feeding Bottles & Sippers, Stainless Steel 304 Grade, Best Quality & Lowest Price",https://www.indiamart.com/proddetail/feeding-bottles-sippers-stainless-steel-304-grade-best-quality-lowest-price-24525737773.html?pos=159&kwd=glass baby feeding bottle&tags=||||8954.051|Price|product|||TS|rsf:gd-|-stype:attr=1|qr_nm:gd|res:RC4|com-cf:nl|ptrs:na|ktp:N0|mc:443896|mtp:S|qry_typ:P|lang:en|wc:4|cs:8900|v=4,KA Plastic & Safety India,https://www.indiamart.com/kaplastic-safetyindia/?pos=159&kwd=glass baby feeding bottle&tags=||||8954.051|Price|product|||TS|rsf:gd-|-stype:attr=1|qr_nm:gd|res:RC4|com-cf:nl|ptrs:na|ktp:N0|mc:443896|mtp:S|qry_typ:P|lang:en|wc:4|cs:8900|v=4,False,Tondiarpet,Chennai,"No.98, SN Chetty Street , Kasimedu, Tondiarpet, Chennai - 600057, Dist.Chennai, Tamil Nadu",7942550416,
"Metal Stainless Steel Feeding Bottle, Capacity: 250 mL, Baby",https://www.indiamart.com/proddetail/stainless-steel-feeding-bottle-2854849273930.html?pos=160&kwd=glass baby feeding bottle&tags=||||8038.093|Price|product|||TS|rsf:gd-|-stype:attr=1|qr_nm:gd|res:RC4|com-cf:nl|ptrs:na|ktp:N0|mc:443896|mtp:S|qry_typ:P|lang:en|wc:4|cs:8900|v=4,Kohinoor Overseas,https://www.kohinoorkitchenware.com/?pos=160&kwd=glass baby feeding bottle&tags=||||8038.093|Price|product|||TS|rsf:gd-|-stype:attr=1|qr_nm:gd|res:RC4|com-cf:nl|ptrs:na|ktp:N0|mc:443896|mtp:S|qry_typ:P|lang:en|wc:4|cs:8900|v=4,False,Indira Nagar,Rajkot,"Plot No-13 Sahakar Main Road Street No 5 Shree Krushnanagar Co Opp Housing Ltd, Indira Nagar, Rajkot - 360002, Dist.Rajkot, Gujarat",8044564674,
"Silver Baby Feeding Bottle 250 mL, Packaging Type: Box, 1-2 Years",https://www.indiamart.com/proddetail/baby-feeding-bottle-250-ml-26854876212.html?pos=161&kwd=glass baby feeding bottle&tags=||||8752.144|Price|product|||TS|rsf:gd-|-stype:attr=1|qr_nm:gd|res:RC4|com-cf:nl|ptrs:na|ktp:N0|mc:443896|mtp:S|qry_typ:P|lang:en|wc:4|cs:8900|v=4,Shri Shyam Enterprises,https://www.indiamart.com/shrishyamenterprisesnewdelhi/?pos=161&kwd=glass baby feeding bottle&tags=||||8752.144|Price|product|||TS|rsf:gd-|-stype:attr=1|qr_nm:gd|res:RC4|com-cf:nl|ptrs:na|ktp:N0|mc:443896|mtp:S|qry_typ:P|lang:en|wc:4|cs:8900|v=4,False,Tajpur Kalan,New Delhi,"House No.392, First Floor, Village Tajpur Kalan, North Delhi, Tajpur Kalan, New Delhi - 110036, Dist.Delhi, Delhi",8048212783,
"Plastic White Flo Rite Feeding Bottle, Capacity: 125 ml, Age Group: Newly Born",https://www.indiamart.com/proddetail/flo-rite-feeding-bottle-2853860256097.html?pos=162&kwd=glass baby feeding bottle&tags=||||8211.142|Price|product|||MDC|rsf:gd-|-stype:attr=1|qr_nm:gd|res:RC4|com-cf:nl|ptrs:na|ktp:N0|mc:443896|mtp:S|qry_typ:P|lang:en|wc:4|cs:8900|v=4,Om Enterprise,https://www.indiamart.com/o-menterprise-mumbai/?pos=162&kwd=glass baby feeding bottle&tags=||||8211.142|Price|product|||MDC|rsf:gd-|-stype:attr=1|qr_nm:gd|res:RC4|com-cf:nl|ptrs:na|ktp:N0|mc:443896|mtp:S|qry_typ:P|lang:en|wc:4|cs:8900|v=4,False,Kandivali East,Mumbai,"Plot No 3-A, Shop No 5, Dharma Pratap Chs Ltd, Shanti Nagar A.C. Road, Kandivali East, Kandivali East, Mumbai - 400101, Dist.Mumbai, Maharashtra",8044013017,
"Luv Lap Essential Slim Neck Feeding Bottle, Capacity: 125 ml, Age Group: 3-12 Months",https://www.indiamart.com/proddetail/luv-lap-essential-slim-neck-feeding-bottle-2853403082662.html?pos=163&kwd=glass baby feeding bottle&tags=||||9618.383|Price|product|||MDC|rsf:gd-|-stype:attr=1|qr_nm:gd|res:RC4|com-cf:nl|ptrs:na|ktp:N0|mc:443896|mtp:S|qry_typ:P|lang:en|wc:4|cs:8900|v=4,Texco,https://www.indiamart.com/texco/?pos=163&kwd=glass baby feeding bottle&tags=||||9618.383|Price|product|||MDC|rsf:gd-|-stype:attr=1|qr_nm:gd|res:RC4|com-cf:nl|ptrs:na|ktp:N0|mc:443896|mtp:S|qry_typ:P|lang:en|wc:4|cs:8900|v=4,False,Bistupur,Jamshedpur,"Shop No. 2, Main Road, Bistupur, Bistupur, Jamshedpur - 831001, Dist.East Singhbhum, Jharkhand",7949092933,
"Astronaut Design Kids Sipper With Cap and Straw 400 ml Sipper (Pack of 1, Multicolor, Plastic)",https://www.indiamart.com/proddetail/astronaut-design-kids-sipper-with-cap-and-straw-400-ml-sipper-pack-of-1-multicolor-plastic-26038168797.html?pos=164&kwd=glass baby feeding bottle&tags=||||8752.144|Price|product|||MDC|rsf:gd-|-stype:attr=1|qr_nm:gd|res:RC4|com-cf:nl|ptrs:na|ktp:N0|mc:443896|mtp:S|qry_typ:P|lang:en|wc:4|cs:8900|v=4,Mehak Enterprises,https://www.indiamart.com/mehak-enterprises/?pos=164&kwd=glass baby feeding bottle&tags=||||8752.144|Price|product|||MDC|rsf:gd-|-stype:attr=1|qr_nm:gd|res:RC4|com-cf:nl|ptrs:na|ktp:N0|mc:443896|mtp:S|qry_typ:P|lang:en|wc:4|cs:8900|v=4,False,Ashok Vihar,New Delhi,"Shop No. 7, G Block Market, Ashok Vihar, Phase 1, Ashok Vihar, New Delhi - 110052, Dist.Delhi, Delhi",8046071382,
Mee Mee Blue 4 Oz Feeding Bottle,https://www.indiamart.com/proddetail/mee-mee-blue-4-oz-feeding-bottle-2853889937730.html?pos=165&kwd=glass baby feeding bottle&tags=||||8752.144|Price|product|||MDC|rsf:gd-|-stype:attr=1|qr_nm:gd|res:RC4|com-cf:nl|ptrs:na|ktp:N0|mc:443896|mtp:S|qry_typ:P|lang:en|wc:4|cs:8900|v=4,Junglesparsh,https://www.indiamart.com/junglesparsh/?pos=165&kwd=glass baby feeding bottle&tags=||||8752.144|Price|product|||MDC|rsf:gd-|-stype:attr=1|qr_nm:gd|res:RC4|com-cf:nl|ptrs:na|ktp:N0|mc:443896|mtp:S|qry_typ:P|lang:en|wc:4|cs:8900|v=4,False,Dakshinpuri,New Delhi,"H-431, Dakshinpuri Ambedkar Nagar Sector-5, Dakshinpuri, New Delhi - 110062, Dist.Delhi, Delhi",7949086690,
Stainless Steel And Glass Oil Dispenser Bottle With Measuring Scale,https://www.indiamart.com/proddetail/stainless-steel-and-glass-oil-dispenser-bottle-with-measuring-scale-2852401757855.html?pos=166&kwd=glass baby feeding bottle&tags=||||8752.144|Price|product|||MDC|rsf:gd-|-stype:attr=1|qr_nm:gd|res:RC4|com-cf:nl|ptrs:na|ktp:N0|mc:443896|mtp:S|qry_typ:P|lang:en|wc:4|cs:8900|v=4,Moulshree Impex,https://www.indiamart.com/moulshree-impex-delhi/?pos=166&kwd=glass baby feeding bottle&tags=||||8752.144|Price|product|||MDC|rsf:gd-|-stype:attr=1|qr_nm:gd|res:RC4|com-cf:nl|ptrs:na|ktp:N0|mc:443896|mtp:S|qry_typ:P|lang:en|wc:4|cs:8900|v=4,False,Karol Bagh,New Delhi,"khasra No. 25/14, Karol Bagh, New Delhi - 110041, Dist.Delhi, Delhi",7942843759,
Bloombaby PES Microwave Safe Light Glass Standard Neck Baby Feeding Bottle125 ml (Orange),https://www.indiamart.com/proddetail/bloombaby-pes-microwave-safe-light-glass-standard-neck-baby-feeding-bottle125-ml-orange-21929809555.html?pos=167&kwd=glass baby feeding bottle&tags=CA||||8752.144|Price|product|||NA|rsf:gd-|-stype:attr=1|qr_nm:gd|res:RC4|com-cf:nl|ptrs:na|ktp:N0|mc:443896|mtp:S|qry_typ:P|lang:en|wc:4|cs:8900|v=4,Sushil Agencies,https://www.indiamart.com/sushil-agencies/?pos=167&kwd=glass baby feeding bottle&tags=CA||||8752.144|Price|product|||NA|rsf:gd-|-stype:attr=1|qr_nm:gd|res:RC4|com-cf:nl|ptrs:na|ktp:N0|mc:443896|mtp:S|qry_typ:P|lang:en|wc:4|cs:8900|v=4,False,Hari Nagar,New Delhi,"Sita Bhawan Be 339 B Street No 2 Hari Nagar, Hari Nagar, New Delhi - 110064, Dist.Delhi, Delhi",7949350493,
Capacity: 500 mL Blue Plastic Baby Sipper Bottle,https://www.indiamart.com/proddetail/plastic-baby-sipper-bottle-2852951365673.html?pos=168&kwd=glass baby feeding bottle&tags=||||8038.093|Price|product|||MDC|rsf:gd-|-stype:attr=1|qr_nm:gd|res:RC4|com-cf:nl|ptrs:na|ktp:N0|mc:443896|mtp:S|qry_typ:P|lang:en|wc:4|cs:8900|v=4,Alloy Exim,https://www.indiamart.com/maruti-enterpriserajkot-gujarat/?pos=168&kwd=glass baby feeding bottle&tags=||||8038.093|Price|product|||MDC|rsf:gd-|-stype:attr=1|qr_nm:gd|res:RC4|com-cf:nl|ptrs:na|ktp:N0|mc:443896|mtp:S|qry_typ:P|lang:en|wc:4|cs:8900|v=4,False,Rohidaspra,Rajkot,"Near Morbi Jakat Naku , Plot No.22/B ,Maruti, Jamana Park Street No. 3, Momai Auto Garage, Shree Ram Society, Rohidaspra, Rajkot - 360003, Dist.Rajkot, Gujarat",7942968638,
Bonne Feeding Bottle,https://www.indiamart.com/proddetail/bonne-feeding-bottle-2849671077412.html?pos=169&kwd=glass baby feeding bottle&tags=||||9520.041||product|||MDC|rsf:gd-|-stype:attr=1|qr_nm:gd|res:RC4|com-cf:nl|ptrs:na|ktp:N0|mc:443896|mtp:S|qry_typ:P|lang:en|wc:4|cs:8900|v=4,SS Products,https://www.indiamart.com/ssproducts-patna/?pos=169&kwd=glass baby feeding bottle&tags=||||9520.041||product|||MDC|rsf:gd-|-stype:attr=1|qr_nm:gd|res:RC4|com-cf:nl|ptrs:na|ktp:N0|mc:443896|mtp:S|qry_typ:P|lang:en|wc:4|cs:8900|v=4,False,Ranipur Khidki,Patna,"Main chowk oppt Ramyonds show Room, Ranipur Khidki, Patna - 800008, Dist.Patna, Bihar",8047641590,
"Plastic Auto Flow Smart Feeding Bottle, Capacity: 150 ml, Age Group: Newly Born",https://www.indiamart.com/proddetail/auto-flow-smart-feeding-bottle-2854915046788.html?pos=170&kwd=glass baby feeding bottle&tags=||||8663.873|Price|product|||MDC|rsf:gd-|-stype:attr=1|qr_nm:gd|res:RC4|com-cf:nl|ptrs:na|ktp:N0|mc:443896|mtp:S|qry_typ:P|lang:en|wc:4|cs:8900|v=4,Mahadev Enterprise,https://www.indiamart.com/mahadeventerprisebengaluru/?pos=170&kwd=glass baby feeding bottle&tags=||||8663.873|Price|product|||MDC|rsf:gd-|-stype:attr=1|qr_nm:gd|res:RC4|com-cf:nl|ptrs:na|ktp:N0|mc:443896|mtp:S|qry_typ:P|lang:en|wc:4|cs:8900|v=4,False,,Bengaluru,"No 14, 3rd Main 6th Cross Gururaja Layout, Doddanekundi Marathalli Urban, Bengaluru - 560037, Dist.Bengaluru, Karnataka",8044456382,
"Size: 20 cm Material: Plastic KidEarth Baby Spoon Feeder, For Home, Capacity: 200 mL",https://www.indiamart.com/proddetail/kidearth-baby-spoon-feeder-2854760457012.html?pos=171&kwd=glass baby feeding bottle&tags=||||8752.144|Price|product|||MDC|rsf:gd-|-stype:attr=1|qr_nm:gd|res:RC4|com-cf:nl|ptrs:na|ktp:N0|mc:443896|mtp:S|qry_typ:P|lang:en|wc:4|cs:8900|v=4,L T Textiles,https://www.indiamart.com/lttextiles/?pos=171&kwd=glass baby feeding bottle&tags=||||8752.144|Price|product|||MDC|rsf:gd-|-stype:attr=1|qr_nm:gd|res:RC4|com-cf:nl|ptrs:na|ktp:N0|mc:443896|mtp:S|qry_typ:P|lang:en|wc:4|cs:8900|v=4,False,Pahari Dhiraj,New Delhi,"5189-90 Main Road, Sadar Bazar, Pahari Dhiraj, New Delhi - 110006, Dist.Delhi, Delhi",7942958455,
"Plastic White Philips Avent Grow Feeding Bottle, Age Group: Newly Born",https://www.indiamart.com/proddetail/philips-avent-grow-feeding-bottle-2853612818062.html?pos=172&kwd=glass baby feeding bottle&tags=||||8753.51|Price|product|||MDC|rsf:gd-|-stype:attr=1|qr_nm:gd|res:RC4|com-cf:nl|ptrs:na|ktp:N0|mc:443896|mtp:S|qry_typ:P|lang:en|wc:4|cs:8900|v=4,Jeet And Company,https://www.indiamart.com/jeetcompany-karnal/?pos=172&kwd=glass baby feeding bottle&tags=||||8753.51|Price|product|||MDC|rsf:gd-|-stype:attr=1|qr_nm:gd|res:RC4|com-cf:nl|ptrs:na|ktp:N0|mc:443896|mtp:S|qry_typ:P|lang:en|wc:4|cs:8900|v=4,False,Market,Karnal,"8-10, Red Cross Market, Market, Karnal - 132001, Dist.Karnal, Haryana",7949083305,
Denim Plain Large Avent Size Baby Feeding Bottle Cover,https://www.indiamart.com/proddetail/denim-plain-large-avent-size-baby-feeding-bottle-cover-2852570481930.html?pos=173&kwd=glass baby feeding bottle&tags=||||8752.144|Price|product|||TS|rsf:gd-|-stype:attr=1|qr_nm:gd|res:RC4|com-cf:nl|ptrs:na|ktp:N0|mc:443896|mtp:S|qry_typ:P|lang:en|wc:4|cs:8900|v=4,Man Singh & Sons Private Limited,https://www.babyproductsmanufacturer.com/?pos=173&kwd=glass baby feeding bottle&tags=||||8752.144|Price|product|||TS|rsf:gd-|-stype:attr=1|qr_nm:gd|res:RC4|com-cf:nl|ptrs:na|ktp:N0|mc:443896|mtp:S|qry_typ:P|lang:en|wc:4|cs:8900|v=4,False,Karol Bagh,New Delhi,"No. 13/24, 1st Floor, W. E. A., Karol Bagh, Karol Bagh, New Delhi - 110005, Dist.Delhi, Delhi",8048978579,
Baby Glass Feeding Bottle 120ml With Sleeve (Cover),https://www.indiamart.com/proddetail/baby-glass-feeding-bottle-120ml-with-sleeve-cover-2854979627573.html?pos=174&kwd=glass baby feeding bottle&tags=||||8752.144|Price|product|||TS|rsf:gd-|-stype:attr=1|qr_nm:gd|res:RC4|com-cf:nl|ptrs:na|ktp:N0|mc:443896|mtp:S|qry_typ:P|lang:en|wc:4|cs:8900|v=4,Dolphin Baby Product,https://www.dolphinbabyproducts.com/?pos=174&kwd=glass baby feeding bottle&tags=||||8752.144|Price|product|||TS|rsf:gd-|-stype:attr=1|qr_nm:gd|res:RC4|com-cf:nl|ptrs:na|ktp:N0|mc:443896|mtp:S|qry_typ:P|lang:en|wc:4|cs:8900|v=4,False,Inderlok,New Delhi,"No. 488, 1st Floor, Shahzada Bagh, Industrial Area Phase 1, Inderlok, New Delhi - 110035, Dist.Delhi, Delhi",8048965296,
Multicolored Baby Feeding Bottle Cover,https://www.indiamart.com/proddetail/multicolored-baby-feeding-bottle-cover-20730819712.html?pos=175&kwd=glass baby feeding bottle&tags=||||8752.144|Price|product|||TS|rsf:gd-|-stype:attr=1|qr_nm:gd|res:RC4|com-cf:nl|ptrs:na|ktp:N0|mc:443896|mtp:S|qry_typ:P|lang:en|wc:4|cs:8900|v=4,National Overseas,https://www.indiamart.com/nationaltraders-vishwashnagar/?pos=175&kwd=glass baby feeding bottle&tags=||||8752.144|Price|product|||TS|rsf:gd-|-stype:attr=1|qr_nm:gd|res:RC4|com-cf:nl|ptrs:na|ktp:N0|mc:443896|mtp:S|qry_typ:P|lang:en|wc:4|cs:8900|v=4,False,Shahdara,New Delhi,"1/99, Gali No. 3, Vishwas Nagar, Shahdara, New Delhi - 110032, Dist.Delhi, Delhi",8046047673,
Chhote Janab Baby Elephant Face Feeding Bottle Cover,https://www.indiamart.com/proddetail/baby-elephant-face-feeding-bottle-cover-19619931973.html?pos=176&kwd=glass baby feeding bottle&tags=||||8752.144|Price|product|||TS|rsf:gd-|-stype:attr=1|qr_nm:gd|res:RC4|com-cf:nl|ptrs:na|ktp:N0|mc:443896|mtp:S|qry_typ:P|lang:en|wc:4|cs:8900|v=4,Shree Balaji Infant Wear,https://www.indiamart.com/chhotejanab/?pos=176&kwd=glass baby feeding bottle&tags=||||8752.144|Price|product|||TS|rsf:gd-|-stype:attr=1|qr_nm:gd|res:RC4|com-cf:nl|ptrs:na|ktp:N0|mc:443896|mtp:S|qry_typ:P|lang:en|wc:4|cs:8900|v=4,False,Pahari Dhiraj,New Delhi,"1583- 84, Hathi Khana, Aziz Ganj, Bahadur Garh Road, Pahari Dhiraj, New Delhi - 110006, Dist.Delhi, Delhi",8047639754,
Transparent SKYBLUE - Baby Glass Feeding Bottle - 120ml,https://www.indiamart.com/proddetail/skyblue-baby-glass-feeding-bottle-120ml-2853805041433.html?pos=177&kwd=glass baby feeding bottle&tags=||||8752.144|Price|product|||TS|rsf:gd-|-stype:attr=1|qr_nm:gd|res:RC4|com-cf:nl|ptrs:na|ktp:N0|mc:443896|mtp:S|qry_typ:P|lang:en|wc:4|cs:8900|v=4,Ekta Overseas,https://www.indiamart.com/ektaoverseas-newdelhi/?pos=177&kwd=glass baby feeding bottle&tags=||||8752.144|Price|product|||TS|rsf:gd-|-stype:attr=1|qr_nm:gd|res:RC4|com-cf:nl|ptrs:na|ktp:N0|mc:443896|mtp:S|qry_typ:P|lang:en|wc:4|cs:8900|v=4,False,Shahdara,New Delhi,"1/95, Gali No.3, Near Navjeevan Phisical Center, Vishwas Nagar, Shahdara,, Shahdara, New Delhi - 110032, Dist.Delhi, Delhi",7942628926,
China Unicorn Kids Sipper ( Bottle),,Arishto Enterprises,https://www.indiamart.com/arishtoenterprises/?pos=178&kwd=glass baby feeding bottle&tags=||||8752.144|Price|product|||TS|rsf:gd-|-stype:attr=1|qr_nm:gd|res:RC4|com-cf:nl|ptrs:na|ktp:N0|mc:443896|mtp:S|qry_typ:P|lang:en|wc:4|cs:8900|v=4,False,Rohini Institutional Area,New Delhi,"A-2/141, Sector 3, Rohini, Rohini Institutional Area, New Delhi - 110085, Dist.Delhi, Delhi",8047632395,
Baby Feeding Bottle Cover,https://www.indiamart.com/proddetail/baby-feeding-bottle-cover-2854493964512.html?pos=179&kwd=glass baby feeding bottle&tags=||||8954.051|Price|product|||MDC|rsf:gd-|-stype:attr=1|qr_nm:gd|res:RC4|com-cf:nl|ptrs:na|ktp:N0|mc:443896|mtp:S|qry_typ:P|lang:en|wc:4|cs:8900|v=4,Earthwise Collective Private Limited,https://www.indiamart.com/earthwise-collective/?pos=179&kwd=glass baby feeding bottle&tags=||||8954.051|Price|product|||MDC|rsf:gd-|-stype:attr=1|qr_nm:gd|res:RC4|com-cf:nl|ptrs:na|ktp:N0|mc:443896|mtp:S|qry_typ:P|lang:en|wc:4|cs:8900|v=4,False,,Chennai,"9/2, 35/2, Bagirathiammal Street, T Nagar,, Chennai - 600017, Dist.Chennai, Tamil Nadu",7942801118,
Plastic Glass Baby Feeding Bottle,https://www.indiamart.com/proddetail/glass-baby-feeding-bottle-2854287451573.html?pos=180&kwd=glass baby feeding bottle&tags=||||8223.226|Price|product|||MDC|rsf:gd-|-stype:attr=1|qr_nm:gd|res:RC4|com-cf:nl|ptrs:na|ktp:N0|mc:443896|mtp:S|qry_typ:P|lang:en|wc:4|cs:8900|v=4,Royal Baby,https://www.indiamart.com/royal-baby-thane/?pos=180&kwd=glass baby feeding bottle&tags=||||8223.226|Price|product|||MDC|rsf:gd-|-stype:attr=1|qr_nm:gd|res:RC4|com-cf:nl|ptrs:na|ktp:N0|mc:443896|mtp:S|qry_typ:P|lang:en|wc:4|cs:8900|v=4,False,,Thane,"Ground Floor, Shop No. 03, Savitri Niwas Mumbai Pune Road, Amrutnagar, Sub Post Office, Mumbra, Thane - 400612, Dist.Thane, Maharashtra",8045734604,
Baby Feeding Bottle Cover,https://www.indiamart.com/proddetail/baby-feeding-bottle-cover-2854410237688.html?pos=181&kwd=glass baby feeding bottle&tags=||||9045.955|Price|product|||MDC|rsf:gd-|-stype:attr=1|qr_nm:gd|res:RC4|com-cf:nl|ptrs:na|ktp:N0|mc:443896|mtp:S|qry_typ:P|lang:en|wc:4|cs:8900|v=4,Kesharwani Caps & Gloves,https://www.indiamart.com/kesharwani-caps-gloves/?pos=181&kwd=glass baby feeding bottle&tags=||||9045.955|Price|product|||MDC|rsf:gd-|-stype:attr=1|qr_nm:gd|res:RC4|com-cf:nl|ptrs:na|ktp:N0|mc:443896|mtp:S|qry_typ:P|lang:en|wc:4|cs:8900|v=4,False,Meston Road,Kanpur,"33/80, Kesharwani Caps And Gloves, Topi Bazar, Chowk, Meston Road, Kanpur - 208001, Uttar Pradesh",7949336314,
"Baby Feeding Bottle Cover, Capacity: 250ml",https://www.indiamart.com/proddetail/baby-feeding-bottle-cover-2851755433162.html?pos=182&kwd=glass baby feeding bottle&tags=||||8752.144|Price|product|||MDC|rsf:gd-|-stype:attr=1|qr_nm:gd|res:RC4|com-cf:nl|ptrs:na|ktp:N0|mc:443896|mtp:S|qry_typ:P|lang:en|wc:4|cs:8900|v=4,B-Qube Enterprises,https://www.indiamart.com/bqube-enterprises/?pos=182&kwd=glass baby feeding bottle&tags=||||8752.144|Price|product|||MDC|rsf:gd-|-stype:attr=1|qr_nm:gd|res:RC4|com-cf:nl|ptrs:na|ktp:N0|mc:443896|mtp:S|qry_typ:P|lang:en|wc:4|cs:8900|v=4,False,Karol Bagh,New Delhi,"303, Iiird Floor,13/4, W.E.A.,Karol Bagh, Karol Bagh, New Delhi - 110005, Dist.Delhi, Delhi",8047313183,
"Stainless Steel Signoraware Charm Kids Vacuum Sipper 350ml, Capacity: 400 mL",https://www.indiamart.com/proddetail/signoraware-charm-kids-vacuum-sipper-350ml-2853360996088.html?pos=183&kwd=glass baby feeding bottle&tags=||||8307.81|Price|product|||TS|rsf:gd-|-stype:attr=1|qr_nm:gd|res:RC4|com-cf:nl|ptrs:na|ktp:N0|mc:443896|mtp:S|qry_typ:P|lang:en|wc:4|cs:8900|v=4,Mayur Distributors,https://www.celebner.in/?pos=183&kwd=glass baby feeding bottle&tags=||||8307.81|Price|product|||TS|rsf:gd-|-stype:attr=1|qr_nm:gd|res:RC4|com-cf:nl|ptrs:na|ktp:N0|mc:443896|mtp:S|qry_typ:P|lang:en|wc:4|cs:8900|v=4,False,Guruwar Peth,Pune,"No. 67, Guruwar Peth nr Shitala Devi Chowk, Guruwar Peth, Pune - 411042, Dist.Pune, Maharashtra",8048953748,
Bee Baby Glass Feeding Bottles,https://www.indiamart.com/proddetail/glass-feeding-bottles-20395228762.html?pos=184&kwd=glass baby feeding bottle&tags=||||8211.906|Price|product|||TS|rsf:gd-|-stype:attr=1|qr_nm:gd|res:RC4|com-cf:nl|ptrs:na|ktp:N0|mc:443896|mtp:S|qry_typ:P|lang:en|wc:4|cs:8900|v=4,Punamiya Exim Private Limited,https://www.punamiyaexim.co.in/?pos=184&kwd=glass baby feeding bottle&tags=||||8211.906|Price|product|||TS|rsf:gd-|-stype:attr=1|qr_nm:gd|res:RC4|com-cf:nl|ptrs:na|ktp:N0|mc:443896|mtp:S|qry_typ:P|lang:en|wc:4|cs:8900|v=4,False,Umargam,Umargam,"Near To Sonal Plastic, Plot No 828 A GIDC, Plot No 828 A GIDC, Umbergaon Station Road, GIDC, Umargam, Umargam - 396171, Dist.Valsad, Gujarat",8048976705,
"Size: 7 cm Baby Silicone Spoons, For Home",https://www.indiamart.com/proddetail/baby-silicone-spoons-2854773939297.html?pos=185&kwd=glass baby feeding bottle&tags=||||8038.093|Price|product|||TS|rsf:gd-|-stype:attr=1|qr_nm:gd|res:RC4|com-cf:nl|ptrs:na|ktp:N0|mc:443896|mtp:S|qry_typ:P|lang:en|wc:4|cs:8900|v=4,Aditi Techno LLP,https://www.indiamart.com/adititechno/?pos=185&kwd=glass baby feeding bottle&tags=||||8038.093|Price|product|||TS|rsf:gd-|-stype:attr=1|qr_nm:gd|res:RC4|com-cf:nl|ptrs:na|ktp:N0|mc:443896|mtp:S|qry_typ:P|lang:en|wc:4|cs:8900|v=4,False,Metoda,Rajkot,"Plot No-2628/3, Gate No-1, Main Road, Metoda GIDC,, Metoda, Rajkot - 360021, Dist.Rajkot, Gujarat",8046041944,
260Ml 304G Baby Milk Feeding Bottle,https://www.indiamart.com/proddetail/260ml-304g-baby-milk-feeding-bottle-22008534812.html?pos=186&kwd=glass baby feeding bottle&tags=||||8752.144|Price|product|||TS|rsf:gd-|-stype:attr=1|qr_nm:gd|res:RC4|com-cf:nl|ptrs:na|ktp:N0|mc:443896|mtp:S|qry_typ:P|lang:en|wc:4|cs:8900|v=4,Aradhya Steel Industries,https://www.indiamart.com/aradhya-steel-industries/?pos=186&kwd=glass baby feeding bottle&tags=||||8752.144|Price|product|||TS|rsf:gd-|-stype:attr=1|qr_nm:gd|res:RC4|com-cf:nl|ptrs:na|ktp:N0|mc:443896|mtp:S|qry_typ:P|lang:en|wc:4|cs:8900|v=4,False,Wazirpur Industrial Area,New Delhi,"A-29, Group, Wazirpur Industrial Area, Wazirpur Industrial Area, New Delhi - 110052, Dist.Delhi, Delhi",7942533471,
"Arihant Multicolor Plastic Baby Sipper Teddy Virgin, For Home",https://www.indiamart.com/proddetail/plastic-baby-sipper-teddy-virgin-24550491797.html?pos=187&kwd=glass baby feeding bottle&tags=||||8228.275|Price|product|||TS|rsf:gd-|-stype:attr=1|qr_nm:gd|res:RC4|com-cf:nl|ptrs:na|ktp:N0|mc:443896|mtp:S|qry_typ:P|lang:en|wc:4|cs:8900|v=4,Shree Arihant Marketing,https://www.shreearihantmarketing.in/?pos=187&kwd=glass baby feeding bottle&tags=||||8228.275|Price|product|||TS|rsf:gd-|-stype:attr=1|qr_nm:gd|res:RC4|com-cf:nl|ptrs:na|ktp:N0|mc:443896|mtp:S|qry_typ:P|lang:en|wc:4|cs:8900|v=4,False,Lambha,Ahmedabad,"96/3, N.I.D.C Near Khajuri Bus Stop, Lambha, Ahmedabad - 382405, Dist.Ahmedabad, Gujarat",8048964470,
"Silver 1100ml ss bottle, Steel Screw Type Cap",https://www.indiamart.com/proddetail/1100ml-ss-bottle-26095479491.html?pos=188&kwd=glass baby feeding bottle&tags=||||8584.299|Price|product|||TS|rsf:gd-|-stype:attr=1|qr_nm:gd|res:RC4|com-cf:nl|ptrs:na|ktp:N0|mc:443896|mtp:S|qry_typ:P|lang:en|wc:4|cs:8900|v=4,Ayurcop Enterprises,https://www.ayurcopenterprises.in/?pos=188&kwd=glass baby feeding bottle&tags=||||8584.299|Price|product|||TS|rsf:gd-|-stype:attr=1|qr_nm:gd|res:RC4|com-cf:nl|ptrs:na|ktp:N0|mc:443896|mtp:S|qry_typ:P|lang:en|wc:4|cs:8900|v=4,False,Jagdish Nagar,Coimbatore,"Sf/No 80/1b, Thimmiya Nagar, Jagdish Nagar, Coimbatore - 641007, Dist.Coimbatore, Tamil Nadu",8048956760,
Kitchen Plate Stand,https://www.indiamart.com/proddetail/kitchen-plate-stand-25504900062.html?pos=189&kwd=glass baby feeding bottle&tags=||||8752.144|Price|product|||TS|rsf:gd-|-stype:attr=1|qr_nm:gd|res:RC4|com-cf:nl|ptrs:na|ktp:N0|mc:443896|mtp:S|qry_typ:P|lang:en|wc:4|cs:8900|v=4,Kedy Mart Private Limited,https://www.kedymart.net/?pos=189&kwd=glass baby feeding bottle&tags=||||8752.144|Price|product|||TS|rsf:gd-|-stype:attr=1|qr_nm:gd|res:RC4|com-cf:nl|ptrs:na|ktp:N0|mc:443896|mtp:S|qry_typ:P|lang:en|wc:4|cs:8900|v=4,False,Rithala,New Delhi,"khasra No 1008/9, Rohini, New Delhi Landmark Na New Delhi Rithala, Rithala, New Delhi - 110085, Dist.Delhi, Delhi",8048273345,
"Double Wall Heavy Stainless Steel Copper Inside Water Bottle, Capacity: 750 mL",https://www.indiamart.com/proddetail/double-wall-heavy-stainless-steel-copper-inside-water-bottle-2852056153933.html?pos=190&kwd=glass baby feeding bottle&tags=||||8915.672|Price|product|||TS|rsf:gd-|-stype:attr=1|qr_nm:gd|res:RC4|com-cf:nl|ptrs:na|ktp:N0|mc:443896|mtp:S|qry_typ:P|lang:en|wc:4|cs:8900|v=4,Met Craft,https://www.metcrafter.com/?pos=190&kwd=glass baby feeding bottle&tags=||||8915.672|Price|product|||TS|rsf:gd-|-stype:attr=1|qr_nm:gd|res:RC4|com-cf:nl|ptrs:na|ktp:N0|mc:443896|mtp:S|qry_typ:P|lang:en|wc:4|cs:8900|v=4,False,katghar,Moradabad,"Road Kathghar Udpura, katghar, Moradabad - 244001, Dist.Moradabad, Uttar Pradesh",7942869512,
"Plastic NICE KIDS BOTTLE, Capacity: 500 mL",https://www.indiamart.com/proddetail/nice-kids-bottle-2854404322462.html?pos=191&kwd=glass baby feeding bottle&tags=||||8230.883|Price|product|||TS|rsf:gd-|-stype:attr=1|qr_nm:gd|res:RC4|com-cf:nl|ptrs:na|ktp:N0|mc:443896|mtp:S|qry_typ:P|lang:en|wc:4|cs:8900|v=4,Isabella (A Brand Of Shayona Creation),https://www.srkmart.com/?pos=191&kwd=glass baby feeding bottle&tags=||||8230.883|Price|product|||TS|rsf:gd-|-stype:attr=1|qr_nm:gd|res:RC4|com-cf:nl|ptrs:na|ktp:N0|mc:443896|mtp:S|qry_typ:P|lang:en|wc:4|cs:8900|v=4,False,Utran,Surat,"208, Turning Point Near Bank Of Baroda Bank, Utran, Surat - 394105, Dist.Surat, Gujarat",8046057635,
"Silicone Baby Feeding Set, 6pcs Baby Feeding Product,Suction Plate, Bowl,Cup, Spoon, Fork",https://www.indiamart.com/proddetail/silicone-baby-feeding-set-6pcs-baby-feeding-product-suction-plate-bowl-cup-spoon-fork-2854759955833.html?pos=192&kwd=glass baby feeding bottle&tags=||||8230.883|Price|product|||TS|rsf:gd-|-stype:attr=1|qr_nm:gd|res:RC4|com-cf:nl|ptrs:na|ktp:N0|mc:443896|mtp:S|qry_typ:P|lang:en|wc:4|cs:8900|v=4,Tallin Sales,https://www.indiamart.com/tallin-sales/?pos=192&kwd=glass baby feeding bottle&tags=||||8230.883|Price|product|||TS|rsf:gd-|-stype:attr=1|qr_nm:gd|res:RC4|com-cf:nl|ptrs:na|ktp:N0|mc:443896|mtp:S|qry_typ:P|lang:en|wc:4|cs:8900|v=4,False,Singanpor,Surat,"Lakshmi Enclave Basement near Gajera School, Singanpor, Surat - 395004, Dist.Surat, Gujarat",7942542891,
Red Silicon Chewing BAR Baby Teethers Feeders Soothers 100% Safe BPA Free,https://www.indiamart.com/proddetail/red-silicon-chewing-bar-baby-teethers-feeders-soothers-100-safe-bpa-free-2852714730255.html?pos=193&kwd=glass baby feeding bottle&tags=||||8778.123|Price|product|||TS|rsf:gd-|-stype:attr=1|qr_nm:gd|res:RC4|com-cf:nl|ptrs:na|ktp:N0|mc:443896|mtp:S|qry_typ:P|lang:en|wc:4|cs:8900|v=4,GM'S Speechgears Private Limited,https://www.indiamart.com/gmsspeechgears/?pos=193&kwd=glass baby feeding bottle&tags=||||8778.123|Price|product|||TS|rsf:gd-|-stype:attr=1|qr_nm:gd|res:RC4|com-cf:nl|ptrs:na|ktp:N0|mc:443896|mtp:S|qry_typ:P|lang:en|wc:4|cs:8900|v=4,False,Sector 65,Noida,"1st Floor, A-77, Sector-65, Gautambuddha Nagar, Sector 65, Noida - 201301, Dist.Gautam Budh Nagar, Uttar Pradesh",7942713454,
"White Silicone Baby Feeding Bottle, Age Group: 3-12 Months",https://www.indiamart.com/proddetail/silicone-baby-feeding-bottle-2854220077733.html?pos=194&kwd=glass baby feeding bottle&tags=||||8230.883|Price|product|||TS|rsf:gd-|-stype:attr=1|qr_nm:gd|res:RC4|com-cf:nl|ptrs:na|ktp:N0|mc:443896|mtp:S|qry_typ:P|lang:en|wc:4|cs:8900|v=4,BABYHOLIC,https://www.babyholic.in/?pos=194&kwd=glass baby feeding bottle&tags=||||8230.883|Price|product|||TS|rsf:gd-|-stype:attr=1|qr_nm:gd|res:RC4|com-cf:nl|ptrs:na|ktp:N0|mc:443896|mtp:S|qry_typ:P|lang:en|wc:4|cs:8900|v=4,False,,Surat,"Ground Floor, Plot No. F/56/, And F/57, Laxmi Narayan Industrial Estate, Udhana, Kailash Fashion, Surat - 394210, Dist.Surat, Gujarat",8045732096,
"Plastic White Baby Silicone Feeding Bottle, 100 mL, Age Group: 3-12 Months",https://www.indiamart.com/proddetail/baby-silicone-feeding-bottle-2852984546255.html?pos=195&kwd=glass baby feeding bottle&tags=||||8752.144|Price|product|||TS|rsf:gd-|-stype:attr=1|qr_nm:gd|res:RC4|com-cf:nl|ptrs:na|ktp:N0|mc:443896|mtp:S|qry_typ:P|lang:en|wc:4|cs:8900|v=4,TUF & Fit,https://www.indiamart.com/tuf-fit/?pos=195&kwd=glass baby feeding bottle&tags=||||8752.144|Price|product|||TS|rsf:gd-|-stype:attr=1|qr_nm:gd|res:RC4|com-cf:nl|ptrs:na|ktp:N0|mc:443896|mtp:S|qry_typ:P|lang:en|wc:4|cs:8900|v=4,False,Shalimar Bagh,New Delhi,"badli extension. near Laxmi Dhar kanta, Shalimar Bagh, New Delhi - 110084, Dist.Delhi, Delhi",8048262266,
"Machinfabrik SS304 Ready to Eat Sterilizer, Size: Starting From 100 Litres/Batch",https://www.indiamart.com/proddetail/ready-to-eat-sterilizer-25573519312.html?pos=196&kwd=glass baby feeding bottle&tags=||||8226.563||product|||TS|rsf:gd-|-stype:attr=1|qr_nm:gd|res:RC4|com-cf:nl|ptrs:na|ktp:N0|mc:443896|mtp:S|qry_typ:P|lang:en|wc:4|cs:8900|v=4,Machinfabrik Industries Private Limited,https://www.indiamart.com/machinfabrikindustries/?pos=196&kwd=glass baby feeding bottle&tags=||||8226.563||product|||TS|rsf:gd-|-stype:attr=1|qr_nm:gd|res:RC4|com-cf:nl|ptrs:na|ktp:N0|mc:443896|mtp:S|qry_typ:P|lang:en|wc:4|cs:8900|v=4,False,Ghansoli,Navi Mumbai,"MIDC, R-89/90, TTC Industrial Area, Thane Belapur Road, Rabale MIDC, Ghansoli, Navi Mumbai - 400701, Dist.Thane, Maharashtra",8048267948,
"Plastic White Baby Silicone Feeding Bottle, 100 mL, Age Group: 3-12 Months",https://www.indiamart.com/proddetail/baby-silicone-feeding-bottle-2852984546255.html?pos=197&kwd=glass baby feeding bottle&tags=||||8752.144|Price|product|||TS|rsf:gd-|-stype:attr=1|qr_nm:gd|res:RC4|com-cf:nl|ptrs:na|ktp:N0|mc:443896|mtp:S|qry_typ:P|lang:en|wc:4|cs:8900|v=4,TUF & Fit,https://www.indiamart.com/tuf-fit/?pos=197&kwd=glass baby feeding bottle&tags=||||8752.144|Price|product|||TS|rsf:gd-|-stype:attr=1|qr_nm:gd|res:RC4|com-cf:nl|ptrs:na|ktp:N0|mc:443896|mtp:S|qry_typ:P|lang:en|wc:4|cs:8900|v=4,False,Shalimar Bagh,New Delhi,"badli extension. near Laxmi Dhar kanta, Shalimar Bagh, New Delhi - 110084, Dist.Delhi, Delhi",8048262266,
"Machinfabrik SS304 Ready to Eat Sterilizer, Size: Starting From 100 Litres/Batch",https://www.indiamart.com/proddetail/ready-to-eat-sterilizer-25573519312.html?pos=198&kwd=glass baby feeding bottle&tags=||||8226.563||product|||TS|rsf:gd-|-stype:attr=1|qr_nm:gd|res:RC4|com-cf:nl|ptrs:na|ktp:N0|mc:443896|mtp:S|qry_typ:P|lang:en|wc:4|cs:8900|v=4,Machinfabrik Industries Private Limited,https://www.indiamart.com/machinfabrikindustries/?pos=198&kwd=glass baby feeding bottle&tags=||||8226.563||product|||TS|rsf:gd-|-stype:attr=1|qr_nm:gd|res:RC4|com-cf:nl|ptrs:na|ktp:N0|mc:443896|mtp:S|qry_typ:P|lang:en|wc:4|cs:8900|v=4,False,Ghansoli,Navi Mumbai,"MIDC, R-89/90, TTC Industrial Area, Thane Belapur Road, Rabale MIDC, Ghansoli, Navi Mumbai - 400701, Dist.Thane, Maharashtra",8048267948,
FEEDER BOTTLE ANGLE KENA POLY PROPYLENE 125 ML,,Medilio Enterprise Private Limited,https://www.indiamart.com/mediloenterprise/?pos=199&kwd=glass baby feeding bottle&tags=||||8230.883|Price|product|||TS|rsf:gd-|-stype:attr=1|qr_nm:gd|res:RC4|com-cf:nl|ptrs:na|ktp:N0|mc:443896|mtp:S|qry_typ:P|lang:en|wc:4|cs:8900|v=4,False,Magob,Surat,"Shop No 428,417,418, 4th Floor Raghuvir Trade Center, Surat-Bardoli Road, Magob, Surat - 395010, Dist.Surat, Gujarat",,
"Plastic Silicone Squeeze Feeding Spoon Bottle, New Born Baby",https://www.indiamart.com/proddetail/silicone-squeeze-feeding-spoon-bottle-2854559128662.html?pos=200&kwd=glass baby feeding bottle&tags=||||8752.144|Price|product|||MDC|rsf:gd-|-stype:attr=1|qr_nm:gd|res:RC4|com-cf:nl|ptrs:na|ktp:N0|mc:443896|mtp:S|qry_typ:P|lang:en|wc:4|cs:8900|v=4,Newgen Partners,https://www.indiamart.com/newgenpartners/?pos=200&kwd=glass baby feeding bottle&tags=||||8752.144|Price|product|||MDC|rsf:gd-|-stype:attr=1|qr_nm:gd|res:RC4|com-cf:nl|ptrs:na|ktp:N0|mc:443896|mtp:S|qry_typ:P|lang:en|wc:4|cs:8900|v=4,False,,New Delhi,"Jawahar Park, E-34A, Ground Floor, Laxmi Nagar, East Delhi,, New Delhi - 110092, Dist.Delhi, Delhi",8048213363,
"Stainless Steel Stanley cup sipper cup 1200ml, Capacity: 1 Litre",https://www.indiamart.com/proddetail/stanley-cup-sipper-cup-1200ml-2854552814433.html?pos=201&kwd=glass baby feeding bottle&tags=||||9839.57|Price|product|||MDC|rsf:gd-|-stype:attr=1|qr_nm:gd|res:RC4|com-cf:nl|ptrs:na|ktp:N0|mc:443896|mtp:S|qry_typ:P|lang:en|wc:4|cs:8900|v=4,"Tirupati Wall And Floor, 24x7 Emall",https://www.indiamart.com/tirupatiwallfloor/?pos=201&kwd=glass baby feeding bottle&tags=||||9839.57|Price|product|||MDC|rsf:gd-|-stype:attr=1|qr_nm:gd|res:RC4|com-cf:nl|ptrs:na|ktp:N0|mc:443896|mtp:S|qry_typ:P|lang:en|wc:4|cs:8900|v=4,False,Kalindi Housing Estate,Kolkata,"873 Lake Town, Block A, Kalindi Housing Estate, Kolkata - 700089, Dist.Kolkata, West Bengal",8046077999,
"Hetal Baby Sip Plastic Mug, For Home, Capacity: 200 ml",https://www.indiamart.com/proddetail/hetal-baby-sip-plastic-mug-2854779510248.html?pos=202&kwd=glass baby feeding bottle&tags=||||8038.093|Price|product|||MDC|rsf:gd-|-stype:attr=1|qr_nm:gd|res:RC4|com-cf:nl|ptrs:na|ktp:N0|mc:443896|mtp:S|qry_typ:P|lang:en|wc:4|cs:8900|v=4,Hasti Products,https://www.indiamart.com/hasti-products-rajkot/?pos=202&kwd=glass baby feeding bottle&tags=||||8038.093|Price|product|||MDC|rsf:gd-|-stype:attr=1|qr_nm:gd|res:RC4|com-cf:nl|ptrs:na|ktp:N0|mc:443896|mtp:S|qry_typ:P|lang:en|wc:4|cs:8900|v=4,False,,Rajkot,"Sardar Ind.area Plot No.73,Gondal Road Kothariya Solvent, Rajkot - 360002, Dist.Rajkot, Gujarat",8044457967,
"Transparent Plastic Feeding Bottles & Sippers, New Born Baby",https://www.indiamart.com/proddetail/feeding-bottles-sippers-2853641942197.html?pos=203&kwd=glass baby feeding bottle&tags=||||8752.144|Price|product|||TS|rsf:gd-|-stype:attr=1|qr_nm:gd|res:RC4|com-cf:nl|ptrs:na|ktp:N0|mc:443896|mtp:S|qry_typ:P|lang:en|wc:4|cs:8900|v=4,Spills,https://www.indiamart.com/spills/?pos=203&kwd=glass baby feeding bottle&tags=||||8752.144|Price|product|||TS|rsf:gd-|-stype:attr=1|qr_nm:gd|res:RC4|com-cf:nl|ptrs:na|ktp:N0|mc:443896|mtp:S|qry_typ:P|lang:en|wc:4|cs:8900|v=4,False,Pahar Ganj,New Delhi,"1st Floor 2205/4 Pahar Ganj, Pahar Ganj, New Delhi - 110055, Dist.Delhi, Delhi",8047547921,
Feeding Bottle Cover,https://www.indiamart.com/proddetail/feeding-bottle-cover-20704308033.html?pos=204&kwd=glass baby feeding bottle&tags=||||8559.269|Price|product|||TS|rsf:gd-|-stype:attr=1|qr_nm:gd|res:RC4|com-cf:nl|ptrs:na|ktp:N0|mc:443896|mtp:S|qry_typ:P|lang:en|wc:4|cs:8900|v=4,Daga Impex,https://www.dagaimpex.co.in/?pos=204&kwd=glass baby feeding bottle&tags=||||8559.269|Price|product|||TS|rsf:gd-|-stype:attr=1|qr_nm:gd|res:RC4|com-cf:nl|ptrs:na|ktp:N0|mc:443896|mtp:S|qry_typ:P|lang:en|wc:4|cs:8900|v=4,False,Rajwada,Indore,"No. 214, Tilak Path, Near Maruti Hanuman Mandir, Rajwada, Indore - 452007, Dist.Indore, Madhya Pradesh",8046030945,
Baby Feeding Bottle,https://www.indiamart.com/proddetail/baby-feeding-bottle-2852468343491.html?pos=205&kwd=glass baby feeding bottle&tags=||||8038.093|Price|product|||TS|rsf:gd-|-stype:attr=1|qr_nm:gd|res:RC4|com-cf:nl|ptrs:na|ktp:N0|mc:443896|mtp:S|qry_typ:P|lang:en|wc:4|cs:8900|v=4,Tirth Kitchenware(Brand Of H V Industries),https://www.indiamart.com/hvindustries/?pos=205&kwd=glass baby feeding bottle&tags=||||8038.093|Price|product|||TS|rsf:gd-|-stype:attr=1|qr_nm:gd|res:RC4|com-cf:nl|ptrs:na|ktp:N0|mc:443896|mtp:S|qry_typ:P|lang:en|wc:4|cs:8900|v=4,False,Bhakti Nagar,Rajkot,"Mahadev Industrial Area, Plot No. 14, Kothariya Solvant, Bhakti Nagar, Rajkot - 360002, Dist.Rajkot, Gujarat",8047658781,
"Metal Baby Feeding Bottle, 200 mL",https://www.indiamart.com/proddetail/baby-feeding-bottle-2851837604688.html?pos=206&kwd=glass baby feeding bottle&tags=||||8823.154|Price|product|||TS|rsf:gd-|-stype:attr=1|qr_nm:gd|res:RC4|com-cf:nl|ptrs:na|ktp:N0|mc:443896|mtp:S|qry_typ:P|lang:en|wc:4|cs:8900|v=4,A V S Sales Agency,https://www.indiamart.com/avs-salesagency/?pos=206&kwd=glass baby feeding bottle&tags=||||8823.154|Price|product|||TS|rsf:gd-|-stype:attr=1|qr_nm:gd|res:RC4|com-cf:nl|ptrs:na|ktp:N0|mc:443896|mtp:S|qry_typ:P|lang:en|wc:4|cs:8900|v=4,False,Sikandra,Agra,"Plot No-6, Khasra No-1367, At Triveni Rangoli Extension, Mauza Baipur,, Sikandra, Agra - 282007, Dist.Agra, Uttar Pradesh",8047675376,
"Silver Metal Baby Feeding Bottle, Capacity: 240 ml, 3-12 Months",https://www.indiamart.com/proddetail/baby-feeding-bottle-21889534530.html?pos=207&kwd=glass baby feeding bottle&tags=||||8752.144|Price|product|||TS|rsf:gd-|-stype:attr=1|qr_nm:gd|res:RC4|com-cf:nl|ptrs:na|ktp:N0|mc:443896|mtp:S|qry_typ:P|lang:en|wc:4|cs:8900|v=4,Om Metals,https://www.theommetals.com/?pos=207&kwd=glass baby feeding bottle&tags=||||8752.144|Price|product|||TS|rsf:gd-|-stype:attr=1|qr_nm:gd|res:RC4|com-cf:nl|ptrs:na|ktp:N0|mc:443896|mtp:S|qry_typ:P|lang:en|wc:4|cs:8900|v=4,False,Narela,New Delhi,"H-1481, Industrial Park, Narela, Narela, New Delhi - 110040, Dist.Delhi, Delhi",8046075480,
"150ml Baby Milk Bottle, For Beverage",https://www.indiamart.com/proddetail/150ml-baby-milk-bottle-2854386221191.html?pos=208&kwd=glass baby feeding bottle&tags=||||8861.147|Price|product|||MDC|rsf:gd-|-stype:attr=1|qr_nm:gd|res:RC4|com-cf:nl|ptrs:na|ktp:N0|mc:443896|mtp:S|qry_typ:P|lang:en|wc:4|cs:8900|v=4,BLA And Company,https://www.indiamart.com/blacompany/?pos=208&kwd=glass baby feeding bottle&tags=||||8861.147|Price|product|||MDC|rsf:gd-|-stype:attr=1|qr_nm:gd|res:RC4|com-cf:nl|ptrs:na|ktp:N0|mc:443896|mtp:S|qry_typ:P|lang:en|wc:4|cs:8900|v=4,False,,Firozabad,"14, Seth Kanhiya Lal Ki Jeen, Shivaji Marg, Firozabad - 283203, Dist.Firozabad, Uttar Pradesh",8047786881,
"Plastic Transparent Baby Zain Feeding Bottle, 1-2 Years, Size: 250ml",https://www.indiamart.com/proddetail/baby-zain-feeding-bottle-21013661830.html?pos=209&kwd=glass baby feeding bottle&tags=||||8786.56|Price|product|||TS|rsf:gd-|-stype:attr=1|qr_nm:gd|res:RC4|com-cf:nl|ptrs:na|ktp:N0|mc:443896|mtp:S|qry_typ:P|lang:en|wc:4|cs:8900|v=4,Rajadhani Enterprises,https://www.rajadhanienterprises.in/?pos=209&kwd=glass baby feeding bottle&tags=||||8786.56|Price|product|||TS|rsf:gd-|-stype:attr=1|qr_nm:gd|res:RC4|com-cf:nl|ptrs:na|ktp:N0|mc:443896|mtp:S|qry_typ:P|lang:en|wc:4|cs:8900|v=4,False,Begum Bazar Pathan Wadi,Hyderabad,"15-6-588/1G, Agarwal Market, Siddiamber Bazar Satyanarayan Enclaves, Gol Masjid, Begum Bazar Pathan Wadi, Hyderabad - 500012, Dist.Hyderabad, Telangana",8047635606,
"Transparent Baby Feeding Plastic Bottle, Age Group: 3-12 Months, Capacity: 60 ml",https://www.indiamart.com/proddetail/baby-feeding-plastic-bottle-24320581112.html?pos=210&kwd=glass baby feeding bottle&tags=||||8663.873|Price|product|||TS|rsf:gd-|-stype:attr=1|qr_nm:gd|res:RC4|com-cf:nl|ptrs:na|ktp:N0|mc:443896|mtp:S|qry_typ:P|lang:en|wc:4|cs:8900|v=4,Monopoly Marketing,https://www.indiamart.com/monopolymarketingbengaluru/?pos=210&kwd=glass baby feeding bottle&tags=||||8663.873|Price|product|||TS|rsf:gd-|-stype:attr=1|qr_nm:gd|res:RC4|com-cf:nl|ptrs:na|ktp:N0|mc:443896|mtp:S|qry_typ:P|lang:en|wc:4|cs:8900|v=4,False,Shivaji Nagar,Bengaluru,"No. 42, Laxman Mudaliar Street, Commercial Street, 2nd Cross, Shivaji Nagar, Bengaluru - 560001, Dist.Bengaluru, Karnataka",8048975320,
