product_title,product_link,company_name,company_link,is_verified_exporter,city_region,city,address_details,phone_number,phone_number_extension
"GRIPE-WATER, More than 12 months, Packaging Size: 130 ml",https://www.indiamart.com/proddetail/gripe-water-130ml-2853437476391.html?pos=1&kwd=gripe water&tags=A||||8228.275|Price|product|||TS|rsf:gd-|-qr_nm:gd|res:RC3|com-cf:nl|ptrs:na|ktp:N0|mc:41613|mtp:S|qry_typ:P|lang:en|wc:2|flavl:0-1|cs:8387|v=4,Shived Life Medicare,https://www.indiamart.com/shivedlifemedicare/?pos=1&kwd=gripe water&tags=A||||8228.275|Price|product|||TS|rsf:gd-|-qr_nm:gd|res:RC3|com-cf:nl|ptrs:na|ktp:N0|mc:41613|mtp:S|qry_typ:P|lang:en|wc:2|flavl:0-1|cs:8387|v=4,False,Bopal,Ahmedabad,"A-117, Sobo Centre Gala Gymkhana Rad, Bopal, Ahmedabad - 380058, Dist.Ahmedabad, Gujarat",7942553059,
"Babuline Natural Gripe Water, Packaging Type: Bottle",https://www.indiamart.com/proddetail/natural-gripe-water-4835131388.html?pos=2&kwd=gripe water&tags=A||||8211.142|Price|product|||TS|rsf:gd-|-qr_nm:gd|res:RC3|com-cf:nl|ptrs:na|ktp:N0|mc:41613|mtp:S|qry_typ:P|lang:en|wc:2|flavl:0-1|cs:8387|v=4,Babuline Pharma Pvt. Ltd.,https://www.babuline.net/?pos=2&kwd=gripe water&tags=A||||8211.142|Price|product|||TS|rsf:gd-|-qr_nm:gd|res:RC3|com-cf:nl|ptrs:na|ktp:N0|mc:41613|mtp:S|qry_typ:P|lang:en|wc:2|flavl:0-1|cs:8387|v=4,False,Mazgaon,Mumbai,"406, 4th Floor, Gulab Building, 237 P D Mello Road, Fort, Mazgaon, Mumbai - 400001, Dist.Mumbai, Maharashtra",8048964178,
"SHB Mother Sparsh Ayurvedic Gripe Water, Packaging Type: Bottle, 3-12 Months",https://www.indiamart.com/proddetail/mother-sparsh-ayurvedic-gripe-water-22904103233.html?pos=3&kwd=gripe water&tags=A||||8580.032|Price|product|||TS|rsf:gd-|-qr_nm:gd|res:RC3|com-cf:nl|ptrs:na|ktp:N0|mc:41613|mtp:S|qry_typ:P|lang:en|wc:2|flavl:0-1|cs:8387|v=4,Sri Herbasia Biotech Private Limited,https://www.mamalovesgummies.com/?pos=3&kwd=gripe water&tags=A||||8580.032|Price|product|||TS|rsf:gd-|-qr_nm:gd|res:RC3|com-cf:nl|ptrs:na|ktp:N0|mc:41613|mtp:S|qry_typ:P|lang:en|wc:2|flavl:0-1|cs:8387|v=4,False,Industrial Area,Amritsar,"36,INDUSTRIAL AREA,BALKALAN,AMRITSAR, Industrial Area, Amritsar - 143001, Dist.Amritsar, Punjab",8047647032,
"Woodwards Gripe Water, Newly Born, Packaging Size: 130ml",https://www.indiamart.com/proddetail/woodwards-gripe-water-2850225882962.html?pos=4&kwd=gripe water&tags=A||||8307.81|Price|product|||TS|rsf:gd-|-qr_nm:gd|res:RC3|com-cf:nl|ptrs:na|ktp:N0|mc:41613|mtp:S|qry_typ:P|lang:en|wc:2|flavl:0-1|cs:8387|v=4,New Mahalaxmi Agenciy,https://www.newmahalaxmiagency.in/?pos=4&kwd=gripe water&tags=A||||8307.81|Price|product|||TS|rsf:gd-|-qr_nm:gd|res:RC3|com-cf:nl|ptrs:na|ktp:N0|mc:41613|mtp:S|qry_typ:P|lang:en|wc:2|flavl:0-1|cs:8387|v=4,False,Sadashiv Peth,Pune,"S.N.837, Shop No.1A/1B, Ground Floor, Off Kumthekar Road, Sadashiv Peth, Sadashiv Peth, Pune - 411030, Dist.Pune, Maharashtra",7942816563,
"Lexine Herbal Gripe Water, Packaging Type: Box, 3-12 Months",https://www.indiamart.com/proddetail/gripe-water-26168032030.html?pos=5&kwd=gripe water&tags=A||||8281.036|Price|product|||TS|rsf:gd-|-qr_nm:gd|res:RC3|com-cf:nl|ptrs:na|ktp:N0|mc:41613|mtp:S|qry_typ:P|lang:en|wc:2|flavl:0-1|cs:8387|v=4,Lexine Technochem Private Limited,https://www.lexine.in/?pos=5&kwd=gripe water&tags=A||||8281.036|Price|product|||TS|rsf:gd-|-qr_nm:gd|res:RC3|com-cf:nl|ptrs:na|ktp:N0|mc:41613|mtp:S|qry_typ:P|lang:en|wc:2|flavl:0-1|cs:8387|v=4,True,Sayajigunj,Vadodara,"Opposite World Trade Center, 202, 2nd Flower, Sayajigunj, Sayajigunj, Vadodara - 390005, Dist.Vadodara, Gujarat",7942564658,
"Ayurvedic Gripe Water, Packaging Type: Bottle",https://www.indiamart.com/proddetail/ayurvedic-gripe-water-2852688982497.html?pos=6&kwd=gripe water&tags=A||||8754.115|Price|product|||TS|rsf:gd-|-qr_nm:gd|res:RC3|com-cf:nl|ptrs:na|ktp:N0|mc:41613|mtp:S|qry_typ:P|lang:en|wc:2|flavl:0-1|cs:8387|v=4,Stelvedic(A Division of Stellar Bio Labs),https://www.stelvedic.in/?pos=6&kwd=gripe water&tags=A||||8754.115|Price|product|||TS|rsf:gd-|-qr_nm:gd|res:RC3|com-cf:nl|ptrs:na|ktp:N0|mc:41613|mtp:S|qry_typ:P|lang:en|wc:2|flavl:0-1|cs:8387|v=4,False,Sector 8,Panchkula,"Plot No 340 Industrail Area Phase 2 Stellar Biolabs, Sector 8, Panchkula - 134112, Dist.Panchkula, Haryana",7942717030,
"Gripe Water, Packaging Size: 100 ml",https://www.indiamart.com/proddetail/100-ml-gripe-water-23642575648.html?pos=7&kwd=gripe water&tags=A||||8810.737|Price|product|||TS|rsf:gd-|-qr_nm:gd|res:RC3|com-cf:nl|ptrs:na|ktp:N0|mc:41613|mtp:S|qry_typ:P|lang:en|wc:2|flavl:0-1|cs:8387|v=4,Varah Healthcare,https://www.varahhealth.in/?pos=7&kwd=gripe water&tags=A||||8810.737|Price|product|||TS|rsf:gd-|-qr_nm:gd|res:RC3|com-cf:nl|ptrs:na|ktp:N0|mc:41613|mtp:S|qry_typ:P|lang:en|wc:2|flavl:0-1|cs:8387|v=4,False,Haqikatnagar,Saharanpur,"81 C, U.P.S.I.D.C, Pilakhani, Haqikatnagar, Saharanpur - 247001, Dist.Saharanpur, Uttar Pradesh",8046038683,
"Woodwards Gripe Water, Newly Born, Packaging Size: 150 ml",https://www.indiamart.com/proddetail/woodwards-gripe-water-25327131291.html?pos=8&kwd=gripe water&tags=A||||8211.142|Price|product|||MDC|rsf:gd-|-qr_nm:gd|res:RC3|com-cf:nl|ptrs:na|ktp:N0|mc:41613|mtp:S|qry_typ:P|lang:en|wc:2|flavl:0-1|cs:8387|v=4,Omkar Pharma And General Stores,https://www.indiamart.com/omkarpharma-generalstores/?pos=8&kwd=gripe water&tags=A||||8211.142|Price|product|||MDC|rsf:gd-|-qr_nm:gd|res:RC3|com-cf:nl|ptrs:na|ktp:N0|mc:41613|mtp:S|qry_typ:P|lang:en|wc:2|flavl:0-1|cs:8387|v=4,False,,Mumbai,"23, Atul Tower, Mathuradas Road, Kandivali West, Mumbai Suburban, Mumbai - 400067, Dist.Mumbai, Maharashtra",7949328509,
"Matsya Veda Herbal Gripe Water, Packaging Type: Bottle",https://www.indiamart.com/proddetail/herbal-gripe-water-16912206491.html?pos=9&kwd=gripe water&tags=A||||8752.144|Price|product|||TS|rsf:gd-|-qr_nm:gd|res:RC3|com-cf:nl|ptrs:na|ktp:N0|mc:41613|mtp:S|qry_typ:P|lang:en|wc:2|flavl:0-1|cs:8387|v=4,Matsyaveda Herbals LLP,https://www.indiamart.com/matsyaveda/?pos=9&kwd=gripe water&tags=A||||8752.144|Price|product|||TS|rsf:gd-|-qr_nm:gd|res:RC3|com-cf:nl|ptrs:na|ktp:N0|mc:41613|mtp:S|qry_typ:P|lang:en|wc:2|flavl:0-1|cs:8387|v=4,False,Bhikaji Cama Place,New Delhi,"34, Mohammadpur, Bhikaji Cama Place, Bhikaji Cama Place, New Delhi - 110066, Dist.Delhi, Delhi",8048955087,
Ayurveda Doctors Gripe Water,https://www.indiamart.com/proddetail/ayurveda-doctors-gripe-water-23230262130.html?pos=10&kwd=gripe water&tags=A||||8752.144|Price|product|||TS|rsf:gd-|-qr_nm:gd|res:RC3|com-cf:nl|ptrs:na|ktp:N0|mc:41613|mtp:S|qry_typ:P|lang:en|wc:2|flavl:0-1|cs:8387|v=4,Goodluck Ayurveda Private Limited,https://www.goodluckayurveda.co.in/?pos=10&kwd=gripe water&tags=A||||8752.144|Price|product|||TS|rsf:gd-|-qr_nm:gd|res:RC3|com-cf:nl|ptrs:na|ktp:N0|mc:41613|mtp:S|qry_typ:P|lang:en|wc:2|flavl:0-1|cs:8387|v=4,False,Naharpur Village,New Delhi,"A-1/2, Sector 7, Rohini, Naharpur Village, New Delhi - 110085, Dist.Delhi, Delhi",8048957123,
"Transparent Gripe Water, Packaging Type: Loose, 3-12 Months",https://www.indiamart.com/proddetail/gripe-water-2853283814730.html?pos=11&kwd=gripe water&tags=A||||8228.275|Price|product|||MDC|rsf:gd-|-qr_nm:gd|res:RC3|com-cf:nl|ptrs:na|ktp:N0|mc:41613|mtp:S|qry_typ:P|lang:en|wc:2|flavl:0-1|cs:8387|v=4,Krypton Remedies,https://www.indiamart.com/kryptonremedies/?pos=11&kwd=gripe water&tags=A||||8228.275|Price|product|||MDC|rsf:gd-|-qr_nm:gd|res:RC3|com-cf:nl|ptrs:na|ktp:N0|mc:41613|mtp:S|qry_typ:P|lang:en|wc:2|flavl:0-1|cs:8387|v=4,False,Changodar,Ahmedabad,"A-25, Ashwamegh Industrial Estate, Block/Survey No 387, Changodar,, Changodar, Ahmedabad - 382213, Dist.Ahmedabad, Gujarat",7948547791,
"Abbott Liquid Gentle Antacid Gripe Water, Packaging Type: Bottle, 3Years And Above",https://www.indiamart.com/proddetail/gentle-antacid-gripe-water-2851653258133.html?pos=12&kwd=gripe water&tags=A||||8228.275|Price|product|||MDC|rsf:gd-|-qr_nm:gd|res:RC3|com-cf:nl|ptrs:na|ktp:N0|mc:41613|mtp:S|qry_typ:P|lang:en|wc:2|flavl:0-1|cs:8387|v=4,M G Enterprise,https://www.indiamart.com/mgenterpriseahmedabad/?pos=12&kwd=gripe water&tags=A||||8228.275|Price|product|||MDC|rsf:gd-|-qr_nm:gd|res:RC3|com-cf:nl|ptrs:na|ktp:N0|mc:41613|mtp:S|qry_typ:P|lang:en|wc:2|flavl:0-1|cs:8387|v=4,False,,Ahmedabad,"B 3119,3120 TRP MALL , BOPAL , AHMEDABAD, Ahmedabad - 382430, Dist.Ahmedabad, Gujarat",8047667693,
"Brown Vanilla 100 ml Amulya Baby Gripe Water For Babies, For Daily, Liquid",https://www.indiamart.com/proddetail/100-ml-amulya-baby-gripe-water-for-babies-22817678673.html?pos=13&kwd=gripe water&tags=A||||8717.056|Price|product|||MDC|rsf:gd-|-qr_nm:gd|res:RC3|com-cf:nl|ptrs:na|ktp:N0|mc:41613|mtp:S|qry_typ:P|lang:en|wc:2|flavl:0-1|cs:8387|v=4,Angel Voice Center,https://www.indiamart.com/angel-voice-center/?pos=13&kwd=gripe water&tags=A||||8717.056|Price|product|||MDC|rsf:gd-|-qr_nm:gd|res:RC3|com-cf:nl|ptrs:na|ktp:N0|mc:41613|mtp:S|qry_typ:P|lang:en|wc:2|flavl:0-1|cs:8387|v=4,False,,Salem,"113/2, Shankar Nagar, 1st Floor, Rajiv Gandhi Road, Salem - 636007, Dist.Salem, Tamil Nadu",8046057769,
"Hamdard Naunehal Gripe Syrup, Newly Born, Packaging Size: 100 ml",https://www.indiamart.com/proddetail/hamdard-naunehal-gripe-syrup-2854681960955.html?pos=14&kwd=gripe water&tags=BA||||8752.144|Price|product|||MDC|rsf:gd-|-qr_nm:gd|res:RC3|com-cf:nl|ptrs:na|ktp:N0|mc:41613|mtp:S|qry_typ:P|lang:en|wc:2|flavl:0-1|cs:8387|v=4,Mishra Healthlot Private Limited,https://www.indiamart.com/mishrahealthlot-delhi/?pos=14&kwd=gripe water&tags=BA||||8752.144|Price|product|||MDC|rsf:gd-|-qr_nm:gd|res:RC3|com-cf:nl|ptrs:na|ktp:N0|mc:41613|mtp:S|qry_typ:P|lang:en|wc:2|flavl:0-1|cs:8387|v=4,False,,New Delhi,"Shop No 1 G.F, H.No 1-A, Kh. No.185, Village, Pul Pehaldpur South East Delhi, New Delhi - 110044, Dist.Delhi, Delhi",7949325904,
Prabhat Gripe Water,https://www.indiamart.com/proddetail/prabhat-gripe-water-23190337512.html?pos=15&kwd=gripe water&tags=A||||8580.032|Price|product|||MDC|rsf:gd-|-qr_nm:gd|res:RC3|com-cf:nl|ptrs:na|ktp:N0|mc:41613|mtp:S|qry_typ:P|lang:en|wc:2|cs:7530|v=4,Prabhat Ayurvedic Pharmacy,https://www.indiamart.com/prabhatayurvedic-pharmacy/?pos=15&kwd=gripe water&tags=A||||8580.032|Price|product|||MDC|rsf:gd-|-qr_nm:gd|res:RC3|com-cf:nl|ptrs:na|ktp:N0|mc:41613|mtp:S|qry_typ:P|lang:en|wc:2|cs:7530|v=4,False,,Amritsar,"Katra Sher Singh, Amritsar - 143001, Dist.Amritsar, Punjab",8048264031,
"White Gripe Water, 3-12 Months",https://www.indiamart.com/proddetail/gripe-water-15589562397.html?pos=16&kwd=gripe water&tags=BA||||8210.732|Price|product|||TS|rsf:gd-|-qr_nm:gd|res:RC3|com-cf:nl|ptrs:na|ktp:N0|mc:41613|mtp:S|qry_typ:P|lang:en|wc:2|cs:7530|v=4,Regal Sales Agencies,https://www.regalsalesagencies.com/?pos=16&kwd=gripe water&tags=BA||||8210.732|Price|product|||TS|rsf:gd-|-qr_nm:gd|res:RC3|com-cf:nl|ptrs:na|ktp:N0|mc:41613|mtp:S|qry_typ:P|lang:en|wc:2|cs:7530|v=4,True,Vasai East,Vasai,"Unit No.102, Bldg No.2, Unico Industrial Park, Tungareshwar Road, Sativali,, Vasai East, Vasai - 401208, Dist.Thane, Maharashtra",8047637130,
Gripe Water,https://www.indiamart.com/proddetail/gripe-water-2851512494612.html?pos=17&kwd=gripe water&tags=BA||||8754.115|Price|product|||TS|rsf:gd-|-qr_nm:gd|res:RC3|com-cf:nl|ptrs:na|ktp:N0|mc:41613|mtp:S|qry_typ:P|lang:en|wc:2|cs:7530|v=4,Zenio Biotech Private Limited,https://www.indiamart.com/zeniobiotech/?pos=17&kwd=gripe water&tags=BA||||8754.115|Price|product|||TS|rsf:gd-|-qr_nm:gd|res:RC3|com-cf:nl|ptrs:na|ktp:N0|mc:41613|mtp:S|qry_typ:P|lang:en|wc:2|cs:7530|v=4,False,Budhanpur,Panchkula,"Industrial Area Phase-1 Plot No.133,, Budhanpur, Panchkula - 134113, Dist.Panchkula, Haryana",8048610577,
Male Transparent Baby Care Gripe Water,https://www.indiamart.com/proddetail/baby-care-gripe-water-11678290288.html?pos=18&kwd=gripe water&tags=BA||||8281.036|Price|product|||TS|rsf:gd-|-qr_nm:gd|res:RC3|com-cf:nl|ptrs:na|ktp:N0|mc:41613|mtp:S|qry_typ:P|lang:en|wc:2|cs:7530|v=4,Akhil Healthcare Private Limited,https://www.indiamart.com/akhilhealthcare/?pos=18&kwd=gripe water&tags=BA||||8281.036|Price|product|||TS|rsf:gd-|-qr_nm:gd|res:RC3|com-cf:nl|ptrs:na|ktp:N0|mc:41613|mtp:S|qry_typ:P|lang:en|wc:2|cs:7530|v=4,True,Kadak Bazar,Vadodara,"No. 205/206, B. B. C. Tower, Kadak Bazar, Vadodara - 390005, Dist.Vadodara, Gujarat",8046060620,
Woodwards Gripe Water,https://www.indiamart.com/proddetail/woodwards-gripe-water-4468714555.html?pos=19&kwd=gripe water&tags=BA||||8584.299|Price|product|||TS|rsf:gd-|-qr_nm:gd|res:RC3|com-cf:nl|ptrs:na|ktp:N0|mc:41613|mtp:S|qry_typ:P|lang:en|wc:2|cs:7530|v=4,Commerce India,https://www.indiamart.com/commerceindia/?pos=19&kwd=gripe water&tags=BA||||8584.299|Price|product|||TS|rsf:gd-|-qr_nm:gd|res:RC3|com-cf:nl|ptrs:na|ktp:N0|mc:41613|mtp:S|qry_typ:P|lang:en|wc:2|cs:7530|v=4,False,Saibaba Colony,Coimbatore,"No. 320, NSR Road, Saibaba Colony, Saibaba Colony, Coimbatore - 641011, Dist.Coimbatore, Tamil Nadu",8048617751,
"Prince Gripe Water, Packaging Type: Plastic Bottle, Newly Born",https://www.indiamart.com/proddetail/prince-gripe-water-2851309462548.html?pos=20&kwd=gripe water&tags=BB||||8168.6484|Price|product|||TS|rsf:gd-|-qr_nm:gd|res:RC3|com-cf:nl|ptrs:na|ktp:N0|mc:41613|mtp:S|qry_typ:P|lang:en|wc:2|cs:7530|v=4,Prince Care Pharma Private Limited,https://www.indiamart.com/prince-care-pharma/?pos=20&kwd=gripe water&tags=BB||||8168.6484|Price|product|||TS|rsf:gd-|-qr_nm:gd|res:RC3|com-cf:nl|ptrs:na|ktp:N0|mc:41613|mtp:S|qry_typ:P|lang:en|wc:2|cs:7530|v=4,False,Chitra,Bhavnagar,"Plot No 255 2, G I D C Chitra, Chitra, Bhavnagar - 364004, Dist.Bhavnagar, Gujarat",7942834880,
Sricure Herbs Herbal Gripe Water,https://www.indiamart.com/proddetail/herbal-gripe-water-1437800655.html?pos=21&kwd=gripe water&tags=BA||||8754.115|Price|product|||TS|rsf:gd-|-qr_nm:gd|res:RC3|com-cf:nl|ptrs:na|ktp:N0|mc:41613|mtp:S|qry_typ:P|lang:en|wc:2|cs:7530|v=4,Sricure Herbs (India) Private Limited,https://www.sricureherbs.com/?pos=21&kwd=gripe water&tags=BA||||8754.115|Price|product|||TS|rsf:gd-|-qr_nm:gd|res:RC3|com-cf:nl|ptrs:na|ktp:N0|mc:41613|mtp:S|qry_typ:P|lang:en|wc:2|cs:7530|v=4,False,Budhanpur,Panchkula,"Plot No. 326, Industrial, Area Phase-1, Budhanpur, Panchkula - 134113, Dist.Panchkula, Haryana",8047636490,
"Kinder Gripe Water, 3-12 Months, Packaging Size: 150 ml",https://www.indiamart.com/proddetail/kinder-gripe-water-2854006564091.html?pos=22&kwd=gripe water&tags=BA||||8559.269|Price|product|||TS|rsf:gd-|-qr_nm:gd|res:RC3|com-cf:nl|ptrs:na|ktp:N0|mc:41613|mtp:S|qry_typ:P|lang:en|wc:2|cs:7530|v=4,Ashoka Medicose,https://www.indiamart.com/ashoka-medicose-indore/?pos=22&kwd=gripe water&tags=BA||||8559.269|Price|product|||TS|rsf:gd-|-qr_nm:gd|res:RC3|com-cf:nl|ptrs:na|ktp:N0|mc:41613|mtp:S|qry_typ:P|lang:en|wc:2|cs:7530|v=4,False,Jaora Compound,Indore,"2nd Floor 79, Dawa Bazar, 13-14, R.N.T. Rang Marg, Jaora Compound, Indore - 452009, Dist.Indore, Madhya Pradesh",8044564425,
"Arogya total Arogyatotal Gripe Water, Packaging Type: Plastic Bottle",https://www.indiamart.com/proddetail/arogyatotal-gripe-water-21907574333.html?pos=23&kwd=gripe water&tags=BB||||8754.115|Price|product|||TS|rsf:gd-|-qr_nm:gd|res:RC3|com-cf:nl|ptrs:na|ktp:N0|mc:41613|mtp:S|qry_typ:P|lang:en|wc:2|cs:7530|v=4,SWASTIK LIFESCIENCES,https://www.swisschemhealthcare.com/?pos=23&kwd=gripe water&tags=BB||||8754.115|Price|product|||TS|rsf:gd-|-qr_nm:gd|res:RC3|com-cf:nl|ptrs:na|ktp:N0|mc:41613|mtp:S|qry_typ:P|lang:en|wc:2|cs:7530|v=4,False,Panchkula Industrial Area Phase 1,Panchkula,"Plot No-295, Phase-2 Industrial Area, Panchkula Industrial Area Phase 1, Panchkula - 134113, Dist.Panchkula, Haryana",8046036035,
"Baby Like Gripe Water, Packaging Size: 150ml",https://www.indiamart.com/proddetail/baby-like-gripe-water-22913802997.html?pos=24&kwd=gripe water&tags=BA||||8752.144|Price|product|||TS|rsf:gd-|-qr_nm:gd|res:RC3|com-cf:nl|ptrs:na|ktp:N0|mc:41613|mtp:S|qry_typ:P|lang:en|wc:2|cs:7530|v=4,Om Biotec,https://www.ombiotecexporter.com/?pos=24&kwd=gripe water&tags=BA||||8752.144|Price|product|||TS|rsf:gd-|-qr_nm:gd|res:RC3|com-cf:nl|ptrs:na|ktp:N0|mc:41613|mtp:S|qry_typ:P|lang:en|wc:2|cs:7530|v=4,False,Narela,New Delhi,"1st Floor, D-1659, DSIIDC, Industrial Area Narela, Narela, New Delhi - 110040, Dist.Delhi, Delhi",7942536450,
"My Baby Gripe Water, Packaging Type: Bottle",https://www.indiamart.com/proddetail/my-baby-gripe-water-16746621148.html?pos=25&kwd=gripe water&tags=BA||||9045.955|Price|product|||TS|rsf:gd-|-qr_nm:gd|res:RC3|com-cf:nl|ptrs:na|ktp:N0|mc:41613|mtp:S|qry_typ:P|lang:en|wc:2|cs:7530|v=4,M/S Goldwater Formulation (India),https://www.indiamart.com/goldwaterformulationindia/?pos=25&kwd=gripe water&tags=BA||||9045.955|Price|product|||TS|rsf:gd-|-qr_nm:gd|res:RC3|com-cf:nl|ptrs:na|ktp:N0|mc:41613|mtp:S|qry_typ:P|lang:en|wc:2|cs:7530|v=4,False,Gaushala,Kanpur,"173 E, Defence Colony, Jajmau, Gaushala, Kanpur - 208010, Uttar Pradesh",7942785905,
Pinkoo Gripe Water 135 ML,https://www.indiamart.com/proddetail/pinkoo-gripe-water-135-ml-2854648241130.html?pos=26&kwd=gripe water&tags=BB||||9045.955|Price|product|||TS|rsf:gd-|-qr_nm:gd|res:RC3|com-cf:nl|ptrs:na|ktp:N0|mc:41613|mtp:S|qry_typ:P|lang:en|wc:2|cs:7530|v=4,M/S Prema Medical Agency,https://www.indiamart.com/premamedicalagency/?pos=26&kwd=gripe water&tags=BB||||9045.955|Price|product|||TS|rsf:gd-|-qr_nm:gd|res:RC3|com-cf:nl|ptrs:na|ktp:N0|mc:41613|mtp:S|qry_typ:P|lang:en|wc:2|cs:7530|v=4,False,Kanpur West,Kanpur,"59/105, Agrahari Market, Canal Road, Kanpur West, Kanpur - 208001, Uttar Pradesh",8047653172,
Gripe Water,https://www.indiamart.com/proddetail/gripe-water-2853336296230.html?pos=27&kwd=gripe water&tags=BA||||8228.275|Price|product|||MDC|rsf:gd-|-qr_nm:gd|res:RC3|com-cf:nl|ptrs:na|ktp:N0|mc:41613|mtp:S|qry_typ:P|lang:en|wc:2|cs:7530|v=4,Valphar Lifesciences Private Limited,https://www.indiamart.com/valphar-lifesciences/?pos=27&kwd=gripe water&tags=BA||||8228.275|Price|product|||MDC|rsf:gd-|-qr_nm:gd|res:RC3|com-cf:nl|ptrs:na|ktp:N0|mc:41613|mtp:S|qry_typ:P|lang:en|wc:2|cs:7530|v=4,False,Changodar,Ahmedabad,"966, Village Vasna Chacharvadi, Back Side Arvind Mega Park, Changodar GIDC, Vill Cha Vasna Taluka, Changodar, Ahmedabad - 382213, Dist.Ahmedabad, Gujarat",7942968079,
Woodwards Gripe Water,https://www.indiamart.com/proddetail/woodwards-gripe-water-2853860069462.html?pos=28&kwd=gripe water&tags=BA||||8211.142|Price|product|||MDC|rsf:gd-|-qr_nm:gd|res:RC3|com-cf:nl|ptrs:na|ktp:N0|mc:41613|mtp:S|qry_typ:P|lang:en|wc:2|cs:7530|v=4,Om Enterprise,https://www.indiamart.com/o-menterprise-mumbai/?pos=28&kwd=gripe water&tags=BA||||8211.142|Price|product|||MDC|rsf:gd-|-qr_nm:gd|res:RC3|com-cf:nl|ptrs:na|ktp:N0|mc:41613|mtp:S|qry_typ:P|lang:en|wc:2|cs:7530|v=4,False,Kandivali East,Mumbai,"Plot No 3-A, Shop No 5, Dharma Pratap Chs Ltd, Shanti Nagar A.C. Road, Kandivali East, Kandivali East, Mumbai - 400101, Dist.Mumbai, Maharashtra",8044013017,
"blessings ayurveda White Baby Gripe Water, Packaging Type: Bottle, Packaging Size: 100 ml",https://www.indiamart.com/proddetail/baby-gripe-water-23347770291.html?pos=29&kwd=gripe water&tags=BB||||8754.115|Price|product|||MDC|rsf:gd-|-qr_nm:gd|res:RC3|com-cf:nl|ptrs:na|ktp:N0|mc:41613|mtp:S|qry_typ:P|lang:en|wc:2|cs:7530|v=4,Alicanto Drugs Pvt. Ltd.,https://www.indiamart.com/alicantodrugs/?pos=29&kwd=gripe water&tags=BB||||8754.115|Price|product|||MDC|rsf:gd-|-qr_nm:gd|res:RC3|com-cf:nl|ptrs:na|ktp:N0|mc:41613|mtp:S|qry_typ:P|lang:en|wc:2|cs:7530|v=4,False,Industrial Estate Panchkula,Panchkula,"Plot No. 159, Industrial Area, Phase 2, Industrial Estate Panchkula, Panchkula - 134113, Dist.Panchkula, Haryana",8048264803,
Woodwards Gripe Water,https://www.indiamart.com/proddetail/woodwards-gripe-water-2853948851173.html?pos=30&kwd=gripe water&tags=BA||||8228.275|Price|product|||MDC|rsf:gd-|-qr_nm:gd|res:RC3|com-cf:nl|ptrs:na|ktp:N0|mc:41613|mtp:S|qry_typ:P|lang:en|wc:2|cs:7530|v=4,Patel Brothers,https://www.indiamart.com/patelbrothers-ahmedabadgujarat/?pos=30&kwd=gripe water&tags=BA||||8228.275|Price|product|||MDC|rsf:gd-|-qr_nm:gd|res:RC3|com-cf:nl|ptrs:na|ktp:N0|mc:41613|mtp:S|qry_typ:P|lang:en|wc:2|cs:7530|v=4,False,Gheekanta,Ahmedabad,"2, Relief Shopping Center, Gheekanta, G.P.O, Gheekanta, Ahmedabad - 380001, Dist.Ahmedabad, Gujarat",8044565270,
"Pusp Gripe Water Bottle, 110ml, Liquid",https://www.indiamart.com/proddetail/gripe-water-bottle-19242053055.html?pos=31&kwd=gripe water&tags=BA||||8682.994|Price|product|||MDC|rsf:gd-|-qr_nm:gd|res:RC3|com-cf:nl|ptrs:na|ktp:N0|mc:41613|mtp:S|qry_typ:P|lang:en|wc:2|cs:7530|v=4,Pusp Pharmaceuticals,https://www.indiamart.com/pusp-pharmaceuticals/?pos=31&kwd=gripe water&tags=BA||||8682.994|Price|product|||MDC|rsf:gd-|-qr_nm:gd|res:RC3|com-cf:nl|ptrs:na|ktp:N0|mc:41613|mtp:S|qry_typ:P|lang:en|wc:2|cs:7530|v=4,False,Buda Baba Basti,Jind,"000,Pusp Pharmaceuticals,Bhiwani Road,Vill. Gobindpura, Buda Baba Basti, Jind - 126102, Dist.Jind, Haryana",8048261917,
"Woodwards Black The Gripe Water, Packaging Type: Plastic Bottle, Newly Born",https://www.indiamart.com/proddetail/the-gripe-water-2851976717812.html?pos=32&kwd=gripe water&tags=BA||||9110.092|Price|product|||MDC|rsf:gd-|-qr_nm:gd|res:RC3|com-cf:nl|ptrs:na|ktp:N0|mc:41613|mtp:S|qry_typ:P|lang:en|wc:2|cs:7530|v=4,V P Medical Agency,https://www.indiamart.com/vpmedicalagencies/?pos=32&kwd=gripe water&tags=BA||||9110.092|Price|product|||MDC|rsf:gd-|-qr_nm:gd|res:RC3|com-cf:nl|ptrs:na|ktp:N0|mc:41613|mtp:S|qry_typ:P|lang:en|wc:2|cs:7530|v=4,False,Ashiyana,Lucknow,"M-652,Sector- M,Kanpur Road,Lucknow,, Ashiyana, Lucknow - 226012, Dist.Lucknow, Uttar Pradesh",7942821656,
"Colimin Drops ., 30 ml, Prescription",https://www.indiamart.com/proddetail/colimin-drops-22032991433.html?pos=33&kwd=gripe water&tags=BB||||8785.791|Price|product|||TS|rsf:gd-|-qr_nm:gd|res:RC3|com-cf:nl|ptrs:na|ktp:N0|mc:41613|mtp:S|qry_typ:P|lang:en|wc:2|cs:7530|v=4,J M D Medicose,https://www.indiamart.com/jmdmedicose/?pos=33&kwd=gripe water&tags=BB||||8785.791|Price|product|||TS|rsf:gd-|-qr_nm:gd|res:RC3|com-cf:nl|ptrs:na|ktp:N0|mc:41613|mtp:S|qry_typ:P|lang:en|wc:2|cs:7530|v=4,False,Indirapuram,Ghaziabad,"46, Shop No 1, Shakti Khand 3, Indrapuram, Indirapuram, Ghaziabad - 201014, Dist.Ghaziabad, Uttar Pradesh",7942539321,
"Arlak Gripe Water(Gripe Water For Newborns Babies , Constipation And Stomach Disorder)",https://www.indiamart.com/proddetail/arlak-gripe-water-gripe-water-for-newborns-babies-constipation-and-stomach-disorder-2853239256162.html?pos=34&kwd=gripe water&tags=BA||||8740.707|Price|product|||MDC|rsf:gd-|-qr_nm:gd|res:RC3|com-cf:nl|ptrs:na|ktp:N0|mc:41613|mtp:S|qry_typ:P|lang:en|wc:2|cs:7530|v=4,Green Thinking,https://www.indiamart.com/greenthinking/?pos=34&kwd=gripe water&tags=BA||||8740.707|Price|product|||MDC|rsf:gd-|-qr_nm:gd|res:RC3|com-cf:nl|ptrs:na|ktp:N0|mc:41613|mtp:S|qry_typ:P|lang:en|wc:2|cs:7530|v=4,False,Daffarpur,Sas Nagar,"SCO No 17, Ground Floor, Platinum Homes, Old Ambala Road, Zirakpur, Sas Nagar, Daffarpur, Sas Nagar - 160055, Dist.Mohali, Punjab",8047673658,
"Novita Gripe Water, 3-12 Months, Packaging Size: 150 ml",https://www.indiamart.com/proddetail/novita-gripe-water-2853990234330.html?pos=35&kwd=gripe water&tags=BA||||9140.514||product|||MDC|rsf:gd-|-qr_nm:gd|res:RC3|com-cf:nl|ptrs:na|ktp:N0|mc:41613|mtp:S|qry_typ:P|lang:en|wc:2|cs:7530|v=4,Nathani Healthcare,https://www.indiamart.com/nathanihealthcare/?pos=35&kwd=gripe water&tags=BA||||9140.514||product|||MDC|rsf:gd-|-qr_nm:gd|res:RC3|com-cf:nl|ptrs:na|ktp:N0|mc:41613|mtp:S|qry_typ:P|lang:en|wc:2|cs:7530|v=4,False,,Raipur,"Shop No- 72, Oushdhi Vatika, Dumartarai, Raipur - 491015, Chhattisgarh",7949327919,
100ml Gripe Water,https://www.indiamart.com/proddetail/100ml-gripe-water-2852541166555.html?pos=36&kwd=gripe water&tags=BA||||9189.305|Price|product|||MDC|rsf:gd-|-qr_nm:gd|res:RC3|com-cf:nl|ptrs:na|ktp:N0|mc:41613|mtp:S|qry_typ:P|lang:en|wc:2|cs:7530|v=4,Alaukik Pharmacy,https://www.indiamart.com/alaukikpharmacy/?pos=36&kwd=gripe water&tags=BA||||9189.305|Price|product|||MDC|rsf:gd-|-qr_nm:gd|res:RC3|com-cf:nl|ptrs:na|ktp:N0|mc:41613|mtp:S|qry_typ:P|lang:en|wc:2|cs:7530|v=4,False,,Prayagraj,"583/266, Meerapur, Near Hanuman Mandir Crossing, Prayagraj - 211003, Dist.Allahabad, Uttar Pradesh",8047680596,
Woodwards Gripe Water,,J.K. Agencies,https://www.indiamart.com/jkagenciesmaharashtra/?pos=37&kwd=gripe water&tags=BA||||8211.142|Price|product|||MDC|rsf:gd-|-qr_nm:gd|res:RC3|com-cf:nl|ptrs:na|ktp:N0|mc:41613|mtp:S|qry_typ:P|lang:en|wc:2|cs:7530|v=4,False,Mahim,Mumbai,"Ground 2,3,5, T H Kataria Road, Raowadi No.15, Mahim, Mahim, Mumbai - 400016, Dist.Mumbai, Maharashtra",8047657383,
"150ml Nutracare Gripe Water, Newly Born",https://www.indiamart.com/proddetail/150ml-nutracare-gripe-water-2854342844197.html?pos=38&kwd=gripe water&tags=A||||8559.269|Price|product|||NA|rsf:gd-|-qr_nm:gd|res:RC3|com-cf:nl|ptrs:na|ktp:N0|mc:41613|mtp:S|qry_typ:P|lang:en|wc:2|cs:7530|v=4,Nutracare Formulations Private Limited,https://www.indiamart.com/nutracare-formulations/?pos=38&kwd=gripe water&tags=A||||8559.269|Price|product|||NA|rsf:gd-|-qr_nm:gd|res:RC3|com-cf:nl|ptrs:na|ktp:N0|mc:41613|mtp:S|qry_typ:P|lang:en|wc:2|cs:7530|v=4,False,,Indore,"73 K-1, Sector-a, Scheme No 71, Indore - 452009, Dist.Indore, Madhya Pradesh",7949327964,
Vijay Gripe Water,https://www.indiamart.com/proddetail/gripe-water-22792681362.html?pos=39&kwd=gripe water&tags=BB||||8624.416|Price|product|||NA|rsf:gd-|-qr_nm:gd|res:RC3|com-cf:nl|ptrs:na|ktp:N0|mc:41613|mtp:S|qry_typ:P|lang:en|wc:2|cs:7530|v=4,K Group Pharmacauticals,https://www.indiamart.com/k-group-pharmacauticals/?pos=39&kwd=gripe water&tags=BB||||8624.416|Price|product|||NA|rsf:gd-|-qr_nm:gd|res:RC3|com-cf:nl|ptrs:na|ktp:N0|mc:41613|mtp:S|qry_typ:P|lang:en|wc:2|cs:7530|v=4,False,,Hisar,"26, NEELKANTH COMPLEX, HISAR, Hisar city, Hisar - 125001, Dist.Hisar, Haryana",8047804035,
Geo Gripe Water,https://www.indiamart.com/proddetail/geo-gripe-water-23943620555.html?pos=40&kwd=gripe water&tags=BB||||8580.032|Price|product|||NA|rsf:gd-|-qr_nm:gd|res:RC3|com-cf:nl|ptrs:na|ktp:N0|mc:41613|mtp:S|qry_typ:P|lang:en|wc:2|cs:7530|v=4,Geo Ayurveda,https://www.indiamart.com/geoayurveda/?pos=40&kwd=gripe water&tags=BB||||8580.032|Price|product|||NA|rsf:gd-|-qr_nm:gd|res:RC3|com-cf:nl|ptrs:na|ktp:N0|mc:41613|mtp:S|qry_typ:P|lang:en|wc:2|cs:7530|v=4,False,,Amritsar,"chmrang road near petrol pump, Amritsar - 143001, Dist.Amritsar, Punjab",8046076780,
"Leo Gripe Water, Packaging Size: 130 ml",https://www.indiamart.com/proddetail/leo-gripe-water-2854694794391.html?pos=41&kwd=gripe water&tags=BB||||8228.275|Price|product|||NA|rsf:gd-|-qr_nm:gd|res:RC3|com-cf:nl|ptrs:na|ktp:N0|mc:41613|mtp:S|qry_typ:P|lang:en|wc:2|cs:7530|v=4,LEO FORMULATIONS PVT LTD.,https://www.indiamart.com/leo-formulations/?pos=41&kwd=gripe water&tags=BB||||8228.275|Price|product|||NA|rsf:gd-|-qr_nm:gd|res:RC3|com-cf:nl|ptrs:na|ktp:N0|mc:41613|mtp:S|qry_typ:P|lang:en|wc:2|cs:7530|v=4,False,Ahmedabad,Ahmedabad,"Plot 7, Gujarat Pharma Techno Park Sari Matoda, Changodar Bavla Road, Ahmedabad, Ahmedabad - 382220, Dist.Ahmedabad, Gujarat",8047651545,
"Dabur Gripe Water, 1-2 Years, Packaging Size: 150 ml",https://www.indiamart.com/proddetail/dabur-gripe-water-2854259060048.html?pos=42&kwd=gripe water&tags=BA||||10180.86|Price|product|||NA|rsf:gd-|-qr_nm:gd|res:RC3|com-cf:nl|ptrs:na|ktp:N0|mc:41613|mtp:S|qry_typ:P|lang:en|wc:2|cs:7530|v=4,Arnav Pharma,https://www.indiamart.com/arnav-pharma-guwahati/?pos=42&kwd=gripe water&tags=BA||||10180.86|Price|product|||NA|rsf:gd-|-qr_nm:gd|res:RC3|com-cf:nl|ptrs:na|ktp:N0|mc:41613|mtp:S|qry_typ:P|lang:en|wc:2|cs:7530|v=4,False,,Guwahati,"C/O Debu Nath, C K Road, Pan Bazar, Kamrup Metropolitan, Guwahati - 781001, Dist.Kamrup, Assam",8045735755,
"Orange(base) Pinkoo Gripe Water, Packaging Type: Box, Upto 2 Years",https://www.indiamart.com/proddetail/pinkoo-gripe-water-2851032619130.html?pos=43&kwd=gripe water&tags=BB||||8510.978|Price|product|||NA|rsf:gd-|-qr_nm:gd|res:RC3|com-cf:nl|ptrs:na|ktp:N0|mc:41613|mtp:S|qry_typ:P|lang:en|wc:2|cs:7530|v=4,Shree Shubham Distributer,https://www.indiamart.com/shree-shubham-distributer/?pos=43&kwd=gripe water&tags=BB||||8510.978|Price|product|||NA|rsf:gd-|-qr_nm:gd|res:RC3|com-cf:nl|ptrs:na|ktp:N0|mc:41613|mtp:S|qry_typ:P|lang:en|wc:2|cs:7530|v=4,False,B J Market,Jalgaon,"Ground Floor, Shop No 117, B J Market, Jalgaon - 425001, Dist.Jalgaon, Maharashtra",8047795213,
"White Pinkoo Gripe Water, Packaging Type: Bottle",https://www.indiamart.com/proddetail/pinkoo-gripe-water-2851667562733.html?pos=44&kwd=gripe water&tags=BB||||8316.457|Price|product|||NA|rsf:gd-|-qr_nm:gd|res:RC3|com-cf:nl|ptrs:na|ktp:N0|mc:41613|mtp:S|qry_typ:P|lang:en|wc:2|cs:7530|v=4,Saikrushna Enterprises,https://www.indiamart.com/saikrushna-enterprises/?pos=44&kwd=gripe water&tags=BB||||8316.457|Price|product|||NA|rsf:gd-|-qr_nm:gd|res:RC3|com-cf:nl|ptrs:na|ktp:N0|mc:41613|mtp:S|qry_typ:P|lang:en|wc:2|cs:7530|v=4,False,,Nashik,"Shop No 5, Spring Valley Appt, Tapovan Link Road, Nashik - 422011, Dist.Nashik, Maharashtra",7942837146,
"Pink Canley Gripe Water, Packaging Type: Box, Newly Born",https://www.indiamart.com/proddetail/canley-gripe-water-25848284597.html?pos=45&kwd=gripe water&tags=BB||||8747.223|Price|product|||NA|rsf:gd-|-qr_nm:gd|res:RC3|com-cf:nl|ptrs:na|ktp:N0|mc:41613|mtp:S|qry_typ:P|lang:en|wc:2|cs:7530|v=4,Swastik Formulations,https://www.indiamart.com/swastikformulations-sonipat/?pos=45&kwd=gripe water&tags=BB||||8747.223|Price|product|||NA|rsf:gd-|-qr_nm:gd|res:RC3|com-cf:nl|ptrs:na|ktp:N0|mc:41613|mtp:S|qry_typ:P|lang:en|wc:2|cs:7530|v=4,False,,Sonipat,"Near Jali Factory, Patel Nagar, Sonipat - 131001, Dist.Sonipat, Haryana",8047672376,
Woodwards Gripe Water 200ml,https://www.indiamart.com/proddetail/woodwards-gripe-water-200ml-2854344705633.html?pos=46&kwd=gripe water&tags=BB||||8556.61|Price|product|||NA|rsf:gd-|-qr_nm:gd|res:RC3|com-cf:nl|ptrs:na|ktp:N0|mc:41613|mtp:S|qry_typ:P|lang:en|wc:2|cs:7530|v=4,Sai Samrudhi Enterprises,https://www.indiamart.com/sai-samrudhi-enterprises-mysuru/?pos=46&kwd=gripe water&tags=BB||||8556.61|Price|product|||NA|rsf:gd-|-qr_nm:gd|res:RC3|com-cf:nl|ptrs:na|ktp:N0|mc:41613|mtp:S|qry_typ:P|lang:en|wc:2|cs:7530|v=4,False,,Mysuru,"440 16th Main Road D Block J P Nagar Mysuru Mysuru, Mysuru - 570031, Dist.Mysuru, Karnataka",8048370723,4326
Wood Wards Gripe Water,https://www.indiamart.com/proddetail/wood-wards-gripe-water-24690392133.html?pos=47&kwd=gripe water&tags=BB||||9110.092|Price|product|||NA|rsf:gd-|-qr_nm:gd|res:RC3|com-cf:nl|ptrs:na|ktp:N0|mc:41613|mtp:S|qry_typ:P|lang:en|wc:2|cs:7530|v=4,Omme Trading Private Limited,https://www.indiamart.com/omme-trading/?pos=47&kwd=gripe water&tags=BB||||9110.092|Price|product|||NA|rsf:gd-|-qr_nm:gd|res:RC3|com-cf:nl|ptrs:na|ktp:N0|mc:41613|mtp:S|qry_typ:P|lang:en|wc:2|cs:7530|v=4,False,Gomti Nagar,Lucknow,"L- 2/468 Gomti Nagar Vineet Khand, Gomti Nagar, Lucknow - 226010, Dist.Lucknow, Uttar Pradesh",7942545632,
130ML Woodwards Gripe Water,https://www.indiamart.com/proddetail/130ml-woodwards-gripe-water-25432057630.html?pos=48&kwd=gripe water&tags=BB||||9839.57|Price|product|||NA|rsf:gd-|-qr_nm:gd|res:RC3|com-cf:nl|ptrs:na|ktp:N0|mc:41613|mtp:S|qry_typ:P|lang:en|wc:2|cs:7530|v=4,Siddhidata Enterprise,https://www.indiamart.com/siddhidata-enterprise-kolkata/?pos=48&kwd=gripe water&tags=BB||||9839.57|Price|product|||NA|rsf:gd-|-qr_nm:gd|res:RC3|com-cf:nl|ptrs:na|ktp:N0|mc:41613|mtp:S|qry_typ:P|lang:en|wc:2|cs:7530|v=4,False,,Kolkata,"B/48A/H/6/1 Pottery Road, Kolkata - 700015, Dist.Kolkata, West Bengal",8047622670,
"Gentle Antacid Gripe Water, 3-12 Months",https://www.indiamart.com/proddetail/gentle-antacid-gripe-water-24593071462.html?pos=49&kwd=gripe water&tags=BB||||8228.275||product|||NA|rsf:gd-|-qr_nm:gd|res:RC3|com-cf:nl|ptrs:na|ktp:N0|mc:41613|mtp:S|qry_typ:P|lang:en|wc:2|cs:7530|v=4,Life Care Pharma,https://www.indiamart.com/lifecarepharmaahmedabad/?pos=49&kwd=gripe water&tags=BB||||8228.275||product|||NA|rsf:gd-|-qr_nm:gd|res:RC3|com-cf:nl|ptrs:na|ktp:N0|mc:41613|mtp:S|qry_typ:P|lang:en|wc:2|cs:7530|v=4,False,Mahadev Nagar Tekra,Ahmedabad,"Shop No, C/16, Ground Floor, Mahadev Avenue, Opp, Yamunaji Park, Canal Road, Vastral, Mahadev Nagar Tekra, Ahmedabad - 382418, Dist.Ahmedabad, Gujarat",7942539077,
"Rex Gripe Water 100ml, Packaging Type: Bottle, Newly Born",https://www.indiamart.com/proddetail/rex-gripe-water-100ml-2851733139555.html?pos=50&kwd=gripe water&tags=BA||||8752.144|Price|product|||NA|rsf:gd-|-qr_nm:gd|res:RC3|com-cf:nl|ptrs:na|ktp:N0|mc:41613|mtp:S|qry_typ:P|lang:en|wc:2|cs:7530|v=4,Altamash Enterprises,https://www.indiamart.com/altamashenterprises-new-delhi/?pos=50&kwd=gripe water&tags=BA||||8752.144|Price|product|||NA|rsf:gd-|-qr_nm:gd|res:RC3|com-cf:nl|ptrs:na|ktp:N0|mc:41613|mtp:S|qry_typ:P|lang:en|wc:2|cs:7530|v=4,False,,New Delhi,"Ground, Kh no 14/23/2/2, Nathu Colony, Gali no 9 D Block Nathu Colony, Nathu Pura Bus Stand Villagr Nathupura Burari, New Delhi - 110084, Dist.Delhi, Delhi",7942833193,
British Tulsi Gripe Water,https://www.indiamart.com/proddetail/british-tulsi-gripe-water-20471104591.html?pos=51&kwd=gripe water&tags=BB||||8559.269|Price|product|||NA|rsf:gd-|-qr_nm:gd|res:RC3|com-cf:nl|ptrs:na|ktp:N0|mc:41613|mtp:S|qry_typ:P|lang:en|wc:2|cs:7530|v=4,British Remedis,https://www.indiamart.com/british-remedies/?pos=51&kwd=gripe water&tags=BB||||8559.269|Price|product|||NA|rsf:gd-|-qr_nm:gd|res:RC3|com-cf:nl|ptrs:na|ktp:N0|mc:41613|mtp:S|qry_typ:P|lang:en|wc:2|cs:7530|v=4,False,,Indore,"13 Industrial Area Ext. Rau, Indore - 452331, Dist.Indore, Madhya Pradesh",8047633951,
Babababy Gripe Water 100 ml,https://www.indiamart.com/proddetail/babababy-gripe-water-100-ml-12465816197.html?pos=52&kwd=gripe water&tags=BA||||8228.275|Price|product|||NA|rsf:gd-|-qr_nm:gd|res:RC3|com-cf:nl|ptrs:na|ktp:N0|mc:41613|mtp:S|qry_typ:P|lang:en|wc:2|cs:7530|v=4,Kumar Products,https://www.indiamart.com/kumarproducts/?pos=52&kwd=gripe water&tags=BA||||8228.275|Price|product|||NA|rsf:gd-|-qr_nm:gd|res:RC3|com-cf:nl|ptrs:na|ktp:N0|mc:41613|mtp:S|qry_typ:P|lang:en|wc:2|cs:7530|v=4,False,,Ahmedabad,"Gidc Industrial Estate Plot C-1/706 Phase 4 Gidc Vatva, Ahmedabad - 382445, Dist.Ahmedabad, Gujarat",8047786851,
"Syrup White HerbRoot Surya Herbal Gripe Go, Gripe Water for Kids, 150ml, Packaging Type: Plastic Bottle",https://www.indiamart.com/proddetail/herbroot-surya-herbal-gripe-go-gripe-water-for-kids-150ml-22815435262.html?pos=53&kwd=gripe water&tags=BB||||8778.123|Price|product|||NA|rsf:gd-|-qr_nm:gd|res:RC3|com-cf:nl|ptrs:na|ktp:N0|mc:41613|mtp:S|qry_typ:P|lang:en|wc:2|cs:7530|v=4,Surya Herbal Ltd.,https://www.indiamart.com/surya-herballtd/?pos=53&kwd=gripe water&tags=BB||||8778.123|Price|product|||NA|rsf:gd-|-qr_nm:gd|res:RC3|com-cf:nl|ptrs:na|ktp:N0|mc:41613|mtp:S|qry_typ:P|lang:en|wc:2|cs:7530|v=4,False,Sector 59,Noida,"C-33, Sector 59, Sector 59, Noida - 201301, Dist.Gautam Budh Nagar, Uttar Pradesh",8047683177,
150 ml Mothers Choice Gripe Water,https://www.indiamart.com/proddetail/150-ml-mothers-choice-gripe-water-24376054088.html?pos=54&kwd=gripe water&tags=BA||||8954.051|Price|product|||NA|rsf:gd-|-qr_nm:gd|res:RC3|com-cf:nl|ptrs:na|ktp:N0|mc:41613|mtp:S|qry_typ:P|lang:en|wc:2|cs:7530|v=4,Groosell Pharmaceutical Manufacturing Company,https://www.indiamart.com/groosellpharmaceutical/?pos=54&kwd=gripe water&tags=BA||||8954.051|Price|product|||NA|rsf:gd-|-qr_nm:gd|res:RC3|com-cf:nl|ptrs:na|ktp:N0|mc:41613|mtp:S|qry_typ:P|lang:en|wc:2|cs:7530|v=4,False,Valasaravakkam,Chennai,"No.50, Ramasamy Salai Sri Devi Karumariamman Nagar, Valasaravakkam,, Valasaravakkam, Chennai - 600087, Dist.Chennai, Tamil Nadu",7949092532,
Fernhill Babies Healthy Growth Natural Fern Gripe Water,https://www.indiamart.com/proddetail/babies-healthy-growth-natural-fern-gripe-water-22054083433.html?pos=55&kwd=gripe water&tags=BB||||8785.608|Price|product|||NA|rsf:gd-|-qr_nm:gd|res:RC3|com-cf:nl|ptrs:na|ktp:N0|mc:41613|mtp:S|qry_typ:P|lang:en|wc:2|cs:7530|v=4,Fernhill,https://www.indiamart.com/fernhill/?pos=55&kwd=gripe water&tags=BB||||8785.608|Price|product|||NA|rsf:gd-|-qr_nm:gd|res:RC3|com-cf:nl|ptrs:na|ktp:N0|mc:41613|mtp:S|qry_typ:P|lang:en|wc:2|cs:7530|v=4,False,,Yamuna Nagar,"Vill. Ganauli, Distt. Yamuna Nagar, Yamuna Nagar - 135103, Dist.Yamuna Nagar, Haryana",7942655364,
MOTHER BLISS Gripe Water Sodium Bicarbonate + Dill Oil,https://www.indiamart.com/proddetail/gripe-water-sodium-bicarbonate-dill-oil-23304703755.html?pos=56&kwd=gripe water&tags=BA||||8580.032|Price|product|||NA|rsf:gd-|-qr_nm:gd|res:RC3|com-cf:nl|ptrs:na|ktp:N0|mc:41613|mtp:S|qry_typ:P|lang:en|wc:2|cs:7530|v=4,Regoshin Healthcare Private Limited,https://www.indiamart.com/regoshinhealthcare/?pos=56&kwd=gripe water&tags=BA||||8580.032|Price|product|||NA|rsf:gd-|-qr_nm:gd|res:RC3|com-cf:nl|ptrs:na|ktp:N0|mc:41613|mtp:S|qry_typ:P|lang:en|wc:2|cs:7530|v=4,False,Albert Road Area,Amritsar,"123/7,CITY CENTRE,G.T ROAD,CITY CENTRE 123/7 G. T Road City Centre City Centre,143001,, Albert Road Area, Amritsar - 143001, Dist.Amritsar, Punjab",8048963066,
"Transparent HL Gripe Mixture Water, Packaging Type: Box, 3-12 Months",https://www.indiamart.com/proddetail/hl-gripe-mixture-water-2852385334830.html?pos=57&kwd=gripe water&tags=BA||||9520.041|Price|product|||NA|rsf:gd-|-qr_nm:gd|res:RC3|com-cf:nl|ptrs:na|ktp:N0|mc:41613|mtp:S|qry_typ:P|lang:en|wc:2|cs:7530|v=4,New Reasonable Homoeo Pharmacy,https://www.indiamart.com/newreasonable-homoeo-pharmacy/?pos=57&kwd=gripe water&tags=BA||||9520.041|Price|product|||NA|rsf:gd-|-qr_nm:gd|res:RC3|com-cf:nl|ptrs:na|ktp:N0|mc:41613|mtp:S|qry_typ:P|lang:en|wc:2|cs:7530|v=4,False,Bakarganj,Patna,"1, Sabjibagh, Bakarganj, Patna - 800004, Dist.Patna, Bihar",7942705401,
Gripe Water,,Get Well Pharmacy,https://www.indiamart.com/getwellpharmacy-chennai/?pos=58&kwd=gripe water&tags=B||||8954.051|Price|product|||NA|rsf:gd-|-qr_nm:gd|res:RC3|com-cf:nl|ptrs:na|ktp:N0|mc:41613|mtp:S|qry_typ:P|lang:en|wc:2|cs:7530|v=4,False,,Chennai,"12a/1,12a/2 1st Main Road Andal Nagar,Velachery Chennai, Chennai - 600042, Dist.Chennai, Tamil Nadu",8048370718,8905
Gripe Water,,Trija Biotech,https://www.indiamart.com/mumbai-chemist-vasai-virar/?pos=59&kwd=gripe water&tags=B||||8210.732||product|||NA|rsf:gd-|-qr_nm:gd|res:RC3|com-cf:nl|ptrs:na|ktp:N0|mc:41613|mtp:S|qry_typ:P|lang:en|wc:2|cs:7530|v=4,False,,Vasai Virar,"Ground Floor Shop No 04 Bhagate Compound Survey No 59 Satavali Vasai, Vasai Virar - 401208, Dist.Thane, Maharashtra",8047311021,3350
Gripe Water,,Piyush Enterprises,https://www.indiamart.com/piyush-enterprises-muzaffarpur/?pos=60&kwd=gripe water&tags=BA||||9544.876||product|||NA|rsf:gd-|-qr_nm:gd|res:RC3|com-cf:nl|ptrs:na|ktp:N0|mc:41613|mtp:S|qry_typ:P|lang:en|wc:2|cs:7530|v=4,False,,Muzaffarpur,"01,Jay Prakash Nagar,Kolhua Paigamberpur,Kanti,Bairiya,Muzaffarpur, Muzaffarpur - 843108, Dist.Muzaffarpur, Bihar",8069707347,189
Gripe Water,,Nexus Life Science,https://www.indiamart.com/nexuslifescience/?pos=61&kwd=gripe water&tags=BB||||8228.275|Price|product|||NA|rsf:gd-|-qr_nm:gd|res:RC3|com-cf:nl|ptrs:na|ktp:N0|mc:41613|mtp:S|qry_typ:P|lang:en|wc:2|cs:7530|v=4,False,,Ahmedabad,"Godown no 18,1st floor,India Estate, Sarkhej, Ahmedabad - 380013, Dist.Ahmedabad, Gujarat",8046071547,
Gripe Water,,MR Pharma,https://www.indiamart.com/mr-pharma-chennai/?pos=62&kwd=gripe water&tags=BB||||8584.299||product|||NA|rsf:gd-|-qr_nm:gd|res:RC3|com-cf:nl|ptrs:na|ktp:N0|mc:41613|mtp:S|qry_typ:P|lang:en|wc:2|cs:7530|v=4,False,,Coimbatore,"Door No. 1600, TP Chatram, Shenoy Nagar, Coimbatore - 600030, Dist.Coimbatore, Tamil Nadu",8048247119,6913
Gripe water,,Devla Ayurvedic Stores,https://www.indiamart.com/devla-ayurvedic-stores/?pos=63&kwd=gripe water&tags=BA||||8282.222|Price|product|||NA|rsf:gd-|-qr_nm:gd|res:RC3|com-cf:nl|ptrs:na|ktp:N0|mc:41613|mtp:S|qry_typ:P|lang:en|wc:2|cs:7530|v=4,False,himatnagar,Sabarkantha,"1juna Bajar , Limda Niche , Idariya Boot House, himatnagar, Sabarkantha - 383001, Dist.Sabarkantha, Gujarat",8043843010,
Woodward Gripe Water,,Sri Balaji Medicals,https://www.indiamart.com/sri-balaji-medicals-bengaluru/?pos=64&kwd=gripe water&tags=BA||||8663.873||product|||NA|rsf:gd-|-qr_nm:gd|res:RC3|com-cf:nl|ptrs:na|ktp:N0|mc:41613|mtp:S|qry_typ:P|lang:en|wc:2|cs:7530|v=4,False,Karnatka,Bengaluru,"22nd Main Road, 17th Cross, Shamanna Garden, Karnatka, Bengaluru - 560078, Dist.Bengaluru, Karnataka",8048371692,169
Pinku Gripe Water,,Amrit Agencies,https://www.indiamart.com/amrit-agencies-nagpur/?pos=65&kwd=gripe water&tags=BB||||8876.815||product|||NA|rsf:gd-|-qr_nm:gd|res:RC3|com-cf:nl|ptrs:na|ktp:N0|mc:41613|mtp:S|qry_typ:P|lang:en|wc:2|cs:7530|v=4,False,Itwari,Nagpur,"H. No. 127 Ward No 50, Khoja Jamat Khana, Itwari, Nagpur, Itwari, Nagpur - 440002, Dist.Nagpur, Maharashtra",8047832196,
Woodward'S Gripe Water,,Shree Balaji Enterprises,https://www.indiamart.com/shreebalajienterprises-89658074/?pos=66&kwd=gripe water&tags=BB||||8663.873||product|||NA|rsf:gd-|-qr_nm:gd|res:RC3|com-cf:nl|ptrs:na|ktp:N0|mc:41613|mtp:S|qry_typ:P|lang:en|wc:2|cs:7530|v=4,False,Bengaluru Urban,Bengaluru,"Ground Floor, No. 623 B Channasandra, Kalappa Layout, Banasawadi Post, Bengaluru Urban, Bengaluru - 560043, Dist.Bengaluru, Karnataka",8047813688,
Baby Care Gripe Water,,M.A.Enterprises,https://www.indiamart.com/maenterprises-kanchipuram/?pos=67&kwd=gripe water&tags=BB||||8891.556|Price|product|||NA|rsf:gd-|-qr_nm:gd|res:RC3|com-cf:nl|ptrs:na|ktp:N0|mc:41613|mtp:S|qry_typ:P|lang:en|wc:2|cs:7530|v=4,False,,Kanchipuram,"No.3/1190 Sulaima Nagar 3rd Street Mettukuppam, Okkiam Thuraipakkam, Kanchipuram - 600097, Dist.Kanchipuram, Tamil Nadu",7942660137,
Naunihal Gripe Syrup,,Kushagra Ayurveda,https://www.indiamart.com/kushagra-ayurveda/?pos=68&kwd=gripe water&tags=BB||||9187.111||product|||NA|rsf:gd-|-qr_nm:gd|res:RC3|com-cf:nl|ptrs:na|ktp:N0|mc:41613|mtp:S|qry_typ:P|lang:en|wc:2|cs:7530|v=4,False,,Kota,"gumanpura market near saroya eye hospital, Kota - 324007, Chhattisgarh",8069033738,333
Hamdard Naunehal Gripe Syrup,,S. J. Healthcare,https://www.indiamart.com/s-j-healthcare-ghaziabad/?pos=69&kwd=gripe water&tags=BB||||8785.791||product|||NA|rsf:gd-|-qr_nm:gd|res:RC3|com-cf:nl|ptrs:na|ktp:N0|mc:41613|mtp:S|qry_typ:P|lang:en|wc:2|cs:7530|v=4,False,,Ghaziabad,"714-A, GAUR GREEN VISTA NAYU KHAND-1, INDIRAPURAM, GHAZIABAD, Ghaziabad, Uttar Pradesh, 201001, Ghaziabad - 201001, Dist.Ghaziabad, Uttar Pradesh",8069013091,644
Grip Water,,Avanti Venture,https://www.indiamart.com/avanti-venture/?pos=70&kwd=gripe water&tags=BB||||8559.269||product|||NA|rsf:gd-|-qr_nm:gd|res:RC3|com-cf:nl|ptrs:na|ktp:N0|mc:41613|mtp:S|qry_typ:P|lang:en|wc:2|cs:7530|v=4,False,Sudama Nagar,Indore,"574- A, Sudama Nagar, Indore - 452009, Dist.Indore, Madhya Pradesh",7948218492,
Woodwards Grape Water,,Ayush Consumer Goods,https://www.indiamart.com/ayush-consumer-goods/?pos=71&kwd=gripe water&tags=BB||||8228.275|Price|product|||NA|rsf:gd-|-qr_nm:gd|res:RC3|com-cf:nl|ptrs:na|ktp:N0|mc:41613|mtp:S|qry_typ:P|lang:en|wc:2|cs:7530|v=4,False,GOTA,Ahmedabad,"10th Floor N-1004 x Godrej Garden City Eden, GOTA, Ahmedabad - 382470, Dist.Ahmedabad, Gujarat",8069017263,719
GRIP WATER Gripe Water,https://www.indiamart.com/proddetail/gripe-water-21183280955.html?pos=72&kwd=gripe water&tags=CC||||8282.222|Price|product|||TS|rsf:gd-|-qr_nm:gd|res:RC3|com-cf:nl|ptrs:na|ktp:N0|mc:41613|mtp:S|qry_typ:P|lang:en|wc:2|cs:7530|v=4,Sehat Pharma Private Limited,https://www.indiamart.com/sehatpharma/?pos=72&kwd=gripe water&tags=CC||||8282.222|Price|product|||TS|rsf:gd-|-qr_nm:gd|res:RC3|com-cf:nl|ptrs:na|ktp:N0|mc:41613|mtp:S|qry_typ:P|lang:en|wc:2|cs:7530|v=4,False,Mehtapura,Sabarkantha,"Sehat House, Lala Estate, Out Side Mehtapura Railway Crossing, Idar Highway Road, Dhandha, Mehtapura, Sabarkantha - 383001, Dist.Sabarkantha, Gujarat",8048970906,
Gripe Water,https://www.indiamart.com/proddetail/gripe-water-23482031312.html?pos=73&kwd=gripe water&tags=CB||||8753.51||product|||TS|rsf:gd-|-qr_nm:gd|res:RC3|com-cf:nl|ptrs:na|ktp:N0|mc:41613|mtp:S|qry_typ:P|lang:en|wc:2|cs:7530|v=4,North India Life Sciences Pvt. Ltd.,https://www.indiamart.com/northindialifescience/?pos=73&kwd=gripe water&tags=CB||||8753.51||product|||TS|rsf:gd-|-qr_nm:gd|res:RC3|com-cf:nl|ptrs:na|ktp:N0|mc:41613|mtp:S|qry_typ:P|lang:en|wc:2|cs:7530|v=4,False,Sector 3,Karnal,"Plot No-430/3, Sector -3, HSIIDC, Sector 3, Karnal - 132001, Dist.Karnal, Haryana",8046048457,
"Gripe Water, Packaging Size: 100 ml",https://www.indiamart.com/proddetail/gripe-water-2854407099388.html?pos=74&kwd=gripe water&tags=CC||||8601.347|Price|product|||TS|rsf:gd-|-qr_nm:gd|res:RC3|com-cf:nl|ptrs:na|ktp:N0|mc:41613|mtp:S|qry_typ:P|lang:en|wc:2|cs:7530|v=4,Ratnesh Medical Agency,https://www.ratneshmedical.in/?pos=74&kwd=gripe water&tags=CC||||8601.347|Price|product|||TS|rsf:gd-|-qr_nm:gd|res:RC3|com-cf:nl|ptrs:na|ktp:N0|mc:41613|mtp:S|qry_typ:P|lang:en|wc:2|cs:7530|v=4,False,Bavri,Jaipur,"Kalyan Mension Badwar Market, Chaura Rasta, Bavri, Jaipur - 302003, Dist.Jaipur, Rajasthan",8047637543,
"Natiure Nature Gripe Water, Packaging Type: Box, 1-2 Years",https://www.indiamart.com/proddetail/nature-gripe-water-2853075280191.html?pos=75&kwd=gripe water&tags=CC||||8230.883|Price|product|||TS|rsf:gd-|-qr_nm:gd|res:RC3|com-cf:nl|ptrs:na|ktp:N0|mc:41613|mtp:S|qry_typ:P|lang:en|wc:2|cs:7530|v=4,Rahul Babubhai Savaliya,https://www.indiamart.com/rahulbabubhaisavaliya/?pos=75&kwd=gripe water&tags=CC||||8230.883|Price|product|||TS|rsf:gd-|-qr_nm:gd|res:RC3|com-cf:nl|ptrs:na|ktp:N0|mc:41613|mtp:S|qry_typ:P|lang:en|wc:2|cs:7530|v=4,False,Kapodra Patiya,Surat,"Ground Floor, Fl 7, Jantanagar Society, Nr. Kapodra Char Rasta, Nr. Rachna Circle, Varachha Road, Kapodra Patiya, Surat - 395006, Dist.Surat, Gujarat",7942964837,
"Gripe Water of Chutty's Gripe Water Kadukai, Nellikai, Yelakkai, Sukku,Milagu,Thippilli",https://www.indiamart.com/proddetail/gripe-water-of-chutty-s-gripe-water-kadukai-nellikai-yelakkai-sukku-milagu-thippilli-2852083268973.html?pos=76&kwd=gripe water&tags=CC||||8706.587|Price|product|||TS|rsf:gd-|-qr_nm:gd|res:RC3|com-cf:nl|ptrs:na|ktp:N0|mc:41613|mtp:S|qry_typ:P|lang:en|wc:2|cs:7530|v=4,Pharmafabrikon,https://www.indiamart.com/pharmafabrikon/?pos=76&kwd=gripe water&tags=CC||||8706.587|Price|product|||TS|rsf:gd-|-qr_nm:gd|res:RC3|com-cf:nl|ptrs:na|ktp:N0|mc:41613|mtp:S|qry_typ:P|lang:en|wc:2|cs:7530|v=4,False,Vandiyur,Madurai,"91-1, Sivagangai Road Vilathur, Vandiyur, Madurai - 625020, Dist.Madurai, Tamil Nadu",8047643367,
"Harobonn Gripe Water, Packaging Type: Box, 3-12 Months",https://www.indiamart.com/proddetail/harobonn-gripe-water-2853589192812.html?pos=77&kwd=gripe water&tags=CC||||8601.347|Price|product|||MDC|rsf:gd-|-qr_nm:gd|res:RC3|com-cf:nl|ptrs:na|ktp:N0|mc:41613|mtp:S|qry_typ:P|lang:en|wc:2|cs:7530|v=4,Harrissa Healthcare Private Limited,https://www.indiamart.com/harrissa-healthcare/?pos=77&kwd=gripe water&tags=CC||||8601.347|Price|product|||MDC|rsf:gd-|-qr_nm:gd|res:RC3|com-cf:nl|ptrs:na|ktp:N0|mc:41613|mtp:S|qry_typ:P|lang:en|wc:2|cs:7530|v=4,False,Vishwakarma Industrial Area,Jaipur,"Plot No 60, Malhotra Nagar, VKI Area, Vishwakarma Industrial Area, Jaipur - 302013, Dist.Jaipur, Rajasthan",7948549477,
"Bio Gripe Water, Newly Born, Packaging Size: 150 ml",https://www.indiamart.com/proddetail/bio-gripe-water-2854245224930.html?pos=78&kwd=gripe water&tags=CC||||8559.269|Price|product|||MDC|rsf:gd-|-qr_nm:gd|res:RC3|com-cf:nl|ptrs:na|ktp:N0|mc:41613|mtp:S|qry_typ:P|lang:en|wc:2|cs:7530|v=4,Akhil Impex,https://www.indiamart.com/akhilimpex/?pos=78&kwd=gripe water&tags=CC||||8559.269|Price|product|||MDC|rsf:gd-|-qr_nm:gd|res:RC3|com-cf:nl|ptrs:na|ktp:N0|mc:41613|mtp:S|qry_typ:P|lang:en|wc:2|cs:7530|v=4,False,Lasudia Mori,Indore,"Ground Floor, 15/1, 37-A, Mangal Compound, Dewas Naka, Lasudiya Mori, Pipliya Kumar, Lasudia Mori, Indore - 452010, Dist.Indore, Madhya Pradesh",8045735133,
"Dabur Black ZALMAN GRIPE WATER, Packaging Type: Box, 1-2 Years",https://www.indiamart.com/proddetail/zalman-gripe-water-2852384608748.html?pos=79&kwd=gripe water&tags=CC||||8617.287|Price|product|||MDC|rsf:gd-|-qr_nm:gd|res:RC3|com-cf:nl|ptrs:na|ktp:N0|mc:41613|mtp:S|qry_typ:P|lang:en|wc:2|cs:7530|v=4,Zalman Life Sciences,https://www.indiamart.com/zalman-lifesciences/?pos=79&kwd=gripe water&tags=CC||||8617.287|Price|product|||MDC|rsf:gd-|-qr_nm:gd|res:RC3|com-cf:nl|ptrs:na|ktp:N0|mc:41613|mtp:S|qry_typ:P|lang:en|wc:2|cs:7530|v=4,False,Canal Colony,Ratia,"NEAR OLD BUS STAND,,NEAR OLD BUS STAND RATIA,RATIA, Canal Colony, Ratia - 125051, Dist.Fatehabad, Haryana",8047620234,
"White 150ml Gripe Water, Packaging Type: Box, 3-12 Months",https://www.indiamart.com/proddetail/150ml-gripe-water-27544342062.html?pos=80&kwd=gripe water&tags=CC||||9528.781|Price|product|||MDC|rsf:gd-|-qr_nm:gd|res:RC3|com-cf:nl|ptrs:na|ktp:N0|mc:41613|mtp:S|qry_typ:P|lang:en|wc:2|cs:7530|v=4,New Savitri Sales,https://www.indiamart.com/new-savitri-sales/?pos=80&kwd=gripe water&tags=CC||||9528.781|Price|product|||MDC|rsf:gd-|-qr_nm:gd|res:RC3|com-cf:nl|ptrs:na|ktp:N0|mc:41613|mtp:S|qry_typ:P|lang:en|wc:2|cs:7530|v=4,False,Nagra Toli,Ranchi,"Meena Complex, Shardhanand Road, Nagra Toli, Ranchi - 834001, Dist.Ranchi, Jharkhand",8044563072,
Gripe Baby Water,https://www.indiamart.com/proddetail/gripe-baby-water-2801320312.html?pos=81&kwd=gripe water&tags=CC||||8345.969|Price|product|||MDC|rsf:gd-|-qr_nm:gd|res:RC3|com-cf:nl|ptrs:na|ktp:N0|mc:41613|mtp:S|qry_typ:P|lang:en|wc:2|cs:7530|v=4,Bhaskar Ayurvedic Aushadhalaya,https://www.indiamart.com/bhaskarayurvedicaushadhalaya/?pos=81&kwd=gripe water&tags=CC||||8345.969|Price|product|||MDC|rsf:gd-|-qr_nm:gd|res:RC3|com-cf:nl|ptrs:na|ktp:N0|mc:41613|mtp:S|qry_typ:P|lang:en|wc:2|cs:7530|v=4,False,Nishant Colony,Kadegaon,"43 Kadegaon Midc Main Road, Nishant Colony, Kadegaon - 415304, Dist.Sangli, Maharashtra",8048954054,
Your Herbal Gripe Water Manufacturer,https://www.indiamart.com/proddetail/herbal-gripe-water-manufacturer-25348785297.html?pos=82&kwd=gripe water&tags=CC||||8754.115|Price|product|||MDC|rsf:gd-|-qr_nm:gd|res:RC3|com-cf:nl|ptrs:na|ktp:N0|mc:41613|mtp:S|qry_typ:P|lang:en|wc:2|cs:7530|v=4,ALICANTO BIOTECH PRIVATE LIMITED,https://www.indiamart.com/alicanto-biotech/?pos=82&kwd=gripe water&tags=CC||||8754.115|Price|product|||MDC|rsf:gd-|-qr_nm:gd|res:RC3|com-cf:nl|ptrs:na|ktp:N0|mc:41613|mtp:S|qry_typ:P|lang:en|wc:2|cs:7530|v=4,False,Panchkula Industrial Area Phase 1,Panchkula,"Plot No. 159 Phase 2, Industrial Area, Panchkula Industrial Area Phase 1, Panchkula - 134113, Dist.Panchkula, Haryana",8047306547,
Dra. MAE Gripe Water,https://www.indiamart.com/proddetail/dra-mae-gripe-water-5043370591.html?pos=83&kwd=gripe water&tags=CC||||8211.142||product|||MDC|rsf:gd-|-qr_nm:gd|res:RC3|com-cf:nl|ptrs:na|ktp:N0|mc:41613|mtp:S|qry_typ:P|lang:en|wc:2|cs:7530|v=4,Devlife Corporation Private Limited,https://www.indiamart.com/devlife-corporation/?pos=83&kwd=gripe water&tags=CC||||8211.142||product|||MDC|rsf:gd-|-qr_nm:gd|res:RC3|com-cf:nl|ptrs:na|ktp:N0|mc:41613|mtp:S|qry_typ:P|lang:en|wc:2|cs:7530|v=4,False,Vikhroli West,Mumbai,"Office No.912, J-wing, 9th Floor, Cts.no.1/7, Kailash Business Park, Veer Savarkar Marg,, Vikhroli West, Mumbai - 400079, Dist.Mumbai, Maharashtra",8046032115,
STANDARD BEMISAL Gripe Syrup (200ml),https://www.indiamart.com/proddetail/standard-bemisal-gripe-syrup-200ml-2853429661162.html?pos=84&kwd=gripe water&tags=CC||||8601.347|Price|product|||MDC|rsf:gd-|-qr_nm:gd|res:RC3|com-cf:nl|ptrs:na|ktp:N0|mc:41613|mtp:S|qry_typ:P|lang:en|wc:2|cs:7530|v=4,The Rabbani Distributors,https://www.indiamart.com/the-rabbani-distributors/?pos=84&kwd=gripe water&tags=CC||||8601.347|Price|product|||MDC|rsf:gd-|-qr_nm:gd|res:RC3|com-cf:nl|ptrs:na|ktp:N0|mc:41613|mtp:S|qry_typ:P|lang:en|wc:2|cs:7530|v=4,False,Topkhana Hazuri,Jaipur,"Polt No. 4095-96-97 Surajpole Bazar Darjioyan Ka Rasta, Topkhana Hazuri, Jaipur - 302003, Dist.Jaipur, Rajasthan",7948219853,
"Sanjeevi Oma Theeneer, Packaging Size: 100ml",https://www.indiamart.com/proddetail/sanjeevi-oma-theeneer-24378375397.html?pos=85&kwd=gripe water&tags=CC||||8954.051|Price|product|||MDC|rsf:gd-|-qr_nm:gd|res:RC3|com-cf:nl|ptrs:na|ktp:N0|mc:41613|mtp:S|qry_typ:P|lang:en|wc:2|cs:7530|v=4,Sanjeevi Pharma,https://www.indiamart.com/sanjeevipharma/?pos=85&kwd=gripe water&tags=CC||||8954.051|Price|product|||MDC|rsf:gd-|-qr_nm:gd|res:RC3|com-cf:nl|ptrs:na|ktp:N0|mc:41613|mtp:S|qry_typ:P|lang:en|wc:2|cs:7530|v=4,False,Padi,Chennai,"6/75, Vasantham Street, Kumaran Nagar, Extension II Padi, NSK Nagar, Padi, Chennai - 600050, Dist.Chennai, Tamil Nadu",7942545389,
Gripe Water,https://www.indiamart.com/proddetail/gripe-water-13946896933.html?pos=86&kwd=gripe water&tags=CC||||8746.929||product|||NA|rsf:gd-|-qr_nm:gd|res:RC3|com-cf:nl|ptrs:na|ktp:N0|mc:41613|mtp:S|qry_typ:P|lang:en|wc:2|cs:7530|v=4,Mother Sparsh Baby Care Pvt. Ltd.,https://www.indiamart.com/mother-sparsh-babycare/?pos=86&kwd=gripe water&tags=CC||||8746.929||product|||NA|rsf:gd-|-qr_nm:gd|res:RC3|com-cf:nl|ptrs:na|ktp:N0|mc:41613|mtp:S|qry_typ:P|lang:en|wc:2|cs:7530|v=4,False,Ambala City,Chandigarh,"H.no 886, Sector-7 Haryana, Ambala City, Chandigarh - 134003, Chandigarh",7942638622,
Gripe Water,,Radheshyam Agency,https://www.indiamart.com/radheysham-agency/?pos=87&kwd=gripe water&tags=CC||||8590.934|Price|product|||NA|rsf:gd-|-qr_nm:gd|res:RC3|com-cf:nl|ptrs:na|ktp:N0|mc:41613|mtp:S|qry_typ:P|lang:en|wc:2|cs:7530|v=4,False,,Latur,"Near Survse Kirana Store Kanheri Road, Latur - 413512, Dist.Latur, Maharashtra",8048371620,355
Dabur Gripe Water,,Laxmi & Sons Medical Store,https://www.indiamart.com/laxmi-sons-medical-store/?pos=88&kwd=gripe water&tags=CC||||9045.955|Price|product|||NA|rsf:gd-|-qr_nm:gd|res:RC3|com-cf:nl|ptrs:na|ktp:N0|mc:41613|mtp:S|qry_typ:P|lang:en|wc:2|cs:7530|v=4,False,Bairy Bithoor Raod,Kanpur,"Plot no 2b1 Kanpur Nagar, Bairy Bithoor Raod, Kanpur - 208017, Uttar Pradesh",8047308777,7045
Dhanvantari Gripe Water,https://www.indiamart.com/proddetail/gripe-water-22450464112.html?pos=89&kwd=gripe water&tags=CC||||8767.829|Price|product|||NA|rsf:gd-|-qr_nm:gd|res:RC3|com-cf:nl|ptrs:na|ktp:N0|mc:41613|mtp:S|qry_typ:P|lang:en|wc:2|cs:7530|v=4,Dhanvantari Herbal India Herbs,https://www.indiamart.com/dhanvantariherbalindiaherbs/?pos=89&kwd=gripe water&tags=CC||||8767.829|Price|product|||NA|rsf:gd-|-qr_nm:gd|res:RC3|com-cf:nl|ptrs:na|ktp:N0|mc:41613|mtp:S|qry_typ:P|lang:en|wc:2|cs:7530|v=4,False,,Palwal,"near choupal x Ali meo Ali Brahman palwal Haryana, Palwal - 121106, Dist.Palwal, Haryana",8048371757,164
DJP Gripe Water,https://www.indiamart.com/proddetail/gripe-water-22988412055.html?pos=90&kwd=gripe water&tags=CC||||8707.773|Price|product|||NA|rsf:gd-|-qr_nm:gd|res:RC3|com-cf:nl|ptrs:na|ktp:N0|mc:41613|mtp:S|qry_typ:P|lang:en|wc:2|cs:7530|v=4,Jaggi Pharma,https://www.indiamart.com/jaggi-pharma/?pos=90&kwd=gripe water&tags=CC||||8707.773|Price|product|||NA|rsf:gd-|-qr_nm:gd|res:RC3|com-cf:nl|ptrs:na|ktp:N0|mc:41613|mtp:S|qry_typ:P|lang:en|wc:2|cs:7530|v=4,False,Bahadurgarh,Jhajjar,"461-A, MIE PART-A, Bahadurgarh, Bahadurgarh, Jhajjar - 124507, Dist.Jhajjar, Haryana",8046070417,
Gripe Water,https://www.indiamart.com/proddetail/gripe-water-4952571033.html?pos=91&kwd=gripe water&tags=CC||||8559.269|Price|product|||NA|rsf:gd-|-qr_nm:gd|res:RC3|com-cf:nl|ptrs:na|ktp:N0|mc:41613|mtp:S|qry_typ:P|lang:en|wc:2|cs:7530|v=4,Panasia Herbal Private Limited,https://www.indiamart.com/panasiaherbal/?pos=91&kwd=gripe water&tags=CC||||8559.269|Price|product|||NA|rsf:gd-|-qr_nm:gd|res:RC3|com-cf:nl|ptrs:na|ktp:N0|mc:41613|mtp:S|qry_typ:P|lang:en|wc:2|cs:7530|v=4,False,Jaora Compound,Indore,"Sunil Enterprises, Shop No. 129, Ground Floor, Dawa Bazar, 13-14, RNT Marg, Jaora Compound, Indore - 452001, Dist.Indore, Madhya Pradesh",8048951959,
Gripe Water,https://www.indiamart.com/proddetail/gripe-water-3041623262.html?pos=92&kwd=gripe water&tags=CC||||8752.144||product|||NA|rsf:gd-|-qr_nm:gd|res:RC3|com-cf:nl|ptrs:na|ktp:N0|mc:41613|mtp:S|qry_typ:P|lang:en|wc:2|cs:7530|v=4,Rex Remedies Limited,https://www.indiamart.com/rex-remedies-ltd-delhi/?pos=92&kwd=gripe water&tags=CC||||8752.144||product|||NA|rsf:gd-|-qr_nm:gd|res:RC3|com-cf:nl|ptrs:na|ktp:N0|mc:41613|mtp:S|qry_typ:P|lang:en|wc:2|cs:7530|v=4,False,,New Delhi,"-,A-51/1,Industrial Area,-,-,,North West Delhi, New Delhi - 110033, Dist.Delhi, Delhi",8048247112,9766
"Gripe Water, Bottle Size: 100 ml",https://www.indiamart.com/proddetail/gripe-water-13908608930.html?pos=93&kwd=gripe water&tags=CC||||8875.764|Price|product|||NA|rsf:gd-|-qr_nm:gd|res:RC3|com-cf:nl|ptrs:na|ktp:N0|mc:41613|mtp:S|qry_typ:P|lang:en|wc:2|cs:7530|v=4,Homeo Drug Stores,https://www.indiamart.com/homeodrugstores/?pos=93&kwd=gripe water&tags=CC||||8875.764|Price|product|||NA|rsf:gd-|-qr_nm:gd|res:RC3|com-cf:nl|ptrs:na|ktp:N0|mc:41613|mtp:S|qry_typ:P|lang:en|wc:2|cs:7530|v=4,False,Thambu Chetty Street,Thiruvarur,"32 Kamalalayam North Tiruvarur Opposite To Karnataka Bank, Thambu Chetty Street, Thiruvarur - 610002, Dist.Tiruvarur, Tamil Nadu",8043819723,
Zeba Baby Gripe Water,https://www.indiamart.com/proddetail/baby-gripe-water-14658275712.html?pos=94&kwd=gripe water&tags=CB||||8211.142|Price|product|||NA|rsf:gd-|-qr_nm:gd|res:RC3|com-cf:nl|ptrs:na|ktp:N0|mc:41613|mtp:S|qry_typ:P|lang:en|wc:2|cs:7530|v=4,Attari Brothers,https://www.indiamart.com/attari-bros/?pos=94&kwd=gripe water&tags=CB||||8211.142|Price|product|||NA|rsf:gd-|-qr_nm:gd|res:RC3|com-cf:nl|ptrs:na|ktp:N0|mc:41613|mtp:S|qry_typ:P|lang:en|wc:2|cs:7530|v=4,False,Masjid Bunder,Mumbai,"107/D, Hasham Building Mohammed Ali Road, Masjid Bunder, Mumbai - 400003, Dist.Mumbai, Maharashtra",8048969046,
Abboli Gripe Water,https://www.indiamart.com/proddetail/gripe-water-17963775255.html?pos=95&kwd=gripe water&tags=CC||||8860.933||product|||NA|rsf:gd-|-qr_nm:gd|res:RC3|com-cf:nl|ptrs:na|ktp:N0|mc:41613|mtp:S|qry_typ:P|lang:en|wc:2|cs:7530|v=4,East African (India) Overseas,https://www.indiamart.com/east-african-india-overseasdehradun/?pos=95&kwd=gripe water&tags=CC||||8860.933||product|||NA|rsf:gd-|-qr_nm:gd|res:RC3|com-cf:nl|ptrs:na|ktp:N0|mc:41613|mtp:S|qry_typ:P|lang:en|wc:2|cs:7530|v=4,False,Selaqui,Dehradun,",Plot No.1,Pharmacity,,Selaqui, Selaqui, Dehradun - 248011, Dist.Dehradun, Uttarakhand",8043837244,
Alkam Gripe Water,https://www.indiamart.com/proddetail/gripe-water-19641718897.html?pos=96&kwd=gripe water&tags=CC||||8601.347|Price|product|||NA|rsf:gd-|-qr_nm:gd|res:RC3|com-cf:nl|ptrs:na|ktp:N0|mc:41613|mtp:S|qry_typ:P|lang:en|wc:2|cs:7530|v=4,Taiyab Medical Agency,https://www.indiamart.com/taiyab-medical-agency/?pos=96&kwd=gripe water&tags=CC||||8601.347|Price|product|||NA|rsf:gd-|-qr_nm:gd|res:RC3|com-cf:nl|ptrs:na|ktp:N0|mc:41613|mtp:S|qry_typ:P|lang:en|wc:2|cs:7530|v=4,False,Ward No. 08,Jaipur,"Near Old Government Hospital, Ward No. 08, Ward No. 08, Jaipur - 331023, Dist.Jaipur, Rajasthan",8048247126,2151
Gripe Water Syrups,,P P International,https://www.indiamart.com/ppinternational/?pos=97&kwd=gripe water&tags=CC||||8211.142||product|||NA|rsf:gd-|-qr_nm:gd|res:RC3|com-cf:nl|ptrs:na|ktp:N0|mc:41613|mtp:S|qry_typ:P|lang:en|wc:2|cs:7530|v=4,False,Goregaon,Mumbai,"530-531, Master Mind 1, Royal Palms, Mayur Nagar Aarey Milk Colony, Goregoan East, Goregaon, Mumbai - 400065, Dist.Mumbai, Maharashtra",8048370618,2444
Woodward Gripe Water,,Monarch International,https://www.indiamart.com/monarchinternational-ahmedabad/?pos=98&kwd=gripe water&tags=CC||||8228.275||product|||NA|rsf:gd-|-qr_nm:gd|res:RC3|com-cf:nl|ptrs:na|ktp:N0|mc:41613|mtp:S|qry_typ:P|lang:en|wc:2|cs:7530|v=4,False,Naroda Road,Ahmedabad,"Plot No 3 And 4 Phase 3 Road E,Amarkunj Industrial Park, E Road,Ahmedabad D/ 26, Shayona Estate, Banshidhar Mill Compound,382325,Ahmedabad, Naroda Road, Ahmedabad - 382330, Dist.Ahmedabad, Gujarat",8048371519,793
Baby Gripe Water,https://www.indiamart.com/proddetail/baby-gripe-water-4199736348.html?pos=99&kwd=gripe water&tags=CC||||8211.142||product|||NA|rsf:gd-|-qr_nm:gd|res:RC3|com-cf:nl|ptrs:na|ktp:N0|mc:41613|mtp:S|qry_typ:P|lang:en|wc:2|cs:7530|v=4,Apex Pharma,https://www.indiamart.com/apexpharma/?pos=99&kwd=gripe water&tags=CC||||8211.142||product|||NA|rsf:gd-|-qr_nm:gd|res:RC3|com-cf:nl|ptrs:na|ktp:N0|mc:41613|mtp:S|qry_typ:P|lang:en|wc:2|cs:7530|v=4,False,Vidhya Vihar West,Mumbai,"1005 Vidhyavihar West Takshila Bldg , Neelkanth Near Vidhya Vihar Station, Vidhya Vihar West, Mumbai - 400086, Dist.Mumbai, Maharashtra",8048372595,448
Woodwards Gripe Water,https://www.indiamart.com/proddetail/woodwards-gripe-water-21827914530.html?pos=100&kwd=gripe water&tags=CC||||8226.563|Price|product|||NA|rsf:gd-|-qr_nm:gd|res:RC3|com-cf:nl|ptrs:na|ktp:N0|mc:41613|mtp:S|qry_typ:P|lang:en|wc:2|cs:7530|v=4,Rajesh Enterprises,https://www.indiamart.com/rajesh-enterprises-navimumbai/?pos=100&kwd=gripe water&tags=CC||||8226.563|Price|product|||NA|rsf:gd-|-qr_nm:gd|res:RC3|com-cf:nl|ptrs:na|ktp:N0|mc:41613|mtp:S|qry_typ:P|lang:en|wc:2|cs:7530|v=4,False,Vashi Juhu Gain,Navi Mumbai,"Shop No.1,Plot No. 1c, Sai Kutir Society Sector 10, Opposite. Nmmc Hospital Vashi, Vashi Juhu Gain, Navi Mumbai - 400703, Dist.Thane, Maharashtra",8047692217,
Aavi Gripe Water,,Aavi Medicare Private Limited,https://www.indiamart.com/aavi-medicare/?pos=101&kwd=gripe water&tags=CC||||8211.142||product|||NA|rsf:gd-|-qr_nm:gd|res:RC3|com-cf:nl|ptrs:na|ktp:N0|mc:41613|mtp:S|qry_typ:P|lang:en|wc:2|cs:7530|v=4,False,Santacruz East,Mumbai,"505-506, 5th floor, Vailankanni Apts, Aaram Society Road, Aaram Society Road,, Santacruz East, Mumbai - 400055, Dist.Mumbai, Maharashtra",8048361343,225
Dabur Gripe Water,https://www.indiamart.com/proddetail/dabur-gripe-water-21067199462.html?pos=102&kwd=gripe water&tags=CC||||9578.697||product|||NA|rsf:gd-|-qr_nm:gd|res:RC3|com-cf:nl|ptrs:na|ktp:N0|mc:41613|mtp:S|qry_typ:P|lang:en|wc:2|cs:7530|v=4,Sai Sivani Medicine Store,https://www.indiamart.com/ssms/?pos=102&kwd=gripe water&tags=CC||||9578.697||product|||NA|rsf:gd-|-qr_nm:gd|res:RC3|com-cf:nl|ptrs:na|ktp:N0|mc:41613|mtp:S|qry_typ:P|lang:en|wc:2|cs:7530|v=4,False,Sector 7 CDA,Cuttack,"D/60, Near Markat Nagar, Police Station Near SBI ATM Side, Sector 7 CDA, Cuttack - 753014, Dist.Cuttack, Odisha",8048361292,306
"Amulya Gripe Water, Newly Born, Packaging Size: 100 ml",https://www.indiamart.com/proddetail/amulya-gripe-water-2854105825933.html?pos=103&kwd=gripe water&tags=CC||||9604.593|Price|product|||NA|rsf:gd-|-qr_nm:gd|res:RC3|com-cf:nl|ptrs:na|ktp:N0|mc:41613|mtp:S|qry_typ:P|lang:en|wc:2|cs:7530|v=4,Amulya Herbs,https://www.indiamart.com/aditya-enterprises-byasanagar/?pos=103&kwd=gripe water&tags=CC||||9604.593|Price|product|||NA|rsf:gd-|-qr_nm:gd|res:RC3|com-cf:nl|ptrs:na|ktp:N0|mc:41613|mtp:S|qry_typ:P|lang:en|wc:2|cs:7530|v=4,False,Jajpur Road,Byasanagar,", Jajpur Road, Byasanagar - 755019, Odisha",8041014032,
Hetal Gripe Water,https://www.indiamart.com/proddetail/hetal-gripe-water-19772084533.html?pos=104&kwd=gripe water&tags=CB||||8168.6484|Price|product|||NA|rsf:gd-|-qr_nm:gd|res:RC3|com-cf:nl|ptrs:na|ktp:N0|mc:41613|mtp:S|qry_typ:P|lang:en|wc:2|cs:7530|v=4,B.Bharatkumar And Brothers,https://www.indiamart.com/bbharat-kumar-brothers/?pos=104&kwd=gripe water&tags=CB||||8168.6484|Price|product|||NA|rsf:gd-|-qr_nm:gd|res:RC3|com-cf:nl|ptrs:na|ktp:N0|mc:41613|mtp:S|qry_typ:P|lang:en|wc:2|cs:7530|v=4,False,Chitra Gujarat Industrial Development Corporation,Bhavnagar,"356 1/2,GIDC CHITRA,CHITRA,BHAVNAGAR 356/1/2, Gidc, Chitra Bhavnagar,364004,Bhavnagar, Chitra Gujarat Industrial Development Corporation, Bhavnagar - 364001, Dist.Bhavnagar, Gujarat",8043824237,
Herbal Gripe Water,https://www.indiamart.com/proddetail/herbal-gripe-water-20318375630.html?pos=105&kwd=gripe water&tags=CC||||8746.929|Price|product|||NA|rsf:gd-|-qr_nm:gd|res:RC3|com-cf:nl|ptrs:na|ktp:N0|mc:41613|mtp:S|qry_typ:P|lang:en|wc:2|cs:7530|v=4,Rar Wellness,https://www.indiamart.com/rar-wellness/?pos=105&kwd=gripe water&tags=CC||||8746.929|Price|product|||NA|rsf:gd-|-qr_nm:gd|res:RC3|com-cf:nl|ptrs:na|ktp:N0|mc:41613|mtp:S|qry_typ:P|lang:en|wc:2|cs:7530|v=4,False,,Chandigarh,"SCF - 406, Basement Floor, sector 13, Manimajra, Chandigarh - 160101, Chandigarh",8046075459,
Abbott Gripe Water,https://www.indiamart.com/proddetail/abbott-gripe-water-19812631555.html?pos=106&kwd=gripe water&tags=CC||||8752.144|Price|product|||NA|rsf:gd-|-qr_nm:gd|res:RC3|com-cf:nl|ptrs:na|ktp:N0|mc:41613|mtp:S|qry_typ:P|lang:en|wc:2|cs:7530|v=4,Youngistan Sai,https://www.indiamart.com/youngistan-sai/?pos=106&kwd=gripe water&tags=CC||||8752.144|Price|product|||NA|rsf:gd-|-qr_nm:gd|res:RC3|com-cf:nl|ptrs:na|ktp:N0|mc:41613|mtp:S|qry_typ:P|lang:en|wc:2|cs:7530|v=4,False,Nangloi,New Delhi,"No. 129, Block-Z, Phase-2, Kirari, Nangloi, New Delhi - 110041, Dist.Delhi, Delhi",8048372012,605
Sydler Gripe Water,https://www.indiamart.com/proddetail/sydler-gripe-water-13644824091.html?pos=107&kwd=gripe water&tags=CC||||8476.868||product|||NA|rsf:gd-|-qr_nm:gd|res:RC3|com-cf:nl|ptrs:na|ktp:N0|mc:41613|mtp:S|qry_typ:P|lang:en|wc:2|cs:7530|v=4,Sydler Remedies Private Limited,https://www.indiamart.com/sydlerremediesprivatelimited-5263453/?pos=107&kwd=gripe water&tags=CC||||8476.868||product|||NA|rsf:gd-|-qr_nm:gd|res:RC3|com-cf:nl|ptrs:na|ktp:N0|mc:41613|mtp:S|qry_typ:P|lang:en|wc:2|cs:7530|v=4,False,,Aurangabad,"M-190, SYDLER REMEDIES PVT LTD, MIDC WALUJ, AURANGABAD M-190 Midc Waluj Sydler Remedies Pvt Ltd, 431136, Aurangabad, Aurangabad - 431136, Maharashtra",8069017050,667
Woodward's Woodwards Gripe Water,https://www.indiamart.com/proddetail/woodwards-gripe-water-19066873973.html?pos=108&kwd=gripe water&tags=CC||||8211.142|Price|product|||NA|rsf:gd-|-qr_nm:gd|res:RC3|com-cf:nl|ptrs:na|ktp:N0|mc:41613|mtp:S|qry_typ:P|lang:en|wc:2|cs:7530|v=4,Raghuvanshi Distributors,https://www.indiamart.com/raghuvanshi-distributors/?pos=108&kwd=gripe water&tags=CC||||8211.142|Price|product|||NA|rsf:gd-|-qr_nm:gd|res:RC3|com-cf:nl|ptrs:na|ktp:N0|mc:41613|mtp:S|qry_typ:P|lang:en|wc:2|cs:7530|v=4,False,Goregaon East,Mumbai,"1, Gali No. 28, Sonawal Road,surve Industrial Estate, Goregaon East, Mumbai - 400063, Dist.Mumbai, Maharashtra",8047669388,
Haslab Gripe Water,https://www.indiamart.com/proddetail/haslab-gripe-water-12897465997.html?pos=109&kwd=gripe water&tags=CC||||9110.092||product|||NA|rsf:gd-|-qr_nm:gd|res:RC3|com-cf:nl|ptrs:na|ktp:N0|mc:41613|mtp:S|qry_typ:P|lang:en|wc:2|cs:7530|v=4,Hahnemann Scientific Laboratory (India) Private Limited,https://www.indiamart.com/hahemann-scientific-lab/?pos=109&kwd=gripe water&tags=CC||||9110.092||product|||NA|rsf:gd-|-qr_nm:gd|res:RC3|com-cf:nl|ptrs:na|ktp:N0|mc:41613|mtp:S|qry_typ:P|lang:en|wc:2|cs:7530|v=4,False,,Lucknow,"11th Mile Stone, Faizabad Road, Chinhat, Lucknow - 226028, Dist.Lucknow, Uttar Pradesh",7949367451,
ABBOTT GRIPE WATER,https://www.indiamart.com/proddetail/abbott-gripe-water-19810110962.html?pos=110&kwd=gripe water&tags=CC||||8752.144|Price|product|||NA|rsf:gd-|-qr_nm:gd|res:RC3|com-cf:nl|ptrs:na|ktp:N0|mc:41613|mtp:S|qry_typ:P|lang:en|wc:2|cs:7530|v=4,Divya Sai Medicos,https://www.indiamart.com/divya-sai-medicos/?pos=110&kwd=gripe water&tags=CC||||8752.144|Price|product|||NA|rsf:gd-|-qr_nm:gd|res:RC3|com-cf:nl|ptrs:na|ktp:N0|mc:41613|mtp:S|qry_typ:P|lang:en|wc:2|cs:7530|v=4,False,Paschim Vihar Guru,New Delhi,"Plot No. 571/572, Unit No. 7 East Paschim Vihar, Harkishan Nagar, Paschim Vihar Guru, New Delhi - 110087, Dist.Delhi, Delhi",8048372324,868
Rex Gripe Water,https://www.indiamart.com/proddetail/rex-gripe-water-14218129148.html?pos=111&kwd=gripe water&tags=CC||||9839.57||product|||NA|rsf:gd-|-qr_nm:gd|res:RC3|com-cf:nl|ptrs:na|ktp:N0|mc:41613|mtp:S|qry_typ:P|lang:en|wc:2|cs:7530|v=4,Bao Pharma Private Limited,https://www.indiamart.com/bao-pharma/?pos=111&kwd=gripe water&tags=CC||||9839.57||product|||NA|rsf:gd-|-qr_nm:gd|res:RC3|com-cf:nl|ptrs:na|ktp:N0|mc:41613|mtp:S|qry_typ:P|lang:en|wc:2|cs:7530|v=4,False,Tiljala,Kolkata,"7/1 A, Tiljala Place, Tiljala, Kolkata - 700017, Dist.Kolkata, West Bengal",8048247110,2395
Woodwards Gripe Water,https://www.indiamart.com/proddetail/woodwards-gripe-water-9854883197.html?pos=112&kwd=gripe water&tags=CC||||8876.815||product|||NA|rsf:gd-|-qr_nm:gd|res:RC3|com-cf:nl|ptrs:na|ktp:N0|mc:41613|mtp:S|qry_typ:P|lang:en|wc:2|cs:7530|v=4,Burhani Medicos,https://www.indiamart.com/burhanimedicos/?pos=112&kwd=gripe water&tags=CC||||8876.815||product|||NA|rsf:gd-|-qr_nm:gd|res:RC3|com-cf:nl|ptrs:na|ktp:N0|mc:41613|mtp:S|qry_typ:P|lang:en|wc:2|cs:7530|v=4,False,Budhwari,Nagpur,"Hatim Mansion, Budhwari, Nagpur - 440002, Dist.Nagpur, Maharashtra",8047763634,
Jabuca gripe water,https://www.indiamart.com/proddetail/jabuca-gripe-water-15719479397.html?pos=113&kwd=gripe water&tags=CC||||8283.551|Price|product|||NA|rsf:gd-|-qr_nm:gd|res:RC3|com-cf:nl|ptrs:na|ktp:N0|mc:41613|mtp:S|qry_typ:P|lang:en|wc:2|cs:7530|v=4,Jabuca Laboratories,https://www.indiamart.com/jabuca-laboratories/?pos=113&kwd=gripe water&tags=CC||||8283.551|Price|product|||NA|rsf:gd-|-qr_nm:gd|res:RC3|com-cf:nl|ptrs:na|ktp:N0|mc:41613|mtp:S|qry_typ:P|lang:en|wc:2|cs:7530|v=4,False,Dakor,Dakor,"Kapadvanj Road Nr.Marketing yard, Dakor, Dakor - 388225, Dist.Kheda, Gujarat",8043831719,
"Woodward's gripe water, Packaging Type: Box",,Shree Rang Traders,https://www.indiamart.com/shree-rang-traders-vadodara/?pos=114&kwd=gripe water&tags=CC||||8281.036||product|||NA|rsf:gd-|-qr_nm:gd|res:RC3|com-cf:nl|ptrs:na|ktp:N0|mc:41613|mtp:S|qry_typ:P|lang:en|wc:2|cs:7530|v=4,False,,Vadodara,"C/1, GROUND FLOOR, Dhanlaxmi Evenue, Nr. Chittesthan Temple, Vadodara, Vadodara, Gujarat, Vadodara - 390001, Dist.Vadodara, Gujarat",8069728252,249
Doyen Healthcare Gripe Water Manufacturer,https://www.indiamart.com/proddetail/gripe-water-manufacturer-23226375188.html?pos=115&kwd=gripe water&tags=CC||||8307.81||product|||NA|rsf:gd-|-qr_nm:gd|res:RC3|com-cf:nl|ptrs:na|ktp:N0|mc:41613|mtp:S|qry_typ:P|lang:en|wc:2|cs:7530|v=4,Doyen Healthcare,https://www.indiamart.com/doyenhealthcare/?pos=115&kwd=gripe water&tags=CC||||8307.81||product|||NA|rsf:gd-|-qr_nm:gd|res:RC3|com-cf:nl|ptrs:na|ktp:N0|mc:41613|mtp:S|qry_typ:P|lang:en|wc:2|cs:7530|v=4,False,Wadki,Pune,"Ground Floor Office No. 1, Gat No 1290, Milkat No 1198 Wadki Shreenath Niwas, 10th Mail, Wadki, Pune - 412308, Dist.Pune, Maharashtra",8048986214,
"Babuline Gripe Water, 3-12 Months",https://www.indiamart.com/proddetail/babuline-gripe-water-2853117202988.html?pos=116&kwd=gripe water&tags=CC||||8168.6484|Price|product|||NA|rsf:gd-|-qr_nm:gd|res:RC3|com-cf:nl|ptrs:na|ktp:N0|mc:41613|mtp:S|qry_typ:P|lang:en|wc:2|cs:7530|v=4,Mohanlal Choithram,https://www.indiamart.com/mohanlal-choithram/?pos=116&kwd=gripe water&tags=CC||||8168.6484|Price|product|||NA|rsf:gd-|-qr_nm:gd|res:RC3|com-cf:nl|ptrs:na|ktp:N0|mc:41613|mtp:S|qry_typ:P|lang:en|wc:2|cs:7530|v=4,False,Darbargadh,Bhavnagar,"Top Naka Palace Cinema Same Bandar Road, Darbargadh, Bhavnagar - 364001, Dist.Bhavnagar, Gujarat",7942661235,
Woodward'S Gripe Water,https://www.indiamart.com/proddetail/woodward-s-gripe-water-22939903288.html?pos=117&kwd=gripe water&tags=CC||||8752.144|Price|product|||NA|rsf:gd-|-qr_nm:gd|res:RC3|com-cf:nl|ptrs:na|ktp:N0|mc:41613|mtp:S|qry_typ:P|lang:en|wc:2|cs:7530|v=4,Omax Plus,https://www.indiamart.com/omax-plus/?pos=117&kwd=gripe water&tags=CC||||8752.144|Price|product|||NA|rsf:gd-|-qr_nm:gd|res:RC3|com-cf:nl|ptrs:na|ktp:N0|mc:41613|mtp:S|qry_typ:P|lang:en|wc:2|cs:7530|v=4,False,govinda puri,New Delhi,"Shed No.107,Type B,Okhla Industrial Area Phase-1,New Delhi 1666 ground floor shri Krishna mandir gali no 1,110019,New Delhi, govinda puri, New Delhi - 110020, Dist.Delhi, Delhi",8047666938,
Abbott Gripe Water,https://www.indiamart.com/proddetail/abbott-gripe-water-20843164388.html?pos=118&kwd=gripe water&tags=CC||||8507.67|Price|product|||NA|rsf:gd-|-qr_nm:gd|res:RC3|com-cf:nl|ptrs:na|ktp:N0|mc:41613|mtp:S|qry_typ:P|lang:en|wc:2|cs:7530|v=4,Hindustan Agencies,https://www.indiamart.com/hindustan-agencies-ernakulam/?pos=118&kwd=gripe water&tags=CC||||8507.67|Price|product|||NA|rsf:gd-|-qr_nm:gd|res:RC3|com-cf:nl|ptrs:na|ktp:N0|mc:41613|mtp:S|qry_typ:P|lang:en|wc:2|cs:7530|v=4,False,Maradu,Ernakulam,"Jaya Nagar, N.H. Bypass, Maradu jaya nagar, Maradu, Ernakulam - 682304, Dist.Ernakulam, Kerala",8047629893,
"Woodwards Gripe Water, Newly Born, Packaging Size: 200 ml",https://www.indiamart.com/proddetail/woodwards-gripe-water-2854300337062.html?pos=119&kwd=gripe water&tags=CC||||8307.81||product|||NA|rsf:gd-|-qr_nm:gd|res:RC3|com-cf:nl|ptrs:na|ktp:N0|mc:41613|mtp:S|qry_typ:P|lang:en|wc:2|cs:7530|v=4,Aashirwad Pharma International Private Limited,https://www.indiamart.com/aashirwad-pharma-international-private-limited/?pos=119&kwd=gripe water&tags=CC||||8307.81||product|||NA|rsf:gd-|-qr_nm:gd|res:RC3|com-cf:nl|ptrs:na|ktp:N0|mc:41613|mtp:S|qry_typ:P|lang:en|wc:2|cs:7530|v=4,False,,Pune,"Plot No 24, Vishrambag Society , Senapati Bapat Road,Bunglow, No 24 Aashirwad,SN,987/24 Opp. Pavilion Mall, Near Marriott Hotel,Model, Colony Shivajinagar, Pune, 411016, Pune - 411016, Dist.Pune, Maharashtra",8043833911,
"Kinder Gripe Water, 1-2 Years, Packaging Size: 150 ml",https://www.indiamart.com/proddetail/kinder-gripe-water-2854539316688.html?pos=120&kwd=gripe water&tags=CC||||8559.269||product|||NA|rsf:gd-|-qr_nm:gd|res:RC3|com-cf:nl|ptrs:na|ktp:N0|mc:41613|mtp:S|qry_typ:P|lang:en|wc:2|cs:7530|v=4,Diamond Generic,https://www.indiamart.com/diamond-generic/?pos=120&kwd=gripe water&tags=CC||||8559.269||product|||NA|rsf:gd-|-qr_nm:gd|res:RC3|com-cf:nl|ptrs:na|ktp:N0|mc:41613|mtp:S|qry_typ:P|lang:en|wc:2|cs:7530|v=4,False,,Indore,"1st Floor, Shop No 344 A, Dawa Bazar R N T Marg,, Indore - 452001, Dist.Indore, Madhya Pradesh",7949325668,
Male Wood Words Gripe Water,,Virat Enterprises,https://www.indiamart.com/viratentps/?pos=121&kwd=gripe water&tags=CC||||8559.269|Price|product|||NA|rsf:gd-|-qr_nm:gd|res:RC3|com-cf:nl|ptrs:na|ktp:N0|mc:41613|mtp:S|qry_typ:P|lang:en|wc:2|cs:7530|v=4,False,Pandhrinath Mandir Square,Indore,"25, Shubham Nagar, Pandhrinath Mandir Square, Indore - 452001, Dist.Indore, Madhya Pradesh",8048247131,3923
Babycalm Gripe Water Syrup,https://www.indiamart.com/proddetail/babycalm-gripe-water-syrup-13800213330.html?pos=122&kwd=gripe water&tags=CC||||8211.142||product|||NA|rsf:gd-|-qr_nm:gd|res:RC3|com-cf:nl|ptrs:na|ktp:N0|mc:41613|mtp:S|qry_typ:P|lang:en|wc:2|cs:7530|v=4,Syncom Formulations (India) Ltd.,https://www.indiamart.com/syncom-formulations-i-ltd/?pos=122&kwd=gripe water&tags=CC||||8211.142||product|||NA|rsf:gd-|-qr_nm:gd|res:RC3|com-cf:nl|ptrs:na|ktp:N0|mc:41613|mtp:S|qry_typ:P|lang:en|wc:2|cs:7530|v=4,False,Andheri East,Mumbai,"No. 7, Niraj Industrial Estate, Opposite Mahakali Caves Road, Andheri East, Mumbai - 400093, Dist.Mumbai, Maharashtra",8048372819,179
ACIS Gripe Water Syrup,,Acis Laboratories,https://www.indiamart.com/acis-laboratories/?pos=123&kwd=gripe water&tags=CC||||9045.955|Price|product|||NA|rsf:gd-|-qr_nm:gd|res:RC3|com-cf:nl|ptrs:na|ktp:N0|mc:41613|mtp:S|qry_typ:P|lang:en|wc:2|cs:7530|v=4,False,Udyog Nagar,Kanpur,"No. 1-H-2, Dabauli, P. O. Udyog Nagar, Udyog Nagar, Kanpur - 208022, Uttar Pradesh",8043829206,
Baby Plus Gripe Water,https://www.indiamart.com/proddetail/baby-plus-gripe-water-6428309597.html?pos=124&kwd=gripe water&tags=CC||||8281.036||product|||NA|rsf:gd-|-qr_nm:gd|res:RC3|com-cf:nl|ptrs:na|ktp:N0|mc:41613|mtp:S|qry_typ:P|lang:en|wc:2|cs:7530|v=4,Savorite Pharmaceuticals,https://www.indiamart.com/savorite-pharmaceuticals/?pos=124&kwd=gripe water&tags=CC||||8281.036||product|||NA|rsf:gd-|-qr_nm:gd|res:RC3|com-cf:nl|ptrs:na|ktp:N0|mc:41613|mtp:S|qry_typ:P|lang:en|wc:2|cs:7530|v=4,False,Alkapuri,Vadodara,"NEW REFINERY ROAD 31/723 SUBHANPURA PRAKRUTI EMPIRE VADODARA Alkapuri, Alkapuri, Vadodara - 370165, Dist.Vadodara, Gujarat",8047794973,
"Black Mother Sparsh Gripe Water, Packaging Type: Plastic Bottle, Packaging Size: 100 ml",https://www.indiamart.com/proddetail/mother-sparsh-gripe-water-2853681368388.html?pos=125&kwd=gripe water&tags=CC||||8047.7524|Price|product|||NA|rsf:gd-|-qr_nm:gd|res:RC3|com-cf:nl|ptrs:na|ktp:N0|mc:41613|mtp:S|qry_typ:P|lang:en|wc:2|cs:7530|v=4,Saviour Drug House,https://www.indiamart.com/saviour-drughouse/?pos=125&kwd=gripe water&tags=CC||||8047.7524|Price|product|||NA|rsf:gd-|-qr_nm:gd|res:RC3|com-cf:nl|ptrs:na|ktp:N0|mc:41613|mtp:S|qry_typ:P|lang:en|wc:2|cs:7530|v=4,False,Shyam 1,Morbi,"Third Floor, City Survey No. 2283 P, Word No.1, Sheet No.174, Shop No. 304, Shreeji Compex, Shyam 1, Morbi - 363641, Dist.Rajkot, Gujarat",7949082049,
Dabur Gripe Water 100ML,https://www.indiamart.com/proddetail/dabur-gripe-water-100ml-24759279297.html?pos=126&kwd=gripe water&tags=CC||||8588.208|Price|product|||NA|rsf:gd-|-qr_nm:gd|res:RC3|com-cf:nl|ptrs:na|ktp:N0|mc:41613|mtp:S|qry_typ:P|lang:en|wc:2|cs:7530|v=4,Dress Code Clothing Private Limited,https://www.indiamart.com/dresscodeclothing/?pos=126&kwd=gripe water&tags=CC||||8588.208|Price|product|||NA|rsf:gd-|-qr_nm:gd|res:RC3|com-cf:nl|ptrs:na|ktp:N0|mc:41613|mtp:S|qry_typ:P|lang:en|wc:2|cs:7530|v=4,False,New Grain Mandi,Kota,"No. 60, DCM Road, New Grain Mandi, Kota - 324007, Rajasthan",7942545567,
"130ml Woodwards Gripe Water, Packaging Type: Bottle, Kids",https://www.indiamart.com/proddetail/130ml-woodwards-gripe-water-27487409488.html?pos=127&kwd=gripe water&tags=CC||||8974.737|Price|product|||NA|rsf:gd-|-qr_nm:gd|res:RC3|com-cf:nl|ptrs:na|ktp:N0|mc:41613|mtp:S|qry_typ:P|lang:en|wc:2|cs:7530|v=4,Shriram Healthcare,https://www.indiamart.com/shriram-healthcare-bareilly/?pos=127&kwd=gripe water&tags=CC||||8974.737|Price|product|||NA|rsf:gd-|-qr_nm:gd|res:RC3|com-cf:nl|ptrs:na|ktp:N0|mc:41613|mtp:S|qry_typ:P|lang:en|wc:2|cs:7530|v=4,False,Civil Lines,Bareilly,"59/59/1 Shyamganj, Civil Lines, Bareilly - 243001, Dist.Bareilly, Uttar Pradesh",8047552898,
Woodwards Gripe Water 200ml,,Kumara Lingam Medicals,https://www.indiamart.com/kumaralingam-medical/?pos=128&kwd=gripe water&tags=CC||||8954.051|Price|product|||NA|rsf:gd-|-qr_nm:gd|res:RC3|com-cf:nl|ptrs:na|ktp:N0|mc:41613|mtp:S|qry_typ:P|lang:en|wc:2|cs:7530|v=4,False,Tambaram,Chennai,"No 4, Main Road, Ram Krishanpuram, Tambaram, Tambaram, Chennai - 600064, Dist.Chennai, Tamil Nadu",8041013583,
"White BABY PLANET GRIPE WATER, Packaging Type: Bottle, 1-2 Years",https://www.indiamart.com/proddetail/baby-planet-gripe-water-2850521524662.html?pos=129&kwd=gripe water&tags=CC||||8275.938|Price|product|||NA|rsf:gd-|-qr_nm:gd|res:RC3|com-cf:nl|ptrs:na|ktp:N0|mc:41613|mtp:S|qry_typ:P|lang:en|wc:2|cs:7530|v=4,Medset Pharma,https://www.indiamart.com/medsetpharma/?pos=129&kwd=gripe water&tags=CC||||8275.938|Price|product|||NA|rsf:gd-|-qr_nm:gd|res:RC3|com-cf:nl|ptrs:na|ktp:N0|mc:41613|mtp:S|qry_typ:P|lang:en|wc:2|cs:7530|v=4,False,,Himatnagar,"Alis Street , Polo Ground ,, Himatnagar - 383001, Dist.Sabarkantha, Gujarat",7942554031,
"White 135ml Jeepla Gripe Water, Packaging Type: Box, Newly Born",https://www.indiamart.com/proddetail/135ml-jeepla-gripe-water-2852986300555.html?pos=130&kwd=gripe water&tags=CC||||8235.23|Price|product|||NA|rsf:gd-|-qr_nm:gd|res:RC3|com-cf:nl|ptrs:na|ktp:N0|mc:41613|mtp:S|qry_typ:P|lang:en|wc:2|cs:7530|v=4,Nakoda Surgical And Pharma Distributors,https://www.indiamart.com/nakodasurgicalpharmadistributors/?pos=130&kwd=gripe water&tags=CC||||8235.23|Price|product|||NA|rsf:gd-|-qr_nm:gd|res:RC3|com-cf:nl|ptrs:na|ktp:N0|mc:41613|mtp:S|qry_typ:P|lang:en|wc:2|cs:7530|v=4,False,,Dombivli,"Ground, Shop No 3, Jay Gurudev Nana Kaka Building, Parvathi Shankar/ Sagarli Thane, Dombivli - 421201, Dist.Thane, Maharashtra",8047620517,
4 B Gripe Water,https://www.indiamart.com/proddetail/4-b-gripe-water-25157332112.html?pos=131&kwd=gripe water&tags=CC||||8224.965|Price|product|||NA|rsf:gd-|-qr_nm:gd|res:RC3|com-cf:nl|ptrs:na|ktp:N0|mc:41613|mtp:S|qry_typ:P|lang:en|wc:2|cs:7530|v=4,Bhagavati Pharmaceuticals,https://www.indiamart.com/bhagavatipharmaceuticals/?pos=131&kwd=gripe water&tags=CC||||8224.965|Price|product|||NA|rsf:gd-|-qr_nm:gd|res:RC3|com-cf:nl|ptrs:na|ktp:N0|mc:41613|mtp:S|qry_typ:P|lang:en|wc:2|cs:7530|v=4,False,Kalol,Kalol,"shed no E/7 GF , D K Metro industrial estate , Nr chhatral Bridge , Chhatral , Kalol, Kalol, Kalol - 382721, Dist.Gandhi Nagar, Gujarat",8048989551,
Tulsi Austro Gripe Water,https://www.indiamart.com/proddetail/tulsi-austro-gripe-water-23860340873.html?pos=132&kwd=gripe water&tags=CC||||8281.036|Price|product|||NA|rsf:gd-|-qr_nm:gd|res:RC3|com-cf:nl|ptrs:na|ktp:N0|mc:41613|mtp:S|qry_typ:P|lang:en|wc:2|cs:7530|v=4,Prayosha Pharma,https://www.indiamart.com/prayoshapharma/?pos=132&kwd=gripe water&tags=CC||||8281.036|Price|product|||NA|rsf:gd-|-qr_nm:gd|res:RC3|com-cf:nl|ptrs:na|ktp:N0|mc:41613|mtp:S|qry_typ:P|lang:en|wc:2|cs:7530|v=4,False,,Vadodara,"GF-1, Gf , Kartik Chember , Kharivav Road , Raopura, Vadodara - 390001, Dist.Vadodara, Gujarat",8048976876,
booty Baby Care Gripe Water,https://www.indiamart.com/proddetail/baby-care-gripe-water-23924728555.html?pos=133&kwd=gripe water&tags=CC||||9316.095|Price|product|||NA|rsf:gd-|-qr_nm:gd|res:RC3|com-cf:nl|ptrs:na|ktp:N0|mc:41613|mtp:S|qry_typ:P|lang:en|wc:2|cs:7530|v=4,Booty Pharma Private Limited,https://www.indiamart.com/bootypharma/?pos=133&kwd=gripe water&tags=CC||||9316.095|Price|product|||NA|rsf:gd-|-qr_nm:gd|res:RC3|com-cf:nl|ptrs:na|ktp:N0|mc:41613|mtp:S|qry_typ:P|lang:en|wc:2|cs:7530|v=4,False,Chandauli,Mughal Sarai,"Katesar, Mughalsarai Chandauli, Chandauli, Mughal Sarai - 232101, Uttar Pradesh",8048615688,
Arihant's 130 Ml Nature Gripe Water,https://www.indiamart.com/proddetail/130-ml-nature-gripe-water-22512789030.html?pos=134&kwd=gripe water&tags=CC||||8228.275|Price|product|||NA|rsf:gd-|-qr_nm:gd|res:RC3|com-cf:nl|ptrs:na|ktp:N0|mc:41613|mtp:S|qry_typ:P|lang:en|wc:2|cs:7530|v=4,Arihant Remidies,https://www.indiamart.com/arihantremedies/?pos=134&kwd=gripe water&tags=CC||||8228.275|Price|product|||NA|rsf:gd-|-qr_nm:gd|res:RC3|com-cf:nl|ptrs:na|ktp:N0|mc:41613|mtp:S|qry_typ:P|lang:en|wc:2|cs:7530|v=4,False,Krishna Nagar,Ahmedabad,"Block No. 444,,Ashwamegh Industrial Estate -II,,Opp. M N Desai Petrol Pump,,Changod, Krishna Nagar, Ahmedabad - 382213, Dist.Ahmedabad, Gujarat",8048250074,
Harvest Mothers Baby Gripe Water With Tulsi,https://www.indiamart.com/proddetail/mothers-baby-gripe-water-with-tulsi-22126378230.html?pos=135&kwd=gripe water&tags=CC||||8228.275|Price|product|||NA|rsf:gd-|-qr_nm:gd|res:RC3|com-cf:nl|ptrs:na|ktp:N0|mc:41613|mtp:S|qry_typ:P|lang:en|wc:2|cs:7530|v=4,Harvest Healthceuticals Private Limited,https://www.indiamart.com/harvest-healthceuticals-gujrat/?pos=135&kwd=gripe water&tags=CC||||8228.275|Price|product|||NA|rsf:gd-|-qr_nm:gd|res:RC3|com-cf:nl|ptrs:na|ktp:N0|mc:41613|mtp:S|qry_typ:P|lang:en|wc:2|cs:7530|v=4,False,Rakanpur,Ahmedabad,"719/P-1, Marutinandan Industrial Estate, Near Deep Polymers, Rakanpur, Rakanpur, Ahmedabad - 382721, Dist.Ahmedabad, Gujarat",8048371512,135
Naunehal Gripe Syrup,https://www.indiamart.com/proddetail/naunehal-gripe-syrup-12357705212.html?pos=136&kwd=gripe water&tags=CC||||8752.144||product|||NA|rsf:gd-|-qr_nm:gd|res:RC3|com-cf:nl|ptrs:na|ktp:N0|mc:41613|mtp:S|qry_typ:P|lang:en|wc:2|cs:7530|v=4,Hamdard Laboratories India,https://www.indiamart.com/hamdard-laboratories-india/?pos=136&kwd=gripe water&tags=CC||||8752.144||product|||NA|rsf:gd-|-qr_nm:gd|res:RC3|com-cf:nl|ptrs:na|ktp:N0|mc:41613|mtp:S|qry_typ:P|lang:en|wc:2|cs:7530|v=4,False,Asaf Ali Road,New Delhi,",2A/3,HAMDARD BUILDING,ASAF ALI ROAD,NEAR RAM LILA GROUND, Asaf Ali Road, New Delhi - 110002, Dist.Delhi, Delhi",8047671518,
Ashoka Gripe Syrup,https://www.indiamart.com/proddetail/ashoka-gripe-syrup-23093806448.html?pos=137&kwd=gripe water&tags=CC||||8753.51|Price|product|||NA|rsf:gd-|-qr_nm:gd|res:RC3|com-cf:nl|ptrs:na|ktp:N0|mc:41613|mtp:S|qry_typ:P|lang:en|wc:2|cs:7530|v=4,Ashoka Ayurvedic Pharmacy,https://www.indiamart.com/ashoka-ayurvedicpharmacy/?pos=137&kwd=gripe water&tags=CC||||8753.51|Price|product|||NA|rsf:gd-|-qr_nm:gd|res:RC3|com-cf:nl|ptrs:na|ktp:N0|mc:41613|mtp:S|qry_typ:P|lang:en|wc:2|cs:7530|v=4,False,Assandh,Karnal,"VPO RAHARA ASSANDH ASSANDH, Assandh, Karnal - 416416, Dist.Karnal, Haryana",8048372691,403
Naunehal Gripe Syrup,https://www.indiamart.com/proddetail/naunehal-gripe-syrup-11228458733.html?pos=138&kwd=gripe water&tags=CC||||8785.791||product|||NA|rsf:gd-|-qr_nm:gd|res:RC3|com-cf:nl|ptrs:na|ktp:N0|mc:41613|mtp:S|qry_typ:P|lang:en|wc:2|cs:7530|v=4,Sri Sri Enterprises,https://www.indiamart.com/srisrienterprises/?pos=138&kwd=gripe water&tags=CC||||8785.791||product|||NA|rsf:gd-|-qr_nm:gd|res:RC3|com-cf:nl|ptrs:na|ktp:N0|mc:41613|mtp:S|qry_typ:P|lang:en|wc:2|cs:7530|v=4,False,Nai Basti,Ghaziabad,"No. 123/1, Nai Basti, Ghaziabad - 201001, Dist.Ghaziabad, Uttar Pradesh",8043888009,
Dr. Pattar's Baby Gripe Mixer,https://www.indiamart.com/proddetail/baby-gripe-mixer-7556360162.html?pos=139&kwd=gripe water&tags=CC||||8404.855|Price|product|||NA|rsf:gd-|-qr_nm:gd|res:RC3|com-cf:nl|ptrs:na|ktp:N0|mc:41613|mtp:S|qry_typ:P|lang:en|wc:2|cs:7530|v=4,Gold Pharma,https://www.indiamart.com/gold-pharma/?pos=139&kwd=gripe water&tags=CC||||8404.855|Price|product|||NA|rsf:gd-|-qr_nm:gd|res:RC3|com-cf:nl|ptrs:na|ktp:N0|mc:41613|mtp:S|qry_typ:P|lang:en|wc:2|cs:7530|v=4,False,Gurlapur,Mudalgi,"Mahavir Nagar, R.S. No. 560, T. M. C. No. 242 Chikkodi-Mahalingpur Road, Gurlapur, Mudalgi - 591312, Dist.Belgaum, Karnataka",8048956962,
Dabur Gripe Water 125 Ml (pack Of 2 ),https://www.indiamart.com/proddetail/dabur-gripe-water-125-ml-pack-of-2-2854766091012.html?pos=140&kwd=gripe water&tags=CC||||8838.804|Price|product|||FCPE|rsf:gd-|-qr_nm:gd|res:RC3|com-cf:nl|ptrs:na|ktp:N0|mc:41613|mtp:S|qry_typ:P|lang:en|wc:2|cs:7530|v=4,Uniqrr Technologies Private Limited,https://www.indiamart.com/uniqrrtechnologies-private-limited/?pos=140&kwd=gripe water&tags=CC||||8838.804|Price|product|||FCPE|rsf:gd-|-qr_nm:gd|res:RC3|com-cf:nl|ptrs:na|ktp:N0|mc:41613|mtp:S|qry_typ:P|lang:en|wc:2|cs:7530|v=4,False,,Aligarh,"First Floor, Sapna Complex, Phaphala Street, Railway Road,, Aligarh - 202001, Uttar Pradesh",,
Hamdard Naunehal Gripe Syrup,https://www.indiamart.com/proddetail/hamdard-naunehal-gripe-syrup-17789884755.html?pos=141&kwd=gripe water&tags=CC||||8864.516||product|||NA|rsf:gd-|-qr_nm:gd|res:RC3|com-cf:nl|ptrs:na|ktp:N0|mc:41613|mtp:S|qry_typ:P|lang:en|wc:2|cs:7530|v=4,New Venkataramana Medicals,https://www.indiamart.com/new-venkataramana-medicals/?pos=141&kwd=gripe water&tags=CC||||8864.516||product|||NA|rsf:gd-|-qr_nm:gd|res:RC3|com-cf:nl|ptrs:na|ktp:N0|mc:41613|mtp:S|qry_typ:P|lang:en|wc:2|cs:7530|v=4,False,Bandla Veedi,Tirupati,"Door No.-337, Bandla Veedi, Tilak Road,, Bandla Veedi, Tirupati - 517501, Dist.Chittoor, Andhra Pradesh",8069857349,905
"Hamdard Naunehal Gripe Syrup, Packaging Type: Plastic Bottle, Newly Born",https://www.indiamart.com/proddetail/hamdard-naunehal-gripe-syrup-27153252612.html?pos=142&kwd=gripe water&tags=CC||||8974.737|Price|product|||NA|rsf:gd-|-qr_nm:gd|res:RC3|com-cf:nl|ptrs:na|ktp:N0|mc:41613|mtp:S|qry_typ:P|lang:en|wc:2|cs:7530|v=4,Raj Enterprises,https://www.indiamart.com/raj-enterprises-uttarpradesh/?pos=142&kwd=gripe water&tags=CC||||8974.737|Price|product|||NA|rsf:gd-|-qr_nm:gd|res:RC3|com-cf:nl|ptrs:na|ktp:N0|mc:41613|mtp:S|qry_typ:P|lang:en|wc:2|cs:7530|v=4,False,,Bareilly,"701 Pilibhit Road Uphar Appartment, Bareilly - 243006, Dist.Bareilly, Uttar Pradesh",8047545771,
Hamdard Naunehal Gripe Syrup,https://www.indiamart.com/proddetail/hamdard-naunehal-gripe-syrup-2854212985748.html?pos=143&kwd=gripe water&tags=CC||||8752.144|Price|product|||NA|rsf:gd-|-qr_nm:gd|res:RC3|com-cf:nl|ptrs:na|ktp:N0|mc:41613|mtp:S|qry_typ:P|lang:en|wc:2|cs:7530|v=4,Medlelo Enterprises,https://www.indiamart.com/medlelo-enterprises/?pos=143&kwd=gripe water&tags=CC||||8752.144|Price|product|||NA|rsf:gd-|-qr_nm:gd|res:RC3|com-cf:nl|ptrs:na|ktp:N0|mc:41613|mtp:S|qry_typ:P|lang:en|wc:2|cs:7530|v=4,False,Jaffrabad,New Delhi,"1227/a T/f Old No J-34/5 Kh No 532/261 & 262 Gali No 48/4 Old No 48, Jaffrabad, New Delhi - 110053, Dist.Delhi, Delhi",,
Hamdard Naunehal Gripe Syrup,https://www.indiamart.com/proddetail/hamdard-naunehal-gripe-syrup-2853868402188.html?pos=144&kwd=gripe water&tags=CC||||8245.243|Price|product|||NA|rsf:gd-|-qr_nm:gd|res:RC3|com-cf:nl|ptrs:na|ktp:N0|mc:41613|mtp:S|qry_typ:P|lang:en|wc:2|cs:7530|v=4,Ayush Upchar,https://www.indiamart.com/ayush-upchar/?pos=144&kwd=gripe water&tags=CC||||8245.243|Price|product|||NA|rsf:gd-|-qr_nm:gd|res:RC3|com-cf:nl|ptrs:na|ktp:N0|mc:41613|mtp:S|qry_typ:P|lang:en|wc:2|cs:7530|v=4,False,,Ambarnath,"FLAT NO-B/602,MEERA ROYALE,BEHIND RANGOLI HOTEL,Ambarnath FLAT NO-B/602 BEHIND RANGOLI HOTEL MEERA ROYALE Ambarnath Thane Maharashtra 421501,421501,, Ambarnath - 421501, Dist.Thane, Maharashtra",,
Woodwards Gripe Water 200 Ml (pack Of 3) Royal Blue (wgwcombo1),https://www.indiamart.com/proddetail/woodwards-gripe-water-200-ml-pack-of-3-royal-blue-wgwcombo1-2854291663712.html?pos=145&kwd=gripe water&tags=CC||||8778.123|Price|product|||FCPE|rsf:gd-|-qr_nm:gd|res:RC3|com-cf:nl|ptrs:na|ktp:N0|mc:41613|mtp:S|qry_typ:P|lang:en|wc:2|cs:7530|v=4,NoWorry ( A Brand of Aikm Pharma Private Limited ),https://www.indiamart.com/aikm-pharma/?pos=145&kwd=gripe water&tags=CC||||8778.123|Price|product|||FCPE|rsf:gd-|-qr_nm:gd|res:RC3|com-cf:nl|ptrs:na|ktp:N0|mc:41613|mtp:S|qry_typ:P|lang:en|wc:2|cs:7530|v=4,False,,Noida,"LGF-3, Near Police Chowki, Vill-garhi Chaukhandhi Noida, Noida - 201301, Dist.Gautam Budh Nagar, Uttar Pradesh",,
"M/s Mansar Herbals Jeevandhara Drops, 30ml",https://www.indiamart.com/proddetail/m-s-mansar-herbals-jeevandhara-drops-22836770348.html?pos=146&kwd=gripe water&tags=CC||||8641.487|Price|product|||NA|rsf:gd-|-qr_nm:gd|res:RC3|com-cf:nl|ptrs:na|ktp:N0|mc:41613|mtp:S|qry_typ:P|lang:en|wc:2|cs:7530|v=4,Mansar Herbals,https://www.indiamart.com/mansarherbals/?pos=146&kwd=gripe water&tags=CC||||8641.487|Price|product|||NA|rsf:gd-|-qr_nm:gd|res:RC3|com-cf:nl|ptrs:na|ktp:N0|mc:41613|mtp:S|qry_typ:P|lang:en|wc:2|cs:7530|v=4,False,,Jalandhar,"C-11L,,SPORTS AND SURGICAL COMPLEX BASTI BAWA KHEL,KAPURTHALA ROAD C11, Sports & Surgical Complex, Kapurthala Road,144008,Jalandhar, Jalandhar - 144002, Dist.Jalandhar, Punjab",8048962063,
Hapdco Gripe Mixture,https://www.indiamart.com/proddetail/gripe-mixture-20437875673.html?pos=147&kwd=gripe water&tags=CC||||8778.123||product|||NA|rsf:gd-|-qr_nm:gd|res:RC3|com-cf:nl|ptrs:na|ktp:N0|mc:41613|mtp:S|qry_typ:P|lang:en|wc:2|cs:7530|v=4,Hahnemann Pure Drug Co. Private Limited,https://www.indiamart.com/hahnemannpuredrugco/?pos=147&kwd=gripe water&tags=CC||||8778.123||product|||NA|rsf:gd-|-qr_nm:gd|res:RC3|com-cf:nl|ptrs:na|ktp:N0|mc:41613|mtp:S|qry_typ:P|lang:en|wc:2|cs:7530|v=4,False,,Noida,"D-13, Sector 63, Noida - 201307, Dist.Gautam Budh Nagar, Uttar Pradesh",8047682053,
"Pedicare, For Babies",https://www.indiamart.com/proddetail/pedicare-6849016997.html?pos=148&kwd=gripe water&tags=CC||||8661.854|Price|product|||NA|rsf:gd-|-qr_nm:gd|res:RC3|com-cf:nl|ptrs:na|ktp:N0|mc:41613|mtp:S|qry_typ:P|lang:en|wc:2|cs:7530|v=4,Herbomin (India),https://www.indiamart.com/herbomin-india/?pos=148&kwd=gripe water&tags=CC||||8661.854|Price|product|||NA|rsf:gd-|-qr_nm:gd|res:RC3|com-cf:nl|ptrs:na|ktp:N0|mc:41613|mtp:S|qry_typ:P|lang:en|wc:2|cs:7530|v=4,False,Krishna Nagar,Ludhiana,"B XX 1375, Krishna Nagar, Civil lines, Krishna Nagar, Ludhiana - 141001, Dist.Ludhiana, Punjab",8047653858,
Baby Gripe Water,,Garg Pharmacy,https://www.indiamart.com/garg-pharmacy-bahadurgarh/?pos=149&kwd=gripe water&tags=CC||||8734.695|Price|product|||MDC|rsf:gd-|-qr_nm:gd|res:RC3|com-cf:nl|ptrs:na|ktp:N0|mc:41613|mtp:S|qry_typ:P|lang:en|wc:2|cs:7530|v=4,False,Dayanand Nagar,Bahadurgarh,"SHOP NO.1, House no-14/279,,Street no-1, Dayanand Nagar,Sankhol Shop No-1, House no-14/279, Street no-1, Dayanand Nagar, Soni Sr.Secondary School,Sankhol, Jhajjar,, Dayanand Nagar, Bahadurgarh - 124507, Dist.Jhajjar, Haryana",7942837862,
Gripe Water,,German Homeo Pharmacy,https://www.indiamart.com/german-homeo-pharmacy-sahibganj/?pos=150&kwd=gripe water&tags=CC||||9770.737||product|||NA|rsf:gd-|-qr_nm:gd|res:RC3|com-cf:nl|ptrs:na|ktp:N0|mc:41613|mtp:S|qry_typ:P|lang:en|wc:2|cs:7530|v=4,False,,Sahibganj,"College Road, Sahibganj - 816109, Dist.Sahibganj, Jharkhand",8048249688,9629
Gripe Water,,Pinaaki Surgi Pharma,https://www.indiamart.com/pinaaki-surgi-pharma/?pos=151&kwd=gripe water&tags=CC||||9189.305||product|||NA|rsf:gd-|-qr_nm:gd|res:RC3|com-cf:nl|ptrs:na|ktp:N0|mc:41613|mtp:S|qry_typ:P|lang:en|wc:2|cs:7530|v=4,False,Jhunsi,Prayagraj,"Chakharihar Van Kalawati Market, Jhunsi, Prayagraj - 211019, Dist.Allahabad, Uttar Pradesh",8048249685,4080
Gripe Water,,Kiansh Medicos,https://www.indiamart.com/kiansh-medicos/?pos=152&kwd=gripe water&tags=CC||||8588.208||product|||NA|rsf:gd-|-qr_nm:gd|res:RC3|com-cf:nl|ptrs:na|ktp:N0|mc:41613|mtp:S|qry_typ:P|lang:en|wc:2|cs:7530|v=4,False,,Kota,"Kiansh medicos Dr agrawal multispeciality hospital, Kota - 324004, Rajasthan",8069857366,418
Gripe Water,,Aadinath Medicals,https://www.indiamart.com/aadinath-medicals-delhi/?pos=153&kwd=gripe water&tags=CC||||8752.144||product|||NA|rsf:gd-|-qr_nm:gd|res:RC3|com-cf:nl|ptrs:na|ktp:N0|mc:41613|mtp:S|qry_typ:P|lang:en|wc:2|cs:7530|v=4,False,Sector-16,New Delhi,"PLOT NO. 43,1ST FLOOR, POCKET A-5, SECTOR 16,ROHINI A-5/43,110085,Delhi, Sector-16, New Delhi - 110089, Dist.Delhi, Delhi",8048372929,262
Gripe Water,,Hindustan Pharmaceutical Distributors,https://www.indiamart.com/hindustan-pharmaceutical/?pos=154&kwd=gripe water&tags=CC||||8231.259||product|||NA|rsf:gd-|-qr_nm:gd|res:RC3|com-cf:nl|ptrs:na|ktp:N0|mc:41613|mtp:S|qry_typ:P|lang:en|wc:2|cs:7530|v=4,False,,Bhiwandi,"Shop No 01,House No 2131/74-A Ground Floor,Daud Shah Dargah,Maccha Compound Khadipar Khoni,Bhiwandi,, Bhiwandi - 421302, Maharashtra",8069023914,463
Gripe Water,,Desai Medicose,https://www.indiamart.com/desai-medicos/?pos=155&kwd=gripe water&tags=CC||||8746.929||product|||NA|rsf:gd-|-qr_nm:gd|res:RC3|com-cf:nl|ptrs:na|ktp:N0|mc:41613|mtp:S|qry_typ:P|lang:en|wc:2|cs:7530|v=4,False,Sector 8A,Chandigarh,"SCO 76-77, Sector 8C, Madhya Marg, Sector 8A, Chandigarh - 160009, Chandigarh",8048249675,8655
Gripe Water,,Silvar Chemist,https://www.indiamart.com/silver-chemist/?pos=156&kwd=gripe water&tags=CC||||8228.275||product|||NA|rsf:gd-|-qr_nm:gd|res:RC3|com-cf:nl|ptrs:na|ktp:N0|mc:41613|mtp:S|qry_typ:P|lang:en|wc:2|cs:7530|v=4,False,Satellite,Ahmedabad,"A-108, POPULAR PLAZA, BESIDE JAIN TEMPLE, SATELLITE, Satellite , Ahmedabad - 380015, Dist.Ahmedabad, Gujarat",8048249675,9076
Gripe Water,,Grova Pharma LLP,https://www.indiamart.com/grova-pharma/?pos=157&kwd=gripe water&tags=CC||||8601.347||product|||NA|rsf:gd-|-qr_nm:gd|res:RC3|com-cf:nl|ptrs:na|ktp:N0|mc:41613|mtp:S|qry_typ:P|lang:en|wc:2|cs:7530|v=4,False,,Jaipur,"P N13,Room No G 11,Ground Floor,Shiv Kripa,Duni Walo Ka Gher,Nataniyo Ka Rasta,Jaipur, Jaipur - 302007, Dist.Jaipur, Rajasthan",8047308800,9542
Gripe Water,,Magnomed Pharmaceuticals LLP,https://www.indiamart.com/magnomed-pharmaceuticals-llp/?pos=158&kwd=gripe water&tags=CC||||8663.873||product|||NA|rsf:gd-|-qr_nm:gd|res:RC3|com-cf:nl|ptrs:na|ktp:N0|mc:41613|mtp:S|qry_typ:P|lang:en|wc:2|cs:7530|v=4,False,Bengaluru,Bengaluru,"SHOP NO 2 PART B, 1ST FLOOR SITE NO 03,SURVEY NO 62/7, HEROHALLI VILLAGE DWARAKAWSA ROAD BHARATH NAG ARA 1 BLOCK, MAGADI ROAD,BANGALORE, Bengaluru Urban, Karnataka, 560091, Bengaluru, Bengaluru - 560091, Dist.Bengaluru, Karnataka",8069264853,117
Gripe Water,,Mexico Pharmaceuticals,https://www.indiamart.com/mexico-pharmaceuticals/?pos=159&kwd=gripe water&tags=CC||||8612.732||product|||NA|rsf:gd-|-qr_nm:gd|res:RC3|com-cf:nl|ptrs:na|ktp:N0|mc:41613|mtp:S|qry_typ:P|lang:en|wc:2|cs:7530|v=4,False,,Srinagar,"Near Main Choek, Baldgam, Srinagar - 721242, Dist.Srinagar, Jammu & Kashmir",8048371892,509
Gripe Water,,Vedika Enterprises,https://www.indiamart.com/vedika-enterprises-lucknow/?pos=160&kwd=gripe water&tags=CC||||9110.092||product|||NA|rsf:gd-|-qr_nm:gd|res:RC3|com-cf:nl|ptrs:na|ktp:N0|mc:41613|mtp:S|qry_typ:P|lang:en|wc:2|cs:7530|v=4,False,,Lucknow,"0,Bhuhar Adarsh Vihar,Buddeshwar,Lucknow, Lucknow - 226017, Dist.Lucknow, Uttar Pradesh",8069416069,657
Gripe Water,,Aushadha Pharmacy,https://www.indiamart.com/aushadha-pharmacy/?pos=161&kwd=gripe water&tags=CC||||8754.302||product|||NA|rsf:gd-|-qr_nm:gd|res:RC3|com-cf:nl|ptrs:na|ktp:N0|mc:41613|mtp:S|qry_typ:P|lang:en|wc:2|cs:7530|v=4,False,BICHCINDA,Nizamabad,"15-36,Shop No 1,Opp Bus Stand,Bichkunda,Kamareddy,Nizamabad, BICHCINDA, Nizamabad - 503306, Telangana",8069728331,308
Gripe Water,,Sabsan Technologies LLP,https://www.indiamart.com/sabsan-technologies/?pos=162&kwd=gripe water&tags=CC||||8891.556|Price|product|||NA|rsf:gd-|-qr_nm:gd|res:RC3|com-cf:nl|ptrs:na|ktp:N0|mc:41613|mtp:S|qry_typ:P|lang:en|wc:2|cs:7530|v=4,False,,Kanchipuram,"15113,10th Floor,B 23 Prestige Bellavista,Tower 15 Chennai,Kanchipuram,Kancheepuram, Kanchipuram - 600056, Dist.Kanchipuram, Tamil Nadu",8069857354,649
Gripe Water,,Anshu Hospital,https://www.indiamart.com/anshu-hospital/?pos=163&kwd=gripe water&tags=CC||||8769.508||product|||NA|rsf:gd-|-qr_nm:gd|res:RC3|com-cf:nl|ptrs:na|ktp:N0|mc:41613|mtp:S|qry_typ:P|lang:en|wc:2|cs:7530|v=4,False,,Faridabad,"Plot No 9 Sehatpur Road Palla No 1, Faridabad - 121003, Dist.Faridabad, Haryana",8069017252,878
Gripe Water,,Ocean Remedies,https://www.indiamart.com/acean-remedies/?pos=164&kwd=gripe water&tags=CC||||8559.269||product|||NA|rsf:gd-|-qr_nm:gd|res:RC3|com-cf:nl|ptrs:na|ktp:N0|mc:41613|mtp:S|qry_typ:P|lang:en|wc:2|cs:7530|v=4,False,Jaora Compound,Indore,"619,,V I P Paraspar Nagar, Sch No 97/4,INDORE Shop No. 4, 2nd Floor, Dawa Bazar,452001,Indore, Jaora Compound, Indore - 452009, Dist.Indore, Madhya Pradesh",8048371976,584
Gripe Water,,Hindustan Medical Agencies,https://www.indiamart.com/hindustan-medical-agencies/?pos=165&kwd=gripe water&tags=CC||||8559.269||product|||NA|rsf:gd-|-qr_nm:gd|res:RC3|com-cf:nl|ptrs:na|ktp:N0|mc:41613|mtp:S|qry_typ:P|lang:en|wc:2|cs:7530|v=4,False,,Indore,"154 a, lg, dawa Bazar, Indore - 452001, Dist.Indore, Madhya Pradesh",8043876474,
Gripe Water,,B Care Pharma,https://www.indiamart.com/bcare-pharma/?pos=166&kwd=gripe water&tags=CC||||8601.347||product|||NA|rsf:gd-|-qr_nm:gd|res:RC3|com-cf:nl|ptrs:na|ktp:N0|mc:41613|mtp:S|qry_typ:P|lang:en|wc:2|cs:7530|v=4,False,,Jaipur,"City Palace Road, Chini Ki Burz Choti Chopar, Jaipur - 302002, Dist.Jaipur, Rajasthan",8048250543,647
Gripe Water,,New Choudhary Medical Agency,https://www.indiamart.com/new-choudhary-medical-agency/?pos=167&kwd=gripe water&tags=CC||||8601.347||product|||NA|rsf:gd-|-qr_nm:gd|res:RC3|com-cf:nl|ptrs:na|ktp:N0|mc:41613|mtp:S|qry_typ:P|lang:en|wc:2|cs:7530|v=4,False,Lalarpura,Jaipur,"SHOP NO G-5,P.NO. 11, NEAR RANGOLI GARDEN, DEVANDA PLAZA, MAHARANA PRATAP MARG, PANCHYAWALA,JAIPUR Shop G5, Devanda Plaza, Maharana Pratap Marg, Vaishali Nagar,302021,Jaipur, Lalarpura, Jaipur - 302034, Dist.Jaipur, Rajasthan",8048361220,602
Gripe Water,,Subhan Cosmetics,https://www.indiamart.com/subhan-cosmetics/?pos=168&kwd=gripe water&tags=CC||||8786.56||product|||NA|rsf:gd-|-qr_nm:gd|res:RC3|com-cf:nl|ptrs:na|ktp:N0|mc:41613|mtp:S|qry_typ:P|lang:en|wc:2|cs:7530|v=4,False,Moin Bagh,Hyderabad,"Main Bagh, Near Masooda Function Hall, Fateh Shah Nagar, Moin Bagh, Hyderabad - 500059, Dist.Hyderabad, Telangana",8069264837,140
Gripe Water,,R.B. Medicals,https://www.indiamart.com/rb-medicals/?pos=169&kwd=gripe water&tags=CC||||8954.051||product|||NA|rsf:gd-|-qr_nm:gd|res:RC3|com-cf:nl|ptrs:na|ktp:N0|mc:41613|mtp:S|qry_typ:P|lang:en|wc:2|cs:7530|v=4,False,Thiruvanmiyur,Chennai,"Door no. 64, Shop No. 3, Beach Road, Lakshmi Puram, Thiruvanmiyur, Thiruvanmiyur, Chennai - 600041, Dist.Chennai, Tamil Nadu",7949367952,
Gripe Water,,Shree Scheme Zone,https://www.indiamart.com/shree-scheme-zone/?pos=170&kwd=gripe water&tags=CC||||8316.457||product|||NA|rsf:gd-|-qr_nm:gd|res:RC3|com-cf:nl|ptrs:na|ktp:N0|mc:41613|mtp:S|qry_typ:P|lang:en|wc:2|cs:7530|v=4,False,Gole Colony,Nashik,"Shop No.1, Safalya Apartment, Gole Colony, Nashik - 422002, Dist.Nashik, Maharashtra",8047786164,
Gripe Water,,Modi Medical Agency,https://www.indiamart.com/modi-medical-agency/?pos=171&kwd=gripe water&tags=CC||||8224.965||product|||NA|rsf:gd-|-qr_nm:gd|res:RC3|com-cf:nl|ptrs:na|ktp:N0|mc:41613|mtp:S|qry_typ:P|lang:en|wc:2|cs:7530|v=4,False,Kalol,Kalol Gandhinagar District,"G25/26 City Mall-2, Navjivan Compound, Kalol, Kalol Gandhinagar District - 382721, Gujarat",8048249671,5493
Gripe Water,,Ashok Medicine Traders,https://www.indiamart.com/ashok-medicine-traders/?pos=172&kwd=gripe water&tags=CC||||8788.919||product|||NA|rsf:gd-|-qr_nm:gd|res:RC3|com-cf:nl|ptrs:na|ktp:N0|mc:41613|mtp:S|qry_typ:P|lang:en|wc:2|cs:7530|v=4,False,sada bajar,Jagadhri,"0, Vijay Nagar Colony Near Kapoor Hospital, Yamunanagar, sada bajar, Jagadhri - 135001, Dist.Yamuna Nagar, Haryana",8048372732,122
Gripe Water,,Gaurav Midical Store,https://www.indiamart.com/gaurav-midical-store/?pos=173&kwd=gripe water&tags=CC||||9110.092|Price|product|||NA|rsf:gd-|-qr_nm:gd|res:RC3|com-cf:nl|ptrs:na|ktp:N0|mc:41613|mtp:S|qry_typ:P|lang:en|wc:2|cs:7530|v=4,False,,Lucknow,"Opposite Tsm Hospital,Anaura,Amausi,Lucknow, Lucknow - 226008, Dist.Lucknow, Uttar Pradesh",8048265432,119
Gripe Water,,Sameer Trading Company,https://www.indiamart.com/ms-sameer-trading-company/?pos=174&kwd=gripe water&tags=CC||||8813.969|Price|product|||NA|rsf:gd-|-qr_nm:gd|res:RC3|com-cf:nl|ptrs:na|ktp:N0|mc:41613|mtp:S|qry_typ:P|lang:en|wc:2|cs:7530|v=4,False,,Meerut,"KHAIR NAGAR SHOP NO 10 MEERUT MEDICINE CENTRE, Meerut - 250001, Dist.Meerut, Uttar Pradesh",8048249735,7504
Gripe Water,,Tara Pharmacy,https://www.indiamart.com/tara-pharmacy-allahabad/?pos=175&kwd=gripe water&tags=CC||||9189.305||product|||NA|rsf:gd-|-qr_nm:gd|res:RC3|com-cf:nl|ptrs:na|ktp:N0|mc:41613|mtp:S|qry_typ:P|lang:en|wc:2|cs:7530|v=4,False,,Prayagraj,"Shop No. 9 - 50 Sarai Khuldabad Allahabad Allahabad, Prayagraj - 211003, Dist.Allahabad, Uttar Pradesh",7949358326,
Gripe Water,,Indore Generic And Surgical,https://www.indiamart.com/indore-medical-store/?pos=176&kwd=gripe water&tags=CC||||8559.269||product|||NA|rsf:gd-|-qr_nm:gd|res:RC3|com-cf:nl|ptrs:na|ktp:N0|mc:41613|mtp:S|qry_typ:P|lang:en|wc:2|cs:7530|v=4,False,Agrawal Nagar,Indore,"2nd Floor 156 Dawa Bazar Indore Indore Madhya Pradesh 452001, Agrawal Nagar, Indore - 452001, Dist.Indore, Madhya Pradesh",8045849979,695
Gripe Water,,M/S Alphabets Pharmaceuticals,https://www.indiamart.com/alphabets-pharmaceutical/?pos=177&kwd=gripe water&tags=CC||||8778.123||product|||NA|rsf:gd-|-qr_nm:gd|res:RC3|com-cf:nl|ptrs:na|ktp:N0|mc:41613|mtp:S|qry_typ:P|lang:en|wc:2|cs:7530|v=4,False,Metro Station,Noida,"shop no 20/8, sharma market, Harola, Sector-5, Noida, Gautam Buddha Nagar, Uttar Pradesh, 201301 Sharma Market, Metro Station, Noida - 201301, Dist.Gautam Budh Nagar, Uttar Pradesh",8047311022,7452
Gripe Water,,Guru Kripa Medicos,https://www.indiamart.com/gurukripamedicos/?pos=178&kwd=gripe water&tags=CC||||8754.115||product|||NA|rsf:gd-|-qr_nm:gd|res:RC3|com-cf:nl|ptrs:na|ktp:N0|mc:41613|mtp:S|qry_typ:P|lang:en|wc:2|cs:7530|v=4,False,Sector 12-A,Panchkula,"Shop No. 38, Choudhary Complex, Sector 12-A, Sector 12-A, Panchkula - 134115, Dist.Panchkula, Haryana",8048372204,722
Gripe Water,,Vardhman Marketing,https://www.indiamart.com/vardhaman-marketing-ahmedabad/?pos=179&kwd=gripe water&tags=CC||||8228.275||product|||NA|rsf:gd-|-qr_nm:gd|res:RC3|com-cf:nl|ptrs:na|ktp:N0|mc:41613|mtp:S|qry_typ:P|lang:en|wc:2|cs:7530|v=4,False,,Ahmedabad,"BLOCK F GF 20,SUMEL BUSINESS PARK VI JUPITER MILL COMPOUND, DUDHESWAR ROAD,AHMEDABAD CITY D-2, Sumel 6, Dudheshwar,380001,Ahmedabad, Ahmedabad - 380004, Dist.Ahmedabad, Gujarat",8048361277,305
Gripe Water,,Wonder Pharma,https://www.indiamart.com/wonder-pharma-ahmedabad/?pos=180&kwd=gripe water&tags=CC||||8228.275||product|||NA|rsf:gd-|-qr_nm:gd|res:RC3|com-cf:nl|ptrs:na|ktp:N0|mc:41613|mtp:S|qry_typ:P|lang:en|wc:2|cs:7530|v=4,False,Odhav,Ahmedabad,"E-6, Madhav Avenue, S P Ring Road, Odhav Circle, Odhav, Ahmedabad - 382415, Dist.Ahmedabad, Gujarat",8069013448,674
Gripe Water,,Sri Balaji Pharmacy,https://www.indiamart.com/sribalaji-pharmacy/?pos=181&kwd=gripe water&tags=CC||||8954.051||product|||NA|rsf:gd-|-qr_nm:gd|res:RC3|com-cf:nl|ptrs:na|ktp:N0|mc:41613|mtp:S|qry_typ:P|lang:en|wc:2|cs:7530|v=4,False,Madhanandapuram,Chennai,"1b And 1a Maran Avenue And Parvathy Avenue Madhanandhapuram thapuram, Madhanandapuram, Chennai - 600125, Dist.Chennai, Tamil Nadu",8069728206,554
Gripe Water,,Kumar'S W B,https://www.indiamart.com/kumars-w-b/?pos=182&kwd=gripe water&tags=CC||||8861.147||product|||NA|rsf:gd-|-qr_nm:gd|res:RC3|com-cf:nl|ptrs:na|ktp:N0|mc:41613|mtp:S|qry_typ:P|lang:en|wc:2|cs:7530|v=4,False,,Firozabad,"00,Ramnagar Near Chona Chakki Choudi Wali Gali Firozabad,Firozabad,Firozabad, Firozabad - 283203, Dist.Firozabad, Uttar Pradesh",8047311020,7834
Gripe Water,,J.K.Medicos,https://www.indiamart.com/jkmedicos/?pos=183&kwd=gripe water&tags=CC||||8641.487||product|||NA|rsf:gd-|-qr_nm:gd|res:RC3|com-cf:nl|ptrs:na|ktp:N0|mc:41613|mtp:S|qry_typ:P|lang:en|wc:2|cs:7530|v=4,False,Shop No 3 4 Hoshiarpur,Jalandhar,"Shop No 3 4 Hoshiarpur Road New Santokhpura Jalandhar Jalandhar Shop No 3 4 Hoshiarpur Road New Santokhpura Jalandhar Jalandhar, , Jalandhar-144001, Punjab,India, Shop No 3 4 Hoshiarpur, Jalandhar - 144001, Dist.Jalandhar, Punjab",8047309010,9516
Gripe Water,,Bharat Medical Stores,https://www.indiamart.com/bharat-medical-store-raipur/?pos=184&kwd=gripe water&tags=CC||||9140.514|Price|product|||NA|rsf:gd-|-qr_nm:gd|res:RC3|com-cf:nl|ptrs:na|ktp:N0|mc:41613|mtp:S|qry_typ:P|lang:en|wc:2|cs:7530|v=4,False,Fafadih,Raipur,"Opposite Amit Sales,Fafadih,Raipur,Raipur Opposite Amit Sales,Fafadih,Raipur,Raipur, Fafadih, Raipur - 492001, Chhattisgarh",8069857314,838
Gripe Water,,Himachal Medical Agencies,https://www.indiamart.com/himachal-medical-agencies/?pos=185&kwd=gripe water&tags=CC||||8735.498||product|||NA|rsf:gd-|-qr_nm:gd|res:RC3|com-cf:nl|ptrs:na|ktp:N0|mc:41613|mtp:S|qry_typ:P|lang:en|wc:2|cs:7530|v=4,False,Hamirpur,Hamirpur,"Bhota Chowk Hamirpur Hospital Road, Hamirpur, Hamirpur - 177001, Himachal Pradesh",8048372941,662
Gripe Water,,Life Care Agencies,https://www.indiamart.com/life-care-agencies-aligarh/?pos=186&kwd=gripe water&tags=CC||||8838.804|Price|product|||NA|rsf:gd-|-qr_nm:gd|res:RC3|com-cf:nl|ptrs:na|ktp:N0|mc:41613|mtp:S|qry_typ:P|lang:en|wc:2|cs:7530|v=4,False,Barahdwari,Aligarh,"0, , MAHASHYA MARKET, PHAPHALA STREET 0 Mahashya Market Phaphala Street, 202001, Aligarh, Barahdwari, Aligarh - 202001, Uttar Pradesh",8069857318,864
Gripe Water,,Rasali Pharmaceuticals,https://www.indiamart.com/jeevak-ayurved-kendra-rasali-pharmaceuticals/?pos=187&kwd=gripe water&tags=CC||||8249.688|Price|product|||NA|rsf:gd-|-qr_nm:gd|res:RC3|com-cf:nl|ptrs:na|ktp:N0|mc:41613|mtp:S|qry_typ:P|lang:en|wc:2|cs:7530|v=4,False,Badlapur,Badlapur,"Shop No 4, Badlapur (Near Idbi Bank Ltd), Badlapur Shop No 4, Badlapur (Near Idbi Bank Ltd), Badlapur, Badlapur - 421503, Maharashtra",8069857321,540
Gripe Water,,Jai Maa Sharda Medical Agencies,https://www.indiamart.com/jai-maa-sharda-medical-agencies/?pos=188&kwd=gripe water&tags=CC||||9189.305||product|||NA|rsf:gd-|-qr_nm:gd|res:RC3|com-cf:nl|ptrs:na|ktp:N0|mc:41613|mtp:S|qry_typ:P|lang:en|wc:2|cs:7530|v=4,False,,Prayagraj,"2 Shahganj Leader Road Allahabad Shahganj Leader Road Allahabad, Prayagraj - 211003, Dist.Allahabad, Uttar Pradesh",8069416014,785
Gripe Water,,Shivaay Pharma,https://www.indiamart.com/shivaay-pharma-lucknow/?pos=189&kwd=gripe water&tags=CC||||9110.092|Price|product|||NA|rsf:gd-|-qr_nm:gd|res:RC3|com-cf:nl|ptrs:na|ktp:N0|mc:41613|mtp:S|qry_typ:P|lang:en|wc:2|cs:7530|v=4,False,,Lucknow,"H NO- 612/P-006/1, SITAPUR ROAD, Lucknow,, Lucknow - 226020, Dist.Lucknow, Uttar Pradesh",7949361420,
Gripe Water,,Amar Pharma,https://www.indiamart.com/amar-pharma-jodhpur/?pos=190&kwd=gripe water&tags=CC||||8319.425|Price|product|||NA|rsf:gd-|-qr_nm:gd|res:RC3|com-cf:nl|ptrs:na|ktp:N0|mc:41613|mtp:S|qry_typ:P|lang:en|wc:2|cs:7530|v=4,False,,Jodhpur,"Plot No P-4,N S Marriage Garden Ke Samne Wali Gali Shyam Balai Marg,Shop No 1,Nh 25,Jodhpur,Jodhpu, Jodhpur - 342008, Dist.Jodhpur, Rajasthan",8048250489,115
Gripe Water,,Yug Enterprise,https://www.indiamart.com/yug-enterprise-muzaffarpur/?pos=191&kwd=gripe water&tags=CC||||9544.876||product|||NA|rsf:gd-|-qr_nm:gd|res:RC3|com-cf:nl|ptrs:na|ktp:N0|mc:41613|mtp:S|qry_typ:P|lang:en|wc:2|cs:7530|v=4,False,Jaiprakash Nagar,Muzaffarpur,"Purani Motihari Road, Purva Paiganber School Muzaffarpur, Jaiprakash Nagar, Muzaffarpur - 842001, Dist.Muzaffarpur, Bihar",8048249951,644
Gripe Water,,Chetna Medical Stores,https://www.indiamart.com/chetan-medical-store/?pos=192&kwd=gripe water&tags=CC||||8211.142|Price|product|||NA|rsf:gd-|-qr_nm:gd|res:RC3|com-cf:nl|ptrs:na|ktp:N0|mc:41613|mtp:S|qry_typ:P|lang:en|wc:2|cs:7530|v=4,False,N M Joshi Marg,Mumbai,"SHOP NO 8,GROUND FLOOR, SINGAPOREWALA CHAWL, S M MARG, BAWLA MASJID,DELISLE ROAD Shop No. 8,400013,Mumbai, N M Joshi Marg, Mumbai - 400011, Dist.Mumbai, Maharashtra",7942651018,
Gripe Water,,Nandi Pharma,https://www.indiamart.com/nandipharma-jodhpur/?pos=193&kwd=gripe water&tags=CC||||8319.425||product|||NA|rsf:gd-|-qr_nm:gd|res:RC3|com-cf:nl|ptrs:na|ktp:N0|mc:41613|mtp:S|qry_typ:P|lang:en|wc:2|cs:7530|v=4,False,Jalori Gate,Jodhpur,"Shop No. 340, 3rd Floor, Jalori Gate, Jodhpur - 342001, Dist.Jodhpur, Rajasthan",8062245104,604
Gripe Water,,Suraj Medical Agencies,https://www.indiamart.com/suraj-medical-agencies-lakhimpur-kheri/?pos=194&kwd=gripe water&tags=CC||||9103.016||product|||NA|rsf:gd-|-qr_nm:gd|res:RC3|com-cf:nl|ptrs:na|ktp:N0|mc:41613|mtp:S|qry_typ:P|lang:en|wc:2|cs:7530|v=4,False,KHERI,Lakhimpur Kheri,"VILL-FATTPUR SHEDRI, LAKHIMPUR, KHERI, Lakhimpur Kheri, Uttar Pradesh VILL-FATTPUR SHEDRI, LAKHIMPUR, KHERI, Lakhimpur Kheri, Uttar Pradesh, KHERI, Lakhimpur Kheri - 262701, Dist.Lakhimpur Kheri, Uttar Pradesh",8048361349,162
Gripe Water,,Kalmeshwar Pharma,https://www.indiamart.com/kalmeshwar-pharma/?pos=195&kwd=gripe water&tags=CC||||8476.934||product|||NA|rsf:gd-|-qr_nm:gd|res:RC3|com-cf:nl|ptrs:na|ktp:N0|mc:41613|mtp:S|qry_typ:P|lang:en|wc:2|cs:7530|v=4,False,,Bagalkot,", Bagalkot, Dist.Bagalkot, Karnataka",8062270247,963
Gripe Water,,New Shree Sudha Enterprises,https://www.indiamart.com/new-shree-sudha-enterprises/?pos=196&kwd=gripe water&tags=CC||||9528.781||product|||NA|rsf:gd-|-qr_nm:gd|res:RC3|com-cf:nl|ptrs:na|ktp:N0|mc:41613|mtp:S|qry_typ:P|lang:en|wc:2|cs:7530|v=4,False,congress office,Ranchi,"Shop No 1 Shardhanand Road Sri Ram Complex Near Baldev Bhawan, congress office, Ranchi - 834001, Dist.Ranchi, Jharkhand",8069264860,618
Gripe Water,,Fan Herbals,https://www.indiamart.com/fan-herbals/?pos=197&kwd=gripe water&tags=CC||||8819.914|Price|product|||NA|rsf:gd-|-qr_nm:gd|res:RC3|com-cf:nl|ptrs:na|ktp:N0|mc:41613|mtp:S|qry_typ:P|lang:en|wc:2|cs:7530|v=4,False,YOGENDRAPURI,Muzaffarnagar,"765/135,,, YOGENDRAPURI, Muzaffarnagar - 251002, Dist.Muzaffarnagar, Uttar Pradesh",8048249688,1905
Gripe Water,,Sangeetha Medical And General Stores,https://www.indiamart.com/company/129631913/?pos=198&kwd=gripe water&tags=CC||||8786.56|Price|product|||NA|rsf:gd-|-qr_nm:gd|res:RC3|com-cf:nl|ptrs:na|ktp:N0|mc:41613|mtp:S|qry_typ:P|lang:en|wc:2|cs:7530|v=4,False,,Hyderabad,"H No 8-4-369/235,I Type,Mothinagar,Nrr Puram Site 3,Borabanda,Hyderabad,Hyderabad, Hyderabad - 500018, Dist.Hyderabad, Telangana",8048247098,7880
Gripe Water,,Simco Organics,https://www.indiamart.com/simco-pharma/?pos=199&kwd=gripe water&tags=CC||||8556.86||product|||NA|rsf:gd-|-qr_nm:gd|res:RC3|com-cf:nl|ptrs:na|ktp:N0|mc:41613|mtp:S|qry_typ:P|lang:en|wc:2|cs:7530|v=4,False,,Ujjain,"189,172,190,171,,DEWAS ROAD,INDUSTRIAL AREA, NAGZIRI No. 30,456001,Ujjain, Ujjain - 456010, Dist.Ujjain, Madhya Pradesh",8048372925,380
Gripe Water,,Kalapy Medicine,https://www.indiamart.com/kalapymedicine-ahmedabad/?pos=200&kwd=gripe water&tags=CC||||8228.275||product|||NA|rsf:gd-|-qr_nm:gd|res:RC3|com-cf:nl|ptrs:na|ktp:N0|mc:41613|mtp:S|qry_typ:P|lang:en|wc:2|cs:7530|v=4,False,ELLISBRIDGE,Ahmedabad,"L/9,RANGOLI COMPLEX,ASHRAM ROAD,ELLISBRIDGE L/9 RANGOLI COMPLEX,,380006,Ahmedabad, ELLISBRIDGE, Ahmedabad - 380001, Dist.Ahmedabad, Gujarat",8048265353,861
Gripe Water,,Sohan Medicals,https://www.indiamart.com/sohan-medicals/?pos=201&kwd=gripe water&tags=CC||||8316.457|Price|product|||NA|rsf:gd-|-qr_nm:gd|res:RC3|com-cf:nl|ptrs:na|ktp:N0|mc:41613|mtp:S|qry_typ:P|lang:en|wc:2|cs:7530|v=4,False,Sharanpur,Nashik,"Shop No-03 Sharanpur Road 422002, Sharanpur, Nashik - 422001, Dist.Nashik, Maharashtra",8048249699,4222
Gripe Water,,Bajaj Distributors,https://www.indiamart.com/bajaj-distributors-allahabad/?pos=202&kwd=gripe water&tags=CC||||9189.305||product|||NA|rsf:gd-|-qr_nm:gd|res:RC3|com-cf:nl|ptrs:na|ktp:N0|mc:41613|mtp:S|qry_typ:P|lang:en|wc:2|cs:7530|v=4,False,,Prayagraj,"6 Leader Road Leader Road Prayagraj, Prayagraj - 211003, Dist.Allahabad, Uttar Pradesh",8048372119,957
Gripe Water,,Shiba Herbal,https://www.indiamart.com/shiba-herbal/?pos=203&kwd=gripe water&tags=CC||||10166.867||product|||NA|rsf:gd-|-qr_nm:gd|res:RC3|com-cf:nl|ptrs:na|ktp:N0|mc:41613|mtp:S|qry_typ:P|lang:en|wc:2|cs:7530|v=4,False,baihati chariali,Kamrup,"NIL,,GORESWAR ROAD,BAIHATA CHARIALI Nil Goreswar Road Baihata,781381, baihati chariali, Kamrup - 781381, Dist.Kamrup, Assam",8046053485,
Gripe Water,,Daulatram Shivcharandass Khandelwal,https://www.indiamart.com/daulatram-shivcharandass-khandelwal/?pos=204&kwd=gripe water&tags=CC||||8482.091||product|||NA|rsf:gd-|-qr_nm:gd|res:RC3|com-cf:nl|ptrs:na|ktp:N0|mc:41613|mtp:S|qry_typ:P|lang:en|wc:2|cs:7530|v=4,False,ajmer,Ajmer,"1 Kutchery Road, ajmer, Ajmer - 305001, Dist.Ajmer, Rajasthan",8048249739,1510
Gripe Water,,Pooja Enterprises,https://www.indiamart.com/poojaenterprises-118234496/?pos=205&kwd=gripe water&tags=CC||||8860.933||product|||NA|rsf:gd-|-qr_nm:gd|res:RC3|com-cf:nl|ptrs:na|ktp:N0|mc:41613|mtp:S|qry_typ:P|lang:en|wc:2|cs:7530|v=4,False,52 Moti Bazaar,Dehradun,"Shop No 51,41 Devki Complex, 52 Moti Bazaar, Dehradun - 248001, Dist.Dehradun, Uttarakhand",8048247112,3654
Gripe Water,,Uttam Medicals,https://www.indiamart.com/uttam-medicals/?pos=206&kwd=gripe water&tags=CC||||8307.81||product|||NA|rsf:gd-|-qr_nm:gd|res:RC3|com-cf:nl|ptrs:na|ktp:N0|mc:41613|mtp:S|qry_typ:P|lang:en|wc:2|cs:7530|v=4,False,,Pune,"17/A/3 Ganesh Chambers, Near Sonal Hall, Karve Road, Karve Road Deccan,, Pune - 411004, Dist.Pune, Maharashtra",8048247110,6345
Gripe Water,,Agra Pharma Distributors,https://www.indiamart.com/ms-agra-pharma-distributors/?pos=207&kwd=gripe water&tags=CC||||8823.154||product|||NA|rsf:gd-|-qr_nm:gd|res:RC3|com-cf:nl|ptrs:na|ktp:N0|mc:41613|mtp:S|qry_typ:P|lang:en|wc:2|cs:7530|v=4,False,Chhata Thana,Agra,"Shop No-5, Jhooley Medicine Comples, Fountain, Chhata Thana, Agra - 282003, Dist.Agra, Uttar Pradesh",8048247114,2462
Gripe Water,,Jagdamba Medical Store,https://www.indiamart.com/jagdambamedicalstore/?pos=208&kwd=gripe water&tags=CC||||8752.144||product|||NA|rsf:gd-|-qr_nm:gd|res:RC3|com-cf:nl|ptrs:na|ktp:N0|mc:41613|mtp:S|qry_typ:P|lang:en|wc:2|cs:7530|v=4,False,Milap Bhawan,New Delhi,"Ground Floor Plot No. 1706/7 Bhagirath Palace,Chandni Chowk, Milap Bhawan, New Delhi - 110006, Dist.Delhi, Delhi",8043885954,
Gripe Water,,Mancare Health Private Limited,https://www.indiamart.com/mancare-health-ltd/?pos=209&kwd=gripe water&tags=CB||||8752.144||product|||NA|rsf:gd-|-qr_nm:gd|res:RC3|com-cf:nl|ptrs:na|ktp:N0|mc:41613|mtp:S|qry_typ:P|lang:en|wc:2|cs:7530|v=4,False,Gazipur,New Delhi,"No.360/2, Opp. Skylark Apartment, Gazipur, Gazipur, New Delhi - 110096, Dist.Delhi, Delhi",8047785120,
Gripe Water,,Bda Pharma Pvt. Ltd.,https://www.indiamart.com/bda-pharma/?pos=210&kwd=gripe water&tags=CC||||8876.815||product|||NA|rsf:gd-|-qr_nm:gd|res:RC3|com-cf:nl|ptrs:na|ktp:N0|mc:41613|mtp:S|qry_typ:P|lang:en|wc:2|cs:7530|v=4,False,Pratap Nagar,Nagpur,"Plot No. 92, Balaji Corporate Park, Cement Road Opposite State Bank Of India, Pratap Nagar, Nagpur - 440010, Dist.Nagpur, Maharashtra",8047822926,
