product_title,product_link,company_name,company_link,is_verified_exporter,city_region,city,address_details,phone_number,phone_number_extension
Fleece mulitucolor Baby Hooded Blanket,https://www.indiamart.com/proddetail/baby-hooded-blanket-2853285398948.html?pos=1&kwd=hooded baby blanket&tags=A||||8211.142|Price|product|||TS|rsf:gd-|-stype:attr=1|qr_nm:gd|res:RC4|com-cf:nl|ptrs:na|ktp:N0|mc:99820|mtp:S|qry_typ:P|lang:en|wc:3|flavl:0|cs:9608|v=4,Parass Trading,https://www.indiamart.com/parasstrading/?pos=1&kwd=hooded baby blanket&tags=A||||8211.142|Price|product|||TS|rsf:gd-|-stype:attr=1|qr_nm:gd|res:RC4|com-cf:nl|ptrs:na|ktp:N0|mc:99820|mtp:S|qry_typ:P|lang:en|wc:3|flavl:0|cs:9608|v=4,False,Chembur,Mumbai,"Room no 3, First Floor, Plot no 39, Next to Shivaji Nagar police station,Kherwadi Plot no 39, Chembur, Mumbai - 400071, Dist.Mumbai, Maharashtra",8047631170,
"Multicolor Bamboo Cotton ( Muslin Cotton) Hooded Baby Blanket, Size: Singe",https://www.indiamart.com/proddetail/hooded-baby-blanket-2854212150173.html?pos=2&kwd=hooded baby blanket&tags=A||||8752.144|Price|product|||TS|rsf:gd-|-stype:attr=1|qr_nm:gd|res:RC4|com-cf:nl|ptrs:na|ktp:N0|mc:99820|mtp:S|qry_typ:P|lang:en|wc:3|flavl:0|cs:9608|v=4,Verma Enterprises,https://www.styaloindia.com/?pos=2&kwd=hooded baby blanket&tags=A||||8752.144|Price|product|||TS|rsf:gd-|-stype:attr=1|qr_nm:gd|res:RC4|com-cf:nl|ptrs:na|ktp:N0|mc:99820|mtp:S|qry_typ:P|lang:en|wc:3|flavl:0|cs:9608|v=4,False,Samaypur,New Delhi,"Plot No.180/1-B, Kh.No. 955/1, 1st, Block-C, Raja Vihar, Siraspur, Badli, North West Delhi, Samaypur, New Delhi - 110042, Dist.Delhi, Delhi",8047654672,
"Blue And White Plain Velvet Hooded Baby Blanket, 1 Year, Size: 65x65cm",https://www.indiamart.com/proddetail/plain-velvet-hooded-baby-blanket-2851612204748.html?pos=3&kwd=hooded baby blanket&tags=A||||8661.854|Price|product|||MDC|rsf:gd-|-stype:attr=1|qr_nm:gd|res:RC4|com-cf:nl|ptrs:na|ktp:N0|mc:99820|mtp:S|qry_typ:P|lang:en|wc:3|flavl:0|cs:9608|v=4,Raj Industries,https://www.indiamart.com/raj-industries-punjab/?pos=3&kwd=hooded baby blanket&tags=A||||8661.854|Price|product|||MDC|rsf:gd-|-stype:attr=1|qr_nm:gd|res:RC4|com-cf:nl|ptrs:na|ktp:N0|mc:99820|mtp:S|qry_typ:P|lang:en|wc:3|flavl:0|cs:9608|v=4,False,,Ludhiana,"H. No B 12 629, Kucha Anayat, Nr Div No 2 Brown Road, Ludhiana - 141008, Dist.Ludhiana, Punjab",7942800347,
Polyester Pink Hooded Baby Blanket,https://www.indiamart.com/proddetail/hooded-baby-blanket-2853737613991.html?pos=4&kwd=hooded baby blanket&tags=A||||8661.854|Price|product|||TS|rsf:gd-|-stype:attr=1|qr_nm:gd|res:RC4|com-cf:nl|ptrs:na|ktp:N0|mc:99820|mtp:S|qry_typ:P|lang:en|wc:3|flavl:0|cs:9608|v=4,Aggarwal Creations,https://www.aggarwalcreations.com/?pos=4&kwd=hooded baby blanket&tags=A||||8661.854|Price|product|||TS|rsf:gd-|-stype:attr=1|qr_nm:gd|res:RC4|com-cf:nl|ptrs:na|ktp:N0|mc:99820|mtp:S|qry_typ:P|lang:en|wc:3|flavl:0|cs:9608|v=4,False,Ramesh Nagar,Ludhiana,"Geeta Nagar, Street No. 7, Tajpur Road, Ramesh Nagar, Ludhiana - 141008, Dist.Ludhiana, Punjab",8048962321,
"Woolen Printed Red Hooded Baby Blanket, Size: Double",https://www.indiamart.com/proddetail/printed-red-hooded-baby-blanket-2854158143391.html?pos=5&kwd=hooded baby blanket&tags=A||||8661.854|Price|product|||MDC|rsf:gd-|-stype:attr=1|qr_nm:gd|res:RC4|com-cf:nl|ptrs:na|ktp:N0|mc:99820|mtp:S|qry_typ:P|lang:en|wc:3|flavl:0|cs:9608|v=4,Sai Trading Company,https://www.indiamart.com/sai-tradingcompany-ludhiana/?pos=5&kwd=hooded baby blanket&tags=A||||8661.854|Price|product|||MDC|rsf:gd-|-stype:attr=1|qr_nm:gd|res:RC4|com-cf:nl|ptrs:na|ktp:N0|mc:99820|mtp:S|qry_typ:P|lang:en|wc:3|flavl:0|cs:9608|v=4,False,Chaura Bazar Area,Ludhiana,"Mochpura Bazar, No. 139 Block Viii, Rajesh Shawls, Chaura Bazar Area, Ludhiana - 141008, Dist.Ludhiana, Punjab",8045736579,
Kids and New born baby Microfiber Towel,https://www.indiamart.com/proddetail/kids-and-new-born-baby-microfiber-towel-2854645326533.html?pos=6&kwd=hooded baby blanket&tags=A||||8954.051|Price|product|||TS|rsf:gd-|-stype:attr=1|qr_nm:gd|res:RC4|com-cf:nl|ptrs:na|ktp:N0|mc:99820|mtp:S|qry_typ:P|lang:en|wc:3|flavl:0|cs:9608|v=4,Sundar Garments,https://www.sundargarment.com/?pos=6&kwd=hooded baby blanket&tags=A||||8954.051|Price|product|||TS|rsf:gd-|-stype:attr=1|qr_nm:gd|res:RC4|com-cf:nl|ptrs:na|ktp:N0|mc:99820|mtp:S|qry_typ:P|lang:en|wc:3|flavl:0|cs:9608|v=4,False,Kondithop,Chennai,"No-9 Murugesan Street Near Kondithope Park, Kondithop, Chennai - 600079, Dist.Chennai, Tamil Nadu",8048266539,
Polyester Blue Hooded Baby Blanket,https://www.indiamart.com/proddetail/blue-hooded-baby-blanket-2854141119791.html?pos=7&kwd=hooded baby blanket&tags=A||||8661.854|Price|product|||MDC|rsf:gd-|-stype:attr=1|qr_nm:gd|res:RC4|com-cf:nl|ptrs:na|ktp:N0|mc:99820|mtp:S|qry_typ:P|lang:en|wc:3|flavl:0|cs:9608|v=4,Universal Traders,https://www.indiamart.com/universaltraderspunjab/?pos=7&kwd=hooded baby blanket&tags=A||||8661.854|Price|product|||MDC|rsf:gd-|-stype:attr=1|qr_nm:gd|res:RC4|com-cf:nl|ptrs:na|ktp:N0|mc:99820|mtp:S|qry_typ:P|lang:en|wc:3|flavl:0|cs:9608|v=4,False,Iqbal Ganj,Ludhiana,"B-X- 435, Telian Street, Near Iqbal Ganj Chowk, Iqbal Ganj, Ludhiana - 141008, Dist.Ludhiana, Punjab",8045731865,
"Oscar Assorted Baby Hooded Blanket Cum Wrap, 0-2 Years, Size: 60 X 60 Inches",https://www.indiamart.com/proddetail/baby-hooded-blanket-cum-wrap-11829417330.html?pos=8&kwd=hooded baby blanket&tags=A||||8778.123|Price|product|||TS|rsf:gd-|-stype:attr=1|qr_nm:gd|res:RC4|com-cf:nl|ptrs:na|ktp:N0|mc:99820|mtp:S|qry_typ:P|lang:en|wc:3|flavl:0|cs:9608|v=4,Oscar Overseas,https://www.oscar-india.com/?pos=8&kwd=hooded baby blanket&tags=A||||8778.123|Price|product|||TS|rsf:gd-|-stype:attr=1|qr_nm:gd|res:RC4|com-cf:nl|ptrs:na|ktp:N0|mc:99820|mtp:S|qry_typ:P|lang:en|wc:3|flavl:0|cs:9608|v=4,False,,Noida,"A-99 Sector 5, Noida - 201301, Dist.Gautam Budh Nagar, Uttar Pradesh",8046058290,
"Cartoon Baby Hooded Blanket, Size: Singe, 0-2",https://www.indiamart.com/proddetail/baby-hooded-blanket-2851789151030.html?pos=9&kwd=hooded baby blanket&tags=A||||8661.854||product|||TS|rsf:gd-|-stype:attr=1|qr_nm:gd|res:RC4|com-cf:nl|ptrs:na|ktp:N0|mc:99820|mtp:S|qry_typ:P|lang:en|wc:3|flavl:0|cs:9608|v=4,A K Davinder Hosiery,https://www.nnhgroups.com/?pos=9&kwd=hooded baby blanket&tags=A||||8661.854||product|||TS|rsf:gd-|-stype:attr=1|qr_nm:gd|res:RC4|com-cf:nl|ptrs:na|ktp:N0|mc:99820|mtp:S|qry_typ:P|lang:en|wc:3|flavl:0|cs:9608|v=4,False,Madhopuri,Ludhiana,"873, Tilak Nagar, (Ganji Chhapri), Madhopuri, Ludhiana - 141008, Dist.Ludhiana, Punjab",8048607076,
Cotton Pink Baby Hooded Blanket,https://www.indiamart.com/proddetail/baby-hooded-blanket-2852703647862.html?pos=10&kwd=hooded baby blanket&tags=A||||8211.142|Price|product|||TS|rsf:gd-|-stype:attr=1|qr_nm:gd|res:RC4|com-cf:nl|ptrs:na|ktp:N0|mc:99820|mtp:S|qry_typ:P|lang:en|wc:3|flavl:0|cs:9608|v=4,P For Panda Baby Products Private Limited,https://www.p4pandababyproducts.com/?pos=10&kwd=hooded baby blanket&tags=A||||8211.142|Price|product|||TS|rsf:gd-|-stype:attr=1|qr_nm:gd|res:RC4|com-cf:nl|ptrs:na|ktp:N0|mc:99820|mtp:S|qry_typ:P|lang:en|wc:3|flavl:0|cs:9608|v=4,False,Goregaon West,Mumbai,"904 A Wing,9 Th Floor,Triple S Heights,Jakeria Road, Goregaon West, Mumbai - 400064, Dist.Mumbai, Maharashtra",7942710871,
Shree 100% Soft Cotton Baby Hooded Towels - Multicolor,https://www.indiamart.com/proddetail/shree-100-soft-cotton-baby-hooded-towels-multicolor-2854565199330.html?pos=11&kwd=hooded baby blanket&tags=A||||8706.263|Price|product|||TS|rsf:gd-|-stype:attr=1|qr_nm:gd|res:RC4|com-cf:nl|ptrs:na|ktp:N0|mc:99820|mtp:S|qry_typ:P|lang:en|wc:3|flavl:0|cs:9608|v=4,Shree Garments,https://www.indiamart.com/shree-garments-karur/?pos=11&kwd=hooded baby blanket&tags=A||||8706.263|Price|product|||TS|rsf:gd-|-stype:attr=1|qr_nm:gd|res:RC4|com-cf:nl|ptrs:na|ktp:N0|mc:99820|mtp:S|qry_typ:P|lang:en|wc:3|flavl:0|cs:9608|v=4,False,Vengamedu,Karur,"6, Maruthamuthu Thottam, Opp To Sp Colony, Vengameduvengamedu,, Vengamedu, Karur - 639006, Dist.Karur, Tamil Nadu",7942719649,
"Blue Baby Sleeping Bag Cum Baby Carry Bag, Newly Born",https://www.indiamart.com/proddetail/baby-sleeping-bag-cum-baby-carry-bag-2852435958855.html?pos=12&kwd=hooded baby blanket&tags=BA||||8230.883|Price|product|||TS|rsf:gd-|-stype:attr=1|qr_nm:gd|res:RC4|com-cf:nl|ptrs:na|ktp:N0|mc:99820|mtp:S|qry_typ:P|lang:en|wc:3|flavl:0|cs:9608|v=4,Concept Enterprise,https://www.cartforbaby.com/?pos=12&kwd=hooded baby blanket&tags=BA||||8230.883|Price|product|||TS|rsf:gd-|-stype:attr=1|qr_nm:gd|res:RC4|com-cf:nl|ptrs:na|ktp:N0|mc:99820|mtp:S|qry_typ:P|lang:en|wc:3|flavl:0|cs:9608|v=4,False,Dabholi,Surat,"17, Bhumi Park Society, Near Dabholi Road, Katargam, Dabholi, Surat - 395004, Dist.Surat, Gujarat",8047546659,
Fleece Hooded Baby Blanket,https://www.indiamart.com/proddetail/hooded-baby-blanket-2853327577862.html?pos=13&kwd=hooded baby blanket&tags=A||||8747.203||product|||TS|rsf:gd-|-stype:attr=1|qr_nm:gd|res:RC4|com-cf:nl|ptrs:na|ktp:N0|mc:99820|mtp:S|qry_typ:P|lang:en|wc:3|flavl:0|cs:9608|v=4,Paras Blanket,https://www.parasblanket.com/?pos=13&kwd=hooded baby blanket&tags=A||||8747.203||product|||TS|rsf:gd-|-stype:attr=1|qr_nm:gd|res:RC4|com-cf:nl|ptrs:na|ktp:N0|mc:99820|mtp:S|qry_typ:P|lang:en|wc:3|flavl:0|cs:9608|v=4,False,Old Housing Board Colony,Panipat,"Shop No. 1, 2, 3, New Pachranga Market Pachranga Bazar, Old Housing Board Colony, Panipat - 132103, Dist.Panipat, Haryana",8048968656,
Cotton Mulmul Multicolor Hooded Baby Blanket,https://www.indiamart.com/proddetail/hooded-baby-blanket-2854988062273.html?pos=14&kwd=hooded baby blanket&tags=A||||8364.597|Price|product|||MDC|rsf:gd-|-stype:attr=1|qr_nm:gd|res:RC4|com-cf:nl|ptrs:na|ktp:N0|mc:99820|mtp:S|qry_typ:P|lang:en|wc:3|flavl:0|cs:9608|v=4,Mohammedi Hosiery,https://www.indiamart.com/mohammedi-hosiery/?pos=14&kwd=hooded baby blanket&tags=A||||8364.597|Price|product|||MDC|rsf:gd-|-stype:attr=1|qr_nm:gd|res:RC4|com-cf:nl|ptrs:na|ktp:N0|mc:99820|mtp:S|qry_typ:P|lang:en|wc:3|flavl:0|cs:9608|v=4,False,,Udaipur,"115, Bapur Bazar, Udaipur - 313001, Rajasthan",7949331447,
Cotton Baby Off White Hooded Blanket,https://www.indiamart.com/proddetail/baby-off-white-hooded-blanket-22553391448.html?pos=15&kwd=hooded baby blanket&tags=A||||8752.144|Price|product|||MDC|rsf:gd-|-stype:attr=1|qr_nm:gd|res:RC4|com-cf:nl|ptrs:na|ktp:N0|mc:99820|mtp:S|qry_typ:P|lang:en|wc:3|cs:8845|v=4,Kidz Creation,https://www.indiamart.com/kidzcreation/?pos=15&kwd=hooded baby blanket&tags=A||||8752.144|Price|product|||MDC|rsf:gd-|-stype:attr=1|qr_nm:gd|res:RC4|com-cf:nl|ptrs:na|ktp:N0|mc:99820|mtp:S|qry_typ:P|lang:en|wc:3|cs:8845|v=4,False,,New Delhi,"Shop No. 279/517,Sabharwal Market, Tolia Wali Gali Sadar Bazar, North Delhi,, New Delhi - 110006, Dist.Delhi, Delhi",8047679212,
"Man singh Printed Baby Hooded Blanket, 0-1, Size: 50x70 cm",https://www.indiamart.com/proddetail/baby-hooded-blanket-10164642330.html?pos=16&kwd=hooded baby blanket&tags=BA||||8752.144|Price|product|||TS|rsf:gd-|-stype:attr=1|qr_nm:gd|res:RC4|com-cf:nl|ptrs:na|ktp:N0|mc:99820|mtp:S|qry_typ:P|lang:en|wc:3|cs:8845|v=4,Man Singh & Sons Private Limited,https://www.babyproductsmanufacturer.com/?pos=16&kwd=hooded baby blanket&tags=BA||||8752.144|Price|product|||TS|rsf:gd-|-stype:attr=1|qr_nm:gd|res:RC4|com-cf:nl|ptrs:na|ktp:N0|mc:99820|mtp:S|qry_typ:P|lang:en|wc:3|cs:8845|v=4,False,Karol Bagh,New Delhi,"No. 13/24, 1st Floor, W. E. A., Karol Bagh, Karol Bagh, New Delhi - 110005, Dist.Delhi, Delhi",8048978579,
Woolen Multicolor Baby Hooded Blanket,https://www.indiamart.com/proddetail/baby-hooded-blanket-26925623055.html?pos=17&kwd=hooded baby blanket&tags=A||||8747.203|Price|product|||TS|rsf:gd-|-stype:attr=1|qr_nm:gd|res:RC4|com-cf:nl|ptrs:na|ktp:N0|mc:99820|mtp:S|qry_typ:P|lang:en|wc:3|cs:8845|v=4,Pavitra Textile,https://www.pavitratextile.com/?pos=17&kwd=hooded baby blanket&tags=A||||8747.203|Price|product|||TS|rsf:gd-|-stype:attr=1|qr_nm:gd|res:RC4|com-cf:nl|ptrs:na|ktp:N0|mc:99820|mtp:S|qry_typ:P|lang:en|wc:3|cs:8845|v=4,False,Panipat N.S.M.,Panipat,"1560/10, Sanoli Road Pujara Sweets, Panipat N.S.M., Panipat - 132103, Dist.Panipat, Haryana",8047655734,
Fleece Orange Newborn Baby Hooded Blanket,https://www.indiamart.com/proddetail/newborn-baby-hooded-blanket-27577059412.html?pos=18&kwd=hooded baby blanket&tags=A||||9813.14|Price|product|||MDC|rsf:gd-|-stype:attr=1|qr_nm:gd|res:RC4|com-cf:nl|ptrs:na|ktp:N0|mc:99820|mtp:S|qry_typ:P|lang:en|wc:3|cs:8845|v=4,Simply Sahab,https://www.indiamart.com/simplysahab/?pos=18&kwd=hooded baby blanket&tags=A||||9813.14|Price|product|||MDC|rsf:gd-|-stype:attr=1|qr_nm:gd|res:RC4|com-cf:nl|ptrs:na|ktp:N0|mc:99820|mtp:S|qry_typ:P|lang:en|wc:3|cs:8845|v=4,False,Kolkata,Jagatballavpur,"Jagatballavpur, Rajdaria, Kolkata, Jagatballavpur - 711408, Dist.Howrah, West Bengal",8041015046,
Printed Single Hooded Baby Blanket,https://www.indiamart.com/proddetail/printed-single-hooded-baby-blanket-2854981032255.html?pos=19&kwd=hooded baby blanket&tags=A||||8663.873|Price|product|||MDC|rsf:gd-|-stype:attr=1|qr_nm:gd|res:RC4|com-cf:nl|ptrs:na|ktp:N0|mc:99820|mtp:S|qry_typ:P|lang:en|wc:3|cs:8845|v=4,Maanyata Apparels,https://www.indiamart.com/maanyataapparels/?pos=19&kwd=hooded baby blanket&tags=A||||8663.873|Price|product|||MDC|rsf:gd-|-stype:attr=1|qr_nm:gd|res:RC4|com-cf:nl|ptrs:na|ktp:N0|mc:99820|mtp:S|qry_typ:P|lang:en|wc:3|cs:8845|v=4,False,,Bengaluru,"1st Floor, No 5, K.V. Temple Street, Santhusapet, Sultanpet, Bengaluru Urban, Bengaluru - 560053, Dist.Bengaluru, Karnataka",8044017639,
White (Base) 100 GSM Woolen Printed Hooded Baby Blanket,https://www.indiamart.com/proddetail/100-gsm-woolen-printed-hooded-baby-blanket-2854572365197.html?pos=20&kwd=hooded baby blanket&tags=A||||8661.854|Price|product|||MDC|rsf:gd-|-stype:attr=1|qr_nm:gd|res:RC4|com-cf:nl|ptrs:na|ktp:N0|mc:99820|mtp:S|qry_typ:P|lang:en|wc:3|cs:8845|v=4,Miglani Hosiery Factory,https://www.indiamart.com/miglani-hosiery-factory/?pos=20&kwd=hooded baby blanket&tags=A||||8661.854|Price|product|||MDC|rsf:gd-|-stype:attr=1|qr_nm:gd|res:RC4|com-cf:nl|ptrs:na|ktp:N0|mc:99820|mtp:S|qry_typ:P|lang:en|wc:3|cs:8845|v=4,False,,Ludhiana,"B-IV-524, Pansari Bazar, Ludhiana - 141008, Dist.Ludhiana, Punjab",7949324357,
Hooded Baby Blanket,https://www.indiamart.com/proddetail/hooded-baby-blanket-2854848143312.html?pos=21&kwd=hooded baby blanket&tags=BA||||8747.203|Price|product|||MDC|rsf:gd-|-stype:attr=1|qr_nm:gd|res:RC4|com-cf:nl|ptrs:na|ktp:N0|mc:99820|mtp:S|qry_typ:P|lang:en|wc:3|cs:8845|v=4,Delite Home Furnishings,https://www.indiamart.com/delitehomefurnishings/?pos=21&kwd=hooded baby blanket&tags=BA||||8747.203|Price|product|||MDC|rsf:gd-|-stype:attr=1|qr_nm:gd|res:RC4|com-cf:nl|ptrs:na|ktp:N0|mc:99820|mtp:S|qry_typ:P|lang:en|wc:3|cs:8845|v=4,False,Chowk,Panipat,"First Floor, H.No 1629, SEC 11, Near Sai Baba Chowk, Back Side of Pruthi Hospital, NHBC Sector 11, Chowk, Panipat - 132103, Dist.Panipat, Haryana",7942969606,
Velvet Hooded Baby Blanket,https://www.indiamart.com/proddetail/hooded-baby-blanket-2854569478991.html?pos=22&kwd=hooded baby blanket&tags=A||||8747.203|Price|product|||TS|rsf:gd-|-stype:attr=1|qr_nm:gd|res:RC4|com-cf:nl|ptrs:na|ktp:N0|mc:99820|mtp:S|qry_typ:P|lang:en|wc:3|cs:8845|v=4,Tulsi Handicraft,https://www.indiamart.com/tulsihandicraftpanipat/?pos=22&kwd=hooded baby blanket&tags=A||||8747.203|Price|product|||TS|rsf:gd-|-stype:attr=1|qr_nm:gd|res:RC4|com-cf:nl|ptrs:na|ktp:N0|mc:99820|mtp:S|qry_typ:P|lang:en|wc:3|cs:8845|v=4,False,Netaji Colony,Panipat,"10, Gangapuri Road, Netaji Colony, Panipat - 132103, Dist.Panipat, Haryana",7942837797,
"Woolen New Born Baby Woollen Blanket, Size: Singe",https://www.indiamart.com/proddetail/new-born-baby-woollen-blanket-2853609574048.html?pos=23&kwd=hooded baby blanket&tags=A||||8752.144|Price|product|||MDC|rsf:gd-|-stype:attr=1|qr_nm:gd|res:RC4|com-cf:nl|ptrs:na|ktp:N0|mc:99820|mtp:S|qry_typ:P|lang:en|wc:3|cs:8845|v=4,Baby Boutique,https://www.indiamart.com/babyboutique-new-delhi/?pos=23&kwd=hooded baby blanket&tags=A||||8752.144|Price|product|||MDC|rsf:gd-|-stype:attr=1|qr_nm:gd|res:RC4|com-cf:nl|ptrs:na|ktp:N0|mc:99820|mtp:S|qry_typ:P|lang:en|wc:3|cs:8845|v=4,False,Malka Ganj,New Delhi,"Ground Floor, 2247, Malka Ganj, Punjabi Basti Subzi Mandi, Malka Ganj, New Delhi - 110007, Dist.Delhi, Delhi",7949086559,
Multicolor Baby Hooded Blanket,https://www.indiamart.com/proddetail/baby-hooded-blanket-2852649292248.html?pos=24&kwd=hooded baby blanket&tags=BA||||8747.203|Price|product|||TS|rsf:gd-|-stype:attr=1|qr_nm:gd|res:RC4|com-cf:nl|ptrs:na|ktp:N0|mc:99820|mtp:S|qry_typ:P|lang:en|wc:3|cs:8845|v=4,Jessa Ram Khushi Ram,https://www.jessaramkhushiram.com/?pos=24&kwd=hooded baby blanket&tags=BA||||8747.203|Price|product|||TS|rsf:gd-|-stype:attr=1|qr_nm:gd|res:RC4|com-cf:nl|ptrs:na|ktp:N0|mc:99820|mtp:S|qry_typ:P|lang:en|wc:3|cs:8845|v=4,False,Old Housing Board Colony,Panipat,"Gaba Building, Pachranga Bazar, Old Housing Board Colony, Panipat - 132103, Dist.Panipat, Haryana",8043864954,
Polyester Multicolor Baby Hooded Blanket,https://www.indiamart.com/proddetail/baby-hooded-blanket-2853727495973.html?pos=25&kwd=hooded baby blanket&tags=BA||||8661.854|Price|product|||MDC|rsf:gd-|-stype:attr=1|qr_nm:gd|res:RC4|com-cf:nl|ptrs:na|ktp:N0|mc:99820|mtp:S|qry_typ:P|lang:en|wc:3|cs:8845|v=4,S.R Woollen Textile,https://www.indiamart.com/srwoollentextile/?pos=25&kwd=hooded baby blanket&tags=BA||||8661.854|Price|product|||MDC|rsf:gd-|-stype:attr=1|qr_nm:gd|res:RC4|com-cf:nl|ptrs:na|ktp:N0|mc:99820|mtp:S|qry_typ:P|lang:en|wc:3|cs:8845|v=4,False,Old Ludhiana,Ludhiana,"435, Chauri Sarak, Bazzrian Mohalla, Old Ludhiana, Ludhiana - 141008, Dist.Ludhiana, Punjab",7942873909,
Magic Train Cotton Hooded Baby Blanket/ New born baby blanket/ Wrap with hood,https://www.indiamart.com/proddetail/hooded-baby-blanket-new-born-baby-blanket-wrap-with-hood-2851624237888.html?pos=26&kwd=hooded baby blanket&tags=BA||||8663.873|Price|product|||MDC|rsf:gd-|-stype:attr=1|qr_nm:gd|res:RC4|com-cf:nl|ptrs:na|ktp:N0|mc:99820|mtp:S|qry_typ:P|lang:en|wc:3|cs:8845|v=4,Activekidss Retail Private Limited,https://www.indiamart.com/activekidssretail/?pos=26&kwd=hooded baby blanket&tags=BA||||8663.873|Price|product|||MDC|rsf:gd-|-stype:attr=1|qr_nm:gd|res:RC4|com-cf:nl|ptrs:na|ktp:N0|mc:99820|mtp:S|qry_typ:P|lang:en|wc:3|cs:8845|v=4,False,Urban,Bengaluru,"58/1 Plot No - 3, NH-7 Hosur Main Road, Singasandra, Urban, Bengaluru - 560068, Dist.Bengaluru, Karnataka",8043874205,
Printed Fabric: Microfiber Brown Newborn Baby Hooded Towel,https://www.indiamart.com/proddetail/newborn-baby-hooded-blanket-2854537876755.html?pos=27&kwd=hooded baby blanket&tags=BA||||8661.854|Price|product|||MDC|rsf:gd-|-stype:attr=1|qr_nm:gd|res:RC4|com-cf:nl|ptrs:na|ktp:N0|mc:99820|mtp:S|qry_typ:P|lang:en|wc:3|cs:8845|v=4,Nitika Enterprises,https://www.indiamart.com/nitikaenterprises-ludhiana/?pos=27&kwd=hooded baby blanket&tags=BA||||8661.854|Price|product|||MDC|rsf:gd-|-stype:attr=1|qr_nm:gd|res:RC4|com-cf:nl|ptrs:na|ktp:N0|mc:99820|mtp:S|qry_typ:P|lang:en|wc:3|cs:8845|v=4,False,,Ludhiana,"B-5/711, Street No.2, Tilak Nagar,, Ludhiana - 141008, Dist.Ludhiana, Punjab",7949329787,
"Charlie Printed Hooded Baby Blanket, Size: Large",https://www.indiamart.com/proddetail/hooded-baby-blanket-16496894130.html?pos=28&kwd=hooded baby blanket&tags=BA||||8747.203|Price|product|||TS|rsf:gd-|-stype:attr=1|qr_nm:gd|res:RC4|com-cf:nl|ptrs:na|ktp:N0|mc:99820|mtp:S|qry_typ:P|lang:en|wc:3|cs:8845|v=4,Hari Anchal Handloom,https://www.indiamart.com/harianchal-handloom/?pos=28&kwd=hooded baby blanket&tags=BA||||8747.203|Price|product|||TS|rsf:gd-|-stype:attr=1|qr_nm:gd|res:RC4|com-cf:nl|ptrs:na|ktp:N0|mc:99820|mtp:S|qry_typ:P|lang:en|wc:3|cs:8845|v=4,False,Panipat,Panipat,"No. 814/3, Near Prem Mandir, Pachranga Bazar 814/3, Near Prem Mandir Panipat, Panipat, Panipat - 132103, Dist.Panipat, Haryana",8048961474,
Hooded Baby Blanket,,Chinmay Kids,https://www.indiamart.com/chinmaykids/?pos=29&kwd=hooded baby blanket&tags=BA||||8752.144|Price|product|||TS|rsf:gd-|-stype:attr=1|qr_nm:gd|res:RC4|com-cf:nl|ptrs:na|ktp:N0|mc:99820|mtp:S|qry_typ:P|lang:en|wc:3|cs:8845|v=4,False,Nayagaon,New Delhi,"C-99, Street No. 4, First Pusta, Nayagaon, New Delhi - 110053, Dist.Delhi, Delhi",8046054858,
"Soft Material Printed Hooded Baby Blanket, 0-5",https://www.indiamart.com/proddetail/hooded-baby-blanket-2850047389573.html?pos=30&kwd=hooded baby blanket&tags=BB||||8747.203|Price|product|||TS|rsf:gd-|-stype:attr=1|qr_nm:gd|res:RC4|com-cf:nl|ptrs:na|ktp:N0|mc:99820|mtp:S|qry_typ:P|lang:en|wc:3|cs:8845|v=4,Shri Ram Handloom Industries,https://www.shriramhandloomindustries.in/?pos=30&kwd=hooded baby blanket&tags=BB||||8747.203|Price|product|||TS|rsf:gd-|-stype:attr=1|qr_nm:gd|res:RC4|com-cf:nl|ptrs:na|ktp:N0|mc:99820|mtp:S|qry_typ:P|lang:en|wc:3|cs:8845|v=4,False,Model Town,Panipat,"2, Bal Mukund Market, Pachranga Bazar, Model Town, Panipat - 132103, Dist.Panipat, Haryana",8048262156,
"Jerry Cotton Hooded Baby Blanket, Newly Born",https://www.indiamart.com/proddetail/hooded-baby-blanket-14265974862.html?pos=31&kwd=hooded baby blanket&tags=BA||||8747.203|Price|product|||TS|rsf:gd-|-stype:attr=1|qr_nm:gd|res:RC4|com-cf:nl|ptrs:na|ktp:N0|mc:99820|mtp:S|qry_typ:P|lang:en|wc:3|cs:8845|v=4,Shiv Shakti Handloom Industries,https://www.shivshaktihandloomindustries.com/?pos=31&kwd=hooded baby blanket&tags=BA||||8747.203|Price|product|||TS|rsf:gd-|-stype:attr=1|qr_nm:gd|res:RC4|com-cf:nl|ptrs:na|ktp:N0|mc:99820|mtp:S|qry_typ:P|lang:en|wc:3|cs:8845|v=4,False,Panipat City,Panipat,"Shop 12, Krishna Market, Pachranga Bazar, Panipat City, Panipat - 132103, Dist.Panipat, Haryana",8048970618,
Cotton Hooded Baby Blanket,https://www.indiamart.com/proddetail/hooded-baby-blanket-2853962564191.html?pos=32&kwd=hooded baby blanket&tags=BA||||8661.854|Price|product|||TS|rsf:gd-|-stype:attr=1|qr_nm:gd|res:RC4|com-cf:nl|ptrs:na|ktp:N0|mc:99820|mtp:S|qry_typ:P|lang:en|wc:3|cs:8845|v=4,Pruthi Exports,https://www.indiamart.com/pruthiexports/?pos=32&kwd=hooded baby blanket&tags=BA||||8661.854|Price|product|||TS|rsf:gd-|-stype:attr=1|qr_nm:gd|res:RC4|com-cf:nl|ptrs:na|ktp:N0|mc:99820|mtp:S|qry_typ:P|lang:en|wc:3|cs:8845|v=4,True,Gobind Pura,Ludhiana,"741/7B , B Xxxii Bhadur Ke Road Bhadur Ke Road, Gobind Pura, Ludhiana - 141008, Dist.Ludhiana, Punjab",8044563703,
Woolen Pink Hooded Baby Blanket,https://www.indiamart.com/proddetail/hooded-baby-blanket-2852555608273.html?pos=33&kwd=hooded baby blanket&tags=BB||||8747.203|Price|product|||TS|rsf:gd-|-stype:attr=1|qr_nm:gd|res:RC4|com-cf:nl|ptrs:na|ktp:N0|mc:99820|mtp:S|qry_typ:P|lang:en|wc:3|cs:8845|v=4,Luxmi Textiles,https://www.luxmitextiles.com/?pos=33&kwd=hooded baby blanket&tags=BB||||8747.203|Price|product|||TS|rsf:gd-|-stype:attr=1|qr_nm:gd|res:RC4|com-cf:nl|ptrs:na|ktp:N0|mc:99820|mtp:S|qry_typ:P|lang:en|wc:3|cs:8845|v=4,False,Ugra Kheri,Panipat,"Ugra Kheri, Ugra Kheri, Panipat - 132103, Dist.Panipat, Haryana",8048950632,
Cotton White base printed Hooded Baby Blanket,https://www.indiamart.com/proddetail/hooded-baby-blanket-2851209756255.html?pos=34&kwd=hooded baby blanket&tags=BA||||8668.838|Price|product|||TS|rsf:gd-|-stype:attr=1|qr_nm:gd|res:RC4|com-cf:nl|ptrs:na|ktp:N0|mc:99820|mtp:S|qry_typ:P|lang:en|wc:3|cs:8845|v=4,Ram Textiles,https://www.indiamart.com/ram-textiles/?pos=34&kwd=hooded baby blanket&tags=BA||||8668.838|Price|product|||TS|rsf:gd-|-stype:attr=1|qr_nm:gd|res:RC4|com-cf:nl|ptrs:na|ktp:N0|mc:99820|mtp:S|qry_typ:P|lang:en|wc:3|cs:8845|v=4,False,Veerappanchatram,Erode,"No. 131, M. G. R. Street-1, Veerappanchatram, Veerappanchatram, Erode - 638004, Dist.Erode, Tamil Nadu",8048611846,
Velvet 7-8 COLORS Baby Hooded Blanket,https://www.indiamart.com/proddetail/baby-hooded-blanket-2853305819373.html?pos=35&kwd=hooded baby blanket&tags=BA||||8580.032|Price|product|||TS|rsf:gd-|-stype:attr=1|qr_nm:gd|res:RC4|com-cf:nl|ptrs:na|ktp:N0|mc:99820|mtp:S|qry_typ:P|lang:en|wc:3|cs:8845|v=4,Popli Textile Mills,https://www.indiamart.com/popli-textile-mills/?pos=35&kwd=hooded baby blanket&tags=BA||||8580.032|Price|product|||TS|rsf:gd-|-stype:attr=1|qr_nm:gd|res:RC4|com-cf:nl|ptrs:na|ktp:N0|mc:99820|mtp:S|qry_typ:P|lang:en|wc:3|cs:8845|v=4,False,Market,Amritsar,"5 Rama Market, Market, Amritsar - 143001, Dist.Amritsar, Punjab",7942618743,
Polyster Pink Hooded Baby Blanket,https://www.indiamart.com/proddetail/hooded-baby-blanket-27494544888.html?pos=36&kwd=hooded baby blanket&tags=BA||||8747.203|Price|product|||TS|rsf:gd-|-stype:attr=1|qr_nm:gd|res:RC4|com-cf:nl|ptrs:na|ktp:N0|mc:99820|mtp:S|qry_typ:P|lang:en|wc:3|cs:8845|v=4,Vidya Sagar Textiles,https://www.vidyasagartextiles.com/?pos=36&kwd=hooded baby blanket&tags=BA||||8747.203|Price|product|||TS|rsf:gd-|-stype:attr=1|qr_nm:gd|res:RC4|com-cf:nl|ptrs:na|ktp:N0|mc:99820|mtp:S|qry_typ:P|lang:en|wc:3|cs:8845|v=4,False,Mal Godown Road,Panipat,"6, Mal Godam Road, Near Sangeet Cinema Gate, Mal Godown Road, Panipat - 132103, Dist.Panipat, Haryana",8047308149,
Cotton Blue Hooded Baby Blanket,https://www.indiamart.com/proddetail/hooded-baby-blanket-2854921562812.html?pos=37&kwd=hooded baby blanket&tags=BB||||8661.854|Price|product|||TS|rsf:gd-|-stype:attr=1|qr_nm:gd|res:RC4|com-cf:nl|ptrs:na|ktp:N0|mc:99820|mtp:S|qry_typ:P|lang:en|wc:3|cs:8845|v=4,Adwaita Export,https://www.indiamart.com/adwaitaexport/?pos=37&kwd=hooded baby blanket&tags=BB||||8661.854|Price|product|||TS|rsf:gd-|-stype:attr=1|qr_nm:gd|res:RC4|com-cf:nl|ptrs:na|ktp:N0|mc:99820|mtp:S|qry_typ:P|lang:en|wc:3|cs:8845|v=4,False,Joshi Nagar,Ludhiana,"B-34-3912,,DURGA PURI,HAIBOWAL KALAN LUDHIANA, Joshi Nagar, Ludhiana - 141001, Dist.Ludhiana, Punjab",8044015715,
"Velvet Plain Milky Pink Hooded Baby Blanket, 2 Years, Size: 72x68 cm",https://www.indiamart.com/proddetail/milky-pink-hooded-baby-blanket-2850954017991.html?pos=38&kwd=hooded baby blanket&tags=BB||||8747.203|Price|product|||TS|rsf:gd-|-stype:attr=1|qr_nm:gd|res:RC4|com-cf:nl|ptrs:na|ktp:N0|mc:99820|mtp:S|qry_typ:P|lang:en|wc:3|cs:8845|v=4,N.K Handloom,https://www.indiamart.com/nk-handloom-panipat/?pos=38&kwd=hooded baby blanket&tags=BB||||8747.203|Price|product|||TS|rsf:gd-|-stype:attr=1|qr_nm:gd|res:RC4|com-cf:nl|ptrs:na|ktp:N0|mc:99820|mtp:S|qry_typ:P|lang:en|wc:3|cs:8845|v=4,False,Pachranga Bazar,Panipat,"613/4, Near Valmiki Mandir, Pachranga Bazar, Pachranga Bazar, Panipat - 132103, Dist.Panipat, Haryana",7942827823,
Woolen Purple Hooded Baby Blanket,https://www.indiamart.com/proddetail/purple-hooded-baby-blanket-2853685519612.html?pos=39&kwd=hooded baby blanket&tags=BA||||9848.189|Price|product|||TS|rsf:gd-|-stype:attr=1|qr_nm:gd|res:RC4|com-cf:nl|ptrs:na|ktp:N0|mc:99820|mtp:S|qry_typ:P|lang:en|wc:3|cs:8845|v=4,Balaji Stores,https://www.indiamart.com/balajistores-siliguri/?pos=39&kwd=hooded baby blanket&tags=BA||||9848.189|Price|product|||TS|rsf:gd-|-stype:attr=1|qr_nm:gd|res:RC4|com-cf:nl|ptrs:na|ktp:N0|mc:99820|mtp:S|qry_typ:P|lang:en|wc:3|cs:8845|v=4,False,,Siliguri,"H/22/8/188/273/737,,B ROAD WARD NO 12 P.O SILIGURI,Siliguri, Siliguri - 734001, Dist.Darjiling, West Bengal",8045734046,
Cotton New Born Baby Hooded Wrapper Blanket,https://www.indiamart.com/proddetail/new-born-baby-hooded-wrapper-blanket-2853459918362.html?pos=40&kwd=hooded baby blanket&tags=BA||||8662.111|Price|product|||TS|rsf:gd-|-stype:attr=1|qr_nm:gd|res:RC4|com-cf:nl|ptrs:na|ktp:N0|mc:99820|mtp:S|qry_typ:P|lang:en|wc:3|cs:8845|v=4,Rovee Garments,https://www.indiamart.com/rovee-garments/?pos=40&kwd=hooded baby blanket&tags=BA||||8662.111|Price|product|||TS|rsf:gd-|-stype:attr=1|qr_nm:gd|res:RC4|com-cf:nl|ptrs:na|ktp:N0|mc:99820|mtp:S|qry_typ:P|lang:en|wc:3|cs:8845|v=4,False,State Bank Colony,Tirunelveli,"70, State Bank Colony, Ezhil Nagar, Ngo A Colony, State Bank Colony, Tirunelveli - 627007, Dist.Tirunelveli, Tamil Nadu",7942840922,
"Mercury Printed New Born Baby 100% Cotton Soft Hooded Baby Blanket, 0- 12 Months",https://www.indiamart.com/proddetail/new-born-baby-100-cotton-soft-hooded-baby-blanket-22290033655.html?pos=41&kwd=hooded baby blanket&tags=BA||||8706.263|Price|product|||TS|rsf:gd-|-stype:attr=1|qr_nm:gd|res:RC4|com-cf:nl|ptrs:na|ktp:N0|mc:99820|mtp:S|qry_typ:P|lang:en|wc:3|cs:8845|v=4,Mercury Weavers,https://www.indiamart.com/mercuryweavers/?pos=41&kwd=hooded baby blanket&tags=BA||||8706.263|Price|product|||TS|rsf:gd-|-stype:attr=1|qr_nm:gd|res:RC4|com-cf:nl|ptrs:na|ktp:N0|mc:99820|mtp:S|qry_typ:P|lang:en|wc:3|cs:8845|v=4,False,Gowripuram,Karur,"35/3, 2nd Floor, Gandhi Nagar 3rd Cross, Karur Town, Gowripuram, Karur - 639001, Dist.Karur, Tamil Nadu",8047641180,
Dazzle Cotton Swaddle/Wrapper/Blanket with Hooded Cap for Newborn 0 to 3yrs Baby Girl,https://www.indiamart.com/proddetail/dazzle-cotton-swaddle-wrapper-blanket-with-hooded-cap-for-newborn-0-to-3yrs-baby-girl-27157209433.html?pos=42&kwd=hooded baby blanket&tags=BA||||8228.275|Price|product|||TS|rsf:gd-|-stype:attr=1|qr_nm:gd|res:RC4|com-cf:nl|ptrs:na|ktp:N0|mc:99820|mtp:S|qry_typ:P|lang:en|wc:3|cs:8845|v=4,Rushabh Business Centre,https://www.indiamart.com/rushabh-business-centre/?pos=42&kwd=hooded baby blanket&tags=BA||||8228.275|Price|product|||TS|rsf:gd-|-stype:attr=1|qr_nm:gd|res:RC4|com-cf:nl|ptrs:na|ktp:N0|mc:99820|mtp:S|qry_typ:P|lang:en|wc:3|cs:8845|v=4,False,Satellite Nehru Nagar,Ahmedabad,"Shop No.7, Ground Floor, Galaxy Mall, Opp Jhansi Ki Rani Brts , Nerhu Nagar, Satellite Nehru Nagar, Ahmedabad - 380015, Dist.Ahmedabad, Gujarat",8047622454,
"Mercury Printed New Born Baby 100% Cotton Soft Hooded Baby Blanket, 0- 12 Months",https://www.indiamart.com/proddetail/new-born-baby-100-cotton-soft-hooded-baby-blanket-22290033655.html?pos=43&kwd=hooded baby blanket&tags=BA||||8706.263|Price|product|||TS|rsf:gd-|-stype:attr=1|qr_nm:gd|res:RC4|com-cf:nl|ptrs:na|ktp:N0|mc:99820|mtp:S|qry_typ:P|lang:en|wc:3|cs:8845|v=4,Mercury Weavers,https://www.indiamart.com/mercuryweavers/?pos=43&kwd=hooded baby blanket&tags=BA||||8706.263|Price|product|||TS|rsf:gd-|-stype:attr=1|qr_nm:gd|res:RC4|com-cf:nl|ptrs:na|ktp:N0|mc:99820|mtp:S|qry_typ:P|lang:en|wc:3|cs:8845|v=4,False,Gowripuram,Karur,"35/3, 2nd Floor, Gandhi Nagar 3rd Cross, Karur Town, Gowripuram, Karur - 639001, Dist.Karur, Tamil Nadu",8047641180,
Dazzle Cotton Swaddle/Wrapper/Blanket with Hooded Cap for Newborn 0 to 3yrs Baby Girl,https://www.indiamart.com/proddetail/dazzle-cotton-swaddle-wrapper-blanket-with-hooded-cap-for-newborn-0-to-3yrs-baby-girl-27157209433.html?pos=44&kwd=hooded baby blanket&tags=BA||||8228.275|Price|product|||TS|rsf:gd-|-stype:attr=1|qr_nm:gd|res:RC4|com-cf:nl|ptrs:na|ktp:N0|mc:99820|mtp:S|qry_typ:P|lang:en|wc:3|cs:8845|v=4,Rushabh Business Centre,https://www.indiamart.com/rushabh-business-centre/?pos=44&kwd=hooded baby blanket&tags=BA||||8228.275|Price|product|||TS|rsf:gd-|-stype:attr=1|qr_nm:gd|res:RC4|com-cf:nl|ptrs:na|ktp:N0|mc:99820|mtp:S|qry_typ:P|lang:en|wc:3|cs:8845|v=4,False,Satellite Nehru Nagar,Ahmedabad,"Shop No.7, Ground Floor, Galaxy Mall, Opp Jhansi Ki Rani Brts , Nerhu Nagar, Satellite Nehru Nagar, Ahmedabad - 380015, Dist.Ahmedabad, Gujarat",8047622454,
"Cotton Hooded Baby Blanket, Size: Medium",https://www.indiamart.com/proddetail/hooded-baby-blanket-2854558968097.html?pos=45&kwd=hooded baby blanket&tags=BA||||8752.144|Price|product|||MDC|rsf:gd-|-stype:attr=1|qr_nm:gd|res:RC4|com-cf:nl|ptrs:na|ktp:N0|mc:99820|mtp:S|qry_typ:P|lang:en|wc:3|cs:8845|v=4,Newgen Partners,https://www.indiamart.com/newgenpartners/?pos=45&kwd=hooded baby blanket&tags=BA||||8752.144|Price|product|||MDC|rsf:gd-|-stype:attr=1|qr_nm:gd|res:RC4|com-cf:nl|ptrs:na|ktp:N0|mc:99820|mtp:S|qry_typ:P|lang:en|wc:3|cs:8845|v=4,False,,New Delhi,"Jawahar Park, E-34A, Ground Floor, Laxmi Nagar, East Delhi,, New Delhi - 110092, Dist.Delhi, Delhi",8048213363,
Woolen Blue Hooded Baby Blanket,https://www.indiamart.com/proddetail/hooded-baby-blanket-2852558061262.html?pos=46&kwd=hooded baby blanket&tags=BB||||8624.416|Price|product|||MDC|rsf:gd-|-stype:attr=1|qr_nm:gd|res:RC4|com-cf:nl|ptrs:na|ktp:N0|mc:99820|mtp:S|qry_typ:P|lang:en|wc:3|cs:8845|v=4,Dayawanti Traders,https://www.indiamart.com/dayawati-trader/?pos=46&kwd=hooded baby blanket&tags=BB||||8624.416|Price|product|||MDC|rsf:gd-|-stype:attr=1|qr_nm:gd|res:RC4|com-cf:nl|ptrs:na|ktp:N0|mc:99820|mtp:S|qry_typ:P|lang:en|wc:3|cs:8845|v=4,False,Indira Colony,Hisar,"Plot No. 137 Dhani Kishandutt, Near Asha High School, Nancy Beauty Parlour, Indira Colony, Indira Colony, Hisar - 125001, Dist.Hisar, Haryana",7942701403,
Magic Train Cotton Hooded Baby Blanket/ New born baby blanket/ Wrap with hood,https://www.indiamart.com/proddetail/hooded-baby-blanket-new-born-baby-blanket-wrap-with-hood-2851624237888.html?pos=47&kwd=hooded baby blanket&tags=BA||||8663.873|Price|product|||MDC|rsf:gd-|-stype:attr=1|qr_nm:gd|res:RC4|com-cf:nl|ptrs:na|ktp:N0|mc:99820|mtp:S|qry_typ:P|lang:en|wc:3|cs:8845|v=4,Activekidss Retail Private Limited,https://www.indiamart.com/activekidssretail/?pos=47&kwd=hooded baby blanket&tags=BA||||8663.873|Price|product|||MDC|rsf:gd-|-stype:attr=1|qr_nm:gd|res:RC4|com-cf:nl|ptrs:na|ktp:N0|mc:99820|mtp:S|qry_typ:P|lang:en|wc:3|cs:8845|v=4,False,Urban,Bengaluru,"58/1 Plot No - 3, NH-7 Hosur Main Road, Singasandra, Urban, Bengaluru - 560068, Dist.Bengaluru, Karnataka",8043874205,
Purple Woolen Hooded Baby Blanket,https://www.indiamart.com/proddetail/woolen-hooded-baby-blanket-2852735666573.html?pos=48&kwd=hooded baby blanket&tags=BA||||8461.862|Price|product|||MDC|rsf:gd-|-stype:attr=1|qr_nm:gd|res:RC4|com-cf:nl|ptrs:na|ktp:N0|mc:99820|mtp:S|qry_typ:P|lang:en|wc:3|cs:8845|v=4,Pankaj Hosiery,https://www.indiamart.com/pankaj-hosiery-bhilwara/?pos=48&kwd=hooded baby blanket&tags=BA||||8461.862|Price|product|||MDC|rsf:gd-|-stype:attr=1|qr_nm:gd|res:RC4|com-cf:nl|ptrs:na|ktp:N0|mc:99820|mtp:S|qry_typ:P|lang:en|wc:3|cs:8845|v=4,False,Shastri Nagar,Bhilwara,"78 Nagori Garden,, Shastri Nagar, Bhilwara - 311001, Dist.Bhilwara, Rajasthan",7942718121,
Pink Cotton Hooded Baby Blanket,https://www.indiamart.com/proddetail/cotton-hooded-baby-blanket-2850870791830.html?pos=49&kwd=hooded baby blanket&tags=BA||||8747.203|Price|product|||MDC|rsf:gd-|-stype:attr=1|qr_nm:gd|res:RC4|com-cf:nl|ptrs:na|ktp:N0|mc:99820|mtp:S|qry_typ:P|lang:en|wc:3|cs:8845|v=4,Devi Handloom,https://www.indiamart.com/devi-handloom/?pos=49&kwd=hooded baby blanket&tags=BA||||8747.203|Price|product|||MDC|rsf:gd-|-stype:attr=1|qr_nm:gd|res:RC4|com-cf:nl|ptrs:na|ktp:N0|mc:99820|mtp:S|qry_typ:P|lang:en|wc:3|cs:8845|v=4,False,Netaji Colony,Panipat,"Adarsh Colony, Near Tilak Factory, Devi Handloom, Near Devpuri Road, Netaji Colony, Panipat - 132103, Dist.Panipat, Haryana",7942722076,
Printed Fabric: Microfiber Brown Newborn Baby Hooded Towel,https://www.indiamart.com/proddetail/newborn-baby-hooded-blanket-2854537876755.html?pos=50&kwd=hooded baby blanket&tags=BA||||8661.854|Price|product|||MDC|rsf:gd-|-stype:attr=1|qr_nm:gd|res:RC4|com-cf:nl|ptrs:na|ktp:N0|mc:99820|mtp:S|qry_typ:P|lang:en|wc:3|cs:8845|v=4,Nitika Enterprises,https://www.indiamart.com/nitikaenterprises-ludhiana/?pos=50&kwd=hooded baby blanket&tags=BA||||8661.854|Price|product|||MDC|rsf:gd-|-stype:attr=1|qr_nm:gd|res:RC4|com-cf:nl|ptrs:na|ktp:N0|mc:99820|mtp:S|qry_typ:P|lang:en|wc:3|cs:8845|v=4,False,,Ludhiana,"B-5/711, Street No.2, Tilak Nagar,, Ludhiana - 141008, Dist.Ludhiana, Punjab",7949329787,
Cotton Hooded Baby Wraps Blanket,https://www.indiamart.com/proddetail/cotton-hooded-baby-wraps-blanket-2853514590962.html?pos=51&kwd=hooded baby blanket&tags=BA||||8307.81|Price|product|||MDC|rsf:gd-|-stype:attr=1|qr_nm:gd|res:RC4|com-cf:nl|ptrs:na|ktp:N0|mc:99820|mtp:S|qry_typ:P|lang:en|wc:3|cs:8845|v=4,Tabaria Baby Mall,https://www.indiamart.com/tabaria-baby-mallpune/?pos=51&kwd=hooded baby blanket&tags=BA||||8307.81|Price|product|||MDC|rsf:gd-|-stype:attr=1|qr_nm:gd|res:RC4|com-cf:nl|ptrs:na|ktp:N0|mc:99820|mtp:S|qry_typ:P|lang:en|wc:3|cs:8845|v=4,False,Raviwar Peth,Pune,"1088,Manish Market,Raviwar Peth, Raviwar Peth, Pune - 411002, Dist.Pune, Maharashtra",7949092418,
Cotton Yellow Huey New Born Baby Hooded Wrapper Blanket,https://www.indiamart.com/proddetail/huey-new-born-baby-hooded-wrapper-blanket-2854503095412.html?pos=52&kwd=hooded baby blanket&tags=BB||||8663.873|Price|product|||MDC|rsf:gd-|-stype:attr=1|qr_nm:gd|res:RC4|com-cf:nl|ptrs:na|ktp:N0|mc:99820|mtp:S|qry_typ:P|lang:en|wc:3|cs:8845|v=4,AQ Corporation,https://www.indiamart.com/aqcorporation/?pos=52&kwd=hooded baby blanket&tags=BB||||8663.873|Price|product|||MDC|rsf:gd-|-stype:attr=1|qr_nm:gd|res:RC4|com-cf:nl|ptrs:na|ktp:N0|mc:99820|mtp:S|qry_typ:P|lang:en|wc:3|cs:8845|v=4,False,,Bengaluru,"Ground And First Floor, No 88, 2nd Cross, 4th Main, NGEF Layout, Nagashetty Halli, Sanjaynagar Bengaluru Urban, Bengaluru - 560094, Dist.Bengaluru, Karnataka",7949325043,
zexsazone Cartoon Single Hooded Baby Blanket for AC Room,https://www.indiamart.com/proddetail/zexsazone-cartoon-single-hooded-baby-blanket-for-ac-room-2853693359512.html?pos=53&kwd=hooded baby blanket&tags=BA||||8778.123|Price|product|||MDC|rsf:gd-|-stype:attr=1|qr_nm:gd|res:RC4|com-cf:nl|ptrs:na|ktp:N0|mc:99820|mtp:S|qry_typ:P|lang:en|wc:3|cs:8845|v=4,Apro India Services Pvt Ltd,https://www.indiamart.com/aproindiaservices/?pos=53&kwd=hooded baby blanket&tags=BA||||8778.123|Price|product|||MDC|rsf:gd-|-stype:attr=1|qr_nm:gd|res:RC4|com-cf:nl|ptrs:na|ktp:N0|mc:99820|mtp:S|qry_typ:P|lang:en|wc:3|cs:8845|v=4,False,,Noida,"Plot No. 176, Gali No.- 04, Sai Garden -3 Shabari, Noida - 201301, Dist.Gautam Budh Nagar, Uttar Pradesh",8041012189,
"Cloudy Polyester Baby Fleece Blanket, 0-5 Years, Size: 30x40 Inch",https://www.indiamart.com/proddetail/baby-fleece-blanket-26027244333.html?pos=54&kwd=hooded baby blanket&tags=BA||||8747.203|Price|product|||TS|rsf:gd-|-stype:attr=1|qr_nm:gd|res:RC4|com-cf:nl|ptrs:na|ktp:N0|mc:99820|mtp:S|qry_typ:P|lang:en|wc:3|cs:8845|v=4,M L Textile,https://www.indiamart.com/ml-textile/?pos=54&kwd=hooded baby blanket&tags=BA||||8747.203|Price|product|||TS|rsf:gd-|-stype:attr=1|qr_nm:gd|res:RC4|com-cf:nl|ptrs:na|ktp:N0|mc:99820|mtp:S|qry_typ:P|lang:en|wc:3|cs:8845|v=4,False,Jattal,Panipat,"8 Marla Colony Jattal Road Near Siti Cable, Jattal, Panipat - 132103, Dist.Panipat, Haryana",8046074237,
Baby Hooded Blanket Towel - Brand FIRSTIN Baby Clothing Manufacturer for Infant - Search Firstin,https://www.indiamart.com/proddetail/baby-hooded-blanket-towel-brand-firstin-baby-clothing-manufacturer-for-infant-search-firstin-21786774197.html?pos=55&kwd=hooded baby blanket&tags=BA||||8668.838|Price|product|||TS|rsf:gd-|-stype:attr=1|qr_nm:gd|res:RC4|com-cf:nl|ptrs:na|ktp:N0|mc:99820|mtp:S|qry_typ:P|lang:en|wc:3|cs:8845|v=4,Sri Kalyan Export Private Limited,https://www.firstinbabydress.com/?pos=55&kwd=hooded baby blanket&tags=BA||||8668.838|Price|product|||TS|rsf:gd-|-stype:attr=1|qr_nm:gd|res:RC4|com-cf:nl|ptrs:na|ktp:N0|mc:99820|mtp:S|qry_typ:P|lang:en|wc:3|cs:8845|v=4,False,Vilarasampatti,Erode,"192/4, Ishwarya Garden, Sengodampalayam, Villarasampatti Post, Erode,, Vilarasampatti, Erode - 638107, Dist.Erode, Tamil Nadu",8046030291,
"Cotton Blue Baby Swaddles Blanket Wrap, Size: Medium",https://www.indiamart.com/proddetail/baby-swaddles-blanket-wrap-2851261763097.html?pos=56&kwd=hooded baby blanket&tags=BA||||8211.142||product|||TS|rsf:gd-|-stype:attr=1|qr_nm:gd|res:RC4|com-cf:nl|ptrs:na|ktp:N0|mc:99820|mtp:S|qry_typ:P|lang:en|wc:3|cs:8845|v=4,Mansvi Artts,https://www.indiamart.com/mansvi-artts/?pos=56&kwd=hooded baby blanket&tags=BA||||8211.142||product|||TS|rsf:gd-|-stype:attr=1|qr_nm:gd|res:RC4|com-cf:nl|ptrs:na|ktp:N0|mc:99820|mtp:S|qry_typ:P|lang:en|wc:3|cs:8845|v=4,False,Malad East,Mumbai,"Room No.39 Kurar Village Sai Darshan Niwas, Shiv Shakti Colony, Malad East, Mumbai - 400097, Dist.Mumbai, Maharashtra",8047551199,
"Baby Blanket with Soft Toy, Size: Singe",https://www.indiamart.com/proddetail/baby-blanket-with-soft-toy-2849904077762.html?pos=57&kwd=hooded baby blanket&tags=BA||||8752.144|Price|product|||MDC|rsf:gd-|-stype:attr=1|qr_nm:gd|res:RC4|com-cf:nl|ptrs:na|ktp:N0|mc:99820|mtp:S|qry_typ:P|lang:en|wc:3|cs:8845|v=4,TGB Marketing,https://www.indiamart.com/tgb-marketing/?pos=57&kwd=hooded baby blanket&tags=BA||||8752.144|Price|product|||MDC|rsf:gd-|-stype:attr=1|qr_nm:gd|res:RC4|com-cf:nl|ptrs:na|ktp:N0|mc:99820|mtp:S|qry_typ:P|lang:en|wc:3|cs:8845|v=4,False,Chandni Chowk,New Delhi,"101, Second Floor, Khursid Market, Chandni Chowk, New Delhi - 110006, Dist.Delhi, Delhi",8046075932,
Polo baby blanket,,J.S Ahuja Hosiery Works,https://www.indiamart.com/jsahujahosieryworks/?pos=58&kwd=hooded baby blanket&tags=BA||||8661.854|Price|product|||TS|rsf:gd-|-stype:attr=1|qr_nm:gd|res:RC4|com-cf:nl|ptrs:na|ktp:N0|mc:99820|mtp:S|qry_typ:P|lang:en|wc:3|cs:8845|v=4,False,Sector 39-A,Ludhiana,"B-XXX-3983, St. No.2, Hargobind Pura, Near Samrala Chowk, Sector 39-A, Ludhiana - 141008, Dist.Ludhiana, Punjab",8043859618,
"Multicolor Woolen Blend Double Bed Printed Mink Blanket, Size: Medium",https://www.indiamart.com/proddetail/double-bed-printed-mink-blanket-23890319133.html?pos=59&kwd=hooded baby blanket&tags=BA||||8747.203|Price|proxy|||TS|rsf:gd-|-stype:attr=1|qr_nm:gd|res:RC4|com-cf:nl|ptrs:na|ktp:N0|mc:99820|mtp:S|qry_typ:P|lang:en|wc:3|cs:8845|v=4,Om Handloom Industries,https://www.indiamart.com/omhandloomindustries/?pos=59&kwd=hooded baby blanket&tags=BA||||8747.203|Price|proxy|||TS|rsf:gd-|-stype:attr=1|qr_nm:gd|res:RC4|com-cf:nl|ptrs:na|ktp:N0|mc:99820|mtp:S|qry_typ:P|lang:en|wc:3|cs:8845|v=4,False,Amar Bhawan Chowk Area,Panipat,"194/4, Near Hanuman Mandir, Ghati Purbian, Panipat Opp. Maharaja aggarsain kambal market, Pachranga Bazar, Amar Bhawan Chowk Area, Panipat - 132103, Dist.Panipat, Haryana",8043829211,
Woolen Orange Baby Hooded Blanket,https://www.indiamart.com/proddetail/orange-baby-hooded-blanket-2853405694133.html?pos=60&kwd=hooded baby blanket&tags=BA||||8747.203|Price|product|||NA|rsf:gd-|-stype:attr=1|qr_nm:gd|res:RC4|com-cf:nl|ptrs:na|ktp:N0|mc:99820|mtp:S|qry_typ:P|lang:en|wc:3|cs:8845|v=4,Chandna Garments,https://www.indiamart.com/chandnagarments/?pos=60&kwd=hooded baby blanket&tags=BA||||8747.203|Price|product|||NA|rsf:gd-|-stype:attr=1|qr_nm:gd|res:RC4|com-cf:nl|ptrs:na|ktp:N0|mc:99820|mtp:S|qry_typ:P|lang:en|wc:3|cs:8845|v=4,False,Colony,Panipat,"908, Ground Floor, New Housing Board Colony, Colony, Panipat - 132103, Dist.Panipat, Haryana",7949222421,
"KGN International Fleece Designer Baby Hooded Blanket, 0-12 Month, Size: 24*30",https://www.indiamart.com/proddetail/designer-baby-hooded-blanket-2850387491555.html?pos=61&kwd=hooded baby blanket&tags=BA||||8661.854||product|||NA|rsf:gd-|-stype:attr=1|qr_nm:gd|res:RC4|com-cf:nl|ptrs:na|ktp:N0|mc:99820|mtp:S|qry_typ:P|lang:en|wc:3|cs:8845|v=4,K.G.N. International,https://www.indiamart.com/kgn-internationalludhiana/?pos=61&kwd=hooded baby blanket&tags=BA||||8661.854||product|||NA|rsf:gd-|-stype:attr=1|qr_nm:gd|res:RC4|com-cf:nl|ptrs:na|ktp:N0|mc:99820|mtp:S|qry_typ:P|lang:en|wc:3|cs:8845|v=4,False,Haibowal Kalan,Ludhiana,"House No 18, Street No 5 Ajit Nagar, Haibowal Kalan, Ludhiana - 141001, Dist.Ludhiana, Punjab",7942802358,
Cotton Multicolor Hooded Baby Blanket,https://www.indiamart.com/proddetail/hooded-baby-blanket-2854619816762.html?pos=62&kwd=hooded baby blanket&tags=BB||||8926.468|Price|product|||NA|rsf:gd-|-stype:attr=1|qr_nm:gd|res:RC4|com-cf:nl|ptrs:na|ktp:N0|mc:99820|mtp:S|qry_typ:P|lang:en|wc:3|cs:8845|v=4,OWN Trade Enterprises,https://www.indiamart.com/own-trade-enterprises/?pos=62&kwd=hooded baby blanket&tags=BB||||8926.468|Price|product|||NA|rsf:gd-|-stype:attr=1|qr_nm:gd|res:RC4|com-cf:nl|ptrs:na|ktp:N0|mc:99820|mtp:S|qry_typ:P|lang:en|wc:3|cs:8845|v=4,False,,Tiruvallur,"4/1585,Rajiv Gandhi Street,Chennai,Thiruvallur, Tiruvallur - 602024, Dist.Tiruvallur, Tamil Nadu",8047308882,4970
Dark Brown Hooded Baby Blanket,https://www.indiamart.com/proddetail/hooded-baby-blanket-22880314212.html?pos=63&kwd=hooded baby blanket&tags=BB||||8747.203|Price|product|||NA|rsf:gd-|-stype:attr=1|qr_nm:gd|res:RC4|com-cf:nl|ptrs:na|ktp:N0|mc:99820|mtp:S|qry_typ:P|lang:en|wc:3|cs:8845|v=4,G K Enterprises,https://www.indiamart.com/gk-enterprises-india/?pos=63&kwd=hooded baby blanket&tags=BB||||8747.203|Price|product|||NA|rsf:gd-|-stype:attr=1|qr_nm:gd|res:RC4|com-cf:nl|ptrs:na|ktp:N0|mc:99820|mtp:S|qry_typ:P|lang:en|wc:3|cs:8845|v=4,False,,Panipat,"Batra Colony 7373 Kutani Road, Panipat - 132103, Dist.Panipat, Haryana",7942621938,
wollen mix Hooded Baby Blanket,https://www.indiamart.com/proddetail/hooded-baby-blanket-22698286148.html?pos=64&kwd=hooded baby blanket&tags=BB||||8752.144|Price|product|||NA|rsf:gd-|-stype:attr=1|qr_nm:gd|res:RC4|com-cf:nl|ptrs:na|ktp:N0|mc:99820|mtp:S|qry_typ:P|lang:en|wc:3|cs:8845|v=4,Shivam Creation,https://www.indiamart.com/shivam-creation-new-delhi/?pos=64&kwd=hooded baby blanket&tags=BB||||8752.144|Price|product|||NA|rsf:gd-|-stype:attr=1|qr_nm:gd|res:RC4|com-cf:nl|ptrs:na|ktp:N0|mc:99820|mtp:S|qry_typ:P|lang:en|wc:3|cs:8845|v=4,False,Gandhi Nagar,New Delhi,"9/146 SHYAM BLOCK GANDHI NAGAR GANDHI NAGAR, Gandhi Nagar, New Delhi - 110031, Dist.Delhi, Delhi",8048372002,946
"Cotton Blue Hooded Baby Blanket, 0-1 Years",https://www.indiamart.com/proddetail/hooded-baby-blanket-23311838712.html?pos=65&kwd=hooded baby blanket&tags=BB||||8228.275|Price|product|||NA|rsf:gd-|-stype:attr=1|qr_nm:gd|res:RC4|com-cf:nl|ptrs:na|ktp:N0|mc:99820|mtp:S|qry_typ:P|lang:en|wc:3|cs:8845|v=4,Meet Collection,https://www.indiamart.com/meetcollection-ahmedabad/?pos=65&kwd=hooded baby blanket&tags=BB||||8228.275|Price|product|||NA|rsf:gd-|-stype:attr=1|qr_nm:gd|res:RC4|com-cf:nl|ptrs:na|ktp:N0|mc:99820|mtp:S|qry_typ:P|lang:en|wc:3|cs:8845|v=4,False,,Ahmedabad,"2404/a Nr Parbaram Mandir C Ward Kubernagar, Ahmedabad - 382340, Dist.Ahmedabad, Gujarat",8046032091,
Hooded Baby Blanket,https://www.indiamart.com/proddetail/hooded-baby-blanket-2854005350755.html?pos=66&kwd=hooded baby blanket&tags=BA||||8230.883|Price|product|||NA|rsf:gd-|-stype:attr=1|qr_nm:gd|res:RC4|com-cf:nl|ptrs:na|ktp:N0|mc:99820|mtp:S|qry_typ:P|lang:en|wc:3|cs:8845|v=4,Pooja Enterprise,https://www.indiamart.com/poojaenterprise-159125404/?pos=66&kwd=hooded baby blanket&tags=BA||||8230.883|Price|product|||NA|rsf:gd-|-stype:attr=1|qr_nm:gd|res:RC4|com-cf:nl|ptrs:na|ktp:N0|mc:99820|mtp:S|qry_typ:P|lang:en|wc:3|cs:8845|v=4,False,,Surat,"G4, Achkan Bazaar Baroda Prestige, Varachha, Surat, Surat - 395006, Dist.Surat, Gujarat",8041011891,
"Baby Blanket Hooded, Size: 27x27 Inch, New Born Baby",https://www.indiamart.com/proddetail/baby-blanket-hooded-17289282248.html?pos=67&kwd=hooded baby blanket&tags=BA||||8661.854|Price|product|||NA|rsf:gd-|-stype:attr=1|qr_nm:gd|res:RC4|com-cf:nl|ptrs:na|ktp:N0|mc:99820|mtp:S|qry_typ:P|lang:en|wc:3|cs:8845|v=4,Gopal Darshan Textile,https://www.indiamart.com/gopal-darshan-textiles/?pos=67&kwd=hooded baby blanket&tags=BA||||8661.854|Price|product|||NA|rsf:gd-|-stype:attr=1|qr_nm:gd|res:RC4|com-cf:nl|ptrs:na|ktp:N0|mc:99820|mtp:S|qry_typ:P|lang:en|wc:3|cs:8845|v=4,False,,Ludhiana,"3929/3 Hargobind Pura 4, Ludhiana - 141008, Dist.Ludhiana, Punjab",8048956657,
Cotton Flannel Baby Hooded Blanket,https://www.indiamart.com/proddetail/baby-hooded-blanket-23306183033.html?pos=68&kwd=hooded baby blanket&tags=BB||||8752.144|Price|product|||NA|rsf:gd-|-stype:attr=1|qr_nm:gd|res:RC4|com-cf:nl|ptrs:na|ktp:N0|mc:99820|mtp:S|qry_typ:P|lang:en|wc:3|cs:8845|v=4,Jain Trendz,https://www.indiamart.com/jaintrendznewdelhi/?pos=68&kwd=hooded baby blanket&tags=BB||||8752.144|Price|product|||NA|rsf:gd-|-stype:attr=1|qr_nm:gd|res:RC4|com-cf:nl|ptrs:na|ktp:N0|mc:99820|mtp:S|qry_typ:P|lang:en|wc:3|cs:8845|v=4,False,near Pacific Mall,New Delhi,"4/66 Sahibabad Industrial area Site 4 Ghaziabad, near Pacific Mall, New Delhi - 110029, Dist.Delhi, Delhi",8048609979,
Cotton Blue Baby Hooded Blanket,https://www.indiamart.com/proddetail/baby-hooded-blanket-2853355392262.html?pos=69&kwd=hooded baby blanket&tags=BA||||8207.956|Price|product|||NA|rsf:gd-|-stype:attr=1|qr_nm:gd|res:RC4|com-cf:nl|ptrs:na|ktp:N0|mc:99820|mtp:S|qry_typ:P|lang:en|wc:3|cs:8845|v=4,Daivya Enterprise,https://www.indiamart.com/daivya-enterprise-sanand/?pos=69&kwd=hooded baby blanket&tags=BA||||8207.956|Price|product|||NA|rsf:gd-|-stype:attr=1|qr_nm:gd|res:RC4|com-cf:nl|ptrs:na|ktp:N0|mc:99820|mtp:S|qry_typ:P|lang:en|wc:3|cs:8845|v=4,False,Bol,Sanand,"Shop No-1, Survey No-885, Near Motipura Bus Stand, Bol ,Sanad, GIDC, Bol, Sanand - 382170, Dist.Ahmedabad, Gujarat",7949224901,
"Buttercup Muslin Baby Hooded Blanket, 0-3 Years, Size: Large",https://www.indiamart.com/proddetail/baby-hooded-blanket-2851745593930.html?pos=70&kwd=hooded baby blanket&tags=BB||||8584.299||product|||NA|rsf:gd-|-stype:attr=1|qr_nm:gd|res:RC4|com-cf:nl|ptrs:na|ktp:N0|mc:99820|mtp:S|qry_typ:P|lang:en|wc:3|cs:8845|v=4,Buttercup Baby Clothing,https://www.indiamart.com/buttercup-baby-clothing/?pos=70&kwd=hooded baby blanket&tags=BB||||8584.299||product|||NA|rsf:gd-|-stype:attr=1|qr_nm:gd|res:RC4|com-cf:nl|ptrs:na|ktp:N0|mc:99820|mtp:S|qry_typ:P|lang:en|wc:3|cs:8845|v=4,False,,Coimbatore,"33-8, East Ponnurangam Road, RS Puram, Coimbatore - 641002, Dist.Coimbatore, Tamil Nadu",8043824974,
Maroon Velvet Hooded Baby Blanket,https://www.indiamart.com/proddetail/velvet-hooded-baby-blanket-2852260520948.html?pos=71&kwd=hooded baby blanket&tags=BA||||8641.487|Price|product|||NA|rsf:gd-|-stype:attr=1|qr_nm:gd|res:RC4|com-cf:nl|ptrs:na|ktp:N0|mc:99820|mtp:S|qry_typ:P|lang:en|wc:3|cs:8845|v=4,Soni Enterprises,https://www.indiamart.com/soni-enterprisesjalandhar/?pos=71&kwd=hooded baby blanket&tags=BA||||8641.487|Price|product|||NA|rsf:gd-|-stype:attr=1|qr_nm:gd|res:RC4|com-cf:nl|ptrs:na|ktp:N0|mc:99820|mtp:S|qry_typ:P|lang:en|wc:3|cs:8845|v=4,False,Nurpur,Jalandhar,"New Hargobind Nagar Near Dhogri Road, Near Shiv Mandir, Nurpur, Jalandhar - 144012, Dist.Jalandhar, Punjab",7942868471,
"Fleece Pink Jerry Hooded Baby Blanket, Size: 27x27 Inch",https://www.indiamart.com/proddetail/jerry-hooded-baby-blanket-25987269033.html?pos=72&kwd=hooded baby blanket&tags=BB||||8747.203|Price|product|||NA|rsf:gd-|-stype:attr=1|qr_nm:gd|res:RC4|com-cf:nl|ptrs:na|ktp:N0|mc:99820|mtp:S|qry_typ:P|lang:en|wc:3|cs:8845|v=4,Yash Wooltex,https://www.indiamart.com/yashwooltex/?pos=72&kwd=hooded baby blanket&tags=BB||||8747.203|Price|product|||NA|rsf:gd-|-stype:attr=1|qr_nm:gd|res:RC4|com-cf:nl|ptrs:na|ktp:N0|mc:99820|mtp:S|qry_typ:P|lang:en|wc:3|cs:8845|v=4,False,,Panipat,"Opp Shivam Furnishings, Hotel Wali Gali, Kutani Road, Panipat - 132103, Dist.Panipat, Haryana",8043854666,
"Star Printed Cotton Baby Hooded Blanket, 0-12 Months, Size: 68 X 76cm (lxw)",https://www.indiamart.com/proddetail/star-printed-cotton-baby-hooded-blanket-2849666722048.html?pos=73&kwd=hooded baby blanket&tags=BB||||8747.203|Price|product|||NA|rsf:gd-|-stype:attr=1|qr_nm:gd|res:RC4|com-cf:nl|ptrs:na|ktp:N0|mc:99820|mtp:S|qry_typ:P|lang:en|wc:3|cs:8845|v=4,Kirpa Enterprise,https://www.indiamart.com/kirpa-enterprise-panipat/?pos=73&kwd=hooded baby blanket&tags=BB||||8747.203|Price|product|||NA|rsf:gd-|-stype:attr=1|qr_nm:gd|res:RC4|com-cf:nl|ptrs:na|ktp:N0|mc:99820|mtp:S|qry_typ:P|lang:en|wc:3|cs:8845|v=4,False,,Panipat,"879,11, Ward No.11, Panipat - 132103, Dist.Panipat, Haryana",7942795917,
Woolen Orange Baby Hooded Blanket,https://www.indiamart.com/proddetail/orange-baby-hooded-blanket-2853405694133.html?pos=74&kwd=hooded baby blanket&tags=BA||||8747.203|Price|product|||NA|rsf:gd-|-stype:attr=1|qr_nm:gd|res:RC4|com-cf:nl|ptrs:na|ktp:N0|mc:99820|mtp:S|qry_typ:P|lang:en|wc:3|cs:8845|v=4,Chandna Garments,https://www.indiamart.com/chandnagarments/?pos=74&kwd=hooded baby blanket&tags=BA||||8747.203|Price|product|||NA|rsf:gd-|-stype:attr=1|qr_nm:gd|res:RC4|com-cf:nl|ptrs:na|ktp:N0|mc:99820|mtp:S|qry_typ:P|lang:en|wc:3|cs:8845|v=4,False,Colony,Panipat,"908, Ground Floor, New Housing Board Colony, Colony, Panipat - 132103, Dist.Panipat, Haryana",7949222421,
"Infaneo Assorted Baby Wrapper Blanket Hooded, New Born, Size: 75cms X 75 Cms",https://www.indiamart.com/proddetail/baby-wrapper-blanket-hooded-19088759733.html?pos=75&kwd=hooded baby blanket&tags=BA||||8211.142|Price|product|||NA|rsf:gd-|-stype:attr=1|qr_nm:gd|res:RC4|com-cf:nl|ptrs:na|ktp:N0|mc:99820|mtp:S|qry_typ:P|lang:en|wc:3|cs:8845|v=4,Rachna Creation,https://www.indiamart.com/rachna-creation/?pos=75&kwd=hooded baby blanket&tags=BA||||8211.142|Price|product|||NA|rsf:gd-|-stype:attr=1|qr_nm:gd|res:RC4|com-cf:nl|ptrs:na|ktp:N0|mc:99820|mtp:S|qry_typ:P|lang:en|wc:3|cs:8845|v=4,False,Dadar (East),Mumbai,"Plot No. 155, Tarwala House, Shop No. 5 Saint Paul Street, Hindmata, Dadar (East), Mumbai - 400014, Dist.Mumbai, Maharashtra",8047681234,
"Cotton Pink Dotted Baby Hooded Blanket, 0-6 Month, Size: 10*12 Inch",https://www.indiamart.com/proddetail/pink-dotted-baby-hooded-blanket-25418746812.html?pos=76&kwd=hooded baby blanket&tags=BB||||8661.854|Price|product|||NA|rsf:gd-|-stype:attr=1|qr_nm:gd|res:RC4|com-cf:nl|ptrs:na|ktp:N0|mc:99820|mtp:S|qry_typ:P|lang:en|wc:3|cs:8845|v=4,Natraj Sons,https://www.indiamart.com/natraj-sons/?pos=76&kwd=hooded baby blanket&tags=BB||||8661.854|Price|product|||NA|rsf:gd-|-stype:attr=1|qr_nm:gd|res:RC4|com-cf:nl|ptrs:na|ktp:N0|mc:99820|mtp:S|qry_typ:P|lang:en|wc:3|cs:8845|v=4,False,,Ludhiana,"B-25-G-4-2136, Abadi New Shivpuri, Opposite Punjab National Bank, Street No.3, Shivpuri Road, Ludhiana - 141008, Dist.Ludhiana, Punjab",8048268130,
Poller 4 to 5 colours Little Cubs Check Baby Hooded Blanket,https://www.indiamart.com/proddetail/little-cubs-check-baby-hooded-blanket-21471534391.html?pos=77&kwd=hooded baby blanket&tags=BB||||8752.144|Price|product|||NA|rsf:gd-|-stype:attr=1|qr_nm:gd|res:RC4|com-cf:nl|ptrs:na|ktp:N0|mc:99820|mtp:S|qry_typ:P|lang:en|wc:3|cs:8845|v=4,Navkaar Traders,https://www.indiamart.com/navkaartraders/?pos=77&kwd=hooded baby blanket&tags=BB||||8752.144|Price|product|||NA|rsf:gd-|-stype:attr=1|qr_nm:gd|res:RC4|com-cf:nl|ptrs:na|ktp:N0|mc:99820|mtp:S|qry_typ:P|lang:en|wc:3|cs:8845|v=4,False,Mahendru Enclave,New Delhi,"C-37, 1st Floor, Gali No. 3, Mahendru Enclave, Mahendru Enclave, New Delhi - 110033, Dist.Delhi, Delhi",7942532296,
"Cotton Light Brown Double Side Hooded Baby Blanket, 3 Month, Size: 75x 45x 20mm (lxwxh)",https://www.indiamart.com/proddetail/double-side-hooded-baby-blanket-2850315269888.html?pos=78&kwd=hooded baby blanket&tags=BA||||8661.854|Price|product|||NA|rsf:gd-|-stype:attr=1|qr_nm:gd|res:RC4|com-cf:nl|ptrs:na|ktp:N0|mc:99820|mtp:S|qry_typ:P|lang:en|wc:3|cs:8845|v=4,Shri Parasnath. Inc,https://www.indiamart.com/shriparasnathinc/?pos=78&kwd=hooded baby blanket&tags=BA||||8661.854|Price|product|||NA|rsf:gd-|-stype:attr=1|qr_nm:gd|res:RC4|com-cf:nl|ptrs:na|ktp:N0|mc:99820|mtp:S|qry_typ:P|lang:en|wc:3|cs:8845|v=4,False,New Subhash Nagar,Ludhiana,"House No. 8093 New Shastri Nagar Basti Jodhewal, New Subhash Nagar, Ludhiana - 141007, Dist.Ludhiana, Punjab",8047802844,
Cotton Lemon Yellow Baby Hooded Blanket,https://www.indiamart.com/proddetail/lemon-yellow-baby-hooded-blanket-2852418867130.html?pos=79&kwd=hooded baby blanket&tags=BB||||8211.142|Price|product|||NA|rsf:gd-|-stype:attr=1|qr_nm:gd|res:RC4|com-cf:nl|ptrs:na|ktp:N0|mc:99820|mtp:S|qry_typ:P|lang:en|wc:3|cs:8845|v=4,Baby World,https://www.indiamart.com/babyworlds/?pos=79&kwd=hooded baby blanket&tags=BB||||8211.142|Price|product|||NA|rsf:gd-|-stype:attr=1|qr_nm:gd|res:RC4|com-cf:nl|ptrs:na|ktp:N0|mc:99820|mtp:S|qry_typ:P|lang:en|wc:3|cs:8845|v=4,False,,Mumbai,"Groung Floor, Shop No 4-A, 37, Hawa Mansion, Shaikh Memon Street, Pinjara Street, Mandvi, Mumbai - 400003, Dist.Mumbai, Maharashtra",8048981354,
Printed Cotton Hooded Baby Blanket,https://www.indiamart.com/proddetail/cotton-hooded-baby-blanket-19018003897.html?pos=80&kwd=hooded baby blanket&tags=BB||||8211.142|Price|product|||NA|rsf:gd-|-stype:attr=1|qr_nm:gd|res:RC4|com-cf:nl|ptrs:na|ktp:N0|mc:99820|mtp:S|qry_typ:P|lang:en|wc:3|cs:8845|v=4,Richa Traders,https://www.indiamart.com/richatraders-maharashtra/?pos=80&kwd=hooded baby blanket&tags=BB||||8211.142|Price|product|||NA|rsf:gd-|-stype:attr=1|qr_nm:gd|res:RC4|com-cf:nl|ptrs:na|ktp:N0|mc:99820|mtp:S|qry_typ:P|lang:en|wc:3|cs:8845|v=4,False,Dadar West,Mumbai,"20, Pearl Centre, Zarapkar Building Senapati Bapat Marg,, Dadar West, Mumbai - 400028, Dist.Mumbai, Maharashtra",8048961097,
Hooded Blanket,,MFS Fashions,https://www.indiamart.com/mfsfashions/?pos=81&kwd=hooded baby blanket&tags=BA||||8954.051|Price|product|||NA|rsf:gd-|-stype:attr=1|qr_nm:gd|res:RC4|com-cf:nl|ptrs:na|ktp:N0|mc:99820|mtp:S|qry_typ:P|lang:en|wc:3|cs:8845|v=4,False,Perambur,Chennai,"New No. 42/2, Old No. 15/2, Venkatraman Street, Perambur, Perambur, Chennai - 600011, Dist.Chennai, Tamil Nadu",8043804409,
Fleece Baby Hooded Wrap,https://www.indiamart.com/proddetail/baby-hooded-wrap-19892982930.html?pos=82&kwd=hooded baby blanket&tags=BA||||8661.854|Price|product|||NA|rsf:gd-|-stype:attr=1|qr_nm:gd|res:RC4|com-cf:nl|ptrs:na|ktp:N0|mc:99820|mtp:S|qry_typ:P|lang:en|wc:3|cs:8845|v=4,Sai Trading Company,https://www.indiamart.com/sai-trading-company/?pos=82&kwd=hooded baby blanket&tags=BA||||8661.854|Price|product|||NA|rsf:gd-|-stype:attr=1|qr_nm:gd|res:RC4|com-cf:nl|ptrs:na|ktp:N0|mc:99820|mtp:S|qry_typ:P|lang:en|wc:3|cs:8845|v=4,False,Naya Mohalla,Ludhiana,"139-B-Viii, Mochpura Bazar, Naya Mohalla, Ludhiana - 141008, Dist.Ludhiana, Punjab",8046057087,
"Embroidered Baby Pink Hooded Fur Blanket, 0-6 Months",https://www.indiamart.com/proddetail/baby-pink-hooded-fur-blanket-23484276048.html?pos=83&kwd=hooded baby blanket&tags=BB||||8661.854||product|||NA|rsf:gd-|-stype:attr=1|qr_nm:gd|res:RC4|com-cf:nl|ptrs:na|ktp:N0|mc:99820|mtp:S|qry_typ:P|lang:en|wc:3|cs:8845|v=4,Goyal Textiles,https://www.indiamart.com/goyal-textiles/?pos=83&kwd=hooded baby blanket&tags=BB||||8661.854||product|||NA|rsf:gd-|-stype:attr=1|qr_nm:gd|res:RC4|com-cf:nl|ptrs:na|ktp:N0|mc:99820|mtp:S|qry_typ:P|lang:en|wc:3|cs:8845|v=4,False,,Ludhiana,"B VIII 343, Mochpura Bazar, Gali No. 1 Near Gujral Shawl Market, Ludhiana - 141008, Dist.Ludhiana, Punjab",8069033835,499
"Muzee Fur And Cotton Baby Hooded Swaddle, Hooded Towel, Size: 70x70",https://www.indiamart.com/proddetail/baby-hooded-swaddle-hooded-towel-2850436157833.html?pos=84&kwd=hooded baby blanket&tags=BA||||8493.708|Price|product|||NA|rsf:gd-|-stype:attr=1|qr_nm:gd|res:RC4|com-cf:nl|ptrs:na|ktp:N0|mc:99820|mtp:S|qry_typ:P|lang:en|wc:3|cs:8845|v=4,Emmicare Industries Private Limited,https://www.indiamart.com/emmicare-industries-kerala/?pos=84&kwd=hooded baby blanket&tags=BA||||8493.708|Price|product|||NA|rsf:gd-|-stype:attr=1|qr_nm:gd|res:RC4|com-cf:nl|ptrs:na|ktp:N0|mc:99820|mtp:S|qry_typ:P|lang:en|wc:3|cs:8845|v=4,False,Vadakkangara,Manjeri,"7/162 ,B-Square Estate, Mankada Road, Koottilangadi,, Vadakkangara, Manjeri - 679324, Dist.Malappuram, Kerala",7942803958,
"Printed Baby Blanket Wrap, 0-1 Year",https://www.indiamart.com/proddetail/baby-blanket-wrap-26145013512.html?pos=85&kwd=hooded baby blanket&tags=BB||||8747.203|Price|product|||NA|rsf:gd-|-stype:attr=1|qr_nm:gd|res:RC4|com-cf:nl|ptrs:na|ktp:N0|mc:99820|mtp:S|qry_typ:P|lang:en|wc:3|cs:8845|v=4,Mahaluxmi Enterprises,https://www.indiamart.com/mahaluxmi-enterprisespanipat/?pos=85&kwd=hooded baby blanket&tags=BB||||8747.203|Price|product|||NA|rsf:gd-|-stype:attr=1|qr_nm:gd|res:RC4|com-cf:nl|ptrs:na|ktp:N0|mc:99820|mtp:S|qry_typ:P|lang:en|wc:3|cs:8845|v=4,False,,Panipat,"H.No-280/14, Mahalaxmi Enterprises Ganga Puri Road,, Panipat - 132103, Dist.Panipat, Haryana",8043859681,
Baby Fleece Blanket,https://www.indiamart.com/proddetail/baby-fleece-blanket-2852578201148.html?pos=86&kwd=hooded baby blanket&tags=BA||||8661.854||product|||NA|rsf:gd-|-stype:attr=1|qr_nm:gd|res:RC4|com-cf:nl|ptrs:na|ktp:N0|mc:99820|mtp:S|qry_typ:P|lang:en|wc:3|cs:8845|v=4,Solax Knitwears,https://www.indiamart.com/solax-knitwears-ludhiana/?pos=86&kwd=hooded baby blanket&tags=BA||||8661.854||product|||NA|rsf:gd-|-stype:attr=1|qr_nm:gd|res:RC4|com-cf:nl|ptrs:na|ktp:N0|mc:99820|mtp:S|qry_typ:P|lang:en|wc:3|cs:8845|v=4,False,Sunder Nagar,Ludhiana,"1096, Hazuri Road, Solax Knitwears,, Sunder Nagar, Ludhiana - 141008, Dist.Ludhiana, Punjab",7942868080,
"Kiddiehug Cotton Baby blanket / quilt, Size: 100*100cm",https://www.indiamart.com/proddetail/baby-blanket-quilt-2849766575473.html?pos=87&kwd=hooded baby blanket&tags=BB||||8550.327|Price|product|||NA|rsf:gd-|-stype:attr=1|qr_nm:gd|res:RC4|com-cf:nl|ptrs:na|ktp:N0|mc:99820|mtp:S|qry_typ:P|lang:en|wc:3|cs:8845|v=4,Aadheerkh Clothing,https://www.indiamart.com/kiddiehug/?pos=87&kwd=hooded baby blanket&tags=BB||||8550.327|Price|product|||NA|rsf:gd-|-stype:attr=1|qr_nm:gd|res:RC4|com-cf:nl|ptrs:na|ktp:N0|mc:99820|mtp:S|qry_typ:P|lang:en|wc:3|cs:8845|v=4,False,,Palakkad,"4/550 Valarapalam Nattukkal, Palakkad - 678554, Dist.Palakkad, Kerala",7942787711,
"Mirco Polyester Polar Fleece Baby Blanket with Hood, Packaging Type: Single Piece Packing, 210 Grm",https://www.indiamart.com/proddetail/polar-fleece-baby-blanket-with-hood-2851822126330.html?pos=88&kwd=hooded baby blanket&tags=BB||||8211.142||product|||NA|rsf:gd-|-stype:attr=1|qr_nm:gd|res:RC4|com-cf:nl|ptrs:na|ktp:N0|mc:99820|mtp:S|qry_typ:P|lang:en|wc:3|cs:8845|v=4,Dee Bee & Co.,https://www.indiamart.com/me-nmoms/?pos=88&kwd=hooded baby blanket&tags=BB||||8211.142||product|||NA|rsf:gd-|-stype:attr=1|qr_nm:gd|res:RC4|com-cf:nl|ptrs:na|ktp:N0|mc:99820|mtp:S|qry_typ:P|lang:en|wc:3|cs:8845|v=4,False,,Mumbai,"A-202, 2nd floor, Aaradhya Nalanda, R B Mehta Marg, Mumbai, Mumbai Suburban, Mumbai - 400077, Dist.Mumbai, Maharashtra",7942792773,
"Double Multicolor Super Soft Printed Mink Blanket, Size: 210 X 230 cm(LXW)",https://www.indiamart.com/proddetail/super-soft-printed-mink-blanket-25878825862.html?pos=89&kwd=hooded baby blanket&tags=BB||||8747.203|Price|product|||NA|rsf:gd-|-stype:attr=1|qr_nm:gd|res:RC4|com-cf:nl|ptrs:na|ktp:N0|mc:99820|mtp:S|qry_typ:P|lang:en|wc:3|cs:8845|v=4,Bharat Shawl Store,https://www.indiamart.com/bharatshawlstore/?pos=89&kwd=hooded baby blanket&tags=BB||||8747.203|Price|product|||NA|rsf:gd-|-stype:attr=1|qr_nm:gd|res:RC4|com-cf:nl|ptrs:na|ktp:N0|mc:99820|mtp:S|qry_typ:P|lang:en|wc:3|cs:8845|v=4,False,,Panipat,"1067/3 Pachranga Bazar opp. PNB ATM, Panipat - 132103, Dist.Panipat, Haryana",8047672890,
"Wool Grey And Blue Newborn Baby Blankets, Newly Born, Size: 10x10x11 (lxwxh)",https://www.indiamart.com/proddetail/newborn-baby-blankets-2850830714291.html?pos=90&kwd=hooded baby blanket&tags=BA||||8552.925|Price|product|||NA|rsf:gd-|-stype:attr=1|qr_nm:gd|res:RC4|com-cf:nl|ptrs:na|ktp:N0|mc:99820|mtp:S|qry_typ:P|lang:en|wc:3|cs:8845|v=4,Pooh Creation,https://www.indiamart.com/pooh-creation-rau/?pos=90&kwd=hooded baby blanket&tags=BA||||8552.925|Price|product|||NA|rsf:gd-|-stype:attr=1|qr_nm:gd|res:RC4|com-cf:nl|ptrs:na|ktp:N0|mc:99820|mtp:S|qry_typ:P|lang:en|wc:3|cs:8845|v=4,False,,Rau,"Flat No 405 A-13 Sanskriti Royal Park, Rau Shiv Elite Indore, Rau - 453331, Dist.Indore, Madhya Pradesh",7942824952,
Velvet Pink Newborn Baby Blankets,https://www.indiamart.com/proddetail/newborn-baby-blankets-2852589854273.html?pos=91&kwd=hooded baby blanket&tags=BA||||8747.203|Price|product|||NA|rsf:gd-|-stype:attr=1|qr_nm:gd|res:RC4|com-cf:nl|ptrs:na|ktp:N0|mc:99820|mtp:S|qry_typ:P|lang:en|wc:3|cs:8845|v=4,Khatu Shyam Enterprises,https://www.indiamart.com/khatushyamenterprisesharyana/?pos=91&kwd=hooded baby blanket&tags=BA||||8747.203|Price|product|||NA|rsf:gd-|-stype:attr=1|qr_nm:gd|res:RC4|com-cf:nl|ptrs:na|ktp:N0|mc:99820|mtp:S|qry_typ:P|lang:en|wc:3|cs:8845|v=4,False,Jali Wala Karkhana,Panipat,"House Num 452, Rajiv Colony, Jali Wala Karkhana, Panipat - 132103, Dist.Panipat, Haryana",7942710513,
Baby Blanket Hooded,,Dev Blankets,https://www.indiamart.com/dev-blankets/?pos=95&kwd=hooded baby blanket&tags=BA||||8661.854|Price|product|||NA|rsf:gd-|-stype:attr=1|qr_nm:gd|res:RC4|com-cf:nl|ptrs:na|ktp:N0|mc:99820|mtp:S|qry_typ:P|lang:en|wc:3|cs:8845|v=4,False,hargobindpura,Ludhiana,"hargobindpura st no 3 near samrala chonk ludhiana, hargobindpura, Ludhiana - 141010, Dist.Ludhiana, Punjab",8069017416,419
Hooded Baby Blankets,,Simar Traders,https://www.indiamart.com/simar-traders-ludhiana/?pos=93&kwd=hooded baby blanket&tags=BB||||8661.854|Price|product|||NA|rsf:gd-|-stype:attr=1|qr_nm:gd|res:RC4|com-cf:nl|ptrs:na|ktp:N0|mc:99820|mtp:S|qry_typ:P|lang:en|wc:3|cs:8845|v=4,False,Manna Singh Nagar,Ludhiana,"705 Chhouni Mohalla Ludhiana, Manna Singh Nagar, Ludhiana - 141008, Dist.Ludhiana, Punjab",8048372488,901
Kids Winter Rapper,,Mehta & Sons,https://www.indiamart.com/mehtasons/?pos=94&kwd=hooded baby blanket&tags=BA||||8211.142||product|||NA|rsf:gd-|-stype:attr=1|qr_nm:gd|res:RC4|com-cf:nl|ptrs:na|ktp:N0|mc:99820|mtp:S|qry_typ:P|lang:en|wc:3|cs:8845|v=4,False,dader,Mumbai,"Shop No. 10, Tower building,Senapati Bapat Marg, Dadar West, dader, Mumbai - 400028, Dist.Mumbai, Maharashtra",8048202162,
Baby Blanket Hooded,,Dev Blankets,https://www.indiamart.com/dev-blankets/?pos=95&kwd=hooded baby blanket&tags=BA||||8661.854|Price|product|||NA|rsf:gd-|-stype:attr=1|qr_nm:gd|res:RC4|com-cf:nl|ptrs:na|ktp:N0|mc:99820|mtp:S|qry_typ:P|lang:en|wc:3|cs:8845|v=4,False,hargobindpura,Ludhiana,"hargobindpura st no 3 near samrala chonk ludhiana, hargobindpura, Ludhiana - 141010, Dist.Ludhiana, Punjab",8069017416,419
Hooded Baby Blanket,,Dee Kay Traders,https://www.indiamart.com/dee-kay-traders-panipat/?pos=96&kwd=hooded baby blanket&tags=BB||||8747.203|Price|product|||NA|rsf:gd-|-stype:attr=1|qr_nm:gd|res:RC4|com-cf:nl|ptrs:na|ktp:N0|mc:99820|mtp:S|qry_typ:P|lang:en|wc:3|cs:8845|v=4,False,,Panipat,"Pooja Vihar Colony,Jatal Road,Roshan Properties,Near Gaushala Jattal Road B W Both Rivers,Panipat,Pa, Panipat - 132103, Dist.Panipat, Haryana",8069033769,516
Hooded Baby Blanket,,Yash Handloom,https://www.indiamart.com/yashhandloomharyana/?pos=97&kwd=hooded baby blanket&tags=BA||||8747.203|Price|product|||NA|rsf:gd-|-stype:attr=1|qr_nm:gd|res:RC4|com-cf:nl|ptrs:na|ktp:N0|mc:99820|mtp:S|qry_typ:P|lang:en|wc:3|cs:8845|v=4,False,Manmohan Nagar,Panipat,"Jagdish Shah, Manmohan Nagar, Panipat - 132103, Dist.Panipat, Haryana",8045731059,
Baby Hooded Blanket 84 rs,,Saraswati Textiles,https://www.indiamart.com/saraswatitextiles-panipat/?pos=98&kwd=hooded baby blanket&tags=BA||||8747.203||product|||NA|rsf:gd-|-stype:attr=1|qr_nm:gd|res:RC4|com-cf:nl|ptrs:na|ktp:N0|mc:99820|mtp:S|qry_typ:P|lang:en|wc:3|cs:8845|v=4,False,opp geeta market panipat,Panipat,"0 Kutani Road Near Dcb Biscuit Factory Panipat, opp geeta market panipat, Panipat - 132103, Dist.Panipat, Haryana",8069033797,938
Hooded Baby Blankets,,Simar Traders,https://www.indiamart.com/simar-traders-ludhiana/?pos=99&kwd=hooded baby blanket&tags=BB||||8661.854|Price|product|||NA|rsf:gd-|-stype:attr=1|qr_nm:gd|res:RC4|com-cf:nl|ptrs:na|ktp:N0|mc:99820|mtp:S|qry_typ:P|lang:en|wc:3|cs:8845|v=4,False,Manna Singh Nagar,Ludhiana,"705 Chhouni Mohalla Ludhiana, Manna Singh Nagar, Ludhiana - 141008, Dist.Ludhiana, Punjab",8048372488,901
Kids Winter Rapper,,Mehta & Sons,https://www.indiamart.com/mehtasons/?pos=100&kwd=hooded baby blanket&tags=BA||||8211.142||product|||NA|rsf:gd-|-stype:attr=1|qr_nm:gd|res:RC4|com-cf:nl|ptrs:na|ktp:N0|mc:99820|mtp:S|qry_typ:P|lang:en|wc:3|cs:8845|v=4,False,dader,Mumbai,"Shop No. 10, Tower building,Senapati Bapat Marg, Dadar West, dader, Mumbai - 400028, Dist.Mumbai, Maharashtra",8048202162,
Cotton Pink Baby Receiving Blanket,https://www.indiamart.com/proddetail/baby-receiving-blanket-4336448791.html?pos=101&kwd=hooded baby blanket&tags=CC||||8559.269|Price|product|||TS|rsf:gd-|-stype:attr=1|qr_nm:gd|res:RC4|com-cf:nl|ptrs:na|ktp:N0|mc:99820|mtp:S|qry_typ:P|lang:en|wc:3|cs:8845|v=4,Central India Fabrics,https://www.centralindiafabrics.net/?pos=101&kwd=hooded baby blanket&tags=CC||||8559.269|Price|product|||TS|rsf:gd-|-stype:attr=1|qr_nm:gd|res:RC4|com-cf:nl|ptrs:na|ktp:N0|mc:99820|mtp:S|qry_typ:P|lang:en|wc:3|cs:8845|v=4,True,Avantika Nagar,Indore,"2/A/C, Sector D, Sanwer Road Opposite Bandganga Police Station, Avantika Nagar, Indore - 452015, Dist.Indore, Madhya Pradesh",8048965370,
Hooded Cap Rumal,https://www.indiamart.com/proddetail/hooded-cap-rumal-14180484733.html?pos=102&kwd=hooded baby blanket&tags=CC||||8211.142|Price|product|||MDC|rsf:gd-|-stype:attr=1|qr_nm:gd|res:RC4|com-cf:nl|ptrs:na|ktp:N0|mc:99820|mtp:S|qry_typ:P|lang:en|wc:3|cs:8845|v=4,Padam Kids,https://www.indiamart.com/padam-kids/?pos=102&kwd=hooded baby blanket&tags=CC||||8211.142|Price|product|||MDC|rsf:gd-|-stype:attr=1|qr_nm:gd|res:RC4|com-cf:nl|ptrs:na|ktp:N0|mc:99820|mtp:S|qry_typ:P|lang:en|wc:3|cs:8845|v=4,False,,Mumbai,"CKP Colony, Near Dargah, Behind Dr. Manish Bhatt Eksar Road, Borivali West, Mumbai - 400092, Dist.Mumbai, Maharashtra",8046057613,
Ankit International Presents Red Non Woven Blanket Cover Transparent With Handel,https://www.indiamart.com/proddetail/ankit-international-presents-red-non-woven-blanket-cover-transparent-with-handel-24145089791.html?pos=103&kwd=hooded baby blanket&tags=CC||||8601.347|Price|product|||TS|rsf:gd-|-stype:attr=1|qr_nm:gd|res:RC4|com-cf:nl|ptrs:na|ktp:N0|mc:99820|mtp:S|qry_typ:P|lang:en|wc:3|cs:8845|v=4,Ankit International,https://www.indiamart.com/ankit-international-jaipur/?pos=103&kwd=hooded baby blanket&tags=CC||||8601.347|Price|product|||TS|rsf:gd-|-stype:attr=1|qr_nm:gd|res:RC4|com-cf:nl|ptrs:na|ktp:N0|mc:99820|mtp:S|qry_typ:P|lang:en|wc:3|cs:8845|v=4,False,Jhotwara,Jaipur,"Plot No 4, Om Durge Colony,near Gulab Badi, Factory Area Road, Jhotwara, Jhotwara, Jaipur - 302012, Dist.Jaipur, Rajasthan",8048954848,
Hooded Baby Blanket,https://www.indiamart.com/proddetail/hooded-baby-blanket-2853640744362.html?pos=104&kwd=hooded baby blanket&tags=CC||||8228.275|Price|product|||TS|rsf:gd-|-stype:attr=1|qr_nm:gd|res:RC4|com-cf:nl|ptrs:na|ktp:N0|mc:99820|mtp:S|qry_typ:P|lang:en|wc:3|cs:8845|v=4,JSPM Traders,https://www.jspmtraders.com/?pos=104&kwd=hooded baby blanket&tags=CC||||8228.275|Price|product|||TS|rsf:gd-|-stype:attr=1|qr_nm:gd|res:RC4|com-cf:nl|ptrs:na|ktp:N0|mc:99820|mtp:S|qry_typ:P|lang:en|wc:3|cs:8845|v=4,False,Dudheshwar,Ahmedabad,"407, 4th, Block-B, Sumel Business Park-9, Dudheshwar, Dudheshwar, Ahmedabad - 380004, Dist.Ahmedabad, Gujarat",8045908277,
Hooded Baby Blanket,https://www.indiamart.com/proddetail/hooded-baby-blanket-2853606701197.html?pos=105&kwd=hooded baby blanket&tags=CC||||8737.904|Price|product|||MDC|rsf:gd-|-stype:attr=1|qr_nm:gd|res:RC4|com-cf:nl|ptrs:na|ktp:N0|mc:99820|mtp:S|qry_typ:P|lang:en|wc:3|cs:8845|v=4,PB Enterprises,https://www.indiamart.com/pb-enterprises-asankhurd/?pos=105&kwd=hooded baby blanket&tags=CC||||8737.904|Price|product|||MDC|rsf:gd-|-stype:attr=1|qr_nm:gd|res:RC4|com-cf:nl|ptrs:na|ktp:N0|mc:99820|mtp:S|qry_typ:P|lang:en|wc:3|cs:8845|v=4,False,Panipat Thermal Project,Asankhurd,"Na 736/3 Oppt. Pandit Ji Sweet , Sondhapur Colony Hari Om, Panipat Thermal Project, Asankhurd - 132105, Haryana",7949092975,
Blue Cotton Hooded Baby Blanket,https://www.indiamart.com/proddetail/cotton-hooded-baby-blanket-22412421012.html?pos=106&kwd=hooded baby blanket&tags=CC||||8752.144|Price|product|||MDC|rsf:gd-|-stype:attr=1|qr_nm:gd|res:RC4|com-cf:nl|ptrs:na|ktp:N0|mc:99820|mtp:S|qry_typ:P|lang:en|wc:3|cs:8845|v=4,S.S Enterprises,https://www.indiamart.com/ssenterprisesnewdelhiindia/?pos=106&kwd=hooded baby blanket&tags=CC||||8752.144|Price|product|||MDC|rsf:gd-|-stype:attr=1|qr_nm:gd|res:RC4|com-cf:nl|ptrs:na|ktp:N0|mc:99820|mtp:S|qry_typ:P|lang:en|wc:3|cs:8845|v=4,False,Wazirpur Industrial Area,New Delhi,"A-52, Wazirpur Industrial Area,, Wazirpur Industrial Area, New Delhi - 110052, Dist.Delhi, Delhi",7949225904,
"Baby Brown Velvet Hooded Blanket, Size: Singe",https://www.indiamart.com/proddetail/baby-brown-velvet-hooded-blanket-2853425806473.html?pos=107&kwd=hooded baby blanket&tags=CC||||9618.383|Price|product|||MDC|rsf:gd-|-stype:attr=1|qr_nm:gd|res:RC4|com-cf:nl|ptrs:na|ktp:N0|mc:99820|mtp:S|qry_typ:P|lang:en|wc:3|cs:8845|v=4,Texco,https://www.indiamart.com/texco/?pos=107&kwd=hooded baby blanket&tags=CC||||9618.383|Price|product|||MDC|rsf:gd-|-stype:attr=1|qr_nm:gd|res:RC4|com-cf:nl|ptrs:na|ktp:N0|mc:99820|mtp:S|qry_typ:P|lang:en|wc:3|cs:8845|v=4,False,Bistupur,Jamshedpur,"Shop No. 2, Main Road, Bistupur, Bistupur, Jamshedpur - 831001, Dist.East Singhbhum, Jharkhand",7949092933,
Hooded Baby Blanket,,Jewelkraft Designs,https://www.indiamart.com/jewelkraftdesigns/?pos=108&kwd=hooded baby blanket&tags=CC||||8228.275|Price|product|||MDC|rsf:gd-|-stype:attr=1|qr_nm:gd|res:RC4|com-cf:nl|ptrs:na|ktp:N0|mc:99820|mtp:S|qry_typ:P|lang:en|wc:3|cs:8845|v=4,False,Acharya Narendradev Nagar,Ahmedabad,"B-502, Samas Appartment Opposite AMA Hall, Acharya Narendradev Nagar, Ahmedabad - 380015, Dist.Ahmedabad, Gujarat",8046063650,
Velvet Pink Soft Hooded LED Light Baby Blanket,https://www.indiamart.com/proddetail/soft-hooded-led-light-baby-blanket-2852785343333.html?pos=109&kwd=hooded baby blanket&tags=CC||||8752.144|Price|product|||MDC|rsf:gd-|-stype:attr=1|qr_nm:gd|res:RC4|com-cf:nl|ptrs:na|ktp:N0|mc:99820|mtp:S|qry_typ:P|lang:en|wc:3|cs:8845|v=4,Bombay Pen Store,https://www.indiamart.com/bombaypenstorenewdelhi/?pos=109&kwd=hooded baby blanket&tags=CC||||8752.144|Price|product|||MDC|rsf:gd-|-stype:attr=1|qr_nm:gd|res:RC4|com-cf:nl|ptrs:na|ktp:N0|mc:99820|mtp:S|qry_typ:P|lang:en|wc:3|cs:8845|v=4,False,Delhi Sadar Bazar,New Delhi,"Second Floor, 6054, Main Road Sadar Bazar, Near Qutub Road Chowk, North Delhi, Delhi Sadar Bazar, New Delhi - 110006, Dist.Delhi, Delhi",8047666043,
Woolen White And Pink Hello kitty Hood Baby Woollen Blanket,https://www.indiamart.com/proddetail/hello-kitty-hood-baby-woolen-blanket-2854507311673.html?pos=110&kwd=hooded baby blanket&tags=CC||||10180.86|Price|product|||MDC|rsf:gd-|-stype:attr=1|qr_nm:gd|res:RC4|com-cf:nl|ptrs:na|ktp:N0|mc:99820|mtp:S|qry_typ:P|lang:en|wc:3|cs:8845|v=4,Shanti Textiles,https://www.indiamart.com/shantitextiles-guwahati/?pos=110&kwd=hooded baby blanket&tags=CC||||10180.86|Price|product|||MDC|rsf:gd-|-stype:attr=1|qr_nm:gd|res:RC4|com-cf:nl|ptrs:na|ktp:N0|mc:99820|mtp:S|qry_typ:P|lang:en|wc:3|cs:8845|v=4,False,,Guwahati,"Ground Floor, Shop No. B- 8, 9, Bee Gee Market, S.R.C.B.Road, Fancy Bazar, Kamrup Metropolitan, Guwahati - 781001, Dist.Kamrup, Assam",7949323237,
Hooded Baby Blanket,https://www.indiamart.com/proddetail/hooded-baby-blanket-2854274518312.html?pos=111&kwd=hooded baby blanket&tags=CC||||8752.144|Price|product|||TS|rsf:gd-|-stype:attr=1|qr_nm:gd|res:RC4|com-cf:nl|ptrs:na|ktp:N0|mc:99820|mtp:S|qry_typ:P|lang:en|wc:3|cs:8845|v=4,Mahi Enterprises,https://www.indiamart.com/mahi-entpdelhi/?pos=111&kwd=hooded baby blanket&tags=CC||||8752.144|Price|product|||TS|rsf:gd-|-stype:attr=1|qr_nm:gd|res:RC4|com-cf:nl|ptrs:na|ktp:N0|mc:99820|mtp:S|qry_typ:P|lang:en|wc:3|cs:8845|v=4,False,Kirari Suleman Nagar,New Delhi,"C-164,Pratap Vihar, Kirari Suleman Nagar, New Delhi - 110085, Dist.Delhi, Delhi",8046042788,
spykar New Baby Fleece Blanket,https://www.indiamart.com/proddetail/baby-fleece-blanket-19376472148.html?pos=112&kwd=hooded baby blanket&tags=CC||||8747.203|Price|product|||TS|rsf:gd-|-stype:attr=1|qr_nm:gd|res:RC4|com-cf:nl|ptrs:na|ktp:N0|mc:99820|mtp:S|qry_typ:P|lang:en|wc:3|cs:8845|v=4,Spykar Woollens,https://www.spykarwoollens.com/?pos=112&kwd=hooded baby blanket&tags=CC||||8747.203|Price|product|||TS|rsf:gd-|-stype:attr=1|qr_nm:gd|res:RC4|com-cf:nl|ptrs:na|ktp:N0|mc:99820|mtp:S|qry_typ:P|lang:en|wc:3|cs:8845|v=4,False,Colony,Panipat,"No. 576, circular road, Colony, Panipat - 132103, Dist.Panipat, Haryana",8046040181,
Printed Multicolor Pack Of 4 Baby Cotton Hooded Towels,https://www.indiamart.com/proddetail/pack-of-4-baby-cotton-hooded-towels-2853678767212.html?pos=113&kwd=hooded baby blanket&tags=CC||||8626.744|Price|product|||MDC|rsf:gd-|-stype:attr=1|qr_nm:gd|res:RC4|com-cf:nl|ptrs:na|ktp:N0|mc:99820|mtp:S|qry_typ:P|lang:en|wc:3|cs:8845|v=4,K.K.C. Tex,https://www.indiamart.com/kkc-tex-tiruppur/?pos=113&kwd=hooded baby blanket&tags=CC||||8626.744|Price|product|||MDC|rsf:gd-|-stype:attr=1|qr_nm:gd|res:RC4|com-cf:nl|ptrs:na|ktp:N0|mc:99820|mtp:S|qry_typ:P|lang:en|wc:3|cs:8845|v=4,False,Valayankadu,Tiruppur,"No 5, Voc Nagar North 5th Street, Valayankadu, Tiruppur - 641603, Dist.Coimbatore, Tamil Nadu",7949083142,
Cotton Blue Hooded Baby Blanket,https://www.indiamart.com/proddetail/hooded-baby-blanket-2854072331955.html?pos=122&kwd=hooded baby blanket&tags=||||8752.144||product|||MDC|rsf:gd-|-stype:attr=1|qr_nm:gd|res:RC4|com-cf:nl|ptrs:na|ktp:N0|mc:99820|mtp:S|qry_typ:P|lang:en|wc:3|cs:8845|v=4,Prince And Princess,https://www.indiamart.com/prince-princess-delhi/?pos=122&kwd=hooded baby blanket&tags=||||8752.144||product|||MDC|rsf:gd-|-stype:attr=1|qr_nm:gd|res:RC4|com-cf:nl|ptrs:na|ktp:N0|mc:99820|mtp:S|qry_typ:P|lang:en|wc:3|cs:8845|v=4,False,Gulabi Bagh,New Delhi,"Ground Floor, Garage No - 74, Gulabi Bagh Road,, Gulabi Bagh, New Delhi - 110007, Dist.Delhi, Delhi",8047629125,
"Cotton Baby Hooded Wrapper, Size: Medium",https://www.indiamart.com/proddetail/baby-hooded-wrapper-2851308925355.html?pos=115&kwd=hooded baby blanket&tags=||||8747.203|Price|product|||TS|rsf:gd-|-stype:attr=1|qr_nm:gd|res:RC4|com-cf:nl|ptrs:na|ktp:N0|mc:99820|mtp:S|qry_typ:P|lang:en|wc:3|cs:8845|v=4,Vardan Home Furnishings,https://www.vardanhomefurnishings.com/?pos=115&kwd=hooded baby blanket&tags=||||8747.203|Price|product|||TS|rsf:gd-|-stype:attr=1|qr_nm:gd|res:RC4|com-cf:nl|ptrs:na|ktp:N0|mc:99820|mtp:S|qry_typ:P|lang:en|wc:3|cs:8845|v=4,False,Chowk,Panipat,"Pehlwan Chowk, Vardan Home Furnishings, Kutani Road, Chowk, Panipat - 132103, Dist.Panipat, Haryana",7942957417,
"Polyester Newborn Baby Brown Hooded Wrapper Towel, Size: Medium",https://www.indiamart.com/proddetail/newborn-baby-brown-hooded-wrapper-towel-2852544604291.html?pos=118&kwd=hooded baby blanket&tags=||||8752.144|Price|product|||MDC|rsf:gd-|-stype:attr=1|qr_nm:gd|res:RC4|com-cf:nl|ptrs:na|ktp:N0|mc:99820|mtp:S|qry_typ:P|lang:en|wc:3|cs:8845|v=4,B N Hosiery,https://www.indiamart.com/bnhosiery/?pos=118&kwd=hooded baby blanket&tags=||||8752.144|Price|product|||MDC|rsf:gd-|-stype:attr=1|qr_nm:gd|res:RC4|com-cf:nl|ptrs:na|ktp:N0|mc:99820|mtp:S|qry_typ:P|lang:en|wc:3|cs:8845|v=4,False,Ashok Vihar,New Delhi,"House No 130l, Block-E, Phase-1,Ashok, Vihar, Ashok Vihar, New Delhi - 110052, Dist.Delhi, Delhi",7942706809,
Baby Hooded Towel,https://www.indiamart.com/proddetail/baby-hooded-towel-2852734788397.html?pos=117&kwd=hooded baby blanket&tags=||||8668.838|Price|product|||TS|rsf:gd-|-stype:attr=1|qr_nm:gd|res:RC4|com-cf:nl|ptrs:na|ktp:N0|mc:99820|mtp:S|qry_typ:P|lang:en|wc:3|cs:8845|v=4,Meenu's Manchesters,https://www.hotelbedsheet.in/?pos=117&kwd=hooded baby blanket&tags=||||8668.838|Price|product|||TS|rsf:gd-|-stype:attr=1|qr_nm:gd|res:RC4|com-cf:nl|ptrs:na|ktp:N0|mc:99820|mtp:S|qry_typ:P|lang:en|wc:3|cs:8845|v=4,False,Edayankattuvalsu,Erode,"26, Nggo Colony, 1, Edayankattuvalsu, Erode - 638009, Dist.Erode, Tamil Nadu",8048609221,
"Polyester Newborn Baby Brown Hooded Wrapper Towel, Size: Medium",https://www.indiamart.com/proddetail/newborn-baby-brown-hooded-wrapper-towel-2852544604291.html?pos=118&kwd=hooded baby blanket&tags=||||8752.144|Price|product|||MDC|rsf:gd-|-stype:attr=1|qr_nm:gd|res:RC4|com-cf:nl|ptrs:na|ktp:N0|mc:99820|mtp:S|qry_typ:P|lang:en|wc:3|cs:8845|v=4,B N Hosiery,https://www.indiamart.com/bnhosiery/?pos=118&kwd=hooded baby blanket&tags=||||8752.144|Price|product|||MDC|rsf:gd-|-stype:attr=1|qr_nm:gd|res:RC4|com-cf:nl|ptrs:na|ktp:N0|mc:99820|mtp:S|qry_typ:P|lang:en|wc:3|cs:8845|v=4,False,Ashok Vihar,New Delhi,"House No 130l, Block-E, Phase-1,Ashok, Vihar, Ashok Vihar, New Delhi - 110052, Dist.Delhi, Delhi",7942706809,
Printed 6 colour Baby Towel,https://www.indiamart.com/proddetail/baby-towel-2852168746197.html?pos=119&kwd=hooded baby blanket&tags=||||8626.744|Price|product|||TS|rsf:gd-|-stype:attr=1|qr_nm:gd|res:RC4|com-cf:nl|ptrs:na|ktp:N0|mc:99820|mtp:S|qry_typ:P|lang:en|wc:3|cs:8845|v=4,Prido Apparel,https://www.indiamart.com/prido-apparel/?pos=119&kwd=hooded baby blanket&tags=||||8626.744|Price|product|||TS|rsf:gd-|-stype:attr=1|qr_nm:gd|res:RC4|com-cf:nl|ptrs:na|ktp:N0|mc:99820|mtp:S|qry_typ:P|lang:en|wc:3|cs:8845|v=4,False,Poyampalayam,Tiruppur,"324-A, Dr.Radhakrishnan Nagar North, Pitchampalayam Pudur, P.N.Road, Poyampalayam, Tiruppur - 641603, Dist.Coimbatore, Tamil Nadu",7942867055,
"Cotton Baby Wrapper, Newly Born",https://www.indiamart.com/proddetail/baby-wrapper-2854122325091.html?pos=120&kwd=hooded baby blanket&tags=||||8626.744|Price|product|||TS|rsf:gd-|-stype:attr=1|qr_nm:gd|res:RC4|com-cf:nl|ptrs:na|ktp:N0|mc:99820|mtp:S|qry_typ:P|lang:en|wc:3|cs:8845|v=4,Richie International,https://www.indiamart.com/richieinternational/?pos=120&kwd=hooded baby blanket&tags=||||8626.744|Price|product|||TS|rsf:gd-|-stype:attr=1|qr_nm:gd|res:RC4|com-cf:nl|ptrs:na|ktp:N0|mc:99820|mtp:S|qry_typ:P|lang:en|wc:3|cs:8845|v=4,False,Nallur,Tiruppur,"48 Csi Colony, Nallur, Vijayapuram Post vijayapuram kangayam road, Nallur, Tiruppur - 641606, Dist.Coimbatore, Tamil Nadu",8047698456,
Embroidered Trendbell Baby Hooded Towel,https://www.indiamart.com/proddetail/trendbell-baby-hooded-towel-25753527848.html?pos=121&kwd=hooded baby blanket&tags=||||8741.812|Price|product|||TS|rsf:gd-|-stype:attr=1|qr_nm:gd|res:RC4|com-cf:nl|ptrs:na|ktp:N0|mc:99820|mtp:S|qry_typ:P|lang:en|wc:3|cs:8845|v=4,TrendBell Global,https://www.trendbellglobal.in/?pos=121&kwd=hooded baby blanket&tags=||||8741.812|Price|product|||TS|rsf:gd-|-stype:attr=1|qr_nm:gd|res:RC4|com-cf:nl|ptrs:na|ktp:N0|mc:99820|mtp:S|qry_typ:P|lang:en|wc:3|cs:8845|v=4,True,Sector 57,Gurgaon,"Sector - 56, Sector 57, Gurgaon - 122011, Dist.Gurgaon, Haryana",8046063207,
Cotton Blue Hooded Baby Blanket,https://www.indiamart.com/proddetail/hooded-baby-blanket-2854072331955.html?pos=122&kwd=hooded baby blanket&tags=||||8752.144||product|||MDC|rsf:gd-|-stype:attr=1|qr_nm:gd|res:RC4|com-cf:nl|ptrs:na|ktp:N0|mc:99820|mtp:S|qry_typ:P|lang:en|wc:3|cs:8845|v=4,Prince And Princess,https://www.indiamart.com/prince-princess-delhi/?pos=122&kwd=hooded baby blanket&tags=||||8752.144||product|||MDC|rsf:gd-|-stype:attr=1|qr_nm:gd|res:RC4|com-cf:nl|ptrs:na|ktp:N0|mc:99820|mtp:S|qry_typ:P|lang:en|wc:3|cs:8845|v=4,False,Gulabi Bagh,New Delhi,"Ground Floor, Garage No - 74, Gulabi Bagh Road,, Gulabi Bagh, New Delhi - 110007, Dist.Delhi, Delhi",8047629125,
Cotton Hooded Baby wrap,https://www.indiamart.com/proddetail/hooded-baby-wrap-2849120954962.html?pos=123&kwd=hooded baby blanket&tags=||||8747.203|Price|product|||TS|rsf:gd-|-stype:attr=1|qr_nm:gd|res:RC4|com-cf:nl|ptrs:na|ktp:N0|mc:99820|mtp:S|qry_typ:P|lang:en|wc:3|cs:8845|v=4,Shiv Textiles,https://www.indiamart.com/shivtextilespanipat/?pos=123&kwd=hooded baby blanket&tags=||||8747.203|Price|product|||TS|rsf:gd-|-stype:attr=1|qr_nm:gd|res:RC4|com-cf:nl|ptrs:na|ktp:N0|mc:99820|mtp:S|qry_typ:P|lang:en|wc:3|cs:8845|v=4,False,Jagjivan Ram Colony,Panipat,"Shop No.19-C, Aggarwal Gali Number 1, Gohana Road, Jagjivan Ram Colony, Panipat - 132103, Dist.Panipat, Haryana",7942665530,
Pink Cotton Baby Hooded Towels,https://www.indiamart.com/proddetail/cotton-baby-hooded-towels-24733791388.html?pos=124&kwd=hooded baby blanket&tags=||||8752.144|Price|product|||TS|rsf:gd-|-stype:attr=1|qr_nm:gd|res:RC4|com-cf:nl|ptrs:na|ktp:N0|mc:99820|mtp:S|qry_typ:P|lang:en|wc:3|cs:8845|v=4,Swastik Enterprises,https://www.indiamart.com/swastikentpndelhi/?pos=124&kwd=hooded baby blanket&tags=||||8752.144|Price|product|||TS|rsf:gd-|-stype:attr=1|qr_nm:gd|res:RC4|com-cf:nl|ptrs:na|ktp:N0|mc:99820|mtp:S|qry_typ:P|lang:en|wc:3|cs:8845|v=4,False,Shastri Nagar,New Delhi,"M 29, Shastri Nagar, Street No. 1, Shastri Nagar, New Delhi - 110052, Dist.Delhi, Delhi",8048607766,
Plain Baby Bamboo hooded Towels / Wrap,https://www.indiamart.com/proddetail/baby-bamboo-hooded-towels-wrap-27432085955.html?pos=125&kwd=hooded baby blanket&tags=||||8387.344|Price|product|||TS|rsf:gd-|-stype:attr=1|qr_nm:gd|res:RC4|com-cf:nl|ptrs:na|ktp:N0|mc:99820|mtp:S|qry_typ:P|lang:en|wc:3|cs:8845|v=4,Gokak Textiles Limited,https://www.indiamart.com/gokak-textiles/?pos=125&kwd=hooded baby blanket&tags=||||8387.344|Price|product|||TS|rsf:gd-|-stype:attr=1|qr_nm:gd|res:RC4|com-cf:nl|ptrs:na|ktp:N0|mc:99820|mtp:S|qry_typ:P|lang:en|wc:3|cs:8845|v=4,False,Gokak Falls,Gokak,"Gokak Falls, Gokak, 591, 308, Gokak Falls, Gokak - 591308, Dist.Belgaum, Karnataka",8047644154,
"Wrapping Printed Baby Hooded Wrapper, Newly Born, Size: Small",https://www.indiamart.com/proddetail/baby-hooded-wrapper-2853905627762.html?pos=126&kwd=hooded baby blanket&tags=||||8226.563|Price|product|||MDC|rsf:gd-|-stype:attr=1|qr_nm:gd|res:RC4|com-cf:nl|ptrs:na|ktp:N0|mc:99820|mtp:S|qry_typ:P|lang:en|wc:3|cs:8845|v=4,Vanbon Clothing Co.,https://www.indiamart.com/vanbon-clothing-co/?pos=126&kwd=hooded baby blanket&tags=||||8226.563|Price|product|||MDC|rsf:gd-|-stype:attr=1|qr_nm:gd|res:RC4|com-cf:nl|ptrs:na|ktp:N0|mc:99820|mtp:S|qry_typ:P|lang:en|wc:3|cs:8845|v=4,False,Vashi (Thane),Navi Mumbai,"1st Floor Ofice No.16, Plot No.73, D Wing Vallabh Bhai Patel Marg, Vashi (Thane), Navi Mumbai - 400703, Dist.Thane, Maharashtra",8044012603,
"White Muslin Baby Blanket, Size: Double",https://www.indiamart.com/proddetail/muslin-baby-blanket-2852594380133.html?pos=127&kwd=hooded baby blanket&tags=||||8954.051|Price|product|||TS|rsf:gd-|-stype:attr=1|qr_nm:gd|res:RC4|com-cf:nl|ptrs:na|ktp:N0|mc:99820|mtp:S|qry_typ:P|lang:en|wc:3|cs:8845|v=4,Tetra Clothing,https://www.tetraclothing.in/?pos=127&kwd=hooded baby blanket&tags=||||8954.051|Price|product|||TS|rsf:gd-|-stype:attr=1|qr_nm:gd|res:RC4|com-cf:nl|ptrs:na|ktp:N0|mc:99820|mtp:S|qry_typ:P|lang:en|wc:3|cs:8845|v=4,True,Gopichettipalaiyam,Chennai,"No. 59/28, Balu Building, Gopichettipalaiyam, Chennai - 638476, Dist.Chennai, Tamil Nadu",8048957951,
Cotton Hooded Baby wrap,https://www.indiamart.com/proddetail/hooded-baby-wrap-2849120954962.html?pos=128&kwd=hooded baby blanket&tags=||||8747.203|Price|product|||TS|rsf:gd-|-stype:attr=1|qr_nm:gd|res:RC4|com-cf:nl|ptrs:na|ktp:N0|mc:99820|mtp:S|qry_typ:P|lang:en|wc:3|cs:8845|v=4,Shiv Textiles,https://www.indiamart.com/shivtextilespanipat/?pos=128&kwd=hooded baby blanket&tags=||||8747.203|Price|product|||TS|rsf:gd-|-stype:attr=1|qr_nm:gd|res:RC4|com-cf:nl|ptrs:na|ktp:N0|mc:99820|mtp:S|qry_typ:P|lang:en|wc:3|cs:8845|v=4,False,Jagjivan Ram Colony,Panipat,"Shop No.19-C, Aggarwal Gali Number 1, Gohana Road, Jagjivan Ram Colony, Panipat - 132103, Dist.Panipat, Haryana",7942665530,
Pink Cotton Baby Hooded Towels,https://www.indiamart.com/proddetail/cotton-baby-hooded-towels-24733791388.html?pos=129&kwd=hooded baby blanket&tags=||||8752.144|Price|product|||TS|rsf:gd-|-stype:attr=1|qr_nm:gd|res:RC4|com-cf:nl|ptrs:na|ktp:N0|mc:99820|mtp:S|qry_typ:P|lang:en|wc:3|cs:8845|v=4,Swastik Enterprises,https://www.indiamart.com/swastikentpndelhi/?pos=129&kwd=hooded baby blanket&tags=||||8752.144|Price|product|||TS|rsf:gd-|-stype:attr=1|qr_nm:gd|res:RC4|com-cf:nl|ptrs:na|ktp:N0|mc:99820|mtp:S|qry_typ:P|lang:en|wc:3|cs:8845|v=4,False,Shastri Nagar,New Delhi,"M 29, Shastri Nagar, Street No. 1, Shastri Nagar, New Delhi - 110052, Dist.Delhi, Delhi",8048607766,
"Wrapping Printed Baby Hooded Wrapper, Newly Born, Size: Small",https://www.indiamart.com/proddetail/baby-hooded-wrapper-2853905627762.html?pos=130&kwd=hooded baby blanket&tags=||||8226.563|Price|product|||MDC|rsf:gd-|-stype:attr=1|qr_nm:gd|res:RC4|com-cf:nl|ptrs:na|ktp:N0|mc:99820|mtp:S|qry_typ:P|lang:en|wc:3|cs:8845|v=4,Vanbon Clothing Co.,https://www.indiamart.com/vanbon-clothing-co/?pos=130&kwd=hooded baby blanket&tags=||||8226.563|Price|product|||MDC|rsf:gd-|-stype:attr=1|qr_nm:gd|res:RC4|com-cf:nl|ptrs:na|ktp:N0|mc:99820|mtp:S|qry_typ:P|lang:en|wc:3|cs:8845|v=4,False,Vashi (Thane),Navi Mumbai,"1st Floor Ofice No.16, Plot No.73, D Wing Vallabh Bhai Patel Marg, Vashi (Thane), Navi Mumbai - 400703, Dist.Thane, Maharashtra",8044012603,
"Polyester Baby Hooded Wrapper, Size: Medium",https://www.indiamart.com/proddetail/baby-hooded-wrapper-2853665305362.html?pos=131&kwd=hooded baby blanket&tags=||||8752.144|Price|product|||MDC|rsf:gd-|-stype:attr=1|qr_nm:gd|res:RC4|com-cf:nl|ptrs:na|ktp:N0|mc:99820|mtp:S|qry_typ:P|lang:en|wc:3|cs:8845|v=4,S.N. Enterprises,https://www.indiamart.com/sn-enterprisesnew-delhi/?pos=131&kwd=hooded baby blanket&tags=||||8752.144|Price|product|||MDC|rsf:gd-|-stype:attr=1|qr_nm:gd|res:RC4|com-cf:nl|ptrs:na|ktp:N0|mc:99820|mtp:S|qry_typ:P|lang:en|wc:3|cs:8845|v=4,False,Daryaganj,New Delhi,"Shop No. 16, Sabharwal Market, Sabharwal Lane, Sadar Bazar, North, Daryaganj, New Delhi - 110006, Dist.Delhi, Delhi",8045166377,
Baby Printed Hooded Towel,https://www.indiamart.com/proddetail/baby-printed-hooded-towel-2853420270255.html?pos=132&kwd=hooded baby blanket&tags=||||8752.144|Price|product|||TS|rsf:gd-|-stype:attr=1|qr_nm:gd|res:RC4|com-cf:nl|ptrs:na|ktp:N0|mc:99820|mtp:S|qry_typ:P|lang:en|wc:3|cs:8845|v=4,Dua Traders,https://www.indiamart.com/duatraders-delhi/?pos=132&kwd=hooded baby blanket&tags=||||8752.144|Price|product|||TS|rsf:gd-|-stype:attr=1|qr_nm:gd|res:RC4|com-cf:nl|ptrs:na|ktp:N0|mc:99820|mtp:S|qry_typ:P|lang:en|wc:3|cs:8845|v=4,False,Mandoli,New Delhi,"Plot No. 8, Kh No. 4/24, Mela Ram Vatika, E-block, JR Complex No. 4, Mandoli, Sevadham, Mandoli, New Delhi - 110093, Dist.Delhi, Delhi",8048971741,
"3 in 1 Baby Bed, Sleeping Bag & Carry Nest, Cotton Baby Bedding Unisex Baby Sleeping Bed",https://www.indiamart.com/proddetail/3-in-1-baby-bed-sleeping-bag-carry-nest-cotton-baby-bedding-unisex-baby-sleeping-bed-2852997028091.html?pos=133&kwd=hooded baby blanket&tags=||||9842.824|Price|product|||TS|rsf:gd-|-stype:attr=1|qr_nm:gd|res:RC4|com-cf:nl|ptrs:na|ktp:N0|mc:99820|mtp:S|qry_typ:P|lang:en|wc:3|cs:8845|v=4,Indilittle Global Export,https://www.indiamart.com/indilittleglobalexport/?pos=133&kwd=hooded baby blanket&tags=||||9842.824|Price|product|||TS|rsf:gd-|-stype:attr=1|qr_nm:gd|res:RC4|com-cf:nl|ptrs:na|ktp:N0|mc:99820|mtp:S|qry_typ:P|lang:en|wc:3|cs:8845|v=4,False,Haripal,Hooghly,"BRAHMANPARA, NALIKUL PASCHIM, HARIPAL, Haripal, Hooghly - 712405, Dist.Hooghly, West Bengal",8048977919,
Printed Size: Single Organic Muslin Swaddles 100-100cms,https://www.indiamart.com/proddetail/muslin-printed-baby-blanket-2848990627133.html?pos=134&kwd=hooded baby blanket&tags=||||8626.744|Price|product|||MDC|rsf:gd-|-stype:attr=1|qr_nm:gd|res:RC4|com-cf:nl|ptrs:na|ktp:N0|mc:99820|mtp:S|qry_typ:P|lang:en|wc:3|cs:8845|v=4,Bawse Baby,https://www.indiamart.com/bawseebaby/?pos=134&kwd=hooded baby blanket&tags=||||8626.744|Price|product|||MDC|rsf:gd-|-stype:attr=1|qr_nm:gd|res:RC4|com-cf:nl|ptrs:na|ktp:N0|mc:99820|mtp:S|qry_typ:P|lang:en|wc:3|cs:8845|v=4,False,,Tiruppur,"1/125A Semmetuth Thottam, Kulathuputhur, Andipalayam, Tiruppur - 641687, Dist.Coimbatore, Tamil Nadu",8047552265,
Red Soft Flannel Baby Wrapper With Hood,https://www.indiamart.com/proddetail/baby-wrapper-with-hood-22458403355.html?pos=135&kwd=hooded baby blanket&tags=||||8876.815|Price|product|||TS|rsf:gd-|-stype:attr=1|qr_nm:gd|res:RC4|com-cf:nl|ptrs:na|ktp:N0|mc:99820|mtp:S|qry_typ:P|lang:en|wc:3|cs:8845|v=4,Sakar Fair Trade Incorporated,https://www.indiamart.com/sakarfair-trade-incorporated/?pos=135&kwd=hooded baby blanket&tags=||||8876.815|Price|product|||TS|rsf:gd-|-stype:attr=1|qr_nm:gd|res:RC4|com-cf:nl|ptrs:na|ktp:N0|mc:99820|mtp:S|qry_typ:P|lang:en|wc:3|cs:8845|v=4,False,Wadi,Nagpur,"Ground floor, Shop No. 22, 8A, Laxmi Vaibhav, Laxmi Nagar Chowk, Wadi, Nagpur - 440010, Dist.Nagpur, Maharashtra",7942541012,
"Cotton Multicolor Baby Wrapper With Hood, Size: Medium",https://www.indiamart.com/proddetail/baby-wrapper-with-hood-2854220731288.html?pos=136&kwd=hooded baby blanket&tags=||||8230.883|Price|product|||TS|rsf:gd-|-stype:attr=1|qr_nm:gd|res:RC4|com-cf:nl|ptrs:na|ktp:N0|mc:99820|mtp:S|qry_typ:P|lang:en|wc:3|cs:8845|v=4,BABYHOLIC,https://www.babyholic.in/?pos=136&kwd=hooded baby blanket&tags=||||8230.883|Price|product|||TS|rsf:gd-|-stype:attr=1|qr_nm:gd|res:RC4|com-cf:nl|ptrs:na|ktp:N0|mc:99820|mtp:S|qry_typ:P|lang:en|wc:3|cs:8845|v=4,False,,Surat,"Ground Floor, Plot No. F/56/, And F/57, Laxmi Narayan Industrial Estate, Udhana, Kailash Fashion, Surat - 394210, Dist.Surat, Gujarat",8045732096,
Printed Baby Blanket,,RR Creations,https://www.rrcreation.co.in/?pos=137&kwd=hooded baby blanket&tags=||||8601.347|Price|product|||TS|rsf:gd-|-stype:attr=1|qr_nm:gd|res:RC4|com-cf:nl|ptrs:na|ktp:N0|mc:99820|mtp:S|qry_typ:P|lang:en|wc:3|cs:8845|v=4,False,Raghunathgarh,Jaipur,"A7D, Raghunath Colony, Galta Gate, Raghunathgarh, Jaipur - 302003, Dist.Jaipur, Rajasthan",8047620731,
"Voile Multicolor Manufacturer of Handblock Printed Baby Quilts, Size: 40""x60""/60""x90""",https://www.indiamart.com/proddetail/manufacturer-of-handblock-printed-baby-quilts-2850761678862.html?pos=138&kwd=hooded baby blanket&tags=||||8601.347|Price|product|||TS|rsf:gd-|-stype:attr=1|qr_nm:gd|res:RC4|com-cf:nl|ptrs:na|ktp:N0|mc:99820|mtp:S|qry_typ:P|lang:en|wc:3|cs:8845|v=4,Indus Art And Emporium,https://www.indusart.in/?pos=138&kwd=hooded baby blanket&tags=||||8601.347|Price|product|||TS|rsf:gd-|-stype:attr=1|qr_nm:gd|res:RC4|com-cf:nl|ptrs:na|ktp:N0|mc:99820|mtp:S|qry_typ:P|lang:en|wc:3|cs:8845|v=4,True,Mansarovar,Jaipur,"H/3, First Floor, RIICO Industrial Area, Mansarovar, Jaipur - 302020, Dist.Jaipur, Rajasthan",8048956816,
White Size: Single 3 layered 100% cotton muslin baby blanket,https://www.indiamart.com/proddetail/3-layered-100-cotton-muslin-baby-blanket-2854613184112.html?pos=139&kwd=hooded baby blanket&tags=||||8211.142|Price|product|||TS|rsf:gd-|-stype:attr=1|qr_nm:gd|res:RC4|com-cf:nl|ptrs:na|ktp:N0|mc:99820|mtp:S|qry_typ:P|lang:en|wc:3|cs:8845|v=4,Sidhshlok Enterprises,https://www.indiamart.com/sidhshlokenterprises/?pos=139&kwd=hooded baby blanket&tags=||||8211.142|Price|product|||TS|rsf:gd-|-stype:attr=1|qr_nm:gd|res:RC4|com-cf:nl|ptrs:na|ktp:N0|mc:99820|mtp:S|qry_typ:P|lang:en|wc:3|cs:8845|v=4,False,Mulund West,Mumbai,"A-9, Chagpar Khimaji, R R T Road, Mumbai Suburban, Mulund West, Mumbai - 400080, Dist.Mumbai, Maharashtra",7942832648,
"Cotton Multicolor Baby Soft Flannel Blankets set, Size/Dimension: Large, 750 Gm",https://www.indiamart.com/proddetail/baby-soft-flannel-blankets-set-22496604473.html?pos=140&kwd=hooded baby blanket&tags=||||8307.81|Price|product|||TS|rsf:gd-|-stype:attr=1|qr_nm:gd|res:RC4|com-cf:nl|ptrs:na|ktp:N0|mc:99820|mtp:S|qry_typ:P|lang:en|wc:3|cs:8845|v=4,Lazytoddler Solutions Private Limited,https://www.indiamart.com/lazytoddler-solutions/?pos=140&kwd=hooded baby blanket&tags=||||8307.81|Price|product|||TS|rsf:gd-|-stype:attr=1|qr_nm:gd|res:RC4|com-cf:nl|ptrs:na|ktp:N0|mc:99820|mtp:S|qry_typ:P|lang:en|wc:3|cs:8845|v=4,False,Wakad,Pune,"A2-1001, Fl-A1, Behind Madhuban Hotel, S.No-40, Armada Parkhe Wasti, Wakad, Wakad, Pune - 411057, Dist.Pune, Maharashtra",8043819563,
White (Base) Cotton Muslin Swaddle Blanket,https://www.indiamart.com/proddetail/cotton-muslin-swaddle-blanket-23904997948.html?pos=141&kwd=hooded baby blanket&tags=||||8231.259|Price|product|||MDC|rsf:gd-|-stype:attr=1|qr_nm:gd|res:RC4|com-cf:nl|ptrs:na|ktp:N0|mc:99820|mtp:S|qry_typ:P|lang:en|wc:3|cs:8845|v=4,Hemp Ecotex,https://www.indiamart.com/hempecotex/?pos=141&kwd=hooded baby blanket&tags=||||8231.259|Price|product|||MDC|rsf:gd-|-stype:attr=1|qr_nm:gd|res:RC4|com-cf:nl|ptrs:na|ktp:N0|mc:99820|mtp:S|qry_typ:P|lang:en|wc:3|cs:8845|v=4,False,Val,Bhiwandi,"1st Floor, H. No 1661/12 Gala No 106, BL-K, Dharam Complex, Phase-I, Rahnal Village, Val, Bhiwandi - 421302, Maharashtra",7949092530,
"Cloth Orange Baby Carry Bag, Age Group: 1-2 Years, Packaging Type: Transparent",https://www.indiamart.com/proddetail/baby-carry-bag-2851743097562.html?pos=142&kwd=hooded baby blanket&tags=||||8783.355|Price|product|||MDC|rsf:gd-|-stype:attr=1|qr_nm:gd|res:RC4|com-cf:nl|ptrs:na|ktp:N0|mc:99820|mtp:S|qry_typ:P|lang:en|wc:3|cs:8845|v=4,Om Shiv International,https://www.indiamart.com/omshivinternational/?pos=142&kwd=hooded baby blanket&tags=||||8783.355|Price|product|||MDC|rsf:gd-|-stype:attr=1|qr_nm:gd|res:RC4|com-cf:nl|ptrs:na|ktp:N0|mc:99820|mtp:S|qry_typ:P|lang:en|wc:3|cs:8845|v=4,False,Baghpat,Aminagar Sarai,"170, Gauspur, Baghpat, Baghpat, Aminagar Sarai - 250606, Dist.Bagpat, Uttar Pradesh",8048616452,
Printed Fabric: Microfiber BABY HOOD BATH TOWELS,https://www.indiamart.com/proddetail/baby-hood-bath-towels-2854217519862.html?pos=143&kwd=hooded baby blanket&tags=||||8228.275|Price|product|||TS|rsf:gd-|-stype:attr=1|qr_nm:gd|res:RC4|com-cf:nl|ptrs:na|ktp:N0|mc:99820|mtp:S|qry_typ:P|lang:en|wc:3|cs:8845|v=4,King Enterprise,https://www.kingenterpriseindia.com/?pos=143&kwd=hooded baby blanket&tags=||||8228.275|Price|product|||TS|rsf:gd-|-stype:attr=1|qr_nm:gd|res:RC4|com-cf:nl|ptrs:na|ktp:N0|mc:99820|mtp:S|qry_typ:P|lang:en|wc:3|cs:8845|v=4,False,Opp. Haripura Bus Stand,Ahmedabad,"Block- E 28, Ground Floor, Abhishek Estate-1, Opp. Haripura Bus Stand, Ahmedabad - 380016, Dist.Ahmedabad, Gujarat",8047632934,
Cotton Bath Towel,,Mahi Hosiery,https://www.indiamart.com/mahi-hosierydelhi/?pos=144&kwd=hooded baby blanket&tags=||||8752.144|Price|product|||MDC|rsf:gd-|-stype:attr=1|qr_nm:gd|res:RC4|com-cf:nl|ptrs:na|ktp:N0|mc:99820|mtp:S|qry_typ:P|lang:en|wc:3|cs:8845|v=4,False,Shastri Nagar,New Delhi,"144, Second Floor, Gali No-5, New Main Road, New Lahore Colony, Shastri Nagar, Shastri Nagar, New Delhi - 110031, Dist.Delhi, Delhi",8047699176,
"Printed White Baby Hooded Towel, For Kids",https://www.indiamart.com/proddetail/baby-hooded-towel-2852332983330.html?pos=145&kwd=hooded baby blanket&tags=||||8747.203|Price|product|||TS|rsf:gd-|-stype:attr=1|qr_nm:gd|res:RC4|com-cf:nl|ptrs:na|ktp:N0|mc:99820|mtp:S|qry_typ:P|lang:en|wc:3|cs:8845|v=4,Jm International,https://www.jminternationalpvt.com/?pos=145&kwd=hooded baby blanket&tags=||||8747.203|Price|product|||TS|rsf:gd-|-stype:attr=1|qr_nm:gd|res:RC4|com-cf:nl|ptrs:na|ktp:N0|mc:99820|mtp:S|qry_typ:P|lang:en|wc:3|cs:8845|v=4,False,Ekta Vihar,Panipat,"Ground Floor Plot No 1743 Sec 24 Huda, Ekta Vihar, Panipat - 132103, Dist.Panipat, Haryana",8045910638,
"RJ Enterprise MULTY Baby Bed, Sleeping Bag & Carry Nest, Cotton Baby Bedding, Packaging Type: Box, 0-2 YEAR",https://www.indiamart.com/proddetail/baby-bed-sleeping-bag-carry-nest-cotton-baby-bedding-2851723659591.html?pos=146&kwd=hooded baby blanket&tags=||||8230.883|Price|product|||TS|rsf:gd-|-stype:attr=1|qr_nm:gd|res:RC4|com-cf:nl|ptrs:na|ktp:N0|mc:99820|mtp:S|qry_typ:P|lang:en|wc:3|cs:8845|v=4,RJ Enterprise,https://www.indiamart.com/rj-enterprise-surat/?pos=146&kwd=hooded baby blanket&tags=||||8230.883|Price|product|||TS|rsf:gd-|-stype:attr=1|qr_nm:gd|res:RC4|com-cf:nl|ptrs:na|ktp:N0|mc:99820|mtp:S|qry_typ:P|lang:en|wc:3|cs:8845|v=4,False,Katargam,Surat,"134, Sahjanand Society, N/R Arogyakendra, Katargam, Katargam, Surat - 395004, Dist.Surat, Gujarat",7942555306,
Baby Blanket Manufactures,https://www.indiamart.com/proddetail/baby-blanket-manufactures-2854173527491.html?pos=147&kwd=hooded baby blanket&tags=||||8747.203||product|||TS|rsf:gd-|-stype:attr=1|qr_nm:gd|res:RC4|com-cf:nl|ptrs:na|ktp:N0|mc:99820|mtp:S|qry_typ:P|lang:en|wc:3|cs:8845|v=4,Krishna Texo Fab,https://www.indiamart.com/krishna-texo-fab/?pos=147&kwd=hooded baby blanket&tags=||||8747.203||product|||TS|rsf:gd-|-stype:attr=1|qr_nm:gd|res:RC4|com-cf:nl|ptrs:na|ktp:N0|mc:99820|mtp:S|qry_typ:P|lang:en|wc:3|cs:8845|v=4,False,Old Housing Board Colony,Panipat,"1091/3 Pachranga Bazar, Old Housing Board Colony, Panipat - 132103, Dist.Panipat, Haryana",8048960024,
Red Fleece Kids Blanket,https://www.indiamart.com/proddetail/fleece-kids-blanket-23885551988.html?pos=148&kwd=hooded baby blanket&tags=||||8752.144|Price|product|||TS|rsf:gd-|-stype:attr=1|qr_nm:gd|res:RC4|com-cf:nl|ptrs:na|ktp:N0|mc:99820|mtp:S|qry_typ:P|lang:en|wc:3|cs:8845|v=4,Krishna Handloom,https://www.krishnahandloom.co.in/?pos=148&kwd=hooded baby blanket&tags=||||8752.144|Price|product|||TS|rsf:gd-|-stype:attr=1|qr_nm:gd|res:RC4|com-cf:nl|ptrs:na|ktp:N0|mc:99820|mtp:S|qry_typ:P|lang:en|wc:3|cs:8845|v=4,False,Tilak Nagar,New Delhi,"First Floor, 54/9, Ashok Nagar Opposite Jankie Vaishno Dhaba, Tilak Nagar, New Delhi - 110018, Dist.Delhi, Delhi",8048982699,
"Pink Cotton Baby Sleeping bag, 3-12 Months",https://www.indiamart.com/proddetail/baby-sleeping-bag-2851102122262.html?pos=149&kwd=hooded baby blanket&tags=||||8752.144|Price|product|||TS|rsf:gd-|-stype:attr=1|qr_nm:gd|res:RC4|com-cf:nl|ptrs:na|ktp:N0|mc:99820|mtp:S|qry_typ:P|lang:en|wc:3|cs:8845|v=4,National Overseas,https://www.indiamart.com/nationaltraders-vishwashnagar/?pos=149&kwd=hooded baby blanket&tags=||||8752.144|Price|product|||TS|rsf:gd-|-stype:attr=1|qr_nm:gd|res:RC4|com-cf:nl|ptrs:na|ktp:N0|mc:99820|mtp:S|qry_typ:P|lang:en|wc:3|cs:8845|v=4,False,Shahdara,New Delhi,"1/99, Gali No. 3, Vishwas Nagar, Shahdara, New Delhi - 110032, Dist.Delhi, Delhi",8046047673,
White Plain Muslin Swaddle Blankets,https://www.indiamart.com/proddetail/muslin-swaddle-blankets-2854117916091.html?pos=150&kwd=hooded baby blanket&tags=||||8706.263|Price|product|||TS|rsf:gd-|-stype:attr=1|qr_nm:gd|res:RC4|com-cf:nl|ptrs:na|ktp:N0|mc:99820|mtp:S|qry_typ:P|lang:en|wc:3|cs:8845|v=4,P.R.Cottons,https://www.indiamart.com/prcottons/?pos=150&kwd=hooded baby blanket&tags=||||8706.263|Price|product|||TS|rsf:gd-|-stype:attr=1|qr_nm:gd|res:RC4|com-cf:nl|ptrs:na|ktp:N0|mc:99820|mtp:S|qry_typ:P|lang:en|wc:3|cs:8845|v=4,True,Near,Karur,"Ground Floor Room No.1, Door No.79/1, Vaiyapurinagar Ist Cross, Near, Karur - 639002, Dist.Karur, Tamil Nadu",8048608767,
Cotton Multicolor Hand Block Baby Blanket,https://www.indiamart.com/proddetail/hand-block-baby-blanket-26438743348.html?pos=151&kwd=hooded baby blanket&tags=||||8601.347|Price|product|||TS|rsf:gd-|-stype:attr=1|qr_nm:gd|res:RC4|com-cf:nl|ptrs:na|ktp:N0|mc:99820|mtp:S|qry_typ:P|lang:en|wc:3|cs:8845|v=4,Veer Handircrafts,https://www.veerhandicrafts.com/?pos=151&kwd=hooded baby blanket&tags=||||8601.347|Price|product|||TS|rsf:gd-|-stype:attr=1|qr_nm:gd|res:RC4|com-cf:nl|ptrs:na|ktp:N0|mc:99820|mtp:S|qry_typ:P|lang:en|wc:3|cs:8845|v=4,True,Shyam Nagar,Jaipur,"Basement, 192/331, Sector 19, Kumbha Marg, Shyam Nagar, Jaipur - 302029, Dist.Jaipur, Rajasthan",8043851762,
"Pink Cotton Baby sleeping bag, Packaging Type: Plastic cover, Newly Born",https://www.indiamart.com/proddetail/baby-sleeping-bag-2849605699691.html?pos=152&kwd=hooded baby blanket&tags=||||8954.051|Price|product|||MDC|rsf:gd-|-stype:attr=1|qr_nm:gd|res:RC4|com-cf:nl|ptrs:na|ktp:N0|mc:99820|mtp:S|qry_typ:P|lang:en|wc:3|cs:8845|v=4,Adhoniyah,https://www.indiamart.com/adhoniyah/?pos=152&kwd=hooded baby blanket&tags=||||8954.051|Price|product|||MDC|rsf:gd-|-stype:attr=1|qr_nm:gd|res:RC4|com-cf:nl|ptrs:na|ktp:N0|mc:99820|mtp:S|qry_typ:P|lang:en|wc:3|cs:8845|v=4,False,Jamalia,Chennai,"Ground Floor,5/4,Strahans Road I St Street,Otteri, Jamalia, Chennai - 600012, Dist.Chennai, Tamil Nadu",8048274134,
Polyester Size: Single Baby Blanket,https://www.indiamart.com/proddetail/baby-blanket-2854864899273.html?pos=153&kwd=hooded baby blanket&tags=||||8747.203||product|||TS|rsf:gd-|-stype:attr=1|qr_nm:gd|res:RC4|com-cf:nl|ptrs:na|ktp:N0|mc:99820|mtp:S|qry_typ:P|lang:en|wc:3|cs:8845|v=4,Arihant Handloom Industries,https://www.indiamart.com/arihant-handloom-industries/?pos=153&kwd=hooded baby blanket&tags=||||8747.203||product|||TS|rsf:gd-|-stype:attr=1|qr_nm:gd|res:RC4|com-cf:nl|ptrs:na|ktp:N0|mc:99820|mtp:S|qry_typ:P|lang:en|wc:3|cs:8845|v=4,False,Old Housing Board Colony,Panipat,"Opposite R.K. Public School,Chawla Colony, Kutani Road,Panipat, Old Housing Board Colony, Panipat - 132103, Dist.Panipat, Haryana",7942784484,
Brown (Base) Baby Printed Hooded Towel,https://www.indiamart.com/proddetail/baby-printed-hooded-towel-2850650074433.html?pos=154&kwd=hooded baby blanket&tags=||||8752.144|Price|product|||MDC|rsf:gd-|-stype:attr=1|qr_nm:gd|res:RC4|com-cf:nl|ptrs:na|ktp:N0|mc:99820|mtp:S|qry_typ:P|lang:en|wc:3|cs:8845|v=4,L T Textiles,https://www.indiamart.com/lttextiles/?pos=154&kwd=hooded baby blanket&tags=||||8752.144|Price|product|||MDC|rsf:gd-|-stype:attr=1|qr_nm:gd|res:RC4|com-cf:nl|ptrs:na|ktp:N0|mc:99820|mtp:S|qry_typ:P|lang:en|wc:3|cs:8845|v=4,False,Pahari Dhiraj,New Delhi,"5189-90 Main Road, Sadar Bazar, Pahari Dhiraj, New Delhi - 110006, Dist.Delhi, Delhi",7942958455,
"Cotton Multicolor baby godri / new born baby razai / baby quilt / bedding for cot, Single Bed, Printed",https://www.indiamart.com/proddetail/new-born-baby-blanket-baby-quilt-bedding-for-cot-baby-godri-2853243927388.html?pos=155&kwd=hooded baby blanket&tags=||||8559.269|Price|product|||MDC|rsf:gd-|-stype:attr=1|qr_nm:gd|res:RC4|com-cf:nl|ptrs:na|ktp:N0|mc:99820|mtp:S|qry_typ:P|lang:en|wc:3|cs:8845|v=4,Sheza Enterprises,https://www.indiamart.com/shezaenterprises/?pos=155&kwd=hooded baby blanket&tags=||||8559.269|Price|product|||MDC|rsf:gd-|-stype:attr=1|qr_nm:gd|res:RC4|com-cf:nl|ptrs:na|ktp:N0|mc:99820|mtp:S|qry_typ:P|lang:en|wc:3|cs:8845|v=4,False,,Indore,"Alif House, 5, Khajrana Main Road, Opposite HP Petrol Pump,, Indore - 452001, Dist.Indore, Madhya Pradesh",7948547068,
"little monkeys jumbo size baby cotton mosquito net bed, For Home, Size: XL",https://www.indiamart.com/proddetail/little-monkeys-jumbo-size-baby-cotton-mosquito-net-bed-2851532198888.html?pos=156&kwd=hooded baby blanket&tags=||||8752.144|Price|product|||TS|rsf:gd-|-stype:attr=1|qr_nm:gd|res:RC4|com-cf:nl|ptrs:na|ktp:N0|mc:99820|mtp:S|qry_typ:P|lang:en|wc:3|cs:8845|v=4,Ekta Overseas,https://www.indiamart.com/ektaoverseas-newdelhi/?pos=156&kwd=hooded baby blanket&tags=||||8752.144|Price|product|||TS|rsf:gd-|-stype:attr=1|qr_nm:gd|res:RC4|com-cf:nl|ptrs:na|ktp:N0|mc:99820|mtp:S|qry_typ:P|lang:en|wc:3|cs:8845|v=4,False,Shahdara,New Delhi,"1/95, Gali No.3, Near Navjeevan Phisical Center, Vishwas Nagar, Shahdara,, Shahdara, New Delhi - 110032, Dist.Delhi, Delhi",7942628926,
Printed Multicolor Micro Kids Print Comforter,https://www.indiamart.com/proddetail/micro-kids-print-comforter-12299912491.html?pos=157&kwd=hooded baby blanket&tags=||||8601.347|Price|product|||TS|rsf:gd-|-stype:attr=1|qr_nm:gd|res:RC4|com-cf:nl|ptrs:na|ktp:N0|mc:99820|mtp:S|qry_typ:P|lang:en|wc:3|cs:8845|v=4,Vicky Garments,https://www.hotellinenmanufacturer.com/?pos=157&kwd=hooded baby blanket&tags=||||8601.347|Price|product|||TS|rsf:gd-|-stype:attr=1|qr_nm:gd|res:RC4|com-cf:nl|ptrs:na|ktp:N0|mc:99820|mtp:S|qry_typ:P|lang:en|wc:3|cs:8845|v=4,False,Jhotwara,Jaipur,"No. 82, Ganga Vihar Colony, Nagal Jaisa Bohra Dadi Ka Phatak, Jhotwara, Jaipur - 302012, Dist.Jaipur, Rajasthan",8046042378,
Printed Size: Single Organic Muslin Swaddles 100-100cms,https://www.indiamart.com/proddetail/muslin-printed-baby-blanket-2848990627133.html?pos=158&kwd=hooded baby blanket&tags=||||8626.744|Price|product|||MDC|rsf:gd-|-stype:attr=1|qr_nm:gd|res:RC4|com-cf:nl|ptrs:na|ktp:N0|mc:99820|mtp:S|qry_typ:P|lang:en|wc:3|cs:8845|v=4,Bawse Baby,https://www.indiamart.com/bawseebaby/?pos=158&kwd=hooded baby blanket&tags=||||8626.744|Price|product|||MDC|rsf:gd-|-stype:attr=1|qr_nm:gd|res:RC4|com-cf:nl|ptrs:na|ktp:N0|mc:99820|mtp:S|qry_typ:P|lang:en|wc:3|cs:8845|v=4,False,,Tiruppur,"1/125A Semmetuth Thottam, Kulathuputhur, Andipalayam, Tiruppur - 641687, Dist.Coimbatore, Tamil Nadu",8047552265,
Pink Cotton Baby Hooded Towels,https://www.indiamart.com/proddetail/cotton-baby-hooded-towels-24733791388.html?pos=159&kwd=hooded baby blanket&tags=||||8752.144|Price|product|||TS|rsf:gd-|-stype:attr=1|qr_nm:gd|res:RC4|com-cf:nl|ptrs:na|ktp:N0|mc:99820|mtp:S|qry_typ:P|lang:en|wc:3|cs:8845|v=4,Swastik Enterprises,https://www.indiamart.com/swastikentpndelhi/?pos=159&kwd=hooded baby blanket&tags=||||8752.144|Price|product|||TS|rsf:gd-|-stype:attr=1|qr_nm:gd|res:RC4|com-cf:nl|ptrs:na|ktp:N0|mc:99820|mtp:S|qry_typ:P|lang:en|wc:3|cs:8845|v=4,False,Shastri Nagar,New Delhi,"M 29, Shastri Nagar, Street No. 1, Shastri Nagar, New Delhi - 110052, Dist.Delhi, Delhi",8048607766,
"Cotton Pink Flannel Baby Blanket, Size: Singe",https://www.indiamart.com/proddetail/flannel-baby-blanket-2852593477333.html?pos=160&kwd=hooded baby blanket&tags=||||8747.203||product|||TS|rsf:gd-|-stype:attr=1|qr_nm:gd|res:RC4|com-cf:nl|ptrs:na|ktp:N0|mc:99820|mtp:S|qry_typ:P|lang:en|wc:3|cs:8845|v=4,Supercloudy Fashion World Private Limited,https://www.indiamart.com/supercloudyfashionworld/?pos=160&kwd=hooded baby blanket&tags=||||8747.203||product|||TS|rsf:gd-|-stype:attr=1|qr_nm:gd|res:RC4|com-cf:nl|ptrs:na|ktp:N0|mc:99820|mtp:S|qry_typ:P|lang:en|wc:3|cs:8845|v=4,False,Huda,Panipat,"Vpo Kurar, Near Jagmehar Hatchery, Huda, Panipat - 132103, Dist.Panipat, Haryana",8047303410,
"Yellow Print 100% Organic Cotton Baby Muslin Swaddles, Size: Singe",https://www.indiamart.com/proddetail/baby-muslin-swaddles-2854362104230.html?pos=161&kwd=hooded baby blanket&tags=||||8706.263|Price|product|||TS|rsf:gd-|-stype:attr=1|qr_nm:gd|res:RC4|com-cf:nl|ptrs:na|ktp:N0|mc:99820|mtp:S|qry_typ:P|lang:en|wc:3|cs:8845|v=4,Bowerbird Interios,https://www.organicfabricmanufacturer.com/?pos=161&kwd=hooded baby blanket&tags=||||8706.263|Price|product|||TS|rsf:gd-|-stype:attr=1|qr_nm:gd|res:RC4|com-cf:nl|ptrs:na|ktp:N0|mc:99820|mtp:S|qry_typ:P|lang:en|wc:3|cs:8845|v=4,False,Ramanujam Nagar,Karur,"1/137, Covai Road South, Ramanujam Nagar, Karur - 639002, Dist.Karur, Tamil Nadu",8048971552,
"Many Colour Available Printed Baby Wrap Blanket, 0-12 Months",https://www.indiamart.com/proddetail/baby-wrap-blanket-22683937473.html?pos=162&kwd=hooded baby blanket&tags=||||8752.144|Price|product|||TS|rsf:gd-|-stype:attr=1|qr_nm:gd|res:RC4|com-cf:nl|ptrs:na|ktp:N0|mc:99820|mtp:S|qry_typ:P|lang:en|wc:3|cs:8845|v=4,Shree Balaji Infant Wear,https://www.indiamart.com/chhotejanab/?pos=162&kwd=hooded baby blanket&tags=||||8752.144|Price|product|||TS|rsf:gd-|-stype:attr=1|qr_nm:gd|res:RC4|com-cf:nl|ptrs:na|ktp:N0|mc:99820|mtp:S|qry_typ:P|lang:en|wc:3|cs:8845|v=4,False,Pahari Dhiraj,New Delhi,"1583- 84, Hathi Khana, Aziz Ganj, Bahadur Garh Road, Pahari Dhiraj, New Delhi - 110006, Dist.Delhi, Delhi",8047639754,
Cotton Muslin baby Swaddle Blanket Printed with appropriate baby prints,https://www.indiamart.com/proddetail/cotton-muslin-baby-swaddle-blanket-printed-with-appropriate-baby-prints-2851877901212.html?pos=163&kwd=hooded baby blanket&tags=||||8668.838|Price|product|||TS|rsf:gd-|-stype:attr=1|qr_nm:gd|res:RC4|com-cf:nl|ptrs:na|ktp:N0|mc:99820|mtp:S|qry_typ:P|lang:en|wc:3|cs:8845|v=4,Manish Mills,https://www.manishmills.in/?pos=163&kwd=hooded baby blanket&tags=||||8668.838|Price|product|||TS|rsf:gd-|-stype:attr=1|qr_nm:gd|res:RC4|com-cf:nl|ptrs:na|ktp:N0|mc:99820|mtp:S|qry_typ:P|lang:en|wc:3|cs:8845|v=4,False,Erode Fort,Erode,"Suki Towers, No. 261, Easwaran Koil Street, Erode Fort, Erode - 638001, Dist.Erode, Tamil Nadu",8048961063,
Multicolor Organic Cotton Baby Muslin Swaddle,https://www.indiamart.com/proddetail/organic-cotton-baby-muslin-swaddle-2852060049430.html?pos=164&kwd=hooded baby blanket&tags=||||8706.263|Price|product|||TS|rsf:gd-|-stype:attr=1|qr_nm:gd|res:RC4|com-cf:nl|ptrs:na|ktp:N0|mc:99820|mtp:S|qry_typ:P|lang:en|wc:3|cs:8845|v=4,Taruna Tex,https://www.indiamart.com/taruna-tex-karur/?pos=164&kwd=hooded baby blanket&tags=||||8706.263|Price|product|||TS|rsf:gd-|-stype:attr=1|qr_nm:gd|res:RC4|com-cf:nl|ptrs:na|ktp:N0|mc:99820|mtp:S|qry_typ:P|lang:en|wc:3|cs:8845|v=4,True,Veluswamypuram,Karur,"137, Nanthavana Street, Velusamypuram IV Cross, Andankoil West, Veluswamypuram, Karur - 639002, Dist.Karur, Tamil Nadu",7942874999,
Baby Hooded Towel,https://www.indiamart.com/proddetail/baby-hooded-towel-2852734788397.html?pos=165&kwd=hooded baby blanket&tags=||||8668.838|Price|product|||TS|rsf:gd-|-stype:attr=1|qr_nm:gd|res:RC4|com-cf:nl|ptrs:na|ktp:N0|mc:99820|mtp:S|qry_typ:P|lang:en|wc:3|cs:8845|v=4,Meenu's Manchesters,https://www.hotelbedsheet.in/?pos=165&kwd=hooded baby blanket&tags=||||8668.838|Price|product|||TS|rsf:gd-|-stype:attr=1|qr_nm:gd|res:RC4|com-cf:nl|ptrs:na|ktp:N0|mc:99820|mtp:S|qry_typ:P|lang:en|wc:3|cs:8845|v=4,False,Edayankattuvalsu,Erode,"26, Nggo Colony, 1, Edayankattuvalsu, Erode - 638009, Dist.Erode, Tamil Nadu",8048609221,
"Woolen Baby Blankets, Size: Singe",https://www.indiamart.com/proddetail/baby-blankets-2853118109597.html?pos=166&kwd=hooded baby blanket&tags=||||8747.203|Price|product|||TS|rsf:gd-|-stype:attr=1|qr_nm:gd|res:RC4|com-cf:nl|ptrs:na|ktp:N0|mc:99820|mtp:S|qry_typ:P|lang:en|wc:3|cs:8845|v=4,Navya Enterprises,https://www.enterprisesnavya.com/?pos=166&kwd=hooded baby blanket&tags=||||8747.203|Price|product|||TS|rsf:gd-|-stype:attr=1|qr_nm:gd|res:RC4|com-cf:nl|ptrs:na|ktp:N0|mc:99820|mtp:S|qry_typ:P|lang:en|wc:3|cs:8845|v=4,False,Chadau Mohalla,Panipat,"H No.809, Purewal Colony, Chadau Mohalla, Panipat - 132103, Dist.Panipat, Haryana",8048968729,
Printed Baby Blanket,,RR Creations,https://www.rrcreation.co.in/?pos=167&kwd=hooded baby blanket&tags=||||8601.347|Price|product|||TS|rsf:gd-|-stype:attr=1|qr_nm:gd|res:RC4|com-cf:nl|ptrs:na|ktp:N0|mc:99820|mtp:S|qry_typ:P|lang:en|wc:3|cs:8845|v=4,False,Raghunathgarh,Jaipur,"A7D, Raghunath Colony, Galta Gate, Raghunathgarh, Jaipur - 302003, Dist.Jaipur, Rajasthan",8047620731,
"Multicolor Cotton Baby Sleeping Bags, Packaging Type: Box",https://www.indiamart.com/proddetail/baby-sleeping-bags-15275273933.html?pos=168&kwd=hooded baby blanket&tags=||||8706.263||product|||TS|rsf:gd-|-stype:attr=1|qr_nm:gd|res:RC4|com-cf:nl|ptrs:na|ktp:N0|mc:99820|mtp:S|qry_typ:P|lang:en|wc:3|cs:8845|v=4,Saravana Traders,https://www.indiamart.com/saravana-traders-karur/?pos=168&kwd=hooded baby blanket&tags=||||8706.263||product|||TS|rsf:gd-|-stype:attr=1|qr_nm:gd|res:RC4|com-cf:nl|ptrs:na|ktp:N0|mc:99820|mtp:S|qry_typ:P|lang:en|wc:3|cs:8845|v=4,True,Lvb Nagar,Karur,"No. 71, Lvb Nagar, Karur - 639002, Dist.Karur, Tamil Nadu",8048958966,
"Yellow Print 100% Organic Cotton Baby Muslin Swaddles, Size: Singe",https://www.indiamart.com/proddetail/baby-muslin-swaddles-2854362104230.html?pos=169&kwd=hooded baby blanket&tags=||||8706.263|Price|product|||TS|rsf:gd-|-stype:attr=1|qr_nm:gd|res:RC4|com-cf:nl|ptrs:na|ktp:N0|mc:99820|mtp:S|qry_typ:P|lang:en|wc:3|cs:8845|v=4,Bowerbird Interios,https://www.organicfabricmanufacturer.com/?pos=169&kwd=hooded baby blanket&tags=||||8706.263|Price|product|||TS|rsf:gd-|-stype:attr=1|qr_nm:gd|res:RC4|com-cf:nl|ptrs:na|ktp:N0|mc:99820|mtp:S|qry_typ:P|lang:en|wc:3|cs:8845|v=4,False,Ramanujam Nagar,Karur,"1/137, Covai Road South, Ramanujam Nagar, Karur - 639002, Dist.Karur, Tamil Nadu",8048971552,
"Many Colour Available Printed Baby Wrap Blanket, 0-12 Months",https://www.indiamart.com/proddetail/baby-wrap-blanket-22683937473.html?pos=170&kwd=hooded baby blanket&tags=||||8752.144|Price|product|||TS|rsf:gd-|-stype:attr=1|qr_nm:gd|res:RC4|com-cf:nl|ptrs:na|ktp:N0|mc:99820|mtp:S|qry_typ:P|lang:en|wc:3|cs:8845|v=4,Shree Balaji Infant Wear,https://www.indiamart.com/chhotejanab/?pos=170&kwd=hooded baby blanket&tags=||||8752.144|Price|product|||TS|rsf:gd-|-stype:attr=1|qr_nm:gd|res:RC4|com-cf:nl|ptrs:na|ktp:N0|mc:99820|mtp:S|qry_typ:P|lang:en|wc:3|cs:8845|v=4,False,Pahari Dhiraj,New Delhi,"1583- 84, Hathi Khana, Aziz Ganj, Bahadur Garh Road, Pahari Dhiraj, New Delhi - 110006, Dist.Delhi, Delhi",8047639754,
Cotton Muslin baby Swaddle Blanket Printed with appropriate baby prints,https://www.indiamart.com/proddetail/cotton-muslin-baby-swaddle-blanket-printed-with-appropriate-baby-prints-2851877901212.html?pos=171&kwd=hooded baby blanket&tags=||||8668.838|Price|product|||TS|rsf:gd-|-stype:attr=1|qr_nm:gd|res:RC4|com-cf:nl|ptrs:na|ktp:N0|mc:99820|mtp:S|qry_typ:P|lang:en|wc:3|cs:8845|v=4,Manish Mills,https://www.manishmills.in/?pos=171&kwd=hooded baby blanket&tags=||||8668.838|Price|product|||TS|rsf:gd-|-stype:attr=1|qr_nm:gd|res:RC4|com-cf:nl|ptrs:na|ktp:N0|mc:99820|mtp:S|qry_typ:P|lang:en|wc:3|cs:8845|v=4,False,Erode Fort,Erode,"Suki Towers, No. 261, Easwaran Koil Street, Erode Fort, Erode - 638001, Dist.Erode, Tamil Nadu",8048961063,
Multicolor Organic Cotton Baby Muslin Swaddle,https://www.indiamart.com/proddetail/organic-cotton-baby-muslin-swaddle-2852060049430.html?pos=172&kwd=hooded baby blanket&tags=||||8706.263|Price|product|||TS|rsf:gd-|-stype:attr=1|qr_nm:gd|res:RC4|com-cf:nl|ptrs:na|ktp:N0|mc:99820|mtp:S|qry_typ:P|lang:en|wc:3|cs:8845|v=4,Taruna Tex,https://www.indiamart.com/taruna-tex-karur/?pos=172&kwd=hooded baby blanket&tags=||||8706.263|Price|product|||TS|rsf:gd-|-stype:attr=1|qr_nm:gd|res:RC4|com-cf:nl|ptrs:na|ktp:N0|mc:99820|mtp:S|qry_typ:P|lang:en|wc:3|cs:8845|v=4,True,Veluswamypuram,Karur,"137, Nanthavana Street, Velusamypuram IV Cross, Andankoil West, Veluswamypuram, Karur - 639002, Dist.Karur, Tamil Nadu",7942874999,
Baby Hooded Towel,https://www.indiamart.com/proddetail/baby-hooded-towel-2852734788397.html?pos=173&kwd=hooded baby blanket&tags=||||8668.838|Price|product|||TS|rsf:gd-|-stype:attr=1|qr_nm:gd|res:RC4|com-cf:nl|ptrs:na|ktp:N0|mc:99820|mtp:S|qry_typ:P|lang:en|wc:3|cs:8845|v=4,Meenu's Manchesters,https://www.hotelbedsheet.in/?pos=173&kwd=hooded baby blanket&tags=||||8668.838|Price|product|||TS|rsf:gd-|-stype:attr=1|qr_nm:gd|res:RC4|com-cf:nl|ptrs:na|ktp:N0|mc:99820|mtp:S|qry_typ:P|lang:en|wc:3|cs:8845|v=4,False,Edayankattuvalsu,Erode,"26, Nggo Colony, 1, Edayankattuvalsu, Erode - 638009, Dist.Erode, Tamil Nadu",8048609221,
"Woolen Baby Blankets, Size: Singe",https://www.indiamart.com/proddetail/baby-blankets-2853118109597.html?pos=174&kwd=hooded baby blanket&tags=||||8747.203|Price|product|||TS|rsf:gd-|-stype:attr=1|qr_nm:gd|res:RC4|com-cf:nl|ptrs:na|ktp:N0|mc:99820|mtp:S|qry_typ:P|lang:en|wc:3|cs:8845|v=4,Navya Enterprises,https://www.enterprisesnavya.com/?pos=174&kwd=hooded baby blanket&tags=||||8747.203|Price|product|||TS|rsf:gd-|-stype:attr=1|qr_nm:gd|res:RC4|com-cf:nl|ptrs:na|ktp:N0|mc:99820|mtp:S|qry_typ:P|lang:en|wc:3|cs:8845|v=4,False,Chadau Mohalla,Panipat,"H No.809, Purewal Colony, Chadau Mohalla, Panipat - 132103, Dist.Panipat, Haryana",8048968729,
"Multicolor Cotton Baby Sleeping Bags, Packaging Type: Box",https://www.indiamart.com/proddetail/baby-sleeping-bags-15275273933.html?pos=175&kwd=hooded baby blanket&tags=||||8706.263||product|||TS|rsf:gd-|-stype:attr=1|qr_nm:gd|res:RC4|com-cf:nl|ptrs:na|ktp:N0|mc:99820|mtp:S|qry_typ:P|lang:en|wc:3|cs:8845|v=4,Saravana Traders,https://www.indiamart.com/saravana-traders-karur/?pos=175&kwd=hooded baby blanket&tags=||||8706.263||product|||TS|rsf:gd-|-stype:attr=1|qr_nm:gd|res:RC4|com-cf:nl|ptrs:na|ktp:N0|mc:99820|mtp:S|qry_typ:P|lang:en|wc:3|cs:8845|v=4,True,Lvb Nagar,Karur,"No. 71, Lvb Nagar, Karur - 639002, Dist.Karur, Tamil Nadu",8048958966,
"Cotton Multicolor Baby Soft Flannel Blankets set, Size/Dimension: Large, 750 Gm",https://www.indiamart.com/proddetail/baby-soft-flannel-blankets-set-22496604473.html?pos=176&kwd=hooded baby blanket&tags=||||8307.81|Price|product|||TS|rsf:gd-|-stype:attr=1|qr_nm:gd|res:RC4|com-cf:nl|ptrs:na|ktp:N0|mc:99820|mtp:S|qry_typ:P|lang:en|wc:3|cs:8845|v=4,Lazytoddler Solutions Private Limited,https://www.indiamart.com/lazytoddler-solutions/?pos=176&kwd=hooded baby blanket&tags=||||8307.81|Price|product|||TS|rsf:gd-|-stype:attr=1|qr_nm:gd|res:RC4|com-cf:nl|ptrs:na|ktp:N0|mc:99820|mtp:S|qry_typ:P|lang:en|wc:3|cs:8845|v=4,False,Wakad,Pune,"A2-1001, Fl-A1, Behind Madhuban Hotel, S.No-40, Armada Parkhe Wasti, Wakad, Wakad, Pune - 411057, Dist.Pune, Maharashtra",8043819563,
"Cotton Red Baby Fleece Blanket, For Home, Size: Singe",https://www.indiamart.com/proddetail/baby-fleece-blanket-25350322973.html?pos=177&kwd=hooded baby blanket&tags=||||8747.203|Price|product|||TS|rsf:gd-|-stype:attr=1|qr_nm:gd|res:RC4|com-cf:nl|ptrs:na|ktp:N0|mc:99820|mtp:S|qry_typ:P|lang:en|wc:3|cs:8845|v=4,Anand International,https://www.bestvaluewholesale.co.in/?pos=177&kwd=hooded baby blanket&tags=||||8747.203|Price|product|||TS|rsf:gd-|-stype:attr=1|qr_nm:gd|res:RC4|com-cf:nl|ptrs:na|ktp:N0|mc:99820|mtp:S|qry_typ:P|lang:en|wc:3|cs:8845|v=4,False,Shiv Nagar,Panipat,"Plot No-181, Anand International, Sec-25 Part-2, Huda,, Shiv Nagar, Panipat - 132103, Dist.Panipat, Haryana",8047314578,
Hood Wrap Baby Blanket,https://www.indiamart.com/proddetail/hood-wrap-baby-blanket-4934768788.html?pos=178&kwd=hooded baby blanket&tags=CA||||8661.854||product|||NA|rsf:gd-|-stype:attr=1|qr_nm:gd|res:RC4|com-cf:nl|ptrs:na|ktp:N0|mc:99820|mtp:S|qry_typ:P|lang:en|wc:3|cs:8845|v=4,Vallabh Fabriks Limited,https://www.indiamart.com/vallabh-fabriks/?pos=178&kwd=hooded baby blanket&tags=CA||||8661.854||product|||NA|rsf:gd-|-stype:attr=1|qr_nm:gd|res:RC4|com-cf:nl|ptrs:na|ktp:N0|mc:99820|mtp:S|qry_typ:P|lang:en|wc:3|cs:8845|v=4,False,Village Gehlewal,Ludhiana,"B-XXXII-1429/5A, Rahon Road, Village Gehlewal, Ludhiana - 141007, Dist.Ludhiana, Punjab",8047530614,
Baby Hooded Towel,,Sanskriti Inc,https://www.indiamart.com/sanskriti-inc/?pos=179&kwd=hooded baby blanket&tags=||||8228.275||product|||MDC|rsf:gd-|-stype:attr=1|qr_nm:gd|res:RC4|com-cf:nl|ptrs:na|ktp:N0|mc:99820|mtp:S|qry_typ:P|lang:en|wc:3|cs:8845|v=4,False,Nikol,Ahmedabad,"Shop No-26, Surjit Co Op H Soc Ltd, Nr. India Colony, Nikol Road, Nikol, Ahmedabad - 382350, Dist.Ahmedabad, Gujarat",8046047726,
Dvk Handicraft 100% Cotton Reversible Rainbow Kantha Cot Quilt Baby Blanket,https://www.indiamart.com/proddetail/reversible-rainbow-kantha-cot-quilt-baby-blanket-13906344055.html?pos=180&kwd=hooded baby blanket&tags=||||8601.347|Price|product|||TS|rsf:gd-|-stype:attr=1|qr_nm:gd|res:RC4|com-cf:nl|ptrs:na|ktp:N0|mc:99820|mtp:S|qry_typ:P|lang:en|wc:3|cs:8845|v=4,DVK Handicraft Private Limited,https://www.dvkhandicraft.net/?pos=180&kwd=hooded baby blanket&tags=||||8601.347|Price|product|||TS|rsf:gd-|-stype:attr=1|qr_nm:gd|res:RC4|com-cf:nl|ptrs:na|ktp:N0|mc:99820|mtp:S|qry_typ:P|lang:en|wc:3|cs:8845|v=4,True,Vaishali Nagar,Jaipur,"B-24, Ground Floor Lalrpura Aayodhya Nagar Vaisha Gandhi Path, Vaishali Nagar, Vaishali Nagar, Jaipur - 302021, Dist.Jaipur, Rajasthan",8048608928,
"Multicolor Baby Cotton Muslin Swaddle, Size: Singe",https://www.indiamart.com/proddetail/baby-cotton-muslin-swaddle-2849329098130.html?pos=181&kwd=hooded baby blanket&tags=||||8211.142|Price|product|||TS|rsf:gd-|-stype:attr=1|qr_nm:gd|res:RC4|com-cf:nl|ptrs:na|ktp:N0|mc:99820|mtp:S|qry_typ:P|lang:en|wc:3|cs:8845|v=4,ShanBuyers,https://www.indiamart.com/shanbuyers/?pos=181&kwd=hooded baby blanket&tags=||||8211.142|Price|product|||TS|rsf:gd-|-stype:attr=1|qr_nm:gd|res:RC4|com-cf:nl|ptrs:na|ktp:N0|mc:99820|mtp:S|qry_typ:P|lang:en|wc:3|cs:8845|v=4,False,Dahisar East,Mumbai,"316, Floor No. 3rd, Sarita Building, Prabhat Ind Complex, Road Western Express Highway, Toll Naka, Dahisar, Dahisar East, Mumbai - 400068, Dist.Mumbai, Maharashtra",8047670828,
"3 in 1 Baby Bed, Sleeping Bag & Carry Nest, Cotton Baby Bedding Unisex Baby Sleeping Bed",https://www.indiamart.com/proddetail/3-in-1-baby-bed-sleeping-bag-carry-nest-cotton-baby-bedding-unisex-baby-sleeping-bed-2852997028091.html?pos=182&kwd=hooded baby blanket&tags=||||9842.824|Price|product|||TS|rsf:gd-|-stype:attr=1|qr_nm:gd|res:RC4|com-cf:nl|ptrs:na|ktp:N0|mc:99820|mtp:S|qry_typ:P|lang:en|wc:3|cs:8845|v=4,Indilittle Global Export,https://www.indiamart.com/indilittleglobalexport/?pos=182&kwd=hooded baby blanket&tags=||||9842.824|Price|product|||TS|rsf:gd-|-stype:attr=1|qr_nm:gd|res:RC4|com-cf:nl|ptrs:na|ktp:N0|mc:99820|mtp:S|qry_typ:P|lang:en|wc:3|cs:8845|v=4,False,Haripal,Hooghly,"BRAHMANPARA, NALIKUL PASCHIM, HARIPAL, Haripal, Hooghly - 712405, Dist.Hooghly, West Bengal",8048977919,
Cotton Microfiber Poncho Towel For Kids Hooded Bath Towels,https://www.indiamart.com/proddetail/microfiber-poncho-towel-for-kids-hooded-bath-towels-2854701695197.html?pos=183&kwd=hooded baby blanket&tags=||||8752.144|Price|product|||TS|rsf:gd-|-stype:attr=1|qr_nm:gd|res:RC4|com-cf:nl|ptrs:na|ktp:N0|mc:99820|mtp:S|qry_typ:P|lang:en|wc:3|cs:8845|v=4,Instabuyz,https://www.indiamart.com/instabuyz/?pos=183&kwd=hooded baby blanket&tags=||||8752.144|Price|product|||TS|rsf:gd-|-stype:attr=1|qr_nm:gd|res:RC4|com-cf:nl|ptrs:na|ktp:N0|mc:99820|mtp:S|qry_typ:P|lang:en|wc:3|cs:8845|v=4,False,Paschim Vihar,New Delhi,"GH-4/319, Meera Apartments, Paschim Vihar, West Delhi, Paschim Vihar, New Delhi - 110063, Dist.Delhi, Delhi",8047696143,
White (Base) Cotton Muslin Swaddle Blanket,https://www.indiamart.com/proddetail/cotton-muslin-swaddle-blanket-23904997948.html?pos=184&kwd=hooded baby blanket&tags=||||8231.259|Price|product|||MDC|rsf:gd-|-stype:attr=1|qr_nm:gd|res:RC4|com-cf:nl|ptrs:na|ktp:N0|mc:99820|mtp:S|qry_typ:P|lang:en|wc:3|cs:8845|v=4,Hemp Ecotex,https://www.indiamart.com/hempecotex/?pos=184&kwd=hooded baby blanket&tags=||||8231.259|Price|product|||MDC|rsf:gd-|-stype:attr=1|qr_nm:gd|res:RC4|com-cf:nl|ptrs:na|ktp:N0|mc:99820|mtp:S|qry_typ:P|lang:en|wc:3|cs:8845|v=4,False,Val,Bhiwandi,"1st Floor, H. No 1661/12 Gala No 106, BL-K, Dharam Complex, Phase-I, Rahnal Village, Val, Bhiwandi - 421302, Maharashtra",7949092530,
"Pink Cotton Newborn Baby Sleeping Bags, Newly Born",https://www.indiamart.com/proddetail/newborn-baby-sleeping-bags-2854892034255.html?pos=185&kwd=hooded baby blanket&tags=||||8230.883|Price|product|||MDC|rsf:gd-|-stype:attr=1|qr_nm:gd|res:RC4|com-cf:nl|ptrs:na|ktp:N0|mc:99820|mtp:S|qry_typ:P|lang:en|wc:3|cs:8845|v=4,Whopssy International,https://www.indiamart.com/whopssy-international/?pos=185&kwd=hooded baby blanket&tags=||||8230.883|Price|product|||MDC|rsf:gd-|-stype:attr=1|qr_nm:gd|res:RC4|com-cf:nl|ptrs:na|ktp:N0|mc:99820|mtp:S|qry_typ:P|lang:en|wc:3|cs:8845|v=4,False,,Surat,"First Floor, Plot No. 377, Ram Vatika V-2, Near Rangoli Chowkdi, Sayan Road, Velenja Gam, Sayan, Surat - 394150, Dist.Surat, Gujarat",7949340041,
"Cotton Pink Flannel Baby Blanket, Size: Singe",https://www.indiamart.com/proddetail/flannel-baby-blanket-2852593477333.html?pos=186&kwd=hooded baby blanket&tags=||||8747.203||proxy|||TS|rsf:gd-|-stype:attr=1|qr_nm:gd|res:RC4|com-cf:nl|ptrs:na|ktp:N0|mc:99820|mtp:S|qry_typ:P|lang:en|wc:3|cs:8845|v=4,Supercloudy Fashion World Private Limited,https://www.indiamart.com/supercloudyfashionworld/?pos=186&kwd=hooded baby blanket&tags=||||8747.203||proxy|||TS|rsf:gd-|-stype:attr=1|qr_nm:gd|res:RC4|com-cf:nl|ptrs:na|ktp:N0|mc:99820|mtp:S|qry_typ:P|lang:en|wc:3|cs:8845|v=4,False,Huda,Panipat,"Vpo Kurar, Near Jagmehar Hatchery, Huda, Panipat - 132103, Dist.Panipat, Haryana",8047303410,
Printed Floral Print Baby Blanket,https://www.indiamart.com/proddetail/floral-print-baby-blanket-24686439030.html?pos=187&kwd=hooded baby blanket&tags=||||8230.883|Price|product|||MDC|rsf:gd-|-stype:attr=1|qr_nm:gd|res:RC4|com-cf:nl|ptrs:na|ktp:N0|mc:99820|mtp:S|qry_typ:P|lang:en|wc:3|cs:8845|v=4,Dharmnandan Creation,https://www.indiamart.com/dharmnandancreation/?pos=187&kwd=hooded baby blanket&tags=||||8230.883|Price|product|||MDC|rsf:gd-|-stype:attr=1|qr_nm:gd|res:RC4|com-cf:nl|ptrs:na|ktp:N0|mc:99820|mtp:S|qry_typ:P|lang:en|wc:3|cs:8845|v=4,False,Udhana,Surat,"Plot No. A/10, City Ind. Estate, Udhana, Udhan Road,, Udhana, Surat - 394210, Dist.Surat, Gujarat",7942543669,
"Pink Cotton Baby sleeping bag, Packaging Type: Plastic cover, Newly Born",https://www.indiamart.com/proddetail/baby-sleeping-bag-2849605699691.html?pos=188&kwd=hooded baby blanket&tags=||||8954.051|Price|product|||MDC|rsf:gd-|-stype:attr=1|qr_nm:gd|res:RC4|com-cf:nl|ptrs:na|ktp:N0|mc:99820|mtp:S|qry_typ:P|lang:en|wc:3|cs:8845|v=4,Adhoniyah,https://www.indiamart.com/adhoniyah/?pos=188&kwd=hooded baby blanket&tags=||||8954.051|Price|product|||MDC|rsf:gd-|-stype:attr=1|qr_nm:gd|res:RC4|com-cf:nl|ptrs:na|ktp:N0|mc:99820|mtp:S|qry_typ:P|lang:en|wc:3|cs:8845|v=4,False,Jamalia,Chennai,"Ground Floor,5/4,Strahans Road I St Street,Otteri, Jamalia, Chennai - 600012, Dist.Chennai, Tamil Nadu",8048274134,
"Cotton Baby sleeping bag, 0-6 months",https://www.indiamart.com/proddetail/baby-sleeping-bag-2852720865833.html?pos=189&kwd=hooded baby blanket&tags=||||8752.144|Price|product|||MDC|rsf:gd-|-stype:attr=1|qr_nm:gd|res:RC4|com-cf:nl|ptrs:na|ktp:N0|mc:99820|mtp:S|qry_typ:P|lang:en|wc:3|cs:8845|v=4,M.K. Manufacturer,https://www.indiamart.com/mk-manufacturer-delhi/?pos=189&kwd=hooded baby blanket&tags=||||8752.144|Price|product|||MDC|rsf:gd-|-stype:attr=1|qr_nm:gd|res:RC4|com-cf:nl|ptrs:na|ktp:N0|mc:99820|mtp:S|qry_typ:P|lang:en|wc:3|cs:8845|v=4,False,,New Delhi,"S/F, E-468, Kh No. 539, Gali No. 11, Subhash Vihar, North Ghonda, North East, New Delhi - 110053, Dist.Delhi, Delhi",8047648752,
"Owen Jaipuri Animal Printed Baby Blanket, Teen, Size: 60*90",https://www.indiamart.com/proddetail/animal-printed-baby-blanket-6379012948.html?pos=190&kwd=hooded baby blanket&tags=||||8601.347|Price|product|||TS|rsf:gd-|-stype:attr=1|qr_nm:gd|res:RC4|com-cf:nl|ptrs:na|ktp:N0|mc:99820|mtp:S|qry_typ:P|lang:en|wc:3|cs:8845|v=4,Priva International,https://www.privainternational.in/?pos=190&kwd=hooded baby blanket&tags=||||8601.347|Price|product|||TS|rsf:gd-|-stype:attr=1|qr_nm:gd|res:RC4|com-cf:nl|ptrs:na|ktp:N0|mc:99820|mtp:S|qry_typ:P|lang:en|wc:3|cs:8845|v=4,False,Sitapur Industrial Area,Jaipur,"G-88, EPIP Industrial Area, Near Indian Overseas Bank Sitapur Tonk Road, Sitapur Industrial Area, Sitapur Industrial Area, Jaipur - 302022, Dist.Jaipur, Rajasthan",8048611129,
"Cotton Multicolor Baby Printed Blanket, 7 Years",https://www.indiamart.com/proddetail/baby-printed-blanket-17848671930.html?pos=191&kwd=hooded baby blanket&tags=||||8752.144|Price|product|||TS|rsf:gd-|-stype:attr=1|qr_nm:gd|res:RC4|com-cf:nl|ptrs:na|ktp:N0|mc:99820|mtp:S|qry_typ:P|lang:en|wc:3|cs:8845|v=4,Royal Rose International,https://www.indiamart.com/royal-rose-international/?pos=191&kwd=hooded baby blanket&tags=||||8752.144|Price|product|||TS|rsf:gd-|-stype:attr=1|qr_nm:gd|res:RC4|com-cf:nl|ptrs:na|ktp:N0|mc:99820|mtp:S|qry_typ:P|lang:en|wc:3|cs:8845|v=4,False,Rajindra Place,New Delhi,"27, Ground Floor, Rajindra Park, Pusa Road, Rajindra Place, New Delhi - 110060, Dist.Delhi, Delhi",8047619163,
Multicolor Baby Mink Blanket,https://www.indiamart.com/proddetail/baby-mink-blanket-2853156955255.html?pos=192&kwd=hooded baby blanket&tags=||||8747.203|Price|product|||TS|rsf:gd-|-stype:attr=1|qr_nm:gd|res:RC4|com-cf:nl|ptrs:na|ktp:N0|mc:99820|mtp:S|qry_typ:P|lang:en|wc:3|cs:8845|v=4,Avior Industries Private Limited,https://www.aviorindustries.net/?pos=192&kwd=hooded baby blanket&tags=||||8747.203|Price|product|||TS|rsf:gd-|-stype:attr=1|qr_nm:gd|res:RC4|com-cf:nl|ptrs:na|ktp:N0|mc:99820|mtp:S|qry_typ:P|lang:en|wc:3|cs:8845|v=4,False,Part-1,Panipat,"Plot No. 60, Sector-29 Part-1, Part-1, Panipat - 132103, Dist.Panipat, Haryana",7942843848,
Cotton Multicolor Hand Block Baby Blanket,https://www.indiamart.com/proddetail/hand-block-baby-blanket-26438743348.html?pos=193&kwd=hooded baby blanket&tags=||||8601.347|Price|product|||TS|rsf:gd-|-stype:attr=1|qr_nm:gd|res:RC4|com-cf:nl|ptrs:na|ktp:N0|mc:99820|mtp:S|qry_typ:P|lang:en|wc:3|cs:8845|v=4,Veer Handircrafts,https://www.veerhandicrafts.com/?pos=193&kwd=hooded baby blanket&tags=||||8601.347|Price|product|||TS|rsf:gd-|-stype:attr=1|qr_nm:gd|res:RC4|com-cf:nl|ptrs:na|ktp:N0|mc:99820|mtp:S|qry_typ:P|lang:en|wc:3|cs:8845|v=4,True,Shyam Nagar,Jaipur,"Basement, 192/331, Sector 19, Kumbha Marg, Shyam Nagar, Jaipur - 302029, Dist.Jaipur, Rajasthan",8043851762,
"Pink Cotton Baby Sleeping bag, 3-12 Months",https://www.indiamart.com/proddetail/baby-sleeping-bag-2851102122262.html?pos=194&kwd=hooded baby blanket&tags=||||8752.144|Price|product|||TS|rsf:gd-|-stype:attr=1|qr_nm:gd|res:RC4|com-cf:nl|ptrs:na|ktp:N0|mc:99820|mtp:S|qry_typ:P|lang:en|wc:3|cs:8845|v=4,National Overseas,https://www.indiamart.com/nationaltraders-vishwashnagar/?pos=194&kwd=hooded baby blanket&tags=||||8752.144|Price|product|||TS|rsf:gd-|-stype:attr=1|qr_nm:gd|res:RC4|com-cf:nl|ptrs:na|ktp:N0|mc:99820|mtp:S|qry_typ:P|lang:en|wc:3|cs:8845|v=4,False,Shahdara,New Delhi,"1/99, Gali No. 3, Vishwas Nagar, Shahdara, New Delhi - 110032, Dist.Delhi, Delhi",8046047673,
"Cotton Multicolor Printed Baby Blanket, Size: Singe",https://www.indiamart.com/proddetail/printed-baby-blanket-2850870920488.html?pos=195&kwd=hooded baby blanket&tags=||||8747.203|Price|product|||TS|rsf:gd-|-stype:attr=1|qr_nm:gd|res:RC4|com-cf:nl|ptrs:na|ktp:N0|mc:99820|mtp:S|qry_typ:P|lang:en|wc:3|cs:8845|v=4,Siya Ram Enterprises,https://www.indiamart.com/siyaram-enterprises-panipat/?pos=195&kwd=hooded baby blanket&tags=||||8747.203|Price|product|||TS|rsf:gd-|-stype:attr=1|qr_nm:gd|res:RC4|com-cf:nl|ptrs:na|ktp:N0|mc:99820|mtp:S|qry_typ:P|lang:en|wc:3|cs:8845|v=4,False,Huda,Panipat,"Gali Number 3, Near Ahuja Furniture Sanoli Road, Huda, Panipat - 132103, Dist.Panipat, Haryana",8048959822,
Pink Soft Baby Blanket,https://www.indiamart.com/proddetail/soft-baby-blanket-22756878488.html?pos=196&kwd=hooded baby blanket&tags=||||8747.203|Price|product|||TS|rsf:gd-|-stype:attr=1|qr_nm:gd|res:RC4|com-cf:nl|ptrs:na|ktp:N0|mc:99820|mtp:S|qry_typ:P|lang:en|wc:3|cs:8845|v=4,Muskan Collections,https://www.indiamart.com/muskan-collections-haryana/?pos=196&kwd=hooded baby blanket&tags=||||8747.203|Price|product|||TS|rsf:gd-|-stype:attr=1|qr_nm:gd|res:RC4|com-cf:nl|ptrs:na|ktp:N0|mc:99820|mtp:S|qry_typ:P|lang:en|wc:3|cs:8845|v=4,False,Kabul Bagh,Panipat,"GALI NO 3 UGRA KHERI MOD, Kabul Bagh, Panipat - 132103, Dist.Panipat, Haryana",8047633020,
"Pink,White Hooded Baby Towel",https://www.indiamart.com/proddetail/hooded-baby-towel-4405601991.html?pos=197&kwd=hooded baby blanket&tags=||||8785.791|Price|product|||TS|rsf:gd-|-stype:attr=1|qr_nm:gd|res:RC4|com-cf:nl|ptrs:na|ktp:N0|mc:99820|mtp:S|qry_typ:P|lang:en|wc:3|cs:8845|v=4,Ilaki Intercraft (India),https://www.indiamart.com/ilakiintercraft/?pos=197&kwd=hooded baby blanket&tags=||||8785.791|Price|product|||TS|rsf:gd-|-stype:attr=1|qr_nm:gd|res:RC4|com-cf:nl|ptrs:na|ktp:N0|mc:99820|mtp:S|qry_typ:P|lang:en|wc:3|cs:8845|v=4,False,Tronica City,Ghaziabad,"D-69 Sector D-1 Tronica City, Tronica City, Ghaziabad - 201103, Dist.Ghaziabad, Uttar Pradesh",7942552124,
Baby Hooded Towel,https://www.indiamart.com/proddetail/baby-hooded-towel-2850628515848.html?pos=198&kwd=hooded baby blanket&tags=||||8242.731||product|||TS|rsf:gd-|-stype:attr=1|qr_nm:gd|res:RC4|com-cf:nl|ptrs:na|ktp:N0|mc:99820|mtp:S|qry_typ:P|lang:en|wc:3|cs:8845|v=4,Om Traders,https://www.indiamart.com/omtraders-maharashtra/?pos=198&kwd=hooded baby blanket&tags=||||8242.731||product|||TS|rsf:gd-|-stype:attr=1|qr_nm:gd|res:RC4|com-cf:nl|ptrs:na|ktp:N0|mc:99820|mtp:S|qry_typ:P|lang:en|wc:3|cs:8845|v=4,False,Siru Chowk,Ulhasnagar,"Sant Chellaram Market, Shop No.19, 1st Floor, Siru Chowk, Ulhasnagar - 421002, Dist.Thane, Maharashtra",7942553425,
"Mauria Cotton Baby Hooded Towel, For Bathing, Size: 84 cm X 84 cm",https://www.indiamart.com/proddetail/baby-hooded-towel-21237229073.html?pos=199&kwd=hooded baby blanket&tags=||||8769.508|Price|product|||TS|rsf:gd-|-stype:attr=1|qr_nm:gd|res:RC4|com-cf:nl|ptrs:na|ktp:N0|mc:99820|mtp:S|qry_typ:P|lang:en|wc:3|cs:8845|v=4,Mauria Udyog Limited,https://www.indiamart.com/mauriaudyog-delhi/?pos=199&kwd=hooded baby blanket&tags=||||8769.508|Price|product|||TS|rsf:gd-|-stype:attr=1|qr_nm:gd|res:RC4|com-cf:nl|ptrs:na|ktp:N0|mc:99820|mtp:S|qry_typ:P|lang:en|wc:3|cs:8845|v=4,False,Ballabhgarh,Faridabad,"Mauria Udyog Limited Sohna Road Sector-25, Ballabhgarh, Faridabad - 121004, Dist.Faridabad, Haryana",8048964009,
"Printed Sky Blue,White Baby Hooded Towel, For Kids",https://www.indiamart.com/proddetail/baby-hooded-towel-25736161855.html?pos=200&kwd=hooded baby blanket&tags=||||9839.57|Price|product|||TS|rsf:gd-|-stype:attr=1|qr_nm:gd|res:RC4|com-cf:nl|ptrs:na|ktp:N0|mc:99820|mtp:S|qry_typ:P|lang:en|wc:3|cs:8845|v=4,Feelit Apparels Private Limited,https://www.indiamart.com/feelit-apparels/?pos=200&kwd=hooded baby blanket&tags=||||9839.57|Price|product|||TS|rsf:gd-|-stype:attr=1|qr_nm:gd|res:RC4|com-cf:nl|ptrs:na|ktp:N0|mc:99820|mtp:S|qry_typ:P|lang:en|wc:3|cs:8845|v=4,False,Alipore,Kolkata,"8/A, Ground Floor, Sen Lane, Ahiritola, Alipore, Kolkata - 700005, Dist.Kolkata, West Bengal",8047653523,
Cotton Microfiber Poncho Towel For Kids Hooded Bath Towels,https://www.indiamart.com/proddetail/microfiber-poncho-towel-for-kids-hooded-bath-towels-2854701695197.html?pos=201&kwd=hooded baby blanket&tags=||||8752.144|Price|product|||TS|rsf:gd-|-stype:attr=1|qr_nm:gd|res:RC4|com-cf:nl|ptrs:na|ktp:N0|mc:99820|mtp:S|qry_typ:P|lang:en|wc:3|cs:8845|v=4,Instabuyz,https://www.indiamart.com/instabuyz/?pos=201&kwd=hooded baby blanket&tags=||||8752.144|Price|product|||TS|rsf:gd-|-stype:attr=1|qr_nm:gd|res:RC4|com-cf:nl|ptrs:na|ktp:N0|mc:99820|mtp:S|qry_typ:P|lang:en|wc:3|cs:8845|v=4,False,Paschim Vihar,New Delhi,"GH-4/319, Meera Apartments, Paschim Vihar, West Delhi, Paschim Vihar, New Delhi - 110063, Dist.Delhi, Delhi",8047696143,
Embroidered Cotton Baby Hooded Towels,https://www.indiamart.com/proddetail/cotton-baby-hooded-towels-2852664931012.html?pos=202&kwd=hooded baby blanket&tags=||||8626.744||product|||TS|rsf:gd-|-stype:attr=1|qr_nm:gd|res:RC4|com-cf:nl|ptrs:na|ktp:N0|mc:99820|mtp:S|qry_typ:P|lang:en|wc:3|cs:8845|v=4,Srie K.S.K. Tex,https://www.indiamart.com/srieksktex-tiruppur/?pos=202&kwd=hooded baby blanket&tags=||||8626.744||product|||TS|rsf:gd-|-stype:attr=1|qr_nm:gd|res:RC4|com-cf:nl|ptrs:na|ktp:N0|mc:99820|mtp:S|qry_typ:P|lang:en|wc:3|cs:8845|v=4,False,Radha Nagar,Tiruppur,"28A, NA, Sv Colony, 6th Street, PN Road,Coimbatore, Radha Nagar, Tiruppur - 641602, Dist.Coimbatore, Tamil Nadu",8047850887,
Pink Baby Printed Hooded Towel,https://www.indiamart.com/proddetail/baby-printed-hooded-towel-26064859712.html?pos=203&kwd=hooded baby blanket&tags=||||8601.347|Price|product|||TS|rsf:gd-|-stype:attr=1|qr_nm:gd|res:RC4|com-cf:nl|ptrs:na|ktp:N0|mc:99820|mtp:S|qry_typ:P|lang:en|wc:3|cs:8845|v=4,Ritvik Enterprises,https://www.indiamart.com/ritvikenterprises-jaipur/?pos=203&kwd=hooded baby blanket&tags=||||8601.347|Price|product|||TS|rsf:gd-|-stype:attr=1|qr_nm:gd|res:RC4|com-cf:nl|ptrs:na|ktp:N0|mc:99820|mtp:S|qry_typ:P|lang:en|wc:3|cs:8845|v=4,False,Mansarovar,Jaipur,"117/678, Agarwal Farm, Mansarovar, Jaipur - 302020, Dist.Jaipur, Rajasthan",7942545190,
Printed Fabric: Cotton Muslin Baby Towel Hooded,https://www.indiamart.com/proddetail/muslin-baby-towel-hooded-2854264179312.html?pos=204&kwd=hooded baby blanket&tags=||||8668.838|Price|product|||TS|rsf:gd-|-stype:attr=1|qr_nm:gd|res:RC4|com-cf:nl|ptrs:na|ktp:N0|mc:99820|mtp:S|qry_typ:P|lang:en|wc:3|cs:8845|v=4,New Asia Textiles,https://www.indiamart.com/new-asia-textiles/?pos=204&kwd=hooded baby blanket&tags=||||8668.838|Price|product|||TS|rsf:gd-|-stype:attr=1|qr_nm:gd|res:RC4|com-cf:nl|ptrs:na|ktp:N0|mc:99820|mtp:S|qry_typ:P|lang:en|wc:3|cs:8845|v=4,False,,Erode,"42, Mosikeeranar Street-4 indra nagar, Erode - 638003, Dist.Erode, Tamil Nadu",8046070169,
"Red (Base) Woollen Baby Blanket, Size: Double",https://www.indiamart.com/proddetail/baby-blanket-25614088533.html?pos=205&kwd=hooded baby blanket&tags=||||8747.203|Price|product|||MDC|rsf:gd-|-stype:attr=1|qr_nm:gd|res:RC4|com-cf:nl|ptrs:na|ktp:N0|mc:99820|mtp:S|qry_typ:P|lang:en|wc:3|cs:8845|v=4,Kanha Trading Company,https://www.indiamart.com/kanhatrading-company-panipat/?pos=205&kwd=hooded baby blanket&tags=||||8747.203|Price|product|||MDC|rsf:gd-|-stype:attr=1|qr_nm:gd|res:RC4|com-cf:nl|ptrs:na|ktp:N0|mc:99820|mtp:S|qry_typ:P|lang:en|wc:3|cs:8845|v=4,False,Pachranga Bazar,Panipat,"708/4, Near Valmiki Basti, Pachranga Bazar, Pachranga Bazar, Panipat - 132103, Dist.Panipat, Haryana",7949373029,
Dvk Handicraft 100% Cotton Reversible Rainbow Kantha Cot Quilt Baby Blanket,https://www.indiamart.com/proddetail/reversible-rainbow-kantha-cot-quilt-baby-blanket-13906344055.html?pos=206&kwd=hooded baby blanket&tags=||||8601.347|Price|product|||TS|rsf:gd-|-stype:attr=1|qr_nm:gd|res:RC4|com-cf:nl|ptrs:na|ktp:N0|mc:99820|mtp:S|qry_typ:P|lang:en|wc:3|cs:8845|v=4,DVK Handicraft Private Limited,https://www.dvkhandicraft.net/?pos=206&kwd=hooded baby blanket&tags=||||8601.347|Price|product|||TS|rsf:gd-|-stype:attr=1|qr_nm:gd|res:RC4|com-cf:nl|ptrs:na|ktp:N0|mc:99820|mtp:S|qry_typ:P|lang:en|wc:3|cs:8845|v=4,True,Vaishali Nagar,Jaipur,"B-24, Ground Floor Lalrpura Aayodhya Nagar Vaisha Gandhi Path, Vaishali Nagar, Vaishali Nagar, Jaipur - 302021, Dist.Jaipur, Rajasthan",8048608928,
Plain Fur Sling Bag,https://www.indiamart.com/proddetail/fur-sling-bag-2851971331512.html?pos=207&kwd=hooded baby blanket&tags=||||8307.81|Price|product|||MDC|rsf:gd-|-stype:attr=1|qr_nm:gd|res:RC4|com-cf:nl|ptrs:na|ktp:N0|mc:99820|mtp:S|qry_typ:P|lang:en|wc:3|cs:8845|v=4,Neharsh Collection,https://www.indiamart.com/neharsh-collection/?pos=207&kwd=hooded baby blanket&tags=||||8307.81|Price|product|||MDC|rsf:gd-|-stype:attr=1|qr_nm:gd|res:RC4|com-cf:nl|ptrs:na|ktp:N0|mc:99820|mtp:S|qry_typ:P|lang:en|wc:3|cs:8845|v=4,False,Moshi,Pune,"C-1202 Survey No. 669 Nakshtra Land, Moshi Alandi Road, Moshi Chowk, Moshi, Pune - 412105, Dist.Pune, Maharashtra",8048604456,
"Cotton Multicolor baby godri / new born baby razai / baby quilt / bedding for cot, Single Bed, Printed",https://www.indiamart.com/proddetail/new-born-baby-blanket-baby-quilt-bedding-for-cot-baby-godri-2853243927388.html?pos=208&kwd=hooded baby blanket&tags=||||8559.269|Price|product|||MDC|rsf:gd-|-stype:attr=1|qr_nm:gd|res:RC4|com-cf:nl|ptrs:na|ktp:N0|mc:99820|mtp:S|qry_typ:P|lang:en|wc:3|cs:8845|v=4,Sheza Enterprises,https://www.indiamart.com/shezaenterprises/?pos=208&kwd=hooded baby blanket&tags=||||8559.269|Price|product|||MDC|rsf:gd-|-stype:attr=1|qr_nm:gd|res:RC4|com-cf:nl|ptrs:na|ktp:N0|mc:99820|mtp:S|qry_typ:P|lang:en|wc:3|cs:8845|v=4,False,,Indore,"Alif House, 5, Khajrana Main Road, Opposite HP Petrol Pump,, Indore - 452001, Dist.Indore, Madhya Pradesh",7948547068,
Printed Newborn Infant Baby Swaddle Blanket Sleeping Swaddle With Bag,https://www.indiamart.com/proddetail/newborn-infant-baby-swaddle-blanket-sleeping-swaddle-with-bag-23761603991.html?pos=209&kwd=hooded baby blanket&tags=||||8601.347|Price|product|||TS|rsf:gd-|-stype:attr=1|qr_nm:gd|res:RC4|com-cf:nl|ptrs:na|ktp:N0|mc:99820|mtp:S|qry_typ:P|lang:en|wc:3|cs:8845|v=4,Gopali Arts,https://www.gopaliarts.in/?pos=209&kwd=hooded baby blanket&tags=||||8601.347|Price|product|||TS|rsf:gd-|-stype:attr=1|qr_nm:gd|res:RC4|com-cf:nl|ptrs:na|ktp:N0|mc:99820|mtp:S|qry_typ:P|lang:en|wc:3|cs:8845|v=4,False,G1-652 Sitapura Phase-1,Jaipur,"G1-652, Sitapura Phase-1, G1-652 Sitapura Phase-1, Jaipur - 302022, Dist.Jaipur, Rajasthan",8048264082,
"little monkeys jumbo size baby cotton mosquito net bed, For Home, Size: XL",https://www.indiamart.com/proddetail/little-monkeys-jumbo-size-baby-cotton-mosquito-net-bed-2851532198888.html?pos=210&kwd=hooded baby blanket&tags=||||8752.144|Price|product|||TS|rsf:gd-|-stype:attr=1|qr_nm:gd|res:RC4|com-cf:nl|ptrs:na|ktp:N0|mc:99820|mtp:S|qry_typ:P|lang:en|wc:3|cs:8845|v=4,Ekta Overseas,https://www.indiamart.com/ektaoverseas-newdelhi/?pos=210&kwd=hooded baby blanket&tags=||||8752.144|Price|product|||TS|rsf:gd-|-stype:attr=1|qr_nm:gd|res:RC4|com-cf:nl|ptrs:na|ktp:N0|mc:99820|mtp:S|qry_typ:P|lang:en|wc:3|cs:8845|v=4,False,Shahdara,New Delhi,"1/95, Gali No.3, Near Navjeevan Phisical Center, Vishwas Nagar, Shahdara,, Shahdara, New Delhi - 110032, Dist.Delhi, Delhi",7942628926,
