product_title,product_link,company_name,company_link,is_verified_exporter,city_region,city,address_details,phone_number,phone_number_extension
Adults Pull Ups Adult Diapers In Rohtak,https://www.indiamart.com/proddetail/adult-diapers-in-rohtak-2850597169255.html?pos=1&kwd=incontinence diaper&tags=A||||8752.144|Price|product|||TS|rsf:gd-|-qr_nm:gd|res:RC3|com-cf:nl|ptrs:na|ktp:N0|mc:73929|mtp:S|qry_typ:P|lang:en|wc:2|flavl:0|cs:8308|v=4,Recherche World,https://www.rechercheworld.co.in/?pos=1&kwd=incontinence diaper&tags=A||||8752.144|Price|product|||TS|rsf:gd-|-qr_nm:gd|res:RC3|com-cf:nl|ptrs:na|ktp:N0|mc:73929|mtp:S|qry_typ:P|lang:en|wc:2|flavl:0|cs:8308|v=4,False,Pandav Nagar,New Delhi,"Near Gurudwara, Ground Floor, A-13-14, Gali No.01, Pandav Nagar, East Delhi, Pandav Nagar, New Delhi - 110092, Dist.Delhi, Delhi",8047312171,
Above 15 Pull Ups Adult Incontinence Diaper,https://www.indiamart.com/proddetail/adult-incontinence-diaper-2851913869562.html?pos=2&kwd=incontinence diaper&tags=BA||||8038.093|Price|product|||TS|rsf:gd-|-qr_nm:gd|res:RC3|com-cf:nl|ptrs:na|ktp:N0|mc:73929|mtp:S|qry_typ:P|lang:en|wc:2|flavl:0|cs:8308|v=4,Rotech Healthcare Private Limited,https://www.lyfcareadultdiaper.com/?pos=2&kwd=incontinence diaper&tags=BA||||8038.093|Price|product|||TS|rsf:gd-|-qr_nm:gd|res:RC3|com-cf:nl|ptrs:na|ktp:N0|mc:73929|mtp:S|qry_typ:P|lang:en|wc:2|flavl:0|cs:8308|v=4,True,Near ankit ind.area,Rajkot,"Survey No.343, Plot No. 2 Rotech Healthcare pvt ltd Behind rotec submersible pumps llp, Near ankit ind.area, Rajkot - 360024, Dist.Rajkot, Gujarat",8047653782,
Incontinence Diaper,https://www.indiamart.com/proddetail/incontinence-diaper-16261057812.html?pos=3&kwd=incontinence diaper&tags=BA||||8703.834|Price|product|||TS|rsf:gd-|-qr_nm:gd|res:RC3|com-cf:nl|ptrs:na|ktp:N0|mc:73929|mtp:S|qry_typ:P|lang:en|wc:2|flavl:0|cs:8308|v=4,Kamal Healthcare Products Private Limited,https://www.avmsuperdry.in/?pos=3&kwd=incontinence diaper&tags=BA||||8703.834|Price|product|||TS|rsf:gd-|-qr_nm:gd|res:RC3|com-cf:nl|ptrs:na|ktp:N0|mc:73929|mtp:S|qry_typ:P|lang:en|wc:2|flavl:0|cs:8308|v=4,False,Ezhil Nagar,Thoothukudi,"2nd Floor, No. 180, North Cotton Road, Ezhil Nagar, Thoothukudi - 628001, Dist.Tuticorin, Tamil Nadu",8048605186,
Briefs Wholesale Loose Adult Diapers,https://www.indiamart.com/proddetail/wholesale-loose-adult-diapers-2852589026548.html?pos=4&kwd=incontinence diaper&tags=BA||||8786.56|Price|product|||TS|rsf:gd-|-qr_nm:gd|res:RC3|com-cf:nl|ptrs:na|ktp:N0|mc:73929|mtp:S|qry_typ:P|lang:en|wc:2|flavl:0|cs:8308|v=4,Prakar Enterprises,https://www.prakarenterprises.com/?pos=4&kwd=incontinence diaper&tags=BA||||8786.56|Price|product|||TS|rsf:gd-|-qr_nm:gd|res:RC3|com-cf:nl|ptrs:na|ktp:N0|mc:73929|mtp:S|qry_typ:P|lang:en|wc:2|flavl:0|cs:8308|v=4,False,Kothapet,Hyderabad,"13-1-2, Road no.1, Prabhath Nagar, Chaitanyapuri, Kothapet, Hyderabad - 500060, Dist.Hyderabad, Telangana",7942552841,
"Tidy Adult Diaper Extra Large, XL",https://www.indiamart.com/proddetail/tidy-adult-diaper-extra-large-2854228146633.html?pos=5&kwd=incontinence diaper&tags=BA||||8747.223|Price|product|||TS|rsf:gd-|-qr_nm:gd|res:RC3|com-cf:nl|ptrs:na|ktp:N0|mc:73929|mtp:S|qry_typ:P|lang:en|wc:2|flavl:0|cs:8308|v=4,Pioneer Hygiene Industries LLP,https://www.pioneerhygiene.co.in/?pos=5&kwd=incontinence diaper&tags=BA||||8747.223|Price|product|||TS|rsf:gd-|-qr_nm:gd|res:RC3|com-cf:nl|ptrs:na|ktp:N0|mc:73929|mtp:S|qry_typ:P|lang:en|wc:2|flavl:0|cs:8308|v=4,True,,Sonipat,"Kila No. 95//1/1, 12/13, 19 And 22/1/1, Akbarpur Barota, Sonipat - 131103, Dist.Sonipat, Haryana",8045731181,
Sticking Adult Diaper W2D Extra Large XL-10pc,https://www.indiamart.com/proddetail/adult-diaper-w2d-extra-large-xl-10pc-2851613577373.html?pos=6&kwd=incontinence diaper&tags=BA||||8211.142|Price|product|||TS|rsf:gd-|-qr_nm:gd|res:RC3|com-cf:nl|ptrs:na|ktp:N0|mc:73929|mtp:S|qry_typ:P|lang:en|wc:2|flavl:0|cs:8308|v=4,Maxtech Healthcare Private Limited,https://www.indiamart.com/maxtech-healthcare/?pos=6&kwd=incontinence diaper&tags=BA||||8211.142|Price|product|||TS|rsf:gd-|-qr_nm:gd|res:RC3|com-cf:nl|ptrs:na|ktp:N0|mc:73929|mtp:S|qry_typ:P|lang:en|wc:2|flavl:0|cs:8308|v=4,False,Kandivali West,Mumbai,"Shop No. 10, Near Railway Station, Malad East, Pragati Shopping Center, Kandivali West, Mumbai - 400097, Dist.Mumbai, Maharashtra",8046077581,
"Belt Adult Incontinence Diaper, Seni Optima Super Large A10",https://www.indiamart.com/proddetail/adult-incontinence-diaper-seni-optima-super-large-a10-2851100847230.html?pos=7&kwd=incontinence diaper&tags=BA||||8663.873|Price|product|||TS|rsf:gd-|-qr_nm:gd|res:RC3|com-cf:nl|ptrs:na|ktp:N0|mc:73929|mtp:S|qry_typ:P|lang:en|wc:2|flavl:0|cs:8308|v=4,TZMO India South Private Limited,https://www.indiamart.com/tzmoindiasouth/?pos=7&kwd=incontinence diaper&tags=BA||||8663.873|Price|product|||TS|rsf:gd-|-qr_nm:gd|res:RC3|com-cf:nl|ptrs:na|ktp:N0|mc:73929|mtp:S|qry_typ:P|lang:en|wc:2|flavl:0|cs:8308|v=4,False,New Timber Yard Layout,Bengaluru,"No.2, 1st Floor, Featherlite Building, Mysore Road, New Timber Yard Layout, New Timber Yard Layout, Bengaluru - 560026, Dist.Bengaluru, Karnataka",8048619127,
Adult Pull Up Diapers Extra Large-10pc Adult Choice,https://www.indiamart.com/proddetail/adult-pull-up-diapers-extra-large-10pc-adult-choice-2852722700012.html?pos=8&kwd=incontinence diaper&tags=BA||||8211.142|Price|product|||TS|rsf:gd-|-qr_nm:gd|res:RC3|com-cf:nl|ptrs:na|ktp:N0|mc:73929|mtp:S|qry_typ:P|lang:en|wc:2|flavl:0|cs:8308|v=4,Maxtech,https://www.maxtechhealth.in/?pos=8&kwd=incontinence diaper&tags=BA||||8211.142|Price|product|||TS|rsf:gd-|-qr_nm:gd|res:RC3|com-cf:nl|ptrs:na|ktp:N0|mc:73929|mtp:S|qry_typ:P|lang:en|wc:2|flavl:0|cs:8308|v=4,False,Rani Sati Marg,Mumbai,"Shop No. 10, Pragati Shopping Centre Manchu Bhai Road, Rani Sati Marg, Mumbai - 400097, Dist.Mumbai, Maharashtra",8048970842,
Adult Diapers,https://www.indiamart.com/proddetail/adult-diapers-2851834532597.html?pos=9&kwd=incontinence diaper&tags=BA||||8211.142|Price|product|||TS|rsf:gd-|-qr_nm:gd|res:RC3|com-cf:nl|ptrs:na|ktp:N0|mc:73929|mtp:S|qry_typ:P|lang:en|wc:2|flavl:0|cs:8308|v=4,PAC Healthcare & Surgicals,https://www.healthcaredealer.in/?pos=9&kwd=incontinence diaper&tags=BA||||8211.142|Price|product|||TS|rsf:gd-|-qr_nm:gd|res:RC3|com-cf:nl|ptrs:na|ktp:N0|mc:73929|mtp:S|qry_typ:P|lang:en|wc:2|flavl:0|cs:8308|v=4,False,Borivali West,Mumbai,"5, Bill Berry Apartment, I. C. Colony, Borivali West, Mumbai - 400103, Dist.Mumbai, Maharashtra",8048960800,
Large Cotton Disposable Adult Diapers,https://www.indiamart.com/proddetail/large-cotton-disposable-adult-diapers-2853249939330.html?pos=10&kwd=incontinence diaper&tags=BB||||8767.009|Price|product|||TS|rsf:gd-|-qr_nm:gd|res:RC3|com-cf:nl|ptrs:na|ktp:N0|mc:73929|mtp:S|qry_typ:P|lang:en|wc:2|flavl:0|cs:8308|v=4,Dakshu Enterprise,https://www.indiamart.com/dakshu-enterprise/?pos=10&kwd=incontinence diaper&tags=BB||||8767.009|Price|product|||TS|rsf:gd-|-qr_nm:gd|res:RC3|com-cf:nl|ptrs:na|ktp:N0|mc:73929|mtp:S|qry_typ:P|lang:en|wc:2|flavl:0|cs:8308|v=4,False,,Baghpat,"0,,Delhi Saharanpur road,Baghpat, Baghpat - 250609, Dist.Bagpat, Uttar Pradesh",7949339950,
"Seni Adult Diapers, Size: Large",https://www.indiamart.com/proddetail/seni-adult-diapers-15472838333.html?pos=11&kwd=incontinence diaper&tags=BA||||8663.873|Price|product|||TS|rsf:gd-|-qr_nm:gd|res:RC3|com-cf:nl|ptrs:na|ktp:N0|mc:73929|mtp:S|qry_typ:P|lang:en|wc:2|flavl:0|cs:8308|v=4,Canadian Global Life And Educare Private Limited,https://www.healthheal.co.in/?pos=11&kwd=incontinence diaper&tags=BA||||8663.873|Price|product|||TS|rsf:gd-|-qr_nm:gd|res:RC3|com-cf:nl|ptrs:na|ktp:N0|mc:73929|mtp:S|qry_typ:P|lang:en|wc:2|flavl:0|cs:8308|v=4,False,Vijayanagar,Bengaluru,"No. 2260, 4th A Cross, 1st Main Road, Vijayanagar, Bengaluru - 560040, Dist.Bengaluru, Karnataka",8048608947,
"Pull Ups ALIFE CURE Pant Style Overnight Disposable Adult Diapers Unisex-L, Size: Large",https://www.indiamart.com/proddetail/alife-cure-pant-style-overnight-disposable-adult-diapers-unisex-l-2851872687930.html?pos=12&kwd=incontinence diaper&tags=BA||||8228.275|Price|product|||TS|rsf:gd-|-qr_nm:gd|res:RC3|com-cf:nl|ptrs:na|ktp:N0|mc:73929|mtp:S|qry_typ:P|lang:en|wc:2|flavl:0|cs:8308|v=4,Akshaya Enterprise,https://www.indiamart.com/akshayaenterpriseahmedabad/?pos=12&kwd=incontinence diaper&tags=BA||||8228.275|Price|product|||TS|rsf:gd-|-qr_nm:gd|res:RC3|com-cf:nl|ptrs:na|ktp:N0|mc:73929|mtp:S|qry_typ:P|lang:en|wc:2|flavl:0|cs:8308|v=4,False,Dudheshwar,Ahmedabad,"C-103, First Floor, Shri Hari Residency, Near Sakar School, New C.G. Road, Chandkheda, Dudheshwar, Ahmedabad - 382424, Dist.Ahmedabad, Gujarat",8048983196,
"Easy Friends Adult Diapers, Size: Medium, Packaging Type: Packet",https://www.indiamart.com/proddetail/easy-friends-adult-diapers-21914628633.html?pos=13&kwd=incontinence diaper&tags=BA||||8954.051|Price|product|||TS|rsf:gd-|-qr_nm:gd|res:RC3|com-cf:nl|ptrs:na|ktp:N0|mc:73929|mtp:S|qry_typ:P|lang:en|wc:2|flavl:0|cs:8308|v=4,Sri Sai Surgicals,https://www.indiamart.com/sai-surgicalchennai/?pos=13&kwd=incontinence diaper&tags=BA||||8954.051|Price|product|||TS|rsf:gd-|-qr_nm:gd|res:RC3|com-cf:nl|ptrs:na|ktp:N0|mc:73929|mtp:S|qry_typ:P|lang:en|wc:2|flavl:0|cs:8308|v=4,False,Aminijikarai,Chennai,"New No.20,old No.43 Rajeswari Street Chennai Chennai, Aminijikarai, Chennai - 600029, Dist.Chennai, Tamil Nadu",7942535047,
Pull Ups Adult Pants Diaper,https://www.indiamart.com/proddetail/adult-pants-diaper-2852991685312.html?pos=14&kwd=incontinence diaper&tags=BA||||9110.092|Price|product|||TS|rsf:gd-|-qr_nm:gd|res:RC3|com-cf:nl|ptrs:na|ktp:N0|mc:73929|mtp:S|qry_typ:P|lang:en|wc:2|flavl:0|cs:8308|v=4,Shashwat Udyog,https://www.indiamart.com/shashwatudyog-uttarpradesh/?pos=14&kwd=incontinence diaper&tags=BA||||9110.092|Price|product|||TS|rsf:gd-|-qr_nm:gd|res:RC3|com-cf:nl|ptrs:na|ktp:N0|mc:73929|mtp:S|qry_typ:P|lang:en|wc:2|flavl:0|cs:8308|v=4,False,Gomti,Lucknow,"302, Omaxe Heights, Vibhuti Khand, Gomti Nagar, Gomti, Lucknow - 226010, Dist.Lucknow, Uttar Pradesh",8048616780,
Stickon & Pullups Adult Incontinence Diaper,https://www.indiamart.com/proddetail/adult-incontinence-diaper-24097870262.html?pos=15&kwd=incontinence diaper&tags=BA||||8211.142|Price|product|||TS|rsf:gd-|-qr_nm:gd|res:RC3|com-cf:nl|ptrs:na|ktp:N0|mc:73929|mtp:S|qry_typ:P|lang:en|wc:2|cs:7545|v=4,I Touch Surgical,https://www.itouchsurgical.co.in/?pos=15&kwd=incontinence diaper&tags=BA||||8211.142|Price|product|||TS|rsf:gd-|-qr_nm:gd|res:RC3|com-cf:nl|ptrs:na|ktp:N0|mc:73929|mtp:S|qry_typ:P|lang:en|wc:2|cs:7545|v=4,False,Goregaon,Mumbai,"4, Ekta Suprabhat, Siddharth Nagar, Goregaon West, Goregaon, Mumbai - 400104, Dist.Mumbai, Maharashtra",8048962190,
Friends Adult Diapers (Pack of 8),https://www.indiamart.com/proddetail/friends-adult-diapers-18357991588.html?pos=16&kwd=incontinence diaper&tags=BA||||8211.142|Price|product|||TS|rsf:gd-|-qr_nm:gd|res:RC3|com-cf:nl|ptrs:na|ktp:N0|mc:73929|mtp:S|qry_typ:P|lang:en|wc:2|cs:7545|v=4,Shah Trading Corporation,https://www.indiamart.com/shahtrading-corp/?pos=16&kwd=incontinence diaper&tags=BA||||8211.142|Price|product|||TS|rsf:gd-|-qr_nm:gd|res:RC3|com-cf:nl|ptrs:na|ktp:N0|mc:73929|mtp:S|qry_typ:P|lang:en|wc:2|cs:7545|v=4,False,Kalbadevi,Mumbai,"Room No. 35, 2nd Floor, Shri Krishna Niwas 500, Kalbadevi Road, New Silk Bazar, Kalbadevi, Mumbai - 400002, Dist.Mumbai, Maharashtra",8046042417,
FLAMINGO ADULT DIAPER XL TAPE STYLE,https://www.indiamart.com/proddetail/flamingo-adult-diaper-xl-tape-style-26244271630.html?pos=17&kwd=incontinence diaper&tags=A||||8752.144|Price|product|||TS|rsf:gd-|-qr_nm:gd|res:RC3|com-cf:nl|ptrs:na|ktp:N0|mc:73929|mtp:S|qry_typ:P|lang:en|wc:2|cs:7545|v=4,Garg International,https://www.indiamart.com/garginternational/?pos=17&kwd=incontinence diaper&tags=A||||8752.144|Price|product|||TS|rsf:gd-|-qr_nm:gd|res:RC3|com-cf:nl|ptrs:na|ktp:N0|mc:73929|mtp:S|qry_typ:P|lang:en|wc:2|cs:7545|v=4,True,MOB - 931-3833-111,New Delhi,"Plot No. 448, Patparganj Industrial Area, MOB - 931-3833-111, New Delhi - 110092, Dist.Delhi, Delhi",8046041447,
Adult Incontinence Diaper,https://www.indiamart.com/proddetail/adult-incontinence-diaper-26409228973.html?pos=18&kwd=incontinence diaper&tags=BA||||8786.56|Price|product|||TS|rsf:gd-|-qr_nm:gd|res:RC3|com-cf:nl|ptrs:na|ktp:N0|mc:73929|mtp:S|qry_typ:P|lang:en|wc:2|cs:7545|v=4,TJB Global Pharma,https://www.indiamart.com/jayabhadurisunkara/?pos=18&kwd=incontinence diaper&tags=BA||||8786.56|Price|product|||TS|rsf:gd-|-qr_nm:gd|res:RC3|com-cf:nl|ptrs:na|ktp:N0|mc:73929|mtp:S|qry_typ:P|lang:en|wc:2|cs:7545|v=4,False,Nampally,Hyderabad,"6-3-596/21/2,Prem, Nagar Banjarahills,, Nampally, Hyderabad - 500034, Dist.Hyderabad, Telangana",8048618160,
"Sticker Briefs BioCare Adult Incontinence Diaper, Size: Medium Large Extra Large",https://www.indiamart.com/proddetail/biocare-adult-incontinence-diaper-2851220917348.html?pos=19&kwd=incontinence diaper&tags=BA||||8786.56|Price|product|||TS|rsf:gd-|-qr_nm:gd|res:RC3|com-cf:nl|ptrs:na|ktp:N0|mc:73929|mtp:S|qry_typ:P|lang:en|wc:2|cs:7545|v=4,Biocare Surgical Industries,https://www.indiamart.com/biocaresurgicalindustries/?pos=19&kwd=incontinence diaper&tags=BA||||8786.56|Price|product|||TS|rsf:gd-|-qr_nm:gd|res:RC3|com-cf:nl|ptrs:na|ktp:N0|mc:73929|mtp:S|qry_typ:P|lang:en|wc:2|cs:7545|v=4,False,Nagaram,Hyderabad,"Plot No. 16, 2nd Floor, dammaiguda Hyderabad Medchal, Malkajgiri, Nagaram, Hyderabad - 500062, Dist.Hyderabad, Telangana",8048957165,
Incontinence Diaper,https://www.indiamart.com/proddetail/incontinence-diaper-2850835172273.html?pos=20&kwd=incontinence diaper&tags=BA||||8211.142||product|||TS|rsf:gd-|-qr_nm:gd|res:RC3|com-cf:nl|ptrs:na|ktp:N0|mc:73929|mtp:S|qry_typ:P|lang:en|wc:2|cs:7545|v=4,Shree Surgicals,https://www.indiamart.com/shreesurgicalsmumbai/?pos=20&kwd=incontinence diaper&tags=BA||||8211.142||product|||TS|rsf:gd-|-qr_nm:gd|res:RC3|com-cf:nl|ptrs:na|ktp:N0|mc:73929|mtp:S|qry_typ:P|lang:en|wc:2|cs:7545|v=4,False,Parel,Mumbai,"Shop No. 8,Atit Shopping Enterprise Pvt Ltd,J P Road,Mumbai, Parel, Mumbai - 400053, Dist.Mumbai, Maharashtra",7942817071,
Pull Ups Incontinence Adult Diaper,https://www.indiamart.com/proddetail/incontinence-adult-diaper-2852638626788.html?pos=21&kwd=incontinence diaper&tags=BA||||8741.812|Price|product|||TS|rsf:gd-|-qr_nm:gd|res:RC3|com-cf:nl|ptrs:na|ktp:N0|mc:73929|mtp:S|qry_typ:P|lang:en|wc:2|cs:7545|v=4,Arrow Enterprises,https://www.arrowhomes.in/?pos=21&kwd=incontinence diaper&tags=BA||||8741.812|Price|product|||TS|rsf:gd-|-qr_nm:gd|res:RC3|com-cf:nl|ptrs:na|ktp:N0|mc:73929|mtp:S|qry_typ:P|lang:en|wc:2|cs:7545|v=4,False,Sector 37,Gurgaon,"Opposite Factory No. 761, Plot No. 8, Sector 37, Pace City 2, Sector 37, Gurgaon - 122001, Dist.Gurgaon, Haryana",7942564985,
Velcro Briefs Incontinence Adult Diaper,https://www.indiamart.com/proddetail/incontinence-adult-diaper-2851643658112.html?pos=22&kwd=incontinence diaper&tags=BA||||8237.554|Price|product|||MDC|rsf:gd-|-qr_nm:gd|res:RC3|com-cf:nl|ptrs:na|ktp:N0|mc:73929|mtp:S|qry_typ:P|lang:en|wc:2|cs:7545|v=4,Stoe Life Private Limited,https://www.indiamart.com/stoelife-gujarat/?pos=22&kwd=incontinence diaper&tags=BA||||8237.554|Price|product|||MDC|rsf:gd-|-qr_nm:gd|res:RC3|com-cf:nl|ptrs:na|ktp:N0|mc:73929|mtp:S|qry_typ:P|lang:en|wc:2|cs:7545|v=4,False,Sector 6,Gandhinagar,"Unit C/5,Gujarat Garment Co-operative Industrial Estate, Airport Road,Koba, Sector 6, Gandhinagar - 382006, Gujarat",8048979339,
"Unisex Up Up And Sticking Adult Diaper, Size: M L Xl",https://www.indiamart.com/proddetail/adult-diaper-23794798930.html?pos=23&kwd=incontinence diaper&tags=BA||||8876.815|Price|product|||TS|rsf:gd-|-qr_nm:gd|res:RC3|com-cf:nl|ptrs:na|ktp:N0|mc:73929|mtp:S|qry_typ:P|lang:en|wc:2|cs:7545|v=4,M/S S. M. Enterprises,https://www.indiamart.com/mssmenterprisesnagpur/?pos=23&kwd=incontinence diaper&tags=BA||||8876.815|Price|product|||TS|rsf:gd-|-qr_nm:gd|res:RC3|com-cf:nl|ptrs:na|ktp:N0|mc:73929|mtp:S|qry_typ:P|lang:en|wc:2|cs:7545|v=4,False,Dhantoli,Nagpur,"Ward No-04, Plot No 550, Block No M-2,Aruna Palace Abhyankar Road Dhantoli, Dhantoli, Nagpur - 440012, Dist.Nagpur, Maharashtra",8043800090,
"Tape Style Briefs Elduro Adult Diaper, Size: Medium M",https://www.indiamart.com/proddetail/elduro-adult-diaper-2849318466833.html?pos=24&kwd=incontinence diaper&tags=BB||||8307.81|Price|product|||TS|rsf:gd-|-qr_nm:gd|res:RC3|com-cf:nl|ptrs:na|ktp:N0|mc:73929|mtp:S|qry_typ:P|lang:en|wc:2|cs:7545|v=4,Anand Agencies,https://www.indiamart.com/anandagenciesmaharashtra/?pos=24&kwd=incontinence diaper&tags=BB||||8307.81|Price|product|||TS|rsf:gd-|-qr_nm:gd|res:RC3|com-cf:nl|ptrs:na|ktp:N0|mc:73929|mtp:S|qry_typ:P|lang:en|wc:2|cs:7545|v=4,False,Kharadi,Pune,"2nd Floor, Arham Tower Pune Nagar Road,, Kharadi, Pune - 411009, Dist.Pune, Maharashtra",8047679161,
"Briefs Disposable Adult Diaper, Size: Medium",https://www.indiamart.com/proddetail/disposable-adult-diaper-24696611548.html?pos=25&kwd=incontinence diaper&tags=BA||||8754.115|Price|product|||TS|rsf:gd-|-qr_nm:gd|res:RC3|com-cf:nl|ptrs:na|ktp:N0|mc:73929|mtp:S|qry_typ:P|lang:en|wc:2|cs:7545|v=4,Dnr Healthcare Private Limited,https://www.indiamart.com/dnrhealthcare/?pos=25&kwd=incontinence diaper&tags=BA||||8754.115|Price|product|||TS|rsf:gd-|-qr_nm:gd|res:RC3|com-cf:nl|ptrs:na|ktp:N0|mc:73929|mtp:S|qry_typ:P|lang:en|wc:2|cs:7545|v=4,False,Sector 8,Panchkula,"Plot No. 151 Industrial Area Phase Ii phase-2, Sector 8, Panchkula - 134109, Dist.Panchkula, Haryana",8047647074,
"Printed Secure Cotton Adult Diaper, Packaging Size: Large",https://www.indiamart.com/proddetail/secure-cotton-adult-diaper-2852721200291.html?pos=26&kwd=incontinence diaper&tags=BB||||8559.269|Price|product|||TS|rsf:gd-|-qr_nm:gd|res:RC3|com-cf:nl|ptrs:na|ktp:N0|mc:73929|mtp:S|qry_typ:P|lang:en|wc:2|cs:7545|v=4,Aadaarsh Enterprise,https://www.hellosweetybabydaiper.com/?pos=26&kwd=incontinence diaper&tags=BB||||8559.269|Price|product|||TS|rsf:gd-|-qr_nm:gd|res:RC3|com-cf:nl|ptrs:na|ktp:N0|mc:73929|mtp:S|qry_typ:P|lang:en|wc:2|cs:7545|v=4,False,,Indore,"2,Sher Shah Suri Nagar B, Khajrana, Indore - 452001, Dist.Indore, Madhya Pradesh",8043879050,
Free Steps Adult Diaper Large Size,https://www.indiamart.com/proddetail/free-steps-adult-diaper-large-size-24178118997.html?pos=27&kwd=incontinence diaper&tags=BA||||8741.812|Price|product|||TS|rsf:gd-|-qr_nm:gd|res:RC3|com-cf:nl|ptrs:na|ktp:N0|mc:73929|mtp:S|qry_typ:P|lang:en|wc:2|cs:7545|v=4,Jayshi Healthcare Private Limited,https://www.freesteps.in/?pos=27&kwd=incontinence diaper&tags=BA||||8741.812|Price|product|||TS|rsf:gd-|-qr_nm:gd|res:RC3|com-cf:nl|ptrs:na|ktp:N0|mc:73929|mtp:S|qry_typ:P|lang:en|wc:2|cs:7545|v=4,False,,Gurugram,"Near Khasi Ram Medical, Gurugram ,HR, 413/4, Jacubpura, Gurugram, New Railway Road near Jeevan multi specialist hospital, Gurugram - 122001, Dist.Gurgaon, Haryana",8045909409,
"Protective Underwear Adult Diaper Arokleen 5 Pcs (Pack) (L), Size: Large",https://www.indiamart.com/proddetail/adult-diaper-arokleen-5-pcs-pack-l-2851057365855.html?pos=28&kwd=incontinence diaper&tags=BA||||10180.86|Price|product|||TS|rsf:gd-|-qr_nm:gd|res:RC3|com-cf:nl|ptrs:na|ktp:N0|mc:73929|mtp:S|qry_typ:P|lang:en|wc:2|cs:7545|v=4,J.N.M. Enterprise,https://www.jnmenterprise.com/?pos=28&kwd=incontinence diaper&tags=BA||||10180.86|Price|product|||TS|rsf:gd-|-qr_nm:gd|res:RC3|com-cf:nl|ptrs:na|ktp:N0|mc:73929|mtp:S|qry_typ:P|lang:en|wc:2|cs:7545|v=4,False,Pan Bazaar,Guwahati,"1st Floor S S Road Nahar Mansion Lakhtokia, Pan Bazaar, Guwahati - 781001, Dist.Kamrup, Assam",7942827915,
"4U Adult Diapers (Wrap/Sticky), Size: M/L/Xl",https://www.indiamart.com/proddetail/4u-adult-diapers-wrap-sticky-25414452988.html?pos=29&kwd=incontinence diaper&tags=BB||||8663.873|Price|product|||TS|rsf:gd-|-qr_nm:gd|res:RC3|com-cf:nl|ptrs:na|ktp:N0|mc:73929|mtp:S|qry_typ:P|lang:en|wc:2|cs:7545|v=4,Arera Healthcare & Technologies Private Limited,https://www.instorevmedo.com/?pos=29&kwd=incontinence diaper&tags=BB||||8663.873|Price|product|||TS|rsf:gd-|-qr_nm:gd|res:RC3|com-cf:nl|ptrs:na|ktp:N0|mc:73929|mtp:S|qry_typ:P|lang:en|wc:2|cs:7545|v=4,False,J. P. Nagar,Bengaluru,"70/3, Lakshmi Complex, Near Sarakki Signal, 6th Phase, JP Nagar, J. P. Nagar, Bengaluru - 560078, Dist.Bengaluru, Karnataka",8048261759,
Adults Pant Medisorb Adult Diapers M Size,https://www.indiamart.com/proddetail/medisorb-adult-diapers-m-size-2851062040055.html?pos=30&kwd=incontinence diaper&tags=BA||||8211.142|Price|product|||TS|rsf:gd-|-qr_nm:gd|res:RC3|com-cf:nl|ptrs:na|ktp:N0|mc:73929|mtp:S|qry_typ:P|lang:en|wc:2|cs:7545|v=4,Neha Enterprise,https://www.indiamart.com/nehaenterprisemaharashtra/?pos=30&kwd=incontinence diaper&tags=BA||||8211.142|Price|product|||TS|rsf:gd-|-qr_nm:gd|res:RC3|com-cf:nl|ptrs:na|ktp:N0|mc:73929|mtp:S|qry_typ:P|lang:en|wc:2|cs:7545|v=4,False,Ballard Estate,Mumbai,"34/2, Dossa House, Gunbow Street, Fort, Ballard Estate, Mumbai - 400001, Dist.Mumbai, Maharashtra",8048956891,
Welcrow Magic adult dyper xl,https://www.indiamart.com/proddetail/magic-adult-dyper-xl-2850051379791.html?pos=31&kwd=incontinence diaper&tags=BA||||8228.275|Price|product|||TS|rsf:gd-|-qr_nm:gd|res:RC3|com-cf:nl|ptrs:na|ktp:N0|mc:73929|mtp:S|qry_typ:P|lang:en|wc:2|cs:7545|v=4,Green Life Healthcare,https://www.indiamart.com/green-life-healthcare/?pos=31&kwd=incontinence diaper&tags=BA||||8228.275|Price|product|||TS|rsf:gd-|-qr_nm:gd|res:RC3|com-cf:nl|ptrs:na|ktp:N0|mc:73929|mtp:S|qry_typ:P|lang:en|wc:2|cs:7545|v=4,False,Sarkhej Village,Ahmedabad,"11, J P ESTATE,NAVAPURA NR SHUKAN COMPLEX, Sarkhej Village, Ahmedabad - 382210, Dist.Ahmedabad, Gujarat",8048604726,
"Protective Underwear Dr C Adult Diapers, Size: Large",https://www.indiamart.com/proddetail/dr-c-adult-diapers-2849911964673.html?pos=32&kwd=incontinence diaper&tags=BA||||8899.625|Price|product|||TS|rsf:gd-|-qr_nm:gd|res:RC3|com-cf:nl|ptrs:na|ktp:N0|mc:73929|mtp:S|qry_typ:P|lang:en|wc:2|cs:7545|v=4,Sri Goutham Surgicals,https://www.indiamart.com/sri-goutham-surgicals/?pos=32&kwd=incontinence diaper&tags=BA||||8899.625|Price|product|||TS|rsf:gd-|-qr_nm:gd|res:RC3|com-cf:nl|ptrs:na|ktp:N0|mc:73929|mtp:S|qry_typ:P|lang:en|wc:2|cs:7545|v=4,False,Heritage Town,Pondicherry,"First Floor 156, Ambalathadayar Madam Street Kosakadi Street, Heritage Town, Pondicherry - 605001, Dist.Pondicherry, Pondicherry",7942799905,
"Romsons Pull Ups Dignity Magna Adult Diapers, 10 Pcs, Size: Large",https://www.indiamart.com/proddetail/dignity-magna-adult-diapers-26067976048.html?pos=33&kwd=incontinence diaper&tags=BA||||8601.347|Price|product|||TS|rsf:gd-|-qr_nm:gd|res:RC3|com-cf:nl|ptrs:na|ktp:N0|mc:73929|mtp:S|qry_typ:P|lang:en|wc:2|cs:7545|v=4,Aarogya Surgical,https://www.aarogyasurgical.com/?pos=33&kwd=incontinence diaper&tags=BA||||8601.347|Price|product|||TS|rsf:gd-|-qr_nm:gd|res:RC3|com-cf:nl|ptrs:na|ktp:N0|mc:73929|mtp:S|qry_typ:P|lang:en|wc:2|cs:7545|v=4,False,Tonk Phatak,Jaipur,"9 Krishna Nagar Imli Phatak, Tonk Phatak, Jaipur - 302015, Dist.Jaipur, Rajasthan",8043858469,
"Pull Ups Cotton SAFERX Adult Diaper, Size: 40inch",https://www.indiamart.com/proddetail/saferx-adult-diaper-2851100574433.html?pos=34&kwd=incontinence diaper&tags=BB||||8230.883|Price|product|||MDC|rsf:gd-|-qr_nm:gd|res:RC3|com-cf:nl|ptrs:na|ktp:N0|mc:73929|mtp:S|qry_typ:P|lang:en|wc:2|cs:7545|v=4,Ganesh Medicines / Shree Ganesh Sales,https://www.indiamart.com/ganeshmedicines-shreeganeshsales/?pos=34&kwd=incontinence diaper&tags=BB||||8230.883|Price|product|||MDC|rsf:gd-|-qr_nm:gd|res:RC3|com-cf:nl|ptrs:na|ktp:N0|mc:73929|mtp:S|qry_typ:P|lang:en|wc:2|cs:7545|v=4,False,Adamwad,Surat,"12/2653 55,2666 Near Bibi Ni Wadi,, Adamwad, Surat - 395003, Dist.Surat, Gujarat",7942832982,
Liberty L 10 Adult Diaper Pants,https://www.indiamart.com/proddetail/liberty-l-10-adult-diaper-pants-2852869399048.html?pos=35&kwd=incontinence diaper&tags=BA||||8741.812|Price|product|||MDC|rsf:gd-|-qr_nm:gd|res:RC3|com-cf:nl|ptrs:na|ktp:N0|mc:73929|mtp:S|qry_typ:P|lang:en|wc:2|cs:7545|v=4,Mahak Enterprises,https://www.indiamart.com/mahak-enterprises-gurugram/?pos=35&kwd=incontinence diaper&tags=BA||||8741.812|Price|product|||MDC|rsf:gd-|-qr_nm:gd|res:RC3|com-cf:nl|ptrs:na|ktp:N0|mc:73929|mtp:S|qry_typ:P|lang:en|wc:2|cs:7545|v=4,False,Sector 9,Gurugram,"27, Gali number 1, Shiv Enclave Ghamroj , Mahendwara, Sector 9, Gurugram - 122102, Dist.Gurgaon, Haryana",7942967507,
Flamingo adult diaper Tape style MEDIUM,https://www.indiamart.com/proddetail/flamingo-adult-diaper-tape-style-medium-27152675530.html?pos=36&kwd=incontinence diaper&tags=BA||||8785.791|Price|product|||MDC|rsf:gd-|-qr_nm:gd|res:RC3|com-cf:nl|ptrs:na|ktp:N0|mc:73929|mtp:S|qry_typ:P|lang:en|wc:2|cs:7545|v=4,Ediagno Healthcare Private Limited,https://www.indiamart.com/ediagnohealthcare/?pos=36&kwd=incontinence diaper&tags=BA||||8785.791|Price|product|||MDC|rsf:gd-|-qr_nm:gd|res:RC3|com-cf:nl|ptrs:na|ktp:N0|mc:73929|mtp:S|qry_typ:P|lang:en|wc:2|cs:7545|v=4,False,Vaishali,Ghaziabad,"1/580, Shop No. 1, Ground Floor, Vaishali, Vaishali, Ghaziabad - 201010, Dist.Ghaziabad, Uttar Pradesh",8043852624,
"Above 70 Years Pull Ups Smart Care XL Adult Diaper, Size: XL-09",https://www.indiamart.com/proddetail/smart-care-xl-adult-diaper-2849550610991.html?pos=37&kwd=incontinence diaper&tags=BB||||8559.269|Price|product|||TS|rsf:gd-|-qr_nm:gd|res:RC3|com-cf:nl|ptrs:na|ktp:N0|mc:73929|mtp:S|qry_typ:P|lang:en|wc:2|cs:7545|v=4,HZ Enterprises,https://www.indiamart.com/hz-enterprises-madhyapradesh/?pos=37&kwd=incontinence diaper&tags=BB||||8559.269|Price|product|||TS|rsf:gd-|-qr_nm:gd|res:RC3|com-cf:nl|ptrs:na|ktp:N0|mc:73929|mtp:S|qry_typ:P|lang:en|wc:2|cs:7545|v=4,False,Sudama Nagar,Indore,"2, Manikbag Road, Sudama Nagar, Indore - 452009, Dist.Indore, Madhya Pradesh",7942791847,
Cotton Premium Adult Diapers,https://www.indiamart.com/proddetail/premium-adult-diapers-2853065996312.html?pos=38&kwd=incontinence diaper&tags=BA||||8230.883|Price|product|||TS|rsf:gd-|-qr_nm:gd|res:RC3|com-cf:nl|ptrs:na|ktp:N0|mc:73929|mtp:S|qry_typ:P|lang:en|wc:2|cs:7545|v=4,Shanti Medicare,https://www.indiamart.com/shanti-medicare/?pos=38&kwd=incontinence diaper&tags=BA||||8230.883|Price|product|||TS|rsf:gd-|-qr_nm:gd|res:RC3|com-cf:nl|ptrs:na|ktp:N0|mc:73929|mtp:S|qry_typ:P|lang:en|wc:2|cs:7545|v=4,False,126 shardha row row house,Surat,"S 20, Swastik Plaza, Yogi Chowk,, 126 shardha row row house, Surat - 395010, Dist.Surat, Gujarat",7942835980,
"Romsons Dignity Magna Adult Diapers - Large Size, Premium Comfort, Leak Protection, Odour Lock",https://www.indiamart.com/proddetail/romsons-dignity-magna-adult-diapers-large-size-premium-comfort-leak-protection-odour-lock-2854605447173.html?pos=39&kwd=incontinence diaper&tags=BB||||8752.144|Price|product|||TS|rsf:gd-|-qr_nm:gd|res:RC3|com-cf:nl|ptrs:na|ktp:N0|mc:73929|mtp:S|qry_typ:P|lang:en|wc:2|cs:7545|v=4,Mediseller ( A Unit Of Medicare),https://www.medisellers.com/?pos=39&kwd=incontinence diaper&tags=BB||||8752.144|Price|product|||TS|rsf:gd-|-qr_nm:gd|res:RC3|com-cf:nl|ptrs:na|ktp:N0|mc:73929|mtp:S|qry_typ:P|lang:en|wc:2|cs:7545|v=4,True,Chandni Chowk,New Delhi,"No. 1520/110, First Floor, Jagson Pal Building Bhagirath Palace, Chandni Chowk, New Delhi - 110006, Dist.Delhi, Delhi",8048606035,
Super Seni Adult Diapers,https://www.indiamart.com/proddetail/super-seni-adult-diapers-17926259662.html?pos=40&kwd=incontinence diaper&tags=BA||||8706.587|Price|product|||TS|rsf:gd-|-qr_nm:gd|res:RC3|com-cf:nl|ptrs:na|ktp:N0|mc:73929|mtp:S|qry_typ:P|lang:en|wc:2|cs:7545|v=4,Aruna Agencies,https://www.arunaagencies.in/?pos=40&kwd=incontinence diaper&tags=BA||||8706.587|Price|product|||TS|rsf:gd-|-qr_nm:gd|res:RC3|com-cf:nl|ptrs:na|ktp:N0|mc:73929|mtp:S|qry_typ:P|lang:en|wc:2|cs:7545|v=4,False,Simmakkal,Madurai,"Pooja Complex, No. 23, North Veli Street Ground Floor, Simmakkal, Simmakkal, Madurai - 625001, Dist.Madurai, Tamil Nadu",8048609760,
Pull Ups Adult Open Diapers,https://www.indiamart.com/proddetail/adult-open-diapers-2852167418388.html?pos=41&kwd=incontinence diaper&tags=BA||||8307.81|Price|product|||TS|rsf:gd-|-qr_nm:gd|res:RC3|com-cf:nl|ptrs:na|ktp:N0|mc:73929|mtp:S|qry_typ:P|lang:en|wc:2|cs:7545|v=4,SMILEPAD HYGIENE INDIA PVT. LTD.,https://www.indiamart.com/smilepadhygiene/?pos=41&kwd=incontinence diaper&tags=BA||||8307.81|Price|product|||TS|rsf:gd-|-qr_nm:gd|res:RC3|com-cf:nl|ptrs:na|ktp:N0|mc:73929|mtp:S|qry_typ:P|lang:en|wc:2|cs:7545|v=4,False,Mohammed Wadi,Pune,"SR.NO.284/01 Bhadale Nagar Uruli Devachi, Mohammed Wadi, Pune - 411060, Dist.Pune, Maharashtra",8048601512,
Regular Pull Ups Disposable Adult Diaper,https://www.indiamart.com/proddetail/disposable-adult-diaper-23535405630.html?pos=42&kwd=incontinence diaper&tags=BA||||9301.656|Price|product|||MDC|rsf:gd-|-qr_nm:gd|res:RC3|com-cf:nl|ptrs:na|ktp:N0|mc:73929|mtp:S|qry_typ:P|lang:en|wc:2|cs:7545|v=4,Komal Drug And Surgical Agency,https://www.indiamart.com/komaldrug-surgicalagency/?pos=42&kwd=incontinence diaper&tags=BA||||9301.656|Price|product|||MDC|rsf:gd-|-qr_nm:gd|res:RC3|com-cf:nl|ptrs:na|ktp:N0|mc:73929|mtp:S|qry_typ:P|lang:en|wc:2|cs:7545|v=4,False,Luxa,Varanasi,"D 56/7A, Meerbagh Aurangabad, Luxa, Varanasi - 221010, Dist.Varanasi, Uttar Pradesh",8046065889,
"Quick Care Pull Up Adult Diaper, Large",https://www.indiamart.com/proddetail/quick-care-pull-up-adult-diaper-2854775017855.html?pos=43&kwd=incontinence diaper&tags=BA||||8476.868|Price|product|||MDC|rsf:gd-|-qr_nm:gd|res:RC3|com-cf:nl|ptrs:na|ktp:N0|mc:73929|mtp:S|qry_typ:P|lang:en|wc:2|cs:7545|v=4,Ramkrushna Pharma Distributors,https://www.indiamart.com/ramkrushna-pharma-distributors/?pos=43&kwd=incontinence diaper&tags=BA||||8476.868|Price|product|||MDC|rsf:gd-|-qr_nm:gd|res:RC3|com-cf:nl|ptrs:na|ktp:N0|mc:73929|mtp:S|qry_typ:P|lang:en|wc:2|cs:7545|v=4,False,,Aurangabad,"Upper Floor, Shop No 10, Global Avenue, Paithan Gate, Chhatrapati Sambhaji Nagar, Aurangabad - 431001, Maharashtra",8043861084,
Tape Type Disposable Adult Diapers,https://www.indiamart.com/proddetail/disposable-adult-diapers-8123868130.html?pos=44&kwd=incontinence diaper&tags=BA||||9045.955|Price|product|||MDC|rsf:gd-|-qr_nm:gd|res:RC3|com-cf:nl|ptrs:na|ktp:N0|mc:73929|mtp:S|qry_typ:P|lang:en|wc:2|cs:7545|v=4,Shanti Surgical Private Limited,https://www.indiamart.com/surgicaldressing-absorbentcotton/?pos=44&kwd=incontinence diaper&tags=BA||||9045.955|Price|product|||MDC|rsf:gd-|-qr_nm:gd|res:RC3|com-cf:nl|ptrs:na|ktp:N0|mc:73929|mtp:S|qry_typ:P|lang:en|wc:2|cs:7545|v=4,False,Dada Nagar,Kanpur,"G-28, Panki Industrial Area, Site No. 1, Dada Nagar, Kanpur - 208022, Uttar Pradesh",8048972268,
Incontinence Diaper,,Lavanyaenterprises,https://www.indiamart.com/lavanyaenterprises-hyderabad/?pos=45&kwd=incontinence diaper&tags=BA||||8786.56|Price|product|||MDC|rsf:gd-|-qr_nm:gd|res:RC3|com-cf:nl|ptrs:na|ktp:N0|mc:73929|mtp:S|qry_typ:P|lang:en|wc:2|cs:7545|v=4,False,Fateh Nagar,Hyderabad,"10-5-72/4/3/2, vinayaka complex,pipeline road, Fateh Nagar, Hyderabad - 500018, Dist.Hyderabad, Telangana",8046032763,
"Pull Ups Dry 24 Disposable Adult Diaper, Size: M",https://www.indiamart.com/proddetail/dry-24-disposable-adult-diaper-2852334132633.html?pos=46&kwd=incontinence diaper&tags=BA||||10180.86|Price|product|||NA|rsf:gd-|-qr_nm:gd|res:RC3|com-cf:nl|ptrs:na|ktp:N0|mc:73929|mtp:S|qry_typ:P|lang:en|wc:2|cs:7545|v=4,Bone Metal Surgical,https://www.indiamart.com/bone-metal-surgical/?pos=46&kwd=incontinence diaper&tags=BA||||10180.86|Price|product|||NA|rsf:gd-|-qr_nm:gd|res:RC3|com-cf:nl|ptrs:na|ktp:N0|mc:73929|mtp:S|qry_typ:P|lang:en|wc:2|cs:7545|v=4,False,Lachit Nagar,Guwahati,"Saleha Market, GMCH Road, Bhangagarh, Kamrup Metropolitan,, Lachit Nagar, Guwahati - 781005, Dist.Kamrup, Assam",7942867786,
Adult Pant Incontinence Diaper,https://www.indiamart.com/proddetail/incontinence-diaper-27440832933.html?pos=47&kwd=incontinence diaper&tags=BB||||8954.051|Price|product|||NA|rsf:gd-|-qr_nm:gd|res:RC3|com-cf:nl|ptrs:na|ktp:N0|mc:73929|mtp:S|qry_typ:P|lang:en|wc:2|cs:7545|v=4,JMA Enterprises,https://www.indiamart.com/jma-enterprises/?pos=47&kwd=incontinence diaper&tags=BB||||8954.051|Price|product|||NA|rsf:gd-|-qr_nm:gd|res:RC3|com-cf:nl|ptrs:na|ktp:N0|mc:73929|mtp:S|qry_typ:P|lang:en|wc:2|cs:7545|v=4,False,,Chennai,"I St Floor 4/162E 5th Cross Street, Ellaiamman Kovil Street Neelankarai, Chennai - 600115, Dist.Chennai, Tamil Nadu",7942559330,
"18-100 Tape Style Open Incontinence Diaper, Size: Medium",https://www.indiamart.com/proddetail/incontinence-diaper-2849173890312.html?pos=48&kwd=incontinence diaper&tags=BA||||8507.67|Price|product|||NA|rsf:gd-|-qr_nm:gd|res:RC3|com-cf:nl|ptrs:na|ktp:N0|mc:73929|mtp:S|qry_typ:P|lang:en|wc:2|cs:7545|v=4,3 Stars Global,https://www.indiamart.com/3-stars-global/?pos=48&kwd=incontinence diaper&tags=BA||||8507.67|Price|product|||NA|rsf:gd-|-qr_nm:gd|res:RC3|com-cf:nl|ptrs:na|ktp:N0|mc:73929|mtp:S|qry_typ:P|lang:en|wc:2|cs:7545|v=4,False,,Ernakulam,"1d,Shakthi Reeha Castle,Vattekkunnam,Edappally North,Ernakulam, Ernakulam - 682024, Dist.Ernakulam, Kerala",8069017405,648
Women diaper Panty for Incontinence with Capacity up to 450ml (Pack of 5),https://www.indiamart.com/proddetail/women-diaper-panty-for-incontinence-with-capacity-up-to-450ml-pack-of-5-2851788722848.html?pos=49&kwd=incontinence diaper&tags=BA||||8778.123|Price|product|||NA|rsf:gd-|-qr_nm:gd|res:RC3|com-cf:nl|ptrs:na|ktp:N0|mc:73929|mtp:S|qry_typ:P|lang:en|wc:2|cs:7545|v=4,White Square,https://www.indiamart.com/white-square-noida/?pos=49&kwd=incontinence diaper&tags=BA||||8778.123|Price|product|||NA|rsf:gd-|-qr_nm:gd|res:RC3|com-cf:nl|ptrs:na|ktp:N0|mc:73929|mtp:S|qry_typ:P|lang:en|wc:2|cs:7545|v=4,False,Sector 62,Noida,"46, Sanchar Vihar, C58/4, Sector 62, Gautambuddha Nagar, Sector 62, Noida - 201307, Dist.Gautam Budh Nagar, Uttar Pradesh",7942871407,
"40 Age Pull Ups Healthshine Adult Diaper, Size: Xl",https://www.indiamart.com/proddetail/healthshine-adult-diaper-2853120606433.html?pos=50&kwd=incontinence diaper&tags=BA||||8584.299|Price|product|||NA|rsf:gd-|-qr_nm:gd|res:RC3|com-cf:nl|ptrs:na|ktp:N0|mc:73929|mtp:S|qry_typ:P|lang:en|wc:2|cs:7545|v=4,Nalam Agency,https://www.indiamart.com/nalam-agency-coimbatore/?pos=50&kwd=incontinence diaper&tags=BA||||8584.299|Price|product|||NA|rsf:gd-|-qr_nm:gd|res:RC3|com-cf:nl|ptrs:na|ktp:N0|mc:73929|mtp:S|qry_typ:P|lang:en|wc:2|cs:7545|v=4,False,Coimbatore,Coimbatore,"12/4A, LIC Agent Colony, Kurichi, Sundarapuram, Coimbatore, Coimbatore - 641024, Dist.Coimbatore, Tamil Nadu",7942838424,
Freshkins Adult Diaper,https://www.indiamart.com/proddetail/freshkins-adult-diaper-25108602355.html?pos=51&kwd=incontinence diaper&tags=BB||||8778.123|Price|product|||NA|rsf:gd-|-qr_nm:gd|res:RC3|com-cf:nl|ptrs:na|ktp:N0|mc:73929|mtp:S|qry_typ:P|lang:en|wc:2|cs:7545|v=4,Washim Pampers,https://www.indiamart.com/washim-pampers/?pos=51&kwd=incontinence diaper&tags=BB||||8778.123|Price|product|||NA|rsf:gd-|-qr_nm:gd|res:RC3|com-cf:nl|ptrs:na|ktp:N0|mc:73929|mtp:S|qry_typ:P|lang:en|wc:2|cs:7545|v=4,False,,Noida,"Mahalaxmi Garden, Phase-1, Ground Floor, Choudhary Charan Singh Gate, Khora Colony, Noida - 201309, Dist.Gautam Budh Nagar, Uttar Pradesh",8047300175,
ADULT DIAPER LARGE (ROYAL KING),https://www.indiamart.com/proddetail/adult-diaper-large-royal-king-25276737355.html?pos=52&kwd=incontinence diaper&tags=BA||||8752.144|Price|product|||NA|rsf:gd-|-qr_nm:gd|res:RC3|com-cf:nl|ptrs:na|ktp:N0|mc:73929|mtp:S|qry_typ:P|lang:en|wc:2|cs:7545|v=4,Arogya Meditech Private Limited,https://www.indiamart.com/arogya-meditech-private-limited/?pos=52&kwd=incontinence diaper&tags=BA||||8752.144|Price|product|||NA|rsf:gd-|-qr_nm:gd|res:RC3|com-cf:nl|ptrs:na|ktp:N0|mc:73929|mtp:S|qry_typ:P|lang:en|wc:2|cs:7545|v=4,False,Vardhman Grand Plaza Manglam Place 3,New Delhi,"Unit No-135 ,Plot No-7, 1st Floor, Vardhman Grand Plaza Manglam Place 3, Rohini, Vardhman Grand Plaza Manglam Place 3, New Delhi - 110085, Dist.Delhi, Delhi",7949346831,
Romsons Dignity Magna Adults Diaper,https://www.indiamart.com/proddetail/romsons-dignity-magna-adults-diaper-2852862043973.html?pos=53&kwd=incontinence diaper&tags=BA||||9189.305|Price|product|||NA|rsf:gd-|-qr_nm:gd|res:RC3|com-cf:nl|ptrs:na|ktp:N0|mc:73929|mtp:S|qry_typ:P|lang:en|wc:2|cs:7545|v=4,Drishti Surgical And Pharma,https://www.indiamart.com/drishti-surgical-pharma/?pos=53&kwd=incontinence diaper&tags=BA||||9189.305|Price|product|||NA|rsf:gd-|-qr_nm:gd|res:RC3|com-cf:nl|ptrs:na|ktp:N0|mc:73929|mtp:S|qry_typ:P|lang:en|wc:2|cs:7545|v=4,False,Naini,Prayagraj,"C H-27, ADA Colony, Naini, Naini, Prayagraj - 211008, Dist.Allahabad, Uttar Pradesh",7942865557,
Dr Aid Large Adult Diaper,https://www.indiamart.com/proddetail/dr-aid-large-adult-diaper-23435251333.html?pos=54&kwd=incontinence diaper&tags=BA||||8752.144|Price|product|||NA|rsf:gd-|-qr_nm:gd|res:RC3|com-cf:nl|ptrs:na|ktp:N0|mc:73929|mtp:S|qry_typ:P|lang:en|wc:2|cs:7545|v=4,WAYFIT Enterprises,https://www.indiamart.com/healthysoulhealthsolutions/?pos=54&kwd=incontinence diaper&tags=BA||||8752.144|Price|product|||NA|rsf:gd-|-qr_nm:gd|res:RC3|com-cf:nl|ptrs:na|ktp:N0|mc:73929|mtp:S|qry_typ:P|lang:en|wc:2|cs:7545|v=4,False,,New Delhi,"Ground Floor, A-51/4A,, Peer Baba Road, Hanuman Mandir, Adhyapak Nagar, New Delhi - 110041, Dist.Delhi, Delhi",8047629175,
60 Age Briefs M Dignity Magna Adult Diaper,https://www.indiamart.com/proddetail/m-dignity-magna-adult-diaper-2852765319991.html?pos=55&kwd=incontinence diaper&tags=BA||||8823.154|Price|product|||NA|rsf:gd-|-qr_nm:gd|res:RC3|com-cf:nl|ptrs:na|ktp:N0|mc:73929|mtp:S|qry_typ:P|lang:en|wc:2|cs:7545|v=4,P D And Sons,https://www.indiamart.com/pdsonsagra/?pos=55&kwd=incontinence diaper&tags=BA||||8823.154|Price|product|||NA|rsf:gd-|-qr_nm:gd|res:RC3|com-cf:nl|ptrs:na|ktp:N0|mc:73929|mtp:S|qry_typ:P|lang:en|wc:2|cs:7545|v=4,False,Mantola,Agra,"17/1-A, Chili INT Road, Ghatia Azam Khan, Mantola, Agra - 282003, Dist.Agra, Uttar Pradesh",7942719954,
"Briefs Liberty Adult Eco Adult Diapers, Size: M",https://www.indiamart.com/proddetail/liberty-adult-eco-adult-diapers-2851627794548.html?pos=56&kwd=incontinence diaper&tags=BA||||8876.815|Price|product|||NA|rsf:gd-|-qr_nm:gd|res:RC3|com-cf:nl|ptrs:na|ktp:N0|mc:73929|mtp:S|qry_typ:P|lang:en|wc:2|cs:7545|v=4,Ganesh Marketing,https://www.indiamart.com/ganesh-marketing-nagpur/?pos=56&kwd=incontinence diaper&tags=BA||||8876.815|Price|product|||NA|rsf:gd-|-qr_nm:gd|res:RC3|com-cf:nl|ptrs:na|ktp:N0|mc:73929|mtp:S|qry_typ:P|lang:en|wc:2|cs:7545|v=4,False,Balabhaupeth,Nagpur,"Near FCI Godown, House No 1070/B/26, Rajiv Gandhi Nagar, Wardha Road,, Balabhaupeth, Nagpur - 440015, Dist.Nagpur, Maharashtra",8043826069,
Dignity Magna Adult Diapers,https://www.indiamart.com/proddetail/dignity-magna-adult-diapers-25107163173.html?pos=57&kwd=incontinence diaper&tags=BA||||9045.955|Price|product|||NA|rsf:gd-|-qr_nm:gd|res:RC3|com-cf:nl|ptrs:na|ktp:N0|mc:73929|mtp:S|qry_typ:P|lang:en|wc:2|cs:7545|v=4,Sunita Surgical And Medical Supplier,https://www.indiamart.com/sunitasurgical-medicalsupplier/?pos=57&kwd=incontinence diaper&tags=BA||||9045.955|Price|product|||NA|rsf:gd-|-qr_nm:gd|res:RC3|com-cf:nl|ptrs:na|ktp:N0|mc:73929|mtp:S|qry_typ:P|lang:en|wc:2|cs:7545|v=4,False,,Kanpur,"1B, Navsheel Dham, Bithoor Road, Kalyanpur Kanpur Nagar, Kanpur - 208017, Uttar Pradesh",8047303320,
Plain Ez Life Premium Adult Diapers,https://www.indiamart.com/proddetail/ez-life-premium-adult-diapers-24954001173.html?pos=58&kwd=incontinence diaper&tags=BB||||8954.051|Price|product|||NA|rsf:gd-|-qr_nm:gd|res:RC3|com-cf:nl|ptrs:na|ktp:N0|mc:73929|mtp:S|qry_typ:P|lang:en|wc:2|cs:7545|v=4,Arunachalam Surgical Private Limited,https://www.indiamart.com/arunachalamsurgical/?pos=58&kwd=incontinence diaper&tags=BB||||8954.051|Price|product|||NA|rsf:gd-|-qr_nm:gd|res:RC3|com-cf:nl|ptrs:na|ktp:N0|mc:73929|mtp:S|qry_typ:P|lang:en|wc:2|cs:7545|v=4,False,Park Town,Chennai,"34/35 , Nyniappa Naicken Street, Park Town, Chennai - 600003, Dist.Chennai, Tamil Nadu",8047304823,
Protective Underwear Kare Med Adult Diapers,https://www.indiamart.com/proddetail/kare-med-adult-diapers-24407595855.html?pos=59&kwd=incontinence diaper&tags=BA||||9644.414|Price|product|||NA|rsf:gd-|-qr_nm:gd|res:RC3|com-cf:nl|ptrs:na|ktp:N0|mc:73929|mtp:S|qry_typ:P|lang:en|wc:2|cs:7545|v=4,Kanhaiya Enterprises,https://www.indiamart.com/kanhaiya-enterprises-dhanbad/?pos=59&kwd=incontinence diaper&tags=BA||||9644.414|Price|product|||NA|rsf:gd-|-qr_nm:gd|res:RC3|com-cf:nl|ptrs:na|ktp:N0|mc:73929|mtp:S|qry_typ:P|lang:en|wc:2|cs:7545|v=4,False,,Dhanbad,"Ratanji Road, Purana Bazar, Dhanbad - 826001, Dist.Dhanbad, Jharkhand",8046043892,
Above 2yr Protective Underwear Loose Adult diaper,https://www.indiamart.com/proddetail/loose-adult-diaper-2852728116430.html?pos=60&kwd=incontinence diaper&tags=BA||||8281.036|Price|product|||NA|rsf:gd-|-qr_nm:gd|res:RC3|com-cf:nl|ptrs:na|ktp:N0|mc:73929|mtp:S|qry_typ:P|lang:en|wc:2|cs:7545|v=4,DR Thakkars Pharmaceuticals Private Limited,https://www.indiamart.com/drthakkars-pharmaceuticals-vadodara/?pos=60&kwd=incontinence diaper&tags=BA||||8281.036|Price|product|||NA|rsf:gd-|-qr_nm:gd|res:RC3|com-cf:nl|ptrs:na|ktp:N0|mc:73929|mtp:S|qry_typ:P|lang:en|wc:2|cs:7545|v=4,False,Karelibagh,Vadodara,"8-A, Bhamin Corner, Opp Atithi Gruh, Wagodia Road, Karelibagh, Vadodara - 390019, Dist.Vadodara, Gujarat",7942710582,
Pull Ups Liberty Premium Adult Diaper Pants Medium (10PCS),https://www.indiamart.com/proddetail/liberty-premium-adult-diaper-pants-medium-10pcs-2850527461812.html?pos=61&kwd=incontinence diaper&tags=BA||||8228.275|Price|product|||NA|rsf:gd-|-qr_nm:gd|res:RC3|com-cf:nl|ptrs:na|ktp:N0|mc:73929|mtp:S|qry_typ:P|lang:en|wc:2|cs:7545|v=4,Aerorise International Private Limited,https://www.indiamart.com/aerorise-international-ahmedabad/?pos=61&kwd=incontinence diaper&tags=BA||||8228.275|Price|product|||NA|rsf:gd-|-qr_nm:gd|res:RC3|com-cf:nl|ptrs:na|ktp:N0|mc:73929|mtp:S|qry_typ:P|lang:en|wc:2|cs:7545|v=4,False,,Ahmedabad,"6, B-605, Shakti Etc, New SG Road, Shri Krishna Farm Party Plot, Chandlodiya,, Ahmedabad - 382481, Dist.Ahmedabad, Gujarat",7942675917,
"Friends Premium Adult Diaper Pant, Size: Large, 10",https://www.indiamart.com/proddetail/friends-premium-adult-diaper-pant-24734257391.html?pos=62&kwd=incontinence diaper&tags=BB||||8223.226|Price|product|||NA|rsf:gd-|-qr_nm:gd|res:RC3|com-cf:nl|ptrs:na|ktp:N0|mc:73929|mtp:S|qry_typ:P|lang:en|wc:2|cs:7545|v=4,Craztal Health & Hygiene LLP,https://www.indiamart.com/craztal-health-hygiene/?pos=62&kwd=incontinence diaper&tags=BB||||8223.226|Price|product|||NA|rsf:gd-|-qr_nm:gd|res:RC3|com-cf:nl|ptrs:na|ktp:N0|mc:73929|mtp:S|qry_typ:P|lang:en|wc:2|cs:7545|v=4,False,,Thane,"203 Devendra Industrial Estate Lokmanya Nagar, Thane - 400606, Dist.Thane, Maharashtra",8048964186,
Protective Underwear Romsons Dignity Magna Adult Diaper,https://www.indiamart.com/proddetail/romsons-dignity-magna-adult-diaper-24826861812.html?pos=63&kwd=incontinence diaper&tags=BB||||9110.092|Price|product|||NA|rsf:gd-|-qr_nm:gd|res:RC3|com-cf:nl|ptrs:na|ktp:N0|mc:73929|mtp:S|qry_typ:P|lang:en|wc:2|cs:7545|v=4,Accuremedy India,https://www.indiamart.com/accu-remedy-india/?pos=63&kwd=incontinence diaper&tags=BB||||9110.092|Price|product|||NA|rsf:gd-|-qr_nm:gd|res:RC3|com-cf:nl|ptrs:na|ktp:N0|mc:73929|mtp:S|qry_typ:P|lang:en|wc:2|cs:7545|v=4,False,,Lucknow,"Shop No.02 Sitapur Road Bhitauli Khurd Crossing Ke Samne Near Sewa Hospital, Lucknow - 226021, Dist.Lucknow, Uttar Pradesh",7942551853,
Pull Ups Liberty XL Adult Pant Diaper,https://www.indiamart.com/proddetail/liberty-xl-adult-pant-diaper-2851265688255.html?pos=64&kwd=incontinence diaper&tags=BB||||8752.144|Price|product|||NA|rsf:gd-|-qr_nm:gd|res:RC3|com-cf:nl|ptrs:na|ktp:N0|mc:73929|mtp:S|qry_typ:P|lang:en|wc:2|cs:7545|v=4,Mohit Surgical,https://www.indiamart.com/mohit-surgical-delhi/?pos=64&kwd=incontinence diaper&tags=BB||||8752.144|Price|product|||NA|rsf:gd-|-qr_nm:gd|res:RC3|com-cf:nl|ptrs:na|ktp:N0|mc:73929|mtp:S|qry_typ:P|lang:en|wc:2|cs:7545|v=4,False,,New Delhi,"Ground Floor, House No 70/A Plot No 30-33, Kh No 88/3/2, Blk-G Vijay Vihar, Village Rithala, North Delhi, New Delhi - 110085, Dist.Delhi, Delhi",8043870245,
"Adult Diapers Underwear L XL, Size: Large",https://www.indiamart.com/proddetail/adult-diapers-underwear-l-xl-2850267141573.html?pos=65&kwd=incontinence diaper&tags=BA||||8668.838|Price|product|||NA|rsf:gd-|-qr_nm:gd|res:RC3|com-cf:nl|ptrs:na|ktp:N0|mc:73929|mtp:S|qry_typ:P|lang:en|wc:2|cs:7545|v=4,Medi Tubes Medicals Aids,https://www.indiamart.com/meditubes-medical-aids/?pos=65&kwd=incontinence diaper&tags=BA||||8668.838|Price|product|||NA|rsf:gd-|-qr_nm:gd|res:RC3|com-cf:nl|ptrs:na|ktp:N0|mc:73929|mtp:S|qry_typ:P|lang:en|wc:2|cs:7545|v=4,False,Gobichettipalayam,Erode,"3 A Balaji Nagar Nallagoundenpalayam Gobichettipalayam, Gobichettipalayam, Erode - 638452, Dist.Erode, Tamil Nadu",7942817216,
Pant Pull Ups Adult diapers in Gujarat,https://www.indiamart.com/proddetail/adult-diapers-in-gujarat-23895805055.html?pos=66&kwd=incontinence diaper&tags=BB||||8230.883|Price|product|||NA|rsf:gd-|-qr_nm:gd|res:RC3|com-cf:nl|ptrs:na|ktp:N0|mc:73929|mtp:S|qry_typ:P|lang:en|wc:2|cs:7545|v=4,Cherrin Product Private Limited,https://www.indiamart.com/cherrin-product/?pos=66&kwd=incontinence diaper&tags=BB||||8230.883|Price|product|||NA|rsf:gd-|-qr_nm:gd|res:RC3|com-cf:nl|ptrs:na|ktp:N0|mc:73929|mtp:S|qry_typ:P|lang:en|wc:2|cs:7545|v=4,False,Begampura,Surat,"Shop No. 2026 To 2032, 2nd Floor, Belgium Square, Ring Road, Begampura, Surat - 395002, Dist.Surat, Gujarat",8047633229,
Briefs Cotton Institutional Adult Diapers,https://www.indiamart.com/proddetail/institutional-adult-diapers-19976979562.html?pos=67&kwd=incontinence diaper&tags=BA||||8663.873||product|||NA|rsf:gd-|-qr_nm:gd|res:RC3|com-cf:nl|ptrs:na|ktp:N0|mc:73929|mtp:S|qry_typ:P|lang:en|wc:2|cs:7545|v=4,Hema Enterprises,https://www.indiamart.com/srivigneshwaraplastic-industries/?pos=67&kwd=incontinence diaper&tags=BA||||8663.873||product|||NA|rsf:gd-|-qr_nm:gd|res:RC3|com-cf:nl|ptrs:na|ktp:N0|mc:73929|mtp:S|qry_typ:P|lang:en|wc:2|cs:7545|v=4,False,,Bengaluru,"1st Floor 58 Mysore Raod Azeez Sait Indl Town Nayandahalli, Bengaluru - 560039, Dist.Bengaluru, Karnataka",8048983434,
"70+ Pull Up Friends Adult Diapers, Size: Large, 10 Pieces",https://www.indiamart.com/proddetail/friends-adult-diapers-26767969173.html?pos=68&kwd=incontinence diaper&tags=BA||||8584.299||product|||NA|rsf:gd-|-qr_nm:gd|res:RC3|com-cf:nl|ptrs:na|ktp:N0|mc:73929|mtp:S|qry_typ:P|lang:en|wc:2|cs:7545|v=4,Med Partner,https://www.indiamart.com/med-partner/?pos=68&kwd=incontinence diaper&tags=BA||||8584.299||product|||NA|rsf:gd-|-qr_nm:gd|res:RC3|com-cf:nl|ptrs:na|ktp:N0|mc:73929|mtp:S|qry_typ:P|lang:en|wc:2|cs:7545|v=4,False,Ctc Staff Quarters,Coimbatore,"No.163/B1, Venkatachalam Road West, R.S.Puram, Ctc Staff Quarters, Coimbatore - 641002, Dist.Coimbatore, Tamil Nadu",8048211772,
Seni Man Incontinence Pad,https://www.indiamart.com/proddetail/seni-man-incontinence-pad-15208365348.html?pos=69&kwd=incontinence diaper&tags=CC||||8954.051|Price|product|||TS|rsf:gd-|-qr_nm:gd|res:RC3|com-cf:nl|ptrs:na|ktp:N0|mc:73929|mtp:S|qry_typ:P|lang:en|wc:2|cs:7545|v=4,Immanlyn Old Age Traders,https://www.immanlyn.in/?pos=69&kwd=incontinence diaper&tags=CC||||8954.051|Price|product|||TS|rsf:gd-|-qr_nm:gd|res:RC3|com-cf:nl|ptrs:na|ktp:N0|mc:73929|mtp:S|qry_typ:P|lang:en|wc:2|cs:7545|v=4,False,T Nagar,Chennai,"Old No 6 New No 15, Saravana Street, T Nagar, T Nagar, Chennai - 600017, Dist.Chennai, Tamil Nadu",8046053387,
Kosmo Care Adult Briefs / Diapers,https://www.indiamart.com/proddetail/kosmo-care-adult-briefs-diapers-9890714562.html?pos=70&kwd=incontinence diaper&tags=CC||||8211.142|Price|product|||TS|rsf:gd-|-qr_nm:gd|res:RC3|com-cf:nl|ptrs:na|ktp:N0|mc:73929|mtp:S|qry_typ:P|lang:en|wc:2|cs:7545|v=4,Kosmochem Private Limited,https://www.indiamart.com/kosmochemhomehealthcare/?pos=70&kwd=incontinence diaper&tags=CC||||8211.142|Price|product|||TS|rsf:gd-|-qr_nm:gd|res:RC3|com-cf:nl|ptrs:na|ktp:N0|mc:73929|mtp:S|qry_typ:P|lang:en|wc:2|cs:7545|v=4,False,Mandvi,Mumbai,"Maskati House, 1st Floor, 76, Mohamedali Road,, Mandvi, Mumbai - 400003, Dist.Mumbai, Maharashtra",8048958842,
Briefs Adult Diaper,https://www.indiamart.com/proddetail/briefs-adult-diaper-23967023397.html?pos=71&kwd=incontinence diaper&tags=CC||||9829.308|Price|product|||TS|rsf:gd-|-qr_nm:gd|res:RC3|com-cf:nl|ptrs:na|ktp:N0|mc:73929|mtp:S|qry_typ:P|lang:en|wc:2|cs:7545|v=4,Doxymed Surgical Co.,https://www.indiamart.com/doxymedsurgical/?pos=71&kwd=incontinence diaper&tags=CC||||9829.308|Price|product|||TS|rsf:gd-|-qr_nm:gd|res:RC3|com-cf:nl|ptrs:na|ktp:N0|mc:73929|mtp:S|qry_typ:P|lang:en|wc:2|cs:7545|v=4,False,Kadam Tala,Howrah,"Flat No-401, 4th Floor, 357/7, Belilious Road, LP-28/35, Kadam Tala, Howrah - 711101, Dist.Howrah, West Bengal",8048608597,
L We Pro Deep Adult Diaper,https://www.indiamart.com/proddetail/l-we-pro-deep-adult-diaper-2851611221573.html?pos=72&kwd=incontinence diaper&tags=CC||||8242.731|Price|product|||TS|rsf:gd-|-qr_nm:gd|res:RC3|com-cf:nl|ptrs:na|ktp:N0|mc:73929|mtp:S|qry_typ:P|lang:en|wc:2|cs:7545|v=4,A S Enterprises,https://www.indiamart.com/asenterprises-ulhasnagar/?pos=72&kwd=incontinence diaper&tags=CC||||8242.731|Price|product|||TS|rsf:gd-|-qr_nm:gd|res:RC3|com-cf:nl|ptrs:na|ktp:N0|mc:73929|mtp:S|qry_typ:P|lang:en|wc:2|cs:7545|v=4,False,Vitthalwadi,Ulhasnagar,"Near BK No 617, Shop , Room No 1, O T Section, Vitthalwadi, Ulhasnagar - 421002, Dist.Thane, Maharashtra",7942835156,
"Adults Basic Friends Adult Diapers, Size: XL",https://www.indiamart.com/proddetail/friends-adult-diapers-2850451727288.html?pos=73&kwd=incontinence diaper&tags=CC||||8307.81|Price|product|||TS|rsf:gd-|-qr_nm:gd|res:RC3|com-cf:nl|ptrs:na|ktp:N0|mc:73929|mtp:S|qry_typ:P|lang:en|wc:2|cs:7545|v=4,Biometrics,https://www.biometricsindia.in/?pos=73&kwd=incontinence diaper&tags=CC||||8307.81|Price|product|||TS|rsf:gd-|-qr_nm:gd|res:RC3|com-cf:nl|ptrs:na|ktp:N0|mc:73929|mtp:S|qry_typ:P|lang:en|wc:2|cs:7545|v=4,False,Sadashiv Peth,Pune,"101/3, PMC Conony, Rajendra Nagar, Navi Peth, Sadashiv Peth, Pune - 411030, Dist.Pune, Maharashtra",7942541225,
Liberty Medium Adult Diaper,https://www.indiamart.com/proddetail/liberty-medium-adult-diaper-24258265412.html?pos=74&kwd=incontinence diaper&tags=CC||||8601.347|Price|product|||MDC|rsf:gd-|-qr_nm:gd|res:RC3|com-cf:nl|ptrs:na|ktp:N0|mc:73929|mtp:S|qry_typ:P|lang:en|wc:2|cs:7545|v=4,Solution India,https://www.indiamart.com/solutionindia-jaipur/?pos=74&kwd=incontinence diaper&tags=CC||||8601.347|Price|product|||MDC|rsf:gd-|-qr_nm:gd|res:RC3|com-cf:nl|ptrs:na|ktp:N0|mc:73929|mtp:S|qry_typ:P|lang:en|wc:2|cs:7545|v=4,False,Jhotwara,Jaipur,"G-3, Block 3A, Moon Resi, Behind Shanti Niketan Vidhya Mandir, Laxmi Nagar, Jhotwara, Jaipur - 302012, Dist.Jaipur, Rajasthan",8046044590,
"Protective Underwear Dignity Magna Adult Diaper, Size: Large",https://www.indiamart.com/proddetail/dignity-magna-adult-diaper-23322538188.html?pos=75&kwd=incontinence diaper&tags=CC||||8810.737|Price|product|||MDC|rsf:gd-|-qr_nm:gd|res:RC3|com-cf:nl|ptrs:na|ktp:N0|mc:73929|mtp:S|qry_typ:P|lang:en|wc:2|cs:7545|v=4,Riyansh Enterprises,https://www.indiamart.com/riyansh-enterprises-saharanpur/?pos=75&kwd=incontinence diaper&tags=CC||||8810.737|Price|product|||MDC|rsf:gd-|-qr_nm:gd|res:RC3|com-cf:nl|ptrs:na|ktp:N0|mc:73929|mtp:S|qry_typ:P|lang:en|wc:2|cs:7545|v=4,False,Janta Road,Saharanpur,"Plot No 9 And 10, Kamdhenu Udyog Nagar, Link Janta Road, Janta Road, Saharanpur - 247001, Dist.Saharanpur, Uttar Pradesh",8048201763,
"Adults Briefs Drip Free Disposable Adult Diaper, Size: 770 X 950 mm",https://www.indiamart.com/proddetail/drip-free-disposable-adult-diaper-27162131133.html?pos=76&kwd=incontinence diaper&tags=CC||||8823.154|Price|product|||TS|rsf:gd-|-qr_nm:gd|res:RC3|com-cf:nl|ptrs:na|ktp:N0|mc:73929|mtp:S|qry_typ:P|lang:en|wc:2|cs:7545|v=4,M/S Ram Raghu Medical Store,https://www.indiamart.com/ram-raghu-medicalstore/?pos=76&kwd=incontinence diaper&tags=CC||||8823.154|Price|product|||TS|rsf:gd-|-qr_nm:gd|res:RC3|com-cf:nl|ptrs:na|ktp:N0|mc:73929|mtp:S|qry_typ:P|lang:en|wc:2|cs:7545|v=4,False,Bajrang Nagar,Agra,"2, Chetak Puram, Near Kamayani Hospital, Byee Pass Road, Sikandra,, Bajrang Nagar, Agra - 282007, Dist.Agra, Uttar Pradesh",8047546045,
Romsons Dignity Magna Adult Diapers (L)- Pack of 10,https://www.indiamart.com/proddetail/romsons-dignity-magna-adult-diapers-l-pack-of-10-26186995955.html?pos=77&kwd=incontinence diaper&tags=CC||||8507.67|Price|product|||TS|rsf:gd-|-qr_nm:gd|res:RC3|com-cf:nl|ptrs:na|ktp:N0|mc:73929|mtp:S|qry_typ:P|lang:en|wc:2|cs:7545|v=4,Kogland Commerce Private Limited,https://www.indiamart.com/koglandcommerce/?pos=77&kwd=incontinence diaper&tags=CC||||8507.67|Price|product|||TS|rsf:gd-|-qr_nm:gd|res:RC3|com-cf:nl|ptrs:na|ktp:N0|mc:73929|mtp:S|qry_typ:P|lang:en|wc:2|cs:7545|v=4,False,Infopark,Ernakulam,"Unit IV B, 2nd Floor, Phase I, Carnival Infopark, Infopark, Kakkand, Infopark, Ernakulam - 682030, Dist.Ernakulam, Kerala",8047306904,
"Adult Diaper Pants, Size: XL",https://www.indiamart.com/proddetail/adult-diaper-pants-2854909706897.html?pos=78&kwd=incontinence diaper&tags=||||8752.144|Price|product|||MDC|rsf:gd-|-qr_nm:gd|res:RC3|com-cf:nl|ptrs:na|ktp:N0|mc:73929|mtp:S|qry_typ:P|lang:en|wc:2|cs:7545|v=4,Aksh Trading,https://www.indiamart.com/aksh-trading/?pos=78&kwd=incontinence diaper&tags=||||8752.144|Price|product|||MDC|rsf:gd-|-qr_nm:gd|res:RC3|com-cf:nl|ptrs:na|ktp:N0|mc:73929|mtp:S|qry_typ:P|lang:en|wc:2|cs:7545|v=4,False,Vikaspuri,New Delhi,"Flat No. 13A, CGHS Evershine Apartment, Vikash Puri, North West, Vikaspuri, New Delhi - 110018, Dist.Delhi, Delhi",7942660706,
"Liberty Adult Diaper, Size: Xl",https://www.indiamart.com/proddetail/liberty-adult-diaper-24324931697.html?pos=79&kwd=incontinence diaper&tags=CC||||8211.142|Price|product|||MDC|rsf:gd-|-qr_nm:gd|res:RC3|com-cf:nl|ptrs:na|ktp:N0|mc:73929|mtp:S|qry_typ:P|lang:en|wc:2|cs:7545|v=4,Vpratik Enterprise,https://www.indiamart.com/vpratikenterprise/?pos=79&kwd=incontinence diaper&tags=CC||||8211.142|Price|product|||MDC|rsf:gd-|-qr_nm:gd|res:RC3|com-cf:nl|ptrs:na|ktp:N0|mc:73929|mtp:S|qry_typ:P|lang:en|wc:2|cs:7545|v=4,False,Kandivali West,Mumbai,"Commerical Premise No 5, Ground Floor, Shreeram Jairam Co-Op Housing Society, S.V. Road,, Kandivali West, Mumbai - 400067, Dist.Mumbai, Maharashtra",8047308300,
Soft & Secure Adult Diaper Incontinence Diaper,https://www.indiamart.com/proddetail/soft-secure-adult-diaper-incontinence-diaper-2852854564573.html?pos=80&kwd=incontinence diaper&tags=||||8230.883|Price|product|||TS|rsf:gd-|-qr_nm:gd|res:RC3|com-cf:nl|ptrs:na|ktp:N0|mc:73929|mtp:S|qry_typ:P|lang:en|wc:2|cs:7545|v=4,VR Hygiene Care,https://www.indiamart.com/vrhygienecare/?pos=80&kwd=incontinence diaper&tags=||||8230.883|Price|product|||TS|rsf:gd-|-qr_nm:gd|res:RC3|com-cf:nl|ptrs:na|ktp:N0|mc:73929|mtp:S|qry_typ:P|lang:en|wc:2|cs:7545|v=4,False,Saniya Hemad,Surat,"A-12, Subham Ind.-1, Saniya Hemad, Saniya Hemad, Surat - 395006, Dist.Surat, Gujarat",8048969848,
"16-100 Pull Ups Pant Style Adult Diapers, Size: Medium -large",https://www.indiamart.com/proddetail/pant-style-adult-diapers-2848956386830.html?pos=81&kwd=incontinence diaper&tags=||||8210.732|Price|product|||TS|rsf:gd-|-qr_nm:gd|res:RC3|com-cf:nl|ptrs:na|ktp:N0|mc:73929|mtp:S|qry_typ:P|lang:en|wc:2|cs:7545|v=4,M S Enterprises,https://www.indiamart.com/m-senterprisesmumbai/?pos=81&kwd=incontinence diaper&tags=||||8210.732|Price|product|||TS|rsf:gd-|-qr_nm:gd|res:RC3|com-cf:nl|ptrs:na|ktp:N0|mc:73929|mtp:S|qry_typ:P|lang:en|wc:2|cs:7545|v=4,False,Andheri East,Vasai,"1st Floor, Gala No 113, Rajprabha Industrial Enclave No 6, Boidapada, Vasai East Palghar, Andheri East, Vasai - 401208, Dist.Thane, Maharashtra",8048974810,
"Non Woven Adult Incontinence Briefs, Pink / Purple, Size: Xxl",https://www.indiamart.com/proddetail/adult-incontinence-briefs-2853104078173.html?pos=82&kwd=incontinence diaper&tags=||||8228.275|Price|product|||TS|rsf:gd-|-qr_nm:gd|res:RC3|com-cf:nl|ptrs:na|ktp:N0|mc:73929|mtp:S|qry_typ:P|lang:en|wc:2|cs:7545|v=4,H N Enterprise,https://www.indiamart.com/h-n-enterprise/?pos=82&kwd=incontinence diaper&tags=||||8228.275|Price|product|||TS|rsf:gd-|-qr_nm:gd|res:RC3|com-cf:nl|ptrs:na|ktp:N0|mc:73929|mtp:S|qry_typ:P|lang:en|wc:2|cs:7545|v=4,False,D Colony,Ahmedabad,"Plot No/2.72, Swaminarayan Ni Chali, Opp.Forge And Blower, Naroda Road, D Colony, Ahmedabad - 380025, Dist.Ahmedabad, Gujarat",8048962678,
"Pante Protective Underwear KareMed Adult Diaper Pants For Incontinence, Large",https://www.indiamart.com/proddetail/karemed-adult-diaper-pants-for-incontinence-large-24187489662.html?pos=83&kwd=incontinence diaper&tags=||||8228.275|Price|product|||TS|rsf:gd-|-qr_nm:gd|res:RC3|com-cf:nl|ptrs:na|ktp:N0|mc:73929|mtp:S|qry_typ:P|lang:en|wc:2|cs:7545|v=4,Classic Medical Supply,https://www.classicmedicalsupply.com/?pos=83&kwd=incontinence diaper&tags=||||8228.275|Price|product|||TS|rsf:gd-|-qr_nm:gd|res:RC3|com-cf:nl|ptrs:na|ktp:N0|mc:73929|mtp:S|qry_typ:P|lang:en|wc:2|cs:7545|v=4,False,Bhadra,Ahmedabad,"Pragati Bank, 1 Classic Electronics, Relief Road, Ratanpur Pole, Bhadra, Ahmedabad - 380001, Dist.Ahmedabad, Gujarat",8048953386,
Prime Adult Diaper,https://www.indiamart.com/proddetail/prime-adult-diaper-2854312028255.html?pos=84&kwd=incontinence diaper&tags=||||8550.327|Price|product|||TS|rsf:gd-|-qr_nm:gd|res:RC3|com-cf:nl|ptrs:na|ktp:N0|mc:73929|mtp:S|qry_typ:P|lang:en|wc:2|cs:7545|v=4,Prime Enterprises,https://www.indiamart.com/prime-enterprises-palakkad/?pos=84&kwd=incontinence diaper&tags=||||8550.327|Price|product|||TS|rsf:gd-|-qr_nm:gd|res:RC3|com-cf:nl|ptrs:na|ktp:N0|mc:73929|mtp:S|qry_typ:P|lang:en|wc:2|cs:7545|v=4,False,Palakkdam,Palakkad,"27/309, Thachilot Building, Manapullikavu, Palakkdam, Palakkad - 678013, Dist.Palakkad, Kerala",8046067395,
Friends Adult Diapers,https://www.indiamart.com/proddetail/friends-adult-diapers-2852623891773.html?pos=85&kwd=incontinence diaper&tags=||||8954.051|Price|product|||TS|rsf:gd-|-qr_nm:gd|res:RC3|com-cf:nl|ptrs:na|ktp:N0|mc:73929|mtp:S|qry_typ:P|lang:en|wc:2|cs:7545|v=4,Chris Merchant Private Limited,https://www.chrismerchant.co.in/?pos=85&kwd=incontinence diaper&tags=||||8954.051|Price|product|||TS|rsf:gd-|-qr_nm:gd|res:RC3|com-cf:nl|ptrs:na|ktp:N0|mc:73929|mtp:S|qry_typ:P|lang:en|wc:2|cs:7545|v=4,False,Koyambedu,Chennai,"No. 5, Poonamalee High Road, Koyambedu, Chennai - 600107, Dist.Chennai, Tamil Nadu",8048956521,
"Unisex Adult Diaper, Medium",https://www.indiamart.com/proddetail/unisex-adult-diaper-2852925018948.html?pos=86&kwd=incontinence diaper&tags=||||8752.144|Price|product|||TS|rsf:gd-|-qr_nm:gd|res:RC3|com-cf:nl|ptrs:na|ktp:N0|mc:73929|mtp:S|qry_typ:P|lang:en|wc:2|cs:7545|v=4,Sri Rajbhan Enterprises,https://www.indiamart.com/srirajbhanenterprises/?pos=86&kwd=incontinence diaper&tags=||||8752.144|Price|product|||TS|rsf:gd-|-qr_nm:gd|res:RC3|com-cf:nl|ptrs:na|ktp:N0|mc:73929|mtp:S|qry_typ:P|lang:en|wc:2|cs:7545|v=4,False,,New Delhi,"Flat No 18, Ganga Apartment, Alaknanda, New Delhi - 110019, Dist.Delhi, Delhi",7942956951,
"Adult Diapers, Size: Medium",https://www.indiamart.com/proddetail/adult-diapers-2853104429855.html?pos=87&kwd=incontinence diaper&tags=||||8769.508|Price|product|||TS|rsf:gd-|-qr_nm:gd|res:RC3|com-cf:nl|ptrs:na|ktp:N0|mc:73929|mtp:S|qry_typ:P|lang:en|wc:2|cs:7545|v=4,Allied Way (India),https://www.alliedwayindia.org/?pos=87&kwd=incontinence diaper&tags=||||8769.508|Price|product|||TS|rsf:gd-|-qr_nm:gd|res:RC3|com-cf:nl|ptrs:na|ktp:N0|mc:73929|mtp:S|qry_typ:P|lang:en|wc:2|cs:7545|v=4,True,Mathura Road Faridabad,Faridabad,"Property No. 26, HSIIDC, Sector 31, Mathura Road Faridabad, Faridabad - 121003, Dist.Faridabad, Haryana",8048965821,
"Adult Diaper Unisex, Size: Medium",https://www.indiamart.com/proddetail/adult-diaper-unisex-2852811851773.html?pos=88&kwd=incontinence diaper&tags=||||8228.275|Price|product|||TS|rsf:gd-|-qr_nm:gd|res:RC3|com-cf:nl|ptrs:na|ktp:N0|mc:73929|mtp:S|qry_typ:P|lang:en|wc:2|cs:7545|v=4,Om Enterprises,https://www.indiamart.com/omenterprisesgujrat/?pos=88&kwd=incontinence diaper&tags=||||8228.275|Price|product|||TS|rsf:gd-|-qr_nm:gd|res:RC3|com-cf:nl|ptrs:na|ktp:N0|mc:73929|mtp:S|qry_typ:P|lang:en|wc:2|cs:7545|v=4,False,Maninagar,Ahmedabad,"Ground Floor, Shop No-1 ,Mani Nagar Road ,Rudra Appartment Maniyasa Society,Mani Nagar East, Maninagar, Ahmedabad - 380008, Dist.Ahmedabad, Gujarat",7942715310,
"Protective Underwear Dr.C Adult Diaper (XL), Size: Xtra Large",https://www.indiamart.com/proddetail/dr-c-adult-diaper-xl-26040525830.html?pos=89&kwd=incontinence diaper&tags=||||8954.051|Price|product|||TS|rsf:gd-|-qr_nm:gd|res:RC3|com-cf:nl|ptrs:na|ktp:N0|mc:73929|mtp:S|qry_typ:P|lang:en|wc:2|cs:7545|v=4,Realcare Hygienic Products Private Limited,https://www.realcarefmcg.com/?pos=89&kwd=incontinence diaper&tags=||||8954.051|Price|product|||TS|rsf:gd-|-qr_nm:gd|res:RC3|com-cf:nl|ptrs:na|ktp:N0|mc:73929|mtp:S|qry_typ:P|lang:en|wc:2|cs:7545|v=4,False,Sidco Industrial Estate,Chennai,"No 69 C, Sidco Industrial Estate, 12th Street, Ambattur, Sidco Industrial Estate, Chennai - 600098, Dist.Chennai, Tamil Nadu",8046064437,
27 Above Briefs Dr C Adult Diaper Large,https://www.indiamart.com/proddetail/dr-c-adult-diaper-large-2852482847091.html?pos=90&kwd=incontinence diaper&tags=||||8954.051|Price|product|||TS|rsf:gd-|-qr_nm:gd|res:RC3|com-cf:nl|ptrs:na|ktp:N0|mc:73929|mtp:S|qry_typ:P|lang:en|wc:2|cs:7545|v=4,Gayathri Medicare,https://www.indiamart.com/gayathri-medicarechennai/?pos=90&kwd=incontinence diaper&tags=||||8954.051|Price|product|||TS|rsf:gd-|-qr_nm:gd|res:RC3|com-cf:nl|ptrs:na|ktp:N0|mc:73929|mtp:S|qry_typ:P|lang:en|wc:2|cs:7545|v=4,False,West Mambalam.. 12 sai tower.station road.,Chennai,"No 48,Basement Floor, B-5,Navins Aishwarya Apartment,Brindavan Street,Chennai, West Mambalam.. 12 sai tower.station road., Chennai - 600033, Dist.Chennai, Tamil Nadu",8047552428,
Tape Briefs Novel Adult Diaper ( L),https://www.indiamart.com/proddetail/novel-adult-diaper-l-2850757430791.html?pos=91&kwd=incontinence diaper&tags=||||8741.812|Price|product|||TS|rsf:gd-|-qr_nm:gd|res:RC3|com-cf:nl|ptrs:na|ktp:N0|mc:73929|mtp:S|qry_typ:P|lang:en|wc:2|cs:7545|v=4,Vardhman Medicare Agencies,https://www.vardhmanmedicareagencies.in/?pos=91&kwd=incontinence diaper&tags=||||8741.812|Price|product|||TS|rsf:gd-|-qr_nm:gd|res:RC3|com-cf:nl|ptrs:na|ktp:N0|mc:73929|mtp:S|qry_typ:P|lang:en|wc:2|cs:7545|v=4,False,Sikanderpur,Gurgaon,"Shop No. - 3 , Sikanderpur Badha, Sikanderpur, Gurgaon - 122004, Dist.Gurgaon, Haryana",8047658602,
Sticker Protective Underwear Air Classic Breathable Adult Diapers (Pack of 10) - Seni Large,https://www.indiamart.com/proddetail/air-classic-breathable-adult-diapers-pack-of-10-seni-large-21887144173.html?pos=92&kwd=incontinence diaper&tags=||||8663.873|Price|product|||TS|rsf:gd-|-qr_nm:gd|res:RC3|com-cf:nl|ptrs:na|ktp:N0|mc:73929|mtp:S|qry_typ:P|lang:en|wc:2|cs:7545|v=4,Saamipya Home Health Private Limited,https://www.indiamart.com/saamipyahomehealth/?pos=92&kwd=incontinence diaper&tags=||||8663.873|Price|product|||TS|rsf:gd-|-qr_nm:gd|res:RC3|com-cf:nl|ptrs:na|ktp:N0|mc:73929|mtp:S|qry_typ:P|lang:en|wc:2|cs:7545|v=4,False,Hosakerehalli,Bengaluru,"644, 1st Cross Road,1st Phase, Girinagar, Hosakerehalli Layout, Banashankari 3rd Stage,Ward No 161, Hosakerehalli, Bengaluru - 560085, Dist.Bengaluru, Karnataka",8048615170,
BAMBERS Briefs Adult Diaper XL,https://www.indiamart.com/proddetail/adult-diaper-xl-20683971433.html?pos=93&kwd=incontinence diaper&tags=||||8830.079|Price|product|||MDC|rsf:gd-|-qr_nm:gd|res:RC3|com-cf:nl|ptrs:na|ktp:N0|mc:73929|mtp:S|qry_typ:P|lang:en|wc:2|cs:7545|v=4,Thara Traders Propx. Thara Senthilkumar,https://www.indiamart.com/thara-traders/?pos=93&kwd=incontinence diaper&tags=||||8830.079|Price|product|||MDC|rsf:gd-|-qr_nm:gd|res:RC3|com-cf:nl|ptrs:na|ktp:N0|mc:73929|mtp:S|qry_typ:P|lang:en|wc:2|cs:7545|v=4,False,Sathuvachari,Vellore,"546/2 Nethajibose Main Road, Tnhb, Phase 3, Vallalar A.r.complex,1st Floor, Nethaji Bose Main Road, Sathuvachari, Vellore - 632009, Dist.Vellore, Tamil Nadu",8048605071,
"wellstep adult diaper L10, Large",https://www.indiamart.com/proddetail/wellstep-adult-diaper-l-size-10pcs-2854832061255.html?pos=94&kwd=incontinence diaper&tags=||||8230.883|Price|product|||MDC|rsf:gd-|-qr_nm:gd|res:RC3|com-cf:nl|ptrs:na|ktp:N0|mc:73929|mtp:S|qry_typ:P|lang:en|wc:2|cs:7545|v=4,V R Barot,https://www.indiamart.com/v-r-barot/?pos=94&kwd=incontinence diaper&tags=||||8230.883|Price|product|||MDC|rsf:gd-|-qr_nm:gd|res:RC3|com-cf:nl|ptrs:na|ktp:N0|mc:73929|mtp:S|qry_typ:P|lang:en|wc:2|cs:7545|v=4,False,Bhagvati Nagar Housing Society,Surat,"B-19, Bhagavati Nagar Soc, Jahangirpura, Bhagvati Nagar Housing Society, Surat - 395005, Dist.Surat, Gujarat",7942968850,
Bon Bon Classic Adult Diaper Tape Style,https://www.indiamart.com/proddetail/bon-bon-classic-adult-diaper-tape-style-2854472942733.html?pos=95&kwd=incontinence diaper&tags=||||8786.56|Price|product|||MDC|rsf:gd-|-qr_nm:gd|res:RC3|com-cf:nl|ptrs:na|ktp:N0|mc:73929|mtp:S|qry_typ:P|lang:en|wc:2|cs:7545|v=4,N K Corporation,https://www.indiamart.com/nkcorporation-telangana/?pos=95&kwd=incontinence diaper&tags=||||8786.56|Price|product|||MDC|rsf:gd-|-qr_nm:gd|res:RC3|com-cf:nl|ptrs:na|ktp:N0|mc:73929|mtp:S|qry_typ:P|lang:en|wc:2|cs:7545|v=4,False,,Hyderabad,"14-3-239,Goshamahal,, Hyderabad - 500012, Dist.Hyderabad, Telangana",8048982215,
"Absorbia M Adult Diaper, Medium",https://www.indiamart.com/proddetail/absorbia-m-adult-diaper-2854515392491.html?pos=96&kwd=incontinence diaper&tags=||||8556.61|Price|product|||MDC|rsf:gd-|-qr_nm:gd|res:RC3|com-cf:nl|ptrs:na|ktp:N0|mc:73929|mtp:S|qry_typ:P|lang:en|wc:2|cs:7545|v=4,Arbatt Enterprises,https://www.indiamart.com/arbatt-enterprises/?pos=96&kwd=incontinence diaper&tags=||||8556.61|Price|product|||MDC|rsf:gd-|-qr_nm:gd|res:RC3|com-cf:nl|ptrs:na|ktp:N0|mc:73929|mtp:S|qry_typ:P|lang:en|wc:2|cs:7545|v=4,False,,Mysuru,"119/1, Devayyana Hundi Road, Srirampra 2nd Stage, Mysuru - 570008, Dist.Mysuru, Karnataka",8044458992,
"AroKleen 2X Dual Core Overnight 10 Count Adult Diapers Tape Style, Large",https://www.indiamart.com/proddetail/arokleen-2x-dual-core-overnight-10-count-adult-diapers-tape-style-2854574448333.html?pos=97&kwd=incontinence diaper&tags=||||8752.144||product|||MDC|rsf:gd-|-qr_nm:gd|res:RC3|com-cf:nl|ptrs:na|ktp:N0|mc:73929|mtp:S|qry_typ:P|lang:en|wc:2|cs:7545|v=4,Paramount Surgimed Ltd.,https://www.indiamart.com/osimindia/?pos=97&kwd=incontinence diaper&tags=||||8752.144||product|||MDC|rsf:gd-|-qr_nm:gd|res:RC3|com-cf:nl|ptrs:na|ktp:N0|mc:73929|mtp:S|qry_typ:P|lang:en|wc:2|cs:7545|v=4,False,Tehkhand,New Delhi,"No. 1, L. S. C., Okhla Industrial Area, Phase 2, Tehkhand, New Delhi - 110020, Dist.Delhi, Delhi",8048967635,
Svaach Economy Adult Diaper Pants Large Pack of 2s,https://www.indiamart.com/proddetail/svaach-economy-adult-diaper-pants-large-pack-of-2s-2854670937462.html?pos=98&kwd=incontinence diaper&tags=||||8663.873|Price|product|||MDC|rsf:gd-|-qr_nm:gd|res:RC3|com-cf:nl|ptrs:na|ktp:N0|mc:73929|mtp:S|qry_typ:P|lang:en|wc:2|cs:7545|v=4,Samutthanam Health Care LLP,https://www.indiamart.com/samutthanamhealthcare/?pos=98&kwd=incontinence diaper&tags=||||8663.873|Price|product|||MDC|rsf:gd-|-qr_nm:gd|res:RC3|com-cf:nl|ptrs:na|ktp:N0|mc:73929|mtp:S|qry_typ:P|lang:en|wc:2|cs:7545|v=4,False,Banashankari,Bengaluru,"644, 1st A cross 1st Phase, Girinagara, Hosakerehalli, BSK 3rd Stage, Urban, Banashankari, Bengaluru - 560085, Dist.Bengaluru, Karnataka",7942791482,
Freshkins Adult Diaper 10pcs.,https://www.indiamart.com/proddetail/freshkins-adult-diaper-10pcs-2854079032755.html?pos=99&kwd=incontinence diaper&tags=||||8230.883||product|||TS|rsf:gd-|-qr_nm:gd|res:RC3|com-cf:nl|ptrs:na|ktp:N0|mc:73929|mtp:S|qry_typ:P|lang:en|wc:2|cs:7545|v=4,Hygiene Product,https://www.freshkin.co.in/?pos=99&kwd=incontinence diaper&tags=||||8230.883||product|||TS|rsf:gd-|-qr_nm:gd|res:RC3|com-cf:nl|ptrs:na|ktp:N0|mc:73929|mtp:S|qry_typ:P|lang:en|wc:2|cs:7545|v=4,False,Sagrampura Putli,Surat,"9002 B, World Trade Center Ring Road, Sagrampura Putli, Surat - 395002, Dist.Surat, Gujarat",8048610916,
"Pant Diapers 7 Soft Baby Diapers , Small Medium Large Xl",https://www.indiamart.com/proddetail/7-soft-baby-diapers-25478953933.html?pos=100&kwd=incontinence diaper&tags=||||8281.036|Price|product|||TS|rsf:gd-|-qr_nm:gd|res:RC3|com-cf:nl|ptrs:na|ktp:N0|mc:73929|mtp:S|qry_typ:P|lang:en|wc:2|cs:7545|v=4,Novelty Hosiery,https://www.indiamart.com/novelty-hosiery/?pos=100&kwd=incontinence diaper&tags=||||8281.036|Price|product|||TS|rsf:gd-|-qr_nm:gd|res:RC3|com-cf:nl|ptrs:na|ktp:N0|mc:73929|mtp:S|qry_typ:P|lang:en|wc:2|cs:7545|v=4,False,Chokshi Bazar,Vadodara,"M G Road 00 Laheripura Gate Nr Angadiya Gali, Chokshi Bazar, Vadodara - 390001, Dist.Vadodara, Gujarat",7942565948,
"Adult Diapers, Large",https://www.indiamart.com/proddetail/adult-diapers-2854691283897.html?pos=101&kwd=incontinence diaper&tags=||||8211.142|Price|product|||TS|rsf:gd-|-qr_nm:gd|res:RC3|com-cf:nl|ptrs:na|ktp:N0|mc:73929|mtp:S|qry_typ:P|lang:en|wc:2|cs:7545|v=4,Aglodia Corporation,https://www.aglodiacorp.com/?pos=101&kwd=incontinence diaper&tags=||||8211.142|Price|product|||TS|rsf:gd-|-qr_nm:gd|res:RC3|com-cf:nl|ptrs:na|ktp:N0|mc:73929|mtp:S|qry_typ:P|lang:en|wc:2|cs:7545|v=4,False,Goregaon West,Mumbai,"315/2512 motilal nagar 2 MG road Goregaon west, Goregaon West, Mumbai - 400064, Dist.Mumbai, Maharashtra",7942842515,
"Plain Kare In Adult Diapers, Packaging Size: Medium",https://www.indiamart.com/proddetail/kare-in-adult-diapers-23842538648.html?pos=102&kwd=incontinence diaper&tags=||||9870.655|Price|product|||TS|rsf:gd-|-qr_nm:gd|res:RC3|com-cf:nl|ptrs:na|ktp:N0|mc:73929|mtp:S|qry_typ:P|lang:en|wc:2|cs:7545|v=4,Bengal Feminine Care,https://www.indiamart.com/bengal-feminine-care/?pos=102&kwd=incontinence diaper&tags=||||9870.655|Price|product|||TS|rsf:gd-|-qr_nm:gd|res:RC3|com-cf:nl|ptrs:na|ktp:N0|mc:73929|mtp:S|qry_typ:P|lang:en|wc:2|cs:7545|v=4,False,Barasat,Habra,"Habra, No. 2 ,Railway Gate, District North 24 Parganas, Barasat, Habra - 743263, Dist.North 24 Parganas, West Bengal",8046062955,
Non Woven Disposable Adult Diapers,https://www.indiamart.com/proddetail/non-woven-disposable-adult-diapers-2854494780197.html?pos=103&kwd=incontinence diaper&tags=||||8786.56|Price|product|||MDC|rsf:gd-|-qr_nm:gd|res:RC3|com-cf:nl|ptrs:na|ktp:N0|mc:73929|mtp:S|qry_typ:P|lang:en|wc:2|cs:7545|v=4,Popok Health Care,https://www.indiamart.com/popok-healthcare/?pos=103&kwd=incontinence diaper&tags=||||8786.56|Price|product|||MDC|rsf:gd-|-qr_nm:gd|res:RC3|com-cf:nl|ptrs:na|ktp:N0|mc:73929|mtp:S|qry_typ:P|lang:en|wc:2|cs:7545|v=4,False,,Hyderabad,"24-134, Anandbagh Medchal Malkajgiri, Hyderabad - 500047, Dist.Hyderabad, Telangana",7949330487,
Premium Velcro Large Adult Diapers,https://www.indiamart.com/proddetail/premium-velcro-large-adult-diapers-2854424219233.html?pos=104&kwd=incontinence diaper&tags=||||8228.275|Price|product|||MDC|rsf:gd-|-qr_nm:gd|res:RC3|com-cf:nl|ptrs:na|ktp:N0|mc:73929|mtp:S|qry_typ:P|lang:en|wc:2|cs:7545|v=4,Protect Healthcare,https://www.indiamart.com/protect-healthcare-ahmedabad/?pos=104&kwd=incontinence diaper&tags=||||8228.275|Price|product|||MDC|rsf:gd-|-qr_nm:gd|res:RC3|com-cf:nl|ptrs:na|ktp:N0|mc:73929|mtp:S|qry_typ:P|lang:en|wc:2|cs:7545|v=4,False,,Ahmedabad,"2/1, Ramvila Hights, UMA Vidhyalay Road, Gopal Chowk ,Nikol, Ahmedabad - 382350, Dist.Ahmedabad, Gujarat",7949337627,
"Friends Adult Diaper, Size: Medium",https://www.indiamart.com/proddetail/friends-adult-diaper-2850802807833.html?pos=105&kwd=incontinence diaper&tags=||||8211.142|Price|product|||MDC|rsf:gd-|-qr_nm:gd|res:RC3|com-cf:nl|ptrs:na|ktp:N0|mc:73929|mtp:S|qry_typ:P|lang:en|wc:2|cs:7545|v=4,Fine Health Care,https://www.indiamart.com/fine-health-care/?pos=105&kwd=incontinence diaper&tags=||||8211.142|Price|product|||MDC|rsf:gd-|-qr_nm:gd|res:RC3|com-cf:nl|ptrs:na|ktp:N0|mc:73929|mtp:S|qry_typ:P|lang:en|wc:2|cs:7545|v=4,False,Kandivali East Mumbai Suburban,Mumbai,"GR19, Wing-J, Shree Gokul Garden CHS LTD, Thakur Complex, W E Highway, NR Camre School, Kandivali East Mumbai Suburban, Mumbai - 400101, Dist.Mumbai, Maharashtra",7949324611,
"Pant Style Disposable Baby Diaper, Size: Small",https://www.indiamart.com/proddetail/pant-style-disposable-baby-diaper-26196041662.html?pos=106&kwd=incontinence diaper&tags=||||8752.144|Price|product|||TS|rsf:gd-|-qr_nm:gd|res:RC3|com-cf:nl|ptrs:na|ktp:N0|mc:73929|mtp:S|qry_typ:P|lang:en|wc:2|cs:7545|v=4,Tejas Enterprises,https://www.indiamart.com/tejasenterprises-delhi/?pos=106&kwd=incontinence diaper&tags=||||8752.144|Price|product|||TS|rsf:gd-|-qr_nm:gd|res:RC3|com-cf:nl|ptrs:na|ktp:N0|mc:73929|mtp:S|qry_typ:P|lang:en|wc:2|cs:7545|v=4,False,New Mustafabad,New Delhi,"D - 6/162 - A, D - Block, Near Gali No.7, Main Road Brijpuri, New Mustafabad, New Delhi - 110094, Dist.Delhi, Delhi",8043855624,
"Disposable Adult Diaper, Large",https://www.indiamart.com/proddetail/disposable-adult-diaper-2854674936555.html?pos=107&kwd=incontinence diaper&tags=||||8954.051|Price|product|||TS|rsf:gd-|-qr_nm:gd|res:RC3|com-cf:nl|ptrs:na|ktp:N0|mc:73929|mtp:S|qry_typ:P|lang:en|wc:2|cs:7545|v=4,Krithisha Enterprises,https://www.indiamart.com/krithisha-enterprises/?pos=107&kwd=incontinence diaper&tags=||||8954.051|Price|product|||TS|rsf:gd-|-qr_nm:gd|res:RC3|com-cf:nl|ptrs:na|ktp:N0|mc:73929|mtp:S|qry_typ:P|lang:en|wc:2|cs:7545|v=4,False,Royapuram Anjaneya Nagar,Chennai,"New No.75, Old No.151, Prakasam Salai, Pophams Broadway, Royapuram Anjaneya Nagar, Chennai - 600001, Dist.Chennai, Tamil Nadu",8048951811,
Karein Classic Adult Diaper,https://www.indiamart.com/proddetail/karein-classic-adult-diaper-2854383196712.html?pos=108&kwd=incontinence diaper&tags=||||9839.57|Price|product|||MDC|rsf:gd-|-qr_nm:gd|res:RC3|com-cf:nl|ptrs:na|ktp:N0|mc:73929|mtp:S|qry_typ:P|lang:en|wc:2|cs:7545|v=4,Roy And Son Enterprise,https://www.indiamart.com/roy-son-enterprise/?pos=108&kwd=incontinence diaper&tags=||||9839.57|Price|product|||MDC|rsf:gd-|-qr_nm:gd|res:RC3|com-cf:nl|ptrs:na|ktp:N0|mc:73929|mtp:S|qry_typ:P|lang:en|wc:2|cs:7545|v=4,False,,Kolkata,"260g, Netaji Subash Road, Behala, Kolkata - 700034, Dist.Kolkata, West Bengal",7949340326,
"Opt Care Adult Diapers, Medium",https://www.indiamart.com/proddetail/opt-care-adult-diapers-2851827367391.html?pos=109&kwd=incontinence diaper&tags=||||8859.558|Price|product|||MDC|rsf:gd-|-qr_nm:gd|res:RC3|com-cf:nl|ptrs:na|ktp:N0|mc:73929|mtp:S|qry_typ:P|lang:en|wc:2|cs:7545|v=4,Siva Lavanya Traders,https://www.indiamart.com/siva-lavanyatraders-andhrapradesh/?pos=109&kwd=incontinence diaper&tags=||||8859.558|Price|product|||MDC|rsf:gd-|-qr_nm:gd|res:RC3|com-cf:nl|ptrs:na|ktp:N0|mc:73929|mtp:S|qry_typ:P|lang:en|wc:2|cs:7545|v=4,False,venkateswara temple,Markapur,"3-189, Cumbum Road, Near Government Hospital, Vemula Kota,, venkateswara temple, Markapur - 523329, Dist.Prakasam, Andhra Pradesh",7949325093,
"Akko L Adult Diaper, Large",https://www.indiamart.com/proddetail/akko-l-adult-diaper-2854555258562.html?pos=110&kwd=incontinence diaper&tags=||||8785.791|Price|product|||MDC|rsf:gd-|-qr_nm:gd|res:RC3|com-cf:nl|ptrs:na|ktp:N0|mc:73929|mtp:S|qry_typ:P|lang:en|wc:2|cs:7545|v=4,J.A. Industries,https://www.indiamart.com/jaindustriesghaziabad/?pos=110&kwd=incontinence diaper&tags=||||8785.791|Price|product|||MDC|rsf:gd-|-qr_nm:gd|res:RC3|com-cf:nl|ptrs:na|ktp:N0|mc:73929|mtp:S|qry_typ:P|lang:en|wc:2|cs:7545|v=4,False,,Ghaziabad,"C-86, Unnamed Road, Chandan and Chandan Industries Pvt Ltd, Sector B3, Tronica City,, Ghaziabad - 201102, Dist.Ghaziabad, Uttar Pradesh",7949326382,
B Fit Adult Diaper Pants,https://www.indiamart.com/proddetail/b-fit-adult-diaper-pants-21161868955.html?pos=111&kwd=incontinence diaper&tags=||||8581.569|Price|product|||MDC|rsf:gd-|-qr_nm:gd|res:RC3|com-cf:nl|ptrs:na|ktp:N0|mc:73929|mtp:S|qry_typ:P|lang:en|wc:2|cs:7545|v=4,Fakhri Chemicals,https://www.indiamart.com/fakhri-chemicals/?pos=111&kwd=incontinence diaper&tags=||||8581.569|Price|product|||MDC|rsf:gd-|-qr_nm:gd|res:RC3|com-cf:nl|ptrs:na|ktp:N0|mc:73929|mtp:S|qry_typ:P|lang:en|wc:2|cs:7545|v=4,False,,Dewas,"75, Haibat Rao Marg, Rajwada Road, Dewas - 455001, Dist.Dewas, Madhya Pradesh",7942640768,
KINDFIT ADULT PULL UP DIAPERS,https://www.indiamart.com/proddetail/kindfit-adult-pull-up-diapers-2850376268073.html?pos=112&kwd=incontinence diaper&tags=||||8228.275|Price|product|||TS|rsf:gd-|-qr_nm:gd|res:RC3|com-cf:nl|ptrs:na|ktp:N0|mc:73929|mtp:S|qry_typ:P|lang:en|wc:2|cs:7545|v=4,Zen Enterprise,https://www.zenenterprise.co.in/?pos=112&kwd=incontinence diaper&tags=||||8228.275|Price|product|||TS|rsf:gd-|-qr_nm:gd|res:RC3|com-cf:nl|ptrs:na|ktp:N0|mc:73929|mtp:S|qry_typ:P|lang:en|wc:2|cs:7545|v=4,False,Thaltej,Ahmedabad,"205, Satva, Nr Padmavati Bunglows Opp Elligans Bunglows, Thaltej, Thaltej, Ahmedabad - 380054, Dist.Ahmedabad, Gujarat",8046046451,
Evelance Adult Dry Pants Medium 61-115 cm (24-45 inches) 12hr absorption. - M (10 Pieces),https://www.indiamart.com/proddetail/evelance-adult-dry-pants-medium-61-115-cm-24-45-inches-12hr-absorption-m-10-pieces-2850717624688.html?pos=113&kwd=incontinence diaper&tags=||||8740.707|Price|product|||MDC|rsf:gd-|-qr_nm:gd|res:RC3|com-cf:nl|ptrs:na|ktp:N0|mc:73929|mtp:S|qry_typ:P|lang:en|wc:2|cs:7545|v=4,Parv Industries,https://www.indiamart.com/parvindustries-punjab/?pos=113&kwd=incontinence diaper&tags=||||8740.707|Price|product|||MDC|rsf:gd-|-qr_nm:gd|res:RC3|com-cf:nl|ptrs:na|ktp:N0|mc:73929|mtp:S|qry_typ:P|lang:en|wc:2|cs:7545|v=4,False,,Sas Nagar,"34/2/2/2/2-1 8, Parv Industries, Pabhat, Zirakpur,, Sas Nagar - 140301, Dist.Mohali, Punjab",8044011342,
"Pant Fit And Dry Breathable Adult Diapers, Size: Large",https://www.indiamart.com/proddetail/breathable-adult-diapers-23255155012.html?pos=114&kwd=incontinence diaper&tags=||||8663.873|Price|product|||TS|rsf:gd-|-qr_nm:gd|res:RC3|com-cf:nl|ptrs:na|ktp:N0|mc:73929|mtp:S|qry_typ:P|lang:en|wc:2|cs:7545|v=4,Rajendra Surgicals,https://www.rajendrasurgicals.com/?pos=114&kwd=incontinence diaper&tags=||||8663.873|Price|product|||TS|rsf:gd-|-qr_nm:gd|res:RC3|com-cf:nl|ptrs:na|ktp:N0|mc:73929|mtp:S|qry_typ:P|lang:en|wc:2|cs:7545|v=4,False,Rajajinagar,Bengaluru,"Ground Floor, 3rd Block, No.210/38, Skanda, Dr Mallegowda Street, 50th Cross, Rajajinagar, Rajajinagar, Bengaluru - 560010, Dist.Bengaluru, Karnataka",8048961624,
Disposable Adult Diaper,https://www.indiamart.com/proddetail/disposable-adult-diaper-2853484373555.html?pos=115&kwd=incontinence diaper&tags=||||8268.494|Price|product|||TS|rsf:gd-|-qr_nm:gd|res:RC3|com-cf:nl|ptrs:na|ktp:N0|mc:73929|mtp:S|qry_typ:P|lang:en|wc:2|cs:7545|v=4,Medco Distributors,https://www.medcodistributors.in/?pos=115&kwd=incontinence diaper&tags=||||8268.494|Price|product|||TS|rsf:gd-|-qr_nm:gd|res:RC3|com-cf:nl|ptrs:na|ktp:N0|mc:73929|mtp:S|qry_typ:P|lang:en|wc:2|cs:7545|v=4,False,Sindhi Colony,Abu Road,"Ground Floor, Gujrati Kumar Mohalla, Sindhi Colony, Abu Road - 307026, Dist.Sirohi, Rajasthan",8046033758,
"Disposable Adult Diaper, Large",https://www.indiamart.com/proddetail/disposable-adult-diaper-2854377928655.html?pos=116&kwd=incontinence diaper&tags=||||8228.275|Price|product|||TS|rsf:gd-|-qr_nm:gd|res:RC3|com-cf:nl|ptrs:na|ktp:N0|mc:73929|mtp:S|qry_typ:P|lang:en|wc:2|cs:7545|v=4,Curewell Pharma,https://www.curewellpharma.com/?pos=116&kwd=incontinence diaper&tags=||||8228.275|Price|product|||TS|rsf:gd-|-qr_nm:gd|res:RC3|com-cf:nl|ptrs:na|ktp:N0|mc:73929|mtp:S|qry_typ:P|lang:en|wc:2|cs:7545|v=4,False,Ambavadi,Ahmedabad,"Ground Floor, GF-15, Doctor House, Parimal Crossing, Parimal Garden Junction,, Ambavadi, Ahmedabad - 380006, Dist.Ahmedabad, Gujarat",8044015333,
Fabby Adult Diaper Medium,https://www.indiamart.com/proddetail/fabby-adult-diaper-medium-2854391370430.html?pos=117&kwd=incontinence diaper&tags=||||8211.142|Price|product|||TS|rsf:gd-|-qr_nm:gd|res:RC3|com-cf:nl|ptrs:na|ktp:N0|mc:73929|mtp:S|qry_typ:P|lang:en|wc:2|cs:7545|v=4,Hamazz Wellness Company,https://www.hamazzhealthcare.in/?pos=117&kwd=incontinence diaper&tags=||||8211.142|Price|product|||TS|rsf:gd-|-qr_nm:gd|res:RC3|com-cf:nl|ptrs:na|ktp:N0|mc:73929|mtp:S|qry_typ:P|lang:en|wc:2|cs:7545|v=4,False,Malad West,Mumbai,"D/14, 2nd Floor, Mashayakh CHS LTD Chincholi Bunder Road, Malad West, Mumbai - 400064, Dist.Mumbai, Maharashtra",8047655127,
"Disposable Baby Diapers, Age Group: 3to12 Months, Size: Medium",https://www.indiamart.com/proddetail/disposable-baby-diapers-2849772358712.html?pos=118&kwd=incontinence diaper&tags=||||8211.142|Price|product|||MDC|rsf:gd-|-qr_nm:gd|res:RC3|com-cf:nl|ptrs:na|ktp:N0|mc:73929|mtp:S|qry_typ:P|lang:en|wc:2|cs:7545|v=4,Shri Sai Pharma,https://www.indiamart.com/shrisaipharma/?pos=118&kwd=incontinence diaper&tags=||||8211.142|Price|product|||MDC|rsf:gd-|-qr_nm:gd|res:RC3|com-cf:nl|ptrs:na|ktp:N0|mc:73929|mtp:S|qry_typ:P|lang:en|wc:2|cs:7545|v=4,False,Sion,Mumbai,"No. 1 Building, 112, Ashok Nagar, Sion-Trombay Road Sion, Chunabhatti, Sion, Mumbai - 400022, Dist.Mumbai, Maharashtra",8046055538,
"STAY SURE ADULT DIAPERS EXTRA LARGE PREMIUM PACK OF 10 PCS, XL",https://www.indiamart.com/proddetail/stay-sure-adult-diapers-extra-large-premium-pack-of-10-pcs-2855079645712.html?pos=119&kwd=incontinence diaper&tags=||||8307.81|Price|product|||TS|rsf:gd-|-qr_nm:gd|res:RC3|com-cf:nl|ptrs:na|ktp:N0|mc:73929|mtp:S|qry_typ:P|lang:en|wc:2|cs:7545|v=4,Eternis Hygiene Products,https://www.indiamart.com/eternis-hygiene-products/?pos=119&kwd=incontinence diaper&tags=||||8307.81|Price|product|||TS|rsf:gd-|-qr_nm:gd|res:RC3|com-cf:nl|ptrs:na|ktp:N0|mc:73929|mtp:S|qry_typ:P|lang:en|wc:2|cs:7545|v=4,False,Kharabwadi,Pune,"Plot No. 5, Gat No. 357/95 Waghjai Nagar, Kharabwadi, Chakan, Khed, Kharabwadi, Pune - 410501, Dist.Pune, Maharashtra",8046042766,
Tape Style Cotton Disposable Adult Diaper,https://www.indiamart.com/proddetail/disposable-adult-diaper-2851727162433.html?pos=120&kwd=incontinence diaper&tags=||||8752.144|Price|product|||TS|rsf:gd-|-qr_nm:gd|res:RC3|com-cf:nl|ptrs:na|ktp:N0|mc:73929|mtp:S|qry_typ:P|lang:en|wc:2|cs:7545|v=4,Kt Disposables,https://www.indiamart.com/ktdisposables/?pos=120&kwd=incontinence diaper&tags=||||8752.144|Price|product|||TS|rsf:gd-|-qr_nm:gd|res:RC3|com-cf:nl|ptrs:na|ktp:N0|mc:73929|mtp:S|qry_typ:P|lang:en|wc:2|cs:7545|v=4,False,Uttam Nagar,New Delhi,"Portion Of Plot No 37 , Viddya Vihar , Hastsal Industrial Area, Uttam Nagar, Uttam Nagar, New Delhi - 110059, Dist.Delhi, Delhi",8047644954,
"Plain Disposable Adult Pull Up Diaper, Packaging Size: XXL",https://www.indiamart.com/proddetail/disposable-adult-pull-up-diaper-2853149130997.html?pos=121&kwd=incontinence diaper&tags=||||8786.56|Price|proxy|||TS|rsf:gd-|-qr_nm:gd|res:RC3|com-cf:nl|ptrs:na|ktp:N0|mc:73929|mtp:S|qry_typ:P|lang:en|wc:2|cs:7545|v=4,Medvian Health Care,https://www.medvianhealthcare.in/?pos=121&kwd=incontinence diaper&tags=||||8786.56|Price|proxy|||TS|rsf:gd-|-qr_nm:gd|res:RC3|com-cf:nl|ptrs:na|ktp:N0|mc:73929|mtp:S|qry_typ:P|lang:en|wc:2|cs:7545|v=4,False,Dammaiguda,Hyderabad,"# 7-51, Anushakthi Nagar Dammaiguda Road, Nagaram, Near Dubai Building, Dammaiguda, Hyderabad - 500083, Dist.Hyderabad, Telangana",8047639534,
18+ Cotton Disposable Adult Diaper Pant,https://www.indiamart.com/proddetail/disposable-adult-diaper-pant-2854435900930.html?pos=122&kwd=incontinence diaper&tags=||||8601.347|Price|product|||TS|rsf:gd-|-qr_nm:gd|res:RC3|com-cf:nl|ptrs:na|ktp:N0|mc:73929|mtp:S|qry_typ:P|lang:en|wc:2|cs:7545|v=4,T. C. Pharma,https://www.indiamart.com/tcpharma/?pos=122&kwd=incontinence diaper&tags=||||8601.347|Price|product|||TS|rsf:gd-|-qr_nm:gd|res:RC3|com-cf:nl|ptrs:na|ktp:N0|mc:73929|mtp:S|qry_typ:P|lang:en|wc:2|cs:7545|v=4,False,Bambala,Jaipur,"162/214, Ground Floor, Sector-16, Pratap Nagar,, Bambala, Jaipur - 302033, Dist.Jaipur, Rajasthan",8048273054,
Plain NoLiQs Cotton Adult Pull Up Diapers,https://www.indiamart.com/proddetail/noliqs-cotton-adult-pull-up-diapers-2852555813655.html?pos=123&kwd=incontinence diaper&tags=||||8038.093|Price|product|||MDC|rsf:gd-|-qr_nm:gd|res:RC3|com-cf:nl|ptrs:na|ktp:N0|mc:73929|mtp:S|qry_typ:P|lang:en|wc:2|cs:7545|v=4,Aeroshine International,https://www.indiamart.com/aeroshineinternational/?pos=123&kwd=incontinence diaper&tags=||||8038.093|Price|product|||MDC|rsf:gd-|-qr_nm:gd|res:RC3|com-cf:nl|ptrs:na|ktp:N0|mc:73929|mtp:S|qry_typ:P|lang:en|wc:2|cs:7545|v=4,False,Champak Nagar,Rajkot,"Street No 8, Plot No 101-B, Brahmaniya Para, Sant Kabir Road, Govindbaug Opp. Vimal, R.S. No 185, Champak Nagar, Rajkot - 360003, Dist.Rajkot, Gujarat",7942714315,
Supertech Pull Up Diaper,https://www.indiamart.com/proddetail/pull-up-diaper-20645742488.html?pos=124&kwd=incontinence diaper&tags=||||8624.416|Price|proxy|||MDC|rsf:gd-|-qr_nm:gd|res:RC3|com-cf:nl|ptrs:na|ktp:N0|mc:73929|mtp:S|qry_typ:P|lang:en|wc:2|cs:7545|v=4,Supertech Surgical Company,https://www.indiamart.com/supertech-surgical-company/?pos=124&kwd=incontinence diaper&tags=||||8624.416|Price|proxy|||MDC|rsf:gd-|-qr_nm:gd|res:RC3|com-cf:nl|ptrs:na|ktp:N0|mc:73929|mtp:S|qry_typ:P|lang:en|wc:2|cs:7545|v=4,False,Shiv Nagar,Hisar,"Shop No. 1, Millgate Area, Shiv Nagar, Shiv Nagar, Hisar - 125001, Dist.Hisar, Haryana",8047642534,
"White Plain Disposable Baby Diapers, Age Group: 1to2 Years, Small",https://www.indiamart.com/proddetail/white-plain-disposable-baby-diapers-2854653063248.html?pos=125&kwd=incontinence diaper&tags=||||8038.093|Price|product|||MDC|rsf:gd-|-qr_nm:gd|res:RC3|com-cf:nl|ptrs:na|ktp:N0|mc:73929|mtp:S|qry_typ:P|lang:en|wc:2|cs:7545|v=4,Rudransh International,https://www.indiamart.com/rudransh-international-rajkot/?pos=125&kwd=incontinence diaper&tags=||||8038.093|Price|product|||MDC|rsf:gd-|-qr_nm:gd|res:RC3|com-cf:nl|ptrs:na|ktp:N0|mc:73929|mtp:S|qry_typ:P|lang:en|wc:2|cs:7545|v=4,False,,Rajkot,"3-indira Nagar Laxmi Nivas Kothariya Main Road Near Bhavnath Temple, Rajkot - 360002, Dist.Rajkot, Gujarat",7949323742,
Non Woven Disposable Baby Diapers,https://www.indiamart.com/proddetail/disposable-baby-diapers-2853254351488.html?pos=126&kwd=incontinence diaper&tags=||||8307.81|Price|product|||TS|rsf:gd-|-qr_nm:gd|res:RC3|com-cf:nl|ptrs:na|ktp:N0|mc:73929|mtp:S|qry_typ:P|lang:en|wc:2|cs:7545|v=4,MRM Healthcare,https://www.mrmhealthcare.com/?pos=126&kwd=incontinence diaper&tags=||||8307.81|Price|product|||TS|rsf:gd-|-qr_nm:gd|res:RC3|com-cf:nl|ptrs:na|ktp:N0|mc:73929|mtp:S|qry_typ:P|lang:en|wc:2|cs:7545|v=4,False,Hadapsar,Pune,"Ground Floor Shope Number 1, H No 1355, Unit No 1 Suyog Apartment Chimnya Ganpati Chowk, Near Chimnya Ganpati Chowk. Bajirao Road Sadashiv Peth, Hadapsar, Pune - 411030, Dist.Pune, Maharashtra",7942800377,
Adult Diapers (KAREMED),https://www.indiamart.com/proddetail/adult-diapers-karemed-2854647305830.html?pos=127&kwd=incontinence diaper&tags=||||8741.987|Price|product|||TS|rsf:gd-|-qr_nm:gd|res:RC3|com-cf:nl|ptrs:na|ktp:N0|mc:73929|mtp:S|qry_typ:P|lang:en|wc:2|cs:7545|v=4,Surgical Hub,https://www.indiamart.com/surgicalhub/?pos=127&kwd=incontinence diaper&tags=||||8741.987|Price|product|||TS|rsf:gd-|-qr_nm:gd|res:RC3|com-cf:nl|ptrs:na|ktp:N0|mc:73929|mtp:S|qry_typ:P|lang:en|wc:2|cs:7545|v=4,False,,Ambala,"136 A, Phase-2, Near Dr Makkar, Jaggi Colony, Ambala - 134003, Dist.Ambala, Haryana",8043804768,
"Friends Premium Adult Diaper, Size: Medium, 10 Diapers",https://www.indiamart.com/proddetail/friends-premium-adult-diaper-23171074888.html?pos=128&kwd=incontinence diaper&tags=||||8954.051|Price|product|||TS|rsf:gd-|-qr_nm:gd|res:RC3|com-cf:nl|ptrs:na|ktp:N0|mc:73929|mtp:S|qry_typ:P|lang:en|wc:2|cs:7545|v=4,Happy Zone Health Store,https://www.happyzonehealthstore.com/?pos=128&kwd=incontinence diaper&tags=||||8954.051|Price|product|||TS|rsf:gd-|-qr_nm:gd|res:RC3|com-cf:nl|ptrs:na|ktp:N0|mc:73929|mtp:S|qry_typ:P|lang:en|wc:2|cs:7545|v=4,False,Mylapore,Chennai,"NO.61 NACHIAPPA ST,MYLAPORE, Mylapore, Chennai - 600004, Dist.Chennai, Tamil Nadu",8046074663,
"Adult Diapers, Large",https://www.indiamart.com/proddetail/adult-diapers-2854412320455.html?pos=129&kwd=incontinence diaper&tags=||||9520.041|Price|product|||TS|rsf:gd-|-qr_nm:gd|res:RC3|com-cf:nl|ptrs:na|ktp:N0|mc:73929|mtp:S|qry_typ:P|lang:en|wc:2|cs:7545|v=4,Nidat Health Private Limited,https://www.indiamart.com/nidathealth/?pos=129&kwd=incontinence diaper&tags=||||9520.041|Price|product|||TS|rsf:gd-|-qr_nm:gd|res:RC3|com-cf:nl|ptrs:na|ktp:N0|mc:73929|mtp:S|qry_typ:P|lang:en|wc:2|cs:7545|v=4,False,Lohia Nagar,Patna,"A/228, 1ST Floor West, P C Colony, Modern Hospital, Lohia Nagar, Patna - 800020, Dist.Patna, Bihar",7942870212,
Printed AVM SUPER DRY PANT DIAPER,https://www.indiamart.com/proddetail/avm-super-dry-pant-diaper-2853234500412.html?pos=130&kwd=incontinence diaper&tags=||||8954.051|Price|product|||TS|rsf:gd-|-qr_nm:gd|res:RC3|com-cf:nl|ptrs:na|ktp:N0|mc:73929|mtp:S|qry_typ:P|lang:en|wc:2|cs:7545|v=4,Murugan Surgicals,https://www.murugansurgicals.co.in/?pos=130&kwd=incontinence diaper&tags=||||8954.051|Price|product|||TS|rsf:gd-|-qr_nm:gd|res:RC3|com-cf:nl|ptrs:na|ktp:N0|mc:73929|mtp:S|qry_typ:P|lang:en|wc:2|cs:7545|v=4,False,Mint Building,Chennai,"Old No.34/35 Newno.87, Walltax Road, Mint Building, Chennai - 600001, Dist.Chennai, Tamil Nadu",8048974268,
Easy Friends Adult Disposable Diaper -LARGE,https://www.indiamart.com/proddetail/easy-friends-adult-disposable-diaper-large-23845677130.html?pos=131&kwd=incontinence diaper&tags=||||8899.625|Price|product|||TS|rsf:gd-|-qr_nm:gd|res:RC3|com-cf:nl|ptrs:na|ktp:N0|mc:73929|mtp:S|qry_typ:P|lang:en|wc:2|cs:7545|v=4,Sadhguru Surgicals Private Limited,https://www.indiamart.com/sadhguru-surgicals/?pos=131&kwd=incontinence diaper&tags=||||8899.625|Price|product|||TS|rsf:gd-|-qr_nm:gd|res:RC3|com-cf:nl|ptrs:na|ktp:N0|mc:73929|mtp:S|qry_typ:P|lang:en|wc:2|cs:7545|v=4,False,Thirubuvanai,Pondicherry,"First Floor, 104, 4th Cross Street, Ragavendra Nagar, Thirubuvanai, Thirubuvanai, Pondicherry - 605107, Dist.Pondicherry, Pondicherry",8047645074,
Anant Medical Devices,,Anant Medical Devices,https://www.indiamart.com/anant-medical-devices/?pos=132&kwd=incontinence diaper&tags=||||8331.224||bl|||TS|rsf:gd-|-qr_nm:gd|res:RC3|com-cf:nl|ptrs:na|ktp:N0|mc:73929|mtp:S|qry_typ:P|lang:en|wc:2|cs:7545|v=4,False,New Shahupuri,Kolhapur,"425, E Ward, Near Hotel Triveni, Shahupuri, New Shahupuri, Kolhapur - 416001, Dist.Kolhapur, Maharashtra",7942714257,
"Seniorcare Unisex Adult Diaper, Medium",https://www.indiamart.com/proddetail/seniorcare-unisex-adult-diaper-2854578649773.html?pos=133&kwd=incontinence diaper&tags=||||8302.941|Price|product|||MDC|rsf:gd-|-qr_nm:gd|res:RC3|com-cf:nl|ptrs:na|ktp:N0|mc:73929|mtp:S|qry_typ:P|lang:en|wc:2|cs:7545|v=4,Advance Healthcare,https://www.indiamart.com/advance-healthcaremaharashtra/?pos=133&kwd=incontinence diaper&tags=||||8302.941|Price|product|||MDC|rsf:gd-|-qr_nm:gd|res:RC3|com-cf:nl|ptrs:na|ktp:N0|mc:73929|mtp:S|qry_typ:P|lang:en|wc:2|cs:7545|v=4,False,,Pimpri Chinchwad,"Office No.3, First Floor, Onkar Plaza, Indrayani Bazzar, MIDC Chinchwad, Pimpri Chinchwad - 411019, Maharashtra",7949329008,
"Pull Ups Sara Care Adult Diaper, Size: XL",https://www.indiamart.com/proddetail/sara-care-adult-diaper-2854144776555.html?pos=134&kwd=incontinence diaper&tags=||||9572.14|Price|product|||MDC|rsf:gd-|-qr_nm:gd|res:RC3|com-cf:nl|ptrs:na|ktp:N0|mc:73929|mtp:S|qry_typ:P|lang:en|wc:2|cs:7545|v=4,Suhasini Pharmaceuticals,https://www.indiamart.com/suhasinipharmaceuticals/?pos=134&kwd=incontinence diaper&tags=||||9572.14|Price|product|||MDC|rsf:gd-|-qr_nm:gd|res:RC3|com-cf:nl|ptrs:na|ktp:N0|mc:73929|mtp:S|qry_typ:P|lang:en|wc:2|cs:7545|v=4,False,,Bhubaneswar,"Ground Floor, OSHC Complex, Plot No-24, Unit-111,Old Administrative Building, Kharavelanagar, Bhubaneswar - 751001, Dist.Khorda, Odisha",8045732380,
"Teddyy Easy Baby Diapers, Size: XL",https://www.indiamart.com/proddetail/teddyy-easy-baby-diapers-2854435641197.html?pos=135&kwd=incontinence diaper&tags=||||8211.142|Price|product|||MDC|rsf:gd-|-qr_nm:gd|res:RC3|com-cf:nl|ptrs:na|ktp:N0|mc:73929|mtp:S|qry_typ:P|lang:en|wc:2|cs:7545|v=4,S. P. Hygiene Products,https://www.indiamart.com/sphygieneproductsmumbai/?pos=135&kwd=incontinence diaper&tags=||||8211.142|Price|product|||MDC|rsf:gd-|-qr_nm:gd|res:RC3|com-cf:nl|ptrs:na|ktp:N0|mc:73929|mtp:S|qry_typ:P|lang:en|wc:2|cs:7545|v=4,False,,Mumbai,"Ground Floor, Shop No.3, 46/A, Modern Mill Compound, Jagannath Bhatankar Marg, Near S T Depot Prabhadevi,, Mumbai - 400025, Dist.Mumbai, Maharashtra",7949338427,
"Adult Pull Up Diaper Pants, Packaging Size: Medium",https://www.indiamart.com/proddetail/adult-pull-up-diaper-pants-2853596902562.html?pos=136&kwd=incontinence diaper&tags=||||9140.514|Price|proxy|||TS|rsf:gd-|-qr_nm:gd|res:RC3|com-cf:nl|ptrs:na|ktp:N0|mc:73929|mtp:S|qry_typ:P|lang:en|wc:2|cs:7545|v=4,Sefora Health And Hygiene,https://www.indiamart.com/seforahealthhygiene/?pos=136&kwd=incontinence diaper&tags=||||9140.514|Price|proxy|||TS|rsf:gd-|-qr_nm:gd|res:RC3|com-cf:nl|ptrs:na|ktp:N0|mc:73929|mtp:S|qry_typ:P|lang:en|wc:2|cs:7545|v=4,False,Saddu,Raipur,"H No. 134 Extension, Avinash Capital Homes , Phase II, Saddu, Saddu, Raipur - 492014, Chhattisgarh",7942962364,
Smilepad Day & Night Adult Diapers - Tape Style Pack of 1 (10pcs) Large 100-150cm (40-60 inch),https://www.indiamart.com/proddetail/smilepad-day-night-adult-diapers-tape-style-pack-of-1-10pcs-large-100-150cm-40-60-inch-2854186807755.html?pos=137&kwd=incontinence diaper&tags=||||8782.67|Price|product|||TS|rsf:gd-|-qr_nm:gd|res:RC3|com-cf:nl|ptrs:na|ktp:N0|mc:73929|mtp:S|qry_typ:P|lang:en|wc:2|cs:7545|v=4,Medisky Surgicals,https://www.indiamart.com/medisky-surgicals/?pos=137&kwd=incontinence diaper&tags=||||8782.67|Price|product|||TS|rsf:gd-|-qr_nm:gd|res:RC3|com-cf:nl|ptrs:na|ktp:N0|mc:73929|mtp:S|qry_typ:P|lang:en|wc:2|cs:7545|v=4,False,Uchipuli,Ramanathapuram,"12/2865-30, Pattinamkathan, Madurai Rameshwaram Road, Achchundanvayal, Uchipuli, Ramanathapuram - 623502, Dist.Ramanathapuram, Tamil Nadu",7942960183,
Plain Adult Pull Up Diapers Medium,https://www.indiamart.com/proddetail/adult-pull-up-diapers-medium-2852130679633.html?pos=138&kwd=incontinence diaper&tags=||||8228.275|Price|proxy|||MDC|rsf:gd-|-qr_nm:gd|res:RC3|com-cf:nl|ptrs:na|ktp:N0|mc:73929|mtp:S|qry_typ:P|lang:en|wc:2|cs:7545|v=4,Kamdhenu Pharma,https://www.indiamart.com/kamdhenupharmagujarat/?pos=138&kwd=incontinence diaper&tags=||||8228.275|Price|proxy|||MDC|rsf:gd-|-qr_nm:gd|res:RC3|com-cf:nl|ptrs:na|ktp:N0|mc:73929|mtp:S|qry_typ:P|lang:en|wc:2|cs:7545|v=4,False,Jahangirpura,Ahmedabad,"4th, B-412, Abhishek Complex, NR, Asarva Bridge, Jahangirpura, Ahmedabad - 380016, Dist.Ahmedabad, Gujarat",8047806771,
"Pull Ups Liberty L Adult Diapers, Size: Large",https://www.indiamart.com/proddetail/liberty-l-adult-diapers-2853336981848.html?pos=139&kwd=incontinence diaper&tags=||||8211.142||product|||MDC|rsf:gd-|-qr_nm:gd|res:RC3|com-cf:nl|ptrs:na|ktp:N0|mc:73929|mtp:S|qry_typ:P|lang:en|wc:2|cs:7545|v=4,Lucky Health Care,https://www.indiamart.com/luckyhealthcare/?pos=139&kwd=incontinence diaper&tags=||||8211.142||product|||MDC|rsf:gd-|-qr_nm:gd|res:RC3|com-cf:nl|ptrs:na|ktp:N0|mc:73929|mtp:S|qry_typ:P|lang:en|wc:2|cs:7545|v=4,False,Malad East,Mumbai,"1st Floor, Shreya General Stores Ravi, Shankar Chawl Gen A K V Marg Malad, Navsha Compd Near Riddhi Garden, Suburban, Malad East, Mumbai - 400097, Dist.Mumbai, Maharashtra",7949227835,
"L Size Silk Sense Adult Diapers, Large",https://www.indiamart.com/proddetail/l-size-silk-sense-adult-diapers-2854673852773.html?pos=140&kwd=incontinence diaper&tags=||||8307.81|Price|product|||MDC|rsf:gd-|-qr_nm:gd|res:RC3|com-cf:nl|ptrs:na|ktp:N0|mc:73929|mtp:S|qry_typ:P|lang:en|wc:2|cs:7545|v=4,Brother Enterprises,https://www.indiamart.com/brotherenterprisespune/?pos=140&kwd=incontinence diaper&tags=||||8307.81|Price|product|||MDC|rsf:gd-|-qr_nm:gd|res:RC3|com-cf:nl|ptrs:na|ktp:N0|mc:73929|mtp:S|qry_typ:P|lang:en|wc:2|cs:7545|v=4,False,,Pune,"Balewadi Road, 150/1/1, Muktai Bld, Chakankar Mala Baner, Pune - 411045, Dist.Pune, Maharashtra",7949326791,
"Ambitech Adult Diapers, Large",https://www.indiamart.com/proddetail/ambitech-adult-diapers-2854458366930.html?pos=141&kwd=incontinence diaper&tags=||||8559.269|Price|product|||MDC|rsf:gd-|-qr_nm:gd|res:RC3|com-cf:nl|ptrs:na|ktp:N0|mc:73929|mtp:S|qry_typ:P|lang:en|wc:2|cs:7545|v=4,H & H Construct,https://www.indiamart.com/hh-construct/?pos=141&kwd=incontinence diaper&tags=||||8559.269|Price|product|||MDC|rsf:gd-|-qr_nm:gd|res:RC3|com-cf:nl|ptrs:na|ktp:N0|mc:73929|mtp:S|qry_typ:P|lang:en|wc:2|cs:7545|v=4,False,,Indore,"826,Scheme No-114,Part No-1, Indore - 452001, Dist.Indore, Madhya Pradesh",7949094380,
Jiswap XL Adult Diaper,https://www.indiamart.com/proddetail/jiswap-xl-adult-diaper-24828203548.html?pos=142&kwd=incontinence diaper&tags=||||8038.093|Price|product|||MDC|rsf:gd-|-qr_nm:gd|res:RC3|com-cf:nl|ptrs:na|ktp:N0|mc:73929|mtp:S|qry_typ:P|lang:en|wc:2|cs:7545|v=4,Empresa Industries,https://www.indiamart.com/empresaindustries/?pos=142&kwd=incontinence diaper&tags=||||8038.093|Price|product|||MDC|rsf:gd-|-qr_nm:gd|res:RC3|com-cf:nl|ptrs:na|ktp:N0|mc:73929|mtp:S|qry_typ:P|lang:en|wc:2|cs:7545|v=4,False,,Rajkot,"Serve No.36, Plot No.4, Shade No 6, Village Vavdi, Near Om Casting, BH Krishna Park, Gondal Road,, Rajkot - 360004, Dist.Rajkot, Gujarat",8045738690,
Medi Plus Pull Ups Adult Diaper,https://www.indiamart.com/proddetail/medi-plus-pull-ups-adult-diaper-2855002178348.html?pos=143&kwd=incontinence diaper&tags=||||8228.275|Price|product|||MDC|rsf:gd-|-qr_nm:gd|res:RC3|com-cf:nl|ptrs:na|ktp:N0|mc:73929|mtp:S|qry_typ:P|lang:en|wc:2|cs:7545|v=4,Navjivan Pharma,https://www.indiamart.com/navjivan-pharma-ahmedabad/?pos=143&kwd=incontinence diaper&tags=||||8228.275|Price|product|||MDC|rsf:gd-|-qr_nm:gd|res:RC3|com-cf:nl|ptrs:na|ktp:N0|mc:73929|mtp:S|qry_typ:P|lang:en|wc:2|cs:7545|v=4,False,,Ahmedabad,"Shop/B-106, Anand Sapphire,Opp. Vishwas City 7, Ahmedabad - 382481, Dist.Ahmedabad, Gujarat",8044014306,
Baby Diaper,https://www.indiamart.com/proddetail/baby-diaper-2852907059591.html?pos=144&kwd=incontinence diaper&tags=||||9228.171|Price|proxy|||TS|rsf:gd-|-qr_nm:gd|res:RC3|com-cf:nl|ptrs:na|ktp:N0|mc:73929|mtp:S|qry_typ:P|lang:en|wc:2|cs:7545|v=4,Evergreen Care,https://www.indiamart.com/evergreencare-faizabad/?pos=144&kwd=incontinence diaper&tags=||||9228.171|Price|proxy|||TS|rsf:gd-|-qr_nm:gd|res:RC3|com-cf:nl|ptrs:na|ktp:N0|mc:73929|mtp:S|qry_typ:P|lang:en|wc:2|cs:7545|v=4,False,Faizabad Cantt,Faizabad,"Near Raebareilly Bypass, Faizabad Cantt, Faizabad - 224202, Uttar Pradesh",8046054746,
Protective Underwear Caresome Adult Pants Diapers,https://www.indiamart.com/proddetail/caresome-adult-pants-diapers-2852883815273.html?pos=145&kwd=incontinence diaper&tags=||||8211.142|Price|product|||TS|rsf:gd-|-qr_nm:gd|res:RC3|com-cf:nl|ptrs:na|ktp:N0|mc:73929|mtp:S|qry_typ:P|lang:en|wc:2|cs:7545|v=4,S N Surgicals,https://www.indiamart.com/snsurgicals-mumbai/?pos=145&kwd=incontinence diaper&tags=||||8211.142|Price|product|||TS|rsf:gd-|-qr_nm:gd|res:RC3|com-cf:nl|ptrs:na|ktp:N0|mc:73929|mtp:S|qry_typ:P|lang:en|wc:2|cs:7545|v=4,False,Dahisar,Mumbai,"Shop No. G-16, Sai Krupa Mall, LT Road, Opp Railway Station, Dahisar West Suburban, Dahisar, Mumbai - 400068, Dist.Mumbai, Maharashtra",7942968320,
ADULT DIAPERS AVM PULL UP MEDIUM (10'S PACK),https://www.indiamart.com/proddetail/adult-diapers-avm-pull-up-medium-10-s-pack-2854600472055.html?pos=146&kwd=incontinence diaper&tags=||||8954.051||product|||TS|rsf:gd-|-qr_nm:gd|res:RC3|com-cf:nl|ptrs:na|ktp:N0|mc:73929|mtp:S|qry_typ:P|lang:en|wc:2|cs:7545|v=4,Shanmuga Medical And Surgical,https://www.indiamart.com/shanmuga-medical-surgical/?pos=146&kwd=incontinence diaper&tags=||||8954.051||product|||TS|rsf:gd-|-qr_nm:gd|res:RC3|com-cf:nl|ptrs:na|ktp:N0|mc:73929|mtp:S|qry_typ:P|lang:en|wc:2|cs:7545|v=4,False,Arumbakkam,Chennai,"Ashok Nagar, No 6a, Ashoknagar West Street, Arumbakkam, Arumbakkam, Chennai - 600106, Dist.Chennai, Tamil Nadu",8047823161,
"Protective Underwear Adult Diapers, Size: Medium, Age Group: 1to2 Years",https://www.indiamart.com/proddetail/adult-diapers-21962596333.html?pos=147&kwd=incontinence diaper&tags=||||8584.299|Price|product|||TS|rsf:gd-|-qr_nm:gd|res:RC3|com-cf:nl|ptrs:na|ktp:N0|mc:73929|mtp:S|qry_typ:P|lang:en|wc:2|cs:7545|v=4,Kalam Enterprises,https://www.kalament.co.in/?pos=147&kwd=incontinence diaper&tags=||||8584.299|Price|product|||TS|rsf:gd-|-qr_nm:gd|res:RC3|com-cf:nl|ptrs:na|ktp:N0|mc:73929|mtp:S|qry_typ:P|lang:en|wc:2|cs:7545|v=4,False,Siddhapudur,Coimbatore,"No. 262 A, Ground Floor, New Siddhapudur, Siddhapudur, Coimbatore - 641044, Dist.Coimbatore, Tamil Nadu",8048981845,
"Romsons Magna Adult Diapers, Large",https://www.indiamart.com/proddetail/romsons-magna-adult-diapers-24530358848.html?pos=148&kwd=incontinence diaper&tags=||||9110.092|Price|product|||MDC|rsf:gd-|-qr_nm:gd|res:RC3|com-cf:nl|ptrs:na|ktp:N0|mc:73929|mtp:S|qry_typ:P|lang:en|wc:2|cs:7545|v=4,Amar Surgicals,https://www.indiamart.com/amarsurgicals/?pos=148&kwd=incontinence diaper&tags=||||9110.092|Price|product|||MDC|rsf:gd-|-qr_nm:gd|res:RC3|com-cf:nl|ptrs:na|ktp:N0|mc:73929|mtp:S|qry_typ:P|lang:en|wc:2|cs:7545|v=4,False,,Lucknow,"FF-8, New Medicine E Market, G B Marg, Aminabad, Lucknow - 226018, Dist.Lucknow, Uttar Pradesh",7949322723,
"Friends Adult Diapers, Size: Large",https://www.indiamart.com/proddetail/friends-adult-diapers-21352837012.html?pos=149&kwd=incontinence diaper&tags=||||8211.142|Price|product|||MDC|rsf:gd-|-qr_nm:gd|res:RC3|com-cf:nl|ptrs:na|ktp:N0|mc:73929|mtp:S|qry_typ:P|lang:en|wc:2|cs:7545|v=4,Aarav Surgical,https://www.indiamart.com/aarav-surgical/?pos=149&kwd=incontinence diaper&tags=||||8211.142|Price|product|||MDC|rsf:gd-|-qr_nm:gd|res:RC3|com-cf:nl|ptrs:na|ktp:N0|mc:73929|mtp:S|qry_typ:P|lang:en|wc:2|cs:7545|v=4,False,Dahisar East,Mumbai,"Shop No. 05 A/5, Shanti Apartment, Chsl., C.S.C. Road No. 3 Near Shakti Nagar, Dahisar East, Mumbai - 400068, Dist.Mumbai, Maharashtra",8048261724,
"Open Side Tape Adult Diaper, Size: Small,Medium & Large",https://www.indiamart.com/proddetail/adult-diaper-5360757033.html?pos=150&kwd=incontinence diaper&tags=||||8601.347|Price|product|||TS|rsf:gd-|-qr_nm:gd|res:RC3|com-cf:nl|ptrs:na|ktp:N0|mc:73929|mtp:S|qry_typ:P|lang:en|wc:2|cs:7545|v=4,Jackson Care Product,https://www.jacksoncare.in/?pos=150&kwd=incontinence diaper&tags=||||8601.347|Price|product|||TS|rsf:gd-|-qr_nm:gd|res:RC3|com-cf:nl|ptrs:na|ktp:N0|mc:73929|mtp:S|qry_typ:P|lang:en|wc:2|cs:7545|v=4,False,Jaisinghpura Khor,Jaipur,"No. 199, Rishi Galav Nagar, Jaisinghpura Khor, Jaipur - 302002, Dist.Jaipur, Rajasthan",8048965113,
"Disposable Adult Diaper, Medium",https://www.indiamart.com/proddetail/disposable-adult-diaper-2854524118848.html?pos=151&kwd=incontinence diaper&tags=||||8663.873|Price|product|||TS|rsf:gd-|-qr_nm:gd|res:RC3|com-cf:nl|ptrs:na|ktp:N0|mc:73929|mtp:S|qry_typ:P|lang:en|wc:2|cs:7545|v=4,Swasti Health Care,https://www.indiamart.com/swasti-health-care/?pos=151&kwd=incontinence diaper&tags=||||8663.873|Price|product|||TS|rsf:gd-|-qr_nm:gd|res:RC3|com-cf:nl|ptrs:na|ktp:N0|mc:73929|mtp:S|qry_typ:P|lang:en|wc:2|cs:7545|v=4,False,Ganga Nagar,Bengaluru,"1ST,NO.62/2,CHOLANAYAKANAHALLI,MAIN MUNESHWARA BLOCK,R.T NAGAR, Ganga Nagar, Bengaluru - 560032, Dist.Bengaluru, Karnataka",8046030838,
"Plain Liberty Adult Diapers Pull Ups Eco M-10, Packaging Size: Medium",https://www.indiamart.com/proddetail/liberty-adult-diapers-pull-ups-eco-m-10-25295804712.html?pos=152&kwd=incontinence diaper&tags=||||8601.347|Price|product|||TS|rsf:gd-|-qr_nm:gd|res:RC3|com-cf:nl|ptrs:na|ktp:N0|mc:73929|mtp:S|qry_typ:P|lang:en|wc:2|cs:7545|v=4,Deep Marketing,https://www.indiamart.com/deepmarketingjaipur/?pos=152&kwd=incontinence diaper&tags=||||8601.347|Price|product|||TS|rsf:gd-|-qr_nm:gd|res:RC3|com-cf:nl|ptrs:na|ktp:N0|mc:73929|mtp:S|qry_typ:P|lang:en|wc:2|cs:7545|v=4,False,Durgapura,Jaipur,"304, Mahaveer Nagar II, Dalda Factory Road, Durgapura, Jaipur - 302018, Dist.Jaipur, Rajasthan",8048952439,
Pull Ups Premium quality diaper adult,https://www.indiamart.com/proddetail/premium-quality-diaper-adult-2852377541397.html?pos=153&kwd=incontinence diaper&tags=||||8663.873|Price|product|||TS|rsf:gd-|-qr_nm:gd|res:RC3|com-cf:nl|ptrs:na|ktp:N0|mc:73929|mtp:S|qry_typ:P|lang:en|wc:2|cs:7545|v=4,Wellcare Home Health Services,https://www.wellcaregroups.in/?pos=153&kwd=incontinence diaper&tags=||||8663.873|Price|product|||TS|rsf:gd-|-qr_nm:gd|res:RC3|com-cf:nl|ptrs:na|ktp:N0|mc:73929|mtp:S|qry_typ:P|lang:en|wc:2|cs:7545|v=4,False,Bapujinagar,Bengaluru,"370, First Floor, Welcare, 6th Cross, 3rd Main, New Kavika Layout, Maruthinagar, Bapujinagar, Urban, Bapujinagar, Bengaluru - 560026, Dist.Bengaluru, Karnataka",7942620555,
Multicolor Flexographic Adult Diaper Packaging,https://www.indiamart.com/proddetail/adult-diaper-packaging-15338694630.html?pos=154&kwd=incontinence diaper&tags=||||8752.144|Price|product|||TS|rsf:gd-|-qr_nm:gd|res:RC3|com-cf:nl|ptrs:na|ktp:N0|mc:73929|mtp:S|qry_typ:P|lang:en|wc:2|cs:7545|v=4,OM FLEX (INDIA),https://www.omflex.net/?pos=154&kwd=incontinence diaper&tags=||||8752.144|Price|product|||TS|rsf:gd-|-qr_nm:gd|res:RC3|com-cf:nl|ptrs:na|ktp:N0|mc:73929|mtp:S|qry_typ:P|lang:en|wc:2|cs:7545|v=4,False,Okhla Industrial Estate,New Delhi,"B-196, Phase 1, Okhla Industrial Estate, New Delhi - 110020, Dist.Delhi, Delhi",8048967852,
Protective Underwear Large Adult Diaper,https://www.indiamart.com/proddetail/large-adult-diaper-22794076833.html?pos=155&kwd=incontinence diaper&tags=||||8663.873|Price|product|||TS|rsf:gd-|-qr_nm:gd|res:RC3|com-cf:nl|ptrs:na|ktp:N0|mc:73929|mtp:S|qry_typ:P|lang:en|wc:2|cs:7545|v=4,Patil Pharmaceuticals,https://www.patilpharmaceuticals.com/?pos=155&kwd=incontinence diaper&tags=||||8663.873|Price|product|||TS|rsf:gd-|-qr_nm:gd|res:RC3|com-cf:nl|ptrs:na|ktp:N0|mc:73929|mtp:S|qry_typ:P|lang:en|wc:2|cs:7545|v=4,False,Kirloskar Colony,Bengaluru,"No.13, 4th Cross, 2nd Main Kirloskar Colony, Kurubarahalli, Kirloskar Colony, Bengaluru - 560079, Dist.Bengaluru, Karnataka",8048983890,
"Disposable Adult Diaper, Medium",https://www.indiamart.com/proddetail/disposable-adult-diaper-2854361400688.html?pos=156&kwd=incontinence diaper&tags=||||8693.162||product|||TS|rsf:gd-|-qr_nm:gd|res:RC3|com-cf:nl|ptrs:na|ktp:N0|mc:73929|mtp:S|qry_typ:P|lang:en|wc:2|cs:7545|v=4,National Hospital Suppliers,https://www.indiamart.com/national-hospital-suppliers/?pos=156&kwd=incontinence diaper&tags=||||8693.162||product|||TS|rsf:gd-|-qr_nm:gd|res:RC3|com-cf:nl|ptrs:na|ktp:N0|mc:73929|mtp:S|qry_typ:P|lang:en|wc:2|cs:7545|v=4,False,Mendonsa Colony,Dindigul,"61A, VMR Patti, Mendonsa Colony, Dindigul - 624005, Dist.Dindigul, Tamil Nadu",7942824059,
Cotton Comfort Adult Diaper,https://www.indiamart.com/proddetail/comfort-adult-diaper-25547655988.html?pos=157&kwd=incontinence diaper&tags=||||8307.81|Price|product|||TS|rsf:gd-|-qr_nm:gd|res:RC3|com-cf:nl|ptrs:na|ktp:N0|mc:73929|mtp:S|qry_typ:P|lang:en|wc:2|cs:7545|v=4,Ujwala Pharmaceutical,https://www.indiamart.com/ujwalapharmaceuticals/?pos=157&kwd=incontinence diaper&tags=||||8307.81|Price|product|||TS|rsf:gd-|-qr_nm:gd|res:RC3|com-cf:nl|ptrs:na|ktp:N0|mc:73929|mtp:S|qry_typ:P|lang:en|wc:2|cs:7545|v=4,True,,Pune,"Ground Floor, 8, Netaji Nagar Chsg Ltd, Lula Nagar Road, Wanwadi, Pune - 411040, Dist.Pune, Maharashtra",8048262407,
"Cotton Disposable Dry Safe Diaper, Age Group: ADULT, Packaging Size: 10 Pcs in A Poly Bag Pack",https://www.indiamart.com/proddetail/dry-safe-diaper-25561416933.html?pos=158&kwd=incontinence diaper&tags=||||8230.883||product|||TS|rsf:gd-|-qr_nm:gd|res:RC3|com-cf:nl|ptrs:na|ktp:N0|mc:73929|mtp:S|qry_typ:P|lang:en|wc:2|cs:7545|v=4,Tvadartham Industries,https://www.tvadarthamindustries.com/?pos=158&kwd=incontinence diaper&tags=||||8230.883||product|||TS|rsf:gd-|-qr_nm:gd|res:RC3|com-cf:nl|ptrs:na|ktp:N0|mc:73929|mtp:S|qry_typ:P|lang:en|wc:2|cs:7545|v=4,False,Dimond Park,Surat,"191, 2nd Floor, Vardhaman Society, Shyamham Chowk, Nana Varachha, Dimond Park, Surat - 395006, Dist.Surat, Gujarat",8048969812,
tape style Disposable Adult Diaper,https://www.indiamart.com/proddetail/disposable-adult-diaper-25677337112.html?pos=159&kwd=incontinence diaper&tags=||||8211.142|Price|product|||TS|rsf:gd-|-qr_nm:gd|res:RC3|com-cf:nl|ptrs:na|ktp:N0|mc:73929|mtp:S|qry_typ:P|lang:en|wc:2|cs:7545|v=4,Stayzy Hygiene Private Limited,https://www.indiamart.com/synergy-fly/?pos=159&kwd=incontinence diaper&tags=||||8211.142|Price|product|||TS|rsf:gd-|-qr_nm:gd|res:RC3|com-cf:nl|ptrs:na|ktp:N0|mc:73929|mtp:S|qry_typ:P|lang:en|wc:2|cs:7545|v=4,False,Borivali West,Mumbai,"Bluechip Industrial Estate No 4 Sativali Road, Near Nexa Showroom, Waliv Naka, Borivali West, Mumbai - 401101, Dist.Mumbai, Maharashtra",8048604117,
Disposable Adult Diaper,https://www.indiamart.com/proddetail/disposable-adult-diaper-2853277648830.html?pos=160&kwd=incontinence diaper&tags=||||8860.933||product|||TS|rsf:gd-|-qr_nm:gd|res:RC3|com-cf:nl|ptrs:na|ktp:N0|mc:73929|mtp:S|qry_typ:P|lang:en|wc:2|cs:7545|v=4,Agarwal Enterprises,https://www.agarwalenterprises.in/?pos=160&kwd=incontinence diaper&tags=||||8860.933||product|||TS|rsf:gd-|-qr_nm:gd|res:RC3|com-cf:nl|ptrs:na|ktp:N0|mc:73929|mtp:S|qry_typ:P|lang:en|wc:2|cs:7545|v=4,False,Ballupur,Dehradun,"1428 1429, GMS Road, Mauza Kanwali Behind Kritika Store, Kanwali, Ballupur, Dehradun - 248001, Dist.Dehradun, Uttarakhand",7942548712,
"Pull Ups Non Woven Disposable Adult Diaper, Size: Large, Waist Size: 41''-54''",https://www.indiamart.com/proddetail/disposable-adult-diaper-18748726388.html?pos=161&kwd=incontinence diaper&tags=||||8307.81|Price|product|||TS|rsf:gd-|-qr_nm:gd|res:RC3|com-cf:nl|ptrs:na|ktp:N0|mc:73929|mtp:S|qry_typ:P|lang:en|wc:2|cs:7545|v=4,Namo Pharma,https://www.namopharma.net/?pos=161&kwd=incontinence diaper&tags=||||8307.81|Price|product|||TS|rsf:gd-|-qr_nm:gd|res:RC3|com-cf:nl|ptrs:na|ktp:N0|mc:73929|mtp:S|qry_typ:P|lang:en|wc:2|cs:7545|v=4,False,Shukrawar Peth,Pune,"Shop No. 2, Krishna Complex Towards Sadashiv Peth, Shukrawar Peth, Pune - 411002, Dist.Pune, Maharashtra",8046030868,
"Sticking Briefs Dr Fitts Adult Diaper, Size: Extra Large",https://www.indiamart.com/proddetail/dr-fitts-adult-diaper-25238175533.html?pos=162&kwd=incontinence diaper&tags=||||8830.079|Price|product|||TS|rsf:gd-|-qr_nm:gd|res:RC3|com-cf:nl|ptrs:na|ktp:N0|mc:73929|mtp:S|qry_typ:P|lang:en|wc:2|cs:7545|v=4,S3 Enterprises,https://www.indiamart.com/s3enterprises-vellore/?pos=162&kwd=incontinence diaper&tags=||||8830.079|Price|product|||TS|rsf:gd-|-qr_nm:gd|res:RC3|com-cf:nl|ptrs:na|ktp:N0|mc:73929|mtp:S|qry_typ:P|lang:en|wc:2|cs:7545|v=4,False,Kasturba Nagar,Vellore,"I Floor, 37/66, Murugappan Street, Abt Parcel Services, Arakonam, Ranipet, Kasturba Nagar, Vellore - 631001, Dist.Vellore, Tamil Nadu",8047309651,
Economy Friends Adult Diapers 'M' Size,https://www.indiamart.com/proddetail/economy-friends-adult-diapers-m-size-2853051744355.html?pos=163&kwd=incontinence diaper&tags=||||8663.873|Price|product|||TS|rsf:gd-|-qr_nm:gd|res:RC3|com-cf:nl|ptrs:na|ktp:N0|mc:73929|mtp:S|qry_typ:P|lang:en|wc:2|cs:7545|v=4,Surya Speciality Pharma,https://www.indiamart.com/suryaspecialitypharma/?pos=163&kwd=incontinence diaper&tags=||||8663.873|Price|product|||TS|rsf:gd-|-qr_nm:gd|res:RC3|com-cf:nl|ptrs:na|ktp:N0|mc:73929|mtp:S|qry_typ:P|lang:en|wc:2|cs:7545|v=4,False,Kumaraswamy Layout,Bengaluru,"Ground Floor, No 33, Surya Speciality Pharma, 14th Main, Kumaraswamy Layout, 1st Stage, Kumaraswamy Layout, Bengaluru - 560078, Dist.Bengaluru, Karnataka",7942545026,
Seni Active Normal Diaper,https://www.indiamart.com/proddetail/seni-active-normal-diaper-20835310348.html?pos=164&kwd=incontinence diaper&tags=||||8954.051|Price|product|||TS|rsf:gd-|-qr_nm:gd|res:RC3|com-cf:nl|ptrs:na|ktp:N0|mc:73929|mtp:S|qry_typ:P|lang:en|wc:2|cs:7545|v=4,Amos Surgicals,https://www.indiamart.com/amos-health-tech/?pos=164&kwd=incontinence diaper&tags=||||8954.051|Price|product|||TS|rsf:gd-|-qr_nm:gd|res:RC3|com-cf:nl|ptrs:na|ktp:N0|mc:73929|mtp:S|qry_typ:P|lang:en|wc:2|cs:7545|v=4,False,,Chennai,"129/1 Arcotroad Virugambakkam, Chennai - 600092, Dist.Chennai, Tamil Nadu",8046079606,
12-100 Years VARSHA Disposable Adult Diaper,https://www.indiamart.com/proddetail/varsha-disposable-adult-diaper-25574342697.html?pos=165&kwd=incontinence diaper&tags=||||9839.57|Price|product|||TS|rsf:gd-|-qr_nm:gd|res:RC3|com-cf:nl|ptrs:na|ktp:N0|mc:73929|mtp:S|qry_typ:P|lang:en|wc:2|cs:7545|v=4,Varsha Fashions,https://www.indiamart.com/varshafashions/?pos=165&kwd=incontinence diaper&tags=||||9839.57|Price|product|||TS|rsf:gd-|-qr_nm:gd|res:RC3|com-cf:nl|ptrs:na|ktp:N0|mc:73929|mtp:S|qry_typ:P|lang:en|wc:2|cs:7545|v=4,False,Machua,Kolkata,"170A & 170B, Room No. 4 B2, 4th Floor Chittranjan Avenue, Machua, Kolkata - 700007, Dist.Kolkata, West Bengal",8046043605,
Plain Medi Plus Pull Ups Diaper,https://www.indiamart.com/proddetail/medi-plus-pull-ups-diaper-11803930188.html?pos=166&kwd=incontinence diaper&tags=||||8228.275|Price|product|||TS|rsf:gd-|-qr_nm:gd|res:RC3|com-cf:nl|ptrs:na|ktp:N0|mc:73929|mtp:S|qry_typ:P|lang:en|wc:2|cs:7545|v=4,Future Medisurgico,https://www.indiamart.com/futuremedisurgico/?pos=166&kwd=incontinence diaper&tags=||||8228.275|Price|product|||TS|rsf:gd-|-qr_nm:gd|res:RC3|com-cf:nl|ptrs:na|ktp:N0|mc:73929|mtp:S|qry_typ:P|lang:en|wc:2|cs:7545|v=4,False,Ghatlodiya,Ahmedabad,"FF/18, Vishwash City 2, Near Pramukh Nagar Ghatlodiya, Ghatlodiya, Ahmedabad - 380061, Dist.Ahmedabad, Gujarat",8046057853,
"Pull Ups Disposable Adult Diaper Pant, Size: Xl",https://www.indiamart.com/proddetail/disposable-adult-diaper-pant-25299525897.html?pos=167&kwd=incontinence diaper&tags=||||8752.144|Price|product|||TS|rsf:gd-|-qr_nm:gd|res:RC3|com-cf:nl|ptrs:na|ktp:N0|mc:73929|mtp:S|qry_typ:P|lang:en|wc:2|cs:7545|v=4,Manzen Healthcare Private Limited,https://www.manzenhealthcare.com/?pos=167&kwd=incontinence diaper&tags=||||8752.144|Price|product|||TS|rsf:gd-|-qr_nm:gd|res:RC3|com-cf:nl|ptrs:na|ktp:N0|mc:73929|mtp:S|qry_typ:P|lang:en|wc:2|cs:7545|v=4,False,Nehru Place,New Delhi,"606,CHIRANJIV TOWER,43,NEHRU PLACE, Nehru Place, New Delhi - 110019, Dist.Delhi, Delhi",8048266791,
"Pull Ups B Fit Adult Diapers, Size: Large",https://www.indiamart.com/proddetail/b-fit-adult-diapers-2854043654462.html?pos=168&kwd=incontinence diaper&tags=||||9349.906||product|||TS|rsf:gd-|-qr_nm:gd|res:RC3|com-cf:nl|ptrs:na|ktp:N0|mc:73929|mtp:S|qry_typ:P|lang:en|wc:2|cs:7545|v=4,Tulsyan Healthcare Private Limited,https://www.indiamart.com/tulsyan-heathcare/?pos=168&kwd=incontinence diaper&tags=||||9349.906||product|||TS|rsf:gd-|-qr_nm:gd|res:RC3|com-cf:nl|ptrs:na|ktp:N0|mc:73929|mtp:S|qry_typ:P|lang:en|wc:2|cs:7545|v=4,False,Golghar,Gorakhpur,"Shop 10, Bheem Complex, Bhalotiya Market, Golghar Gorakhpur, Golghar, Gorakhpur - 273001, Dist.Gorakhpur, Uttar Pradesh",8046060954,
"Tape B Fit Adult Diaper Xl, Age Group: 3to12 Months, Medium",https://www.indiamart.com/proddetail/b-fit-adult-diaper-xl-2851086758855.html?pos=169&kwd=incontinence diaper&tags=||||8813.969||product|||TS|rsf:gd-|-qr_nm:gd|res:RC3|com-cf:nl|ptrs:na|ktp:N0|mc:73929|mtp:S|qry_typ:P|lang:en|wc:2|cs:7545|v=4,Pearsons Healthcare Products,https://www.indiamart.com/pearsonshealthcareproducts/?pos=169&kwd=incontinence diaper&tags=||||8813.969||product|||TS|rsf:gd-|-qr_nm:gd|res:RC3|com-cf:nl|ptrs:na|ktp:N0|mc:73929|mtp:S|qry_typ:P|lang:en|wc:2|cs:7545|v=4,False,Kalyan Nagar,Meerut,"1st Floor, 5A, Garh Road Murari Puram, Kalyan Nagar, Meerut - 250002, Dist.Meerut, Uttar Pradesh",8047696443,
"Sticking Type Cotton Super Seni (M) Adult Diaper, Size: 75-110 Cm,30"" - 43""",https://www.indiamart.com/proddetail/super-seni-m-adult-diaper-15092480897.html?pos=170&kwd=incontinence diaper&tags=||||8954.051|Price|product|||TS|rsf:gd-|-qr_nm:gd|res:RC3|com-cf:nl|ptrs:na|ktp:N0|mc:73929|mtp:S|qry_typ:P|lang:en|wc:2|cs:7545|v=4,Sidd Health Zon,https://www.oldagecarepro.com/?pos=170&kwd=incontinence diaper&tags=||||8954.051|Price|product|||TS|rsf:gd-|-qr_nm:gd|res:RC3|com-cf:nl|ptrs:na|ktp:N0|mc:73929|mtp:S|qry_typ:P|lang:en|wc:2|cs:7545|v=4,False,Anna Nagar,Chennai,"Ground Floor, AB 102, 104, PKS Arcade, 4th Avenue, Shanthi Colony, Nandhiniee Sweets, Anna Nagar, Anna Nagar, Chennai - 600040, Dist.Chennai, Tamil Nadu",8048986713,
Non-woven 35 Over Disposable Adult Pull Up Diaper,https://www.indiamart.com/proddetail/disposable-adult-pull-up-diaper-18110329073.html?pos=171&kwd=incontinence diaper&tags=||||8752.144|Price|product|||TS|rsf:gd-|-qr_nm:gd|res:RC3|com-cf:nl|ptrs:na|ktp:N0|mc:73929|mtp:S|qry_typ:P|lang:en|wc:2|cs:7545|v=4,Dispowear Sterite Company,https://www.dispowear.co.in/?pos=171&kwd=incontinence diaper&tags=||||8752.144|Price|product|||TS|rsf:gd-|-qr_nm:gd|res:RC3|com-cf:nl|ptrs:na|ktp:N0|mc:73929|mtp:S|qry_typ:P|lang:en|wc:2|cs:7545|v=4,False,Janakpuri,New Delhi,"Pocket D-2 A, Flat No. 51 C, Janakpuri, Janakpuri, New Delhi - 110058, Dist.Delhi, Delhi",8048970362,
"Sticking Protective Underwear Adult Diaper, Size: Xl",https://www.indiamart.com/proddetail/adult-diaper-24221738212.html?pos=172&kwd=incontinence diaper&tags=||||8954.051|Price|product|||MDC|rsf:gd-|-qr_nm:gd|res:RC3|com-cf:nl|ptrs:na|ktp:N0|mc:73929|mtp:S|qry_typ:P|lang:en|wc:2|cs:7545|v=4,Aristolic Life Sciences,https://www.indiamart.com/aristoliclifesciences/?pos=172&kwd=incontinence diaper&tags=||||8954.051|Price|product|||MDC|rsf:gd-|-qr_nm:gd|res:RC3|com-cf:nl|ptrs:na|ktp:N0|mc:73929|mtp:S|qry_typ:P|lang:en|wc:2|cs:7545|v=4,False,Periyamet,Chennai,"Door No.4/17 Muthu Gramani Street Periyamedu, Periyamet, Chennai - 600003, Dist.Chennai, Tamil Nadu",7942566021,
Disposable Diaper,https://www.indiamart.com/proddetail/disposable-diaper-2853561135248.html?pos=173&kwd=incontinence diaper&tags=||||8788.382||product|||MDC|rsf:gd-|-qr_nm:gd|res:RC3|com-cf:nl|ptrs:na|ktp:N0|mc:73929|mtp:S|qry_typ:P|lang:en|wc:2|cs:7545|v=4,Scientific Supplies Corporation,https://www.indiamart.com/scientific-supplies-corporation/?pos=173&kwd=incontinence diaper&tags=||||8788.382||product|||MDC|rsf:gd-|-qr_nm:gd|res:RC3|com-cf:nl|ptrs:na|ktp:N0|mc:73929|mtp:S|qry_typ:P|lang:en|wc:2|cs:7545|v=4,False,Gamma 1,Greater Noida,"Shop No. 63, Jagat Plaza 2, Jagat Farm, Sector Gamma 1, Gamma 1, Greater Noida - 201308, Dist.Gautam Budh Nagar, Uttar Pradesh",7948548083,
Adult Diaper Tape Type M Size,https://www.indiamart.com/proddetail/adult-diaper-tape-type-m-size-2851605950755.html?pos=174&kwd=incontinence diaper&tags=||||8954.051|Price|product|||TS|rsf:gd-|-qr_nm:gd|res:RC3|com-cf:nl|ptrs:na|ktp:N0|mc:73929|mtp:S|qry_typ:P|lang:en|wc:2|cs:7545|v=4,The Exultant Enterprises,https://www.theexultantenterprises.com/?pos=174&kwd=incontinence diaper&tags=||||8954.051|Price|product|||TS|rsf:gd-|-qr_nm:gd|res:RC3|com-cf:nl|ptrs:na|ktp:N0|mc:73929|mtp:S|qry_typ:P|lang:en|wc:2|cs:7545|v=4,False,Velacheri,Chennai,"Building No. 13, New Secreterary Colony 6th Street,, Velacheri, Chennai - 600042, Dist.Chennai, Tamil Nadu",8048960064,
"Plain Adults Pull Ups Adult Diapers In Hyderabad, Packaging Size: XL",https://www.indiamart.com/proddetail/adults-pull-ups-adult-diapers-in-hyderabad-2854046940673.html?pos=175&kwd=incontinence diaper&tags=||||8786.56|Price|product|||TS|rsf:gd-|-qr_nm:gd|res:RC3|com-cf:nl|ptrs:na|ktp:N0|mc:73929|mtp:S|qry_typ:P|lang:en|wc:2|cs:7545|v=4,ADML(ADROIT MOLECULES),https://www.adroitmolecules.com/?pos=175&kwd=incontinence diaper&tags=||||8786.56|Price|product|||TS|rsf:gd-|-qr_nm:gd|res:RC3|com-cf:nl|ptrs:na|ktp:N0|mc:73929|mtp:S|qry_typ:P|lang:en|wc:2|cs:7545|v=4,False,Annaram,Hyderabad,"Plot No. 523/2 Dundigal Village , Medchal, Malkajgiri, Near Marri Laxman Reddy Engineering College, Annaram, Hyderabad - 500043, Dist.Hyderabad, Telangana",8046057643,
"Protective Underwear Adult Eco Diapers, Size: Large",https://www.indiamart.com/proddetail/adult-eco-diapers-24903020148.html?pos=176&kwd=incontinence diaper&tags=||||8588.208|Price|product|||MDC|rsf:gd-|-qr_nm:gd|res:RC3|com-cf:nl|ptrs:na|ktp:N0|mc:73929|mtp:S|qry_typ:P|lang:en|wc:2|cs:7545|v=4,Aarohi Distributors,https://www.indiamart.com/aarohidistributors/?pos=176&kwd=incontinence diaper&tags=||||8588.208|Price|product|||MDC|rsf:gd-|-qr_nm:gd|res:RC3|com-cf:nl|ptrs:na|ktp:N0|mc:73929|mtp:S|qry_typ:P|lang:en|wc:2|cs:7545|v=4,False,Borkheda,Kota,"Plot No. 14, Near Durga Mata Mandir, Bajrang Nagar, Main Road, Borkheda, Kota - 324002, Rajasthan",8048273399,
"Friends Adult Diaper, Size: XL, 10 Piece",https://www.indiamart.com/proddetail/friends-adult-diaper-25389623755.html?pos=177&kwd=incontinence diaper&tags=||||8860.933|Price|product|||MDC|rsf:gd-|-qr_nm:gd|res:RC3|com-cf:nl|ptrs:na|ktp:N0|mc:73929|mtp:S|qry_typ:P|lang:en|wc:2|cs:7545|v=4,Empire Trading Company,https://www.indiamart.com/empiretradingcompany/?pos=177&kwd=incontinence diaper&tags=||||8860.933|Price|product|||MDC|rsf:gd-|-qr_nm:gd|res:RC3|com-cf:nl|ptrs:na|ktp:N0|mc:73929|mtp:S|qry_typ:P|lang:en|wc:2|cs:7545|v=4,False,Kaulagarh,Dehradun,"541/3, Chuna Bhatta Road, Kaulagarh, Kaulagarh, Dehradun - 248001, Dist.Dehradun, Uttarakhand",8047619958,
"Protective Underwear Cotton Loose White Adult Diaper, Size: 44 Inch (length)",https://www.indiamart.com/proddetail/loose-white-adult-diaper-24117300397.html?pos=178&kwd=incontinence diaper&tags=||||9110.092|Price|product|||MDC|rsf:gd-|-qr_nm:gd|res:RC3|com-cf:nl|ptrs:na|ktp:N0|mc:73929|mtp:S|qry_typ:P|lang:en|wc:2|cs:7545|v=4,Hygiene Health Care,https://www.indiamart.com/hygiene-health-care/?pos=178&kwd=incontinence diaper&tags=||||9110.092|Price|product|||MDC|rsf:gd-|-qr_nm:gd|res:RC3|com-cf:nl|ptrs:na|ktp:N0|mc:73929|mtp:S|qry_typ:P|lang:en|wc:2|cs:7545|v=4,False,Husainabad,Lucknow,"390/29/01, Rustam Nagar Near Bagh Wali Masjid Saadat Ganj, Lucknow, Husainabad, Lucknow - 226003, Dist.Lucknow, Uttar Pradesh",7942866266,
Disposable Adult Diaper,https://www.indiamart.com/proddetail/disposable-adult-diaper-6275973497.html?pos=179&kwd=incontinence diaper&tags=||||8211.142||product|||MDC|rsf:gd-|-qr_nm:gd|res:RC3|com-cf:nl|ptrs:na|ktp:N0|mc:73929|mtp:S|qry_typ:P|lang:en|wc:2|cs:7545|v=4,Aquatherm India,https://www.indiamart.com/kosmosgraphics/?pos=179&kwd=incontinence diaper&tags=||||8211.142||product|||MDC|rsf:gd-|-qr_nm:gd|res:RC3|com-cf:nl|ptrs:na|ktp:N0|mc:73929|mtp:S|qry_typ:P|lang:en|wc:2|cs:7545|v=4,False,Girgaon,Mumbai,"No. 8, Girdhari Bhavan C. H. S., Sadashiv Cross Lane Off. Khadilkar Road, Girgaon, Girgaon, Mumbai - 400004, Dist.Mumbai, Maharashtra",8046046339,
"Adults Disposable Adult Diaper, Size: Pkt. Of 10 Piece",https://www.indiamart.com/proddetail/disposable-adult-diaper-23965596655.html?pos=180&kwd=incontinence diaper&tags=||||8741.812||product|||MDC|rsf:gd-|-qr_nm:gd|res:RC3|com-cf:nl|ptrs:na|ktp:N0|mc:73929|mtp:S|qry_typ:P|lang:en|wc:2|cs:7545|v=4,Jain Surgical & Pharma,https://www.indiamart.com/jain-surgicalpharma/?pos=180&kwd=incontinence diaper&tags=||||8741.812||product|||MDC|rsf:gd-|-qr_nm:gd|res:RC3|com-cf:nl|ptrs:na|ktp:N0|mc:73929|mtp:S|qry_typ:P|lang:en|wc:2|cs:7545|v=4,False,Basai Road,Gurgaon,"140/28, 1st Floor, Near Ashirwad Garden, Jyoti Park, Basai Road, Gurgaon - 122001, Dist.Gurgaon, Haryana",7942544076,
"Adult Diaper Pants, Size: Medium",https://www.indiamart.com/proddetail/adult-diaper-pants-2854691316573.html?pos=181&kwd=incontinence diaper&tags=||||8752.144|Price|product|||MDC|rsf:gd-|-qr_nm:gd|res:RC3|com-cf:nl|ptrs:na|ktp:N0|mc:73929|mtp:S|qry_typ:P|lang:en|wc:2|cs:7545|v=4,Yourecom,https://www.indiamart.com/yourecom/?pos=181&kwd=incontinence diaper&tags=||||8752.144|Price|product|||MDC|rsf:gd-|-qr_nm:gd|res:RC3|com-cf:nl|ptrs:na|ktp:N0|mc:73929|mtp:S|qry_typ:P|lang:en|wc:2|cs:7545|v=4,False,,New Delhi,"27 Block R3/B, Rathour Bhawan, Sanatan Shiv Mandir Gali, Bliss Institute, Mohan Garden West Delhi, New Delhi - 110059, Dist.Delhi, Delhi",7949341870,
"Bella Seni Adult Diaper, Small",https://www.indiamart.com/proddetail/bella-seni-adult-diaper-2854147374712.html?pos=182&kwd=incontinence diaper&tags=||||8788.382|Price|product|||MDC|rsf:gd-|-qr_nm:gd|res:RC3|com-cf:nl|ptrs:na|ktp:N0|mc:73929|mtp:S|qry_typ:P|lang:en|wc:2|cs:7545|v=4,Health4u,https://www.indiamart.com/health4u-greaternoida/?pos=182&kwd=incontinence diaper&tags=||||8788.382|Price|product|||MDC|rsf:gd-|-qr_nm:gd|res:RC3|com-cf:nl|ptrs:na|ktp:N0|mc:73929|mtp:S|qry_typ:P|lang:en|wc:2|cs:7545|v=4,False,,Greater Noida,"Shop No-5, H No-3, Pandat Complex, Ram Shyam Enclave, Chipiyana Buzurg,, Greater Noida - 201306, Dist.Gautam Budh Nagar, Uttar Pradesh",8045731446,
Disposable Adult Diaper,https://www.indiamart.com/proddetail/disposable-adult-diaper-2855065961891.html?pos=183&kwd=incontinence diaper&tags=||||10166.867||product|||MDC|rsf:gd-|-qr_nm:gd|res:RC3|com-cf:nl|ptrs:na|ktp:N0|mc:73929|mtp:S|qry_typ:P|lang:en|wc:2|cs:7545|v=4,Lifeline Surgicals,https://www.indiamart.com/lifeline-surgicals-kamrup/?pos=183&kwd=incontinence diaper&tags=||||10166.867||product|||MDC|rsf:gd-|-qr_nm:gd|res:RC3|com-cf:nl|ptrs:na|ktp:N0|mc:73929|mtp:S|qry_typ:P|lang:en|wc:2|cs:7545|v=4,False,Pan Bazaar,Kamrup,"Sri Karuna Kar Sarma, Opp. Hotel Mayflower, KC Road, Panbazar, Metropolitan, Pan Bazaar, Kamrup - 781001, Dist.Kamrup, Assam",7942966187,
Comfrey Adult Diaper (Pack of 10),https://www.indiamart.com/proddetail/comfrey-adult-diaper-17874738455.html?pos=184&kwd=incontinence diaper&tags=||||8752.144|Price|product|||MDC|rsf:gd-|-qr_nm:gd|res:RC3|com-cf:nl|ptrs:na|ktp:N0|mc:73929|mtp:S|qry_typ:P|lang:en|wc:2|cs:7545|v=4,Preet Surgical Co.,https://www.indiamart.com/preetsurgicalco/?pos=184&kwd=incontinence diaper&tags=||||8752.144|Price|product|||MDC|rsf:gd-|-qr_nm:gd|res:RC3|com-cf:nl|ptrs:na|ktp:N0|mc:73929|mtp:S|qry_typ:P|lang:en|wc:2|cs:7545|v=4,False,Chandni Chowk,New Delhi,"1975/76, Shop No. 106, 1st Floor, Narain Bazar, Bhagirath Palace, Chandni Chowk, New Delhi - 110006, Dist.Delhi, Delhi",8048963374,
Pants AVM Diapers Adult Pant type,https://www.indiamart.com/proddetail/avm-diapers-adult-pant-type-2850616906933.html?pos=185&kwd=incontinence diaper&tags=||||8954.051|Price|product|||MDC|rsf:gd-|-qr_nm:gd|res:RC3|com-cf:nl|ptrs:na|ktp:N0|mc:73929|mtp:S|qry_typ:P|lang:en|wc:2|cs:7545|v=4,Happy Surgicals,https://www.indiamart.com/happysurgicals/?pos=185&kwd=incontinence diaper&tags=||||8954.051|Price|product|||MDC|rsf:gd-|-qr_nm:gd|res:RC3|com-cf:nl|ptrs:na|ktp:N0|mc:73929|mtp:S|qry_typ:P|lang:en|wc:2|cs:7545|v=4,False,Porur,Chennai,"8/13 Thirumurugun Nagar 1st Cross Street Arcot Road Porur, Porur, Chennai - 600116, Dist.Chennai, Tamil Nadu",8045908069,
"Adult Diaper Pants, Size: Large",https://www.indiamart.com/proddetail/adult-diaper-pant-2855098426755.html?pos=186&kwd=incontinence diaper&tags=||||8785.791||product|||MDC|rsf:gd-|-qr_nm:gd|res:RC3|com-cf:nl|ptrs:na|ktp:N0|mc:73929|mtp:S|qry_typ:P|lang:en|wc:2|cs:7545|v=4,K S Enterprises,https://www.indiamart.com/ks-enterprisesghaziabad/?pos=186&kwd=incontinence diaper&tags=||||8785.791||product|||MDC|rsf:gd-|-qr_nm:gd|res:RC3|com-cf:nl|ptrs:na|ktp:N0|mc:73929|mtp:S|qry_typ:P|lang:en|wc:2|cs:7545|v=4,False,,Ghaziabad,"Near P.W.D. Guest House, 194, G.T. Road, Bonjha, Ghaziabad - 201001, Dist.Ghaziabad, Uttar Pradesh",7949311608,
"60 + Yrs Pull Ups CIR Adult Diaper Pants, Size: Medium",https://www.indiamart.com/proddetail/cir-adult-diaper-pants-2852702889255.html?pos=187&kwd=incontinence diaper&tags=||||8663.873|Price|product|||MDC|rsf:gd-|-qr_nm:gd|res:RC3|com-cf:nl|ptrs:na|ktp:N0|mc:73929|mtp:S|qry_typ:P|lang:en|wc:2|cs:7545|v=4,Asterales Lifesciences Private Limited,https://www.indiamart.com/asterales-lifesciences/?pos=187&kwd=incontinence diaper&tags=||||8663.873|Price|product|||MDC|rsf:gd-|-qr_nm:gd|res:RC3|com-cf:nl|ptrs:na|ktp:N0|mc:73929|mtp:S|qry_typ:P|lang:en|wc:2|cs:7545|v=4,False,J P Nagar,Bengaluru,"1st Floor No.120, Shop Number-01 9th Cross, 80 Feet Road J P Nagar 1st Phase, J P Nagar, Bengaluru - 560078, Dist.Bengaluru, Karnataka",7942716348,
"Protective Underwear FRIENDS EASY ADULT DIAPERS, Size: small, 10 Pcs",https://www.indiamart.com/proddetail/friends-easy-adult-diapers-27526751491.html?pos=188&kwd=incontinence diaper&tags=||||8507.67|Price|product|||MDC|rsf:gd-|-qr_nm:gd|res:RC3|com-cf:nl|ptrs:na|ktp:N0|mc:73929|mtp:S|qry_typ:P|lang:en|wc:2|cs:7545|v=4,Roys Surgicals,https://www.indiamart.com/royssurgicals/?pos=188&kwd=incontinence diaper&tags=||||8507.67|Price|product|||MDC|rsf:gd-|-qr_nm:gd|res:RC3|com-cf:nl|ptrs:na|ktp:N0|mc:73929|mtp:S|qry_typ:P|lang:en|wc:2|cs:7545|v=4,False,Thrippunithura,Ernakulam,"11/ 305A, Thekkinethu, Sea Port Airport Road Irimpanam, Thrippunithura, Ernakulam - 682309, Dist.Ernakulam, Kerala",8047630278,
Imported Adult Diaper Pants,https://www.indiamart.com/proddetail/imported-adult-diaper-pants-2854586188633.html?pos=189&kwd=incontinence diaper&tags=||||9110.092|Price|product|||MDC|rsf:gd-|-qr_nm:gd|res:RC3|com-cf:nl|ptrs:na|ktp:N0|mc:73929|mtp:S|qry_typ:P|lang:en|wc:2|cs:7545|v=4,Asian Hygiene,https://www.indiamart.com/asian-hygiene/?pos=189&kwd=incontinence diaper&tags=||||9110.092|Price|product|||MDC|rsf:gd-|-qr_nm:gd|res:RC3|com-cf:nl|ptrs:na|ktp:N0|mc:73929|mtp:S|qry_typ:P|lang:en|wc:2|cs:7545|v=4,False,,Lucknow,"Shop No. 134, Kanpur Road, Transport Nagar,, Lucknow - 226012, Dist.Lucknow, Uttar Pradesh",7949330533,
"White Disposable Adult Diaper, Medium",https://www.indiamart.com/proddetail/white-disposable-adult-diaper-2854423025162.html?pos=190&kwd=incontinence diaper&tags=||||8223.226|Price|product|||MDC|rsf:gd-|-qr_nm:gd|res:RC3|com-cf:nl|ptrs:na|ktp:N0|mc:73929|mtp:S|qry_typ:P|lang:en|wc:2|cs:7545|v=4,DS Healthtech,https://www.indiamart.com/dshealthtech/?pos=190&kwd=incontinence diaper&tags=||||8223.226|Price|product|||MDC|rsf:gd-|-qr_nm:gd|res:RC3|com-cf:nl|ptrs:na|ktp:N0|mc:73929|mtp:S|qry_typ:P|lang:en|wc:2|cs:7545|v=4,False,,Thane,"Ground Floor, Shop No K 1, Beaumont Puranik City Phase 3, G B Road Mogharpada Kavesar, Kasarvadavali, Thane - 400615, Dist.Thane, Maharashtra",7949326621,
Briefs Feel Easy Adult Diaper,https://www.indiamart.com/proddetail/feel-easy-adult-diaper-26605067562.html?pos=191&kwd=incontinence diaper&tags=||||8954.051||product|||MDC|rsf:gd-|-qr_nm:gd|res:RC3|com-cf:nl|ptrs:na|ktp:N0|mc:73929|mtp:S|qry_typ:P|lang:en|wc:2|cs:7545|v=4,Sudar Health Kare,https://www.indiamart.com/sudarhealthkare/?pos=191&kwd=incontinence diaper&tags=||||8954.051||product|||MDC|rsf:gd-|-qr_nm:gd|res:RC3|com-cf:nl|ptrs:na|ktp:N0|mc:73929|mtp:S|qry_typ:P|lang:en|wc:2|cs:7545|v=4,False,Arumbakkam,Chennai,"Door No.34, Balaji Street, Venkatesa Perumal Nagar, Arumbakkam, Arumbakkam, Chennai - 600106, Dist.Chennai, Tamil Nadu",8043850947,
"Disposable Cotton Adult Diaper, Size: Large",https://www.indiamart.com/proddetail/disposable-cotton-adult-diaper-2853312386097.html?pos=192&kwd=incontinence diaper&tags=||||8584.299|Price|product|||MDC|rsf:gd-|-qr_nm:gd|res:RC3|com-cf:nl|ptrs:na|ktp:N0|mc:73929|mtp:S|qry_typ:P|lang:en|wc:2|cs:7545|v=4,Herbalica Pads,https://www.indiamart.com/herbalica-pads/?pos=192&kwd=incontinence diaper&tags=||||8584.299|Price|product|||MDC|rsf:gd-|-qr_nm:gd|res:RC3|com-cf:nl|ptrs:na|ktp:N0|mc:73929|mtp:S|qry_typ:P|lang:en|wc:2|cs:7545|v=4,False,Vilankurichi,Coimbatore,"27, Bankars Colony Phase II, Kongu Managar, India Post Payments Bank, Vilankurichi, Vilankurichi, Coimbatore - 641035, Dist.Coimbatore, Tamil Nadu",8044015874,
Friends Medium Adult Diaper,https://www.indiamart.com/proddetail/friends-medium-adult-diaper-2852939374173.html?pos=193&kwd=incontinence diaper&tags=||||8228.275|Price|product|||MDC|rsf:gd-|-qr_nm:gd|res:RC3|com-cf:nl|ptrs:na|ktp:N0|mc:73929|mtp:S|qry_typ:P|lang:en|wc:2|cs:7545|v=4,Capsule Pharmacy,https://www.indiamart.com/capsulepharmacy/?pos=193&kwd=incontinence diaper&tags=||||8228.275|Price|product|||MDC|rsf:gd-|-qr_nm:gd|res:RC3|com-cf:nl|ptrs:na|ktp:N0|mc:73929|mtp:S|qry_typ:P|lang:en|wc:2|cs:7545|v=4,False,Shilaj,Ahmedabad,"D-702, Silver Brook, Sardar Patel Ring Road, Shilaj,, Shilaj, Ahmedabad - 380059, Dist.Ahmedabad, Gujarat",7942968730,
Newfeel Baby Pants Diaper Extra large (XL) Pack of 26 pcs,https://www.indiamart.com/proddetail/newfeel-baby-pants-diaper-extra-large-xl-pack-of-26-pcs-2853651901562.html?pos=194&kwd=incontinence diaper&tags=||||8047.7524|Price|product|||TS|rsf:gd-|-qr_nm:gd|res:RC3|com-cf:nl|ptrs:na|ktp:N0|mc:73929|mtp:S|qry_typ:P|lang:en|wc:2|cs:7545|v=4,Proctus Lifecare LLP,https://www.indiamart.com/proctuslifecarellp-morbi/?pos=194&kwd=incontinence diaper&tags=||||8047.7524|Price|product|||TS|rsf:gd-|-qr_nm:gd|res:RC3|com-cf:nl|ptrs:na|ktp:N0|mc:73929|mtp:S|qry_typ:P|lang:en|wc:2|cs:7545|v=4,False,Bagathala,Morbi,"Survey No 350, Railway Crossing No 48, Khakhrala Bagathala Road, Plot No 3 and 4 Navlakhi Highway, Khakhrala, Morbi, Bagathala, Morbi - 363641, Dist.Rajkot, Gujarat",8048212116,
Protective Underwear Lifree Extra Large Adult Diaper,https://www.indiamart.com/proddetail/lifree-extra-large-adult-diaper-2853143522597.html?pos=195&kwd=incontinence diaper&tags=||||8741.812|Price|product|||MDC|rsf:gd-|-qr_nm:gd|res:RC3|com-cf:nl|ptrs:na|ktp:N0|mc:73929|mtp:S|qry_typ:P|lang:en|wc:2|cs:7545|v=4,Vedanta Medicos,https://www.indiamart.com/vedanta-medicos/?pos=195&kwd=incontinence diaper&tags=||||8741.812|Price|product|||MDC|rsf:gd-|-qr_nm:gd|res:RC3|com-cf:nl|ptrs:na|ktp:N0|mc:73929|mtp:S|qry_typ:P|lang:en|wc:2|cs:7545|v=4,False,Sector 9,Gurugram,"Shop No 2 Village Jharsa, Sector 9, Gurugram - 122001, Dist.Gurgaon, Haryana",7942821349,
Pull Ups Fabby XL Size Adult Diaper,https://www.indiamart.com/proddetail/fabby-xl-size-adult-diaper-2852915756848.html?pos=196&kwd=incontinence diaper&tags=||||8231.259|Price|product|||MDC|rsf:gd-|-qr_nm:gd|res:RC3|com-cf:nl|ptrs:na|ktp:N0|mc:73929|mtp:S|qry_typ:P|lang:en|wc:2|cs:7545|v=4,Zenterprises,https://www.indiamart.com/z-enterprises-bhiwandi/?pos=196&kwd=incontinence diaper&tags=||||8231.259|Price|product|||MDC|rsf:gd-|-qr_nm:gd|res:RC3|com-cf:nl|ptrs:na|ktp:N0|mc:73929|mtp:S|qry_typ:P|lang:en|wc:2|cs:7545|v=4,False,Hari Om Naka,Bhiwandi,"H No.1145/1, Nagaon-I, Bharat Compound Kalyan Road, Hari Om Naka, Bhiwandi - 421302, Maharashtra",8047665880,
Seniorcare Adult Diapers,https://www.indiamart.com/proddetail/seniorcare-adult-diapers-2854234872455.html?pos=197&kwd=incontinence diaper&tags=||||8482.091|Price|product|||MDC|rsf:gd-|-qr_nm:gd|res:RC3|com-cf:nl|ptrs:na|ktp:N0|mc:73929|mtp:S|qry_typ:P|lang:en|wc:2|cs:7545|v=4,Arihant Medicare Private Limited,https://www.indiamart.com/arihantmedicare/?pos=197&kwd=incontinence diaper&tags=||||8482.091|Price|product|||MDC|rsf:gd-|-qr_nm:gd|res:RC3|com-cf:nl|ptrs:na|ktp:N0|mc:73929|mtp:S|qry_typ:P|lang:en|wc:2|cs:7545|v=4,False,Shastri Nagar,Ajmer,"New Kayastha Colony 1/1938 Shastri Nagar Lohagal Road, Shastri Nagar, Ajmer - 305001, Dist.Ajmer, Rajasthan",8044561761,
XL Size Absorbia Pant Style Adult Diaper,https://www.indiamart.com/proddetail/xl-size-absorbia-pant-style-adult-diaper-2850677469791.html?pos=198&kwd=incontinence diaper&tags=||||8211.142|Price|product|||MDC|rsf:gd-|-qr_nm:gd|res:RC3|com-cf:nl|ptrs:na|ktp:N0|mc:73929|mtp:S|qry_typ:P|lang:en|wc:2|cs:7545|v=4,H M H Corporation,https://www.indiamart.com/hmhcorporation/?pos=198&kwd=incontinence diaper&tags=||||8211.142|Price|product|||MDC|rsf:gd-|-qr_nm:gd|res:RC3|com-cf:nl|ptrs:na|ktp:N0|mc:73929|mtp:S|qry_typ:P|lang:en|wc:2|cs:7545|v=4,False,Grant Road,Mumbai,"3B/ Plot No-3, Ground Floor, LNH Orphanage Compound, KM Munshi Marg, Babulnath Temple, Grant Road, Grant Road, Mumbai - 400007, Dist.Mumbai, Maharashtra",7942959739,
"Liberty Adult Diaper Medium, Large & XLarge Packet of 10Pcs Tape Style High Absorbency Waist",https://www.indiamart.com/proddetail/liberty-adult-diaper-medium-large-xlarge-packet-of-10pcs-tape-style-high-absorbency-waist-23773532655.html?pos=199&kwd=incontinence diaper&tags=||||8461.862|Price|product|||TS|rsf:gd-|-qr_nm:gd|res:RC3|com-cf:nl|ptrs:na|ktp:N0|mc:73929|mtp:S|qry_typ:P|lang:en|wc:2|cs:7545|v=4,1mile Healthcare,https://www.indiamart.com/onemilehealthcare/?pos=199&kwd=incontinence diaper&tags=||||8461.862|Price|product|||TS|rsf:gd-|-qr_nm:gd|res:RC3|com-cf:nl|ptrs:na|ktp:N0|mc:73929|mtp:S|qry_typ:P|lang:en|wc:2|cs:7545|v=4,False,Near Gambhir Hospital,Bhilwara,"1st Floor, Galaxy Marketing, Near Gambhir Hospital, Bhilwara - 311001, Dist.Bhilwara, Rajasthan",8048975771,
B Fit Economy Adult Diaper Pants,https://www.indiamart.com/proddetail/b-fit-economy-adult-diaper-pants-23107996433.html?pos=200&kwd=incontinence diaper&tags=||||8601.347|Price|product|||MDC|rsf:gd-|-qr_nm:gd|res:RC3|com-cf:nl|ptrs:na|ktp:N0|mc:73929|mtp:S|qry_typ:P|lang:en|wc:2|cs:7545|v=4,Sony Medicals,https://www.indiamart.com/sonymedicals-jaipur/?pos=200&kwd=incontinence diaper&tags=||||8601.347|Price|product|||MDC|rsf:gd-|-qr_nm:gd|res:RC3|com-cf:nl|ptrs:na|ktp:N0|mc:73929|mtp:S|qry_typ:P|lang:en|wc:2|cs:7545|v=4,False,Nehru Bazar,Jaipur,"First Floor, Deewan Ji Ki Nasiya, Opp S.M.S. Hospital, Nehru Bazar, Jaipur - 302001, Dist.Jaipur, Rajasthan",8046030975,
Protective Underwear Medium Size Premium Dr.C Adult Diaper,https://www.indiamart.com/proddetail/medium-size-premium-dr-c-adult-diaper-2851752278455.html?pos=201&kwd=incontinence diaper&tags=||||8954.051|Price|product|||MDC|rsf:gd-|-qr_nm:gd|res:RC3|com-cf:nl|ptrs:na|ktp:N0|mc:73929|mtp:S|qry_typ:P|lang:en|wc:2|cs:7545|v=4,Ultimate Medicare 4U,https://www.indiamart.com/ultimate-medicare-4u/?pos=201&kwd=incontinence diaper&tags=||||8954.051|Price|product|||MDC|rsf:gd-|-qr_nm:gd|res:RC3|com-cf:nl|ptrs:na|ktp:N0|mc:73929|mtp:S|qry_typ:P|lang:en|wc:2|cs:7545|v=4,False,Kottivakkam,Chennai,"4 / 610-B/Plot No.4-B, Flat No.S-3, Second Floor, Block - A, Gandhi Road, Kottivakkam, Kottivakkam, Chennai - 600041, Dist.Chennai, Tamil Nadu",7942875025,
Millenium Baby Care Elduro Adult Diaper,https://www.indiamart.com/proddetail/millenium-baby-care-elduro-adult-diaper-27479225397.html?pos=202&kwd=incontinence diaper&tags=||||9140.514|Price|product|||MDC|rsf:gd-|-qr_nm:gd|res:RC3|com-cf:nl|ptrs:na|ktp:N0|mc:73929|mtp:S|qry_typ:P|lang:en|wc:2|cs:7545|v=4,Stuti Medical Agency,https://www.indiamart.com/stuti-medical-agencyraipur/?pos=202&kwd=incontinence diaper&tags=||||9140.514|Price|product|||MDC|rsf:gd-|-qr_nm:gd|res:RC3|com-cf:nl|ptrs:na|ktp:N0|mc:73929|mtp:S|qry_typ:P|lang:en|wc:2|cs:7545|v=4,False,Chowk,Raipur,"Shop No-33, Farishta Complex, Rajbandha Maidan,, Chowk, Raipur - 492001, Chhattisgarh",7942671922,
Dignity Adult Diapers,https://www.indiamart.com/proddetail/dignity-adult-diapers-13479375897.html?pos=203&kwd=incontinence diaper&tags=||||8752.144|Price|product|||TS|rsf:gd-|-qr_nm:gd|res:RC3|com-cf:nl|ptrs:na|ktp:N0|mc:73929|mtp:S|qry_typ:P|lang:en|wc:2|cs:7545|v=4,Vagmine Healthcare,https://www.indiamart.com/vagmine-healthcare/?pos=203&kwd=incontinence diaper&tags=||||8752.144|Price|product|||TS|rsf:gd-|-qr_nm:gd|res:RC3|com-cf:nl|ptrs:na|ktp:N0|mc:73929|mtp:S|qry_typ:P|lang:en|wc:2|cs:7545|v=4,False,Vivek Vihar,New Delhi,"5/4 B,Damodar, Park Dilshad, Garden Shahdara,, Vivek Vihar, New Delhi - 110095, Dist.Delhi, Delhi",8048614274,
"Plain Dignity Premium Adult Pull Up Diapers, Packaging Size: XL",https://www.indiamart.com/proddetail/dignity-premium-adult-pull-up-diapers-2853472293497.html?pos=204&kwd=incontinence diaper&tags=||||9110.092|Price|product|||TS|rsf:gd-|-qr_nm:gd|res:RC3|com-cf:nl|ptrs:na|ktp:N0|mc:73929|mtp:S|qry_typ:P|lang:en|wc:2|cs:7545|v=4,M R Associates,https://www.indiamart.com/mrassociateslucknow/?pos=204&kwd=incontinence diaper&tags=||||9110.092|Price|product|||TS|rsf:gd-|-qr_nm:gd|res:RC3|com-cf:nl|ptrs:na|ktp:N0|mc:73929|mtp:S|qry_typ:P|lang:en|wc:2|cs:7545|v=4,False,Transport Nagar,Lucknow,"G-1/198 Phase-II Transport Nagar, Kanpur Road, Transport Nagar, Lucknow - 226023, Dist.Lucknow, Uttar Pradesh",7949090964,
Briefs Comfrey Adult Diapers,https://www.indiamart.com/proddetail/comfrey-adult-diapers-24328043633.html?pos=205&kwd=incontinence diaper&tags=||||9839.57|Price|product|||TS|rsf:gd-|-qr_nm:gd|res:RC3|com-cf:nl|ptrs:na|ktp:N0|mc:73929|mtp:S|qry_typ:P|lang:en|wc:2|cs:7545|v=4,Siddh Surgical,https://www.indiamart.com/siddh-surgical/?pos=205&kwd=incontinence diaper&tags=||||9839.57|Price|product|||TS|rsf:gd-|-qr_nm:gd|res:RC3|com-cf:nl|ptrs:na|ktp:N0|mc:73929|mtp:S|qry_typ:P|lang:en|wc:2|cs:7545|v=4,False,Barabazar Market,Kolkata,"19A, Ground Floor Rammohan Dutt Road,Ground floor, Barabazar Market, Kolkata - 700020, Dist.Kolkata, West Bengal",7942544961,
Disposable Adult Underpads,https://www.indiamart.com/proddetail/disposable-adult-underpads-2853455738188.html?pos=206&kwd=incontinence diaper&tags=||||8230.883|Price|product|||TS|rsf:gd-|-qr_nm:gd|res:RC3|com-cf:nl|ptrs:na|ktp:N0|mc:73929|mtp:S|qry_typ:P|lang:en|wc:2|cs:7545|v=4,Cruzine Healthcare Private Limited,https://www.indiamart.com/cruzine-healthcare/?pos=206&kwd=incontinence diaper&tags=||||8230.883|Price|product|||TS|rsf:gd-|-qr_nm:gd|res:RC3|com-cf:nl|ptrs:na|ktp:N0|mc:73929|mtp:S|qry_typ:P|lang:en|wc:2|cs:7545|v=4,False,Surat Textile Market,Surat,"323, Krushi Bazar (APMC Market) Ring Road, Surat Textile Market, Surat - 395002, Dist.Surat, Gujarat",7949091614,
CIR PREMIUM ADULT DIAPERS,https://www.indiamart.com/proddetail/cir-premium-adult-diapers-2854387765312.html?pos=207&kwd=incontinence diaper&tags=||||8230.883|Price|product|||TS|rsf:gd-|-qr_nm:gd|res:RC3|com-cf:nl|ptrs:na|ktp:N0|mc:73929|mtp:S|qry_typ:P|lang:en|wc:2|cs:7545|v=4,United Medicare,https://www.unitedmedicare.in/?pos=207&kwd=incontinence diaper&tags=||||8230.883|Price|product|||TS|rsf:gd-|-qr_nm:gd|res:RC3|com-cf:nl|ptrs:na|ktp:N0|mc:73929|mtp:S|qry_typ:P|lang:en|wc:2|cs:7545|v=4,False,,Surat,"Shop No.23 Ramnagar Rang Avdhut Society 3, Surat - 395005, Dist.Surat, Gujarat",8045734127,
"Friends Overnight Adult Diapers, Size: Medium",https://www.indiamart.com/proddetail/friends-overnight-adult-diapers-2854468834448.html?pos=208&kwd=incontinence diaper&tags=||||8769.508|Price|product|||TS|rsf:gd-|-qr_nm:gd|res:RC3|com-cf:nl|ptrs:na|ktp:N0|mc:73929|mtp:S|qry_typ:P|lang:en|wc:2|cs:7545|v=4,Radha Krishan Traders,https://www.indiamart.com/radhakrishantraders/?pos=208&kwd=incontinence diaper&tags=||||8769.508|Price|product|||TS|rsf:gd-|-qr_nm:gd|res:RC3|com-cf:nl|ptrs:na|ktp:N0|mc:73929|mtp:S|qry_typ:P|lang:en|wc:2|cs:7545|v=4,False,,Faridabad,"HOUSE NO.3H/14,,NEAR MADAN SWEET HOUSE,NIT FARIDABAD, Faridabad - 121001, Dist.Faridabad, Haryana",7949337130,
"EZ-LIFE Unisex Adult Pull Up Adult Diapers With Leak Guard, Medium (Size: 19-42 Inches)(Pack of 2)",https://www.indiamart.com/proddetail/ez-life-unisex-adult-pull-up-adult-diapers-with-leak-guard-medium-size-19-42-inches-pack-of-2-2853691187955.html?pos=209&kwd=incontinence diaper&tags=||||8281.036|Price|product|||TS|rsf:gd-|-qr_nm:gd|res:RC3|com-cf:nl|ptrs:na|ktp:N0|mc:73929|mtp:S|qry_typ:P|lang:en|wc:2|cs:7545|v=4,Otica Meditronix Co.,https://www.oticahealthcare.com/?pos=209&kwd=incontinence diaper&tags=||||8281.036|Price|product|||TS|rsf:gd-|-qr_nm:gd|res:RC3|com-cf:nl|ptrs:na|ktp:N0|mc:73929|mtp:S|qry_typ:P|lang:en|wc:2|cs:7545|v=4,False,,Vadodara,"B-16, Satyanarayan Industrial Estate, Behind Gorwa Water Tank, Gorwa, Vadodara - 390016, Dist.Vadodara, Gujarat",8048963632,
Pull Ups Dignity Adult Diapers,https://www.indiamart.com/proddetail/dignity-adult-diapers-23677057062.html?pos=210&kwd=incontinence diaper&tags=||||8752.144|Price|product|||TS|rsf:gd-|-qr_nm:gd|res:RC3|com-cf:nl|ptrs:na|ktp:N0|mc:73929|mtp:S|qry_typ:P|lang:en|wc:2|cs:7545|v=4,AGS Techno Vision,https://www.agstechnovision.com/?pos=210&kwd=incontinence diaper&tags=||||8752.144|Price|product|||TS|rsf:gd-|-qr_nm:gd|res:RC3|com-cf:nl|ptrs:na|ktp:N0|mc:73929|mtp:S|qry_typ:P|lang:en|wc:2|cs:7545|v=4,False,DAKSHINPURI,New Delhi,"Shop No. 64 & 65, 1st & 2nd Floor, J Block, DDA Central Market, DAKSHINPURI, New Delhi - 110062, Dist.Delhi, Delhi",8048979964,
