product_title,product_link,company_name,company_link,is_verified_exporter,city_region,city,address_details,phone_number,phone_number_extension
Seni Man Pad,https://www.indiamart.com/proddetail/seni-man-pad-24303679633.html?pos=1&kwd=incontinence pads&tags=BA||||8663.873|Price|product|||TS|rsf:gd-|-qr_nm:gd|res:RC3|com-cf:nl|ptrs:na|ktp:N0|mc:30839|mtp:S|qry_typ:P|lang:en|wc:2|flavl:0|cs:8301|v=4,TZMO India South Private Limited,https://www.indiamart.com/tzmoindiasouth/?pos=1&kwd=incontinence pads&tags=BA||||8663.873|Price|product|||TS|rsf:gd-|-qr_nm:gd|res:RC3|com-cf:nl|ptrs:na|ktp:N0|mc:30839|mtp:S|qry_typ:P|lang:en|wc:2|flavl:0|cs:8301|v=4,False,New Timber Yard Layout,Bengaluru,"No.2, 1st Floor, Featherlite Building, Mysore Road, New Timber Yard Layout, New Timber Yard Layout, Bengaluru - 560026, Dist.Bengaluru, Karnataka",8048619127,
Incontinence Diaper,https://www.indiamart.com/proddetail/incontinence-diaper-16261057812.html?pos=2&kwd=incontinence pads&tags=BB||||8703.834|Price|product|||TS|rsf:gd-|-qr_nm:gd|res:RC3|com-cf:nl|ptrs:na|ktp:N0|mc:30839|mtp:S|qry_typ:P|lang:en|wc:2|flavl:0|cs:8301|v=4,Kamal Healthcare Products Private Limited,https://www.avmsuperdry.in/?pos=2&kwd=incontinence pads&tags=BB||||8703.834|Price|product|||TS|rsf:gd-|-qr_nm:gd|res:RC3|com-cf:nl|ptrs:na|ktp:N0|mc:30839|mtp:S|qry_typ:P|lang:en|wc:2|flavl:0|cs:8301|v=4,False,Ezhil Nagar,Thoothukudi,"2nd Floor, No. 180, North Cotton Road, Ezhil Nagar, Thoothukudi - 628001, Dist.Tuticorin, Tamil Nadu",8048605186,
"Adult Diaper Pants, Size: XL",https://www.indiamart.com/proddetail/adult-diaper-pants-2854909706897.html?pos=3&kwd=incontinence pads&tags=BB||||8752.144|Price|product|||MDC|rsf:gd-|-qr_nm:gd|res:RC3|com-cf:nl|ptrs:na|ktp:N0|mc:30839|mtp:S|qry_typ:P|lang:en|wc:2|flavl:0|cs:8301|v=4,Aksh Trading,https://www.indiamart.com/aksh-trading/?pos=3&kwd=incontinence pads&tags=BB||||8752.144|Price|product|||MDC|rsf:gd-|-qr_nm:gd|res:RC3|com-cf:nl|ptrs:na|ktp:N0|mc:30839|mtp:S|qry_typ:P|lang:en|wc:2|flavl:0|cs:8301|v=4,False,Vikaspuri,New Delhi,"Flat No. 13A, CGHS Evershine Apartment, Vikash Puri, North West, Vikaspuri, New Delhi - 110018, Dist.Delhi, Delhi",7942660706,
"16-100 Pull Ups Pant Style Adult Diapers, Size: Medium -large",https://www.indiamart.com/proddetail/pant-style-adult-diapers-2848956386830.html?pos=4&kwd=incontinence pads&tags=BB||||8210.732|Price|product|||TS|rsf:gd-|-qr_nm:gd|res:RC3|com-cf:nl|ptrs:na|ktp:N0|mc:30839|mtp:S|qry_typ:P|lang:en|wc:2|flavl:0|cs:8301|v=4,M S Enterprises,https://www.indiamart.com/m-senterprisesmumbai/?pos=4&kwd=incontinence pads&tags=BB||||8210.732|Price|product|||TS|rsf:gd-|-qr_nm:gd|res:RC3|com-cf:nl|ptrs:na|ktp:N0|mc:30839|mtp:S|qry_typ:P|lang:en|wc:2|flavl:0|cs:8301|v=4,False,Andheri East,Vasai,"1st Floor, Gala No 113, Rajprabha Industrial Enclave No 6, Boidapada, Vasai East Palghar, Andheri East, Vasai - 401208, Dist.Thane, Maharashtra",8048974810,
Seni Lady plus Incontinence Pad,https://www.indiamart.com/proddetail/seni-lady-plus-incontinence-pad-15208294955.html?pos=5&kwd=incontinence pads&tags=BA||||8954.051|Price|product|||TS|rsf:gd-|-qr_nm:gd|res:RC3|com-cf:nl|ptrs:na|ktp:N0|mc:30839|mtp:S|qry_typ:P|lang:en|wc:2|flavl:0|cs:8301|v=4,Immanlyn Old Age Traders,https://www.immanlyn.in/?pos=5&kwd=incontinence pads&tags=BA||||8954.051|Price|product|||TS|rsf:gd-|-qr_nm:gd|res:RC3|com-cf:nl|ptrs:na|ktp:N0|mc:30839|mtp:S|qry_typ:P|lang:en|wc:2|flavl:0|cs:8301|v=4,False,T Nagar,Chennai,"Old No 6 New No 15, Saravana Street, T Nagar, T Nagar, Chennai - 600017, Dist.Chennai, Tamil Nadu",8046053387,
18+ Protective Underwear Smilepad Adult Diapers,https://www.indiamart.com/proddetail/smilepad-adult-diapers-2852145086248.html?pos=6&kwd=incontinence pads&tags=BB||||8307.81|Price|product|||TS|rsf:gd-|-qr_nm:gd|res:RC3|com-cf:nl|ptrs:na|ktp:N0|mc:30839|mtp:S|qry_typ:P|lang:en|wc:2|flavl:0|cs:8301|v=4,SMILEPAD HYGIENE INDIA PVT. LTD.,https://www.indiamart.com/smilepadhygiene/?pos=6&kwd=incontinence pads&tags=BB||||8307.81|Price|product|||TS|rsf:gd-|-qr_nm:gd|res:RC3|com-cf:nl|ptrs:na|ktp:N0|mc:30839|mtp:S|qry_typ:P|lang:en|wc:2|flavl:0|cs:8301|v=4,False,Mohammed Wadi,Pune,"SR.NO.284/01 Bhadale Nagar Uruli Devachi, Mohammed Wadi, Pune - 411060, Dist.Pune, Maharashtra",8048601512,
"Pant & Pull Up Protective Underwear Adult Incontinence Pads In Delhi, Size: M-l-xl",https://www.indiamart.com/proddetail/adult-incontinence-pads-in-delhi-2850469867455.html?pos=7&kwd=incontinence pads&tags=BA||||8752.144|Price|product|||TS|rsf:gd-|-qr_nm:gd|res:RC3|com-cf:nl|ptrs:na|ktp:N0|mc:30839|mtp:S|qry_typ:P|lang:en|wc:2|flavl:0|cs:8301|v=4,Recherche World,https://www.rechercheworld.co.in/?pos=7&kwd=incontinence pads&tags=BA||||8752.144|Price|product|||TS|rsf:gd-|-qr_nm:gd|res:RC3|com-cf:nl|ptrs:na|ktp:N0|mc:30839|mtp:S|qry_typ:P|lang:en|wc:2|flavl:0|cs:8301|v=4,False,Pandav Nagar,New Delhi,"Near Gurudwara, Ground Floor, A-13-14, Gali No.01, Pandav Nagar, East Delhi, Pandav Nagar, New Delhi - 110092, Dist.Delhi, Delhi",8047312171,
"4U Adult Diapers (Wrap/Sticky), Size: M/L/Xl",https://www.indiamart.com/proddetail/4u-adult-diapers-wrap-sticky-25414452988.html?pos=8&kwd=incontinence pads&tags=BB||||8663.873|Price|product|||TS|rsf:gd-|-qr_nm:gd|res:RC3|com-cf:nl|ptrs:na|ktp:N0|mc:30839|mtp:S|qry_typ:P|lang:en|wc:2|flavl:0|cs:8301|v=4,Arera Healthcare & Technologies Private Limited,https://www.instorevmedo.com/?pos=8&kwd=incontinence pads&tags=BB||||8663.873|Price|product|||TS|rsf:gd-|-qr_nm:gd|res:RC3|com-cf:nl|ptrs:na|ktp:N0|mc:30839|mtp:S|qry_typ:P|lang:en|wc:2|flavl:0|cs:8301|v=4,False,J. P. Nagar,Bengaluru,"70/3, Lakshmi Complex, Near Sarakki Signal, 6th Phase, JP Nagar, J. P. Nagar, Bengaluru - 560078, Dist.Bengaluru, Karnataka",8048261759,
Adults Pant Medisorb Adult Diapers M Size,https://www.indiamart.com/proddetail/medisorb-adult-diapers-m-size-2851062040055.html?pos=9&kwd=incontinence pads&tags=BB||||8211.142|Price|product|||TS|rsf:gd-|-qr_nm:gd|res:RC3|com-cf:nl|ptrs:na|ktp:N0|mc:30839|mtp:S|qry_typ:P|lang:en|wc:2|flavl:0|cs:8301|v=4,Neha Enterprise,https://www.indiamart.com/nehaenterprisemaharashtra/?pos=9&kwd=incontinence pads&tags=BB||||8211.142|Price|product|||TS|rsf:gd-|-qr_nm:gd|res:RC3|com-cf:nl|ptrs:na|ktp:N0|mc:30839|mtp:S|qry_typ:P|lang:en|wc:2|flavl:0|cs:8301|v=4,False,Ballard Estate,Mumbai,"34/2, Dossa House, Gunbow Street, Fort, Ballard Estate, Mumbai - 400001, Dist.Mumbai, Maharashtra",8048956891,
"Above 70 Years Pull Ups Smart Care XL Adult Diaper, Size: XL-09",https://www.indiamart.com/proddetail/smart-care-xl-adult-diaper-2849550610991.html?pos=10&kwd=incontinence pads&tags=BA||||8559.269|Price|product|||TS|rsf:gd-|-qr_nm:gd|res:RC3|com-cf:nl|ptrs:na|ktp:N0|mc:30839|mtp:S|qry_typ:P|lang:en|wc:2|flavl:0|cs:8301|v=4,HZ Enterprises,https://www.indiamart.com/hz-enterprises-madhyapradesh/?pos=10&kwd=incontinence pads&tags=BA||||8559.269|Price|product|||TS|rsf:gd-|-qr_nm:gd|res:RC3|com-cf:nl|ptrs:na|ktp:N0|mc:30839|mtp:S|qry_typ:P|lang:en|wc:2|flavl:0|cs:8301|v=4,False,Sudama Nagar,Indore,"2, Manikbag Road, Sudama Nagar, Indore - 452009, Dist.Indore, Madhya Pradesh",7942791847,
"Quick Care Adult Disposable Underpad, Large",https://www.indiamart.com/proddetail/quick-care-adult-disposable-underpad-2854775040412.html?pos=11&kwd=incontinence pads&tags=BB||||8476.868||product|||MDC|rsf:gd-|-qr_nm:gd|res:RC3|com-cf:nl|ptrs:na|ktp:N0|mc:30839|mtp:S|qry_typ:P|lang:en|wc:2|flavl:0|cs:8301|v=4,Ramkrushna Pharma Distributors,https://www.indiamart.com/ramkrushna-pharma-distributors/?pos=11&kwd=incontinence pads&tags=BB||||8476.868||product|||MDC|rsf:gd-|-qr_nm:gd|res:RC3|com-cf:nl|ptrs:na|ktp:N0|mc:30839|mtp:S|qry_typ:P|lang:en|wc:2|flavl:0|cs:8301|v=4,False,,Aurangabad,"Upper Floor, Shop No 10, Global Avenue, Paithan Gate, Chhatrapati Sambhaji Nagar, Aurangabad - 431001, Maharashtra",8043861084,
Pioneer Hygiene Sales Pvt Ltd,,Pioneer Hygiene Sales Pvt Ltd,https://www.pioneerhygienesales.in/?pos=12&kwd=incontinence pads&tags=BA||||8830.388||bl|||TS|rsf:gd-|-qr_nm:gd|res:RC3|com-cf:nl|ptrs:na|ktp:N0|mc:30839|mtp:S|qry_typ:P|lang:en|wc:2|flavl:0|cs:8301|v=4,False,Lohiya Bazaar,Gwalior,"Saboo Bhawan, Naya Bazar, Lohiya Bazaar, Gwalior - 474009, Dist.Gwalior, Madhya Pradesh",8048953893,
"Friends Premium Adult Diaper Pant, Size: Large, 10",https://www.indiamart.com/proddetail/friends-premium-adult-diaper-pant-24734257391.html?pos=13&kwd=incontinence pads&tags=BB||||8223.226|Price|product|||NA|rsf:gd-|-qr_nm:gd|res:RC3|com-cf:nl|ptrs:na|ktp:N0|mc:30839|mtp:S|qry_typ:P|lang:en|wc:2|flavl:0|cs:8301|v=4,Craztal Health & Hygiene LLP,https://www.indiamart.com/craztal-health-hygiene/?pos=13&kwd=incontinence pads&tags=BB||||8223.226|Price|product|||NA|rsf:gd-|-qr_nm:gd|res:RC3|com-cf:nl|ptrs:na|ktp:N0|mc:30839|mtp:S|qry_typ:P|lang:en|wc:2|flavl:0|cs:8301|v=4,False,,Thane,"203 Devendra Industrial Estate Lokmanya Nagar, Thane - 400606, Dist.Thane, Maharashtra",8048964186,
"70+ Pull Up Friends Adult Diapers, Size: Large, 10 Pieces",https://www.indiamart.com/proddetail/friends-adult-diapers-26767969173.html?pos=14&kwd=incontinence pads&tags=BB||||8584.299||product|||NA|rsf:gd-|-qr_nm:gd|res:RC3|com-cf:nl|ptrs:na|ktp:N0|mc:30839|mtp:S|qry_typ:P|lang:en|wc:2|flavl:0|cs:8301|v=4,Med Partner,https://www.indiamart.com/med-partner/?pos=14&kwd=incontinence pads&tags=BB||||8584.299||product|||NA|rsf:gd-|-qr_nm:gd|res:RC3|com-cf:nl|ptrs:na|ktp:N0|mc:30839|mtp:S|qry_typ:P|lang:en|wc:2|flavl:0|cs:8301|v=4,False,Ctc Staff Quarters,Coimbatore,"No.163/B1, Venkatachalam Road West, R.S.Puram, Ctc Staff Quarters, Coimbatore - 641002, Dist.Coimbatore, Tamil Nadu",8048211772,
"Plain Disposable Adult Pull Up Diaper (pack of 20), Packaging Size: Large",https://www.indiamart.com/proddetail/disposable-adult-pull-up-diaper-pack-of-20-2853875243048.html?pos=15&kwd=incontinence pads&tags=CC||||8211.142|Price|product|||TS|rsf:gd-|-qr_nm:gd|res:RC3|com-cf:nl|ptrs:na|ktp:N0|mc:30839|mtp:S|qry_typ:P|lang:en|wc:2|cs:7538|v=4,I Touch Surgical,https://www.itouchsurgical.co.in/?pos=15&kwd=incontinence pads&tags=CC||||8211.142|Price|product|||TS|rsf:gd-|-qr_nm:gd|res:RC3|com-cf:nl|ptrs:na|ktp:N0|mc:30839|mtp:S|qry_typ:P|lang:en|wc:2|cs:7538|v=4,False,Goregaon,Mumbai,"4, Ekta Suprabhat, Siddharth Nagar, Goregaon West, Goregaon, Mumbai - 400104, Dist.Mumbai, Maharashtra",8048962190,
Total Care Adult Diaper,https://www.indiamart.com/proddetail/total-care-adult-diaper-20413445297.html?pos=16&kwd=incontinence pads&tags=CC||||8211.142|Price|product|||TS|rsf:gd-|-qr_nm:gd|res:RC3|com-cf:nl|ptrs:na|ktp:N0|mc:30839|mtp:S|qry_typ:P|lang:en|wc:2|cs:7538|v=4,Shah Trading Corporation,https://www.indiamart.com/shahtrading-corp/?pos=16&kwd=incontinence pads&tags=CC||||8211.142|Price|product|||TS|rsf:gd-|-qr_nm:gd|res:RC3|com-cf:nl|ptrs:na|ktp:N0|mc:30839|mtp:S|qry_typ:P|lang:en|wc:2|cs:7538|v=4,False,Kalbadevi,Mumbai,"Room No. 35, 2nd Floor, Shri Krishna Niwas 500, Kalbadevi Road, New Silk Bazar, Kalbadevi, Mumbai - 400002, Dist.Mumbai, Maharashtra",8046042417,
Sticking Adult Diaper W2D Extra Large XL-10pc,https://www.indiamart.com/proddetail/adult-diaper-w2d-extra-large-xl-10pc-2851613577373.html?pos=17&kwd=incontinence pads&tags=||||8211.142|Price|product|||TS|rsf:gd-|-qr_nm:gd|res:RC3|com-cf:nl|ptrs:na|ktp:N0|mc:30839|mtp:S|qry_typ:P|lang:en|wc:2|cs:7538|v=4,Maxtech Healthcare Private Limited,https://www.indiamart.com/maxtech-healthcare/?pos=17&kwd=incontinence pads&tags=||||8211.142|Price|product|||TS|rsf:gd-|-qr_nm:gd|res:RC3|com-cf:nl|ptrs:na|ktp:N0|mc:30839|mtp:S|qry_typ:P|lang:en|wc:2|cs:7538|v=4,False,Kandivali West,Mumbai,"Shop No. 10, Near Railway Station, Malad East, Pragati Shopping Center, Kandivali West, Mumbai - 400097, Dist.Mumbai, Maharashtra",8046077581,
Adult Diapers,https://www.indiamart.com/proddetail/adult-diapers-2851834532597.html?pos=18&kwd=incontinence pads&tags=||||8211.142|Price|product|||TS|rsf:gd-|-qr_nm:gd|res:RC3|com-cf:nl|ptrs:na|ktp:N0|mc:30839|mtp:S|qry_typ:P|lang:en|wc:2|cs:7538|v=4,PAC Healthcare & Surgicals,https://www.healthcaredealer.in/?pos=18&kwd=incontinence pads&tags=||||8211.142|Price|product|||TS|rsf:gd-|-qr_nm:gd|res:RC3|com-cf:nl|ptrs:na|ktp:N0|mc:30839|mtp:S|qry_typ:P|lang:en|wc:2|cs:7538|v=4,False,Borivali West,Mumbai,"5, Bill Berry Apartment, I. C. Colony, Borivali West, Mumbai - 400103, Dist.Mumbai, Maharashtra",8048960800,
FLAMINGO ADULT DIAPER XL TAPE STYLE,https://www.indiamart.com/proddetail/flamingo-adult-diaper-xl-tape-style-26244271630.html?pos=19&kwd=incontinence pads&tags=||||8752.144|Price|product|||TS|rsf:gd-|-qr_nm:gd|res:RC3|com-cf:nl|ptrs:na|ktp:N0|mc:30839|mtp:S|qry_typ:P|lang:en|wc:2|cs:7538|v=4,Garg International,https://www.indiamart.com/garginternational/?pos=19&kwd=incontinence pads&tags=||||8752.144|Price|product|||TS|rsf:gd-|-qr_nm:gd|res:RC3|com-cf:nl|ptrs:na|ktp:N0|mc:30839|mtp:S|qry_typ:P|lang:en|wc:2|cs:7538|v=4,True,MOB - 931-3833-111,New Delhi,"Plot No. 448, Patparganj Industrial Area, MOB - 931-3833-111, New Delhi - 110092, Dist.Delhi, Delhi",8046041447,
"Protective Underwear Adult Diaper Arokleen 5 Pcs (Pack) (L), Size: Large",https://www.indiamart.com/proddetail/adult-diaper-arokleen-5-pcs-pack-l-2851057365855.html?pos=20&kwd=incontinence pads&tags=||||10180.86|Price|product|||TS|rsf:gd-|-qr_nm:gd|res:RC3|com-cf:nl|ptrs:na|ktp:N0|mc:30839|mtp:S|qry_typ:P|lang:en|wc:2|cs:7538|v=4,J.N.M. Enterprise,https://www.jnmenterprise.com/?pos=20&kwd=incontinence pads&tags=||||10180.86|Price|product|||TS|rsf:gd-|-qr_nm:gd|res:RC3|com-cf:nl|ptrs:na|ktp:N0|mc:30839|mtp:S|qry_typ:P|lang:en|wc:2|cs:7538|v=4,False,Pan Bazaar,Guwahati,"1st Floor S S Road Nahar Mansion Lakhtokia, Pan Bazaar, Guwahati - 781001, Dist.Kamrup, Assam",7942827915,
Free Steps Adult Diaper Large Size,https://www.indiamart.com/proddetail/free-steps-adult-diaper-large-size-24178118997.html?pos=21&kwd=incontinence pads&tags=||||8741.812|Price|product|||TS|rsf:gd-|-qr_nm:gd|res:RC3|com-cf:nl|ptrs:na|ktp:N0|mc:30839|mtp:S|qry_typ:P|lang:en|wc:2|cs:7538|v=4,Jayshi Healthcare Private Limited,https://www.freesteps.in/?pos=21&kwd=incontinence pads&tags=||||8741.812|Price|product|||TS|rsf:gd-|-qr_nm:gd|res:RC3|com-cf:nl|ptrs:na|ktp:N0|mc:30839|mtp:S|qry_typ:P|lang:en|wc:2|cs:7538|v=4,False,,Gurugram,"Near Khasi Ram Medical, Gurugram ,HR, 413/4, Jacubpura, Gurugram, New Railway Road near Jeevan multi specialist hospital, Gurugram - 122001, Dist.Gurgaon, Haryana",8045909409,
"Briefs Disposable Adult Diaper, Size: Medium",https://www.indiamart.com/proddetail/disposable-adult-diaper-24696611548.html?pos=22&kwd=incontinence pads&tags=||||8754.115|Price|product|||TS|rsf:gd-|-qr_nm:gd|res:RC3|com-cf:nl|ptrs:na|ktp:N0|mc:30839|mtp:S|qry_typ:P|lang:en|wc:2|cs:7538|v=4,Dnr Healthcare Private Limited,https://www.indiamart.com/dnrhealthcare/?pos=22&kwd=incontinence pads&tags=||||8754.115|Price|product|||TS|rsf:gd-|-qr_nm:gd|res:RC3|com-cf:nl|ptrs:na|ktp:N0|mc:30839|mtp:S|qry_typ:P|lang:en|wc:2|cs:7538|v=4,False,Sector 8,Panchkula,"Plot No. 151 Industrial Area Phase Ii phase-2, Sector 8, Panchkula - 134109, Dist.Panchkula, Haryana",8047647074,
"Briefs Romsons Dignity Magna Adult Diaper, Size: Medium",https://www.indiamart.com/proddetail/romsons-dignity-magna-adult-diaper-24270028073.html?pos=23&kwd=incontinence pads&tags=||||8601.347|Price|product|||MDC|rsf:gd-|-qr_nm:gd|res:RC3|com-cf:nl|ptrs:na|ktp:N0|mc:30839|mtp:S|qry_typ:P|lang:en|wc:2|cs:7538|v=4,Solution India,https://www.indiamart.com/solutionindia-jaipur/?pos=23&kwd=incontinence pads&tags=||||8601.347|Price|product|||MDC|rsf:gd-|-qr_nm:gd|res:RC3|com-cf:nl|ptrs:na|ktp:N0|mc:30839|mtp:S|qry_typ:P|lang:en|wc:2|cs:7538|v=4,False,Jhotwara,Jaipur,"G-3, Block 3A, Moon Resi, Behind Shanti Niketan Vidhya Mandir, Laxmi Nagar, Jhotwara, Jaipur - 302012, Dist.Jaipur, Rajasthan",8046044590,
Regular Pull Ups Disposable Adult Diaper,https://www.indiamart.com/proddetail/disposable-adult-diaper-23535405630.html?pos=24&kwd=incontinence pads&tags=||||9301.656|Price|product|||MDC|rsf:gd-|-qr_nm:gd|res:RC3|com-cf:nl|ptrs:na|ktp:N0|mc:30839|mtp:S|qry_typ:P|lang:en|wc:2|cs:7538|v=4,Komal Drug And Surgical Agency,https://www.indiamart.com/komaldrug-surgicalagency/?pos=24&kwd=incontinence pads&tags=||||9301.656|Price|product|||MDC|rsf:gd-|-qr_nm:gd|res:RC3|com-cf:nl|ptrs:na|ktp:N0|mc:30839|mtp:S|qry_typ:P|lang:en|wc:2|cs:7538|v=4,False,Luxa,Varanasi,"D 56/7A, Meerbagh Aurangabad, Luxa, Varanasi - 221010, Dist.Varanasi, Uttar Pradesh",8046065889,
"Protective Underwear Dr C Adult Diapers, Size: Large",https://www.indiamart.com/proddetail/dr-c-adult-diapers-2849911964673.html?pos=25&kwd=incontinence pads&tags=||||8899.625|Price|product|||TS|rsf:gd-|-qr_nm:gd|res:RC3|com-cf:nl|ptrs:na|ktp:N0|mc:30839|mtp:S|qry_typ:P|lang:en|wc:2|cs:7538|v=4,Sri Goutham Surgicals,https://www.indiamart.com/sri-goutham-surgicals/?pos=25&kwd=incontinence pads&tags=||||8899.625|Price|product|||TS|rsf:gd-|-qr_nm:gd|res:RC3|com-cf:nl|ptrs:na|ktp:N0|mc:30839|mtp:S|qry_typ:P|lang:en|wc:2|cs:7538|v=4,False,Heritage Town,Pondicherry,"First Floor 156, Ambalathadayar Madam Street Kosakadi Street, Heritage Town, Pondicherry - 605001, Dist.Pondicherry, Pondicherry",7942799905,
ADULT AVM UNDER PAD 60CMX90CM (10'S PACK),https://www.indiamart.com/proddetail/adult-avm-under-pad-60cmx90cm-10-s-pack-2854600695291.html?pos=26&kwd=incontinence pads&tags=||||8954.051|Price|product|||TS|rsf:gd-|-qr_nm:gd|res:RC3|com-cf:nl|ptrs:na|ktp:N0|mc:30839|mtp:S|qry_typ:P|lang:en|wc:2|cs:7538|v=4,Shanmuga Medical And Surgical,https://www.indiamart.com/shanmuga-medical-surgical/?pos=26&kwd=incontinence pads&tags=||||8954.051|Price|product|||TS|rsf:gd-|-qr_nm:gd|res:RC3|com-cf:nl|ptrs:na|ktp:N0|mc:30839|mtp:S|qry_typ:P|lang:en|wc:2|cs:7538|v=4,False,Arumbakkam,Chennai,"Ashok Nagar, No 6a, Ashoknagar West Street, Arumbakkam, Arumbakkam, Chennai - 600106, Dist.Chennai, Tamil Nadu",8047823161,
Dyna Disposable Underpads (80gms) Premium- (60X90 cm)-10's Pack,https://www.indiamart.com/proddetail/dyna-disposable-underpads-80gms-premium-60x90-cm-10-s-pack-2854486633591.html?pos=27&kwd=incontinence pads&tags=||||8507.67|Price|product|||TS|rsf:gd-|-qr_nm:gd|res:RC3|com-cf:nl|ptrs:na|ktp:N0|mc:30839|mtp:S|qry_typ:P|lang:en|wc:2|cs:7538|v=4,Kogland Commerce Private Limited,https://www.indiamart.com/koglandcommerce/?pos=27&kwd=incontinence pads&tags=||||8507.67|Price|product|||TS|rsf:gd-|-qr_nm:gd|res:RC3|com-cf:nl|ptrs:na|ktp:N0|mc:30839|mtp:S|qry_typ:P|lang:en|wc:2|cs:7538|v=4,False,Infopark,Ernakulam,"Unit IV B, 2nd Floor, Phase I, Carnival Infopark, Infopark, Kakkand, Infopark, Ernakulam - 682030, Dist.Ernakulam, Kerala",8047306904,
Large Friends Classic Adult Underpad,https://www.indiamart.com/proddetail/large-friends-classic-adult-underpad-2850834109988.html?pos=28&kwd=incontinence pads&tags=||||8786.56|Price|product|||MDC|rsf:gd-|-qr_nm:gd|res:RC3|com-cf:nl|ptrs:na|ktp:N0|mc:30839|mtp:S|qry_typ:P|lang:en|wc:2|cs:7538|v=4,N K Corporation,https://www.indiamart.com/nkcorporation-telangana/?pos=28&kwd=incontinence pads&tags=||||8786.56|Price|product|||MDC|rsf:gd-|-qr_nm:gd|res:RC3|com-cf:nl|ptrs:na|ktp:N0|mc:30839|mtp:S|qry_typ:P|lang:en|wc:2|cs:7538|v=4,False,,Hyderabad,"14-3-239,Goshamahal,, Hyderabad - 500012, Dist.Hyderabad, Telangana",8048982215,
Disposable Adult Underpads,https://www.indiamart.com/proddetail/disposable-adult-underpads-2853455738188.html?pos=29&kwd=incontinence pads&tags=||||8230.883|Price|product|||TS|rsf:gd-|-qr_nm:gd|res:RC3|com-cf:nl|ptrs:na|ktp:N0|mc:30839|mtp:S|qry_typ:P|lang:en|wc:2|cs:7538|v=4,Cruzine Healthcare Private Limited,https://www.indiamart.com/cruzine-healthcare/?pos=29&kwd=incontinence pads&tags=||||8230.883|Price|product|||TS|rsf:gd-|-qr_nm:gd|res:RC3|com-cf:nl|ptrs:na|ktp:N0|mc:30839|mtp:S|qry_typ:P|lang:en|wc:2|cs:7538|v=4,False,Surat Textile Market,Surat,"323, Krushi Bazar (APMC Market) Ring Road, Surat Textile Market, Surat - 395002, Dist.Surat, Gujarat",7949091614,
Classic Friends Adult Underpad,https://www.indiamart.com/proddetail/classic-friends-adult-underpad-24834226797.html?pos=30&kwd=incontinence pads&tags=||||8752.144|Price|product|||MDC|rsf:gd-|-qr_nm:gd|res:RC3|com-cf:nl|ptrs:na|ktp:N0|mc:30839|mtp:S|qry_typ:P|lang:en|wc:2|cs:7538|v=4,K.N.Surgicals,https://www.indiamart.com/knsurgicals/?pos=30&kwd=incontinence pads&tags=||||8752.144|Price|product|||MDC|rsf:gd-|-qr_nm:gd|res:RC3|com-cf:nl|ptrs:na|ktp:N0|mc:30839|mtp:S|qry_typ:P|lang:en|wc:2|cs:7538|v=4,False,Shahdara,New Delhi,"1/11829, E Block, Panchsheel Garden, East Delhi, Shahdara, New Delhi - 110032, Dist.Delhi, Delhi",8047524495,
"Regular Pad Seni Lady Mini Sanitary Napkins, 10 Pads",https://www.indiamart.com/proddetail/seni-lady-mini-sanitary-napkins-2853609249073.html?pos=31&kwd=incontinence pads&tags=||||8584.299|Price|product|||MDC|rsf:gd-|-qr_nm:gd|res:RC3|com-cf:nl|ptrs:na|ktp:N0|mc:30839|mtp:S|qry_typ:P|lang:en|wc:2|cs:7538|v=4,Wellness Health Care,https://www.indiamart.com/wellnesshealthcare-tamilnadu/?pos=31&kwd=incontinence pads&tags=||||8584.299|Price|product|||MDC|rsf:gd-|-qr_nm:gd|res:RC3|com-cf:nl|ptrs:na|ktp:N0|mc:30839|mtp:S|qry_typ:P|lang:en|wc:2|cs:7538|v=4,False,Podanur,Coimbatore,"9/27, Sri Ram Nagar, 7th Street East, Podanur,, Podanur, Coimbatore - 641023, Dist.Coimbatore, Tamil Nadu",8045165099,
Protective Underwear Large Size Absorbia Pant Style Adult Diaper,https://www.indiamart.com/proddetail/large-size-absorbia-pant-style-adult-diaper-2850677250312.html?pos=32&kwd=incontinence pads&tags=||||8211.142|Price|product|||MDC|rsf:gd-|-qr_nm:gd|res:RC3|com-cf:nl|ptrs:na|ktp:N0|mc:30839|mtp:S|qry_typ:P|lang:en|wc:2|cs:7538|v=4,H M H Corporation,https://www.indiamart.com/hmhcorporation/?pos=32&kwd=incontinence pads&tags=||||8211.142|Price|product|||MDC|rsf:gd-|-qr_nm:gd|res:RC3|com-cf:nl|ptrs:na|ktp:N0|mc:30839|mtp:S|qry_typ:P|lang:en|wc:2|cs:7538|v=4,False,Grant Road,Mumbai,"3B/ Plot No-3, Ground Floor, LNH Orphanage Compound, KM Munshi Marg, Babulnath Temple, Grant Road, Grant Road, Mumbai - 400007, Dist.Mumbai, Maharashtra",7942959739,
Incontinence Pad,https://www.indiamart.com/proddetail/incontinence-pad-3662648388.html?pos=33&kwd=incontinence pads&tags=CB||||8954.051||product|||NA|rsf:gd-|-qr_nm:gd|res:RC3|com-cf:nl|ptrs:na|ktp:N0|mc:30839|mtp:S|qry_typ:P|lang:en|wc:2|cs:7538|v=4,Walnut Corporation,https://www.indiamart.com/walnutcorporation/?pos=33&kwd=incontinence pads&tags=CB||||8954.051||product|||NA|rsf:gd-|-qr_nm:gd|res:RC3|com-cf:nl|ptrs:na|ktp:N0|mc:30839|mtp:S|qry_typ:P|lang:en|wc:2|cs:7538|v=4,False,R. A. Puram,Chennai,"Old No. 43, New No. 20, Thiruvengadam Street, R. A. Puram, R. A. Puram, Chennai - 600028, Dist.Chennai, Tamil Nadu",8048371787,735
Adult Incontinence Pads,https://www.indiamart.com/proddetail/adult-incontinence-pads-2853133066673.html?pos=34&kwd=incontinence pads&tags=CC||||8211.142||product|||NA|rsf:gd-|-qr_nm:gd|res:RC3|com-cf:nl|ptrs:na|ktp:N0|mc:30839|mtp:S|qry_typ:P|lang:en|wc:2|cs:7538|v=4,Rajwell Pharma,https://www.indiamart.com/rajwell-pharma/?pos=34&kwd=incontinence pads&tags=CC||||8211.142||product|||NA|rsf:gd-|-qr_nm:gd|res:RC3|com-cf:nl|ptrs:na|ktp:N0|mc:30839|mtp:S|qry_typ:P|lang:en|wc:2|cs:7538|v=4,False,Andheri,Mumbai,"1st Floor, D-108, Crystal Plaza Premises Co Op Society Ltd, Link Road, Andheri West, Andheri, Mumbai - 400053, Dist.Mumbai, Maharashtra",7942842707,
Romsons Dignity Lady Light Incontinence Pads10 Pads/pack,https://www.indiamart.com/proddetail/romsons-dignity-lady-light-incontinence-pads10-pads-pack-2852844163188.html?pos=35&kwd=incontinence pads&tags=CC||||9582.684|Price|product|||NA|rsf:gd-|-qr_nm:gd|res:RC3|com-cf:nl|ptrs:na|ktp:N0|mc:30839|mtp:S|qry_typ:P|lang:en|wc:2|cs:7538|v=4,Cemico Enterprises,https://www.indiamart.com/cemico/?pos=35&kwd=incontinence pads&tags=CC||||9582.684|Price|product|||NA|rsf:gd-|-qr_nm:gd|res:RC3|com-cf:nl|ptrs:na|ktp:N0|mc:30839|mtp:S|qry_typ:P|lang:en|wc:2|cs:7538|v=4,False,,Gomia,"533,,Hasir Main Road,Hasir 533 Main Road Hosir,829111,, Gomia - 829111, Dist.Bokaro, Jharkhand",,
Imported Absorption Bed Pad,https://www.indiamart.com/proddetail/imported-absorption-bed-pad-22762378730.html?pos=36&kwd=incontinence pads&tags=CC||||9839.57|Price|product|||NA|rsf:gd-|-qr_nm:gd|res:RC3|com-cf:nl|ptrs:na|ktp:N0|mc:30839|mtp:S|qry_typ:P|lang:en|wc:2|cs:7538|v=4,Sambhav Healthcare Solutions Private Limited,https://www.indiamart.com/sambhavhealthcaresolutions/?pos=36&kwd=incontinence pads&tags=CC||||9839.57|Price|product|||NA|rsf:gd-|-qr_nm:gd|res:RC3|com-cf:nl|ptrs:na|ktp:N0|mc:30839|mtp:S|qry_typ:P|lang:en|wc:2|cs:7538|v=4,False,New Alipore,Kolkata,"Flat 1A, 1st Floor, No. 552, Block N, New Alipore, New Alipore, Kolkata - 700053, Dist.Kolkata, West Bengal",8047630148,
Adult Pant Incontinence Diaper,https://www.indiamart.com/proddetail/incontinence-diaper-27440832933.html?pos=37&kwd=incontinence pads&tags=CC||||8954.051|Price|product|||NA|rsf:gd-|-qr_nm:gd|res:RC3|com-cf:nl|ptrs:na|ktp:N0|mc:30839|mtp:S|qry_typ:P|lang:en|wc:2|cs:7538|v=4,JMA Enterprises,https://www.indiamart.com/jma-enterprises/?pos=37&kwd=incontinence pads&tags=CC||||8954.051|Price|product|||NA|rsf:gd-|-qr_nm:gd|res:RC3|com-cf:nl|ptrs:na|ktp:N0|mc:30839|mtp:S|qry_typ:P|lang:en|wc:2|cs:7538|v=4,False,,Chennai,"I St Floor 4/162E 5th Cross Street, Ellaiamman Kovil Street Neelankarai, Chennai - 600115, Dist.Chennai, Tamil Nadu",7942559330,
"Setter, Adult Diaper With 10% Sap , Large, Pack Of 2''S,Indian Product",https://www.indiamart.com/proddetail/setter-adult-diaper-with-10-sap-large-pack-of-2-s-indian-product-22726977212.html?pos=38&kwd=incontinence pads&tags=CC||||8503.868|Price|product|||NA|rsf:gd-|-qr_nm:gd|res:RC3|com-cf:nl|ptrs:na|ktp:N0|mc:30839|mtp:S|qry_typ:P|lang:en|wc:2|cs:7538|v=4,AS Enterprises,https://www.indiamart.com/as-enterprises-ernakulam/?pos=38&kwd=incontinence pads&tags=CC||||8503.868|Price|product|||NA|rsf:gd-|-qr_nm:gd|res:RC3|com-cf:nl|ptrs:na|ktp:N0|mc:30839|mtp:S|qry_typ:P|lang:en|wc:2|cs:7538|v=4,False,EROOR,Kochi,"33/90A -42/3151,SAMEERA, PRATHIBHA BYE LANE, PADIVATTOM,EDAPPALLY P.O 510- D/E , EROOR NORTH ,,682306,Ernakulam, EROOR, Kochi - 682024, Dist.Ernakulam, Kerala",8048361343,221
"Pelvic Floor Personal Kegel Exerciser men, Weight: 360+ Grms",https://www.indiamart.com/proddetail/kegel-exerciser-men-25869709188.html?pos=39&kwd=incontinence pads&tags=CC||||8752.144|Price|product|||NA|rsf:gd-|-qr_nm:gd|res:RC3|com-cf:nl|ptrs:na|ktp:N0|mc:30839|mtp:S|qry_typ:P|lang:en|wc:2|cs:7538|v=4,Gyra Healthcare And Wellness LLP,https://www.indiamart.com/gyra-healthcare-and-wellness-llp/?pos=39&kwd=incontinence pads&tags=CC||||8752.144|Price|product|||NA|rsf:gd-|-qr_nm:gd|res:RC3|com-cf:nl|ptrs:na|ktp:N0|mc:30839|mtp:S|qry_typ:P|lang:en|wc:2|cs:7538|v=4,False,Chitaranjan Park,New Delhi,"H-1585 Basement H-1585 Basement, Chitaranjan Park, New Delhi - 110019, Dist.Delhi, Delhi",8069051312,943
Pant Type Pull Ups Cherrin Premium Adult Diaper Pants,https://www.indiamart.com/proddetail/cherrin-premium-adult-diaper-pants-27404770462.html?pos=40&kwd=incontinence pads&tags=CC||||8230.883|Price|product|||NA|rsf:gd-|-qr_nm:gd|res:RC3|com-cf:nl|ptrs:na|ktp:N0|mc:30839|mtp:S|qry_typ:P|lang:en|wc:2|cs:7538|v=4,Cherrin Product Private Limited,https://www.indiamart.com/cherrin-product/?pos=40&kwd=incontinence pads&tags=CC||||8230.883|Price|product|||NA|rsf:gd-|-qr_nm:gd|res:RC3|com-cf:nl|ptrs:na|ktp:N0|mc:30839|mtp:S|qry_typ:P|lang:en|wc:2|cs:7538|v=4,False,Begampura,Surat,"Shop No. 2026 To 2032, 2nd Floor, Belgium Square, Ring Road, Begampura, Surat - 395002, Dist.Surat, Gujarat",8047633229,
"Tidy Adult Diaper Extra Large, XL",https://www.indiamart.com/proddetail/tidy-adult-diaper-extra-large-2854228146633.html?pos=41&kwd=incontinence pads&tags=||||8747.223|Price|proxy|||TS|rsf:gd-|-qr_nm:gd|res:RC3|com-cf:nl|ptrs:na|ktp:N0|mc:30839|mtp:S|qry_typ:P|lang:en|wc:2|cs:7538|v=4,Pioneer Hygiene Industries LLP,https://www.pioneerhygiene.co.in/?pos=41&kwd=incontinence pads&tags=||||8747.223|Price|proxy|||TS|rsf:gd-|-qr_nm:gd|res:RC3|com-cf:nl|ptrs:na|ktp:N0|mc:30839|mtp:S|qry_typ:P|lang:en|wc:2|cs:7538|v=4,True,,Sonipat,"Kila No. 95//1/1, 12/13, 19 And 22/1/1, Akbarpur Barota, Sonipat - 131103, Dist.Sonipat, Haryana",8045731181,
"Protective Underwear Real Care Adult Diaper (XL), Size: Xtra Large",https://www.indiamart.com/proddetail/real-care-adult-diaper-xl-26041338312.html?pos=42&kwd=incontinence pads&tags=||||8954.051|Price|proxy|||TS|rsf:gd-|-qr_nm:gd|res:RC3|com-cf:nl|ptrs:na|ktp:N0|mc:30839|mtp:S|qry_typ:P|lang:en|wc:2|cs:7538|v=4,Realcare Hygienic Products Private Limited,https://www.realcarefmcg.com/?pos=42&kwd=incontinence pads&tags=||||8954.051|Price|proxy|||TS|rsf:gd-|-qr_nm:gd|res:RC3|com-cf:nl|ptrs:na|ktp:N0|mc:30839|mtp:S|qry_typ:P|lang:en|wc:2|cs:7538|v=4,False,Sidco Industrial Estate,Chennai,"No 69 C, Sidco Industrial Estate, 12th Street, Ambattur, Sidco Industrial Estate, Chennai - 600098, Dist.Chennai, Tamil Nadu",8046064437,
Super Seni Adult Diapers,https://www.indiamart.com/proddetail/super-seni-adult-diapers-17926259662.html?pos=43&kwd=incontinence pads&tags=||||8706.587|Price|proxy|||TS|rsf:gd-|-qr_nm:gd|res:RC3|com-cf:nl|ptrs:na|ktp:N0|mc:30839|mtp:S|qry_typ:P|lang:en|wc:2|cs:7538|v=4,Aruna Agencies,https://www.arunaagencies.in/?pos=43&kwd=incontinence pads&tags=||||8706.587|Price|proxy|||TS|rsf:gd-|-qr_nm:gd|res:RC3|com-cf:nl|ptrs:na|ktp:N0|mc:30839|mtp:S|qry_typ:P|lang:en|wc:2|cs:7538|v=4,False,Simmakkal,Madurai,"Pooja Complex, No. 23, North Veli Street Ground Floor, Simmakkal, Simmakkal, Madurai - 625001, Dist.Madurai, Tamil Nadu",8048609760,
Incontinence Diaper,,Lavanyaenterprises,https://www.indiamart.com/lavanyaenterprises-hyderabad/?pos=44&kwd=incontinence pads&tags=||||8786.56|Price|proxy|||MDC|rsf:gd-|-qr_nm:gd|res:RC3|com-cf:nl|ptrs:na|ktp:N0|mc:30839|mtp:S|qry_typ:P|lang:en|wc:2|cs:7538|v=4,False,Fateh Nagar,Hyderabad,"10-5-72/4/3/2, vinayaka complex,pipeline road, Fateh Nagar, Hyderabad - 500018, Dist.Hyderabad, Telangana",8046032763,
Liberty Eco Underpad,https://www.indiamart.com/proddetail/liberty-eco-underpad-2851265633891.html?pos=45&kwd=incontinence pads&tags=||||8752.144|Price|product|||NA|rsf:gd-|-qr_nm:gd|res:RC3|com-cf:nl|ptrs:na|ktp:N0|mc:30839|mtp:S|qry_typ:P|lang:en|wc:2|cs:7538|v=4,Mohit Surgical,https://www.indiamart.com/mohit-surgical-delhi/?pos=45&kwd=incontinence pads&tags=||||8752.144|Price|product|||NA|rsf:gd-|-qr_nm:gd|res:RC3|com-cf:nl|ptrs:na|ktp:N0|mc:30839|mtp:S|qry_typ:P|lang:en|wc:2|cs:7538|v=4,False,,New Delhi,"Ground Floor, House No 70/A Plot No 30-33, Kh No 88/3/2, Blk-G Vijay Vihar, Village Rithala, North Delhi, New Delhi - 110085, Dist.Delhi, Delhi",8043870245,
Incontinence Adult Diaper,https://www.indiamart.com/proddetail/incontinence-adult-diaper-4276514897.html?pos=46&kwd=incontinence pads&tags=||||8954.051||product|||NA|rsf:gd-|-qr_nm:gd|res:RC3|com-cf:nl|ptrs:na|ktp:N0|mc:30839|mtp:S|qry_typ:P|lang:en|wc:2|cs:7538|v=4,Dia- Ortho Foot Care,https://www.indiamart.com/diaortho-footcare/?pos=46&kwd=incontinence pads&tags=||||8954.051||product|||NA|rsf:gd-|-qr_nm:gd|res:RC3|com-cf:nl|ptrs:na|ktp:N0|mc:30839|mtp:S|qry_typ:P|lang:en|wc:2|cs:7538|v=4,False,,Chennai,"No. 73/31, Brindavan Street, West Mambalam, Chennai - 600033, Dist.Chennai, Tamil Nadu",8069728239,848
Adult Incontinence Diaper,https://www.indiamart.com/proddetail/adult-incontinence-diaper-1704718988.html?pos=47&kwd=incontinence pads&tags=||||8663.873||product|||NA|rsf:gd-|-qr_nm:gd|res:RC3|com-cf:nl|ptrs:na|ktp:N0|mc:30839|mtp:S|qry_typ:P|lang:en|wc:2|cs:7538|v=4,Xtracare Products Private Limited,https://www.indiamart.com/xtracareproductspvt/?pos=47&kwd=incontinence pads&tags=||||8663.873||product|||NA|rsf:gd-|-qr_nm:gd|res:RC3|com-cf:nl|ptrs:na|ktp:N0|mc:30839|mtp:S|qry_typ:P|lang:en|wc:2|cs:7538|v=4,False,Koramangala,Bengaluru,"725, 6th 'B' Cross, 3rd Block Koramangala, Koramangala, Bengaluru - 560034, Dist.Bengaluru, Karnataka",8062245005,436
Women diaper Panty for Incontinence with Capacity up to 450ml (Pack of 5),https://www.indiamart.com/proddetail/women-diaper-panty-for-incontinence-with-capacity-up-to-450ml-pack-of-5-2851788722848.html?pos=48&kwd=incontinence pads&tags=||||8778.123|Price|product|||NA|rsf:gd-|-qr_nm:gd|res:RC3|com-cf:nl|ptrs:na|ktp:N0|mc:30839|mtp:S|qry_typ:P|lang:en|wc:2|cs:7538|v=4,White Square,https://www.indiamart.com/white-square-noida/?pos=48&kwd=incontinence pads&tags=||||8778.123|Price|product|||NA|rsf:gd-|-qr_nm:gd|res:RC3|com-cf:nl|ptrs:na|ktp:N0|mc:30839|mtp:S|qry_typ:P|lang:en|wc:2|cs:7538|v=4,False,Sector 62,Noida,"46, Sanchar Vihar, C58/4, Sector 62, Gautambuddha Nagar, Sector 62, Noida - 201307, Dist.Gautam Budh Nagar, Uttar Pradesh",7942871407,
Adult Diaper,https://www.indiamart.com/proddetail/adult-diaper-7290986830.html?pos=49&kwd=incontinence pads&tags=||||8507.67||product|||NA|rsf:gd-|-qr_nm:gd|res:RC3|com-cf:nl|ptrs:na|ktp:N0|mc:30839|mtp:S|qry_typ:P|lang:en|wc:2|cs:7538|v=4,Sevana Medi Needs Private Limited,https://www.indiamart.com/sevanamedineeds/?pos=49&kwd=incontinence pads&tags=||||8507.67||product|||NA|rsf:gd-|-qr_nm:gd|res:RC3|com-cf:nl|ptrs:na|ktp:N0|mc:30839|mtp:S|qry_typ:P|lang:en|wc:2|cs:7538|v=4,False,Kizhakkambalam,Ernakulam,"No: X/95B, Kizhakkambalam, Ernakulam - 683562, Dist.Ernakulam, Kerala",8047831548,
Adult Diaper Large,https://www.indiamart.com/proddetail/adult-diaper-large-6312284297.html?pos=50&kwd=incontinence pads&tags=||||8211.142||product|||NA|rsf:gd-|-qr_nm:gd|res:RC3|com-cf:nl|ptrs:na|ktp:N0|mc:30839|mtp:S|qry_typ:P|lang:en|wc:2|cs:7538|v=4,Good Living Product,https://www.indiamart.com/goodliving/?pos=50&kwd=incontinence pads&tags=||||8211.142||product|||NA|rsf:gd-|-qr_nm:gd|res:RC3|com-cf:nl|ptrs:na|ktp:N0|mc:30839|mtp:S|qry_typ:P|lang:en|wc:2|cs:7538|v=4,False,Andheri West,Mumbai,"601 602Amarnath Towe,Amarnath Towe,Versova,Andheri West No. 504 Royal Sands, 5th Floor, Behind Citi Mall, Off Link Road, Andheri West,400060,Mumbai, Andheri West, Mumbai - 400061, Dist.Mumbai, Maharashtra",8047687193,
"40 Years Pull Ups Romsons Dignity Adult Diaper, Size: Xl",https://www.indiamart.com/proddetail/romsons-dignity-adult-diaper-2851955970497.html?pos=51&kwd=incontinence pads&tags=||||8281.036|Price|product|||NA|rsf:gd-|-qr_nm:gd|res:RC3|com-cf:nl|ptrs:na|ktp:N0|mc:30839|mtp:S|qry_typ:P|lang:en|wc:2|cs:7538|v=4,Manek Surgical Co.,https://www.indiamart.com/manek-surgicalco/?pos=51&kwd=incontinence pads&tags=||||8281.036|Price|product|||NA|rsf:gd-|-qr_nm:gd|res:RC3|com-cf:nl|ptrs:na|ktp:N0|mc:30839|mtp:S|qry_typ:P|lang:en|wc:2|cs:7538|v=4,False,Mandvi,Vadodara,"Amli Falia, Opp Shiyapura Police Station, Raopura, Mandvi, Vadodara - 390001, Dist.Vadodara, Gujarat",7942874119,
"Protective Underwear Unisex B-FIT Medium Adult Diapers, Waist Size: 28 - 44 Inch, Packaging Type: Box",https://www.indiamart.com/proddetail/b-fit-medium-adult-diapers-21595391391.html?pos=52&kwd=incontinence pads&tags=||||8954.051|Price|product|||NA|rsf:gd-|-qr_nm:gd|res:RC3|com-cf:nl|ptrs:na|ktp:N0|mc:30839|mtp:S|qry_typ:P|lang:en|wc:2|cs:7538|v=4,Jomed Health Care,https://www.indiamart.com/jomed-health-care/?pos=52&kwd=incontinence pads&tags=||||8954.051|Price|product|||NA|rsf:gd-|-qr_nm:gd|res:RC3|com-cf:nl|ptrs:na|ktp:N0|mc:30839|mtp:S|qry_typ:P|lang:en|wc:2|cs:7538|v=4,False,,Chennai,"No. 3, P C-4, 3rd Block, 2nd & 3rd Floor, Sree Sakthi Plaza, Kambar Salai, Mogappair West, Chennai - 600037, Dist.Chennai, Tamil Nadu",8047664518,
Dignity Magna Adult Diapers,https://www.indiamart.com/proddetail/dignity-magna-adult-diapers-25107163173.html?pos=53&kwd=incontinence pads&tags=||||9045.955|Price|product|||NA|rsf:gd-|-qr_nm:gd|res:RC3|com-cf:nl|ptrs:na|ktp:N0|mc:30839|mtp:S|qry_typ:P|lang:en|wc:2|cs:7538|v=4,Sunita Surgical And Medical Supplier,https://www.indiamart.com/sunitasurgical-medicalsupplier/?pos=53&kwd=incontinence pads&tags=||||9045.955|Price|product|||NA|rsf:gd-|-qr_nm:gd|res:RC3|com-cf:nl|ptrs:na|ktp:N0|mc:30839|mtp:S|qry_typ:P|lang:en|wc:2|cs:7538|v=4,False,,Kanpur,"1B, Navsheel Dham, Bithoor Road, Kalyanpur Kanpur Nagar, Kanpur - 208017, Uttar Pradesh",8047303320,
"Unique And Comfortable Wetex Supreme Adult Diapers, Size: Large",https://www.indiamart.com/proddetail/wetex-supreme-adult-diapers-2849628394391.html?pos=54&kwd=incontinence pads&tags=||||8307.81|Price|product|||NA|rsf:gd-|-qr_nm:gd|res:RC3|com-cf:nl|ptrs:na|ktp:N0|mc:30839|mtp:S|qry_typ:P|lang:en|wc:2|cs:7538|v=4,Pharmeco Enterprises,https://www.indiamart.com/pharmeco-enterprises/?pos=54&kwd=incontinence pads&tags=||||8307.81|Price|product|||NA|rsf:gd-|-qr_nm:gd|res:RC3|com-cf:nl|ptrs:na|ktp:N0|mc:30839|mtp:S|qry_typ:P|lang:en|wc:2|cs:7538|v=4,False,,Pune,"MIL No. 258, Khese Ali, NR Khandave Medical, Lohgoan, Pune - 411047, Dist.Pune, Maharashtra",7942791764,
Protective Underwear Absorbia Large Adult Diaper,https://www.indiamart.com/proddetail/absorbia-large-adult-diaper-22210702255.html?pos=55&kwd=incontinence pads&tags=||||8663.873|Price|product|||NA|rsf:gd-|-qr_nm:gd|res:RC3|com-cf:nl|ptrs:na|ktp:N0|mc:30839|mtp:S|qry_typ:P|lang:en|wc:2|cs:7538|v=4,RMM Healthcare India Private Limited,https://www.indiamart.com/rmmhealthcareindia/?pos=55&kwd=incontinence pads&tags=||||8663.873|Price|product|||NA|rsf:gd-|-qr_nm:gd|res:RC3|com-cf:nl|ptrs:na|ktp:N0|mc:30839|mtp:S|qry_typ:P|lang:en|wc:2|cs:7538|v=4,False,Jayanagar,Bengaluru,"No 17, 2nd Main, Arekempanahalli, Opp to 10th Cross, Wilson Garden, Someshwara Nagar, Jayanagar, Bengaluru - 560027, Dist.Bengaluru, Karnataka",8048247098,5156
Protective Underwear Romsons Dignity Magna Adult Diaper,https://www.indiamart.com/proddetail/romsons-dignity-magna-adult-diaper-24826861812.html?pos=56&kwd=incontinence pads&tags=||||9110.092|Price|product|||NA|rsf:gd-|-qr_nm:gd|res:RC3|com-cf:nl|ptrs:na|ktp:N0|mc:30839|mtp:S|qry_typ:P|lang:en|wc:2|cs:7538|v=4,Accuremedy India,https://www.indiamart.com/accu-remedy-india/?pos=56&kwd=incontinence pads&tags=||||9110.092|Price|product|||NA|rsf:gd-|-qr_nm:gd|res:RC3|com-cf:nl|ptrs:na|ktp:N0|mc:30839|mtp:S|qry_typ:P|lang:en|wc:2|cs:7538|v=4,False,,Lucknow,"Shop No.02 Sitapur Road Bhitauli Khurd Crossing Ke Samne Near Sewa Hospital, Lucknow - 226021, Dist.Lucknow, Uttar Pradesh",7942551853,
Pure+ Adult Pant Style Diaper Medium,https://www.indiamart.com/proddetail/pure-adult-pant-style-diaper-medium-23559654873.html?pos=57&kwd=incontinence pads&tags=||||8954.051|Price|product|||NA|rsf:gd-|-qr_nm:gd|res:RC3|com-cf:nl|ptrs:na|ktp:N0|mc:30839|mtp:S|qry_typ:P|lang:en|wc:2|cs:7538|v=4,Sheleader Healthcare Products,https://www.indiamart.com/sheleaderhealthcare-products/?pos=57&kwd=incontinence pads&tags=||||8954.051|Price|product|||NA|rsf:gd-|-qr_nm:gd|res:RC3|com-cf:nl|ptrs:na|ktp:N0|mc:30839|mtp:S|qry_typ:P|lang:en|wc:2|cs:7538|v=4,False,,Chennai,"No.1693, 3rd Floor, H Block, Kathiravan Colony, 15th Street, Anna Nagar West, Chennai - 600040, Dist.Chennai, Tamil Nadu",8069023902,139
Pull Ups Liberty Premium Adult Diaper Pants Medium (10PCS),https://www.indiamart.com/proddetail/liberty-premium-adult-diaper-pants-medium-10pcs-2850527461812.html?pos=58&kwd=incontinence pads&tags=||||8228.275|Price|product|||NA|rsf:gd-|-qr_nm:gd|res:RC3|com-cf:nl|ptrs:na|ktp:N0|mc:30839|mtp:S|qry_typ:P|lang:en|wc:2|cs:7538|v=4,Aerorise International Private Limited,https://www.indiamart.com/aerorise-international-ahmedabad/?pos=58&kwd=incontinence pads&tags=||||8228.275|Price|product|||NA|rsf:gd-|-qr_nm:gd|res:RC3|com-cf:nl|ptrs:na|ktp:N0|mc:30839|mtp:S|qry_typ:P|lang:en|wc:2|cs:7538|v=4,False,,Ahmedabad,"6, B-605, Shakti Etc, New SG Road, Shri Krishna Farm Party Plot, Chandlodiya,, Ahmedabad - 382481, Dist.Ahmedabad, Gujarat",7942675917,
"Needed Large Size Adult Diapers, Size: L-10",https://www.indiamart.com/proddetail/needed-large-size-adult-diapers-23202410997.html?pos=59&kwd=incontinence pads&tags=||||9528.781|Price|product|||NA|rsf:gd-|-qr_nm:gd|res:RC3|com-cf:nl|ptrs:na|ktp:N0|mc:30839|mtp:S|qry_typ:P|lang:en|wc:2|cs:7538|v=4,Sparrow Hygiene India Private Limited,https://www.indiamart.com/sparrow-hygiene-india/?pos=59&kwd=incontinence pads&tags=||||9528.781|Price|product|||NA|rsf:gd-|-qr_nm:gd|res:RC3|com-cf:nl|ptrs:na|ktp:N0|mc:30839|mtp:S|qry_typ:P|lang:en|wc:2|cs:7538|v=4,False,,Ranchi,"Plot No-89, Dwarkapuri, Chuna Bhatta ,Chutia, Ranchi - 834001, Dist.Ranchi, Jharkhand",8046071700,
Adult Diaper,https://www.indiamart.com/proddetail/adult-diaper-7981939991.html?pos=60&kwd=incontinence pads&tags=||||8769.508||product|||NA|rsf:gd-|-qr_nm:gd|res:RC3|com-cf:nl|ptrs:na|ktp:N0|mc:30839|mtp:S|qry_typ:P|lang:en|wc:2|cs:7538|v=4,Medrent,https://www.indiamart.com/medrent/?pos=60&kwd=incontinence pads&tags=||||8769.508||product|||NA|rsf:gd-|-qr_nm:gd|res:RC3|com-cf:nl|ptrs:na|ktp:N0|mc:30839|mtp:S|qry_typ:P|lang:en|wc:2|cs:7538|v=4,False,N.I.T.,Faridabad,"No. 3C- 67 BP, Opposite ESI Medical College, N.I.T., N.I.T., Faridabad - 121002, Dist.Faridabad, Haryana",8043865829,
Romsons Dignity Magna Adults Diaper,https://www.indiamart.com/proddetail/romsons-dignity-magna-adults-diaper-2852862043973.html?pos=61&kwd=incontinence pads&tags=||||9189.305|Price|product|||NA|rsf:gd-|-qr_nm:gd|res:RC3|com-cf:nl|ptrs:na|ktp:N0|mc:30839|mtp:S|qry_typ:P|lang:en|wc:2|cs:7538|v=4,Drishti Surgical And Pharma,https://www.indiamart.com/drishti-surgical-pharma/?pos=61&kwd=incontinence pads&tags=||||9189.305|Price|product|||NA|rsf:gd-|-qr_nm:gd|res:RC3|com-cf:nl|ptrs:na|ktp:N0|mc:30839|mtp:S|qry_typ:P|lang:en|wc:2|cs:7538|v=4,False,Naini,Prayagraj,"C H-27, ADA Colony, Naini, Naini, Prayagraj - 211008, Dist.Allahabad, Uttar Pradesh",7942865557,
Classic Tape Style Pull Ups Romsons Dignity Magna Adult Diaper,https://www.indiamart.com/proddetail/romsons-dignity-magna-adult-diaper-2850364298562.html?pos=62&kwd=incontinence pads&tags=||||8226.563|Price|product|||NA|rsf:gd-|-qr_nm:gd|res:RC3|com-cf:nl|ptrs:na|ktp:N0|mc:30839|mtp:S|qry_typ:P|lang:en|wc:2|cs:7538|v=4,MGA Med+Line,https://www.indiamart.com/mga-med-line/?pos=62&kwd=incontinence pads&tags=||||8226.563|Price|product|||NA|rsf:gd-|-qr_nm:gd|res:RC3|com-cf:nl|ptrs:na|ktp:N0|mc:30839|mtp:S|qry_typ:P|lang:en|wc:2|cs:7538|v=4,False,Sanpada,Navi Mumbai,"Shop No-3, Plot No-26, Ground Floor, Galaxy CHS, Sector-1, Sanpada, Thane,, Sanpada, Navi Mumbai - 400705, Dist.Thane, Maharashtra",7942818376,
Dryfeel Adult Diapers,https://www.indiamart.com/proddetail/dryfeel-adult-diapers-19534149133.html?pos=63&kwd=incontinence pads&tags=||||8211.142|Price|product|||NA|rsf:gd-|-qr_nm:gd|res:RC3|com-cf:nl|ptrs:na|ktp:N0|mc:30839|mtp:S|qry_typ:P|lang:en|wc:2|cs:7538|v=4,Hello Health,https://www.indiamart.com/hello-health/?pos=63&kwd=incontinence pads&tags=||||8211.142|Price|product|||NA|rsf:gd-|-qr_nm:gd|res:RC3|com-cf:nl|ptrs:na|ktp:N0|mc:30839|mtp:S|qry_typ:P|lang:en|wc:2|cs:7538|v=4,False,Santacruz East,Mumbai,"Vakola Santacruz East, Near New Modern English School, Santacruz East, Mumbai - 400055, Dist.Mumbai, Maharashtra",8047665797,
Briefs XL Size Romson Dignity Adult Diapers,https://www.indiamart.com/proddetail/xl-size-romson-dignity-adult-diapers-24688363888.html?pos=64&kwd=incontinence pads&tags=||||8954.051|Price|product|||NA|rsf:gd-|-qr_nm:gd|res:RC3|com-cf:nl|ptrs:na|ktp:N0|mc:30839|mtp:S|qry_typ:P|lang:en|wc:2|cs:7538|v=4,Padam Pharmaceuticals,https://www.indiamart.com/padampharmaceuticals/?pos=64&kwd=incontinence pads&tags=||||8954.051|Price|product|||NA|rsf:gd-|-qr_nm:gd|res:RC3|com-cf:nl|ptrs:na|ktp:N0|mc:30839|mtp:S|qry_typ:P|lang:en|wc:2|cs:7538|v=4,False,,Chennai,"1 Old No.31, New No.83 Sattanan Street, Choolai, Chennai - 600112, Dist.Chennai, Tamil Nadu",8048261303,
Adults Medium Dignity Magna Adult Diapers,https://www.indiamart.com/proddetail/medium-dignity-magna-adult-diapers-25751572748.html?pos=65&kwd=incontinence pads&tags=||||8752.144|Price|product|||NA|rsf:gd-|-qr_nm:gd|res:RC3|com-cf:nl|ptrs:na|ktp:N0|mc:30839|mtp:S|qry_typ:P|lang:en|wc:2|cs:7538|v=4,Prime Hindustan Buyer,https://www.indiamart.com/primehindustanbuyer/?pos=65&kwd=incontinence pads&tags=||||8752.144|Price|product|||NA|rsf:gd-|-qr_nm:gd|res:RC3|com-cf:nl|ptrs:na|ktp:N0|mc:30839|mtp:S|qry_typ:P|lang:en|wc:2|cs:7538|v=4,False,,New Delhi,"B-155, Vinod Nagar, Mandawali Fazalpur, East Delhi, New Delhi - 110092, Dist.Delhi, Delhi",8047659176,
"Romsons Dignity Magna Adult Diaper, Size: Medium",https://www.indiamart.com/proddetail/romsons-dignity-magna-adult-diaper-23389877073.html?pos=66&kwd=incontinence pads&tags=||||8954.051|Price|product|||NA|rsf:gd-|-qr_nm:gd|res:RC3|com-cf:nl|ptrs:na|ktp:N0|mc:30839|mtp:S|qry_typ:P|lang:en|wc:2|cs:7538|v=4,Askar Mine Pharmaceuticals,https://www.indiamart.com/askarminepharmaceuticals/?pos=66&kwd=incontinence pads&tags=||||8954.051|Price|product|||NA|rsf:gd-|-qr_nm:gd|res:RC3|com-cf:nl|ptrs:na|ktp:N0|mc:30839|mtp:S|qry_typ:P|lang:en|wc:2|cs:7538|v=4,False,,Chennai,"25/12, Thukkaram Street, T Nagar, Chennai - 600017, Dist.Chennai, Tamil Nadu",8048618108,
Adult Diaper,https://www.indiamart.com/proddetail/adult-diaper-6569190348.html?pos=67&kwd=incontinence pads&tags=||||8887.277||product|||NA|rsf:gd-|-qr_nm:gd|res:RC3|com-cf:nl|ptrs:na|ktp:N0|mc:30839|mtp:S|qry_typ:P|lang:en|wc:2|cs:7538|v=4,Shiv Pharma Agency,https://www.indiamart.com/shivpharmaagency/?pos=67&kwd=incontinence pads&tags=||||8887.277||product|||NA|rsf:gd-|-qr_nm:gd|res:RC3|com-cf:nl|ptrs:na|ktp:N0|mc:30839|mtp:S|qry_typ:P|lang:en|wc:2|cs:7538|v=4,False,Pratap Nagar,Yerkheda,"PLOT NO 1,CHINTAMANI APPARTMENT, RING ROAD,PRATAP NAGAR Chintamani Apartments, Shop No. 2, On Pratap Nagar Ring Road, Pratap Nagar,440022,Nagpur, Pratap Nagar, Yerkheda - 441001, Maharashtra",8047834635,
Protective Underwear Dignity Premium Adult Diaper,https://www.indiamart.com/proddetail/dignity-premium-adult-diaper-2852103122862.html?pos=68&kwd=incontinence pads&tags=||||8752.144|Price|product|||NA|rsf:gd-|-qr_nm:gd|res:RC3|com-cf:nl|ptrs:na|ktp:N0|mc:30839|mtp:S|qry_typ:P|lang:en|wc:2|cs:7538|v=4,Basic Health Products LLP,https://www.indiamart.com/basic-healthproducts/?pos=68&kwd=incontinence pads&tags=||||8752.144|Price|product|||NA|rsf:gd-|-qr_nm:gd|res:RC3|com-cf:nl|ptrs:na|ktp:N0|mc:30839|mtp:S|qry_typ:P|lang:en|wc:2|cs:7538|v=4,False,,New Delhi,"Basement, B-23, DDA Sheds, Okhla Industrial Area, Phase - II, South East, New Delhi - 110020, Dist.Delhi, Delhi",7942703502,
Freshkins Adult Diaper,https://www.indiamart.com/proddetail/freshkins-adult-diaper-25108602355.html?pos=69&kwd=incontinence pads&tags=||||8778.123|Price|product|||NA|rsf:gd-|-qr_nm:gd|res:RC3|com-cf:nl|ptrs:na|ktp:N0|mc:30839|mtp:S|qry_typ:P|lang:en|wc:2|cs:7538|v=4,Washim Pampers,https://www.indiamart.com/washim-pampers/?pos=69&kwd=incontinence pads&tags=||||8778.123|Price|product|||NA|rsf:gd-|-qr_nm:gd|res:RC3|com-cf:nl|ptrs:na|ktp:N0|mc:30839|mtp:S|qry_typ:P|lang:en|wc:2|cs:7538|v=4,False,,Noida,"Mahalaxmi Garden, Phase-1, Ground Floor, Choudhary Charan Singh Gate, Khora Colony, Noida - 201309, Dist.Gautam Budh Nagar, Uttar Pradesh",8047300175,
Dignity Magna Adult Diapers,https://www.indiamart.com/proddetail/dignity-magna-adult-diapers-25030972173.html?pos=70&kwd=incontinence pads&tags=||||9301.656|Price|product|||NA|rsf:gd-|-qr_nm:gd|res:RC3|com-cf:nl|ptrs:na|ktp:N0|mc:30839|mtp:S|qry_typ:P|lang:en|wc:2|cs:7538|v=4,R K Enterprises,https://www.indiamart.com/rkenterprisesvaranasi/?pos=70&kwd=incontinence pads&tags=||||9301.656|Price|product|||NA|rsf:gd-|-qr_nm:gd|res:RC3|com-cf:nl|ptrs:na|ktp:N0|mc:30839|mtp:S|qry_typ:P|lang:en|wc:2|cs:7538|v=4,False,Paharia,Varanasi,"S 9/165-B, Naibasti, Pandeypur, Paharia, Varanasi - 221002, Dist.Varanasi, Uttar Pradesh",8047313505,
Incofit Premium Adult Diapers,https://www.indiamart.com/proddetail/incofit-premium-adult-diapers-12668918112.html?pos=71&kwd=incontinence pads&tags=||||8752.144|Price|product|||NA|rsf:gd-|-qr_nm:gd|res:RC3|com-cf:nl|ptrs:na|ktp:N0|mc:30839|mtp:S|qry_typ:P|lang:en|wc:2|cs:7538|v=4,Healthgenie India Private Limited,https://www.indiamart.com/healthgenieindiadelhi/?pos=71&kwd=incontinence pads&tags=||||8752.144|Price|product|||NA|rsf:gd-|-qr_nm:gd|res:RC3|com-cf:nl|ptrs:na|ktp:N0|mc:30839|mtp:S|qry_typ:P|lang:en|wc:2|cs:7538|v=4,False,,New Delhi,"B-13, Okhla Industrial Area, Phase-2, New Delhi - 110020, Dist.Delhi, Delhi",8048201399,
60 Age Briefs M Dignity Magna Adult Diaper,https://www.indiamart.com/proddetail/m-dignity-magna-adult-diaper-2852765319991.html?pos=72&kwd=incontinence pads&tags=||||8823.154|Price|product|||NA|rsf:gd-|-qr_nm:gd|res:RC3|com-cf:nl|ptrs:na|ktp:N0|mc:30839|mtp:S|qry_typ:P|lang:en|wc:2|cs:7538|v=4,P D And Sons,https://www.indiamart.com/pdsonsagra/?pos=72&kwd=incontinence pads&tags=||||8823.154|Price|product|||NA|rsf:gd-|-qr_nm:gd|res:RC3|com-cf:nl|ptrs:na|ktp:N0|mc:30839|mtp:S|qry_typ:P|lang:en|wc:2|cs:7538|v=4,False,Mantola,Agra,"17/1-A, Chili INT Road, Ghatia Azam Khan, Mantola, Agra - 282003, Dist.Agra, Uttar Pradesh",7942719954,
Kare In Adult Diaper Medium,https://www.indiamart.com/proddetail/kare-in-adult-diaper-medium-23891963388.html?pos=73&kwd=incontinence pads&tags=||||8752.144|Price|product|||NA|rsf:gd-|-qr_nm:gd|res:RC3|com-cf:nl|ptrs:na|ktp:N0|mc:30839|mtp:S|qry_typ:P|lang:en|wc:2|cs:7538|v=4,Omax Plus,https://www.indiamart.com/omax-plus/?pos=73&kwd=incontinence pads&tags=||||8752.144|Price|product|||NA|rsf:gd-|-qr_nm:gd|res:RC3|com-cf:nl|ptrs:na|ktp:N0|mc:30839|mtp:S|qry_typ:P|lang:en|wc:2|cs:7538|v=4,False,govinda puri,New Delhi,"Shed No.107,Type B,Okhla Industrial Area Phase-1,New Delhi 1666 ground floor shri Krishna mandir gali no 1,110019,New Delhi, govinda puri, New Delhi - 110020, Dist.Delhi, Delhi",8047666938,
ACE-SAP Sheet for Sanitary Napkins and Diapers,https://www.indiamart.com/proddetail/ace-sap-sheet-for-sanitary-napkins-and-diapers-2854884929048.html?pos=74&kwd=incontinence pads&tags=||||8206.45||product|||NA|rsf:gd-|-qr_nm:gd|res:RC3|com-cf:nl|ptrs:na|ktp:N0|mc:30839|mtp:S|qry_typ:P|lang:en|wc:2|cs:7538|v=4,Ace Nonwoven Pvt. Ltd.,https://www.indiamart.com/ace-nonwoven-limited/?pos=74&kwd=incontinence pads&tags=||||8206.45||product|||NA|rsf:gd-|-qr_nm:gd|res:RC3|com-cf:nl|ptrs:na|ktp:N0|mc:30839|mtp:S|qry_typ:P|lang:en|wc:2|cs:7538|v=4,False,Village Usar,Palghar,"Gut No.289 281(2) 282 P.k. Village Usar, Taluka Wada, Village Usar, Palghar - 421312, Dist.Thane, Maharashtra",8043818793,
"B Fit Adult Underpads, Large",https://www.indiamart.com/proddetail/b-fit-adult-underpads-2851307958630.html?pos=75&kwd=incontinence pads&tags=||||8528.988|Price|product|||NA|rsf:gd-|-qr_nm:gd|res:RC3|com-cf:nl|ptrs:na|ktp:N0|mc:30839|mtp:S|qry_typ:P|lang:en|wc:2|cs:7538|v=4,Good Samaritan Pharmacy And Surgicals,https://www.indiamart.com/goodsamaritanpharmacysurgicals/?pos=75&kwd=incontinence pads&tags=||||8528.988|Price|product|||NA|rsf:gd-|-qr_nm:gd|res:RC3|com-cf:nl|ptrs:na|ktp:N0|mc:30839|mtp:S|qry_typ:P|lang:en|wc:2|cs:7538|v=4,False,Perumbavoor,Perumbavoor,"Ground Floor And First Floor PMC/XIX/490B1 & A MC Road, Perumbavoor, Perumbavoor - 683542, Dist.Ernakulam, Kerala",7942844660,
Under Pads Pull Ups 90x60 cm Seni Classic Air Breathebale Adult Diaper,https://www.indiamart.com/proddetail/90x60-cm-seni-classic-air-breathebale-adult-diaper-2851611427833.html?pos=76&kwd=incontinence pads&tags=||||8774.064|Price|product|||NA|rsf:gd-|-qr_nm:gd|res:RC3|com-cf:nl|ptrs:na|ktp:N0|mc:30839|mtp:S|qry_typ:P|lang:en|wc:2|cs:7538|v=4,Sundaram Enterprises,https://www.indiamart.com/sundaram-enterprises-tiruchirapalli/?pos=76&kwd=incontinence pads&tags=||||8774.064|Price|product|||NA|rsf:gd-|-qr_nm:gd|res:RC3|com-cf:nl|ptrs:na|ktp:N0|mc:30839|mtp:S|qry_typ:P|lang:en|wc:2|cs:7538|v=4,False,Tennur,Tiruchirappalli,"Ground Floor, C39, Thillai Nagar 7th Cross Street, Tennur, Tiruchirappalli - 620018, Dist.Tiruchirappalli, Tamil Nadu",7942839794,
"Liberty Adult Eco Pants, Size: Large",https://www.indiamart.com/proddetail/liberty-adult-eco-pants-24497718488.html?pos=77&kwd=incontinence pads&tags=||||8954.051|Price|product|||NA|rsf:gd-|-qr_nm:gd|res:RC3|com-cf:nl|ptrs:na|ktp:N0|mc:30839|mtp:S|qry_typ:P|lang:en|wc:2|cs:7538|v=4,Shreyu Surgical Distributors,https://www.indiamart.com/shreyu-surgical-distributors/?pos=77&kwd=incontinence pads&tags=||||8954.051|Price|product|||NA|rsf:gd-|-qr_nm:gd|res:RC3|com-cf:nl|ptrs:na|ktp:N0|mc:30839|mtp:S|qry_typ:P|lang:en|wc:2|cs:7538|v=4,False,,Chennai,"91/3 Perambur Redhills High Road, Chennai - 600099, Dist.Chennai, Tamil Nadu",7942548802,
Incontinence pads,,Om Sai Surgical,https://www.indiamart.com/om-sai-surgical-gopalganj/?pos=78&kwd=incontinence pads&tags=CC||||9544.876||product|||NA|rsf:gd-|-qr_nm:gd|res:RC3|com-cf:nl|ptrs:na|ktp:N0|mc:30839|mtp:S|qry_typ:P|lang:en|wc:2|cs:7538|v=4,False,Hanuman Ghari,Muzaffarpur,"SHOP NO-81,JILA PARISAD MARKET, JURAN CHHAPRA,H.P.O Brahm Asthan Purani Chawk, Gopalganj, Nearby Dr D N Pandy Homeopathy,841428,Gopalganj, Hanuman Ghari, Muzaffarpur - 842001, Dist.Muzaffarpur, Bihar",8062245075,886
Incontinence,,Life Care Medical,https://www.indiamart.com/life-care-medical-bengaluru/?pos=79&kwd=incontinence pads&tags=CC||||8663.873||product|||NA|rsf:gd-|-qr_nm:gd|res:RC3|com-cf:nl|ptrs:na|ktp:N0|mc:30839|mtp:S|qry_typ:P|lang:en|wc:2|cs:7538|v=4,False,Gottigere Post Arekere,Bengaluru,"No 4991/3/301 Kembhathahalli Main Road, Gottigere Post Arekere, Bengaluru - 560083, Dist.Bengaluru, Karnataka",8048371914,739
incontinence,,Quality Medicals,https://www.indiamart.com/quality-medicals/?pos=80&kwd=incontinence pads&tags=CC||||9520.041||product|||NA|rsf:gd-|-qr_nm:gd|res:RC3|com-cf:nl|ptrs:na|ktp:N0|mc:30839|mtp:S|qry_typ:P|lang:en|wc:2|cs:7538|v=4,False,,Patna,"220 Ashok Rajpath Immam Shopping Center Patna Market, Patna - 800004, Dist.Patna, Bihar",8048249736,9300
INCONTINENCE WEAR,,WW Group UK,https://www.indiamart.com/ww-group-uk/?pos=81&kwd=incontinence pads&tags=CC||||8626.744||product|||NA|rsf:gd-|-qr_nm:gd|res:RC3|com-cf:nl|ptrs:na|ktp:N0|mc:30839|mtp:S|qry_typ:P|lang:en|wc:2|cs:7538|v=4,False,,Tiruppur,"3/256b,workshop Street,anaipudur, Thirumuruganpoondi, Tiruppur - 641654, Dist.Coimbatore, Tamil Nadu",8062245013,323
Incontinence Pants,,MAGICMOON,https://www.indiamart.com/magicmoon/?pos=82&kwd=incontinence pads&tags=CC||||8584.299|Price|product|||NA|rsf:gd-|-qr_nm:gd|res:RC3|com-cf:nl|ptrs:na|ktp:N0|mc:30839|mtp:S|qry_typ:P|lang:en|wc:2|cs:7538|v=4,False,,Coimbatore,", Coimbatore - 641655, Dist.Coimbatore, Tamil Nadu",8048370715,6318
Incontinence Pad Dignity,,SKHK Exim LLP,https://www.indiamart.com/skhk-exim-llp/?pos=83&kwd=incontinence pads&tags=CC||||8281.036||product|||NA|rsf:gd-|-qr_nm:gd|res:RC3|com-cf:nl|ptrs:na|ktp:N0|mc:30839|mtp:S|qry_typ:P|lang:en|wc:2|cs:7538|v=4,False,Fatehganj,Vadodara,"Najam House Parsi Mohalla Najam House, Fatehganj, Vadodara - 390002, Dist.Vadodara, Gujarat",7942617179,
Male Incontinence Pad,,Girija Healthcare And Surgicals,https://www.indiamart.com/girija-healthcaresurgical/?pos=84&kwd=incontinence pads&tags=CC||||8357.81|Price|product|||NA|rsf:gd-|-qr_nm:gd|res:RC3|com-cf:nl|ptrs:na|ktp:N0|mc:30839|mtp:S|qry_typ:P|lang:en|wc:2|cs:7538|v=4,False,Udupi,Udupi,"Door No.9-3-112, Sham Prasad Mukharjee Road, Guru Nithyananda Credit Coop Society, Udupi, Udupi - 576101, Dist.Udupi, Karnataka",8047831475,
Cencer Epigenetics DNA Repair,,Aurigene Discovery Technologies Ltd.,https://www.indiamart.com/aurigene-discovery-technologies-ltd-bengaluru/?pos=85&kwd=incontinence pads&tags=CC||||8663.873||product|||NA|rsf:gd-|-qr_nm:gd|res:RC3|com-cf:nl|ptrs:na|ktp:N0|mc:30839|mtp:S|qry_typ:P|lang:en|wc:2|cs:7538|v=4,False,Bengaluru,Bengaluru,"39/40 P Phase Ii Hosur Road Bangalore Kiadb Industrial Area Electronic City ELECTRONICS CITY PHASE II, Bengaluru, Bengaluru - 560100, Dist.Bengaluru, Karnataka",8069051303,816
Cotton Extra Large Adult Diaper,https://www.indiamart.com/proddetail/extra-large-adult-diaper-16523462897.html?pos=86&kwd=incontinence pads&tags=||||8663.873|Price|product|||TS|rsf:gd-|-qr_nm:gd|res:RC3|com-cf:nl|ptrs:na|ktp:N0|mc:30839|mtp:S|qry_typ:P|lang:en|wc:2|cs:7538|v=4,Rajendra Surgicals,https://www.rajendrasurgicals.com/?pos=86&kwd=incontinence pads&tags=||||8663.873|Price|product|||TS|rsf:gd-|-qr_nm:gd|res:RC3|com-cf:nl|ptrs:na|ktp:N0|mc:30839|mtp:S|qry_typ:P|lang:en|wc:2|cs:7538|v=4,False,Rajajinagar,Bengaluru,"Ground Floor, 3rd Block, No.210/38, Skanda, Dr Mallegowda Street, 50th Cross, Rajajinagar, Rajajinagar, Bengaluru - 560010, Dist.Bengaluru, Karnataka",8048961624,
40-60 Plain Ez Life Premium Adult Pull Up Diapers,https://www.indiamart.com/proddetail/ez-life-premium-adult-pull-up-diapers-2852557003933.html?pos=87&kwd=incontinence pads&tags=||||8228.275|Price|product|||TS|rsf:gd-|-qr_nm:gd|res:RC3|com-cf:nl|ptrs:na|ktp:N0|mc:30839|mtp:S|qry_typ:P|lang:en|wc:2|cs:7538|v=4,Om Enterprises,https://www.indiamart.com/omenterprisesgujrat/?pos=87&kwd=incontinence pads&tags=||||8228.275|Price|product|||TS|rsf:gd-|-qr_nm:gd|res:RC3|com-cf:nl|ptrs:na|ktp:N0|mc:30839|mtp:S|qry_typ:P|lang:en|wc:2|cs:7538|v=4,False,Maninagar,Ahmedabad,"Ground Floor, Shop No-1 ,Mani Nagar Road ,Rudra Appartment Maniyasa Society,Mani Nagar East, Maninagar, Ahmedabad - 380008, Dist.Ahmedabad, Gujarat",7942715310,
Tape Style Cotton Disposable Adult Diaper,https://www.indiamart.com/proddetail/disposable-adult-diaper-2851727162433.html?pos=88&kwd=incontinence pads&tags=||||8752.144|Price|product|||TS|rsf:gd-|-qr_nm:gd|res:RC3|com-cf:nl|ptrs:na|ktp:N0|mc:30839|mtp:S|qry_typ:P|lang:en|wc:2|cs:7538|v=4,Kt Disposables,https://www.indiamart.com/ktdisposables/?pos=88&kwd=incontinence pads&tags=||||8752.144|Price|product|||TS|rsf:gd-|-qr_nm:gd|res:RC3|com-cf:nl|ptrs:na|ktp:N0|mc:30839|mtp:S|qry_typ:P|lang:en|wc:2|cs:7538|v=4,False,Uttam Nagar,New Delhi,"Portion Of Plot No 37 , Viddya Vihar , Hastsal Industrial Area, Uttam Nagar, Uttam Nagar, New Delhi - 110059, Dist.Delhi, Delhi",8047644954,
Svaach Economy Adult Diaper Pants Large Pack of 2s,https://www.indiamart.com/proddetail/svaach-economy-adult-diaper-pants-large-pack-of-2s-2854670937462.html?pos=89&kwd=incontinence pads&tags=||||8663.873|Price|product|||MDC|rsf:gd-|-qr_nm:gd|res:RC3|com-cf:nl|ptrs:na|ktp:N0|mc:30839|mtp:S|qry_typ:P|lang:en|wc:2|cs:7538|v=4,Samutthanam Health Care LLP,https://www.indiamart.com/samutthanamhealthcare/?pos=89&kwd=incontinence pads&tags=||||8663.873|Price|product|||MDC|rsf:gd-|-qr_nm:gd|res:RC3|com-cf:nl|ptrs:na|ktp:N0|mc:30839|mtp:S|qry_typ:P|lang:en|wc:2|cs:7538|v=4,False,Banashankari,Bengaluru,"644, 1st A cross 1st Phase, Girinagara, Hosakerehalli, BSK 3rd Stage, Urban, Banashankari, Bengaluru - 560085, Dist.Bengaluru, Karnataka",7942791482,
Briefs Cotton Adult Diapers Tape Style Adicare,https://www.indiamart.com/proddetail/adult-diapers-tape-style-adicare-21548009988.html?pos=90&kwd=incontinence pads&tags=||||8228.275|Price|product|||TS|rsf:gd-|-qr_nm:gd|res:RC3|com-cf:nl|ptrs:na|ktp:N0|mc:30839|mtp:S|qry_typ:P|lang:en|wc:2|cs:7538|v=4,Zen Enterprise,https://www.zenenterprise.co.in/?pos=90&kwd=incontinence pads&tags=||||8228.275|Price|product|||TS|rsf:gd-|-qr_nm:gd|res:RC3|com-cf:nl|ptrs:na|ktp:N0|mc:30839|mtp:S|qry_typ:P|lang:en|wc:2|cs:7538|v=4,False,Thaltej,Ahmedabad,"205, Satva, Nr Padmavati Bunglows Opp Elligans Bunglows, Thaltej, Thaltej, Ahmedabad - 380054, Dist.Ahmedabad, Gujarat",8046046451,
"LIBERTY ECO PANTS M 20, Medium",https://www.indiamart.com/proddetail/liberty-eco-pants-m-20-2854691925973.html?pos=91&kwd=incontinence pads&tags=||||8211.142|Price|product|||MDC|rsf:gd-|-qr_nm:gd|res:RC3|com-cf:nl|ptrs:na|ktp:N0|mc:30839|mtp:S|qry_typ:P|lang:en|wc:2|cs:7538|v=4,S. P. Hygiene Products,https://www.indiamart.com/sphygieneproductsmumbai/?pos=91&kwd=incontinence pads&tags=||||8211.142|Price|product|||MDC|rsf:gd-|-qr_nm:gd|res:RC3|com-cf:nl|ptrs:na|ktp:N0|mc:30839|mtp:S|qry_typ:P|lang:en|wc:2|cs:7538|v=4,False,,Mumbai,"Ground Floor, Shop No.3, 46/A, Modern Mill Compound, Jagannath Bhatankar Marg, Near S T Depot Prabhadevi,, Mumbai - 400025, Dist.Mumbai, Maharashtra",7949338427,
Jiswap XL Adult Diaper,https://www.indiamart.com/proddetail/jiswap-xl-adult-diaper-24828203548.html?pos=92&kwd=incontinence pads&tags=||||8038.093|Price|product|||MDC|rsf:gd-|-qr_nm:gd|res:RC3|com-cf:nl|ptrs:na|ktp:N0|mc:30839|mtp:S|qry_typ:P|lang:en|wc:2|cs:7538|v=4,Empresa Industries,https://www.indiamart.com/empresaindustries/?pos=92&kwd=incontinence pads&tags=||||8038.093|Price|product|||MDC|rsf:gd-|-qr_nm:gd|res:RC3|com-cf:nl|ptrs:na|ktp:N0|mc:30839|mtp:S|qry_typ:P|lang:en|wc:2|cs:7538|v=4,False,,Rajkot,"Serve No.36, Plot No.4, Shade No 6, Village Vavdi, Near Om Casting, BH Krishna Park, Gondal Road,, Rajkot - 360004, Dist.Rajkot, Gujarat",8045738690,
"Easy Friends Adult Diapers, Size: Medium, 10 Pads",https://www.indiamart.com/proddetail/easy-friends-adult-diapers-21356622533.html?pos=93&kwd=incontinence pads&tags=||||8211.142|Price|product|||MDC|rsf:gd-|-qr_nm:gd|res:RC3|com-cf:nl|ptrs:na|ktp:N0|mc:30839|mtp:S|qry_typ:P|lang:en|wc:2|cs:7538|v=4,Aarav Surgical,https://www.indiamart.com/aarav-surgical/?pos=93&kwd=incontinence pads&tags=||||8211.142|Price|product|||MDC|rsf:gd-|-qr_nm:gd|res:RC3|com-cf:nl|ptrs:na|ktp:N0|mc:30839|mtp:S|qry_typ:P|lang:en|wc:2|cs:7538|v=4,False,Dahisar East,Mumbai,"Shop No. 05 A/5, Shanti Apartment, Chsl., C.S.C. Road No. 3 Near Shakti Nagar, Dahisar East, Mumbai - 400068, Dist.Mumbai, Maharashtra",8048261724,
Plain Medi Plus Pull Ups Diaper,https://www.indiamart.com/proddetail/medi-plus-pull-ups-diaper-11803930188.html?pos=94&kwd=incontinence pads&tags=||||8228.275|Price|product|||TS|rsf:gd-|-qr_nm:gd|res:RC3|com-cf:nl|ptrs:na|ktp:N0|mc:30839|mtp:S|qry_typ:P|lang:en|wc:2|cs:7538|v=4,Future Medisurgico,https://www.indiamart.com/futuremedisurgico/?pos=94&kwd=incontinence pads&tags=||||8228.275|Price|product|||TS|rsf:gd-|-qr_nm:gd|res:RC3|com-cf:nl|ptrs:na|ktp:N0|mc:30839|mtp:S|qry_typ:P|lang:en|wc:2|cs:7538|v=4,False,Ghatlodiya,Ahmedabad,"FF/18, Vishwash City 2, Near Pramukh Nagar Ghatlodiya, Ghatlodiya, Ahmedabad - 380061, Dist.Ahmedabad, Gujarat",8046057853,
Pull Ups Premium quality diaper adult,https://www.indiamart.com/proddetail/premium-quality-diaper-adult-2852377541397.html?pos=95&kwd=incontinence pads&tags=||||8663.873|Price|product|||TS|rsf:gd-|-qr_nm:gd|res:RC3|com-cf:nl|ptrs:na|ktp:N0|mc:30839|mtp:S|qry_typ:P|lang:en|wc:2|cs:7538|v=4,Wellcare Home Health Services,https://www.wellcaregroups.in/?pos=95&kwd=incontinence pads&tags=||||8663.873|Price|product|||TS|rsf:gd-|-qr_nm:gd|res:RC3|com-cf:nl|ptrs:na|ktp:N0|mc:30839|mtp:S|qry_typ:P|lang:en|wc:2|cs:7538|v=4,False,Bapujinagar,Bengaluru,"370, First Floor, Welcare, 6th Cross, 3rd Main, New Kavika Layout, Maruthinagar, Bapujinagar, Urban, Bapujinagar, Bengaluru - 560026, Dist.Bengaluru, Karnataka",7942620555,
Adult Disposable Underpad,https://www.indiamart.com/proddetail/adult-disposable-underpad-2850581674833.html?pos=96&kwd=incontinence pads&tags=||||8693.162||product|||TS|rsf:gd-|-qr_nm:gd|res:RC3|com-cf:nl|ptrs:na|ktp:N0|mc:30839|mtp:S|qry_typ:P|lang:en|wc:2|cs:7538|v=4,National Hospital Suppliers,https://www.indiamart.com/national-hospital-suppliers/?pos=96&kwd=incontinence pads&tags=||||8693.162||product|||TS|rsf:gd-|-qr_nm:gd|res:RC3|com-cf:nl|ptrs:na|ktp:N0|mc:30839|mtp:S|qry_typ:P|lang:en|wc:2|cs:7538|v=4,False,Mendonsa Colony,Dindigul,"61A, VMR Patti, Mendonsa Colony, Dindigul - 624005, Dist.Dindigul, Tamil Nadu",7942824059,
18 + Cotton CADIPER ADULT DAIPER,https://www.indiamart.com/proddetail/cadiper-adult-daiper-2854480327348.html?pos=97&kwd=incontinence pads&tags=||||8230.883|Price|product|||TS|rsf:gd-|-qr_nm:gd|res:RC3|com-cf:nl|ptrs:na|ktp:N0|mc:30839|mtp:S|qry_typ:P|lang:en|wc:2|cs:7538|v=4,United Medicare,https://www.unitedmedicare.in/?pos=97&kwd=incontinence pads&tags=||||8230.883|Price|product|||TS|rsf:gd-|-qr_nm:gd|res:RC3|com-cf:nl|ptrs:na|ktp:N0|mc:30839|mtp:S|qry_typ:P|lang:en|wc:2|cs:7538|v=4,False,,Surat,"Shop No.23 Ramnagar Rang Avdhut Society 3, Surat - 395005, Dist.Surat, Gujarat",8045734127,
Protective Underwear Caresome Adult Pants Diapers,https://www.indiamart.com/proddetail/caresome-adult-pants-diapers-2852883815273.html?pos=98&kwd=incontinence pads&tags=||||8211.142|Price|product|||TS|rsf:gd-|-qr_nm:gd|res:RC3|com-cf:nl|ptrs:na|ktp:N0|mc:30839|mtp:S|qry_typ:P|lang:en|wc:2|cs:7538|v=4,S N Surgicals,https://www.indiamart.com/snsurgicals-mumbai/?pos=98&kwd=incontinence pads&tags=||||8211.142|Price|product|||TS|rsf:gd-|-qr_nm:gd|res:RC3|com-cf:nl|ptrs:na|ktp:N0|mc:30839|mtp:S|qry_typ:P|lang:en|wc:2|cs:7538|v=4,False,Dahisar,Mumbai,"Shop No. G-16, Sai Krupa Mall, LT Road, Opp Railway Station, Dahisar West Suburban, Dahisar, Mumbai - 400068, Dist.Mumbai, Maharashtra",7942968320,
"Pull Ups Non Woven Disposable Adult Diaper, Size: Large, Waist Size: 41''-54''",https://www.indiamart.com/proddetail/disposable-adult-diaper-18748726388.html?pos=99&kwd=incontinence pads&tags=||||8307.81|Price|product|||TS|rsf:gd-|-qr_nm:gd|res:RC3|com-cf:nl|ptrs:na|ktp:N0|mc:30839|mtp:S|qry_typ:P|lang:en|wc:2|cs:7538|v=4,Namo Pharma,https://www.namopharma.net/?pos=99&kwd=incontinence pads&tags=||||8307.81|Price|product|||TS|rsf:gd-|-qr_nm:gd|res:RC3|com-cf:nl|ptrs:na|ktp:N0|mc:30839|mtp:S|qry_typ:P|lang:en|wc:2|cs:7538|v=4,False,Shukrawar Peth,Pune,"Shop No. 2, Krishna Complex Towards Sadashiv Peth, Shukrawar Peth, Pune - 411002, Dist.Pune, Maharashtra",8046030868,
"Free Pull Up Disposable Adult Diaper, free size",https://www.indiamart.com/proddetail/disposable-adult-diaper-25293719630.html?pos=100&kwd=incontinence pads&tags=||||8307.81|Price|product|||TS|rsf:gd-|-qr_nm:gd|res:RC3|com-cf:nl|ptrs:na|ktp:N0|mc:30839|mtp:S|qry_typ:P|lang:en|wc:2|cs:7538|v=4,Ujwala Pharmaceutical,https://www.indiamart.com/ujwalapharmaceuticals/?pos=100&kwd=incontinence pads&tags=||||8307.81|Price|product|||TS|rsf:gd-|-qr_nm:gd|res:RC3|com-cf:nl|ptrs:na|ktp:N0|mc:30839|mtp:S|qry_typ:P|lang:en|wc:2|cs:7538|v=4,True,,Pune,"Ground Floor, 8, Netaji Nagar Chsg Ltd, Lula Nagar Road, Wanwadi, Pune - 411040, Dist.Pune, Maharashtra",8048262407,
Velcro Briefs Incontinence Adult Diaper,https://www.indiamart.com/proddetail/incontinence-adult-diaper-2851643658112.html?pos=101&kwd=incontinence pads&tags=||||8237.554|Price|product|||MDC|rsf:gd-|-qr_nm:gd|res:RC3|com-cf:nl|ptrs:na|ktp:N0|mc:30839|mtp:S|qry_typ:P|lang:en|wc:2|cs:7538|v=4,Stoe Life Private Limited,https://www.indiamart.com/stoelife-gujarat/?pos=101&kwd=incontinence pads&tags=||||8237.554|Price|product|||MDC|rsf:gd-|-qr_nm:gd|res:RC3|com-cf:nl|ptrs:na|ktp:N0|mc:30839|mtp:S|qry_typ:P|lang:en|wc:2|cs:7538|v=4,False,Sector 6,Gandhinagar,"Unit C/5,Gujarat Garment Co-operative Industrial Estate, Airport Road,Koba, Sector 6, Gandhinagar - 382006, Gujarat",8048979339,
Liberty L 10 Adult Diaper Pants,https://www.indiamart.com/proddetail/liberty-l-10-adult-diaper-pants-2852869399048.html?pos=102&kwd=incontinence pads&tags=||||8741.812|Price|product|||MDC|rsf:gd-|-qr_nm:gd|res:RC3|com-cf:nl|ptrs:na|ktp:N0|mc:30839|mtp:S|qry_typ:P|lang:en|wc:2|cs:7538|v=4,Mahak Enterprises,https://www.indiamart.com/mahak-enterprises-gurugram/?pos=102&kwd=incontinence pads&tags=||||8741.812|Price|product|||MDC|rsf:gd-|-qr_nm:gd|res:RC3|com-cf:nl|ptrs:na|ktp:N0|mc:30839|mtp:S|qry_typ:P|lang:en|wc:2|cs:7538|v=4,False,Sector 9,Gurugram,"27, Gali number 1, Shiv Enclave Ghamroj , Mahendwara, Sector 9, Gurugram - 122102, Dist.Gurgaon, Haryana",7942967507,
"Plain Premium Adult Pull Up Diaper, Packaging Size: Large",https://www.indiamart.com/proddetail/premium-adult-pull-up-diaper-2852939338891.html?pos=103&kwd=incontinence pads&tags=||||8228.275|Price|product|||MDC|rsf:gd-|-qr_nm:gd|res:RC3|com-cf:nl|ptrs:na|ktp:N0|mc:30839|mtp:S|qry_typ:P|lang:en|wc:2|cs:7538|v=4,Capsule Pharmacy,https://www.indiamart.com/capsulepharmacy/?pos=103&kwd=incontinence pads&tags=||||8228.275|Price|product|||MDC|rsf:gd-|-qr_nm:gd|res:RC3|com-cf:nl|ptrs:na|ktp:N0|mc:30839|mtp:S|qry_typ:P|lang:en|wc:2|cs:7538|v=4,False,Shilaj,Ahmedabad,"D-702, Silver Brook, Sardar Patel Ring Road, Shilaj,, Shilaj, Ahmedabad - 380059, Dist.Ahmedabad, Gujarat",7942968730,
B Fit Economy Adult Diaper Pants,https://www.indiamart.com/proddetail/b-fit-economy-adult-diaper-pants-23107996433.html?pos=104&kwd=incontinence pads&tags=||||8601.347|Price|product|||MDC|rsf:gd-|-qr_nm:gd|res:RC3|com-cf:nl|ptrs:na|ktp:N0|mc:30839|mtp:S|qry_typ:P|lang:en|wc:2|cs:7538|v=4,Sony Medicals,https://www.indiamart.com/sonymedicals-jaipur/?pos=104&kwd=incontinence pads&tags=||||8601.347|Price|product|||MDC|rsf:gd-|-qr_nm:gd|res:RC3|com-cf:nl|ptrs:na|ktp:N0|mc:30839|mtp:S|qry_typ:P|lang:en|wc:2|cs:7538|v=4,False,Nehru Bazar,Jaipur,"First Floor, Deewan Ji Ki Nasiya, Opp S.M.S. Hospital, Nehru Bazar, Jaipur - 302001, Dist.Jaipur, Rajasthan",8046030975,
Briefs Comfrey Adult Diapers,https://www.indiamart.com/proddetail/comfrey-adult-diapers-24328043633.html?pos=105&kwd=incontinence pads&tags=||||9839.57|Price|product|||TS|rsf:gd-|-qr_nm:gd|res:RC3|com-cf:nl|ptrs:na|ktp:N0|mc:30839|mtp:S|qry_typ:P|lang:en|wc:2|cs:7538|v=4,Siddh Surgical,https://www.indiamart.com/siddh-surgical/?pos=105&kwd=incontinence pads&tags=||||9839.57|Price|product|||TS|rsf:gd-|-qr_nm:gd|res:RC3|com-cf:nl|ptrs:na|ktp:N0|mc:30839|mtp:S|qry_typ:P|lang:en|wc:2|cs:7538|v=4,False,Barabazar Market,Kolkata,"19A, Ground Floor Rammohan Dutt Road,Ground floor, Barabazar Market, Kolkata - 700020, Dist.Kolkata, West Bengal",7942544961,
"Dignity Magna Adult Diapers, Medium",https://www.indiamart.com/proddetail/dignity-magna-adult-diapers-2854424087048.html?pos=106&kwd=incontinence pads&tags=||||8752.144|Price|product|||TS|rsf:gd-|-qr_nm:gd|res:RC3|com-cf:nl|ptrs:na|ktp:N0|mc:30839|mtp:S|qry_typ:P|lang:en|wc:2|cs:7538|v=4,Apple Pharma,https://www.applepharma.in/?pos=106&kwd=incontinence pads&tags=||||8752.144|Price|product|||TS|rsf:gd-|-qr_nm:gd|res:RC3|com-cf:nl|ptrs:na|ktp:N0|mc:30839|mtp:S|qry_typ:P|lang:en|wc:2|cs:7538|v=4,True,Chandni Chowk,New Delhi,"First Floor, 1526/122, Shrinath Market, Bhagirath Palace North, Chandni Chowk, New Delhi - 110006, Dist.Delhi, Delhi",7942835455,
"Protective Underwear FRIENDS ADULT DIAPERS HOSPITAL, Size: Medium, 10 Pcs",https://www.indiamart.com/proddetail/friends-adult-diapers-hospital-27527124291.html?pos=107&kwd=incontinence pads&tags=||||8507.67|Price|product|||MDC|rsf:gd-|-qr_nm:gd|res:RC3|com-cf:nl|ptrs:na|ktp:N0|mc:30839|mtp:S|qry_typ:P|lang:en|wc:2|cs:7538|v=4,Roys Surgicals,https://www.indiamart.com/royssurgicals/?pos=107&kwd=incontinence pads&tags=||||8507.67|Price|product|||MDC|rsf:gd-|-qr_nm:gd|res:RC3|com-cf:nl|ptrs:na|ktp:N0|mc:30839|mtp:S|qry_typ:P|lang:en|wc:2|cs:7538|v=4,False,Thrippunithura,Ernakulam,"11/ 305A, Thekkinethu, Sea Port Airport Road Irimpanam, Thrippunithura, Ernakulam - 682309, Dist.Ernakulam, Kerala",8047630278,
"Bella Seni Adult Diaper, Small",https://www.indiamart.com/proddetail/bella-seni-adult-diaper-2854147374712.html?pos=108&kwd=incontinence pads&tags=||||8788.382|Price|product|||MDC|rsf:gd-|-qr_nm:gd|res:RC3|com-cf:nl|ptrs:na|ktp:N0|mc:30839|mtp:S|qry_typ:P|lang:en|wc:2|cs:7538|v=4,Health4u,https://www.indiamart.com/health4u-greaternoida/?pos=108&kwd=incontinence pads&tags=||||8788.382|Price|product|||MDC|rsf:gd-|-qr_nm:gd|res:RC3|com-cf:nl|ptrs:na|ktp:N0|mc:30839|mtp:S|qry_typ:P|lang:en|wc:2|cs:7538|v=4,False,,Greater Noida,"Shop No-5, H No-3, Pandat Complex, Ram Shyam Enclave, Chipiyana Buzurg,, Greater Noida - 201306, Dist.Gautam Budh Nagar, Uttar Pradesh",8045731446,
Protective Underwear Extra Size Real Care Adult Diaper,https://www.indiamart.com/proddetail/extra-size-real-care-adult-diaper-2851753108412.html?pos=109&kwd=incontinence pads&tags=||||8954.051|Price|product|||MDC|rsf:gd-|-qr_nm:gd|res:RC3|com-cf:nl|ptrs:na|ktp:N0|mc:30839|mtp:S|qry_typ:P|lang:en|wc:2|cs:7538|v=4,Ultimate Medicare 4U,https://www.indiamart.com/ultimate-medicare-4u/?pos=109&kwd=incontinence pads&tags=||||8954.051|Price|product|||MDC|rsf:gd-|-qr_nm:gd|res:RC3|com-cf:nl|ptrs:na|ktp:N0|mc:30839|mtp:S|qry_typ:P|lang:en|wc:2|cs:7538|v=4,False,Kottivakkam,Chennai,"4 / 610-B/Plot No.4-B, Flat No.S-3, Second Floor, Block - A, Gandhi Road, Kottivakkam, Kottivakkam, Chennai - 600041, Dist.Chennai, Tamil Nadu",7942875025,
Kare In Premium Adult Diapers,https://www.indiamart.com/proddetail/kare-in-premium-adult-diapers-2852992530962.html?pos=110&kwd=incontinence pads&tags=||||9839.57|Price|product|||MDC|rsf:gd-|-qr_nm:gd|res:RC3|com-cf:nl|ptrs:na|ktp:N0|mc:30839|mtp:S|qry_typ:P|lang:en|wc:2|cs:7538|v=4,S.G.Enterprise,https://www.indiamart.com/sg-enterprise-bahadur/?pos=110&kwd=incontinence pads&tags=||||9839.57|Price|product|||MDC|rsf:gd-|-qr_nm:gd|res:RC3|com-cf:nl|ptrs:na|ktp:N0|mc:30839|mtp:S|qry_typ:P|lang:en|wc:2|cs:7538|v=4,False,Behala,Kolkata,"222 Roy Bahadur Road Behala South Twenty Four Parganas, Behala, Kolkata - 700053, Dist.Kolkata, West Bengal",7948549197,
"Plain Dignity Premium Adult Pull Up Diapers, Packaging Size: XL",https://www.indiamart.com/proddetail/dignity-premium-adult-pull-up-diapers-2853472293497.html?pos=111&kwd=incontinence pads&tags=||||9110.092|Price|product|||TS|rsf:gd-|-qr_nm:gd|res:RC3|com-cf:nl|ptrs:na|ktp:N0|mc:30839|mtp:S|qry_typ:P|lang:en|wc:2|cs:7538|v=4,M R Associates,https://www.indiamart.com/mrassociateslucknow/?pos=111&kwd=incontinence pads&tags=||||9110.092|Price|product|||TS|rsf:gd-|-qr_nm:gd|res:RC3|com-cf:nl|ptrs:na|ktp:N0|mc:30839|mtp:S|qry_typ:P|lang:en|wc:2|cs:7538|v=4,False,Transport Nagar,Lucknow,"G-1/198 Phase-II Transport Nagar, Kanpur Road, Transport Nagar, Lucknow - 226023, Dist.Lucknow, Uttar Pradesh",7949090964,
"Friends UltraThinz Slim Fit Dry Pants, Size: Medium",https://www.indiamart.com/proddetail/friends-ultrathinz-slim-fit-dry-pants-2850216066162.html?pos=112&kwd=incontinence pads&tags=||||8537.336|Price|product|||MDC|rsf:gd-|-qr_nm:gd|res:RC3|com-cf:nl|ptrs:na|ktp:N0|mc:30839|mtp:S|qry_typ:P|lang:en|wc:2|cs:7538|v=4,Akshya Pharma,https://www.indiamart.com/akshya-pharma-kerala/?pos=112&kwd=incontinence pads&tags=||||8537.336|Price|product|||MDC|rsf:gd-|-qr_nm:gd|res:RC3|com-cf:nl|ptrs:na|ktp:N0|mc:30839|mtp:S|qry_typ:P|lang:en|wc:2|cs:7538|v=4,False,Thangassery,Kollam,"49/2697/1514/1,49/2698/1514/2, Krishna Swamy Avenue, Near Kallupalam , Lekshminada, Thangassery, Kollam - 691013, Dist.Kollam, Kerala",7949226461,
tape style Disposable Adult Diaper,https://www.indiamart.com/proddetail/disposable-adult-diaper-25677337112.html?pos=113&kwd=incontinence pads&tags=||||8211.142|Price|product|||TS|rsf:gd-|-qr_nm:gd|res:RC3|com-cf:nl|ptrs:na|ktp:N0|mc:30839|mtp:S|qry_typ:P|lang:en|wc:2|cs:7538|v=4,Stayzy Hygiene Private Limited,https://www.indiamart.com/synergy-fly/?pos=113&kwd=incontinence pads&tags=||||8211.142|Price|product|||TS|rsf:gd-|-qr_nm:gd|res:RC3|com-cf:nl|ptrs:na|ktp:N0|mc:30839|mtp:S|qry_typ:P|lang:en|wc:2|cs:7538|v=4,False,Borivali West,Mumbai,"Bluechip Industrial Estate No 4 Sativali Road, Near Nexa Showroom, Waliv Naka, Borivali West, Mumbai - 401101, Dist.Mumbai, Maharashtra",8048604117,
Adult Diaper Pants,https://www.indiamart.com/proddetail/adult-diaper-pants-24903019673.html?pos=114&kwd=incontinence pads&tags=||||8588.208|Price|product|||MDC|rsf:gd-|-qr_nm:gd|res:RC3|com-cf:nl|ptrs:na|ktp:N0|mc:30839|mtp:S|qry_typ:P|lang:en|wc:2|cs:7538|v=4,Aarohi Distributors,https://www.indiamart.com/aarohidistributors/?pos=114&kwd=incontinence pads&tags=||||8588.208|Price|product|||MDC|rsf:gd-|-qr_nm:gd|res:RC3|com-cf:nl|ptrs:na|ktp:N0|mc:30839|mtp:S|qry_typ:P|lang:en|wc:2|cs:7538|v=4,False,Borkheda,Kota,"Plot No. 14, Near Durga Mata Mandir, Bajrang Nagar, Main Road, Borkheda, Kota - 324002, Rajasthan",8048273399,
Adult Diapers,https://www.indiamart.com/proddetail/adult-diapers-17406647933.html?pos=115&kwd=incontinence pads&tags=||||8954.051|Price|product|||NA|rsf:gd-|-qr_nm:gd|res:RC3|com-cf:nl|ptrs:na|ktp:N0|mc:30839|mtp:S|qry_typ:P|lang:en|wc:2|cs:7538|v=4,Sukham Healthcare,https://www.indiamart.com/sri-krishna-pharmacy/?pos=115&kwd=incontinence pads&tags=||||8954.051|Price|product|||NA|rsf:gd-|-qr_nm:gd|res:RC3|com-cf:nl|ptrs:na|ktp:N0|mc:30839|mtp:S|qry_typ:P|lang:en|wc:2|cs:7538|v=4,False,,Chennai,"AP-708, 1st Street, 12th Main Road, Anna Nagar, Chennai - 600040, Dist.Chennai, Tamil Nadu",8047677589,
"25-60 Uniqnesss Medium Size Adult Diaper, Size: 890 mm * 680 mm",https://www.indiamart.com/proddetail/medium-size-adult-diaper-24371347097.html?pos=116&kwd=incontinence pads&tags=||||8228.275|Price|product|||NA|rsf:gd-|-qr_nm:gd|res:RC3|com-cf:nl|ptrs:na|ktp:N0|mc:30839|mtp:S|qry_typ:P|lang:en|wc:2|cs:7538|v=4,Vivan Meditech,https://www.indiamart.com/vivan-meditech/?pos=116&kwd=incontinence pads&tags=||||8228.275|Price|product|||NA|rsf:gd-|-qr_nm:gd|res:RC3|com-cf:nl|ptrs:na|ktp:N0|mc:30839|mtp:S|qry_typ:P|lang:en|wc:2|cs:7538|v=4,False,Krishnagar,Ahmedabad,"A-5, Kamlesh Colony, Krishnagar, Ahmedabad - 382350, Dist.Ahmedabad, Gujarat",8046077907,
Adults Diapers,https://www.indiamart.com/proddetail/adults-diapers-10339413688.html?pos=117&kwd=incontinence pads&tags=||||8281.036||product|||NA|rsf:gd-|-qr_nm:gd|res:RC3|com-cf:nl|ptrs:na|ktp:N0|mc:30839|mtp:S|qry_typ:P|lang:en|wc:2|cs:7538|v=4,Bhagwati Pharma And Surgicals,https://www.indiamart.com/bhagwati-pharma-surgicals/?pos=117&kwd=incontinence pads&tags=||||8281.036||product|||NA|rsf:gd-|-qr_nm:gd|res:RC3|com-cf:nl|ptrs:na|ktp:N0|mc:30839|mtp:S|qry_typ:P|lang:en|wc:2|cs:7538|v=4,False,Hari Nagar,Vadodara,"A/2,AKSHAR SAI DUPLEX,BEHIND SAHAJANADKUTIR SOCIETY MUJMAHUDA,VADODARA B/7, Dev Commercial Center, Gotri Road,390021,Vadodara, Hari Nagar, Vadodara - 390020, Dist.Vadodara, Gujarat",8047694473,
"Old Age Cotton Disposable Diaper, Size: M/L/Xl/Xxl",https://www.indiamart.com/proddetail/disposable-diaper-2854630807612.html?pos=118&kwd=incontinence pads&tags=||||8723.301|Price|product|||NA|rsf:gd-|-qr_nm:gd|res:RC3|com-cf:nl|ptrs:na|ktp:N0|mc:30839|mtp:S|qry_typ:P|lang:en|wc:2|cs:7538|v=4,Krishna Medical And Surgicals,https://www.indiamart.com/krishna-medical-and-surgicals/?pos=118&kwd=incontinence pads&tags=||||8723.301|Price|product|||NA|rsf:gd-|-qr_nm:gd|res:RC3|com-cf:nl|ptrs:na|ktp:N0|mc:30839|mtp:S|qry_typ:P|lang:en|wc:2|cs:7538|v=4,False,Gulmohar Colony,Bhopal,"E8/124 Trilochan Nager, Trilanga Road, Gulmohar Colony, Bhopal - 462039, Dist.Bhopal, Madhya Pradesh",8069013894,869
Friends Adult Diapers,https://www.indiamart.com/proddetail/friends-adult-diapers-9470996497.html?pos=119&kwd=incontinence pads&tags=||||8307.81||product|||NA|rsf:gd-|-qr_nm:gd|res:RC3|com-cf:nl|ptrs:na|ktp:N0|mc:30839|mtp:S|qry_typ:P|lang:en|wc:2|cs:7538|v=4,Sanctus Healthcare Private Limited,https://www.indiamart.com/sanctushealthcare/?pos=119&kwd=incontinence pads&tags=||||8307.81||product|||NA|rsf:gd-|-qr_nm:gd|res:RC3|com-cf:nl|ptrs:na|ktp:N0|mc:30839|mtp:S|qry_typ:P|lang:en|wc:2|cs:7538|v=4,False,Bopodi,Pune,"F 2 & 3, Ground Floor, Guru Teg Bahadur Co Operative Housing Society, Aundh Road, Aundh, Bopodi, Pune - 411020, Dist.Pune, Maharashtra",7949349298,
"60 + Year Pull Ups Unisex Adult Diapers, Size: Medium",https://www.indiamart.com/proddetail/unisex-adult-diapers-24019149773.html?pos=120&kwd=incontinence pads&tags=||||8559.269|Price|product|||NA|rsf:gd-|-qr_nm:gd|res:RC3|com-cf:nl|ptrs:na|ktp:N0|mc:30839|mtp:S|qry_typ:P|lang:en|wc:2|cs:7538|v=4,Baby Zone,https://www.indiamart.com/baby-zone-indore/?pos=120&kwd=incontinence pads&tags=||||8559.269|Price|product|||NA|rsf:gd-|-qr_nm:gd|res:RC3|com-cf:nl|ptrs:na|ktp:N0|mc:30839|mtp:S|qry_typ:P|lang:en|wc:2|cs:7538|v=4,False,Bombay Bazaar,Indore,"355-A,,CHANDAN NAGAR,Indore, Bombay Bazaar, Indore - 452002, Dist.Indore, Madhya Pradesh",8043839127,
Safe Use Adult Diapers,https://www.indiamart.com/proddetail/safe-use-adult-diapers-19190585388.html?pos=121&kwd=incontinence pads&tags=||||8316.457|Price|product|||NA|rsf:gd-|-qr_nm:gd|res:RC3|com-cf:nl|ptrs:na|ktp:N0|mc:30839|mtp:S|qry_typ:P|lang:en|wc:2|cs:7538|v=4,Goldenagers,https://www.indiamart.com/golden-agers/?pos=121&kwd=incontinence pads&tags=||||8316.457|Price|product|||NA|rsf:gd-|-qr_nm:gd|res:RC3|com-cf:nl|ptrs:na|ktp:N0|mc:30839|mtp:S|qry_typ:P|lang:en|wc:2|cs:7538|v=4,False,Navshakti Chowk Bhabha Nagar,Nashik,"Adwait Plaza, Flat No 5, Navshakti Chowk Bhabha Nagar, Nashik - 422101, Dist.Nashik, Maharashtra",8048372753,387
"Tape Diaper Wetex Supreme Adult Diapers, Size: Medium",https://www.indiamart.com/proddetail/wetex-supreme-adult-diapers-25217860488.html?pos=122&kwd=incontinence pads&tags=||||9110.092|Price|product|||NA|rsf:gd-|-qr_nm:gd|res:RC3|com-cf:nl|ptrs:na|ktp:N0|mc:30839|mtp:S|qry_typ:P|lang:en|wc:2|cs:7538|v=4,Indian Surgical And Medicines,https://www.indiamart.com/indiansurgicalmedicines/?pos=122&kwd=incontinence pads&tags=||||9110.092|Price|product|||NA|rsf:gd-|-qr_nm:gd|res:RC3|com-cf:nl|ptrs:na|ktp:N0|mc:30839|mtp:S|qry_typ:P|lang:en|wc:2|cs:7538|v=4,False,,Lucknow,"114/66,67,68, Naya Gaon West, Aminabad, Lucknow - 226018, Dist.Lucknow, Uttar Pradesh",8047312596,
"60 Years Tab Style Diaper Extra Large Friends Adult Diapers, Size: XL",https://www.indiamart.com/proddetail/extra-large-friends-adult-diapers-26466619412.html?pos=123&kwd=incontinence pads&tags=||||8307.81|Price|product|||NA|rsf:gd-|-qr_nm:gd|res:RC3|com-cf:nl|ptrs:na|ktp:N0|mc:30839|mtp:S|qry_typ:P|lang:en|wc:2|cs:7538|v=4,S K Distributors,https://www.indiamart.com/s-kdistributors/?pos=123&kwd=incontinence pads&tags=||||8307.81|Price|product|||NA|rsf:gd-|-qr_nm:gd|res:RC3|com-cf:nl|ptrs:na|ktp:N0|mc:30839|mtp:S|qry_typ:P|lang:en|wc:2|cs:7538|v=4,False,,Pune,"1376/1394, sadashiv Oeth, Prerana Apt, Near chimnya Ganpati, Pune - 411030, Dist.Pune, Maharashtra",8047619801,
"Liberty Eco Adult Diaper Pants, Large (L) 20 Count, Waist Size (75-140cm | 30-55 inches), Unisex, High Absorbency, Leak Proof, Overnight Protection, Pack of 1",https://www.indiamart.com/proddetail/liberty-eco-adult-diaper-pants-large-l-20-count-waist-size-75-140cm-30-55-inches-unisex-high-absorbency-leak-proof-overnight-protection-pack-of-1-2853074665530.html?pos=124&kwd=incontinence pads&tags=||||8242.731|Price|product|||NA|rsf:gd-|-qr_nm:gd|res:RC3|com-cf:nl|ptrs:na|ktp:N0|mc:30839|mtp:S|qry_typ:P|lang:en|wc:2|cs:7538|v=4,Med Surgical,https://www.indiamart.com/medsurgical-thane/?pos=124&kwd=incontinence pads&tags=||||8242.731|Price|product|||NA|rsf:gd-|-qr_nm:gd|res:RC3|com-cf:nl|ptrs:na|ktp:N0|mc:30839|mtp:S|qry_typ:P|lang:en|wc:2|cs:7538|v=4,False,,Ulhasnagar,"Shop No C-120, 1st Floor, Regency Plaza 2 Co Op Premises Society, Kalyan Ambernath Road,, Ulhasnagar - 421003, Dist.Thane, Maharashtra",,
"70 Year Protective Underwear B Fit Adult Diaper Pants, Size: Medium",https://www.indiamart.com/proddetail/b-fit-adult-diaper-pants-27371760791.html?pos=125&kwd=incontinence pads&tags=||||8746.929|Price|product|||NA|rsf:gd-|-qr_nm:gd|res:RC3|com-cf:nl|ptrs:na|ktp:N0|mc:30839|mtp:S|qry_typ:P|lang:en|wc:2|cs:7538|v=4,Mahaluxmi Surgical & Medicine Distributors,https://www.indiamart.com/mahaluxmisurgical-medicinedistributors/?pos=125&kwd=incontinence pads&tags=||||8746.929|Price|product|||NA|rsf:gd-|-qr_nm:gd|res:RC3|com-cf:nl|ptrs:na|ktp:N0|mc:30839|mtp:S|qry_typ:P|lang:en|wc:2|cs:7538|v=4,False,,Chandigarh,"SCO 85-86, 2nd Floor, Sector 16D, Chandigarh - 160016, Chandigarh",8047549414,
Adult Diaper,https://www.indiamart.com/proddetail/adult-diaper-11017535312.html?pos=126&kwd=incontinence pads&tags=||||8752.144|Price|product|||NA|rsf:gd-|-qr_nm:gd|res:RC3|com-cf:nl|ptrs:na|ktp:N0|mc:30839|mtp:S|qry_typ:P|lang:en|wc:2|cs:7538|v=4,Sam'S International,https://www.indiamart.com/sams-int/?pos=126&kwd=incontinence pads&tags=||||8752.144|Price|product|||NA|rsf:gd-|-qr_nm:gd|res:RC3|com-cf:nl|ptrs:na|ktp:N0|mc:30839|mtp:S|qry_typ:P|lang:en|wc:2|cs:7538|v=4,False,,New Delhi,"BA-5A, Ashok Vihar, Phase 1, New Delhi - 110052, Dist.Delhi, Delhi",8048249738,9839
Friends Adult Diaper - Overnight,https://www.indiamart.com/proddetail/friends-adult-diaper-overnight-21041479188.html?pos=127&kwd=incontinence pads&tags=||||8565.231||product|||NA|rsf:gd-|-qr_nm:gd|res:RC3|com-cf:nl|ptrs:na|ktp:N0|mc:30839|mtp:S|qry_typ:P|lang:en|wc:2|cs:7538|v=4,Kapila Pharmaceuticals,https://www.indiamart.com/kapila-pharmaceuticals/?pos=127&kwd=incontinence pads&tags=||||8565.231||product|||NA|rsf:gd-|-qr_nm:gd|res:RC3|com-cf:nl|ptrs:na|ktp:N0|mc:30839|mtp:S|qry_typ:P|lang:en|wc:2|cs:7538|v=4,False,Partap Nagar,Bathinda,"H NO. 32449,TEJAB FACTORY WALI GALI,,PARAS RAM NAGAR,,Bathinda,Punjab,151001, Partap Nagar, Bathinda - 151001, Dist.Bathinda, Punjab",8048247139,5425
Kare In Adult Diapers Extra Large Adult Diapers,https://www.indiamart.com/proddetail/kare-in-adult-diapers-extra-large-adult-diapers-2854207285291.html?pos=128&kwd=incontinence pads&tags=||||9839.57|Price|product|||NA|rsf:gd-|-qr_nm:gd|res:RC3|com-cf:nl|ptrs:na|ktp:N0|mc:30839|mtp:S|qry_typ:P|lang:en|wc:2|cs:7538|v=4,Behala Surgical & Co.,https://www.indiamart.com/behalasurgical-co/?pos=128&kwd=incontinence pads&tags=||||9839.57|Price|product|||NA|rsf:gd-|-qr_nm:gd|res:RC3|com-cf:nl|ptrs:na|ktp:N0|mc:30839|mtp:S|qry_typ:P|lang:en|wc:2|cs:7538|v=4,False,,Kolkata,"171/22, Roy Bahadur Road,, Kolkata - 700034, Dist.Kolkata, West Bengal",8045732223,
"Protective Underwear Advay M Medical Adult Diapers, Size: Medium",https://www.indiamart.com/proddetail/advay-m-medical-adult-diapers-24469525897.html?pos=129&kwd=incontinence pads&tags=||||8752.144|Price|product|||NA|rsf:gd-|-qr_nm:gd|res:RC3|com-cf:nl|ptrs:na|ktp:N0|mc:30839|mtp:S|qry_typ:P|lang:en|wc:2|cs:7538|v=4,Advay Consumer Care Private Limited,https://www.indiamart.com/advay-consumer-care/?pos=129&kwd=incontinence pads&tags=||||8752.144|Price|product|||NA|rsf:gd-|-qr_nm:gd|res:RC3|com-cf:nl|ptrs:na|ktp:N0|mc:30839|mtp:S|qry_typ:P|lang:en|wc:2|cs:7538|v=4,False,Shalimar Bagh,New Delhi,"18, Govind Mohalla, Haider Pur, North West Delhi,, Shalimar Bagh, New Delhi - 110088, Dist.Delhi, Delhi",8048266447,
ADULT DIAPER XTRA LARGE SIZE,https://www.indiamart.com/proddetail/adult-diaper-xtra-large-size-26431106062.html?pos=130&kwd=incontinence pads&tags=||||8823.154|Price|product|||NA|rsf:gd-|-qr_nm:gd|res:RC3|com-cf:nl|ptrs:na|ktp:N0|mc:30839|mtp:S|qry_typ:P|lang:en|wc:2|cs:7538|v=4,Help Line Pharmacy,https://www.indiamart.com/ms-help-line-pharmacy/?pos=130&kwd=incontinence pads&tags=||||8823.154|Price|product|||NA|rsf:gd-|-qr_nm:gd|res:RC3|com-cf:nl|ptrs:na|ktp:N0|mc:30839|mtp:S|qry_typ:P|lang:en|wc:2|cs:7538|v=4,False,DAYALBAGH,Agra,"Shop No 4 Near Manglam Shila Gate 100 FT ROAD, DAYALBAGH, Agra - 282005, Dist.Agra, Uttar Pradesh",8048250293,741
"40-60 Years Protective Underwear Disposable Adult Diaper, Waist Size: 29""-40'', Size: Large",https://www.indiamart.com/proddetail/disposable-adult-diaper-21163168730.html?pos=131&kwd=incontinence pads&tags=||||8954.051|Price|product|||NA|rsf:gd-|-qr_nm:gd|res:RC3|com-cf:nl|ptrs:na|ktp:N0|mc:30839|mtp:S|qry_typ:P|lang:en|wc:2|cs:7538|v=4,Alpha Lifemed,https://www.indiamart.com/hitwinhealthcare/?pos=131&kwd=incontinence pads&tags=||||8954.051|Price|product|||NA|rsf:gd-|-qr_nm:gd|res:RC3|com-cf:nl|ptrs:na|ktp:N0|mc:30839|mtp:S|qry_typ:P|lang:en|wc:2|cs:7538|v=4,False,Arumbakkam,Chennai,"20S,PREMIER BUILDING,VENUGOPAL STREET,VENUGOPAL STREET No. 7, 10, Jaganathan Nagar,600106,Chennai, Arumbakkam, Chennai - 600037, Dist.Chennai, Tamil Nadu",8046034955,
Friends Adult Diaper,https://www.indiamart.com/proddetail/friends-adult-diaper-20115096191.html?pos=132&kwd=incontinence pads&tags=||||8211.142|Price|product|||NA|rsf:gd-|-qr_nm:gd|res:RC3|com-cf:nl|ptrs:na|ktp:N0|mc:30839|mtp:S|qry_typ:P|lang:en|wc:2|cs:7538|v=4,Adi Enterprises,https://www.indiamart.com/adi-enterprise-mumbai/?pos=132&kwd=incontinence pads&tags=||||8211.142|Price|product|||NA|rsf:gd-|-qr_nm:gd|res:RC3|com-cf:nl|ptrs:na|ktp:N0|mc:30839|mtp:S|qry_typ:P|lang:en|wc:2|cs:7538|v=4,False,Highway Jogeshwari East,Mumbai,"K.E. M.A750-1/3c, Koliwada Plot Janta Squatters Colony, Near Western Express, Highway Jogeshwari East, Highway Jogeshwari East, Mumbai - 400060, Dist.Mumbai, Maharashtra",8062245078,463
"50 Years Diapers Jaycot Children Unisex Diaper, Size: 90 X 60 cm",https://www.indiamart.com/proddetail/jaycot-children-unisex-diaper-26089559562.html?pos=133&kwd=incontinence pads&tags=||||8663.873|Price|product|||NA|rsf:gd-|-qr_nm:gd|res:RC3|com-cf:nl|ptrs:na|ktp:N0|mc:30839|mtp:S|qry_typ:P|lang:en|wc:2|cs:7538|v=4,Kushee Enterprises,https://www.indiamart.com/kusheeenterprisesbengaluru/?pos=133&kwd=incontinence pads&tags=||||8663.873|Price|product|||NA|rsf:gd-|-qr_nm:gd|res:RC3|com-cf:nl|ptrs:na|ktp:N0|mc:30839|mtp:S|qry_typ:P|lang:en|wc:2|cs:7538|v=4,False,,Bengaluru,"28, Ground Floor, 3rd Main, Ganganagar,, Bengaluru - 560032, Dist.Bengaluru, Karnataka",8043861560,
XL Wetex Supreme Adult Diaper,https://www.indiamart.com/proddetail/xl-wetex-supreme-adult-diaper-23969735391.html?pos=134&kwd=incontinence pads&tags=||||9110.092|Price|product|||NA|rsf:gd-|-qr_nm:gd|res:RC3|com-cf:nl|ptrs:na|ktp:N0|mc:30839|mtp:S|qry_typ:P|lang:en|wc:2|cs:7538|v=4,Finvest World,https://www.indiamart.com/finvestworld/?pos=134&kwd=incontinence pads&tags=||||9110.092|Price|product|||NA|rsf:gd-|-qr_nm:gd|res:RC3|com-cf:nl|ptrs:na|ktp:N0|mc:30839|mtp:S|qry_typ:P|lang:en|wc:2|cs:7538|v=4,False,,Lucknow,"43-A, Aminabad Park, Lucknow - 226018, Dist.Lucknow, Uttar Pradesh",8048608227,
"Friends Adult Diapers, Size: XL, 10",https://www.indiamart.com/proddetail/friends-adult-diapers-2851218635112.html?pos=135&kwd=incontinence pads&tags=||||8723.301|Price|product|||NA|rsf:gd-|-qr_nm:gd|res:RC3|com-cf:nl|ptrs:na|ktp:N0|mc:30839|mtp:S|qry_typ:P|lang:en|wc:2|cs:7538|v=4,Dameera Pharmacy,https://www.indiamart.com/dameerapharmacybhopal/?pos=135&kwd=incontinence pads&tags=||||8723.301|Price|product|||NA|rsf:gd-|-qr_nm:gd|res:RC3|com-cf:nl|ptrs:na|ktp:N0|mc:30839|mtp:S|qry_typ:P|lang:en|wc:2|cs:7538|v=4,False,Bagh Swaniya,Bhopal,"Plot No 18, Bansal Vihar Colony, Rohit Nagar, Bawadi kala, Bagh Swaniya, Bhopal - 462001, Dist.Bhopal, Madhya Pradesh",8043867586,
"Protective Underwear Friends Ultra Thin Slim Fit Dry Pants, Size: XL, 10",https://www.indiamart.com/proddetail/friends-ultra-thin-slim-fit-dry-pants-2852396912897.html?pos=136&kwd=incontinence pads&tags=||||8584.299|Price|product|||NA|rsf:gd-|-qr_nm:gd|res:RC3|com-cf:nl|ptrs:na|ktp:N0|mc:30839|mtp:S|qry_typ:P|lang:en|wc:2|cs:7538|v=4,Kovai Orange Surgicals,https://www.indiamart.com/kovai-orange-surgicals/?pos=136&kwd=incontinence pads&tags=||||8584.299|Price|product|||NA|rsf:gd-|-qr_nm:gd|res:RC3|com-cf:nl|ptrs:na|ktp:N0|mc:30839|mtp:S|qry_typ:P|lang:en|wc:2|cs:7538|v=4,False,,Coimbatore,"721,Trichy Road, Ramanathapuram, Coimbatore - 641045, Dist.Coimbatore, Tamil Nadu",7942707732,
Easy Friends Large Adult Diapers,https://www.indiamart.com/proddetail/easy-friends-large-adult-diapers-23681391155.html?pos=137&kwd=incontinence pads&tags=||||8622.305|Price|product|||NA|rsf:gd-|-qr_nm:gd|res:RC3|com-cf:nl|ptrs:na|ktp:N0|mc:30839|mtp:S|qry_typ:P|lang:en|wc:2|cs:7538|v=4,Nikhil Surgicals,https://www.indiamart.com/nikhilsurgicalsnagercoil/?pos=137&kwd=incontinence pads&tags=||||8622.305|Price|product|||NA|rsf:gd-|-qr_nm:gd|res:RC3|com-cf:nl|ptrs:na|ktp:N0|mc:30839|mtp:S|qry_typ:P|lang:en|wc:2|cs:7538|v=4,False,,Nagercoil,"12/8B, Thoppu Vanigar Street, Meenakshipuram , Kanyakumari, Nagercoil - 629001, Dist.Kanyakumari, Tamil Nadu",8047834033,
"Pant Style,Normal Friends Adult Diapers, Medium",https://www.indiamart.com/proddetail/friends-adult-diapers-17867296333.html?pos=138&kwd=incontinence pads&tags=||||9839.57|Price|product|||NA|rsf:gd-|-qr_nm:gd|res:RC3|com-cf:nl|ptrs:na|ktp:N0|mc:30839|mtp:S|qry_typ:P|lang:en|wc:2|cs:7538|v=4,Krishna Traders,https://www.indiamart.com/krishnatradekolkata/?pos=138&kwd=incontinence pads&tags=||||9839.57|Price|product|||NA|rsf:gd-|-qr_nm:gd|res:RC3|com-cf:nl|ptrs:na|ktp:N0|mc:30839|mtp:S|qry_typ:P|lang:en|wc:2|cs:7538|v=4,False,Bijoygarh,Kolkata,"Kalyani,Nadia, Bijoygarh, Kolkata - 700032, Dist.Kolkata, West Bengal",8069023790,894
"KareIn Diaper - Pant Style - 10 Count (L), Size: Large",https://www.indiamart.com/proddetail/karein-diaper-pant-style-10-count-l-2852405105888.html?pos=139&kwd=incontinence pads&tags=||||8954.051|Price|product|||NA|rsf:gd-|-qr_nm:gd|res:RC3|com-cf:nl|ptrs:na|ktp:N0|mc:30839|mtp:S|qry_typ:P|lang:en|wc:2|cs:7538|v=4,Padmavasan Meds,https://www.indiamart.com/padmavasan-meds/?pos=139&kwd=incontinence pads&tags=||||8954.051|Price|product|||NA|rsf:gd-|-qr_nm:gd|res:RC3|com-cf:nl|ptrs:na|ktp:N0|mc:30839|mtp:S|qry_typ:P|lang:en|wc:2|cs:7538|v=4,False,Kodambakkam,Chennai,"Ground Floor, New No.22 Old No.13, Andavar , Andavar Nagar, Kodambakkam, Chennai - 600024, Dist.Chennai, Tamil Nadu",8048263234,
B Fit Large Adult Diaper Pant,https://www.indiamart.com/proddetail/b-fit-large-adult-diaper-pant-2851670637212.html?pos=140&kwd=incontinence pads&tags=||||9839.57|Price|product|||NA|rsf:gd-|-qr_nm:gd|res:RC3|com-cf:nl|ptrs:na|ktp:N0|mc:30839|mtp:S|qry_typ:P|lang:en|wc:2|cs:7538|v=4,Pritam Das,https://www.indiamart.com/pritamdas/?pos=140&kwd=incontinence pads&tags=||||9839.57|Price|product|||NA|rsf:gd-|-qr_nm:gd|res:RC3|com-cf:nl|ptrs:na|ktp:N0|mc:30839|mtp:S|qry_typ:P|lang:en|wc:2|cs:7538|v=4,False,North Twenty Four Parganas,Kolkata,"Gorui 1st Bye Lane, 22 No. Gorui Paschimpara, North Twenty Four Parganas, Kolkata - 700065, Dist.Kolkata, West Bengal",8045909149,
"Pull Ups Elder Dry Premium Adult Diaper, Size: Xxl",https://www.indiamart.com/proddetail/elder-dry-premium-adult-diaper-2852557960812.html?pos=141&kwd=incontinence pads&tags=||||8559.269|Price|product|||NA|rsf:gd-|-qr_nm:gd|res:RC3|com-cf:nl|ptrs:na|ktp:N0|mc:30839|mtp:S|qry_typ:P|lang:en|wc:2|cs:7538|v=4,Shivam Health And Hygiene,https://www.indiamart.com/shivamhealth-hygiene/?pos=141&kwd=incontinence pads&tags=||||8559.269|Price|product|||NA|rsf:gd-|-qr_nm:gd|res:RC3|com-cf:nl|ptrs:na|ktp:N0|mc:30839|mtp:S|qry_typ:P|lang:en|wc:2|cs:7538|v=4,False,Old Agarwal Nagar,Indore,"112, B. M. Tower, Sapna Sangeeta Road, Old Agarwal Nagar, Indore - 452001, Dist.Indore, Madhya Pradesh",7942707717,
Realcare Adult Diaper ( 52-69 ) 10 Pcs - Xl - Xl,https://www.indiamart.com/proddetail/realcare-adult-diaper-52-69-10-pcs-xl-xl-2854452956588.html?pos=142&kwd=incontinence pads&tags=||||9252.044|Price|product|||NA|rsf:gd-|-qr_nm:gd|res:RC3|com-cf:nl|ptrs:na|ktp:N0|mc:30839|mtp:S|qry_typ:P|lang:en|wc:2|cs:7538|v=4,Instaecart Solution,https://www.indiamart.com/instaecart-solutions/?pos=142&kwd=incontinence pads&tags=||||9252.044|Price|product|||NA|rsf:gd-|-qr_nm:gd|res:RC3|com-cf:nl|ptrs:na|ktp:N0|mc:30839|mtp:S|qry_typ:P|lang:en|wc:2|cs:7538|v=4,False,Bhadohi,Gyanpur,"Ground floor 1/4 Instaecart Solution Near Popular Hospital Gopiganj, Bhadohi, Gyanpur - 221303, Dist.Sant Ravidas Nagar, Uttar Pradesh",,
"Pull Ups Friends Economy Medium Adult Diapers, 10 Pieces",https://www.indiamart.com/proddetail/friends-economy-medium-adult-diapers-25860650748.html?pos=143&kwd=incontinence pads&tags=||||8281.036|Price|product|||NA|rsf:gd-|-qr_nm:gd|res:RC3|com-cf:nl|ptrs:na|ktp:N0|mc:30839|mtp:S|qry_typ:P|lang:en|wc:2|cs:7538|v=4,Navya Enterprise,https://www.indiamart.com/navyaenterprisevadodara/?pos=143&kwd=incontinence pads&tags=||||8281.036|Price|product|||NA|rsf:gd-|-qr_nm:gd|res:RC3|com-cf:nl|ptrs:na|ktp:N0|mc:30839|mtp:S|qry_typ:P|lang:en|wc:2|cs:7538|v=4,False,,Vadodara,"1, G/F, Patani Mohallo, Wadi Wadi Raopura,, Vadodara - 390001, Dist.Vadodara, Gujarat",8047543244,
"Friends Economy Adult Diapers, Size: 29.92- 59.84inch, 10 Piece",https://www.indiamart.com/proddetail/friends-economy-adult-diapers-23906954191.html?pos=144&kwd=incontinence pads&tags=||||8624.986|Price|product|||NA|rsf:gd-|-qr_nm:gd|res:RC3|com-cf:nl|ptrs:na|ktp:N0|mc:30839|mtp:S|qry_typ:P|lang:en|wc:2|cs:7538|v=4,Singla Medical Hall,https://www.indiamart.com/singlamedicalhall/?pos=144&kwd=incontinence pads&tags=||||8624.986|Price|product|||NA|rsf:gd-|-qr_nm:gd|res:RC3|com-cf:nl|ptrs:na|ktp:N0|mc:30839|mtp:S|qry_typ:P|lang:en|wc:2|cs:7538|v=4,False,,Kapurthala,"Singla Medical Hall, Singla Market, Phagwara, Opp. Bus Stand, Kapurthala - 144401, Dist.Kapurthala, Punjab",8043849271,
"80 Years Briefs Friends Economy Adult Diapers, Size: XL",https://www.indiamart.com/proddetail/friends-economy-adult-diapers-2851217968873.html?pos=145&kwd=incontinence pads&tags=||||8234.609|Price|product|||NA|rsf:gd-|-qr_nm:gd|res:RC3|com-cf:nl|ptrs:na|ktp:N0|mc:30839|mtp:S|qry_typ:P|lang:en|wc:2|cs:7538|v=4,Unique Pharmacy,https://www.indiamart.com/uniquepharmacy-valsad/?pos=145&kwd=incontinence pads&tags=||||8234.609|Price|product|||NA|rsf:gd-|-qr_nm:gd|res:RC3|com-cf:nl|ptrs:na|ktp:N0|mc:30839|mtp:S|qry_typ:P|lang:en|wc:2|cs:7538|v=4,False,,Valsad,"Ground Floor Shop No 1 Chharwada Road Opp Nandan Apt Bhole Baba Co.op Housing Society Vapi, Valsad, Valsad - 396191, Dist.Valsad, Gujarat",8043885011,
"Protective Underwear Ramsons Dignity Magna Adult Diaper, Size: Medium",https://www.indiamart.com/proddetail/ramsons-dignity-magna-adult-diaper-24550482397.html?pos=146&kwd=incontinence pads&tags=||||9110.092|Price|product|||NA|rsf:gd-|-qr_nm:gd|res:RC3|com-cf:nl|ptrs:na|ktp:N0|mc:30839|mtp:S|qry_typ:P|lang:en|wc:2|cs:7538|v=4,Singh Enterprises,https://www.indiamart.com/singhenterprises-uttarpradesh/?pos=146&kwd=incontinence pads&tags=||||9110.092|Price|product|||NA|rsf:gd-|-qr_nm:gd|res:RC3|com-cf:nl|ptrs:na|ktp:N0|mc:30839|mtp:S|qry_typ:P|lang:en|wc:2|cs:7538|v=4,False,,Lucknow,"E/D1/1065 Kanpur Road Lda Colony, Lucknow - 226012, Dist.Lucknow, Uttar Pradesh",7942565409,
Wyndel Large Adult Diaper,https://www.indiamart.com/proddetail/wyndel-large-adult-diaper-13929621055.html?pos=147&kwd=incontinence pads&tags=||||8786.56|Price|product|||NA|rsf:gd-|-qr_nm:gd|res:RC3|com-cf:nl|ptrs:na|ktp:N0|mc:30839|mtp:S|qry_typ:P|lang:en|wc:2|cs:7538|v=4,VRG Biopharama Private Limited,https://www.indiamart.com/vrgbiopharma/?pos=147&kwd=incontinence pads&tags=||||8786.56|Price|product|||NA|rsf:gd-|-qr_nm:gd|res:RC3|com-cf:nl|ptrs:na|ktp:N0|mc:30839|mtp:S|qry_typ:P|lang:en|wc:2|cs:7538|v=4,False,Kukatpally,Hyderabad,"Plot 9, Prashanthi Nagar Industrial estate, Kukatpally, Hyderabad - 500072, Dist.Hyderabad, Telangana",8047851698,
"Briefs Comfrey Adult Diaper, Size: Medium",https://www.indiamart.com/proddetail/comfrey-adult-diaper-2850451325812.html?pos=148&kwd=incontinence pads&tags=||||8245.243|Price|product|||NA|rsf:gd-|-qr_nm:gd|res:RC3|com-cf:nl|ptrs:na|ktp:N0|mc:30839|mtp:S|qry_typ:P|lang:en|wc:2|cs:7538|v=4,Samartha Medico,https://www.indiamart.com/samartha-medico/?pos=148&kwd=incontinence pads&tags=||||8245.243|Price|product|||NA|rsf:gd-|-qr_nm:gd|res:RC3|com-cf:nl|ptrs:na|ktp:N0|mc:30839|mtp:S|qry_typ:P|lang:en|wc:2|cs:7538|v=4,False,,Ambarnath,"Shop No 6, Ground, Jain Plaza, Shiwaji Chowk, Ambernath, Thane, Ambarnath - 421501, Dist.Thane, Maharashtra",7942821369,
"Above 60 Years Pull Ups Liberty Live Freely Adult Eco Diaper Pants, Size: Large",https://www.indiamart.com/proddetail/liberty-live-freely-adult-eco-diaper-pants-2852411161130.html?pos=149&kwd=incontinence pads&tags=||||8588.208|Price|product|||NA|rsf:gd-|-qr_nm:gd|res:RC3|com-cf:nl|ptrs:na|ktp:N0|mc:30839|mtp:S|qry_typ:P|lang:en|wc:2|cs:7538|v=4,Arayan Distributor,https://www.indiamart.com/arayandistributor/?pos=149&kwd=incontinence pads&tags=||||8588.208|Price|product|||NA|rsf:gd-|-qr_nm:gd|res:RC3|com-cf:nl|ptrs:na|ktp:N0|mc:30839|mtp:S|qry_typ:P|lang:en|wc:2|cs:7538|v=4,False,,Kota,"D-237 Indra Vihar Colony Kota Kota, Kota - 324005, Rajasthan",7942702063,
Stoe Adult Medium Diaper Pant,https://www.indiamart.com/proddetail/stoe-adult-medium-diaper-pant-23824580097.html?pos=150&kwd=incontinence pads&tags=||||8229.666|Price|product|||NA|rsf:gd-|-qr_nm:gd|res:RC3|com-cf:nl|ptrs:na|ktp:N0|mc:30839|mtp:S|qry_typ:P|lang:en|wc:2|cs:7538|v=4,Gabriel Industrial Products,https://www.indiamart.com/gabrielindustrialproducts/?pos=150&kwd=incontinence pads&tags=||||8229.666|Price|product|||NA|rsf:gd-|-qr_nm:gd|res:RC3|com-cf:nl|ptrs:na|ktp:N0|mc:30839|mtp:S|qry_typ:P|lang:en|wc:2|cs:7538|v=4,False,,Vapi,"Ground Floor Shop No 9 Platinum Mall Via Road Vapi Plot No CM 13, Vapi - 396195, Dist.Valsad, Gujarat",8069033792,431
Swara Disposable Adult Diapers,https://www.indiamart.com/proddetail/swara-disposable-adult-diapers-19620316773.html?pos=151&kwd=incontinence pads&tags=||||8307.81|Price|product|||NA|rsf:gd-|-qr_nm:gd|res:RC3|com-cf:nl|ptrs:na|ktp:N0|mc:30839|mtp:S|qry_typ:P|lang:en|wc:2|cs:7538|v=4,Swara Health Care,https://www.indiamart.com/swara-healthcare/?pos=151&kwd=incontinence pads&tags=||||8307.81|Price|product|||NA|rsf:gd-|-qr_nm:gd|res:RC3|com-cf:nl|ptrs:na|ktp:N0|mc:30839|mtp:S|qry_typ:P|lang:en|wc:2|cs:7538|v=4,False,Dagat Patil Nagar Shivane Industrial Estate,Pune,"408, 4th Floor, Omkar Recidancy, NDA Road, Shivane, Dagat Patil Nagar Shivane Industrial Estate, Pune - 411023, Dist.Pune, Maharashtra",7942543380,
"Hi Mate Adult Diaper, Size: Large",https://www.indiamart.com/proddetail/hi-mate-adult-diaper-2851916566388.html?pos=152&kwd=incontinence pads&tags=||||8211.142|Price|product|||NA|rsf:gd-|-qr_nm:gd|res:RC3|com-cf:nl|ptrs:na|ktp:N0|mc:30839|mtp:S|qry_typ:P|lang:en|wc:2|cs:7538|v=4,Seelingo (India) Private Limited,https://www.indiamart.com/seelingo-india/?pos=152&kwd=incontinence pads&tags=||||8211.142|Price|product|||NA|rsf:gd-|-qr_nm:gd|res:RC3|com-cf:nl|ptrs:na|ktp:N0|mc:30839|mtp:S|qry_typ:P|lang:en|wc:2|cs:7538|v=4,False,Juhu,Mumbai,"Charlie Bunglow, A B Nair Road Juhu, Near Juhu Post Office,, Juhu, Mumbai - 400049, Dist.Mumbai, Maharashtra",7942871390,
Easy Care underpad,https://www.indiamart.com/proddetail/easy-care-underpad-18743924891.html?pos=153&kwd=incontinence pads&tags=||||8954.051|Price|product|||NA|rsf:gd-|-qr_nm:gd|res:RC3|com-cf:nl|ptrs:na|ktp:N0|mc:30839|mtp:S|qry_typ:P|lang:en|wc:2|cs:7538|v=4,Fruchem (India),https://www.indiamart.com/fruchemindia/?pos=153&kwd=incontinence pads&tags=||||8954.051|Price|product|||NA|rsf:gd-|-qr_nm:gd|res:RC3|com-cf:nl|ptrs:na|ktp:N0|mc:30839|mtp:S|qry_typ:P|lang:en|wc:2|cs:7538|v=4,False,George Town,Chennai,"306/1,FRUCHEM INDIA,SYDENHAMS ROAD NEHRU TIMBER ROAD,Chennai No. 121, Nainiappa Naicken Street, Surgical Plaza,600003,Chennai, George Town, Chennai - 600112, Dist.Chennai, Tamil Nadu",8047698656,
Adults Liberty XL Adult Eco Pants,https://www.indiamart.com/proddetail/liberty-xl-adult-eco-pants-2850645170488.html?pos=154&kwd=incontinence pads&tags=||||8307.81|Price|product|||NA|rsf:gd-|-qr_nm:gd|res:RC3|com-cf:nl|ptrs:na|ktp:N0|mc:30839|mtp:S|qry_typ:P|lang:en|wc:2|cs:7538|v=4,Diaper To Home,https://www.indiamart.com/diaper-to-home/?pos=154&kwd=incontinence pads&tags=||||8307.81|Price|product|||NA|rsf:gd-|-qr_nm:gd|res:RC3|com-cf:nl|ptrs:na|ktp:N0|mc:30839|mtp:S|qry_typ:P|lang:en|wc:2|cs:7538|v=4,False,Baner Balewadi Road,Pune,"C202, Windsor Residency, Belewadi Phata, Baner, Baner Balewadi Road, Pune - 411045, Dist.Pune, Maharashtra",7942957714,
"Briefs Cotton Kare Med Adult Diapers, Size: Medium",https://www.indiamart.com/proddetail/kare-med-adult-diapers-2852155870873.html?pos=155&kwd=incontinence pads&tags=||||8584.299|Price|product|||NA|rsf:gd-|-qr_nm:gd|res:RC3|com-cf:nl|ptrs:na|ktp:N0|mc:30839|mtp:S|qry_typ:P|lang:en|wc:2|cs:7538|v=4,Hylife Pharmaceuticals,https://www.indiamart.com/hylife-pharmaceuticals/?pos=155&kwd=incontinence pads&tags=||||8584.299|Price|product|||NA|rsf:gd-|-qr_nm:gd|res:RC3|com-cf:nl|ptrs:na|ktp:N0|mc:30839|mtp:S|qry_typ:P|lang:en|wc:2|cs:7538|v=4,False,Ram Nagar,Coimbatore,"168E, Nehru Street, Ram Nagar, Ram Nagar, Coimbatore - 641009, Dist.Coimbatore, Tamil Nadu",7942707315,
"28 Years Pull Ups Kare Med Adult Diaper Pant, Size: Medium",https://www.indiamart.com/proddetail/kare-med-adult-diaper-pant-25432057488.html?pos=156&kwd=incontinence pads&tags=||||9839.57|Price|product|||NA|rsf:gd-|-qr_nm:gd|res:RC3|com-cf:nl|ptrs:na|ktp:N0|mc:30839|mtp:S|qry_typ:P|lang:en|wc:2|cs:7538|v=4,Siddhidata Enterprise,https://www.indiamart.com/siddhidata-enterprise-kolkata/?pos=156&kwd=incontinence pads&tags=||||9839.57|Price|product|||NA|rsf:gd-|-qr_nm:gd|res:RC3|com-cf:nl|ptrs:na|ktp:N0|mc:30839|mtp:S|qry_typ:P|lang:en|wc:2|cs:7538|v=4,False,,Kolkata,"B/48A/H/6/1 Pottery Road, Kolkata - 700015, Dist.Kolkata, West Bengal",8047622670,
Teddyy Nappy Pads (60 Units),https://www.indiamart.com/proddetail/teddyy-nappy-pads-60-units-2851751671097.html?pos=157&kwd=incontinence pads&tags=||||8612.732|Price|product|||NA|rsf:gd-|-qr_nm:gd|res:RC3|com-cf:nl|ptrs:na|ktp:N0|mc:30839|mtp:S|qry_typ:P|lang:en|wc:2|cs:7538|v=4,Swift Healthcare & Hygiene Private Limited,https://www.indiamart.com/swift-healthcare-hygiene-private-limited-srinagar/?pos=157&kwd=incontinence pads&tags=||||8612.732|Price|product|||NA|rsf:gd-|-qr_nm:gd|res:RC3|com-cf:nl|ptrs:na|ktp:N0|mc:30839|mtp:S|qry_typ:P|lang:en|wc:2|cs:7538|v=4,False,Pampore,Srinagar,"1 1 Shiraz Road Srinagar Srinagar, Pampore, Srinagar - 190003, Dist.Srinagar, Jammu & Kashmir",,
Diapers 40+ Disposable Diaper,https://www.indiamart.com/proddetail/disposable-diaper-2851970563512.html?pos=158&kwd=incontinence pads&tags=||||9110.092||product|||NA|rsf:gd-|-qr_nm:gd|res:RC3|com-cf:nl|ptrs:na|ktp:N0|mc:30839|mtp:S|qry_typ:P|lang:en|wc:2|cs:7538|v=4,Longlife Surgical,https://www.indiamart.com/longlife-surgical/?pos=158&kwd=incontinence pads&tags=||||9110.092||product|||NA|rsf:gd-|-qr_nm:gd|res:RC3|com-cf:nl|ptrs:na|ktp:N0|mc:30839|mtp:S|qry_typ:P|lang:en|wc:2|cs:7538|v=4,False,Block D,Lucknow,"Mig-13 Sec-l Alg Scheme, Sector L Road, Near Kendriya Vidyalaya Road, Aliganj Aliganj, Block D, Lucknow - 226024, Dist.Lucknow, Uttar Pradesh",8048249733,1721
Romsons Magna Unisex Adult Diaper,https://www.indiamart.com/proddetail/romsons-magna-unisex-adult-diaper-23209828562.html?pos=159&kwd=incontinence pads&tags=||||8723.301|Price|product|||NA|rsf:gd-|-qr_nm:gd|res:RC3|com-cf:nl|ptrs:na|ktp:N0|mc:30839|mtp:S|qry_typ:P|lang:en|wc:2|cs:7538|v=4,Wings Surgical,https://www.indiamart.com/wings-surgical-bhopal/?pos=159&kwd=incontinence pads&tags=||||8723.301|Price|product|||NA|rsf:gd-|-qr_nm:gd|res:RC3|com-cf:nl|ptrs:na|ktp:N0|mc:30839|mtp:S|qry_typ:P|lang:en|wc:2|cs:7538|v=4,False,,Bhopal,"JM-15/3D, Saket Nagar, Bhopal - 462024, Dist.Bhopal, Madhya Pradesh",7942613244,
Protective Underwear Dignity Magna Adult Diaper,https://www.indiamart.com/proddetail/dignity-magna-adult-diaper-2852356714091.html?pos=160&kwd=incontinence pads&tags=||||9301.656||product|||NA|rsf:gd-|-qr_nm:gd|res:RC3|com-cf:nl|ptrs:na|ktp:N0|mc:30839|mtp:S|qry_typ:P|lang:en|wc:2|cs:7538|v=4,Kunj Drug And Company,https://www.indiamart.com/kunj-drug-company/?pos=160&kwd=incontinence pads&tags=||||9301.656||product|||NA|rsf:gd-|-qr_nm:gd|res:RC3|com-cf:nl|ptrs:na|ktp:N0|mc:30839|mtp:S|qry_typ:P|lang:en|wc:2|cs:7538|v=4,False,Konia,Varanasi,"SA 17/128 HR 21, Ganpati Nagar Colony, Pahriya, Konia, Varanasi - 221007, Dist.Varanasi, Uttar Pradesh",7942715283,
"Briefs Friends Ultrathinz Slim Fit Dry Pants, Size: Large, 9 Pieces",https://www.indiamart.com/proddetail/friends-ultrathinz-slim-fit-dry-pants-2851694428591.html?pos=161&kwd=incontinence pads&tags=||||8778.123|Price|product|||NA|rsf:gd-|-qr_nm:gd|res:RC3|com-cf:nl|ptrs:na|ktp:N0|mc:30839|mtp:S|qry_typ:P|lang:en|wc:2|cs:7538|v=4,Ons Surgical Private Limited,https://www.indiamart.com/onssurgical/?pos=161&kwd=incontinence pads&tags=||||8778.123|Price|product|||NA|rsf:gd-|-qr_nm:gd|res:RC3|com-cf:nl|ptrs:na|ktp:N0|mc:30839|mtp:S|qry_typ:P|lang:en|wc:2|cs:7538|v=4,False,,Noida,"Shop No. 12 Parthala Chowk Khasra No. 60 Noida, Noida - 201307, Dist.Gautam Budh Nagar, Uttar Pradesh",7942831097,
"60 To 70 Year Absorbia Soft Unisex Adult Diaper, Size: M",https://www.indiamart.com/proddetail/absorbia-soft-unisex-adult-diaper-23079993988.html?pos=162&kwd=incontinence pads&tags=||||8788.159|Price|product|||NA|rsf:gd-|-qr_nm:gd|res:RC3|com-cf:nl|ptrs:na|ktp:N0|mc:30839|mtp:S|qry_typ:P|lang:en|wc:2|cs:7538|v=4,Lasya Priya Enterprises,https://www.indiamart.com/lasyapriyaenterprises/?pos=162&kwd=incontinence pads&tags=||||8788.159|Price|product|||NA|rsf:gd-|-qr_nm:gd|res:RC3|com-cf:nl|ptrs:na|ktp:N0|mc:30839|mtp:S|qry_typ:P|lang:en|wc:2|cs:7538|v=4,False,,Secunderabad,"11-3-296/14, Near New Sri Harsha School, Srinivasa Nagar, Warasiguda, Secunderabad - 500061, Dist.Hyderabad, Telangana",8048269418,
"99 Year Protective Underwear Friends Slim Fit Ultrathinz Dry Pants, Size: Medium",https://www.indiamart.com/proddetail/friends-slim-fit-ultrathinz-dry-pants-2851279099230.html?pos=163&kwd=incontinence pads&tags=||||8778.123|Price|product|||NA|rsf:gd-|-qr_nm:gd|res:RC3|com-cf:nl|ptrs:na|ktp:N0|mc:30839|mtp:S|qry_typ:P|lang:en|wc:2|cs:7538|v=4,Indra Trading Co.,https://www.indiamart.com/indra-tradingco/?pos=163&kwd=incontinence pads&tags=||||8778.123|Price|product|||NA|rsf:gd-|-qr_nm:gd|res:RC3|com-cf:nl|ptrs:na|ktp:N0|mc:30839|mtp:S|qry_typ:P|lang:en|wc:2|cs:7538|v=4,False,,Noida,"Village-Harola, Sector-5, Gautam Buddha Nagar, Noida - 201301, Dist.Gautam Budh Nagar, Uttar Pradesh",7942839428,
Medi Sorb Pants L 10 Pcs,https://www.indiamart.com/proddetail/medi-sorb-pants-l-10-pcs-23413611162.html?pos=164&kwd=incontinence pads&tags=||||8211.142|Price|product|||NA|rsf:gd-|-qr_nm:gd|res:RC3|com-cf:nl|ptrs:na|ktp:N0|mc:30839|mtp:S|qry_typ:P|lang:en|wc:2|cs:7538|v=4,S P Hygiene Products,https://www.indiamart.com/sphygieneproducts/?pos=164&kwd=incontinence pads&tags=||||8211.142|Price|product|||NA|rsf:gd-|-qr_nm:gd|res:RC3|com-cf:nl|ptrs:na|ktp:N0|mc:30839|mtp:S|qry_typ:P|lang:en|wc:2|cs:7538|v=4,False,,Mumbai,"Shop No. 3 46/A, Morden Mills Compound Jagannath Bhatankar Marg, Parel S T Depot, Mumbai - 400015, Dist.Mumbai, Maharashtra",8047641235,
"Pull Ups XL Friends Adult Diapers, 10 Diaper",https://www.indiamart.com/proddetail/xl-friends-adult-diapers-2851869587297.html?pos=165&kwd=incontinence pads&tags=||||8413.825|Price|product|||NA|rsf:gd-|-qr_nm:gd|res:RC3|com-cf:nl|ptrs:na|ktp:N0|mc:30839|mtp:S|qry_typ:P|lang:en|wc:2|cs:7538|v=4,Rajesh Pharma,https://www.indiamart.com/rajeshpharma-hubli/?pos=165&kwd=incontinence pads&tags=||||8413.825|Price|product|||NA|rsf:gd-|-qr_nm:gd|res:RC3|com-cf:nl|ptrs:na|ktp:N0|mc:30839|mtp:S|qry_typ:P|lang:en|wc:2|cs:7538|v=4,False,,Hubballi,"2nd, 53 54 55, Eureka Centre, Koppikar Road, Hubballi - 580020, Karnataka",7942865420,
"Friends Economy Adult Diaper, Size: Medium, 10 Diapers",https://www.indiamart.com/proddetail/friends-economy-adult-diaper-23102507673.html?pos=166&kwd=incontinence pads&tags=||||9704.348|Price|product|||NA|rsf:gd-|-qr_nm:gd|res:RC3|com-cf:nl|ptrs:na|ktp:N0|mc:30839|mtp:S|qry_typ:P|lang:en|wc:2|cs:7538|v=4,Anand Medical Agency,https://www.indiamart.com/anandmedicalagency-bhagalpur/?pos=166&kwd=incontinence pads&tags=||||9704.348|Price|product|||NA|rsf:gd-|-qr_nm:gd|res:RC3|com-cf:nl|ptrs:na|ktp:N0|mc:30839|mtp:S|qry_typ:P|lang:en|wc:2|cs:7538|v=4,False,,Bhagalpur,"S/o Late Anand Kumar Lal, PB Road, Bhagalpur - 812001, Dist.Bhagalpur, Bihar",8043881442,
Friends Adult Diaper,https://www.indiamart.com/proddetail/friends-adult-diaper-20191800097.html?pos=167&kwd=incontinence pads&tags=||||8954.051|Price|product|||NA|rsf:gd-|-qr_nm:gd|res:RC3|com-cf:nl|ptrs:na|ktp:N0|mc:30839|mtp:S|qry_typ:P|lang:en|wc:2|cs:7538|v=4,Jai Krishna Pharma & Surgicals,https://www.indiamart.com/jaikrishna-pharma-surgicals/?pos=167&kwd=incontinence pads&tags=||||8954.051|Price|product|||NA|rsf:gd-|-qr_nm:gd|res:RC3|com-cf:nl|ptrs:na|ktp:N0|mc:30839|mtp:S|qry_typ:P|lang:en|wc:2|cs:7538|v=4,False,George Town,Chennai,"No. Old No. 22, New No. 47, Raghunayakula Street, Shop No. 15, 1st Floor, George Town, Chennai - 600003, Dist.Chennai, Tamil Nadu",8043839580,
"Dignity Premium Adult Diapers, Size: Medium",https://www.indiamart.com/proddetail/dignity-premium-adult-diapers-2853286704091.html?pos=168&kwd=incontinence pads&tags=||||8752.144|Price|product|||NA|rsf:gd-|-qr_nm:gd|res:RC3|com-cf:nl|ptrs:na|ktp:N0|mc:30839|mtp:S|qry_typ:P|lang:en|wc:2|cs:7538|v=4,Helpline Traders,https://www.indiamart.com/helpline-traders-delhi/?pos=168&kwd=incontinence pads&tags=||||8752.144|Price|product|||NA|rsf:gd-|-qr_nm:gd|res:RC3|com-cf:nl|ptrs:na|ktp:N0|mc:30839|mtp:S|qry_typ:P|lang:en|wc:2|cs:7538|v=4,False,Chirag Dilli,New Delhi,"561A, Second Floor, Main Road, Central, Chirag Dilli, New Delhi - 110017, Dist.Delhi, Delhi",7942611370,
"Adults Pant Style Kare In Diaper, Size: Large",https://www.indiamart.com/proddetail/kare-in-diaper-22962142530.html?pos=169&kwd=incontinence pads&tags=||||8663.873|Price|product|||NA|rsf:gd-|-stype:graph|qr_nm:gd|res:RC1-R9|com-cf:nl|ptrs:na|ktp:N0|mc:30839|mtp:S|qry_typ:P|lang:en|wc:2|cs:8997|v=4,Padmavati Enterprises,https://www.indiamart.com/padmavatienterprises-bengaluru/?pos=169&kwd=incontinence pads&tags=||||8663.873|Price|product|||NA|rsf:gd-|-stype:graph|qr_nm:gd|res:RC1-R9|com-cf:nl|ptrs:na|ktp:N0|mc:30839|mtp:S|qry_typ:P|lang:en|wc:2|cs:8997|v=4,False,,Bengaluru,"7th Main Road, E Block, New No.34. Old No.1790 Opp. St. Thomas English School, Subramanyanagar, Bengaluru - 560010, Dist.Bengaluru, Karnataka",8047627351,
Protective Underwear Dignity Magna Adult Diaper,https://www.indiamart.com/proddetail/dignity-magna-adult-diaper-23504082633.html?pos=170&kwd=incontinence pads&tags=||||8723.301|Price|product|||NA|rsf:gd-|-stype:graph|qr_nm:gd|res:RC1-R9|com-cf:nl|ptrs:na|ktp:N0|mc:30839|mtp:S|qry_typ:P|lang:en|wc:2|cs:8997|v=4,Simran Enterprises,https://www.indiamart.com/simranenterprisesmadhyapradesh/?pos=170&kwd=incontinence pads&tags=||||8723.301|Price|product|||NA|rsf:gd-|-stype:graph|qr_nm:gd|res:RC1-R9|com-cf:nl|ptrs:na|ktp:N0|mc:30839|mtp:S|qry_typ:P|lang:en|wc:2|cs:8997|v=4,False,Hamidia Road,Bhopal,"Shop No. 68 Ghora Nakkas Ekta Market Bhopal Bhopal Madhya Pradesh 462001, Hamidia Road, Bhopal - 462001, Dist.Bhopal, Madhya Pradesh",7942552831,
"Slim Fit Protective Underwear Friends Ultra Thin Adult Diapers, Size: Large",https://www.indiamart.com/proddetail/friends-ultra-thin-adult-diapers-2852102337162.html?pos=171&kwd=incontinence pads&tags=||||8706.587|Price|product|||NA|rsf:gd-|-stype:graph|qr_nm:gd|res:RC1-R9|com-cf:nl|ptrs:na|ktp:N0|mc:30839|mtp:S|qry_typ:P|lang:en|wc:2|cs:8997|v=4,Zenmed,https://www.indiamart.com/zenmed/?pos=171&kwd=incontinence pads&tags=||||8706.587|Price|product|||NA|rsf:gd-|-stype:graph|qr_nm:gd|res:RC1-R9|com-cf:nl|ptrs:na|ktp:N0|mc:30839|mtp:S|qry_typ:P|lang:en|wc:2|cs:8997|v=4,False,,Madurai,"194/6, Meenakshi Amman Bagar,5th North Street, Surya Nagar, Madurai - 625007, Dist.Madurai, Tamil Nadu",7942866545,
"Above 18 Pull Ups Alpas Adult Diaper, Size: Medium",https://www.indiamart.com/proddetail/alpas-adult-diaper-25963749097.html?pos=172&kwd=incontinence pads&tags=||||8211.142|Price|product|||NA|rsf:gd-|-stype:graph|qr_nm:gd|res:RC1-R9|com-cf:nl|ptrs:na|ktp:N0|mc:30839|mtp:S|qry_typ:P|lang:en|wc:2|cs:8997|v=4,Manav Seva Surgical,https://www.indiamart.com/manavsevasurgical/?pos=172&kwd=incontinence pads&tags=||||8211.142|Price|product|||NA|rsf:gd-|-stype:graph|qr_nm:gd|res:RC1-R9|com-cf:nl|ptrs:na|ktp:N0|mc:30839|mtp:S|qry_typ:P|lang:en|wc:2|cs:8997|v=4,False,,Mumbai,"SH No-12 Link Rd Ganesh Chowk, NR Bapa Sitaram Mandir Adarsh Nagar Charkop Poisar, Kandiwali West Mumbai, Mumbai - 400067, Dist.Mumbai, Maharashtra",8043851140,
Incontinence Pads,,SRI SATYA SAI MEDICAL,https://www.indiamart.com/sri-satya-sai-medical/?pos=173&kwd=incontinence pads&tags=CC||||8754.302||product|||NA|rsf:gr-|-stype:graph|qr_nm:gd|res:RC1-R9|com-cf:nl|ptrs:na|ktp:N0|mc:30839|mtp:S|qry_typ:P|lang:en|wc:2|cs:8997|v=4,False,,Nizamabad,", Nizamabad - 503001, Telangana",8048250561,590
Incontinence Pads,https://www.indiamart.com/proddetail/incontinence-pads-3662646133.html?pos=174&kwd=incontinence pads&tags=CB||||8954.051||product|||NA|rsf:gr-|-stype:graph|qr_nm:gd|res:RC1-R9|com-cf:nl|ptrs:na|ktp:N0|mc:30839|mtp:S|qry_typ:P|lang:en|wc:2|cs:8997|v=4,Walnut Corporation,https://www.indiamart.com/walnutcorporation/?pos=174&kwd=incontinence pads&tags=CB||||8954.051||product|||NA|rsf:gr-|-stype:graph|qr_nm:gd|res:RC1-R9|com-cf:nl|ptrs:na|ktp:N0|mc:30839|mtp:S|qry_typ:P|lang:en|wc:2|cs:8997|v=4,False,R. A. Puram,Chennai,"Old No. 43, New No. 20, Thiruvengadam Street, R. A. Puram, R. A. Puram, Chennai - 600028, Dist.Chennai, Tamil Nadu",8048371787,735
Incontinence Pads,,Arunachalam Surgical Private Limited,https://www.indiamart.com/arunachalamsurgical/?pos=175&kwd=incontinence pads&tags=CC||||8954.051||product|||NA|rsf:gr-|-stype:graph|qr_nm:gd|res:RC1-R9|com-cf:nl|ptrs:na|ktp:N0|mc:30839|mtp:S|qry_typ:P|lang:en|wc:2|cs:8997|v=4,False,Park Town,Chennai,"34/35 , Nyniappa Naicken Street, Park Town, Chennai - 600003, Dist.Chennai, Tamil Nadu",8047304823,
Incontinence Pads,,Shreejiess Marketing Pvt. Ltd.,https://www.indiamart.com/shreejiess-marketing-pvt-ltd/?pos=176&kwd=incontinence pads&tags=CC||||8237.554||product|||NA|rsf:gr-|-stype:graph|qr_nm:gd|res:RC1-R9|com-cf:nl|ptrs:na|ktp:N0|mc:30839|mtp:S|qry_typ:P|lang:en|wc:2|cs:8997|v=4,False,,Gandhinagar,", Gandhinagar, Gujarat",8048250114,348
