product_title,product_link,company_name,company_link,is_verified_exporter,city_region,city,address_details,phone_number,phone_number_extension
"Nutrimed Medomil SF Stage 1 Infant Formula, Age Group: 0-6 Months, Packaging Type: Tin",https://www.indiamart.com/proddetail/medomil-sf-stage-1-infant-formula-2851941623762.html?pos=1&kwd=infant products&tags=A||||8769.479|Price|product|||TS|rsf:gd-|-stype:attr=1|qr_nm:gd|res:RC4|com-cf:nl|ptrs:na|ktp:N0|mc:120855|mtp:S|qry_typ:P|lang:en|wc:2|flavl:0|cs:9648|v=4,Nutrimed Dairy LLP,https://www.indiamart.com/nurtimed-dairy/?pos=1&kwd=infant products&tags=A||||8769.479|Price|product|||TS|rsf:gd-|-stype:attr=1|qr_nm:gd|res:RC4|com-cf:nl|ptrs:na|ktp:N0|mc:120855|mtp:S|qry_typ:P|lang:en|wc:2|flavl:0|cs:9648|v=4,FALSE,Ballabhgarh,Ballabhgarh,"Plot No. 88, Sector 68, IMT, Ballabhgarh, Ballabhgarh - 121004, Dist.Faridabad, Haryana",7942873455,
Third Party Manufacturer Infant Milk Powder - Kidofeed,https://www.indiamart.com/proddetail/third-party-manufacturer-infant-milk-powder-kidofeed-2853747634748.html?pos=2&kwd=infant products&tags=BA||||8228.275|Price|product|||TS|rsf:gd-|-stype:attr=1|qr_nm:gd|res:RC4|com-cf:nl|ptrs:na|ktp:N0|mc:120855|mtp:S|qry_typ:P|lang:en|wc:2|flavl:0|cs:9648|v=4,Marcan Healthcare Private Limited,https://www.indiamart.com/marcanhealthcare/?pos=2&kwd=infant products&tags=BA||||8228.275|Price|product|||TS|rsf:gd-|-stype:attr=1|qr_nm:gd|res:RC4|com-cf:nl|ptrs:na|ktp:N0|mc:120855|mtp:S|qry_typ:P|lang:en|wc:2|flavl:0|cs:9648|v=4,FALSE,www.marcanhealthcare.com Moraiya,Ahmedabad,"28, Sanket Estate, Okzursanand, Pharmez, www.marcanhealthcare.com Moraiya, Ahmedabad - 382213, Dist.Ahmedabad, Gujarat",7949224603,
Low Birth Weight Infant Milk Formula,https://www.indiamart.com/proddetail/low-birth-weight-infant-milk-formula-2853162286973.html?pos=3&kwd=infant products&tags=BB||||8228.275|Price|product|||TS|rsf:gd-|-stype:attr=1|qr_nm:gd|res:RC4|com-cf:nl|ptrs:na|ktp:N0|mc:120855|mtp:S|qry_typ:P|lang:en|wc:2|flavl:0|cs:9648|v=4,Estrellas Life Sciences Private Limited,https://www.estrellaslifesciences.in/?pos=3&kwd=infant products&tags=BB||||8228.275|Price|product|||TS|rsf:gd-|-stype:attr=1|qr_nm:gd|res:RC4|com-cf:nl|ptrs:na|ktp:N0|mc:120855|mtp:S|qry_typ:P|lang:en|wc:2|flavl:0|cs:9648|v=4,TRUE,Thaltej,Ahmedabad,"D-607,608,609 Swati clover, Shilaj circle, S.P ring road,, Thaltej, Ahmedabad - 380059, Dist.Ahmedabad, Gujarat",7949341722,
"Spray Dried Milfor infant formula, Age Group: From Birth To 6 Months, Packaging Type: 400g tin",https://www.indiamart.com/proddetail/milfor-infant-formula-2851355280830.html?pos=4&kwd=infant products&tags=BA||||8663.873|Price|product|||MDC|rsf:gd-|-stype:attr=1|qr_nm:gd|res:RC4|com-cf:nl|ptrs:na|ktp:N0|mc:120855|mtp:S|qry_typ:P|lang:en|wc:2|flavl:0|cs:9648|v=4,Lead Care International,https://www.indiamart.com/leadcareinternational/?pos=4&kwd=infant products&tags=BA||||8663.873|Price|product|||MDC|rsf:gd-|-stype:attr=1|qr_nm:gd|res:RC4|com-cf:nl|ptrs:na|ktp:N0|mc:120855|mtp:S|qry_typ:P|lang:en|wc:2|flavl:0|cs:9648|v=4,FALSE,Bommanahalli,Bengaluru,"26/1, Hosur Road, 1st & 2nd Floor Ibis Hotel Regus Business Centre, Bommanahalli, Bengaluru - 560068, Dist.Bengaluru, Karnataka",8046045560,
"Wippee Non Woven Baby Wet Wipes With Lid, Number of Wipes: 10",https://www.indiamart.com/proddetail/baby-wet-wipes-with-lid-17603600548.html?pos=5&kwd=infant products&tags=BA||||8752.144|Price|product|||TS|rsf:gd-|-stype:attr=1|qr_nm:gd|res:RC4|com-cf:nl|ptrs:na|ktp:N0|mc:120855|mtp:S|qry_typ:P|lang:en|wc:2|flavl:0|cs:9648|v=4,NRV Global Solutions & Services,https://www.visionwetwipes.com/?pos=5&kwd=infant products&tags=BA||||8752.144|Price|product|||TS|rsf:gd-|-stype:attr=1|qr_nm:gd|res:RC4|com-cf:nl|ptrs:na|ktp:N0|mc:120855|mtp:S|qry_typ:P|lang:en|wc:2|flavl:0|cs:9648|v=4,FALSE,Hari Nagar,New Delhi,"F-47B, MIG Flats, Hari Nagar, Hari Nagar, New Delhi - 110064, Dist.Delhi, Delhi",8048964379,
"Cotton Girl Infant month group top, Age Group: 0-3 Months",https://www.indiamart.com/proddetail/infant-month-group-top-2853896075330.html?pos=6&kwd=infant products&tags=A||||8785.791|Price|product|||TS|rsf:gd-|-stype:attr=1|qr_nm:gd|res:RC4|com-cf:nl|ptrs:na|ktp:N0|mc:120855|mtp:S|qry_typ:P|lang:en|wc:2|flavl:0|cs:9648|v=4,Shubhagya Creation,https://www.indiamart.com/shubhagyacreation/?pos=6&kwd=infant products&tags=A||||8785.791|Price|product|||TS|rsf:gd-|-stype:attr=1|qr_nm:gd|res:RC4|com-cf:nl|ptrs:na|ktp:N0|mc:120855|mtp:S|qry_typ:P|lang:en|wc:2|flavl:0|cs:9648|v=4,FALSE,Indirapuram,Ghaziabad,"Amrapali Village Am Block Flat No 604 6th Floor Indirapuram Village Makanpur Nayaykhand Ii, Indirapuram, Ghaziabad - 201014, Dist.Ghaziabad, Uttar Pradesh",7942613379,
"Infant Products, Powder,Paste Or Liquid, Packaging Type: Bottle,Packets Etc",https://www.indiamart.com/proddetail/infant-products-16218610612.html?pos=7&kwd=infant products&tags=BB||||8741.812|Price|product|||TS|rsf:gd-|-stype:attr=1|qr_nm:gd|res:RC4|com-cf:nl|ptrs:na|ktp:N0|mc:120855|mtp:S|qry_typ:P|lang:en|wc:2|flavl:0|cs:9648|v=4,Bo International,https://www.boessentialoil.com/?pos=7&kwd=infant products&tags=BB||||8741.812|Price|product|||TS|rsf:gd-|-stype:attr=1|qr_nm:gd|res:RC4|com-cf:nl|ptrs:na|ktp:N0|mc:120855|mtp:S|qry_typ:P|lang:en|wc:2|flavl:0|cs:9648|v=4,TRUE,Udyog Vihar Phase 5,Gurugram,"884, Udyog Vihar, Sector 19, Udyog Vihar Phase 5, Udyog Vihar Phase 5, Gurugram - 122016, Dist.Gurgaon, Haryana",8048960874,
"Female Eco Friendly Soft Fabric Infant Products, Packaging Type: Vinyl Bag",https://www.indiamart.com/proddetail/infant-products-15886317462.html?pos=8&kwd=infant products&tags=BA||||8778.123|Price|product|||TS|rsf:gd-|-stype:attr=1|qr_nm:gd|res:RC4|com-cf:nl|ptrs:na|ktp:N0|mc:120855|mtp:S|qry_typ:P|lang:en|wc:2|flavl:0|cs:9648|v=4,Oscar Overseas,https://www.oscar-india.com/?pos=8&kwd=infant products&tags=BA||||8778.123|Price|product|||TS|rsf:gd-|-stype:attr=1|qr_nm:gd|res:RC4|com-cf:nl|ptrs:na|ktp:N0|mc:120855|mtp:S|qry_typ:P|lang:en|wc:2|flavl:0|cs:9648|v=4,FALSE,,Noida,"A-99 Sector 5, Noida - 201301, Dist.Gautam Budh Nagar, Uttar Pradesh",8046058290,
"Polyester Baby Silicone Bib, Newly Born",https://www.indiamart.com/proddetail/baby-silicone-bib-2854517564373.html?pos=9&kwd=infant products&tags=BA||||8230.883|Price|product|||TS|rsf:gd-|-stype:attr=1|qr_nm:gd|res:RC4|com-cf:nl|ptrs:na|ktp:N0|mc:120855|mtp:S|qry_typ:P|lang:en|wc:2|flavl:0|cs:9648|v=4,BABYHOLIC,https://www.babyholic.in/?pos=9&kwd=infant products&tags=BA||||8230.883|Price|product|||TS|rsf:gd-|-stype:attr=1|qr_nm:gd|res:RC4|com-cf:nl|ptrs:na|ktp:N0|mc:120855|mtp:S|qry_typ:P|lang:en|wc:2|flavl:0|cs:9648|v=4,FALSE,,Surat,"Ground Floor, Plot No. F/56/, And F/57, Laxmi Narayan Industrial Estate, Udhana, Kailash Fashion, Surat - 394210, Dist.Surat, Gujarat",8045732096,
"Male White Infant Products, Packaging Type: Bottle",https://www.indiamart.com/proddetail/infant-products-2853675288248.html?pos=10&kwd=infant products&tags=BB||||8331.224|Price|product|||MDC|rsf:gd-|-stype:attr=1|qr_nm:gd|res:RC4|com-cf:nl|ptrs:na|ktp:N0|mc:120855|mtp:S|qry_typ:P|lang:en|wc:2|flavl:0|cs:9648|v=4,Tandulwadkar Herbs,https://www.indiamart.com/tandulwadkar-herbs/?pos=10&kwd=infant products&tags=BB||||8331.224|Price|product|||MDC|rsf:gd-|-stype:attr=1|qr_nm:gd|res:RC4|com-cf:nl|ptrs:na|ktp:N0|mc:120855|mtp:S|qry_typ:P|lang:en|wc:2|flavl:0|cs:9648|v=4,FALSE,Pratibhanagar,Kolhapur,"KMC Gala No.11, Pratibhanagar Market, E Ward, Karvir, Pratibhanagar, Kolhapur - 416008, Dist.Kolhapur, Maharashtra",8047304149,
"Cotton Boy Infant Set, Age Group: 6-9 Months",https://www.indiamart.com/proddetail/infant-set-2852510828830.html?pos=11&kwd=infant products&tags=BA||||8626.744|Price|product|||TS|rsf:gd-|-stype:attr=1|qr_nm:gd|res:RC4|com-cf:nl|ptrs:na|ktp:N0|mc:120855|mtp:S|qry_typ:P|lang:en|wc:2|flavl:0|cs:9648|v=4,Aceeo Fashion,https://www.indiamart.com/aceeo-fashion/?pos=11&kwd=infant products&tags=BA||||8626.744|Price|product|||TS|rsf:gd-|-stype:attr=1|qr_nm:gd|res:RC4|com-cf:nl|ptrs:na|ktp:N0|mc:120855|mtp:S|qry_typ:P|lang:en|wc:2|flavl:0|cs:9648|v=4,FALSE,Muthanampalayam,Tiruppur,"No.4/1, Ranga Goundampalayam Main Road, Muthanampalayam Post, Muthanampalayam, Tiruppur - 641606, Dist.Coimbatore, Tamil Nadu",7942704605,
Blue Kidofash Infant Brush with Cover,https://www.indiamart.com/proddetail/kidofash-infant-brush-with-cover-20539953162.html?pos=12&kwd=infant products&tags=BB||||8752.144|Price|product|||TS|rsf:gd-|-stype:attr=1|qr_nm:gd|res:RC4|com-cf:nl|ptrs:na|ktp:N0|mc:120855|mtp:S|qry_typ:P|lang:en|wc:2|flavl:0|cs:9648|v=4,Swastik Enterprises,https://www.indiamart.com/swastikentpndelhi/?pos=12&kwd=infant products&tags=BB||||8752.144|Price|product|||TS|rsf:gd-|-stype:attr=1|qr_nm:gd|res:RC4|com-cf:nl|ptrs:na|ktp:N0|mc:120855|mtp:S|qry_typ:P|lang:en|wc:2|flavl:0|cs:9648|v=4,FALSE,Shastri Nagar,New Delhi,"M 29, Shastri Nagar, Street No. 1, Shastri Nagar, New Delhi - 110052, Dist.Delhi, Delhi",8048607766,
"Boy Cotton Organic Baby Products, Packaging Type: Custom, Newly Born",https://www.indiamart.com/proddetail/organic-baby-products-3737007288.html?pos=13&kwd=infant products&tags=BA||||8668.838|Price|product|||TS|rsf:gd-|-stype:attr=1|qr_nm:gd|res:RC4|com-cf:nl|ptrs:na|ktp:N0|mc:120855|mtp:S|qry_typ:P|lang:en|wc:2|flavl:0|cs:9648|v=4,Sri Kalyan Export Private Limited,https://www.kitchenlinens.in/?pos=13&kwd=infant products&tags=BA||||8668.838|Price|product|||TS|rsf:gd-|-stype:attr=1|qr_nm:gd|res:RC4|com-cf:nl|ptrs:na|ktp:N0|mc:120855|mtp:S|qry_typ:P|lang:en|wc:2|flavl:0|cs:9648|v=4,TRUE,Vilarasampatti,Erode,"No. 192/4, Iswarya Garden Sengodanpalayam, Vilarasampatti, Erode - 638107, Dist.Erode, Tamil Nadu",8048983341,
"Cotton diffrent colours Baby Wash Cloth, Size: 30*30 cm",https://www.indiamart.com/proddetail/baby-wash-cloth-2852518888255.html?pos=14&kwd=infant products&tags=BA||||8211.142|Price|product|||SSnp|rsf:gd-|-stype:attr=1|qr_nm:gd|res:RC4|com-cf:nl|ptrs:na|ktp:N0|mc:120855|mtp:S|qry_typ:P|lang:en|wc:2|flavl:0|cs:9648|v=4,P For Panda Baby Products Private Limited,https://www.p4pandababyproducts.com/?pos=14&kwd=infant products&tags=BA||||8211.142|Price|product|||SSnp|rsf:gd-|-stype:attr=1|qr_nm:gd|res:RC4|com-cf:nl|ptrs:na|ktp:N0|mc:120855|mtp:S|qry_typ:P|lang:en|wc:2|flavl:0|cs:9648|v=4,FALSE,Goregaon West,Mumbai,"904 A Wing,9 Th Floor,Triple S Heights,Jakeria Road, Goregaon West, Mumbai - 400064, Dist.Mumbai, Maharashtra",7942710871,
Baby Care Products,,Vardayeeni Medicines,https://www.indiamart.com/vardayeeni-medicines/?pos=15&kwd=infant products&tags=BA||||8281.036||product|||NA|rsf:gd-|-stype:attr=1|qr_nm:gd|res:RC4|com-cf:nl|ptrs:na|ktp:N0|mc:120855|mtp:S|qry_typ:P|lang:en|wc:2|cs:8885|v=4,FALSE,,Vadodara,"D-1 CHHANI JAKAT NAKA INDUSTRIAL SOCIETY VADODARA, Vadodara - 390002, Dist.Vadodara, Gujarat",8048372911,846
"Baby Carrier New Product, 1-2 Years",https://www.indiamart.com/proddetail/new-product-2849818080533.html?pos=16&kwd=infant products&tags=BA||||8752.144|Price|product|||NA|rsf:gd-|-stype:attr=1|qr_nm:gd|res:RC4|com-cf:nl|ptrs:na|ktp:N0|mc:120855|mtp:S|qry_typ:P|lang:en|wc:2|cs:8885|v=4,Om Bir Singh,https://www.indiamart.com/om-bir-singh/?pos=16&kwd=infant products&tags=BA||||8752.144|Price|product|||NA|rsf:gd-|-stype:attr=1|qr_nm:gd|res:RC4|com-cf:nl|ptrs:na|ktp:N0|mc:120855|mtp:S|qry_typ:P|lang:en|wc:2|cs:8885|v=4,FALSE,,New Delhi,",h.no-270,ambedkar Basti,,village Ghonda,,,delhi,110053, New Delhi - 110053, Dist.Delhi, Delhi",8069728210,947
"Mamaearth Baby Product, Packaging Type: Bottle, 1-2 Years",https://www.indiamart.com/proddetail/mamaearth-baby-product-23978679648.html?pos=17&kwd=infant products&tags=BB||||8752.144|Price|product|||NA|rsf:gd-|-stype:attr=1|qr_nm:gd|res:RC4|com-cf:nl|ptrs:na|ktp:N0|mc:120855|mtp:S|qry_typ:P|lang:en|wc:2|cs:8885|v=4,Fashion Gali,https://www.indiamart.com/fashion-gali-delhi/?pos=17&kwd=infant products&tags=BB||||8752.144|Price|product|||NA|rsf:gd-|-stype:attr=1|qr_nm:gd|res:RC4|com-cf:nl|ptrs:na|ktp:N0|mc:120855|mtp:S|qry_typ:P|lang:en|wc:2|cs:8885|v=4,FALSE,NEW DELHI,New Delhi,"235 SHOP NO 235 MONASTERY 2ND FLOOR, NEW DELHI, New Delhi - 110034, Dist.Delhi, Delhi",8043826796,
Infant Care Products,,Optimal Surgicals And Medi Corporation,https://www.indiamart.com/mkoptimal/?pos=18&kwd=infant products&tags=BB||||8476.868||product|||NA|rsf:gd-|-stype:attr=1|qr_nm:gd|res:RC4|com-cf:nl|ptrs:na|ktp:N0|mc:120855|mtp:S|qry_typ:P|lang:en|wc:2|cs:8885|v=4,FALSE,Jaswantpura,Aurangabad,"31, Younus Colony, Kat Kat Gate, Jaswantpura, Aurangabad - 431001, Maharashtra",7949342679,
Infant Formula,,Star Agencies,https://www.indiamart.com/star-agencies-bareilly/?pos=19&kwd=infant products&tags=BB||||8974.737||product|||NA|rsf:gd-|-stype:attr=1|qr_nm:gd|res:RC4|com-cf:nl|ptrs:na|ktp:N0|mc:120855|mtp:S|qry_typ:P|lang:en|wc:2|cs:8885|v=4,FALSE,Rajendra Nagar,Bareilly,"C-110/3,,RAJENDRA NAGAR OPP. URBAN CO-OPERATIVE BANK,BAREILLY C-110/3 RAJENDRA NAGAR OPP. URBAN CO-OPERATIVE BAN,243001,Bareilly, Rajendra Nagar, Bareilly - 243122, Dist.Bareilly, Uttar Pradesh",8043865585,
Baby products,,Janki Jiyana House,https://www.indiamart.com/jankijiyana-house/?pos=20&kwd=infant products&tags=BB||||8230.883||product|||NA|rsf:gd-|-stype:attr=1|qr_nm:gd|res:RC4|com-cf:nl|ptrs:na|ktp:N0|mc:120855|mtp:S|qry_typ:P|lang:en|wc:2|cs:8885|v=4,FALSE,,Surat,"Shop No 10, 1st Floor, Sahyog Park, Opp. Mansarovar Circle, Amroli,, Surat - 394107, Dist.Surat, Gujarat",7942803964,
Baby Care Products,,Kaju Medical Hall,https://www.indiamart.com/kaju-medical-hall/?pos=21&kwd=infant products&tags=BB||||8746.929||product|||NA|rsf:gd-|-stype:attr=1|qr_nm:gd|res:RC4|com-cf:nl|ptrs:na|ktp:N0|mc:120855|mtp:S|qry_typ:P|lang:en|wc:2|cs:8885|v=4,FALSE,Sector 44c,Chandigarh,",booth No 35,,sector-44-c,, Sector 44c, Chandigarh - 160047, Chandigarh",8048370209,5745
Baby Prams Imported,,Sehgal Sons,https://www.indiamart.com/seggal-sons/?pos=22&kwd=infant products&tags=BB||||8752.144|Price|product|||NA|rsf:gd-|-stype:attr=1|qr_nm:gd|res:RC4|com-cf:nl|ptrs:na|ktp:N0|mc:120855|mtp:S|qry_typ:P|lang:en|wc:2|cs:8885|v=4,FALSE,,New Delhi,"541-B, Esplanade Road, Chandni Chowk, New Delhi - 110006, Dist.Delhi, Delhi",8047681631,
"Aptamil Preterm Infant Formula, 400 gm Tin",https://www.indiamart.com/proddetail/aptamil-preterm-infant-formula-400-gm-tin-2852808463491.html?pos=23&kwd=infant products&tags=CC||||8706.587|Price|product|||TS|rsf:gd-|-stype:attr=1|qr_nm:gd|res:RC4|com-cf:nl|ptrs:na|ktp:N0|mc:120855|mtp:S|qry_typ:P|lang:en|wc:2|cs:8885|v=4,Sri Vela Pharmacy,https://www.srivelapharmacy.in/?pos=23&kwd=infant products&tags=CC||||8706.587|Price|product|||TS|rsf:gd-|-stype:attr=1|qr_nm:gd|res:RC4|com-cf:nl|ptrs:na|ktp:N0|mc:120855|mtp:S|qry_typ:P|lang:en|wc:2|cs:8885|v=4,FALSE,Anna Nagar,Madurai,"HIG-28, 80 Feet, Main Road, Anna Nagar, Anna Nagar, Madurai - 625020, Dist.Madurai, Tamil Nadu",8048617702,
"Allopathic Infant PCD Pharma Franchise In Madhya Pradesh, in Jabalpur",https://www.indiamart.com/proddetail/infant-pcd-pharma-franchise-in-madhya-pradesh-23802747348.html?pos=24&kwd=infant products&tags=||||8237.554||product|||TS|rsf:gd-|-stype:attr=1|qr_nm:gd|res:RC4|com-cf:nl|ptrs:na|ktp:N0|mc:120855|mtp:S|qry_typ:P|lang:en|wc:2|cs:8885|v=4,Espany Lifescience Private Limited,https://www.indiamart.com/espanylifescience/?pos=24&kwd=infant products&tags=||||8237.554||product|||TS|rsf:gd-|-stype:attr=1|qr_nm:gd|res:RC4|com-cf:nl|ptrs:na|ktp:N0|mc:120855|mtp:S|qry_typ:P|lang:en|wc:2|cs:8885|v=4,FALSE,Sector 25,Gandhinagar,"Plot No. B-273. G.i.d.c Electronics Estate, Sector 25, Gandhinagar, Sector 25, Gandhinagar - 382025, Gujarat",8046037544,
"Ayursun Pharma Ayurvedic Baby Care Product (Syrup), Packaging Size: 200 Ml, Packaging Type: Bottle",https://www.indiamart.com/proddetail/ayurvedic-baby-care-product-syrup-19978228973.html?pos=25&kwd=infant products&tags=CC||||8230.883|Price|product|||MDC|rsf:gd-|-stype:attr=1|qr_nm:gd|res:RC4|com-cf:nl|ptrs:na|ktp:N0|mc:120855|mtp:S|qry_typ:P|lang:en|wc:2|cs:8885|v=4,Ayursun Pharma,https://www.indiamart.com/ayursun-pharma/?pos=25&kwd=infant products&tags=CC||||8230.883|Price|product|||MDC|rsf:gd-|-stype:attr=1|qr_nm:gd|res:RC4|com-cf:nl|ptrs:na|ktp:N0|mc:120855|mtp:S|qry_typ:P|lang:en|wc:2|cs:8885|v=4,FALSE,Bhatha,Surat,"58, Bhatpore, GIDC, Magdalla Ichhapore Road, Bhatha, Surat - 394270, Dist.Surat, Gujarat",8048961763,
Infant Garments,https://www.indiamart.com/proddetail/infant-garments-11311135473.html?pos=26&kwd=infant products&tags=CC||||8211.142|Price|product|||TS|rsf:gd-|-stype:attr=1|qr_nm:gd|res:RC4|com-cf:nl|ptrs:na|ktp:N0|mc:120855|mtp:S|qry_typ:P|lang:en|wc:2|cs:8885|v=4,Mumma's Creation,https://www.indiamart.com/mummascreation/?pos=26&kwd=infant products&tags=CC||||8211.142|Price|product|||TS|rsf:gd-|-stype:attr=1|qr_nm:gd|res:RC4|com-cf:nl|ptrs:na|ktp:N0|mc:120855|mtp:S|qry_typ:P|lang:en|wc:2|cs:8885|v=4,FALSE,Malad West,Mumbai,"Room No. 6, 2nd Floor, Maganlal Dayabhai Chawl, 108/2 S. V. Road, Opposite Malad West, Shopping Center, Malad, Malad West, Mumbai - 400064, Dist.Mumbai, Maharashtra",8048603439,
Cotton Unisex Infant Top And Bottom,https://www.indiamart.com/proddetail/infant-top-and-bottom-21485923897.html?pos=27&kwd=infant products&tags=CC||||8626.744|Price|product|||TS|rsf:gd-|-stype:attr=1|qr_nm:gd|res:RC4|com-cf:nl|ptrs:na|ktp:N0|mc:120855|mtp:S|qry_typ:P|lang:en|wc:2|cs:8885|v=4,JVR Clothing Company,https://www.jvrclothing.in/?pos=27&kwd=infant products&tags=CC||||8626.744|Price|product|||TS|rsf:gd-|-stype:attr=1|qr_nm:gd|res:RC4|com-cf:nl|ptrs:na|ktp:N0|mc:120855|mtp:S|qry_typ:P|lang:en|wc:2|cs:8885|v=4,FALSE,East,Tiruppur,"18,Karumarampalayam,AITUC COLONY 2nd Street, East, Tiruppur - 641607, Dist.Coimbatore, Tamil Nadu",8046066591,
"imported Baby Care Products, 3-12 Months",https://www.indiamart.com/proddetail/baby-care-products-2849563394797.html?pos=28&kwd=infant products&tags=CC||||8752.144|Price|product|||TS|rsf:gd-|-stype:attr=1|qr_nm:gd|res:RC4|com-cf:nl|ptrs:na|ktp:N0|mc:120855|mtp:S|qry_typ:P|lang:en|wc:2|cs:8885|v=4,Amarcom,https://www.indiamart.com/amarcom-newdelhi/?pos=28&kwd=infant products&tags=CC||||8752.144|Price|product|||TS|rsf:gd-|-stype:attr=1|qr_nm:gd|res:RC4|com-cf:nl|ptrs:na|ktp:N0|mc:120855|mtp:S|qry_typ:P|lang:en|wc:2|cs:8885|v=4,FALSE,Punjabi Bagh,New Delhi,"63, West Avenue Road, West Punjabi Bagh, New Delhi, Punjabi Bagh, New Delhi - 110026, Dist.Delhi, Delhi",8043869162,
"White Plain Polyester Baby Products, For Clothing, Packaging Type: Roll",https://www.indiamart.com/proddetail/polyester-baby-products-11188826012.html?pos=29&kwd=infant products&tags=CC||||8601.347|Price|product|||TS|rsf:gd-|-stype:attr=1|qr_nm:gd|res:RC4|com-cf:nl|ptrs:na|ktp:N0|mc:120855|mtp:S|qry_typ:P|lang:en|wc:2|cs:8885|v=4,Ginni Non-Wovens,https://www.indiamart.com/ginni-spectra-pvtltd/?pos=29&kwd=infant products&tags=CC||||8601.347|Price|product|||TS|rsf:gd-|-stype:attr=1|qr_nm:gd|res:RC4|com-cf:nl|ptrs:na|ktp:N0|mc:120855|mtp:S|qry_typ:P|lang:en|wc:2|cs:8885|v=4,FALSE,Burmese Colony,Jaipur,"Ginni House, No. 85-86, Burmese Colony Near Transport Nagar, Pink Square Mall, Burmese Colony, Jaipur - 302004, Dist.Jaipur, Rajasthan",8048966821,
"Liquid White Baby Care Products, Packaging Type: Plastic Bottle, 3-12 Months",https://www.indiamart.com/proddetail/baby-care-products-23457574388.html?pos=30&kwd=infant products&tags=CC||||8740.707|Price|product|||TS|rsf:gd-|-stype:attr=1|qr_nm:gd|res:RC4|com-cf:nl|ptrs:na|ktp:N0|mc:120855|mtp:S|qry_typ:P|lang:en|wc:2|cs:8885|v=4,Biozoc INC,https://www.biozoc.in/?pos=30&kwd=infant products&tags=CC||||8740.707|Price|product|||TS|rsf:gd-|-stype:attr=1|qr_nm:gd|res:RC4|com-cf:nl|ptrs:na|ktp:N0|mc:120855|mtp:S|qry_typ:P|lang:en|wc:2|cs:8885|v=4,FALSE,JLPL Industrial Area,Sas Nagar,"Plot Number 203, Industrial Area, Phase 9 JLPL, JLPL Industrial Area, Sas Nagar - 160055, Dist.Mohali, Punjab",8048611616,
"Cotton Girl Infant Baby Garments, Size: Small",https://www.indiamart.com/proddetail/infant-baby-garments-11677167148.html?pos=31&kwd=infant products&tags=CC||||8601.347|Price|product|||MDC|rsf:gd-|-stype:attr=1|qr_nm:gd|res:RC4|com-cf:nl|ptrs:na|ktp:N0|mc:120855|mtp:S|qry_typ:P|lang:en|wc:2|cs:8885|v=4,Amber Jaipur,https://www.indiamart.com/amber-jaipur-india/?pos=31&kwd=infant products&tags=CC||||8601.347|Price|product|||MDC|rsf:gd-|-stype:attr=1|qr_nm:gd|res:RC4|com-cf:nl|ptrs:na|ktp:N0|mc:120855|mtp:S|qry_typ:P|lang:en|wc:2|cs:8885|v=4,FALSE,Krishna Mandir,Jaipur,"Amber Kids Clothings 632, Adarsh Nagar, Krishna Mandir, Jaipur - 302004, Dist.Jaipur, Rajasthan",8047643689,
Baby Activity Mat,https://www.indiamart.com/proddetail/baby-activity-mat-2852880991912.html?pos=32&kwd=infant products&tags=||||8307.81|Price|product|||TS|rsf:gd-|-stype:attr=1|qr_nm:gd|res:RC4|com-cf:nl|ptrs:na|ktp:N0|mc:120855|mtp:S|qry_typ:P|lang:en|wc:2|cs:8885|v=4,Swastika Enterprises,https://www.indiamart.com/swastikaenterprises-pune/?pos=32&kwd=infant products&tags=||||8307.81|Price|product|||TS|rsf:gd-|-stype:attr=1|qr_nm:gd|res:RC4|com-cf:nl|ptrs:na|ktp:N0|mc:120855|mtp:S|qry_typ:P|lang:en|wc:2|cs:8885|v=4,FALSE,Hadapsar,Pune,"Ground Floor, Shop No D-10 A, Ganga Florentina, Mohmadwadi Road, Hadapsar, Hadapsar, Pune - 412308, Dist.Pune, Maharashtra",7942713872,
Cotton New Born Baby Bib,https://www.indiamart.com/proddetail/new-born-baby-bib-2854881219397.html?pos=33&kwd=infant products&tags=||||8752.144|Price|product|||TS|rsf:gd-|-stype:attr=1|qr_nm:gd|res:RC4|com-cf:nl|ptrs:na|ktp:N0|mc:120855|mtp:S|qry_typ:P|lang:en|wc:2|cs:8885|v=4,Urbancube,https://www.indiamart.com/urbancube/?pos=33&kwd=infant products&tags=||||8752.144|Price|product|||TS|rsf:gd-|-stype:attr=1|qr_nm:gd|res:RC4|com-cf:nl|ptrs:na|ktp:N0|mc:120855|mtp:S|qry_typ:P|lang:en|wc:2|cs:8885|v=4,FALSE,Kamla Nagar,New Delhi,"Ground Floor, 14 UA, Jawahar Nagar, Kamla Nagar, New Delhi - 110007, Dist.Delhi, Delhi",8048980014,
"Flannel Unisex Pink Printed Newborn Baby Hospital Kit, Age Group: 0-3 Months",https://www.indiamart.com/proddetail/pink-printed-newborn-baby-hospital-kit-2851752512197.html?pos=34&kwd=infant products&tags=||||8559.269|Price|product|||TS|rsf:gd-|-stype:attr=1|qr_nm:gd|res:RC4|com-cf:nl|ptrs:na|ktp:N0|mc:120855|mtp:S|qry_typ:P|lang:en|wc:2|cs:8885|v=4,Guild Corporation,https://www.indiamart.com/guildcorporation/?pos=34&kwd=infant products&tags=||||8559.269|Price|product|||TS|rsf:gd-|-stype:attr=1|qr_nm:gd|res:RC4|com-cf:nl|ptrs:na|ktp:N0|mc:120855|mtp:S|qry_typ:P|lang:en|wc:2|cs:8885|v=4,FALSE,Sanwariya Nagar,Indore,"32, Bijasan Colony, Airport Road, Sanwariya Nagar, Indore - 452005, Dist.Indore, Madhya Pradesh",8047662733,
Girl Casual Wear Newborn Baby Zabli,https://www.indiamart.com/proddetail/newborn-baby-zabli-2853249017091.html?pos=35&kwd=infant products&tags=||||8954.051||product|||TS|rsf:gd-|-stype:attr=1|qr_nm:gd|res:RC4|com-cf:nl|ptrs:na|ktp:N0|mc:120855|mtp:S|qry_typ:P|lang:en|wc:2|cs:8885|v=4,Sundar Garments,https://www.sundargarment.com/?pos=35&kwd=infant products&tags=||||8954.051||product|||TS|rsf:gd-|-stype:attr=1|qr_nm:gd|res:RC4|com-cf:nl|ptrs:na|ktp:N0|mc:120855|mtp:S|qry_typ:P|lang:en|wc:2|cs:8885|v=4,FALSE,Kondithop,Chennai,"No-9 Murugesan Street Near Kondithope Park, Kondithop, Chennai - 600079, Dist.Chennai, Tamil Nadu",8048266539,
"Baby Washable Diaper, Age Group: Newly Born",https://www.indiamart.com/proddetail/baby-washable-diaper-2852682816273.html?pos=36&kwd=infant products&tags=||||8211.142|Price|product|||TS|rsf:gd-|-stype:attr=1|qr_nm:gd|res:RC4|com-cf:nl|ptrs:na|ktp:N0|mc:120855|mtp:S|qry_typ:P|lang:en|wc:2|cs:8885|v=4,Parass Trading,https://www.indiamart.com/parasstrading/?pos=36&kwd=infant products&tags=||||8211.142|Price|product|||TS|rsf:gd-|-stype:attr=1|qr_nm:gd|res:RC4|com-cf:nl|ptrs:na|ktp:N0|mc:120855|mtp:S|qry_typ:P|lang:en|wc:2|cs:8885|v=4,FALSE,Chembur,Mumbai,"Room no 3, First Floor, Plot no 39, Next to Shivaji Nagar police station,Kherwadi Plot no 39, Chembur, Mumbai - 400071, Dist.Mumbai, Maharashtra",8047631170,
"Chhote Janab Infant Wear Baby Cotton Reusable Diaper Pads, Size: Standard, Age Group: 3-12 Months",https://www.indiamart.com/proddetail/baby-cotton-reusable-diaper-pads-21789986991.html?pos=37&kwd=infant products&tags=||||8752.144|Price|product|||TS|rsf:gd-|-stype:attr=1|qr_nm:gd|res:RC4|com-cf:nl|ptrs:na|ktp:N0|mc:120855|mtp:S|qry_typ:P|lang:en|wc:2|cs:8885|v=4,Shree Balaji Infant Wear,https://www.indiamart.com/chhotejanab/?pos=37&kwd=infant products&tags=||||8752.144|Price|product|||TS|rsf:gd-|-stype:attr=1|qr_nm:gd|res:RC4|com-cf:nl|ptrs:na|ktp:N0|mc:120855|mtp:S|qry_typ:P|lang:en|wc:2|cs:8885|v=4,FALSE,Pahari Dhiraj,New Delhi,"1583- 84, Hathi Khana, Aziz Ganj, Bahadur Garh Road, Pahari Dhiraj, New Delhi - 110006, Dist.Delhi, Delhi",8047639754,
100% Cotton Muslin Sleeveless Frock,https://www.indiamart.com/proddetail/100-cotton-muslin-sleeveless-frock-25391961691.html?pos=38&kwd=infant products&tags=||||8706.263|Price|product|||TS|rsf:gd-|-stype:attr=1|qr_nm:gd|res:RC4|com-cf:nl|ptrs:na|ktp:N0|mc:120855|mtp:S|qry_typ:P|lang:en|wc:2|cs:8885|v=4,Sivam Export,https://www.indiamart.com/sivamexport-karur/?pos=38&kwd=infant products&tags=||||8706.263|Price|product|||TS|rsf:gd-|-stype:attr=1|qr_nm:gd|res:RC4|com-cf:nl|ptrs:na|ktp:N0|mc:120855|mtp:S|qry_typ:P|lang:en|wc:2|cs:8885|v=4,FALSE,,Karur,"6/1 Thiru Nagar,3rd Street, Karur - 639002, Dist.Karur, Tamil Nadu",8046050918,
"Albedo Multicolor Organic Cotton Baby Muslin Cloth Swaddle, Toddlers",https://www.indiamart.com/proddetail/organic-cotton-baby-muslin-cloth-swaddle-23850858133.html?pos=39&kwd=infant products&tags=||||8668.838|Price|product|||TS|rsf:gd-|-stype:attr=1|qr_nm:gd|res:RC4|com-cf:nl|ptrs:na|ktp:N0|mc:120855|mtp:S|qry_typ:P|lang:en|wc:2|cs:8885|v=4,Meenu's Manchesters,https://www.hotelbedsheet.in/?pos=39&kwd=infant products&tags=||||8668.838|Price|product|||TS|rsf:gd-|-stype:attr=1|qr_nm:gd|res:RC4|com-cf:nl|ptrs:na|ktp:N0|mc:120855|mtp:S|qry_typ:P|lang:en|wc:2|cs:8885|v=4,FALSE,Edayankattuvalsu,Erode,"26, Nggo Colony, 1, Edayankattuvalsu, Erode - 638009, Dist.Erode, Tamil Nadu",8048609221,
Printed Alphabet Foam Mat,https://www.indiamart.com/proddetail/alphabet-foam-mat-2854241348062.html?pos=40&kwd=infant products&tags=||||8228.275|Price|product|||TS|rsf:gd-|-stype:attr=1|qr_nm:gd|res:RC4|com-cf:nl|ptrs:na|ktp:N0|mc:120855|mtp:S|qry_typ:P|lang:en|wc:2|cs:8885|v=4,Ragun Care Private Limited,https://www.indiamart.com/raguncare/?pos=40&kwd=infant products&tags=||||8228.275|Price|product|||TS|rsf:gd-|-stype:attr=1|qr_nm:gd|res:RC4|com-cf:nl|ptrs:na|ktp:N0|mc:120855|mtp:S|qry_typ:P|lang:en|wc:2|cs:8885|v=4,FALSE,Changodar,Ahmedabad,"Second Floor 237 Sarkhej Bavla Road Shree Sharan Business Park Changodar, Changodar, Ahmedabad - 382213, Dist.Ahmedabad, Gujarat",8043802755,
Printed 6 colour Baby Towel,https://www.indiamart.com/proddetail/baby-towel-2852168746197.html?pos=41&kwd=infant products&tags=||||8626.744|Price|product|||TS|rsf:gd-|-stype:attr=1|qr_nm:gd|res:RC4|com-cf:nl|ptrs:na|ktp:N0|mc:120855|mtp:S|qry_typ:P|lang:en|wc:2|cs:8885|v=4,Prido Apparel,https://www.indiamart.com/prido-apparel/?pos=41&kwd=infant products&tags=||||8626.744|Price|product|||TS|rsf:gd-|-stype:attr=1|qr_nm:gd|res:RC4|com-cf:nl|ptrs:na|ktp:N0|mc:120855|mtp:S|qry_typ:P|lang:en|wc:2|cs:8885|v=4,FALSE,Poyampalayam,Tiruppur,"324-A, Dr.Radhakrishnan Nagar North, Pitchampalayam Pudur, P.N.Road, Poyampalayam, Tiruppur - 641603, Dist.Coimbatore, Tamil Nadu",7942867055,
Kids Play Mat,https://www.indiamart.com/proddetail/kids-play-mat-23954321088.html?pos=42&kwd=infant products&tags=||||8752.144|Price|product|||TS|rsf:gd-|-stype:attr=1|qr_nm:gd|res:RC4|com-cf:nl|ptrs:na|ktp:N0|mc:120855|mtp:S|qry_typ:P|lang:en|wc:2|cs:8885|v=4,Ankit Polymers,https://www.ankitpolymers.com/?pos=42&kwd=infant products&tags=||||8752.144|Price|product|||TS|rsf:gd-|-stype:attr=1|qr_nm:gd|res:RC4|com-cf:nl|ptrs:na|ktp:N0|mc:120855|mtp:S|qry_typ:P|lang:en|wc:2|cs:8885|v=4,FALSE,Mangolpuri,New Delhi,"T-2/160, Phase-1, Mangolpuri Industrial Area, Mangolpuri, New Delhi - 110083, Dist.Delhi, Delhi",8046059020,
Silicone Rattle Handle Baby Teether,https://www.indiamart.com/proddetail/silicone-rattle-handle-baby-teether-2852749434462.html?pos=43&kwd=infant products&tags=CC||||8752.144|Price|product|||MDC|rsf:gd-|-stype:attr=1|qr_nm:gd|res:RC4|com-cf:nl|ptrs:na|ktp:N0|mc:120855|mtp:S|qry_typ:P|lang:en|wc:2|cs:8885|v=4,DR. Nigams Clinic Private Limited,https://www.indiamart.com/drdad-newdelhi/?pos=43&kwd=infant products&tags=CC||||8752.144|Price|product|||MDC|rsf:gd-|-stype:attr=1|qr_nm:gd|res:RC4|com-cf:nl|ptrs:na|ktp:N0|mc:120855|mtp:S|qry_typ:P|lang:en|wc:2|cs:8885|v=4,FALSE,Kailash Hill,New Delhi,"107 G/F F/F, Kailash Hills, Near OBS Bank, Kailash Hill, New Delhi - 110065, Dist.Delhi, Delhi",7942716962,
"Suvarnasthmanagal Ghrut SUVARNPRASHAN, 15 ML Drop Bottle",https://www.indiamart.com/proddetail/suvarnasthmanagal-ghrut-suvarnprashan-21160659997.html?pos=44&kwd=infant products&tags=CC||||8383.764|Price|product|||MDC|rsf:gd-|-stype:attr=1|qr_nm:gd|res:RC4|com-cf:nl|ptrs:na|ktp:N0|mc:120855|mtp:S|qry_typ:P|lang:en|wc:2|cs:8885|v=4,Vishwachaitnya Ayurvediya Rasashala,https://www.indiamart.com/vishwachaitnya-ayurvediya-rasashala/?pos=44&kwd=infant products&tags=CC||||8383.764|Price|product|||MDC|rsf:gd-|-stype:attr=1|qr_nm:gd|res:RC4|com-cf:nl|ptrs:na|ktp:N0|mc:120855|mtp:S|qry_typ:P|lang:en|wc:2|cs:8885|v=4,FALSE,Dorlewadi,Baramati,"108, Near PVPL Katphal, Baramati MIDC Near Airport, Dorlewadi, Baramati - 413102, Dist.Pune, Maharashtra",8046030785,
Ize Jelly Balm 7ml,https://www.indiamart.com/proddetail/ize-jelly-balm-7ml-2854454011797.html?pos=45&kwd=infant products&tags=CC||||8718.106|Price|product|||MDC|rsf:gd-|-stype:attr=1|qr_nm:gd|res:RC4|com-cf:nl|ptrs:na|ktp:N0|mc:120855|mtp:S|qry_typ:P|lang:en|wc:2|cs:8885|v=4,S A S Traders,https://www.indiamart.com/sas-traders-dharmapuri/?pos=45&kwd=infant products&tags=CC||||8718.106|Price|product|||MDC|rsf:gd-|-stype:attr=1|qr_nm:gd|res:RC4|com-cf:nl|ptrs:na|ktp:N0|mc:120855|mtp:S|qry_typ:P|lang:en|wc:2|cs:8885|v=4,FALSE,,Dharmapuri,"No 18 B, Kumarapuri Colony, Bharathipuram, Dharmapuri - 636705, Tamil Nadu",8045736480,
6ml Mother Sparsh Tummy Roll On,https://www.indiamart.com/proddetail/6ml-mother-sparsh-tummy-roll-on-2854981175430.html?pos=46&kwd=infant products&tags=||||8584.299|Price|product|||MDC|rsf:gd-|-stype:attr=1|qr_nm:gd|res:RC4|com-cf:nl|ptrs:na|ktp:N0|mc:120855|mtp:S|qry_typ:P|lang:en|wc:2|cs:8885|v=4,Vino Mani Enterprises,https://www.indiamart.com/vino-mani-enterprises/?pos=46&kwd=infant products&tags=||||8584.299|Price|product|||MDC|rsf:gd-|-stype:attr=1|qr_nm:gd|res:RC4|com-cf:nl|ptrs:na|ktp:N0|mc:120855|mtp:S|qry_typ:P|lang:en|wc:2|cs:8885|v=4,FALSE,,Coimbatore,"No 89A, NA, Azad Road, R S Puram, Coimbatore - 641002, Dist.Coimbatore, Tamil Nadu",7942546353,
"Sma Pro First Infant Milk, Packaging Type: Carton",https://www.indiamart.com/proddetail/sma-pro-first-infant-milk-2852490039530.html?pos=47&kwd=infant products&tags=||||8211.142|Price|product|||TS|rsf:gd-|-stype:attr=1|qr_nm:gd|res:RC4|com-cf:nl|ptrs:na|ktp:N0|mc:120855|mtp:S|qry_typ:P|lang:en|wc:2|cs:8885|v=4,Mabel The Fashion Hub,https://www.mabelbabies.com/?pos=47&kwd=infant products&tags=||||8211.142|Price|product|||TS|rsf:gd-|-stype:attr=1|qr_nm:gd|res:RC4|com-cf:nl|ptrs:na|ktp:N0|mc:120855|mtp:S|qry_typ:P|lang:en|wc:2|cs:8885|v=4,FALSE,Andheri East,Mumbai,"Shop No 1, Teresa Triumph Chs, J B Nagar, Andheri East, Mumbai - 400059, Dist.Mumbai, Maharashtra",8047635478,
Cotton Baby Bibs Set,https://www.indiamart.com/proddetail/baby-bibs-set-2854077255330.html?pos=48&kwd=infant products&tags=||||8823.154|Price|product|||TS|rsf:gd-|-stype:attr=1|qr_nm:gd|res:RC4|com-cf:nl|ptrs:na|ktp:N0|mc:120855|mtp:S|qry_typ:P|lang:en|wc:2|cs:8885|v=4,Shri Anant International,https://www.indiamart.com/shrianantinternational/?pos=48&kwd=infant products&tags=||||8823.154|Price|product|||TS|rsf:gd-|-stype:attr=1|qr_nm:gd|res:RC4|com-cf:nl|ptrs:na|ktp:N0|mc:120855|mtp:S|qry_typ:P|lang:en|wc:2|cs:8885|v=4,FALSE,DayalBagh,Agra,"No.02,House 2,Alkapuri Phase Ii,Agra, DayalBagh, Agra - 282005, Dist.Agra, Uttar Pradesh",7942721451,
"Plastic LITTLE MONKEYS BABY MILK POWDER CONTAINER, Type: Non Disposable",https://www.indiamart.com/proddetail/little-monkeys-baby-milk-powder-container-2854118718933.html?pos=49&kwd=infant products&tags=||||8752.144|Price|product|||TS|rsf:gd-|-stype:attr=1|qr_nm:gd|res:RC4|com-cf:nl|ptrs:na|ktp:N0|mc:120855|mtp:S|qry_typ:P|lang:en|wc:2|cs:8885|v=4,Ekta Overseas,https://www.indiamart.com/ektaoverseas-newdelhi/?pos=49&kwd=infant products&tags=||||8752.144|Price|product|||TS|rsf:gd-|-stype:attr=1|qr_nm:gd|res:RC4|com-cf:nl|ptrs:na|ktp:N0|mc:120855|mtp:S|qry_typ:P|lang:en|wc:2|cs:8885|v=4,FALSE,Shahdara,New Delhi,"1/95, Gali No.3, Near Navjeevan Phisical Center, Vishwas Nagar, Shahdara,, Shahdara, New Delhi - 110032, Dist.Delhi, Delhi",7942628926,
Multicolor Baby Play Mats,https://www.indiamart.com/proddetail/baby-play-mats-27622362173.html?pos=50&kwd=infant products&tags=||||8752.144|Price|product|||TS|rsf:gd-|-stype:attr=1|qr_nm:gd|res:RC4|com-cf:nl|ptrs:na|ktp:N0|mc:120855|mtp:S|qry_typ:P|lang:en|wc:2|cs:8885|v=4,Gunjan Associates,https://www.gunjaneva.com/?pos=50&kwd=infant products&tags=||||8752.144|Price|product|||TS|rsf:gd-|-stype:attr=1|qr_nm:gd|res:RC4|com-cf:nl|ptrs:na|ktp:N0|mc:120855|mtp:S|qry_typ:P|lang:en|wc:2|cs:8885|v=4,FALSE,Pitampura,New Delhi,"B 18, Mangolpuri Industrial Area, Phase 2 Mangolpuri, Pitampura, New Delhi - 110034, Dist.Delhi, Delhi",8048968082,
Babyzone Star Printed Mid Weight AC Blanket Cum Mild Winter Blanket For Baby Boys and Girls,https://www.indiamart.com/proddetail/babyzone-star-printed-mid-weight-ac-blanket-cum-mild-winter-blanket-for-baby-boys-and-girls-2851603908562.html?pos=51&kwd=infant products&tags=||||8661.854|Price|product|||TS|rsf:gd-|-stype:attr=1|qr_nm:gd|res:RC4|com-cf:nl|ptrs:na|ktp:N0|mc:120855|mtp:S|qry_typ:P|lang:en|wc:2|cs:8885|v=4,Aggarwal Creations,https://www.aggarwalcreations.com/?pos=51&kwd=infant products&tags=||||8661.854|Price|product|||TS|rsf:gd-|-stype:attr=1|qr_nm:gd|res:RC4|com-cf:nl|ptrs:na|ktp:N0|mc:120855|mtp:S|qry_typ:P|lang:en|wc:2|cs:8885|v=4,FALSE,Ramesh Nagar,Ludhiana,"Geeta Nagar, Street No. 7, Tajpur Road, Ramesh Nagar, Ludhiana - 141008, Dist.Ludhiana, Punjab",8048962321,
"Triomil Lbw Infant Low Birth Weight Formula, Packaging Type: Tin, 400 G",https://www.indiamart.com/proddetail/triomil-lbw-infant-low-birth-weight-formula-20502306888.html?pos=52&kwd=infant products&tags=||||8237.554|Price|product|||TS|rsf:gd-|-stype:attr=1|qr_nm:gd|res:RC4|com-cf:nl|ptrs:na|ktp:N0|mc:120855|mtp:S|qry_typ:P|lang:en|wc:2|cs:8885|v=4,Titus Health Tech Private Limited,https://www.indiamart.com/titushealthtech/?pos=52&kwd=infant products&tags=||||8237.554|Price|product|||TS|rsf:gd-|-stype:attr=1|qr_nm:gd|res:RC4|com-cf:nl|ptrs:na|ktp:N0|mc:120855|mtp:S|qry_typ:P|lang:en|wc:2|cs:8885|v=4,TRUE,Kalol,Gandhinagar,"Opp Viva Laboratory Rakanpur Kalol 789, Plot No 2 Opp Viva Laboratory, Kalol, Gandhinagar - 382721, Gujarat",8047645047,
New Born Baby Bib,https://www.indiamart.com/proddetail/new-born-baby-bib-2854991976488.html?pos=53&kwd=infant products&tags=||||8242.731||product|||TS|rsf:gd-|-stype:attr=1|qr_nm:gd|res:RC4|com-cf:nl|ptrs:na|ktp:N0|mc:120855|mtp:S|qry_typ:P|lang:en|wc:2|cs:8885|v=4,Om Traders,https://www.indiamart.com/omtraders-maharashtra/?pos=53&kwd=infant products&tags=||||8242.731||product|||TS|rsf:gd-|-stype:attr=1|qr_nm:gd|res:RC4|com-cf:nl|ptrs:na|ktp:N0|mc:120855|mtp:S|qry_typ:P|lang:en|wc:2|cs:8885|v=4,FALSE,Siru Chowk,Ulhasnagar,"Sant Chellaram Market, Shop No.19, 1st Floor, Siru Chowk, Ulhasnagar - 421002, Dist.Thane, Maharashtra",7942553425,
"Unisex Cotton mix Printed Baby Romper, Multicolour",https://www.indiamart.com/proddetail/printed-baby-romper-20954338748.html?pos=54&kwd=infant products&tags=||||8752.144|Price|product|||TS|rsf:gd-|-stype:attr=1|qr_nm:gd|res:RC4|com-cf:nl|ptrs:na|ktp:N0|mc:120855|mtp:S|qry_typ:P|lang:en|wc:2|cs:8885|v=4,Dua Traders,https://www.indiamart.com/duatraders-delhi/?pos=54&kwd=infant products&tags=||||8752.144|Price|product|||TS|rsf:gd-|-stype:attr=1|qr_nm:gd|res:RC4|com-cf:nl|ptrs:na|ktp:N0|mc:120855|mtp:S|qry_typ:P|lang:en|wc:2|cs:8885|v=4,FALSE,Mandoli,New Delhi,"Plot No. 8, Kh No. 4/24, Mela Ram Vatika, E-block, JR Complex No. 4, Mandoli, Sevadham, Mandoli, New Delhi - 110093, Dist.Delhi, Delhi",8048971741,
Multicolor Kids Play Mat 4 Ft x 6 Ft,https://www.indiamart.com/proddetail/kids-play-mat-4-ft-x-6-ft-26243611591.html?pos=55&kwd=infant products&tags=||||8752.144|Price|product|||TS|rsf:gd-|-stype:attr=1|qr_nm:gd|res:RC4|com-cf:nl|ptrs:na|ktp:N0|mc:120855|mtp:S|qry_typ:P|lang:en|wc:2|cs:8885|v=4,Paramount Foams Private Limited.,https://www.paramountfoams.co.in/?pos=55&kwd=infant products&tags=||||8752.144|Price|product|||TS|rsf:gd-|-stype:attr=1|qr_nm:gd|res:RC4|com-cf:nl|ptrs:na|ktp:N0|mc:120855|mtp:S|qry_typ:P|lang:en|wc:2|cs:8885|v=4,FALSE,Pitampura,New Delhi,"350, 2nd Floor, Tarun Enclave, Pitampura, New Delhi - 110034, Dist.Delhi, Delhi",8043815404,
200g Tinymil LF Infant Milk Powder,https://www.indiamart.com/proddetail/200g-tinymil-lf-infant-milk-powder-2853476240048.html?pos=56&kwd=infant products&tags=||||8228.275|Price|product|||MDC|rsf:gd-|-stype:attr=1|qr_nm:gd|res:RC4|com-cf:nl|ptrs:na|ktp:N0|mc:120855|mtp:S|qry_typ:P|lang:en|wc:2|cs:8885|v=4,Cura Healthcare,https://www.indiamart.com/cura-healthcare/?pos=56&kwd=infant products&tags=||||8228.275|Price|product|||MDC|rsf:gd-|-stype:attr=1|qr_nm:gd|res:RC4|com-cf:nl|ptrs:na|ktp:N0|mc:120855|mtp:S|qry_typ:P|lang:en|wc:2|cs:8885|v=4,FALSE,Vastrapur,Ahmedabad,"B 401,Lakeview Towers,OPP VASTRAPUR LAKE,Ahmedabad, Vastrapur, Ahmedabad - 380015, Dist.Ahmedabad, Gujarat",7949093240,
Infant Muslin Reusable Clothes Nappy,https://www.indiamart.com/proddetail/infant-muslin-reusable-clothes-nappy-2853401913033.html?pos=57&kwd=infant products&tags=||||8307.81|Price|product|||TS|rsf:gd-|-stype:attr=1|qr_nm:gd|res:RC4|com-cf:nl|ptrs:na|ktp:N0|mc:120855|mtp:S|qry_typ:P|lang:en|wc:2|cs:8885|v=4,Lazytoddler Solutions Private Limited,https://www.indiamart.com/lazytoddler-solutions/?pos=57&kwd=infant products&tags=||||8307.81|Price|product|||TS|rsf:gd-|-stype:attr=1|qr_nm:gd|res:RC4|com-cf:nl|ptrs:na|ktp:N0|mc:120855|mtp:S|qry_typ:P|lang:en|wc:2|cs:8885|v=4,FALSE,Wakad,Pune,"A2-1001, Fl-A1, Behind Madhuban Hotel, S.No-40, Armada Parkhe Wasti, Wakad, Wakad, Pune - 411057, Dist.Pune, Maharashtra",8043819563,
Cotton Kids Bath Towel,https://www.indiamart.com/proddetail/kids-bath-towel-19103634530.html?pos=58&kwd=infant products&tags=||||8752.144|Price|product|||TS|rsf:gd-|-stype:attr=1|qr_nm:gd|res:RC4|com-cf:nl|ptrs:na|ktp:N0|mc:120855|mtp:S|qry_typ:P|lang:en|wc:2|cs:8885|v=4,Krishna Handloom,https://www.krishnahandloom.co.in/?pos=58&kwd=infant products&tags=||||8752.144|Price|product|||TS|rsf:gd-|-stype:attr=1|qr_nm:gd|res:RC4|com-cf:nl|ptrs:na|ktp:N0|mc:120855|mtp:S|qry_typ:P|lang:en|wc:2|cs:8885|v=4,FALSE,Tilak Nagar,New Delhi,"First Floor, 54/9, Ashok Nagar Opposite Jankie Vaishno Dhaba, Tilak Nagar, New Delhi - 110018, Dist.Delhi, Delhi",8048982699,
Baby Bib,https://www.indiamart.com/proddetail/baby-bib-2851518483373.html?pos=59&kwd=infant products&tags=||||8752.144|Price|product|||TS|rsf:gd-|-stype:attr=1|qr_nm:gd|res:RC4|com-cf:nl|ptrs:na|ktp:N0|mc:120855|mtp:S|qry_typ:P|lang:en|wc:2|cs:8885|v=4,National Overseas,https://www.indiamart.com/nationaltraders-vishwashnagar/?pos=59&kwd=infant products&tags=||||8752.144|Price|product|||TS|rsf:gd-|-stype:attr=1|qr_nm:gd|res:RC4|com-cf:nl|ptrs:na|ktp:N0|mc:120855|mtp:S|qry_typ:P|lang:en|wc:2|cs:8885|v=4,FALSE,Shahdara,New Delhi,"1/99, Gali No. 3, Vishwas Nagar, Shahdara, New Delhi - 110032, Dist.Delhi, Delhi",8046047673,
Cotton Printed BORN BABY MUSLIN SWADDLE,https://www.indiamart.com/proddetail/born-baby-muslin-swaddle-2851209756133.html?pos=60&kwd=infant products&tags=||||8668.838|Price|product|||TS|rsf:gd-|-stype:attr=1|qr_nm:gd|res:RC4|com-cf:nl|ptrs:na|ktp:N0|mc:120855|mtp:S|qry_typ:P|lang:en|wc:2|cs:8885|v=4,Ram Textiles,https://www.indiamart.com/ram-textiles/?pos=60&kwd=infant products&tags=||||8668.838|Price|product|||TS|rsf:gd-|-stype:attr=1|qr_nm:gd|res:RC4|com-cf:nl|ptrs:na|ktp:N0|mc:120855|mtp:S|qry_typ:P|lang:en|wc:2|cs:8885|v=4,FALSE,Veerappanchatram,Erode,"No. 131, M. G. R. Street-1, Veerappanchatram, Veerappanchatram, Erode - 638004, Dist.Erode, Tamil Nadu",8048611846,
Printed Cotton Baby Bib,https://www.indiamart.com/proddetail/printed-cotton-baby-bib-2850804869255.html?pos=61&kwd=infant products&tags=||||8752.144|Price|product|||MDC|rsf:gd-|-stype:attr=1|qr_nm:gd|res:RC4|com-cf:nl|ptrs:na|ktp:N0|mc:120855|mtp:S|qry_typ:P|lang:en|wc:2|cs:8885|v=4,Mahi Hosiery,https://www.indiamart.com/mahi-hosierydelhi/?pos=61&kwd=infant products&tags=||||8752.144|Price|product|||MDC|rsf:gd-|-stype:attr=1|qr_nm:gd|res:RC4|com-cf:nl|ptrs:na|ktp:N0|mc:120855|mtp:S|qry_typ:P|lang:en|wc:2|cs:8885|v=4,FALSE,Shastri Nagar,New Delhi,"144, Second Floor, Gali No-5, New Main Road, New Lahore Colony, Shastri Nagar, Shastri Nagar, New Delhi - 110031, Dist.Delhi, Delhi",8047699176,
"Bio-Organic Food Murli Milk Powder, Pack Size: 25 Kg, Packaging Type: Bag",https://www.indiamart.com/proddetail/bio-organic-food-murli-milk-powder-pack-size-25-kg-packaging-type-bag-21281518212.html?pos=62&kwd=infant products&tags=||||8752.144|Price|product|||TS|rsf:gd-|-stype:attr=1|qr_nm:gd|res:RC4|com-cf:nl|ptrs:na|ktp:N0|mc:120855|mtp:S|qry_typ:P|lang:en|wc:2|cs:8885|v=4,Thakur Brothers,https://www.indiamart.com/thakurbrothers-delhi/?pos=62&kwd=infant products&tags=||||8752.144|Price|product|||TS|rsf:gd-|-stype:attr=1|qr_nm:gd|res:RC4|com-cf:nl|ptrs:na|ktp:N0|mc:120855|mtp:S|qry_typ:P|lang:en|wc:2|cs:8885|v=4,FALSE,Chandni Chowk,New Delhi,"1479, S P Mukherjee Marg, Chandni Chowk, New Delhi - 110006, Dist.Delhi, Delhi",8047632705,
"Cotton Baby White Bib, Newly Born",https://www.indiamart.com/proddetail/baby-white-bib-2850156213848.html?pos=63&kwd=infant products&tags=||||8752.144|Price|product|||MDC|rsf:gd-|-stype:attr=1|qr_nm:gd|res:RC4|com-cf:nl|ptrs:na|ktp:N0|mc:120855|mtp:S|qry_typ:P|lang:en|wc:2|cs:8885|v=4,Kidz Creation,https://www.indiamart.com/kidzcreation/?pos=63&kwd=infant products&tags=||||8752.144|Price|product|||MDC|rsf:gd-|-stype:attr=1|qr_nm:gd|res:RC4|com-cf:nl|ptrs:na|ktp:N0|mc:120855|mtp:S|qry_typ:P|lang:en|wc:2|cs:8885|v=4,FALSE,,New Delhi,"Shop No. 279/517,Sabharwal Market, Tolia Wali Gali Sadar Bazar, North Delhi,, New Delhi - 110006, Dist.Delhi, Delhi",8047679212,
Plain Multicolor Trendbell Baby Hooded Towel,https://www.indiamart.com/proddetail/trendbell-baby-hooded-towel-25752602412.html?pos=64&kwd=infant products&tags=||||8741.812|Price|product|||TS|rsf:gd-|-stype:attr=1|qr_nm:gd|res:RC4|com-cf:nl|ptrs:na|ktp:N0|mc:120855|mtp:S|qry_typ:P|lang:en|wc:2|cs:8885|v=4,TrendBell Global,https://www.trendbellglobal.in/?pos=64&kwd=infant products&tags=||||8741.812|Price|product|||TS|rsf:gd-|-stype:attr=1|qr_nm:gd|res:RC4|com-cf:nl|ptrs:na|ktp:N0|mc:120855|mtp:S|qry_typ:P|lang:en|wc:2|cs:8885|v=4,TRUE,Sector 57,Gurgaon,"Sector - 56, Sector 57, Gurgaon - 122011, Dist.Gurgaon, Haryana",8046063207,
Soft Woven Cotton White Baby Wipe,https://www.indiamart.com/proddetail/baby-wipe-11104400055.html?pos=65&kwd=infant products&tags=CC||||8954.051|Price|product|||TS|rsf:gd-|-stype:attr=1|qr_nm:gd|res:RC4|com-cf:nl|ptrs:na|ktp:N0|mc:120855|mtp:S|qry_typ:P|lang:en|wc:2|cs:8885|v=4,Universe Surgical Equipment Co.,https://www.medicallabequipments.com/?pos=65&kwd=infant products&tags=CC||||8954.051|Price|product|||TS|rsf:gd-|-stype:attr=1|qr_nm:gd|res:RC4|com-cf:nl|ptrs:na|ktp:N0|mc:120855|mtp:S|qry_typ:P|lang:en|wc:2|cs:8885|v=4,FALSE,Park Town,Chennai,"21,,NYNIAPPAN STREET,PARK TOWNCHENNAI, Park Town, Chennai - 600003, Dist.Chennai, Tamil Nadu",8048989078,
"White Sebamed, Packaging Type: Packet, Newly Born",https://www.indiamart.com/proddetail/sebamed-23085412591.html?pos=66&kwd=infant products&tags=CC||||10180.86|Price|product|||TS|rsf:gd-|-stype:attr=1|qr_nm:gd|res:RC4|com-cf:nl|ptrs:na|ktp:N0|mc:120855|mtp:S|qry_typ:P|lang:en|wc:2|cs:8885|v=4,THE NORTH EAST REGION VENDING SOLUTION (NERVS),https://www.indiamart.com/nervs/?pos=66&kwd=infant products&tags=CC||||10180.86|Price|product|||TS|rsf:gd-|-stype:attr=1|qr_nm:gd|res:RC4|com-cf:nl|ptrs:na|ktp:N0|mc:120855|mtp:S|qry_typ:P|lang:en|wc:2|cs:8885|v=4,FALSE,Bharalumukh,Guwahati,"HOUSE NUMBER 53 , NEAR RAILWAY GATE NUMBER 8, BHARALUMUKH, KRC ROAD, Bharalumukh, Guwahati - 781005, Dist.Kamrup, Assam",7942538832,
Baby Infant Products by Parksmith,https://www.indiamart.com/proddetail/baby-infant-products-by-parksmith-2853349377348.html?pos=67&kwd=infant products&tags=||||8752.144|Price|product|||TS|rsf:gd-|-stype:attr=1|qr_nm:gd|res:RC4|com-cf:nl|ptrs:na|ktp:N0|mc:120855|mtp:S|qry_typ:P|lang:en|wc:2|cs:8885|v=4,Orwind Mart LLP,https://www.orwindmart.com/?pos=67&kwd=infant products&tags=||||8752.144|Price|product|||TS|rsf:gd-|-stype:attr=1|qr_nm:gd|res:RC4|com-cf:nl|ptrs:na|ktp:N0|mc:120855|mtp:S|qry_typ:P|lang:en|wc:2|cs:8885|v=4,FALSE,Naraina Vihar Uday Niketan,New Delhi,"26 OP Bharti Marg,Naraina Vihar, Naraina Vihar Uday Niketan, New Delhi - 110028, Dist.Delhi, Delhi",7949091342,
BSA Rocky Baby Pram,https://www.indiamart.com/proddetail/bsa-rocky-baby-pram-4345541573.html?pos=68&kwd=infant products&tags=CC||||8752.144|Price|product|||MDC|rsf:gd-|-stype:attr=1|qr_nm:gd|res:RC4|com-cf:nl|ptrs:na|ktp:N0|mc:120855|mtp:S|qry_typ:P|lang:en|wc:2|cs:8885|v=4,Bajaj Bicycle Company,https://www.indiamart.com/bajajbicycle/?pos=68&kwd=infant products&tags=CC||||8752.144|Price|product|||MDC|rsf:gd-|-stype:attr=1|qr_nm:gd|res:RC4|com-cf:nl|ptrs:na|ktp:N0|mc:120855|mtp:S|qry_typ:P|lang:en|wc:2|cs:8885|v=4,FALSE,Dilshad Garden,New Delhi,"O-35-A-1, Dilshad Garden, Dilshad Garden, New Delhi - 110095, Dist.Delhi, Delhi",8048600091,
"White Infant Bed, Age Group: 0-2",https://www.indiamart.com/proddetail/infant-bed-22049253955.html?pos=69&kwd=infant products&tags=||||8752.144||product|||TS|rsf:gd-|-stype:attr=1|qr_nm:gd|res:RC4|com-cf:nl|ptrs:na|ktp:N0|mc:120855|mtp:S|qry_typ:P|lang:en|wc:2|cs:8885|v=4,Fairbizps,https://www.indiamart.com/fairbizps/?pos=69&kwd=infant products&tags=||||8752.144||product|||TS|rsf:gd-|-stype:attr=1|qr_nm:gd|res:RC4|com-cf:nl|ptrs:na|ktp:N0|mc:120855|mtp:S|qry_typ:P|lang:en|wc:2|cs:8885|v=4,TRUE,Laxmi Nagar,New Delhi,"No. 348/4A, Asha Ram, Street No. 4, Subedar Chowk Mandawali, Laxmi Nagar, New Delhi - 110092, Dist.Delhi, Delhi",8048610174,
"Flower white Hand Block Printed Waffle Towel, Size: 30x60",https://www.indiamart.com/proddetail/hand-block-printed-waffle-towel-2852592239197.html?pos=70&kwd=infant products&tags=||||8601.347|Price|product|||TS|rsf:gd-|-stype:attr=1|qr_nm:gd|res:RC4|com-cf:nl|ptrs:na|ktp:N0|mc:120855|mtp:S|qry_typ:P|lang:en|wc:2|cs:8885|v=4,Veer Handircrafts,https://www.veerhandicrafts.com/?pos=70&kwd=infant products&tags=||||8601.347|Price|product|||TS|rsf:gd-|-stype:attr=1|qr_nm:gd|res:RC4|com-cf:nl|ptrs:na|ktp:N0|mc:120855|mtp:S|qry_typ:P|lang:en|wc:2|cs:8885|v=4,TRUE,Shyam Nagar,Jaipur,"Basement, 192/331, Sector 19, Kumbha Marg, Shyam Nagar, Jaipur - 302029, Dist.Jaipur, Rajasthan",8043851762,
Silicone Baby Waterproof bib with catcher washable and detachable tray,https://www.indiamart.com/proddetail/baby-waterproof-bib-with-catcher-washable-and-detachable-tray-2854949272248.html?pos=71&kwd=infant products&tags=||||8752.144|Price|product|||MDC|rsf:gd-|-stype:attr=1|qr_nm:gd|res:RC4|com-cf:nl|ptrs:na|ktp:N0|mc:120855|mtp:S|qry_typ:P|lang:en|wc:2|cs:8885|v=4,Priyanshi International,https://www.indiamart.com/priyanshi-international-uttarpradesh/?pos=71&kwd=infant products&tags=||||8752.144|Price|product|||MDC|rsf:gd-|-stype:attr=1|qr_nm:gd|res:RC4|com-cf:nl|ptrs:na|ktp:N0|mc:120855|mtp:S|qry_typ:P|lang:en|wc:2|cs:8885|v=4,FALSE,,New Delhi,"3,PROP NO S228,SCHOOL BLOCK,SHAKARPUR UGF, 3, Prop No S228, School Block, Shakarpur,110092, New Delhi - 110092, Dist.Delhi, Delhi",7942676139,
Baby Sky Blue Cotton Bib,https://www.indiamart.com/proddetail/baby-sky-blue-cotton-bib-2855065065591.html?pos=72&kwd=infant products&tags=||||8752.144|Price|product|||MDC|rsf:gd-|-stype:attr=1|qr_nm:gd|res:RC4|com-cf:nl|ptrs:na|ktp:N0|mc:120855|mtp:S|qry_typ:P|lang:en|wc:2|cs:8885|v=4,Madhav Hosiery,https://www.indiamart.com/madhav-hosiery-newdelhi/?pos=72&kwd=infant products&tags=||||8752.144|Price|product|||MDC|rsf:gd-|-stype:attr=1|qr_nm:gd|res:RC4|com-cf:nl|ptrs:na|ktp:N0|mc:120855|mtp:S|qry_typ:P|lang:en|wc:2|cs:8885|v=4,FALSE,,New Delhi,"First Floor, 106, 1, Sunder Park, Shastri Nagar, East Delhi, New Delhi - 110031, Dist.Delhi, Delhi",7949307518,
"Newborn Baby Reusable Clothes Diapers / langot, Size: Medium, Age Group: Newly Born",https://www.indiamart.com/proddetail/infant-reusable-baby-nappies-2853435313191.html?pos=73&kwd=infant products&tags=||||8559.269|Price|product|||MDC|rsf:gd-|-stype:attr=1|qr_nm:gd|res:RC4|com-cf:nl|ptrs:na|ktp:N0|mc:120855|mtp:S|qry_typ:P|lang:en|wc:2|cs:8885|v=4,Sheza Enterprises,https://www.indiamart.com/shezaenterprises/?pos=73&kwd=infant products&tags=||||8559.269|Price|product|||MDC|rsf:gd-|-stype:attr=1|qr_nm:gd|res:RC4|com-cf:nl|ptrs:na|ktp:N0|mc:120855|mtp:S|qry_typ:P|lang:en|wc:2|cs:8885|v=4,FALSE,,Indore,"Alif House, 5, Khajrana Main Road, Opposite HP Petrol Pump,, Indore - 452001, Dist.Indore, Madhya Pradesh",7948547068,
"Baby bibs, 3-12 Months",https://www.indiamart.com/proddetail/baby-bibs-2854160666491.html?pos=74&kwd=infant products&tags=||||8580.032|Price|product|||TS|rsf:gd-|-stype:attr=1|qr_nm:gd|res:RC4|com-cf:nl|ptrs:na|ktp:N0|mc:120855|mtp:S|qry_typ:P|lang:en|wc:2|cs:8885|v=4,Ritu Infants Care,https://www.indiamart.com/ritu-infants-care/?pos=74&kwd=infant products&tags=||||8580.032|Price|product|||TS|rsf:gd-|-stype:attr=1|qr_nm:gd|res:RC4|com-cf:nl|ptrs:na|ktp:N0|mc:120855|mtp:S|qry_typ:P|lang:en|wc:2|cs:8885|v=4,FALSE,Sunder Nagar,Amritsar,"232, Tilak Nagar, Shivala Colony, Sunder Nagar, Amritsar - 143001, Dist.Amritsar, Punjab",7942712512,
Button Bib,https://www.indiamart.com/proddetail/button-bib-2849632767988.html?pos=75&kwd=infant products&tags=||||8752.144|Price|product|||TS|rsf:gd-|-stype:attr=1|qr_nm:gd|res:RC4|com-cf:nl|ptrs:na|ktp:N0|mc:120855|mtp:S|qry_typ:P|lang:en|wc:2|cs:8885|v=4,Chinmay Kids,https://www.indiamart.com/chinmaykids/?pos=75&kwd=infant products&tags=||||8752.144|Price|product|||TS|rsf:gd-|-stype:attr=1|qr_nm:gd|res:RC4|com-cf:nl|ptrs:na|ktp:N0|mc:120855|mtp:S|qry_typ:P|lang:en|wc:2|cs:8885|v=4,FALSE,Nayagaon,New Delhi,"C-99, Street No. 4, First Pusta, Nayagaon, New Delhi - 110053, Dist.Delhi, Delhi",8046054858,
Green (base) Cotton Baby Apron Bib,https://www.indiamart.com/proddetail/baby-apron-bib-16966373133.html?pos=76&kwd=infant products&tags=||||8752.144|Price|product|||TS|rsf:gd-|-stype:attr=1|qr_nm:gd|res:RC4|com-cf:nl|ptrs:na|ktp:N0|mc:120855|mtp:S|qry_typ:P|lang:en|wc:2|cs:8885|v=4,Anand Garments Pvt Ltd,https://www.indiamart.com/anand-garments-newdelhi/?pos=76&kwd=infant products&tags=||||8752.144|Price|product|||TS|rsf:gd-|-stype:attr=1|qr_nm:gd|res:RC4|com-cf:nl|ptrs:na|ktp:N0|mc:120855|mtp:S|qry_typ:P|lang:en|wc:2|cs:8885|v=4,FALSE,mundka,New Delhi,"Plot No-276, Area Pocket-m Sector-1, Dsiidc Bawana,, mundka, New Delhi - 110039, Dist.Delhi, Delhi",8048262855,
Silicone Baby Bibs,https://www.indiamart.com/proddetail/silicone-baby-bibs-2854013903133.html?pos=77&kwd=infant products&tags=||||8038.093|Price|product|||MDC|rsf:gd-|-stype:attr=1|qr_nm:gd|res:RC4|com-cf:nl|ptrs:na|ktp:N0|mc:120855|mtp:S|qry_typ:P|lang:en|wc:2|cs:8885|v=4,Glister Corporation,https://www.indiamart.com/glistercorporation-gujarat/?pos=77&kwd=infant products&tags=||||8038.093|Price|product|||MDC|rsf:gd-|-stype:attr=1|qr_nm:gd|res:RC4|com-cf:nl|ptrs:na|ktp:N0|mc:120855|mtp:S|qry_typ:P|lang:en|wc:2|cs:8885|v=4,FALSE,Sri Ram Krupa,Rajkot,"Plot No 1,Shed 1/1,Bhumeshawar Ind Area Nr, Om Eng Works,GN RD Kothariya, Sri Ram Krupa, Rajkot - 360002, Dist.Rajkot, Gujarat",7942818763,
Printed Newborn Baby Mattresse,https://www.indiamart.com/proddetail/printed-newborn-baby-mattresse-2851499920791.html?pos=78&kwd=infant products&tags=||||8230.883|Price|product|||TS|rsf:gd-|-stype:attr=1|qr_nm:gd|res:RC4|com-cf:nl|ptrs:na|ktp:N0|mc:120855|mtp:S|qry_typ:P|lang:en|wc:2|cs:8885|v=4,Maa Kiran Handloom & Jiyana,https://www.indiamart.com/maakiranhandloomjiyana/?pos=78&kwd=infant products&tags=||||8230.883|Price|product|||TS|rsf:gd-|-stype:attr=1|qr_nm:gd|res:RC4|com-cf:nl|ptrs:na|ktp:N0|mc:120855|mtp:S|qry_typ:P|lang:en|wc:2|cs:8885|v=4,FALSE,Udhana,Surat,"Shop No.17, Ground Floor, Astha Business Centre, Canal Road,, Udhana, Surat - 394185, Dist.Surat, Gujarat",7942788374,
EVA White Folding Baby Play Mat,https://www.indiamart.com/proddetail/folding-baby-play-mat-2849081629073.html?pos=79&kwd=infant products&tags=||||8230.883|Price|product|||TS|rsf:gd-|-stype:attr=1|qr_nm:gd|res:RC4|com-cf:nl|ptrs:na|ktp:N0|mc:120855|mtp:S|qry_typ:P|lang:en|wc:2|cs:8885|v=4,Homeza Sales,https://www.homezasales.com/?pos=79&kwd=infant products&tags=||||8230.883|Price|product|||TS|rsf:gd-|-stype:attr=1|qr_nm:gd|res:RC4|com-cf:nl|ptrs:na|ktp:N0|mc:120855|mtp:S|qry_typ:P|lang:en|wc:2|cs:8885|v=4,FALSE,Katargam,Surat,"Plot No-A/22, Ground Floor, Madhav Park Society, Singanpore Char Rasta, Ved Road,, Katargam, Surat - 395004, Dist.Surat, Gujarat",8047656895,
Silicone Baby Toothbrush,https://www.indiamart.com/proddetail/silicone-baby-toothbrush-2854238911348.html?pos=80&kwd=infant products&tags=||||8752.144|Price|product|||TS|rsf:gd-|-stype:attr=1|qr_nm:gd|res:RC4|com-cf:nl|ptrs:na|ktp:N0|mc:120855|mtp:S|qry_typ:P|lang:en|wc:2|cs:8885|v=4,VN Enterprise,https://www.indiamart.com/vn-enterprise-new-delhi/?pos=80&kwd=infant products&tags=||||8752.144|Price|product|||TS|rsf:gd-|-stype:attr=1|qr_nm:gd|res:RC4|com-cf:nl|ptrs:na|ktp:N0|mc:120855|mtp:S|qry_typ:P|lang:en|wc:2|cs:8885|v=4,FALSE,,New Delhi,"Wz-1013d, Gali No-13, Sadh Nagar, Palam Colony, New Delhi - 110045, Dist.Delhi, Delhi",8045734282,
PLAY MAT NEW JG SMALL,https://www.indiamart.com/proddetail/play-mat-new-jg-small-2853221597388.html?pos=81&kwd=infant products&tags=||||8211.142|Price|product|||TS|rsf:gd-|-stype:attr=1|qr_nm:gd|res:RC4|com-cf:nl|ptrs:na|ktp:N0|mc:120855|mtp:S|qry_typ:P|lang:en|wc:2|cs:8885|v=4,A.K.N Traders,https://www.akntraders.com/?pos=81&kwd=infant products&tags=||||8211.142|Price|product|||TS|rsf:gd-|-stype:attr=1|qr_nm:gd|res:RC4|com-cf:nl|ptrs:na|ktp:N0|mc:120855|mtp:S|qry_typ:P|lang:en|wc:2|cs:8885|v=4,FALSE,Mazgaon Road,Mumbai,"25th Floor, 250, Saifee Park, Mascrenhas Road, Mazogaon,, Mazgaon Road, Mumbai - 400010, Dist.Mumbai, Maharashtra",7942869187,
"Baby bibs ,Best quality baby bibs chit buttoned waterproof",https://www.indiamart.com/proddetail/baby-bibs-best-quality-baby-bibs-chit-buttoned-waterproof-2854404662191.html?pos=82&kwd=infant products&tags=||||8752.144|Price|product|||MDC|rsf:gd-|-stype:attr=1|qr_nm:gd|res:RC4|com-cf:nl|ptrs:na|ktp:N0|mc:120855|mtp:S|qry_typ:P|lang:en|wc:2|cs:8885|v=4,JMC Enterprises,https://www.indiamart.com/jmc-enterprises-newdelhi/?pos=82&kwd=infant products&tags=||||8752.144|Price|product|||MDC|rsf:gd-|-stype:attr=1|qr_nm:gd|res:RC4|com-cf:nl|ptrs:na|ktp:N0|mc:120855|mtp:S|qry_typ:P|lang:en|wc:2|cs:8885|v=4,FALSE,,New Delhi,"H.No. A-49 Ph-1, Block-A, Harsukh Prem Nagar -1, North West Delhi, New Delhi - 110086, Dist.Delhi, Delhi",8045735053,
"Silicone Baby Printed Bib, Newly Born",https://www.indiamart.com/proddetail/baby-printed-bib-2853083325430.html?pos=83&kwd=infant products&tags=||||9189.305|Price|product|||MDC|rsf:gd-|-stype:attr=1|qr_nm:gd|res:RC4|com-cf:nl|ptrs:na|ktp:N0|mc:120855|mtp:S|qry_typ:P|lang:en|wc:2|cs:8885|v=4,Sudhanjali Enterprises,https://www.indiamart.com/sudhanjalienterprises/?pos=83&kwd=infant products&tags=||||9189.305|Price|product|||MDC|rsf:gd-|-stype:attr=1|qr_nm:gd|res:RC4|com-cf:nl|ptrs:na|ktp:N0|mc:120855|mtp:S|qry_typ:P|lang:en|wc:2|cs:8885|v=4,FALSE,,Prayagraj,"H No-10/7, Basahi, Nataka Babura, Khain, Prayagraj - 212307, Dist.Allahabad, Uttar Pradesh",7942964273,
"HHPL 200g Hexafeed LF Baby Milk Powder, Packaging Type: Tin",https://www.indiamart.com/proddetail/200g-hexafeed-lf-baby-milk-powder-2852516568862.html?pos=84&kwd=infant products&tags=||||8228.275|Price|product|||MDC|rsf:gd-|-stype:attr=1|qr_nm:gd|res:RC4|com-cf:nl|ptrs:na|ktp:N0|mc:120855|mtp:S|qry_typ:P|lang:en|wc:2|cs:8885|v=4,HHPL Healthcare,https://www.indiamart.com/hhpl-healthcare/?pos=84&kwd=infant products&tags=||||8228.275|Price|product|||MDC|rsf:gd-|-stype:attr=1|qr_nm:gd|res:RC4|com-cf:nl|ptrs:na|ktp:N0|mc:120855|mtp:S|qry_typ:P|lang:en|wc:2|cs:8885|v=4,FALSE,Shanti Nagar,Ahmedabad,"5, Vinay Co-Op H Society Ltd, Near Ayodhyanagar Flat, Near Sahjivan Society, Usmanpura, Shanti Nagar, Ahmedabad - 380013, Dist.Ahmedabad, Gujarat",8047665110,
"Cotton Baby Bibs, Newly Born",https://www.indiamart.com/proddetail/cotton-baby-bibs-2854029781988.html?pos=85&kwd=infant products&tags=||||8584.299|Price|product|||TS|rsf:gd-|-stype:attr=1|qr_nm:gd|res:RC4|com-cf:nl|ptrs:na|ktp:N0|mc:120855|mtp:S|qry_typ:P|lang:en|wc:2|cs:8885|v=4,Sotexpa Qualidis Textile India Pvt. Ltd.,https://www.indiamart.com/sotexpa-qualidis-textileindia/?pos=85&kwd=infant products&tags=||||8584.299|Price|product|||TS|rsf:gd-|-stype:attr=1|qr_nm:gd|res:RC4|com-cf:nl|ptrs:na|ktp:N0|mc:120855|mtp:S|qry_typ:P|lang:en|wc:2|cs:8885|v=4,FALSE,Sulur,Coimbatore,"SF 247, Railway Feeder Road, Muthu Gounden Pudur, Sulur Taluk, Sulur, Coimbatore - 641402, Dist.Coimbatore, Tamil Nadu",8044010301,
"Cotton Unisex Born Baby Jabla Set, For Gift Purpose, Size: 0-1 Year",https://www.indiamart.com/proddetail/born-baby-jabla-set-2854236706562.html?pos=86&kwd=infant products&tags=||||8228.275|Price|product|||TS|rsf:gd-|-stype:attr=1|qr_nm:gd|res:RC4|com-cf:nl|ptrs:na|ktp:N0|mc:120855|mtp:S|qry_typ:P|lang:en|wc:2|cs:8885|v=4,King Enterprise,https://www.kingenterpriseindia.com/?pos=86&kwd=infant products&tags=||||8228.275|Price|product|||TS|rsf:gd-|-stype:attr=1|qr_nm:gd|res:RC4|com-cf:nl|ptrs:na|ktp:N0|mc:120855|mtp:S|qry_typ:P|lang:en|wc:2|cs:8885|v=4,FALSE,Opp. Haripura Bus Stand,Ahmedabad,"Block- E 28, Ground Floor, Abhishek Estate-1, Opp. Haripura Bus Stand, Ahmedabad - 380016, Dist.Ahmedabad, Gujarat",8047632934,
New Born Baby Bib,https://www.indiamart.com/proddetail/new-born-baby-bib-2850232474362.html?pos=87&kwd=infant products&tags=||||8626.744||product|||TS|rsf:gd-|-stype:attr=1|qr_nm:gd|res:RC4|com-cf:nl|ptrs:na|ktp:N0|mc:120855|mtp:S|qry_typ:P|lang:en|wc:2|cs:8885|v=4,Paras Textiles,https://www.indiamart.com/parastextiles/?pos=87&kwd=infant products&tags=||||8626.744||product|||TS|rsf:gd-|-stype:attr=1|qr_nm:gd|res:RC4|com-cf:nl|ptrs:na|ktp:N0|mc:120855|mtp:S|qry_typ:P|lang:en|wc:2|cs:8885|v=4,FALSE,Appachi Nagar,Tiruppur,"2 MP Nagar, 2nd Street, Kongu Nagar,, Appachi Nagar, Tiruppur - 641607, Dist.Coimbatore, Tamil Nadu",8046036323,
Baby Cotton Bibs,https://www.indiamart.com/proddetail/baby-cotton-bibs-27594580197.html?pos=88&kwd=infant products&tags=||||8706.263|Price|product|||TS|rsf:gd-|-stype:attr=1|qr_nm:gd|res:RC4|com-cf:nl|ptrs:na|ktp:N0|mc:120855|mtp:S|qry_typ:P|lang:en|wc:2|cs:8885|v=4,Karur Export Company,https://www.karurexportcompany.in/?pos=88&kwd=infant products&tags=||||8706.263|Price|product|||TS|rsf:gd-|-stype:attr=1|qr_nm:gd|res:RC4|com-cf:nl|ptrs:na|ktp:N0|mc:120855|mtp:S|qry_typ:P|lang:en|wc:2|cs:8885|v=4,TRUE,Sri Poonkuyil Nagar,Karur,"41, 43, Kuluthu Palayam Road, Vengamedu, Sri Poonkuyil Nagar, Karur - 639006, Dist.Karur, Tamil Nadu",8048600914,
Plastic Baby Play Gym Hanging Toys,https://www.indiamart.com/proddetail/baby-play-gym-hanging-toys-2854208428973.html?pos=89&kwd=infant products&tags=||||8752.144|Price|product|||TS|rsf:gd-|-stype:attr=1|qr_nm:gd|res:RC4|com-cf:nl|ptrs:na|ktp:N0|mc:120855|mtp:S|qry_typ:P|lang:en|wc:2|cs:8885|v=4,Indial Premium Products,https://www.indiamart.com/indial-premium-products/?pos=89&kwd=infant products&tags=||||8752.144|Price|product|||TS|rsf:gd-|-stype:attr=1|qr_nm:gd|res:RC4|com-cf:nl|ptrs:na|ktp:N0|mc:120855|mtp:S|qry_typ:P|lang:en|wc:2|cs:8885|v=4,FALSE,,New Delhi,"68, K Block, Jahangirpuri North West Delhi, New Delhi - 110033, Dist.Delhi, Delhi",8045732973,
Bib,https://www.indiamart.com/proddetail/bib-20882627888.html?pos=90&kwd=infant products&tags=||||8661.854|Price|product|||TS|rsf:gd-|-stype:attr=1|qr_nm:gd|res:RC4|com-cf:nl|ptrs:na|ktp:N0|mc:120855|mtp:S|qry_typ:P|lang:en|wc:2|cs:8885|v=4,Uncle Benit Global Inc,https://www.indiamart.com/unclebenitglobal/?pos=90&kwd=infant products&tags=||||8661.854|Price|product|||TS|rsf:gd-|-stype:attr=1|qr_nm:gd|res:RC4|com-cf:nl|ptrs:na|ktp:N0|mc:120855|mtp:S|qry_typ:P|lang:en|wc:2|cs:8885|v=4,FALSE,Mundian,Ludhiana,"Opposite Fortis Hospital, NH-95 Chandigarh Road, Mundian Khurd, Mundian, Ludhiana - 141110, Dist.Ludhiana, Punjab",8046075831,
Jabla,https://www.indiamart.com/proddetail/jabla-2852915578097.html?pos=91&kwd=infant products&tags=||||8626.744|Price|product|||TS|rsf:gd-|-stype:attr=1|qr_nm:gd|res:RC4|com-cf:nl|ptrs:na|ktp:N0|mc:120855|mtp:S|qry_typ:P|lang:en|wc:2|cs:8885|v=4,ESS ARR Kay,https://www.essarrkaygarments.com/?pos=91&kwd=infant products&tags=||||8626.744|Price|product|||TS|rsf:gd-|-stype:attr=1|qr_nm:gd|res:RC4|com-cf:nl|ptrs:na|ktp:N0|mc:120855|mtp:S|qry_typ:P|lang:en|wc:2|cs:8885|v=4,FALSE,Poyampalayam,Tiruppur,"217, DR.RADHA KRISHNAN NAGAR,, PITCHAMPALAYAM PUDUR PN road, Poyampalayam, Tiruppur - 641603, Dist.Coimbatore, Tamil Nadu",7942563096,
Plain Fabric: Cotton New Born Hospital Hooded Towel,https://www.indiamart.com/proddetail/new-born-baby-cotton-hooded-towel-26877531073.html?pos=92&kwd=infant products&tags=||||8626.744|Price|product|||MDC|rsf:gd-|-stype:attr=1|qr_nm:gd|res:RC4|com-cf:nl|ptrs:na|ktp:N0|mc:120855|mtp:S|qry_typ:P|lang:en|wc:2|cs:8885|v=4,Senthoor Tex,https://www.indiamart.com/senthoor-tex/?pos=92&kwd=infant products&tags=||||8626.744|Price|product|||MDC|rsf:gd-|-stype:attr=1|qr_nm:gd|res:RC4|com-cf:nl|ptrs:na|ktp:N0|mc:120855|mtp:S|qry_typ:P|lang:en|wc:2|cs:8885|v=4,FALSE,Tiruppur North,Tiruppur,"8/1465B RS Puram, 1 Street, Pandiyan Nagar, Puluvupatti PO, Tiruppur North, Tiruppur - 641602, Dist.Coimbatore, Tamil Nadu",8045729718,
Foam Zobro Baby Crawling Kneepads Head Protector Safety Helmet Set,https://www.indiamart.com/proddetail/zobro-baby-crawling-kneepads-head-protector-safety-helmet-set-2855006850112.html?pos=93&kwd=infant products&tags=||||8752.144|Price|product|||MDC|rsf:gd-|-stype:attr=1|qr_nm:gd|res:RC4|com-cf:nl|ptrs:na|ktp:N0|mc:120855|mtp:S|qry_typ:P|lang:en|wc:2|cs:8885|v=4,Dealsup,https://www.indiamart.com/dealsup-north-delhi/?pos=93&kwd=infant products&tags=||||8752.144|Price|product|||MDC|rsf:gd-|-stype:attr=1|qr_nm:gd|res:RC4|com-cf:nl|ptrs:na|ktp:N0|mc:120855|mtp:S|qry_typ:P|lang:en|wc:2|cs:8885|v=4,FALSE,,New Delhi,"Kamal Pur Majra, Khasra No. 7/14, Kamal Vihar, Village Burari North Delhi, New Delhi - 110084, Dist.Delhi, Delhi",7942532252,
Newly Born Printed Muslin Baby Towels,https://www.indiamart.com/proddetail/newly-born-printed-muslin-baby-towels-2855018737030.html?pos=94&kwd=infant products&tags=||||8626.744|Price|product|||MDC|rsf:gd-|-stype:attr=1|qr_nm:gd|res:RC4|com-cf:nl|ptrs:na|ktp:N0|mc:120855|mtp:S|qry_typ:P|lang:en|wc:2|cs:8885|v=4,Bawse Baby,https://www.indiamart.com/bawseebaby/?pos=94&kwd=infant products&tags=||||8626.744|Price|product|||MDC|rsf:gd-|-stype:attr=1|qr_nm:gd|res:RC4|com-cf:nl|ptrs:na|ktp:N0|mc:120855|mtp:S|qry_typ:P|lang:en|wc:2|cs:8885|v=4,FALSE,,Tiruppur,"1/125A Semmetuth Thottam, Kulathuputhur, Andipalayam, Tiruppur - 641687, Dist.Coimbatore, Tamil Nadu",8047552265,
"Hmf Sachet 1 GM PACK, Age Group: 0-6 months",https://www.indiamart.com/proddetail/hmf-sachet-1-gm-pack-2854870799697.html?pos=95&kwd=infant products&tags=||||8228.275||product|||TS|rsf:gd-|-stype:attr=1|qr_nm:gd|res:RC4|com-cf:nl|ptrs:na|ktp:N0|mc:120855|mtp:S|qry_typ:P|lang:en|wc:2|cs:8885|v=4,CALITATE ENTERPRISE PRIVATE LIMITED,https://www.indiamart.com/calitate-pharma/?pos=95&kwd=infant products&tags=||||8228.275||product|||TS|rsf:gd-|-stype:attr=1|qr_nm:gd|res:RC4|com-cf:nl|ptrs:na|ktp:N0|mc:120855|mtp:S|qry_typ:P|lang:en|wc:2|cs:8885|v=4,FALSE,Ambawadi,Ahmedabad,"706/B, Harekrishana Complex Opposite Kothawala Flat, Ashram Road, Paldi, Ambawadi, Ahmedabad - 380006, Dist.Ahmedabad, Gujarat",8047641806,
"Dark Blue Printed Infant Teddy Hooded Towels, For Bathing",https://www.indiamart.com/proddetail/infant-teddy-hooded-towels-3807179448.html?pos=96&kwd=infant products&tags=||||8752.144|Price|product|||TS|rsf:gd-|-stype:attr=1|qr_nm:gd|res:RC4|com-cf:nl|ptrs:na|ktp:N0|mc:120855|mtp:S|qry_typ:P|lang:en|wc:2|cs:8885|v=4,Man Singh & Sons Private Limited,https://www.babyproductsmanufacturer.com/?pos=96&kwd=infant products&tags=||||8752.144|Price|product|||TS|rsf:gd-|-stype:attr=1|qr_nm:gd|res:RC4|com-cf:nl|ptrs:na|ktp:N0|mc:120855|mtp:S|qry_typ:P|lang:en|wc:2|cs:8885|v=4,FALSE,Karol Bagh,New Delhi,"No. 13/24, 1st Floor, W. E. A., Karol Bagh, Karol Bagh, New Delhi - 110005, Dist.Delhi, Delhi",8048978579,
blue syga Baby Nail Clipper Scissor Set 2,https://www.indiamart.com/proddetail/syga-baby-nail-clipper-scissor-set-2-26420301688.html?pos=97&kwd=infant products&tags=||||8228.275|Price|product|||TS|rsf:gd-|-stype:attr=1|qr_nm:gd|res:RC4|com-cf:nl|ptrs:na|ktp:N0|mc:120855|mtp:S|qry_typ:P|lang:en|wc:2|cs:8885|v=4,Syga Home Furnishing,https://www.indiamart.com/sygahomefurnishing/?pos=97&kwd=infant products&tags=||||8228.275|Price|product|||TS|rsf:gd-|-stype:attr=1|qr_nm:gd|res:RC4|com-cf:nl|ptrs:na|ktp:N0|mc:120855|mtp:S|qry_typ:P|lang:en|wc:2|cs:8885|v=4,FALSE,Navrangpura,Ahmedabad,"A-503, Samudra Complex, Near Girish Cold Drinks C. G. Road, Navrangpura, Navrangpura, Ahmedabad - 380009, Dist.Ahmedabad, Gujarat",8048985837,
"Baby Kit Premium 7 Piece Set (White), For Gifting",https://www.indiamart.com/proddetail/baby-kit-premium-7-piece-set-white-2854885190233.html?pos=98&kwd=infant products&tags=||||8228.275|Price|product|||TS|rsf:gd-|-stype:attr=1|qr_nm:gd|res:RC4|com-cf:nl|ptrs:na|ktp:N0|mc:120855|mtp:S|qry_typ:P|lang:en|wc:2|cs:8885|v=4,Patoliya Exports Private Limited,https://www.indiamart.com/patoliya-exports-ahmedabad/?pos=98&kwd=infant products&tags=||||8228.275|Price|product|||TS|rsf:gd-|-stype:attr=1|qr_nm:gd|res:RC4|com-cf:nl|ptrs:na|ktp:N0|mc:120855|mtp:S|qry_typ:P|lang:en|wc:2|cs:8885|v=4,FALSE,OPP GVMM,Ahmedabad,"B-62, Bileshwar Industrial Estate, OPP GVMM, Ahmedabad - 382415, Dist.Ahmedabad, Gujarat",8044458925,
hot pink round Baby Head Shaper Pillow,https://www.indiamart.com/proddetail/baby-head-shaper-pillow-26275219491.html?pos=99&kwd=infant products&tags=||||8752.144|Price|product|||TS|rsf:gd-|-stype:attr=1|qr_nm:gd|res:RC4|com-cf:nl|ptrs:na|ktp:N0|mc:120855|mtp:S|qry_typ:P|lang:en|wc:2|cs:8885|v=4,Verma Enterprises,https://www.styaloindia.com/?pos=99&kwd=infant products&tags=||||8752.144|Price|product|||TS|rsf:gd-|-stype:attr=1|qr_nm:gd|res:RC4|com-cf:nl|ptrs:na|ktp:N0|mc:120855|mtp:S|qry_typ:P|lang:en|wc:2|cs:8885|v=4,FALSE,Samaypur,New Delhi,"Plot No.180/1-B, Kh.No. 955/1, 1st, Block-C, Raja Vihar, Siraspur, Badli, North West Delhi, Samaypur, New Delhi - 110042, Dist.Delhi, Delhi",8047654672,
Unisex Newborn Baby Bibs,https://www.indiamart.com/proddetail/newborn-baby-bibs-2852135006562.html?pos=100&kwd=infant products&tags=||||8662.111|Price|product|||TS|rsf:gd-|-stype:attr=1|qr_nm:gd|res:RC4|com-cf:nl|ptrs:na|ktp:N0|mc:120855|mtp:S|qry_typ:P|lang:en|wc:2|cs:8885|v=4,Rovee Garments,https://www.indiamart.com/rovee-garments/?pos=100&kwd=infant products&tags=||||8662.111|Price|product|||TS|rsf:gd-|-stype:attr=1|qr_nm:gd|res:RC4|com-cf:nl|ptrs:na|ktp:N0|mc:120855|mtp:S|qry_typ:P|lang:en|wc:2|cs:8885|v=4,FALSE,State Bank Colony,Tirunelveli,"70, State Bank Colony, Ezhil Nagar, Ngo A Colony, State Bank Colony, Tirunelveli - 627007, Dist.Tirunelveli, Tamil Nadu",7942840922,
Baby Cap,https://www.indiamart.com/proddetail/baby-cap-2854684251548.html?pos=101&kwd=infant products&tags=||||8626.744|Price|product|||TS|rsf:gd-|-stype:attr=1|qr_nm:gd|res:RC4|com-cf:nl|ptrs:na|ktp:N0|mc:120855|mtp:S|qry_typ:P|lang:en|wc:2|cs:8885|v=4,Richie International,https://www.indiamart.com/richieinternational/?pos=101&kwd=infant products&tags=||||8626.744|Price|product|||TS|rsf:gd-|-stype:attr=1|qr_nm:gd|res:RC4|com-cf:nl|ptrs:na|ktp:N0|mc:120855|mtp:S|qry_typ:P|lang:en|wc:2|cs:8885|v=4,FALSE,Nallur,Tiruppur,"48 Csi Colony, Nallur, Vijayapuram Post vijayapuram kangayam road, Nallur, Tiruppur - 641606, Dist.Coimbatore, Tamil Nadu",8047698456,
Baby Cap .,https://www.indiamart.com/proddetail/baby-cap-2851129121555.html?pos=102&kwd=infant products&tags=||||8752.144|Price|product|||TS|rsf:gd-|-stype:attr=1|qr_nm:gd|res:RC4|com-cf:nl|ptrs:na|ktp:N0|mc:120855|mtp:S|qry_typ:P|lang:en|wc:2|cs:8885|v=4,R S Belt Collection,https://www.indiamart.com/rsbeltcollection/?pos=102&kwd=infant products&tags=||||8752.144|Price|product|||TS|rsf:gd-|-stype:attr=1|qr_nm:gd|res:RC4|com-cf:nl|ptrs:na|ktp:N0|mc:120855|mtp:S|qry_typ:P|lang:en|wc:2|cs:8885|v=4,FALSE,Teliwara,New Delhi,"Shop No.8,sf, 2294-2299, 2316-2321, R.s.belt Collection, Punjab Chatta Rui Mandi Sadar Bazar, Teliwara, New Delhi - 110006, Dist.Delhi, Delhi",7942561746,
Unisex newborn baby dresses 0-3 months,https://www.indiamart.com/proddetail/newborn-baby-cloth-nappy-2855076790348.html?pos=103&kwd=infant products&tags=||||8954.051|Price|product|||TS|rsf:gd-|-stype:attr=1|qr_nm:gd|res:RC4|com-cf:nl|ptrs:na|ktp:N0|mc:120855|mtp:S|qry_typ:P|lang:en|wc:2|cs:8885|v=4,Tetra Clothing,https://www.tetraclothing.in/?pos=103&kwd=infant products&tags=||||8954.051|Price|product|||TS|rsf:gd-|-stype:attr=1|qr_nm:gd|res:RC4|com-cf:nl|ptrs:na|ktp:N0|mc:120855|mtp:S|qry_typ:P|lang:en|wc:2|cs:8885|v=4,TRUE,Gopichettipalaiyam,Chennai,"No. 59/28, Balu Building, Gopichettipalaiyam, Chennai - 638476, Dist.Chennai, Tamil Nadu",8048957951,
"Printed White Baby Hooded Towel, For Kids",https://www.indiamart.com/proddetail/baby-hooded-towel-2852332983330.html?pos=104&kwd=infant products&tags=||||8747.203|Price|product|||TS|rsf:gd-|-stype:attr=1|qr_nm:gd|res:RC4|com-cf:nl|ptrs:na|ktp:N0|mc:120855|mtp:S|qry_typ:P|lang:en|wc:2|cs:8885|v=4,Jm International,https://www.jminternationalpvt.com/?pos=104&kwd=infant products&tags=||||8747.203|Price|product|||TS|rsf:gd-|-stype:attr=1|qr_nm:gd|res:RC4|com-cf:nl|ptrs:na|ktp:N0|mc:120855|mtp:S|qry_typ:P|lang:en|wc:2|cs:8885|v=4,FALSE,Ekta Vihar,Panipat,"Ground Floor Plot No 1743 Sec 24 Huda, Ekta Vihar, Panipat - 132103, Dist.Panipat, Haryana",8045910638,
"Cotton Baby Bibs, 1-2 Years",https://www.indiamart.com/proddetail/cotton-baby-bibs-2854312381955.html?pos=105&kwd=infant products&tags=||||8778.123|Price|product|||TS|rsf:gd-|-stype:attr=1|qr_nm:gd|res:RC4|com-cf:nl|ptrs:na|ktp:N0|mc:120855|mtp:S|qry_typ:P|lang:en|wc:2|cs:8885|v=4,Pleasure Paradise,https://www.wonderfeel.in/?pos=105&kwd=infant products&tags=||||8778.123|Price|product|||TS|rsf:gd-|-stype:attr=1|qr_nm:gd|res:RC4|com-cf:nl|ptrs:na|ktp:N0|mc:120855|mtp:S|qry_typ:P|lang:en|wc:2|cs:8885|v=4,FALSE,Sector 137,Noida,"11, T12 1105, Paras Tierea, Sector 137, Sector 137, Noida - 201301, Dist.Gautam Budh Nagar, Uttar Pradesh",8048612980,
Cotton Baby Apron Bib,https://www.indiamart.com/proddetail/baby-apron-bib-27473274355.html?pos=106&kwd=infant products&tags=||||8752.144|Price|product|||TS|rsf:gd-|-stype:attr=1|qr_nm:gd|res:RC4|com-cf:nl|ptrs:na|ktp:N0|mc:120855|mtp:S|qry_typ:P|lang:en|wc:2|cs:8885|v=4,Melvis,https://www.indiamart.com/melvis/?pos=106&kwd=infant products&tags=||||8752.144|Price|product|||TS|rsf:gd-|-stype:attr=1|qr_nm:gd|res:RC4|com-cf:nl|ptrs:na|ktp:N0|mc:120855|mtp:S|qry_typ:P|lang:en|wc:2|cs:8885|v=4,FALSE,Swaroop Nagar,New Delhi,"First Floor, House Number 185/12, Block-B, Yadav Market Road Chowk, Swaroop Nagar,, Swaroop Nagar, New Delhi - 110042, Dist.Delhi, Delhi",8047632851,
Golf Caddy Bibs,https://www.indiamart.com/proddetail/golf-caddy-bibs-3586409391.html?pos=107&kwd=infant products&tags=||||8769.508|Price|product|||TS|rsf:gd-|-stype:attr=1|qr_nm:gd|res:RC4|com-cf:nl|ptrs:na|ktp:N0|mc:120855|mtp:S|qry_typ:P|lang:en|wc:2|cs:8885|v=4,Breakthrough Innovation,https://www.indiamart.com/breakthrough-innovation/?pos=107&kwd=infant products&tags=||||8769.508|Price|product|||TS|rsf:gd-|-stype:attr=1|qr_nm:gd|res:RC4|com-cf:nl|ptrs:na|ktp:N0|mc:120855|mtp:S|qry_typ:P|lang:en|wc:2|cs:8885|v=4,FALSE,Sehatpur,Faridabad,"First Floor, H.no.1, Saraswati Colony Near Nayapull, Nehar Wala Road Sehatpur, Sehatpur, Faridabad - 121003, Dist.Faridabad, Haryana",8047646510,
Hipp Organic Combiotic First Infant Milk Formula Stage 1 - 800g From Birth,https://www.indiamart.com/proddetail/hipp-organic-combiotic-first-infant-milk-formula-stage-1-800g-from-birth-2850046842591.html?pos=108&kwd=infant products&tags=||||8211.142|Price|product|||TS|rsf:gd-|-stype:attr=1|qr_nm:gd|res:RC4|com-cf:nl|ptrs:na|ktp:N0|mc:120855|mtp:S|qry_typ:P|lang:en|wc:2|cs:8885|v=4,Mini World,https://www.indiamart.com/miniworld/?pos=108&kwd=infant products&tags=||||8211.142|Price|product|||TS|rsf:gd-|-stype:attr=1|qr_nm:gd|res:RC4|com-cf:nl|ptrs:na|ktp:N0|mc:120855|mtp:S|qry_typ:P|lang:en|wc:2|cs:8885|v=4,FALSE,Goregaon West,Mumbai,"SHOP No 2,16, Ground Floor, Unnath Nagar 3, M.G. Road, Goregaon MG Road, Goregaon West, Mumbai - 400062, Dist.Mumbai, Maharashtra",8046034221,
"Newborn Baby Jacket Nappy Set, Size: Small, Age Group: Newly Born",https://www.indiamart.com/proddetail/newborn-baby-jacket-nappy-set-9089459988.html?pos=109&kwd=infant products&tags=||||8559.269|Price|product|||MDC|rsf:gd-|-stype:attr=1|qr_nm:gd|res:RC4|com-cf:nl|ptrs:na|ktp:N0|mc:120855|mtp:S|qry_typ:P|lang:en|wc:2|cs:8885|v=4,Akash Enterprises,https://www.indiamart.com/akashenterprises-indoremadhyapradesh/?pos=109&kwd=infant products&tags=||||8559.269|Price|product|||MDC|rsf:gd-|-stype:attr=1|qr_nm:gd|res:RC4|com-cf:nl|ptrs:na|ktp:N0|mc:120855|mtp:S|qry_typ:P|lang:en|wc:2|cs:8885|v=4,FALSE,Sudama Nagar,Indore,"1058K Sudama Nagar, Sudama Nagar, Indore - 452009, Dist.Indore, Madhya Pradesh",7942720321,
"Baby Pink Cotton Bib, Newly Born",https://www.indiamart.com/proddetail/baby-pink-cotton-bib-2851485580773.html?pos=110&kwd=infant products&tags=||||8624.416|Price|product|||MDC|rsf:gd-|-stype:attr=1|qr_nm:gd|res:RC4|com-cf:nl|ptrs:na|ktp:N0|mc:120855|mtp:S|qry_typ:P|lang:en|wc:2|cs:8885|v=4,Nagpal Cosmetics,https://www.indiamart.com/nagpal-cosmetics/?pos=110&kwd=infant products&tags=||||8624.416|Price|product|||MDC|rsf:gd-|-stype:attr=1|qr_nm:gd|res:RC4|com-cf:nl|ptrs:na|ktp:N0|mc:120855|mtp:S|qry_typ:P|lang:en|wc:2|cs:8885|v=4,FALSE,,Hisar,"First Floor, House No. 123, Kunj Lal Garden, Shanti Nagar, Hisar - 125001, Dist.Hisar, Haryana",8045738316,
"Printed Towel For Newborn Baby, 0-1 Year",https://www.indiamart.com/proddetail/towel-for-newborn-baby-25693332273.html?pos=111&kwd=infant products&tags=||||8752.144||product|||MDC|rsf:gd-|-stype:attr=1|qr_nm:gd|res:RC4|com-cf:nl|ptrs:na|ktp:N0|mc:120855|mtp:S|qry_typ:P|lang:en|wc:2|cs:8885|v=4,TGB Marketing,https://www.indiamart.com/tgb-marketing/?pos=111&kwd=infant products&tags=||||8752.144||product|||MDC|rsf:gd-|-stype:attr=1|qr_nm:gd|res:RC4|com-cf:nl|ptrs:na|ktp:N0|mc:120855|mtp:S|qry_typ:P|lang:en|wc:2|cs:8885|v=4,FALSE,Chandni Chowk,New Delhi,"101, Second Floor, Khursid Market, Chandni Chowk, New Delhi - 110006, Dist.Delhi, Delhi",8046075932,
Cotton Baby Printed Bib,https://www.indiamart.com/proddetail/baby-printed-bib-23813255530.html?pos=112&kwd=infant products&tags=||||8626.744|Price|product|||MDC|rsf:gd-|-stype:attr=1|qr_nm:gd|res:RC4|com-cf:nl|ptrs:na|ktp:N0|mc:120855|mtp:S|qry_typ:P|lang:en|wc:2|cs:8885|v=4,Mother Sports,https://www.indiamart.com/mothersports/?pos=112&kwd=infant products&tags=||||8626.744|Price|product|||MDC|rsf:gd-|-stype:attr=1|qr_nm:gd|res:RC4|com-cf:nl|ptrs:na|ktp:N0|mc:120855|mtp:S|qry_typ:P|lang:en|wc:2|cs:8885|v=4,FALSE,,Tiruppur,"1-241,,Arivozhi Nagar,Thottiya Mannarai, Tiruppur - 641607, Dist.Coimbatore, Tamil Nadu",8046050975,
"Orange Baby Sinkar Cotton Lagot/nappy, Size: 0-6 Month",https://www.indiamart.com/proddetail/baby-sinkar-cotton-lagot-nappy-23269302091.html?pos=113&kwd=infant products&tags=||||8211.142|Price|product|||MDC|rsf:gd-|-stype:attr=1|qr_nm:gd|res:RC4|com-cf:nl|ptrs:na|ktp:N0|mc:120855|mtp:S|qry_typ:P|lang:en|wc:2|cs:8885|v=4,Om Sai Hosiery,https://www.indiamart.com/omsaihosierymumbai/?pos=113&kwd=infant products&tags=||||8211.142|Price|product|||MDC|rsf:gd-|-stype:attr=1|qr_nm:gd|res:RC4|com-cf:nl|ptrs:na|ktp:N0|mc:120855|mtp:S|qry_typ:P|lang:en|wc:2|cs:8885|v=4,FALSE,Vikhroli west,Mumbai,"Ground Floor Room No -3 LBS Marg Jai Bhawani Chawl, Kranti Maidan Surya Nagar, Vikhroli west, Mumbai - 400083, Dist.Mumbai, Maharashtra",8048989297,
Cotton Baby Bibs,https://www.indiamart.com/proddetail/cotton-baby-bibs-2852982493248.html?pos=114&kwd=infant products&tags=||||8752.144|Price|product|||MDC|rsf:gd-|-stype:attr=1|qr_nm:gd|res:RC4|com-cf:nl|ptrs:na|ktp:N0|mc:120855|mtp:S|qry_typ:P|lang:en|wc:2|cs:8885|v=4,B N Hosiery,https://www.indiamart.com/bnhosiery/?pos=114&kwd=infant products&tags=||||8752.144|Price|product|||MDC|rsf:gd-|-stype:attr=1|qr_nm:gd|res:RC4|com-cf:nl|ptrs:na|ktp:N0|mc:120855|mtp:S|qry_typ:P|lang:en|wc:2|cs:8885|v=4,FALSE,Ashok Vihar,New Delhi,"House No 130l, Block-E, Phase-1,Ashok, Vihar, Ashok Vihar, New Delhi - 110052, Dist.Delhi, Delhi",7942706809,
"Baby White Muslin Cotton Swaddle ,Towel",https://www.indiamart.com/proddetail/baby-white-muslin-cotton-swaddle-towel-2854138792248.html?pos=115&kwd=infant products&tags=||||8706.263|Price|product|||MDC|rsf:gd-|-stype:attr=1|qr_nm:gd|res:RC4|com-cf:nl|ptrs:na|ktp:N0|mc:120855|mtp:S|qry_typ:P|lang:en|wc:2|cs:8885|v=4,RKND Traders,https://www.indiamart.com/rknd-traders/?pos=115&kwd=infant products&tags=||||8706.263|Price|product|||MDC|rsf:gd-|-stype:attr=1|qr_nm:gd|res:RC4|com-cf:nl|ptrs:na|ktp:N0|mc:120855|mtp:S|qry_typ:P|lang:en|wc:2|cs:8885|v=4,FALSE,,Karur,"No.86/66, Mettu Street, Karur - 639001, Dist.Karur, Tamil Nadu",8045730806,
"Cotton Baby Detachable Waterproof Apron Bibs, Newly Born",https://www.indiamart.com/proddetail/baby-detachable-waterproof-apron-bibs-2854715347288.html?pos=116&kwd=infant products&tags=||||8663.873|Price|product|||MDC|rsf:gd-|-stype:attr=1|qr_nm:gd|res:RC4|com-cf:nl|ptrs:na|ktp:N0|mc:120855|mtp:S|qry_typ:P|lang:en|wc:2|cs:8885|v=4,Nipika Vrapped Gifting,https://www.indiamart.com/nipika-vrapped-gifting/?pos=116&kwd=infant products&tags=||||8663.873|Price|product|||MDC|rsf:gd-|-stype:attr=1|qr_nm:gd|res:RC4|com-cf:nl|ptrs:na|ktp:N0|mc:120855|mtp:S|qry_typ:P|lang:en|wc:2|cs:8885|v=4,FALSE,Bengaluru Urban,Bengaluru,"9/1, 23rd Cross Road, Magadi Road, KP Agrahara, Bengaluru Urban, Bengaluru - 560023, Dist.Bengaluru, Karnataka",7949328723,
Cotton Baby Bib,https://www.indiamart.com/proddetail/baby-bib-2851251835373.html?pos=117&kwd=infant products&tags=||||8752.144||product|||MDC|rsf:gd-|-stype:attr=1|qr_nm:gd|res:RC4|com-cf:nl|ptrs:na|ktp:N0|mc:120855|mtp:S|qry_typ:P|lang:en|wc:2|cs:8885|v=4,Prince And Princess,https://www.indiamart.com/prince-princess-delhi/?pos=117&kwd=infant products&tags=||||8752.144||product|||MDC|rsf:gd-|-stype:attr=1|qr_nm:gd|res:RC4|com-cf:nl|ptrs:na|ktp:N0|mc:120855|mtp:S|qry_typ:P|lang:en|wc:2|cs:8885|v=4,FALSE,Gulabi Bagh,New Delhi,"Ground Floor, Garage No - 74, Gulabi Bagh Road,, Gulabi Bagh, New Delhi - 110007, Dist.Delhi, Delhi",8047629125,
"Cotton Baby Bib ., Packaging Type: poly bag",https://www.indiamart.com/proddetail/baby-bib-27096689730.html?pos=118&kwd=infant products&tags=||||8752.144|Price|product|||MDC|rsf:gd-|-stype:attr=1|qr_nm:gd|res:RC4|com-cf:nl|ptrs:na|ktp:N0|mc:120855|mtp:S|qry_typ:P|lang:en|wc:2|cs:8885|v=4,L T Textiles,https://www.indiamart.com/lttextiles/?pos=118&kwd=infant products&tags=||||8752.144|Price|product|||MDC|rsf:gd-|-stype:attr=1|qr_nm:gd|res:RC4|com-cf:nl|ptrs:na|ktp:N0|mc:120855|mtp:S|qry_typ:P|lang:en|wc:2|cs:8885|v=4,FALSE,Pahari Dhiraj,New Delhi,"5189-90 Main Road, Sadar Bazar, Pahari Dhiraj, New Delhi - 110006, Dist.Delhi, Delhi",7942958455,
"POMS Cotton Baby Bibs, Packaging Type: Poly cover, Newly Born",https://www.indiamart.com/proddetail/cotton-baby-bibs-2853899692930.html?pos=119&kwd=infant products&tags=||||8550.327|Price|product|||MDC|rsf:gd-|-stype:attr=1|qr_nm:gd|res:RC4|com-cf:nl|ptrs:na|ktp:N0|mc:120855|mtp:S|qry_typ:P|lang:en|wc:2|cs:8885|v=4,Surgee Apparels,https://www.indiamart.com/surgee-apparels/?pos=119&kwd=infant products&tags=||||8550.327|Price|product|||MDC|rsf:gd-|-stype:attr=1|qr_nm:gd|res:RC4|com-cf:nl|ptrs:na|ktp:N0|mc:120855|mtp:S|qry_typ:P|lang:en|wc:2|cs:8885|v=4,FALSE,Chandranagar Colony Extension,Palakkad,"10/651, Brothers Complex, Kootupatha, Chandranagar Colony Extension, Palakkad - 678007, Dist.Palakkad, Kerala",7949086612,
New Born Baby Bib,https://www.indiamart.com/proddetail/new-born-baby-bib-2854722814912.html?pos=120&kwd=infant products&tags=||||8211.142|Price|product|||MDC|rsf:gd-|-stype:attr=1|qr_nm:gd|res:RC4|com-cf:nl|ptrs:na|ktp:N0|mc:120855|mtp:S|qry_typ:P|lang:en|wc:2|cs:8885|v=4,Apple Kids,https://www.indiamart.com/applekids-mumbai/?pos=120&kwd=infant products&tags=||||8211.142|Price|product|||MDC|rsf:gd-|-stype:attr=1|qr_nm:gd|res:RC4|com-cf:nl|ptrs:na|ktp:N0|mc:120855|mtp:S|qry_typ:P|lang:en|wc:2|cs:8885|v=4,FALSE,,Mumbai,"Room No 1,211/4, Janu Seth Chawl, Puspa Park, Daftary Road, Malad East Suburban, Mumbai - 400097, Dist.Mumbai, Maharashtra",7949326883,
Multicolor Baby Cap Set,https://www.indiamart.com/proddetail/baby-cap-set-2852721514773.html?pos=121&kwd=infant products&tags=||||8752.144|Price|product|||MDC|rsf:gd-|-stype:attr=1|qr_nm:gd|res:RC4|com-cf:nl|ptrs:na|ktp:N0|mc:120855|mtp:S|qry_typ:P|lang:en|wc:2|cs:8885|v=4,B-Qube Enterprises,https://www.indiamart.com/bqube-enterprises/?pos=121&kwd=infant products&tags=||||8752.144|Price|product|||MDC|rsf:gd-|-stype:attr=1|qr_nm:gd|res:RC4|com-cf:nl|ptrs:na|ktp:N0|mc:120855|mtp:S|qry_typ:P|lang:en|wc:2|cs:8885|v=4,FALSE,Karol Bagh,New Delhi,"303, Iiird Floor,13/4, W.E.A.,Karol Bagh, Karol Bagh, New Delhi - 110005, Dist.Delhi, Delhi",8047313183,
Silicone Pop It Toy,https://www.indiamart.com/proddetail/silicone-pop-it-toy-2853317243112.html?pos=122&kwd=infant products&tags=||||8752.144|Price|product|||MDC|rsf:gd-|-stype:attr=1|qr_nm:gd|res:RC4|com-cf:nl|ptrs:na|ktp:N0|mc:120855|mtp:S|qry_typ:P|lang:en|wc:2|cs:8885|v=4,18influence,https://www.indiamart.com/18influence/?pos=122&kwd=infant products&tags=||||8752.144|Price|product|||MDC|rsf:gd-|-stype:attr=1|qr_nm:gd|res:RC4|com-cf:nl|ptrs:na|ktp:N0|mc:120855|mtp:S|qry_typ:P|lang:en|wc:2|cs:8885|v=4,FALSE,Naraina,New Delhi,"Mezzanine Floor, B-191, Phase-1, Naraina Industrial Area, South West Delhi, Naraina, New Delhi - 110028, Dist.Delhi, Delhi",7942570402,
"Nutribray Braymil Premium-3, Age Group: 12-24 months, Packaging Type: Tins",https://www.indiamart.com/proddetail/nutribray-braymil-premium-3-2848979191155.html?pos=123&kwd=infant products&tags=||||8741.812|Price|product|||TS|rsf:gd-|-stype:attr=1|qr_nm:gd|res:RC4|com-cf:nl|ptrs:na|ktp:N0|mc:120855|mtp:S|qry_typ:P|lang:en|wc:2|cs:8885|v=4,Nutribray Healthcare Private Limited,https://www.indiamart.com/nutribray-healthcare/?pos=123&kwd=infant products&tags=||||8741.812|Price|product|||TS|rsf:gd-|-stype:attr=1|qr_nm:gd|res:RC4|com-cf:nl|ptrs:na|ktp:N0|mc:120855|mtp:S|qry_typ:P|lang:en|wc:2|cs:8885|v=4,FALSE,Gurugram,Gurgaon,"Unit No. B-401 Habitat, Sector-99A Dwarka Expressway, Gurugram, Gurugram, Gurgaon - 122505, Dist.Gurgaon, Haryana",8047622505,
New Born Infant Baby Diaper,https://www.indiamart.com/proddetail/new-born-infant-baby-diaper-20102081573.html?pos=124&kwd=infant products&tags=||||8747.223|Price|product|||TS|rsf:gd-|-stype:attr=1|qr_nm:gd|res:RC4|com-cf:nl|ptrs:na|ktp:N0|mc:120855|mtp:S|qry_typ:P|lang:en|wc:2|cs:8885|v=4,Vivia International Private Limited,https://www.viviainternational.com/?pos=124&kwd=infant products&tags=||||8747.223|Price|product|||TS|rsf:gd-|-stype:attr=1|qr_nm:gd|res:RC4|com-cf:nl|ptrs:na|ktp:N0|mc:120855|mtp:S|qry_typ:P|lang:en|wc:2|cs:8885|v=4,FALSE,Nathupur,Sonipat,"Khasra No. 36/9/2/1-2/8, Village Nathupur, Kundli, Nathupur, Sonipat - 131029, Dist.Sonipat, Haryana",8047643594,
Infant Baby Caps,https://www.indiamart.com/proddetail/infant-baby-caps-2852665031255.html?pos=125&kwd=infant products&tags=||||8626.744||product|||TS|rsf:gd-|-stype:attr=1|qr_nm:gd|res:RC4|com-cf:nl|ptrs:na|ktp:N0|mc:120855|mtp:S|qry_typ:P|lang:en|wc:2|cs:8885|v=4,Srie K.S.K. Tex,https://www.indiamart.com/srieksktex-tiruppur/?pos=125&kwd=infant products&tags=||||8626.744||product|||TS|rsf:gd-|-stype:attr=1|qr_nm:gd|res:RC4|com-cf:nl|ptrs:na|ktp:N0|mc:120855|mtp:S|qry_typ:P|lang:en|wc:2|cs:8885|v=4,FALSE,Radha Nagar,Tiruppur,"28A, NA, Sv Colony, 6th Street, PN Road,Coimbatore, Radha Nagar, Tiruppur - 641602, Dist.Coimbatore, Tamil Nadu",8047850887,
BABY INFANT NAPPY SET,https://www.indiamart.com/proddetail/baby-infant-nappy-set-26031188733.html?pos=126&kwd=infant products&tags=||||8626.744|Price|product|||TS|rsf:gd-|-stype:attr=1|qr_nm:gd|res:RC4|com-cf:nl|ptrs:na|ktp:N0|mc:120855|mtp:S|qry_typ:P|lang:en|wc:2|cs:8885|v=4,Sudarshaan Impex,https://www.sudarshaanimpex.com/?pos=126&kwd=infant products&tags=||||8626.744|Price|product|||TS|rsf:gd-|-stype:attr=1|qr_nm:gd|res:RC4|com-cf:nl|ptrs:na|ktp:N0|mc:120855|mtp:S|qry_typ:P|lang:en|wc:2|cs:8885|v=4,FALSE,Jeeva Nagar,Tiruppur,"No.8/398C, Selvalakshmi nagar, 1st street, Angeri palayam , Tirupur - 641603., Jeeva Nagar, Tiruppur - 641603, Dist.Coimbatore, Tamil Nadu",8047630683,
"300+ Times Cotton Infant Baby Diaper, Size: Medium",https://www.indiamart.com/proddetail/infant-baby-diaper-24550828688.html?pos=127&kwd=infant products&tags=||||8662.111|Price|product|||MDC|rsf:gd-|-stype:attr=1|qr_nm:gd|res:RC4|com-cf:nl|ptrs:na|ktp:N0|mc:120855|mtp:S|qry_typ:P|lang:en|wc:2|cs:8885|v=4,Habibi,https://www.indiamart.com/habibi/?pos=127&kwd=infant products&tags=||||8662.111|Price|product|||MDC|rsf:gd-|-stype:attr=1|qr_nm:gd|res:RC4|com-cf:nl|ptrs:na|ktp:N0|mc:120855|mtp:S|qry_typ:P|lang:en|wc:2|cs:8885|v=4,FALSE,Melapalayam,Tirunelveli,"No.12/16E/2F Hameempuram North Street Palayamkottai, Melapalayam, Tirunelveli - 627005, Dist.Tirunelveli, Tamil Nadu",7942547388,
"Cotton Baby Infant Bib, Newly Born",https://www.indiamart.com/proddetail/baby-infant-bib-2854167989412.html?pos=128&kwd=infant products&tags=||||8559.269|Price|product|||MDC|rsf:gd-|-stype:attr=1|qr_nm:gd|res:RC4|com-cf:nl|ptrs:na|ktp:N0|mc:120855|mtp:S|qry_typ:P|lang:en|wc:2|cs:8885|v=4,Mira Enterprise,https://www.indiamart.com/mira-enterprises-indore/?pos=128&kwd=infant products&tags=||||8559.269|Price|product|||MDC|rsf:gd-|-stype:attr=1|qr_nm:gd|res:RC4|com-cf:nl|ptrs:na|ktp:N0|mc:120855|mtp:S|qry_typ:P|lang:en|wc:2|cs:8885|v=4,FALSE,,Indore,"75, Swami Vivekanand Nagar, Kanadia Road, Indore - 452018, Dist.Indore, Madhya Pradesh",8045730802,
"Soft Cotton Infant Bibs, Newly Born",https://www.indiamart.com/proddetail/soft-cotton-infant-bibs-2853330298297.html?pos=129&kwd=infant products&tags=||||8223.226|Price|product|||MDC|rsf:gd-|-stype:attr=1|qr_nm:gd|res:RC4|com-cf:nl|ptrs:na|ktp:N0|mc:120855|mtp:S|qry_typ:P|lang:en|wc:2|cs:8885|v=4,Aarav Solutions,https://www.indiamart.com/aaravsolutions/?pos=129&kwd=infant products&tags=||||8223.226|Price|product|||MDC|rsf:gd-|-stype:attr=1|qr_nm:gd|res:RC4|com-cf:nl|ptrs:na|ktp:N0|mc:120855|mtp:S|qry_typ:P|lang:en|wc:2|cs:8885|v=4,FALSE,,Thane,"A1301 Piccadilly Shiv Sai Paradise, Near Fatima Church Majiwada, Thane - 400601, Dist.Thane, Maharashtra",8045729788,
"Printed Infant Cotton Towel, Newly Born",https://www.indiamart.com/proddetail/printed-infant-cotton-towel-2854696445573.html?pos=130&kwd=infant products&tags=||||9839.57|Price|product|||MDC|rsf:gd-|-stype:attr=1|qr_nm:gd|res:RC4|com-cf:nl|ptrs:na|ktp:N0|mc:120855|mtp:S|qry_typ:P|lang:en|wc:2|cs:8885|v=4,Titan Giftknit,https://www.indiamart.com/titan-giftknit/?pos=130&kwd=infant products&tags=||||9839.57|Price|product|||MDC|rsf:gd-|-stype:attr=1|qr_nm:gd|res:RC4|com-cf:nl|ptrs:na|ktp:N0|mc:120855|mtp:S|qry_typ:P|lang:en|wc:2|cs:8885|v=4,FALSE,Burrabazar,Kolkata,"56, Parbati Ghosh Lane, Burrabazar, Kolkata - 700007, Dist.Kolkata, West Bengal",7949325351,
"Baby Toddlers Head Protective, Adjustable Infant Safety Pad for Baby Walkers Protective Head",https://www.indiamart.com/proddetail/baby-toddlers-head-protective-adjustable-infant-safety-pad-for-baby-walkers-protective-head-2854564309412.html?pos=131&kwd=infant products&tags=||||8230.883|Price|product|||TS|rsf:gd-|-stype:attr=1|qr_nm:gd|res:RC4|com-cf:nl|ptrs:na|ktp:N0|mc:120855|mtp:S|qry_typ:P|lang:en|wc:2|cs:8885|v=4,Yaadgar Enterprise,https://www.indiamart.com/yaadgar-enterprise/?pos=131&kwd=infant products&tags=||||8230.883|Price|product|||TS|rsf:gd-|-stype:attr=1|qr_nm:gd|res:RC4|com-cf:nl|ptrs:na|ktp:N0|mc:120855|mtp:S|qry_typ:P|lang:en|wc:2|cs:8885|v=4,FALSE,Katargam,Surat,"3rd Floor, 124, Flat No. 302, Pushp Vatika Apartment Singanpor Road, Katargam, Surat - 395004, Dist.Surat, Gujarat",7942531767,
Baby Nail Trimmer Nail Polish Grooming Kit Safe for Infant Toddler Kids or Women,https://www.indiamart.com/proddetail/baby-nail-trimmer-nail-polish-grooming-kit-safe-for-infant-toddler-kids-or-women-2849756511833.html?pos=132&kwd=infant products&tags=||||8230.883|Price|product|||TS|rsf:gd-|-stype:attr=1|qr_nm:gd|res:RC4|com-cf:nl|ptrs:na|ktp:N0|mc:120855|mtp:S|qry_typ:P|lang:en|wc:2|cs:8885|v=4,M. Khodiyar Fashion,https://www.mkhodiyarfashion.com/?pos=132&kwd=infant products&tags=||||8230.883|Price|product|||TS|rsf:gd-|-stype:attr=1|qr_nm:gd|res:RC4|com-cf:nl|ptrs:na|ktp:N0|mc:120855|mtp:S|qry_typ:P|lang:en|wc:2|cs:8885|v=4,FALSE,Singanpor,Surat,"243-244, GR FL, Shree Krushna Nagar SOC, NR. Multy Purpose Hall, Singanpore Road, Singanpor, Surat - 395004, Dist.Surat, Gujarat",7942791367,
Baby Nail Trimmer Nail Clippers with Light and 6 Grinding Pads for Newborn Infant Toddler,https://www.indiamart.com/proddetail/baby-nail-trimmer-nail-clippers-with-light-and-6-grinding-pads-for-newborn-infant-toddler-2852883506330.html?pos=133&kwd=infant products&tags=||||8230.883|Price|product|||TS|rsf:gd-|-stype:attr=1|qr_nm:gd|res:RC4|com-cf:nl|ptrs:na|ktp:N0|mc:120855|mtp:S|qry_typ:P|lang:en|wc:2|cs:8885|v=4,Pocket Simple,https://www.pocketsimple.in/?pos=133&kwd=infant products&tags=||||8230.883|Price|product|||TS|rsf:gd-|-stype:attr=1|qr_nm:gd|res:RC4|com-cf:nl|ptrs:na|ktp:N0|mc:120855|mtp:S|qry_typ:P|lang:en|wc:2|cs:8885|v=4,FALSE,KATARGAM,Surat,"Gr.Floor, Shop No-20, Pramukh Residency,Omkar Soc, Ved Road, KATARGAM, Surat - 395004, Dist.Surat, Gujarat",7942720597,
"Baby Nail Trimmer, Baby Nail Clippers, for Newborn Infant Toddler Kids Fingernails Care Trim Polish",https://www.indiamart.com/proddetail/baby-nail-trimmer-baby-nail-clippers-for-newborn-infant-toddler-kids-fingernails-care-trim-polish-2850943266091.html?pos=134&kwd=infant products&tags=||||8230.883|Price|product|||TS|rsf:gd-|-stype:attr=1|qr_nm:gd|res:RC4|com-cf:nl|ptrs:na|ktp:N0|mc:120855|mtp:S|qry_typ:P|lang:en|wc:2|cs:8885|v=4,Trusthaven,https://www.indiamart.com/ankush-international-surat/?pos=134&kwd=infant products&tags=||||8230.883|Price|product|||TS|rsf:gd-|-stype:attr=1|qr_nm:gd|res:RC4|com-cf:nl|ptrs:na|ktp:N0|mc:120855|mtp:S|qry_typ:P|lang:en|wc:2|cs:8885|v=4,FALSE,Varni palace near rasi circle,Surat,"Buil-B, Flat No. B/501, Opp. Western Somchintamani, Sahstrafana Saubhagya Residency, Pal Katargam, Varni palace near rasi circle, Surat - 395009, Dist.Surat, Gujarat",8048964329,
Electric Baby Nail Trimmer With Grinding Heads For Newborn Infant And Toddler,https://www.indiamart.com/proddetail/electric-baby-nail-trimmer-with-grinding-heads-for-newborn-infant-and-toddler-2854780006762.html?pos=135&kwd=infant products&tags=||||8692.544|Price|product|||MDC|rsf:gd-|-stype:attr=1|qr_nm:gd|res:RC4|com-cf:nl|ptrs:na|ktp:N0|mc:120855|mtp:S|qry_typ:P|lang:en|wc:2|cs:8885|v=4,Demrot Bangles And Manufacture,https://www.indiamart.com/demrotbanglesmanufacture/?pos=135&kwd=infant products&tags=||||8692.544|Price|product|||MDC|rsf:gd-|-stype:attr=1|qr_nm:gd|res:RC4|com-cf:nl|ptrs:na|ktp:N0|mc:120855|mtp:S|qry_typ:P|lang:en|wc:2|cs:8885|v=4,FALSE,Kishangarh Bas,Alwar,"Vashishtha Market, Kishangarh Bass, Kishangarh Bas, Alwar - 301405, Dist.Alwar, Rajasthan",,
"LuvLap Stylish Infant Hair Brush and Comb Kit, Suitable from Birth 0+month baby (White) 18607",https://www.indiamart.com/proddetail/luvlap-stylish-infant-hair-brush-and-comb-kit-suitable-from-birth-0-month-baby-white-18607-2853231074673.html?pos=136&kwd=infant products&tags=||||8614.241|Price|product|||MDC|rsf:gd-|-stype:attr=1|qr_nm:gd|res:RC4|com-cf:nl|ptrs:na|ktp:N0|mc:120855|mtp:S|qry_typ:P|lang:en|wc:2|cs:8885|v=4,M.M. Toy World,https://www.indiamart.com/mmtoyworld/?pos=136&kwd=infant products&tags=||||8614.241|Price|product|||MDC|rsf:gd-|-stype:attr=1|qr_nm:gd|res:RC4|com-cf:nl|ptrs:na|ktp:N0|mc:120855|mtp:S|qry_typ:P|lang:en|wc:2|cs:8885|v=4,FALSE,Achli Gate,Batala,"M.M. Toys World, Bedian Gali, Khujari Gate, Gurdaspur, Achli Gate, Batala - 143505, Dist.Gurdaspur, Punjab",,
"multy color Baby Bibs Pack Of 3, Packaging Type: Box, 3-12 Months",https://www.indiamart.com/proddetail/baby-bibs-pack-of-3-2853524305988.html?pos=137&kwd=infant products&tags=||||8785.791|Price|product|||TS|rsf:gd-|-stype:attr=1|qr_nm:gd|res:RC4|com-cf:nl|ptrs:na|ktp:N0|mc:120855|mtp:S|qry_typ:P|lang:en|wc:2|cs:8885|v=4,Ilaki Intercraft (India),https://www.indiamart.com/ilakiintercraft/?pos=137&kwd=infant products&tags=||||8785.791|Price|product|||TS|rsf:gd-|-stype:attr=1|qr_nm:gd|res:RC4|com-cf:nl|ptrs:na|ktp:N0|mc:120855|mtp:S|qry_typ:P|lang:en|wc:2|cs:8885|v=4,FALSE,Tronica City,Ghaziabad,"D-69 Sector D-1 Tronica City, Tronica City, Ghaziabad - 201103, Dist.Ghaziabad, Uttar Pradesh",7942552124,
"Falalen Unisex New Born Baby Kit, Age Group: 0-3 Months, Size: Free",https://www.indiamart.com/proddetail/new-born-baby-kit-2851825412873.html?pos=138&kwd=infant products&tags=||||8559.269|Price|product|||TS|rsf:gd-|-stype:attr=1|qr_nm:gd|res:RC4|com-cf:nl|ptrs:na|ktp:N0|mc:120855|mtp:S|qry_typ:P|lang:en|wc:2|cs:8885|v=4,Labhansh Industries,https://www.indiamart.com/labhansh-industries/?pos=138&kwd=infant products&tags=||||8559.269|Price|product|||TS|rsf:gd-|-stype:attr=1|qr_nm:gd|res:RC4|com-cf:nl|ptrs:na|ktp:N0|mc:120855|mtp:S|qry_typ:P|lang:en|wc:2|cs:8885|v=4,FALSE,Sukhlia,Indore,"414/11/2,Agrawal Compound,Khatipura, Sukhlia, Indore - 452001, Dist.Indore, Madhya Pradesh",7942874363,
Printed Newly Born Baby Bib,https://www.indiamart.com/proddetail/printed-newly-born-baby-bib-20119629591.html?pos=139&kwd=infant products&tags=||||8626.744|Price|product|||TS|rsf:gd-|-stype:attr=1|qr_nm:gd|res:RC4|com-cf:nl|ptrs:na|ktp:N0|mc:120855|mtp:S|qry_typ:P|lang:en|wc:2|cs:8885|v=4,Bibosa Retail,https://www.indiamart.com/bibosa-retail/?pos=139&kwd=infant products&tags=||||8626.744|Price|product|||TS|rsf:gd-|-stype:attr=1|qr_nm:gd|res:RC4|com-cf:nl|ptrs:na|ktp:N0|mc:120855|mtp:S|qry_typ:P|lang:en|wc:2|cs:8885|v=4,FALSE,Sathya Colony,Tiruppur,"koothampalayam piruv.Peramanallur Road, Sathya Colony, Tiruppur - 641602, Dist.Coimbatore, Tamil Nadu",8047641062,
Cotton Printed Waterproof Baby Apron,https://www.indiamart.com/proddetail/waterproof-baby-apron-2850834000430.html?pos=140&kwd=infant products&tags=||||8752.144|Price|product|||TS|rsf:gd-|-stype:attr=1|qr_nm:gd|res:RC4|com-cf:nl|ptrs:na|ktp:N0|mc:120855|mtp:S|qry_typ:P|lang:en|wc:2|cs:8885|v=4,Marvels,https://www.indiamart.com/marvels/?pos=140&kwd=infant products&tags=||||8752.144|Price|product|||TS|rsf:gd-|-stype:attr=1|qr_nm:gd|res:RC4|com-cf:nl|ptrs:na|ktp:N0|mc:120855|mtp:S|qry_typ:P|lang:en|wc:2|cs:8885|v=4,FALSE,Libaspur,New Delhi,"D247 street no 3 swaroop nagar delhi, Libaspur, New Delhi - 110042, Dist.Delhi, Delhi",8046075963,
Bibs For Adults Washable,https://www.indiamart.com/proddetail/bibs-for-adults-washable-2852003021873.html?pos=141&kwd=infant products&tags=||||8954.051|Price|product|||TS|rsf:gd-|-stype:attr=1|qr_nm:gd|res:RC4|com-cf:nl|ptrs:na|ktp:N0|mc:120855|mtp:S|qry_typ:P|lang:en|wc:2|cs:8885|v=4,Boharras Inc,https://www.indiamart.com/boharras-inc/?pos=141&kwd=infant products&tags=||||8954.051|Price|product|||TS|rsf:gd-|-stype:attr=1|qr_nm:gd|res:RC4|com-cf:nl|ptrs:na|ktp:N0|mc:120855|mtp:S|qry_typ:P|lang:en|wc:2|cs:8885|v=4,FALSE,Park Town,Chennai,"No. 309, Mint Street, 1st Floor, Manmohan Plaza Near Central Railway Station, Park Town, Chennai - 600003, Dist.Chennai, Tamil Nadu",8048981521,
"Cotton New Born Baby Bibs, Packaging Type: Packet",https://www.indiamart.com/proddetail/new-born-baby-bibs-27488443155.html?pos=142&kwd=infant products&tags=||||8601.347|Price|product|||TS|rsf:gd-|-stype:attr=1|qr_nm:gd|res:RC4|com-cf:nl|ptrs:na|ktp:N0|mc:120855|mtp:S|qry_typ:P|lang:en|wc:2|cs:8885|v=4,Jagraj Polymers,https://www.jagrajpolymers.com/?pos=142&kwd=infant products&tags=||||8601.347|Price|product|||TS|rsf:gd-|-stype:attr=1|qr_nm:gd|res:RC4|com-cf:nl|ptrs:na|ktp:N0|mc:120855|mtp:S|qry_typ:P|lang:en|wc:2|cs:8885|v=4,FALSE,Vishwakarma Industrial Area,Jaipur,"RIICO Housing Colony, Plot No.107, Badarna VKI Area, Vishwakarma Industrial Area, Jaipur - 302013, Dist.Jaipur, Rajasthan",7942674725,
Cotton Muslin Baby Bibs,https://www.indiamart.com/proddetail/muslin-baby-bibs-2850900517888.html?pos=143&kwd=infant products&tags=||||8717.363|Price|product|||TS|rsf:gd-|-stype:attr=1|qr_nm:gd|res:RC4|com-cf:nl|ptrs:na|ktp:N0|mc:120855|mtp:S|qry_typ:P|lang:en|wc:2|cs:8885|v=4,Hublot Impex,https://www.hublotimpex.in/?pos=143&kwd=infant products&tags=||||8717.363|Price|product|||TS|rsf:gd-|-stype:attr=1|qr_nm:gd|res:RC4|com-cf:nl|ptrs:na|ktp:N0|mc:120855|mtp:S|qry_typ:P|lang:en|wc:2|cs:8885|v=4,FALSE,Swamy Nagar,Namakkal,"Second Floor 3/227e5/2d West Street, Nalipalayam Bypass Road K J Complex Nallipalayam, Swamy Nagar, Namakkal - 637003, Dist.Namakkal, Tamil Nadu",8048600000,
"Infants & Babies Vitamin E And Aloe Vera Baby Wet Wipes, Packet",https://www.indiamart.com/proddetail/baby-wet-wipes-22518602212.html?pos=144&kwd=infant products&tags=||||8663.873|Price|product|||TS|rsf:gd-|-stype:attr=1|qr_nm:gd|res:RC4|com-cf:nl|ptrs:na|ktp:N0|mc:120855|mtp:S|qry_typ:P|lang:en|wc:2|cs:8885|v=4,Rajendra Surgicals,https://www.rajendrasurgicals.com/?pos=144&kwd=infant products&tags=||||8663.873|Price|product|||TS|rsf:gd-|-stype:attr=1|qr_nm:gd|res:RC4|com-cf:nl|ptrs:na|ktp:N0|mc:120855|mtp:S|qry_typ:P|lang:en|wc:2|cs:8885|v=4,FALSE,Rajajinagar,Bengaluru,"Ground Floor, 3rd Block, No.210/38, Skanda, Dr Mallegowda Street, 50th Cross, Rajajinagar, Rajajinagar, Bengaluru - 560010, Dist.Bengaluru, Karnataka",8048961624,
"Babys Nest Yellow/Peach Baby Muslin Bib, Free Size",https://www.indiamart.com/proddetail/baby-muslin-bib-2853634092591.html?pos=145&kwd=infant products&tags=||||8706.263|Price|product|||TS|rsf:gd-|-stype:attr=1|qr_nm:gd|res:RC4|com-cf:nl|ptrs:na|ktp:N0|mc:120855|mtp:S|qry_typ:P|lang:en|wc:2|cs:8885|v=4,Bowerbird Interios,https://www.organicfabricmanufacturer.com/?pos=145&kwd=infant products&tags=||||8706.263|Price|product|||TS|rsf:gd-|-stype:attr=1|qr_nm:gd|res:RC4|com-cf:nl|ptrs:na|ktp:N0|mc:120855|mtp:S|qry_typ:P|lang:en|wc:2|cs:8885|v=4,FALSE,Ramanujam Nagar,Karur,"1/137, Covai Road South, Ramanujam Nagar, Karur - 639002, Dist.Karur, Tamil Nadu",8048971552,
Newborn Baby Nappy Set Fabric,https://www.indiamart.com/proddetail/newborn-baby-nappy-set-fabric-2850587395491.html?pos=146&kwd=infant products&tags=||||8228.275|Price|product|||TS|rsf:gd-|-stype:attr=1|qr_nm:gd|res:RC4|com-cf:nl|ptrs:na|ktp:N0|mc:120855|mtp:S|qry_typ:P|lang:en|wc:2|cs:8885|v=4,Ranibaa,https://www.indiamart.com/ranibaa-ahmedabad/?pos=146&kwd=infant products&tags=||||8228.275|Price|product|||TS|rsf:gd-|-stype:attr=1|qr_nm:gd|res:RC4|com-cf:nl|ptrs:na|ktp:N0|mc:120855|mtp:S|qry_typ:P|lang:en|wc:2|cs:8885|v=4,FALSE,Nikol,Ahmedabad,"G 62, Sahajanand Business Park,me.keshavam Estate,sp Ring Road, Nikol,, Nikol, Ahmedabad - 382350, Dist.Ahmedabad, Gujarat",7942800620,
"RangResha Printed Soft Cotton Baby Bibs., 3-12 Months",https://www.indiamart.com/proddetail/soft-cotton-baby-bibs-22458590991.html?pos=147&kwd=infant products&tags=||||8876.815|Price|product|||TS|rsf:gd-|-stype:attr=1|qr_nm:gd|res:RC4|com-cf:nl|ptrs:na|ktp:N0|mc:120855|mtp:S|qry_typ:P|lang:en|wc:2|cs:8885|v=4,Sakar Fair Trade Incorporated,https://www.indiamart.com/sakarfair-trade-incorporated/?pos=147&kwd=infant products&tags=||||8876.815|Price|product|||TS|rsf:gd-|-stype:attr=1|qr_nm:gd|res:RC4|com-cf:nl|ptrs:na|ktp:N0|mc:120855|mtp:S|qry_typ:P|lang:en|wc:2|cs:8885|v=4,FALSE,Wadi,Nagpur,"Ground floor, Shop No. 22, 8A, Laxmi Vaibhav, Laxmi Nagar Chowk, Wadi, Nagpur - 440010, Dist.Nagpur, Maharashtra",7942541012,
EVA FILM FOR BABY BIBS,https://www.indiamart.com/proddetail/eva-film-for-baby-bibs-19394784833.html?pos=148&kwd=infant products&tags=||||8211.142||product|||TS|rsf:gd-|-stype:attr=1|qr_nm:gd|res:RC4|com-cf:nl|ptrs:na|ktp:N0|mc:120855|mtp:S|qry_typ:P|lang:en|wc:2|cs:8885|v=4,Swasan Chemicals Private Limited,https://www.indiamart.com/swasanchemicals/?pos=148&kwd=infant products&tags=||||8211.142||product|||TS|rsf:gd-|-stype:attr=1|qr_nm:gd|res:RC4|com-cf:nl|ptrs:na|ktp:N0|mc:120855|mtp:S|qry_typ:P|lang:en|wc:2|cs:8885|v=4,FALSE,Andheri West,Mumbai,"Rajdeep, Bunglow No 8, Sheffield Soc A, Lokhandwala Complex Cross Road No 2, Andheri West, Andheri West, Mumbai - 400053, Dist.Mumbai, Maharashtra",8046034435,
Pink New Born Baby Bib,https://www.indiamart.com/proddetail/new-born-baby-bib-20704350312.html?pos=149&kwd=infant products&tags=||||8559.269|Price|product|||TS|rsf:gd-|-stype:attr=1|qr_nm:gd|res:RC4|com-cf:nl|ptrs:na|ktp:N0|mc:120855|mtp:S|qry_typ:P|lang:en|wc:2|cs:8885|v=4,Daga Impex,https://www.dagaimpex.co.in/?pos=149&kwd=infant products&tags=||||8559.269|Price|product|||TS|rsf:gd-|-stype:attr=1|qr_nm:gd|res:RC4|com-cf:nl|ptrs:na|ktp:N0|mc:120855|mtp:S|qry_typ:P|lang:en|wc:2|cs:8885|v=4,FALSE,Rajwada,Indore,"No. 214, Tilak Path, Near Maruti Hanuman Mandir, Rajwada, Indore - 452007, Dist.Indore, Madhya Pradesh",8046030945,
"Kids Play Mat, Size/Dimension: 5*7",https://www.indiamart.com/proddetail/kids-play-mat-27632200712.html?pos=150&kwd=infant products&tags=||||8747.203|Price|product|||TS|rsf:gd-|-stype:attr=1|qr_nm:gd|res:RC4|com-cf:nl|ptrs:na|ktp:N0|mc:120855|mtp:S|qry_typ:P|lang:en|wc:2|cs:8885|v=4,Jai Balaji Textiles,https://www.indiamart.com/jaibalajitextile-panipat/?pos=150&kwd=infant products&tags=||||8747.203|Price|product|||TS|rsf:gd-|-stype:attr=1|qr_nm:gd|res:RC4|com-cf:nl|ptrs:na|ktp:N0|mc:120855|mtp:S|qry_typ:P|lang:en|wc:2|cs:8885|v=4,FALSE,Sethi Chowk,Panipat,"Sethi Chowk, Sethi Chowk, Panipat - 132103, Dist.Panipat, Haryana",8047672751,
"Mauria Cotton Baby Hooded Towel, For Bathing, Size: 84 cm X 84 cm",https://www.indiamart.com/proddetail/baby-hooded-towel-21237229073.html?pos=151&kwd=infant products&tags=||||8769.508|Price|product|||TS|rsf:gd-|-stype:attr=1|qr_nm:gd|res:RC4|com-cf:nl|ptrs:na|ktp:N0|mc:120855|mtp:S|qry_typ:P|lang:en|wc:2|cs:8885|v=4,Mauria Udyog Limited,https://www.indiamart.com/mauriaudyog-delhi/?pos=151&kwd=infant products&tags=||||8769.508|Price|product|||TS|rsf:gd-|-stype:attr=1|qr_nm:gd|res:RC4|com-cf:nl|ptrs:na|ktp:N0|mc:120855|mtp:S|qry_typ:P|lang:en|wc:2|cs:8885|v=4,FALSE,Ballabhgarh,Faridabad,"Mauria Udyog Limited Sohna Road Sector-25, Ballabhgarh, Faridabad - 121004, Dist.Faridabad, Haryana",8048964009,
"Baby Wrap Towel, Newly Born",https://www.indiamart.com/proddetail/baby-wrap-towel-2853328014873.html?pos=152&kwd=infant products&tags=||||8747.203||product|||TS|rsf:gd-|-stype:attr=1|qr_nm:gd|res:RC4|com-cf:nl|ptrs:na|ktp:N0|mc:120855|mtp:S|qry_typ:P|lang:en|wc:2|cs:8885|v=4,Paras Blanket,https://www.parasblanket.com/?pos=152&kwd=infant products&tags=||||8747.203||product|||TS|rsf:gd-|-stype:attr=1|qr_nm:gd|res:RC4|com-cf:nl|ptrs:na|ktp:N0|mc:120855|mtp:S|qry_typ:P|lang:en|wc:2|cs:8885|v=4,FALSE,Old Housing Board Colony,Panipat,"Shop No. 1, 2, 3, New Pachranga Market Pachranga Bazar, Old Housing Board Colony, Panipat - 132103, Dist.Panipat, Haryana",8048968656,
"Blue Silicone Baby Sleeping Pad, Packaging Type: Poly, 3-12 Months",https://www.indiamart.com/proddetail/baby-sleeping-pad-24018802933.html?pos=153&kwd=infant products&tags=||||8752.144|Price|product|||TS|rsf:gd-|-stype:attr=1|qr_nm:gd|res:RC4|com-cf:nl|ptrs:na|ktp:N0|mc:120855|mtp:S|qry_typ:P|lang:en|wc:2|cs:8885|v=4,Rudra Impex,https://www.msrudraimpex.com/?pos=153&kwd=infant products&tags=||||8752.144|Price|product|||TS|rsf:gd-|-stype:attr=1|qr_nm:gd|res:RC4|com-cf:nl|ptrs:na|ktp:N0|mc:120855|mtp:S|qry_typ:P|lang:en|wc:2|cs:8885|v=4,FALSE,Jeevan Park,New Delhi,"THIRD FLOOR,RZ 17,MAHINDRA PARK,,UTTAM NAGAR, Jeevan Park, New Delhi - 110059, Dist.Delhi, Delhi",8046044050,
"Ritvik Enterprises Plain Baby Towel, Packaging Type: Packet, Newly Born",https://www.indiamart.com/proddetail/plain-baby-towel-21942708862.html?pos=154&kwd=infant products&tags=||||8601.347|Price|product|||TS|rsf:gd-|-stype:attr=1|qr_nm:gd|res:RC4|com-cf:nl|ptrs:na|ktp:N0|mc:120855|mtp:S|qry_typ:P|lang:en|wc:2|cs:8885|v=4,Ritvik Enterprises,https://www.indiamart.com/ritvikenterprises-jaipur/?pos=154&kwd=infant products&tags=||||8601.347|Price|product|||TS|rsf:gd-|-stype:attr=1|qr_nm:gd|res:RC4|com-cf:nl|ptrs:na|ktp:N0|mc:120855|mtp:S|qry_typ:P|lang:en|wc:2|cs:8885|v=4,FALSE,Mansarovar,Jaipur,"117/678, Agarwal Farm, Mansarovar, Jaipur - 302020, Dist.Jaipur, Rajasthan",7942545190,
"Printed Sky Blue,White Baby Hooded Towel, For Kids",https://www.indiamart.com/proddetail/baby-hooded-towel-25736161855.html?pos=155&kwd=infant products&tags=||||9839.57|Price|product|||TS|rsf:gd-|-stype:attr=1|qr_nm:gd|res:RC4|com-cf:nl|ptrs:na|ktp:N0|mc:120855|mtp:S|qry_typ:P|lang:en|wc:2|cs:8885|v=4,Feelit Apparels Private Limited,https://www.indiamart.com/feelit-apparels/?pos=155&kwd=infant products&tags=||||9839.57|Price|product|||TS|rsf:gd-|-stype:attr=1|qr_nm:gd|res:RC4|com-cf:nl|ptrs:na|ktp:N0|mc:120855|mtp:S|qry_typ:P|lang:en|wc:2|cs:8885|v=4,FALSE,Alipore,Kolkata,"8/A, Ground Floor, Sen Lane, Ahiritola, Alipore, Kolkata - 700005, Dist.Kolkata, West Bengal",8047653523,
"Gender: Male Printed Baby Bibs, Packaging Type: Box, Newly Born",https://www.indiamart.com/proddetail/baby-bibs-4054082848.html?pos=156&kwd=infant products&tags=||||8668.838|Price|product|||TS|rsf:gd-|-stype:attr=1|qr_nm:gd|res:RC4|com-cf:nl|ptrs:na|ktp:N0|mc:120855|mtp:S|qry_typ:P|lang:en|wc:2|cs:8885|v=4,KPR Home Fashions,https://www.kprhomefashions.com/?pos=156&kwd=infant products&tags=||||8668.838|Price|product|||TS|rsf:gd-|-stype:attr=1|qr_nm:gd|res:RC4|com-cf:nl|ptrs:na|ktp:N0|mc:120855|mtp:S|qry_typ:P|lang:en|wc:2|cs:8885|v=4,FALSE,Kongampalayam,Erode,"No. 37, Erode Bypass Road, Laxmipuram Vaikkal Medu, Kongampalayam, Erode - 638102, Dist.Erode, Tamil Nadu",8047646539,
"Material: Cotton Design: Checked Baby Bibs And Apron, For Kitchen, Size: Medium",https://www.indiamart.com/proddetail/baby-bibs-and-apron-2853628472112.html?pos=157&kwd=infant products&tags=||||8752.144|Price|product|||TS|rsf:gd-|-stype:attr=1|qr_nm:gd|res:RC4|com-cf:nl|ptrs:na|ktp:N0|mc:120855|mtp:S|qry_typ:P|lang:en|wc:2|cs:8885|v=4,VK Enterprises,https://www.indiamart.com/vkenterprises-newdelhi-india/?pos=157&kwd=infant products&tags=||||8752.144|Price|product|||TS|rsf:gd-|-stype:attr=1|qr_nm:gd|res:RC4|com-cf:nl|ptrs:na|ktp:N0|mc:120855|mtp:S|qry_typ:P|lang:en|wc:2|cs:8885|v=4,FALSE,Mohan Garden,New Delhi,"House No-66, Blk-R3-A3 Mohan Garden, West Delhi, Mohan Garden, New Delhi - 110059, Dist.Delhi, Delhi",8047658467,
Bib,https://www.indiamart.com/proddetail/bib-20136800430.html?pos=158&kwd=infant products&tags=||||8626.744|Price|product|||TS|rsf:gd-|-stype:attr=1|qr_nm:gd|res:RC4|com-cf:nl|ptrs:na|ktp:N0|mc:120855|mtp:S|qry_typ:P|lang:en|wc:2|cs:8885|v=4,Midas Clothing Company,https://www.indiamart.com/midasclothing-company/?pos=158&kwd=infant products&tags=||||8626.744|Price|product|||TS|rsf:gd-|-stype:attr=1|qr_nm:gd|res:RC4|com-cf:nl|ptrs:na|ktp:N0|mc:120855|mtp:S|qry_typ:P|lang:en|wc:2|cs:8885|v=4,FALSE,Pooluvapatti,Tiruppur,"Ground Floor , A1, 8/1682, Thiru Nagar,pandian Nagar, P N Road,nerupperichal Village, Pooluvapatti, Tiruppur - 641602, Dist.Coimbatore, Tamil Nadu",8047640475,
Baby Hosiery Padded Nappy(Langot),https://www.indiamart.com/proddetail/baby-hosiery-padded-nappy-langot-2850558293712.html?pos=159&kwd=infant products&tags=||||8211.142||product|||TS|rsf:gd-|-stype:attr=1|qr_nm:gd|res:RC4|com-cf:nl|ptrs:na|ktp:N0|mc:120855|mtp:S|qry_typ:P|lang:en|wc:2|cs:8885|v=4,Mansvi Artts,https://www.indiamart.com/mansvi-artts/?pos=159&kwd=infant products&tags=||||8211.142||product|||TS|rsf:gd-|-stype:attr=1|qr_nm:gd|res:RC4|com-cf:nl|ptrs:na|ktp:N0|mc:120855|mtp:S|qry_typ:P|lang:en|wc:2|cs:8885|v=4,FALSE,Malad East,Mumbai,"Room No.39 Kurar Village Sai Darshan Niwas, Shiv Shakti Colony, Malad East, Mumbai - 400097, Dist.Mumbai, Maharashtra",8047551199,
New Born Baby Bib,https://www.indiamart.com/proddetail/new-born-baby-bib-11669904497.html?pos=160&kwd=infant products&tags=||||8211.142|Price|product|||TS|rsf:gd-|-stype:attr=1|qr_nm:gd|res:RC4|com-cf:nl|ptrs:na|ktp:N0|mc:120855|mtp:S|qry_typ:P|lang:en|wc:2|cs:8885|v=4,Welcome Enterprise,https://www.welcomeenterprise.in/?pos=160&kwd=infant products&tags=||||8211.142|Price|product|||TS|rsf:gd-|-stype:attr=1|qr_nm:gd|res:RC4|com-cf:nl|ptrs:na|ktp:N0|mc:120855|mtp:S|qry_typ:P|lang:en|wc:2|cs:8885|v=4,FALSE,Santacruz West,Mumbai,"1,Gulam Rasul Chawl No. 149,Khot Wadi, Besant Road,Santacruz West, Santacruz West, Mumbai - 400054, Dist.Mumbai, Maharashtra",8048601972,
Baby Bib,,Ri Ra Creations,https://www.indiamart.com/riracreations/?pos=161&kwd=infant products&tags=||||8661.854||product|||TS|rsf:gd-|-stype:attr=1|qr_nm:gd|res:RC4|com-cf:nl|ptrs:na|ktp:N0|mc:120855|mtp:S|qry_typ:P|lang:en|wc:2|cs:8885|v=4,FALSE,Indl Colony,Ludhiana,"109,Industrial Area-A, Indl Colony, Ludhiana - 141003, Dist.Ludhiana, Punjab",8047645238,
Baby Muslin Cloth,https://www.indiamart.com/proddetail/baby-muslin-cloth-2851679279988.html?pos=162&kwd=infant products&tags=||||8502.28|Price|product|||TS|rsf:gd-|-stype:attr=1|qr_nm:gd|res:RC4|com-cf:nl|ptrs:na|ktp:N0|mc:120855|mtp:S|qry_typ:P|lang:en|wc:2|cs:8885|v=4,Orlon,https://www.indiamart.com/orlon-kottuvally/?pos=162&kwd=infant products&tags=||||8502.28|Price|product|||TS|rsf:gd-|-stype:attr=1|qr_nm:gd|res:RC4|com-cf:nl|ptrs:na|ktp:N0|mc:120855|mtp:S|qry_typ:P|lang:en|wc:2|cs:8885|v=4,FALSE,Koonammavu,Kottuvally,"18/186, Near Vyapara Bhavan, Kongorppilly, Alangad, Ernakulam, Koonammavu, Kottuvally - 683518, Dist.Ernakulam, Kerala",7942788125,
"Soft Multicolor Silicone Baby Gum Cleaner, For Tooth Cleaning",https://www.indiamart.com/proddetail/silicone-baby-gum-cleaner-25962194697.html?pos=163&kwd=infant products&tags=||||8752.144|Price|product|||TS|rsf:gd-|-stype:attr=1|qr_nm:gd|res:RC4|com-cf:nl|ptrs:na|ktp:N0|mc:120855|mtp:S|qry_typ:P|lang:en|wc:2|cs:8885|v=4,Shiv Darshan Sansthan,https://www.shivdarshansansthan.com/?pos=163&kwd=infant products&tags=||||8752.144|Price|product|||TS|rsf:gd-|-stype:attr=1|qr_nm:gd|res:RC4|com-cf:nl|ptrs:na|ktp:N0|mc:120855|mtp:S|qry_typ:P|lang:en|wc:2|cs:8885|v=4,FALSE,Pandav Nagar,New Delhi,"Bunglow, Plot No. 10, Pandav Nagar, New Delhi - 110092, Dist.Delhi, Delhi",8048984990,
"Rectangular Blue Cotton Baby Bibs, 3-12 Months",https://www.indiamart.com/proddetail/cotton-baby-bibs-20924160373.html?pos=164&kwd=infant products&tags=||||8752.144|Price|product|||TS|rsf:gd-|-stype:attr=1|qr_nm:gd|res:RC4|com-cf:nl|ptrs:na|ktp:N0|mc:120855|mtp:S|qry_typ:P|lang:en|wc:2|cs:8885|v=4,Mom & Son,https://www.theindianchoice.com/?pos=164&kwd=infant products&tags=||||8752.144|Price|product|||TS|rsf:gd-|-stype:attr=1|qr_nm:gd|res:RC4|com-cf:nl|ptrs:na|ktp:N0|mc:120855|mtp:S|qry_typ:P|lang:en|wc:2|cs:8885|v=4,FALSE,Karawal Nagar,New Delhi,"B-57 Gali Number-1 Mukund Vihar, Near Pnb Bank, Karawal Nagar, New Delhi - 110094, Dist.Delhi, Delhi",7942565509,
Multicolor Girl & Boy Cotton Baby Bibs,https://www.indiamart.com/proddetail/cotton-baby-bibs-23480629248.html?pos=165&kwd=infant products&tags=||||8601.347|Price|product|||TS|rsf:gd-|-stype:attr=1|qr_nm:gd|res:RC4|com-cf:nl|ptrs:na|ktp:N0|mc:120855|mtp:S|qry_typ:P|lang:en|wc:2|cs:8885|v=4,Shree Shyam Textiles & Handicrafts,https://www.shreeshyamtextileandhandicraft.com/?pos=165&kwd=infant products&tags=||||8601.347|Price|product|||TS|rsf:gd-|-stype:attr=1|qr_nm:gd|res:RC4|com-cf:nl|ptrs:na|ktp:N0|mc:120855|mtp:S|qry_typ:P|lang:en|wc:2|cs:8885|v=4,TRUE,Sitapura,Jaipur,"Oppoiste Police Station, Manoharpur, Shahpura, Sitapura, Jaipur - 303104, Dist.Jaipur, Rajasthan",7942547785,
"Character-Themed Baby Blanket Cum Towel Soft, Absorbent & Multi-Purpose",https://www.indiamart.com/proddetail/character-themed-baby-blanket-cum-towel-soft-absorbent-multi-purpose-2854921577797.html?pos=166&kwd=infant products&tags=||||8661.854|Price|product|||TS|rsf:gd-|-stype:attr=1|qr_nm:gd|res:RC4|com-cf:nl|ptrs:na|ktp:N0|mc:120855|mtp:S|qry_typ:P|lang:en|wc:2|cs:8885|v=4,Adwaita Export,https://www.indiamart.com/adwaitaexport/?pos=166&kwd=infant products&tags=||||8661.854|Price|product|||TS|rsf:gd-|-stype:attr=1|qr_nm:gd|res:RC4|com-cf:nl|ptrs:na|ktp:N0|mc:120855|mtp:S|qry_typ:P|lang:en|wc:2|cs:8885|v=4,FALSE,Joshi Nagar,Ludhiana,"B-34-3912,,DURGA PURI,HAIBOWAL KALAN LUDHIANA, Joshi Nagar, Ludhiana - 141001, Dist.Ludhiana, Punjab",8044015715,
Baby Play Mat,https://www.indiamart.com/proddetail/baby-play-mat-2853050615191.html?pos=167&kwd=infant products&tags=||||8230.883|Price|product|||TS|rsf:gd-|-stype:attr=1|qr_nm:gd|res:RC4|com-cf:nl|ptrs:na|ktp:N0|mc:120855|mtp:S|qry_typ:P|lang:en|wc:2|cs:8885|v=4,Basketo,https://www.basketo.net/?pos=167&kwd=infant products&tags=||||8230.883|Price|product|||TS|rsf:gd-|-stype:attr=1|qr_nm:gd|res:RC4|com-cf:nl|ptrs:na|ktp:N0|mc:120855|mtp:S|qry_typ:P|lang:en|wc:2|cs:8885|v=4,FALSE,Singanpor,Surat,"PLOT NO-32,Laxmi Narayan Society,DABHOLI CHAR RASTA, VED ROAD,Surat, Singanpor, Surat - 395004, Dist.Surat, Gujarat",7942716532,
Cotton Baby Bib,https://www.indiamart.com/proddetail/baby-bib-2851087384873.html?pos=168&kwd=infant products&tags=||||8211.142|Price|product|||TS|rsf:gd-|-stype:attr=1|qr_nm:gd|res:RC4|com-cf:nl|ptrs:na|ktp:N0|mc:120855|mtp:S|qry_typ:P|lang:en|wc:2|cs:8885|v=4,Child King Creation,https://www.indiamart.com/childkingcreation-mumbai/?pos=168&kwd=infant products&tags=||||8211.142|Price|product|||TS|rsf:gd-|-stype:attr=1|qr_nm:gd|res:RC4|com-cf:nl|ptrs:na|ktp:N0|mc:120855|mtp:S|qry_typ:P|lang:en|wc:2|cs:8885|v=4,FALSE,Malad West,Mumbai,"B 705, Seven Floor, Jagmagia Centre, Mamlatdar Wadi EXTN Road Nahar Nagar, Malad West, Suburban, Malad West, Mumbai - 400064, Dist.Mumbai, Maharashtra",8043805922,
Cotton lnfant Bibs,https://www.indiamart.com/proddetail/cotton-lnfant-bibs-2851595510612.html?pos=169&kwd=infant products&tags=||||8556.86|Price|product|||TS|rsf:gd-|-stype:attr=1|qr_nm:gd|res:RC4|com-cf:nl|ptrs:na|ktp:N0|mc:120855|mtp:S|qry_typ:P|lang:en|wc:2|cs:8885|v=4,Lalli's,https://www.indiamart.com/lallis/?pos=169&kwd=infant products&tags=||||8556.86|Price|product|||TS|rsf:gd-|-stype:attr=1|qr_nm:gd|res:RC4|com-cf:nl|ptrs:na|ktp:N0|mc:120855|mtp:S|qry_typ:P|lang:en|wc:2|cs:8885|v=4,FALSE,Bengaluru,Ujjain,"F- Block 121 Ujjain Hatkeshwre Vohar Colony, Bengaluru, Ujjain - 456001, Dist.Ujjain, Madhya Pradesh",8044011808,
Bear Hair Wrap,https://www.indiamart.com/proddetail/bear-hair-wrap-2850885232273.html?pos=170&kwd=infant products&tags=||||8230.883|Price|product|||TS|rsf:gd-|-stype:attr=1|qr_nm:gd|res:RC4|com-cf:nl|ptrs:na|ktp:N0|mc:120855|mtp:S|qry_typ:P|lang:en|wc:2|cs:8885|v=4,Gadhiya Impex.,https://www.gadhiyaimpex.com/?pos=170&kwd=infant products&tags=||||8230.883|Price|product|||TS|rsf:gd-|-stype:attr=1|qr_nm:gd|res:RC4|com-cf:nl|ptrs:na|ktp:N0|mc:120855|mtp:S|qry_typ:P|lang:en|wc:2|cs:8885|v=4,FALSE,Katargam,Surat,"8th, 804, Variav Road, Panchshila Sky, Katargam, Surat - 394520, Dist.Surat, Gujarat",8047619805,
Multicolor BABY BACK HEAD PROTECTOR,https://www.indiamart.com/proddetail/baby-back-head-protector-2849544174091.html?pos=171&kwd=infant products&tags=||||8230.883|Price|product|||TS|rsf:gd-|-stype:attr=1|qr_nm:gd|res:RC4|com-cf:nl|ptrs:na|ktp:N0|mc:120855|mtp:S|qry_typ:P|lang:en|wc:2|cs:8885|v=4,Rozzby,https://www.cheaperzonetoys.com/?pos=171&kwd=infant products&tags=||||8230.883|Price|product|||TS|rsf:gd-|-stype:attr=1|qr_nm:gd|res:RC4|com-cf:nl|ptrs:na|ktp:N0|mc:120855|mtp:S|qry_typ:P|lang:en|wc:2|cs:8885|v=4,FALSE,Kosam,Surat,"1st Floor D-2,103 Vip Circle Shlok Recidency Utran, Kosam, Surat - 394105, Dist.Surat, Gujarat",8047622002,
"Cotton Baby Bibs Pure Manufacturer, Packaging Type: Poly bag",https://www.indiamart.com/proddetail/cotton-baby-bibs-pure-manufacturer-2850560091191.html?pos=172&kwd=infant products&tags=||||8601.347|Price|product|||TS|rsf:gd-|-stype:attr=1|qr_nm:gd|res:RC4|com-cf:nl|ptrs:na|ktp:N0|mc:120855|mtp:S|qry_typ:P|lang:en|wc:2|cs:8885|v=4,Vandana Handicraft,https://www.vandanahandicraft.net/?pos=172&kwd=infant products&tags=||||8601.347|Price|product|||TS|rsf:gd-|-stype:attr=1|qr_nm:gd|res:RC4|com-cf:nl|ptrs:na|ktp:N0|mc:120855|mtp:S|qry_typ:P|lang:en|wc:2|cs:8885|v=4,TRUE,Sitapura Industrial Area,Jaipur,"Plot No. H-1167, Sitapura Industrial Area, Phase III, Sitapura Industrial Area, Jaipur - 302022, Dist.Jaipur, Rajasthan",8046049036,
Cotton Baby Bibs,https://www.indiamart.com/proddetail/cotton-baby-bibs-15275293433.html?pos=173&kwd=infant products&tags=||||8706.263||product|||TS|rsf:gd-|-stype:attr=1|qr_nm:gd|res:RC4|com-cf:nl|ptrs:na|ktp:N0|mc:120855|mtp:S|qry_typ:P|lang:en|wc:2|cs:8885|v=4,Saravana Traders,https://www.indiamart.com/saravana-traders-karur/?pos=173&kwd=infant products&tags=||||8706.263||product|||TS|rsf:gd-|-stype:attr=1|qr_nm:gd|res:RC4|com-cf:nl|ptrs:na|ktp:N0|mc:120855|mtp:S|qry_typ:P|lang:en|wc:2|cs:8885|v=4,TRUE,Lvb Nagar,Karur,"No. 71, Lvb Nagar, Karur - 639002, Dist.Karur, Tamil Nadu",8048958966,
White Cotton Baby Bib,https://www.indiamart.com/proddetail/white-cotton-baby-bib-2850632758773.html?pos=174&kwd=infant products&tags=||||8747.203|Price|product|||TS|rsf:gd-|-stype:attr=1|qr_nm:gd|res:RC4|com-cf:nl|ptrs:na|ktp:N0|mc:120855|mtp:S|qry_typ:P|lang:en|wc:2|cs:8885|v=4,Vardan Home Furnishings,https://www.vardanhomefurnishings.com/?pos=174&kwd=infant products&tags=||||8747.203|Price|product|||TS|rsf:gd-|-stype:attr=1|qr_nm:gd|res:RC4|com-cf:nl|ptrs:na|ktp:N0|mc:120855|mtp:S|qry_typ:P|lang:en|wc:2|cs:8885|v=4,FALSE,Chowk,Panipat,"Pehlwan Chowk, Vardan Home Furnishings, Kutani Road, Chowk, Panipat - 132103, Dist.Panipat, Haryana",7942957417,
Bib Baby Muslin Cloth Made Stylish Bib,https://www.indiamart.com/proddetail/bib-baby-muslin-cloth-made-stylish-bib-23817507962.html?pos=175&kwd=infant products&tags=||||8706.263|Price|product|||TS|rsf:gd-|-stype:attr=1|qr_nm:gd|res:RC4|com-cf:nl|ptrs:na|ktp:N0|mc:120855|mtp:S|qry_typ:P|lang:en|wc:2|cs:8885|v=4,Mercury Weavers,https://www.indiamart.com/mercuryweavers/?pos=175&kwd=infant products&tags=||||8706.263|Price|product|||TS|rsf:gd-|-stype:attr=1|qr_nm:gd|res:RC4|com-cf:nl|ptrs:na|ktp:N0|mc:120855|mtp:S|qry_typ:P|lang:en|wc:2|cs:8885|v=4,FALSE,Gowripuram,Karur,"35/3, 2nd Floor, Gandhi Nagar 3rd Cross, Karur Town, Gowripuram, Karur - 639001, Dist.Karur, Tamil Nadu",8047641180,
Bandana Bib,https://www.indiamart.com/proddetail/bandana-bib-22432146933.html?pos=176&kwd=infant products&tags=||||8663.873|Price|product|||TS|rsf:gd-|-stype:attr=1|qr_nm:gd|res:RC4|com-cf:nl|ptrs:na|ktp:N0|mc:120855|mtp:S|qry_typ:P|lang:en|wc:2|cs:8885|v=4,Alpha Organics Clothing India,https://www.indiamart.com/alphaorganicsclothingindia/?pos=176&kwd=infant products&tags=||||8663.873|Price|product|||TS|rsf:gd-|-stype:attr=1|qr_nm:gd|res:RC4|com-cf:nl|ptrs:na|ktp:N0|mc:120855|mtp:S|qry_typ:P|lang:en|wc:2|cs:8885|v=4,TRUE,Indiranagar,Bengaluru,"NO.3037,INDIRANAGAR,8TH MAIN ROAD, HAL 2ND STAGE,BANGALORE, Indiranagar, Bengaluru - 560038, Dist.Bengaluru, Karnataka",7942540831,
"Chic Buddy Baby Bib, Waterproof, Washable Fabric, Fits Babies and Toddlers 6-24 Months",https://www.indiamart.com/proddetail/chic-buddy-baby-bib-waterproof-washable-fabric-fits-babies-and-toddlers-6-24-months-2848988308255.html?pos=177&kwd=infant products&tags=||||8786.56|Price|product|||TS|rsf:gd-|-stype:attr=1|qr_nm:gd|res:RC4|com-cf:nl|ptrs:na|ktp:N0|mc:120855|mtp:S|qry_typ:P|lang:en|wc:2|cs:8885|v=4,Totcase Services Private Limited,https://www.totcase.com/?pos=177&kwd=infant products&tags=||||8786.56|Price|product|||TS|rsf:gd-|-stype:attr=1|qr_nm:gd|res:RC4|com-cf:nl|ptrs:na|ktp:N0|mc:120855|mtp:S|qry_typ:P|lang:en|wc:2|cs:8885|v=4,FALSE,Alwal,Hyderabad,"1-4-177/ A13/402 Shivasai Residency Greenwood Colony Old Alwal, Alwal, Hyderabad - 500010, Dist.Hyderabad, Telangana",8045910096,
"Paraben Free Products Newborn Baby Kit 5 Piece Set, For Gift Purpose",https://www.indiamart.com/proddetail/newborn-baby-kit-5-piece-set-2851787540655.html?pos=178&kwd=infant products&tags=||||8211.142|Price|product|||TS|rsf:gd-|-stype:attr=1|qr_nm:gd|res:RC4|com-cf:nl|ptrs:na|ktp:N0|mc:120855|mtp:S|qry_typ:P|lang:en|wc:2|cs:8885|v=4,Babuline Pharma Pvt. Ltd.,https://www.babuline.net/?pos=178&kwd=infant products&tags=||||8211.142|Price|product|||TS|rsf:gd-|-stype:attr=1|qr_nm:gd|res:RC4|com-cf:nl|ptrs:na|ktp:N0|mc:120855|mtp:S|qry_typ:P|lang:en|wc:2|cs:8885|v=4,FALSE,Mazgaon,Mumbai,"406, 4th Floor, Gulab Building, 237 P D Mello Road, Fort, Mazgaon, Mumbai - 400001, Dist.Mumbai, Maharashtra",8048964178,
Block Printed Baby Bib,https://www.indiamart.com/proddetail/block-printed-baby-bib-22828178155.html?pos=179&kwd=infant products&tags=||||8601.347|Price|product|||TS|rsf:gd-|-stype:attr=1|qr_nm:gd|res:RC4|com-cf:nl|ptrs:na|ktp:N0|mc:120855|mtp:S|qry_typ:P|lang:en|wc:2|cs:8885|v=4,Meera Handicrafts,https://www.meerahandicrafts.in/?pos=179&kwd=infant products&tags=||||8601.347|Price|product|||TS|rsf:gd-|-stype:attr=1|qr_nm:gd|res:RC4|com-cf:nl|ptrs:na|ktp:N0|mc:120855|mtp:S|qry_typ:P|lang:en|wc:2|cs:8885|v=4,TRUE,Govind Nagar,Jaipur,"Govind Nagar Vistar, Plot No 54b, Dussehra Kothi, Amer Road, Govind Nagar, Jaipur - 302002, Dist.Jaipur, Rajasthan",8048618585,
Himalaya Baby Care Products,https://www.indiamart.com/proddetail/himalaya-baby-care-products-2849260304462.html?pos=180&kwd=infant products&tags=||||8211.142||product|||TS|rsf:gd-|-stype:attr=1|qr_nm:gd|res:RC4|com-cf:nl|ptrs:na|ktp:N0|mc:120855|mtp:S|qry_typ:P|lang:en|wc:2|cs:8885|v=4,Ennar Enterprises,https://www.indiamart.com/ennar-entp-mumbai/?pos=180&kwd=infant products&tags=||||8211.142||product|||TS|rsf:gd-|-stype:attr=1|qr_nm:gd|res:RC4|com-cf:nl|ptrs:na|ktp:N0|mc:120855|mtp:S|qry_typ:P|lang:en|wc:2|cs:8885|v=4,FALSE,Masjid Bandar,Mumbai,"1st, M-101, Vardhaman Nagar, Dr R P Road, Masjid Bandar, Mumbai - 400080, Dist.Mumbai, Maharashtra",8046030904,
"White Cotton Muslin Baby Bib, Packaging Type: Packet, 3-12 Months",https://www.indiamart.com/proddetail/cotton-muslin-baby-bib-2853704082297.html?pos=181&kwd=infant products&tags=||||8706.263|Price|product|||TS|rsf:gd-|-stype:attr=1|qr_nm:gd|res:RC4|com-cf:nl|ptrs:na|ktp:N0|mc:120855|mtp:S|qry_typ:P|lang:en|wc:2|cs:8885|v=4,L S Textiles And Exports Private Limited,https://www.indiamart.com/lstextiles/?pos=181&kwd=infant products&tags=||||8706.263|Price|product|||TS|rsf:gd-|-stype:attr=1|qr_nm:gd|res:RC4|com-cf:nl|ptrs:na|ktp:N0|mc:120855|mtp:S|qry_typ:P|lang:en|wc:2|cs:8885|v=4,TRUE,Punnam,Karur,"S.F.No.141/13 South Punnam Village, Pugalur Taluk Palamapuram, Punnam, Karur - 639136, Dist.Karur, Tamil Nadu",8047851645,
"Unisex Casual Wear Newborn Baby Cotton Dress, Age Group: 0-3 Months",https://www.indiamart.com/proddetail/newborn-baby-cotton-dress-25223864562.html?pos=182&kwd=infant products&tags=||||8717.056|Price|product|||TS|rsf:gd-|-stype:attr=1|qr_nm:gd|res:RC4|com-cf:nl|ptrs:na|ktp:N0|mc:120855|mtp:S|qry_typ:P|lang:en|wc:2|cs:8885|v=4,SKT Textile Service India Private Limited,https://www.textilemanufacturersintamilnadu.com/?pos=182&kwd=infant products&tags=||||8717.056|Price|product|||TS|rsf:gd-|-stype:attr=1|qr_nm:gd|res:RC4|com-cf:nl|ptrs:na|ktp:N0|mc:120855|mtp:S|qry_typ:P|lang:en|wc:2|cs:8885|v=4,FALSE,Vellalagundam,Salem,"RST Number 3/288, 343 South Land, Vellalagundam, Salem - 636111, Dist.Salem, Tamil Nadu",8047631524,
"Multicolor Cotton 3 In 1 Baby Sleeping Bag, Newly Born, 3-12 Months",https://www.indiamart.com/proddetail/cotton-3-in-1-baby-sleeping-bag-newly-born-2855059597333.html?pos=183&kwd=infant products&tags=||||8230.883|Price|product|||TS|rsf:gd-|-stype:attr=1|qr_nm:gd|res:RC4|com-cf:nl|ptrs:na|ktp:N0|mc:120855|mtp:S|qry_typ:P|lang:en|wc:2|cs:8885|v=4,Hemiza Enterprise,https://www.hemiza.in/?pos=183&kwd=infant products&tags=||||8230.883|Price|product|||TS|rsf:gd-|-stype:attr=1|qr_nm:gd|res:RC4|com-cf:nl|ptrs:na|ktp:N0|mc:120855|mtp:S|qry_typ:P|lang:en|wc:2|cs:8885|v=4,FALSE,Katargam,Surat,"71, Ground Floor, Shubhash Nagar Society Near Shakti Nagar Ni Vadi, Katargam, Surat - 395004, Dist.Surat, Gujarat",8048976391,
Baby Towel,https://www.indiamart.com/proddetail/baby-towel-2853173331655.html?pos=184&kwd=infant products&tags=||||8747.203|Price|product|||TS|rsf:gd-|-stype:attr=1|qr_nm:gd|res:RC4|com-cf:nl|ptrs:na|ktp:N0|mc:120855|mtp:S|qry_typ:P|lang:en|wc:2|cs:8885|v=4,Shiv Textiles,https://www.indiamart.com/shivtextilespanipat/?pos=184&kwd=infant products&tags=||||8747.203|Price|product|||TS|rsf:gd-|-stype:attr=1|qr_nm:gd|res:RC4|com-cf:nl|ptrs:na|ktp:N0|mc:120855|mtp:S|qry_typ:P|lang:en|wc:2|cs:8885|v=4,FALSE,Jagjivan Ram Colony,Panipat,"Shop No.19-C, Aggarwal Gali Number 1, Gohana Road, Jagjivan Ram Colony, Panipat - 132103, Dist.Panipat, Haryana",7942665530,
Sanchi Creation Triangle Shape Nappy For New Born Baby - Organic Cotton,https://www.indiamart.com/proddetail/sanchi-creation-triangle-shape-nappy-for-new-born-baby-organic-cotton-22540034312.html?pos=185&kwd=infant products&tags=||||8281.036|Price|product|||TS|rsf:gd-|-stype:attr=1|qr_nm:gd|res:RC4|com-cf:nl|ptrs:na|ktp:N0|mc:120855|mtp:S|qry_typ:P|lang:en|wc:2|cs:8885|v=4,Sanchi Creation,https://www.indiamart.com/sanchi-creation-vadodara/?pos=185&kwd=infant products&tags=||||8281.036|Price|product|||TS|rsf:gd-|-stype:attr=1|qr_nm:gd|res:RC4|com-cf:nl|ptrs:na|ktp:N0|mc:120855|mtp:S|qry_typ:P|lang:en|wc:2|cs:8885|v=4,FALSE,H Chaturbhai Park Warasia Ring Road Vadodara,Vadodara,"Kalamandir Lane, Mangal Bazar, H Chaturbhai Park Warasia Ring Road Vadodara, Vadodara - 390006, Dist.Vadodara, Gujarat",8047632435,
"Multicolor Touch Baby Care Set, Packaging Type: Packet, Newly Born",https://www.indiamart.com/proddetail/touch-baby-care-set-2853197067148.html?pos=186&kwd=infant products&tags=||||9839.57|Price|product|||TS|rsf:gd-|-stype:attr=1|qr_nm:gd|res:RC4|com-cf:nl|ptrs:na|ktp:N0|mc:120855|mtp:S|qry_typ:P|lang:en|wc:2|cs:8885|v=4,Add Life Human Care Private Limited,https://www.indiamart.com/addlife-human-care/?pos=186&kwd=infant products&tags=||||9839.57|Price|product|||TS|rsf:gd-|-stype:attr=1|qr_nm:gd|res:RC4|com-cf:nl|ptrs:na|ktp:N0|mc:120855|mtp:S|qry_typ:P|lang:en|wc:2|cs:8885|v=4,FALSE,Beleghata East,Kolkata,"26/H/4 Barwari Tala Road Beliaghata, Beleghata East, Kolkata - 700010, Dist.Kolkata, West Bengal",7949220551,
Printed Fabric: Cotton Muslin Baby Towel Hooded,https://www.indiamart.com/proddetail/muslin-baby-towel-hooded-2854264179312.html?pos=187&kwd=infant products&tags=||||8668.838|Price|product|||TS|rsf:gd-|-stype:attr=1|qr_nm:gd|res:RC4|com-cf:nl|ptrs:na|ktp:N0|mc:120855|mtp:S|qry_typ:P|lang:en|wc:2|cs:8885|v=4,New Asia Textiles,https://www.indiamart.com/new-asia-textiles/?pos=187&kwd=infant products&tags=||||8668.838|Price|product|||TS|rsf:gd-|-stype:attr=1|qr_nm:gd|res:RC4|com-cf:nl|ptrs:na|ktp:N0|mc:120855|mtp:S|qry_typ:P|lang:en|wc:2|cs:8885|v=4,FALSE,,Erode,"42, Mosikeeranar Street-4 indra nagar, Erode - 638003, Dist.Erode, Tamil Nadu",8046070169,
"Multivoiz Multivitamin Multimineral Drops, 30 ml, Prescription",https://www.indiamart.com/proddetail/multivitamin-multimineral-drops-21796880173.html?pos=188&kwd=infant products&tags=||||8754.115|Price|product|||TS|rsf:gd-|-stype:attr=1|qr_nm:gd|res:RC4|com-cf:nl|ptrs:na|ktp:N0|mc:120855|mtp:S|qry_typ:P|lang:en|wc:2|cs:8885|v=4,Voizmed Pharma Private Limited,https://www.voizmed.co.in/?pos=188&kwd=infant products&tags=||||8754.115|Price|product|||TS|rsf:gd-|-stype:attr=1|qr_nm:gd|res:RC4|com-cf:nl|ptrs:na|ktp:N0|mc:120855|mtp:S|qry_typ:P|lang:en|wc:2|cs:8885|v=4,FALSE,Panchkula Industrial Area Phase 1,Panchkula,"PLOT NO 363 II FLOOR,IND AREA,PHASE II, Panchkula Industrial Area Phase 1, Panchkula - 134113, Dist.Panchkula, Haryana",7942551103,
BABY 3(pc) PACK BIBS ASSORTED,https://www.indiamart.com/proddetail/baby-3-pc-pack-bibs-assorted-27048661588.html?pos=189&kwd=infant products&tags=||||8626.744|Price|product|||TS|rsf:gd-|-stype:attr=1|qr_nm:gd|res:RC4|com-cf:nl|ptrs:na|ktp:N0|mc:120855|mtp:S|qry_typ:P|lang:en|wc:2|cs:8885|v=4,Sree Raj Kondal Export Enterprises,https://www.indiamart.com/sreerajkondalexportenterprises/?pos=189&kwd=infant products&tags=||||8626.744|Price|product|||TS|rsf:gd-|-stype:attr=1|qr_nm:gd|res:RC4|com-cf:nl|ptrs:na|ktp:N0|mc:120855|mtp:S|qry_typ:P|lang:en|wc:2|cs:8885|v=4,FALSE,Gandhi Nagar,Tiruppur,"8/191 E, A V P Layout, Angeripalayam, Gandhi Nagar, Tiruppur - 641603, Dist.Coimbatore, Tamil Nadu",8043890249,
Cotton Unisex Baby Feeding Bibs Newborn Super Soft Bibs Reversible Christmas Bibs,https://www.indiamart.com/proddetail/cotton-unisex-baby-feeding-bibs-newborn-super-soft-bibs-reversible-christmas-bibs-2851496290533.html?pos=190&kwd=infant products&tags=||||8752.144|Price|product|||TS|rsf:gd-|-stype:attr=1|qr_nm:gd|res:RC4|com-cf:nl|ptrs:na|ktp:N0|mc:120855|mtp:S|qry_typ:P|lang:en|wc:2|cs:8885|v=4,Instabuyz,https://www.indiamart.com/instabuyz/?pos=190&kwd=infant products&tags=||||8752.144|Price|product|||TS|rsf:gd-|-stype:attr=1|qr_nm:gd|res:RC4|com-cf:nl|ptrs:na|ktp:N0|mc:120855|mtp:S|qry_typ:P|lang:en|wc:2|cs:8885|v=4,FALSE,Paschim Vihar,New Delhi,"GH-4/319, Meera Apartments, Paschim Vihar, West Delhi, Paschim Vihar, New Delhi - 110063, Dist.Delhi, Delhi",8047696143,
"Polyester Bib For Kids, 1-2 Years",https://www.indiamart.com/proddetail/bib-for-kids-2855060491991.html?pos=191&kwd=infant products&tags=||||8861.147|Price|product|||TS|rsf:gd-|-stype:attr=1|qr_nm:gd|res:RC4|com-cf:nl|ptrs:na|ktp:N0|mc:120855|mtp:S|qry_typ:P|lang:en|wc:2|cs:8885|v=4,M/s R S Crystal,https://www.rscrystal.com/?pos=191&kwd=infant products&tags=||||8861.147|Price|product|||TS|rsf:gd-|-stype:attr=1|qr_nm:gd|res:RC4|com-cf:nl|ptrs:na|ktp:N0|mc:120855|mtp:S|qry_typ:P|lang:en|wc:2|cs:8885|v=4,FALSE,Sukhmalpur Nizamabad,Firozabad,"rssandeep bangle store, Sukhmalpur Nizamabad, Firozabad - 283203, Dist.Firozabad, Uttar Pradesh",8048962898,
Folding Baby Met,https://www.indiamart.com/proddetail/folding-baby-met-2853461909291.html?pos=192&kwd=infant products&tags=||||8230.883|Price|product|||TS|rsf:gd-|-stype:attr=1|qr_nm:gd|res:RC4|com-cf:nl|ptrs:na|ktp:N0|mc:120855|mtp:S|qry_typ:P|lang:en|wc:2|cs:8885|v=4,Alpyog Marketing,https://www.alpyogmarketing.com/?pos=192&kwd=infant products&tags=||||8230.883|Price|product|||TS|rsf:gd-|-stype:attr=1|qr_nm:gd|res:RC4|com-cf:nl|ptrs:na|ktp:N0|mc:120855|mtp:S|qry_typ:P|lang:en|wc:2|cs:8885|v=4,FALSE,Singanpor,Surat,"SY No,1-36, 1st Floor, Talav Falia, Rear Side, Post Siganpore, Katargam, Singanpor, Surat - 395004, Dist.Surat, Gujarat",8048968669,
"4-in-1 Grooming Kit/Manicure Kit for Babies/Infants/Toddler with Scissors, Nail Clipper, Filer,",https://www.indiamart.com/proddetail/4-in-1-grooming-kit-manicure-kit-for-babies-infants-toddler-with-scissors-nail-clipper-filer-2852125837691.html?pos=193&kwd=infant products&tags=||||8741.812|Price|product|||TS|rsf:gd-|-stype:attr=1|qr_nm:gd|res:RC4|com-cf:nl|ptrs:na|ktp:N0|mc:120855|mtp:S|qry_typ:P|lang:en|wc:2|cs:8885|v=4,Om Deal Online,https://www.indiamart.com/om-deal-online/?pos=193&kwd=infant products&tags=||||8741.812|Price|product|||TS|rsf:gd-|-stype:attr=1|qr_nm:gd|res:RC4|com-cf:nl|ptrs:na|ktp:N0|mc:120855|mtp:S|qry_typ:P|lang:en|wc:2|cs:8885|v=4,FALSE,Sector 93,Gurugram,"114, IMT Road, Government High School, Hayatpur, Sector 93, Gurugram - 122505, Dist.Gurgaon, Haryana",7942836824,
Fancy Baby Bibs,https://www.indiamart.com/proddetail/fancy-baby-bibs-25675137133.html?pos=194&kwd=infant products&tags=||||8752.144|Price|product|||TS|rsf:gd-|-stype:attr=1|qr_nm:gd|res:RC4|com-cf:nl|ptrs:na|ktp:N0|mc:120855|mtp:S|qry_typ:P|lang:en|wc:2|cs:8885|v=4,Aman Impex,https://www.myamanimpex.com/?pos=194&kwd=infant products&tags=||||8752.144|Price|product|||TS|rsf:gd-|-stype:attr=1|qr_nm:gd|res:RC4|com-cf:nl|ptrs:na|ktp:N0|mc:120855|mtp:S|qry_typ:P|lang:en|wc:2|cs:8885|v=4,FALSE,Paschim Vihar,New Delhi,"Flat No. 681, S/F Janta Flats, Pocket-II, Paschim Puri, Paschim Vihar, New Delhi - 110063, Dist.Delhi, Delhi",8048600148,
Baby Apron Bib,https://www.indiamart.com/proddetail/baby-apron-bib-2849883666530.html?pos=195&kwd=infant products&tags=||||8869.224|Price|product|||TS|rsf:gd-|-stype:attr=1|qr_nm:gd|res:RC4|com-cf:nl|ptrs:na|ktp:N0|mc:120855|mtp:S|qry_typ:P|lang:en|wc:2|cs:8885|v=4,M/S Udggam,https://www.indiamart.com/udggam-nandpuri/?pos=195&kwd=infant products&tags=||||8869.224|Price|product|||TS|rsf:gd-|-stype:attr=1|qr_nm:gd|res:RC4|com-cf:nl|ptrs:na|ktp:N0|mc:120855|mtp:S|qry_typ:P|lang:en|wc:2|cs:8885|v=4,FALSE,Nandpuri,Haridwar,"7A, Nandpuri, Aryanagar, Jwalapur, Nandpuri, Haridwar - 249407, Dist.Haridwar, Uttarakhand",8043878420,
Baby Bibs Apron for Baby boy and Girl Washable and Reusable Apron (BB-5),https://www.indiamart.com/proddetail/baby-bibs-apron-for-baby-boy-and-girl-washable-and-reusable-apron-bb-5-2852149780897.html?pos=196&kwd=infant products&tags=||||8752.144|Price|product|||TS|rsf:gd-|-stype:attr=1|qr_nm:gd|res:RC4|com-cf:nl|ptrs:na|ktp:N0|mc:120855|mtp:S|qry_typ:P|lang:en|wc:2|cs:8885|v=4,Gtglobal Trade India Private Limited,https://www.gtcglobal.in/?pos=196&kwd=infant products&tags=||||8752.144|Price|product|||TS|rsf:gd-|-stype:attr=1|qr_nm:gd|res:RC4|com-cf:nl|ptrs:na|ktp:N0|mc:120855|mtp:S|qry_typ:P|lang:en|wc:2|cs:8885|v=4,FALSE,Swaroop Nagar,New Delhi,"Plot No 144/145 , Kh. No.16/10, Gali No-7 Swaroop Nagar Extension, Swaroop Nagar, New Delhi - 110042, Dist.Delhi, Delhi",8048960531,
Baby Plastic Bibs,https://www.indiamart.com/proddetail/baby-plastic-bibs-2855071914955.html?pos=197&kwd=infant products&tags=||||8230.883|Price|product|||TS|rsf:gd-|-stype:attr=1|qr_nm:gd|res:RC4|com-cf:nl|ptrs:na|ktp:N0|mc:120855|mtp:S|qry_typ:P|lang:en|wc:2|cs:8885|v=4,Rihish,https://www.indiamart.com/rihish-surat/?pos=197&kwd=infant products&tags=||||8230.883|Price|product|||TS|rsf:gd-|-stype:attr=1|qr_nm:gd|res:RC4|com-cf:nl|ptrs:na|ktp:N0|mc:120855|mtp:S|qry_typ:P|lang:en|wc:2|cs:8885|v=4,FALSE,Chorasi,Surat,"Ground Floor, Plot No. 9, Shubham Industries-1, Saniya Hemad, Chorasi, Surat - 395006, Dist.Surat, Gujarat",8045165300,
"Rubber Set Of 4 Colours Kids Mat, Mat Size: 2x2 Foot, Interlocking",https://www.indiamart.com/proddetail/kids-mat-2851972918173.html?pos=198&kwd=infant products&tags=||||8752.144|Price|product|||TS|rsf:gd-|-stype:attr=1|qr_nm:gd|res:RC4|com-cf:nl|ptrs:na|ktp:N0|mc:120855|mtp:S|qry_typ:P|lang:en|wc:2|cs:8885|v=4,Ankit Polymers,https://www.indiamart.com/ankitpolymers-delhi/?pos=198&kwd=infant products&tags=||||8752.144|Price|product|||TS|rsf:gd-|-stype:attr=1|qr_nm:gd|res:RC4|com-cf:nl|ptrs:na|ktp:N0|mc:120855|mtp:S|qry_typ:P|lang:en|wc:2|cs:8885|v=4,FALSE,Bawana,New Delhi,"M-198, Sector 1, DSIIDC, Bawana, New Delhi - 110039, Dist.Delhi, Delhi",8047640834,
"Printed Baby Pull Up Pants, Small",https://www.indiamart.com/proddetail/baby-pull-up-pants-2854577937691.html?pos=199&kwd=infant products&tags=||||8601.347||product|||TS|rsf:gd-|-stype:attr=1|qr_nm:gd|res:RC4|com-cf:nl|ptrs:na|ktp:N0|mc:120855|mtp:S|qry_typ:P|lang:en|wc:2|cs:8885|v=4,Jayom Choice Industries,https://www.jayomchoice.com/?pos=199&kwd=infant products&tags=||||8601.347||product|||TS|rsf:gd-|-stype:attr=1|qr_nm:gd|res:RC4|com-cf:nl|ptrs:na|ktp:N0|mc:120855|mtp:S|qry_typ:P|lang:en|wc:2|cs:8885|v=4,FALSE,Sukhdeopura Nohara,Jaipur,"EF-152 Gulmohar Garden Phase-III Vatika Road, Manpur Bhatawala, Sukhdeopura Nohara, Jaipur - 303905, Dist.Jaipur, Rajasthan",8048975546,
"Rectangular Blue Inflatable Baby Water Mat, 3-12 Months, Mat Size: 66 X 50 cm",https://www.indiamart.com/proddetail/inflatable-baby-water-mat-2850394284130.html?pos=200&kwd=infant products&tags=||||8752.144|Price|product|||TS|rsf:gd-|-stype:attr=1|qr_nm:gd|res:RC4|com-cf:nl|ptrs:na|ktp:N0|mc:120855|mtp:S|qry_typ:P|lang:en|wc:2|cs:8885|v=4,House Of Luxury,https://www.theholworld.net/?pos=200&kwd=infant products&tags=||||8752.144|Price|product|||TS|rsf:gd-|-stype:attr=1|qr_nm:gd|res:RC4|com-cf:nl|ptrs:na|ktp:N0|mc:120855|mtp:S|qry_typ:P|lang:en|wc:2|cs:8885|v=4,FALSE,Budh Vihar,New Delhi,"Plot No - 5, Kh. No. - 89/10/2, 1, Block No. - I-1, Budh Vihar Phase 1, Delhi, North West Delhi, Del, Budh Vihar, New Delhi - 110086, Dist.Delhi, Delhi",7942819716,
Multicolor Baby Kids Water Play Mat,https://www.indiamart.com/proddetail/baby-kids-water-play-mat-24341727862.html?pos=201&kwd=infant products&tags=||||8230.883|Price|product|||TS|rsf:gd-|-stype:attr=1|qr_nm:gd|res:RC4|com-cf:nl|ptrs:na|ktp:N0|mc:120855|mtp:S|qry_typ:P|lang:en|wc:2|cs:8885|v=4,Angel Enterprise,https://www.angelenterprise.net/?pos=201&kwd=infant products&tags=||||8230.883|Price|product|||TS|rsf:gd-|-stype:attr=1|qr_nm:gd|res:RC4|com-cf:nl|ptrs:na|ktp:N0|mc:120855|mtp:S|qry_typ:P|lang:en|wc:2|cs:8885|v=4,FALSE,Singanpor,Surat,"Basement Plot No-c/45 Singanpore Road Radheshyam Society, Singanpor, Surat - 395004, Dist.Surat, Gujarat",8045910723,
MITSICO Water Play Mat for Baby Inflatable Baby Slapped Pad Toy Indoor and Outdoor Water for Infants,https://www.indiamart.com/proddetail/mitsico-water-play-mat-for-baby-inflatable-baby-slapped-pad-toy-indoor-and-outdoor-water-for-infants-25769353197.html?pos=202&kwd=infant products&tags=||||8230.883|Price|product|||TS|rsf:gd-|-stype:attr=1|qr_nm:gd|res:RC4|com-cf:nl|ptrs:na|ktp:N0|mc:120855|mtp:S|qry_typ:P|lang:en|wc:2|cs:8885|v=4,Mitsico,https://www.mitsico.in/?pos=202&kwd=infant products&tags=||||8230.883|Price|product|||TS|rsf:gd-|-stype:attr=1|qr_nm:gd|res:RC4|com-cf:nl|ptrs:na|ktp:N0|mc:120855|mtp:S|qry_typ:P|lang:en|wc:2|cs:8885|v=4,FALSE,KATARGAM,Surat,"Basement-1, Shop No.- A1, Sunday Hub Shopping Center, Amba Talavadi, Opp. Shree Vinayak Residency, KATARGAM, Surat - 395004, Dist.Surat, Gujarat",8047649165,
"Soft White Littloo Baby Finger Tooth Brush, Packaging Type: Box",https://www.indiamart.com/proddetail/littloo-baby-finger-tooth-brush-21930505797.html?pos=203&kwd=infant products&tags=||||8752.144|Price|product|||TS|rsf:gd-|-stype:attr=1|qr_nm:gd|res:RC4|com-cf:nl|ptrs:na|ktp:N0|mc:120855|mtp:S|qry_typ:P|lang:en|wc:2|cs:8885|v=4,Salvia Cosmeceuticals Private Limited,https://www.salviacosmeceuticals.in/?pos=203&kwd=infant products&tags=||||8752.144|Price|product|||TS|rsf:gd-|-stype:attr=1|qr_nm:gd|res:RC4|com-cf:nl|ptrs:na|ktp:N0|mc:120855|mtp:S|qry_typ:P|lang:en|wc:2|cs:8885|v=4,FALSE,Ashok Vihar,New Delhi,"301-A, Prop. No.48, Second Floor, Rama Road, Najafgarh Road Industrial Area, Kirti Nagar, New Delhi,, Ashok Vihar, New Delhi - 110052, Dist.Delhi, Delhi",7942559667,
Gama Cotton Bibs,https://www.indiamart.com/proddetail/cotton-bibs-7915066533.html?pos=204&kwd=infant products&tags=||||8813.969||product|||TS|rsf:gd-|-stype:attr=1|qr_nm:gd|res:RC4|com-cf:nl|ptrs:na|ktp:N0|mc:120855|mtp:S|qry_typ:P|lang:en|wc:2|cs:8885|v=4,G & A International,https://www.gamaindia.biz/?pos=204&kwd=infant products&tags=||||8813.969||product|||TS|rsf:gd-|-stype:attr=1|qr_nm:gd|res:RC4|com-cf:nl|ptrs:na|ktp:N0|mc:120855|mtp:S|qry_typ:P|lang:en|wc:2|cs:8885|v=4,FALSE,Boundary Road,Meerut,"354, Govindlok, 61, Boundary Road, Meerut - 250001, Dist.Meerut, Uttar Pradesh",8047639479,
"Rrc Baby Towels, Kids Towael With Baby Cap On Corner",https://www.indiamart.com/proddetail/rrc-baby-towels-kids-towael-with-baby-cap-on-corner-27182073412.html?pos=205&kwd=infant products&tags=||||8601.347|Price|product|||TS|rsf:gd-|-stype:attr=1|qr_nm:gd|res:RC4|com-cf:nl|ptrs:na|ktp:N0|mc:120855|mtp:S|qry_typ:P|lang:en|wc:2|cs:8885|v=4,RR Creations,https://www.rrcreation.co.in/?pos=205&kwd=infant products&tags=||||8601.347|Price|product|||TS|rsf:gd-|-stype:attr=1|qr_nm:gd|res:RC4|com-cf:nl|ptrs:na|ktp:N0|mc:120855|mtp:S|qry_typ:P|lang:en|wc:2|cs:8885|v=4,FALSE,Raghunathgarh,Jaipur,"A7D, Raghunath Colony, Galta Gate, Raghunathgarh, Jaipur - 302003, Dist.Jaipur, Rajasthan",8047620731,
"Dreamcare Waterproof Luxury Baby Bibs, Packaging Type: Box",https://www.indiamart.com/proddetail/waterproof-luxury-baby-bibs-23196795812.html?pos=206&kwd=infant products&tags=||||8752.144|Price|product|||TS|rsf:gd-|-stype:attr=1|qr_nm:gd|res:RC4|com-cf:nl|ptrs:na|ktp:N0|mc:120855|mtp:S|qry_typ:P|lang:en|wc:2|cs:8885|v=4,Dream Care Furnishings Private Limited,https://www.indiamart.com/dreamcare/?pos=206&kwd=infant products&tags=||||8752.144|Price|product|||TS|rsf:gd-|-stype:attr=1|qr_nm:gd|res:RC4|com-cf:nl|ptrs:na|ktp:N0|mc:120855|mtp:S|qry_typ:P|lang:en|wc:2|cs:8885|v=4,FALSE,Patparganj Industrial Area,New Delhi,"44, Patparganj Industrial Area, New Delhi - 110092, Dist.Delhi, Delhi",8048969333,
"Panihari Multicolor Waterproof Silicone Adjustable Bib Easy Wipe for Feeding Infants, Packaging Type: Box, 3-24 Month",https://www.indiamart.com/proddetail/waterproof-silicone-adjustable-bib-easy-wipe-for-feeding-infants-2854004617991.html?pos=207&kwd=infant products&tags=||||8230.883|Price|product|||TS|rsf:gd-|-stype:attr=1|qr_nm:gd|res:RC4|com-cf:nl|ptrs:na|ktp:N0|mc:120855|mtp:S|qry_typ:P|lang:en|wc:2|cs:8885|v=4,Nika Enterprise,https://www.nikaenterprise.in/?pos=207&kwd=infant products&tags=||||8230.883|Price|product|||TS|rsf:gd-|-stype:attr=1|qr_nm:gd|res:RC4|com-cf:nl|ptrs:na|ktp:N0|mc:120855|mtp:S|qry_typ:P|lang:en|wc:2|cs:8885|v=4,FALSE,,Surat,"1st Floor,, Flat No-102, Plot No-173/174/175, Rs-109,504,, Vitthal Nagar Soc, Dabholi Char Rasta, Katargam, Surat - 395004, Dist.Surat, Gujarat",8047550715,
"Cotton Waterproof Baby Bib, 1-2 Years",https://www.indiamart.com/proddetail/waterproof-baby-bib-2853506778230.html?pos=208&kwd=infant products&tags=||||8752.144|Price|product|||TS|rsf:gd-|-stype:attr=1|qr_nm:gd|res:RC4|com-cf:nl|ptrs:na|ktp:N0|mc:120855|mtp:S|qry_typ:P|lang:en|wc:2|cs:8885|v=4,Swaroop Interior,https://www.indiamart.com/swaroop-interior-newdelhi/?pos=208&kwd=infant products&tags=||||8752.144|Price|product|||TS|rsf:gd-|-stype:attr=1|qr_nm:gd|res:RC4|com-cf:nl|ptrs:na|ktp:N0|mc:120855|mtp:S|qry_typ:P|lang:en|wc:2|cs:8885|v=4,FALSE,Tri Nagar,New Delhi,"3rd Floor, C6/31B, Keshav Puram Lawrence Road, North West, Tri Nagar, New Delhi - 110035, Dist.Delhi, Delhi",7942715460,
"Welcome Polymers Pul laminated waterproof Baby Bib, Packaging Type: Box, 3-12 Months",https://www.indiamart.com/proddetail/baby-bib-2853100605548.html?pos=209&kwd=infant products&tags=||||8734.695|Price|product|||TS|rsf:gd-|-stype:attr=1|qr_nm:gd|res:RC4|com-cf:nl|ptrs:na|ktp:N0|mc:120855|mtp:S|qry_typ:P|lang:en|wc:2|cs:8885|v=4,Welcome Polymers India Private Limited,https://www.welcomepolymers.com/?pos=209&kwd=infant products&tags=||||8734.695|Price|product|||TS|rsf:gd-|-stype:attr=1|qr_nm:gd|res:RC4|com-cf:nl|ptrs:na|ktp:N0|mc:120855|mtp:S|qry_typ:P|lang:en|wc:2|cs:8885|v=4,FALSE,Sector 17,Bahadurgarh,"Plot No.270, Sector 17, Sector 17, Bahadurgarh - 124507, Dist.Jhajjar, Haryana",8048986357,
"Cotton PinKit Baby Apron Bib Fast Dry-Waterproof, Super Soft, 3-12 Months",https://www.indiamart.com/proddetail/pinkit-baby-apron-bib-fast-dry-waterproof-super-soft-2854517017888.html?pos=210&kwd=infant products&tags=||||8752.144|Price|product|||TS|rsf:gd-|-stype:attr=1|qr_nm:gd|res:RC4|com-cf:nl|ptrs:na|ktp:N0|mc:120855|mtp:S|qry_typ:P|lang:en|wc:2|cs:8885|v=4,Pee Kay Traders,https://www.pinkit.in/?pos=210&kwd=infant products&tags=||||8752.144|Price|product|||TS|rsf:gd-|-stype:attr=1|qr_nm:gd|res:RC4|com-cf:nl|ptrs:na|ktp:N0|mc:120855|mtp:S|qry_typ:P|lang:en|wc:2|cs:8885|v=4,FALSE,Shastri Nagar,New Delhi,"House No. 73, 1st Floor, A- Block, Shastri Nagar, New Delhi - 110052, Dist.Delhi, Delhi",8048982340,
