product_title,product_link,company_name,company_link,is_verified_exporter,city_region,city,address_details,phone_number,phone_number_extension
Capacity: 200 ml Stainless Steel Kids Eating Cup,https://www.indiamart.com/proddetail/stainless-steel-kids-eating-cup-2854078694230.html?pos=1&kwd=kid cup&tags=A||||8752.144|Price|product|||TS|rsf:gd-|-stype:attr=1|qr_nm:gd|res:RC4|com-cf:nl|ptrs:na|ktp:N0|mc:22709|mtp:S|qry_typ:P|lang:en|wc:2|flavl:0|cs:9599|v=4,Giftery,https://www.indiamart.com/giftery-new-delhi/?pos=1&kwd=kid cup&tags=A||||8752.144|Price|product|||TS|rsf:gd-|-stype:attr=1|qr_nm:gd|res:RC4|com-cf:nl|ptrs:na|ktp:N0|mc:22709|mtp:S|qry_typ:P|lang:en|wc:2|flavl:0|cs:9599|v=4,False,Okhla Industrial Estate Phase 1,New Delhi,"E-237, Works, Works Okhla, Okhla Industrial Estate Phase 1, New Delhi - 110020, Dist.Delhi, Delhi",8044563612,
Chic Buddy Silicone Baby Tiny Cup with Spoon for Infants First Stage Training,https://www.indiamart.com/proddetail/chic-buddy-silicone-baby-tiny-cup-with-spoon-for-infants-first-stage-training-2848988232762.html?pos=2&kwd=kid cup&tags=BA||||8786.56|Price|product|||TS|rsf:gd-|-stype:attr=1|qr_nm:gd|res:RC4|com-cf:nl|ptrs:na|ktp:N0|mc:22709|mtp:S|qry_typ:P|lang:en|wc:2|flavl:0|cs:9599|v=4,Totcase Services Private Limited,https://www.totcase.com/?pos=2&kwd=kid cup&tags=BA||||8786.56|Price|product|||TS|rsf:gd-|-stype:attr=1|qr_nm:gd|res:RC4|com-cf:nl|ptrs:na|ktp:N0|mc:22709|mtp:S|qry_typ:P|lang:en|wc:2|flavl:0|cs:9599|v=4,False,Alwal,Hyderabad,"1-4-177/ A13/402 Shivasai Residency Greenwood Colony Old Alwal, Alwal, Hyderabad - 500010, Dist.Hyderabad, Telangana",8045910096,
"Dolphin Transparent Baby Sippy Cup, 1-3 Years, Size: Small",https://www.indiamart.com/proddetail/baby-sippy-cup-2849704943573.html?pos=3&kwd=kid cup&tags=BA||||8752.144|Price|product|||TS|rsf:gd-|-stype:attr=1|qr_nm:gd|res:RC4|com-cf:nl|ptrs:na|ktp:N0|mc:22709|mtp:S|qry_typ:P|lang:en|wc:2|flavl:0|cs:9599|v=4,Dolphin Baby Product,https://www.dolphinbabyproducts.com/?pos=3&kwd=kid cup&tags=BA||||8752.144|Price|product|||TS|rsf:gd-|-stype:attr=1|qr_nm:gd|res:RC4|com-cf:nl|ptrs:na|ktp:N0|mc:22709|mtp:S|qry_typ:P|lang:en|wc:2|flavl:0|cs:9599|v=4,False,Inderlok,New Delhi,"No. 488, 1st Floor, Shahzada Bagh, Industrial Area Phase 1, Inderlok, New Delhi - 110035, Dist.Delhi, Delhi",8048965296,
"Blue And Red Baby Sipper Cup, 3-12 Months",https://www.indiamart.com/proddetail/baby-sipper-cup-23215958055.html?pos=4&kwd=kid cup&tags=BA||||8545.6045|Price|product|||MDC|rsf:gd-|-stype:attr=1|qr_nm:gd|res:RC4|com-cf:nl|ptrs:na|ktp:N0|mc:22709|mtp:S|qry_typ:P|lang:en|wc:2|flavl:0|cs:9599|v=4,Shri Siddhivinayak Traders,https://www.indiamart.com/shrisiddhivinayaktraders-firozpur/?pos=4&kwd=kid cup&tags=BA||||8545.6045|Price|product|||MDC|rsf:gd-|-stype:attr=1|qr_nm:gd|res:RC4|com-cf:nl|ptrs:na|ktp:N0|mc:22709|mtp:S|qry_typ:P|lang:en|wc:2|flavl:0|cs:9599|v=4,False,Basti Nizamdin,Firozpur,"No.94, Anand Avenue, Backside Marked Office, Malwal Road, Firozpur City, Basti Nizamdin, Firozpur - 152002, Dist.Firozpur, Punjab",8046066644,
"Yellow And Black Stainless Steel Kid Cup, Capacity: 200 mL",https://www.indiamart.com/proddetail/stainless-steel-kid-cup-2854699630248.html?pos=5&kwd=kid cup&tags=BA||||8211.142|Price|product|||MDC|rsf:gd-|-stype:attr=1|qr_nm:gd|res:RC4|com-cf:nl|ptrs:na|ktp:N0|mc:22709|mtp:S|qry_typ:P|lang:en|wc:2|flavl:0|cs:9599|v=4,Neev Corporation,https://www.indiamart.com/neevcorporation/?pos=5&kwd=kid cup&tags=BA||||8211.142|Price|product|||MDC|rsf:gd-|-stype:attr=1|qr_nm:gd|res:RC4|com-cf:nl|ptrs:na|ktp:N0|mc:22709|mtp:S|qry_typ:P|lang:en|wc:2|flavl:0|cs:9599|v=4,False,Mumbai Central,Mumbai,"4th, A-48 Plot 153/154 A Wing, Siddhesh Deep, Patthe Bapurao Marg, NR Tardeo Bus Terminal, Mumbai Central, Mumbai - 400008, Dist.Mumbai, Maharashtra",7949329851,
Brass Baby Cup,https://www.indiamart.com/proddetail/brass-baby-cup-1180725597.html?pos=6&kwd=kid cup&tags=BA||||8915.672||product|||TS|rsf:gd-|-stype:attr=1|qr_nm:gd|res:RC4|com-cf:nl|ptrs:na|ktp:N0|mc:22709|mtp:S|qry_typ:P|lang:en|wc:2|flavl:0|cs:9599|v=4,White Daisy,https://www.whitedaisyintl.net/?pos=6&kwd=kid cup&tags=BA||||8915.672||product|||TS|rsf:gd-|-stype:attr=1|qr_nm:gd|res:RC4|com-cf:nl|ptrs:na|ktp:N0|mc:22709|mtp:S|qry_typ:P|lang:en|wc:2|flavl:0|cs:9599|v=4,False,Ghurathy,Moradabad,"No. 101, Kothiwal Nagar, Near Highland Building, Ghurathy, Moradabad - 244001, Dist.Moradabad, Uttar Pradesh",8046053484,
Disp Baby Cup Feeder,https://www.indiamart.com/proddetail/disp-baby-cup-feeder-3688470191.html?pos=7&kwd=kid cup&tags=BB||||8211.142|Price|product|||TS|rsf:gd-|-stype:attr=1|qr_nm:gd|res:RC4|com-cf:nl|ptrs:na|ktp:N0|mc:22709|mtp:S|qry_typ:P|lang:en|wc:2|flavl:0|cs:9599|v=4,Seward Systems Inc,https://www.indiamart.com/seward-systems/?pos=7&kwd=kid cup&tags=BB||||8211.142|Price|product|||TS|rsf:gd-|-stype:attr=1|qr_nm:gd|res:RC4|com-cf:nl|ptrs:na|ktp:N0|mc:22709|mtp:S|qry_typ:P|lang:en|wc:2|flavl:0|cs:9599|v=4,False,Borivali East,Mumbai,"No. 302, Triveni Krupa Building, Carter Road, No. 3, Borivali East, Mumbai - 400066, Dist.Mumbai, Maharashtra",8048602086,
"Screw Cap Yellow Baby pee cup, Capacity: 250ml",https://www.indiamart.com/proddetail/baby-pee-cup-24042892133.html?pos=8&kwd=kid cup&tags=BA||||8230.883|Price|product|||TS|rsf:gd-|-stype:attr=1|qr_nm:gd|res:RC4|com-cf:nl|ptrs:na|ktp:N0|mc:22709|mtp:S|qry_typ:P|lang:en|wc:2|flavl:0|cs:9599|v=4,TS MART,https://www.tsmart.co.in/?pos=8&kwd=kid cup&tags=BA||||8230.883|Price|product|||TS|rsf:gd-|-stype:attr=1|qr_nm:gd|res:RC4|com-cf:nl|ptrs:na|ktp:N0|mc:22709|mtp:S|qry_typ:P|lang:en|wc:2|flavl:0|cs:9599|v=4,False,Vijay Nagar Society No 2,Surat,"Ground Floor Om Shiv Complex Yogi Chowk, Vijay Nagar Society No 2, Surat - 395010, Dist.Surat, Gujarat",8046054788,
"Sippy Cup with Straw,Sounding Rabbit Ears Toddler Water Bottle with Straw",https://www.indiamart.com/proddetail/sippy-cup-with-straw-sounding-rabbit-ears-toddler-water-bottle-with-straw-2851619286297.html?pos=9&kwd=kid cup&tags=BA||||8231.259|Price|product|||TS|rsf:gd-|-stype:attr=1|qr_nm:gd|res:RC4|com-cf:nl|ptrs:na|ktp:N0|mc:22709|mtp:S|qry_typ:P|lang:en|wc:2|flavl:0|cs:9599|v=4,Prancing Unicorn,https://www.indiamart.com/prancing-unicorn/?pos=9&kwd=kid cup&tags=BA||||8231.259|Price|product|||TS|rsf:gd-|-stype:attr=1|qr_nm:gd|res:RC4|com-cf:nl|ptrs:na|ktp:N0|mc:22709|mtp:S|qry_typ:P|lang:en|wc:2|flavl:0|cs:9599|v=4,False,Anjur,Bhiwandi,"B-902, Lodha Upper Thane Mankoli Bridge, Anjur, Bhiwandi - 421302, Maharashtra",7942832521,
"Round Multicolor STRAW UNIVERSAL FALL WATER CUP, Capacity: 100 mL, 0-5 years",https://www.indiamart.com/proddetail/straw-universal-fall-water-cup-2851156887373.html?pos=10&kwd=kid cup&tags=BA||||8230.883|Price|product|||TS|rsf:gd-|-stype:attr=1|qr_nm:gd|res:RC4|com-cf:nl|ptrs:na|ktp:N0|mc:22709|mtp:S|qry_typ:P|lang:en|wc:2|flavl:0|cs:9599|v=4,Rozzby,https://www.cheaperzonetoys.com/?pos=10&kwd=kid cup&tags=BA||||8230.883|Price|product|||TS|rsf:gd-|-stype:attr=1|qr_nm:gd|res:RC4|com-cf:nl|ptrs:na|ktp:N0|mc:22709|mtp:S|qry_typ:P|lang:en|wc:2|flavl:0|cs:9599|v=4,False,Kosam,Surat,"1st Floor D-2,103 Vip Circle Shlok Recidency Utran, Kosam, Surat - 394105, Dist.Surat, Gujarat",8047622002,
Hello kitty Stainless Steel Water Cup With Lid And Straw 480ml/16.89oz Children/Adult Drinking Cup,https://www.indiamart.com/proddetail/hello-kitty-stainless-steel-water-cup-with-lid-and-straw-480ml-16-89oz-children-adult-drinking-cup-2853141682291.html?pos=11&kwd=kid cup&tags=BA||||8230.883|Price|product|||TS|rsf:gd-|-stype:attr=1|qr_nm:gd|res:RC4|com-cf:nl|ptrs:na|ktp:N0|mc:22709|mtp:S|qry_typ:P|lang:en|wc:2|flavl:0|cs:9599|v=4,Tallin Sales,https://www.indiamart.com/tallin-sales/?pos=11&kwd=kid cup&tags=BA||||8230.883|Price|product|||TS|rsf:gd-|-stype:attr=1|qr_nm:gd|res:RC4|com-cf:nl|ptrs:na|ktp:N0|mc:22709|mtp:S|qry_typ:P|lang:en|wc:2|flavl:0|cs:9599|v=4,False,Singanpor,Surat,"Lakshmi Enclave Basement near Gajera School, Singanpor, Surat - 395004, Dist.Surat, Gujarat",7942542891,
Tritan Premium Baby Snack Cup,https://www.indiamart.com/proddetail/tritan-premium-baby-snack-cup-2853708711630.html?pos=12&kwd=kid cup&tags=BA||||9097.53|Price|product|||TS|rsf:gd-|-stype:attr=1|qr_nm:gd|res:RC4|com-cf:nl|ptrs:na|ktp:N0|mc:22709|mtp:S|qry_typ:P|lang:en|wc:2|flavl:0|cs:9599|v=4,My Bear Hugs,https://www.indiamart.com/bear-hugs/?pos=12&kwd=kid cup&tags=BA||||9097.53|Price|product|||TS|rsf:gd-|-stype:attr=1|qr_nm:gd|res:RC4|com-cf:nl|ptrs:na|ktp:N0|mc:22709|mtp:S|qry_typ:P|lang:en|wc:2|flavl:0|cs:9599|v=4,False,,Fatehpur,"44/38,,CHAUDHARANA,Fatehpur Ist Floor 44/38 Chaudharana,212601,, Fatehpur - 212601, Uttar Pradesh",,
Car Straw Water Cup Detachable Bus Kids - Wbt-317,https://www.indiamart.com/proddetail/car-straw-water-cup-detachable-bus-kids-wbt-317-2852949892473.html?pos=13&kwd=kid cup&tags=BA||||8211.142|Price|product|||TS|rsf:gd-|-stype:attr=1|qr_nm:gd|res:RC4|com-cf:nl|ptrs:na|ktp:N0|mc:22709|mtp:S|qry_typ:P|lang:en|wc:2|flavl:0|cs:9599|v=4,Sony Plastics,https://www.sonyplastics.co/?pos=13&kwd=kid cup&tags=BA||||8211.142|Price|product|||TS|rsf:gd-|-stype:attr=1|qr_nm:gd|res:RC4|com-cf:nl|ptrs:na|ktp:N0|mc:22709|mtp:S|qry_typ:P|lang:en|wc:2|flavl:0|cs:9599|v=4,False,Mandvi,Mumbai,"181,Abdul Rehman Street, Mandvi, Mumbai - 400003, Dist.Mumbai, Maharashtra",7942552945,
Baby Dimple Cup,https://www.indiamart.com/proddetail/baby-dimple-cup-12791795512.html?pos=14&kwd=kid cup&tags=BB||||8223.226|Price|product|||MDC|rsf:gd-|-stype:attr=1|qr_nm:gd|res:RC4|com-cf:nl|ptrs:na|ktp:N0|mc:22709|mtp:S|qry_typ:P|lang:en|wc:2|flavl:0|cs:9599|v=4,Wecare Solutions,https://www.indiamart.com/wecare-solutions/?pos=14&kwd=kid cup&tags=BB||||8223.226|Price|product|||MDC|rsf:gd-|-stype:attr=1|qr_nm:gd|res:RC4|com-cf:nl|ptrs:na|ktp:N0|mc:22709|mtp:S|qry_typ:P|lang:en|wc:2|flavl:0|cs:9599|v=4,False,Valiv,Thane,"Gala No. F-19-20, 1st Floor, Rajprabha Anand Industrial Estate Naikpada, Waliv, Valiv, Thane - 401208, Dist.Thane, Maharashtra",8047631791,
"Plastic 350ml Pink Baby Sipper Mug, For Home",https://www.indiamart.com/proddetail/350ml-pink-baby-sipper-mug-25743211430.html?pos=15&kwd=kid cup&tags=BA||||8752.144|Price|product|||MDC|rsf:gd-|-stype:attr=1|qr_nm:gd|res:RC4|com-cf:nl|ptrs:na|ktp:N0|mc:22709|mtp:S|qry_typ:P|lang:en|wc:2|cs:8836|v=4,Little Kingdom Baby Product,https://www.indiamart.com/little-kingdombaby-product/?pos=15&kwd=kid cup&tags=BA||||8752.144|Price|product|||MDC|rsf:gd-|-stype:attr=1|qr_nm:gd|res:RC4|com-cf:nl|ptrs:na|ktp:N0|mc:22709|mtp:S|qry_typ:P|lang:en|wc:2|cs:8836|v=4,False,Bawana,New Delhi,"Plot No. 16, PKT-G, Sector-3, DSIIDC, Bawana, North West Delhi, Bawana, New Delhi - 110039, Dist.Delhi, Delhi",8047648589,
"Rainbow Color Magic Lighting Cup 250 ml, For Home",https://www.indiamart.com/proddetail/rainbow-color-magic-lighting-cup-250-ml-2851859430130.html?pos=16&kwd=kid cup&tags=BA||||8601.347|Price|product|||TS|rsf:gd-|-stype:attr=1|qr_nm:gd|res:RC4|com-cf:nl|ptrs:na|ktp:N0|mc:22709|mtp:S|qry_typ:P|lang:en|wc:2|cs:8836|v=4,Mehai Retails LLP,https://www.indiamart.com/mehai-retails-llp/?pos=16&kwd=kid cup&tags=BA||||8601.347|Price|product|||TS|rsf:gd-|-stype:attr=1|qr_nm:gd|res:RC4|com-cf:nl|ptrs:na|ktp:N0|mc:22709|mtp:S|qry_typ:P|lang:en|wc:2|cs:8836|v=4,False,Baba Harishchandra Marg,Jaipur,"S-88, 2nd Floor, Raisar Plaza,, Baba Harishchandra Marg, Jaipur - 302001, Dist.Jaipur, Rajasthan",8047657191,
Silicone baby feeding cup,https://www.indiamart.com/proddetail/silicone-baby-feeding-cup-2854339038991.html?pos=17&kwd=kid cup&tags=BB||||8211.142|Price|product|||TS|rsf:gd-|-stype:attr=1|qr_nm:gd|res:RC4|com-cf:nl|ptrs:na|ktp:N0|mc:22709|mtp:S|qry_typ:P|lang:en|wc:2|cs:8836|v=4,Ami Polymer Private Limited,https://www.indiamart.com/amipolymer/?pos=17&kwd=kid cup&tags=BB||||8211.142|Price|product|||TS|rsf:gd-|-stype:attr=1|qr_nm:gd|res:RC4|com-cf:nl|ptrs:na|ktp:N0|mc:22709|mtp:S|qry_typ:P|lang:en|wc:2|cs:8836|v=4,False,,Mumbai,"Office No. 6 & 7, Western Edge 2, Western Express Highway, Metro Store, Borivali East, Mumbai - 400066, Dist.Mumbai, Maharashtra",8046031688,
MADY BABY SIPPER,https://www.indiamart.com/proddetail/mady-baby-sipper-2854530162855.html?pos=18&kwd=kid cup&tags=BB||||8752.144|Price|product|||MDC|rsf:gd-|-stype:attr=1|qr_nm:gd|res:RC4|com-cf:nl|ptrs:na|ktp:N0|mc:22709|mtp:S|qry_typ:P|lang:en|wc:2|cs:8836|v=4,Household Mart,https://www.indiamart.com/household-mart-newdelhi/?pos=18&kwd=kid cup&tags=BB||||8752.144|Price|product|||MDC|rsf:gd-|-stype:attr=1|qr_nm:gd|res:RC4|com-cf:nl|ptrs:na|ktp:N0|mc:22709|mtp:S|qry_typ:P|lang:en|wc:2|cs:8836|v=4,False,,New Delhi,"2nd Floor Ganesh Pura A Kanhiya Nagar Tri Nagar, House 3904 Plot No Old -171 Street No 14, North West Delhi, New Delhi - 110035, Dist.Delhi, Delhi",7949337207,
Baby cup,,Shree Durga Jewellers,https://www.indiamart.com/shreedurga-jewellers-newdelhi/?pos=19&kwd=kid cup&tags=BB||||8752.144|Price|product|||MDC|rsf:gd-|-stype:attr=1|qr_nm:gd|res:RC4|com-cf:nl|ptrs:na|ktp:N0|mc:22709|mtp:S|qry_typ:P|lang:en|wc:2|cs:8836|v=4,False,Central Delhi,New Delhi,"3, 1184/300-302, Kucha Mahajani, Chandni Chowk Road, Rickshaw Tours, Chandni Chowk Area,, Central Delhi, New Delhi - 110006, Dist.Delhi, Delhi",8044459297,
Multicolor Toy Mug DM-MM-002,https://www.indiamart.com/proddetail/toy-mug-dm-mm-002-18121357397.html?pos=20&kwd=kid cup&tags=BA||||8954.051|Price|product|||NA|rsf:gd-|-stype:attr=1|qr_nm:gd|res:RC4|com-cf:nl|ptrs:na|ktp:N0|mc:22709|mtp:S|qry_typ:P|lang:en|wc:2|cs:8836|v=4,Dina Color Lab,https://www.indiamart.com/dina-color-lab/?pos=20&kwd=kid cup&tags=BA||||8954.051|Price|product|||NA|rsf:gd-|-stype:attr=1|qr_nm:gd|res:RC4|com-cf:nl|ptrs:na|ktp:N0|mc:22709|mtp:S|qry_typ:P|lang:en|wc:2|cs:8836|v=4,False,Velacheri,Chennai,"No. 26, Nagendra Nagar, Velachery Main Road, Velachery, Velacheri, Chennai - 600042, Dist.Chennai, Tamil Nadu",8048372521,947
"Blue Philips Avent Classic Soft Polypropylene Spout Cup, Packaging Type: Plastic Bottle, 1-2 Years",https://www.indiamart.com/proddetail/philips-avent-classic-soft-polypropylene-spout-cup-2849262598862.html?pos=21&kwd=kid cup&tags=BB||||8528.519|Price|product|||NA|rsf:gd-|-stype:attr=1|qr_nm:gd|res:RC4|com-cf:nl|ptrs:na|ktp:N0|mc:22709|mtp:S|qry_typ:P|lang:en|wc:2|cs:8836|v=4,EBP Enterprises,https://www.indiamart.com/ebp-enterprises-depalpur/?pos=21&kwd=kid cup&tags=BB||||8528.519|Price|product|||NA|rsf:gd-|-stype:attr=1|qr_nm:gd|res:RC4|com-cf:nl|ptrs:na|ktp:N0|mc:22709|mtp:S|qry_typ:P|lang:en|wc:2|cs:8836|v=4,False,INDORE ROAD,Depalpur,"Qtr NO-E7,, Board Colony, Depalpur, Indore, Madhya Pradesh, 453115 DEPALPUR, INDORE ROAD, Depalpur - 453115, Dist.Indore, Madhya Pradesh",8048361289,570
Car Straw Water Cup 500 Ml,https://www.indiamart.com/proddetail/car-straw-water-cup-500-ml-2853971038012.html?pos=22&kwd=kid cup&tags=BA||||8230.883|Price|product|||NA|rsf:gd-|-stype:attr=1|qr_nm:gd|res:RC4|com-cf:nl|ptrs:na|ktp:N0|mc:22709|mtp:S|qry_typ:P|lang:en|wc:2|cs:8836|v=4,Virangna Enterprise,https://www.indiamart.com/virangna-enterprise/?pos=22&kwd=kid cup&tags=BA||||8230.883|Price|product|||NA|rsf:gd-|-stype:attr=1|qr_nm:gd|res:RC4|com-cf:nl|ptrs:na|ktp:N0|mc:22709|mtp:S|qry_typ:P|lang:en|wc:2|cs:8836|v=4,False,Dabholi,Surat,"345, SAHAJANAND SOC DABHOLI, Dabholi, Surat - 395004, Dist.Surat, Gujarat",8048370706,5673
"Sipper Silicon straw cup, 1-2 Years",https://www.indiamart.com/proddetail/silicon-straw-cup-2851763353912.html?pos=23&kwd=kid cup&tags=BB||||8584.299||product|||NA|rsf:gd-|-stype:attr=1|qr_nm:gd|res:RC4|com-cf:nl|ptrs:na|ktp:N0|mc:22709|mtp:S|qry_typ:P|lang:en|wc:2|cs:8836|v=4,Buttercup Baby Clothing,https://www.indiamart.com/buttercup-baby-clothing/?pos=23&kwd=kid cup&tags=BB||||8584.299||product|||NA|rsf:gd-|-stype:attr=1|qr_nm:gd|res:RC4|com-cf:nl|ptrs:na|ktp:N0|mc:22709|mtp:S|qry_typ:P|lang:en|wc:2|cs:8836|v=4,False,,Coimbatore,"33-8, East Ponnurangam Road, RS Puram, Coimbatore - 641002, Dist.Coimbatore, Tamil Nadu",8043824974,
Kid Cup,,Janki Jiyana House,https://www.indiamart.com/jankijiyana-house/?pos=24&kwd=kid cup&tags=BB||||8230.883|Price|product|||NA|rsf:gd-|-stype:attr=1|qr_nm:gd|res:RC4|com-cf:nl|ptrs:na|ktp:N0|mc:22709|mtp:S|qry_typ:P|lang:en|wc:2|cs:8836|v=4,False,,Surat,"Shop No 10, 1st Floor, Sahyog Park, Opp. Mansarovar Circle, Amroli,, Surat - 394107, Dist.Surat, Gujarat",7942803964,
Penguin Kid Cup,,Bharat Crockery,https://www.indiamart.com/bharat-crockery-mumbai/?pos=25&kwd=kid cup&tags=BB||||8211.142||product|||NA|rsf:gd-|-stype:attr=1|qr_nm:gd|res:RC4|com-cf:nl|ptrs:na|ktp:N0|mc:22709|mtp:S|qry_typ:P|lang:en|wc:2|cs:8836|v=4,False,126 Kazi Sayed Street Mandvi,Mumbai,"3rd Floor Room No.301 Khand Bazar Masjid Station Khand Bazar Masjid Station, 126 Kazi Sayed Street Mandvi, Mumbai - 400003, Dist.Mumbai, Maharashtra",8048372899,538
dinosaur cup for kids,,Instasale,https://www.indiamart.com/ventikre/?pos=26&kwd=kid cup&tags=BB||||8230.883||product|||NA|rsf:gd-|-stype:attr=1|qr_nm:gd|res:RC4|com-cf:nl|ptrs:na|ktp:N0|mc:22709|mtp:S|qry_typ:P|lang:en|wc:2|cs:8836|v=4,False,,Surat,"5th Floor Flat No. A/502 Near Dabholi Lake, Dabholi Gam Shubham Heights, Surat - 395004, Dist.Surat, Gujarat",8069728302,731
"750ml Gloory Borosilicate Glass Water Bottle, For Home",https://www.indiamart.com/proddetail/750ml-gloory-borosilicate-glass-water-bottle-2849817200255.html?pos=27&kwd=kid cup&tags=||||8741.987|Price|product|||TS|rsf:gd-|-stype:attr=1|qr_nm:gd|res:RC4|com-cf:nl|ptrs:na|ktp:N0|mc:22709|mtp:S|qry_typ:P|lang:en|wc:2|cs:8836|v=4,Excel Industries,https://www.borosilicateglassindia.com/?pos=27&kwd=kid cup&tags=||||8741.987|Price|product|||TS|rsf:gd-|-stype:attr=1|qr_nm:gd|res:RC4|com-cf:nl|ptrs:na|ktp:N0|mc:22709|mtp:S|qry_typ:P|lang:en|wc:2|cs:8836|v=4,False,Gandhi Nagar,Ambala,"2/14/4, Punjabi Bagh, Near Drum Factory, Gandhi Nagar, Ambala - 133001, Dist.Ambala, Haryana",7942797708,
"Plastic Baby Water Bottle, Capacity: 250 mL",https://www.indiamart.com/proddetail/baby-water-bottle-2852515272933.html?pos=28&kwd=kid cup&tags=||||8211.142|Price|product|||TS|rsf:gd-|-stype:attr=1|qr_nm:gd|res:RC4|com-cf:nl|ptrs:na|ktp:N0|mc:22709|mtp:S|qry_typ:P|lang:en|wc:2|cs:8836|v=4,P For Panda Baby Products Private Limited,https://www.p4pandababyproducts.com/?pos=28&kwd=kid cup&tags=||||8211.142|Price|product|||TS|rsf:gd-|-stype:attr=1|qr_nm:gd|res:RC4|com-cf:nl|ptrs:na|ktp:N0|mc:22709|mtp:S|qry_typ:P|lang:en|wc:2|cs:8836|v=4,False,Goregaon West,Mumbai,"904 A Wing,9 Th Floor,Triple S Heights,Jakeria Road, Goregaon West, Mumbai - 400064, Dist.Mumbai, Maharashtra",7942710871,
"Matt Metal SS VACUUM FEEDING BABY BOTTLE 240ML, Capacity: 250 mL, 3-12 Months",https://www.indiamart.com/proddetail/ss-vacuum-feeding-baby-bottle-240ml-2853333034448.html?pos=29&kwd=kid cup&tags=||||8747.223|Price|product|||TS|rsf:gd-|-stype:attr=1|qr_nm:gd|res:RC4|com-cf:nl|ptrs:na|ktp:N0|mc:22709|mtp:S|qry_typ:P|lang:en|wc:2|cs:8836|v=4,Dewdrop Bottles Pvt. Ltd.,https://www.dewdropbottles.com/?pos=29&kwd=kid cup&tags=||||8747.223|Price|product|||TS|rsf:gd-|-stype:attr=1|qr_nm:gd|res:RC4|com-cf:nl|ptrs:na|ktp:N0|mc:22709|mtp:S|qry_typ:P|lang:en|wc:2|cs:8836|v=4,False,Sector 42,Sonipat,"Rect. And Killa No. 102//14/1/1, Revenue Estate, Akbarpur Barota, Sector 42, Sonipat - 131103, Dist.Sonipat, Haryana",7942840290,
"Multicolor Plastics Tea Cup, For Home,Office",https://www.indiamart.com/proddetail/plastics-tea-cup-11427082973.html?pos=30&kwd=kid cup&tags=||||8211.142|Price|product|||TS|rsf:gd-|-stype:attr=1|qr_nm:gd|res:RC4|com-cf:nl|ptrs:na|ktp:N0|mc:22709|mtp:S|qry_typ:P|lang:en|wc:2|cs:8836|v=4,Mahavir Industries,https://www.mahavirmilestone.in/?pos=30&kwd=kid cup&tags=||||8211.142|Price|product|||TS|rsf:gd-|-stype:attr=1|qr_nm:gd|res:RC4|com-cf:nl|ptrs:na|ktp:N0|mc:22709|mtp:S|qry_typ:P|lang:en|wc:2|cs:8836|v=4,True,Vasai East,Mumbai,"29, NJ Industrial Estate, Chinchpada, Waliv Road, Vasai East, Mumbai - 401208, Dist.Mumbai, Maharashtra",8048962615,
"SS MATT FINISH Metal Stainless Steel Baby Feeding Bottle, Capacity: 300 mL, Newly Born",https://www.indiamart.com/proddetail/stainless-steel-baby-feeding-bottle-2851855371130.html?pos=31&kwd=kid cup&tags=||||8752.144|Price|product|||TS|rsf:gd-|-stype:attr=1|qr_nm:gd|res:RC4|com-cf:nl|ptrs:na|ktp:N0|mc:22709|mtp:S|qry_typ:P|lang:en|wc:2|cs:8836|v=4,Ishvan Impex Private Limited,https://www.ishvanimpex.com/?pos=31&kwd=kid cup&tags=||||8752.144|Price|product|||TS|rsf:gd-|-stype:attr=1|qr_nm:gd|res:RC4|com-cf:nl|ptrs:na|ktp:N0|mc:22709|mtp:S|qry_typ:P|lang:en|wc:2|cs:8836|v=4,False,Chandni Chowk,New Delhi,"Ground Floor, Shop No. 1, Bagh Diwar, Fatehpuri, Chandni Chowk, Central Delhi, Chandni Chowk, New Delhi - 110006, Dist.Delhi, Delhi",8048974995,
Plastic Baby Straw Sipper Cup - BLUE,https://www.indiamart.com/proddetail/baby-straw-sipper-cup-blue-2852506857955.html?pos=32&kwd=kid cup&tags=CC||||8752.144|Price|product|||TS|rsf:gd-|-stype:attr=1|qr_nm:gd|res:RC4|com-cf:nl|ptrs:na|ktp:N0|mc:22709|mtp:S|qry_typ:P|lang:en|wc:2|cs:8836|v=4,Ekta Overseas,https://www.indiamart.com/ektaoverseas-newdelhi/?pos=32&kwd=kid cup&tags=CC||||8752.144|Price|product|||TS|rsf:gd-|-stype:attr=1|qr_nm:gd|res:RC4|com-cf:nl|ptrs:na|ktp:N0|mc:22709|mtp:S|qry_typ:P|lang:en|wc:2|cs:8836|v=4,False,Shahdara,New Delhi,"1/95, Gali No.3, Near Navjeevan Phisical Center, Vishwas Nagar, Shahdara,, Shahdara, New Delhi - 110032, Dist.Delhi, Delhi",7942628926,
"Round Pink 200ml Baby Training Cup, Capacity: 150 mL, 3-12 Months",https://www.indiamart.com/proddetail/200ml-baby-training-cup-2851537241897.html?pos=33&kwd=kid cup&tags=||||8769.508|Price|product|||MDC|rsf:gd-|-stype:attr=1|qr_nm:gd|res:RC4|com-cf:nl|ptrs:na|ktp:N0|mc:22709|mtp:S|qry_typ:P|lang:en|wc:2|cs:8836|v=4,Anand Enterprises,https://www.indiamart.com/anand-enterprisesfaridabad/?pos=33&kwd=kid cup&tags=||||8769.508|Price|product|||MDC|rsf:gd-|-stype:attr=1|qr_nm:gd|res:RC4|com-cf:nl|ptrs:na|ktp:N0|mc:22709|mtp:S|qry_typ:P|lang:en|wc:2|cs:8836|v=4,False,Sect,Faridabad,"72 Kheri Road Kastori Faridabad, Sect, Faridabad - 121002, Dist.Faridabad, Haryana",7942703101,
Transparent Plastic Baby Sipper Bottle,https://www.indiamart.com/proddetail/baby-sipper-bottle-2854699729691.html?pos=34&kwd=kid cup&tags=||||8823.154|Price|product|||TS|rsf:gd-|-stype:attr=1|qr_nm:gd|res:RC4|com-cf:nl|ptrs:na|ktp:N0|mc:22709|mtp:S|qry_typ:P|lang:en|wc:2|cs:8836|v=4,Shri Anant International,https://www.indiamart.com/shrianantinternational/?pos=34&kwd=kid cup&tags=||||8823.154|Price|product|||TS|rsf:gd-|-stype:attr=1|qr_nm:gd|res:RC4|com-cf:nl|ptrs:na|ktp:N0|mc:22709|mtp:S|qry_typ:P|lang:en|wc:2|cs:8836|v=4,False,DayalBagh,Agra,"No.02,House 2,Alkapuri Phase Ii,Agra, DayalBagh, Agra - 282005, Dist.Agra, Uttar Pradesh",7942721451,
450ml Kids Sipper Water Bottle,https://www.indiamart.com/proddetail/450ml-kids-sipper-water-bottle-26449279988.html?pos=35&kwd=kid cup&tags=||||8785.791|Price|product|||TS|rsf:gd-|-stype:attr=1|qr_nm:gd|res:RC4|com-cf:nl|ptrs:na|ktp:N0|mc:22709|mtp:S|qry_typ:P|lang:en|wc:2|cs:8836|v=4,Paras Enterprises,https://www.claoberry.com/?pos=35&kwd=kid cup&tags=||||8785.791|Price|product|||TS|rsf:gd-|-stype:attr=1|qr_nm:gd|res:RC4|com-cf:nl|ptrs:na|ktp:N0|mc:22709|mtp:S|qry_typ:P|lang:en|wc:2|cs:8836|v=4,False,Raj Nagar Extension,Ghaziabad,"KH.NO.-2565,VILLAGE KARHERA,MOHAN NAGAR,Ghaziabad, Raj Nagar Extension, Ghaziabad - 201007, Dist.Ghaziabad, Uttar Pradesh",8043862487,
"Plastic Baby Training Cup, 3-12 Months",https://www.indiamart.com/proddetail/baby-training-cup-2852940874091.html?pos=36&kwd=kid cup&tags=||||8752.144||product|||TS|rsf:gd-|-stype:attr=1|qr_nm:gd|res:RC4|com-cf:nl|ptrs:na|ktp:N0|mc:22709|mtp:S|qry_typ:P|lang:en|wc:2|cs:8836|v=4,Dua Traders,https://www.indiamart.com/duatraders-delhi/?pos=36&kwd=kid cup&tags=||||8752.144||product|||TS|rsf:gd-|-stype:attr=1|qr_nm:gd|res:RC4|com-cf:nl|ptrs:na|ktp:N0|mc:22709|mtp:S|qry_typ:P|lang:en|wc:2|cs:8836|v=4,False,Mandoli,New Delhi,"Plot No. 8, Kh No. 4/24, Mela Ram Vatika, E-block, JR Complex No. 4, Mandoli, Sevadham, Mandoli, New Delhi - 110093, Dist.Delhi, Delhi",8048971741,
"URBAN CUBE Transparent Glass Baby Feeding Bottle, 3-12 Months",https://www.indiamart.com/proddetail/glass-baby-feeding-bottle-26438729997.html?pos=37&kwd=kid cup&tags=||||8752.144|Price|product|||TS|rsf:gd-|-stype:attr=1|qr_nm:gd|res:RC4|com-cf:nl|ptrs:na|ktp:N0|mc:22709|mtp:S|qry_typ:P|lang:en|wc:2|cs:8836|v=4,Urbancube,https://www.indiamart.com/urbancube/?pos=37&kwd=kid cup&tags=||||8752.144|Price|product|||TS|rsf:gd-|-stype:attr=1|qr_nm:gd|res:RC4|com-cf:nl|ptrs:na|ktp:N0|mc:22709|mtp:S|qry_typ:P|lang:en|wc:2|cs:8836|v=4,False,Kamla Nagar,New Delhi,"Ground Floor, 14 UA, Jawahar Nagar, Kamla Nagar, New Delhi - 110007, Dist.Delhi, Delhi",8048980014,
Baby Feeder,https://www.indiamart.com/proddetail/baby-feeder-2854294274873.html?pos=38&kwd=kid cup&tags=||||8778.123|Price|product|||TS|rsf:gd-|-stype:attr=1|qr_nm:gd|res:RC4|com-cf:nl|ptrs:na|ktp:N0|mc:22709|mtp:S|qry_typ:P|lang:en|wc:2|cs:8836|v=4,Radiant Enterprises,https://www.indiamart.com/radiant-enterprisesgautam-budhnagar/?pos=38&kwd=kid cup&tags=||||8778.123|Price|product|||TS|rsf:gd-|-stype:attr=1|qr_nm:gd|res:RC4|com-cf:nl|ptrs:na|ktp:N0|mc:22709|mtp:S|qry_typ:P|lang:en|wc:2|cs:8836|v=4,False,,Noida,"Tower-3,Flat-2601,Lotus 300,Noida,Gautam Buddha Nagar, Noida - 201304, Dist.Gautam Budh Nagar, Uttar Pradesh",7942828511,
Colored Stainless Steel Baby Feeding Bottle,https://www.indiamart.com/proddetail/colored-stainless-steel-baby-feeding-bottle-21290467012.html?pos=39&kwd=kid cup&tags=||||8954.051|Price|product|||TS|rsf:gd-|-stype:attr=1|qr_nm:gd|res:RC4|com-cf:nl|ptrs:na|ktp:N0|mc:22709|mtp:S|qry_typ:P|lang:en|wc:2|cs:8836|v=4,Sundar Garments,https://www.sundargarment.com/?pos=39&kwd=kid cup&tags=||||8954.051|Price|product|||TS|rsf:gd-|-stype:attr=1|qr_nm:gd|res:RC4|com-cf:nl|ptrs:na|ktp:N0|mc:22709|mtp:S|qry_typ:P|lang:en|wc:2|cs:8836|v=4,False,Kondithop,Chennai,"No-9 Murugesan Street Near Kondithope Park, Kondithop, Chennai - 600079, Dist.Chennai, Tamil Nadu",8048266539,
Stainless Steel Bottle 240ml,https://www.indiamart.com/proddetail/stainless-steel-bottle-240ml-2849508907148.html?pos=40&kwd=kid cup&tags=||||8752.144|Price|product|||TS|rsf:gd-|-stype:attr=1|qr_nm:gd|res:RC4|com-cf:nl|ptrs:na|ktp:N0|mc:22709|mtp:S|qry_typ:P|lang:en|wc:2|cs:8836|v=4,R B Enterprises,https://www.indiamart.com/rbenterpriseskondalinewdelhi/?pos=40&kwd=kid cup&tags=||||8752.144|Price|product|||TS|rsf:gd-|-stype:attr=1|qr_nm:gd|res:RC4|com-cf:nl|ptrs:na|ktp:N0|mc:22709|mtp:S|qry_typ:P|lang:en|wc:2|cs:8836|v=4,False,Gharoli,New Delhi,"Ground, 58 F/F/R/S Brahman Basti, Kondli Main Road, Kondli Gharoli,, Gharoli, New Delhi - 110094, Dist.Delhi, Delhi",7942535965,
"AAditya White Baby Silicone Nipple, Packaging Type: Box, 1-2 Years",https://www.indiamart.com/proddetail/baby-silicone-nipple-22513633397.html?pos=41&kwd=kid cup&tags=||||8210.732|Price|product|||TS|rsf:gd-|-stype:attr=1|qr_nm:gd|res:RC4|com-cf:nl|ptrs:na|ktp:N0|mc:22709|mtp:S|qry_typ:P|lang:en|wc:2|cs:8836|v=4,Aditya Polymers,https://www.aadityapolymers.com/?pos=41&kwd=kid cup&tags=||||8210.732|Price|product|||TS|rsf:gd-|-stype:attr=1|qr_nm:gd|res:RC4|com-cf:nl|ptrs:na|ktp:N0|mc:22709|mtp:S|qry_typ:P|lang:en|wc:2|cs:8836|v=4,False,Gokhiware,Vasai,"106, A V Udhyog No. 3, Near Rajprabha Near Golani, Gokhiware, Vasai - 401208, Dist.Thane, Maharashtra",8048987383,
"Metal STAINLESS STEEL BABY FEEDING BOTTLE, Capacity: 250 mL",https://www.indiamart.com/proddetail/stainless-steel-baby-feeding-bottle-22036586230.html?pos=42&kwd=kid cup&tags=||||8223.226|Price|product|||TS|rsf:gd-|-stype:attr=1|qr_nm:gd|res:RC4|com-cf:nl|ptrs:na|ktp:N0|mc:22709|mtp:S|qry_typ:P|lang:en|wc:2|cs:8836|v=4,Speedy Household Industry,https://www.indiamart.com/speedy-household-industry/?pos=42&kwd=kid cup&tags=||||8223.226|Price|product|||TS|rsf:gd-|-stype:attr=1|qr_nm:gd|res:RC4|com-cf:nl|ptrs:na|ktp:N0|mc:22709|mtp:S|qry_typ:P|lang:en|wc:2|cs:8836|v=4,False,Bhayandar East,Thane,"0/6, Vikas Udyog Nagar, Behind Goddev Fathak Road, Bhayandar East, Bhayandar East, Thane - 401105, Dist.Thane, Maharashtra",8048962061,
Stainless Steel Bottle 240ml,https://www.indiamart.com/proddetail/stainless-steel-bottle-240ml-2849508907148.html?pos=43&kwd=kid cup&tags=||||8752.144|Price|product|||TS|rsf:gd-|-stype:attr=1|qr_nm:gd|res:RC4|com-cf:nl|ptrs:na|ktp:N0|mc:22709|mtp:S|qry_typ:P|lang:en|wc:2|cs:8836|v=4,R B Enterprises,https://www.indiamart.com/rbenterpriseskondalinewdelhi/?pos=43&kwd=kid cup&tags=||||8752.144|Price|product|||TS|rsf:gd-|-stype:attr=1|qr_nm:gd|res:RC4|com-cf:nl|ptrs:na|ktp:N0|mc:22709|mtp:S|qry_typ:P|lang:en|wc:2|cs:8836|v=4,False,Gharoli,New Delhi,"Ground, 58 F/F/R/S Brahman Basti, Kondli Main Road, Kondli Gharoli,, Gharoli, New Delhi - 110094, Dist.Delhi, Delhi",7942535965,
"AAditya White Baby Silicone Nipple, Packaging Type: Box, 1-2 Years",https://www.indiamart.com/proddetail/baby-silicone-nipple-22513633397.html?pos=44&kwd=kid cup&tags=||||8210.732|Price|product|||TS|rsf:gd-|-stype:attr=1|qr_nm:gd|res:RC4|com-cf:nl|ptrs:na|ktp:N0|mc:22709|mtp:S|qry_typ:P|lang:en|wc:2|cs:8836|v=4,Aditya Polymers,https://www.aadityapolymers.com/?pos=44&kwd=kid cup&tags=||||8210.732|Price|product|||TS|rsf:gd-|-stype:attr=1|qr_nm:gd|res:RC4|com-cf:nl|ptrs:na|ktp:N0|mc:22709|mtp:S|qry_typ:P|lang:en|wc:2|cs:8836|v=4,False,Gokhiware,Vasai,"106, A V Udhyog No. 3, Near Rajprabha Near Golani, Gokhiware, Vasai - 401208, Dist.Thane, Maharashtra",8048987383,
"SS MATT FINISH Metal Stainless Steel Baby Feeding Bottle, Capacity: 300 mL, Newly Born",https://www.indiamart.com/proddetail/stainless-steel-baby-feeding-bottle-2851855371130.html?pos=45&kwd=kid cup&tags=||||8752.144|Price|product|||TS|rsf:gd-|-stype:attr=1|qr_nm:gd|res:RC4|com-cf:nl|ptrs:na|ktp:N0|mc:22709|mtp:S|qry_typ:P|lang:en|wc:2|cs:8836|v=4,Ishvan Impex Private Limited,https://www.ishvanimpex.com/?pos=45&kwd=kid cup&tags=||||8752.144|Price|product|||TS|rsf:gd-|-stype:attr=1|qr_nm:gd|res:RC4|com-cf:nl|ptrs:na|ktp:N0|mc:22709|mtp:S|qry_typ:P|lang:en|wc:2|cs:8836|v=4,False,Chandni Chowk,New Delhi,"Ground Floor, Shop No. 1, Bagh Diwar, Fatehpuri, Chandni Chowk, Central Delhi, Chandni Chowk, New Delhi - 110006, Dist.Delhi, Delhi",8048974995,
"Metal STAINLESS STEEL BABY FEEDING BOTTLE, Capacity: 250 mL",https://www.indiamart.com/proddetail/stainless-steel-baby-feeding-bottle-22036586230.html?pos=46&kwd=kid cup&tags=||||8223.226|Price|product|||TS|rsf:gd-|-stype:attr=1|qr_nm:gd|res:RC4|com-cf:nl|ptrs:na|ktp:N0|mc:22709|mtp:S|qry_typ:P|lang:en|wc:2|cs:8836|v=4,Speedy Household Industry,https://www.indiamart.com/speedy-household-industry/?pos=46&kwd=kid cup&tags=||||8223.226|Price|product|||TS|rsf:gd-|-stype:attr=1|qr_nm:gd|res:RC4|com-cf:nl|ptrs:na|ktp:N0|mc:22709|mtp:S|qry_typ:P|lang:en|wc:2|cs:8836|v=4,False,Bhayandar East,Thane,"0/6, Vikas Udyog Nagar, Behind Goddev Fathak Road, Bhayandar East, Bhayandar East, Thane - 401105, Dist.Thane, Maharashtra",8048962061,
GLOBAL Space Sipper Water Bote Tumber Flask 500 ml,https://www.indiamart.com/proddetail/space-sipper-water-bote-tumber-flask-500-ml-25112784262.html?pos=47&kwd=kid cup&tags=||||8752.144|Price|product|||TS|rsf:gd-|-stype:attr=1|qr_nm:gd|res:RC4|com-cf:nl|ptrs:na|ktp:N0|mc:22709|mtp:S|qry_typ:P|lang:en|wc:2|cs:8836|v=4,Global Productions,https://www.indiamart.com/global-productions-newdelhi/?pos=47&kwd=kid cup&tags=||||8752.144|Price|product|||TS|rsf:gd-|-stype:attr=1|qr_nm:gd|res:RC4|com-cf:nl|ptrs:na|ktp:N0|mc:22709|mtp:S|qry_typ:P|lang:en|wc:2|cs:8836|v=4,False,Motia Khan,New Delhi,"Ground Floor Shop No. 163 Janta Market, Motia Khan, New Delhi - 110055, Dist.Delhi, Delhi",8047302269,
"120ml Cartoon Printed Kids Feeding Bottle, Capacity: 150ml, 3-12 Months",https://www.indiamart.com/proddetail/120ml-cartoon-printed-kids-feeding-bottle-22781347773.html?pos=48&kwd=kid cup&tags=||||8954.051|Price|product|||MDC|rsf:gd-|-stype:attr=1|qr_nm:gd|res:RC4|com-cf:nl|ptrs:na|ktp:N0|mc:22709|mtp:S|qry_typ:P|lang:en|wc:2|cs:8836|v=4,Bhairavi Metal Works,https://www.indiamart.com/bhairavimetalworks/?pos=48&kwd=kid cup&tags=||||8954.051|Price|product|||MDC|rsf:gd-|-stype:attr=1|qr_nm:gd|res:RC4|com-cf:nl|ptrs:na|ktp:N0|mc:22709|mtp:S|qry_typ:P|lang:en|wc:2|cs:8836|v=4,False,Thiruporur,Chennai,"No. 24, Sandror Street,, Thiruporur, Chennai - 603110, Dist.Chennai, Tamil Nadu",8046052032,
"Printed Baby Sipper Cup, 3-12 Months",https://www.indiamart.com/proddetail/printed-baby-sipper-cup-23634235688.html?pos=49&kwd=kid cup&tags=||||8741.812|Price|product|||MDC|rsf:gd-|-stype:attr=1|qr_nm:gd|res:RC4|com-cf:nl|ptrs:na|ktp:N0|mc:22709|mtp:S|qry_typ:P|lang:en|wc:2|cs:8836|v=4,Royal Baby Products (India),https://www.indiamart.com/royal-baby-products/?pos=49&kwd=kid cup&tags=||||8741.812|Price|product|||MDC|rsf:gd-|-stype:attr=1|qr_nm:gd|res:RC4|com-cf:nl|ptrs:na|ktp:N0|mc:22709|mtp:S|qry_typ:P|lang:en|wc:2|cs:8836|v=4,False,Sarhaul,Gurugram,"Ground Floor, M-2/22, Dlf City Phase II, Dlf City Phase II, Sarhaul, Gurugram - 122008, Dist.Gurgaon, Haryana",8048613476,
Glass Baby Feeding Bottle,,R.B Handicrafts,https://www.indiamart.com/rbhandicrafts/?pos=50&kwd=kid cup&tags=||||8915.672|Price|product|||MDC|rsf:gd-|-stype:attr=1|qr_nm:gd|res:RC4|com-cf:nl|ptrs:na|ktp:N0|mc:22709|mtp:S|qry_typ:P|lang:en|wc:2|cs:8836|v=4,False,Bartan Bazaar,Moradabad,"0, Thatera Street Mazar Wali Gali, Bartan Bazaar, Moradabad - 244001, Dist.Moradabad, Uttar Pradesh",8043829840,
"PP Pink Baby Feeding Bottles, Age Group: Newly Born",https://www.indiamart.com/proddetail/pink-baby-feeding-bottles-2852959063388.html?pos=51&kwd=kid cup&tags=||||8788.382|Price|product|||MDC|rsf:gd-|-stype:attr=1|qr_nm:gd|res:RC4|com-cf:nl|ptrs:na|ktp:N0|mc:22709|mtp:S|qry_typ:P|lang:en|wc:2|cs:8836|v=4,Loop Techno Systems Private Limited,https://www.indiamart.com/loop-technosystems/?pos=51&kwd=kid cup&tags=||||8788.382|Price|product|||MDC|rsf:gd-|-stype:attr=1|qr_nm:gd|res:RC4|com-cf:nl|ptrs:na|ktp:N0|mc:22709|mtp:S|qry_typ:P|lang:en|wc:2|cs:8836|v=4,False,Surajpur Site V,Greater Noida,"Plot No. J-023, Site 5, Kasna Ind, Area,Gautam Buddha Nagar, Surajpur Site V, Greater Noida - 201308, Dist.Gautam Budh Nagar, Uttar Pradesh",7942830535,
"250ml Stainless Steel Feeding Bottle, Baby",https://www.indiamart.com/proddetail/300ml-stainless-steel-feeding-bottle-21535227633.html?pos=52&kwd=kid cup&tags=||||8921.206|Price|product|||MDC|rsf:gd-|-stype:attr=1|qr_nm:gd|res:RC4|com-cf:nl|ptrs:na|ktp:N0|mc:22709|mtp:S|qry_typ:P|lang:en|wc:2|cs:8836|v=4,Malar Metalware Products,https://www.indiamart.com/malarmetalware-products/?pos=52&kwd=kid cup&tags=||||8921.206|Price|product|||MDC|rsf:gd-|-stype:attr=1|qr_nm:gd|res:RC4|com-cf:nl|ptrs:na|ktp:N0|mc:22709|mtp:S|qry_typ:P|lang:en|wc:2|cs:8836|v=4,False,,Chengalpattu,"133a, Sembakkam, Indira Nagar,, Sembakkam Village, Chengalpattu - 603108, Dist.Kanchipuram, Tamil Nadu",8044460341,
Baby Glass Feeder Bottle,https://www.indiamart.com/proddetail/baby-glass-feeder-bottle-16142630091.html?pos=53&kwd=kid cup&tags=||||8545.6045|Price|product|||MDC|rsf:gd-|-stype:attr=1|qr_nm:gd|res:RC4|com-cf:nl|ptrs:na|ktp:N0|mc:22709|mtp:S|qry_typ:P|lang:en|wc:2|cs:8836|v=4,Shraddha Saburi,https://www.indiamart.com/shraddhasaburi/?pos=53&kwd=kid cup&tags=||||8545.6045|Price|product|||MDC|rsf:gd-|-stype:attr=1|qr_nm:gd|res:RC4|com-cf:nl|ptrs:na|ktp:N0|mc:22709|mtp:S|qry_typ:P|lang:en|wc:2|cs:8836|v=4,False,Cantonment Area,Firozpur,"263, Suji Bazar, M/s Shraddha Saburi, Ferozepur Cantt, Cantonment Area, Firozpur - 152001, Dist.Firozpur, Punjab",8048979628,
"Round Pink 200ml Baby Training Cup, Capacity: 150 mL, 3-12 Months",https://www.indiamart.com/proddetail/200ml-baby-training-cup-2851537241897.html?pos=54&kwd=kid cup&tags=||||8769.508|Price|product|||MDC|rsf:gd-|-stype:attr=1|qr_nm:gd|res:RC4|com-cf:nl|ptrs:na|ktp:N0|mc:22709|mtp:S|qry_typ:P|lang:en|wc:2|cs:8836|v=4,Anand Enterprises,https://www.indiamart.com/anand-enterprisesfaridabad/?pos=54&kwd=kid cup&tags=||||8769.508|Price|product|||MDC|rsf:gd-|-stype:attr=1|qr_nm:gd|res:RC4|com-cf:nl|ptrs:na|ktp:N0|mc:22709|mtp:S|qry_typ:P|lang:en|wc:2|cs:8836|v=4,False,Sect,Faridabad,"72 Kheri Road Kastori Faridabad, Sect, Faridabad - 121002, Dist.Faridabad, Haryana",7942703101,
"Plastic Pp Standard Neck Feeding Bottle, Capacity: 250 ml",https://www.indiamart.com/proddetail/pp-standard-neck-feeding-bottle-2854879890488.html?pos=55&kwd=kid cup&tags=||||8786.56||product|||MDC|rsf:gd-|-stype:attr=1|qr_nm:gd|res:RC4|com-cf:nl|ptrs:na|ktp:N0|mc:22709|mtp:S|qry_typ:P|lang:en|wc:2|cs:8836|v=4,Nabhodh Traders,https://www.indiamart.com/nabhodh-traders/?pos=55&kwd=kid cup&tags=||||8786.56||product|||MDC|rsf:gd-|-stype:attr=1|qr_nm:gd|res:RC4|com-cf:nl|ptrs:na|ktp:N0|mc:22709|mtp:S|qry_typ:P|lang:en|wc:2|cs:8836|v=4,False,,Hyderabad,"Plot No 60, Shilpa Avenue, Hyder Nagar Medchal Malkajgiri, Hyderabad - 500072, Dist.Hyderabad, Telangana",8044460917,
Rabbit Sipper Cup,https://www.indiamart.com/proddetail/rabbit-sipper-cup-24328383991.html?pos=56&kwd=kid cup&tags=||||8778.123|Price|product|||TS|rsf:gd-|-stype:attr=1|qr_nm:gd|res:RC4|com-cf:nl|ptrs:na|ktp:N0|mc:22709|mtp:S|qry_typ:P|lang:en|wc:2|cs:8836|v=4,Bonny Products Private Limited,https://www.feedingbottles.com/?pos=56&kwd=kid cup&tags=||||8778.123|Price|product|||TS|rsf:gd-|-stype:attr=1|qr_nm:gd|res:RC4|com-cf:nl|ptrs:na|ktp:N0|mc:22709|mtp:S|qry_typ:P|lang:en|wc:2|cs:8836|v=4,False,Sector 63,Noida,"D240, Sector 63, Sector 63, Noida - 201307, Dist.Gautam Budh Nagar, Uttar Pradesh",8046040824,
304 Stainless Steel Baby Feeding Bottle For Baby 304 Grade 150 Ml Plain,https://www.indiamart.com/proddetail/304-stainless-steel-baby-feeding-bottle-for-baby-304-grade-150-ml-plain-22962350333.html?pos=57&kwd=kid cup&tags=||||8206.45|Price|product|||TS|rsf:gd-|-stype:attr=1|qr_nm:gd|res:RC4|com-cf:nl|ptrs:na|ktp:N0|mc:22709|mtp:S|qry_typ:P|lang:en|wc:2|cs:8836|v=4,Nelcon Industries India Private Limited,https://www.steelbottles.in/?pos=57&kwd=kid cup&tags=||||8206.45|Price|product|||TS|rsf:gd-|-stype:attr=1|qr_nm:gd|res:RC4|com-cf:nl|ptrs:na|ktp:N0|mc:22709|mtp:S|qry_typ:P|lang:en|wc:2|cs:8836|v=4,False,Tembhode,Palghar,"Survey No. 43/5/6, Plot No. D, Old Satpati Road Allayali, Post Tembhode Hitech Industrial Estate, Tembhode, Palghar - 401404, Dist.Thane, Maharashtra",7942539784,
250ml Stainless Steel Baby Feeding Bottle,https://www.indiamart.com/proddetail/250ml-stainless-steel-baby-feeding-bottle-2849084151855.html?pos=58&kwd=kid cup&tags=||||8592.634|Price|product|||MDC|rsf:gd-|-stype:attr=1|qr_nm:gd|res:RC4|com-cf:nl|ptrs:na|ktp:N0|mc:22709|mtp:S|qry_typ:P|lang:en|wc:2|cs:8836|v=4,Steel Hawk Traders,https://www.indiamart.com/steel-hawk-traders/?pos=58&kwd=kid cup&tags=||||8592.634|Price|product|||MDC|rsf:gd-|-stype:attr=1|qr_nm:gd|res:RC4|com-cf:nl|ptrs:na|ktp:N0|mc:22709|mtp:S|qry_typ:P|lang:en|wc:2|cs:8836|v=4,False,,Chettipalayam,"SF.No.301,302/1, Thillaiamman Valarmathi Nagar, Kuylai Pirivu,, Chettipalayam - 641201, Tamil Nadu",7949324072,
Baby feeder,https://www.indiamart.com/proddetail/baby-feeder-2851743715530.html?pos=59&kwd=kid cup&tags=||||8706.508|Price|product|||MDC|rsf:gd-|-stype:attr=1|qr_nm:gd|res:RC4|com-cf:nl|ptrs:na|ktp:N0|mc:22709|mtp:S|qry_typ:P|lang:en|wc:2|cs:8836|v=4,Young Vision,https://www.indiamart.com/young-vision-rohtak/?pos=59&kwd=kid cup&tags=||||8706.508|Price|product|||MDC|rsf:gd-|-stype:attr=1|qr_nm:gd|res:RC4|com-cf:nl|ptrs:na|ktp:N0|mc:22709|mtp:S|qry_typ:P|lang:en|wc:2|cs:8836|v=4,False,Janta Colony,Rohtak,"949/31 Azad Nagar, Janta Colony, Rohtak - 124001, Dist.Rohtak, Haryana",8047688329,
"Silver Baby Feeding Bottle, Capacity: 250 ml, Age Group: 1-2 Years",https://www.indiamart.com/proddetail/silver-baby-feeding-bottle-2853932627155.html?pos=60&kwd=kid cup&tags=||||8954.051|Price|product|||MDC|rsf:gd-|-stype:attr=1|qr_nm:gd|res:RC4|com-cf:nl|ptrs:na|ktp:N0|mc:22709|mtp:S|qry_typ:P|lang:en|wc:2|cs:8836|v=4,For Lil Ones LLP,https://www.indiamart.com/for-lilones/?pos=60&kwd=kid cup&tags=||||8954.051|Price|product|||MDC|rsf:gd-|-stype:attr=1|qr_nm:gd|res:RC4|com-cf:nl|ptrs:na|ktp:N0|mc:22709|mtp:S|qry_typ:P|lang:en|wc:2|cs:8836|v=4,False,Perungalattur,Chennai,"30/4, Rajaji Street, Srinivasa Nagar, Perungalattur, Chengalpattu, Perungalattur, Chennai - 600063, Dist.Chennai, Tamil Nadu",8044012811,
Baby Silicone rattle feeder,https://www.indiamart.com/proddetail/baby-silicone-rattle-feeder-2854560953097.html?pos=61&kwd=kid cup&tags=||||8752.144|Price|product|||MDC|rsf:gd-|-stype:attr=1|qr_nm:gd|res:RC4|com-cf:nl|ptrs:na|ktp:N0|mc:22709|mtp:S|qry_typ:P|lang:en|wc:2|cs:8836|v=4,HS Enterprises,https://www.indiamart.com/hsenterprisesindia/?pos=61&kwd=kid cup&tags=||||8752.144|Price|product|||MDC|rsf:gd-|-stype:attr=1|qr_nm:gd|res:RC4|com-cf:nl|ptrs:na|ktp:N0|mc:22709|mtp:S|qry_typ:P|lang:en|wc:2|cs:8836|v=4,False,,New Delhi,"EE-496, Gali No. 10, North Delhi, New Delhi - 110042, Dist.Delhi, Delhi",7949329375,
"Metal Silver Stainless Steel Feeding Bottle 300ml, Packaging Type: Box",https://www.indiamart.com/proddetail/stainless-steel-feeding-bottle-300ml-24679403497.html?pos=62&kwd=kid cup&tags=||||8891.556|Price|product|||TS|rsf:gd-|-stype:attr=1|qr_nm:gd|res:RC4|com-cf:nl|ptrs:na|ktp:N0|mc:22709|mtp:S|qry_typ:P|lang:en|wc:2|cs:8836|v=4,Sipfe Industries,https://www.indiamart.com/sipfe-industries/?pos=62&kwd=kid cup&tags=||||8891.556|Price|product|||TS|rsf:gd-|-stype:attr=1|qr_nm:gd|res:RC4|com-cf:nl|ptrs:na|ktp:N0|mc:22709|mtp:S|qry_typ:P|lang:en|wc:2|cs:8836|v=4,False,Maraimalai Nagar,Kanchipuram,"Sf No.191/2c1, Plot No.41 Sengundram Road, Alamelumangapuram, Chengalpattu, Maraimalai Nagar, Kanchipuram - 603204, Dist.Kanchipuram, Tamil Nadu",7942562152,
"Airplane Shape Water Bottle, Leak-Proof & Portable Kids Sipper Water Bottle For School,",https://www.indiamart.com/proddetail/airplane-shape-water-bottle-leak-proof-portable-kids-sipper-water-bottle-for-school-2855093189730.html?pos=63&kwd=kid cup&tags=||||8230.883|Price|product|||TS|rsf:gd-|-stype:attr=1|qr_nm:gd|res:RC4|com-cf:nl|ptrs:na|ktp:N0|mc:22709|mtp:S|qry_typ:P|lang:en|wc:2|cs:8836|v=4,Khilona House,https://www.indiamart.com/khilona-house-surat/?pos=63&kwd=kid cup&tags=||||8230.883|Price|product|||TS|rsf:gd-|-stype:attr=1|qr_nm:gd|res:RC4|com-cf:nl|ptrs:na|ktp:N0|mc:22709|mtp:S|qry_typ:P|lang:en|wc:2|cs:8836|v=4,False,Singanpor,Surat,"SY.No.-0047, Plot A/19, First, Madhav Mandir Society-1, Dabholi Road, Katargam, Singanpor, Surat - 395004, Dist.Surat, Gujarat",8047783031,
"Metal Stainless Steel Feeding Bottle 140ml, Baby",https://www.indiamart.com/proddetail/stainless-steel-feeding-bottle-140ml-2848984653555.html?pos=64&kwd=kid cup&tags=||||8752.144|Price|product|||TS|rsf:gd-|-stype:attr=1|qr_nm:gd|res:RC4|com-cf:nl|ptrs:na|ktp:N0|mc:22709|mtp:S|qry_typ:P|lang:en|wc:2|cs:8836|v=4,Maharaja Cookers Private Limited,https://www.speedexind.co.in/?pos=64&kwd=kid cup&tags=||||8752.144|Price|product|||TS|rsf:gd-|-stype:attr=1|qr_nm:gd|res:RC4|com-cf:nl|ptrs:na|ktp:N0|mc:22709|mtp:S|qry_typ:P|lang:en|wc:2|cs:8836|v=4,False,Narela,New Delhi,"H-1311, DSIIDC Industrial Area, Narela, New Delhi - 110040, Dist.Delhi, Delhi",8048981827,
GLOBAL Space Sipper Water Bote Tumber Flask 500 ml,https://www.indiamart.com/proddetail/space-sipper-water-bote-tumber-flask-500-ml-25112784262.html?pos=65&kwd=kid cup&tags=||||8752.144|Price|product|||TS|rsf:gd-|-stype:attr=1|qr_nm:gd|res:RC4|com-cf:nl|ptrs:na|ktp:N0|mc:22709|mtp:S|qry_typ:P|lang:en|wc:2|cs:8836|v=4,Global Productions,https://www.indiamart.com/global-productions-newdelhi/?pos=65&kwd=kid cup&tags=||||8752.144|Price|product|||TS|rsf:gd-|-stype:attr=1|qr_nm:gd|res:RC4|com-cf:nl|ptrs:na|ktp:N0|mc:22709|mtp:S|qry_typ:P|lang:en|wc:2|cs:8836|v=4,False,Motia Khan,New Delhi,"Ground Floor Shop No. 163 Janta Market, Motia Khan, New Delhi - 110055, Dist.Delhi, Delhi",8047302269,
"Transparent Nifty Feeding Cup 40 ml - Reusable,, New Born Baby",https://www.indiamart.com/proddetail/nifty-feeding-cup-40-ml-reusable-2854140731212.html?pos=66&kwd=kid cup&tags=||||8752.144|Price|product|||TS|rsf:gd-|-stype:attr=1|qr_nm:gd|res:RC4|com-cf:nl|ptrs:na|ktp:N0|mc:22709|mtp:S|qry_typ:P|lang:en|wc:2|cs:8836|v=4,BEN Meditechnology,https://www.benmeditech.com/?pos=66&kwd=kid cup&tags=||||8752.144|Price|product|||TS|rsf:gd-|-stype:attr=1|qr_nm:gd|res:RC4|com-cf:nl|ptrs:na|ktp:N0|mc:22709|mtp:S|qry_typ:P|lang:en|wc:2|cs:8836|v=4,False,Nasirpur,New Delhi,"Flat No 101, Eil Appartment, Plot No 13, Pocket-6, Dwarka Sector 1A, Palam Village, Dabri, South West, Nasirpur, New Delhi - 110045, Dist.Delhi, Delhi",7942825969,
Philips Avent Feeding Bottle,https://www.indiamart.com/proddetail/philips-avent-feeding-bottle-2852057849955.html?pos=67&kwd=kid cup&tags=||||8663.873|Price|product|||TS|rsf:gd-|-stype:attr=1|qr_nm:gd|res:RC4|com-cf:nl|ptrs:na|ktp:N0|mc:22709|mtp:S|qry_typ:P|lang:en|wc:2|cs:8836|v=4,Prajwal Surgical And Scientifics Private Limited,https://www.indiamart.com/prajwal-surgical-and-scientifics/?pos=67&kwd=kid cup&tags=||||8663.873|Price|product|||TS|rsf:gd-|-stype:attr=1|qr_nm:gd|res:RC4|com-cf:nl|ptrs:na|ktp:N0|mc:22709|mtp:S|qry_typ:P|lang:en|wc:2|cs:8836|v=4,False,Peenya,Bengaluru,"2nd Floor, 254/A PID No 11-161-254A, Old Sonal Garments, 100 Feet Road, Peenya Industrial Area Stage, Peenya, Bengaluru - 560058, Dist.Bengaluru, Karnataka",7942842256,
"Printed Baby Sipper Cup, 3-12 Months",https://www.indiamart.com/proddetail/printed-baby-sipper-cup-23634235688.html?pos=68&kwd=kid cup&tags=||||8741.812|Price|product|||MDC|rsf:gd-|-stype:attr=1|qr_nm:gd|res:RC4|com-cf:nl|ptrs:na|ktp:N0|mc:22709|mtp:S|qry_typ:P|lang:en|wc:2|cs:8836|v=4,Royal Baby Products (India),https://www.indiamart.com/royal-baby-products/?pos=68&kwd=kid cup&tags=||||8741.812|Price|product|||MDC|rsf:gd-|-stype:attr=1|qr_nm:gd|res:RC4|com-cf:nl|ptrs:na|ktp:N0|mc:22709|mtp:S|qry_typ:P|lang:en|wc:2|cs:8836|v=4,False,Sarhaul,Gurugram,"Ground Floor, M-2/22, Dlf City Phase II, Dlf City Phase II, Sarhaul, Gurugram - 122008, Dist.Gurgaon, Haryana",8048613476,
"Transparent Baby Sipper Bottle, Capacity: 100 mL",https://www.indiamart.com/proddetail/baby-sipper-bottle-2853673848891.html?pos=69&kwd=kid cup&tags=||||8624.416|Price|product|||MDC|rsf:gd-|-stype:attr=1|qr_nm:gd|res:RC4|com-cf:nl|ptrs:na|ktp:N0|mc:22709|mtp:S|qry_typ:P|lang:en|wc:2|cs:8836|v=4,Dayawanti Traders,https://www.indiamart.com/dayawati-trader/?pos=69&kwd=kid cup&tags=||||8624.416|Price|product|||MDC|rsf:gd-|-stype:attr=1|qr_nm:gd|res:RC4|com-cf:nl|ptrs:na|ktp:N0|mc:22709|mtp:S|qry_typ:P|lang:en|wc:2|cs:8836|v=4,False,Indira Colony,Hisar,"Plot No. 137 Dhani Kishandutt, Near Asha High School, Nancy Beauty Parlour, Indira Colony, Indira Colony, Hisar - 125001, Dist.Hisar, Haryana",7942701403,
Baby milk bottle pacifier,https://www.indiamart.com/proddetail/baby-milk-bottle-pacifier-2854639589273.html?pos=70&kwd=kid cup&tags=||||8038.093|Price|product|||MDC|rsf:gd-|-stype:attr=1|qr_nm:gd|res:RC4|com-cf:nl|ptrs:na|ktp:N0|mc:22709|mtp:S|qry_typ:P|lang:en|wc:2|cs:8836|v=4,Creative Automation,https://www.indiamart.com/creativeautomationrajkot/?pos=70&kwd=kid cup&tags=||||8038.093|Price|product|||MDC|rsf:gd-|-stype:attr=1|qr_nm:gd|res:RC4|com-cf:nl|ptrs:na|ktp:N0|mc:22709|mtp:S|qry_typ:P|lang:en|wc:2|cs:8836|v=4,False,Rajkot,Rajkot,"Plot No.19, kailash Manu, Sidhdheshwar Griding, Atika ndustrial, Street No.3, Dhebar Road South Near Jaydev Foundry, Rajkot, Rajkot - 360002, Dist.Rajkot, Gujarat",7942570968,
Baby milk bottle pacifier,https://www.indiamart.com/proddetail/baby-milk-bottle-pacifier-2854639589273.html?pos=71&kwd=kid cup&tags=||||8038.093|Price|product|||MDC|rsf:gd-|-stype:attr=1|qr_nm:gd|res:RC4|com-cf:nl|ptrs:na|ktp:N0|mc:22709|mtp:S|qry_typ:P|lang:en|wc:2|cs:8836|v=4,Creative Automation,https://www.indiamart.com/creativeautomationrajkot/?pos=71&kwd=kid cup&tags=||||8038.093|Price|product|||MDC|rsf:gd-|-stype:attr=1|qr_nm:gd|res:RC4|com-cf:nl|ptrs:na|ktp:N0|mc:22709|mtp:S|qry_typ:P|lang:en|wc:2|cs:8836|v=4,False,Rajkot,Rajkot,"Plot No.19, kailash Manu, Sidhdheshwar Griding, Atika ndustrial, Street No.3, Dhebar Road South Near Jaydev Foundry, Rajkot, Rajkot - 360002, Dist.Rajkot, Gujarat",7942570968,
"Silver Metal SS Baby Feeding Bottle, Capacity: 250ml, 3-12 Months",https://www.indiamart.com/proddetail/ss-baby-feeding-bottle-2849318569655.html?pos=72&kwd=kid cup&tags=||||8752.144|Price|product|||TS|rsf:gd-|-stype:attr=1|qr_nm:gd|res:RC4|com-cf:nl|ptrs:na|ktp:N0|mc:22709|mtp:S|qry_typ:P|lang:en|wc:2|cs:8836|v=4,National Overseas,https://www.indiamart.com/nationaltraders-vishwashnagar/?pos=72&kwd=kid cup&tags=||||8752.144|Price|product|||TS|rsf:gd-|-stype:attr=1|qr_nm:gd|res:RC4|com-cf:nl|ptrs:na|ktp:N0|mc:22709|mtp:S|qry_typ:P|lang:en|wc:2|cs:8836|v=4,False,Shahdara,New Delhi,"1/99, Gali No. 3, Vishwas Nagar, Shahdara, New Delhi - 110032, Dist.Delhi, Delhi",8046047673,
White Metal Red Kitchen Chef Stainless steel Baby feeding bottle - 250 ml,https://www.indiamart.com/proddetail/red-kitchen-chef-stainless-steel-baby-feeding-bottle-250-ml-2854179718862.html?pos=73&kwd=kid cup&tags=||||8663.873|Price|product|||TS|rsf:gd-|-stype:attr=1|qr_nm:gd|res:RC4|com-cf:nl|ptrs:na|ktp:N0|mc:22709|mtp:S|qry_typ:P|lang:en|wc:2|cs:8836|v=4,Suranas,https://www.suranas.in/?pos=73&kwd=kid cup&tags=||||8663.873|Price|product|||TS|rsf:gd-|-stype:attr=1|qr_nm:gd|res:RC4|com-cf:nl|ptrs:na|ktp:N0|mc:22709|mtp:S|qry_typ:P|lang:en|wc:2|cs:8836|v=4,False,Basavanagudi,Bengaluru,"14/38, 1st model house street, Basavanagudi, Bengaluru - 560004, Dist.Bengaluru, Karnataka",8047547443,
"Dolphin Transparent Baby Sippy Cup, 1-3 Years, Size: Small",https://www.indiamart.com/proddetail/baby-sippy-cup-2849704943573.html?pos=74&kwd=kid cup&tags=||||8752.144|Price|product|||TS|rsf:gd-|-stype:attr=1|qr_nm:gd|res:RC4|com-cf:nl|ptrs:na|ktp:N0|mc:22709|mtp:S|qry_typ:P|lang:en|wc:2|cs:8836|v=4,Dolphin Baby Product,https://www.dolphinbabyproducts.com/?pos=74&kwd=kid cup&tags=||||8752.144|Price|product|||TS|rsf:gd-|-stype:attr=1|qr_nm:gd|res:RC4|com-cf:nl|ptrs:na|ktp:N0|mc:22709|mtp:S|qry_typ:P|lang:en|wc:2|cs:8836|v=4,False,Inderlok,New Delhi,"No. 488, 1st Floor, Shahzada Bagh, Industrial Area Phase 1, Inderlok, New Delhi - 110035, Dist.Delhi, Delhi",8048965296,
"Stainless Steel Feeding Bottle, Capacity: 300 mL",,A V Enterprises,https://www.indiamart.com/a-venterprises-delhi/?pos=75&kwd=kid cup&tags=||||8752.144|Price|product|||MDC|rsf:gd-|-stype:attr=1|qr_nm:gd|res:RC4|com-cf:nl|ptrs:na|ktp:N0|mc:22709|mtp:S|qry_typ:P|lang:en|wc:2|cs:8836|v=4,False,,New Delhi,"1st Floor, A-145/1, Wazirpur, Industrial Area, Wazirpur, New Delhi - 110052, Dist.Delhi, Delhi",8044460094,
Metal Baby Stainless Steel Feeding Bottle,https://www.indiamart.com/proddetail/baby-stainless-steel-feeding-bottle-2854887501612.html?pos=76&kwd=kid cup&tags=||||8206.306|Price|product|||MDC|rsf:gd-|-stype:attr=1|qr_nm:gd|res:RC4|com-cf:nl|ptrs:na|ktp:N0|mc:22709|mtp:S|qry_typ:P|lang:en|wc:2|cs:8836|v=4,Maya Industries,https://www.indiamart.com/maya-industries-maharashtra/?pos=76&kwd=kid cup&tags=||||8206.306|Price|product|||MDC|rsf:gd-|-stype:attr=1|qr_nm:gd|res:RC4|com-cf:nl|ptrs:na|ktp:N0|mc:22709|mtp:S|qry_typ:P|lang:en|wc:2|cs:8836|v=4,False,Bhayandar West,Bhayander West,"B-102, Pawan Kunj Apartment, 60 Feet Road, Nakoda Hospital, Mira Bhayandar, Thane, Bhayandar West, Bhayander West - 401101, Maharashtra",7949090316,
Baby Printed Feeding Sipper,https://www.indiamart.com/proddetail/baby-printed-feeding-sipper-24499833662.html?pos=77&kwd=kid cup&tags=||||8752.144|Price|product|||MDC|rsf:gd-|-stype:attr=1|qr_nm:gd|res:RC4|com-cf:nl|ptrs:na|ktp:N0|mc:22709|mtp:S|qry_typ:P|lang:en|wc:2|cs:8836|v=4,Kidz Creation,https://www.indiamart.com/kidzcreation/?pos=77&kwd=kid cup&tags=||||8752.144|Price|product|||MDC|rsf:gd-|-stype:attr=1|qr_nm:gd|res:RC4|com-cf:nl|ptrs:na|ktp:N0|mc:22709|mtp:S|qry_typ:P|lang:en|wc:2|cs:8836|v=4,False,,New Delhi,"Shop No. 279/517,Sabharwal Market, Tolia Wali Gali Sadar Bazar, North Delhi,, New Delhi - 110006, Dist.Delhi, Delhi",8047679212,
"Blue ABS Plastic Baby Pacifier, Capacity: 50 mL",https://www.indiamart.com/proddetail/abs-plastic-baby-pacifier-24273995997.html?pos=78&kwd=kid cup&tags=||||8752.144|Price|product|||MDC|rsf:gd-|-stype:attr=1|qr_nm:gd|res:RC4|com-cf:nl|ptrs:na|ktp:N0|mc:22709|mtp:S|qry_typ:P|lang:en|wc:2|cs:8836|v=4,Drishti E-Commerce,https://www.indiamart.com/drishti-e-commerce/?pos=78&kwd=kid cup&tags=||||8752.144|Price|product|||MDC|rsf:gd-|-stype:attr=1|qr_nm:gd|res:RC4|com-cf:nl|ptrs:na|ktp:N0|mc:22709|mtp:S|qry_typ:P|lang:en|wc:2|cs:8836|v=4,False,Jahangirpura,New Delhi,"B-29, Ground Floor, Kh No-238/2, Gali No-5/12, Gurunanak Dev Colony, Bhalswa, North Delhi, Jahangirpura, New Delhi - 110042, Dist.Delhi, Delhi",7949082368,
"Silver VALENTINE Baby Bottle KIDDY 140 ML, 1-2 year",https://www.indiamart.com/proddetail/valentine-baby-bottle-kiddy-140-ml-2849388363748.html?pos=79&kwd=kid cup&tags=||||8752.144|Price|product|||MDC|rsf:gd-|-stype:attr=1|qr_nm:gd|res:RC4|com-cf:nl|ptrs:na|ktp:N0|mc:22709|mtp:S|qry_typ:P|lang:en|wc:2|cs:8836|v=4,Maharaja Metalik Group,https://www.indiamart.com/maharaja-metalik-group/?pos=79&kwd=kid cup&tags=||||8752.144|Price|product|||MDC|rsf:gd-|-stype:attr=1|qr_nm:gd|res:RC4|com-cf:nl|ptrs:na|ktp:N0|mc:22709|mtp:S|qry_typ:P|lang:en|wc:2|cs:8836|v=4,False,Wazirpur Industrial Area,New Delhi,"A- 87/5 Wazirpur Industrial Area, Wazirpur Industrial Area, New Delhi - 110052, Dist.Delhi, Delhi",8047699043,
PP Feeding Cup Milk/Medicine,,Kapoor Agencies,https://www.sagarproducts.co.in/?pos=80&kwd=kid cup&tags=||||8752.144|Price|product|||TS|rsf:gd-|-stype:attr=1|qr_nm:gd|res:RC4|com-cf:nl|ptrs:na|ktp:N0|mc:22709|mtp:S|qry_typ:P|lang:en|wc:2|cs:8836|v=4,False,Shahdara,New Delhi,"Iv/1697,Mahavir Block,Bhola Nath Nagar,Shahdar, Shahdara, New Delhi - 110032, Dist.Delhi, Delhi",8046069171,
"Silver Stainless Steel Baby Feeding Bottle, Capacity: 300 mL",https://www.indiamart.com/proddetail/stainless-steel-baby-feeding-bottle-2853302145748.html?pos=81&kwd=kid cup&tags=||||8210.732|Price|product|||TS|rsf:gd-|-stype:attr=1|qr_nm:gd|res:RC4|com-cf:nl|ptrs:na|ktp:N0|mc:22709|mtp:S|qry_typ:P|lang:en|wc:2|cs:8836|v=4,Arushi Enterprises,https://www.indiamart.com/arushi-enterprisesvasai-virar/?pos=81&kwd=kid cup&tags=||||8210.732|Price|product|||TS|rsf:gd-|-stype:attr=1|qr_nm:gd|res:RC4|com-cf:nl|ptrs:na|ktp:N0|mc:22709|mtp:S|qry_typ:P|lang:en|wc:2|cs:8836|v=4,False,Pelhar,Vasai,"Mira Industrial Estate, G.No F/6 S.No.74 H-2471 Nalasopara East, Pelhar, Palghar, Pelhar, Vasai - 401208, Dist.Thane, Maharashtra",7942825056,
"White PLASTIC BABY FEEDING BOTTLE 250 ML, Age Group: Newly Born",https://www.indiamart.com/proddetail/plastic-baby-feeding-bottle-250-ml-2849175138630.html?pos=82&kwd=kid cup&tags=||||8752.144|Price|product|||TS|rsf:gd-|-stype:attr=1|qr_nm:gd|res:RC4|com-cf:nl|ptrs:na|ktp:N0|mc:22709|mtp:S|qry_typ:P|lang:en|wc:2|cs:8836|v=4,Anand Garments Pvt Ltd,https://www.indiamart.com/anand-garments-newdelhi/?pos=82&kwd=kid cup&tags=||||8752.144|Price|product|||TS|rsf:gd-|-stype:attr=1|qr_nm:gd|res:RC4|com-cf:nl|ptrs:na|ktp:N0|mc:22709|mtp:S|qry_typ:P|lang:en|wc:2|cs:8836|v=4,False,mundka,New Delhi,"Plot No-276, Area Pocket-m Sector-1, Dsiidc Bawana,, mundka, New Delhi - 110039, Dist.Delhi, Delhi",8048262855,
Transparent Silicone Baby Fruit Feeder,https://www.indiamart.com/proddetail/silicone-baby-fruit-feeder-2850184193055.html?pos=83&kwd=kid cup&tags=||||8752.144|Price|product|||TS|rsf:gd-|-stype:attr=1|qr_nm:gd|res:RC4|com-cf:nl|ptrs:na|ktp:N0|mc:22709|mtp:S|qry_typ:P|lang:en|wc:2|cs:8836|v=4,Aastha Trading Company,https://www.indiamart.com/aasthatradingcompany-delhi/?pos=83&kwd=kid cup&tags=||||8752.144|Price|product|||TS|rsf:gd-|-stype:attr=1|qr_nm:gd|res:RC4|com-cf:nl|ptrs:na|ktp:N0|mc:22709|mtp:S|qry_typ:P|lang:en|wc:2|cs:8836|v=4,False,Mangolpuri,New Delhi,"Ground floor Block M Shop no-534, Mangolpuri, New Delhi - 110083, Dist.Delhi, Delhi",8046030692,
"Baby Food Feeder, 3-12 Months",https://www.indiamart.com/proddetail/baby-food-feeder-2850429595773.html?pos=84&kwd=kid cup&tags=||||8752.144|Price|product|||MDC|rsf:gd-|-stype:attr=1|qr_nm:gd|res:RC4|com-cf:nl|ptrs:na|ktp:N0|mc:22709|mtp:S|qry_typ:P|lang:en|wc:2|cs:8836|v=4,Priyanshi International,https://www.indiamart.com/priyanshi-international-uttarpradesh/?pos=84&kwd=kid cup&tags=||||8752.144|Price|product|||MDC|rsf:gd-|-stype:attr=1|qr_nm:gd|res:RC4|com-cf:nl|ptrs:na|ktp:N0|mc:22709|mtp:S|qry_typ:P|lang:en|wc:2|cs:8836|v=4,False,,New Delhi,"3,PROP NO S228,SCHOOL BLOCK,SHAKARPUR UGF, 3, Prop No S228, School Block, Shakarpur,110092, New Delhi - 110092, Dist.Delhi, Delhi",7942676139,
"White 30ml PP Feeding Cup, Newly Born",https://www.indiamart.com/proddetail/30ml-pp-feeding-cup-2852312214133.html?pos=85&kwd=kid cup&tags=||||8228.275|Price|product|||MDC|rsf:gd-|-stype:attr=1|qr_nm:gd|res:RC4|com-cf:nl|ptrs:na|ktp:N0|mc:22709|mtp:S|qry_typ:P|lang:en|wc:2|cs:8836|v=4,HHPL Healthcare,https://www.indiamart.com/hhpl-healthcare/?pos=85&kwd=kid cup&tags=||||8228.275|Price|product|||MDC|rsf:gd-|-stype:attr=1|qr_nm:gd|res:RC4|com-cf:nl|ptrs:na|ktp:N0|mc:22709|mtp:S|qry_typ:P|lang:en|wc:2|cs:8836|v=4,False,Shanti Nagar,Ahmedabad,"5, Vinay Co-Op H Society Ltd, Near Ayodhyanagar Flat, Near Sahjivan Society, Usmanpura, Shanti Nagar, Ahmedabad - 380013, Dist.Ahmedabad, Gujarat",8047665110,
Silicone Baby Nibbler Fruit Feeder,https://www.indiamart.com/proddetail/baby-nibbler-fruit-feeder-2854077723955.html?pos=86&kwd=kid cup&tags=||||8752.144|Price|product|||MDC|rsf:gd-|-stype:attr=1|qr_nm:gd|res:RC4|com-cf:nl|ptrs:na|ktp:N0|mc:22709|mtp:S|qry_typ:P|lang:en|wc:2|cs:8836|v=4,Shubh Shakti Traders,https://www.indiamart.com/shubhshaktitraders/?pos=86&kwd=kid cup&tags=||||8752.144|Price|product|||MDC|rsf:gd-|-stype:attr=1|qr_nm:gd|res:RC4|com-cf:nl|ptrs:na|ktp:N0|mc:22709|mtp:S|qry_typ:P|lang:en|wc:2|cs:8836|v=4,False,Wazirpur,New Delhi,"Ground Floor, House No.51, DSIDC Complex. Wazirpur Indl. Area, Landmark Old SBI Building, North West, Wazirpur, New Delhi - 110052, Dist.Delhi, Delhi",7949224945,
Baby Stainless Steel Feeding Milk Bottle,,A.K.Metal Pressing,https://www.indiamart.com/akmetalpressing/?pos=87&kwd=kid cup&tags=||||8954.051|Price|product|||MDC|rsf:gd-|-stype:attr=1|qr_nm:gd|res:RC4|com-cf:nl|ptrs:na|ktp:N0|mc:22709|mtp:S|qry_typ:P|lang:en|wc:2|cs:8836|v=4,False,Sattangadu,Chennai,"No-33/15, Gandhi Nagar Main Road, Thiruvoittyur, Thiruvallur, Sattangadu, Chennai - 600019, Dist.Chennai, Tamil Nadu",8047647689,
White Metal Red Kitchen Chef Stainless steel Baby feeding bottle - 250 ml,https://www.indiamart.com/proddetail/red-kitchen-chef-stainless-steel-baby-feeding-bottle-250-ml-2854179718862.html?pos=88&kwd=kid cup&tags=||||8663.873|Price|product|||TS|rsf:gd-|-stype:attr=1|qr_nm:gd|res:RC4|com-cf:nl|ptrs:na|ktp:N0|mc:22709|mtp:S|qry_typ:P|lang:en|wc:2|cs:8836|v=4,Suranas,https://www.suranas.in/?pos=88&kwd=kid cup&tags=||||8663.873|Price|product|||TS|rsf:gd-|-stype:attr=1|qr_nm:gd|res:RC4|com-cf:nl|ptrs:na|ktp:N0|mc:22709|mtp:S|qry_typ:P|lang:en|wc:2|cs:8836|v=4,False,Basavanagudi,Bengaluru,"14/38, 1st model house street, Basavanagudi, Bengaluru - 560004, Dist.Bengaluru, Karnataka",8047547443,
Baby Silicone Soother,https://www.indiamart.com/proddetail/baby-silicone-soother-15491972597.html?pos=89&kwd=kid cup&tags=||||8211.142|Price|product|||TS|rsf:gd-|-stype:attr=1|qr_nm:gd|res:RC4|com-cf:nl|ptrs:na|ktp:N0|mc:22709|mtp:S|qry_typ:P|lang:en|wc:2|cs:8836|v=4,Gujarat Polymers,https://www.indiamart.com/gujaratpolymers-maharashtra/?pos=89&kwd=kid cup&tags=||||8211.142|Price|product|||TS|rsf:gd-|-stype:attr=1|qr_nm:gd|res:RC4|com-cf:nl|ptrs:na|ktp:N0|mc:22709|mtp:S|qry_typ:P|lang:en|wc:2|cs:8836|v=4,False,Andheri West,Mumbai,"No. 602, Centre Square, SV Road, Andheri West, Andheri West, Mumbai - 400058, Dist.Mumbai, Maharashtra",8046078043,
Wooden Baby Pacifier Clip and baby teether,https://www.indiamart.com/proddetail/baby-pacifier-clip-and-baby-teether-2854473070530.html?pos=90&kwd=kid cup&tags=||||7981.7773|Price|product|||TS|rsf:gd-|-stype:attr=1|qr_nm:gd|res:RC4|com-cf:nl|ptrs:na|ktp:N0|mc:22709|mtp:S|qry_typ:P|lang:en|wc:2|cs:8836|v=4,Shreeji Enterprise,https://www.indiamart.com/shreejienterprisegandhidham/?pos=90&kwd=kid cup&tags=||||7981.7773|Price|product|||TS|rsf:gd-|-stype:attr=1|qr_nm:gd|res:RC4|com-cf:nl|ptrs:na|ktp:N0|mc:22709|mtp:S|qry_typ:P|lang:en|wc:2|cs:8836|v=4,False,Golden Heights,Gandhidham,"108, Golden Height, Opposite Hotel Shiv Grand, Behind Petrol Pump, Golden Heights, Gandhidham - 370201, Dist.Kachchh, Gujarat",7942553471,
"White Plastic Baby Fruit Feeder, Capacity: 100 mL, 3-12 Months",https://www.indiamart.com/proddetail/baby-fruit-feeder-2851811834573.html?pos=91&kwd=kid cup&tags=||||8752.144|Price|product|||TS|rsf:gd-|-stype:attr=1|qr_nm:gd|res:RC4|com-cf:nl|ptrs:na|ktp:N0|mc:22709|mtp:S|qry_typ:P|lang:en|wc:2|cs:8836|v=4,B.S. ENTERPRISES,https://www.indiamart.com/yoneedo-delhi/?pos=91&kwd=kid cup&tags=||||8752.144|Price|product|||TS|rsf:gd-|-stype:attr=1|qr_nm:gd|res:RC4|com-cf:nl|ptrs:na|ktp:N0|mc:22709|mtp:S|qry_typ:P|lang:en|wc:2|cs:8836|v=4,False,Shalimar Village,New Delhi,"C-61 GALI NO 8 SHALIMAR VILLAGE Shalimar Village, Shalimar Village, New Delhi - 110088, Dist.Delhi, Delhi",8048955523,
"White Baby Feeding Silicone Nipple, 3 Months",https://www.indiamart.com/proddetail/baby-feeding-silicone-nipple-25599636191.html?pos=92&kwd=kid cup&tags=||||8211.142|Price|product|||TS|rsf:gd-|-stype:attr=1|qr_nm:gd|res:RC4|com-cf:nl|ptrs:na|ktp:N0|mc:22709|mtp:S|qry_typ:P|lang:en|wc:2|cs:8836|v=4,Silicone Products (India),https://www.indiamart.com/silicone-products-india/?pos=92&kwd=kid cup&tags=||||8211.142|Price|product|||TS|rsf:gd-|-stype:attr=1|qr_nm:gd|res:RC4|com-cf:nl|ptrs:na|ktp:N0|mc:22709|mtp:S|qry_typ:P|lang:en|wc:2|cs:8836|v=4,False,Borivali,Mumbai,"102, Aadinath Park Chs, 51 St Road, Shimpoli, Borivali West, Mumbai Suburban, Borivali, Mumbai - 400092, Dist.Mumbai, Maharashtra",8047652110,
"Metal Stainless Steel Feeding Bottle, Capacity: 300 mL, 3-12 Months",https://www.indiamart.com/proddetail/stainless-steel-feeding-bottle-2852451353848.html?pos=93&kwd=kid cup&tags=||||8211.142|Price|product|||TS|rsf:gd-|-stype:attr=1|qr_nm:gd|res:RC4|com-cf:nl|ptrs:na|ktp:N0|mc:22709|mtp:S|qry_typ:P|lang:en|wc:2|cs:8836|v=4,Prabhu Industries,https://www.indiamart.com/prabhu-industries-mumbai/?pos=93&kwd=kid cup&tags=||||8211.142|Price|product|||TS|rsf:gd-|-stype:attr=1|qr_nm:gd|res:RC4|com-cf:nl|ptrs:na|ktp:N0|mc:22709|mtp:S|qry_typ:P|lang:en|wc:2|cs:8836|v=4,False,Andheri East,Mumbai,"B2-701, 7th Floor, Preeti Apartment, J.B.Nagar, Kanti Nagar, Andheri East, Andheri East, Mumbai - 400059, Dist.Mumbai, Maharashtra",8047304103,
Bos Medicare Baby Nipple,https://www.indiamart.com/proddetail/bos-medicare-baby-nipple-25013868873.html?pos=94&kwd=kid cup&tags=||||8752.144|Price|product|||TS|rsf:gd-|-stype:attr=1|qr_nm:gd|res:RC4|com-cf:nl|ptrs:na|ktp:N0|mc:22709|mtp:S|qry_typ:P|lang:en|wc:2|cs:8836|v=4,Bos Medicare Surgical,https://www.bosmedicare.com/?pos=94&kwd=kid cup&tags=||||8752.144|Price|product|||TS|rsf:gd-|-stype:attr=1|qr_nm:gd|res:RC4|com-cf:nl|ptrs:na|ktp:N0|mc:22709|mtp:S|qry_typ:P|lang:en|wc:2|cs:8836|v=4,False,Kishan Ganj,New Delhi,"Shop No 155, Kishan Ganj Market, Old Rohtak Road, Kishan Ganj, Kishan Ganj, New Delhi - 110007, Dist.Delhi, Delhi",7942826425,
Baby Soother .,https://www.indiamart.com/proddetail/baby-soother-2853570013930.html?pos=95&kwd=kid cup&tags=||||8228.275|Price|product|||TS|rsf:gd-|-stype:attr=1|qr_nm:gd|res:RC4|com-cf:nl|ptrs:na|ktp:N0|mc:22709|mtp:S|qry_typ:P|lang:en|wc:2|cs:8836|v=4,Smonkare Impex Private Limited,https://www.psychiatricmedicines.com/?pos=95&kwd=kid cup&tags=||||8228.275|Price|product|||TS|rsf:gd-|-stype:attr=1|qr_nm:gd|res:RC4|com-cf:nl|ptrs:na|ktp:N0|mc:22709|mtp:S|qry_typ:P|lang:en|wc:2|cs:8836|v=4,False,Chanakyapuri,Ahmedabad,"1st Floor,1,2, Malhar Complex, Near Sola Railway Overbridge Science City Road, Chanakyapuri, Ahmedabad - 380060, Dist.Ahmedabad, Gujarat",8048985231,
"Mild Steel Baby Bottle Warmer, For Hospital",https://www.indiamart.com/proddetail/baby-bottle-warmer-22488847730.html?pos=96&kwd=kid cup&tags=||||9110.092|Price|product|||TS|rsf:gd-|-stype:attr=1|qr_nm:gd|res:RC4|com-cf:nl|ptrs:na|ktp:N0|mc:22709|mtp:S|qry_typ:P|lang:en|wc:2|cs:8836|v=4,Amraa Enterprises,https://www.amraaenterprises.com/?pos=96&kwd=kid cup&tags=||||9110.092|Price|product|||TS|rsf:gd-|-stype:attr=1|qr_nm:gd|res:RC4|com-cf:nl|ptrs:na|ktp:N0|mc:22709|mtp:S|qry_typ:P|lang:en|wc:2|cs:8836|v=4,False,Rajajipuram,Lucknow,"Plot No. 16, Devpur, Kesari Khera Ward, Rajajipuram, Rajajipuram, Lucknow - 226017, Dist.Lucknow, Uttar Pradesh",7942539974,
Baby Nibbler Fruit Feeder,https://www.indiamart.com/proddetail/baby-nibbler-fruit-feeder-2850353032433.html?pos=97&kwd=kid cup&tags=||||8752.144|Price|product|||TS|rsf:gd-|-stype:attr=1|qr_nm:gd|res:RC4|com-cf:nl|ptrs:na|ktp:N0|mc:22709|mtp:S|qry_typ:P|lang:en|wc:2|cs:8836|v=4,Inquantity,https://www.indiamart.com/inquantity/?pos=97&kwd=kid cup&tags=||||8752.144|Price|product|||TS|rsf:gd-|-stype:attr=1|qr_nm:gd|res:RC4|com-cf:nl|ptrs:na|ktp:N0|mc:22709|mtp:S|qry_typ:P|lang:en|wc:2|cs:8836|v=4,False,Shahdara,New Delhi,"1/6258, East Rohtash Nagar, Shahdara, Shahdara, New Delhi - 110032, Dist.Delhi, Delhi",8047620719,
"Twinkle Blue And White Johhny Ample Training Cup, 3-12 Months",https://www.indiamart.com/proddetail/johhny-ample-training-cup-23528593348.html?pos=98&kwd=kid cup&tags=||||8228.275|Price|product|||TS|rsf:gd-|-stype:attr=1|qr_nm:gd|res:RC4|com-cf:nl|ptrs:na|ktp:N0|mc:22709|mtp:S|qry_typ:P|lang:en|wc:2|cs:8836|v=4,Madhu Products,https://www.indiamart.com/madhu-products-ahmedabad/?pos=98&kwd=kid cup&tags=||||8228.275|Price|product|||TS|rsf:gd-|-stype:attr=1|qr_nm:gd|res:RC4|com-cf:nl|ptrs:na|ktp:N0|mc:22709|mtp:S|qry_typ:P|lang:en|wc:2|cs:8836|v=4,False,Saraspur,Ahmedabad,"825, Kadiawad, Saraspur, Saraspur, Ahmedabad - 380018, Dist.Ahmedabad, Gujarat",8046075412,
"Transparent Baby Feeding Bottles & Sippers, Capacity: 100 mL",https://www.indiamart.com/proddetail/baby-feeding-bottles-sippers-2854399331762.html?pos=99&kwd=kid cup&tags=||||8741.987|Price|product|||TS|rsf:gd-|-stype:attr=1|qr_nm:gd|res:RC4|com-cf:nl|ptrs:na|ktp:N0|mc:22709|mtp:S|qry_typ:P|lang:en|wc:2|cs:8836|v=4,Myson Exports Assistance,https://www.indiamart.com/myson-exports-assistance/?pos=99&kwd=kid cup&tags=||||8741.987|Price|product|||TS|rsf:gd-|-stype:attr=1|qr_nm:gd|res:RC4|com-cf:nl|ptrs:na|ktp:N0|mc:22709|mtp:S|qry_typ:P|lang:en|wc:2|cs:8836|v=4,False,Sadar Bazar,Ambala,"Shop No 4, Ist Floor, 5507-11/5555 Anaj Mandi, Nicholson Road, Ambala Cantt, Sadar Bazar, Ambala - 133001, Dist.Ambala, Haryana",8046073164,
"Screw Cap CREAMY Kid Cup, Capacity: 100 mL",https://www.indiamart.com/proddetail/kid-cup-2853791812933.html?pos=100&kwd=kid cup&tags=CC||||8752.144|Price|product|||MDC|rsf:gd-|-stype:attr=1|qr_nm:gd|res:RC4|com-cf:nl|ptrs:na|ktp:N0|mc:22709|mtp:S|qry_typ:P|lang:en|wc:2|cs:8836|v=4,Shopindia,https://www.indiamart.com/shopindia-delhi/?pos=100&kwd=kid cup&tags=CC||||8752.144|Price|product|||MDC|rsf:gd-|-stype:attr=1|qr_nm:gd|res:RC4|com-cf:nl|ptrs:na|ktp:N0|mc:22709|mtp:S|qry_typ:P|lang:en|wc:2|cs:8836|v=4,False,Khyala,New Delhi,"F/F, RZ-129 Old No.RZ-57, West Block, Vishnu Garden, Khyala, New Delhi - 110018, Dist.Delhi, Delhi",8047832403,
"Screw Cap Green (Base) Stainless Steel Kid Cup, Capacity: 50 mL, Baby",https://www.indiamart.com/proddetail/stainless-steel-kid-cup-2853905317855.html?pos=101&kwd=kid cup&tags=CC||||8038.093|Price|product|||MDC|rsf:gd-|-stype:attr=1|qr_nm:gd|res:RC4|com-cf:nl|ptrs:na|ktp:N0|mc:22709|mtp:S|qry_typ:P|lang:en|wc:2|cs:8836|v=4,Rameshwar Industries,https://www.indiamart.com/rameshwarindustries-rajkot-gujarat/?pos=101&kwd=kid cup&tags=CC||||8038.093|Price|product|||MDC|rsf:gd-|-stype:attr=1|qr_nm:gd|res:RC4|com-cf:nl|ptrs:na|ktp:N0|mc:22709|mtp:S|qry_typ:P|lang:en|wc:2|cs:8836|v=4,False,Veraval,Rajkot,"Old RS No 107/1 Palki 2,Behined Muscat Polymer Plot No 11,Revnue Survey No 271/2,, Veraval, Rajkot - 360024, Dist.Rajkot, Gujarat",8044013909,
240ml-cute-baby-infant-born-cup-kids-learn-feeding-ckcb-sipper-original-imaffjxh9sfqvzjt,https://www.indiamart.com/proddetail/240ml-cute-baby-infant-born-cup-kids-learn-feeding-ckcb-sipper-original-imaffjxh9sfqvzjt-24192265173.html?pos=102&kwd=kid cup&tags=CC||||8752.144||product|||TS|rsf:gd-|-stype:attr=1|qr_nm:gd|res:RC4|com-cf:nl|ptrs:na|ktp:N0|mc:22709|mtp:S|qry_typ:P|lang:en|wc:2|cs:8836|v=4,Chinmay Kids,https://www.indiamart.com/chinmaykids/?pos=102&kwd=kid cup&tags=CC||||8752.144||product|||TS|rsf:gd-|-stype:attr=1|qr_nm:gd|res:RC4|com-cf:nl|ptrs:na|ktp:N0|mc:22709|mtp:S|qry_typ:P|lang:en|wc:2|cs:8836|v=4,False,Nayagaon,New Delhi,"C-99, Street No. 4, First Pusta, Nayagaon, New Delhi - 110053, Dist.Delhi, Delhi",8046054858,
"Silver VALENTINE Baby Bottle KIDDY 140 ML, 1-2 year",https://www.indiamart.com/proddetail/valentine-baby-bottle-kiddy-140-ml-2849388363748.html?pos=103&kwd=kid cup&tags=||||8752.144|Price|product|||MDC|rsf:gd-|-stype:attr=1|qr_nm:gd|res:RC4|com-cf:nl|ptrs:na|ktp:N0|mc:22709|mtp:S|qry_typ:P|lang:en|wc:2|cs:8836|v=4,Maharaja Metalik Group,https://www.indiamart.com/maharaja-metalik-group/?pos=103&kwd=kid cup&tags=||||8752.144|Price|product|||MDC|rsf:gd-|-stype:attr=1|qr_nm:gd|res:RC4|com-cf:nl|ptrs:na|ktp:N0|mc:22709|mtp:S|qry_typ:P|lang:en|wc:2|cs:8836|v=4,False,Wazirpur Industrial Area,New Delhi,"A- 87/5 Wazirpur Industrial Area, Wazirpur Industrial Area, New Delhi - 110052, Dist.Delhi, Delhi",8047699043,
"Transparent Plastic Baby Nibbler Fruit Feeder, Capacity: 50 mL",https://www.indiamart.com/proddetail/baby-nibbler-fruit-feeder-2854155335633.html?pos=104&kwd=kid cup&tags=||||9189.305|Price|product|||MDC|rsf:gd-|-stype:attr=1|qr_nm:gd|res:RC4|com-cf:nl|ptrs:na|ktp:N0|mc:22709|mtp:S|qry_typ:P|lang:en|wc:2|cs:8836|v=4,Sudhanjali Enterprises,https://www.indiamart.com/sudhanjalienterprises/?pos=104&kwd=kid cup&tags=||||9189.305|Price|product|||MDC|rsf:gd-|-stype:attr=1|qr_nm:gd|res:RC4|com-cf:nl|ptrs:na|ktp:N0|mc:22709|mtp:S|qry_typ:P|lang:en|wc:2|cs:8836|v=4,False,,Prayagraj,"H No-10/7, Basahi, Nataka Babura, Khain, Prayagraj - 212307, Dist.Allahabad, Uttar Pradesh",7942964273,
Capacity: 250 ml White Auto Flow 2 in 1 Friendship Cup,https://www.indiamart.com/proddetail/auto-flow-2-in-1-friendship-cup-2854534609430.html?pos=105&kwd=kid cup&tags=||||8038.093|Price|product|||MDC|rsf:gd-|-stype:attr=1|qr_nm:gd|res:RC4|com-cf:nl|ptrs:na|ktp:N0|mc:22709|mtp:S|qry_typ:P|lang:en|wc:2|cs:8836|v=4,My Medicine,https://www.indiamart.com/mymedicinerajkot/?pos=105&kwd=kid cup&tags=||||8038.093|Price|product|||MDC|rsf:gd-|-stype:attr=1|qr_nm:gd|res:RC4|com-cf:nl|ptrs:na|ktp:N0|mc:22709|mtp:S|qry_typ:P|lang:en|wc:2|cs:8836|v=4,False,,Rajkot,"8, Git Gurjari Scoiety, My Medicine, Air Port Road, Opp. Nilkant Mahadev Temple, Rajkot - 360007, Dist.Rajkot, Gujarat",7949336599,
"Steel Feeding Bottle For Baby, Capacity: 250 mL",https://www.indiamart.com/proddetail/steel-feeding-bottle-for-baby-2853709987448.html?pos=106&kwd=kid cup&tags=||||8785.791|Price|product|||MDC|rsf:gd-|-stype:attr=1|qr_nm:gd|res:RC4|com-cf:nl|ptrs:na|ktp:N0|mc:22709|mtp:S|qry_typ:P|lang:en|wc:2|cs:8836|v=4,Aadya Traders,https://www.indiamart.com/aadyatradersghaziabad/?pos=106&kwd=kid cup&tags=||||8785.791|Price|product|||MDC|rsf:gd-|-stype:attr=1|qr_nm:gd|res:RC4|com-cf:nl|ptrs:na|ktp:N0|mc:22709|mtp:S|qry_typ:P|lang:en|wc:2|cs:8836|v=4,False,Nand Gram,Ghaziabad,"C 465, Nand Gram, Nand Gram, Ghaziabad - 201003, Dist.Ghaziabad, Uttar Pradesh",7949086086,
Capacity: 500 mL Blue Plastic Baby Sipper Bottle,https://www.indiamart.com/proddetail/plastic-baby-sipper-bottle-2852951365673.html?pos=107&kwd=kid cup&tags=||||8038.093|Price|product|||MDC|rsf:gd-|-stype:attr=1|qr_nm:gd|res:RC4|com-cf:nl|ptrs:na|ktp:N0|mc:22709|mtp:S|qry_typ:P|lang:en|wc:2|cs:8836|v=4,Alloy Exim,https://www.indiamart.com/maruti-enterpriserajkot-gujarat/?pos=107&kwd=kid cup&tags=||||8038.093|Price|product|||MDC|rsf:gd-|-stype:attr=1|qr_nm:gd|res:RC4|com-cf:nl|ptrs:na|ktp:N0|mc:22709|mtp:S|qry_typ:P|lang:en|wc:2|cs:8836|v=4,False,Rohidaspra,Rajkot,"Near Morbi Jakat Naku , Plot No.22/B ,Maruti, Jamana Park Street No. 3, Momai Auto Garage, Shree Ram Society, Rohidaspra, Rajkot - 360003, Dist.Rajkot, Gujarat",7942968638,
"Size: 20 cm Material: Plastic KidEarth Baby Spoon Feeder, For Home, Capacity: 200 mL",https://www.indiamart.com/proddetail/kidearth-baby-spoon-feeder-2854760457012.html?pos=108&kwd=kid cup&tags=||||8752.144|Price|product|||MDC|rsf:gd-|-stype:attr=1|qr_nm:gd|res:RC4|com-cf:nl|ptrs:na|ktp:N0|mc:22709|mtp:S|qry_typ:P|lang:en|wc:2|cs:8836|v=4,L T Textiles,https://www.indiamart.com/lttextiles/?pos=108&kwd=kid cup&tags=||||8752.144|Price|product|||MDC|rsf:gd-|-stype:attr=1|qr_nm:gd|res:RC4|com-cf:nl|ptrs:na|ktp:N0|mc:22709|mtp:S|qry_typ:P|lang:en|wc:2|cs:8836|v=4,False,Pahari Dhiraj,New Delhi,"5189-90 Main Road, Sadar Bazar, Pahari Dhiraj, New Delhi - 110006, Dist.Delhi, Delhi",7942958455,
"Blue And Red Baby Sipper Cup, 3-12 Months",https://www.indiamart.com/proddetail/baby-sipper-cup-23215958055.html?pos=109&kwd=kid cup&tags=||||8545.6045|Price|product|||MDC|rsf:gd-|-stype:attr=1|qr_nm:gd|res:RC4|com-cf:nl|ptrs:na|ktp:N0|mc:22709|mtp:S|qry_typ:P|lang:en|wc:2|cs:8836|v=4,Shri Siddhivinayak Traders,https://www.indiamart.com/shrisiddhivinayaktraders-firozpur/?pos=109&kwd=kid cup&tags=||||8545.6045|Price|product|||MDC|rsf:gd-|-stype:attr=1|qr_nm:gd|res:RC4|com-cf:nl|ptrs:na|ktp:N0|mc:22709|mtp:S|qry_typ:P|lang:en|wc:2|cs:8836|v=4,False,Basti Nizamdin,Firozpur,"No.94, Anand Avenue, Backside Marked Office, Malwal Road, Firozpur City, Basti Nizamdin, Firozpur - 152002, Dist.Firozpur, Punjab",8046066644,
"Plain RV-55F Plastic Magic Cup, For Home, Packaging Type: Box",https://www.indiamart.com/proddetail/rv-55f-plastic-magic-cup-22760028212.html?pos=110&kwd=kid cup&tags=CC||||8752.144|Price|product|||TS|rsf:gd-|-stype:attr=1|qr_nm:gd|res:RC4|com-cf:nl|ptrs:na|ktp:N0|mc:22709|mtp:S|qry_typ:P|lang:en|wc:2|cs:8836|v=4,Vishal Vastu Bhandar,https://www.batliwale.in/?pos=110&kwd=kid cup&tags=CC||||8752.144|Price|product|||TS|rsf:gd-|-stype:attr=1|qr_nm:gd|res:RC4|com-cf:nl|ptrs:na|ktp:N0|mc:22709|mtp:S|qry_typ:P|lang:en|wc:2|cs:8836|v=4,False,Delhi Sadar Bazar,New Delhi,"Shop No. 89, Crockery Market, Sadar Bazar, Delhi Sadar Bazar, New Delhi - 110006, Dist.Delhi, Delhi",8047642126,
"Multicolor Cup Bottle 500ML, Packaging Type: Box, 1-2 Years",https://www.indiamart.com/proddetail/cup-bottle-500ml-2851624384955.html?pos=111&kwd=kid cup&tags=CC||||8230.883|Price|product|||TS|rsf:gd-|-stype:attr=1|qr_nm:gd|res:RC4|com-cf:nl|ptrs:na|ktp:N0|mc:22709|mtp:S|qry_typ:P|lang:en|wc:2|cs:8836|v=4,On Shop,https://www.indiamart.com/on-shop/?pos=111&kwd=kid cup&tags=CC||||8230.883|Price|product|||TS|rsf:gd-|-stype:attr=1|qr_nm:gd|res:RC4|com-cf:nl|ptrs:na|ktp:N0|mc:22709|mtp:S|qry_typ:P|lang:en|wc:2|cs:8836|v=4,False,Dabholi,Surat,"Sy No.83/2 Ground Floor 56 Pooja Park Housing Society, Dabholi, Surat - 395004, Dist.Surat, Gujarat",8043857985,
"Screw Cap Multicolor Avent Classic Plastic Spout Cup 260ml, Baby",https://www.indiamart.com/proddetail/avent-classic-plastic-spout-cup-260ml-2853684157212.html?pos=112&kwd=kid cup&tags=CC||||8331.224|Price|product|||MDC|rsf:gd-|-stype:attr=1|qr_nm:gd|res:RC4|com-cf:nl|ptrs:na|ktp:N0|mc:22709|mtp:S|qry_typ:P|lang:en|wc:2|cs:8836|v=4,Shri Siddhivinayak Distributors,https://www.indiamart.com/shrisiddhivinayak-distributors/?pos=112&kwd=kid cup&tags=CC||||8331.224|Price|product|||MDC|rsf:gd-|-stype:attr=1|qr_nm:gd|res:RC4|com-cf:nl|ptrs:na|ktp:N0|mc:22709|mtp:S|qry_typ:P|lang:en|wc:2|cs:8836|v=4,False,New Shahupuri,Kolhapur,"Cs No 372/3, E Ward, Ghoarpade Galli, New Shahupuri, Kolhapur - 416003, Dist.Kolhapur, Maharashtra",7949095151,
"Sipper mix Kids Straw Big Belly Cup, Capacity: 200 mL, 1to 8",https://www.indiamart.com/proddetail/kids-straw-big-belly-cup-2852785394012.html?pos=113&kwd=kid cup&tags=CC||||8752.144|Price|product|||MDC|rsf:gd-|-stype:attr=1|qr_nm:gd|res:RC4|com-cf:nl|ptrs:na|ktp:N0|mc:22709|mtp:S|qry_typ:P|lang:en|wc:2|cs:8836|v=4,Bombay Pen Store,https://www.indiamart.com/bombaypenstorenewdelhi/?pos=113&kwd=kid cup&tags=CC||||8752.144|Price|product|||MDC|rsf:gd-|-stype:attr=1|qr_nm:gd|res:RC4|com-cf:nl|ptrs:na|ktp:N0|mc:22709|mtp:S|qry_typ:P|lang:en|wc:2|cs:8836|v=4,False,Delhi Sadar Bazar,New Delhi,"Second Floor, 6054, Main Road Sadar Bazar, Near Qutub Road Chowk, North Delhi, Delhi Sadar Bazar, New Delhi - 110006, Dist.Delhi, Delhi",8047666043,
"Stainless Steel Pink Baby Sipper Cup, 350ml, Screw Cap",https://www.indiamart.com/proddetail/baby-sipper-cup-23499650591.html?pos=114&kwd=kid cup&tags=CC||||8752.144|Price|product|||MDC|rsf:gd-|-stype:attr=1|qr_nm:gd|res:RC4|com-cf:nl|ptrs:na|ktp:N0|mc:22709|mtp:S|qry_typ:P|lang:en|wc:2|cs:8836|v=4,Sachdeva Traders,https://www.indiamart.com/sachdevatradersnewdelhi/?pos=114&kwd=kid cup&tags=CC||||8752.144|Price|product|||MDC|rsf:gd-|-stype:attr=1|qr_nm:gd|res:RC4|com-cf:nl|ptrs:na|ktp:N0|mc:22709|mtp:S|qry_typ:P|lang:en|wc:2|cs:8836|v=4,False,Padam Nagar,New Delhi,"195, Gali No 2, Padam Nagar Kishan Ganj, Padam Nagar, New Delhi - 110007, Dist.Delhi, Delhi",8046068856,
"Screw Cap Green (Base) Stainless Steel Kid Cup, Capacity: 50 mL, Baby",https://www.indiamart.com/proddetail/stainless-steel-kid-cup-2853905317855.html?pos=115&kwd=kid cup&tags=CC||||8038.093|Price|product|||MDC|rsf:gd-|-stype:attr=1|qr_nm:gd|res:RC4|com-cf:nl|ptrs:na|ktp:N0|mc:22709|mtp:S|qry_typ:P|lang:en|wc:2|cs:8836|v=4,Rameshwar Industries,https://www.indiamart.com/rameshwarindustries-rajkot-gujarat/?pos=115&kwd=kid cup&tags=CC||||8038.093|Price|product|||MDC|rsf:gd-|-stype:attr=1|qr_nm:gd|res:RC4|com-cf:nl|ptrs:na|ktp:N0|mc:22709|mtp:S|qry_typ:P|lang:en|wc:2|cs:8836|v=4,False,Veraval,Rajkot,"Old RS No 107/1 Palki 2,Behined Muscat Polymer Plot No 11,Revnue Survey No 271/2,, Veraval, Rajkot - 360024, Dist.Rajkot, Gujarat",8044013909,
Capacity: 250 ml White Auto Flow 2 in 1 Friendship Cup,https://www.indiamart.com/proddetail/auto-flow-2-in-1-friendship-cup-2854534609430.html?pos=116&kwd=kid cup&tags=CC||||8038.093|Price|product|||MDC|rsf:gd-|-stype:attr=1|qr_nm:gd|res:RC4|com-cf:nl|ptrs:na|ktp:N0|mc:22709|mtp:S|qry_typ:P|lang:en|wc:2|cs:8836|v=4,My Medicine,https://www.indiamart.com/mymedicinerajkot/?pos=116&kwd=kid cup&tags=CC||||8038.093|Price|product|||MDC|rsf:gd-|-stype:attr=1|qr_nm:gd|res:RC4|com-cf:nl|ptrs:na|ktp:N0|mc:22709|mtp:S|qry_typ:P|lang:en|wc:2|cs:8836|v=4,False,,Rajkot,"8, Git Gurjari Scoiety, My Medicine, Air Port Road, Opp. Nilkant Mahadev Temple, Rajkot - 360007, Dist.Rajkot, Gujarat",7949336599,
Unicorn Kids Bottle Sipper,,Arishto Enterprises,https://www.indiamart.com/arishtoenterprises/?pos=117&kwd=kid cup&tags=||||8752.144|Price|product|||TS|rsf:gd-|-stype:attr=1|qr_nm:gd|res:RC4|com-cf:nl|ptrs:na|ktp:N0|mc:22709|mtp:S|qry_typ:P|lang:en|wc:2|cs:8836|v=4,False,Rohini Institutional Area,New Delhi,"A-2/141, Sector 3, Rohini, Rohini Institutional Area, New Delhi - 110085, Dist.Delhi, Delhi",8047632395,
Red Silicon Chewing BAR Baby Teethers Feeders Soothers 100% Safe BPA Free,https://www.indiamart.com/proddetail/red-silicon-chewing-bar-baby-teethers-feeders-soothers-100-safe-bpa-free-2852714730255.html?pos=118&kwd=kid cup&tags=||||8778.123|Price|product|||TS|rsf:gd-|-stype:attr=1|qr_nm:gd|res:RC4|com-cf:nl|ptrs:na|ktp:N0|mc:22709|mtp:S|qry_typ:P|lang:en|wc:2|cs:8836|v=4,GM'S Speechgears Private Limited,https://www.indiamart.com/gmsspeechgears/?pos=118&kwd=kid cup&tags=||||8778.123|Price|product|||TS|rsf:gd-|-stype:attr=1|qr_nm:gd|res:RC4|com-cf:nl|ptrs:na|ktp:N0|mc:22709|mtp:S|qry_typ:P|lang:en|wc:2|cs:8836|v=4,False,Sector 65,Noida,"1st Floor, A-77, Sector-65, Gautambuddha Nagar, Sector 65, Noida - 201301, Dist.Gautam Budh Nagar, Uttar Pradesh",7942713454,
Capacity: 1000 mL ANGLE SIPPER BOTTLE,https://www.indiamart.com/proddetail/angle-sipper-bottle-2850570676848.html?pos=119&kwd=kid cup&tags=||||8228.275|Price|product|||TS|rsf:gd-|-stype:attr=1|qr_nm:gd|res:RC4|com-cf:nl|ptrs:na|ktp:N0|mc:22709|mtp:S|qry_typ:P|lang:en|wc:2|cs:8836|v=4,Mayur Plastics And Toys,https://www.mayurplasticproducts.com/?pos=119&kwd=kid cup&tags=||||8228.275|Price|product|||TS|rsf:gd-|-stype:attr=1|qr_nm:gd|res:RC4|com-cf:nl|ptrs:na|ktp:N0|mc:22709|mtp:S|qry_typ:P|lang:en|wc:2|cs:8836|v=4,False,Rajpur Hirpur,Ahmedabad,"479/2842, Gujarat Housing Board dengra, Rajpur Hirpur, Ahmedabad - 380023, Dist.Ahmedabad, Gujarat",8048964748,
"Transparent Plastic Milk Bottle, Capacity: 200 ml",https://www.indiamart.com/proddetail/plastic-milk-bottle-2853958493330.html?pos=120&kwd=kid cup&tags=||||9572.14|Price|product|||TS|rsf:gd-|-stype:attr=1|qr_nm:gd|res:RC4|com-cf:nl|ptrs:na|ktp:N0|mc:22709|mtp:S|qry_typ:P|lang:en|wc:2|cs:8836|v=4,Apoorba Industries,https://www.indiamart.com/apoorbaindustries/?pos=120&kwd=kid cup&tags=||||9572.14|Price|product|||TS|rsf:gd-|-stype:attr=1|qr_nm:gd|res:RC4|com-cf:nl|ptrs:na|ktp:N0|mc:22709|mtp:S|qry_typ:P|lang:en|wc:2|cs:8836|v=4,False,Pokhariput,Bhubaneswar,"Plot No - HIG 23, Phase 1, BDA Colony, Pokhariput, Khordha, Pokhariput, Bhubaneswar - 751020, Dist.Khorda, Odisha",7942967428,
Capacity: 500 mL Plastic Baby Sipper,https://www.indiamart.com/proddetail/plastic-baby-sipper-2854222660648.html?pos=121&kwd=kid cup&tags=||||8230.883|Price|product|||TS|rsf:gd-|-stype:attr=1|qr_nm:gd|res:RC4|com-cf:nl|ptrs:na|ktp:N0|mc:22709|mtp:S|qry_typ:P|lang:en|wc:2|cs:8836|v=4,BABYHOLIC,https://www.babyholic.in/?pos=121&kwd=kid cup&tags=||||8230.883|Price|product|||TS|rsf:gd-|-stype:attr=1|qr_nm:gd|res:RC4|com-cf:nl|ptrs:na|ktp:N0|mc:22709|mtp:S|qry_typ:P|lang:en|wc:2|cs:8836|v=4,False,,Surat,"Ground Floor, Plot No. F/56/, And F/57, Laxmi Narayan Industrial Estate, Udhana, Kailash Fashion, Surat - 394210, Dist.Surat, Gujarat",8045732096,
"Feeding Bottles & Sippers, Stainless Steel 304 Grade, Best Quality & Lowest Price",https://www.indiamart.com/proddetail/feeding-bottles-sippers-stainless-steel-304-grade-best-quality-lowest-price-24525737773.html?pos=122&kwd=kid cup&tags=||||8954.051|Price|product|||TS|rsf:gd-|-stype:attr=1|qr_nm:gd|res:RC4|com-cf:nl|ptrs:na|ktp:N0|mc:22709|mtp:S|qry_typ:P|lang:en|wc:2|cs:8836|v=4,KA Plastic & Safety India,https://www.indiamart.com/kaplastic-safetyindia/?pos=122&kwd=kid cup&tags=||||8954.051|Price|product|||TS|rsf:gd-|-stype:attr=1|qr_nm:gd|res:RC4|com-cf:nl|ptrs:na|ktp:N0|mc:22709|mtp:S|qry_typ:P|lang:en|wc:2|cs:8836|v=4,False,Tondiarpet,Chennai,"No.98, SN Chetty Street , Kasimedu, Tondiarpet, Chennai - 600057, Dist.Chennai, Tamil Nadu",7942550416,
300 Ml Baby Milk Glass Bottle,https://www.indiamart.com/proddetail/300-ml-baby-milk-glass-bottle-23552281188.html?pos=123&kwd=kid cup&tags=||||8861.147|Price|product|||TS|rsf:gd-|-stype:attr=1|qr_nm:gd|res:RC4|com-cf:nl|ptrs:na|ktp:N0|mc:22709|mtp:S|qry_typ:P|lang:en|wc:2|cs:8836|v=4,Eagle Glass Deco Private Limited,https://www.indiamart.com/eagleglassdeco/?pos=123&kwd=kid cup&tags=||||8861.147|Price|product|||TS|rsf:gd-|-stype:attr=1|qr_nm:gd|res:RC4|com-cf:nl|ptrs:na|ktp:N0|mc:22709|mtp:S|qry_typ:P|lang:en|wc:2|cs:8836|v=4,True,Sukhmalpur Nizamabad,Firozabad,"C-19, 20, Industrial Estate Bhau Ka Nagla, Sukhmalpur Nizamabad, Firozabad - 283203, Dist.Firozabad, Uttar Pradesh",8047631366,
Baby Fruit Feeder,https://www.indiamart.com/proddetail/baby-fruit-feeder-2851812454873.html?pos=124&kwd=kid cup&tags=||||8752.144|Price|product|||TS|rsf:gd-|-stype:attr=1|qr_nm:gd|res:RC4|com-cf:nl|ptrs:na|ktp:N0|mc:22709|mtp:S|qry_typ:P|lang:en|wc:2|cs:8836|v=4,TUF & Fit,https://www.indiamart.com/tuf-fit/?pos=124&kwd=kid cup&tags=||||8752.144|Price|product|||TS|rsf:gd-|-stype:attr=1|qr_nm:gd|res:RC4|com-cf:nl|ptrs:na|ktp:N0|mc:22709|mtp:S|qry_typ:P|lang:en|wc:2|cs:8836|v=4,False,Shalimar Bagh,New Delhi,"badli extension. near Laxmi Dhar kanta, Shalimar Bagh, New Delhi - 110084, Dist.Delhi, Delhi",8048262266,
Stainless Steel Baby Feeding Bottle,https://www.indiamart.com/proddetail/stainless-steel-baby-feeding-bottle-2854718516173.html?pos=125&kwd=kid cup&tags=||||8786.56||product|||TS|rsf:gd-|-stype:attr=1|qr_nm:gd|res:RC4|com-cf:nl|ptrs:na|ktp:N0|mc:22709|mtp:S|qry_typ:P|lang:en|wc:2|cs:8836|v=4,Vishalandhra Industries,https://www.indiamart.com/vishalandhra-industries-hyderabad/?pos=125&kwd=kid cup&tags=||||8786.56||product|||TS|rsf:gd-|-stype:attr=1|qr_nm:gd|res:RC4|com-cf:nl|ptrs:na|ktp:N0|mc:22709|mtp:S|qry_typ:P|lang:en|wc:2|cs:8836|v=4,False,Kavadiguda,Hyderabad,"1-7-148/4/2/A Bakaram, Musheerabad Main Road Opp. Metro Pillar No. 1079 Musheerabad, Kavadiguda, Hyderabad - 500020, Dist.Hyderabad, Telangana",7942817189,
Transparent Plastic Baby Bottle,https://www.indiamart.com/proddetail/plastic-baby-bottle-21630723891.html?pos=126&kwd=kid cup&tags=||||8954.051|Price|product|||TS|rsf:gd-|-stype:attr=1|qr_nm:gd|res:RC4|com-cf:nl|ptrs:na|ktp:N0|mc:22709|mtp:S|qry_typ:P|lang:en|wc:2|cs:8836|v=4,Auro Mira Medi Aids,https://www.indiamart.com/auromiramediaids/?pos=126&kwd=kid cup&tags=||||8954.051|Price|product|||TS|rsf:gd-|-stype:attr=1|qr_nm:gd|res:RC4|com-cf:nl|ptrs:na|ktp:N0|mc:22709|mtp:S|qry_typ:P|lang:en|wc:2|cs:8836|v=4,False,Adyar,Chennai,"New No. 36, Old No. 32, Shriram Nagar Main Road, Adyar, Chennai - 600113, Dist.Chennai, Tamil Nadu",8048988682,
"Stainless Steel Baby Feeding Bottle, Capacity: 0.5 Ltr",https://www.indiamart.com/proddetail/stainless-steel-baby-feeding-bottle-27007002833.html?pos=127&kwd=kid cup&tags=||||8785.791|Price|product|||TS|rsf:gd-|-stype:attr=1|qr_nm:gd|res:RC4|com-cf:nl|ptrs:na|ktp:N0|mc:22709|mtp:S|qry_typ:P|lang:en|wc:2|cs:8836|v=4,Tatva By Gopika,https://www.urika.in/?pos=127&kwd=kid cup&tags=||||8785.791|Price|product|||TS|rsf:gd-|-stype:attr=1|qr_nm:gd|res:RC4|com-cf:nl|ptrs:na|ktp:N0|mc:22709|mtp:S|qry_typ:P|lang:en|wc:2|cs:8836|v=4,False,Indirapuram,Ghaziabad,"SD-035, LGF, Jaipuria Sunrise Greens, Plot No-12A, Ahinsha Khand, Indirapuram,, Indirapuram, Ghaziabad - 201014, Dist.Ghaziabad, Uttar Pradesh",8047673566,
"Cylindrical Baby Food Sterilizer, Min 50 KG",https://www.indiamart.com/proddetail/baby-food-sterilizer-25563304188.html?pos=128&kwd=kid cup&tags=||||8226.563||product|||TS|rsf:gd-|-stype:attr=1|qr_nm:gd|res:RC4|com-cf:nl|ptrs:na|ktp:N0|mc:22709|mtp:S|qry_typ:P|lang:en|wc:2|cs:8836|v=4,Machinfabrik Industries Private Limited,https://www.indiamart.com/machinfabrikindustries/?pos=128&kwd=kid cup&tags=||||8226.563||product|||TS|rsf:gd-|-stype:attr=1|qr_nm:gd|res:RC4|com-cf:nl|ptrs:na|ktp:N0|mc:22709|mtp:S|qry_typ:P|lang:en|wc:2|cs:8836|v=4,False,Ghansoli,Navi Mumbai,"MIDC, R-89/90, TTC Industrial Area, Thane Belapur Road, Rabale MIDC, Ghansoli, Navi Mumbai - 400701, Dist.Thane, Maharashtra",8048267948,
"Plastic FEEDER BOTTLE 150ML, Age Group: Newly Born",https://www.indiamart.com/proddetail/feeder-bottle-150ml-2854444843812.html?pos=129&kwd=kid cup&tags=||||8230.883|Price|product|||TS|rsf:gd-|-stype:attr=1|qr_nm:gd|res:RC4|com-cf:nl|ptrs:na|ktp:N0|mc:22709|mtp:S|qry_typ:P|lang:en|wc:2|cs:8836|v=4,Medilio Enterprise Private Limited,https://www.indiamart.com/mediloenterprise/?pos=129&kwd=kid cup&tags=||||8230.883|Price|product|||TS|rsf:gd-|-stype:attr=1|qr_nm:gd|res:RC4|com-cf:nl|ptrs:na|ktp:N0|mc:22709|mtp:S|qry_typ:P|lang:en|wc:2|cs:8836|v=4,False,Magob,Surat,"Shop No 428,417,418, 4th Floor Raghuvir Trade Center, Surat-Bardoli Road, Magob, Surat - 395010, Dist.Surat, Gujarat",7942822471,
Baby Fruit Feeder Pacifier,https://www.indiamart.com/proddetail/baby-fruit-feeder-pacifier-2850904609097.html?pos=130&kwd=kid cup&tags=||||8752.144|Price|product|||TS|rsf:gd-|-stype:attr=1|qr_nm:gd|res:RC4|com-cf:nl|ptrs:na|ktp:N0|mc:22709|mtp:S|qry_typ:P|lang:en|wc:2|cs:8836|v=4,Aman Impex,https://www.myamanimpex.com/?pos=130&kwd=kid cup&tags=||||8752.144|Price|product|||TS|rsf:gd-|-stype:attr=1|qr_nm:gd|res:RC4|com-cf:nl|ptrs:na|ktp:N0|mc:22709|mtp:S|qry_typ:P|lang:en|wc:2|cs:8836|v=4,False,Paschim Vihar,New Delhi,"Flat No. 681, S/F Janta Flats, Pocket-II, Paschim Puri, Paschim Vihar, New Delhi - 110063, Dist.Delhi, Delhi",8048600148,
"Stainless Steel Baby Feeding Bottle, Capacity: 200 mL",https://www.indiamart.com/proddetail/stainless-steel-baby-feeding-bottle-2854703140191.html?pos=131&kwd=kid cup&tags=||||8211.142||product|||MDC|rsf:gd-|-stype:attr=1|qr_nm:gd|res:RC4|com-cf:nl|ptrs:na|ktp:N0|mc:22709|mtp:S|qry_typ:P|lang:en|wc:2|cs:8836|v=4,Brinox International,https://www.indiamart.com/brinox-international/?pos=131&kwd=kid cup&tags=||||8211.142||product|||MDC|rsf:gd-|-stype:attr=1|qr_nm:gd|res:RC4|com-cf:nl|ptrs:na|ktp:N0|mc:22709|mtp:S|qry_typ:P|lang:en|wc:2|cs:8836|v=4,False,,Mumbai,"501/502,5th Floor,Padmavati Niwas,Sadashiv Cross Lane, Nr. Sanskar Bal Mandir,Girgaon, Mumbai - 400004, Dist.Mumbai, Maharashtra",7949324583,
Silicone Baby Fresh Fruit Food Feeder/Pacifier / Nibbler,https://www.indiamart.com/proddetail/silicone-baby-fresh-fruit-food-feeder-pacifier-nibbler-2854404687512.html?pos=132&kwd=kid cup&tags=||||8752.144|Price|product|||MDC|rsf:gd-|-stype:attr=1|qr_nm:gd|res:RC4|com-cf:nl|ptrs:na|ktp:N0|mc:22709|mtp:S|qry_typ:P|lang:en|wc:2|cs:8836|v=4,JMC Enterprises,https://www.indiamart.com/jmc-enterprises-newdelhi/?pos=132&kwd=kid cup&tags=||||8752.144|Price|product|||MDC|rsf:gd-|-stype:attr=1|qr_nm:gd|res:RC4|com-cf:nl|ptrs:na|ktp:N0|mc:22709|mtp:S|qry_typ:P|lang:en|wc:2|cs:8836|v=4,False,,New Delhi,"H.No. A-49 Ph-1, Block-A, Harsukh Prem Nagar -1, North West Delhi, New Delhi - 110086, Dist.Delhi, Delhi",8045735053,
"White Metal Stainless Steel Baby Feeding Bottle, Capacity: 200 mL",https://www.indiamart.com/proddetail/stainless-steel-baby-feeding-bottle-2853858030548.html?pos=133&kwd=kid cup&tags=||||8210.732||product|||MDC|rsf:gd-|-stype:attr=1|qr_nm:gd|res:RC4|com-cf:nl|ptrs:na|ktp:N0|mc:22709|mtp:S|qry_typ:P|lang:en|wc:2|cs:8836|v=4,Navkar 9 Plastics & Steels,https://www.indiamart.com/navkar9-plastics-steels/?pos=133&kwd=kid cup&tags=||||8210.732||product|||MDC|rsf:gd-|-stype:attr=1|qr_nm:gd|res:RC4|com-cf:nl|ptrs:na|ktp:N0|mc:22709|mtp:S|qry_typ:P|lang:en|wc:2|cs:8836|v=4,False,Vasai East,Vasai Virar,"Ground Floor Gala No. 04 Raees Nagar, Khairpada, Bilalpada, Vasai East, Vasai Virar - 401208, Dist.Thane, Maharashtra",7949086716,
"Transparent Plastic Baby Medicine Feeder, Capacity: 50 mL",https://www.indiamart.com/proddetail/plastic-baby-medicine-feeder-2854324761948.html?pos=134&kwd=kid cup&tags=||||8785.791|Price|product|||MDC|rsf:gd-|-stype:attr=1|qr_nm:gd|res:RC4|com-cf:nl|ptrs:na|ktp:N0|mc:22709|mtp:S|qry_typ:P|lang:en|wc:2|cs:8836|v=4,Finestdeal,https://www.indiamart.com/finestdeal/?pos=134&kwd=kid cup&tags=||||8785.791|Price|product|||MDC|rsf:gd-|-stype:attr=1|qr_nm:gd|res:RC4|com-cf:nl|ptrs:na|ktp:N0|mc:22709|mtp:S|qry_typ:P|lang:en|wc:2|cs:8836|v=4,False,,Ghaziabad,"S1 1403 Cloud 9 Tower Vaishali, Ghaziabad - 201010, Dist.Ghaziabad, Uttar Pradesh",8045729976,
Pigeon Clinically Tested Soft Latch Baby Nipple,https://www.indiamart.com/proddetail/pigeon-clinically-tested-soft-latch-baby-nipple-2854981038955.html?pos=135&kwd=kid cup&tags=||||8584.299|Price|product|||MDC|rsf:gd-|-stype:attr=1|qr_nm:gd|res:RC4|com-cf:nl|ptrs:na|ktp:N0|mc:22709|mtp:S|qry_typ:P|lang:en|wc:2|cs:8836|v=4,Vino Mani Enterprises,https://www.indiamart.com/vino-mani-enterprises/?pos=135&kwd=kid cup&tags=||||8584.299|Price|product|||MDC|rsf:gd-|-stype:attr=1|qr_nm:gd|res:RC4|com-cf:nl|ptrs:na|ktp:N0|mc:22709|mtp:S|qry_typ:P|lang:en|wc:2|cs:8836|v=4,False,,Coimbatore,"No 89A, NA, Azad Road, R S Puram, Coimbatore - 641002, Dist.Coimbatore, Tamil Nadu",7942546353,
Silicone Silicon Fruit Baby Pacifier,https://www.indiamart.com/proddetail/silicon-fruit-baby-pacifier-2854104996197.html?pos=136&kwd=kid cup&tags=||||8038.093|Price|product|||MDC|rsf:gd-|-stype:attr=1|qr_nm:gd|res:RC4|com-cf:nl|ptrs:na|ktp:N0|mc:22709|mtp:S|qry_typ:P|lang:en|wc:2|cs:8836|v=4,Kemlin International,https://www.indiamart.com/kemlin-international/?pos=136&kwd=kid cup&tags=||||8038.093|Price|product|||MDC|rsf:gd-|-stype:attr=1|qr_nm:gd|res:RC4|com-cf:nl|ptrs:na|ktp:N0|mc:22709|mtp:S|qry_typ:P|lang:en|wc:2|cs:8836|v=4,False,Sant Bhojaram Society,Rajkot,"Shed No. 2, Plot No. 17, R.s. No. 264, Kothariya, Sant Bhojaram Society, Rajkot - 360002, Dist.Rajkot, Gujarat",8044560767,
"SS Baby Feeding Bottle, Capacity: 150 mL",https://www.indiamart.com/proddetail/ss-baby-feeding-bottle-1247331755.html?pos=137&kwd=kid cup&tags=||||8752.144|Price|product|||MDC|rsf:gd-|-stype:attr=1|qr_nm:gd|res:RC4|com-cf:nl|ptrs:na|ktp:N0|mc:22709|mtp:S|qry_typ:P|lang:en|wc:2|cs:8836|v=4,Neelkanth Metal Trading Co.,https://www.indiamart.com/neelkanthmetal-tradingco/?pos=137&kwd=kid cup&tags=||||8752.144|Price|product|||MDC|rsf:gd-|-stype:attr=1|qr_nm:gd|res:RC4|com-cf:nl|ptrs:na|ktp:N0|mc:22709|mtp:S|qry_typ:P|lang:en|wc:2|cs:8836|v=4,False,North West Delhi,New Delhi,"Ground Floor, House No X 1/9, Kh.No 83/15, Block -V-1, Budh Vihar Phase 1, North West Delhi, New Delhi - 110086, Dist.Delhi, Delhi",8047795143,
Baby Spoon Feeder,https://www.indiamart.com/proddetail/baby-spoon-feeder-2851691492762.html?pos=138&kwd=kid cup&tags=||||8752.144||product|||MDC|rsf:gd-|-stype:attr=1|qr_nm:gd|res:RC4|com-cf:nl|ptrs:na|ktp:N0|mc:22709|mtp:S|qry_typ:P|lang:en|wc:2|cs:8836|v=4,Prince And Princess,https://www.indiamart.com/prince-princess-delhi/?pos=138&kwd=kid cup&tags=||||8752.144||product|||MDC|rsf:gd-|-stype:attr=1|qr_nm:gd|res:RC4|com-cf:nl|ptrs:na|ktp:N0|mc:22709|mtp:S|qry_typ:P|lang:en|wc:2|cs:8836|v=4,False,Gulabi Bagh,New Delhi,"Ground Floor, Garage No - 74, Gulabi Bagh Road,, Gulabi Bagh, New Delhi - 110007, Dist.Delhi, Delhi",8047629125,
"HDPE Baby Medicine Feeder, Capacity: 150 mL",https://www.indiamart.com/proddetail/hdpe-baby-medicine-feeder-2849755227355.html?pos=139&kwd=kid cup&tags=||||8741.812|Price|product|||MDC|rsf:gd-|-stype:attr=1|qr_nm:gd|res:RC4|com-cf:nl|ptrs:na|ktp:N0|mc:22709|mtp:S|qry_typ:P|lang:en|wc:2|cs:8836|v=4,Meesha Enterprises,https://www.indiamart.com/meeshaenterprises-gurugram/?pos=139&kwd=kid cup&tags=||||8741.812|Price|product|||MDC|rsf:gd-|-stype:attr=1|qr_nm:gd|res:RC4|com-cf:nl|ptrs:na|ktp:N0|mc:22709|mtp:S|qry_typ:P|lang:en|wc:2|cs:8836|v=4,False,,Gurugram,"2nd, 2061A, C Block, Sushant Lok 1,, Gurugram - 122002, Dist.Gurgaon, Haryana",8041015150,
Baby Pacifier,,Jai Maa Laxmi Agency,https://www.indiamart.com/jaimaalaxmiagency/?pos=140&kwd=kid cup&tags=||||9110.092|Price|product|||MDC|rsf:gd-|-stype:attr=1|qr_nm:gd|res:RC4|com-cf:nl|ptrs:na|ktp:N0|mc:22709|mtp:S|qry_typ:P|lang:en|wc:2|cs:8836|v=4,False,,Lucknow,"E-2468,Rajajipuram,Near Rupam Tailor,, Lucknow - 226017, Dist.Lucknow, Uttar Pradesh",7949339166,
"Plastic Honey Bee Mum Pot, 250ml,Sipper Cup",https://www.indiamart.com/proddetail/honey-bee-mum-pot-250ml-sipper-cup-2854006863248.html?pos=141&kwd=kid cup&tags=||||9302.824|Price|product|||MDC|rsf:gd-|-stype:attr=1|qr_nm:gd|res:RC4|com-cf:nl|ptrs:na|ktp:N0|mc:22709|mtp:S|qry_typ:P|lang:en|wc:2|cs:8836|v=4,Hadi Enterprises,https://www.indiamart.com/hadienterprisessaraimir/?pos=141&kwd=kid cup&tags=||||9302.824|Price|product|||MDC|rsf:gd-|-stype:attr=1|qr_nm:gd|res:RC4|com-cf:nl|ptrs:na|ktp:N0|mc:22709|mtp:S|qry_typ:P|lang:en|wc:2|cs:8836|v=4,False,Nizamabad,Sarai Mir,"0, Lahidiha ,, Nizamabad, Sarai Mir - 276305, Uttar Pradesh",8044564222,
Silicone Synthetic Baby Nipple Shield,https://www.indiamart.com/proddetail/synthetic-baby-nipple-shield-2854721717412.html?pos=142&kwd=kid cup&tags=||||8752.144|Price|product|||MDC|rsf:gd-|-stype:attr=1|qr_nm:gd|res:RC4|com-cf:nl|ptrs:na|ktp:N0|mc:22709|mtp:S|qry_typ:P|lang:en|wc:2|cs:8836|v=4,Rachna Enterprises,https://www.indiamart.com/rachnaenterprisesnewdelhi/?pos=142&kwd=kid cup&tags=||||8752.144|Price|product|||MDC|rsf:gd-|-stype:attr=1|qr_nm:gd|res:RC4|com-cf:nl|ptrs:na|ktp:N0|mc:22709|mtp:S|qry_typ:P|lang:en|wc:2|cs:8836|v=4,False,West Delhi,New Delhi,"Ground Floor, House No. RZ-123, Vishwas Park Main Road, T-Extn., Uttam Nagar, West Delhi, New Delhi - 110059, Dist.Delhi, Delhi",8041011216,
Ardo Nipple Sheild Large (2 Pcs),https://www.indiamart.com/proddetail/ardo-nipple-sheild-large-2-pcs-25419323473.html?pos=143&kwd=kid cup&tags=||||8307.81|Price|product|||MDC|rsf:gd-|-stype:attr=1|qr_nm:gd|res:RC4|com-cf:nl|ptrs:na|ktp:N0|mc:22709|mtp:S|qry_typ:P|lang:en|wc:2|cs:8836|v=4,Sleep Solutions,https://www.indiamart.com/sleepsolutionspune/?pos=143&kwd=kid cup&tags=||||8307.81|Price|product|||MDC|rsf:gd-|-stype:attr=1|qr_nm:gd|res:RC4|com-cf:nl|ptrs:na|ktp:N0|mc:22709|mtp:S|qry_typ:P|lang:en|wc:2|cs:8836|v=4,False,Fatima Nagar,Pune,"SHOP NO.17 LEGEND PRESTIGE BEHIND CROMA CENTER BT KAWADE RD BEHIND BUS STOP PUNE, Fatima Nagar, Pune - 411040, Dist.Pune, Maharashtra",8048271036,
"Blue Plastic Baby Fruit Feeder, Capacity: 100 mL",https://www.indiamart.com/proddetail/baby-fruit-feeder-2853670432773.html?pos=144&kwd=kid cup&tags=||||8663.873|Price|product|||MDC|rsf:gd-|-stype:attr=1|qr_nm:gd|res:RC4|com-cf:nl|ptrs:na|ktp:N0|mc:22709|mtp:S|qry_typ:P|lang:en|wc:2|cs:8836|v=4,Nipika Vrapped Gifting,https://www.indiamart.com/nipika-vrapped-gifting/?pos=144&kwd=kid cup&tags=||||8663.873|Price|product|||MDC|rsf:gd-|-stype:attr=1|qr_nm:gd|res:RC4|com-cf:nl|ptrs:na|ktp:N0|mc:22709|mtp:S|qry_typ:P|lang:en|wc:2|cs:8836|v=4,False,Bengaluru Urban,Bengaluru,"9/1, 23rd Cross Road, Magadi Road, KP Agrahara, Bengaluru Urban, Bengaluru - 560023, Dist.Bengaluru, Karnataka",7949328723,
Baby Pacifier Silicone Fresh Fruit Teether,https://www.indiamart.com/proddetail/baby-pacifier-silicone-fresh-fruit-teether-2854957104812.html?pos=145&kwd=kid cup&tags=||||8752.144|Price|product|||MDC|rsf:gd-|-stype:attr=1|qr_nm:gd|res:RC4|com-cf:nl|ptrs:na|ktp:N0|mc:22709|mtp:S|qry_typ:P|lang:en|wc:2|cs:8836|v=4,Yami Enterprises,https://www.indiamart.com/yamienterprises/?pos=145&kwd=kid cup&tags=||||8752.144|Price|product|||MDC|rsf:gd-|-stype:attr=1|qr_nm:gd|res:RC4|com-cf:nl|ptrs:na|ktp:N0|mc:22709|mtp:S|qry_typ:P|lang:en|wc:2|cs:8836|v=4,False,,New Delhi,"B-85, Prem Nagar 2, Kirari Suleman Nagar, North West Delhi, New Delhi - 110086, Dist.Delhi, Delhi",8045734447,
Wheat Straw Tableware Set Plate Spoon & Fork Set 15.7 x 15.7 Cm,https://www.indiamart.com/proddetail/wheat-straw-tableware-set-plate-spoon-fork-set-15-7-x-15-7-cm-2854142718791.html?pos=146&kwd=kid cup&tags=CC||||8785.791|Price|product|||TS|rsf:gd-|-stype:attr=1|qr_nm:gd|res:RC4|com-cf:nl|ptrs:na|ktp:N0|mc:22709|mtp:S|qry_typ:P|lang:en|wc:2|cs:8836|v=4,Rident Kitchen,https://www.ridentkitchen.in/?pos=146&kwd=kid cup&tags=CC||||8785.791|Price|product|||TS|rsf:gd-|-stype:attr=1|qr_nm:gd|res:RC4|com-cf:nl|ptrs:na|ktp:N0|mc:22709|mtp:S|qry_typ:P|lang:en|wc:2|cs:8836|v=4,False,Mohan Nagar,Ghaziabad,"Plot No. 30, Second floor Rajender Nagar Industrial Area, Street No. 4, Mohan Nagar, Ghaziabad - 201007, Dist.Ghaziabad, Uttar Pradesh",8048262052,
"Metal Baby Stainless Steel Feeding Bottle 250ML, Design/Pattern: Plain, 3-12 Months",https://www.indiamart.com/proddetail/baby-stainless-steel-feeding-bottle-250ml-26854877091.html?pos=147&kwd=kid cup&tags=||||8752.144|Price|product|||TS|rsf:gd-|-stype:attr=1|qr_nm:gd|res:RC4|com-cf:nl|ptrs:na|ktp:N0|mc:22709|mtp:S|qry_typ:P|lang:en|wc:2|cs:8836|v=4,Shri Shyam Enterprises,https://www.indiamart.com/shrishyamenterprisesnewdelhi/?pos=147&kwd=kid cup&tags=||||8752.144|Price|product|||TS|rsf:gd-|-stype:attr=1|qr_nm:gd|res:RC4|com-cf:nl|ptrs:na|ktp:N0|mc:22709|mtp:S|qry_typ:P|lang:en|wc:2|cs:8836|v=4,False,Tajpur Kalan,New Delhi,"House No.392, First Floor, Village Tajpur Kalan, North Delhi, Tajpur Kalan, New Delhi - 110036, Dist.Delhi, Delhi",8048212783,
Plain Milk Glass Bottle With Cap 500 mL,https://www.indiamart.com/proddetail/500-ml-plain-milk-glass-bottle-with-cap-2852379923148.html?pos=148&kwd=kid cup&tags=||||8861.147|Price|product|||TS|rsf:gd-|-stype:attr=1|qr_nm:gd|res:RC4|com-cf:nl|ptrs:na|ktp:N0|mc:22709|mtp:S|qry_typ:P|lang:en|wc:2|cs:8836|v=4,Tirupati Glass Industries,https://www.tirupatiglassindustries.com/?pos=148&kwd=kid cup&tags=||||8861.147|Price|product|||TS|rsf:gd-|-stype:attr=1|qr_nm:gd|res:RC4|com-cf:nl|ptrs:na|ktp:N0|mc:22709|mtp:S|qry_typ:P|lang:en|wc:2|cs:8836|v=4,False,Dakhal,Firozabad,"0, 0, 0, Jaroli Kalan, Agra Road, Dakhal, Firozabad - 283203, Dist.Firozabad, Uttar Pradesh",7942822055,
Material: Stainless Steel Baby Feeder / Paladi / Bondla,https://www.indiamart.com/proddetail/baby-feeder-paladi-bondla-2853350678930.html?pos=149&kwd=kid cup&tags=||||8223.226|Price|product|||TS|rsf:gd-|-stype:attr=1|qr_nm:gd|res:RC4|com-cf:nl|ptrs:na|ktp:N0|mc:22709|mtp:S|qry_typ:P|lang:en|wc:2|cs:8836|v=4,Manek Metals,https://www.manekmetals.com/?pos=149&kwd=kid cup&tags=||||8223.226|Price|product|||TS|rsf:gd-|-stype:attr=1|qr_nm:gd|res:RC4|com-cf:nl|ptrs:na|ktp:N0|mc:22709|mtp:S|qry_typ:P|lang:en|wc:2|cs:8836|v=4,False,Jacob Circle,Thane,"Collage Road, Vakdun Goan, Taluka Dhanu, Jacob Circle, Thane - 401602, Dist.Thane, Maharashtra",7942534574,
"Silver Lazywindow Plastic Baby cup 200 ml LW0131, For Home",https://www.indiamart.com/proddetail/lazywindow-plastic-baby-cup-200-ml-lw0131-26743754030.html?pos=150&kwd=kid cup&tags=||||8741.812|Price|product|||TS|rsf:gd-|-stype:attr=1|qr_nm:gd|res:RC4|com-cf:nl|ptrs:na|ktp:N0|mc:22709|mtp:S|qry_typ:P|lang:en|wc:2|cs:8836|v=4,Lazy Window LLP,https://www.indiamart.com/lazy-window-llp/?pos=150&kwd=kid cup&tags=||||8741.812|Price|product|||TS|rsf:gd-|-stype:attr=1|qr_nm:gd|res:RC4|com-cf:nl|ptrs:na|ktp:N0|mc:22709|mtp:S|qry_typ:P|lang:en|wc:2|cs:8836|v=4,False,Rajeev Nagar,Gurugram,"2117 A, Rajeev Nagar J India Garden,, Rajeev Nagar, Gurugram - 122001, Dist.Gurgaon, Haryana",8048268914,
"Stainless Steel Signoraware Charm Kids Vacuum Sipper 350ml, Capacity: 400 mL",https://www.indiamart.com/proddetail/signoraware-charm-kids-vacuum-sipper-350ml-2853360996088.html?pos=151&kwd=kid cup&tags=||||8307.81|Price|product|||TS|rsf:gd-|-stype:attr=1|qr_nm:gd|res:RC4|com-cf:nl|ptrs:na|ktp:N0|mc:22709|mtp:S|qry_typ:P|lang:en|wc:2|cs:8836|v=4,Mayur Distributors,https://www.celebner.in/?pos=151&kwd=kid cup&tags=||||8307.81|Price|product|||TS|rsf:gd-|-stype:attr=1|qr_nm:gd|res:RC4|com-cf:nl|ptrs:na|ktp:N0|mc:22709|mtp:S|qry_typ:P|lang:en|wc:2|cs:8836|v=4,False,Guruwar Peth,Pune,"No. 67, Guruwar Peth nr Shitala Devi Chowk, Guruwar Peth, Pune - 411042, Dist.Pune, Maharashtra",8048953748,
"Blue And Green Baby Sipper, Packaging Type: Box",https://www.indiamart.com/proddetail/baby-sipper-20395224662.html?pos=152&kwd=kid cup&tags=||||8211.906|Price|product|||TS|rsf:gd-|-stype:attr=1|qr_nm:gd|res:RC4|com-cf:nl|ptrs:na|ktp:N0|mc:22709|mtp:S|qry_typ:P|lang:en|wc:2|cs:8836|v=4,Punamiya Exim Private Limited,https://www.punamiyaexim.co.in/?pos=152&kwd=kid cup&tags=||||8211.906|Price|product|||TS|rsf:gd-|-stype:attr=1|qr_nm:gd|res:RC4|com-cf:nl|ptrs:na|ktp:N0|mc:22709|mtp:S|qry_typ:P|lang:en|wc:2|cs:8836|v=4,False,Umargam,Umargam,"Near To Sonal Plastic, Plot No 828 A GIDC, Plot No 828 A GIDC, Umbergaon Station Road, GIDC, Umargam, Umargam - 396171, Dist.Valsad, Gujarat",8048976705,
Transparent Plastic Kids Sipper Bottle,https://www.indiamart.com/proddetail/kids-sipper-bottle-27259257397.html?pos=153&kwd=kid cup&tags=||||8752.144|Price|product|||TS|rsf:gd-|-stype:attr=1|qr_nm:gd|res:RC4|com-cf:nl|ptrs:na|ktp:N0|mc:22709|mtp:S|qry_typ:P|lang:en|wc:2|cs:8836|v=4,Jain Brothers,https://www.jainbrothersjb.com/?pos=153&kwd=kid cup&tags=||||8752.144|Price|product|||TS|rsf:gd-|-stype:attr=1|qr_nm:gd|res:RC4|com-cf:nl|ptrs:na|ktp:N0|mc:22709|mtp:S|qry_typ:P|lang:en|wc:2|cs:8836|v=4,False,Delhi Sadar Bazar,New Delhi,"1268,2nd Floor Nala road Sadar Bazar, Delhi Sadar Bazar, New Delhi - 110006, Dist.Delhi, Delhi",8048265534,
800 Ml Stainless Steel Apple Serving Bowl,https://www.indiamart.com/proddetail/800-ml-stainless-steel-apple-serving-bowl-15480998388.html?pos=154&kwd=kid cup&tags=||||8752.144|Price|product|||TS|rsf:gd-|-stype:attr=1|qr_nm:gd|res:RC4|com-cf:nl|ptrs:na|ktp:N0|mc:22709|mtp:S|qry_typ:P|lang:en|wc:2|cs:8836|v=4,Aradhya Steel Industries,https://www.indiamart.com/aradhya-steel-industries/?pos=154&kwd=kid cup&tags=||||8752.144|Price|product|||TS|rsf:gd-|-stype:attr=1|qr_nm:gd|res:RC4|com-cf:nl|ptrs:na|ktp:N0|mc:22709|mtp:S|qry_typ:P|lang:en|wc:2|cs:8836|v=4,False,Wazirpur Industrial Area,New Delhi,"A-29, Group, Wazirpur Industrial Area, Wazirpur Industrial Area, New Delhi - 110052, Dist.Delhi, Delhi",7942533471,
"Arihant Multicolor Plastic Baby Sipper Teddy Virgin, For Home",https://www.indiamart.com/proddetail/plastic-baby-sipper-teddy-virgin-24550491797.html?pos=155&kwd=kid cup&tags=||||8228.275|Price|product|||TS|rsf:gd-|-stype:attr=1|qr_nm:gd|res:RC4|com-cf:nl|ptrs:na|ktp:N0|mc:22709|mtp:S|qry_typ:P|lang:en|wc:2|cs:8836|v=4,Shree Arihant Marketing,https://www.shreearihantmarketing.in/?pos=155&kwd=kid cup&tags=||||8228.275|Price|product|||TS|rsf:gd-|-stype:attr=1|qr_nm:gd|res:RC4|com-cf:nl|ptrs:na|ktp:N0|mc:22709|mtp:S|qry_typ:P|lang:en|wc:2|cs:8836|v=4,False,Lambha,Ahmedabad,"96/3, N.I.D.C Near Khajuri Bus Stop, Lambha, Ahmedabad - 382405, Dist.Ahmedabad, Gujarat",8048964470,
"Plastic NICE KIDS BOTTLE, Capacity: 500 mL",https://www.indiamart.com/proddetail/nice-kids-bottle-2854404322462.html?pos=156&kwd=kid cup&tags=||||8230.883|Price|product|||TS|rsf:gd-|-stype:attr=1|qr_nm:gd|res:RC4|com-cf:nl|ptrs:na|ktp:N0|mc:22709|mtp:S|qry_typ:P|lang:en|wc:2|cs:8836|v=4,Isabella (A Brand Of Shayona Creation),https://www.srkmart.com/?pos=156&kwd=kid cup&tags=||||8230.883|Price|product|||TS|rsf:gd-|-stype:attr=1|qr_nm:gd|res:RC4|com-cf:nl|ptrs:na|ktp:N0|mc:22709|mtp:S|qry_typ:P|lang:en|wc:2|cs:8836|v=4,False,Utran,Surat,"208, Turning Point Near Bank Of Baroda Bank, Utran, Surat - 394105, Dist.Surat, Gujarat",8046057635,
Wheat Straw Tableware Set Plate Spoon & Fork Set 15.7 x 15.7 Cm,https://www.indiamart.com/proddetail/wheat-straw-tableware-set-plate-spoon-fork-set-15-7-x-15-7-cm-2854142718791.html?pos=157&kwd=kid cup&tags=||||8785.791|Price|product|||TS|rsf:gd-|-stype:attr=1|qr_nm:gd|res:RC4|com-cf:nl|ptrs:na|ktp:N0|mc:22709|mtp:S|qry_typ:P|lang:en|wc:2|cs:8836|v=4,Rident Kitchen,https://www.ridentkitchen.in/?pos=157&kwd=kid cup&tags=||||8785.791|Price|product|||TS|rsf:gd-|-stype:attr=1|qr_nm:gd|res:RC4|com-cf:nl|ptrs:na|ktp:N0|mc:22709|mtp:S|qry_typ:P|lang:en|wc:2|cs:8836|v=4,False,Mohan Nagar,Ghaziabad,"Plot No. 30, Second floor Rajender Nagar Industrial Area, Street No. 4, Mohan Nagar, Ghaziabad - 201007, Dist.Ghaziabad, Uttar Pradesh",8048262052,
Kids Cute Transparent Water Bottle - 330ml Straw Cup Drinking Cup Water Bottle,https://www.indiamart.com/proddetail/kids-cute-transparent-water-bottle-330ml-straw-cup-drinking-cup-water-bottle-2854650500773.html?pos=158&kwd=kid cup&tags=||||8769.508|Price|product|||TS|rsf:gd-|-stype:attr=1|qr_nm:gd|res:RC4|com-cf:nl|ptrs:na|ktp:N0|mc:22709|mtp:S|qry_typ:P|lang:en|wc:2|cs:8836|v=4,Iconic Pentagon Private Limited,https://www.indiamart.com/iconic-pentagon/?pos=158&kwd=kid cup&tags=||||8769.508|Price|product|||TS|rsf:gd-|-stype:attr=1|qr_nm:gd|res:RC4|com-cf:nl|ptrs:na|ktp:N0|mc:22709|mtp:S|qry_typ:P|lang:en|wc:2|cs:8836|v=4,False,,Faridabad,"1935 Sector 8, Faridabad - 121006, Dist.Faridabad, Haryana",8044015503,
"Silver 1100ml ss bottle, Steel Screw Type Cap",https://www.indiamart.com/proddetail/1100ml-ss-bottle-26095479491.html?pos=159&kwd=kid cup&tags=||||8584.299|Price|product|||TS|rsf:gd-|-stype:attr=1|qr_nm:gd|res:RC4|com-cf:nl|ptrs:na|ktp:N0|mc:22709|mtp:S|qry_typ:P|lang:en|wc:2|cs:8836|v=4,Ayurcop Enterprises,https://www.ayurcopenterprises.in/?pos=159&kwd=kid cup&tags=||||8584.299|Price|product|||TS|rsf:gd-|-stype:attr=1|qr_nm:gd|res:RC4|com-cf:nl|ptrs:na|ktp:N0|mc:22709|mtp:S|qry_typ:P|lang:en|wc:2|cs:8836|v=4,False,Jagdish Nagar,Coimbatore,"Sf/No 80/1b, Thimmiya Nagar, Jagdish Nagar, Coimbatore - 641007, Dist.Coimbatore, Tamil Nadu",8048956760,
Capacity: 1000 mL ANGLE SIPPER BOTTLE,https://www.indiamart.com/proddetail/angle-sipper-bottle-2850570676848.html?pos=160&kwd=kid cup&tags=||||8228.275|Price|product|||TS|rsf:gd-|-stype:attr=1|qr_nm:gd|res:RC4|com-cf:nl|ptrs:na|ktp:N0|mc:22709|mtp:S|qry_typ:P|lang:en|wc:2|cs:8836|v=4,Mayur Plastics And Toys,https://www.mayurplasticproducts.com/?pos=160&kwd=kid cup&tags=||||8228.275|Price|product|||TS|rsf:gd-|-stype:attr=1|qr_nm:gd|res:RC4|com-cf:nl|ptrs:na|ktp:N0|mc:22709|mtp:S|qry_typ:P|lang:en|wc:2|cs:8836|v=4,False,Rajpur Hirpur,Ahmedabad,"479/2842, Gujarat Housing Board dengra, Rajpur Hirpur, Ahmedabad - 380023, Dist.Ahmedabad, Gujarat",8048964748,
"SILVER Metal Steel Baby Feeder Bottle 250 ML, 1-2 Years",https://www.indiamart.com/proddetail/steel-baby-feeder-bottle-250-ml-2852994463033.html?pos=161&kwd=kid cup&tags=||||8752.144|Price|product|||TS|rsf:gd-|-stype:attr=1|qr_nm:gd|res:RC4|com-cf:nl|ptrs:na|ktp:N0|mc:22709|mtp:S|qry_typ:P|lang:en|wc:2|cs:8836|v=4,Kedy Mart Private Limited,https://www.kedymart.net/?pos=161&kwd=kid cup&tags=||||8752.144|Price|product|||TS|rsf:gd-|-stype:attr=1|qr_nm:gd|res:RC4|com-cf:nl|ptrs:na|ktp:N0|mc:22709|mtp:S|qry_typ:P|lang:en|wc:2|cs:8836|v=4,False,Rithala,New Delhi,"khasra No 1008/9, Rohini, New Delhi Landmark Na New Delhi Rithala, Rithala, New Delhi - 110085, Dist.Delhi, Delhi",8048273345,
Deer Horn Design Cartoon Sipper Water Bottle,https://www.indiamart.com/proddetail/deer-horn-design-cartoon-sipper-water-bottle-2853949058912.html?pos=162&kwd=kid cup&tags=||||8741.812|Price|product|||TS|rsf:gd-|-stype:attr=1|qr_nm:gd|res:RC4|com-cf:nl|ptrs:na|ktp:N0|mc:22709|mtp:S|qry_typ:P|lang:en|wc:2|cs:8836|v=4,Om Deal Online,https://www.indiamart.com/om-deal-online/?pos=162&kwd=kid cup&tags=||||8741.812|Price|product|||TS|rsf:gd-|-stype:attr=1|qr_nm:gd|res:RC4|com-cf:nl|ptrs:na|ktp:N0|mc:22709|mtp:S|qry_typ:P|lang:en|wc:2|cs:8836|v=4,False,Sector 93,Gurugram,"114, IMT Road, Government High School, Hayatpur, Sector 93, Gurugram - 122505, Dist.Gurgaon, Haryana",7942836824,
"Multicolor Baby Silicone Food Feeder Spoon (90ML) (BB-4), For Home, Spoon Shape: Round",https://www.indiamart.com/proddetail/baby-silicone-food-feeder-spoon-90ml-bb-4-2850305543791.html?pos=163&kwd=kid cup&tags=||||8752.144|Price|product|||TS|rsf:gd-|-stype:attr=1|qr_nm:gd|res:RC4|com-cf:nl|ptrs:na|ktp:N0|mc:22709|mtp:S|qry_typ:P|lang:en|wc:2|cs:8836|v=4,Gtglobal Trade India Private Limited,https://www.gtcglobal.in/?pos=163&kwd=kid cup&tags=||||8752.144|Price|product|||TS|rsf:gd-|-stype:attr=1|qr_nm:gd|res:RC4|com-cf:nl|ptrs:na|ktp:N0|mc:22709|mtp:S|qry_typ:P|lang:en|wc:2|cs:8836|v=4,False,Swaroop Nagar,New Delhi,"Plot No 144/145 , Kh. No.16/10, Gali No-7 Swaroop Nagar Extension, Swaroop Nagar, New Delhi - 110042, Dist.Delhi, Delhi",8048960531,
"Double Wall Heavy Stainless Steel Copper Inside Water Bottle, Capacity: 750 mL",https://www.indiamart.com/proddetail/double-wall-heavy-stainless-steel-copper-inside-water-bottle-2852056153933.html?pos=164&kwd=kid cup&tags=||||8915.672|Price|product|||TS|rsf:gd-|-stype:attr=1|qr_nm:gd|res:RC4|com-cf:nl|ptrs:na|ktp:N0|mc:22709|mtp:S|qry_typ:P|lang:en|wc:2|cs:8836|v=4,Met Craft,https://www.metcrafter.com/?pos=164&kwd=kid cup&tags=||||8915.672|Price|product|||TS|rsf:gd-|-stype:attr=1|qr_nm:gd|res:RC4|com-cf:nl|ptrs:na|ktp:N0|mc:22709|mtp:S|qry_typ:P|lang:en|wc:2|cs:8836|v=4,False,katghar,Moradabad,"Road Kathghar Udpura, katghar, Moradabad - 244001, Dist.Moradabad, Uttar Pradesh",7942869512,
"Round Multicolor STRAW UNIVERSAL FALL WATER CUP, Capacity: 100 mL, 0-5 years",https://www.indiamart.com/proddetail/straw-universal-fall-water-cup-2851156887373.html?pos=165&kwd=kid cup&tags=||||8230.883|Price|product|||TS|rsf:gd-|-stype:attr=1|qr_nm:gd|res:RC4|com-cf:nl|ptrs:na|ktp:N0|mc:22709|mtp:S|qry_typ:P|lang:en|wc:2|cs:8836|v=4,Rozzby,https://www.cheaperzonetoys.com/?pos=165&kwd=kid cup&tags=||||8230.883|Price|product|||TS|rsf:gd-|-stype:attr=1|qr_nm:gd|res:RC4|com-cf:nl|ptrs:na|ktp:N0|mc:22709|mtp:S|qry_typ:P|lang:en|wc:2|cs:8836|v=4,False,Kosam,Surat,"1st Floor D-2,103 Vip Circle Shlok Recidency Utran, Kosam, Surat - 394105, Dist.Surat, Gujarat",8047622002,
"Sipper Blue SS KIDS STRAW CUP BOTTLE 600ML, Baby",https://www.indiamart.com/proddetail/ss-kids-straw-cup-bottle-600ml-2851901758048.html?pos=166&kwd=kid cup&tags=||||8752.144|Price|product|||TS|rsf:gd-|-stype:attr=1|qr_nm:gd|res:RC4|com-cf:nl|ptrs:na|ktp:N0|mc:22709|mtp:S|qry_typ:P|lang:en|wc:2|cs:8836|v=4,S G Global Enterprise,https://www.indiamart.com/sgglobalenterprisesdelhi/?pos=166&kwd=kid cup&tags=||||8752.144|Price|product|||TS|rsf:gd-|-stype:attr=1|qr_nm:gd|res:RC4|com-cf:nl|ptrs:na|ktp:N0|mc:22709|mtp:S|qry_typ:P|lang:en|wc:2|cs:8836|v=4,False,Narela,New Delhi,"House No R-208, Gali No 12A, Mother Dairy, Swatantra Nagar, North Delhi,, Narela, New Delhi - 110040, Dist.Delhi, Delhi",7942706773,
"Transparent Grip cup, Capacity: 200 mL",,Pinakin Trading & Co.,https://www.indiamart.com/pinakintrading/?pos=167&kwd=kid cup&tags=||||8752.144|Price|product|||TS|rsf:gd-|-stype:attr=1|qr_nm:gd|res:RC4|com-cf:nl|ptrs:na|ktp:N0|mc:22709|mtp:S|qry_typ:P|lang:en|wc:2|cs:8836|v=4,False,Mandoli,New Delhi,"C - 3/1018 KH NO. 23/3 PLOT NO. 5,GALI NO. 33,HARSH VIHAR,MANDOLI Second Floor, C - 3/1018 Kh No. 23/3, Plot No. 5, Gali No. 33, Harsh Vihar, Mandoli, North East,110, Mandoli, New Delhi - 110093, Dist.Delhi, Delhi",7942967562,
Baby Sipper Cup with Soft Straw Water Bottle for Drinking Pack of 3 (mutlicolor),https://www.indiamart.com/proddetail/baby-sipper-cup-with-soft-straw-water-bottle-for-drinking-pack-of-3-mutlicolor-2854681225648.html?pos=168&kwd=kid cup&tags=||||8752.144|Price|product|||TS|rsf:gd-|-stype:attr=1|qr_nm:gd|res:RC4|com-cf:nl|ptrs:na|ktp:N0|mc:22709|mtp:S|qry_typ:P|lang:en|wc:2|cs:8836|v=4,R. K. Traders,https://www.indiamart.com/rk-traders-rajkot/?pos=168&kwd=kid cup&tags=||||8752.144|Price|product|||TS|rsf:gd-|-stype:attr=1|qr_nm:gd|res:RC4|com-cf:nl|ptrs:na|ktp:N0|mc:22709|mtp:S|qry_typ:P|lang:en|wc:2|cs:8836|v=4,False,Pooth Khurd,New Delhi,"Plot/Khasra No-155/434, Ground Floor, Extended Lal Dora, Industrial Plot Village Pooth Khurd,, Pooth Khurd, New Delhi - 110039, Dist.Delhi, Delhi",7942558440,
Capacity: 500 mL Plastic Baby Sipper,https://www.indiamart.com/proddetail/plastic-baby-sipper-2854222660648.html?pos=169&kwd=kid cup&tags=||||8230.883|Price|product|||TS|rsf:gd-|-stype:attr=1|qr_nm:gd|res:RC4|com-cf:nl|ptrs:na|ktp:N0|mc:22709|mtp:S|qry_typ:P|lang:en|wc:2|cs:8836|v=4,BABYHOLIC,https://www.babyholic.in/?pos=169&kwd=kid cup&tags=||||8230.883|Price|product|||TS|rsf:gd-|-stype:attr=1|qr_nm:gd|res:RC4|com-cf:nl|ptrs:na|ktp:N0|mc:22709|mtp:S|qry_typ:P|lang:en|wc:2|cs:8836|v=4,False,,Surat,"Ground Floor, Plot No. F/56/, And F/57, Laxmi Narayan Industrial Estate, Udhana, Kailash Fashion, Surat - 394210, Dist.Surat, Gujarat",8045732096,
Hello kitty Stainless Steel Water Cup With Lid And Straw 480ml/16.89oz Children/Adult Drinking Cup,https://www.indiamart.com/proddetail/hello-kitty-stainless-steel-water-cup-with-lid-and-straw-480ml-16-89oz-children-adult-drinking-cup-2853141682291.html?pos=170&kwd=kid cup&tags=||||8230.883|Price|product|||TS|rsf:gd-|-stype:attr=1|qr_nm:gd|res:RC4|com-cf:nl|ptrs:na|ktp:N0|mc:22709|mtp:S|qry_typ:P|lang:en|wc:2|cs:8836|v=4,Tallin Sales,https://www.indiamart.com/tallin-sales/?pos=170&kwd=kid cup&tags=||||8230.883|Price|product|||TS|rsf:gd-|-stype:attr=1|qr_nm:gd|res:RC4|com-cf:nl|ptrs:na|ktp:N0|mc:22709|mtp:S|qry_typ:P|lang:en|wc:2|cs:8836|v=4,False,Singanpor,Surat,"Lakshmi Enclave Basement near Gajera School, Singanpor, Surat - 395004, Dist.Surat, Gujarat",7942542891,
500 mL Glass Bottle For Kids,https://www.indiamart.com/proddetail/glass-bottle-for-kids-2853680209197.html?pos=171&kwd=kid cup&tags=||||8211.142|Price|product|||TS|rsf:gd-|-stype:attr=1|qr_nm:gd|res:RC4|com-cf:nl|ptrs:na|ktp:N0|mc:22709|mtp:S|qry_typ:P|lang:en|wc:2|cs:8836|v=4,J Star Mobile Accessories Private Limited,https://www.jstarmobiles.com/?pos=171&kwd=kid cup&tags=||||8211.142|Price|product|||TS|rsf:gd-|-stype:attr=1|qr_nm:gd|res:RC4|com-cf:nl|ptrs:na|ktp:N0|mc:22709|mtp:S|qry_typ:P|lang:en|wc:2|cs:8836|v=4,False,Mumbai Central,Mumbai,"Office No. 23R, 13th Floor, Navjivan Commercial Premises Ltd, Bldg No.3, Lemington Road, Mumbai Central, Mumbai Central, Mumbai - 400008, Dist.Mumbai, Maharashtra",8048961910,
"167ml Ocean Delight One Scoop Cup - P02615, For Restaurant",https://www.indiamart.com/proddetail/167ml-ocean-delight-one-scoop-cup-p02615-2854620801030.html?pos=172&kwd=kid cup&tags=||||8778.123|Price|product|||TS|rsf:gd-|-stype:attr=1|qr_nm:gd|res:RC4|com-cf:nl|ptrs:na|ktp:N0|mc:22709|mtp:S|qry_typ:P|lang:en|wc:2|cs:8836|v=4,Horecamate,https://www.indiamart.com/horecamate/?pos=172&kwd=kid cup&tags=||||8778.123|Price|product|||TS|rsf:gd-|-stype:attr=1|qr_nm:gd|res:RC4|com-cf:nl|ptrs:na|ktp:N0|mc:22709|mtp:S|qry_typ:P|lang:en|wc:2|cs:8836|v=4,False,Sector 8,Noida,"28 B, D4 Sector 82 Udyog Vihar Noida Gautambuddha Nagar Uttar Pradesh, Sector 8, Noida - 201301, Dist.Gautam Budh Nagar, Uttar Pradesh",7949091631,
300ml Glass Milk Bottles For Babies,https://www.indiamart.com/proddetail/300ml-glass-milk-bottles-for-babies-19328536730.html?pos=173&kwd=kid cup&tags=||||8861.147|Price|product|||TS|rsf:gd-|-stype:attr=1|qr_nm:gd|res:RC4|com-cf:nl|ptrs:na|ktp:N0|mc:22709|mtp:S|qry_typ:P|lang:en|wc:2|cs:8836|v=4,G.M Overseas,https://www.glassbottlejar.com/?pos=173&kwd=kid cup&tags=||||8861.147|Price|product|||TS|rsf:gd-|-stype:attr=1|qr_nm:gd|res:RC4|com-cf:nl|ptrs:na|ktp:N0|mc:22709|mtp:S|qry_typ:P|lang:en|wc:2|cs:8836|v=4,True,Humaunpur,Firozabad,"48 Blank, Khanjapur,, Humaunpur, Firozabad - 283203, Dist.Firozabad, Uttar Pradesh",8048952817,
"Plastic Sipper Glasses, Capacity: 300 mL",https://www.indiamart.com/proddetail/sipper-glasses-2851721860091.html?pos=174&kwd=kid cup&tags=||||8954.051||product|||MDC|rsf:gd-|-stype:attr=1|qr_nm:gd|res:RC4|com-cf:nl|ptrs:na|ktp:N0|mc:22709|mtp:S|qry_typ:P|lang:en|wc:2|cs:8836|v=4,Metalic Paper House,https://www.indiamart.com/metalic-paper-house/?pos=174&kwd=kid cup&tags=||||8954.051||product|||MDC|rsf:gd-|-stype:attr=1|qr_nm:gd|res:RC4|com-cf:nl|ptrs:na|ktp:N0|mc:22709|mtp:S|qry_typ:P|lang:en|wc:2|cs:8836|v=4,False,Sowcarpet,Chennai,"86, Narayan Mudali Street, Sowcarpet, Chennai - 600079, Dist.Chennai, Tamil Nadu",7942829750,
SS baby feeding bottle,https://www.indiamart.com/proddetail/ss-baby-feeding-bottle-2854921394091.html?pos=175&kwd=kid cup&tags=||||8823.154|Price|product|||MDC|rsf:gd-|-stype:attr=1|qr_nm:gd|res:RC4|com-cf:nl|ptrs:na|ktp:N0|mc:22709|mtp:S|qry_typ:P|lang:en|wc:2|cs:8836|v=4,Ekta Agency,https://www.indiamart.com/ekta-agencyup/?pos=175&kwd=kid cup&tags=||||8823.154|Price|product|||MDC|rsf:gd-|-stype:attr=1|qr_nm:gd|res:RC4|com-cf:nl|ptrs:na|ktp:N0|mc:22709|mtp:S|qry_typ:P|lang:en|wc:2|cs:8836|v=4,False,Mantola,Agra,"B7,,SHRIGOPAL COMPLEX GROUND FLOOR,DARESHI NO 2 AGAR, Mantola, Agra - 282003, Dist.Agra, Uttar Pradesh",8047652350,
VK CREATIONS Kids Plastic Sipper Bottles,https://www.indiamart.com/proddetail/kids-plastic-sipper-bottles-26044733655.html?pos=176&kwd=kid cup&tags=||||8752.144|Price|product|||MDC|rsf:gd-|-stype:attr=1|qr_nm:gd|res:RC4|com-cf:nl|ptrs:na|ktp:N0|mc:22709|mtp:S|qry_typ:P|lang:en|wc:2|cs:8836|v=4,V. K. Creations,https://www.indiamart.com/vk-creations-delhi/?pos=176&kwd=kid cup&tags=||||8752.144|Price|product|||MDC|rsf:gd-|-stype:attr=1|qr_nm:gd|res:RC4|com-cf:nl|ptrs:na|ktp:N0|mc:22709|mtp:S|qry_typ:P|lang:en|wc:2|cs:8836|v=4,False,Hari Nagar,New Delhi,"Near Sbi C-41 A, Hari Nagar, Hari Nagar, New Delhi - 110064, Dist.Delhi, Delhi",8048614269,
"Transparent Baby Sipper Bottle, Capacity: 100 mL",https://www.indiamart.com/proddetail/baby-sipper-bottle-2853673848891.html?pos=177&kwd=kid cup&tags=||||8624.416|Price|product|||MDC|rsf:gd-|-stype:attr=1|qr_nm:gd|res:RC4|com-cf:nl|ptrs:na|ktp:N0|mc:22709|mtp:S|qry_typ:P|lang:en|wc:2|cs:8836|v=4,Dayawanti Traders,https://www.indiamart.com/dayawati-trader/?pos=177&kwd=kid cup&tags=||||8624.416|Price|product|||MDC|rsf:gd-|-stype:attr=1|qr_nm:gd|res:RC4|com-cf:nl|ptrs:na|ktp:N0|mc:22709|mtp:S|qry_typ:P|lang:en|wc:2|cs:8836|v=4,False,Indira Colony,Hisar,"Plot No. 137 Dhani Kishandutt, Near Asha High School, Nancy Beauty Parlour, Indira Colony, Indira Colony, Hisar - 125001, Dist.Hisar, Haryana",7942701403,
"Screw Cap Multicolor Avent Classic Plastic Spout Cup 260ml, Baby",https://www.indiamart.com/proddetail/avent-classic-plastic-spout-cup-260ml-2853684157212.html?pos=178&kwd=kid cup&tags=||||8331.224|Price|product|||MDC|rsf:gd-|-stype:attr=1|qr_nm:gd|res:RC4|com-cf:nl|ptrs:na|ktp:N0|mc:22709|mtp:S|qry_typ:P|lang:en|wc:2|cs:8836|v=4,Shri Siddhivinayak Distributors,https://www.indiamart.com/shrisiddhivinayak-distributors/?pos=178&kwd=kid cup&tags=||||8331.224|Price|product|||MDC|rsf:gd-|-stype:attr=1|qr_nm:gd|res:RC4|com-cf:nl|ptrs:na|ktp:N0|mc:22709|mtp:S|qry_typ:P|lang:en|wc:2|cs:8836|v=4,False,New Shahupuri,Kolhapur,"Cs No 372/3, E Ward, Ghoarpade Galli, New Shahupuri, Kolhapur - 416003, Dist.Kolhapur, Maharashtra",7949095151,
"Stainless Steel Stanley cup sipper cup 1200ml, Capacity: 1 Litre",https://www.indiamart.com/proddetail/stanley-cup-sipper-cup-1200ml-2854552814433.html?pos=179&kwd=kid cup&tags=||||9839.57|Price|product|||MDC|rsf:gd-|-stype:attr=1|qr_nm:gd|res:RC4|com-cf:nl|ptrs:na|ktp:N0|mc:22709|mtp:S|qry_typ:P|lang:en|wc:2|cs:8836|v=4,"Tirupati Wall And Floor, 24x7 Emall",https://www.indiamart.com/tirupatiwallfloor/?pos=179&kwd=kid cup&tags=||||9839.57|Price|product|||MDC|rsf:gd-|-stype:attr=1|qr_nm:gd|res:RC4|com-cf:nl|ptrs:na|ktp:N0|mc:22709|mtp:S|qry_typ:P|lang:en|wc:2|cs:8836|v=4,False,Kalindi Housing Estate,Kolkata,"873 Lake Town, Block A, Kalindi Housing Estate, Kolkata - 700089, Dist.Kolkata, West Bengal",8046077999,
"Plastic baby bottle, Age Group: 3-12 Months",https://www.indiamart.com/proddetail/baby-bottle-2854299635530.html?pos=180&kwd=kid cup&tags=||||8038.093|Price|product|||MDC|rsf:gd-|-stype:attr=1|qr_nm:gd|res:RC4|com-cf:nl|ptrs:na|ktp:N0|mc:22709|mtp:S|qry_typ:P|lang:en|wc:2|cs:8836|v=4,Prime Enterprise,https://www.indiamart.com/prime-enterpriserajkotgujarat/?pos=180&kwd=kid cup&tags=||||8038.093|Price|product|||MDC|rsf:gd-|-stype:attr=1|qr_nm:gd|res:RC4|com-cf:nl|ptrs:na|ktp:N0|mc:22709|mtp:S|qry_typ:P|lang:en|wc:2|cs:8836|v=4,False,Rajkot,Rajkot,"Prime Polymers Khodiyar Ind.Area, Dhebar Road, Rajkot, Rajkot - 360001, Dist.Rajkot, Gujarat",7949220525,
Baby Fruit Feeder,https://www.indiamart.com/proddetail/baby-fruit-feeder-2851667420962.html?pos=181&kwd=kid cup&tags=||||8752.144|Price|product|||MDC|rsf:gd-|-stype:attr=1|qr_nm:gd|res:RC4|com-cf:nl|ptrs:na|ktp:N0|mc:22709|mtp:S|qry_typ:P|lang:en|wc:2|cs:8836|v=4,JMD Enterprises,https://www.indiamart.com/jmdenterprisesnewdelhi-india/?pos=181&kwd=kid cup&tags=||||8752.144|Price|product|||MDC|rsf:gd-|-stype:attr=1|qr_nm:gd|res:RC4|com-cf:nl|ptrs:na|ktp:N0|mc:22709|mtp:S|qry_typ:P|lang:en|wc:2|cs:8836|v=4,False,Najafgarh,New Delhi,"Durga Vihar Phase-2, Plot No.-151 A, Main Paprawat Road Deenpur, Najafgarh Behind Radha Swani Satsang Bhawa, South West Delhi, Najafgarh, New Delhi - 110043, Dist.Delhi, Delhi",8046040114,
MADY BABY SIPPER,https://www.indiamart.com/proddetail/mady-baby-sipper-2854530162855.html?pos=182&kwd=kid cup&tags=||||8752.144|Price|product|||MDC|rsf:gd-|-stype:attr=1|qr_nm:gd|res:RC4|com-cf:nl|ptrs:na|ktp:N0|mc:22709|mtp:S|qry_typ:P|lang:en|wc:2|cs:8836|v=4,Household Mart,https://www.indiamart.com/household-mart-newdelhi/?pos=182&kwd=kid cup&tags=||||8752.144|Price|product|||MDC|rsf:gd-|-stype:attr=1|qr_nm:gd|res:RC4|com-cf:nl|ptrs:na|ktp:N0|mc:22709|mtp:S|qry_typ:P|lang:en|wc:2|cs:8836|v=4,False,,New Delhi,"2nd Floor Ganesh Pura A Kanhiya Nagar Tri Nagar, House 3904 Plot No Old -171 Street No 14, North West Delhi, New Delhi - 110035, Dist.Delhi, Delhi",7949337207,
"Plastic 350ml Pink Baby Sipper Mug, For Home",https://www.indiamart.com/proddetail/350ml-pink-baby-sipper-mug-25743211430.html?pos=183&kwd=kid cup&tags=||||8752.144|Price|product|||MDC|rsf:gd-|-stype:attr=1|qr_nm:gd|res:RC4|com-cf:nl|ptrs:na|ktp:N0|mc:22709|mtp:S|qry_typ:P|lang:en|wc:2|cs:8836|v=4,Little Kingdom Baby Product,https://www.indiamart.com/little-kingdombaby-product/?pos=183&kwd=kid cup&tags=||||8752.144|Price|product|||MDC|rsf:gd-|-stype:attr=1|qr_nm:gd|res:RC4|com-cf:nl|ptrs:na|ktp:N0|mc:22709|mtp:S|qry_typ:P|lang:en|wc:2|cs:8836|v=4,False,Bawana,New Delhi,"Plot No. 16, PKT-G, Sector-3, DSIIDC, Bawana, North West Delhi, Bawana, New Delhi - 110039, Dist.Delhi, Delhi",8047648589,
Baby Spoon Feeder,https://www.indiamart.com/proddetail/baby-spoon-feeder-2851691492762.html?pos=184&kwd=kid cup&tags=||||8752.144||product|||MDC|rsf:gd-|-stype:attr=1|qr_nm:gd|res:RC4|com-cf:nl|ptrs:na|ktp:N0|mc:22709|mtp:S|qry_typ:P|lang:en|wc:2|cs:8836|v=4,Prince And Princess,https://www.indiamart.com/prince-princess-delhi/?pos=184&kwd=kid cup&tags=||||8752.144||product|||MDC|rsf:gd-|-stype:attr=1|qr_nm:gd|res:RC4|com-cf:nl|ptrs:na|ktp:N0|mc:22709|mtp:S|qry_typ:P|lang:en|wc:2|cs:8836|v=4,False,Gulabi Bagh,New Delhi,"Ground Floor, Garage No - 74, Gulabi Bagh Road,, Gulabi Bagh, New Delhi - 110007, Dist.Delhi, Delhi",8047629125,
Black Water Bottle Cup Combo,https://www.indiamart.com/proddetail/black-water-bottle-cup-combo-14108199655.html?pos=185&kwd=kid cup&tags=||||8752.144|Price|product|||MDC|rsf:gd-|-stype:attr=1|qr_nm:gd|res:RC4|com-cf:nl|ptrs:na|ktp:N0|mc:22709|mtp:S|qry_typ:P|lang:en|wc:2|cs:8836|v=4,Radiant Creation,https://www.indiamart.com/radiant-creation-newdelhi/?pos=185&kwd=kid cup&tags=||||8752.144|Price|product|||MDC|rsf:gd-|-stype:attr=1|qr_nm:gd|res:RC4|com-cf:nl|ptrs:na|ktp:N0|mc:22709|mtp:S|qry_typ:P|lang:en|wc:2|cs:8836|v=4,False,,New Delhi,"First Floor, H.No. 363, CB Block, Ring Road, Naraina, South West Delhi, New Delhi - 110028, Dist.Delhi, Delhi",7942966481,
"Transparent Plastic Feeding Bottles & Sippers, New Born Baby",https://www.indiamart.com/proddetail/feeding-bottles-sippers-2853641942197.html?pos=186&kwd=kid cup&tags=||||8752.144|Price|product|||TS|rsf:gd-|-stype:attr=1|qr_nm:gd|res:RC4|com-cf:nl|ptrs:na|ktp:N0|mc:22709|mtp:S|qry_typ:P|lang:en|wc:2|cs:8836|v=4,Spills,https://www.indiamart.com/spills/?pos=186&kwd=kid cup&tags=||||8752.144|Price|product|||TS|rsf:gd-|-stype:attr=1|qr_nm:gd|res:RC4|com-cf:nl|ptrs:na|ktp:N0|mc:22709|mtp:S|qry_typ:P|lang:en|wc:2|cs:8836|v=4,False,Pahar Ganj,New Delhi,"1st Floor 2205/4 Pahar Ganj, Pahar Ganj, New Delhi - 110055, Dist.Delhi, Delhi",8047547921,
"Metal Baby Stainless Steel Feeding Bottle 250ML, Design/Pattern: Plain, 3-12 Months",https://www.indiamart.com/proddetail/baby-stainless-steel-feeding-bottle-250ml-26854877091.html?pos=187&kwd=kid cup&tags=||||8752.144|Price|product|||TS|rsf:gd-|-stype:attr=1|qr_nm:gd|res:RC4|com-cf:nl|ptrs:na|ktp:N0|mc:22709|mtp:S|qry_typ:P|lang:en|wc:2|cs:8836|v=4,Shri Shyam Enterprises,https://www.indiamart.com/shrishyamenterprisesnewdelhi/?pos=187&kwd=kid cup&tags=||||8752.144|Price|product|||TS|rsf:gd-|-stype:attr=1|qr_nm:gd|res:RC4|com-cf:nl|ptrs:na|ktp:N0|mc:22709|mtp:S|qry_typ:P|lang:en|wc:2|cs:8836|v=4,False,Tajpur Kalan,New Delhi,"House No.392, First Floor, Village Tajpur Kalan, North Delhi, Tajpur Kalan, New Delhi - 110036, Dist.Delhi, Delhi",8048212783,
"Baby Infant PP Water/Juice Training Gravity Soft Spout Sipper Cup with Handles,",https://www.indiamart.com/proddetail/baby-infant-pp-water-juice-training-gravity-soft-spout-sipper-cup-with-handles-2852637751430.html?pos=188&kwd=kid cup&tags=||||8663.873|Price|product|||TS|rsf:gd-|-stype:attr=1|qr_nm:gd|res:RC4|com-cf:nl|ptrs:na|ktp:N0|mc:22709|mtp:S|qry_typ:P|lang:en|wc:2|cs:8836|v=4,Variety Gift & Stationery,https://www.varietygifts.in/?pos=188&kwd=kid cup&tags=||||8663.873|Price|product|||TS|rsf:gd-|-stype:attr=1|qr_nm:gd|res:RC4|com-cf:nl|ptrs:na|ktp:N0|mc:22709|mtp:S|qry_typ:P|lang:en|wc:2|cs:8836|v=4,False,Chickpet,Bengaluru,"14, 1st Cross, BBT Street, Mamulpet, Chickpet, Bengaluru - 560053, Dist.Bengaluru, Karnataka",8048272145,
Silicone Baby Feeding Set Of 8 Pcs,,ABK Impex,https://www.indiamart.com/abk-impex-delhi/?pos=189&kwd=kid cup&tags=||||8752.144|Price|product|||TS|rsf:gd-|-stype:attr=1|qr_nm:gd|res:RC4|com-cf:nl|ptrs:na|ktp:N0|mc:22709|mtp:S|qry_typ:P|lang:en|wc:2|cs:8836|v=4,False,Wazirpur Industrial Area,New Delhi,"C-56/2, First Floor, Wazirpur Industrial Area Road, New Delhi, Wazirpur Industrial Area, New Delhi - 110052, Dist.Delhi, Delhi",7942821519,
"Transparent Plastic Babu sipper ., Baby",https://www.indiamart.com/proddetail/baby-sipper-2852911750230.html?pos=190&kwd=kid cup&tags=||||8752.144|Price|product|||TS|rsf:gd-|-stype:attr=1|qr_nm:gd|res:RC4|com-cf:nl|ptrs:na|ktp:N0|mc:22709|mtp:S|qry_typ:P|lang:en|wc:2|cs:8836|v=4,Aggarwal Agencies,https://www.aggarwalagencies.com/?pos=190&kwd=kid cup&tags=||||8752.144|Price|product|||TS|rsf:gd-|-stype:attr=1|qr_nm:gd|res:RC4|com-cf:nl|ptrs:na|ktp:N0|mc:22709|mtp:S|qry_typ:P|lang:en|wc:2|cs:8836|v=4,False,Teliwara,New Delhi,"73, New Qutub Road, Sadar Bazar, Teliwara, New Delhi - 110006, Dist.Delhi, Delhi",8047638561,
Mini cover silicon nipple,https://www.indiamart.com/proddetail/mini-cover-silicon-nipple-26854447288.html?pos=191&kwd=kid cup&tags=||||8228.275|Price|product|||TS|rsf:gd-|-stype:attr=1|qr_nm:gd|res:RC4|com-cf:nl|ptrs:na|ktp:N0|mc:22709|mtp:S|qry_typ:P|lang:en|wc:2|cs:8836|v=4,Only Women,https://www.indiamart.com/onlywomen/?pos=191&kwd=kid cup&tags=||||8228.275|Price|product|||TS|rsf:gd-|-stype:attr=1|qr_nm:gd|res:RC4|com-cf:nl|ptrs:na|ktp:N0|mc:22709|mtp:S|qry_typ:P|lang:en|wc:2|cs:8836|v=4,False,Teen Darwaza,Ahmedabad,"Shop No 17,tutorial Market,three Gate,pankore Naka,, Teen Darwaza, Ahmedabad - 380001, Dist.Ahmedabad, Gujarat",8046031790,
Rubber Medigold Nipple Shield,https://www.indiamart.com/proddetail/medigold-nipple-shield-13479730597.html?pos=192&kwd=kid cup&tags=||||8752.144|Price|product|||TS|rsf:gd-|-stype:attr=1|qr_nm:gd|res:RC4|com-cf:nl|ptrs:na|ktp:N0|mc:22709|mtp:S|qry_typ:P|lang:en|wc:2|cs:8836|v=4,Vagmine Healthcare,https://www.indiamart.com/vagmine-healthcare/?pos=192&kwd=kid cup&tags=||||8752.144|Price|product|||TS|rsf:gd-|-stype:attr=1|qr_nm:gd|res:RC4|com-cf:nl|ptrs:na|ktp:N0|mc:22709|mtp:S|qry_typ:P|lang:en|wc:2|cs:8836|v=4,False,Vivek Vihar,New Delhi,"5/4 B,Damodar, Park Dilshad, Garden Shahdara,, Vivek Vihar, New Delhi - 110095, Dist.Delhi, Delhi",8048614274,
"Silver Apex baby bottle big 240 ML, Age Group: Newly Born",https://www.indiamart.com/proddetail/apex-baby-bottle-big-240-ml-2851671994373.html?pos=193&kwd=kid cup&tags=||||8752.144|Price|product|||TS|rsf:gd-|-stype:attr=1|qr_nm:gd|res:RC4|com-cf:nl|ptrs:na|ktp:N0|mc:22709|mtp:S|qry_typ:P|lang:en|wc:2|cs:8836|v=4,M/s Yamuna Impex,https://www.yamunaimpex.com/?pos=193&kwd=kid cup&tags=||||8752.144|Price|product|||TS|rsf:gd-|-stype:attr=1|qr_nm:gd|res:RC4|com-cf:nl|ptrs:na|ktp:N0|mc:22709|mtp:S|qry_typ:P|lang:en|wc:2|cs:8836|v=4,False,Chandni Chowk,New Delhi,"3751 groundfloor maman jamadar street pahadi sadar bazar delhi 06, Chandni Chowk, New Delhi - 110006, Dist.Delhi, Delhi",8047637986,
Medela Contact Silicone Nipple Shields,https://www.indiamart.com/proddetail/medela-contact-silicone-nipple-shields-25611440248.html?pos=194&kwd=kid cup&tags=||||8601.347|Price|product|||TS|rsf:gd-|-stype:attr=1|qr_nm:gd|res:RC4|com-cf:nl|ptrs:na|ktp:N0|mc:22709|mtp:S|qry_typ:P|lang:en|wc:2|cs:8836|v=4,Pioneer Medical Devices,https://www.indiamart.com/pioneermedicaldevices/?pos=194&kwd=kid cup&tags=||||8601.347|Price|product|||TS|rsf:gd-|-stype:attr=1|qr_nm:gd|res:RC4|com-cf:nl|ptrs:na|ktp:N0|mc:22709|mtp:S|qry_typ:P|lang:en|wc:2|cs:8836|v=4,False,Rajasthan Police Academy,Jaipur,"Shop No. 41-42, Kalptaru Shopping Center, Rajasthan Police Academy, Jaipur - 302023, Dist.Jaipur, Rajasthan",8047674856,
"Plastic Kids Sipper Bottle, Capacity: 100 mL, Baby",https://www.indiamart.com/proddetail/kids-sipper-bottle-25573764630.html?pos=195&kwd=kid cup&tags=||||8221.041|Price|product|||TS|rsf:gd-|-stype:attr=1|qr_nm:gd|res:RC4|com-cf:nl|ptrs:na|ktp:N0|mc:22709|mtp:S|qry_typ:P|lang:en|wc:2|cs:8836|v=4,Rushabh Enterprise,https://www.indiamart.com/rushabh-enterprises-mulund/?pos=195&kwd=kid cup&tags=||||8221.041|Price|product|||TS|rsf:gd-|-stype:attr=1|qr_nm:gd|res:RC4|com-cf:nl|ptrs:na|ktp:N0|mc:22709|mtp:S|qry_typ:P|lang:en|wc:2|cs:8836|v=4,False,Mulund West,Mulund,"Flat No. B/703, Shankardhan Plaza, Mulund Bridge Mulund West, J. N. Road, Near Mehul Cinema, Mulund West, Mulund - 400080, Dist.Mumbai, Maharashtra",8048977953,
MOTHERCARE FEEDING BOTTLES,https://www.indiamart.com/proddetail/mothercare-feeding-bottles-2849914351388.html?pos=196&kwd=kid cup&tags=||||8740.707|Price|product|||TS|rsf:gd-|-stype:attr=1|qr_nm:gd|res:RC4|com-cf:nl|ptrs:na|ktp:N0|mc:22709|mtp:S|qry_typ:P|lang:en|wc:2|cs:8836|v=4,Arihant Solutions,https://www.indiamart.com/arihantsolutions/?pos=196&kwd=kid cup&tags=||||8740.707|Price|product|||TS|rsf:gd-|-stype:attr=1|qr_nm:gd|res:RC4|com-cf:nl|ptrs:na|ktp:N0|mc:22709|mtp:S|qry_typ:P|lang:en|wc:2|cs:8836|v=4,False,JLPL Industrial Area,Sas Nagar,"First Floor Plot No. 1250 JLPL, Sector 82, JLPL Industrial Area, Sas Nagar - 160055, Dist.Mohali, Punjab",8047645834,
"Kneaders Stainless Steel Baby Feeding Bottle, Capacity: 200 Ml, Size: 6 X 6 X 18 Cm",https://www.indiamart.com/proddetail/stainless-steel-baby-feeding-bottle-23187632155.html?pos=197&kwd=kid cup&tags=||||8223.226|Price|product|||TS|rsf:gd-|-stype:attr=1|qr_nm:gd|res:RC4|com-cf:nl|ptrs:na|ktp:N0|mc:22709|mtp:S|qry_typ:P|lang:en|wc:2|cs:8836|v=4,Tim Engineering,https://www.indiamart.com/timengineering-thane/?pos=197&kwd=kid cup&tags=||||8223.226|Price|product|||TS|rsf:gd-|-stype:attr=1|qr_nm:gd|res:RC4|com-cf:nl|ptrs:na|ktp:N0|mc:22709|mtp:S|qry_typ:P|lang:en|wc:2|cs:8836|v=4,False,Bhayandar West,Thane,"I-24, Swastik Ind.estate , Goddev Fatak Road, Bhayandar West, Thane - 401101, Dist.Thane, Maharashtra",8048954305,
"Blue Baby Sipper Bottle, 3-12 Months",https://www.indiamart.com/proddetail/baby-sipper-bottle-23510823512.html?pos=198&kwd=kid cup&tags=||||8752.144|Price|product|||TS|rsf:gd-|-stype:attr=1|qr_nm:gd|res:RC4|com-cf:nl|ptrs:na|ktp:N0|mc:22709|mtp:S|qry_typ:P|lang:en|wc:2|cs:8836|v=4,Bright Agencies,https://www.indiamart.com/bright-agenciesnewdelhi/?pos=198&kwd=kid cup&tags=||||8752.144|Price|product|||TS|rsf:gd-|-stype:attr=1|qr_nm:gd|res:RC4|com-cf:nl|ptrs:na|ktp:N0|mc:22709|mtp:S|qry_typ:P|lang:en|wc:2|cs:8836|v=4,False,Delhi Sadar Bazar,New Delhi,"120, 2 nd floor Sadar Bazar, Delhi Sadar Bazar, New Delhi - 110006, Dist.Delhi, Delhi",8047637041,
Medigold Nipple Shield,https://www.indiamart.com/proddetail/medigold-nipple-shield-25698811488.html?pos=199&kwd=kid cup&tags=||||8752.144|Price|product|||TS|rsf:gd-|-stype:attr=1|qr_nm:gd|res:RC4|com-cf:nl|ptrs:na|ktp:N0|mc:22709|mtp:S|qry_typ:P|lang:en|wc:2|cs:8836|v=4,JAS Enterprises,https://www.indiamart.com/jasenterprisesnewdelhi/?pos=199&kwd=kid cup&tags=||||8752.144|Price|product|||TS|rsf:gd-|-stype:attr=1|qr_nm:gd|res:RC4|com-cf:nl|ptrs:na|ktp:N0|mc:22709|mtp:S|qry_typ:P|lang:en|wc:2|cs:8836|v=4,False,Chandni Chowk,New Delhi,"1521-A Bhagirath Palace Chandni Chowk, Chandni Chowk, New Delhi - 110006, Dist.Delhi, Delhi",8047658253,
Silicon Nipple In Delhi,https://www.indiamart.com/proddetail/silicon-nipple-in-delhi-2852582021262.html?pos=200&kwd=kid cup&tags=||||8752.144|Price|product|||TS|rsf:gd-|-stype:attr=1|qr_nm:gd|res:RC4|com-cf:nl|ptrs:na|ktp:N0|mc:22709|mtp:S|qry_typ:P|lang:en|wc:2|cs:8836|v=4,H.M.Enterprises,https://www.indiamart.com/hmentps-delhi/?pos=200&kwd=kid cup&tags=||||8752.144|Price|product|||TS|rsf:gd-|-stype:attr=1|qr_nm:gd|res:RC4|com-cf:nl|ptrs:na|ktp:N0|mc:22709|mtp:S|qry_typ:P|lang:en|wc:2|cs:8836|v=4,False,Pahari Dhiraj,New Delhi,"Building No. 3, First Floor Sadar Thana Road,New Delhi, Pahari Dhiraj, New Delhi - 110006, Dist.Delhi, Delhi",7942541332,
Baby Silicone Nipple,https://www.indiamart.com/proddetail/baby-silicone-nipple-10789253097.html?pos=201&kwd=kid cup&tags=||||8211.142|Price|product|||TS|rsf:gd-|-stype:attr=1|qr_nm:gd|res:RC4|com-cf:nl|ptrs:na|ktp:N0|mc:22709|mtp:S|qry_typ:P|lang:en|wc:2|cs:8836|v=4,Adinath Engineering Co.,https://www.adinathengineering.com/?pos=201&kwd=kid cup&tags=||||8211.142|Price|product|||TS|rsf:gd-|-stype:attr=1|qr_nm:gd|res:RC4|com-cf:nl|ptrs:na|ktp:N0|mc:22709|mtp:S|qry_typ:P|lang:en|wc:2|cs:8836|v=4,False,Mulund West,Mumbai,"501, Tarangan Building, V. P. Road Mulund West, Mulund West, Mumbai - 400080, Dist.Mumbai, Maharashtra",8048966949,
"Transparent Plastic Baby Silicone Fruit Feeder, Capacity: 50 mL",https://www.indiamart.com/proddetail/baby-silicone-fruit-feeder-2849319154133.html?pos=202&kwd=kid cup&tags=||||8752.144|Price|product|||TS|rsf:gd-|-stype:attr=1|qr_nm:gd|res:RC4|com-cf:nl|ptrs:na|ktp:N0|mc:22709|mtp:S|qry_typ:P|lang:en|wc:2|cs:8836|v=4,ISHANI ENTERPRISES,https://www.indiamart.com/ishanientps/?pos=202&kwd=kid cup&tags=||||8752.144|Price|product|||TS|rsf:gd-|-stype:attr=1|qr_nm:gd|res:RC4|com-cf:nl|ptrs:na|ktp:N0|mc:22709|mtp:S|qry_typ:P|lang:en|wc:2|cs:8836|v=4,False,Sultanpuri,New Delhi,"L-158, Gali Number 7, Sultanpuri, New Delhi - 110086, Dist.Delhi, Delhi",8048613762,
Transparent Water Sipper For Kid,,Khushi Plast,https://www.indiamart.com/khushiplastahmedabad/?pos=203&kwd=kid cup&tags=||||8228.275|Price|product|||TS|rsf:gd-|-stype:attr=1|qr_nm:gd|res:RC4|com-cf:nl|ptrs:na|ktp:N0|mc:22709|mtp:S|qry_typ:P|lang:en|wc:2|cs:8836|v=4,False,Saraspur,Ahmedabad,"NR.City Gold Cinema, A/73, Pushpraj Industrial Estate, Nutan Mill Compond, Saraspur, Saraspur, Ahmedabad - 380018, Dist.Ahmedabad, Gujarat",8043843902,
Stainless Steel Feeding Bottle,,ARN Designs,https://www.indiamart.com/arn-designs/?pos=204&kwd=kid cup&tags=||||8915.672|Price|product|||TS|rsf:gd-|-stype:attr=1|qr_nm:gd|res:RC4|com-cf:nl|ptrs:na|ktp:N0|mc:22709|mtp:S|qry_typ:P|lang:en|wc:2|cs:8836|v=4,False,Colony,Moradabad,"C/O Nadeem Ahmed Khan, Near Railway Line Opposite Ekta Vihar South, MDA Colony Near Power House Rampur Road, Colony, Moradabad - 244001, Dist.Moradabad, Uttar Pradesh",7949091965,
Piyu Round Small Plastic Feeding Bottles,https://www.indiamart.com/proddetail/round-small-plastic-feeding-bottles-10925183162.html?pos=205&kwd=kid cup&tags=||||8211.142|Price|product|||TS|rsf:gd-|-stype:attr=1|qr_nm:gd|res:RC4|com-cf:nl|ptrs:na|ktp:N0|mc:22709|mtp:S|qry_typ:P|lang:en|wc:2|cs:8836|v=4,Nutan Plastic Works,https://www.nutanplasticworks.net/?pos=205&kwd=kid cup&tags=||||8211.142|Price|product|||TS|rsf:gd-|-stype:attr=1|qr_nm:gd|res:RC4|com-cf:nl|ptrs:na|ktp:N0|mc:22709|mtp:S|qry_typ:P|lang:en|wc:2|cs:8836|v=4,False,Andheri East,Mumbai,"Gala No. 6, New Nandu Industrial Estate Mahakali Caves Road, Andheri East, Andheri East, Mumbai - 400093, Dist.Mumbai, Maharashtra",8048958736,
Silicone Nipple Shield,https://www.indiamart.com/proddetail/silicone-nipple-shield-25569663088.html?pos=206&kwd=kid cup&tags=||||8500.97|Price|product|||TS|rsf:gd-|-stype:attr=1|qr_nm:gd|res:RC4|com-cf:nl|ptrs:na|ktp:N0|mc:22709|mtp:S|qry_typ:P|lang:en|wc:2|cs:8836|v=4,Arambans Exporters Private Limited,https://www.indiamart.com/arambansexporters/?pos=206&kwd=kid cup&tags=||||8500.97|Price|product|||TS|rsf:gd-|-stype:attr=1|qr_nm:gd|res:RC4|com-cf:nl|ptrs:na|ktp:N0|mc:22709|mtp:S|qry_typ:P|lang:en|wc:2|cs:8836|v=4,False,Kuriachira,Thrissur,"Attokaran, TT Road, Kuriachira PO, Kuriachira, Thrissur - 680006, Dist.Thrissur, Kerala",8046058355,
Bonne Liquid Silicone Nipple,https://www.indiamart.com/proddetail/liquid-silicone-nipple-20555314630.html?pos=207&kwd=kid cup&tags=||||8752.144|Price|product|||TS|rsf:gd-|-stype:attr=1|qr_nm:gd|res:RC4|com-cf:nl|ptrs:na|ktp:N0|mc:22709|mtp:S|qry_typ:P|lang:en|wc:2|cs:8836|v=4,Bhatia & Sons,https://www.indiamart.com/bhatia-sons/?pos=207&kwd=kid cup&tags=||||8752.144|Price|product|||TS|rsf:gd-|-stype:attr=1|qr_nm:gd|res:RC4|com-cf:nl|ptrs:na|ktp:N0|mc:22709|mtp:S|qry_typ:P|lang:en|wc:2|cs:8836|v=4,False,Baratooti,New Delhi,"5439 A, New Market, Sadar Bazar, Baratooti, New Delhi - 110006, Dist.Delhi, Delhi",8048265479,
KIDS FEEDER ELECTRIC BOTTLE,https://www.indiamart.com/proddetail/kids-feeder-electric-bottle-2855001629491.html?pos=208&kwd=kid cup&tags=||||8752.144|Price|product|||TS|rsf:gd-|-stype:attr=1|qr_nm:gd|res:RC4|com-cf:nl|ptrs:na|ktp:N0|mc:22709|mtp:S|qry_typ:P|lang:en|wc:2|cs:8836|v=4,Sabse Sasta Store,https://www.indiamart.com/sabsesastastorenewdelhi/?pos=208&kwd=kid cup&tags=||||8752.144|Price|product|||TS|rsf:gd-|-stype:attr=1|qr_nm:gd|res:RC4|com-cf:nl|ptrs:na|ktp:N0|mc:22709|mtp:S|qry_typ:P|lang:en|wc:2|cs:8836|v=4,False,North West,New Delhi,"Ground Floor, BLK-C, House No.2/1, Village Mohamadpur Mazri, Near Main Kanjhawala, Rama Vihar, North West, New Delhi - 110081, Dist.Delhi, Delhi",7942721280,
"Baby Medicine Dispenser/Feeder/Dropper for Newborn/Infant/Toddlers Upto 3 Years, BPA Free",https://www.indiamart.com/proddetail/baby-medicine-dispenser-feeder-dropper-for-newborn-infant-toddlers-upto-3-years-bpa-free-26324380433.html?pos=209&kwd=kid cup&tags=||||8230.331|Price|product|||TS|rsf:gd-|-stype:attr=1|qr_nm:gd|res:RC4|com-cf:nl|ptrs:na|ktp:N0|mc:22709|mtp:S|qry_typ:P|lang:en|wc:2|cs:8836|v=4,Zexmon,https://www.indiamart.com/boniry/?pos=209&kwd=kid cup&tags=||||8230.331|Price|product|||TS|rsf:gd-|-stype:attr=1|qr_nm:gd|res:RC4|com-cf:nl|ptrs:na|ktp:N0|mc:22709|mtp:S|qry_typ:P|lang:en|wc:2|cs:8836|v=4,False,Chadotar,Palanpur,"s No. 454 P 1 Bin Kheti Milkat No 2789/2 Patravalo Shed Gam Chadotar Akesan Road, Chadotar, Palanpur - 385001, Dist.Banaskantha, Gujarat",8048979536,
"Green Disney Baby Bottle, Age Group: 1-2 Years, Size: 600",https://www.indiamart.com/proddetail/disney-baby-bottle-26311358562.html?pos=210&kwd=kid cup&tags=||||8228.275|Price|product|||TS|rsf:gd-|-stype:attr=1|qr_nm:gd|res:RC4|com-cf:nl|ptrs:na|ktp:N0|mc:22709|mtp:S|qry_typ:P|lang:en|wc:2|cs:8836|v=4,Gopinath Plast,https://www.gopinathplastic.com/?pos=210&kwd=kid cup&tags=||||8228.275|Price|product|||TS|rsf:gd-|-stype:attr=1|qr_nm:gd|res:RC4|com-cf:nl|ptrs:na|ktp:N0|mc:22709|mtp:S|qry_typ:P|lang:en|wc:2|cs:8836|v=4,False,Odhav,Ahmedabad,"A-19, Gopal Estate, Opposite Valabh Nagar, Odhav, Ahmedabad - 382415, Dist.Ahmedabad, Gujarat",8046079187,
