product_title,product_link,company_name,company_link,is_verified_exporter,city_region,city,address_details,phone_number,phone_number_extension
Ladies Maternity Kurtis,https://www.indiamart.com/proddetail/ladies-maternity-kurtis-2854258268597.html?pos=1&kwd=maternity tops&tags=A||||8601.347|Price|product|||TS|rsf:gd-|-stype:attr=1|qr_nm:gd|res:RC3|com-cf:nl|ptrs:na|ktp:N0|mc:31797|mtp:S|qry_typ:P|lang:en|wc:2|flavl:0|cs:9605|v=4,Pooja Trends,https://www.indiamart.com/poojatrends-jaipur/?pos=1&kwd=maternity tops&tags=A||||8601.347|Price|product|||TS|rsf:gd-|-stype:attr=1|qr_nm:gd|res:RC3|com-cf:nl|ptrs:na|ktp:N0|mc:31797|mtp:S|qry_typ:P|lang:en|wc:2|flavl:0|cs:9605|v=4,False,Sanganer Jaipur,Jaipur,"Nk Tower , Shop no. 3 Nagar Nigam Road, Sanganer Jaipur, Jaipur - 302029, Dist.Jaipur, Rajasthan",8048211271,
"Maroon Embroidered Maternity Tops, Sleeves: Half",https://www.indiamart.com/proddetail/embroidered-maternity-tops-2851117507773.html?pos=2&kwd=maternity tops&tags=BA||||8601.347|Price|product|||TS|rsf:gd-|-stype:attr=1|qr_nm:gd|res:RC3|com-cf:nl|ptrs:na|ktp:N0|mc:31797|mtp:S|qry_typ:P|lang:en|wc:2|flavl:0|cs:9605|v=4,Hkf Jaipur Industries Private Limited,https://www.hkfjaipurindustries.com/?pos=2&kwd=maternity tops&tags=BA||||8601.347|Price|product|||TS|rsf:gd-|-stype:attr=1|qr_nm:gd|res:RC3|com-cf:nl|ptrs:na|ktp:N0|mc:31797|mtp:S|qry_typ:P|lang:en|wc:2|flavl:0|cs:9605|v=4,False,Sanganer Shri Rampura,Jaipur,"PLOT NO. 72, 1ST FLOOR, GOPI NAGAR, RAILWAY STATION ROAD,, Sanganer Shri Rampura, Jaipur - 302029, Dist.Jaipur, Rajasthan",8047674124,
Printed Pink Cotton Maternity Nightgown,https://www.indiamart.com/proddetail/pink-cotton-maternity-nightgown-27130123862.html?pos=3&kwd=maternity tops&tags=BA||||8601.347|Price|product|||TS|rsf:gd-|-stype:attr=1|qr_nm:gd|res:RC3|com-cf:nl|ptrs:na|ktp:N0|mc:31797|mtp:S|qry_typ:P|lang:en|wc:2|flavl:0|cs:9605|v=4,Namokar Enterprises,https://www.indiamart.com/namokarenterprises/?pos=3&kwd=maternity tops&tags=BA||||8601.347|Price|product|||TS|rsf:gd-|-stype:attr=1|qr_nm:gd|res:RC3|com-cf:nl|ptrs:na|ktp:N0|mc:31797|mtp:S|qry_typ:P|lang:en|wc:2|flavl:0|cs:9605|v=4,False,Mansarovar,Jaipur,"119/67, Thadi Market, Agarwal Farm, Mansarovar, Mansarovar, Jaipur - 302020, Dist.Jaipur, Rajasthan",8047530717,
FIROZI Maternity Tops,https://www.indiamart.com/proddetail/maternity-tops-10715912830.html?pos=4&kwd=maternity tops&tags=BA||||8601.347|Price|product|||TS|rsf:gd-|-stype:attr=1|qr_nm:gd|res:RC3|com-cf:nl|ptrs:na|ktp:N0|mc:31797|mtp:S|qry_typ:P|lang:en|wc:2|flavl:0|cs:9605|v=4,Jaipuri Bandhej,https://www.jaipuribandhej.net/?pos=4&kwd=maternity tops&tags=BA||||8601.347|Price|product|||TS|rsf:gd-|-stype:attr=1|qr_nm:gd|res:RC3|com-cf:nl|ptrs:na|ktp:N0|mc:31797|mtp:S|qry_typ:P|lang:en|wc:2|flavl:0|cs:9605|v=4,False,Vidhyadhar Nagar,Jaipur,"Laxmi Niwas, 42-A, Hans Vatika Naya Khera, Vidhyadhar Nagar, Vidhyadhar Nagar, Jaipur - 302039, Dist.Jaipur, Rajasthan",8048619795,
Printed Maternity Tops,https://www.indiamart.com/proddetail/printed-maternity-tops-2852784416191.html?pos=5&kwd=maternity tops&tags=BA||||8223.226|Price|product|||TS|rsf:gd-|-stype:attr=1|qr_nm:gd|res:RC3|com-cf:nl|ptrs:na|ktp:N0|mc:31797|mtp:S|qry_typ:P|lang:en|wc:2|flavl:0|cs:9605|v=4,M/S Beauty Fashion Textile,https://www.indiamart.com/ms-beauty-fashion-textile/?pos=5&kwd=maternity tops&tags=BA||||8223.226|Price|product|||TS|rsf:gd-|-stype:attr=1|qr_nm:gd|res:RC3|com-cf:nl|ptrs:na|ktp:N0|mc:31797|mtp:S|qry_typ:P|lang:en|wc:2|flavl:0|cs:9605|v=4,False,Thane West,Thane,"Gala C/216, 2nd Floor, Paresh Complex, Pipeline Naka, Kalher, Thane West, Thane - 421302, Dist.Thane, Maharashtra",8047634233,
Rayon Printed Feeding Kurti,https://www.indiamart.com/proddetail/rayon-printed-feeding-kurti-2848978016848.html?pos=6&kwd=maternity tops&tags=BA||||8601.347|Price|product|||TS|rsf:gd-|-stype:attr=1|qr_nm:gd|res:RC3|com-cf:nl|ptrs:na|ktp:N0|mc:31797|mtp:S|qry_typ:P|lang:en|wc:2|flavl:0|cs:9605|v=4,Vinayak Enterprises,https://www.vinayakenterprisesindia.com/?pos=6&kwd=maternity tops&tags=BA||||8601.347|Price|product|||TS|rsf:gd-|-stype:attr=1|qr_nm:gd|res:RC3|com-cf:nl|ptrs:na|ktp:N0|mc:31797|mtp:S|qry_typ:P|lang:en|wc:2|flavl:0|cs:9605|v=4,True,Vistar,Jaipur,"Vinayak Enterprises, B-61, Barkat Nagar Vistar, Near Arjun Nagar Underpass, Vistar, Jaipur - 302031, Dist.Jaipur, Rajasthan",8047652854,
Pregnant Ladies Feeding Tops,https://www.indiamart.com/proddetail/pregnant-ladies-feeding-tops-2853916095930.html?pos=7&kwd=maternity tops&tags=BA||||8609.232|Price|product|||TS|rsf:gd-|-stype:attr=1|qr_nm:gd|res:RC3|com-cf:nl|ptrs:na|ktp:N0|mc:31797|mtp:S|qry_typ:P|lang:en|wc:2|flavl:0|cs:9605|v=4,Babumills,https://www.babumills.in/?pos=7&kwd=maternity tops&tags=BA||||8609.232|Price|product|||TS|rsf:gd-|-stype:attr=1|qr_nm:gd|res:RC3|com-cf:nl|ptrs:na|ktp:N0|mc:31797|mtp:S|qry_typ:P|lang:en|wc:2|flavl:0|cs:9605|v=4,False,SOMANUR,Karumathampatti,"3/396, Kozhippannai, Kombakattupudur, Itchippatti, SOMANUR, Karumathampatti - 641668, Dist.Coimbatore, Tamil Nadu",8046054857,
Feeding Tops,https://www.indiamart.com/proddetail/feeding-tops-2852391974988.html?pos=8&kwd=maternity tops&tags=BA||||8228.275|Price|product|||MDC|rsf:gd-|-stype:attr=1|qr_nm:gd|res:RC3|com-cf:nl|ptrs:na|ktp:N0|mc:31797|mtp:S|qry_typ:P|lang:en|wc:2|flavl:0|cs:9605|v=4,Karan Fab,https://www.indiamart.com/hellopartner/?pos=8&kwd=maternity tops&tags=BA||||8228.275|Price|product|||MDC|rsf:gd-|-stype:attr=1|qr_nm:gd|res:RC3|com-cf:nl|ptrs:na|ktp:N0|mc:31797|mtp:S|qry_typ:P|lang:en|wc:2|flavl:0|cs:9605|v=4,False,Panchkuva,Ahmedabad,"SHOP NO.468/3,SAKAR BAZAR,Opp maskati market GATE NO.3,NR.KOTAK MAHINDRA BANK,, Panchkuva, Ahmedabad - 380002, Dist.Ahmedabad, Gujarat",8048605993,
Ladies Feeding Tops,https://www.indiamart.com/proddetail/ladies-feeding-tops-2854639558897.html?pos=9&kwd=maternity tops&tags=BA||||8663.873|Price|product|||MDC|rsf:gd-|-stype:attr=1|qr_nm:gd|res:RC3|com-cf:nl|ptrs:na|ktp:N0|mc:31797|mtp:S|qry_typ:P|lang:en|wc:2|flavl:0|cs:9605|v=4,Sri Suswani Creations,https://www.indiamart.com/srisuswanicreations/?pos=9&kwd=maternity tops&tags=BA||||8663.873|Price|product|||MDC|rsf:gd-|-stype:attr=1|qr_nm:gd|res:RC3|com-cf:nl|ptrs:na|ktp:N0|mc:31797|mtp:S|qry_typ:P|lang:en|wc:2|flavl:0|cs:9605|v=4,False,Bengaluru Urban,Bengaluru,"Ground Floor, Part A, 44, MH Plaza, Mamulpet,, Bengaluru Urban, Bengaluru - 560053, Dist.Bengaluru, Karnataka",7949327781,
Maternity Tops,https://www.indiamart.com/proddetail/maternity-tops-2853206926130.html?pos=10&kwd=maternity tops&tags=BA||||8626.744|Price|product|||MDC|rsf:gd-|-stype:attr=1|qr_nm:gd|res:RC3|com-cf:nl|ptrs:na|ktp:N0|mc:31797|mtp:S|qry_typ:P|lang:en|wc:2|flavl:0|cs:9605|v=4,Elshada Clothing,https://www.indiamart.com/elshada-clothing-tiruppur/?pos=10&kwd=maternity tops&tags=BA||||8626.744|Price|product|||MDC|rsf:gd-|-stype:attr=1|qr_nm:gd|res:RC3|com-cf:nl|ptrs:na|ktp:N0|mc:31797|mtp:S|qry_typ:P|lang:en|wc:2|flavl:0|cs:9605|v=4,False,Padmavathi Puram,Tiruppur,"105A Ashar Mill Labour Colony, Padmavathipuram, Padmavathi Puram, Tiruppur - 641603, Dist.Coimbatore, Tamil Nadu",7942720305,
Maternity short top,https://www.indiamart.com/proddetail/maternity-short-top-2854893297930.html?pos=11&kwd=maternity tops&tags=BA||||8601.347|Price|product|||MDC|rsf:gd-|-stype:attr=1|qr_nm:gd|res:RC3|com-cf:nl|ptrs:na|ktp:N0|mc:31797|mtp:S|qry_typ:P|lang:en|wc:2|flavl:0|cs:9605|v=4,Runway Enterprises,https://www.indiamart.com/runwayenterprises/?pos=11&kwd=maternity tops&tags=BA||||8601.347|Price|product|||MDC|rsf:gd-|-stype:attr=1|qr_nm:gd|res:RC3|com-cf:nl|ptrs:na|ktp:N0|mc:31797|mtp:S|qry_typ:P|lang:en|wc:2|flavl:0|cs:9605|v=4,False,Jamna Puri,Jaipur,"Plot No 133, Benar Road, Scheme Shri Jorawar Nagar,, Jamna Puri, Jaipur - 302039, Dist.Jaipur, Rajasthan",7942718276,
Women Maternity Crepe Top,https://www.indiamart.com/proddetail/women-maternity-crepe-top-2853701165330.html?pos=12&kwd=maternity tops&tags=BA||||8752.144|Price|product|||MDC|rsf:gd-|-stype:attr=1|qr_nm:gd|res:RC3|com-cf:nl|ptrs:na|ktp:N0|mc:31797|mtp:S|qry_typ:P|lang:en|wc:2|flavl:0|cs:9605|v=4,Ekaavali,https://www.indiamart.com/ekaavali/?pos=12&kwd=maternity tops&tags=BA||||8752.144|Price|product|||MDC|rsf:gd-|-stype:attr=1|qr_nm:gd|res:RC3|com-cf:nl|ptrs:na|ktp:N0|mc:31797|mtp:S|qry_typ:P|lang:en|wc:2|flavl:0|cs:9605|v=4,False,Palam,New Delhi,"Flat No-263, Excellence Apartments, Sector 18A, Dwarka, Palam, New Delhi - 110075, Dist.Delhi, Delhi",7949095107,
Women Printed Maternity Top,https://www.indiamart.com/proddetail/women-printed-maternity-top-2852762254291.html?pos=13&kwd=maternity tops&tags=BA||||8601.347|Price|product|||MDC|rsf:gd-|-stype:attr=1|qr_nm:gd|res:RC3|com-cf:nl|ptrs:na|ktp:N0|mc:31797|mtp:S|qry_typ:P|lang:en|wc:2|flavl:0|cs:9605|v=4,Sheffali,https://www.indiamart.com/sheffali/?pos=13&kwd=maternity tops&tags=BA||||8601.347|Price|product|||MDC|rsf:gd-|-stype:attr=1|qr_nm:gd|res:RC3|com-cf:nl|ptrs:na|ktp:N0|mc:31797|mtp:S|qry_typ:P|lang:en|wc:2|flavl:0|cs:9605|v=4,False,Ajmer Road,Jaipur,"C-61, Opp. Kabra Eye Hospital, Jamna Nagar, Sodala, Ajmer Road, Jaipur - 302006, Dist.Jaipur, Rajasthan",7942720926,
"Pink,Blue Women Cotton Printed Maternity & Feeding Top & Pyjama Set 2239, Size: Free Size",https://www.indiamart.com/proddetail/women-cotton-printed-maternity-feeding-top-pyjama-set-2239-2849610842112.html?pos=14&kwd=maternity tops&tags=BA||||8211.142|Price|product|||MDC|rsf:gd-|-stype:attr=1|qr_nm:gd|res:RC3|com-cf:nl|ptrs:na|ktp:N0|mc:31797|mtp:S|qry_typ:P|lang:en|wc:2|flavl:0|cs:9605|v=4,Sarvodaya,https://www.indiamart.com/sarvodayamumbai/?pos=14&kwd=maternity tops&tags=BA||||8211.142|Price|product|||MDC|rsf:gd-|-stype:attr=1|qr_nm:gd|res:RC3|com-cf:nl|ptrs:na|ktp:N0|mc:31797|mtp:S|qry_typ:P|lang:en|wc:2|flavl:0|cs:9605|v=4,False,Kandivali West,Mumbai,"305, Shree Nikunj Bldg. No. 2, Off. S. V. Road, Mumbai Suburban, Kandivali West, Mumbai - 400067, Dist.Mumbai, Maharashtra",7942793851,
Mamta Half Sleeve Two Tone Rayon Printed Feeding Kurti,https://www.indiamart.com/proddetail/mamta-half-sleeve-two-tone-rayon-printed-feeding-kurti-2853323369212.html?pos=15&kwd=maternity tops&tags=BA||||8228.275|Price|product|||MDC|rsf:gd-|-stype:attr=1|qr_nm:gd|res:RC3|com-cf:nl|ptrs:na|ktp:N0|mc:31797|mtp:S|qry_typ:P|lang:en|wc:2|cs:8842|v=4,Tarun Prints,https://www.indiamart.com/tarunprints/?pos=15&kwd=maternity tops&tags=BA||||8228.275|Price|product|||MDC|rsf:gd-|-stype:attr=1|qr_nm:gd|res:RC3|com-cf:nl|ptrs:na|ktp:N0|mc:31797|mtp:S|qry_typ:P|lang:en|wc:2|cs:8842|v=4,False,Saraspur,Ahmedabad,"D/115, City Centre, Nr. Idghah gate, Nr. Girdharnagar Bridge, Asarwa, Saraspur, Ahmedabad - 380016, Dist.Ahmedabad, Gujarat",7949222397,
"Maternity Feeding Kurti, Sleeves: Ankel",https://www.indiamart.com/proddetail/maternity-feeding-kurti-2850385612697.html?pos=16&kwd=maternity tops&tags=BA||||8601.347|Price|product|||TS|rsf:gd-|-stype:attr=1|qr_nm:gd|res:RC3|com-cf:nl|ptrs:na|ktp:N0|mc:31797|mtp:S|qry_typ:P|lang:en|wc:2|cs:8842|v=4,Kartavya,https://www.kurtisupplier.com/?pos=16&kwd=maternity tops&tags=BA||||8601.347|Price|product|||TS|rsf:gd-|-stype:attr=1|qr_nm:gd|res:RC3|com-cf:nl|ptrs:na|ktp:N0|mc:31797|mtp:S|qry_typ:P|lang:en|wc:2|cs:8842|v=4,False,Sanganer,Jaipur,"15, Adarsh Basti, Market Road, Sanganer, Jaipur - 302015, Dist.Jaipur, Rajasthan",8043858523,
Maternity Feeding Night Dresses,https://www.indiamart.com/proddetail/maternity-feeding-night-dresses-25192432248.html?pos=17&kwd=maternity tops&tags=BA||||8230.883|Price|product|||TS|rsf:gd-|-stype:attr=1|qr_nm:gd|res:RC3|com-cf:nl|ptrs:na|ktp:N0|mc:31797|mtp:S|qry_typ:P|lang:en|wc:2|cs:8842|v=4,Fashion Hub,https://www.indiamart.com/fashionhub-gujarat/?pos=17&kwd=maternity tops&tags=BA||||8230.883|Price|product|||TS|rsf:gd-|-stype:attr=1|qr_nm:gd|res:RC3|com-cf:nl|ptrs:na|ktp:N0|mc:31797|mtp:S|qry_typ:P|lang:en|wc:2|cs:8842|v=4,False,Mota Varachha,Surat,"E-104,,Shrinidhi Residency,,Nr. Sudama Chowk,,Mota Varachha,, Mota Varachha, Surat - 394101, Dist.Surat, Gujarat",8048956108,
Nursing Cover for Breastfeeding,https://www.indiamart.com/proddetail/nursing-cover-for-breastfeeding-11812996788.html?pos=18&kwd=maternity tops&tags=BA||||8778.123|Price|product|||TS|rsf:gd-|-stype:attr=1|qr_nm:gd|res:RC3|com-cf:nl|ptrs:na|ktp:N0|mc:31797|mtp:S|qry_typ:P|lang:en|wc:2|cs:8842|v=4,Oscar Overseas,https://www.oscar-india.com/?pos=18&kwd=maternity tops&tags=BA||||8778.123|Price|product|||TS|rsf:gd-|-stype:attr=1|qr_nm:gd|res:RC3|com-cf:nl|ptrs:na|ktp:N0|mc:31797|mtp:S|qry_typ:P|lang:en|wc:2|cs:8842|v=4,False,,Noida,"A-99 Sector 5, Noida - 201301, Dist.Gautam Budh Nagar, Uttar Pradesh",8046058290,
Maternity Tops,https://www.indiamart.com/proddetail/maternity-tops-2854877912312.html?pos=19&kwd=maternity tops&tags=BA||||8626.744|Price|product|||NA|rsf:gd-|-stype:attr=1|qr_nm:gd|res:RC3|com-cf:nl|ptrs:na|ktp:N0|mc:31797|mtp:S|qry_typ:P|lang:en|wc:2|cs:8842|v=4,Pechiamman Fabs,https://www.indiamart.com/pechiamman-fabs/?pos=19&kwd=maternity tops&tags=BA||||8626.744|Price|product|||NA|rsf:gd-|-stype:attr=1|qr_nm:gd|res:RC3|com-cf:nl|ptrs:na|ktp:N0|mc:31797|mtp:S|qry_typ:P|lang:en|wc:2|cs:8842|v=4,False,T.N.K Puram,Tiruppur,"2/2, T.N.K Puram, Madhya Veedhi, Government Middle School, Thiru Neelakanda Puram, T.N.K Puram, Tiruppur - 641607, Dist.Coimbatore, Tamil Nadu",7942965923,
Maternity Tops,https://www.indiamart.com/proddetail/maternity-tops-25946915655.html?pos=20&kwd=maternity tops&tags=BB||||8601.347|Price|product|||NA|rsf:gd-|-stype:attr=1|qr_nm:gd|res:RC3|com-cf:nl|ptrs:na|ktp:N0|mc:31797|mtp:S|qry_typ:P|lang:en|wc:2|cs:8842|v=4,Purvansh Enterprises,https://www.indiamart.com/purvanshenterprises/?pos=20&kwd=maternity tops&tags=BB||||8601.347|Price|product|||NA|rsf:gd-|-stype:attr=1|qr_nm:gd|res:RC3|com-cf:nl|ptrs:na|ktp:N0|mc:31797|mtp:S|qry_typ:P|lang:en|wc:2|cs:8842|v=4,False,,Jaipur,"Plot No. 17, Balaji Vihar 2, Govindpura, Kalwar Road, Jaipur - 302012, Dist.Jaipur, Rajasthan",7942564962,
Maternity Photoshoot Outfit,https://www.indiamart.com/proddetail/maternity-photoshoot-outfit-2854723417191.html?pos=21&kwd=maternity tops&tags=BB||||9045.955|Price|product|||NA|rsf:gd-|-stype:attr=1|qr_nm:gd|res:RC3|com-cf:nl|ptrs:na|ktp:N0|mc:31797|mtp:S|qry_typ:P|lang:en|wc:2|cs:8842|v=4,Wedress Fashion Private Limited,https://www.indiamart.com/company/188020363/?pos=21&kwd=maternity tops&tags=BB||||9045.955|Price|product|||NA|rsf:gd-|-stype:attr=1|qr_nm:gd|res:RC3|com-cf:nl|ptrs:na|ktp:N0|mc:31797|mtp:S|qry_typ:P|lang:en|wc:2|cs:8842|v=4,False,,Kanpur,"Shop No 05 Ppn Market Gopala Chambers, Kanpur - 208001, Uttar Pradesh",8048249781,2516
"Yellow Maternity Feeding Kurti, Size: XL",https://www.indiamart.com/proddetail/maternity-feeding-kurti-2849539869312.html?pos=22&kwd=maternity tops&tags=BB||||9814.149|Price|product|||NA|rsf:gd-|-stype:attr=1|qr_nm:gd|res:RC3|com-cf:nl|ptrs:na|ktp:N0|mc:31797|mtp:S|qry_typ:P|lang:en|wc:2|cs:8842|v=4,SK Garment,https://www.indiamart.com/sk-garment-karari/?pos=22&kwd=maternity tops&tags=BB||||9814.149|Price|product|||NA|rsf:gd-|-stype:attr=1|qr_nm:gd|res:RC3|com-cf:nl|ptrs:na|ktp:N0|mc:31797|mtp:S|qry_typ:P|lang:en|wc:2|cs:8842|v=4,False,,Chaspara,"Mofijuddin Biswas Para, Chaspara, Malda, Chaspara - 732206, Dist.Malda, West Bengal",7942791369,
"Khaki Goldstroms Womens Striped Maternity Top, Size: M TO 2XL, Sleeves: Short Sleeves",https://www.indiamart.com/proddetail/goldstroms-womens-striped-maternity-top-25004344562.html?pos=23&kwd=maternity tops&tags=BB||||8663.873|Price|product|||NA|rsf:gd-|-stype:attr=1|qr_nm:gd|res:RC3|com-cf:nl|ptrs:na|ktp:N0|mc:31797|mtp:S|qry_typ:P|lang:en|wc:2|cs:8842|v=4,Shubh Shri Clothing India,https://www.indiamart.com/shubh-shri-clothing-india/?pos=23&kwd=maternity tops&tags=BB||||8663.873|Price|product|||NA|rsf:gd-|-stype:attr=1|qr_nm:gd|res:RC3|com-cf:nl|ptrs:na|ktp:N0|mc:31797|mtp:S|qry_typ:P|lang:en|wc:2|cs:8842|v=4,False,Binnipete,Bengaluru,"78/20, 8th Cross Shankarappa Garden, Magadi Road Near Metro Station, Binnipete, Bengaluru - 560023, Dist.Bengaluru, Karnataka",8062245075,672
Maternity Tops,,Harihar Sahu Exports India Private Limited,https://www.indiamart.com/thehariharsahugroup/?pos=24&kwd=maternity tops&tags=BB||||8752.144|Price|product|||NA|rsf:gd-|-stype:attr=1|qr_nm:gd|res:RC3|com-cf:nl|ptrs:na|ktp:N0|mc:31797|mtp:S|qry_typ:P|lang:en|wc:2|cs:8842|v=4,False,,New Delhi,"Tughalakabad, 80/10, South Extension Part 1, New Delhi - 110049, Dist.Delhi, Delhi",8069264894,103
Blue Chiffon Maternity Top,https://www.indiamart.com/proddetail/blue-chiffon-maternity-top-13121324148.html?pos=25&kwd=maternity tops&tags=BB||||8663.873||product|||NA|rsf:gd-|-stype:attr=1|qr_nm:gd|res:RC3|com-cf:nl|ptrs:na|ktp:N0|mc:31797|mtp:S|qry_typ:P|lang:en|wc:2|cs:8842|v=4,Yashram Lifestyle Brands Private Limited,https://www.indiamart.com/yashramlifestyle-ltd/?pos=25&kwd=maternity tops&tags=BB||||8663.873||product|||NA|rsf:gd-|-stype:attr=1|qr_nm:gd|res:RC3|com-cf:nl|ptrs:na|ktp:N0|mc:31797|mtp:S|qry_typ:P|lang:en|wc:2|cs:8842|v=4,False,JP Nagar,Bengaluru,"No. 542, 9th Cross, 3 Phase, JP Nagar, Bengaluru - 560078, Dist.Bengaluru, Karnataka",8048372105,296
Printed V Neck Maternity Top,https://www.indiamart.com/proddetail/printed-v-neck-maternity-top-2851501462048.html?pos=26&kwd=maternity tops&tags=BA||||8778.123|Price|product|||NA|rsf:gd-|-stype:attr=1|qr_nm:gd|res:RC3|com-cf:nl|ptrs:na|ktp:N0|mc:31797|mtp:S|qry_typ:P|lang:en|wc:2|cs:8842|v=4,Angloindu Fashion Private Limited,https://www.indiamart.com/angloindufashion/?pos=26&kwd=maternity tops&tags=BA||||8778.123|Price|product|||NA|rsf:gd-|-stype:attr=1|qr_nm:gd|res:RC3|com-cf:nl|ptrs:na|ktp:N0|mc:31797|mtp:S|qry_typ:P|lang:en|wc:2|cs:8842|v=4,False,,Noida,"Ground Floor F-69 Sector-41, Noida - 201303, Dist.Gautam Budh Nagar, Uttar Pradesh",7942830126,
"Multicolor Feeding Tops, Size: XXL, Sleeves: Full Sleeve",https://www.indiamart.com/proddetail/feeding-tops-25383523397.html?pos=27&kwd=maternity tops&tags=BB||||8706.587|Price|product|||NA|rsf:gd-|-stype:attr=1|qr_nm:gd|res:RC3|com-cf:nl|ptrs:na|ktp:N0|mc:31797|mtp:S|qry_typ:P|lang:en|wc:2|cs:8842|v=4,Thirumayil Nighties,https://www.indiamart.com/thirumayil-nighties/?pos=27&kwd=maternity tops&tags=BB||||8706.587|Price|product|||NA|rsf:gd-|-stype:attr=1|qr_nm:gd|res:RC3|com-cf:nl|ptrs:na|ktp:N0|mc:31797|mtp:S|qry_typ:P|lang:en|wc:2|cs:8842|v=4,False,,Madurai,"41-A, First Floor, Mahal, 1st Street, Madurai - 625001, Dist.Madurai, Tamil Nadu",8047303601,
Ladies Breastfeeding Maternity Nursing Top,https://www.indiamart.com/proddetail/ladies-breastfeeding-maternity-nursing-top-2854951378155.html?pos=28&kwd=maternity tops&tags=BB||||8601.347|Price|product|||NA|rsf:gd-|-stype:attr=1|qr_nm:gd|res:RC3|com-cf:nl|ptrs:na|ktp:N0|mc:31797|mtp:S|qry_typ:P|lang:en|wc:2|cs:8842|v=4,Shreeja India,https://www.indiamart.com/shreeja-india/?pos=28&kwd=maternity tops&tags=BB||||8601.347|Price|product|||NA|rsf:gd-|-stype:attr=1|qr_nm:gd|res:RC3|com-cf:nl|ptrs:na|ktp:N0|mc:31797|mtp:S|qry_typ:P|lang:en|wc:2|cs:8842|v=4,False,,Jaipur,", Jaipur - 302020, Dist.Jaipur, Rajasthan",8048247102,1151
Maternity Top,https://www.indiamart.com/proddetail/maternity-top-23105263833.html?pos=29&kwd=maternity tops&tags=BA||||8752.144|Price|product|||NA|rsf:gd-|-stype:attr=1|qr_nm:gd|res:RC3|com-cf:nl|ptrs:na|ktp:N0|mc:31797|mtp:S|qry_typ:P|lang:en|wc:2|cs:8842|v=4,Suz De' Monz,https://www.indiamart.com/dmb/?pos=29&kwd=maternity tops&tags=BA||||8752.144|Price|product|||NA|rsf:gd-|-stype:attr=1|qr_nm:gd|res:RC3|com-cf:nl|ptrs:na|ktp:N0|mc:31797|mtp:S|qry_typ:P|lang:en|wc:2|cs:8842|v=4,False,,New Delhi,"F/F WZ 30A Village Tihar, Near Samuday Bhawan, New Delhi - 110018, Dist.Delhi, Delhi",8048372303,376
Orange Maternity Nursing Long Top,https://www.indiamart.com/proddetail/maternity-nursing-long-top-21384206530.html?pos=30&kwd=maternity tops&tags=BA||||8507.67||product|||NA|rsf:gd-|-stype:attr=1|qr_nm:gd|res:RC3|com-cf:nl|ptrs:na|ktp:N0|mc:31797|mtp:S|qry_typ:P|lang:en|wc:2|cs:8842|v=4,Jewish Apparel & Accessories,https://www.indiamart.com/jewish-apparel-accessories/?pos=30&kwd=maternity tops&tags=BA||||8507.67||product|||NA|rsf:gd-|-stype:attr=1|qr_nm:gd|res:RC3|com-cf:nl|ptrs:na|ktp:N0|mc:31797|mtp:S|qry_typ:P|lang:en|wc:2|cs:8842|v=4,False,,Ernakulam,"32/324-A, Ladlee Towers, Vailopilly Road, Near Puthiya Road Junction, Thammanam PO, Ernakulam - 682032, Dist.Ernakulam, Kerala",8069033778,108
"MomToBe Women's Rayon Pistachio Green Maternity Top, Sleeves: Bell Sleeve",https://www.indiamart.com/proddetail/momtobe-women-s-rayon-pistachio-green-maternity-top-24822995655.html?pos=31&kwd=maternity tops&tags=BB||||8211.142|Price|product|||NA|rsf:gd-|-stype:attr=1|qr_nm:gd|res:RC3|com-cf:nl|ptrs:na|ktp:N0|mc:31797|mtp:S|qry_typ:P|lang:en|wc:2|cs:8842|v=4,Classapart Apparels LLP,https://www.indiamart.com/class-apart-apparels/?pos=31&kwd=maternity tops&tags=BB||||8211.142|Price|product|||NA|rsf:gd-|-stype:attr=1|qr_nm:gd|res:RC3|com-cf:nl|ptrs:na|ktp:N0|mc:31797|mtp:S|qry_typ:P|lang:en|wc:2|cs:8842|v=4,False,Malad West,Mumbai,"209, Nirmand Industrial Estate, Link Road, Malad West, Mumbai - 400064, Dist.Mumbai, Maharashtra",8043888259,
Top feeding,https://www.indiamart.com/proddetail/top-feeding-2854469447497.html?pos=32&kwd=maternity tops&tags=BA||||8668.838|Price|product|||NA|rsf:gd-|-stype:attr=1|qr_nm:gd|res:RC3|com-cf:nl|ptrs:na|ktp:N0|mc:31797|mtp:S|qry_typ:P|lang:en|wc:2|cs:8842|v=4,PERIYANDICHI AMMAN TEX,https://www.indiamart.com/periyandichi-amman-tex/?pos=32&kwd=maternity tops&tags=BA||||8668.838|Price|product|||NA|rsf:gd-|-stype:attr=1|qr_nm:gd|res:RC3|com-cf:nl|ptrs:na|ktp:N0|mc:31797|mtp:S|qry_typ:P|lang:en|wc:2|cs:8842|v=4,False,karungalpalyam,Erode,"123 kaveri road, karungalpalyam, Erode - 638003, Dist.Erode, Tamil Nadu",8045849554,568
"Blue,Green Reyon Women's_Floreal Printed Beautiful Feeding kurtis",https://www.indiamart.com/proddetail/reyon-women-s-floreal-printed-beautiful-feeding-kurtis-2852117505855.html?pos=33&kwd=maternity tops&tags=BA||||8230.883|Price|product|||NA|rsf:gd-|-stype:attr=1|qr_nm:gd|res:RC3|com-cf:nl|ptrs:na|ktp:N0|mc:31797|mtp:S|qry_typ:P|lang:en|wc:2|cs:8842|v=4,Jay Bholenath Enterprise,https://www.indiamart.com/jay-bholenath-enterprise/?pos=33&kwd=maternity tops&tags=BA||||8230.883|Price|product|||NA|rsf:gd-|-stype:attr=1|qr_nm:gd|res:RC3|com-cf:nl|ptrs:na|ktp:N0|mc:31797|mtp:S|qry_typ:P|lang:en|wc:2|cs:8842|v=4,False,Varachha,Surat,"117,Amrut Udhyog Nagar,Laskana, Kamrej,surat, Varachha, Surat - 394185, Dist.Surat, Gujarat",7942865158,
Feeding Top For Women,https://www.indiamart.com/proddetail/feeding-top-for-women-2854289058588.html?pos=34&kwd=maternity tops&tags=BB||||8550.327|Price|product|||NA|rsf:gd-|-stype:attr=1|qr_nm:gd|res:RC3|com-cf:nl|ptrs:na|ktp:N0|mc:31797|mtp:S|qry_typ:P|lang:en|wc:2|cs:8842|v=4,Clevergirl Enterprises,https://www.indiamart.com/clevergirl-enterprises/?pos=34&kwd=maternity tops&tags=BB||||8550.327|Price|product|||NA|rsf:gd-|-stype:attr=1|qr_nm:gd|res:RC3|com-cf:nl|ptrs:na|ktp:N0|mc:31797|mtp:S|qry_typ:P|lang:en|wc:2|cs:8842|v=4,False,,Palakkad,"9/497,,Koduvayur Trippalur Road,Koduvayur 678501, Palakkad - 678501, Dist.Palakkad, Kerala",8048370721,2476
Cotton Ikkat Printed Feeding Top Side Cut,https://www.indiamart.com/proddetail/cotton-ikkat-printed-feeding-top-side-cut-25226092762.html?pos=35&kwd=maternity tops&tags=BB||||8954.051||product|||NA|rsf:gd-|-stype:attr=1|qr_nm:gd|res:RC3|com-cf:nl|ptrs:na|ktp:N0|mc:31797|mtp:S|qry_typ:P|lang:en|wc:2|cs:8842|v=4,Vastra Vedhika,https://www.indiamart.com/vastra-vedhika/?pos=35&kwd=maternity tops&tags=BB||||8954.051||product|||NA|rsf:gd-|-stype:attr=1|qr_nm:gd|res:RC3|com-cf:nl|ptrs:na|ktp:N0|mc:31797|mtp:S|qry_typ:P|lang:en|wc:2|cs:8842|v=4,False,,Chennai,"DOOR NO 104,Arihant Frangipani Apartments, Chennai - 603103, Dist.Chennai, Tamil Nadu",8048372153,388
Mateernity Wear,,Baby & Mom,https://www.indiamart.com/baby-and-mom-clothing/?pos=36&kwd=maternity tops&tags=BA||||8307.81|Price|product|||NA|rsf:gd-|-stype:attr=1|qr_nm:gd|res:RC3|com-cf:nl|ptrs:na|ktp:N0|mc:31797|mtp:S|qry_typ:P|lang:en|wc:2|cs:8842|v=4,False,Kothrud,Pune,"House No- 3, Kothrud, Pune - 411038, Dist.Pune, Maharashtra",8048371837,988
Cotton Printed Pink Floral Maternity Gown,https://www.indiamart.com/proddetail/pink-floral-maternity-gown-24765489488.html?pos=37&kwd=maternity tops&tags=BB||||8571.301||product|||NA|rsf:gd-|-stype:attr=1|qr_nm:gd|res:RC3|com-cf:nl|ptrs:na|ktp:N0|mc:31797|mtp:S|qry_typ:P|lang:en|wc:2|cs:8842|v=4,Mommies,https://www.indiamart.com/mommies-thiruvananthapuram/?pos=37&kwd=maternity tops&tags=BB||||8571.301||product|||NA|rsf:gd-|-stype:attr=1|qr_nm:gd|res:RC3|com-cf:nl|ptrs:na|ktp:N0|mc:31797|mtp:S|qry_typ:P|lang:en|wc:2|cs:8842|v=4,False,Kowdiar,Thiruvananthapuram,"TC 24/3088, Dotspace Business Center, Ushasandya Building Devasom Board Road, Kowdiar, Thiruvananthapuram - 695003, Dist.Thiruvananthapuram, Kerala",8048268238,
Ladies Maternity Gown,https://www.indiamart.com/proddetail/ladies-maternity-gown-2850612734755.html?pos=38&kwd=maternity tops&tags=CC||||8228.275|Price|product|||TS|rsf:gd-|-stype:attr=1|qr_nm:gd|res:RC3|com-cf:nl|ptrs:na|ktp:N0|mc:31797|mtp:S|qry_typ:P|lang:en|wc:2|cs:8842|v=4,Gitanjali Enterprise,https://www.indiamart.com/gitanjali-enterprise-ahmedabad/?pos=38&kwd=maternity tops&tags=CC||||8228.275|Price|product|||TS|rsf:gd-|-stype:attr=1|qr_nm:gd|res:RC3|com-cf:nl|ptrs:na|ktp:N0|mc:31797|mtp:S|qry_typ:P|lang:en|wc:2|cs:8842|v=4,False,Isanpur,Ahmedabad,"Near Jognimata Temple, Isanpur Gam, Isanpur, Isanpur, Ahmedabad - 382443, Dist.Ahmedabad, Gujarat",8047640750,
Non Woven Fabric Maternity Mates,https://www.indiamart.com/proddetail/maternity-mates-21026812288.html?pos=39&kwd=maternity tops&tags=CC||||8584.299|Price|product|||MDC|rsf:gd-|-stype:attr=1|qr_nm:gd|res:RC3|com-cf:nl|ptrs:na|ktp:N0|mc:31797|mtp:S|qry_typ:P|lang:en|wc:2|cs:8842|v=4,Thirumalai Meditex Private Limited,https://www.indiamart.com/thirumalaimeditex/?pos=39&kwd=maternity tops&tags=CC||||8584.299|Price|product|||MDC|rsf:gd-|-stype:attr=1|qr_nm:gd|res:RC3|com-cf:nl|ptrs:na|ktp:N0|mc:31797|mtp:S|qry_typ:P|lang:en|wc:2|cs:8842|v=4,False,Peedampalli,Coimbatore,"2/2 C, Nadupalayam, Peedampalli Post, Peedampalli, Coimbatore - 641016, Dist.Coimbatore, Tamil Nadu",8048987693,
Cotton Baby Feeding Top,https://www.indiamart.com/proddetail/baby-feeding-top-2852940647197.html?pos=40&kwd=maternity tops&tags=CC||||8661.854|Price|product|||MDC|rsf:gd-|-stype:attr=1|qr_nm:gd|res:RC3|com-cf:nl|ptrs:na|ktp:N0|mc:31797|mtp:S|qry_typ:P|lang:en|wc:2|cs:8842|v=4,Janny Enterprises,https://www.indiamart.com/janny-enterprises/?pos=40&kwd=maternity tops&tags=CC||||8661.854|Price|product|||MDC|rsf:gd-|-stype:attr=1|qr_nm:gd|res:RC3|com-cf:nl|ptrs:na|ktp:N0|mc:31797|mtp:S|qry_typ:P|lang:en|wc:2|cs:8842|v=4,False,Guru Arjan Dev Nagar,Ludhiana,"B-14-1741/16/1, Islam Ganj, Ucha Tibba, Nr Bhat Singh Sabha Gurudwara, Guru Arjan Dev Nagar, Ludhiana - 141008, Dist.Ludhiana, Punjab",7942963767,
Teal Cotton Floral Fit & Flare Maternity Kurta,https://www.indiamart.com/proddetail/teal-cotton-floral-fit-flare-maternity-kurta-2854514458748.html?pos=41&kwd=maternity tops&tags=CC||||8752.144|Price|product|||MDC|rsf:gd-|-stype:attr=1|qr_nm:gd|res:RC3|com-cf:nl|ptrs:na|ktp:N0|mc:31797|mtp:S|qry_typ:P|lang:en|wc:2|cs:8842|v=4,Siyaram Enterprises,https://www.indiamart.com/siyaram-enterprises-newdelhi/?pos=41&kwd=maternity tops&tags=CC||||8752.144|Price|product|||MDC|rsf:gd-|-stype:attr=1|qr_nm:gd|res:RC3|com-cf:nl|ptrs:na|ktp:N0|mc:31797|mtp:S|qry_typ:P|lang:en|wc:2|cs:8842|v=4,False,,New Delhi,"76-D, A PKT, Third Floor Vikas Puri EXTN, West Delhi, New Delhi - 110018, Dist.Delhi, Delhi",8045737683,
Ladies Crepe White Printed Maternity Kurti,https://www.indiamart.com/proddetail/ladies-crepe-white-printed-maternity-kurti-26890974588.html?pos=42&kwd=maternity tops&tags=CC||||8786.56|Price|product|||TS|rsf:gd-|-stype:attr=1|qr_nm:gd|res:RC3|com-cf:nl|ptrs:na|ktp:N0|mc:31797|mtp:S|qry_typ:P|lang:en|wc:2|cs:8842|v=4,M/S Vquality Products,https://www.indiamart.com/vquality-products/?pos=42&kwd=maternity tops&tags=CC||||8786.56|Price|product|||TS|rsf:gd-|-stype:attr=1|qr_nm:gd|res:RC3|com-cf:nl|ptrs:na|ktp:N0|mc:31797|mtp:S|qry_typ:P|lang:en|wc:2|cs:8842|v=4,False,Kukatpally Bhagat Singh Nagar,Hyderabad,"Plot no 422, Flot No 202, Bhagath Singh Nagar Phase-1,KPHB, Kukatpally Bhagat Singh Nagar, Hyderabad - 500085, Dist.Hyderabad, Telangana",8043894114,
Pista colour slide cut dress,https://www.indiamart.com/proddetail/pista-colour-slide-cut-dress-2854359310262.html?pos=43&kwd=maternity tops&tags=CC||||8307.81|Price|product|||MDC|rsf:gd-|-stype:attr=1|qr_nm:gd|res:RC3|com-cf:nl|ptrs:na|ktp:N0|mc:31797|mtp:S|qry_typ:P|lang:en|wc:2|cs:8842|v=4,Nayan Collection,https://www.indiamart.com/nayan-collection-maharashtra/?pos=43&kwd=maternity tops&tags=CC||||8307.81|Price|product|||MDC|rsf:gd-|-stype:attr=1|qr_nm:gd|res:RC3|com-cf:nl|ptrs:na|ktp:N0|mc:31797|mtp:S|qry_typ:P|lang:en|wc:2|cs:8842|v=4,False,Wadgaon Sheri,Pune,"Ground Floor , S NO. 12/1A, Adarsh Nagar, Kalyani Nagar Road , OPP. ST. Arnolds Central School Wadgaon Sheri, Wadgaon Sheri, Pune - 411014, Dist.Pune, Maharashtra",7942704607,
"Cotton Ladies Breast Feeding Maternity Nursing Top Bra, Plain",https://www.indiamart.com/proddetail/ladies-breast-feeding-maternity-nursing-top-bra-26067874162.html?pos=44&kwd=maternity tops&tags=||||8752.144|Price|product|||TS|rsf:gd-|-stype:attr=1|qr_nm:gd|res:RC3|com-cf:nl|ptrs:na|ktp:N0|mc:31797|mtp:S|qry_typ:P|lang:en|wc:2|cs:8842|v=4,S S Enterprises,https://www.indiamart.com/s-sentpsdelhi/?pos=44&kwd=maternity tops&tags=||||8752.144|Price|product|||TS|rsf:gd-|-stype:attr=1|qr_nm:gd|res:RC3|com-cf:nl|ptrs:na|ktp:N0|mc:31797|mtp:S|qry_typ:P|lang:en|wc:2|cs:8842|v=4,False,Najafgarh,New Delhi,"H.No-6A, First Floor, Pole No MDKC040, Kh No-4/13, Satyam Viahr Chanchal Park, Nangloi, Najafgarh, New Delhi - 110043, Dist.Delhi, Delhi",8048272871,
Cotton Tetra Maternity Clothing,https://www.indiamart.com/proddetail/tetra-maternity-clothing-22158440230.html?pos=45&kwd=maternity tops&tags=||||8954.051|Price|product|||TS|rsf:gd-|-stype:attr=1|qr_nm:gd|res:RC3|com-cf:nl|ptrs:na|ktp:N0|mc:31797|mtp:S|qry_typ:P|lang:en|wc:2|cs:8842|v=4,Tetra Clothing,https://www.tetraclothing.in/?pos=45&kwd=maternity tops&tags=||||8954.051|Price|product|||TS|rsf:gd-|-stype:attr=1|qr_nm:gd|res:RC3|com-cf:nl|ptrs:na|ktp:N0|mc:31797|mtp:S|qry_typ:P|lang:en|wc:2|cs:8842|v=4,True,Gopichettipalaiyam,Chennai,"No. 59/28, Balu Building, Gopichettipalaiyam, Chennai - 638476, Dist.Chennai, Tamil Nadu",8048957951,
Black Casual Wear Maternity T Shirt,https://www.indiamart.com/proddetail/maternity-t-shirt-21840113062.html?pos=46&kwd=maternity tops&tags=||||8230.883|Price|product|||TS|rsf:gd-|-stype:attr=1|qr_nm:gd|res:RC3|com-cf:nl|ptrs:na|ktp:N0|mc:31797|mtp:S|qry_typ:P|lang:en|wc:2|cs:8842|v=4,Harli Fashion,https://www.indiamart.com/harlifashion/?pos=46&kwd=maternity tops&tags=||||8230.883|Price|product|||TS|rsf:gd-|-stype:attr=1|qr_nm:gd|res:RC3|com-cf:nl|ptrs:na|ktp:N0|mc:31797|mtp:S|qry_typ:P|lang:en|wc:2|cs:8842|v=4,False,Gadhpur Township,Surat,"27, Gadhpur Township, Pasodra, Kamrej, Gadhpur Township, Surat - 395006, Dist.Surat, Gujarat",8048265894,
Womens Maternity Tshirt-plain,https://www.indiamart.com/proddetail/womens-maternity-tshirt-plain-2849581058173.html?pos=47&kwd=maternity tops&tags=||||8211.142|Price|product|||MDC|rsf:gd-|-stype:attr=1|qr_nm:gd|res:RC3|com-cf:nl|ptrs:na|ktp:N0|mc:31797|mtp:S|qry_typ:P|lang:en|wc:2|cs:8842|v=4,Enthopia,https://www.indiamart.com/enthopia-mumbai/?pos=47&kwd=maternity tops&tags=||||8211.142|Price|product|||MDC|rsf:gd-|-stype:attr=1|qr_nm:gd|res:RC3|com-cf:nl|ptrs:na|ktp:N0|mc:31797|mtp:S|qry_typ:P|lang:en|wc:2|cs:8842|v=4,False,Santacruz East,Mumbai,"Govind Sagar, Building No. 2, Unit No. 12, 3rd Floor, Plot No. 176 CST Road, Kalina, Santacruz East, Santacruz East, Mumbai - 400029, Dist.Mumbai, Maharashtra",,
Blue V Shape Printed Cotton Maternity Dress,https://www.indiamart.com/proddetail/blue-v-shape-printed-cotton-maternity-dress-2852958066391.html?pos=48&kwd=maternity tops&tags=||||8601.347|Price|product|||MDC|rsf:gd-|-stype:attr=1|qr_nm:gd|res:RC3|com-cf:nl|ptrs:na|ktp:N0|mc:31797|mtp:S|qry_typ:P|lang:en|wc:2|cs:8842|v=4,Z Creation,https://www.indiamart.com/z-creation-rajasthan/?pos=48&kwd=maternity tops&tags=||||8601.347|Price|product|||MDC|rsf:gd-|-stype:attr=1|qr_nm:gd|res:RC3|com-cf:nl|ptrs:na|ktp:N0|mc:31797|mtp:S|qry_typ:P|lang:en|wc:2|cs:8842|v=4,False,sanganer,Jaipur,"Plot No F16 Shop No F-09 & 10 Sidhi Vinayak Plaza, Chordiya Petrol Pump Sanganer, sanganer, Jaipur - 302029, Dist.Jaipur, Rajasthan",7942962509,
Printed Feeding T Shirt,https://www.indiamart.com/proddetail/feeding-t-shirt-2853137709988.html?pos=49&kwd=maternity tops&tags=||||8626.744|Price|product|||TS|rsf:gd-|-stype:attr=1|qr_nm:gd|res:RC3|com-cf:nl|ptrs:na|ktp:N0|mc:31797|mtp:S|qry_typ:P|lang:en|wc:2|cs:8842|v=4,Rainbow Creations,https://www.indiamart.com/rainbowcreations/?pos=49&kwd=maternity tops&tags=||||8626.744|Price|product|||TS|rsf:gd-|-stype:attr=1|qr_nm:gd|res:RC3|com-cf:nl|ptrs:na|ktp:N0|mc:31797|mtp:S|qry_typ:P|lang:en|wc:2|cs:8842|v=4,False,Renganatha Puram,Tiruppur,"No. 7- 24, murugasamy layout 1street, Renganatha Puram, Tiruppur - 641607, Dist.Coimbatore, Tamil Nadu",8048955272,
Printed Cotton Hosiery Feeding Maternity Nighty,https://www.indiamart.com/proddetail/cotton-hosiery-feeding-maternity-nighty-2854237796697.html?pos=50&kwd=maternity tops&tags=||||8752.144|Price|product|||TS|rsf:gd-|-stype:attr=1|qr_nm:gd|res:RC3|com-cf:nl|ptrs:na|ktp:N0|mc:31797|mtp:S|qry_typ:P|lang:en|wc:2|cs:8842|v=4,Aggarwal & Sons,https://www.indiamart.com/aggarwal-sons-dehli/?pos=50&kwd=maternity tops&tags=||||8752.144|Price|product|||TS|rsf:gd-|-stype:attr=1|qr_nm:gd|res:RC3|com-cf:nl|ptrs:na|ktp:N0|mc:31797|mtp:S|qry_typ:P|lang:en|wc:2|cs:8842|v=4,False,Karawal Nagar,New Delhi,"H No.-3 G/f Kh No.-5/27/1 ,Main Road Kamal Vihar Nr Police Station, Karawal Nagar, New Delhi - 110094, Dist.Delhi, Delhi",7942804253,
"Half Sleeve Ladies Printed Cotton Tops LONG, 160-170, M-5XL",https://www.indiamart.com/proddetail/ladies-printed-cotton-tops-long-19376264555.html?pos=51&kwd=maternity tops&tags=||||8661.854|Price|product|||TS|rsf:gd-|-stype:attr=1|qr_nm:gd|res:RC3|com-cf:nl|ptrs:na|ktp:N0|mc:31797|mtp:S|qry_typ:P|lang:en|wc:2|cs:8842|v=4,R K Products,https://www.nightpartner.in/?pos=51&kwd=maternity tops&tags=||||8661.854|Price|product|||TS|rsf:gd-|-stype:attr=1|qr_nm:gd|res:RC3|com-cf:nl|ptrs:na|ktp:N0|mc:31797|mtp:S|qry_typ:P|lang:en|wc:2|cs:8842|v=4,False,Dev Nagar,Ludhiana,"Shop Number 2, 8&10, Chaura Bazar Factory Near Samrala Chownk & H.NO. 1450 NEW CHANDER NAGAR ST. NO.7 OPP. D.M.C HOSPITAL BASSI NURSING HOMEST, Dev Nagar, Ludhiana - 141001, Dist.Ludhiana, Punjab",8047638898,
"Small Maternity Feeding Kurti, Printed",https://www.indiamart.com/proddetail/maternity-feeding-kurti-2854862134191.html?pos=52&kwd=maternity tops&tags=||||8230.883|Price|product|||TS|rsf:gd-|-stype:attr=1|qr_nm:gd|res:RC3|com-cf:nl|ptrs:na|ktp:N0|mc:31797|mtp:S|qry_typ:P|lang:en|wc:2|cs:8842|v=4,Fashion Gaon,https://www.indiamart.com/fashiongaon/?pos=52&kwd=maternity tops&tags=||||8230.883|Price|product|||TS|rsf:gd-|-stype:attr=1|qr_nm:gd|res:RC3|com-cf:nl|ptrs:na|ktp:N0|mc:31797|mtp:S|qry_typ:P|lang:en|wc:2|cs:8842|v=4,False,Shashwat Plaza Parvat Patiya,Surat,"Shashwat Plaza, Puna Brts,Canal Road, 7600124242, Shashwat Plaza Parvat Patiya, Surat - 395010, Dist.Surat, Gujarat",7942710160,
Cotton Printed Navy Blue Floral Maternity Women gown,https://www.indiamart.com/proddetail/navy-blue-floral-maternity-women-gown-2853999105688.html?pos=53&kwd=maternity tops&tags=||||8601.347|Price|product|||MDC|rsf:gd-|-stype:attr=1|qr_nm:gd|res:RC3|com-cf:nl|ptrs:na|ktp:N0|mc:31797|mtp:S|qry_typ:P|lang:en|wc:2|cs:8842|v=4,Aditya Enterprises,https://www.indiamart.com/adityaenterprises-jaipurrajasthan/?pos=53&kwd=maternity tops&tags=||||8601.347|Price|product|||MDC|rsf:gd-|-stype:attr=1|qr_nm:gd|res:RC3|com-cf:nl|ptrs:na|ktp:N0|mc:31797|mtp:S|qry_typ:P|lang:en|wc:2|cs:8842|v=4,False,Murlipura,Jaipur,"First Floor, Plot No.330, MDS Tirvedi Complex, Flate No G-2, Shiv Nagar-I, Murlipura, Murlipura, Jaipur - 302039, Dist.Jaipur, Rajasthan",8044011776,
Peach Cotton Floral Printed Breastfeeding/Maternity/Pregnancy/Maxi/Dress Knee Length Nighty With Zip,https://www.indiamart.com/proddetail/peach-cotton-floral-printed-breastfeeding-maternity-pregnancy-maxi-dress-knee-length-nighty-with-zip-2853944417248.html?pos=54&kwd=maternity tops&tags=||||8601.347|Price|product|||MDC|rsf:gd-|-stype:attr=1|qr_nm:gd|res:RC3|com-cf:nl|ptrs:na|ktp:N0|mc:31797|mtp:S|qry_typ:P|lang:en|wc:2|cs:8842|v=4,Kashaya Fabs,https://www.indiamart.com/kashaya-fabs/?pos=54&kwd=maternity tops&tags=||||8601.347|Price|product|||MDC|rsf:gd-|-stype:attr=1|qr_nm:gd|res:RC3|com-cf:nl|ptrs:na|ktp:N0|mc:31797|mtp:S|qry_typ:P|lang:en|wc:2|cs:8842|v=4,False,Mansarovar,Jaipur,"H-1-51/66A, RIICO Industrial Area, Mansarovar, Mansarovar, Jaipur - 302020, Dist.Jaipur, Rajasthan",8044015615,
PRINTED MAROON COTTON CO-ORD SET,https://www.indiamart.com/proddetail/printed-maroon-cotton-co-ord-set-2853856037055.html?pos=55&kwd=maternity tops&tags=||||8601.347|Price|product|||TS|rsf:gd-|-stype:attr=1|qr_nm:gd|res:RC3|com-cf:nl|ptrs:na|ktp:N0|mc:31797|mtp:S|qry_typ:P|lang:en|wc:2|cs:8842|v=4,Shree Shyam Creation,https://www.shreeshyamcreations.in/?pos=55&kwd=maternity tops&tags=||||8601.347|Price|product|||TS|rsf:gd-|-stype:attr=1|qr_nm:gd|res:RC3|com-cf:nl|ptrs:na|ktp:N0|mc:31797|mtp:S|qry_typ:P|lang:en|wc:2|cs:8842|v=4,False,Sanganer,Jaipur,"Saini Bhawan, 18, Kanwar Ka Bag Ladko Ki Dhani Panchavti Colony, Sanganer, Sanganer, Jaipur - 302011, Dist.Jaipur, Rajasthan",7942717795,
Momtobe Women's Rayon Teal Green Maternity Feeding Nursing Maternity Dress,https://www.indiamart.com/proddetail/momtobe-women-s-rayon-teal-green-maternity-feeding-nursing-maternity-dress-2853110315748.html?pos=56&kwd=maternity tops&tags=||||8228.275|Price|product|||TS|rsf:gd-|-stype:attr=1|qr_nm:gd|res:RC3|com-cf:nl|ptrs:na|ktp:N0|mc:31797|mtp:S|qry_typ:P|lang:en|wc:2|cs:8842|v=4,K. Kushal Kumar,https://www.indiamart.com/kkushalkumar/?pos=56&kwd=maternity tops&tags=||||8228.275|Price|product|||TS|rsf:gd-|-stype:attr=1|qr_nm:gd|res:RC3|com-cf:nl|ptrs:na|ktp:N0|mc:31797|mtp:S|qry_typ:P|lang:en|wc:2|cs:8842|v=4,False,Girdhar Nagar,Ahmedabad,"C Block, Fourth Floor Shop No. 413/A City Centre, Near Asarva Bridge, Idgah Road,Ahmedabad, Girdhar Nagar, Ahmedabad - 380016, Dist.Ahmedabad, Gujarat",7942702493,
"Janasya Women's Maroon Cotton Floral Front Tie-Up Maternity Dress, Casual Wear",https://www.indiamart.com/proddetail/janasya-women-s-maroon-cotton-floral-front-tie-up-maternity-dress-23855497248.html?pos=57&kwd=maternity tops&tags=||||8230.883|Price|product|||TS|rsf:gd-|-stype:attr=1|qr_nm:gd|res:RC3|com-cf:nl|ptrs:na|ktp:N0|mc:31797|mtp:S|qry_typ:P|lang:en|wc:2|cs:8842|v=4,Thread Bucket Studio LLP,https://www.threadbucketstudio.in/?pos=57&kwd=maternity tops&tags=||||8230.883|Price|product|||TS|rsf:gd-|-stype:attr=1|qr_nm:gd|res:RC3|com-cf:nl|ptrs:na|ktp:N0|mc:31797|mtp:S|qry_typ:P|lang:en|wc:2|cs:8842|v=4,False,Udhna,Surat,"A-15/4 Road No. 8, Udhna, Surat - 394210, Dist.Surat, Gujarat",8046052440,
Plain Ladies Pink Cotton Top,https://www.indiamart.com/proddetail/maternity-feeding-short-kurti-2854746562630.html?pos=58&kwd=maternity tops&tags=||||8364.597|Price|product|||MDC|rsf:gd-|-stype:attr=1|qr_nm:gd|res:RC3|com-cf:nl|ptrs:na|ktp:N0|mc:31797|mtp:S|qry_typ:P|lang:en|wc:2|cs:8842|v=4,Aayush Enterprises,https://www.indiamart.com/aayush-enterprises-udaipur/?pos=58&kwd=maternity tops&tags=||||8364.597|Price|product|||MDC|rsf:gd-|-stype:attr=1|qr_nm:gd|res:RC3|com-cf:nl|ptrs:na|ktp:N0|mc:31797|mtp:S|qry_typ:P|lang:en|wc:2|cs:8842|v=4,False,,Udaipur,"20 Block A, Aashirwad Nagar, Roop Sagar Road, Shri Kali Kalyan Dham Mandir,, Udaipur - 313001, Rajasthan",8044457975,
"Women Cotton Floral Printed Kaftan Top, Free Size Maternity Work From Home Wear Summer Clothing",https://www.indiamart.com/proddetail/women-cotton-floral-printed-kaftan-top-free-size-maternity-work-from-home-wear-summer-clothing-2854795378133.html?pos=59&kwd=maternity tops&tags=||||8601.347|Price|product|||TS|rsf:gd-|-stype:attr=1|qr_nm:gd|res:RC3|com-cf:nl|ptrs:na|ktp:N0|mc:31797|mtp:S|qry_typ:P|lang:en|wc:2|cs:8842|v=4,Pearl International,https://www.pearljaipur.com/?pos=59&kwd=maternity tops&tags=||||8601.347|Price|product|||TS|rsf:gd-|-stype:attr=1|qr_nm:gd|res:RC3|com-cf:nl|ptrs:na|ktp:N0|mc:31797|mtp:S|qry_typ:P|lang:en|wc:2|cs:8842|v=4,True,,Jaipur,"B-24, Basant Bahar Colony, Tonk Road , Gopalpura Mode, Jaipur - 302018, Dist.Jaipur, Rajasthan",7949329929,
"Ladies Brown Feeding Top, Size: M",https://www.indiamart.com/proddetail/ladies-brown-feeding-top-2854146997833.html?pos=60&kwd=maternity tops&tags=||||8668.838|Price|product|||MDC|rsf:gd-|-stype:attr=1|qr_nm:gd|res:RC3|com-cf:nl|ptrs:na|ktp:N0|mc:31797|mtp:S|qry_typ:P|lang:en|wc:2|cs:8842|v=4,Mothersbay India Private Limited,https://www.indiamart.com/mothersbay-india-erode/?pos=60&kwd=maternity tops&tags=||||8668.838|Price|product|||MDC|rsf:gd-|-stype:attr=1|qr_nm:gd|res:RC3|com-cf:nl|ptrs:na|ktp:N0|mc:31797|mtp:S|qry_typ:P|lang:en|wc:2|cs:8842|v=4,False,Chidambaram Colony,Erode,"No, 10 Chidambaram Colony, Chidambaram Colony, Erode - 638001, Dist.Erode, Tamil Nadu",8045737096,
Cotton Feeding Maternity Kurti Shawl Set,https://www.indiamart.com/proddetail/cotton-feeding-maternity-kurti-shawl-set-2853460653088.html?pos=61&kwd=maternity tops&tags=||||8584.299|Price|product|||MDC|rsf:gd-|-stype:attr=1|qr_nm:gd|res:RC3|com-cf:nl|ptrs:na|ktp:N0|mc:31797|mtp:S|qry_typ:P|lang:en|wc:2|cs:8842|v=4,Emma Fashions,https://www.indiamart.com/emma-fashions/?pos=61&kwd=maternity tops&tags=||||8584.299|Price|product|||MDC|rsf:gd-|-stype:attr=1|qr_nm:gd|res:RC3|com-cf:nl|ptrs:na|ktp:N0|mc:31797|mtp:S|qry_typ:P|lang:en|wc:2|cs:8842|v=4,False,,Coimbatore,"2/62, Shanmuga Nagar, Sanganoor Main Road, Rathinapuri, Coimbatore - 641027, Dist.Coimbatore, Tamil Nadu",8047832283,
M And XL Casual Ladies Plain Top,https://www.indiamart.com/proddetail/ladies-plain-top-20279765997.html?pos=62&kwd=maternity tops&tags=||||8663.873|Price|product|||TS|rsf:gd-|-stype:attr=1|qr_nm:gd|res:RC3|com-cf:nl|ptrs:na|ktp:N0|mc:31797|mtp:S|qry_typ:P|lang:en|wc:2|cs:8842|v=4,Sk Ventures,https://www.indiamart.com/skventures/?pos=62&kwd=maternity tops&tags=||||8663.873|Price|product|||TS|rsf:gd-|-stype:attr=1|qr_nm:gd|res:RC3|com-cf:nl|ptrs:na|ktp:N0|mc:31797|mtp:S|qry_typ:P|lang:en|wc:2|cs:8842|v=4,False,Bommanahalli,Bengaluru,"No. 17, 2nd Floor, 1st Cross, Begur Main Road, 1st Lane, Bommanahalli, Bengaluru - 560068, Dist.Bengaluru, Karnataka",8048980333,
"Blue XXL 50 Cotton Embroidered Feeding Nighties, Half Sleeve",https://www.indiamart.com/proddetail/xxl-50-cotton-embroidered-feeding-nighties-2853608064373.html?pos=63&kwd=maternity tops&tags=||||8614.311||product|||MDC|rsf:gd-|-stype:attr=1|qr_nm:gd|res:RC3|com-cf:nl|ptrs:na|ktp:N0|mc:31797|mtp:S|qry_typ:P|lang:en|wc:2|cs:8842|v=4,Kushi Nighties & Garments,https://www.indiamart.com/kushi-nighties-garments/?pos=63&kwd=maternity tops&tags=||||8614.311||product|||MDC|rsf:gd-|-stype:attr=1|qr_nm:gd|res:RC3|com-cf:nl|ptrs:na|ktp:N0|mc:31797|mtp:S|qry_typ:P|lang:en|wc:2|cs:8842|v=4,False,Padikkattupalli,Tenkasi,"2-11-51, Tenkasi-Madurai Main Road, Elathoor, Shengottai Tk, Padikkattupalli, Tenkasi - 627803, Dist.Tirunelveli, Tamil Nadu",8045165561,
Maternity Wear Cotton Anarkali Kurti,https://www.indiamart.com/proddetail/maternity-wear-cotton-anarkali-kurti-2854750572773.html?pos=64&kwd=maternity tops&tags=||||8601.347|Price|product|||MDC|rsf:gd-|-stype:attr=1|qr_nm:gd|res:RC3|com-cf:nl|ptrs:na|ktp:N0|mc:31797|mtp:S|qry_typ:P|lang:en|wc:2|cs:8842|v=4,Ajesh Traders,https://www.indiamart.com/ajesh-tradersjaipur/?pos=64&kwd=maternity tops&tags=||||8601.347|Price|product|||MDC|rsf:gd-|-stype:attr=1|qr_nm:gd|res:RC3|com-cf:nl|ptrs:na|ktp:N0|mc:31797|mtp:S|qry_typ:P|lang:en|wc:2|cs:8842|v=4,False,,Jaipur,"53 Jamdoli Road, Agra Road, Behind Marudhar School, Bharat Vihar B, Jaipur - 302031, Dist.Jaipur, Rajasthan",8044459778,
"Cotton Printed Ladies Maternity Gown, multi",https://www.indiamart.com/proddetail/ladies-maternity-gown-2853100512048.html?pos=65&kwd=maternity tops&tags=||||8601.347|Price|product|||TS|rsf:gd-|-stype:attr=1|qr_nm:gd|res:RC3|com-cf:nl|ptrs:na|ktp:N0|mc:31797|mtp:S|qry_typ:P|lang:en|wc:2|cs:8842|v=4,Kismat Collection,https://www.kismatcollectionjaipur.com/?pos=65&kwd=maternity tops&tags=||||8601.347|Price|product|||TS|rsf:gd-|-stype:attr=1|qr_nm:gd|res:RC3|com-cf:nl|ptrs:na|ktp:N0|mc:31797|mtp:S|qry_typ:P|lang:en|wc:2|cs:8842|v=4,False,Raj Nagar 2,Jaipur,"A-15,,PATEL NAGAR NAMDEV COLONY,SANGANER, JAIPUR, Raj Nagar 2, Jaipur - 302029, Dist.Jaipur, Rajasthan",7942869763,
"Cotton Printed Maternity And Nursing Nighty, Blue",https://www.indiamart.com/proddetail/maternity-and-nursing-nighty-22007524012.html?pos=66&kwd=maternity tops&tags=||||8601.347|Price|product|||TS|rsf:gd-|-stype:attr=1|qr_nm:gd|res:RC3|com-cf:nl|ptrs:na|ktp:N0|mc:31797|mtp:S|qry_typ:P|lang:en|wc:2|cs:8842|v=4,Mudrika Fashions (A Brand of Silver Organisation),https://www.indiamart.com/silverorganisation/?pos=66&kwd=maternity tops&tags=||||8601.347|Price|product|||TS|rsf:gd-|-stype:attr=1|qr_nm:gd|res:RC3|com-cf:nl|ptrs:na|ktp:N0|mc:31797|mtp:S|qry_typ:P|lang:en|wc:2|cs:8842|v=4,False,Luniawas,Jaipur,"A-1, Kanji Nagar, Luniawas, Jaipur - 302031, Dist.Jaipur, Rajasthan",8046042577,
"Printed Rayon Feeding / maternity short nighty slip, Half Sleeve",https://www.indiamart.com/proddetail/rayon-feeding-maternity-short-nighty-slip-2853172983948.html?pos=67&kwd=maternity tops&tags=||||8211.142|Price|product|||TS|rsf:gd-|-stype:attr=1|qr_nm:gd|res:RC3|com-cf:nl|ptrs:na|ktp:N0|mc:31797|mtp:S|qry_typ:P|lang:en|wc:2|cs:8842|v=4,Anmol Hosiery,https://www.indiamart.com/anmolhosiery/?pos=67&kwd=maternity tops&tags=||||8211.142|Price|product|||TS|rsf:gd-|-stype:attr=1|qr_nm:gd|res:RC3|com-cf:nl|ptrs:na|ktp:N0|mc:31797|mtp:S|qry_typ:P|lang:en|wc:2|cs:8842|v=4,False,Borivali East,Mumbai,"24/173, Kuldeep Society, Borivali East, Borivali East, Mumbai - 400066, Dist.Mumbai, Maharashtra",8048987762,
"Women's Cotton Printed Maternity Gown, Purple",https://www.indiamart.com/proddetail/women-s-cotton-printed-maternity-gown-2852876368791.html?pos=68&kwd=maternity tops&tags=||||8601.347|Price|product|||TS|rsf:gd-|-stype:attr=1|qr_nm:gd|res:RC3|com-cf:nl|ptrs:na|ktp:N0|mc:31797|mtp:S|qry_typ:P|lang:en|wc:2|cs:8842|v=4,Jaanya Creations,https://www.flyfinns.com/?pos=68&kwd=maternity tops&tags=||||8601.347|Price|product|||TS|rsf:gd-|-stype:attr=1|qr_nm:gd|res:RC3|com-cf:nl|ptrs:na|ktp:N0|mc:31797|mtp:S|qry_typ:P|lang:en|wc:2|cs:8842|v=4,False,Sanganer Station,Jaipur,"405, Dajy Manglam Ananda, Neear Sanganer Station, Sanganer Station, Jaipur - 302029, Dist.Jaipur, Rajasthan",7942789055,
Ladies Cotton Printed Maternity Gown,https://www.indiamart.com/proddetail/ladies-cotton-printed-maternity-gown-2852681634355.html?pos=69&kwd=maternity tops&tags=||||8601.347|Price|product|||MDC|rsf:gd-|-stype:attr=1|qr_nm:gd|res:RC3|com-cf:nl|ptrs:na|ktp:N0|mc:31797|mtp:S|qry_typ:P|lang:en|wc:2|cs:8842|v=4,Dazzle Hub,https://www.indiamart.com/dazzlehub/?pos=69&kwd=maternity tops&tags=||||8601.347|Price|product|||MDC|rsf:gd-|-stype:attr=1|qr_nm:gd|res:RC3|com-cf:nl|ptrs:na|ktp:N0|mc:31797|mtp:S|qry_typ:P|lang:en|wc:2|cs:8842|v=4,False,Pratap Nagar,Jaipur,"Basement Floor, 86/SP-89, Kumbha Marg, Pratap Nagar, Sanganer, Pratap Nagar, Jaipur - 302033, Dist.Jaipur, Rajasthan",8048611932,
Printed Shaifali Brown Rayon Maternity Night Suit Set,https://www.indiamart.com/proddetail/brown-rayon-maternity-night-suit-2852598851562.html?pos=70&kwd=maternity tops&tags=||||8601.347|Price|product|||MDC|rsf:gd-|-stype:attr=1|qr_nm:gd|res:RC3|com-cf:nl|ptrs:na|ktp:N0|mc:31797|mtp:S|qry_typ:P|lang:en|wc:2|cs:8842|v=4,Shaifali Fashions,https://www.indiamart.com/shaifali-fashions/?pos=70&kwd=maternity tops&tags=||||8601.347|Price|product|||MDC|rsf:gd-|-stype:attr=1|qr_nm:gd|res:RC3|com-cf:nl|ptrs:na|ktp:N0|mc:31797|mtp:S|qry_typ:P|lang:en|wc:2|cs:8842|v=4,False,,Jaipur,"37-A,Pratap Nagar,Golimar Garden Ke Pichhe,Amer Road,Brahmpuri, Jaipur - 302002, Dist.Jaipur, Rajasthan",8045732152,
Maternity Clothing,https://www.indiamart.com/proddetail/maternity-clothing-2853917035097.html?pos=71&kwd=maternity tops&tags=||||8601.347|Price|product|||MDC|rsf:gd-|-stype:attr=1|qr_nm:gd|res:RC3|com-cf:nl|ptrs:na|ktp:N0|mc:31797|mtp:S|qry_typ:P|lang:en|wc:2|cs:8842|v=4,Murliswroop,https://www.indiamart.com/murliswroop/?pos=71&kwd=maternity tops&tags=||||8601.347|Price|product|||MDC|rsf:gd-|-stype:attr=1|qr_nm:gd|res:RC3|com-cf:nl|ptrs:na|ktp:N0|mc:31797|mtp:S|qry_typ:P|lang:en|wc:2|cs:8842|v=4,False,Mansarovar,Jaipur,"30/23/11, Second Floor, Varun Path Chouraha, Madhyam Marg, Opp. Sharma Sweets, Mansarovar, Mansarovar, Jaipur - 302020, Dist.Jaipur, Rajasthan",7949372492,
"Ladies Pure Cotton Printed Maternity Nightgowns, Blue(Base)",https://www.indiamart.com/proddetail/ladies-pure-cotton-printed-maternity-nightgowns-2854047965691.html?pos=72&kwd=maternity tops&tags=||||8601.347|Price|product|||TS|rsf:gd-|-stype:attr=1|qr_nm:gd|res:RC3|com-cf:nl|ptrs:na|ktp:N0|mc:31797|mtp:S|qry_typ:P|lang:en|wc:2|cs:8842|v=4,Rushi Creation,https://www.indiamart.com/rushicreationjaipur/?pos=72&kwd=maternity tops&tags=||||8601.347|Price|product|||TS|rsf:gd-|-stype:attr=1|qr_nm:gd|res:RC3|com-cf:nl|ptrs:na|ktp:N0|mc:31797|mtp:S|qry_typ:P|lang:en|wc:2|cs:8842|v=4,False,Sanganer,Jaipur,"Showroom No.G-24,Ground Floor,Fagna Plaza,Nagar Nigam Road,Jaipur, Sanganer, Jaipur - 302029, Dist.Jaipur, Rajasthan",8044562714,
Maternity Feeding Kurti,https://www.indiamart.com/proddetail/maternity-feeding-kurti-2854759055962.html?pos=73&kwd=maternity tops&tags=||||8626.744|Price|product|||TS|rsf:gd-|-stype:attr=1|qr_nm:gd|res:RC3|com-cf:nl|ptrs:na|ktp:N0|mc:31797|mtp:S|qry_typ:P|lang:en|wc:2|cs:8842|v=4,RVR Garments,https://www.indiamart.com/rvr-garments-tiruppur/?pos=73&kwd=maternity tops&tags=||||8626.744|Price|product|||TS|rsf:gd-|-stype:attr=1|qr_nm:gd|res:RC3|com-cf:nl|ptrs:na|ktp:N0|mc:31797|mtp:S|qry_typ:P|lang:en|wc:2|cs:8842|v=4,False,Weavers Colony,Tiruppur,"4-1/19, Babuji Nagar 3rd Street,Kumarananthapuram, Weavers Colony, Tiruppur - 641602, Dist.Coimbatore, Tamil Nadu",7942962984,
"Green Printed Cotton Feeding Nighties Gown, Full Sleeve",https://www.indiamart.com/proddetail/cotton-feeding-nighties-gown-2853636714055.html?pos=74&kwd=maternity tops&tags=||||9148.645|Price|product|||MDC|rsf:gd-|-stype:attr=1|qr_nm:gd|res:RC3|com-cf:nl|ptrs:na|ktp:N0|mc:31797|mtp:S|qry_typ:P|lang:en|wc:2|cs:8842|v=4,Sri Jaya Enterprises,https://www.indiamart.com/sri-jayaenterprises/?pos=74&kwd=maternity tops&tags=||||9148.645|Price|product|||MDC|rsf:gd-|-stype:attr=1|qr_nm:gd|res:RC3|com-cf:nl|ptrs:na|ktp:N0|mc:31797|mtp:S|qry_typ:P|lang:en|wc:2|cs:8842|v=4,False,Machara,Mandapeta,"31-1-27/1, Ward No 13, Alamuru Road, Mandapeta, East Godavari, Machara, Mandapeta - 533308, Dist.East Godavari, Andhra Pradesh",7949093426,
"Green (Base) Printed Saloni Dull Cotton Mother Feeding Nightgown, Half Sleeve",https://www.indiamart.com/proddetail/saloni-dull-cotton-mother-feeding-nightgown-2850476955473.html?pos=75&kwd=maternity tops&tags=||||8786.56|Price|product|||MDC|rsf:gd-|-stype:attr=1|qr_nm:gd|res:RC3|com-cf:nl|ptrs:na|ktp:N0|mc:31797|mtp:S|qry_typ:P|lang:en|wc:2|cs:8842|v=4,Saloni Textile,https://www.indiamart.com/saloni-textiles/?pos=75&kwd=maternity tops&tags=||||8786.56|Price|product|||MDC|rsf:gd-|-stype:attr=1|qr_nm:gd|res:RC3|com-cf:nl|ptrs:na|ktp:N0|mc:31797|mtp:S|qry_typ:P|lang:en|wc:2|cs:8842|v=4,False,Rasoolpura,Hyderabad,"24, Margadarshini Colony , Rasool Pura, Rasoolpura, Hyderabad - 500003, Dist.Hyderabad, Telangana",7942823938,
Cotton Hosiery Plain Women Maroon Maternity/Nursing Non Padded Bra,https://www.indiamart.com/proddetail/women-maroon-maternity-nursing-non-padded-bra-2850595241630.html?pos=76&kwd=maternity tops&tags=||||8752.144|Price|product|||TS|rsf:gd-|-stype:attr=1|qr_nm:gd|res:RC3|com-cf:nl|ptrs:na|ktp:N0|mc:31797|mtp:S|qry_typ:P|lang:en|wc:2|cs:8842|v=4,KSB Enterprises,https://www.indiamart.com/ksb-enterprises-newdelhi/?pos=76&kwd=maternity tops&tags=||||8752.144|Price|product|||TS|rsf:gd-|-stype:attr=1|qr_nm:gd|res:RC3|com-cf:nl|ptrs:na|ktp:N0|mc:31797|mtp:S|qry_typ:P|lang:en|wc:2|cs:8842|v=4,False,Shastri Nagar,New Delhi,"House No 112, 1st Floor, Blk-Wz, Village Neemri, Shastri Nagar North West, Shastri Nagar, New Delhi - 110052, Dist.Delhi, Delhi",8043862416,
"Cotton Printed Fancy Tops, multi color",https://www.indiamart.com/proddetail/fancy-tops-2853291168391.html?pos=77&kwd=maternity tops&tags=||||8230.883|Price|product|||TS|rsf:gd-|-stype:attr=1|qr_nm:gd|res:RC3|com-cf:nl|ptrs:na|ktp:N0|mc:31797|mtp:S|qry_typ:P|lang:en|wc:2|cs:8842|v=4,Yadu Nandan Fashion,https://www.indiamart.com/yadunandan-fashions-surat/?pos=77&kwd=maternity tops&tags=||||8230.883|Price|product|||TS|rsf:gd-|-stype:attr=1|qr_nm:gd|res:RC3|com-cf:nl|ptrs:na|ktp:N0|mc:31797|mtp:S|qry_typ:P|lang:en|wc:2|cs:8842|v=4,True,Bharthana,Surat,"2002-2005, 2015-2018, Jai Radhe Textile Market, Ring Road, Bharthana, Surat - 395003, Dist.Surat, Gujarat",7942801171,
Blue Girls Tops,https://www.indiamart.com/proddetail/girls-tops-20614250991.html?pos=78&kwd=maternity tops&tags=||||8663.873|Price|product|||TS|rsf:gd-|-stype:attr=1|qr_nm:gd|res:RC3|com-cf:nl|ptrs:na|ktp:N0|mc:31797|mtp:S|qry_typ:P|lang:en|wc:2|cs:8842|v=4,Suntex Inc.,https://www.indiamart.com/suntexinc/?pos=78&kwd=maternity tops&tags=||||8663.873|Price|product|||TS|rsf:gd-|-stype:attr=1|qr_nm:gd|res:RC3|com-cf:nl|ptrs:na|ktp:N0|mc:31797|mtp:S|qry_typ:P|lang:en|wc:2|cs:8842|v=4,False,Sudhama Nagar,Bengaluru,"No 9, 1st Floor, 1st 'B' Main Road, 2nd Cross , Sudhamanagar,Lalbagh Road Cross, Sudhama Nagar, Bengaluru - 560027, Dist.Bengaluru, Karnataka",8048982054,
"Multicolor Rayon Foil V Neck, Casual Wear",https://www.indiamart.com/proddetail/rayon-foil-v-neck-2853655778812.html?pos=79&kwd=maternity tops&tags=||||8228.275|Price|product|||TS|rsf:gd-|-stype:attr=1|qr_nm:gd|res:RC3|com-cf:nl|ptrs:na|ktp:N0|mc:31797|mtp:S|qry_typ:P|lang:en|wc:2|cs:8842|v=4,Shree Nakoda Bhairav Fab Tex,https://www.indiamart.com/shree-nakoda-bhairav-fabtex/?pos=79&kwd=maternity tops&tags=||||8228.275|Price|product|||TS|rsf:gd-|-stype:attr=1|qr_nm:gd|res:RC3|com-cf:nl|ptrs:na|ktp:N0|mc:31797|mtp:S|qry_typ:P|lang:en|wc:2|cs:8842|v=4,False,Jahangirpura,Ahmedabad,"2nd Floor, E-213/ A, Prem Darwaja Road, Near Idgah Circle, City Center, Jahangirpura, Ahmedabad - 380016, Dist.Ahmedabad, Gujarat",8047306382,
Mother Feeding Kurtis,https://www.indiamart.com/proddetail/mother-feeding-kurtis-2854448277730.html?pos=80&kwd=maternity tops&tags=||||8228.275|Price|product|||MDC|rsf:gd-|-stype:attr=1|qr_nm:gd|res:RC3|com-cf:nl|ptrs:na|ktp:N0|mc:31797|mtp:S|qry_typ:P|lang:en|wc:2|cs:8842|v=4,Aura Creation,https://www.indiamart.com/auracreationgujarat/?pos=80&kwd=maternity tops&tags=||||8228.275|Price|product|||MDC|rsf:gd-|-stype:attr=1|qr_nm:gd|res:RC3|com-cf:nl|ptrs:na|ktp:N0|mc:31797|mtp:S|qry_typ:P|lang:en|wc:2|cs:8842|v=4,False,Saraspur,Ahmedabad,"Third Floor, B-310, City Centre-1, Opp. Idgah Masjid, Premdarwaja Road,, Saraspur, Ahmedabad - 380018, Dist.Ahmedabad, Gujarat",7942713567,
"Polyester Ladies Night Gown Dress feeding, Sleeves: Half",https://www.indiamart.com/proddetail/ladies-night-gown-dress-feeding-2849032802791.html?pos=81&kwd=maternity tops&tags=||||8228.275|Price|product|||MDC|rsf:gd-|-stype:attr=1|qr_nm:gd|res:RC3|com-cf:nl|ptrs:na|ktp:N0|mc:31797|mtp:S|qry_typ:P|lang:en|wc:2|cs:8842|v=4,Dev Creation,https://www.indiamart.com/devcreation-ahmedabad-gujarat/?pos=81&kwd=maternity tops&tags=||||8228.275|Price|product|||MDC|rsf:gd-|-stype:attr=1|qr_nm:gd|res:RC3|com-cf:nl|ptrs:na|ktp:N0|mc:31797|mtp:S|qry_typ:P|lang:en|wc:2|cs:8842|v=4,False,Saraspur,Ahmedabad,"A-232, Sumel Business Park-4, New Gujarat Synthetic Mill Compound, Opp Amdupura Saraspur, Saraspur, Ahmedabad - 380018, Dist.Ahmedabad, Gujarat",8043892750,
Printed Maternity Tops,https://www.indiamart.com/proddetail/printed-maternity-tops-13181845591.html?pos=82&kwd=maternity tops&tags=CA||||8752.144|Price|product|||NA|rsf:gd-|-stype:attr=1|qr_nm:gd|res:RC3|com-cf:nl|ptrs:na|ktp:N0|mc:31797|mtp:S|qry_typ:P|lang:en|wc:2|cs:8842|v=4,Fresh Venturz LLP,https://www.indiamart.com/freshventurz/?pos=82&kwd=maternity tops&tags=CA||||8752.144|Price|product|||NA|rsf:gd-|-stype:attr=1|qr_nm:gd|res:RC3|com-cf:nl|ptrs:na|ktp:N0|mc:31797|mtp:S|qry_typ:P|lang:en|wc:2|cs:8842|v=4,False,Mehrauli,New Delhi,"6/844, Main Bazar, Mehrauli, Mehrauli, New Delhi - 110030, Dist.Delhi, Delhi",8062245048,941
Maternity Tops,https://www.indiamart.com/proddetail/maternity-tops-2951480162.html?pos=83&kwd=maternity tops&tags=CA||||8778.123|Price|product|||NA|rsf:gd-|-stype:attr=1|qr_nm:gd|res:RC3|com-cf:nl|ptrs:na|ktp:N0|mc:31797|mtp:S|qry_typ:P|lang:en|wc:2|cs:8842|v=4,A & M International,https://www.indiamart.com/a-m-international-delhi/?pos=83&kwd=maternity tops&tags=CA||||8778.123|Price|product|||NA|rsf:gd-|-stype:attr=1|qr_nm:gd|res:RC3|com-cf:nl|ptrs:na|ktp:N0|mc:31797|mtp:S|qry_typ:P|lang:en|wc:2|cs:8842|v=4,False,Sector 63,Noida,"E-79, Sector-63, Sector 63, Noida - 201301, Dist.Gautam Budh Nagar, Uttar Pradesh",8048249691,6373
Black Floral Printed Top with Cap Sleeves for Girls and Women,https://www.indiamart.com/proddetail/black-floral-printed-top-with-cap-sleeves-for-girls-and-women-2851735732997.html?pos=84&kwd=maternity tops&tags=||||8752.144|Price|product|||TS|rsf:gd-|-stype:attr=1|qr_nm:gd|res:RC3|com-cf:nl|ptrs:na|ktp:N0|mc:31797|mtp:S|qry_typ:P|lang:en|wc:2|cs:8842|v=4,Sun Shine Marketing Solutions,https://www.indiamart.com/sunshinemarketingsolutions/?pos=84&kwd=maternity tops&tags=||||8752.144|Price|product|||TS|rsf:gd-|-stype:attr=1|qr_nm:gd|res:RC3|com-cf:nl|ptrs:na|ktp:N0|mc:31797|mtp:S|qry_typ:P|lang:en|wc:2|cs:8842|v=4,False,Lajpat Nagar 4,New Delhi,"Ground Floor, A-78, Amar Colony, Lajpat Nagar-4, South Delhi, Lajpat Nagar 4, New Delhi - 110024, Dist.Delhi, Delhi",7942835548,
Maternity gowns,https://www.indiamart.com/proddetail/maternity-gowns-2854506093188.html?pos=85&kwd=maternity tops&tags=||||8601.347|Price|product|||TS|rsf:gd-|-stype:attr=1|qr_nm:gd|res:RC3|com-cf:nl|ptrs:na|ktp:N0|mc:31797|mtp:S|qry_typ:P|lang:en|wc:2|cs:8842|v=4,Sana Crafts,https://www.sanacrafts.com/?pos=85&kwd=maternity tops&tags=||||8601.347|Price|product|||TS|rsf:gd-|-stype:attr=1|qr_nm:gd|res:RC3|com-cf:nl|ptrs:na|ktp:N0|mc:31797|mtp:S|qry_typ:P|lang:en|wc:2|cs:8842|v=4,True,Sanganer Bazar,Jaipur,"14 Ganga Vihar, Sanganer, Sanganer Bazar, Jaipur - 302029, Dist.Jaipur, Rajasthan",7942543419,
purple Maternity Tops,https://www.indiamart.com/proddetail/maternity-tops-2851285598497.html?pos=86&kwd=maternity tops&tags=CC||||8752.144||product|||NA|rsf:gd-|-stype:attr=1|qr_nm:gd|res:RC3|com-cf:nl|ptrs:na|ktp:N0|mc:31797|mtp:S|qry_typ:P|lang:en|wc:2|cs:8842|v=4,Fashion Villa,https://www.indiamart.com/fashionvilla-76204859/?pos=86&kwd=maternity tops&tags=CC||||8752.144||product|||NA|rsf:gd-|-stype:attr=1|qr_nm:gd|res:RC3|com-cf:nl|ptrs:na|ktp:N0|mc:31797|mtp:S|qry_typ:P|lang:en|wc:2|cs:8842|v=4,False,,New Delhi,", New Delhi - 110081, Dist.Delhi, Delhi",8048264411,535
Maternity Tops,https://www.indiamart.com/proddetail/maternity-tops-2962035855.html?pos=87&kwd=maternity tops&tags=CC||||8626.744||product|||NA|rsf:gd-|-stype:attr=1|qr_nm:gd|res:RC3|com-cf:nl|ptrs:na|ktp:N0|mc:31797|mtp:S|qry_typ:P|lang:en|wc:2|cs:8842|v=4,Synerg,https://www.indiamart.com/synerg/?pos=87&kwd=maternity tops&tags=CC||||8626.744||product|||NA|rsf:gd-|-stype:attr=1|qr_nm:gd|res:RC3|com-cf:nl|ptrs:na|ktp:N0|mc:31797|mtp:S|qry_typ:P|lang:en|wc:2|cs:8842|v=4,False,,Tiruppur,"62, 11th Street, A.S.nagar Amarjothi Garden, Kangayam Road,, Tiruppur - 641604, Dist.Coimbatore, Tamil Nadu",8048249690,9318
Maternity Tops,https://www.indiamart.com/proddetail/maternity-tops-24917512055.html?pos=88&kwd=maternity tops&tags=CC||||8954.051|Price|product|||NA|rsf:gd-|-stype:attr=1|qr_nm:gd|res:RC3|com-cf:nl|ptrs:na|ktp:N0|mc:31797|mtp:S|qry_typ:P|lang:en|wc:2|cs:8842|v=4,Sai Blossoms,https://www.indiamart.com/saiblossom/?pos=88&kwd=maternity tops&tags=CC||||8954.051|Price|product|||NA|rsf:gd-|-stype:attr=1|qr_nm:gd|res:RC3|com-cf:nl|ptrs:na|ktp:N0|mc:31797|mtp:S|qry_typ:P|lang:en|wc:2|cs:8842|v=4,False,Chennai,Chennai,"4/12 Perumbakkam Main road,Perumbakkam Perumbakkam, Chennai, Chennai - 600100, Dist.Chennai, Tamil Nadu",8048247129,5027
Maternity Ladies Tops,https://www.indiamart.com/proddetail/maternity-ladies-tops-2961358173.html?pos=89&kwd=maternity tops&tags=CC||||8584.299|Price|product|||NA|rsf:gd-|-stype:attr=1|qr_nm:gd|res:RC3|com-cf:nl|ptrs:na|ktp:N0|mc:31797|mtp:S|qry_typ:P|lang:en|wc:2|cs:8842|v=4,VVN International,https://www.indiamart.com/vpninternationalindia/?pos=89&kwd=maternity tops&tags=CC||||8584.299|Price|product|||NA|rsf:gd-|-stype:attr=1|qr_nm:gd|res:RC3|com-cf:nl|ptrs:na|ktp:N0|mc:31797|mtp:S|qry_typ:P|lang:en|wc:2|cs:8842|v=4,False,Appachi Nagar,Coimbatore,"207,NEW RAMS NAGAR EXTN,,P.N.PALAYAM VADAVALLI No. 12/34, 1st Street, 3rd Cross, Kongu Main Road,641607,Tiruppur, Appachi Nagar, Coimbatore - 641041, Dist.Coimbatore, Tamil Nadu",8048372769,328
Women Maternity Tops,https://www.indiamart.com/proddetail/women-maternity-tops-2575463548.html?pos=90&kwd=maternity tops&tags=CC||||8626.744||product|||NA|rsf:gd-|-stype:attr=1|qr_nm:gd|res:RC3|com-cf:nl|ptrs:na|ktp:N0|mc:31797|mtp:S|qry_typ:P|lang:en|wc:2|cs:8842|v=4,Max Cotton Company,https://www.indiamart.com/max-cotton-company/?pos=90&kwd=maternity tops&tags=CC||||8626.744||product|||NA|rsf:gd-|-stype:attr=1|qr_nm:gd|res:RC3|com-cf:nl|ptrs:na|ktp:N0|mc:31797|mtp:S|qry_typ:P|lang:en|wc:2|cs:8842|v=4,False,,Tiruppur,"No. 33, L. R. G. Layout, 5th Street, Karuvampalayam, Tiruppur - 641604, Dist.Coimbatore, Tamil Nadu",7942643309,
Thigh Length Cotton Maternity Tops,https://www.indiamart.com/proddetail/thigh-length-cotton-maternity-tops-22941758048.html?pos=91&kwd=maternity tops&tags=CB||||8302.941|Price|product|||NA|rsf:gd-|-stype:attr=1|qr_nm:gd|res:RC3|com-cf:nl|ptrs:na|ktp:N0|mc:31797|mtp:S|qry_typ:P|lang:en|wc:2|cs:8842|v=4,Pink Panda,https://www.indiamart.com/pink-panda/?pos=91&kwd=maternity tops&tags=CB||||8302.941|Price|product|||NA|rsf:gd-|-stype:attr=1|qr_nm:gd|res:RC3|com-cf:nl|ptrs:na|ktp:N0|mc:31797|mtp:S|qry_typ:P|lang:en|wc:2|cs:8842|v=4,False,Chaitanya Vihar,Chinchwad,"Plot No B405, Chaitanya Vihar, Chinchwad - 411033, Dist.Pune, Maharashtra",8048372546,294
Maternity Wear,,Arasan Creation,https://www.indiamart.com/arasancreationtiruppur/?pos=92&kwd=maternity tops&tags=CC||||8717.056||product|||NA|rsf:gd-|-stype:attr=1|qr_nm:gd|res:RC3|com-cf:nl|ptrs:na|ktp:N0|mc:31797|mtp:S|qry_typ:P|lang:en|wc:2|cs:8842|v=4,False,Opposite To Varanashi Thatre,Salem,"15,Ward 17, Alagagoundanoor,Mecheri , Ammalapalayam,641652,Tiruppur, Opposite To Varanashi Thatre, Salem - 636451, Dist.Salem, Tamil Nadu",8048371958,399
Pregnancy Tops,,Sweet Night,https://www.indiamart.com/sweetnightmumbai/?pos=93&kwd=maternity tops&tags=CC||||8211.142||product|||NA|rsf:gd-|-stype:attr=1|qr_nm:gd|res:RC3|com-cf:nl|ptrs:na|ktp:N0|mc:31797|mtp:S|qry_typ:P|lang:en|wc:2|cs:8842|v=4,False,Dadar West,Mumbai,"G. 21, Om Gopal Industry Garage Galli, Opposite Pacific Plaza, Dadar West, Mumbai - 400028, Dist.Mumbai, Maharashtra",8047781107,
Gowns And Dresses And Skirts XXL And Free Size Maternity Dress,https://www.indiamart.com/proddetail/maternity-dress-16746937948.html?pos=94&kwd=maternity tops&tags=CC||||8752.144|Price|product|||NA|rsf:gd-|-stype:attr=1|qr_nm:gd|res:RC3|com-cf:nl|ptrs:na|ktp:N0|mc:31797|mtp:S|qry_typ:P|lang:en|wc:2|cs:8842|v=4,Arnav Creations,https://www.indiamart.com/arnavcreations/?pos=94&kwd=maternity tops&tags=CC||||8752.144|Price|product|||NA|rsf:gd-|-stype:attr=1|qr_nm:gd|res:RC3|com-cf:nl|ptrs:na|ktp:N0|mc:31797|mtp:S|qry_typ:P|lang:en|wc:2|cs:8842|v=4,False,dwarka,New Delhi,"H.No-55, Block-P, 2 dwarka, dwarka, New Delhi - 110059, Dist.Delhi, Delhi",8069017096,634
Bubble Top Maternity,,Made By India,https://www.indiamart.com/made-by-india/?pos=95&kwd=maternity tops&tags=CC||||8788.382||product|||NA|rsf:gd-|-stype:attr=1|qr_nm:gd|res:RC3|com-cf:nl|ptrs:na|ktp:N0|mc:31797|mtp:S|qry_typ:P|lang:en|wc:2|cs:8842|v=4,False,Unit I,Greater Noida,"Plot 99,1, Ecotech 3,UdyogKendra -2 Unit- I, Plot No. 99, Udhyog Kendra Extension- 2, Ecotech-3,201308,Greater Noida, Unit I, Greater Noida - 201306, Dist.Gautam Budh Nagar, Uttar Pradesh",8062245031,145
Mybody Maternity Wear,,Mybody Apparels,https://www.indiamart.com/mybody-apparels/?pos=96&kwd=maternity tops&tags=CC||||8211.142|Price|product|||NA|rsf:gd-|-stype:attr=1|qr_nm:gd|res:RC3|com-cf:nl|ptrs:na|ktp:N0|mc:31797|mtp:S|qry_typ:P|lang:en|wc:2|cs:8842|v=4,False,Santacruz,Mumbai,"1/5, Old Anand Nagar, Nehru Road, Santacruz East, Santacruz, Mumbai - 400055, Dist.Mumbai, Maharashtra",8048372729,678
Black And White Maternity Long Top,https://www.indiamart.com/proddetail/maternity-long-top-21638378612.html?pos=97&kwd=maternity tops&tags=CC||||9111.322|Price|product|||NA|rsf:gd-|-stype:attr=1|qr_nm:gd|res:RC3|com-cf:nl|ptrs:na|ktp:N0|mc:31797|mtp:S|qry_typ:P|lang:en|wc:2|cs:8842|v=4,Utkarsh Enterprises,https://www.indiamart.com/redcomet/?pos=97&kwd=maternity tops&tags=CC||||9111.322|Price|product|||NA|rsf:gd-|-stype:attr=1|qr_nm:gd|res:RC3|com-cf:nl|ptrs:na|ktp:N0|mc:31797|mtp:S|qry_typ:P|lang:en|wc:2|cs:8842|v=4,False,Sector 1,Bhilai,"102/D, Second Floor, A Market, Sector 1, Bhilai - 490001, Dist.Durg, Chhattisgarh",7942617446,
Ladies Maternity Wear,https://www.indiamart.com/proddetail/ladies-maternity-wear-10572398662.html?pos=98&kwd=maternity tops&tags=CC||||8785.791||product|||NA|rsf:gd-|-stype:attr=1|qr_nm:gd|res:RC3|com-cf:nl|ptrs:na|ktp:N0|mc:31797|mtp:S|qry_typ:P|lang:en|wc:2|cs:8842|v=4,Sparsh Collection,https://www.indiamart.com/sparshcollection/?pos=98&kwd=maternity tops&tags=CC||||8785.791||product|||NA|rsf:gd-|-stype:attr=1|qr_nm:gd|res:RC3|com-cf:nl|ptrs:na|ktp:N0|mc:31797|mtp:S|qry_typ:P|lang:en|wc:2|cs:8842|v=4,False,Nehru Nagar,Ghaziabad,"No. 197, 1st & 2nd Floor, New Gandhi Nagar, Nehru Nagar, Ghaziabad - 201001, Dist.Ghaziabad, Uttar Pradesh",8047793195,
Ladies Breast Feeding Maternity Nursing Top,https://www.indiamart.com/proddetail/ladies-breast-feeding-maternity-nursing-top-4930531191.html?pos=99&kwd=maternity tops&tags=CB||||8626.744||product|||NA|rsf:gd-|-stype:attr=1|qr_nm:gd|res:RC3|com-cf:nl|ptrs:na|ktp:N0|mc:31797|mtp:S|qry_typ:P|lang:en|wc:2|cs:8842|v=4,Smaart Knitss,https://www.indiamart.com/smaartknitss/?pos=99&kwd=maternity tops&tags=CB||||8626.744||product|||NA|rsf:gd-|-stype:attr=1|qr_nm:gd|res:RC3|com-cf:nl|ptrs:na|ktp:N0|mc:31797|mtp:S|qry_typ:P|lang:en|wc:2|cs:8842|v=4,False,Dharapuram Road,Tiruppur,"8/92N,N.KANCHIPURAM,ELLAPALAYAM PUDUR,KODUVAI, TIRUPUR No. 4, PKR Layout, Vinoba Nagar, Dharapuram Road,641608,Tiruppur, Dharapuram Road, Tiruppur - 641660, Dist.Coimbatore, Tamil Nadu",8048372522,971
9teenAGAIN Women''s Crepe Maternity Top,https://www.indiamart.com/proddetail/9teenagain-women-s-crepe-maternity-top-20911018112.html?pos=100&kwd=maternity tops&tags=CC||||8601.347|Price|product|||NA|rsf:gd-|-stype:attr=1|qr_nm:gd|res:RC3|com-cf:nl|ptrs:na|ktp:N0|mc:31797|mtp:S|qry_typ:P|lang:en|wc:2|cs:8842|v=4,Devs Trends LLP,https://www.indiamart.com/devs-trends-llp/?pos=100&kwd=maternity tops&tags=CC||||8601.347|Price|product|||NA|rsf:gd-|-stype:attr=1|qr_nm:gd|res:RC3|com-cf:nl|ptrs:na|ktp:N0|mc:31797|mtp:S|qry_typ:P|lang:en|wc:2|cs:8842|v=4,False,Malviya Nagar Industrial Area ( RIICO),Jaipur,"F-20, B (II), Malviya Nagar Industrial Area ( RIICO), Jaipur - 302017, Dist.Jaipur, Rajasthan",7942628022,
Pregnancy Tops,,Natraj Emporium,https://www.indiamart.com/natrajemporium-solapur/?pos=101&kwd=maternity tops&tags=CC||||8515.687||product|||NA|rsf:gd-|-stype:attr=1|qr_nm:gd|res:RC3|com-cf:nl|ptrs:na|ktp:N0|mc:31797|mtp:S|qry_typ:P|lang:en|wc:2|cs:8842|v=4,False,Navi Peth,Solapur,"Paras Estate , Navi Peth, Solapur Navi Peth,, Navi Peth, Solapur - 413007, Dist.Solapur, Maharashtra",8048247133,4302
"Maternity Wear, 180gsm",https://www.indiamart.com/proddetail/maternity-wear-22454905630.html?pos=102&kwd=maternity tops&tags=CC||||8626.744|Price|product|||NA|rsf:gd-|-stype:attr=1|qr_nm:gd|res:RC3|com-cf:nl|ptrs:na|ktp:N0|mc:31797|mtp:S|qry_typ:P|lang:en|wc:2|cs:8842|v=4,Cute O Cute,https://www.indiamart.com/cuteocute/?pos=102&kwd=maternity tops&tags=CC||||8626.744|Price|product|||NA|rsf:gd-|-stype:attr=1|qr_nm:gd|res:RC3|com-cf:nl|ptrs:na|ktp:N0|mc:31797|mtp:S|qry_typ:P|lang:en|wc:2|cs:8842|v=4,False,Andipalayam,Tiruppur,"259/3, Amman nagar Kulathupudur, Andipalayam, Tiruppur - 641687, Dist.Coimbatore, Tamil Nadu",8048371509,526
Maternity Clothing,https://www.indiamart.com/proddetail/maternity-clothing-23132467333.html?pos=103&kwd=maternity tops&tags=CC||||8717.755|Price|product|||NA|rsf:gd-|-stype:attr=1|qr_nm:gd|res:RC3|com-cf:nl|ptrs:na|ktp:N0|mc:31797|mtp:S|qry_typ:P|lang:en|wc:2|cs:8842|v=4,Sree Kruthi Collection,https://www.indiamart.com/sree-kruthi-collection/?pos=103&kwd=maternity tops&tags=CC||||8717.755|Price|product|||NA|rsf:gd-|-stype:attr=1|qr_nm:gd|res:RC3|com-cf:nl|ptrs:na|ktp:N0|mc:31797|mtp:S|qry_typ:P|lang:en|wc:2|cs:8842|v=4,False,Bongulur,Rangareddy,"Plot No 20 Saptagiri venture, Bongulur, Rangareddy - 501510, Dist.Rangareddy, Telangana",8048361346,968
Cotton Printed Maternity Clothing,https://www.indiamart.com/proddetail/maternity-clothing-20825842912.html?pos=104&kwd=maternity tops&tags=CC||||9839.57|Price|product|||NA|rsf:gd-|-stype:attr=1|qr_nm:gd|res:RC3|com-cf:nl|ptrs:na|ktp:N0|mc:31797|mtp:S|qry_typ:P|lang:en|wc:2|cs:8842|v=4,Shree Krishna Creation,https://www.indiamart.com/shree-krishna-creation-kolkata/?pos=104&kwd=maternity tops&tags=CC||||9839.57|Price|product|||NA|rsf:gd-|-stype:attr=1|qr_nm:gd|res:RC3|com-cf:nl|ptrs:na|ktp:N0|mc:31797|mtp:S|qry_typ:P|lang:en|wc:2|cs:8842|v=4,False,,Kolkata,"43, Sir Hariram Goenka Street, 1st Floor, Jorasanko, Kolkata - 700007, Dist.Kolkata, West Bengal",8048372440,974
Fancy Maternity Top,https://www.indiamart.com/proddetail/fancy-maternity-top-11256664473.html?pos=105&kwd=maternity tops&tags=CC||||8626.744|Price|product|||NA|rsf:gd-|-stype:attr=1|qr_nm:gd|res:RC3|com-cf:nl|ptrs:na|ktp:N0|mc:31797|mtp:S|qry_typ:P|lang:en|wc:2|cs:8842|v=4,Raja Garments,https://www.indiamart.com/rajagarments-tiruppur/?pos=105&kwd=maternity tops&tags=CC||||8626.744|Price|product|||NA|rsf:gd-|-stype:attr=1|qr_nm:gd|res:RC3|com-cf:nl|ptrs:na|ktp:N0|mc:31797|mtp:S|qry_typ:P|lang:en|wc:2|cs:8842|v=4,False,Karattangadu,Tiruppur,"30-36,TSR LAYOUT, 3 rd STREET, VSM VILLA NORTH,KONGU MAIN ROAD CROSS ,30-36,TSR LAYOUT,3 rd STREET, VSM VILLA NORTH,KONGU MAIN ROAD CROSS,641608,Tiruppur, Karattangadu, Tiruppur - 641607, Dist.Coimbatore, Tamil Nadu",8048372709,847
White Maternity Top,https://www.indiamart.com/proddetail/white-maternity-top-22646537897.html?pos=106&kwd=maternity tops&tags=CB||||8584.299|Price|product|||NA|rsf:gd-|-stype:attr=1|qr_nm:gd|res:RC3|com-cf:nl|ptrs:na|ktp:N0|mc:31797|mtp:S|qry_typ:P|lang:en|wc:2|cs:8842|v=4,Tinyfeets,https://www.indiamart.com/tinyfeets/?pos=106&kwd=maternity tops&tags=CB||||8584.299|Price|product|||NA|rsf:gd-|-stype:attr=1|qr_nm:gd|res:RC3|com-cf:nl|ptrs:na|ktp:N0|mc:31797|mtp:S|qry_typ:P|lang:en|wc:2|cs:8842|v=4,False,coimbatore,Coimbatore,"No.9, 2nd Andal Street, Lakshmipuram, Peelamedu Coimbatore, coimbatore, Coimbatore - 641004, Dist.Coimbatore, Tamil Nadu",8048372578,793
Sleeveless Maternity Top,https://www.indiamart.com/proddetail/sleeveless-maternity-top-4204611130.html?pos=107&kwd=maternity tops&tags=CB||||8778.123||product|||NA|rsf:gd-|-stype:attr=1|qr_nm:gd|res:RC3|com-cf:nl|ptrs:na|ktp:N0|mc:31797|mtp:S|qry_typ:P|lang:en|wc:2|cs:8842|v=4,Net Paradigm India Private Limited,https://www.indiamart.com/organicandmore-in-63428/?pos=107&kwd=maternity tops&tags=CB||||8778.123||product|||NA|rsf:gd-|-stype:attr=1|qr_nm:gd|res:RC3|com-cf:nl|ptrs:na|ktp:N0|mc:31797|mtp:S|qry_typ:P|lang:en|wc:2|cs:8842|v=4,False,Sector 63,Noida,"D-129, Sector 63, Noida - 201301, Dist.Gautam Budh Nagar, Uttar Pradesh",8048371958,106
"Peach Ladies Sleeveless Maternity Top, Size: Large, Sleeves: Sleeves Less",https://www.indiamart.com/proddetail/ladies-sleeveless-maternity-top-2849775373591.html?pos=108&kwd=maternity tops&tags=CC||||8752.144|Price|product|||NA|rsf:gd-|-stype:attr=1|qr_nm:gd|res:RC3|com-cf:nl|ptrs:na|ktp:N0|mc:31797|mtp:S|qry_typ:P|lang:en|wc:2|cs:8842|v=4,Genesis,https://www.indiamart.com/genesisnewdelhi/?pos=108&kwd=maternity tops&tags=CC||||8752.144|Price|product|||NA|rsf:gd-|-stype:attr=1|qr_nm:gd|res:RC3|com-cf:nl|ptrs:na|ktp:N0|mc:31797|mtp:S|qry_typ:P|lang:en|wc:2|cs:8842|v=4,False,,New Delhi,"B-423, Somdutt Chambers I, 5, Bhikaji Cama Place, South Delhi, New Delhi - 110066, Dist.Delhi, Delhi",7942797227,
Baby Tag Maternity T-shirt,https://www.indiamart.com/proddetail/baby-tag-maternity-t-shirt-26043695830.html?pos=109&kwd=maternity tops&tags=CC||||8838.804|Price|product|||NA|rsf:gd-|-stype:attr=1|qr_nm:gd|res:RC3|com-cf:nl|ptrs:na|ktp:N0|mc:31797|mtp:S|qry_typ:P|lang:en|wc:2|cs:8842|v=4,Ickreate,https://www.indiamart.com/reel-n-real-photography/?pos=109&kwd=maternity tops&tags=CC||||8838.804|Price|product|||NA|rsf:gd-|-stype:attr=1|qr_nm:gd|res:RC3|com-cf:nl|ptrs:na|ktp:N0|mc:31797|mtp:S|qry_typ:P|lang:en|wc:2|cs:8842|v=4,False,,Aligarh,"2/469 SURMARG VISHNUPURI, Aligarh - 202001, Uttar Pradesh",,
Pregnancy Tops,,Brands Bucket,https://www.indiamart.com/brandsbucket-ghaziabad/?pos=110&kwd=maternity tops&tags=CC||||8785.791||product|||NA|rsf:gd-|-stype:attr=1|qr_nm:gd|res:RC3|com-cf:nl|ptrs:na|ktp:N0|mc:31797|mtp:S|qry_typ:P|lang:en|wc:2|cs:8842|v=4,False,,Ghaziabad,"45 2nd Floor Palika Bazar, G.t. Road, Ghaziabad - 201001, Dist.Ghaziabad, Uttar Pradesh",8048249690,9133
Pregnancy Tops,,Naman Merchandising Services,https://www.indiamart.com/namanmerchandisingservices/?pos=111&kwd=maternity tops&tags=CC||||8954.051||product|||NA|rsf:gd-|-stype:attr=1|qr_nm:gd|res:RC3|com-cf:nl|ptrs:na|ktp:N0|mc:31797|mtp:S|qry_typ:P|lang:en|wc:2|cs:8842|v=4,False,Sourcing Beyond Boundaries,Chennai,"Akshaya January, W-509, Block Wednesday, 5th Floor OMR Road, Chengalmal, Kelambakam, Thaiyur, Sourcing Beyond Boundaries, Chennai - 603103, Dist.Chennai, Tamil Nadu",8069017213,562
Feeding Tops,https://www.indiamart.com/proddetail/feeding-tops-20353809688.html?pos=112&kwd=maternity tops&tags=CC||||8830.079|Price|product|||NA|rsf:gd-|-stype:attr=1|qr_nm:gd|res:RC3|com-cf:nl|ptrs:na|ktp:N0|mc:31797|mtp:S|qry_typ:P|lang:en|wc:2|cs:8842|v=4,Inga Maternitywear,https://www.indiamart.com/inga-maternitywear/?pos=112&kwd=maternity tops&tags=CC||||8830.079|Price|product|||NA|rsf:gd-|-stype:attr=1|qr_nm:gd|res:RC3|com-cf:nl|ptrs:na|ktp:N0|mc:31797|mtp:S|qry_typ:P|lang:en|wc:2|cs:8842|v=4,False,,Vellore,"Gudiyattam, Vellore - 632602, Dist.Vellore, Tamil Nadu",8045849559,386
"Red Women Cotton Zip Feeding Maternity Top, Size: XL",https://www.indiamart.com/proddetail/women-cotton-zip-feeding-maternity-top-2850547810930.html?pos=113&kwd=maternity tops&tags=CC||||8601.347|Price|product|||NA|rsf:gd-|-stype:attr=1|qr_nm:gd|res:RC3|com-cf:nl|ptrs:na|ktp:N0|mc:31797|mtp:S|qry_typ:P|lang:en|wc:2|cs:8842|v=4,Priya's Creation,https://www.indiamart.com/priyascreationjaipur/?pos=113&kwd=maternity tops&tags=CC||||8601.347|Price|product|||NA|rsf:gd-|-stype:attr=1|qr_nm:gd|res:RC3|com-cf:nl|ptrs:na|ktp:N0|mc:31797|mtp:S|qry_typ:P|lang:en|wc:2|cs:8842|v=4,False,,Jaipur,"A-100, Ajmer Road, Jai Mata Vaishno Nagar, Jaipur - 302021, Dist.Jaipur, Rajasthan",8047638720,
"Brown Rayon Printed Maternity Clothing, Size: Large",https://www.indiamart.com/proddetail/brown-rayon-printed-maternity-tops-2850405068733.html?pos=114&kwd=maternity tops&tags=CC||||8601.347|Price|product|||NA|rsf:gd-|-stype:attr=1|qr_nm:gd|res:RC3|com-cf:nl|ptrs:na|ktp:N0|mc:31797|mtp:S|qry_typ:P|lang:en|wc:2|cs:8842|v=4,Spwala,https://www.indiamart.com/spwala/?pos=114&kwd=maternity tops&tags=CC||||8601.347|Price|product|||NA|rsf:gd-|-stype:attr=1|qr_nm:gd|res:RC3|com-cf:nl|ptrs:na|ktp:N0|mc:31797|mtp:S|qry_typ:P|lang:en|wc:2|cs:8842|v=4,False,,Jaipur,"Plot No 59B, Badi Ka Bas Saganer, Saraswati Vihar Vistar, Jaipur - 302022, Dist.Jaipur, Rajasthan",7942819534,
Pastel Pink Cotton Mul Maternity Kurti,https://www.indiamart.com/proddetail/pastel-pink-cotton-mul-maternity-kurti-18930514655.html?pos=115&kwd=maternity tops&tags=CC||||8507.67|Price|product|||NA|rsf:gd-|-stype:attr=1|qr_nm:gd|res:RC3|com-cf:nl|ptrs:na|ktp:N0|mc:31797|mtp:S|qry_typ:P|lang:en|wc:2|cs:8842|v=4,Mantra,https://www.indiamart.com/shalini-jamesmantra/?pos=115&kwd=maternity tops&tags=CC||||8507.67|Price|product|||NA|rsf:gd-|-stype:attr=1|qr_nm:gd|res:RC3|com-cf:nl|ptrs:na|ktp:N0|mc:31797|mtp:S|qry_typ:P|lang:en|wc:2|cs:8842|v=4,False,Cheranalloor,Ernakulam,"16/332A,MANTRA, BHAGAVATHY TEMPLE ROAD,CHERANALLOOR 16/332A,MANTRA,BHAGAVATHY TEMPLE ROAD,CHERANALLOOR,682024,Ernakulam, Cheranalloor, Ernakulam - 682034, Dist.Ernakulam, Kerala",7942663673,
Maternity & Nursing Full Printed Open Top-Diti Green,https://www.indiamart.com/proddetail/maternity-nursing-full-printed-open-top-diti-green-22893869688.html?pos=116&kwd=maternity tops&tags=CC||||8512.615|Price|product|||NA|rsf:gd-|-stype:attr=1|qr_nm:gd|res:RC3|com-cf:nl|ptrs:na|ktp:N0|mc:31797|mtp:S|qry_typ:P|lang:en|wc:2|cs:8842|v=4,Jewish Carpenter,https://www.indiamart.com/jewish-apparel-acessories/?pos=116&kwd=maternity tops&tags=CC||||8512.615|Price|product|||NA|rsf:gd-|-stype:attr=1|qr_nm:gd|res:RC3|com-cf:nl|ptrs:na|ktp:N0|mc:31797|mtp:S|qry_typ:P|lang:en|wc:2|cs:8842|v=4,False,Kottayam,Chengamanad,"Ground Floor, 2/623, Kanjirathumkal, Friends Villa Line, Angamaly, Kottayam, Chengamanad - 683589, Dist.Ernakulam, Kerala",8048372245,874
Maternity Clothing,https://www.indiamart.com/proddetail/maternity-clothing-4391780488.html?pos=117&kwd=maternity tops&tags=CC||||8626.744||product|||NA|rsf:gd-|-stype:attr=1|qr_nm:gd|res:RC3|com-cf:nl|ptrs:na|ktp:N0|mc:31797|mtp:S|qry_typ:P|lang:en|wc:2|cs:8842|v=4,Unitek Service,https://www.indiamart.com/unitekservice/?pos=117&kwd=maternity tops&tags=CC||||8626.744||product|||NA|rsf:gd-|-stype:attr=1|qr_nm:gd|res:RC3|com-cf:nl|ptrs:na|ktp:N0|mc:31797|mtp:S|qry_typ:P|lang:en|wc:2|cs:8842|v=4,False,Renganatha Puram,Tiruppur,"8F, Alagiri Nagar, Renganatha Puram, Tiruppur - 641607, Dist.Coimbatore, Tamil Nadu",8047798978,
Maternity Top,https://www.indiamart.com/proddetail/maternity-top-6508484797.html?pos=118&kwd=maternity tops&tags=CC||||8663.873||product|||NA|rsf:gd-|-stype:attr=1|qr_nm:gd|res:RC3|com-cf:nl|ptrs:na|ktp:N0|mc:31797|mtp:S|qry_typ:P|lang:en|wc:2|cs:8842|v=4,Zeme Organics Private Limited,https://www.indiamart.com/zeme-organics/?pos=118&kwd=maternity tops&tags=CC||||8663.873||product|||NA|rsf:gd-|-stype:attr=1|qr_nm:gd|res:RC3|com-cf:nl|ptrs:na|ktp:N0|mc:31797|mtp:S|qry_typ:P|lang:en|wc:2|cs:8842|v=4,False,Sadashivanagar,Bengaluru,"No. 28/61, Ground Floor, 1st Main Road, Lower Palace Orchards, Sadashivanagar, Sadashivanagar, Bengaluru - 560003, Dist.Bengaluru, Karnataka",8048371923,687
Ladies Maternity Top,https://www.indiamart.com/proddetail/ladies-maternity-top-16667832555.html?pos=119&kwd=maternity tops&tags=CC||||8230.883|Price|product|||NA|rsf:gd-|-stype:attr=1|qr_nm:gd|res:RC3|com-cf:nl|ptrs:na|ktp:N0|mc:31797|mtp:S|qry_typ:P|lang:en|wc:2|cs:8842|v=4,Janki Enterprise,https://www.indiamart.com/janki-enterprise-surat/?pos=119&kwd=maternity tops&tags=CC||||8230.883|Price|product|||NA|rsf:gd-|-stype:attr=1|qr_nm:gd|res:RC3|com-cf:nl|ptrs:na|ktp:N0|mc:31797|mtp:S|qry_typ:P|lang:en|wc:2|cs:8842|v=4,False,Siddhanchal Residency,Surat,"Shop No. 5, Adajan New Swami Vivekanand Bridge, Siddhanchal Residency, Surat - 395009, Dist.Surat, Gujarat",8048250468,480
Pantone Color Cotton Organic Bamboo Maternity,https://www.indiamart.com/proddetail/organic-bamboo-maternity-15320516648.html?pos=120&kwd=maternity tops&tags=CC||||8717.363||product|||NA|rsf:gd-|-stype:attr=1|qr_nm:gd|res:RC3|com-cf:nl|ptrs:na|ktp:N0|mc:31797|mtp:S|qry_typ:P|lang:en|wc:2|cs:8842|v=4,Jaisa Exports,https://www.indiamart.com/jaisa-exports/?pos=120&kwd=maternity tops&tags=CC||||8717.363||product|||NA|rsf:gd-|-stype:attr=1|qr_nm:gd|res:RC3|com-cf:nl|ptrs:na|ktp:N0|mc:31797|mtp:S|qry_typ:P|lang:en|wc:2|cs:8842|v=4,False,Muthugapatty,Namakkal,"No. 6/68, Karuppanar Kovil Street Muthugapatty P. O., Muthugapatty, Namakkal - 637405, Dist.Namakkal, Tamil Nadu",8048371649,131
Stylish Maternity Wear,https://www.indiamart.com/proddetail/stylish-maternity-wear-1294734455.html?pos=121&kwd=maternity tops&tags=CC||||8778.123||product|||NA|rsf:gd-|-stype:attr=1|qr_nm:gd|res:RC3|com-cf:nl|ptrs:na|ktp:N0|mc:31797|mtp:S|qry_typ:P|lang:en|wc:2|cs:8842|v=4,Vinshubh Exports Pvt. Ltd.,https://www.indiamart.com/ladiesgarmentexporter-com-150982/?pos=121&kwd=maternity tops&tags=CC||||8778.123||product|||NA|rsf:gd-|-stype:attr=1|qr_nm:gd|res:RC3|com-cf:nl|ptrs:na|ktp:N0|mc:31797|mtp:S|qry_typ:P|lang:en|wc:2|cs:8842|v=4,False,Sector 63,Noida,"H-30, Sector-63, Sector 63, Noida - 201301, Dist.Gautam Budh Nagar, Uttar Pradesh",8048247115,4301
"Ladies Pink Maternity Kurti, Size: Large",https://www.indiamart.com/proddetail/ladies-pink-maternity-kurti-2851014959630.html?pos=122&kwd=maternity tops&tags=CC||||8601.347|Price|product|||NA|rsf:gd-|-stype:attr=1|qr_nm:gd|res:RC3|com-cf:nl|ptrs:na|ktp:N0|mc:31797|mtp:S|qry_typ:P|lang:en|wc:2|cs:8842|v=4,Shree Shyam Fabricaters,https://www.indiamart.com/shree-shyam-fabricaters/?pos=122&kwd=maternity tops&tags=CC||||8601.347|Price|product|||NA|rsf:gd-|-stype:attr=1|qr_nm:gd|res:RC3|com-cf:nl|ptrs:na|ktp:N0|mc:31797|mtp:S|qry_typ:P|lang:en|wc:2|cs:8842|v=4,False,,Jaipur,"Ghyan Chand S/0 Shri Gopal Saini, Khasra No3445, Sanganer, Jaipur - 302029, Dist.Jaipur, Rajasthan",8048600283,
Pink Floral Printed 100% Soft Cotton Zipless Maternity Top,https://www.indiamart.com/proddetail/pink-floral-printed-100-soft-cotton-zipless-maternity-top-2854189190233.html?pos=123&kwd=maternity tops&tags=CC||||8752.144|Price|product|||NA|rsf:gd-|-stype:attr=1|qr_nm:gd|res:RC3|com-cf:nl|ptrs:na|ktp:N0|mc:31797|mtp:S|qry_typ:P|lang:en|wc:2|cs:8842|v=4,HOZ,https://www.indiamart.com/hoz-delhi/?pos=123&kwd=maternity tops&tags=CC||||8752.144|Price|product|||NA|rsf:gd-|-stype:attr=1|qr_nm:gd|res:RC3|com-cf:nl|ptrs:na|ktp:N0|mc:31797|mtp:S|qry_typ:P|lang:en|wc:2|cs:8842|v=4,False,,Delhi,"Bijwasan 369, Karta Ram Complex, Bijwasin Main Road, Bijwasin, Delhi, Delhi - 110061, Dist.Delhi, Delhi",,
Ladies Breastfeeding Maternity Nursing Top,https://www.indiamart.com/proddetail/ladies-breastfeeding-maternity-nursing-top-2851861302612.html?pos=124&kwd=maternity tops&tags=CC||||8651.144|Price|product|||NA|rsf:gd-|-stype:attr=1|qr_nm:gd|res:RC3|com-cf:nl|ptrs:na|ktp:N0|mc:31797|mtp:S|qry_typ:P|lang:en|wc:2|cs:8842|v=4,Ashriti Wardrobe,https://www.indiamart.com/ashriti-wardrobe/?pos=124&kwd=maternity tops&tags=CC||||8651.144|Price|product|||NA|rsf:gd-|-stype:attr=1|qr_nm:gd|res:RC3|com-cf:nl|ptrs:na|ktp:N0|mc:31797|mtp:S|qry_typ:P|lang:en|wc:2|cs:8842|v=4,False,,Sangrur,"Bxi 1862 New Grain Market Road, Opposite FCI Godowns, Barnala, Sangrur - 148101, Dist.Sangrur, Punjab",8069416034,700
Maternity Wear Womens Day Dress Evening And Day Wear,https://www.indiamart.com/proddetail/maternity-wear-womens-day-dress-evening-and-day-wear-14440446188.html?pos=125&kwd=maternity tops&tags=CC||||8752.144|Price|product|||NA|rsf:gd-|-stype:attr=1|qr_nm:gd|res:RC3|com-cf:nl|ptrs:na|ktp:N0|mc:31797|mtp:S|qry_typ:P|lang:en|wc:2|cs:8842|v=4,Anticlock Threads Private Limited,https://www.indiamart.com/mistletoemia/?pos=125&kwd=maternity tops&tags=CC||||8752.144|Price|product|||NA|rsf:gd-|-stype:attr=1|qr_nm:gd|res:RC3|com-cf:nl|ptrs:na|ktp:N0|mc:31797|mtp:S|qry_typ:P|lang:en|wc:2|cs:8842|v=4,False,Green Park Market,New Delhi,"Green Park Market, Green Park Market, New Delhi - 110016, Dist.Delhi, Delhi",8048249726,8831
Ladies Feeding Top,https://www.indiamart.com/proddetail/ladies-feeding-top-2851576890933.html?pos=126&kwd=maternity tops&tags=CC||||8550.327|Price|product|||NA|rsf:gd-|-stype:attr=1|qr_nm:gd|res:RC3|com-cf:nl|ptrs:na|ktp:N0|mc:31797|mtp:S|qry_typ:P|lang:en|wc:2|cs:8842|v=4,A H Foods,https://www.indiamart.com/a-h-foods-palakkad/?pos=126&kwd=maternity tops&tags=CC||||8550.327|Price|product|||NA|rsf:gd-|-stype:attr=1|qr_nm:gd|res:RC3|com-cf:nl|ptrs:na|ktp:N0|mc:31797|mtp:S|qry_typ:P|lang:en|wc:2|cs:8842|v=4,False,,Palakkad,"5 604,Ground Floor,Changanara Anamari Po,Kollengode,Palakkad, Palakkad - 678506, Dist.Palakkad, Kerala",8062245986,581
Masha Women's Cotton Feeding-Nursing-Maternity Top and Pyjama Set,,B Boy Bodywears,https://www.indiamart.com/b-boy-bodywears/?pos=127&kwd=maternity tops&tags=CC||||8752.144||product|||NA|rsf:gd-|-stype:attr=1|qr_nm:gd|res:RC3|com-cf:nl|ptrs:na|ktp:N0|mc:31797|mtp:S|qry_typ:P|lang:en|wc:2|cs:8842|v=4,False,Kirti Nagar Industrial Area,New Delhi,"SECOND FLOOR, 5/9, KIRTI NAGAR INDUSTRIAL AREA,, Kirti Nagar Industrial Area, New Delhi - 110015, Dist.Delhi, Delhi",8062245015,605
Teal Feeding Top with Center Zipper,https://www.indiamart.com/proddetail/teal-feeding-top-with-center-zipper-2853593137291.html?pos=128&kwd=maternity tops&tags=CC||||8663.873|Price|product|||NA|rsf:gd-|-stype:attr=1|qr_nm:gd|res:RC3|com-cf:nl|ptrs:na|ktp:N0|mc:31797|mtp:S|qry_typ:P|lang:en|wc:2|cs:8842|v=4,Moms Ever,https://www.indiamart.com/moms-ever/?pos=128&kwd=maternity tops&tags=CC||||8663.873|Price|product|||NA|rsf:gd-|-stype:attr=1|qr_nm:gd|res:RC3|com-cf:nl|ptrs:na|ktp:N0|mc:31797|mtp:S|qry_typ:P|lang:en|wc:2|cs:8842|v=4,False,,Bengaluru,"T1b 703, Candeur Carlisle, Itpl Main Road, Mahadevpura T1B 703 Candeur Carlisle,, Bengaluru - 560048, Dist.Bengaluru, Karnataka",,
BREAST FEDDING TOP VEEKSHA,https://www.indiamart.com/proddetail/breast-fedding-top-veeksha-2851868014897.html?pos=129&kwd=maternity tops&tags=CC||||8230.883|Price|product|||NA|rsf:gd-|-stype:attr=1|qr_nm:gd|res:RC3|com-cf:nl|ptrs:na|ktp:N0|mc:31797|mtp:S|qry_typ:P|lang:en|wc:2|cs:8842|v=4,FabFirki,https://www.indiamart.com/fabfirki/?pos=129&kwd=maternity tops&tags=CC||||8230.883|Price|product|||NA|rsf:gd-|-stype:attr=1|qr_nm:gd|res:RC3|com-cf:nl|ptrs:na|ktp:N0|mc:31797|mtp:S|qry_typ:P|lang:en|wc:2|cs:8842|v=4,False,Begampura,Surat,"Upper Floor, Shop No. 20-21-22, Rajhans The Imperia KinnaryCompound, Begampura, Surat - 395003, Dist.Surat, Gujarat",8046067645,
"Ethnic Navy Blue Womens Maternity Wear, Stitched",https://www.indiamart.com/proddetail/womens-maternity-wear-24517993930.html?pos=130&kwd=maternity tops&tags=CC||||8663.873|Price|product|||NA|rsf:gd-|-stype:attr=1|qr_nm:gd|res:RC3|com-cf:nl|ptrs:na|ktp:N0|mc:31797|mtp:S|qry_typ:P|lang:en|wc:2|cs:8842|v=4,Vipasa Enterprises,https://www.indiamart.com/pavisa-womens-wear/?pos=130&kwd=maternity tops&tags=CC||||8663.873|Price|product|||NA|rsf:gd-|-stype:attr=1|qr_nm:gd|res:RC3|com-cf:nl|ptrs:na|ktp:N0|mc:31797|mtp:S|qry_typ:P|lang:en|wc:2|cs:8842|v=4,False,,Bengaluru,"FLAT NO.201,VIRAT,NO 2AC-720, VIRAT, 2 A CROSS, HRBR LAYOUT 1ST BLOCK,BENGALURU D 313, Cumins Estates Genesis, 2nd main road, Jayanthi Nagar Extn,560043, Bengaluru - 560043, Dist.Bengaluru, Karnataka",8048262772,927
Ladies Tops,,Femy9,https://www.indiamart.com/femy9/?pos=131&kwd=maternity tops&tags=CC||||8571.301||product|||NA|rsf:gd-|-stype:attr=1|qr_nm:gd|res:RC3|com-cf:nl|ptrs:na|ktp:N0|mc:31797|mtp:S|qry_typ:P|lang:en|wc:2|cs:8842|v=4,False,,Thiruvananthapuram,"T.C.11/400, FEMY9, KESTON ROAD,KOWDIAR, DEVASWOM JUNCTION, Thiruvananthapuram - 695003, Dist.Thiruvananthapuram, Kerala",8048372064,262
"Feeding T Shirts , Maternity T Shirts , Nursing Tops , Mother T Shirts",https://www.indiamart.com/proddetail/feeding-t-shirts-maternity-t-shirts-nursing-tops-mother-t-shirts-25121858088.html?pos=132&kwd=maternity tops&tags=CC||||8663.873|Price|product|||NA|rsf:gd-|-stype:attr=1|qr_nm:gd|res:RC3|com-cf:nl|ptrs:na|ktp:N0|mc:31797|mtp:S|qry_typ:P|lang:en|wc:2|cs:8842|v=4,Vasavi Stores,https://www.indiamart.com/vasavi-stores-bengaluru/?pos=132&kwd=maternity tops&tags=CC||||8663.873|Price|product|||NA|rsf:gd-|-stype:attr=1|qr_nm:gd|res:RC3|com-cf:nl|ptrs:na|ktp:N0|mc:31797|mtp:S|qry_typ:P|lang:en|wc:2|cs:8842|v=4,False,,Bengaluru,"Dubasipalya Kengeri, Bengaluru - 560059, Dist.Bengaluru, Karnataka",8043881728,
Maternity Wear,https://www.indiamart.com/proddetail/maternity-wear-22439452355.html?pos=133&kwd=maternity tops&tags=CC||||8778.123|Price|product|||NA|rsf:gd-|-stype:attr=1|qr_nm:gd|res:RC3|com-cf:nl|ptrs:na|ktp:N0|mc:31797|mtp:S|qry_typ:P|lang:en|wc:2|cs:8842|v=4,Kpa Apparels Pvt. Ltd.,https://www.indiamart.com/kpa-apparels-pvt-ltd/?pos=133&kwd=maternity tops&tags=CC||||8778.123|Price|product|||NA|rsf:gd-|-stype:attr=1|qr_nm:gd|res:RC3|com-cf:nl|ptrs:na|ktp:N0|mc:31797|mtp:S|qry_typ:P|lang:en|wc:2|cs:8842|v=4,False,Sector 63,Noida,"C-134, 1st Floor, Sector 63, Noida - 201301, Dist.Gautam Budh Nagar, Uttar Pradesh",8048372062,800
Ladies Maternity Suit,https://www.indiamart.com/proddetail/ladies-maternity-suit-2853530582533.html?pos=134&kwd=maternity tops&tags=CC||||8601.347|Price|product|||NA|rsf:gd-|-stype:attr=1|qr_nm:gd|res:RC3|com-cf:nl|ptrs:na|ktp:N0|mc:31797|mtp:S|qry_typ:P|lang:en|wc:2|cs:8842|v=4,Upma Creations,https://www.indiamart.com/upma-creations/?pos=134&kwd=maternity tops&tags=CC||||8601.347|Price|product|||NA|rsf:gd-|-stype:attr=1|qr_nm:gd|res:RC3|com-cf:nl|ptrs:na|ktp:N0|mc:31797|mtp:S|qry_typ:P|lang:en|wc:2|cs:8842|v=4,False,,Jaipur,"53,,BHARAT VIHAR B, JAMDOLI ROAD,Jaipur ,302031,, Jaipur - 302031, Dist.Jaipur, Rajasthan",8047311009,5367
Medium And Large Women's Maternity Tank Tops,https://www.indiamart.com/proddetail/women-s-maternity-tank-tops-19613672988.html?pos=135&kwd=maternity tops&tags=CC||||8954.051|Price|product|||NA|rsf:gd-|-stype:attr=1|qr_nm:gd|res:RC3|com-cf:nl|ptrs:na|ktp:N0|mc:31797|mtp:S|qry_typ:P|lang:en|wc:2|cs:8842|v=4,Cheap Shop Ecommerce LLP,https://www.indiamart.com/cheapshop-ecommercellp/?pos=135&kwd=maternity tops&tags=CC||||8954.051|Price|product|||NA|rsf:gd-|-stype:attr=1|qr_nm:gd|res:RC3|com-cf:nl|ptrs:na|ktp:N0|mc:31797|mtp:S|qry_typ:P|lang:en|wc:2|cs:8842|v=4,False,,Chennai,",49,new street,,poonamallee, Chennai - 600056, Dist.Chennai, Tamil Nadu",8041013469,
Maternity Wear,https://www.indiamart.com/proddetail/maternity-wear-2854427681648.html?pos=136&kwd=maternity tops&tags=CC||||8211.142|Price|product|||NA|rsf:gd-|-stype:attr=1|qr_nm:gd|res:RC3|com-cf:nl|ptrs:na|ktp:N0|mc:31797|mtp:S|qry_typ:P|lang:en|wc:2|cs:8842|v=4,Khush Fashion,https://www.indiamart.com/khushfashion-mumbai/?pos=136&kwd=maternity tops&tags=CC||||8211.142|Price|product|||NA|rsf:gd-|-stype:attr=1|qr_nm:gd|res:RC3|com-cf:nl|ptrs:na|ktp:N0|mc:31797|mtp:S|qry_typ:P|lang:en|wc:2|cs:8842|v=4,False,,Mumbai,"Ground Floor, Shop No. 11, Garage Gully, Atlantic Plaza, Dadar West, Mumbai - 400028, Dist.Mumbai, Maharashtra",8048370727,5764
Printed T-Shirt for Women Mom to Be Half Sleeve T-Shirt Maternity Tshirt for Women,https://www.indiamart.com/proddetail/printed-t-shirt-for-women-mom-to-be-half-sleeve-t-shirt-maternity-tshirt-for-women-27371502197.html?pos=137&kwd=maternity tops&tags=CC||||8752.144|Price|product|||NA|rsf:gd-|-stype:attr=1|qr_nm:gd|res:RC3|com-cf:nl|ptrs:na|ktp:N0|mc:31797|mtp:S|qry_typ:P|lang:en|wc:2|cs:8842|v=4,IBerry's Lifestyle Private Limited,https://www.indiamart.com/iberryslifestyle/?pos=137&kwd=maternity tops&tags=CC||||8752.144|Price|product|||NA|rsf:gd-|-stype:attr=1|qr_nm:gd|res:RC3|com-cf:nl|ptrs:na|ktp:N0|mc:31797|mtp:S|qry_typ:P|lang:en|wc:2|cs:8842|v=4,False,,New Delhi,"11747/4, First Floor, Sat Nagar, Karol Bagh, Central Delhi, New Delhi - 110005, Dist.Delhi, Delhi",8047549711,
Maternity Kurtis Manufacturer,https://www.indiamart.com/proddetail/maternity-kurtis-manufacturer-27135753962.html?pos=138&kwd=maternity tops&tags=CC||||8601.347|Price|product|||NA|rsf:gd-|-stype:attr=1|qr_nm:gd|res:RC3|com-cf:nl|ptrs:na|ktp:N0|mc:31797|mtp:S|qry_typ:P|lang:en|wc:2|cs:8842|v=4,Click Jaipur,https://www.indiamart.com/clkjaipur-photoshootwithmodeladvertisng/?pos=138&kwd=maternity tops&tags=CC||||8601.347|Price|product|||NA|rsf:gd-|-stype:attr=1|qr_nm:gd|res:RC3|com-cf:nl|ptrs:na|ktp:N0|mc:31797|mtp:S|qry_typ:P|lang:en|wc:2|cs:8842|v=4,False,Sanganer,Jaipur,"House No 82-a Sashtri Nagar Meena Wala Sirsi Road Jaipur, Sanganer, Jaipur - 302034, Dist.Jaipur, Rajasthan",8043804680,
maternity top,,Megha Garments,https://www.indiamart.com/meghagarments-ernakulam/?pos=139&kwd=maternity tops&tags=CC||||8507.67||product|||NA|rsf:gd-|-stype:attr=1|qr_nm:gd|res:RC3|com-cf:nl|ptrs:na|ktp:N0|mc:31797|mtp:S|qry_typ:P|lang:en|wc:2|cs:8842|v=4,False,Gopala Prabhu Road,Ernakulam,"Shop No. 14, Basement,, Gopala Prabhu Road, Ernakulam - 682035, Dist.Ernakulam, Kerala",8047849820,
Tunic Top,https://www.indiamart.com/proddetail/tunic-top-14127749412.html?pos=140&kwd=maternity tops&tags=CC||||8228.275||product|||NA|rsf:gd-|-stype:attr=1|qr_nm:gd|res:RC3|com-cf:nl|ptrs:na|ktp:N0|mc:31797|mtp:S|qry_typ:P|lang:en|wc:2|cs:8842|v=4,Jai Dada Shyam Creation,https://www.indiamart.com/nirvana-exports/?pos=140&kwd=maternity tops&tags=CC||||8228.275||product|||NA|rsf:gd-|-stype:attr=1|qr_nm:gd|res:RC3|com-cf:nl|ptrs:na|ktp:N0|mc:31797|mtp:S|qry_typ:P|lang:en|wc:2|cs:8842|v=4,False,Narolgam,Ahmedabad,"Plot No. 5, Babuji Estate, C/o. Diamond Estate, Opp. Shimla Hotel, Narol Circle, Narolgam, Ahmedabad - 382405, Dist.Ahmedabad, Gujarat",8062245066,622
Ladies Meternity T Shirt,https://www.indiamart.com/proddetail/ladies-meternity-t-shirt-2850832358397.html?pos=141&kwd=maternity tops&tags=CC||||8228.275|Price|product|||NA|rsf:gd-|-stype:attr=1|qr_nm:gd|res:RC3|com-cf:nl|ptrs:na|ktp:N0|mc:31797|mtp:S|qry_typ:P|lang:en|wc:2|cs:8842|v=4,Cotts Knit Lounge Wear,https://www.indiamart.com/cottsknitsloungewear-ahmedabad/?pos=141&kwd=maternity tops&tags=CC||||8228.275|Price|product|||NA|rsf:gd-|-stype:attr=1|qr_nm:gd|res:RC3|com-cf:nl|ptrs:na|ktp:N0|mc:31797|mtp:S|qry_typ:P|lang:en|wc:2|cs:8842|v=4,False,,Ahmedabad,"788 Isanpur Vishalnagar Isanpur, Ahmedabad - 382443, Dist.Ahmedabad, Gujarat",8048974539,
Maternity Top,,Funcle Parenting Products LLP,https://www.indiamart.com/popees-baby-care-products/?pos=142&kwd=maternity tops&tags=||||8488.448||product|||NA|rsf:gd-|-stype:attr=1|qr_nm:gd|res:RC3|com-cf:nl|ptrs:na|ktp:N0|mc:31797|mtp:S|qry_typ:P|lang:en|wc:2|cs:8842|v=4,False,,Malappuram,"16/228-A, B, Perinthalmanna, Pandikkad Junction, Malappuram - 676521, Dist.Malappuram, Kerala",8048372623,603
"Round mommy feeding t shirt, Half Sleeves, Printed",https://www.indiamart.com/proddetail/mommy-feeding-t-shirt-2852132722291.html?pos=143&kwd=maternity tops&tags=||||8736.878|Price|product|||NA|rsf:gd-|-stype:attr=1|qr_nm:gd|res:RC3|com-cf:nl|ptrs:na|ktp:N0|mc:31797|mtp:S|qry_typ:P|lang:en|wc:2|cs:8842|v=4,Vasavi Stores,https://www.indiamart.com/vasavi-store-robertsonpet/?pos=143&kwd=maternity tops&tags=||||8736.878|Price|product|||NA|rsf:gd-|-stype:attr=1|qr_nm:gd|res:RC3|com-cf:nl|ptrs:na|ktp:N0|mc:31797|mtp:S|qry_typ:P|lang:en|wc:2|cs:8842|v=4,False,,Robertsonpet,"No 520,Skl Building 5th Cross,Pritchard Road,Robertsonpet Kgf,Kolar, Robertsonpet - 563122, Dist.Kolar, Karnataka",8048249727,5147
Pregnant Ladies T Shirt,,Aravindhan Impex,https://www.indiamart.com/aravindhanimpex/?pos=144&kwd=maternity tops&tags=||||8626.744||product|||NA|rsf:gd-|-stype:attr=1|qr_nm:gd|res:RC3|com-cf:nl|ptrs:na|ktp:N0|mc:31797|mtp:S|qry_typ:P|lang:en|wc:2|cs:8842|v=4,False,,Tiruppur,"No. 25, Gopal Nagar, 5th Cross, Street, 60 Feet Road, Perichipalayam, K. N. P Colony, Tiruppur - 641608, Dist.Coimbatore, Tamil Nadu",8048247115,4164
Women's Maternity Half Sleeve T-shirt,https://www.indiamart.com/proddetail/women-s-maternity-half-sleeve-t-shirt-2852665417391.html?pos=145&kwd=maternity tops&tags=||||8601.347|Price|product|||NA|rsf:gd-|-stype:attr=1|qr_nm:gd|res:RC3|com-cf:nl|ptrs:na|ktp:N0|mc:31797|mtp:S|qry_typ:P|lang:en|wc:2|cs:8842|v=4,Calm Guy,https://www.indiamart.com/calm-guy/?pos=145&kwd=maternity tops&tags=||||8601.347|Price|product|||NA|rsf:gd-|-stype:attr=1|qr_nm:gd|res:RC3|com-cf:nl|ptrs:na|ktp:N0|mc:31797|mtp:S|qry_typ:P|lang:en|wc:2|cs:8842|v=4,False,,Jaipur,"Model Town Jagatpura Jai shree balaji apartment - 3, Jaipur - 302017, Dist.Jaipur, Rajasthan",,
"Full Sleeve Round Cotton Plain Maternity t shirt, Size: Medium",https://www.indiamart.com/proddetail/cotton-plain-maternity-t-shirt-23094829891.html?pos=146&kwd=maternity tops&tags=||||8626.744|Price|product|||NA|rsf:gd-|-stype:attr=1|qr_nm:gd|res:RC3|com-cf:nl|ptrs:na|ktp:N0|mc:31797|mtp:S|qry_typ:P|lang:en|wc:2|cs:8842|v=4,Sri Rajkanthan Apparels,https://www.indiamart.com/srirajkanthanapparels/?pos=146&kwd=maternity tops&tags=||||8626.744|Price|product|||NA|rsf:gd-|-stype:attr=1|qr_nm:gd|res:RC3|com-cf:nl|ptrs:na|ktp:N0|mc:31797|mtp:S|qry_typ:P|lang:en|wc:2|cs:8842|v=4,False,Periyandipalayam,Tiruppur,"119 eswaran kovil street, Periyandipalayam, Tiruppur - 641604, Dist.Coimbatore, Tamil Nadu",8048372728,201
"Maternity Blue T Shirt, Size: XL, Sleeves: Half Sleeve",https://www.indiamart.com/proddetail/maternity-blue-t-shirt-26119078062.html?pos=147&kwd=maternity tops&tags=||||8626.744|Price|product|||NA|rsf:gd-|-stype:attr=1|qr_nm:gd|res:RC3|com-cf:nl|ptrs:na|ktp:N0|mc:31797|mtp:S|qry_typ:P|lang:en|wc:2|cs:8842|v=4,Fabric Store,https://www.indiamart.com/fabricstore-tiruppur/?pos=147&kwd=maternity tops&tags=||||8626.744|Price|product|||NA|rsf:gd-|-stype:attr=1|qr_nm:gd|res:RC3|com-cf:nl|ptrs:na|ktp:N0|mc:31797|mtp:S|qry_typ:P|lang:en|wc:2|cs:8842|v=4,False,,Tiruppur,"8B, A.V.P Layout, 3rd Street,, Tiruppur - 641603, Dist.Coimbatore, Tamil Nadu",8043857522,
Plain Women Black Cotton Blend Maternity T Shirt,https://www.indiamart.com/proddetail/women-black-cotton-blend-maternity-t-shirt-2852962115997.html?pos=148&kwd=maternity tops&tags=||||8601.807|Price|product|||NA|rsf:gd-|-stype:attr=1|qr_nm:gd|res:RC3|com-cf:nl|ptrs:na|ktp:N0|mc:31797|mtp:S|qry_typ:P|lang:en|wc:2|cs:8842|v=4,Jasan Apparels,https://www.indiamart.com/jasan-apparels/?pos=148&kwd=maternity tops&tags=||||8601.807|Price|product|||NA|rsf:gd-|-stype:attr=1|qr_nm:gd|res:RC3|com-cf:nl|ptrs:na|ktp:N0|mc:31797|mtp:S|qry_typ:P|lang:en|wc:2|cs:8842|v=4,False,,Annur,"No.191A, 2nd Street, Kariyampalayam, Coimbatore, Annur - 641653, Dist.Coimbatore, Tamil Nadu",7942968179,
Ladies Cotton Sleeve Less Tops,https://www.indiamart.com/proddetail/ladies-cotton-sleeve-less-tops-2853721153373.html?pos=149&kwd=maternity tops&tags=||||8601.347|Price|proxy|||TS|rsf:gd-|-stype:attr=1|qr_nm:gd|res:RC3|com-cf:nl|ptrs:na|ktp:N0|mc:31797|mtp:S|qry_typ:P|lang:en|wc:2|cs:8842|v=4,Rama Exports,https://www.indiamart.com/ramaexportsjaipur/?pos=149&kwd=maternity tops&tags=||||8601.347|Price|proxy|||TS|rsf:gd-|-stype:attr=1|qr_nm:gd|res:RC3|com-cf:nl|ptrs:na|ktp:N0|mc:31797|mtp:S|qry_typ:P|lang:en|wc:2|cs:8842|v=4,False,Ghat Ki Guni,Jaipur,"Plot No 19-B,Ambedkar Colony,Durga Pura Bypass Tonk Road,Jaipur, Ghat Ki Guni, Jaipur - 302018, Dist.Jaipur, Rajasthan",7942868623,
Maternity And Feeding Wear Night Suit And Dresses(top & Bottom),https://www.indiamart.com/proddetail/maternity-and-feeding-wear-night-suit-and-dresses-top-bottom-2854217065197.html?pos=150&kwd=maternity tops&tags=||||8752.144|Price|product|||NA|rsf:gd-|-stype:attr=1|qr_nm:gd|res:RC3|com-cf:nl|ptrs:na|ktp:N0|mc:31797|mtp:S|qry_typ:P|lang:en|wc:2|cs:8842|v=4,Aflipshop,https://www.indiamart.com/aflipshopin/?pos=150&kwd=maternity tops&tags=||||8752.144|Price|product|||NA|rsf:gd-|-stype:attr=1|qr_nm:gd|res:RC3|com-cf:nl|ptrs:na|ktp:N0|mc:31797|mtp:S|qry_typ:P|lang:en|wc:2|cs:8842|v=4,False,,New Delhi,"P-9, C/o Innovative E Business Service Llp Mayur Vihar Phase 1 Jp Complex New Delhi, New Delhi - 110091, Dist.Delhi, Delhi",,
Feeding Tunic,https://www.indiamart.com/proddetail/feeding-tunic-20050187591.html?pos=151&kwd=maternity tops&tags=||||8823.154|Price|product|||NA|rsf:gd-|-stype:attr=1|qr_nm:gd|res:RC3|com-cf:nl|ptrs:na|ktp:N0|mc:31797|mtp:S|qry_typ:P|lang:en|wc:2|cs:8842|v=4,Toddlers Shoppe,https://www.indiamart.com/toddlersshoppe/?pos=151&kwd=maternity tops&tags=||||8823.154|Price|product|||NA|rsf:gd-|-stype:attr=1|qr_nm:gd|res:RC3|com-cf:nl|ptrs:na|ktp:N0|mc:31797|mtp:S|qry_typ:P|lang:en|wc:2|cs:8842|v=4,False,Dholpur House,Agra,"GROUND FLOOR,4,M G ROAD,LIC COMMERCIAL COMPLEX,DHOLPUR HOUSE, Dholpur House, Agra - 282001, Dist.Agra, Uttar Pradesh",8048371911,127
SUKANYA Regular Feeding Top Kurti,https://www.indiamart.com/proddetail/feeding-top-kurti-22492565433.html?pos=152&kwd=maternity tops&tags=||||8584.299|Price|product|||NA|rsf:gd-|-stype:attr=1|qr_nm:gd|res:RC3|com-cf:nl|ptrs:na|ktp:N0|mc:31797|mtp:S|qry_typ:P|lang:en|wc:2|cs:8842|v=4,Sukanya Clothing,https://www.indiamart.com/sukanya-clothing/?pos=152&kwd=maternity tops&tags=||||8584.299|Price|product|||NA|rsf:gd-|-stype:attr=1|qr_nm:gd|res:RC3|com-cf:nl|ptrs:na|ktp:N0|mc:31797|mtp:S|qry_typ:P|lang:en|wc:2|cs:8842|v=4,False,,Coimbatore,"Oppanakara Street, Coimbatore - 641001, Dist.Coimbatore, Tamil Nadu",8048371702,611
Aarya Trendz Cotton Kurti For Baby Feeding and During Maternity Period.,https://www.indiamart.com/proddetail/aarya-trendz-cotton-kurti-for-baby-feeding-and-during-maternity-period-27522867997.html?pos=153&kwd=maternity tops&tags=||||8230.883|Price|proxy|||TS|rsf:gd-|-stype:attr=1|qr_nm:gd|res:RC3|com-cf:nl|ptrs:na|ktp:N0|mc:31797|mtp:S|qry_typ:P|lang:en|wc:2|cs:8842|v=4,Aarya Trendz,https://www.indiamart.com/aarya-trendz/?pos=153&kwd=maternity tops&tags=||||8230.883|Price|proxy|||TS|rsf:gd-|-stype:attr=1|qr_nm:gd|res:RC3|com-cf:nl|ptrs:na|ktp:N0|mc:31797|mtp:S|qry_typ:P|lang:en|wc:2|cs:8842|v=4,False,,Surat,"30, Shree Krupa Industrial Estate Kapodra, Varachha Main Road, Surat - 395006, Dist.Surat, Gujarat",8046034119,
Women Maternity Clothes,https://www.indiamart.com/proddetail/women-maternity-clothes-2852957047712.html?pos=154&kwd=maternity tops&tags=||||8230.883||proxy|||TS|rsf:gd-|-stype:attr=1|qr_nm:gd|res:RC3|com-cf:nl|ptrs:na|ktp:N0|mc:31797|mtp:S|qry_typ:P|lang:en|wc:2|cs:8842|v=4,Kajal Creation,https://www.kajalcreation.com/?pos=154&kwd=maternity tops&tags=||||8230.883||proxy|||TS|rsf:gd-|-stype:attr=1|qr_nm:gd|res:RC3|com-cf:nl|ptrs:na|ktp:N0|mc:31797|mtp:S|qry_typ:P|lang:en|wc:2|cs:8842|v=4,False,Varachha,Surat,"Shop No 3,Plot No 10,Ground Floor,Muktidham Society,Punagam,Surat,Surat, Varachha, Surat - 395010, Dist.Surat, Gujarat",7942633510,
American feeding Maternity Tunic,https://www.indiamart.com/proddetail/american-feeding-maternity-tunic-2852625433588.html?pos=155&kwd=maternity tops&tags=||||8601.347|Price|proxy|||TS|rsf:gd-|-stype:attr=1|qr_nm:gd|res:RC3|com-cf:nl|ptrs:na|ktp:N0|mc:31797|mtp:S|qry_typ:P|lang:en|wc:2|cs:8842|v=4,Prince Enterprises,https://www.indiamart.com/princeenterprisesjaipur/?pos=155&kwd=maternity tops&tags=||||8601.347|Price|proxy|||TS|rsf:gd-|-stype:attr=1|qr_nm:gd|res:RC3|com-cf:nl|ptrs:na|ktp:N0|mc:31797|mtp:S|qry_typ:P|lang:en|wc:2|cs:8842|v=4,False,Mansarovar,Jaipur,"115/137 Agarwal Farm,mansarovar, Mansarovar, Jaipur - 302020, Dist.Jaipur, Rajasthan",8048963229,
BLACK SKY PINK BLUE Feeding and during Maternity kurti,https://www.indiamart.com/proddetail/feeding-and-during-maternity-kurti-2849225359773.html?pos=156&kwd=maternity tops&tags=||||8230.883|Price|proxy|||TS|rsf:gd-|-stype:attr=1|qr_nm:gd|res:RC3|com-cf:nl|ptrs:na|ktp:N0|mc:31797|mtp:S|qry_typ:P|lang:en|wc:2|cs:8842|v=4,Fab Zone,https://www.fabzonefab.com/?pos=156&kwd=maternity tops&tags=||||8230.883|Price|proxy|||TS|rsf:gd-|-stype:attr=1|qr_nm:gd|res:RC3|com-cf:nl|ptrs:na|ktp:N0|mc:31797|mtp:S|qry_typ:P|lang:en|wc:2|cs:8842|v=4,True,Sharaddha Society,Surat,"102, Ugam Chamber, Sharaddha Society, Surat - 395006, Dist.Surat, Gujarat",8046073565,
Feeding Maternity Gown,https://www.indiamart.com/proddetail/feeding-maternity-gown-2851885698312.html?pos=157&kwd=maternity tops&tags=||||8601.347|Price|product|||NA|rsf:gd-|-stype:attr=1|qr_nm:gd|res:RC3|com-cf:nl|ptrs:na|ktp:N0|mc:31797|mtp:S|qry_typ:P|lang:en|wc:2|cs:8842|v=4,Sadhana Garments,https://www.indiamart.com/sadhanagarments-jaipur/?pos=157&kwd=maternity tops&tags=||||8601.347|Price|product|||NA|rsf:gd-|-stype:attr=1|qr_nm:gd|res:RC3|com-cf:nl|ptrs:na|ktp:N0|mc:31797|mtp:S|qry_typ:P|lang:en|wc:2|cs:8842|v=4,False,Sanganer,Jaipur,"PNO 19,20,21, Vaishno Vihar III Block C, Kokawas, Sanganer, Sanganer, Jaipur - 302029, Dist.Jaipur, Rajasthan",8048616262,
"Printed Cotton Ladies Maternity Night Dress, Full Sleeve, Blue And Grey",https://www.indiamart.com/proddetail/ladies-maternity-night-dress-2850114822362.html?pos=158&kwd=maternity tops&tags=||||8228.275|Price|product|||NA|rsf:gd-|-stype:attr=1|qr_nm:gd|res:RC3|com-cf:nl|ptrs:na|ktp:N0|mc:31797|mtp:S|qry_typ:P|lang:en|wc:2|cs:8842|v=4,K Bela Creation,https://www.indiamart.com/k-bela-creation/?pos=158&kwd=maternity tops&tags=||||8228.275|Price|product|||NA|rsf:gd-|-stype:attr=1|qr_nm:gd|res:RC3|com-cf:nl|ptrs:na|ktp:N0|mc:31797|mtp:S|qry_typ:P|lang:en|wc:2|cs:8842|v=4,False,,Ahmedabad,"121/122 vivekanand garments park shavadi Narol gaam Ahmedabad, Ahmedabad - 380001, Dist.Ahmedabad, Gujarat",7942803999,
Ladies Cotton Black Printed Maternity Dress,https://www.indiamart.com/proddetail/ladies-cotton-black-printed-maternity-dress-2853631256548.html?pos=159&kwd=maternity tops&tags=||||8206.306|Price|product|||NA|rsf:gd-|-stype:attr=1|qr_nm:gd|res:RC3|com-cf:nl|ptrs:na|ktp:N0|mc:31797|mtp:S|qry_typ:P|lang:en|wc:2|cs:8842|v=4,Mehta Creation,https://www.indiamart.com/mehta-creation-thane/?pos=159&kwd=maternity tops&tags=||||8206.306|Price|product|||NA|rsf:gd-|-stype:attr=1|qr_nm:gd|res:RC3|com-cf:nl|ptrs:na|ktp:N0|mc:31797|mtp:S|qry_typ:P|lang:en|wc:2|cs:8842|v=4,False,Bhayandar West,Bhayander West,"B 5, Amba Smruti, Maharana Pratap Road, Hanuman Mandir, Thane, Bhayandar West, Bhayander West - 401101, Maharashtra",8045166707,
Printed Blue Women Cotton Maternity Kurti,https://www.indiamart.com/proddetail/blue-women-cotton-maternity-kurti-2850497005955.html?pos=160&kwd=maternity tops&tags=||||8601.347|Price|product|||NA|rsf:gd-|-stype:attr=1|qr_nm:gd|res:RC3|com-cf:nl|ptrs:na|ktp:N0|mc:31797|mtp:S|qry_typ:P|lang:en|wc:2|cs:8842|v=4,Guru Kripa Garments,https://www.indiamart.com/gurukripagarmentsjaipur/?pos=160&kwd=maternity tops&tags=||||8601.347|Price|product|||NA|rsf:gd-|-stype:attr=1|qr_nm:gd|res:RC3|com-cf:nl|ptrs:na|ktp:N0|mc:31797|mtp:S|qry_typ:P|lang:en|wc:2|cs:8842|v=4,False,Shikarpura,Jaipur,"Plot No-L- 56 B - Block, J D A Colony, Govindpura Sanganer, Shikarpura, Jaipur - 302029, Dist.Jaipur, Rajasthan",8048987470,
Maternity Nightwear,https://www.indiamart.com/proddetail/maternity-nightwear-2848949541212.html?pos=161&kwd=maternity tops&tags=||||8777.204|Price|product|||NA|rsf:gd-|-stype:attr=1|qr_nm:gd|res:RC3|com-cf:nl|ptrs:na|ktp:N0|mc:31797|mtp:S|qry_typ:P|lang:en|wc:2|cs:8842|v=4,Vara Lakshmi Nightieswear,https://www.indiamart.com/vara-lakshmi-nightieswear/?pos=161&kwd=maternity tops&tags=||||8777.204|Price|product|||NA|rsf:gd-|-stype:attr=1|qr_nm:gd|res:RC3|com-cf:nl|ptrs:na|ktp:N0|mc:31797|mtp:S|qry_typ:P|lang:en|wc:2|cs:8842|v=4,False,,Proddatur,"10/130,,Proddatur,Ysr K K Street, Proddatur - 516360, Dist.Cuddapah, Andhra Pradesh",8069013898,399
"Cotton Printed Maternity Kaftan, Orange",https://www.indiamart.com/proddetail/printed-maternity-kaftan-24821877912.html?pos=162&kwd=maternity tops&tags=||||8601.347|Price|product|||NA|rsf:gd-|-stype:attr=1|qr_nm:gd|res:RC3|com-cf:nl|ptrs:na|ktp:N0|mc:31797|mtp:S|qry_typ:P|lang:en|wc:2|cs:8842|v=4,Joypur Fashions,https://www.indiamart.com/joypur-fashion/?pos=162&kwd=maternity tops&tags=||||8601.347|Price|product|||NA|rsf:gd-|-stype:attr=1|qr_nm:gd|res:RC3|com-cf:nl|ptrs:na|ktp:N0|mc:31797|mtp:S|qry_typ:P|lang:en|wc:2|cs:8842|v=4,False,Mansarovar,Jaipur,"A10, First Floor, Bhaskar Enclave 2, Patrakar Colony, Mansarovar, Jaipur - 302020, Dist.Jaipur, Rajasthan",8048261478,
Maternity Feeding Kruti,https://www.indiamart.com/proddetail/maternity-feeding-kruti-2854597381773.html?pos=163&kwd=maternity tops&tags=||||8512.891|Price|product|||NA|rsf:gd-|-stype:attr=1|qr_nm:gd|res:RC3|com-cf:nl|ptrs:na|ktp:N0|mc:31797|mtp:S|qry_typ:P|lang:en|wc:2|cs:8842|v=4,Kanuvinu Trading Company,https://www.indiamart.com/kanuvinu-trading-company/?pos=163&kwd=maternity tops&tags=||||8512.891|Price|product|||NA|rsf:gd-|-stype:attr=1|qr_nm:gd|res:RC3|com-cf:nl|ptrs:na|ktp:N0|mc:31797|mtp:S|qry_typ:P|lang:en|wc:2|cs:8842|v=4,False,New Colony,Kuchaman,"KanuVinu Trading Company Nala Bazar, New Colony, Kuchaman - 341508, Dist.Nagaur, Rajasthan",8048249810,164
Yellow Women Maternity Printed Knee GAWON,https://www.indiamart.com/proddetail/women-maternity-printed-knee-gawon-2850515307662.html?pos=164&kwd=maternity tops&tags=||||9045.955|Price|product|||NA|rsf:gd-|-stype:attr=1|qr_nm:gd|res:RC3|com-cf:nl|ptrs:na|ktp:N0|mc:31797|mtp:S|qry_typ:P|lang:en|wc:2|cs:8842|v=4,Deepak Enterprises,https://www.indiamart.com/deepakenterprises-186473604/?pos=164&kwd=maternity tops&tags=||||9045.955|Price|product|||NA|rsf:gd-|-stype:attr=1|qr_nm:gd|res:RC3|com-cf:nl|ptrs:na|ktp:N0|mc:31797|mtp:S|qry_typ:P|lang:en|wc:2|cs:8842|v=4,False,,Kanpur,"0 255c Ganga Bairaj Road 0 Old, Kanpur - 208002, Uttar Pradesh",8069264827,633
"Printed Cotton Maternity Feeding And Nursing Nighty, Pink",https://www.indiamart.com/proddetail/maternity-feeding-and-nursing-nighty-22229862155.html?pos=165&kwd=maternity tops&tags=||||9789.054|Price|product|||NA|rsf:gd-|-stype:attr=1|qr_nm:gd|res:RC3|com-cf:nl|ptrs:na|ktp:N0|mc:31797|mtp:S|qry_typ:P|lang:en|wc:2|cs:8842|v=4,Clymaa,https://www.indiamart.com/clymaa/?pos=165&kwd=maternity tops&tags=||||9789.054|Price|product|||NA|rsf:gd-|-stype:attr=1|qr_nm:gd|res:RC3|com-cf:nl|ptrs:na|ktp:N0|mc:31797|mtp:S|qry_typ:P|lang:en|wc:2|cs:8842|v=4,False,Sripally Ambagan,Bardhaman,"Shop No. 21, Nutanganj, Sripally Ambagan, Bardhaman - 713102, Dist.Purba Bardhaman, West Bengal",8047842473,
"Women Printed Rayon Maternity Night Dress, Red",https://www.indiamart.com/proddetail/women-printed-rayon-maternity-night-dress-2853079380297.html?pos=166&kwd=maternity tops&tags=||||8210.732|Price|product|||NA|rsf:gd-|-stype:attr=1|qr_nm:gd|res:RC3|com-cf:nl|ptrs:na|ktp:N0|mc:31797|mtp:S|qry_typ:P|lang:en|wc:2|cs:8842|v=4,Rathod Industries,https://www.indiamart.com/rathodindustries-mumbai/?pos=166&kwd=maternity tops&tags=||||8210.732|Price|product|||NA|rsf:gd-|-stype:attr=1|qr_nm:gd|res:RC3|com-cf:nl|ptrs:na|ktp:N0|mc:31797|mtp:S|qry_typ:P|lang:en|wc:2|cs:8842|v=4,False,,Vasai,"Third Floor Gala No. 307,Rajprabha Industrial Premises -3,Gokhivare ,Near Toyota Car Showroom, Vasai - 401208, Dist.Thane, Maharashtra",8047786825,
Dresses and Skirts Free Size Ladies Maternity Clothing,https://www.indiamart.com/proddetail/ladies-maternity-clothing-4359708162.html?pos=167&kwd=maternity tops&tags=||||8626.744|Price|product|||NA|rsf:gd-|-stype:attr=1|qr_nm:gd|res:RC3|com-cf:nl|ptrs:na|ktp:N0|mc:31797|mtp:S|qry_typ:P|lang:en|wc:2|cs:8842|v=4,Chiller Fashion,https://www.indiamart.com/chillerfashion/?pos=167&kwd=maternity tops&tags=||||8626.744|Price|product|||NA|rsf:gd-|-stype:attr=1|qr_nm:gd|res:RC3|com-cf:nl|ptrs:na|ktp:N0|mc:31797|mtp:S|qry_typ:P|lang:en|wc:2|cs:8842|v=4,False,,Tiruppur,"No. 30/48, Selvalakshmi Nagar, M. S. Nagar East 7/5, Ranganathapuram Extension, Kongu Main Road, Tiruppur - 641607, Dist.Coimbatore, Tamil Nadu",8069857365,975
Alpine Women Printed Maternity Feeding Nighty,https://www.indiamart.com/proddetail/women-printed-maternity-feeding-nighty-2853080468055.html?pos=168&kwd=maternity tops&tags=||||8242.731|Price|product|||NA|rsf:gd-|-stype:attr=1|qr_nm:gd|res:RC3|com-cf:nl|ptrs:na|ktp:N0|mc:31797|mtp:S|qry_typ:P|lang:en|wc:2|cs:8842|v=4,Mahaveer Enterprises,https://www.indiamart.com/mahaveerenterprisesmaharashtra/?pos=168&kwd=maternity tops&tags=||||8242.731|Price|product|||NA|rsf:gd-|-stype:attr=1|qr_nm:gd|res:RC3|com-cf:nl|ptrs:na|ktp:N0|mc:31797|mtp:S|qry_typ:P|lang:en|wc:2|cs:8842|v=4,False,Vithalwadi,Ulhasnagar,"BK No. 703, Room No. 5,6, Opp. Central Police Station, Central Hospital Area, Vithalwadi, Ulhasnagar - 421003, Dist.Thane, Maharashtra",8048269541,
"Multi Colour Maternity Gown Size M,L,Xl,Xxl",https://www.indiamart.com/proddetail/multi-colour-maternity-gown-size-m-l-xl-xxl-2850904234855.html?pos=169&kwd=maternity tops&tags=||||8601.347|Price|product|||NA|rsf:gd-|-stype:attr=1|qr_nm:gd|res:RC3|com-cf:nl|ptrs:na|ktp:N0|mc:31797|mtp:S|qry_typ:P|lang:en|wc:2|cs:8842|v=4,Yash Enterprises,https://www.indiamart.com/yashenterprises-156603237/?pos=169&kwd=maternity tops&tags=||||8601.347|Price|product|||NA|rsf:gd-|-stype:attr=1|qr_nm:gd|res:RC3|com-cf:nl|ptrs:na|ktp:N0|mc:31797|mtp:S|qry_typ:P|lang:en|wc:2|cs:8842|v=4,False,,Jaipur,"sanagner, Jaipur - 302029, Dist.Jaipur, Rajasthan",8048372705,502
cotton Anarkali feeding / maternity kurti,https://www.indiamart.com/proddetail/cotton-anarkali-feeding-maternity-kurti-2852726240455.html?pos=170&kwd=maternity tops&tags=||||8230.883|Price|product|||NA|rsf:gd-|-stype:attr=1|qr_nm:gd|res:RC3|com-cf:nl|ptrs:na|ktp:N0|mc:31797|mtp:S|qry_typ:P|lang:en|wc:2|cs:8842|v=4,D.Aksharam,https://www.indiamart.com/daksharam/?pos=170&kwd=maternity tops&tags=||||8230.883|Price|product|||NA|rsf:gd-|-stype:attr=1|qr_nm:gd|res:RC3|com-cf:nl|ptrs:na|ktp:N0|mc:31797|mtp:S|qry_typ:P|lang:en|wc:2|cs:8842|v=4,False,Udhana,Surat,"13th Floor, Wing-B, Flat-1302, Blue Candle, Causeway Road, Udhana, Surat - 395004, Dist.Surat, Gujarat",7942829878,
Rayon Peach Feeding Gown,https://www.indiamart.com/proddetail/rayon-peach-feeding-gown-2849151488773.html?pos=171&kwd=maternity tops&tags=||||8601.347|Price|product|||NA|rsf:gd-|-stype:attr=1|qr_nm:gd|res:RC3|com-cf:nl|ptrs:na|ktp:N0|mc:31797|mtp:S|qry_typ:P|lang:en|wc:2|cs:8842|v=4,Janki Textile,https://www.indiamart.com/jankitextile-jaipur/?pos=171&kwd=maternity tops&tags=||||8601.347|Price|product|||NA|rsf:gd-|-stype:attr=1|qr_nm:gd|res:RC3|com-cf:nl|ptrs:na|ktp:N0|mc:31797|mtp:S|qry_typ:P|lang:en|wc:2|cs:8842|v=4,False,Kundan Nagar,Jaipur,"6/33, Ganesh Colony, Sanganer, Kundan Nagar, Jaipur - 302029, Dist.Jaipur, Rajasthan",8048957370,
Rayon Casual Wear Seemly Flower Embroidered Sleeveless Sleeveless Flared Top,https://www.indiamart.com/proddetail/seemly-flower-embroidered-sleeveless-sleeveless-flared-top-21684146291.html?pos=172&kwd=maternity tops&tags=||||8307.81|Price|product|||NA|rsf:gd-|-stype:attr=1|qr_nm:gd|res:RC3|com-cf:nl|ptrs:na|ktp:N0|mc:31797|mtp:S|qry_typ:P|lang:en|wc:2|cs:8842|v=4,Raghav Enterprises,https://www.indiamart.com/raghav-enterprisespune/?pos=172&kwd=maternity tops&tags=||||8307.81|Price|product|||NA|rsf:gd-|-stype:attr=1|qr_nm:gd|res:RC3|com-cf:nl|ptrs:na|ktp:N0|mc:31797|mtp:S|qry_typ:P|lang:en|wc:2|cs:8842|v=4,False,Pimple Saudagar,Pune,"Office No. 404, Rose Icon Commercial Building, Pimple Saudagar, Pune - 411027, Dist.Pune, Maharashtra",8048372727,320
"Printed Cotton Mother Nighty, Yellow",https://www.indiamart.com/proddetail/cotton-mother-nighty-23049156533.html?pos=173&kwd=maternity tops&tags=||||8235.633|Price|product|||NA|rsf:gd-|-stype:attr=1|qr_nm:gd|res:RC3|com-cf:nl|ptrs:na|ktp:N0|mc:31797|mtp:S|qry_typ:P|lang:en|wc:2|cs:8842|v=4,Mukul Textile Mills,https://www.indiamart.com/mukul-textile-mills/?pos=173&kwd=maternity tops&tags=||||8235.633|Price|product|||NA|rsf:gd-|-stype:attr=1|qr_nm:gd|res:RC3|com-cf:nl|ptrs:na|ktp:N0|mc:31797|mtp:S|qry_typ:P|lang:en|wc:2|cs:8842|v=4,False,,Balotra,"Shri Ram Process House, Office No.2 M/s Mukul Textile Mills Industrial Area E-89a, 1st Phase, Balotra - 344022, Dist.Barmer, Rajasthan",8046063703,
"Ladies Maroon Printed Cotton Nightgown, Short Sleeve",https://www.indiamart.com/proddetail/ladies-maroon-printed-cotton-nightgown-2850806312597.html?pos=174&kwd=maternity tops&tags=||||9111.322|Price|product|||NA|rsf:gd-|-stype:attr=1|qr_nm:gd|res:RC3|com-cf:nl|ptrs:na|ktp:N0|mc:31797|mtp:S|qry_typ:P|lang:en|wc:2|cs:8842|v=4,Malhotra Products,https://www.indiamart.com/malhotraproducts/?pos=174&kwd=maternity tops&tags=||||9111.322|Price|product|||NA|rsf:gd-|-stype:attr=1|qr_nm:gd|res:RC3|com-cf:nl|ptrs:na|ktp:N0|mc:31797|mtp:S|qry_typ:P|lang:en|wc:2|cs:8842|v=4,False,,Bhilai,"B-21, Uttar Gangotri, Durg, Bhilai - 490023, Dist.Durg, Chhattisgarh",8047664331,
"Embroidered ALPINE FEEDING NIGHTY, Half Sleeve",https://www.indiamart.com/proddetail/alpine-feeding-nighty-25619769455.html?pos=175&kwd=maternity tops&tags=||||8228.275|Price|product|||NA|rsf:gd-|-stype:attr=1|qr_nm:gd|res:RC3|com-cf:nl|ptrs:na|ktp:N0|mc:31797|mtp:S|qry_typ:P|lang:en|wc:2|cs:8842|v=4,Kalavati Fashion,https://www.indiamart.com/kalavatifashionahmedabad/?pos=175&kwd=maternity tops&tags=||||8228.275|Price|product|||NA|rsf:gd-|-stype:attr=1|qr_nm:gd|res:RC3|com-cf:nl|ptrs:na|ktp:N0|mc:31797|mtp:S|qry_typ:P|lang:en|wc:2|cs:8842|v=4,False,Sherkotda,Ahmedabad,"A-2010 And A-2011, 2nd Floor, City Center-2, Opp Arya Samaj Mandir, Raipur Kankaria Road, Sherkotda, Ahmedabad - 380001, Dist.Ahmedabad, Gujarat",7942540677,
Women Evening Tops,https://www.indiamart.com/proddetail/women-evening-tops-4209936388.html?pos=176&kwd=maternity tops&tags=||||8211.142||product|||NA|rsf:gd-|-stype:attr=1|qr_nm:gd|res:RC3|com-cf:nl|ptrs:na|ktp:N0|mc:31797|mtp:S|qry_typ:P|lang:en|wc:2|cs:8842|v=4,Ashapura Intimates Fashion Limited,https://www.indiamart.com/ashapuraapparels/?pos=176&kwd=maternity tops&tags=||||8211.142||product|||NA|rsf:gd-|-stype:attr=1|qr_nm:gd|res:RC3|com-cf:nl|ptrs:na|ktp:N0|mc:31797|mtp:S|qry_typ:P|lang:en|wc:2|cs:8842|v=4,False,Dadar West,Mumbai,"Unit No. 3, 4, Pacific Plaza, Plot No. 570 Masjid Gali, Off Bhavani Shankar Road, Dadar West, Dadar West, Mumbai - 400028, Dist.Mumbai, Maharashtra",8048247115,3888
MATERNITY XXL COTTON COLLAR NIGHTIES FOR WOMENS (FREE) 100% PURE COTTON DAILY WEAR,https://www.indiamart.com/proddetail/maternity-xxl-cotton-collar-nighties-for-womens-free-100-pure-cotton-daily-wear-2851654132897.html?pos=177&kwd=maternity tops&tags=||||8668.838|Price|product|||NA|rsf:gd-|-stype:attr=1|qr_nm:gd|res:RC3|com-cf:nl|ptrs:na|ktp:N0|mc:31797|mtp:S|qry_typ:P|lang:en|wc:2|cs:8842|v=4,Finito Apparels,https://www.indiamart.com/finitoapparels/?pos=177&kwd=maternity tops&tags=||||8668.838|Price|product|||NA|rsf:gd-|-stype:attr=1|qr_nm:gd|res:RC3|com-cf:nl|ptrs:na|ktp:N0|mc:31797|mtp:S|qry_typ:P|lang:en|wc:2|cs:8842|v=4,False,Veerapampalayam,Erode,"60/37 Veerappan Palayam Pannai Nagar Thindal, Veerapampalayam, Erode - 638012, Dist.Erode, Tamil Nadu",8046063709,
Maternity Wear,,Mystique Collection,https://www.indiamart.com/mystique-collection/?pos=178&kwd=maternity tops&tags=||||8584.299||product|||NA|rsf:gd-|-stype:attr=1|qr_nm:gd|res:RC3|com-cf:nl|ptrs:na|ktp:N0|mc:31797|mtp:S|qry_typ:P|lang:en|wc:2|cs:8842|v=4,False,,Coimbatore,"86 Nandha Nagar Singanallur, Coimbatore - 641005, Dist.Coimbatore, Tamil Nadu",8069033848,551
Ladies Feeding Nighty,,Pooja Collections,https://www.indiamart.com/poojacollections-ambala/?pos=179&kwd=maternity tops&tags=||||8741.987||product|||NA|rsf:gd-|-stype:attr=1|qr_nm:gd|res:RC3|com-cf:nl|ptrs:na|ktp:N0|mc:31797|mtp:S|qry_typ:P|lang:en|wc:2|cs:8842|v=4,False,Hari Palace Cinemas,Ambala,"Near Kalka Mode , Hari Palace Cinemas, Ambala, Hari Palace Cinemas, Ambala - 134002, Dist.Ambala, Haryana",8047311018,5806
Rayon Women Feeding Dresses,https://www.indiamart.com/proddetail/women-feeding-dresses-2854771894573.html?pos=180&kwd=maternity tops&tags=||||8601.347|Price|product|||NA|rsf:gd-|-stype:attr=1|qr_nm:gd|res:RC3|com-cf:nl|ptrs:na|ktp:N0|mc:31797|mtp:S|qry_typ:P|lang:en|wc:2|cs:8842|v=4,Chandra Fashion Hub,https://www.indiamart.com/chandra-fashion-hub/?pos=180&kwd=maternity tops&tags=||||8601.347|Price|product|||NA|rsf:gd-|-stype:attr=1|qr_nm:gd|res:RC3|com-cf:nl|ptrs:na|ktp:N0|mc:31797|mtp:S|qry_typ:P|lang:en|wc:2|cs:8842|v=4,False,,Jaipur,"Plot No 45,,Shri Kalyan Nagar B Sanganer,Jaipur Plot No 45 Shri Kalyan Nagar B Sanganer Jaipur Jaipur Rajasthan 302029,302029,, Jaipur - 302029, Dist.Jaipur, Rajasthan",8048370713,6426
High Neck Party Wear Ladies Rayon Tops,https://www.indiamart.com/proddetail/ladies-rayon-tops-20467478191.html?pos=181&kwd=maternity tops&tags=||||8230.883|Price|product|||NA|rsf:gd-|-stype:attr=1|qr_nm:gd|res:RC3|com-cf:nl|ptrs:na|ktp:N0|mc:31797|mtp:S|qry_typ:P|lang:en|wc:2|cs:8842|v=4,Aruna Fashion,https://www.indiamart.com/aruna-fashion/?pos=181&kwd=maternity tops&tags=||||8230.883|Price|product|||NA|rsf:gd-|-stype:attr=1|qr_nm:gd|res:RC3|com-cf:nl|ptrs:na|ktp:N0|mc:31797|mtp:S|qry_typ:P|lang:en|wc:2|cs:8842|v=4,False,Amroli,Surat,"Ground Floor Plot No. A/27, Shop No.3 Amroli-kosad Road Vardhman Park Society Amroli, Amroli, Surat - 394107, Dist.Surat, Gujarat",8048975248,
Ladies Feeding Nighty,https://www.indiamart.com/proddetail/ladies-feeding-nighty-13333836833.html?pos=182&kwd=maternity tops&tags=||||8211.142|Price|product|||NA|rsf:gd-|-stype:attr=1|qr_nm:gd|res:RC3|com-cf:nl|ptrs:na|ktp:N0|mc:31797|mtp:S|qry_typ:P|lang:en|wc:2|cs:8842|v=4,Jigna Enterprise,https://www.indiamart.com/jignasukanya/?pos=182&kwd=maternity tops&tags=||||8211.142|Price|product|||NA|rsf:gd-|-stype:attr=1|qr_nm:gd|res:RC3|com-cf:nl|ptrs:na|ktp:N0|mc:31797|mtp:S|qry_typ:P|lang:en|wc:2|cs:8842|v=4,False,Dadar West,Mumbai,"No. 124, Atlantic Plaza, Off. Bhavani Shankar Road, Dadar West, Mumbai - 400028, Dist.Mumbai, Maharashtra",8047682709,
"MOMISY Nursing Scarf Poncho Multi-Use Cover, Privacy Breastfeeding Protection, Baby Shower",https://www.indiamart.com/proddetail/momisy-nursing-scarf-poncho-multi-use-cover-privacy-breastfeeding-protection-baby-shower-2853096444497.html?pos=183&kwd=maternity tops&tags=||||8228.275|Price|product|||NA|rsf:gd-|-stype:attr=1|qr_nm:gd|res:RC3|com-cf:nl|ptrs:na|ktp:N0|mc:31797|mtp:S|qry_typ:P|lang:en|wc:2|cs:8842|v=4,Momisy,https://www.indiamart.com/momisy/?pos=183&kwd=maternity tops&tags=||||8228.275|Price|product|||NA|rsf:gd-|-stype:attr=1|qr_nm:gd|res:RC3|com-cf:nl|ptrs:na|ktp:N0|mc:31797|mtp:S|qry_typ:P|lang:en|wc:2|cs:8842|v=4,False,,Ahmedabad,"A/50 Opp Motilal Park Jaysuvarna Flat Navrangpura,, Ahmedabad - 380009, Dist.Ahmedabad, Gujarat",8043828333,
"Black And Sky Blue Cotton Ladies Printed Feeding Nightgown, Half Sleeve",https://www.indiamart.com/proddetail/ladies-printed-feeding-nightgown-26267237373.html?pos=184&kwd=maternity tops&tags=||||8228.275|Price|product|||NA|rsf:gd-|-stype:attr=1|qr_nm:gd|res:RC3|com-cf:nl|ptrs:na|ktp:N0|mc:31797|mtp:S|qry_typ:P|lang:en|wc:2|cs:8842|v=4,Shivam Textile,https://www.indiamart.com/shivam-textileahmedabad/?pos=184&kwd=maternity tops&tags=||||8228.275|Price|product|||NA|rsf:gd-|-stype:attr=1|qr_nm:gd|res:RC3|com-cf:nl|ptrs:na|ktp:N0|mc:31797|mtp:S|qry_typ:P|lang:en|wc:2|cs:8842|v=4,False,,Ahmedabad,"Sumel Business Park-4, Second, D-253, Amdupura, Ahmedabad - 380018, Dist.Ahmedabad, Gujarat",8043862179,
Hosiery Dark Grey Embroidered Feeding Gown,https://www.indiamart.com/proddetail/dark-grey-embroidered-feeding-gown-2852147950155.html?pos=185&kwd=maternity tops&tags=||||8752.144|Price|product|||NA|rsf:gd-|-stype:attr=1|qr_nm:gd|res:RC3|com-cf:nl|ptrs:na|ktp:N0|mc:31797|mtp:S|qry_typ:P|lang:en|wc:2|cs:8842|v=4,RDM Enterprises,https://www.indiamart.com/rdm-enterprises-newdelhi/?pos=185&kwd=maternity tops&tags=||||8752.144|Price|product|||NA|rsf:gd-|-stype:attr=1|qr_nm:gd|res:RC3|com-cf:nl|ptrs:na|ktp:N0|mc:31797|mtp:S|qry_typ:P|lang:en|wc:2|cs:8842|v=4,False,,New Delhi,"244/11 And 244/11-A, Fazalpur, School Block Unchepar, Mandawali, New Delhi - 110092, Dist.Delhi, Delhi",7942705333,
"Crush Cotton XXL Ladies Printed Feeding Gown, Half Sleeve",https://www.indiamart.com/proddetail/xxl-ladies-printed-feeding-gown-2850649679273.html?pos=186&kwd=maternity tops&tags=||||8859.911|Price|product|||NA|rsf:gd-|-stype:attr=1|qr_nm:gd|res:RC3|com-cf:nl|ptrs:na|ktp:N0|mc:31797|mtp:S|qry_typ:P|lang:en|wc:2|cs:8842|v=4,Vikas Readymade Palace,https://www.indiamart.com/vikas-readymade-palace/?pos=186&kwd=maternity tops&tags=||||8859.911|Price|product|||NA|rsf:gd-|-stype:attr=1|qr_nm:gd|res:RC3|com-cf:nl|ptrs:na|ktp:N0|mc:31797|mtp:S|qry_typ:P|lang:en|wc:2|cs:8842|v=4,False,,Bijnor,"Near Khanna Medical Hall, Sadar Bazar Road, Bijnor - 246701, Dist.Bijnor, Uttar Pradesh",7942955449,
"Printed Ladies Cotton Feeding Nighties, Blue",https://www.indiamart.com/proddetail/ladies-cotton-feeding-nighties-24148814373.html?pos=187&kwd=maternity tops&tags=||||8668.838|Price|product|||NA|rsf:gd-|-stype:attr=1|qr_nm:gd|res:RC3|com-cf:nl|ptrs:na|ktp:N0|mc:31797|mtp:S|qry_typ:P|lang:en|wc:2|cs:8842|v=4,Anto Garments,https://www.indiamart.com/antogarments/?pos=187&kwd=maternity tops&tags=||||8668.838|Price|product|||NA|rsf:gd-|-stype:attr=1|qr_nm:gd|res:RC3|com-cf:nl|ptrs:na|ktp:N0|mc:31797|mtp:S|qry_typ:P|lang:en|wc:2|cs:8842|v=4,False,,Erode,"58/3, Ramamoorthi Nagar, Karungalpalayam, Erode - 638003, Dist.Erode, Tamil Nadu",8045907298,
"Black (Base) 170 GSM Ladies Rayon Printed Top, 3/4 Sleeve",https://www.indiamart.com/proddetail/170-gsm-ladies-rayon-printed-top-2850392644455.html?pos=188&kwd=maternity tops&tags=||||8601.347|Price|product|||NA|rsf:gd-|-stype:attr=1|qr_nm:gd|res:RC3|com-cf:nl|ptrs:na|ktp:N0|mc:31797|mtp:S|qry_typ:P|lang:en|wc:2|cs:8842|v=4,Vedanta Textile,https://www.indiamart.com/vedantatextile-rajasthan/?pos=188&kwd=maternity tops&tags=||||8601.347|Price|product|||NA|rsf:gd-|-stype:attr=1|qr_nm:gd|res:RC3|com-cf:nl|ptrs:na|ktp:N0|mc:31797|mtp:S|qry_typ:P|lang:en|wc:2|cs:8842|v=4,False,Sanganer,Jaipur,"Plot No 31 Shikarpura Road Rajkiye Sanskrit School Ke Pass, Sanganer, Jaipur - 302029, Dist.Jaipur, Rajasthan",7942820566,
Rayon Printed Top,https://www.indiamart.com/proddetail/rayon-printed-top-2853777749197.html?pos=189&kwd=maternity tops&tags=||||8601.347|Price|product|||NA|rsf:gd-|-stype:attr=1|qr_nm:gd|res:RC3|com-cf:nl|ptrs:na|ktp:N0|mc:31797|mtp:S|qry_typ:P|lang:en|wc:2|cs:8842|v=4,Ridhi Sidhi Fashion Zone,https://www.indiamart.com/ridhisidhifashionzone/?pos=189&kwd=maternity tops&tags=||||8601.347|Price|product|||NA|rsf:gd-|-stype:attr=1|qr_nm:gd|res:RC3|com-cf:nl|ptrs:na|ktp:N0|mc:31797|mtp:S|qry_typ:P|lang:en|wc:2|cs:8842|v=4,False,Bindayaka,Jaipur,"A-125,Badada Building,Sirsi Road,Vandana Children School Bindayaka, Bindayaka, Jaipur - 302012, Dist.Jaipur, Rajasthan",7942715760,
White Fabric: REYON - COTTON TUNIC/MIDDI FOR GIRLS & WOMENS SUMMER BREEZE COLLECTION M L XL XXL,https://www.indiamart.com/proddetail/tunic-middi-for-girls-womens-summer-breeze-collection-m-l-xl-xxl-2850885630233.html?pos=190&kwd=maternity tops&tags=||||8752.144|Price|product|||NA|rsf:gd-|-stype:attr=1|qr_nm:gd|res:RC3|com-cf:nl|ptrs:na|ktp:N0|mc:31797|mtp:S|qry_typ:P|lang:en|wc:2|cs:8842|v=4,Gopal Ji Fashion,https://www.indiamart.com/gopaljifashion/?pos=190&kwd=maternity tops&tags=||||8752.144|Price|product|||NA|rsf:gd-|-stype:attr=1|qr_nm:gd|res:RC3|com-cf:nl|ptrs:na|ktp:N0|mc:31797|mtp:S|qry_typ:P|lang:en|wc:2|cs:8842|v=4,False,Shahdara,New Delhi,"IX/1514, Main Road Gandhi Nagar Colony, Shahdara, New Delhi - 110031, Dist.Delhi, Delhi",8048271591,
Heavennark Casual 3/4 Sleeve Printed Women Multicolor Top,https://www.indiamart.com/proddetail/heavennark-casual-3-4-sleeve-printed-women-multicolor-top-23336923012.html?pos=191&kwd=maternity tops&tags=||||8752.144|Price|product|||NA|rsf:gd-|-stype:attr=1|qr_nm:gd|res:RC3|com-cf:nl|ptrs:na|ktp:N0|mc:31797|mtp:S|qry_typ:P|lang:en|wc:2|cs:8842|v=4,SDMV Innovation Private Limited,https://www.indiamart.com/sdmv-innovation-private-limited/?pos=191&kwd=maternity tops&tags=||||8752.144|Price|product|||NA|rsf:gd-|-stype:attr=1|qr_nm:gd|res:RC3|com-cf:nl|ptrs:na|ktp:N0|mc:31797|mtp:S|qry_typ:P|lang:en|wc:2|cs:8842|v=4,False,Gurmandi VIllage,New Delhi,"3rd Floor House No 225 Blk-T Gurmandi Village Rajpura Landmark Near Mcd Rajpura, Gurmandi VIllage, New Delhi - 110009, Dist.Delhi, Delhi",7942667110,
Ladies Cotton Maternity Feeding Kurti,https://www.indiamart.com/proddetail/ladies-cotton-maternity-feeding-kurti-26864442797.html?pos=192&kwd=maternity tops&tags=||||8230.883|Price|proxy|||NA|rsf:gd-|-stype:attr=1|qr_nm:gd|res:RC3|com-cf:nl|ptrs:na|ktp:N0|mc:31797|mtp:S|qry_typ:P|lang:en|wc:2|cs:8842|v=4,Bansi Enterprise,https://www.indiamart.com/bansienterprise/?pos=192&kwd=maternity tops&tags=||||8230.883|Price|proxy|||NA|rsf:gd-|-stype:attr=1|qr_nm:gd|res:RC3|com-cf:nl|ptrs:na|ktp:N0|mc:31797|mtp:S|qry_typ:P|lang:en|wc:2|cs:8842|v=4,False,Hirabaugh,Surat,"145, Krishna Park Society, NR.Gelambe Mandir,Kamraj,, Hirabaugh, Surat - 394180, Dist.Surat, Gujarat",7942620842,
Feeding tops xxl,,K.M.Sarees,https://www.indiamart.com/kmsarees-madurai/?pos=193&kwd=maternity tops&tags=CC||||8706.587|Price|product|||MDC|rsf:gd-|-stype:attr=1|qr_nm:gd|res:RC3|com-cf:nl|ptrs:na|ktp:N0|mc:31797|mtp:S|qry_typ:P|lang:en|wc:2|cs:8842|v=4,False,Vilakkuthoon,Madurai,"9, Kothaval Savadi Lane, Vilakkuthoon, Madurai,, Vilakkuthoon, Madurai - 625001, Dist.Madurai, Tamil Nadu",7942963516,
Maternity Top,,Ziva Maternity Wear,https://www.indiamart.com/jewish-apprels-accessories/?pos=194&kwd=maternity tops&tags=CA||||8503.868||product|||NA|rsf:gd-|-stype:attr=1|qr_nm:gd|res:RC3|com-cf:nl|ptrs:na|ktp:N0|mc:31797|mtp:S|qry_typ:P|lang:en|wc:2|cs:8842|v=4,False,Vyttila,Kochi,"Door No. 32/324A, Ladlee Towers, Vailllopily, Vyttila, Kochi - 682032, Dist.Ernakulam, Kerala",8048247125,3086
Maternity Tops,,Surya Sales Corporation,https://www.indiamart.com/surya-sales-corporation-kolkata/?pos=195&kwd=maternity tops&tags=CC||||9839.57||product|||NA|rsf:gd-|-stype:attr=1|qr_nm:gd|res:RC3|com-cf:nl|ptrs:na|ktp:N0|mc:31797|mtp:S|qry_typ:P|lang:en|wc:2|cs:8842|v=4,False,Girish Park,Kolkata,"34, Bidhan Sarani Road, 2nd Floor, Girish Park, Kolkata - 700006, Dist.Kolkata, West Bengal",8048249680,6758
Maternity Top,,Peek-A-Boo,https://www.indiamart.com/peek-a-boo-kochi/?pos=196&kwd=maternity tops&tags=CC||||8503.868|Price|product|||NA|rsf:gd-|-stype:attr=1|qr_nm:gd|res:RC3|com-cf:nl|ptrs:na|ktp:N0|mc:31797|mtp:S|qry_typ:P|lang:en|wc:2|cs:8842|v=4,False,Thammanam,Kochi,"35/2876, Pallathu Road, Thammanam, Kochi - 682032, Dist.Ernakulam, Kerala",8069017223,590
Maternity Top,,CLOUNINE,https://www.indiamart.com/clounine/?pos=197&kwd=maternity tops&tags=CC||||8663.873||product|||NA|rsf:gd-|-stype:attr=1|qr_nm:gd|res:RC3|com-cf:nl|ptrs:na|ktp:N0|mc:31797|mtp:S|qry_typ:P|lang:en|wc:2|cs:8842|v=4,False,,Bengaluru,", Bengaluru, Dist.Bengaluru, Karnataka",8069264846,161
Daphne's Floral Maternity Top,,C Fashions,https://www.indiamart.com/c-fashion-mumbai/?pos=198&kwd=maternity tops&tags=CC||||8211.142||product|||NA|rsf:gd-|-stype:attr=1|qr_nm:gd|res:RC3|com-cf:nl|ptrs:na|ktp:N0|mc:31797|mtp:S|qry_typ:P|lang:en|wc:2|cs:8842|v=4,False,Andheri East,Mumbai,"Plot No. 58a,midc Road No. 1,,andheri East, Andheri East, Mumbai - 400093, Dist.Mumbai, Maharashtra",8048372877,936
Maternity Tops,,Childrens Paradise,https://www.indiamart.com/childrens-paradise-bengaluru/?pos=199&kwd=maternity tops&tags=CC||||8663.873||product|||NA|rsf:gd-|-stype:attr=1|qr_nm:gd|res:RC3|com-cf:nl|ptrs:na|ktp:N0|mc:31797|mtp:S|qry_typ:P|lang:en|wc:2|cs:8842|v=4,False,Basavanagudi,Bengaluru,"31/1, DVG Road, Basavanagudi, Bengaluru - 560004, Dist.Bengaluru, Karnataka",8048370708,1920
Maternity Tops,,Up Above Online Retail,https://www.indiamart.com/awww/?pos=200&kwd=maternity tops&tags=CC||||8211.142||product|||NA|rsf:gd-|-stype:attr=1|qr_nm:gd|res:RC3|com-cf:nl|ptrs:na|ktp:N0|mc:31797|mtp:S|qry_typ:P|lang:en|wc:2|cs:8842|v=4,False,Juhu,Mumbai,"31, Ritu Appt, Juhu Versova Link Rd, Andheri%28West%29, Juhu, Mumbai - 400053, Dist.Mumbai, Maharashtra",8062245061,293
3/4 Sleeve Grey And Black Nursing Tops - 2 Pack,,Premier Knits Apparel (India) Private Limited,https://www.indiamart.com/premier-knits-apparel/?pos=201&kwd=maternity tops&tags=CC||||8626.744||product|||NA|rsf:gd-|-stype:attr=1|qr_nm:gd|res:RC3|com-cf:nl|ptrs:na|ktp:N0|mc:31797|mtp:S|qry_typ:P|lang:en|wc:2|cs:8842|v=4,False,,Tiruppur,"2/241 Kunnathur Road, Virumandampalayam Post, Chengappalli, Periyar Colony, Avinashi Road, Tiruppur - 638812, Dist.Coimbatore, Tamil Nadu",7942659667,
Women''s Maternity,,Preva Buying Services,https://www.indiamart.com/preva-buying-services/?pos=202&kwd=maternity tops&tags=CC||||8626.744||product|||NA|rsf:gd-|-stype:attr=1|qr_nm:gd|res:RC3|com-cf:nl|ptrs:na|ktp:N0|mc:31797|mtp:S|qry_typ:P|lang:en|wc:2|cs:8842|v=4,False,Kangeyan Road,Tiruppur,"No. 56, Cross Street, Amarjothi A.S. Nagar Kangeyan Road, Kangeyan Road, Tiruppur - 641604, Dist.Coimbatore, Tamil Nadu",8069416018,241
Maternity Top,,Pawan Enterprises,https://www.indiamart.com/pawanenterprise/?pos=203&kwd=maternity tops&tags=CB||||8601.347||product|||NA|rsf:gd-|-stype:attr=1|qr_nm:gd|res:RC3|com-cf:nl|ptrs:na|ktp:N0|mc:31797|mtp:S|qry_typ:P|lang:en|wc:2|cs:8842|v=4,False,Tal Katora,Jaipur,"No. 73-75, Behind Govind Dev Ji Temple, Tal Katora, Jaipur - 302002, Dist.Jaipur, Rajasthan",8048371886,796
Women's Alloy Necklace Set Maroon,,Fashion Camp Private Limited,https://www.indiamart.com/fashion-camp-private-limited/?pos=204&kwd=maternity tops&tags=CC||||8562.157||product|||NA|rsf:gd-|-stype:attr=1|qr_nm:gd|res:RC3|com-cf:nl|ptrs:na|ktp:N0|mc:31797|mtp:S|qry_typ:P|lang:en|wc:2|cs:8842|v=4,False,,Sirsa,"Fashion Camp Street, Rori Bazar,, Sirsa - 125055, Haryana",8069707381,340
Green Draped Top with Palazzo Pants,,Blumuslin Services Pvt. Ltd.,https://www.indiamart.com/blumuslin-services-pvt-ltd/?pos=205&kwd=maternity tops&tags=CC||||9829.308||product|||NA|rsf:gd-|-stype:attr=1|qr_nm:gd|res:RC3|com-cf:nl|ptrs:na|ktp:N0|mc:31797|mtp:S|qry_typ:P|lang:en|wc:2|cs:8842|v=4,False,,Howrah,"A10/4a,Co-Operative Housing Society Limited,Park Street,Lord Sinha Road,Kolkata, Howrah - 700071, Dist.Howrah, West Bengal",8048247088,7246
Maternity Top,,Dac Clothing Private Limited,https://www.indiamart.com/dac-clothing-private-limited-salem/?pos=206&kwd=maternity tops&tags=CC||||8717.056||product|||NA|rsf:gd-|-stype:attr=1|qr_nm:gd|res:RC3|com-cf:nl|ptrs:na|ktp:N0|mc:31797|mtp:S|qry_typ:P|lang:en|wc:2|cs:8842|v=4,False,,Salem,"No.1/2 Vijayaraghavachariar Road Hasthampatty Kumarasamipatti, Salem - 636007, Dist.Salem, Tamil Nadu",8069707313,552
Feeding Tops,,Pranika Textiles And Toys,https://www.indiamart.com/pranika-textiles-and-toys/?pos=207&kwd=maternity tops&tags=CC||||8767.174||product|||NA|rsf:gd-|-stype:attr=1|qr_nm:gd|res:RC3|com-cf:nl|ptrs:na|ktp:N0|mc:31797|mtp:S|qry_typ:P|lang:en|wc:2|cs:8842|v=4,False,Opposite To Tea Time,Tirupattur,"Tiruvannamalai (Mainroad) ,Vengalapuram,, Opposite To Tea Time, Tirupattur - 635653, Dist.Vellore, Tamil Nadu",8048372439,921
Ladies Breast Feeding Maternity Nursing Top,,Sahana Enterprises,https://www.indiamart.com/sahana-enterprises-gautam-budh-nagar/?pos=208&kwd=maternity tops&tags=CC||||8796.898||product|||NA|rsf:gd-|-stype:attr=1|qr_nm:gd|res:RC3|com-cf:nl|ptrs:na|ktp:N0|mc:31797|mtp:S|qry_typ:P|lang:en|wc:2|cs:8842|v=4,False,,Gautam Budh Nagar,"3rd Floor Flat No 312 B-17,Sector-61 Marvel Homes Noida Gautam Buddha Nagar, Gautam Budh Nagar - 201301, Dist.Gautam Budh Nagar, Uttar Pradesh",8069033815,524
Tee Ladies Top Open,,Cherish Life Products Private Limited,https://www.indiamart.com/cherish-life-products/?pos=209&kwd=maternity tops&tags=CC||||8663.873||product|||NA|rsf:gd-|-stype:attr=1|qr_nm:gd|res:RC3|com-cf:nl|ptrs:na|ktp:N0|mc:31797|mtp:S|qry_typ:P|lang:en|wc:2|cs:8842|v=4,False,,Bengaluru,"No. 915, 4th Cross, 9th Main Mico Layout, BTM, 2nd Stage, Bengaluru - 560001, Dist.Bengaluru, Karnataka",8048372859,344
Feeding Tops Rayon Fabric with Heavy Neck embroided,,K Navya Art LLP,https://www.indiamart.com/k-navya-art-llp/?pos=210&kwd=maternity tops&tags=CC||||8228.275||product|||NA|rsf:gd-|-stype:attr=1|qr_nm:gd|res:RC3|com-cf:nl|ptrs:na|ktp:N0|mc:31797|mtp:S|qry_typ:P|lang:en|wc:2|cs:8842|v=4,False,Khokhra,Ahmedabad,"Block J-2 Khokhra Circle Samet Business Park, Nr Parishkar Soc, Khokhra, Ahmedabad - 380008, Dist.Ahmedabad, Gujarat",8048249847,154
