product_title,product_link,company_name,company_link,is_verified_exporter,city_region,city,address_details,phone_number,phone_number_extension
Cotton Party Wear Maternity Tunic,https://www.indiamart.com/proddetail/maternity-tunic-10785591733.html?pos=1&kwd=maternity tunic&tags=A||||8601.347|Price|product|||TS|rsf:gd-|-stype:attr=1|qr_nm:gd|res:RC3|com-cf:nl|ptrs:na|ktp:N0|mc:155747|mtp:S|qry_typ:P|lang:en|wc:2|flavl:0|cs:9655|v=4,Jaipuri Bandhej,https://www.jaipuribandhej.net/?pos=1&kwd=maternity tunic&tags=A||||8601.347|Price|product|||TS|rsf:gd-|-stype:attr=1|qr_nm:gd|res:RC3|com-cf:nl|ptrs:na|ktp:N0|mc:155747|mtp:S|qry_typ:P|lang:en|wc:2|flavl:0|cs:9655|v=4,False,Vidhyadhar Nagar,Jaipur,"Laxmi Niwas, 42-A, Hans Vatika Naya Khera, Vidhyadhar Nagar, Vidhyadhar Nagar, Jaipur - 302039, Dist.Jaipur, Rajasthan",8048619795,
Maternity Tunic,https://www.indiamart.com/proddetail/maternity-tunic-2853650753330.html?pos=2&kwd=maternity tunic&tags=BA||||8601.347||product|||TS|rsf:gd-|-stype:attr=1|qr_nm:gd|res:RC3|com-cf:nl|ptrs:na|ktp:N0|mc:155747|mtp:S|qry_typ:P|lang:en|wc:2|flavl:0|cs:9655|v=4,Namokar Enterprises,https://www.indiamart.com/namokarenterprises/?pos=2&kwd=maternity tunic&tags=BA||||8601.347||product|||TS|rsf:gd-|-stype:attr=1|qr_nm:gd|res:RC3|com-cf:nl|ptrs:na|ktp:N0|mc:155747|mtp:S|qry_typ:P|lang:en|wc:2|flavl:0|cs:9655|v=4,False,Mansarovar,Jaipur,"119/67, Thadi Market, Agarwal Farm, Mansarovar, Mansarovar, Jaipur - 302020, Dist.Jaipur, Rajasthan",8047530717,
Maternity Feeding Kurti,https://www.indiamart.com/proddetail/maternity-feeding-kurti-2853568219630.html?pos=3&kwd=maternity tunic&tags=BA||||8601.347|Price|product|||MDC|rsf:gd-|-stype:attr=1|qr_nm:gd|res:RC3|com-cf:nl|ptrs:na|ktp:N0|mc:155747|mtp:S|qry_typ:P|lang:en|wc:2|flavl:0|cs:9655|v=4,Runway Enterprises,https://www.indiamart.com/runwayenterprises/?pos=3&kwd=maternity tunic&tags=BA||||8601.347|Price|product|||MDC|rsf:gd-|-stype:attr=1|qr_nm:gd|res:RC3|com-cf:nl|ptrs:na|ktp:N0|mc:155747|mtp:S|qry_typ:P|lang:en|wc:2|flavl:0|cs:9655|v=4,False,Jamna Puri,Jaipur,"Plot No 133, Benar Road, Scheme Shri Jorawar Nagar,, Jamna Puri, Jaipur - 302039, Dist.Jaipur, Rajasthan",7942718276,
Women Crepe Maternity Tunic,https://www.indiamart.com/proddetail/women-crepe-maternity-tunic-2853701260891.html?pos=4&kwd=maternity tunic&tags=BA||||8752.144|Price|product|||MDC|rsf:gd-|-stype:attr=1|qr_nm:gd|res:RC3|com-cf:nl|ptrs:na|ktp:N0|mc:155747|mtp:S|qry_typ:P|lang:en|wc:2|flavl:0|cs:9655|v=4,Ekaavali,https://www.indiamart.com/ekaavali/?pos=4&kwd=maternity tunic&tags=BA||||8752.144|Price|product|||MDC|rsf:gd-|-stype:attr=1|qr_nm:gd|res:RC3|com-cf:nl|ptrs:na|ktp:N0|mc:155747|mtp:S|qry_typ:P|lang:en|wc:2|flavl:0|cs:9655|v=4,False,Palam,New Delhi,"Flat No-263, Excellence Apartments, Sector 18A, Dwarka, Palam, New Delhi - 110075, Dist.Delhi, Delhi",7949095107,
Pure Cotton Printed Top Short Tunic short kurta collar neck,https://www.indiamart.com/proddetail/pure-cotton-printed-top-short-tunic-short-kurta-collar-neck-2853739960873.html?pos=5&kwd=maternity tunic&tags=A||||8601.347|Price|product|||TS|rsf:gd-|-stype:attr=1|qr_nm:gd|res:RC3|com-cf:nl|ptrs:na|ktp:N0|mc:155747|mtp:S|qry_typ:P|lang:en|wc:2|flavl:0|cs:9655|v=4,Gopali Arts,https://www.gopaliarts.in/?pos=5&kwd=maternity tunic&tags=A||||8601.347|Price|product|||TS|rsf:gd-|-stype:attr=1|qr_nm:gd|res:RC3|com-cf:nl|ptrs:na|ktp:N0|mc:155747|mtp:S|qry_typ:P|lang:en|wc:2|flavl:0|cs:9655|v=4,False,G1-652 Sitapura Phase-1,Jaipur,"G1-652, Sitapura Phase-1, G1-652 Sitapura Phase-1, Jaipur - 302022, Dist.Jaipur, Rajasthan",8048264082,
Lycra Maternity Maxi Dress For Pregnant Women Deep V Neck Blue Pregnancy Dress Vestidos Clothing,https://www.indiamart.com/proddetail/lycra-maternity-maxi-dress-for-pregnant-women-deep-v-neck-blue-pregnancy-dress-vestidos-clothing-22627583788.html?pos=6&kwd=maternity tunic&tags=A||||8752.144|Price|product|||TS|rsf:gd-|-stype:attr=1|qr_nm:gd|res:RC3|com-cf:nl|ptrs:na|ktp:N0|mc:155747|mtp:S|qry_typ:P|lang:en|wc:2|flavl:0|cs:9655|v=4,Fragrance Of India,https://www.tashitagye.com/?pos=6&kwd=maternity tunic&tags=A||||8752.144|Price|product|||TS|rsf:gd-|-stype:attr=1|qr_nm:gd|res:RC3|com-cf:nl|ptrs:na|ktp:N0|mc:155747|mtp:S|qry_typ:P|lang:en|wc:2|flavl:0|cs:9655|v=4,False,Punjabi Bagh,New Delhi,"27/35 FIRST FLOOR NORTH AVENUE ROAD PUNJABI BAGH WEST, Punjabi Bagh, New Delhi - 110018, Dist.Delhi, Delhi",7942540330,
Maternity Tunic,https://www.indiamart.com/proddetail/maternity-tunic-2853904313048.html?pos=7&kwd=maternity tunic&tags=BA||||8687.934|Price|product|||TS|rsf:gd-|-stype:attr=1|qr_nm:gd|res:RC3|com-cf:nl|ptrs:na|ktp:N0|mc:155747|mtp:S|qry_typ:P|lang:en|wc:2|flavl:0|cs:9655|v=4,Shree Fashions,https://www.indiamart.com/jbr-vesture/?pos=7&kwd=maternity tunic&tags=BA||||8687.934|Price|product|||TS|rsf:gd-|-stype:attr=1|qr_nm:gd|res:RC3|com-cf:nl|ptrs:na|ktp:N0|mc:155747|mtp:S|qry_typ:P|lang:en|wc:2|flavl:0|cs:9655|v=4,False,Rajapalaiyam,Virudhunagar,"2/126B4, Teachers Colony, Chettiarpatti, Rajapalaiyam, Virudhunagar - 626188, Dist.Virudhunagar, Tamil Nadu",7942870856,
Maternity Tunic,https://www.indiamart.com/proddetail/maternity-tunic-2851959569262.html?pos=8&kwd=maternity tunic&tags=BA||||8559.269|Price|product|||TS|rsf:gd-|-stype:attr=1|qr_nm:gd|res:RC3|com-cf:nl|ptrs:na|ktp:N0|mc:155747|mtp:S|qry_typ:P|lang:en|wc:2|flavl:0|cs:9655|v=4,Nirmala Overseas,https://www.nirmalaoverseas.com/?pos=8&kwd=maternity tunic&tags=BA||||8559.269|Price|product|||TS|rsf:gd-|-stype:attr=1|qr_nm:gd|res:RC3|com-cf:nl|ptrs:na|ktp:N0|mc:155747|mtp:S|qry_typ:P|lang:en|wc:2|flavl:0|cs:9655|v=4,False,Jaora Compound,Indore,"No. 56, Jaora Compound, Jaora Compound, Indore - 452001, Dist.Indore, Madhya Pradesh",8047300753,
Maroon Women Maternity Wear,https://www.indiamart.com/proddetail/women-maternity-wear-2851270248055.html?pos=9&kwd=maternity tunic&tags=BA||||8601.347|Price|product|||TS|rsf:gd-|-stype:attr=1|qr_nm:gd|res:RC3|com-cf:nl|ptrs:na|ktp:N0|mc:155747|mtp:S|qry_typ:P|lang:en|wc:2|flavl:0|cs:9655|v=4,Hkf Jaipur Industries Private Limited,https://www.hkfjaipurindustries.com/?pos=9&kwd=maternity tunic&tags=BA||||8601.347|Price|product|||TS|rsf:gd-|-stype:attr=1|qr_nm:gd|res:RC3|com-cf:nl|ptrs:na|ktp:N0|mc:155747|mtp:S|qry_typ:P|lang:en|wc:2|flavl:0|cs:9655|v=4,False,Sanganer Shri Rampura,Jaipur,"PLOT NO. 72, 1ST FLOOR, GOPI NAGAR, RAILWAY STATION ROAD,, Sanganer Shri Rampura, Jaipur - 302029, Dist.Jaipur, Rajasthan",8047674124,
Maternity Feeding Kurti,https://www.indiamart.com/proddetail/maternity-feeding-kurti-2852427897312.html?pos=10&kwd=maternity tunic&tags=BA||||8601.347|Price|product|||TS|rsf:gd-|-stype:attr=1|qr_nm:gd|res:RC3|com-cf:nl|ptrs:na|ktp:N0|mc:155747|mtp:S|qry_typ:P|lang:en|wc:2|flavl:0|cs:9655|v=4,Luxury Fashion,https://www.indiamart.com/luxury-fashion/?pos=10&kwd=maternity tunic&tags=BA||||8601.347|Price|product|||TS|rsf:gd-|-stype:attr=1|qr_nm:gd|res:RC3|com-cf:nl|ptrs:na|ktp:N0|mc:155747|mtp:S|qry_typ:P|lang:en|wc:2|flavl:0|cs:9655|v=4,False,Sanganer Bazar,Jaipur,"Plot No 13, Suraj Nagar, Dadabadi, Sanganer,, Sanganer Bazar, Jaipur - 302029, Dist.Jaipur, Rajasthan",7942707166,
Maternity Clothing Manufacturers,https://www.indiamart.com/proddetail/maternity-clothing-manufacturers-2850412773497.html?pos=11&kwd=maternity tunic&tags=BB||||8601.347|Price|product|||TS|rsf:gd-|-stype:attr=1|qr_nm:gd|res:RC3|com-cf:nl|ptrs:na|ktp:N0|mc:155747|mtp:S|qry_typ:P|lang:en|wc:2|flavl:0|cs:9655|v=4,Tanishi Crafts,https://www.tanishicrafts.com/?pos=11&kwd=maternity tunic&tags=BB||||8601.347|Price|product|||TS|rsf:gd-|-stype:attr=1|qr_nm:gd|res:RC3|com-cf:nl|ptrs:na|ktp:N0|mc:155747|mtp:S|qry_typ:P|lang:en|wc:2|flavl:0|cs:9655|v=4,False,Jaipur,Jaipur,"Bani Park, F-61 Sindhi Colony, Jaipur, Iti Sanstha Ke Piche, Sindhi Colony, Jaipur, Jaipur - 302016, Dist.Jaipur, Rajasthan",8047622196,
Maternity Gown On Rent,https://www.indiamart.com/proddetail/maternity-gown-on-rent-2850596011712.html?pos=12&kwd=maternity tunic&tags=BA||||8228.275|Price|product|||TS|rsf:gd-|-stype:attr=1|qr_nm:gd|res:RC3|com-cf:nl|ptrs:na|ktp:N0|mc:155747|mtp:S|qry_typ:P|lang:en|wc:2|flavl:0|cs:9655|v=4,Gitanjali Enterprise,https://www.indiamart.com/gitanjali-enterprise-ahmedabad/?pos=12&kwd=maternity tunic&tags=BA||||8228.275|Price|product|||TS|rsf:gd-|-stype:attr=1|qr_nm:gd|res:RC3|com-cf:nl|ptrs:na|ktp:N0|mc:155747|mtp:S|qry_typ:P|lang:en|wc:2|flavl:0|cs:9655|v=4,False,Isanpur,Ahmedabad,"Near Jognimata Temple, Isanpur Gam, Isanpur, Isanpur, Ahmedabad - 382443, Dist.Ahmedabad, Gujarat",8047640750,
American feeding Maternity Tunic,https://www.indiamart.com/proddetail/american-feeding-maternity-tunic-2852625433588.html?pos=13&kwd=maternity tunic&tags=BA||||8601.347|Price|product|||TS|rsf:gd-|-stype:attr=1|qr_nm:gd|res:RC3|com-cf:nl|ptrs:na|ktp:N0|mc:155747|mtp:S|qry_typ:P|lang:en|wc:2|flavl:0|cs:9655|v=4,Prince Enterprises,https://www.indiamart.com/princeenterprisesjaipur/?pos=13&kwd=maternity tunic&tags=BA||||8601.347|Price|product|||TS|rsf:gd-|-stype:attr=1|qr_nm:gd|res:RC3|com-cf:nl|ptrs:na|ktp:N0|mc:155747|mtp:S|qry_typ:P|lang:en|wc:2|flavl:0|cs:9655|v=4,False,Mansarovar,Jaipur,"115/137 Agarwal Farm,mansarovar, Mansarovar, Jaipur - 302020, Dist.Jaipur, Rajasthan",8048963229,
Maternity dress,https://www.indiamart.com/proddetail/maternity-dress-2854954045355.html?pos=14&kwd=maternity tunic&tags=BA||||8601.347|Price|product|||TS|rsf:gd-|-stype:attr=1|qr_nm:gd|res:RC3|com-cf:nl|ptrs:na|ktp:N0|mc:155747|mtp:S|qry_typ:P|lang:en|wc:2|flavl:0|cs:9655|v=4,Sana Crafts,https://www.sanacrafts.com/?pos=14&kwd=maternity tunic&tags=BA||||8601.347|Price|product|||TS|rsf:gd-|-stype:attr=1|qr_nm:gd|res:RC3|com-cf:nl|ptrs:na|ktp:N0|mc:155747|mtp:S|qry_typ:P|lang:en|wc:2|flavl:0|cs:9655|v=4,True,Sanganer Bazar,Jaipur,"14 Ganga Vihar, Sanganer, Sanganer Bazar, Jaipur - 302029, Dist.Jaipur, Rajasthan",7942543419,
"Plain Maternity Gowns, Handwash",https://www.indiamart.com/proddetail/maternity-gowns-22553628797.html?pos=15&kwd=maternity tunic&tags=BA||||8791.36|Price|product|||TS|rsf:gd-|-stype:attr=1|qr_nm:gd|res:RC3|com-cf:nl|ptrs:na|ktp:N0|mc:155747|mtp:S|qry_typ:P|lang:en|wc:2|cs:8892|v=4,M.S. Textiles,https://www.indiamart.com/m-s-textiles/?pos=15&kwd=maternity tunic&tags=BA||||8791.36|Price|product|||TS|rsf:gd-|-stype:attr=1|qr_nm:gd|res:RC3|com-cf:nl|ptrs:na|ktp:N0|mc:155747|mtp:S|qry_typ:P|lang:en|wc:2|cs:8892|v=4,False,Mohammadpur Dwedha,Muradnagar,"Agrasen Market, Mohammadpur Dwedha, Muradnagar - 201206, Dist.Ghaziabad, Uttar Pradesh",8048953200,
Ladies Maternity Kurtis,https://www.indiamart.com/proddetail/ladies-maternity-kurtis-2851934344648.html?pos=16&kwd=maternity tunic&tags=BA||||8626.744|Price|product|||TS|rsf:gd-|-stype:attr=1|qr_nm:gd|res:RC3|com-cf:nl|ptrs:na|ktp:N0|mc:155747|mtp:S|qry_typ:P|lang:en|wc:2|cs:8892|v=4,Rainbow Creations,https://www.indiamart.com/rainbowcreations/?pos=16&kwd=maternity tunic&tags=BA||||8626.744|Price|product|||TS|rsf:gd-|-stype:attr=1|qr_nm:gd|res:RC3|com-cf:nl|ptrs:na|ktp:N0|mc:155747|mtp:S|qry_typ:P|lang:en|wc:2|cs:8892|v=4,False,Renganatha Puram,Tiruppur,"No. 7- 24, murugasamy layout 1street, Renganatha Puram, Tiruppur - 641607, Dist.Coimbatore, Tamil Nadu",8048955272,
Maternity Dress,https://www.indiamart.com/proddetail/maternity-dress-2853877883573.html?pos=17&kwd=maternity tunic&tags=BA||||8626.744|Price|product|||MDC|rsf:gd-|-stype:attr=1|qr_nm:gd|res:RC3|com-cf:nl|ptrs:na|ktp:N0|mc:155747|mtp:S|qry_typ:P|lang:en|wc:2|cs:8892|v=4,Elshada Clothing,https://www.indiamart.com/elshada-clothing-tiruppur/?pos=17&kwd=maternity tunic&tags=BA||||8626.744|Price|product|||MDC|rsf:gd-|-stype:attr=1|qr_nm:gd|res:RC3|com-cf:nl|ptrs:na|ktp:N0|mc:155747|mtp:S|qry_typ:P|lang:en|wc:2|cs:8892|v=4,False,Padmavathi Puram,Tiruppur,"105A Ashar Mill Labour Colony, Padmavathipuram, Padmavathi Puram, Tiruppur - 641603, Dist.Coimbatore, Tamil Nadu",7942720305,
Maternity Tunic,https://www.indiamart.com/proddetail/maternity-tunic-2854487991673.html?pos=18&kwd=maternity tunic&tags=BA||||8601.347||product|||MDC|rsf:gd-|-stype:attr=1|qr_nm:gd|res:RC3|com-cf:nl|ptrs:na|ktp:N0|mc:155747|mtp:S|qry_typ:P|lang:en|wc:2|cs:8892|v=4,Sheffali,https://www.indiamart.com/sheffali/?pos=18&kwd=maternity tunic&tags=BA||||8601.347||product|||MDC|rsf:gd-|-stype:attr=1|qr_nm:gd|res:RC3|com-cf:nl|ptrs:na|ktp:N0|mc:155747|mtp:S|qry_typ:P|lang:en|wc:2|cs:8892|v=4,False,Ajmer Road,Jaipur,"C-61, Opp. Kabra Eye Hospital, Jamna Nagar, Sodala, Ajmer Road, Jaipur - 302006, Dist.Jaipur, Rajasthan",7942720926,
Ladies Maternity Kurtis,https://www.indiamart.com/proddetail/ladies-maternity-kurtis-2851763851462.html?pos=19&kwd=maternity tunic&tags=BA||||8601.347|Price|product|||NA|rsf:gd-|-stype:attr=1|qr_nm:gd|res:RC3|com-cf:nl|ptrs:na|ktp:N0|mc:155747|mtp:S|qry_typ:P|lang:en|wc:2|cs:8892|v=4,Pacific Overseas,https://www.indiamart.com/pacific-overseas-jaipur/?pos=19&kwd=maternity tunic&tags=BA||||8601.347|Price|product|||NA|rsf:gd-|-stype:attr=1|qr_nm:gd|res:RC3|com-cf:nl|ptrs:na|ktp:N0|mc:155747|mtp:S|qry_typ:P|lang:en|wc:2|cs:8892|v=4,False,,Jaipur,"Plot No 154 Sanganer Dada Gurudev Nagar, Jaipur - 302029, Dist.Jaipur, Rajasthan",7942803814,
Maternity Tunic,https://www.indiamart.com/proddetail/maternity-tunic-2854723417297.html?pos=20&kwd=maternity tunic&tags=BB||||9045.955|Price|product|||NA|rsf:gd-|-stype:attr=1|qr_nm:gd|res:RC3|com-cf:nl|ptrs:na|ktp:N0|mc:155747|mtp:S|qry_typ:P|lang:en|wc:2|cs:8892|v=4,Wedress Fashion Private Limited,https://www.indiamart.com/company/188020363/?pos=20&kwd=maternity tunic&tags=BB||||9045.955|Price|product|||NA|rsf:gd-|-stype:attr=1|qr_nm:gd|res:RC3|com-cf:nl|ptrs:na|ktp:N0|mc:155747|mtp:S|qry_typ:P|lang:en|wc:2|cs:8892|v=4,False,,Kanpur,"Shop No 05 Ppn Market Gopala Chambers, Kanpur - 208001, Uttar Pradesh",8048249781,2516
Maternity Tunic,https://www.indiamart.com/proddetail/maternity-tunic-2850898059230.html?pos=21&kwd=maternity tunic&tags=BB||||8230.883|Price|product|||NA|rsf:gd-|-stype:attr=1|qr_nm:gd|res:RC3|com-cf:nl|ptrs:na|ktp:N0|mc:155747|mtp:S|qry_typ:P|lang:en|wc:2|cs:8892|v=4,Dhara Fashion,https://www.indiamart.com/dharafashionsurat/?pos=21&kwd=maternity tunic&tags=BB||||8230.883|Price|product|||NA|rsf:gd-|-stype:attr=1|qr_nm:gd|res:RC3|com-cf:nl|ptrs:na|ktp:N0|mc:155747|mtp:S|qry_typ:P|lang:en|wc:2|cs:8892|v=4,False,,Surat,"Plot-15/321, Shed No-23, GR. Floor, Pavthawala Comp, Jain Mandir Road, Vasta Devdi Road, Kataragam, Surat - 395004, Dist.Surat, Gujarat",8047647921,
Women Maternity Wear,https://www.indiamart.com/proddetail/women-maternity-wear-2850179991255.html?pos=22&kwd=maternity tunic&tags=BA||||8228.275|Price|product|||NA|rsf:gd-|-stype:attr=1|qr_nm:gd|res:RC3|com-cf:nl|ptrs:na|ktp:N0|mc:155747|mtp:S|qry_typ:P|lang:en|wc:2|cs:8892|v=4,K Bela Creation,https://www.indiamart.com/k-bela-creation/?pos=22&kwd=maternity tunic&tags=BA||||8228.275|Price|product|||NA|rsf:gd-|-stype:attr=1|qr_nm:gd|res:RC3|com-cf:nl|ptrs:na|ktp:N0|mc:155747|mtp:S|qry_typ:P|lang:en|wc:2|cs:8892|v=4,False,,Ahmedabad,"121/122 vivekanand garments park shavadi Narol gaam Ahmedabad, Ahmedabad - 380001, Dist.Ahmedabad, Gujarat",7942803999,
Blue Maternity Designer Gown,https://www.indiamart.com/proddetail/maternity-designer-gown-2848940420230.html?pos=23&kwd=maternity tunic&tags=BB||||9045.955|Price|product|||NA|rsf:gd-|-stype:attr=1|qr_nm:gd|res:RC3|com-cf:nl|ptrs:na|ktp:N0|mc:155747|mtp:S|qry_typ:P|lang:en|wc:2|cs:8892|v=4,Nids Inclination,https://www.indiamart.com/nids-inclination/?pos=23&kwd=maternity tunic&tags=BB||||9045.955|Price|product|||NA|rsf:gd-|-stype:attr=1|qr_nm:gd|res:RC3|com-cf:nl|ptrs:na|ktp:N0|mc:155747|mtp:S|qry_typ:P|lang:en|wc:2|cs:8892|v=4,False,,Kanpur,"Ews-237 Sector-07 Swarn Jayanti Vihar, Yashoda Nagar AVADH VIHAR YOJNA, Kanpur - 208011, Uttar Pradesh",8048250315,159
Ladies Maternity Dress,https://www.indiamart.com/proddetail/ladies-maternity-dress-25189138873.html?pos=24&kwd=maternity tunic&tags=BA||||8601.347||product|||NA|rsf:gd-|-stype:attr=1|qr_nm:gd|res:RC3|com-cf:nl|ptrs:na|ktp:N0|mc:155747|mtp:S|qry_typ:P|lang:en|wc:2|cs:8892|v=4,Vyshivka India Private Limited,https://www.indiamart.com/vyshivka-india/?pos=24&kwd=maternity tunic&tags=BA||||8601.347||product|||NA|rsf:gd-|-stype:attr=1|qr_nm:gd|res:RC3|com-cf:nl|ptrs:na|ktp:N0|mc:155747|mtp:S|qry_typ:P|lang:en|wc:2|cs:8892|v=4,False,Sector 75,Jaipur,"Plot No. 1, Bajrang Nagar Ext 2 Bajrang Vihar, Sector 75, Jaipur - 302029, Dist.Jaipur, Rajasthan",8048986925,
Blue Maternity Dress,https://www.indiamart.com/proddetail/maternity-dress-24046450491.html?pos=25&kwd=maternity tunic&tags=BB||||8601.347|Price|product|||NA|rsf:gd-|-stype:attr=1|qr_nm:gd|res:RC3|com-cf:nl|ptrs:na|ktp:N0|mc:155747|mtp:S|qry_typ:P|lang:en|wc:2|cs:8892|v=4,Purvansh Enterprises,https://www.indiamart.com/purvanshenterprises/?pos=25&kwd=maternity tunic&tags=BB||||8601.347|Price|product|||NA|rsf:gd-|-stype:attr=1|qr_nm:gd|res:RC3|com-cf:nl|ptrs:na|ktp:N0|mc:155747|mtp:S|qry_typ:P|lang:en|wc:2|cs:8892|v=4,False,,Jaipur,"Plot No. 17, Balaji Vihar 2, Govindpura, Kalwar Road, Jaipur - 302012, Dist.Jaipur, Rajasthan",7942564962,
Ladies Cotton Maternity Feeding Kurti,https://www.indiamart.com/proddetail/ladies-cotton-maternity-feeding-kurti-2850545193312.html?pos=26&kwd=maternity tunic&tags=BA||||8230.883|Price|product|||NA|rsf:gd-|-stype:attr=1|qr_nm:gd|res:RC3|com-cf:nl|ptrs:na|ktp:N0|mc:155747|mtp:S|qry_typ:P|lang:en|wc:2|cs:8892|v=4,Bansi Enterprise,https://www.indiamart.com/bansienterprise/?pos=26&kwd=maternity tunic&tags=BA||||8230.883|Price|product|||NA|rsf:gd-|-stype:attr=1|qr_nm:gd|res:RC3|com-cf:nl|ptrs:na|ktp:N0|mc:155747|mtp:S|qry_typ:P|lang:en|wc:2|cs:8892|v=4,False,Hirabaugh,Surat,"145, Krishna Park Society, NR.Gelambe Mandir,Kamraj,, Hirabaugh, Surat - 394180, Dist.Surat, Gujarat",7942620842,
customised maternity wear,https://www.indiamart.com/proddetail/customised-maternity-wear-25727629355.html?pos=27&kwd=maternity tunic&tags=BA||||9045.955|Price|product|||NA|rsf:gd-|-stype:attr=1|qr_nm:gd|res:RC3|com-cf:nl|ptrs:na|ktp:N0|mc:155747|mtp:S|qry_typ:P|lang:en|wc:2|cs:8892|v=4,News,https://www.indiamart.com/ms-news/?pos=27&kwd=maternity tunic&tags=BA||||9045.955|Price|product|||NA|rsf:gd-|-stype:attr=1|qr_nm:gd|res:RC3|com-cf:nl|ptrs:na|ktp:N0|mc:155747|mtp:S|qry_typ:P|lang:en|wc:2|cs:8892|v=4,False,Kanpur Nagar,Kanpur,"14/123 A , Gopala Chamber Parade, Kanpur Nagar, Kanpur - 208001, Uttar Pradesh",7949371581,
Maternity Kurtis Manufacturer,https://www.indiamart.com/proddetail/maternity-kurtis-manufacturer-27135753962.html?pos=28&kwd=maternity tunic&tags=BB||||8601.347|Price|product|||NA|rsf:gd-|-stype:attr=1|qr_nm:gd|res:RC3|com-cf:nl|ptrs:na|ktp:N0|mc:155747|mtp:S|qry_typ:P|lang:en|wc:2|cs:8892|v=4,Click Jaipur,https://www.indiamart.com/clkjaipur-photoshootwithmodeladvertisng/?pos=28&kwd=maternity tunic&tags=BB||||8601.347|Price|product|||NA|rsf:gd-|-stype:attr=1|qr_nm:gd|res:RC3|com-cf:nl|ptrs:na|ktp:N0|mc:155747|mtp:S|qry_typ:P|lang:en|wc:2|cs:8892|v=4,False,Sanganer,Jaipur,"House No 82-a Sashtri Nagar Meena Wala Sirsi Road Jaipur, Sanganer, Jaipur - 302034, Dist.Jaipur, Rajasthan",8043804680,
"HOSIERY Printed A PLUS NIGHTWEAR LADIES MATERNITY & FEEDING GOWN, 3/4 Sleeve",https://www.indiamart.com/proddetail/a-plus-nightwear-ladies-maternity-feeding-gown-2850113392691.html?pos=29&kwd=maternity tunic&tags=BB||||8228.275|Price|product|||NA|rsf:gd-|-stype:attr=1|qr_nm:gd|res:RC3|com-cf:nl|ptrs:na|ktp:N0|mc:155747|mtp:S|qry_typ:P|lang:en|wc:2|cs:8892|v=4,Shree Balaji Expo,https://www.indiamart.com/shreebalajiexpo/?pos=29&kwd=maternity tunic&tags=BB||||8228.275|Price|product|||NA|rsf:gd-|-stype:attr=1|qr_nm:gd|res:RC3|com-cf:nl|ptrs:na|ktp:N0|mc:155747|mtp:S|qry_typ:P|lang:en|wc:2|cs:8892|v=4,False,,Ahmedabad,"SF-253, Block-D, Second Floor, Sumel-6, Jupiter Mill Compound,Dudheshwar Gujarat, Ahmedabad - 380004, Dist.Ahmedabad, Gujarat",8043891771,
Maternity Tunic,,Angloindu Fashion Private Limited,https://www.indiamart.com/angloindufashion/?pos=30&kwd=maternity tunic&tags=BA||||8778.123|Price|product|||NA|rsf:gd-|-stype:attr=1|qr_nm:gd|res:RC3|com-cf:nl|ptrs:na|ktp:N0|mc:155747|mtp:S|qry_typ:P|lang:en|wc:2|cs:8892|v=4,False,,Noida,"Ground Floor F-69 Sector-41, Noida - 201303, Dist.Gautam Budh Nagar, Uttar Pradesh",7942830126,
Maternity Dress,,Mehta Creation,https://www.indiamart.com/mehta-creation-thane/?pos=31&kwd=maternity tunic&tags=BA||||8206.306|Price|product|||NA|rsf:gd-|-stype:attr=1|qr_nm:gd|res:RC3|com-cf:nl|ptrs:na|ktp:N0|mc:155747|mtp:S|qry_typ:P|lang:en|wc:2|cs:8892|v=4,False,Bhayandar West,Bhayander West,"B 5, Amba Smruti, Maharana Pratap Road, Hanuman Mandir, Thane, Bhayandar West, Bhayander West - 401101, Maharashtra",8045166707,
Maternity Dress,,Rishab Creation,https://www.indiamart.com/rishab-creation-jaipur/?pos=32&kwd=maternity tunic&tags=B||||8601.347||product|||NA|rsf:gd-|-stype:attr=1|qr_nm:gd|res:RC3|com-cf:nl|ptrs:na|ktp:N0|mc:155747|mtp:S|qry_typ:P|lang:en|wc:2|cs:8892|v=4,False,,Jaipur,"37-A,,PRATAP NAGAR, GOLIMAR GARDEN KE PICHHE, AMER ROAD, BRAHMPURI,Jaipur 37-A, PRATAP NAGAR, GOLIMAR GARDEN KE PICHHE, AMER ROAD, BRAHMPURI, Jaipur, Jaipur, Rajasthan, 3020, Jaipur - 302002, Dist.Jaipur, Rajasthan",8048370721,9932
Maternity Dress,,World Through Lens,https://www.indiamart.com/world-through-lens-agra/?pos=33&kwd=maternity tunic&tags=BB||||8823.154||product|||NA|rsf:gd-|-stype:attr=1|qr_nm:gd|res:RC3|com-cf:nl|ptrs:na|ktp:N0|mc:155747|mtp:S|qry_typ:P|lang:en|wc:2|cs:8892|v=4,False,,Agra,", Agra - 282002, Dist.Agra, Uttar Pradesh",8048249779,8939
"Multicolor Three fourth sleeve Maternity Feeding Kurti, Size: XL",https://www.indiamart.com/proddetail/maternity-feeding-kurti-2852101534662.html?pos=34&kwd=maternity tunic&tags=CC||||8786.56|Price|product|||TS|rsf:gd-|-stype:attr=1|qr_nm:gd|res:RC3|com-cf:nl|ptrs:na|ktp:N0|mc:155747|mtp:S|qry_typ:P|lang:en|wc:2|cs:8892|v=4,Y. S. Traders,https://www.indiamart.com/ystraders/?pos=34&kwd=maternity tunic&tags=CC||||8786.56|Price|product|||TS|rsf:gd-|-stype:attr=1|qr_nm:gd|res:RC3|com-cf:nl|ptrs:na|ktp:N0|mc:155747|mtp:S|qry_typ:P|lang:en|wc:2|cs:8892|v=4,False,Pathar Gatti,Hyderabad,"Shop No. 8, 4th Floor, I Square Tower, Dewan Devdi, Charminar, Pathar Gatti, Hyderabad - 500002, Dist.Hyderabad, Telangana",8047633157,
Maternity gown on rental,https://www.indiamart.com/proddetail/maternity-gown-on-rental-26265013148.html?pos=35&kwd=maternity tunic&tags=CC||||8228.275|Price|product|||TS|rsf:gd-|-stype:attr=1|qr_nm:gd|res:RC3|com-cf:nl|ptrs:na|ktp:N0|mc:155747|mtp:S|qry_typ:P|lang:en|wc:2|cs:8892|v=4,Kashmira Communication,https://www.indiamart.com/kashmiracommunication/?pos=35&kwd=maternity tunic&tags=CC||||8228.275|Price|product|||TS|rsf:gd-|-stype:attr=1|qr_nm:gd|res:RC3|com-cf:nl|ptrs:na|ktp:N0|mc:155747|mtp:S|qry_typ:P|lang:en|wc:2|cs:8892|v=4,False,Isanpur,Ahmedabad,"21 Near Rajeshwari Soc Vishwasnagar Society Isanpur Jawahar Chowk, Isanpur, Ahmedabad - 382443, Dist.Ahmedabad, Gujarat",7942551704,
Green Cotton Printed A-Line Maternity Tunic,https://www.indiamart.com/proddetail/green-cotton-printed-a-line-maternity-tunic-2854534717497.html?pos=36&kwd=maternity tunic&tags=CC||||8752.144|Price|product|||MDC|rsf:gd-|-stype:attr=1|qr_nm:gd|res:RC3|com-cf:nl|ptrs:na|ktp:N0|mc:155747|mtp:S|qry_typ:P|lang:en|wc:2|cs:8892|v=4,Siyaram Enterprises,https://www.indiamart.com/siyaram-enterprises-newdelhi/?pos=36&kwd=maternity tunic&tags=CC||||8752.144|Price|product|||MDC|rsf:gd-|-stype:attr=1|qr_nm:gd|res:RC3|com-cf:nl|ptrs:na|ktp:N0|mc:155747|mtp:S|qry_typ:P|lang:en|wc:2|cs:8892|v=4,False,,New Delhi,"76-D, A PKT, Third Floor Vikas Puri EXTN, West Delhi, New Delhi - 110018, Dist.Delhi, Delhi",8045737683,
Janasya Women's Blue Cotton Printed Regular Maternity Tunic,https://www.indiamart.com/proddetail/janasya-women-s-blue-cotton-printed-regular-maternity-tunic-23370318262.html?pos=37&kwd=maternity tunic&tags=CC||||8230.883|Price|product|||TS|rsf:gd-|-stype:attr=1|qr_nm:gd|res:RC3|com-cf:nl|ptrs:na|ktp:N0|mc:155747|mtp:S|qry_typ:P|lang:en|wc:2|cs:8892|v=4,Thread Bucket Studio LLP,https://www.threadbucketstudio.in/?pos=37&kwd=maternity tunic&tags=CC||||8230.883|Price|product|||TS|rsf:gd-|-stype:attr=1|qr_nm:gd|res:RC3|com-cf:nl|ptrs:na|ktp:N0|mc:155747|mtp:S|qry_typ:P|lang:en|wc:2|cs:8892|v=4,False,Udhna,Surat,"A-15/4 Road No. 8, Udhna, Surat - 394210, Dist.Surat, Gujarat",8046052440,
Maternity Tunic clara pista 2pcs photoshoot dress,https://www.indiamart.com/proddetail/maternity-tunic-clara-pista-2pcs-photoshoot-dress-2854358385991.html?pos=38&kwd=maternity tunic&tags=||||8307.81|Price|product|||MDC|rsf:gd-|-stype:attr=1|qr_nm:gd|res:RC3|com-cf:nl|ptrs:na|ktp:N0|mc:155747|mtp:S|qry_typ:P|lang:en|wc:2|cs:8892|v=4,Nayan Collection,https://www.indiamart.com/nayan-collection-maharashtra/?pos=38&kwd=maternity tunic&tags=||||8307.81|Price|product|||MDC|rsf:gd-|-stype:attr=1|qr_nm:gd|res:RC3|com-cf:nl|ptrs:na|ktp:N0|mc:155747|mtp:S|qry_typ:P|lang:en|wc:2|cs:8892|v=4,False,Wadgaon Sheri,Pune,"Ground Floor , S NO. 12/1A, Adarsh Nagar, Kalyani Nagar Road , OPP. ST. Arnolds Central School Wadgaon Sheri, Wadgaon Sheri, Pune - 411014, Dist.Pune, Maharashtra",7942704607,
Women's Hosiery Cotton Nursing/Feeding/Maternity Short Dress/Midi/Nighty,https://www.indiamart.com/proddetail/women-s-hosiery-cotton-nursing-feeding-maternity-short-dress-midi-nighty-2854237768397.html?pos=39&kwd=maternity tunic&tags=||||8752.144|Price|product|||TS|rsf:gd-|-stype:attr=1|qr_nm:gd|res:RC3|com-cf:nl|ptrs:na|ktp:N0|mc:155747|mtp:S|qry_typ:P|lang:en|wc:2|cs:8892|v=4,Aggarwal & Sons,https://www.indiamart.com/aggarwal-sons-dehli/?pos=39&kwd=maternity tunic&tags=||||8752.144|Price|product|||TS|rsf:gd-|-stype:attr=1|qr_nm:gd|res:RC3|com-cf:nl|ptrs:na|ktp:N0|mc:155747|mtp:S|qry_typ:P|lang:en|wc:2|cs:8892|v=4,False,Karawal Nagar,New Delhi,"H No.-3 G/f Kh No.-5/27/1 ,Main Road Kamal Vihar Nr Police Station, Karawal Nagar, New Delhi - 110094, Dist.Delhi, Delhi",7942804253,
"Designer Women Tops & Tunics, Size: M to 2XL",https://www.indiamart.com/proddetail/designer-women-tops-tunics-2853782840130.html?pos=40&kwd=maternity tunic&tags=||||8230.883|Price|product|||TS|rsf:gd-|-stype:attr=1|qr_nm:gd|res:RC3|com-cf:nl|ptrs:na|ktp:N0|mc:155747|mtp:S|qry_typ:P|lang:en|wc:2|cs:8892|v=4,Aarya Trendz,https://www.indiamart.com/aarya-trendz/?pos=40&kwd=maternity tunic&tags=||||8230.883|Price|product|||TS|rsf:gd-|-stype:attr=1|qr_nm:gd|res:RC3|com-cf:nl|ptrs:na|ktp:N0|mc:155747|mtp:S|qry_typ:P|lang:en|wc:2|cs:8892|v=4,False,,Surat,"30, Shree Krupa Industrial Estate Kapodra, Varachha Main Road, Surat - 395006, Dist.Surat, Gujarat",8046034119,
Printed Shaifali Brown Rayon Maternity Night Suit Set,https://www.indiamart.com/proddetail/brown-rayon-maternity-night-suit-2852598851562.html?pos=41&kwd=maternity tunic&tags=||||8601.347|Price|product|||MDC|rsf:gd-|-stype:attr=1|qr_nm:gd|res:RC3|com-cf:nl|ptrs:na|ktp:N0|mc:155747|mtp:S|qry_typ:P|lang:en|wc:2|cs:8892|v=4,Shaifali Fashions,https://www.indiamart.com/shaifali-fashions/?pos=41&kwd=maternity tunic&tags=||||8601.347|Price|product|||MDC|rsf:gd-|-stype:attr=1|qr_nm:gd|res:RC3|com-cf:nl|ptrs:na|ktp:N0|mc:155747|mtp:S|qry_typ:P|lang:en|wc:2|cs:8892|v=4,False,,Jaipur,"37-A,Pratap Nagar,Golimar Garden Ke Pichhe,Amer Road,Brahmpuri, Jaipur - 302002, Dist.Jaipur, Rajasthan",8045732152,
Cotton Feeding Kurtis,https://www.indiamart.com/proddetail/cotton-feeding-kurtis-24008204830.html?pos=42&kwd=maternity tunic&tags=||||8230.883|Price|product|||TS|rsf:gd-|-stype:attr=1|qr_nm:gd|res:RC3|com-cf:nl|ptrs:na|ktp:N0|mc:155747|mtp:S|qry_typ:P|lang:en|wc:2|cs:8892|v=4,The Clothes Villa,https://www.theclothesvilla.com/?pos=42&kwd=maternity tunic&tags=||||8230.883|Price|product|||TS|rsf:gd-|-stype:attr=1|qr_nm:gd|res:RC3|com-cf:nl|ptrs:na|ktp:N0|mc:155747|mtp:S|qry_typ:P|lang:en|wc:2|cs:8892|v=4,False,Meghdoot Society,Surat,"Plot 27, 2nd Floor, 44/2, Sumangal Prabhat Society, Meghdoot Society, Surat - 395001, Dist.Surat, Gujarat",7942562795,
Womens Yellow Floral Feeding Kurti,https://www.indiamart.com/proddetail/womens-yellow-floral-feeding-kurti-2854146998691.html?pos=43&kwd=maternity tunic&tags=||||8668.838|Price|product|||MDC|rsf:gd-|-stype:attr=1|qr_nm:gd|res:RC3|com-cf:nl|ptrs:na|ktp:N0|mc:155747|mtp:S|qry_typ:P|lang:en|wc:2|cs:8892|v=4,Mothersbay India Private Limited,https://www.indiamart.com/mothersbay-india-erode/?pos=43&kwd=maternity tunic&tags=||||8668.838|Price|product|||MDC|rsf:gd-|-stype:attr=1|qr_nm:gd|res:RC3|com-cf:nl|ptrs:na|ktp:N0|mc:155747|mtp:S|qry_typ:P|lang:en|wc:2|cs:8892|v=4,False,Chidambaram Colony,Erode,"No, 10 Chidambaram Colony, Chidambaram Colony, Erode - 638001, Dist.Erode, Tamil Nadu",8045737096,
Party Wear Embroidered Tunic,https://www.indiamart.com/proddetail/embroidered-tunic-2854674773448.html?pos=44&kwd=maternity tunic&tags=||||8230.883|Price|product|||TS|rsf:gd-|-stype:attr=1|qr_nm:gd|res:RC3|com-cf:nl|ptrs:na|ktp:N0|mc:155747|mtp:S|qry_typ:P|lang:en|wc:2|cs:8892|v=4,Yadu Nandan Fashion,https://www.indiamart.com/yadunandan-fashions-surat/?pos=44&kwd=maternity tunic&tags=||||8230.883|Price|product|||TS|rsf:gd-|-stype:attr=1|qr_nm:gd|res:RC3|com-cf:nl|ptrs:na|ktp:N0|mc:155747|mtp:S|qry_typ:P|lang:en|wc:2|cs:8892|v=4,True,Bharthana,Surat,"2002-2005, 2015-2018, Jai Radhe Textile Market, Ring Road, Bharthana, Surat - 395003, Dist.Surat, Gujarat",7942801171,
Maternity Tunic,https://www.indiamart.com/proddetail/maternity-tunic-20049809055.html?pos=45&kwd=maternity tunic&tags=CC||||8823.154|Price|product|||NA|rsf:gd-|-stype:attr=1|qr_nm:gd|res:RC3|com-cf:nl|ptrs:na|ktp:N0|mc:155747|mtp:S|qry_typ:P|lang:en|wc:2|cs:8892|v=4,Toddlers Shoppe,https://www.indiamart.com/toddlersshoppe/?pos=45&kwd=maternity tunic&tags=CC||||8823.154|Price|product|||NA|rsf:gd-|-stype:attr=1|qr_nm:gd|res:RC3|com-cf:nl|ptrs:na|ktp:N0|mc:155747|mtp:S|qry_typ:P|lang:en|wc:2|cs:8892|v=4,False,Dholpur House,Agra,"GROUND FLOOR,4,M G ROAD,LIC COMMERCIAL COMPLEX,DHOLPUR HOUSE, Dholpur House, Agra - 282001, Dist.Agra, Uttar Pradesh",8048371911,127
Maternity Wear,,Mybody Apparels,https://www.indiamart.com/mybody-apparels/?pos=46&kwd=maternity tunic&tags=CC||||8211.142||product|||NA|rsf:gd-|-stype:attr=1|qr_nm:gd|res:RC3|com-cf:nl|ptrs:na|ktp:N0|mc:155747|mtp:S|qry_typ:P|lang:en|wc:2|cs:8892|v=4,False,Santacruz,Mumbai,"1/5, Old Anand Nagar, Nehru Road, Santacruz East, Santacruz, Mumbai - 400055, Dist.Mumbai, Maharashtra",8048372729,678
Maternity Dresses,https://www.indiamart.com/proddetail/maternity-dresses-23341244255.html?pos=47&kwd=maternity tunic&tags=CC||||8901.821|Price|product|||NA|rsf:gd-|-stype:attr=1|qr_nm:gd|res:RC3|com-cf:nl|ptrs:na|ktp:N0|mc:155747|mtp:S|qry_typ:P|lang:en|wc:2|cs:8892|v=4,Azure Sapphire Global Solutions,https://www.indiamart.com/azure-sapphire-global-solutions/?pos=47&kwd=maternity tunic&tags=CC||||8901.821|Price|product|||NA|rsf:gd-|-stype:attr=1|qr_nm:gd|res:RC3|com-cf:nl|ptrs:na|ktp:N0|mc:155747|mtp:S|qry_typ:P|lang:en|wc:2|cs:8892|v=4,False,,Kotdwara,"Teen Universe, Kotdwara - 246149, Dist.Pauri Garhwal, Uttarakhand",8048361381,649
Maternity Clothing,https://www.indiamart.com/proddetail/maternity-clothing-9746558297.html?pos=48&kwd=maternity tunic&tags=CC||||8583.536||product|||NA|rsf:gd-|-stype:attr=1|qr_nm:gd|res:RC3|com-cf:nl|ptrs:na|ktp:N0|mc:155747|mtp:S|qry_typ:P|lang:en|wc:2|cs:8892|v=4,Jayanthi fertility and surgical center Kanjiramkulam,https://www.indiamart.com/metrohospital-thiruvananthapuram/?pos=48&kwd=maternity tunic&tags=CC||||8583.536||product|||NA|rsf:gd-|-stype:attr=1|qr_nm:gd|res:RC3|com-cf:nl|ptrs:na|ktp:N0|mc:155747|mtp:S|qry_typ:P|lang:en|wc:2|cs:8892|v=4,False,Kanjiramkulam,Kanjiramkulam,"Valiavilla, Near stadium Kanjiramkulam, Kanjiramkulam, Kanjiramkulam - 695524, Dist.Malappuram, Kerala",8062245047,891
Maternity Gown,https://www.indiamart.com/proddetail/maternity-gown-27428866262.html?pos=49&kwd=maternity tunic&tags=CC||||8984.809|Price|product|||NA|rsf:gd-|-stype:attr=1|qr_nm:gd|res:RC3|com-cf:nl|ptrs:na|ktp:N0|mc:155747|mtp:S|qry_typ:P|lang:en|wc:2|cs:8892|v=4,Tiska Enterprise,https://www.indiamart.com/tiska-enterprise/?pos=49&kwd=maternity tunic&tags=CC||||8984.809|Price|product|||NA|rsf:gd-|-stype:attr=1|qr_nm:gd|res:RC3|com-cf:nl|ptrs:na|ktp:N0|mc:155747|mtp:S|qry_typ:P|lang:en|wc:2|cs:8892|v=4,False,Adhratal,Jabalpur,"H.NO.130,,ADHARTAL,JABALPUR 130 Kirti Nagar Adhratal Jabalpur,482004,Jabalpur, Adhratal, Jabalpur - 482002, Dist.Jabalpur, Madhya Pradesh",8048372103,628
Dresses And Skirts And Shirts & Tops XL And Free Size Maternity Dress,https://www.indiamart.com/proddetail/maternity-dress-16746969088.html?pos=50&kwd=maternity tunic&tags=CC||||8752.144|Price|product|||NA|rsf:gd-|-stype:attr=1|qr_nm:gd|res:RC3|com-cf:nl|ptrs:na|ktp:N0|mc:155747|mtp:S|qry_typ:P|lang:en|wc:2|cs:8892|v=4,Arnav Creations,https://www.indiamart.com/arnavcreations/?pos=50&kwd=maternity tunic&tags=CC||||8752.144|Price|product|||NA|rsf:gd-|-stype:attr=1|qr_nm:gd|res:RC3|com-cf:nl|ptrs:na|ktp:N0|mc:155747|mtp:S|qry_typ:P|lang:en|wc:2|cs:8892|v=4,False,dwarka,New Delhi,"H.No-55, Block-P, 2 dwarka, dwarka, New Delhi - 110059, Dist.Delhi, Delhi",8069017096,634
Maternity Wear,https://www.indiamart.com/proddetail/maternity-wear-10572063930.html?pos=51&kwd=maternity tunic&tags=CC||||8515.687||product|||NA|rsf:gd-|-stype:attr=1|qr_nm:gd|res:RC3|com-cf:nl|ptrs:na|ktp:N0|mc:155747|mtp:S|qry_typ:P|lang:en|wc:2|cs:8892|v=4,Natraj Emporium,https://www.indiamart.com/natrajemporium-solapur/?pos=51&kwd=maternity tunic&tags=CC||||8515.687||product|||NA|rsf:gd-|-stype:attr=1|qr_nm:gd|res:RC3|com-cf:nl|ptrs:na|ktp:N0|mc:155747|mtp:S|qry_typ:P|lang:en|wc:2|cs:8892|v=4,False,Navi Peth,Solapur,"Paras Estate , Navi Peth, Solapur Navi Peth,, Navi Peth, Solapur - 413007, Dist.Solapur, Maharashtra",8048247133,4302
Stylish Maternity Wear,https://www.indiamart.com/proddetail/stylish-maternity-wear-11749508462.html?pos=52&kwd=maternity tunic&tags=CC||||8211.142|Price|product|||NA|rsf:gd-|-stype:attr=1|qr_nm:gd|res:RC3|com-cf:nl|ptrs:na|ktp:N0|mc:155747|mtp:S|qry_typ:P|lang:en|wc:2|cs:8892|v=4,Sweet Night,https://www.indiamart.com/sweetnightmumbai/?pos=52&kwd=maternity tunic&tags=CC||||8211.142|Price|product|||NA|rsf:gd-|-stype:attr=1|qr_nm:gd|res:RC3|com-cf:nl|ptrs:na|ktp:N0|mc:155747|mtp:S|qry_typ:P|lang:en|wc:2|cs:8892|v=4,False,Dadar West,Mumbai,"G. 21, Om Gopal Industry Garage Galli, Opposite Pacific Plaza, Dadar West, Mumbai - 400028, Dist.Mumbai, Maharashtra",8047781107,
Ladies Maternity Kurtis,https://www.indiamart.com/proddetail/ladies-maternity-kurtis-24220087591.html?pos=53&kwd=maternity tunic&tags=CC||||8601.347|Price|product|||NA|rsf:gd-|-stype:attr=1|qr_nm:gd|res:RC3|com-cf:nl|ptrs:na|ktp:N0|mc:155747|mtp:S|qry_typ:P|lang:en|wc:2|cs:8892|v=4,Diyansh Creations,https://www.indiamart.com/diyansh-creations/?pos=53&kwd=maternity tunic&tags=CC||||8601.347|Price|product|||NA|rsf:gd-|-stype:attr=1|qr_nm:gd|res:RC3|com-cf:nl|ptrs:na|ktp:N0|mc:155747|mtp:S|qry_typ:P|lang:en|wc:2|cs:8892|v=4,False,Near SBI Bank,Jaipur,"Shop No. 18 Balaji Shopping Center, Kamla Nehru Nagar, Ajmer Road, Near SBI Bank, Jaipur - 302021, Dist.Jaipur, Rajasthan",8047791640,
"Red MATERNITY DRESS D.NO.1822, Sleeves: Half Sleeves",https://www.indiamart.com/proddetail/maternity-dress-d-no-1822-21496917591.html?pos=54&kwd=maternity tunic&tags=CC||||8211.142||product|||NA|rsf:gd-|-stype:attr=1|qr_nm:gd|res:RC3|com-cf:nl|ptrs:na|ktp:N0|mc:155747|mtp:S|qry_typ:P|lang:en|wc:2|cs:8892|v=4,Chamunda Clothing,https://www.indiamart.com/chamundclothing/?pos=54&kwd=maternity tunic&tags=CC||||8211.142||product|||NA|rsf:gd-|-stype:attr=1|qr_nm:gd|res:RC3|com-cf:nl|ptrs:na|ktp:N0|mc:155747|mtp:S|qry_typ:P|lang:en|wc:2|cs:8892|v=4,False,Bandra East,Mumbai,"Plot No. 73, Haresh Foods, Khervadi,, Bandra East, Mumbai - 400051, Dist.Mumbai, Maharashtra",8048371762,785
Maternity Clothes Wholesale,https://www.indiamart.com/proddetail/maternity-clothes-wholesale-24575285430.html?pos=55&kwd=maternity tunic&tags=CC||||8752.144|Price|product|||NA|rsf:gd-|-stype:attr=1|qr_nm:gd|res:RC3|com-cf:nl|ptrs:na|ktp:N0|mc:155747|mtp:S|qry_typ:P|lang:en|wc:2|cs:8892|v=4,Alan Overseas Private Limited,https://www.indiamart.com/alan-overseas-private-limited/?pos=55&kwd=maternity tunic&tags=CC||||8752.144|Price|product|||NA|rsf:gd-|-stype:attr=1|qr_nm:gd|res:RC3|com-cf:nl|ptrs:na|ktp:N0|mc:155747|mtp:S|qry_typ:P|lang:en|wc:2|cs:8892|v=4,False,Patparganj,New Delhi,"A-50 Madhu Vihar Street No-17 IP Extension, Patparganj, New Delhi - 110092, Dist.Delhi, Delhi",8048372848,982
"Aagam Voguish Maternity Kurtis, Cotton",https://www.indiamart.com/proddetail/aagam-voguish-maternity-kurtis-23714018273.html?pos=56&kwd=maternity tunic&tags=CC||||8230.883|Price|product|||NA|rsf:gd-|-stype:attr=1|qr_nm:gd|res:RC3|com-cf:nl|ptrs:na|ktp:N0|mc:155747|mtp:S|qry_typ:P|lang:en|wc:2|cs:8892|v=4,Om Creation,https://www.indiamart.com/omcreation-131219951/?pos=56&kwd=maternity tunic&tags=CC||||8230.883|Price|product|||NA|rsf:gd-|-stype:attr=1|qr_nm:gd|res:RC3|com-cf:nl|ptrs:na|ktp:N0|mc:155747|mtp:S|qry_typ:P|lang:en|wc:2|cs:8892|v=4,False,Yogi Chowk,Surat,"3rd Floor 310 Yogi Chowk Abhishek Arcade, Yogi Chowk, Surat - 394150, Dist.Surat, Gujarat",8048372373,973
"Pink Cotton Maternity Dresses, Size: Small",https://www.indiamart.com/proddetail/pink-cotton-maternity-dresses-23238111362.html?pos=57&kwd=maternity tunic&tags=CC||||8601.347|Price|product|||NA|rsf:gd-|-stype:attr=1|qr_nm:gd|res:RC3|com-cf:nl|ptrs:na|ktp:N0|mc:155747|mtp:S|qry_typ:P|lang:en|wc:2|cs:8892|v=4,Designer Bandhej Ensemble,https://www.indiamart.com/designerbandhejensemble/?pos=57&kwd=maternity tunic&tags=CC||||8601.347|Price|product|||NA|rsf:gd-|-stype:attr=1|qr_nm:gd|res:RC3|com-cf:nl|ptrs:na|ktp:N0|mc:155747|mtp:S|qry_typ:P|lang:en|wc:2|cs:8892|v=4,False,,Jaipur,"Flat No. 201, First Floor, Amar Villa Apartment D-175, Bhragu Marg, Banipark,, Jaipur - 302016, Dist.Jaipur, Rajasthan",8069033761,856
9teenAGAIN Women''s Georgette Maternity Dress,https://www.indiamart.com/proddetail/9teenagain-women-s-georgette-maternity-dress-20910997730.html?pos=58&kwd=maternity tunic&tags=CC||||8601.347|Price|product|||NA|rsf:gd-|-stype:attr=1|qr_nm:gd|res:RC3|com-cf:nl|ptrs:na|ktp:N0|mc:155747|mtp:S|qry_typ:P|lang:en|wc:2|cs:8892|v=4,Devs Trends LLP,https://www.indiamart.com/devs-trends-llp/?pos=58&kwd=maternity tunic&tags=CC||||8601.347|Price|product|||NA|rsf:gd-|-stype:attr=1|qr_nm:gd|res:RC3|com-cf:nl|ptrs:na|ktp:N0|mc:155747|mtp:S|qry_typ:P|lang:en|wc:2|cs:8892|v=4,False,Malviya Nagar Industrial Area ( RIICO),Jaipur,"F-20, B (II), Malviya Nagar Industrial Area ( RIICO), Jaipur - 302017, Dist.Jaipur, Rajasthan",7942628022,
Maternity Wear,https://www.indiamart.com/proddetail/maternity-wear-22439452355.html?pos=59&kwd=maternity tunic&tags=CC||||8778.123|Price|product|||NA|rsf:gd-|-stype:attr=1|qr_nm:gd|res:RC3|com-cf:nl|ptrs:na|ktp:N0|mc:155747|mtp:S|qry_typ:P|lang:en|wc:2|cs:8892|v=4,Kpa Apparels Pvt. Ltd.,https://www.indiamart.com/kpa-apparels-pvt-ltd/?pos=59&kwd=maternity tunic&tags=CC||||8778.123|Price|product|||NA|rsf:gd-|-stype:attr=1|qr_nm:gd|res:RC3|com-cf:nl|ptrs:na|ktp:N0|mc:155747|mtp:S|qry_typ:P|lang:en|wc:2|cs:8892|v=4,False,Sector 63,Noida,"C-134, 1st Floor, Sector 63, Noida - 201301, Dist.Gautam Budh Nagar, Uttar Pradesh",8048372062,800
Maternity Wear,https://www.indiamart.com/proddetail/maternity-wear-20351442491.html?pos=60&kwd=maternity tunic&tags=CC||||8830.079|Price|product|||NA|rsf:gd-|-stype:attr=1|qr_nm:gd|res:RC3|com-cf:nl|ptrs:na|ktp:N0|mc:155747|mtp:S|qry_typ:P|lang:en|wc:2|cs:8892|v=4,Inga Maternitywear,https://www.indiamart.com/inga-maternitywear/?pos=60&kwd=maternity tunic&tags=CC||||8830.079|Price|product|||NA|rsf:gd-|-stype:attr=1|qr_nm:gd|res:RC3|com-cf:nl|ptrs:na|ktp:N0|mc:155747|mtp:S|qry_typ:P|lang:en|wc:2|cs:8892|v=4,False,,Vellore,"Gudiyattam, Vellore - 632602, Dist.Vellore, Tamil Nadu",8045849559,386
Maternity Dress,,Beyond the Style,https://www.indiamart.com/beyond-the-style/?pos=61&kwd=maternity tunic&tags=CC||||8331.224|Price|product|||NA|rsf:gd-|-stype:attr=1|qr_nm:gd|res:RC3|com-cf:nl|ptrs:na|ktp:N0|mc:155747|mtp:S|qry_typ:P|lang:en|wc:2|cs:8892|v=4,False,Jadhavwadi,Kolhapur,"4/26, Priyadarshani Colony, opp Market yard, Jadhavwadi, Kolhapur - 416005, Dist.Kolhapur, Maharashtra",8048250549,101
Maternity wears,https://www.indiamart.com/proddetail/maternity-wears-23946400712.html?pos=62&kwd=maternity tunic&tags=CC||||8507.67|Price|product|||NA|rsf:gd-|-stype:attr=1|qr_nm:gd|res:RC3|com-cf:nl|ptrs:na|ktp:N0|mc:155747|mtp:S|qry_typ:P|lang:en|wc:2|cs:8892|v=4,Biabe Fashion,https://www.indiamart.com/biabe-fashion/?pos=62&kwd=maternity tunic&tags=CC||||8507.67|Price|product|||NA|rsf:gd-|-stype:attr=1|qr_nm:gd|res:RC3|com-cf:nl|ptrs:na|ktp:N0|mc:155747|mtp:S|qry_typ:P|lang:en|wc:2|cs:8892|v=4,False,Kadavanthra,Ernakulam,"92, Dd Milestone Building, Kadavanthra, Ernakulam - 682020, Dist.Ernakulam, Kerala",7942969819,
Maternity Tunic,https://www.indiamart.com/proddetail/maternity-tunic-23105263362.html?pos=63&kwd=maternity tunic&tags=CC||||8752.144|Price|product|||NA|rsf:gd-|-stype:attr=1|qr_nm:gd|res:RC3|com-cf:nl|ptrs:na|ktp:N0|mc:155747|mtp:S|qry_typ:P|lang:en|wc:2|cs:8892|v=4,Suz De' Monz,https://www.indiamart.com/dmb/?pos=63&kwd=maternity tunic&tags=CC||||8752.144|Price|product|||NA|rsf:gd-|-stype:attr=1|qr_nm:gd|res:RC3|com-cf:nl|ptrs:na|ktp:N0|mc:155747|mtp:S|qry_typ:P|lang:en|wc:2|cs:8892|v=4,False,,New Delhi,"F/F WZ 30A Village Tihar, Near Samuday Bhawan, New Delhi - 110018, Dist.Delhi, Delhi",8048372303,376
Plain Maternity Shawl,https://www.indiamart.com/proddetail/plain-maternity-shawl-22656942955.html?pos=64&kwd=maternity tunic&tags=CC||||8584.299|Price|product|||NA|rsf:gd-|-stype:attr=1|qr_nm:gd|res:RC3|com-cf:nl|ptrs:na|ktp:N0|mc:155747|mtp:S|qry_typ:P|lang:en|wc:2|cs:8892|v=4,Tinyfeets,https://www.indiamart.com/tinyfeets/?pos=64&kwd=maternity tunic&tags=CC||||8584.299|Price|product|||NA|rsf:gd-|-stype:attr=1|qr_nm:gd|res:RC3|com-cf:nl|ptrs:na|ktp:N0|mc:155747|mtp:S|qry_typ:P|lang:en|wc:2|cs:8892|v=4,False,coimbatore,Coimbatore,"No.9, 2nd Andal Street, Lakshmipuram, Peelamedu Coimbatore, coimbatore, Coimbatore - 641004, Dist.Coimbatore, Tamil Nadu",8048372578,793
Women Maternity Clothes,https://www.indiamart.com/proddetail/women-maternity-clothes-2849115559748.html?pos=65&kwd=maternity tunic&tags=CC||||8281.036|Price|product|||NA|rsf:gd-|-stype:attr=1|qr_nm:gd|res:RC3|com-cf:nl|ptrs:na|ktp:N0|mc:155747|mtp:S|qry_typ:P|lang:en|wc:2|cs:8892|v=4,Vedsri Ethnic,https://www.indiamart.com/vedsri-ethnic/?pos=65&kwd=maternity tunic&tags=CC||||8281.036|Price|product|||NA|rsf:gd-|-stype:attr=1|qr_nm:gd|res:RC3|com-cf:nl|ptrs:na|ktp:N0|mc:155747|mtp:S|qry_typ:P|lang:en|wc:2|cs:8892|v=4,False,,Vadodara,"Ground Floor Shop No 1 Nilay Complex NR Shree Hari Party Plot Manjhalpur, Vadodara - 390011, Dist.Vadodara, Gujarat",8069857304,224
"Multicolor Women's Floral Maternity Dress, Sleeves: Regular",https://www.indiamart.com/proddetail/women-s-floral-maternity-dress-2850343992612.html?pos=66&kwd=maternity tunic&tags=CC||||8601.347|Price|product|||NA|rsf:gd-|-stype:attr=1|qr_nm:gd|res:RC3|com-cf:nl|ptrs:na|ktp:N0|mc:155747|mtp:S|qry_typ:P|lang:en|wc:2|cs:8892|v=4,Duvik Kpal,https://www.indiamart.com/duvik-kpal/?pos=66&kwd=maternity tunic&tags=CC||||8601.347|Price|product|||NA|rsf:gd-|-stype:attr=1|qr_nm:gd|res:RC3|com-cf:nl|ptrs:na|ktp:N0|mc:155747|mtp:S|qry_typ:P|lang:en|wc:2|cs:8892|v=4,False,,Jaipur,"34-A, First Floor, Sachiwalya Vihar Vistar, Kalyanpura, Sanganer, Jaipur - 302030, Dist.Jaipur, Rajasthan",7942801331,
Adjustable Fit Maternity Clothing,https://www.indiamart.com/proddetail/adjustable-fit-maternity-clothing-7448522433.html?pos=67&kwd=maternity tunic&tags=CC||||8663.873||product|||NA|rsf:gd-|-stype:attr=1|qr_nm:gd|res:RC3|com-cf:nl|ptrs:na|ktp:N0|mc:155747|mtp:S|qry_typ:P|lang:en|wc:2|cs:8892|v=4,Yashram Lifestyle,https://www.indiamart.com/yashram-lifestyle/?pos=67&kwd=maternity tunic&tags=CC||||8663.873||product|||NA|rsf:gd-|-stype:attr=1|qr_nm:gd|res:RC3|com-cf:nl|ptrs:na|ktp:N0|mc:155747|mtp:S|qry_typ:P|lang:en|wc:2|cs:8892|v=4,False,,Bengaluru,"1st Floor, Basil Moneta, No. 612, 80 Feet Ring Road, 4th Block, Koramangala, Bengaluru - 560034, Dist.Bengaluru, Karnataka",8062270245,297
Blue Lace Maternity Capri,https://www.indiamart.com/proddetail/blue-lace-maternity-capri-13121468597.html?pos=68&kwd=maternity tunic&tags=CC||||8663.873||product|||NA|rsf:gd-|-stype:attr=1|qr_nm:gd|res:RC3|com-cf:nl|ptrs:na|ktp:N0|mc:155747|mtp:S|qry_typ:P|lang:en|wc:2|cs:8892|v=4,Yashram Lifestyle Brands Private Limited,https://www.indiamart.com/yashramlifestyle-ltd/?pos=68&kwd=maternity tunic&tags=CC||||8663.873||product|||NA|rsf:gd-|-stype:attr=1|qr_nm:gd|res:RC3|com-cf:nl|ptrs:na|ktp:N0|mc:155747|mtp:S|qry_typ:P|lang:en|wc:2|cs:8892|v=4,False,JP Nagar,Bengaluru,"No. 542, 9th Cross, 3 Phase, JP Nagar, Bengaluru - 560078, Dist.Bengaluru, Karnataka",8048372105,296
Maternity Happy Mom Gown,https://www.indiamart.com/proddetail/maternity-happy-mom-gown-20572435155.html?pos=69&kwd=maternity tunic&tags=CC||||8752.144|Price|product|||NA|rsf:gd-|-stype:attr=1|qr_nm:gd|res:RC3|com-cf:nl|ptrs:na|ktp:N0|mc:155747|mtp:S|qry_typ:P|lang:en|wc:2|cs:8892|v=4,Tan Design House,https://www.indiamart.com/silver-spirits-exports/?pos=69&kwd=maternity tunic&tags=CC||||8752.144|Price|product|||NA|rsf:gd-|-stype:attr=1|qr_nm:gd|res:RC3|com-cf:nl|ptrs:na|ktp:N0|mc:155747|mtp:S|qry_typ:P|lang:en|wc:2|cs:8892|v=4,False,Shakurpur,New Delhi,"2/6, Ground Floor, Yadav Market Shakurpur Village, Shakurpur, New Delhi - 110034, Dist.Delhi, Delhi",8047630136,
Designer Maternity Tunic,https://www.indiamart.com/proddetail/designer-maternity-tunic-3432245962.html?pos=70&kwd=maternity tunic&tags=CC||||8778.123|Price|product|||NA|rsf:gd-|-stype:attr=1|qr_nm:gd|res:RC3|com-cf:nl|ptrs:na|ktp:N0|mc:155747|mtp:S|qry_typ:P|lang:en|wc:2|cs:8892|v=4,A & M International,https://www.indiamart.com/a-m-international-delhi/?pos=70&kwd=maternity tunic&tags=CC||||8778.123|Price|product|||NA|rsf:gd-|-stype:attr=1|qr_nm:gd|res:RC3|com-cf:nl|ptrs:na|ktp:N0|mc:155747|mtp:S|qry_typ:P|lang:en|wc:2|cs:8892|v=4,False,Sector 63,Noida,"E-79, Sector-63, Sector 63, Noida - 201301, Dist.Gautam Budh Nagar, Uttar Pradesh",8048249691,6373
Maroon Women Printed Rayon Maternity Dress,https://www.indiamart.com/proddetail/maroon-women-printed-rayon-maternity-dress-2853079125597.html?pos=71&kwd=maternity tunic&tags=CC||||8210.732|Price|product|||NA|rsf:gd-|-stype:attr=1|qr_nm:gd|res:RC3|com-cf:nl|ptrs:na|ktp:N0|mc:155747|mtp:S|qry_typ:P|lang:en|wc:2|cs:8892|v=4,Rathod Industries,https://www.indiamart.com/rathodindustries-mumbai/?pos=71&kwd=maternity tunic&tags=CC||||8210.732|Price|product|||NA|rsf:gd-|-stype:attr=1|qr_nm:gd|res:RC3|com-cf:nl|ptrs:na|ktp:N0|mc:155747|mtp:S|qry_typ:P|lang:en|wc:2|cs:8892|v=4,False,,Vasai,"Third Floor Gala No. 307,Rajprabha Industrial Premises -3,Gokhivare ,Near Toyota Car Showroom, Vasai - 401208, Dist.Thane, Maharashtra",8047786825,
Sunflower Yellow Cotton Cotton Mul Maternity Kurti,https://www.indiamart.com/proddetail/sunflower-yellow-cotton-mul-maternity-kurti-18930514088.html?pos=72&kwd=maternity tunic&tags=CC||||8507.67|Price|product|||NA|rsf:gd-|-stype:attr=1|qr_nm:gd|res:RC3|com-cf:nl|ptrs:na|ktp:N0|mc:155747|mtp:S|qry_typ:P|lang:en|wc:2|cs:8892|v=4,Mantra,https://www.indiamart.com/shalini-jamesmantra/?pos=72&kwd=maternity tunic&tags=CC||||8507.67|Price|product|||NA|rsf:gd-|-stype:attr=1|qr_nm:gd|res:RC3|com-cf:nl|ptrs:na|ktp:N0|mc:155747|mtp:S|qry_typ:P|lang:en|wc:2|cs:8892|v=4,False,Cheranalloor,Ernakulam,"16/332A,MANTRA, BHAGAVATHY TEMPLE ROAD,CHERANALLOOR 16/332A,MANTRA,BHAGAVATHY TEMPLE ROAD,CHERANALLOOR,682024,Ernakulam, Cheranalloor, Ernakulam - 682034, Dist.Ernakulam, Kerala",7942663673,
Handmade Paisley Printed Cotton Poncho,https://www.indiamart.com/proddetail/handmade-paisley-printed-cotton-poncho-14963280588.html?pos=73&kwd=maternity tunic&tags=CC||||8601.347|Price|product|||NA|rsf:gd-|-stype:attr=1|qr_nm:gd|res:RC3|com-cf:nl|ptrs:na|ktp:N0|mc:155747|mtp:S|qry_typ:P|lang:en|wc:2|cs:8892|v=4,Yadhuvanshi Fab India,https://www.indiamart.com/yadhuvanshifabindia/?pos=73&kwd=maternity tunic&tags=CC||||8601.347|Price|product|||NA|rsf:gd-|-stype:attr=1|qr_nm:gd|res:RC3|com-cf:nl|ptrs:na|ktp:N0|mc:155747|mtp:S|qry_typ:P|lang:en|wc:2|cs:8892|v=4,False,New Sachivalya Vihar,Jaipur,"H 59, New Sachivalya Vihar, New Sachivalya Vihar, Jaipur - 302020, Dist.Jaipur, Rajasthan",8048264151,323
Maternity Dresses,https://www.indiamart.com/proddetail/maternity-dresses-4415504748.html?pos=74&kwd=maternity tunic&tags=CC||||8752.144||product|||NA|rsf:gd-|-stype:attr=1|qr_nm:gd|res:RC3|com-cf:nl|ptrs:na|ktp:N0|mc:155747|mtp:S|qry_typ:P|lang:en|wc:2|cs:8892|v=4,Hara Design,https://www.indiamart.com/hara-design-delhi/?pos=74&kwd=maternity tunic&tags=CC||||8752.144||product|||NA|rsf:gd-|-stype:attr=1|qr_nm:gd|res:RC3|com-cf:nl|ptrs:na|ktp:N0|mc:155747|mtp:S|qry_typ:P|lang:en|wc:2|cs:8892|v=4,False,,New Delhi,"New Ashok Nagar, Nearby Dharamshila Hospital, New Delhi - 110096, Dist.Delhi, Delhi",8069264848,543
Maternity GOWN,,Fashion Fiesta,https://www.indiamart.com/fashion-fiesta-sawai-madhopur/?pos=75&kwd=maternity tunic&tags=CC||||8646.539||product|||NA|rsf:gd-|-stype:attr=1|qr_nm:gd|res:RC3|com-cf:nl|ptrs:na|ktp:N0|mc:155747|mtp:S|qry_typ:P|lang:en|wc:2|cs:8892|v=4,False,,Sawai Madhopur,"Akshvani Road Sawai Madhopur, Sawai Madhopur - 322001, Dist.Sawai Madhopur, Rajasthan",8048372940,691
Multicolor Maternity Dress,https://www.indiamart.com/proddetail/maternity-dress-20756144412.html?pos=76&kwd=maternity tunic&tags=CC||||8515.687|Price|product|||NA|rsf:gd-|-stype:attr=1|qr_nm:gd|res:RC3|com-cf:nl|ptrs:na|ktp:N0|mc:155747|mtp:S|qry_typ:P|lang:en|wc:2|cs:8892|v=4,My Lek,https://www.indiamart.com/mylek-solapur/?pos=76&kwd=maternity tunic&tags=CC||||8515.687|Price|product|||NA|rsf:gd-|-stype:attr=1|qr_nm:gd|res:RC3|com-cf:nl|ptrs:na|ktp:N0|mc:155747|mtp:S|qry_typ:P|lang:en|wc:2|cs:8892|v=4,False,,Solapur,"Sayalee 18, Soni Nagar, Modi, Solapur - 413004, Dist.Solapur, Maharashtra",8045849860,887
Maternity Dress,https://www.indiamart.com/proddetail/maternity-dress-2853650066655.html?pos=77&kwd=maternity tunic&tags=CC||||8752.144|Price|product|||NA|rsf:gd-|-stype:attr=1|qr_nm:gd|res:RC3|com-cf:nl|ptrs:na|ktp:N0|mc:155747|mtp:S|qry_typ:P|lang:en|wc:2|cs:8892|v=4,Thrill,https://www.indiamart.com/thrill/?pos=77&kwd=maternity tunic&tags=CC||||8752.144|Price|product|||NA|rsf:gd-|-stype:attr=1|qr_nm:gd|res:RC3|com-cf:nl|ptrs:na|ktp:N0|mc:155747|mtp:S|qry_typ:P|lang:en|wc:2|cs:8892|v=4,False,Laxmi nager,New Delhi,"A-131,PRIYADARSHNI VIHAAR priyadarshni vihaar, Laxmi nager, New Delhi - 110092, Dist.Delhi, Delhi",8048361327,440
Maternity Dress,https://www.indiamart.com/proddetail/maternity-dress-25471580330.html?pos=78&kwd=maternity tunic&tags=CC||||8717.056||product|||NA|rsf:gd-|-stype:attr=1|qr_nm:gd|res:RC3|com-cf:nl|ptrs:na|ktp:N0|mc:155747|mtp:S|qry_typ:P|lang:en|wc:2|cs:8892|v=4,Dac Clothing Private Limited,https://www.indiamart.com/dac-clothing-private-limited/?pos=78&kwd=maternity tunic&tags=CC||||8717.056||product|||NA|rsf:gd-|-stype:attr=1|qr_nm:gd|res:RC3|com-cf:nl|ptrs:na|ktp:N0|mc:155747|mtp:S|qry_typ:P|lang:en|wc:2|cs:8892|v=4,False,Hasthampatty,Salem,"No.1/2 Vijayaraghavachariar Road Kumarasamypatti, Hasthampatty Kumarasamypatti, Hasthampatty, Salem - 636007, Dist.Salem, Tamil Nadu",8069023898,161
Maternity dress,,Sai Boutique,https://www.indiamart.com/sai-boutique-nandivaram-guduvancheri/?pos=79&kwd=maternity tunic&tags=CC||||8929.652|Price|product|||NA|rsf:gd-|-stype:attr=1|qr_nm:gd|res:RC3|com-cf:nl|ptrs:na|ktp:N0|mc:155747|mtp:S|qry_typ:P|lang:en|wc:2|cs:8892|v=4,False,,Nandivaram-Guduvancheri,", Nandivaram-Guduvancheri - 603202, Tamil Nadu",8048372491,558
Maternity Wear,,Zeme Organics Private Limited,https://www.indiamart.com/zeme-organics/?pos=80&kwd=maternity tunic&tags=CC||||8663.873||product|||NA|rsf:gd-|-stype:attr=1|qr_nm:gd|res:RC3|com-cf:nl|ptrs:na|ktp:N0|mc:155747|mtp:S|qry_typ:P|lang:en|wc:2|cs:8892|v=4,False,Sadashivanagar,Bengaluru,"No. 28/61, Ground Floor, 1st Main Road, Lower Palace Orchards, Sadashivanagar, Sadashivanagar, Bengaluru - 560003, Dist.Bengaluru, Karnataka",8048371923,687
Maternity Kurta,https://www.indiamart.com/proddetail/maternity-kurta-13182167173.html?pos=81&kwd=maternity tunic&tags=CC||||8752.144|Price|product|||NA|rsf:gd-|-stype:attr=1|qr_nm:gd|res:RC3|com-cf:nl|ptrs:na|ktp:N0|mc:155747|mtp:S|qry_typ:P|lang:en|wc:2|cs:8892|v=4,Fresh Venturz LLP,https://www.indiamart.com/freshventurz/?pos=81&kwd=maternity tunic&tags=CC||||8752.144|Price|product|||NA|rsf:gd-|-stype:attr=1|qr_nm:gd|res:RC3|com-cf:nl|ptrs:na|ktp:N0|mc:155747|mtp:S|qry_typ:P|lang:en|wc:2|cs:8892|v=4,False,Mehrauli,New Delhi,"6/844, Main Bazar, Mehrauli, Mehrauli, New Delhi - 110030, Dist.Delhi, Delhi",8062245048,941
Maternity Tunic,,Up Above Online Retail,https://www.indiamart.com/awww/?pos=82&kwd=maternity tunic&tags=CC||||8211.142||product|||NA|rsf:gd-|-stype:attr=1|qr_nm:gd|res:RC3|com-cf:nl|ptrs:na|ktp:N0|mc:155747|mtp:S|qry_typ:P|lang:en|wc:2|cs:8892|v=4,False,Juhu,Mumbai,"31, Ritu Appt, Juhu Versova Link Rd, Andheri%28West%29, Juhu, Mumbai - 400053, Dist.Mumbai, Maharashtra",8062245061,293
Brown Maternity Garments,https://www.indiamart.com/proddetail/maternity-garments-20030539088.html?pos=83&kwd=maternity tunic&tags=CC||||9045.955|Price|product|||NA|rsf:gd-|-stype:attr=1|qr_nm:gd|res:RC3|com-cf:nl|ptrs:na|ktp:N0|mc:155747|mtp:S|qry_typ:P|lang:en|wc:2|cs:8892|v=4,Sri Mukta Agency,https://www.indiamart.com/shri-mukta-agency/?pos=83&kwd=maternity tunic&tags=CC||||9045.955|Price|product|||NA|rsf:gd-|-stype:attr=1|qr_nm:gd|res:RC3|com-cf:nl|ptrs:na|ktp:N0|mc:155747|mtp:S|qry_typ:P|lang:en|wc:2|cs:8892|v=4,False,Swaroop Nagar,Kanpur,"No. 8/146, Arya Nagar, Swaroop Nagar, Kanpur - 208002, Uttar Pradesh",8047630125,
Maternity Outfits,https://www.indiamart.com/proddetail/maternity-outfits-4535424588.html?pos=84&kwd=maternity tunic&tags=CC||||8778.123||product|||NA|rsf:gd-|-stype:attr=1|qr_nm:gd|res:RC3|com-cf:nl|ptrs:na|ktp:N0|mc:155747|mtp:S|qry_typ:P|lang:en|wc:2|cs:8892|v=4,Vinshubh Exports Pvt. Ltd.,https://www.indiamart.com/ladiesgarmentexporter-com-150982/?pos=84&kwd=maternity tunic&tags=CC||||8778.123||product|||NA|rsf:gd-|-stype:attr=1|qr_nm:gd|res:RC3|com-cf:nl|ptrs:na|ktp:N0|mc:155747|mtp:S|qry_typ:P|lang:en|wc:2|cs:8892|v=4,False,Sector 63,Noida,"H-30, Sector-63, Sector 63, Noida - 201301, Dist.Gautam Budh Nagar, Uttar Pradesh",8048247115,4301
Multicolor Ladies Maternity Gown,https://www.indiamart.com/proddetail/ladies-maternity-gown-25490837730.html?pos=85&kwd=maternity tunic&tags=CC||||8601.347|Price|product|||NA|rsf:gd-|-stype:attr=1|qr_nm:gd|res:RC3|com-cf:nl|ptrs:na|ktp:N0|mc:155747|mtp:S|qry_typ:P|lang:en|wc:2|cs:8892|v=4,Maahi Creations,https://www.indiamart.com/maahi-creations-jaipur/?pos=85&kwd=maternity tunic&tags=CC||||8601.347|Price|product|||NA|rsf:gd-|-stype:attr=1|qr_nm:gd|res:RC3|com-cf:nl|ptrs:na|ktp:N0|mc:155747|mtp:S|qry_typ:P|lang:en|wc:2|cs:8892|v=4,False,75 GAYATRI NAGAR SANGANER,Jaipur,"75,GAYATRI NAGAR,,SANGANER 76 Gaytri Nagar 2 Tonk Road Sanganer,302029,Jaipur, 75 GAYATRI NAGAR SANGANER, Jaipur - 302011, Dist.Jaipur, Rajasthan",8069033874,987
Cotton Printed Ladies Maternity Kurti,https://www.indiamart.com/proddetail/ladies-maternity-kurti-16667881748.html?pos=86&kwd=maternity tunic&tags=CC||||8230.883|Price|product|||NA|rsf:gd-|-stype:attr=1|qr_nm:gd|res:RC3|com-cf:nl|ptrs:na|ktp:N0|mc:155747|mtp:S|qry_typ:P|lang:en|wc:2|cs:8892|v=4,Janki Enterprise,https://www.indiamart.com/janki-enterprise-surat/?pos=86&kwd=maternity tunic&tags=CC||||8230.883|Price|product|||NA|rsf:gd-|-stype:attr=1|qr_nm:gd|res:RC3|com-cf:nl|ptrs:na|ktp:N0|mc:155747|mtp:S|qry_typ:P|lang:en|wc:2|cs:8892|v=4,False,Siddhanchal Residency,Surat,"Shop No. 5, Adajan New Swami Vivekanand Bridge, Siddhanchal Residency, Surat - 395009, Dist.Surat, Gujarat",8048250468,480
Pink Cotton Maternity Wear,https://www.indiamart.com/proddetail/pink-cotton-maternity-wear-19706681412.html?pos=87&kwd=maternity tunic&tags=CC||||8211.142||product|||NA|rsf:gd-|-stype:attr=1|qr_nm:gd|res:RC3|com-cf:nl|ptrs:na|ktp:N0|mc:155747|mtp:S|qry_typ:P|lang:en|wc:2|cs:8892|v=4,Mothers 2 B NX,https://www.indiamart.com/mothers-2bnx/?pos=87&kwd=maternity tunic&tags=CC||||8211.142||product|||NA|rsf:gd-|-stype:attr=1|qr_nm:gd|res:RC3|com-cf:nl|ptrs:na|ktp:N0|mc:155747|mtp:S|qry_typ:P|lang:en|wc:2|cs:8892|v=4,False,Santacruz West,Mumbai,"No. 37, Vazir Chawl, Bhim Wada, SV Road, Santacruz West, Mumbai - 400054, Dist.Mumbai, Maharashtra",8048972477,
Abstract Tropical Leaf Viscose Rayon Zipless Maternity Dress,https://www.indiamart.com/proddetail/abstract-tropical-leaf-viscose-rayon-zipless-maternity-dress-2853898678812.html?pos=88&kwd=maternity tunic&tags=CC||||8752.144|Price|product|||NA|rsf:gd-|-stype:attr=1|qr_nm:gd|res:RC3|com-cf:nl|ptrs:na|ktp:N0|mc:155747|mtp:S|qry_typ:P|lang:en|wc:2|cs:8892|v=4,HOZ,https://www.indiamart.com/hoz-delhi/?pos=88&kwd=maternity tunic&tags=CC||||8752.144|Price|product|||NA|rsf:gd-|-stype:attr=1|qr_nm:gd|res:RC3|com-cf:nl|ptrs:na|ktp:N0|mc:155747|mtp:S|qry_typ:P|lang:en|wc:2|cs:8892|v=4,False,,Delhi,"Bijwasan 369, Karta Ram Complex, Bijwasin Main Road, Bijwasin, Delhi, Delhi - 110061, Dist.Delhi, Delhi",,
MomToBe Women''S Rayon Arctic Blue Maternity/Feeding/Nursing Maternity Dress,https://www.indiamart.com/proddetail/momtobe-women-s-rayon-arctic-blue-maternity-feeding-nursing-maternity-dress-24866051988.html?pos=89&kwd=maternity tunic&tags=CC||||8211.142|Price|product|||NA|rsf:gd-|-stype:attr=1|qr_nm:gd|res:RC3|com-cf:nl|ptrs:na|ktp:N0|mc:155747|mtp:S|qry_typ:P|lang:en|wc:2|cs:8892|v=4,Classapart Apparels LLP,https://www.indiamart.com/class-apart-apparels/?pos=89&kwd=maternity tunic&tags=CC||||8211.142|Price|product|||NA|rsf:gd-|-stype:attr=1|qr_nm:gd|res:RC3|com-cf:nl|ptrs:na|ktp:N0|mc:155747|mtp:S|qry_typ:P|lang:en|wc:2|cs:8892|v=4,False,Malad West,Mumbai,"209, Nirmand Industrial Estate, Link Road, Malad West, Mumbai - 400064, Dist.Mumbai, Maharashtra",8043888259,
"Rayon maternity Manternity dress, Size: S To Xxl",https://www.indiamart.com/proddetail/manternity-dress-2849544926255.html?pos=90&kwd=maternity tunic&tags=CC||||8601.347|Price|product|||NA|rsf:gd-|-stype:attr=1|qr_nm:gd|res:RC3|com-cf:nl|ptrs:na|ktp:N0|mc:155747|mtp:S|qry_typ:P|lang:en|wc:2|cs:8892|v=4,Amaya Creative Center,https://www.indiamart.com/amaya-creative-center/?pos=90&kwd=maternity tunic&tags=CC||||8601.347|Price|product|||NA|rsf:gd-|-stype:attr=1|qr_nm:gd|res:RC3|com-cf:nl|ptrs:na|ktp:N0|mc:155747|mtp:S|qry_typ:P|lang:en|wc:2|cs:8892|v=4,False,,Jaipur,"Plot No-97, Tonk Road, Gopalpuri, Pratap Nagar, Sanganer, Jaipur - 302029, Dist.Jaipur, Rajasthan",8047671765,
"Short Plain Rayon Kurti- Tunic Style, Size: L XL XXL",https://www.indiamart.com/proddetail/short-plain-rayon-kurti-tunic-style-20982150812.html?pos=91&kwd=maternity tunic&tags=CC||||8228.275|Price|product|||NA|rsf:gd-|-stype:attr=1|qr_nm:gd|res:RC3|com-cf:nl|ptrs:na|ktp:N0|mc:155747|mtp:S|qry_typ:P|lang:en|wc:2|cs:8892|v=4,Ambaji Garments,https://www.indiamart.com/ambaji-garments/?pos=91&kwd=maternity tunic&tags=CC||||8228.275|Price|product|||NA|rsf:gd-|-stype:attr=1|qr_nm:gd|res:RC3|com-cf:nl|ptrs:na|ktp:N0|mc:155747|mtp:S|qry_typ:P|lang:en|wc:2|cs:8892|v=4,False,Bhadra,Ahmedabad,"B-70 Ground Floor, Shanti Commercial Centre, Nagar Sheth No Vando, Gheekanta Opposite Nutan Sahakari Bank Limited, Bhadra, Ahmedabad - 380001, Dist.Ahmedabad, Gujarat",8048372682,659
Hand Block Printed Kaftan Cotton Maxi Dress Poncho,https://www.indiamart.com/proddetail/hand-block-printed-kaftan-cotton-maxi-dress-poncho-19609973230.html?pos=92&kwd=maternity tunic&tags=CC||||8601.347||product|||NA|rsf:gd-|-stype:attr=1|qr_nm:gd|res:RC3|com-cf:nl|ptrs:na|ktp:N0|mc:155747|mtp:S|qry_typ:P|lang:en|wc:2|cs:8892|v=4,Craft Jaipur,https://www.indiamart.com/craft-jaipur/?pos=92&kwd=maternity tunic&tags=CC||||8601.347||product|||NA|rsf:gd-|-stype:attr=1|qr_nm:gd|res:RC3|com-cf:nl|ptrs:na|ktp:N0|mc:155747|mtp:S|qry_typ:P|lang:en|wc:2|cs:8892|v=4,False,Chandpole Bazar,Jaipur,"330, Mishra Rajaji Ka Rasta, Chandpole Bazar, Jaipur - 302001, Dist.Jaipur, Rajasthan",8069196771,605
Beach Cover Up Short Tunic,https://www.indiamart.com/proddetail/beach-cover-up-short-tunic-14127733830.html?pos=93&kwd=maternity tunic&tags=||||8228.275||product|||NA|rsf:gd-|-stype:attr=1|qr_nm:gd|res:RC3|com-cf:nl|ptrs:na|ktp:N0|mc:155747|mtp:S|qry_typ:P|lang:en|wc:2|cs:8892|v=4,Jai Dada Shyam Creation,https://www.indiamart.com/nirvana-exports/?pos=93&kwd=maternity tunic&tags=||||8228.275||product|||NA|rsf:gd-|-stype:attr=1|qr_nm:gd|res:RC3|com-cf:nl|ptrs:na|ktp:N0|mc:155747|mtp:S|qry_typ:P|lang:en|wc:2|cs:8892|v=4,False,Narolgam,Ahmedabad,"Plot No. 5, Babuji Estate, C/o. Diamond Estate, Opp. Shimla Hotel, Narol Circle, Narolgam, Ahmedabad - 382405, Dist.Ahmedabad, Gujarat",8062245066,622
White Fabric: REYON - COTTON TUNIC/MIDDI FOR GIRLS & WOMENS SUMMER BREEZE COLLECTION M L XL XXL,https://www.indiamart.com/proddetail/tunic-middi-for-girls-womens-summer-breeze-collection-m-l-xl-xxl-2850885630233.html?pos=94&kwd=maternity tunic&tags=||||8752.144|Price|product|||NA|rsf:gd-|-stype:attr=1|qr_nm:gd|res:RC3|com-cf:nl|ptrs:na|ktp:N0|mc:155747|mtp:S|qry_typ:P|lang:en|wc:2|cs:8892|v=4,Gopal Ji Fashion,https://www.indiamart.com/gopaljifashion/?pos=94&kwd=maternity tunic&tags=||||8752.144|Price|product|||NA|rsf:gd-|-stype:attr=1|qr_nm:gd|res:RC3|com-cf:nl|ptrs:na|ktp:N0|mc:155747|mtp:S|qry_typ:P|lang:en|wc:2|cs:8892|v=4,False,Shahdara,New Delhi,"IX/1514, Main Road Gandhi Nagar Colony, Shahdara, New Delhi - 110031, Dist.Delhi, Delhi",8048271591,
Cotton Western Shirts,https://www.indiamart.com/proddetail/cotton-western-shirts-2853777890733.html?pos=95&kwd=maternity tunic&tags=||||8601.347|Price|product|||NA|rsf:gd-|-stype:attr=1|qr_nm:gd|res:RC3|com-cf:nl|ptrs:na|ktp:N0|mc:155747|mtp:S|qry_typ:P|lang:en|wc:2|cs:8892|v=4,Ridhi Sidhi Fashion Zone,https://www.indiamart.com/ridhisidhifashionzone/?pos=95&kwd=maternity tunic&tags=||||8601.347|Price|product|||NA|rsf:gd-|-stype:attr=1|qr_nm:gd|res:RC3|com-cf:nl|ptrs:na|ktp:N0|mc:155747|mtp:S|qry_typ:P|lang:en|wc:2|cs:8892|v=4,False,Bindayaka,Jaipur,"A-125,Badada Building,Sirsi Road,Vandana Children School Bindayaka, Bindayaka, Jaipur - 302012, Dist.Jaipur, Rajasthan",7942715760,
Maternity Dress,,Shri Khatu Handicrafts,https://www.indiamart.com/shri-khatu-handicrafts-jaipur/?pos=96&kwd=maternity tunic&tags=CC||||8601.347|Price|product|||NA|rsf:gd-|-stype:attr=1|qr_nm:gd|res:RC3|com-cf:nl|ptrs:na|ktp:N0|mc:155747|mtp:S|qry_typ:P|lang:en|wc:2|cs:8892|v=4,False,,Jaipur,"B-27 Pratap Nagar Sector 11 Shri Kishanpura, Jaipur - 302033, Dist.Jaipur, Rajasthan",8048370714,2065
Maternity Dress,,Genesis,https://www.indiamart.com/genesis-118566353/?pos=97&kwd=maternity tunic&tags=CC||||8752.144|Price|product|||NA|rsf:gd-|-stype:attr=1|qr_nm:gd|res:RC3|com-cf:nl|ptrs:na|ktp:N0|mc:155747|mtp:S|qry_typ:P|lang:en|wc:2|cs:8892|v=4,False,bikini cama place,New Delhi,"B-423 Bhikaji Cama Place Somdutt Chambers I, 5 New Delhi South Delhi 5 bhikaji cama place, bikini cama place, New Delhi - 110066, Dist.Delhi, Delhi",8069017413,125
Maternity Dress,,Hunyhuny Overseas Private Limited,https://www.indiamart.com/hunyhuny-overseas-private-limited-gurugram/?pos=98&kwd=maternity tunic&tags=CC||||8741.812|Price|product|||NA|rsf:gd-|-stype:attr=1|qr_nm:gd|res:RC3|com-cf:nl|ptrs:na|ktp:N0|mc:155747|mtp:S|qry_typ:P|lang:en|wc:2|cs:8892|v=4,False,,Gurugram,"L.g Floor Lg-46 Mehrauli Gurgaon Road Metropolis Mall, Gurugram - 122002, Dist.Gurgaon, Haryana",8069196758,448
Janasya- Green Cotton Printed A-Line Maternity Tunic,,Meraki Shopping Hub LLP,https://www.indiamart.com/company/122690017/?pos=99&kwd=maternity tunic&tags=CC||||8752.144|Price|product|||NA|rsf:gd-|-stype:graph-attr=1|qr_nm:gd|res:RC3|com-cf:nl|ptrs:na|ktp:N0|mc:155747|mtp:S|qry_typ:P|lang:en|wc:2|cs:9467|v=4,False,Okhla,New Delhi,"Hno-C-28,29 S/F, Gali Side, Abul Fazal Enclave-I,Okhla, New Delhi, 110025, Okhla, New Delhi - 110025, Dist.Delhi, Delhi",8048247107,9311
Maternity Dress,,Plum Clothing,https://www.indiamart.com/plum-clothing/?pos=100&kwd=maternity tunic&tags=CC||||8223.226|Price|product|||NA|rsf:gd-|-stype:graph-attr=1|qr_nm:gd|res:RC3|com-cf:nl|ptrs:na|ktp:N0|mc:155747|mtp:S|qry_typ:P|lang:en|wc:2|cs:9467|v=4,False,,Thane,"Shop No 3,Kariwal Village,90 G B -Sv- Road,Old Khar,Khar West,Mumbai Suburban, Thane - 400052, Dist.Thane, Maharashtra",8048249731,7760
Maternity Dress,,Opus Fashions Private Limited,https://www.indiamart.com/opus-fashions-private-limited/?pos=101&kwd=maternity tunic&tags=CC||||8954.051|Price|product|||NA|rsf:gd-|-stype:graph-attr=1|qr_nm:gd|res:RC3|com-cf:nl|ptrs:na|ktp:N0|mc:155747|mtp:S|qry_typ:P|lang:en|wc:2|cs:9467|v=4,False,,Chennai,"Chetpet, Chennai - 600031, Dist.Chennai, Tamil Nadu",8048249675,4212
Blooming Marvellous Maternity Tunic Dress,,Premier Knits Apparel (India) Private Limited,https://www.indiamart.com/premier-knits-apparel/?pos=102&kwd=maternity tunic&tags=CC||||8626.744||product|||NA|rsf:gd-|-stype:graph-attr=1|qr_nm:gd|res:RC3|com-cf:nl|ptrs:na|ktp:N0|mc:155747|mtp:S|qry_typ:P|lang:en|wc:2|cs:9467|v=4,False,,Tiruppur,"2/241 Kunnathur Road, Virumandampalayam Post, Chengappalli, Periyar Colony, Avinashi Road, Tiruppur - 638812, Dist.Coimbatore, Tamil Nadu",7942659667,
