product_title,product_link,company_name,company_link,is_verified_exporter,city_region,city,address_details,phone_number,phone_number_extension
Solid Ladies Hosiery Maternity Frock Dress Nightgown 1389-1394,https://www.indiamart.com/proddetail/ladies-hosiery-maternity-frock-dress-nightgown-1389-1394-2851791980988.html?pos=1&kwd=maternity nightgowns&tags=A||||8752.144|Price|product|||TS|rsf:gd-|-stype:attr=1|qr_nm:gd|res:RC4|com-cf:nl|ptrs:na|ktp:N0|mc:31787|mtp:S|qry_typ:P|lang:en|wc:2|flavl:0|cs:9605|v=4,Aggarwal & Sons,https://www.indiamart.com/aggarwal-sons-dehli/?pos=1&kwd=maternity nightgowns&tags=A||||8752.144|Price|product|||TS|rsf:gd-|-stype:attr=1|qr_nm:gd|res:RC4|com-cf:nl|ptrs:na|ktp:N0|mc:31787|mtp:S|qry_typ:P|lang:en|wc:2|flavl:0|cs:9605|v=4,False,Karawal Nagar,New Delhi,"H No.-3 G/f Kh No.-5/27/1 ,Main Road Kamal Vihar Nr Police Station, Karawal Nagar, New Delhi - 110094, Dist.Delhi, Delhi",7942804253,
Silver Organisation Ethnic Maternity Nightgowns,https://www.indiamart.com/proddetail/maternity-nightgowns-21396563433.html?pos=2&kwd=maternity nightgowns&tags=A||||8601.347|Price|product|||TS|rsf:gd-|-stype:attr=1|qr_nm:gd|res:RC4|com-cf:nl|ptrs:na|ktp:N0|mc:31787|mtp:S|qry_typ:P|lang:en|wc:2|flavl:0|cs:9605|v=4,Mudrika Fashions (A Brand of Silver Organisation),https://www.indiamart.com/silverorganisation/?pos=2&kwd=maternity nightgowns&tags=A||||8601.347|Price|product|||TS|rsf:gd-|-stype:attr=1|qr_nm:gd|res:RC4|com-cf:nl|ptrs:na|ktp:N0|mc:31787|mtp:S|qry_typ:P|lang:en|wc:2|flavl:0|cs:9605|v=4,False,Luniawas,Jaipur,"A-1, Kanji Nagar, Luniawas, Jaipur - 302031, Dist.Jaipur, Rajasthan",8046042577,
Yellow Printed Cotton Maternity Nightgown,https://www.indiamart.com/proddetail/yellow-printed-cotton-maternity-nightgown-27130124188.html?pos=3&kwd=maternity nightgowns&tags=A||||8601.347|Price|product|||TS|rsf:gd-|-stype:attr=1|qr_nm:gd|res:RC4|com-cf:nl|ptrs:na|ktp:N0|mc:31787|mtp:S|qry_typ:P|lang:en|wc:2|flavl:0|cs:9605|v=4,Namokar Enterprises,https://www.indiamart.com/namokarenterprises/?pos=3&kwd=maternity nightgowns&tags=A||||8601.347|Price|product|||TS|rsf:gd-|-stype:attr=1|qr_nm:gd|res:RC4|com-cf:nl|ptrs:na|ktp:N0|mc:31787|mtp:S|qry_typ:P|lang:en|wc:2|flavl:0|cs:9605|v=4,False,Mansarovar,Jaipur,"119/67, Thadi Market, Agarwal Farm, Mansarovar, Mansarovar, Jaipur - 302020, Dist.Jaipur, Rajasthan",8047530717,
Orange Maternity Nightgowns,https://www.indiamart.com/proddetail/maternity-nightgowns-10715911512.html?pos=4&kwd=maternity nightgowns&tags=A||||8601.347|Price|product|||TS|rsf:gd-|-stype:attr=1|qr_nm:gd|res:RC4|com-cf:nl|ptrs:na|ktp:N0|mc:31787|mtp:S|qry_typ:P|lang:en|wc:2|flavl:0|cs:9605|v=4,Jaipuri Bandhej,https://www.jaipuribandhej.net/?pos=4&kwd=maternity nightgowns&tags=A||||8601.347|Price|product|||TS|rsf:gd-|-stype:attr=1|qr_nm:gd|res:RC4|com-cf:nl|ptrs:na|ktp:N0|mc:31787|mtp:S|qry_typ:P|lang:en|wc:2|flavl:0|cs:9605|v=4,False,Vidhyadhar Nagar,Jaipur,"Laxmi Niwas, 42-A, Hans Vatika Naya Khera, Vidhyadhar Nagar, Vidhyadhar Nagar, Jaipur - 302039, Dist.Jaipur, Rajasthan",8048619795,
"RAYON PROCIAN PRINTED MATERMITY GOWN, Blue",https://www.indiamart.com/proddetail/rayon-procian-printed-matermity-gown-2852996085191.html?pos=5&kwd=maternity nightgowns&tags=A||||8601.347|Price|product|||MDC|rsf:gd-|-stype:attr=1|qr_nm:gd|res:RC4|com-cf:nl|ptrs:na|ktp:N0|mc:31787|mtp:S|qry_typ:P|lang:en|wc:2|flavl:0|cs:9605|v=4,Runway Enterprises,https://www.indiamart.com/runwayenterprises/?pos=5&kwd=maternity nightgowns&tags=A||||8601.347|Price|product|||MDC|rsf:gd-|-stype:attr=1|qr_nm:gd|res:RC4|com-cf:nl|ptrs:na|ktp:N0|mc:31787|mtp:S|qry_typ:P|lang:en|wc:2|flavl:0|cs:9605|v=4,False,Jamna Puri,Jaipur,"Plot No 133, Benar Road, Scheme Shri Jorawar Nagar,, Jamna Puri, Jaipur - 302039, Dist.Jaipur, Rajasthan",7942718276,
Ladies Maternity Gown,https://www.indiamart.com/proddetail/ladies-maternity-gown-26403285562.html?pos=6&kwd=maternity nightgowns&tags=A||||8230.883|Price|product|||TS|rsf:gd-|-stype:attr=1|qr_nm:gd|res:RC4|com-cf:nl|ptrs:na|ktp:N0|mc:31787|mtp:S|qry_typ:P|lang:en|wc:2|flavl:0|cs:9605|v=4,JSK Designer,https://www.jskdesigner.com/?pos=6&kwd=maternity nightgowns&tags=A||||8230.883|Price|product|||TS|rsf:gd-|-stype:attr=1|qr_nm:gd|res:RC4|com-cf:nl|ptrs:na|ktp:N0|mc:31787|mtp:S|qry_typ:P|lang:en|wc:2|flavl:0|cs:9605|v=4,False,,Surat,"C-4/405,Gadhpur Township, Kathodara Road, Pasodara, Surat - 394326, Dist.Surat, Gujarat",8048604591,
Beige Cotton Floral Printed Breastfeeding/Maternity/Pregnancy/Maxi/Dress Knee Length Nighty With Zip,https://www.indiamart.com/proddetail/beige-cotton-floral-printed-breastfeeding-maternity-pregnancy-maxi-dress-knee-length-nighty-with-zip-2853944620362.html?pos=7&kwd=maternity nightgowns&tags=A||||8601.347|Price|product|||MDC|rsf:gd-|-stype:attr=1|qr_nm:gd|res:RC4|com-cf:nl|ptrs:na|ktp:N0|mc:31787|mtp:S|qry_typ:P|lang:en|wc:2|flavl:0|cs:9605|v=4,Kashaya Fabs,https://www.indiamart.com/kashaya-fabs/?pos=7&kwd=maternity nightgowns&tags=A||||8601.347|Price|product|||MDC|rsf:gd-|-stype:attr=1|qr_nm:gd|res:RC4|com-cf:nl|ptrs:na|ktp:N0|mc:31787|mtp:S|qry_typ:P|lang:en|wc:2|flavl:0|cs:9605|v=4,False,Mansarovar,Jaipur,"H-1-51/66A, RIICO Industrial Area, Mansarovar, Mansarovar, Jaipur - 302020, Dist.Jaipur, Rajasthan",8044015615,
"Flower Printed Zipper Maternity Nightgowns, Green",https://www.indiamart.com/proddetail/flower-printed-zipper-maternity-nightgowns-2854004753688.html?pos=8&kwd=maternity nightgowns&tags=A||||8601.347|Price|product|||MDC|rsf:gd-|-stype:attr=1|qr_nm:gd|res:RC4|com-cf:nl|ptrs:na|ktp:N0|mc:31787|mtp:S|qry_typ:P|lang:en|wc:2|flavl:0|cs:9605|v=4,Aditya Enterprises,https://www.indiamart.com/adityaenterprises-jaipurrajasthan/?pos=8&kwd=maternity nightgowns&tags=A||||8601.347|Price|product|||MDC|rsf:gd-|-stype:attr=1|qr_nm:gd|res:RC4|com-cf:nl|ptrs:na|ktp:N0|mc:31787|mtp:S|qry_typ:P|lang:en|wc:2|flavl:0|cs:9605|v=4,False,Murlipura,Jaipur,"First Floor, Plot No.330, MDS Tirvedi Complex, Flate No G-2, Shiv Nagar-I, Murlipura, Murlipura, Jaipur - 302039, Dist.Jaipur, Rajasthan",8044011776,
RED ROSE Meternity-75,https://www.indiamart.com/proddetail/meternity-75-22489530955.html?pos=9&kwd=maternity nightgowns&tags=BA||||8231.259|Price|product|||TS|rsf:gd-|-stype:attr=1|qr_nm:gd|res:RC4|com-cf:nl|ptrs:na|ktp:N0|mc:31787|mtp:S|qry_typ:P|lang:en|wc:2|flavl:0|cs:9605|v=4,Red Rose ( A Brand Of Sagar Products),https://www.indiamart.com/redrose-mumbai/?pos=9&kwd=maternity nightgowns&tags=BA||||8231.259|Price|product|||TS|rsf:gd-|-stype:attr=1|qr_nm:gd|res:RC4|com-cf:nl|ptrs:na|ktp:N0|mc:31787|mtp:S|qry_typ:P|lang:en|wc:2|flavl:0|cs:9605|v=4,False,Saravali,Bhiwandi,"C6, Asmeeta Textile Park Additional Kalyan Bhiwandi Highway, Saravali, Bhiwandi - 421311, Maharashtra",8048603606,
Printed Maternity Nightgowns,https://www.indiamart.com/proddetail/maternity-nightgowns-2851934354988.html?pos=10&kwd=maternity nightgowns&tags=A||||8626.744|Price|product|||TS|rsf:gd-|-stype:attr=1|qr_nm:gd|res:RC4|com-cf:nl|ptrs:na|ktp:N0|mc:31787|mtp:S|qry_typ:P|lang:en|wc:2|flavl:0|cs:9605|v=4,Rainbow Creations,https://www.indiamart.com/rainbowcreations/?pos=10&kwd=maternity nightgowns&tags=A||||8626.744|Price|product|||TS|rsf:gd-|-stype:attr=1|qr_nm:gd|res:RC4|com-cf:nl|ptrs:na|ktp:N0|mc:31787|mtp:S|qry_typ:P|lang:en|wc:2|flavl:0|cs:9605|v=4,False,Renganatha Puram,Tiruppur,"No. 7- 24, murugasamy layout 1street, Renganatha Puram, Tiruppur - 641607, Dist.Coimbatore, Tamil Nadu",8048955272,
XL Cotton Maternity Gown Nighty,https://www.indiamart.com/proddetail/xl-cotton-maternity-gown-nighty-2853460660991.html?pos=11&kwd=maternity nightgowns&tags=A||||8584.299|Price|product|||MDC|rsf:gd-|-stype:attr=1|qr_nm:gd|res:RC4|com-cf:nl|ptrs:na|ktp:N0|mc:31787|mtp:S|qry_typ:P|lang:en|wc:2|flavl:0|cs:9605|v=4,Emma Fashions,https://www.indiamart.com/emma-fashions/?pos=11&kwd=maternity nightgowns&tags=A||||8584.299|Price|product|||MDC|rsf:gd-|-stype:attr=1|qr_nm:gd|res:RC4|com-cf:nl|ptrs:na|ktp:N0|mc:31787|mtp:S|qry_typ:P|lang:en|wc:2|flavl:0|cs:9605|v=4,False,,Coimbatore,"2/62, Shanmuga Nagar, Sanganoor Main Road, Rathinapuri, Coimbatore - 641027, Dist.Coimbatore, Tamil Nadu",8047832283,
103 GSM Maternity Gown,https://www.indiamart.com/proddetail/103-gsm-maternity-gown-2853960625355.html?pos=12&kwd=maternity nightgowns&tags=A||||8230.883|Price|product|||MDC|rsf:gd-|-stype:attr=1|qr_nm:gd|res:RC4|com-cf:nl|ptrs:na|ktp:N0|mc:31787|mtp:S|qry_typ:P|lang:en|wc:2|flavl:0|cs:9605|v=4,Hiren Ashokbhai Tariwala,https://www.indiamart.com/hirenashokbhaitariwala/?pos=12&kwd=maternity nightgowns&tags=A||||8230.883|Price|product|||MDC|rsf:gd-|-stype:attr=1|qr_nm:gd|res:RC4|com-cf:nl|ptrs:na|ktp:N0|mc:31787|mtp:S|qry_typ:P|lang:en|wc:2|flavl:0|cs:9605|v=4,False,Katargam,Surat,"504, Luxuriya Trade Hub, Dumas Road, B/S Vastu Luxuriya, Katargam, Surat - 395007, Dist.Surat, Gujarat",8044013393,
"Cotton Self Design Maternity Feeding Gown, Full Sleeve",https://www.indiamart.com/proddetail/maternity-feeding-gown-2853970049588.html?pos=13&kwd=maternity nightgowns&tags=BB||||8601.347|Price|product|||TS|rsf:gd-|-stype:attr=1|qr_nm:gd|res:RC4|com-cf:nl|ptrs:na|ktp:N0|mc:31787|mtp:S|qry_typ:P|lang:en|wc:2|flavl:0|cs:9605|v=4,Shree Shyam Creation,https://www.shreeshyamcreations.in/?pos=13&kwd=maternity nightgowns&tags=BB||||8601.347|Price|product|||TS|rsf:gd-|-stype:attr=1|qr_nm:gd|res:RC4|com-cf:nl|ptrs:na|ktp:N0|mc:31787|mtp:S|qry_typ:P|lang:en|wc:2|flavl:0|cs:9605|v=4,False,Sanganer,Jaipur,"Saini Bhawan, 18, Kanwar Ka Bag Ladko Ki Dhani Panchavti Colony, Sanganer, Sanganer, Jaipur - 302011, Dist.Jaipur, Rajasthan",7942717795,
Ladies Cotton Maternity Nightgowns,https://www.indiamart.com/proddetail/ladies-cotton-maternity-nightgowns-2854957214097.html?pos=14&kwd=maternity nightgowns&tags=A||||8230.883|Price|product|||MDC|rsf:gd-|-stype:attr=1|qr_nm:gd|res:RC4|com-cf:nl|ptrs:na|ktp:N0|mc:31787|mtp:S|qry_typ:P|lang:en|wc:2|flavl:0|cs:9605|v=4,Navkar Creation,https://www.indiamart.com/navkar-creationsurat/?pos=14&kwd=maternity nightgowns&tags=A||||8230.883|Price|product|||MDC|rsf:gd-|-stype:attr=1|qr_nm:gd|res:RC4|com-cf:nl|ptrs:na|ktp:N0|mc:31787|mtp:S|qry_typ:P|lang:en|wc:2|flavl:0|cs:9605|v=4,False,,Surat,"4, 4011, Silk City Textile Market, Ring Road, Umarwada, Surat - 395002, Dist.Surat, Gujarat",8044014293,
Maternity Nightgowns,https://www.indiamart.com/proddetail/maternity-nightgowns-2853877906055.html?pos=15&kwd=maternity nightgowns&tags=BA||||8626.744|Price|product|||MDC|rsf:gd-|-stype:attr=1|qr_nm:gd|res:RC4|com-cf:nl|ptrs:na|ktp:N0|mc:31787|mtp:S|qry_typ:P|lang:en|wc:2|cs:8842|v=4,Elshada Clothing,https://www.indiamart.com/elshada-clothing-tiruppur/?pos=15&kwd=maternity nightgowns&tags=BA||||8626.744|Price|product|||MDC|rsf:gd-|-stype:attr=1|qr_nm:gd|res:RC4|com-cf:nl|ptrs:na|ktp:N0|mc:31787|mtp:S|qry_typ:P|lang:en|wc:2|cs:8842|v=4,False,Padmavathi Puram,Tiruppur,"105A Ashar Mill Labour Colony, Padmavathipuram, Padmavathi Puram, Tiruppur - 641603, Dist.Coimbatore, Tamil Nadu",7942720305,
"Printed Cotton Maternity Nightgown, Multicolor",https://www.indiamart.com/proddetail/cotton-maternity-nightgown-2848992078855.html?pos=16&kwd=maternity nightgowns&tags=A||||8601.347|Price|product|||MDC|rsf:gd-|-stype:attr=1|qr_nm:gd|res:RC4|com-cf:nl|ptrs:na|ktp:N0|mc:31787|mtp:S|qry_typ:P|lang:en|wc:2|cs:8842|v=4,Nihaan Impex,https://www.indiamart.com/nihaanimpex-jaipur/?pos=16&kwd=maternity nightgowns&tags=A||||8601.347|Price|product|||MDC|rsf:gd-|-stype:attr=1|qr_nm:gd|res:RC4|com-cf:nl|ptrs:na|ktp:N0|mc:31787|mtp:S|qry_typ:P|lang:en|wc:2|cs:8842|v=4,False,Pratap Nagar,Jaipur,"28, Raghunath Puri, Khokha Bass, Sanganer, Pratap Nagar, Jaipur - 302011, Dist.Jaipur, Rajasthan",8047551915,
Maternity Feeding Kurti,https://www.indiamart.com/proddetail/maternity-feeding-kurti-2854759055962.html?pos=17&kwd=maternity nightgowns&tags=BA||||8626.744|Price|product|||TS|rsf:gd-|-stype:attr=1|qr_nm:gd|res:RC4|com-cf:nl|ptrs:na|ktp:N0|mc:31787|mtp:S|qry_typ:P|lang:en|wc:2|cs:8842|v=4,RVR Garments,https://www.indiamart.com/rvr-garments-tiruppur/?pos=17&kwd=maternity nightgowns&tags=BA||||8626.744|Price|product|||TS|rsf:gd-|-stype:attr=1|qr_nm:gd|res:RC4|com-cf:nl|ptrs:na|ktp:N0|mc:31787|mtp:S|qry_typ:P|lang:en|wc:2|cs:8842|v=4,False,Weavers Colony,Tiruppur,"4-1/19, Babuji Nagar 3rd Street,Kumarananthapuram, Weavers Colony, Tiruppur - 641602, Dist.Coimbatore, Tamil Nadu",7942962984,
"Cotton Printed Ladies Maternity Gown, multi",https://www.indiamart.com/proddetail/ladies-maternity-gown-2853100512048.html?pos=18&kwd=maternity nightgowns&tags=BA||||8601.347|Price|product|||TS|rsf:gd-|-stype:attr=1|qr_nm:gd|res:RC4|com-cf:nl|ptrs:na|ktp:N0|mc:31787|mtp:S|qry_typ:P|lang:en|wc:2|cs:8842|v=4,Kismat Collection,https://www.kismatcollectionjaipur.com/?pos=18&kwd=maternity nightgowns&tags=BA||||8601.347|Price|product|||TS|rsf:gd-|-stype:attr=1|qr_nm:gd|res:RC4|com-cf:nl|ptrs:na|ktp:N0|mc:31787|mtp:S|qry_typ:P|lang:en|wc:2|cs:8842|v=4,False,Raj Nagar 2,Jaipur,"A-15,,PATEL NAGAR NAMDEV COLONY,SANGANER, JAIPUR, Raj Nagar 2, Jaipur - 302029, Dist.Jaipur, Rajasthan",7942869763,
Womens Maternity Gown,https://www.indiamart.com/proddetail/womens-maternity-gown-2853918493288.html?pos=19&kwd=maternity nightgowns&tags=BA||||8228.275|Price|product|||TS|rsf:gd-|-stype:attr=1|qr_nm:gd|res:RC4|com-cf:nl|ptrs:na|ktp:N0|mc:31787|mtp:S|qry_typ:P|lang:en|wc:2|cs:8842|v=4,Gitanjali Enterprise,https://www.indiamart.com/gitanjali-enterprise-ahmedabad/?pos=19&kwd=maternity nightgowns&tags=BA||||8228.275|Price|product|||TS|rsf:gd-|-stype:attr=1|qr_nm:gd|res:RC4|com-cf:nl|ptrs:na|ktp:N0|mc:31787|mtp:S|qry_typ:P|lang:en|wc:2|cs:8842|v=4,False,Isanpur,Ahmedabad,"Near Jognimata Temple, Isanpur Gam, Isanpur, Isanpur, Ahmedabad - 382443, Dist.Ahmedabad, Gujarat",8047640750,
Printed Rayon Ladies Maternity Night Gown,https://www.indiamart.com/proddetail/rayon-ladies-maternity-night-gown-2849146585948.html?pos=20&kwd=maternity nightgowns&tags=BB||||8228.275|Price|product|||TS|rsf:gd-|-stype:attr=1|qr_nm:gd|res:RC4|com-cf:nl|ptrs:na|ktp:N0|mc:31787|mtp:S|qry_typ:P|lang:en|wc:2|cs:8842|v=4,Simran Nightwear,https://www.indiamart.com/jai-adeshwar-textile/?pos=20&kwd=maternity nightgowns&tags=BB||||8228.275|Price|product|||TS|rsf:gd-|-stype:attr=1|qr_nm:gd|res:RC4|com-cf:nl|ptrs:na|ktp:N0|mc:31787|mtp:S|qry_typ:P|lang:en|wc:2|cs:8842|v=4,False,,Ahmedabad,"43/1/A/1, Bohra House Navneet Prakashan Building, Nr Uttam Dairy Sukhramnagar Rakhial, Ahmedabad - 380021, Dist.Ahmedabad, Gujarat",8047632003,
Cotton Printed Ladies Maternity Nightgown,https://www.indiamart.com/proddetail/ladies-maternity-nightgown-2851840374730.html?pos=21&kwd=maternity nightgowns&tags=BA||||8717.056|Price|product|||TS|rsf:gd-|-stype:attr=1|qr_nm:gd|res:RC4|com-cf:nl|ptrs:na|ktp:N0|mc:31787|mtp:S|qry_typ:P|lang:en|wc:2|cs:8842|v=4,SKT Textile Service India Private Limited,https://www.textilemanufacturersintamilnadu.com/?pos=21&kwd=maternity nightgowns&tags=BA||||8717.056|Price|product|||TS|rsf:gd-|-stype:attr=1|qr_nm:gd|res:RC4|com-cf:nl|ptrs:na|ktp:N0|mc:31787|mtp:S|qry_typ:P|lang:en|wc:2|cs:8842|v=4,False,Vellalagundam,Salem,"RST Number 3/288, 343 South Land, Vellalagundam, Salem - 636111, Dist.Salem, Tamil Nadu",8047631524,
Ladies Maternity Gown,https://www.indiamart.com/proddetail/ladies-maternity-gown-2851535273988.html?pos=22&kwd=maternity nightgowns&tags=BA||||8601.347|Price|product|||TS|rsf:gd-|-stype:attr=1|qr_nm:gd|res:RC4|com-cf:nl|ptrs:na|ktp:N0|mc:31787|mtp:S|qry_typ:P|lang:en|wc:2|cs:8842|v=4,Hkf Jaipur Industries Private Limited,https://www.hkfjaipurindustries.com/?pos=22&kwd=maternity nightgowns&tags=BA||||8601.347|Price|product|||TS|rsf:gd-|-stype:attr=1|qr_nm:gd|res:RC4|com-cf:nl|ptrs:na|ktp:N0|mc:31787|mtp:S|qry_typ:P|lang:en|wc:2|cs:8842|v=4,False,Sanganer Shri Rampura,Jaipur,"PLOT NO. 72, 1ST FLOOR, GOPI NAGAR, RAILWAY STATION ROAD,, Sanganer Shri Rampura, Jaipur - 302029, Dist.Jaipur, Rajasthan",8047674124,
"Hosiery Printed Ladies Maternity Nightgown, Red",https://www.indiamart.com/proddetail/ladies-maternity-nightgown-21541037648.html?pos=23&kwd=maternity nightgowns&tags=BB||||8228.275|Price|product|||TS|rsf:gd-|-stype:attr=1|qr_nm:gd|res:RC4|com-cf:nl|ptrs:na|ktp:N0|mc:31787|mtp:S|qry_typ:P|lang:en|wc:2|cs:8842|v=4,Ramdev Fabrics,https://www.indiamart.com/ramdevfabrics-ahmedabad/?pos=23&kwd=maternity nightgowns&tags=BB||||8228.275|Price|product|||TS|rsf:gd-|-stype:attr=1|qr_nm:gd|res:RC4|com-cf:nl|ptrs:na|ktp:N0|mc:31787|mtp:S|qry_typ:P|lang:en|wc:2|cs:8842|v=4,False,Odhav,Ahmedabad,"19, Krishna Chambers, Vihal Park Part 2, Opposite Maheshwari Nagar, Odhav, Ahmedabad - 382415, Dist.Ahmedabad, Gujarat",8047639305,
Women's Cotton Printed Maternity Gown,https://www.indiamart.com/proddetail/women-s-cotton-printed-maternity-gown-2852876169455.html?pos=24&kwd=maternity nightgowns&tags=BA||||8601.347|Price|product|||TS|rsf:gd-|-stype:attr=1|qr_nm:gd|res:RC4|com-cf:nl|ptrs:na|ktp:N0|mc:31787|mtp:S|qry_typ:P|lang:en|wc:2|cs:8842|v=4,Jaanya Creations,https://www.flyfinns.com/?pos=24&kwd=maternity nightgowns&tags=BA||||8601.347|Price|product|||TS|rsf:gd-|-stype:attr=1|qr_nm:gd|res:RC4|com-cf:nl|ptrs:na|ktp:N0|mc:31787|mtp:S|qry_typ:P|lang:en|wc:2|cs:8842|v=4,False,Sanganer Station,Jaipur,"405, Dajy Manglam Ananda, Neear Sanganer Station, Sanganer Station, Jaipur - 302029, Dist.Jaipur, Rajasthan",7942789055,
Rayon Printed Women Maternity Feeding Nighty,https://www.indiamart.com/proddetail/women-maternity-feeding-nighty-2855073501912.html?pos=25&kwd=maternity nightgowns&tags=BB||||8228.275|Price|product|||TS|rsf:gd-|-stype:attr=1|qr_nm:gd|res:RC4|com-cf:nl|ptrs:na|ktp:N0|mc:31787|mtp:S|qry_typ:P|lang:en|wc:2|cs:8842|v=4,Kundan Night Wear,https://www.indiamart.com/kundan-night-wear/?pos=25&kwd=maternity nightgowns&tags=BB||||8228.275|Price|product|||TS|rsf:gd-|-stype:attr=1|qr_nm:gd|res:RC4|com-cf:nl|ptrs:na|ktp:N0|mc:31787|mtp:S|qry_typ:P|lang:en|wc:2|cs:8842|v=4,False,Kalupur,Ahmedabad,"1st Floor, 469/11, B.G Chembers, Sakar Bazar, Kalupur, Ahmedabad - 380002, Dist.Ahmedabad, Gujarat",7949225829,
"Printed Ladies Cotton Maternity Nightgown, Dark Blue (Base)",https://www.indiamart.com/proddetail/ladies-cotton-maternity-nightgown-2850658902133.html?pos=26&kwd=maternity nightgowns&tags=BA||||8601.347|Price|product|||TS|rsf:gd-|-stype:attr=1|qr_nm:gd|res:RC4|com-cf:nl|ptrs:na|ktp:N0|mc:31787|mtp:S|qry_typ:P|lang:en|wc:2|cs:8842|v=4,Aanadhya Fashion,https://www.indiamart.com/aanadhya-fashion-jaipur/?pos=26&kwd=maternity nightgowns&tags=BA||||8601.347|Price|product|||TS|rsf:gd-|-stype:attr=1|qr_nm:gd|res:RC4|com-cf:nl|ptrs:na|ktp:N0|mc:31787|mtp:S|qry_typ:P|lang:en|wc:2|cs:8842|v=4,False,Shikarpura,Jaipur,"14, Govind Nagar, Goolar Ka Bandha, Shikarpura Road, Sanganer, Shikarpura, Jaipur - 302029, Dist.Jaipur, Rajasthan",7942958103,
"Maternity Gown, Sleeves: Half",https://www.indiamart.com/proddetail/maternity-gown-2849566485530.html?pos=27&kwd=maternity nightgowns&tags=BA||||9110.092|Price|product|||TS|rsf:gd-|-stype:attr=1|qr_nm:gd|res:RC4|com-cf:nl|ptrs:na|ktp:N0|mc:31787|mtp:S|qry_typ:P|lang:en|wc:2|cs:8842|v=4,Nirman Enterprises,https://www.indiamart.com/nirman-enterprises-lucknow/?pos=27&kwd=maternity nightgowns&tags=BA||||9110.092|Price|product|||TS|rsf:gd-|-stype:attr=1|qr_nm:gd|res:RC4|com-cf:nl|ptrs:na|ktp:N0|mc:31787|mtp:S|qry_typ:P|lang:en|wc:2|cs:8842|v=4,False,Kanausi,Lucknow,"548gh/171, Teji Khera, Manak Nagar, Rjpm1, Kanausi, Lucknow - 226017, Dist.Lucknow, Uttar Pradesh",8048974867,
Womens Printed Dark Purple Rayon Maternity Night Gown,https://www.indiamart.com/proddetail/womens-printed-dark-purple-rayon-maternity-night-gown-2854694019988.html?pos=28&kwd=maternity nightgowns&tags=BA||||8601.347|Price|product|||MDC|rsf:gd-|-stype:attr=1|qr_nm:gd|res:RC4|com-cf:nl|ptrs:na|ktp:N0|mc:31787|mtp:S|qry_typ:P|lang:en|wc:2|cs:8842|v=4,V R Fashions,https://www.indiamart.com/vrfashions-jaipur/?pos=28&kwd=maternity nightgowns&tags=BA||||8601.347|Price|product|||MDC|rsf:gd-|-stype:attr=1|qr_nm:gd|res:RC4|com-cf:nl|ptrs:na|ktp:N0|mc:31787|mtp:S|qry_typ:P|lang:en|wc:2|cs:8842|v=4,False,,Jaipur,"Ground Floor 10, Thana Circle, Khokhawas, Mahaveer Nagar, Near Sanganer Thana, Sanganer, Jaipur - 302029, Dist.Jaipur, Rajasthan",7949322594,
Cotton Ladies Printed Maternity Nightgown,https://www.indiamart.com/proddetail/ladies-printed-maternity-nightgown-2854049053388.html?pos=29&kwd=maternity nightgowns&tags=BA||||8242.731|Price|product|||MDC|rsf:gd-|-stype:attr=1|qr_nm:gd|res:RC4|com-cf:nl|ptrs:na|ktp:N0|mc:31787|mtp:S|qry_typ:P|lang:en|wc:2|cs:8842|v=4,Honey Gown,https://www.indiamart.com/honey-gown-ulhasnagar/?pos=29&kwd=maternity nightgowns&tags=BA||||8242.731|Price|product|||MDC|rsf:gd-|-stype:attr=1|qr_nm:gd|res:RC4|com-cf:nl|ptrs:na|ktp:N0|mc:31787|mtp:S|qry_typ:P|lang:en|wc:2|cs:8842|v=4,False,Kailash Colony,Ulhasnagar,"Near Shani Mandir On Plot, Section-40, Opp BK No. 1912, MM Traders Kalyan, Kailash Colony, Ulhasnagar - 421005, Dist.Thane, Maharashtra",8044010085,
"Rayon Printed Ladies Maternity Gown, Peach",https://www.indiamart.com/proddetail/ladies-maternity-gown-2853899031430.html?pos=30&kwd=maternity nightgowns&tags=BA||||8601.347|Price|product|||MDC|rsf:gd-|-stype:attr=1|qr_nm:gd|res:RC4|com-cf:nl|ptrs:na|ktp:N0|mc:31787|mtp:S|qry_typ:P|lang:en|wc:2|cs:8842|v=4,Akhil Enterprises,https://www.indiamart.com/akhilenterprises-jaipurrajasthan/?pos=30&kwd=maternity nightgowns&tags=BA||||8601.347|Price|product|||MDC|rsf:gd-|-stype:attr=1|qr_nm:gd|res:RC4|com-cf:nl|ptrs:na|ktp:N0|mc:31787|mtp:S|qry_typ:P|lang:en|wc:2|cs:8842|v=4,False,Jay Colony,Jaipur,"228 A Gali No. 3, Rajapark, Jay Colony, Jaipur - 302004, Dist.Jaipur, Rajasthan",8044012954,
Cotton Solid Ladies Hospital Maternity Gown,https://www.indiamart.com/proddetail/ladies-hospital-maternity-gown-2854486882955.html?pos=31&kwd=maternity nightgowns&tags=BA||||8663.873|Price|product|||MDC|rsf:gd-|-stype:attr=1|qr_nm:gd|res:RC4|com-cf:nl|ptrs:na|ktp:N0|mc:31787|mtp:S|qry_typ:P|lang:en|wc:2|cs:8842|v=4,A.F.I.Uniforms,https://www.indiamart.com/afi-uniforms/?pos=31&kwd=maternity nightgowns&tags=BA||||8663.873|Price|product|||MDC|rsf:gd-|-stype:attr=1|qr_nm:gd|res:RC4|com-cf:nl|ptrs:na|ktp:N0|mc:31787|mtp:S|qry_typ:P|lang:en|wc:2|cs:8842|v=4,False,Bengaluru Urban,Bengaluru,"No 764/1, 3rd Cross 3rd Main , Prakash Nagar, Bengaluru Urban, Bengaluru - 560021, Dist.Bengaluru, Karnataka",7949336530,
CUSTOMIZED MATERNITY DRESS,https://www.indiamart.com/proddetail/customized-maternity-dress-2853397053597.html?pos=32&kwd=maternity nightgowns&tags=BA||||8752.144|Price|product|||MDC|rsf:gd-|-stype:attr=1|qr_nm:gd|res:RC4|com-cf:nl|ptrs:na|ktp:N0|mc:31787|mtp:S|qry_typ:P|lang:en|wc:2|cs:8842|v=4,Young Exports,https://www.indiamart.com/young-export/?pos=32&kwd=maternity nightgowns&tags=BA||||8752.144|Price|product|||MDC|rsf:gd-|-stype:attr=1|qr_nm:gd|res:RC4|com-cf:nl|ptrs:na|ktp:N0|mc:31787|mtp:S|qry_typ:P|lang:en|wc:2|cs:8842|v=4,False,Mehrauli,New Delhi,"Kh No-1667, ward No-2, Garhwal Colony, Mehrauli,, Mehrauli, New Delhi - 110030, Dist.Delhi, Delhi",8046070639,
Printed Ladies Orange Rayon Maternity Gown,https://www.indiamart.com/proddetail/ladies-orange-rayon-maternity-gown-2854128929430.html?pos=33&kwd=maternity nightgowns&tags=BA||||8601.347|Price|product|||MDC|rsf:gd-|-stype:attr=1|qr_nm:gd|res:RC4|com-cf:nl|ptrs:na|ktp:N0|mc:31787|mtp:S|qry_typ:P|lang:en|wc:2|cs:8842|v=4,Saanvi Collection,https://www.indiamart.com/saanvi-collection-jaipur/?pos=33&kwd=maternity nightgowns&tags=BA||||8601.347|Price|product|||MDC|rsf:gd-|-stype:attr=1|qr_nm:gd|res:RC4|com-cf:nl|ptrs:na|ktp:N0|mc:31787|mtp:S|qry_typ:P|lang:en|wc:2|cs:8842|v=4,False,Raj Nagar 2,Jaipur,"75/310, RHB Pratap Nagar ,Sanganer,, Raj Nagar 2, Jaipur - 302029, Dist.Jaipur, Rajasthan",8045733365,
Ladies Light Green Printed Cotton Maternity Dress,https://www.indiamart.com/proddetail/ladies-light-green-printed-cotton-maternity-dress-2852987593288.html?pos=34&kwd=maternity nightgowns&tags=BA||||8601.347|Price|product|||MDC|rsf:gd-|-stype:attr=1|qr_nm:gd|res:RC4|com-cf:nl|ptrs:na|ktp:N0|mc:31787|mtp:S|qry_typ:P|lang:en|wc:2|cs:8842|v=4,Z Creation,https://www.indiamart.com/z-creation-rajasthan/?pos=34&kwd=maternity nightgowns&tags=BA||||8601.347|Price|product|||MDC|rsf:gd-|-stype:attr=1|qr_nm:gd|res:RC4|com-cf:nl|ptrs:na|ktp:N0|mc:31787|mtp:S|qry_typ:P|lang:en|wc:2|cs:8842|v=4,False,sanganer,Jaipur,"Plot No F16 Shop No F-09 & 10 Sidhi Vinayak Plaza, Chordiya Petrol Pump Sanganer, sanganer, Jaipur - 302029, Dist.Jaipur, Rajasthan",7942962509,
"Blue Printed Maternity Cotton Nightgown, Half Sleeve, Size: XL",https://www.indiamart.com/proddetail/maternity-cotton-nightgown-2849622354188.html?pos=35&kwd=maternity nightgowns&tags=BA||||8211.142|Price|product|||MDC|rsf:gd-|-stype:attr=1|qr_nm:gd|res:RC4|com-cf:nl|ptrs:na|ktp:N0|mc:31787|mtp:S|qry_typ:P|lang:en|wc:2|cs:8842|v=4,Sarvodaya,https://www.indiamart.com/sarvodayamumbai/?pos=35&kwd=maternity nightgowns&tags=BA||||8211.142|Price|product|||MDC|rsf:gd-|-stype:attr=1|qr_nm:gd|res:RC4|com-cf:nl|ptrs:na|ktp:N0|mc:31787|mtp:S|qry_typ:P|lang:en|wc:2|cs:8842|v=4,False,Kandivali West,Mumbai,"305, Shree Nikunj Bldg. No. 2, Off. S. V. Road, Mumbai Suburban, Kandivali West, Mumbai - 400067, Dist.Mumbai, Maharashtra",7942793851,
Ladies Printed Maternity Kurti Rayon,https://www.indiamart.com/proddetail/ladies-printed-maternity-kurti-rayon-2852867681048.html?pos=36&kwd=maternity nightgowns&tags=BA||||8601.347|Price|product|||MDC|rsf:gd-|-stype:attr=1|qr_nm:gd|res:RC4|com-cf:nl|ptrs:na|ktp:N0|mc:31787|mtp:S|qry_typ:P|lang:en|wc:2|cs:8842|v=4,Silak Fashion Hub,https://www.indiamart.com/silak-fashion-hub/?pos=36&kwd=maternity nightgowns&tags=BA||||8601.347|Price|product|||MDC|rsf:gd-|-stype:attr=1|qr_nm:gd|res:RC4|com-cf:nl|ptrs:na|ktp:N0|mc:31787|mtp:S|qry_typ:P|lang:en|wc:2|cs:8842|v=4,False,Kundan Nagar,Jaipur,"64/361, Sector 6, RHB Pratap Nagar, Sanganer,, Kundan Nagar, Jaipur - 302033, Dist.Jaipur, Rajasthan",7942720255,
"Georgette Solid Ladies Maternity Gown, Sky Blue",https://www.indiamart.com/proddetail/ladies-maternity-gown-2853654965933.html?pos=37&kwd=maternity nightgowns&tags=BA||||8601.347|Price|product|||MDC|rsf:gd-|-stype:attr=1|qr_nm:gd|res:RC4|com-cf:nl|ptrs:na|ktp:N0|mc:31787|mtp:S|qry_typ:P|lang:en|wc:2|cs:8842|v=4,Hkfebexport,https://www.indiamart.com/hkfebexport/?pos=37&kwd=maternity nightgowns&tags=BA||||8601.347|Price|product|||MDC|rsf:gd-|-stype:attr=1|qr_nm:gd|res:RC4|com-cf:nl|ptrs:na|ktp:N0|mc:31787|mtp:S|qry_typ:P|lang:en|wc:2|cs:8842|v=4,False,Mansarovar,Jaipur,"Plot No. 10,Sumer Nagar-II, Mansarovar, Mansarovar, Jaipur - 302020, Dist.Jaipur, Rajasthan",8045168541,
"Three fourth sleeve Maternity Feeding Kurti, Size: L",https://www.indiamart.com/proddetail/ladies-grey-maternity-feeding-gown-2852706585455.html?pos=38&kwd=maternity nightgowns&tags=BA||||8601.347|Price|product|||MDC|rsf:gd-|-stype:attr=1|qr_nm:gd|res:RC4|com-cf:nl|ptrs:na|ktp:N0|mc:31787|mtp:S|qry_typ:P|lang:en|wc:2|cs:8842|v=4,Dazzle Hub,https://www.indiamart.com/dazzlehub/?pos=38&kwd=maternity nightgowns&tags=BA||||8601.347|Price|product|||MDC|rsf:gd-|-stype:attr=1|qr_nm:gd|res:RC4|com-cf:nl|ptrs:na|ktp:N0|mc:31787|mtp:S|qry_typ:P|lang:en|wc:2|cs:8842|v=4,False,Pratap Nagar,Jaipur,"Basement Floor, 86/SP-89, Kumbha Marg, Pratap Nagar, Sanganer, Pratap Nagar, Jaipur - 302033, Dist.Jaipur, Rajasthan",8048611932,
Printed Shaifali Brown Rayon Maternity Night Suit Set,https://www.indiamart.com/proddetail/brown-rayon-maternity-night-suit-2852598851562.html?pos=39&kwd=maternity nightgowns&tags=BA||||8601.347|Price|product|||MDC|rsf:gd-|-stype:attr=1|qr_nm:gd|res:RC4|com-cf:nl|ptrs:na|ktp:N0|mc:31787|mtp:S|qry_typ:P|lang:en|wc:2|cs:8842|v=4,Shaifali Fashions,https://www.indiamart.com/shaifali-fashions/?pos=39&kwd=maternity nightgowns&tags=BA||||8601.347|Price|product|||MDC|rsf:gd-|-stype:attr=1|qr_nm:gd|res:RC4|com-cf:nl|ptrs:na|ktp:N0|mc:31787|mtp:S|qry_typ:P|lang:en|wc:2|cs:8842|v=4,False,,Jaipur,"37-A,Pratap Nagar,Golimar Garden Ke Pichhe,Amer Road,Brahmpuri, Jaipur - 302002, Dist.Jaipur, Rajasthan",8045732152,
Maternity Feeding Gown,https://www.indiamart.com/proddetail/maternity-feeding-gown-2854488057197.html?pos=40&kwd=maternity nightgowns&tags=BA||||8601.347||product|||MDC|rsf:gd-|-stype:attr=1|qr_nm:gd|res:RC4|com-cf:nl|ptrs:na|ktp:N0|mc:31787|mtp:S|qry_typ:P|lang:en|wc:2|cs:8842|v=4,Sheffali,https://www.indiamart.com/sheffali/?pos=40&kwd=maternity nightgowns&tags=BA||||8601.347||product|||MDC|rsf:gd-|-stype:attr=1|qr_nm:gd|res:RC4|com-cf:nl|ptrs:na|ktp:N0|mc:31787|mtp:S|qry_typ:P|lang:en|wc:2|cs:8842|v=4,False,Ajmer Road,Jaipur,"C-61, Opp. Kabra Eye Hospital, Jamna Nagar, Sodala, Ajmer Road, Jaipur - 302006, Dist.Jaipur, Rajasthan",7942720926,
Maternity Nightgowns,,SR Clothing,https://www.indiamart.com/sr-clothing-tamilnadu/?pos=41&kwd=maternity nightgowns&tags=BA||||8626.744|Price|product|||MDC|rsf:gd-|-stype:attr=1|qr_nm:gd|res:RC4|com-cf:nl|ptrs:na|ktp:N0|mc:31787|mtp:S|qry_typ:P|lang:en|wc:2|cs:8842|v=4,False,Samalapuram,Tiruppur,"5/177-F1,,Jeeva Nagar 7th Street,Samalapuram, Samalapuram, Tiruppur - 641663, Dist.Coimbatore, Tamil Nadu",7949095886,
Printed Ladies Rayon White Maternity gowns,https://www.indiamart.com/proddetail/ladies-rayon-white-maternity-gowns-2853631268373.html?pos=42&kwd=maternity nightgowns&tags=A||||8206.306|Price|product|||NA|rsf:gd-|-stype:attr=1|qr_nm:gd|res:RC4|com-cf:nl|ptrs:na|ktp:N0|mc:31787|mtp:S|qry_typ:P|lang:en|wc:2|cs:8842|v=4,Mehta Creation,https://www.indiamart.com/mehta-creation-thane/?pos=42&kwd=maternity nightgowns&tags=A||||8206.306|Price|product|||NA|rsf:gd-|-stype:attr=1|qr_nm:gd|res:RC4|com-cf:nl|ptrs:na|ktp:N0|mc:31787|mtp:S|qry_typ:P|lang:en|wc:2|cs:8842|v=4,False,Bhayandar West,Bhayander West,"B 5, Amba Smruti, Maharana Pratap Road, Hanuman Mandir, Thane, Bhayandar West, Bhayander West - 401101, Maharashtra",8045166707,
Printed Purple Cotton Maternity Nightgown,https://www.indiamart.com/proddetail/purple-cotton-maternity-nightgown-2854315401533.html?pos=43&kwd=maternity nightgowns&tags=A||||8601.347|Price|product|||NA|rsf:gd-|-stype:attr=1|qr_nm:gd|res:RC4|com-cf:nl|ptrs:na|ktp:N0|mc:31787|mtp:S|qry_typ:P|lang:en|wc:2|cs:8842|v=4,Garima Fashion,https://www.indiamart.com/garimafashionjaipur/?pos=43&kwd=maternity nightgowns&tags=A||||8601.347|Price|product|||NA|rsf:gd-|-stype:attr=1|qr_nm:gd|res:RC4|com-cf:nl|ptrs:na|ktp:N0|mc:31787|mtp:S|qry_typ:P|lang:en|wc:2|cs:8842|v=4,False,,Jaipur,"93, Panchwati Colony, Block E, Kanwar Ka Baag, Sanganer Bazar, Sanganer, Jaipur - 302029, Dist.Jaipur, Rajasthan",8045734075,
"Printed Cotton Maternity Nightgowns, Blue And White, Size: Free Size",https://www.indiamart.com/proddetail/maternity-nightgowns-2849034755791.html?pos=44&kwd=maternity nightgowns&tags=BB||||8211.142|Price|product|||NA|rsf:gd-|-stype:attr=1|qr_nm:gd|res:RC4|com-cf:nl|ptrs:na|ktp:N0|mc:31787|mtp:S|qry_typ:P|lang:en|wc:2|cs:8842|v=4,Amber Traders,https://www.indiamart.com/amber-tradersmumbai/?pos=44&kwd=maternity nightgowns&tags=BB||||8211.142|Price|product|||NA|rsf:gd-|-stype:attr=1|qr_nm:gd|res:RC4|com-cf:nl|ptrs:na|ktp:N0|mc:31787|mtp:S|qry_typ:P|lang:en|wc:2|cs:8842|v=4,False,,Mumbai,"Shop No-2, Bk No-1848, Room No-1, Section-39, Ulhasnagar-5, Mumbai - 421005, Dist.Mumbai, Maharashtra",8047791162,
"Cotton Printed Maternity Nightgowns, multicolour",https://www.indiamart.com/proddetail/maternity-nightgowns-2854863786997.html?pos=45&kwd=maternity nightgowns&tags=BA||||8626.744|Price|product|||NA|rsf:gd-|-stype:attr=1|qr_nm:gd|res:RC4|com-cf:nl|ptrs:na|ktp:N0|mc:31787|mtp:S|qry_typ:P|lang:en|wc:2|cs:8842|v=4,Pechiamman Fabs,https://www.indiamart.com/pechiamman-fabs/?pos=45&kwd=maternity nightgowns&tags=BA||||8626.744|Price|product|||NA|rsf:gd-|-stype:attr=1|qr_nm:gd|res:RC4|com-cf:nl|ptrs:na|ktp:N0|mc:31787|mtp:S|qry_typ:P|lang:en|wc:2|cs:8842|v=4,False,T.N.K Puram,Tiruppur,"2/2, T.N.K Puram, Madhya Veedhi, Government Middle School, Thiru Neelakanda Puram, T.N.K Puram, Tiruppur - 641607, Dist.Coimbatore, Tamil Nadu",7942965923,
"Printed Cotton Maternity Gowns, Maroon",https://www.indiamart.com/proddetail/cotton-maternity-gowns-23980129830.html?pos=46&kwd=maternity nightgowns&tags=BB||||8601.347|Price|product|||NA|rsf:gd-|-stype:attr=1|qr_nm:gd|res:RC4|com-cf:nl|ptrs:na|ktp:N0|mc:31787|mtp:S|qry_typ:P|lang:en|wc:2|cs:8842|v=4,Privie Apparel Store,https://www.indiamart.com/privie-apparel-store/?pos=46&kwd=maternity nightgowns&tags=BB||||8601.347|Price|product|||NA|rsf:gd-|-stype:attr=1|qr_nm:gd|res:RC4|com-cf:nl|ptrs:na|ktp:N0|mc:31787|mtp:S|qry_typ:P|lang:en|wc:2|cs:8842|v=4,False,,Jaipur,"D-9, Shanti Path, Tilak Nagar, Jaipur - 302004, Dist.Jaipur, Rajasthan",8046068435,
"For N Beauty Women's Maternity/Feeding/Nursing Nighty - (Bust Size 38"" / Large Size) nightdress",https://www.indiamart.com/proddetail/for-n-beauty-women-s-maternity-feeding-nursing-nighty-bust-size-38-large-size-nightdress-2849107427791.html?pos=47&kwd=maternity nightgowns&tags=BB||||8546.662|Price|product|||NA|rsf:gd-|-stype:attr=1|qr_nm:gd|res:RC4|com-cf:nl|ptrs:na|ktp:N0|mc:31787|mtp:S|qry_typ:P|lang:en|wc:2|cs:8842|v=4,Bhavika Creation,https://www.indiamart.com/bhavika-creation-deoli/?pos=47&kwd=maternity nightgowns&tags=BB||||8546.662|Price|product|||NA|rsf:gd-|-stype:attr=1|qr_nm:gd|res:RC4|com-cf:nl|ptrs:na|ktp:N0|mc:31787|mtp:S|qry_typ:P|lang:en|wc:2|cs:8842|v=4,False,,Deoli,"8 Rashing Kunj, Phed Office Ke Pass, Behind Bus Stand Deoli, Deoli - 304804, Rajasthan",8047546596,
"Printed Ladies Rayon Maternity Gown, Grey And Pink",https://www.indiamart.com/proddetail/ladies-rayon-maternity-gown-27258348673.html?pos=48&kwd=maternity nightgowns&tags=BB||||8601.347|Price|product|||NA|rsf:gd-|-stype:attr=1|qr_nm:gd|res:RC4|com-cf:nl|ptrs:na|ktp:N0|mc:31787|mtp:S|qry_typ:P|lang:en|wc:2|cs:8842|v=4,Kamdev Export,https://www.indiamart.com/kamdevexport/?pos=48&kwd=maternity nightgowns&tags=BB||||8601.347|Price|product|||NA|rsf:gd-|-stype:attr=1|qr_nm:gd|res:RC4|com-cf:nl|ptrs:na|ktp:N0|mc:31787|mtp:S|qry_typ:P|lang:en|wc:2|cs:8842|v=4,False,,Jaipur,"Shop No 3, Khejron Ka Bas Balrampura, Mansarover, Jaipur - 302020, Dist.Jaipur, Rajasthan",7942675149,
Cotton Yellow Ladies Printed Maternity Gown,https://www.indiamart.com/proddetail/ladies-printed-maternity-gown-26520660488.html?pos=49&kwd=maternity nightgowns&tags=BB||||8601.347|Price|product|||NA|rsf:gd-|-stype:attr=1|qr_nm:gd|res:RC4|com-cf:nl|ptrs:na|ktp:N0|mc:31787|mtp:S|qry_typ:P|lang:en|wc:2|cs:8842|v=4,M/S Janvi Creation'S,https://www.indiamart.com/msjanvicreations/?pos=49&kwd=maternity nightgowns&tags=BB||||8601.347|Price|product|||NA|rsf:gd-|-stype:attr=1|qr_nm:gd|res:RC4|com-cf:nl|ptrs:na|ktp:N0|mc:31787|mtp:S|qry_typ:P|lang:en|wc:2|cs:8842|v=4,False,,Jaipur,"113/08, Ramthirath Marg, Vijay Path, Masarovar, Jaipur - 302020, Dist.Jaipur, Rajasthan",8048208958,
Women Maternity Gown,https://www.indiamart.com/proddetail/women-maternity-gown-24819118633.html?pos=50&kwd=maternity nightgowns&tags=BB||||8601.347||product|||NA|rsf:gd-|-stype:attr=1|qr_nm:gd|res:RC4|com-cf:nl|ptrs:na|ktp:N0|mc:31787|mtp:S|qry_typ:P|lang:en|wc:2|cs:8842|v=4,Tanishka Enterprises,https://www.indiamart.com/tanishkaenterprises-93654264/?pos=50&kwd=maternity nightgowns&tags=BB||||8601.347||product|||NA|rsf:gd-|-stype:attr=1|qr_nm:gd|res:RC4|com-cf:nl|ptrs:na|ktp:N0|mc:31787|mtp:S|qry_typ:P|lang:en|wc:2|cs:8842|v=4,False,Jaipur Rajasthan,Jaipur,"67/65 sector 6 Pratap Nagar Pratap Nagar Shipra Path, Jaipur Rajasthan, Jaipur - 302020, Dist.Jaipur, Rajasthan",8048250224,801
Feeding Maternity Gown,https://www.indiamart.com/proddetail/feeding-maternity-gown-2851885698312.html?pos=51&kwd=maternity nightgowns&tags=BA||||8601.347|Price|product|||NA|rsf:gd-|-stype:attr=1|qr_nm:gd|res:RC4|com-cf:nl|ptrs:na|ktp:N0|mc:31787|mtp:S|qry_typ:P|lang:en|wc:2|cs:8842|v=4,Sadhana Garments,https://www.indiamart.com/sadhanagarments-jaipur/?pos=51&kwd=maternity nightgowns&tags=BA||||8601.347|Price|product|||NA|rsf:gd-|-stype:attr=1|qr_nm:gd|res:RC4|com-cf:nl|ptrs:na|ktp:N0|mc:31787|mtp:S|qry_typ:P|lang:en|wc:2|cs:8842|v=4,False,Sanganer,Jaipur,"PNO 19,20,21, Vaishno Vihar III Block C, Kokawas, Sanganer, Sanganer, Jaipur - 302029, Dist.Jaipur, Rajasthan",8048616262,
"Yellow Women's Cotton Printed Maternity Dress, Size: Free Size, Sleeves: Half Sleeve",https://www.indiamart.com/proddetail/women-s-cotton-printed-maternity-dress-2850819878388.html?pos=52&kwd=maternity nightgowns&tags=BA||||8601.347|Price|product|||NA|rsf:gd-|-stype:attr=1|qr_nm:gd|res:RC4|com-cf:nl|ptrs:na|ktp:N0|mc:31787|mtp:S|qry_typ:P|lang:en|wc:2|cs:8842|v=4,Aaryahi Global,https://www.indiamart.com/aaryahiglobal/?pos=52&kwd=maternity nightgowns&tags=BA||||8601.347|Price|product|||NA|rsf:gd-|-stype:attr=1|qr_nm:gd|res:RC4|com-cf:nl|ptrs:na|ktp:N0|mc:31787|mtp:S|qry_typ:P|lang:en|wc:2|cs:8842|v=4,False,Bajaj Nagar,Jaipur,"BB-10 B, Road No-6, Anita Colony Bajaj Nagar, Bajaj Nagar, Jaipur - 302015, Dist.Jaipur, Rajasthan",8047549365,
"Poly Cotton Printed Maternity Gown, Blue",https://www.indiamart.com/proddetail/printed-maternity-gown-23477471173.html?pos=53&kwd=maternity nightgowns&tags=BB||||8211.142|Price|product|||NA|rsf:gd-|-stype:attr=1|qr_nm:gd|res:RC4|com-cf:nl|ptrs:na|ktp:N0|mc:31787|mtp:S|qry_typ:P|lang:en|wc:2|cs:8842|v=4,Make India Healthcare LLP,https://www.indiamart.com/makeindiahealthcare/?pos=53&kwd=maternity nightgowns&tags=BB||||8211.142|Price|product|||NA|rsf:gd-|-stype:attr=1|qr_nm:gd|res:RC4|com-cf:nl|ptrs:na|ktp:N0|mc:31787|mtp:S|qry_typ:P|lang:en|wc:2|cs:8842|v=4,False,Ghatkopar East,Mumbai,"26, Fourth Floor, Plot No. 92, A Wing Liberty, Garodia Nagar, Ghatkopar East, Ghatkopar East, Mumbai - 400077, Dist.Mumbai, Maharashtra",8046043116,
"Rayon Ladies Floral Printed Maternity Nightgown, Black (Base), Size: Medium",https://www.indiamart.com/proddetail/ladies-floral-printed-maternity-nightgown-2853932147173.html?pos=54&kwd=maternity nightgowns&tags=BA||||8228.275|Price|product|||NA|rsf:gd-|-stype:attr=1|qr_nm:gd|res:RC4|com-cf:nl|ptrs:na|ktp:N0|mc:31787|mtp:S|qry_typ:P|lang:en|wc:2|cs:8842|v=4,S R Traders,https://www.indiamart.com/srtraders-ahmedabad-india/?pos=54&kwd=maternity nightgowns&tags=BA||||8228.275|Price|product|||NA|rsf:gd-|-stype:attr=1|qr_nm:gd|res:RC4|com-cf:nl|ptrs:na|ktp:N0|mc:31787|mtp:S|qry_typ:P|lang:en|wc:2|cs:8842|v=4,False,Raipur,Ahmedabad,"S-9 ,Sindhi Market, South Revdi Bazar, Raipur, Ahmedabad - 380002, Dist.Ahmedabad, Gujarat",8044565846,
Plain White Maternity Nursing Nightgown,https://www.indiamart.com/proddetail/maternity-nursing-nightgown-21384206773.html?pos=55&kwd=maternity nightgowns&tags=BB||||8507.67||product|||NA|rsf:gd-|-stype:attr=1|qr_nm:gd|res:RC4|com-cf:nl|ptrs:na|ktp:N0|mc:31787|mtp:S|qry_typ:P|lang:en|wc:2|cs:8842|v=4,Jewish Apparel & Accessories,https://www.indiamart.com/jewish-apparel-accessories/?pos=55&kwd=maternity nightgowns&tags=BB||||8507.67||product|||NA|rsf:gd-|-stype:attr=1|qr_nm:gd|res:RC4|com-cf:nl|ptrs:na|ktp:N0|mc:31787|mtp:S|qry_typ:P|lang:en|wc:2|cs:8842|v=4,False,,Ernakulam,"32/324-A, Ladlee Towers, Vailopilly Road, Near Puthiya Road Junction, Thammanam PO, Ernakulam - 682032, Dist.Ernakulam, Kerala",8069033778,108
Maternity Gown,https://www.indiamart.com/proddetail/maternity-gown-2851924608433.html?pos=56&kwd=maternity nightgowns&tags=BA||||8559.269|Price|product|||NA|rsf:gd-|-stype:attr=1|qr_nm:gd|res:RC4|com-cf:nl|ptrs:na|ktp:N0|mc:31787|mtp:S|qry_typ:P|lang:en|wc:2|cs:8842|v=4,Get Easy Enterprises,https://www.indiamart.com/get-easy-enterprises/?pos=56&kwd=maternity nightgowns&tags=BA||||8559.269|Price|product|||NA|rsf:gd-|-stype:attr=1|qr_nm:gd|res:RC4|com-cf:nl|ptrs:na|ktp:N0|mc:31787|mtp:S|qry_typ:P|lang:en|wc:2|cs:8842|v=4,False,INDORE,Indore,"FF/12,Shopping Complex - A, A.B Road,Indore 452010, INDORE, Indore - 452010, Dist.Indore, Madhya Pradesh",8069017409,474
Light Grey (Base Color) Cotton Printed Maternity Gown,https://www.indiamart.com/proddetail/cotton-printed-maternity-gown-12936472562.html?pos=57&kwd=maternity nightgowns&tags=BB||||8211.142||product|||NA|rsf:gd-|-stype:attr=1|qr_nm:gd|res:RC4|com-cf:nl|ptrs:na|ktp:N0|mc:31787|mtp:S|qry_typ:P|lang:en|wc:2|cs:8842|v=4,Mothers 2 B NX,https://www.indiamart.com/mothers-2bnx/?pos=57&kwd=maternity nightgowns&tags=BB||||8211.142||product|||NA|rsf:gd-|-stype:attr=1|qr_nm:gd|res:RC4|com-cf:nl|ptrs:na|ktp:N0|mc:31787|mtp:S|qry_typ:P|lang:en|wc:2|cs:8842|v=4,False,Santacruz West,Mumbai,"No. 37, Vazir Chawl, Bhim Wada, SV Road, Santacruz West, Mumbai - 400054, Dist.Mumbai, Maharashtra",8048972477,
"Grey Round Neck Maternity Nighty, Sleeves: Half Sleeve",https://www.indiamart.com/proddetail/grey-round-neck-maternity-nighty-26225536591.html?pos=58&kwd=maternity nightgowns&tags=BB||||8601.347||product|||NA|rsf:gd-|-stype:attr=1|qr_nm:gd|res:RC4|com-cf:nl|ptrs:na|ktp:N0|mc:31787|mtp:S|qry_typ:P|lang:en|wc:2|cs:8842|v=4,J.P. Creations,https://www.indiamart.com/jpcreationsjaipur/?pos=58&kwd=maternity nightgowns&tags=BB||||8601.347||product|||NA|rsf:gd-|-stype:attr=1|qr_nm:gd|res:RC4|com-cf:nl|ptrs:na|ktp:N0|mc:31787|mtp:S|qry_typ:P|lang:en|wc:2|cs:8842|v=4,False,,Jaipur,"Bawadi Ka Bass, Teja Ji Ka Bada, Sanganer, Jaipur - 302029, Dist.Jaipur, Rajasthan",8043850924,
"Alpine Printed Ladies Maternity Night Gown, Maroon",https://www.indiamart.com/proddetail/ladies-maternity-night-gown-2853080464612.html?pos=59&kwd=maternity nightgowns&tags=BB||||8242.731|Price|product|||NA|rsf:gd-|-stype:attr=1|qr_nm:gd|res:RC4|com-cf:nl|ptrs:na|ktp:N0|mc:31787|mtp:S|qry_typ:P|lang:en|wc:2|cs:8842|v=4,Mahaveer Enterprises,https://www.indiamart.com/mahaveerenterprisesmaharashtra/?pos=59&kwd=maternity nightgowns&tags=BB||||8242.731|Price|product|||NA|rsf:gd-|-stype:attr=1|qr_nm:gd|res:RC4|com-cf:nl|ptrs:na|ktp:N0|mc:31787|mtp:S|qry_typ:P|lang:en|wc:2|cs:8842|v=4,False,Vithalwadi,Ulhasnagar,"BK No. 703, Room No. 5,6, Opp. Central Police Station, Central Hospital Area, Vithalwadi, Ulhasnagar - 421003, Dist.Thane, Maharashtra",8048269541,
"Printed Cotton Maternity Gowns, Maroon Base",https://www.indiamart.com/proddetail/cotton-maternity-gowns-26151004633.html?pos=60&kwd=maternity nightgowns&tags=BB||||8601.347|Price|product|||NA|rsf:gd-|-stype:attr=1|qr_nm:gd|res:RC4|com-cf:nl|ptrs:na|ktp:N0|mc:31787|mtp:S|qry_typ:P|lang:en|wc:2|cs:8842|v=4,HRK Industries,https://www.indiamart.com/hrkindustries/?pos=60&kwd=maternity nightgowns&tags=BB||||8601.347|Price|product|||NA|rsf:gd-|-stype:attr=1|qr_nm:gd|res:RC4|com-cf:nl|ptrs:na|ktp:N0|mc:31787|mtp:S|qry_typ:P|lang:en|wc:2|cs:8842|v=4,False,Jaipur,Jaipur,"39, Amangal Vihar-a Kalyanpura, Sanganer, Jaipur, Jaipur - 302020, Dist.Jaipur, Rajasthan",8043861478,
MATERNITY NIGHT GOWNS FOR WOMENS 100% PURE COTTON (FREE) FRILL NIGHTIES IN EODE,https://www.indiamart.com/proddetail/maternity-night-gowns-for-womens-100-pure-cotton-free-frill-nighties-in-eode-2851651140312.html?pos=61&kwd=maternity nightgowns&tags=BA||||8668.838|Price|product|||NA|rsf:gd-|-stype:attr=1|qr_nm:gd|res:RC4|com-cf:nl|ptrs:na|ktp:N0|mc:31787|mtp:S|qry_typ:P|lang:en|wc:2|cs:8842|v=4,Finito Apparels,https://www.indiamart.com/finitoapparels/?pos=61&kwd=maternity nightgowns&tags=BA||||8668.838|Price|product|||NA|rsf:gd-|-stype:attr=1|qr_nm:gd|res:RC4|com-cf:nl|ptrs:na|ktp:N0|mc:31787|mtp:S|qry_typ:P|lang:en|wc:2|cs:8842|v=4,False,Veerapampalayam,Erode,"60/37 Veerappan Palayam Pannai Nagar Thindal, Veerapampalayam, Erode - 638012, Dist.Erode, Tamil Nadu",8046063709,
"Printed Ladies Cotton Feeding Nighties, Blue",https://www.indiamart.com/proddetail/ladies-cotton-feeding-nighties-24148814373.html?pos=62&kwd=maternity nightgowns&tags=BB||||8668.838|Price|product|||NA|rsf:gd-|-stype:attr=1|qr_nm:gd|res:RC4|com-cf:nl|ptrs:na|ktp:N0|mc:31787|mtp:S|qry_typ:P|lang:en|wc:2|cs:8842|v=4,Anto Garments,https://www.indiamart.com/antogarments/?pos=62&kwd=maternity nightgowns&tags=BB||||8668.838|Price|product|||NA|rsf:gd-|-stype:attr=1|qr_nm:gd|res:RC4|com-cf:nl|ptrs:na|ktp:N0|mc:31787|mtp:S|qry_typ:P|lang:en|wc:2|cs:8842|v=4,False,,Erode,"58/3, Ramamoorthi Nagar, Karungalpalayam, Erode - 638003, Dist.Erode, Tamil Nadu",8045907298,
Cotton Printed Pink Floral Maternity Gown,https://www.indiamart.com/proddetail/pink-floral-maternity-gown-24765489488.html?pos=63&kwd=maternity nightgowns&tags=BB||||8571.301||product|||NA|rsf:gd-|-stype:attr=1|qr_nm:gd|res:RC4|com-cf:nl|ptrs:na|ktp:N0|mc:31787|mtp:S|qry_typ:P|lang:en|wc:2|cs:8842|v=4,Mommies,https://www.indiamart.com/mommies-thiruvananthapuram/?pos=63&kwd=maternity nightgowns&tags=BB||||8571.301||product|||NA|rsf:gd-|-stype:attr=1|qr_nm:gd|res:RC4|com-cf:nl|ptrs:na|ktp:N0|mc:31787|mtp:S|qry_typ:P|lang:en|wc:2|cs:8842|v=4,False,Kowdiar,Thiruvananthapuram,"TC 24/3088, Dotspace Business Center, Ushasandya Building Devasom Board Road, Kowdiar, Thiruvananthapuram - 695003, Dist.Thiruvananthapuram, Kerala",8048268238,
"Grey Printed Cotton Ladies Nightgown, Half Sleeve",https://www.indiamart.com/proddetail/grey-printed-cotton-ladies-nightgown-2851771840991.html?pos=64&kwd=maternity nightgowns&tags=BA||||8601.347|Price|product|||NA|rsf:gd-|-stype:attr=1|qr_nm:gd|res:RC4|com-cf:nl|ptrs:na|ktp:N0|mc:31787|mtp:S|qry_typ:P|lang:en|wc:2|cs:8842|v=4,Shri Shyam Prints,https://www.indiamart.com/shrishyam-prints-jaipur/?pos=64&kwd=maternity nightgowns&tags=BA||||8601.347|Price|product|||NA|rsf:gd-|-stype:attr=1|qr_nm:gd|res:RC4|com-cf:nl|ptrs:na|ktp:N0|mc:31787|mtp:S|qry_typ:P|lang:en|wc:2|cs:8842|v=4,False,Shri Rampura,Jaipur,"Bramahano Ka Mohalla, Sanganer,, Shri Rampura, Jaipur - 302029, Dist.Jaipur, Rajasthan",7942875123,
Manufacturer of Women Labour/Delivery/Maternity Nursing gowns for Hospital Breastfeeding dresses,https://www.indiamart.com/proddetail/manufacturer-of-women-labour-delivery-maternity-nursing-gowns-for-hospital-breastfeeding-dresses-2848956450491.html?pos=65&kwd=maternity nightgowns&tags=BB||||8752.144|Price|product|||NA|rsf:gd-|-stype:attr=1|qr_nm:gd|res:RC4|com-cf:nl|ptrs:na|ktp:N0|mc:31787|mtp:S|qry_typ:P|lang:en|wc:2|cs:8842|v=4,Saanvi Inc.,https://www.indiamart.com/saanviinc/?pos=65&kwd=maternity nightgowns&tags=BB||||8752.144|Price|product|||NA|rsf:gd-|-stype:attr=1|qr_nm:gd|res:RC4|com-cf:nl|ptrs:na|ktp:N0|mc:31787|mtp:S|qry_typ:P|lang:en|wc:2|cs:8842|v=4,False,,New Delhi,"A-802, Ground Floor, Rohtak Road, Opposite Udyog Nagar Metro Station, Gate No. 1, New Delhi - 110041, Dist.Delhi, Delhi",8069196715,748
"Printed Ladies Mother Nighty (fedding nighty or maternity nighty), Free Size, Cotton",https://www.indiamart.com/proddetail/ladies-mother-nighty-fedding-nighty-or-maternity-nighty-25451632888.html?pos=66&kwd=maternity nightgowns&tags=B||||8223.226|Price|product|||NA|rsf:gd-|-stype:attr=1|qr_nm:gd|res:RC4|com-cf:nl|ptrs:na|ktp:N0|mc:31787|mtp:S|qry_typ:P|lang:en|wc:2|cs:8842|v=4,Lucky Maxi,https://www.indiamart.com/lucky-maxi/?pos=66&kwd=maternity nightgowns&tags=B||||8223.226|Price|product|||NA|rsf:gd-|-stype:attr=1|qr_nm:gd|res:RC4|com-cf:nl|ptrs:na|ktp:N0|mc:31787|mtp:S|qry_typ:P|lang:en|wc:2|cs:8842|v=4,False,Kailash Colony,Thane,"NEAR BK NO. 1855,ROOM NO. 10,, SECTION- 39, ULHASNAGAR, Kailash Colony, Thane - 421005, Dist.Thane, Maharashtra",8043853414,
"Printed Maternity Feeding Gown, Three fourth sleeve",https://www.indiamart.com/proddetail/maternity-feeding-gown-2853742563112.html?pos=67&kwd=maternity nightgowns&tags=BA||||8230.883|Price|product|||NA|rsf:gd-|-stype:attr=1|qr_nm:gd|res:RC4|com-cf:nl|ptrs:na|ktp:N0|mc:31787|mtp:S|qry_typ:P|lang:en|wc:2|cs:8842|v=4,Bansi Enterprise,https://www.indiamart.com/bansienterprise/?pos=67&kwd=maternity nightgowns&tags=BA||||8230.883|Price|product|||NA|rsf:gd-|-stype:attr=1|qr_nm:gd|res:RC4|com-cf:nl|ptrs:na|ktp:N0|mc:31787|mtp:S|qry_typ:P|lang:en|wc:2|cs:8842|v=4,False,Hirabaugh,Surat,"145, Krishna Park Society, NR.Gelambe Mandir,Kamraj,, Hirabaugh, Surat - 394180, Dist.Surat, Gujarat",7942620842,
"Blue Printed Maternity Cotton Nighties, 3/4 Sleeve",https://www.indiamart.com/proddetail/maternity-cotton-nighties-2849889182597.html?pos=68&kwd=maternity nightgowns&tags=BB||||8601.347|Price|product|||NA|rsf:gd-|-stype:attr=1|qr_nm:gd|res:RC4|com-cf:nl|ptrs:na|ktp:N0|mc:31787|mtp:S|qry_typ:P|lang:en|wc:2|cs:8842|v=4,Priya Collection,https://www.indiamart.com/priyacollectionjaipur/?pos=68&kwd=maternity nightgowns&tags=BB||||8601.347|Price|product|||NA|rsf:gd-|-stype:attr=1|qr_nm:gd|res:RC4|com-cf:nl|ptrs:na|ktp:N0|mc:31787|mtp:S|qry_typ:P|lang:en|wc:2|cs:8842|v=4,False,,Jaipur,"125, AGRA ROAD, Jaipur - 303012, Dist.Jaipur, Rajasthan",8047543036,
Printed Women Cotton Maternity Nightgown,https://www.indiamart.com/proddetail/women-cotton-maternity-nightgown-27015891888.html?pos=69&kwd=maternity nightgowns&tags=BB||||8706.587|Price|product|||NA|rsf:gd-|-stype:attr=1|qr_nm:gd|res:RC4|com-cf:nl|ptrs:na|ktp:N0|mc:31787|mtp:S|qry_typ:P|lang:en|wc:2|cs:8842|v=4,Thoorigai Textile,https://www.indiamart.com/thoorigai-textile-madurai/?pos=69&kwd=maternity nightgowns&tags=BB||||8706.587|Price|product|||NA|rsf:gd-|-stype:attr=1|qr_nm:gd|res:RC4|com-cf:nl|ptrs:na|ktp:N0|mc:31787|mtp:S|qry_typ:P|lang:en|wc:2|cs:8842|v=4,False,,Madurai,"No. 1/4, Ground Floor, Avayyar Street, Narimedu, Madurai - 625002, Dist.Madurai, Tamil Nadu",8043891530,
Maternity Nighty,,Manu Garments,https://www.indiamart.com/manu-garments-thodupuzha/?pos=70&kwd=maternity nightgowns&tags=BB||||8553.468|Price|product|||NA|rsf:gd-|-stype:attr=1|qr_nm:gd|res:RC4|com-cf:nl|ptrs:na|ktp:N0|mc:31787|mtp:S|qry_typ:P|lang:en|wc:2|cs:8842|v=4,False,,Thodupuzha,"Viii/169a,169b Ezhumuttom, Thodupuzha - 685605, Dist.Idukki, Kerala",8048371764,228
Women's Maternity Gown,,Jp Creation,https://www.indiamart.com/jp-creation-jaipur/?pos=71&kwd=maternity nightgowns&tags=BA||||8601.347|Price|product|||NA|rsf:gd-|-stype:attr=1|qr_nm:gd|res:RC4|com-cf:nl|ptrs:na|ktp:N0|mc:31787|mtp:S|qry_typ:P|lang:en|wc:2|cs:8842|v=4,False,,Jaipur,"Khasra No 4030 105 Khokhawas Tulsi Nagar, Jaipur - 302029, Dist.Jaipur, Rajasthan",8047308885,9629
Ladies Maternity Nightgowns,https://www.indiamart.com/proddetail/ladies-maternity-nightgowns-2852993484648.html?pos=72&kwd=maternity nightgowns&tags=CC||||8242.731|Price|product|||MDC|rsf:gd-|-stype:attr=1|qr_nm:gd|res:RC4|com-cf:nl|ptrs:na|ktp:N0|mc:31787|mtp:S|qry_typ:P|lang:en|wc:2|cs:8842|v=4,Shree Ganesh Traders,https://www.indiamart.com/shree-ganeshtraders-ulhasnagar/?pos=72&kwd=maternity nightgowns&tags=CC||||8242.731|Price|product|||MDC|rsf:gd-|-stype:attr=1|qr_nm:gd|res:RC4|com-cf:nl|ptrs:na|ktp:N0|mc:31787|mtp:S|qry_typ:P|lang:en|wc:2|cs:8842|v=4,False,Kailash Colony,Ulhasnagar,"Room No. 3, BRK No.1838, Section 39, Near Axis Bank, Thane, Kailash Colony, Ulhasnagar - 421005, Dist.Thane, Maharashtra",7942968863,
Women Printed Maternity Dress,https://www.indiamart.com/proddetail/women-printed-maternity-dress-2853701165262.html?pos=73&kwd=maternity nightgowns&tags=CC||||8752.144|Price|product|||MDC|rsf:gd-|-stype:attr=1|qr_nm:gd|res:RC4|com-cf:nl|ptrs:na|ktp:N0|mc:31787|mtp:S|qry_typ:P|lang:en|wc:2|cs:8842|v=4,Ekaavali,https://www.indiamart.com/ekaavali/?pos=73&kwd=maternity nightgowns&tags=CC||||8752.144|Price|product|||MDC|rsf:gd-|-stype:attr=1|qr_nm:gd|res:RC4|com-cf:nl|ptrs:na|ktp:N0|mc:31787|mtp:S|qry_typ:P|lang:en|wc:2|cs:8842|v=4,False,Palam,New Delhi,"Flat No-263, Excellence Apartments, Sector 18A, Dwarka, Palam, New Delhi - 110075, Dist.Delhi, Delhi",7949095107,
"Printed Maternity Nightgowns, Multicolor",https://www.indiamart.com/proddetail/maternity-nightgowns-25690373955.html?pos=74&kwd=maternity nightgowns&tags=CC||||8228.275|Price|product|||TS|rsf:gd-|-stype:attr=1|qr_nm:gd|res:RC4|com-cf:nl|ptrs:na|ktp:N0|mc:31787|mtp:S|qry_typ:P|lang:en|wc:2|cs:8842|v=4,J.D.Fashion,https://www.indiamart.com/jd-fashion-gujarat/?pos=74&kwd=maternity nightgowns&tags=CC||||8228.275|Price|product|||TS|rsf:gd-|-stype:attr=1|qr_nm:gd|res:RC4|com-cf:nl|ptrs:na|ktp:N0|mc:31787|mtp:S|qry_typ:P|lang:en|wc:2|cs:8842|v=4,False,Vastral,Ahmedabad,"347,Maheshvari Nagar, Part 1 C.H.S., Rajvi Nagar Odhav, Vastral, Ahmedabad - 382415, Dist.Ahmedabad, Gujarat",8046061235,
"Ladies Pure Cotton Printed Maternity Nightgowns, Blue(Base)",https://www.indiamart.com/proddetail/ladies-pure-cotton-printed-maternity-nightgowns-2854047965691.html?pos=75&kwd=maternity nightgowns&tags=CC||||8601.347|Price|product|||TS|rsf:gd-|-stype:attr=1|qr_nm:gd|res:RC4|com-cf:nl|ptrs:na|ktp:N0|mc:31787|mtp:S|qry_typ:P|lang:en|wc:2|cs:8842|v=4,Rushi Creation,https://www.indiamart.com/rushicreationjaipur/?pos=75&kwd=maternity nightgowns&tags=CC||||8601.347|Price|product|||TS|rsf:gd-|-stype:attr=1|qr_nm:gd|res:RC4|com-cf:nl|ptrs:na|ktp:N0|mc:31787|mtp:S|qry_typ:P|lang:en|wc:2|cs:8842|v=4,False,Sanganer,Jaipur,"Showroom No.G-24,Ground Floor,Fagna Plaza,Nagar Nigam Road,Jaipur, Sanganer, Jaipur - 302029, Dist.Jaipur, Rajasthan",8044562714,
"Stitched Maternity Uniforms, Machine wash",https://www.indiamart.com/proddetail/maternity-maxi-dress-2853965613912.html?pos=76&kwd=maternity nightgowns&tags=CC||||8741.812|Price|product|||TS|rsf:gd-|-stype:attr=1|qr_nm:gd|res:RC4|com-cf:nl|ptrs:na|ktp:N0|mc:31787|mtp:S|qry_typ:P|lang:en|wc:2|cs:8842|v=4,Apothecaries Sundries Mfg. Private Limited,https://www.ascoindia.com/?pos=76&kwd=maternity nightgowns&tags=CC||||8741.812|Price|product|||TS|rsf:gd-|-stype:attr=1|qr_nm:gd|res:RC4|com-cf:nl|ptrs:na|ktp:N0|mc:31787|mtp:S|qry_typ:P|lang:en|wc:2|cs:8842|v=4,True,Sector 18,Gurugram,"Plot No. 229, Udyog Vihar, Phase-IV, Sector 18, Gurugram - 122015, Dist.Gurgaon, Haryana",8048968234,
Printed Sky Blue Cotton Ladies Maternity Nightgown,https://www.indiamart.com/proddetail/sky-blue-cotton-ladies-maternity-nightgown-2853894779930.html?pos=77&kwd=maternity nightgowns&tags=CC||||8788.159|Price|product|||MDC|rsf:gd-|-stype:attr=1|qr_nm:gd|res:RC4|com-cf:nl|ptrs:na|ktp:N0|mc:31787|mtp:S|qry_typ:P|lang:en|wc:2|cs:8842|v=4,AR Fashions,https://www.indiamart.com/arfashions-secunderabad/?pos=77&kwd=maternity nightgowns&tags=CC||||8788.159|Price|product|||MDC|rsf:gd-|-stype:attr=1|qr_nm:gd|res:RC4|com-cf:nl|ptrs:na|ktp:N0|mc:31787|mtp:S|qry_typ:P|lang:en|wc:2|cs:8842|v=4,False,Hasmathpet,Secunderabad,"9-3-30/2B, Hasmathpet, Old Bowenpally, Hyderabad,, Hasmathpet, Secunderabad - 500009, Dist.Hyderabad, Telangana",8044015247,
"Cotton Ladies Printed Maternity Nightgown, Red",https://www.indiamart.com/proddetail/ladies-printed-maternity-nightgown-2854159710797.html?pos=78&kwd=maternity nightgowns&tags=CC||||8230.883|Price|product|||MDC|rsf:gd-|-stype:attr=1|qr_nm:gd|res:RC4|com-cf:nl|ptrs:na|ktp:N0|mc:31787|mtp:S|qry_typ:P|lang:en|wc:2|cs:8842|v=4,M R Attires,https://www.indiamart.com/m-r-attires/?pos=78&kwd=maternity nightgowns&tags=CC||||8230.883|Price|product|||MDC|rsf:gd-|-stype:attr=1|qr_nm:gd|res:RC4|com-cf:nl|ptrs:na|ktp:N0|mc:31787|mtp:S|qry_typ:P|lang:en|wc:2|cs:8842|v=4,False,,Surat,"4th, 408, Creation Plaza 2, Puna Bombay Market Road, Vaishali Vada Pav, Punagam,, Surat - 395010, Dist.Surat, Gujarat",8045732087,
Cotton Solid Ladies Pink Maternity Nightgown,https://www.indiamart.com/proddetail/ladies-pink-maternity-nightgown-2853305606273.html?pos=79&kwd=maternity nightgowns&tags=CC||||8228.275|Price|product|||MDC|rsf:gd-|-stype:attr=1|qr_nm:gd|res:RC4|com-cf:nl|ptrs:na|ktp:N0|mc:31787|mtp:S|qry_typ:P|lang:en|wc:2|cs:8842|v=4,Mayur Lifestyle,https://www.indiamart.com/mayur-lifestyle-gujarat/?pos=79&kwd=maternity nightgowns&tags=CC||||8228.275|Price|product|||MDC|rsf:gd-|-stype:attr=1|qr_nm:gd|res:RC4|com-cf:nl|ptrs:na|ktp:N0|mc:31787|mtp:S|qry_typ:P|lang:en|wc:2|cs:8842|v=4,False,Saraspur,Ahmedabad,"First Floor, Block F-1, Sumel 10, Saraspur Road, Saraspur, Ahmedabad - 380018, Dist.Ahmedabad, Gujarat",7942966913,
"Ladies Cotton Printed Maternity Feeding Gown, Three fourth sleeve",https://www.indiamart.com/proddetail/ladies-cotton-printed-maternity-feeding-gown-19121485233.html?pos=80&kwd=maternity nightgowns&tags=CC||||8601.347|Price|product|||MDC|rsf:gd-|-stype:attr=1|qr_nm:gd|res:RC4|com-cf:nl|ptrs:na|ktp:N0|mc:31787|mtp:S|qry_typ:P|lang:en|wc:2|cs:8842|v=4,Shivam Enterprises,https://www.indiamart.com/shivamenterprisesrampur/?pos=80&kwd=maternity nightgowns&tags=CC||||8601.347|Price|product|||MDC|rsf:gd-|-stype:attr=1|qr_nm:gd|res:RC4|com-cf:nl|ptrs:na|ktp:N0|mc:31787|mtp:S|qry_typ:P|lang:en|wc:2|cs:8842|v=4,False,Mansarovar,Jaipur,"Polt No 1 ,Pratap Vihar ,Rampura Road ,Sanganer, Mansarovar, Jaipur - 302029, Dist.Jaipur, Rajasthan",7949226911,
"Printed Hosiery KuuKee Maternity Gown, Cream",https://www.indiamart.com/proddetail/kuukee-maternity-gown-21696437212.html?pos=81&kwd=maternity nightgowns&tags=||||8211.142|Price|product|||TS|rsf:gd-|-stype:attr=1|qr_nm:gd|res:RC4|com-cf:nl|ptrs:na|ktp:N0|mc:31787|mtp:S|qry_typ:P|lang:en|wc:2|cs:8842|v=4,Anmol Hosiery,https://www.indiamart.com/anmolhosiery/?pos=81&kwd=maternity nightgowns&tags=||||8211.142|Price|product|||TS|rsf:gd-|-stype:attr=1|qr_nm:gd|res:RC4|com-cf:nl|ptrs:na|ktp:N0|mc:31787|mtp:S|qry_typ:P|lang:en|wc:2|cs:8842|v=4,False,Borivali East,Mumbai,"24/173, Kuldeep Society, Borivali East, Borivali East, Mumbai - 400066, Dist.Mumbai, Maharashtra",8048987762,
Ladies Black Feeding Cotton Nightgown,https://www.indiamart.com/proddetail/ladies-black-feeding-cotton-nightgown-2851974738255.html?pos=82&kwd=maternity nightgowns&tags=||||8242.731|Price|product|||MDC|rsf:gd-|-stype:attr=1|qr_nm:gd|res:RC4|com-cf:nl|ptrs:na|ktp:N0|mc:31787|mtp:S|qry_typ:P|lang:en|wc:2|cs:8842|v=4,Shanaya Garments,https://www.indiamart.com/shanayagarments/?pos=82&kwd=maternity nightgowns&tags=||||8242.731|Price|product|||MDC|rsf:gd-|-stype:attr=1|qr_nm:gd|res:RC4|com-cf:nl|ptrs:na|ktp:N0|mc:31787|mtp:S|qry_typ:P|lang:en|wc:2|cs:8842|v=4,False,Ulhasnagar-5,Ulhasnagar,"BRK No. 2108, Shivaji Chawl No 01, Near Lalchakki, Ulhasnagar-5, Ulhasnagar - 421005, Dist.Thane, Maharashtra",8044460414,
"Hosiery Printed NIGHT SUITS IMPORTED, MIX, Semi-Stretchable",https://www.indiamart.com/proddetail/night-suits-imported-2850323364733.html?pos=83&kwd=maternity nightgowns&tags=||||8661.854|Price|product|||TS|rsf:gd-|-stype:attr=1|qr_nm:gd|res:RC4|com-cf:nl|ptrs:na|ktp:N0|mc:31787|mtp:S|qry_typ:P|lang:en|wc:2|cs:8842|v=4,R K Products,https://www.nightpartner.in/?pos=83&kwd=maternity nightgowns&tags=||||8661.854|Price|product|||TS|rsf:gd-|-stype:attr=1|qr_nm:gd|res:RC4|com-cf:nl|ptrs:na|ktp:N0|mc:31787|mtp:S|qry_typ:P|lang:en|wc:2|cs:8842|v=4,False,Dev Nagar,Ludhiana,"Shop Number 2, 8&10, Chaura Bazar Factory Near Samrala Chownk & H.NO. 1450 NEW CHANDER NAGAR ST. NO.7 OPP. D.M.C HOSPITAL BASSI NURSING HOMEST, Dev Nagar, Ludhiana - 141001, Dist.Ludhiana, Punjab",8047638898,
Cotton Maternity Gowns,https://www.indiamart.com/proddetail/cotton-maternity-gowns-2852153611497.html?pos=84&kwd=maternity nightgowns&tags=||||8601.347|Price|product|||TS|rsf:gd-|-stype:attr=1|qr_nm:gd|res:RC4|com-cf:nl|ptrs:na|ktp:N0|mc:31787|mtp:S|qry_typ:P|lang:en|wc:2|cs:8842|v=4,Pooja Trends,https://www.indiamart.com/poojatrends-jaipur/?pos=84&kwd=maternity nightgowns&tags=||||8601.347|Price|product|||TS|rsf:gd-|-stype:attr=1|qr_nm:gd|res:RC4|com-cf:nl|ptrs:na|ktp:N0|mc:31787|mtp:S|qry_typ:P|lang:en|wc:2|cs:8842|v=4,False,Sanganer Jaipur,Jaipur,"Nk Tower , Shop no. 3 Nagar Nigam Road, Sanganer Jaipur, Jaipur - 302029, Dist.Jaipur, Rajasthan",8048211271,
Ladies Maternity Gown,https://www.indiamart.com/proddetail/ladies-maternity-gown-2852153436812.html?pos=85&kwd=maternity nightgowns&tags=||||8601.347|Price|product|||TS|rsf:gd-|-stype:attr=1|qr_nm:gd|res:RC4|com-cf:nl|ptrs:na|ktp:N0|mc:31787|mtp:S|qry_typ:P|lang:en|wc:2|cs:8842|v=4,Luxury Fashion,https://www.indiamart.com/luxury-fashion/?pos=85&kwd=maternity nightgowns&tags=||||8601.347|Price|product|||TS|rsf:gd-|-stype:attr=1|qr_nm:gd|res:RC4|com-cf:nl|ptrs:na|ktp:N0|mc:31787|mtp:S|qry_typ:P|lang:en|wc:2|cs:8842|v=4,False,Sanganer Bazar,Jaipur,"Plot No 13, Suraj Nagar, Dadabadi, Sanganer,, Sanganer Bazar, Jaipur - 302029, Dist.Jaipur, Rajasthan",7942707166,
"Small Maternity Feeding Kurti, Printed",https://www.indiamart.com/proddetail/maternity-feeding-kurti-2854862134191.html?pos=86&kwd=maternity nightgowns&tags=||||8230.883|Price|product|||TS|rsf:gd-|-stype:attr=1|qr_nm:gd|res:RC4|com-cf:nl|ptrs:na|ktp:N0|mc:31787|mtp:S|qry_typ:P|lang:en|wc:2|cs:8842|v=4,Fashion Gaon,https://www.indiamart.com/fashiongaon/?pos=86&kwd=maternity nightgowns&tags=||||8230.883|Price|product|||TS|rsf:gd-|-stype:attr=1|qr_nm:gd|res:RC4|com-cf:nl|ptrs:na|ktp:N0|mc:31787|mtp:S|qry_typ:P|lang:en|wc:2|cs:8842|v=4,False,Shashwat Plaza Parvat Patiya,Surat,"Shashwat Plaza, Puna Brts,Canal Road, 7600124242, Shashwat Plaza Parvat Patiya, Surat - 395010, Dist.Surat, Gujarat",7942710160,
"Printed Ladies Valentino Top Pant Set, Sleeveless, Multicolor",https://www.indiamart.com/proddetail/ladies-valentino-top-pant-set-2853180786997.html?pos=87&kwd=maternity nightgowns&tags=||||8230.883|Price|product|||MDC|rsf:gd-|-stype:attr=1|qr_nm:gd|res:RC4|com-cf:nl|ptrs:na|ktp:N0|mc:31787|mtp:S|qry_typ:P|lang:en|wc:2|cs:8842|v=4,Texfield,https://www.indiamart.com/texfield/?pos=87&kwd=maternity nightgowns&tags=||||8230.883|Price|product|||MDC|rsf:gd-|-stype:attr=1|qr_nm:gd|res:RC4|com-cf:nl|ptrs:na|ktp:N0|mc:31787|mtp:S|qry_typ:P|lang:en|wc:2|cs:8842|v=4,False,Mota Varachha,Surat,"1st Floor, B/102, Tulsi Residency, Sudama Chowk, Mota Varachha,, Mota Varachha, Surat - 394101, Dist.Surat, Gujarat",8047313324,
"White Maternity Photoshoot Gown, Size: Free size",https://www.indiamart.com/proddetail/maternity-photoshoot-gown-26196741333.html?pos=88&kwd=maternity nightgowns&tags=||||8230.883|Price|product|||MDC|rsf:gd-|-stype:attr=1|qr_nm:gd|res:RC4|com-cf:nl|ptrs:na|ktp:N0|mc:31787|mtp:S|qry_typ:P|lang:en|wc:2|cs:8842|v=4,Rinku Enterprise,https://www.indiamart.com/rinkuenterprise/?pos=88&kwd=maternity nightgowns&tags=||||8230.883|Price|product|||MDC|rsf:gd-|-stype:attr=1|qr_nm:gd|res:RC4|com-cf:nl|ptrs:na|ktp:N0|mc:31787|mtp:S|qry_typ:P|lang:en|wc:2|cs:8842|v=4,False,Katargam,Surat,"19, shyam darshan society near yamuna park soc, dabholi road, Katargam, Surat - 395004, Dist.Surat, Gujarat",8048614327,
Unisex Ot Room Wear Ladies Maternity Feeding Gown,https://www.indiamart.com/proddetail/ladies-maternity-feeding-gown-21371751655.html?pos=89&kwd=maternity nightgowns&tags=||||8661.854|Price|product|||TS|rsf:gd-|-stype:attr=1|qr_nm:gd|res:RC4|com-cf:nl|ptrs:na|ktp:N0|mc:31787|mtp:S|qry_typ:P|lang:en|wc:2|cs:8842|v=4,Preet Medi Wears,https://www.preetmediwears.com/?pos=89&kwd=maternity nightgowns&tags=||||8661.854|Price|product|||TS|rsf:gd-|-stype:attr=1|qr_nm:gd|res:RC4|com-cf:nl|ptrs:na|ktp:N0|mc:31787|mtp:S|qry_typ:P|lang:en|wc:2|cs:8842|v=4,False,Guru Arjan Dev Nagar,Ludhiana,"Verma Colony, Bansal Colony, Near Essar Petrol Pump, Churpur Haibowal Kalan, Guru Arjan Dev Nagar, Ludhiana - 141007, Dist.Ludhiana, Punjab",8048967968,
"Blue XXL 50 Cotton Embroidered Feeding Nighties, Half Sleeve",https://www.indiamart.com/proddetail/xxl-50-cotton-embroidered-feeding-nighties-2853608064373.html?pos=90&kwd=maternity nightgowns&tags=||||8614.311||product|||MDC|rsf:gd-|-stype:attr=1|qr_nm:gd|res:RC4|com-cf:nl|ptrs:na|ktp:N0|mc:31787|mtp:S|qry_typ:P|lang:en|wc:2|cs:8842|v=4,Kushi Nighties & Garments,https://www.indiamart.com/kushi-nighties-garments/?pos=90&kwd=maternity nightgowns&tags=||||8614.311||product|||MDC|rsf:gd-|-stype:attr=1|qr_nm:gd|res:RC4|com-cf:nl|ptrs:na|ktp:N0|mc:31787|mtp:S|qry_typ:P|lang:en|wc:2|cs:8842|v=4,False,Padikkattupalli,Tenkasi,"2-11-51, Tenkasi-Madurai Main Road, Elathoor, Shengottai Tk, Padikkattupalli, Tenkasi - 627803, Dist.Tirunelveli, Tamil Nadu",8045165561,
Satin 2 Piece Nighty For Women,https://www.indiamart.com/proddetail/satin-2-piece-nighty-for-women-27368743748.html?pos=91&kwd=maternity nightgowns&tags=||||8752.144|Price|product|||TS|rsf:gd-|-stype:attr=1|qr_nm:gd|res:RC4|com-cf:nl|ptrs:na|ktp:N0|mc:31787|mtp:S|qry_typ:P|lang:en|wc:2|cs:8842|v=4,Seema Impex,https://www.indiamart.com/seemaimpexdelhi/?pos=91&kwd=maternity nightgowns&tags=||||8752.144|Price|product|||TS|rsf:gd-|-stype:attr=1|qr_nm:gd|res:RC4|com-cf:nl|ptrs:na|ktp:N0|mc:31787|mtp:S|qry_typ:P|lang:en|wc:2|cs:8842|v=4,False,Gandhi Nagar,New Delhi,"3291, Street 3 Raghubar Pura 2 Gandhi nagar ,delhi, Gandhi Nagar, New Delhi - 110031, Dist.Delhi, Delhi",7942555794,
"LUCKY HANDICRAFT Cotton Feeding Maternity Gown, Size: FREE",https://www.indiamart.com/proddetail/feeding-maternity-gown-2849551766997.html?pos=92&kwd=maternity nightgowns&tags=||||8601.347|Price|product|||TS|rsf:gd-|-stype:attr=1|qr_nm:gd|res:RC4|com-cf:nl|ptrs:na|ktp:N0|mc:31787|mtp:S|qry_typ:P|lang:en|wc:2|cs:8842|v=4,Lucky Handicraft,https://www.luckyhandicraft.in/?pos=92&kwd=maternity nightgowns&tags=||||8601.347|Price|product|||TS|rsf:gd-|-stype:attr=1|qr_nm:gd|res:RC4|com-cf:nl|ptrs:na|ktp:N0|mc:31787|mtp:S|qry_typ:P|lang:en|wc:2|cs:8842|v=4,False,Govind Nagar,Jaipur,"190, Govind Nagar East, Amer Road, Govind Nagar, Jaipur - 302002, Dist.Jaipur, Rajasthan",8046067577,
Maternity Wear Cotton Anarkali Kurti,https://www.indiamart.com/proddetail/maternity-wear-cotton-anarkali-kurti-2854750572773.html?pos=93&kwd=maternity nightgowns&tags=||||8601.347|Price|product|||MDC|rsf:gd-|-stype:attr=1|qr_nm:gd|res:RC4|com-cf:nl|ptrs:na|ktp:N0|mc:31787|mtp:S|qry_typ:P|lang:en|wc:2|cs:8842|v=4,Ajesh Traders,https://www.indiamart.com/ajesh-tradersjaipur/?pos=93&kwd=maternity nightgowns&tags=||||8601.347|Price|product|||MDC|rsf:gd-|-stype:attr=1|qr_nm:gd|res:RC4|com-cf:nl|ptrs:na|ktp:N0|mc:31787|mtp:S|qry_typ:P|lang:en|wc:2|cs:8842|v=4,False,,Jaipur,"53 Jamdoli Road, Agra Road, Behind Marudhar School, Bharat Vihar B, Jaipur - 302031, Dist.Jaipur, Rajasthan",8044459778,
Maternity gowns,https://www.indiamart.com/proddetail/maternity-gowns-2854506093188.html?pos=94&kwd=maternity nightgowns&tags=||||8601.347|Price|product|||TS|rsf:gd-|-stype:attr=1|qr_nm:gd|res:RC4|com-cf:nl|ptrs:na|ktp:N0|mc:31787|mtp:S|qry_typ:P|lang:en|wc:2|cs:8842|v=4,Sana Crafts,https://www.sanacrafts.com/?pos=94&kwd=maternity nightgowns&tags=||||8601.347|Price|product|||TS|rsf:gd-|-stype:attr=1|qr_nm:gd|res:RC4|com-cf:nl|ptrs:na|ktp:N0|mc:31787|mtp:S|qry_typ:P|lang:en|wc:2|cs:8842|v=4,True,Sanganer Bazar,Jaipur,"14 Ganga Vihar, Sanganer, Sanganer Bazar, Jaipur - 302029, Dist.Jaipur, Rajasthan",7942543419,
"Printed Maternity Feeding Gown, Three fourth sleeve",https://www.indiamart.com/proddetail/maternity-feeding-gown-2853178528291.html?pos=95&kwd=maternity nightgowns&tags=||||8601.347|Price|product|||TS|rsf:gd-|-stype:attr=1|qr_nm:gd|res:RC4|com-cf:nl|ptrs:na|ktp:N0|mc:31787|mtp:S|qry_typ:P|lang:en|wc:2|cs:8842|v=4,Ganpati Handicrafts,https://www.ganpatihandicrafts.com/?pos=95&kwd=maternity nightgowns&tags=||||8601.347|Price|product|||TS|rsf:gd-|-stype:attr=1|qr_nm:gd|res:RC4|com-cf:nl|ptrs:na|ktp:N0|mc:31787|mtp:S|qry_typ:P|lang:en|wc:2|cs:8842|v=4,False,Kundan Nagar,Jaipur,"Ganpati Handicrafts, Paliwal Garden Behind Salim Kazgi Industry, Sanganer, Kundan Nagar, Jaipur - 302029, Dist.Jaipur, Rajasthan",8046061432,
Soft Cotton Maternity + Feeding Gown,https://www.indiamart.com/proddetail/soft-cotton-maternity-feeding-gown-2850891709330.html?pos=96&kwd=maternity nightgowns&tags=||||8230.883|Price|product|||TS|rsf:gd-|-stype:attr=1|qr_nm:gd|res:RC4|com-cf:nl|ptrs:na|ktp:N0|mc:31787|mtp:S|qry_typ:P|lang:en|wc:2|cs:8842|v=4,Kajal Creation,https://www.kajalcreation.com/?pos=96&kwd=maternity nightgowns&tags=||||8230.883|Price|product|||TS|rsf:gd-|-stype:attr=1|qr_nm:gd|res:RC4|com-cf:nl|ptrs:na|ktp:N0|mc:31787|mtp:S|qry_typ:P|lang:en|wc:2|cs:8842|v=4,False,Varachha,Surat,"Shop No 3,Plot No 10,Ground Floor,Muktidham Society,Punagam,Surat,Surat, Varachha, Surat - 395010, Dist.Surat, Gujarat",7942633510,
Maternity Feeding Kurti,,Dhanlaxmi Creation,https://www.indiamart.com/dhanlaxmi-creationmumbai/?pos=97&kwd=maternity nightgowns&tags=||||8211.142|Price|product|||MDC|rsf:gd-|-stype:attr=1|qr_nm:gd|res:RC4|com-cf:nl|ptrs:na|ktp:N0|mc:31787|mtp:S|qry_typ:P|lang:en|wc:2|cs:8842|v=4,False,Dadar West,Mumbai,"Ground Floor, G-101, Dadar Manish Market, Near Dadar Railway Station, Dadar West,, Dadar West, Mumbai - 400028, Dist.Mumbai, Maharashtra",8044562073,
Cotton Printed Ladies Night Suit Set,https://www.indiamart.com/proddetail/ladies-night-suit-set-2850369369948.html?pos=98&kwd=maternity nightgowns&tags=||||8228.275|Price|product|||TS|rsf:gd-|-stype:attr=1|qr_nm:gd|res:RC4|com-cf:nl|ptrs:na|ktp:N0|mc:31787|mtp:S|qry_typ:P|lang:en|wc:2|cs:8842|v=4,Maa Sachiyay Fashion,https://www.maasachiyayfashion.com/?pos=98&kwd=maternity nightgowns&tags=||||8228.275|Price|product|||TS|rsf:gd-|-stype:attr=1|qr_nm:gd|res:RC4|com-cf:nl|ptrs:na|ktp:N0|mc:31787|mtp:S|qry_typ:P|lang:en|wc:2|cs:8842|v=4,False,Prem Darwaza,Ahmedabad,"D-32, 3rd Floor Sumel Business Park -4 Amdupura, Kalupur, Prem Darwaza, Ahmedabad - 380002, Dist.Ahmedabad, Gujarat",8048604630,
Maternity Feeding Gown,https://www.indiamart.com/proddetail/maternity-feeding-gown-2853276076455.html?pos=99&kwd=maternity nightgowns&tags=||||8601.347|Price|product|||TS|rsf:gd-|-stype:attr=1|qr_nm:gd|res:RC4|com-cf:nl|ptrs:na|ktp:N0|mc:31787|mtp:S|qry_typ:P|lang:en|wc:2|cs:8842|v=4,Aaivan Fashion Hubb,https://www.indiamart.com/aaivanfashionhub/?pos=99&kwd=maternity nightgowns&tags=||||8601.347|Price|product|||TS|rsf:gd-|-stype:attr=1|qr_nm:gd|res:RC4|com-cf:nl|ptrs:na|ktp:N0|mc:31787|mtp:S|qry_typ:P|lang:en|wc:2|cs:8842|v=4,False,Sitapura Industrial Area,Jaipur,"2nd Floor, C-49 Raj Complex, Sitapura Industrial Area, Sitapura Industrial Area, Jaipur - 302022, Dist.Jaipur, Rajasthan",7942714492,
Cotton Feeding Nighties,https://www.indiamart.com/proddetail/cotton-feeding-nighties-27574241497.html?pos=100&kwd=maternity nightgowns&tags=||||8211.142||product|||TS|rsf:gd-|-stype:attr=1|qr_nm:gd|res:RC4|com-cf:nl|ptrs:na|ktp:N0|mc:31787|mtp:S|qry_typ:P|lang:en|wc:2|cs:8842|v=4,Kiran Sons,https://www.indiamart.com/kiransons/?pos=100&kwd=maternity nightgowns&tags=||||8211.142||product|||TS|rsf:gd-|-stype:attr=1|qr_nm:gd|res:RC4|com-cf:nl|ptrs:na|ktp:N0|mc:31787|mtp:S|qry_typ:P|lang:en|wc:2|cs:8842|v=4,False,Kalbadevi,Mumbai,"C/O. J.K. Brothers, 25, Vithalwadi, Kalbadevi, Mumbai - 400002, Dist.Mumbai, Maharashtra",8047645351,
"Ethnic Solid Ladies Cotton Nighty, beat root",https://www.indiamart.com/proddetail/ladies-cotton-nighty-22511784930.html?pos=101&kwd=maternity nightgowns&tags=||||8954.051|Price|product|||TS|rsf:gd-|-stype:attr=1|qr_nm:gd|res:RC4|com-cf:nl|ptrs:na|ktp:N0|mc:31787|mtp:S|qry_typ:P|lang:en|wc:2|cs:8842|v=4,Sai Collection,https://www.indiamart.com/saicollection-chennai/?pos=101&kwd=maternity nightgowns&tags=||||8954.051|Price|product|||TS|rsf:gd-|-stype:attr=1|qr_nm:gd|res:RC4|com-cf:nl|ptrs:na|ktp:N0|mc:31787|mtp:S|qry_typ:P|lang:en|wc:2|cs:8842|v=4,False,T Nagar,Chennai,"1st Floor,no 78/79 Shop- 2,pondy Bazzar,fathima Plaza,t Nagar, T Nagar, Chennai - 600017, Dist.Chennai, Tamil Nadu",8046039974,
"Printed Cotton Evolvoe Nightgown For Women, Green, Packaging Type: Packets",https://www.indiamart.com/proddetail/evolvoe-nightgown-for-women-1992295030.html?pos=102&kwd=maternity nightgowns&tags=||||8211.142|Price|product|||TS|rsf:gd-|-stype:attr=1|qr_nm:gd|res:RC4|com-cf:nl|ptrs:na|ktp:N0|mc:31787|mtp:S|qry_typ:P|lang:en|wc:2|cs:8842|v=4,Paras Dyeing And Printing Mills,https://www.tulsicotton.com/?pos=102&kwd=maternity nightgowns&tags=||||8211.142|Price|product|||TS|rsf:gd-|-stype:attr=1|qr_nm:gd|res:RC4|com-cf:nl|ptrs:na|ktp:N0|mc:31787|mtp:S|qry_typ:P|lang:en|wc:2|cs:8842|v=4,True,Lower Parel,Mumbai,"No. 240, Kewal Industrial Estate, S. B. Marg, Lower Parel, Mumbai - 400013, Dist.Mumbai, Maharashtra",8048989910,
"Cotton Printed 1509 Ladies Maternity Feeding Gown, Half Sleeve",https://www.indiamart.com/proddetail/1509-ladies-maternity-feeding-gown-26249231491.html?pos=103&kwd=maternity nightgowns&tags=||||8210.732|Price|product|||TS|rsf:gd-|-stype:attr=1|qr_nm:gd|res:RC4|com-cf:nl|ptrs:na|ktp:N0|mc:31787|mtp:S|qry_typ:P|lang:en|wc:2|cs:8842|v=4,M.K.Enterprises,https://www.ohlady.in/?pos=103&kwd=maternity nightgowns&tags=||||8210.732|Price|product|||TS|rsf:gd-|-stype:attr=1|qr_nm:gd|res:RC4|com-cf:nl|ptrs:na|ktp:N0|mc:31787|mtp:S|qry_typ:P|lang:en|wc:2|cs:8842|v=4,False,Kandivali West,Vasai,"Gala No-209, 2nd Second Floor, Shri Hari Industrial Estate Bldg No 2, Bilalpada, Vasai East,, Kandivali West, Vasai - 401208, Dist.Thane, Maharashtra",7942565560,
"Full Length Printed Cotton Jaipuri print night gown, Free Size",https://www.indiamart.com/proddetail/cotton-jaipuri-print-night-gown-21688508497.html?pos=104&kwd=maternity nightgowns&tags=||||8601.347|Price|product|||TS|rsf:gd-|-stype:attr=1|qr_nm:gd|res:RC4|com-cf:nl|ptrs:na|ktp:N0|mc:31787|mtp:S|qry_typ:P|lang:en|wc:2|cs:8842|v=4,Rajlok Enterprises,https://www.indiamart.com/rajlok-enterprises/?pos=104&kwd=maternity nightgowns&tags=||||8601.347|Price|product|||TS|rsf:gd-|-stype:attr=1|qr_nm:gd|res:RC4|com-cf:nl|ptrs:na|ktp:N0|mc:31787|mtp:S|qry_typ:P|lang:en|wc:2|cs:8842|v=4,False,Kapoorawala,Jaipur,"Shop No. 23, Shiv Bazar, Near Sparsh Hospital New Sanganer Road, Kapoorawala, Jaipur - 302029, Dist.Jaipur, Rajasthan",7942548592,
"Multicolor Women's Premium Cotton Printed Nightgown, Half Sleeve",https://www.indiamart.com/proddetail/women-s-premium-cotton-printed-nightgown-2853472961633.html?pos=105&kwd=maternity nightgowns&tags=||||8235.633|Price|product|||TS|rsf:gd-|-stype:attr=1|qr_nm:gd|res:RC4|com-cf:nl|ptrs:na|ktp:N0|mc:31787|mtp:S|qry_typ:P|lang:en|wc:2|cs:8842|v=4,Padmawati Trade Link,https://www.indiamart.com/padmawati-tradelink/?pos=105&kwd=maternity nightgowns&tags=||||8235.633|Price|product|||TS|rsf:gd-|-stype:attr=1|qr_nm:gd|res:RC4|com-cf:nl|ptrs:na|ktp:N0|mc:31787|mtp:S|qry_typ:P|lang:en|wc:2|cs:8842|v=4,False,Tapra,Balotra,"Sindhiyon Ka Wass, Ward No.7 Nayapura , Barmer, Tapra, Balotra - 344022, Dist.Barmer, Rajasthan",8048269332,
"Green Printed Cotton Feeding Nighties Gown, Full Sleeve",https://www.indiamart.com/proddetail/cotton-feeding-nighties-gown-2853636714055.html?pos=106&kwd=maternity nightgowns&tags=||||9148.645|Price|product|||MDC|rsf:gd-|-stype:attr=1|qr_nm:gd|res:RC4|com-cf:nl|ptrs:na|ktp:N0|mc:31787|mtp:S|qry_typ:P|lang:en|wc:2|cs:8842|v=4,Sri Jaya Enterprises,https://www.indiamart.com/sri-jayaenterprises/?pos=106&kwd=maternity nightgowns&tags=||||9148.645|Price|product|||MDC|rsf:gd-|-stype:attr=1|qr_nm:gd|res:RC4|com-cf:nl|ptrs:na|ktp:N0|mc:31787|mtp:S|qry_typ:P|lang:en|wc:2|cs:8842|v=4,False,Machara,Mandapeta,"31-1-27/1, Ward No 13, Alamuru Road, Mandapeta, East Godavari, Machara, Mandapeta - 533308, Dist.East Godavari, Andhra Pradesh",7949093426,
"Green (Base) Printed Saloni Dull Cotton Mother Feeding Nightgown, Half Sleeve",https://www.indiamart.com/proddetail/saloni-dull-cotton-mother-feeding-nightgown-2850476955473.html?pos=107&kwd=maternity nightgowns&tags=||||8786.56|Price|product|||MDC|rsf:gd-|-stype:attr=1|qr_nm:gd|res:RC4|com-cf:nl|ptrs:na|ktp:N0|mc:31787|mtp:S|qry_typ:P|lang:en|wc:2|cs:8842|v=4,Saloni Textile,https://www.indiamart.com/saloni-textiles/?pos=107&kwd=maternity nightgowns&tags=||||8786.56|Price|product|||MDC|rsf:gd-|-stype:attr=1|qr_nm:gd|res:RC4|com-cf:nl|ptrs:na|ktp:N0|mc:31787|mtp:S|qry_typ:P|lang:en|wc:2|cs:8842|v=4,False,Rasoolpura,Hyderabad,"24, Margadarshini Colony , Rasool Pura, Rasoolpura, Hyderabad - 500003, Dist.Hyderabad, Telangana",7942823938,
sea blue corset maternity gown,https://www.indiamart.com/proddetail/sea-blue-corset-maternity-gown-2854363596597.html?pos=108&kwd=maternity nightgowns&tags=||||8307.81|Price|product|||MDC|rsf:gd-|-stype:attr=1|qr_nm:gd|res:RC4|com-cf:nl|ptrs:na|ktp:N0|mc:31787|mtp:S|qry_typ:P|lang:en|wc:2|cs:8842|v=4,Nayan Collection,https://www.indiamart.com/nayan-collection-maharashtra/?pos=108&kwd=maternity nightgowns&tags=||||8307.81|Price|product|||MDC|rsf:gd-|-stype:attr=1|qr_nm:gd|res:RC4|com-cf:nl|ptrs:na|ktp:N0|mc:31787|mtp:S|qry_typ:P|lang:en|wc:2|cs:8842|v=4,False,Wadgaon Sheri,Pune,"Ground Floor , S NO. 12/1A, Adarsh Nagar, Kalyani Nagar Road , OPP. ST. Arnolds Central School Wadgaon Sheri, Wadgaon Sheri, Pune - 411014, Dist.Pune, Maharashtra",7942704607,
"Polyester Ladies Night Gown Dress feeding, Sleeves: Half",https://www.indiamart.com/proddetail/ladies-night-gown-dress-feeding-2849032802791.html?pos=109&kwd=maternity nightgowns&tags=||||8228.275|Price|product|||MDC|rsf:gd-|-stype:attr=1|qr_nm:gd|res:RC4|com-cf:nl|ptrs:na|ktp:N0|mc:31787|mtp:S|qry_typ:P|lang:en|wc:2|cs:8842|v=4,Dev Creation,https://www.indiamart.com/devcreation-ahmedabad-gujarat/?pos=109&kwd=maternity nightgowns&tags=||||8228.275|Price|product|||MDC|rsf:gd-|-stype:attr=1|qr_nm:gd|res:RC4|com-cf:nl|ptrs:na|ktp:N0|mc:31787|mtp:S|qry_typ:P|lang:en|wc:2|cs:8842|v=4,False,Saraspur,Ahmedabad,"A-232, Sumel Business Park-4, New Gujarat Synthetic Mill Compound, Opp Amdupura Saraspur, Saraspur, Ahmedabad - 380018, Dist.Ahmedabad, Gujarat",8043892750,
"Black Base Round Neck Cotton Nightgown, Half Sleeve, Stitched",https://www.indiamart.com/proddetail/round-neck-cotton-nightgown-22526270991.html?pos=110&kwd=maternity nightgowns&tags=||||8668.838|Price|product|||MDC|rsf:gd-|-stype:attr=1|qr_nm:gd|res:RC4|com-cf:nl|ptrs:na|ktp:N0|mc:31787|mtp:S|qry_typ:P|lang:en|wc:2|cs:8842|v=4,Paris Hub,https://www.indiamart.com/paris-huberode/?pos=110&kwd=maternity nightgowns&tags=||||8668.838|Price|product|||MDC|rsf:gd-|-stype:attr=1|qr_nm:gd|res:RC4|com-cf:nl|ptrs:na|ktp:N0|mc:31787|mtp:S|qry_typ:P|lang:en|wc:2|cs:8842|v=4,False,Erode,Erode,"Shop No-1020, 220/12,Erode Textile Mall P Ltd, NH-7 Salem-Coimbatore High Way,Gangapuram, Chithode, Erode, Erode - 638102, Dist.Erode, Tamil Nadu",7949082067,
Cotton Caftan Maternity Kaftan Leisure Wear Labor Birthing Gown Delivery Plus Size Loungewear,https://www.indiamart.com/proddetail/cotton-caftan-maternity-kaftan-leisure-wear-labor-birthing-gown-delivery-plus-size-loungewear-2853555485655.html?pos=111&kwd=maternity nightgowns&tags=||||8601.347|Price|product|||TS|rsf:gd-|-stype:attr=1|qr_nm:gd|res:RC4|com-cf:nl|ptrs:na|ktp:N0|mc:31787|mtp:S|qry_typ:P|lang:en|wc:2|cs:8842|v=4,Satnam Handicrafts,https://www.indiamart.com/satnamhandicrafts/?pos=111&kwd=maternity nightgowns&tags=||||8601.347|Price|product|||TS|rsf:gd-|-stype:attr=1|qr_nm:gd|res:RC4|com-cf:nl|ptrs:na|ktp:N0|mc:31787|mtp:S|qry_typ:P|lang:en|wc:2|cs:8842|v=4,True,Govind Nagar,Jaipur,"98-B, PPark Street, Govind Nagar West, Amer Road, Tripoliya Bazar, Govind Nagar, Jaipur - 302002, Dist.Jaipur, Rajasthan",7942821000,
Maternity gown on rental,https://www.indiamart.com/proddetail/maternity-gown-on-rental-26265013148.html?pos=112&kwd=maternity nightgowns&tags=||||8228.275|Price|product|||TS|rsf:gd-|-stype:attr=1|qr_nm:gd|res:RC4|com-cf:nl|ptrs:na|ktp:N0|mc:31787|mtp:S|qry_typ:P|lang:en|wc:2|cs:8842|v=4,Kashmira Communication,https://www.indiamart.com/kashmiracommunication/?pos=112&kwd=maternity nightgowns&tags=||||8228.275|Price|product|||TS|rsf:gd-|-stype:attr=1|qr_nm:gd|res:RC4|com-cf:nl|ptrs:na|ktp:N0|mc:31787|mtp:S|qry_typ:P|lang:en|wc:2|cs:8842|v=4,False,Isanpur,Ahmedabad,"21 Near Rajeshwari Soc Vishwasnagar Society Isanpur Jawahar Chowk, Isanpur, Ahmedabad - 382443, Dist.Ahmedabad, Gujarat",7942551704,
Casual Women''s Maternity Feeding Gown,https://www.indiamart.com/proddetail/women-s-maternity-feeding-gown-22456151730.html?pos=113&kwd=maternity nightgowns&tags=||||8876.815|Price|product|||TS|rsf:gd-|-stype:attr=1|qr_nm:gd|res:RC4|com-cf:nl|ptrs:na|ktp:N0|mc:31787|mtp:S|qry_typ:P|lang:en|wc:2|cs:8842|v=4,Sakar Fair Trade Incorporated,https://www.indiamart.com/sakarfair-trade-incorporated/?pos=113&kwd=maternity nightgowns&tags=||||8876.815|Price|product|||TS|rsf:gd-|-stype:attr=1|qr_nm:gd|res:RC4|com-cf:nl|ptrs:na|ktp:N0|mc:31787|mtp:S|qry_typ:P|lang:en|wc:2|cs:8842|v=4,False,Wadi,Nagpur,"Ground floor, Shop No. 22, 8A, Laxmi Vaibhav, Laxmi Nagar Chowk, Wadi, Nagpur - 440010, Dist.Nagpur, Maharashtra",7942541012,
"Ladies Printed Maternity Feeding Gown, Half Sleeve",https://www.indiamart.com/proddetail/ladies-printed-maternity-feeding-gown-2851885884691.html?pos=114&kwd=maternity nightgowns&tags=||||8687.934|Price|product|||TS|rsf:gd-|-stype:attr=1|qr_nm:gd|res:RC4|com-cf:nl|ptrs:na|ktp:N0|mc:31787|mtp:S|qry_typ:P|lang:en|wc:2|cs:8842|v=4,Shree Fashions,https://www.indiamart.com/jbr-vesture/?pos=114&kwd=maternity nightgowns&tags=||||8687.934|Price|product|||TS|rsf:gd-|-stype:attr=1|qr_nm:gd|res:RC4|com-cf:nl|ptrs:na|ktp:N0|mc:31787|mtp:S|qry_typ:P|lang:en|wc:2|cs:8842|v=4,False,Rajapalaiyam,Virudhunagar,"2/126B4, Teachers Colony, Chettiarpatti, Rajapalaiyam, Virudhunagar - 626188, Dist.Virudhunagar, Tamil Nadu",7942870856,
"Cotton Printed Ladies Daily Wear Maternity Feeding Gown, 3/4 Sleeve",https://www.indiamart.com/proddetail/ladies-daily-wear-maternity-feeding-gown-26373524733.html?pos=115&kwd=maternity nightgowns&tags=||||8601.347||product|||TS|rsf:gd-|-stype:attr=1|qr_nm:gd|res:RC4|com-cf:nl|ptrs:na|ktp:N0|mc:31787|mtp:S|qry_typ:P|lang:en|wc:2|cs:8842|v=4,Kartavya,https://www.kurtisupplier.com/?pos=115&kwd=maternity nightgowns&tags=||||8601.347||product|||TS|rsf:gd-|-stype:attr=1|qr_nm:gd|res:RC4|com-cf:nl|ptrs:na|ktp:N0|mc:31787|mtp:S|qry_typ:P|lang:en|wc:2|cs:8842|v=4,False,Sanganer,Jaipur,"15, Adarsh Basti, Market Road, Sanganer, Jaipur - 302015, Dist.Jaipur, Rajasthan",8043858523,
Aarya Trendz Cotton Kurti For Baby Feeding and During Maternity Period,https://www.indiamart.com/proddetail/aarya-trendz-cotton-kurti-for-baby-feeding-and-during-maternity-period-27107457933.html?pos=116&kwd=maternity nightgowns&tags=||||8230.883|Price|product|||TS|rsf:gd-|-stype:attr=1|qr_nm:gd|res:RC4|com-cf:nl|ptrs:na|ktp:N0|mc:31787|mtp:S|qry_typ:P|lang:en|wc:2|cs:8842|v=4,Aarya Trendz,https://www.indiamart.com/aarya-trendz/?pos=116&kwd=maternity nightgowns&tags=||||8230.883|Price|product|||TS|rsf:gd-|-stype:attr=1|qr_nm:gd|res:RC4|com-cf:nl|ptrs:na|ktp:N0|mc:31787|mtp:S|qry_typ:P|lang:en|wc:2|cs:8842|v=4,False,,Surat,"30, Shree Krupa Industrial Estate Kapodra, Varachha Main Road, Surat - 395006, Dist.Surat, Gujarat",8046034119,
Long Rayon Print Anarkali Suit With Dupatta,https://www.indiamart.com/proddetail/long-rayon-print-anarkali-suit-with-dupatta-2852670784133.html?pos=117&kwd=maternity nightgowns&tags=||||8601.347|Price|product|||TS|rsf:gd-|-stype:attr=1|qr_nm:gd|res:RC4|com-cf:nl|ptrs:na|ktp:N0|mc:31787|mtp:S|qry_typ:P|lang:en|wc:2|cs:8842|v=4,C K Creation,https://www.indiamart.com/c-k-creation-jaipur/?pos=117&kwd=maternity nightgowns&tags=||||8601.347|Price|product|||TS|rsf:gd-|-stype:attr=1|qr_nm:gd|res:RC4|com-cf:nl|ptrs:na|ktp:N0|mc:31787|mtp:S|qry_typ:P|lang:en|wc:2|cs:8842|v=4,False,Bambala,Jaipur,"1-A, Rani Ka Talab, Malpura Gate Ke Paas,, Bambala, Jaipur - 302029, Dist.Jaipur, Rajasthan",7942841456,
Cotton Baby Feeding Gown,https://www.indiamart.com/proddetail/baby-feeding-gown-20190391848.html?pos=118&kwd=maternity nightgowns&tags=||||8601.347|Price|product|||TS|rsf:gd-|-stype:attr=1|qr_nm:gd|res:RC4|com-cf:nl|ptrs:na|ktp:N0|mc:31787|mtp:S|qry_typ:P|lang:en|wc:2|cs:8842|v=4,Global Enterprises,https://www.hospitalgarments.in/?pos=118&kwd=maternity nightgowns&tags=||||8601.347|Price|product|||TS|rsf:gd-|-stype:attr=1|qr_nm:gd|res:RC4|com-cf:nl|ptrs:na|ktp:N0|mc:31787|mtp:S|qry_typ:P|lang:en|wc:2|cs:8842|v=4,False,Mahapura,Jaipur,"Kachi Basti, Mahapura, Sanganer, Mahapura, Jaipur - 302026, Dist.Jaipur, Rajasthan",8046032418,
"Maternity Mother Breastfeeding Feeding Nursing Cover, Cloak, Apron - 100% Organic Cotton",https://www.indiamart.com/proddetail/maternity-mother-breastfeeding-feeding-nursing-cover-cloak-apron-100-organic-cotton-20962064255.html?pos=119&kwd=maternity nightgowns&tags=||||8668.838|Price|product|||TS|rsf:gd-|-stype:attr=1|qr_nm:gd|res:RC4|com-cf:nl|ptrs:na|ktp:N0|mc:31787|mtp:S|qry_typ:P|lang:en|wc:2|cs:8842|v=4,Sri Kalyan Export Private Limited,https://www.firstinbabydress.com/?pos=119&kwd=maternity nightgowns&tags=||||8668.838|Price|product|||TS|rsf:gd-|-stype:attr=1|qr_nm:gd|res:RC4|com-cf:nl|ptrs:na|ktp:N0|mc:31787|mtp:S|qry_typ:P|lang:en|wc:2|cs:8842|v=4,False,Vilarasampatti,Erode,"192/4, Ishwarya Garden, Sengodampalayam, Villarasampatti Post, Erode,, Vilarasampatti, Erode - 638107, Dist.Erode, Tamil Nadu",8046030291,
"Printed Ladies Navy Blue Cotton Feeding Gown, Three fourth sleeve",https://www.indiamart.com/proddetail/ladies-navy-blue-cotton-feeding-gown-2852884467897.html?pos=120&kwd=maternity nightgowns&tags=||||8601.347|Price|product|||TS|rsf:gd-|-stype:attr=1|qr_nm:gd|res:RC4|com-cf:nl|ptrs:na|ktp:N0|mc:31787|mtp:S|qry_typ:P|lang:en|wc:2|cs:8842|v=4,Mamta Fashion,https://www.indiamart.com/mamtafashion-jaipur/?pos=120&kwd=maternity nightgowns&tags=||||8601.347|Price|product|||TS|rsf:gd-|-stype:attr=1|qr_nm:gd|res:RC4|com-cf:nl|ptrs:na|ktp:N0|mc:31787|mtp:S|qry_typ:P|lang:en|wc:2|cs:8842|v=4,False,Kapoorawala,Jaipur,"Plot No-46, Sarita Vihar, Rampura Road , Gyanodaya Public School , Shankar Nagar Near Dev, Kapoorawala, Jaipur - 302029, Dist.Jaipur, Rajasthan",7942723523,
Rayon Printed Feeding Kurti,https://www.indiamart.com/proddetail/rayon-printed-feeding-kurti-2848978016848.html?pos=121&kwd=maternity nightgowns&tags=||||8601.347|Price|product|||TS|rsf:gd-|-stype:attr=1|qr_nm:gd|res:RC4|com-cf:nl|ptrs:na|ktp:N0|mc:31787|mtp:S|qry_typ:P|lang:en|wc:2|cs:8842|v=4,Vinayak Enterprises,https://www.vinayakenterprisesindia.com/?pos=121&kwd=maternity nightgowns&tags=||||8601.347|Price|product|||TS|rsf:gd-|-stype:attr=1|qr_nm:gd|res:RC4|com-cf:nl|ptrs:na|ktp:N0|mc:31787|mtp:S|qry_typ:P|lang:en|wc:2|cs:8842|v=4,True,Vistar,Jaipur,"Vinayak Enterprises, B-61, Barkat Nagar Vistar, Near Arjun Nagar Underpass, Vistar, Jaipur - 302031, Dist.Jaipur, Rajasthan",8047652854,
Maternity Clothing Manufacturers,https://www.indiamart.com/proddetail/maternity-clothing-manufacturers-2850412773497.html?pos=122&kwd=maternity nightgowns&tags=||||8601.347|Price|product|||TS|rsf:gd-|-stype:attr=1|qr_nm:gd|res:RC4|com-cf:nl|ptrs:na|ktp:N0|mc:31787|mtp:S|qry_typ:P|lang:en|wc:2|cs:8842|v=4,Tanishi Crafts,https://www.tanishicrafts.com/?pos=122&kwd=maternity nightgowns&tags=||||8601.347|Price|product|||TS|rsf:gd-|-stype:attr=1|qr_nm:gd|res:RC4|com-cf:nl|ptrs:na|ktp:N0|mc:31787|mtp:S|qry_typ:P|lang:en|wc:2|cs:8842|v=4,False,Jaipur,Jaipur,"Bani Park, F-61 Sindhi Colony, Jaipur, Iti Sanstha Ke Piche, Sindhi Colony, Jaipur, Jaipur - 302016, Dist.Jaipur, Rajasthan",8047622196,
"10 Color Feeding Maternity Gown, 200, Sleeves: Half",https://www.indiamart.com/proddetail/feeding-maternity-gown-23768715362.html?pos=123&kwd=maternity nightgowns&tags=||||8230.883|Price|product|||TS|rsf:gd-|-stype:attr=1|qr_nm:gd|res:RC4|com-cf:nl|ptrs:na|ktp:N0|mc:31787|mtp:S|qry_typ:P|lang:en|wc:2|cs:8842|v=4,Fashion Hub,https://www.indiamart.com/fashionhub-gujarat/?pos=123&kwd=maternity nightgowns&tags=||||8230.883|Price|product|||TS|rsf:gd-|-stype:attr=1|qr_nm:gd|res:RC4|com-cf:nl|ptrs:na|ktp:N0|mc:31787|mtp:S|qry_typ:P|lang:en|wc:2|cs:8842|v=4,False,Mota Varachha,Surat,"E-104,,Shrinidhi Residency,,Nr. Sudama Chowk,,Mota Varachha,, Mota Varachha, Surat - 394101, Dist.Surat, Gujarat",8048956108,
"Premium Soft Cotton Maternity with Feeding Gown, 3/4 Sleeve",https://www.indiamart.com/proddetail/premium-soft-cotton-maternity-with-feeding-gown-2851260816888.html?pos=124&kwd=maternity nightgowns&tags=||||8230.883|Price|product|||TS|rsf:gd-|-stype:attr=1|qr_nm:gd|res:RC4|com-cf:nl|ptrs:na|ktp:N0|mc:31787|mtp:S|qry_typ:P|lang:en|wc:2|cs:8842|v=4,Zenny Creation,https://www.zennycreation.com/?pos=124&kwd=maternity nightgowns&tags=||||8230.883|Price|product|||TS|rsf:gd-|-stype:attr=1|qr_nm:gd|res:RC4|com-cf:nl|ptrs:na|ktp:N0|mc:31787|mtp:S|qry_typ:P|lang:en|wc:2|cs:8842|v=4,False,Parvat,Surat,"6th Floor, Shop No. F-6047/A, Avadh Rituraj Textile Hub, Parvat Godadra Road, Brts Road, Parvat, Surat - 395010, Dist.Surat, Gujarat",8048978256,
"Maroon Fabric: Rayon Maternity Feeding Gowns, Size: Medium",https://www.indiamart.com/proddetail/maternity-feeding-gowns-23762153691.html?pos=125&kwd=maternity nightgowns&tags=||||8559.269|Price|product|||TS|rsf:gd-|-stype:attr=1|qr_nm:gd|res:RC4|com-cf:nl|ptrs:na|ktp:N0|mc:31787|mtp:S|qry_typ:P|lang:en|wc:2|cs:8842|v=4,Nirmala Overseas,https://www.nirmalaoverseas.com/?pos=125&kwd=maternity nightgowns&tags=||||8559.269|Price|product|||TS|rsf:gd-|-stype:attr=1|qr_nm:gd|res:RC4|com-cf:nl|ptrs:na|ktp:N0|mc:31787|mtp:S|qry_typ:P|lang:en|wc:2|cs:8842|v=4,False,Jaora Compound,Indore,"No. 56, Jaora Compound, Jaora Compound, Indore - 452001, Dist.Indore, Madhya Pradesh",8047300753,
"Cotton Printed Maternity Ladies Feeding Gown, 3/4 Sleeve",https://www.indiamart.com/proddetail/maternity-ladies-feeding-gown-2850484386262.html?pos=126&kwd=maternity nightgowns&tags=||||8601.347|Price|product|||TS|rsf:gd-|-stype:attr=1|qr_nm:gd|res:RC4|com-cf:nl|ptrs:na|ktp:N0|mc:31787|mtp:S|qry_typ:P|lang:en|wc:2|cs:8842|v=4,Vinayak Vestures,https://www.vinayakvestures.com/?pos=126&kwd=maternity nightgowns&tags=||||8601.347|Price|product|||TS|rsf:gd-|-stype:attr=1|qr_nm:gd|res:RC4|com-cf:nl|ptrs:na|ktp:N0|mc:31787|mtp:S|qry_typ:P|lang:en|wc:2|cs:8842|v=4,False,Jhotwara,Jaipur,"39, MOTI NAGAR, JHOTWARA, Jhotwara, Jaipur - 302012, Dist.Jaipur, Rajasthan",8046044062,
"Stitched Plain Patient Maternity Gown, Machine wash, Size: Medium",https://www.indiamart.com/proddetail/patient-maternity-gown-2852487655430.html?pos=127&kwd=maternity nightgowns&tags=||||9189.305|Price|product|||TS|rsf:gd-|-stype:attr=1|qr_nm:gd|res:RC4|com-cf:nl|ptrs:na|ktp:N0|mc:31787|mtp:S|qry_typ:P|lang:en|wc:2|cs:8842|v=4,Shivangi House Of Commercial Clothing,https://www.indiamart.com/shivangihouseofcommercial-clothing/?pos=127&kwd=maternity nightgowns&tags=||||9189.305|Price|product|||TS|rsf:gd-|-stype:attr=1|qr_nm:gd|res:RC4|com-cf:nl|ptrs:na|ktp:N0|mc:31787|mtp:S|qry_typ:P|lang:en|wc:2|cs:8842|v=4,False,Chahchand,Prayagraj,"15, Chak Zero Road, Chahchand, Chahchand, Prayagraj - 211003, Dist.Allahabad, Uttar Pradesh",7942714276,
Nursing Cover for Breastfeeding,https://www.indiamart.com/proddetail/nursing-cover-for-breastfeeding-11812996788.html?pos=128&kwd=maternity nightgowns&tags=||||8778.123|Price|product|||TS|rsf:gd-|-stype:attr=1|qr_nm:gd|res:RC4|com-cf:nl|ptrs:na|ktp:N0|mc:31787|mtp:S|qry_typ:P|lang:en|wc:2|cs:8842|v=4,Oscar Overseas,https://www.oscar-india.com/?pos=128&kwd=maternity nightgowns&tags=||||8778.123|Price|product|||TS|rsf:gd-|-stype:attr=1|qr_nm:gd|res:RC4|com-cf:nl|ptrs:na|ktp:N0|mc:31787|mtp:S|qry_typ:P|lang:en|wc:2|cs:8842|v=4,False,,Noida,"A-99 Sector 5, Noida - 201301, Dist.Gautam Budh Nagar, Uttar Pradesh",8046058290,
Multicolor Half Sleeves Feeding Maternity Gown,https://www.indiamart.com/proddetail/feeding-maternity-gown-20399234573.html?pos=129&kwd=maternity nightgowns&tags=||||8752.144||product|||TS|rsf:gd-|-stype:attr=1|qr_nm:gd|res:RC4|com-cf:nl|ptrs:na|ktp:N0|mc:31787|mtp:S|qry_typ:P|lang:en|wc:2|cs:8842|v=4,Ara India,https://www.araindia.in/?pos=129&kwd=maternity nightgowns&tags=||||8752.144||product|||TS|rsf:gd-|-stype:attr=1|qr_nm:gd|res:RC4|com-cf:nl|ptrs:na|ktp:N0|mc:31787|mtp:S|qry_typ:P|lang:en|wc:2|cs:8842|v=4,True,Vikaspuri,New Delhi,"C-472, Ground Floor, Vikaspuri, New Delhi - 110018, Dist.Delhi, Delhi",8046049586,
"Mix of Polyester & Cotton Half Sleeves Feeding Patient Gown, Size: S, M, L",https://www.indiamart.com/proddetail/feeding-patient-gown-20970626355.html?pos=130&kwd=maternity nightgowns&tags=||||9839.57|Price|product|||MDC|rsf:gd-|-stype:attr=1|qr_nm:gd|res:RC4|com-cf:nl|ptrs:na|ktp:N0|mc:31787|mtp:S|qry_typ:P|lang:en|wc:2|cs:8842|v=4,Rashmi's,https://www.indiamart.com/rashmis-kolkata/?pos=130&kwd=maternity nightgowns&tags=||||9839.57|Price|product|||MDC|rsf:gd-|-stype:attr=1|qr_nm:gd|res:RC4|com-cf:nl|ptrs:na|ktp:N0|mc:31787|mtp:S|qry_typ:P|lang:en|wc:2|cs:8842|v=4,False,Khengrapatti,Kolkata,"No. 10B, Jackson Lane, 1st Floor, China Bazar Beside Haldirams, Brabourne Road, Khengrapatti, Kolkata - 700001, Dist.Kolkata, West Bengal",8046068863,
Feeding Tops,https://www.indiamart.com/proddetail/feeding-tops-2852391974988.html?pos=131&kwd=maternity nightgowns&tags=||||8228.275|Price|product|||MDC|rsf:gd-|-stype:attr=1|qr_nm:gd|res:RC4|com-cf:nl|ptrs:na|ktp:N0|mc:31787|mtp:S|qry_typ:P|lang:en|wc:2|cs:8842|v=4,Karan Fab,https://www.indiamart.com/hellopartner/?pos=131&kwd=maternity nightgowns&tags=||||8228.275|Price|product|||MDC|rsf:gd-|-stype:attr=1|qr_nm:gd|res:RC4|com-cf:nl|ptrs:na|ktp:N0|mc:31787|mtp:S|qry_typ:P|lang:en|wc:2|cs:8842|v=4,False,Panchkuva,Ahmedabad,"SHOP NO.468/3,SAKAR BAZAR,Opp maskati market GATE NO.3,NR.KOTAK MAHINDRA BANK,, Panchkuva, Ahmedabad - 380002, Dist.Ahmedabad, Gujarat",8048605993,
"Solid Blue Cotton Feeding Gown, Three fourth sleeve",https://www.indiamart.com/proddetail/blue-cotton-feeding-gown-2854490587462.html?pos=132&kwd=maternity nightgowns&tags=||||8954.051|Price|product|||MDC|rsf:gd-|-stype:attr=1|qr_nm:gd|res:RC4|com-cf:nl|ptrs:na|ktp:N0|mc:31787|mtp:S|qry_typ:P|lang:en|wc:2|cs:8842|v=4,Earthwise Collective Private Limited,https://www.indiamart.com/earthwise-collective/?pos=132&kwd=maternity nightgowns&tags=||||8954.051|Price|product|||MDC|rsf:gd-|-stype:attr=1|qr_nm:gd|res:RC4|com-cf:nl|ptrs:na|ktp:N0|mc:31787|mtp:S|qry_typ:P|lang:en|wc:2|cs:8842|v=4,False,,Chennai,"9/2, 35/2, Bagirathiammal Street, T Nagar,, Chennai - 600017, Dist.Chennai, Tamil Nadu",7942801118,
Ladies Feeding Tops,https://www.indiamart.com/proddetail/ladies-feeding-tops-2854639558897.html?pos=133&kwd=maternity nightgowns&tags=||||8663.873|Price|product|||MDC|rsf:gd-|-stype:attr=1|qr_nm:gd|res:RC4|com-cf:nl|ptrs:na|ktp:N0|mc:31787|mtp:S|qry_typ:P|lang:en|wc:2|cs:8842|v=4,Sri Suswani Creations,https://www.indiamart.com/srisuswanicreations/?pos=133&kwd=maternity nightgowns&tags=||||8663.873|Price|product|||MDC|rsf:gd-|-stype:attr=1|qr_nm:gd|res:RC4|com-cf:nl|ptrs:na|ktp:N0|mc:31787|mtp:S|qry_typ:P|lang:en|wc:2|cs:8842|v=4,False,Bengaluru Urban,Bengaluru,"Ground Floor, Part A, 44, MH Plaza, Mamulpet,, Bengaluru Urban, Bengaluru - 560053, Dist.Bengaluru, Karnataka",7949327781,
Slumber Maternity Gown,https://www.indiamart.com/proddetail/slumber-maternity-gown-2852907426997.html?pos=134&kwd=maternity nightgowns&tags=||||8228.275|Price|product|||MDC|rsf:gd-|-stype:attr=1|qr_nm:gd|res:RC4|com-cf:nl|ptrs:na|ktp:N0|mc:31787|mtp:S|qry_typ:P|lang:en|wc:2|cs:8842|v=4,Platonic Lifestyle Private Limited,https://www.indiamart.com/platoniclifestyle/?pos=134&kwd=maternity nightgowns&tags=||||8228.275|Price|product|||MDC|rsf:gd-|-stype:attr=1|qr_nm:gd|res:RC4|com-cf:nl|ptrs:na|ktp:N0|mc:31787|mtp:S|qry_typ:P|lang:en|wc:2|cs:8842|v=4,False,Darpan Society,Ahmedabad,"D-237, Sumel Business Park 4, Opp-Amdupura, Saraspur,, Darpan Society, Ahmedabad - 380009, Dist.Ahmedabad, Gujarat",7942968468,
Feeding Gown,https://www.indiamart.com/proddetail/feeding-gown-2854896778962.html?pos=135&kwd=maternity nightgowns&tags=||||8601.347|Price|product|||MDC|rsf:gd-|-stype:attr=1|qr_nm:gd|res:RC4|com-cf:nl|ptrs:na|ktp:N0|mc:31787|mtp:S|qry_typ:P|lang:en|wc:2|cs:8842|v=4,Chopra Textiles,https://www.indiamart.com/chopra-textiles-jaipur/?pos=135&kwd=maternity nightgowns&tags=||||8601.347|Price|product|||MDC|rsf:gd-|-stype:attr=1|qr_nm:gd|res:RC4|com-cf:nl|ptrs:na|ktp:N0|mc:31787|mtp:S|qry_typ:P|lang:en|wc:2|cs:8842|v=4,False,,Jaipur,"1, Opp. Triveni Gas Godam, Jaipur Ring Road, Indane Gas Agency, Village Kherigokulpura, Jaipur - 303905, Dist.Jaipur, Rajasthan",7949327483,
Maternity Feeding Gown,https://www.indiamart.com/proddetail/maternity-feeding-gown-2854358116555.html?pos=136&kwd=maternity nightgowns&tags=||||8752.144|Price|product|||MDC|rsf:gd-|-stype:attr=1|qr_nm:gd|res:RC4|com-cf:nl|ptrs:na|ktp:N0|mc:31787|mtp:S|qry_typ:P|lang:en|wc:2|cs:8842|v=4,Siyaram Enterprises,https://www.indiamart.com/siyaram-enterprises-newdelhi/?pos=136&kwd=maternity nightgowns&tags=||||8752.144|Price|product|||MDC|rsf:gd-|-stype:attr=1|qr_nm:gd|res:RC4|com-cf:nl|ptrs:na|ktp:N0|mc:31787|mtp:S|qry_typ:P|lang:en|wc:2|cs:8842|v=4,False,,New Delhi,"76-D, A PKT, Third Floor Vikas Puri EXTN, West Delhi, New Delhi - 110018, Dist.Delhi, Delhi",8045737683,
Feather Maternity Photoshoot Gown,https://www.indiamart.com/proddetail/feather-maternity-photoshoot-gown-2853778511555.html?pos=137&kwd=maternity nightgowns&tags=||||8601.347|Price|product|||MDC|rsf:gd-|-stype:attr=1|qr_nm:gd|res:RC4|com-cf:nl|ptrs:na|ktp:N0|mc:31787|mtp:S|qry_typ:P|lang:en|wc:2|cs:8842|v=4,Thread Texture,https://www.indiamart.com/threadtexture/?pos=137&kwd=maternity nightgowns&tags=||||8601.347|Price|product|||MDC|rsf:gd-|-stype:attr=1|qr_nm:gd|res:RC4|com-cf:nl|ptrs:na|ktp:N0|mc:31787|mtp:S|qry_typ:P|lang:en|wc:2|cs:8842|v=4,False,,Jaipur,"Sector 11 Pratap Nagar, Jaipur - 302033, Dist.Jaipur, Rajasthan",8047656472,
Cotton Printed Night Suits,https://www.indiamart.com/proddetail/night-suits-2852302147233.html?pos=138&kwd=maternity nightgowns&tags=||||8954.051|Price|product|||MDC|rsf:gd-|-stype:attr=1|qr_nm:gd|res:RC4|com-cf:nl|ptrs:na|ktp:N0|mc:31787|mtp:S|qry_typ:P|lang:en|wc:2|cs:8842|v=4,Bstories,https://www.indiamart.com/bstories-chennai/?pos=138&kwd=maternity nightgowns&tags=||||8954.051|Price|product|||MDC|rsf:gd-|-stype:attr=1|qr_nm:gd|res:RC4|com-cf:nl|ptrs:na|ktp:N0|mc:31787|mtp:S|qry_typ:P|lang:en|wc:2|cs:8842|v=4,False,Valasaravakkam,Chennai,"6AB-7B,,KUMARAN COLONY , SRI DEVI KUPPAM ROAD,VALASARAVAKKAM, Valasaravakkam, Chennai - 600087, Dist.Chennai, Tamil Nadu",7942868243,
"Rayon Printed feeding Nighty, Half Sleeve",https://www.indiamart.com/proddetail/rayon-printed-feeding-nighty-2850456292348.html?pos=139&kwd=maternity nightgowns&tags=||||8228.275|Price|product|||TS|rsf:gd-|-stype:attr=1|qr_nm:gd|res:RC4|com-cf:nl|ptrs:na|ktp:N0|mc:31787|mtp:S|qry_typ:P|lang:en|wc:2|cs:8842|v=4,Shree Nakoda Bhairav Fab Tex,https://www.indiamart.com/shree-nakoda-bhairav-fabtex/?pos=139&kwd=maternity nightgowns&tags=||||8228.275|Price|product|||TS|rsf:gd-|-stype:attr=1|qr_nm:gd|res:RC4|com-cf:nl|ptrs:na|ktp:N0|mc:31787|mtp:S|qry_typ:P|lang:en|wc:2|cs:8842|v=4,False,Jahangirpura,Ahmedabad,"2nd Floor, E-213/ A, Prem Darwaja Road, Near Idgah Circle, City Center, Jahangirpura, Ahmedabad - 380016, Dist.Ahmedabad, Gujarat",8047306382,
Pregnancy Gowns,https://www.indiamart.com/proddetail/pregnancy-gowns-2851322025630.html?pos=140&kwd=maternity nightgowns&tags=||||8786.56|Price|product|||TS|rsf:gd-|-stype:attr=1|qr_nm:gd|res:RC4|com-cf:nl|ptrs:na|ktp:N0|mc:31787|mtp:S|qry_typ:P|lang:en|wc:2|cs:8842|v=4,M/s Axon Biotech Pharmaceuticals,https://www.indiamart.com/axonbiotechpharmaceuticals/?pos=140&kwd=maternity nightgowns&tags=||||8786.56|Price|product|||TS|rsf:gd-|-stype:attr=1|qr_nm:gd|res:RC4|com-cf:nl|ptrs:na|ktp:N0|mc:31787|mtp:S|qry_typ:P|lang:en|wc:2|cs:8842|v=4,False,Chandanagar,Hyderabad,"H.No.6-47/2, 1st Floor, Venkatadri Colony, Chanda Nagar, Serilingampally, Ranga Reddy District Chandanagar (v), Serilingampally (M), Chandanagar, Hyderabad - 500050, Dist.Hyderabad, Telangana",8048613235,
cotton anarkali feeding/maternity kurti,https://www.indiamart.com/proddetail/cotton-anarkali-feeding-maternity-kurti-2852386299991.html?pos=141&kwd=maternity nightgowns&tags=||||8601.347|Price|product|||TS|rsf:gd-|-stype:attr=1|qr_nm:gd|res:RC4|com-cf:nl|ptrs:na|ktp:N0|mc:31787|mtp:S|qry_typ:P|lang:en|wc:2|cs:8842|v=4,Guru Kripa Creation,https://www.indiamart.com/guru-kripa-creationjaipur/?pos=141&kwd=maternity nightgowns&tags=||||8601.347|Price|product|||TS|rsf:gd-|-stype:attr=1|qr_nm:gd|res:RC4|com-cf:nl|ptrs:na|ktp:N0|mc:31787|mtp:S|qry_typ:P|lang:en|wc:2|cs:8842|v=4,False,Sanganer Bazar,Jaipur,"01, Radha Ballabh Marg, Joshiyo Ka Mohalla, Sanganer, Sanganer Bazar, Jaipur - 302029, Dist.Jaipur, Rajasthan",7942956353,
"Plain Maternity Gowns, Handwash",https://www.indiamart.com/proddetail/maternity-gowns-22553628797.html?pos=142&kwd=maternity nightgowns&tags=||||8791.36|Price|product|||TS|rsf:gd-|-stype:attr=1|qr_nm:gd|res:RC4|com-cf:nl|ptrs:na|ktp:N0|mc:31787|mtp:S|qry_typ:P|lang:en|wc:2|cs:8842|v=4,M.S. Textiles,https://www.indiamart.com/m-s-textiles/?pos=142&kwd=maternity nightgowns&tags=||||8791.36|Price|product|||TS|rsf:gd-|-stype:attr=1|qr_nm:gd|res:RC4|com-cf:nl|ptrs:na|ktp:N0|mc:31787|mtp:S|qry_typ:P|lang:en|wc:2|cs:8842|v=4,False,Mohammadpur Dwedha,Muradnagar,"Agrasen Market, Mohammadpur Dwedha, Muradnagar - 201206, Dist.Ghaziabad, Uttar Pradesh",8048953200,
Maternity Tunic feeding gwon,https://www.indiamart.com/proddetail/maternity-tunic-feeding-gwon-2850085386133.html?pos=143&kwd=maternity nightgowns&tags=||||8601.347|Price|product|||TS|rsf:gd-|-stype:attr=1|qr_nm:gd|res:RC4|com-cf:nl|ptrs:na|ktp:N0|mc:31787|mtp:S|qry_typ:P|lang:en|wc:2|cs:8842|v=4,Prince Enterprises,https://www.indiamart.com/princeenterprisesjaipur/?pos=143&kwd=maternity nightgowns&tags=||||8601.347|Price|product|||TS|rsf:gd-|-stype:attr=1|qr_nm:gd|res:RC4|com-cf:nl|ptrs:na|ktp:N0|mc:31787|mtp:S|qry_typ:P|lang:en|wc:2|cs:8842|v=4,False,Mansarovar,Jaipur,"115/137 Agarwal Farm,mansarovar, Mansarovar, Jaipur - 302020, Dist.Jaipur, Rajasthan",8048963229,
Feeding Gown,https://www.indiamart.com/proddetail/feeding-gown-2854721757391.html?pos=144&kwd=maternity nightgowns&tags=||||8601.347|Price|product|||MDC|rsf:gd-|-stype:attr=1|qr_nm:gd|res:RC4|com-cf:nl|ptrs:na|ktp:N0|mc:31787|mtp:S|qry_typ:P|lang:en|wc:2|cs:8842|v=4,Supreme Reliable Retail Private Limited,https://www.indiamart.com/supremereliableretail/?pos=144&kwd=maternity nightgowns&tags=||||8601.347|Price|product|||MDC|rsf:gd-|-stype:attr=1|qr_nm:gd|res:RC4|com-cf:nl|ptrs:na|ktp:N0|mc:31787|mtp:S|qry_typ:P|lang:en|wc:2|cs:8842|v=4,False,Kalyan Puri,Jaipur,"SHANTI PATH, GOPAL PURA,, Kalyan Puri, Jaipur - 302020, Dist.Jaipur, Rajasthan",7942539088,
"3/4 Sleeve Women Rayon Maternity Pink Feeding Gown, L",https://www.indiamart.com/proddetail/women-rayon-maternity-pink-feeding-gown-2852870595548.html?pos=145&kwd=maternity nightgowns&tags=||||8601.347|Price|product|||MDC|rsf:gd-|-stype:attr=1|qr_nm:gd|res:RC4|com-cf:nl|ptrs:na|ktp:N0|mc:31787|mtp:S|qry_typ:P|lang:en|wc:2|cs:8842|v=4,Chalwal Threads,https://www.indiamart.com/chalwal-threads/?pos=145&kwd=maternity nightgowns&tags=||||8601.347|Price|product|||MDC|rsf:gd-|-stype:attr=1|qr_nm:gd|res:RC4|com-cf:nl|ptrs:na|ktp:N0|mc:31787|mtp:S|qry_typ:P|lang:en|wc:2|cs:8842|v=4,False,Pratap Nagar Sector 12,Jaipur,"Plot No. 14 Krishi Nagar Toll Tax, Near C.I.S.F., Sanganer, Sanganer, Jaipur, Pratap Nagar Sector 12, Jaipur - 302033, Dist.Jaipur, Rajasthan",8045737928,
"JAF Feeding Printed Green Gown, Three fourth sleeve",https://www.indiamart.com/proddetail/jaf-feeding-printed-green-gown-2852582515912.html?pos=146&kwd=maternity nightgowns&tags=||||8601.347|Price|product|||MDC|rsf:gd-|-stype:attr=1|qr_nm:gd|res:RC4|com-cf:nl|ptrs:na|ktp:N0|mc:31787|mtp:S|qry_typ:P|lang:en|wc:2|cs:8842|v=4,Jai Ambay Fashion,https://www.indiamart.com/jai-ambay-fashion/?pos=146&kwd=maternity nightgowns&tags=||||8601.347|Price|product|||MDC|rsf:gd-|-stype:attr=1|qr_nm:gd|res:RC4|com-cf:nl|ptrs:na|ktp:N0|mc:31787|mtp:S|qry_typ:P|lang:en|wc:2|cs:8842|v=4,False,Sanganer,Jaipur,"Bawdi Ka Bas Kunjaro Ki Dhani, Sanganer, Jaipur - 302029, Dist.Jaipur, Rajasthan",7942715038,
Cotton Nursing Mother Feeding Gown,https://www.indiamart.com/proddetail/nursing-mother-feeding-gown-2854902303055.html?pos=147&kwd=maternity nightgowns&tags=||||8767.829|Price|product|||MDC|rsf:gd-|-stype:attr=1|qr_nm:gd|res:RC4|com-cf:nl|ptrs:na|ktp:N0|mc:31787|mtp:S|qry_typ:P|lang:en|wc:2|cs:8842|v=4,E-Factory,https://www.indiamart.com/efactory-palwal/?pos=147&kwd=maternity nightgowns&tags=||||8767.829|Price|product|||MDC|rsf:gd-|-stype:attr=1|qr_nm:gd|res:RC4|com-cf:nl|ptrs:na|ktp:N0|mc:31787|mtp:S|qry_typ:P|lang:en|wc:2|cs:8842|v=4,False,,Palwal,"Gali No - 1, Railway Road, Near Bus Stand,, Palwal - 121102, Dist.Palwal, Haryana",8044458489,
"Light Grey Babymoon Off Shoulder Maternity Gown, Size: XL",https://www.indiamart.com/proddetail/babymoon-off-shoulder-maternity-gown-26090579555.html?pos=148&kwd=maternity nightgowns&tags=||||8228.275|Price|product|||MDC|rsf:gd-|-stype:attr=1|qr_nm:gd|res:RC4|com-cf:nl|ptrs:na|ktp:N0|mc:31787|mtp:S|qry_typ:P|lang:en|wc:2|cs:8842|v=4,Dream Works,https://www.indiamart.com/dreamworks-ahmedabad/?pos=148&kwd=maternity nightgowns&tags=||||8228.275|Price|product|||MDC|rsf:gd-|-stype:attr=1|qr_nm:gd|res:RC4|com-cf:nl|ptrs:na|ktp:N0|mc:31787|mtp:S|qry_typ:P|lang:en|wc:2|cs:8842|v=4,False,Sanathal,Ahmedabad,"5,Chanakya Bunglows,Nr Lad Society Common Plot,Vastrapur, Sanathal, Ahmedabad - 380054, Dist.Ahmedabad, Gujarat",8047663803,
Green Hospital Patient Cotton Feeding Gown,https://www.indiamart.com/proddetail/hospital-patient-cotton-feeding-gown-21832569655.html?pos=149&kwd=maternity nightgowns&tags=||||8515.687|Price|product|||MDC|rsf:gd-|-stype:attr=1|qr_nm:gd|res:RC4|com-cf:nl|ptrs:na|ktp:N0|mc:31787|mtp:S|qry_typ:P|lang:en|wc:2|cs:8842|v=4,S M Surgiwears,https://www.indiamart.com/sm-surgiwear/?pos=149&kwd=maternity nightgowns&tags=||||8515.687|Price|product|||MDC|rsf:gd-|-stype:attr=1|qr_nm:gd|res:RC4|com-cf:nl|ptrs:na|ktp:N0|mc:31787|mtp:S|qry_typ:P|lang:en|wc:2|cs:8842|v=4,False,,Solapur,"102D/87 Bhavani Peth, Solapur - 413002, Dist.Solapur, Maharashtra",7942543046,
"Cotton Aaram Feed Brown Printed Feeding Gown, Three fourth sleeve",https://www.indiamart.com/proddetail/aaram-feed-brown-printed-feeding-gown-2850048780391.html?pos=150&kwd=maternity nightgowns&tags=||||8663.873|Price|product|||MDC|rsf:gd-|-stype:attr=1|qr_nm:gd|res:RC4|com-cf:nl|ptrs:na|ktp:N0|mc:31787|mtp:S|qry_typ:P|lang:en|wc:2|cs:8842|v=4,Samkith Creations,https://www.indiamart.com/samkithcreations/?pos=150&kwd=maternity nightgowns&tags=||||8663.873|Price|product|||MDC|rsf:gd-|-stype:attr=1|qr_nm:gd|res:RC4|com-cf:nl|ptrs:na|ktp:N0|mc:31787|mtp:S|qry_typ:P|lang:en|wc:2|cs:8842|v=4,False,Basaveshwar Nagar,Bengaluru,"2nd Floor , No,154/13, 5th Main , 1st Cross , Shankar Mutt Road,Chamrajpet, Urban, Basaveshwar Nagar, Bengaluru - 560019, Dist.Bengaluru, Karnataka",7942721702,
"Feeding Maternity Gown, 120, Sleeves: 3",https://www.indiamart.com/proddetail/feeding-maternity-gown-23898648697.html?pos=151&kwd=maternity nightgowns&tags=||||8601.347|Price|product|||MDC|rsf:gd-|-stype:attr=1|qr_nm:gd|res:RC4|com-cf:nl|ptrs:na|ktp:N0|mc:31787|mtp:S|qry_typ:P|lang:en|wc:2|cs:8842|v=4,Jain Trade Link,https://www.indiamart.com/jaintradelink-jaipur/?pos=151&kwd=maternity nightgowns&tags=||||8601.347|Price|product|||MDC|rsf:gd-|-stype:attr=1|qr_nm:gd|res:RC4|com-cf:nl|ptrs:na|ktp:N0|mc:31787|mtp:S|qry_typ:P|lang:en|wc:2|cs:8842|v=4,False,Kasturba Nagar,Jaipur,"Plot No 26, Dharam Nagar, Badarwas, Kasturba Nagar, Jaipur - 302019, Dist.Jaipur, Rajasthan",8048959284,
Navy Blue Printed Cotton Nightgown,https://www.indiamart.com/proddetail/navy-blue-printed-cotton-nightgown-26046073412.html?pos=152&kwd=maternity nightgowns&tags=||||9839.57|Price|product|||TS|rsf:gd-|-stype:attr=1|qr_nm:gd|res:RC4|com-cf:nl|ptrs:na|ktp:N0|mc:31787|mtp:S|qry_typ:P|lang:en|wc:2|cs:8842|v=4,Ridhi Creation,https://www.indiamart.com/ridhicreation-kolkata/?pos=152&kwd=maternity nightgowns&tags=||||9839.57|Price|product|||TS|rsf:gd-|-stype:attr=1|qr_nm:gd|res:RC4|com-cf:nl|ptrs:na|ktp:N0|mc:31787|mtp:S|qry_typ:P|lang:en|wc:2|cs:8842|v=4,False,Dum Dum,Kolkata,"9,5th, Sambhu Mullick Lane, Dum Dum, Kolkata - 700007, Dist.Kolkata, West Bengal",8043851450,
"Solid Plain Hosiery Ladies Nightgown, Half Sleeve, Size: Free Size",https://www.indiamart.com/proddetail/plain-hosiery-ladies-nightgown-2853142881891.html?pos=153&kwd=maternity nightgowns&tags=||||8228.275|Price|product|||TS|rsf:gd-|-stype:attr=1|qr_nm:gd|res:RC4|com-cf:nl|ptrs:na|ktp:N0|mc:31787|mtp:S|qry_typ:P|lang:en|wc:2|cs:8842|v=4,Mahadev Textile,https://www.indiamart.com/mahadevtextile-ahmedabad/?pos=153&kwd=maternity nightgowns&tags=||||8228.275|Price|product|||TS|rsf:gd-|-stype:attr=1|qr_nm:gd|res:RC4|com-cf:nl|ptrs:na|ktp:N0|mc:31787|mtp:S|qry_typ:P|lang:en|wc:2|cs:8842|v=4,False,Saraspur,Ahmedabad,"B-344, 3rd Floor, Sumel Business Park-4, Amdupura, Saraspur, Ahmedabad - 380025, Dist.Ahmedabad, Gujarat",8047665839,
"Printed Ladies Cotton Maternity Nightgown, Green",https://www.indiamart.com/proddetail/ladies-cotton-maternity-nightgown-22618557473.html?pos=154&kwd=maternity nightgowns&tags=CA||||8211.142|Price|product|||NA|rsf:gd-|-stype:attr=1|qr_nm:gd|res:RC4|com-cf:nl|ptrs:na|ktp:N0|mc:31787|mtp:S|qry_typ:P|lang:en|wc:2|cs:8842|v=4,Gopinathji Apparels LLP,https://www.indiamart.com/verrona/?pos=154&kwd=maternity nightgowns&tags=CA||||8211.142|Price|product|||NA|rsf:gd-|-stype:attr=1|qr_nm:gd|res:RC4|com-cf:nl|ptrs:na|ktp:N0|mc:31787|mtp:S|qry_typ:P|lang:en|wc:2|cs:8842|v=4,False,,Mumbai,"144, ASHOK SILK MILL COMPOUND, OPP. 90 FEET ROAD, OPP. SAHEEL HOTEL, NEAR SION RAILWAY STATION, Mumbai - 400706, Dist.Mumbai, Maharashtra",8043849008,
Solid Ladies Grey Hosiery Maternity Nightgown,https://www.indiamart.com/proddetail/ladies-grey-hosiery-maternity-nightgown-23037191697.html?pos=155&kwd=maternity nightgowns&tags=CA||||8663.873|Price|product|||NA|rsf:gd-|-stype:attr=1|qr_nm:gd|res:RC4|com-cf:nl|ptrs:na|ktp:N0|mc:31787|mtp:S|qry_typ:P|lang:en|wc:2|cs:8842|v=4,Nilesh Creation,https://www.indiamart.com/nileshcreation/?pos=155&kwd=maternity nightgowns&tags=CA||||8663.873|Price|product|||NA|rsf:gd-|-stype:attr=1|qr_nm:gd|res:RC4|com-cf:nl|ptrs:na|ktp:N0|mc:31787|mtp:S|qry_typ:P|lang:en|wc:2|cs:8842|v=4,False,vv puram,Bengaluru,"no.51, 3rd floor, Raja Hariharan Towers, sajjan Rao road, basappa circle, vv puram, vv puram, Bengaluru - 560004, Dist.Bengaluru, Karnataka",8047769700,
"White Printed Ladies Cotton Nighty, Half Sleeve",https://www.indiamart.com/proddetail/printed-ladies-cotton-nighty-2853555497333.html?pos=156&kwd=maternity nightgowns&tags=||||8342.223|Price|product|||MDC|rsf:gd-|-stype:attr=1|qr_nm:gd|res:RC4|com-cf:nl|ptrs:na|ktp:N0|mc:31787|mtp:S|qry_typ:P|lang:en|wc:2|cs:8842|v=4,Tanesh Cotton Mills,https://www.indiamart.com/taneshcottonmills/?pos=156&kwd=maternity nightgowns&tags=||||8342.223|Price|product|||MDC|rsf:gd-|-stype:attr=1|qr_nm:gd|res:RC4|com-cf:nl|ptrs:na|ktp:N0|mc:31787|mtp:S|qry_typ:P|lang:en|wc:2|cs:8842|v=4,False,Pancham Nagar,Pali,"5, Jay Nagar, Pancham Nagar, Pali - 306401, Rajasthan",8047801226,
Printed Silk Valentine Night wear,https://www.indiamart.com/proddetail/valentine-night-wear-24290343733.html?pos=157&kwd=maternity nightgowns&tags=||||8741.987|Price|product|||MDC|rsf:gd-|-stype:attr=1|qr_nm:gd|res:RC4|com-cf:nl|ptrs:na|ktp:N0|mc:31787|mtp:S|qry_typ:P|lang:en|wc:2|cs:8842|v=4,Step By Step Marketing,https://www.indiamart.com/stepbystepmarketing/?pos=157&kwd=maternity nightgowns&tags=||||8741.987|Price|product|||MDC|rsf:gd-|-stype:attr=1|qr_nm:gd|res:RC4|com-cf:nl|ptrs:na|ktp:N0|mc:31787|mtp:S|qry_typ:P|lang:en|wc:2|cs:8842|v=4,False,Mohra,Ambala,"10Thkm Mohra Mohra, Mohra, Ambala - 133001, Dist.Ambala, Haryana",8048264519,
"Multicolor Printed Long Designer Dresses, Gown, 3/4th Sleeves",https://www.indiamart.com/proddetail/long-designer-dresses-25640402755.html?pos=158&kwd=maternity nightgowns&tags=||||8601.347|Price|product|||MDC|rsf:gd-|-stype:attr=1|qr_nm:gd|res:RC4|com-cf:nl|ptrs:na|ktp:N0|mc:31787|mtp:S|qry_typ:P|lang:en|wc:2|cs:8842|v=4,B.R. ENTERPRISES,https://www.indiamart.com/brenterprises-india/?pos=158&kwd=maternity nightgowns&tags=||||8601.347|Price|product|||MDC|rsf:gd-|-stype:attr=1|qr_nm:gd|res:RC4|com-cf:nl|ptrs:na|ktp:N0|mc:31787|mtp:S|qry_typ:P|lang:en|wc:2|cs:8842|v=4,False,Govind Nagar,Jaipur,"29-C, Govind Nagar West, Manu Marg Amber Road, Govind Nagar, Jaipur - 302002, Dist.Jaipur, Rajasthan",8046041534,
Maternity Kurtis,https://www.indiamart.com/proddetail/maternity-kurtis-2854353889173.html?pos=159&kwd=maternity nightgowns&tags=||||8601.347|Price|product|||MDC|rsf:gd-|-stype:attr=1|qr_nm:gd|res:RC4|com-cf:nl|ptrs:na|ktp:N0|mc:31787|mtp:S|qry_typ:P|lang:en|wc:2|cs:8842|v=4,Parasnath Traders,https://www.indiamart.com/parasnathtraders-jaipur/?pos=159&kwd=maternity nightgowns&tags=||||8601.347|Price|product|||MDC|rsf:gd-|-stype:attr=1|qr_nm:gd|res:RC4|com-cf:nl|ptrs:na|ktp:N0|mc:31787|mtp:S|qry_typ:P|lang:en|wc:2|cs:8842|v=4,False,Mansarovar,Jaipur,"Plot No. 34-35A, Shri Ram Nagar, Near Kids Club School, New Sanganer Road, Mansarovar, Mansarovar, Jaipur - 302020, Dist.Jaipur, Rajasthan",7948547962,
Maternity Nightgowns,https://www.indiamart.com/proddetail/maternity-nightgowns-3912964848.html?pos=160&kwd=maternity nightgowns&tags=CC||||8626.744||product|||NA|rsf:gd-|-stype:attr=1|qr_nm:gd|res:RC4|com-cf:nl|ptrs:na|ktp:N0|mc:31787|mtp:S|qry_typ:P|lang:en|wc:2|cs:8842|v=4,Uvashree Garments,https://www.indiamart.com/uvashreegarments/?pos=160&kwd=maternity nightgowns&tags=CC||||8626.744||product|||NA|rsf:gd-|-stype:attr=1|qr_nm:gd|res:RC4|com-cf:nl|ptrs:na|ktp:N0|mc:31787|mtp:S|qry_typ:P|lang:en|wc:2|cs:8842|v=4,False,T. M. Poondi Post,Tiruppur,"No. 3/253 A, Atthupalayam, Pattathu Arasi, Amman Kovil Backside T. M. Poondi Post, T. M. Poondi Post, Tiruppur - 641652, Dist.Coimbatore, Tamil Nadu",8048371961,900
"Cotton Printed Maternity Nightgowns, Brown",https://www.indiamart.com/proddetail/maternity-nightgowns-4028203448.html?pos=161&kwd=maternity nightgowns&tags=CC||||8211.142||product|||NA|rsf:gd-|-stype:attr=1|qr_nm:gd|res:RC4|com-cf:nl|ptrs:na|ktp:N0|mc:31787|mtp:S|qry_typ:P|lang:en|wc:2|cs:8842|v=4,Ashapura Intimates Fashion Limited,https://www.indiamart.com/ashapuraapparels/?pos=161&kwd=maternity nightgowns&tags=CC||||8211.142||product|||NA|rsf:gd-|-stype:attr=1|qr_nm:gd|res:RC4|com-cf:nl|ptrs:na|ktp:N0|mc:31787|mtp:S|qry_typ:P|lang:en|wc:2|cs:8842|v=4,False,Dadar West,Mumbai,"Unit No. 3, 4, Pacific Plaza, Plot No. 570 Masjid Gali, Off Bhavani Shankar Road, Dadar West, Dadar West, Mumbai - 400028, Dist.Mumbai, Maharashtra",8048247115,3888
"Pink(Base) Ladies Printed Maternity Gown, Size: Large",https://www.indiamart.com/proddetail/ladies-printed-maternity-gown-2849761101630.html?pos=162&kwd=maternity nightgowns&tags=CC||||8601.347|Price|product|||NA|rsf:gd-|-stype:attr=1|qr_nm:gd|res:RC4|com-cf:nl|ptrs:na|ktp:N0|mc:31787|mtp:S|qry_typ:P|lang:en|wc:2|cs:8842|v=4,Riddhi Siddhi Fashion,https://www.indiamart.com/riddhi-siddhifashion/?pos=162&kwd=maternity nightgowns&tags=CC||||8601.347|Price|product|||NA|rsf:gd-|-stype:attr=1|qr_nm:gd|res:RC4|com-cf:nl|ptrs:na|ktp:N0|mc:31787|mtp:S|qry_typ:P|lang:en|wc:2|cs:8842|v=4,False,,Jaipur,"P No 14, Green Vilaz, Mansarover, Jaipur - 302020, Dist.Jaipur, Rajasthan",7942797470,
"WHITE Maternity Wear D.NO.1861, Sleeves: Half Sleeves",https://www.indiamart.com/proddetail/maternity-wear-d-no-1861-21486303173.html?pos=163&kwd=maternity nightgowns&tags=CC||||8211.142||product|||NA|rsf:gd-|-stype:attr=1|qr_nm:gd|res:RC4|com-cf:nl|ptrs:na|ktp:N0|mc:31787|mtp:S|qry_typ:P|lang:en|wc:2|cs:8842|v=4,Chamunda Clothing,https://www.indiamart.com/chamundclothing/?pos=163&kwd=maternity nightgowns&tags=CC||||8211.142||product|||NA|rsf:gd-|-stype:attr=1|qr_nm:gd|res:RC4|com-cf:nl|ptrs:na|ktp:N0|mc:31787|mtp:S|qry_typ:P|lang:en|wc:2|cs:8842|v=4,False,Bandra East,Mumbai,"Plot No. 73, Haresh Foods, Khervadi,, Bandra East, Mumbai - 400051, Dist.Mumbai, Maharashtra",8048371762,785
Printed Floral Maternity Gown,,DR Enterprises,https://www.indiamart.com/rsr-lifestyle/?pos=164&kwd=maternity nightgowns&tags=CC||||8778.123||product|||NA|rsf:gd-|-stype:attr=1|qr_nm:gd|res:RC4|com-cf:nl|ptrs:na|ktp:N0|mc:31787|mtp:S|qry_typ:P|lang:en|wc:2|cs:8842|v=4,False,,Noida,"BLK 14, Sector 116, Noida - 201301, Dist.Gautam Budh Nagar, Uttar Pradesh",8048371734,678
"Cotton Printed Ladies Maternity Night Gown, Multiple Colors",https://www.indiamart.com/proddetail/ladies-maternity-night-gown-23474366112.html?pos=165&kwd=maternity nightgowns&tags=CB||||9528.781|Price|product|||NA|rsf:gd-|-stype:attr=1|qr_nm:gd|res:RC4|com-cf:nl|ptrs:na|ktp:N0|mc:31787|mtp:S|qry_typ:P|lang:en|wc:2|cs:8842|v=4,D.K.Fashion,https://www.indiamart.com/dk-fashion-ranchi/?pos=165&kwd=maternity nightgowns&tags=CB||||9528.781|Price|product|||NA|rsf:gd-|-stype:attr=1|qr_nm:gd|res:RC4|com-cf:nl|ptrs:na|ktp:N0|mc:31787|mtp:S|qry_typ:P|lang:en|wc:2|cs:8842|v=4,False,,Ranchi,"RBS Market, 2nd Floor, Municiple Holding No. 767, Beside Handa Masjid, Upper Bazar, Ranchi - 834001, Dist.Ranchi, Jharkhand",8048372749,457
Ladies Maternity Night Dress,https://www.indiamart.com/proddetail/ladies-maternity-night-dress-2850518049148.html?pos=166&kwd=maternity nightgowns&tags=CC||||8228.275|Price|product|||NA|rsf:gd-|-stype:attr=1|qr_nm:gd|res:RC4|com-cf:nl|ptrs:na|ktp:N0|mc:31787|mtp:S|qry_typ:P|lang:en|wc:2|cs:8842|v=4,K Bela Creation,https://www.indiamart.com/k-bela-creation/?pos=166&kwd=maternity nightgowns&tags=CC||||8228.275|Price|product|||NA|rsf:gd-|-stype:attr=1|qr_nm:gd|res:RC4|com-cf:nl|ptrs:na|ktp:N0|mc:31787|mtp:S|qry_typ:P|lang:en|wc:2|cs:8842|v=4,False,,Ahmedabad,"121/122 vivekanand garments park shavadi Narol gaam Ahmedabad, Ahmedabad - 380001, Dist.Ahmedabad, Gujarat",7942803999,
Maternity Gowns,https://www.indiamart.com/proddetail/maternity-gowns-4341695088.html?pos=167&kwd=maternity nightgowns&tags=CC||||8211.142||product|||NA|rsf:gd-|-stype:attr=1|qr_nm:gd|res:RC4|com-cf:nl|ptrs:na|ktp:N0|mc:31787|mtp:S|qry_typ:P|lang:en|wc:2|cs:8842|v=4,Priya Inner Wear,https://www.indiamart.com/priyanightwear/?pos=167&kwd=maternity nightgowns&tags=CC||||8211.142||product|||NA|rsf:gd-|-stype:attr=1|qr_nm:gd|res:RC4|com-cf:nl|ptrs:na|ktp:N0|mc:31787|mtp:S|qry_typ:P|lang:en|wc:2|cs:8842|v=4,False,Borivali West,Mumbai,"Ground Floor 28 S V Road Jawan Nagar Chsl Borivali W Borivali West, Borivali West, Mumbai - 400092, Dist.Mumbai, Maharashtra",8048371700,956
Maternity Gown,,Apex Hygiene Products,https://www.indiamart.com/apex-hygiene-products-pune/?pos=168&kwd=maternity nightgowns&tags=CC||||8307.81||product|||NA|rsf:gd-|-stype:attr=1|qr_nm:gd|res:RC4|com-cf:nl|ptrs:na|ktp:N0|mc:31787|mtp:S|qry_typ:P|lang:en|wc:2|cs:8842|v=4,False,,Pune,"Waghere Industrial Estate Cts No 322/3 Ram Mandir Road Pcmc Boat Club Pimprigaon, Pimpri Pune, Pune - 411017, Dist.Pune, Maharashtra",8048249737,6031
"Cotton Maternity Nighty, Sleeves: Half Sleeves",https://www.indiamart.com/proddetail/cotton-maternity-nighty-22653034191.html?pos=169&kwd=maternity nightgowns&tags=CC||||8331.898|Price|product|||NA|rsf:gd-|-stype:attr=1|qr_nm:gd|res:RC4|com-cf:nl|ptrs:na|ktp:N0|mc:31787|mtp:S|qry_typ:P|lang:en|wc:2|cs:8842|v=4,Nakoda Creations,https://www.indiamart.com/nakoda-creations-karad/?pos=169&kwd=maternity nightgowns&tags=CC||||8331.898|Price|product|||NA|rsf:gd-|-stype:attr=1|qr_nm:gd|res:RC4|com-cf:nl|ptrs:na|ktp:N0|mc:31787|mtp:S|qry_typ:P|lang:en|wc:2|cs:8842|v=4,False,Namdev Chowk,Karad,"172, Shukrawar Peth, Namdev Chowk, Karad - 415110, Dist.Satara, Maharashtra",8069023892,137
"Printed Cotton Mother Nighty, Yellow",https://www.indiamart.com/proddetail/cotton-mother-nighty-23049156533.html?pos=170&kwd=maternity nightgowns&tags=CC||||8235.633|Price|product|||NA|rsf:gd-|-stype:attr=1|qr_nm:gd|res:RC4|com-cf:nl|ptrs:na|ktp:N0|mc:31787|mtp:S|qry_typ:P|lang:en|wc:2|cs:8842|v=4,Mukul Textile Mills,https://www.indiamart.com/mukul-textile-mills/?pos=170&kwd=maternity nightgowns&tags=CC||||8235.633|Price|product|||NA|rsf:gd-|-stype:attr=1|qr_nm:gd|res:RC4|com-cf:nl|ptrs:na|ktp:N0|mc:31787|mtp:S|qry_typ:P|lang:en|wc:2|cs:8842|v=4,False,,Balotra,"Shri Ram Process House, Office No.2 M/s Mukul Textile Mills Industrial Area E-89a, 1st Phase, Balotra - 344022, Dist.Barmer, Rajasthan",8046063703,
Maternity Gown,https://www.indiamart.com/proddetail/maternity-gown-2850892019297.html?pos=171&kwd=maternity nightgowns&tags=CC||||8230.883|Price|product|||NA|rsf:gd-|-stype:attr=1|qr_nm:gd|res:RC4|com-cf:nl|ptrs:na|ktp:N0|mc:31787|mtp:S|qry_typ:P|lang:en|wc:2|cs:8842|v=4,Dhara Fashion,https://www.indiamart.com/dharafashionsurat/?pos=171&kwd=maternity nightgowns&tags=CC||||8230.883|Price|product|||NA|rsf:gd-|-stype:attr=1|qr_nm:gd|res:RC4|com-cf:nl|ptrs:na|ktp:N0|mc:31787|mtp:S|qry_typ:P|lang:en|wc:2|cs:8842|v=4,False,,Surat,"Plot-15/321, Shed No-23, GR. Floor, Pavthawala Comp, Jain Mandir Road, Vasta Devdi Road, Kataragam, Surat - 395004, Dist.Surat, Gujarat",8047647921,
Maternity Gown,https://www.indiamart.com/proddetail/maternity-gown-5014042891.html?pos=172&kwd=maternity nightgowns&tags=CC||||8752.144||product|||NA|rsf:gd-|-stype:attr=1|qr_nm:gd|res:RC4|com-cf:nl|ptrs:na|ktp:N0|mc:31787|mtp:S|qry_typ:P|lang:en|wc:2|cs:8842|v=4,Surgeine Healthcare (India) Private Limited,https://www.indiamart.com/surgeine-healthcare/?pos=172&kwd=maternity nightgowns&tags=CC||||8752.144||product|||NA|rsf:gd-|-stype:attr=1|qr_nm:gd|res:RC4|com-cf:nl|ptrs:na|ktp:N0|mc:31787|mtp:S|qry_typ:P|lang:en|wc:2|cs:8842|v=4,False,Shalimar Bagh,New Delhi,"AB-4, IInd Floor, Shalimar Bagh, Shalimar Bagh, New Delhi - 110088, Dist.Delhi, Delhi",8048372609,812
"Printed Cotton Maternity Gown, Peach",https://www.indiamart.com/proddetail/cotton-maternity-gown-24809101191.html?pos=173&kwd=maternity nightgowns&tags=CC||||8601.347|Price|product|||NA|rsf:gd-|-stype:attr=1|qr_nm:gd|res:RC4|com-cf:nl|ptrs:na|ktp:N0|mc:31787|mtp:S|qry_typ:P|lang:en|wc:2|cs:8842|v=4,L S Fashion,https://www.indiamart.com/ls-fashion-rajasthan/?pos=173&kwd=maternity nightgowns&tags=CC||||8601.347|Price|product|||NA|rsf:gd-|-stype:attr=1|qr_nm:gd|res:RC4|com-cf:nl|ptrs:na|ktp:N0|mc:31787|mtp:S|qry_typ:P|lang:en|wc:2|cs:8842|v=4,False,,Jaipur,"D-9/121, First Floor, Chitrakoot Yojana, Vaishali Nagar, Sector-9, Jaipur - 302021, Dist.Jaipur, Rajasthan",8048261263,
Maternity Gown,https://www.indiamart.com/proddetail/maternity-gown-15301124897.html?pos=174&kwd=maternity nightgowns&tags=CC||||8211.142|Price|product|||NA|rsf:gd-|-stype:attr=1|qr_nm:gd|res:RC4|com-cf:nl|ptrs:na|ktp:N0|mc:31787|mtp:S|qry_typ:P|lang:en|wc:2|cs:8842|v=4,Remy Creation,https://www.indiamart.com/remy-creation/?pos=174&kwd=maternity nightgowns&tags=CC||||8211.142|Price|product|||NA|rsf:gd-|-stype:attr=1|qr_nm:gd|res:RC4|com-cf:nl|ptrs:na|ktp:N0|mc:31787|mtp:S|qry_typ:P|lang:en|wc:2|cs:8842|v=4,False,Bandra East,Mumbai,"1st Floor, 6/11, Amrut Nagar, Kherwadi Road, Bandra East, Mumbai - 400051, Dist.Mumbai, Maharashtra",8048372728,956
Ladies Maternity Nighty,https://www.indiamart.com/proddetail/ladies-maternity-nighty-6585582212.html?pos=175&kwd=maternity nightgowns&tags=CC||||8211.142||product|||NA|rsf:gd-|-stype:attr=1|qr_nm:gd|res:RC4|com-cf:nl|ptrs:na|ktp:N0|mc:31787|mtp:S|qry_typ:P|lang:en|wc:2|cs:8842|v=4,O Baby,https://www.indiamart.com/obaby/?pos=175&kwd=maternity nightgowns&tags=CC||||8211.142||product|||NA|rsf:gd-|-stype:attr=1|qr_nm:gd|res:RC4|com-cf:nl|ptrs:na|ktp:N0|mc:31787|mtp:S|qry_typ:P|lang:en|wc:2|cs:8842|v=4,False,J V Patel Compound,Mumbai,"C-3, Prime Showcase, J. V.Patel Compound, Near Prime Plaza, BM Marg, Elphinstone Road, J V Patel Compound, Mumbai - 400013, Dist.Mumbai, Maharashtra",8048371579,173
Art Silk Green Maternity Gown,https://www.indiamart.com/proddetail/green-maternity-gown-27136327255.html?pos=176&kwd=maternity nightgowns&tags=CC||||8601.347|Price|product|||NA|rsf:gd-|-stype:attr=1|qr_nm:gd|res:RC4|com-cf:nl|ptrs:na|ktp:N0|mc:31787|mtp:S|qry_typ:P|lang:en|wc:2|cs:8842|v=4,Priya'S Fashion Hub,https://www.indiamart.com/priyas-fashionhub/?pos=176&kwd=maternity nightgowns&tags=CC||||8601.347|Price|product|||NA|rsf:gd-|-stype:attr=1|qr_nm:gd|res:RC4|com-cf:nl|ptrs:na|ktp:N0|mc:31787|mtp:S|qry_typ:P|lang:en|wc:2|cs:8842|v=4,False,,Jaipur,"114, Flat No. F-1, Krishna Sudama Apprament, Rodu Nagar, Patrakar Colony, Mansarovar, Jaipur - 302020, Dist.Jaipur, Rajasthan",8048272278,
BLACK Ladies Maternity Nighty,https://www.indiamart.com/proddetail/ladies-maternity-nighty-23079753033.html?pos=177&kwd=maternity nightgowns&tags=CC||||8211.142|Price|product|||NA|rsf:gd-|-stype:attr=1|qr_nm:gd|res:RC4|com-cf:nl|ptrs:na|ktp:N0|mc:31787|mtp:S|qry_typ:P|lang:en|wc:2|cs:8842|v=4,C K Enterprises,https://www.indiamart.com/c-k-enterprises-mumbai/?pos=177&kwd=maternity nightgowns&tags=CC||||8211.142|Price|product|||NA|rsf:gd-|-stype:attr=1|qr_nm:gd|res:RC4|com-cf:nl|ptrs:na|ktp:N0|mc:31787|mtp:S|qry_typ:P|lang:en|wc:2|cs:8842|v=4,False,Ghatkopar West Upper Level Shivkrupa Society,Mumbai,"GALA NO. A4,UPPER LEVEL SHIVKRUPA SOCIETY, KULKARNIWADI JM ROAD,GHATKOPAR WEST Gala No. A4 Kulkarniwadi, JM Road,400084,Mumbai, Ghatkopar West Upper Level Shivkrupa Society, Mumbai - 400086, Dist.Mumbai, Maharashtra",8048371887,192
"Cotton Ladies Printed Maternity Nightgown, Pink (Base)",https://www.indiamart.com/proddetail/ladies-printed-maternity-nightgown-21349026473.html?pos=178&kwd=maternity nightgowns&tags=CC||||8706.587|Price|product|||NA|rsf:gd-|-stype:attr=1|qr_nm:gd|res:RC4|com-cf:nl|ptrs:na|ktp:N0|mc:31787|mtp:S|qry_typ:P|lang:en|wc:2|cs:8842|v=4,Mansi Creation,https://www.indiamart.com/mansi-creation-madurai/?pos=178&kwd=maternity nightgowns&tags=CC||||8706.587|Price|product|||NA|rsf:gd-|-stype:attr=1|qr_nm:gd|res:RC4|com-cf:nl|ptrs:na|ktp:N0|mc:31787|mtp:S|qry_typ:P|lang:en|wc:2|cs:8842|v=4,False,,Madurai,"Door No 11/37 Mahal 2,3 Cross Street, Madurai - 625001, Dist.Madurai, Tamil Nadu",7942827474,
"Women Yellow Rayon Printed Maternity Gown, 3/4 Sleeve",https://www.indiamart.com/proddetail/women-yellow-rayon-printed-maternity-gown-2850547832112.html?pos=179&kwd=maternity nightgowns&tags=CC||||8601.347|Price|product|||NA|rsf:gd-|-stype:attr=1|qr_nm:gd|res:RC4|com-cf:nl|ptrs:na|ktp:N0|mc:31787|mtp:S|qry_typ:P|lang:en|wc:2|cs:8842|v=4,Priya's Creation,https://www.indiamart.com/priyascreationjaipur/?pos=179&kwd=maternity nightgowns&tags=CC||||8601.347|Price|product|||NA|rsf:gd-|-stype:attr=1|qr_nm:gd|res:RC4|com-cf:nl|ptrs:na|ktp:N0|mc:31787|mtp:S|qry_typ:P|lang:en|wc:2|cs:8842|v=4,False,,Jaipur,"A-100, Ajmer Road, Jai Mata Vaishno Nagar, Jaipur - 302021, Dist.Jaipur, Rajasthan",8047638720,
Cotton Printed Ladies Grey Nighty for Maternity,https://www.indiamart.com/proddetail/ladies-grey-nighty-for-maternity-20758761391.html?pos=180&kwd=maternity nightgowns&tags=CB||||9839.57|Price|product|||NA|rsf:gd-|-stype:attr=1|qr_nm:gd|res:RC4|com-cf:nl|ptrs:na|ktp:N0|mc:31787|mtp:S|qry_typ:P|lang:en|wc:2|cs:8842|v=4,Shree Krishna Creation,https://www.indiamart.com/shree-krishna-creation-kolkata/?pos=180&kwd=maternity nightgowns&tags=CB||||9839.57|Price|product|||NA|rsf:gd-|-stype:attr=1|qr_nm:gd|res:RC4|com-cf:nl|ptrs:na|ktp:N0|mc:31787|mtp:S|qry_typ:P|lang:en|wc:2|cs:8842|v=4,False,,Kolkata,"43, Sir Hariram Goenka Street, 1st Floor, Jorasanko, Kolkata - 700007, Dist.Kolkata, West Bengal",8048372440,974
Women Nursing Night Gown,https://www.indiamart.com/proddetail/women-nursing-night-gown-23139622562.html?pos=181&kwd=maternity nightgowns&tags=CC||||8211.142|Price|product|||NA|rsf:gd-|-stype:attr=1|qr_nm:gd|res:RC4|com-cf:nl|ptrs:na|ktp:N0|mc:31787|mtp:S|qry_typ:P|lang:en|wc:2|cs:8842|v=4,Madhuri Sarees,https://www.indiamart.com/madhuri-sarees/?pos=181&kwd=maternity nightgowns&tags=CC||||8211.142|Price|product|||NA|rsf:gd-|-stype:attr=1|qr_nm:gd|res:RC4|com-cf:nl|ptrs:na|ktp:N0|mc:31787|mtp:S|qry_typ:P|lang:en|wc:2|cs:8842|v=4,False,Malad West,Mumbai,"No. 6, S4, Sundervan Society, Near Sarvodaya Vidya Mandir SV Road, Malad West, Mumbai - 400064, Dist.Mumbai, Maharashtra",7948217889,
Feeding Maternity Nighty,https://www.indiamart.com/proddetail/feeding-maternity-nighty-13430496712.html?pos=182&kwd=maternity nightgowns&tags=CC||||8211.142|Price|product|||NA|rsf:gd-|-stype:attr=1|qr_nm:gd|res:RC4|com-cf:nl|ptrs:na|ktp:N0|mc:31787|mtp:S|qry_typ:P|lang:en|wc:2|cs:8842|v=4,Jigna Enterprise,https://www.indiamart.com/jignasukanya/?pos=182&kwd=maternity nightgowns&tags=CC||||8211.142|Price|product|||NA|rsf:gd-|-stype:attr=1|qr_nm:gd|res:RC4|com-cf:nl|ptrs:na|ktp:N0|mc:31787|mtp:S|qry_typ:P|lang:en|wc:2|cs:8842|v=4,False,Dadar West,Mumbai,"No. 124, Atlantic Plaza, Off. Bhavani Shankar Road, Dadar West, Mumbai - 400028, Dist.Mumbai, Maharashtra",8047682709,
Women Black Printed Rayon Maternity Dress,https://www.indiamart.com/proddetail/women-black-printed-rayon-maternity-dress-2853079198588.html?pos=183&kwd=maternity nightgowns&tags=CC||||8210.732|Price|product|||NA|rsf:gd-|-stype:attr=1|qr_nm:gd|res:RC4|com-cf:nl|ptrs:na|ktp:N0|mc:31787|mtp:S|qry_typ:P|lang:en|wc:2|cs:8842|v=4,Rathod Industries,https://www.indiamart.com/rathodindustries-mumbai/?pos=183&kwd=maternity nightgowns&tags=CC||||8210.732|Price|product|||NA|rsf:gd-|-stype:attr=1|qr_nm:gd|res:RC4|com-cf:nl|ptrs:na|ktp:N0|mc:31787|mtp:S|qry_typ:P|lang:en|wc:2|cs:8842|v=4,False,,Vasai,"Third Floor Gala No. 307,Rajprabha Industrial Premises -3,Gokhivare ,Near Toyota Car Showroom, Vasai - 401208, Dist.Thane, Maharashtra",8047786825,
"Printed Cotton Maternity Feeding And Nursing Nighty, Pink",https://www.indiamart.com/proddetail/maternity-feeding-and-nursing-nighty-22229862155.html?pos=184&kwd=maternity nightgowns&tags=CC||||9789.054|Price|product|||NA|rsf:gd-|-stype:attr=1|qr_nm:gd|res:RC4|com-cf:nl|ptrs:na|ktp:N0|mc:31787|mtp:S|qry_typ:P|lang:en|wc:2|cs:8842|v=4,Clymaa,https://www.indiamart.com/clymaa/?pos=184&kwd=maternity nightgowns&tags=CC||||9789.054|Price|product|||NA|rsf:gd-|-stype:attr=1|qr_nm:gd|res:RC4|com-cf:nl|ptrs:na|ktp:N0|mc:31787|mtp:S|qry_typ:P|lang:en|wc:2|cs:8842|v=4,False,Sripally Ambagan,Bardhaman,"Shop No. 21, Nutanganj, Sripally Ambagan, Bardhaman - 713102, Dist.Purba Bardhaman, West Bengal",8047842473,
Cotton Printed Maternity Gown,https://www.indiamart.com/proddetail/maternity-gown-14337145448.html?pos=185&kwd=maternity nightgowns&tags=CC||||8626.744|Price|product|||NA|rsf:gd-|-stype:attr=1|qr_nm:gd|res:RC4|com-cf:nl|ptrs:na|ktp:N0|mc:31787|mtp:S|qry_typ:P|lang:en|wc:2|cs:8842|v=4,Purple Kids,https://www.indiamart.com/midasclothingcompany/?pos=185&kwd=maternity nightgowns&tags=CC||||8626.744|Price|product|||NA|rsf:gd-|-stype:attr=1|qr_nm:gd|res:RC4|com-cf:nl|ptrs:na|ktp:N0|mc:31787|mtp:S|qry_typ:P|lang:en|wc:2|cs:8842|v=4,False,Pandiyan Nagar,Tiruppur,"Pooluvapatti, Pandiyan Nagar, Tiruppur - 641602, Dist.Coimbatore, Tamil Nadu",7949347177,
"Printed Maternity Cotton Soft Nighty, White",https://www.indiamart.com/proddetail/maternity-cotton-soft-nighty-7055231373.html?pos=186&kwd=maternity nightgowns&tags=CC||||8752.144||product|||NA|rsf:gd-|-stype:attr=1|qr_nm:gd|res:RC4|com-cf:nl|ptrs:na|ktp:N0|mc:31787|mtp:S|qry_typ:P|lang:en|wc:2|cs:8842|v=4,Balaji Exports,https://www.indiamart.com/balaji-exports/?pos=186&kwd=maternity nightgowns&tags=CC||||8752.144||product|||NA|rsf:gd-|-stype:attr=1|qr_nm:gd|res:RC4|com-cf:nl|ptrs:na|ktp:N0|mc:31787|mtp:S|qry_typ:P|lang:en|wc:2|cs:8842|v=4,False,Shahdara,New Delhi,"H-3/73,Ist Floor, Sector-11,Rohini No. 1/2219, Ram Nagar, Durga Mandir Marg, Mandoli Road,110032,New Delhi, Shahdara, New Delhi - 110085, Dist.Delhi, Delhi",8069033753,848
"Multi Colour Maternity Gown Size M,L,Xl,Xxl",https://www.indiamart.com/proddetail/multi-colour-maternity-gown-size-m-l-xl-xxl-2850904234855.html?pos=187&kwd=maternity nightgowns&tags=CC||||8601.347|Price|product|||NA|rsf:gd-|-stype:attr=1|qr_nm:gd|res:RC4|com-cf:nl|ptrs:na|ktp:N0|mc:31787|mtp:S|qry_typ:P|lang:en|wc:2|cs:8842|v=4,Yash Enterprises,https://www.indiamart.com/yashenterprises-156603237/?pos=187&kwd=maternity nightgowns&tags=CC||||8601.347|Price|product|||NA|rsf:gd-|-stype:attr=1|qr_nm:gd|res:RC4|com-cf:nl|ptrs:na|ktp:N0|mc:31787|mtp:S|qry_typ:P|lang:en|wc:2|cs:8842|v=4,False,,Jaipur,"sanagner, Jaipur - 302029, Dist.Jaipur, Rajasthan",8048372705,502
Ladies Maternity Night Gown,https://www.indiamart.com/proddetail/ladies-maternity-night-gown-2851646937855.html?pos=188&kwd=maternity nightgowns&tags=CC||||8228.275|Price|product|||NA|rsf:gd-|-stype:attr=1|qr_nm:gd|res:RC4|com-cf:nl|ptrs:na|ktp:N0|mc:31787|mtp:S|qry_typ:P|lang:en|wc:2|cs:8842|v=4,Arihant Selection,https://www.indiamart.com/arihant-selection-gujarat/?pos=188&kwd=maternity nightgowns&tags=CC||||8228.275|Price|product|||NA|rsf:gd-|-stype:attr=1|qr_nm:gd|res:RC4|com-cf:nl|ptrs:na|ktp:N0|mc:31787|mtp:S|qry_typ:P|lang:en|wc:2|cs:8842|v=4,False,Usmanpura,Ahmedabad,"136, Ajanta Commercial Centre, Near Income Tax, Ashram Road,, Usmanpura, Ahmedabad - 380009, Dist.Ahmedabad, Gujarat",8047695387,
Ladies Maternity Gown,https://www.indiamart.com/proddetail/ladies-maternity-gown-11833556091.html?pos=189&kwd=maternity nightgowns&tags=CC||||8584.299||product|||NA|rsf:gd-|-stype:attr=1|qr_nm:gd|res:RC4|com-cf:nl|ptrs:na|ktp:N0|mc:31787|mtp:S|qry_typ:P|lang:en|wc:2|cs:8842|v=4,Abirami Exports,https://www.indiamart.com/abiramiexports/?pos=189&kwd=maternity nightgowns&tags=CC||||8584.299||product|||NA|rsf:gd-|-stype:attr=1|qr_nm:gd|res:RC4|com-cf:nl|ptrs:na|ktp:N0|mc:31787|mtp:S|qry_typ:P|lang:en|wc:2|cs:8842|v=4,False,RS Puram,Coimbatore,"No. 424, Thadagam Road, Near Milk Society Bus Stop, R. S. Puram, RS Puram, Coimbatore - 641002, Dist.Coimbatore, Tamil Nadu",8047781207,
"Green Rayon Printed Maternity Gown, Size: Large",https://www.indiamart.com/proddetail/green-rayon-printed-maternity-gown-2850405095855.html?pos=190&kwd=maternity nightgowns&tags=CC||||8601.347|Price|product|||NA|rsf:gd-|-stype:attr=1|qr_nm:gd|res:RC4|com-cf:nl|ptrs:na|ktp:N0|mc:31787|mtp:S|qry_typ:P|lang:en|wc:2|cs:8842|v=4,Spwala,https://www.indiamart.com/spwala/?pos=190&kwd=maternity nightgowns&tags=CC||||8601.347|Price|product|||NA|rsf:gd-|-stype:attr=1|qr_nm:gd|res:RC4|com-cf:nl|ptrs:na|ktp:N0|mc:31787|mtp:S|qry_typ:P|lang:en|wc:2|cs:8842|v=4,False,,Jaipur,"Plot No 59B, Badi Ka Bas Saganer, Saraswati Vihar Vistar, Jaipur - 302022, Dist.Jaipur, Rajasthan",7942819534,
Maternity Nighty,,H.R Fashion,https://www.indiamart.com/h-r-fashion/?pos=191&kwd=maternity nightgowns&tags=CC||||8223.226||product|||NA|rsf:gd-|-stype:attr=1|qr_nm:gd|res:RC4|com-cf:nl|ptrs:na|ktp:N0|mc:31787|mtp:S|qry_typ:P|lang:en|wc:2|cs:8842|v=4,False,Kandivali West,Thane,"Bhayandar East 2-B, 001, Paras Nagar, Shankar Lane, Kandivali West 06, Kandivali West, Thane - 400067, Dist.Thane, Maharashtra",8048372383,306
Printed Cotton Maternity Gowns,https://www.indiamart.com/proddetail/cotton-maternity-gowns-2853213932733.html?pos=192&kwd=maternity nightgowns&tags=CC||||8601.347|Price|product|||NA|rsf:gd-|-stype:attr=1|qr_nm:gd|res:RC4|com-cf:nl|ptrs:na|ktp:N0|mc:31787|mtp:S|qry_typ:P|lang:en|wc:2|cs:8842|v=4,Pf Fashion,https://www.indiamart.com/pf-fashion/?pos=192&kwd=maternity nightgowns&tags=CC||||8601.347|Price|product|||NA|rsf:gd-|-stype:attr=1|qr_nm:gd|res:RC4|com-cf:nl|ptrs:na|ktp:N0|mc:31787|mtp:S|qry_typ:P|lang:en|wc:2|cs:8842|v=4,False,,Jaipur,"Shop No-01 Plot No -22 Tejaji Ka Bada, Sanganer Kalyan Nagar, Jaipur - 302029, Dist.Jaipur, Rajasthan",8069707374,796
Print Maternity Nightwear,https://www.indiamart.com/proddetail/print-maternity-nightwear-12662568588.html?pos=193&kwd=maternity nightgowns&tags=CC||||8752.144|Price|product|||NA|rsf:gd-|-stype:attr=1|qr_nm:gd|res:RC4|com-cf:nl|ptrs:na|ktp:N0|mc:31787|mtp:S|qry_typ:P|lang:en|wc:2|cs:8842|v=4,Fresh Venturz LLP,https://www.indiamart.com/freshventurz/?pos=193&kwd=maternity nightgowns&tags=CC||||8752.144|Price|product|||NA|rsf:gd-|-stype:attr=1|qr_nm:gd|res:RC4|com-cf:nl|ptrs:na|ktp:N0|mc:31787|mtp:S|qry_typ:P|lang:en|wc:2|cs:8842|v=4,False,Mehrauli,New Delhi,"6/844, Main Bazar, Mehrauli, Mehrauli, New Delhi - 110030, Dist.Delhi, Delhi",8062245048,941
Cotton Maternity Gown,https://www.indiamart.com/proddetail/cotton-maternity-gown-2851659886997.html?pos=194&kwd=maternity nightgowns&tags=CC||||8601.347|Price|product|||NA|rsf:gd-|-stype:attr=1|qr_nm:gd|res:RC4|com-cf:nl|ptrs:na|ktp:N0|mc:31787|mtp:S|qry_typ:P|lang:en|wc:2|cs:8842|v=4,Ayush Fashion,https://www.indiamart.com/ayushfashion-85699780/?pos=194&kwd=maternity nightgowns&tags=CC||||8601.347|Price|product|||NA|rsf:gd-|-stype:attr=1|qr_nm:gd|res:RC4|com-cf:nl|ptrs:na|ktp:N0|mc:31787|mtp:S|qry_typ:P|lang:en|wc:2|cs:8842|v=4,False,Kumhoron Ki Talai dada ki dukan,Jaipur,"108 krishna vihar muhana mod behind advance hospital ,Jaipur, Kumhoron Ki Talai dada ki dukan, Jaipur - 302029, Dist.Jaipur, Rajasthan",8048249732,2887
"Cotton Solid Female Maternity Gown, Multiple color",https://www.indiamart.com/proddetail/female-maternity-gown-19980370088.html?pos=195&kwd=maternity nightgowns&tags=CC||||8601.347|Price|product|||NA|rsf:gd-|-stype:attr=1|qr_nm:gd|res:RC4|com-cf:nl|ptrs:na|ktp:N0|mc:31787|mtp:S|qry_typ:P|lang:en|wc:2|cs:8842|v=4,Indivibes,https://www.indiamart.com/indivibes/?pos=195&kwd=maternity nightgowns&tags=CC||||8601.347|Price|product|||NA|rsf:gd-|-stype:attr=1|qr_nm:gd|res:RC4|com-cf:nl|ptrs:na|ktp:N0|mc:31787|mtp:S|qry_typ:P|lang:en|wc:2|cs:8842|v=4,False,,Jaipur,"G 25 Keshaw Marg, Jaipur - 302039, Dist.Jaipur, Rajasthan",8048370722,4901
"Multicolor Cotton Ladies Printed Maternity Gown, Cap Sleeve",https://www.indiamart.com/proddetail/ladies-printed-maternity-gown-26560851030.html?pos=196&kwd=maternity nightgowns&tags=CC||||8636.125|Price|product|||NA|rsf:gd-|-stype:attr=1|qr_nm:gd|res:RC4|com-cf:nl|ptrs:na|ktp:N0|mc:31787|mtp:S|qry_typ:P|lang:en|wc:2|cs:8842|v=4,Lovely Garments,https://www.indiamart.com/lovely-garments-dhalavoipuram/?pos=196&kwd=maternity nightgowns&tags=CC||||8636.125|Price|product|||NA|rsf:gd-|-stype:attr=1|qr_nm:gd|res:RC4|com-cf:nl|ptrs:na|ktp:N0|mc:31787|mtp:S|qry_typ:P|lang:en|wc:2|cs:8842|v=4,False,,Dhalavoipuram,"54/Q, Near City Union Bank, Puthur Road, Chettiyarpatti, Virudhunagar,, Dhalavoipuram - 626122, Tamil Nadu",8048210986,
Black Floral Printed 100% Soft Cotton Zipless Maternity Maxi,https://www.indiamart.com/proddetail/black-floral-printed-100-soft-cotton-zipless-maternity-maxi-2854102896233.html?pos=197&kwd=maternity nightgowns&tags=CC||||8752.144|Price|product|||NA|rsf:gd-|-stype:attr=1|qr_nm:gd|res:RC4|com-cf:nl|ptrs:na|ktp:N0|mc:31787|mtp:S|qry_typ:P|lang:en|wc:2|cs:8842|v=4,HOZ,https://www.indiamart.com/hoz-delhi/?pos=197&kwd=maternity nightgowns&tags=CC||||8752.144|Price|product|||NA|rsf:gd-|-stype:attr=1|qr_nm:gd|res:RC4|com-cf:nl|ptrs:na|ktp:N0|mc:31787|mtp:S|qry_typ:P|lang:en|wc:2|cs:8842|v=4,False,,Delhi,"Bijwasan 369, Karta Ram Complex, Bijwasin Main Road, Bijwasin, Delhi, Delhi - 110061, Dist.Delhi, Delhi",,
"Indo Western Women Ladies Multicolor Silk Nightgowns, Plain, Semi-Stitched",https://www.indiamart.com/proddetail/ladies-multicolor-silk-nightgowns-24749002573.html?pos=198&kwd=maternity nightgowns&tags=||||8211.142|Price|proxy|||TS|rsf:gd-|-stype:attr=1|qr_nm:gd|res:RC4|com-cf:nl|ptrs:na|ktp:N0|mc:31787|mtp:S|qry_typ:P|lang:en|wc:2|cs:8842|v=4,Siddhi Vinayaka Industries,https://www.premiumloungewears.com/?pos=198&kwd=maternity nightgowns&tags=||||8211.142|Price|proxy|||TS|rsf:gd-|-stype:attr=1|qr_nm:gd|res:RC4|com-cf:nl|ptrs:na|ktp:N0|mc:31787|mtp:S|qry_typ:P|lang:en|wc:2|cs:8842|v=4,True,Borivali East,Mumbai,"Gala No. 2, Vrijyani Bhawan, Main Carter Road Kavita Building Compound, Borivali East, Mumbai - 400066, Dist.Mumbai, Maharashtra",8048984520,
"Multicolor Cotton Readymade Nightgown, Half Sleeve",https://www.indiamart.com/proddetail/readymade-nightgown-2853520730597.html?pos=199&kwd=maternity nightgowns&tags=||||8235.633|Price|proxy|||TS|rsf:gd-|-stype:attr=1|qr_nm:gd|res:RC4|com-cf:nl|ptrs:na|ktp:N0|mc:31787|mtp:S|qry_typ:P|lang:en|wc:2|cs:8842|v=4,Heer Dyeing Mills,https://www.indiamart.com/heer-dyeing-mills/?pos=199&kwd=maternity nightgowns&tags=||||8235.633|Price|proxy|||TS|rsf:gd-|-stype:attr=1|qr_nm:gd|res:RC4|com-cf:nl|ptrs:na|ktp:N0|mc:31787|mtp:S|qry_typ:P|lang:en|wc:2|cs:8842|v=4,False,Kitnod,Balotra,"H-158, Industrial Area, Barmer,, Kitnod, Balotra - 344022, Dist.Barmer, Rajasthan",8043857789,
"Embroidered Alpine Night Gowns, Cap Sleeve",https://www.indiamart.com/proddetail/embroidered-alpine-night-gowns-2849630527797.html?pos=200&kwd=maternity nightgowns&tags=||||8228.275|Price|proxy|||TS|rsf:gd-|-stype:attr=1|qr_nm:gd|res:RC4|com-cf:nl|ptrs:na|ktp:N0|mc:31787|mtp:S|qry_typ:P|lang:en|wc:2|cs:8842|v=4,Janta Clothing Co.,https://www.indiamart.com/jantaclothingcompany/?pos=200&kwd=maternity nightgowns&tags=||||8228.275|Price|proxy|||TS|rsf:gd-|-stype:attr=1|qr_nm:gd|res:RC4|com-cf:nl|ptrs:na|ktp:N0|mc:31787|mtp:S|qry_typ:P|lang:en|wc:2|cs:8842|v=4,False,M D Marg,Ahmedabad,"Plot No. C 192, 2nd Floor, Behind Safal 2, M D Marg, Ahmedabad - 380022, Dist.Ahmedabad, Gujarat",8046044672,
Yellow Cotton Designer Ladies Nightgown,https://www.indiamart.com/proddetail/designer-ladies-nightgown-2855061843488.html?pos=201&kwd=maternity nightgowns&tags=||||8230.883|Price|proxy|||TS|rsf:gd-|-stype:attr=1|qr_nm:gd|res:RC4|com-cf:nl|ptrs:na|ktp:N0|mc:31787|mtp:S|qry_typ:P|lang:en|wc:2|cs:8842|v=4,Apollo Enterprise,https://www.apollofashion.in/?pos=201&kwd=maternity nightgowns&tags=||||8230.883|Price|proxy|||TS|rsf:gd-|-stype:attr=1|qr_nm:gd|res:RC4|com-cf:nl|ptrs:na|ktp:N0|mc:31787|mtp:S|qry_typ:P|lang:en|wc:2|cs:8842|v=4,False,Ashok Colony,Surat,"70, Kalidas Co. OP Housing Society Ltd, Near Trikam Nagar, L.H. Road, Varachha, Ashok Colony, Surat - 395006, Dist.Surat, Gujarat",7942708822,
"Printed Ladies Dark Blue Cotton Nighty, Half Sleeve",https://www.indiamart.com/proddetail/ladies-dark-blue-cotton-nighty-2850218903773.html?pos=202&kwd=maternity nightgowns&tags=CC||||8230.883|Price|product|||NA|rsf:gd-|-stype:attr=1|qr_nm:gd|res:RC4|com-cf:nl|ptrs:na|ktp:N0|mc:31787|mtp:S|qry_typ:P|lang:en|wc:2|cs:8842|v=4,Pooja Selection,https://www.indiamart.com/pooja-selection-gujarat/?pos=202&kwd=maternity nightgowns&tags=CC||||8230.883|Price|product|||NA|rsf:gd-|-stype:attr=1|qr_nm:gd|res:RC4|com-cf:nl|ptrs:na|ktp:N0|mc:31787|mtp:S|qry_typ:P|lang:en|wc:2|cs:8842|v=4,False,,Surat,"9/1684, 2nd, Panchwati Shopping Centre, Kanpith Bazar Main Road, Surat - 395003, Dist.Surat, Gujarat",7942804112,
mybody Nighties feeding/maternity nighty,https://www.indiamart.com/proddetail/feeding-maternity-nighty-19777094673.html?pos=203&kwd=maternity nightgowns&tags=CC||||8211.142||product|||NA|rsf:gd-|-stype:attr=1|qr_nm:gd|res:RC4|com-cf:nl|ptrs:na|ktp:N0|mc:31787|mtp:S|qry_typ:P|lang:en|wc:2|cs:8842|v=4,Mybody Apparels,https://www.indiamart.com/mybody-apparels/?pos=203&kwd=maternity nightgowns&tags=CC||||8211.142||product|||NA|rsf:gd-|-stype:attr=1|qr_nm:gd|res:RC4|com-cf:nl|ptrs:na|ktp:N0|mc:31787|mtp:S|qry_typ:P|lang:en|wc:2|cs:8842|v=4,False,Santacruz,Mumbai,"1/5, Old Anand Nagar, Nehru Road, Santacruz East, Santacruz, Mumbai - 400055, Dist.Mumbai, Maharashtra",8048372729,678
Blue Floral Cotton Printed Nightgown,https://www.indiamart.com/proddetail/blue-floral-cotton-printed-nightgown-27570455088.html?pos=204&kwd=maternity nightgowns&tags=CC||||8668.838|Price|product|||NA|rsf:gd-|-stype:attr=1|qr_nm:gd|res:RC4|com-cf:nl|ptrs:na|ktp:N0|mc:31787|mtp:S|qry_typ:P|lang:en|wc:2|cs:8842|v=4,Jayaraman Textiles,https://www.indiamart.com/jayaramantextiles/?pos=204&kwd=maternity nightgowns&tags=CC||||8668.838|Price|product|||NA|rsf:gd-|-stype:attr=1|qr_nm:gd|res:RC4|com-cf:nl|ptrs:na|ktp:N0|mc:31787|mtp:S|qry_typ:P|lang:en|wc:2|cs:8842|v=4,False,,Erode,"128/1, Brough Road, Erode - 638001, Dist.Erode, Tamil Nadu",7942671260,
"Sandal Maternity Patiala, Size: Large, Sleeves: Full Leg",https://www.indiamart.com/proddetail/sandal-maternity-patiala-2850667863912.html?pos=205&kwd=maternity nightgowns&tags=CC||||8584.299|Price|product|||NA|rsf:gd-|-stype:attr=1|qr_nm:gd|res:RC4|com-cf:nl|ptrs:na|ktp:N0|mc:31787|mtp:S|qry_typ:P|lang:en|wc:2|cs:8842|v=4,TinyFeets,https://www.indiamart.com/tiny-feets-coimbatore/?pos=205&kwd=maternity nightgowns&tags=CC||||8584.299|Price|product|||NA|rsf:gd-|-stype:attr=1|qr_nm:gd|res:RC4|com-cf:nl|ptrs:na|ktp:N0|mc:31787|mtp:S|qry_typ:P|lang:en|wc:2|cs:8842|v=4,False,,Coimbatore,"9, Andal Street 2, Lakshmipuram, Peelamedu, Coimbatore - 641004, Dist.Coimbatore, Tamil Nadu",7942958021,
Maternity Nightwear,https://www.indiamart.com/proddetail/maternity-nightwear-2848949541212.html?pos=206&kwd=maternity nightgowns&tags=CC||||8777.204|Price|product|||NA|rsf:gd-|-stype:attr=1|qr_nm:gd|res:RC4|com-cf:nl|ptrs:na|ktp:N0|mc:31787|mtp:S|qry_typ:P|lang:en|wc:2|cs:8842|v=4,Vara Lakshmi Nightieswear,https://www.indiamart.com/vara-lakshmi-nightieswear/?pos=206&kwd=maternity nightgowns&tags=CC||||8777.204|Price|product|||NA|rsf:gd-|-stype:attr=1|qr_nm:gd|res:RC4|com-cf:nl|ptrs:na|ktp:N0|mc:31787|mtp:S|qry_typ:P|lang:en|wc:2|cs:8842|v=4,False,,Proddatur,"10/130,,Proddatur,Ysr K K Street, Proddatur - 516360, Dist.Cuddapah, Andhra Pradesh",8069013898,399
"Full Length Mother Cut Nighty, Free Size, Cotton",https://www.indiamart.com/proddetail/mother-cut-nighty-24191275412.html?pos=207&kwd=maternity nightgowns&tags=CC||||9839.57|Price|product|||NA|rsf:gd-|-stype:attr=1|qr_nm:gd|res:RC4|com-cf:nl|ptrs:na|ktp:N0|mc:31787|mtp:S|qry_typ:P|lang:en|wc:2|cs:8842|v=4,Mamoni Dresses,https://www.indiamart.com/mamoni-dresses/?pos=207&kwd=maternity nightgowns&tags=CC||||9839.57|Price|product|||NA|rsf:gd-|-stype:attr=1|qr_nm:gd|res:RC4|com-cf:nl|ptrs:na|ktp:N0|mc:31787|mtp:S|qry_typ:P|lang:en|wc:2|cs:8842|v=4,False,Barasat,Kolkata,"303,M C GARDEN ROAD,,KOLKATA Plot No.86/1,700124,Kolkata, Barasat, Kolkata - 700030, Dist.Kolkata, West Bengal",8047791154,
"NIGHT GOWN PINK,OFFWHITE HOUSE COAT",https://www.indiamart.com/proddetail/house-coat-22676101412.html?pos=208&kwd=maternity nightgowns&tags=CC||||9839.57|Price|product|||NA|rsf:gd-|-stype:attr=1|qr_nm:gd|res:RC4|com-cf:nl|ptrs:na|ktp:N0|mc:31787|mtp:S|qry_typ:P|lang:en|wc:2|cs:8842|v=4,Ninety 9 Solution,https://www.indiamart.com/ninty9-solution/?pos=208&kwd=maternity nightgowns&tags=CC||||9839.57|Price|product|||NA|rsf:gd-|-stype:attr=1|qr_nm:gd|res:RC4|com-cf:nl|ptrs:na|ktp:N0|mc:31787|mtp:S|qry_typ:P|lang:en|wc:2|cs:8842|v=4,False,Barasat,Kolkata,"113/2, Jessore road (West), Banamalipur, Barasat, Kolkata - 700124, Dist.Kolkata, West Bengal",8048372787,585
"Purple(Base) Cotton Ladies Printed Nightgown, Half Sleeve",https://www.indiamart.com/proddetail/ladies-printed-nightgown-2849569500297.html?pos=209&kwd=maternity nightgowns&tags=CC||||8624.416|Price|product|||NA|rsf:gd-|-stype:attr=1|qr_nm:gd|res:RC4|com-cf:nl|ptrs:na|ktp:N0|mc:31787|mtp:S|qry_typ:P|lang:en|wc:2|cs:8842|v=4,Avni Traders,https://www.indiamart.com/avni-traders-hisar/?pos=209&kwd=maternity nightgowns&tags=CC||||8624.416|Price|product|||NA|rsf:gd-|-stype:attr=1|qr_nm:gd|res:RC4|com-cf:nl|ptrs:na|ktp:N0|mc:31787|mtp:S|qry_typ:P|lang:en|wc:2|cs:8842|v=4,False,,Hisar,"1, Bhagat Singh Chowk, Hisar - 125001, Dist.Hisar, Haryana",7942790389,
"Western Satin Gujri Cotton Front Open Maternity Gown, Size: Medium",https://www.indiamart.com/proddetail/gujri-cotton-front-open-maternity-gown-22227619473.html?pos=210&kwd=maternity nightgowns&tags=CC||||8228.275|Price|product|||NA|rsf:gd-|-stype:attr=1|qr_nm:gd|res:RC4|com-cf:nl|ptrs:na|ktp:N0|mc:31787|mtp:S|qry_typ:P|lang:en|wc:2|cs:8842|v=4,Riddhi Siddhi Textiles,https://www.indiamart.com/riddhisiddhi-textiles/?pos=210&kwd=maternity nightgowns&tags=CC||||8228.275|Price|product|||NA|rsf:gd-|-stype:attr=1|qr_nm:gd|res:RC4|com-cf:nl|ptrs:na|ktp:N0|mc:31787|mtp:S|qry_typ:P|lang:en|wc:2|cs:8842|v=4,False,Kankaria,Ahmedabad,"A 57, Ground Floor, Sumel Business Park 2, Kankaria, Ahmedabad - 380022, Dist.Ahmedabad, Gujarat",8048372739,733
