product_title,product_link,company_name,company_link,is_verified_exporter,city_region,city,address_details,phone_number,phone_number_extension
Maternity Clothing Manufacturers,https://www.indiamart.com/proddetail/maternity-clothing-manufacturers-2853650760391.html?pos=1&kwd=maternity clothing&tags=A||||8601.347|Price|product|||TS|rsf:gd-|-qr_nm:gd|res:RC3|com-cf:nl|ptrs:na|ktp:N0|mc:9911|mtp:G|qry_typ:P|lang:en|wc:2|flavl:10|cs:8287|v=4,Namokar Enterprises,https://www.indiamart.com/namokarenterprises/?pos=1&kwd=maternity clothing&tags=A||||8601.347|Price|product|||TS|rsf:gd-|-qr_nm:gd|res:RC3|com-cf:nl|ptrs:na|ktp:N0|mc:9911|mtp:G|qry_typ:P|lang:en|wc:2|flavl:10|cs:8287|v=4,False,Mansarovar,Jaipur,"119/67, Thadi Market, Agarwal Farm, Mansarovar, Mansarovar, Jaipur - 302020, Dist.Jaipur, Rajasthan",8047530717,
Multicolor Cotton Maternity Clothing Manufacturers,https://www.indiamart.com/proddetail/maternity-clothing-manufacturers-10714991312.html?pos=2&kwd=maternity clothing&tags=A||||8601.347|Price|product|||LSnp|rsf:gd-|-qr_nm:gd|res:RC3|com-cf:nl|ptrs:na|ktp:N0|mc:9911|mtp:G|qry_typ:P|lang:en|wc:2|flavl:10|cs:8287|v=4,Jaipuri Bandhej,https://www.jaipuribandhej.net/?pos=2&kwd=maternity clothing&tags=A||||8601.347|Price|product|||LSnp|rsf:gd-|-qr_nm:gd|res:RC3|com-cf:nl|ptrs:na|ktp:N0|mc:9911|mtp:G|qry_typ:P|lang:en|wc:2|flavl:10|cs:8287|v=4,False,Vidhyadhar Nagar,Jaipur,"Laxmi Niwas, 42-A, Hans Vatika Naya Khera, Vidhyadhar Nagar, Vidhyadhar Nagar, Jaipur - 302039, Dist.Jaipur, Rajasthan",8048619795,
Maternity Clothing,https://www.indiamart.com/proddetail/maternity-clothing-2854272139655.html?pos=3&kwd=maternity clothing&tags=A||||8601.347|Price|product|||MDC|rsf:gd-|-qr_nm:gd|res:RC3|com-cf:nl|ptrs:na|ktp:N0|mc:9911|mtp:G|qry_typ:P|lang:en|wc:2|flavl:10|cs:8287|v=4,Runway Enterprises,https://www.indiamart.com/runwayenterprises/?pos=3&kwd=maternity clothing&tags=A||||8601.347|Price|product|||MDC|rsf:gd-|-qr_nm:gd|res:RC3|com-cf:nl|ptrs:na|ktp:N0|mc:9911|mtp:G|qry_typ:P|lang:en|wc:2|flavl:10|cs:8287|v=4,False,Jamna Puri,Jaipur,"Plot No 133, Benar Road, Scheme Shri Jorawar Nagar,, Jamna Puri, Jaipur - 302039, Dist.Jaipur, Rajasthan",7942718276,
Women Maternity Clothes,https://www.indiamart.com/proddetail/women-maternity-clothes-2854258268997.html?pos=4&kwd=maternity clothing&tags=A||||8601.347|Price|product|||TS|rsf:gd-|-qr_nm:gd|res:RC3|com-cf:nl|ptrs:na|ktp:N0|mc:9911|mtp:G|qry_typ:P|lang:en|wc:2|flavl:10|cs:8287|v=4,Pooja Trends,https://www.indiamart.com/poojatrends-jaipur/?pos=4&kwd=maternity clothing&tags=A||||8601.347|Price|product|||TS|rsf:gd-|-qr_nm:gd|res:RC3|com-cf:nl|ptrs:na|ktp:N0|mc:9911|mtp:G|qry_typ:P|lang:en|wc:2|flavl:10|cs:8287|v=4,False,Sanganer Jaipur,Jaipur,"Nk Tower , Shop no. 3 Nagar Nigam Road, Sanganer Jaipur, Jaipur - 302029, Dist.Jaipur, Rajasthan",8048211271,
Maternity Photo Shoot Gown,https://www.indiamart.com/proddetail/maternity-photo-shoot-gown-2852862968948.html?pos=5&kwd=maternity clothing&tags=A||||8230.883|Price|product|||TS|rsf:gd-|-qr_nm:gd|res:RC3|com-cf:nl|ptrs:na|ktp:N0|mc:9911|mtp:G|qry_typ:P|lang:en|wc:2|flavl:10|cs:8287|v=4,JSK Designer,https://www.jskdesigner.com/?pos=5&kwd=maternity clothing&tags=A||||8230.883|Price|product|||TS|rsf:gd-|-qr_nm:gd|res:RC3|com-cf:nl|ptrs:na|ktp:N0|mc:9911|mtp:G|qry_typ:P|lang:en|wc:2|flavl:10|cs:8287|v=4,False,,Surat,"C-4/405,Gadhpur Township, Kathodara Road, Pasodara, Surat - 394326, Dist.Surat, Gujarat",8048604591,
"Printed Cotton Maternity Gowns, Red",https://www.indiamart.com/proddetail/cotton-maternity-gowns-2853567699133.html?pos=6&kwd=maternity clothing&tags=A||||8601.347|Price|product|||TS|rsf:gd-|-qr_nm:gd|res:RC3|com-cf:nl|ptrs:na|ktp:N0|mc:9911|mtp:G|qry_typ:P|lang:en|wc:2|flavl:10|cs:8287|v=4,Luxury Fashion,https://www.indiamart.com/luxury-fashion/?pos=6&kwd=maternity clothing&tags=A||||8601.347|Price|product|||TS|rsf:gd-|-qr_nm:gd|res:RC3|com-cf:nl|ptrs:na|ktp:N0|mc:9911|mtp:G|qry_typ:P|lang:en|wc:2|flavl:10|cs:8287|v=4,False,Sanganer Bazar,Jaipur,"Plot No 13, Suraj Nagar, Dadabadi, Sanganer,, Sanganer Bazar, Jaipur - 302029, Dist.Jaipur, Rajasthan",7942707166,
Lily Printed Maternity Dress,https://www.indiamart.com/proddetail/lily-printed-maternity-dress-2854004765773.html?pos=7&kwd=maternity clothing&tags=A||||8601.347|Price|product|||MDC|rsf:gd-|-qr_nm:gd|res:RC3|com-cf:nl|ptrs:na|ktp:N0|mc:9911|mtp:G|qry_typ:P|lang:en|wc:2|flavl:10|cs:8287|v=4,Aditya Enterprises,https://www.indiamart.com/adityaenterprises-jaipurrajasthan/?pos=7&kwd=maternity clothing&tags=A||||8601.347|Price|product|||MDC|rsf:gd-|-qr_nm:gd|res:RC3|com-cf:nl|ptrs:na|ktp:N0|mc:9911|mtp:G|qry_typ:P|lang:en|wc:2|flavl:10|cs:8287|v=4,False,Murlipura,Jaipur,"First Floor, Plot No.330, MDS Tirvedi Complex, Flate No G-2, Shiv Nagar-I, Murlipura, Murlipura, Jaipur - 302039, Dist.Jaipur, Rajasthan",8044011776,
Maternity Clothing,https://www.indiamart.com/proddetail/maternity-clothing-2854909674597.html?pos=8&kwd=maternity clothing&tags=A||||8584.299|Price|product|||MDC|rsf:gd-|-qr_nm:gd|res:RC3|com-cf:nl|ptrs:na|ktp:N0|mc:9911|mtp:G|qry_typ:P|lang:en|wc:2|flavl:10|cs:8287|v=4,Emma Fashions,https://www.indiamart.com/emma-fashions/?pos=8&kwd=maternity clothing&tags=A||||8584.299|Price|product|||MDC|rsf:gd-|-qr_nm:gd|res:RC3|com-cf:nl|ptrs:na|ktp:N0|mc:9911|mtp:G|qry_typ:P|lang:en|wc:2|flavl:10|cs:8287|v=4,False,,Coimbatore,"2/62, Shanmuga Nagar, Sanganoor Main Road, Rathinapuri, Coimbatore - 641027, Dist.Coimbatore, Tamil Nadu",8047832283,
Feeding Maternity Pregnancy Kurti,https://www.indiamart.com/proddetail/feeding-maternity-pregnancy-kurti-2851934349630.html?pos=9&kwd=maternity clothing&tags=A||||8626.744|Price|product|||TS|rsf:gd-|-qr_nm:gd|res:RC3|com-cf:nl|ptrs:na|ktp:N0|mc:9911|mtp:G|qry_typ:P|lang:en|wc:2|flavl:10|cs:8287|v=4,Rainbow Creations,https://www.indiamart.com/rainbowcreations/?pos=9&kwd=maternity clothing&tags=A||||8626.744|Price|product|||TS|rsf:gd-|-qr_nm:gd|res:RC3|com-cf:nl|ptrs:na|ktp:N0|mc:9911|mtp:G|qry_typ:P|lang:en|wc:2|flavl:10|cs:8287|v=4,False,Renganatha Puram,Tiruppur,"No. 7- 24, murugasamy layout 1street, Renganatha Puram, Tiruppur - 641607, Dist.Coimbatore, Tamil Nadu",8048955272,
Women Maternity Floor Length Party Gown,https://www.indiamart.com/proddetail/women-maternity-floor-length-party-gown-2853701187797.html?pos=10&kwd=maternity clothing&tags=A||||8752.144|Price|product|||MDC|rsf:gd-|-qr_nm:gd|res:RC3|com-cf:nl|ptrs:na|ktp:N0|mc:9911|mtp:G|qry_typ:P|lang:en|wc:2|flavl:10|cs:8287|v=4,Ekaavali,https://www.indiamart.com/ekaavali/?pos=10&kwd=maternity clothing&tags=A||||8752.144|Price|product|||MDC|rsf:gd-|-qr_nm:gd|res:RC3|com-cf:nl|ptrs:na|ktp:N0|mc:9911|mtp:G|qry_typ:P|lang:en|wc:2|flavl:10|cs:8287|v=4,False,Palam,New Delhi,"Flat No-263, Excellence Apartments, Sector 18A, Dwarka, Palam, New Delhi - 110075, Dist.Delhi, Delhi",7949095107,
Women Crepe Printed Maternity Dress,https://www.indiamart.com/proddetail/women-crepe-printed-maternity-dress-2854231259188.html?pos=11&kwd=maternity clothing&tags=A||||8601.347|Price|product|||TS|rsf:gd-|-qr_nm:gd|res:RC3|com-cf:nl|ptrs:na|ktp:N0|mc:9911|mtp:G|qry_typ:P|lang:en|wc:2|flavl:10|cs:8287|v=4,Ganpati Handicrafts,https://www.ganpatihandicrafts.com/?pos=11&kwd=maternity clothing&tags=A||||8601.347|Price|product|||TS|rsf:gd-|-qr_nm:gd|res:RC3|com-cf:nl|ptrs:na|ktp:N0|mc:9911|mtp:G|qry_typ:P|lang:en|wc:2|flavl:10|cs:8287|v=4,False,Kundan Nagar,Jaipur,"Ganpati Handicrafts, Paliwal Garden Behind Salim Kazgi Industry, Sanganer, Kundan Nagar, Jaipur - 302029, Dist.Jaipur, Rajasthan",8046061432,
Maternity Gown,https://www.indiamart.com/proddetail/maternity-gown-2854292438755.html?pos=12&kwd=maternity clothing&tags=A||||8601.347|Price|product|||TS|rsf:gd-|-qr_nm:gd|res:RC3|com-cf:nl|ptrs:na|ktp:N0|mc:9911|mtp:G|qry_typ:P|lang:en|wc:2|flavl:10|cs:8287|v=4,Hkf Jaipur Industries Private Limited,https://www.hkfjaipurindustries.com/?pos=12&kwd=maternity clothing&tags=A||||8601.347|Price|product|||TS|rsf:gd-|-qr_nm:gd|res:RC3|com-cf:nl|ptrs:na|ktp:N0|mc:9911|mtp:G|qry_typ:P|lang:en|wc:2|flavl:10|cs:8287|v=4,False,Sanganer Shri Rampura,Jaipur,"PLOT NO. 72, 1ST FLOOR, GOPI NAGAR, RAILWAY STATION ROAD,, Sanganer Shri Rampura, Jaipur - 302029, Dist.Jaipur, Rajasthan",8047674124,
Printed Cotton Hosiery Feeding Maternity Nighty,https://www.indiamart.com/proddetail/cotton-hosiery-feeding-maternity-nighty-2854237796697.html?pos=13&kwd=maternity clothing&tags=A||||8752.144|Price|product|||TS|rsf:gd-|-qr_nm:gd|res:RC3|com-cf:nl|ptrs:na|ktp:N0|mc:9911|mtp:G|qry_typ:P|lang:en|wc:2|flavl:10|cs:8287|v=4,Aggarwal & Sons,https://www.indiamart.com/aggarwal-sons-dehli/?pos=13&kwd=maternity clothing&tags=A||||8752.144|Price|product|||TS|rsf:gd-|-qr_nm:gd|res:RC3|com-cf:nl|ptrs:na|ktp:N0|mc:9911|mtp:G|qry_typ:P|lang:en|wc:2|flavl:10|cs:8287|v=4,False,Karawal Nagar,New Delhi,"H No.-3 G/f Kh No.-5/27/1 ,Main Road Kamal Vihar Nr Police Station, Karawal Nagar, New Delhi - 110094, Dist.Delhi, Delhi",7942804253,
Causal Janasya Women's Yellow Cotton Floral Fit & Flare Maternity Dress,https://www.indiamart.com/proddetail/janasya-women-s-yellow-cotton-floral-fit-flare-maternity-dress-23971943397.html?pos=14&kwd=maternity clothing&tags=A||||8230.883|Price|product|||TS|rsf:gd-|-qr_nm:gd|res:RC3|com-cf:nl|ptrs:na|ktp:N0|mc:9911|mtp:G|qry_typ:P|lang:en|wc:2|flavl:10|cs:8287|v=4,Thread Bucket Studio LLP,https://www.threadbucketstudio.in/?pos=14&kwd=maternity clothing&tags=A||||8230.883|Price|product|||TS|rsf:gd-|-qr_nm:gd|res:RC3|com-cf:nl|ptrs:na|ktp:N0|mc:9911|mtp:G|qry_typ:P|lang:en|wc:2|flavl:10|cs:8287|v=4,False,Udhna,Surat,"A-15/4 Road No. 8, Udhna, Surat - 394210, Dist.Surat, Gujarat",8046052440,
RED ROSE Meternity-75,https://www.indiamart.com/proddetail/meternity-75-22489530955.html?pos=15&kwd=maternity clothing&tags=A||||8231.259|Price|product|||TS|rsf:gd-|-qr_nm:gd|res:RC3|com-cf:nl|ptrs:na|ktp:N0|mc:9911|mtp:G|qry_typ:P|lang:en|wc:2|cs:7475|v=4,Red Rose ( A Brand Of Sagar Products),https://www.indiamart.com/redrose-mumbai/?pos=15&kwd=maternity clothing&tags=A||||8231.259|Price|product|||TS|rsf:gd-|-qr_nm:gd|res:RC3|com-cf:nl|ptrs:na|ktp:N0|mc:9911|mtp:G|qry_typ:P|lang:en|wc:2|cs:7475|v=4,False,Saravali,Bhiwandi,"C6, Asmeeta Textile Park Additional Kalyan Bhiwandi Highway, Saravali, Bhiwandi - 421311, Maharashtra",8048603606,
"White Maternity Photoshoot Gown, Size: Free size",https://www.indiamart.com/proddetail/maternity-photoshoot-gown-26196741333.html?pos=16&kwd=maternity clothing&tags=A||||8230.883|Price|product|||MDC|rsf:gd-|-qr_nm:gd|res:RC3|com-cf:nl|ptrs:na|ktp:N0|mc:9911|mtp:G|qry_typ:P|lang:en|wc:2|cs:7475|v=4,Rinku Enterprise,https://www.indiamart.com/rinkuenterprise/?pos=16&kwd=maternity clothing&tags=A||||8230.883|Price|product|||MDC|rsf:gd-|-qr_nm:gd|res:RC3|com-cf:nl|ptrs:na|ktp:N0|mc:9911|mtp:G|qry_typ:P|lang:en|wc:2|cs:7475|v=4,False,Katargam,Surat,"19, shyam darshan society near yamuna park soc, dabholi road, Katargam, Surat - 395004, Dist.Surat, Gujarat",8048614327,
GSM 102 Maternity Gown,https://www.indiamart.com/proddetail/gsm-102-maternity-gown-2853960544233.html?pos=17&kwd=maternity clothing&tags=A||||8230.883|Price|product|||MDC|rsf:gd-|-qr_nm:gd|res:RC3|com-cf:nl|ptrs:na|ktp:N0|mc:9911|mtp:G|qry_typ:P|lang:en|wc:2|cs:7475|v=4,Hiren Ashokbhai Tariwala,https://www.indiamart.com/hirenashokbhaitariwala/?pos=17&kwd=maternity clothing&tags=A||||8230.883|Price|product|||MDC|rsf:gd-|-qr_nm:gd|res:RC3|com-cf:nl|ptrs:na|ktp:N0|mc:9911|mtp:G|qry_typ:P|lang:en|wc:2|cs:7475|v=4,False,Katargam,Surat,"504, Luxuriya Trade Hub, Dumas Road, B/S Vastu Luxuriya, Katargam, Surat - 395007, Dist.Surat, Gujarat",8044013393,
"Small Maternity Feeding Kurti, Printed",https://www.indiamart.com/proddetail/maternity-feeding-kurti-2854862134191.html?pos=18&kwd=maternity clothing&tags=A||||8230.883|Price|product|||TS|rsf:gd-|-qr_nm:gd|res:RC3|com-cf:nl|ptrs:na|ktp:N0|mc:9911|mtp:G|qry_typ:P|lang:en|wc:2|cs:7475|v=4,Fashion Gaon,https://www.indiamart.com/fashiongaon/?pos=18&kwd=maternity clothing&tags=A||||8230.883|Price|product|||TS|rsf:gd-|-qr_nm:gd|res:RC3|com-cf:nl|ptrs:na|ktp:N0|mc:9911|mtp:G|qry_typ:P|lang:en|wc:2|cs:7475|v=4,False,Shashwat Plaza Parvat Patiya,Surat,"Shashwat Plaza, Puna Brts,Canal Road, 7600124242, Shashwat Plaza Parvat Patiya, Surat - 395010, Dist.Surat, Gujarat",7942710160,
Maternity gowns,https://www.indiamart.com/proddetail/maternity-gowns-2854506093188.html?pos=19&kwd=maternity clothing&tags=A||||8601.347|Price|product|||TS|rsf:gd-|-qr_nm:gd|res:RC3|com-cf:nl|ptrs:na|ktp:N0|mc:9911|mtp:G|qry_typ:P|lang:en|wc:2|cs:7475|v=4,Sana Crafts,https://www.sanacrafts.com/?pos=19&kwd=maternity clothing&tags=A||||8601.347|Price|product|||TS|rsf:gd-|-qr_nm:gd|res:RC3|com-cf:nl|ptrs:na|ktp:N0|mc:9911|mtp:G|qry_typ:P|lang:en|wc:2|cs:7475|v=4,True,Sanganer Bazar,Jaipur,"14 Ganga Vihar, Sanganer, Sanganer Bazar, Jaipur - 302029, Dist.Jaipur, Rajasthan",7942543419,
Women Maternity Clothes,https://www.indiamart.com/proddetail/women-maternity-clothes-2852957047712.html?pos=20&kwd=maternity clothing&tags=A||||8230.883||product|||TS|rsf:gd-|-qr_nm:gd|res:RC3|com-cf:nl|ptrs:na|ktp:N0|mc:9911|mtp:G|qry_typ:P|lang:en|wc:2|cs:7475|v=4,Kajal Creation,https://www.kajalcreation.com/?pos=20&kwd=maternity clothing&tags=A||||8230.883||product|||TS|rsf:gd-|-qr_nm:gd|res:RC3|com-cf:nl|ptrs:na|ktp:N0|mc:9911|mtp:G|qry_typ:P|lang:en|wc:2|cs:7475|v=4,False,Varachha,Surat,"Shop No 3,Plot No 10,Ground Floor,Muktidham Society,Punagam,Surat,Surat, Varachha, Surat - 395010, Dist.Surat, Gujarat",7942633510,
"Cotton Self Design Maternity Feeding Gown, Full Sleeve",https://www.indiamart.com/proddetail/maternity-feeding-gown-2853970049588.html?pos=21&kwd=maternity clothing&tags=A||||8601.347|Price|product|||TS|rsf:gd-|-qr_nm:gd|res:RC3|com-cf:nl|ptrs:na|ktp:N0|mc:9911|mtp:G|qry_typ:P|lang:en|wc:2|cs:7475|v=4,Shree Shyam Creation,https://www.shreeshyamcreations.in/?pos=21&kwd=maternity clothing&tags=A||||8601.347|Price|product|||TS|rsf:gd-|-qr_nm:gd|res:RC3|com-cf:nl|ptrs:na|ktp:N0|mc:9911|mtp:G|qry_typ:P|lang:en|wc:2|cs:7475|v=4,False,Sanganer,Jaipur,"Saini Bhawan, 18, Kanwar Ka Bag Ladko Ki Dhani Panchavti Colony, Sanganer, Sanganer, Jaipur - 302011, Dist.Jaipur, Rajasthan",7942717795,
Unisex Ot Room Wear Ladies Maternity Feeding Gown,https://www.indiamart.com/proddetail/ladies-maternity-feeding-gown-21371751655.html?pos=22&kwd=maternity clothing&tags=A||||8661.854|Price|product|||TS|rsf:gd-|-qr_nm:gd|res:RC3|com-cf:nl|ptrs:na|ktp:N0|mc:9911|mtp:G|qry_typ:P|lang:en|wc:2|cs:7475|v=4,Preet Medi Wears,https://www.preetmediwears.com/?pos=22&kwd=maternity clothing&tags=A||||8661.854|Price|product|||TS|rsf:gd-|-qr_nm:gd|res:RC3|com-cf:nl|ptrs:na|ktp:N0|mc:9911|mtp:G|qry_typ:P|lang:en|wc:2|cs:7475|v=4,False,Guru Arjan Dev Nagar,Ludhiana,"Verma Colony, Bansal Colony, Near Essar Petrol Pump, Churpur Haibowal Kalan, Guru Arjan Dev Nagar, Ludhiana - 141007, Dist.Ludhiana, Punjab",8048967968,
Dessert Arrow Maternity Kurti,https://www.indiamart.com/proddetail/dessert-arrow-maternity-kurti-2855004810562.html?pos=23&kwd=maternity clothing&tags=A||||8211.142|Price|product|||MDC|rsf:gd-|-qr_nm:gd|res:RC3|com-cf:nl|ptrs:na|ktp:N0|mc:9911|mtp:G|qry_typ:P|lang:en|wc:2|cs:7475|v=4,Anish Kantilal Madhavi,https://www.indiamart.com/anish-kantilal-madhavi/?pos=23&kwd=maternity clothing&tags=A||||8211.142|Price|product|||MDC|rsf:gd-|-qr_nm:gd|res:RC3|com-cf:nl|ptrs:na|ktp:N0|mc:9911|mtp:G|qry_typ:P|lang:en|wc:2|cs:7475|v=4,False,,Mumbai,"1st Floor, 13, 282 B Pannalal Terrace, Dr. Babasaheb Bhadkamkar, Grant Road, Mumbai - 400007, Dist.Mumbai, Maharashtra",8048977630,
Peach Cotton Floral Printed Breastfeeding/Maternity/Pregnancy/Maxi/Dress Knee Length Nighty With Zip,https://www.indiamart.com/proddetail/peach-cotton-floral-printed-breastfeeding-maternity-pregnancy-maxi-dress-knee-length-nighty-with-zip-2853944417248.html?pos=24&kwd=maternity clothing&tags=A||||8601.347|Price|product|||MDC|rsf:gd-|-qr_nm:gd|res:RC3|com-cf:nl|ptrs:na|ktp:N0|mc:9911|mtp:G|qry_typ:P|lang:en|wc:2|cs:7475|v=4,Kashaya Fabs,https://www.indiamart.com/kashaya-fabs/?pos=24&kwd=maternity clothing&tags=A||||8601.347|Price|product|||MDC|rsf:gd-|-qr_nm:gd|res:RC3|com-cf:nl|ptrs:na|ktp:N0|mc:9911|mtp:G|qry_typ:P|lang:en|wc:2|cs:7475|v=4,False,Mansarovar,Jaipur,"H-1-51/66A, RIICO Industrial Area, Mansarovar, Mansarovar, Jaipur - 302020, Dist.Jaipur, Rajasthan",8044015615,
"Multicolor Three fourth sleeve Women Feeding Dresses, Size: Free",https://www.indiamart.com/proddetail/women-feeding-dresses-2852698562662.html?pos=25&kwd=maternity clothing&tags=A||||8601.347|Price|product|||TS|rsf:gd-|-qr_nm:gd|res:RC3|com-cf:nl|ptrs:na|ktp:N0|mc:9911|mtp:G|qry_typ:P|lang:en|wc:2|cs:7475|v=4,Rama Exports,https://www.indiamart.com/ramaexportsjaipur/?pos=25&kwd=maternity clothing&tags=A||||8601.347|Price|product|||TS|rsf:gd-|-qr_nm:gd|res:RC3|com-cf:nl|ptrs:na|ktp:N0|mc:9911|mtp:G|qry_typ:P|lang:en|wc:2|cs:7475|v=4,False,Ghat Ki Guni,Jaipur,"Plot No 19-B,Ambedkar Colony,Durga Pura Bypass Tonk Road,Jaipur, Ghat Ki Guni, Jaipur - 302018, Dist.Jaipur, Rajasthan",7942868623,
Maternity Wear Cotton Anarkali Kurti,https://www.indiamart.com/proddetail/maternity-wear-cotton-anarkali-kurti-2854750572773.html?pos=26&kwd=maternity clothing&tags=A||||8601.347|Price|product|||MDC|rsf:gd-|-qr_nm:gd|res:RC3|com-cf:nl|ptrs:na|ktp:N0|mc:9911|mtp:G|qry_typ:P|lang:en|wc:2|cs:7475|v=4,Ajesh Traders,https://www.indiamart.com/ajesh-tradersjaipur/?pos=26&kwd=maternity clothing&tags=A||||8601.347|Price|product|||MDC|rsf:gd-|-qr_nm:gd|res:RC3|com-cf:nl|ptrs:na|ktp:N0|mc:9911|mtp:G|qry_typ:P|lang:en|wc:2|cs:7475|v=4,False,,Jaipur,"53 Jamdoli Road, Agra Road, Behind Marudhar School, Bharat Vihar B, Jaipur - 302031, Dist.Jaipur, Rajasthan",8044459778,
"Western Cotton Feeding Nighties, MIX, Stitched",https://www.indiamart.com/proddetail/cotton-feeding-nighties-21288709888.html?pos=27&kwd=maternity clothing&tags=BA||||8661.854|Price|product|||TS|rsf:gd-|-qr_nm:gd|res:RC3|com-cf:nl|ptrs:na|ktp:N0|mc:9911|mtp:G|qry_typ:P|lang:en|wc:2|cs:7475|v=4,R K Products,https://www.nightpartner.in/?pos=27&kwd=maternity clothing&tags=BA||||8661.854|Price|product|||TS|rsf:gd-|-qr_nm:gd|res:RC3|com-cf:nl|ptrs:na|ktp:N0|mc:9911|mtp:G|qry_typ:P|lang:en|wc:2|cs:7475|v=4,False,Dev Nagar,Ludhiana,"Shop Number 2, 8&10, Chaura Bazar Factory Near Samrala Chownk & H.NO. 1450 NEW CHANDER NAGAR ST. NO.7 OPP. D.M.C HOSPITAL BASSI NURSING HOMEST, Dev Nagar, Ludhiana - 141001, Dist.Ludhiana, Punjab",8047638898,
Maternity Clothing,https://www.indiamart.com/proddetail/maternity-clothing-2853873974848.html?pos=28&kwd=maternity clothing&tags=A||||8601.347|Price|product|||TS|rsf:gd-|-qr_nm:gd|res:RC3|com-cf:nl|ptrs:na|ktp:N0|mc:9911|mtp:G|qry_typ:P|lang:en|wc:2|cs:7475|v=4,Aaivan Fashion Hubb,https://www.indiamart.com/aaivanfashionhub/?pos=28&kwd=maternity clothing&tags=A||||8601.347|Price|product|||TS|rsf:gd-|-qr_nm:gd|res:RC3|com-cf:nl|ptrs:na|ktp:N0|mc:9911|mtp:G|qry_typ:P|lang:en|wc:2|cs:7475|v=4,False,Sitapura Industrial Area,Jaipur,"2nd Floor, C-49 Raj Complex, Sitapura Industrial Area, Sitapura Industrial Area, Jaipur - 302022, Dist.Jaipur, Rajasthan",7942714492,
maternity gown On Rent,https://www.indiamart.com/proddetail/maternity-gown-on-rent-2853972242433.html?pos=29&kwd=maternity clothing&tags=A||||8228.275|Price|product|||TS|rsf:gd-|-qr_nm:gd|res:RC3|com-cf:nl|ptrs:na|ktp:N0|mc:9911|mtp:G|qry_typ:P|lang:en|wc:2|cs:7475|v=4,Gitanjali Enterprise,https://www.indiamart.com/gitanjali-enterprise-ahmedabad/?pos=29&kwd=maternity clothing&tags=A||||8228.275|Price|product|||TS|rsf:gd-|-qr_nm:gd|res:RC3|com-cf:nl|ptrs:na|ktp:N0|mc:9911|mtp:G|qry_typ:P|lang:en|wc:2|cs:7475|v=4,False,Isanpur,Ahmedabad,"Near Jognimata Temple, Isanpur Gam, Isanpur, Isanpur, Ahmedabad - 382443, Dist.Ahmedabad, Gujarat",8047640750,
Women Maternity Wear,https://www.indiamart.com/proddetail/women-maternity-wear-2852705869391.html?pos=30&kwd=maternity clothing&tags=A||||8601.347|Price|product|||TS|rsf:gd-|-qr_nm:gd|res:RC3|com-cf:nl|ptrs:na|ktp:N0|mc:9911|mtp:G|qry_typ:P|lang:en|wc:2|cs:7475|v=4,Aanadhya Fashion,https://www.indiamart.com/aanadhya-fashion-jaipur/?pos=30&kwd=maternity clothing&tags=A||||8601.347|Price|product|||TS|rsf:gd-|-qr_nm:gd|res:RC3|com-cf:nl|ptrs:na|ktp:N0|mc:9911|mtp:G|qry_typ:P|lang:en|wc:2|cs:7475|v=4,False,Shikarpura,Jaipur,"14, Govind Nagar, Goolar Ka Bandha, Shikarpura Road, Sanganer, Shikarpura, Jaipur - 302029, Dist.Jaipur, Rajasthan",7942958103,
Women's maternity wear,https://www.indiamart.com/proddetail/women-s-maternity-wear-2854949602633.html?pos=31&kwd=maternity clothing&tags=A||||8626.744|Price|product|||MDC|rsf:gd-|-qr_nm:gd|res:RC3|com-cf:nl|ptrs:na|ktp:N0|mc:9911|mtp:G|qry_typ:P|lang:en|wc:2|cs:7475|v=4,SR Clothing,https://www.indiamart.com/sr-clothing-tamilnadu/?pos=31&kwd=maternity clothing&tags=A||||8626.744|Price|product|||MDC|rsf:gd-|-qr_nm:gd|res:RC3|com-cf:nl|ptrs:na|ktp:N0|mc:9911|mtp:G|qry_typ:P|lang:en|wc:2|cs:7475|v=4,False,Samalapuram,Tiruppur,"5/177-F1,,Jeeva Nagar 7th Street,Samalapuram, Samalapuram, Tiruppur - 641663, Dist.Coimbatore, Tamil Nadu",7949095886,
Maternity Clothing,https://www.indiamart.com/proddetail/maternity-clothing-2854488076497.html?pos=32&kwd=maternity clothing&tags=A||||8601.347||product|||MDC|rsf:gd-|-qr_nm:gd|res:RC3|com-cf:nl|ptrs:na|ktp:N0|mc:9911|mtp:G|qry_typ:P|lang:en|wc:2|cs:7475|v=4,Sheffali,https://www.indiamart.com/sheffali/?pos=32&kwd=maternity clothing&tags=A||||8601.347||product|||MDC|rsf:gd-|-qr_nm:gd|res:RC3|com-cf:nl|ptrs:na|ktp:N0|mc:9911|mtp:G|qry_typ:P|lang:en|wc:2|cs:7475|v=4,False,Ajmer Road,Jaipur,"C-61, Opp. Kabra Eye Hospital, Jamna Nagar, Sodala, Ajmer Road, Jaipur - 302006, Dist.Jaipur, Rajasthan",7942720926,
"Cotton Aaram Feed Brown Printed Feeding Gown, Three fourth sleeve",https://www.indiamart.com/proddetail/aaram-feed-brown-printed-feeding-gown-2850048780391.html?pos=33&kwd=maternity clothing&tags=A||||8663.873|Price|product|||MDC|rsf:gd-|-qr_nm:gd|res:RC3|com-cf:nl|ptrs:na|ktp:N0|mc:9911|mtp:G|qry_typ:P|lang:en|wc:2|cs:7475|v=4,Samkith Creations,https://www.indiamart.com/samkithcreations/?pos=33&kwd=maternity clothing&tags=A||||8663.873|Price|product|||MDC|rsf:gd-|-qr_nm:gd|res:RC3|com-cf:nl|ptrs:na|ktp:N0|mc:9911|mtp:G|qry_typ:P|lang:en|wc:2|cs:7475|v=4,False,Basaveshwar Nagar,Bengaluru,"2nd Floor , No,154/13, 5th Main , 1st Cross , Shankar Mutt Road,Chamrajpet, Urban, Basaveshwar Nagar, Bengaluru - 560019, Dist.Bengaluru, Karnataka",7942721702,
Plain Maternity Bra,https://www.indiamart.com/proddetail/maternity-bra-27606542348.html?pos=34&kwd=maternity clothing&tags=A||||8752.144|Price|product|||MDC|rsf:gd-|-qr_nm:gd|res:RC3|com-cf:nl|ptrs:na|ktp:N0|mc:9911|mtp:G|qry_typ:P|lang:en|wc:2|cs:7475|v=4,Aman Hosiery,https://www.indiamart.com/amanhosiery-delhi/?pos=34&kwd=maternity clothing&tags=A||||8752.144|Price|product|||MDC|rsf:gd-|-qr_nm:gd|res:RC3|com-cf:nl|ptrs:na|ktp:N0|mc:9911|mtp:G|qry_typ:P|lang:en|wc:2|cs:7475|v=4,False,New Mustafabad,New Delhi,"C-129 Gali No.2 Moonga Nagar, North East Delhi, New Mustafabad, New Delhi - 110094, Dist.Delhi, Delhi",8047622341,
Cotton Mother Feeding Kurtis,https://www.indiamart.com/proddetail/mother-feeding-kurtis-2854079149748.html?pos=35&kwd=maternity clothing&tags=A||||8601.347|Price|product|||MDC|rsf:gd-|-qr_nm:gd|res:RC3|com-cf:nl|ptrs:na|ktp:N0|mc:9911|mtp:G|qry_typ:P|lang:en|wc:2|cs:7475|v=4,Mishika Fashion,https://www.indiamart.com/mishika-fashion/?pos=35&kwd=maternity clothing&tags=A||||8601.347|Price|product|||MDC|rsf:gd-|-qr_nm:gd|res:RC3|com-cf:nl|ptrs:na|ktp:N0|mc:9911|mtp:G|qry_typ:P|lang:en|wc:2|cs:7475|v=4,False,Goardhan Nagar,Jaipur,"Plot No 40 Shiksha Sagar Govind Pura Jaipur Jaipur, Goardhan Nagar, Jaipur - 302029, Dist.Jaipur, Rajasthan",7949372347,
Maternity Dress Photoshoot,,Go Commerce Production,https://www.indiamart.com/go-commerce-production/?pos=36&kwd=maternity clothing&tags=A||||8752.144|Price|product|||TS|rsf:gd-|-qr_nm:gd|res:RC3|com-cf:nl|ptrs:na|ktp:N0|mc:9911|mtp:G|qry_typ:P|lang:en|wc:2|cs:7475|v=4,False,Chittaranjan Park,New Delhi,"A-566, Double Storey, Kalka Ji, Chittaranjan Park, New Delhi - 110019, Dist.Delhi, Delhi",7942551680,
Rayon Maternity Feeding Kurti,https://www.indiamart.com/proddetail/maternity-feeding-kurti-2854527687962.html?pos=37&kwd=maternity clothing&tags=A||||8228.275|Price|product|||MDC|rsf:gd-|-qr_nm:gd|res:RC3|com-cf:nl|ptrs:na|ktp:N0|mc:9911|mtp:G|qry_typ:P|lang:en|wc:2|cs:7475|v=4,Bayosa Impex,https://www.indiamart.com/bayosaimpex-ahmedabad/?pos=37&kwd=maternity clothing&tags=A||||8228.275|Price|product|||MDC|rsf:gd-|-qr_nm:gd|res:RC3|com-cf:nl|ptrs:na|ktp:N0|mc:9911|mtp:G|qry_typ:P|lang:en|wc:2|cs:7475|v=4,False,Gordhanwadi,Ahmedabad,"3rd Floor,D/325,Sumel Business Park-II,NR Vanijybhavan,Kankaria, Gordhanwadi, Ahmedabad - 380022, Dist.Ahmedabad, Gujarat",8044010259,
Cotton Caftan Maternity Kaftan Leisure Wear Labor Birthing Gown Delivery Plus Size Loungewear,https://www.indiamart.com/proddetail/cotton-caftan-maternity-kaftan-leisure-wear-labor-birthing-gown-delivery-plus-size-loungewear-2853555485655.html?pos=38&kwd=maternity clothing&tags=BA||||8601.347|Price|product|||TS|rsf:gd-|-qr_nm:gd|res:RC3|com-cf:nl|ptrs:na|ktp:N0|mc:9911|mtp:G|qry_typ:P|lang:en|wc:2|cs:7475|v=4,Satnam Handicrafts,https://www.indiamart.com/satnamhandicrafts/?pos=38&kwd=maternity clothing&tags=BA||||8601.347|Price|product|||TS|rsf:gd-|-qr_nm:gd|res:RC3|com-cf:nl|ptrs:na|ktp:N0|mc:9911|mtp:G|qry_typ:P|lang:en|wc:2|cs:7475|v=4,True,Govind Nagar,Jaipur,"98-B, PPark Street, Govind Nagar West, Amer Road, Tripoliya Bazar, Govind Nagar, Jaipur - 302002, Dist.Jaipur, Rajasthan",7942821000,
"Cotton Latest New Ladies Maternity Kurti, Size: XL",https://www.indiamart.com/proddetail/latest-new-ladies-maternity-kurti-23808234962.html?pos=39&kwd=maternity clothing&tags=A||||8230.883|Price|product|||TS|rsf:gd-|-qr_nm:gd|res:RC3|com-cf:nl|ptrs:na|ktp:N0|mc:9911|mtp:G|qry_typ:P|lang:en|wc:2|cs:7475|v=4,Leranath Fashion,https://www.leranathfashion.in/?pos=39&kwd=maternity clothing&tags=A||||8230.883|Price|product|||TS|rsf:gd-|-qr_nm:gd|res:RC3|com-cf:nl|ptrs:na|ktp:N0|mc:9911|mtp:G|qry_typ:P|lang:en|wc:2|cs:7475|v=4,True,Vishal Nagar,Surat,"5th Floor, Office No. 501D, V Plaza, Akshar Kunj Society, Vishal Nagar, Surat - 395004, Dist.Surat, Gujarat",8047640072,
Maternity Feeding Kurti,https://www.indiamart.com/proddetail/maternity-feeding-kurti-2854759055962.html?pos=40&kwd=maternity clothing&tags=A||||8626.744|Price|product|||TS|rsf:gd-|-qr_nm:gd|res:RC3|com-cf:nl|ptrs:na|ktp:N0|mc:9911|mtp:G|qry_typ:P|lang:en|wc:2|cs:7475|v=4,RVR Garments,https://www.indiamart.com/rvr-garments-tiruppur/?pos=40&kwd=maternity clothing&tags=A||||8626.744|Price|product|||TS|rsf:gd-|-qr_nm:gd|res:RC3|com-cf:nl|ptrs:na|ktp:N0|mc:9911|mtp:G|qry_typ:P|lang:en|wc:2|cs:7475|v=4,False,Weavers Colony,Tiruppur,"4-1/19, Babuji Nagar 3rd Street,Kumarananthapuram, Weavers Colony, Tiruppur - 641602, Dist.Coimbatore, Tamil Nadu",7942962984,
Maternity Feeding Kurti,,Dhanlaxmi Creation,https://www.indiamart.com/dhanlaxmi-creationmumbai/?pos=41&kwd=maternity clothing&tags=A||||8211.142|Price|product|||MDC|rsf:gd-|-qr_nm:gd|res:RC3|com-cf:nl|ptrs:na|ktp:N0|mc:9911|mtp:G|qry_typ:P|lang:en|wc:2|cs:7475|v=4,False,Dadar West,Mumbai,"Ground Floor, G-101, Dadar Manish Market, Near Dadar Railway Station, Dadar West,, Dadar West, Mumbai - 400028, Dist.Mumbai, Maharashtra",8044562073,
"Anarkali Black Ladies Rajasthani Printed Rayon Kurti, 3/4 Sleeve",https://www.indiamart.com/proddetail/printed-rayon-maternity-feeding-kurti-2854747056533.html?pos=42&kwd=maternity clothing&tags=A||||8364.597|Price|product|||MDC|rsf:gd-|-qr_nm:gd|res:RC3|com-cf:nl|ptrs:na|ktp:N0|mc:9911|mtp:G|qry_typ:P|lang:en|wc:2|cs:7475|v=4,Aayush Enterprises,https://www.indiamart.com/aayush-enterprises-udaipur/?pos=42&kwd=maternity clothing&tags=A||||8364.597|Price|product|||MDC|rsf:gd-|-qr_nm:gd|res:RC3|com-cf:nl|ptrs:na|ktp:N0|mc:9911|mtp:G|qry_typ:P|lang:en|wc:2|cs:7475|v=4,False,,Udaipur,"20 Block A, Aashirwad Nagar, Roop Sagar Road, Shri Kali Kalyan Dham Mandir,, Udaipur - 313001, Rajasthan",8044457975,
"Women Cotton Floral Printed Kaftan Top, Free Size Maternity Work From Home Wear Summer Clothing",https://www.indiamart.com/proddetail/women-cotton-floral-printed-kaftan-top-free-size-maternity-work-from-home-wear-summer-clothing-2854795378133.html?pos=43&kwd=maternity clothing&tags=A||||8601.347|Price|product|||TS|rsf:gd-|-qr_nm:gd|res:RC3|com-cf:nl|ptrs:na|ktp:N0|mc:9911|mtp:G|qry_typ:P|lang:en|wc:2|cs:7475|v=4,Pearl International,https://www.pearljaipur.com/?pos=43&kwd=maternity clothing&tags=A||||8601.347|Price|product|||TS|rsf:gd-|-qr_nm:gd|res:RC3|com-cf:nl|ptrs:na|ktp:N0|mc:9911|mtp:G|qry_typ:P|lang:en|wc:2|cs:7475|v=4,True,,Jaipur,"B-24, Basant Bahar Colony, Tonk Road , Gopalpura Mode, Jaipur - 302018, Dist.Jaipur, Rajasthan",7949329929,
"Cotton Printed Ladies Maternity Gown, multi",https://www.indiamart.com/proddetail/ladies-maternity-gown-2853100512048.html?pos=44&kwd=maternity clothing&tags=A||||8601.347|Price|product|||TS|rsf:gd-|-qr_nm:gd|res:RC3|com-cf:nl|ptrs:na|ktp:N0|mc:9911|mtp:G|qry_typ:P|lang:en|wc:2|cs:7475|v=4,Kismat Collection,https://www.kismatcollectionjaipur.com/?pos=44&kwd=maternity clothing&tags=A||||8601.347|Price|product|||TS|rsf:gd-|-qr_nm:gd|res:RC3|com-cf:nl|ptrs:na|ktp:N0|mc:9911|mtp:G|qry_typ:P|lang:en|wc:2|cs:7475|v=4,False,Raj Nagar 2,Jaipur,"A-15,,PATEL NAGAR NAMDEV COLONY,SANGANER, JAIPUR, Raj Nagar 2, Jaipur - 302029, Dist.Jaipur, Rajasthan",7942869763,
"Feeding Maternity Pregnancy Rayon Kurti, 250",https://www.indiamart.com/proddetail/feeding-maternity-pregnancy-rayon-kurti-23511880455.html?pos=45&kwd=maternity clothing&tags=A||||8230.883|Price|product|||TS|rsf:gd-|-qr_nm:gd|res:RC3|com-cf:nl|ptrs:na|ktp:N0|mc:9911|mtp:G|qry_typ:P|lang:en|wc:2|cs:7475|v=4,Fashion Hub,https://www.indiamart.com/fashionhub-gujarat/?pos=45&kwd=maternity clothing&tags=A||||8230.883|Price|product|||TS|rsf:gd-|-qr_nm:gd|res:RC3|com-cf:nl|ptrs:na|ktp:N0|mc:9911|mtp:G|qry_typ:P|lang:en|wc:2|cs:7475|v=4,False,Mota Varachha,Surat,"E-104,,Shrinidhi Residency,,Nr. Sudama Chowk,,Mota Varachha,, Mota Varachha, Surat - 394101, Dist.Surat, Gujarat",8048956108,
Maternity Tunic,https://www.indiamart.com/proddetail/maternity-tunic-2851959569262.html?pos=46&kwd=maternity clothing&tags=A||||8559.269|Price|product|||TS|rsf:gd-|-qr_nm:gd|res:RC3|com-cf:nl|ptrs:na|ktp:N0|mc:9911|mtp:G|qry_typ:P|lang:en|wc:2|cs:7475|v=4,Nirmala Overseas,https://www.nirmalaoverseas.com/?pos=46&kwd=maternity clothing&tags=A||||8559.269|Price|product|||TS|rsf:gd-|-qr_nm:gd|res:RC3|com-cf:nl|ptrs:na|ktp:N0|mc:9911|mtp:G|qry_typ:P|lang:en|wc:2|cs:7475|v=4,False,Jaora Compound,Indore,"No. 56, Jaora Compound, Jaora Compound, Indore - 452001, Dist.Indore, Madhya Pradesh",8047300753,
Maternity Dress,https://www.indiamart.com/proddetail/maternity-dress-2849552113712.html?pos=47&kwd=maternity clothing&tags=A||||8786.56|Price|product|||TS|rsf:gd-|-qr_nm:gd|res:RC3|com-cf:nl|ptrs:na|ktp:N0|mc:9911|mtp:G|qry_typ:P|lang:en|wc:2|cs:7475|v=4,ANU CHAUHAN FASHIONS (OPC) PRIVATE LIMITED,https://www.indiamart.com/anu-chauhan-fashions-opc/?pos=47&kwd=maternity clothing&tags=A||||8786.56|Price|product|||TS|rsf:gd-|-qr_nm:gd|res:RC3|com-cf:nl|ptrs:na|ktp:N0|mc:9911|mtp:G|qry_typ:P|lang:en|wc:2|cs:7475|v=4,False,Kukatpally Kphb Colony Phase 7,Hyderabad,"2nd Floor, DG5-G/02/05 Flat No. 205, Malaysian Township, Phase 5, KPHB Colony, Kukatpally Raintree Park, Near Club House Rangareddy, Kukatpally Kphb Colony Phase 7, Hyderabad - 500085, Dist.Hyderabad, Telangana",8048953054,
Womens Printed Dark Purple Rayon Maternity Night Gown,https://www.indiamart.com/proddetail/womens-printed-dark-purple-rayon-maternity-night-gown-2854694019988.html?pos=48&kwd=maternity clothing&tags=A||||8601.347|Price|product|||MDC|rsf:gd-|-qr_nm:gd|res:RC3|com-cf:nl|ptrs:na|ktp:N0|mc:9911|mtp:G|qry_typ:P|lang:en|wc:2|cs:7475|v=4,V R Fashions,https://www.indiamart.com/vrfashions-jaipur/?pos=48&kwd=maternity clothing&tags=A||||8601.347|Price|product|||MDC|rsf:gd-|-qr_nm:gd|res:RC3|com-cf:nl|ptrs:na|ktp:N0|mc:9911|mtp:G|qry_typ:P|lang:en|wc:2|cs:7475|v=4,False,,Jaipur,"Ground Floor 10, Thana Circle, Khokhawas, Mahaveer Nagar, Near Sanganer Thana, Sanganer, Jaipur - 302029, Dist.Jaipur, Rajasthan",7949322594,
Maternity Dress,https://www.indiamart.com/proddetail/maternity-dress-2853877883573.html?pos=49&kwd=maternity clothing&tags=A||||8626.744|Price|product|||MDC|rsf:gd-|-qr_nm:gd|res:RC3|com-cf:nl|ptrs:na|ktp:N0|mc:9911|mtp:G|qry_typ:P|lang:en|wc:2|cs:7475|v=4,Elshada Clothing,https://www.indiamart.com/elshada-clothing-tiruppur/?pos=49&kwd=maternity clothing&tags=A||||8626.744|Price|product|||MDC|rsf:gd-|-qr_nm:gd|res:RC3|com-cf:nl|ptrs:na|ktp:N0|mc:9911|mtp:G|qry_typ:P|lang:en|wc:2|cs:7475|v=4,False,Padmavathi Puram,Tiruppur,"105A Ashar Mill Labour Colony, Padmavathipuram, Padmavathi Puram, Tiruppur - 641603, Dist.Coimbatore, Tamil Nadu",7942720305,
Maternity Clothing,https://www.indiamart.com/proddetail/maternity-clothing-2854766870133.html?pos=50&kwd=maternity clothing&tags=BB||||8601.347|Price|product|||TS|rsf:gd-|-qr_nm:gd|res:RC3|com-cf:nl|ptrs:na|ktp:N0|mc:9911|mtp:G|qry_typ:P|lang:en|wc:2|cs:7475|v=4,Tanishi Crafts,https://www.tanishicrafts.com/?pos=50&kwd=maternity clothing&tags=BB||||8601.347|Price|product|||TS|rsf:gd-|-qr_nm:gd|res:RC3|com-cf:nl|ptrs:na|ktp:N0|mc:9911|mtp:G|qry_typ:P|lang:en|wc:2|cs:7475|v=4,False,Jaipur,Jaipur,"Bani Park, F-61 Sindhi Colony, Jaipur, Iti Sanstha Ke Piche, Sindhi Colony, Jaipur, Jaipur - 302016, Dist.Jaipur, Rajasthan",8047622196,
Ladies Maternity Bra,https://www.indiamart.com/proddetail/ladies-maternity-bra-2852820024588.html?pos=51&kwd=maternity clothing&tags=BA||||8752.144|Price|product|||TS|rsf:gd-|-qr_nm:gd|res:RC3|com-cf:nl|ptrs:na|ktp:N0|mc:9911|mtp:G|qry_typ:P|lang:en|wc:2|cs:7475|v=4,Kritika Enterprises,https://www.indiamart.com/kritika-enterprises-newdelhi/?pos=51&kwd=maternity clothing&tags=BA||||8752.144|Price|product|||TS|rsf:gd-|-qr_nm:gd|res:RC3|com-cf:nl|ptrs:na|ktp:N0|mc:9911|mtp:G|qry_typ:P|lang:en|wc:2|cs:7475|v=4,False,Pahari Dhiraj,New Delhi,"First Floor, 4664, Gali Mohar Singh, Jat Pahari Dhiraj, Pahari Dhiraj, New Delhi - 110006, Dist.Delhi, Delhi",8047659336,
Maternity Shoot Photography Service,https://www.indiamart.com/proddetail/maternity-shoot-photography-service-2854982037888.html?pos=52&kwd=maternity clothing&tags=BB||||8769.508|Price|product|||MDC|rsf:gd-|-qr_nm:gd|res:RC3|com-cf:nl|ptrs:na|ktp:N0|mc:9911|mtp:G|qry_typ:P|lang:en|wc:2|cs:7475|v=4,Quick Ads Media,https://www.indiamart.com/quick-ads-media/?pos=52&kwd=maternity clothing&tags=BB||||8769.508|Price|product|||MDC|rsf:gd-|-qr_nm:gd|res:RC3|com-cf:nl|ptrs:na|ktp:N0|mc:9911|mtp:G|qry_typ:P|lang:en|wc:2|cs:7475|v=4,False,,Faridabad,"First Floor, H.No D-793, Near Gayatri Mandir, Chawla Colony, Ballabgarh, Faridabad - 121004, Dist.Faridabad, Haryana",7949337228,
Cotton Tetra Maternity Clothing,https://www.indiamart.com/proddetail/tetra-maternity-clothing-22158440230.html?pos=53&kwd=maternity clothing&tags=BA||||8954.051|Price|product|||TS|rsf:gd-|-qr_nm:gd|res:RC3|com-cf:nl|ptrs:na|ktp:N0|mc:9911|mtp:G|qry_typ:P|lang:en|wc:2|cs:7475|v=4,Tetra Clothing,https://www.tetraclothing.in/?pos=53&kwd=maternity clothing&tags=BA||||8954.051|Price|product|||TS|rsf:gd-|-qr_nm:gd|res:RC3|com-cf:nl|ptrs:na|ktp:N0|mc:9911|mtp:G|qry_typ:P|lang:en|wc:2|cs:7475|v=4,True,Gopichettipalaiyam,Chennai,"No. 59/28, Balu Building, Gopichettipalaiyam, Chennai - 638476, Dist.Chennai, Tamil Nadu",8048957951,
Ladies Printed Maternity Kurti,https://www.indiamart.com/proddetail/ladies-printed-maternity-kurti-2851885868830.html?pos=54&kwd=maternity clothing&tags=BA||||8687.934|Price|product|||TS|rsf:gd-|-qr_nm:gd|res:RC3|com-cf:nl|ptrs:na|ktp:N0|mc:9911|mtp:G|qry_typ:P|lang:en|wc:2|cs:7475|v=4,Shree Fashions,https://www.indiamart.com/jbr-vesture/?pos=54&kwd=maternity clothing&tags=BA||||8687.934|Price|product|||TS|rsf:gd-|-qr_nm:gd|res:RC3|com-cf:nl|ptrs:na|ktp:N0|mc:9911|mtp:G|qry_typ:P|lang:en|wc:2|cs:7475|v=4,False,Rajapalaiyam,Virudhunagar,"2/126B4, Teachers Colony, Chettiarpatti, Rajapalaiyam, Virudhunagar - 626188, Dist.Virudhunagar, Tamil Nadu",7942870856,
Maternity Kurtis,https://www.indiamart.com/proddetail/maternity-kurtis-2853342878697.html?pos=55&kwd=maternity clothing&tags=BA||||8654.703|Price|product|||TS|rsf:gd-|-qr_nm:gd|res:RC3|com-cf:nl|ptrs:na|ktp:N0|mc:9911|mtp:G|qry_typ:P|lang:en|wc:2|cs:7475|v=4,Namma Trends,https://www.indiamart.com/nammatrends-perundurai/?pos=55&kwd=maternity clothing&tags=BA||||8654.703|Price|product|||TS|rsf:gd-|-qr_nm:gd|res:RC3|com-cf:nl|ptrs:na|ktp:N0|mc:9911|mtp:G|qry_typ:P|lang:en|wc:2|cs:7475|v=4,False,Perundurai,Perundurai,"40, Raja Street, Erode, Perundurai, Perundurai - 638052, Dist.Erode, Tamil Nadu",7942834704,
Aarya Trendz Cotton Kurti For Baby Feeding and During Maternity Period.,https://www.indiamart.com/proddetail/aarya-trendz-cotton-kurti-for-baby-feeding-and-during-maternity-period-27522867997.html?pos=56&kwd=maternity clothing&tags=BA||||8230.883|Price|product|||TS|rsf:gd-|-qr_nm:gd|res:RC3|com-cf:nl|ptrs:na|ktp:N0|mc:9911|mtp:G|qry_typ:P|lang:en|wc:2|cs:7475|v=4,Aarya Trendz,https://www.indiamart.com/aarya-trendz/?pos=56&kwd=maternity clothing&tags=BA||||8230.883|Price|product|||TS|rsf:gd-|-qr_nm:gd|res:RC3|com-cf:nl|ptrs:na|ktp:N0|mc:9911|mtp:G|qry_typ:P|lang:en|wc:2|cs:7475|v=4,False,,Surat,"30, Shree Krupa Industrial Estate Kapodra, Varachha Main Road, Surat - 395006, Dist.Surat, Gujarat",8046034119,
"Cotton Printed Feeding Kurti, 3/4 Sleeve",https://www.indiamart.com/proddetail/cotton-printed-feeding-kurti-2848977955088.html?pos=57&kwd=maternity clothing&tags=BA||||8601.347|Price|product|||TS|rsf:gd-|-qr_nm:gd|res:RC3|com-cf:nl|ptrs:na|ktp:N0|mc:9911|mtp:G|qry_typ:P|lang:en|wc:2|cs:7475|v=4,Vinayak Enterprises,https://www.vinayakenterprisesindia.com/?pos=57&kwd=maternity clothing&tags=BA||||8601.347|Price|product|||TS|rsf:gd-|-qr_nm:gd|res:RC3|com-cf:nl|ptrs:na|ktp:N0|mc:9911|mtp:G|qry_typ:P|lang:en|wc:2|cs:7475|v=4,True,Vistar,Jaipur,"Vinayak Enterprises, B-61, Barkat Nagar Vistar, Near Arjun Nagar Underpass, Vistar, Jaipur - 302031, Dist.Jaipur, Rajasthan",8047652854,
Teal Blue Maternity Clothing,https://www.indiamart.com/proddetail/teal-blue-maternity-clothing-2853911126555.html?pos=58&kwd=maternity clothing&tags=BA||||8601.347|Price|product|||MDC|rsf:gd-|-qr_nm:gd|res:RC3|com-cf:nl|ptrs:na|ktp:N0|mc:9911|mtp:G|qry_typ:P|lang:en|wc:2|cs:7475|v=4,Murliswroop,https://www.indiamart.com/murliswroop/?pos=58&kwd=maternity clothing&tags=BA||||8601.347|Price|product|||MDC|rsf:gd-|-qr_nm:gd|res:RC3|com-cf:nl|ptrs:na|ktp:N0|mc:9911|mtp:G|qry_typ:P|lang:en|wc:2|cs:7475|v=4,False,Mansarovar,Jaipur,"30/23/11, Second Floor, Varun Path Chouraha, Madhyam Marg, Opp. Sharma Sweets, Mansarovar, Mansarovar, Jaipur - 302020, Dist.Jaipur, Rajasthan",7949372492,
Ladies Black Cotton Printed Maternity Clothing,https://www.indiamart.com/proddetail/ladies-black-cotton-printed-maternity-clothing-2852947369533.html?pos=59&kwd=maternity clothing&tags=BA||||8601.347|Price|product|||MDC|rsf:gd-|-qr_nm:gd|res:RC3|com-cf:nl|ptrs:na|ktp:N0|mc:9911|mtp:G|qry_typ:P|lang:en|wc:2|cs:7475|v=4,Z Creation,https://www.indiamart.com/z-creation-rajasthan/?pos=59&kwd=maternity clothing&tags=BA||||8601.347|Price|product|||MDC|rsf:gd-|-qr_nm:gd|res:RC3|com-cf:nl|ptrs:na|ktp:N0|mc:9911|mtp:G|qry_typ:P|lang:en|wc:2|cs:7475|v=4,False,sanganer,Jaipur,"Plot No F16 Shop No F-09 & 10 Sidhi Vinayak Plaza, Chordiya Petrol Pump Sanganer, sanganer, Jaipur - 302029, Dist.Jaipur, Rajasthan",7942962509,
High Waist Maternity Leggings,https://www.indiamart.com/proddetail/high-waist-maternity-leggings-23068556130.html?pos=60&kwd=maternity clothing&tags=BA||||8211.142|Price|product|||SSnp|rsf:gd-|-qr_nm:gd|res:RC3|com-cf:nl|ptrs:na|ktp:N0|mc:9911|mtp:G|qry_typ:P|lang:en|wc:2|cs:7475|v=4,Gargi Enterprise,https://www.indiamart.com/gargienterprise/?pos=60&kwd=maternity clothing&tags=BA||||8211.142|Price|product|||SSnp|rsf:gd-|-qr_nm:gd|res:RC3|com-cf:nl|ptrs:na|ktp:N0|mc:9911|mtp:G|qry_typ:P|lang:en|wc:2|cs:7475|v=4,False,Mulund East,Mumbai,"501, Manisha Tower, Near Tata Colony, Mulund East, Mumbai - 400081, Dist.Mumbai, Maharashtra",8046039064,
Nursing Cover for Breastfeeding,https://www.indiamart.com/proddetail/nursing-cover-for-breastfeeding-11812996788.html?pos=61&kwd=maternity clothing&tags=BA||||8778.123|Price|product|||TS|rsf:gd-|-qr_nm:gd|res:RC3|com-cf:nl|ptrs:na|ktp:N0|mc:9911|mtp:G|qry_typ:P|lang:en|wc:2|cs:7475|v=4,Oscar Overseas,https://www.oscar-india.com/?pos=61&kwd=maternity clothing&tags=BA||||8778.123|Price|product|||TS|rsf:gd-|-qr_nm:gd|res:RC3|com-cf:nl|ptrs:na|ktp:N0|mc:9911|mtp:G|qry_typ:P|lang:en|wc:2|cs:7475|v=4,False,,Noida,"A-99 Sector 5, Noida - 201301, Dist.Gautam Budh Nagar, Uttar Pradesh",8046058290,
"Women's Cotton Printed Maternity Gown, Purple",https://www.indiamart.com/proddetail/women-s-cotton-printed-maternity-gown-2852876368791.html?pos=62&kwd=maternity clothing&tags=BA||||8601.347|Price|product|||TS|rsf:gd-|-qr_nm:gd|res:RC3|com-cf:nl|ptrs:na|ktp:N0|mc:9911|mtp:G|qry_typ:P|lang:en|wc:2|cs:7475|v=4,Jaanya Creations,https://www.flyfinns.com/?pos=62&kwd=maternity clothing&tags=BA||||8601.347|Price|product|||TS|rsf:gd-|-qr_nm:gd|res:RC3|com-cf:nl|ptrs:na|ktp:N0|mc:9911|mtp:G|qry_typ:P|lang:en|wc:2|cs:7475|v=4,False,Sanganer Station,Jaipur,"405, Dajy Manglam Ananda, Neear Sanganer Station, Sanganer Station, Jaipur - 302029, Dist.Jaipur, Rajasthan",7942789055,
Maternity Kurtis,https://www.indiamart.com/proddetail/maternity-kurtis-2854353889173.html?pos=63&kwd=maternity clothing&tags=BA||||8601.347|Price|product|||MDC|rsf:gd-|-qr_nm:gd|res:RC3|com-cf:nl|ptrs:na|ktp:N0|mc:9911|mtp:G|qry_typ:P|lang:en|wc:2|cs:7475|v=4,Parasnath Traders,https://www.indiamart.com/parasnathtraders-jaipur/?pos=63&kwd=maternity clothing&tags=BA||||8601.347|Price|product|||MDC|rsf:gd-|-qr_nm:gd|res:RC3|com-cf:nl|ptrs:na|ktp:N0|mc:9911|mtp:G|qry_typ:P|lang:en|wc:2|cs:7475|v=4,False,Mansarovar,Jaipur,"Plot No. 34-35A, Shri Ram Nagar, Near Kids Club School, New Sanganer Road, Mansarovar, Mansarovar, Jaipur - 302020, Dist.Jaipur, Rajasthan",7948547962,
Green Cotton Maternity Dresses,https://www.indiamart.com/proddetail/green-cotton-maternity-dresses-26286356088.html?pos=64&kwd=maternity clothing&tags=BA||||8601.347|Price|product|||MDC|rsf:gd-|-qr_nm:gd|res:RC3|com-cf:nl|ptrs:na|ktp:N0|mc:9911|mtp:G|qry_typ:P|lang:en|wc:2|cs:7475|v=4,Akhil Enterprises,https://www.indiamart.com/akhilenterprises-jaipurrajasthan/?pos=64&kwd=maternity clothing&tags=BA||||8601.347|Price|product|||MDC|rsf:gd-|-qr_nm:gd|res:RC3|com-cf:nl|ptrs:na|ktp:N0|mc:9911|mtp:G|qry_typ:P|lang:en|wc:2|cs:7475|v=4,False,Jay Colony,Jaipur,"228 A Gali No. 3, Rajapark, Jay Colony, Jaipur - 302004, Dist.Jaipur, Rajasthan",8044012954,
White Georgette Printed Flared Maternity Dress,https://www.indiamart.com/proddetail/white-georgette-printed-flared-maternity-dress-2854535759497.html?pos=65&kwd=maternity clothing&tags=BA||||8752.144|Price|product|||MDC|rsf:gd-|-qr_nm:gd|res:RC3|com-cf:nl|ptrs:na|ktp:N0|mc:9911|mtp:G|qry_typ:P|lang:en|wc:2|cs:7475|v=4,Siyaram Enterprises,https://www.indiamart.com/siyaram-enterprises-newdelhi/?pos=65&kwd=maternity clothing&tags=BA||||8752.144|Price|product|||MDC|rsf:gd-|-qr_nm:gd|res:RC3|com-cf:nl|ptrs:na|ktp:N0|mc:9911|mtp:G|qry_typ:P|lang:en|wc:2|cs:7475|v=4,False,,New Delhi,"76-D, A PKT, Third Floor Vikas Puri EXTN, West Delhi, New Delhi - 110018, Dist.Delhi, Delhi",8045737683,
Feather Maternity Photoshoot Gown,https://www.indiamart.com/proddetail/feather-maternity-photoshoot-gown-2853778511555.html?pos=66&kwd=maternity clothing&tags=BA||||8601.347|Price|product|||MDC|rsf:gd-|-qr_nm:gd|res:RC3|com-cf:nl|ptrs:na|ktp:N0|mc:9911|mtp:G|qry_typ:P|lang:en|wc:2|cs:7475|v=4,Thread Texture,https://www.indiamart.com/threadtexture/?pos=66&kwd=maternity clothing&tags=BA||||8601.347|Price|product|||MDC|rsf:gd-|-qr_nm:gd|res:RC3|com-cf:nl|ptrs:na|ktp:N0|mc:9911|mtp:G|qry_typ:P|lang:en|wc:2|cs:7475|v=4,False,,Jaipur,"Sector 11 Pratap Nagar, Jaipur - 302033, Dist.Jaipur, Rajasthan",8047656472,
cotton anarkali feeding/maternity kurti,https://www.indiamart.com/proddetail/cotton-anarkali-feeding-maternity-kurti-2852386299991.html?pos=67&kwd=maternity clothing&tags=BA||||8601.347|Price|product|||TS|rsf:gd-|-qr_nm:gd|res:RC3|com-cf:nl|ptrs:na|ktp:N0|mc:9911|mtp:G|qry_typ:P|lang:en|wc:2|cs:7475|v=4,Guru Kripa Creation,https://www.indiamart.com/guru-kripa-creationjaipur/?pos=67&kwd=maternity clothing&tags=BA||||8601.347|Price|product|||TS|rsf:gd-|-qr_nm:gd|res:RC3|com-cf:nl|ptrs:na|ktp:N0|mc:9911|mtp:G|qry_typ:P|lang:en|wc:2|cs:7475|v=4,False,Sanganer Bazar,Jaipur,"01, Radha Ballabh Marg, Joshiyo Ka Mohalla, Sanganer, Sanganer Bazar, Jaipur - 302029, Dist.Jaipur, Rajasthan",7942956353,
Black Rayon Maternity Kurti,https://www.indiamart.com/proddetail/black-rayon-maternity-kurti-2852598640373.html?pos=68&kwd=maternity clothing&tags=BA||||8601.347|Price|product|||MDC|rsf:gd-|-qr_nm:gd|res:RC3|com-cf:nl|ptrs:na|ktp:N0|mc:9911|mtp:G|qry_typ:P|lang:en|wc:2|cs:7475|v=4,Shaifali Fashions,https://www.indiamart.com/shaifali-fashions/?pos=68&kwd=maternity clothing&tags=BA||||8601.347|Price|product|||MDC|rsf:gd-|-qr_nm:gd|res:RC3|com-cf:nl|ptrs:na|ktp:N0|mc:9911|mtp:G|qry_typ:P|lang:en|wc:2|cs:7475|v=4,False,,Jaipur,"37-A,Pratap Nagar,Golimar Garden Ke Pichhe,Amer Road,Brahmpuri, Jaipur - 302002, Dist.Jaipur, Rajasthan",8045732152,
Printed Ladies Sky Blue Rayon Maternity Gown,https://www.indiamart.com/proddetail/ladies-sky-blue-rayon-maternity-gown-2854128929797.html?pos=69&kwd=maternity clothing&tags=BA||||8601.347|Price|product|||MDC|rsf:gd-|-qr_nm:gd|res:RC3|com-cf:nl|ptrs:na|ktp:N0|mc:9911|mtp:G|qry_typ:P|lang:en|wc:2|cs:7475|v=4,Saanvi Collection,https://www.indiamart.com/saanvi-collection-jaipur/?pos=69&kwd=maternity clothing&tags=BA||||8601.347|Price|product|||MDC|rsf:gd-|-qr_nm:gd|res:RC3|com-cf:nl|ptrs:na|ktp:N0|mc:9911|mtp:G|qry_typ:P|lang:en|wc:2|cs:7475|v=4,False,Raj Nagar 2,Jaipur,"75/310, RHB Pratap Nagar ,Sanganer,, Raj Nagar 2, Jaipur - 302029, Dist.Jaipur, Rajasthan",8045733365,
"Light Grey Babymoon Off Shoulder Maternity Gown, Size: XL",https://www.indiamart.com/proddetail/babymoon-off-shoulder-maternity-gown-26090579555.html?pos=70&kwd=maternity clothing&tags=BA||||8228.275|Price|product|||MDC|rsf:gd-|-qr_nm:gd|res:RC3|com-cf:nl|ptrs:na|ktp:N0|mc:9911|mtp:G|qry_typ:P|lang:en|wc:2|cs:7475|v=4,Dream Works,https://www.indiamart.com/dreamworks-ahmedabad/?pos=70&kwd=maternity clothing&tags=BA||||8228.275|Price|product|||MDC|rsf:gd-|-qr_nm:gd|res:RC3|com-cf:nl|ptrs:na|ktp:N0|mc:9911|mtp:G|qry_typ:P|lang:en|wc:2|cs:7475|v=4,False,Sanathal,Ahmedabad,"5,Chanakya Bunglows,Nr Lad Society Common Plot,Vastrapur, Sanathal, Ahmedabad - 380054, Dist.Ahmedabad, Gujarat",8047663803,
sea blue corset maternity gown,https://www.indiamart.com/proddetail/sea-blue-corset-maternity-gown-2854363596597.html?pos=71&kwd=maternity clothing&tags=BA||||8307.81|Price|product|||MDC|rsf:gd-|-qr_nm:gd|res:RC3|com-cf:nl|ptrs:na|ktp:N0|mc:9911|mtp:G|qry_typ:P|lang:en|wc:2|cs:7475|v=4,Nayan Collection,https://www.indiamart.com/nayan-collection-maharashtra/?pos=71&kwd=maternity clothing&tags=BA||||8307.81|Price|product|||MDC|rsf:gd-|-qr_nm:gd|res:RC3|com-cf:nl|ptrs:na|ktp:N0|mc:9911|mtp:G|qry_typ:P|lang:en|wc:2|cs:7475|v=4,False,Wadgaon Sheri,Pune,"Ground Floor , S NO. 12/1A, Adarsh Nagar, Kalyani Nagar Road , OPP. ST. Arnolds Central School Wadgaon Sheri, Wadgaon Sheri, Pune - 411014, Dist.Pune, Maharashtra",7942704607,
Pink Rayon Maternity Kurti,https://www.indiamart.com/proddetail/pink-rayon-maternity-kurti-2854350364855.html?pos=72&kwd=maternity clothing&tags=BA||||8601.347|Price|product|||MDC|rsf:gd-|-qr_nm:gd|res:RC3|com-cf:nl|ptrs:na|ktp:N0|mc:9911|mtp:G|qry_typ:P|lang:en|wc:2|cs:7475|v=4,Glorious Fashion,https://www.indiamart.com/gloriousfashionjaipur/?pos=72&kwd=maternity clothing&tags=BA||||8601.347|Price|product|||MDC|rsf:gd-|-qr_nm:gd|res:RC3|com-cf:nl|ptrs:na|ktp:N0|mc:9911|mtp:G|qry_typ:P|lang:en|wc:2|cs:7475|v=4,False,,Jaipur,"Plot No 6, CHA 47 Sector, 6 Jawahar Nagar, Jaipur - 302004, Dist.Jaipur, Rajasthan",8045729671,
Women Cotton Printed Maternity & Feeding Top & Pyjama Set,https://www.indiamart.com/proddetail/women-cotton-printed-maternity-feeding-top-pyjama-set-2851015850697.html?pos=73&kwd=maternity clothing&tags=BA||||8211.142|Price|product|||MDC|rsf:gd-|-qr_nm:gd|res:RC3|com-cf:nl|ptrs:na|ktp:N0|mc:9911|mtp:G|qry_typ:P|lang:en|wc:2|cs:7475|v=4,Sarvodaya,https://www.indiamart.com/sarvodayamumbai/?pos=73&kwd=maternity clothing&tags=BA||||8211.142|Price|product|||MDC|rsf:gd-|-qr_nm:gd|res:RC3|com-cf:nl|ptrs:na|ktp:N0|mc:9911|mtp:G|qry_typ:P|lang:en|wc:2|cs:7475|v=4,False,Kandivali West,Mumbai,"305, Shree Nikunj Bldg. No. 2, Off. S. V. Road, Mumbai Suburban, Kandivali West, Mumbai - 400067, Dist.Mumbai, Maharashtra",7942793851,
"Rayon Printed Maternity Feeding Gown, Three fourth sleeve",https://www.indiamart.com/proddetail/rayon-printed-maternity-feeding-gown-21030779530.html?pos=74&kwd=maternity clothing&tags=BA||||8601.347|Price|product|||MDC|rsf:gd-|-qr_nm:gd|res:RC3|com-cf:nl|ptrs:na|ktp:N0|mc:9911|mtp:G|qry_typ:P|lang:en|wc:2|cs:7475|v=4,Shivam Enterprises,https://www.indiamart.com/shivamenterprisesrampur/?pos=74&kwd=maternity clothing&tags=BA||||8601.347|Price|product|||MDC|rsf:gd-|-qr_nm:gd|res:RC3|com-cf:nl|ptrs:na|ktp:N0|mc:9911|mtp:G|qry_typ:P|lang:en|wc:2|cs:7475|v=4,False,Mansarovar,Jaipur,"Polt No 1 ,Pratap Vihar ,Rampura Road ,Sanganer, Mansarovar, Jaipur - 302029, Dist.Jaipur, Rajasthan",7949226911,
Women's Maternity/Feeding Kurti PG,https://www.indiamart.com/proddetail/women-s-maternity-feeding-kurti-pg-2853043343733.html?pos=75&kwd=maternity clothing&tags=BA||||8601.347|Price|product|||MDC|rsf:gd-|-qr_nm:gd|res:RC3|com-cf:nl|ptrs:na|ktp:N0|mc:9911|mtp:G|qry_typ:P|lang:en|wc:2|cs:7475|v=4,Silak Fashion Hub,https://www.indiamart.com/silak-fashion-hub/?pos=75&kwd=maternity clothing&tags=BA||||8601.347|Price|product|||MDC|rsf:gd-|-qr_nm:gd|res:RC3|com-cf:nl|ptrs:na|ktp:N0|mc:9911|mtp:G|qry_typ:P|lang:en|wc:2|cs:7475|v=4,False,Kundan Nagar,Jaipur,"64/361, Sector 6, RHB Pratap Nagar, Sanganer,, Kundan Nagar, Jaipur - 302033, Dist.Jaipur, Rajasthan",7942720255,
"Pregnant Dress, Sleeves: Half",https://www.indiamart.com/proddetail/pregnant-dress-24409924397.html?pos=76&kwd=maternity clothing&tags=BA||||9632.272|Price|product|||MDC|rsf:gd-|-qr_nm:gd|res:RC3|com-cf:nl|ptrs:na|ktp:N0|mc:9911|mtp:G|qry_typ:P|lang:en|wc:2|cs:7475|v=4,Jyoti Chandra,https://www.indiamart.com/jyotichandra/?pos=76&kwd=maternity clothing&tags=BA||||9632.272|Price|product|||MDC|rsf:gd-|-qr_nm:gd|res:RC3|com-cf:nl|ptrs:na|ktp:N0|mc:9911|mtp:G|qry_typ:P|lang:en|wc:2|cs:7475|v=4,False,Barganda,Giridih,"New Barganda Fup Prakash, Barganda, Giridih - 815301, Dist.Giridh, Jharkhand",8046047136,
Ladies Maternity Gown,https://www.indiamart.com/proddetail/ladies-maternity-gown-2849177792233.html?pos=77&kwd=maternity clothing&tags=BA||||8601.347|Price|product|||MDC|rsf:gd-|-qr_nm:gd|res:RC3|com-cf:nl|ptrs:na|ktp:N0|mc:9911|mtp:G|qry_typ:P|lang:en|wc:2|cs:7475|v=4,Nihaan Impex,https://www.indiamart.com/nihaanimpex-jaipur/?pos=77&kwd=maternity clothing&tags=BA||||8601.347|Price|product|||MDC|rsf:gd-|-qr_nm:gd|res:RC3|com-cf:nl|ptrs:na|ktp:N0|mc:9911|mtp:G|qry_typ:P|lang:en|wc:2|cs:7475|v=4,False,Pratap Nagar,Jaipur,"28, Raghunath Puri, Khokha Bass, Sanganer, Pratap Nagar, Jaipur - 302011, Dist.Jaipur, Rajasthan",8047551915,
Maternity gown on rental,https://www.indiamart.com/proddetail/maternity-gown-on-rental-26265013148.html?pos=78&kwd=maternity clothing&tags=BA||||8228.275|Price|product|||TS|rsf:gd-|-qr_nm:gd|res:RC3|com-cf:nl|ptrs:na|ktp:N0|mc:9911|mtp:G|qry_typ:P|lang:en|wc:2|cs:7475|v=4,Kashmira Communication,https://www.indiamart.com/kashmiracommunication/?pos=78&kwd=maternity clothing&tags=BA||||8228.275|Price|product|||TS|rsf:gd-|-qr_nm:gd|res:RC3|com-cf:nl|ptrs:na|ktp:N0|mc:9911|mtp:G|qry_typ:P|lang:en|wc:2|cs:7475|v=4,False,Isanpur,Ahmedabad,"21 Near Rajeshwari Soc Vishwasnagar Society Isanpur Jawahar Chowk, Isanpur, Ahmedabad - 382443, Dist.Ahmedabad, Gujarat",7942551704,
Casual Women''s Maternity Feeding Gown,https://www.indiamart.com/proddetail/women-s-maternity-feeding-gown-22456151730.html?pos=79&kwd=maternity clothing&tags=BA||||8876.815|Price|product|||TS|rsf:gd-|-qr_nm:gd|res:RC3|com-cf:nl|ptrs:na|ktp:N0|mc:9911|mtp:G|qry_typ:P|lang:en|wc:2|cs:7475|v=4,Sakar Fair Trade Incorporated,https://www.indiamart.com/sakarfair-trade-incorporated/?pos=79&kwd=maternity clothing&tags=BA||||8876.815|Price|product|||TS|rsf:gd-|-qr_nm:gd|res:RC3|com-cf:nl|ptrs:na|ktp:N0|mc:9911|mtp:G|qry_typ:P|lang:en|wc:2|cs:7475|v=4,False,Wadi,Nagpur,"Ground floor, Shop No. 22, 8A, Laxmi Vaibhav, Laxmi Nagar Chowk, Wadi, Nagpur - 440010, Dist.Nagpur, Maharashtra",7942541012,
"Maternity Feeding Kurti, Sleeves: Ankel",https://www.indiamart.com/proddetail/maternity-feeding-kurti-2850385612697.html?pos=80&kwd=maternity clothing&tags=BA||||8601.347|Price|product|||TS|rsf:gd-|-qr_nm:gd|res:RC3|com-cf:nl|ptrs:na|ktp:N0|mc:9911|mtp:G|qry_typ:P|lang:en|wc:2|cs:7475|v=4,Kartavya,https://www.kurtisupplier.com/?pos=80&kwd=maternity clothing&tags=BA||||8601.347|Price|product|||TS|rsf:gd-|-qr_nm:gd|res:RC3|com-cf:nl|ptrs:na|ktp:N0|mc:9911|mtp:G|qry_typ:P|lang:en|wc:2|cs:7475|v=4,False,Sanganer,Jaipur,"15, Adarsh Basti, Market Road, Sanganer, Jaipur - 302015, Dist.Jaipur, Rajasthan",8043858523,
"Maternity Feeding Kurti, Size: Free",https://www.indiamart.com/proddetail/maternity-feeding-kurti-2853636195148.html?pos=81&kwd=maternity clothing&tags=BA||||8230.883|Price|product|||TS|rsf:gd-|-qr_nm:gd|res:RC3|com-cf:nl|ptrs:na|ktp:N0|mc:9911|mtp:G|qry_typ:P|lang:en|wc:2|cs:7475|v=4,7 Season's,https://www.indiamart.com/7-seasons/?pos=81&kwd=maternity clothing&tags=BA||||8230.883|Price|product|||TS|rsf:gd-|-qr_nm:gd|res:RC3|com-cf:nl|ptrs:na|ktp:N0|mc:9911|mtp:G|qry_typ:P|lang:en|wc:2|cs:7475|v=4,False,Parvat Patiya,Surat,"2nd Floor, Sudarshan Complex, Above Dhiraj Sons, Parvat Patiya, Surat - 395010, Dist.Surat, Gujarat",8048974394,
"Cotton Katha Fabric, Buttas",https://www.indiamart.com/proddetail/cotton-katha-fabric-2851781965297.html?pos=82&kwd=maternity clothing&tags=BA||||8601.347|Price|product|||TS|rsf:gd-|-qr_nm:gd|res:RC3|com-cf:nl|ptrs:na|ktp:N0|mc:9911|mtp:G|qry_typ:P|lang:en|wc:2|cs:7475|v=4,C K Creation,https://www.indiamart.com/c-k-creation-jaipur/?pos=82&kwd=maternity clothing&tags=BA||||8601.347|Price|product|||TS|rsf:gd-|-qr_nm:gd|res:RC3|com-cf:nl|ptrs:na|ktp:N0|mc:9911|mtp:G|qry_typ:P|lang:en|wc:2|cs:7475|v=4,False,Bambala,Jaipur,"1-A, Rani Ka Talab, Malpura Gate Ke Paas,, Bambala, Jaipur - 302029, Dist.Jaipur, Rajasthan",7942841456,
"Cotton Printed Maternity And Nursing Nighty, Blue",https://www.indiamart.com/proddetail/maternity-and-nursing-nighty-22007524012.html?pos=83&kwd=maternity clothing&tags=BA||||8601.347|Price|product|||TS|rsf:gd-|-qr_nm:gd|res:RC3|com-cf:nl|ptrs:na|ktp:N0|mc:9911|mtp:G|qry_typ:P|lang:en|wc:2|cs:7475|v=4,Mudrika Fashions (A Brand of Silver Organisation),https://www.indiamart.com/silverorganisation/?pos=83&kwd=maternity clothing&tags=BA||||8601.347|Price|product|||TS|rsf:gd-|-qr_nm:gd|res:RC3|com-cf:nl|ptrs:na|ktp:N0|mc:9911|mtp:G|qry_typ:P|lang:en|wc:2|cs:7475|v=4,False,Luniawas,Jaipur,"A-1, Kanji Nagar, Luniawas, Jaipur - 302031, Dist.Jaipur, Rajasthan",8046042577,
"Cotton Regular Mother Feeding Kurtis, Wash Care: Handwash",https://www.indiamart.com/proddetail/mother-feeding-kurtis-23510858491.html?pos=84&kwd=maternity clothing&tags=BB||||8230.883|Price|product|||TS|rsf:gd-|-qr_nm:gd|res:RC3|com-cf:nl|ptrs:na|ktp:N0|mc:9911|mtp:G|qry_typ:P|lang:en|wc:2|cs:7475|v=4,JK Enterprise,https://www.indiamart.com/jkenterprise-gujrat/?pos=84&kwd=maternity clothing&tags=BB||||8230.883|Price|product|||TS|rsf:gd-|-qr_nm:gd|res:RC3|com-cf:nl|ptrs:na|ktp:N0|mc:9911|mtp:G|qry_typ:P|lang:en|wc:2|cs:7475|v=4,False,Katargam,Surat,"123 JKP nagar near dhanmora, Katargam, Surat - 395004, Dist.Surat, Gujarat",8048979293,
"Stitched Plain Patient Maternity Gown, Machine wash, Size: Medium",https://www.indiamart.com/proddetail/patient-maternity-gown-2852487655430.html?pos=85&kwd=maternity clothing&tags=BA||||9189.305|Price|product|||TS|rsf:gd-|-qr_nm:gd|res:RC3|com-cf:nl|ptrs:na|ktp:N0|mc:9911|mtp:G|qry_typ:P|lang:en|wc:2|cs:7475|v=4,Shivangi House Of Commercial Clothing,https://www.indiamart.com/shivangihouseofcommercial-clothing/?pos=85&kwd=maternity clothing&tags=BA||||9189.305|Price|product|||TS|rsf:gd-|-qr_nm:gd|res:RC3|com-cf:nl|ptrs:na|ktp:N0|mc:9911|mtp:G|qry_typ:P|lang:en|wc:2|cs:7475|v=4,False,Chahchand,Prayagraj,"15, Chak Zero Road, Chahchand, Chahchand, Prayagraj - 211003, Dist.Allahabad, Uttar Pradesh",7942714276,
Feeding Gown,https://www.indiamart.com/proddetail/feeding-gown-2854896778962.html?pos=86&kwd=maternity clothing&tags=B||||8601.347|Price|product|||MDC|rsf:gd-|-qr_nm:gd|res:RC3|com-cf:nl|ptrs:na|ktp:N0|mc:9911|mtp:G|qry_typ:P|lang:en|wc:2|cs:7475|v=4,Chopra Textiles,https://www.indiamart.com/chopra-textiles-jaipur/?pos=86&kwd=maternity clothing&tags=B||||8601.347|Price|product|||MDC|rsf:gd-|-qr_nm:gd|res:RC3|com-cf:nl|ptrs:na|ktp:N0|mc:9911|mtp:G|qry_typ:P|lang:en|wc:2|cs:7475|v=4,False,,Jaipur,"1, Opp. Triveni Gas Godam, Jaipur Ring Road, Indane Gas Agency, Village Kherigokulpura, Jaipur - 303905, Dist.Jaipur, Rajasthan",7949327483,
M And XL Casual Ladies Plain Top,https://www.indiamart.com/proddetail/ladies-plain-top-20279765997.html?pos=87&kwd=maternity clothing&tags=BB||||8663.873|Price|product|||TS|rsf:gd-|-qr_nm:gd|res:RC3|com-cf:nl|ptrs:na|ktp:N0|mc:9911|mtp:G|qry_typ:P|lang:en|wc:2|cs:7475|v=4,Sk Ventures,https://www.indiamart.com/skventures/?pos=87&kwd=maternity clothing&tags=BB||||8663.873|Price|product|||TS|rsf:gd-|-qr_nm:gd|res:RC3|com-cf:nl|ptrs:na|ktp:N0|mc:9911|mtp:G|qry_typ:P|lang:en|wc:2|cs:7475|v=4,False,Bommanahalli,Bengaluru,"No. 17, 2nd Floor, 1st Cross, Begur Main Road, 1st Lane, Bommanahalli, Bengaluru - 560068, Dist.Bengaluru, Karnataka",8048980333,
Ladies Crepe White Printed Maternity Kurti,https://www.indiamart.com/proddetail/ladies-crepe-white-printed-maternity-kurti-26890974588.html?pos=88&kwd=maternity clothing&tags=BB||||8786.56|Price|product|||TS|rsf:gd-|-qr_nm:gd|res:RC3|com-cf:nl|ptrs:na|ktp:N0|mc:9911|mtp:G|qry_typ:P|lang:en|wc:2|cs:7475|v=4,M/S Vquality Products,https://www.indiamart.com/vquality-products/?pos=88&kwd=maternity clothing&tags=BB||||8786.56|Price|product|||TS|rsf:gd-|-qr_nm:gd|res:RC3|com-cf:nl|ptrs:na|ktp:N0|mc:9911|mtp:G|qry_typ:P|lang:en|wc:2|cs:7475|v=4,False,Kukatpally Bhagat Singh Nagar,Hyderabad,"Plot no 422, Flot No 202, Bhagath Singh Nagar Phase-1,KPHB, Kukatpally Bhagat Singh Nagar, Hyderabad - 500085, Dist.Hyderabad, Telangana",8043894114,
Ladies Breastfeeding Maternity Nursing Top,https://www.indiamart.com/proddetail/ladies-breastfeeding-maternity-nursing-top-2852784289991.html?pos=89&kwd=maternity clothing&tags=BA||||8223.226|Price|product|||TS|rsf:gd-|-qr_nm:gd|res:RC3|com-cf:nl|ptrs:na|ktp:N0|mc:9911|mtp:G|qry_typ:P|lang:en|wc:2|cs:7475|v=4,M/S Beauty Fashion Textile,https://www.indiamart.com/ms-beauty-fashion-textile/?pos=89&kwd=maternity clothing&tags=BA||||8223.226|Price|product|||TS|rsf:gd-|-qr_nm:gd|res:RC3|com-cf:nl|ptrs:na|ktp:N0|mc:9911|mtp:G|qry_typ:P|lang:en|wc:2|cs:7475|v=4,False,Thane West,Thane,"Gala C/216, 2nd Floor, Paresh Complex, Pipeline Naka, Kalher, Thane West, Thane - 421302, Dist.Thane, Maharashtra",8047634233,
Maternity Support Belt,https://www.indiamart.com/proddetail/maternity-support-belt-2854600414055.html?pos=90&kwd=maternity clothing&tags=BB||||9520.041|Price|product|||TS|rsf:gd-|-qr_nm:gd|res:RC3|com-cf:nl|ptrs:na|ktp:N0|mc:9911|mtp:G|qry_typ:P|lang:en|wc:2|cs:7475|v=4,Nidat Health Private Limited,https://www.indiamart.com/nidathealth/?pos=90&kwd=maternity clothing&tags=BB||||9520.041|Price|product|||TS|rsf:gd-|-qr_nm:gd|res:RC3|com-cf:nl|ptrs:na|ktp:N0|mc:9911|mtp:G|qry_typ:P|lang:en|wc:2|cs:7475|v=4,False,Lohia Nagar,Patna,"A/228, 1ST Floor West, P C Colony, Modern Hospital, Lohia Nagar, Patna - 800020, Dist.Patna, Bihar",7942870212,
"Ladies Pure Cotton Printed Maternity Nightgowns, Blue(Base)",https://www.indiamart.com/proddetail/ladies-pure-cotton-printed-maternity-nightgowns-2854047965691.html?pos=91&kwd=maternity clothing&tags=BA||||8601.347|Price|product|||TS|rsf:gd-|-qr_nm:gd|res:RC3|com-cf:nl|ptrs:na|ktp:N0|mc:9911|mtp:G|qry_typ:P|lang:en|wc:2|cs:7475|v=4,Rushi Creation,https://www.indiamart.com/rushicreationjaipur/?pos=91&kwd=maternity clothing&tags=BA||||8601.347|Price|product|||TS|rsf:gd-|-qr_nm:gd|res:RC3|com-cf:nl|ptrs:na|ktp:N0|mc:9911|mtp:G|qry_typ:P|lang:en|wc:2|cs:7475|v=4,False,Sanganer,Jaipur,"Showroom No.G-24,Ground Floor,Fagna Plaza,Nagar Nigam Road,Jaipur, Sanganer, Jaipur - 302029, Dist.Jaipur, Rajasthan",8044562714,
MS Delivery Bed,https://www.indiamart.com/proddetail/ms-delivery-bed-2849523417773.html?pos=92&kwd=maternity clothing&tags=BA||||8752.144|Price|product|||TS|rsf:gd-|-qr_nm:gd|res:RC3|com-cf:nl|ptrs:na|ktp:N0|mc:9911|mtp:G|qry_typ:P|lang:en|wc:2|cs:7475|v=4,Safex Inc,https://www.safexinc.in/?pos=92&kwd=maternity clothing&tags=BA||||8752.144|Price|product|||TS|rsf:gd-|-qr_nm:gd|res:RC3|com-cf:nl|ptrs:na|ktp:N0|mc:9911|mtp:G|qry_typ:P|lang:en|wc:2|cs:7475|v=4,False,Kamla Nagar,New Delhi,"Shop No-30, Ground Floor, Mata Mandir Chowk, Roshanara Road, Roshanara Road, New Delhi, Kamla Nagar, New Delhi - 110007, Dist.Delhi, Delhi",8048962932,
"Three fourth sleeve Maternity Feeding Kurti, Size: L",https://www.indiamart.com/proddetail/ladies-grey-maternity-feeding-gown-2852706585455.html?pos=93&kwd=maternity clothing&tags=BA||||8601.347|Price|product|||MDC|rsf:gd-|-qr_nm:gd|res:RC3|com-cf:nl|ptrs:na|ktp:N0|mc:9911|mtp:G|qry_typ:P|lang:en|wc:2|cs:7475|v=4,Dazzle Hub,https://www.indiamart.com/dazzlehub/?pos=93&kwd=maternity clothing&tags=BA||||8601.347|Price|product|||MDC|rsf:gd-|-qr_nm:gd|res:RC3|com-cf:nl|ptrs:na|ktp:N0|mc:9911|mtp:G|qry_typ:P|lang:en|wc:2|cs:7475|v=4,False,Pratap Nagar,Jaipur,"Basement Floor, 86/SP-89, Kumbha Marg, Pratap Nagar, Sanganer, Pratap Nagar, Jaipur - 302033, Dist.Jaipur, Rajasthan",8048611932,
"JAF Feeding Printed Green Gown, Three fourth sleeve",https://www.indiamart.com/proddetail/jaf-feeding-printed-green-gown-2852582515912.html?pos=94&kwd=maternity clothing&tags=BA||||8601.347|Price|product|||MDC|rsf:gd-|-qr_nm:gd|res:RC3|com-cf:nl|ptrs:na|ktp:N0|mc:9911|mtp:G|qry_typ:P|lang:en|wc:2|cs:7475|v=4,Jai Ambay Fashion,https://www.indiamart.com/jai-ambay-fashion/?pos=94&kwd=maternity clothing&tags=BA||||8601.347|Price|product|||MDC|rsf:gd-|-qr_nm:gd|res:RC3|com-cf:nl|ptrs:na|ktp:N0|mc:9911|mtp:G|qry_typ:P|lang:en|wc:2|cs:7475|v=4,False,Sanganer,Jaipur,"Bawdi Ka Bas Kunjaro Ki Dhani, Sanganer, Jaipur - 302029, Dist.Jaipur, Rajasthan",7942715038,
Maternity Wear,https://www.indiamart.com/proddetail/maternity-wear-2854863620730.html?pos=95&kwd=maternity clothing&tags=A||||8626.744|Price|product|||NA|rsf:gd-|-qr_nm:gd|res:RC3|com-cf:nl|ptrs:na|ktp:N0|mc:9911|mtp:G|qry_typ:P|lang:en|wc:2|cs:7475|v=4,Pechiamman Fabs,https://www.indiamart.com/pechiamman-fabs/?pos=95&kwd=maternity clothing&tags=A||||8626.744|Price|product|||NA|rsf:gd-|-qr_nm:gd|res:RC3|com-cf:nl|ptrs:na|ktp:N0|mc:9911|mtp:G|qry_typ:P|lang:en|wc:2|cs:7475|v=4,False,T.N.K Puram,Tiruppur,"2/2, T.N.K Puram, Madhya Veedhi, Government Middle School, Thiru Neelakanda Puram, T.N.K Puram, Tiruppur - 641607, Dist.Coimbatore, Tamil Nadu",7942965923,
Women Printed Maternity Dress,https://www.indiamart.com/proddetail/women-printed-maternity-dress-2851501778391.html?pos=96&kwd=maternity clothing&tags=A||||8778.123|Price|product|||NA|rsf:gd-|-qr_nm:gd|res:RC3|com-cf:nl|ptrs:na|ktp:N0|mc:9911|mtp:G|qry_typ:P|lang:en|wc:2|cs:7475|v=4,Angloindu Fashion Private Limited,https://www.indiamart.com/angloindufashion/?pos=96&kwd=maternity clothing&tags=A||||8778.123|Price|product|||NA|rsf:gd-|-qr_nm:gd|res:RC3|com-cf:nl|ptrs:na|ktp:N0|mc:9911|mtp:G|qry_typ:P|lang:en|wc:2|cs:7475|v=4,False,,Noida,"Ground Floor F-69 Sector-41, Noida - 201303, Dist.Gautam Budh Nagar, Uttar Pradesh",7942830126,
picha Maternity Gown,https://www.indiamart.com/proddetail/picha-maternity-gown-2854784143491.html?pos=97&kwd=maternity clothing&tags=A||||8601.347|Price|product|||NA|rsf:gd-|-qr_nm:gd|res:RC3|com-cf:nl|ptrs:na|ktp:N0|mc:9911|mtp:G|qry_typ:P|lang:en|wc:2|cs:7475|v=4,Garima Fashion,https://www.indiamart.com/garimafashionjaipur/?pos=97&kwd=maternity clothing&tags=A||||8601.347|Price|product|||NA|rsf:gd-|-qr_nm:gd|res:RC3|com-cf:nl|ptrs:na|ktp:N0|mc:9911|mtp:G|qry_typ:P|lang:en|wc:2|cs:7475|v=4,False,,Jaipur,"93, Panchwati Colony, Block E, Kanwar Ka Baag, Sanganer Bazar, Sanganer, Jaipur - 302029, Dist.Jaipur, Rajasthan",8045734075,
Ladies Printed Maternity Kurti,https://www.indiamart.com/proddetail/ladies-printed-maternity-kurti-2851763992612.html?pos=98&kwd=maternity clothing&tags=BA||||8601.347|Price|product|||NA|rsf:gd-|-qr_nm:gd|res:RC3|com-cf:nl|ptrs:na|ktp:N0|mc:9911|mtp:G|qry_typ:P|lang:en|wc:2|cs:7475|v=4,Pacific Overseas,https://www.indiamart.com/pacific-overseas-jaipur/?pos=98&kwd=maternity clothing&tags=BA||||8601.347|Price|product|||NA|rsf:gd-|-qr_nm:gd|res:RC3|com-cf:nl|ptrs:na|ktp:N0|mc:9911|mtp:G|qry_typ:P|lang:en|wc:2|cs:7475|v=4,False,,Jaipur,"Plot No 154 Sanganer Dada Gurudev Nagar, Jaipur - 302029, Dist.Jaipur, Rajasthan",7942803814,
Maternity Feeding Kurti,https://www.indiamart.com/proddetail/maternity-feeding-kurti-2850319206355.html?pos=99&kwd=maternity clothing&tags=A||||8954.051|Price|product|||NA|rsf:gd-|-qr_nm:gd|res:RC3|com-cf:nl|ptrs:na|ktp:N0|mc:9911|mtp:G|qry_typ:P|lang:en|wc:2|cs:7475|v=4,Aryan Creations,https://www.indiamart.com/aryancreationstamilnadu/?pos=99&kwd=maternity clothing&tags=A||||8954.051|Price|product|||NA|rsf:gd-|-qr_nm:gd|res:RC3|com-cf:nl|ptrs:na|ktp:N0|mc:9911|mtp:G|qry_typ:P|lang:en|wc:2|cs:7475|v=4,False,,Chennai,"88 1st Floor Maniss Arcade, M.C.Road Oldwashermenpet, Chennai - 600021, Dist.Chennai, Tamil Nadu",7942796481,
Maternity Clothing,,Ziyah Creations,https://www.indiamart.com/ziyah-creations/?pos=100&kwd=maternity clothing&tags=BA||||8954.051|Price|product|||NA|rsf:gd-|-qr_nm:gd|res:RC3|com-cf:nl|ptrs:na|ktp:N0|mc:9911|mtp:G|qry_typ:P|lang:en|wc:2|cs:7475|v=4,False,,Chennai,", Chennai - 600058, Dist.Chennai, Tamil Nadu",8047311026,9409
Maternity Clothing,https://www.indiamart.com/proddetail/maternity-clothing-2854289156091.html?pos=101&kwd=maternity clothing&tags=BB||||8550.327|Price|product|||NA|rsf:gd-|-qr_nm:gd|res:RC3|com-cf:nl|ptrs:na|ktp:N0|mc:9911|mtp:G|qry_typ:P|lang:en|wc:2|cs:7475|v=4,Clevergirl Enterprises,https://www.indiamart.com/clevergirl-enterprises/?pos=101&kwd=maternity clothing&tags=BB||||8550.327|Price|product|||NA|rsf:gd-|-qr_nm:gd|res:RC3|com-cf:nl|ptrs:na|ktp:N0|mc:9911|mtp:G|qry_typ:P|lang:en|wc:2|cs:7475|v=4,False,,Palakkad,"9/497,,Koduvayur Trippalur Road,Koduvayur 678501, Palakkad - 678501, Dist.Palakkad, Kerala",8048370721,2476
Maternity Kurtis,https://www.indiamart.com/proddetail/maternity-kurtis-2853286346448.html?pos=102&kwd=maternity clothing&tags=BA||||8663.873|Price|product|||NA|rsf:gd-|-qr_nm:gd|res:RC3|com-cf:nl|ptrs:na|ktp:N0|mc:9911|mtp:G|qry_typ:P|lang:en|wc:2|cs:7475|v=4,Vipasa Enterprises,https://www.indiamart.com/pavisa-womens-wear/?pos=102&kwd=maternity clothing&tags=BA||||8663.873|Price|product|||NA|rsf:gd-|-qr_nm:gd|res:RC3|com-cf:nl|ptrs:na|ktp:N0|mc:9911|mtp:G|qry_typ:P|lang:en|wc:2|cs:7475|v=4,False,,Bengaluru,"FLAT NO.201,VIRAT,NO 2AC-720, VIRAT, 2 A CROSS, HRBR LAYOUT 1ST BLOCK,BENGALURU D 313, Cumins Estates Genesis, 2nd main road, Jayanthi Nagar Extn,560043, Bengaluru - 560043, Dist.Bengaluru, Karnataka",8048262772,927
Maternity Kurtis,https://www.indiamart.com/proddetail/maternity-kurtis-2852927077248.html?pos=103&kwd=maternity clothing&tags=BA||||8553.468|Price|product|||NA|rsf:gd-|-qr_nm:gd|res:RC3|com-cf:nl|ptrs:na|ktp:N0|mc:9911|mtp:G|qry_typ:P|lang:en|wc:2|cs:7475|v=4,Manu Garments,https://www.indiamart.com/manu-garments-thodupuzha/?pos=103&kwd=maternity clothing&tags=BA||||8553.468|Price|product|||NA|rsf:gd-|-qr_nm:gd|res:RC3|com-cf:nl|ptrs:na|ktp:N0|mc:9911|mtp:G|qry_typ:P|lang:en|wc:2|cs:7475|v=4,False,,Thodupuzha,"Viii/169a,169b Ezhumuttom, Thodupuzha - 685605, Dist.Idukki, Kerala",8048371764,228
Ladies Printed Maternity Kurti,https://www.indiamart.com/proddetail/ladies-printed-maternity-kurti-2853046554755.html?pos=104&kwd=maternity clothing&tags=BA||||8584.299|Price|product|||NA|rsf:gd-|-qr_nm:gd|res:RC3|com-cf:nl|ptrs:na|ktp:N0|mc:9911|mtp:G|qry_typ:P|lang:en|wc:2|cs:7475|v=4,Thought Process,https://www.indiamart.com/thoughtprocess-coimbatore/?pos=104&kwd=maternity clothing&tags=BA||||8584.299|Price|product|||NA|rsf:gd-|-qr_nm:gd|res:RC3|com-cf:nl|ptrs:na|ktp:N0|mc:9911|mtp:G|qry_typ:P|lang:en|wc:2|cs:7475|v=4,False,,Coimbatore,"1A Kasthuribai 4th Street Ganapathy, Coimbatore - 641006, Dist.Coimbatore, Tamil Nadu",7942968443,
Women peach cotton Maternity Feeding kurti,https://www.indiamart.com/proddetail/women-peach-cotton-maternity-feeding-kurti-2850542135791.html?pos=105&kwd=maternity clothing&tags=BA||||8601.347|Price|product|||NA|rsf:gd-|-qr_nm:gd|res:RC3|com-cf:nl|ptrs:na|ktp:N0|mc:9911|mtp:G|qry_typ:P|lang:en|wc:2|cs:7475|v=4,Guru Kripa Garments,https://www.indiamart.com/gurukripagarmentsjaipur/?pos=105&kwd=maternity clothing&tags=BA||||8601.347|Price|product|||NA|rsf:gd-|-qr_nm:gd|res:RC3|com-cf:nl|ptrs:na|ktp:N0|mc:9911|mtp:G|qry_typ:P|lang:en|wc:2|cs:7475|v=4,False,Shikarpura,Jaipur,"Plot No-L- 56 B - Block, J D A Colony, Govindpura Sanganer, Shikarpura, Jaipur - 302029, Dist.Jaipur, Rajasthan",8048987470,
"Printed Cotton Ladies Maternity Night Dress, Full Sleeve, Blue And Grey",https://www.indiamart.com/proddetail/ladies-maternity-night-dress-2850114822362.html?pos=106&kwd=maternity clothing&tags=BA||||8228.275|Price|product|||NA|rsf:gd-|-qr_nm:gd|res:RC3|com-cf:nl|ptrs:na|ktp:N0|mc:9911|mtp:G|qry_typ:P|lang:en|wc:2|cs:7475|v=4,K Bela Creation,https://www.indiamart.com/k-bela-creation/?pos=106&kwd=maternity clothing&tags=BA||||8228.275|Price|product|||NA|rsf:gd-|-qr_nm:gd|res:RC3|com-cf:nl|ptrs:na|ktp:N0|mc:9911|mtp:G|qry_typ:P|lang:en|wc:2|cs:7475|v=4,False,,Ahmedabad,"121/122 vivekanand garments park shavadi Narol gaam Ahmedabad, Ahmedabad - 380001, Dist.Ahmedabad, Gujarat",7942803999,
"Maternity wear clothing Feeding Kurtis, 180",https://www.indiamart.com/proddetail/maternity-wear-clothing-feeding-kurtis-22998203488.html?pos=107&kwd=maternity clothing&tags=BB||||8901.821|Price|product|||NA|rsf:gd-|-qr_nm:gd|res:RC3|com-cf:nl|ptrs:na|ktp:N0|mc:9911|mtp:G|qry_typ:P|lang:en|wc:2|cs:7475|v=4,Azure Sapphire Global Solutions,https://www.indiamart.com/azure-sapphire-global-solutions/?pos=107&kwd=maternity clothing&tags=BB||||8901.821|Price|product|||NA|rsf:gd-|-qr_nm:gd|res:RC3|com-cf:nl|ptrs:na|ktp:N0|mc:9911|mtp:G|qry_typ:P|lang:en|wc:2|cs:7475|v=4,False,,Kotdwara,"Teen Universe, Kotdwara - 246149, Dist.Pauri Garhwal, Uttarakhand",8048361381,649
Maternity Photoshoot Dresses,https://www.indiamart.com/proddetail/maternity-photoshoot-dresses-2854723417062.html?pos=108&kwd=maternity clothing&tags=BB||||9045.955|Price|product|||NA|rsf:gd-|-qr_nm:gd|res:RC3|com-cf:nl|ptrs:na|ktp:N0|mc:9911|mtp:G|qry_typ:P|lang:en|wc:2|cs:7475|v=4,Wedress Fashion Private Limited,https://www.indiamart.com/company/188020363/?pos=108&kwd=maternity clothing&tags=BB||||9045.955|Price|product|||NA|rsf:gd-|-qr_nm:gd|res:RC3|com-cf:nl|ptrs:na|ktp:N0|mc:9911|mtp:G|qry_typ:P|lang:en|wc:2|cs:7475|v=4,False,,Kanpur,"Shop No 05 Ppn Market Gopala Chambers, Kanpur - 208001, Uttar Pradesh",8048249781,2516
"Green Ankle Length Maternity And Feeding Gown, Size: L,XL",https://www.indiamart.com/proddetail/green-ankle-length-maternity-and-feeding-gown-22933005330.html?pos=109&kwd=maternity clothing&tags=BB||||8211.142|Price|product|||NA|rsf:gd-|-qr_nm:gd|res:RC3|com-cf:nl|ptrs:na|ktp:N0|mc:9911|mtp:G|qry_typ:P|lang:en|wc:2|cs:7475|v=4,Govardhan Enterprise,https://www.indiamart.com/goverdhan-enterprise-mumbai/?pos=109&kwd=maternity clothing&tags=BB||||8211.142|Price|product|||NA|rsf:gd-|-qr_nm:gd|res:RC3|com-cf:nl|ptrs:na|ktp:N0|mc:9911|mtp:G|qry_typ:P|lang:en|wc:2|cs:7475|v=4,False,,Mumbai,"4, New Panchganga Vistapit Society, Slum Colony, Pantnagar Ghatkopar East, Mumbai - 400075, Dist.Mumbai, Maharashtra",8048372478,311
"Front Zipper Maternity Dress, Size: XL",https://www.indiamart.com/proddetail/front-zipper-maternity-dress-25469629373.html?pos=110&kwd=maternity clothing&tags=BB||||8601.347||product|||NA|rsf:gd-|-qr_nm:gd|res:RC3|com-cf:nl|ptrs:na|ktp:N0|mc:9911|mtp:G|qry_typ:P|lang:en|wc:2|cs:7475|v=4,Onio E-Commerce Private Limited,https://www.indiamart.com/onio-ecommerce-private-limited-12977037/?pos=110&kwd=maternity clothing&tags=BB||||8601.347||product|||NA|rsf:gd-|-qr_nm:gd|res:RC3|com-cf:nl|ptrs:na|ktp:N0|mc:9911|mtp:G|qry_typ:P|lang:en|wc:2|cs:7475|v=4,False,,Jaipur,"B-109, IST FLOOR, OKAY PLUS VENUS BLOCK B, P NO S-19, CENT. SPINE JAGATPURA, Jaipur - 302017, Dist.Jaipur, Rajasthan",8047304217,
"Maroon(Base) Ladies Printed Cotton Maternity Kurti, Size: Medium",https://www.indiamart.com/proddetail/ladies-printed-cotton-maternity-kurti-27047663648.html?pos=111&kwd=maternity clothing&tags=BB||||8601.347|Price|product|||NA|rsf:gd-|-qr_nm:gd|res:RC3|com-cf:nl|ptrs:na|ktp:N0|mc:9911|mtp:G|qry_typ:P|lang:en|wc:2|cs:7475|v=4,Star Glory Fabrics,https://www.indiamart.com/stargloryfabrics/?pos=111&kwd=maternity clothing&tags=BB||||8601.347|Price|product|||NA|rsf:gd-|-qr_nm:gd|res:RC3|com-cf:nl|ptrs:na|ktp:N0|mc:9911|mtp:G|qry_typ:P|lang:en|wc:2|cs:7475|v=4,False,,Jaipur,"Plot No-42, Mathur Vashya Nagar, Tonk Road, Surajpura, Jaipur - 302029, Dist.Jaipur, Rajasthan",7942822361,
Cotton Maternity Cordset,https://www.indiamart.com/proddetail/maternity-cordset-2853700915191.html?pos=112&kwd=maternity clothing&tags=BA||||8206.306|Price|product|||NA|rsf:gd-|-qr_nm:gd|res:RC3|com-cf:nl|ptrs:na|ktp:N0|mc:9911|mtp:G|qry_typ:P|lang:en|wc:2|cs:7475|v=4,Mehta Creation,https://www.indiamart.com/mehta-creation-thane/?pos=112&kwd=maternity clothing&tags=BA||||8206.306|Price|product|||NA|rsf:gd-|-qr_nm:gd|res:RC3|com-cf:nl|ptrs:na|ktp:N0|mc:9911|mtp:G|qry_typ:P|lang:en|wc:2|cs:7475|v=4,False,Bhayandar West,Bhayander West,"B 5, Amba Smruti, Maharana Pratap Road, Hanuman Mandir, Thane, Bhayandar West, Bhayander West - 401101, Maharashtra",8045166707,
Maternity Photoshoot Dresses,https://www.indiamart.com/proddetail/maternity-photoshoot-dresses-2851743854312.html?pos=113&kwd=maternity clothing&tags=BA||||8230.883|Price|product|||NA|rsf:gd-|-qr_nm:gd|res:RC3|com-cf:nl|ptrs:na|ktp:N0|mc:9911|mtp:G|qry_typ:P|lang:en|wc:2|cs:7475|v=4,Dhara Fashion,https://www.indiamart.com/dharafashionsurat/?pos=113&kwd=maternity clothing&tags=BA||||8230.883|Price|product|||NA|rsf:gd-|-qr_nm:gd|res:RC3|com-cf:nl|ptrs:na|ktp:N0|mc:9911|mtp:G|qry_typ:P|lang:en|wc:2|cs:7475|v=4,False,,Surat,"Plot-15/321, Shed No-23, GR. Floor, Pavthawala Comp, Jain Mandir Road, Vasta Devdi Road, Kataragam, Surat - 395004, Dist.Surat, Gujarat",8047647921,
Maternity Gown,https://www.indiamart.com/proddetail/maternity-gown-2850737249012.html?pos=114&kwd=maternity clothing&tags=BA||||8601.347|Price|product|||NA|rsf:gd-|-qr_nm:gd|res:RC3|com-cf:nl|ptrs:na|ktp:N0|mc:9911|mtp:G|qry_typ:P|lang:en|wc:2|cs:7475|v=4,Sawaliya Seth Ji Fashions & Fabricators,https://www.indiamart.com/sawaliya-seth-ji-fashions-fabricators/?pos=114&kwd=maternity clothing&tags=BA||||8601.347|Price|product|||NA|rsf:gd-|-qr_nm:gd|res:RC3|com-cf:nl|ptrs:na|ktp:N0|mc:9911|mtp:G|qry_typ:P|lang:en|wc:2|cs:7475|v=4,False,,Jaipur,"34-35-A,Shri Ram Nagar,Mansarovar,Jaipur,Jaipur, Jaipur - 302020, Dist.Jaipur, Rajasthan",7949356565,
Women Maternity Wear,https://www.indiamart.com/proddetail/women-maternity-wear-2852471550733.html?pos=115&kwd=maternity clothing&tags=BA||||8601.347|Price|product|||NA|rsf:gd-|-qr_nm:gd|res:RC3|com-cf:nl|ptrs:na|ktp:N0|mc:9911|mtp:G|qry_typ:P|lang:en|wc:2|cs:7475|v=4,Aaryahi Global,https://www.indiamart.com/aaryahiglobal/?pos=115&kwd=maternity clothing&tags=BA||||8601.347|Price|product|||NA|rsf:gd-|-qr_nm:gd|res:RC3|com-cf:nl|ptrs:na|ktp:N0|mc:9911|mtp:G|qry_typ:P|lang:en|wc:2|cs:7475|v=4,False,Bajaj Nagar,Jaipur,"BB-10 B, Road No-6, Anita Colony Bajaj Nagar, Bajaj Nagar, Jaipur - 302015, Dist.Jaipur, Rajasthan",8047549365,
Manufacturer of Women Labour/Delivery/Maternity Nursing gowns for Hospital Breastfeeding dresses,https://www.indiamart.com/proddetail/manufacturer-of-women-labour-delivery-maternity-nursing-gowns-for-hospital-breastfeeding-dresses-2848956450491.html?pos=116&kwd=maternity clothing&tags=BB||||8752.144|Price|product|||NA|rsf:gd-|-qr_nm:gd|res:RC3|com-cf:nl|ptrs:na|ktp:N0|mc:9911|mtp:G|qry_typ:P|lang:en|wc:2|cs:7475|v=4,Saanvi Inc.,https://www.indiamart.com/saanviinc/?pos=116&kwd=maternity clothing&tags=BB||||8752.144|Price|product|||NA|rsf:gd-|-qr_nm:gd|res:RC3|com-cf:nl|ptrs:na|ktp:N0|mc:9911|mtp:G|qry_typ:P|lang:en|wc:2|cs:7475|v=4,False,,New Delhi,"A-802, Ground Floor, Rohtak Road, Opposite Udyog Nagar Metro Station, Gate No. 1, New Delhi - 110041, Dist.Delhi, Delhi",8069196715,748
Maternity Kurtis,https://www.indiamart.com/proddetail/maternity-kurtis-2851920417173.html?pos=117&kwd=maternity clothing&tags=BA||||8601.347|Price|product|||NA|rsf:gd-|-qr_nm:gd|res:RC3|com-cf:nl|ptrs:na|ktp:N0|mc:9911|mtp:G|qry_typ:P|lang:en|wc:2|cs:7475|v=4,Nibheriya Art,https://www.indiamart.com/nibheriya-art-india/?pos=117&kwd=maternity clothing&tags=BA||||8601.347|Price|product|||NA|rsf:gd-|-qr_nm:gd|res:RC3|com-cf:nl|ptrs:na|ktp:N0|mc:9911|mtp:G|qry_typ:P|lang:en|wc:2|cs:7475|v=4,False,Kartarpur,Jaipur,"1-6, Sharma Bhavan, Kartarpura Phatak, Vijay Nagar-A, Kartarpur, Jaipur - 302006, Dist.Jaipur, Rajasthan",8043843116,
"Green Maternity Feeding Kurtis, Size: M to xxl, Sleeves: Three Quarter Sleeves",https://www.indiamart.com/proddetail/maternity-feeding-kurtis-22409666730.html?pos=118&kwd=maternity clothing&tags=BB||||8601.347|Price|product|||NA|rsf:gd-|-qr_nm:gd|res:RC3|com-cf:nl|ptrs:na|ktp:N0|mc:9911|mtp:G|qry_typ:P|lang:en|wc:2|cs:7475|v=4,K.H. Designs,https://www.indiamart.com/khdesigns/?pos=118&kwd=maternity clothing&tags=BB||||8601.347|Price|product|||NA|rsf:gd-|-qr_nm:gd|res:RC3|com-cf:nl|ptrs:na|ktp:N0|mc:9911|mtp:G|qry_typ:P|lang:en|wc:2|cs:7475|v=4,False,,Jaipur,"B-5, Khalsa Colony, Hida Ki Mori, Ramganj, Jaipur - 302003, Dist.Jaipur, Rajasthan",8048371756,187
Yellow Straight Maternity,,Vinny'S Creation,https://www.indiamart.com/vinnys-creation/?pos=119&kwd=maternity clothing&tags=BA||||8601.347|Price|product|||NA|rsf:gd-|-qr_nm:gd|res:RC3|com-cf:nl|ptrs:na|ktp:N0|mc:9911|mtp:G|qry_typ:P|lang:en|wc:2|cs:7475|v=4,False,,Jaipur,"Plot No. 30,,dadu Marg, hariyan Colony, Near Jp phatak,Jaipur ,302015,, Jaipur - 302015, Dist.Jaipur, Rajasthan",8048370713,2499
"Rayon Casual Wear Maternity Mother Feeding Kurti, Wash Care: Machine Wash",https://www.indiamart.com/proddetail/maternity-mother-feeding-kurti-20192536930.html?pos=120&kwd=maternity clothing&tags=BB||||8228.275|Price|product|||NA|rsf:gd-|-qr_nm:gd|res:RC3|com-cf:nl|ptrs:na|ktp:N0|mc:9911|mtp:G|qry_typ:P|lang:en|wc:2|cs:7475|v=4,Shashwat Life Style,https://www.indiamart.com/shashwat-life-style/?pos=120&kwd=maternity clothing&tags=BB||||8228.275|Price|product|||NA|rsf:gd-|-qr_nm:gd|res:RC3|com-cf:nl|ptrs:na|ktp:N0|mc:9911|mtp:G|qry_typ:P|lang:en|wc:2|cs:7475|v=4,False,,Ahmedabad,"B-150,PUSHP INDUSTRIAL PARK, NEAR SHITAL CINEMA, RAKHIAL,AHMEDABAD B-150, Pushp Industrial Park, Gate No. 3, Near Sheetal Cinema, Rakhial,380021,Ahmedabad, Ahmedabad - 380023, Dist.Ahmedabad, Gujarat",7942649690,
Maternity Dress,,Purvansh Enterprises,https://www.indiamart.com/purvanshenterprises/?pos=121&kwd=maternity clothing&tags=BA||||8601.347|Price|product|||NA|rsf:gd-|-qr_nm:gd|res:RC3|com-cf:nl|ptrs:na|ktp:N0|mc:9911|mtp:G|qry_typ:P|lang:en|wc:2|cs:7475|v=4,False,,Jaipur,"Plot No. 17, Balaji Vihar 2, Govindpura, Kalwar Road, Jaipur - 302012, Dist.Jaipur, Rajasthan",7942564962,
Maternity Feeding Kruti,https://www.indiamart.com/proddetail/maternity-feeding-kruti-2854597381773.html?pos=122&kwd=maternity clothing&tags=BB||||8512.891|Price|product|||NA|rsf:gd-|-qr_nm:gd|res:RC3|com-cf:nl|ptrs:na|ktp:N0|mc:9911|mtp:G|qry_typ:P|lang:en|wc:2|cs:7475|v=4,Kanuvinu Trading Company,https://www.indiamart.com/kanuvinu-trading-company/?pos=122&kwd=maternity clothing&tags=BB||||8512.891|Price|product|||NA|rsf:gd-|-qr_nm:gd|res:RC3|com-cf:nl|ptrs:na|ktp:N0|mc:9911|mtp:G|qry_typ:P|lang:en|wc:2|cs:7475|v=4,False,New Colony,Kuchaman,"KanuVinu Trading Company Nala Bazar, New Colony, Kuchaman - 341508, Dist.Nagaur, Rajasthan",8048249810,164
"Yellow Chiffon Maternity Gown, Size: Large, Sleeves: Full Sleeves",https://www.indiamart.com/proddetail/yellow-chiffon-maternity-gown-2849813341662.html?pos=123&kwd=maternity clothing&tags=BB||||8752.144|Price|product|||NA|rsf:gd-|-qr_nm:gd|res:RC3|com-cf:nl|ptrs:na|ktp:N0|mc:9911|mtp:G|qry_typ:P|lang:en|wc:2|cs:7475|v=4,Genesis,https://www.indiamart.com/genesisnewdelhi/?pos=123&kwd=maternity clothing&tags=BB||||8752.144|Price|product|||NA|rsf:gd-|-qr_nm:gd|res:RC3|com-cf:nl|ptrs:na|ktp:N0|mc:9911|mtp:G|qry_typ:P|lang:en|wc:2|cs:7475|v=4,False,,New Delhi,"B-423, Somdutt Chambers I, 5, Bhikaji Cama Place, South Delhi, New Delhi - 110066, Dist.Delhi, Delhi",7942797227,
"Green Three fourth sleeve Reyon Embroidery Feeding Kurti, Size: Free",https://www.indiamart.com/proddetail/reyon-embroidery-feeding-kurti-2852619921497.html?pos=124&kwd=maternity clothing&tags=BA||||8230.883|Price|product|||NA|rsf:gd-|-qr_nm:gd|res:RC3|com-cf:nl|ptrs:na|ktp:N0|mc:9911|mtp:G|qry_typ:P|lang:en|wc:2|cs:7475|v=4,Jay Bholenath Enterprise,https://www.indiamart.com/jay-bholenath-enterprise/?pos=124&kwd=maternity clothing&tags=BA||||8230.883|Price|product|||NA|rsf:gd-|-qr_nm:gd|res:RC3|com-cf:nl|ptrs:na|ktp:N0|mc:9911|mtp:G|qry_typ:P|lang:en|wc:2|cs:7475|v=4,False,Varachha,Surat,"117,Amrut Udhyog Nagar,Laskana, Kamrej,surat, Varachha, Surat - 394185, Dist.Surat, Gujarat",7942865158,
"Women Printed Rayon Maternity Night Dress, Red",https://www.indiamart.com/proddetail/women-printed-rayon-maternity-night-dress-2853079380297.html?pos=125&kwd=maternity clothing&tags=BA||||8210.732|Price|product|||NA|rsf:gd-|-qr_nm:gd|res:RC3|com-cf:nl|ptrs:na|ktp:N0|mc:9911|mtp:G|qry_typ:P|lang:en|wc:2|cs:7475|v=4,Rathod Industries,https://www.indiamart.com/rathodindustries-mumbai/?pos=125&kwd=maternity clothing&tags=BA||||8210.732|Price|product|||NA|rsf:gd-|-qr_nm:gd|res:RC3|com-cf:nl|ptrs:na|ktp:N0|mc:9911|mtp:G|qry_typ:P|lang:en|wc:2|cs:7475|v=4,False,,Vasai,"Third Floor Gala No. 307,Rajprabha Industrial Premises -3,Gokhivare ,Near Toyota Car Showroom, Vasai - 401208, Dist.Thane, Maharashtra",8047786825,
Red A-line maternity kurta,https://www.indiamart.com/proddetail/a-line-maternity-kurta-25754472712.html?pos=126&kwd=maternity clothing&tags=BB||||8601.347|Price|product|||NA|rsf:gd-|-qr_nm:gd|res:RC3|com-cf:nl|ptrs:na|ktp:N0|mc:9911|mtp:G|qry_typ:P|lang:en|wc:2|cs:7475|v=4,Navyaksh Enterprises,https://www.indiamart.com/navyaksh-enterprises/?pos=126&kwd=maternity clothing&tags=BB||||8601.347|Price|product|||NA|rsf:gd-|-qr_nm:gd|res:RC3|com-cf:nl|ptrs:na|ktp:N0|mc:9911|mtp:G|qry_typ:P|lang:en|wc:2|cs:7475|v=4,False,,Jaipur,"2a/169 Shivshakti Colony Shastri Nagar, Jaipur - 302016, Dist.Jaipur, Rajasthan",7942545718,
Ladies Cotton Maternity Feeding Kurti,https://www.indiamart.com/proddetail/ladies-cotton-maternity-feeding-kurti-26864442797.html?pos=127&kwd=maternity clothing&tags=BA||||8230.883|Price|product|||NA|rsf:gd-|-qr_nm:gd|res:RC3|com-cf:nl|ptrs:na|ktp:N0|mc:9911|mtp:G|qry_typ:P|lang:en|wc:2|cs:7475|v=4,Bansi Enterprise,https://www.indiamart.com/bansienterprise/?pos=127&kwd=maternity clothing&tags=BA||||8230.883|Price|product|||NA|rsf:gd-|-qr_nm:gd|res:RC3|com-cf:nl|ptrs:na|ktp:N0|mc:9911|mtp:G|qry_typ:P|lang:en|wc:2|cs:7475|v=4,False,Hirabaugh,Surat,"145, Krishna Park Society, NR.Gelambe Mandir,Kamraj,, Hirabaugh, Surat - 394180, Dist.Surat, Gujarat",7942620842,
Made To Order Customised Magenta Maternity And Feeding Gown With Detachable Belt,https://www.indiamart.com/proddetail/made-to-order-customised-magenta-maternity-and-feeding-gown-with-detachable-belt-26096407188.html?pos=128&kwd=maternity clothing&tags=BA||||8663.873|Price|product|||NA|rsf:gd-|-qr_nm:gd|res:RC3|com-cf:nl|ptrs:na|ktp:N0|mc:9911|mtp:G|qry_typ:P|lang:en|wc:2|cs:7475|v=4,Moms Ever,https://www.indiamart.com/moms-ever/?pos=128&kwd=maternity clothing&tags=BA||||8663.873|Price|product|||NA|rsf:gd-|-qr_nm:gd|res:RC3|com-cf:nl|ptrs:na|ktp:N0|mc:9911|mtp:G|qry_typ:P|lang:en|wc:2|cs:7475|v=4,False,,Bengaluru,"T1b 703, Candeur Carlisle, Itpl Main Road, Mahadevpura T1B 703 Candeur Carlisle,, Bengaluru - 560048, Dist.Bengaluru, Karnataka",,
"Sky Blue Ladies Printed Rayon Maternity Kurti, Size: Medium, Sleeves: Half Sleeves",https://www.indiamart.com/proddetail/sky-blue-ladies-printed-rayon-maternity-kurti-2849487051048.html?pos=129&kwd=maternity clothing&tags=BA||||8579.528|Price|product|||NA|rsf:gd-|-qr_nm:gd|res:RC3|com-cf:nl|ptrs:na|ktp:N0|mc:9911|mtp:G|qry_typ:P|lang:en|wc:2|cs:7475|v=4,Shiva Enterprises,https://www.indiamart.com/shiva-enterprises-rajasthan/?pos=129&kwd=maternity clothing&tags=BA||||8579.528|Price|product|||NA|rsf:gd-|-qr_nm:gd|res:RC3|com-cf:nl|ptrs:na|ktp:N0|mc:9911|mtp:G|qry_typ:P|lang:en|wc:2|cs:7475|v=4,False,,Jhunjhunu,"H.No. 217, Dhani Firaswali, Kankariya, Jhunjhunu - 333053, Dist.Jhujhunu, Rajasthan",7942787666,
Grey Ladies Maternity Long Kurti,https://www.indiamart.com/proddetail/ladies-maternity-long-kurti-24293571062.html?pos=130&kwd=maternity clothing&tags=BB||||8601.347|Price|product|||NA|rsf:gd-|-qr_nm:gd|res:RC3|com-cf:nl|ptrs:na|ktp:N0|mc:9911|mtp:G|qry_typ:P|lang:en|wc:2|cs:7475|v=4,Fabrico Creation,https://www.indiamart.com/fabricocreation/?pos=130&kwd=maternity clothing&tags=BB||||8601.347|Price|product|||NA|rsf:gd-|-qr_nm:gd|res:RC3|com-cf:nl|ptrs:na|ktp:N0|mc:9911|mtp:G|qry_typ:P|lang:en|wc:2|cs:7475|v=4,False,,Jaipur,"36-A, Paliwal Garden, Krishna Vihar Colony, Sanganer, Jaipur - 302029, Dist.Jaipur, Rajasthan",8046043567,
Green Maternity Feeding Kurtis,https://www.indiamart.com/proddetail/maternity-feeding-kurtis-21029620973.html?pos=131&kwd=maternity clothing&tags=BB||||8796.55|Price|product|||NA|rsf:gd-|-qr_nm:gd|res:RC3|com-cf:nl|ptrs:na|ktp:N0|mc:9911|mtp:G|qry_typ:P|lang:en|wc:2|cs:7475|v=4,Subham Enterprises,https://www.indiamart.com/sivasakthi-enterprises-chinna-salem/?pos=131&kwd=maternity clothing&tags=BB||||8796.55|Price|product|||NA|rsf:gd-|-qr_nm:gd|res:RC3|com-cf:nl|ptrs:na|ktp:N0|mc:9911|mtp:G|qry_typ:P|lang:en|wc:2|cs:7475|v=4,False,Bazzar Street West,Chinna Salem,"Office No. 4 A-1, Bazzar Street West, Chinna Salem - 606201, Tamil Nadu",8048371951,540
"Cotton Maternity Gowns, Sleeves: Sky Blue",https://www.indiamart.com/proddetail/cotton-maternity-gowns-2849888913897.html?pos=132&kwd=maternity clothing&tags=BB||||8601.347|Price|product|||NA|rsf:gd-|-qr_nm:gd|res:RC3|com-cf:nl|ptrs:na|ktp:N0|mc:9911|mtp:G|qry_typ:P|lang:en|wc:2|cs:7475|v=4,Priya Collection,https://www.indiamart.com/priyacollectionjaipur/?pos=132&kwd=maternity clothing&tags=BB||||8601.347|Price|product|||NA|rsf:gd-|-qr_nm:gd|res:RC3|com-cf:nl|ptrs:na|ktp:N0|mc:9911|mtp:G|qry_typ:P|lang:en|wc:2|cs:7475|v=4,False,,Jaipur,"125, AGRA ROAD, Jaipur - 303012, Dist.Jaipur, Rajasthan",8047543036,
"Red Cotton Feeding Maternity Pregnancy Dress, Size: Large",https://www.indiamart.com/proddetail/cotton-feeding-maternity-pregnancy-dress-24435257755.html?pos=133&kwd=maternity clothing&tags=BB||||8601.347|Price|product|||NA|rsf:gd-|-qr_nm:gd|res:RC3|com-cf:nl|ptrs:na|ktp:N0|mc:9911|mtp:G|qry_typ:P|lang:en|wc:2|cs:7475|v=4,Kalindi Creation,https://www.indiamart.com/kalindicreation-jaipur/?pos=133&kwd=maternity clothing&tags=BB||||8601.347|Price|product|||NA|rsf:gd-|-qr_nm:gd|res:RC3|com-cf:nl|ptrs:na|ktp:N0|mc:9911|mtp:G|qry_typ:P|lang:en|wc:2|cs:7475|v=4,False,,Jaipur,"119/92, Sector 11, Jone 119, Agarwal Farm, Mansarover,, Jaipur - 302020, Dist.Jaipur, Rajasthan",7942551172,
Feeding / Maternity /Pregnancy Kurti,https://www.indiamart.com/proddetail/feeding-maternity-pregnancy-kurti-22634066555.html?pos=134&kwd=maternity clothing&tags=BB||||8228.275|Price|product|||NA|rsf:gd-|-qr_nm:gd|res:RC3|com-cf:nl|ptrs:na|ktp:N0|mc:9911|mtp:G|qry_typ:P|lang:en|wc:2|cs:7475|v=4,Rittz Creation,https://www.indiamart.com/rittzcreation/?pos=134&kwd=maternity clothing&tags=BB||||8228.275|Price|product|||NA|rsf:gd-|-qr_nm:gd|res:RC3|com-cf:nl|ptrs:na|ktp:N0|mc:9911|mtp:G|qry_typ:P|lang:en|wc:2|cs:7475|v=4,False,Kalupur,Ahmedabad,"C/O. Champalal J. Shah, 9, Rangwala Market, Sakar Bazar, Kalupur, Ahmedabad - 380002, Dist.Ahmedabad, Gujarat",8062245091,932
Maternity photo shoot gown,https://www.indiamart.com/proddetail/maternity-photo-shoot-gown-2854423079930.html?pos=135&kwd=maternity clothing&tags=BA||||8559.269|Price|product|||NA|rsf:gd-|-qr_nm:gd|res:RC3|com-cf:nl|ptrs:na|ktp:N0|mc:9911|mtp:G|qry_typ:P|lang:en|wc:2|cs:7475|v=4,Get Easy Enterprises,https://www.indiamart.com/get-easy-enterprises/?pos=135&kwd=maternity clothing&tags=BA||||8559.269|Price|product|||NA|rsf:gd-|-qr_nm:gd|res:RC3|com-cf:nl|ptrs:na|ktp:N0|mc:9911|mtp:G|qry_typ:P|lang:en|wc:2|cs:7475|v=4,False,INDORE,Indore,"FF/12,Shopping Complex - A, A.B Road,Indore 452010, INDORE, Indore - 452010, Dist.Indore, Madhya Pradesh",8069017409,474
Sky Blue (Base) Ladies Printed Maternity Gown,https://www.indiamart.com/proddetail/ladies-printed-maternity-gown-26225672688.html?pos=136&kwd=maternity clothing&tags=BB||||8601.347|Price|product|||NA|rsf:gd-|-qr_nm:gd|res:RC3|com-cf:nl|ptrs:na|ktp:N0|mc:9911|mtp:G|qry_typ:P|lang:en|wc:2|cs:7475|v=4,J.P. Creations,https://www.indiamart.com/jpcreationsjaipur/?pos=136&kwd=maternity clothing&tags=BB||||8601.347|Price|product|||NA|rsf:gd-|-qr_nm:gd|res:RC3|com-cf:nl|ptrs:na|ktp:N0|mc:9911|mtp:G|qry_typ:P|lang:en|wc:2|cs:7475|v=4,False,,Jaipur,"Bawadi Ka Bass, Teja Ji Ka Bada, Sanganer, Jaipur - 302029, Dist.Jaipur, Rajasthan",8043850924,
"Green Maternity Nursing Kurti, 100, Size: XL",https://www.indiamart.com/proddetail/maternity-nursing-kurti-20837334048.html?pos=137&kwd=maternity clothing&tags=BA||||8507.67|Price|product|||NA|rsf:gd-|-qr_nm:gd|res:RC3|com-cf:nl|ptrs:na|ktp:N0|mc:9911|mtp:G|qry_typ:P|lang:en|wc:2|cs:7475|v=4,Jewish Apparel & Accessories,https://www.indiamart.com/jewish-apparel-accessories/?pos=137&kwd=maternity clothing&tags=BA||||8507.67|Price|product|||NA|rsf:gd-|-qr_nm:gd|res:RC3|com-cf:nl|ptrs:na|ktp:N0|mc:9911|mtp:G|qry_typ:P|lang:en|wc:2|cs:7475|v=4,False,,Ernakulam,"32/324-A, Ladlee Towers, Vailopilly Road, Near Puthiya Road Junction, Thammanam PO, Ernakulam - 682032, Dist.Ernakulam, Kerala",8069033778,108
Maternity Kurtis,https://www.indiamart.com/proddetail/maternity-kurtis-2854914175055.html?pos=138&kwd=maternity clothing&tags=BA||||8601.347|Price|product|||NA|rsf:gd-|-qr_nm:gd|res:RC3|com-cf:nl|ptrs:na|ktp:N0|mc:9911|mtp:G|qry_typ:P|lang:en|wc:2|cs:7475|v=4,Savi Enterprise,https://www.indiamart.com/savi-enterprise-jaipur/?pos=138&kwd=maternity clothing&tags=BA||||8601.347|Price|product|||NA|rsf:gd-|-qr_nm:gd|res:RC3|com-cf:nl|ptrs:na|ktp:N0|mc:9911|mtp:G|qry_typ:P|lang:en|wc:2|cs:7475|v=4,False,,Jaipur,"Ward No.5, Barna, Bera Wali Dhani, Jahota, Jaipur - 303701, Dist.Jaipur, Rajasthan",8048247097,9269
"Ladies White Maternity Kurti, Size: Large",https://www.indiamart.com/proddetail/ladies-white-maternity-kurti-2851054541633.html?pos=139&kwd=maternity clothing&tags=BB||||8601.347|Price|product|||NA|rsf:gd-|-qr_nm:gd|res:RC3|com-cf:nl|ptrs:na|ktp:N0|mc:9911|mtp:G|qry_typ:P|lang:en|wc:2|cs:7475|v=4,Shree Shyam Fabricaters,https://www.indiamart.com/shree-shyam-fabricaters/?pos=139&kwd=maternity clothing&tags=BB||||8601.347|Price|product|||NA|rsf:gd-|-qr_nm:gd|res:RC3|com-cf:nl|ptrs:na|ktp:N0|mc:9911|mtp:G|qry_typ:P|lang:en|wc:2|cs:7475|v=4,False,,Jaipur,"Ghyan Chand S/0 Shri Gopal Saini, Khasra No3445, Sanganer, Jaipur - 302029, Dist.Jaipur, Rajasthan",8048600283,
MATERNITY XXL COTTON COLLAR NIGHTIES FOR WOMENS (FREE) 100% PURE COTTON DAILY WEAR,https://www.indiamart.com/proddetail/maternity-xxl-cotton-collar-nighties-for-womens-free-100-pure-cotton-daily-wear-2851654132897.html?pos=140&kwd=maternity clothing&tags=BA||||8668.838|Price|product|||NA|rsf:gd-|-qr_nm:gd|res:RC3|com-cf:nl|ptrs:na|ktp:N0|mc:9911|mtp:G|qry_typ:P|lang:en|wc:2|cs:7475|v=4,Finito Apparels,https://www.indiamart.com/finitoapparels/?pos=140&kwd=maternity clothing&tags=BA||||8668.838|Price|product|||NA|rsf:gd-|-qr_nm:gd|res:RC3|com-cf:nl|ptrs:na|ktp:N0|mc:9911|mtp:G|qry_typ:P|lang:en|wc:2|cs:7475|v=4,False,Veerapampalayam,Erode,"60/37 Veerappan Palayam Pannai Nagar Thindal, Veerapampalayam, Erode - 638012, Dist.Erode, Tamil Nadu",8046063709,
cotton Anarkali feeding / maternity kurti,https://www.indiamart.com/proddetail/cotton-anarkali-feeding-maternity-kurti-2852726240455.html?pos=141&kwd=maternity clothing&tags=BA||||8230.883|Price|product|||NA|rsf:gd-|-qr_nm:gd|res:RC3|com-cf:nl|ptrs:na|ktp:N0|mc:9911|mtp:G|qry_typ:P|lang:en|wc:2|cs:7475|v=4,D.Aksharam,https://www.indiamart.com/daksharam/?pos=141&kwd=maternity clothing&tags=BA||||8230.883|Price|product|||NA|rsf:gd-|-qr_nm:gd|res:RC3|com-cf:nl|ptrs:na|ktp:N0|mc:9911|mtp:G|qry_typ:P|lang:en|wc:2|cs:7475|v=4,False,Udhana,Surat,"13th Floor, Wing-B, Flat-1302, Blue Candle, Causeway Road, Udhana, Surat - 395004, Dist.Surat, Gujarat",7942829878,
Ladies Maternity Kurtis,https://www.indiamart.com/proddetail/ladies-maternity-kurtis-25687113088.html?pos=142&kwd=maternity clothing&tags=BB||||8601.347|Price|product|||NA|rsf:gd-|-qr_nm:gd|res:RC3|com-cf:nl|ptrs:na|ktp:N0|mc:9911|mtp:G|qry_typ:P|lang:en|wc:2|cs:7475|v=4,Click Jaipur,https://www.indiamart.com/clkjaipur-photoshootwithmodeladvertisng/?pos=142&kwd=maternity clothing&tags=BB||||8601.347|Price|product|||NA|rsf:gd-|-qr_nm:gd|res:RC3|com-cf:nl|ptrs:na|ktp:N0|mc:9911|mtp:G|qry_typ:P|lang:en|wc:2|cs:7475|v=4,False,Sanganer,Jaipur,"House No 82-a Sashtri Nagar Meena Wala Sirsi Road Jaipur, Sanganer, Jaipur - 302034, Dist.Jaipur, Rajasthan",8043804680,
Ladies Maternity Kurtis,https://www.indiamart.com/proddetail/ladies-maternity-kurtis-24060711688.html?pos=143&kwd=maternity clothing&tags=BA||||8307.81|Price|product|||NA|rsf:gd-|-qr_nm:gd|res:RC3|com-cf:nl|ptrs:na|ktp:N0|mc:9911|mtp:G|qry_typ:P|lang:en|wc:2|cs:7475|v=4,Baby & Mom,https://www.indiamart.com/baby-and-mom-clothing/?pos=143&kwd=maternity clothing&tags=BA||||8307.81|Price|product|||NA|rsf:gd-|-qr_nm:gd|res:RC3|com-cf:nl|ptrs:na|ktp:N0|mc:9911|mtp:G|qry_typ:P|lang:en|wc:2|cs:7475|v=4,False,Kothrud,Pune,"House No- 3, Kothrud, Pune - 411038, Dist.Pune, Maharashtra",8048371837,988
Maternity Gowns for Women,,Jp Creation,https://www.indiamart.com/jp-creation-jaipur/?pos=144&kwd=maternity clothing&tags=A||||8601.347|Price|product|||NA|rsf:gd-|-qr_nm:gd|res:RC3|com-cf:nl|ptrs:na|ktp:N0|mc:9911|mtp:G|qry_typ:P|lang:en|wc:2|cs:7475|v=4,False,,Jaipur,"Khasra No 4030 105 Khokhawas Tulsi Nagar, Jaipur - 302029, Dist.Jaipur, Rajasthan",8047308885,9629
Maternity Dress,,Sunita Ledise Tailor,https://www.indiamart.com/sunita-ledise-tailor/?pos=145&kwd=maternity clothing&tags=A||||8307.81||product|||NA|rsf:gd-|-qr_nm:gd|res:RC3|com-cf:nl|ptrs:na|ktp:N0|mc:9911|mtp:G|qry_typ:P|lang:en|wc:2|cs:7475|v=4,False,Sainath Nagar Wadgaoshari,Pune,"Suvas Building 1, Sainath Nagar Wadgaoshari, Pune - 411014, Dist.Pune, Maharashtra",8047798079,
Maternity Wear Maternity Dress,,Nandini Associates,https://www.indiamart.com/nandini-associates-thiruvananthapuram/?pos=146&kwd=maternity clothing&tags=A||||8571.301||product|||NA|rsf:gd-|-qr_nm:gd|res:RC3|com-cf:nl|ptrs:na|ktp:N0|mc:9911|mtp:G|qry_typ:P|lang:en|wc:2|cs:7475|v=4,False,,Thiruvananthapuram,"Tc 14/4199 -1 Sun Sapphire Kesavadasapuram Thiruvananthapuram, Thiruvananthapuram - 695004, Dist.Thiruvananthapuram, Kerala",8069728211,249
Ladies Maternity Kurtis,https://www.indiamart.com/proddetail/ladies-maternity-kurtis-24220087591.html?pos=147&kwd=maternity clothing&tags=BB||||8601.347|Price|product|||NA|rsf:gd-|-qr_nm:gd|res:RC3|com-cf:nl|ptrs:na|ktp:N0|mc:9911|mtp:G|qry_typ:P|lang:en|wc:2|cs:7475|v=4,Diyansh Creations,https://www.indiamart.com/diyansh-creations/?pos=147&kwd=maternity clothing&tags=BB||||8601.347|Price|product|||NA|rsf:gd-|-qr_nm:gd|res:RC3|com-cf:nl|ptrs:na|ktp:N0|mc:9911|mtp:G|qry_typ:P|lang:en|wc:2|cs:7475|v=4,False,Near SBI Bank,Jaipur,"Shop No. 18 Balaji Shopping Center, Kamla Nehru Nagar, Ajmer Road, Near SBI Bank, Jaipur - 302021, Dist.Jaipur, Rajasthan",8047791640,
"3/4 Sleeve Ladies Embroidered Rayon Kurtis.(4 Color Available), S TO XXL",https://www.indiamart.com/proddetail/ladies-embroidered-rayon-kurtis-4-color-available-26095149073.html?pos=148&kwd=maternity clothing&tags=BB||||8601.347|Price|product|||NA|rsf:gd-|-qr_nm:gd|res:RC3|com-cf:nl|ptrs:na|ktp:N0|mc:9911|mtp:G|qry_typ:P|lang:en|wc:2|cs:7475|v=4,Shri Siddhi Vinayak,https://www.indiamart.com/shrisiddhivinayakjaipur/?pos=148&kwd=maternity clothing&tags=BB||||8601.347|Price|product|||NA|rsf:gd-|-qr_nm:gd|res:RC3|com-cf:nl|ptrs:na|ktp:N0|mc:9911|mtp:G|qry_typ:P|lang:en|wc:2|cs:7475|v=4,False,,Jaipur,"13, Indrapuri, Jaipur Gate, Sanganer, Jaipur - 302029, Dist.Jaipur, Rajasthan",8043857761,
6 Colour Feeding Maternity Pregnancy Reyon Kurti,https://www.indiamart.com/proddetail/feeding-maternity-pregnancy-reyon-kurti-25959136891.html?pos=149&kwd=maternity clothing&tags=BB||||8230.883|Price|product|||NA|rsf:gd-|-qr_nm:gd|res:RC3|com-cf:nl|ptrs:na|ktp:N0|mc:9911|mtp:G|qry_typ:P|lang:en|wc:2|cs:7475|v=4,Korat Clothing Studio,https://www.indiamart.com/koratclothingstudio/?pos=149&kwd=maternity clothing&tags=BB||||8230.883|Price|product|||NA|rsf:gd-|-qr_nm:gd|res:RC3|com-cf:nl|ptrs:na|ktp:N0|mc:9911|mtp:G|qry_typ:P|lang:en|wc:2|cs:7475|v=4,False,,Surat,"., Surat - 395010, Dist.Surat, Gujarat",8048955432,
"Yellow Maternity Feeding Kurti, Size: XL",https://www.indiamart.com/proddetail/maternity-feeding-kurti-2849539869312.html?pos=150&kwd=maternity clothing&tags=BB||||9814.149|Price|product|||NA|rsf:gd-|-qr_nm:gd|res:RC3|com-cf:nl|ptrs:na|ktp:N0|mc:9911|mtp:G|qry_typ:P|lang:en|wc:2|cs:7475|v=4,SK Garment,https://www.indiamart.com/sk-garment-karari/?pos=150&kwd=maternity clothing&tags=BB||||9814.149|Price|product|||NA|rsf:gd-|-qr_nm:gd|res:RC3|com-cf:nl|ptrs:na|ktp:N0|mc:9911|mtp:G|qry_typ:P|lang:en|wc:2|cs:7475|v=4,False,,Chaspara,"Mofijuddin Biswas Para, Chaspara, Malda, Chaspara - 732206, Dist.Malda, West Bengal",7942791369,
Ladies Maternity Dress,https://www.indiamart.com/proddetail/ladies-maternity-dress-25189138873.html?pos=151&kwd=maternity clothing&tags=BB||||8601.347||product|||NA|rsf:gd-|-qr_nm:gd|res:RC3|com-cf:nl|ptrs:na|ktp:N0|mc:9911|mtp:G|qry_typ:P|lang:en|wc:2|cs:7475|v=4,Vyshivka India Private Limited,https://www.indiamart.com/vyshivka-india/?pos=151&kwd=maternity clothing&tags=BB||||8601.347||product|||NA|rsf:gd-|-qr_nm:gd|res:RC3|com-cf:nl|ptrs:na|ktp:N0|mc:9911|mtp:G|qry_typ:P|lang:en|wc:2|cs:7475|v=4,False,Sector 75,Jaipur,"Plot No. 1, Bajrang Nagar Ext 2 Bajrang Vihar, Sector 75, Jaipur - 302029, Dist.Jaipur, Rajasthan",8048986925,
Printed T-Shirt for Women Mom to Be Half Sleeve T-Shirt Maternity Tshirt for Women,https://www.indiamart.com/proddetail/printed-t-shirt-for-women-mom-to-be-half-sleeve-t-shirt-maternity-tshirt-for-women-27371529591.html?pos=152&kwd=maternity clothing&tags=BB||||8752.144|Price|product|||NA|rsf:gd-|-qr_nm:gd|res:RC3|com-cf:nl|ptrs:na|ktp:N0|mc:9911|mtp:G|qry_typ:P|lang:en|wc:2|cs:7475|v=4,IBerry's Lifestyle Private Limited,https://www.indiamart.com/iberryslifestyle/?pos=152&kwd=maternity clothing&tags=BB||||8752.144|Price|product|||NA|rsf:gd-|-qr_nm:gd|res:RC3|com-cf:nl|ptrs:na|ktp:N0|mc:9911|mtp:G|qry_typ:P|lang:en|wc:2|cs:7475|v=4,False,,New Delhi,"11747/4, First Floor, Sat Nagar, Karol Bagh, Central Delhi, New Delhi - 110005, Dist.Delhi, Delhi",8047549711,
"Printed Cotton Maternity Feeding And Nursing Nighty, Pink",https://www.indiamart.com/proddetail/maternity-feeding-and-nursing-nighty-22229862155.html?pos=153&kwd=maternity clothing&tags=BB||||9789.054|Price|product|||NA|rsf:gd-|-qr_nm:gd|res:RC3|com-cf:nl|ptrs:na|ktp:N0|mc:9911|mtp:G|qry_typ:P|lang:en|wc:2|cs:7475|v=4,Clymaa,https://www.indiamart.com/clymaa/?pos=153&kwd=maternity clothing&tags=BB||||9789.054|Price|product|||NA|rsf:gd-|-qr_nm:gd|res:RC3|com-cf:nl|ptrs:na|ktp:N0|mc:9911|mtp:G|qry_typ:P|lang:en|wc:2|cs:7475|v=4,False,Sripally Ambagan,Bardhaman,"Shop No. 21, Nutanganj, Sripally Ambagan, Bardhaman - 713102, Dist.Purba Bardhaman, West Bengal",8047842473,
"Ladies Cotton Feeding Gown, Size: XL, Sleeves: Half Sleeves",https://www.indiamart.com/proddetail/ladies-cotton-feeding-gown-22403664248.html?pos=154&kwd=maternity clothing&tags=BA||||8316.457|Price|product|||NA|rsf:gd-|-qr_nm:gd|res:RC3|com-cf:nl|ptrs:na|ktp:N0|mc:9911|mtp:G|qry_typ:P|lang:en|wc:2|cs:7475|v=4,Gauri Readymade Garment,https://www.indiamart.com/gauri-readymade-garment/?pos=154&kwd=maternity clothing&tags=BA||||8316.457|Price|product|||NA|rsf:gd-|-qr_nm:gd|res:RC3|com-cf:nl|ptrs:na|ktp:N0|mc:9911|mtp:G|qry_typ:P|lang:en|wc:2|cs:7475|v=4,False,Jail Road,Nashik,"Bhavani Residency Jai Hind Nagar, Jail Road, Nashik - 422101, Dist.Nashik, Maharashtra",7942616259,
MomToBe Women''''s Rayon Garnet Maroon Maternity/Feeding/Nursing Maternity Dress,https://www.indiamart.com/proddetail/momtobe-women-s-rayon-garnet-maroon-maternity-feeding-nursing-maternity-dress-24871311688.html?pos=155&kwd=maternity clothing&tags=BB||||8211.142|Price|product|||NA|rsf:gd-|-qr_nm:gd|res:RC3|com-cf:nl|ptrs:na|ktp:N0|mc:9911|mtp:G|qry_typ:P|lang:en|wc:2|cs:7475|v=4,Classapart Apparels LLP,https://www.indiamart.com/class-apart-apparels/?pos=155&kwd=maternity clothing&tags=BB||||8211.142|Price|product|||NA|rsf:gd-|-qr_nm:gd|res:RC3|com-cf:nl|ptrs:na|ktp:N0|mc:9911|mtp:G|qry_typ:P|lang:en|wc:2|cs:7475|v=4,False,Malad West,Mumbai,"209, Nirmand Industrial Estate, Link Road, Malad West, Mumbai - 400064, Dist.Mumbai, Maharashtra",8043888259,
Pink Cotton Maternity Wear,https://www.indiamart.com/proddetail/pink-cotton-maternity-wear-19706681412.html?pos=156&kwd=maternity clothing&tags=BB||||8211.142||product|||NA|rsf:gd-|-qr_nm:gd|res:RC3|com-cf:nl|ptrs:na|ktp:N0|mc:9911|mtp:G|qry_typ:P|lang:en|wc:2|cs:7475|v=4,Mothers 2 B NX,https://www.indiamart.com/mothers-2bnx/?pos=156&kwd=maternity clothing&tags=BB||||8211.142||product|||NA|rsf:gd-|-qr_nm:gd|res:RC3|com-cf:nl|ptrs:na|ktp:N0|mc:9911|mtp:G|qry_typ:P|lang:en|wc:2|cs:7475|v=4,False,Santacruz West,Mumbai,"No. 37, Vazir Chawl, Bhim Wada, SV Road, Santacruz West, Mumbai - 400054, Dist.Mumbai, Maharashtra",8048972477,
Alpine Women Printed Maternity Feeding Nighty,https://www.indiamart.com/proddetail/women-printed-maternity-feeding-nighty-2853080468055.html?pos=157&kwd=maternity clothing&tags=BB||||8242.731|Price|product|||NA|rsf:gd-|-qr_nm:gd|res:RC3|com-cf:nl|ptrs:na|ktp:N0|mc:9911|mtp:G|qry_typ:P|lang:en|wc:2|cs:7475|v=4,Mahaveer Enterprises,https://www.indiamart.com/mahaveerenterprisesmaharashtra/?pos=157&kwd=maternity clothing&tags=BB||||8242.731|Price|product|||NA|rsf:gd-|-qr_nm:gd|res:RC3|com-cf:nl|ptrs:na|ktp:N0|mc:9911|mtp:G|qry_typ:P|lang:en|wc:2|cs:7475|v=4,False,Vithalwadi,Ulhasnagar,"BK No. 703, Room No. 5,6, Opp. Central Police Station, Central Hospital Area, Vithalwadi, Ulhasnagar - 421003, Dist.Thane, Maharashtra",8048269541,
ANJU FABRICS PEARL VOl 2 DESIGNER FROCKS FOR GIRLS 6 Pcs Set At Wholesale Price,https://www.indiamart.com/proddetail/anju-fabrics-pearl-vol-2-designer-frocks-for-girls-6-pcs-set-at-wholesale-price-2853885997648.html?pos=158&kwd=maternity clothing&tags=BA||||8230.883|Price|product|||NA|rsf:gd-|-qr_nm:gd|res:RC3|com-cf:nl|ptrs:na|ktp:N0|mc:9911|mtp:G|qry_typ:P|lang:en|wc:2|cs:7475|v=4,Priyanjal Ethnicity,https://www.indiamart.com/priyanjal-ethnicity-surat/?pos=158&kwd=maternity clothing&tags=BA||||8230.883|Price|product|||NA|rsf:gd-|-qr_nm:gd|res:RC3|com-cf:nl|ptrs:na|ktp:N0|mc:9911|mtp:G|qry_typ:P|lang:en|wc:2|cs:7475|v=4,False,,Surat,"Sh No.110 Model Town Road Shree Punjan Plazza, Surat - 395010, Dist.Surat, Gujarat",7942871057,
Maternity Dress,,A.S Enterprises,https://www.indiamart.com/asenterprises-25514850/?pos=159&kwd=maternity clothing&tags=BA||||8741.812||product|||NA|rsf:gd-|-qr_nm:gd|res:RC3|com-cf:nl|ptrs:na|ktp:N0|mc:9911|mtp:G|qry_typ:P|lang:en|wc:2|cs:7475|v=4,False,,Gurugram,"Ground Floor House No-24 Unnamed Road Anjana Colony Gurugram Gurugram Ground Floor House No-24 Unnamed Road Anjana Colony Gurugram Gurugram, Gurugram - 122001, Dist.Gurgaon, Haryana",8069707302,496
Women Maternity Feeding Nursing Kurta,,Aavya Enterprises,https://www.indiamart.com/yashi-enterprises-ghaziabad/?pos=160&kwd=maternity clothing&tags=BB||||8785.791|Price|product|||NA|rsf:gd-|-qr_nm:gd|res:RC3|com-cf:nl|ptrs:na|ktp:N0|mc:9911|mtp:G|qry_typ:P|lang:en|wc:2|cs:7475|v=4,False,Opposite Web City Gate,Ghaziabad,"h/no27 N-H 224 mehroli vilg Ghaziabad, Opposite Web City Gate, Ghaziabad - 201002, Dist.Ghaziabad, Uttar Pradesh",8048250182,394
Maternity Wear,,KOI LOUNGEWEAR AND SLEEPWEAR,https://www.indiamart.com/koi-loungewear-and-sleepwear/?pos=161&kwd=maternity clothing&tags=BA||||8281.036||product|||NA|rsf:gd-|-qr_nm:gd|res:RC3|com-cf:nl|ptrs:na|ktp:N0|mc:9911|mtp:G|qry_typ:P|lang:en|wc:2|cs:7475|v=4,False,,Vadodara,", Vadodara - 391410, Dist.Vadodara, Gujarat",8069707328,534
Maternity Dress,,Arnav Creations,https://www.indiamart.com/arnavcreations/?pos=162&kwd=maternity clothing&tags=BB||||8752.144|Price|product|||NA|rsf:gd-|-qr_nm:gd|res:RC3|com-cf:nl|ptrs:na|ktp:N0|mc:9911|mtp:G|qry_typ:P|lang:en|wc:2|cs:7475|v=4,False,dwarka,New Delhi,"H.No-55, Block-P, 2 dwarka, dwarka, New Delhi - 110059, Dist.Delhi, Delhi",8069017096,634
Maternity Kurtis,,Shefu Botique,https://www.indiamart.com/shefu-botique/?pos=163&kwd=maternity clothing&tags=BA||||8601.347|Price|product|||NA|rsf:gd-|-qr_nm:gd|res:RC3|com-cf:nl|ptrs:na|ktp:N0|mc:9911|mtp:G|qry_typ:P|lang:en|wc:2|cs:7475|v=4,False,,Jaipur,"3105,Chandpole Bazar,Bagru Walo Ka Rasta,Jaipur,Jaipur, Jaipur - 302001, Dist.Jaipur, Rajasthan",8048370718,7712
Maternity Kurtis,,Sachan Creation,https://www.indiamart.com/sachan-creation-kanpur/?pos=164&kwd=maternity clothing&tags=BB||||8601.347|Price|product|||NA|rsf:gd-|-qr_nm:gd|res:RC3|com-cf:nl|ptrs:na|ktp:N0|mc:9911|mtp:G|qry_typ:P|lang:en|wc:2|cs:7475|v=4,False,,Jaipur,", Jaipur - 303905, Dist.Jaipur, Rajasthan",8045849744,667
Maternity Kurti,,Rishab Creation,https://www.indiamart.com/rishab-creation-jaipur/?pos=165&kwd=maternity clothing&tags=B||||8601.347||product|||NA|rsf:gd-|-qr_nm:gd|res:RC3|com-cf:nl|ptrs:na|ktp:N0|mc:9911|mtp:G|qry_typ:P|lang:en|wc:2|cs:7475|v=4,False,,Jaipur,"37-A,,PRATAP NAGAR, GOLIMAR GARDEN KE PICHHE, AMER ROAD, BRAHMPURI,Jaipur 37-A, PRATAP NAGAR, GOLIMAR GARDEN KE PICHHE, AMER ROAD, BRAHMPURI, Jaipur, Jaipur, Rajasthan, 3020, Jaipur - 302002, Dist.Jaipur, Rajasthan",8048370721,9932
Maternity Wear,,RDS Brand collection,https://www.indiamart.com/sdr-collection/?pos=166&kwd=maternity clothing&tags=BB||||8786.56|Price|product|||NA|rsf:gd-|-qr_nm:gd|res:RC3|com-cf:nl|ptrs:na|ktp:N0|mc:9911|mtp:G|qry_typ:P|lang:en|wc:2|cs:7475|v=4,False,Telangana-500037,Hyderabad,"H.no:4-35-61, venkateshwar Nagar, jagadgirigutta, Hyderabad, Telangana-500037, Hyderabad - 500037, Dist.Hyderabad, Telangana",8048371659,253
Maternity Gowns,,Lease A Look,https://www.indiamart.com/lease-a-look/?pos=167&kwd=maternity clothing&tags=BB||||8228.275|Price|product|||NA|rsf:gd-|-qr_nm:gd|res:RC3|com-cf:nl|ptrs:na|ktp:N0|mc:9911|mtp:G|qry_typ:P|lang:en|wc:2|cs:7475|v=4,False,..,Ahmedabad,"House No15 Panchvarti Society, .., Ahmedabad - 380006, Dist.Ahmedabad, Gujarat",8048249701,6434
Customized Maternity Wear,,News,https://www.indiamart.com/ms-news/?pos=168&kwd=maternity clothing&tags=BA||||9045.955||product|||NA|rsf:gd-|-qr_nm:gd|res:RC3|com-cf:nl|ptrs:na|ktp:N0|mc:9911|mtp:G|qry_typ:P|lang:en|wc:2|cs:7475|v=4,False,Kanpur Nagar,Kanpur,"14/123 A , Gopala Chamber Parade, Kanpur Nagar, Kanpur - 208001, Uttar Pradesh",7949371581,
Maternity Dresses,,Suz De' Monz,https://www.indiamart.com/dmb/?pos=169&kwd=maternity clothing&tags=BA||||8752.144||product|||NA|rsf:gd-|-qr_nm:gd|res:RC3|com-cf:nl|ptrs:na|ktp:N0|mc:9911|mtp:G|qry_typ:P|lang:en|wc:2|cs:7475|v=4,False,,New Delhi,"F/F WZ 30A Village Tihar, Near Samuday Bhawan, New Delhi - 110018, Dist.Delhi, Delhi",8048372303,376
Combo pink and green maternity kurti,,J.K Fashion,https://www.indiamart.com/jkfashion-158188227/?pos=170&kwd=maternity clothing&tags=B||||8601.347|Price|product|||NA|rsf:gd-|-qr_nm:gd|res:RC3|com-cf:nl|ptrs:na|ktp:N0|mc:9911|mtp:G|qry_typ:P|lang:en|wc:2|cs:7475|v=4,False,Sanganer,Jaipur,"01 Tejaji Ka Bada, Sanganer, Jaipur - 302029, Dist.Jaipur, Rajasthan",8048372671,498
Fabric,,Bhama Sales Corporation,https://www.indiamart.com/bhama-sales-corporation/?pos=171&kwd=maternity clothing&tags=BB||||8601.347|Price|product|||NA|rsf:gd-|-qr_nm:gd|res:RC3|com-cf:nl|ptrs:na|ktp:N0|mc:9911|mtp:G|qry_typ:P|lang:en|wc:2|cs:7475|v=4,False,,Jaipur,"PROFESSOR COLONY,PROFESSOR COLONY,,NEAR V.P. GIRLS COLLEGE 20/182, Kaveri Path, Mansarovar,302020,Jaipur, Jaipur - 302020, Dist.Jaipur, Rajasthan",8048371873,874
Meternity/ Feeding frock,,Vasthra Boutiq,https://www.indiamart.com/vasthra-boutiq/?pos=172&kwd=maternity clothing&tags=BB||||8542.848|Price|product|||NA|rsf:gd-|-qr_nm:gd|res:RC3|com-cf:nl|ptrs:na|ktp:N0|mc:9911|mtp:G|qry_typ:P|lang:en|wc:2|cs:7475|v=4,False,,Paravur,"3/153 Mla Padi Vadakkekara, Paravur - 683522, Dist.Ernakulam, Kerala",8069196729,150
Women Maternity Wear,,Identity Clothes,https://www.indiamart.com/identity-clothes/?pos=173&kwd=maternity clothing&tags=B||||8245.243|Price|product|||NA|rsf:gd-|-qr_nm:gd|res:RC3|com-cf:nl|ptrs:na|ktp:N0|mc:9911|mtp:G|qry_typ:P|lang:en|wc:2|cs:7475|v=4,False,,Ambarnath,"Shiv Ganga Nagar, Ambernath (E), Ambarnath - 421501, Dist.Thane, Maharashtra",8048265181,285
Maternity Dresses,,Ranjas Apparels,https://www.indiamart.com/ranjas-apparels/?pos=174&kwd=maternity clothing&tags=BB||||8488.448||product|||NA|rsf:gd-|-qr_nm:gd|res:RC3|com-cf:nl|ptrs:na|ktp:N0|mc:9911|mtp:G|qry_typ:P|lang:en|wc:2|cs:7475|v=4,False,Manjeri,Malappuram,"Manjeri, Karakkunnu, Manjeri, Malappuram - 676123, Dist.Malappuram, Kerala",8048247127,6681
Ladies Black Feeding Cotton Nightgown,https://www.indiamart.com/proddetail/ladies-black-feeding-cotton-nightgown-2851974738255.html?pos=175&kwd=maternity clothing&tags=||||8242.731|Price|product|||MDC|rsf:gd-|-qr_nm:gd|res:RC3|com-cf:nl|ptrs:na|ktp:N0|mc:9911|mtp:G|qry_typ:P|lang:en|wc:2|cs:7475|v=4,Shanaya Garments,https://www.indiamart.com/shanayagarments/?pos=175&kwd=maternity clothing&tags=||||8242.731|Price|product|||MDC|rsf:gd-|-qr_nm:gd|res:RC3|com-cf:nl|ptrs:na|ktp:N0|mc:9911|mtp:G|qry_typ:P|lang:en|wc:2|cs:7475|v=4,False,Ulhasnagar-5,Ulhasnagar,"BRK No. 2108, Shivaji Chawl No 01, Near Lalchakki, Ulhasnagar-5, Ulhasnagar - 421005, Dist.Thane, Maharashtra",8044460414,
"Regular New print Rayon Printed Fabric, Weight: 17, Width: 58",https://www.indiamart.com/proddetail/rayon-printed-fabric-23214177788.html?pos=176&kwd=maternity clothing&tags=||||8228.275|Price|product|||TS|rsf:gd-|-qr_nm:gd|res:RC3|com-cf:nl|ptrs:na|ktp:N0|mc:9911|mtp:G|qry_typ:P|lang:en|wc:2|cs:7475|v=4,Maa Sachiyay Fashion,https://www.maasachiyayfashion.com/?pos=176&kwd=maternity clothing&tags=||||8228.275|Price|product|||TS|rsf:gd-|-qr_nm:gd|res:RC3|com-cf:nl|ptrs:na|ktp:N0|mc:9911|mtp:G|qry_typ:P|lang:en|wc:2|cs:7475|v=4,False,Prem Darwaza,Ahmedabad,"D-32, 3rd Floor Sumel Business Park -4 Amdupura, Kalupur, Prem Darwaza, Ahmedabad - 380002, Dist.Ahmedabad, Gujarat",8048604630,
Momtobe Women's Rayon Teal Green Maternity Feeding Nursing Maternity Dress,https://www.indiamart.com/proddetail/momtobe-women-s-rayon-teal-green-maternity-feeding-nursing-maternity-dress-2853110315748.html?pos=177&kwd=maternity clothing&tags=||||8228.275|Price|product|||TS|rsf:gd-|-qr_nm:gd|res:RC3|com-cf:nl|ptrs:na|ktp:N0|mc:9911|mtp:G|qry_typ:P|lang:en|wc:2|cs:7475|v=4,K. Kushal Kumar,https://www.indiamart.com/kkushalkumar/?pos=177&kwd=maternity clothing&tags=||||8228.275|Price|product|||TS|rsf:gd-|-qr_nm:gd|res:RC3|com-cf:nl|ptrs:na|ktp:N0|mc:9911|mtp:G|qry_typ:P|lang:en|wc:2|cs:7475|v=4,False,Girdhar Nagar,Ahmedabad,"C Block, Fourth Floor Shop No. 413/A City Centre, Near Asarva Bridge, Idgah Road,Ahmedabad, Girdhar Nagar, Ahmedabad - 380016, Dist.Ahmedabad, Gujarat",7942702493,
Green XL 28 Cotton Feeding Nighties,https://www.indiamart.com/proddetail/xl-28-cotton-feeding-nighties-2853607874862.html?pos=178&kwd=maternity clothing&tags=||||8614.311|Price|product|||MDC|rsf:gd-|-qr_nm:gd|res:RC3|com-cf:nl|ptrs:na|ktp:N0|mc:9911|mtp:G|qry_typ:P|lang:en|wc:2|cs:7475|v=4,Kushi Nighties & Garments,https://www.indiamart.com/kushi-nighties-garments/?pos=178&kwd=maternity clothing&tags=||||8614.311|Price|product|||MDC|rsf:gd-|-qr_nm:gd|res:RC3|com-cf:nl|ptrs:na|ktp:N0|mc:9911|mtp:G|qry_typ:P|lang:en|wc:2|cs:7475|v=4,False,Padikkattupalli,Tenkasi,"2-11-51, Tenkasi-Madurai Main Road, Elathoor, Shengottai Tk, Padikkattupalli, Tenkasi - 627803, Dist.Tirunelveli, Tamil Nadu",8045165561,
"Cotton Printed 1509 Ladies Maternity Feeding Gown, Half Sleeve",https://www.indiamart.com/proddetail/1509-ladies-maternity-feeding-gown-26249231491.html?pos=179&kwd=maternity clothing&tags=||||8210.732|Price|product|||TS|rsf:gd-|-qr_nm:gd|res:RC3|com-cf:nl|ptrs:na|ktp:N0|mc:9911|mtp:G|qry_typ:P|lang:en|wc:2|cs:7475|v=4,M.K.Enterprises,https://www.ohlady.in/?pos=179&kwd=maternity clothing&tags=||||8210.732|Price|product|||TS|rsf:gd-|-qr_nm:gd|res:RC3|com-cf:nl|ptrs:na|ktp:N0|mc:9911|mtp:G|qry_typ:P|lang:en|wc:2|cs:7475|v=4,False,Kandivali West,Vasai,"Gala No-209, 2nd Second Floor, Shri Hari Industrial Estate Bldg No 2, Bilalpada, Vasai East,, Kandivali West, Vasai - 401208, Dist.Thane, Maharashtra",7942565560,
Half Sleeves Full length Ladies Feeding Dress,https://www.indiamart.com/proddetail/full-length-ladies-feeding-dress-21334296233.html?pos=180&kwd=maternity clothing&tags=||||8668.838|Price|product|||TS|rsf:gd-|-qr_nm:gd|res:RC3|com-cf:nl|ptrs:na|ktp:N0|mc:9911|mtp:G|qry_typ:P|lang:en|wc:2|cs:7475|v=4,Naveen Garments,https://www.indiamart.com/naveengarments-erode/?pos=180&kwd=maternity clothing&tags=||||8668.838|Price|product|||TS|rsf:gd-|-qr_nm:gd|res:RC3|com-cf:nl|ptrs:na|ktp:N0|mc:9911|mtp:G|qry_typ:P|lang:en|wc:2|cs:7475|v=4,False,Veerappanchatram,Erode,"73, Municipal Colony, Thiru Vee Ka Road, Veerappan Chattram, Veerappanchatram, Erode - 638004, Dist.Erode, Tamil Nadu",7942557239,
"Multicolor Three fourth sleeve Maternity Feeding Kurti, Size: XL",https://www.indiamart.com/proddetail/maternity-feeding-kurti-2852101534662.html?pos=181&kwd=maternity clothing&tags=||||8786.56|Price|product|||TS|rsf:gd-|-qr_nm:gd|res:RC3|com-cf:nl|ptrs:na|ktp:N0|mc:9911|mtp:G|qry_typ:P|lang:en|wc:2|cs:7475|v=4,Y. S. Traders,https://www.indiamart.com/ystraders/?pos=181&kwd=maternity clothing&tags=||||8786.56|Price|product|||TS|rsf:gd-|-qr_nm:gd|res:RC3|com-cf:nl|ptrs:na|ktp:N0|mc:9911|mtp:G|qry_typ:P|lang:en|wc:2|cs:7475|v=4,False,Pathar Gatti,Hyderabad,"Shop No. 8, 4th Floor, I Square Tower, Dewan Devdi, Charminar, Pathar Gatti, Hyderabad - 500002, Dist.Hyderabad, Telangana",8047633157,
Printed Rayon Ladies Maternity Night Gown,https://www.indiamart.com/proddetail/rayon-ladies-maternity-night-gown-2849146585948.html?pos=182&kwd=maternity clothing&tags=||||8228.275|Price|product|||TS|rsf:gd-|-qr_nm:gd|res:RC3|com-cf:nl|ptrs:na|ktp:N0|mc:9911|mtp:G|qry_typ:P|lang:en|wc:2|cs:7475|v=4,Simran Nightwear,https://www.indiamart.com/jai-adeshwar-textile/?pos=182&kwd=maternity clothing&tags=||||8228.275|Price|product|||TS|rsf:gd-|-qr_nm:gd|res:RC3|com-cf:nl|ptrs:na|ktp:N0|mc:9911|mtp:G|qry_typ:P|lang:en|wc:2|cs:7475|v=4,False,,Ahmedabad,"43/1/A/1, Bohra House Navneet Prakashan Building, Nr Uttam Dairy Sukhramnagar Rakhial, Ahmedabad - 380021, Dist.Ahmedabad, Gujarat",8047632003,
Rayon Fabric Rayon Printed Fabric,https://www.indiamart.com/proddetail/rayon-printed-fabric-20486366348.html?pos=183&kwd=maternity clothing&tags=||||8601.347|Price|product|||TS|rsf:gd-|-qr_nm:gd|res:RC3|com-cf:nl|ptrs:na|ktp:N0|mc:9911|mtp:G|qry_typ:P|lang:en|wc:2|cs:7475|v=4,Gopali Arts,https://www.gopaliarts.in/?pos=183&kwd=maternity clothing&tags=||||8601.347|Price|product|||TS|rsf:gd-|-qr_nm:gd|res:RC3|com-cf:nl|ptrs:na|ktp:N0|mc:9911|mtp:G|qry_typ:P|lang:en|wc:2|cs:7475|v=4,False,G1-652 Sitapura Phase-1,Jaipur,"G1-652, Sitapura Phase-1, G1-652 Sitapura Phase-1, Jaipur - 302022, Dist.Jaipur, Rajasthan",8048264082,
Liva Rayon Printed Fabric,https://www.indiamart.com/proddetail/liva-rayon-printed-fabric-2854588423333.html?pos=184&kwd=maternity clothing&tags=||||8228.275|Price|product|||TS|rsf:gd-|-qr_nm:gd|res:RC3|com-cf:nl|ptrs:na|ktp:N0|mc:9911|mtp:G|qry_typ:P|lang:en|wc:2|cs:7475|v=4,Shree Nakoda Bhairav Fab Tex,https://www.indiamart.com/shree-nakoda-bhairav-fabtex/?pos=184&kwd=maternity clothing&tags=||||8228.275|Price|product|||TS|rsf:gd-|-qr_nm:gd|res:RC3|com-cf:nl|ptrs:na|ktp:N0|mc:9911|mtp:G|qry_typ:P|lang:en|wc:2|cs:7475|v=4,False,Jahangirpura,Ahmedabad,"2nd Floor, E-213/ A, Prem Darwaja Road, Near Idgah Circle, City Center, Jahangirpura, Ahmedabad - 380016, Dist.Ahmedabad, Gujarat",8047306382,
Rayon Feeding Kurtis,https://www.indiamart.com/proddetail/feeding-kurtis-2853950315597.html?pos=185&kwd=maternity clothing&tags=||||8211.142|Price|product|||TS|rsf:gd-|-qr_nm:gd|res:RC3|com-cf:nl|ptrs:na|ktp:N0|mc:9911|mtp:G|qry_typ:P|lang:en|wc:2|cs:7475|v=4,Poonam Garment,https://www.indiamart.com/poonamgarment-mumbai/?pos=185&kwd=maternity clothing&tags=||||8211.142|Price|product|||TS|rsf:gd-|-qr_nm:gd|res:RC3|com-cf:nl|ptrs:na|ktp:N0|mc:9911|mtp:G|qry_typ:P|lang:en|wc:2|cs:7475|v=4,False,Bandra East,Mumbai,"Makrani Cross Galli, Room No. 78, Behram Nagar, A. K. Marg, Bandra - East, Mumbai Suburban, Bandra East, Mumbai - 400051, Dist.Mumbai, Maharashtra",8047847659,
"Multicolor Mother Feeding Nighties, Size: XXL",https://www.indiamart.com/proddetail/mother-feeding-nighties-2853205572030.html?pos=186&kwd=maternity clothing&tags=||||8228.275|Price|product|||TS|rsf:gd-|-qr_nm:gd|res:RC3|com-cf:nl|ptrs:na|ktp:N0|mc:9911|mtp:G|qry_typ:P|lang:en|wc:2|cs:7475|v=4,Janta Clothing Co.,https://www.indiamart.com/jantaclothingcompany/?pos=186&kwd=maternity clothing&tags=||||8228.275|Price|product|||TS|rsf:gd-|-qr_nm:gd|res:RC3|com-cf:nl|ptrs:na|ktp:N0|mc:9911|mtp:G|qry_typ:P|lang:en|wc:2|cs:7475|v=4,False,M D Marg,Ahmedabad,"Plot No. C 192, 2nd Floor, Behind Safal 2, M D Marg, Ahmedabad - 380022, Dist.Ahmedabad, Gujarat",8046044672,
"Printed Maternity Nightgowns, Multicolor",https://www.indiamart.com/proddetail/maternity-nightgowns-25690373955.html?pos=187&kwd=maternity clothing&tags=||||8228.275|Price|product|||TS|rsf:gd-|-qr_nm:gd|res:RC3|com-cf:nl|ptrs:na|ktp:N0|mc:9911|mtp:G|qry_typ:P|lang:en|wc:2|cs:7475|v=4,J.D.Fashion,https://www.indiamart.com/jd-fashion-gujarat/?pos=187&kwd=maternity clothing&tags=||||8228.275|Price|product|||TS|rsf:gd-|-qr_nm:gd|res:RC3|com-cf:nl|ptrs:na|ktp:N0|mc:9911|mtp:G|qry_typ:P|lang:en|wc:2|cs:7475|v=4,False,Vastral,Ahmedabad,"347,Maheshvari Nagar, Part 1 C.H.S., Rajvi Nagar Odhav, Vastral, Ahmedabad - 382415, Dist.Ahmedabad, Gujarat",8046061235,
Digital Printed Cotton Fabric For Kurtis,https://www.indiamart.com/proddetail/digital-printed-cotton-fabric-for-kurtis-2854492657573.html?pos=188&kwd=maternity clothing&tags=||||8230.883|Price|product|||MDC|rsf:gd-|-qr_nm:gd|res:RC3|com-cf:nl|ptrs:na|ktp:N0|mc:9911|mtp:G|qry_typ:P|lang:en|wc:2|cs:7475|v=4,7 Flowers,https://www.indiamart.com/7-flowers/?pos=188&kwd=maternity clothing&tags=||||8230.883|Price|product|||MDC|rsf:gd-|-qr_nm:gd|res:RC3|com-cf:nl|ptrs:na|ktp:N0|mc:9911|mtp:G|qry_typ:P|lang:en|wc:2|cs:7475|v=4,False,Beside Mama Dev Mandir,Surat,"Ground Floor, Plot No. 463, Bhagyodaya Industrial Estate, Aai Mata Road, Nr. Ratan Namkin, Punagam, Beside Mama Dev Mandir, Surat - 395010, Dist.Surat, Gujarat",8045738659,
3/4 Sleeve Feeding Kalamkari Anarkali Kurti,https://www.indiamart.com/proddetail/feeding-kalamkari-anarkali-kurti-2853647721797.html?pos=189&kwd=maternity clothing&tags=||||8668.838|Price|product|||MDC|rsf:gd-|-qr_nm:gd|res:RC3|com-cf:nl|ptrs:na|ktp:N0|mc:9911|mtp:G|qry_typ:P|lang:en|wc:2|cs:7475|v=4,Paris Hub,https://www.indiamart.com/paris-huberode/?pos=189&kwd=maternity clothing&tags=||||8668.838|Price|product|||MDC|rsf:gd-|-qr_nm:gd|res:RC3|com-cf:nl|ptrs:na|ktp:N0|mc:9911|mtp:G|qry_typ:P|lang:en|wc:2|cs:7475|v=4,False,Erode,Erode,"Shop No-1020, 220/12,Erode Textile Mall P Ltd, NH-7 Salem-Coimbatore High Way,Gangapuram, Chithode, Erode, Erode - 638102, Dist.Erode, Tamil Nadu",7949082067,
Maternity Photography Services,https://www.indiamart.com/proddetail/maternity-photography-services-25492535812.html?pos=190&kwd=maternity clothing&tags=CC||||8307.81||product|||TS|rsf:gd-|-qr_nm:gd|res:RC3|com-cf:nl|ptrs:na|ktp:N0|mc:9911|mtp:G|qry_typ:P|lang:en|wc:2|cs:7475|v=4,J. Cube Events,https://www.indiamart.com/jcubeevents/?pos=190&kwd=maternity clothing&tags=CC||||8307.81||product|||TS|rsf:gd-|-qr_nm:gd|res:RC3|com-cf:nl|ptrs:na|ktp:N0|mc:9911|mtp:G|qry_typ:P|lang:en|wc:2|cs:7475|v=4,False,Talwade,Pune,"Gat No. 166, Sahyog Nagar, Behind Gagangiri Math, Triveni Nagar Talwade Road, Talwade, Pune - 412114, Dist.Pune, Maharashtra",8048603158,
"Green Maternity Dress, Sleeves: Half Sleeve",https://www.indiamart.com/proddetail/maternity-dress-21374070062.html?pos=191&kwd=maternity clothing&tags=CC||||8741.812|Price|product|||TS|rsf:gd-|-qr_nm:gd|res:RC3|com-cf:nl|ptrs:na|ktp:N0|mc:9911|mtp:G|qry_typ:P|lang:en|wc:2|cs:7475|v=4,Apothecaries Sundries Mfg. Private Limited,https://www.ascoindia.com/?pos=191&kwd=maternity clothing&tags=CC||||8741.812|Price|product|||TS|rsf:gd-|-qr_nm:gd|res:RC3|com-cf:nl|ptrs:na|ktp:N0|mc:9911|mtp:G|qry_typ:P|lang:en|wc:2|cs:7475|v=4,True,Sector 18,Gurugram,"Plot No. 229, Udyog Vihar, Phase-IV, Sector 18, Gurugram - 122015, Dist.Gurgaon, Haryana",8048968234,
Printed Rayon Fabric,https://www.indiamart.com/proddetail/rayon-fabric-18201465933.html?pos=192&kwd=maternity clothing&tags=||||8211.142||product|||TS|rsf:gd-|-qr_nm:gd|res:RC3|com-cf:nl|ptrs:na|ktp:N0|mc:9911|mtp:G|qry_typ:P|lang:en|wc:2|cs:7475|v=4,Kiran Sons,https://www.indiamart.com/kiransons/?pos=192&kwd=maternity clothing&tags=||||8211.142||product|||TS|rsf:gd-|-qr_nm:gd|res:RC3|com-cf:nl|ptrs:na|ktp:N0|mc:9911|mtp:G|qry_typ:P|lang:en|wc:2|cs:7475|v=4,False,Kalbadevi,Mumbai,"C/O. J.K. Brothers, 25, Vithalwadi, Kalbadevi, Mumbai - 400002, Dist.Mumbai, Maharashtra",8047645351,
Cotton Ladies Feeding Nighty,https://www.indiamart.com/proddetail/ladies-feeding-nighty-22408935188.html?pos=193&kwd=maternity clothing&tags=||||8954.051|Price|product|||TS|rsf:gd-|-qr_nm:gd|res:RC3|com-cf:nl|ptrs:na|ktp:N0|mc:9911|mtp:G|qry_typ:P|lang:en|wc:2|cs:7475|v=4,Sai Collection,https://www.indiamart.com/saicollection-chennai/?pos=193&kwd=maternity clothing&tags=||||8954.051|Price|product|||TS|rsf:gd-|-qr_nm:gd|res:RC3|com-cf:nl|ptrs:na|ktp:N0|mc:9911|mtp:G|qry_typ:P|lang:en|wc:2|cs:7475|v=4,False,T Nagar,Chennai,"1st Floor,no 78/79 Shop- 2,pondy Bazzar,fathima Plaza,t Nagar, T Nagar, Chennai - 600017, Dist.Chennai, Tamil Nadu",8046039974,
Feeding Bra,https://www.indiamart.com/proddetail/feeding-bra-25522820188.html?pos=194&kwd=maternity clothing&tags=||||8211.142|Price|product|||TS|rsf:gd-|-qr_nm:gd|res:RC3|com-cf:nl|ptrs:na|ktp:N0|mc:9911|mtp:G|qry_typ:P|lang:en|wc:2|cs:7475|v=4,Bencomm,https://www.bollywoodlingerie.in/?pos=194&kwd=maternity clothing&tags=||||8211.142|Price|product|||TS|rsf:gd-|-qr_nm:gd|res:RC3|com-cf:nl|ptrs:na|ktp:N0|mc:9911|mtp:G|qry_typ:P|lang:en|wc:2|cs:7475|v=4,False,Ghatkopar East,Mumbai,"PAP-4, 1st Floor suchita Business Park, Station Road, Ghatkopar East, Mumbai - 400075, Dist.Mumbai, Maharashtra",8048958171,
Cotton Baby Feeding Gown,https://www.indiamart.com/proddetail/baby-feeding-gown-20190391848.html?pos=195&kwd=maternity clothing&tags=CC||||8601.347|Price|product|||TS|rsf:gd-|-qr_nm:gd|res:RC3|com-cf:nl|ptrs:na|ktp:N0|mc:9911|mtp:G|qry_typ:P|lang:en|wc:2|cs:7475|v=4,Global Enterprises,https://www.hospitalgarments.in/?pos=195&kwd=maternity clothing&tags=CC||||8601.347|Price|product|||TS|rsf:gd-|-qr_nm:gd|res:RC3|com-cf:nl|ptrs:na|ktp:N0|mc:9911|mtp:G|qry_typ:P|lang:en|wc:2|cs:7475|v=4,False,Mahapura,Jaipur,"Kachi Basti, Mahapura, Sanganer, Mahapura, Jaipur - 302026, Dist.Jaipur, Rajasthan",8046032418,
"Cotton Ladies Breast Feeding Maternity Nursing Top Bra, Plain",https://www.indiamart.com/proddetail/ladies-breast-feeding-maternity-nursing-top-bra-26067874162.html?pos=196&kwd=maternity clothing&tags=||||8752.144|Price|product|||TS|rsf:gd-|-qr_nm:gd|res:RC3|com-cf:nl|ptrs:na|ktp:N0|mc:9911|mtp:G|qry_typ:P|lang:en|wc:2|cs:7475|v=4,S S Enterprises,https://www.indiamart.com/s-sentpsdelhi/?pos=196&kwd=maternity clothing&tags=||||8752.144|Price|product|||TS|rsf:gd-|-qr_nm:gd|res:RC3|com-cf:nl|ptrs:na|ktp:N0|mc:9911|mtp:G|qry_typ:P|lang:en|wc:2|cs:7475|v=4,False,Najafgarh,New Delhi,"H.No-6A, First Floor, Pole No MDKC040, Kh No-4/13, Satyam Viahr Chanchal Park, Nangloi, Najafgarh, New Delhi - 110043, Dist.Delhi, Delhi",8048272871,
"Printed Rayon Feeding / maternity short nighty slip, Half Sleeve",https://www.indiamart.com/proddetail/rayon-feeding-maternity-short-nighty-slip-2853172983948.html?pos=197&kwd=maternity clothing&tags=||||8211.142|Price|product|||TS|rsf:gd-|-qr_nm:gd|res:RC3|com-cf:nl|ptrs:na|ktp:N0|mc:9911|mtp:G|qry_typ:P|lang:en|wc:2|cs:7475|v=4,Anmol Hosiery,https://www.indiamart.com/anmolhosiery/?pos=197&kwd=maternity clothing&tags=||||8211.142|Price|product|||TS|rsf:gd-|-qr_nm:gd|res:RC3|com-cf:nl|ptrs:na|ktp:N0|mc:9911|mtp:G|qry_typ:P|lang:en|wc:2|cs:7475|v=4,False,Borivali East,Mumbai,"24/173, Kuldeep Society, Borivali East, Borivali East, Mumbai - 400066, Dist.Mumbai, Maharashtra",8048987762,
Cotton Printed Ladies Maternity Nightgown,https://www.indiamart.com/proddetail/ladies-maternity-nightgown-2851840374730.html?pos=198&kwd=maternity clothing&tags=||||8717.056|Price|product|||TS|rsf:gd-|-qr_nm:gd|res:RC3|com-cf:nl|ptrs:na|ktp:N0|mc:9911|mtp:G|qry_typ:P|lang:en|wc:2|cs:7475|v=4,SKT Textile Service India Private Limited,https://www.textilemanufacturersintamilnadu.com/?pos=198&kwd=maternity clothing&tags=||||8717.056|Price|product|||TS|rsf:gd-|-qr_nm:gd|res:RC3|com-cf:nl|ptrs:na|ktp:N0|mc:9911|mtp:G|qry_typ:P|lang:en|wc:2|cs:7475|v=4,False,Vellalagundam,Salem,"RST Number 3/288, 343 South Land, Vellalagundam, Salem - 636111, Dist.Salem, Tamil Nadu",8047631524,
Cotton Feeding Kurtis,https://www.indiamart.com/proddetail/cotton-feeding-kurtis-24008204830.html?pos=199&kwd=maternity clothing&tags=||||8230.883|Price|product|||TS|rsf:gd-|-qr_nm:gd|res:RC3|com-cf:nl|ptrs:na|ktp:N0|mc:9911|mtp:G|qry_typ:P|lang:en|wc:2|cs:7475|v=4,The Clothes Villa,https://www.theclothesvilla.com/?pos=199&kwd=maternity clothing&tags=||||8230.883|Price|product|||TS|rsf:gd-|-qr_nm:gd|res:RC3|com-cf:nl|ptrs:na|ktp:N0|mc:9911|mtp:G|qry_typ:P|lang:en|wc:2|cs:7475|v=4,False,Meghdoot Society,Surat,"Plot 27, 2nd Floor, 44/2, Sumangal Prabhat Society, Meghdoot Society, Surat - 395001, Dist.Surat, Gujarat",7942562795,
"Hosiery Printed Ladies Maternity Nightgown, Red",https://www.indiamart.com/proddetail/ladies-maternity-nightgown-21541037648.html?pos=200&kwd=maternity clothing&tags=||||8228.275|Price|product|||TS|rsf:gd-|-qr_nm:gd|res:RC3|com-cf:nl|ptrs:na|ktp:N0|mc:9911|mtp:G|qry_typ:P|lang:en|wc:2|cs:7475|v=4,Ramdev Fabrics,https://www.indiamart.com/ramdevfabrics-ahmedabad/?pos=200&kwd=maternity clothing&tags=||||8228.275|Price|product|||TS|rsf:gd-|-qr_nm:gd|res:RC3|com-cf:nl|ptrs:na|ktp:N0|mc:9911|mtp:G|qry_typ:P|lang:en|wc:2|cs:7475|v=4,False,Odhav,Ahmedabad,"19, Krishna Chambers, Vihal Park Part 2, Opposite Maheshwari Nagar, Odhav, Ahmedabad - 382415, Dist.Ahmedabad, Gujarat",8047639305,
BLACK SKY PINK BLUE Feeding and during Maternity kurti,https://www.indiamart.com/proddetail/feeding-and-during-maternity-kurti-2849225359773.html?pos=201&kwd=maternity clothing&tags=||||8230.883|Price|product|||TS|rsf:gd-|-qr_nm:gd|res:RC3|com-cf:nl|ptrs:na|ktp:N0|mc:9911|mtp:G|qry_typ:P|lang:en|wc:2|cs:7475|v=4,Fab Zone,https://www.fabzonefab.com/?pos=201&kwd=maternity clothing&tags=||||8230.883|Price|product|||TS|rsf:gd-|-qr_nm:gd|res:RC3|com-cf:nl|ptrs:na|ktp:N0|mc:9911|mtp:G|qry_typ:P|lang:en|wc:2|cs:7475|v=4,True,Sharaddha Society,Surat,"102, Ugam Chamber, Sharaddha Society, Surat - 395006, Dist.Surat, Gujarat",8046073565,
"LUCKY HANDICRAFT Cotton Feeding Maternity Gown, Size: FREE",https://www.indiamart.com/proddetail/feeding-maternity-gown-2849551766997.html?pos=202&kwd=maternity clothing&tags=||||8601.347|Price|product|||TS|rsf:gd-|-qr_nm:gd|res:RC3|com-cf:nl|ptrs:na|ktp:N0|mc:9911|mtp:G|qry_typ:P|lang:en|wc:2|cs:7475|v=4,Lucky Handicraft,https://www.luckyhandicraft.in/?pos=202&kwd=maternity clothing&tags=||||8601.347|Price|product|||TS|rsf:gd-|-qr_nm:gd|res:RC3|com-cf:nl|ptrs:na|ktp:N0|mc:9911|mtp:G|qry_typ:P|lang:en|wc:2|cs:7475|v=4,False,Govind Nagar,Jaipur,"190, Govind Nagar East, Amer Road, Govind Nagar, Jaipur - 302002, Dist.Jaipur, Rajasthan",8046067577,
"Printed Ladies Navy Blue Cotton Feeding Gown, Three fourth sleeve",https://www.indiamart.com/proddetail/ladies-navy-blue-cotton-feeding-gown-2852884467897.html?pos=203&kwd=maternity clothing&tags=||||8601.347|Price|product|||TS|rsf:gd-|-qr_nm:gd|res:RC3|com-cf:nl|ptrs:na|ktp:N0|mc:9911|mtp:G|qry_typ:P|lang:en|wc:2|cs:7475|v=4,Mamta Fashion,https://www.indiamart.com/mamtafashion-jaipur/?pos=203&kwd=maternity clothing&tags=||||8601.347|Price|product|||TS|rsf:gd-|-qr_nm:gd|res:RC3|com-cf:nl|ptrs:na|ktp:N0|mc:9911|mtp:G|qry_typ:P|lang:en|wc:2|cs:7475|v=4,False,Kapoorawala,Jaipur,"Plot No-46, Sarita Vihar, Rampura Road , Gyanodaya Public School , Shankar Nagar Near Dev, Kapoorawala, Jaipur - 302029, Dist.Jaipur, Rajasthan",7942723523,
100% Organic Cotton Nursing Cloak/Mother Feeding Apron/Breastfeeding Maternity Cloak Cover,https://www.indiamart.com/proddetail/100-organic-cotton-nursing-cloak-mother-feeding-apron-breastfeeding-maternity-cloak-cover-20722746188.html?pos=204&kwd=maternity clothing&tags=||||8668.838|Price|product|||TS|rsf:gd-|-qr_nm:gd|res:RC3|com-cf:nl|ptrs:na|ktp:N0|mc:9911|mtp:G|qry_typ:P|lang:en|wc:2|cs:7475|v=4,Sri Kalyan Export Private Limited,https://www.firstinbabydress.com/?pos=204&kwd=maternity clothing&tags=||||8668.838|Price|product|||TS|rsf:gd-|-qr_nm:gd|res:RC3|com-cf:nl|ptrs:na|ktp:N0|mc:9911|mtp:G|qry_typ:P|lang:en|wc:2|cs:7475|v=4,False,Vilarasampatti,Erode,"192/4, Ishwarya Garden, Sengodampalayam, Villarasampatti Post, Erode,, Vilarasampatti, Erode - 638107, Dist.Erode, Tamil Nadu",8046030291,
Lycra Maternity Maxi Dress For Pregnant Women Deep V Neck Blue Pregnancy Dress Vestidos Clothing,https://www.indiamart.com/proddetail/lycra-maternity-maxi-dress-for-pregnant-women-deep-v-neck-blue-pregnancy-dress-vestidos-clothing-22627583788.html?pos=205&kwd=maternity clothing&tags=||||8752.144|Price|product|||TS|rsf:gd-|-qr_nm:gd|res:RC3|com-cf:nl|ptrs:na|ktp:N0|mc:9911|mtp:G|qry_typ:P|lang:en|wc:2|cs:7475|v=4,Fragrance Of India,https://www.tashitagye.com/?pos=205&kwd=maternity clothing&tags=||||8752.144|Price|product|||TS|rsf:gd-|-qr_nm:gd|res:RC3|com-cf:nl|ptrs:na|ktp:N0|mc:9911|mtp:G|qry_typ:P|lang:en|wc:2|cs:7475|v=4,False,Punjabi Bagh,New Delhi,"27/35 FIRST FLOOR NORTH AVENUE ROAD PUNJABI BAGH WEST, Punjabi Bagh, New Delhi - 110018, Dist.Delhi, Delhi",7942540330,
"Cotton Printed Mother Feeding Apron, Size: Medium",https://www.indiamart.com/proddetail/mother-feeding-apron-2851355862897.html?pos=206&kwd=maternity clothing&tags=CC||||8706.263|Price|product|||TS|rsf:gd-|-qr_nm:gd|res:RC3|com-cf:nl|ptrs:na|ktp:N0|mc:9911|mtp:G|qry_typ:P|lang:en|wc:2|cs:7475|v=4,Bowerbird Interios,https://www.organicfabricmanufacturer.com/?pos=206&kwd=maternity clothing&tags=CC||||8706.263|Price|product|||TS|rsf:gd-|-qr_nm:gd|res:RC3|com-cf:nl|ptrs:na|ktp:N0|mc:9911|mtp:G|qry_typ:P|lang:en|wc:2|cs:7475|v=4,False,Ramanujam Nagar,Karur,"1/137, Covai Road South, Ramanujam Nagar, Karur - 639002, Dist.Karur, Tamil Nadu",8048971552,
"Premium Soft Cotton Maternity with Feeding Gown, 3/4 Sleeve",https://www.indiamart.com/proddetail/premium-soft-cotton-maternity-with-feeding-gown-2851260816888.html?pos=207&kwd=maternity clothing&tags=||||8230.883|Price|product|||TS|rsf:gd-|-qr_nm:gd|res:RC3|com-cf:nl|ptrs:na|ktp:N0|mc:9911|mtp:G|qry_typ:P|lang:en|wc:2|cs:7475|v=4,Zenny Creation,https://www.zennycreation.com/?pos=207&kwd=maternity clothing&tags=||||8230.883|Price|product|||TS|rsf:gd-|-qr_nm:gd|res:RC3|com-cf:nl|ptrs:na|ktp:N0|mc:9911|mtp:G|qry_typ:P|lang:en|wc:2|cs:7475|v=4,False,Parvat,Surat,"6th Floor, Shop No. F-6047/A, Avadh Rituraj Textile Hub, Parvat Godadra Road, Brts Road, Parvat, Surat - 395010, Dist.Surat, Gujarat",8048978256,
Multicolor Half Sleeves Feeding Maternity Gown,https://www.indiamart.com/proddetail/feeding-maternity-gown-20399234573.html?pos=208&kwd=maternity clothing&tags=||||8752.144||product|||TS|rsf:gd-|-qr_nm:gd|res:RC3|com-cf:nl|ptrs:na|ktp:N0|mc:9911|mtp:G|qry_typ:P|lang:en|wc:2|cs:7475|v=4,Ara India,https://www.araindia.in/?pos=208&kwd=maternity clothing&tags=||||8752.144||product|||TS|rsf:gd-|-qr_nm:gd|res:RC3|com-cf:nl|ptrs:na|ktp:N0|mc:9911|mtp:G|qry_typ:P|lang:en|wc:2|cs:7475|v=4,True,Vikaspuri,New Delhi,"C-472, Ground Floor, Vikaspuri, New Delhi - 110018, Dist.Delhi, Delhi",8046049586,
Cotton Hosiery Plain Women Maroon Maternity/Nursing Non Padded Bra,https://www.indiamart.com/proddetail/women-maroon-maternity-nursing-non-padded-bra-2850595241630.html?pos=209&kwd=maternity clothing&tags=||||8752.144|Price|product|||TS|rsf:gd-|-qr_nm:gd|res:RC3|com-cf:nl|ptrs:na|ktp:N0|mc:9911|mtp:G|qry_typ:P|lang:en|wc:2|cs:7475|v=4,KSB Enterprises,https://www.indiamart.com/ksb-enterprises-newdelhi/?pos=209&kwd=maternity clothing&tags=||||8752.144|Price|product|||TS|rsf:gd-|-qr_nm:gd|res:RC3|com-cf:nl|ptrs:na|ktp:N0|mc:9911|mtp:G|qry_typ:P|lang:en|wc:2|cs:7475|v=4,False,Shastri Nagar,New Delhi,"House No 112, 1st Floor, Blk-Wz, Village Neemri, Shastri Nagar North West, Shastri Nagar, New Delhi - 110052, Dist.Delhi, Delhi",8043862416,
"Cotton Printed Maternity Ladies Feeding Gown, 3/4 Sleeve",https://www.indiamart.com/proddetail/maternity-ladies-feeding-gown-2850484386262.html?pos=210&kwd=maternity clothing&tags=||||8601.347|Price|product|||TS|rsf:gd-|-qr_nm:gd|res:RC3|com-cf:nl|ptrs:na|ktp:N0|mc:9911|mtp:G|qry_typ:P|lang:en|wc:2|cs:7475|v=4,Vinayak Vestures,https://www.vinayakvestures.com/?pos=210&kwd=maternity clothing&tags=||||8601.347|Price|product|||TS|rsf:gd-|-qr_nm:gd|res:RC3|com-cf:nl|ptrs:na|ktp:N0|mc:9911|mtp:G|qry_typ:P|lang:en|wc:2|cs:7475|v=4,False,Jhotwara,Jaipur,"39, MOTI NAGAR, JHOTWARA, Jhotwara, Jaipur - 302012, Dist.Jaipur, Rajasthan",8046044062,
