product_title,product_link,company_name,company_link,is_verified_exporter,city_region,city,address_details,phone_number,phone_number_extension
Party Wear Peach Feeding Maternity Pregnancy Kurti,https://www.indiamart.com/proddetail/feeding-maternity-pregnancy-kurti-10671795988.html?pos=1&kwd=maternity t shirt&tags=BA||||8601.347|Price|product|||TS|rsf:gd-|-stype:attr=1|qr_nm:gd|res:RC5|com-cf:nl|ptrs:na|ktp:N0|mc:68591|mtp:S|qry_typ:P|lang:en|wc:3|flavl:0|cs:9610|v=4,Jaipuri Bandhej,https://www.jaipuribandhej.net/?pos=1&kwd=maternity t shirt&tags=BA||||8601.347|Price|product|||TS|rsf:gd-|-stype:attr=1|qr_nm:gd|res:RC5|com-cf:nl|ptrs:na|ktp:N0|mc:68591|mtp:S|qry_typ:P|lang:en|wc:3|flavl:0|cs:9610|v=4,False,Vidhyadhar Nagar,Jaipur,"Laxmi Niwas, 42-A, Hans Vatika Naya Khera, Vidhyadhar Nagar, Vidhyadhar Nagar, Jaipur - 302039, Dist.Jaipur, Rajasthan",8048619795,
Black Casual Wear Maternity T Shirt,https://www.indiamart.com/proddetail/maternity-t-shirt-21840113062.html?pos=2&kwd=maternity t shirt&tags=A||||8230.883|Price|product|||TS|rsf:gd-|-stype:attr=1|qr_nm:gd|res:RC5|com-cf:nl|ptrs:na|ktp:N0|mc:68591|mtp:S|qry_typ:P|lang:en|wc:3|flavl:0|cs:9610|v=4,Harli Fashion,https://www.indiamart.com/harlifashion/?pos=2&kwd=maternity t shirt&tags=A||||8230.883|Price|product|||TS|rsf:gd-|-stype:attr=1|qr_nm:gd|res:RC5|com-cf:nl|ptrs:na|ktp:N0|mc:68591|mtp:S|qry_typ:P|lang:en|wc:3|flavl:0|cs:9610|v=4,False,Gadhpur Township,Surat,"27, Gadhpur Township, Pasodra, Kamrej, Gadhpur Township, Surat - 395006, Dist.Surat, Gujarat",8048265894,
Printed Feeding T Shirt,https://www.indiamart.com/proddetail/feeding-t-shirt-2853137709988.html?pos=3&kwd=maternity t shirt&tags=BA||||8626.744|Price|product|||TS|rsf:gd-|-stype:attr=1|qr_nm:gd|res:RC5|com-cf:nl|ptrs:na|ktp:N0|mc:68591|mtp:S|qry_typ:P|lang:en|wc:3|flavl:0|cs:9610|v=4,Rainbow Creations,https://www.indiamart.com/rainbowcreations/?pos=3&kwd=maternity t shirt&tags=BA||||8626.744|Price|product|||TS|rsf:gd-|-stype:attr=1|qr_nm:gd|res:RC5|com-cf:nl|ptrs:na|ktp:N0|mc:68591|mtp:S|qry_typ:P|lang:en|wc:3|flavl:0|cs:9610|v=4,False,Renganatha Puram,Tiruppur,"No. 7- 24, murugasamy layout 1street, Renganatha Puram, Tiruppur - 641607, Dist.Coimbatore, Tamil Nadu",8048955272,
Cotton Tetra Maternity Clothing,https://www.indiamart.com/proddetail/tetra-maternity-clothing-22158440230.html?pos=4&kwd=maternity t shirt&tags=BA||||8954.051|Price|product|||TS|rsf:gd-|-stype:attr=1|qr_nm:gd|res:RC5|com-cf:nl|ptrs:na|ktp:N0|mc:68591|mtp:S|qry_typ:P|lang:en|wc:3|flavl:0|cs:9610|v=4,Tetra Clothing,https://www.tetraclothing.in/?pos=4&kwd=maternity t shirt&tags=BA||||8954.051|Price|product|||TS|rsf:gd-|-stype:attr=1|qr_nm:gd|res:RC5|com-cf:nl|ptrs:na|ktp:N0|mc:68591|mtp:S|qry_typ:P|lang:en|wc:3|flavl:0|cs:9610|v=4,True,Gopichettipalaiyam,Chennai,"No. 59/28, Balu Building, Gopichettipalaiyam, Chennai - 638476, Dist.Chennai, Tamil Nadu",8048957951,
"Feeding T Shirts , Maternity T Shirts , Nursing Tops , Mother T Shirts",https://www.indiamart.com/proddetail/feeding-t-shirts-maternity-t-shirts-nursing-tops-mother-t-shirts-25121858088.html?pos=5&kwd=maternity t shirt&tags=BB||||8663.873|Price|product|||NA|rsf:gd-|-stype:attr=1|qr_nm:gd|res:RC5|com-cf:nl|ptrs:na|ktp:N0|mc:68591|mtp:S|qry_typ:P|lang:en|wc:3|flavl:0|cs:9610|v=4,Vasavi Stores,https://www.indiamart.com/vasavi-stores-bengaluru/?pos=5&kwd=maternity t shirt&tags=BB||||8663.873|Price|product|||NA|rsf:gd-|-stype:attr=1|qr_nm:gd|res:RC5|com-cf:nl|ptrs:na|ktp:N0|mc:68591|mtp:S|qry_typ:P|lang:en|wc:3|flavl:0|cs:9610|v=4,False,,Bengaluru,"Dubasipalya Kengeri, Bengaluru - 560059, Dist.Bengaluru, Karnataka",8043881728,
Plain Maternity T Shirt,https://www.indiamart.com/proddetail/maternity-t-shirt-2853256065233.html?pos=6&kwd=maternity t shirt&tags=BA||||8778.123|Price|product|||NA|rsf:gd-|-stype:attr=1|qr_nm:gd|res:RC5|com-cf:nl|ptrs:na|ktp:N0|mc:68591|mtp:S|qry_typ:P|lang:en|wc:3|flavl:0|cs:9610|v=4,Angloindu Fashion Private Limited,https://www.indiamart.com/angloindufashion/?pos=6&kwd=maternity t shirt&tags=BA||||8778.123|Price|product|||NA|rsf:gd-|-stype:attr=1|qr_nm:gd|res:RC5|com-cf:nl|ptrs:na|ktp:N0|mc:68591|mtp:S|qry_typ:P|lang:en|wc:3|flavl:0|cs:9610|v=4,False,,Noida,"Ground Floor F-69 Sector-41, Noida - 201303, Dist.Gautam Budh Nagar, Uttar Pradesh",7942830126,
"Maternity Blue T Shirt, Size: XL, Sleeves: Half Sleeve",https://www.indiamart.com/proddetail/maternity-blue-t-shirt-26119078062.html?pos=7&kwd=maternity t shirt&tags=BB||||8626.744|Price|product|||NA|rsf:gd-|-stype:attr=1|qr_nm:gd|res:RC5|com-cf:nl|ptrs:na|ktp:N0|mc:68591|mtp:S|qry_typ:P|lang:en|wc:3|flavl:0|cs:9610|v=4,Fabric Store,https://www.indiamart.com/fabricstore-tiruppur/?pos=7&kwd=maternity t shirt&tags=BB||||8626.744|Price|product|||NA|rsf:gd-|-stype:attr=1|qr_nm:gd|res:RC5|com-cf:nl|ptrs:na|ktp:N0|mc:68591|mtp:S|qry_typ:P|lang:en|wc:3|flavl:0|cs:9610|v=4,False,,Tiruppur,"8B, A.V.P Layout, 3rd Street,, Tiruppur - 641603, Dist.Coimbatore, Tamil Nadu",8043857522,
Plain Women Black Cotton Blend Maternity T Shirt,https://www.indiamart.com/proddetail/women-black-cotton-blend-maternity-t-shirt-2852962115997.html?pos=8&kwd=maternity t shirt&tags=BA||||8601.807|Price|product|||NA|rsf:gd-|-stype:attr=1|qr_nm:gd|res:RC5|com-cf:nl|ptrs:na|ktp:N0|mc:68591|mtp:S|qry_typ:P|lang:en|wc:3|flavl:0|cs:9610|v=4,Jasan Apparels,https://www.indiamart.com/jasan-apparels/?pos=8&kwd=maternity t shirt&tags=BA||||8601.807|Price|product|||NA|rsf:gd-|-stype:attr=1|qr_nm:gd|res:RC5|com-cf:nl|ptrs:na|ktp:N0|mc:68591|mtp:S|qry_typ:P|lang:en|wc:3|flavl:0|cs:9610|v=4,False,,Annur,"No.191A, 2nd Street, Kariyampalayam, Coimbatore, Annur - 641653, Dist.Coimbatore, Tamil Nadu",7942968179,
Printed T-Shirt for Women Mom to Be Half Sleeve T-Shirt Maternity Tshirt for Women,https://www.indiamart.com/proddetail/printed-t-shirt-for-women-mom-to-be-half-sleeve-t-shirt-maternity-tshirt-for-women-27371502197.html?pos=9&kwd=maternity t shirt&tags=BB||||8752.144|Price|product|||NA|rsf:gd-|-stype:attr=1|qr_nm:gd|res:RC5|com-cf:nl|ptrs:na|ktp:N0|mc:68591|mtp:S|qry_typ:P|lang:en|wc:3|flavl:0|cs:9610|v=4,IBerry's Lifestyle Private Limited,https://www.indiamart.com/iberryslifestyle/?pos=9&kwd=maternity t shirt&tags=BB||||8752.144|Price|product|||NA|rsf:gd-|-stype:attr=1|qr_nm:gd|res:RC5|com-cf:nl|ptrs:na|ktp:N0|mc:68591|mtp:S|qry_typ:P|lang:en|wc:3|flavl:0|cs:9610|v=4,False,,New Delhi,"11747/4, First Floor, Sat Nagar, Karol Bagh, Central Delhi, New Delhi - 110005, Dist.Delhi, Delhi",8047549711,
Maternity Wear,https://www.indiamart.com/proddetail/maternity-wear-2852611805862.html?pos=10&kwd=maternity t shirt&tags=||||8601.347|Price|product|||TS|rsf:gd-|-stype:attr=1|qr_nm:gd|res:RC5|com-cf:nl|ptrs:na|ktp:N0|mc:68591|mtp:S|qry_typ:P|lang:en|wc:3|flavl:0|cs:9610|v=4,Namokar Enterprises,https://www.indiamart.com/namokarenterprises/?pos=10&kwd=maternity t shirt&tags=||||8601.347|Price|product|||TS|rsf:gd-|-stype:attr=1|qr_nm:gd|res:RC5|com-cf:nl|ptrs:na|ktp:N0|mc:68591|mtp:S|qry_typ:P|lang:en|wc:3|flavl:0|cs:9610|v=4,False,Mansarovar,Jaipur,"119/67, Thadi Market, Agarwal Farm, Mansarovar, Mansarovar, Jaipur - 302020, Dist.Jaipur, Rajasthan",8047530717,
Maternity Feeding Kurti,https://www.indiamart.com/proddetail/maternity-feeding-kurti-2853568219630.html?pos=11&kwd=maternity t shirt&tags=||||8601.347|Price|product|||MDC|rsf:gd-|-stype:attr=1|qr_nm:gd|res:RC5|com-cf:nl|ptrs:na|ktp:N0|mc:68591|mtp:S|qry_typ:P|lang:en|wc:3|flavl:0|cs:9610|v=4,Runway Enterprises,https://www.indiamart.com/runwayenterprises/?pos=11&kwd=maternity t shirt&tags=||||8601.347|Price|product|||MDC|rsf:gd-|-stype:attr=1|qr_nm:gd|res:RC5|com-cf:nl|ptrs:na|ktp:N0|mc:68591|mtp:S|qry_typ:P|lang:en|wc:3|flavl:0|cs:9610|v=4,False,Jamna Puri,Jaipur,"Plot No 133, Benar Road, Scheme Shri Jorawar Nagar,, Jamna Puri, Jaipur - 302039, Dist.Jaipur, Rajasthan",7942718276,
Women Maternity Floor Length Party Gown,https://www.indiamart.com/proddetail/women-maternity-floor-length-party-gown-2853701187797.html?pos=12&kwd=maternity t shirt&tags=||||8752.144|Price|product|||MDC|rsf:gd-|-stype:attr=1|qr_nm:gd|res:RC5|com-cf:nl|ptrs:na|ktp:N0|mc:68591|mtp:S|qry_typ:P|lang:en|wc:3|flavl:0|cs:9610|v=4,Ekaavali,https://www.indiamart.com/ekaavali/?pos=12&kwd=maternity t shirt&tags=||||8752.144|Price|product|||MDC|rsf:gd-|-stype:attr=1|qr_nm:gd|res:RC5|com-cf:nl|ptrs:na|ktp:N0|mc:68591|mtp:S|qry_typ:P|lang:en|wc:3|flavl:0|cs:9610|v=4,False,Palam,New Delhi,"Flat No-263, Excellence Apartments, Sector 18A, Dwarka, Palam, New Delhi - 110075, Dist.Delhi, Delhi",7949095107,
Blue V Shape Printed Cotton Maternity Dress,https://www.indiamart.com/proddetail/blue-v-shape-printed-cotton-maternity-dress-2852958066391.html?pos=13&kwd=maternity t shirt&tags=CC||||8601.347|Price|product|||MDC|rsf:gd-|-stype:attr=1|qr_nm:gd|res:RC5|com-cf:nl|ptrs:na|ktp:N0|mc:68591|mtp:S|qry_typ:P|lang:en|wc:3|flavl:0|cs:9610|v=4,Z Creation,https://www.indiamart.com/z-creation-rajasthan/?pos=13&kwd=maternity t shirt&tags=CC||||8601.347|Price|product|||MDC|rsf:gd-|-stype:attr=1|qr_nm:gd|res:RC5|com-cf:nl|ptrs:na|ktp:N0|mc:68591|mtp:S|qry_typ:P|lang:en|wc:3|flavl:0|cs:9610|v=4,False,sanganer,Jaipur,"Plot No F16 Shop No F-09 & 10 Sidhi Vinayak Plaza, Chordiya Petrol Pump Sanganer, sanganer, Jaipur - 302029, Dist.Jaipur, Rajasthan",7942962509,
Womens Maternity Tshirt-plain,https://www.indiamart.com/proddetail/womens-maternity-tshirt-plain-2849581058173.html?pos=14&kwd=maternity t shirt&tags=CC||||8211.142|Price|product|||MDC|rsf:gd-|-stype:attr=1|qr_nm:gd|res:RC5|com-cf:nl|ptrs:na|ktp:N0|mc:68591|mtp:S|qry_typ:P|lang:en|wc:3|flavl:0|cs:9610|v=4,Enthopia,https://www.indiamart.com/enthopia-mumbai/?pos=14&kwd=maternity t shirt&tags=CC||||8211.142|Price|product|||MDC|rsf:gd-|-stype:attr=1|qr_nm:gd|res:RC5|com-cf:nl|ptrs:na|ktp:N0|mc:68591|mtp:S|qry_typ:P|lang:en|wc:3|flavl:0|cs:9610|v=4,False,Santacruz East,Mumbai,"Govind Sagar, Building No. 2, Unit No. 12, 3rd Floor, Plot No. 176 CST Road, Kalina, Santacruz East, Santacruz East, Mumbai - 400029, Dist.Mumbai, Maharashtra",,
"Multicolor Three fourth sleeve Maternity Feeding Kurti, Size: XL",https://www.indiamart.com/proddetail/maternity-feeding-kurti-2852101534662.html?pos=15&kwd=maternity t shirt&tags=||||8786.56|Price|product|||TS|rsf:gd-|-stype:attr=1|qr_nm:gd|res:RC5|com-cf:nl|ptrs:na|ktp:N0|mc:68591|mtp:S|qry_typ:P|lang:en|wc:3|cs:8847|v=4,Y. S. Traders,https://www.indiamart.com/ystraders/?pos=15&kwd=maternity t shirt&tags=||||8786.56|Price|product|||TS|rsf:gd-|-stype:attr=1|qr_nm:gd|res:RC5|com-cf:nl|ptrs:na|ktp:N0|mc:68591|mtp:S|qry_typ:P|lang:en|wc:3|cs:8847|v=4,False,Pathar Gatti,Hyderabad,"Shop No. 8, 4th Floor, I Square Tower, Dewan Devdi, Charminar, Pathar Gatti, Hyderabad - 500002, Dist.Hyderabad, Telangana",8047633157,
Kimono Sleeve Indigo Blue Shibori Dyed Ladies Kaftan,https://www.indiamart.com/proddetail/shibori-dyed-ladies-kaftan-20434554491.html?pos=16&kwd=maternity t shirt&tags=||||8601.347|Price|product|||TS|rsf:gd-|-stype:attr=1|qr_nm:gd|res:RC5|com-cf:nl|ptrs:na|ktp:N0|mc:68591|mtp:S|qry_typ:P|lang:en|wc:3|cs:8847|v=4,Gopali Arts,https://www.gopaliarts.in/?pos=16&kwd=maternity t shirt&tags=||||8601.347|Price|product|||TS|rsf:gd-|-stype:attr=1|qr_nm:gd|res:RC5|com-cf:nl|ptrs:na|ktp:N0|mc:68591|mtp:S|qry_typ:P|lang:en|wc:3|cs:8847|v=4,False,G1-652 Sitapura Phase-1,Jaipur,"G1-652, Sitapura Phase-1, G1-652 Sitapura Phase-1, Jaipur - 302022, Dist.Jaipur, Rajasthan",8048264082,
Maternity Feeding Kurti,https://www.indiamart.com/proddetail/maternity-feeding-kurti-2852427897312.html?pos=17&kwd=maternity t shirt&tags=||||8601.347|Price|product|||TS|rsf:gd-|-stype:attr=1|qr_nm:gd|res:RC5|com-cf:nl|ptrs:na|ktp:N0|mc:68591|mtp:S|qry_typ:P|lang:en|wc:3|cs:8847|v=4,Luxury Fashion,https://www.indiamart.com/luxury-fashion/?pos=17&kwd=maternity t shirt&tags=||||8601.347|Price|product|||TS|rsf:gd-|-stype:attr=1|qr_nm:gd|res:RC5|com-cf:nl|ptrs:na|ktp:N0|mc:68591|mtp:S|qry_typ:P|lang:en|wc:3|cs:8847|v=4,False,Sanganer Bazar,Jaipur,"Plot No 13, Suraj Nagar, Dadabadi, Sanganer,, Sanganer Bazar, Jaipur - 302029, Dist.Jaipur, Rajasthan",7942707166,
Maternity gown on rental,https://www.indiamart.com/proddetail/maternity-gown-on-rental-26265013148.html?pos=18&kwd=maternity t shirt&tags=||||8228.275|Price|product|||TS|rsf:gd-|-stype:attr=1|qr_nm:gd|res:RC5|com-cf:nl|ptrs:na|ktp:N0|mc:68591|mtp:S|qry_typ:P|lang:en|wc:3|cs:8847|v=4,Kashmira Communication,https://www.indiamart.com/kashmiracommunication/?pos=18&kwd=maternity t shirt&tags=||||8228.275|Price|product|||TS|rsf:gd-|-stype:attr=1|qr_nm:gd|res:RC5|com-cf:nl|ptrs:na|ktp:N0|mc:68591|mtp:S|qry_typ:P|lang:en|wc:3|cs:8847|v=4,False,Isanpur,Ahmedabad,"21 Near Rajeshwari Soc Vishwasnagar Society Isanpur Jawahar Chowk, Isanpur, Ahmedabad - 382443, Dist.Ahmedabad, Gujarat",7942551704,
Maternity Tunic,https://www.indiamart.com/proddetail/maternity-tunic-2853904313048.html?pos=19&kwd=maternity t shirt&tags=||||8687.934|Price|product|||TS|rsf:gd-|-stype:attr=1|qr_nm:gd|res:RC5|com-cf:nl|ptrs:na|ktp:N0|mc:68591|mtp:S|qry_typ:P|lang:en|wc:3|cs:8847|v=4,Shree Fashions,https://www.indiamart.com/jbr-vesture/?pos=19&kwd=maternity t shirt&tags=||||8687.934|Price|product|||TS|rsf:gd-|-stype:attr=1|qr_nm:gd|res:RC5|com-cf:nl|ptrs:na|ktp:N0|mc:68591|mtp:S|qry_typ:P|lang:en|wc:3|cs:8847|v=4,False,Rajapalaiyam,Virudhunagar,"2/126B4, Teachers Colony, Chettiarpatti, Rajapalaiyam, Virudhunagar - 626188, Dist.Virudhunagar, Tamil Nadu",7942870856,
Maternity Gown On Rent,https://www.indiamart.com/proddetail/maternity-gown-on-rent-2850596011712.html?pos=20&kwd=maternity t shirt&tags=||||8228.275|Price|product|||TS|rsf:gd-|-stype:attr=1|qr_nm:gd|res:RC5|com-cf:nl|ptrs:na|ktp:N0|mc:68591|mtp:S|qry_typ:P|lang:en|wc:3|cs:8847|v=4,Gitanjali Enterprise,https://www.indiamart.com/gitanjali-enterprise-ahmedabad/?pos=20&kwd=maternity t shirt&tags=||||8228.275|Price|product|||TS|rsf:gd-|-stype:attr=1|qr_nm:gd|res:RC5|com-cf:nl|ptrs:na|ktp:N0|mc:68591|mtp:S|qry_typ:P|lang:en|wc:3|cs:8847|v=4,False,Isanpur,Ahmedabad,"Near Jognimata Temple, Isanpur Gam, Isanpur, Isanpur, Ahmedabad - 382443, Dist.Ahmedabad, Gujarat",8047640750,
Maroon Women Maternity Wear,https://www.indiamart.com/proddetail/women-maternity-wear-2851270248055.html?pos=21&kwd=maternity t shirt&tags=||||8601.347|Price|product|||TS|rsf:gd-|-stype:attr=1|qr_nm:gd|res:RC5|com-cf:nl|ptrs:na|ktp:N0|mc:68591|mtp:S|qry_typ:P|lang:en|wc:3|cs:8847|v=4,Hkf Jaipur Industries Private Limited,https://www.hkfjaipurindustries.com/?pos=21&kwd=maternity t shirt&tags=||||8601.347|Price|product|||TS|rsf:gd-|-stype:attr=1|qr_nm:gd|res:RC5|com-cf:nl|ptrs:na|ktp:N0|mc:68591|mtp:S|qry_typ:P|lang:en|wc:3|cs:8847|v=4,False,Sanganer Shri Rampura,Jaipur,"PLOT NO. 72, 1ST FLOOR, GOPI NAGAR, RAILWAY STATION ROAD,, Sanganer Shri Rampura, Jaipur - 302029, Dist.Jaipur, Rajasthan",8047674124,
Maternity Clothing Manufacturers,https://www.indiamart.com/proddetail/maternity-clothing-manufacturers-2850412773497.html?pos=22&kwd=maternity t shirt&tags=||||8601.347|Price|product|||TS|rsf:gd-|-stype:attr=1|qr_nm:gd|res:RC5|com-cf:nl|ptrs:na|ktp:N0|mc:68591|mtp:S|qry_typ:P|lang:en|wc:3|cs:8847|v=4,Tanishi Crafts,https://www.tanishicrafts.com/?pos=22&kwd=maternity t shirt&tags=||||8601.347|Price|product|||TS|rsf:gd-|-stype:attr=1|qr_nm:gd|res:RC5|com-cf:nl|ptrs:na|ktp:N0|mc:68591|mtp:S|qry_typ:P|lang:en|wc:3|cs:8847|v=4,False,Jaipur,Jaipur,"Bani Park, F-61 Sindhi Colony, Jaipur, Iti Sanstha Ke Piche, Sindhi Colony, Jaipur, Jaipur - 302016, Dist.Jaipur, Rajasthan",8047622196,
Causal Janasya Women's Yellow Cotton Floral Fit & Flare Maternity Dress,https://www.indiamart.com/proddetail/janasya-women-s-yellow-cotton-floral-fit-flare-maternity-dress-23971943397.html?pos=23&kwd=maternity t shirt&tags=||||8230.883|Price|product|||TS|rsf:gd-|-stype:attr=1|qr_nm:gd|res:RC5|com-cf:nl|ptrs:na|ktp:N0|mc:68591|mtp:S|qry_typ:P|lang:en|wc:3|cs:8847|v=4,Thread Bucket Studio LLP,https://www.threadbucketstudio.in/?pos=23&kwd=maternity t shirt&tags=||||8230.883|Price|product|||TS|rsf:gd-|-stype:attr=1|qr_nm:gd|res:RC5|com-cf:nl|ptrs:na|ktp:N0|mc:68591|mtp:S|qry_typ:P|lang:en|wc:3|cs:8847|v=4,False,Udhna,Surat,"A-15/4 Road No. 8, Udhna, Surat - 394210, Dist.Surat, Gujarat",8046052440,
Maternity Tunic,https://www.indiamart.com/proddetail/maternity-tunic-2851959569262.html?pos=24&kwd=maternity t shirt&tags=||||8559.269|Price|product|||TS|rsf:gd-|-stype:attr=1|qr_nm:gd|res:RC5|com-cf:nl|ptrs:na|ktp:N0|mc:68591|mtp:S|qry_typ:P|lang:en|wc:3|cs:8847|v=4,Nirmala Overseas,https://www.nirmalaoverseas.com/?pos=24&kwd=maternity t shirt&tags=||||8559.269|Price|product|||TS|rsf:gd-|-stype:attr=1|qr_nm:gd|res:RC5|com-cf:nl|ptrs:na|ktp:N0|mc:68591|mtp:S|qry_typ:P|lang:en|wc:3|cs:8847|v=4,False,Jaora Compound,Indore,"No. 56, Jaora Compound, Jaora Compound, Indore - 452001, Dist.Indore, Madhya Pradesh",8047300753,
Green Cotton Printed A-Line Maternity Tunic,https://www.indiamart.com/proddetail/green-cotton-printed-a-line-maternity-tunic-2854534717497.html?pos=25&kwd=maternity t shirt&tags=||||8752.144|Price|product|||MDC|rsf:gd-|-stype:attr=1|qr_nm:gd|res:RC5|com-cf:nl|ptrs:na|ktp:N0|mc:68591|mtp:S|qry_typ:P|lang:en|wc:3|cs:8847|v=4,Siyaram Enterprises,https://www.indiamart.com/siyaram-enterprises-newdelhi/?pos=25&kwd=maternity t shirt&tags=||||8752.144|Price|product|||MDC|rsf:gd-|-stype:attr=1|qr_nm:gd|res:RC5|com-cf:nl|ptrs:na|ktp:N0|mc:68591|mtp:S|qry_typ:P|lang:en|wc:3|cs:8847|v=4,False,,New Delhi,"76-D, A PKT, Third Floor Vikas Puri EXTN, West Delhi, New Delhi - 110018, Dist.Delhi, Delhi",8045737683,
Maternity gowns,https://www.indiamart.com/proddetail/maternity-gowns-2851742340073.html?pos=26&kwd=maternity t shirt&tags=||||8601.347|Price|product|||TS|rsf:gd-|-stype:attr=1|qr_nm:gd|res:RC5|com-cf:nl|ptrs:na|ktp:N0|mc:68591|mtp:S|qry_typ:P|lang:en|wc:3|cs:8847|v=4,Sana Crafts,https://www.sanacrafts.com/?pos=26&kwd=maternity t shirt&tags=||||8601.347|Price|product|||TS|rsf:gd-|-stype:attr=1|qr_nm:gd|res:RC5|com-cf:nl|ptrs:na|ktp:N0|mc:68591|mtp:S|qry_typ:P|lang:en|wc:3|cs:8847|v=4,True,Sanganer Bazar,Jaipur,"14 Ganga Vihar, Sanganer, Sanganer Bazar, Jaipur - 302029, Dist.Jaipur, Rajasthan",7942543419,
"Plain Maternity Gowns, Handwash",https://www.indiamart.com/proddetail/maternity-gowns-22553628797.html?pos=27&kwd=maternity t shirt&tags=||||8791.36|Price|product|||TS|rsf:gd-|-stype:attr=1|qr_nm:gd|res:RC5|com-cf:nl|ptrs:na|ktp:N0|mc:68591|mtp:S|qry_typ:P|lang:en|wc:3|cs:8847|v=4,M.S. Textiles,https://www.indiamart.com/m-s-textiles/?pos=27&kwd=maternity t shirt&tags=||||8791.36|Price|product|||TS|rsf:gd-|-stype:attr=1|qr_nm:gd|res:RC5|com-cf:nl|ptrs:na|ktp:N0|mc:68591|mtp:S|qry_typ:P|lang:en|wc:3|cs:8847|v=4,False,Mohammadpur Dwedha,Muradnagar,"Agrasen Market, Mohammadpur Dwedha, Muradnagar - 201206, Dist.Ghaziabad, Uttar Pradesh",8048953200,
Lycra Maternity Maxi Dress For Pregnant Women Deep V Neck Blue Pregnancy Dress Vestidos Clothing,https://www.indiamart.com/proddetail/lycra-maternity-maxi-dress-for-pregnant-women-deep-v-neck-blue-pregnancy-dress-vestidos-clothing-22627583788.html?pos=28&kwd=maternity t shirt&tags=||||8752.144|Price|product|||TS|rsf:gd-|-stype:attr=1|qr_nm:gd|res:RC5|com-cf:nl|ptrs:na|ktp:N0|mc:68591|mtp:S|qry_typ:P|lang:en|wc:3|cs:8847|v=4,Fragrance Of India,https://www.tashitagye.com/?pos=28&kwd=maternity t shirt&tags=||||8752.144|Price|product|||TS|rsf:gd-|-stype:attr=1|qr_nm:gd|res:RC5|com-cf:nl|ptrs:na|ktp:N0|mc:68591|mtp:S|qry_typ:P|lang:en|wc:3|cs:8847|v=4,False,Punjabi Bagh,New Delhi,"27/35 FIRST FLOOR NORTH AVENUE ROAD PUNJABI BAGH WEST, Punjabi Bagh, New Delhi - 110018, Dist.Delhi, Delhi",7942540330,
American feeding Maternity Tunic,https://www.indiamart.com/proddetail/american-feeding-maternity-tunic-2852625433588.html?pos=29&kwd=maternity t shirt&tags=||||8601.347|Price|product|||TS|rsf:gd-|-stype:attr=1|qr_nm:gd|res:RC5|com-cf:nl|ptrs:na|ktp:N0|mc:68591|mtp:S|qry_typ:P|lang:en|wc:3|cs:8847|v=4,Prince Enterprises,https://www.indiamart.com/princeenterprisesjaipur/?pos=29&kwd=maternity t shirt&tags=||||8601.347|Price|product|||TS|rsf:gd-|-stype:attr=1|qr_nm:gd|res:RC5|com-cf:nl|ptrs:na|ktp:N0|mc:68591|mtp:S|qry_typ:P|lang:en|wc:3|cs:8847|v=4,False,Mansarovar,Jaipur,"115/137 Agarwal Farm,mansarovar, Mansarovar, Jaipur - 302020, Dist.Jaipur, Rajasthan",8048963229,
"Printed Women Peach One Piece Jacket Set, Casual Wear",https://www.indiamart.com/proddetail/women-peach-one-piece-jacket-set-2852689393230.html?pos=30&kwd=maternity t shirt&tags=||||8601.347|Price|product|||MDC|rsf:gd-|-stype:attr=1|qr_nm:gd|res:RC5|com-cf:nl|ptrs:na|ktp:N0|mc:68591|mtp:S|qry_typ:P|lang:en|wc:3|cs:8847|v=4,Sheffali,https://www.indiamart.com/sheffali/?pos=30&kwd=maternity t shirt&tags=||||8601.347|Price|product|||MDC|rsf:gd-|-stype:attr=1|qr_nm:gd|res:RC5|com-cf:nl|ptrs:na|ktp:N0|mc:68591|mtp:S|qry_typ:P|lang:en|wc:3|cs:8847|v=4,False,Ajmer Road,Jaipur,"C-61, Opp. Kabra Eye Hospital, Jamna Nagar, Sodala, Ajmer Road, Jaipur - 302006, Dist.Jaipur, Rajasthan",7942720926,
Maternity Dress,https://www.indiamart.com/proddetail/maternity-dress-2853877883573.html?pos=31&kwd=maternity t shirt&tags=||||8626.744|Price|product|||MDC|rsf:gd-|-stype:attr=1|qr_nm:gd|res:RC5|com-cf:nl|ptrs:na|ktp:N0|mc:68591|mtp:S|qry_typ:P|lang:en|wc:3|cs:8847|v=4,Elshada Clothing,https://www.indiamart.com/elshada-clothing-tiruppur/?pos=31&kwd=maternity t shirt&tags=||||8626.744|Price|product|||MDC|rsf:gd-|-stype:attr=1|qr_nm:gd|res:RC5|com-cf:nl|ptrs:na|ktp:N0|mc:68591|mtp:S|qry_typ:P|lang:en|wc:3|cs:8847|v=4,False,Padmavathi Puram,Tiruppur,"105A Ashar Mill Labour Colony, Padmavathipuram, Padmavathi Puram, Tiruppur - 641603, Dist.Coimbatore, Tamil Nadu",7942720305,
Maternity & Nursing Cotton Zip T-Shirt & Top For Women - Plus Size (XL-5XL),https://www.indiamart.com/proddetail/maternity-nursing-cotton-zip-t-shirt-top-for-women-plus-size-xl-5xl-2854948568755.html?pos=32&kwd=maternity t shirt&tags=||||8230.883|Price|product|||TS|rsf:gd-|-stype:attr=1|qr_nm:gd|res:RC5|com-cf:nl|ptrs:na|ktp:N0|mc:68591|mtp:S|qry_typ:P|lang:en|wc:3|cs:8847|v=4,Reeva Trading,https://www.indiamart.com/reeva-trading/?pos=32&kwd=maternity t shirt&tags=||||8230.883|Price|product|||TS|rsf:gd-|-stype:attr=1|qr_nm:gd|res:RC5|com-cf:nl|ptrs:na|ktp:N0|mc:68591|mtp:S|qry_typ:P|lang:en|wc:3|cs:8847|v=4,False,Varachha,Surat,"Ground Floor Plot No.15/b Opp.spining Mill Laxman Nagar Society, Varachha, Surat - 395006, Dist.Surat, Gujarat",7949226593,
Full Sleeve Round Ladies Trendy T-Shirt,https://www.indiamart.com/proddetail/ladies-trendy-t-shirt-20382185130.html?pos=33&kwd=maternity t shirt&tags=||||8230.883|Price|product|||TS|rsf:gd-|-stype:attr=1|qr_nm:gd|res:RC5|com-cf:nl|ptrs:na|ktp:N0|mc:68591|mtp:S|qry_typ:P|lang:en|wc:3|cs:8847|v=4,Zepsy Life Style,https://www.indiamart.com/zepsylifestyle/?pos=33&kwd=maternity t shirt&tags=||||8230.883|Price|product|||TS|rsf:gd-|-stype:attr=1|qr_nm:gd|res:RC5|com-cf:nl|ptrs:na|ktp:N0|mc:68591|mtp:S|qry_typ:P|lang:en|wc:3|cs:8847|v=4,False,Ambika Park Society,Surat,"A-305, Priyanka Intercity, Opp. Bhaktidham Puna Patiya, Ambika Park Society, Surat - 395006, Dist.Surat, Gujarat",8047635239,
"Half Sleeve Ladies T Shirt, Casual Wear",https://www.indiamart.com/proddetail/ladies-t-shirt-26745394812.html?pos=34&kwd=maternity t shirt&tags=||||8626.744||product|||TS|rsf:gd-|-stype:attr=1|qr_nm:gd|res:RC5|com-cf:nl|ptrs:na|ktp:N0|mc:68591|mtp:S|qry_typ:P|lang:en|wc:3|cs:8847|v=4,Osho Creation,https://www.indiamart.com/oshocreation/?pos=34&kwd=maternity t shirt&tags=||||8626.744||product|||TS|rsf:gd-|-stype:attr=1|qr_nm:gd|res:RC5|com-cf:nl|ptrs:na|ktp:N0|mc:68591|mtp:S|qry_typ:P|lang:en|wc:3|cs:8847|v=4,False,Padmavathi Puram,Tiruppur,"36,1,,FIRST FLOOR,M.G.R NAGAR,2ND STREET,P.N ROAD,TIRUPUR, Padmavathi Puram, Tiruppur - 641602, Dist.Coimbatore, Tamil Nadu",8048266138,
Cotton T Shirt,https://www.indiamart.com/proddetail/cotton-t-shirt-23931194230.html?pos=35&kwd=maternity t shirt&tags=||||9045.955|Price|product|||TS|rsf:gd-|-stype:attr=1|qr_nm:gd|res:RC5|com-cf:nl|ptrs:na|ktp:N0|mc:68591|mtp:S|qry_typ:P|lang:en|wc:3|cs:8847|v=4,Manmauzee Craze Products (Opc) Private Limited,https://www.indiamart.com/manmauzeecrazeproducts/?pos=35&kwd=maternity t shirt&tags=||||9045.955|Price|product|||TS|rsf:gd-|-stype:attr=1|qr_nm:gd|res:RC5|com-cf:nl|ptrs:na|ktp:N0|mc:68591|mtp:S|qry_typ:P|lang:en|wc:3|cs:8847|v=4,False,Barra,Kanpur,"0, Sachendi, Kanpur Nagar, Barra, Kanpur - 209304, Uttar Pradesh",8047531352,
"Half Sleeve Ladies Designer T Shirt, Daily Wear, Printed",https://www.indiamart.com/proddetail/ladies-designer-t-shirt-2851068935948.html?pos=36&kwd=maternity t shirt&tags=||||8230.883|Price|product|||TS|rsf:gd-|-stype:attr=1|qr_nm:gd|res:RC5|com-cf:nl|ptrs:na|ktp:N0|mc:68591|mtp:S|qry_typ:P|lang:en|wc:3|cs:8847|v=4,Ofira Fashion,https://www.indiamart.com/ofirafashion/?pos=36&kwd=maternity t shirt&tags=||||8230.883|Price|product|||TS|rsf:gd-|-stype:attr=1|qr_nm:gd|res:RC5|com-cf:nl|ptrs:na|ktp:N0|mc:68591|mtp:S|qry_typ:P|lang:en|wc:3|cs:8847|v=4,False,Mota Varachha,Surat,"321, Tulsi Arcade, Near Community hall, Sudama Chowk, Surat - 394101., Mota Varachha, Surat - 394101, Dist.Surat, Gujarat",8047634446,
"Multicolor Sleepwear Ladies Feeding Night Shirt, Free Size",https://www.indiamart.com/proddetail/ladies-feeding-night-shirt-23019673588.html?pos=37&kwd=maternity t shirt&tags=||||8601.347|Price|product|||TS|rsf:gd-|-stype:attr=1|qr_nm:gd|res:RC5|com-cf:nl|ptrs:na|ktp:N0|mc:68591|mtp:S|qry_typ:P|lang:en|wc:3|cs:8847|v=4,Mudrika Fashions (A Brand of Silver Organisation),https://www.indiamart.com/silverorganisation/?pos=37&kwd=maternity t shirt&tags=||||8601.347|Price|product|||TS|rsf:gd-|-stype:attr=1|qr_nm:gd|res:RC5|com-cf:nl|ptrs:na|ktp:N0|mc:68591|mtp:S|qry_typ:P|lang:en|wc:3|cs:8847|v=4,False,Luniawas,Jaipur,"A-1, Kanji Nagar, Luniawas, Jaipur - 302031, Dist.Jaipur, Rajasthan",8046042577,
Cotton Half Sleeve Yellow Ladies Printed T Shirt,https://www.indiamart.com/proddetail/yellow-ladies-printed-t-shirt-21324802548.html?pos=38&kwd=maternity t shirt&tags=||||8230.883|Price|product|||TS|rsf:gd-|-stype:attr=1|qr_nm:gd|res:RC5|com-cf:nl|ptrs:na|ktp:N0|mc:68591|mtp:S|qry_typ:P|lang:en|wc:3|cs:8847|v=4,Ambika Enterprise,https://www.indiamart.com/swatifashionhouse/?pos=38&kwd=maternity t shirt&tags=||||8230.883|Price|product|||TS|rsf:gd-|-stype:attr=1|qr_nm:gd|res:RC5|com-cf:nl|ptrs:na|ktp:N0|mc:68591|mtp:S|qry_typ:P|lang:en|wc:3|cs:8847|v=4,True,Madhapar,Surat,"R S No. 1/1/20, Shop No. 4, Harsiddhi Complex, New Line, Madhapar, Kachchh 16/25, Gopal Plaza, 1st Floor, Kuber Nagar-1, Katargam Darvaja, Madhapar, Surat - 370020, Dist.Surat, Gujarat",8047642082,
Live Up Cotton. Polyester Ladies Sublimation T Shirts,https://www.indiamart.com/proddetail/ladies-sublimation-t-shirts-22710954773.html?pos=39&kwd=maternity t shirt&tags=||||8752.144|Price|product|||TS|rsf:gd-|-stype:attr=1|qr_nm:gd|res:RC5|com-cf:nl|ptrs:na|ktp:N0|mc:68591|mtp:S|qry_typ:P|lang:en|wc:3|cs:8847|v=4,Barkha Collection,https://www.indiamart.com/barkhacollection/?pos=39&kwd=maternity t shirt&tags=||||8752.144|Price|product|||TS|rsf:gd-|-stype:attr=1|qr_nm:gd|res:RC5|com-cf:nl|ptrs:na|ktp:N0|mc:68591|mtp:S|qry_typ:P|lang:en|wc:3|cs:8847|v=4,False,Gandhi Nagar,New Delhi,"X/2397, 2nd Floor, Gali No. 9, Raghubar Pura, No. 2 Gandhi Nagar, Near Hanuman Mandir, Gandhi Nagar, New Delhi - 110031, Dist.Delhi, Delhi",8048951302,
Pink Printed Girls Polo T Shirt,https://www.indiamart.com/proddetail/girls-polo-t-shirt-16652271855.html?pos=40&kwd=maternity t shirt&tags=||||8559.269|Price|product|||TS|rsf:gd-|-stype:attr=1|qr_nm:gd|res:RC5|com-cf:nl|ptrs:na|ktp:N0|mc:68591|mtp:S|qry_typ:P|lang:en|wc:3|cs:8847|v=4,Pahun Industries Private Limited,https://www.indiamart.com/pahunindustries/?pos=40&kwd=maternity t shirt&tags=||||8559.269|Price|product|||TS|rsf:gd-|-stype:attr=1|qr_nm:gd|res:RC5|com-cf:nl|ptrs:na|ktp:N0|mc:68591|mtp:S|qry_typ:P|lang:en|wc:3|cs:8847|v=4,False,Kanchan Bag,Indore,"First Floor, House No. 37, Goyal Nagar, Kanchan Bag, Indore - 452016, Dist.Indore, Madhya Pradesh",8046057596,
"Half Sleeve Women Polo T Shirt, Casual Wear",https://www.indiamart.com/proddetail/women-polo-t-shirt-2850169587630.html?pos=41&kwd=maternity t shirt&tags=||||8663.873|Price|product|||TS|rsf:gd-|-stype:attr=1|qr_nm:gd|res:RC5|com-cf:nl|ptrs:na|ktp:N0|mc:68591|mtp:S|qry_typ:P|lang:en|wc:3|cs:8847|v=4,Leisure Loom Inc,https://www.indiamart.com/leisure-loom-inc/?pos=41&kwd=maternity t shirt&tags=||||8663.873|Price|product|||TS|rsf:gd-|-stype:attr=1|qr_nm:gd|res:RC5|com-cf:nl|ptrs:na|ktp:N0|mc:68591|mtp:S|qry_typ:P|lang:en|wc:3|cs:8847|v=4,False,Hulimavu,Bengaluru,"#175 and #176, 91springboard, 3rd Floor, Phase 4, JP Nagar, Dollars Colony, Bannerghatta Road,, Hulimavu, Bengaluru - 560076, Dist.Bengaluru, Karnataka",7942556568,
White Plain T Shirt,https://www.indiamart.com/proddetail/white-plain-t-shirt-2853638779255.html?pos=42&kwd=maternity t shirt&tags=||||8626.744|Price|product|||TS|rsf:gd-|-stype:attr=1|qr_nm:gd|res:RC5|com-cf:nl|ptrs:na|ktp:N0|mc:68591|mtp:S|qry_typ:P|lang:en|wc:3|cs:8847|v=4,Tirupur Hub Private Limited,https://www.tirupurhub.in/?pos=42&kwd=maternity t shirt&tags=||||8626.744|Price|product|||TS|rsf:gd-|-stype:attr=1|qr_nm:gd|res:RC5|com-cf:nl|ptrs:na|ktp:N0|mc:68591|mtp:S|qry_typ:P|lang:en|wc:3|cs:8847|v=4,False,Parappalayam,Tiruppur,"8/2978 Karupparayan Kovil Karupparayan Kovil 2nd Street Pandiyan Nagar North, Parappalayam, Tiruppur - 641602, Dist.Coimbatore, Tamil Nadu",8045166817,
Dyemension Ladies Typography Round Neck Cotton T Shirt,https://www.indiamart.com/proddetail/dyemension-ladies-typography-round-neck-cotton-t-shirt-2852892404512.html?pos=43&kwd=maternity t shirt&tags=||||8663.873|Price|product|||TS|rsf:gd-|-stype:attr=1|qr_nm:gd|res:RC5|com-cf:nl|ptrs:na|ktp:N0|mc:68591|mtp:S|qry_typ:P|lang:en|wc:3|cs:8847|v=4,Dyemension AI Clothing Private Limited,https://www.indiamart.com/dyemension-ai-clothing/?pos=43&kwd=maternity t shirt&tags=||||8663.873|Price|product|||TS|rsf:gd-|-stype:attr=1|qr_nm:gd|res:RC5|com-cf:nl|ptrs:na|ktp:N0|mc:68591|mtp:S|qry_typ:P|lang:en|wc:3|cs:8847|v=4,False,,Bengaluru,"Ground Floor, A006, Sai Garden, Kempapura Main Road, Near Neev Academy, Yemalur, Bengaluru - 560037, Dist.Bengaluru, Karnataka",7942721955,
"Round Plain T Shirt Women, Half Sleeves",https://www.indiamart.com/proddetail/plain-t-shirt-women-23547469491.html?pos=44&kwd=maternity t shirt&tags=||||9829.308|Price|product|||TS|rsf:gd-|-stype:attr=1|qr_nm:gd|res:RC5|com-cf:nl|ptrs:na|ktp:N0|mc:68591|mtp:S|qry_typ:P|lang:en|wc:3|cs:8847|v=4,Krish Impex,https://www.indiamart.com/krishimpex-kolkata/?pos=44&kwd=maternity t shirt&tags=||||9829.308|Price|product|||TS|rsf:gd-|-stype:attr=1|qr_nm:gd|res:RC5|com-cf:nl|ptrs:na|ktp:N0|mc:68591|mtp:S|qry_typ:P|lang:en|wc:3|cs:8847|v=4,False,Belur Math,Howrah,"1st Floor 14/61 Dr Hk Chatterjee Lane N A, Belur Math, Howrah - 711107, Dist.Howrah, West Bengal",8048963035,
Plain Oversized T Shirt Men,https://www.indiamart.com/proddetail/plain-oversized-t-shirt-men-2853327535430.html?pos=45&kwd=maternity t shirt&tags=||||8626.744|Price|product|||TS|rsf:gd-|-stype:attr=1|qr_nm:gd|res:RC5|com-cf:nl|ptrs:na|ktp:N0|mc:68591|mtp:S|qry_typ:P|lang:en|wc:3|cs:8847|v=4,P.R.Tex,https://www.prtex.in/?pos=45&kwd=maternity t shirt&tags=||||8626.744|Price|product|||TS|rsf:gd-|-stype:attr=1|qr_nm:gd|res:RC5|com-cf:nl|ptrs:na|ktp:N0|mc:68591|mtp:S|qry_typ:P|lang:en|wc:3|cs:8847|v=4,False,Appachi Nagar,Tiruppur,"42/74, Appachi Nagar Main Road, Near SBI Bank, Appachi Nagar, Tiruppur - 641607, Dist.Coimbatore, Tamil Nadu",8048970441,
"Cotton Plain VERO MODA POLO T SHIRT, Solid",https://www.indiamart.com/proddetail/vero-moda-polo-t-shirt-2851817059955.html?pos=46&kwd=maternity t shirt&tags=||||8752.144|Price|product|||TS|rsf:gd-|-stype:attr=1|qr_nm:gd|res:RC5|com-cf:nl|ptrs:na|ktp:N0|mc:68591|mtp:S|qry_typ:P|lang:en|wc:3|cs:8847|v=4,Camel Marketing Private Limited,https://www.indiamart.com/camelmarketing-delhi/?pos=46&kwd=maternity t shirt&tags=||||8752.144|Price|product|||TS|rsf:gd-|-stype:attr=1|qr_nm:gd|res:RC5|com-cf:nl|ptrs:na|ktp:N0|mc:68591|mtp:S|qry_typ:P|lang:en|wc:3|cs:8847|v=4,False,Sabzi Mandi Old,New Delhi,"C-14,R K Mall, Exit Gate Pul Bangash Metro Station%282nd Floor%29 at Pul Bangash Metro Station (Red Line), Sabzi Mandi Old, New Delhi - 110085, Dist.Delhi, Delhi",8048600935,
"Women Shirts & Tops Export Surplus Ladies T Shirt, Cotton",https://www.indiamart.com/proddetail/export-surplus-ladies-t-shirt-2854577766055.html?pos=47&kwd=maternity t shirt&tags=||||8752.144|Price|product|||TS|rsf:gd-|-stype:attr=1|qr_nm:gd|res:RC5|com-cf:nl|ptrs:na|ktp:N0|mc:68591|mtp:S|qry_typ:P|lang:en|wc:3|cs:8847|v=4,Neo Fashion's,https://www.neofashions.co.in/?pos=47&kwd=maternity t shirt&tags=||||8752.144|Price|product|||TS|rsf:gd-|-stype:attr=1|qr_nm:gd|res:RC5|com-cf:nl|ptrs:na|ktp:N0|mc:68591|mtp:S|qry_typ:P|lang:en|wc:3|cs:8847|v=4,True,Laxmi Nagar,New Delhi,"R-6A, Ramesh Park, Street No. 1 Laxmi Nagar, Laxmi Nagar, New Delhi - 110092, Dist.Delhi, Delhi",8048951652,
"Half Sleeve Ladies Corporate T Shirt, Casual Wear",https://www.indiamart.com/proddetail/ladies-corporate-t-shirt-2850706894533.html?pos=48&kwd=maternity t shirt&tags=||||8626.744|Price|product|||TS|rsf:gd-|-stype:attr=1|qr_nm:gd|res:RC5|com-cf:nl|ptrs:na|ktp:N0|mc:68591|mtp:S|qry_typ:P|lang:en|wc:3|cs:8847|v=4,BLUE WEAR GARMENTS,https://www.indiamart.com/blueweargarments/?pos=48&kwd=maternity t shirt&tags=||||8626.744|Price|product|||TS|rsf:gd-|-stype:attr=1|qr_nm:gd|res:RC5|com-cf:nl|ptrs:na|ktp:N0|mc:68591|mtp:S|qry_typ:P|lang:en|wc:3|cs:8847|v=4,False,Kumarasamy Nagar,Tiruppur,"15/1, White Castle, Balaji Nagar Kangeyam Road, Kumarasamy Nagar, Tiruppur - 641604, Dist.Coimbatore, Tamil Nadu",8048980223,
"Unisex Cotton Ladies Used Full Sleeves T Shirt, For Cleaning Machine",https://www.indiamart.com/proddetail/ladies-used-full-sleeves-t-shirt-2854705826548.html?pos=49&kwd=maternity t shirt&tags=||||8747.203|Price|product|||TS|rsf:gd-|-stype:attr=1|qr_nm:gd|res:RC5|com-cf:nl|ptrs:na|ktp:N0|mc:68591|mtp:S|qry_typ:P|lang:en|wc:3|cs:8847|v=4,M/S Ludhiyana Textiles And Grains,https://www.indiamart.com/ludhiyana-textiles-grains/?pos=49&kwd=maternity t shirt&tags=||||8747.203|Price|product|||TS|rsf:gd-|-stype:attr=1|qr_nm:gd|res:RC5|com-cf:nl|ptrs:na|ktp:N0|mc:68591|mtp:S|qry_typ:P|lang:en|wc:3|cs:8847|v=4,False,,Panipat,"Shop No. 128,M/S Ludhiyana Textile And Grains, Gali No.2, Panipat - 132103, Dist.Panipat, Haryana",8044456499,
GIRLS WESTERN T SHIRT & SHORTS,https://www.indiamart.com/proddetail/girls-western-t-shirt-shorts-2852729335930.html?pos=50&kwd=maternity t shirt&tags=||||8259.31|Price|product|||TS|rsf:gd-|-stype:attr=1|qr_nm:gd|res:RC5|com-cf:nl|ptrs:na|ktp:N0|mc:68591|mtp:S|qry_typ:P|lang:en|wc:3|cs:8847|v=4,Sapariya International,https://www.sapariyatrendz.com/?pos=50&kwd=maternity t shirt&tags=||||8259.31|Price|product|||TS|rsf:gd-|-stype:attr=1|qr_nm:gd|res:RC5|com-cf:nl|ptrs:na|ktp:N0|mc:68591|mtp:S|qry_typ:P|lang:en|wc:3|cs:8847|v=4,False,Guru Nagar,Bardoli,"Plot No. 20 Survey No. 312/3, City Survey No. 3582, Guru Nagar Bardoli, Guru Nagar, Bardoli - 394601, Dist.Surat, Gujarat",8046055606,
"Half Sleeve Women Oversized T Shirt, Casual Wear",https://www.indiamart.com/proddetail/women-oversized-t-shirt-2851231952391.html?pos=51&kwd=maternity t shirt&tags=||||8661.854|Price|product|||TS|rsf:gd-|-stype:attr=1|qr_nm:gd|res:RC5|com-cf:nl|ptrs:na|ktp:N0|mc:68591|mtp:S|qry_typ:P|lang:en|wc:3|cs:8847|v=4,Cute Stuff International,https://www.holdclothing.com/?pos=51&kwd=maternity t shirt&tags=||||8661.854|Price|product|||TS|rsf:gd-|-stype:attr=1|qr_nm:gd|res:RC5|com-cf:nl|ptrs:na|ktp:N0|mc:68591|mtp:S|qry_typ:P|lang:en|wc:3|cs:8847|v=4,False,Guru Arjan Dev Nagar,Ludhiana,"No. 325/5, C/A, New Ashok Nagar, Backside Octave Hosiery, Opposite Greenland School Jalandhar Bypass, Guru Arjan Dev Nagar, Ludhiana - 141004, Dist.Ludhiana, Punjab",8047635949,
"Cotton Round Neck T Shirts, Half Sleeves, Quantity Per Pack: 6",https://www.indiamart.com/proddetail/round-neck-t-shirts-2852085255888.html?pos=52&kwd=maternity t shirt&tags=||||8661.854|Price|product|||TS|rsf:gd-|-stype:attr=1|qr_nm:gd|res:RC5|com-cf:nl|ptrs:na|ktp:N0|mc:68591|mtp:S|qry_typ:P|lang:en|wc:3|cs:8847|v=4,Vikas Creations,https://www.angelcurve.co.in/?pos=52&kwd=maternity t shirt&tags=||||8661.854|Price|product|||TS|rsf:gd-|-stype:attr=1|qr_nm:gd|res:RC5|com-cf:nl|ptrs:na|ktp:N0|mc:68591|mtp:S|qry_typ:P|lang:en|wc:3|cs:8847|v=4,False,Moti Nagar,Ludhiana,"B-30-2683/2685 Gajja Jain Colony, Moti Nagar, Ludhiana - 141010, Dist.Ludhiana, Punjab",8047313495,
Plain Cotton Long Line T-Shirts,https://www.indiamart.com/proddetail/cotton-long-line-t-shirts-19949750633.html?pos=53&kwd=maternity t shirt&tags=||||8211.142|Price|product|||TS|rsf:gd-|-stype:attr=1|qr_nm:gd|res:RC5|com-cf:nl|ptrs:na|ktp:N0|mc:68591|mtp:S|qry_typ:P|lang:en|wc:3|cs:8847|v=4,D C Grandson,https://www.dcgrandson.in/?pos=53&kwd=maternity t shirt&tags=||||8211.142|Price|product|||TS|rsf:gd-|-stype:attr=1|qr_nm:gd|res:RC5|com-cf:nl|ptrs:na|ktp:N0|mc:68591|mtp:S|qry_typ:P|lang:en|wc:3|cs:8847|v=4,False,Vile Parle West,Mumbai,"Duru House, Juhu Tara Road, Juhu, Vile Parle West, Mumbai - 400056, Dist.Mumbai, Maharashtra",8048976357,
Polyester Women Ladies Blue Dry Fit T Shirt,https://www.indiamart.com/proddetail/ladies-blue-dry-fit-t-shirt-23872728191.html?pos=54&kwd=maternity t shirt&tags=||||8813.969|Price|product|||TS|rsf:gd-|-stype:attr=1|qr_nm:gd|res:RC5|com-cf:nl|ptrs:na|ktp:N0|mc:68591|mtp:S|qry_typ:P|lang:en|wc:3|cs:8847|v=4,M/S Yadu Sports Solutions,https://www.indiamart.com/yadu-sports-solutions/?pos=54&kwd=maternity t shirt&tags=||||8813.969|Price|product|||TS|rsf:gd-|-stype:attr=1|qr_nm:gd|res:RC5|com-cf:nl|ptrs:na|ktp:N0|mc:68591|mtp:S|qry_typ:P|lang:en|wc:3|cs:8847|v=4,False,Panchsheel Colony,Meerut,"74, New Mohanpuri, Budhvihar Colony,, Panchsheel Colony, Meerut - 250001, Dist.Meerut, Uttar Pradesh",8046070717,
Cotton White Kids Printed T Shirt,https://www.indiamart.com/proddetail/ladies-printed-t-shirt-25958589797.html?pos=55&kwd=maternity t shirt&tags=||||8752.144|Price|product|||MDC|rsf:gd-|-stype:attr=1|qr_nm:gd|res:RC5|com-cf:nl|ptrs:na|ktp:N0|mc:68591|mtp:S|qry_typ:P|lang:en|wc:3|cs:8847|v=4,U.D Enterprises,https://www.indiamart.com/udenterprisesnewdelhi/?pos=55&kwd=maternity t shirt&tags=||||8752.144|Price|product|||MDC|rsf:gd-|-stype:attr=1|qr_nm:gd|res:RC5|com-cf:nl|ptrs:na|ktp:N0|mc:68591|mtp:S|qry_typ:P|lang:en|wc:3|cs:8847|v=4,False,Razapur Khurd,New Delhi,"Plot no. 69 A2A Block, Gali no.2, Razapur Khurd, New Delhi - 110059, Dist.Delhi, Delhi",8047658857,
"Half Sleeve Ladies Grey Cotton T Shirt, Casual Wear, Size: XL",https://www.indiamart.com/proddetail/ladies-grey-cotton-t-shirt-2854380361688.html?pos=56&kwd=maternity t shirt&tags=||||8626.744|Price|product|||MDC|rsf:gd-|-stype:attr=1|qr_nm:gd|res:RC5|com-cf:nl|ptrs:na|ktp:N0|mc:68591|mtp:S|qry_typ:P|lang:en|wc:3|cs:8847|v=4,Maanyaa Fashions,https://www.indiamart.com/maanyaa-fashions/?pos=56&kwd=maternity t shirt&tags=||||8626.744|Price|product|||MDC|rsf:gd-|-stype:attr=1|qr_nm:gd|res:RC5|com-cf:nl|ptrs:na|ktp:N0|mc:68591|mtp:S|qry_typ:P|lang:en|wc:3|cs:8847|v=4,False,,Tiruppur,"1372, Palanisamy Nagar, Poyampalayam Pirivu, P.N. Road, Tiruppur - 641602, Dist.Coimbatore, Tamil Nadu",7949337616,
Half Sleeve Girls Printed T Shirt,https://www.indiamart.com/proddetail/girls-printed-t-shirt-2854481690962.html?pos=57&kwd=maternity t shirt&tags=||||8752.144|Price|product|||MDC|rsf:gd-|-stype:attr=1|qr_nm:gd|res:RC5|com-cf:nl|ptrs:na|ktp:N0|mc:68591|mtp:S|qry_typ:P|lang:en|wc:3|cs:8847|v=4,Hakki Enterprises,https://www.indiamart.com/hakkienterprises/?pos=57&kwd=maternity t shirt&tags=||||8752.144|Price|product|||MDC|rsf:gd-|-stype:attr=1|qr_nm:gd|res:RC5|com-cf:nl|ptrs:na|ktp:N0|mc:68591|mtp:S|qry_typ:P|lang:en|wc:3|cs:8847|v=4,False,,New Delhi,"8, Gali Number 18, Heena Hair Salon, Vipin Garden Extension, West Delhi, New Delhi - 110059, Dist.Delhi, Delhi",7949337209,
"Round Ladies Cotton Brown Oversized T Shirt, Plain",https://www.indiamart.com/proddetail/ladies-cotton-brown-oversized-t-shirt-2854878960348.html?pos=58&kwd=maternity t shirt&tags=||||8752.144|Price|product|||MDC|rsf:gd-|-stype:attr=1|qr_nm:gd|res:RC5|com-cf:nl|ptrs:na|ktp:N0|mc:68591|mtp:S|qry_typ:P|lang:en|wc:3|cs:8847|v=4,Hiti Enterprises,https://www.indiamart.com/hiti-enterprises/?pos=58&kwd=maternity t shirt&tags=||||8752.144|Price|product|||MDC|rsf:gd-|-stype:attr=1|qr_nm:gd|res:RC5|com-cf:nl|ptrs:na|ktp:N0|mc:68591|mtp:S|qry_typ:P|lang:en|wc:3|cs:8847|v=4,False,,New Delhi,"Second Floor, RZ-83A, Dabri Extension, A-Block, South West Delhi, New Delhi - 110045, Dist.Delhi, Delhi",8044458665,
"Half Sleeve Women Round Neck T Shirt, Daily Wear, Size: S M L XL XXL",https://www.indiamart.com/proddetail/women-round-neck-t-shirt-27422229548.html?pos=59&kwd=maternity t shirt&tags=||||8210.732|Price|product|||TS|rsf:gd-|-stype:attr=1|qr_nm:gd|res:RC5|com-cf:nl|ptrs:na|ktp:N0|mc:68591|mtp:S|qry_typ:P|lang:en|wc:3|cs:8847|v=4,SRS Fabrics,https://www.srsfabrics.co.in/?pos=59&kwd=maternity t shirt&tags=||||8210.732|Price|product|||TS|rsf:gd-|-stype:attr=1|qr_nm:gd|res:RC5|com-cf:nl|ptrs:na|ktp:N0|mc:68591|mtp:S|qry_typ:P|lang:en|wc:3|cs:8847|v=4,False,Gokhiware,Vasai,"2nd Floor, Unit No. 214, Infinity Squares, Waliv Road, Vasai Virar, Gokhiware, Vasai - 401208, Dist.Thane, Maharashtra",8048608246,
Ladies Dri Fit Sports T Shirt,https://www.indiamart.com/proddetail/ladies-dri-fit-sports-t-shirt-2853629890673.html?pos=60&kwd=maternity t shirt&tags=||||8813.969|Price|product|||MDC|rsf:gd-|-stype:attr=1|qr_nm:gd|res:RC5|com-cf:nl|ptrs:na|ktp:N0|mc:68591|mtp:S|qry_typ:P|lang:en|wc:3|cs:8847|v=4,King International Sports,https://www.indiamart.com/king-international-sports/?pos=60&kwd=maternity t shirt&tags=||||8813.969|Price|product|||MDC|rsf:gd-|-stype:attr=1|qr_nm:gd|res:RC5|com-cf:nl|ptrs:na|ktp:N0|mc:68591|mtp:S|qry_typ:P|lang:en|wc:3|cs:8847|v=4,False,Mohkam Pur,Meerut,"Shiv Puram Mohkampur, H No 44 Cement Wali Gali, Delhi Road, Mohkam Pur, Meerut - 250103, Dist.Meerut, Uttar Pradesh",7949092659,
Mens Plain Cotton T Shirt,https://www.indiamart.com/proddetail/mens-plain-cotton-t-shirt-2853387302330.html?pos=61&kwd=maternity t shirt&tags=||||8230.883|Price|product|||TS|rsf:gd-|-stype:attr=1|qr_nm:gd|res:RC5|com-cf:nl|ptrs:na|ktp:N0|mc:68591|mtp:S|qry_typ:P|lang:en|wc:3|cs:8847|v=4,Otter Fashion,https://www.otterfashion.co.in/?pos=61&kwd=maternity t shirt&tags=||||8230.883|Price|product|||TS|rsf:gd-|-stype:attr=1|qr_nm:gd|res:RC5|com-cf:nl|ptrs:na|ktp:N0|mc:68591|mtp:S|qry_typ:P|lang:en|wc:3|cs:8847|v=4,False,Sansakar Nagar,Surat,"Plot No. B/17 First Floor, Udhna Magdalla Road, Sansakar Nagar, Surat - 395017, Dist.Surat, Gujarat",8047621847,
JACETT BRAND Multy colour Ladies Flowers T Shirt,https://www.indiamart.com/proddetail/ladies-flowers-t-shirt-10154268688.html?pos=62&kwd=maternity t shirt&tags=||||8626.744|Price|product|||TS|rsf:gd-|-stype:attr=1|qr_nm:gd|res:RC5|com-cf:nl|ptrs:na|ktp:N0|mc:68591|mtp:S|qry_typ:P|lang:en|wc:3|cs:8847|v=4,Sri Sai Garments,https://www.srisaigarments.in/?pos=62&kwd=maternity t shirt&tags=||||8626.744|Price|product|||TS|rsf:gd-|-stype:attr=1|qr_nm:gd|res:RC5|com-cf:nl|ptrs:na|ktp:N0|mc:68591|mtp:S|qry_typ:P|lang:en|wc:3|cs:8847|v=4,False,T.N.K.PURAM NORTH,Tiruppur,"41, S. S. Nagar, 1st Street, T.N.K.PURAM NORTH, Tiruppur - 641607, Dist.Coimbatore, Tamil Nadu",8048978623,
"Half Sleeve Blue Cotton Couple T Shirt, Size: Large",https://www.indiamart.com/proddetail/blue-cotton-couple-t-shirt-2851277178133.html?pos=63&kwd=maternity t shirt&tags=||||8249.688|Price|product|||TS|rsf:gd-|-stype:attr=1|qr_nm:gd|res:RC5|com-cf:nl|ptrs:na|ktp:N0|mc:68591|mtp:S|qry_typ:P|lang:en|wc:3|cs:8847|v=4,Print Spot,https://www.printspot4.com/?pos=63&kwd=maternity t shirt&tags=||||8249.688|Price|product|||TS|rsf:gd-|-stype:attr=1|qr_nm:gd|res:RC5|com-cf:nl|ptrs:na|ktp:N0|mc:68591|mtp:S|qry_typ:P|lang:en|wc:3|cs:8847|v=4,False,,Badlapur,"0, Gala No. 2 A-1 Wing, Umiya Dham Buldg, Valiwal Ambarnath, Badlapur - 421503, Maharashtra",8047800821,
"Half Sleeve Female Ladies Cotton T Shirt KOREA, Daily Wear",https://www.indiamart.com/proddetail/ladies-cotton-t-shirt-korea-25863444230.html?pos=64&kwd=maternity t shirt&tags=||||8752.144|Price|product|||TS|rsf:gd-|-stype:attr=1|qr_nm:gd|res:RC5|com-cf:nl|ptrs:na|ktp:N0|mc:68591|mtp:S|qry_typ:P|lang:en|wc:3|cs:8847|v=4,P.M. Enterprises,https://www.pmenterprises.in.net/?pos=64&kwd=maternity t shirt&tags=||||8752.144|Price|product|||TS|rsf:gd-|-stype:attr=1|qr_nm:gd|res:RC5|com-cf:nl|ptrs:na|ktp:N0|mc:68591|mtp:S|qry_typ:P|lang:en|wc:3|cs:8847|v=4,False,Pitampura,New Delhi,"2013, Shivaji Road, Azad Market, North Delhi, Pitampura, New Delhi - 110006, Dist.Delhi, Delhi",8047673208,
"Half Sleeve Ladies Polo T-Shirts, Casual Wear",https://www.indiamart.com/proddetail/ladies-polo-t-shirts-2850614437391.html?pos=65&kwd=maternity t shirt&tags=||||8626.744|Price|product|||TS|rsf:gd-|-stype:attr=1|qr_nm:gd|res:RC5|com-cf:nl|ptrs:na|ktp:N0|mc:68591|mtp:S|qry_typ:P|lang:en|wc:3|cs:8847|v=4,A N Knitwear,https://www.anknitwear.com/?pos=65&kwd=maternity t shirt&tags=||||8626.744|Price|product|||TS|rsf:gd-|-stype:attr=1|qr_nm:gd|res:RC5|com-cf:nl|ptrs:na|ktp:N0|mc:68591|mtp:S|qry_typ:P|lang:en|wc:3|cs:8847|v=4,False,Valipalayam,Tiruppur,"59/1, 20A,Elementary School Ist Street, ABT Road, Karuvampalayam, Valipalayam, Tiruppur - 641604, Dist.Coimbatore, Tamil Nadu",8046078319,
"Casual Wear White Printed Couple T Shirt, Size: Xl",https://www.indiamart.com/proddetail/printed-couple-t-shirt-2850782453273.html?pos=66&kwd=maternity t shirt&tags=||||8778.123|Price|product|||TS|rsf:gd-|-stype:attr=1|qr_nm:gd|res:RC5|com-cf:nl|ptrs:na|ktp:N0|mc:68591|mtp:S|qry_typ:P|lang:en|wc:3|cs:8847|v=4,Clan India Lifestyle Private Limited,https://www.clanindialifestyle.co.in/?pos=66&kwd=maternity t shirt&tags=||||8778.123|Price|product|||TS|rsf:gd-|-stype:attr=1|qr_nm:gd|res:RC5|com-cf:nl|ptrs:na|ktp:N0|mc:68591|mtp:S|qry_typ:P|lang:en|wc:3|cs:8847|v=4,False,Sector 8,Noida,"First Floor, C3, Block C, Sector 8 Gautam Buddha Nagar, Sector 8, Noida - 201301, Dist.Gautam Budh Nagar, Uttar Pradesh",7942960008,
"SWIFTLY Womens/Girls Oversized Steaming Printed Half Sleeve T-shirts, Casual Wear",https://www.indiamart.com/proddetail/swiftly-womens-girls-oversized-steaming-printed-half-sleeve-t-shirts-2849222755088.html?pos=67&kwd=maternity t shirt&tags=||||8752.144|Price|product|||TS|rsf:gd-|-stype:attr=1|qr_nm:gd|res:RC5|com-cf:nl|ptrs:na|ktp:N0|mc:68591|mtp:S|qry_typ:P|lang:en|wc:3|cs:8847|v=4,Jyanti Enterprises,https://www.indiamart.com/jyantienterprises/?pos=67&kwd=maternity t shirt&tags=||||8752.144|Price|product|||TS|rsf:gd-|-stype:attr=1|qr_nm:gd|res:RC5|com-cf:nl|ptrs:na|ktp:N0|mc:68591|mtp:S|qry_typ:P|lang:en|wc:3|cs:8847|v=4,False,Nangloi,New Delhi,"A-137,Agar, Nagar Kirari, Suleman Nagar, Nangloi, New Delhi - 110086, Dist.Delhi, Delhi",8047852567,
Round Half Sleeve Ladies Printed T Shirt,https://www.indiamart.com/proddetail/ladies-printed-t-shirt-17554491733.html?pos=68&kwd=maternity t shirt&tags=||||8663.873|Price|product|||TS|rsf:gd-|-stype:attr=1|qr_nm:gd|res:RC5|com-cf:nl|ptrs:na|ktp:N0|mc:68591|mtp:S|qry_typ:P|lang:en|wc:3|cs:8847|v=4,Valki Exports Private Limited,https://www.indiamart.com/valkiexports/?pos=68&kwd=maternity t shirt&tags=||||8663.873|Price|product|||TS|rsf:gd-|-stype:attr=1|qr_nm:gd|res:RC5|com-cf:nl|ptrs:na|ktp:N0|mc:68591|mtp:S|qry_typ:P|lang:en|wc:3|cs:8847|v=4,False,Btm Layout Stage 6,Bengaluru,"6th Floor, 1, Kay Arr Valki Pinehurst, 100 Feet Main Road, Btm Layout Stage 6, Bengaluru - 560076, Dist.Bengaluru, Karnataka",8048611130,
"Half Sleeve Ladies Round Neck Printed T Shirt, Daily Wear, Size: S M L XL XXL XXXL",https://www.indiamart.com/proddetail/ladies-round-neck-printed-t-shirt-24460316933.html?pos=69&kwd=maternity t shirt&tags=||||8752.144|Price|product|||TS|rsf:gd-|-stype:attr=1|qr_nm:gd|res:RC5|com-cf:nl|ptrs:na|ktp:N0|mc:68591|mtp:S|qry_typ:P|lang:en|wc:3|cs:8847|v=4,Trendyrabbit,https://www.indiamart.com/trendyrabbit/?pos=69&kwd=maternity t shirt&tags=||||8752.144|Price|product|||TS|rsf:gd-|-stype:attr=1|qr_nm:gd|res:RC5|com-cf:nl|ptrs:na|ktp:N0|mc:68591|mtp:S|qry_typ:P|lang:en|wc:3|cs:8847|v=4,True,Mukundpur,New Delhi,"Plot No. 163-164, KH No. 307/202, Ground Floor, 25 Feet Road, Mukundpur, New Delhi,, Mukundpur, New Delhi - 110042, Dist.Delhi, Delhi",8048976829,
Half Sleeve Ladies Collar T Shirts,https://www.indiamart.com/proddetail/ladies-collar-t-shirts-26486140888.html?pos=70&kwd=maternity t shirt&tags=||||8626.744|Price|product|||TS|rsf:gd-|-stype:attr=1|qr_nm:gd|res:RC5|com-cf:nl|ptrs:na|ktp:N0|mc:68591|mtp:S|qry_typ:P|lang:en|wc:3|cs:8847|v=4,Mastermind International,https://www.mastermindfashions.com/?pos=70&kwd=maternity t shirt&tags=||||8626.744|Price|product|||TS|rsf:gd-|-stype:attr=1|qr_nm:gd|res:RC5|com-cf:nl|ptrs:na|ktp:N0|mc:68591|mtp:S|qry_typ:P|lang:en|wc:3|cs:8847|v=4,False,Karaipudur,Tiruppur,"S.k. Building 1/84 Vaikkal Medu, Nochipalayam Pirivu, Pariyur Amman Kovil Street, Karaipudur, Tiruppur - 641605, Dist.Coimbatore, Tamil Nadu",8046075555,
"T shirt for Ladies Full Sleeve Printed T Shirt, Daily Wear",https://www.indiamart.com/proddetail/t-shirt-for-ladies-full-sleeve-printed-t-shirt-26110283333.html?pos=71&kwd=maternity t shirt&tags=||||8228.275|Price|product|||TS|rsf:gd-|-stype:attr=1|qr_nm:gd|res:RC5|com-cf:nl|ptrs:na|ktp:N0|mc:68591|mtp:S|qry_typ:P|lang:en|wc:3|cs:8847|v=4,Maa Sachiyay Fashion,https://www.maasachiyayfashion.com/?pos=71&kwd=maternity t shirt&tags=||||8228.275|Price|product|||TS|rsf:gd-|-stype:attr=1|qr_nm:gd|res:RC5|com-cf:nl|ptrs:na|ktp:N0|mc:68591|mtp:S|qry_typ:P|lang:en|wc:3|cs:8847|v=4,False,Prem Darwaza,Ahmedabad,"D-32, 3rd Floor Sumel Business Park -4 Amdupura, Kalupur, Prem Darwaza, Ahmedabad - 380002, Dist.Ahmedabad, Gujarat",8048604630,
"Half Sleeve Women S Printed T Shirt, Casual Wear",https://www.indiamart.com/proddetail/women-s-printed-t-shirt-24822944648.html?pos=72&kwd=maternity t shirt&tags=||||8228.275|Price|product|||TS|rsf:gd-|-stype:attr=1|qr_nm:gd|res:RC5|com-cf:nl|ptrs:na|ktp:N0|mc:68591|mtp:S|qry_typ:P|lang:en|wc:3|cs:8847|v=4,Janta Clothing Co.,https://www.indiamart.com/jantaclothingcompany/?pos=72&kwd=maternity t shirt&tags=||||8228.275|Price|product|||TS|rsf:gd-|-stype:attr=1|qr_nm:gd|res:RC5|com-cf:nl|ptrs:na|ktp:N0|mc:68591|mtp:S|qry_typ:P|lang:en|wc:3|cs:8847|v=4,False,M D Marg,Ahmedabad,"Plot No. C 192, 2nd Floor, Behind Safal 2, M D Marg, Ahmedabad - 380022, Dist.Ahmedabad, Gujarat",8046044672,
"Half Sleeve Women T Shirt, Daily Wear, Size: Large",https://www.indiamart.com/proddetail/women-t-shirt-2853741400412.html?pos=73&kwd=maternity t shirt&tags=||||8626.744|Price|product|||TS|rsf:gd-|-stype:attr=1|qr_nm:gd|res:RC5|com-cf:nl|ptrs:na|ktp:N0|mc:68591|mtp:S|qry_typ:P|lang:en|wc:3|cs:8847|v=4,Medlaid Fashion,https://www.medlaidfashionclothing.com/?pos=73&kwd=maternity t shirt&tags=||||8626.744|Price|product|||TS|rsf:gd-|-stype:attr=1|qr_nm:gd|res:RC5|com-cf:nl|ptrs:na|ktp:N0|mc:68591|mtp:S|qry_typ:P|lang:en|wc:3|cs:8847|v=4,False,Avanashi,Tiruppur,"1st Floor Sf.no.96/3 Dharapuram Road Kpg Compound, Avanashi, Tiruppur - 641604, Dist.Coimbatore, Tamil Nadu",7949086652,
Short T Shirts,https://www.indiamart.com/proddetail/short-t-shirts-25293280197.html?pos=74&kwd=maternity t shirt&tags=||||8211.142|Price|product|||TS|rsf:gd-|-stype:attr=1|qr_nm:gd|res:RC5|com-cf:nl|ptrs:na|ktp:N0|mc:68591|mtp:S|qry_typ:P|lang:en|wc:3|cs:8847|v=4,Behariji Enterprises,https://www.indiamart.com/beharijienterprises/?pos=74&kwd=maternity t shirt&tags=||||8211.142|Price|product|||TS|rsf:gd-|-stype:attr=1|qr_nm:gd|res:RC5|com-cf:nl|ptrs:na|ktp:N0|mc:68591|mtp:S|qry_typ:P|lang:en|wc:3|cs:8847|v=4,False,Masjid,Mumbai,"290 Samuel Street, Ground Floor,, Masjid, Mumbai - 400003, Dist.Mumbai, Maharashtra",8048968599,
"Round Multicolor Color Block T Shirts, Half Sleeves, Plain",https://www.indiamart.com/proddetail/color-block-t-shirts-25596339448.html?pos=75&kwd=maternity t shirt&tags=||||8823.154|Price|product|||TS|rsf:gd-|-stype:attr=1|qr_nm:gd|res:RC5|com-cf:nl|ptrs:na|ktp:N0|mc:68591|mtp:S|qry_typ:P|lang:en|wc:3|cs:8847|v=4,Zooks,https://www.indiamart.com/zooks/?pos=75&kwd=maternity t shirt&tags=||||8823.154|Price|product|||TS|rsf:gd-|-stype:attr=1|qr_nm:gd|res:RC5|com-cf:nl|ptrs:na|ktp:N0|mc:68591|mtp:S|qry_typ:P|lang:en|wc:3|cs:8847|v=4,False,Jaipur House,Agra,"A-29, Alok Nagar, Jaipur House, Jaipur House, Agra - 282010, Dist.Agra, Uttar Pradesh",8046059697,
"Half Sleeve Couple Cotton T Shirts, Casual Wear",https://www.indiamart.com/proddetail/couple-cotton-t-shirts-2853000086430.html?pos=76&kwd=maternity t shirt&tags=||||8211.142|Price|product|||TS|rsf:gd-|-stype:attr=1|qr_nm:gd|res:RC5|com-cf:nl|ptrs:na|ktp:N0|mc:68591|mtp:S|qry_typ:P|lang:en|wc:3|cs:8847|v=4,Koverify,https://www.koverify.com/?pos=76&kwd=maternity t shirt&tags=||||8211.142|Price|product|||TS|rsf:gd-|-stype:attr=1|qr_nm:gd|res:RC5|com-cf:nl|ptrs:na|ktp:N0|mc:68591|mtp:S|qry_typ:P|lang:en|wc:3|cs:8847|v=4,False,Borivali West,Mumbai,"A/27,JAI SANTOSHI MAA CHS,LT ROAD,BORIVALI WEST, Borivali West, Mumbai - 400092, Dist.Mumbai, Maharashtra",7942836505,
"Cotton Ladies Printed Lower With T Shirt, Daily Wear",https://www.indiamart.com/proddetail/ladies-printed-lower-with-t-shirt-2852727196273.html?pos=77&kwd=maternity t shirt&tags=||||8876.815|Price|product|||MDC|rsf:gd-|-stype:attr=1|qr_nm:gd|res:RC5|com-cf:nl|ptrs:na|ktp:N0|mc:68591|mtp:S|qry_typ:P|lang:en|wc:3|cs:8847|v=4,Gobind Enterprises,https://www.indiamart.com/gobindenterprises-nagpur/?pos=77&kwd=maternity t shirt&tags=||||8876.815|Price|product|||MDC|rsf:gd-|-stype:attr=1|qr_nm:gd|res:RC5|com-cf:nl|ptrs:na|ktp:N0|mc:68591|mtp:S|qry_typ:P|lang:en|wc:3|cs:8847|v=4,False,Lalganj,Nagpur,"01, Bajirao Gally, Ganjakhet, Lalganj, Nagpur - 440002, Dist.Nagpur, Maharashtra",7942719482,
"Full Sleeve Sportswear Jacquard TShirts, Casual Wear",https://www.indiamart.com/proddetail/sportswear-jacquard-tshirts-2851224426355.html?pos=78&kwd=maternity t shirt&tags=||||8661.854|Price|product|||TS|rsf:gd-|-stype:attr=1|qr_nm:gd|res:RC5|com-cf:nl|ptrs:na|ktp:N0|mc:68591|mtp:S|qry_typ:P|lang:en|wc:3|cs:8847|v=4,Swami Textiles Pvt. Ltd.,https://www.swamitextiles.com/?pos=78&kwd=maternity t shirt&tags=||||8661.854|Price|product|||TS|rsf:gd-|-stype:attr=1|qr_nm:gd|res:RC5|com-cf:nl|ptrs:na|ktp:N0|mc:68591|mtp:S|qry_typ:P|lang:en|wc:3|cs:8847|v=4,False,Focal Point,Ludhiana,"D-336, Phase-Viii, Focal Point, Focal Point, Ludhiana - 141010, Dist.Ludhiana, Punjab",8046042692,
"Full Sleeve Womens Oversized Tshirt, Daily Wear, Printed",https://www.indiamart.com/proddetail/womens-oversized-tshirt-2853658131933.html?pos=79&kwd=maternity t shirt&tags=||||8752.144|Price|product|||TS|rsf:gd-|-stype:attr=1|qr_nm:gd|res:RC5|com-cf:nl|ptrs:na|ktp:N0|mc:68591|mtp:S|qry_typ:P|lang:en|wc:3|cs:8847|v=4,RK Traders,https://www.indiamart.com/rktraderscom/?pos=79&kwd=maternity t shirt&tags=||||8752.144|Price|product|||TS|rsf:gd-|-stype:attr=1|qr_nm:gd|res:RC5|com-cf:nl|ptrs:na|ktp:N0|mc:68591|mtp:S|qry_typ:P|lang:en|wc:3|cs:8847|v=4,False,Central Secretariat,New Delhi,"2 C 41 Gali No 9 Bhalla Niwas Chander Vihar, Central Secretariat, New Delhi - 110092, Dist.Delhi, Delhi",8045167609,
Mario imported Oversized Printed T Shirt,https://www.indiamart.com/proddetail/oversized-printed-t-shirt-2854404768055.html?pos=80&kwd=maternity t shirt&tags=||||8752.144|Price|product|||TS|rsf:gd-|-stype:attr=1|qr_nm:gd|res:RC5|com-cf:nl|ptrs:na|ktp:N0|mc:68591|mtp:S|qry_typ:P|lang:en|wc:3|cs:8847|v=4,Baby Look,https://www.indiamart.com/baby-look-delhi/?pos=80&kwd=maternity t shirt&tags=||||8752.144|Price|product|||TS|rsf:gd-|-stype:attr=1|qr_nm:gd|res:RC5|com-cf:nl|ptrs:na|ktp:N0|mc:68591|mtp:S|qry_typ:P|lang:en|wc:3|cs:8847|v=4,False,Gandhi Nagar,New Delhi,"Gali No-6, X 2660, Near Jain Mandir, Raghubar Pura, East Delhi, Gandhi Nagar, New Delhi - 110031, Dist.Delhi, Delhi",8045737821,
All Day T-Shirt (Double Pocket),https://www.indiamart.com/proddetail/all-day-t-shirt-double-pocket-2854460890262.html?pos=81&kwd=maternity t shirt&tags=||||8230.883|Price|product|||MDC|rsf:gd-|-stype:attr=1|qr_nm:gd|res:RC5|com-cf:nl|ptrs:na|ktp:N0|mc:68591|mtp:S|qry_typ:P|lang:en|wc:3|cs:8847|v=4,Sakshi Processors Private Limited,https://www.indiamart.com/sakshiprocessors/?pos=81&kwd=maternity t shirt&tags=||||8230.883|Price|product|||MDC|rsf:gd-|-stype:attr=1|qr_nm:gd|res:RC5|com-cf:nl|ptrs:na|ktp:N0|mc:68591|mtp:S|qry_typ:P|lang:en|wc:3|cs:8847|v=4,False,Sachin,Surat,"Plot No.2411/2 Sachin G.I.D.C Road No.24, Sachin, Surat - 394230, Dist.Surat, Gujarat",8044562915,
visions play Cotton Ladies Hand Painted T Shirt,https://www.indiamart.com/proddetail/ladies-hand-painted-t-shirt-23804549848.html?pos=82&kwd=maternity t shirt&tags=||||8752.144|Price|product|||TS|rsf:gd-|-stype:attr=1|qr_nm:gd|res:RC5|com-cf:nl|ptrs:na|ktp:N0|mc:68591|mtp:S|qry_typ:P|lang:en|wc:3|cs:8847|v=4,Visions Play,https://www.visionsplay7.in/?pos=82&kwd=maternity t shirt&tags=||||8752.144|Price|product|||TS|rsf:gd-|-stype:attr=1|qr_nm:gd|res:RC5|com-cf:nl|ptrs:na|ktp:N0|mc:68591|mtp:S|qry_typ:P|lang:en|wc:3|cs:8847|v=4,False,Siri Fort,New Delhi,"68-A, Shahpur Jat, Siri Fort, New Delhi - 110049, Dist.Delhi, Delhi",8048960199,
"Half Sleeve Parx Ladies T Shirts, Casual Wear, Plain",https://www.indiamart.com/proddetail/parx-ladies-t-shirts-2851585220097.html?pos=83&kwd=maternity t shirt&tags=||||8752.144|Price|product|||TS|rsf:gd-|-stype:attr=1|qr_nm:gd|res:RC5|com-cf:nl|ptrs:na|ktp:N0|mc:68591|mtp:S|qry_typ:P|lang:en|wc:3|cs:8847|v=4,Kuber Enterprises,https://www.indiamart.com/kuber-enterprises-newdelhi/?pos=83&kwd=maternity t shirt&tags=||||8752.144|Price|product|||TS|rsf:gd-|-stype:attr=1|qr_nm:gd|res:RC5|com-cf:nl|ptrs:na|ktp:N0|mc:68591|mtp:S|qry_typ:P|lang:en|wc:3|cs:8847|v=4,False,Rohini Sector 17,New Delhi,"A-3/183, Rohini, Rohini Sector 17, New Delhi - 110089, Dist.Delhi, Delhi",7942555738,
Multicolor Zadine Imported Floral Tshirt For Women,https://www.indiamart.com/proddetail/zadine-imported-floral-tshirt-for-women-26142119112.html?pos=84&kwd=maternity t shirt&tags=||||8211.142|Price|product|||TS|rsf:gd-|-stype:attr=1|qr_nm:gd|res:RC5|com-cf:nl|ptrs:na|ktp:N0|mc:68591|mtp:S|qry_typ:P|lang:en|wc:3|cs:8847|v=4,Zadine Fashion,https://www.indiamart.com/zadine-fashion/?pos=84&kwd=maternity t shirt&tags=||||8211.142|Price|product|||TS|rsf:gd-|-stype:attr=1|qr_nm:gd|res:RC5|com-cf:nl|ptrs:na|ktp:N0|mc:68591|mtp:S|qry_typ:P|lang:en|wc:3|cs:8847|v=4,False,Kamathipura,Mumbai,"25, Floor-4, Plot-232,purushottam Building, Patthe Bapurao Marg, Alfred Theater, Girgaon, Kamathipura, Mumbai - 400004, Dist.Mumbai, Maharashtra",8047672075,
"Half Sleeve Cotton Girls T Shirts, Casual Wear",https://www.indiamart.com/proddetail/cotton-girls-t-shirts-2852797085312.html?pos=85&kwd=maternity t shirt&tags=||||8752.144|Price|product|||TS|rsf:gd-|-stype:attr=1|qr_nm:gd|res:RC5|com-cf:nl|ptrs:na|ktp:N0|mc:68591|mtp:S|qry_typ:P|lang:en|wc:3|cs:8847|v=4,Krishna Enterprises,https://www.indiamart.com/krishnaenterprisesnewdelhi-india/?pos=85&kwd=maternity t shirt&tags=||||8752.144|Price|product|||TS|rsf:gd-|-stype:attr=1|qr_nm:gd|res:RC5|com-cf:nl|ptrs:na|ktp:N0|mc:68591|mtp:S|qry_typ:P|lang:en|wc:3|cs:8847|v=4,False,Brahampuri,New Delhi,"J-52, Street No-1, Jai Prakash Nagar, North East Delhi, Brahampuri, New Delhi - 110053, Dist.Delhi, Delhi",8047303205,
Spun Matty Polo Collar T Shirt,https://www.indiamart.com/proddetail/spun-matty-polo-collar-t-shirt-2854208075897.html?pos=86&kwd=maternity t shirt&tags=||||8211.142|Price|product|||TS|rsf:gd-|-stype:attr=1|qr_nm:gd|res:RC5|com-cf:nl|ptrs:na|ktp:N0|mc:68591|mtp:S|qry_typ:P|lang:en|wc:3|cs:8847|v=4,Aarnak Marketing,https://www.indiamart.com/aarnakmarketing-mumbai/?pos=86&kwd=maternity t shirt&tags=||||8211.142|Price|product|||TS|rsf:gd-|-stype:attr=1|qr_nm:gd|res:RC5|com-cf:nl|ptrs:na|ktp:N0|mc:68591|mtp:S|qry_typ:P|lang:en|wc:3|cs:8847|v=4,False,,Mumbai,"A 501, A Wing, Devendra Sadan CHSL, Near Dhobi Ghat, Jogeshwari East, Mumbai Suburban, Mumbai - 400060, Dist.Mumbai, Maharashtra",8045736083,
Plain T Shirt,https://www.indiamart.com/proddetail/plain-t-shirt-2850374621662.html?pos=87&kwd=maternity t shirt&tags=||||8235.23||product|||MDC|rsf:gd-|-stype:attr=1|qr_nm:gd|res:RC5|com-cf:nl|ptrs:na|ktp:N0|mc:68591|mtp:S|qry_typ:P|lang:en|wc:3|cs:8847|v=4,Black Birch Trading & Wearing Private Limited,https://www.indiamart.com/blackbirchtrading-wearing/?pos=87&kwd=maternity t shirt&tags=||||8235.23||product|||MDC|rsf:gd-|-stype:attr=1|qr_nm:gd|res:RC5|com-cf:nl|ptrs:na|ktp:N0|mc:68591|mtp:S|qry_typ:P|lang:en|wc:3|cs:8847|v=4,False,Dombivali,Dombivli,"1st Floor, A 101 A, Sai Arcade, Ganesh Mandir Path, Plot Number 4998B,4999 TO 5011,5033, Dombivli East, Kalyan,, Dombivali, Dombivli - 421201, Dist.Thane, Maharashtra",8046076639,
"Polyester Mens Half Sleeves Kabaddi Jersey, Free Size",https://www.indiamart.com/proddetail/mens-half-sleeves-kabaddi-jersey-2854558122588.html?pos=88&kwd=maternity t shirt&tags=||||8461.862|Price|product|||MDC|rsf:gd-|-stype:attr=1|qr_nm:gd|res:RC5|com-cf:nl|ptrs:na|ktp:N0|mc:68591|mtp:S|qry_typ:P|lang:en|wc:3|cs:8847|v=4,Viictus Sports,https://www.indiamart.com/viictussports/?pos=88&kwd=maternity t shirt&tags=||||8461.862|Price|product|||MDC|rsf:gd-|-stype:attr=1|qr_nm:gd|res:RC5|com-cf:nl|ptrs:na|ktp:N0|mc:68591|mtp:S|qry_typ:P|lang:en|wc:3|cs:8847|v=4,False,,Bhilwara,"8-K-18, Unnamed Road, Tilak Nagar, Bhilwara - 311001, Dist.Bhilwara, Rajasthan",7949322858,
Half Sleeve Ladies Printed T Shirt,https://www.indiamart.com/proddetail/ladies-printed-t-shirt-2852706452555.html?pos=89&kwd=maternity t shirt&tags=||||8626.744|Price|product|||TS|rsf:gd-|-stype:attr=1|qr_nm:gd|res:RC5|com-cf:nl|ptrs:na|ktp:N0|mc:68591|mtp:S|qry_typ:P|lang:en|wc:3|cs:8847|v=4,Sree Raj Kondal Export Enterprises,https://www.indiamart.com/sreerajkondalexportenterprises/?pos=89&kwd=maternity t shirt&tags=||||8626.744|Price|product|||TS|rsf:gd-|-stype:attr=1|qr_nm:gd|res:RC5|com-cf:nl|ptrs:na|ktp:N0|mc:68591|mtp:S|qry_typ:P|lang:en|wc:3|cs:8847|v=4,False,Gandhi Nagar,Tiruppur,"8/191 E, A V P Layout, Angeripalayam, Gandhi Nagar, Tiruppur - 641603, Dist.Coimbatore, Tamil Nadu",8043890249,
"4Cats Ladies T-shirt Plain Printed T Shirts, Age Group: 15 - 35",https://www.indiamart.com/proddetail/plain-printed-t-shirts-23339752130.html?pos=90&kwd=maternity t shirt&tags=||||9839.57|Price|product|||TS|rsf:gd-|-stype:attr=1|qr_nm:gd|res:RC5|com-cf:nl|ptrs:na|ktp:N0|mc:68591|mtp:S|qry_typ:P|lang:en|wc:3|cs:8847|v=4,S. R. International,https://www.indiamart.com/sr-international-westbengal/?pos=90&kwd=maternity t shirt&tags=||||9839.57|Price|product|||TS|rsf:gd-|-stype:attr=1|qr_nm:gd|res:RC5|com-cf:nl|ptrs:na|ktp:N0|mc:68591|mtp:S|qry_typ:P|lang:en|wc:3|cs:8847|v=4,False,Garden Reach,Kolkata,"R-67, Garden Reach Road, Garden Reach, Kolkata - 700024, Dist.Kolkata, West Bengal",8048985623,
Cotton Feeding Tops,https://www.indiamart.com/proddetail/cotton-feeding-tops-2852784466412.html?pos=91&kwd=maternity t shirt&tags=||||8223.226|Price|product|||TS|rsf:gd-|-stype:attr=1|qr_nm:gd|res:RC5|com-cf:nl|ptrs:na|ktp:N0|mc:68591|mtp:S|qry_typ:P|lang:en|wc:3|cs:8847|v=4,M/S Beauty Fashion Textile,https://www.indiamart.com/ms-beauty-fashion-textile/?pos=91&kwd=maternity t shirt&tags=||||8223.226|Price|product|||TS|rsf:gd-|-stype:attr=1|qr_nm:gd|res:RC5|com-cf:nl|ptrs:na|ktp:N0|mc:68591|mtp:S|qry_typ:P|lang:en|wc:3|cs:8847|v=4,False,Thane West,Thane,"Gala C/216, 2nd Floor, Paresh Complex, Pipeline Naka, Kalher, Thane West, Thane - 421302, Dist.Thane, Maharashtra",8047634233,
HT Black Ladies Collar T Shirt,https://www.indiamart.com/proddetail/ht-black-ladies-collar-t-shirt-2853250063188.html?pos=92&kwd=maternity t shirt&tags=||||8752.144|Price|product|||TS|rsf:gd-|-stype:attr=1|qr_nm:gd|res:RC5|com-cf:nl|ptrs:na|ktp:N0|mc:68591|mtp:S|qry_typ:P|lang:en|wc:3|cs:8847|v=4,Avyola,https://www.indiamart.com/avyoladelhi/?pos=92&kwd=maternity t shirt&tags=||||8752.144|Price|product|||TS|rsf:gd-|-stype:attr=1|qr_nm:gd|res:RC5|com-cf:nl|ptrs:na|ktp:N0|mc:68591|mtp:S|qry_typ:P|lang:en|wc:3|cs:8847|v=4,False,Govindpuri,New Delhi,"1298/13, Gali Number 13, Shuttering Shop, Govindpuri, South East Delhi, Govindpuri, New Delhi - 110019, Dist.Delhi, Delhi",7948547799,
"Half Sleeve Ladies T Shirt, Printed",https://www.indiamart.com/proddetail/ladies-t-shirt-23296634288.html?pos=93&kwd=maternity t shirt&tags=||||8661.854|Price|product|||TS|rsf:gd-|-stype:attr=1|qr_nm:gd|res:RC5|com-cf:nl|ptrs:na|ktp:N0|mc:68591|mtp:S|qry_typ:P|lang:en|wc:3|cs:8847|v=4,J.p. Knit Fashion,https://www.jpknitfashion.com/?pos=93&kwd=maternity t shirt&tags=||||8661.854|Price|product|||TS|rsf:gd-|-stype:attr=1|qr_nm:gd|res:RC5|com-cf:nl|ptrs:na|ktp:N0|mc:68591|mtp:S|qry_typ:P|lang:en|wc:3|cs:8847|v=4,False,Shivpuri,Ludhiana,"ST NO. 3,H NO B-V-1250,BRAHMPURI,,PURANA BAZAR Purana Bazar, Shivpuri, Ludhiana - 141008, Dist.Ludhiana, Punjab",8048973717,
Poly Cotton Corporate T Shirts,https://www.indiamart.com/proddetail/corporate-t-shirts-27431314748.html?pos=94&kwd=maternity t shirt&tags=||||8211.142|Price|product|||TS|rsf:gd-|-stype:attr=1|qr_nm:gd|res:RC5|com-cf:nl|ptrs:na|ktp:N0|mc:68591|mtp:S|qry_typ:P|lang:en|wc:3|cs:8847|v=4,Armond,https://www.indiamart.com/armond/?pos=94&kwd=maternity t shirt&tags=||||8211.142|Price|product|||TS|rsf:gd-|-stype:attr=1|qr_nm:gd|res:RC5|com-cf:nl|ptrs:na|ktp:N0|mc:68591|mtp:S|qry_typ:P|lang:en|wc:3|cs:8847|v=4,False,Gorai,Mumbai,"Plot No.22/23,Shree Krishna Kunj, Dr. B A Road, RDP 1, Gorai, Borivali West, Gorai, Mumbai - 400092, Dist.Mumbai, Maharashtra",8047546758,
"Women Black Cotton Full Sleeve Winter T Shirt, Size: Large",https://www.indiamart.com/proddetail/women-black-cotton-full-sleeve-winter-t-shirt-20426610991.html?pos=95&kwd=maternity t shirt&tags=||||8230.883|Price|product|||TS|rsf:gd-|-stype:attr=1|qr_nm:gd|res:RC5|com-cf:nl|ptrs:na|ktp:N0|mc:68591|mtp:S|qry_typ:P|lang:en|wc:3|cs:8847|v=4,Bapa Sitaram Readymade,https://www.indiamart.com/bapasitaramreadymade/?pos=95&kwd=maternity t shirt&tags=||||8230.883|Price|product|||TS|rsf:gd-|-stype:attr=1|qr_nm:gd|res:RC5|com-cf:nl|ptrs:na|ktp:N0|mc:68591|mtp:S|qry_typ:P|lang:en|wc:3|cs:8847|v=4,False,New Textile Market,Surat,"Ground Floor, Plot no.240, Gayatri Society-1, Opp.Brts Bus Stop, L H Road, New Textile Market, Surat - 395006, Dist.Surat, Gujarat",8043801947,
Round Cotton Ladies Crew Neck Printed T-Shirts,https://www.indiamart.com/proddetail/ladies-crew-neck-printed-t-shirts-2854773616048.html?pos=96&kwd=maternity t shirt&tags=||||8626.744|Price|product|||TS|rsf:gd-|-stype:attr=1|qr_nm:gd|res:RC5|com-cf:nl|ptrs:na|ktp:N0|mc:68591|mtp:S|qry_typ:P|lang:en|wc:3|cs:8847|v=4,One Up Textiles & Garments,https://www.style369.in/?pos=96&kwd=maternity t shirt&tags=||||8626.744|Price|product|||TS|rsf:gd-|-stype:attr=1|qr_nm:gd|res:RC5|com-cf:nl|ptrs:na|ktp:N0|mc:68591|mtp:S|qry_typ:P|lang:en|wc:3|cs:8847|v=4,False,,Tiruppur,"14A Sayapattarai Road Susaiyapuram, Tiruppur - 641601, Dist.Coimbatore, Tamil Nadu",7942824944,
"Multicolor Polyester Nylon Polo Neck T Shirt, Solid",https://www.indiamart.com/proddetail/nylon-polo-neck-t-shirt-2854847068788.html?pos=97&kwd=maternity t shirt&tags=||||8661.854|Price|product|||TS|rsf:gd-|-stype:attr=1|qr_nm:gd|res:RC5|com-cf:nl|ptrs:na|ktp:N0|mc:68591|mtp:S|qry_typ:P|lang:en|wc:3|cs:8847|v=4,Neelam Knitwear,https://www.indiamart.com/neelamknitwear/?pos=97&kwd=maternity t shirt&tags=||||8661.854|Price|product|||TS|rsf:gd-|-stype:attr=1|qr_nm:gd|res:RC5|com-cf:nl|ptrs:na|ktp:N0|mc:68591|mtp:S|qry_typ:P|lang:en|wc:3|cs:8847|v=4,False,Sunder Nagar,Ludhiana,"Neelam Knitwear, B-XXIV-3366/B, Street No 15, New Madhopuri, Sunder Nagar, Ludhiana - 141008, Dist.Ludhiana, Punjab",8047548120,
Round Cotton Half Sleeves Girl Printed T Shirt,https://www.indiamart.com/proddetail/half-sleeves-girl-printed-t-shirt-2851832737712.html?pos=98&kwd=maternity t shirt&tags=||||8661.854|Price|product|||TS|rsf:gd-|-stype:attr=1|qr_nm:gd|res:RC5|com-cf:nl|ptrs:na|ktp:N0|mc:68591|mtp:S|qry_typ:P|lang:en|wc:3|cs:8847|v=4,R S Arts Creation,https://www.indiamart.com/rsartscreation/?pos=98&kwd=maternity t shirt&tags=||||8661.854|Price|product|||TS|rsf:gd-|-stype:attr=1|qr_nm:gd|res:RC5|com-cf:nl|ptrs:na|ktp:N0|mc:68591|mtp:S|qry_typ:P|lang:en|wc:3|cs:8847|v=4,False,LUDHIANA,Ludhiana,"House No.17015A/1, Street No.2, New Shakti Nagar, LUDHIANA, Ludhiana - 141008, Dist.Ludhiana, Punjab",7942872366,
Micro PP Men Custom Printed Dry Fit Tshirt,https://www.indiamart.com/proddetail/custom-printed-dry-fit-tshirt-2853260235191.html?pos=99&kwd=maternity t shirt&tags=||||8661.854|Price|product|||TS|rsf:gd-|-stype:attr=1|qr_nm:gd|res:RC5|com-cf:nl|ptrs:na|ktp:N0|mc:68591|mtp:S|qry_typ:P|lang:en|wc:3|cs:8847|v=4,Balaji Threads,https://www.balajithreads.com/?pos=99&kwd=maternity t shirt&tags=||||8661.854|Price|product|||TS|rsf:gd-|-stype:attr=1|qr_nm:gd|res:RC5|com-cf:nl|ptrs:na|ktp:N0|mc:68591|mtp:S|qry_typ:P|lang:en|wc:3|cs:8847|v=4,False,Indl Colony,Ludhiana,"202 1, Near Cheema Chowk, Indl Colony, Ludhiana - 141003, Dist.Ludhiana, Punjab",8046072503,
"Half Sleeve Ladies Printed Cotton T Shirt, Casual Wear, Size: Medium",https://www.indiamart.com/proddetail/ladies-printed-cotton-t-shirt-2853885136012.html?pos=100&kwd=maternity t shirt&tags=||||8211.142|Price|product|||MDC|rsf:gd-|-stype:attr=1|qr_nm:gd|res:RC5|com-cf:nl|ptrs:na|ktp:N0|mc:68591|mtp:S|qry_typ:P|lang:en|wc:3|cs:8847|v=4,Karia Creation,https://www.indiamart.com/karia-creation-mumbai/?pos=100&kwd=maternity t shirt&tags=||||8211.142|Price|product|||MDC|rsf:gd-|-stype:attr=1|qr_nm:gd|res:RC5|com-cf:nl|ptrs:na|ktp:N0|mc:68591|mtp:S|qry_typ:P|lang:en|wc:3|cs:8847|v=4,False,Santacruz,Mumbai,"10, Gurunanak Chawl , Prabhat Colony, Santacruz East, Mumbai Suburban, Santacruz, Mumbai - 400055, Dist.Mumbai, Maharashtra",8044011839,
Ladies Printed T Shirt,https://www.indiamart.com/proddetail/ladies-printed-t-shirt-2854745241748.html?pos=101&kwd=maternity t shirt&tags=||||8626.744|Price|product|||MDC|rsf:gd-|-stype:attr=1|qr_nm:gd|res:RC5|com-cf:nl|ptrs:na|ktp:N0|mc:68591|mtp:S|qry_typ:P|lang:en|wc:3|cs:8847|v=4,Prithivee Stitching Centre,https://www.indiamart.com/prithivee-stitchingcentre/?pos=101&kwd=maternity t shirt&tags=||||8626.744|Price|product|||MDC|rsf:gd-|-stype:attr=1|qr_nm:gd|res:RC5|com-cf:nl|ptrs:na|ktp:N0|mc:68591|mtp:S|qry_typ:P|lang:en|wc:3|cs:8847|v=4,False,Gandhi Nagar,Tiruppur,"355, Jeeva Street, Chellammal Colony, Samundipuram, Gandhi Nagar, Tiruppur - 641603, Dist.Coimbatore, Tamil Nadu",8046064010,
"Half Sleeve Girls Dreamers T-Shirt & Shorts, Casual Wear",https://www.indiamart.com/proddetail/girls-dreamers-t-shirt-shorts-2853884470155.html?pos=102&kwd=maternity t shirt&tags=||||8626.744|Price|product|||TS|rsf:gd-|-stype:attr=1|qr_nm:gd|res:RC5|com-cf:nl|ptrs:na|ktp:N0|mc:68591|mtp:S|qry_typ:P|lang:en|wc:3|cs:8847|v=4,Sudarshaan Impex,https://www.indiamart.com/sudarshaan-impex/?pos=102&kwd=maternity t shirt&tags=||||8626.744|Price|product|||TS|rsf:gd-|-stype:attr=1|qr_nm:gd|res:RC5|com-cf:nl|ptrs:na|ktp:N0|mc:68591|mtp:S|qry_typ:P|lang:en|wc:3|cs:8847|v=4,False,Jeeva Nagar,Tiruppur,"No.8/398C, Selvalakshmi nagar, 1st street, Angeri palayam, Jeeva Nagar, Tiruppur - 641603, Dist.Coimbatore, Tamil Nadu",8046077280,
Half Sleeve Ladies Polo T-Shirt,https://www.indiamart.com/proddetail/ladies-polo-t-shirt-14129896597.html?pos=103&kwd=maternity t shirt&tags=||||8752.144|Price|product|||TS|rsf:gd-|-stype:attr=1|qr_nm:gd|res:RC5|com-cf:nl|ptrs:na|ktp:N0|mc:68591|mtp:S|qry_typ:P|lang:en|wc:3|cs:8847|v=4,Dorex Knitwears,https://www.customisedt-shirts.com/?pos=103&kwd=maternity t shirt&tags=||||8752.144|Price|product|||TS|rsf:gd-|-stype:attr=1|qr_nm:gd|res:RC5|com-cf:nl|ptrs:na|ktp:N0|mc:68591|mtp:S|qry_typ:P|lang:en|wc:3|cs:8847|v=4,False,Patparganj Industrial Area,New Delhi,"262, Patparganj Industrial Area, Patparganj Industrial Area, New Delhi - 110092, Dist.Delhi, Delhi",8048986954,
Half Sleeve Cotton White Round Neck Women T-Shirt,https://www.indiamart.com/proddetail/white-round-neck-women-t-shirt-2855079306862.html?pos=104&kwd=maternity t shirt&tags=||||8228.275|Price|product|||TS|rsf:gd-|-stype:attr=1|qr_nm:gd|res:RC5|com-cf:nl|ptrs:na|ktp:N0|mc:68591|mtp:S|qry_typ:P|lang:en|wc:3|cs:8847|v=4,Kohinoor,https://www.kohisfashion.com/?pos=104&kwd=maternity t shirt&tags=||||8228.275|Price|product|||TS|rsf:gd-|-stype:attr=1|qr_nm:gd|res:RC5|com-cf:nl|ptrs:na|ktp:N0|mc:68591|mtp:S|qry_typ:P|lang:en|wc:3|cs:8847|v=4,False,Saraspur,Ahmedabad,"Second Floor, Block-C-248, Sumel Business Park-4, Nr Amdupura, New Gujarat Synthetic Mill Compound, Saraspur, Saraspur, Ahmedabad - 380018, Dist.Ahmedabad, Gujarat",7949086191,
"Half Sleeve Ladies Cotton Printed Round Neck T Shirt, Daily Wear, Size: Medium",https://www.indiamart.com/proddetail/ladies-cotton-printed-round-neck-t-shirt-2851568693997.html?pos=105&kwd=maternity t shirt&tags=||||8752.144|Price|product|||MDC|rsf:gd-|-stype:attr=1|qr_nm:gd|res:RC5|com-cf:nl|ptrs:na|ktp:N0|mc:68591|mtp:S|qry_typ:P|lang:en|wc:3|cs:8847|v=4,Deva Collection,https://www.indiamart.com/devacollection-new-delhi/?pos=105&kwd=maternity t shirt&tags=||||8752.144|Price|product|||MDC|rsf:gd-|-stype:attr=1|qr_nm:gd|res:RC5|com-cf:nl|ptrs:na|ktp:N0|mc:68591|mtp:S|qry_typ:P|lang:en|wc:3|cs:8847|v=4,False,,New Delhi,"F/F, B-33, East Uttam Nagar, West, New Delhi - 110059, Dist.Delhi, Delhi",8045736518,
"Half Sleeve Girls T Shirt, Daily Wear",https://www.indiamart.com/proddetail/girls-t-shirt-2851856910988.html?pos=106&kwd=maternity t shirt&tags=||||8626.744|Price|product|||TS|rsf:gd-|-stype:attr=1|qr_nm:gd|res:RC5|com-cf:nl|ptrs:na|ktp:N0|mc:68591|mtp:S|qry_typ:P|lang:en|wc:3|cs:8847|v=4,Prabha Shine,https://www.indiamart.com/prabha-shine/?pos=106&kwd=maternity t shirt&tags=||||8626.744|Price|product|||TS|rsf:gd-|-stype:attr=1|qr_nm:gd|res:RC5|com-cf:nl|ptrs:na|ktp:N0|mc:68591|mtp:S|qry_typ:P|lang:en|wc:3|cs:8847|v=4,False,tirupur,Tiruppur,"3 605,,PARAKKADU I STREET MURUGAMPALAYAM IDUVAMPALAYAM PO,TIRUPUR, tirupur, Tiruppur - 641687, Dist.Coimbatore, Tamil Nadu",7942642481,
Dri Fit Nirmal Net T Shirt,https://www.indiamart.com/proddetail/nirmal-net-t-shirt-2850647409555.html?pos=107&kwd=maternity t shirt&tags=||||8752.144|Price|product|||TS|rsf:gd-|-stype:attr=1|qr_nm:gd|res:RC5|com-cf:nl|ptrs:na|ktp:N0|mc:68591|mtp:S|qry_typ:P|lang:en|wc:3|cs:8847|v=4,Ocean Promotions,https://www.oceanpromotions.co.in/?pos=107&kwd=maternity t shirt&tags=||||8752.144|Price|product|||TS|rsf:gd-|-stype:attr=1|qr_nm:gd|res:RC5|com-cf:nl|ptrs:na|ktp:N0|mc:68591|mtp:S|qry_typ:P|lang:en|wc:3|cs:8847|v=4,False,Karol Bagh,New Delhi,"Gaushala Marg Bagh,8606,Raoji, Karol Bagh, New Delhi - 110005, Dist.Delhi, Delhi",8047642089,
Plain Cotton T Shirt Round Neck,https://www.indiamart.com/proddetail/cotton-t-shirt-round-neck-2850556080788.html?pos=108&kwd=maternity t shirt&tags=||||8752.144|Price|product|||TS|rsf:gd-|-stype:attr=1|qr_nm:gd|res:RC5|com-cf:nl|ptrs:na|ktp:N0|mc:68591|mtp:S|qry_typ:P|lang:en|wc:3|cs:8847|v=4,Excel Solutions,https://www.indiamart.com/excelsolutionsdelhi/?pos=108&kwd=maternity t shirt&tags=||||8752.144|Price|product|||TS|rsf:gd-|-stype:attr=1|qr_nm:gd|res:RC5|com-cf:nl|ptrs:na|ktp:N0|mc:68591|mtp:S|qry_typ:P|lang:en|wc:3|cs:8847|v=4,False,Karol Bagh,New Delhi,"8689, K G Road, Sidhipura, Central Delhi, Karol Bagh, New Delhi - 110005, Dist.Delhi, Delhi",8043853567,
"Round Full Sleeve Ladies Raglan T Shirt, Casual Wear, Plain",https://www.indiamart.com/proddetail/ladies-raglan-t-shirt-27487235312.html?pos=109&kwd=maternity t shirt&tags=||||8581.569|Price|product|||TS|rsf:gd-|-stype:attr=1|qr_nm:gd|res:RC5|com-cf:nl|ptrs:na|ktp:N0|mc:68591|mtp:S|qry_typ:P|lang:en|wc:3|cs:8847|v=4,Infirax,https://www.infirax.in/?pos=109&kwd=maternity t shirt&tags=||||8581.569|Price|product|||TS|rsf:gd-|-stype:attr=1|qr_nm:gd|res:RC5|com-cf:nl|ptrs:na|ktp:N0|mc:68591|mtp:S|qry_typ:P|lang:en|wc:3|cs:8847|v=4,False,Nutan Nagar,Dewas,"20/B, Sindhu Nagar Opp Line Hotel, Nutan Nagar, Dewas - 455001, Dist.Dewas, Madhya Pradesh",8047548734,
"Half Sleeve Ladies Ray Polo T Shirt, 250g Collar T Shirt, Heavy weight Cotton, Casual Wear",https://www.indiamart.com/proddetail/ladies-ray-polo-t-shirt-250g-collar-t-shirt-heavy-weight-cotton-24055855930.html?pos=110&kwd=maternity t shirt&tags=||||8661.854|Price|product|||TS|rsf:gd-|-stype:attr=1|qr_nm:gd|res:RC5|com-cf:nl|ptrs:na|ktp:N0|mc:68591|mtp:S|qry_typ:P|lang:en|wc:3|cs:8847|v=4,Apparel Factory,https://www.apparelfactory.store/?pos=110&kwd=maternity t shirt&tags=||||8661.854|Price|product|||TS|rsf:gd-|-stype:attr=1|qr_nm:gd|res:RC5|com-cf:nl|ptrs:na|ktp:N0|mc:68591|mtp:S|qry_typ:P|lang:en|wc:3|cs:8847|v=4,False,,Ludhiana,"E62, Phase 4 Focal Point, Ludhiana - 141010, Dist.Ludhiana, Punjab",8048960853,
Polo Collar T Shirts For Corporate Offices,https://www.indiamart.com/proddetail/polo-collar-t-shirts-for-corporate-offices-2852796093233.html?pos=111&kwd=maternity t shirt&tags=||||8307.81|Price|product|||TS|rsf:gd-|-stype:attr=1|qr_nm:gd|res:RC5|com-cf:nl|ptrs:na|ktp:N0|mc:68591|mtp:S|qry_typ:P|lang:en|wc:3|cs:8847|v=4,M/S. Everest Safety Industries,https://www.everestsafetyindustries.com/?pos=111&kwd=maternity t shirt&tags=||||8307.81|Price|product|||TS|rsf:gd-|-stype:attr=1|qr_nm:gd|res:RC5|com-cf:nl|ptrs:na|ktp:N0|mc:68591|mtp:S|qry_typ:P|lang:en|wc:3|cs:8847|v=4,False,Pune Cantonment,Pune,"303, Royal Palace, Survey Number 43/1B/24A, Kondhwa Khurd, Pune Cantonment, Pune - 411048, Dist.Pune, Maharashtra",8046064029,
"Half Sleeve Girls Snupple Printed Round Neck T-Shirts, Casual Wear, Size: Medium",https://www.indiamart.com/proddetail/girls-snupple-printed-round-neck-t-shirts-27445978412.html?pos=112&kwd=maternity t shirt&tags=||||8626.744|Price|product|||TS|rsf:gd-|-stype:attr=1|qr_nm:gd|res:RC5|com-cf:nl|ptrs:na|ktp:N0|mc:68591|mtp:S|qry_typ:P|lang:en|wc:3|cs:8847|v=4,Pivotaal Branding Solutions,https://www.pivotaal.com/?pos=112&kwd=maternity t shirt&tags=||||8626.744|Price|product|||TS|rsf:gd-|-stype:attr=1|qr_nm:gd|res:RC5|com-cf:nl|ptrs:na|ktp:N0|mc:68591|mtp:S|qry_typ:P|lang:en|wc:3|cs:8847|v=4,False,Gandhi Nagar,Tiruppur,"4th Street Gandhi Nagar, 10/16, Behind Daisy Hospital, Gandhi Nagar, Tiruppur - 641603, Dist.Coimbatore, Tamil Nadu",7942671456,
"Girls Half Sleeves Sequence 100% Cotton T-Shirt, Casual Wear",https://www.indiamart.com/proddetail/girls-half-sleeves-sequence-100-cotton-t-shirt-23556559291.html?pos=113&kwd=maternity t shirt&tags=||||9045.955|Price|product|||TS|rsf:gd-|-stype:attr=1|qr_nm:gd|res:RC5|com-cf:nl|ptrs:na|ktp:N0|mc:68591|mtp:S|qry_typ:P|lang:en|wc:3|cs:8847|v=4,Fun Krafts,https://www.indiamart.com/funkrafts/?pos=113&kwd=maternity t shirt&tags=||||9045.955|Price|product|||TS|rsf:gd-|-stype:attr=1|qr_nm:gd|res:RC5|com-cf:nl|ptrs:na|ktp:N0|mc:68591|mtp:S|qry_typ:P|lang:en|wc:3|cs:8847|v=4,False,Civil Line,Kanpur,"No. 15- 247 A, Civil Lines, Civil Line, Kanpur - 208001, Uttar Pradesh",8047646926,
"Black Women T Shirt, Half Sleeves, Plain",https://www.indiamart.com/proddetail/black-women-t-shirt-27606123962.html?pos=114&kwd=maternity t shirt&tags=||||8230.883|Price|product|||TS|rsf:gd-|-stype:attr=1|qr_nm:gd|res:RC5|com-cf:nl|ptrs:na|ktp:N0|mc:68591|mtp:S|qry_typ:P|lang:en|wc:3|cs:8847|v=4,C D Stars,https://www.indiamart.com/cdstarssurat/?pos=114&kwd=maternity t shirt&tags=||||8230.883|Price|product|||TS|rsf:gd-|-stype:attr=1|qr_nm:gd|res:RC5|com-cf:nl|ptrs:na|ktp:N0|mc:68591|mtp:S|qry_typ:P|lang:en|wc:3|cs:8847|v=4,False,Parvat Patiya,Surat,"53 . Shanti Niketan Society NR LAJAMANI CHOWK MOTA VARACHHA, Parvat Patiya, Surat - 394101, Dist.Surat, Gujarat",8043891657,
Women Cotton Oversized T Shirt,https://www.indiamart.com/proddetail/women-cotton-oversized-t-shirt-2854432014455.html?pos=115&kwd=maternity t shirt&tags=||||8663.873|Price|product|||MDC|rsf:gd-|-stype:attr=1|qr_nm:gd|res:RC5|com-cf:nl|ptrs:na|ktp:N0|mc:68591|mtp:S|qry_typ:P|lang:en|wc:3|cs:8847|v=4,DemandFuel,https://www.indiamart.com/30th-state/?pos=115&kwd=maternity t shirt&tags=||||8663.873|Price|product|||MDC|rsf:gd-|-stype:attr=1|qr_nm:gd|res:RC5|com-cf:nl|ptrs:na|ktp:N0|mc:68591|mtp:S|qry_typ:P|lang:en|wc:3|cs:8847|v=4,False,,Bengaluru,"No.48, Mocking Jay, Anjinappa Layout, Doddagubbi Post, Off MLA Basavaraj Office, Byrathi, Bengaluru Urban, Bengaluru - 560077, Dist.Bengaluru, Karnataka",7949338549,
"LADIES TSHIRT FANCY SLEEVE, Size: Medium",https://www.indiamart.com/proddetail/ladies-tshirt-fancy-sleeve-2850711400048.html?pos=116&kwd=maternity t shirt&tags=||||8626.744|Price|product|||TS|rsf:gd-|-stype:attr=1|qr_nm:gd|res:RC5|com-cf:nl|ptrs:na|ktp:N0|mc:68591|mtp:S|qry_typ:P|lang:en|wc:3|cs:8847|v=4,Thirumalai Knitting Mills,https://www.indiamart.com/thirumalai-knitting-mills/?pos=116&kwd=maternity t shirt&tags=||||8626.744|Price|product|||TS|rsf:gd-|-stype:attr=1|qr_nm:gd|res:RC5|com-cf:nl|ptrs:na|ktp:N0|mc:68591|mtp:S|qry_typ:P|lang:en|wc:3|cs:8847|v=4,False,3rd Street,Tiruppur,"Lakshmi Nagar Extention, 3rd Street, Tiruppur - 641602, Dist.Coimbatore, Tamil Nadu",7942959436,
"Boys Polo Neck Polyester T Shirt, Size: 32.0",https://www.indiamart.com/proddetail/boys-polo-neck-polyester-t-shirt-2854106195588.html?pos=117&kwd=maternity t shirt&tags=||||9843.627|Price|product|||MDC|rsf:gd-|-stype:attr=1|qr_nm:gd|res:RC5|com-cf:nl|ptrs:na|ktp:N0|mc:68591|mtp:S|qry_typ:P|lang:en|wc:3|cs:8847|v=4,Snehasis Gupta,https://www.indiamart.com/snehasis-gupta/?pos=117&kwd=maternity t shirt&tags=||||9843.627|Price|product|||MDC|rsf:gd-|-stype:attr=1|qr_nm:gd|res:RC5|com-cf:nl|ptrs:na|ktp:N0|mc:68591|mtp:S|qry_typ:P|lang:en|wc:3|cs:8847|v=4,False,Dum Dum Park,North 24 Parganas,"559, Dum Dum Park , Kolkata, Dum Dum Park, North 24 Parganas - 700055, Dist.North 24 Parganas, West Bengal",8044564715,
Half Sleeve Women Gym T Shirt,https://www.indiamart.com/proddetail/women-gym-t-shirt-2854708007730.html?pos=118&kwd=maternity t shirt&tags=||||8676.986|Price|product|||MDC|rsf:gd-|-stype:attr=1|qr_nm:gd|res:RC5|com-cf:nl|ptrs:na|ktp:N0|mc:68591|mtp:S|qry_typ:P|lang:en|wc:3|cs:8847|v=4,Redbox Fashions,https://www.indiamart.com/redboxfashions/?pos=118&kwd=maternity t shirt&tags=||||8676.986|Price|product|||MDC|rsf:gd-|-stype:attr=1|qr_nm:gd|res:RC5|com-cf:nl|ptrs:na|ktp:N0|mc:68591|mtp:S|qry_typ:P|lang:en|wc:3|cs:8847|v=4,False,Kovilpatti North,Kovilpatti,"14/2, Jeyameena complex, Kovilpatti North, Kovilpatti - 628502, Dist.Tuticorin, Tamil Nadu",8046074779,
"Printed Cotton Sublimation T Shirt, Round Collar",https://www.indiamart.com/proddetail/sublimation-t-shirt-22308601891.html?pos=119&kwd=maternity t shirt&tags=||||8747.203|Price|product|||TS|rsf:gd-|-stype:attr=1|qr_nm:gd|res:RC5|com-cf:nl|ptrs:na|ktp:N0|mc:68591|mtp:S|qry_typ:P|lang:en|wc:3|cs:8847|v=4,Radhika Industries,https://www.indiamart.com/radhika-industries-panipat/?pos=119&kwd=maternity t shirt&tags=||||8747.203|Price|product|||TS|rsf:gd-|-stype:attr=1|qr_nm:gd|res:RC5|com-cf:nl|ptrs:na|ktp:N0|mc:68591|mtp:S|qry_typ:P|lang:en|wc:3|cs:8847|v=4,False,Model Town,Panipat,"No. 326- L, Model Town, Panipat - 132103, Dist.Panipat, Haryana",8046042935,
"Printed Women Olive Green Cotton T Shirt, Round Neck",https://www.indiamart.com/proddetail/women-olive-green-cotton-t-shirt-2851671354191.html?pos=120&kwd=maternity t shirt&tags=||||8661.854|Price|product|||TS|rsf:gd-|-stype:attr=1|qr_nm:gd|res:RC5|com-cf:nl|ptrs:na|ktp:N0|mc:68591|mtp:S|qry_typ:P|lang:en|wc:3|cs:8847|v=4,Sabir Enterprises,https://www.indiamart.com/sabir-enterprisespunjab/?pos=120&kwd=maternity t shirt&tags=||||8661.854|Price|product|||TS|rsf:gd-|-stype:attr=1|qr_nm:gd|res:RC5|com-cf:nl|ptrs:na|ktp:N0|mc:68591|mtp:S|qry_typ:P|lang:en|wc:3|cs:8847|v=4,False,New Kartar Nagar,Ludhiana,"1268, Street No-8 Dashmesh Nagar, New Kartar Nagar, Ludhiana - 141003, Dist.Ludhiana, Punjab",7942839037,
Girls Checks Polo T Shirt,https://www.indiamart.com/proddetail/polo-t-shirt-11670389930.html?pos=121&kwd=maternity t shirt&tags=||||8228.275|Price|product|||TS|rsf:gd-|-stype:attr=1|qr_nm:gd|res:RC5|com-cf:nl|ptrs:na|ktp:N0|mc:68591|mtp:S|qry_typ:P|lang:en|wc:3|cs:8847|v=4,Triumph Sportswear Design Studio Private Limited,https://www.triumph-sportswear.com/?pos=121&kwd=maternity t shirt&tags=||||8228.275|Price|product|||TS|rsf:gd-|-stype:attr=1|qr_nm:gd|res:RC5|com-cf:nl|ptrs:na|ktp:N0|mc:68591|mtp:S|qry_typ:P|lang:en|wc:3|cs:8847|v=4,True,Changodar,Ahmedabad,"Plot No. 48 A, Ashwamegh Estate Nutan Nagrik Bank Street, Changodar, Changodar, Ahmedabad - 382213, Dist.Ahmedabad, Gujarat",8048965219,
"Round Multicolor Plain T Shirt, Half Sleeves",https://www.indiamart.com/proddetail/plain-t-shirt-21736897230.html?pos=122&kwd=maternity t shirt&tags=||||8228.275|Price|product|||TS|rsf:gd-|-stype:attr=1|qr_nm:gd|res:RC5|com-cf:nl|ptrs:na|ktp:N0|mc:68591|mtp:S|qry_typ:P|lang:en|wc:3|cs:8847|v=4,R Keswani And Co,https://www.indiamart.com/rkeswani-co/?pos=122&kwd=maternity t shirt&tags=||||8228.275|Price|product|||TS|rsf:gd-|-stype:attr=1|qr_nm:gd|res:RC5|com-cf:nl|ptrs:na|ktp:N0|mc:68591|mtp:S|qry_typ:P|lang:en|wc:3|cs:8847|v=4,False,Kubernagar B A,Ahmedabad,"Shop No. 1, Rajavir Road, Near Raj Hosiery Kuber Nagar, Kubernagar B A, Ahmedabad - 382340, Dist.Ahmedabad, Gujarat",8048608456,
"Round Lavender Ladies Oversized Cotton T Shirts, Half Sleeves, Printed",https://www.indiamart.com/proddetail/ladies-oversized-cotton-t-shirts-2853645527548.html?pos=123&kwd=maternity t shirt&tags=||||9111.322|Price|product|||MDC|rsf:gd-|-stype:attr=1|qr_nm:gd|res:RC5|com-cf:nl|ptrs:na|ktp:N0|mc:68591|mtp:S|qry_typ:P|lang:en|wc:3|cs:8847|v=4,The Zero Store,https://www.indiamart.com/the-zero-store/?pos=123&kwd=maternity t shirt&tags=||||9111.322|Price|product|||MDC|rsf:gd-|-stype:attr=1|qr_nm:gd|res:RC5|com-cf:nl|ptrs:na|ktp:N0|mc:68591|mtp:S|qry_typ:P|lang:en|wc:3|cs:8847|v=4,False,Ram Nagar,Bhilai,"Shri Ram Market, Ram Nagar In Front Sparsh Hospital Farid Nagar, Durg, Ram Nagar, Bhilai - 490023, Dist.Durg, Chhattisgarh",8045165910,
Customized Promotional T Shirt,https://www.indiamart.com/proddetail/customized-promotional-t-shirt-2852981046048.html?pos=124&kwd=maternity t shirt&tags=||||8626.744|Price|product|||TS|rsf:gd-|-stype:attr=1|qr_nm:gd|res:RC5|com-cf:nl|ptrs:na|ktp:N0|mc:68591|mtp:S|qry_typ:P|lang:en|wc:3|cs:8847|v=4,Tenet Clothing,https://www.tenetclothing.co.in/?pos=124&kwd=maternity t shirt&tags=||||8626.744|Price|product|||TS|rsf:gd-|-stype:attr=1|qr_nm:gd|res:RC5|com-cf:nl|ptrs:na|ktp:N0|mc:68591|mtp:S|qry_typ:P|lang:en|wc:3|cs:8847|v=4,False,Sevanthapalyam,Tiruppur,"D.No.3/874, Moolakadai, Palldam, Road,Veerapandi(Po), K Chettipalayam, Sevanthapalyam, Tiruppur - 641605, Dist.Coimbatore, Tamil Nadu",7942704927,
"Half Sleeve Ladies Caribbean Turquoise Printed Long T Shirt, Daily Wear, Size: Large",https://www.indiamart.com/proddetail/ladies-caribbean-turquoise-printed-long-t-shirt-2854372995497.html?pos=125&kwd=maternity t shirt&tags=||||8752.144|Price|product|||MDC|rsf:gd-|-stype:attr=1|qr_nm:gd|res:RC5|com-cf:nl|ptrs:na|ktp:N0|mc:68591|mtp:S|qry_typ:P|lang:en|wc:3|cs:8847|v=4,Dalphin Moda,https://www.indiamart.com/dalphin-moda/?pos=125&kwd=maternity t shirt&tags=||||8752.144|Price|product|||MDC|rsf:gd-|-stype:attr=1|qr_nm:gd|res:RC5|com-cf:nl|ptrs:na|ktp:N0|mc:68591|mtp:S|qry_typ:P|lang:en|wc:3|cs:8847|v=4,False,,New Delhi,"A-329/1, Inder Enclave II, Mubark Pur, North West Delhi, New Delhi - 110086, Dist.Delhi, Delhi",7949342762,
Customized Men Sports T Shirt,https://www.indiamart.com/proddetail/customized-men-sports-t-shirt-2852906343955.html?pos=126&kwd=maternity t shirt&tags=||||8281.036|Price|product|||TS|rsf:gd-|-stype:attr=1|qr_nm:gd|res:RC5|com-cf:nl|ptrs:na|ktp:N0|mc:68591|mtp:S|qry_typ:P|lang:en|wc:3|cs:8847|v=4,Usha Printings,https://www.indiamart.com/ushaprintings/?pos=126&kwd=maternity t shirt&tags=||||8281.036|Price|product|||TS|rsf:gd-|-stype:attr=1|qr_nm:gd|res:RC5|com-cf:nl|ptrs:na|ktp:N0|mc:68591|mtp:S|qry_typ:P|lang:en|wc:3|cs:8847|v=4,False,Makarpura,Vadodara,"Shop No 1 Police Praja Milan Market Susen Tarsali Ring Road , Susen Circle, Makarpura, Vadodara - 390014, Dist.Vadodara, Gujarat",7942968993,
"Holi Printed Polyester T Shirt, Round Neck",https://www.indiamart.com/proddetail/holi-printed-polyester-t-shirt-2853435938288.html?pos=127&kwd=maternity t shirt&tags=||||9134.646|Price|product|||TS|rsf:gd-|-stype:attr=1|qr_nm:gd|res:RC5|com-cf:nl|ptrs:na|ktp:N0|mc:68591|mtp:S|qry_typ:P|lang:en|wc:3|cs:8847|v=4,SupplyBytes,https://www.indiamart.com/supplybytes/?pos=127&kwd=maternity t shirt&tags=||||9134.646|Price|product|||TS|rsf:gd-|-stype:attr=1|qr_nm:gd|res:RC5|com-cf:nl|ptrs:na|ktp:N0|mc:68591|mtp:S|qry_typ:P|lang:en|wc:3|cs:8847|v=4,False,Masora,Kondagaon,"No.8, Hospital Ward, Main Road, Masora, Kondagaon - 494226, Dist.Bastar, Chhattisgarh",7942711478,
"Cotton Full Sleeve Cute Bee Girls Hood T Shirt, Casual Wear",https://www.indiamart.com/proddetail/cute-bee-girls-hood-t-shirt-23007489530.html?pos=128&kwd=maternity t shirt&tags=||||8626.744|Price|product|||TS|rsf:gd-|-stype:attr=1|qr_nm:gd|res:RC5|com-cf:nl|ptrs:na|ktp:N0|mc:68591|mtp:S|qry_typ:P|lang:en|wc:3|cs:8847|v=4,Priya Garments,https://www.indiamart.com/priyagarments/?pos=128&kwd=maternity t shirt&tags=||||8626.744|Price|product|||TS|rsf:gd-|-stype:attr=1|qr_nm:gd|res:RC5|com-cf:nl|ptrs:na|ktp:N0|mc:68591|mtp:S|qry_typ:P|lang:en|wc:3|cs:8847|v=4,False,Kaalampalayam,Tiruppur,"8/3515 R6, Ganapathi Nagar, 1st Street, Kaalampalayam, Tiruppur - 641602, Dist.Coimbatore, Tamil Nadu",8048959019,
"Cotton Personalized Couple T Shirts, Round Neck",https://www.indiamart.com/proddetail/personalized-couple-t-shirts-25594514891.html?pos=129&kwd=maternity t shirt&tags=||||8228.275|Price|product|||TS|rsf:gd-|-stype:attr=1|qr_nm:gd|res:RC5|com-cf:nl|ptrs:na|ktp:N0|mc:68591|mtp:S|qry_typ:P|lang:en|wc:3|cs:8847|v=4,Kaal Photo Studio,https://www.kaalphotostudio.com/?pos=129&kwd=maternity t shirt&tags=||||8228.275|Price|product|||TS|rsf:gd-|-stype:attr=1|qr_nm:gd|res:RC5|com-cf:nl|ptrs:na|ktp:N0|mc:68591|mtp:S|qry_typ:P|lang:en|wc:3|cs:8847|v=4,False,Opp Shreekunj Society Ghatlodia,Ahmedabad,"Cellor Shop 09, Simandhar Complex Near Jain Temple, Opp Shreekunj Society Ghatlodia, Ahmedabad - 380061, Dist.Ahmedabad, Gujarat",7942554360,
Womens Wear Looper Rib,https://www.indiamart.com/proddetail/womens-wear-looper-rib-27068934191.html?pos=130&kwd=maternity t shirt&tags=||||8230.883|Price|product|||TS|rsf:gd-|-stype:attr=1|qr_nm:gd|res:RC5|com-cf:nl|ptrs:na|ktp:N0|mc:68591|mtp:S|qry_typ:P|lang:en|wc:3|cs:8847|v=4,VS Fashions,https://www.indiamart.com/vsfashions-surat/?pos=130&kwd=maternity t shirt&tags=||||8230.883|Price|product|||TS|rsf:gd-|-stype:attr=1|qr_nm:gd|res:RC5|com-cf:nl|ptrs:na|ktp:N0|mc:68591|mtp:S|qry_typ:P|lang:en|wc:3|cs:8847|v=4,False,,Surat,"Upper Ground 1012 TO 1029, UG 1 TO 9 AND UG 35 TO 43, Sangini Trade Centre, Kumbharia, Eicher Trishul Motors Trucks & Buses, Kumbharia, Surat - 395010, Dist.Surat, Gujarat",8048603089,
Long Tees Women,https://www.indiamart.com/proddetail/long-tees-women-2850328294048.html?pos=131&kwd=maternity t shirt&tags=||||8626.744||product|||TS|rsf:gd-|-stype:attr=1|qr_nm:gd|res:RC5|com-cf:nl|ptrs:na|ktp:N0|mc:68591|mtp:S|qry_typ:P|lang:en|wc:3|cs:8847|v=4,Paras Textiles,https://www.indiamart.com/parastextiles/?pos=131&kwd=maternity t shirt&tags=||||8626.744||product|||TS|rsf:gd-|-stype:attr=1|qr_nm:gd|res:RC5|com-cf:nl|ptrs:na|ktp:N0|mc:68591|mtp:S|qry_typ:P|lang:en|wc:3|cs:8847|v=4,False,Appachi Nagar,Tiruppur,"2 MP Nagar, 2nd Street, Kongu Nagar,, Appachi Nagar, Tiruppur - 641607, Dist.Coimbatore, Tamil Nadu",8046036323,
Printed Poly Viscose Custom Couple T Shirts,https://www.indiamart.com/proddetail/custom-couple-t-shirts-24240013473.html?pos=132&kwd=maternity t shirt&tags=||||8752.144|Price|product|||TS|rsf:gd-|-stype:attr=1|qr_nm:gd|res:RC5|com-cf:nl|ptrs:na|ktp:N0|mc:68591|mtp:S|qry_typ:P|lang:en|wc:3|cs:8847|v=4,Infinity Solutions,https://www.indiamart.com/infinitysolutions-uttarpradesh/?pos=132&kwd=maternity t shirt&tags=||||8752.144|Price|product|||TS|rsf:gd-|-stype:attr=1|qr_nm:gd|res:RC5|com-cf:nl|ptrs:na|ktp:N0|mc:68591|mtp:S|qry_typ:P|lang:en|wc:3|cs:8847|v=4,False,Mandawali,New Delhi,"B67,,Gali Post Office,Shakarpur,New Delhi, Mandawali, New Delhi - 110092, Dist.Delhi, Delhi",7942546595,
Plain Ladies Cotton Navy blue V neck Neck T Shirt,https://www.indiamart.com/proddetail/ladies-cotton-navy-blue-v-neck-neck-t-shirt-2853187491712.html?pos=133&kwd=maternity t shirt&tags=||||8559.269|Price|product|||TS|rsf:gd-|-stype:attr=1|qr_nm:gd|res:RC5|com-cf:nl|ptrs:na|ktp:N0|mc:68591|mtp:S|qry_typ:P|lang:en|wc:3|cs:8847|v=4,Sushila Textiles,https://www.sushilatextiles.com/?pos=133&kwd=maternity t shirt&tags=||||8559.269|Price|product|||TS|rsf:gd-|-stype:attr=1|qr_nm:gd|res:RC5|com-cf:nl|ptrs:na|ktp:N0|mc:68591|mtp:S|qry_typ:P|lang:en|wc:3|cs:8847|v=4,False,Khatipura,Indore,"First Floor, Plot No. 664, North Avenue Colony, Khatipura, Khatipura, Indore - 452003, Dist.Indore, Madhya Pradesh",8043828290,
Cotton Casual Wear Evolove Women's Bold Black Round Neck Panda Printed Pajama Set,https://www.indiamart.com/proddetail/evolove-women-s-bold-black-round-neck-panda-printed-pajama-set-1160250533.html?pos=134&kwd=maternity t shirt&tags=||||8211.142|Price|product|||TS|rsf:gd-|-stype:attr=1|qr_nm:gd|res:RC5|com-cf:nl|ptrs:na|ktp:N0|mc:68591|mtp:S|qry_typ:P|lang:en|wc:3|cs:8847|v=4,Paras Dyeing And Printing Mills,https://www.tulsicotton.com/?pos=134&kwd=maternity t shirt&tags=||||8211.142|Price|product|||TS|rsf:gd-|-stype:attr=1|qr_nm:gd|res:RC5|com-cf:nl|ptrs:na|ktp:N0|mc:68591|mtp:S|qry_typ:P|lang:en|wc:3|cs:8847|v=4,True,Lower Parel,Mumbai,"No. 240, Kewal Industrial Estate, S. B. Marg, Lower Parel, Mumbai - 400013, Dist.Mumbai, Maharashtra",8048989910,
Half Sleeve Girls Short T Shirt,https://www.indiamart.com/proddetail/girls-short-t-shirt-2854632246762.html?pos=135&kwd=maternity t shirt&tags=||||8752.144|Price|product|||TS|rsf:gd-|-stype:attr=1|qr_nm:gd|res:RC5|com-cf:nl|ptrs:na|ktp:N0|mc:68591|mtp:S|qry_typ:P|lang:en|wc:3|cs:8847|v=4,Flyers,https://www.indiamart.com/flyers/?pos=135&kwd=maternity t shirt&tags=||||8752.144|Price|product|||TS|rsf:gd-|-stype:attr=1|qr_nm:gd|res:RC5|com-cf:nl|ptrs:na|ktp:N0|mc:68591|mtp:S|qry_typ:P|lang:en|wc:3|cs:8847|v=4,False,Dwarka,New Delhi,"61 B, Vijay Veer Awas, Sector-18a, Dwarka, Delhi, South West Delhi,, Dwarka, New Delhi - 110075, Dist.Delhi, Delhi",8045165205,
"Casual Wear Girl Causal T Shirt, Cotton",https://www.indiamart.com/proddetail/girl-causal-t-shirt-22762316855.html?pos=136&kwd=maternity t shirt&tags=||||8230.883|Price|product|||TS|rsf:gd-|-stype:attr=1|qr_nm:gd|res:RC5|com-cf:nl|ptrs:na|ktp:N0|mc:68591|mtp:S|qry_typ:P|lang:en|wc:3|cs:8847|v=4,Sadabahar Fashion,https://www.sadabaharfashion.com/?pos=136&kwd=maternity t shirt&tags=||||8230.883|Price|product|||TS|rsf:gd-|-stype:attr=1|qr_nm:gd|res:RC5|com-cf:nl|ptrs:na|ktp:N0|mc:68591|mtp:S|qry_typ:P|lang:en|wc:3|cs:8847|v=4,False,Rander,Surat,"Shop No 13-14 , patra ni chal, Ramnagar, Rander Road, Sindhi Colony,, Rander, Surat - 395005, Dist.Surat, Gujarat",8048962373,
Polyester Sublimation Polo Neck T Shirts,https://www.indiamart.com/proddetail/sublimation-polo-neck-t-shirts-2852646401330.html?pos=137&kwd=maternity t shirt&tags=||||9045.955|Price|product|||TS|rsf:gd-|-stype:attr=1|qr_nm:gd|res:RC5|com-cf:nl|ptrs:na|ktp:N0|mc:68591|mtp:S|qry_typ:P|lang:en|wc:3|cs:8847|v=4,Creative Printers,https://www.indiamart.com/creative-printers-kanpur/?pos=137&kwd=maternity t shirt&tags=||||9045.955|Price|product|||TS|rsf:gd-|-stype:attr=1|qr_nm:gd|res:RC5|com-cf:nl|ptrs:na|ktp:N0|mc:68591|mtp:S|qry_typ:P|lang:en|wc:3|cs:8847|v=4,False,Mirpur,Kanpur,"H.No- 64/232 A, Ganariya Mahol, Mirpur, Kanpur - 208001, Uttar Pradesh",7942715214,
"Round White Ejebo Holi T-Shirt, Half Sleeves, Printed",https://www.indiamart.com/proddetail/ejebo-holi-t-shirt-22064581662.html?pos=138&kwd=maternity t shirt&tags=||||8752.144|Price|product|||TS|rsf:gd-|-stype:attr=1|qr_nm:gd|res:RC5|com-cf:nl|ptrs:na|ktp:N0|mc:68591|mtp:S|qry_typ:P|lang:en|wc:3|cs:8847|v=4,Trend Sky,https://www.trendsky.co.in/?pos=138&kwd=maternity t shirt&tags=||||8752.144|Price|product|||TS|rsf:gd-|-stype:attr=1|qr_nm:gd|res:RC5|com-cf:nl|ptrs:na|ktp:N0|mc:68591|mtp:S|qry_typ:P|lang:en|wc:3|cs:8847|v=4,False,Jharoda Majra Burari,New Delhi,"Gali Number 14, Sani Bazaar, Jharoda, Jharoda Majra Burari, New Delhi - 110084, Dist.Delhi, Delhi",8048961588,
Plain Polo T Shirt,https://www.indiamart.com/proddetail/polo-t-shirt-2854059135433.html?pos=139&kwd=maternity t shirt&tags=||||8752.144|Price|product|||MDC|rsf:gd-|-stype:attr=1|qr_nm:gd|res:RC5|com-cf:nl|ptrs:na|ktp:N0|mc:68591|mtp:S|qry_typ:P|lang:en|wc:3|cs:8847|v=4,S R Enterprises,https://www.indiamart.com/srenterprises-southeastdelhi/?pos=139&kwd=maternity t shirt&tags=||||8752.144|Price|product|||MDC|rsf:gd-|-stype:attr=1|qr_nm:gd|res:RC5|com-cf:nl|ptrs:na|ktp:N0|mc:68591|mtp:S|qry_typ:P|lang:en|wc:3|cs:8847|v=4,False,South East Delhi,New Delhi,"First Floor, H No. 2789, Block E-Ii, Gali No.68, South East Delhi, New Delhi - 110044, Dist.Delhi, Delhi",8045737599,
"Cotton Printed Regular Fit Ladies Maternity Night Suit, Dark Peach,Grey, T Shirt And Pajama",https://www.indiamart.com/proddetail/regular-fit-ladies-maternity-night-suit-2849622353862.html?pos=140&kwd=maternity t shirt&tags=||||8211.142|Price|product|||MDC|rsf:gd-|-stype:attr=1|qr_nm:gd|res:RC5|com-cf:nl|ptrs:na|ktp:N0|mc:68591|mtp:S|qry_typ:P|lang:en|wc:3|cs:8847|v=4,Sarvodaya,https://www.indiamart.com/sarvodayamumbai/?pos=140&kwd=maternity t shirt&tags=||||8211.142|Price|product|||MDC|rsf:gd-|-stype:attr=1|qr_nm:gd|res:RC5|com-cf:nl|ptrs:na|ktp:N0|mc:68591|mtp:S|qry_typ:P|lang:en|wc:3|cs:8847|v=4,False,Kandivali West,Mumbai,"305, Shree Nikunj Bldg. No. 2, Off. S. V. Road, Mumbai Suburban, Kandivali West, Mumbai - 400067, Dist.Mumbai, Maharashtra",7942793851,
"Half Sleeve Ladies White Printed Cotton T Shirt, Size: Medium",https://www.indiamart.com/proddetail/ladies-white-printed-cotton-t-shirt-2855005154497.html?pos=141&kwd=maternity t shirt&tags=||||8752.144|Price|product|||MDC|rsf:gd-|-stype:attr=1|qr_nm:gd|res:RC5|com-cf:nl|ptrs:na|ktp:N0|mc:68591|mtp:S|qry_typ:P|lang:en|wc:3|cs:8847|v=4,AK Collection,https://www.indiamart.com/akcollectiondelhi/?pos=141&kwd=maternity t shirt&tags=||||8752.144|Price|product|||MDC|rsf:gd-|-stype:attr=1|qr_nm:gd|res:RC5|com-cf:nl|ptrs:na|ktp:N0|mc:68591|mtp:S|qry_typ:P|lang:en|wc:3|cs:8847|v=4,False,,New Delhi,"1st Floor, B-114, JJ Colony , Goal Chakkar, Old Seemapuri, Shahdara, New Delhi - 110095, Dist.Delhi, Delhi",8045167008,
"Round Cotton Pink Ladies Half Sleeves T Shirt, Printed",https://www.indiamart.com/proddetail/pink-ladies-half-sleeves-t-shirt-2854782370488.html?pos=142&kwd=maternity t shirt&tags=||||8559.269|Price|product|||MDC|rsf:gd-|-stype:attr=1|qr_nm:gd|res:RC5|com-cf:nl|ptrs:na|ktp:N0|mc:68591|mtp:S|qry_typ:P|lang:en|wc:3|cs:8847|v=4,Aashus Clothing,https://www.indiamart.com/aashus-clothing-indore/?pos=142&kwd=maternity t shirt&tags=||||8559.269|Price|product|||MDC|rsf:gd-|-stype:attr=1|qr_nm:gd|res:RC5|com-cf:nl|ptrs:na|ktp:N0|mc:68591|mtp:S|qry_typ:P|lang:en|wc:3|cs:8847|v=4,False,,Indore,"Shop No G-08 Plot No 1 Shivsagar, Gram Hukmakhedi, Indore - 452012, Dist.Indore, Madhya Pradesh",8044458614,
"Half Sleeve Printed Girls T Shirt Set, Casual Wear, Size: Medium",https://www.indiamart.com/proddetail/printed-girls-t-shirt-set-2854532079312.html?pos=143&kwd=maternity t shirt&tags=||||8626.744|Price|product|||MDC|rsf:gd-|-stype:attr=1|qr_nm:gd|res:RC5|com-cf:nl|ptrs:na|ktp:N0|mc:68591|mtp:S|qry_typ:P|lang:en|wc:3|cs:8847|v=4,Sana Tex,https://www.indiamart.com/sana-tex-tiruppur/?pos=143&kwd=maternity t shirt&tags=||||8626.744|Price|product|||MDC|rsf:gd-|-stype:attr=1|qr_nm:gd|res:RC5|com-cf:nl|ptrs:na|ktp:N0|mc:68591|mtp:S|qry_typ:P|lang:en|wc:3|cs:8847|v=4,False,,Tiruppur,"3/108, Sri Balaji Nagar, Kanakkampalayam, Tiruppur - 641666, Dist.Coimbatore, Tamil Nadu",7949331394,
"Half Sleeve 1303 Ladies Cotton Sinker Long T Shirt, Casual Wear, Size: Medium",https://www.indiamart.com/proddetail/ladies-cotton-sinker-maroon-long-t-shirt-2854764947348.html?pos=144&kwd=maternity t shirt&tags=||||8168.6484|Price|product|||MDC|rsf:gd-|-stype:attr=1|qr_nm:gd|res:RC5|com-cf:nl|ptrs:na|ktp:N0|mc:68591|mtp:S|qry_typ:P|lang:en|wc:3|cs:8847|v=4,Satnam Enterprise,https://www.indiamart.com/satnam-enterprise-bhavnagar/?pos=144&kwd=maternity t shirt&tags=||||8168.6484|Price|product|||MDC|rsf:gd-|-stype:attr=1|qr_nm:gd|res:RC5|com-cf:nl|ptrs:na|ktp:N0|mc:68591|mtp:S|qry_typ:P|lang:en|wc:3|cs:8847|v=4,False,Sardarnagar,Bhavnagar,"FF 103, Plot No. 1777/B-2/A, Shyam Residency, Sardarnagar, Bhavnagar - 364002, Dist.Bhavnagar, Gujarat",8044459780,
"Half Sleeve Ladies Sky Blue Cotton Printed T Shirt, Casual Wear, Size: Medium",https://www.indiamart.com/proddetail/ladies-sky-blue-cotton-printed-t-shirt-2853671192455.html?pos=145&kwd=maternity t shirt&tags=||||8230.883|Price|product|||MDC|rsf:gd-|-stype:attr=1|qr_nm:gd|res:RC5|com-cf:nl|ptrs:na|ktp:N0|mc:68591|mtp:S|qry_typ:P|lang:en|wc:3|cs:8847|v=4,Siya Creation,https://www.indiamart.com/siyacreationsuratgujarat/?pos=145&kwd=maternity t shirt&tags=||||8230.883|Price|product|||MDC|rsf:gd-|-stype:attr=1|qr_nm:gd|res:RC5|com-cf:nl|ptrs:na|ktp:N0|mc:68591|mtp:S|qry_typ:P|lang:en|wc:3|cs:8847|v=4,False,Kodiyar Nagar,Surat,"Plot No.57, Shri Satyam Sundaram Society, Navo Mahollo, Singanpur,, Kodiyar Nagar, Surat - 395004, Dist.Surat, Gujarat",7949090610,
"Ladies Pink Half Sleeve T Shirt, Size: Large",https://www.indiamart.com/proddetail/ladies-pink-half-sleeve-t-shirt-22694952088.html?pos=146&kwd=maternity t shirt&tags=||||9866.565|Price|product|||MDC|rsf:gd-|-stype:attr=1|qr_nm:gd|res:RC5|com-cf:nl|ptrs:na|ktp:N0|mc:68591|mtp:S|qry_typ:P|lang:en|wc:3|cs:8847|v=4,Mukti Garments,https://www.indiamart.com/muktigarments/?pos=146&kwd=maternity t shirt&tags=||||9866.565|Price|product|||MDC|rsf:gd-|-stype:attr=1|qr_nm:gd|res:RC5|com-cf:nl|ptrs:na|ktp:N0|mc:68591|mtp:S|qry_typ:P|lang:en|wc:3|cs:8847|v=4,False,Ashokenagar,Ashoknagar,"169/4,, Ashokenagar, Ashoknagar - 743222, Dist.Ashok Nagar, West Bengal",8047851887,
GRC Ultra Comfort Basic Semi Fit Plain Round Neck T-Shirt For Women,https://www.indiamart.com/proddetail/grc-ultra-comfort-basic-semi-fit-plain-round-neck-t-shirt-for-women-2854878824212.html?pos=147&kwd=maternity t shirt&tags=||||8752.144|Price|product|||MDC|rsf:gd-|-stype:attr=1|qr_nm:gd|res:RC5|com-cf:nl|ptrs:na|ktp:N0|mc:68591|mtp:S|qry_typ:P|lang:en|wc:3|cs:8847|v=4,G. R. Creations & Exports,https://www.indiamart.com/grcreations-exports/?pos=147&kwd=maternity t shirt&tags=||||8752.144|Price|product|||MDC|rsf:gd-|-stype:attr=1|qr_nm:gd|res:RC5|com-cf:nl|ptrs:na|ktp:N0|mc:68591|mtp:S|qry_typ:P|lang:en|wc:3|cs:8847|v=4,False,Rohini Sector 16,New Delhi,"51,Block C3,Sector 11 Rohini,New Delhi, Rohini Sector 16, New Delhi - 110085, Dist.Delhi, Delhi",8043858759,
"Unisex Half Sleeve 180 GSM Cotton Round Neck Couple T Shirt, Casual Wear, 18 - 60",https://www.indiamart.com/proddetail/180-gsm-cotton-round-neck-couple-t-shirt-26899870633.html?pos=148&kwd=maternity t shirt&tags=||||8307.81|Price|product|||MDC|rsf:gd-|-stype:attr=1|qr_nm:gd|res:RC5|com-cf:nl|ptrs:na|ktp:N0|mc:68591|mtp:S|qry_typ:P|lang:en|wc:3|cs:8847|v=4,Universal Art Xpress,https://www.indiamart.com/universalartxpress/?pos=148&kwd=maternity t shirt&tags=||||8307.81|Price|product|||MDC|rsf:gd-|-stype:attr=1|qr_nm:gd|res:RC5|com-cf:nl|ptrs:na|ktp:N0|mc:68591|mtp:S|qry_typ:P|lang:en|wc:3|cs:8847|v=4,False,Chinchwad,Pune,"S No 250, Flat No 2 Unit-D Golande Complex, Link Road, Golande Estate, Chinchwad, Pune - 411033, Dist.Pune, Maharashtra",8043891632,
"Half Sleeve Girls T Shirt, Casual Wear",https://www.indiamart.com/proddetail/girls-t-shirt-2851960026933.html?pos=149&kwd=maternity t shirt&tags=||||8626.744|Price|product|||TS|rsf:gd-|-stype:attr=1|qr_nm:gd|res:RC5|com-cf:nl|ptrs:na|ktp:N0|mc:68591|mtp:S|qry_typ:P|lang:en|wc:3|cs:8847|v=4,Knit Bees Garments,https://www.knitbeesgarments.com/?pos=149&kwd=maternity t shirt&tags=||||8626.744|Price|product|||TS|rsf:gd-|-stype:attr=1|qr_nm:gd|res:RC5|com-cf:nl|ptrs:na|ktp:N0|mc:68591|mtp:S|qry_typ:P|lang:en|wc:3|cs:8847|v=4,False,Tirupur North,Tiruppur,"No.10,Elango Nagar,2nd Cross Street, Tirupur North, Tiruppur - 641602, Dist.Coimbatore, Tamil Nadu",7942872857,
"Night Partner Half Sleeve Ladies T-shirts, 170-180",https://www.indiamart.com/proddetail/ladies-t-shirts-22530003430.html?pos=150&kwd=maternity t shirt&tags=||||8661.854|Price|product|||TS|rsf:gd-|-stype:attr=1|qr_nm:gd|res:RC5|com-cf:nl|ptrs:na|ktp:N0|mc:68591|mtp:S|qry_typ:P|lang:en|wc:3|cs:8847|v=4,R K Products,https://www.nightpartner.in/?pos=150&kwd=maternity t shirt&tags=||||8661.854|Price|product|||TS|rsf:gd-|-stype:attr=1|qr_nm:gd|res:RC5|com-cf:nl|ptrs:na|ktp:N0|mc:68591|mtp:S|qry_typ:P|lang:en|wc:3|cs:8847|v=4,False,Dev Nagar,Ludhiana,"Shop Number 2, 8&10, Chaura Bazar Factory Near Samrala Chownk & H.NO. 1450 NEW CHANDER NAGAR ST. NO.7 OPP. D.M.C HOSPITAL BASSI NURSING HOMEST, Dev Nagar, Ludhiana - 141001, Dist.Ludhiana, Punjab",8047638898,
"Cotton Half Sleeve Promotional Women T Shirts, Daily Wear",https://www.indiamart.com/proddetail/promotional-women-t-shirts-2851666854962.html?pos=151&kwd=maternity t shirt&tags=||||8769.508|Price|product|||TS|rsf:gd-|-stype:attr=1|qr_nm:gd|res:RC5|com-cf:nl|ptrs:na|ktp:N0|mc:68591|mtp:S|qry_typ:P|lang:en|wc:3|cs:8847|v=4,Mahalaxmi Packers And Stationers,https://www.mahalaxmipackers.in/?pos=151&kwd=maternity t shirt&tags=||||8769.508|Price|product|||TS|rsf:gd-|-stype:attr=1|qr_nm:gd|res:RC5|com-cf:nl|ptrs:na|ktp:N0|mc:68591|mtp:S|qry_typ:P|lang:en|wc:3|cs:8847|v=4,False,Sector 21d,Faridabad,"16/6, Mathura Road, Sector 21d, Faridabad - 121001, Dist.Faridabad, Haryana",8048967328,
"Half Sleeve Women Bamboo T shirts - Quiet Green, Casual Wear, Plain",https://www.indiamart.com/proddetail/women-bamboo-t-shirts-quiet-green-2852656957730.html?pos=152&kwd=maternity t shirt&tags=||||8666.857|Price|product|||TS|rsf:gd-|-stype:attr=1|qr_nm:gd|res:RC5|com-cf:nl|ptrs:na|ktp:N0|mc:68591|mtp:S|qry_typ:P|lang:en|wc:3|cs:8847|v=4,Annamar Apparels,https://www.indiamart.com/annamar-apparels-tamilnadu/?pos=152&kwd=maternity t shirt&tags=||||8666.857|Price|product|||TS|rsf:gd-|-stype:attr=1|qr_nm:gd|res:RC5|com-cf:nl|ptrs:na|ktp:N0|mc:68591|mtp:S|qry_typ:P|lang:en|wc:3|cs:8847|v=4,False,Thillaipuram,Komarapalayam,"2-514/1, Kamaraj Nagar, Olapalayam Road, Namakkal, Thillaipuram, Komarapalayam - 638183, Dist.Namakkal, Tamil Nadu",7942815718,
"Half Sleeve Oversize T Shirt Womens, Daily Wear, Size: S To 2XL",https://www.indiamart.com/proddetail/oversize-t-shirt-womens-2853960137073.html?pos=153&kwd=maternity t shirt&tags=||||8626.744|Price|product|||TS|rsf:gd-|-stype:attr=1|qr_nm:gd|res:RC5|com-cf:nl|ptrs:na|ktp:N0|mc:68591|mtp:S|qry_typ:P|lang:en|wc:3|cs:8847|v=4,Sri Selvanayaki Textiles,https://www.selvanayakitextiles.in/?pos=153&kwd=maternity t shirt&tags=||||8626.744|Price|product|||TS|rsf:gd-|-stype:attr=1|qr_nm:gd|res:RC5|com-cf:nl|ptrs:na|ktp:N0|mc:68591|mtp:S|qry_typ:P|lang:en|wc:3|cs:8847|v=4,False,K Chettipalayam,Tiruppur,"498/4E1, Kaliyappa Building, Dharapuram Road,, K Chettipalayam, Tiruppur - 641604, Dist.Coimbatore, Tamil Nadu",8048270781,
Casual Wear Holi Printed Ladies Cotton T Shirt,https://www.indiamart.com/proddetail/holi-printed-ladies-cotton-t-shirt-25188527673.html?pos=154&kwd=maternity t shirt&tags=||||8230.883|Price|product|||TS|rsf:gd-|-stype:attr=1|qr_nm:gd|res:RC5|com-cf:nl|ptrs:na|ktp:N0|mc:68591|mtp:S|qry_typ:P|lang:en|wc:3|cs:8847|v=4,Bliss Pocket,https://www.indiamart.com/bliss-pocket/?pos=154&kwd=maternity t shirt&tags=||||8230.883|Price|product|||TS|rsf:gd-|-stype:attr=1|qr_nm:gd|res:RC5|com-cf:nl|ptrs:na|ktp:N0|mc:68591|mtp:S|qry_typ:P|lang:en|wc:3|cs:8847|v=4,False,Athwa,Surat,"Plot No 110-111, S.K. Industrial CO-OP Service Society LTD-2, Udhna Magdalla Road, Surat, Athwa, Surat - 395017, Dist.Surat, Gujarat",8048961012,
"Half Sleeve Womens T Shirts, Size: S to XXL, Plain",https://www.indiamart.com/proddetail/womens-t-shirts-13468421273.html?pos=155&kwd=maternity t shirt&tags=||||8752.144|Price|product|||TS|rsf:gd-|-stype:attr=1|qr_nm:gd|res:RC5|com-cf:nl|ptrs:na|ktp:N0|mc:68591|mtp:S|qry_typ:P|lang:en|wc:3|cs:8847|v=4,Leo 9 Fashion,https://www.leoninefashion.com/?pos=155&kwd=maternity t shirt&tags=||||8752.144|Price|product|||TS|rsf:gd-|-stype:attr=1|qr_nm:gd|res:RC5|com-cf:nl|ptrs:na|ktp:N0|mc:68591|mtp:S|qry_typ:P|lang:en|wc:3|cs:8847|v=4,False,Paschim Vihar Bhera Enclave,New Delhi,"Srs 24, Peera Garhi, Mangal Bazar Road, Paschim Vihar Bhera Enclave, New Delhi - 110087, Dist.Delhi, Delhi",8048614457,
Cotton Digital Print Men's Polo DTF Printed T-shirt,https://www.indiamart.com/proddetail/men-s-polo-dtf-printed-t-shirt-20346033133.html?pos=156&kwd=maternity t shirt&tags=||||8228.275||product|||TS|rsf:gd-|-stype:attr=1|qr_nm:gd|res:RC5|com-cf:nl|ptrs:na|ktp:N0|mc:68591|mtp:S|qry_typ:P|lang:en|wc:3|cs:8847|v=4,Studio M,https://www.indiamart.com/studio-m-ahmedabad/?pos=156&kwd=maternity t shirt&tags=||||8228.275||product|||TS|rsf:gd-|-stype:attr=1|qr_nm:gd|res:RC5|com-cf:nl|ptrs:na|ktp:N0|mc:68591|mtp:S|qry_typ:P|lang:en|wc:3|cs:8847|v=4,False,Sanklit Nagar,Ahmedabad,"Ground Floor Shed No. 4 Pipalaj Cross Road Shree Dwarkesh Estate, Sanklit Nagar, Ahmedabad - 382405, Dist.Ahmedabad, Gujarat",8048606674,
Ladies Red Cotton T Shirt,https://www.indiamart.com/proddetail/ladies-red-cotton-t-shirt-2854458119330.html?pos=157&kwd=maternity t shirt&tags=||||9252.044|Price|product|||TS|rsf:gd-|-stype:attr=1|qr_nm:gd|res:RC5|com-cf:nl|ptrs:na|ktp:N0|mc:68591|mtp:S|qry_typ:P|lang:en|wc:3|cs:8847|v=4,Lal Chandra Agency,https://www.indiamart.com/lal-chandra-agency/?pos=157&kwd=maternity t shirt&tags=||||9252.044|Price|product|||TS|rsf:gd-|-stype:attr=1|qr_nm:gd|res:RC5|com-cf:nl|ptrs:na|ktp:N0|mc:68591|mtp:S|qry_typ:P|lang:en|wc:3|cs:8847|v=4,False,NIRMAN VIHAR DELHI PIN- 110092 INDIA,Gyanpur,"0,0,G T Road,Jangi Ganj delhi, NIRMAN VIHAR DELHI PIN- 110092 INDIA, Gyanpur - 221310, Dist.Sant Ravidas Nagar, Uttar Pradesh",7949351304,
Women Round Neck T Shirt,https://www.indiamart.com/proddetail/women-round-neck-t-shirt-2851907119488.html?pos=158&kwd=maternity t shirt&tags=||||8211.142|Price|product|||TS|rsf:gd-|-stype:attr=1|qr_nm:gd|res:RC5|com-cf:nl|ptrs:na|ktp:N0|mc:68591|mtp:S|qry_typ:P|lang:en|wc:3|cs:8847|v=4,Knittire Global,https://www.knittire.in/?pos=158&kwd=maternity t shirt&tags=||||8211.142|Price|product|||TS|rsf:gd-|-stype:attr=1|qr_nm:gd|res:RC5|com-cf:nl|ptrs:na|ktp:N0|mc:68591|mtp:S|qry_typ:P|lang:en|wc:3|cs:8847|v=4,False,Chembur Extension,Mumbai,"501, Building No. 03, Surksha co.op. Hsg Soc, Shastri Nagar, Vashi Naka, R C Marg, Chembur Chembur, Chembur Extension, Mumbai - 400074, Dist.Mumbai, Maharashtra",8048978995,
"Half Sleeve Ladies Polo Neck T Shirt, Daily Wear",https://www.indiamart.com/proddetail/ladies-polo-neck-t-shirt-2851663001888.html?pos=159&kwd=maternity t shirt&tags=||||8769.508|Price|product|||TS|rsf:gd-|-stype:attr=1|qr_nm:gd|res:RC5|com-cf:nl|ptrs:na|ktp:N0|mc:68591|mtp:S|qry_typ:P|lang:en|wc:3|cs:8847|v=4,Zaro India,https://www.indiamart.com/zaro-india/?pos=159&kwd=maternity t shirt&tags=||||8769.508|Price|product|||TS|rsf:gd-|-stype:attr=1|qr_nm:gd|res:RC5|com-cf:nl|ptrs:na|ktp:N0|mc:68591|mtp:S|qry_typ:P|lang:en|wc:3|cs:8847|v=4,False,Ballabhgarh,Faridabad,"Plot Number 28, Spring field Market Faridabad Haryana India, Ballabhgarh, Faridabad - 121003, Dist.Faridabad, Haryana",7942555852,
"Half Sleeve Girls T-Shirt, Casual Wear, Size: Medium",https://www.indiamart.com/proddetail/girls-t-shirt-2854613310112.html?pos=160&kwd=maternity t shirt&tags=||||8663.873||product|||TS|rsf:gd-|-stype:attr=1|qr_nm:gd|res:RC5|com-cf:nl|ptrs:na|ktp:N0|mc:68591|mtp:S|qry_typ:P|lang:en|wc:3|cs:8847|v=4,Sri Durga Viswanatha Enterprises(Duvi),https://www.indiamart.com/duvi/?pos=160&kwd=maternity t shirt&tags=||||8663.873||product|||TS|rsf:gd-|-stype:attr=1|qr_nm:gd|res:RC5|com-cf:nl|ptrs:na|ktp:N0|mc:68591|mtp:S|qry_typ:P|lang:en|wc:3|cs:8847|v=4,False,Vasant Nagar,Bengaluru,"No. 23, Ace Space, 8th Main, Vasant Nagar, Vasant Nagar, Bengaluru - 560052, Dist.Bengaluru, Karnataka",8047631299,
Ladies White T Shirt,https://www.indiamart.com/proddetail/ladies-white-t-shirt-2854712905948.html?pos=161&kwd=maternity t shirt&tags=||||8752.144|Price|product|||TS|rsf:gd-|-stype:attr=1|qr_nm:gd|res:RC5|com-cf:nl|ptrs:na|ktp:N0|mc:68591|mtp:S|qry_typ:P|lang:en|wc:3|cs:8847|v=4,Meeami Fashion,https://www.indiamart.com/meeamifashion/?pos=161&kwd=maternity t shirt&tags=||||8752.144|Price|product|||TS|rsf:gd-|-stype:attr=1|qr_nm:gd|res:RC5|com-cf:nl|ptrs:na|ktp:N0|mc:68591|mtp:S|qry_typ:P|lang:en|wc:3|cs:8847|v=4,False,Mayapuri,New Delhi,"1st Floor, A-31/1, Mayapuri Flyover, Mayapuri Industrial Area Phase 1,, Mayapuri, New Delhi - 110064, Dist.Delhi, Delhi",8043805593,
"Half Sleeve Women Printed Cotton T Shirt, Casual Wear, Size: Large",https://www.indiamart.com/proddetail/women-printed-cotton-t-shirt-2851656135348.html?pos=162&kwd=maternity t shirt&tags=||||8626.744|Price|product|||TS|rsf:gd-|-stype:attr=1|qr_nm:gd|res:RC5|com-cf:nl|ptrs:na|ktp:N0|mc:68591|mtp:S|qry_typ:P|lang:en|wc:3|cs:8847|v=4,Richie International,https://www.indiamart.com/richieinternational/?pos=162&kwd=maternity t shirt&tags=||||8626.744|Price|product|||TS|rsf:gd-|-stype:attr=1|qr_nm:gd|res:RC5|com-cf:nl|ptrs:na|ktp:N0|mc:68591|mtp:S|qry_typ:P|lang:en|wc:3|cs:8847|v=4,False,Nallur,Tiruppur,"48 Csi Colony, Nallur, Vijayapuram Post vijayapuram kangayam road, Nallur, Tiruppur - 641606, Dist.Coimbatore, Tamil Nadu",8047698456,
Half Sleeve Ladies Cotton T Shirt With Print,https://www.indiamart.com/proddetail/ladies-cotton-t-shirt-with-print-2852707112097.html?pos=163&kwd=maternity t shirt&tags=||||8211.142|Price|product|||TS|rsf:gd-|-stype:attr=1|qr_nm:gd|res:RC5|com-cf:nl|ptrs:na|ktp:N0|mc:68591|mtp:S|qry_typ:P|lang:en|wc:3|cs:8847|v=4,Bonnet Bots Media LLP,https://www.indiamart.com/bonnetbotsmedia/?pos=163&kwd=maternity t shirt&tags=||||8211.142|Price|product|||TS|rsf:gd-|-stype:attr=1|qr_nm:gd|res:RC5|com-cf:nl|ptrs:na|ktp:N0|mc:68591|mtp:S|qry_typ:P|lang:en|wc:3|cs:8847|v=4,False,Ranade Road,Mumbai,"First Floor, Shop No 44, Kings Krest, Bhavani Shankar Marg, Citizen Hotel, Kabutar Khana, Ranade Road, Mumbai - 400028, Dist.Mumbai, Maharashtra",8045165400,
Ladies Printed T Shirt,https://www.indiamart.com/proddetail/ladies-printed-t-shirt-2855092450255.html?pos=164&kwd=maternity t shirt&tags=||||8626.744|Price|product|||TS|rsf:gd-|-stype:attr=1|qr_nm:gd|res:RC5|com-cf:nl|ptrs:na|ktp:N0|mc:68591|mtp:S|qry_typ:P|lang:en|wc:3|cs:8847|v=4,MLR Garments,https://www.mlrgarments.in/?pos=164&kwd=maternity t shirt&tags=||||8626.744|Price|product|||TS|rsf:gd-|-stype:attr=1|qr_nm:gd|res:RC5|com-cf:nl|ptrs:na|ktp:N0|mc:68591|mtp:S|qry_typ:P|lang:en|wc:3|cs:8847|v=4,False,,Tiruppur,"No.5/3, Cotton Mill Road 3rd Street, Tiruppur - 641602, Dist.Coimbatore, Tamil Nadu",8044459641,
Customised Embroidered Dri Fit T Shirt,https://www.indiamart.com/proddetail/customised-embroidered-dri-fit-t-shirt-2854120784812.html?pos=165&kwd=maternity t shirt&tags=||||8752.144|Price|product|||TS|rsf:gd-|-stype:attr=1|qr_nm:gd|res:RC5|com-cf:nl|ptrs:na|ktp:N0|mc:68591|mtp:S|qry_typ:P|lang:en|wc:3|cs:8847|v=4,Dipi Global,https://www.indiamart.com/dipiglobal-newdelhi/?pos=165&kwd=maternity t shirt&tags=||||8752.144|Price|product|||TS|rsf:gd-|-stype:attr=1|qr_nm:gd|res:RC5|com-cf:nl|ptrs:na|ktp:N0|mc:68591|mtp:S|qry_typ:P|lang:en|wc:3|cs:8847|v=4,False,Janakpuri,New Delhi,"B 70, Chanakya Place Part-1, Opposite C-1 Janakpuri, South West Delhi, Janakpuri, New Delhi - 110059, Dist.Delhi, Delhi",7942836398,
Feel Good Birthday Queen Tshirts For Woman,https://www.indiamart.com/proddetail/feel-good-birthday-queen-tshirts-for-woman-2854481695288.html?pos=166&kwd=maternity t shirt&tags=||||8778.123|Price|product|||TS|rsf:gd-|-stype:attr=1|qr_nm:gd|res:RC5|com-cf:nl|ptrs:na|ktp:N0|mc:68591|mtp:S|qry_typ:P|lang:en|wc:3|cs:8847|v=4,Panchakshar Corporation,https://www.indiamart.com/panchaksharcorporation/?pos=166&kwd=maternity t shirt&tags=||||8778.123|Price|product|||TS|rsf:gd-|-stype:attr=1|qr_nm:gd|res:RC5|com-cf:nl|ptrs:na|ktp:N0|mc:68591|mtp:S|qry_typ:P|lang:en|wc:3|cs:8847|v=4,False,Sector 10,Noida,"A-90, Second Floor, Sector 10, Noida - 201301, Dist.Gautam Budh Nagar, Uttar Pradesh",8048982771,
"Half Sleeve Happy Holi T Shirt For Women, Casual Wear, Printed",https://www.indiamart.com/proddetail/happy-holi-t-shirt-for-women-2850314491488.html?pos=167&kwd=maternity t shirt&tags=||||8752.144|Price|product|||TS|rsf:gd-|-stype:attr=1|qr_nm:gd|res:RC5|com-cf:nl|ptrs:na|ktp:N0|mc:68591|mtp:S|qry_typ:P|lang:en|wc:3|cs:8847|v=4,Tackle World,https://www.indiamart.com/tackleworld/?pos=167&kwd=maternity t shirt&tags=||||8752.144|Price|product|||TS|rsf:gd-|-stype:attr=1|qr_nm:gd|res:RC5|com-cf:nl|ptrs:na|ktp:N0|mc:68591|mtp:S|qry_typ:P|lang:en|wc:3|cs:8847|v=4,False,Naraina,New Delhi,"CB-372, Opposite Pillar No. 26A Ring Road Naraina, Naraina, New Delhi - 110028, Dist.Delhi, Delhi",8047624883,
"Plain Ladies T-Shirt, Casual Wear",https://www.indiamart.com/proddetail/plain-ladies-t-shirt-2851837391188.html?pos=168&kwd=maternity t shirt&tags=||||8663.873|Price|product|||TS|rsf:gd-|-stype:attr=1|qr_nm:gd|res:RC5|com-cf:nl|ptrs:na|ktp:N0|mc:68591|mtp:S|qry_typ:P|lang:en|wc:3|cs:8847|v=4,Arihant Boutique,https://www.indiamart.com/arihantbotiue/?pos=168&kwd=maternity t shirt&tags=||||8663.873|Price|product|||TS|rsf:gd-|-stype:attr=1|qr_nm:gd|res:RC5|com-cf:nl|ptrs:na|ktp:N0|mc:68591|mtp:S|qry_typ:P|lang:en|wc:3|cs:8847|v=4,False,Hsr Layout,Bengaluru,"Block 3, No.313, Brundavan Presidency, Hsr Layout, Sector-2, Bangalore, Urban,, Hsr Layout, Bengaluru - 560102, Dist.Bengaluru, Karnataka",7942842708,
Ladies Polo T Shirts,https://www.indiamart.com/proddetail/ladies-polo-t-shirts-23261690497.html?pos=169&kwd=maternity t shirt&tags=||||8626.744|Price|product|||TS|rsf:gd-|-stype:attr=1|qr_nm:gd|res:RC5|com-cf:nl|ptrs:na|ktp:N0|mc:68591|mtp:S|qry_typ:P|lang:en|wc:3|cs:8847|v=4,Gunja Textiles,https://www.indiamart.com/gunja-textiles/?pos=169&kwd=maternity t shirt&tags=||||8626.744|Price|product|||TS|rsf:gd-|-stype:attr=1|qr_nm:gd|res:RC5|com-cf:nl|ptrs:na|ktp:N0|mc:68591|mtp:S|qry_typ:P|lang:en|wc:3|cs:8847|v=4,False,Odakkadu,Tiruppur,"194, A. B Nagar Post, Near Lions Club Pharmacy, Odakkadu, Tiruppur - 641603, Dist.Coimbatore, Tamil Nadu",7942554692,
"Round Black Ladies Printed Cotton Oversized T Shirt, Half Sleeves",https://www.indiamart.com/proddetail/ladies-printed-cotton-oversized-t-shirt-2853500794812.html?pos=170&kwd=maternity t shirt&tags=||||8307.81|Price|product|||TS|rsf:gd-|-stype:attr=1|qr_nm:gd|res:RC5|com-cf:nl|ptrs:na|ktp:N0|mc:68591|mtp:S|qry_typ:P|lang:en|wc:3|cs:8847|v=4,Skyprint,https://www.theskyprint.in/?pos=170&kwd=maternity t shirt&tags=||||8307.81|Price|product|||TS|rsf:gd-|-stype:attr=1|qr_nm:gd|res:RC5|com-cf:nl|ptrs:na|ktp:N0|mc:68591|mtp:S|qry_typ:P|lang:en|wc:3|cs:8847|v=4,False,Pimple Gurav,Pune,"4, Flat-B/405 , Karan Paradise, S NO.41/5/4/1,S Sewtabhai Shahid Kasid Dispensary, Pimple Gurav Pimpri Chinchwad, Pimple Gurav, Pune - 411061, Dist.Pune, Maharashtra",7949093115,
"Full Sleeve Polo Women Corporate T Shirt, Size: Medium",https://www.indiamart.com/proddetail/women-corporate-t-shirt-24250414691.html?pos=171&kwd=maternity t shirt&tags=||||8626.744|Price|product|||TS|rsf:gd-|-stype:attr=1|qr_nm:gd|res:RC5|com-cf:nl|ptrs:na|ktp:N0|mc:68591|mtp:S|qry_typ:P|lang:en|wc:3|cs:8847|v=4,Neckline Knits,https://www.necklineknits.in/?pos=171&kwd=maternity t shirt&tags=||||8626.744|Price|product|||TS|rsf:gd-|-stype:attr=1|qr_nm:gd|res:RC5|com-cf:nl|ptrs:na|ktp:N0|mc:68591|mtp:S|qry_typ:P|lang:en|wc:3|cs:8847|v=4,True,Thiruvanakudi Nagar,Tiruppur,"109-C Kootukaadu, Thiruvanakudi Nagar, Tiruppur - 641652, Dist.Coimbatore, Tamil Nadu",7942560166,
"Half Sleeve Couple T Shirts, Daily Wear",https://www.indiamart.com/proddetail/couple-t-shirts-2852802893688.html?pos=172&kwd=maternity t shirt&tags=||||8281.036||product|||TS|rsf:gd-|-stype:attr=1|qr_nm:gd|res:RC5|com-cf:nl|ptrs:na|ktp:N0|mc:68591|mtp:S|qry_typ:P|lang:en|wc:3|cs:8847|v=4,Krrish Enterprise,https://www.indiamart.com/krrishenterprisevadodara/?pos=172&kwd=maternity t shirt&tags=||||8281.036||product|||TS|rsf:gd-|-stype:attr=1|qr_nm:gd|res:RC5|com-cf:nl|ptrs:na|ktp:N0|mc:68591|mtp:S|qry_typ:P|lang:en|wc:3|cs:8847|v=4,False,Divya Darshan Park,Vadodara,"Block No/A/FF/12 Nr. Kunal Cross Road Signet Plaza, Divya Darshan Park, Vadodara - 390021, Dist.Vadodara, Gujarat",7942800146,
"Half Sleeve Ladies T Shirt, Daily Wear, Printed",https://www.indiamart.com/proddetail/ladies-t-shirt-2854891589833.html?pos=173&kwd=maternity t shirt&tags=||||8038.093|Price|product|||MDC|rsf:gd-|-stype:attr=1|qr_nm:gd|res:RC5|com-cf:nl|ptrs:na|ktp:N0|mc:68591|mtp:S|qry_typ:P|lang:en|wc:3|cs:8847|v=4,I Varudi Enterprise,https://www.indiamart.com/i-varudi-enterprise/?pos=173&kwd=maternity t shirt&tags=||||8038.093|Price|product|||MDC|rsf:gd-|-stype:attr=1|qr_nm:gd|res:RC5|com-cf:nl|ptrs:na|ktp:N0|mc:68591|mtp:S|qry_typ:P|lang:en|wc:3|cs:8847|v=4,False,Om Nagar,Rajkot,"Plot No. 21, Shop No.2, Sadguru Complex, Green City, Bapa Sitaram Chowk, Mavdi,, Om Nagar, Rajkot - 360004, Dist.Rajkot, Gujarat",8046063738,
Ladies Half Sleeve Pink Polo Neck T Shirt,https://www.indiamart.com/proddetail/ladies-polo-neck-t-shirt-18659244373.html?pos=174&kwd=maternity t shirt&tags=||||8228.275|Price|product|||MDC|rsf:gd-|-stype:attr=1|qr_nm:gd|res:RC5|com-cf:nl|ptrs:na|ktp:N0|mc:68591|mtp:S|qry_typ:P|lang:en|wc:3|cs:8847|v=4,Mahalaxmi Enterprise,https://www.indiamart.com/mahalaxmienterprisegujarat/?pos=174&kwd=maternity t shirt&tags=||||8228.275|Price|product|||MDC|rsf:gd-|-stype:attr=1|qr_nm:gd|res:RC5|com-cf:nl|ptrs:na|ktp:N0|mc:68591|mtp:S|qry_typ:P|lang:en|wc:3|cs:8847|v=4,False,Girdharnagar,Ahmedabad,"Y-6, Sujata Flats, Near Rajasthan Hospital Road,, Girdharnagar, Ahmedabad - 380004, Dist.Ahmedabad, Gujarat",8046064950,
"Blue Ladies Full Sleeve Printed T Shirt, Casual Wear, Size: Large",https://www.indiamart.com/proddetail/blue-ladies-full-sleeve-printed-t-shirt-2852737029848.html?pos=175&kwd=maternity t shirt&tags=||||8228.275|Price|product|||MDC|rsf:gd-|-stype:attr=1|qr_nm:gd|res:RC5|com-cf:nl|ptrs:na|ktp:N0|mc:68591|mtp:S|qry_typ:P|lang:en|wc:3|cs:8847|v=4,Dhanlaxmi Enterprise,https://www.indiamart.com/dhanlaxmi-enterprise-gujarat/?pos=175&kwd=maternity t shirt&tags=||||8228.275|Price|product|||MDC|rsf:gd-|-stype:attr=1|qr_nm:gd|res:RC5|com-cf:nl|ptrs:na|ktp:N0|mc:68591|mtp:S|qry_typ:P|lang:en|wc:3|cs:8847|v=4,False,Behrampura,Ahmedabad,"GF, 25, 64-65, Paiki 1-2-3-4, Opp. Guddu Kitli Ni Gali, Nr. Ghisubhai Ghat, Suez Farm, Behrampura,, Behrampura, Ahmedabad - 380022, Dist.Ahmedabad, Gujarat",7942718335,
Ladies Polo Neck T Shirt,https://www.indiamart.com/proddetail/ladies-polo-neck-t-shirt-27628679691.html?pos=176&kwd=maternity t shirt&tags=||||8626.744|Price|product|||TS|rsf:gd-|-stype:attr=1|qr_nm:gd|res:RC5|com-cf:nl|ptrs:na|ktp:N0|mc:68591|mtp:S|qry_typ:P|lang:en|wc:3|cs:8847|v=4,Bagavathi Export,https://www.bagavathigarments.com/?pos=176&kwd=maternity t shirt&tags=||||8626.744|Price|product|||TS|rsf:gd-|-stype:attr=1|qr_nm:gd|res:RC5|com-cf:nl|ptrs:na|ktp:N0|mc:68591|mtp:S|qry_typ:P|lang:en|wc:3|cs:8847|v=4,False,Karuvampalayam,Tiruppur,"123,124 Sivasakthi nagar 5th street,mangalam road, Karuvampalayam, Tiruppur - 641604, Dist.Coimbatore, Tamil Nadu",8043894490,
"Half Sleeve Women Graphic T Shirt, Daily Wear",https://www.indiamart.com/proddetail/women-graphic-t-shirt-2854285773455.html?pos=177&kwd=maternity t shirt&tags=||||8230.883|Price|product|||MDC|rsf:gd-|-stype:attr=1|qr_nm:gd|res:RC5|com-cf:nl|ptrs:na|ktp:N0|mc:68591|mtp:S|qry_typ:P|lang:en|wc:3|cs:8847|v=4,Niramya Enterprise,https://www.indiamart.com/niramyaenterprise/?pos=177&kwd=maternity t shirt&tags=||||8230.883|Price|product|||MDC|rsf:gd-|-stype:attr=1|qr_nm:gd|res:RC5|com-cf:nl|ptrs:na|ktp:N0|mc:68591|mtp:S|qry_typ:P|lang:en|wc:3|cs:8847|v=4,False,Punagam,Surat,"13-14, Jay Yogeshvar Society, Near Sitanagar, Punagam, Punagam, Surat - 395010, Dist.Surat, Gujarat",8043881786,
"Cotton Printed Men Polo T Shirt, Round Neck",https://www.indiamart.com/proddetail/men-polo-t-shirt-2854562799533.html?pos=178&kwd=maternity t shirt&tags=||||8785.791|Price|product|||MDC|rsf:gd-|-stype:attr=1|qr_nm:gd|res:RC5|com-cf:nl|ptrs:na|ktp:N0|mc:68591|mtp:S|qry_typ:P|lang:en|wc:3|cs:8847|v=4,IGS Apparels Private Limited,https://www.indiamart.com/igsapparels/?pos=178&kwd=maternity t shirt&tags=||||8785.791|Price|product|||MDC|rsf:gd-|-stype:attr=1|qr_nm:gd|res:RC5|com-cf:nl|ptrs:na|ktp:N0|mc:68591|mtp:S|qry_typ:P|lang:en|wc:3|cs:8847|v=4,False,,Ghaziabad,"K-9 Sec D-1, April Park, Tronica City, Loni, Ghaziabad - 201102, Dist.Ghaziabad, Uttar Pradesh",7942789877,
"Round Cotton Men Black T Shirt, Half Sleeves, Printed",https://www.indiamart.com/proddetail/men-black-t-shirt-2854892582597.html?pos=179&kwd=maternity t shirt&tags=||||8626.744|Price|product|||MDC|rsf:gd-|-stype:attr=1|qr_nm:gd|res:RC5|com-cf:nl|ptrs:na|ktp:N0|mc:68591|mtp:S|qry_typ:P|lang:en|wc:3|cs:8847|v=4,Kani Garments,https://www.indiamart.com/kani-garments-tiruppur/?pos=179&kwd=maternity t shirt&tags=||||8626.744|Price|product|||MDC|rsf:gd-|-stype:attr=1|qr_nm:gd|res:RC5|com-cf:nl|ptrs:na|ktp:N0|mc:68591|mtp:S|qry_typ:P|lang:en|wc:3|cs:8847|v=4,False,,Tiruppur,"213/25A, Pitchampalayam Pudur, K.G Nagar, Tiruppur - 641603, Dist.Coimbatore, Tamil Nadu",8045735874,
"Full Sleeve Printed Girls T Shirt, Daily Wear, Size: Medium",https://www.indiamart.com/proddetail/printed-girls-t-shirt-2854634701848.html?pos=180&kwd=maternity t shirt&tags=||||8482.091|Price|product|||MDC|rsf:gd-|-stype:attr=1|qr_nm:gd|res:RC5|com-cf:nl|ptrs:na|ktp:N0|mc:68591|mtp:S|qry_typ:P|lang:en|wc:3|cs:8847|v=4,Maruti Mills,https://www.indiamart.com/marutimills/?pos=180&kwd=maternity t shirt&tags=||||8482.091|Price|product|||MDC|rsf:gd-|-stype:attr=1|qr_nm:gd|res:RC5|com-cf:nl|ptrs:na|ktp:N0|mc:68591|mtp:S|qry_typ:P|lang:en|wc:3|cs:8847|v=4,False,,Ajmer,"K-65, Krishan Ganj Ajmer,, Ajmer - 305001, Dist.Ajmer, Rajasthan",7949329933,
Ladies Printed T Shirt,https://www.indiamart.com/proddetail/ladies-printed-t-shirt-2855026271433.html?pos=181&kwd=maternity t shirt&tags=||||8626.744|Price|product|||MDC|rsf:gd-|-stype:attr=1|qr_nm:gd|res:RC5|com-cf:nl|ptrs:na|ktp:N0|mc:68591|mtp:S|qry_typ:P|lang:en|wc:3|cs:8847|v=4,Aashik Garments,https://www.indiamart.com/aashik-garments/?pos=181&kwd=maternity t shirt&tags=||||8626.744|Price|product|||MDC|rsf:gd-|-stype:attr=1|qr_nm:gd|res:RC5|com-cf:nl|ptrs:na|ktp:N0|mc:68591|mtp:S|qry_typ:P|lang:en|wc:3|cs:8847|v=4,False,Kumarnathapuram,Tiruppur,"2-2/13, Arukombai 2nd Street Pn Road, Mettuppalayam Bus Stop, Kumarnathapuram, Tiruppur - 641602, Dist.Coimbatore, Tamil Nadu",7942720263,
"Polo Cotton Collar T Shirts Combo, Half Sleeves, Plain",https://www.indiamart.com/proddetail/collar-t-shirts-combo-2851566142712.html?pos=182&kwd=maternity t shirt&tags=||||8752.144|Price|product|||MDC|rsf:gd-|-stype:attr=1|qr_nm:gd|res:RC5|com-cf:nl|ptrs:na|ktp:N0|mc:68591|mtp:S|qry_typ:P|lang:en|wc:3|cs:8847|v=4,Shiva International,https://www.indiamart.com/shivainternational-westdelhi/?pos=182&kwd=maternity t shirt&tags=||||8752.144|Price|product|||MDC|rsf:gd-|-stype:attr=1|qr_nm:gd|res:RC5|com-cf:nl|ptrs:na|ktp:N0|mc:68591|mtp:S|qry_typ:P|lang:en|wc:3|cs:8847|v=4,False,,New Delhi,"A-27, Shyam Colony, Budh Vihar Phase 2, North West Delhi, New Delhi - 110086, Dist.Delhi, Delhi",7949340720,
"Half Sleeve Plain T Shirt For Women, Daily Wear",https://www.indiamart.com/proddetail/plain-t-shirt-for-women-2854899749233.html?pos=183&kwd=maternity t shirt&tags=||||8752.144|Price|product|||MDC|rsf:gd-|-stype:attr=1|qr_nm:gd|res:RC5|com-cf:nl|ptrs:na|ktp:N0|mc:68591|mtp:S|qry_typ:P|lang:en|wc:3|cs:8847|v=4,Diving Deep Fashion World,https://www.indiamart.com/divingdeepfashionworld/?pos=183&kwd=maternity t shirt&tags=||||8752.144|Price|product|||MDC|rsf:gd-|-stype:attr=1|qr_nm:gd|res:RC5|com-cf:nl|ptrs:na|ktp:N0|mc:68591|mtp:S|qry_typ:P|lang:en|wc:3|cs:8847|v=4,False,,New Delhi,"Third Floor, B-9, Ghazipur Road, Shri Ganesh Properties, Ghazipur, East Delhi, New Delhi - 110096, Dist.Delhi, Delhi",8044458291,
"Half Sleeve Ladies Cotton Round T Shirt, Casual Wear",https://www.indiamart.com/proddetail/ladies-cotton-round-t-shirt-2853455025930.html?pos=184&kwd=maternity t shirt&tags=||||8249.688||product|||MDC|rsf:gd-|-stype:attr=1|qr_nm:gd|res:RC5|com-cf:nl|ptrs:na|ktp:N0|mc:68591|mtp:S|qry_typ:P|lang:en|wc:3|cs:8847|v=4,R M Hosiery,https://www.indiamart.com/r-mhosiery/?pos=184&kwd=maternity t shirt&tags=||||8249.688||product|||MDC|rsf:gd-|-stype:attr=1|qr_nm:gd|res:RC5|com-cf:nl|ptrs:na|ktp:N0|mc:68591|mtp:S|qry_typ:P|lang:en|wc:3|cs:8847|v=4,False,Belavali,Badlapur,"Ground Floor, Bunglow No. 1, Shushi S Mansion Belavali, Subhash Nagar Behind Fatema School, West, Thane,, Belavali, Badlapur - 421503, Maharashtra",8047800272,
"Half Sleeve Ladies Blue Printed T Shirt, Casual Wear, Size: Medium",https://www.indiamart.com/proddetail/ladies-blue-printed-t-shirt-2852837749655.html?pos=185&kwd=maternity t shirt&tags=||||8230.883|Price|product|||MDC|rsf:gd-|-stype:attr=1|qr_nm:gd|res:RC5|com-cf:nl|ptrs:na|ktp:N0|mc:68591|mtp:S|qry_typ:P|lang:en|wc:3|cs:8847|v=4,Apache Paris,https://www.indiamart.com/apacheparis/?pos=185&kwd=maternity t shirt&tags=||||8230.883|Price|product|||MDC|rsf:gd-|-stype:attr=1|qr_nm:gd|res:RC5|com-cf:nl|ptrs:na|ktp:N0|mc:68591|mtp:S|qry_typ:P|lang:en|wc:3|cs:8847|v=4,False,Udhna,Surat,"Q-53 And Q-53-M, Laxminarayan Industrial Estate, BRC Compound Udhna, Udhna, Surat - 394210, Dist.Surat, Gujarat",8043814844,
Ladies T Shirt,https://www.indiamart.com/proddetail/ladies-t-shirt-2852846299062.html?pos=186&kwd=maternity t shirt&tags=||||8228.275|Price|product|||MDC|rsf:gd-|-stype:attr=1|qr_nm:gd|res:RC5|com-cf:nl|ptrs:na|ktp:N0|mc:68591|mtp:S|qry_typ:P|lang:en|wc:3|cs:8847|v=4,Radhika Creation,https://www.indiamart.com/radhikacreationahmedabad/?pos=186&kwd=maternity t shirt&tags=||||8228.275|Price|product|||MDC|rsf:gd-|-stype:attr=1|qr_nm:gd|res:RC5|com-cf:nl|ptrs:na|ktp:N0|mc:68591|mtp:S|qry_typ:P|lang:en|wc:3|cs:8847|v=4,False,M D Marg,Ahmedabad,"D/269, First Floor, Sumel Business Park-2, B/H Ambica Mill Compound, NR.Vanijya Bhavan Kankaria Road, M D Marg, Ahmedabad - 380022, Dist.Ahmedabad, Gujarat",8043862598,
Women Cotton Printed Half Sleeve T Shirt,https://www.indiamart.com/proddetail/women-cotton-printed-half-sleeve-t-shirt-2854781223955.html?pos=187&kwd=maternity t shirt&tags=||||9842.546|Price|product|||MDC|rsf:gd-|-stype:attr=1|qr_nm:gd|res:RC5|com-cf:nl|ptrs:na|ktp:N0|mc:68591|mtp:S|qry_typ:P|lang:en|wc:3|cs:8847|v=4,Saha Enterprise,https://www.indiamart.com/sahaenterprisewestbengal/?pos=187&kwd=maternity t shirt&tags=||||9842.546|Price|product|||MDC|rsf:gd-|-stype:attr=1|qr_nm:gd|res:RC5|com-cf:nl|ptrs:na|ktp:N0|mc:68591|mtp:S|qry_typ:P|lang:en|wc:3|cs:8847|v=4,False,,Patulia,"34/1, Satin Sen Road, Ambikapur, Kolkata, Patulia - 700113, Dist.North 24 Parganas, West Bengal",7949336569,
"Half Sleeve Women's Printed T Shirt, Casual Wear",https://www.indiamart.com/proddetail/women-s-printed-t-shirt-2854101527048.html?pos=188&kwd=maternity t shirt&tags=||||8752.144|Price|product|||MDC|rsf:gd-|-stype:attr=1|qr_nm:gd|res:RC5|com-cf:nl|ptrs:na|ktp:N0|mc:68591|mtp:S|qry_typ:P|lang:en|wc:3|cs:8847|v=4,The Perfect Inch,https://www.indiamart.com/theperfect-inch/?pos=188&kwd=maternity t shirt&tags=||||8752.144|Price|product|||MDC|rsf:gd-|-stype:attr=1|qr_nm:gd|res:RC5|com-cf:nl|ptrs:na|ktp:N0|mc:68591|mtp:S|qry_typ:P|lang:en|wc:3|cs:8847|v=4,False,Karol Bagh,New Delhi,"First Floor, E-16/647, Bapa Nagar, Tank Road Karol Bagh, North Delhi,, Karol Bagh, New Delhi - 110005, Dist.Delhi, Delhi",8044015508,
Ladies White Cotton Printed Round Neck T Shirt,https://www.indiamart.com/proddetail/ladies-white-cotton-printed-round-neck-t-shirt-2853638315791.html?pos=189&kwd=maternity t shirt&tags=||||8769.508|Price|product|||MDC|rsf:gd-|-stype:attr=1|qr_nm:gd|res:RC5|com-cf:nl|ptrs:na|ktp:N0|mc:68591|mtp:S|qry_typ:P|lang:en|wc:3|cs:8847|v=4,Avdesh Kumar S/O Devi Dayal,https://www.indiamart.com/avdesh-kumar-devidayal/?pos=189&kwd=maternity t shirt&tags=||||8769.508|Price|product|||MDC|rsf:gd-|-stype:attr=1|qr_nm:gd|res:RC5|com-cf:nl|ptrs:na|ktp:N0|mc:68591|mtp:S|qry_typ:P|lang:en|wc:3|cs:8847|v=4,False,Tilpat,Faridabad,"Gali No-3, 250 Palla No 1, Shiv Colony, Tilpat, Faridabad - 121005, Dist.Faridabad, Haryana",7949083449,
"Half Sleeve Girls Polo T Shirt, Daily Wear, Size: Medium",https://www.indiamart.com/proddetail/girls-polo-t-shirt-2854546105188.html?pos=190&kwd=maternity t shirt&tags=||||8626.744|Price|product|||MDC|rsf:gd-|-stype:attr=1|qr_nm:gd|res:RC5|com-cf:nl|ptrs:na|ktp:N0|mc:68591|mtp:S|qry_typ:P|lang:en|wc:3|cs:8847|v=4,Yaaally Colours,https://www.indiamart.com/yaaally-colours/?pos=190&kwd=maternity t shirt&tags=||||8626.744|Price|product|||MDC|rsf:gd-|-stype:attr=1|qr_nm:gd|res:RC5|com-cf:nl|ptrs:na|ktp:N0|mc:68591|mtp:S|qry_typ:P|lang:en|wc:3|cs:8847|v=4,False,,Tiruppur,"96D, Chairman Kandhasamy Nagar, 5th Street, Palayakadu,, Tiruppur - 641601, Dist.Coimbatore, Tamil Nadu",7949340109,
"Half Sleeve Women Printed T Shirts, Casual Wear, Size: Large",https://www.indiamart.com/proddetail/women-printed-t-shirts-2854855640391.html?pos=191&kwd=maternity t shirt&tags=||||8661.854|Price|product|||MDC|rsf:gd-|-stype:attr=1|qr_nm:gd|res:RC5|com-cf:nl|ptrs:na|ktp:N0|mc:68591|mtp:S|qry_typ:P|lang:en|wc:3|cs:8847|v=4,Diamond Knitwears,https://www.indiamart.com/diamondknitwears-punjab/?pos=191&kwd=maternity t shirt&tags=||||8661.854|Price|product|||MDC|rsf:gd-|-stype:attr=1|qr_nm:gd|res:RC5|com-cf:nl|ptrs:na|ktp:N0|mc:68591|mtp:S|qry_typ:P|lang:en|wc:3|cs:8847|v=4,False,,Ludhiana,"B-XXXI 5863,Gali, No.6 Guru, Arjan Dev Nagar, Ludhiana - 141008, Dist.Ludhiana, Punjab",8044456771,
"Cotton Round Black Full Sleeves T Shirt, Printed",https://www.indiamart.com/proddetail/printed-ladies-cotton-t-shirt-2854886513062.html?pos=192&kwd=maternity t shirt&tags=||||8661.854|Price|product|||MDC|rsf:gd-|-stype:attr=1|qr_nm:gd|res:RC5|com-cf:nl|ptrs:na|ktp:N0|mc:68591|mtp:S|qry_typ:P|lang:en|wc:3|cs:8847|v=4,Puneet Knit & Wear,https://www.indiamart.com/puneetknitwear-ludhiana/?pos=192&kwd=maternity t shirt&tags=||||8661.854|Price|product|||MDC|rsf:gd-|-stype:attr=1|qr_nm:gd|res:RC5|com-cf:nl|ptrs:na|ktp:N0|mc:68591|mtp:S|qry_typ:P|lang:en|wc:3|cs:8847|v=4,False,,Ludhiana,"Guru Nanak Dev Nagar, Gali No 6, Basti Jodhewal, Ludhiana - 141007, Dist.Ludhiana, Punjab",8044457556,
Peach Half Sleeve Ladies Hosiery Striped T Shirt,https://www.indiamart.com/proddetail/ladies-hosiery-striped-t-shirt-25232332373.html?pos=193&kwd=maternity t shirt&tags=||||8211.142|Price|product|||MDC|rsf:gd-|-stype:attr=1|qr_nm:gd|res:RC5|com-cf:nl|ptrs:na|ktp:N0|mc:68591|mtp:S|qry_typ:P|lang:en|wc:3|cs:8847|v=4,Girls Fashion,https://www.indiamart.com/girls-fashion-mumbai/?pos=193&kwd=maternity t shirt&tags=||||8211.142|Price|product|||MDC|rsf:gd-|-stype:attr=1|qr_nm:gd|res:RC5|com-cf:nl|ptrs:na|ktp:N0|mc:68591|mtp:S|qry_typ:P|lang:en|wc:3|cs:8847|v=4,False,Khar West,Mumbai,"190 Dobra Chawl, Khar Danpada, Khar West, Khar West, Mumbai - 400052, Dist.Mumbai, Maharashtra",8047308967,
"Black Ladies Oversize T Shirt, Printed",https://www.indiamart.com/proddetail/black-ladies-oversize-t-shirt-2853778533588.html?pos=194&kwd=maternity t shirt&tags=||||8778.123|Price|product|||MDC|rsf:gd-|-stype:attr=1|qr_nm:gd|res:RC5|com-cf:nl|ptrs:na|ktp:N0|mc:68591|mtp:S|qry_typ:P|lang:en|wc:3|cs:8847|v=4,TRNG Corporation,https://www.indiamart.com/trngcorporation/?pos=194&kwd=maternity t shirt&tags=||||8778.123|Price|product|||MDC|rsf:gd-|-stype:attr=1|qr_nm:gd|res:RC5|com-cf:nl|ptrs:na|ktp:N0|mc:68591|mtp:S|qry_typ:P|lang:en|wc:3|cs:8847|v=4,False,Sector 85 noida,Noida,"House No 112, Shop No 2, Brij Pal Tyagi House, Main Gejha Road Sector 82, Near Pappu Pradhan Market, Sector 85 noida, Noida - 201304, Dist.Gautam Budh Nagar, Uttar Pradesh",8045166443,
"Half Sleeve Ladies Cotton Oversized T Shirt, Casual Wear",https://www.indiamart.com/proddetail/ladies-cotton-oversized-t-shirt-2854794449533.html?pos=195&kwd=maternity t shirt&tags=||||8752.144|Price|product|||MDC|rsf:gd-|-stype:attr=1|qr_nm:gd|res:RC5|com-cf:nl|ptrs:na|ktp:N0|mc:68591|mtp:S|qry_typ:P|lang:en|wc:3|cs:8847|v=4,Rewa Enterprise,https://www.indiamart.com/rewaenterprise-new-delhi/?pos=195&kwd=maternity t shirt&tags=||||8752.144|Price|product|||MDC|rsf:gd-|-stype:attr=1|qr_nm:gd|res:RC5|com-cf:nl|ptrs:na|ktp:N0|mc:68591|mtp:S|qry_typ:P|lang:en|wc:3|cs:8847|v=4,False,,New Delhi,"H. No - 1073, Gali No - 43, Molarband , Block - E, South Delhi, New Delhi - 110044, Dist.Delhi, Delhi",8044456609,
Printed Flowers Print Lacy Teddy Set,https://www.indiamart.com/proddetail/flowers-print-lacy-teddy-set-2854238400612.html?pos=196&kwd=maternity t shirt&tags=||||8211.001|Price|product|||TS|rsf:gd-|-stype:attr=1|qr_nm:gd|res:RC5|com-cf:nl|ptrs:na|ktp:N0|mc:68591|mtp:S|qry_typ:P|lang:en|wc:3|cs:8847|v=4,Nine,https://www.indiamart.com/nine-goregaon/?pos=196&kwd=maternity t shirt&tags=||||8211.001|Price|product|||TS|rsf:gd-|-stype:attr=1|qr_nm:gd|res:RC5|com-cf:nl|ptrs:na|ktp:N0|mc:68591|mtp:S|qry_typ:P|lang:en|wc:3|cs:8847|v=4,True,,Goregaon,"A Wing, 1001 Building No-17/532, Sahayog CHS Ltd, Shastri Nagar Road CTS No- 217 PT, Goregaon - 400104, Dist.Mumbai, Maharashtra",8045730631,
"Half Sleeve womens plain (OS) tshirt, Casual Wear",https://www.indiamart.com/proddetail/womens-plain-os-tshirt-2852418983491.html?pos=197&kwd=maternity t shirt&tags=||||8778.123|Price|product|||TS|rsf:gd-|-stype:attr=1|qr_nm:gd|res:RC5|com-cf:nl|ptrs:na|ktp:N0|mc:68591|mtp:S|qry_typ:P|lang:en|wc:3|cs:8847|v=4,Aggarwal Group & Industries,https://www.indiamart.com/aggarwalgroup-industries/?pos=197&kwd=maternity t shirt&tags=||||8778.123|Price|product|||TS|rsf:gd-|-stype:attr=1|qr_nm:gd|res:RC5|com-cf:nl|ptrs:na|ktp:N0|mc:68591|mtp:S|qry_typ:P|lang:en|wc:3|cs:8847|v=4,False,Sector-45,Noida,"Near Sarai Rasta, Village-Sadarpur, Sector-45 Noida, Gautam Buddha Nagar, Sector-45, Noida - 201301, Dist.Gautam Budh Nagar, Uttar Pradesh",8048213870,
Multicolor Women''s Solid Regular Fit Half Sleeve T-Shirt,https://www.indiamart.com/proddetail/women-s-solid-regular-fit-half-sleeve-t-shirt-22494096162.html?pos=198&kwd=maternity t shirt&tags=||||8752.144|Price|product|||TS|rsf:gd-|-stype:attr=1|qr_nm:gd|res:RC5|com-cf:nl|ptrs:na|ktp:N0|mc:68591|mtp:S|qry_typ:P|lang:en|wc:3|cs:8847|v=4,Value Box,https://www.evaluebox.com/?pos=198&kwd=maternity t shirt&tags=||||8752.144|Price|product|||TS|rsf:gd-|-stype:attr=1|qr_nm:gd|res:RC5|com-cf:nl|ptrs:na|ktp:N0|mc:68591|mtp:S|qry_typ:P|lang:en|wc:3|cs:8847|v=4,False,Kirti Nagar,New Delhi,"70/B-19, 3rd Floor Rama Road Industrial Area, Opposite Kirti Nagar Metro Station, Kirti Nagar, New Delhi - 110015, Dist.Delhi, Delhi",8048609357,
Cotton Round Ladies Half Sleeves T-Shirt,https://www.indiamart.com/proddetail/ladies-half-sleeves-t-shirt-16543857655.html?pos=199&kwd=maternity t shirt&tags=||||8954.051|Price|product|||TS|rsf:gd-|-stype:attr=1|qr_nm:gd|res:RC5|com-cf:nl|ptrs:na|ktp:N0|mc:68591|mtp:S|qry_typ:P|lang:en|wc:3|cs:8847|v=4,Dante Trading Company,https://www.indiamart.com/hypeclothing/?pos=199&kwd=maternity t shirt&tags=||||8954.051|Price|product|||TS|rsf:gd-|-stype:attr=1|qr_nm:gd|res:RC5|com-cf:nl|ptrs:na|ktp:N0|mc:68591|mtp:S|qry_typ:P|lang:en|wc:3|cs:8847|v=4,False,Anna Nagar West Extension,Chennai,"R22/2, Flat A, Sonex Haven, Anna Nagar West Extension, Chennai - 600101, Dist.Chennai, Tamil Nadu",8048961918,
Plain Round Neck T Shirts,https://www.indiamart.com/proddetail/round-neck-t-shirts-20848447155.html?pos=200&kwd=maternity t shirt&tags=||||8211.142|Price|product|||TS|rsf:gd-|-stype:attr=1|qr_nm:gd|res:RC5|com-cf:nl|ptrs:na|ktp:N0|mc:68591|mtp:S|qry_typ:P|lang:en|wc:3|cs:8847|v=4,Vineet International,https://www.indiamart.com/vineetinternational/?pos=200&kwd=maternity t shirt&tags=||||8211.142|Price|product|||TS|rsf:gd-|-stype:attr=1|qr_nm:gd|res:RC5|com-cf:nl|ptrs:na|ktp:N0|mc:68591|mtp:S|qry_typ:P|lang:en|wc:3|cs:8847|v=4,False,Andheri,Mumbai,"No. 107, Damji Shamji Udyog Bhavan, Veera Desai Road, Andheri, Mumbai - 400053, Dist.Mumbai, Maharashtra",8047647547,
RED YELLOW BLACK WHITE BLUE Plain Round Neck T-Shirt GSM 180,https://www.indiamart.com/proddetail/plain-round-neck-t-shirt-gsm-180-22282645055.html?pos=201&kwd=maternity t shirt&tags=||||8661.854|Price|product|||TS|rsf:gd-|-stype:attr=1|qr_nm:gd|res:RC5|com-cf:nl|ptrs:na|ktp:N0|mc:68591|mtp:S|qry_typ:P|lang:en|wc:3|cs:8847|v=4,Santosh Hosiery Factory,https://www.santoshhosiery.com/?pos=201&kwd=maternity t shirt&tags=||||8661.854|Price|product|||TS|rsf:gd-|-stype:attr=1|qr_nm:gd|res:RC5|com-cf:nl|ptrs:na|ktp:N0|mc:68591|mtp:S|qry_typ:P|lang:en|wc:3|cs:8847|v=4,False,Sunder Nagar,Ludhiana,"No. 249/22/23, Old Madhopuri, Street No. 4, Sunder Nagar, Ludhiana - 141008, Dist.Ludhiana, Punjab",7942532098,
"Lycra Cotton Round Ladies Black T Shirt, Casual Wear",https://www.indiamart.com/proddetail/ladies-black-t-shirt-12430834955.html?pos=202&kwd=maternity t shirt&tags=||||8752.144|Price|product|||TS|rsf:gd-|-stype:attr=1|qr_nm:gd|res:RC5|com-cf:nl|ptrs:na|ktp:N0|mc:68591|mtp:S|qry_typ:P|lang:en|wc:3|cs:8847|v=4,Clothing Cluster,https://www.indiamart.com/clothingcluster/?pos=202&kwd=maternity t shirt&tags=||||8752.144|Price|product|||TS|rsf:gd-|-stype:attr=1|qr_nm:gd|res:RC5|com-cf:nl|ptrs:na|ktp:N0|mc:68591|mtp:S|qry_typ:P|lang:en|wc:3|cs:8847|v=4,False,Pansoli,New Delhi,"C-4/88, Sector 6, Rohini, Pansoli, New Delhi - 110085, Dist.Delhi, Delhi",8046059231,
"16 To 50 Women Round Neck T Shirts, Printed, Quantity Per Pack: 1",https://www.indiamart.com/proddetail/round-neck-t-shirts-24932363062.html?pos=203&kwd=maternity t shirt&tags=||||8778.123|Price|product|||TS|rsf:gd-|-stype:attr=1|qr_nm:gd|res:RC5|com-cf:nl|ptrs:na|ktp:N0|mc:68591|mtp:S|qry_typ:P|lang:en|wc:3|cs:8847|v=4,RCV Infotech,https://www.rcvinfotech.com/?pos=203&kwd=maternity t shirt&tags=||||8778.123|Price|product|||TS|rsf:gd-|-stype:attr=1|qr_nm:gd|res:RC5|com-cf:nl|ptrs:na|ktp:N0|mc:68591|mtp:S|qry_typ:P|lang:en|wc:3|cs:8847|v=4,False,Sector 8,Noida,"Unit No.- B-77, First Floor, Sector 83, Sector 8, Noida - 201301, Dist.Gautam Budh Nagar, Uttar Pradesh",7942564068,
"Round Black King And Queen Couple T Shirt, Printed",https://www.indiamart.com/proddetail/king-and-queen-couple-t-shirt-25022246691.html?pos=204&kwd=maternity t shirt&tags=||||8038.093|Price|product|||TS|rsf:gd-|-stype:attr=1|qr_nm:gd|res:RC5|com-cf:nl|ptrs:na|ktp:N0|mc:68591|mtp:S|qry_typ:P|lang:en|wc:3|cs:8847|v=4,Unique Enterprise,https://www.sublimationmanufacturer.com/?pos=204&kwd=maternity t shirt&tags=||||8038.093|Price|product|||TS|rsf:gd-|-stype:attr=1|qr_nm:gd|res:RC5|com-cf:nl|ptrs:na|ktp:N0|mc:68591|mtp:S|qry_typ:P|lang:en|wc:3|cs:8847|v=4,False,Maruti Industrial Area,Rajkot,"Sahkar Road Mehani Nagar 5, Maruti Industrial Area, Rajkot - 360004, Dist.Rajkot, Gujarat",8047633297,
"Half Sleeve Girl Round Neck T Shirt, Casual Wear",https://www.indiamart.com/proddetail/girl-round-neck-t-shirt-2853291323333.html?pos=205&kwd=maternity t shirt&tags=||||8752.144|Price|product|||TS|rsf:gd-|-stype:attr=1|qr_nm:gd|res:RC5|com-cf:nl|ptrs:na|ktp:N0|mc:68591|mtp:S|qry_typ:P|lang:en|wc:3|cs:8847|v=4,Mahi Enterprises,https://www.indiamart.com/mahienterprises-northdelhi/?pos=205&kwd=maternity t shirt&tags=||||8752.144|Price|product|||TS|rsf:gd-|-stype:attr=1|qr_nm:gd|res:RC5|com-cf:nl|ptrs:na|ktp:N0|mc:68591|mtp:S|qry_typ:P|lang:en|wc:3|cs:8847|v=4,False,Rohini,New Delhi,"Ground Floor, Plot No-6 KH. NO.62/2, NO-3 BLK-C, Kishan Colony, Rohini, New Delhi - 110042, Dist.Delhi, Delhi",7942840912,
"Black Ladies Pure Cotton Half Sleeve Printed T Shirt, Casual Wear",https://www.indiamart.com/proddetail/black-ladies-pure-cotton-half-sleeve-printed-t-shirt-2851617933862.html?pos=206&kwd=maternity t shirt&tags=||||8740.707|Price|product|||TS|rsf:gd-|-stype:attr=1|qr_nm:gd|res:RC5|com-cf:nl|ptrs:na|ktp:N0|mc:68591|mtp:S|qry_typ:P|lang:en|wc:3|cs:8847|v=4,Jokicx Private Limited,https://www.indiamart.com/jokicx-sasnagar/?pos=206&kwd=maternity t shirt&tags=||||8740.707|Price|product|||TS|rsf:gd-|-stype:attr=1|qr_nm:gd|res:RC5|com-cf:nl|ptrs:na|ktp:N0|mc:68591|mtp:S|qry_typ:P|lang:en|wc:3|cs:8847|v=4,False,Industrial Area Phase 6,Sas Nagar,"Plot No C-80,Industrial Area Phase 6,Mohali, Industrial Area Phase 6, Sas Nagar - 160055, Dist.Mohali, Punjab",7942872948,
"Half Sleeve Flohaan Female Organic Polo T-Shirt, Daily Wear",https://www.indiamart.com/proddetail/flohaan-female-organic-polo-t-shirt-2851721121833.html?pos=207&kwd=maternity t shirt&tags=||||8663.873|Price|product|||TS|rsf:gd-|-stype:attr=1|qr_nm:gd|res:RC5|com-cf:nl|ptrs:na|ktp:N0|mc:68591|mtp:S|qry_typ:P|lang:en|wc:3|cs:8847|v=4,FLOHAAN,https://www.indiamart.com/flohaan/?pos=207&kwd=maternity t shirt&tags=||||8663.873|Price|product|||TS|rsf:gd-|-stype:attr=1|qr_nm:gd|res:RC5|com-cf:nl|ptrs:na|ktp:N0|mc:68591|mtp:S|qry_typ:P|lang:en|wc:3|cs:8847|v=4,False,Shivaji Nagar,Bengaluru,"3rd floor, Cunningham Classic, Cunningham Rd, Shivaji Nagar, Shivaji Nagar, Bengaluru - 560006, Dist.Bengaluru, Karnataka",8047784745,
Marriage functions customized t shirts,https://www.indiamart.com/proddetail/marriage-functions-customized-t-shirts-2852745460748.html?pos=208&kwd=maternity t shirt&tags=||||8861.185|Price|product|||TS|rsf:gd-|-stype:attr=1|qr_nm:gd|res:RC5|com-cf:nl|ptrs:na|ktp:N0|mc:68591|mtp:S|qry_typ:P|lang:en|wc:3|cs:8847|v=4,Moon Enterprises,https://www.indiamart.com/moonenterprise-agra/?pos=208&kwd=maternity t shirt&tags=||||8861.185|Price|product|||TS|rsf:gd-|-stype:attr=1|qr_nm:gd|res:RC5|com-cf:nl|ptrs:na|ktp:N0|mc:68591|mtp:S|qry_typ:P|lang:en|wc:3|cs:8847|v=4,False,Manik Chowk,Jhansi,"619/6-K, Panchwati Powerhouse Ke Samne Wali Gali, Outer Unnao Gate,, Manik Chowk, Jhansi - 284002, Dist.Jhansi, Uttar Pradesh",8048251507,
Cotton Half Sleeve Women's Polo Custom T Shirt,https://www.indiamart.com/proddetail/women-s-polo-custom-t-shirt-20815674662.html?pos=209&kwd=maternity t shirt&tags=||||8211.142|Price|product|||TS|rsf:gd-|-stype:attr=1|qr_nm:gd|res:RC5|com-cf:nl|ptrs:na|ktp:N0|mc:68591|mtp:S|qry_typ:P|lang:en|wc:3|cs:8847|v=4,B.Y.C Online Retail Private Limited,https://www.bycindia.net/?pos=209&kwd=maternity t shirt&tags=||||8211.142|Price|product|||TS|rsf:gd-|-stype:attr=1|qr_nm:gd|res:RC5|com-cf:nl|ptrs:na|ktp:N0|mc:68591|mtp:S|qry_typ:P|lang:en|wc:3|cs:8847|v=4,False,Kandivali East,Mumbai,"206, 207, Matru Chayya, Singh Estate, Road No. 1, Kandivali East, Mumbai - 400101, Dist.Mumbai, Maharashtra",8046075902,
"Full Sleeve Summer T Shirt For Ladies Fly High, Size: Large, Printed",https://www.indiamart.com/proddetail/summer-t-shirt-for-ladies-fly-high-2850529007188.html?pos=210&kwd=maternity t shirt&tags=||||8661.854|Price|product|||TS|rsf:gd-|-stype:attr=1|qr_nm:gd|res:RC5|com-cf:nl|ptrs:na|ktp:N0|mc:68591|mtp:S|qry_typ:P|lang:en|wc:3|cs:8847|v=4,S.Biotex Private Limited,https://www.sbiotex.in/?pos=210&kwd=maternity t shirt&tags=||||8661.854|Price|product|||TS|rsf:gd-|-stype:attr=1|qr_nm:gd|res:RC5|com-cf:nl|ptrs:na|ktp:N0|mc:68591|mtp:S|qry_typ:P|lang:en|wc:3|cs:8847|v=4,True,Focal Point,Ludhiana,"3rd Floor, D-366 PHASE -VIII, Focal Point, Ludhiana - 141010, Dist.Ludhiana, Punjab",8046046418,
