product_title,product_link,company_name,company_link,is_verified_exporter,city_region,city,address_details,phone_number,phone_number_extension
"PLAIN Ladies Nightwear, Black, Size: M L XL 2XL",https://www.indiamart.com/proddetail/ladies-nightwear-suit-2854845690512.html?pos=1&kwd=maternity sleepwear&tags=BB||||8230.883|Price|product|||MDC|rsf:gd-|-stype:attr=1|qr_nm:gd|res:RC3|com-cf:nl|ptrs:na|ktp:N0|mc:31795|mtp:S|qry_typ:P|lang:en|wc:2|flavl:0|cs:9603|v=4,Texfield,https://www.indiamart.com/texfield/?pos=1&kwd=maternity sleepwear&tags=BB||||8230.883|Price|product|||MDC|rsf:gd-|-stype:attr=1|qr_nm:gd|res:RC3|com-cf:nl|ptrs:na|ktp:N0|mc:31795|mtp:S|qry_typ:P|lang:en|wc:2|flavl:0|cs:9603|v=4,False,Mota Varachha,Surat,"1st Floor, B/102, Tulsi Residency, Sudama Chowk, Mota Varachha,, Mota Varachha, Surat - 394101, Dist.Surat, Gujarat",8047313324,
"Multicolor Printed Fidding Night Wear, Size: XL",https://www.indiamart.com/proddetail/feeding-night-wear-23019659588.html?pos=2&kwd=maternity sleepwear&tags=BB||||8601.347|Price|product|||TS|rsf:gd-|-stype:attr=1|qr_nm:gd|res:RC3|com-cf:nl|ptrs:na|ktp:N0|mc:31795|mtp:S|qry_typ:P|lang:en|wc:2|flavl:0|cs:9603|v=4,Mudrika Fashions (A Brand of Silver Organisation),https://www.indiamart.com/silverorganisation/?pos=2&kwd=maternity sleepwear&tags=BB||||8601.347|Price|product|||TS|rsf:gd-|-stype:attr=1|qr_nm:gd|res:RC3|com-cf:nl|ptrs:na|ktp:N0|mc:31795|mtp:S|qry_typ:P|lang:en|wc:2|flavl:0|cs:9603|v=4,False,Luniawas,Jaipur,"A-1, Kanji Nagar, Luniawas, Jaipur - 302031, Dist.Jaipur, Rajasthan",8046042577,
White Printed Maternity Sleepwear,https://www.indiamart.com/proddetail/maternity-sleepwear-10669239330.html?pos=3&kwd=maternity sleepwear&tags=BA||||8601.347|Price|product|||TS|rsf:gd-|-stype:attr=1|qr_nm:gd|res:RC3|com-cf:nl|ptrs:na|ktp:N0|mc:31795|mtp:S|qry_typ:P|lang:en|wc:2|flavl:0|cs:9603|v=4,Jaipuri Bandhej,https://www.jaipuribandhej.net/?pos=3&kwd=maternity sleepwear&tags=BA||||8601.347|Price|product|||TS|rsf:gd-|-stype:attr=1|qr_nm:gd|res:RC3|com-cf:nl|ptrs:na|ktp:N0|mc:31795|mtp:S|qry_typ:P|lang:en|wc:2|flavl:0|cs:9603|v=4,False,Vidhyadhar Nagar,Jaipur,"Laxmi Niwas, 42-A, Hans Vatika Naya Khera, Vidhyadhar Nagar, Vidhyadhar Nagar, Jaipur - 302039, Dist.Jaipur, Rajasthan",8048619795,
Printed Cotton Maternity Nightwear,https://www.indiamart.com/proddetail/maternity-nightwear-2851934371012.html?pos=4&kwd=maternity sleepwear&tags=BA||||8626.744|Price|product|||TS|rsf:gd-|-stype:attr=1|qr_nm:gd|res:RC3|com-cf:nl|ptrs:na|ktp:N0|mc:31795|mtp:S|qry_typ:P|lang:en|wc:2|flavl:0|cs:9603|v=4,Rainbow Creations,https://www.indiamart.com/rainbowcreations/?pos=4&kwd=maternity sleepwear&tags=BA||||8626.744|Price|product|||TS|rsf:gd-|-stype:attr=1|qr_nm:gd|res:RC3|com-cf:nl|ptrs:na|ktp:N0|mc:31795|mtp:S|qry_typ:P|lang:en|wc:2|flavl:0|cs:9603|v=4,False,Renganatha Puram,Tiruppur,"No. 7- 24, murugasamy layout 1street, Renganatha Puram, Tiruppur - 641607, Dist.Coimbatore, Tamil Nadu",8048955272,
Womens Nightwear,https://www.indiamart.com/proddetail/womens-nightwear-2852488334133.html?pos=5&kwd=maternity sleepwear&tags=BA||||8954.051|Price|product|||MDC|rsf:gd-|-stype:attr=1|qr_nm:gd|res:RC3|com-cf:nl|ptrs:na|ktp:N0|mc:31795|mtp:S|qry_typ:P|lang:en|wc:2|flavl:0|cs:9603|v=4,Bstories,https://www.indiamart.com/bstories-chennai/?pos=5&kwd=maternity sleepwear&tags=BA||||8954.051|Price|product|||MDC|rsf:gd-|-stype:attr=1|qr_nm:gd|res:RC3|com-cf:nl|ptrs:na|ktp:N0|mc:31795|mtp:S|qry_typ:P|lang:en|wc:2|flavl:0|cs:9603|v=4,False,Valasaravakkam,Chennai,"6AB-7B,,KUMARAN COLONY , SRI DEVI KUPPAM ROAD,VALASARAVAKKAM, Valasaravakkam, Chennai - 600087, Dist.Chennai, Tamil Nadu",7942868243,
"Printed Rayon Mother Maternity Night Wear, Pink",https://www.indiamart.com/proddetail/mother-maternity-night-wear-27187147097.html?pos=6&kwd=maternity sleepwear&tags=BB||||8211.142|Price|product|||NA|rsf:gd-|-stype:attr=1|qr_nm:gd|res:RC3|com-cf:nl|ptrs:na|ktp:N0|mc:31795|mtp:S|qry_typ:P|lang:en|wc:2|flavl:0|cs:9603|v=4,Master Fashion Products,https://www.indiamart.com/master-fashion-products/?pos=6&kwd=maternity sleepwear&tags=BB||||8211.142|Price|product|||NA|rsf:gd-|-stype:attr=1|qr_nm:gd|res:RC3|com-cf:nl|ptrs:na|ktp:N0|mc:31795|mtp:S|qry_typ:P|lang:en|wc:2|flavl:0|cs:9603|v=4,False,Vidyalankar College Marg Wadala East,Mumbai,"A-112, 1st Floor, Antophill Warehousing Complex, Vidyalankar College Marg Wadala East, Mumbai - 400037, Dist.Mumbai, Maharashtra",8047685185,
Multicolor CLYMAA Women's Wool Striped Maxi Maternity Nighty,https://www.indiamart.com/proddetail/clymaa-women-s-wool-striped-maxi-maternity-nighty-23877207855.html?pos=7&kwd=maternity sleepwear&tags=BB||||9789.054|Price|product|||NA|rsf:gd-|-stype:attr=1|qr_nm:gd|res:RC3|com-cf:nl|ptrs:na|ktp:N0|mc:31795|mtp:S|qry_typ:P|lang:en|wc:2|flavl:0|cs:9603|v=4,Clymaa,https://www.indiamart.com/clymaa/?pos=7&kwd=maternity sleepwear&tags=BB||||9789.054|Price|product|||NA|rsf:gd-|-stype:attr=1|qr_nm:gd|res:RC3|com-cf:nl|ptrs:na|ktp:N0|mc:31795|mtp:S|qry_typ:P|lang:en|wc:2|flavl:0|cs:9603|v=4,False,Sripally Ambagan,Bardhaman,"Shop No. 21, Nutanganj, Sripally Ambagan, Bardhaman - 713102, Dist.Purba Bardhaman, West Bengal",8047842473,
Printed Shaifali Brown Rayon Maternity Night Suit Set,https://www.indiamart.com/proddetail/brown-rayon-maternity-night-suit-2852598851562.html?pos=8&kwd=maternity sleepwear&tags=CC||||8601.347|Price|product|||MDC|rsf:gd-|-stype:attr=1|qr_nm:gd|res:RC3|com-cf:nl|ptrs:na|ktp:N0|mc:31795|mtp:S|qry_typ:P|lang:en|wc:2|flavl:0|cs:9603|v=4,Shaifali Fashions,https://www.indiamart.com/shaifali-fashions/?pos=8&kwd=maternity sleepwear&tags=CC||||8601.347|Price|product|||MDC|rsf:gd-|-stype:attr=1|qr_nm:gd|res:RC3|com-cf:nl|ptrs:na|ktp:N0|mc:31795|mtp:S|qry_typ:P|lang:en|wc:2|flavl:0|cs:9603|v=4,False,,Jaipur,"37-A,Pratap Nagar,Golimar Garden Ke Pichhe,Amer Road,Brahmpuri, Jaipur - 302002, Dist.Jaipur, Rajasthan",8045732152,
"Silky Red KuuKee 12010 Short Two Piece Ladies Nightwear, Size: Large",https://www.indiamart.com/proddetail/kuukee-12010-short-two-piece-ladies-nightwear-16085294073.html?pos=9&kwd=maternity sleepwear&tags=||||8211.142|Price|product|||TS|rsf:gd-|-stype:attr=1|qr_nm:gd|res:RC3|com-cf:nl|ptrs:na|ktp:N0|mc:31795|mtp:S|qry_typ:P|lang:en|wc:2|flavl:0|cs:9603|v=4,Anmol Hosiery,https://www.indiamart.com/anmolhosiery/?pos=9&kwd=maternity sleepwear&tags=||||8211.142|Price|product|||TS|rsf:gd-|-stype:attr=1|qr_nm:gd|res:RC3|com-cf:nl|ptrs:na|ktp:N0|mc:31795|mtp:S|qry_typ:P|lang:en|wc:2|flavl:0|cs:9603|v=4,False,Borivali East,Mumbai,"24/173, Kuldeep Society, Borivali East, Borivali East, Mumbai - 400066, Dist.Mumbai, Maharashtra",8048987762,
Maternity Maxi Dress,https://www.indiamart.com/proddetail/maternity-maxi-dress-2853650753188.html?pos=10&kwd=maternity sleepwear&tags=||||8601.347|Price|product|||TS|rsf:gd-|-stype:attr=1|qr_nm:gd|res:RC3|com-cf:nl|ptrs:na|ktp:N0|mc:31795|mtp:S|qry_typ:P|lang:en|wc:2|flavl:0|cs:9603|v=4,Namokar Enterprises,https://www.indiamart.com/namokarenterprises/?pos=10&kwd=maternity sleepwear&tags=||||8601.347|Price|product|||TS|rsf:gd-|-stype:attr=1|qr_nm:gd|res:RC3|com-cf:nl|ptrs:na|ktp:N0|mc:31795|mtp:S|qry_typ:P|lang:en|wc:2|flavl:0|cs:9603|v=4,False,Mansarovar,Jaipur,"119/67, Thadi Market, Agarwal Farm, Mansarovar, Mansarovar, Jaipur - 302020, Dist.Jaipur, Rajasthan",8047530717,
Solid Ladies Hosiery Maternity Frock Dress Nightgown 1389-1394,https://www.indiamart.com/proddetail/ladies-hosiery-maternity-frock-dress-nightgown-1389-1394-2851791980988.html?pos=11&kwd=maternity sleepwear&tags=||||8752.144|Price|product|||TS|rsf:gd-|-stype:attr=1|qr_nm:gd|res:RC3|com-cf:nl|ptrs:na|ktp:N0|mc:31795|mtp:S|qry_typ:P|lang:en|wc:2|flavl:0|cs:9603|v=4,Aggarwal & Sons,https://www.indiamart.com/aggarwal-sons-dehli/?pos=11&kwd=maternity sleepwear&tags=||||8752.144|Price|product|||TS|rsf:gd-|-stype:attr=1|qr_nm:gd|res:RC3|com-cf:nl|ptrs:na|ktp:N0|mc:31795|mtp:S|qry_typ:P|lang:en|wc:2|flavl:0|cs:9603|v=4,False,Karawal Nagar,New Delhi,"H No.-3 G/f Kh No.-5/27/1 ,Main Road Kamal Vihar Nr Police Station, Karawal Nagar, New Delhi - 110094, Dist.Delhi, Delhi",7942804253,
Cotton Maternity Gowns,https://www.indiamart.com/proddetail/cotton-maternity-gowns-2853734929673.html?pos=12&kwd=maternity sleepwear&tags=||||8601.347|Price|product|||MDC|rsf:gd-|-stype:attr=1|qr_nm:gd|res:RC3|com-cf:nl|ptrs:na|ktp:N0|mc:31795|mtp:S|qry_typ:P|lang:en|wc:2|flavl:0|cs:9603|v=4,Runway Enterprises,https://www.indiamart.com/runwayenterprises/?pos=12&kwd=maternity sleepwear&tags=||||8601.347|Price|product|||MDC|rsf:gd-|-stype:attr=1|qr_nm:gd|res:RC3|com-cf:nl|ptrs:na|ktp:N0|mc:31795|mtp:S|qry_typ:P|lang:en|wc:2|flavl:0|cs:9603|v=4,False,Jamna Puri,Jaipur,"Plot No 133, Benar Road, Scheme Shri Jorawar Nagar,, Jamna Puri, Jaipur - 302039, Dist.Jaipur, Rajasthan",7942718276,
RED ROSE Meternity-75,https://www.indiamart.com/proddetail/meternity-75-22489530955.html?pos=13&kwd=maternity sleepwear&tags=||||8231.259|Price|product|||TS|rsf:gd-|-stype:attr=1|qr_nm:gd|res:RC3|com-cf:nl|ptrs:na|ktp:N0|mc:31795|mtp:S|qry_typ:P|lang:en|wc:2|flavl:0|cs:9603|v=4,Red Rose ( A Brand Of Sagar Products),https://www.indiamart.com/redrose-mumbai/?pos=13&kwd=maternity sleepwear&tags=||||8231.259|Price|product|||TS|rsf:gd-|-stype:attr=1|qr_nm:gd|res:RC3|com-cf:nl|ptrs:na|ktp:N0|mc:31795|mtp:S|qry_typ:P|lang:en|wc:2|flavl:0|cs:9603|v=4,False,Saravali,Bhiwandi,"C6, Asmeeta Textile Park Additional Kalyan Bhiwandi Highway, Saravali, Bhiwandi - 421311, Maharashtra",8048603606,
Girl Kids Night Wear,https://www.indiamart.com/proddetail/kids-night-wear-23150317930.html?pos=14&kwd=maternity sleepwear&tags=||||8661.854|Price|product|||TS|rsf:gd-|-stype:attr=1|qr_nm:gd|res:RC3|com-cf:nl|ptrs:na|ktp:N0|mc:31795|mtp:S|qry_typ:P|lang:en|wc:2|flavl:0|cs:9603|v=4,R K Products,https://www.nightpartner.in/?pos=14&kwd=maternity sleepwear&tags=||||8661.854|Price|product|||TS|rsf:gd-|-stype:attr=1|qr_nm:gd|res:RC3|com-cf:nl|ptrs:na|ktp:N0|mc:31795|mtp:S|qry_typ:P|lang:en|wc:2|flavl:0|cs:9603|v=4,False,Dev Nagar,Ludhiana,"Shop Number 2, 8&10, Chaura Bazar Factory Near Samrala Chownk & H.NO. 1450 NEW CHANDER NAGAR ST. NO.7 OPP. D.M.C HOSPITAL BASSI NURSING HOMEST, Dev Nagar, Ludhiana - 141001, Dist.Ludhiana, Punjab",8047638898,
Ladies Black Feeding Cotton Nightgown,https://www.indiamart.com/proddetail/ladies-black-feeding-cotton-nightgown-2851974738255.html?pos=15&kwd=maternity sleepwear&tags=||||8242.731|Price|product|||MDC|rsf:gd-|-stype:attr=1|qr_nm:gd|res:RC3|com-cf:nl|ptrs:na|ktp:N0|mc:31795|mtp:S|qry_typ:P|lang:en|wc:2|cs:8840|v=4,Shanaya Garments,https://www.indiamart.com/shanayagarments/?pos=15&kwd=maternity sleepwear&tags=||||8242.731|Price|product|||MDC|rsf:gd-|-stype:attr=1|qr_nm:gd|res:RC3|com-cf:nl|ptrs:na|ktp:N0|mc:31795|mtp:S|qry_typ:P|lang:en|wc:2|cs:8840|v=4,False,Ulhasnagar-5,Ulhasnagar,"BRK No. 2108, Shivaji Chawl No 01, Near Lalchakki, Ulhasnagar-5, Ulhasnagar - 421005, Dist.Thane, Maharashtra",8044460414,
Ladies Maternity Nightgowns,https://www.indiamart.com/proddetail/ladies-maternity-nightgowns-2852993484648.html?pos=16&kwd=maternity sleepwear&tags=||||8242.731|Price|product|||MDC|rsf:gd-|-stype:attr=1|qr_nm:gd|res:RC3|com-cf:nl|ptrs:na|ktp:N0|mc:31795|mtp:S|qry_typ:P|lang:en|wc:2|cs:8840|v=4,Shree Ganesh Traders,https://www.indiamart.com/shree-ganeshtraders-ulhasnagar/?pos=16&kwd=maternity sleepwear&tags=||||8242.731|Price|product|||MDC|rsf:gd-|-stype:attr=1|qr_nm:gd|res:RC3|com-cf:nl|ptrs:na|ktp:N0|mc:31795|mtp:S|qry_typ:P|lang:en|wc:2|cs:8840|v=4,False,Kailash Colony,Ulhasnagar,"Room No. 3, BRK No.1838, Section 39, Near Axis Bank, Thane, Kailash Colony, Ulhasnagar - 421005, Dist.Thane, Maharashtra",7942968863,
Women Printed Maternity Dress,https://www.indiamart.com/proddetail/women-printed-maternity-dress-2853701165262.html?pos=17&kwd=maternity sleepwear&tags=||||8752.144|Price|product|||MDC|rsf:gd-|-stype:attr=1|qr_nm:gd|res:RC3|com-cf:nl|ptrs:na|ktp:N0|mc:31795|mtp:S|qry_typ:P|lang:en|wc:2|cs:8840|v=4,Ekaavali,https://www.indiamart.com/ekaavali/?pos=17&kwd=maternity sleepwear&tags=||||8752.144|Price|product|||MDC|rsf:gd-|-stype:attr=1|qr_nm:gd|res:RC3|com-cf:nl|ptrs:na|ktp:N0|mc:31795|mtp:S|qry_typ:P|lang:en|wc:2|cs:8840|v=4,False,Palam,New Delhi,"Flat No-263, Excellence Apartments, Sector 18A, Dwarka, Palam, New Delhi - 110075, Dist.Delhi, Delhi",7949095107,
Pink Flower Printed Zipper Maternity Nightgowns,https://www.indiamart.com/proddetail/pink-flower-printed-zipper-maternity-nightgowns-2854004778262.html?pos=18&kwd=maternity sleepwear&tags=||||8601.347|Price|product|||MDC|rsf:gd-|-stype:attr=1|qr_nm:gd|res:RC3|com-cf:nl|ptrs:na|ktp:N0|mc:31795|mtp:S|qry_typ:P|lang:en|wc:2|cs:8840|v=4,Aditya Enterprises,https://www.indiamart.com/adityaenterprises-jaipurrajasthan/?pos=18&kwd=maternity sleepwear&tags=||||8601.347|Price|product|||MDC|rsf:gd-|-stype:attr=1|qr_nm:gd|res:RC3|com-cf:nl|ptrs:na|ktp:N0|mc:31795|mtp:S|qry_typ:P|lang:en|wc:2|cs:8840|v=4,False,Murlipura,Jaipur,"First Floor, Plot No.330, MDS Tirvedi Complex, Flate No G-2, Shiv Nagar-I, Murlipura, Murlipura, Jaipur - 302039, Dist.Jaipur, Rajasthan",8044011776,
Peach Cotton Floral Printed Breastfeeding/Maternity/Pregnancy/Maxi/Dress Knee Length Nighty With Zip,https://www.indiamart.com/proddetail/peach-cotton-floral-printed-breastfeeding-maternity-pregnancy-maxi-dress-knee-length-nighty-with-zip-2853944417248.html?pos=19&kwd=maternity sleepwear&tags=||||8601.347|Price|product|||MDC|rsf:gd-|-stype:attr=1|qr_nm:gd|res:RC3|com-cf:nl|ptrs:na|ktp:N0|mc:31795|mtp:S|qry_typ:P|lang:en|wc:2|cs:8840|v=4,Kashaya Fabs,https://www.indiamart.com/kashaya-fabs/?pos=19&kwd=maternity sleepwear&tags=||||8601.347|Price|product|||MDC|rsf:gd-|-stype:attr=1|qr_nm:gd|res:RC3|com-cf:nl|ptrs:na|ktp:N0|mc:31795|mtp:S|qry_typ:P|lang:en|wc:2|cs:8840|v=4,False,Mansarovar,Jaipur,"H-1-51/66A, RIICO Industrial Area, Mansarovar, Mansarovar, Jaipur - 302020, Dist.Jaipur, Rajasthan",8044015615,
Ladies Maternity Gown,https://www.indiamart.com/proddetail/ladies-maternity-gown-26403285562.html?pos=20&kwd=maternity sleepwear&tags=||||8230.883|Price|product|||TS|rsf:gd-|-stype:attr=1|qr_nm:gd|res:RC3|com-cf:nl|ptrs:na|ktp:N0|mc:31795|mtp:S|qry_typ:P|lang:en|wc:2|cs:8840|v=4,JSK Designer,https://www.jskdesigner.com/?pos=20&kwd=maternity sleepwear&tags=||||8230.883|Price|product|||TS|rsf:gd-|-stype:attr=1|qr_nm:gd|res:RC3|com-cf:nl|ptrs:na|ktp:N0|mc:31795|mtp:S|qry_typ:P|lang:en|wc:2|cs:8840|v=4,False,,Surat,"C-4/405,Gadhpur Township, Kathodara Road, Pasodara, Surat - 394326, Dist.Surat, Gujarat",8048604591,
"Cotton Self Design Maternity Feeding Gown, Full Sleeve",https://www.indiamart.com/proddetail/maternity-feeding-gown-2853970049588.html?pos=21&kwd=maternity sleepwear&tags=||||8601.347|Price|product|||TS|rsf:gd-|-stype:attr=1|qr_nm:gd|res:RC3|com-cf:nl|ptrs:na|ktp:N0|mc:31795|mtp:S|qry_typ:P|lang:en|wc:2|cs:8840|v=4,Shree Shyam Creation,https://www.shreeshyamcreations.in/?pos=21&kwd=maternity sleepwear&tags=||||8601.347|Price|product|||TS|rsf:gd-|-stype:attr=1|qr_nm:gd|res:RC3|com-cf:nl|ptrs:na|ktp:N0|mc:31795|mtp:S|qry_typ:P|lang:en|wc:2|cs:8840|v=4,False,Sanganer,Jaipur,"Saini Bhawan, 18, Kanwar Ka Bag Ladko Ki Dhani Panchavti Colony, Sanganer, Sanganer, Jaipur - 302011, Dist.Jaipur, Rajasthan",7942717795,
Cotton Printed Ladies Night Suit Set,https://www.indiamart.com/proddetail/ladies-night-suit-set-2850369369948.html?pos=22&kwd=maternity sleepwear&tags=||||8228.275|Price|product|||TS|rsf:gd-|-stype:attr=1|qr_nm:gd|res:RC3|com-cf:nl|ptrs:na|ktp:N0|mc:31795|mtp:S|qry_typ:P|lang:en|wc:2|cs:8840|v=4,Maa Sachiyay Fashion,https://www.maasachiyayfashion.com/?pos=22&kwd=maternity sleepwear&tags=||||8228.275|Price|product|||TS|rsf:gd-|-stype:attr=1|qr_nm:gd|res:RC3|com-cf:nl|ptrs:na|ktp:N0|mc:31795|mtp:S|qry_typ:P|lang:en|wc:2|cs:8840|v=4,False,Prem Darwaza,Ahmedabad,"D-32, 3rd Floor Sumel Business Park -4 Amdupura, Kalupur, Prem Darwaza, Ahmedabad - 380002, Dist.Ahmedabad, Gujarat",8048604630,
"Blue XXL 50 Cotton Embroidered Feeding Nighties, Half Sleeve",https://www.indiamart.com/proddetail/xxl-50-cotton-embroidered-feeding-nighties-2853608064373.html?pos=23&kwd=maternity sleepwear&tags=||||8614.311||product|||MDC|rsf:gd-|-stype:attr=1|qr_nm:gd|res:RC3|com-cf:nl|ptrs:na|ktp:N0|mc:31795|mtp:S|qry_typ:P|lang:en|wc:2|cs:8840|v=4,Kushi Nighties & Garments,https://www.indiamart.com/kushi-nighties-garments/?pos=23&kwd=maternity sleepwear&tags=||||8614.311||product|||MDC|rsf:gd-|-stype:attr=1|qr_nm:gd|res:RC3|com-cf:nl|ptrs:na|ktp:N0|mc:31795|mtp:S|qry_typ:P|lang:en|wc:2|cs:8840|v=4,False,Padikkattupalli,Tenkasi,"2-11-51, Tenkasi-Madurai Main Road, Elathoor, Shengottai Tk, Padikkattupalli, Tenkasi - 627803, Dist.Tirunelveli, Tamil Nadu",8045165561,
XL Cotton Maternity Gown Nighty,https://www.indiamart.com/proddetail/xl-cotton-maternity-gown-nighty-2853460660991.html?pos=24&kwd=maternity sleepwear&tags=||||8584.299|Price|product|||MDC|rsf:gd-|-stype:attr=1|qr_nm:gd|res:RC3|com-cf:nl|ptrs:na|ktp:N0|mc:31795|mtp:S|qry_typ:P|lang:en|wc:2|cs:8840|v=4,Emma Fashions,https://www.indiamart.com/emma-fashions/?pos=24&kwd=maternity sleepwear&tags=||||8584.299|Price|product|||MDC|rsf:gd-|-stype:attr=1|qr_nm:gd|res:RC3|com-cf:nl|ptrs:na|ktp:N0|mc:31795|mtp:S|qry_typ:P|lang:en|wc:2|cs:8840|v=4,False,,Coimbatore,"2/62, Shanmuga Nagar, Sanganoor Main Road, Rathinapuri, Coimbatore - 641027, Dist.Coimbatore, Tamil Nadu",8047832283,
Maternity Nightgowns,https://www.indiamart.com/proddetail/maternity-nightgowns-2853877906055.html?pos=25&kwd=maternity sleepwear&tags=||||8626.744|Price|product|||MDC|rsf:gd-|-stype:attr=1|qr_nm:gd|res:RC3|com-cf:nl|ptrs:na|ktp:N0|mc:31795|mtp:S|qry_typ:P|lang:en|wc:2|cs:8840|v=4,Elshada Clothing,https://www.indiamart.com/elshada-clothing-tiruppur/?pos=25&kwd=maternity sleepwear&tags=||||8626.744|Price|product|||MDC|rsf:gd-|-stype:attr=1|qr_nm:gd|res:RC3|com-cf:nl|ptrs:na|ktp:N0|mc:31795|mtp:S|qry_typ:P|lang:en|wc:2|cs:8840|v=4,False,Padmavathi Puram,Tiruppur,"105A Ashar Mill Labour Colony, Padmavathipuram, Padmavathi Puram, Tiruppur - 641603, Dist.Coimbatore, Tamil Nadu",7942720305,
"Full Length Printed Front Open Night wear, Blue, Hosiery Cotton",https://www.indiamart.com/proddetail/front-open-night-wear-23322333748.html?pos=26&kwd=maternity sleepwear&tags=||||8210.732|Price|product|||TS|rsf:gd-|-stype:attr=1|qr_nm:gd|res:RC3|com-cf:nl|ptrs:na|ktp:N0|mc:31795|mtp:S|qry_typ:P|lang:en|wc:2|cs:8840|v=4,M.K.Enterprises,https://www.ohlady.in/?pos=26&kwd=maternity sleepwear&tags=||||8210.732|Price|product|||TS|rsf:gd-|-stype:attr=1|qr_nm:gd|res:RC3|com-cf:nl|ptrs:na|ktp:N0|mc:31795|mtp:S|qry_typ:P|lang:en|wc:2|cs:8840|v=4,False,Kandivali West,Vasai,"Gala No-209, 2nd Second Floor, Shri Hari Industrial Estate Bldg No 2, Bilalpada, Vasai East,, Kandivali West, Vasai - 401208, Dist.Thane, Maharashtra",7942565560,
Designer Mart Women's Satin Nightwear Set Of 6 Pcs Nighty Wrap Gown Top Pajama Bra & Thong,https://www.indiamart.com/proddetail/designer-mart-women-s-satin-nightwear-set-of-6-pcs-nighty-wrap-gown-top-pajama-bra-thong-2853776424030.html?pos=27&kwd=maternity sleepwear&tags=||||8626.744|Price|product|||TS|rsf:gd-|-stype:attr=1|qr_nm:gd|res:RC3|com-cf:nl|ptrs:na|ktp:N0|mc:31795|mtp:S|qry_typ:P|lang:en|wc:2|cs:8840|v=4,RVR Garments,https://www.indiamart.com/rvr-garments-tiruppur/?pos=27&kwd=maternity sleepwear&tags=||||8626.744|Price|product|||TS|rsf:gd-|-stype:attr=1|qr_nm:gd|res:RC3|com-cf:nl|ptrs:na|ktp:N0|mc:31795|mtp:S|qry_typ:P|lang:en|wc:2|cs:8840|v=4,False,Weavers Colony,Tiruppur,"4-1/19, Babuji Nagar 3rd Street,Kumarananthapuram, Weavers Colony, Tiruppur - 641602, Dist.Coimbatore, Tamil Nadu",7942962984,
103 GSM Maternity Gown,https://www.indiamart.com/proddetail/103-gsm-maternity-gown-2853960625355.html?pos=28&kwd=maternity sleepwear&tags=||||8230.883|Price|product|||MDC|rsf:gd-|-stype:attr=1|qr_nm:gd|res:RC3|com-cf:nl|ptrs:na|ktp:N0|mc:31795|mtp:S|qry_typ:P|lang:en|wc:2|cs:8840|v=4,Hiren Ashokbhai Tariwala,https://www.indiamart.com/hirenashokbhaitariwala/?pos=28&kwd=maternity sleepwear&tags=||||8230.883|Price|product|||MDC|rsf:gd-|-stype:attr=1|qr_nm:gd|res:RC3|com-cf:nl|ptrs:na|ktp:N0|mc:31795|mtp:S|qry_typ:P|lang:en|wc:2|cs:8840|v=4,False,Katargam,Surat,"504, Luxuriya Trade Hub, Dumas Road, B/S Vastu Luxuriya, Katargam, Surat - 395007, Dist.Surat, Gujarat",8044013393,
"Printed Maternity Nightgowns, Multicolor",https://www.indiamart.com/proddetail/maternity-nightgowns-25690373955.html?pos=29&kwd=maternity sleepwear&tags=||||8228.275|Price|product|||TS|rsf:gd-|-stype:attr=1|qr_nm:gd|res:RC3|com-cf:nl|ptrs:na|ktp:N0|mc:31795|mtp:S|qry_typ:P|lang:en|wc:2|cs:8840|v=4,J.D.Fashion,https://www.indiamart.com/jd-fashion-gujarat/?pos=29&kwd=maternity sleepwear&tags=||||8228.275|Price|product|||TS|rsf:gd-|-stype:attr=1|qr_nm:gd|res:RC3|com-cf:nl|ptrs:na|ktp:N0|mc:31795|mtp:S|qry_typ:P|lang:en|wc:2|cs:8840|v=4,False,Vastral,Ahmedabad,"347,Maheshvari Nagar, Part 1 C.H.S., Rajvi Nagar Odhav, Vastral, Ahmedabad - 382415, Dist.Ahmedabad, Gujarat",8046061235,
Maternity Wear Cotton Anarkali Kurti,https://www.indiamart.com/proddetail/maternity-wear-cotton-anarkali-kurti-2854750572773.html?pos=30&kwd=maternity sleepwear&tags=||||8601.347|Price|product|||MDC|rsf:gd-|-stype:attr=1|qr_nm:gd|res:RC3|com-cf:nl|ptrs:na|ktp:N0|mc:31795|mtp:S|qry_typ:P|lang:en|wc:2|cs:8840|v=4,Ajesh Traders,https://www.indiamart.com/ajesh-tradersjaipur/?pos=30&kwd=maternity sleepwear&tags=||||8601.347|Price|product|||MDC|rsf:gd-|-stype:attr=1|qr_nm:gd|res:RC3|com-cf:nl|ptrs:na|ktp:N0|mc:31795|mtp:S|qry_typ:P|lang:en|wc:2|cs:8840|v=4,False,,Jaipur,"53 Jamdoli Road, Agra Road, Behind Marudhar School, Bharat Vihar B, Jaipur - 302031, Dist.Jaipur, Rajasthan",8044459778,
"Cotton Printed Ladies Maternity Gown, multi",https://www.indiamart.com/proddetail/ladies-maternity-gown-2853100512048.html?pos=31&kwd=maternity sleepwear&tags=||||8601.347|Price|product|||TS|rsf:gd-|-stype:attr=1|qr_nm:gd|res:RC3|com-cf:nl|ptrs:na|ktp:N0|mc:31795|mtp:S|qry_typ:P|lang:en|wc:2|cs:8840|v=4,Kismat Collection,https://www.kismatcollectionjaipur.com/?pos=31&kwd=maternity sleepwear&tags=||||8601.347|Price|product|||TS|rsf:gd-|-stype:attr=1|qr_nm:gd|res:RC3|com-cf:nl|ptrs:na|ktp:N0|mc:31795|mtp:S|qry_typ:P|lang:en|wc:2|cs:8840|v=4,False,Raj Nagar 2,Jaipur,"A-15,,PATEL NAGAR NAMDEV COLONY,SANGANER, JAIPUR, Raj Nagar 2, Jaipur - 302029, Dist.Jaipur, Rajasthan",7942869763,
Womens Maternity Gown,https://www.indiamart.com/proddetail/womens-maternity-gown-2853918493288.html?pos=32&kwd=maternity sleepwear&tags=||||8228.275|Price|product|||TS|rsf:gd-|-stype:attr=1|qr_nm:gd|res:RC3|com-cf:nl|ptrs:na|ktp:N0|mc:31795|mtp:S|qry_typ:P|lang:en|wc:2|cs:8840|v=4,Gitanjali Enterprise,https://www.indiamart.com/gitanjali-enterprise-ahmedabad/?pos=32&kwd=maternity sleepwear&tags=||||8228.275|Price|product|||TS|rsf:gd-|-stype:attr=1|qr_nm:gd|res:RC3|com-cf:nl|ptrs:na|ktp:N0|mc:31795|mtp:S|qry_typ:P|lang:en|wc:2|cs:8840|v=4,False,Isanpur,Ahmedabad,"Near Jognimata Temple, Isanpur Gam, Isanpur, Isanpur, Ahmedabad - 382443, Dist.Ahmedabad, Gujarat",8047640750,
Cotton Printed Ladies Maternity Nightgown,https://www.indiamart.com/proddetail/ladies-maternity-nightgown-2851840374730.html?pos=33&kwd=maternity sleepwear&tags=||||8717.056|Price|product|||TS|rsf:gd-|-stype:attr=1|qr_nm:gd|res:RC3|com-cf:nl|ptrs:na|ktp:N0|mc:31795|mtp:S|qry_typ:P|lang:en|wc:2|cs:8840|v=4,SKT Textile Service India Private Limited,https://www.textilemanufacturersintamilnadu.com/?pos=33&kwd=maternity sleepwear&tags=||||8717.056|Price|product|||TS|rsf:gd-|-stype:attr=1|qr_nm:gd|res:RC3|com-cf:nl|ptrs:na|ktp:N0|mc:31795|mtp:S|qry_typ:P|lang:en|wc:2|cs:8840|v=4,False,Vellalagundam,Salem,"RST Number 3/288, 343 South Land, Vellalagundam, Salem - 636111, Dist.Salem, Tamil Nadu",8047631524,
Ladies Maternity Gown,https://www.indiamart.com/proddetail/ladies-maternity-gown-2851535273988.html?pos=34&kwd=maternity sleepwear&tags=||||8601.347|Price|product|||TS|rsf:gd-|-stype:attr=1|qr_nm:gd|res:RC3|com-cf:nl|ptrs:na|ktp:N0|mc:31795|mtp:S|qry_typ:P|lang:en|wc:2|cs:8840|v=4,Hkf Jaipur Industries Private Limited,https://www.hkfjaipurindustries.com/?pos=34&kwd=maternity sleepwear&tags=||||8601.347|Price|product|||TS|rsf:gd-|-stype:attr=1|qr_nm:gd|res:RC3|com-cf:nl|ptrs:na|ktp:N0|mc:31795|mtp:S|qry_typ:P|lang:en|wc:2|cs:8840|v=4,False,Sanganer Shri Rampura,Jaipur,"PLOT NO. 72, 1ST FLOOR, GOPI NAGAR, RAILWAY STATION ROAD,, Sanganer Shri Rampura, Jaipur - 302029, Dist.Jaipur, Rajasthan",8047674124,
"Hosiery Printed Ladies Maternity Nightgown, Red",https://www.indiamart.com/proddetail/ladies-maternity-nightgown-21541037648.html?pos=35&kwd=maternity sleepwear&tags=||||8228.275|Price|product|||TS|rsf:gd-|-stype:attr=1|qr_nm:gd|res:RC3|com-cf:nl|ptrs:na|ktp:N0|mc:31795|mtp:S|qry_typ:P|lang:en|wc:2|cs:8840|v=4,Ramdev Fabrics,https://www.indiamart.com/ramdevfabrics-ahmedabad/?pos=35&kwd=maternity sleepwear&tags=||||8228.275|Price|product|||TS|rsf:gd-|-stype:attr=1|qr_nm:gd|res:RC3|com-cf:nl|ptrs:na|ktp:N0|mc:31795|mtp:S|qry_typ:P|lang:en|wc:2|cs:8840|v=4,False,Odhav,Ahmedabad,"19, Krishna Chambers, Vihal Park Part 2, Opposite Maheshwari Nagar, Odhav, Ahmedabad - 382415, Dist.Ahmedabad, Gujarat",8047639305,
Printed Rayon Ladies Maternity Night Gown,https://www.indiamart.com/proddetail/rayon-ladies-maternity-night-gown-2849146585948.html?pos=36&kwd=maternity sleepwear&tags=||||8228.275|Price|product|||TS|rsf:gd-|-stype:attr=1|qr_nm:gd|res:RC3|com-cf:nl|ptrs:na|ktp:N0|mc:31795|mtp:S|qry_typ:P|lang:en|wc:2|cs:8840|v=4,Simran Nightwear,https://www.indiamart.com/jai-adeshwar-textile/?pos=36&kwd=maternity sleepwear&tags=||||8228.275|Price|product|||TS|rsf:gd-|-stype:attr=1|qr_nm:gd|res:RC3|com-cf:nl|ptrs:na|ktp:N0|mc:31795|mtp:S|qry_typ:P|lang:en|wc:2|cs:8840|v=4,False,,Ahmedabad,"43/1/A/1, Bohra House Navneet Prakashan Building, Nr Uttam Dairy Sukhramnagar Rakhial, Ahmedabad - 380021, Dist.Ahmedabad, Gujarat",8047632003,
Maternity Feeding Night Dresses,https://www.indiamart.com/proddetail/maternity-feeding-night-dresses-25192432248.html?pos=37&kwd=maternity sleepwear&tags=||||8230.883|Price|product|||TS|rsf:gd-|-stype:attr=1|qr_nm:gd|res:RC3|com-cf:nl|ptrs:na|ktp:N0|mc:31795|mtp:S|qry_typ:P|lang:en|wc:2|cs:8840|v=4,Fashion Hub,https://www.indiamart.com/fashionhub-gujarat/?pos=37&kwd=maternity sleepwear&tags=||||8230.883|Price|product|||TS|rsf:gd-|-stype:attr=1|qr_nm:gd|res:RC3|com-cf:nl|ptrs:na|ktp:N0|mc:31795|mtp:S|qry_typ:P|lang:en|wc:2|cs:8840|v=4,False,Mota Varachha,Surat,"E-104,,Shrinidhi Residency,,Nr. Sudama Chowk,,Mota Varachha,, Mota Varachha, Surat - 394101, Dist.Surat, Gujarat",8048956108,
"Women's Cotton Printed Maternity Gown, Purple",https://www.indiamart.com/proddetail/women-s-cotton-printed-maternity-gown-2852876368791.html?pos=38&kwd=maternity sleepwear&tags=||||8601.347|Price|product|||TS|rsf:gd-|-stype:attr=1|qr_nm:gd|res:RC3|com-cf:nl|ptrs:na|ktp:N0|mc:31795|mtp:S|qry_typ:P|lang:en|wc:2|cs:8840|v=4,Jaanya Creations,https://www.flyfinns.com/?pos=38&kwd=maternity sleepwear&tags=||||8601.347|Price|product|||TS|rsf:gd-|-stype:attr=1|qr_nm:gd|res:RC3|com-cf:nl|ptrs:na|ktp:N0|mc:31795|mtp:S|qry_typ:P|lang:en|wc:2|cs:8840|v=4,False,Sanganer Station,Jaipur,"405, Dajy Manglam Ananda, Neear Sanganer Station, Sanganer Station, Jaipur - 302029, Dist.Jaipur, Rajasthan",7942789055,
"Maternity Gown, Sleeves: Half",https://www.indiamart.com/proddetail/maternity-gown-2849566485530.html?pos=39&kwd=maternity sleepwear&tags=||||9110.092|Price|product|||TS|rsf:gd-|-stype:attr=1|qr_nm:gd|res:RC3|com-cf:nl|ptrs:na|ktp:N0|mc:31795|mtp:S|qry_typ:P|lang:en|wc:2|cs:8840|v=4,Nirman Enterprises,https://www.indiamart.com/nirman-enterprises-lucknow/?pos=39&kwd=maternity sleepwear&tags=||||9110.092|Price|product|||TS|rsf:gd-|-stype:attr=1|qr_nm:gd|res:RC3|com-cf:nl|ptrs:na|ktp:N0|mc:31795|mtp:S|qry_typ:P|lang:en|wc:2|cs:8840|v=4,False,Kanausi,Lucknow,"548gh/171, Teji Khera, Manak Nagar, Rjpm1, Kanausi, Lucknow - 226017, Dist.Lucknow, Uttar Pradesh",8048974867,
"Rayon Printed Ladies Maternity Gown, Peach",https://www.indiamart.com/proddetail/ladies-maternity-gown-2853899031430.html?pos=40&kwd=maternity sleepwear&tags=||||8601.347|Price|product|||MDC|rsf:gd-|-stype:attr=1|qr_nm:gd|res:RC3|com-cf:nl|ptrs:na|ktp:N0|mc:31795|mtp:S|qry_typ:P|lang:en|wc:2|cs:8840|v=4,Akhil Enterprises,https://www.indiamart.com/akhilenterprises-jaipurrajasthan/?pos=40&kwd=maternity sleepwear&tags=||||8601.347|Price|product|||MDC|rsf:gd-|-stype:attr=1|qr_nm:gd|res:RC3|com-cf:nl|ptrs:na|ktp:N0|mc:31795|mtp:S|qry_typ:P|lang:en|wc:2|cs:8840|v=4,False,Jay Colony,Jaipur,"228 A Gali No. 3, Rajapark, Jay Colony, Jaipur - 302004, Dist.Jaipur, Rajasthan",8044012954,
"Stitched Maternity Uniforms, Machine wash",https://www.indiamart.com/proddetail/maternity-maxi-dress-2853965613912.html?pos=41&kwd=maternity sleepwear&tags=||||8741.812|Price|product|||TS|rsf:gd-|-stype:attr=1|qr_nm:gd|res:RC3|com-cf:nl|ptrs:na|ktp:N0|mc:31795|mtp:S|qry_typ:P|lang:en|wc:2|cs:8840|v=4,Apothecaries Sundries Mfg. Private Limited,https://www.ascoindia.com/?pos=41&kwd=maternity sleepwear&tags=||||8741.812|Price|product|||TS|rsf:gd-|-stype:attr=1|qr_nm:gd|res:RC3|com-cf:nl|ptrs:na|ktp:N0|mc:31795|mtp:S|qry_typ:P|lang:en|wc:2|cs:8840|v=4,True,Sector 18,Gurugram,"Plot No. 229, Udyog Vihar, Phase-IV, Sector 18, Gurugram - 122015, Dist.Gurgaon, Haryana",8048968234,
Ladies Printed Maternity Nightgown,https://www.indiamart.com/proddetail/ladies-printed-maternity-nightgown-2854049044648.html?pos=42&kwd=maternity sleepwear&tags=||||8242.731|Price|product|||MDC|rsf:gd-|-stype:attr=1|qr_nm:gd|res:RC3|com-cf:nl|ptrs:na|ktp:N0|mc:31795|mtp:S|qry_typ:P|lang:en|wc:2|cs:8840|v=4,Honey Gown,https://www.indiamart.com/honey-gown-ulhasnagar/?pos=42&kwd=maternity sleepwear&tags=||||8242.731|Price|product|||MDC|rsf:gd-|-stype:attr=1|qr_nm:gd|res:RC3|com-cf:nl|ptrs:na|ktp:N0|mc:31795|mtp:S|qry_typ:P|lang:en|wc:2|cs:8840|v=4,False,Kailash Colony,Ulhasnagar,"Near Shani Mandir On Plot, Section-40, Opp BK No. 1912, MM Traders Kalyan, Kailash Colony, Ulhasnagar - 421005, Dist.Thane, Maharashtra",8044010085,
Cotton Solid Ladies Hospital Maternity Gown,https://www.indiamart.com/proddetail/ladies-hospital-maternity-gown-2854486882955.html?pos=43&kwd=maternity sleepwear&tags=||||8663.873|Price|product|||MDC|rsf:gd-|-stype:attr=1|qr_nm:gd|res:RC3|com-cf:nl|ptrs:na|ktp:N0|mc:31795|mtp:S|qry_typ:P|lang:en|wc:2|cs:8840|v=4,A.F.I.Uniforms,https://www.indiamart.com/afi-uniforms/?pos=43&kwd=maternity sleepwear&tags=||||8663.873|Price|product|||MDC|rsf:gd-|-stype:attr=1|qr_nm:gd|res:RC3|com-cf:nl|ptrs:na|ktp:N0|mc:31795|mtp:S|qry_typ:P|lang:en|wc:2|cs:8840|v=4,False,Bengaluru Urban,Bengaluru,"No 764/1, 3rd Cross 3rd Main , Prakash Nagar, Bengaluru Urban, Bengaluru - 560021, Dist.Bengaluru, Karnataka",7949336530,
Rayon Printed Women Maternity Feeding Nighty,https://www.indiamart.com/proddetail/women-maternity-feeding-nighty-2855073501912.html?pos=44&kwd=maternity sleepwear&tags=||||8228.275|Price|product|||TS|rsf:gd-|-stype:attr=1|qr_nm:gd|res:RC3|com-cf:nl|ptrs:na|ktp:N0|mc:31795|mtp:S|qry_typ:P|lang:en|wc:2|cs:8840|v=4,Kundan Night Wear,https://www.indiamart.com/kundan-night-wear/?pos=44&kwd=maternity sleepwear&tags=||||8228.275|Price|product|||TS|rsf:gd-|-stype:attr=1|qr_nm:gd|res:RC3|com-cf:nl|ptrs:na|ktp:N0|mc:31795|mtp:S|qry_typ:P|lang:en|wc:2|cs:8840|v=4,False,Kalupur,Ahmedabad,"1st Floor, 469/11, B.G Chembers, Sakar Bazar, Kalupur, Ahmedabad - 380002, Dist.Ahmedabad, Gujarat",7949225829,
"Printed Ladies Cotton Maternity Nightgown, Dark Blue (Base)",https://www.indiamart.com/proddetail/ladies-cotton-maternity-nightgown-2850658902133.html?pos=45&kwd=maternity sleepwear&tags=||||8601.347|Price|product|||TS|rsf:gd-|-stype:attr=1|qr_nm:gd|res:RC3|com-cf:nl|ptrs:na|ktp:N0|mc:31795|mtp:S|qry_typ:P|lang:en|wc:2|cs:8840|v=4,Aanadhya Fashion,https://www.indiamart.com/aanadhya-fashion-jaipur/?pos=45&kwd=maternity sleepwear&tags=||||8601.347|Price|product|||TS|rsf:gd-|-stype:attr=1|qr_nm:gd|res:RC3|com-cf:nl|ptrs:na|ktp:N0|mc:31795|mtp:S|qry_typ:P|lang:en|wc:2|cs:8840|v=4,False,Shikarpura,Jaipur,"14, Govind Nagar, Goolar Ka Bandha, Shikarpura Road, Sanganer, Shikarpura, Jaipur - 302029, Dist.Jaipur, Rajasthan",7942958103,
CUSTOMIZED MATERNITY DRESS,https://www.indiamart.com/proddetail/customized-maternity-dress-2853397053597.html?pos=46&kwd=maternity sleepwear&tags=||||8752.144|Price|product|||MDC|rsf:gd-|-stype:attr=1|qr_nm:gd|res:RC3|com-cf:nl|ptrs:na|ktp:N0|mc:31795|mtp:S|qry_typ:P|lang:en|wc:2|cs:8840|v=4,Young Exports,https://www.indiamart.com/young-export/?pos=46&kwd=maternity sleepwear&tags=||||8752.144|Price|product|||MDC|rsf:gd-|-stype:attr=1|qr_nm:gd|res:RC3|com-cf:nl|ptrs:na|ktp:N0|mc:31795|mtp:S|qry_typ:P|lang:en|wc:2|cs:8840|v=4,False,Mehrauli,New Delhi,"Kh No-1667, ward No-2, Garhwal Colony, Mehrauli,, Mehrauli, New Delhi - 110030, Dist.Delhi, Delhi",8046070639,
3/4 Sleeve Women Rayon Black Maternity Night Gown,https://www.indiamart.com/proddetail/women-rayon-black-maternity-night-gown-2854693751691.html?pos=47&kwd=maternity sleepwear&tags=||||8601.347|Price|product|||MDC|rsf:gd-|-stype:attr=1|qr_nm:gd|res:RC3|com-cf:nl|ptrs:na|ktp:N0|mc:31795|mtp:S|qry_typ:P|lang:en|wc:2|cs:8840|v=4,V R Fashions,https://www.indiamart.com/vrfashions-jaipur/?pos=47&kwd=maternity sleepwear&tags=||||8601.347|Price|product|||MDC|rsf:gd-|-stype:attr=1|qr_nm:gd|res:RC3|com-cf:nl|ptrs:na|ktp:N0|mc:31795|mtp:S|qry_typ:P|lang:en|wc:2|cs:8840|v=4,False,,Jaipur,"Ground Floor 10, Thana Circle, Khokhawas, Mahaveer Nagar, Near Sanganer Thana, Sanganer, Jaipur - 302029, Dist.Jaipur, Rajasthan",7949322594,
"Ladies Pure Cotton Printed Maternity Nightgowns, Blue(Base)",https://www.indiamart.com/proddetail/ladies-pure-cotton-printed-maternity-nightgowns-2854047965691.html?pos=48&kwd=maternity sleepwear&tags=||||8601.347|Price|product|||TS|rsf:gd-|-stype:attr=1|qr_nm:gd|res:RC3|com-cf:nl|ptrs:na|ktp:N0|mc:31795|mtp:S|qry_typ:P|lang:en|wc:2|cs:8840|v=4,Rushi Creation,https://www.indiamart.com/rushicreationjaipur/?pos=48&kwd=maternity sleepwear&tags=||||8601.347|Price|product|||TS|rsf:gd-|-stype:attr=1|qr_nm:gd|res:RC3|com-cf:nl|ptrs:na|ktp:N0|mc:31795|mtp:S|qry_typ:P|lang:en|wc:2|cs:8840|v=4,False,Sanganer,Jaipur,"Showroom No.G-24,Ground Floor,Fagna Plaza,Nagar Nigam Road,Jaipur, Sanganer, Jaipur - 302029, Dist.Jaipur, Rajasthan",8044562714,
"Printed Cotton Maternity Ladies Nightgown, Multicolour",https://www.indiamart.com/proddetail/cotton-maternity-ladies-nightgown-19828419912.html?pos=49&kwd=maternity sleepwear&tags=||||8788.159|Price|product|||MDC|rsf:gd-|-stype:attr=1|qr_nm:gd|res:RC3|com-cf:nl|ptrs:na|ktp:N0|mc:31795|mtp:S|qry_typ:P|lang:en|wc:2|cs:8840|v=4,AR Fashions,https://www.indiamart.com/arfashions-secunderabad/?pos=49&kwd=maternity sleepwear&tags=||||8788.159|Price|product|||MDC|rsf:gd-|-stype:attr=1|qr_nm:gd|res:RC3|com-cf:nl|ptrs:na|ktp:N0|mc:31795|mtp:S|qry_typ:P|lang:en|wc:2|cs:8840|v=4,False,Hasmathpet,Secunderabad,"9-3-30/2B, Hasmathpet, Old Bowenpally, Hyderabad,, Hasmathpet, Secunderabad - 500009, Dist.Hyderabad, Telangana",8044015247,
Printed Ladies Orange Rayon Maternity Gown,https://www.indiamart.com/proddetail/ladies-orange-rayon-maternity-gown-2854128929430.html?pos=50&kwd=maternity sleepwear&tags=||||8601.347|Price|product|||MDC|rsf:gd-|-stype:attr=1|qr_nm:gd|res:RC3|com-cf:nl|ptrs:na|ktp:N0|mc:31795|mtp:S|qry_typ:P|lang:en|wc:2|cs:8840|v=4,Saanvi Collection,https://www.indiamart.com/saanvi-collection-jaipur/?pos=50&kwd=maternity sleepwear&tags=||||8601.347|Price|product|||MDC|rsf:gd-|-stype:attr=1|qr_nm:gd|res:RC3|com-cf:nl|ptrs:na|ktp:N0|mc:31795|mtp:S|qry_typ:P|lang:en|wc:2|cs:8840|v=4,False,Raj Nagar 2,Jaipur,"75/310, RHB Pratap Nagar ,Sanganer,, Raj Nagar 2, Jaipur - 302029, Dist.Jaipur, Rajasthan",8045733365,
"Cotton Ladies Printed Maternity Nightgown, Red",https://www.indiamart.com/proddetail/ladies-printed-maternity-nightgown-2854159710797.html?pos=51&kwd=maternity sleepwear&tags=||||8230.883|Price|product|||MDC|rsf:gd-|-stype:attr=1|qr_nm:gd|res:RC3|com-cf:nl|ptrs:na|ktp:N0|mc:31795|mtp:S|qry_typ:P|lang:en|wc:2|cs:8840|v=4,M R Attires,https://www.indiamart.com/m-r-attires/?pos=51&kwd=maternity sleepwear&tags=||||8230.883|Price|product|||MDC|rsf:gd-|-stype:attr=1|qr_nm:gd|res:RC3|com-cf:nl|ptrs:na|ktp:N0|mc:31795|mtp:S|qry_typ:P|lang:en|wc:2|cs:8840|v=4,False,,Surat,"4th, 408, Creation Plaza 2, Puna Bombay Market Road, Vaishali Vada Pav, Punagam,, Surat - 395010, Dist.Surat, Gujarat",8045732087,
"Women''s Stylish Satin Nightwears, Size: Free",https://www.indiamart.com/proddetail/women-s-stylish-satin-nightwears-24337686255.html?pos=52&kwd=maternity sleepwear&tags=||||8752.144|Price|product|||TS|rsf:gd-|-stype:attr=1|qr_nm:gd|res:RC3|com-cf:nl|ptrs:na|ktp:N0|mc:31795|mtp:S|qry_typ:P|lang:en|wc:2|cs:8840|v=4,Seema Impex,https://www.indiamart.com/seemaimpexdelhi/?pos=52&kwd=maternity sleepwear&tags=||||8752.144|Price|product|||TS|rsf:gd-|-stype:attr=1|qr_nm:gd|res:RC3|com-cf:nl|ptrs:na|ktp:N0|mc:31795|mtp:S|qry_typ:P|lang:en|wc:2|cs:8840|v=4,False,Gandhi Nagar,New Delhi,"3291, Street 3 Raghubar Pura 2 Gandhi nagar ,delhi, Gandhi Nagar, New Delhi - 110031, Dist.Delhi, Delhi",7942555794,
"Three fourth sleeve Maternity Feeding Kurti, Size: L",https://www.indiamart.com/proddetail/ladies-grey-maternity-feeding-gown-2852706585455.html?pos=53&kwd=maternity sleepwear&tags=||||8601.347|Price|product|||MDC|rsf:gd-|-stype:attr=1|qr_nm:gd|res:RC3|com-cf:nl|ptrs:na|ktp:N0|mc:31795|mtp:S|qry_typ:P|lang:en|wc:2|cs:8840|v=4,Dazzle Hub,https://www.indiamart.com/dazzlehub/?pos=53&kwd=maternity sleepwear&tags=||||8601.347|Price|product|||MDC|rsf:gd-|-stype:attr=1|qr_nm:gd|res:RC3|com-cf:nl|ptrs:na|ktp:N0|mc:31795|mtp:S|qry_typ:P|lang:en|wc:2|cs:8840|v=4,False,Pratap Nagar,Jaipur,"Basement Floor, 86/SP-89, Kumbha Marg, Pratap Nagar, Sanganer, Pratap Nagar, Jaipur - 302033, Dist.Jaipur, Rajasthan",8048611932,
Cotton Feeding Nighties,https://www.indiamart.com/proddetail/cotton-feeding-nighties-27574241497.html?pos=54&kwd=maternity sleepwear&tags=||||8211.142||product|||TS|rsf:gd-|-stype:attr=1|qr_nm:gd|res:RC3|com-cf:nl|ptrs:na|ktp:N0|mc:31795|mtp:S|qry_typ:P|lang:en|wc:2|cs:8840|v=4,Kiran Sons,https://www.indiamart.com/kiransons/?pos=54&kwd=maternity sleepwear&tags=||||8211.142||product|||TS|rsf:gd-|-stype:attr=1|qr_nm:gd|res:RC3|com-cf:nl|ptrs:na|ktp:N0|mc:31795|mtp:S|qry_typ:P|lang:en|wc:2|cs:8840|v=4,False,Kalbadevi,Mumbai,"C/O. J.K. Brothers, 25, Vithalwadi, Kalbadevi, Mumbai - 400002, Dist.Mumbai, Maharashtra",8047645351,
Cotton Ladies Feeding Nighty,https://www.indiamart.com/proddetail/ladies-feeding-nighty-22408935188.html?pos=55&kwd=maternity sleepwear&tags=||||8954.051|Price|product|||TS|rsf:gd-|-stype:attr=1|qr_nm:gd|res:RC3|com-cf:nl|ptrs:na|ktp:N0|mc:31795|mtp:S|qry_typ:P|lang:en|wc:2|cs:8840|v=4,Sai Collection,https://www.indiamart.com/saicollection-chennai/?pos=55&kwd=maternity sleepwear&tags=||||8954.051|Price|product|||TS|rsf:gd-|-stype:attr=1|qr_nm:gd|res:RC3|com-cf:nl|ptrs:na|ktp:N0|mc:31795|mtp:S|qry_typ:P|lang:en|wc:2|cs:8840|v=4,False,T Nagar,Chennai,"1st Floor,no 78/79 Shop- 2,pondy Bazzar,fathima Plaza,t Nagar, T Nagar, Chennai - 600017, Dist.Chennai, Tamil Nadu",8046039974,
Ladies Light Green Printed Cotton Maternity Dress,https://www.indiamart.com/proddetail/ladies-light-green-printed-cotton-maternity-dress-2852987593288.html?pos=56&kwd=maternity sleepwear&tags=||||8601.347|Price|product|||MDC|rsf:gd-|-stype:attr=1|qr_nm:gd|res:RC3|com-cf:nl|ptrs:na|ktp:N0|mc:31795|mtp:S|qry_typ:P|lang:en|wc:2|cs:8840|v=4,Z Creation,https://www.indiamart.com/z-creation-rajasthan/?pos=56&kwd=maternity sleepwear&tags=||||8601.347|Price|product|||MDC|rsf:gd-|-stype:attr=1|qr_nm:gd|res:RC3|com-cf:nl|ptrs:na|ktp:N0|mc:31795|mtp:S|qry_typ:P|lang:en|wc:2|cs:8840|v=4,False,sanganer,Jaipur,"Plot No F16 Shop No F-09 & 10 Sidhi Vinayak Plaza, Chordiya Petrol Pump Sanganer, sanganer, Jaipur - 302029, Dist.Jaipur, Rajasthan",7942962509,
"Blue Printed Maternity Cotton Nightgown, Half Sleeve, Size: XL",https://www.indiamart.com/proddetail/maternity-cotton-nightgown-2849622354188.html?pos=57&kwd=maternity sleepwear&tags=||||8211.142|Price|product|||MDC|rsf:gd-|-stype:attr=1|qr_nm:gd|res:RC3|com-cf:nl|ptrs:na|ktp:N0|mc:31795|mtp:S|qry_typ:P|lang:en|wc:2|cs:8840|v=4,Sarvodaya,https://www.indiamart.com/sarvodayamumbai/?pos=57&kwd=maternity sleepwear&tags=||||8211.142|Price|product|||MDC|rsf:gd-|-stype:attr=1|qr_nm:gd|res:RC3|com-cf:nl|ptrs:na|ktp:N0|mc:31795|mtp:S|qry_typ:P|lang:en|wc:2|cs:8840|v=4,False,Kandivali West,Mumbai,"305, Shree Nikunj Bldg. No. 2, Off. S. V. Road, Mumbai Suburban, Kandivali West, Mumbai - 400067, Dist.Mumbai, Maharashtra",7942793851,
"Georgette Solid Ladies Maternity Gown, Sky Blue",https://www.indiamart.com/proddetail/ladies-maternity-gown-2853654965933.html?pos=58&kwd=maternity sleepwear&tags=||||8601.347|Price|product|||MDC|rsf:gd-|-stype:attr=1|qr_nm:gd|res:RC3|com-cf:nl|ptrs:na|ktp:N0|mc:31795|mtp:S|qry_typ:P|lang:en|wc:2|cs:8840|v=4,Hkfebexport,https://www.indiamart.com/hkfebexport/?pos=58&kwd=maternity sleepwear&tags=||||8601.347|Price|product|||MDC|rsf:gd-|-stype:attr=1|qr_nm:gd|res:RC3|com-cf:nl|ptrs:na|ktp:N0|mc:31795|mtp:S|qry_typ:P|lang:en|wc:2|cs:8840|v=4,False,Mansarovar,Jaipur,"Plot No. 10,Sumer Nagar-II, Mansarovar, Mansarovar, Jaipur - 302020, Dist.Jaipur, Rajasthan",8045168541,
Ladies Cotton Maternity Gown,https://www.indiamart.com/proddetail/ladies-cotton-maternity-gown-2849079787255.html?pos=59&kwd=maternity sleepwear&tags=||||8601.347|Price|product|||MDC|rsf:gd-|-stype:attr=1|qr_nm:gd|res:RC3|com-cf:nl|ptrs:na|ktp:N0|mc:31795|mtp:S|qry_typ:P|lang:en|wc:2|cs:8840|v=4,Nihaan Impex,https://www.indiamart.com/nihaanimpex-jaipur/?pos=59&kwd=maternity sleepwear&tags=||||8601.347|Price|product|||MDC|rsf:gd-|-stype:attr=1|qr_nm:gd|res:RC3|com-cf:nl|ptrs:na|ktp:N0|mc:31795|mtp:S|qry_typ:P|lang:en|wc:2|cs:8840|v=4,False,Pratap Nagar,Jaipur,"28, Raghunath Puri, Khokha Bass, Sanganer, Pratap Nagar, Jaipur - 302011, Dist.Jaipur, Rajasthan",8047551915,
Cotton Solid Ladies Pink Maternity Nightgown,https://www.indiamart.com/proddetail/ladies-pink-maternity-nightgown-2853305606273.html?pos=60&kwd=maternity sleepwear&tags=||||8228.275|Price|product|||MDC|rsf:gd-|-stype:attr=1|qr_nm:gd|res:RC3|com-cf:nl|ptrs:na|ktp:N0|mc:31795|mtp:S|qry_typ:P|lang:en|wc:2|cs:8840|v=4,Mayur Lifestyle,https://www.indiamart.com/mayur-lifestyle-gujarat/?pos=60&kwd=maternity sleepwear&tags=||||8228.275|Price|product|||MDC|rsf:gd-|-stype:attr=1|qr_nm:gd|res:RC3|com-cf:nl|ptrs:na|ktp:N0|mc:31795|mtp:S|qry_typ:P|lang:en|wc:2|cs:8840|v=4,False,Saraspur,Ahmedabad,"First Floor, Block F-1, Sumel 10, Saraspur Road, Saraspur, Ahmedabad - 380018, Dist.Ahmedabad, Gujarat",7942966913,
"Printed Ladies Pink Rayon Maternity Feeding Gown, Three fourth sleeve",https://www.indiamart.com/proddetail/ladies-pink-rayon-maternity-feeding-gown-19070024012.html?pos=61&kwd=maternity sleepwear&tags=||||8601.347|Price|product|||MDC|rsf:gd-|-stype:attr=1|qr_nm:gd|res:RC3|com-cf:nl|ptrs:na|ktp:N0|mc:31795|mtp:S|qry_typ:P|lang:en|wc:2|cs:8840|v=4,Shivam Enterprises,https://www.indiamart.com/shivamenterprisesrampur/?pos=61&kwd=maternity sleepwear&tags=||||8601.347|Price|product|||MDC|rsf:gd-|-stype:attr=1|qr_nm:gd|res:RC3|com-cf:nl|ptrs:na|ktp:N0|mc:31795|mtp:S|qry_typ:P|lang:en|wc:2|cs:8840|v=4,False,Mansarovar,Jaipur,"Polt No 1 ,Pratap Vihar ,Rampura Road ,Sanganer, Mansarovar, Jaipur - 302029, Dist.Jaipur, Rajasthan",7949226911,
Ladies Cotton Maternity Nightgowns,https://www.indiamart.com/proddetail/ladies-cotton-maternity-nightgowns-2854957214097.html?pos=62&kwd=maternity sleepwear&tags=||||8230.883|Price|product|||MDC|rsf:gd-|-stype:attr=1|qr_nm:gd|res:RC3|com-cf:nl|ptrs:na|ktp:N0|mc:31795|mtp:S|qry_typ:P|lang:en|wc:2|cs:8840|v=4,Navkar Creation,https://www.indiamart.com/navkar-creationsurat/?pos=62&kwd=maternity sleepwear&tags=||||8230.883|Price|product|||MDC|rsf:gd-|-stype:attr=1|qr_nm:gd|res:RC3|com-cf:nl|ptrs:na|ktp:N0|mc:31795|mtp:S|qry_typ:P|lang:en|wc:2|cs:8840|v=4,False,,Surat,"4, 4011, Silk City Textile Market, Ring Road, Umarwada, Surat - 395002, Dist.Surat, Gujarat",8044014293,
Ladies Printed Maternity Kurti Rayon,https://www.indiamart.com/proddetail/ladies-printed-maternity-kurti-rayon-2852867681048.html?pos=63&kwd=maternity sleepwear&tags=||||8601.347|Price|product|||MDC|rsf:gd-|-stype:attr=1|qr_nm:gd|res:RC3|com-cf:nl|ptrs:na|ktp:N0|mc:31795|mtp:S|qry_typ:P|lang:en|wc:2|cs:8840|v=4,Silak Fashion Hub,https://www.indiamart.com/silak-fashion-hub/?pos=63&kwd=maternity sleepwear&tags=||||8601.347|Price|product|||MDC|rsf:gd-|-stype:attr=1|qr_nm:gd|res:RC3|com-cf:nl|ptrs:na|ktp:N0|mc:31795|mtp:S|qry_typ:P|lang:en|wc:2|cs:8840|v=4,False,Kundan Nagar,Jaipur,"64/361, Sector 6, RHB Pratap Nagar, Sanganer,, Kundan Nagar, Jaipur - 302033, Dist.Jaipur, Rajasthan",7942720255,
"LUCKY HANDICRAFT Cotton Feeding Maternity Gown, Size: FREE",https://www.indiamart.com/proddetail/feeding-maternity-gown-2849551766997.html?pos=64&kwd=maternity sleepwear&tags=||||8601.347|Price|product|||TS|rsf:gd-|-stype:attr=1|qr_nm:gd|res:RC3|com-cf:nl|ptrs:na|ktp:N0|mc:31795|mtp:S|qry_typ:P|lang:en|wc:2|cs:8840|v=4,Lucky Handicraft,https://www.luckyhandicraft.in/?pos=64&kwd=maternity sleepwear&tags=||||8601.347|Price|product|||TS|rsf:gd-|-stype:attr=1|qr_nm:gd|res:RC3|com-cf:nl|ptrs:na|ktp:N0|mc:31795|mtp:S|qry_typ:P|lang:en|wc:2|cs:8840|v=4,False,Govind Nagar,Jaipur,"190, Govind Nagar East, Amer Road, Govind Nagar, Jaipur - 302002, Dist.Jaipur, Rajasthan",8046067577,
Full Length Cotton Feeding Nighty,https://www.indiamart.com/proddetail/cotton-feeding-nighty-21714070455.html?pos=65&kwd=maternity sleepwear&tags=||||8601.347|Price|product|||TS|rsf:gd-|-stype:attr=1|qr_nm:gd|res:RC3|com-cf:nl|ptrs:na|ktp:N0|mc:31795|mtp:S|qry_typ:P|lang:en|wc:2|cs:8840|v=4,Rajlok Enterprises,https://www.indiamart.com/rajlok-enterprises/?pos=65&kwd=maternity sleepwear&tags=||||8601.347|Price|product|||TS|rsf:gd-|-stype:attr=1|qr_nm:gd|res:RC3|com-cf:nl|ptrs:na|ktp:N0|mc:31795|mtp:S|qry_typ:P|lang:en|wc:2|cs:8840|v=4,False,Kapoorawala,Jaipur,"Shop No. 23, Shiv Bazar, Near Sparsh Hospital New Sanganer Road, Kapoorawala, Jaipur - 302029, Dist.Jaipur, Rajasthan",7942548592,
"Rayon Printed feeding Nighty, Half Sleeve",https://www.indiamart.com/proddetail/rayon-printed-feeding-nighty-2850456292348.html?pos=66&kwd=maternity sleepwear&tags=||||8228.275|Price|product|||TS|rsf:gd-|-stype:attr=1|qr_nm:gd|res:RC3|com-cf:nl|ptrs:na|ktp:N0|mc:31795|mtp:S|qry_typ:P|lang:en|wc:2|cs:8840|v=4,Shree Nakoda Bhairav Fab Tex,https://www.indiamart.com/shree-nakoda-bhairav-fabtex/?pos=66&kwd=maternity sleepwear&tags=||||8228.275|Price|product|||TS|rsf:gd-|-stype:attr=1|qr_nm:gd|res:RC3|com-cf:nl|ptrs:na|ktp:N0|mc:31795|mtp:S|qry_typ:P|lang:en|wc:2|cs:8840|v=4,False,Jahangirpura,Ahmedabad,"2nd Floor, E-213/ A, Prem Darwaja Road, Near Idgah Circle, City Center, Jahangirpura, Ahmedabad - 380016, Dist.Ahmedabad, Gujarat",8047306382,
Cotton Ladies Feeding Nighty,https://www.indiamart.com/proddetail/ladies-feeding-nighty-2853497433948.html?pos=67&kwd=maternity sleepwear&tags=||||8235.633|Price|product|||TS|rsf:gd-|-stype:attr=1|qr_nm:gd|res:RC3|com-cf:nl|ptrs:na|ktp:N0|mc:31795|mtp:S|qry_typ:P|lang:en|wc:2|cs:8840|v=4,Padmawati Trade Link,https://www.indiamart.com/padmawati-tradelink/?pos=67&kwd=maternity sleepwear&tags=||||8235.633|Price|product|||TS|rsf:gd-|-stype:attr=1|qr_nm:gd|res:RC3|com-cf:nl|ptrs:na|ktp:N0|mc:31795|mtp:S|qry_typ:P|lang:en|wc:2|cs:8840|v=4,False,Tapra,Balotra,"Sindhiyon Ka Wass, Ward No.7 Nayapura , Barmer, Tapra, Balotra - 344022, Dist.Barmer, Rajasthan",8048269332,
"Green Printed Cotton Feeding Nighties Gown, Full Sleeve",https://www.indiamart.com/proddetail/cotton-feeding-nighties-gown-2853636714055.html?pos=68&kwd=maternity sleepwear&tags=||||9148.645|Price|product|||MDC|rsf:gd-|-stype:attr=1|qr_nm:gd|res:RC3|com-cf:nl|ptrs:na|ktp:N0|mc:31795|mtp:S|qry_typ:P|lang:en|wc:2|cs:8840|v=4,Sri Jaya Enterprises,https://www.indiamart.com/sri-jayaenterprises/?pos=68&kwd=maternity sleepwear&tags=||||9148.645|Price|product|||MDC|rsf:gd-|-stype:attr=1|qr_nm:gd|res:RC3|com-cf:nl|ptrs:na|ktp:N0|mc:31795|mtp:S|qry_typ:P|lang:en|wc:2|cs:8840|v=4,False,Machara,Mandapeta,"31-1-27/1, Ward No 13, Alamuru Road, Mandapeta, East Godavari, Machara, Mandapeta - 533308, Dist.East Godavari, Andhra Pradesh",7949093426,
"Green (Base) Printed Saloni Dull Cotton Mother Feeding Nightgown, Half Sleeve",https://www.indiamart.com/proddetail/saloni-dull-cotton-mother-feeding-nightgown-2850476955473.html?pos=69&kwd=maternity sleepwear&tags=||||8786.56|Price|product|||MDC|rsf:gd-|-stype:attr=1|qr_nm:gd|res:RC3|com-cf:nl|ptrs:na|ktp:N0|mc:31795|mtp:S|qry_typ:P|lang:en|wc:2|cs:8840|v=4,Saloni Textile,https://www.indiamart.com/saloni-textiles/?pos=69&kwd=maternity sleepwear&tags=||||8786.56|Price|product|||MDC|rsf:gd-|-stype:attr=1|qr_nm:gd|res:RC3|com-cf:nl|ptrs:na|ktp:N0|mc:31795|mtp:S|qry_typ:P|lang:en|wc:2|cs:8840|v=4,False,Rasoolpura,Hyderabad,"24, Margadarshini Colony , Rasool Pura, Rasoolpura, Hyderabad - 500003, Dist.Hyderabad, Telangana",7942823938,
Clara maroon 2pcs butterfly,https://www.indiamart.com/proddetail/clara-maroon-2pcs-butterfly-2854359133533.html?pos=70&kwd=maternity sleepwear&tags=||||8307.81|Price|product|||MDC|rsf:gd-|-stype:attr=1|qr_nm:gd|res:RC3|com-cf:nl|ptrs:na|ktp:N0|mc:31795|mtp:S|qry_typ:P|lang:en|wc:2|cs:8840|v=4,Nayan Collection,https://www.indiamart.com/nayan-collection-maharashtra/?pos=70&kwd=maternity sleepwear&tags=||||8307.81|Price|product|||MDC|rsf:gd-|-stype:attr=1|qr_nm:gd|res:RC3|com-cf:nl|ptrs:na|ktp:N0|mc:31795|mtp:S|qry_typ:P|lang:en|wc:2|cs:8840|v=4,False,Wadgaon Sheri,Pune,"Ground Floor , S NO. 12/1A, Adarsh Nagar, Kalyani Nagar Road , OPP. ST. Arnolds Central School Wadgaon Sheri, Wadgaon Sheri, Pune - 411014, Dist.Pune, Maharashtra",7942704607,
Women Wine One Piece Jacket Set,https://www.indiamart.com/proddetail/women-wine-one-piece-jacket-set-2852689392973.html?pos=71&kwd=maternity sleepwear&tags=||||8601.347|Price|product|||MDC|rsf:gd-|-stype:attr=1|qr_nm:gd|res:RC3|com-cf:nl|ptrs:na|ktp:N0|mc:31795|mtp:S|qry_typ:P|lang:en|wc:2|cs:8840|v=4,Sheffali,https://www.indiamart.com/sheffali/?pos=71&kwd=maternity sleepwear&tags=||||8601.347|Price|product|||MDC|rsf:gd-|-stype:attr=1|qr_nm:gd|res:RC3|com-cf:nl|ptrs:na|ktp:N0|mc:31795|mtp:S|qry_typ:P|lang:en|wc:2|cs:8840|v=4,False,Ajmer Road,Jaipur,"C-61, Opp. Kabra Eye Hospital, Jamna Nagar, Sodala, Ajmer Road, Jaipur - 302006, Dist.Jaipur, Rajasthan",7942720926,
"Embroidered Satin Embroidery Nighties, Black",https://www.indiamart.com/proddetail/embroidery-nighties-2849034511662.html?pos=72&kwd=maternity sleepwear&tags=||||8228.275|Price|product|||MDC|rsf:gd-|-stype:attr=1|qr_nm:gd|res:RC3|com-cf:nl|ptrs:na|ktp:N0|mc:31795|mtp:S|qry_typ:P|lang:en|wc:2|cs:8840|v=4,Dev Creation,https://www.indiamart.com/devcreation-ahmedabad-gujarat/?pos=72&kwd=maternity sleepwear&tags=||||8228.275|Price|product|||MDC|rsf:gd-|-stype:attr=1|qr_nm:gd|res:RC3|com-cf:nl|ptrs:na|ktp:N0|mc:31795|mtp:S|qry_typ:P|lang:en|wc:2|cs:8840|v=4,False,Saraspur,Ahmedabad,"A-232, Sumel Business Park-4, New Gujarat Synthetic Mill Compound, Opp Amdupura Saraspur, Saraspur, Ahmedabad - 380018, Dist.Ahmedabad, Gujarat",8043892750,
"Printed Women's Shirt and Short Set Nightdress Set Sleepwear Relex Night Wear, Cotton",https://www.indiamart.com/proddetail/women-s-shirt-and-short-set-nightdress-set-sleepwear-relex-night-wear-25554379933.html?pos=73&kwd=maternity sleepwear&tags=||||8601.347|Price|product|||TS|rsf:gd-|-stype:attr=1|qr_nm:gd|res:RC3|com-cf:nl|ptrs:na|ktp:N0|mc:31795|mtp:S|qry_typ:P|lang:en|wc:2|cs:8840|v=4,Gopali Arts,https://www.gopaliarts.in/?pos=73&kwd=maternity sleepwear&tags=||||8601.347|Price|product|||TS|rsf:gd-|-stype:attr=1|qr_nm:gd|res:RC3|com-cf:nl|ptrs:na|ktp:N0|mc:31795|mtp:S|qry_typ:P|lang:en|wc:2|cs:8840|v=4,False,G1-652 Sitapura Phase-1,Jaipur,"G1-652, Sitapura Phase-1, G1-652 Sitapura Phase-1, Jaipur - 302022, Dist.Jaipur, Rajasthan",8048264082,
Girls Cotton Printed Sleepwear Nightwear,https://www.indiamart.com/proddetail/girls-sleepwear-nightwear-2003466755.html?pos=74&kwd=maternity sleepwear&tags=||||8211.142|Price|product|||TS|rsf:gd-|-stype:attr=1|qr_nm:gd|res:RC3|com-cf:nl|ptrs:na|ktp:N0|mc:31795|mtp:S|qry_typ:P|lang:en|wc:2|cs:8840|v=4,Paras Dyeing And Printing Mills,https://www.tulsicotton.com/?pos=74&kwd=maternity sleepwear&tags=||||8211.142|Price|product|||TS|rsf:gd-|-stype:attr=1|qr_nm:gd|res:RC3|com-cf:nl|ptrs:na|ktp:N0|mc:31795|mtp:S|qry_typ:P|lang:en|wc:2|cs:8840|v=4,True,Lower Parel,Mumbai,"No. 240, Kewal Industrial Estate, S. B. Marg, Lower Parel, Mumbai - 400013, Dist.Mumbai, Maharashtra",8048989910,
Maternity Nightgowns,,SR Clothing,https://www.indiamart.com/sr-clothing-tamilnadu/?pos=75&kwd=maternity sleepwear&tags=||||8626.744|Price|product|||MDC|rsf:gd-|-stype:attr=1|qr_nm:gd|res:RC3|com-cf:nl|ptrs:na|ktp:N0|mc:31795|mtp:S|qry_typ:P|lang:en|wc:2|cs:8840|v=4,False,Samalapuram,Tiruppur,"5/177-F1,,Jeeva Nagar 7th Street,Samalapuram, Samalapuram, Tiruppur - 641663, Dist.Coimbatore, Tamil Nadu",7949095886,
"Cotton Night Suit Pocket, T-Shirt",https://www.indiamart.com/proddetail/night-suit-pocket-24171518862.html?pos=76&kwd=maternity sleepwear&tags=||||8228.275|Price|product|||MDC|rsf:gd-|-stype:attr=1|qr_nm:gd|res:RC3|com-cf:nl|ptrs:na|ktp:N0|mc:31795|mtp:S|qry_typ:P|lang:en|wc:2|cs:8840|v=4,Karan Fab,https://www.indiamart.com/hellopartner/?pos=76&kwd=maternity sleepwear&tags=||||8228.275|Price|product|||MDC|rsf:gd-|-stype:attr=1|qr_nm:gd|res:RC3|com-cf:nl|ptrs:na|ktp:N0|mc:31795|mtp:S|qry_typ:P|lang:en|wc:2|cs:8840|v=4,False,Panchkuva,Ahmedabad,"SHOP NO.468/3,SAKAR BAZAR,Opp maskati market GATE NO.3,NR.KOTAK MAHINDRA BANK,, Panchkuva, Ahmedabad - 380002, Dist.Ahmedabad, Gujarat",8048605993,
Women Sexy Long Design Spring Summer Sleeveless V Neck Evening Party Nightwear Dress,https://www.indiamart.com/proddetail/women-sexy-long-design-spring-summer-sleeveless-v-neck-evening-party-nightwear-dress-2853167433691.html?pos=77&kwd=maternity sleepwear&tags=||||8601.347|Price|product|||TS|rsf:gd-|-stype:attr=1|qr_nm:gd|res:RC3|com-cf:nl|ptrs:na|ktp:N0|mc:31795|mtp:S|qry_typ:P|lang:en|wc:2|cs:8840|v=4,Satnam Handicrafts,https://www.indiamart.com/satnamhandicrafts/?pos=77&kwd=maternity sleepwear&tags=||||8601.347|Price|product|||TS|rsf:gd-|-stype:attr=1|qr_nm:gd|res:RC3|com-cf:nl|ptrs:na|ktp:N0|mc:31795|mtp:S|qry_typ:P|lang:en|wc:2|cs:8840|v=4,True,Govind Nagar,Jaipur,"98-B, PPark Street, Govind Nagar West, Amer Road, Tripoliya Bazar, Govind Nagar, Jaipur - 302002, Dist.Jaipur, Rajasthan",7942821000,
"Embroidered Georgette Ladies Night Dress, Half Sleeve",https://www.indiamart.com/proddetail/ladies-night-dress-2851789009397.html?pos=78&kwd=maternity sleepwear&tags=||||8954.051|Price|product|||TS|rsf:gd-|-stype:attr=1|qr_nm:gd|res:RC3|com-cf:nl|ptrs:na|ktp:N0|mc:31795|mtp:S|qry_typ:P|lang:en|wc:2|cs:8840|v=4,Cu Clothes Unlimited,https://www.cuclothesunlimited.com/?pos=78&kwd=maternity sleepwear&tags=||||8954.051|Price|product|||TS|rsf:gd-|-stype:attr=1|qr_nm:gd|res:RC3|com-cf:nl|ptrs:na|ktp:N0|mc:31795|mtp:S|qry_typ:P|lang:en|wc:2|cs:8840|v=4,False,Koyambedu,Chennai,"No. 25/26, Adam Street, Annamal Nagar Nerkundrum, Virugambakam, Koyambedu, Chennai - 600107, Dist.Chennai, Tamil Nadu",8048978899,
"Cotton Nighty, Blue",https://www.indiamart.com/proddetail/cotton-nighty-26056206773.html?pos=79&kwd=maternity sleepwear&tags=||||9839.57|Price|product|||TS|rsf:gd-|-stype:attr=1|qr_nm:gd|res:RC3|com-cf:nl|ptrs:na|ktp:N0|mc:31795|mtp:S|qry_typ:P|lang:en|wc:2|cs:8840|v=4,Ridhi Creation,https://www.indiamart.com/ridhicreation-kolkata/?pos=79&kwd=maternity sleepwear&tags=||||9839.57|Price|product|||TS|rsf:gd-|-stype:attr=1|qr_nm:gd|res:RC3|com-cf:nl|ptrs:na|ktp:N0|mc:31795|mtp:S|qry_typ:P|lang:en|wc:2|cs:8840|v=4,False,Dum Dum,Kolkata,"9,5th, Sambhu Mullick Lane, Dum Dum, Kolkata - 700007, Dist.Kolkata, West Bengal",8043851450,
Fancy Plain Satin Premium Dhoom Slip penty,https://www.indiamart.com/proddetail/satin-premium-dhoom-slip-penty-2850688674830.html?pos=80&kwd=maternity sleepwear&tags=||||8228.275|Price|product|||TS|rsf:gd-|-stype:attr=1|qr_nm:gd|res:RC3|com-cf:nl|ptrs:na|ktp:N0|mc:31795|mtp:S|qry_typ:P|lang:en|wc:2|cs:8840|v=4,Mahadev Textile,https://www.indiamart.com/mahadevtextile-ahmedabad/?pos=80&kwd=maternity sleepwear&tags=||||8228.275|Price|product|||TS|rsf:gd-|-stype:attr=1|qr_nm:gd|res:RC3|com-cf:nl|ptrs:na|ktp:N0|mc:31795|mtp:S|qry_typ:P|lang:en|wc:2|cs:8840|v=4,False,Saraspur,Ahmedabad,"B-344, 3rd Floor, Sumel Business Park-4, Amdupura, Saraspur, Ahmedabad - 380025, Dist.Ahmedabad, Gujarat",8047665839,
"White Printed Ladies Cotton Nighty, Half Sleeve",https://www.indiamart.com/proddetail/printed-ladies-cotton-nighty-2853555497333.html?pos=81&kwd=maternity sleepwear&tags=||||8342.223|Price|product|||MDC|rsf:gd-|-stype:attr=1|qr_nm:gd|res:RC3|com-cf:nl|ptrs:na|ktp:N0|mc:31795|mtp:S|qry_typ:P|lang:en|wc:2|cs:8840|v=4,Tanesh Cotton Mills,https://www.indiamart.com/taneshcottonmills/?pos=81&kwd=maternity sleepwear&tags=||||8342.223|Price|product|||MDC|rsf:gd-|-stype:attr=1|qr_nm:gd|res:RC3|com-cf:nl|ptrs:na|ktp:N0|mc:31795|mtp:S|qry_typ:P|lang:en|wc:2|cs:8840|v=4,False,Pancham Nagar,Pali,"5, Jay Nagar, Pancham Nagar, Pali - 306401, Rajasthan",8047801226,
Printed Silk Valentine Night wear,https://www.indiamart.com/proddetail/valentine-night-wear-24290343733.html?pos=82&kwd=maternity sleepwear&tags=||||8741.987|Price|product|||MDC|rsf:gd-|-stype:attr=1|qr_nm:gd|res:RC3|com-cf:nl|ptrs:na|ktp:N0|mc:31795|mtp:S|qry_typ:P|lang:en|wc:2|cs:8840|v=4,Step By Step Marketing,https://www.indiamart.com/stepbystepmarketing/?pos=82&kwd=maternity sleepwear&tags=||||8741.987|Price|product|||MDC|rsf:gd-|-stype:attr=1|qr_nm:gd|res:RC3|com-cf:nl|ptrs:na|ktp:N0|mc:31795|mtp:S|qry_typ:P|lang:en|wc:2|cs:8840|v=4,False,Mohra,Ambala,"10Thkm Mohra Mohra, Mohra, Ambala - 133001, Dist.Ambala, Haryana",8048264519,
100%Cotton Night Dress nightwear set,https://www.indiamart.com/proddetail/nightwear-set-21800903088.html?pos=83&kwd=maternity sleepwear&tags=||||8601.347|Price|product|||MDC|rsf:gd-|-stype:attr=1|qr_nm:gd|res:RC3|com-cf:nl|ptrs:na|ktp:N0|mc:31795|mtp:S|qry_typ:P|lang:en|wc:2|cs:8840|v=4,B.R. ENTERPRISES,https://www.indiamart.com/brenterprises-india/?pos=83&kwd=maternity sleepwear&tags=||||8601.347|Price|product|||MDC|rsf:gd-|-stype:attr=1|qr_nm:gd|res:RC3|com-cf:nl|ptrs:na|ktp:N0|mc:31795|mtp:S|qry_typ:P|lang:en|wc:2|cs:8840|v=4,False,Govind Nagar,Jaipur,"29-C, Govind Nagar West, Manu Marg Amber Road, Govind Nagar, Jaipur - 302002, Dist.Jaipur, Rajasthan",8046041534,
Printed Ladies Hosiery Kurti Pyjama Nightwear,https://www.indiamart.com/proddetail/ladies-hosiery-kurti-pyjama-nightwear-2854640160597.html?pos=84&kwd=maternity sleepwear&tags=||||8211.142|Price|proxy|||TS|rsf:gd-|-stype:attr=1|qr_nm:gd|res:RC3|com-cf:nl|ptrs:na|ktp:N0|mc:31795|mtp:S|qry_typ:P|lang:en|wc:2|cs:8840|v=4,Siddhi Vinayaka Industries,https://www.premiumloungewears.com/?pos=84&kwd=maternity sleepwear&tags=||||8211.142|Price|proxy|||TS|rsf:gd-|-stype:attr=1|qr_nm:gd|res:RC3|com-cf:nl|ptrs:na|ktp:N0|mc:31795|mtp:S|qry_typ:P|lang:en|wc:2|cs:8840|v=4,True,Borivali East,Mumbai,"Gala No. 2, Vrijyani Bhawan, Main Carter Road Kavita Building Compound, Borivali East, Mumbai - 400066, Dist.Mumbai, Maharashtra",8048984520,
"Printed Maternity Nightwear, Pink",https://www.indiamart.com/proddetail/maternity-nightwear-15981157873.html?pos=85&kwd=maternity sleepwear&tags=CB||||8503.868||product|||NA|rsf:gd-|-stype:attr=1|qr_nm:gd|res:RC3|com-cf:nl|ptrs:na|ktp:N0|mc:31795|mtp:S|qry_typ:P|lang:en|wc:2|cs:8840|v=4,Ziva Maternity Wear,https://www.indiamart.com/jewish-apprels-accessories/?pos=85&kwd=maternity sleepwear&tags=CB||||8503.868||product|||NA|rsf:gd-|-stype:attr=1|qr_nm:gd|res:RC3|com-cf:nl|ptrs:na|ktp:N0|mc:31795|mtp:S|qry_typ:P|lang:en|wc:2|cs:8840|v=4,False,Vyttila,Kochi,"Door No. 32/324A, Ladlee Towers, Vailllopily, Vyttila, Kochi - 682032, Dist.Ernakulam, Kerala",8048247125,3086
"Multicolor Cotton Readymade Nightgown, Half Sleeve",https://www.indiamart.com/proddetail/readymade-nightgown-2853520730597.html?pos=86&kwd=maternity sleepwear&tags=||||8235.633|Price|proxy|||TS|rsf:gd-|-stype:attr=1|qr_nm:gd|res:RC3|com-cf:nl|ptrs:na|ktp:N0|mc:31795|mtp:S|qry_typ:P|lang:en|wc:2|cs:8840|v=4,Heer Dyeing Mills,https://www.indiamart.com/heer-dyeing-mills/?pos=86&kwd=maternity sleepwear&tags=||||8235.633|Price|proxy|||TS|rsf:gd-|-stype:attr=1|qr_nm:gd|res:RC3|com-cf:nl|ptrs:na|ktp:N0|mc:31795|mtp:S|qry_typ:P|lang:en|wc:2|cs:8840|v=4,False,Kitnod,Balotra,"H-158, Industrial Area, Barmer,, Kitnod, Balotra - 344022, Dist.Barmer, Rajasthan",8043857789,
Mybody Maternity Wears,,Mybody Apparels,https://www.indiamart.com/mybody-apparels/?pos=87&kwd=maternity sleepwear&tags=CC||||8211.142|Price|product|||NA|rsf:gd-|-stype:attr=1|qr_nm:gd|res:RC3|com-cf:nl|ptrs:na|ktp:N0|mc:31795|mtp:S|qry_typ:P|lang:en|wc:2|cs:8840|v=4,False,Santacruz,Mumbai,"1/5, Old Anand Nagar, Nehru Road, Santacruz East, Santacruz, Mumbai - 400055, Dist.Mumbai, Maharashtra",8048372729,678
"Multicolor Cotton Kids Night Suit, Age Group: 8-10 Years",https://www.indiamart.com/proddetail/cotton-kids-night-suit-22932101512.html?pos=88&kwd=maternity sleepwear&tags=||||8228.275|Price|proxy|||TS|rsf:gd-|-stype:attr=1|qr_nm:gd|res:RC3|com-cf:nl|ptrs:na|ktp:N0|mc:31795|mtp:S|qry_typ:P|lang:en|wc:2|cs:8840|v=4,Janta Clothing Co.,https://www.indiamart.com/jantaclothingcompany/?pos=88&kwd=maternity sleepwear&tags=||||8228.275|Price|proxy|||TS|rsf:gd-|-stype:attr=1|qr_nm:gd|res:RC3|com-cf:nl|ptrs:na|ktp:N0|mc:31795|mtp:S|qry_typ:P|lang:en|wc:2|cs:8840|v=4,False,M D Marg,Ahmedabad,"Plot No. C 192, 2nd Floor, Behind Safal 2, M D Marg, Ahmedabad - 380022, Dist.Ahmedabad, Gujarat",8046044672,
Yellow Cotton Designer Ladies Nightgown,https://www.indiamart.com/proddetail/designer-ladies-nightgown-2855061843488.html?pos=89&kwd=maternity sleepwear&tags=||||8230.883|Price|proxy|||TS|rsf:gd-|-stype:attr=1|qr_nm:gd|res:RC3|com-cf:nl|ptrs:na|ktp:N0|mc:31795|mtp:S|qry_typ:P|lang:en|wc:2|cs:8840|v=4,Apollo Enterprise,https://www.apollofashion.in/?pos=89&kwd=maternity sleepwear&tags=||||8230.883|Price|proxy|||TS|rsf:gd-|-stype:attr=1|qr_nm:gd|res:RC3|com-cf:nl|ptrs:na|ktp:N0|mc:31795|mtp:S|qry_typ:P|lang:en|wc:2|cs:8840|v=4,False,Ashok Colony,Surat,"70, Kalidas Co. OP Housing Society Ltd, Near Trikam Nagar, L.H. Road, Varachha, Ashok Colony, Surat - 395006, Dist.Surat, Gujarat",7942708822,
Maternity Nightwear,https://www.indiamart.com/proddetail/maternity-nightwear-2848949541212.html?pos=90&kwd=maternity sleepwear&tags=CC||||8777.204|Price|product|||NA|rsf:gd-|-stype:attr=1|qr_nm:gd|res:RC3|com-cf:nl|ptrs:na|ktp:N0|mc:31795|mtp:S|qry_typ:P|lang:en|wc:2|cs:8840|v=4,Vara Lakshmi Nightieswear,https://www.indiamart.com/vara-lakshmi-nightieswear/?pos=90&kwd=maternity sleepwear&tags=CC||||8777.204|Price|product|||NA|rsf:gd-|-stype:attr=1|qr_nm:gd|res:RC3|com-cf:nl|ptrs:na|ktp:N0|mc:31795|mtp:S|qry_typ:P|lang:en|wc:2|cs:8840|v=4,False,,Proddatur,"10/130,,Proddatur,Ysr K K Street, Proddatur - 516360, Dist.Cuddapah, Andhra Pradesh",8069013898,399
"Cotton Printed Maternity Kaftan, Orange",https://www.indiamart.com/proddetail/printed-maternity-kaftan-24821877912.html?pos=91&kwd=maternity sleepwear&tags=CC||||8601.347|Price|product|||NA|rsf:gd-|-stype:attr=1|qr_nm:gd|res:RC3|com-cf:nl|ptrs:na|ktp:N0|mc:31795|mtp:S|qry_typ:P|lang:en|wc:2|cs:8840|v=4,Joypur Fashions,https://www.indiamart.com/joypur-fashion/?pos=91&kwd=maternity sleepwear&tags=CC||||8601.347|Price|product|||NA|rsf:gd-|-stype:attr=1|qr_nm:gd|res:RC3|com-cf:nl|ptrs:na|ktp:N0|mc:31795|mtp:S|qry_typ:P|lang:en|wc:2|cs:8840|v=4,False,Mansarovar,Jaipur,"A10, First Floor, Bhaskar Enclave 2, Patrakar Colony, Mansarovar, Jaipur - 302020, Dist.Jaipur, Rajasthan",8048261478,
Peach Cotton Printed Maternity Night Suit,https://www.indiamart.com/proddetail/peach-cotton-printed-maternity-night-suit-2853037510288.html?pos=92&kwd=maternity sleepwear&tags=CC||||8210.732|Price|product|||NA|rsf:gd-|-stype:attr=1|qr_nm:gd|res:RC3|com-cf:nl|ptrs:na|ktp:N0|mc:31795|mtp:S|qry_typ:P|lang:en|wc:2|cs:8840|v=4,Rathod Industries,https://www.indiamart.com/rathodindustries-mumbai/?pos=92&kwd=maternity sleepwear&tags=CC||||8210.732|Price|product|||NA|rsf:gd-|-stype:attr=1|qr_nm:gd|res:RC3|com-cf:nl|ptrs:na|ktp:N0|mc:31795|mtp:S|qry_typ:P|lang:en|wc:2|cs:8840|v=4,False,,Vasai,"Third Floor Gala No. 307,Rajprabha Industrial Premises -3,Gokhivare ,Near Toyota Car Showroom, Vasai - 401208, Dist.Thane, Maharashtra",8047786825,
Solid Cotton Black Lounge Maternity Nightwear,https://www.indiamart.com/proddetail/black-lounge-maternity-nightwear-12662583991.html?pos=93&kwd=maternity sleepwear&tags=CC||||8752.144|Price|product|||NA|rsf:gd-|-stype:attr=1|qr_nm:gd|res:RC3|com-cf:nl|ptrs:na|ktp:N0|mc:31795|mtp:S|qry_typ:P|lang:en|wc:2|cs:8840|v=4,Fresh Venturz LLP,https://www.indiamart.com/freshventurz/?pos=93&kwd=maternity sleepwear&tags=CC||||8752.144|Price|product|||NA|rsf:gd-|-stype:attr=1|qr_nm:gd|res:RC3|com-cf:nl|ptrs:na|ktp:N0|mc:31795|mtp:S|qry_typ:P|lang:en|wc:2|cs:8840|v=4,False,Mehrauli,New Delhi,"6/844, Main Bazar, Mehrauli, Mehrauli, New Delhi - 110030, Dist.Delhi, Delhi",8062245048,941
"Printed Ladies Silk Night Dress, Half Sleeve",https://www.indiamart.com/proddetail/ladies-silk-night-dress-2854525382630.html?pos=94&kwd=maternity sleepwear&tags=||||8987.303|Price|proxy|||MDC|rsf:gd-|-stype:attr=1|qr_nm:gd|res:RC3|com-cf:nl|ptrs:na|ktp:N0|mc:31795|mtp:S|qry_typ:P|lang:en|wc:2|cs:8840|v=4,Tej Trends,https://www.indiamart.com/tej-trends-guntur/?pos=94&kwd=maternity sleepwear&tags=||||8987.303|Price|proxy|||MDC|rsf:gd-|-stype:attr=1|qr_nm:gd|res:RC3|com-cf:nl|ptrs:na|ktp:N0|mc:31795|mtp:S|qry_typ:P|lang:en|wc:2|cs:8840|v=4,False,,Guntur,"7-6-351/33C, Rajeev Gandhi Nagar, Guntur - 522002, Dist.Guntur, Andhra Pradesh",8044458699,
Maternity Night Wear,https://www.indiamart.com/proddetail/maternity-night-wear-26856666597.html?pos=95&kwd=maternity sleepwear&tags=CC||||8876.815|Price|product|||NA|rsf:gd-|-stype:attr=1|qr_nm:gd|res:RC3|com-cf:nl|ptrs:na|ktp:N0|mc:31795|mtp:S|qry_typ:P|lang:en|wc:2|cs:8840|v=4,Dhanshree Gown Collection,https://www.indiamart.com/dhanshreegowncollection/?pos=95&kwd=maternity sleepwear&tags=CC||||8876.815|Price|product|||NA|rsf:gd-|-stype:attr=1|qr_nm:gd|res:RC3|com-cf:nl|ptrs:na|ktp:N0|mc:31795|mtp:S|qry_typ:P|lang:en|wc:2|cs:8840|v=4,False,Gandhibagh,Nagpur,"Soot Market, Soot And Resham Bazar, Gandhibagh, Nagpur - 440002, Dist.Nagpur, Maharashtra",7942551076,
Red Pure Cotton Maternity And Feeding Night Suit,https://www.indiamart.com/proddetail/red-pure-cotton-maternity-and-feeding-night-suit-2855006457491.html?pos=96&kwd=maternity sleepwear&tags=CC||||8663.873|Price|product|||NA|rsf:gd-|-stype:attr=1|qr_nm:gd|res:RC3|com-cf:nl|ptrs:na|ktp:N0|mc:31795|mtp:S|qry_typ:P|lang:en|wc:2|cs:8840|v=4,Moms Ever,https://www.indiamart.com/moms-ever/?pos=96&kwd=maternity sleepwear&tags=CC||||8663.873|Price|product|||NA|rsf:gd-|-stype:attr=1|qr_nm:gd|res:RC3|com-cf:nl|ptrs:na|ktp:N0|mc:31795|mtp:S|qry_typ:P|lang:en|wc:2|cs:8840|v=4,False,,Bengaluru,"T1b 703, Candeur Carlisle, Itpl Main Road, Mahadevpura T1B 703 Candeur Carlisle,, Bengaluru - 560048, Dist.Bengaluru, Karnataka",,
"Black Printed Ganpati Pure Cotton Nighty, Half Sleeve",https://www.indiamart.com/proddetail/ganpati-pure-cotton-nighty-2852934868433.html?pos=97&kwd=maternity sleepwear&tags=||||8012.407|Price|proxy|||TS|rsf:gd-|-stype:attr=1|qr_nm:gd|res:RC3|com-cf:nl|ptrs:na|ktp:N0|mc:31795|mtp:S|qry_typ:P|lang:en|wc:2|cs:8840|v=4,Utsav Lifestyle,https://www.indiamart.com/utsavlifestyle/?pos=97&kwd=maternity sleepwear&tags=||||8012.407|Price|proxy|||TS|rsf:gd-|-stype:attr=1|qr_nm:gd|res:RC3|com-cf:nl|ptrs:na|ktp:N0|mc:31795|mtp:S|qry_typ:P|lang:en|wc:2|cs:8840|v=4,False,Saran Pull,Jetpur,"Nandaniya Ngr, Nr Filter Plant, Bhadar Sama Kanthe, Jetpur,, Saran Pull, Jetpur - 360370, Dist.Rajkot, Gujarat",8046056985,
60 length Embroidery Nighty,https://www.indiamart.com/proddetail/60-length-embroidery-nighty-2854488928133.html?pos=98&kwd=maternity sleepwear&tags=||||8230.883|Price|proxy|||TS|rsf:gd-|-stype:attr=1|qr_nm:gd|res:RC3|com-cf:nl|ptrs:na|ktp:N0|mc:31795|mtp:S|qry_typ:P|lang:en|wc:2|cs:8840|v=4,Shivaay Creation,https://www.shivaaycreation.in/?pos=98&kwd=maternity sleepwear&tags=||||8230.883|Price|proxy|||TS|rsf:gd-|-stype:attr=1|qr_nm:gd|res:RC3|com-cf:nl|ptrs:na|ktp:N0|mc:31795|mtp:S|qry_typ:P|lang:en|wc:2|cs:8840|v=4,False,Nana Varachha,Surat,"Plot No. 29/30/31, Sai Krupa Industrial Society, Udhana Magdalla Road,, Nana Varachha, Surat - 395017, Dist.Surat, Gujarat",7949373135,
"Mix colors Embroidered Pure Cotton Nighty Readymade, Half Sleeve",https://www.indiamart.com/proddetail/pure-cotton-nighty-readymade-2853751756888.html?pos=99&kwd=maternity sleepwear&tags=||||8228.275|Price|proxy|||TS|rsf:gd-|-stype:attr=1|qr_nm:gd|res:RC3|com-cf:nl|ptrs:na|ktp:N0|mc:31795|mtp:S|qry_typ:P|lang:en|wc:2|cs:8840|v=4,Bhansali Trading Company,https://www.indiamart.com/bhansali-tradingcompany/?pos=99&kwd=maternity sleepwear&tags=||||8228.275|Price|proxy|||TS|rsf:gd-|-stype:attr=1|qr_nm:gd|res:RC3|com-cf:nl|ptrs:na|ktp:N0|mc:31795|mtp:S|qry_typ:P|lang:en|wc:2|cs:8840|v=4,False,Revdibazar,Ahmedabad,"34-GF, Dhanlaxmi Market, Revdi Bazar Cross Road, Revdibazar, Ahmedabad - 380002, Dist.Ahmedabad, Gujarat",8046033228,
"Solid Maternity Lingerie & Nightwear For Ladies, Grey",https://www.indiamart.com/proddetail/maternity-lingerie-nightwear-for-ladies-23828261697.html?pos=100&kwd=maternity sleepwear&tags=CC||||8668.838||product|||NA|rsf:gd-|-stype:attr=1|qr_nm:gd|res:RC3|com-cf:nl|ptrs:na|ktp:N0|mc:31795|mtp:S|qry_typ:P|lang:en|wc:2|cs:8840|v=4,Triniity Colour India Private Limited,https://www.indiamart.com/triniity-colour-india-private-limited/?pos=100&kwd=maternity sleepwear&tags=CC||||8668.838||product|||NA|rsf:gd-|-stype:attr=1|qr_nm:gd|res:RC3|com-cf:nl|ptrs:na|ktp:N0|mc:31795|mtp:S|qry_typ:P|lang:en|wc:2|cs:8840|v=4,False,,Erode,"j30, Erode - 638011, Dist.Erode, Tamil Nadu",8048249684,3637
"Printed Girls Nightwear Dresses, Half Sleeve",https://www.indiamart.com/proddetail/girls-nightwear-dresses-2854914305791.html?pos=101&kwd=maternity sleepwear&tags=||||8228.275|Price|proxy|||MDC|rsf:gd-|-stype:attr=1|qr_nm:gd|res:RC3|com-cf:nl|ptrs:na|ktp:N0|mc:31795|mtp:S|qry_typ:P|lang:en|wc:2|cs:8840|v=4,The Wardrobe Farm E-Commerce,https://www.indiamart.com/thewardrobefarm-ecommerce-ahmedabad/?pos=101&kwd=maternity sleepwear&tags=||||8228.275|Price|proxy|||MDC|rsf:gd-|-stype:attr=1|qr_nm:gd|res:RC3|com-cf:nl|ptrs:na|ktp:N0|mc:31795|mtp:S|qry_typ:P|lang:en|wc:2|cs:8840|v=4,False,Hansol,Ahmedabad,"22, Dhupsali Society, Talawadi Sardanagar, Hansol, Ahmedabad - 382475, Dist.Ahmedabad, Gujarat",7949094673,
Cotton Ladies Floral Printed Maternity Nighty,https://www.indiamart.com/proddetail/ladies-floral-printed-maternity-nighty-20758761148.html?pos=102&kwd=maternity sleepwear&tags=CC||||9839.57|Price|product|||NA|rsf:gd-|-stype:attr=1|qr_nm:gd|res:RC3|com-cf:nl|ptrs:na|ktp:N0|mc:31795|mtp:S|qry_typ:P|lang:en|wc:2|cs:8840|v=4,Shree Krishna Creation,https://www.indiamart.com/shree-krishna-creation-kolkata/?pos=102&kwd=maternity sleepwear&tags=CC||||9839.57|Price|product|||NA|rsf:gd-|-stype:attr=1|qr_nm:gd|res:RC3|com-cf:nl|ptrs:na|ktp:N0|mc:31795|mtp:S|qry_typ:P|lang:en|wc:2|cs:8840|v=4,False,,Kolkata,"43, Sir Hariram Goenka Street, 1st Floor, Jorasanko, Kolkata - 700007, Dist.Kolkata, West Bengal",8048372440,974
Full Length Half Sleeve Ladies Pink Satin Nighty,https://www.indiamart.com/proddetail/ladies-pink-satin-nighty-21085155048.html?pos=103&kwd=maternity sleepwear&tags=||||8515.687|Price|proxy|||TS|rsf:gd-|-stype:attr=1|qr_nm:gd|res:RC3|com-cf:nl|ptrs:na|ktp:N0|mc:31795|mtp:S|qry_typ:P|lang:en|wc:2|cs:8840|v=4,Osia Traders,https://www.indiamart.com/osia-life-style/?pos=103&kwd=maternity sleepwear&tags=||||8515.687|Price|proxy|||TS|rsf:gd-|-stype:attr=1|qr_nm:gd|res:RC3|com-cf:nl|ptrs:na|ktp:N0|mc:31795|mtp:S|qry_typ:P|lang:en|wc:2|cs:8840|v=4,False,Mangalwar Peth,Solapur,"C.s.no.2589/a, Mh No.437 Shop No 7 Status Symbol, Chati Galli West Mangalwar Peth, Mangalwar Peth, Solapur - 413002, Dist.Solapur, Maharashtra",8047634583,
"Printed Ladies Dark Blue Cotton Nighty, Half Sleeve",https://www.indiamart.com/proddetail/ladies-dark-blue-cotton-nighty-2850218903773.html?pos=104&kwd=maternity sleepwear&tags=CC||||8230.883|Price|product|||NA|rsf:gd-|-stype:attr=1|qr_nm:gd|res:RC3|com-cf:nl|ptrs:na|ktp:N0|mc:31795|mtp:S|qry_typ:P|lang:en|wc:2|cs:8840|v=4,Pooja Selection,https://www.indiamart.com/pooja-selection-gujarat/?pos=104&kwd=maternity sleepwear&tags=CC||||8230.883|Price|product|||NA|rsf:gd-|-stype:attr=1|qr_nm:gd|res:RC3|com-cf:nl|ptrs:na|ktp:N0|mc:31795|mtp:S|qry_typ:P|lang:en|wc:2|cs:8840|v=4,False,,Surat,"9/1684, 2nd, Panchwati Shopping Centre, Kanpith Bazar Main Road, Surat - 395003, Dist.Surat, Gujarat",7942804112,
Satin Nightwear For Women,https://www.indiamart.com/proddetail/satin-nightwear-for-women-2854350023373.html?pos=105&kwd=maternity sleepwear&tags=CC||||8752.144|Price|product|||NA|rsf:gd-|-stype:attr=1|qr_nm:gd|res:RC3|com-cf:nl|ptrs:na|ktp:N0|mc:31795|mtp:S|qry_typ:P|lang:en|wc:2|cs:8840|v=4,A R Traders,https://www.indiamart.com/a-r-traders-newdelhi/?pos=105&kwd=maternity sleepwear&tags=CC||||8752.144|Price|product|||NA|rsf:gd-|-stype:attr=1|qr_nm:gd|res:RC3|com-cf:nl|ptrs:na|ktp:N0|mc:31795|mtp:S|qry_typ:P|lang:en|wc:2|cs:8840|v=4,False,Wazirpur Industrial Area,New Delhi,"Second Floor, C-8, Shakti Nagar Extn., North West, Wazirpur Industrial Area, New Delhi - 110052, Dist.Delhi, Delhi",8044565624,
Printed Ladies Cotton Nightgown,https://www.indiamart.com/proddetail/ladies-cotton-nightgown-2853952990697.html?pos=106&kwd=maternity sleepwear&tags=||||8601.347|Price|proxy|||MDC|rsf:gd-|-stype:attr=1|qr_nm:gd|res:RC3|com-cf:nl|ptrs:na|ktp:N0|mc:31795|mtp:S|qry_typ:P|lang:en|wc:2|cs:8840|v=4,Libaas Jaipur,https://www.indiamart.com/libaasjaipur/?pos=106&kwd=maternity sleepwear&tags=||||8601.347|Price|proxy|||MDC|rsf:gd-|-stype:attr=1|qr_nm:gd|res:RC3|com-cf:nl|ptrs:na|ktp:N0|mc:31795|mtp:S|qry_typ:P|lang:en|wc:2|cs:8840|v=4,False,Amer,Jaipur,"01, Sameer Nagar B, Ramgarh Road, Amer, Lalwas, Nai Ki Thadi, Amer, Jaipur - 302027, Dist.Jaipur, Rajasthan",7949082648,
"Solid Ladies Satin Nightwear, Size: Free, Maroon",https://www.indiamart.com/proddetail/ladies-satin-nightwear-2853037310291.html?pos=107&kwd=maternity sleepwear&tags=||||8242.731|Price|proxy|||TS|rsf:gd-|-stype:attr=1|qr_nm:gd|res:RC3|com-cf:nl|ptrs:na|ktp:N0|mc:31795|mtp:S|qry_typ:P|lang:en|wc:2|cs:8840|v=4,Amber Traders,https://www.indiamart.com/ambertradersulhasnagar/?pos=107&kwd=maternity sleepwear&tags=||||8242.731|Price|proxy|||TS|rsf:gd-|-stype:attr=1|qr_nm:gd|res:RC3|com-cf:nl|ptrs:na|ktp:N0|mc:31795|mtp:S|qry_typ:P|lang:en|wc:2|cs:8840|v=4,False,Yashwant Colony,Ulhasnagar,"Shop No-2, Bk No-1848, Room No-1, Section-39 Thane, Yashwant Colony, Ulhasnagar - 421005, Dist.Thane, Maharashtra",7942714559,
Cotton Mohini white Daman,https://www.indiamart.com/proddetail/mohini-white-daman-2854681379897.html?pos=108&kwd=maternity sleepwear&tags=||||8235.633|Price|proxy|||TS|rsf:gd-|-stype:attr=1|qr_nm:gd|res:RC3|com-cf:nl|ptrs:na|ktp:N0|mc:31795|mtp:S|qry_typ:P|lang:en|wc:2|cs:8840|v=4,Khushboo Texprint Private Limited,https://www.indiamart.com/khushboo-texprint/?pos=108&kwd=maternity sleepwear&tags=||||8235.633|Price|proxy|||TS|rsf:gd-|-stype:attr=1|qr_nm:gd|res:RC3|com-cf:nl|ptrs:na|ktp:N0|mc:31795|mtp:S|qry_typ:P|lang:en|wc:2|cs:8840|v=4,False,,Balotra,"NEAR PRAGATI STHAL,,BEHIND TRANSPORT NAGAR,Balotra E-243, 3rd Phase Industrial Area,344024,, Balotra - 344024, Dist.Barmer, Rajasthan",8046057789,
"Everyday Ladies Cotton Night Wear, Size: M to 3XL",https://www.indiamart.com/proddetail/ladies-cotton-night-wear-2850426835762.html?pos=109&kwd=maternity sleepwear&tags=||||8752.144|Price|proxy|||TS|rsf:gd-|-stype:attr=1|qr_nm:gd|res:RC3|com-cf:nl|ptrs:na|ktp:N0|mc:31795|mtp:S|qry_typ:P|lang:en|wc:2|cs:8840|v=4,Lugo Synthetics,https://www.indiamart.com/lugosynthetics/?pos=109&kwd=maternity sleepwear&tags=||||8752.144|Price|proxy|||TS|rsf:gd-|-stype:attr=1|qr_nm:gd|res:RC3|com-cf:nl|ptrs:na|ktp:N0|mc:31795|mtp:S|qry_typ:P|lang:en|wc:2|cs:8840|v=4,False,Mahavir Enclave,New Delhi,"Pole No-289 H No-337, Block-F, Mahavir Enclave Palam, Mahavir Enclave, New Delhi - 110045, Dist.Delhi, Delhi",8043859016,
Printed Ladies Rayon White Maternity gowns,https://www.indiamart.com/proddetail/ladies-rayon-white-maternity-gowns-2853631268373.html?pos=110&kwd=maternity sleepwear&tags=||||8206.306|Price|product|||NA|rsf:gd-|-stype:attr=1|qr_nm:gd|res:RC3|com-cf:nl|ptrs:na|ktp:N0|mc:31795|mtp:S|qry_typ:P|lang:en|wc:2|cs:8840|v=4,Mehta Creation,https://www.indiamart.com/mehta-creation-thane/?pos=110&kwd=maternity sleepwear&tags=||||8206.306|Price|product|||NA|rsf:gd-|-stype:attr=1|qr_nm:gd|res:RC3|com-cf:nl|ptrs:na|ktp:N0|mc:31795|mtp:S|qry_typ:P|lang:en|wc:2|cs:8840|v=4,False,Bhayandar West,Bhayander West,"B 5, Amba Smruti, Maharana Pratap Road, Hanuman Mandir, Thane, Bhayandar West, Bhayander West - 401101, Maharashtra",8045166707,
picha Maternity Gown,https://www.indiamart.com/proddetail/picha-maternity-gown-2854784143491.html?pos=111&kwd=maternity sleepwear&tags=||||8601.347|Price|product|||NA|rsf:gd-|-stype:attr=1|qr_nm:gd|res:RC3|com-cf:nl|ptrs:na|ktp:N0|mc:31795|mtp:S|qry_typ:P|lang:en|wc:2|cs:8840|v=4,Garima Fashion,https://www.indiamart.com/garimafashionjaipur/?pos=111&kwd=maternity sleepwear&tags=||||8601.347|Price|product|||NA|rsf:gd-|-stype:attr=1|qr_nm:gd|res:RC3|com-cf:nl|ptrs:na|ktp:N0|mc:31795|mtp:S|qry_typ:P|lang:en|wc:2|cs:8840|v=4,False,,Jaipur,"93, Panchwati Colony, Block E, Kanwar Ka Baag, Sanganer Bazar, Sanganer, Jaipur - 302029, Dist.Jaipur, Rajasthan",8045734075,
Girls Nightwear Dresses,https://www.indiamart.com/proddetail/girls-nightwear-dresses-24620302012.html?pos=112&kwd=maternity sleepwear&tags=||||8788.159|Price|proxy|||TS|rsf:gd-|-stype:attr=1|qr_nm:gd|res:RC3|com-cf:nl|ptrs:na|ktp:N0|mc:31795|mtp:S|qry_typ:P|lang:en|wc:2|cs:8840|v=4,M K Nighties,https://www.indiamart.com/m-k-nighties/?pos=112&kwd=maternity sleepwear&tags=||||8788.159|Price|proxy|||TS|rsf:gd-|-stype:attr=1|qr_nm:gd|res:RC3|com-cf:nl|ptrs:na|ktp:N0|mc:31795|mtp:S|qry_typ:P|lang:en|wc:2|cs:8840|v=4,False,Ramgopalpet,Secunderabad,"2-4-130, 1st Floor, Ramgopalpet, Ramgopalpet, Secunderabad - 500003, Dist.Hyderabad, Telangana",8047640480,
Maternity Nightgowns,https://www.indiamart.com/proddetail/maternity-nightgowns-3912964848.html?pos=113&kwd=maternity sleepwear&tags=||||8626.744||product|||NA|rsf:gd-|-stype:attr=1|qr_nm:gd|res:RC3|com-cf:nl|ptrs:na|ktp:N0|mc:31795|mtp:S|qry_typ:P|lang:en|wc:2|cs:8840|v=4,Uvashree Garments,https://www.indiamart.com/uvashreegarments/?pos=113&kwd=maternity sleepwear&tags=||||8626.744||product|||NA|rsf:gd-|-stype:attr=1|qr_nm:gd|res:RC3|com-cf:nl|ptrs:na|ktp:N0|mc:31795|mtp:S|qry_typ:P|lang:en|wc:2|cs:8840|v=4,False,T. M. Poondi Post,Tiruppur,"No. 3/253 A, Atthupalayam, Pattathu Arasi, Amman Kovil Backside T. M. Poondi Post, T. M. Poondi Post, Tiruppur - 641652, Dist.Coimbatore, Tamil Nadu",8048371961,900
"WHITE Maternity Wear D.NO.1861, Sleeves: Half Sleeves",https://www.indiamart.com/proddetail/maternity-wear-d-no-1861-21486303173.html?pos=114&kwd=maternity sleepwear&tags=||||8211.142||product|||NA|rsf:gd-|-stype:attr=1|qr_nm:gd|res:RC3|com-cf:nl|ptrs:na|ktp:N0|mc:31795|mtp:S|qry_typ:P|lang:en|wc:2|cs:8840|v=4,Chamunda Clothing,https://www.indiamart.com/chamundclothing/?pos=114&kwd=maternity sleepwear&tags=||||8211.142||product|||NA|rsf:gd-|-stype:attr=1|qr_nm:gd|res:RC3|com-cf:nl|ptrs:na|ktp:N0|mc:31795|mtp:S|qry_typ:P|lang:en|wc:2|cs:8840|v=4,False,Bandra East,Mumbai,"Plot No. 73, Haresh Foods, Khervadi,, Bandra East, Mumbai - 400051, Dist.Mumbai, Maharashtra",8048371762,785
Maternity Gowns,https://www.indiamart.com/proddetail/maternity-gowns-4341695088.html?pos=115&kwd=maternity sleepwear&tags=||||8211.142||product|||NA|rsf:gd-|-stype:attr=1|qr_nm:gd|res:RC3|com-cf:nl|ptrs:na|ktp:N0|mc:31795|mtp:S|qry_typ:P|lang:en|wc:2|cs:8840|v=4,Priya Inner Wear,https://www.indiamart.com/priyanightwear/?pos=115&kwd=maternity sleepwear&tags=||||8211.142||product|||NA|rsf:gd-|-stype:attr=1|qr_nm:gd|res:RC3|com-cf:nl|ptrs:na|ktp:N0|mc:31795|mtp:S|qry_typ:P|lang:en|wc:2|cs:8840|v=4,False,Borivali West,Mumbai,"Ground Floor 28 S V Road Jawan Nagar Chsl Borivali W Borivali West, Borivali West, Mumbai - 400092, Dist.Mumbai, Maharashtra",8048371700,956
Maternity Gown,,Apex Hygiene Products,https://www.indiamart.com/apex-hygiene-products-pune/?pos=116&kwd=maternity sleepwear&tags=||||8307.81||product|||NA|rsf:gd-|-stype:attr=1|qr_nm:gd|res:RC3|com-cf:nl|ptrs:na|ktp:N0|mc:31795|mtp:S|qry_typ:P|lang:en|wc:2|cs:8840|v=4,False,,Pune,"Waghere Industrial Estate Cts No 322/3 Ram Mandir Road Pcmc Boat Club Pimprigaon, Pimpri Pune, Pune - 411017, Dist.Pune, Maharashtra",8048249737,6031
Feeding Maternity Gown,https://www.indiamart.com/proddetail/feeding-maternity-gown-2851885698312.html?pos=117&kwd=maternity sleepwear&tags=||||8601.347|Price|product|||NA|rsf:gd-|-stype:attr=1|qr_nm:gd|res:RC3|com-cf:nl|ptrs:na|ktp:N0|mc:31795|mtp:S|qry_typ:P|lang:en|wc:2|cs:8840|v=4,Sadhana Garments,https://www.indiamart.com/sadhanagarments-jaipur/?pos=117&kwd=maternity sleepwear&tags=||||8601.347|Price|product|||NA|rsf:gd-|-stype:attr=1|qr_nm:gd|res:RC3|com-cf:nl|ptrs:na|ktp:N0|mc:31795|mtp:S|qry_typ:P|lang:en|wc:2|cs:8840|v=4,False,Sanganer,Jaipur,"PNO 19,20,21, Vaishno Vihar III Block C, Kokawas, Sanganer, Sanganer, Jaipur - 302029, Dist.Jaipur, Rajasthan",8048616262,
Maternity Gown,https://www.indiamart.com/proddetail/maternity-gown-2850892019297.html?pos=118&kwd=maternity sleepwear&tags=||||8230.883|Price|product|||NA|rsf:gd-|-stype:attr=1|qr_nm:gd|res:RC3|com-cf:nl|ptrs:na|ktp:N0|mc:31795|mtp:S|qry_typ:P|lang:en|wc:2|cs:8840|v=4,Dhara Fashion,https://www.indiamart.com/dharafashionsurat/?pos=118&kwd=maternity sleepwear&tags=||||8230.883|Price|product|||NA|rsf:gd-|-stype:attr=1|qr_nm:gd|res:RC3|com-cf:nl|ptrs:na|ktp:N0|mc:31795|mtp:S|qry_typ:P|lang:en|wc:2|cs:8840|v=4,False,,Surat,"Plot-15/321, Shed No-23, GR. Floor, Pavthawala Comp, Jain Mandir Road, Vasta Devdi Road, Kataragam, Surat - 395004, Dist.Surat, Gujarat",8047647921,
"Cotton Printed Maternity Nightgowns, Brown",https://www.indiamart.com/proddetail/maternity-nightgowns-4028203448.html?pos=119&kwd=maternity sleepwear&tags=||||8211.142||product|||NA|rsf:gd-|-stype:attr=1|qr_nm:gd|res:RC3|com-cf:nl|ptrs:na|ktp:N0|mc:31795|mtp:S|qry_typ:P|lang:en|wc:2|cs:8840|v=4,Ashapura Intimates Fashion Limited,https://www.indiamart.com/ashapuraapparels/?pos=119&kwd=maternity sleepwear&tags=||||8211.142||product|||NA|rsf:gd-|-stype:attr=1|qr_nm:gd|res:RC3|com-cf:nl|ptrs:na|ktp:N0|mc:31795|mtp:S|qry_typ:P|lang:en|wc:2|cs:8840|v=4,False,Dadar West,Mumbai,"Unit No. 3, 4, Pacific Plaza, Plot No. 570 Masjid Gali, Off Bhavani Shankar Road, Dadar West, Dadar West, Mumbai - 400028, Dist.Mumbai, Maharashtra",8048247115,3888
Maternity Gown,https://www.indiamart.com/proddetail/maternity-gown-5014042891.html?pos=120&kwd=maternity sleepwear&tags=||||8752.144||product|||NA|rsf:gd-|-stype:attr=1|qr_nm:gd|res:RC3|com-cf:nl|ptrs:na|ktp:N0|mc:31795|mtp:S|qry_typ:P|lang:en|wc:2|cs:8840|v=4,Surgeine Healthcare (India) Private Limited,https://www.indiamart.com/surgeine-healthcare/?pos=120&kwd=maternity sleepwear&tags=||||8752.144||product|||NA|rsf:gd-|-stype:attr=1|qr_nm:gd|res:RC3|com-cf:nl|ptrs:na|ktp:N0|mc:31795|mtp:S|qry_typ:P|lang:en|wc:2|cs:8840|v=4,False,Shalimar Bagh,New Delhi,"AB-4, IInd Floor, Shalimar Bagh, Shalimar Bagh, New Delhi - 110088, Dist.Delhi, Delhi",8048372609,812
"Printed Cotton Maternity Gowns, Maroon",https://www.indiamart.com/proddetail/cotton-maternity-gowns-23980129830.html?pos=121&kwd=maternity sleepwear&tags=||||8601.347|Price|product|||NA|rsf:gd-|-stype:attr=1|qr_nm:gd|res:RC3|com-cf:nl|ptrs:na|ktp:N0|mc:31795|mtp:S|qry_typ:P|lang:en|wc:2|cs:8840|v=4,Privie Apparel Store,https://www.indiamart.com/privie-apparel-store/?pos=121&kwd=maternity sleepwear&tags=||||8601.347|Price|product|||NA|rsf:gd-|-stype:attr=1|qr_nm:gd|res:RC3|com-cf:nl|ptrs:na|ktp:N0|mc:31795|mtp:S|qry_typ:P|lang:en|wc:2|cs:8840|v=4,False,,Jaipur,"D-9, Shanti Path, Tilak Nagar, Jaipur - 302004, Dist.Jaipur, Rajasthan",8046068435,
Ladies Maternity Doll Nighty,https://www.indiamart.com/proddetail/ladies-maternity-doll-nighty-11290541830.html?pos=122&kwd=maternity sleepwear&tags=||||8752.144|Price|product|||NA|rsf:gd-|-stype:attr=1|qr_nm:gd|res:RC3|com-cf:nl|ptrs:na|ktp:N0|mc:31795|mtp:S|qry_typ:P|lang:en|wc:2|cs:8840|v=4,High Street Lifestyle Industry,https://www.indiamart.com/highstreetlifestyle/?pos=122&kwd=maternity sleepwear&tags=||||8752.144|Price|product|||NA|rsf:gd-|-stype:attr=1|qr_nm:gd|res:RC3|com-cf:nl|ptrs:na|ktp:N0|mc:31795|mtp:S|qry_typ:P|lang:en|wc:2|cs:8840|v=4,False,Patel Nagar West,New Delhi,"Z-41 Basement, Patel Nagar West, New Delhi - 110008, Dist.Delhi, Delhi",8048262603,823
"Cotton Printed Ladies Maternity Night Gown, Multiple Colors",https://www.indiamart.com/proddetail/ladies-maternity-night-gown-23474366112.html?pos=123&kwd=maternity sleepwear&tags=||||9528.781|Price|product|||NA|rsf:gd-|-stype:attr=1|qr_nm:gd|res:RC3|com-cf:nl|ptrs:na|ktp:N0|mc:31795|mtp:S|qry_typ:P|lang:en|wc:2|cs:8840|v=4,D.K.Fashion,https://www.indiamart.com/dk-fashion-ranchi/?pos=123&kwd=maternity sleepwear&tags=||||9528.781|Price|product|||NA|rsf:gd-|-stype:attr=1|qr_nm:gd|res:RC3|com-cf:nl|ptrs:na|ktp:N0|mc:31795|mtp:S|qry_typ:P|lang:en|wc:2|cs:8840|v=4,False,,Ranchi,"RBS Market, 2nd Floor, Municiple Holding No. 767, Beside Handa Masjid, Upper Bazar, Ranchi - 834001, Dist.Ranchi, Jharkhand",8048372749,457
Women Maternity Gown,https://www.indiamart.com/proddetail/women-maternity-gown-24819118633.html?pos=124&kwd=maternity sleepwear&tags=||||8601.347||product|||NA|rsf:gd-|-stype:attr=1|qr_nm:gd|res:RC3|com-cf:nl|ptrs:na|ktp:N0|mc:31795|mtp:S|qry_typ:P|lang:en|wc:2|cs:8840|v=4,Tanishka Enterprises,https://www.indiamart.com/tanishkaenterprises-93654264/?pos=124&kwd=maternity sleepwear&tags=||||8601.347||product|||NA|rsf:gd-|-stype:attr=1|qr_nm:gd|res:RC3|com-cf:nl|ptrs:na|ktp:N0|mc:31795|mtp:S|qry_typ:P|lang:en|wc:2|cs:8840|v=4,False,Jaipur Rajasthan,Jaipur,"67/65 sector 6 Pratap Nagar Pratap Nagar Shipra Path, Jaipur Rajasthan, Jaipur - 302020, Dist.Jaipur, Rajasthan",8048250224,801
"Cotton Maternity Nighty, Sleeves: Half Sleeves",https://www.indiamart.com/proddetail/cotton-maternity-nighty-22653034191.html?pos=125&kwd=maternity sleepwear&tags=||||8331.898|Price|product|||NA|rsf:gd-|-stype:attr=1|qr_nm:gd|res:RC3|com-cf:nl|ptrs:na|ktp:N0|mc:31795|mtp:S|qry_typ:P|lang:en|wc:2|cs:8840|v=4,Nakoda Creations,https://www.indiamart.com/nakoda-creations-karad/?pos=125&kwd=maternity sleepwear&tags=||||8331.898|Price|product|||NA|rsf:gd-|-stype:attr=1|qr_nm:gd|res:RC3|com-cf:nl|ptrs:na|ktp:N0|mc:31795|mtp:S|qry_typ:P|lang:en|wc:2|cs:8840|v=4,False,Namdev Chowk,Karad,"172, Shukrawar Peth, Namdev Chowk, Karad - 415110, Dist.Satara, Maharashtra",8069023892,137
Ladies Maternity Night Dress,https://www.indiamart.com/proddetail/ladies-maternity-night-dress-2850518049148.html?pos=126&kwd=maternity sleepwear&tags=||||8228.275|Price|product|||NA|rsf:gd-|-stype:attr=1|qr_nm:gd|res:RC3|com-cf:nl|ptrs:na|ktp:N0|mc:31795|mtp:S|qry_typ:P|lang:en|wc:2|cs:8840|v=4,K Bela Creation,https://www.indiamart.com/k-bela-creation/?pos=126&kwd=maternity sleepwear&tags=||||8228.275|Price|product|||NA|rsf:gd-|-stype:attr=1|qr_nm:gd|res:RC3|com-cf:nl|ptrs:na|ktp:N0|mc:31795|mtp:S|qry_typ:P|lang:en|wc:2|cs:8840|v=4,False,,Ahmedabad,"121/122 vivekanand garments park shavadi Narol gaam Ahmedabad, Ahmedabad - 380001, Dist.Ahmedabad, Gujarat",7942803999,
Cotton Yellow Ladies Printed Maternity Gown,https://www.indiamart.com/proddetail/ladies-printed-maternity-gown-26520660488.html?pos=127&kwd=maternity sleepwear&tags=||||8601.347|Price|product|||NA|rsf:gd-|-stype:attr=1|qr_nm:gd|res:RC3|com-cf:nl|ptrs:na|ktp:N0|mc:31795|mtp:S|qry_typ:P|lang:en|wc:2|cs:8840|v=4,M/S Janvi Creation'S,https://www.indiamart.com/msjanvicreations/?pos=127&kwd=maternity sleepwear&tags=||||8601.347|Price|product|||NA|rsf:gd-|-stype:attr=1|qr_nm:gd|res:RC3|com-cf:nl|ptrs:na|ktp:N0|mc:31795|mtp:S|qry_typ:P|lang:en|wc:2|cs:8840|v=4,False,,Jaipur,"113/08, Ramthirath Marg, Vijay Path, Masarovar, Jaipur - 302020, Dist.Jaipur, Rajasthan",8048208958,
"Pink(Base) Ladies Printed Maternity Gown, Size: Large",https://www.indiamart.com/proddetail/ladies-printed-maternity-gown-2849761101630.html?pos=128&kwd=maternity sleepwear&tags=||||8601.347|Price|product|||NA|rsf:gd-|-stype:attr=1|qr_nm:gd|res:RC3|com-cf:nl|ptrs:na|ktp:N0|mc:31795|mtp:S|qry_typ:P|lang:en|wc:2|cs:8840|v=4,Riddhi Siddhi Fashion,https://www.indiamart.com/riddhi-siddhifashion/?pos=128&kwd=maternity sleepwear&tags=||||8601.347|Price|product|||NA|rsf:gd-|-stype:attr=1|qr_nm:gd|res:RC3|com-cf:nl|ptrs:na|ktp:N0|mc:31795|mtp:S|qry_typ:P|lang:en|wc:2|cs:8840|v=4,False,,Jaipur,"P No 14, Green Vilaz, Mansarover, Jaipur - 302020, Dist.Jaipur, Rajasthan",7942797470,
Printed Floral Maternity Gown,,DR Enterprises,https://www.indiamart.com/rsr-lifestyle/?pos=129&kwd=maternity sleepwear&tags=||||8778.123||product|||NA|rsf:gd-|-stype:attr=1|qr_nm:gd|res:RC3|com-cf:nl|ptrs:na|ktp:N0|mc:31795|mtp:S|qry_typ:P|lang:en|wc:2|cs:8840|v=4,False,,Noida,"BLK 14, Sector 116, Noida - 201301, Dist.Gautam Budh Nagar, Uttar Pradesh",8048371734,678
"Full Length Printed Cotton maternity zip nighty, Free Size",https://www.indiamart.com/proddetail/cotton-maternity-zip-nighty-22372666397.html?pos=130&kwd=maternity sleepwear&tags=||||8828.05|Price|product|||NA|rsf:gd-|-stype:attr=1|qr_nm:gd|res:RC3|com-cf:nl|ptrs:na|ktp:N0|mc:31795|mtp:S|qry_typ:P|lang:en|wc:2|cs:8840|v=4,M S Sakthi Garments And Textiles,https://www.indiamart.com/mssakthigarmentsandtextiles/?pos=130&kwd=maternity sleepwear&tags=||||8828.05|Price|product|||NA|rsf:gd-|-stype:attr=1|qr_nm:gd|res:RC3|com-cf:nl|ptrs:na|ktp:N0|mc:31795|mtp:S|qry_typ:P|lang:en|wc:2|cs:8840|v=4,False,,Chittoor,"22/411/a Reddy And Reddycolony Chittoor Kattamanchi, Chittoor - 517001, Dist.Chittoor, Andhra Pradesh",8048250216,624
Printed Ladies Queen Pink Rayon Maternity Gown,https://www.indiamart.com/proddetail/ladies-queen-pink-rayon-maternity-gown-27258703555.html?pos=131&kwd=maternity sleepwear&tags=||||8601.347|Price|product|||NA|rsf:gd-|-stype:attr=1|qr_nm:gd|res:RC3|com-cf:nl|ptrs:na|ktp:N0|mc:31795|mtp:S|qry_typ:P|lang:en|wc:2|cs:8840|v=4,Kamdev Export,https://www.indiamart.com/kamdevexport/?pos=131&kwd=maternity sleepwear&tags=||||8601.347|Price|product|||NA|rsf:gd-|-stype:attr=1|qr_nm:gd|res:RC3|com-cf:nl|ptrs:na|ktp:N0|mc:31795|mtp:S|qry_typ:P|lang:en|wc:2|cs:8840|v=4,False,,Jaipur,"Shop No 3, Khejron Ka Bas Balrampura, Mansarover, Jaipur - 302020, Dist.Jaipur, Rajasthan",7942675149,
Maternity Gown,https://www.indiamart.com/proddetail/maternity-gown-15301124897.html?pos=132&kwd=maternity sleepwear&tags=||||8211.142|Price|product|||NA|rsf:gd-|-stype:attr=1|qr_nm:gd|res:RC3|com-cf:nl|ptrs:na|ktp:N0|mc:31795|mtp:S|qry_typ:P|lang:en|wc:2|cs:8840|v=4,Remy Creation,https://www.indiamart.com/remy-creation/?pos=132&kwd=maternity sleepwear&tags=||||8211.142|Price|product|||NA|rsf:gd-|-stype:attr=1|qr_nm:gd|res:RC3|com-cf:nl|ptrs:na|ktp:N0|mc:31795|mtp:S|qry_typ:P|lang:en|wc:2|cs:8840|v=4,False,Bandra East,Mumbai,"1st Floor, 6/11, Amrut Nagar, Kherwadi Road, Bandra East, Mumbai - 400051, Dist.Mumbai, Maharashtra",8048372728,956
"Yellow Women's Cotton Printed Maternity Dress, Size: Free Size, Sleeves: Half Sleeve",https://www.indiamart.com/proddetail/women-s-cotton-printed-maternity-dress-2850819878388.html?pos=133&kwd=maternity sleepwear&tags=||||8601.347|Price|product|||NA|rsf:gd-|-stype:attr=1|qr_nm:gd|res:RC3|com-cf:nl|ptrs:na|ktp:N0|mc:31795|mtp:S|qry_typ:P|lang:en|wc:2|cs:8840|v=4,Aaryahi Global,https://www.indiamart.com/aaryahiglobal/?pos=133&kwd=maternity sleepwear&tags=||||8601.347|Price|product|||NA|rsf:gd-|-stype:attr=1|qr_nm:gd|res:RC3|com-cf:nl|ptrs:na|ktp:N0|mc:31795|mtp:S|qry_typ:P|lang:en|wc:2|cs:8840|v=4,False,Bajaj Nagar,Jaipur,"BB-10 B, Road No-6, Anita Colony Bajaj Nagar, Bajaj Nagar, Jaipur - 302015, Dist.Jaipur, Rajasthan",8047549365,
"Printed Cotton Maternity Gown, Peach",https://www.indiamart.com/proddetail/cotton-maternity-gown-24809101191.html?pos=134&kwd=maternity sleepwear&tags=||||8601.347|Price|product|||NA|rsf:gd-|-stype:attr=1|qr_nm:gd|res:RC3|com-cf:nl|ptrs:na|ktp:N0|mc:31795|mtp:S|qry_typ:P|lang:en|wc:2|cs:8840|v=4,L S Fashion,https://www.indiamart.com/ls-fashion-rajasthan/?pos=134&kwd=maternity sleepwear&tags=||||8601.347|Price|product|||NA|rsf:gd-|-stype:attr=1|qr_nm:gd|res:RC3|com-cf:nl|ptrs:na|ktp:N0|mc:31795|mtp:S|qry_typ:P|lang:en|wc:2|cs:8840|v=4,False,,Jaipur,"D-9/121, First Floor, Chitrakoot Yojana, Vaishali Nagar, Sector-9, Jaipur - 302021, Dist.Jaipur, Rajasthan",8048261263,
Ladies Maternity Nighty,https://www.indiamart.com/proddetail/ladies-maternity-nighty-6585587955.html?pos=135&kwd=maternity sleepwear&tags=||||8211.142||product|||NA|rsf:gd-|-stype:attr=1|qr_nm:gd|res:RC3|com-cf:nl|ptrs:na|ktp:N0|mc:31795|mtp:S|qry_typ:P|lang:en|wc:2|cs:8840|v=4,O Baby,https://www.indiamart.com/obaby/?pos=135&kwd=maternity sleepwear&tags=||||8211.142||product|||NA|rsf:gd-|-stype:attr=1|qr_nm:gd|res:RC3|com-cf:nl|ptrs:na|ktp:N0|mc:31795|mtp:S|qry_typ:P|lang:en|wc:2|cs:8840|v=4,False,J V Patel Compound,Mumbai,"C-3, Prime Showcase, J. V.Patel Compound, Near Prime Plaza, BM Marg, Elphinstone Road, J V Patel Compound, Mumbai - 400013, Dist.Mumbai, Maharashtra",8048371579,173
Art Silk Green Maternity Gown,https://www.indiamart.com/proddetail/green-maternity-gown-27136327255.html?pos=136&kwd=maternity sleepwear&tags=||||8601.347|Price|product|||NA|rsf:gd-|-stype:attr=1|qr_nm:gd|res:RC3|com-cf:nl|ptrs:na|ktp:N0|mc:31795|mtp:S|qry_typ:P|lang:en|wc:2|cs:8840|v=4,Priya'S Fashion Hub,https://www.indiamart.com/priyas-fashionhub/?pos=136&kwd=maternity sleepwear&tags=||||8601.347|Price|product|||NA|rsf:gd-|-stype:attr=1|qr_nm:gd|res:RC3|com-cf:nl|ptrs:na|ktp:N0|mc:31795|mtp:S|qry_typ:P|lang:en|wc:2|cs:8840|v=4,False,,Jaipur,"114, Flat No. F-1, Krishna Sudama Apprament, Rodu Nagar, Patrakar Colony, Mansarovar, Jaipur - 302020, Dist.Jaipur, Rajasthan",8048272278,
BLACK Ladies Maternity Nighty,https://www.indiamart.com/proddetail/ladies-maternity-nighty-23079753033.html?pos=137&kwd=maternity sleepwear&tags=||||8211.142|Price|product|||NA|rsf:gd-|-stype:attr=1|qr_nm:gd|res:RC3|com-cf:nl|ptrs:na|ktp:N0|mc:31795|mtp:S|qry_typ:P|lang:en|wc:2|cs:8840|v=4,C K Enterprises,https://www.indiamart.com/c-k-enterprises-mumbai/?pos=137&kwd=maternity sleepwear&tags=||||8211.142|Price|product|||NA|rsf:gd-|-stype:attr=1|qr_nm:gd|res:RC3|com-cf:nl|ptrs:na|ktp:N0|mc:31795|mtp:S|qry_typ:P|lang:en|wc:2|cs:8840|v=4,False,Ghatkopar West Upper Level Shivkrupa Society,Mumbai,"GALA NO. A4,UPPER LEVEL SHIVKRUPA SOCIETY, KULKARNIWADI JM ROAD,GHATKOPAR WEST Gala No. A4 Kulkarniwadi, JM Road,400084,Mumbai, Ghatkopar West Upper Level Shivkrupa Society, Mumbai - 400086, Dist.Mumbai, Maharashtra",8048371887,192
"Printed Cotton Maternity Gown, Pink",https://www.indiamart.com/proddetail/cotton-maternity-gown-23477619388.html?pos=138&kwd=maternity sleepwear&tags=||||8211.142|Price|product|||NA|rsf:gd-|-stype:attr=1|qr_nm:gd|res:RC3|com-cf:nl|ptrs:na|ktp:N0|mc:31795|mtp:S|qry_typ:P|lang:en|wc:2|cs:8840|v=4,Make India Healthcare LLP,https://www.indiamart.com/makeindiahealthcare/?pos=138&kwd=maternity sleepwear&tags=||||8211.142|Price|product|||NA|rsf:gd-|-stype:attr=1|qr_nm:gd|res:RC3|com-cf:nl|ptrs:na|ktp:N0|mc:31795|mtp:S|qry_typ:P|lang:en|wc:2|cs:8840|v=4,False,Ghatkopar East,Mumbai,"26, Fourth Floor, Plot No. 92, A Wing Liberty, Garodia Nagar, Ghatkopar East, Ghatkopar East, Mumbai - 400077, Dist.Mumbai, Maharashtra",8046043116,
Feeding Maternity Nighty,https://www.indiamart.com/proddetail/feeding-maternity-nighty-13430496712.html?pos=139&kwd=maternity sleepwear&tags=||||8211.142|Price|product|||NA|rsf:gd-|-stype:attr=1|qr_nm:gd|res:RC3|com-cf:nl|ptrs:na|ktp:N0|mc:31795|mtp:S|qry_typ:P|lang:en|wc:2|cs:8840|v=4,Jigna Enterprise,https://www.indiamart.com/jignasukanya/?pos=139&kwd=maternity sleepwear&tags=||||8211.142|Price|product|||NA|rsf:gd-|-stype:attr=1|qr_nm:gd|res:RC3|com-cf:nl|ptrs:na|ktp:N0|mc:31795|mtp:S|qry_typ:P|lang:en|wc:2|cs:8840|v=4,False,Dadar West,Mumbai,"No. 124, Atlantic Plaza, Off. Bhavani Shankar Road, Dadar West, Mumbai - 400028, Dist.Mumbai, Maharashtra",8047682709,
"Printed Maternity Feeding Gown, Three fourth sleeve",https://www.indiamart.com/proddetail/maternity-feeding-gown-2853742563112.html?pos=140&kwd=maternity sleepwear&tags=||||8230.883|Price|product|||NA|rsf:gd-|-stype:attr=1|qr_nm:gd|res:RC3|com-cf:nl|ptrs:na|ktp:N0|mc:31795|mtp:S|qry_typ:P|lang:en|wc:2|cs:8840|v=4,Bansi Enterprise,https://www.indiamart.com/bansienterprise/?pos=140&kwd=maternity sleepwear&tags=||||8230.883|Price|product|||NA|rsf:gd-|-stype:attr=1|qr_nm:gd|res:RC3|com-cf:nl|ptrs:na|ktp:N0|mc:31795|mtp:S|qry_typ:P|lang:en|wc:2|cs:8840|v=4,False,Hirabaugh,Surat,"145, Krishna Park Society, NR.Gelambe Mandir,Kamraj,, Hirabaugh, Surat - 394180, Dist.Surat, Gujarat",7942620842,
Printed Grey Pocketed Maternity And Feeding Gown,https://www.indiamart.com/proddetail/grey-pocketed-maternity-and-feeding-gown-22933006233.html?pos=141&kwd=maternity sleepwear&tags=||||8211.142|Price|product|||NA|rsf:gd-|-stype:attr=1|qr_nm:gd|res:RC3|com-cf:nl|ptrs:na|ktp:N0|mc:31795|mtp:S|qry_typ:P|lang:en|wc:2|cs:8840|v=4,Govardhan Enterprise,https://www.indiamart.com/goverdhan-enterprise-mumbai/?pos=141&kwd=maternity sleepwear&tags=||||8211.142|Price|product|||NA|rsf:gd-|-stype:attr=1|qr_nm:gd|res:RC3|com-cf:nl|ptrs:na|ktp:N0|mc:31795|mtp:S|qry_typ:P|lang:en|wc:2|cs:8840|v=4,False,,Mumbai,"4, New Panchganga Vistapit Society, Slum Colony, Pantnagar Ghatkopar East, Mumbai - 400075, Dist.Mumbai, Maharashtra",8048372478,311
"Printed Ladies Cotton Maternity Nightgown, Green",https://www.indiamart.com/proddetail/ladies-cotton-maternity-nightgown-22618557473.html?pos=142&kwd=maternity sleepwear&tags=||||8211.142|Price|product|||NA|rsf:gd-|-stype:attr=1|qr_nm:gd|res:RC3|com-cf:nl|ptrs:na|ktp:N0|mc:31795|mtp:S|qry_typ:P|lang:en|wc:2|cs:8840|v=4,Gopinathji Apparels LLP,https://www.indiamart.com/verrona/?pos=142&kwd=maternity sleepwear&tags=||||8211.142|Price|product|||NA|rsf:gd-|-stype:attr=1|qr_nm:gd|res:RC3|com-cf:nl|ptrs:na|ktp:N0|mc:31795|mtp:S|qry_typ:P|lang:en|wc:2|cs:8840|v=4,False,,Mumbai,"144, ASHOK SILK MILL COMPOUND, OPP. 90 FEET ROAD, OPP. SAHEEL HOTEL, NEAR SION RAILWAY STATION, Mumbai - 400706, Dist.Mumbai, Maharashtra",8043849008,
"Full Sleeve Women Black Maternity Hoodies, Size: Large",https://www.indiamart.com/proddetail/women-black-maternity-hoodies-2850667917355.html?pos=143&kwd=maternity sleepwear&tags=||||8584.299|Price|product|||NA|rsf:gd-|-stype:attr=1|qr_nm:gd|res:RC3|com-cf:nl|ptrs:na|ktp:N0|mc:31795|mtp:S|qry_typ:P|lang:en|wc:2|cs:8840|v=4,TinyFeets,https://www.indiamart.com/tiny-feets-coimbatore/?pos=143&kwd=maternity sleepwear&tags=||||8584.299|Price|product|||NA|rsf:gd-|-stype:attr=1|qr_nm:gd|res:RC3|com-cf:nl|ptrs:na|ktp:N0|mc:31795|mtp:S|qry_typ:P|lang:en|wc:2|cs:8840|v=4,False,,Coimbatore,"9, Andal Street 2, Lakshmipuram, Peelamedu, Coimbatore - 641004, Dist.Coimbatore, Tamil Nadu",7942958021,
Rayon Brown Maternity Night Suit,https://www.indiamart.com/proddetail/brown-maternity-night-suit-2854072811012.html?pos=144&kwd=maternity sleepwear&tags=||||8601.347|Price|product|||NA|rsf:gd-|-stype:attr=1|qr_nm:gd|res:RC3|com-cf:nl|ptrs:na|ktp:N0|mc:31795|mtp:S|qry_typ:P|lang:en|wc:2|cs:8840|v=4,Vinny'S Creation,https://www.indiamart.com/vinnys-creation/?pos=144&kwd=maternity sleepwear&tags=||||8601.347|Price|product|||NA|rsf:gd-|-stype:attr=1|qr_nm:gd|res:RC3|com-cf:nl|ptrs:na|ktp:N0|mc:31795|mtp:S|qry_typ:P|lang:en|wc:2|cs:8840|v=4,False,,Jaipur,"Plot No. 30,,dadu Marg, hariyan Colony, Near Jp phatak,Jaipur ,302015,, Jaipur - 302015, Dist.Jaipur, Rajasthan",8048370713,2499
"Cotton Ladies Printed Maternity Nightgown, Pink (Base)",https://www.indiamart.com/proddetail/ladies-printed-maternity-nightgown-21349026473.html?pos=145&kwd=maternity sleepwear&tags=||||8706.587|Price|product|||NA|rsf:gd-|-stype:attr=1|qr_nm:gd|res:RC3|com-cf:nl|ptrs:na|ktp:N0|mc:31795|mtp:S|qry_typ:P|lang:en|wc:2|cs:8840|v=4,Mansi Creation,https://www.indiamart.com/mansi-creation-madurai/?pos=145&kwd=maternity sleepwear&tags=||||8706.587|Price|product|||NA|rsf:gd-|-stype:attr=1|qr_nm:gd|res:RC3|com-cf:nl|ptrs:na|ktp:N0|mc:31795|mtp:S|qry_typ:P|lang:en|wc:2|cs:8840|v=4,False,,Madurai,"Door No 11/37 Mahal 2,3 Cross Street, Madurai - 625001, Dist.Madurai, Tamil Nadu",7942827474,
Maternity Wear Women Nighty,https://www.indiamart.com/proddetail/maternity-wear-women-nighty-23139534433.html?pos=146&kwd=maternity sleepwear&tags=||||8211.142|Price|product|||NA|rsf:gd-|-stype:attr=1|qr_nm:gd|res:RC3|com-cf:nl|ptrs:na|ktp:N0|mc:31795|mtp:S|qry_typ:P|lang:en|wc:2|cs:8840|v=4,Madhuri Sarees,https://www.indiamart.com/madhuri-sarees/?pos=146&kwd=maternity sleepwear&tags=||||8211.142|Price|product|||NA|rsf:gd-|-stype:attr=1|qr_nm:gd|res:RC3|com-cf:nl|ptrs:na|ktp:N0|mc:31795|mtp:S|qry_typ:P|lang:en|wc:2|cs:8840|v=4,False,Malad West,Mumbai,"No. 6, S4, Sundervan Society, Near Sarvodaya Vidya Mandir SV Road, Malad West, Mumbai - 400064, Dist.Mumbai, Maharashtra",7948217889,
Girls Kids Designer Nightwear,https://www.indiamart.com/proddetail/kids-designer-nightwear-2852180948691.html?pos=147&kwd=maternity sleepwear&tags=||||8223.226|Price|product|||NA|rsf:gd-|-stype:attr=1|qr_nm:gd|res:RC3|com-cf:nl|ptrs:na|ktp:N0|mc:31795|mtp:S|qry_typ:P|lang:en|wc:2|cs:8840|v=4,Lucky Maxi,https://www.indiamart.com/lucky-maxi/?pos=147&kwd=maternity sleepwear&tags=||||8223.226|Price|product|||NA|rsf:gd-|-stype:attr=1|qr_nm:gd|res:RC3|com-cf:nl|ptrs:na|ktp:N0|mc:31795|mtp:S|qry_typ:P|lang:en|wc:2|cs:8840|v=4,False,Kailash Colony,Thane,"NEAR BK NO. 1855,ROOM NO. 10,, SECTION- 39, ULHASNAGAR, Kailash Colony, Thane - 421005, Dist.Thane, Maharashtra",8043853414,
New Trendy Women's Pure Cotton Maternity Daily Wear Printed Sleepwear Nightdresses,https://www.indiamart.com/proddetail/new-trendy-women-s-pure-cotton-maternity-daily-wear-printed-sleepwear-nightdresses-2854218614188.html?pos=148&kwd=maternity sleepwear&tags=||||8752.144|Price|product|||NA|rsf:gd-|-stype:attr=1|qr_nm:gd|res:RC3|com-cf:nl|ptrs:na|ktp:N0|mc:31795|mtp:S|qry_typ:P|lang:en|wc:2|cs:8840|v=4,Aflipshop,https://www.indiamart.com/aflipshopin/?pos=148&kwd=maternity sleepwear&tags=||||8752.144|Price|product|||NA|rsf:gd-|-stype:attr=1|qr_nm:gd|res:RC3|com-cf:nl|ptrs:na|ktp:N0|mc:31795|mtp:S|qry_typ:P|lang:en|wc:2|cs:8840|v=4,False,,New Delhi,"P-9, C/o Innovative E Business Service Llp Mayur Vihar Phase 1 Jp Complex New Delhi, New Delhi - 110091, Dist.Delhi, Delhi",,
"Women Yellow Rayon Printed Maternity Gown, 3/4 Sleeve",https://www.indiamart.com/proddetail/women-yellow-rayon-printed-maternity-gown-2850547832112.html?pos=149&kwd=maternity sleepwear&tags=||||8601.347|Price|product|||NA|rsf:gd-|-stype:attr=1|qr_nm:gd|res:RC3|com-cf:nl|ptrs:na|ktp:N0|mc:31795|mtp:S|qry_typ:P|lang:en|wc:2|cs:8840|v=4,Priya's Creation,https://www.indiamart.com/priyascreationjaipur/?pos=149&kwd=maternity sleepwear&tags=||||8601.347|Price|product|||NA|rsf:gd-|-stype:attr=1|qr_nm:gd|res:RC3|com-cf:nl|ptrs:na|ktp:N0|mc:31795|mtp:S|qry_typ:P|lang:en|wc:2|cs:8840|v=4,False,,Jaipur,"A-100, Ajmer Road, Jai Mata Vaishno Nagar, Jaipur - 302021, Dist.Jaipur, Rajasthan",8047638720,
Solid Ladies Grey Hosiery Maternity Nightgown,https://www.indiamart.com/proddetail/ladies-grey-hosiery-maternity-nightgown-23037191697.html?pos=150&kwd=maternity sleepwear&tags=||||8663.873|Price|product|||NA|rsf:gd-|-stype:attr=1|qr_nm:gd|res:RC3|com-cf:nl|ptrs:na|ktp:N0|mc:31795|mtp:S|qry_typ:P|lang:en|wc:2|cs:8840|v=4,Nilesh Creation,https://www.indiamart.com/nileshcreation/?pos=150&kwd=maternity sleepwear&tags=||||8663.873|Price|product|||NA|rsf:gd-|-stype:attr=1|qr_nm:gd|res:RC3|com-cf:nl|ptrs:na|ktp:N0|mc:31795|mtp:S|qry_typ:P|lang:en|wc:2|cs:8840|v=4,False,vv puram,Bengaluru,"no.51, 3rd floor, Raja Hariharan Towers, sajjan Rao road, basappa circle, vv puram, vv puram, Bengaluru - 560004, Dist.Bengaluru, Karnataka",8047769700,
"Rayon Ladies Floral Printed Maternity Nightgown, Black (Base), Size: Medium",https://www.indiamart.com/proddetail/ladies-floral-printed-maternity-nightgown-2853932147173.html?pos=151&kwd=maternity sleepwear&tags=||||8228.275|Price|product|||NA|rsf:gd-|-stype:attr=1|qr_nm:gd|res:RC3|com-cf:nl|ptrs:na|ktp:N0|mc:31795|mtp:S|qry_typ:P|lang:en|wc:2|cs:8840|v=4,S R Traders,https://www.indiamart.com/srtraders-ahmedabad-india/?pos=151&kwd=maternity sleepwear&tags=||||8228.275|Price|product|||NA|rsf:gd-|-stype:attr=1|qr_nm:gd|res:RC3|com-cf:nl|ptrs:na|ktp:N0|mc:31795|mtp:S|qry_typ:P|lang:en|wc:2|cs:8840|v=4,False,Raipur,Ahmedabad,"S-9 ,Sindhi Market, South Revdi Bazar, Raipur, Ahmedabad - 380002, Dist.Ahmedabad, Gujarat",8044565846,
Cotton Printed Maternity Gown,https://www.indiamart.com/proddetail/maternity-gown-14337145448.html?pos=152&kwd=maternity sleepwear&tags=||||8626.744|Price|product|||NA|rsf:gd-|-stype:attr=1|qr_nm:gd|res:RC3|com-cf:nl|ptrs:na|ktp:N0|mc:31795|mtp:S|qry_typ:P|lang:en|wc:2|cs:8840|v=4,Purple Kids,https://www.indiamart.com/midasclothingcompany/?pos=152&kwd=maternity sleepwear&tags=||||8626.744|Price|product|||NA|rsf:gd-|-stype:attr=1|qr_nm:gd|res:RC3|com-cf:nl|ptrs:na|ktp:N0|mc:31795|mtp:S|qry_typ:P|lang:en|wc:2|cs:8840|v=4,False,Pandiyan Nagar,Tiruppur,"Pooluvapatti, Pandiyan Nagar, Tiruppur - 641602, Dist.Coimbatore, Tamil Nadu",7949347177,
Maternity Gown,https://www.indiamart.com/proddetail/maternity-gown-2851924608433.html?pos=153&kwd=maternity sleepwear&tags=||||8559.269|Price|product|||NA|rsf:gd-|-stype:attr=1|qr_nm:gd|res:RC3|com-cf:nl|ptrs:na|ktp:N0|mc:31795|mtp:S|qry_typ:P|lang:en|wc:2|cs:8840|v=4,Get Easy Enterprises,https://www.indiamart.com/get-easy-enterprises/?pos=153&kwd=maternity sleepwear&tags=||||8559.269|Price|product|||NA|rsf:gd-|-stype:attr=1|qr_nm:gd|res:RC3|com-cf:nl|ptrs:na|ktp:N0|mc:31795|mtp:S|qry_typ:P|lang:en|wc:2|cs:8840|v=4,False,INDORE,Indore,"FF/12,Shopping Complex - A, A.B Road,Indore 452010, INDORE, Indore - 452010, Dist.Indore, Madhya Pradesh",8069017409,474
"Cotton Printed Maternity Nightgowns, multicolour",https://www.indiamart.com/proddetail/maternity-nightgowns-2854863786997.html?pos=154&kwd=maternity sleepwear&tags=||||8626.744|Price|product|||NA|rsf:gd-|-stype:attr=1|qr_nm:gd|res:RC3|com-cf:nl|ptrs:na|ktp:N0|mc:31795|mtp:S|qry_typ:P|lang:en|wc:2|cs:8840|v=4,Pechiamman Fabs,https://www.indiamart.com/pechiamman-fabs/?pos=154&kwd=maternity sleepwear&tags=||||8626.744|Price|product|||NA|rsf:gd-|-stype:attr=1|qr_nm:gd|res:RC3|com-cf:nl|ptrs:na|ktp:N0|mc:31795|mtp:S|qry_typ:P|lang:en|wc:2|cs:8840|v=4,False,T.N.K Puram,Tiruppur,"2/2, T.N.K Puram, Madhya Veedhi, Government Middle School, Thiru Neelakanda Puram, T.N.K Puram, Tiruppur - 641607, Dist.Coimbatore, Tamil Nadu",7942965923,
"Blue Printed Maternity Cotton Nighties, 3/4 Sleeve",https://www.indiamart.com/proddetail/maternity-cotton-nighties-2849889182597.html?pos=155&kwd=maternity sleepwear&tags=||||8601.347|Price|product|||NA|rsf:gd-|-stype:attr=1|qr_nm:gd|res:RC3|com-cf:nl|ptrs:na|ktp:N0|mc:31795|mtp:S|qry_typ:P|lang:en|wc:2|cs:8840|v=4,Priya Collection,https://www.indiamart.com/priyacollectionjaipur/?pos=155&kwd=maternity sleepwear&tags=||||8601.347|Price|product|||NA|rsf:gd-|-stype:attr=1|qr_nm:gd|res:RC3|com-cf:nl|ptrs:na|ktp:N0|mc:31795|mtp:S|qry_typ:P|lang:en|wc:2|cs:8840|v=4,False,,Jaipur,"125, AGRA ROAD, Jaipur - 303012, Dist.Jaipur, Rajasthan",8047543036,
Ladies Maternity Gown,https://www.indiamart.com/proddetail/ladies-maternity-gown-11833556091.html?pos=156&kwd=maternity sleepwear&tags=||||8584.299||product|||NA|rsf:gd-|-stype:attr=1|qr_nm:gd|res:RC3|com-cf:nl|ptrs:na|ktp:N0|mc:31795|mtp:S|qry_typ:P|lang:en|wc:2|cs:8840|v=4,Abirami Exports,https://www.indiamart.com/abiramiexports/?pos=156&kwd=maternity sleepwear&tags=||||8584.299||product|||NA|rsf:gd-|-stype:attr=1|qr_nm:gd|res:RC3|com-cf:nl|ptrs:na|ktp:N0|mc:31795|mtp:S|qry_typ:P|lang:en|wc:2|cs:8840|v=4,False,RS Puram,Coimbatore,"No. 424, Thadagam Road, Near Milk Society Bus Stop, R. S. Puram, RS Puram, Coimbatore - 641002, Dist.Coimbatore, Tamil Nadu",8047781207,
"Printed Maternity Half Sleeve Nightgown, Blue",https://www.indiamart.com/proddetail/maternity-half-sleeve-nightgown-21384205848.html?pos=157&kwd=maternity sleepwear&tags=||||8507.67||product|||NA|rsf:gd-|-stype:attr=1|qr_nm:gd|res:RC3|com-cf:nl|ptrs:na|ktp:N0|mc:31795|mtp:S|qry_typ:P|lang:en|wc:2|cs:8840|v=4,Jewish Apparel & Accessories,https://www.indiamart.com/jewish-apparel-accessories/?pos=157&kwd=maternity sleepwear&tags=||||8507.67||product|||NA|rsf:gd-|-stype:attr=1|qr_nm:gd|res:RC3|com-cf:nl|ptrs:na|ktp:N0|mc:31795|mtp:S|qry_typ:P|lang:en|wc:2|cs:8840|v=4,False,,Ernakulam,"32/324-A, Ladlee Towers, Vailopilly Road, Near Puthiya Road Junction, Thammanam PO, Ernakulam - 682032, Dist.Ernakulam, Kerala",8069033778,108
Maternity Nighty,,H.R Fashion,https://www.indiamart.com/h-r-fashion/?pos=158&kwd=maternity sleepwear&tags=||||8223.226||product|||NA|rsf:gd-|-stype:attr=1|qr_nm:gd|res:RC3|com-cf:nl|ptrs:na|ktp:N0|mc:31795|mtp:S|qry_typ:P|lang:en|wc:2|cs:8840|v=4,False,Kandivali West,Thane,"Bhayandar East 2-B, 001, Paras Nagar, Shankar Lane, Kandivali West 06, Kandivali West, Thane - 400067, Dist.Thane, Maharashtra",8048372383,306
Printed Cotton Maternity Gowns,https://www.indiamart.com/proddetail/cotton-maternity-gowns-2853213932733.html?pos=159&kwd=maternity sleepwear&tags=||||8601.347|Price|product|||NA|rsf:gd-|-stype:attr=1|qr_nm:gd|res:RC3|com-cf:nl|ptrs:na|ktp:N0|mc:31795|mtp:S|qry_typ:P|lang:en|wc:2|cs:8840|v=4,Pf Fashion,https://www.indiamart.com/pf-fashion/?pos=159&kwd=maternity sleepwear&tags=||||8601.347|Price|product|||NA|rsf:gd-|-stype:attr=1|qr_nm:gd|res:RC3|com-cf:nl|ptrs:na|ktp:N0|mc:31795|mtp:S|qry_typ:P|lang:en|wc:2|cs:8840|v=4,False,,Jaipur,"Shop No-01 Plot No -22 Tejaji Ka Bada, Sanganer Kalyan Nagar, Jaipur - 302029, Dist.Jaipur, Rajasthan",8069707374,796
Cotton Maternity Gown,https://www.indiamart.com/proddetail/cotton-maternity-gown-2851659886997.html?pos=160&kwd=maternity sleepwear&tags=||||8601.347|Price|product|||NA|rsf:gd-|-stype:attr=1|qr_nm:gd|res:RC3|com-cf:nl|ptrs:na|ktp:N0|mc:31795|mtp:S|qry_typ:P|lang:en|wc:2|cs:8840|v=4,Ayush Fashion,https://www.indiamart.com/ayushfashion-85699780/?pos=160&kwd=maternity sleepwear&tags=||||8601.347|Price|product|||NA|rsf:gd-|-stype:attr=1|qr_nm:gd|res:RC3|com-cf:nl|ptrs:na|ktp:N0|mc:31795|mtp:S|qry_typ:P|lang:en|wc:2|cs:8840|v=4,False,Kumhoron Ki Talai dada ki dukan,Jaipur,"108 krishna vihar muhana mod behind advance hospital ,Jaipur, Kumhoron Ki Talai dada ki dukan, Jaipur - 302029, Dist.Jaipur, Rajasthan",8048249732,2887
"Printed Cotton Maternity Gowns, Maroon Base",https://www.indiamart.com/proddetail/cotton-maternity-gowns-26151004633.html?pos=161&kwd=maternity sleepwear&tags=||||8601.347|Price|product|||NA|rsf:gd-|-stype:attr=1|qr_nm:gd|res:RC3|com-cf:nl|ptrs:na|ktp:N0|mc:31795|mtp:S|qry_typ:P|lang:en|wc:2|cs:8840|v=4,HRK Industries,https://www.indiamart.com/hrkindustries/?pos=161&kwd=maternity sleepwear&tags=||||8601.347|Price|product|||NA|rsf:gd-|-stype:attr=1|qr_nm:gd|res:RC3|com-cf:nl|ptrs:na|ktp:N0|mc:31795|mtp:S|qry_typ:P|lang:en|wc:2|cs:8840|v=4,False,Jaipur,Jaipur,"39, Amangal Vihar-a Kalyanpura, Sanganer, Jaipur, Jaipur - 302020, Dist.Jaipur, Rajasthan",8043861478,
"Cotton Solid Female Maternity Gown, Multiple color",https://www.indiamart.com/proddetail/female-maternity-gown-19980370088.html?pos=162&kwd=maternity sleepwear&tags=||||8601.347|Price|product|||NA|rsf:gd-|-stype:attr=1|qr_nm:gd|res:RC3|com-cf:nl|ptrs:na|ktp:N0|mc:31795|mtp:S|qry_typ:P|lang:en|wc:2|cs:8840|v=4,Indivibes,https://www.indiamart.com/indivibes/?pos=162&kwd=maternity sleepwear&tags=||||8601.347|Price|product|||NA|rsf:gd-|-stype:attr=1|qr_nm:gd|res:RC3|com-cf:nl|ptrs:na|ktp:N0|mc:31795|mtp:S|qry_typ:P|lang:en|wc:2|cs:8840|v=4,False,,Jaipur,"G 25 Keshaw Marg, Jaipur - 302039, Dist.Jaipur, Rajasthan",8048370722,4901
"Alpine Self Design Women Printed Maternity Feeding Nighty, Peach",https://www.indiamart.com/proddetail/women-printed-maternity-feeding-nighty-2853080466048.html?pos=163&kwd=maternity sleepwear&tags=||||8242.731|Price|product|||NA|rsf:gd-|-stype:attr=1|qr_nm:gd|res:RC3|com-cf:nl|ptrs:na|ktp:N0|mc:31795|mtp:S|qry_typ:P|lang:en|wc:2|cs:8840|v=4,Mahaveer Enterprises,https://www.indiamart.com/mahaveerenterprisesmaharashtra/?pos=163&kwd=maternity sleepwear&tags=||||8242.731|Price|product|||NA|rsf:gd-|-stype:attr=1|qr_nm:gd|res:RC3|com-cf:nl|ptrs:na|ktp:N0|mc:31795|mtp:S|qry_typ:P|lang:en|wc:2|cs:8840|v=4,False,Vithalwadi,Ulhasnagar,"BK No. 703, Room No. 5,6, Opp. Central Police Station, Central Hospital Area, Vithalwadi, Ulhasnagar - 421003, Dist.Thane, Maharashtra",8048269541,
"Printed Maternity Cotton Soft Nighty, White",https://www.indiamart.com/proddetail/maternity-cotton-soft-nighty-7055231373.html?pos=164&kwd=maternity sleepwear&tags=||||8752.144||product|||NA|rsf:gd-|-stype:attr=1|qr_nm:gd|res:RC3|com-cf:nl|ptrs:na|ktp:N0|mc:31795|mtp:S|qry_typ:P|lang:en|wc:2|cs:8840|v=4,Balaji Exports,https://www.indiamart.com/balaji-exports/?pos=164&kwd=maternity sleepwear&tags=||||8752.144||product|||NA|rsf:gd-|-stype:attr=1|qr_nm:gd|res:RC3|com-cf:nl|ptrs:na|ktp:N0|mc:31795|mtp:S|qry_typ:P|lang:en|wc:2|cs:8840|v=4,False,Shahdara,New Delhi,"H-3/73,Ist Floor, Sector-11,Rohini No. 1/2219, Ram Nagar, Durga Mandir Marg, Mandoli Road,110032,New Delhi, Shahdara, New Delhi - 110085, Dist.Delhi, Delhi",8069033753,848
Ladies Maternity Night Gown,https://www.indiamart.com/proddetail/ladies-maternity-night-gown-2851646937855.html?pos=165&kwd=maternity sleepwear&tags=||||8228.275|Price|product|||NA|rsf:gd-|-stype:attr=1|qr_nm:gd|res:RC3|com-cf:nl|ptrs:na|ktp:N0|mc:31795|mtp:S|qry_typ:P|lang:en|wc:2|cs:8840|v=4,Arihant Selection,https://www.indiamart.com/arihant-selection-gujarat/?pos=165&kwd=maternity sleepwear&tags=||||8228.275|Price|product|||NA|rsf:gd-|-stype:attr=1|qr_nm:gd|res:RC3|com-cf:nl|ptrs:na|ktp:N0|mc:31795|mtp:S|qry_typ:P|lang:en|wc:2|cs:8840|v=4,False,Usmanpura,Ahmedabad,"136, Ajanta Commercial Centre, Near Income Tax, Ashram Road,, Usmanpura, Ahmedabad - 380009, Dist.Ahmedabad, Gujarat",8047695387,
"Black and White Striped Cotton Maternity Gown, Sleeves: Half Sleeves",https://www.indiamart.com/proddetail/striped-cotton-maternity-gown-11480030230.html?pos=166&kwd=maternity sleepwear&tags=||||8211.142||product|||NA|rsf:gd-|-stype:attr=1|qr_nm:gd|res:RC3|com-cf:nl|ptrs:na|ktp:N0|mc:31795|mtp:S|qry_typ:P|lang:en|wc:2|cs:8840|v=4,Mothers 2 B NX,https://www.indiamart.com/mothers-2bnx/?pos=166&kwd=maternity sleepwear&tags=||||8211.142||product|||NA|rsf:gd-|-stype:attr=1|qr_nm:gd|res:RC3|com-cf:nl|ptrs:na|ktp:N0|mc:31795|mtp:S|qry_typ:P|lang:en|wc:2|cs:8840|v=4,False,Santacruz West,Mumbai,"No. 37, Vazir Chawl, Bhim Wada, SV Road, Santacruz West, Mumbai - 400054, Dist.Mumbai, Maharashtra",8048972477,
Printed Women Cotton Maternity Nightgown,https://www.indiamart.com/proddetail/women-cotton-maternity-nightgown-27015891888.html?pos=167&kwd=maternity sleepwear&tags=||||8706.587|Price|product|||NA|rsf:gd-|-stype:attr=1|qr_nm:gd|res:RC3|com-cf:nl|ptrs:na|ktp:N0|mc:31795|mtp:S|qry_typ:P|lang:en|wc:2|cs:8840|v=4,Thoorigai Textile,https://www.indiamart.com/thoorigai-textile-madurai/?pos=167&kwd=maternity sleepwear&tags=||||8706.587|Price|product|||NA|rsf:gd-|-stype:attr=1|qr_nm:gd|res:RC3|com-cf:nl|ptrs:na|ktp:N0|mc:31795|mtp:S|qry_typ:P|lang:en|wc:2|cs:8840|v=4,False,,Madurai,"No. 1/4, Ground Floor, Avayyar Street, Narimedu, Madurai - 625002, Dist.Madurai, Tamil Nadu",8043891530,
Ladies Rayon Maternity Dress,https://www.indiamart.com/proddetail/ladies-rayon-maternity-dress-27135661873.html?pos=168&kwd=maternity sleepwear&tags=||||8601.347|Price|product|||NA|rsf:gd-|-stype:attr=1|qr_nm:gd|res:RC3|com-cf:nl|ptrs:na|ktp:N0|mc:31795|mtp:S|qry_typ:P|lang:en|wc:2|cs:8840|v=4,Click Jaipur,https://www.indiamart.com/clkjaipur-photoshootwithmodeladvertisng/?pos=168&kwd=maternity sleepwear&tags=||||8601.347|Price|product|||NA|rsf:gd-|-stype:attr=1|qr_nm:gd|res:RC3|com-cf:nl|ptrs:na|ktp:N0|mc:31795|mtp:S|qry_typ:P|lang:en|wc:2|cs:8840|v=4,False,Sanganer,Jaipur,"House No 82-a Sashtri Nagar Meena Wala Sirsi Road Jaipur, Sanganer, Jaipur - 302034, Dist.Jaipur, Rajasthan",8043804680,
"Multicolor Cotton Ladies Printed Maternity Gown, Cap Sleeve",https://www.indiamart.com/proddetail/ladies-printed-maternity-gown-26560851030.html?pos=169&kwd=maternity sleepwear&tags=||||8636.125|Price|product|||NA|rsf:gd-|-stype:attr=1|qr_nm:gd|res:RC3|com-cf:nl|ptrs:na|ktp:N0|mc:31795|mtp:S|qry_typ:P|lang:en|wc:2|cs:8840|v=4,Lovely Garments,https://www.indiamart.com/lovely-garments-dhalavoipuram/?pos=169&kwd=maternity sleepwear&tags=||||8636.125|Price|product|||NA|rsf:gd-|-stype:attr=1|qr_nm:gd|res:RC3|com-cf:nl|ptrs:na|ktp:N0|mc:31795|mtp:S|qry_typ:P|lang:en|wc:2|cs:8840|v=4,False,,Dhalavoipuram,"54/Q, Near City Union Bank, Puthur Road, Chettiyarpatti, Virudhunagar,, Dhalavoipuram - 626122, Tamil Nadu",8048210986,
Cotton Printed Pink Floral Maternity Gown,https://www.indiamart.com/proddetail/pink-floral-maternity-gown-24765489488.html?pos=170&kwd=maternity sleepwear&tags=||||8571.301||product|||NA|rsf:gd-|-stype:attr=1|qr_nm:gd|res:RC3|com-cf:nl|ptrs:na|ktp:N0|mc:31795|mtp:S|qry_typ:P|lang:en|wc:2|cs:8840|v=4,Mommies,https://www.indiamart.com/mommies-thiruvananthapuram/?pos=170&kwd=maternity sleepwear&tags=||||8571.301||product|||NA|rsf:gd-|-stype:attr=1|qr_nm:gd|res:RC3|com-cf:nl|ptrs:na|ktp:N0|mc:31795|mtp:S|qry_typ:P|lang:en|wc:2|cs:8840|v=4,False,Kowdiar,Thiruvananthapuram,"TC 24/3088, Dotspace Business Center, Ushasandya Building Devasom Board Road, Kowdiar, Thiruvananthapuram - 695003, Dist.Thiruvananthapuram, Kerala",8048268238,
Women's Maternity Printed Maternity Night Dress In Light Green Cotton,https://www.indiamart.com/proddetail/women-s-maternity-printed-maternity-night-dress-in-light-green-cotton-2851787457455.html?pos=171&kwd=maternity sleepwear&tags=||||8752.144|Price|product|||NA|rsf:gd-|-stype:attr=1|qr_nm:gd|res:RC3|com-cf:nl|ptrs:na|ktp:N0|mc:31795|mtp:S|qry_typ:P|lang:en|wc:2|cs:8840|v=4,Pal Fashion World,https://www.indiamart.com/palfashionworld/?pos=171&kwd=maternity sleepwear&tags=||||8752.144|Price|product|||NA|rsf:gd-|-stype:attr=1|qr_nm:gd|res:RC3|com-cf:nl|ptrs:na|ktp:N0|mc:31795|mtp:S|qry_typ:P|lang:en|wc:2|cs:8840|v=4,False,Ali,New Delhi,"E-146/A Kh.281, Aali Vihar PL-446 T.No. SDR Badarpur, South East Delhi, Ali, New Delhi - 110076, Dist.Delhi, Delhi",7942875026,
"Green Rayon Printed Maternity Gown, Size: Large",https://www.indiamart.com/proddetail/green-rayon-printed-maternity-gown-2850405095855.html?pos=172&kwd=maternity sleepwear&tags=||||8601.347|Price|product|||NA|rsf:gd-|-stype:attr=1|qr_nm:gd|res:RC3|com-cf:nl|ptrs:na|ktp:N0|mc:31795|mtp:S|qry_typ:P|lang:en|wc:2|cs:8840|v=4,Spwala,https://www.indiamart.com/spwala/?pos=172&kwd=maternity sleepwear&tags=||||8601.347|Price|product|||NA|rsf:gd-|-stype:attr=1|qr_nm:gd|res:RC3|com-cf:nl|ptrs:na|ktp:N0|mc:31795|mtp:S|qry_typ:P|lang:en|wc:2|cs:8840|v=4,False,,Jaipur,"Plot No 59B, Badi Ka Bas Saganer, Saraswati Vihar Vistar, Jaipur - 302022, Dist.Jaipur, Rajasthan",7942819534,
"Grey Round Neck Maternity Nighty, Sleeves: Half Sleeve",https://www.indiamart.com/proddetail/grey-round-neck-maternity-nighty-26225536591.html?pos=173&kwd=maternity sleepwear&tags=||||8601.347||product|||NA|rsf:gd-|-stype:attr=1|qr_nm:gd|res:RC3|com-cf:nl|ptrs:na|ktp:N0|mc:31795|mtp:S|qry_typ:P|lang:en|wc:2|cs:8840|v=4,J.P. Creations,https://www.indiamart.com/jpcreationsjaipur/?pos=173&kwd=maternity sleepwear&tags=||||8601.347||product|||NA|rsf:gd-|-stype:attr=1|qr_nm:gd|res:RC3|com-cf:nl|ptrs:na|ktp:N0|mc:31795|mtp:S|qry_typ:P|lang:en|wc:2|cs:8840|v=4,False,,Jaipur,"Bawadi Ka Bass, Teja Ji Ka Bada, Sanganer, Jaipur - 302029, Dist.Jaipur, Rajasthan",8043850924,
"Multi Colour Maternity Gown Size M,L,Xl,Xxl",https://www.indiamart.com/proddetail/multi-colour-maternity-gown-size-m-l-xl-xxl-2850904234855.html?pos=174&kwd=maternity sleepwear&tags=||||8601.347|Price|product|||NA|rsf:gd-|-stype:attr=1|qr_nm:gd|res:RC3|com-cf:nl|ptrs:na|ktp:N0|mc:31795|mtp:S|qry_typ:P|lang:en|wc:2|cs:8840|v=4,Yash Enterprises,https://www.indiamart.com/yashenterprises-156603237/?pos=174&kwd=maternity sleepwear&tags=||||8601.347|Price|product|||NA|rsf:gd-|-stype:attr=1|qr_nm:gd|res:RC3|com-cf:nl|ptrs:na|ktp:N0|mc:31795|mtp:S|qry_typ:P|lang:en|wc:2|cs:8840|v=4,False,,Jaipur,"sanagner, Jaipur - 302029, Dist.Jaipur, Rajasthan",8048372705,502
"Western Satin Gujri Cotton Front Open Maternity Gown, Size: Medium",https://www.indiamart.com/proddetail/gujri-cotton-front-open-maternity-gown-22227619473.html?pos=175&kwd=maternity sleepwear&tags=||||8228.275|Price|product|||NA|rsf:gd-|-stype:attr=1|qr_nm:gd|res:RC3|com-cf:nl|ptrs:na|ktp:N0|mc:31795|mtp:S|qry_typ:P|lang:en|wc:2|cs:8840|v=4,Riddhi Siddhi Textiles,https://www.indiamart.com/riddhisiddhi-textiles/?pos=175&kwd=maternity sleepwear&tags=||||8228.275|Price|product|||NA|rsf:gd-|-stype:attr=1|qr_nm:gd|res:RC3|com-cf:nl|ptrs:na|ktp:N0|mc:31795|mtp:S|qry_typ:P|lang:en|wc:2|cs:8840|v=4,False,Kankaria,Ahmedabad,"A 57, Ground Floor, Sumel Business Park 2, Kankaria, Ahmedabad - 380022, Dist.Ahmedabad, Gujarat",8048372739,733
MomToBe Women's Rayon Fire Yellow Maternity/Feeding/Nursing Maternity Dress,https://www.indiamart.com/proddetail/momtobe-women-s-rayon-fire-yellow-maternity-feeding-nursing-maternity-dress-24869499688.html?pos=176&kwd=maternity sleepwear&tags=||||8211.142|Price|product|||NA|rsf:gd-|-stype:attr=1|qr_nm:gd|res:RC3|com-cf:nl|ptrs:na|ktp:N0|mc:31795|mtp:S|qry_typ:P|lang:en|wc:2|cs:8840|v=4,Classapart Apparels LLP,https://www.indiamart.com/class-apart-apparels/?pos=176&kwd=maternity sleepwear&tags=||||8211.142|Price|product|||NA|rsf:gd-|-stype:attr=1|qr_nm:gd|res:RC3|com-cf:nl|ptrs:na|ktp:N0|mc:31795|mtp:S|qry_typ:P|lang:en|wc:2|cs:8840|v=4,False,Malad West,Mumbai,"209, Nirmand Industrial Estate, Link Road, Malad West, Mumbai - 400064, Dist.Mumbai, Maharashtra",8043888259,
"HOSIERY Printed A PLUS NIGHTWEAR LADIES MATERNITY & FEEDING GOWN, 3/4 Sleeve",https://www.indiamart.com/proddetail/a-plus-nightwear-ladies-maternity-feeding-gown-2850113392691.html?pos=177&kwd=maternity sleepwear&tags=||||8228.275|Price|product|||NA|rsf:gd-|-stype:attr=1|qr_nm:gd|res:RC3|com-cf:nl|ptrs:na|ktp:N0|mc:31795|mtp:S|qry_typ:P|lang:en|wc:2|cs:8840|v=4,Shree Balaji Expo,https://www.indiamart.com/shreebalajiexpo/?pos=177&kwd=maternity sleepwear&tags=||||8228.275|Price|product|||NA|rsf:gd-|-stype:attr=1|qr_nm:gd|res:RC3|com-cf:nl|ptrs:na|ktp:N0|mc:31795|mtp:S|qry_typ:P|lang:en|wc:2|cs:8840|v=4,False,,Ahmedabad,"SF-253, Block-D, Second Floor, Sumel-6, Jupiter Mill Compound,Dudheshwar Gujarat, Ahmedabad - 380004, Dist.Ahmedabad, Gujarat",8043891771,
Black Floral Printed 100% Soft Cotton Zipless Maternity Maxi,https://www.indiamart.com/proddetail/black-floral-printed-100-soft-cotton-zipless-maternity-maxi-2854102896233.html?pos=178&kwd=maternity sleepwear&tags=||||8752.144|Price|product|||NA|rsf:gd-|-stype:attr=1|qr_nm:gd|res:RC3|com-cf:nl|ptrs:na|ktp:N0|mc:31795|mtp:S|qry_typ:P|lang:en|wc:2|cs:8840|v=4,HOZ,https://www.indiamart.com/hoz-delhi/?pos=178&kwd=maternity sleepwear&tags=||||8752.144|Price|product|||NA|rsf:gd-|-stype:attr=1|qr_nm:gd|res:RC3|com-cf:nl|ptrs:na|ktp:N0|mc:31795|mtp:S|qry_typ:P|lang:en|wc:2|cs:8840|v=4,False,,Delhi,"Bijwasan 369, Karta Ram Complex, Bijwasin Main Road, Bijwasin, Delhi, Delhi - 110061, Dist.Delhi, Delhi",,
"Printed Full Length Ethnic Cotton Feeding Nighty, Stitched",https://www.indiamart.com/proddetail/printed-full-length-ethnic-cotton-feeding-nighty-25381939062.html?pos=179&kwd=maternity sleepwear&tags=||||8242.731|Price|product|||NA|rsf:gd-|-stype:attr=1|qr_nm:gd|res:RC3|com-cf:nl|ptrs:na|ktp:N0|mc:31795|mtp:S|qry_typ:P|lang:en|wc:2|cs:8840|v=4,Dhanlaxmi Traders,https://www.indiamart.com/dhanlaxmitradersulhasnagar/?pos=179&kwd=maternity sleepwear&tags=||||8242.731|Price|product|||NA|rsf:gd-|-stype:attr=1|qr_nm:gd|res:RC3|com-cf:nl|ptrs:na|ktp:N0|mc:31795|mtp:S|qry_typ:P|lang:en|wc:2|cs:8840|v=4,False,,Ulhasnagar,"Shop No 93, Dhanlaxmi Traders, Doodh Naka, Gown Bazar, Near Soni Gown Centre Thane, Ulhasnagar - 421005, Dist.Thane, Maharashtra",8048271196,
"Red Cotton Feeding Nighty, Size: Small, Sleeves: Half Sleeve",https://www.indiamart.com/proddetail/red-cotton-feeding-nighty-23154511788.html?pos=180&kwd=maternity sleepwear&tags=||||8319.425|Price|product|||NA|rsf:gd-|-stype:attr=1|qr_nm:gd|res:RC3|com-cf:nl|ptrs:na|ktp:N0|mc:31795|mtp:S|qry_typ:P|lang:en|wc:2|cs:8840|v=4,Roop Shree Tex,https://www.indiamart.com/roop-shree-tex/?pos=180&kwd=maternity sleepwear&tags=||||8319.425|Price|product|||NA|rsf:gd-|-stype:attr=1|qr_nm:gd|res:RC3|com-cf:nl|ptrs:na|ktp:N0|mc:31795|mtp:S|qry_typ:P|lang:en|wc:2|cs:8840|v=4,False,,Jodhpur,"G 571 B, Mia, Basni II Phase, Jodhpur - 342005, Dist.Jodhpur, Rajasthan",8047814430,
Feeding Nighty,https://www.indiamart.com/proddetail/feeding-nighty-12465183148.html?pos=181&kwd=maternity sleepwear&tags=||||8752.144||product|||NA|rsf:gd-|-stype:attr=1|qr_nm:gd|res:RC3|com-cf:nl|ptrs:na|ktp:N0|mc:31795|mtp:S|qry_typ:P|lang:en|wc:2|cs:8840|v=4,Dehra Traders,https://www.indiamart.com/dehratraders/?pos=181&kwd=maternity sleepwear&tags=||||8752.144||product|||NA|rsf:gd-|-stype:attr=1|qr_nm:gd|res:RC3|com-cf:nl|ptrs:na|ktp:N0|mc:31795|mtp:S|qry_typ:P|lang:en|wc:2|cs:8840|v=4,False,Shahdara,New Delhi,"No. 9/6642, Nehru Gali, Gandhi Nagar, Shahdara, New Delhi - 110031, Dist.Delhi, Delhi",8048371935,419
"For N Beauty Women's Maternity/Feeding/Nursing Nighty - (Bust Size 38"" / Large Size) nightdress",https://www.indiamart.com/proddetail/for-n-beauty-women-s-maternity-feeding-nursing-nighty-bust-size-38-large-size-nightdress-2849107427791.html?pos=182&kwd=maternity sleepwear&tags=||||8546.662|Price|product|||NA|rsf:gd-|-stype:attr=1|qr_nm:gd|res:RC3|com-cf:nl|ptrs:na|ktp:N0|mc:31795|mtp:S|qry_typ:P|lang:en|wc:2|cs:8840|v=4,Bhavika Creation,https://www.indiamart.com/bhavika-creation-deoli/?pos=182&kwd=maternity sleepwear&tags=||||8546.662|Price|product|||NA|rsf:gd-|-stype:attr=1|qr_nm:gd|res:RC3|com-cf:nl|ptrs:na|ktp:N0|mc:31795|mtp:S|qry_typ:P|lang:en|wc:2|cs:8840|v=4,False,,Deoli,"8 Rashing Kunj, Phed Office Ke Pass, Behind Bus Stand Deoli, Deoli - 304804, Rajasthan",8047546596,
Domil Hosiery Feeding Nighty,https://www.indiamart.com/proddetail/domil-hosiery-feeding-nighty-2853454526091.html?pos=183&kwd=maternity sleepwear&tags=||||9045.955|Price|product|||NA|rsf:gd-|-stype:attr=1|qr_nm:gd|res:RC3|com-cf:nl|ptrs:na|ktp:N0|mc:31795|mtp:S|qry_typ:P|lang:en|wc:2|cs:8840|v=4,New Tanmay Traders,https://www.indiamart.com/new-tanmay-traders/?pos=183&kwd=maternity sleepwear&tags=||||9045.955|Price|product|||NA|rsf:gd-|-stype:attr=1|qr_nm:gd|res:RC3|com-cf:nl|ptrs:na|ktp:N0|mc:31795|mtp:S|qry_typ:P|lang:en|wc:2|cs:8840|v=4,False,,Kanpur,"111A/385 ASHOK NAGAR KANPUR Kanpur Nagar Uttar Pradesh, Kanpur - 208012, Uttar Pradesh",8069728247,204
Organic Long John (Sleep Wear),,Made By India,https://www.indiamart.com/made-by-india/?pos=184&kwd=maternity sleepwear&tags=||||8788.382||product|||NA|rsf:gd-|-stype:attr=1|qr_nm:gd|res:RC3|com-cf:nl|ptrs:na|ktp:N0|mc:31795|mtp:S|qry_typ:P|lang:en|wc:2|cs:8840|v=4,False,Unit I,Greater Noida,"Plot 99,1, Ecotech 3,UdyogKendra -2 Unit- I, Plot No. 99, Udhyog Kendra Extension- 2, Ecotech-3,201308,Greater Noida, Unit I, Greater Noida - 201306, Dist.Gautam Budh Nagar, Uttar Pradesh",8062245031,145
"Half N Short Ladies Night Wear Cotton Nighty, Size: Large",https://www.indiamart.com/proddetail/cotton-nighty-23212098273.html?pos=185&kwd=maternity sleepwear&tags=||||8235.633|Price|product|||NA|rsf:gd-|-stype:attr=1|qr_nm:gd|res:RC3|com-cf:nl|ptrs:na|ktp:N0|mc:31795|mtp:S|qry_typ:P|lang:en|wc:2|cs:8840|v=4,Maha Kesari Mills,https://www.indiamart.com/maha-kesari-mills/?pos=185&kwd=maternity sleepwear&tags=||||8235.633|Price|product|||NA|rsf:gd-|-stype:attr=1|qr_nm:gd|res:RC3|com-cf:nl|ptrs:na|ktp:N0|mc:31795|mtp:S|qry_typ:P|lang:en|wc:2|cs:8840|v=4,False,Khed Road,Balotra,"Building No. 5, Gali No. 6 Dangri Timber Galli Ind Area, Khed Road, Balotra - 344022, Dist.Barmer, Rajasthan",8048954743,
"Printed Ladies Cotton Feeding Nighty, Size: Free Size, Sleeves: Half Sleeve",https://www.indiamart.com/proddetail/ladies-cotton-feeding-nighty-22078476533.html?pos=186&kwd=maternity sleepwear&tags=||||8601.347|Price|product|||NA|rsf:gd-|-stype:attr=1|qr_nm:gd|res:RC3|com-cf:nl|ptrs:na|ktp:N0|mc:31795|mtp:S|qry_typ:P|lang:en|wc:2|cs:8840|v=4,Rashmi Creation,https://www.indiamart.com/rashmi-creation-sanganer/?pos=186&kwd=maternity sleepwear&tags=||||8601.347|Price|product|||NA|rsf:gd-|-stype:attr=1|qr_nm:gd|res:RC3|com-cf:nl|ptrs:na|ktp:N0|mc:31795|mtp:S|qry_typ:P|lang:en|wc:2|cs:8840|v=4,False,Jaipur Rajasthan,Jaipur,"Plot no. 52, opp. Bhomiya ji ka Mandir, Jem Vihar, Sanganer, Jaipur Rajasthan, Jaipur - 302029, Dist.Jaipur, Rajasthan",8047852393,
Full Length Printed Ladies Feeding Nighty,https://www.indiamart.com/proddetail/ladies-feeding-nighty-21046029673.html?pos=187&kwd=maternity sleepwear&tags=||||8786.56||product|||NA|rsf:gd-|-stype:attr=1|qr_nm:gd|res:RC3|com-cf:nl|ptrs:na|ktp:N0|mc:31795|mtp:S|qry_typ:P|lang:en|wc:2|cs:8840|v=4,Rajaram Garments,https://www.indiamart.com/rajaramgarmentshyderabad/?pos=187&kwd=maternity sleepwear&tags=||||8786.56||product|||NA|rsf:gd-|-stype:attr=1|qr_nm:gd|res:RC3|com-cf:nl|ptrs:na|ktp:N0|mc:31795|mtp:S|qry_typ:P|lang:en|wc:2|cs:8840|v=4,False,Bahadurpally,Hyderabad,"4-24/5, Opposite South Indian Bank Vayuputra Colony, Bahadurpalli, Bahadurpally, Hyderabad - 500043, Dist.Hyderabad, Telangana",8047527995,
"Full Length Cotton Ladies Printed Gujri Feeding Nighty, Free Size",https://www.indiamart.com/proddetail/ladies-printed-gujri-feeding-nighty-23942162048.html?pos=188&kwd=maternity sleepwear&tags=||||8559.269|Price|product|||NA|rsf:gd-|-stype:attr=1|qr_nm:gd|res:RC3|com-cf:nl|ptrs:na|ktp:N0|mc:31795|mtp:S|qry_typ:P|lang:en|wc:2|cs:8840|v=4,Mahajan Clothing,https://www.indiamart.com/mahajan-clothing/?pos=188&kwd=maternity sleepwear&tags=||||8559.269|Price|product|||NA|rsf:gd-|-stype:attr=1|qr_nm:gd|res:RC3|com-cf:nl|ptrs:na|ktp:N0|mc:31795|mtp:S|qry_typ:P|lang:en|wc:2|cs:8840|v=4,False,Near Global Heights School,Indore,"3293 E Sudama Nagar, Near Global Heights School, Indore - 452009, Dist.Indore, Madhya Pradesh",8048361380,191
Maternity Cotton Hosiery Ladies Under Garments And Nightwear,https://www.indiamart.com/proddetail/ladies-under-garments-and-nightwear-21071354855.html?pos=189&kwd=maternity sleepwear&tags=||||8047.7524||product|||NA|rsf:gd-|-stype:attr=1|qr_nm:gd|res:RC3|com-cf:nl|ptrs:na|ktp:N0|mc:31795|mtp:S|qry_typ:P|lang:en|wc:2|cs:8840|v=4,Paras Hosiery,https://www.indiamart.com/paras-hosiery-morbi/?pos=189&kwd=maternity sleepwear&tags=||||8047.7524||product|||NA|rsf:gd-|-stype:attr=1|qr_nm:gd|res:RC3|com-cf:nl|ptrs:na|ktp:N0|mc:31795|mtp:S|qry_typ:P|lang:en|wc:2|cs:8840|v=4,False,Ravarpar Road,Morbi,"Vasant Plot, Near Maheshwari Clinic, Ravarpar Road, Morbi, Dist.Rajkot, Gujarat",8069416000,277
"Half Sleeve Ladies Night Wear Cotton Gujri Nighties, Size: Large",https://www.indiamart.com/proddetail/cotton-gujri-nighties-22586325012.html?pos=190&kwd=maternity sleepwear&tags=||||8706.587|Price|product|||NA|rsf:gd-|-stype:attr=1|qr_nm:gd|res:RC3|com-cf:nl|ptrs:na|ktp:N0|mc:31795|mtp:S|qry_typ:P|lang:en|wc:2|cs:8840|v=4,Vee EX Fabrics,https://www.indiamart.com/veeex-fabrics/?pos=190&kwd=maternity sleepwear&tags=||||8706.587|Price|product|||NA|rsf:gd-|-stype:attr=1|qr_nm:gd|res:RC3|com-cf:nl|ptrs:na|ktp:N0|mc:31795|mtp:S|qry_typ:P|lang:en|wc:2|cs:8840|v=4,False,Bethaniyapuram BASTIN NAGAR,Madurai,"No. 163/4, Church Street, Bastin Nagar Mudakkusalai, Opposite To Bell Jumbo Hotel, Bethaniyapuram BASTIN NAGAR, Madurai - 625016, Dist.Madurai, Tamil Nadu",8069013484,150
"Printed Cotton Mother Nighty, Yellow",https://www.indiamart.com/proddetail/cotton-mother-nighty-23049156533.html?pos=191&kwd=maternity sleepwear&tags=||||8235.633|Price|product|||NA|rsf:gd-|-stype:attr=1|qr_nm:gd|res:RC3|com-cf:nl|ptrs:na|ktp:N0|mc:31795|mtp:S|qry_typ:P|lang:en|wc:2|cs:8840|v=4,Mukul Textile Mills,https://www.indiamart.com/mukul-textile-mills/?pos=191&kwd=maternity sleepwear&tags=||||8235.633|Price|product|||NA|rsf:gd-|-stype:attr=1|qr_nm:gd|res:RC3|com-cf:nl|ptrs:na|ktp:N0|mc:31795|mtp:S|qry_typ:P|lang:en|wc:2|cs:8840|v=4,False,,Balotra,"Shri Ram Process House, Office No.2 M/s Mukul Textile Mills Industrial Area E-89a, 1st Phase, Balotra - 344022, Dist.Barmer, Rajasthan",8046063703,
Girl Kids Collar Night Suit,https://www.indiamart.com/proddetail/kids-collar-night-suit-24481559162.html?pos=192&kwd=maternity sleepwear&tags=||||8228.275|Price|product|||NA|rsf:gd-|-stype:attr=1|qr_nm:gd|res:RC3|com-cf:nl|ptrs:na|ktp:N0|mc:31795|mtp:S|qry_typ:P|lang:en|wc:2|cs:8840|v=4,Kalavati Fashion,https://www.indiamart.com/kalavatifashionahmedabad/?pos=192&kwd=maternity sleepwear&tags=||||8228.275|Price|product|||NA|rsf:gd-|-stype:attr=1|qr_nm:gd|res:RC3|com-cf:nl|ptrs:na|ktp:N0|mc:31795|mtp:S|qry_typ:P|lang:en|wc:2|cs:8840|v=4,False,Sherkotda,Ahmedabad,"A-2010 And A-2011, 2nd Floor, City Center-2, Opp Arya Samaj Mandir, Raipur Kankaria Road, Sherkotda, Ahmedabad - 380001, Dist.Ahmedabad, Gujarat",7942540677,
Blue Floral Cotton Printed Nightgown,https://www.indiamart.com/proddetail/blue-floral-cotton-printed-nightgown-27570455088.html?pos=193&kwd=maternity sleepwear&tags=||||8668.838|Price|product|||NA|rsf:gd-|-stype:attr=1|qr_nm:gd|res:RC3|com-cf:nl|ptrs:na|ktp:N0|mc:31795|mtp:S|qry_typ:P|lang:en|wc:2|cs:8840|v=4,Jayaraman Textiles,https://www.indiamart.com/jayaramantextiles/?pos=193&kwd=maternity sleepwear&tags=||||8668.838|Price|product|||NA|rsf:gd-|-stype:attr=1|qr_nm:gd|res:RC3|com-cf:nl|ptrs:na|ktp:N0|mc:31795|mtp:S|qry_typ:P|lang:en|wc:2|cs:8840|v=4,False,,Erode,"128/1, Brough Road, Erode - 638001, Dist.Erode, Tamil Nadu",7942671260,
Cotton Embroidered Nighty,https://www.indiamart.com/proddetail/cotton-embroidered-nighty-2851033280712.html?pos=194&kwd=maternity sleepwear&tags=||||9111.322|Price|product|||NA|rsf:gd-|-stype:attr=1|qr_nm:gd|res:RC3|com-cf:nl|ptrs:na|ktp:N0|mc:31795|mtp:S|qry_typ:P|lang:en|wc:2|cs:8840|v=4,Malhotra Products,https://www.indiamart.com/malhotraproducts/?pos=194&kwd=maternity sleepwear&tags=||||9111.322|Price|product|||NA|rsf:gd-|-stype:attr=1|qr_nm:gd|res:RC3|com-cf:nl|ptrs:na|ktp:N0|mc:31795|mtp:S|qry_typ:P|lang:en|wc:2|cs:8840|v=4,False,,Bhilai,"B-21, Uttar Gangotri, Durg, Bhilai - 490023, Dist.Durg, Chhattisgarh",8047664331,
Pink Cotton Feeding Nighty,https://www.indiamart.com/proddetail/cotton-feeding-nighty-21790101633.html?pos=195&kwd=maternity sleepwear&tags=||||8891.556|Price|product|||NA|rsf:gd-|-stype:attr=1|qr_nm:gd|res:RC3|com-cf:nl|ptrs:na|ktp:N0|mc:31795|mtp:S|qry_typ:P|lang:en|wc:2|cs:8840|v=4,Sri Revathy Enterprises,https://www.indiamart.com/srirevathyenterprises/?pos=195&kwd=maternity sleepwear&tags=||||8891.556|Price|product|||NA|rsf:gd-|-stype:attr=1|qr_nm:gd|res:RC3|com-cf:nl|ptrs:na|ktp:N0|mc:31795|mtp:S|qry_typ:P|lang:en|wc:2|cs:8840|v=4,False,Sai Ganesh Nagar,Kanchipuram,"87 17th cross street Sai Ganesh Nagar, Jalladianpet, Sai Ganesh Nagar, Kanchipuram - 600100, Dist.Kanchipuram, Tamil Nadu",8046076815,
Feeding Cotton Nightgown,https://www.indiamart.com/proddetail/feeding-cotton-nightgown-23928580362.html?pos=196&kwd=maternity sleepwear&tags=||||8206.45|Price|product|||NA|rsf:gd-|-stype:attr=1|qr_nm:gd|res:RC3|com-cf:nl|ptrs:na|ktp:N0|mc:31795|mtp:S|qry_typ:P|lang:en|wc:2|cs:8840|v=4,Vinit Fab,https://www.indiamart.com/vinitfab/?pos=196&kwd=maternity sleepwear&tags=||||8206.45|Price|product|||NA|rsf:gd-|-stype:attr=1|qr_nm:gd|res:RC3|com-cf:nl|ptrs:na|ktp:N0|mc:31795|mtp:S|qry_typ:P|lang:en|wc:2|cs:8840|v=4,False,,Palghar,"Shop No 103,104,105, 1st Floor, Gosaliya Park Co Op Society, Tarapur Road, Boisar, Palghar - 401501, Dist.Thane, Maharashtra",8069023895,610
Nighties Feeding Nighty,https://www.indiamart.com/proddetail/feeding-nighty-19733685512.html?pos=197&kwd=maternity sleepwear&tags=||||8954.051|Price|product|||NA|rsf:gd-|-stype:attr=1|qr_nm:gd|res:RC3|com-cf:nl|ptrs:na|ktp:N0|mc:31795|mtp:S|qry_typ:P|lang:en|wc:2|cs:8840|v=4,Jis Boutique,https://www.indiamart.com/jisboutique/?pos=197&kwd=maternity sleepwear&tags=||||8954.051|Price|product|||NA|rsf:gd-|-stype:attr=1|qr_nm:gd|res:RC3|com-cf:nl|ptrs:na|ktp:N0|mc:31795|mtp:S|qry_typ:P|lang:en|wc:2|cs:8840|v=4,False,Oragadam,Chennai,"No. 5, Venkateswara Street, Lenin Nagar Extension, Oragadam, Chennai - 600053, Dist.Chennai, Tamil Nadu",8048372760,803
Printed Sky Blue Half Sleeve Cotton Ladies Nightgown,https://www.indiamart.com/proddetail/sky-blue-half-sleeve-cotton-ladies-nightgown-2851771740455.html?pos=198&kwd=maternity sleepwear&tags=||||8601.347|Price|product|||NA|rsf:gd-|-stype:attr=1|qr_nm:gd|res:RC3|com-cf:nl|ptrs:na|ktp:N0|mc:31795|mtp:S|qry_typ:P|lang:en|wc:2|cs:8840|v=4,Shri Shyam Prints,https://www.indiamart.com/shrishyam-prints-jaipur/?pos=198&kwd=maternity sleepwear&tags=||||8601.347|Price|product|||NA|rsf:gd-|-stype:attr=1|qr_nm:gd|res:RC3|com-cf:nl|ptrs:na|ktp:N0|mc:31795|mtp:S|qry_typ:P|lang:en|wc:2|cs:8840|v=4,False,Shri Rampura,Jaipur,"Bramahano Ka Mohalla, Sanganer,, Shri Rampura, Jaipur - 302029, Dist.Jaipur, Rajasthan",7942875123,
"Cotton Embroidered Embroidery Work Nighty, XL,XXL",https://www.indiamart.com/proddetail/embroidery-work-nighty-22104382048.html?pos=199&kwd=maternity sleepwear&tags=||||8242.731|Price|product|||NA|rsf:gd-|-stype:attr=1|qr_nm:gd|res:RC3|com-cf:nl|ptrs:na|ktp:N0|mc:31795|mtp:S|qry_typ:P|lang:en|wc:2|cs:8840|v=4,Mansha Enterprise,https://www.indiamart.com/manshaenterprises/?pos=199&kwd=maternity sleepwear&tags=||||8242.731|Price|product|||NA|rsf:gd-|-stype:attr=1|qr_nm:gd|res:RC3|com-cf:nl|ptrs:na|ktp:N0|mc:31795|mtp:S|qry_typ:P|lang:en|wc:2|cs:8840|v=4,False,Ulhasnagar,Ulhasnagar,"ON PLOT OPP B K NO 1920,SECTION 40, ulhasnagar,ULHASNAGAR 326 C, Old Post Office Lane, Mangaldas Market.,400002,Mumbai, Ulhasnagar, Ulhasnagar - 421005, Dist.Thane, Maharashtra",8048371757,934
"Women Printed Cotton Feeding Nightgown, Half Sleeve",https://www.indiamart.com/proddetail/women-printed-cotton-feeding-nightgown-2853383692633.html?pos=200&kwd=maternity sleepwear&tags=||||8752.144|Price|product|||NA|rsf:gd-|-stype:attr=1|qr_nm:gd|res:RC3|com-cf:nl|ptrs:na|ktp:N0|mc:31795|mtp:S|qry_typ:P|lang:en|wc:2|cs:8840|v=4,Malhotra Garments,https://www.indiamart.com/malhotra-garments-newdelhi/?pos=200&kwd=maternity sleepwear&tags=||||8752.144|Price|product|||NA|rsf:gd-|-stype:attr=1|qr_nm:gd|res:RC3|com-cf:nl|ptrs:na|ktp:N0|mc:31795|mtp:S|qry_typ:P|lang:en|wc:2|cs:8840|v=4,False,Gandhi Nagar,New Delhi,"1230, Subhash Road, Gandhi Nagar, Gandhi Nagar, New Delhi - 110031, Dist.Delhi, Delhi",7949224256,
Manufacturer of Women Labour/Delivery/Maternity Nursing gowns for Hospital Breastfeeding dresses,https://www.indiamart.com/proddetail/manufacturer-of-women-labour-delivery-maternity-nursing-gowns-for-hospital-breastfeeding-dresses-2848956450491.html?pos=201&kwd=maternity sleepwear&tags=||||8752.144|Price|product|||NA|rsf:gd-|-stype:attr=1|qr_nm:gd|res:RC3|com-cf:nl|ptrs:na|ktp:N0|mc:31795|mtp:S|qry_typ:P|lang:en|wc:2|cs:8840|v=4,Saanvi Inc.,https://www.indiamart.com/saanviinc/?pos=201&kwd=maternity sleepwear&tags=||||8752.144|Price|product|||NA|rsf:gd-|-stype:attr=1|qr_nm:gd|res:RC3|com-cf:nl|ptrs:na|ktp:N0|mc:31795|mtp:S|qry_typ:P|lang:en|wc:2|cs:8840|v=4,False,,New Delhi,"A-802, Ground Floor, Rohtak Road, Opposite Udyog Nagar Metro Station, Gate No. 1, New Delhi - 110041, Dist.Delhi, Delhi",8069196715,748
Printed Hosiery Cotton Maternity Women's Nursing Feeding Nightwear With Zipper.,https://www.indiamart.com/proddetail/printed-hosiery-cotton-maternity-women-s-nursing-feeding-nightwear-with-zipper-2850480428791.html?pos=202&kwd=maternity sleepwear&tags=||||8579.528|Price|product|||NA|rsf:gd-|-stype:attr=1|qr_nm:gd|res:RC3|com-cf:nl|ptrs:na|ktp:N0|mc:31795|mtp:S|qry_typ:P|lang:en|wc:2|cs:8840|v=4,Shiva Enterprises,https://www.indiamart.com/shiva-enterprises-rajasthan/?pos=202&kwd=maternity sleepwear&tags=||||8579.528|Price|product|||NA|rsf:gd-|-stype:attr=1|qr_nm:gd|res:RC3|com-cf:nl|ptrs:na|ktp:N0|mc:31795|mtp:S|qry_typ:P|lang:en|wc:2|cs:8840|v=4,False,,Jhunjhunu,"H.No. 217, Dhani Firaswali, Kankariya, Jhunjhunu - 333053, Dist.Jhujhunu, Rajasthan",7942787666,
MATERNITY XXL COTTON COLLAR NIGHTIES FOR WOMENS (FREE) 100% PURE COTTON DAILY WEAR,https://www.indiamart.com/proddetail/maternity-xxl-cotton-collar-nighties-for-womens-free-100-pure-cotton-daily-wear-2851654132897.html?pos=203&kwd=maternity sleepwear&tags=||||8668.838|Price|product|||NA|rsf:gd-|-stype:attr=1|qr_nm:gd|res:RC3|com-cf:nl|ptrs:na|ktp:N0|mc:31795|mtp:S|qry_typ:P|lang:en|wc:2|cs:8840|v=4,Finito Apparels,https://www.indiamart.com/finitoapparels/?pos=203&kwd=maternity sleepwear&tags=||||8668.838|Price|product|||NA|rsf:gd-|-stype:attr=1|qr_nm:gd|res:RC3|com-cf:nl|ptrs:na|ktp:N0|mc:31795|mtp:S|qry_typ:P|lang:en|wc:2|cs:8840|v=4,False,Veerapampalayam,Erode,"60/37 Veerappan Palayam Pannai Nagar Thindal, Veerapampalayam, Erode - 638012, Dist.Erode, Tamil Nadu",8046063709,
"Maternity Nighty- Cotton- Checks-Short Sleeves, V-Neck, Middi with belt- Black White ( SN1C-172 )",https://www.indiamart.com/proddetail/maternity-nighty-cotton-checks-short-sleeves-v-neck-middi-with-belt-black-white-sn1c-172-2853455046573.html?pos=204&kwd=maternity sleepwear&tags=||||8752.144|Price|product|||NA|rsf:gd-|-stype:attr=1|qr_nm:gd|res:RC3|com-cf:nl|ptrs:na|ktp:N0|mc:31795|mtp:S|qry_typ:P|lang:en|wc:2|cs:8840|v=4,Shopping Joys,https://www.indiamart.com/shoppingjoys-new-delhi/?pos=204&kwd=maternity sleepwear&tags=||||8752.144|Price|product|||NA|rsf:gd-|-stype:attr=1|qr_nm:gd|res:RC3|com-cf:nl|ptrs:na|ktp:N0|mc:31795|mtp:S|qry_typ:P|lang:en|wc:2|cs:8840|v=4,False,,New Delhi,"E 15, Basement, Lajpat Nagar-2, Central Market, Lajpat Nagar II, New Delhi - 110024, Dist.Delhi, Delhi",8047311013,8371
"Cotton Feeding Nighty, Size: XL, Sleeves: Half",https://www.indiamart.com/proddetail/cotton-feeding-nighty-23509551791.html?pos=205&kwd=maternity sleepwear&tags=||||8316.457|Price|product|||NA|rsf:gd-|-stype:attr=1|qr_nm:gd|res:RC3|com-cf:nl|ptrs:na|ktp:N0|mc:31795|mtp:S|qry_typ:P|lang:en|wc:2|cs:8840|v=4,Aaykay Engineers,https://www.indiamart.com/gurugeeta-collection/?pos=205&kwd=maternity sleepwear&tags=||||8316.457|Price|product|||NA|rsf:gd-|-stype:attr=1|qr_nm:gd|res:RC3|com-cf:nl|ptrs:na|ktp:N0|mc:31795|mtp:S|qry_typ:P|lang:en|wc:2|cs:8840|v=4,False,Pawan Nagar,Nashik,"SHOP NO 15,PLOT NO M-91, DATIR MALA, NEAR M I D C, AMBAD,NASHIK N42/AC1/03/03,422009,Nashik, Pawan Nagar, Nashik - 422010, Dist.Nashik, Maharashtra",8048372497,743
"Multicolor Kurti Nighty, Size: Free",https://www.indiamart.com/proddetail/kurti-nighty-2853237289897.html?pos=206&kwd=maternity sleepwear&tags=||||8601.347||product|||NA|rsf:gd-|-stype:attr=1|qr_nm:gd|res:RC3|com-cf:nl|ptrs:na|ktp:N0|mc:31795|mtp:S|qry_typ:P|lang:en|wc:2|cs:8840|v=4,Shree Shyam Enterprises,https://www.indiamart.com/shreeshyamenterprises-80831690/?pos=206&kwd=maternity sleepwear&tags=||||8601.347||product|||NA|rsf:gd-|-stype:attr=1|qr_nm:gd|res:RC3|com-cf:nl|ptrs:na|ktp:N0|mc:31795|mtp:S|qry_typ:P|lang:en|wc:2|cs:8840|v=4,False,Purani Basti,Jaipur,"157, Nursingh Colony, Nandi Area Purani Basti,, Purani Basti, Jaipur - 302001, Dist.Jaipur, Rajasthan",8048372814,201
"Sleepwear Ladies Satin Nighty, Printed, Stitched",https://www.indiamart.com/proddetail/ladies-satin-nighty-25163324097.html?pos=207&kwd=maternity sleepwear&tags=||||8242.731|Price|product|||NA|rsf:gd-|-stype:attr=1|qr_nm:gd|res:RC3|com-cf:nl|ptrs:na|ktp:N0|mc:31795|mtp:S|qry_typ:P|lang:en|wc:2|cs:8840|v=4,Ganesh Traders,https://www.indiamart.com/ganeshtraders-ulhasnagar/?pos=207&kwd=maternity sleepwear&tags=||||8242.731|Price|product|||NA|rsf:gd-|-stype:attr=1|qr_nm:gd|res:RC3|com-cf:nl|ptrs:na|ktp:N0|mc:31795|mtp:S|qry_typ:P|lang:en|wc:2|cs:8840|v=4,False,Thane,Ulhasnagar,"Shop No. 560, Bharat Chowk, Near Police Station,, Thane, Ulhasnagar - 421001, Dist.Thane, Maharashtra",8047309577,
GREEN Feeding Nighty,https://www.indiamart.com/proddetail/feeding-nighty-22437266697.html?pos=208&kwd=maternity sleepwear&tags=||||8226.563|Price|product|||NA|rsf:gd-|-stype:attr=1|qr_nm:gd|res:RC3|com-cf:nl|ptrs:na|ktp:N0|mc:31795|mtp:S|qry_typ:P|lang:en|wc:2|cs:8840|v=4,Vrushali Collection & Vrushali Creation,https://www.indiamart.com/vrushalicollection-navimumbai/?pos=208&kwd=maternity sleepwear&tags=||||8226.563|Price|product|||NA|rsf:gd-|-stype:attr=1|qr_nm:gd|res:RC3|com-cf:nl|ptrs:na|ktp:N0|mc:31795|mtp:S|qry_typ:P|lang:en|wc:2|cs:8840|v=4,False,Koparkhairne,Navi Mumbai,"SHOP NO. 09,,SOMESHWAR CHS, SECTOR - 08, PLOT NO. 05,,NEXT TO AAPLA BAZAR,,AIROLI, NAVI MUMBAI Shop No. 1, Chaitnya Apartment, Plot No. 15 D Sector, 12 D,400705,Navi Mumbai, Koparkhairne, Navi Mumbai - 400708, Dist.Thane, Maharashtra",7942561015,
Ladies Maternity Kurtis,https://www.indiamart.com/proddetail/ladies-maternity-kurtis-2852044234812.html?pos=209&kwd=maternity sleepwear&tags=||||8601.347|Price|product|||NA|rsf:gd-|-stype:attr=1|qr_nm:gd|res:RC3|com-cf:nl|ptrs:na|ktp:N0|mc:31795|mtp:S|qry_typ:P|lang:en|wc:2|cs:8840|v=4,Upma Creations,https://www.indiamart.com/upma-creations/?pos=209&kwd=maternity sleepwear&tags=||||8601.347|Price|product|||NA|rsf:gd-|-stype:attr=1|qr_nm:gd|res:RC3|com-cf:nl|ptrs:na|ktp:N0|mc:31795|mtp:S|qry_typ:P|lang:en|wc:2|cs:8840|v=4,False,,Jaipur,"53,,BHARAT VIHAR B, JAMDOLI ROAD,Jaipur ,302031,, Jaipur - 302031, Dist.Jaipur, Rajasthan",8047311009,5367
"Multicolor LADYMATE ALPINE FEEDING NIGHTY, Size: XL",https://www.indiamart.com/proddetail/ladymate-alpine-feeding-nighty-2850580756591.html?pos=210&kwd=maternity sleepwear&tags=||||8242.731|Price|product|||NA|rsf:gd-|-stype:attr=1|qr_nm:gd|res:RC3|com-cf:nl|ptrs:na|ktp:N0|mc:31795|mtp:S|qry_typ:P|lang:en|wc:2|cs:8840|v=4,Jai Ambe Enterprises,https://www.indiamart.com/jai-ambe-enterprisesmaharashtra/?pos=210&kwd=maternity sleepwear&tags=||||8242.731|Price|product|||NA|rsf:gd-|-stype:attr=1|qr_nm:gd|res:RC3|com-cf:nl|ptrs:na|ktp:N0|mc:31795|mtp:S|qry_typ:P|lang:en|wc:2|cs:8840|v=4,False,,Ulhasnagar,"BK.No.1838 Room No.7, M-Corp, Kalyan, Thane, Ulhasnagar - 421005, Dist.Thane, Maharashtra",7942823892,
