product_title,product_link,company_name,company_link,is_verified_exporter,city_region,city,address_details,phone_number,phone_number_extension
Wood Pulp Maternity Pad For Maternity Home,https://www.indiamart.com/proddetail/maternity-pad-for-maternity-home-2852559787512.html?pos=1&kwd=maternity pads&tags=A||||8307.81|Price|product|||TS|rsf:gd-|-stype:attr=1|qr_nm:gd|res:RC3|com-cf:nl|ptrs:na|ktp:N0|mc:86310|mtp:S|qry_typ:P|lang:en|wc:2|flavl:0-1|cs:9690|v=4,SMILEPAD HYGIENE INDIA PVT. LTD.,https://www.indiamart.com/smilepadhygiene/?pos=1&kwd=maternity pads&tags=A||||8307.81|Price|product|||TS|rsf:gd-|-stype:attr=1|qr_nm:gd|res:RC3|com-cf:nl|ptrs:na|ktp:N0|mc:86310|mtp:S|qry_typ:P|lang:en|wc:2|flavl:0-1|cs:9690|v=4,False,Mohammed Wadi,Pune,"SR.NO.284/01 Bhadale Nagar Uruli Devachi, Mohammed Wadi, Pune - 411060, Dist.Pune, Maharashtra",8048601512,
SAP 200ml Absorption Hospital Maternity Pad,https://www.indiamart.com/proddetail/hospital-maternity-pad-24125044973.html?pos=2&kwd=maternity pads&tags=A||||8559.269|Price|product|||TS|rsf:gd-|-stype:attr=1|qr_nm:gd|res:RC3|com-cf:nl|ptrs:na|ktp:N0|mc:86310|mtp:S|qry_typ:P|lang:en|wc:2|flavl:0-1|cs:9690|v=4,Shree Balasaheb Enterprises,https://www.indiamart.com/shreebalasahebenterprises/?pos=2&kwd=maternity pads&tags=A||||8559.269|Price|product|||TS|rsf:gd-|-stype:attr=1|qr_nm:gd|res:RC3|com-cf:nl|ptrs:na|ktp:N0|mc:86310|mtp:S|qry_typ:P|lang:en|wc:2|flavl:0-1|cs:9690|v=4,False,Kailashpuri,Indore,"35 Kelashpuri Colony Khazrana, Kailashpuri, Indore - 452016, Dist.Indore, Madhya Pradesh",8048955175,
Cotton New Mom Maxi Pad Maternity Pads,https://www.indiamart.com/proddetail/new-mom-medi-maxi-pad-maternity-pads-26439040633.html?pos=3&kwd=maternity pads&tags=A||||8817.752|Price|product|||MDC|rsf:gd-|-stype:attr=1|qr_nm:gd|res:RC3|com-cf:nl|ptrs:na|ktp:N0|mc:86310|mtp:S|qry_typ:P|lang:en|wc:2|flavl:0-1|cs:9690|v=4,Costco Industries,https://www.indiamart.com/goel-pharma/?pos=3&kwd=maternity pads&tags=A||||8817.752|Price|product|||MDC|rsf:gd-|-stype:attr=1|qr_nm:gd|res:RC3|com-cf:nl|ptrs:na|ktp:N0|mc:86310|mtp:S|qry_typ:P|lang:en|wc:2|flavl:0-1|cs:9690|v=4,False,,Hapur,"Ground Floor, Shop No. 11, Shri Ram Plaza, Delhi Garh Road,, Hapur - 245101, Dist.Hapur, Uttar Pradesh",8043867751,
Sansafe Cotton XL Disposable Maternity Pad,https://www.indiamart.com/proddetail/sansafe-cotton-xl-disposable-maternity-pad-2853101563588.html?pos=4&kwd=maternity pads&tags=A||||8747.223|Price|product|||MDC|rsf:gd-|-stype:attr=1|qr_nm:gd|res:RC3|com-cf:nl|ptrs:na|ktp:N0|mc:86310|mtp:S|qry_typ:P|lang:en|wc:2|flavl:0-1|cs:9690|v=4,Daily Hygiene Solution Private Limited,https://www.indiamart.com/daily-hygiene-solution/?pos=4&kwd=maternity pads&tags=A||||8747.223|Price|product|||MDC|rsf:gd-|-stype:attr=1|qr_nm:gd|res:RC3|com-cf:nl|ptrs:na|ktp:N0|mc:86310|mtp:S|qry_typ:P|lang:en|wc:2|flavl:0-1|cs:9690|v=4,False,Omaxe City,Sonipat,"Allure Tower No.10 Flat No.202 Omaxe Heights, Omaxe City, Sonipat - 131001, Dist.Sonipat, Haryana",7942966236,
Non Woven Maternity Pads - Super Absorbent and Comfortable Postpartum Care,https://www.indiamart.com/proddetail/maternity-pads-super-absorbent-and-comfortable-postpartum-care-2853297970197.html?pos=5&kwd=maternity pads&tags=A||||8663.873|Price|product|||TS|rsf:gd-|-stype:attr=1|qr_nm:gd|res:RC3|com-cf:nl|ptrs:na|ktp:N0|mc:86310|mtp:S|qry_typ:P|lang:en|wc:2|flavl:0-1|cs:9690|v=4,Nature Care Solutions,https://www.naturecaresolutions.in/?pos=5&kwd=maternity pads&tags=A||||8663.873|Price|product|||TS|rsf:gd-|-stype:attr=1|qr_nm:gd|res:RC3|com-cf:nl|ptrs:na|ktp:N0|mc:86310|mtp:S|qry_typ:P|lang:en|wc:2|flavl:0-1|cs:9690|v=4,False,Kalyan Nagar,Bengaluru,"# 894/5, 1st Main, Kalyan Nagar, Outer Ring Road Chikkatayappa Reddy Layout, Kalyan Nagar, Bengaluru - 560043, Dist.Bengaluru, Karnataka",8046031887,
Matternity Pad New Mom,https://www.indiamart.com/proddetail/matternity-pad-new-mom-2850607979162.html?pos=6&kwd=maternity pads&tags=A||||8752.144|Price|product|||TS|rsf:gd-|-stype:attr=1|qr_nm:gd|res:RC3|com-cf:nl|ptrs:na|ktp:N0|mc:86310|mtp:S|qry_typ:P|lang:en|wc:2|flavl:0-1|cs:9690|v=4,Manzen Healthcare Private Limited,https://www.manzenhealthcare.com/?pos=6&kwd=maternity pads&tags=A||||8752.144|Price|product|||TS|rsf:gd-|-stype:attr=1|qr_nm:gd|res:RC3|com-cf:nl|ptrs:na|ktp:N0|mc:86310|mtp:S|qry_typ:P|lang:en|wc:2|flavl:0-1|cs:9690|v=4,False,Nehru Place,New Delhi,"606,CHIRANJIV TOWER,43,NEHRU PLACE, Nehru Place, New Delhi - 110019, Dist.Delhi, Delhi",8048266791,
"Cotton Kumar Sakhi Disposable Maternity Pad, Model Name/Number: AB01",https://www.indiamart.com/proddetail/kumar-sakhi-disposable-maternity-pad-2851458810655.html?pos=7&kwd=maternity pads&tags=A||||9226.418|Price|product|||MDC|rsf:gd-|-stype:attr=1|qr_nm:gd|res:RC3|com-cf:nl|ptrs:na|ktp:N0|mc:86310|mtp:S|qry_typ:P|lang:en|wc:2|flavl:0-1|cs:9690|v=4,Megrott Traders,https://www.indiamart.com/megrott-traders/?pos=7&kwd=maternity pads&tags=A||||9226.418|Price|product|||MDC|rsf:gd-|-stype:attr=1|qr_nm:gd|res:RC3|com-cf:nl|ptrs:na|ktp:N0|mc:86310|mtp:S|qry_typ:P|lang:en|wc:2|flavl:0-1|cs:9690|v=4,False,,Chirmiri,"Old Minus Quarters, Ward No 5, Leber Block, West Chirmiri District Koriya, Korea,, Chirmiri - 497773, Chhattisgarh",7942964696,
Large Cotton Maternity Pads With Belt,https://www.indiamart.com/proddetail/large-cotton-maternity-pads-with-belt-2853471515588.html?pos=8&kwd=maternity pads&tags=A||||8559.269|Price|product|||TS|rsf:gd-|-stype:attr=1|qr_nm:gd|res:RC3|com-cf:nl|ptrs:na|ktp:N0|mc:86310|mtp:S|qry_typ:P|lang:en|wc:2|flavl:0-1|cs:9690|v=4,Madhav Overseas Corporation,https://www.madhavoverseascorporation.net/?pos=8&kwd=maternity pads&tags=A||||8559.269|Price|product|||TS|rsf:gd-|-stype:attr=1|qr_nm:gd|res:RC3|com-cf:nl|ptrs:na|ktp:N0|mc:86310|mtp:S|qry_typ:P|lang:en|wc:2|flavl:0-1|cs:9690|v=4,False,Atal Khel Parisar Main Road,Indore,"Madhav Corporate Scheme No 78 , Sector D ,Plot No 4,, Atal Khel Parisar Main Road, Indore - 452010, Dist.Indore, Madhya Pradesh",8048980263,
Puthumai Cotton Maternity Pads,https://www.indiamart.com/proddetail/puthumai-cotton-maternity-pads-2854807391297.html?pos=9&kwd=maternity pads&tags=A||||8636.575|Price|product|||MDC|rsf:gd-|-stype:attr=1|qr_nm:gd|res:RC3|com-cf:nl|ptrs:na|ktp:N0|mc:86310|mtp:S|qry_typ:P|lang:en|wc:2|flavl:0-1|cs:9690|v=4,Ultra Napkins,https://www.indiamart.com/ultra-napkins/?pos=9&kwd=maternity pads&tags=A||||8636.575|Price|product|||MDC|rsf:gd-|-stype:attr=1|qr_nm:gd|res:RC3|com-cf:nl|ptrs:na|ktp:N0|mc:86310|mtp:S|qry_typ:P|lang:en|wc:2|flavl:0-1|cs:9690|v=4,False,,Theni Allinagaram,"43G/W1 Annamalai Nagar, 3rd Street, Koduvilarpatty, Theni Allinagaram - 625534, Tamil Nadu",8041015597,
"A4 + 1 Fixing Briefs Bella Mamma Comfort Super Maternity Pads, Quantity Per Pack: 5",https://www.indiamart.com/proddetail/a4-1-fixing-briefs-bella-mamma-comfort-super-maternity-pads-27629277088.html?pos=10&kwd=maternity pads&tags=A||||8663.873|Price|product|||TS|rsf:gd-|-stype:attr=1|qr_nm:gd|res:RC3|com-cf:nl|ptrs:na|ktp:N0|mc:86310|mtp:S|qry_typ:P|lang:en|wc:2|flavl:0-1|cs:9690|v=4,TZMO India South Private Limited,https://www.indiamart.com/tzmoindiasouth/?pos=10&kwd=maternity pads&tags=A||||8663.873|Price|product|||TS|rsf:gd-|-stype:attr=1|qr_nm:gd|res:RC3|com-cf:nl|ptrs:na|ktp:N0|mc:86310|mtp:S|qry_typ:P|lang:en|wc:2|flavl:0-1|cs:9690|v=4,False,New Timber Yard Layout,Bengaluru,"No.2, 1st Floor, Featherlite Building, Mysore Road, New Timber Yard Layout, New Timber Yard Layout, Bengaluru - 560026, Dist.Bengaluru, Karnataka",8048619127,
Wood Pulp Stayzy Disposable Maternity Pad,https://www.indiamart.com/proddetail/stayzy-disposable-maternity-pad-2848954270133.html?pos=11&kwd=maternity pads&tags=A||||8211.142|Price|product|||TS|rsf:gd-|-stype:attr=1|qr_nm:gd|res:RC3|com-cf:nl|ptrs:na|ktp:N0|mc:86310|mtp:S|qry_typ:P|lang:en|wc:2|flavl:0-1|cs:9690|v=4,Stayzy Hygiene Private Limited,https://www.indiamart.com/synergy-fly/?pos=11&kwd=maternity pads&tags=A||||8211.142|Price|product|||TS|rsf:gd-|-stype:attr=1|qr_nm:gd|res:RC3|com-cf:nl|ptrs:na|ktp:N0|mc:86310|mtp:S|qry_typ:P|lang:en|wc:2|flavl:0-1|cs:9690|v=4,False,Borivali West,Mumbai,"Bluechip Industrial Estate No 4 Sativali Road, Near Nexa Showroom, Waliv Naka, Borivali West, Mumbai - 401101, Dist.Mumbai, Maharashtra",8048604117,
"Xxl Ultra Anion Sanitary Napkins Pack, 360mm",https://www.indiamart.com/proddetail/xxl-ultra-anion-sanitary-napkins-pack-23401807773.html?pos=12&kwd=maternity pads&tags=A||||8754.115|Price|product|||TS|rsf:gd-|-stype:attr=1|qr_nm:gd|res:RC3|com-cf:nl|ptrs:na|ktp:N0|mc:86310|mtp:S|qry_typ:P|lang:en|wc:2|flavl:0-1|cs:9690|v=4,Dnr Healthcare Private Limited,https://www.indiamart.com/dnrhealthcare/?pos=12&kwd=maternity pads&tags=A||||8754.115|Price|product|||TS|rsf:gd-|-stype:attr=1|qr_nm:gd|res:RC3|com-cf:nl|ptrs:na|ktp:N0|mc:86310|mtp:S|qry_typ:P|lang:en|wc:2|flavl:0-1|cs:9690|v=4,False,Sector 8,Panchkula,"Plot No. 151 Industrial Area Phase Ii phase-2, Sector 8, Panchkula - 134109, Dist.Panchkula, Haryana",8047647074,
Wood Pulp Maternity Pads,https://www.indiamart.com/proddetail/maternity-pads-23145268048.html?pos=13&kwd=maternity pads&tags=A||||8752.144|Price|product|||TS|rsf:gd-|-stype:attr=1|qr_nm:gd|res:RC3|com-cf:nl|ptrs:na|ktp:N0|mc:86310|mtp:S|qry_typ:P|lang:en|wc:2|flavl:0-1|cs:9690|v=4,Menka Enterprises,https://www.indiamart.com/menka-enterprises/?pos=13&kwd=maternity pads&tags=A||||8752.144|Price|product|||TS|rsf:gd-|-stype:attr=1|qr_nm:gd|res:RC3|com-cf:nl|ptrs:na|ktp:N0|mc:86310|mtp:S|qry_typ:P|lang:en|wc:2|flavl:0-1|cs:9690|v=4,False,Bawana,New Delhi,"N-275, Sector 1, Bawana Industrial Area, Bawana, New Delhi - 110039, Dist.Delhi, Delhi",8047644299,
Xxl 320mm Relax Cotton Sanitary Pad,https://www.indiamart.com/proddetail/xxl-320mm-relax-cotton-sanitary-pad-24993897862.html?pos=14&kwd=maternity pads&tags=A||||9301.656|Price|product|||MDC|rsf:gd-|-stype:attr=1|qr_nm:gd|res:RC3|com-cf:nl|ptrs:na|ktp:N0|mc:86310|mtp:S|qry_typ:P|lang:en|wc:2|flavl:0-1|cs:9690|v=4,Shashwat Enterprises,https://www.indiamart.com/shashwat-enterprises-varanasi/?pos=14&kwd=maternity pads&tags=A||||9301.656|Price|product|||MDC|rsf:gd-|-stype:attr=1|qr_nm:gd|res:RC3|com-cf:nl|ptrs:na|ktp:N0|mc:86310|mtp:S|qry_typ:P|lang:en|wc:2|flavl:0-1|cs:9690|v=4,False,Mahmoorganj,Varanasi,"Shop No 11, Beriwala Market, Luxa Road, Mahmoorganj, Varanasi - 221001, Dist.Varanasi, Uttar Pradesh",7942533890,
"Maternity Menstrual Pad, XXL",https://www.indiamart.com/proddetail/maternity-menstrual-pad-2853994762497.html?pos=15&kwd=maternity pads&tags=A||||8861.185|Price|product|||MDC|rsf:gd-|-stype:attr=1|qr_nm:gd|res:RC3|com-cf:nl|ptrs:na|ktp:N0|mc:86310|mtp:S|qry_typ:P|lang:en|wc:2|cs:8833|v=4,Ekaa Hygiene And Well-Being LLP,https://www.indiamart.com/ekka-hygiene-wellbeing/?pos=15&kwd=maternity pads&tags=A||||8861.185|Price|product|||MDC|rsf:gd-|-stype:attr=1|qr_nm:gd|res:RC3|com-cf:nl|ptrs:na|ktp:N0|mc:86310|mtp:S|qry_typ:P|lang:en|wc:2|cs:8833|v=4,False,Mission Compound,Jhansi,"Ridhi Apartment Ground Floor No 1 Ekaa Hygiene And Well-being LLP Sarv Nagar CP Mission Compound, Mission Compound, Jhansi - 284001, Dist.Jhansi, Uttar Pradesh",8044012979,
"Safex Xxl Maternity Pad, 10 Pads",https://www.indiamart.com/proddetail/safex-xxl-maternity-pad-2853697926630.html?pos=16&kwd=maternity pads&tags=A||||8584.299|Price|product|||MDC|rsf:gd-|-stype:attr=1|qr_nm:gd|res:RC3|com-cf:nl|ptrs:na|ktp:N0|mc:86310|mtp:S|qry_typ:P|lang:en|wc:2|cs:8833|v=4,Safex Hygiene Care,https://www.indiamart.com/safex-hygiene-care/?pos=16&kwd=maternity pads&tags=A||||8584.299|Price|product|||MDC|rsf:gd-|-stype:attr=1|qr_nm:gd|res:RC3|com-cf:nl|ptrs:na|ktp:N0|mc:86310|mtp:S|qry_typ:P|lang:en|wc:2|cs:8833|v=4,False,Kalveerampalayam,Coimbatore,"50/51, Thoppil Nagar, Kalveerampalyam, Kalveerampalayam, Coimbatore - 641046, Dist.Coimbatore, Tamil Nadu",8046037064,
Cotton Maternity Pads,https://www.indiamart.com/proddetail/cotton-maternity-pads-2854570752512.html?pos=17&kwd=maternity pads&tags=A||||8830.388|Price|product|||TS|rsf:gd-|-stype:attr=1|qr_nm:gd|res:RC3|com-cf:nl|ptrs:na|ktp:N0|mc:86310|mtp:S|qry_typ:P|lang:en|wc:2|cs:8833|v=4,Easeplus Healthcare Private Limited,https://www.ezoyplus.in/?pos=17&kwd=maternity pads&tags=A||||8830.388|Price|product|||TS|rsf:gd-|-stype:attr=1|qr_nm:gd|res:RC3|com-cf:nl|ptrs:na|ktp:N0|mc:86310|mtp:S|qry_typ:P|lang:en|wc:2|cs:8833|v=4,False,DD Nagar,Gwalior,"T 1298 K-61,Vrikampur Chouraha,Satabdipuram D D Nagar,Gwalior, DD Nagar, Gwalior - 474005, Dist.Gwalior, Madhya Pradesh",8048265864,
"Wood Pulp Cotton Maternity Pads, Model: Suraksha",https://www.indiamart.com/proddetail/cotton-maternity-pads-11546993355.html?pos=18&kwd=maternity pads&tags=A||||8823.154|Price|product|||TS|rsf:gd-|-stype:attr=1|qr_nm:gd|res:RC3|com-cf:nl|ptrs:na|ktp:N0|mc:86310|mtp:S|qry_typ:P|lang:en|wc:2|cs:8833|v=4,Medicare Healthcare Product,https://www.indiamart.com/medicareindia-pvtltd/?pos=18&kwd=maternity pads&tags=A||||8823.154|Price|product|||TS|rsf:gd-|-stype:attr=1|qr_nm:gd|res:RC3|com-cf:nl|ptrs:na|ktp:N0|mc:86310|mtp:S|qry_typ:P|lang:en|wc:2|cs:8833|v=4,False,Bodla,Agra,"No. 611, Maruti Plaza, Sanjay Place, Bodla, Agra - 282002, Dist.Agra, Uttar Pradesh",8046046629,
Cotton Free Steps Maternity Pads,https://www.indiamart.com/proddetail/free-steps-maternity-pads-24178118891.html?pos=19&kwd=maternity pads&tags=A||||8741.812|Price|product|||TS|rsf:gd-|-stype:attr=1|qr_nm:gd|res:RC3|com-cf:nl|ptrs:na|ktp:N0|mc:86310|mtp:S|qry_typ:P|lang:en|wc:2|cs:8833|v=4,Jayshi Healthcare Private Limited,https://www.freesteps.in/?pos=19&kwd=maternity pads&tags=A||||8741.812|Price|product|||TS|rsf:gd-|-stype:attr=1|qr_nm:gd|res:RC3|com-cf:nl|ptrs:na|ktp:N0|mc:86310|mtp:S|qry_typ:P|lang:en|wc:2|cs:8833|v=4,False,,Gurugram,"Near Khasi Ram Medical, Gurugram ,HR, 413/4, Jacubpura, Gurugram, New Railway Road near Jeevan multi specialist hospital, Gurugram - 122001, Dist.Gurgaon, Haryana",8045909409,
"Nari Cure Looped Maternity Pad, for WOMEN SANITATION, 10 Pcs In A Pack",https://www.indiamart.com/proddetail/looped-maternity-pad-20182628291.html?pos=20&kwd=maternity pads&tags=A||||9870.655|Price|product|||TS|rsf:gd-|-stype:attr=1|qr_nm:gd|res:RC3|com-cf:nl|ptrs:na|ktp:N0|mc:86310|mtp:S|qry_typ:P|lang:en|wc:2|cs:8833|v=4,Bengal Feminine Care,https://www.indiamart.com/bengal-feminine-care/?pos=20&kwd=maternity pads&tags=A||||9870.655|Price|product|||TS|rsf:gd-|-stype:attr=1|qr_nm:gd|res:RC3|com-cf:nl|ptrs:na|ktp:N0|mc:86310|mtp:S|qry_typ:P|lang:en|wc:2|cs:8833|v=4,False,Barasat,Habra,"Habra, No. 2 ,Railway Gate, District North 24 Parganas, Barasat, Habra - 743263, Dist.North 24 Parganas, West Bengal",8046062955,
Smilepad Belted Maternity Pads After Delivery for Women XXL Size Adjustable Elastic Belt,https://www.indiamart.com/proddetail/smilepad-belted-maternity-pads-after-delivery-for-women-xxl-size-adjustable-elastic-belt-2854185117930.html?pos=21&kwd=maternity pads&tags=A||||8782.67|Price|product|||TS|rsf:gd-|-stype:attr=1|qr_nm:gd|res:RC3|com-cf:nl|ptrs:na|ktp:N0|mc:86310|mtp:S|qry_typ:P|lang:en|wc:2|cs:8833|v=4,Medisky Surgicals,https://www.indiamart.com/medisky-surgicals/?pos=21&kwd=maternity pads&tags=A||||8782.67|Price|product|||TS|rsf:gd-|-stype:attr=1|qr_nm:gd|res:RC3|com-cf:nl|ptrs:na|ktp:N0|mc:86310|mtp:S|qry_typ:P|lang:en|wc:2|cs:8833|v=4,False,Uchipuli,Ramanathapuram,"12/2865-30, Pattinamkathan, Madurai Rameshwaram Road, Achchundanvayal, Uchipuli, Ramanathapuram - 623502, Dist.Ramanathapuram, Tamil Nadu",7942960183,
"Sanitary Pad, for Hospital",https://www.indiamart.com/proddetail/maternity-sanitary-pad-2935193697.html?pos=22&kwd=maternity pads&tags=A||||8211.142|Price|product|||MDC|rsf:gd-|-stype:attr=1|qr_nm:gd|res:RC3|com-cf:nl|ptrs:na|ktp:N0|mc:86310|mtp:S|qry_typ:P|lang:en|wc:2|cs:8833|v=4,Relax Surgical Co.,https://www.indiamart.com/relax-surgical/?pos=22&kwd=maternity pads&tags=A||||8211.142|Price|product|||MDC|rsf:gd-|-stype:attr=1|qr_nm:gd|res:RC3|com-cf:nl|ptrs:na|ktp:N0|mc:86310|mtp:S|qry_typ:P|lang:en|wc:2|cs:8833|v=4,False,Malad East,Mumbai,"3rd Floor, Vijay Dwar, Hava Hira Park Kurar Village, Malad East, Mumbai - 400097, Dist.Mumbai, Maharashtra",8048965339,
"Cotton Maternity Sanitary Pad, Model Name/Number: 410MM",https://www.indiamart.com/proddetail/maternity-sanitary-pad-2852763703912.html?pos=23&kwd=maternity pads&tags=A||||8752.144|Price|product|||MDC|rsf:gd-|-stype:attr=1|qr_nm:gd|res:RC3|com-cf:nl|ptrs:na|ktp:N0|mc:86310|mtp:S|qry_typ:P|lang:en|wc:2|cs:8833|v=4,SRJB International,https://www.indiamart.com/swatienterprisesnewdelhi/?pos=23&kwd=maternity pads&tags=A||||8752.144|Price|product|||MDC|rsf:gd-|-stype:attr=1|qr_nm:gd|res:RC3|com-cf:nl|ptrs:na|ktp:N0|mc:86310|mtp:S|qry_typ:P|lang:en|wc:2|cs:8833|v=4,False,Libaspur,New Delhi,"126 Yadav market road Swaroop, Libaspur, New Delhi - 110042, Dist.Delhi, Delhi",8048974980,
Maternity Pad,https://www.indiamart.com/proddetail/maternity-pad-2851667389655.html?pos=24&kwd=maternity pads&tags=A||||9228.171|Price|product|||TS|rsf:gd-|-stype:attr=1|qr_nm:gd|res:RC3|com-cf:nl|ptrs:na|ktp:N0|mc:86310|mtp:S|qry_typ:P|lang:en|wc:2|cs:8833|v=4,Evergreen Care,https://www.indiamart.com/evergreencare-faizabad/?pos=24&kwd=maternity pads&tags=A||||9228.171|Price|product|||TS|rsf:gd-|-stype:attr=1|qr_nm:gd|res:RC3|com-cf:nl|ptrs:na|ktp:N0|mc:86310|mtp:S|qry_typ:P|lang:en|wc:2|cs:8833|v=4,False,Faizabad Cantt,Faizabad,"Near Raebareilly Bypass, Faizabad Cantt, Faizabad - 224202, Uttar Pradesh",8046054746,
Friends Maternity Pad,https://www.indiamart.com/proddetail/friends-maternity-pad-2852757982130.html?pos=25&kwd=maternity pads&tags=A||||8899.625|Price|product|||TS|rsf:gd-|-stype:attr=1|qr_nm:gd|res:RC3|com-cf:nl|ptrs:na|ktp:N0|mc:86310|mtp:S|qry_typ:P|lang:en|wc:2|cs:8833|v=4,Sri Goutham Surgicals,https://www.indiamart.com/sri-goutham-surgicals/?pos=25&kwd=maternity pads&tags=A||||8899.625|Price|product|||TS|rsf:gd-|-stype:attr=1|qr_nm:gd|res:RC3|com-cf:nl|ptrs:na|ktp:N0|mc:86310|mtp:S|qry_typ:P|lang:en|wc:2|cs:8833|v=4,False,Heritage Town,Pondicherry,"First Floor 156, Ambalathadayar Madam Street Kosakadi Street, Heritage Town, Pondicherry - 605001, Dist.Pondicherry, Pondicherry",7942799905,
Cotton Disposable Maternity Pad maxi and medi,https://www.indiamart.com/proddetail/disposable-maternity-pad-maxi-and-medi-21721447162.html?pos=26&kwd=maternity pads&tags=A||||8571.301|Price|product|||TS|rsf:gd-|-stype:attr=1|qr_nm:gd|res:RC3|com-cf:nl|ptrs:na|ktp:N0|mc:86310|mtp:S|qry_typ:P|lang:en|wc:2|cs:8833|v=4,Atomlife Healthcare And Reseacrh Private Limited,https://www.indiamart.com/atomlifehealthcareresearch/?pos=26&kwd=maternity pads&tags=A||||8571.301|Price|product|||TS|rsf:gd-|-stype:attr=1|qr_nm:gd|res:RC3|com-cf:nl|ptrs:na|ktp:N0|mc:86310|mtp:S|qry_typ:P|lang:en|wc:2|cs:8833|v=4,False,Thycaud,Thiruvananthapuram,"TC 24/449, Thycaud, Thiruvananthapuram - 695014, Dist.Thiruvananthapuram, Kerala",8048263415,
Maternity Pad,https://www.indiamart.com/proddetail/maternity-pad-2852547317548.html?pos=27&kwd=maternity pads&tags=A||||8774.064|Price|product|||MDC|rsf:gd-|-stype:attr=1|qr_nm:gd|res:RC3|com-cf:nl|ptrs:na|ktp:N0|mc:86310|mtp:S|qry_typ:P|lang:en|wc:2|cs:8833|v=4,You We Care,https://www.indiamart.com/you-we-care/?pos=27&kwd=maternity pads&tags=A||||8774.064|Price|product|||MDC|rsf:gd-|-stype:attr=1|qr_nm:gd|res:RC3|com-cf:nl|ptrs:na|ktp:N0|mc:86310|mtp:S|qry_typ:P|lang:en|wc:2|cs:8833|v=4,False,Nagamangalam,Tiruchirappalli,"137, Vatc Nagar, Alampatti Road, Nagamangalam, Nagamangalam, Tiruchirappalli - 620012, Dist.Tiruchirappalli, Tamil Nadu",7942649406,
Maternity Sanitary Pad,https://www.indiamart.com/proddetail/maternity-sanitary-pad-2852910323288.html?pos=28&kwd=maternity pads&tags=A||||8751.045|Price|product|||MDC|rsf:gd-|-stype:attr=1|qr_nm:gd|res:RC3|com-cf:nl|ptrs:na|ktp:N0|mc:86310|mtp:S|qry_typ:P|lang:en|wc:2|cs:8833|v=4,Parkar Life,https://www.indiamart.com/parkar-life/?pos=28&kwd=maternity pads&tags=A||||8751.045|Price|product|||MDC|rsf:gd-|-stype:attr=1|qr_nm:gd|res:RC3|com-cf:nl|ptrs:na|ktp:N0|mc:86310|mtp:S|qry_typ:P|lang:en|wc:2|cs:8833|v=4,False,Karuwana,Baddi,"Space-9 Ground Floor, Shop No.22 I Block I, Shree Jee Land Developers & Promoters Pvt Ltd Unnamed Road, Karuwana, Baddi - 173205, Dist.Solan, Himachal Pradesh",7942832771,
MAXI JUMBO 320MM (XXXL) SANITARY PAD,https://www.indiamart.com/proddetail/maxi-jumbo-320mm-xxxl-sanitary-pad-19978161862.html?pos=29&kwd=maternity pads&tags=A||||8601.347|Price|product|||TS|rsf:gd-|-stype:attr=1|qr_nm:gd|res:RC3|com-cf:nl|ptrs:na|ktp:N0|mc:86310|mtp:S|qry_typ:P|lang:en|wc:2|cs:8833|v=4,Charming Enterprises,https://www.wowsanitarynapkins.in/?pos=29&kwd=maternity pads&tags=A||||8601.347|Price|product|||TS|rsf:gd-|-stype:attr=1|qr_nm:gd|res:RC3|com-cf:nl|ptrs:na|ktp:N0|mc:86310|mtp:S|qry_typ:P|lang:en|wc:2|cs:8833|v=4,False,Vaishali Nagar,Jaipur,"35, Gangasagar Scheme, sirsi pulia,Panchyawala, Vaishali Nagar, Jaipur - 302027, Dist.Jaipur, Rajasthan",8046045144,
Cotton Maternity Pads,https://www.indiamart.com/proddetail/cotton-maternity-pads-2852725503333.html?pos=30&kwd=maternity pads&tags=A||||8235.23|Price|product|||TS|rsf:gd-|-stype:attr=1|qr_nm:gd|res:RC3|com-cf:nl|ptrs:na|ktp:N0|mc:86310|mtp:S|qry_typ:P|lang:en|wc:2|cs:8833|v=4,Kallisto Hygiene Private Limited,https://www.indiamart.com/kallisto-hygiene/?pos=30&kwd=maternity pads&tags=A||||8235.23|Price|product|||TS|rsf:gd-|-stype:attr=1|qr_nm:gd|res:RC3|com-cf:nl|ptrs:na|ktp:N0|mc:86310|mtp:S|qry_typ:P|lang:en|wc:2|cs:8833|v=4,False,,Dombivli,"SHOP NO. 11,SADHANA SAMADHAN CHS,SUBHASH ROAD, MARUTI MANDIR,DOMBIVALI, Dombivli - 421202, Dist.Thane, Maharashtra",8043859536,
"Dignity Mom Maternity Pads, Model Name/Number: Comfrotable & Hygienic",https://www.indiamart.com/proddetail/dignity-mom-maternity-pads-2854184690962.html?pos=31&kwd=maternity pads&tags=A||||8717.056|Price|product|||TS|rsf:gd-|-stype:attr=1|qr_nm:gd|res:RC3|com-cf:nl|ptrs:na|ktp:N0|mc:86310|mtp:S|qry_typ:P|lang:en|wc:2|cs:8833|v=4,Genesis Diagnostics,https://www.indiamart.com/genesis-diagnostics-salem/?pos=31&kwd=maternity pads&tags=A||||8717.056|Price|product|||TS|rsf:gd-|-stype:attr=1|qr_nm:gd|res:RC3|com-cf:nl|ptrs:na|ktp:N0|mc:86310|mtp:S|qry_typ:P|lang:en|wc:2|cs:8833|v=4,False,,Salem,"283/2, Vasant Nagar, New Fairlands, Salem - 636016, Dist.Salem, Tamil Nadu",8045735882,
Maternity Pad,https://www.indiamart.com/proddetail/maternity-pad-2853216449088.html?pos=32&kwd=maternity pads&tags=A||||8954.051|Price|product|||TS|rsf:gd-|-stype:attr=1|qr_nm:gd|res:RC3|com-cf:nl|ptrs:na|ktp:N0|mc:86310|mtp:S|qry_typ:P|lang:en|wc:2|cs:8833|v=4,Shriv Medicare Private Limited,https://www.shrivmedicare.com/?pos=32&kwd=maternity pads&tags=A||||8954.051|Price|product|||TS|rsf:gd-|-stype:attr=1|qr_nm:gd|res:RC3|com-cf:nl|ptrs:na|ktp:N0|mc:86310|mtp:S|qry_typ:P|lang:en|wc:2|cs:8833|v=4,False,Noombal,Chennai,"Plot No.2, Survey No. 15/2B, Vada Noombal Road, Perumalagaram, Tiruverkadu, Noombal, Chennai - 600077, Dist.Chennai, Tamil Nadu",8043830699,
Cotton Friends Maternity Pad,https://www.indiamart.com/proddetail/friends-maternity-pad-25811123330.html?pos=33&kwd=maternity pads&tags=A||||8752.144|Price|product|||TS|rsf:gd-|-stype:attr=1|qr_nm:gd|res:RC3|com-cf:nl|ptrs:na|ktp:N0|mc:86310|mtp:S|qry_typ:P|lang:en|wc:2|cs:8833|v=4,Recherche World,https://www.rechercheworld.co.in/?pos=33&kwd=maternity pads&tags=A||||8752.144|Price|product|||TS|rsf:gd-|-stype:attr=1|qr_nm:gd|res:RC3|com-cf:nl|ptrs:na|ktp:N0|mc:86310|mtp:S|qry_typ:P|lang:en|wc:2|cs:8833|v=4,False,Pandav Nagar,New Delhi,"Near Gurudwara, Ground Floor, A-13-14, Gali No.01, Pandav Nagar, East Delhi, Pandav Nagar, New Delhi - 110092, Dist.Delhi, Delhi",8047312171,
Cotton Maternity Pads,https://www.indiamart.com/proddetail/cotton-maternity-pads-23945791230.html?pos=34&kwd=maternity pads&tags=A||||8760.897|Price|product|||MDC|rsf:gd-|-stype:attr=1|qr_nm:gd|res:RC3|com-cf:nl|ptrs:na|ktp:N0|mc:86310|mtp:S|qry_typ:P|lang:en|wc:2|cs:8833|v=4,Lavin Health Vision,https://www.indiamart.com/lavin-health-vision/?pos=34&kwd=maternity pads&tags=A||||8760.897|Price|product|||MDC|rsf:gd-|-stype:attr=1|qr_nm:gd|res:RC3|com-cf:nl|ptrs:na|ktp:N0|mc:86310|mtp:S|qry_typ:P|lang:en|wc:2|cs:8833|v=4,False,Fatehpur Diwanwala,Pinjore,"2081, Green Valley, Ghatiwala, Dharampur Road, Fatehpur Diwanwala, Pinjore - 134204, Dist.Panchkula, Haryana",8046069282,
"Cotton Friends Maternity Pad, 5 Pads",https://www.indiamart.com/proddetail/friends-maternity-5-pads-2854900932297.html?pos=35&kwd=maternity pads&tags=A||||8707.773|Price|product|||MDC|rsf:gd-|-stype:attr=1|qr_nm:gd|res:RC3|com-cf:nl|ptrs:na|ktp:N0|mc:86310|mtp:S|qry_typ:P|lang:en|wc:2|cs:8833|v=4,AC SurgiPro,https://www.indiamart.com/acsurgipro/?pos=35&kwd=maternity pads&tags=A||||8707.773|Price|product|||MDC|rsf:gd-|-stype:attr=1|qr_nm:gd|res:RC3|com-cf:nl|ptrs:na|ktp:N0|mc:86310|mtp:S|qry_typ:P|lang:en|wc:2|cs:8833|v=4,False,Leftinent Ravinder Chikkara Chowk Shiv Colony,Jhajjar,"Khewat No 4864 Khata No 4978 Deswal Plaza Market, Leftinent Ravinder Chikkara Chowk Shiv Colony, Jhajjar - 124103, Dist.Jhajjar, Haryana",7949331561,
"Loose Extra Large Cottony Maternity Pad With Wings, For Hospital",https://www.indiamart.com/proddetail/loose-extra-large-cottony-maternity-pad-with-wings-19265189973.html?pos=36&kwd=maternity pads&tags=BA||||8230.883|Price|product|||LSlc|rsf:gd-|-stype:attr=1|qr_nm:gd|res:RC3|com-cf:nl|ptrs:na|ktp:N0|mc:86310|mtp:S|qry_typ:P|lang:en|wc:2|cs:8833|v=4,M. D. Hygiene Private Limited,https://www.mdhygieneindia.com/?pos=36&kwd=maternity pads&tags=BA||||8230.883|Price|product|||LSlc|rsf:gd-|-stype:attr=1|qr_nm:gd|res:RC3|com-cf:nl|ptrs:na|ktp:N0|mc:86310|mtp:S|qry_typ:P|lang:en|wc:2|cs:8833|v=4,True,Tadkeshwar,Surat,"Block No. 959, Kim Mandvi Road, Tadkeshwar, Surat - 394170, Dist.Surat, Gujarat",8046050788,
Cotton 230mm Modenna Ultra Thin Sanitary Pad,https://www.indiamart.com/proddetail/230mm-modenna-ultra-thin-sanitary-pad-26393805930.html?pos=37&kwd=maternity pads&tags=A||||8752.144|Price|product|||MDC|rsf:gd-|-stype:attr=1|qr_nm:gd|res:RC3|com-cf:nl|ptrs:na|ktp:N0|mc:86310|mtp:S|qry_typ:P|lang:en|wc:2|cs:8833|v=4,Arun Bagga Traders,https://www.indiamart.com/arun-bagga-traders/?pos=37&kwd=maternity pads&tags=A||||8752.144|Price|product|||MDC|rsf:gd-|-stype:attr=1|qr_nm:gd|res:RC3|com-cf:nl|ptrs:na|ktp:N0|mc:86310|mtp:S|qry_typ:P|lang:en|wc:2|cs:8833|v=4,False,Kirti Nagar,New Delhi,"House No 15, Left Portion Blk-B, Whs Timber Market Kirti Nagar, Ground Floor, Block B West Delhi, Kirti Nagar, New Delhi - 110015, Dist.Delhi, Delhi",7942702661,
Cotton Maternity Pad With Belt,https://www.indiamart.com/proddetail/cotton-maternity-pad-with-belt-2853401596588.html?pos=38&kwd=maternity pads&tags=BA||||8316.457|Price|product|||TS|rsf:gd-|-stype:attr=1|qr_nm:gd|res:RC3|com-cf:nl|ptrs:na|ktp:N0|mc:86310|mtp:S|qry_typ:P|lang:en|wc:2|cs:8833|v=4,Ace India Overseas,https://www.indiamart.com/aceindiaoverseas/?pos=38&kwd=maternity pads&tags=BA||||8316.457|Price|product|||TS|rsf:gd-|-stype:attr=1|qr_nm:gd|res:RC3|com-cf:nl|ptrs:na|ktp:N0|mc:86310|mtp:S|qry_typ:P|lang:en|wc:2|cs:8833|v=4,False,Krushinagar,Nashik,"Flat No 07, Third Floor, Sai Darshan, Mahatma Nagar Road, Parijat Nagar, Krushinagar, Nashik - 422005, Dist.Nashik, Maharashtra",8048213564,
Carefor Cotton Maternity Pads,https://www.indiamart.com/proddetail/carefor-cotton-maternity-pads-21479383788.html?pos=39&kwd=maternity pads&tags=BA||||8500.97|Price|product|||SSnp|rsf:gd-|-stype:attr=1|qr_nm:gd|res:RC3|com-cf:nl|ptrs:na|ktp:N0|mc:86310|mtp:S|qry_typ:P|lang:en|wc:2|cs:8833|v=4,Arambans Exporters Private Limited,https://www.indiamart.com/arambansexporters/?pos=39&kwd=maternity pads&tags=BA||||8500.97|Price|product|||SSnp|rsf:gd-|-stype:attr=1|qr_nm:gd|res:RC3|com-cf:nl|ptrs:na|ktp:N0|mc:86310|mtp:S|qry_typ:P|lang:en|wc:2|cs:8833|v=4,False,Kuriachira,Thrissur,"Attokaran, TT Road, Kuriachira PO, Kuriachira, Thrissur - 680006, Dist.Thrissur, Kerala",8046058355,
Cotton 400 Mm Maternity Pads,https://www.indiamart.com/proddetail/400-mm-maternity-pads-22590724588.html?pos=40&kwd=maternity pads&tags=A||||8741.987|Price|product|||TS|rsf:gd-|-stype:attr=1|qr_nm:gd|res:RC3|com-cf:nl|ptrs:na|ktp:N0|mc:86310|mtp:S|qry_typ:P|lang:en|wc:2|cs:8833|v=4,Devik Trader,https://www.latestproductsupplier.com/?pos=40&kwd=maternity pads&tags=A||||8741.987|Price|product|||TS|rsf:gd-|-stype:attr=1|qr_nm:gd|res:RC3|com-cf:nl|ptrs:na|ktp:N0|mc:86310|mtp:S|qry_typ:P|lang:en|wc:2|cs:8833|v=4,False,Nanhera,Ambala,"Nanehra, Nanhera, Ambala - 133001, Dist.Ambala, Haryana",8048603229,
Plain Maternity pads,https://www.indiamart.com/proddetail/maternity-pads-2852772932012.html?pos=41&kwd=maternity pads&tags=A||||8752.144|Price|product|||MDC|rsf:gd-|-stype:attr=1|qr_nm:gd|res:RC3|com-cf:nl|ptrs:na|ktp:N0|mc:86310|mtp:S|qry_typ:P|lang:en|wc:2|cs:8833|v=4,Walmark Meditech Private Limited,https://www.indiamart.com/walmarkmeditech/?pos=41&kwd=maternity pads&tags=A||||8752.144|Price|product|||MDC|rsf:gd-|-stype:attr=1|qr_nm:gd|res:RC3|com-cf:nl|ptrs:na|ktp:N0|mc:86310|mtp:S|qry_typ:P|lang:en|wc:2|cs:8833|v=4,False,Dhantoli,New Delhi,"B 157,,OKHLA INDUSTRIAL AREA,NEW DELHI, Dhantoli, New Delhi - 110020, Dist.Delhi, Delhi",7942532407,
Non-woven Disposable Maternity Pad,https://www.indiamart.com/proddetail/disposable-maternity-pad-11085387555.html?pos=42&kwd=maternity pads&tags=BA||||8752.144|Price|product|||LSlc|rsf:gd-|-stype:attr=1|qr_nm:gd|res:RC3|com-cf:nl|ptrs:na|ktp:N0|mc:86310|mtp:S|qry_typ:P|lang:en|wc:2|cs:8833|v=4,Dispowear Sterite Company,https://www.dispowear.co.in/?pos=42&kwd=maternity pads&tags=BA||||8752.144|Price|product|||LSlc|rsf:gd-|-stype:attr=1|qr_nm:gd|res:RC3|com-cf:nl|ptrs:na|ktp:N0|mc:86310|mtp:S|qry_typ:P|lang:en|wc:2|cs:8833|v=4,False,Janakpuri,New Delhi,"Pocket D-2 A, Flat No. 51 C, Janakpuri, Janakpuri, New Delhi - 110058, Dist.Delhi, Delhi",8048970362,
Plain Maternity pads,https://www.indiamart.com/proddetail/maternity-pads-2852772932012.html?pos=43&kwd=maternity pads&tags=A||||8752.144|Price|product|||MDC|rsf:gd-|-stype:attr=1|qr_nm:gd|res:RC3|com-cf:nl|ptrs:na|ktp:N0|mc:86310|mtp:S|qry_typ:P|lang:en|wc:2|cs:8833|v=4,Walmark Meditech Private Limited,https://www.indiamart.com/walmarkmeditech/?pos=43&kwd=maternity pads&tags=A||||8752.144|Price|product|||MDC|rsf:gd-|-stype:attr=1|qr_nm:gd|res:RC3|com-cf:nl|ptrs:na|ktp:N0|mc:86310|mtp:S|qry_typ:P|lang:en|wc:2|cs:8833|v=4,False,Dhantoli,New Delhi,"B 157,,OKHLA INDUSTRIAL AREA,NEW DELHI, Dhantoli, New Delhi - 110020, Dist.Delhi, Delhi",7942532407,
Non-woven Disposable Maternity Pad,https://www.indiamart.com/proddetail/disposable-maternity-pad-11085387555.html?pos=44&kwd=maternity pads&tags=BA||||8752.144|Price|product|||LSlc|rsf:gd-|-stype:attr=1|qr_nm:gd|res:RC3|com-cf:nl|ptrs:na|ktp:N0|mc:86310|mtp:S|qry_typ:P|lang:en|wc:2|cs:8833|v=4,Dispowear Sterite Company,https://www.dispowear.co.in/?pos=44&kwd=maternity pads&tags=BA||||8752.144|Price|product|||LSlc|rsf:gd-|-stype:attr=1|qr_nm:gd|res:RC3|com-cf:nl|ptrs:na|ktp:N0|mc:86310|mtp:S|qry_typ:P|lang:en|wc:2|cs:8833|v=4,False,Janakpuri,New Delhi,"Pocket D-2 A, Flat No. 51 C, Janakpuri, Janakpuri, New Delhi - 110058, Dist.Delhi, Delhi",8048970362,
Cotton Fiber Needs Maternity Pad,https://www.indiamart.com/proddetail/needs-maternity-pad-2853181771788.html?pos=45&kwd=maternity pads&tags=A||||9839.57|Price|product|||TS|rsf:gd-|-stype:attr=1|qr_nm:gd|res:RC3|com-cf:nl|ptrs:na|ktp:N0|mc:86310|mtp:S|qry_typ:P|lang:en|wc:2|cs:8833|v=4,Add Life Human Care Private Limited,https://www.indiamart.com/addlife-human-care/?pos=45&kwd=maternity pads&tags=A||||9839.57|Price|product|||TS|rsf:gd-|-stype:attr=1|qr_nm:gd|res:RC3|com-cf:nl|ptrs:na|ktp:N0|mc:86310|mtp:S|qry_typ:P|lang:en|wc:2|cs:8833|v=4,False,Beleghata East,Kolkata,"26/H/4 Barwari Tala Road Beliaghata, Beleghata East, Kolkata - 700010, Dist.Kolkata, West Bengal",7949220551,
"Safex Maternity Sanitary Pad, For Hospital",https://www.indiamart.com/proddetail/maternity-sanitary-pad-20035033055.html?pos=46&kwd=maternity pads&tags=A||||8706.587|Price|product|||TS|rsf:gd-|-stype:attr=1|qr_nm:gd|res:RC3|com-cf:nl|ptrs:na|ktp:N0|mc:86310|mtp:S|qry_typ:P|lang:en|wc:2|cs:8833|v=4,Aruna Agencies,https://www.arunaagencies.in/?pos=46&kwd=maternity pads&tags=A||||8706.587|Price|product|||TS|rsf:gd-|-stype:attr=1|qr_nm:gd|res:RC3|com-cf:nl|ptrs:na|ktp:N0|mc:86310|mtp:S|qry_typ:P|lang:en|wc:2|cs:8833|v=4,False,Simmakkal,Madurai,"Pooja Complex, No. 23, North Veli Street Ground Floor, Simmakkal, Simmakkal, Madurai - 625001, Dist.Madurai, Tamil Nadu",8048609760,
STAYSURE MATERNITY PADS BELTED TYPE WITH ELASTIC WAIST BAND FREE INSIDE PACK OF 10PCS,https://www.indiamart.com/proddetail/staysure-maternity-pads-belted-type-with-elastic-waist-band-free-inside-pack-of-10pcs-22197101191.html?pos=47&kwd=maternity pads&tags=A||||8307.81|Price|product|||TS|rsf:gd-|-stype:attr=1|qr_nm:gd|res:RC3|com-cf:nl|ptrs:na|ktp:N0|mc:86310|mtp:S|qry_typ:P|lang:en|wc:2|cs:8833|v=4,Eternis Hygiene Products,https://www.indiamart.com/eternis-hygiene-products/?pos=47&kwd=maternity pads&tags=A||||8307.81|Price|product|||TS|rsf:gd-|-stype:attr=1|qr_nm:gd|res:RC3|com-cf:nl|ptrs:na|ktp:N0|mc:86310|mtp:S|qry_typ:P|lang:en|wc:2|cs:8833|v=4,False,Kharabwadi,Pune,"Plot No. 5, Gat No. 357/95 Waghjai Nagar, Kharabwadi, Chakan, Khed, Kharabwadi, Pune - 410501, Dist.Pune, Maharashtra",8046042766,
Wood Pulp Disposable Maternity Pad,https://www.indiamart.com/proddetail/disposable-maternity-pad-22326933162.html?pos=48&kwd=maternity pads&tags=A||||8823.154|Price|product|||MDC|rsf:gd-|-stype:attr=1|qr_nm:gd|res:RC3|com-cf:nl|ptrs:na|ktp:N0|mc:86310|mtp:S|qry_typ:P|lang:en|wc:2|cs:8833|v=4,Chaprai Estate Industries,https://www.indiamart.com/chaprai-estateindustries/?pos=48&kwd=maternity pads&tags=A||||8823.154|Price|product|||MDC|rsf:gd-|-stype:attr=1|qr_nm:gd|res:RC3|com-cf:nl|ptrs:na|ktp:N0|mc:86310|mtp:S|qry_typ:P|lang:en|wc:2|cs:8833|v=4,False,Sikandra,Agra,"43, Gaurav Bhawan, UPSIDC Road, Sikandra, Agra - 282007, Dist.Agra, Uttar Pradesh",8046030203,
Cotton Bella 365mm Maternity Pads,https://www.indiamart.com/proddetail/bella-365mm-maternity-pads-2854133765273.html?pos=49&kwd=maternity pads&tags=A||||8706.587|Price|product|||MDC|rsf:gd-|-stype:attr=1|qr_nm:gd|res:RC3|com-cf:nl|ptrs:na|ktp:N0|mc:86310|mtp:S|qry_typ:P|lang:en|wc:2|cs:8833|v=4,Mercury Fabrics,https://www.indiamart.com/mercury-fabrics-madurai/?pos=49&kwd=maternity pads&tags=A||||8706.587|Price|product|||MDC|rsf:gd-|-stype:attr=1|qr_nm:gd|res:RC3|com-cf:nl|ptrs:na|ktp:N0|mc:86310|mtp:S|qry_typ:P|lang:en|wc:2|cs:8833|v=4,False,Thanakkankulam,Madurai,"2/582c, V.P.Sinthan Nagar, Vedarpuliankulam, Thanakkankulam, Madurai - 625006, Dist.Madurai, Tamil Nadu",8045729988,
Maternity Pad,https://www.indiamart.com/proddetail/maternity-pad-2854912261491.html?pos=50&kwd=maternity pads&tags=A||||8817.752||product|||MDC|rsf:gd-|-stype:attr=1|qr_nm:gd|res:RC3|com-cf:nl|ptrs:na|ktp:N0|mc:86310|mtp:S|qry_typ:P|lang:en|wc:2|cs:8833|v=4,Bhagwati Collection,https://www.indiamart.com/bhagwati-collection-hapur/?pos=50&kwd=maternity pads&tags=A||||8817.752||product|||MDC|rsf:gd-|-stype:attr=1|qr_nm:gd|res:RC3|com-cf:nl|ptrs:na|ktp:N0|mc:86310|mtp:S|qry_typ:P|lang:en|wc:2|cs:8833|v=4,False,,Hapur,"Mukesh Garg, Krishna Gali, Khurja Pech Doymi Opp Ram Tent House, Hapur - 245101, Dist.Hapur, Uttar Pradesh",8041015469,
"Tugs Biodegradable Maternity Pads Pack of 9 Pieces Length : 9 inches, Width : 2.5 inches",https://www.indiamart.com/proddetail/tugs-biodegradable-maternity-pads-pack-of-9-pieces-length-9-inches-width-2-5-inches-2854764256162.html?pos=51&kwd=maternity pads&tags=A||||8211.142|Price|product|||MDC|rsf:gd-|-stype:attr=1|qr_nm:gd|res:RC3|com-cf:nl|ptrs:na|ktp:N0|mc:86310|mtp:S|qry_typ:P|lang:en|wc:2|cs:8833|v=4,The Unique Green Solutions,https://www.indiamart.com/theuniquegreensolutions/?pos=51&kwd=maternity pads&tags=A||||8211.142|Price|product|||MDC|rsf:gd-|-stype:attr=1|qr_nm:gd|res:RC3|com-cf:nl|ptrs:na|ktp:N0|mc:86310|mtp:S|qry_typ:P|lang:en|wc:2|cs:8833|v=4,False,Walkeshwar,Mumbai,"Flat No 7, 15 Hill View, B G Kher Marg, Walkeshwar, Mumbai - 400006, Dist.Mumbai, Maharashtra",7942869916,
Cotton Maternity Pads EVERFREE,https://www.indiamart.com/proddetail/cotton-maternity-pads-everfree-2854732253833.html?pos=52&kwd=maternity pads&tags=BA||||8130.3813|Price|product|||MDC|rsf:gd-|-stype:attr=1|qr_nm:gd|res:RC3|com-cf:nl|ptrs:na|ktp:N0|mc:86310|mtp:S|qry_typ:P|lang:en|wc:2|cs:8833|v=4,Balaji Surgical And Pharma,https://www.indiamart.com/balaji-surgical-pharma/?pos=52&kwd=maternity pads&tags=BA||||8130.3813|Price|product|||MDC|rsf:gd-|-stype:attr=1|qr_nm:gd|res:RC3|com-cf:nl|ptrs:na|ktp:N0|mc:86310|mtp:S|qry_typ:P|lang:en|wc:2|cs:8833|v=4,False,,Surendranagar,"Ground Floor, Shop No 5, Jay Somnath Complex, Swastik Society, Meghani Oad, Near Upasana Hospital,, Surendranagar - 363001, Dist.Surendra Nagar, Gujarat",7949329672,
"Cotton Hospital Maternity Pad, Model Name/Number: Healthy Wings",https://www.indiamart.com/proddetail/hospital-maternity-pad-26042547548.html?pos=53&kwd=maternity pads&tags=BA||||8307.81|Price|product|||TS|rsf:gd-|-stype:attr=1|qr_nm:gd|res:RC3|com-cf:nl|ptrs:na|ktp:N0|mc:86310|mtp:S|qry_typ:P|lang:en|wc:2|cs:8833|v=4,Anand Agencies,https://www.indiamart.com/anandagenciesmaharashtra/?pos=53&kwd=maternity pads&tags=BA||||8307.81|Price|product|||TS|rsf:gd-|-stype:attr=1|qr_nm:gd|res:RC3|com-cf:nl|ptrs:na|ktp:N0|mc:86310|mtp:S|qry_typ:P|lang:en|wc:2|cs:8833|v=4,False,Kharadi,Pune,"2nd Floor, Arham Tower Pune Nagar Road,, Kharadi, Pune - 411009, Dist.Pune, Maharashtra",8047679161,
Loose Extra Large Cottony Maternity Pad With Wings,https://www.indiamart.com/proddetail/loose-extra-large-cottony-maternity-pad-with-wings-2853301249062.html?pos=54&kwd=maternity pads&tags=BA||||8559.269|Price|product|||TS|rsf:gd-|-stype:attr=1|qr_nm:gd|res:RC3|com-cf:nl|ptrs:na|ktp:N0|mc:86310|mtp:S|qry_typ:P|lang:en|wc:2|cs:8833|v=4,Pulkit Enterprises,https://www.indiamart.com/pulkitenterprises-indor/?pos=54&kwd=maternity pads&tags=BA||||8559.269|Price|product|||TS|rsf:gd-|-stype:attr=1|qr_nm:gd|res:RC3|com-cf:nl|ptrs:na|ktp:N0|mc:86310|mtp:S|qry_typ:P|lang:en|wc:2|cs:8833|v=4,False,,Indore,"505, Kalpana Apartment, 1, 7,South Tukoganj, Indore - 452001, Dist.Indore, Madhya Pradesh",8048961141,
"Cotton Disposable Maternity Pad, Model Name/Number: KE06",https://www.indiamart.com/proddetail/disposable-maternity-pad-27138053188.html?pos=55&kwd=maternity pads&tags=A||||8230.883|Price|product|||TS|rsf:gd-|-stype:attr=1|qr_nm:gd|res:RC3|com-cf:nl|ptrs:na|ktp:N0|mc:86310|mtp:S|qry_typ:P|lang:en|wc:2|cs:8833|v=4,Hanscure Lifescience Pvt Ltd,https://www.indiamart.com/hanscure-lifescience/?pos=55&kwd=maternity pads&tags=A||||8230.883|Price|product|||TS|rsf:gd-|-stype:attr=1|qr_nm:gd|res:RC3|com-cf:nl|ptrs:na|ktp:N0|mc:86310|mtp:S|qry_typ:P|lang:en|wc:2|cs:8833|v=4,False,Kamrej,Surat,"Plot No. 39, Soham Ind., Near Navagam, Kamrej, Kamrej, Surat - 394185, Dist.Surat, Gujarat",8047543657,
"Anion Chip Pink Bamboo Napkin Trifold, 10 Pads, XL",https://www.indiamart.com/proddetail/anion-chip-pink-bamboo-napkin-trifold-2854232129455.html?pos=56&kwd=maternity pads&tags=A||||8211.142|Price|product|||TS|rsf:gd-|-stype:attr=1|qr_nm:gd|res:RC3|com-cf:nl|ptrs:na|ktp:N0|mc:86310|mtp:S|qry_typ:P|lang:en|wc:2|cs:8833|v=4,AMI Care Products,https://www.softcozi.com/?pos=56&kwd=maternity pads&tags=A||||8211.142|Price|product|||TS|rsf:gd-|-stype:attr=1|qr_nm:gd|res:RC3|com-cf:nl|ptrs:na|ktp:N0|mc:86310|mtp:S|qry_typ:P|lang:en|wc:2|cs:8833|v=4,False,,Mumbai,"Ground Floor, G-2 Plot No 408, Hiren Industrial Estate, Bhagoji Keer Marg, Bristle Bakery, Mahim, Mumbai - 400016, Dist.Mumbai, Maharashtra",8045734676,
Soft & Secure Maxi Large,https://www.indiamart.com/proddetail/soft-secure-maxi-large-26889920212.html?pos=57&kwd=maternity pads&tags=BA||||8230.883|Price|product|||TS|rsf:gd-|-stype:attr=1|qr_nm:gd|res:RC3|com-cf:nl|ptrs:na|ktp:N0|mc:86310|mtp:S|qry_typ:P|lang:en|wc:2|cs:8833|v=4,VR Hygiene Care,https://www.indiamart.com/vrhygienecare/?pos=57&kwd=maternity pads&tags=BA||||8230.883|Price|product|||TS|rsf:gd-|-stype:attr=1|qr_nm:gd|res:RC3|com-cf:nl|ptrs:na|ktp:N0|mc:86310|mtp:S|qry_typ:P|lang:en|wc:2|cs:8833|v=4,False,Saniya Hemad,Surat,"A-12, Subham Ind.-1, Saniya Hemad, Saniya Hemad, Surat - 395006, Dist.Surat, Gujarat",8048969848,
Bamboo Maternity Pads,https://www.indiamart.com/proddetail/bamboo-maternity-pads-2853441439448.html?pos=58&kwd=maternity pads&tags=BA||||8230.883|Price|product|||TS|rsf:gd-|-stype:attr=1|qr_nm:gd|res:RC3|com-cf:nl|ptrs:na|ktp:N0|mc:86310|mtp:S|qry_typ:P|lang:en|wc:2|cs:8833|v=4,Sparkle Eco Innovations Private Limited,https://www.biodegradablesanitarypads.com/?pos=58&kwd=maternity pads&tags=BA||||8230.883|Price|product|||TS|rsf:gd-|-stype:attr=1|qr_nm:gd|res:RC3|com-cf:nl|ptrs:na|ktp:N0|mc:86310|mtp:S|qry_typ:P|lang:en|wc:2|cs:8833|v=4,False,Dhoran Pardi,Surat,"PL No. L-175, A-176 To A-189, C-190, Hindva Dreams, Dhoran Pardi, Kamrej, Dhoran Pardi, Surat - 394150, Dist.Surat, Gujarat",8043833958,
XXL Cotton Maternity Pads,https://www.indiamart.com/proddetail/xxl-cotton-maternity-pads-2852928923248.html?pos=59&kwd=maternity pads&tags=BA||||8752.144|Price|product|||TS|rsf:gd-|-stype:attr=1|qr_nm:gd|res:RC3|com-cf:nl|ptrs:na|ktp:N0|mc:86310|mtp:S|qry_typ:P|lang:en|wc:2|cs:8833|v=4,Sri Rajbhan Enterprises,https://www.indiamart.com/srirajbhanenterprises/?pos=59&kwd=maternity pads&tags=BA||||8752.144|Price|product|||TS|rsf:gd-|-stype:attr=1|qr_nm:gd|res:RC3|com-cf:nl|ptrs:na|ktp:N0|mc:86310|mtp:S|qry_typ:P|lang:en|wc:2|cs:8833|v=4,False,,New Delhi,"Flat No 18, Ganga Apartment, Alaknanda, New Delhi - 110019, Dist.Delhi, Delhi",7942956951,
"Cotton Maternity Pads, xl",https://www.indiamart.com/proddetail/cotton-maternity-pads-23725939155.html?pos=60&kwd=maternity pads&tags=BA||||8482.679|Price|product|||TS|rsf:gd-|-stype:attr=1|qr_nm:gd|res:RC3|com-cf:nl|ptrs:na|ktp:N0|mc:86310|mtp:S|qry_typ:P|lang:en|wc:2|cs:8833|v=4,On The Spot Infra.,https://www.indiamart.com/onthe-spotinfra/?pos=60&kwd=maternity pads&tags=BA||||8482.679|Price|product|||TS|rsf:gd-|-stype:attr=1|qr_nm:gd|res:RC3|com-cf:nl|ptrs:na|ktp:N0|mc:86310|mtp:S|qry_typ:P|lang:en|wc:2|cs:8833|v=4,False,Bangrod,Ratlam,"Bangrod, Bangrod, Ratlam - 457001, Dist.Ratlam, Madhya Pradesh",7942559398,
Cotton Maternity Pads,https://www.indiamart.com/proddetail/cotton-maternity-pads-2851583659430.html?pos=61&kwd=maternity pads&tags=BA||||8559.269||product|||TS|rsf:gd-|-stype:attr=1|qr_nm:gd|res:RC3|com-cf:nl|ptrs:na|ktp:N0|mc:86310|mtp:S|qry_typ:P|lang:en|wc:2|cs:8833|v=4,Yogesari Enterprises,https://www.indiamart.com/yogesari-enterprises/?pos=61&kwd=maternity pads&tags=BA||||8559.269||product|||TS|rsf:gd-|-stype:attr=1|qr_nm:gd|res:RC3|com-cf:nl|ptrs:na|ktp:N0|mc:86310|mtp:S|qry_typ:P|lang:en|wc:2|cs:8833|v=4,False,Bhagirathpura,Indore,"1122/3, Bhagirath Pura, Bhagirathpura, Indore - 452003, Dist.Indore, Madhya Pradesh",7942786651,
Wood Pulp Post Maternity Pads,https://www.indiamart.com/proddetail/post-maternity-pads-2853598413673.html?pos=62&kwd=maternity pads&tags=BA||||8774.064|Price|product|||TS|rsf:gd-|-stype:attr=1|qr_nm:gd|res:RC3|com-cf:nl|ptrs:na|ktp:N0|mc:86310|mtp:S|qry_typ:P|lang:en|wc:2|cs:8833|v=4,surgeons micro barrier,https://www.indiamart.com/surgeons-microbarrier/?pos=62&kwd=maternity pads&tags=BA||||8774.064|Price|product|||TS|rsf:gd-|-stype:attr=1|qr_nm:gd|res:RC3|com-cf:nl|ptrs:na|ktp:N0|mc:86310|mtp:S|qry_typ:P|lang:en|wc:2|cs:8833|v=4,False,Vasan City,Tiruchirappalli,"No. 2nd Floor, Renga Complex, Rettaivaikkal Vayalur Road, Vasan City, Tiruchirappalli - 620102, Dist.Tiruchirappalli, Tamil Nadu",8048604400,
Cotton Maternity Pads,https://www.indiamart.com/proddetail/cotton-maternity-pads-23195201673.html?pos=63&kwd=maternity pads&tags=BA||||9618.875|Price|product|||TS|rsf:gd-|-stype:attr=1|qr_nm:gd|res:RC3|com-cf:nl|ptrs:na|ktp:N0|mc:86310|mtp:S|qry_typ:P|lang:en|wc:2|cs:8833|v=4,Genpro Healthcare LLP,https://www.genprohealthcare.in/?pos=63&kwd=maternity pads&tags=BA||||9618.875|Price|product|||TS|rsf:gd-|-stype:attr=1|qr_nm:gd|res:RC3|com-cf:nl|ptrs:na|ktp:N0|mc:86310|mtp:S|qry_typ:P|lang:en|wc:2|cs:8833|v=4,False,Badi Pokharia,Begusarai,"407, Harihar Enclave, Near RPS More Patna, Bailey road Extension, Near Hyundai Showroom, Badi Pokharia, Begusarai - 851101, Dist.Begusarai, Bihar",8046079460,
Fighy Non Woven Maternity Sanitary Pad,https://www.indiamart.com/proddetail/maternity-sanitary-pad-24139301962.html?pos=64&kwd=maternity pads&tags=BA||||8478.165|Price|product|||TS|rsf:gd-|-stype:attr=1|qr_nm:gd|res:RC3|com-cf:nl|ptrs:na|ktp:N0|mc:86310|mtp:S|qry_typ:P|lang:en|wc:2|cs:8833|v=4,P & Q Hygiene Products,https://www.indiamart.com/pqhygieneproducts/?pos=64&kwd=maternity pads&tags=BA||||8478.165|Price|product|||TS|rsf:gd-|-stype:attr=1|qr_nm:gd|res:RC3|com-cf:nl|ptrs:na|ktp:N0|mc:86310|mtp:S|qry_typ:P|lang:en|wc:2|cs:8833|v=4,False,,Thazhecode,"TP11/260 A, B, C, Olakkal Building, Thondimmal, Thiruvambadi, Thazhecode - 673603, Dist.Kozhikode, Kerala",7942532245,
Cotton New Mom Maternity Pads,https://www.indiamart.com/proddetail/new-mom-maternity-pads-2851934587648.html?pos=65&kwd=maternity pads&tags=BA||||8706.587|Price|product|||TS|rsf:gd-|-stype:attr=1|qr_nm:gd|res:RC3|com-cf:nl|ptrs:na|ktp:N0|mc:86310|mtp:S|qry_typ:P|lang:en|wc:2|cs:8833|v=4,Sri Vela Pharmacy,https://www.srivelapharmacy.in/?pos=65&kwd=maternity pads&tags=BA||||8706.587|Price|product|||TS|rsf:gd-|-stype:attr=1|qr_nm:gd|res:RC3|com-cf:nl|ptrs:na|ktp:N0|mc:86310|mtp:S|qry_typ:P|lang:en|wc:2|cs:8833|v=4,False,Anna Nagar,Madurai,"HIG-28, 80 Feet, Main Road, Anna Nagar, Anna Nagar, Madurai - 625020, Dist.Madurai, Tamil Nadu",8048617702,
Cotton JOYDAYS(TM) Handmade Maternity Pads,https://www.indiamart.com/proddetail/joydays-tm-handmade-maternity-pads-21775640433.html?pos=66&kwd=maternity pads&tags=BA||||9839.57|Price|product|||TS|rsf:gd-|-stype:attr=1|qr_nm:gd|res:RC3|com-cf:nl|ptrs:na|ktp:N0|mc:86310|mtp:S|qry_typ:P|lang:en|wc:2|cs:8833|v=4,Rudra Hygienecare,https://www.indiamart.com/rudrahygienecare/?pos=66&kwd=maternity pads&tags=BA||||9839.57|Price|product|||TS|rsf:gd-|-stype:attr=1|qr_nm:gd|res:RC3|com-cf:nl|ptrs:na|ktp:N0|mc:86310|mtp:S|qry_typ:P|lang:en|wc:2|cs:8833|v=4,False,Borai,Kolkata,"Joydays House, D-73, Rabindrapally, Bramhapur Near Stream Laundry More, Borai, Kolkata - 700096, Dist.Kolkata, West Bengal",8046047332,
Cotton Net For Maternity Pads,https://www.indiamart.com/proddetail/cotton-net-for-maternity-pads-22156742912.html?pos=67&kwd=maternity pads&tags=BA||||8601.347|Price|product|||TS|rsf:gd-|-stype:attr=1|qr_nm:gd|res:RC3|com-cf:nl|ptrs:na|ktp:N0|mc:86310|mtp:S|qry_typ:P|lang:en|wc:2|cs:8833|v=4,Ritvik Enterprises,https://www.indiamart.com/ritvikenterprises-jaipur/?pos=67&kwd=maternity pads&tags=BA||||8601.347|Price|product|||TS|rsf:gd-|-stype:attr=1|qr_nm:gd|res:RC3|com-cf:nl|ptrs:na|ktp:N0|mc:86310|mtp:S|qry_typ:P|lang:en|wc:2|cs:8833|v=4,False,Mansarovar,Jaipur,"117/678, Agarwal Farm, Mansarovar, Jaipur - 302020, Dist.Jaipur, Rajasthan",7942545190,
New Mom Disposable Maternity Pads,https://www.indiamart.com/proddetail/new-mom-disposable-maternity-pads-20009284548.html?pos=68&kwd=maternity pads&tags=BA||||8954.051|Price|product|||TS|rsf:gd-|-stype:attr=1|qr_nm:gd|res:RC3|com-cf:nl|ptrs:na|ktp:N0|mc:86310|mtp:S|qry_typ:P|lang:en|wc:2|cs:8833|v=4,Auro Mira Medi Aids,https://www.indiamart.com/auromiramediaids/?pos=68&kwd=maternity pads&tags=BA||||8954.051|Price|product|||TS|rsf:gd-|-stype:attr=1|qr_nm:gd|res:RC3|com-cf:nl|ptrs:na|ktp:N0|mc:86310|mtp:S|qry_typ:P|lang:en|wc:2|cs:8833|v=4,False,Adyar,Chennai,"New No. 36, Old No. 32, Shriram Nagar Main Road, Adyar, Chennai - 600113, Dist.Chennai, Tamil Nadu",8048988682,
Non Woven Belted Maternity Pads,https://www.indiamart.com/proddetail/non-woven-belted-maternity-pads-20256620988.html?pos=69&kwd=maternity pads&tags=BA||||8211.142|Price|product|||TS|rsf:gd-|-stype:attr=1|qr_nm:gd|res:RC3|com-cf:nl|ptrs:na|ktp:N0|mc:86310|mtp:S|qry_typ:P|lang:en|wc:2|cs:8833|v=4,S A Enterprises,https://www.sanitarynapkinmachines.in/?pos=69&kwd=maternity pads&tags=BA||||8211.142|Price|product|||TS|rsf:gd-|-stype:attr=1|qr_nm:gd|res:RC3|com-cf:nl|ptrs:na|ktp:N0|mc:86310|mtp:S|qry_typ:P|lang:en|wc:2|cs:8833|v=4,False,Jogeshwari West,Mumbai,"Office No B/4 Diamond Sagar Apartment Near Markaz Restaurant Off To S.v. Road Jogeshwari West Mumbai, Jogeshwari West, Mumbai - 400102, Dist.Mumbai, Maharashtra",8048968650,
Cotton Maternity Pad,,Samyak Hygiene Care Private Limited,https://www.indiamart.com/samyakhygienecare/?pos=70&kwd=maternity pads&tags=BA||||8778.123||product|||TS|rsf:gd-|-stype:attr=1|qr_nm:gd|res:RC3|com-cf:nl|ptrs:na|ktp:N0|mc:86310|mtp:S|qry_typ:P|lang:en|wc:2|cs:8833|v=4,False,Ward No 11,Noida,"Plot No. 1782, Chatanga Road, Jewar, Guttam Bhudi Nagar, Ward No 11, Noida - 203135, Dist.Gautam Budh Nagar, Uttar Pradesh",8047640159,
Maternity Pads,https://www.indiamart.com/proddetail/maternity-pads-3650777297.html?pos=71&kwd=maternity pads&tags=BB||||8242.731|Price|product|||MDC|rsf:gd-|-stype:attr=1|qr_nm:gd|res:RC3|com-cf:nl|ptrs:na|ktp:N0|mc:86310|mtp:S|qry_typ:P|lang:en|wc:2|cs:8833|v=4,Moti Enterprises,https://www.indiamart.com/moti-enterprises/?pos=71&kwd=maternity pads&tags=BB||||8242.731|Price|product|||MDC|rsf:gd-|-stype:attr=1|qr_nm:gd|res:RC3|com-cf:nl|ptrs:na|ktp:N0|mc:86310|mtp:S|qry_typ:P|lang:en|wc:2|cs:8833|v=4,False,Sidhi Vinayak Nagar,Ulhasnagar,"B. K. 424, Room No. 8, Behind Heera Panna Building, Sidhi Vinayak Nagar, Ulhasnagar - 421001, Dist.Thane, Maharashtra",8046068234,
Cotton Maternity Pads,https://www.indiamart.com/proddetail/maternity-pads-22242693191.html?pos=72&kwd=maternity pads&tags=BA||||8211.142|Price|product|||MDC|rsf:gd-|-stype:attr=1|qr_nm:gd|res:RC3|com-cf:nl|ptrs:na|ktp:N0|mc:86310|mtp:S|qry_typ:P|lang:en|wc:2|cs:8833|v=4,Shri Sai Pharma,https://www.indiamart.com/shrisaipharma/?pos=72&kwd=maternity pads&tags=BA||||8211.142|Price|product|||MDC|rsf:gd-|-stype:attr=1|qr_nm:gd|res:RC3|com-cf:nl|ptrs:na|ktp:N0|mc:86310|mtp:S|qry_typ:P|lang:en|wc:2|cs:8833|v=4,False,Sion,Mumbai,"No. 1 Building, 112, Ashok Nagar, Sion-Trombay Road Sion, Chunabhatti, Sion, Mumbai - 400022, Dist.Mumbai, Maharashtra",8046055538,
HOx Cotton Maternity Sanitary Pad,https://www.indiamart.com/proddetail/maternity-sanitary-pad-19301186448.html?pos=73&kwd=maternity pads&tags=BB||||8663.873||product|||TS|rsf:gd-|-stype:attr=1|qr_nm:gd|res:RC3|com-cf:nl|ptrs:na|ktp:N0|mc:86310|mtp:S|qry_typ:P|lang:en|wc:2|cs:8833|v=4,Sony Pharmaceuticals,https://www.indiamart.com/sonypharmaceuticals/?pos=73&kwd=maternity pads&tags=BB||||8663.873||product|||TS|rsf:gd-|-stype:attr=1|qr_nm:gd|res:RC3|com-cf:nl|ptrs:na|ktp:N0|mc:86310|mtp:S|qry_typ:P|lang:en|wc:2|cs:8833|v=4,False,Chickpet,Bengaluru,"No. 3, 3rd Cross, Cottonpet, Chickpet, Bengaluru - 560053, Dist.Bengaluru, Karnataka",8046055038,
Cotton Profiklen Maternity Pad,https://www.indiamart.com/proddetail/profiklen-maternity-pad-2849569925248.html?pos=74&kwd=maternity pads&tags=BA||||9301.656|Price|product|||TS|rsf:gd-|-stype:attr=1|qr_nm:gd|res:RC3|com-cf:nl|ptrs:na|ktp:N0|mc:86310|mtp:S|qry_typ:P|lang:en|wc:2|cs:8833|v=4,Charan Pharmaceuticals,https://www.indiamart.com/charan-pharmaceuticals-varanasi/?pos=74&kwd=maternity pads&tags=BA||||9301.656|Price|product|||TS|rsf:gd-|-stype:attr=1|qr_nm:gd|res:RC3|com-cf:nl|ptrs:na|ktp:N0|mc:86310|mtp:S|qry_typ:P|lang:en|wc:2|cs:8833|v=4,False,Pandepur,Varanasi,"Sa 18 1 A 3 K G Pandeypur Nai Basti, Pandepur, Varanasi - 221007, Dist.Varanasi, Uttar Pradesh",7942719036,
Cotton Maternity Sanitary Pad,https://www.indiamart.com/proddetail/maternity-sanitary-pad-21548007897.html?pos=75&kwd=maternity pads&tags=BA||||8876.815|Price|product|||TS|rsf:gd-|-stype:attr=1|qr_nm:gd|res:RC3|com-cf:nl|ptrs:na|ktp:N0|mc:86310|mtp:S|qry_typ:P|lang:en|wc:2|cs:8833|v=4,Raytheon Power Engineering & Services,https://www.indiamart.com/raytheon-power-engineering-services/?pos=75&kwd=maternity pads&tags=BA||||8876.815|Price|product|||TS|rsf:gd-|-stype:attr=1|qr_nm:gd|res:RC3|com-cf:nl|ptrs:na|ktp:N0|mc:86310|mtp:S|qry_typ:P|lang:en|wc:2|cs:8833|v=4,False,Vivekanand Nagar,Nagpur,"Plot No. 55, Jaidurga Layout No. 4, Manish Nagar, Vivekanand Nagar, Nagpur - 440037, Dist.Nagpur, Maharashtra",7942563387,
Cotton Maternity Pad,https://www.indiamart.com/proddetail/cotton-maternity-pad-2853458306488.html?pos=76&kwd=maternity pads&tags=BB||||8769.508|Price|product|||TS|rsf:gd-|-stype:attr=1|qr_nm:gd|res:RC3|com-cf:nl|ptrs:na|ktp:N0|mc:86310|mtp:S|qry_typ:P|lang:en|wc:2|cs:8833|v=4,Yours Care,https://www.indiamart.com/yours-care-faridabad/?pos=76&kwd=maternity pads&tags=BB||||8769.508|Price|product|||TS|rsf:gd-|-stype:attr=1|qr_nm:gd|res:RC3|com-cf:nl|ptrs:na|ktp:N0|mc:86310|mtp:S|qry_typ:P|lang:en|wc:2|cs:8833|v=4,False,Ballabhgarh,Faridabad,"1217, Unnamed Road,, Ballabhgarh, Faridabad - 121004, Dist.Faridabad, Haryana",7942833221,
"Cotton Maternity Pad xxl, Model Name/Number: m999",https://www.indiamart.com/proddetail/maternity-pad-xxl-2854236997162.html?pos=77&kwd=maternity pads&tags=BA||||8778.123|Price|product|||TS|rsf:gd-|-stype:attr=1|qr_nm:gd|res:RC3|com-cf:nl|ptrs:na|ktp:N0|mc:86310|mtp:S|qry_typ:P|lang:en|wc:2|cs:8833|v=4,Pleasure Paradise,https://www.wonderfeel.in/?pos=77&kwd=maternity pads&tags=BA||||8778.123|Price|product|||TS|rsf:gd-|-stype:attr=1|qr_nm:gd|res:RC3|com-cf:nl|ptrs:na|ktp:N0|mc:86310|mtp:S|qry_typ:P|lang:en|wc:2|cs:8833|v=4,False,Sector 137,Noida,"11, T12 1105, Paras Tierea, Sector 137, Sector 137, Noida - 201301, Dist.Gautam Budh Nagar, Uttar Pradesh",8048612980,
Cotton Disposable Maternity Pad,https://www.indiamart.com/proddetail/disposable-maternity-pad-2848956434555.html?pos=78&kwd=maternity pads&tags=BA||||8210.732|Price|product|||TS|rsf:gd-|-stype:attr=1|qr_nm:gd|res:RC3|com-cf:nl|ptrs:na|ktp:N0|mc:86310|mtp:S|qry_typ:P|lang:en|wc:2|cs:8833|v=4,M S Enterprises,https://www.indiamart.com/m-senterprisesmumbai/?pos=78&kwd=maternity pads&tags=BA||||8210.732|Price|product|||TS|rsf:gd-|-stype:attr=1|qr_nm:gd|res:RC3|com-cf:nl|ptrs:na|ktp:N0|mc:86310|mtp:S|qry_typ:P|lang:en|wc:2|cs:8833|v=4,False,Andheri East,Vasai,"1st Floor, Gala No 113, Rajprabha Industrial Enclave No 6, Boidapada, Vasai East Palghar, Andheri East, Vasai - 401208, Dist.Thane, Maharashtra",8048974810,
Maternity Sanitary Pad,https://www.indiamart.com/proddetail/maternity-sanitary-pad-20246835430.html?pos=79&kwd=maternity pads&tags=BB||||8752.144|Price|product|||TS|rsf:gd-|-stype:attr=1|qr_nm:gd|res:RC3|com-cf:nl|ptrs:na|ktp:N0|mc:86310|mtp:S|qry_typ:P|lang:en|wc:2|cs:8833|v=4,Manu Shree Surgical Udyog,https://www.medwear.in/?pos=79&kwd=maternity pads&tags=BB||||8752.144|Price|product|||TS|rsf:gd-|-stype:attr=1|qr_nm:gd|res:RC3|com-cf:nl|ptrs:na|ktp:N0|mc:86310|mtp:S|qry_typ:P|lang:en|wc:2|cs:8833|v=4,False,Patel Nagar,New Delhi,"C-19, West Patel Nagar, Patel Nagar, New Delhi - 110008, Dist.Delhi, Delhi",7942544025,
Cotton Disposable Maternity Pads,https://www.indiamart.com/proddetail/disposable-maternity-pads-2853600446762.html?pos=80&kwd=maternity pads&tags=BA||||8752.144|Price|product|||MDC|rsf:gd-|-stype:attr=1|qr_nm:gd|res:RC3|com-cf:nl|ptrs:na|ktp:N0|mc:86310|mtp:S|qry_typ:P|lang:en|wc:2|cs:8833|v=4,Aksh Trading,https://www.indiamart.com/aksh-trading/?pos=80&kwd=maternity pads&tags=BA||||8752.144|Price|product|||MDC|rsf:gd-|-stype:attr=1|qr_nm:gd|res:RC3|com-cf:nl|ptrs:na|ktp:N0|mc:86310|mtp:S|qry_typ:P|lang:en|wc:2|cs:8833|v=4,False,Vikaspuri,New Delhi,"Flat No. 13A, CGHS Evershine Apartment, Vikash Puri, North West, Vikaspuri, New Delhi - 110018, Dist.Delhi, Delhi",7942660706,
Dignity Mom Maternity Pads,https://www.indiamart.com/proddetail/dignity-mom-maternity-pads-2853366966312.html?pos=81&kwd=maternity pads&tags=BA||||9301.656|Price|product|||MDC|rsf:gd-|-stype:attr=1|qr_nm:gd|res:RC3|com-cf:nl|ptrs:na|ktp:N0|mc:86310|mtp:S|qry_typ:P|lang:en|wc:2|cs:8833|v=4,A K Enterprise,https://www.indiamart.com/akenterprise-varanasi/?pos=81&kwd=maternity pads&tags=BA||||9301.656|Price|product|||MDC|rsf:gd-|-stype:attr=1|qr_nm:gd|res:RC3|com-cf:nl|ptrs:na|ktp:N0|mc:86310|mtp:S|qry_typ:P|lang:en|wc:2|cs:8833|v=4,False,Durgakund,Varanasi,"B 36/21 A-3, Brahmanand Nagar Colony, Durgakund, Durgakund, Varanasi - 221005, Dist.Varanasi, Uttar Pradesh",7949224546,
Non Woven Bella Maternity Pad,https://www.indiamart.com/proddetail/bella-maternity-pad-2854182754562.html?pos=82&kwd=maternity pads&tags=BA||||8788.382|Price|product|||MDC|rsf:gd-|-stype:attr=1|qr_nm:gd|res:RC3|com-cf:nl|ptrs:na|ktp:N0|mc:86310|mtp:S|qry_typ:P|lang:en|wc:2|cs:8833|v=4,Health4u,https://www.indiamart.com/health4u-greaternoida/?pos=82&kwd=maternity pads&tags=BA||||8788.382|Price|product|||MDC|rsf:gd-|-stype:attr=1|qr_nm:gd|res:RC3|com-cf:nl|ptrs:na|ktp:N0|mc:86310|mtp:S|qry_typ:P|lang:en|wc:2|cs:8833|v=4,False,,Greater Noida,"Shop No-5, H No-3, Pandat Complex, Ram Shyam Enclave, Chipiyana Buzurg,, Greater Noida - 201306, Dist.Gautam Budh Nagar, Uttar Pradesh",8045731446,
Cotton New Mom Maternity Pads,,Rajput Surgical,https://www.indiamart.com/rajput-surgical/?pos=83&kwd=maternity pads&tags=BA||||8838.804|Price|product|||MDC|rsf:gd-|-stype:attr=1|qr_nm:gd|res:RC3|com-cf:nl|ptrs:na|ktp:N0|mc:86310|mtp:S|qry_typ:P|lang:en|wc:2|cs:8833|v=4,False,Market,Aligarh,"S - 001 Ground Floor ROMOTEK BUILDING Near Champion, Market, Aligarh - 202001, Uttar Pradesh",7942547617,
280 mm Straight Sanitary Napkin,https://www.indiamart.com/proddetail/280-mm-straight-sanitary-napkin-2853019396812.html?pos=84&kwd=maternity pads&tags=BA||||9734.362|Price|product|||TS|rsf:gd-|-stype:attr=1|qr_nm:gd|res:RC3|com-cf:nl|ptrs:na|ktp:N0|mc:86310|mtp:S|qry_typ:P|lang:en|wc:2|cs:8833|v=4,Shree Krishna Traders,https://www.jasminehygiene.in/?pos=84&kwd=maternity pads&tags=BA||||9734.362|Price|product|||TS|rsf:gd-|-stype:attr=1|qr_nm:gd|res:RC3|com-cf:nl|ptrs:na|ktp:N0|mc:86310|mtp:S|qry_typ:P|lang:en|wc:2|cs:8833|v=4,False,Jogbani,Jogabani,"Plot No 649,650,2852,2853, Ward No 14, Post Office Road, Jogbani Post Office, Jogbani, Jogabani - 854328, Dist.Araria, Bihar",7942964191,
Cotton Profiklen Maternity Pad,https://www.indiamart.com/proddetail/profiklen-maternity-pad-22408348612.html?pos=85&kwd=maternity pads&tags=BA||||8752.144|Price|product|||MDC|rsf:gd-|-stype:attr=1|qr_nm:gd|res:RC3|com-cf:nl|ptrs:na|ktp:N0|mc:86310|mtp:S|qry_typ:P|lang:en|wc:2|cs:8833|v=4,Ambica Surgicare,https://www.indiamart.com/ambicasurgicare/?pos=85&kwd=maternity pads&tags=BA||||8752.144|Price|product|||MDC|rsf:gd-|-stype:attr=1|qr_nm:gd|res:RC3|com-cf:nl|ptrs:na|ktp:N0|mc:86310|mtp:S|qry_typ:P|lang:en|wc:2|cs:8833|v=4,False,Dwarka Sector 2,New Delhi,"RZ-4B, Lower Ground Floor Palam Vihar Dwarka, Dwarka Sector 2, New Delhi - 110075, Dist.Delhi, Delhi",8047646352,
Cotton Mulayam Maternity Pad,https://www.indiamart.com/proddetail/mulayam-maternity-pad-2855088271673.html?pos=86&kwd=maternity pads&tags=B||||8235.23|Price|product|||MDC|rsf:gd-|-stype:attr=1|qr_nm:gd|res:RC3|com-cf:nl|ptrs:na|ktp:N0|mc:86310|mtp:S|qry_typ:P|lang:en|wc:2|cs:8833|v=4,Indrayani Distributors,https://www.indiamart.com/indrayani-distributors/?pos=86&kwd=maternity pads&tags=B||||8235.23|Price|product|||MDC|rsf:gd-|-stype:attr=1|qr_nm:gd|res:RC3|com-cf:nl|ptrs:na|ktp:N0|mc:86310|mtp:S|qry_typ:P|lang:en|wc:2|cs:8833|v=4,False,Kalyan,Dombivli,"Shop No.12 To 17, Krishna Mai Building, Sagarli, Near Abhinav School, Dombivali East Sagarli Village, Kalyan, Dombivli - 421201, Dist.Thane, Maharashtra",7949306180,
Cotton Maternity Pad Belt,https://www.indiamart.com/proddetail/maternity-pad-belt-2853677080230.html?pos=87&kwd=maternity pads&tags=BA||||8230.883|Price|product|||MDC|rsf:gd-|-stype:attr=1|qr_nm:gd|res:RC3|com-cf:nl|ptrs:na|ktp:N0|mc:86310|mtp:S|qry_typ:P|lang:en|wc:2|cs:8833|v=4,Zainab Enterprise,https://www.indiamart.com/zainabenterprise-surat/?pos=87&kwd=maternity pads&tags=BA||||8230.883|Price|product|||MDC|rsf:gd-|-stype:attr=1|qr_nm:gd|res:RC3|com-cf:nl|ptrs:na|ktp:N0|mc:86310|mtp:S|qry_typ:P|lang:en|wc:2|cs:8833|v=4,False,Begampura,Surat,"Shop No.5,Ground Floor,Al Meena Appt.,,2210 - Zapabazar,Zampa Surat Surat City, Begampura, Surat - 395003, Dist.Surat, Gujarat",8048956780,
MATERNITY MAT EO STERILE,,KRG Medifabb Private Limited,https://www.indiamart.com/krg-medifabb/?pos=88&kwd=maternity pads&tags=BB||||8954.051|Price|product|||MDC|rsf:gd-|-stype:attr=1|qr_nm:gd|res:RC3|com-cf:nl|ptrs:na|ktp:N0|mc:86310|mtp:S|qry_typ:P|lang:en|wc:2|cs:8833|v=4,False,Korattur,Chennai,"50, Santhi Nagar, Korattur, Korattur, Chennai - 600080, Dist.Chennai, Tamil Nadu",7942968032,
"Disposable Kelly'S Maternity Pad, For Hospital Use And Home Use",https://www.indiamart.com/proddetail/disposable-kelly-s-maternity-pad-23315074362.html?pos=89&kwd=maternity pads&tags=BB||||8752.144|Price|product|||MDC|rsf:gd-|-stype:attr=1|qr_nm:gd|res:RC3|com-cf:nl|ptrs:na|ktp:N0|mc:86310|mtp:S|qry_typ:P|lang:en|wc:2|cs:8833|v=4,Medizone Surgical,https://www.indiamart.com/medizone-surgical/?pos=89&kwd=maternity pads&tags=BB||||8752.144|Price|product|||MDC|rsf:gd-|-stype:attr=1|qr_nm:gd|res:RC3|com-cf:nl|ptrs:na|ktp:N0|mc:86310|mtp:S|qry_typ:P|lang:en|wc:2|cs:8833|v=4,False,Uttam Nagar,New Delhi,"A-88, Vidya Vihar, Hastsal Industrial Area Uttam Nagar, Uttam Nagar, New Delhi - 110059, Dist.Delhi, Delhi",8048955337,
Non Woven Maternity Pad Dripping Sheet,https://www.indiamart.com/proddetail/maternity-pad-dripping-sheet-2853927969297.html?pos=90&kwd=maternity pads&tags=BA||||9349.906|Price|product|||MDC|rsf:gd-|-stype:attr=1|qr_nm:gd|res:RC3|com-cf:nl|ptrs:na|ktp:N0|mc:86310|mtp:S|qry_typ:P|lang:en|wc:2|cs:8833|v=4,Sunrise India,https://www.indiamart.com/sunriseindiauttarpradesh/?pos=90&kwd=maternity pads&tags=BA||||9349.906|Price|product|||MDC|rsf:gd-|-stype:attr=1|qr_nm:gd|res:RC3|com-cf:nl|ptrs:na|ktp:N0|mc:86310|mtp:S|qry_typ:P|lang:en|wc:2|cs:8833|v=4,False,Fertilizer Colony,Gorakhpur,"163 B, Jungle Nakha No 2, Bhagwanpur Khas, Fertilizer Colony, Gorakhpur - 273007, Dist.Gorakhpur, Uttar Pradesh",8044563806,
Cotton New Mom Maxi Maternity Sanitary Pad,https://www.indiamart.com/proddetail/new-mom-maxi-maternity-sanitary-pad-2852822209997.html?pos=91&kwd=maternity pads&tags=BA||||8661.854|Price|product|||MDC|rsf:gd-|-stype:attr=1|qr_nm:gd|res:RC3|com-cf:nl|ptrs:na|ktp:N0|mc:86310|mtp:S|qry_typ:P|lang:en|wc:2|cs:8833|v=4,Goodwill Pharmacy,https://www.indiamart.com/goodwill-pharmacy-punjab/?pos=91&kwd=maternity pads&tags=BA||||8661.854|Price|product|||MDC|rsf:gd-|-stype:attr=1|qr_nm:gd|res:RC3|com-cf:nl|ptrs:na|ktp:N0|mc:86310|mtp:S|qry_typ:P|lang:en|wc:2|cs:8833|v=4,False,Indl Colony,Ludhiana,"Shop No. 2, Guru Angad Dev Market, Janakpuri Chowk, Indl Colony, Ludhiana - 141003, Dist.Ludhiana, Punjab",8043873315,
Maternity Sanitary Pad,https://www.indiamart.com/proddetail/maternity-sanitary-pad-20246835430.html?pos=92&kwd=maternity pads&tags=BB||||8752.144|Price|product|||TS|rsf:gd-|-stype:attr=1|qr_nm:gd|res:RC3|com-cf:nl|ptrs:na|ktp:N0|mc:86310|mtp:S|qry_typ:P|lang:en|wc:2|cs:8833|v=4,Manu Shree Surgical Udyog,https://www.medwear.in/?pos=92&kwd=maternity pads&tags=BB||||8752.144|Price|product|||TS|rsf:gd-|-stype:attr=1|qr_nm:gd|res:RC3|com-cf:nl|ptrs:na|ktp:N0|mc:86310|mtp:S|qry_typ:P|lang:en|wc:2|cs:8833|v=4,False,Patel Nagar,New Delhi,"C-19, West Patel Nagar, Patel Nagar, New Delhi - 110008, Dist.Delhi, Delhi",7942544025,
Wood Pulp Maternity Pad With Belt/ Hospital Maternity Pad,https://www.indiamart.com/proddetail/maternity-pad-with-belt-hospital-maternity-pad-24534760155.html?pos=93&kwd=maternity pads&tags=BA||||8739.675|Price|product|||TS|rsf:gd-|-stype:attr=1|qr_nm:gd|res:RC3|com-cf:nl|ptrs:na|ktp:N0|mc:86310|mtp:S|qry_typ:P|lang:en|wc:2|cs:8833|v=4,Brothers Enterprises,https://www.indiamart.com/brothersenterprisesamravati/?pos=93&kwd=maternity pads&tags=BA||||8739.675|Price|product|||TS|rsf:gd-|-stype:attr=1|qr_nm:gd|res:RC3|com-cf:nl|ptrs:na|ktp:N0|mc:86310|mtp:S|qry_typ:P|lang:en|wc:2|cs:8833|v=4,False,Shendurjana Ghat,Amravati,"RK Square, 91, Near SBI, Sawta Chowk, Shendurjana Ghat, Shendurjana Ghat, Amravati - 444907, Dist.Amravati, Maharashtra",7942541279,
Maternity Sanitary Pad,https://www.indiamart.com/proddetail/maternity-sanitary-pad-25922687197.html?pos=94&kwd=maternity pads&tags=BA||||8211.142||product|||TS|rsf:gd-|-stype:attr=1|qr_nm:gd|res:RC3|com-cf:nl|ptrs:na|ktp:N0|mc:86310|mtp:S|qry_typ:P|lang:en|wc:2|cs:8833|v=4,Ennar Enterprises,https://www.indiamart.com/ennar-entp-mumbai/?pos=94&kwd=maternity pads&tags=BA||||8211.142||product|||TS|rsf:gd-|-stype:attr=1|qr_nm:gd|res:RC3|com-cf:nl|ptrs:na|ktp:N0|mc:86310|mtp:S|qry_typ:P|lang:en|wc:2|cs:8833|v=4,False,Masjid Bandar,Mumbai,"1st, M-101, Vardhaman Nagar, Dr R P Road, Masjid Bandar, Mumbai - 400080, Dist.Mumbai, Maharashtra",8046030904,
Soft & Secure Maxi Large,https://www.indiamart.com/proddetail/soft-secure-maxi-large-26889920212.html?pos=95&kwd=maternity pads&tags=BA||||8230.883|Price|product|||TS|rsf:gd-|-stype:attr=1|qr_nm:gd|res:RC3|com-cf:nl|ptrs:na|ktp:N0|mc:86310|mtp:S|qry_typ:P|lang:en|wc:2|cs:8833|v=4,VR Hygiene Care,https://www.indiamart.com/vrhygienecare/?pos=95&kwd=maternity pads&tags=BA||||8230.883|Price|product|||TS|rsf:gd-|-stype:attr=1|qr_nm:gd|res:RC3|com-cf:nl|ptrs:na|ktp:N0|mc:86310|mtp:S|qry_typ:P|lang:en|wc:2|cs:8833|v=4,False,Saniya Hemad,Surat,"A-12, Subham Ind.-1, Saniya Hemad, Saniya Hemad, Surat - 395006, Dist.Surat, Gujarat",8048969848,
Sangini Sanitary Napkin,https://www.indiamart.com/proddetail/sangini-sanitary-napkin-23468782262.html?pos=96&kwd=maternity pads&tags=BA||||8601.347|Price|product|||TS|rsf:gd-|-stype:attr=1|qr_nm:gd|res:RC3|com-cf:nl|ptrs:na|ktp:N0|mc:86310|mtp:S|qry_typ:P|lang:en|wc:2|cs:8833|v=4,Jackson Care Product,https://www.jacksoncare.in/?pos=96&kwd=maternity pads&tags=BA||||8601.347|Price|product|||TS|rsf:gd-|-stype:attr=1|qr_nm:gd|res:RC3|com-cf:nl|ptrs:na|ktp:N0|mc:86310|mtp:S|qry_typ:P|lang:en|wc:2|cs:8833|v=4,False,Jaisinghpura Khor,Jaipur,"No. 199, Rishi Galav Nagar, Jaisinghpura Khor, Jaipur - 302002, Dist.Jaipur, Rajasthan",8048965113,
280mm Cotton Regular Pad,https://www.indiamart.com/proddetail/280mm-cotton-regular-pad-26183656473.html?pos=97&kwd=maternity pads&tags=BA||||8752.144|Price|product|||TS|rsf:gd-|-stype:attr=1|qr_nm:gd|res:RC3|com-cf:nl|ptrs:na|ktp:N0|mc:86310|mtp:S|qry_typ:P|lang:en|wc:2|cs:8833|v=4,Tejas Enterprises,https://www.indiamart.com/tejasenterprises-delhi/?pos=97&kwd=maternity pads&tags=BA||||8752.144|Price|product|||TS|rsf:gd-|-stype:attr=1|qr_nm:gd|res:RC3|com-cf:nl|ptrs:na|ktp:N0|mc:86310|mtp:S|qry_typ:P|lang:en|wc:2|cs:8833|v=4,False,New Mustafabad,New Delhi,"D - 6/162 - A, D - Block, Near Gali No.7, Main Road Brijpuri, New Mustafabad, New Delhi - 110094, Dist.Delhi, Delhi",8043855624,
Maternity Pads,,Sanitech Hygiene,https://www.indiamart.com/sanitech-hygiene/?pos=98&kwd=maternity pads&tags=BA||||9110.092|Price|product|||MDC|rsf:gd-|-stype:attr=1|qr_nm:gd|res:RC3|com-cf:nl|ptrs:na|ktp:N0|mc:86310|mtp:S|qry_typ:P|lang:en|wc:2|cs:8833|v=4,False,Daliganj,Lucknow,"PLOT NO 16, IIM Road, Semra Gadhi Maharishi University Dwarikapuri Colony, Daliganj, Lucknow - 226020, Dist.Lucknow, Uttar Pradesh",7949226105,
Pregnancy Pad,https://www.indiamart.com/proddetail/pregnancy-pad-2853648653897.html?pos=99&kwd=maternity pads&tags=A||||8331.224|Price|product|||NA|rsf:gd-|-stype:attr=1|qr_nm:gd|res:RC3|com-cf:nl|ptrs:na|ktp:N0|mc:86310|mtp:S|qry_typ:P|lang:en|wc:2|cs:8833|v=4,Infinity Products,https://www.indiamart.com/infinity-products-kolhapur/?pos=99&kwd=maternity pads&tags=A||||8331.224|Price|product|||NA|rsf:gd-|-stype:attr=1|qr_nm:gd|res:RC3|com-cf:nl|ptrs:na|ktp:N0|mc:86310|mtp:S|qry_typ:P|lang:en|wc:2|cs:8833|v=4,False,Shukrawar Peth,Kolhapur,"2015, D Ward, Shukrawar Peth, Shukrawar Peth, Kolhapur - 416002, Dist.Kolhapur, Maharashtra",7949092441,
"Wood Pulp Maternity Sanitary Pad, 5 Pads",https://www.indiamart.com/proddetail/maternity-sanitary-pad-2850825412348.html?pos=100&kwd=maternity pads&tags=A||||9831.75|Price|product|||NA|rsf:gd-|-stype:attr=1|qr_nm:gd|res:RC3|com-cf:nl|ptrs:na|ktp:N0|mc:86310|mtp:S|qry_typ:P|lang:en|wc:2|cs:8833|v=4,Super Dreams,https://www.indiamart.com/superdreams-baharampur/?pos=100&kwd=maternity pads&tags=A||||9831.75|Price|product|||NA|rsf:gd-|-stype:attr=1|qr_nm:gd|res:RC3|com-cf:nl|ptrs:na|ktp:N0|mc:86310|mtp:S|qry_typ:P|lang:en|wc:2|cs:8833|v=4,False,Keshobnagar,Baharampur,"Urban Primary Health Centre Cossimbazaar, Cossimbazr Keshabnagar, Berhampore, Murshidabad, Keshobnagar, Baharampur - 742102, Dist.Murshidabad, West Bengal",7942799694,
Maharashtra Enterprises,,Maharashtra Enterprises,https://www.indiamart.com/maharashtraenterprises-thane/?pos=101&kwd=maternity pads&tags=BA||||8223.226||bl|||TS|rsf:gd-|-stype:attr=1|qr_nm:gd|res:RC3|com-cf:nl|ptrs:na|ktp:N0|mc:86310|mtp:S|qry_typ:P|lang:en|wc:2|cs:8833|v=4,False,Thakurli,Thane,"E/104, Sarvoday Anand Co. Op. Hsg. Soc., Thakurli, Thane - 421201, Dist.Thane, Maharashtra",8048974056,
Cotton Biobud Herbal Maternity Pads,https://www.indiamart.com/proddetail/biobud-herbal-maternity-pads-24195234033.html?pos=102&kwd=maternity pads&tags=BB||||8706.587|Price|product|||NA|rsf:gd-|-stype:attr=1|qr_nm:gd|res:RC3|com-cf:nl|ptrs:na|ktp:N0|mc:86310|mtp:S|qry_typ:P|lang:en|wc:2|cs:8833|v=4,Natura Hygiene Products,https://www.indiamart.com/naturahygieneproducts/?pos=102&kwd=maternity pads&tags=BB||||8706.587|Price|product|||NA|rsf:gd-|-stype:attr=1|qr_nm:gd|res:RC3|com-cf:nl|ptrs:na|ktp:N0|mc:86310|mtp:S|qry_typ:P|lang:en|wc:2|cs:8833|v=4,False,,Madurai,"29, Sambandha Moorthy Street, Near West Masi Street, Madurai - 625001, Dist.Madurai, Tamil Nadu",8069033801,445
Disposable Women's Postpartum Pregnancy Maternity Panty (350ML Heavy Discharge Absorbance)Pack of 5,https://www.indiamart.com/proddetail/disposable-women-s-postpartum-pregnancy-maternity-panty-350ml-heavy-discharge-absorbance-pack-of-5-2851788722933.html?pos=103&kwd=maternity pads&tags=BA||||8778.123|Price|product|||NA|rsf:gd-|-stype:attr=1|qr_nm:gd|res:RC3|com-cf:nl|ptrs:na|ktp:N0|mc:86310|mtp:S|qry_typ:P|lang:en|wc:2|cs:8833|v=4,White Square,https://www.indiamart.com/white-square-noida/?pos=103&kwd=maternity pads&tags=BA||||8778.123|Price|product|||NA|rsf:gd-|-stype:attr=1|qr_nm:gd|res:RC3|com-cf:nl|ptrs:na|ktp:N0|mc:86310|mtp:S|qry_typ:P|lang:en|wc:2|cs:8833|v=4,False,Sector 62,Noida,"46, Sanchar Vihar, C58/4, Sector 62, Gautambuddha Nagar, Sector 62, Noida - 201307, Dist.Gautam Budh Nagar, Uttar Pradesh",7942871407,
"MY WINGS Maternity pad, RECTANGULAR, for Hospital",https://www.indiamart.com/proddetail/maternity-pad-20543386012.html?pos=104&kwd=maternity pads&tags=BB||||8830.388|Price|product|||NA|rsf:gd-|-stype:attr=1|qr_nm:gd|res:RC3|com-cf:nl|ptrs:na|ktp:N0|mc:86310|mtp:S|qry_typ:P|lang:en|wc:2|cs:8833|v=4,S G Enterprises,https://www.indiamart.com/sg-enterprises-gwalior/?pos=104&kwd=maternity pads&tags=BB||||8830.388|Price|product|||NA|rsf:gd-|-stype:attr=1|qr_nm:gd|res:RC3|com-cf:nl|ptrs:na|ktp:N0|mc:86310|mtp:S|qry_typ:P|lang:en|wc:2|cs:8833|v=4,False,Lashkar,Gwalior,"62,HELIPAD COLONY, ROSHNI GHAR ROAD,LASHKAR 62, Helipad Colony, Roshni Ghar Road,474009,Gwalior, Lashkar, Gwalior - 474001, Dist.Gwalior, Madhya Pradesh",8069033801,405
Maternity Cotton Pads,https://www.indiamart.com/proddetail/maternity-cotton-pads-5682476262.html?pos=105&kwd=maternity pads&tags=BB||||8224.965|Price|product|||NA|rsf:gd-|-stype:attr=1|qr_nm:gd|res:RC3|com-cf:nl|ptrs:na|ktp:N0|mc:86310|mtp:S|qry_typ:P|lang:en|wc:2|cs:8833|v=4,Apollo Trading Company,https://www.indiamart.com/apollo-trading-company-palanpur/?pos=105&kwd=maternity pads&tags=BB||||8224.965|Price|product|||NA|rsf:gd-|-stype:attr=1|qr_nm:gd|res:RC3|com-cf:nl|ptrs:na|ktp:N0|mc:86310|mtp:S|qry_typ:P|lang:en|wc:2|cs:8833|v=4,False,Highway Road,Kalol Gandhinagar District,"J 7, Shub Complex, Nr. Pooja Parlour, Highway Road, Kalol Gandhinagar District - 382721, Gujarat",8048371592,929
Non Woven And Wood Pulp Maternity Pads,,Caretech Sanitary Napkins,https://www.indiamart.com/caretech-sanitary-napkins/?pos=106&kwd=maternity pads&tags=BA||||8307.81||product|||NA|rsf:gd-|-stype:attr=1|qr_nm:gd|res:RC3|com-cf:nl|ptrs:na|ktp:N0|mc:86310|mtp:S|qry_typ:P|lang:en|wc:2|cs:8833|v=4,False,DEHUGOAN,Pune,"H No 241 Zende Mala Dehugoan ZENDE MALA,, DEHUGOAN, Pune - 412109, Dist.Pune, Maharashtra",8062245064,252
Cotton Net for Maternity Pads,https://www.indiamart.com/proddetail/cotton-net-for-maternity-pads-21982993255.html?pos=107&kwd=maternity pads&tags=BB||||8226.563||product|||NA|rsf:gd-|-stype:attr=1|qr_nm:gd|res:RC3|com-cf:nl|ptrs:na|ktp:N0|mc:86310|mtp:S|qry_typ:P|lang:en|wc:2|cs:8833|v=4,Innovativ Biosciences Private Limited,https://www.indiamart.com/innovativbiosciences/?pos=107&kwd=maternity pads&tags=BB||||8226.563||product|||NA|rsf:gd-|-stype:attr=1|qr_nm:gd|res:RC3|com-cf:nl|ptrs:na|ktp:N0|mc:86310|mtp:S|qry_typ:P|lang:en|wc:2|cs:8833|v=4,False,,Navi Mumbai,"Plot 107, Sai Mauli Hospital, Sector1, Ghansoli, Raigad, Navi Mumbai - 400701, Dist.Thane, Maharashtra",8048372604,654
Cotton Maternity Pads,https://www.indiamart.com/proddetail/maternity-pads-26010804888.html?pos=108&kwd=maternity pads&tags=BB||||8307.81|Price|product|||NA|rsf:gd-|-stype:attr=1|qr_nm:gd|res:RC3|com-cf:nl|ptrs:na|ktp:N0|mc:86310|mtp:S|qry_typ:P|lang:en|wc:2|cs:8833|v=4,Health Pharma And Surgical,https://www.indiamart.com/healthpharmasurgical/?pos=108&kwd=maternity pads&tags=BB||||8307.81|Price|product|||NA|rsf:gd-|-stype:attr=1|qr_nm:gd|res:RC3|com-cf:nl|ptrs:na|ktp:N0|mc:86310|mtp:S|qry_typ:P|lang:en|wc:2|cs:8833|v=4,False,,Pune,"Shop No. A-5, Ground Floor, H. A. Developer, Phase-II, Sr. No. 4/1, 4/2, Priyadarshani Nagar, Sangvi, Pune - 411027, Dist.Pune, Maharashtra",8043852002,
"BE FIT Hoapital Maternity Pad, for Hospital",https://www.indiamart.com/proddetail/hoapital-maternity-pad-20629664591.html?pos=109&kwd=maternity pads&tags=BB||||9840.983|Price|product|||NA|rsf:gd-|-stype:attr=1|qr_nm:gd|res:RC3|com-cf:nl|ptrs:na|ktp:N0|mc:86310|mtp:S|qry_typ:P|lang:en|wc:2|cs:8833|v=4,Shil Micro Industry,https://www.indiamart.com/shilmicroindustry/?pos=109&kwd=maternity pads&tags=BB||||9840.983|Price|product|||NA|rsf:gd-|-stype:attr=1|qr_nm:gd|res:RC3|com-cf:nl|ptrs:na|ktp:N0|mc:86310|mtp:S|qry_typ:P|lang:en|wc:2|cs:8833|v=4,False,,Nabadwip,"Kalekhantala, East Bardhaman, Nabadwip - 713513, Dist.Nadia, West Bengal",8048371796,285
Cotton Absorbent Maternity Pads,https://www.indiamart.com/proddetail/absorbent-maternity-pads-22858791088.html?pos=110&kwd=maternity pads&tags=BB||||9104.467|Price|product|||NA|rsf:gd-|-stype:attr=1|qr_nm:gd|res:RC3|com-cf:nl|ptrs:na|ktp:N0|mc:86310|mtp:S|qry_typ:P|lang:en|wc:2|cs:8833|v=4,Mamta Tamrakar,https://www.indiamart.com/b-m-pharma/?pos=110&kwd=maternity pads&tags=BB||||9104.467|Price|product|||NA|rsf:gd-|-stype:attr=1|qr_nm:gd|res:RC3|com-cf:nl|ptrs:na|ktp:N0|mc:86310|mtp:S|qry_typ:P|lang:en|wc:2|cs:8833|v=4,False,,Durg,"Medical Complex JIVAN REKHA PARISAR, Durg - 490006, Dist.Durg, Chhattisgarh",7942635263,
Cotton 400mm Maternity Pads,https://www.indiamart.com/proddetail/400mm-maternity-pads-25296705097.html?pos=111&kwd=maternity pads&tags=BB||||9842.926|Price|product|||NA|rsf:gd-|-stype:attr=1|qr_nm:gd|res:RC3|com-cf:nl|ptrs:na|ktp:N0|mc:86310|mtp:S|qry_typ:P|lang:en|wc:2|cs:8833|v=4,SK Enterprise,https://www.indiamart.com/sk-enterprisewestbengal/?pos=111&kwd=maternity pads&tags=BB||||9842.926|Price|product|||NA|rsf:gd-|-stype:attr=1|qr_nm:gd|res:RC3|com-cf:nl|ptrs:na|ktp:N0|mc:86310|mtp:S|qry_typ:P|lang:en|wc:2|cs:8833|v=4,False,,South 24 Parganas,"Ward No.5 Plot No.2676 R.S khatian 2205 PS Baruipur Kalikanan Nalgara, South 24 Parganas - 700144, Dist.South 24 Parganas, West Bengal",8047314966,
BRS Maternity Sanitary Pads,https://www.indiamart.com/proddetail/maternity-sanitary-pads-23627353097.html?pos=112&kwd=maternity pads&tags=BB||||9829.308|Price|product|||NA|rsf:gd-|-stype:attr=1|qr_nm:gd|res:RC3|com-cf:nl|ptrs:na|ktp:N0|mc:86310|mtp:S|qry_typ:P|lang:en|wc:2|cs:8833|v=4,Bibhuti Bhusan Enterprise,https://www.indiamart.com/bibhutibhusanenterprise/?pos=112&kwd=maternity pads&tags=BB||||9829.308|Price|product|||NA|rsf:gd-|-stype:attr=1|qr_nm:gd|res:RC3|com-cf:nl|ptrs:na|ktp:N0|mc:86310|mtp:S|qry_typ:P|lang:en|wc:2|cs:8833|v=4,False,,Howrah,"Mollahat Dakshin Dingakhola Shyampur Mollahat Dakshin Dingakhola Shyampur Mollahat Behala, Howrah - 711314, Dist.Howrah, West Bengal",7942786619,
Disposable Maternity Pad,https://www.indiamart.com/proddetail/disposable-maternity-pad-2852696700188.html?pos=113&kwd=maternity pads&tags=BA||||8823.154|Price|product|||NA|rsf:gd-|-stype:attr=1|qr_nm:gd|res:RC3|com-cf:nl|ptrs:na|ktp:N0|mc:86310|mtp:S|qry_typ:P|lang:en|wc:2|cs:8833|v=4,Ease Choice,https://www.indiamart.com/easechoice/?pos=113&kwd=maternity pads&tags=BA||||8823.154|Price|product|||NA|rsf:gd-|-stype:attr=1|qr_nm:gd|res:RC3|com-cf:nl|ptrs:na|ktp:N0|mc:86310|mtp:S|qry_typ:P|lang:en|wc:2|cs:8833|v=4,False,Baghichi,Agra,"74 Malookchand Narayan Enclave, Baghichi, Agra - 282001, Dist.Agra, Uttar Pradesh",7942833694,
Cotton Maternity Pads,https://www.indiamart.com/proddetail/cotton-maternity-pads-20811569762.html?pos=114&kwd=maternity pads&tags=BB||||8307.81|Price|product|||NA|rsf:gd-|-stype:attr=1|qr_nm:gd|res:RC3|com-cf:nl|ptrs:na|ktp:N0|mc:86310|mtp:S|qry_typ:P|lang:en|wc:2|cs:8833|v=4,Vighnesh Enterprises,https://www.indiamart.com/vigneshenterprisespune/?pos=114&kwd=maternity pads&tags=BB||||8307.81|Price|product|||NA|rsf:gd-|-stype:attr=1|qr_nm:gd|res:RC3|com-cf:nl|ptrs:na|ktp:N0|mc:86310|mtp:S|qry_typ:P|lang:en|wc:2|cs:8833|v=4,False,,Pune,"Shop No. D-1 Sinhagad Road Manibandha Complex Hingne Khurd, Pune - 411051, Dist.Pune, Maharashtra",8048609613,
"Loop Type Plain Maternity Sanitary Pads, for Hospital",https://www.indiamart.com/proddetail/maternity-sanitary-pads-21427314112.html?pos=115&kwd=maternity pads&tags=BB||||8954.051|Price|product|||NA|rsf:gd-|-stype:attr=1|qr_nm:gd|res:RC3|com-cf:nl|ptrs:na|ktp:N0|mc:86310|mtp:S|qry_typ:P|lang:en|wc:2|cs:8833|v=4,S G Healthcare,https://www.indiamart.com/s-g-healthcare/?pos=115&kwd=maternity pads&tags=BB||||8954.051|Price|product|||NA|rsf:gd-|-stype:attr=1|qr_nm:gd|res:RC3|com-cf:nl|ptrs:na|ktp:N0|mc:86310|mtp:S|qry_typ:P|lang:en|wc:2|cs:8833|v=4,False,Kolathur,Chennai,"12, Redhills Road, Kolathur, Kolathur, Chennai - 600099, Dist.Chennai, Tamil Nadu",8047780223,
Maternity Pads Regular,https://www.indiamart.com/proddetail/maternity-pads-regular-23425619348.html?pos=116&kwd=maternity pads&tags=BB||||8228.275|Price|product|||NA|rsf:gd-|-stype:attr=1|qr_nm:gd|res:RC3|com-cf:nl|ptrs:na|ktp:N0|mc:86310|mtp:S|qry_typ:P|lang:en|wc:2|cs:8833|v=4,Shree Shakembri Enterprise,https://www.indiamart.com/shree-shakembri-enterprise/?pos=116&kwd=maternity pads&tags=BB||||8228.275|Price|product|||NA|rsf:gd-|-stype:attr=1|qr_nm:gd|res:RC3|com-cf:nl|ptrs:na|ktp:N0|mc:86310|mtp:S|qry_typ:P|lang:en|wc:2|cs:8833|v=4,False,sabarmati,Ahmedabad,"4, GOPALDAS NI CHALI,NR. J. P. CHALI SABARMATI RAILWAY BRIDGE SABARMATI, sabarmati, Ahmedabad - 380005, Dist.Ahmedabad, Gujarat",8048372181,847
Cotton Bee Free Maternity Pads,https://www.indiamart.com/proddetail/bee-free-maternity-pads-2852939920248.html?pos=117&kwd=maternity pads&tags=BA||||8785.791|Price|product|||NA|rsf:gd-|-stype:attr=1|qr_nm:gd|res:RC3|com-cf:nl|ptrs:na|ktp:N0|mc:86310|mtp:S|qry_typ:P|lang:en|wc:2|cs:8833|v=4,Bansal Trading Co.,https://www.indiamart.com/bansaltrading-co-ghaziabad/?pos=117&kwd=maternity pads&tags=BA||||8785.791|Price|product|||NA|rsf:gd-|-stype:attr=1|qr_nm:gd|res:RC3|com-cf:nl|ptrs:na|ktp:N0|mc:86310|mtp:S|qry_typ:P|lang:en|wc:2|cs:8833|v=4,False,,Ghaziabad,"R-41, Advocate Colony, Sector-12, Pratap Vihar, Ghaziabad - 201009, Dist.Ghaziabad, Uttar Pradesh",7942969210,
SKU Cotton Maternity Pads,https://www.indiamart.com/proddetail/sku-cotton-maternity-pads-23223866773.html?pos=118&kwd=maternity pads&tags=BB||||8307.81|Price|product|||NA|rsf:gd-|-stype:attr=1|qr_nm:gd|res:RC3|com-cf:nl|ptrs:na|ktp:N0|mc:86310|mtp:S|qry_typ:P|lang:en|wc:2|cs:8833|v=4,Anand Distributors,https://www.indiamart.com/anand-distributors-pune/?pos=118&kwd=maternity pads&tags=BB||||8307.81|Price|product|||NA|rsf:gd-|-stype:attr=1|qr_nm:gd|res:RC3|com-cf:nl|ptrs:na|ktp:N0|mc:86310|mtp:S|qry_typ:P|lang:en|wc:2|cs:8833|v=4,False,Kasba Peth,Pune,"KRUSHNA KUNJ HOUSING SOC,,BEHIND SURYA HOSPITAL,1320 KASBA PETH No. 1320,411011,Pune, Kasba Peth, Pune - 411030, Dist.Pune, Maharashtra",8043819866,
Cotton High Absorbency Maternity Pads,https://www.indiamart.com/proddetail/high-absorbency-maternity-pads-25859836097.html?pos=119&kwd=maternity pads&tags=BB||||8984.809|Price|product|||NA|rsf:gd-|-stype:attr=1|qr_nm:gd|res:RC3|com-cf:nl|ptrs:na|ktp:N0|mc:86310|mtp:S|qry_typ:P|lang:en|wc:2|cs:8833|v=4,Avi Surgical,https://www.indiamart.com/avi-surgical/?pos=119&kwd=maternity pads&tags=BB||||8984.809|Price|product|||NA|rsf:gd-|-stype:attr=1|qr_nm:gd|res:RC3|com-cf:nl|ptrs:na|ktp:N0|mc:86310|mtp:S|qry_typ:P|lang:en|wc:2|cs:8833|v=4,False,,Jabalpur,"12, SBI Colony, Vikas Nagar, Cherital Ward, Jabalpur - 482002, Dist.Jabalpur, Madhya Pradesh",8047672354,
Non Woven Romsons Mom Maternity Pads,https://www.indiamart.com/proddetail/romsons-mom-maternity-pads-24944117791.html?pos=120&kwd=maternity pads&tags=BB||||8559.759||product|||NA|rsf:gd-|-stype:attr=1|qr_nm:gd|res:RC3|com-cf:nl|ptrs:na|ktp:N0|mc:86310|mtp:S|qry_typ:P|lang:en|wc:2|cs:8833|v=4,Arora Distributors,https://www.indiamart.com/arora-distributorsfaridkot/?pos=120&kwd=maternity pads&tags=BB||||8559.759||product|||NA|rsf:gd-|-stype:attr=1|qr_nm:gd|res:RC3|com-cf:nl|ptrs:na|ktp:N0|mc:86310|mtp:S|qry_typ:P|lang:en|wc:2|cs:8833|v=4,False,,Faridkot,"Near Clock Tower, Artora Distributors, Faridkot - 151203, Dist.Faridkot, Punjab",7942534459,
Cotton Suvidha Regular Maternity Pads,https://www.indiamart.com/proddetail/suvidha-regular-maternity-pads-2854380237312.html?pos=121&kwd=maternity pads&tags=BA||||8830.388|Price|product|||NA|rsf:gd-|-stype:attr=1|qr_nm:gd|res:RC3|com-cf:nl|ptrs:na|ktp:N0|mc:86310|mtp:S|qry_typ:P|lang:en|wc:2|cs:8833|v=4,Prayas Mahila Udhyog,https://www.indiamart.com/prayasmahilaudhyog/?pos=121&kwd=maternity pads&tags=BA||||8830.388|Price|product|||NA|rsf:gd-|-stype:attr=1|qr_nm:gd|res:RC3|com-cf:nl|ptrs:na|ktp:N0|mc:86310|mtp:S|qry_typ:P|lang:en|wc:2|cs:8833|v=4,False,,Gwalior,"72/3, R J Puram Bhind Road, Gole Ka Mandir, Gwalior - 474005, Dist.Gwalior, Madhya Pradesh",7942718045,
"700mm Belt Model Ultra Thin Maternity Pads, For Hospital",https://www.indiamart.com/proddetail/ultra-thin-maternity-pads-24129176548.html?pos=122&kwd=maternity pads&tags=BB||||8954.051|Price|product|||NA|rsf:gd-|-stype:attr=1|qr_nm:gd|res:RC3|com-cf:nl|ptrs:na|ktp:N0|mc:86310|mtp:S|qry_typ:P|lang:en|wc:2|cs:8833|v=4,Swathy Garments,https://www.indiamart.com/swathygarments/?pos=122&kwd=maternity pads&tags=BB||||8954.051|Price|product|||NA|rsf:gd-|-stype:attr=1|qr_nm:gd|res:RC3|com-cf:nl|ptrs:na|ktp:N0|mc:86310|mtp:S|qry_typ:P|lang:en|wc:2|cs:8833|v=4,False,,Chennai,"No. 1/A, Rajaji Street, Gerugambakkam, Chennai - 600122, Dist.Chennai, Tamil Nadu",8045907506,
Maternity Pads,,Krishna Enterprises,https://www.indiamart.com/krishnaenterprises-21187124/?pos=123&kwd=maternity pads&tags=BB||||8461.862|Price|product|||NA|rsf:gd-|-stype:attr=1|qr_nm:gd|res:RC3|com-cf:nl|ptrs:na|ktp:N0|mc:86310|mtp:S|qry_typ:P|lang:en|wc:2|cs:8833|v=4,False,Azad nagar,Bhilwara,"sector -0-197 sector -0-197 , Bhilwara, Azad nagar, Bhilwara - 311001, Dist.Bhilwara, Rajasthan",8047308844,9474
"Wood Pulp GynoMat Belted Maternity pads (580mm), Model Name/Number: Gmb",https://www.indiamart.com/proddetail/gynomat-belted-maternity-pads-28580mm-29-2852755158788.html?pos=124&kwd=maternity pads&tags=BA||||8211.142|Price|product|||NA|rsf:gd-|-stype:attr=1|qr_nm:gd|res:RC3|com-cf:nl|ptrs:na|ktp:N0|mc:86310|mtp:S|qry_typ:P|lang:en|wc:2|cs:8833|v=4,Akruti Products,https://www.indiamart.com/akruti-products/?pos=124&kwd=maternity pads&tags=BA||||8211.142|Price|product|||NA|rsf:gd-|-stype:attr=1|qr_nm:gd|res:RC3|com-cf:nl|ptrs:na|ktp:N0|mc:86310|mtp:S|qry_typ:P|lang:en|wc:2|cs:8833|v=4,False,VILE PARLE EAST,Mumbai,"A202 BALAJI BUSINESS CENTRE SUBHASH ROAD, VILE PARLE EAST, Mumbai - 400057, Dist.Mumbai, Maharashtra",8048361298,263
Mee Mee Cotton Maternity Breast Pads,https://www.indiamart.com/proddetail/mee-mee-cotton-maternity-breast-pads-2851843866588.html?pos=125&kwd=maternity pads&tags=BB||||8500.97|Price|product|||NA|rsf:gd-|-stype:attr=1|qr_nm:gd|res:RC3|com-cf:nl|ptrs:na|ktp:N0|mc:86310|mtp:S|qry_typ:P|lang:en|wc:2|cs:8833|v=4,Alpha Enterprises,https://www.indiamart.com/alphaenterprises/?pos=125&kwd=maternity pads&tags=BB||||8500.97|Price|product|||NA|rsf:gd-|-stype:attr=1|qr_nm:gd|res:RC3|com-cf:nl|ptrs:na|ktp:N0|mc:86310|mtp:S|qry_typ:P|lang:en|wc:2|cs:8833|v=4,False,,Thrissur,"15/71,Post Office Road,Chiyyaram, Thrissur - 680026, Dist.Thrissur, Kerala",7942871618,
"Disposable Maternity Pad, For Hospital",https://www.indiamart.com/proddetail/disposable-maternity-pad-21748987633.html?pos=126&kwd=maternity pads&tags=BB||||9839.57|Price|product|||NA|rsf:gd-|-stype:attr=1|qr_nm:gd|res:RC3|com-cf:nl|ptrs:na|ktp:N0|mc:86310|mtp:S|qry_typ:P|lang:en|wc:2|cs:8833|v=4,Soma Dutta,https://www.indiamart.com/soma-dutta/?pos=126&kwd=maternity pads&tags=BB||||9839.57|Price|product|||NA|rsf:gd-|-stype:attr=1|qr_nm:gd|res:RC3|com-cf:nl|ptrs:na|ktp:N0|mc:86310|mtp:S|qry_typ:P|lang:en|wc:2|cs:8833|v=4,False,,Kolkata,"1st, 7B/1D, Mahesh Dutta Lane, South 24 Parganas, Kolkata - 700027, Dist.Kolkata, West Bengal",8047803374,
Cotton Maternity Pad,,The Right Trades,https://www.indiamart.com/the-right-trends/?pos=127&kwd=maternity pads&tags=BB||||9851.719||product|||NA|rsf:gd-|-stype:attr=1|qr_nm:gd|res:RC3|com-cf:nl|ptrs:na|ktp:N0|mc:86310|mtp:S|qry_typ:P|lang:en|wc:2|cs:8833|v=4,False,,Barasat,"Larica Township, Barasat - 743427, Dist.North 24 Parganas, West Bengal",8069023920,879
Wood Pulp Maternity Pad,https://www.indiamart.com/proddetail/maternity-pad-22941510130.html?pos=128&kwd=maternity pads&tags=BB||||8680.09|Price|product|||NA|rsf:gd-|-stype:attr=1|qr_nm:gd|res:RC3|com-cf:nl|ptrs:na|ktp:N0|mc:86310|mtp:S|qry_typ:P|lang:en|wc:2|cs:8833|v=4,Haridivi (OPC) Private Limited,https://www.indiamart.com/hareeswar-enterprises/?pos=128&kwd=maternity pads&tags=BB||||8680.09|Price|product|||NA|rsf:gd-|-stype:attr=1|qr_nm:gd|res:RC3|com-cf:nl|ptrs:na|ktp:N0|mc:86310|mtp:S|qry_typ:P|lang:en|wc:2|cs:8833|v=4,False,,Mettur,"No.9/109, Ottappaalikaradu Navappatti Post, Mettur, Salem Navapatti Mettur Salem, Mettur - 636452, Dist.Salem, Tamil Nadu",8048370713,8287
Wood Pulp Maternity Pad,,Solace Hugianio Private Limited,https://www.indiamart.com/solacehugianio/?pos=129&kwd=maternity pads&tags=BA||||8307.81||product|||NA|rsf:gd-|-stype:attr=1|qr_nm:gd|res:RC3|com-cf:nl|ptrs:na|ktp:N0|mc:86310|mtp:S|qry_typ:P|lang:en|wc:2|cs:8833|v=4,False,,Pune,"G.no.-57/A, Bebedohol, Maval, Pune - 410105, Dist.Pune, Maharashtra",8047634936,
Wood Pulp Maternity Pads Packet With 1 Non Woven Panty free,https://www.indiamart.com/proddetail/maternity-pads-packet-with-1-non-woven-panty-free-25460144297.html?pos=130&kwd=maternity pads&tags=BB||||8832.275|Price|product|||NA|rsf:gd-|-stype:attr=1|qr_nm:gd|res:RC3|com-cf:nl|ptrs:na|ktp:N0|mc:86310|mtp:S|qry_typ:P|lang:en|wc:2|cs:8833|v=4,Saheli Welfare Trading Company,https://www.indiamart.com/saheliwelfare-trading-company/?pos=130&kwd=maternity pads&tags=BB||||8832.275|Price|product|||NA|rsf:gd-|-stype:attr=1|qr_nm:gd|res:RC3|com-cf:nl|ptrs:na|ktp:N0|mc:86310|mtp:S|qry_typ:P|lang:en|wc:2|cs:8833|v=4,False,bajah,Hathras,"00,,GHANGADHAR GALI,HATHRAS Vidhya Sadan, Near Khelgaon Public School, Bajah, Jhalwa Road, Pryagraj,211012,Prayagraj, bajah, Hathras - 204101, Dist.Hathras, Uttar Pradesh",8046056213,
Wood Pulp Disposable Maternity Pad,https://www.indiamart.com/proddetail/disposable-maternity-pad-20980597091.html?pos=131&kwd=maternity pads&tags=BB||||8316.457|Price|product|||NA|rsf:gd-|-stype:attr=1|qr_nm:gd|res:RC3|com-cf:nl|ptrs:na|ktp:N0|mc:86310|mtp:S|qry_typ:P|lang:en|wc:2|cs:8833|v=4,Heal And Comfort Solution,https://www.indiamart.com/heal-comfort-solution/?pos=131&kwd=maternity pads&tags=BB||||8316.457|Price|product|||NA|rsf:gd-|-stype:attr=1|qr_nm:gd|res:RC3|com-cf:nl|ptrs:na|ktp:N0|mc:86310|mtp:S|qry_typ:P|lang:en|wc:2|cs:8833|v=4,False,,Nashik,"08,Bhakti Park, Near Matenursery Savarkar Nagar,, Nashik - 422007, Dist.Nashik, Maharashtra",8046058262,
Non Woven 240mm Maternity Pad,https://www.indiamart.com/proddetail/240mm-maternity-pad-24770521848.html?pos=132&kwd=maternity pads&tags=BB||||8823.154|Price|product|||NA|rsf:gd-|-stype:attr=1|qr_nm:gd|res:RC3|com-cf:nl|ptrs:na|ktp:N0|mc:86310|mtp:S|qry_typ:P|lang:en|wc:2|cs:8833|v=4,Maruti Associates,https://www.indiamart.com/maruti-associates-agra/?pos=132&kwd=maternity pads&tags=BB||||8823.154|Price|product|||NA|rsf:gd-|-stype:attr=1|qr_nm:gd|res:RC3|com-cf:nl|ptrs:na|ktp:N0|mc:86310|mtp:S|qry_typ:P|lang:en|wc:2|cs:8833|v=4,False,Manoharpur,Agra,"32D/RQ 3 Kh. No.87/1, Ramkunj Colony, Manoharpur, Agra - 282005, Dist.Agra, Uttar Pradesh",8048264566,
Cotton Non Woven White Maternity Pad,https://www.indiamart.com/proddetail/white-maternity-pad-20385861533.html?pos=133&kwd=maternity pads&tags=BA||||8407.171|Price|product|||NA|rsf:gd-|-stype:attr=1|qr_nm:gd|res:RC3|com-cf:nl|ptrs:na|ktp:N0|mc:86310|mtp:S|qry_typ:P|lang:en|wc:2|cs:8833|v=4,Femi Health Hub,https://www.indiamart.com/femi-health-hubpune/?pos=133&kwd=maternity pads&tags=BA||||8407.171|Price|product|||NA|rsf:gd-|-stype:attr=1|qr_nm:gd|res:RC3|com-cf:nl|ptrs:na|ktp:N0|mc:86310|mtp:S|qry_typ:P|lang:en|wc:2|cs:8833|v=4,False,patil colony,Ahmednagar,"SHIVNERI,PATIL COLONY, KEDGAON, TAL NAGAR,AHMEDNAGAR Flate No. 102, B3, Rakshaknagar Gold, Kharadi,411014,Pune, patil colony, Ahmednagar - 414001, Dist.Ahmed Nagar, Maharashtra",8048371649,762
Feminy Maternity Pad,https://www.indiamart.com/proddetail/feminy-maternity-pad-22900254730.html?pos=134&kwd=maternity pads&tags=BB||||9839.57|Price|product|||NA|rsf:gd-|-stype:attr=1|qr_nm:gd|res:RC3|com-cf:nl|ptrs:na|ktp:N0|mc:86310|mtp:S|qry_typ:P|lang:en|wc:2|cs:8833|v=4,Acom Marketing LLP,https://www.indiamart.com/acommarketing/?pos=134&kwd=maternity pads&tags=BB||||9839.57|Price|product|||NA|rsf:gd-|-stype:attr=1|qr_nm:gd|res:RC3|com-cf:nl|ptrs:na|ktp:N0|mc:86310|mtp:S|qry_typ:P|lang:en|wc:2|cs:8833|v=4,False,Netai nagar,Kolkata,"1/14 Nitai Nagar Kolkta 700099, Netai nagar, Kolkata - 700107, Dist.Kolkata, West Bengal",8047780985,
Cotton Caretex Maternity Pad,https://www.indiamart.com/proddetail/caretex-maternity-pad-23686277948.html?pos=135&kwd=maternity pads&tags=BB||||8255.333|Price|product|||NA|rsf:gd-|-stype:attr=1|qr_nm:gd|res:RC3|com-cf:nl|ptrs:na|ktp:N0|mc:86310|mtp:S|qry_typ:P|lang:en|wc:2|cs:8833|v=4,Woome,https://www.indiamart.com/whoami-solutions/?pos=135&kwd=maternity pads&tags=BB||||8255.333|Price|product|||NA|rsf:gd-|-stype:attr=1|qr_nm:gd|res:RC3|com-cf:nl|ptrs:na|ktp:N0|mc:86310|mtp:S|qry_typ:P|lang:en|wc:2|cs:8833|v=4,False,,Sindhudurg,"Unchavalawadi, Humras Akeri, Kudal, Sindhudurg - 416510, Dist.Sindhudurg, Maharashtra",8048615705,
Cotton Extra Large Maternity Pad,https://www.indiamart.com/proddetail/extra-large-maternity-pad-17309769648.html?pos=136&kwd=maternity pads&tags=BB||||9045.955|Price|product|||NA|rsf:gd-|-stype:attr=1|qr_nm:gd|res:RC3|com-cf:nl|ptrs:na|ktp:N0|mc:86310|mtp:S|qry_typ:P|lang:en|wc:2|cs:8833|v=4,Saumya Traders,https://www.indiamart.com/saumyatraders/?pos=136&kwd=maternity pads&tags=BB||||9045.955|Price|product|||NA|rsf:gd-|-stype:attr=1|qr_nm:gd|res:RC3|com-cf:nl|ptrs:na|ktp:N0|mc:86310|mtp:S|qry_typ:P|lang:en|wc:2|cs:8833|v=4,False,Kidwai Nagar,Kanpur,"P-32, Yashoda Nagar,, Kidwai Nagar, Kanpur - 208011, Uttar Pradesh",8047657609,
Cotton STARLUCK MATERNITY PAD,https://www.indiamart.com/proddetail/starluck-maternity-pad-24742457430.html?pos=137&kwd=maternity pads&tags=BB||||8752.144|Price|product|||NA|rsf:gd-|-stype:attr=1|qr_nm:gd|res:RC3|com-cf:nl|ptrs:na|ktp:N0|mc:86310|mtp:S|qry_typ:P|lang:en|wc:2|cs:8833|v=4,Bharat Garments,https://www.indiamart.com/bharatgarments/?pos=137&kwd=maternity pads&tags=BB||||8752.144|Price|product|||NA|rsf:gd-|-stype:attr=1|qr_nm:gd|res:RC3|com-cf:nl|ptrs:na|ktp:N0|mc:86310|mtp:S|qry_typ:P|lang:en|wc:2|cs:8833|v=4,False,Shastri Nagar,New Delhi,"House No. L2/89 Ground Floor Gali No. 4, Shastri Nagar, New Delhi - 110052, Dist.Delhi, Delhi",8048207780,
"Non Woven Disposable Maternity Pad, 8 Pads",https://www.indiamart.com/proddetail/disposable-maternity-pad-2854898265755.html?pos=138&kwd=maternity pads&tags=BA||||8806.049|Price|product|||NA|rsf:gd-|-stype:attr=1|qr_nm:gd|res:RC3|com-cf:nl|ptrs:na|ktp:N0|mc:86310|mtp:S|qry_typ:P|lang:en|wc:2|cs:8833|v=4,Arputham Napkins,https://www.indiamart.com/arputham-napkin/?pos=138&kwd=maternity pads&tags=BA||||8806.049|Price|product|||NA|rsf:gd-|-stype:attr=1|qr_nm:gd|res:RC3|com-cf:nl|ptrs:na|ktp:N0|mc:86310|mtp:S|qry_typ:P|lang:en|wc:2|cs:8833|v=4,False,,Kallkurichi,", Kallkurichi - 606202, Tamil Nadu",8045374803,4823
Disposable Maternity Pad,https://www.indiamart.com/proddetail/disposable-maternity-pad-2853254885991.html?pos=139&kwd=maternity pads&tags=BA||||8211.142|Price|product|||NA|rsf:gd-|-stype:attr=1|qr_nm:gd|res:RC3|com-cf:nl|ptrs:na|ktp:N0|mc:86310|mtp:S|qry_typ:P|lang:en|wc:2|cs:8833|v=4,Silver Signature Surgical Co.,https://www.indiamart.com/silver-signature-surgicalco/?pos=139&kwd=maternity pads&tags=BA||||8211.142|Price|product|||NA|rsf:gd-|-stype:attr=1|qr_nm:gd|res:RC3|com-cf:nl|ptrs:na|ktp:N0|mc:86310|mtp:S|qry_typ:P|lang:en|wc:2|cs:8833|v=4,False,Masjid,Mumbai,"Ground Floor, Shop No. 9, Jaan Mohammad Apartment, Aqsa Masjid Road, State Bank of India Jogeshwari West, Mumbai Suburban, Masjid, Mumbai - 400102, Dist.Mumbai, Maharashtra",7942562661,
Non Woven Cotton Maternity Pad,https://www.indiamart.com/proddetail/cotton-maternity-pad-11021829273.html?pos=140&kwd=maternity pads&tags=BB||||8663.873|Price|product|||NA|rsf:gd-|-stype:attr=1|qr_nm:gd|res:RC3|com-cf:nl|ptrs:na|ktp:N0|mc:86310|mtp:S|qry_typ:P|lang:en|wc:2|cs:8833|v=4,Asian Agencies,https://www.indiamart.com/asianagencies-bengaluru/?pos=140&kwd=maternity pads&tags=BB||||8663.873|Price|product|||NA|rsf:gd-|-stype:attr=1|qr_nm:gd|res:RC3|com-cf:nl|ptrs:na|ktp:N0|mc:86310|mtp:S|qry_typ:P|lang:en|wc:2|cs:8833|v=4,False,Nagarbhavi,Bengaluru,"No. 41, Chowdeshwari Nilaya Nanjappa Garden, Papareddy Palya, Nagarbhavi, Second Stage, Nagarbhavi, Bengaluru - 560072, Dist.Bengaluru, Karnataka",8046040766,
Cotton Friends Maternity Pad,https://www.indiamart.com/proddetail/friends-maternity-pad-2853735657791.html?pos=141&kwd=maternity pads&tags=BA||||8752.144|Price|product|||NA|rsf:gd-|-stype:attr=1|qr_nm:gd|res:RC3|com-cf:nl|ptrs:na|ktp:N0|mc:86310|mtp:S|qry_typ:P|lang:en|wc:2|cs:8833|v=4,Rizlife Healthcare,https://www.indiamart.com/rizlife-healthcare/?pos=141&kwd=maternity pads&tags=BA||||8752.144|Price|product|||NA|rsf:gd-|-stype:attr=1|qr_nm:gd|res:RC3|com-cf:nl|ptrs:na|ktp:N0|mc:86310|mtp:S|qry_typ:P|lang:en|wc:2|cs:8833|v=4,False,Okhla Industrial Estate Phase 1,New Delhi,"First Floor, D-58, Office- 1, Okhla Industrial Area Phase-1, South Delhi, Okhla Industrial Estate Phase 1, New Delhi - 110020, Dist.Delhi, Delhi",7949087800,
Cotton Maternity Pad,https://www.indiamart.com/proddetail/cotton-maternity-pad-22358819548.html?pos=142&kwd=maternity pads&tags=BB||||8830.388|Price|product|||NA|rsf:gd-|-stype:attr=1|qr_nm:gd|res:RC3|com-cf:nl|ptrs:na|ktp:N0|mc:86310|mtp:S|qry_typ:P|lang:en|wc:2|cs:8833|v=4,Link Surgical Udhyog,https://www.indiamart.com/link-surgical-udyog/?pos=142&kwd=maternity pads&tags=BB||||8830.388|Price|product|||NA|rsf:gd-|-stype:attr=1|qr_nm:gd|res:RC3|com-cf:nl|ptrs:na|ktp:N0|mc:86310|mtp:S|qry_typ:P|lang:en|wc:2|cs:8833|v=4,False,Lashkar,Gwalior,"House No. 144, Dal Bazar, Lashkar dal bazar, Lashkar, Gwalior - 474001, Dist.Gwalior, Madhya Pradesh",8043835306,
Cotton Maternity Sanitary Pad,https://www.indiamart.com/proddetail/maternity-sanitary-pad-2852752011191.html?pos=143&kwd=maternity pads&tags=BA||||9110.092||product|||NA|rsf:gd-|-stype:attr=1|qr_nm:gd|res:RC3|com-cf:nl|ptrs:na|ktp:N0|mc:86310|mtp:S|qry_typ:P|lang:en|wc:2|cs:8833|v=4,Seara Industry,https://www.indiamart.com/seara-industry/?pos=143&kwd=maternity pads&tags=BA||||9110.092||product|||NA|rsf:gd-|-stype:attr=1|qr_nm:gd|res:RC3|com-cf:nl|ptrs:na|ktp:N0|mc:86310|mtp:S|qry_typ:P|lang:en|wc:2|cs:8833|v=4,False,Jankipuram,Lucknow,"H.No 9/108, 2nd Floor, Jankipuram Vistar, Jankipuram, Lucknow - 226021, Dist.Lucknow, Uttar Pradesh",7942826731,
Cotton Caretex Maternity Pad,https://www.indiamart.com/proddetail/caretex-maternity-pad-21807447862.html?pos=144&kwd=maternity pads&tags=BA||||8211.142|Price|product|||NA|rsf:gd-|-stype:attr=1|qr_nm:gd|res:RC3|com-cf:nl|ptrs:na|ktp:N0|mc:86310|mtp:S|qry_typ:P|lang:en|wc:2|cs:8833|v=4,S P Hygiene Products,https://www.indiamart.com/sphygieneproducts/?pos=144&kwd=maternity pads&tags=BA||||8211.142|Price|product|||NA|rsf:gd-|-stype:attr=1|qr_nm:gd|res:RC3|com-cf:nl|ptrs:na|ktp:N0|mc:86310|mtp:S|qry_typ:P|lang:en|wc:2|cs:8833|v=4,False,,Mumbai,"Shop No. 3 46/A, Morden Mills Compound Jagannath Bhatankar Marg, Parel S T Depot, Mumbai - 400015, Dist.Mumbai, Maharashtra",8047641235,
"Cotton Hospital Maternity Napkin, for Hospital",https://www.indiamart.com/proddetail/hospital-maternity-napkin-3347120755.html?pos=145&kwd=maternity pads&tags=BB||||9839.57|Price|product|||NA|rsf:gd-|-stype:attr=1|qr_nm:gd|res:RC3|com-cf:nl|ptrs:na|ktp:N0|mc:86310|mtp:S|qry_typ:P|lang:en|wc:2|cs:8833|v=4,Debson Enterprise,https://www.indiamart.com/debson-enterprise/?pos=145&kwd=maternity pads&tags=BB||||9839.57|Price|product|||NA|rsf:gd-|-stype:attr=1|qr_nm:gd|res:RC3|com-cf:nl|ptrs:na|ktp:N0|mc:86310|mtp:S|qry_typ:P|lang:en|wc:2|cs:8833|v=4,False,Zakaria Street,Kolkata,"WARD NO- 8,SAINPALA,, G S COLONY,BASIRHAT No. 32, Zakaria Street, Muhammad Ali Park,700073,Kolkata, Zakaria Street, Kolkata - 743411, Dist.Kolkata, West Bengal",8047692346,
Maternity Sanitary Pad(XXL-10PADS),https://www.indiamart.com/proddetail/maternity-sanitary-pad-xxl-10pads-2851303840630.html?pos=146&kwd=maternity pads&tags=BA||||8668.838|Price|product|||NA|rsf:gd-|-stype:attr=1|qr_nm:gd|res:RC3|com-cf:nl|ptrs:na|ktp:N0|mc:86310|mtp:S|qry_typ:P|lang:en|wc:2|cs:8833|v=4,Logu International,https://www.indiamart.com/logu-international-erode/?pos=146&kwd=maternity pads&tags=BA||||8668.838|Price|product|||NA|rsf:gd-|-stype:attr=1|qr_nm:gd|res:RC3|com-cf:nl|ptrs:na|ktp:N0|mc:86310|mtp:S|qry_typ:P|lang:en|wc:2|cs:8833|v=4,False,Erode,Erode,"66, Near Global Care, Sembampalayam, Nasiyanur Posterode, Erode, Erode - 638107, Dist.Erode, Tamil Nadu",8043823737,
Non Woven Maternity Pad (320mm) (XXL),https://www.indiamart.com/proddetail/maternity-pad-320mm-xxl-2849364405073.html?pos=147&kwd=maternity pads&tags=BB||||8038.093|Price|product|||NA|rsf:gd-|-stype:attr=1|qr_nm:gd|res:RC3|com-cf:nl|ptrs:na|ktp:N0|mc:86310|mtp:S|qry_typ:P|lang:en|wc:2|cs:8833|v=4,Migoo Enterprise,https://www.indiamart.com/migoo-enterprise/?pos=147&kwd=maternity pads&tags=BB||||8038.093|Price|product|||NA|rsf:gd-|-stype:attr=1|qr_nm:gd|res:RC3|com-cf:nl|ptrs:na|ktp:N0|mc:86310|mtp:S|qry_typ:P|lang:en|wc:2|cs:8833|v=4,False,Indian,Rajkot,"13, Sardar Nagar, Parth Imagine Street Astron Chowk, Indian, Rajkot - 360002, Dist.Rajkot, Gujarat",8048372513,854
Cotton Freshia Belted Maternity Napkin,https://www.indiamart.com/proddetail/freshia-belted-maternity-napkin-24317635948.html?pos=148&kwd=maternity pads&tags=BB||||8307.81|Price|product|||NA|rsf:gd-|-stype:attr=1|qr_nm:gd|res:RC3|com-cf:nl|ptrs:na|ktp:N0|mc:86310|mtp:S|qry_typ:P|lang:en|wc:2|cs:8833|v=4,Bhikshu Distributors,https://www.indiamart.com/bhikshu-distributors/?pos=148&kwd=maternity pads&tags=BB||||8307.81|Price|product|||NA|rsf:gd-|-stype:attr=1|qr_nm:gd|res:RC3|com-cf:nl|ptrs:na|ktp:N0|mc:86310|mtp:S|qry_typ:P|lang:en|wc:2|cs:8833|v=4,False,Sadashiv peth,Pune,"Shop No 02, Wing A, Ground Floor, Rajnigandha Building Near Nimbalkar Talim, Next To Ved Pharma, Sadashiv peth, Pune - 411030, Dist.Pune, Maharashtra",7942531671,
"Bella Maternity Pad XXXL+, 4 Pads",https://www.indiamart.com/proddetail/bella-maternity-pad-xxxl-2854419496397.html?pos=149&kwd=maternity pads&tags=BA||||8706.587|Price|product|||NA|rsf:gd-|-stype:attr=1|qr_nm:gd|res:RC3|com-cf:nl|ptrs:na|ktp:N0|mc:86310|mtp:S|qry_typ:P|lang:en|wc:2|cs:8833|v=4,AJ Enterprises,https://www.indiamart.com/aj-enterprises-madurai/?pos=149&kwd=maternity pads&tags=BA||||8706.587|Price|product|||NA|rsf:gd-|-stype:attr=1|qr_nm:gd|res:RC3|com-cf:nl|ptrs:na|ktp:N0|mc:86310|mtp:S|qry_typ:P|lang:en|wc:2|cs:8833|v=4,False,Avaniyapuram Bypass,Madurai,"A5, Gladway City ,1st Avenue,, Avaniyapuram Bypass, Madurai - 625012, Dist.Madurai, Tamil Nadu",8048249700,6817
"Cotton Maternity Sanitary Pad, L",https://www.indiamart.com/proddetail/cotton-maternity-sanitary-pad-2853523580291.html?pos=150&kwd=maternity pads&tags=BA||||8723.301|Price|product|||NA|rsf:gd-|-stype:attr=1|qr_nm:gd|res:RC3|com-cf:nl|ptrs:na|ktp:N0|mc:86310|mtp:S|qry_typ:P|lang:en|wc:2|cs:8833|v=4,Pragya Enterprises,https://www.indiamart.com/pragyaenterprises-bhopal/?pos=150&kwd=maternity pads&tags=BA||||8723.301|Price|product|||NA|rsf:gd-|-stype:attr=1|qr_nm:gd|res:RC3|com-cf:nl|ptrs:na|ktp:N0|mc:86310|mtp:S|qry_typ:P|lang:en|wc:2|cs:8833|v=4,False,Gulmohar Colony,Bhopal,"E-8, Shop H.N.220, Ishawr Nagar, Danapani Road, Gulmohar Colony, Bhopal - 462039, Dist.Bhopal, Madhya Pradesh",8045166183,
Insure Women Maternity Pad,https://www.indiamart.com/proddetail/insure-women-maternity-pad-2852768338130.html?pos=151&kwd=maternity pads&tags=BA||||8752.144|Price|product|||NA|rsf:gd-|-stype:attr=1|qr_nm:gd|res:RC3|com-cf:nl|ptrs:na|ktp:N0|mc:86310|mtp:S|qry_typ:P|lang:en|wc:2|cs:8833|v=4,Raj Healthcare,https://www.indiamart.com/raj-healthcare/?pos=151&kwd=maternity pads&tags=BA||||8752.144|Price|product|||NA|rsf:gd-|-stype:attr=1|qr_nm:gd|res:RC3|com-cf:nl|ptrs:na|ktp:N0|mc:86310|mtp:S|qry_typ:P|lang:en|wc:2|cs:8833|v=4,False,New Delhi 110058,New Delhi,"G-25 C-6B,VIKAS SURYA JANAK PLAZA, JANAK PURI,New Delhi G=25 G.F. VIKAS SURYA JANAK PLAZA,110046,New Delhi, New Delhi 110058, New Delhi - 110058, Dist.Delhi, Delhi",8047800818,
Wood Pulp MATERINITY COTTON PADS,https://www.indiamart.com/proddetail/materinity-cotton-pads-26308043648.html?pos=152&kwd=maternity pads&tags=BA||||8639.861|Price|product|||NA|rsf:gd-|-stype:attr=1|qr_nm:gd|res:RC3|com-cf:nl|ptrs:na|ktp:N0|mc:86310|mtp:S|qry_typ:P|lang:en|wc:2|cs:8833|v=4,Shri Lathikka Surgicals,https://www.indiamart.com/shri-lathikka-surgicals/?pos=152&kwd=maternity pads&tags=BA||||8639.861|Price|product|||NA|rsf:gd-|-stype:attr=1|qr_nm:gd|res:RC3|com-cf:nl|ptrs:na|ktp:N0|mc:86310|mtp:S|qry_typ:P|lang:en|wc:2|cs:8833|v=4,False,Samusigapuram,Rajapalayam,"5 G16/1 Ottathiamman Kovil Street, Samusigapuram, Rajapalayam - 626102, Dist.Virudhunagar, Tamil Nadu",8043863054,
Cotton Aadya Messi Me Maternity Pad,https://www.indiamart.com/proddetail/aadya-messi-me-maternity-pad-26459833448.html?pos=153&kwd=maternity pads&tags=BA||||10180.86|Price|product|||NA|rsf:gd-|-stype:attr=1|qr_nm:gd|res:RC3|com-cf:nl|ptrs:na|ktp:N0|mc:86310|mtp:S|qry_typ:P|lang:en|wc:2|cs:8833|v=4,JCB Industries,https://www.indiamart.com/jcb-industries/?pos=153&kwd=maternity pads&tags=BA||||10180.86|Price|product|||NA|rsf:gd-|-stype:attr=1|qr_nm:gd|res:RC3|com-cf:nl|ptrs:na|ktp:N0|mc:86310|mtp:S|qry_typ:P|lang:en|wc:2|cs:8833|v=4,False,,Guwahati,"Byelane 4, Industrial Estate, Bamunimaidam, Kamrup Metropolitan,, Guwahati - 781021, Dist.Kamrup, Assam",8048208693,
Belted Wooden Pulp Maternity Pad,https://www.indiamart.com/proddetail/belted-wooden-pulp-maternity-pad-22641610948.html?pos=154&kwd=maternity pads&tags=BB||||8954.051|Price|product|||NA|rsf:gd-|-stype:attr=1|qr_nm:gd|res:RC3|com-cf:nl|ptrs:na|ktp:N0|mc:86310|mtp:S|qry_typ:P|lang:en|wc:2|cs:8833|v=4,Flowavo Rising Enterprises Private Limited,https://www.indiamart.com/flowavorisingenterprises/?pos=154&kwd=maternity pads&tags=BB||||8954.051|Price|product|||NA|rsf:gd-|-stype:attr=1|qr_nm:gd|res:RC3|com-cf:nl|ptrs:na|ktp:N0|mc:86310|mtp:S|qry_typ:P|lang:en|wc:2|cs:8833|v=4,False,Purusaiwakkam,Chennai,"New No.6 Old No.98,alagappa Road,purasawakkam, Purusaiwakkam, Chennai - 600084, Dist.Chennai, Tamil Nadu",8047794619,
Non Woven After Care Belted Maternity Pad,https://www.indiamart.com/proddetail/after-care-belted-maternity-pad-24343141291.html?pos=155&kwd=maternity pads&tags=BB||||8316.457|Price|product|||NA|rsf:gd-|-stype:attr=1|qr_nm:gd|res:RC3|com-cf:nl|ptrs:na|ktp:N0|mc:86310|mtp:S|qry_typ:P|lang:en|wc:2|cs:8833|v=4,Atul Shree Distributors,https://www.indiamart.com/atul-shree-distributors/?pos=155&kwd=maternity pads&tags=BB||||8316.457|Price|product|||NA|rsf:gd-|-stype:attr=1|qr_nm:gd|res:RC3|com-cf:nl|ptrs:na|ktp:N0|mc:86310|mtp:S|qry_typ:P|lang:en|wc:2|cs:8833|v=4,False,,Nashik,"Shop No-3, Jeevandeep Apartment, Ambad Link Road, Kamtawade, Nashik - 422010, Dist.Nashik, Maharashtra",7942538467,
Cotton New Mom Maternity Sanitary Pad,https://www.indiamart.com/proddetail/new-mom-maternity-sanitary-pad-2853036144933.html?pos=156&kwd=maternity pads&tags=BA||||8706.587|Price|product|||NA|rsf:gd-|-stype:attr=1|qr_nm:gd|res:RC3|com-cf:nl|ptrs:na|ktp:N0|mc:86310|mtp:S|qry_typ:P|lang:en|wc:2|cs:8833|v=4,Sri Gayaathri Meditech,https://www.indiamart.com/srigayaathrimeditech-madurai/?pos=156&kwd=maternity pads&tags=BA||||8706.587|Price|product|||NA|rsf:gd-|-stype:attr=1|qr_nm:gd|res:RC3|com-cf:nl|ptrs:na|ktp:N0|mc:86310|mtp:S|qry_typ:P|lang:en|wc:2|cs:8833|v=4,False,,Madurai,"173, Vakkil New Street, Madurai - 625001, Dist.Madurai, Tamil Nadu",7942965542,
"Cotton Hospital Maternity Pad for Hospital, Model Name/Number: KE06",https://www.indiamart.com/proddetail/hospital-maternity-pad-for-hospital-26014749530.html?pos=157&kwd=maternity pads&tags=BB||||8230.883|Price|product|||NA|rsf:gd-|-stype:attr=1|qr_nm:gd|res:RC3|com-cf:nl|ptrs:na|ktp:N0|mc:86310|mtp:S|qry_typ:P|lang:en|wc:2|cs:8833|v=4,Kishan Enterprise,https://www.indiamart.com/kishanenterprisesurat/?pos=157&kwd=maternity pads&tags=BB||||8230.883|Price|product|||NA|rsf:gd-|-stype:attr=1|qr_nm:gd|res:RC3|com-cf:nl|ptrs:na|ktp:N0|mc:86310|mtp:S|qry_typ:P|lang:en|wc:2|cs:8833|v=4,False,SURAT,Surat,"Plot-38,Soham ind. Estate,Navagam,Kamrej 38,39,1st Floor,Soham industry,Near Udhyog Nagar Kamrej,surat,395002,Surat, SURAT, Surat - 394185, Dist.Surat, Gujarat",8046051990,
"Wood Pulp Securex Maternity Pad Extra Large With Belt, XL",https://www.indiamart.com/proddetail/securex-maternity-pad-extra-large-with-belt-25234120188.html?pos=158&kwd=maternity pads&tags=BB||||8210.732|Price|product|||NA|rsf:gd-|-stype:attr=1|qr_nm:gd|res:RC3|com-cf:nl|ptrs:na|ktp:N0|mc:86310|mtp:S|qry_typ:P|lang:en|wc:2|cs:8833|v=4,Asmita Orthocast,https://www.indiamart.com/asmita-orthocast/?pos=158&kwd=maternity pads&tags=BB||||8210.732|Price|product|||NA|rsf:gd-|-stype:attr=1|qr_nm:gd|res:RC3|com-cf:nl|ptrs:na|ktp:N0|mc:86310|mtp:S|qry_typ:P|lang:en|wc:2|cs:8833|v=4,False,virar east,Vasai Virar,"GALA NO 131,FIRST, VIRAR INDUSTRIAL ESTATE, PACH PAYARI,VIRAR EAST Virar Ind Estate, 131, Virar East,401305,Virar, virar east, Vasai Virar - 401303, Dist.Thane, Maharashtra",7942657710,
"Wood Pulp Cotton Maternity Pad With Belt 10 PCS, Model Name/Number: Hapus-comfort Layer",https://www.indiamart.com/proddetail/cotton-maternity-pad-with-belt-10-pcs-24961342448.html?pos=159&kwd=maternity pads&tags=BA||||8954.051|Price|product|||NA|rsf:gd-|-stype:attr=1|qr_nm:gd|res:RC3|com-cf:nl|ptrs:na|ktp:N0|mc:86310|mtp:S|qry_typ:P|lang:en|wc:2|cs:8833|v=4,Jaress Hygiene Care Private Limited,https://www.indiamart.com/jaresshygienecare/?pos=159&kwd=maternity pads&tags=BA||||8954.051|Price|product|||NA|rsf:gd-|-stype:attr=1|qr_nm:gd|res:RC3|com-cf:nl|ptrs:na|ktp:N0|mc:86310|mtp:S|qry_typ:P|lang:en|wc:2|cs:8833|v=4,False,,Chennai,"Plot No.05 Ph Road Velappanchavadi, Chennai - 600077, Dist.Chennai, Tamil Nadu",8048963565,
Non Woven XXL Life Care Bikini Type Maternity Pad,https://www.indiamart.com/proddetail/xxl-life-care-bikini-type-maternity-pad-2852568150797.html?pos=160&kwd=maternity pads&tags=BA||||8954.051|Price|product|||NA|rsf:gd-|-stype:attr=1|qr_nm:gd|res:RC3|com-cf:nl|ptrs:na|ktp:N0|mc:86310|mtp:S|qry_typ:P|lang:en|wc:2|cs:8833|v=4,Seethapathy Clinic And Hospital Pharmacy,https://www.indiamart.com/seethapathy-clinichospital-pharmacy/?pos=160&kwd=maternity pads&tags=BA||||8954.051|Price|product|||NA|rsf:gd-|-stype:attr=1|qr_nm:gd|res:RC3|com-cf:nl|ptrs:na|ktp:N0|mc:86310|mtp:S|qry_typ:P|lang:en|wc:2|cs:8833|v=4,False,Royapettah,Chennai,"128/241,Rayapettah High Road,Rayapettah, Royapettah, Chennai - 600014, Dist.Chennai, Tamil Nadu",7942714453,
Non Woven Colleen premium maternity pad 340X165mm 5 nos pack,https://www.indiamart.com/proddetail/colleen-premium-maternity-pad-340x165mm-5-nos-pack-2852660331597.html?pos=161&kwd=maternity pads&tags=BA||||8503.868|Price|product|||NA|rsf:gd-|-stype:attr=1|qr_nm:gd|res:RC3|com-cf:nl|ptrs:na|ktp:N0|mc:86310|mtp:S|qry_typ:P|lang:en|wc:2|cs:8833|v=4,Reetta Hygiene Private Limited,https://www.indiamart.com/reetta-hygiene-private-limited/?pos=161&kwd=maternity pads&tags=BA||||8503.868|Price|product|||NA|rsf:gd-|-stype:attr=1|qr_nm:gd|res:RC3|com-cf:nl|ptrs:na|ktp:N0|mc:86310|mtp:S|qry_typ:P|lang:en|wc:2|cs:8833|v=4,False,Ettekar,Kochi,"Door No. Vp Xix/142.143, Ettekar, Kochi - 683105, Dist.Ernakulam, Kerala",8048247135,9517
Best Fit Medium Handloom WFC Large Pad,https://www.indiamart.com/proddetail/medium-handloom-wfc-large-pad-22911945688.html?pos=162&kwd=maternity pads&tags=BB||||8319.425|Price|product|||NA|rsf:gd-|-stype:attr=1|qr_nm:gd|res:RC3|com-cf:nl|ptrs:na|ktp:N0|mc:86310|mtp:S|qry_typ:P|lang:en|wc:2|cs:8833|v=4,Sai Care Products,https://www.indiamart.com/sai-care-product/?pos=162&kwd=maternity pads&tags=BB||||8319.425|Price|product|||NA|rsf:gd-|-stype:attr=1|qr_nm:gd|res:RC3|com-cf:nl|ptrs:na|ktp:N0|mc:86310|mtp:S|qry_typ:P|lang:en|wc:2|cs:8833|v=4,False,Ram Nagar,Jodhpur,"Ram Nagar, Near PF Office, Ram Nagar, Jodhpur - 342001, Dist.Jodhpur, Rajasthan",8046067806,
"Matrutwa Pe Sheet Maternity Pads X-Large, Size: extra large",https://www.indiamart.com/proddetail/maternity-pads-x-large-21631482233.html?pos=163&kwd=maternity pads&tags=BB||||8223.226|Price|product|||NA|rsf:gd-|-stype:attr=1|qr_nm:gd|res:RC3|com-cf:nl|ptrs:na|ktp:N0|mc:86310|mtp:S|qry_typ:P|lang:en|wc:2|cs:8833|v=4,Aparna Enterprises,https://www.indiamart.com/aparna-enterprises-thane/?pos=163&kwd=maternity pads&tags=BB||||8223.226|Price|product|||NA|rsf:gd-|-stype:attr=1|qr_nm:gd|res:RC3|com-cf:nl|ptrs:na|ktp:N0|mc:86310|mtp:S|qry_typ:P|lang:en|wc:2|cs:8833|v=4,False,,Thane,"Oddyssey Building, A-401, Lodha Paradise, Nashik Highway Road, Majiwada, Thane - 400601, Dist.Thane, Maharashtra",8048371510,539
Swara White Disposable Maternity Napkins,https://www.indiamart.com/proddetail/disposable-maternity-napkins-18285363855.html?pos=164&kwd=maternity pads&tags=BB||||8307.81|Price|product|||NA|rsf:gd-|-stype:attr=1|qr_nm:gd|res:RC3|com-cf:nl|ptrs:na|ktp:N0|mc:86310|mtp:S|qry_typ:P|lang:en|wc:2|cs:8833|v=4,Swara Health Care,https://www.indiamart.com/swara-healthcare/?pos=164&kwd=maternity pads&tags=BB||||8307.81|Price|product|||NA|rsf:gd-|-stype:attr=1|qr_nm:gd|res:RC3|com-cf:nl|ptrs:na|ktp:N0|mc:86310|mtp:S|qry_typ:P|lang:en|wc:2|cs:8833|v=4,False,Dagat Patil Nagar Shivane Industrial Estate,Pune,"408, 4th Floor, Omkar Recidancy, NDA Road, Shivane, Dagat Patil Nagar Shivane Industrial Estate, Pune - 411023, Dist.Pune, Maharashtra",7942543380,
"Cotton Microfibre Birds Maternity Pad, XL",https://www.indiamart.com/proddetail/birds-maternity-pad-26059153730.html?pos=165&kwd=maternity pads&tags=BA||||9839.57|Price|product|||NA|rsf:gd-|-stype:attr=1|qr_nm:gd|res:RC3|com-cf:nl|ptrs:na|ktp:N0|mc:86310|mtp:S|qry_typ:P|lang:en|wc:2|cs:8833|v=4,Abhivir Sahoudhyog,https://www.indiamart.com/abhivirsahoudhyog/?pos=165&kwd=maternity pads&tags=BA||||9839.57|Price|product|||NA|rsf:gd-|-stype:attr=1|qr_nm:gd|res:RC3|com-cf:nl|ptrs:na|ktp:N0|mc:86310|mtp:S|qry_typ:P|lang:en|wc:2|cs:8833|v=4,False,Lake Garden,Kolkata,"522A, Lake Gardens, Lake Garden, Kolkata - 700045, Dist.Kolkata, West Bengal",8043850976,
Cotton Friends Maternity Pad,https://www.indiamart.com/proddetail/friends-maternity-pad-24735666612.html?pos=166&kwd=maternity pads&tags=BB||||8661.854|Price|product|||NA|rsf:gd-|-stype:attr=1|qr_nm:gd|res:RC3|com-cf:nl|ptrs:na|ktp:N0|mc:86310|mtp:S|qry_typ:P|lang:en|wc:2|cs:8833|v=4,Taneja Enterprises,https://www.indiamart.com/tanejaenterprises-137166243/?pos=166&kwd=maternity pads&tags=BB||||8661.854|Price|product|||NA|rsf:gd-|-stype:attr=1|qr_nm:gd|res:RC3|com-cf:nl|ptrs:na|ktp:N0|mc:86310|mtp:S|qry_typ:P|lang:en|wc:2|cs:8833|v=4,False,,Ludhiana,"B-18/2730/1,83/12, Main Kochar Market Road, Jawahar Nagar,, Ludhiana - 141001, Dist.Ludhiana, Punjab",8048262338,
Cotton Prasuti Belted Maternity Pad,https://www.indiamart.com/proddetail/prasuti-belted-maternity-pad-21534090612.html?pos=167&kwd=maternity pads&tags=BB||||8223.226|Price|product|||NA|rsf:gd-|-stype:attr=1|qr_nm:gd|res:RC3|com-cf:nl|ptrs:na|ktp:N0|mc:86310|mtp:S|qry_typ:P|lang:en|wc:2|cs:8833|v=4,Shree Enterprises,https://www.indiamart.com/shreeenterprisesthanemaharashtra/?pos=167&kwd=maternity pads&tags=BB||||8223.226|Price|product|||NA|rsf:gd-|-stype:attr=1|qr_nm:gd|res:RC3|com-cf:nl|ptrs:na|ktp:N0|mc:86310|mtp:S|qry_typ:P|lang:en|wc:2|cs:8833|v=4,False,,Thane,"Shop No. 1, Dalvi Market, Opposite Manav Kalyan Hospital Diva Agasan Road, Thane - 400612, Dist.Thane, Maharashtra",8048371754,184
"Reusable Breast Feeding Pad, Nursing Pad, Maternity Pad., Quantity Per Pack: 20",https://www.indiamart.com/proddetail/reusable-breast-feeding-pad-nursing-pad-maternity-pad-2850230885788.html?pos=168&kwd=maternity pads&tags=BB||||8752.144|Price|product|||NA|rsf:gd-|-stype:attr=1|qr_nm:gd|res:RC3|com-cf:nl|ptrs:na|ktp:N0|mc:86310|mtp:S|qry_typ:P|lang:en|wc:2|cs:8833|v=4,Geet Trading,https://www.indiamart.com/geet-trading/?pos=168&kwd=maternity pads&tags=BB||||8752.144|Price|product|||NA|rsf:gd-|-stype:attr=1|qr_nm:gd|res:RC3|com-cf:nl|ptrs:na|ktp:N0|mc:86310|mtp:S|qry_typ:P|lang:en|wc:2|cs:8833|v=4,False,,New Delhi,"46 New Lahore Colony Shastri Nagar East Delhi geeta colony, New Delhi - 110031, Dist.Delhi, Delhi",8069728343,304
Maternity Pads,,M.P.Medical Agencies,https://www.indiamart.com/mp-medica-agency/?pos=169&kwd=maternity pads&tags=BB||||8556.86||product|||NA|rsf:gd-|-stype:attr=1|qr_nm:gd|res:RC3|com-cf:nl|ptrs:na|ktp:N0|mc:86310|mtp:S|qry_typ:P|lang:en|wc:2|cs:8833|v=4,False,,Ujjain,"10 Central Kotwali Road, Ujjain - 456001, Dist.Ujjain, Madhya Pradesh",8048372926,822
Maternity Pads,,Harshit Surgical Cotton Indus,https://www.indiamart.com/harshit-surgical-cotton-industry/?pos=170&kwd=maternity pads&tags=BA||||8211.142|Price|product|||NA|rsf:gd-|-stype:attr=1|qr_nm:gd|res:RC3|com-cf:nl|ptrs:na|ktp:N0|mc:86310|mtp:S|qry_typ:P|lang:en|wc:2|cs:8833|v=4,False,,Mumbai,"Gala No B-25, Lusi Industrial Estate, Sativali Road, Vasai, Mumbai - 401202, Dist.Mumbai, Maharashtra",8047308844,2903
Maternity Pads,,Amit Collection,https://www.indiamart.com/amit-collection-ahmednagar/?pos=171&kwd=maternity pads&tags=BA||||8407.171|Price|product|||NA|rsf:gd-|-stype:attr=1|qr_nm:gd|res:RC3|com-cf:nl|ptrs:na|ktp:N0|mc:86310|mtp:S|qry_typ:P|lang:en|wc:2|cs:8833|v=4,False,Tarakpur,Ahmednagar,"Saikrupa Laltaki Road, Behind Swasthy Hospital, Tarakpur, Ahmednagar, Dist.Ahmed Nagar, Maharashtra",8048372317,918
Maternity Pad,,Apna Medical Store,https://www.indiamart.com/apna-medical-store-shamli/?pos=172&kwd=maternity pads&tags=BB||||8781.797||product|||NA|rsf:gd-|-stype:attr=1|qr_nm:gd|res:RC3|com-cf:nl|ptrs:na|ktp:N0|mc:86310|mtp:S|qry_typ:P|lang:en|wc:2|cs:8833|v=4,False,,Shamli,"Near Mandir Hanuman Tilla,Hospital Road,Shamli,Shamli shamli, Shamli - 247776, Dist.Muzaffarnagar, Uttar Pradesh",8069033865,328
Maternity Pad,,Shree Siddhi Enterprise,https://www.indiamart.com/shree-siddhi-enterprise-ahmedabad/?pos=173&kwd=maternity pads&tags=BA||||8228.275||product|||NA|rsf:gd-|-stype:attr=1|qr_nm:gd|res:RC3|com-cf:nl|ptrs:na|ktp:N0|mc:86310|mtp:S|qry_typ:P|lang:en|wc:2|cs:8833|v=4,False,,Ahmedabad,"1882, FIRST FLOOR, CHIPA MAVJI NI POLE, MANDVI NI POLE, Ahmedabad, Ahmedabad, Gujarat, 380001, Ahmedabad - 380001, Dist.Ahmedabad, Gujarat",8048250510,556
Cotton Maternity Pads,,Om Saravana Bavaa,https://www.indiamart.com/om-saravana-bavaa/?pos=174&kwd=maternity pads&tags=BB||||8954.051|Price|product|||NA|rsf:gd-|-stype:attr=1|qr_nm:gd|res:RC3|com-cf:nl|ptrs:na|ktp:N0|mc:86310|mtp:S|qry_typ:P|lang:en|wc:2|cs:8833|v=4,False,Chennai,Chennai,"NO.12,,SHANMUGARAYAN STREET,PURASAWAKKAM NO.12, SHANMUGARAYAN STREET,,600084,Chennai, Chennai, Chennai - 600007, Dist.Chennai, Tamil Nadu",8048371759,738
Cotton Realcare Maternity Pads,https://www.indiamart.com/proddetail/realcare-maternity-pads-2855042024630.html?pos=175&kwd=maternity pads&tags=BB||||8954.051|Price|product|||NA|rsf:gd-|-stype:attr=1|qr_nm:gd|res:RC3|com-cf:nl|ptrs:na|ktp:N0|mc:86310|mtp:S|qry_typ:P|lang:en|wc:2|cs:8833|v=4,Medvision Pharmacy,https://www.indiamart.com/company/231256375/?pos=175&kwd=maternity pads&tags=BB||||8954.051|Price|product|||NA|rsf:gd-|-stype:attr=1|qr_nm:gd|res:RC3|com-cf:nl|ptrs:na|ktp:N0|mc:86310|mtp:S|qry_typ:P|lang:en|wc:2|cs:8833|v=4,False,,Chennai,"Roa Apartment,Ground floor,Silapathigaram street ,Ganesh Nagar ,Selaiyur 600073, Chennai - 600073, Dist.Chennai, Tamil Nadu",8048247104,2725
Maternity Pad,,Sidhdhi Enterprise,https://www.indiamart.com/sidhdhi-enterprise/?pos=176&kwd=maternity pads&tags=BB||||8228.275||product|||NA|rsf:gd-|-stype:attr=1|qr_nm:gd|res:RC3|com-cf:nl|ptrs:na|ktp:N0|mc:86310|mtp:S|qry_typ:P|lang:en|wc:2|cs:8833|v=4,False,,Ahmedabad,"07 Siddhi Enterprise, Manek Chowk, Ahmedabad - 380001, Dist.Ahmedabad, Gujarat",8045849984,492
Maternity pad,,Oxxon Trading Corp,https://www.indiamart.com/aveon-pharmaceutical/?pos=177&kwd=maternity pads&tags=BB||||8038.093||product|||NA|rsf:gd-|-stype:attr=1|qr_nm:gd|res:RC3|com-cf:nl|ptrs:na|ktp:N0|mc:86310|mtp:S|qry_typ:P|lang:en|wc:2|cs:8833|v=4,False,OPP SHAH ROADWAYS,Rajkot,"H&S BROTHER 4, SHAMRAT INDUSTRIAL AREA, OPP SHAH ROADWAYS, Rajkot - 360004, Dist.Rajkot, Gujarat",8043877921,
Maternity Pad,,P R Sales Corporation,https://www.indiamart.com/pr-sales-corporation/?pos=178&kwd=maternity pads&tags=BA||||8316.457||product|||NA|rsf:gd-|-stype:attr=1|qr_nm:gd|res:RC3|com-cf:nl|ptrs:na|ktp:N0|mc:86310|mtp:S|qry_typ:P|lang:en|wc:2|cs:8833|v=4,False,Vilholi,Nashik,"GAT NO.129/1/3,NEAR SHRI KRISHNA GARDEN, VILLHOLI / NASHIK (MAHARASHTRA), Vilholi, Nashik - 422010, Dist.Nashik, Maharashtra",8048371886,184
7 Soft Cotton Pure Hygiene Maternity Pad With Wings,https://www.indiamart.com/proddetail/7-soft-cotton-pure-hygiene-maternity-pad-with-wings-22928286662.html?pos=179&kwd=maternity pads&tags=||||8281.036|Price|product|||TS|rsf:gd-|-stype:attr=1|qr_nm:gd|res:RC3|com-cf:nl|ptrs:na|ktp:N0|mc:86310|mtp:S|qry_typ:P|lang:en|wc:2|cs:8833|v=4,Novelty Hosiery,https://www.indiamart.com/novelty-hosiery/?pos=179&kwd=maternity pads&tags=||||8281.036|Price|product|||TS|rsf:gd-|-stype:attr=1|qr_nm:gd|res:RC3|com-cf:nl|ptrs:na|ktp:N0|mc:86310|mtp:S|qry_typ:P|lang:en|wc:2|cs:8833|v=4,False,Chokshi Bazar,Vadodara,"M G Road 00 Laheripura Gate Nr Angadiya Gali, Chokshi Bazar, Vadodara - 390001, Dist.Vadodara, Gujarat",7942565948,
sirona Maternity Pads Sanitary Napkin,https://www.indiamart.com/proddetail/maternity-pads-sanitary-napkin-23081600912.html?pos=180&kwd=maternity pads&tags=||||8752.144|Price|product|||MDC|rsf:gd-|-stype:attr=1|qr_nm:gd|res:RC3|com-cf:nl|ptrs:na|ktp:N0|mc:86310|mtp:S|qry_typ:P|lang:en|wc:2|cs:8833|v=4,Sirona Hygiene Private Limited,https://www.indiamart.com/first-step-digital/?pos=180&kwd=maternity pads&tags=||||8752.144|Price|product|||MDC|rsf:gd-|-stype:attr=1|qr_nm:gd|res:RC3|com-cf:nl|ptrs:na|ktp:N0|mc:86310|mtp:S|qry_typ:P|lang:en|wc:2|cs:8833|v=4,False,,New Delhi,"3rd Floor And Part Of 4th Floor, Plot No. 3, Ambience Tower, L.s.c Sector-A, Pocket-2, Near Car Market Vasant Kunj, New Delhi - 110070, Dist.Delhi, Delhi",8046073165,
Wood Pulp And Cotton Maternity Pad,https://www.indiamart.com/proddetail/maternity-pad-20247777891.html?pos=181&kwd=maternity pads&tags=||||8230.883|Price|product|||TS|rsf:gd-|-stype:attr=1|qr_nm:gd|res:RC3|com-cf:nl|ptrs:na|ktp:N0|mc:86310|mtp:S|qry_typ:P|lang:en|wc:2|cs:8833|v=4,Shree Balaji Enterprises,https://www.indiamart.com/shree-balaji-enterprises-maharashtra/?pos=181&kwd=maternity pads&tags=||||8230.883|Price|product|||TS|rsf:gd-|-stype:attr=1|qr_nm:gd|res:RC3|com-cf:nl|ptrs:na|ktp:N0|mc:86310|mtp:S|qry_typ:P|lang:en|wc:2|cs:8833|v=4,False,Parvat Patiya,Surat,"LA Citadel Complex, G-59, Ground Floor, Near Kangaru Circle, Puna Patiya, Parvat Patiya, Surat - 395010, Dist.Surat, Gujarat",8048987419,
Cotton Maternity Pads,https://www.indiamart.com/proddetail/cotton-maternity-pads-23025934212.html?pos=182&kwd=maternity pads&tags=CC||||8038.093|Price|product|||TS|rsf:gd-|-stype:attr=1|qr_nm:gd|res:RC3|com-cf:nl|ptrs:na|ktp:N0|mc:86310|mtp:S|qry_typ:P|lang:en|wc:2|cs:8833|v=4,Saumya Meditech,https://www.indiamart.com/saumya-meditech/?pos=182&kwd=maternity pads&tags=CC||||8038.093|Price|product|||TS|rsf:gd-|-stype:attr=1|qr_nm:gd|res:RC3|com-cf:nl|ptrs:na|ktp:N0|mc:86310|mtp:S|qry_typ:P|lang:en|wc:2|cs:8833|v=4,False,Rajkot,Rajkot,"5th Floor, D 503, Pujya Mahatma Gandhi Township, Speedwell Partyplot to Kankot Road, Opp Orbit Garden Appartment, Near Sanidhya Green Appartment, Rajkot, Rajkot - 360005, Dist.Rajkot, Gujarat",8046071103,
"Non Woven Maternity Pad, 10 Pads",https://www.indiamart.com/proddetail/maternity-pad-2855097061530.html?pos=183&kwd=maternity pads&tags=||||8210.732|Price|product|||TS|rsf:gd-|-stype:attr=1|qr_nm:gd|res:RC3|com-cf:nl|ptrs:na|ktp:N0|mc:86310|mtp:S|qry_typ:P|lang:en|wc:2|cs:8833|v=4,Herambh Healthcare,https://www.lovelylock.in/?pos=183&kwd=maternity pads&tags=||||8210.732|Price|product|||TS|rsf:gd-|-stype:attr=1|qr_nm:gd|res:RC3|com-cf:nl|ptrs:na|ktp:N0|mc:86310|mtp:S|qry_typ:P|lang:en|wc:2|cs:8833|v=4,False,Vasai East,Vasai,"Vasai East, Building No.2, Ground Floor, Gala No.5, Rajprabha Industrial Enclave 5, Gokhivare, Vasai East, Vasai - 401208, Dist.Thane, Maharashtra",8048982172,
Maternity Pads (Pack of 100),https://www.indiamart.com/proddetail/maternity-pads-13128274488.html?pos=184&kwd=maternity pads&tags=CC||||8223.226|Price|product|||MDC|rsf:gd-|-stype:attr=1|qr_nm:gd|res:RC3|com-cf:nl|ptrs:na|ktp:N0|mc:86310|mtp:S|qry_typ:P|lang:en|wc:2|cs:8833|v=4,Eros Surgical,https://www.indiamart.com/erossurgical/?pos=184&kwd=maternity pads&tags=CC||||8223.226|Price|product|||MDC|rsf:gd-|-stype:attr=1|qr_nm:gd|res:RC3|com-cf:nl|ptrs:na|ktp:N0|mc:86310|mtp:S|qry_typ:P|lang:en|wc:2|cs:8833|v=4,False,Bhayandar East,Thane,"211,GODDEV PHATAK ROAD,MINAKSHI CHAMBER,PANCHAL NAGAR BHAYANDER Opposite Asian Motors, Bhayander East, Bhayandar East, Thane - 401105, Dist.Thane, Maharashtra",8048618857,
Cotton Dalco Maternity Pads Regular AL11,https://www.indiamart.com/proddetail/dalco-maternity-pads-regular-al11-2852457335062.html?pos=185&kwd=maternity pads&tags=CC||||8752.144||product|||MDC|rsf:gd-|-stype:attr=1|qr_nm:gd|res:RC3|com-cf:nl|ptrs:na|ktp:N0|mc:86310|mtp:S|qry_typ:P|lang:en|wc:2|cs:8833|v=4,Khandelwal Surgical,https://www.indiamart.com/khandelwalsurgical/?pos=185&kwd=maternity pads&tags=CC||||8752.144||product|||MDC|rsf:gd-|-stype:attr=1|qr_nm:gd|res:RC3|com-cf:nl|ptrs:na|ktp:N0|mc:86310|mtp:S|qry_typ:P|lang:en|wc:2|cs:8833|v=4,False,Uttam Nagar,New Delhi,"WZ-168, First Floor, Block-A, Near Arya Samaj Road, Uttam Nagar, Uttam Nagar, New Delhi - 110059, Dist.Delhi, Delhi",7942570647,
Cotton Romsons Dignity Mom Maternity Pads,https://www.indiamart.com/proddetail/romsons-dignity-mom-maternity-pads-27576184173.html?pos=186&kwd=maternity pads&tags=CC||||9110.092||product|||MDC|rsf:gd-|-stype:attr=1|qr_nm:gd|res:RC3|com-cf:nl|ptrs:na|ktp:N0|mc:86310|mtp:S|qry_typ:P|lang:en|wc:2|cs:8833|v=4,Atlas Health Pharmaceuticals,https://www.indiamart.com/atlashealthpharmaceuticals/?pos=186&kwd=maternity pads&tags=CC||||9110.092||product|||MDC|rsf:gd-|-stype:attr=1|qr_nm:gd|res:RC3|com-cf:nl|ptrs:na|ktp:N0|mc:86310|mtp:S|qry_typ:P|lang:en|wc:2|cs:8833|v=4,False,Ashiyana,Lucknow,"LGF-114, Khazana Market, Aashiana, Ashiyana, Lucknow - 226012, Dist.Lucknow, Uttar Pradesh",7942549766,
5D-Care Cotton Maternity Pad,https://www.indiamart.com/proddetail/maternity-pad-21205710062.html?pos=187&kwd=maternity pads&tags=CC||||8752.144|Price|product|||MDC|rsf:gd-|-stype:attr=1|qr_nm:gd|res:RC3|com-cf:nl|ptrs:na|ktp:N0|mc:86310|mtp:S|qry_typ:P|lang:en|wc:2|cs:8833|v=4,Frontier Impex,https://www.indiamart.com/frontierimpex/?pos=187&kwd=maternity pads&tags=CC||||8752.144|Price|product|||MDC|rsf:gd-|-stype:attr=1|qr_nm:gd|res:RC3|com-cf:nl|ptrs:na|ktp:N0|mc:86310|mtp:S|qry_typ:P|lang:en|wc:2|cs:8833|v=4,False,Teliwara,New Delhi,"No. 2308, Punjabi Chatta, Teliwara, Teliwara, New Delhi - 110006, Dist.Delhi, Delhi",8046033789,
Women First Maternity Sanitary Pad,https://www.indiamart.com/proddetail/maternity-sanitary-pad-24207316588.html?pos=188&kwd=maternity pads&tags=CC||||9088.551|Price|product|||MDC|rsf:gd-|-stype:attr=1|qr_nm:gd|res:RC3|com-cf:nl|ptrs:na|ktp:N0|mc:86310|mtp:S|qry_typ:P|lang:en|wc:2|cs:8833|v=4,Shubh Enterprises,https://www.indiamart.com/shubhenterprisesuttarpradesh/?pos=188&kwd=maternity pads&tags=CC||||9088.551|Price|product|||MDC|rsf:gd-|-stype:attr=1|qr_nm:gd|res:RC3|com-cf:nl|ptrs:na|ktp:N0|mc:86310|mtp:S|qry_typ:P|lang:en|wc:2|cs:8833|v=4,False,Vijay Laxmi Nagar,Sitapur,"G-03, P V Complex, Greek Ganj, Vijay Laxmi Nagar, Sitapur - 261001, Uttar Pradesh",8048976155,
Rectangular Delivery Pad,https://www.indiamart.com/proddetail/delivery-pad-22637674548.html?pos=189&kwd=maternity pads&tags=||||8639.861|Price|product|||TS|rsf:gd-|-stype:attr=1|qr_nm:gd|res:RC3|com-cf:nl|ptrs:na|ktp:N0|mc:86310|mtp:S|qry_typ:P|lang:en|wc:2|cs:8833|v=4,Sri Textiles,https://www.indiamart.com/sri-textiles-rajapalayam/?pos=189&kwd=maternity pads&tags=||||8639.861|Price|product|||TS|rsf:gd-|-stype:attr=1|qr_nm:gd|res:RC3|com-cf:nl|ptrs:na|ktp:N0|mc:86310|mtp:S|qry_typ:P|lang:en|wc:2|cs:8833|v=4,False,Chatrapatti,Rajapalayam,"356/8 North street sankarapandiyapuram chatrapatti, Chatrapatti, Rajapalayam - 626102, Dist.Virudhunagar, Tamil Nadu",8046072872,
Maternity Sanitary Pads Making Machine Automatic,https://www.indiamart.com/proddetail/maternity-sanitary-pads-making-machine-automatic-2854155603073.html?pos=190&kwd=maternity pads&tags=||||9842.926|Price|product|||TS|rsf:gd-|-stype:attr=1|qr_nm:gd|res:RC3|com-cf:nl|ptrs:na|ktp:N0|mc:86310|mtp:S|qry_typ:P|lang:en|wc:2|cs:8833|v=4,Avantika Techno Solutions Pvt. Ltd.,https://www.indiamart.com/avantikatechnosolutions/?pos=190&kwd=maternity pads&tags=||||9842.926|Price|product|||TS|rsf:gd-|-stype:attr=1|qr_nm:gd|res:RC3|com-cf:nl|ptrs:na|ktp:N0|mc:86310|mtp:S|qry_typ:P|lang:en|wc:2|cs:8833|v=4,False,Parui Mauza,South 24 Parganas,"B2-60/b, New Ganipur Main Road, Kolkata, South Twenty Four Parganas, Parui Mauza, South 24 Parganas - 700141, Dist.South 24 Parganas, West Bengal",8048619415,
"Disposable Kelly'S Maternity Pad, For Hospital Use And Home Use",https://www.indiamart.com/proddetail/disposable-kelly-s-maternity-pad-23315074362.html?pos=191&kwd=maternity pads&tags=||||8752.144|Price|product|||MDC|rsf:gd-|-stype:attr=1|qr_nm:gd|res:RC3|com-cf:nl|ptrs:na|ktp:N0|mc:86310|mtp:S|qry_typ:P|lang:en|wc:2|cs:8833|v=4,Medizone Surgical,https://www.indiamart.com/medizone-surgical/?pos=191&kwd=maternity pads&tags=||||8752.144|Price|product|||MDC|rsf:gd-|-stype:attr=1|qr_nm:gd|res:RC3|com-cf:nl|ptrs:na|ktp:N0|mc:86310|mtp:S|qry_typ:P|lang:en|wc:2|cs:8833|v=4,False,Uttam Nagar,New Delhi,"A-88, Vidya Vihar, Hastsal Industrial Area Uttam Nagar, Uttam Nagar, New Delhi - 110059, Dist.Delhi, Delhi",8048955337,
"Lycra Cotton Women Blue Maternity/Nursing Non Padded Bra, Size: 34",https://www.indiamart.com/proddetail/women-blue-maternity-nursing-non-padded-bra-26225416491.html?pos=192&kwd=maternity pads&tags=||||8752.144|Price|product|||TS|rsf:gd-|-stype:attr=1|qr_nm:gd|res:RC3|com-cf:nl|ptrs:na|ktp:N0|mc:86310|mtp:S|qry_typ:P|lang:en|wc:2|cs:8833|v=4,KSB Enterprises,https://www.indiamart.com/ksb-enterprises-newdelhi/?pos=192&kwd=maternity pads&tags=||||8752.144|Price|product|||TS|rsf:gd-|-stype:attr=1|qr_nm:gd|res:RC3|com-cf:nl|ptrs:na|ktp:N0|mc:86310|mtp:S|qry_typ:P|lang:en|wc:2|cs:8833|v=4,False,Shastri Nagar,New Delhi,"House No 112, 1st Floor, Blk-Wz, Village Neemri, Shastri Nagar North West, Shastri Nagar, New Delhi - 110052, Dist.Delhi, Delhi",8043862416,
Maternity Sanitary Napkin,https://www.indiamart.com/proddetail/maternity-sanitary-napkin-2853613978097.html?pos=193&kwd=maternity pads&tags=||||8739.675|Price|product|||MDC|rsf:gd-|-stype:attr=1|qr_nm:gd|res:RC3|com-cf:nl|ptrs:na|ktp:N0|mc:86310|mtp:S|qry_typ:P|lang:en|wc:2|cs:8833|v=4,Sneh Industry,https://www.indiamart.com/snehindustry/?pos=193&kwd=maternity pads&tags=||||8739.675|Price|product|||MDC|rsf:gd-|-stype:attr=1|qr_nm:gd|res:RC3|com-cf:nl|ptrs:na|ktp:N0|mc:86310|mtp:S|qry_typ:P|lang:en|wc:2|cs:8833|v=4,False,Sultanpur,Amravati,"Near Gram Panchayat, Sultanpur, Revsa, Sultanpur, Amravati - 444801, Dist.Amravati, Maharashtra",7942784375,
Maternity Underpads .,https://www.indiamart.com/proddetail/maternity-underpads-2853089583130.html?pos=194&kwd=maternity pads&tags=||||8786.56|Price|product|||TS|rsf:gd-|-stype:attr=1|qr_nm:gd|res:RC3|com-cf:nl|ptrs:na|ktp:N0|mc:86310|mtp:S|qry_typ:P|lang:en|wc:2|cs:8833|v=4,M/s Axon Biotech Pharmaceuticals,https://www.indiamart.com/axonbiotechpharmaceuticals/?pos=194&kwd=maternity pads&tags=||||8786.56|Price|product|||TS|rsf:gd-|-stype:attr=1|qr_nm:gd|res:RC3|com-cf:nl|ptrs:na|ktp:N0|mc:86310|mtp:S|qry_typ:P|lang:en|wc:2|cs:8833|v=4,False,Chandanagar,Hyderabad,"H.No.6-47/2, 1st Floor, Venkatadri Colony, Chanda Nagar, Serilingampally, Ranga Reddy District Chandanagar (v), Serilingampally (M), Chandanagar, Hyderabad - 500050, Dist.Hyderabad, Telangana",8048613235,
Pregnancy MiniCard (Aspen),https://www.indiamart.com/proddetail/pregnancy-minicard-aspen-20177335633.html?pos=195&kwd=maternity pads&tags=||||8786.56||product|||TS|rsf:gd-|-stype:attr=1|qr_nm:gd|res:RC3|com-cf:nl|ptrs:na|ktp:N0|mc:86310|mtp:S|qry_typ:P|lang:en|wc:2|cs:8833|v=4,Biochrome Scientific,https://www.biochromescientific.com/?pos=195&kwd=maternity pads&tags=||||8786.56||product|||TS|rsf:gd-|-stype:attr=1|qr_nm:gd|res:RC3|com-cf:nl|ptrs:na|ktp:N0|mc:86310|mtp:S|qry_typ:P|lang:en|wc:2|cs:8833|v=4,False,Kachi Guda,Hyderabad,"3-2-635,1st floor,rahmath bagh,Opp.narayana clinic,chappal bazar,, Kachi Guda, Hyderabad - 500027, Dist.Hyderabad, Telangana",8048979486,
Gulls Sanitary Pad 240mm,https://www.indiamart.com/proddetail/sanitary-pad-240mm-24665333948.html?pos=196&kwd=maternity pads&tags=||||8785.791|Price|product|||TS|rsf:gd-|-stype:attr=1|qr_nm:gd|res:RC3|com-cf:nl|ptrs:na|ktp:N0|mc:86310|mtp:S|qry_typ:P|lang:en|wc:2|cs:8833|v=4,Kshristi Enterprises,https://www.indiamart.com/kshristi-enterprises/?pos=196&kwd=maternity pads&tags=||||8785.791|Price|product|||TS|rsf:gd-|-stype:attr=1|qr_nm:gd|res:RC3|com-cf:nl|ptrs:na|ktp:N0|mc:86310|mtp:S|qry_typ:P|lang:en|wc:2|cs:8833|v=4,False,Sahibabad,Ghaziabad,"S 57 Harsha campound mohan nagar industrial area Ghaziabad Uttar Pradesh, Sahibabad, Ghaziabad - 201005, Dist.Ghaziabad, Uttar Pradesh",8046078120,
Cotton Profiklen Maternity Pad,https://www.indiamart.com/proddetail/profiklen-maternity-pad-22408348612.html?pos=197&kwd=maternity pads&tags=||||8752.144|Price|product|||MDC|rsf:gd-|-stype:attr=1|qr_nm:gd|res:RC3|com-cf:nl|ptrs:na|ktp:N0|mc:86310|mtp:S|qry_typ:P|lang:en|wc:2|cs:8833|v=4,Ambica Surgicare,https://www.indiamart.com/ambicasurgicare/?pos=197&kwd=maternity pads&tags=||||8752.144|Price|product|||MDC|rsf:gd-|-stype:attr=1|qr_nm:gd|res:RC3|com-cf:nl|ptrs:na|ktp:N0|mc:86310|mtp:S|qry_typ:P|lang:en|wc:2|cs:8833|v=4,False,Dwarka Sector 2,New Delhi,"RZ-4B, Lower Ground Floor Palam Vihar Dwarka, Dwarka Sector 2, New Delhi - 110075, Dist.Delhi, Delhi",8047646352,
Handcuffs Baby Diaper Bag Nappy Changing Bag Mummy Backpack Maternity Bags,https://www.indiamart.com/proddetail/handcuffs-baby-diaper-bag-nappy-changing-bag-mummy-backpack-maternity-bags-2855058411873.html?pos=198&kwd=maternity pads&tags=||||8211.142|Price|product|||TS|rsf:gd-|-stype:attr=1|qr_nm:gd|res:RC3|com-cf:nl|ptrs:na|ktp:N0|mc:86310|mtp:S|qry_typ:P|lang:en|wc:2|cs:8833|v=4,Bhavya Fashion,https://www.indiamart.com/bhavya-fashion/?pos=198&kwd=maternity pads&tags=||||8211.142|Price|product|||TS|rsf:gd-|-stype:attr=1|qr_nm:gd|res:RC3|com-cf:nl|ptrs:na|ktp:N0|mc:86310|mtp:S|qry_typ:P|lang:en|wc:2|cs:8833|v=4,False,Dadar West,Mumbai,"71, Vijay Nagar Building, M. C. Jawale Marg, Above Kamat Hotel, Dadar West, Mumbai - 400028, Dist.Mumbai, Maharashtra",8046048817,
Baby Diaper Bag Mothers Bag Mom Bag Baby Bag,https://www.indiamart.com/proddetail/baby-diaper-bag-mothers-bag-mom-bag-baby-bag-2854036997173.html?pos=199&kwd=maternity pads&tags=||||8211.142|Price|product|||TS|rsf:gd-|-stype:attr=1|qr_nm:gd|res:RC3|com-cf:nl|ptrs:na|ktp:N0|mc:86310|mtp:S|qry_typ:P|lang:en|wc:2|cs:8833|v=4,P For Panda Baby Products Private Limited,https://www.p4pandababyproducts.com/?pos=199&kwd=maternity pads&tags=||||8211.142|Price|product|||TS|rsf:gd-|-stype:attr=1|qr_nm:gd|res:RC3|com-cf:nl|ptrs:na|ktp:N0|mc:86310|mtp:S|qry_typ:P|lang:en|wc:2|cs:8833|v=4,False,Goregaon West,Mumbai,"904 A Wing,9 Th Floor,Triple S Heights,Jakeria Road, Goregaon West, Mumbai - 400064, Dist.Mumbai, Maharashtra",7942710871,
Healthshine Breast Pump Manual,https://www.indiamart.com/proddetail/healthshine-breast-pump-manual-2851891256062.html?pos=200&kwd=maternity pads&tags=||||8663.873|Price|product|||TS|rsf:gd-|-stype:attr=1|qr_nm:gd|res:RC3|com-cf:nl|ptrs:na|ktp:N0|mc:86310|mtp:S|qry_typ:P|lang:en|wc:2|cs:8833|v=4,Prajwal Surgical And Scientifics Private Limited,https://www.indiamart.com/prajwal-surgical-and-scientifics/?pos=200&kwd=maternity pads&tags=||||8663.873|Price|product|||TS|rsf:gd-|-stype:attr=1|qr_nm:gd|res:RC3|com-cf:nl|ptrs:na|ktp:N0|mc:86310|mtp:S|qry_typ:P|lang:en|wc:2|cs:8833|v=4,False,Peenya,Bengaluru,"2nd Floor, 254/A PID No 11-161-254A, Old Sonal Garments, 100 Feet Road, Peenya Industrial Area Stage, Peenya, Bengaluru - 560058, Dist.Bengaluru, Karnataka",7942842256,
"Rectangular Surgical Disposable Underpads, Size: Large, 10",https://www.indiamart.com/proddetail/surgical-disposable-underpads-26287515962.html?pos=201&kwd=maternity pads&tags=||||8228.275|Price|product|||TS|rsf:gd-|-stype:attr=1|qr_nm:gd|res:RC3|com-cf:nl|ptrs:na|ktp:N0|mc:86310|mtp:S|qry_typ:P|lang:en|wc:2|cs:8833|v=4,Z Plus Disposable Private Limited,https://www.zplusdisposable.co.in/?pos=201&kwd=maternity pads&tags=||||8228.275|Price|product|||TS|rsf:gd-|-stype:attr=1|qr_nm:gd|res:RC3|com-cf:nl|ptrs:na|ktp:N0|mc:86310|mtp:S|qry_typ:P|lang:en|wc:2|cs:8833|v=4,True,Kathwada,Ahmedabad,"Plot No,145,Road No.5 Kathwada GIDC,Kathwada, Kathwada, Ahmedabad - 382430, Dist.Ahmedabad, Gujarat",8046059900,
"Rectangular Medical Disposable Underpads, Size: Large",https://www.indiamart.com/proddetail/medical-disposable-underpads-2854285788348.html?pos=202&kwd=maternity pads&tags=||||8038.093|Price|product|||TS|rsf:gd-|-stype:attr=1|qr_nm:gd|res:RC3|com-cf:nl|ptrs:na|ktp:N0|mc:86310|mtp:S|qry_typ:P|lang:en|wc:2|cs:8833|v=4,PM Network,https://www.zpmediheal.in/?pos=202&kwd=maternity pads&tags=||||8038.093|Price|product|||TS|rsf:gd-|-stype:attr=1|qr_nm:gd|res:RC3|com-cf:nl|ptrs:na|ktp:N0|mc:86310|mtp:S|qry_typ:P|lang:en|wc:2|cs:8833|v=4,True,Samrat Industrial Area,Rajkot,"Behind Glowtech Steel, Plot No. 150/93/B, Gondal Road, Maruti Industrial Area, Samrat Industrial Area, Rajkot - 360004, Dist.Rajkot, Gujarat",8046044291,
Maternity Pad,https://www.indiamart.com/proddetail/maternity-pad-2853216449088.html?pos=203&kwd=maternity pads&tags=||||8954.051|Price|product|||TS|rsf:gd-|-stype:attr=1|qr_nm:gd|res:RC3|com-cf:nl|ptrs:na|ktp:N0|mc:86310|mtp:S|qry_typ:P|lang:en|wc:2|cs:8833|v=4,Shriv Medicare Private Limited,https://www.shrivmedicare.com/?pos=203&kwd=maternity pads&tags=||||8954.051|Price|product|||TS|rsf:gd-|-stype:attr=1|qr_nm:gd|res:RC3|com-cf:nl|ptrs:na|ktp:N0|mc:86310|mtp:S|qry_typ:P|lang:en|wc:2|cs:8833|v=4,False,Noombal,Chennai,"Plot No.2, Survey No. 15/2B, Vada Noombal Road, Perumalagaram, Tiruverkadu, Noombal, Chennai - 600077, Dist.Chennai, Tamil Nadu",8043830699,
Maternity Gown On Rent,https://www.indiamart.com/proddetail/maternity-gown-on-rent-2853813347362.html?pos=204&kwd=maternity pads&tags=||||8228.275|Price|product|||TS|rsf:gd-|-stype:attr=1|qr_nm:gd|res:RC3|com-cf:nl|ptrs:na|ktp:N0|mc:86310|mtp:S|qry_typ:P|lang:en|wc:2|cs:8833|v=4,Gitanjali Enterprise,https://www.indiamart.com/gitanjali-enterprise-ahmedabad/?pos=204&kwd=maternity pads&tags=||||8228.275|Price|product|||TS|rsf:gd-|-stype:attr=1|qr_nm:gd|res:RC3|com-cf:nl|ptrs:na|ktp:N0|mc:86310|mtp:S|qry_typ:P|lang:en|wc:2|cs:8833|v=4,False,Isanpur,Ahmedabad,"Near Jognimata Temple, Isanpur Gam, Isanpur, Isanpur, Ahmedabad - 382443, Dist.Ahmedabad, Gujarat",8047640750,
Maternity Support Belt,https://www.indiamart.com/proddetail/maternity-support-belt-2852843883448.html?pos=205&kwd=maternity pads&tags=||||8785.791|Price|product|||TS|rsf:gd-|-stype:attr=1|qr_nm:gd|res:RC3|com-cf:nl|ptrs:na|ktp:N0|mc:86310|mtp:S|qry_typ:P|lang:en|wc:2|cs:8833|v=4,Hiakan International,https://www.hiakan.com/?pos=205&kwd=maternity pads&tags=||||8785.791|Price|product|||TS|rsf:gd-|-stype:attr=1|qr_nm:gd|res:RC3|com-cf:nl|ptrs:na|ktp:N0|mc:86310|mtp:S|qry_typ:P|lang:en|wc:2|cs:8833|v=4,False,Rajendra Nagar,Ghaziabad,"Kh No.-3539, Raghubeer Enclave,Paragana Loni,, Rajendra Nagar, Ghaziabad - 201005, Dist.Ghaziabad, Uttar Pradesh",8047645889,
VISMIINTREND Durable Travel Diaper Diaper Maternity Nappy Bag Backpack Large Waterproof,https://www.indiamart.com/proddetail/vismiintrend-durable-travel-diaper-diaper-maternity-nappy-bag-backpack-large-waterproof-22320761312.html?pos=206&kwd=maternity pads&tags=||||8601.347|Price|product|||TS|rsf:gd-|-stype:attr=1|qr_nm:gd|res:RC3|com-cf:nl|ptrs:na|ktp:N0|mc:86310|mtp:S|qry_typ:P|lang:en|wc:2|cs:8833|v=4,Beena Internationals,https://www.aahanvibags.com/?pos=206&kwd=maternity pads&tags=||||8601.347|Price|product|||TS|rsf:gd-|-stype:attr=1|qr_nm:gd|res:RC3|com-cf:nl|ptrs:na|ktp:N0|mc:86310|mtp:S|qry_typ:P|lang:en|wc:2|cs:8833|v=4,False,,Jaipur,"E-131, Ambabari, Jaipur - 302023, Dist.Jaipur, Rajasthan",8047645446,
Ladies Maternity Bra,https://www.indiamart.com/proddetail/ladies-maternity-bra-2852820024588.html?pos=207&kwd=maternity pads&tags=||||8752.144|Price|product|||TS|rsf:gd-|-stype:attr=1|qr_nm:gd|res:RC3|com-cf:nl|ptrs:na|ktp:N0|mc:86310|mtp:S|qry_typ:P|lang:en|wc:2|cs:8833|v=4,Kritika Enterprises,https://www.indiamart.com/kritika-enterprises-newdelhi/?pos=207&kwd=maternity pads&tags=||||8752.144|Price|product|||TS|rsf:gd-|-stype:attr=1|qr_nm:gd|res:RC3|com-cf:nl|ptrs:na|ktp:N0|mc:86310|mtp:S|qry_typ:P|lang:en|wc:2|cs:8833|v=4,False,Pahari Dhiraj,New Delhi,"First Floor, 4664, Gali Mohar Singh, Jat Pahari Dhiraj, Pahari Dhiraj, New Delhi - 110006, Dist.Delhi, Delhi",8047659336,
"irA soft organic sanetry pads n Maternity kit, Regular",https://www.indiamart.com/proddetail/ira-soft-organic-sanetry-pads-n-maternity-kit-2848980277248.html?pos=208&kwd=maternity pads&tags=||||8038.093|Price|product|||TS|rsf:gd-|-stype:attr=1|qr_nm:gd|res:RC3|com-cf:nl|ptrs:na|ktp:N0|mc:86310|mtp:S|qry_typ:P|lang:en|wc:2|cs:8833|v=4,Chandarana Packaging,https://www.indiamart.com/chandarana-packaging/?pos=208&kwd=maternity pads&tags=||||8038.093|Price|product|||TS|rsf:gd-|-stype:attr=1|qr_nm:gd|res:RC3|com-cf:nl|ptrs:na|ktp:N0|mc:86310|mtp:S|qry_typ:P|lang:en|wc:2|cs:8833|v=4,False,Chotu Nagar,Rajkot,"Sainath Industrial Estate,,Nr. Rajesh Oil Mill,,Gujarat,360007,Rajkot, Chotu Nagar, Rajkot - 360007, Dist.Rajkot, Gujarat",8046054669,
SANITARY NAPKIN BELTED MATERNITY,https://www.indiamart.com/proddetail/sanitary-napkin-belted-maternity-22499731930.html?pos=209&kwd=maternity pads&tags=||||8752.144|Price|product|||TS|rsf:gd-|-stype:attr=1|qr_nm:gd|res:RC3|com-cf:nl|ptrs:na|ktp:N0|mc:86310|mtp:S|qry_typ:P|lang:en|wc:2|cs:8833|v=4,Fairbizps,https://www.indiamart.com/fairbizps/?pos=209&kwd=maternity pads&tags=||||8752.144|Price|product|||TS|rsf:gd-|-stype:attr=1|qr_nm:gd|res:RC3|com-cf:nl|ptrs:na|ktp:N0|mc:86310|mtp:S|qry_typ:P|lang:en|wc:2|cs:8833|v=4,True,Laxmi Nagar,New Delhi,"No. 348/4A, Asha Ram, Street No. 4, Subedar Chowk Mandawali, Laxmi Nagar, New Delhi - 110092, Dist.Delhi, Delhi",8048610174,
Cotton Friends Maternity Pad,https://www.indiamart.com/proddetail/friends-maternity-pad-25811123330.html?pos=210&kwd=maternity pads&tags=||||8752.144|Price|product|||TS|rsf:gd-|-stype:attr=1|qr_nm:gd|res:RC3|com-cf:nl|ptrs:na|ktp:N0|mc:86310|mtp:S|qry_typ:P|lang:en|wc:2|cs:8833|v=4,Recherche World,https://www.rechercheworld.co.in/?pos=210&kwd=maternity pads&tags=||||8752.144|Price|product|||TS|rsf:gd-|-stype:attr=1|qr_nm:gd|res:RC3|com-cf:nl|ptrs:na|ktp:N0|mc:86310|mtp:S|qry_typ:P|lang:en|wc:2|cs:8833|v=4,False,Pandav Nagar,New Delhi,"Near Gurudwara, Ground Floor, A-13-14, Gali No.01, Pandav Nagar, East Delhi, Pandav Nagar, New Delhi - 110092, Dist.Delhi, Delhi",8047312171,
