product_title,product_link,company_name,company_link,is_verified_exporter,city_region,city,address_details,phone_number,phone_number_extension
Manufacturer of Women Labour/Delivery/Maternity Nursing gowns for Hospital Breastfeeding dresses,https://www.indiamart.com/proddetail/manufacturer-of-women-labour-delivery-maternity-nursing-gowns-for-hospital-breastfeeding-dresses-2848956450491.html?pos=1&kwd=maternity blouses&tags=BB||||8752.144|Price|product|||NA|rsf:gd-|-stype:attr=1|qr_nm:splt-rlx-gd|res:RC5|com-cf:nl|ptrs:na|ktp:N0|mc:9910|mtp:S|qry_typ:P|lang:en|wc:2|flavl:0|cs:10434|v=4,Saanvi Inc.,https://www.indiamart.com/saanviinc/?pos=1&kwd=maternity blouses&tags=BB||||8752.144|Price|product|||NA|rsf:gd-|-stype:attr=1|qr_nm:splt-rlx-gd|res:RC5|com-cf:nl|ptrs:na|ktp:N0|mc:9910|mtp:S|qry_typ:P|lang:en|wc:2|flavl:0|cs:10434|v=4,False,,New Delhi,"A-802, Ground Floor, Rohtak Road, Opposite Udyog Nagar Metro Station, Gate No. 1, New Delhi - 110041, Dist.Delhi, Delhi",8069196715,748
Maternity Clothing Manufacturers,https://www.indiamart.com/proddetail/maternity-clothing-manufacturers-2850412773497.html?pos=2&kwd=maternity blouses&tags=CC||||8601.347|Price|product|||TS|rsf:gd-|-stype:attr=1|qr_nm:splt-rlx-gd|res:RC5|com-cf:nl|ptrs:na|ktp:N0|mc:9910|mtp:S|qry_typ:P|lang:en|wc:2|flavl:0|cs:10434|v=4,Tanishi Crafts,https://www.tanishicrafts.com/?pos=2&kwd=maternity blouses&tags=CC||||8601.347|Price|product|||TS|rsf:gd-|-stype:attr=1|qr_nm:splt-rlx-gd|res:RC5|com-cf:nl|ptrs:na|ktp:N0|mc:9910|mtp:S|qry_typ:P|lang:en|wc:2|flavl:0|cs:10434|v=4,False,Jaipur,Jaipur,"Bani Park, F-61 Sindhi Colony, Jaipur, Iti Sanstha Ke Piche, Sindhi Colony, Jaipur, Jaipur - 302016, Dist.Jaipur, Rajasthan",8047622196,
Maternity Wears (Mw 01),https://www.indiamart.com/proddetail/maternity-wears-mw-01-1759255430.html?pos=3&kwd=maternity blouses&tags=CA||||8601.347||product|||NA|rsf:gd-|-stype:attr=1|qr_nm:splt-rlx-gd|res:RC5|com-cf:nl|ptrs:na|ktp:N0|mc:9910|mtp:S|qry_typ:P|lang:en|wc:2|flavl:0|cs:10434|v=4,Goyal Arts,https://www.indiamart.com/goyalarts/?pos=3&kwd=maternity blouses&tags=CA||||8601.347||product|||NA|rsf:gd-|-stype:attr=1|qr_nm:splt-rlx-gd|res:RC5|com-cf:nl|ptrs:na|ktp:N0|mc:9910|mtp:S|qry_typ:P|lang:en|wc:2|flavl:0|cs:10434|v=4,False,Sitapur Industrial Area,Jaipur,"J- 52, Garment Zone, Road No. 4, RIICO Industrial Area, Sitapur, Sitapur Industrial Area, Jaipur - 302022, Dist.Jaipur, Rajasthan",8048372397,880
Maternity Blouses,https://www.indiamart.com/proddetail/maternity-blouses-2851575920097.html?pos=4&kwd=maternity blouses&tags=CC||||8601.347||product|||NA|rsf:gd-|-stype:attr=1|qr_nm:splt-rlx-gd|res:RC5|com-cf:nl|ptrs:na|ktp:N0|mc:9910|mtp:S|qry_typ:P|lang:en|wc:2|flavl:0|cs:10434|v=4,Shree Karni Fashion,https://www.indiamart.com/shreekarnifashion/?pos=4&kwd=maternity blouses&tags=CC||||8601.347||product|||NA|rsf:gd-|-stype:attr=1|qr_nm:splt-rlx-gd|res:RC5|com-cf:nl|ptrs:na|ktp:N0|mc:9910|mtp:S|qry_typ:P|lang:en|wc:2|flavl:0|cs:10434|v=4,False,,Jaipur,"135, Shree Karni Fashion , Banshi Puri , Jagatpura, Jaipur - 302017, Dist.Jaipur, Rajasthan",7942834218,
Maternity Blouses,,Up Above Online Retail,https://www.indiamart.com/awww/?pos=5&kwd=maternity blouses&tags=CC||||8211.142||product|||NA|rsf:gd-|-stype:attr=1|qr_nm:splt-rlx-gd|res:RC5|com-cf:nl|ptrs:na|ktp:N0|mc:9910|mtp:S|qry_typ:P|lang:en|wc:2|flavl:0|cs:10434|v=4,False,Juhu,Mumbai,"31, Ritu Appt, Juhu Versova Link Rd, Andheri%28West%29, Juhu, Mumbai - 400053, Dist.Mumbai, Maharashtra",8062245061,293
Maternity Clothing,,Pawan Fabtex Private Limited,https://www.indiamart.com/pawan-fab-tex/?pos=6&kwd=maternity blouses&tags=CC||||8601.347||product|||NA|rsf:gd-|-stype:attr=1|qr_nm:splt-rlx-gd|res:RC5|com-cf:nl|ptrs:na|ktp:N0|mc:9910|mtp:S|qry_typ:P|lang:en|wc:2|flavl:0|cs:10434|v=4,False,Talkatora,Jaipur,"73-75, Talkatora, Talkatora, Jaipur - 302002, Dist.Jaipur, Rajasthan",8048371555,830
3 Casual Maternity Wear,,A & M International,https://www.indiamart.com/a-m-international-delhi/?pos=7&kwd=maternity blouses&tags=CC||||8778.123|Price|product|||NA|rsf:gd-|-stype:attr=1|qr_nm:splt-rlx-gd|res:RC5|com-cf:nl|ptrs:na|ktp:N0|mc:9910|mtp:S|qry_typ:P|lang:en|wc:2|flavl:0|cs:10434|v=4,False,Sector 63,Noida,"E-79, Sector-63, Sector 63, Noida - 201301, Dist.Gautam Budh Nagar, Uttar Pradesh",8048249691,6373
"White Elegant Maternity Feeding Dress, Size: Large, Sleeves: Half Sleeves",https://www.indiamart.com/proddetail/white-elegant-maternity-feeding-dress-25235186430.html?pos=8&kwd=maternity blouses&tags=CC||||8211.142|Price|product|||NA|rsf:splt-|-stype:attr=1|qr_nm:splt-rlx-gd|res:RC5|com-cf:nl|ptrs:na|ktp:N0|mc:9910|mtp:S|qry_typ:P|lang:en|wc:2|flavl:0|cs:10434|v=4,Ketki Dalal,https://www.indiamart.com/momforsure/?pos=8&kwd=maternity blouses&tags=CC||||8211.142|Price|product|||NA|rsf:splt-|-stype:attr=1|qr_nm:splt-rlx-gd|res:RC5|com-cf:nl|ptrs:na|ktp:N0|mc:9910|mtp:S|qry_typ:P|lang:en|wc:2|flavl:0|cs:10434|v=4,False,,Mumbai,"Gr Flr - 25, Om Heera Panna, BHD. Shreeji Hotel, Oshiwara, Andheri West, Mumbai - 400053, Dist.Mumbai, Maharashtra",8047309117,
Maternity Blouses,,Sheffali,https://www.indiamart.com/sheffali/?pos=9&kwd=maternity blouses&tags=CC||||8601.347||product|||MDC|rsf:splt-|-stype:attr=1|qr_nm:splt-rlx-gd|res:RC5|com-cf:nl|ptrs:na|ktp:N0|mc:9910|mtp:S|qry_typ:P|lang:en|wc:2|flavl:0|cs:10434|v=4,False,Ajmer Road,Jaipur,"C-61, Opp. Kabra Eye Hospital, Jamna Nagar, Sodala, Ajmer Road, Jaipur - 302006, Dist.Jaipur, Rajasthan",7942720926,
Maternity Blouses,https://www.indiamart.com/proddetail/maternity-blouses-11671150930.html?pos=10&kwd=maternity blouses&tags=CC||||8626.744||product|||NA|rsf:splt-|-stype:attr=1|qr_nm:splt-rlx-gd|res:RC5|com-cf:nl|ptrs:na|ktp:N0|mc:9910|mtp:S|qry_typ:P|lang:en|wc:2|flavl:0|cs:10434|v=4,Vogue Sourcing,https://www.indiamart.com/voguesourcing/?pos=10&kwd=maternity blouses&tags=CC||||8626.744||product|||NA|rsf:splt-|-stype:attr=1|qr_nm:splt-rlx-gd|res:RC5|com-cf:nl|ptrs:na|ktp:N0|mc:9910|mtp:S|qry_typ:P|lang:en|wc:2|flavl:0|cs:10434|v=4,False,,Tiruppur,"2/31, Nethaji Street East Kumaranthapuram, Tiruppur - 641602, Dist.Coimbatore, Tamil Nadu",8048601604,
Maternity & Nursing Garment (05),,Net Paradigm India Private Limited,https://www.indiamart.com/company/2163010/?pos=11&kwd=maternity blouses&tags=CC||||8778.123||product|||NA|rsf:splt-|-stype:attr=1|qr_nm:splt-rlx-gd|res:RC5|com-cf:nl|ptrs:na|ktp:N0|mc:9910|mtp:S|qry_typ:P|lang:en|wc:2|flavl:0|cs:10434|v=4,False,,Noida,"A - 164, Sector - 63, Noida - 201301, Dist.Gautam Budh Nagar, Uttar Pradesh",8048370626,8493
Maternity Blouses,,"V2 Intex, Mumbai",https://www.indiamart.com/v2intex/?pos=12&kwd=maternity blouses&tags=CC||||8211.142||product|||NA|rsf:splt-|-stype:attr=1|qr_nm:splt-rlx-gd|res:RC5|com-cf:nl|ptrs:na|ktp:N0|mc:9910|mtp:S|qry_typ:P|lang:en|wc:2|flavl:0|cs:10434|v=4,False,,Mumbai,"211, Guru Gobind Singh Indl. Estate, Near Jay Coach, Off Western Highway, Goregaon (E), Mumbai - 400063, Dist.Mumbai, Maharashtra",,
Maternity Blouses,,Life Style Designs,https://www.indiamart.com/company/772622/?pos=13&kwd=maternity blouses&tags=CC||||8752.144||product|||NA|rsf:splt-|-stype:attr=1|qr_nm:splt-rlx-gd|res:RC5|com-cf:nl|ptrs:na|ktp:N0|mc:9910|mtp:S|qry_typ:P|lang:en|wc:2|flavl:0|cs:10434|v=4,False,Karol Bagh,New Delhi,"53/52, Ramjas Road,, Karol Bagh, New Delhi - 110005, Dist.Delhi, Delhi",8045374960,1936
Maternity Blouses,,Pumpkins Organic Beginnings,https://www.indiamart.com/theertha-organics-herbal-sol-pvt-ltd/?pos=14&kwd=maternity blouses&tags=CC||||8509.724||product|||NA|rsf:splt-|-stype:attr=1|qr_nm:splt-rlx-gd|res:RC5|com-cf:nl|ptrs:na|ktp:N0|mc:9910|mtp:S|qry_typ:P|lang:en|wc:2|flavl:0|cs:10434|v=4,False,Nangiarkulangara,Alappuzha,"14/187A Narasimhathu, Akamkudy, Nangiarkulangara P.O, Nangiarkulangara, Alappuzha - 690513, Dist.Alappuzha, Kerala",8048371550,490
Maternity Blouses,,Dream Fashion,https://www.indiamart.com/dreamfashion/?pos=15&kwd=maternity blouses&tags=CC||||8226.563||product|||NA|rsf:splt-|-stype:attr=1|qr_nm:splt-rlx-gd|res:RC5|com-cf:nl|ptrs:na|ktp:N0|mc:9910|mtp:S|qry_typ:P|lang:en|wc:2|flavl:0|cs:10434|v=4,False,Chembur,Navi Mumbai,"No. 53, Saibaba Nagar, Shell Colony Road, Chembur, Navi Mumbai - 400071, Dist.Thane, Maharashtra",8048370097,1377
Maternity Blouses,,Bhutani & Company Private Limited,https://www.indiamart.com/bhutani-co-pvt-ltd/?pos=16&kwd=maternity blouses&tags=CC||||8778.123||product|||NA|rsf:splt-|-stype:attr=1|qr_nm:splt-rlx-gd|res:RC5|com-cf:nl|ptrs:na|ktp:N0|mc:9910|mtp:S|qry_typ:P|lang:en|wc:2|flavl:0|cs:10434|v=4,False,,Noida,"F474, Sector 63, Noida - 201301, Dist.Gautam Budh Nagar, Uttar Pradesh",8048247118,4671
Cotton Hand Work Kutchwork Mirror Buttons,https://www.indiamart.com/proddetail/kutchwork-mirror-buttons-23690169662.html?pos=17&kwd=maternity blouses&tags=||||8828.05|Price|product|||TS|rsf:rlx-|-stype:attr=1|qr_nm:splt-rlx-gd|res:RC5|com-cf:nl|ptrs:na|ktp:N0|mc:9910|mtp:S|qry_typ:P|lang:en|wc:2|flavl:0|cs:10434|v=4,Dhinakaran Handicrafts,https://www.indiamart.com/dhinakaranhandicrafts/?pos=17&kwd=maternity blouses&tags=||||8828.05|Price|product|||TS|rsf:rlx-|-stype:attr=1|qr_nm:splt-rlx-gd|res:RC5|com-cf:nl|ptrs:na|ktp:N0|mc:9910|mtp:S|qry_typ:P|lang:en|wc:2|flavl:0|cs:10434|v=4,False,Tirupati,Chittoor,"18-3-64/B, Shop No 2, Srihari Colony, Tirupati, Tirupati, Chittoor - 517501, Dist.Chittoor, Andhra Pradesh",8046067738,
"Golden & Black Embrodiery,Stone Work Women Fancy Designer Net Silk Blouse, Size: 28 TO 38 & 42 ALTERNET",https://www.indiamart.com/proddetail/women-fancy-designer-net-silk-blouse-26564308991.html?pos=18&kwd=maternity blouses&tags=||||8230.883|Price|product|||TS|rsf:rlx-|-stype:attr=1|qr_nm:splt-rlx-gd|res:RC5|com-cf:nl|ptrs:na|ktp:N0|mc:9910|mtp:S|qry_typ:P|lang:en|wc:2|flavl:0|cs:10434|v=4,Ansar Creation,https://www.indiamart.com/ansar-creation/?pos=18&kwd=maternity blouses&tags=||||8230.883|Price|product|||TS|rsf:rlx-|-stype:attr=1|qr_nm:splt-rlx-gd|res:RC5|com-cf:nl|ptrs:na|ktp:N0|mc:9910|mtp:S|qry_typ:P|lang:en|wc:2|flavl:0|cs:10434|v=4,False,,Surat,"First, Second And Third, Plot No A/26/15/16 & 16a, Udhana Udyog Nagar Sangh Company, Road No 10, Udhna, Surat - 394210, Dist.Surat, Gujarat",8046078632,
Half Sleeves Cotton Lycra Designer Blouse,https://www.indiamart.com/proddetail/half-sleeves-cotton-lycra-designer-blouse-18516954012.html?pos=19&kwd=maternity blouses&tags=||||8601.347|Price|product|||TS|rsf:rlx-|-stype:attr=1|qr_nm:splt-rlx-gd|res:RC5|com-cf:nl|ptrs:na|ktp:N0|mc:9910|mtp:S|qry_typ:P|lang:en|wc:2|flavl:0|cs:10434|v=4,Sanmati Fashion,https://www.indiamart.com/sanmatifashion/?pos=19&kwd=maternity blouses&tags=||||8601.347|Price|product|||TS|rsf:rlx-|-stype:attr=1|qr_nm:splt-rlx-gd|res:RC5|com-cf:nl|ptrs:na|ktp:N0|mc:9910|mtp:S|qry_typ:P|lang:en|wc:2|flavl:0|cs:10434|v=4,False,Sikar House,Jaipur,"First Floor, A-56, Vijay Laxmi Premium, 60 Feet Road, Sikar House, Sikar House, Jaipur - 302016, Dist.Jaipur, Rajasthan",8048954270,
"Short Plain Designer Stretchable Cotton Blouse, Size: Free Size",https://www.indiamart.com/proddetail/designer-stretchable-cotton-blouse-22636380273.html?pos=20&kwd=maternity blouses&tags=||||8230.883|Price|product|||TS|rsf:rlx-|-stype:attr=1|qr_nm:splt-rlx-gd|res:RC5|com-cf:nl|ptrs:na|ktp:N0|mc:9910|mtp:S|qry_typ:P|lang:en|wc:2|flavl:0|cs:10434|v=4,PU Fashion,https://www.indiamart.com/pu-fashion/?pos=20&kwd=maternity blouses&tags=||||8230.883|Price|product|||TS|rsf:rlx-|-stype:attr=1|qr_nm:splt-rlx-gd|res:RC5|com-cf:nl|ptrs:na|ktp:N0|mc:9910|mtp:S|qry_typ:P|lang:en|wc:2|flavl:0|cs:10434|v=4,False,Sagrampura,Surat,"Ground Floor, Plot No-227-b, Pushpa Nagar 1, Bhathena, Surat, Sagrampura, Surat - 395002, Dist.Surat, Gujarat",8048980343,
"Multicolor Ikkat Cotton Blouse, Stitched, Size: 32-42",https://www.indiamart.com/proddetail/ikkat-cotton-blouse-2854878222730.html?pos=21&kwd=maternity blouses&tags=||||9771.577|Price|product|||TS|rsf:rlx-|-stype:attr=1|qr_nm:splt-rlx-gd|res:RC5|com-cf:nl|ptrs:na|ktp:N0|mc:9910|mtp:S|qry_typ:P|lang:en|wc:2|flavl:0|cs:10434|v=4,Santiniketan Handicrafts,https://www.indiamart.com/santiniketanhandicrafts/?pos=21&kwd=maternity blouses&tags=||||9771.577|Price|product|||TS|rsf:rlx-|-stype:attr=1|qr_nm:splt-rlx-gd|res:RC5|com-cf:nl|ptrs:na|ktp:N0|mc:9910|mtp:S|qry_typ:P|lang:en|wc:2|flavl:0|cs:10434|v=4,False,,Bolpur,"176/10/G, Bolpur - 731204, Dist.Birbhum, West Bengal",7949339694,
Embossed Velvet Fabric blouse,https://www.indiamart.com/proddetail/embossed-velvet-fabric-blouse-2854432217062.html?pos=22&kwd=maternity blouses&tags=||||8230.883|Price|product|||TS|rsf:rlx-|-stype:attr=1|qr_nm:splt-rlx-gd|res:RC5|com-cf:nl|ptrs:na|ktp:N0|mc:9910|mtp:S|qry_typ:P|lang:en|wc:2|flavl:0|cs:10434|v=4,Nirant Enterprise,https://www.nirantenterprises.com/?pos=22&kwd=maternity blouses&tags=||||8230.883|Price|product|||TS|rsf:rlx-|-stype:attr=1|qr_nm:splt-rlx-gd|res:RC5|com-cf:nl|ptrs:na|ktp:N0|mc:9910|mtp:S|qry_typ:P|lang:en|wc:2|flavl:0|cs:10434|v=4,False,Varachha,Surat,"Ground Floor Plot No.13,14,29,30 Shop No.3, Ankas Complex,Netlade Society, Punagam, Varachha, Surat - 395006, Dist.Surat, Gujarat",8045166936,
"10 Inch Elbow Ikkat Cotton Blouse, Stitched, Size: 38 Upto 42",https://www.indiamart.com/proddetail/ikkat-cotton-blouse-2853997529630.html?pos=23&kwd=maternity blouses&tags=||||8230.883|Price|product|||TS|rsf:rlx-|-stype:attr=1|qr_nm:splt-rlx-gd|res:RC5|com-cf:nl|ptrs:na|ktp:N0|mc:9910|mtp:S|qry_typ:P|lang:en|wc:2|flavl:0|cs:10434|v=4,Pehr Collection,https://www.pehrcollection.in/?pos=23&kwd=maternity blouses&tags=||||8230.883|Price|product|||TS|rsf:rlx-|-stype:attr=1|qr_nm:splt-rlx-gd|res:RC5|com-cf:nl|ptrs:na|ktp:N0|mc:9910|mtp:S|qry_typ:P|lang:en|wc:2|flavl:0|cs:10434|v=4,False,Amar Kunj Society,Surat,"162,labdhi readymade mahalaxmi industrial area, Amar Kunj Society, Surat - 395007, Dist.Surat, Gujarat",8047633039,
Designer Banarasi Silk Blouse,https://www.indiamart.com/proddetail/designer-banarasi-silk-blouse-23923150591.html?pos=24&kwd=maternity blouses&tags=||||8230.883|Price|product|||TS|rsf:rlx-|-stype:attr=1|qr_nm:splt-rlx-gd|res:RC5|com-cf:nl|ptrs:na|ktp:N0|mc:9910|mtp:S|qry_typ:P|lang:en|wc:2|flavl:0|cs:10434|v=4,Pearl Fashion,https://www.pearlfashion.co.in/?pos=24&kwd=maternity blouses&tags=||||8230.883|Price|product|||TS|rsf:rlx-|-stype:attr=1|qr_nm:splt-rlx-gd|res:RC5|com-cf:nl|ptrs:na|ktp:N0|mc:9910|mtp:S|qry_typ:P|lang:en|wc:2|flavl:0|cs:10434|v=4,False,Katargam,Surat,"Plot No. 73 Opp. Katargam Police Station, Katargam D.k. Nagar Co Op Hou Society shop number 7105-7106 Avadha textile market, Katargam, Surat - 395004, Dist.Surat, Gujarat",8046079626,
"Cotton Blouse, Stitched",https://www.indiamart.com/proddetail/cotton-blouse-2852554451062.html?pos=25&kwd=maternity blouses&tags=||||8230.883|Price|product|||TS|rsf:rlx-|-stype:attr=1|qr_nm:splt-rlx-gd|res:RC5|com-cf:nl|ptrs:na|ktp:N0|mc:9910|mtp:S|qry_typ:P|lang:en|wc:2|flavl:0|cs:10434|v=4,Yogeshwar Creation,https://www.indiamart.com/yogeshwar-creation-surat/?pos=25&kwd=maternity blouses&tags=||||8230.883|Price|product|||TS|rsf:rlx-|-stype:attr=1|qr_nm:splt-rlx-gd|res:RC5|com-cf:nl|ptrs:na|ktp:N0|mc:9910|mtp:S|qry_typ:P|lang:en|wc:2|flavl:0|cs:10434|v=4,False,Varachha Road,Surat,"B-190, Ravi Park Society, Kapodara, Varachha Road,, Varachha Road, Surat - 395006, Dist.Surat, Gujarat",8048610873,
"Cotton Green Designer Cut Work Blouse, Size: 36",https://www.indiamart.com/proddetail/designer-cut-work-blouse-2854632038662.html?pos=26&kwd=maternity blouses&tags=||||8230.883|Price|product|||TS|rsf:rlx-|-stype:attr=1|qr_nm:splt-rlx-gd|res:RC5|com-cf:nl|ptrs:na|ktp:N0|mc:9910|mtp:S|qry_typ:P|lang:en|wc:2|flavl:0|cs:10434|v=4,Riddhi Creation,https://www.indiamart.com/riddhicreationsurat/?pos=26&kwd=maternity blouses&tags=||||8230.883|Price|product|||TS|rsf:rlx-|-stype:attr=1|qr_nm:splt-rlx-gd|res:RC5|com-cf:nl|ptrs:na|ktp:N0|mc:9910|mtp:S|qry_typ:P|lang:en|wc:2|flavl:0|cs:10434|v=4,False,,Surat,"PLOT NO. A-3,PRIYNKA ESTATE, GALI NO. 3,VARACHHA ROAD,SURAT kapodra,395006,, Surat - 395006, Dist.Surat, Gujarat",7949325261,
Elbow Stitched Stretchable Cotton Blouse,https://www.indiamart.com/proddetail/stretchable-cotton-blouse-2851768671230.html?pos=27&kwd=maternity blouses&tags=||||8230.883|Price|product|||TS|rsf:rlx-|-stype:attr=1|qr_nm:splt-rlx-gd|res:RC5|com-cf:nl|ptrs:na|ktp:N0|mc:9910|mtp:S|qry_typ:P|lang:en|wc:2|flavl:0|cs:10434|v=4,Beliefly,https://www.indiamart.com/beliefly/?pos=27&kwd=maternity blouses&tags=||||8230.883|Price|product|||TS|rsf:rlx-|-stype:attr=1|qr_nm:splt-rlx-gd|res:RC5|com-cf:nl|ptrs:na|ktp:N0|mc:9910|mtp:S|qry_typ:P|lang:en|wc:2|flavl:0|cs:10434|v=4,False,Udhna,Surat,"20, Sudama Park, Opp. Sardar Nagar Kosad, Amroli, Udhna, Surat - 394107, Dist.Surat, Gujarat",7942838612,
Lycra Stretchable Blouse,https://www.indiamart.com/proddetail/lycra-stretchable-blouse-2853495181791.html?pos=28&kwd=maternity blouses&tags=||||8230.883|Price|product|||TS|rsf:rlx-|-stype:attr=1|qr_nm:splt-rlx-gd|res:RC5|com-cf:nl|ptrs:na|ktp:N0|mc:9910|mtp:S|qry_typ:P|lang:en|wc:2|flavl:0|cs:10434|v=4,Shreeji Enterprise,https://www.indiamart.com/shreejienterprise-gujarat-india/?pos=28&kwd=maternity blouses&tags=||||8230.883|Price|product|||TS|rsf:rlx-|-stype:attr=1|qr_nm:splt-rlx-gd|res:RC5|com-cf:nl|ptrs:na|ktp:N0|mc:9910|mtp:S|qry_typ:P|lang:en|wc:2|flavl:0|cs:10434|v=4,False,Sachin,Surat,"1st Floor, Shed No. C1/6231, Sachin GIDC, Road No. 62,, Sachin, Surat - 394230, Dist.Surat, Gujarat",7949227818,
Lycra Stretchable Blouse,https://www.indiamart.com/proddetail/stretchable-readymade-blouse-2854716139033.html?pos=29&kwd=maternity blouses&tags=||||8230.883|Price|product|||MDC|rsf:rlx-|-stype:attr=1|qr_nm:splt-rlx-gd|res:RC5|com-cf:nl|ptrs:na|ktp:N0|mc:9910|mtp:S|qry_typ:P|lang:en|wc:2|flavl:0|cs:10434|v=4,Kanha Creation,https://www.indiamart.com/kanha-creationgujarat/?pos=29&kwd=maternity blouses&tags=||||8230.883|Price|product|||MDC|rsf:rlx-|-stype:attr=1|qr_nm:splt-rlx-gd|res:RC5|com-cf:nl|ptrs:na|ktp:N0|mc:9910|mtp:S|qry_typ:P|lang:en|wc:2|flavl:0|cs:10434|v=4,False,Textile Market Area,Surat,"3702-03, Radha Krishna Market, Begumpura,, Textile Market Area, Surat - 395002, Dist.Surat, Gujarat",8044565598,
"Half Sleeve Yellow Cotton Balloon Blouse, Stitched, Size: 38",https://www.indiamart.com/proddetail/yellow-cotton-balloon-blouse-2853707230448.html?pos=30&kwd=maternity blouses&tags=||||8230.883|Price|product|||MDC|rsf:rlx-|-stype:attr=1|qr_nm:splt-rlx-gd|res:RC5|com-cf:nl|ptrs:na|ktp:N0|mc:9910|mtp:S|qry_typ:P|lang:en|wc:2|flavl:0|cs:10434|v=4,Leela Fashion,https://www.indiamart.com/leelafashionsurat/?pos=30&kwd=maternity blouses&tags=||||8230.883|Price|product|||MDC|rsf:rlx-|-stype:attr=1|qr_nm:splt-rlx-gd|res:RC5|com-cf:nl|ptrs:na|ktp:N0|mc:9910|mtp:S|qry_typ:P|lang:en|wc:2|flavl:0|cs:10434|v=4,False,Pandesara,Surat,"Second Floor, Shop No. 31, Anaya Business Centre, Bamroli Althan Expressway, Beside D Mart Pandesara, Pandesara, Surat - 394221, Dist.Surat, Gujarat",7949373770,
Pablo Cotton Blouse,https://www.indiamart.com/proddetail/pablo-cotton-blouse-2852862403862.html?pos=15&kwd=maternity blouses&tags=||||8987.303|Price|product|||TS|rsf:rlx-|-stype:attr=1|qr_nm:splt-rlx-gd|res:RC5|com-cf:nl|ptrs:na|ktp:N0|mc:9910|mtp:S|qry_typ:P|lang:en|wc:2|cs:9671|v=4,Palakurthy Handlooms,https://www.indiamart.com/palakurthyhandlooms/?pos=15&kwd=maternity blouses&tags=||||8987.303|Price|product|||TS|rsf:rlx-|-stype:attr=1|qr_nm:splt-rlx-gd|res:RC5|com-cf:nl|ptrs:na|ktp:N0|mc:9910|mtp:S|qry_typ:P|lang:en|wc:2|cs:9671|v=4,False,Bhattiprolu,Guntur,"16-72, Beside Navata Transport, Tunuguntla Vari Street Bhattiprolu,, Bhattiprolu, Guntur - 522256, Dist.Guntur, Andhra Pradesh",8047852143,
Polyester Designer blouse piece,https://www.indiamart.com/proddetail/designer-blouse-piece-2850294812548.html?pos=16&kwd=maternity blouses&tags=||||8230.883|Price|product|||TS|rsf:rlx-|-stype:attr=1|qr_nm:splt-rlx-gd|res:RC5|com-cf:nl|ptrs:na|ktp:N0|mc:9910|mtp:S|qry_typ:P|lang:en|wc:2|cs:9671|v=4,Jay Dawarkadhish Fashion,https://www.indiamart.com/jay-dawarkadhish-fashion/?pos=16&kwd=maternity blouses&tags=||||8230.883|Price|product|||TS|rsf:rlx-|-stype:attr=1|qr_nm:splt-rlx-gd|res:RC5|com-cf:nl|ptrs:na|ktp:N0|mc:9910|mtp:S|qry_typ:P|lang:en|wc:2|cs:9671|v=4,False,Fulpada,Surat,"145, 1st Floor, Dharamnagar Society, A.K. Road, Fulpada, Fulpada, Surat - 395008, Dist.Surat, Gujarat",8047650312,
Sleeveless mirror work blouse,https://www.indiamart.com/proddetail/sleeveless-mirror-work-blouse-2854142307048.html?pos=17&kwd=maternity blouses&tags=||||8230.883|Price|product|||MDC|rsf:rlx-|-stype:attr=1|qr_nm:splt-rlx-gd|res:RC5|com-cf:nl|ptrs:na|ktp:N0|mc:9910|mtp:S|qry_typ:P|lang:en|wc:2|cs:9671|v=4,Mangalam Fashions,https://www.indiamart.com/mangalamfashionssurat/?pos=17&kwd=maternity blouses&tags=||||8230.883|Price|product|||MDC|rsf:rlx-|-stype:attr=1|qr_nm:splt-rlx-gd|res:RC5|com-cf:nl|ptrs:na|ktp:N0|mc:9910|mtp:S|qry_typ:P|lang:en|wc:2|cs:9671|v=4,False,Udhna,Surat,"First And Second Floor, Plot No. E/15, City Industrial Estate, Surat Navsari Road, Udhna,, Udhna, Surat - 394210, Dist.Surat, Gujarat",8044565086,
Cotton Golden Readymade Blouse For Women,https://www.indiamart.com/proddetail/readymade-blouse-for-women-2853865166033.html?pos=18&kwd=maternity blouses&tags=||||8230.883|Price|product|||TS|rsf:rlx-|-stype:attr=1|qr_nm:splt-rlx-gd|res:RC5|com-cf:nl|ptrs:na|ktp:N0|mc:9910|mtp:S|qry_typ:P|lang:en|wc:2|cs:9671|v=4,Sahaj Fab Tex,https://www.indiamart.com/sahaj-fab-tex/?pos=18&kwd=maternity blouses&tags=||||8230.883|Price|product|||TS|rsf:rlx-|-stype:attr=1|qr_nm:splt-rlx-gd|res:RC5|com-cf:nl|ptrs:na|ktp:N0|mc:9910|mtp:S|qry_typ:P|lang:en|wc:2|cs:9671|v=4,False,Textile Market Area,Surat,"Shop No. 4036-4043, Salasar Textile Market, Near DMD LP ,Saroli, Textile Market Area, Surat - 395002, Dist.Surat, Gujarat",8047650785,
"White Cut Sleeves Embroidered Cotton Blouses, Stitched, Size: 36",https://www.indiamart.com/proddetail/cut-sleeves-embroidered-cotton-blouses-2854617958697.html?pos=19&kwd=maternity blouses&tags=||||8230.883|Price|product|||MDC|rsf:rlx-|-stype:attr=1|qr_nm:splt-rlx-gd|res:RC5|com-cf:nl|ptrs:na|ktp:N0|mc:9910|mtp:S|qry_typ:P|lang:en|wc:2|cs:9671|v=4,Anu Shopping,https://www.indiamart.com/anushopping/?pos=19&kwd=maternity blouses&tags=||||8230.883|Price|product|||MDC|rsf:rlx-|-stype:attr=1|qr_nm:splt-rlx-gd|res:RC5|com-cf:nl|ptrs:na|ktp:N0|mc:9910|mtp:S|qry_typ:P|lang:en|wc:2|cs:9671|v=4,False,,Surat,"3rd Floor, C/303, Suman Siddhi Awas, Dhumbhal, Nr Gokuldham Appartment, Jain Nagar, Surat - 395010, Dist.Surat, Gujarat",8047684532,
"South Cotton Ajrakh Patch Blouse, Stitched",https://www.indiamart.com/proddetail/south-cotton-ajrakh-patch-blouse-2854327931655.html?pos=20&kwd=maternity blouses&tags=||||9839.57|Price|product|||MDC|rsf:rlx-|-stype:attr=1|qr_nm:splt-rlx-gd|res:RC5|com-cf:nl|ptrs:na|ktp:N0|mc:9910|mtp:S|qry_typ:P|lang:en|wc:2|cs:9671|v=4,Krishnachura Handloom,https://www.indiamart.com/krishnachurahandloom-india/?pos=20&kwd=maternity blouses&tags=||||9839.57|Price|product|||MDC|rsf:rlx-|-stype:attr=1|qr_nm:splt-rlx-gd|res:RC5|com-cf:nl|ptrs:na|ktp:N0|mc:9910|mtp:S|qry_typ:P|lang:en|wc:2|cs:9671|v=4,False,North Twenty Four Parganas,Kolkata,"2nd Floor, Flat No B-1, 15/2, New Road, Baguiati AC Market, Baguiati, North Twenty Four Parganas, Kolkata - 700059, Dist.Kolkata, West Bengal",7949331112,
Lycra 3d Foil Embossing Print,https://www.indiamart.com/proddetail/3d-foil-embossing-print-2854551153955.html?pos=21&kwd=maternity blouses&tags=||||8230.883|Price|product|||TS|rsf:rlx-|-stype:attr=1|qr_nm:splt-rlx-gd|res:RC5|com-cf:nl|ptrs:na|ktp:N0|mc:9910|mtp:S|qry_typ:P|lang:en|wc:2|cs:9671|v=4,Vee Cee Creations,https://www.indiamart.com/vee-cee-creations/?pos=21&kwd=maternity blouses&tags=||||8230.883|Price|product|||TS|rsf:rlx-|-stype:attr=1|qr_nm:splt-rlx-gd|res:RC5|com-cf:nl|ptrs:na|ktp:N0|mc:9910|mtp:S|qry_typ:P|lang:en|wc:2|cs:9671|v=4,False,Magob,Surat,"554, Ashirwad Textile Market, Puna Kumbhariya Road, Opp. Landmark Textile Market, Magob, Magob, Surat - 395010, Dist.Surat, Gujarat",7942966674,
Traditional Chaniya Choli,https://www.indiamart.com/proddetail/traditional-chaniya-choli-2854739030548.html?pos=22&kwd=maternity blouses&tags=||||8230.883|Price|product|||TS|rsf:rlx-|-stype:attr=1|qr_nm:splt-rlx-gd|res:RC5|com-cf:nl|ptrs:na|ktp:N0|mc:9910|mtp:S|qry_typ:P|lang:en|wc:2|cs:9671|v=4,Zara Creation,https://www.indiamart.com/zara-creation-suratgujarat/?pos=22&kwd=maternity blouses&tags=||||8230.883|Price|product|||TS|rsf:rlx-|-stype:attr=1|qr_nm:splt-rlx-gd|res:RC5|com-cf:nl|ptrs:na|ktp:N0|mc:9910|mtp:S|qry_typ:P|lang:en|wc:2|cs:9671|v=4,False,,Surat,"Plot No.1,First Floor,Satya Saikrupa Ind.Estate,A.K.Road,Surat, Surat - 395008, Dist.Surat, Gujarat",7949326779,
Printed Exclusive Designer Stretchable Blouse,https://www.indiamart.com/proddetail/exclusive-designer-stretchable-blouse-20713096633.html?pos=23&kwd=maternity blouses&tags=||||8230.883|Price|product|||TS|rsf:rlx-|-stype:attr=1|qr_nm:splt-rlx-gd|res:RC5|com-cf:nl|ptrs:na|ktp:N0|mc:9910|mtp:S|qry_typ:P|lang:en|wc:2|cs:9671|v=4,Himalay Creation,https://www.indiamart.com/himalaycreation/?pos=23&kwd=maternity blouses&tags=||||8230.883|Price|product|||TS|rsf:rlx-|-stype:attr=1|qr_nm:splt-rlx-gd|res:RC5|com-cf:nl|ptrs:na|ktp:N0|mc:9910|mtp:S|qry_typ:P|lang:en|wc:2|cs:9671|v=4,False,Udhana,Surat,"Shop No. 2082, Upper Ground, New Pashupati Market Ring Road, Udhana, Surat - 395002, Dist.Surat, Gujarat",8048964415,
"Rani Zari Silk Blouse, Size: 38",https://www.indiamart.com/proddetail/silk-blouse-2852107664662.html?pos=24&kwd=maternity blouses&tags=||||8230.883|Price|product|||TS|rsf:rlx-|-stype:attr=1|qr_nm:splt-rlx-gd|res:RC5|com-cf:nl|ptrs:na|ktp:N0|mc:9910|mtp:S|qry_typ:P|lang:en|wc:2|cs:9671|v=4,Parhash Designer (A Brand of Anupama Textiles),https://www.indiamart.com/anupama-textiles-surat/?pos=24&kwd=maternity blouses&tags=||||8230.883|Price|product|||TS|rsf:rlx-|-stype:attr=1|qr_nm:splt-rlx-gd|res:RC5|com-cf:nl|ptrs:na|ktp:N0|mc:9910|mtp:S|qry_typ:P|lang:en|wc:2|cs:9671|v=4,False,Sanjay Nagar,Surat,"E-1-201, Abhishek Residency-3, Sudama Chowk, Sanjay Nagar, Surat - 394105, Dist.Surat, Gujarat",7942784865,
10 Days Medium Level Ladies Designer Blouse Stitched,https://www.indiamart.com/proddetail/ladies-designer-blouse-stitched-24331632455.html?pos=25&kwd=maternity blouses&tags=||||9636.477|Price|product|||TS|rsf:rlx-|-stype:attr=1|qr_nm:splt-rlx-gd|res:RC5|com-cf:nl|ptrs:na|ktp:N0|mc:9910|mtp:S|qry_typ:P|lang:en|wc:2|cs:9671|v=4,Maa Tara Enterprises,https://www.indiamart.com/maataraenterprises-puruliya/?pos=25&kwd=maternity blouses&tags=||||9636.477|Price|product|||TS|rsf:rlx-|-stype:attr=1|qr_nm:splt-rlx-gd|res:RC5|com-cf:nl|ptrs:na|ktp:N0|mc:9910|mtp:S|qry_typ:P|lang:en|wc:2|cs:9671|v=4,False,Dulmi,Puruliya,"Dulmi Down, Chaibasa Road, Dulmi Down Hari Mandir, Po- Dulmi Nadiha, Dulmi, Puruliya - 723102, Dist.Purulia, West Bengal",8048988971,
Georgette and Chiffon Ladies Designer Suits,https://www.indiamart.com/proddetail/ladies-designer-suits-7682597062.html?pos=26&kwd=maternity blouses&tags=||||8661.854|Price|product|||TS|rsf:rlx-|-stype:attr=1|qr_nm:splt-rlx-gd|res:RC5|com-cf:nl|ptrs:na|ktp:N0|mc:9910|mtp:S|qry_typ:P|lang:en|wc:2|cs:9671|v=4,Swasika Group ( A unit of Swastika Steel Industries),https://www.indiamart.com/swastikagroup/?pos=26&kwd=maternity blouses&tags=||||8661.854|Price|product|||TS|rsf:rlx-|-stype:attr=1|qr_nm:splt-rlx-gd|res:RC5|com-cf:nl|ptrs:na|ktp:N0|mc:9910|mtp:S|qry_typ:P|lang:en|wc:2|cs:9671|v=4,True,Gill,Ludhiana,"Ahata Nand Puri, Adjoining HDFC Bank, Gill Road, Gill, Ludhiana - 141003, Dist.Ludhiana, Punjab",8046044380,
"Weaving RICHA FASHION WORLD SOFT SILK SAREE, 6.3 m (with blouse piece)",https://www.indiamart.com/proddetail/richa-fashion-world-soft-silk-saree-2853282427048.html?pos=27&kwd=maternity blouses&tags=||||8230.883|Price|product|||TS|rsf:rlx-|-stype:attr=1|qr_nm:splt-rlx-gd|res:RC5|com-cf:nl|ptrs:na|ktp:N0|mc:9910|mtp:S|qry_typ:P|lang:en|wc:2|cs:9671|v=4,Baba Ramdev Textiles,https://www.indiamart.com/baba-ramdev-textile/?pos=27&kwd=maternity blouses&tags=||||8230.883|Price|product|||TS|rsf:rlx-|-stype:attr=1|qr_nm:splt-rlx-gd|res:RC5|com-cf:nl|ptrs:na|ktp:N0|mc:9910|mtp:S|qry_typ:P|lang:en|wc:2|cs:9671|v=4,True,Dindoli,Surat,"D-23 OPP.BRC COLONY,BHEDWAD MARUTI IND.ESTATE, Dindoli, Surat - 394210, Dist.Surat, Gujarat",8047644220,
Lycra STRETCHABLE BLOUSE,https://www.indiamart.com/proddetail/stretchable-blouse-2854236442388.html?pos=28&kwd=maternity blouses&tags=||||8230.883|Price|product|||TS|rsf:rlx-|-stype:attr=1|qr_nm:splt-rlx-gd|res:RC5|com-cf:nl|ptrs:na|ktp:N0|mc:9910|mtp:S|qry_typ:P|lang:en|wc:2|cs:9671|v=4,Krishnvatika,https://www.krishnvatika.com/?pos=28&kwd=maternity blouses&tags=||||8230.883|Price|product|||TS|rsf:rlx-|-stype:attr=1|qr_nm:splt-rlx-gd|res:RC5|com-cf:nl|ptrs:na|ktp:N0|mc:9910|mtp:S|qry_typ:P|lang:en|wc:2|cs:9671|v=4,False,Khatodara,Surat,"27/B, Shop No. 8039-40, Millennium Textile Market - 4, NR. Bhatena Khadi Bridge, Bhatena, Udhna, Khatodara, Surat - 395002, Dist.Surat, Gujarat",8043862991,
Designer Blouse,https://www.indiamart.com/proddetail/designer-blouse-2850804651497.html?pos=29&kwd=maternity blouses&tags=||||8230.883||product|||TS|rsf:rlx-|-stype:attr=1|qr_nm:splt-rlx-gd|res:RC5|com-cf:nl|ptrs:na|ktp:N0|mc:9910|mtp:S|qry_typ:P|lang:en|wc:2|cs:9671|v=4,Rajlaxmi Fashion,https://www.indiamart.com/rajlaxmi-fashion-gujarat/?pos=29&kwd=maternity blouses&tags=||||8230.883||product|||TS|rsf:rlx-|-stype:attr=1|qr_nm:splt-rlx-gd|res:RC5|com-cf:nl|ptrs:na|ktp:N0|mc:9910|mtp:S|qry_typ:P|lang:en|wc:2|cs:9671|v=4,False,Athwa,Surat,"Shop No 5049-5049A, 5Th Floor, Avadh Textile Market, Ring Road, Surat, Athwa, Surat - 395002, Dist.Surat, Gujarat",8048210461,
Silk EMBROIDERED WORK UNSTICHED BLOUSE,https://www.indiamart.com/proddetail/embroidered-work-unstiched-blouse-2852599732255.html?pos=30&kwd=maternity blouses&tags=||||8230.883|Price|product|||TS|rsf:rlx-|-stype:attr=1|qr_nm:splt-rlx-gd|res:RC5|com-cf:nl|ptrs:na|ktp:N0|mc:9910|mtp:S|qry_typ:P|lang:en|wc:2|cs:9671|v=4,R V Sarees,https://www.embroideredfabrics.in/?pos=30&kwd=maternity blouses&tags=||||8230.883|Price|product|||TS|rsf:rlx-|-stype:attr=1|qr_nm:splt-rlx-gd|res:RC5|com-cf:nl|ptrs:na|ktp:N0|mc:9910|mtp:S|qry_typ:P|lang:en|wc:2|cs:9671|v=4,False,Navsari Bazar Area,Surat,"Shop No 1035, 2nd Floor, Universal Textile Market, Ring Road, Navsari Bazar Area, Surat - 395001, Dist.Surat, Gujarat",8047548749,
Blue Hand Work Banarasi Silk Blouse,https://www.indiamart.com/proddetail/banarasi-silk-blouse-2850232929373.html?pos=31&kwd=maternity blouses&tags=||||8230.883|Price|product|||TS|rsf:rlx-|-stype:attr=1|qr_nm:splt-rlx-gd|res:RC5|com-cf:nl|ptrs:na|ktp:N0|mc:9910|mtp:S|qry_typ:P|lang:en|wc:2|cs:9671|v=4,Trendy Factory,https://www.indiamart.com/trendy-factory/?pos=31&kwd=maternity blouses&tags=||||8230.883|Price|product|||TS|rsf:rlx-|-stype:attr=1|qr_nm:splt-rlx-gd|res:RC5|com-cf:nl|ptrs:na|ktp:N0|mc:9910|mtp:S|qry_typ:P|lang:en|wc:2|cs:9671|v=4,False,Sanjay Nagar,Surat,"Shop No-530/A, 1ST Floor, Avadh Textile Market,Wing-C,OPP New Bombay Market, Umarwada, Sanjay Nagar, Surat - 395010, Dist.Surat, Gujarat",7942799480,
Arvind Tip Top Blouse,https://www.indiamart.com/proddetail/arvind-tip-top-blouse-2853462616791.html?pos=32&kwd=maternity blouses&tags=||||8706.587|Price|product|||TS|rsf:rlx-|-stype:attr=1|qr_nm:splt-rlx-gd|res:RC5|com-cf:nl|ptrs:na|ktp:N0|mc:9910|mtp:S|qry_typ:P|lang:en|wc:2|cs:9671|v=4,E. A. V. Rengachary & Sons,https://www.indiamart.com/eav/?pos=32&kwd=maternity blouses&tags=||||8706.587|Price|product|||TS|rsf:rlx-|-stype:attr=1|qr_nm:splt-rlx-gd|res:RC5|com-cf:nl|ptrs:na|ktp:N0|mc:9910|mtp:S|qry_typ:P|lang:en|wc:2|cs:9671|v=4,False,Madurai Palace,Madurai,"No. 14, Juttu Eswaran Lane, Mahal Vadampokki Street, Madurai Palace, Madurai - 625001, Dist.Madurai, Tamil Nadu",8046048275,
"17 Colors Plain Cotton dobby freel blouse, Size: XL,2XL",https://www.indiamart.com/proddetail/cotton-dobby-freel-blouse-2850638949373.html?pos=33&kwd=maternity blouses&tags=||||8230.883|Price|product|||TS|rsf:rlx-|-stype:attr=1|qr_nm:splt-rlx-gd|res:RC5|com-cf:nl|ptrs:na|ktp:N0|mc:9910|mtp:S|qry_typ:P|lang:en|wc:2|cs:9671|v=4,S R Health And Hygiene,https://www.sanadoleggings.com/?pos=33&kwd=maternity blouses&tags=||||8230.883|Price|product|||TS|rsf:rlx-|-stype:attr=1|qr_nm:splt-rlx-gd|res:RC5|com-cf:nl|ptrs:na|ktp:N0|mc:9910|mtp:S|qry_typ:P|lang:en|wc:2|cs:9671|v=4,False,Udhana,Surat,"A/65, Shri Sai Krupa Ind. Soc, Udhna, Udhana, Surat - 394210, Dist.Surat, Gujarat",7942558690,
Silk Fancy Zari blouse,https://www.indiamart.com/proddetail/fancy-zari-blouse-27000547812.html?pos=34&kwd=maternity blouses&tags=||||8230.883|Price|product|||TS|rsf:rlx-|-stype:attr=1|qr_nm:splt-rlx-gd|res:RC5|com-cf:nl|ptrs:na|ktp:N0|mc:9910|mtp:S|qry_typ:P|lang:en|wc:2|cs:9671|v=4,Rohini Creation,https://www.indiamart.com/rohinicreation/?pos=34&kwd=maternity blouses&tags=||||8230.883|Price|product|||TS|rsf:rlx-|-stype:attr=1|qr_nm:splt-rlx-gd|res:RC5|com-cf:nl|ptrs:na|ktp:N0|mc:9910|mtp:S|qry_typ:P|lang:en|wc:2|cs:9671|v=4,False,Garib Niwas Nagar,Surat,"22, Bhagyoday Ind Soc, Opp. Intercity Township, Magob, Garib Niwas Nagar, Surat - 394210, Dist.Surat, Gujarat",8048971403,
Black Printed Saree Blouse Piece,https://www.indiamart.com/proddetail/saree-blouse-piece-23955473273.html?pos=35&kwd=maternity blouses&tags=||||8342.223|Price|product|||TS|rsf:rlx-|-stype:attr=1|qr_nm:splt-rlx-gd|res:RC5|com-cf:nl|ptrs:na|ktp:N0|mc:9910|mtp:S|qry_typ:P|lang:en|wc:2|cs:9671|v=4,Shree Shyam Industries,https://www.indiamart.com/shreeshyam-industries-rajasthan/?pos=35&kwd=maternity blouses&tags=||||8342.223|Price|product|||TS|rsf:rlx-|-stype:attr=1|qr_nm:splt-rlx-gd|res:RC5|com-cf:nl|ptrs:na|ktp:N0|mc:9910|mtp:S|qry_typ:P|lang:en|wc:2|cs:9671|v=4,False,Naya Gaon,Pali,"705-706, Santosh Nagar, Petrol Pump Ke Samne, Pali-Marwar, Naya Gaon, Pali - 306401, Rajasthan",8048607291,
Dobby Balloon Sleeves Blouse,https://www.indiamart.com/proddetail/stretchable-readymade-blouse-2853437431891.html?pos=36&kwd=maternity blouses&tags=||||8230.883|Price|product|||TS|rsf:rlx-|-stype:attr=1|qr_nm:splt-rlx-gd|res:RC5|com-cf:nl|ptrs:na|ktp:N0|mc:9910|mtp:S|qry_typ:P|lang:en|wc:2|cs:9671|v=4,Kavya Trading,https://www.indiamart.com/kavya-trading-india/?pos=36&kwd=maternity blouses&tags=||||8230.883|Price|product|||TS|rsf:rlx-|-stype:attr=1|qr_nm:splt-rlx-gd|res:RC5|com-cf:nl|ptrs:na|ktp:N0|mc:9910|mtp:S|qry_typ:P|lang:en|wc:2|cs:9671|v=4,False,Salabatpura,Surat,"Ajay Mohan Lal Valia, Shop No1, 280 Green Park, Parab Road, Haldharu, Salabatpura, Surat - 394310, Dist.Surat, Gujarat",8043880338,
"Fantam Silk Rani Wedding Blouse Readymade Designer, Size: 38",https://www.indiamart.com/proddetail/wedding-blouse-readymade-designer-22598436862.html?pos=37&kwd=maternity blouses&tags=||||8230.883|Price|product|||TS|rsf:rlx-|-stype:attr=1|qr_nm:splt-rlx-gd|res:RC5|com-cf:nl|ptrs:na|ktp:N0|mc:9910|mtp:S|qry_typ:P|lang:en|wc:2|cs:9671|v=4,Shipra Tex,https://www.indiamart.com/shipra-tex/?pos=37&kwd=maternity blouses&tags=||||8230.883|Price|product|||TS|rsf:rlx-|-stype:attr=1|qr_nm:splt-rlx-gd|res:RC5|com-cf:nl|ptrs:na|ktp:N0|mc:9910|mtp:S|qry_typ:P|lang:en|wc:2|cs:9671|v=4,False,Umarwada,Surat,"A-5,804, MODEL TOWN REGENCY, NEAR PATIDAR BHAVAN, SAROLI, Umarwada, Surat - 395010, Dist.Surat, Gujarat",7942541750,
"Stretchable Blouse, Velvet",https://www.indiamart.com/proddetail/stretchable-blouse-2850448966233.html?pos=38&kwd=maternity blouses&tags=||||8592.183|Price|product|||TS|rsf:rlx-|-stype:attr=1|qr_nm:splt-rlx-gd|res:RC5|com-cf:nl|ptrs:na|ktp:N0|mc:9910|mtp:S|qry_typ:P|lang:en|wc:2|cs:9671|v=4,Adornments By Ayika,https://www.indiamart.com/adormentsbyayika/?pos=38&kwd=maternity blouses&tags=||||8592.183|Price|product|||TS|rsf:rlx-|-stype:attr=1|qr_nm:splt-rlx-gd|res:RC5|com-cf:nl|ptrs:na|ktp:N0|mc:9910|mtp:S|qry_typ:P|lang:en|wc:2|cs:9671|v=4,False,Deoli Bazar,Tonk,"Mayuri Saree Center,Deoli, Deoli Bazar, Tonk - 304804, Dist.Tonk, Rajasthan",7942816306,
"Lycra Designer Saree Blouse, Size: multy colour",https://www.indiamart.com/proddetail/designer-saree-blouse-2853142668188.html?pos=39&kwd=maternity blouses&tags=||||8230.883|Price|product|||TS|rsf:rlx-|-stype:attr=1|qr_nm:splt-rlx-gd|res:RC5|com-cf:nl|ptrs:na|ktp:N0|mc:9910|mtp:S|qry_typ:P|lang:en|wc:2|cs:9671|v=4,Jay Shiv Shankar Textiles,https://www.shivshankartextiles.com/?pos=39&kwd=maternity blouses&tags=||||8230.883|Price|product|||TS|rsf:rlx-|-stype:attr=1|qr_nm:splt-rlx-gd|res:RC5|com-cf:nl|ptrs:na|ktp:N0|mc:9910|mtp:S|qry_typ:P|lang:en|wc:2|cs:9671|v=4,False,Textile Market Area,Surat,"201 Shiv Textile Market, Near Abhishek Market, Ring road, Textile Market Area, Surat - 395002, Dist.Surat, Gujarat",8047635471,
Silk Golden Zari Blouse Piece,https://www.indiamart.com/proddetail/golden-zari-blouse-piece-2854221990988.html?pos=40&kwd=maternity blouses&tags=||||8230.883|Price|product|||TS|rsf:rlx-|-stype:attr=1|qr_nm:splt-rlx-gd|res:RC5|com-cf:nl|ptrs:na|ktp:N0|mc:9910|mtp:S|qry_typ:P|lang:en|wc:2|cs:9671|v=4,Uma Khodal Fashion,https://www.umakhodalfashion.com/?pos=40&kwd=maternity blouses&tags=||||8230.883|Price|product|||TS|rsf:rlx-|-stype:attr=1|qr_nm:splt-rlx-gd|res:RC5|com-cf:nl|ptrs:na|ktp:N0|mc:9910|mtp:S|qry_typ:P|lang:en|wc:2|cs:9671|v=4,False,Saniya Hemad,Surat,"Plot No 51, Shubham Indutries Part-1, Puna Kumbhariya Road, Saniya Hemad, Surat - 395013, Dist.Surat, Gujarat",7942832973,
Polyester Women Surplus Branded Floral Print Blouse,https://www.indiamart.com/proddetail/surplus-branded-floral-print-blouse-23048458291.html?pos=41&kwd=maternity blouses&tags=||||8752.144|Price|product|||TS|rsf:rlx-|-stype:attr=1|qr_nm:splt-rlx-gd|res:RC5|com-cf:nl|ptrs:na|ktp:N0|mc:9910|mtp:S|qry_typ:P|lang:en|wc:2|cs:9671|v=4,Neo Fashion's,https://www.neofashions.co.in/?pos=41&kwd=maternity blouses&tags=||||8752.144|Price|product|||TS|rsf:rlx-|-stype:attr=1|qr_nm:splt-rlx-gd|res:RC5|com-cf:nl|ptrs:na|ktp:N0|mc:9910|mtp:S|qry_typ:P|lang:en|wc:2|cs:9671|v=4,True,Laxmi Nagar,New Delhi,"R-6A, Ramesh Park, Street No. 1 Laxmi Nagar, Laxmi Nagar, New Delhi - 110092, Dist.Delhi, Delhi",8048951652,
Stretchable Lycra Blouse,https://www.indiamart.com/proddetail/stretchable-lycra-blouse-2854517747348.html?pos=42&kwd=maternity blouses&tags=||||8230.883|Price|product|||MDC|rsf:rlx-|-stype:attr=1|qr_nm:splt-rlx-gd|res:RC5|com-cf:nl|ptrs:na|ktp:N0|mc:9910|mtp:S|qry_typ:P|lang:en|wc:2|cs:9671|v=4,Sanvi Vogue,https://www.indiamart.com/sanvi-vogue/?pos=42&kwd=maternity blouses&tags=||||8230.883|Price|product|||MDC|rsf:rlx-|-stype:attr=1|qr_nm:splt-rlx-gd|res:RC5|com-cf:nl|ptrs:na|ktp:N0|mc:9910|mtp:S|qry_typ:P|lang:en|wc:2|cs:9671|v=4,False,,Surat,"Plot No- 33, Dharam Nagar Industrial Society, NR Mahalaxmi Ind., Bamroli Road, Surat - 394210, Dist.Surat, Gujarat",7949328924,
