product_title,product_link,company_name,company_link,is_verified_exporter,city_region,city,address_details,phone_number,phone_number_extension
Abdominal belt maternity belt before delivery,https://www.indiamart.com/proddetail/abdominal-belt-maternity-belt-before-delivery-2853282025062.html?pos=1&kwd=maternity belts&tags=A||||9110.092|Price|product|||MDC|rsf:gd-|-stype:attr=1|qr_nm:gd|res:RC3|com-cf:nl|ptrs:na|ktp:N0|mc:9909|mtp:S|qry_typ:P|lang:en|wc:2|flavl:0|cs:9557|v=4,Midlife Healthcare,https://www.indiamart.com/midlifehealthcare/?pos=1&kwd=maternity belts&tags=A||||9110.092|Price|product|||MDC|rsf:gd-|-stype:attr=1|qr_nm:gd|res:RC3|com-cf:nl|ptrs:na|ktp:N0|mc:9909|mtp:S|qry_typ:P|lang:en|wc:2|flavl:0|cs:9557|v=4,False,Alambagh,Lucknow,"554 G/204 Damodar Nagar, Alambagh, Lucknow - 226005, Dist.Lucknow, Uttar Pradesh",7942717579,
Prasuti Belted Maternity Pad,https://www.indiamart.com/proddetail/prasuti-belted-maternity-pad-2853184322262.html?pos=2&kwd=maternity belts&tags=BB||||8307.81|Price|product|||TS|rsf:gd-|-stype:attr=1|qr_nm:gd|res:RC3|com-cf:nl|ptrs:na|ktp:N0|mc:9909|mtp:S|qry_typ:P|lang:en|wc:2|flavl:0|cs:9557|v=4,SMILEPAD HYGIENE INDIA PVT. LTD.,https://www.indiamart.com/smilepadhygiene/?pos=2&kwd=maternity belts&tags=BB||||8307.81|Price|product|||TS|rsf:gd-|-stype:attr=1|qr_nm:gd|res:RC3|com-cf:nl|ptrs:na|ktp:N0|mc:9909|mtp:S|qry_typ:P|lang:en|wc:2|flavl:0|cs:9557|v=4,False,Mohammed Wadi,Pune,"SR.NO.284/01 Bhadale Nagar Uruli Devachi, Mohammed Wadi, Pune - 411060, Dist.Pune, Maharashtra",8048601512,
Flexible cotton Costco Abdominal Belt Support Ortho Rehablitation,https://www.indiamart.com/proddetail/costco-abdominal-belt-support-ortho-rehablitation-2854130955312.html?pos=3&kwd=maternity belts&tags=BB||||8817.752|Price|product|||MDC|rsf:gd-|-stype:attr=1|qr_nm:gd|res:RC3|com-cf:nl|ptrs:na|ktp:N0|mc:9909|mtp:S|qry_typ:P|lang:en|wc:2|flavl:0|cs:9557|v=4,Costco Industries,https://www.indiamart.com/goel-pharma/?pos=3&kwd=maternity belts&tags=BB||||8817.752|Price|product|||MDC|rsf:gd-|-stype:attr=1|qr_nm:gd|res:RC3|com-cf:nl|ptrs:na|ktp:N0|mc:9909|mtp:S|qry_typ:P|lang:en|wc:2|flavl:0|cs:9557|v=4,False,,Hapur,"Ground Floor, Shop No. 11, Shri Ram Plaza, Delhi Garh Road,, Hapur - 245101, Dist.Hapur, Uttar Pradesh",8043867751,
Pregnancy Belt With Back Support,https://www.indiamart.com/proddetail/pregnancy-belt-with-back-support-8854235912.html?pos=4&kwd=maternity belts&tags=BA||||8786.56|Price|product|||TS|rsf:gd-|-stype:attr=1|qr_nm:gd|res:RC3|com-cf:nl|ptrs:na|ktp:N0|mc:9909|mtp:S|qry_typ:P|lang:en|wc:2|flavl:0|cs:9557|v=4,Marvel Medi Revolutions,https://www.indiamart.com/marvelmedirevolutions/?pos=4&kwd=maternity belts&tags=BA||||8786.56|Price|product|||TS|rsf:gd-|-stype:attr=1|qr_nm:gd|res:RC3|com-cf:nl|ptrs:na|ktp:N0|mc:9909|mtp:S|qry_typ:P|lang:en|wc:2|flavl:0|cs:9557|v=4,False,Kukatpally,Hyderabad,"Plot No. 5-33/24/6, 2nd Floor, Prasahanti Nagar, I.E. Kukatpally, Kukatpally, Hyderabad - 500072, Dist.Hyderabad, Telangana",8048960339,
Pregnancy Support Maternity Belt Belly Bump Girdle Adjustable Band Brace,https://www.indiamart.com/proddetail/pregnancy-support-maternity-belt-belly-bump-girdle-adjustable-band-brace-2850333649391.html?pos=5&kwd=maternity belts&tags=A||||9110.092|Price|product|||TS|rsf:gd-|-stype:attr=1|qr_nm:gd|res:RC3|com-cf:nl|ptrs:na|ktp:N0|mc:9909|mtp:S|qry_typ:P|lang:en|wc:2|flavl:0|cs:9557|v=4,Trendy Store,https://www.indiamart.com/trendy-store-lucknow/?pos=5&kwd=maternity belts&tags=A||||9110.092|Price|product|||TS|rsf:gd-|-stype:attr=1|qr_nm:gd|res:RC3|com-cf:nl|ptrs:na|ktp:N0|mc:9909|mtp:S|qry_typ:P|lang:en|wc:2|flavl:0|cs:9557|v=4,False,Rajajipuram,Lucknow,"C-5600,Rajajipuram, Rajajipuram, Lucknow - 226017, Dist.Lucknow, Uttar Pradesh",7942558697,
"Orthopedic Rehabilitation Belt pregnancy belt, For Personal",https://www.indiamart.com/proddetail/orthopedic-rehabilitation-belt-pregnancy-belt-2854438147055.html?pos=6&kwd=maternity belts&tags=A||||9110.092|Price|product|||TS|rsf:gd-|-stype:attr=1|qr_nm:gd|res:RC3|com-cf:nl|ptrs:na|ktp:N0|mc:9909|mtp:S|qry_typ:P|lang:en|wc:2|flavl:0|cs:9557|v=4,S.N Enterprises,https://www.indiamart.com/sn-enterpriseslucknow/?pos=6&kwd=maternity belts&tags=A||||9110.092|Price|product|||TS|rsf:gd-|-stype:attr=1|qr_nm:gd|res:RC3|com-cf:nl|ptrs:na|ktp:N0|mc:9909|mtp:S|qry_typ:P|lang:en|wc:2|flavl:0|cs:9557|v=4,False,Buddheshwar,Lucknow,"374/14,015, Purani Ghiyai, Saadat Ganj, Buddheshwar, Lucknow - 226003, Dist.Lucknow, Uttar Pradesh",7942866412,
Orthowrap OW230 Neoprene Maternity Belts,https://www.indiamart.com/proddetail/orthowrap-ow230-neoprene-maternity-belts-2854204491112.html?pos=7&kwd=maternity belts&tags=A||||9110.092|Price|product|||TS|rsf:gd-|-stype:attr=1|qr_nm:gd|res:RC3|com-cf:nl|ptrs:na|ktp:N0|mc:9909|mtp:S|qry_typ:P|lang:en|wc:2|flavl:0|cs:9557|v=4,M K Manufacture & Supplier,https://www.indiamart.com/mkmanufacture-supplier/?pos=7&kwd=maternity belts&tags=A||||9110.092|Price|product|||TS|rsf:gd-|-stype:attr=1|qr_nm:gd|res:RC3|com-cf:nl|ptrs:na|ktp:N0|mc:9909|mtp:S|qry_typ:P|lang:en|wc:2|flavl:0|cs:9557|v=4,False,Vrindavan vihar colony,Lucknow,"656/5/1727a, Mohammadpur Khatri, Bahadurpur, Near Back Side Of Electric House, Vrindavan Vihar, Vrindavan vihar colony, Lucknow - 226022, Dist.Lucknow, Uttar Pradesh",8045733399,
Flamingo Maternity Belt,https://www.indiamart.com/proddetail/flamingo-maternity-belt-26246468630.html?pos=8&kwd=maternity belts&tags=A||||8752.144|Price|product|||TS|rsf:gd-|-stype:attr=1|qr_nm:gd|res:RC3|com-cf:nl|ptrs:na|ktp:N0|mc:9909|mtp:S|qry_typ:P|lang:en|wc:2|flavl:0|cs:9557|v=4,Garg International,https://www.indiamart.com/garginternational/?pos=8&kwd=maternity belts&tags=A||||8752.144|Price|product|||TS|rsf:gd-|-stype:attr=1|qr_nm:gd|res:RC3|com-cf:nl|ptrs:na|ktp:N0|mc:9909|mtp:S|qry_typ:P|lang:en|wc:2|flavl:0|cs:9557|v=4,True,MOB - 931-3833-111,New Delhi,"Plot No. 448, Patparganj Industrial Area, MOB - 931-3833-111, New Delhi - 110092, Dist.Delhi, Delhi",8046041447,
"Maternity Support Belt, For Personal",https://www.indiamart.com/proddetail/maternity-support-belt-23777961091.html?pos=9&kwd=maternity belts&tags=A||||8663.873||product|||TS|rsf:gd-|-stype:attr=1|qr_nm:gd|res:RC3|com-cf:nl|ptrs:na|ktp:N0|mc:9909|mtp:S|qry_typ:P|lang:en|wc:2|flavl:0|cs:9557|v=4,Medilab India,https://www.indiamart.com/medilab-india/?pos=9&kwd=maternity belts&tags=A||||8663.873||product|||TS|rsf:gd-|-stype:attr=1|qr_nm:gd|res:RC3|com-cf:nl|ptrs:na|ktp:N0|mc:9909|mtp:S|qry_typ:P|lang:en|wc:2|flavl:0|cs:9557|v=4,False,Domlur,Bengaluru,"No 37, Ground Floor,Service Road,, Domlur, Bengaluru - 560071, Dist.Bengaluru, Karnataka",8048983052,
Pregnancy Support,https://www.indiamart.com/proddetail/pregnancy-support-21097610455.html?pos=10&kwd=maternity belts&tags=A||||8785.791|Price|product|||TS|rsf:gd-|-stype:attr=1|qr_nm:gd|res:RC3|com-cf:nl|ptrs:na|ktp:N0|mc:9909|mtp:S|qry_typ:P|lang:en|wc:2|flavl:0|cs:9557|v=4,Pal Surgical And Medical,https://www.psmworld.in/?pos=10&kwd=maternity belts&tags=A||||8785.791|Price|product|||TS|rsf:gd-|-stype:attr=1|qr_nm:gd|res:RC3|com-cf:nl|ptrs:na|ktp:N0|mc:9909|mtp:S|qry_typ:P|lang:en|wc:2|flavl:0|cs:9557|v=4,True,Loni,Ghaziabad,"Near Petrol Pump, ., Pathsala Road Khekra Baghpat, Loni, Loni, Ghaziabad - 201102, Dist.Ghaziabad, Uttar Pradesh",8048989622,
Maternity Belts .,https://www.indiamart.com/proddetail/maternity-belts-22195508330.html?pos=11&kwd=maternity belts&tags=BA||||8752.144|Price|product|||TS|rsf:gd-|-stype:attr=1|qr_nm:gd|res:RC3|com-cf:nl|ptrs:na|ktp:N0|mc:9909|mtp:S|qry_typ:P|lang:en|wc:2|flavl:0|cs:9557|v=4,AG Ortho Care,https://www.indiamart.com/ag-ortho-care/?pos=11&kwd=maternity belts&tags=BA||||8752.144|Price|product|||TS|rsf:gd-|-stype:attr=1|qr_nm:gd|res:RC3|com-cf:nl|ptrs:na|ktp:N0|mc:9909|mtp:S|qry_typ:P|lang:en|wc:2|flavl:0|cs:9557|v=4,False,Sultanpuri,New Delhi,"158, Street No. 5, Friends Enclave, Sultanpuri, New Delhi - 110086, Dist.Delhi, Delhi",8046070891,
"Maternity Belt, For Clinical",https://www.indiamart.com/proddetail/maternity-belt-2853034107288.html?pos=12&kwd=maternity belts&tags=BA||||8813.969|Price|product|||TS|rsf:gd-|-stype:attr=1|qr_nm:gd|res:RC3|com-cf:nl|ptrs:na|ktp:N0|mc:9909|mtp:S|qry_typ:P|lang:en|wc:2|flavl:0|cs:9557|v=4,Divya Enterprises,https://www.indiamart.com/divyaenterprisesmeerut/?pos=12&kwd=maternity belts&tags=BA||||8813.969|Price|product|||TS|rsf:gd-|-stype:attr=1|qr_nm:gd|res:RC3|com-cf:nl|ptrs:na|ktp:N0|mc:9909|mtp:S|qry_typ:P|lang:en|wc:2|flavl:0|cs:9557|v=4,False,,Meerut,"Rohta Road, Rama Kunj, Plot No 5, Meerut - 250002, Dist.Meerut, Uttar Pradesh",7942716192,
"Maternity Support Belt, For Personal",https://www.indiamart.com/proddetail/maternity-support-belt-2853411233855.html?pos=13&kwd=maternity belts&tags=BA||||8752.144|Price|product|||TS|rsf:gd-|-stype:attr=1|qr_nm:gd|res:RC3|com-cf:nl|ptrs:na|ktp:N0|mc:9909|mtp:S|qry_typ:P|lang:en|wc:2|flavl:0|cs:9557|v=4,Knee Solutions,https://www.indiamart.com/kneesolutions/?pos=13&kwd=maternity belts&tags=BA||||8752.144|Price|product|||TS|rsf:gd-|-stype:attr=1|qr_nm:gd|res:RC3|com-cf:nl|ptrs:na|ktp:N0|mc:9909|mtp:S|qry_typ:P|lang:en|wc:2|flavl:0|cs:9557|v=4,False,Tilak Nagar,New Delhi,"G-7, Ground Floor, Commercial Complex, Diwan House Ajay Enclave, Subhash Nagar, Tilak Nagar, New Delhi - 110018, Dist.Delhi, Delhi",8046059261,
"Maternity Support Belt, For Clinical",https://www.indiamart.com/proddetail/maternity-support-belt-2849902880530.html?pos=14&kwd=maternity belts&tags=BA||||8752.144|Price|product|||TS|rsf:gd-|-stype:attr=1|qr_nm:gd|res:RC3|com-cf:nl|ptrs:na|ktp:N0|mc:9909|mtp:S|qry_typ:P|lang:en|wc:2|flavl:0|cs:9557|v=4,Safex Inc,https://www.safexinc.in/?pos=14&kwd=maternity belts&tags=BA||||8752.144|Price|product|||TS|rsf:gd-|-stype:attr=1|qr_nm:gd|res:RC3|com-cf:nl|ptrs:na|ktp:N0|mc:9909|mtp:S|qry_typ:P|lang:en|wc:2|flavl:0|cs:9557|v=4,False,Kamla Nagar,New Delhi,"Shop No-30, Ground Floor, Mata Mandir Chowk, Roshanara Road, Roshanara Road, New Delhi, Kamla Nagar, New Delhi - 110007, Dist.Delhi, Delhi",8048962932,
"Maternity Support Belt, For WHOLESALE",https://www.indiamart.com/proddetail/maternity-support-belt-23191657433.html?pos=15&kwd=maternity belts&tags=BB||||8559.269|Price|product|||TS|rsf:gd-|-stype:attr=1|qr_nm:gd|res:RC3|com-cf:nl|ptrs:na|ktp:N0|mc:9909|mtp:S|qry_typ:P|lang:en|wc:2|cs:8794|v=4,Samadhi Samadha Pharmacy,https://www.surgicalglovesindia.com/?pos=15&kwd=maternity belts&tags=BB||||8559.269|Price|product|||TS|rsf:gd-|-stype:attr=1|qr_nm:gd|res:RC3|com-cf:nl|ptrs:na|ktp:N0|mc:9909|mtp:S|qry_typ:P|lang:en|wc:2|cs:8794|v=4,False,Professors Colony,Indore,"plot no 38, 1,2 and 3rd floor, Shivswarop Heights, Mangal Nagar, Near Rajiv Gandhi Chouraha,, Professors Colony, Indore - 452001, Dist.Indore, Madhya Pradesh",8048981682,
Maternity Support Belt,https://www.indiamart.com/proddetail/maternity-support-belt-2852843883448.html?pos=16&kwd=maternity belts&tags=BA||||8785.791|Price|product|||TS|rsf:gd-|-stype:attr=1|qr_nm:gd|res:RC3|com-cf:nl|ptrs:na|ktp:N0|mc:9909|mtp:S|qry_typ:P|lang:en|wc:2|cs:8794|v=4,Hiakan International,https://www.hiakan.com/?pos=16&kwd=maternity belts&tags=BA||||8785.791|Price|product|||TS|rsf:gd-|-stype:attr=1|qr_nm:gd|res:RC3|com-cf:nl|ptrs:na|ktp:N0|mc:9909|mtp:S|qry_typ:P|lang:en|wc:2|cs:8794|v=4,False,Rajendra Nagar,Ghaziabad,"Kh No.-3539, Raghubeer Enclave,Paragana Loni,, Rajendra Nagar, Ghaziabad - 201005, Dist.Ghaziabad, Uttar Pradesh",8047645889,
"Maternity Belt with Back Support, For Personal",https://www.indiamart.com/proddetail/maternity-belt-with-back-support-2849571085812.html?pos=17&kwd=maternity belts&tags=BA||||8741.812|Price|product|||TS|rsf:gd-|-stype:attr=1|qr_nm:gd|res:RC3|com-cf:nl|ptrs:na|ktp:N0|mc:9909|mtp:S|qry_typ:P|lang:en|wc:2|cs:8794|v=4,Apothecaries Sundries Mfg. Private Limited,https://www.ascoindia.com/?pos=17&kwd=maternity belts&tags=BA||||8741.812|Price|product|||TS|rsf:gd-|-stype:attr=1|qr_nm:gd|res:RC3|com-cf:nl|ptrs:na|ktp:N0|mc:9909|mtp:S|qry_typ:P|lang:en|wc:2|cs:8794|v=4,True,Sector 18,Gurugram,"Plot No. 229, Udyog Vihar, Phase-IV, Sector 18, Gurugram - 122015, Dist.Gurgaon, Haryana",8048968234,
"Svanah Anti-Radiation Maternity Belly Band, for Personal",https://www.indiamart.com/proddetail/anti-radiation-maternity-belly-band-20299771948.html?pos=18&kwd=maternity belts&tags=BA||||8741.812|Price|product|||TS|rsf:gd-|-stype:attr=1|qr_nm:gd|res:RC3|com-cf:nl|ptrs:na|ktp:N0|mc:9909|mtp:S|qry_typ:P|lang:en|wc:2|cs:8794|v=4,Brightsandz Clean Tech Private Limited,https://www.brightsandz.in/?pos=18&kwd=maternity belts&tags=BA||||8741.812|Price|product|||TS|rsf:gd-|-stype:attr=1|qr_nm:gd|res:RC3|com-cf:nl|ptrs:na|ktp:N0|mc:9909|mtp:S|qry_typ:P|lang:en|wc:2|cs:8794|v=4,False,Sector 82,Gurgaon,"Luthrashiva International, 91, Springboard Business Hub Private Limited Plot No. 23, Sector 82, Gurgaon - 122015, Dist.Gurgaon, Haryana",8047644725,
"Maternity Corset Belt, For Clinical",https://www.indiamart.com/proddetail/maternity-corset-belt-4878909030.html?pos=19&kwd=maternity belts&tags=BB||||8752.144|Price|product|||TS|rsf:gd-|-stype:attr=1|qr_nm:gd|res:RC3|com-cf:nl|ptrs:na|ktp:N0|mc:9909|mtp:S|qry_typ:P|lang:en|wc:2|cs:8794|v=4,JVS Surgicals,https://www.jvssurgicals.com/?pos=19&kwd=maternity belts&tags=BB||||8752.144|Price|product|||TS|rsf:gd-|-stype:attr=1|qr_nm:gd|res:RC3|com-cf:nl|ptrs:na|ktp:N0|mc:9909|mtp:S|qry_typ:P|lang:en|wc:2|cs:8794|v=4,False,Karawal Nagar,New Delhi,"F-60, Main 25 Feet Road, Khajuri Khas, Karawal Nagar, New Delhi - 110094, Dist.Delhi, Delhi",8048960562,
Bollywood Lingeries Silicone Pregnancy Belly,https://www.indiamart.com/proddetail/silicone-pregnancy-belly-17452345197.html?pos=20&kwd=maternity belts&tags=BA||||8211.142|Price|product|||TS|rsf:gd-|-stype:attr=1|qr_nm:gd|res:RC3|com-cf:nl|ptrs:na|ktp:N0|mc:9909|mtp:S|qry_typ:P|lang:en|wc:2|cs:8794|v=4,Bencomm,https://www.bollywoodlingerie.in/?pos=20&kwd=maternity belts&tags=BA||||8211.142|Price|product|||TS|rsf:gd-|-stype:attr=1|qr_nm:gd|res:RC3|com-cf:nl|ptrs:na|ktp:N0|mc:9909|mtp:S|qry_typ:P|lang:en|wc:2|cs:8794|v=4,False,Ghatkopar East,Mumbai,"PAP-4, 1st Floor suchita Business Park, Station Road, Ghatkopar East, Mumbai - 400075, Dist.Mumbai, Maharashtra",8048958171,
Artificial Pregnancy Belly,https://www.indiamart.com/proddetail/artificial-pregnancy-belly-23879646688.html?pos=21&kwd=maternity belts&tags=BA||||8752.144|Price|product|||TS|rsf:gd-|-stype:attr=1|qr_nm:gd|res:RC3|com-cf:nl|ptrs:na|ktp:N0|mc:9909|mtp:S|qry_typ:P|lang:en|wc:2|cs:8794|v=4,P & O Rehab Clinic,https://www.indiamart.com/pandorehabclinic/?pos=21&kwd=maternity belts&tags=BA||||8752.144|Price|product|||TS|rsf:gd-|-stype:attr=1|qr_nm:gd|res:RC3|com-cf:nl|ptrs:na|ktp:N0|mc:9909|mtp:S|qry_typ:P|lang:en|wc:2|cs:8794|v=4,False,Uttam Nagar,New Delhi,"F- 54, Om Vihar Extension, Gali No. 10, Uttam Nagar, Uttam Nagar, New Delhi - 110059, Dist.Delhi, Delhi",8048963723,
"Longfit Pregnancy Support Belt, For Personal",https://www.indiamart.com/proddetail/longfit-pregnancy-support-belt-27497079812.html?pos=22&kwd=maternity belts&tags=BA||||8752.144|Price|product|||TS|rsf:gd-|-stype:attr=1|qr_nm:gd|res:RC3|com-cf:nl|ptrs:na|ktp:N0|mc:9909|mtp:S|qry_typ:P|lang:en|wc:2|cs:8794|v=4,Longfit,https://www.indiamart.com/longfit/?pos=22&kwd=maternity belts&tags=BA||||8752.144|Price|product|||TS|rsf:gd-|-stype:attr=1|qr_nm:gd|res:RC3|com-cf:nl|ptrs:na|ktp:N0|mc:9909|mtp:S|qry_typ:P|lang:en|wc:2|cs:8794|v=4,False,Guru Teg Bahadur Enclave,New Delhi,"F-1/120, DDA Flats, Gali No-7, Shahdara, New, Guru Teg Bahadur Enclave, New Delhi - 110093, Dist.Delhi, Delhi",7942675681,
"Tynor Post Pregnancy Belt, For Personal",https://www.indiamart.com/proddetail/tynor-post-pregnancy-belt-20162110130.html?pos=23&kwd=maternity belts&tags=BB||||8211.142|Price|product|||TS|rsf:gd-|-stype:attr=1|qr_nm:gd|res:RC3|com-cf:nl|ptrs:na|ktp:N0|mc:9909|mtp:S|qry_typ:P|lang:en|wc:2|cs:8794|v=4,I Touch Surgical,https://www.itouchsurgical.co.in/?pos=23&kwd=maternity belts&tags=BB||||8211.142|Price|product|||TS|rsf:gd-|-stype:attr=1|qr_nm:gd|res:RC3|com-cf:nl|ptrs:na|ktp:N0|mc:9909|mtp:S|qry_typ:P|lang:en|wc:2|cs:8794|v=4,False,Goregaon,Mumbai,"4, Ekta Suprabhat, Siddharth Nagar, Goregaon West, Goregaon, Mumbai - 400104, Dist.Mumbai, Maharashtra",8048962190,
Abdominal Belt After Delivery C Section Post Pregnancy Belt Postpartum Support Belt,https://www.indiamart.com/proddetail/abdominal-belt-after-delivery-c-section-post-pregnancy-belt-postpartum-support-belt-24213120655.html?pos=24&kwd=maternity belts&tags=BA||||9110.092|Price|product|||TS|rsf:gd-|-stype:attr=1|qr_nm:gd|res:RC3|com-cf:nl|ptrs:na|ktp:N0|mc:9909|mtp:S|qry_typ:P|lang:en|wc:2|cs:8794|v=4,Z Care Pharma Private Limited,https://www.indiamart.com/zcare-pharma/?pos=24&kwd=maternity belts&tags=BA||||9110.092|Price|product|||TS|rsf:gd-|-stype:attr=1|qr_nm:gd|res:RC3|com-cf:nl|ptrs:na|ktp:N0|mc:9909|mtp:S|qry_typ:P|lang:en|wc:2|cs:8794|v=4,False,Balaganj,Lucknow,"RN 441/069/21A, Near Lal Masjid, Balaganj, Lucknow - 226003, Dist.Lucknow, Uttar Pradesh",8046038680,
Maternity Support Belt,https://www.indiamart.com/proddetail/maternity-support-belt-2854600414055.html?pos=25&kwd=maternity belts&tags=BA||||9520.041|Price|product|||TS|rsf:gd-|-stype:attr=1|qr_nm:gd|res:RC3|com-cf:nl|ptrs:na|ktp:N0|mc:9909|mtp:S|qry_typ:P|lang:en|wc:2|cs:8794|v=4,Nidat Health Private Limited,https://www.indiamart.com/nidathealth/?pos=25&kwd=maternity belts&tags=BA||||9520.041|Price|product|||TS|rsf:gd-|-stype:attr=1|qr_nm:gd|res:RC3|com-cf:nl|ptrs:na|ktp:N0|mc:9909|mtp:S|qry_typ:P|lang:en|wc:2|cs:8794|v=4,False,Lohia Nagar,Patna,"A/228, 1ST Floor West, P C Colony, Modern Hospital, Lohia Nagar, Patna - 800020, Dist.Patna, Bihar",7942870212,
Maternity Support Belt,https://www.indiamart.com/proddetail/maternity-support-belt-2853886422630.html?pos=26&kwd=maternity belts&tags=BA||||8752.144|Price|product|||MDC|rsf:gd-|-stype:attr=1|qr_nm:gd|res:RC3|com-cf:nl|ptrs:na|ktp:N0|mc:9909|mtp:S|qry_typ:P|lang:en|wc:2|cs:8794|v=4,GK Ecommerce,https://www.indiamart.com/gk-ecommerce/?pos=26&kwd=maternity belts&tags=BA||||8752.144|Price|product|||MDC|rsf:gd-|-stype:attr=1|qr_nm:gd|res:RC3|com-cf:nl|ptrs:na|ktp:N0|mc:9909|mtp:S|qry_typ:P|lang:en|wc:2|cs:8794|v=4,False,Haiderpur,New Delhi,"Ground Floor 19/61 Lohiya Camp, Haiderpur North West Delhi, Haiderpur, New Delhi - 110088, Dist.Delhi, Delhi",8043832659,
"Medicare Maternity Belt Support, For Clinical",https://www.indiamart.com/proddetail/medicare-maternity-belt-support-2853638707233.html?pos=27&kwd=maternity belts&tags=BA||||8584.299|Price|product|||MDC|rsf:gd-|-stype:attr=1|qr_nm:gd|res:RC3|com-cf:nl|ptrs:na|ktp:N0|mc:9909|mtp:S|qry_typ:P|lang:en|wc:2|cs:8794|v=4,Wellness Health Care,https://www.indiamart.com/wellnesshealthcare-tamilnadu/?pos=27&kwd=maternity belts&tags=BA||||8584.299|Price|product|||MDC|rsf:gd-|-stype:attr=1|qr_nm:gd|res:RC3|com-cf:nl|ptrs:na|ktp:N0|mc:9909|mtp:S|qry_typ:P|lang:en|wc:2|cs:8794|v=4,False,Podanur,Coimbatore,"9/27, Sri Ram Nagar, 7th Street East, Podanur,, Podanur, Coimbatore - 641023, Dist.Coimbatore, Tamil Nadu",8045165099,
"Maternity Pad Belt Set, For Clinical",https://www.indiamart.com/proddetail/maternity-pad-belt-set-2853278564633.html?pos=28&kwd=maternity belts&tags=BA||||8584.299||product|||MDC|rsf:gd-|-stype:attr=1|qr_nm:gd|res:RC3|com-cf:nl|ptrs:na|ktp:N0|mc:9909|mtp:S|qry_typ:P|lang:en|wc:2|cs:8794|v=4,Safex Hygiene Care,https://www.indiamart.com/safex-hygiene-care/?pos=28&kwd=maternity belts&tags=BA||||8584.299||product|||MDC|rsf:gd-|-stype:attr=1|qr_nm:gd|res:RC3|com-cf:nl|ptrs:na|ktp:N0|mc:9909|mtp:S|qry_typ:P|lang:en|wc:2|cs:8794|v=4,False,Kalveerampalayam,Coimbatore,"50/51, Thoppil Nagar, Kalveerampalyam, Kalveerampalayam, Coimbatore - 641046, Dist.Coimbatore, Tamil Nadu",8046037064,
Newmom Mother Support Belt,https://www.indiamart.com/proddetail/newmom-mother-support-belt-2854182861097.html?pos=29&kwd=maternity belts&tags=BA||||8788.382|Price|product|||MDC|rsf:gd-|-stype:attr=1|qr_nm:gd|res:RC3|com-cf:nl|ptrs:na|ktp:N0|mc:9909|mtp:S|qry_typ:P|lang:en|wc:2|cs:8794|v=4,Health4u,https://www.indiamart.com/health4u-greaternoida/?pos=29&kwd=maternity belts&tags=BA||||8788.382|Price|product|||MDC|rsf:gd-|-stype:attr=1|qr_nm:gd|res:RC3|com-cf:nl|ptrs:na|ktp:N0|mc:9909|mtp:S|qry_typ:P|lang:en|wc:2|cs:8794|v=4,False,,Greater Noida,"Shop No-5, H No-3, Pandat Complex, Ram Shyam Enclave, Chipiyana Buzurg,, Greater Noida - 201306, Dist.Gautam Budh Nagar, Uttar Pradesh",8045731446,
Pregnancy Support Belt,https://www.indiamart.com/proddetail/pregnancy-support-belt-2854156801348.html?pos=30&kwd=maternity belts&tags=BA||||9110.092|Price|product|||MDC|rsf:gd-|-stype:attr=1|qr_nm:gd|res:RC3|com-cf:nl|ptrs:na|ktp:N0|mc:9909|mtp:S|qry_typ:P|lang:en|wc:2|cs:8794|v=4,Global Infotech,https://www.indiamart.com/globalinfotech-lucknow/?pos=30&kwd=maternity belts&tags=BA||||9110.092|Price|product|||MDC|rsf:gd-|-stype:attr=1|qr_nm:gd|res:RC3|com-cf:nl|ptrs:na|ktp:N0|mc:9909|mtp:S|qry_typ:P|lang:en|wc:2|cs:8794|v=4,False,Alambagh,Lucknow,"12/1, Chandan Nagar, Alambagh, Alambagh, Lucknow - 226005, Dist.Lucknow, Uttar Pradesh",8045732099,
Pregnancy Back Support Belt,https://www.indiamart.com/proddetail/pregnancy-back-support-belt-2853124521230.html?pos=31&kwd=maternity belts&tags=BA||||8307.81|Price|product|||MDC|rsf:gd-|-stype:attr=1|qr_nm:gd|res:RC3|com-cf:nl|ptrs:na|ktp:N0|mc:9909|mtp:S|qry_typ:P|lang:en|wc:2|cs:8794|v=4,ASG Exports,https://www.indiamart.com/asgexports/?pos=31&kwd=maternity belts&tags=BA||||8307.81|Price|product|||MDC|rsf:gd-|-stype:attr=1|qr_nm:gd|res:RC3|com-cf:nl|ptrs:na|ktp:N0|mc:9909|mtp:S|qry_typ:P|lang:en|wc:2|cs:8794|v=4,False,Phursungi,Pune,"Ground Floor, Gat No 98, Old Sr. No 9, Gaiwad Wadi, Wadki Phursungi Road, Phursungi, Pune - 412308, Dist.Pune, Maharashtra",8044561693,
"Pregnancy Pawells Belt 2 in 1, For Personal",https://www.indiamart.com/proddetail/pregnancy-pawells-belt-2-in-1-2854881458273.html?pos=32&kwd=maternity belts&tags=BB||||8752.144|Price|product|||MDC|rsf:gd-|-stype:attr=1|qr_nm:gd|res:RC3|com-cf:nl|ptrs:na|ktp:N0|mc:9909|mtp:S|qry_typ:P|lang:en|wc:2|cs:8794|v=4,R K Surgical Equipments,https://www.indiamart.com/rk-surgicalequipments/?pos=32&kwd=maternity belts&tags=BB||||8752.144|Price|product|||MDC|rsf:gd-|-stype:attr=1|qr_nm:gd|res:RC3|com-cf:nl|ptrs:na|ktp:N0|mc:9909|mtp:S|qry_typ:P|lang:en|wc:2|cs:8794|v=4,False,,New Delhi,"Ground Floor, Jhuggi No-19/61, Lohiya Camp, Haider Pur, North West, New Delhi - 110088, Dist.Delhi, Delhi",8044456804,
Pregnancy Support Belt,https://www.indiamart.com/proddetail/pregnancy-support-belt-2854228040562.html?pos=33&kwd=maternity belts&tags=BA||||8752.144|Price|product|||MDC|rsf:gd-|-stype:attr=1|qr_nm:gd|res:RC3|com-cf:nl|ptrs:na|ktp:N0|mc:9909|mtp:S|qry_typ:P|lang:en|wc:2|cs:8794|v=4,Mahira Enterprise,https://www.indiamart.com/mahira-enterprise-newdelhi/?pos=33&kwd=maternity belts&tags=BA||||8752.144|Price|product|||MDC|rsf:gd-|-stype:attr=1|qr_nm:gd|res:RC3|com-cf:nl|ptrs:na|ktp:N0|mc:9909|mtp:S|qry_typ:P|lang:en|wc:2|cs:8794|v=4,False,,New Delhi,"S/F, V-60, Dr BR Ambedkar Statue, Ambedkar Basti, Ghonda, Shahdara, New Delhi - 110053, Dist.Delhi, Delhi",8045733725,
"Maternity Belt, For Personal",https://www.indiamart.com/proddetail/maternity-belt-15433526412.html?pos=34&kwd=maternity belts&tags=BA||||8038.093|Price|product|||TS|rsf:gd-|-stype:attr=1|qr_nm:gd|res:RC3|com-cf:nl|ptrs:na|ktp:N0|mc:9909|mtp:S|qry_typ:P|lang:en|wc:2|cs:8794|v=4,Radiance Impex International,https://www.indiamart.com/radianceimpexinternational/?pos=34&kwd=maternity belts&tags=BA||||8038.093|Price|product|||TS|rsf:gd-|-stype:attr=1|qr_nm:gd|res:RC3|com-cf:nl|ptrs:na|ktp:N0|mc:9909|mtp:S|qry_typ:P|lang:en|wc:2|cs:8794|v=4,True,Vidya Nagar,Rajkot,"No. 310, Siddhivinayak Complex, Vidya Nagar, Rajkot - 360001, Dist.Rajkot, Gujarat",8046044349,
"Maternity Belt With Back Support, For Clinical",https://www.indiamart.com/proddetail/maternity-belt-with-back-support-22028884073.html?pos=35&kwd=maternity belts&tags=BB||||8876.815|Price|product|||TS|rsf:gd-|-stype:attr=1|qr_nm:gd|res:RC3|com-cf:nl|ptrs:na|ktp:N0|mc:9909|mtp:S|qry_typ:P|lang:en|wc:2|cs:8794|v=4,Saket Ortho Rehab International Private Limited,https://www.saketrehab.com/?pos=35&kwd=maternity belts&tags=BB||||8876.815|Price|product|||TS|rsf:gd-|-stype:attr=1|qr_nm:gd|res:RC3|com-cf:nl|ptrs:na|ktp:N0|mc:9909|mtp:S|qry_typ:P|lang:en|wc:2|cs:8794|v=4,False,,Nagpur,"G-11, Shreevardhan Complex, Beside Big Bazar, Ramdaspeth, Wardha Road, Nagpur - 440010, Dist.Nagpur, Maharashtra",8048986073,
Pregnancy Belt,,R. G. Surgical,https://www.indiamart.com/rgsurgical/?pos=36&kwd=maternity belts&tags=BA||||8752.144|Price|product|||TS|rsf:gd-|-stype:attr=1|qr_nm:gd|res:RC3|com-cf:nl|ptrs:na|ktp:N0|mc:9909|mtp:S|qry_typ:P|lang:en|wc:2|cs:8794|v=4,False,Paschim Vihar Miyanwali Nagar,New Delhi,"Kh. No. 487/28, Peera Garhi, Paschim Vihar Miyanwali Nagar, New Delhi - 110087, Dist.Delhi, Delhi",8046065930,
Maternity Belts,,Era Product,https://www.indiamart.com/eraproduct/?pos=37&kwd=maternity belts&tags=BA||||8752.144|Price|product|||TS|rsf:gd-|-stype:attr=1|qr_nm:gd|res:RC3|com-cf:nl|ptrs:na|ktp:N0|mc:9909|mtp:S|qry_typ:P|lang:en|wc:2|cs:8794|v=4,False,New Mustafabad,New Delhi,"Shop No. 13, Street No 2, Main Brijpuri Road, Old Mustafabad, New Mustafabad, New Delhi - 110094, Dist.Delhi, Delhi",8048958603,
"Maternity Belt, For Personal",https://www.indiamart.com/proddetail/maternity-belt-2851751440991.html?pos=38&kwd=maternity belts&tags=BA||||8752.144|Price|product|||NA|rsf:gd-|-stype:attr=1|qr_nm:gd|res:RC3|com-cf:nl|ptrs:na|ktp:N0|mc:9909|mtp:S|qry_typ:P|lang:en|wc:2|cs:8794|v=4,Nucon Ortho Aids,https://www.indiamart.com/nuconorthoaids/?pos=38&kwd=maternity belts&tags=BA||||8752.144|Price|product|||NA|rsf:gd-|-stype:attr=1|qr_nm:gd|res:RC3|com-cf:nl|ptrs:na|ktp:N0|mc:9909|mtp:S|qry_typ:P|lang:en|wc:2|cs:8794|v=4,False,Netaji Subhash Place,New Delhi,"D-7 Unit No-107 Netaji Subhash Place Pearl Bussiness, Netaji Subhash Place, New Delhi - 110034, Dist.Delhi, Delhi",7942628285,
Maternity Belt,https://www.indiamart.com/proddetail/maternity-belt-23740137412.html?pos=39&kwd=maternity belts&tags=BB||||8228.275|Price|product|||NA|rsf:gd-|-stype:attr=1|qr_nm:gd|res:RC3|com-cf:nl|ptrs:na|ktp:N0|mc:9909|mtp:S|qry_typ:P|lang:en|wc:2|cs:8794|v=4,Mediclue Surgical And Disposable Private Limited,https://www.indiamart.com/medicluesurgical-disposable/?pos=39&kwd=maternity belts&tags=BB||||8228.275|Price|product|||NA|rsf:gd-|-stype:attr=1|qr_nm:gd|res:RC3|com-cf:nl|ptrs:na|ktp:N0|mc:9909|mtp:S|qry_typ:P|lang:en|wc:2|cs:8794|v=4,False,,Ahmedabad,"Survey No. 21/2, 306, 3rd Floor, Maruti Titanium, Opp. Torrent Power Substation, Kathwada GIDC, S.P. Ring Road, NIKOL, Ahmedabad - 382350, Dist.Ahmedabad, Gujarat",8048605392,
"Maternity Support Belt, For Personal",https://www.indiamart.com/proddetail/maternity-support-belt-26999805191.html?pos=40&kwd=maternity belts&tags=BA||||8740.707|Price|product|||NA|rsf:gd-|-stype:attr=1|qr_nm:gd|res:RC3|com-cf:nl|ptrs:na|ktp:N0|mc:9909|mtp:S|qry_typ:P|lang:en|wc:2|cs:8794|v=4,AK Medical World,https://www.indiamart.com/ak-medical-world/?pos=40&kwd=maternity belts&tags=BA||||8740.707|Price|product|||NA|rsf:gd-|-stype:attr=1|qr_nm:gd|res:RC3|com-cf:nl|ptrs:na|ktp:N0|mc:9909|mtp:S|qry_typ:P|lang:en|wc:2|cs:8794|v=4,False,Kharar,Sas Nagar,"SCF No-5, Saheed Bhagat Singh Market, Kharar, Kharar, Sas Nagar - 140301, Dist.Mohali, Punjab",8043890321,
Cling Breath Post Maternity Corset,https://www.indiamart.com/proddetail/cling-breath-post-maternity-corset-25696389873.html?pos=41&kwd=maternity belts&tags=BB||||8571.301|Price|product|||NA|rsf:gd-|-stype:attr=1|qr_nm:gd|res:RC3|com-cf:nl|ptrs:na|ktp:N0|mc:9909|mtp:S|qry_typ:P|lang:en|wc:2|cs:8794|v=4,J S P Associates,https://www.indiamart.com/jspassocaitesthiruvananthapuram/?pos=41&kwd=maternity belts&tags=BB||||8571.301|Price|product|||NA|rsf:gd-|-stype:attr=1|qr_nm:gd|res:RC3|com-cf:nl|ptrs:na|ktp:N0|mc:9909|mtp:S|qry_typ:P|lang:en|wc:2|cs:8794|v=4,False,,Thiruvananthapuram,"TC 16/1103-2, S.R. Mandiram, Jagathy, Thycaud P.O., Thiruvananthapuram - 695014, Dist.Thiruvananthapuram, Kerala",8047648231,
Post Pregnancy Maternity Belly Trimming & Support Belt,https://www.indiamart.com/proddetail/post-pregnancy-maternity-belly-trimming-support-belt-23236019891.html?pos=42&kwd=maternity belts&tags=BA||||8746.929|Price|product|||NA|rsf:gd-|-stype:attr=1|qr_nm:gd|res:RC3|com-cf:nl|ptrs:na|ktp:N0|mc:9909|mtp:S|qry_typ:P|lang:en|wc:2|cs:8794|v=4,Best Cell Technology LLP,https://www.indiamart.com/best-cell-technology/?pos=42&kwd=maternity belts&tags=BA||||8746.929|Price|product|||NA|rsf:gd-|-stype:attr=1|qr_nm:gd|res:RC3|com-cf:nl|ptrs:na|ktp:N0|mc:9909|mtp:S|qry_typ:P|lang:en|wc:2|cs:8794|v=4,False,Industrial Area Phase-2,Chandigarh,"Plot No-437, First Floor, Industrial Area Phase-2, Chandigarh - 160030, Chandigarh",8047626182,
Cling Breath Post Maternity Corset,https://www.indiamart.com/proddetail/cling-breath-post-maternity-corset-25696389873.html?pos=43&kwd=maternity belts&tags=BB||||8571.301|Price|product|||NA|rsf:gd-|-stype:attr=1|qr_nm:gd|res:RC3|com-cf:nl|ptrs:na|ktp:N0|mc:9909|mtp:S|qry_typ:P|lang:en|wc:2|cs:8794|v=4,J S P Associates,https://www.indiamart.com/jspassocaitesthiruvananthapuram/?pos=43&kwd=maternity belts&tags=BB||||8571.301|Price|product|||NA|rsf:gd-|-stype:attr=1|qr_nm:gd|res:RC3|com-cf:nl|ptrs:na|ktp:N0|mc:9909|mtp:S|qry_typ:P|lang:en|wc:2|cs:8794|v=4,False,,Thiruvananthapuram,"TC 16/1103-2, S.R. Mandiram, Jagathy, Thycaud P.O., Thiruvananthapuram - 695014, Dist.Thiruvananthapuram, Kerala",8047648231,
Post Pregnancy Maternity Belly Trimming & Support Belt,https://www.indiamart.com/proddetail/post-pregnancy-maternity-belly-trimming-support-belt-23236019891.html?pos=44&kwd=maternity belts&tags=BA||||8746.929|Price|product|||NA|rsf:gd-|-stype:attr=1|qr_nm:gd|res:RC3|com-cf:nl|ptrs:na|ktp:N0|mc:9909|mtp:S|qry_typ:P|lang:en|wc:2|cs:8794|v=4,Best Cell Technology LLP,https://www.indiamart.com/best-cell-technology/?pos=44&kwd=maternity belts&tags=BA||||8746.929|Price|product|||NA|rsf:gd-|-stype:attr=1|qr_nm:gd|res:RC3|com-cf:nl|ptrs:na|ktp:N0|mc:9909|mtp:S|qry_typ:P|lang:en|wc:2|cs:8794|v=4,False,Industrial Area Phase-2,Chandigarh,"Plot No-437, First Floor, Industrial Area Phase-2, Chandigarh - 160030, Chandigarh",8047626182,
"Pregnancy Support Belt, For Personal",https://www.indiamart.com/proddetail/pregnancy-support-belt-24816942630.html?pos=45&kwd=maternity belts&tags=BB||||8752.144|Price|product|||NA|rsf:gd-|-stype:attr=1|qr_nm:gd|res:RC3|com-cf:nl|ptrs:na|ktp:N0|mc:9909|mtp:S|qry_typ:P|lang:en|wc:2|cs:8794|v=4,Tyrant Manufacturing LLP,https://www.indiamart.com/tyrant-manufacturing/?pos=45&kwd=maternity belts&tags=BB||||8752.144|Price|product|||NA|rsf:gd-|-stype:attr=1|qr_nm:gd|res:RC3|com-cf:nl|ptrs:na|ktp:N0|mc:9909|mtp:S|qry_typ:P|lang:en|wc:2|cs:8794|v=4,False,Uttam Nagar,New Delhi,"Plot Number 80A, Block-K6, Mohan Garden, Near Vikrant Chowk, West Delhi, Uttam Nagar, New Delhi - 110059, Dist.Delhi, Delhi",7942543601,
Omphoo 3-In-1 Post Pregnancy Abdominal Belt After Delivery,,Rajni Enterprises,https://www.indiamart.com/rajnienterprises-24989019/?pos=46&kwd=maternity belts&tags=BA||||8752.144|Price|product|||NA|rsf:gd-|-stype:attr=1|qr_nm:gd|res:RC3|com-cf:nl|ptrs:na|ktp:N0|mc:9909|mtp:S|qry_typ:P|lang:en|wc:2|cs:8794|v=4,False,,New Delhi,"House No 261,Index No-1250,Nehru Camp,Haider Pur,North West H.no.261, Haiderpur, Near Max Hospital, New Delhi - 110088, Dist.Delhi, Delhi",8048370705,4582
"Post Pregnancy Belly Belt, For Personal",https://www.indiamart.com/proddetail/post-pregnancy-belly-belt-20869382691.html?pos=52&kwd=maternity belts&tags=BB||||8752.144|Price|product|||NA|rsf:gd-|-stype:attr=1|qr_nm:gd|res:RC3|com-cf:nl|ptrs:na|ktp:N0|mc:9909|mtp:S|qry_typ:P|lang:en|wc:2|cs:8794|v=4,Durga Surgicals,https://www.indiamart.com/durgasurgicals/?pos=52&kwd=maternity belts&tags=BB||||8752.144|Price|product|||NA|rsf:gd-|-stype:attr=1|qr_nm:gd|res:RC3|com-cf:nl|ptrs:na|ktp:N0|mc:9909|mtp:S|qry_typ:P|lang:en|wc:2|cs:8794|v=4,False,Shahdara,New Delhi,"Street No. 18, Shahdara, New Delhi - 110032, Dist.Delhi, Delhi",8047632508,
"Dyna. Neoprene Mid Pregnancy Abdominal Support Belt, Size: M.l.xl.xxl",https://www.indiamart.com/proddetail/mid-pregnancy-abdominal-support-belt-2850217614530.html?pos=48&kwd=maternity belts&tags=BA||||8725.564|Price|product|||NA|rsf:gd-|-stype:attr=1|qr_nm:gd|res:RC3|com-cf:nl|ptrs:na|ktp:N0|mc:9909|mtp:S|qry_typ:P|lang:en|wc:2|cs:8794|v=4,Vishuddh Drug And Surgicals,https://www.indiamart.com/vishuddh-traders/?pos=48&kwd=maternity belts&tags=BA||||8725.564|Price|product|||NA|rsf:gd-|-stype:attr=1|qr_nm:gd|res:RC3|com-cf:nl|ptrs:na|ktp:N0|mc:9909|mtp:S|qry_typ:P|lang:en|wc:2|cs:8794|v=4,False,,Guna,"Near Nagar Palika 01 Vidisha Road Ashoknagar, Guna - 473331, Dist.Guna, Madhya Pradesh",8048371743,363
"Health Healing Pregnancy/Maternity Support Belt, For Personal",https://www.indiamart.com/proddetail/health-healing-pregnancy-maternity-support-belt-2849149775097.html?pos=49&kwd=maternity belts&tags=BA||||8778.123|Price|product|||NA|rsf:gd-|-stype:attr=1|qr_nm:gd|res:RC3|com-cf:nl|ptrs:na|ktp:N0|mc:9909|mtp:S|qry_typ:P|lang:en|wc:2|cs:8794|v=4,Health Healing India,https://www.indiamart.com/healthhealingindia/?pos=49&kwd=maternity belts&tags=BA||||8778.123|Price|product|||NA|rsf:gd-|-stype:attr=1|qr_nm:gd|res:RC3|com-cf:nl|ptrs:na|ktp:N0|mc:9909|mtp:S|qry_typ:P|lang:en|wc:2|cs:8794|v=4,False,,Noida,"Third Floor 309 CS-01/GH-01 Aarza Square 2 Sector - 4, Gaur City, Noida - 201318, Dist.Gautam Budh Nagar, Uttar Pradesh",8046078547,
Post Pregnancy Belt,https://www.indiamart.com/proddetail/post-pregnancy-belt-2851530451748.html?pos=50&kwd=maternity belts&tags=BA||||8830.079|Price|product|||NA|rsf:gd-|-stype:attr=1|qr_nm:gd|res:RC3|com-cf:nl|ptrs:na|ktp:N0|mc:9909|mtp:S|qry_typ:P|lang:en|wc:2|cs:8794|v=4,Ruvi Labs,https://www.indiamart.com/company/191257398/?pos=50&kwd=maternity belts&tags=BA||||8830.079|Price|product|||NA|rsf:gd-|-stype:attr=1|qr_nm:gd|res:RC3|com-cf:nl|ptrs:na|ktp:N0|mc:9909|mtp:S|qry_typ:P|lang:en|wc:2|cs:8794|v=4,False,,Vellore,"11 Mosque Street, Vellore - 632401, Dist.Vellore, Tamil Nadu",7942705410,
Pregnancy Belly Support Belt,https://www.indiamart.com/proddetail/pregnancy-belly-support-belt-23476645997.html?pos=51&kwd=maternity belts&tags=BB||||8350.861|Price|product|||NA|rsf:gd-|-stype:attr=1|qr_nm:gd|res:RC3|com-cf:nl|ptrs:na|ktp:N0|mc:9909|mtp:S|qry_typ:P|lang:en|wc:2|cs:8794|v=4,Importikah,https://www.indiamart.com/importikah/?pos=51&kwd=maternity belts&tags=BB||||8350.861|Price|product|||NA|rsf:gd-|-stype:attr=1|qr_nm:gd|res:RC3|com-cf:nl|ptrs:na|ktp:N0|mc:9909|mtp:S|qry_typ:P|lang:en|wc:2|cs:8794|v=4,False,,Belgaum,"H.No.31, 4th Cross, Shivaji Nagar, Belagavi, Belgaum - 590016, Dist.Belgaum, Karnataka",7942821639,
"Post Pregnancy Belly Belt, For Personal",https://www.indiamart.com/proddetail/post-pregnancy-belly-belt-20869382691.html?pos=52&kwd=maternity belts&tags=BB||||8752.144|Price|product|||NA|rsf:gd-|-stype:attr=1|qr_nm:gd|res:RC3|com-cf:nl|ptrs:na|ktp:N0|mc:9909|mtp:S|qry_typ:P|lang:en|wc:2|cs:8794|v=4,Durga Surgicals,https://www.indiamart.com/durgasurgicals/?pos=52&kwd=maternity belts&tags=BB||||8752.144|Price|product|||NA|rsf:gd-|-stype:attr=1|qr_nm:gd|res:RC3|com-cf:nl|ptrs:na|ktp:N0|mc:9909|mtp:S|qry_typ:P|lang:en|wc:2|cs:8794|v=4,False,Shahdara,New Delhi,"Street No. 18, Shahdara, New Delhi - 110032, Dist.Delhi, Delhi",8047632508,
"Maternity Belt, For Clinical",https://www.indiamart.com/proddetail/maternity-belt-13075557733.html?pos=53&kwd=maternity belts&tags=BB||||8752.144|Price|product|||NA|rsf:gd-|-stype:attr=1|qr_nm:gd|res:RC3|com-cf:nl|ptrs:na|ktp:N0|mc:9909|mtp:S|qry_typ:P|lang:en|wc:2|cs:8794|v=4,S.G.G.S Health Care Products,https://www.indiamart.com/sggshealthcare-products/?pos=53&kwd=maternity belts&tags=BB||||8752.144|Price|product|||NA|rsf:gd-|-stype:attr=1|qr_nm:gd|res:RC3|com-cf:nl|ptrs:na|ktp:N0|mc:9909|mtp:S|qry_typ:P|lang:en|wc:2|cs:8794|v=4,False,Nilothi,New Delhi,"A-52, Gurunanak Enclave, Chander Vihar, Nilothi, New Delhi - 110041, Dist.Delhi, Delhi",8048619882,
"Maternity Belt, For Personal",https://www.indiamart.com/proddetail/maternity-belt-21460119391.html?pos=54&kwd=maternity belts&tags=BB||||9520.041|Price|product|||NA|rsf:gd-|-stype:attr=1|qr_nm:gd|res:RC3|com-cf:nl|ptrs:na|ktp:N0|mc:9909|mtp:S|qry_typ:P|lang:en|wc:2|cs:8794|v=4,Orleewaies Life Sciences Private Limited,https://www.indiamart.com/orleewaies-life-sciences/?pos=54&kwd=maternity belts&tags=BB||||9520.041|Price|product|||NA|rsf:gd-|-stype:attr=1|qr_nm:gd|res:RC3|com-cf:nl|ptrs:na|ktp:N0|mc:9909|mtp:S|qry_typ:P|lang:en|wc:2|cs:8794|v=4,False,Najafgarh,Patna,"1 St Floor House No 24 Ram Krishna Path 1st Floor, House No.24, Najafgarh, Patna - 800013, Dist.Patna, Bihar",7942548971,
Maternity Belt,,Hospital Care Co.,https://www.indiamart.com/hospitalcarecompany/?pos=55&kwd=maternity belts&tags=BB||||9110.092|Price|product|||NA|rsf:gd-|-stype:attr=1|qr_nm:gd|res:RC3|com-cf:nl|ptrs:na|ktp:N0|mc:9909|mtp:S|qry_typ:P|lang:en|wc:2|cs:8794|v=4,False,Rajajipuram,Lucknow,"F - 2336,RAJA JI PURAM,,LUCKNOW F-2336,226016,Lucknow, Rajajipuram, Lucknow - 226017, Dist.Lucknow, Uttar Pradesh",7942623741,
Maternity Slim Belt,,Hithaishi Abdominal,https://www.indiamart.com/hithaishi-abdominal/?pos=56&kwd=maternity belts&tags=BA||||8663.873|Price|product|||NA|rsf:gd-|-stype:attr=1|qr_nm:gd|res:RC3|com-cf:nl|ptrs:na|ktp:N0|mc:9909|mtp:S|qry_typ:P|lang:en|wc:2|cs:8794|v=4,False,Dodda Banaswadi,Bengaluru,"202, Sai Samrat Homes Apt, 1st A Main, 2nd B Cross,, Ramaiya Reddy Layout, Dodda Banaswadi, Bengaluru - 560043, Dist.Bengaluru, Karnataka",8048371849,912
Pregnancy Back Support Maternity Belt,https://www.indiamart.com/proddetail/pregnancy-back-support-maternity-belt-2851270497848.html?pos=57&kwd=maternity belts&tags=||||8316.457|Price|product|||MDC|rsf:gd-|-stype:attr=1|qr_nm:gd|res:RC3|com-cf:nl|ptrs:na|ktp:N0|mc:9909|mtp:S|qry_typ:P|lang:en|wc:2|cs:8794|v=4,Shri Swami Healthcare,https://www.indiamart.com/shriswamihealthcare/?pos=57&kwd=maternity belts&tags=||||8316.457|Price|product|||MDC|rsf:gd-|-stype:attr=1|qr_nm:gd|res:RC3|com-cf:nl|ptrs:na|ktp:N0|mc:9909|mtp:S|qry_typ:P|lang:en|wc:2|cs:8794|v=4,False,,Nashik,"Ghar No N-42/JA 1/39/3, 4th Scheme Cidco, K'wada, Nashik - 422009, Dist.Nashik, Maharashtra",8041011071,
Large Cotton Maternity Pads With Belt,https://www.indiamart.com/proddetail/large-cotton-maternity-pads-with-belt-2853471515588.html?pos=58&kwd=maternity belts&tags=||||8559.269|Price|product|||TS|rsf:gd-|-stype:attr=1|qr_nm:gd|res:RC3|com-cf:nl|ptrs:na|ktp:N0|mc:9909|mtp:S|qry_typ:P|lang:en|wc:2|cs:8794|v=4,Madhav Overseas Corporation,https://www.madhavoverseascorporation.net/?pos=58&kwd=maternity belts&tags=||||8559.269|Price|product|||TS|rsf:gd-|-stype:attr=1|qr_nm:gd|res:RC3|com-cf:nl|ptrs:na|ktp:N0|mc:9909|mtp:S|qry_typ:P|lang:en|wc:2|cs:8794|v=4,False,Atal Khel Parisar Main Road,Indore,"Madhav Corporate Scheme No 78 , Sector D ,Plot No 4,, Atal Khel Parisar Main Road, Indore - 452010, Dist.Indore, Madhya Pradesh",8048980263,
"Relax Maternity Belts, For Personal, For Clinical",https://www.indiamart.com/proddetail/relax-maternity-belts-4125216533.html?pos=59&kwd=maternity belts&tags=CB||||8663.873|Price|product|||TS|rsf:gd-|-stype:attr=1|qr_nm:gd|res:RC3|com-cf:nl|ptrs:na|ktp:N0|mc:9909|mtp:S|qry_typ:P|lang:en|wc:2|cs:8794|v=4,Krishco Medical Products Pvt. Ltd.,https://www.krishcomedicalproducts.com/?pos=59&kwd=maternity belts&tags=CB||||8663.873|Price|product|||TS|rsf:gd-|-stype:attr=1|qr_nm:gd|res:RC3|com-cf:nl|ptrs:na|ktp:N0|mc:9909|mtp:S|qry_typ:P|lang:en|wc:2|cs:8794|v=4,False,Banashankari,Bengaluru,"No. 181, 3rd Main, 5th Cross, Srinivasa Nagar, Banashankari 1st Stage, Banashankari, Bengaluru - 560050, Dist.Bengaluru, Karnataka",8048962026,
Cotton Maternity Pad With Belt,https://www.indiamart.com/proddetail/cotton-maternity-pad-with-belt-2853401596588.html?pos=60&kwd=maternity belts&tags=||||8316.457|Price|product|||TS|rsf:gd-|-stype:attr=1|qr_nm:gd|res:RC3|com-cf:nl|ptrs:na|ktp:N0|mc:9909|mtp:S|qry_typ:P|lang:en|wc:2|cs:8794|v=4,Ace India Overseas,https://www.indiamart.com/aceindiaoverseas/?pos=60&kwd=maternity belts&tags=||||8316.457|Price|product|||TS|rsf:gd-|-stype:attr=1|qr_nm:gd|res:RC3|com-cf:nl|ptrs:na|ktp:N0|mc:9909|mtp:S|qry_typ:P|lang:en|wc:2|cs:8794|v=4,False,Krushinagar,Nashik,"Flat No 07, Third Floor, Sai Darshan, Mahatma Nagar Road, Parijat Nagar, Krushinagar, Nashik - 422005, Dist.Nashik, Maharashtra",8048213564,
"Maternity Support Belt, For Personal",https://www.indiamart.com/proddetail/maternity-support-belt-19914042891.html?pos=61&kwd=maternity belts&tags=CC||||8228.275|Price|product|||TS|rsf:gd-|-stype:attr=1|qr_nm:gd|res:RC3|com-cf:nl|ptrs:na|ktp:N0|mc:9909|mtp:S|qry_typ:P|lang:en|wc:2|cs:8794|v=4,Care Pharma (The Ultimate Orthotics),https://www.indiamart.com/carepharma-gujarat/?pos=61&kwd=maternity belts&tags=CC||||8228.275|Price|product|||TS|rsf:gd-|-stype:attr=1|qr_nm:gd|res:RC3|com-cf:nl|ptrs:na|ktp:N0|mc:9909|mtp:S|qry_typ:P|lang:en|wc:2|cs:8794|v=4,False,Behrampura,Ahmedabad,"Plot No. 7/9, GIDC Estate, Guliwala Compound, Near Ashirwad Textile Opposite Khodiyarnagar BRTS Bus Stop, Behrampura, Ahmedabad - 380022, Dist.Ahmedabad, Gujarat",8048980308,
"Mowell Maternity support, For Clinical",https://www.indiamart.com/proddetail/mowell-maternity-support-2853591516373.html?pos=62&kwd=maternity belts&tags=CC||||8752.144||product|||TS|rsf:gd-|-stype:attr=1|qr_nm:gd|res:RC3|com-cf:nl|ptrs:na|ktp:N0|mc:9909|mtp:S|qry_typ:P|lang:en|wc:2|cs:8794|v=4,Manarti Exports,https://www.indiamart.com/manarti-exports-newdelhi/?pos=62&kwd=maternity belts&tags=CC||||8752.144||product|||TS|rsf:gd-|-stype:attr=1|qr_nm:gd|res:RC3|com-cf:nl|ptrs:na|ktp:N0|mc:9909|mtp:S|qry_typ:P|lang:en|wc:2|cs:8794|v=4,False,Janakpuri (West),New Delhi,"First Floor Office Space No. 114-115 Plot No. 4, District, Janakpuri (West), New Delhi - 110058, Dist.Delhi, Delhi",7942708329,
"Post Maternity Belt, For Personal",https://www.indiamart.com/proddetail/post-maternity-belt-2851637564155.html?pos=63&kwd=maternity belts&tags=CC||||8228.275|Price|product|||TS|rsf:gd-|-stype:attr=1|qr_nm:gd|res:RC3|com-cf:nl|ptrs:na|ktp:N0|mc:9909|mtp:S|qry_typ:P|lang:en|wc:2|cs:8794|v=4,Bhoomi Biotech Pharma Inc,https://www.indiamart.com/bhoomi-biotech-pharma-inc/?pos=63&kwd=maternity belts&tags=CC||||8228.275|Price|product|||TS|rsf:gd-|-stype:attr=1|qr_nm:gd|res:RC3|com-cf:nl|ptrs:na|ktp:N0|mc:9909|mtp:S|qry_typ:P|lang:en|wc:2|cs:8794|v=4,False,Usmanpura,Ahmedabad,"3RD FLOOR, 3/B, KHUSHI PLAZA Usmanpura Khushi Plaza, Usmanpura, Ahmedabad - 380014, Dist.Ahmedabad, Gujarat",7942874533,
New Mom Seamless Maternity Support Belt,https://www.indiamart.com/proddetail/new-mom-seamless-maternity-support-belt-2851648075897.html?pos=64&kwd=maternity belts&tags=CC||||8500.97|Price|product|||TS|rsf:gd-|-stype:attr=1|qr_nm:gd|res:RC3|com-cf:nl|ptrs:na|ktp:N0|mc:9909|mtp:S|qry_typ:P|lang:en|wc:2|cs:8794|v=4,Aswathi Medico Surgicals,https://www.indiamart.com/aswathi-medicosurgicals/?pos=64&kwd=maternity belts&tags=CC||||8500.97|Price|product|||TS|rsf:gd-|-stype:attr=1|qr_nm:gd|res:RC3|com-cf:nl|ptrs:na|ktp:N0|mc:9909|mtp:S|qry_typ:P|lang:en|wc:2|cs:8794|v=4,False,Chembukabu,Thrissur,"28/293/7, R V Trade Centre, Near Karthyani Nursing Home, Patturaikkal, Chembukabu, Thrissur - 680020, Dist.Thrissur, Kerala",7942619047,
"Neucell Maternity support, 1Pc. (XL) Abdominal Belt, Tummy Reduction",https://www.indiamart.com/proddetail/neucell-maternity-support-1pc-xl-abdominal-belt-tummy-reduction-2853630870991.html?pos=65&kwd=maternity belts&tags=CC||||8645.561|Price|product|||TS|rsf:gd-|-stype:attr=1|qr_nm:gd|res:RC3|com-cf:nl|ptrs:na|ktp:N0|mc:9909|mtp:S|qry_typ:P|lang:en|wc:2|cs:8794|v=4,Neucell Pharma Private Limited,https://www.neucellpharma.com/?pos=65&kwd=maternity belts&tags=CC||||8645.561|Price|product|||TS|rsf:gd-|-stype:attr=1|qr_nm:gd|res:RC3|com-cf:nl|ptrs:na|ktp:N0|mc:9909|mtp:S|qry_typ:P|lang:en|wc:2|cs:8794|v=4,False,Shakti Vihar,Bhiwani,"Plot No. 832 Brijwassi Colony Near Ekta high school, Shakti Vihar, Bhiwani - 127021, Dist.Bhiwani, Haryana",7942549226,
Pregnancy Support Maternity Belt Belly Bump Girdle Adjustable Band Brace,https://www.indiamart.com/proddetail/pregnancy-support-maternity-belt-belly-bump-girdle-adjustable-band-brace-2855085557791.html?pos=66&kwd=maternity belts&tags=||||9110.092|Price|product|||MDC|rsf:gd-|-stype:attr=1|qr_nm:gd|res:RC3|com-cf:nl|ptrs:na|ktp:N0|mc:9909|mtp:S|qry_typ:P|lang:en|wc:2|cs:8794|v=4,Shivesh Srivastava,https://www.indiamart.com/shiveshsrivastava/?pos=66&kwd=maternity belts&tags=||||9110.092|Price|product|||MDC|rsf:gd-|-stype:attr=1|qr_nm:gd|res:RC3|com-cf:nl|ptrs:na|ktp:N0|mc:9909|mtp:S|qry_typ:P|lang:en|wc:2|cs:8794|v=4,False,,Lucknow,"C-13/121, Rajajipuram, Lucknow - 226017, Dist.Lucknow, Uttar Pradesh",8044457818,
"Post Pregnancy Belt, For Personal",https://www.indiamart.com/proddetail/post-pregnancy-belt-2853660727797.html?pos=67&kwd=maternity belts&tags=CC||||8211.142|Price|product|||TS|rsf:gd-|-stype:attr=1|qr_nm:gd|res:RC3|com-cf:nl|ptrs:na|ktp:N0|mc:9909|mtp:S|qry_typ:P|lang:en|wc:2|cs:8794|v=4,Satiate,https://www.indiamart.com/satiate/?pos=67&kwd=maternity belts&tags=CC||||8211.142|Price|product|||TS|rsf:gd-|-stype:attr=1|qr_nm:gd|res:RC3|com-cf:nl|ptrs:na|ktp:N0|mc:9909|mtp:S|qry_typ:P|lang:en|wc:2|cs:8794|v=4,False,Kandivali West,Mumbai,"15,a 1 C.shivaji Road Co Op Hsg Soc Ltd,, Kandivali West, Mumbai - 400067, Dist.Mumbai, Maharashtra",8048956094,
"RangResha Abdominal Pregnancy Belt To Wrap Around Your Belly, For Back Support",https://www.indiamart.com/proddetail/pregnancy-belt-to-wrap-around-your-belly-22458623673.html?pos=68&kwd=maternity belts&tags=CC||||8876.815|Price|product|||TS|rsf:gd-|-stype:attr=1|qr_nm:gd|res:RC3|com-cf:nl|ptrs:na|ktp:N0|mc:9909|mtp:S|qry_typ:P|lang:en|wc:2|cs:8794|v=4,Sakar Fair Trade Incorporated,https://www.indiamart.com/sakarfair-trade-incorporated/?pos=68&kwd=maternity belts&tags=CC||||8876.815|Price|product|||TS|rsf:gd-|-stype:attr=1|qr_nm:gd|res:RC3|com-cf:nl|ptrs:na|ktp:N0|mc:9909|mtp:S|qry_typ:P|lang:en|wc:2|cs:8794|v=4,False,Wadi,Nagpur,"Ground floor, Shop No. 22, 8A, Laxmi Vaibhav, Laxmi Nagar Chowk, Wadi, Nagpur - 440010, Dist.Nagpur, Maharashtra",7942541012,
Woven Belly Bands,https://www.indiamart.com/proddetail/woven-belly-bands-23815010548.html?pos=69&kwd=maternity belts&tags=CC||||8663.873||product|||TS|rsf:gd-|-stype:attr=1|qr_nm:gd|res:RC3|com-cf:nl|ptrs:na|ktp:N0|mc:9909|mtp:S|qry_typ:P|lang:en|wc:2|cs:8794|v=4,Royal Text,https://www.indiamart.com/royaltext/?pos=69&kwd=maternity belts&tags=CC||||8663.873||product|||TS|rsf:gd-|-stype:attr=1|qr_nm:gd|res:RC3|com-cf:nl|ptrs:na|ktp:N0|mc:9909|mtp:S|qry_typ:P|lang:en|wc:2|cs:8794|v=4,False,Doddabidarakallu,Bengaluru,"No 4, 57/5A,Muneshwara Layout, Doddabidarakallu Nagasandra Post, Doddabidarakallu, Bengaluru - 560073, Dist.Bengaluru, Karnataka",8048610803,
"Large Nurse Fanny Pack Utility Belt Crossbody Bag, Multi-Compartment Nurse Tool Waist Pack",https://www.indiamart.com/proddetail/large-nurse-fanny-pack-utility-belt-crossbody-bag-multi-compartment-nurse-tool-waist-pack-2854389000930.html?pos=70&kwd=maternity belts&tags=CC||||8752.144|Price|product|||TS|rsf:gd-|-stype:attr=1|qr_nm:gd|res:RC3|com-cf:nl|ptrs:na|ktp:N0|mc:9909|mtp:S|qry_typ:P|lang:en|wc:2|cs:8794|v=4,Loyals India Sales Corp,https://www.indiamart.com/loyalsindiasalescrop/?pos=70&kwd=maternity belts&tags=CC||||8752.144|Price|product|||TS|rsf:gd-|-stype:attr=1|qr_nm:gd|res:RC3|com-cf:nl|ptrs:na|ktp:N0|mc:9909|mtp:S|qry_typ:P|lang:en|wc:2|cs:8794|v=4,False,Pitampura,New Delhi,"B171, Lok Vihar, Pitampura North West, Pitampura, New Delhi - 110034, Dist.Delhi, Delhi",8046044793,
"Medemove Pregnancy Belt, For Personal",https://www.indiamart.com/proddetail/medemove-pregnancy-belt-2853290051591.html?pos=71&kwd=maternity belts&tags=CC||||9461.351|Price|product|||TS|rsf:gd-|-stype:attr=1|qr_nm:gd|res:RC3|com-cf:nl|ptrs:na|ktp:N0|mc:9909|mtp:S|qry_typ:P|lang:en|wc:2|cs:8794|v=4,Ridhi Krish Surgicals,https://www.indiamart.com/ridhi-krish-surgicals/?pos=71&kwd=maternity belts&tags=CC||||9461.351|Price|product|||TS|rsf:gd-|-stype:attr=1|qr_nm:gd|res:RC3|com-cf:nl|ptrs:na|ktp:N0|mc:9909|mtp:S|qry_typ:P|lang:en|wc:2|cs:8794|v=4,False,Hillpatna,Berhampur,"1 1259/3887 M/s Ridhi Krish Surgicals Hillpatna Sub Post Office, Hillpatna, Berhampur - 760005, Dist.Ganjam, Odisha",7949225588,
Olympia Cradle Belt,https://www.indiamart.com/proddetail/olympia-cradle-belt-3961582848.html?pos=72&kwd=maternity belts&tags=CC||||9839.57|Price|product|||TS|rsf:gd-|-stype:attr=1|qr_nm:gd|res:RC3|com-cf:nl|ptrs:na|ktp:N0|mc:9909|mtp:S|qry_typ:P|lang:en|wc:2|cs:8794|v=4,Olympia Sporting House,https://www.olympiacalcutta.com/?pos=72&kwd=maternity belts&tags=CC||||9839.57|Price|product|||TS|rsf:gd-|-stype:attr=1|qr_nm:gd|res:RC3|com-cf:nl|ptrs:na|ktp:N0|mc:9909|mtp:S|qry_typ:P|lang:en|wc:2|cs:8794|v=4,False,Yogayog Bhawan,Kolkata,"No. 1, Nirmal Chandra Street Bowbazar, Yogayog Bhawan, Kolkata - 700012, Dist.Kolkata, West Bengal",8046037679,
DYNA CLING BRETH POST BELT,https://www.indiamart.com/proddetail/dyna-cling-breth-post-belt-2854029709433.html?pos=73&kwd=maternity belts&tags=CC||||8706.587||product|||TS|rsf:gd-|-stype:attr=1|qr_nm:gd|res:RC3|com-cf:nl|ptrs:na|ktp:N0|mc:9909|mtp:S|qry_typ:P|lang:en|wc:2|cs:8794|v=4,Madurai Meenakshi Pharma And Surgical,https://www.indiamart.com/maduraimeenakshipharma-and-surgical/?pos=73&kwd=maternity belts&tags=CC||||8706.587||product|||TS|rsf:gd-|-stype:attr=1|qr_nm:gd|res:RC3|com-cf:nl|ptrs:na|ktp:N0|mc:9909|mtp:S|qry_typ:P|lang:en|wc:2|cs:8794|v=4,False,Nelpettai,Madurai,"199, First Floor, Naicker New Street,, Nelpettai, Madurai - 625001, Dist.Madurai, Tamil Nadu",8043853780,
Maternity Support Belt,https://www.indiamart.com/proddetail/maternity-support-belt-2854540082148.html?pos=74&kwd=maternity belts&tags=CC||||8752.144|Price|product|||MDC|rsf:gd-|-stype:attr=1|qr_nm:gd|res:RC3|com-cf:nl|ptrs:na|ktp:N0|mc:9909|mtp:S|qry_typ:P|lang:en|wc:2|cs:8794|v=4,Newgen Partners,https://www.indiamart.com/newgenpartners/?pos=74&kwd=maternity belts&tags=CC||||8752.144|Price|product|||MDC|rsf:gd-|-stype:attr=1|qr_nm:gd|res:RC3|com-cf:nl|ptrs:na|ktp:N0|mc:9909|mtp:S|qry_typ:P|lang:en|wc:2|cs:8794|v=4,False,,New Delhi,"Jawahar Park, E-34A, Ground Floor, Laxmi Nagar, East Delhi,, New Delhi - 110092, Dist.Delhi, Delhi",8048213363,
"Oppo Maternity Belt, For Personal",https://www.indiamart.com/proddetail/oppo-maternity-belt-25350520948.html?pos=75&kwd=maternity belts&tags=CC||||8752.144|Price|product|||MDC|rsf:gd-|-stype:attr=1|qr_nm:gd|res:RC3|com-cf:nl|ptrs:na|ktp:N0|mc:9909|mtp:S|qry_typ:P|lang:en|wc:2|cs:8794|v=4,Garg Surgimed,https://www.indiamart.com/garg-surgimed/?pos=75&kwd=maternity belts&tags=CC||||8752.144|Price|product|||MDC|rsf:gd-|-stype:attr=1|qr_nm:gd|res:RC3|com-cf:nl|ptrs:na|ktp:N0|mc:9909|mtp:S|qry_typ:P|lang:en|wc:2|cs:8794|v=4,False,Safdarjung Enclave,New Delhi,"61c,,Near Sukhmani Hospital,Arjun Nagar, Safdurjung Enclave, Safdarjung Enclave, New Delhi - 110029, Dist.Delhi, Delhi",8047303781,
"Medemove Maternity Belt, For Personal",https://www.indiamart.com/proddetail/medemove-maternity-belt-24992284348.html?pos=76&kwd=maternity belts&tags=CC||||8659.641|Price|product|||MDC|rsf:gd-|-stype:attr=1|qr_nm:gd|res:RC3|com-cf:nl|ptrs:na|ktp:N0|mc:9909|mtp:S|qry_typ:P|lang:en|wc:2|cs:8794|v=4,Medequip Healthcare Solutions LLP,https://www.indiamart.com/medequip-healthcare-solutions/?pos=76&kwd=maternity belts&tags=CC||||8659.641|Price|product|||MDC|rsf:gd-|-stype:attr=1|qr_nm:gd|res:RC3|com-cf:nl|ptrs:na|ktp:N0|mc:9909|mtp:S|qry_typ:P|lang:en|wc:2|cs:8794|v=4,False,Doddaballapur,Doddaballapura,"Plot No.A-12,A-13 Doddaballapur Industrial Area Apparel Park, Phase 1, Doddaballapur, Doddaballapura - 561203, Dist.Bengaluru, Karnataka",8048204003,
"Tynor Maternity Belt, For Clinical",https://www.indiamart.com/proddetail/tynor-maternity-belt-2854076812255.html?pos=77&kwd=maternity belts&tags=CC||||8228.275|Price|product|||MDC|rsf:gd-|-stype:attr=1|qr_nm:gd|res:RC3|com-cf:nl|ptrs:na|ktp:N0|mc:9909|mtp:S|qry_typ:P|lang:en|wc:2|cs:8794|v=4,Christ Care Surgicals,https://www.indiamart.com/christcaresurgicals/?pos=77&kwd=maternity belts&tags=CC||||8228.275|Price|product|||MDC|rsf:gd-|-stype:attr=1|qr_nm:gd|res:RC3|com-cf:nl|ptrs:na|ktp:N0|mc:9909|mtp:S|qry_typ:P|lang:en|wc:2|cs:8794|v=4,False,,Ahmedabad,"First Floor, Shop No 1, Vinayak Complex, Station Road, Vardayni Dairy Product, Bareja,, Ahmedabad - 382425, Dist.Ahmedabad, Gujarat",8044564421,
Flamingo OC 2031 Maternity Belt,https://www.indiamart.com/proddetail/flamingo-oc-2031-maternity-belt-2852911524562.html?pos=78&kwd=maternity belts&tags=CC||||10180.86|Price|product|||MDC|rsf:gd-|-stype:attr=1|qr_nm:gd|res:RC3|com-cf:nl|ptrs:na|ktp:N0|mc:9909|mtp:S|qry_typ:P|lang:en|wc:2|cs:8794|v=4,Bhuyan Drugs & Surgical,https://www.indiamart.com/bhuyandrugssurgical/?pos=78&kwd=maternity belts&tags=CC||||10180.86|Price|product|||MDC|rsf:gd-|-stype:attr=1|qr_nm:gd|res:RC3|com-cf:nl|ptrs:na|ktp:N0|mc:9909|mtp:S|qry_typ:P|lang:en|wc:2|cs:8794|v=4,False,Sunderpur,Guwahati,"H No 6, Amarabati Path, Christian Basti, Kamrup,, Sunderpur, Guwahati - 781005, Dist.Kamrup, Assam",7942967138,
"UM A 13 Maternity Support Belt, For Personal",https://www.indiamart.com/proddetail/um-a-13-maternity-support-belt-2854127561812.html?pos=79&kwd=maternity belts&tags=CC||||9829.308|Price|product|||MDC|rsf:gd-|-stype:attr=1|qr_nm:gd|res:RC3|com-cf:nl|ptrs:na|ktp:N0|mc:9909|mtp:S|qry_typ:P|lang:en|wc:2|cs:8794|v=4,S & S Surgico,https://www.indiamart.com/ss-surgico/?pos=79&kwd=maternity belts&tags=CC||||9829.308|Price|product|||MDC|rsf:gd-|-stype:attr=1|qr_nm:gd|res:RC3|com-cf:nl|ptrs:na|ktp:N0|mc:9909|mtp:S|qry_typ:P|lang:en|wc:2|cs:8794|v=4,False,Ramkrishnapur,Howrah,"2nd, 44/3, M.C.Ghosh Lane, Maidan, Ramkrishnapur, Howrah - 711101, Dist.Howrah, West Bengal",8045731346,
Pregnancy Support Maternity Belt Belly Bump Girdle Adjustable Band Brace,https://www.indiamart.com/proddetail/pregnancy-support-maternity-belt-belly-bump-girdle-adjustable-band-brace-2855085557791.html?pos=80&kwd=maternity belts&tags=CC||||9110.092|Price|product|||MDC|rsf:gd-|-stype:attr=1|qr_nm:gd|res:RC3|com-cf:nl|ptrs:na|ktp:N0|mc:9909|mtp:S|qry_typ:P|lang:en|wc:2|cs:8794|v=4,Shivesh Srivastava,https://www.indiamart.com/shiveshsrivastava/?pos=80&kwd=maternity belts&tags=CC||||9110.092|Price|product|||MDC|rsf:gd-|-stype:attr=1|qr_nm:gd|res:RC3|com-cf:nl|ptrs:na|ktp:N0|mc:9909|mtp:S|qry_typ:P|lang:en|wc:2|cs:8794|v=4,False,,Lucknow,"C-13/121, Rajajipuram, Lucknow - 226017, Dist.Lucknow, Uttar Pradesh",8044457818,
Maternity Tunic clara pista 2pcs photoshoot dress,https://www.indiamart.com/proddetail/maternity-tunic-clara-pista-2pcs-photoshoot-dress-2854358385991.html?pos=81&kwd=maternity belts&tags=CC||||8307.81|Price|product|||MDC|rsf:gd-|-stype:attr=1|qr_nm:gd|res:RC3|com-cf:nl|ptrs:na|ktp:N0|mc:9909|mtp:S|qry_typ:P|lang:en|wc:2|cs:8794|v=4,Nayan Collection,https://www.indiamart.com/nayan-collection-maharashtra/?pos=81&kwd=maternity belts&tags=CC||||8307.81|Price|product|||MDC|rsf:gd-|-stype:attr=1|qr_nm:gd|res:RC3|com-cf:nl|ptrs:na|ktp:N0|mc:9909|mtp:S|qry_typ:P|lang:en|wc:2|cs:8794|v=4,False,Wadgaon Sheri,Pune,"Ground Floor , S NO. 12/1A, Adarsh Nagar, Kalyani Nagar Road , OPP. ST. Arnolds Central School Wadgaon Sheri, Wadgaon Sheri, Pune - 411014, Dist.Pune, Maharashtra",7942704607,
"Pregrency support belt, For Personal",https://www.indiamart.com/proddetail/pregrency-support-belt-2854121366362.html?pos=82&kwd=maternity belts&tags=CC||||8752.144|Price|product|||MDC|rsf:gd-|-stype:attr=1|qr_nm:gd|res:RC3|com-cf:nl|ptrs:na|ktp:N0|mc:9909|mtp:S|qry_typ:P|lang:en|wc:2|cs:8794|v=4,Mani Kant Enterprises,https://www.indiamart.com/manikantenterprises/?pos=82&kwd=maternity belts&tags=CC||||8752.144|Price|product|||MDC|rsf:gd-|-stype:attr=1|qr_nm:gd|res:RC3|com-cf:nl|ptrs:na|ktp:N0|mc:9909|mtp:S|qry_typ:P|lang:en|wc:2|cs:8794|v=4,False,Narela,New Delhi,"Khasra No-99/3, Vishal Enclave, Bawana Road, Narela, North Delhi, Narela, New Delhi - 110040, Dist.Delhi, Delhi",8044565946,
Looped Maternity Pad Belt Type,https://www.indiamart.com/proddetail/looped-maternity-pad-belt-type-20305285362.html?pos=83&kwd=maternity belts&tags=||||9870.655|Price|product|||TS|rsf:gd-|-stype:attr=1|qr_nm:gd|res:RC3|com-cf:nl|ptrs:na|ktp:N0|mc:9909|mtp:S|qry_typ:P|lang:en|wc:2|cs:8794|v=4,Bengal Feminine Care,https://www.indiamart.com/bengal-feminine-care/?pos=83&kwd=maternity belts&tags=||||9870.655|Price|product|||TS|rsf:gd-|-stype:attr=1|qr_nm:gd|res:RC3|com-cf:nl|ptrs:na|ktp:N0|mc:9909|mtp:S|qry_typ:P|lang:en|wc:2|cs:8794|v=4,False,Barasat,Habra,"Habra, No. 2 ,Railway Gate, District North 24 Parganas, Barasat, Habra - 743263, Dist.North 24 Parganas, West Bengal",8046062955,
"Tynor - Pregnancy Back Support - A 20- S/M/L/XL/XXL, For Female",https://www.indiamart.com/proddetail/tynor-pregnancy-back-support-a-20-s-m-l-xl-xxl-20275495948.html?pos=84&kwd=maternity belts&tags=CC||||8281.036|Price|product|||TS|rsf:gd-|-stype:attr=1|qr_nm:gd|res:RC3|com-cf:nl|ptrs:na|ktp:N0|mc:9909|mtp:S|qry_typ:P|lang:en|wc:2|cs:8794|v=4,Bharucha Associates,https://www.bharuchaassociates.co.in/?pos=84&kwd=maternity belts&tags=CC||||8281.036|Price|product|||TS|rsf:gd-|-stype:attr=1|qr_nm:gd|res:RC3|com-cf:nl|ptrs:na|ktp:N0|mc:9909|mtp:S|qry_typ:P|lang:en|wc:2|cs:8794|v=4,False,Raopura,Vadodara,"9, Mama Ni Pole, Raopura Road, Raopura, Vadodara - 390001, Dist.Vadodara, Gujarat",8048601910,
"Elastic Maternity Belt, For Personal",https://www.indiamart.com/proddetail/elastic-maternity-belt-20674705462.html?pos=85&kwd=maternity belts&tags=CC||||8307.81|Price|product|||MDC|rsf:gd-|-stype:attr=1|qr_nm:gd|res:RC3|com-cf:nl|ptrs:na|ktp:N0|mc:9909|mtp:S|qry_typ:P|lang:en|wc:2|cs:8794|v=4,Navmaharashtra Enterprises,https://www.indiamart.com/navmaharashtraenterprisespune/?pos=85&kwd=maternity belts&tags=CC||||8307.81|Price|product|||MDC|rsf:gd-|-stype:attr=1|qr_nm:gd|res:RC3|com-cf:nl|ptrs:na|ktp:N0|mc:9909|mtp:S|qry_typ:P|lang:en|wc:2|cs:8794|v=4,False,Mohammed Wadi,Pune,"Cts No 1356, Shree Tirupati Balaji Co-Op Housing Society,,Near Cinema Chimnya Ganpati Chowk, Sadashi, Mohammed Wadi, Pune - 411030, Dist.Pune, Maharashtra",8048986562,
"FOX Cotton Pregnancy Support Belt, Size: S-XXL",https://www.indiamart.com/proddetail/pregnancy-support-belt-24930613562.html?pos=86&kwd=maternity belts&tags=||||8752.144|Price|product|||TS|rsf:gd-|-stype:attr=1|qr_nm:gd|res:RC3|com-cf:nl|ptrs:na|ktp:N0|mc:9909|mtp:S|qry_typ:P|lang:en|wc:2|cs:8794|v=4,Fox Orthotics Industries,https://www.indiamart.com/fox-orthotics-industries/?pos=86&kwd=maternity belts&tags=||||8752.144|Price|product|||TS|rsf:gd-|-stype:attr=1|qr_nm:gd|res:RC3|com-cf:nl|ptrs:na|ktp:N0|mc:9909|mtp:S|qry_typ:P|lang:en|wc:2|cs:8794|v=4,False,Sunder Nagri,New Delhi,"F-1/120, F/F, DDA Block-F1 Gali No. 7, Sunder Nagri, Sunder Nagri, New Delhi - 110093, Dist.Delhi, Delhi",8048612673,
"Neucell Maternity support, 1Pc. (XL) Abdominal Belt, Tummy Reduction",https://www.indiamart.com/proddetail/neucell-maternity-support-1pc-xl-abdominal-belt-tummy-reduction-2853630870991.html?pos=87&kwd=maternity belts&tags=CC||||8645.561|Price|product|||TS|rsf:gd-|-stype:attr=1|qr_nm:gd|res:RC3|com-cf:nl|ptrs:na|ktp:N0|mc:9909|mtp:S|qry_typ:P|lang:en|wc:2|cs:8794|v=4,Neucell Pharma Private Limited,https://www.neucellpharma.com/?pos=87&kwd=maternity belts&tags=CC||||8645.561|Price|product|||TS|rsf:gd-|-stype:attr=1|qr_nm:gd|res:RC3|com-cf:nl|ptrs:na|ktp:N0|mc:9909|mtp:S|qry_typ:P|lang:en|wc:2|cs:8794|v=4,False,Shakti Vihar,Bhiwani,"Plot No. 832 Brijwassi Colony Near Ekta high school, Shakti Vihar, Bhiwani - 127021, Dist.Bhiwani, Haryana",7942549226,
Wood Pulp Maternity Pad With Belt/ Hospital Maternity Pad,https://www.indiamart.com/proddetail/maternity-pad-with-belt-hospital-maternity-pad-24534760155.html?pos=88&kwd=maternity belts&tags=||||8739.675|Price|product|||TS|rsf:gd-|-stype:attr=1|qr_nm:gd|res:RC3|com-cf:nl|ptrs:na|ktp:N0|mc:9909|mtp:S|qry_typ:P|lang:en|wc:2|cs:8794|v=4,Brothers Enterprises,https://www.indiamart.com/brothersenterprisesamravati/?pos=88&kwd=maternity belts&tags=||||8739.675|Price|product|||TS|rsf:gd-|-stype:attr=1|qr_nm:gd|res:RC3|com-cf:nl|ptrs:na|ktp:N0|mc:9909|mtp:S|qry_typ:P|lang:en|wc:2|cs:8794|v=4,False,Shendurjana Ghat,Amravati,"RK Square, 91, Near SBI, Sawta Chowk, Shendurjana Ghat, Shendurjana Ghat, Amravati - 444907, Dist.Amravati, Maharashtra",7942541279,
Cotton Fighy Maternity Pads Belted,https://www.indiamart.com/proddetail/fighy-maternity-pads-belted-24728722991.html?pos=89&kwd=maternity belts&tags=||||8478.165|Price|product|||TS|rsf:gd-|-stype:attr=1|qr_nm:gd|res:RC3|com-cf:nl|ptrs:na|ktp:N0|mc:9909|mtp:S|qry_typ:P|lang:en|wc:2|cs:8794|v=4,P & Q Hygiene Products,https://www.indiamart.com/pqhygieneproducts/?pos=89&kwd=maternity belts&tags=||||8478.165|Price|product|||TS|rsf:gd-|-stype:attr=1|qr_nm:gd|res:RC3|com-cf:nl|ptrs:na|ktp:N0|mc:9909|mtp:S|qry_typ:P|lang:en|wc:2|cs:8794|v=4,False,,Thazhecode,"TP11/260 A, B, C, Olakkal Building, Thondimmal, Thiruvambadi, Thazhecode - 673603, Dist.Kozhikode, Kerala",7942532245,
STAYSURE MATERNITY PADS BELTED TYPE WITH ELASTIC WAIST BAND FREE INSIDE PACK OF 10PCS,https://www.indiamart.com/proddetail/staysure-maternity-pads-belted-type-with-elastic-waist-band-free-inside-pack-of-10pcs-22197101191.html?pos=90&kwd=maternity belts&tags=||||8307.81|Price|product|||TS|rsf:gd-|-stype:attr=1|qr_nm:gd|res:RC3|com-cf:nl|ptrs:na|ktp:N0|mc:9909|mtp:S|qry_typ:P|lang:en|wc:2|cs:8794|v=4,Eternis Hygiene Products,https://www.indiamart.com/eternis-hygiene-products/?pos=90&kwd=maternity belts&tags=||||8307.81|Price|product|||TS|rsf:gd-|-stype:attr=1|qr_nm:gd|res:RC3|com-cf:nl|ptrs:na|ktp:N0|mc:9909|mtp:S|qry_typ:P|lang:en|wc:2|cs:8794|v=4,False,Kharabwadi,Pune,"Plot No. 5, Gat No. 357/95 Waghjai Nagar, Kharabwadi, Chakan, Khed, Kharabwadi, Pune - 410501, Dist.Pune, Maharashtra",8046042766,
Cotton Maternity Pad Belt,https://www.indiamart.com/proddetail/maternity-pad-belt-2853677080230.html?pos=91&kwd=maternity belts&tags=||||8230.883|Price|product|||MDC|rsf:gd-|-stype:attr=1|qr_nm:gd|res:RC3|com-cf:nl|ptrs:na|ktp:N0|mc:9909|mtp:S|qry_typ:P|lang:en|wc:2|cs:8794|v=4,Zainab Enterprise,https://www.indiamart.com/zainabenterprise-surat/?pos=91&kwd=maternity belts&tags=||||8230.883|Price|product|||MDC|rsf:gd-|-stype:attr=1|qr_nm:gd|res:RC3|com-cf:nl|ptrs:na|ktp:N0|mc:9909|mtp:S|qry_typ:P|lang:en|wc:2|cs:8794|v=4,False,Begampura,Surat,"Shop No.5,Ground Floor,Al Meena Appt.,,2210 - Zapabazar,Zampa Surat Surat City, Begampura, Surat - 395003, Dist.Surat, Gujarat",8048956780,
Smilepad Belted Maternity Pads After Delivery for Women XXL Size Adjustable Elastic Belt,https://www.indiamart.com/proddetail/smilepad-belted-maternity-pads-after-delivery-for-women-xxl-size-adjustable-elastic-belt-2854185117930.html?pos=92&kwd=maternity belts&tags=||||8782.67|Price|product|||TS|rsf:gd-|-stype:attr=1|qr_nm:gd|res:RC3|com-cf:nl|ptrs:na|ktp:N0|mc:9909|mtp:S|qry_typ:P|lang:en|wc:2|cs:8794|v=4,Medisky Surgicals,https://www.indiamart.com/medisky-surgicals/?pos=92&kwd=maternity belts&tags=||||8782.67|Price|product|||TS|rsf:gd-|-stype:attr=1|qr_nm:gd|res:RC3|com-cf:nl|ptrs:na|ktp:N0|mc:9909|mtp:S|qry_typ:P|lang:en|wc:2|cs:8794|v=4,False,Uchipuli,Ramanathapuram,"12/2865-30, Pattinamkathan, Madurai Rameshwaram Road, Achchundanvayal, Uchipuli, Ramanathapuram - 623502, Dist.Ramanathapuram, Tamil Nadu",7942960183,
"Crafts Care Polyester Abdominal Rehabilitation Belts, For Use After Pregnancy",https://www.indiamart.com/proddetail/abdominal-rehabilitation-belts-22637988848.html?pos=93&kwd=maternity belts&tags=||||8752.144|Price|product|||MDC|rsf:gd-|-stype:attr=1|qr_nm:gd|res:RC3|com-cf:nl|ptrs:na|ktp:N0|mc:9909|mtp:S|qry_typ:P|lang:en|wc:2|cs:8794|v=4,Crafts Care,https://www.indiamart.com/crafts-care/?pos=93&kwd=maternity belts&tags=||||8752.144|Price|product|||MDC|rsf:gd-|-stype:attr=1|qr_nm:gd|res:RC3|com-cf:nl|ptrs:na|ktp:N0|mc:9909|mtp:S|qry_typ:P|lang:en|wc:2|cs:8794|v=4,False,Karawal Nagar,New Delhi,",B-474,INDIRA VIHAR,GALI NO. 4/6,MUTAFABAD,,, Karawal Nagar, New Delhi - 110094, Dist.Delhi, Delhi",8046032675,
Cotton Maternity Dresses,https://www.indiamart.com/proddetail/cotton-maternity-dresses-2853654737597.html?pos=94&kwd=maternity belts&tags=||||8601.347||product|||TS|rsf:gd-|-stype:attr=1|qr_nm:gd|res:RC3|com-cf:nl|ptrs:na|ktp:N0|mc:9909|mtp:S|qry_typ:P|lang:en|wc:2|cs:8794|v=4,Namokar Enterprises,https://www.indiamart.com/namokarenterprises/?pos=94&kwd=maternity belts&tags=||||8601.347||product|||TS|rsf:gd-|-stype:attr=1|qr_nm:gd|res:RC3|com-cf:nl|ptrs:na|ktp:N0|mc:9909|mtp:S|qry_typ:P|lang:en|wc:2|cs:8794|v=4,False,Mansarovar,Jaipur,"119/67, Thadi Market, Agarwal Farm, Mansarovar, Mansarovar, Jaipur - 302020, Dist.Jaipur, Rajasthan",8047530717,
Maternity Photo Shoot Long Tail Gown,https://www.indiamart.com/proddetail/maternity-photo-shoot-long-tail-gown-2853244876091.html?pos=95&kwd=maternity belts&tags=||||8230.883|Price|product|||TS|rsf:gd-|-stype:attr=1|qr_nm:gd|res:RC3|com-cf:nl|ptrs:na|ktp:N0|mc:9909|mtp:S|qry_typ:P|lang:en|wc:2|cs:8794|v=4,JSK Designer,https://www.jskdesigner.com/?pos=95&kwd=maternity belts&tags=||||8230.883|Price|product|||TS|rsf:gd-|-stype:attr=1|qr_nm:gd|res:RC3|com-cf:nl|ptrs:na|ktp:N0|mc:9909|mtp:S|qry_typ:P|lang:en|wc:2|cs:8794|v=4,False,,Surat,"C-4/405,Gadhpur Township, Kathodara Road, Pasodara, Surat - 394326, Dist.Surat, Gujarat",8048604591,
"Elvenwear Polyester Orthopedic Rehabilitation Belt, Size: Large",https://www.indiamart.com/proddetail/orthopedic-rehabilitation-belt-2853516076748.html?pos=96&kwd=maternity belts&tags=||||8752.144|Price|product|||TS|rsf:gd-|-stype:attr=1|qr_nm:gd|res:RC3|com-cf:nl|ptrs:na|ktp:N0|mc:9909|mtp:S|qry_typ:P|lang:en|wc:2|cs:8794|v=4,Elvenbird Enterprises Private Limited,https://www.indiamart.com/elvenbirdenterprises/?pos=96&kwd=maternity belts&tags=||||8752.144|Price|product|||TS|rsf:gd-|-stype:attr=1|qr_nm:gd|res:RC3|com-cf:nl|ptrs:na|ktp:N0|mc:9909|mtp:S|qry_typ:P|lang:en|wc:2|cs:8794|v=4,False,Ramesh Nagar,New Delhi,"Ground Floor, Ramesh Nagar, Block B Single Storey,, Ramesh Nagar, New Delhi - 110015, Dist.Delhi, Delhi",7942966112,
FOX Back Support Belts,https://www.indiamart.com/proddetail/back-support-belts-2852708760712.html?pos=97&kwd=maternity belts&tags=||||8752.144|Price|product|||TS|rsf:gd-|-stype:attr=1|qr_nm:gd|res:RC3|com-cf:nl|ptrs:na|ktp:N0|mc:9909|mtp:S|qry_typ:P|lang:en|wc:2|cs:8794|v=4,B R SURGICAL,https://www.indiamart.com/br-surgical-new-delhi/?pos=97&kwd=maternity belts&tags=||||8752.144|Price|product|||TS|rsf:gd-|-stype:attr=1|qr_nm:gd|res:RC3|com-cf:nl|ptrs:na|ktp:N0|mc:9909|mtp:S|qry_typ:P|lang:en|wc:2|cs:8794|v=4,False,Maujpur,New Delhi,"B-59 krishna kunj gali north ghonda, Maujpur, New Delhi - 110053, Dist.Delhi, Delhi",7942548507,
Non Woven Belted Maternity Pads,https://www.indiamart.com/proddetail/non-woven-belted-maternity-pads-20256620988.html?pos=98&kwd=maternity belts&tags=||||8211.142|Price|product|||TS|rsf:gd-|-stype:attr=1|qr_nm:gd|res:RC3|com-cf:nl|ptrs:na|ktp:N0|mc:9909|mtp:S|qry_typ:P|lang:en|wc:2|cs:8794|v=4,S A Enterprises,https://www.sanitarynapkinmachines.in/?pos=98&kwd=maternity belts&tags=||||8211.142|Price|product|||TS|rsf:gd-|-stype:attr=1|qr_nm:gd|res:RC3|com-cf:nl|ptrs:na|ktp:N0|mc:9909|mtp:S|qry_typ:P|lang:en|wc:2|cs:8794|v=4,False,Jogeshwari West,Mumbai,"Office No B/4 Diamond Sagar Apartment Near Markaz Restaurant Off To S.v. Road Jogeshwari West Mumbai, Jogeshwari West, Mumbai - 400102, Dist.Mumbai, Maharashtra",8048968650,
Micro Meditex Back Support Belt,https://www.indiamart.com/proddetail/back-support-belt-2853449473573.html?pos=99&kwd=maternity belts&tags=||||8513.271|Price|product|||TS|rsf:gd-|-stype:attr=1|qr_nm:gd|res:RC3|com-cf:nl|ptrs:na|ktp:N0|mc:9909|mtp:S|qry_typ:P|lang:en|wc:2|cs:8794|v=4,Micromeditex Pvt. Ltd.,https://www.indiamart.com/micromeditex-kerala/?pos=99&kwd=maternity belts&tags=||||8513.271|Price|product|||TS|rsf:gd-|-stype:attr=1|qr_nm:gd|res:RC3|com-cf:nl|ptrs:na|ktp:N0|mc:9909|mtp:S|qry_typ:P|lang:en|wc:2|cs:8794|v=4,False,Ernakulam,Aluva,"Ground Floor, XVI/359, Micro Meditex Pvt Ltd, Near Carmel Hospital, Asokapuram, Ernakulam, Ernakulam, Aluva - 683101, Dist.Ernakulam, Kerala",8048608073,
"Cotton Lumber Sacral Belt, Size: S,M,L,XL,XXL",https://www.indiamart.com/proddetail/lumbo-sacral-belt-27414944312.html?pos=100&kwd=maternity belts&tags=||||9829.308|Price|product|||TS|rsf:gd-|-stype:attr=1|qr_nm:gd|res:RC3|com-cf:nl|ptrs:na|ktp:N0|mc:9909|mtp:S|qry_typ:P|lang:en|wc:2|cs:8794|v=4,Vcor Health Care,https://www.indiamart.com/vcorhealthcare/?pos=100&kwd=maternity belts&tags=||||9829.308|Price|product|||TS|rsf:gd-|-stype:attr=1|qr_nm:gd|res:RC3|com-cf:nl|ptrs:na|ktp:N0|mc:9909|mtp:S|qry_typ:P|lang:en|wc:2|cs:8794|v=4,False,Shibpur,Howrah,"14a Sri Hari Na Para Lane Howrah, Shibpur, Howrah - 711102, Dist.Howrah, West Bengal",8047552532,
New Mom Disposable Maternity Pads,https://www.indiamart.com/proddetail/new-mom-disposable-maternity-pads-20009284548.html?pos=101&kwd=maternity belts&tags=||||8954.051|Price|product|||TS|rsf:gd-|-stype:attr=1|qr_nm:gd|res:RC3|com-cf:nl|ptrs:na|ktp:N0|mc:9909|mtp:S|qry_typ:P|lang:en|wc:2|cs:8794|v=4,Auro Mira Medi Aids,https://www.indiamart.com/auromiramediaids/?pos=101&kwd=maternity belts&tags=||||8954.051|Price|product|||TS|rsf:gd-|-stype:attr=1|qr_nm:gd|res:RC3|com-cf:nl|ptrs:na|ktp:N0|mc:9909|mtp:S|qry_typ:P|lang:en|wc:2|cs:8794|v=4,False,Adyar,Chennai,"New No. 36, Old No. 32, Shriram Nagar Main Road, Adyar, Chennai - 600113, Dist.Chennai, Tamil Nadu",8048988682,
Puthumai Cotton Maternity Pads,https://www.indiamart.com/proddetail/puthumai-cotton-maternity-pads-2854807391297.html?pos=102&kwd=maternity belts&tags=||||8636.575|Price|product|||MDC|rsf:gd-|-stype:attr=1|qr_nm:gd|res:RC3|com-cf:nl|ptrs:na|ktp:N0|mc:9909|mtp:S|qry_typ:P|lang:en|wc:2|cs:8794|v=4,Ultra Napkins,https://www.indiamart.com/ultra-napkins/?pos=102&kwd=maternity belts&tags=||||8636.575|Price|product|||MDC|rsf:gd-|-stype:attr=1|qr_nm:gd|res:RC3|com-cf:nl|ptrs:na|ktp:N0|mc:9909|mtp:S|qry_typ:P|lang:en|wc:2|cs:8794|v=4,False,,Theni Allinagaram,"43G/W1 Annamalai Nagar, 3rd Street, Koduvilarpatty, Theni Allinagaram - 625534, Tamil Nadu",8041015597,
PRINTED MAROON COTTON CO-ORD SET,https://www.indiamart.com/proddetail/printed-maroon-cotton-co-ord-set-2853856037055.html?pos=103&kwd=maternity belts&tags=||||8601.347|Price|product|||TS|rsf:gd-|-stype:attr=1|qr_nm:gd|res:RC3|com-cf:nl|ptrs:na|ktp:N0|mc:9909|mtp:S|qry_typ:P|lang:en|wc:2|cs:8794|v=4,Shree Shyam Creation,https://www.shreeshyamcreations.in/?pos=103&kwd=maternity belts&tags=||||8601.347|Price|product|||TS|rsf:gd-|-stype:attr=1|qr_nm:gd|res:RC3|com-cf:nl|ptrs:na|ktp:N0|mc:9909|mtp:S|qry_typ:P|lang:en|wc:2|cs:8794|v=4,False,Sanganer,Jaipur,"Saini Bhawan, 18, Kanwar Ka Bag Ladko Ki Dhani Panchavti Colony, Sanganer, Sanganer, Jaipur - 302011, Dist.Jaipur, Rajasthan",7942717795,
"Fetal Monitor Transducer Belt, Large",https://www.indiamart.com/proddetail/fetal-monitor-belts-2854694738912.html?pos=104&kwd=maternity belts&tags=||||8785.791|Price|product|||TS|rsf:gd-|-stype:attr=1|qr_nm:gd|res:RC3|com-cf:nl|ptrs:na|ktp:N0|mc:9909|mtp:S|qry_typ:P|lang:en|wc:2|cs:8794|v=4,Nivan Healthcare Solutions,https://www.indiamart.com/nivanhealthcaresolutions/?pos=104&kwd=maternity belts&tags=||||8785.791|Price|product|||TS|rsf:gd-|-stype:attr=1|qr_nm:gd|res:RC3|com-cf:nl|ptrs:na|ktp:N0|mc:9909|mtp:S|qry_typ:P|lang:en|wc:2|cs:8794|v=4,False,Raj Nagar Extension,Ghaziabad,"26B/1 Laxmi Vihar Colony, Basant Road, Raj Nagar Extension, Ghaziabad - 201001, Dist.Ghaziabad, Uttar Pradesh",8047546044,
Orthowrap OW230 Neoprene Maternity Belts,https://www.indiamart.com/proddetail/orthowrap-ow230-neoprene-maternity-belts-2854204491112.html?pos=105&kwd=maternity belts&tags=||||9110.092|Price|product|||TS|rsf:gd-|-stype:attr=1|qr_nm:gd|res:RC3|com-cf:nl|ptrs:na|ktp:N0|mc:9909|mtp:S|qry_typ:P|lang:en|wc:2|cs:8794|v=4,M K Manufacture & Supplier,https://www.indiamart.com/mkmanufacture-supplier/?pos=105&kwd=maternity belts&tags=||||9110.092|Price|product|||TS|rsf:gd-|-stype:attr=1|qr_nm:gd|res:RC3|com-cf:nl|ptrs:na|ktp:N0|mc:9909|mtp:S|qry_typ:P|lang:en|wc:2|cs:8794|v=4,False,Vrindavan vihar colony,Lucknow,"656/5/1727a, Mohammadpur Khatri, Bahadurpur, Near Back Side Of Electric House, Vrindavan Vihar, Vrindavan vihar colony, Lucknow - 226022, Dist.Lucknow, Uttar Pradesh",8045733399,
"MKP Polyester Pregnancy Back Support Belts, Size: XL",https://www.indiamart.com/proddetail/pregnancy-back-support-belts-25515432562.html?pos=106&kwd=maternity belts&tags=||||8954.051|Price|product|||MDC|rsf:gd-|-stype:attr=1|qr_nm:gd|res:RC3|com-cf:nl|ptrs:na|ktp:N0|mc:9909|mtp:S|qry_typ:P|lang:en|wc:2|cs:8794|v=4,JPS Marketing,https://www.indiamart.com/jps-marketing/?pos=106&kwd=maternity belts&tags=||||8954.051|Price|product|||MDC|rsf:gd-|-stype:attr=1|qr_nm:gd|res:RC3|com-cf:nl|ptrs:na|ktp:N0|mc:9909|mtp:S|qry_typ:P|lang:en|wc:2|cs:8794|v=4,False,Mugappair,Chennai,"No.4/31, First Floor, 4th Block, Mugappair,, Mugappair, Chennai - 600037, Dist.Chennai, Tamil Nadu",8047660327,
"Pregnancy Back Support, Size: M",https://www.indiamart.com/proddetail/pregnancy-back-support-8915592148.html?pos=107&kwd=maternity belts&tags=||||8746.929|Price|product|||TS|rsf:gd-|-stype:attr=1|qr_nm:gd|res:RC3|com-cf:nl|ptrs:na|ktp:N0|mc:9909|mtp:S|qry_typ:P|lang:en|wc:2|cs:8794|v=4,Tinbro Bharat Healthcare (Unit Of Tinbro Bharat Medical Stores),https://www.tinbro.com/?pos=107&kwd=maternity belts&tags=||||8746.929|Price|product|||TS|rsf:gd-|-stype:attr=1|qr_nm:gd|res:RC3|com-cf:nl|ptrs:na|ktp:N0|mc:9909|mtp:S|qry_typ:P|lang:en|wc:2|cs:8794|v=4,False,Sector 16-D,Chandigarh,"SCF-23, Adjacent Post Office, Sector 16-D, Sector 16-D, Chandigarh - 160015, Chandigarh",8047646273,
"Tynor Pregnancy Back Support, Size: Free Size",https://www.indiamart.com/proddetail/pregnancy-back-support-2850457871433.html?pos=108&kwd=maternity belts&tags=||||8307.81|Price|product|||TS|rsf:gd-|-stype:attr=1|qr_nm:gd|res:RC3|com-cf:nl|ptrs:na|ktp:N0|mc:9909|mtp:S|qry_typ:P|lang:en|wc:2|cs:8794|v=4,MRM Healthcare,https://www.mrmhealthcare.com/?pos=108&kwd=maternity belts&tags=||||8307.81|Price|product|||TS|rsf:gd-|-stype:attr=1|qr_nm:gd|res:RC3|com-cf:nl|ptrs:na|ktp:N0|mc:9909|mtp:S|qry_typ:P|lang:en|wc:2|cs:8794|v=4,False,Hadapsar,Pune,"Ground Floor Shope Number 1, H No 1355, Unit No 1 Suyog Apartment Chimnya Ganpati Chowk, Near Chimnya Ganpati Chowk. Bajirao Road Sadashiv Peth, Hadapsar, Pune - 411030, Dist.Pune, Maharashtra",7942800377,
TYNOR PREGNANCY BACK SUPPORT,https://www.indiamart.com/proddetail/tynor-pregnancy-back-support-2853285263862.html?pos=109&kwd=maternity belts&tags=||||8268.494|Price|product|||TS|rsf:gd-|-stype:attr=1|qr_nm:gd|res:RC3|com-cf:nl|ptrs:na|ktp:N0|mc:9909|mtp:S|qry_typ:P|lang:en|wc:2|cs:8794|v=4,Medco Distributors,https://www.medcodistributors.in/?pos=109&kwd=maternity belts&tags=||||8268.494|Price|product|||TS|rsf:gd-|-stype:attr=1|qr_nm:gd|res:RC3|com-cf:nl|ptrs:na|ktp:N0|mc:9909|mtp:S|qry_typ:P|lang:en|wc:2|cs:8794|v=4,False,Sindhi Colony,Abu Road,"Ground Floor, Gujrati Kumar Mohalla, Sindhi Colony, Abu Road - 307026, Dist.Sirohi, Rajasthan",8046033758,
"Neoprene Pregnancy Back Support, Size: S, M, L, XL",https://www.indiamart.com/proddetail/pregnancy-back-support-20684849655.html?pos=110&kwd=maternity belts&tags=||||8752.144|Price|product|||TS|rsf:gd-|-stype:attr=1|qr_nm:gd|res:RC3|com-cf:nl|ptrs:na|ktp:N0|mc:9909|mtp:S|qry_typ:P|lang:en|wc:2|cs:8794|v=4,Rudra Brothers Trading Company,https://www.indiamart.com/rudrabrotherstrading/?pos=110&kwd=maternity belts&tags=||||8752.144|Price|product|||TS|rsf:gd-|-stype:attr=1|qr_nm:gd|res:RC3|com-cf:nl|ptrs:na|ktp:N0|mc:9909|mtp:S|qry_typ:P|lang:en|wc:2|cs:8794|v=4,False,Mohan Garden,New Delhi,"Second Floor, B-50, Block-b, Uttam Nagar, Dk Road, Mohan Garden, South West Delhi, Mohan Garden, New Delhi - 110059, Dist.Delhi, Delhi",8046044095,
Maternity Gown On Rent,https://www.indiamart.com/proddetail/maternity-gown-on-rent-2853989995412.html?pos=111&kwd=maternity belts&tags=||||8228.275|Price|product|||TS|rsf:gd-|-stype:attr=1|qr_nm:gd|res:RC3|com-cf:nl|ptrs:na|ktp:N0|mc:9909|mtp:S|qry_typ:P|lang:en|wc:2|cs:8794|v=4,Gitanjali Enterprise,https://www.indiamart.com/gitanjali-enterprise-ahmedabad/?pos=111&kwd=maternity belts&tags=||||8228.275|Price|product|||TS|rsf:gd-|-stype:attr=1|qr_nm:gd|res:RC3|com-cf:nl|ptrs:na|ktp:N0|mc:9909|mtp:S|qry_typ:P|lang:en|wc:2|cs:8794|v=4,False,Isanpur,Ahmedabad,"Near Jognimata Temple, Isanpur Gam, Isanpur, Isanpur, Ahmedabad - 382443, Dist.Ahmedabad, Gujarat",8047640750,
"P Care Pregnancy Back Support Belt, Size: Free Size",https://www.indiamart.com/proddetail/p-care-pregnancy-back-support-belt-2854107645788.html?pos=112&kwd=maternity belts&tags=||||8281.036|Price|product|||MDC|rsf:gd-|-stype:attr=1|qr_nm:gd|res:RC3|com-cf:nl|ptrs:na|ktp:N0|mc:9909|mtp:S|qry_typ:P|lang:en|wc:2|cs:8794|v=4,Krishna Surgical,https://www.indiamart.com/krishnasurgicalvadodara/?pos=112&kwd=maternity belts&tags=||||8281.036|Price|product|||MDC|rsf:gd-|-stype:attr=1|qr_nm:gd|res:RC3|com-cf:nl|ptrs:na|ktp:N0|mc:9909|mtp:S|qry_typ:P|lang:en|wc:2|cs:8794|v=4,False,Manjalpur,Vadodara,"D 227 - 228, Kashi Vishweshwar Township, Jetalpur Road, Manjalpur, Vadodara - 390007, Dist.Vadodara, Gujarat",8045736026,
"Elastic Maternity Belt, For Personal",https://www.indiamart.com/proddetail/elastic-maternity-belt-20674705462.html?pos=113&kwd=maternity belts&tags=||||8307.81|Price|product|||MDC|rsf:gd-|-stype:attr=1|qr_nm:gd|res:RC3|com-cf:nl|ptrs:na|ktp:N0|mc:9909|mtp:S|qry_typ:P|lang:en|wc:2|cs:8794|v=4,Navmaharashtra Enterprises,https://www.indiamart.com/navmaharashtraenterprisespune/?pos=113&kwd=maternity belts&tags=||||8307.81|Price|product|||MDC|rsf:gd-|-stype:attr=1|qr_nm:gd|res:RC3|com-cf:nl|ptrs:na|ktp:N0|mc:9909|mtp:S|qry_typ:P|lang:en|wc:2|cs:8794|v=4,False,Mohammed Wadi,Pune,"Cts No 1356, Shree Tirupati Balaji Co-Op Housing Society,,Near Cinema Chimnya Ganpati Chowk, Sadashi, Mohammed Wadi, Pune - 411030, Dist.Pune, Maharashtra",8048986562,
"Leeford Pregnancy Back Support, Size: Free Size",https://www.indiamart.com/proddetail/leeford-pregnancy-back-support-2854535867612.html?pos=114&kwd=maternity belts&tags=||||8641.487||product|||MDC|rsf:gd-|-stype:attr=1|qr_nm:gd|res:RC3|com-cf:nl|ptrs:na|ktp:N0|mc:9909|mtp:S|qry_typ:P|lang:en|wc:2|cs:8794|v=4,Bhartiya Pharma Distributors,https://www.indiamart.com/bhartiyapharmadistributors/?pos=114&kwd=maternity belts&tags=||||8641.487||product|||MDC|rsf:gd-|-stype:attr=1|qr_nm:gd|res:RC3|com-cf:nl|ptrs:na|ktp:N0|mc:9909|mtp:S|qry_typ:P|lang:en|wc:2|cs:8794|v=4,False,Central Town,Jalandhar,"Vi 1st Floor Gole Market Milap Road Jalandhar, Central Town, Jalandhar - 144001, Dist.Jalandhar, Punjab",7949328744,
"Pregnancy Back Support, Size: M",https://www.indiamart.com/proddetail/pregnancy-back-support-2853248406597.html?pos=115&kwd=maternity belts&tags=||||8788.382|Price|product|||MDC|rsf:gd-|-stype:attr=1|qr_nm:gd|res:RC3|com-cf:nl|ptrs:na|ktp:N0|mc:9909|mtp:S|qry_typ:P|lang:en|wc:2|cs:8794|v=4,Scientific Supplies Corporation,https://www.indiamart.com/scientific-supplies-corporation/?pos=115&kwd=maternity belts&tags=||||8788.382|Price|product|||MDC|rsf:gd-|-stype:attr=1|qr_nm:gd|res:RC3|com-cf:nl|ptrs:na|ktp:N0|mc:9909|mtp:S|qry_typ:P|lang:en|wc:2|cs:8794|v=4,False,Gamma 1,Greater Noida,"Shop No. 63, Jagat Plaza 2, Jagat Farm, Sector Gamma 1, Gamma 1, Greater Noida - 201308, Dist.Gautam Budh Nagar, Uttar Pradesh",7948548083,
"Tynor Maternity Belt, For Clinical",https://www.indiamart.com/proddetail/tynor-maternity-belt-2854076812255.html?pos=116&kwd=maternity belts&tags=||||8228.275|Price|product|||MDC|rsf:gd-|-stype:attr=1|qr_nm:gd|res:RC3|com-cf:nl|ptrs:na|ktp:N0|mc:9909|mtp:S|qry_typ:P|lang:en|wc:2|cs:8794|v=4,Christ Care Surgicals,https://www.indiamart.com/christcaresurgicals/?pos=116&kwd=maternity belts&tags=||||8228.275|Price|product|||MDC|rsf:gd-|-stype:attr=1|qr_nm:gd|res:RC3|com-cf:nl|ptrs:na|ktp:N0|mc:9909|mtp:S|qry_typ:P|lang:en|wc:2|cs:8794|v=4,False,,Ahmedabad,"First Floor, Shop No 1, Vinayak Complex, Station Road, Vardayni Dairy Product, Bareja,, Ahmedabad - 382425, Dist.Ahmedabad, Gujarat",8044564421,
Carefor Cotton Maternity Pads,https://www.indiamart.com/proddetail/carefor-cotton-maternity-pads-21479383788.html?pos=117&kwd=maternity belts&tags=||||8500.97|Price|product|||TS|rsf:gd-|-stype:attr=1|qr_nm:gd|res:RC3|com-cf:nl|ptrs:na|ktp:N0|mc:9909|mtp:S|qry_typ:P|lang:en|wc:2|cs:8794|v=4,Arambans Exporters Private Limited,https://www.indiamart.com/arambansexporters/?pos=117&kwd=maternity belts&tags=||||8500.97|Price|product|||TS|rsf:gd-|-stype:attr=1|qr_nm:gd|res:RC3|com-cf:nl|ptrs:na|ktp:N0|mc:9909|mtp:S|qry_typ:P|lang:en|wc:2|cs:8794|v=4,False,Kuriachira,Thrissur,"Attokaran, TT Road, Kuriachira PO, Kuriachira, Thrissur - 680006, Dist.Thrissur, Kerala",8046058355,
Maternity Wear Kurtis,https://www.indiamart.com/proddetail/maternity-wear-kurtis-2852705869133.html?pos=118&kwd=maternity belts&tags=||||8601.347|Price|product|||TS|rsf:gd-|-stype:attr=1|qr_nm:gd|res:RC3|com-cf:nl|ptrs:na|ktp:N0|mc:9909|mtp:S|qry_typ:P|lang:en|wc:2|cs:8794|v=4,Aanadhya Fashion,https://www.indiamart.com/aanadhya-fashion-jaipur/?pos=118&kwd=maternity belts&tags=||||8601.347|Price|product|||TS|rsf:gd-|-stype:attr=1|qr_nm:gd|res:RC3|com-cf:nl|ptrs:na|ktp:N0|mc:9909|mtp:S|qry_typ:P|lang:en|wc:2|cs:8794|v=4,False,Shikarpura,Jaipur,"14, Govind Nagar, Goolar Ka Bandha, Shikarpura Road, Sanganer, Shikarpura, Jaipur - 302029, Dist.Jaipur, Rajasthan",7942958103,
"Maternity Support Belt, For WHOLESALE",https://www.indiamart.com/proddetail/maternity-support-belt-23191657433.html?pos=119&kwd=maternity belts&tags=||||8559.269|Price|product|||TS|rsf:gd-|-stype:attr=1|qr_nm:gd|res:RC3|com-cf:nl|ptrs:na|ktp:N0|mc:9909|mtp:S|qry_typ:P|lang:en|wc:2|cs:8794|v=4,Samadhi Samadha Pharmacy,https://www.surgicalglovesindia.com/?pos=119&kwd=maternity belts&tags=||||8559.269|Price|product|||TS|rsf:gd-|-stype:attr=1|qr_nm:gd|res:RC3|com-cf:nl|ptrs:na|ktp:N0|mc:9909|mtp:S|qry_typ:P|lang:en|wc:2|cs:8794|v=4,False,Professors Colony,Indore,"plot no 38, 1,2 and 3rd floor, Shivswarop Heights, Mangal Nagar, Near Rajiv Gandhi Chouraha,, Professors Colony, Indore - 452001, Dist.Indore, Madhya Pradesh",8048981682,
Flexible cotton Costco Abdominal Belt Support Ortho Rehablitation,https://www.indiamart.com/proddetail/costco-abdominal-belt-support-ortho-rehablitation-2854130955312.html?pos=120&kwd=maternity belts&tags=||||8817.752|Price|product|||MDC|rsf:gd-|-stype:attr=1|qr_nm:gd|res:RC3|com-cf:nl|ptrs:na|ktp:N0|mc:9909|mtp:S|qry_typ:P|lang:en|wc:2|cs:8794|v=4,Costco Industries,https://www.indiamart.com/goel-pharma/?pos=120&kwd=maternity belts&tags=||||8817.752|Price|product|||MDC|rsf:gd-|-stype:attr=1|qr_nm:gd|res:RC3|com-cf:nl|ptrs:na|ktp:N0|mc:9909|mtp:S|qry_typ:P|lang:en|wc:2|cs:8794|v=4,False,,Hapur,"Ground Floor, Shop No. 11, Shri Ram Plaza, Delhi Garh Road,, Hapur - 245101, Dist.Hapur, Uttar Pradesh",8043867751,
Swing Breast Pump,https://www.indiamart.com/proddetail/swing-breast-pump-6221388630.html?pos=121&kwd=maternity belts&tags=||||8211.142|Price|product|||TS|rsf:gd-|-stype:attr=1|qr_nm:gd|res:RC3|com-cf:nl|ptrs:na|ktp:N0|mc:9909|mtp:S|qry_typ:P|lang:en|wc:2|cs:8794|v=4,Seward Systems Inc,https://www.indiamart.com/seward-systems/?pos=121&kwd=maternity belts&tags=||||8211.142|Price|product|||TS|rsf:gd-|-stype:attr=1|qr_nm:gd|res:RC3|com-cf:nl|ptrs:na|ktp:N0|mc:9909|mtp:S|qry_typ:P|lang:en|wc:2|cs:8794|v=4,False,Borivali East,Mumbai,"No. 302, Triveni Krupa Building, Carter Road, No. 3, Borivali East, Mumbai - 400066, Dist.Mumbai, Maharashtra",8048602086,
Cotton Grey L S belt twill elastic,https://www.indiamart.com/proddetail/l-s-belt-twill-elastic-2853600609988.html?pos=122&kwd=maternity belts&tags=||||8752.144|Price|product|||MDC|rsf:gd-|-stype:attr=1|qr_nm:gd|res:RC3|com-cf:nl|ptrs:na|ktp:N0|mc:9909|mtp:S|qry_typ:P|lang:en|wc:2|cs:8794|v=4,AP Orthopaedic Enterprises,https://www.indiamart.com/aporthopaedic-enterprises/?pos=122&kwd=maternity belts&tags=||||8752.144|Price|product|||MDC|rsf:gd-|-stype:attr=1|qr_nm:gd|res:RC3|com-cf:nl|ptrs:na|ktp:N0|mc:9909|mtp:S|qry_typ:P|lang:en|wc:2|cs:8794|v=4,False,Najafgarh,New Delhi,"Ground Floor, Plot No.-37, MS-Block, Ranaji Enclave, Najafgarh,West, Najafgarh, New Delhi - 110043, Dist.Delhi, Delhi",8047769637,
Cotton Maternity Pads,https://www.indiamart.com/proddetail/cotton-maternity-pads-2852725503333.html?pos=123&kwd=maternity belts&tags=||||8235.23|Price|product|||TS|rsf:gd-|-stype:attr=1|qr_nm:gd|res:RC3|com-cf:nl|ptrs:na|ktp:N0|mc:9909|mtp:S|qry_typ:P|lang:en|wc:2|cs:8794|v=4,Kallisto Hygiene Private Limited,https://www.indiamart.com/kallisto-hygiene/?pos=123&kwd=maternity belts&tags=||||8235.23|Price|product|||TS|rsf:gd-|-stype:attr=1|qr_nm:gd|res:RC3|com-cf:nl|ptrs:na|ktp:N0|mc:9909|mtp:S|qry_typ:P|lang:en|wc:2|cs:8794|v=4,False,,Dombivli,"SHOP NO. 11,SADHANA SAMADHAN CHS,SUBHASH ROAD, MARUTI MANDIR,DOMBIVALI, Dombivli - 421202, Dist.Thane, Maharashtra",8043859536,
Abdominal Hernia Support Belt - Premium Tummy Tucker for Pain Relief & Post-Surgery Recovery,https://www.indiamart.com/proddetail/abdominal-hernia-support-belt-premium-tummy-tucker-for-pain-relief-post-surgery-recovery-23563158273.html?pos=124&kwd=maternity belts&tags=||||8741.812|Price|product|||TS|rsf:gd-|-stype:attr=1|qr_nm:gd|res:RC3|com-cf:nl|ptrs:na|ktp:N0|mc:9909|mtp:S|qry_typ:P|lang:en|wc:2|cs:8794|v=4,Axel Orthotics,https://www.axelorthotics.in/?pos=124&kwd=maternity belts&tags=||||8741.812|Price|product|||TS|rsf:gd-|-stype:attr=1|qr_nm:gd|res:RC3|com-cf:nl|ptrs:na|ktp:N0|mc:9909|mtp:S|qry_typ:P|lang:en|wc:2|cs:8794|v=4,False,New Colony,Gurgaon,"Bhim Nagar, Sector-7, New Colony, Gurgaon - 122001, Dist.Gurgaon, Haryana",8048964318,
Rebuilt Abdominal Support Belt,https://www.indiamart.com/proddetail/rebuilt-abdominal-support-belt-19271114662.html?pos=125&kwd=maternity belts&tags=||||8752.144|Price|product|||TS|rsf:gd-|-stype:attr=1|qr_nm:gd|res:RC3|com-cf:nl|ptrs:na|ktp:N0|mc:9909|mtp:S|qry_typ:P|lang:en|wc:2|cs:8794|v=4,Rebuilt Prosthetics And Orthotics,https://www.artificiallimbsmanufacturer.com/?pos=125&kwd=maternity belts&tags=||||8752.144|Price|product|||TS|rsf:gd-|-stype:attr=1|qr_nm:gd|res:RC3|com-cf:nl|ptrs:na|ktp:N0|mc:9909|mtp:S|qry_typ:P|lang:en|wc:2|cs:8794|v=4,False,Uttam Nagar,New Delhi,"B 150a, Kh. No. 575, Pratap Garden, Near Pratap Model School, Uttam Nagar, Uttam Nagar, New Delhi - 110059, Dist.Delhi, Delhi",8048964890,
Georgette Janasya Women's Multicolour Cotton Geometric A-Line Maternity Dress,https://www.indiamart.com/proddetail/janasya-women-s-multicolour-cotton-geometric-a-line-maternity-dress-25590678762.html?pos=126&kwd=maternity belts&tags=||||8230.883|Price|product|||TS|rsf:gd-|-stype:attr=1|qr_nm:gd|res:RC3|com-cf:nl|ptrs:na|ktp:N0|mc:9909|mtp:S|qry_typ:P|lang:en|wc:2|cs:8794|v=4,Thread Bucket Studio LLP,https://www.threadbucketstudio.in/?pos=126&kwd=maternity belts&tags=||||8230.883|Price|product|||TS|rsf:gd-|-stype:attr=1|qr_nm:gd|res:RC3|com-cf:nl|ptrs:na|ktp:N0|mc:9909|mtp:S|qry_typ:P|lang:en|wc:2|cs:8794|v=4,False,Udhna,Surat,"A-15/4 Road No. 8, Udhna, Surat - 394210, Dist.Surat, Gujarat",8046052440,
Women Maternity Clothes,https://www.indiamart.com/proddetail/women-maternity-clothes-2853343819948.html?pos=127&kwd=maternity belts&tags=||||8601.347|Price|product|||TS|rsf:gd-|-stype:attr=1|qr_nm:gd|res:RC3|com-cf:nl|ptrs:na|ktp:N0|mc:9909|mtp:S|qry_typ:P|lang:en|wc:2|cs:8794|v=4,Aaivan Fashion Hubb,https://www.indiamart.com/aaivanfashionhub/?pos=127&kwd=maternity belts&tags=||||8601.347|Price|product|||TS|rsf:gd-|-stype:attr=1|qr_nm:gd|res:RC3|com-cf:nl|ptrs:na|ktp:N0|mc:9909|mtp:S|qry_typ:P|lang:en|wc:2|cs:8794|v=4,False,Sitapura Industrial Area,Jaipur,"2nd Floor, C-49 Raj Complex, Sitapura Industrial Area, Sitapura Industrial Area, Jaipur - 302022, Dist.Jaipur, Rajasthan",7942714492,
Maternity Belt,,DKBD Private Limited,https://www.indiamart.com/dkbdguduvancheri/?pos=128&kwd=maternity belts&tags=||||8929.652|Price|product|||TS|rsf:gd-|-stype:attr=1|qr_nm:gd|res:RC3|com-cf:nl|ptrs:na|ktp:N0|mc:9909|mtp:S|qry_typ:P|lang:en|wc:2|cs:8794|v=4,False,Medavakkam,Nandivaram-Guduvancheri,"No.10 Adhanur Nandivaram Guduvancheri, Medavakkam, Nandivaram-Guduvancheri - 603202, Tamil Nadu",8046076801,
"Electric Breast Pump, For Boiler Feeding",https://www.indiamart.com/proddetail/electric-breast-pump-2849745452930.html?pos=129&kwd=maternity belts&tags=||||8752.144|Price|product|||TS|rsf:gd-|-stype:attr=1|qr_nm:gd|res:RC3|com-cf:nl|ptrs:na|ktp:N0|mc:9909|mtp:S|qry_typ:P|lang:en|wc:2|cs:8794|v=4,Pal Surgical Works,https://www.medicalequipmentsupply.in/?pos=129&kwd=maternity belts&tags=||||8752.144|Price|product|||TS|rsf:gd-|-stype:attr=1|qr_nm:gd|res:RC3|com-cf:nl|ptrs:na|ktp:N0|mc:9909|mtp:S|qry_typ:P|lang:en|wc:2|cs:8794|v=4,True,Delhi,New Delhi,"Khasra No.9/13, H.No.5, Street No.2, Sonu Farm House, Jawahar Nagar, Delhi, New Delhi - 110094, Dist.Delhi, Delhi",8048969369,
"Ladies Pure Cotton Printed Maternity Nightgowns, Blue(Base)",https://www.indiamart.com/proddetail/ladies-pure-cotton-printed-maternity-nightgowns-2854047965691.html?pos=130&kwd=maternity belts&tags=||||8601.347|Price|product|||TS|rsf:gd-|-stype:attr=1|qr_nm:gd|res:RC3|com-cf:nl|ptrs:na|ktp:N0|mc:9909|mtp:S|qry_typ:P|lang:en|wc:2|cs:8794|v=4,Rushi Creation,https://www.indiamart.com/rushicreationjaipur/?pos=130&kwd=maternity belts&tags=||||8601.347|Price|product|||TS|rsf:gd-|-stype:attr=1|qr_nm:gd|res:RC3|com-cf:nl|ptrs:na|ktp:N0|mc:9909|mtp:S|qry_typ:P|lang:en|wc:2|cs:8794|v=4,False,Sanganer,Jaipur,"Showroom No.G-24,Ground Floor,Fagna Plaza,Nagar Nigam Road,Jaipur, Sanganer, Jaipur - 302029, Dist.Jaipur, Rajasthan",8044562714,
"Oscar Various Pregnancy Pillow - Maternity Body Pillow In Cotton Jersey Fabric, One, Size/Dimension: 55",https://www.indiamart.com/proddetail/pregnancy-pillow-maternity-body-pillow-in-cotton-jersey-fabric-14285244491.html?pos=131&kwd=maternity belts&tags=||||8778.123|Price|product|||TS|rsf:gd-|-stype:attr=1|qr_nm:gd|res:RC3|com-cf:nl|ptrs:na|ktp:N0|mc:9909|mtp:S|qry_typ:P|lang:en|wc:2|cs:8794|v=4,Oscar Overseas,https://www.oscar-india.com/?pos=131&kwd=maternity belts&tags=||||8778.123|Price|product|||TS|rsf:gd-|-stype:attr=1|qr_nm:gd|res:RC3|com-cf:nl|ptrs:na|ktp:N0|mc:9909|mtp:S|qry_typ:P|lang:en|wc:2|cs:8794|v=4,False,,Noida,"A-99 Sector 5, Noida - 201301, Dist.Gautam Budh Nagar, Uttar Pradesh",8046058290,
Maternity Support Belt,https://www.indiamart.com/proddetail/maternity-support-belt-2852843883448.html?pos=132&kwd=maternity belts&tags=||||8785.791|Price|product|||TS|rsf:gd-|-stype:attr=1|qr_nm:gd|res:RC3|com-cf:nl|ptrs:na|ktp:N0|mc:9909|mtp:S|qry_typ:P|lang:en|wc:2|cs:8794|v=4,Hiakan International,https://www.hiakan.com/?pos=132&kwd=maternity belts&tags=||||8785.791|Price|product|||TS|rsf:gd-|-stype:attr=1|qr_nm:gd|res:RC3|com-cf:nl|ptrs:na|ktp:N0|mc:9909|mtp:S|qry_typ:P|lang:en|wc:2|cs:8794|v=4,False,Rajendra Nagar,Ghaziabad,"Kh No.-3539, Raghubeer Enclave,Paragana Loni,, Rajendra Nagar, Ghaziabad - 201005, Dist.Ghaziabad, Uttar Pradesh",8047645889,
"L S Belt Lumbopore A-04, For Patient",https://www.indiamart.com/proddetail/l-s-belt-lumbopore-a-04-22527274697.html?pos=133&kwd=maternity belts&tags=||||8571.301|Price|product|||TS|rsf:gd-|-stype:attr=1|qr_nm:gd|res:RC3|com-cf:nl|ptrs:na|ktp:N0|mc:9909|mtp:S|qry_typ:P|lang:en|wc:2|cs:8794|v=4,Atomlife Healthcare And Reseacrh Private Limited,https://www.indiamart.com/atomlifehealthcareresearch/?pos=133&kwd=maternity belts&tags=||||8571.301|Price|product|||TS|rsf:gd-|-stype:attr=1|qr_nm:gd|res:RC3|com-cf:nl|ptrs:na|ktp:N0|mc:9909|mtp:S|qry_typ:P|lang:en|wc:2|cs:8794|v=4,False,Thycaud,Thiruvananthapuram,"TC 24/449, Thycaud, Thiruvananthapuram - 695014, Dist.Thiruvananthapuram, Kerala",8048263415,
Abdominal Support Belt (Towel),https://www.indiamart.com/proddetail/abdominal-support-belt-towel-2853612954112.html?pos=134&kwd=maternity belts&tags=||||8860.933||product|||TS|rsf:gd-|-stype:attr=1|qr_nm:gd|res:RC3|com-cf:nl|ptrs:na|ktp:N0|mc:9909|mtp:S|qry_typ:P|lang:en|wc:2|cs:8794|v=4,Agarwal Enterprises,https://www.agarwalenterprises.in/?pos=134&kwd=maternity belts&tags=||||8860.933||product|||TS|rsf:gd-|-stype:attr=1|qr_nm:gd|res:RC3|com-cf:nl|ptrs:na|ktp:N0|mc:9909|mtp:S|qry_typ:P|lang:en|wc:2|cs:8794|v=4,False,Ballupur,Dehradun,"1428 1429, GMS Road, Mauza Kanwali Behind Kritika Store, Kanwali, Ballupur, Dehradun - 248001, Dist.Dehradun, Uttarakhand",7942548712,
"Neoprene Gynec Abdominal Belt, Size: Large",https://www.indiamart.com/proddetail/gynec-abdominal-belt-2854894996455.html?pos=135&kwd=maternity belts&tags=||||9110.092|Price|product|||MDC|rsf:gd-|-stype:attr=1|qr_nm:gd|res:RC3|com-cf:nl|ptrs:na|ktp:N0|mc:9909|mtp:S|qry_typ:P|lang:en|wc:2|cs:8794|v=4,Violet Medi House,https://www.indiamart.com/violet-medi-house/?pos=135&kwd=maternity belts&tags=||||9110.092|Price|product|||MDC|rsf:gd-|-stype:attr=1|qr_nm:gd|res:RC3|com-cf:nl|ptrs:na|ktp:N0|mc:9909|mtp:S|qry_typ:P|lang:en|wc:2|cs:8794|v=4,False,,Lucknow,"Ground Floor, D-1/353, Sharda Nagar, Near Rajni Khand Power House, Ratan Khand, Lucknow - 226012, Dist.Lucknow, Uttar Pradesh",8044459955,
"Alpha Neoprene Elastic Rib Belt, For Back Support",https://www.indiamart.com/proddetail/elastic-rib-belt-23184696355.html?pos=136&kwd=maternity belts&tags=||||8507.67|Price|product|||MDC|rsf:gd-|-stype:attr=1|qr_nm:gd|res:RC3|com-cf:nl|ptrs:na|ktp:N0|mc:9909|mtp:S|qry_typ:P|lang:en|wc:2|cs:8794|v=4,Alpha Meditec,https://www.indiamart.com/alpha-meditec/?pos=136&kwd=maternity belts&tags=||||8507.67|Price|product|||MDC|rsf:gd-|-stype:attr=1|qr_nm:gd|res:RC3|com-cf:nl|ptrs:na|ktp:N0|mc:9909|mtp:S|qry_typ:P|lang:en|wc:2|cs:8794|v=4,False,Kuttkuzhi,Ernakulam,"XVII/662 CHERUVATTOOR NELLIKUZHI/Kothamangalam, Kuttkuzhi, Ernakulam - 686691, Dist.Ernakulam, Kerala",8048977769,
Sansafe Cotton XL Disposable Maternity Pad,https://www.indiamart.com/proddetail/sansafe-cotton-xl-disposable-maternity-pad-2853101563588.html?pos=137&kwd=maternity belts&tags=||||8747.223|Price|proxy|||MDC|rsf:gd-|-stype:attr=1|qr_nm:gd|res:RC3|com-cf:nl|ptrs:na|ktp:N0|mc:9909|mtp:S|qry_typ:P|lang:en|wc:2|cs:8794|v=4,Daily Hygiene Solution Private Limited,https://www.indiamart.com/daily-hygiene-solution/?pos=137&kwd=maternity belts&tags=||||8747.223|Price|proxy|||MDC|rsf:gd-|-stype:attr=1|qr_nm:gd|res:RC3|com-cf:nl|ptrs:na|ktp:N0|mc:9909|mtp:S|qry_typ:P|lang:en|wc:2|cs:8794|v=4,False,Omaxe City,Sonipat,"Allure Tower No.10 Flat No.202 Omaxe Heights, Omaxe City, Sonipat - 131001, Dist.Sonipat, Haryana",7942966236,
HOx Cotton Maternity Sanitary Pad,https://www.indiamart.com/proddetail/maternity-sanitary-pad-19301186448.html?pos=138&kwd=maternity belts&tags=||||8663.873||product|||TS|rsf:gd-|-stype:attr=1|qr_nm:gd|res:RC3|com-cf:nl|ptrs:na|ktp:N0|mc:9909|mtp:S|qry_typ:P|lang:en|wc:2|cs:8794|v=4,Sony Pharmaceuticals,https://www.indiamart.com/sonypharmaceuticals/?pos=138&kwd=maternity belts&tags=||||8663.873||product|||TS|rsf:gd-|-stype:attr=1|qr_nm:gd|res:RC3|com-cf:nl|ptrs:na|ktp:N0|mc:9909|mtp:S|qry_typ:P|lang:en|wc:2|cs:8794|v=4,False,Chickpet,Bengaluru,"No. 3, 3rd Cross, Cottonpet, Chickpet, Bengaluru - 560053, Dist.Bengaluru, Karnataka",8046055038,
Non Woven Maternity Pads - Super Absorbent and Comfortable Postpartum Care,https://www.indiamart.com/proddetail/maternity-pads-super-absorbent-and-comfortable-postpartum-care-2853297970197.html?pos=139&kwd=maternity belts&tags=||||8663.873|Price|proxy|||TS|rsf:gd-|-stype:attr=1|qr_nm:gd|res:RC3|com-cf:nl|ptrs:na|ktp:N0|mc:9909|mtp:S|qry_typ:P|lang:en|wc:2|cs:8794|v=4,Nature Care Solutions,https://www.naturecaresolutions.in/?pos=139&kwd=maternity belts&tags=||||8663.873|Price|proxy|||TS|rsf:gd-|-stype:attr=1|qr_nm:gd|res:RC3|com-cf:nl|ptrs:na|ktp:N0|mc:9909|mtp:S|qry_typ:P|lang:en|wc:2|cs:8794|v=4,False,Kalyan Nagar,Bengaluru,"# 894/5, 1st Main, Kalyan Nagar, Outer Ring Road Chikkatayappa Reddy Layout, Kalyan Nagar, Bengaluru - 560043, Dist.Bengaluru, Karnataka",8046031887,
Cotton Net For Maternity Pads,https://www.indiamart.com/proddetail/cotton-net-for-maternity-pads-22156742912.html?pos=140&kwd=maternity belts&tags=||||8601.347|Price|product|||TS|rsf:gd-|-stype:attr=1|qr_nm:gd|res:RC3|com-cf:nl|ptrs:na|ktp:N0|mc:9909|mtp:S|qry_typ:P|lang:en|wc:2|cs:8794|v=4,Ritvik Enterprises,https://www.indiamart.com/ritvikenterprises-jaipur/?pos=140&kwd=maternity belts&tags=||||8601.347|Price|product|||TS|rsf:gd-|-stype:attr=1|qr_nm:gd|res:RC3|com-cf:nl|ptrs:na|ktp:N0|mc:9909|mtp:S|qry_typ:P|lang:en|wc:2|cs:8794|v=4,False,Mansarovar,Jaipur,"117/678, Agarwal Farm, Mansarovar, Jaipur - 302020, Dist.Jaipur, Rajasthan",7942545190,
Cotton Maternity Pads,https://www.indiamart.com/proddetail/maternity-pads-22242693191.html?pos=141&kwd=maternity belts&tags=||||8211.142|Price|product|||MDC|rsf:gd-|-stype:attr=1|qr_nm:gd|res:RC3|com-cf:nl|ptrs:na|ktp:N0|mc:9909|mtp:S|qry_typ:P|lang:en|wc:2|cs:8794|v=4,Shri Sai Pharma,https://www.indiamart.com/shrisaipharma/?pos=141&kwd=maternity belts&tags=||||8211.142|Price|product|||MDC|rsf:gd-|-stype:attr=1|qr_nm:gd|res:RC3|com-cf:nl|ptrs:na|ktp:N0|mc:9909|mtp:S|qry_typ:P|lang:en|wc:2|cs:8794|v=4,False,Sion,Mumbai,"No. 1 Building, 112, Ashok Nagar, Sion-Trombay Road Sion, Chunabhatti, Sion, Mumbai - 400022, Dist.Mumbai, Maharashtra",8046055538,
Maternity Pad .,https://www.indiamart.com/proddetail/maternity-pad-14986128830.html?pos=142&kwd=maternity belts&tags=||||8823.154|Price|product|||MDC|rsf:gd-|-stype:attr=1|qr_nm:gd|res:RC3|com-cf:nl|ptrs:na|ktp:N0|mc:9909|mtp:S|qry_typ:P|lang:en|wc:2|cs:8794|v=4,Chaprai Estate Industries,https://www.indiamart.com/chaprai-estateindustries/?pos=142&kwd=maternity belts&tags=||||8823.154|Price|product|||MDC|rsf:gd-|-stype:attr=1|qr_nm:gd|res:RC3|com-cf:nl|ptrs:na|ktp:N0|mc:9909|mtp:S|qry_typ:P|lang:en|wc:2|cs:8794|v=4,False,Sikandra,Agra,"43, Gaurav Bhawan, UPSIDC Road, Sikandra, Agra - 282007, Dist.Agra, Uttar Pradesh",8046030203,
Abdominal Rehabilitation Belts,https://www.indiamart.com/proddetail/abdominal-rehabilitation-belts-24334773848.html?pos=143&kwd=maternity belts&tags=||||9110.092|Price|product|||TS|rsf:gd-|-stype:attr=1|qr_nm:gd|res:RC3|com-cf:nl|ptrs:na|ktp:N0|mc:9909|mtp:S|qry_typ:P|lang:en|wc:2|cs:8794|v=4,J.D. Surgical & Pharmaceutical,https://www.jdsurgicalpharmaceutical.com/?pos=143&kwd=maternity belts&tags=||||9110.092|Price|product|||TS|rsf:gd-|-stype:attr=1|qr_nm:gd|res:RC3|com-cf:nl|ptrs:na|ktp:N0|mc:9909|mtp:S|qry_typ:P|lang:en|wc:2|cs:8794|v=4,False,Balaganj,Lucknow,"443/772 N Jal Nigam Road Misri Bagh, Balaganj, Lucknow - 226003, Dist.Lucknow, Uttar Pradesh",8048982762,
Cotton Romsons Dignity Mom Maternity Pads,https://www.indiamart.com/proddetail/romsons-dignity-mom-maternity-pads-27576184173.html?pos=144&kwd=maternity belts&tags=||||9110.092||product|||MDC|rsf:gd-|-stype:attr=1|qr_nm:gd|res:RC3|com-cf:nl|ptrs:na|ktp:N0|mc:9909|mtp:S|qry_typ:P|lang:en|wc:2|cs:8794|v=4,Atlas Health Pharmaceuticals,https://www.indiamart.com/atlashealthpharmaceuticals/?pos=144&kwd=maternity belts&tags=||||9110.092||product|||MDC|rsf:gd-|-stype:attr=1|qr_nm:gd|res:RC3|com-cf:nl|ptrs:na|ktp:N0|mc:9909|mtp:S|qry_typ:P|lang:en|wc:2|cs:8794|v=4,False,Ashiyana,Lucknow,"LGF-114, Khazana Market, Aashiana, Ashiyana, Lucknow - 226012, Dist.Lucknow, Uttar Pradesh",7942549766,
"Tugs Biodegradable Maternity Pads Pack of 9 Pieces Length : 9 inches, Width : 2.5 inches",https://www.indiamart.com/proddetail/tugs-biodegradable-maternity-pads-pack-of-9-pieces-length-9-inches-width-2-5-inches-2854764256162.html?pos=145&kwd=maternity belts&tags=||||8211.142|Price|product|||MDC|rsf:gd-|-stype:attr=1|qr_nm:gd|res:RC3|com-cf:nl|ptrs:na|ktp:N0|mc:9909|mtp:S|qry_typ:P|lang:en|wc:2|cs:8794|v=4,The Unique Green Solutions,https://www.indiamart.com/theuniquegreensolutions/?pos=145&kwd=maternity belts&tags=||||8211.142|Price|product|||MDC|rsf:gd-|-stype:attr=1|qr_nm:gd|res:RC3|com-cf:nl|ptrs:na|ktp:N0|mc:9909|mtp:S|qry_typ:P|lang:en|wc:2|cs:8794|v=4,False,Walkeshwar,Mumbai,"Flat No 7, 15 Hill View, B G Kher Marg, Walkeshwar, Mumbai - 400006, Dist.Mumbai, Maharashtra",7942869916,
"Wood Pulp Carezz Jumbo Maternity Pads with Belt, Model Name/Number: CRZ_B7",https://www.indiamart.com/proddetail/carezz-jumbo-maternity-pads-with-belt-2853384207712.html?pos=146&kwd=maternity belts&tags=||||8331.224|Price|product|||NA|rsf:gd-|-stype:attr=1|qr_nm:gd|res:RC3|com-cf:nl|ptrs:na|ktp:N0|mc:9909|mtp:S|qry_typ:P|lang:en|wc:2|cs:8794|v=4,Infinity Products,https://www.indiamart.com/infinity-products-kolhapur/?pos=146&kwd=maternity belts&tags=||||8331.224|Price|product|||NA|rsf:gd-|-stype:attr=1|qr_nm:gd|res:RC3|com-cf:nl|ptrs:na|ktp:N0|mc:9909|mtp:S|qry_typ:P|lang:en|wc:2|cs:8794|v=4,False,Shukrawar Peth,Kolhapur,"2015, D Ward, Shukrawar Peth, Shukrawar Peth, Kolhapur - 416002, Dist.Kolhapur, Maharashtra",7949092441,
Stretch Marks Cream,https://www.indiamart.com/proddetail/stretch-marks-cream-2853141522891.html?pos=147&kwd=maternity belts&tags=||||8740.707|Price|product|||TS|rsf:gd-|-stype:attr=1|qr_nm:gd|res:RC3|com-cf:nl|ptrs:na|ktp:N0|mc:9909|mtp:S|qry_typ:P|lang:en|wc:2|cs:8794|v=4,Vive Cosmetics,https://www.vivecosmetic.in/?pos=147&kwd=maternity belts&tags=||||8740.707|Price|product|||TS|rsf:gd-|-stype:attr=1|qr_nm:gd|res:RC3|com-cf:nl|ptrs:na|ktp:N0|mc:9909|mtp:S|qry_typ:P|lang:en|wc:2|cs:8794|v=4,False,Sector 82,Sas Nagar,"Plot No. 773, Sector 82, JLPL, Sas Nagar, Sector 82, Sas Nagar - 160055, Dist.Mohali, Punjab",7942541977,
Symphony Double Electric Breast Pump,https://www.indiamart.com/proddetail/symphony-double-electric-breast-pump-21270222597.html?pos=148&kwd=maternity belts&tags=||||8740.707||product|||TS|rsf:gd-|-stype:attr=1|qr_nm:gd|res:RC3|com-cf:nl|ptrs:na|ktp:N0|mc:9909|mtp:S|qry_typ:P|lang:en|wc:2|cs:8794|v=4,Cardio Care,https://www.indiamart.com/cardio-care-mohali/?pos=148&kwd=maternity belts&tags=||||8740.707||product|||TS|rsf:gd-|-stype:attr=1|qr_nm:gd|res:RC3|com-cf:nl|ptrs:na|ktp:N0|mc:9909|mtp:S|qry_typ:P|lang:en|wc:2|cs:8794|v=4,True,Papri Village,Mohali,"Plot 197 Jlpl Ind Park Sec 82 Cardio Care Jlpl Ind Park Sec 82, Papri Village, Mohali - 140306, Dist.Mohali, Punjab",8048973649,
Wood Pulp Stayzy Disposable Maternity Pad,https://www.indiamart.com/proddetail/stayzy-disposable-maternity-pad-2848954270133.html?pos=149&kwd=maternity belts&tags=||||8211.142|Price|proxy|||TS|rsf:gd-|-stype:attr=1|qr_nm:gd|res:RC3|com-cf:nl|ptrs:na|ktp:N0|mc:9909|mtp:S|qry_typ:P|lang:en|wc:2|cs:8794|v=4,Stayzy Hygiene Private Limited,https://www.indiamart.com/synergy-fly/?pos=149&kwd=maternity belts&tags=||||8211.142|Price|proxy|||TS|rsf:gd-|-stype:attr=1|qr_nm:gd|res:RC3|com-cf:nl|ptrs:na|ktp:N0|mc:9909|mtp:S|qry_typ:P|lang:en|wc:2|cs:8794|v=4,False,Borivali West,Mumbai,"Bluechip Industrial Estate No 4 Sativali Road, Near Nexa Showroom, Waliv Naka, Borivali West, Mumbai - 401101, Dist.Mumbai, Maharashtra",8048604117,
"Bauerfeind LumboLoc Forte For Lumbar Support, Size: Size Chart In Images",https://www.indiamart.com/proddetail/bauerfeind-lumboloc-forte-20879806173.html?pos=150&kwd=maternity belts&tags=||||8601.347|Price|product|||TS|rsf:gd-|-stype:attr=1|qr_nm:gd|res:RC3|com-cf:nl|ptrs:na|ktp:N0|mc:9909|mtp:S|qry_typ:P|lang:en|wc:2|cs:8794|v=4,Maxwell India,https://www.indiamart.com/maxwell-india/?pos=150&kwd=maternity belts&tags=||||8601.347|Price|product|||TS|rsf:gd-|-stype:attr=1|qr_nm:gd|res:RC3|com-cf:nl|ptrs:na|ktp:N0|mc:9909|mtp:S|qry_typ:P|lang:en|wc:2|cs:8794|v=4,False,Vishwakarma Industrial Area,Jaipur,"F-946-D, Road No. 14, VKI Area, Vishwakarma Industrial Area, Jaipur - 302013, Dist.Jaipur, Rajasthan",8048970821,
"LS Belt, For Support Lower Back,Health Care",https://www.indiamart.com/proddetail/ls-belt-13133081497.html?pos=151&kwd=maternity belts&tags=||||8954.051|Price|product|||TS|rsf:gd-|-stype:attr=1|qr_nm:gd|res:RC3|com-cf:nl|ptrs:na|ktp:N0|mc:9909|mtp:S|qry_typ:P|lang:en|wc:2|cs:8794|v=4,Global Diagnostics,https://www.globaldiagnostic.co.in/?pos=151&kwd=maternity belts&tags=||||8954.051|Price|product|||TS|rsf:gd-|-stype:attr=1|qr_nm:gd|res:RC3|com-cf:nl|ptrs:na|ktp:N0|mc:9909|mtp:S|qry_typ:P|lang:en|wc:2|cs:8794|v=4,False,Anna Road,Chennai,"First Floor, 842/6, Anna Salai, Mount Road,, Anna Road, Chennai - 600002, Dist.Chennai, Tamil Nadu",8046072351,
"Abdominal Belt, For Back Support",https://www.indiamart.com/proddetail/abdominal-belt-23181276462.html?pos=152&kwd=maternity belts&tags=||||8194.807|Price|product|||TS|rsf:gd-|-stype:attr=1|qr_nm:gd|res:RC3|com-cf:nl|ptrs:na|ktp:N0|mc:9909|mtp:S|qry_typ:P|lang:en|wc:2|cs:8794|v=4,Kohinoor Products,https://www.indiamart.com/kohinoorenterprise-gujarat/?pos=152&kwd=maternity belts&tags=||||8194.807|Price|product|||TS|rsf:gd-|-stype:attr=1|qr_nm:gd|res:RC3|com-cf:nl|ptrs:na|ktp:N0|mc:9909|mtp:S|qry_typ:P|lang:en|wc:2|cs:8794|v=4,False,Nagalpur,Patan,"Survey No - 329, Old Market Yard Old Market Yard, Chanasma, Nagalpur, Patan - 384225, Gujarat",8046036547,
"TRAJECTORY TRAJECTPRY Hip Belt - Lower Back Support Brace for Men and Women, Size: Free Size",https://www.indiamart.com/proddetail/trajectpry-hip-belt-lower-back-support-brace-for-men-and-women-2853728737655.html?pos=153&kwd=maternity belts&tags=||||8752.144|Price|product|||TS|rsf:gd-|-stype:attr=1|qr_nm:gd|res:RC3|com-cf:nl|ptrs:na|ktp:N0|mc:9909|mtp:S|qry_typ:P|lang:en|wc:2|cs:8794|v=4,Trajectory Marketing LLP,https://www.trajectoryindia.in/?pos=153&kwd=maternity belts&tags=||||8752.144|Price|product|||TS|rsf:gd-|-stype:attr=1|qr_nm:gd|res:RC3|com-cf:nl|ptrs:na|ktp:N0|mc:9909|mtp:S|qry_typ:P|lang:en|wc:2|cs:8794|v=4,False,Rohini,New Delhi,"Flat No. 110, 1st Floor, Block - D, Pocket - 17, Sector 3, Rohini, North West Delhi,, Rohini, New Delhi - 110085, Dist.Delhi, Delhi",8047544003,
"Neoprene Royal Orthopedic Lumbar Sacro Belt, Size: XL",https://www.indiamart.com/proddetail/royal-orthopedic-lumbar-sacro-belt-23649576073.html?pos=154&kwd=maternity belts&tags=||||8661.854|Price|product|||TS|rsf:gd-|-stype:attr=1|qr_nm:gd|res:RC3|com-cf:nl|ptrs:na|ktp:N0|mc:9909|mtp:S|qry_typ:P|lang:en|wc:2|cs:8794|v=4,Surgi King,https://www.indiamart.com/surgi-king/?pos=154&kwd=maternity belts&tags=||||8661.854|Price|product|||TS|rsf:gd-|-stype:attr=1|qr_nm:gd|res:RC3|com-cf:nl|ptrs:na|ktp:N0|mc:9909|mtp:S|qry_typ:P|lang:en|wc:2|cs:8794|v=4,False,Railway Colony,Ludhiana,"Shop No-8, Manmohan Market ,Pindi Gali,, Railway Colony, Ludhiana - 141008, Dist.Ludhiana, Punjab",8046030681,
"Neoprene DYNA Abdominal Support Brace, Size: 71 cm",https://www.indiamart.com/proddetail/dyna-abdominal-support-brace-16528716497.html?pos=155&kwd=maternity belts&tags=||||8663.873|Price|product|||TS|rsf:gd-|-stype:attr=1|qr_nm:gd|res:RC3|com-cf:nl|ptrs:na|ktp:N0|mc:9909|mtp:S|qry_typ:P|lang:en|wc:2|cs:8794|v=4,Rajendra Surgicals,https://www.rajendrasurgicals.com/?pos=155&kwd=maternity belts&tags=||||8663.873|Price|product|||TS|rsf:gd-|-stype:attr=1|qr_nm:gd|res:RC3|com-cf:nl|ptrs:na|ktp:N0|mc:9909|mtp:S|qry_typ:P|lang:en|wc:2|cs:8794|v=4,False,Rajajinagar,Bengaluru,"Ground Floor, 3rd Block, No.210/38, Skanda, Dr Mallegowda Street, 50th Cross, Rajajinagar, Rajajinagar, Bengaluru - 560010, Dist.Bengaluru, Karnataka",8048961624,
med-e Move Cotton Abdominal Belt (Medium),https://www.indiamart.com/proddetail/abdominal-belt-medium-2853667980397.html?pos=156&kwd=maternity belts&tags=||||8281.036|Price|product|||TS|rsf:gd-|-stype:attr=1|qr_nm:gd|res:RC3|com-cf:nl|ptrs:na|ktp:N0|mc:9909|mtp:S|qry_typ:P|lang:en|wc:2|cs:8794|v=4,Otica Meditronix Co.,https://www.oticahealthcare.com/?pos=156&kwd=maternity belts&tags=||||8281.036|Price|product|||TS|rsf:gd-|-stype:attr=1|qr_nm:gd|res:RC3|com-cf:nl|ptrs:na|ktp:N0|mc:9909|mtp:S|qry_typ:P|lang:en|wc:2|cs:8794|v=4,False,,Vadodara,"B-16, Satyanarayan Industrial Estate, Behind Gorwa Water Tank, Gorwa, Vadodara - 390016, Dist.Vadodara, Gujarat",8048963632,
Flamingo Lower limbs belt,https://www.indiamart.com/proddetail/flamingo-lower-limbs-belt-23926424797.html?pos=157&kwd=maternity belts&tags=||||8601.347|Price|product|||TS|rsf:gd-|-stype:attr=1|qr_nm:gd|res:RC3|com-cf:nl|ptrs:na|ktp:N0|mc:9909|mtp:S|qry_typ:P|lang:en|wc:2|cs:8794|v=4,Raj Biosis Private Limited,https://www.rajbiosis.com/?pos=157&kwd=maternity belts&tags=||||8601.347|Price|product|||TS|rsf:gd-|-stype:attr=1|qr_nm:gd|res:RC3|com-cf:nl|ptrs:na|ktp:N0|mc:9909|mtp:S|qry_typ:P|lang:en|wc:2|cs:8794|v=4,True,,Jaipur,"1st Floor, F-4,Plot No.16, D- Block, Tagor Nagar,Nr.200 FT, Jaipur - 302021, Dist.Jaipur, Rajasthan",8048962241,
"Polyester Back Support Belt, Size: Medium",https://www.indiamart.com/proddetail/back-support-belt-21425741033.html?pos=158&kwd=maternity belts&tags=||||8752.144|Price|product|||TS|rsf:gd-|-stype:attr=1|qr_nm:gd|res:RC3|com-cf:nl|ptrs:na|ktp:N0|mc:9909|mtp:S|qry_typ:P|lang:en|wc:2|cs:8794|v=4,Saksham,https://www.indiamart.com/saksham-delhi/?pos=158&kwd=maternity belts&tags=||||8752.144|Price|product|||TS|rsf:gd-|-stype:attr=1|qr_nm:gd|res:RC3|com-cf:nl|ptrs:na|ktp:N0|mc:9909|mtp:S|qry_typ:P|lang:en|wc:2|cs:8794|v=4,False,Sangam Vihar,New Delhi,"Sangam Vihar New Delhi 110080 Gali No 15/A( Near By Hamdard Public School Gate No. 1), Sangam Vihar, New Delhi - 110034, Dist.Delhi, Delhi",8048265471,
"Tynor Post Pregnancy Belt, For Personal",https://www.indiamart.com/proddetail/tynor-post-pregnancy-belt-20162110130.html?pos=159&kwd=maternity belts&tags=||||8211.142|Price|product|||TS|rsf:gd-|-stype:attr=1|qr_nm:gd|res:RC3|com-cf:nl|ptrs:na|ktp:N0|mc:9909|mtp:S|qry_typ:P|lang:en|wc:2|cs:8794|v=4,I Touch Surgical,https://www.itouchsurgical.co.in/?pos=159&kwd=maternity belts&tags=||||8211.142|Price|product|||TS|rsf:gd-|-stype:attr=1|qr_nm:gd|res:RC3|com-cf:nl|ptrs:na|ktp:N0|mc:9909|mtp:S|qry_typ:P|lang:en|wc:2|cs:8794|v=4,False,Goregaon,Mumbai,"4, Ekta Suprabhat, Siddharth Nagar, Goregaon West, Goregaon, Mumbai - 400104, Dist.Mumbai, Maharashtra",8048962190,
"Belt Nylon Accu Sure Contoured LS Support, Size: Medium",https://www.indiamart.com/proddetail/accu-sure-contoured-ls-support-25987030355.html?pos=160&kwd=maternity belts&tags=||||8307.81|Price|product|||TS|rsf:gd-|-stype:attr=1|qr_nm:gd|res:RC3|com-cf:nl|ptrs:na|ktp:N0|mc:9909|mtp:S|qry_typ:P|lang:en|wc:2|cs:8794|v=4,Ecomed Solutions,https://www.indiamart.com/ecomedsolutions/?pos=160&kwd=maternity belts&tags=||||8307.81|Price|product|||TS|rsf:gd-|-stype:attr=1|qr_nm:gd|res:RC3|com-cf:nl|ptrs:na|ktp:N0|mc:9909|mtp:S|qry_typ:P|lang:en|wc:2|cs:8794|v=4,False,Hadapsar,Pune,"Fld3/b403 Sn44a Sasane Nagar Vardhaman Township Hadapsar, Hadapsar, Pune - 411028, Dist.Pune, Maharashtra",8043853505,
Elastic L S Belt,https://www.indiamart.com/proddetail/l-s-belt-2852097715073.html?pos=161&kwd=maternity belts&tags=||||8230.883|Price|product|||TS|rsf:gd-|-stype:attr=1|qr_nm:gd|res:RC3|com-cf:nl|ptrs:na|ktp:N0|mc:9909|mtp:S|qry_typ:P|lang:en|wc:2|cs:8794|v=4,Brokenbone Healthcare,https://www.indiamart.com/brokenbone-healthcare/?pos=161&kwd=maternity belts&tags=||||8230.883|Price|product|||TS|rsf:gd-|-stype:attr=1|qr_nm:gd|res:RC3|com-cf:nl|ptrs:na|ktp:N0|mc:9909|mtp:S|qry_typ:P|lang:en|wc:2|cs:8794|v=4,False,Shakti Nagar,Surat,"Shop No. 28 Godadara Road Midas Square Parvat patiya Dindoli Road, Shakti Nagar, Surat - 395010, Dist.Surat, Gujarat",7942703077,
Neolife Rib Belt,https://www.indiamart.com/proddetail/rib-belt-6834230112.html?pos=162&kwd=maternity belts&tags=||||8706.508|Price|product|||TS|rsf:gd-|-stype:attr=1|qr_nm:gd|res:RC3|com-cf:nl|ptrs:na|ktp:N0|mc:9909|mtp:S|qry_typ:P|lang:en|wc:2|cs:8794|v=4,Aadhar Medicare Private Limited,https://www.aadharmedicare.com/?pos=162&kwd=maternity belts&tags=||||8706.508|Price|product|||TS|rsf:gd-|-stype:attr=1|qr_nm:gd|res:RC3|com-cf:nl|ptrs:na|ktp:N0|mc:9909|mtp:S|qry_typ:P|lang:en|wc:2|cs:8794|v=4,False,Old Power House Colony,Rohtak,"Malik Complex, Ist Floor, Geeta Colony, NR Double Phathak, Old Power House Colony, Rohtak - 124001, Dist.Rohtak, Haryana",8046055459,
"Sacroiliac Hip Belt for Lower Back, Leg and Sacral Hip Koint Belt 140 Cm",https://www.indiamart.com/proddetail/sacroiliac-hip-belt-for-lower-back-leg-and-sacral-hip-koint-belt-140-cm-2853714134391.html?pos=163&kwd=maternity belts&tags=||||8230.883|Price|product|||TS|rsf:gd-|-stype:attr=1|qr_nm:gd|res:RC3|com-cf:nl|ptrs:na|ktp:N0|mc:9909|mtp:S|qry_typ:P|lang:en|wc:2|cs:8794|v=4,S P Trade,https://www.indiamart.com/sp-trade-surat/?pos=163&kwd=maternity belts&tags=||||8230.883|Price|product|||TS|rsf:gd-|-stype:attr=1|qr_nm:gd|res:RC3|com-cf:nl|ptrs:na|ktp:N0|mc:9909|mtp:S|qry_typ:P|lang:en|wc:2|cs:8794|v=4,False,Dabholi,Surat,"Plot No. 44 Dom No. 1,Bhakti Nandan Farm,Ved Road,Surat, Dabholi, Surat - 395004, Dist.Surat, Gujarat",7942712583,
"NEBULA ELASTIC RIB SUPPORT 9"", Size: Universal",https://www.indiamart.com/proddetail/elastic-rib-support-9-23013161812.html?pos=164&kwd=maternity belts&tags=||||8038.093|Price|product|||TS|rsf:gd-|-stype:attr=1|qr_nm:gd|res:RC3|com-cf:nl|ptrs:na|ktp:N0|mc:9909|mtp:S|qry_typ:P|lang:en|wc:2|cs:8794|v=4,Nebula Surgical Private Limited,https://www.indiamart.com/nebula-surgical-limited/?pos=164&kwd=maternity belts&tags=||||8038.093|Price|product|||TS|rsf:gd-|-stype:attr=1|qr_nm:gd|res:RC3|com-cf:nl|ptrs:na|ktp:N0|mc:9909|mtp:S|qry_typ:P|lang:en|wc:2|cs:8794|v=4,False,Naresh Park,Rajkot,"Narmada Park, 3, Vidhyakunj Society Main Road., Naresh Park, Rajkot - 360001, Dist.Rajkot, Gujarat",8048979145,
"Maternity Belt with Back Support, For Personal",https://www.indiamart.com/proddetail/maternity-belt-with-back-support-2849571085812.html?pos=165&kwd=maternity belts&tags=||||8741.812|Price|product|||TS|rsf:gd-|-stype:attr=1|qr_nm:gd|res:RC3|com-cf:nl|ptrs:na|ktp:N0|mc:9909|mtp:S|qry_typ:P|lang:en|wc:2|cs:8794|v=4,Apothecaries Sundries Mfg. Private Limited,https://www.ascoindia.com/?pos=165&kwd=maternity belts&tags=||||8741.812|Price|product|||TS|rsf:gd-|-stype:attr=1|qr_nm:gd|res:RC3|com-cf:nl|ptrs:na|ktp:N0|mc:9909|mtp:S|qry_typ:P|lang:en|wc:2|cs:8794|v=4,True,Sector 18,Gurugram,"Plot No. 229, Udyog Vihar, Phase-IV, Sector 18, Gurugram - 122015, Dist.Gurgaon, Haryana",8048968234,
"Cotton Tynor Abdominal Support 9, Size: Medium",https://www.indiamart.com/proddetail/tynor-abdominal-support-9-2851573847655.html?pos=166&kwd=maternity belts&tags=||||10180.86|Price|product|||TS|rsf:gd-|-stype:attr=1|qr_nm:gd|res:RC3|com-cf:nl|ptrs:na|ktp:N0|mc:9909|mtp:S|qry_typ:P|lang:en|wc:2|cs:8794|v=4,J.N.M. Enterprise,https://www.jnmenterprise.com/?pos=166&kwd=maternity belts&tags=||||10180.86|Price|product|||TS|rsf:gd-|-stype:attr=1|qr_nm:gd|res:RC3|com-cf:nl|ptrs:na|ktp:N0|mc:9909|mtp:S|qry_typ:P|lang:en|wc:2|cs:8794|v=4,False,Pan Bazaar,Guwahati,"1st Floor S S Road Nahar Mansion Lakhtokia, Pan Bazaar, Guwahati - 781001, Dist.Kamrup, Assam",7942827915,
"Medemove Pregnancy Belt, For Personal",https://www.indiamart.com/proddetail/medemove-pregnancy-belt-2853290051591.html?pos=167&kwd=maternity belts&tags=||||9461.351|Price|product|||TS|rsf:gd-|-stype:attr=1|qr_nm:gd|res:RC3|com-cf:nl|ptrs:na|ktp:N0|mc:9909|mtp:S|qry_typ:P|lang:en|wc:2|cs:8794|v=4,Ridhi Krish Surgicals,https://www.indiamart.com/ridhi-krish-surgicals/?pos=167&kwd=maternity belts&tags=||||9461.351|Price|product|||TS|rsf:gd-|-stype:attr=1|qr_nm:gd|res:RC3|com-cf:nl|ptrs:na|ktp:N0|mc:9909|mtp:S|qry_typ:P|lang:en|wc:2|cs:8794|v=4,False,Hillpatna,Berhampur,"1 1259/3887 M/s Ridhi Krish Surgicals Hillpatna Sub Post Office, Hillpatna, Berhampur - 760005, Dist.Ganjam, Odisha",7949225588,
Grey Abdominal Binders,https://www.indiamart.com/proddetail/grey-abdominal-binders-2598002333.html?pos=168&kwd=maternity belts&tags=||||8476.868|Price|product|||TS|rsf:gd-|-stype:attr=1|qr_nm:gd|res:RC3|com-cf:nl|ptrs:na|ktp:N0|mc:9909|mtp:S|qry_typ:P|lang:en|wc:2|cs:8794|v=4,The Total Health Care,https://www.totalhealthcare.in/?pos=168&kwd=maternity belts&tags=||||8476.868|Price|product|||TS|rsf:gd-|-stype:attr=1|qr_nm:gd|res:RC3|com-cf:nl|ptrs:na|ktp:N0|mc:9909|mtp:S|qry_typ:P|lang:en|wc:2|cs:8794|v=4,False,Ramanand Colony,Aurangabad,"G-16, Anand Plaza Complex, Opposite Hotel Amarpreet Doodh Diary Signal, Ramanand Colony, Aurangabad - 431005, Maharashtra",8048957811,
"ARORA ENTERPRISES DORSO LUMBAR SUPPORT, Size: Small, Medium, Large, Extra Large, Double XL",https://www.indiamart.com/proddetail/dorso-lumbar-support-18202027230.html?pos=169&kwd=maternity belts&tags=||||8752.144|Price|product|||TS|rsf:gd-|-stype:attr=1|qr_nm:gd|res:RC3|com-cf:nl|ptrs:na|ktp:N0|mc:9909|mtp:S|qry_typ:P|lang:en|wc:2|cs:8794|v=4,Arora Enterprises,https://www.aroraenterprises.in/?pos=169&kwd=maternity belts&tags=||||8752.144|Price|product|||TS|rsf:gd-|-stype:attr=1|qr_nm:gd|res:RC3|com-cf:nl|ptrs:na|ktp:N0|mc:9909|mtp:S|qry_typ:P|lang:en|wc:2|cs:8794|v=4,False,F F C Okhla,New Delhi,"Plot No. 80, DSIDC Complex Okhla Industrial Area, Phase - 1, F F C Okhla, New Delhi - 110020, Dist.Delhi, Delhi",8048959707,
Maternity Support Belt,https://www.indiamart.com/proddetail/maternity-support-belt-2854540082148.html?pos=170&kwd=maternity belts&tags=||||8752.144|Price|product|||MDC|rsf:gd-|-stype:attr=1|qr_nm:gd|res:RC3|com-cf:nl|ptrs:na|ktp:N0|mc:9909|mtp:S|qry_typ:P|lang:en|wc:2|cs:8794|v=4,Newgen Partners,https://www.indiamart.com/newgenpartners/?pos=170&kwd=maternity belts&tags=||||8752.144|Price|product|||MDC|rsf:gd-|-stype:attr=1|qr_nm:gd|res:RC3|com-cf:nl|ptrs:na|ktp:N0|mc:9909|mtp:S|qry_typ:P|lang:en|wc:2|cs:8794|v=4,False,,New Delhi,"Jawahar Park, E-34A, Ground Floor, Laxmi Nagar, East Delhi,, New Delhi - 110092, Dist.Delhi, Delhi",8048213363,
Ls Belt,https://www.indiamart.com/proddetail/ls-belt-2852951924388.html?pos=171&kwd=maternity belts&tags=||||8752.144|Price|product|||MDC|rsf:gd-|-stype:attr=1|qr_nm:gd|res:RC3|com-cf:nl|ptrs:na|ktp:N0|mc:9909|mtp:S|qry_typ:P|lang:en|wc:2|cs:8794|v=4,AS Surgical,https://www.indiamart.com/assurgical/?pos=171&kwd=maternity belts&tags=||||8752.144|Price|product|||MDC|rsf:gd-|-stype:attr=1|qr_nm:gd|res:RC3|com-cf:nl|ptrs:na|ktp:N0|mc:9909|mtp:S|qry_typ:P|lang:en|wc:2|cs:8794|v=4,False,Tunda Nagar,New Delhi,"D-27, Gali no 2 Aman Mohalla Ambedkar Vihar, Tunda Nagar, New Delhi - 110094, Dist.Delhi, Delhi",7942551663,
"Nylon Mixed Cotton X Care Abdominal Rehabilitation Belt, For Back Support, Size: 38",https://www.indiamart.com/proddetail/x-care-abdominal-rehabilitation-belt-2851156399162.html?pos=172&kwd=maternity belts&tags=||||8706.587|Price|product|||MDC|rsf:gd-|-stype:attr=1|qr_nm:gd|res:RC3|com-cf:nl|ptrs:na|ktp:N0|mc:9909|mtp:S|qry_typ:P|lang:en|wc:2|cs:8794|v=4,Sri Ragavendra Agencies,https://www.indiamart.com/sriragavendra-agencies-madurai/?pos=172&kwd=maternity belts&tags=||||8706.587|Price|product|||MDC|rsf:gd-|-stype:attr=1|qr_nm:gd|res:RC3|com-cf:nl|ptrs:na|ktp:N0|mc:9909|mtp:S|qry_typ:P|lang:en|wc:2|cs:8794|v=4,False,Vandiyur,Madurai,"1st Floor, 2-553/1, Gomathillam, Sri Sabari Street,Ambigainagar, Gomathipuram, Vandiyur, Madurai - 625020, Dist.Madurai, Tamil Nadu",8047552401,
Flamingo Abdominal Belt,https://www.indiamart.com/proddetail/flamingo-abdominal-belt-2853870500912.html?pos=173&kwd=maternity belts&tags=||||9520.041|Price|product|||MDC|rsf:gd-|-stype:attr=1|qr_nm:gd|res:RC3|com-cf:nl|ptrs:na|ktp:N0|mc:9909|mtp:S|qry_typ:P|lang:en|wc:2|cs:8794|v=4,AAA Pharma,https://www.indiamart.com/aaa-pharma-patna/?pos=173&kwd=maternity belts&tags=||||9520.041|Price|product|||MDC|rsf:gd-|-stype:attr=1|qr_nm:gd|res:RC3|com-cf:nl|ptrs:na|ktp:N0|mc:9909|mtp:S|qry_typ:P|lang:en|wc:2|cs:8794|v=4,False,Chauraha,Patna,"New Capital Circle, Ward 28, Property N. 2017559, Rajendra Path, Lalita Devi W/O Late Pramanand Prasad, RK Bhattacharya Road, Nand Hotel Campus, Exhibition Road Chauraha, Chauraha, Patna - 800001, Dist.Patna, Bihar",8044011433,
"Apollo Abdominal Support, Size: Medium",https://www.indiamart.com/proddetail/apollo-abdominal-support-2853898350391.html?pos=174&kwd=maternity belts&tags=||||8663.873|Price|product|||MDC|rsf:gd-|-stype:attr=1|qr_nm:gd|res:RC3|com-cf:nl|ptrs:na|ktp:N0|mc:9909|mtp:S|qry_typ:P|lang:en|wc:2|cs:8794|v=4,HNH Pharma,https://www.indiamart.com/hnhpharma/?pos=174&kwd=maternity belts&tags=||||8663.873|Price|product|||MDC|rsf:gd-|-stype:attr=1|qr_nm:gd|res:RC3|com-cf:nl|ptrs:na|ktp:N0|mc:9909|mtp:S|qry_typ:P|lang:en|wc:2|cs:8794|v=4,False,Nagadevanahall,Bengaluru,"1st Floor, No 197, 80 Feet Road, Jagajyothi Layout, Nagadevanahalli, Bengaluru Urban, Nagadevanahall, Bengaluru - 560056, Dist.Bengaluru, Karnataka",7948548792,
"K Squarians Polyester Gray Lumbo Sacral Belt, For Back Support, Size: Xl",https://www.indiamart.com/proddetail/gray-lumbo-sacral-belt-2850648161430.html?pos=175&kwd=maternity belts&tags=||||8740.707|Price|product|||MDC|rsf:gd-|-stype:attr=1|qr_nm:gd|res:RC3|com-cf:nl|ptrs:na|ktp:N0|mc:9909|mtp:S|qry_typ:P|lang:en|wc:2|cs:8794|v=4,K Squarians Rehabilitation Aids,https://www.indiamart.com/k-squarians-rehabilitation/?pos=175&kwd=maternity belts&tags=||||8740.707|Price|product|||MDC|rsf:gd-|-stype:attr=1|qr_nm:gd|res:RC3|com-cf:nl|ptrs:na|ktp:N0|mc:9909|mtp:S|qry_typ:P|lang:en|wc:2|cs:8794|v=4,False,Phase 1,Sas Nagar,"Plot No D-19, Industrial Area, Phase 1, Mohali, Phase 1, Sas Nagar - 160055, Dist.Mohali, Punjab",7942956413,
Tynor Lumbo Sacral Belt,https://www.indiamart.com/proddetail/tynor-lumbo-sacral-belt-25264826633.html?pos=176&kwd=maternity belts&tags=||||8752.144|Price|product|||MDC|rsf:gd-|-stype:attr=1|qr_nm:gd|res:RC3|com-cf:nl|ptrs:na|ktp:N0|mc:9909|mtp:S|qry_typ:P|lang:en|wc:2|cs:8794|v=4,Narulas Healthcare,https://www.indiamart.com/narulas-healthcare/?pos=176&kwd=maternity belts&tags=||||8752.144|Price|product|||MDC|rsf:gd-|-stype:attr=1|qr_nm:gd|res:RC3|com-cf:nl|ptrs:na|ktp:N0|mc:9909|mtp:S|qry_typ:P|lang:en|wc:2|cs:8794|v=4,False,Darya Ganj,New Delhi,"Shop No 5011, Ground Floor,15/16 Sterling House, Netaji Subhash Marg, Daryaganj, Darya Ganj, New Delhi - 110002, Dist.Delhi, Delhi",7942538078,
Universal Lumbo Sacral Support Belt,https://www.indiamart.com/proddetail/universal-lumbo-sacral-support-belt-2854917864288.html?pos=177&kwd=maternity belts&tags=||||8813.969|Price|product|||MDC|rsf:gd-|-stype:attr=1|qr_nm:gd|res:RC3|com-cf:nl|ptrs:na|ktp:N0|mc:9909|mtp:S|qry_typ:P|lang:en|wc:2|cs:8794|v=4,S R Enterprises,https://www.indiamart.com/sr-enterprisesmeerut/?pos=177&kwd=maternity belts&tags=||||8813.969|Price|product|||MDC|rsf:gd-|-stype:attr=1|qr_nm:gd|res:RC3|com-cf:nl|ptrs:na|ktp:N0|mc:9909|mtp:S|qry_typ:P|lang:en|wc:2|cs:8794|v=4,False,,Meerut,"C/O Kaushalya Devi W/O Bhoj Raj Singh House No 56 Gali No 1 VPO Kaseru Baksar Mawana Road, Meerut - 250001, Dist.Meerut, Uttar Pradesh",8041015182,
"Cotton A Care Abdominal Belt, Size: Large",https://www.indiamart.com/proddetail/a-care-abdominal-belt-2852033481748.html?pos=178&kwd=maternity belts&tags=||||8601.846|Price|product|||MDC|rsf:gd-|-stype:attr=1|qr_nm:gd|res:RC3|com-cf:nl|ptrs:na|ktp:N0|mc:9909|mtp:S|qry_typ:P|lang:en|wc:2|cs:8794|v=4,Preethy Medical Suppliers,https://www.indiamart.com/preethy-medicalsuppliers/?pos=178&kwd=maternity belts&tags=||||8601.846|Price|product|||MDC|rsf:gd-|-stype:attr=1|qr_nm:gd|res:RC3|com-cf:nl|ptrs:na|ktp:N0|mc:9909|mtp:S|qry_typ:P|lang:en|wc:2|cs:8794|v=4,False,,Marthandam,"6/34 E, Main Road,, Marthandam - 629165, Dist.Kanyakumari, Tamil Nadu",8045731484,
"Oppo Maternity Belt, For Personal",https://www.indiamart.com/proddetail/oppo-maternity-belt-25350520948.html?pos=179&kwd=maternity belts&tags=||||8752.144|Price|product|||MDC|rsf:gd-|-stype:attr=1|qr_nm:gd|res:RC3|com-cf:nl|ptrs:na|ktp:N0|mc:9909|mtp:S|qry_typ:P|lang:en|wc:2|cs:8794|v=4,Garg Surgimed,https://www.indiamart.com/garg-surgimed/?pos=179&kwd=maternity belts&tags=||||8752.144|Price|product|||MDC|rsf:gd-|-stype:attr=1|qr_nm:gd|res:RC3|com-cf:nl|ptrs:na|ktp:N0|mc:9909|mtp:S|qry_typ:P|lang:en|wc:2|cs:8794|v=4,False,Safdarjung Enclave,New Delhi,"61c,,Near Sukhmani Hospital,Arjun Nagar, Safdurjung Enclave, Safdarjung Enclave, New Delhi - 110029, Dist.Delhi, Delhi",8047303781,
"Tryfit TF651D Lumbo Sacral Belt, Size: S,M,L,XL",https://www.indiamart.com/proddetail/tryfit-tf651d-lumbo-sacral-belt-20858431088.html?pos=180&kwd=maternity belts&tags=||||9110.092|Price|product|||MDC|rsf:gd-|-stype:attr=1|qr_nm:gd|res:RC3|com-cf:nl|ptrs:na|ktp:N0|mc:9909|mtp:S|qry_typ:P|lang:en|wc:2|cs:8794|v=4,Yashish Medicare Pvt. Ltd.,https://www.indiamart.com/yashish-medicare/?pos=180&kwd=maternity belts&tags=||||9110.092|Price|product|||MDC|rsf:gd-|-stype:attr=1|qr_nm:gd|res:RC3|com-cf:nl|ptrs:na|ktp:N0|mc:9909|mtp:S|qry_typ:P|lang:en|wc:2|cs:8794|v=4,False,Transport Nagar,Lucknow,"E-97, Kanpur Road, Transport Nagar, Transport Nagar, Lucknow - 226012, Dist.Lucknow, Uttar Pradesh",8047799569,
Nylon medvision Sacro Lumdar Belt Economy,https://www.indiamart.com/proddetail/medvision-sacro-lumdar-belt-economy-2853188576730.html?pos=181&kwd=maternity belts&tags=||||8778.123|Price|product|||MDC|rsf:gd-|-stype:attr=1|qr_nm:gd|res:RC3|com-cf:nl|ptrs:na|ktp:N0|mc:9909|mtp:S|qry_typ:P|lang:en|wc:2|cs:8794|v=4,Medicare Surgicals,https://www.indiamart.com/medicare-surgicals/?pos=181&kwd=maternity belts&tags=||||8778.123|Price|product|||MDC|rsf:gd-|-stype:attr=1|qr_nm:gd|res:RC3|com-cf:nl|ptrs:na|ktp:N0|mc:9909|mtp:S|qry_typ:P|lang:en|wc:2|cs:8794|v=4,False,Sector 6,Noida,"B-115 Sector 65, B Block, Sector 6, Noida - 201301, Dist.Gautam Budh Nagar, Uttar Pradesh",7942570485,
Lambo sacrel beltp,https://www.indiamart.com/proddetail/lambo-sacrel-beltp-17875065573.html?pos=182&kwd=maternity belts&tags=||||8752.144|Price|product|||MDC|rsf:gd-|-stype:attr=1|qr_nm:gd|res:RC3|com-cf:nl|ptrs:na|ktp:N0|mc:9909|mtp:S|qry_typ:P|lang:en|wc:2|cs:8794|v=4,Preet Surgical Co.,https://www.indiamart.com/preetsurgicalco/?pos=182&kwd=maternity belts&tags=||||8752.144|Price|product|||MDC|rsf:gd-|-stype:attr=1|qr_nm:gd|res:RC3|com-cf:nl|ptrs:na|ktp:N0|mc:9909|mtp:S|qry_typ:P|lang:en|wc:2|cs:8794|v=4,False,Chandni Chowk,New Delhi,"1975/76, Shop No. 106, 1st Floor, Narain Bazar, Bhagirath Palace, Chandni Chowk, New Delhi - 110006, Dist.Delhi, Delhi",8048963374,
"Medemove Maternity Belt, For Personal",https://www.indiamart.com/proddetail/medemove-maternity-belt-24992284348.html?pos=183&kwd=maternity belts&tags=||||8659.641|Price|product|||MDC|rsf:gd-|-stype:attr=1|qr_nm:gd|res:RC3|com-cf:nl|ptrs:na|ktp:N0|mc:9909|mtp:S|qry_typ:P|lang:en|wc:2|cs:8794|v=4,Medequip Healthcare Solutions LLP,https://www.indiamart.com/medequip-healthcare-solutions/?pos=183&kwd=maternity belts&tags=||||8659.641|Price|product|||MDC|rsf:gd-|-stype:attr=1|qr_nm:gd|res:RC3|com-cf:nl|ptrs:na|ktp:N0|mc:9909|mtp:S|qry_typ:P|lang:en|wc:2|cs:8794|v=4,False,Doddaballapur,Doddaballapura,"Plot No.A-12,A-13 Doddaballapur Industrial Area Apparel Park, Phase 1, Doddaballapur, Doddaballapura - 561203, Dist.Bengaluru, Karnataka",8048204003,
Cotton Vissco Lumboset Sacral Advance Belt,https://www.indiamart.com/proddetail/vissco-lumboset-sacral-advance-belt-2853781486297.html?pos=184&kwd=maternity belts&tags=||||8595.936|Price|product|||MDC|rsf:gd-|-stype:attr=1|qr_nm:gd|res:RC3|com-cf:nl|ptrs:na|ktp:N0|mc:9909|mtp:S|qry_typ:P|lang:en|wc:2|cs:8794|v=4,Bal Medi Aid,https://www.indiamart.com/bal-medi-aid/?pos=184&kwd=maternity belts&tags=||||8595.936|Price|product|||MDC|rsf:gd-|-stype:attr=1|qr_nm:gd|res:RC3|com-cf:nl|ptrs:na|ktp:N0|mc:9909|mtp:S|qry_typ:P|lang:en|wc:2|cs:8794|v=4,False,Gandhi Nagar,Jammu,"Ground Floor Pvt. H No 9-A Gandhi Nagar, Gandhi Nagar, Jammu - 180004, Dist.Jammu, Jammu & Kashmir",7949087635,
Cotton Vissco Double Strapping Sacro Lumbar Belt,https://www.indiamart.com/proddetail/vissco-double-strapping-sacro-lumbar-belt-2853691521588.html?pos=185&kwd=maternity belts&tags=||||9528.781|Price|product|||MDC|rsf:gd-|-stype:attr=1|qr_nm:gd|res:RC3|com-cf:nl|ptrs:na|ktp:N0|mc:9909|mtp:S|qry_typ:P|lang:en|wc:2|cs:8794|v=4,Samridhi Enterprises,https://www.indiamart.com/samridhienterprisesranchi/?pos=185&kwd=maternity belts&tags=||||9528.781|Price|product|||MDC|rsf:gd-|-stype:attr=1|qr_nm:gd|res:RC3|com-cf:nl|ptrs:na|ktp:N0|mc:9909|mtp:S|qry_typ:P|lang:en|wc:2|cs:8794|v=4,False,Upper Bazar,Ranchi,"Shop No LG-6, Baldeo Bhawan, S N Road, Upper Bazar, Upper Bazar, Ranchi - 834001, Dist.Ranchi, Jharkhand",7949087270,
"Neolife Hernia Belt, Size: Medium",https://www.indiamart.com/proddetail/neolife-hernia-belt-2854891723691.html?pos=186&kwd=maternity belts&tags=||||8707.773|Price|product|||MDC|rsf:gd-|-stype:attr=1|qr_nm:gd|res:RC3|com-cf:nl|ptrs:na|ktp:N0|mc:9909|mtp:S|qry_typ:P|lang:en|wc:2|cs:8794|v=4,AC SurgiPro,https://www.indiamart.com/acsurgipro/?pos=186&kwd=maternity belts&tags=||||8707.773|Price|product|||MDC|rsf:gd-|-stype:attr=1|qr_nm:gd|res:RC3|com-cf:nl|ptrs:na|ktp:N0|mc:9909|mtp:S|qry_typ:P|lang:en|wc:2|cs:8794|v=4,False,Leftinent Ravinder Chikkara Chowk Shiv Colony,Jhajjar,"Khewat No 4864 Khata No 4978 Deswal Plaza Market, Leftinent Ravinder Chikkara Chowk Shiv Colony, Jhajjar - 124103, Dist.Jhajjar, Haryana",7949331561,
Flamingo Abdominal Belt,https://www.indiamart.com/proddetail/flamingo-abdominal-belt-2854681200691.html?pos=187&kwd=maternity belts&tags=||||8752.144|Price|product|||MDC|rsf:gd-|-stype:attr=1|qr_nm:gd|res:RC3|com-cf:nl|ptrs:na|ktp:N0|mc:9909|mtp:S|qry_typ:P|lang:en|wc:2|cs:8794|v=4,Mishra Healthlot Private Limited,https://www.indiamart.com/mishrahealthlot-delhi/?pos=187&kwd=maternity belts&tags=||||8752.144|Price|product|||MDC|rsf:gd-|-stype:attr=1|qr_nm:gd|res:RC3|com-cf:nl|ptrs:na|ktp:N0|mc:9909|mtp:S|qry_typ:P|lang:en|wc:2|cs:8794|v=4,False,,New Delhi,"Shop No 1 G.F, H.No 1-A, Kh. No.185, Village, Pul Pehaldpur South East Delhi, New Delhi - 110044, Dist.Delhi, Delhi",7949325904,
"Vissco Hernia Belt With Double Pad, Size: Medium",,Ayya Surgical Store,https://www.indiamart.com/ayya-surgicalstore/?pos=188&kwd=maternity belts&tags=||||8954.051|Price|product|||MDC|rsf:gd-|-stype:attr=1|qr_nm:gd|res:RC3|com-cf:nl|ptrs:na|ktp:N0|mc:9909|mtp:S|qry_typ:P|lang:en|wc:2|cs:8794|v=4,False,Krishnapuram,Chennai,"1st Floor, No. 603, Near O T Bus Stand, M.T.H Road Krishnapuram, Krishnapuram, Chennai - 600053, Dist.Chennai, Tamil Nadu",7942706134,
Apoyo Orthopedics Posture Corrector Belt,https://www.indiamart.com/proddetail/posture-corrector-belt-2852795886373.html?pos=189&kwd=maternity belts&tags=||||8517.219|Price|product|||MDC|rsf:gd-|-stype:attr=1|qr_nm:gd|res:RC3|com-cf:nl|ptrs:na|ktp:N0|mc:9909|mtp:S|qry_typ:P|lang:en|wc:2|cs:8794|v=4,Apoyo Orthopedics,https://www.indiamart.com/apoyo-orthopedics-edathala/?pos=189&kwd=maternity belts&tags=||||8517.219|Price|product|||MDC|rsf:gd-|-stype:attr=1|qr_nm:gd|res:RC3|com-cf:nl|ptrs:na|ktp:N0|mc:9909|mtp:S|qry_typ:P|lang:en|wc:2|cs:8794|v=4,False,Vazhakkulam,Edathala,"Door No.551/A Ward 11, Panchayath Road,Aluva, Opp.Kadayatheri Complex Kuzhivelippady, Vazhakkulam, Edathala - 683561, Dist.Ernakulam, Kerala",8044012783,
Polyester Ojla Abdominal Support Belt,https://www.indiamart.com/proddetail/ojla-abdominal-support-belt-24417582112.html?pos=190&kwd=maternity belts&tags=||||8838.804|Price|product|||MDC|rsf:gd-|-stype:attr=1|qr_nm:gd|res:RC3|com-cf:nl|ptrs:na|ktp:N0|mc:9909|mtp:S|qry_typ:P|lang:en|wc:2|cs:8794|v=4,Rajput Surgical,https://www.indiamart.com/rajput-surgical/?pos=190&kwd=maternity belts&tags=||||8838.804|Price|product|||MDC|rsf:gd-|-stype:attr=1|qr_nm:gd|res:RC3|com-cf:nl|ptrs:na|ktp:N0|mc:9909|mtp:S|qry_typ:P|lang:en|wc:2|cs:8794|v=4,False,Market,Aligarh,"S - 001 Ground Floor ROMOTEK BUILDING Near Champion, Market, Aligarh - 202001, Uttar Pradesh",7942547617,
Tynor Hernia Belt,https://www.indiamart.com/proddetail/tynor-hernia-belt-2854181987533.html?pos=191&kwd=maternity belts&tags=||||9572.14|Price|product|||MDC|rsf:gd-|-stype:attr=1|qr_nm:gd|res:RC3|com-cf:nl|ptrs:na|ktp:N0|mc:9909|mtp:S|qry_typ:P|lang:en|wc:2|cs:8794|v=4,Suhasini Pharmaceuticals,https://www.indiamart.com/suhasinipharmaceuticals/?pos=191&kwd=maternity belts&tags=||||9572.14|Price|product|||MDC|rsf:gd-|-stype:attr=1|qr_nm:gd|res:RC3|com-cf:nl|ptrs:na|ktp:N0|mc:9909|mtp:S|qry_typ:P|lang:en|wc:2|cs:8794|v=4,False,,Bhubaneswar,"Ground Floor, OSHC Complex, Plot No-24, Unit-111,Old Administrative Building, Kharavelanagar, Bhubaneswar - 751001, Dist.Khorda, Odisha",8045732380,
"Cotton Disposable Maternity Pad, Model Name/Number: KE06",https://www.indiamart.com/proddetail/disposable-maternity-pad-27138053188.html?pos=192&kwd=maternity belts&tags=||||8230.883|Price|proxy|||TS|rsf:gd-|-stype:attr=1|qr_nm:gd|res:RC3|com-cf:nl|ptrs:na|ktp:N0|mc:9909|mtp:S|qry_typ:P|lang:en|wc:2|cs:8794|v=4,Hanscure Lifescience Pvt Ltd,https://www.indiamart.com/hanscure-lifescience/?pos=192&kwd=maternity belts&tags=||||8230.883|Price|proxy|||TS|rsf:gd-|-stype:attr=1|qr_nm:gd|res:RC3|com-cf:nl|ptrs:na|ktp:N0|mc:9909|mtp:S|qry_typ:P|lang:en|wc:2|cs:8794|v=4,False,Kamrej,Surat,"Plot No. 39, Soham Ind., Near Navagam, Kamrej, Kamrej, Surat - 394185, Dist.Surat, Gujarat",8047543657,
"Sanitary Pad, for Hospital",https://www.indiamart.com/proddetail/maternity-sanitary-pad-2935193697.html?pos=193&kwd=maternity belts&tags=||||8211.142|Price|proxy|||MDC|rsf:gd-|-stype:attr=1|qr_nm:gd|res:RC3|com-cf:nl|ptrs:na|ktp:N0|mc:9909|mtp:S|qry_typ:P|lang:en|wc:2|cs:8794|v=4,Relax Surgical Co.,https://www.indiamart.com/relax-surgical/?pos=193&kwd=maternity belts&tags=||||8211.142|Price|proxy|||MDC|rsf:gd-|-stype:attr=1|qr_nm:gd|res:RC3|com-cf:nl|ptrs:na|ktp:N0|mc:9909|mtp:S|qry_typ:P|lang:en|wc:2|cs:8794|v=4,False,Malad East,Mumbai,"3rd Floor, Vijay Dwar, Hava Hira Park Kurar Village, Malad East, Mumbai - 400097, Dist.Mumbai, Maharashtra",8048965339,
Maternity Belts,https://www.indiamart.com/proddetail/maternity-belts-21691559397.html?pos=194&kwd=maternity belts&tags=CC||||8641.487|Price|product|||NA|rsf:gd-|-stype:attr=1|qr_nm:gd|res:RC3|com-cf:nl|ptrs:na|ktp:N0|mc:9909|mtp:S|qry_typ:P|lang:en|wc:2|cs:8794|v=4,A.S.Enterprises,https://www.indiamart.com/asenterprises-punjab/?pos=194&kwd=maternity belts&tags=CC||||8641.487|Price|product|||NA|rsf:gd-|-stype:attr=1|qr_nm:gd|res:RC3|com-cf:nl|ptrs:na|ktp:N0|mc:9909|mtp:S|qry_typ:P|lang:en|wc:2|cs:8794|v=4,False,,Jalandhar,"346, Amrit Vihar, Randhawa Masandan, Jalandhar - 144004, Dist.Jalandhar, Punjab",8048371510,216
"Maternity Belts, For Personal",https://www.indiamart.com/proddetail/maternity-belts-20724966430.html?pos=195&kwd=maternity belts&tags=CC||||8926.468|Price|product|||NA|rsf:gd-|-stype:attr=1|qr_nm:gd|res:RC3|com-cf:nl|ptrs:na|ktp:N0|mc:9909|mtp:S|qry_typ:P|lang:en|wc:2|cs:8794|v=4,SRM Pharma,https://www.indiamart.com/srm-pharma/?pos=195&kwd=maternity belts&tags=CC||||8926.468|Price|product|||NA|rsf:gd-|-stype:attr=1|qr_nm:gd|res:RC3|com-cf:nl|ptrs:na|ktp:N0|mc:9909|mtp:S|qry_typ:P|lang:en|wc:2|cs:8794|v=4,False,Maduravoyal Karthikeyan Nagar,Tiruvallur,"No. 1/19, Ground Floor, Meenakshi Street, Karthikeyan Nagar, Maduravoyal Karthikeyan Nagar, Tiruvallur - 600095, Dist.Tiruvallur, Tamil Nadu",8047679772,
"Nylon Maternity Belts, For Personal",https://www.indiamart.com/proddetail/nylon-maternity-belts-24415950191.html?pos=196&kwd=maternity belts&tags=CC||||8741.812|Price|product|||NA|rsf:gd-|-stype:attr=1|qr_nm:gd|res:RC3|com-cf:nl|ptrs:na|ktp:N0|mc:9909|mtp:S|qry_typ:P|lang:en|wc:2|cs:8794|v=4,Parkash Essentials Private Limited,https://www.indiamart.com/parkashessentials/?pos=196&kwd=maternity belts&tags=CC||||8741.812|Price|product|||NA|rsf:gd-|-stype:attr=1|qr_nm:gd|res:RC3|com-cf:nl|ptrs:na|ktp:N0|mc:9909|mtp:S|qry_typ:P|lang:en|wc:2|cs:8794|v=4,False,,Gurgaon,"D-38, LGF, Sushant Shopping Arcade, Sushant lok 1, Gurgaon - 122003, Dist.Gurgaon, Haryana",8048980892,
Pregnancy Belts,https://www.indiamart.com/proddetail/pregnancy-belts-11033407173.html?pos=197&kwd=maternity belts&tags=CC||||8580.032||product|||NA|rsf:gd-|-stype:attr=1|qr_nm:gd|res:RC3|com-cf:nl|ptrs:na|ktp:N0|mc:9909|mtp:S|qry_typ:P|lang:en|wc:2|cs:8794|v=4,Shivansh Enterprises,https://www.indiamart.com/shivanshenterprises/?pos=197&kwd=maternity belts&tags=CC||||8580.032||product|||NA|rsf:gd-|-stype:attr=1|qr_nm:gd|res:RC3|com-cf:nl|ptrs:na|ktp:N0|mc:9909|mtp:S|qry_typ:P|lang:en|wc:2|cs:8794|v=4,False,,Amritsar,"22, gali no 1 dayanand nagar ,fatehgarh churian road near sony place, Amritsar - 143001, Dist.Amritsar, Punjab",7942641948,
Maternity Giftings,https://www.indiamart.com/proddetail/maternity-giftings-15824276191.html?pos=198&kwd=maternity belts&tags=CC||||8211.142|Price|product|||NA|rsf:gd-|-stype:attr=1|qr_nm:gd|res:RC3|com-cf:nl|ptrs:na|ktp:N0|mc:9909|mtp:S|qry_typ:P|lang:en|wc:2|cs:8794|v=4,Illuminati Creations,https://www.indiamart.com/illuminati-creations/?pos=198&kwd=maternity belts&tags=CC||||8211.142|Price|product|||NA|rsf:gd-|-stype:attr=1|qr_nm:gd|res:RC3|com-cf:nl|ptrs:na|ktp:N0|mc:9909|mtp:S|qry_typ:P|lang:en|wc:2|cs:8794|v=4,False,Mira Road East,Mumbai,"C102, Arina Complex, Nayanagar, Mira Road East, Mumbai - 401107, Dist.Mumbai, Maharashtra",8069857324,936
"Maternity Belt, For Personal",,Shone Medicals,https://www.indiamart.com/shone-medicals/?pos=199&kwd=maternity belts&tags=CC||||8500.97||product|||NA|rsf:gd-|-stype:attr=1|qr_nm:gd|res:RC3|com-cf:nl|ptrs:na|ktp:N0|mc:9909|mtp:S|qry_typ:P|lang:en|wc:2|cs:8794|v=4,False,Cherpu,Thrissur,"559,Cherpu,Cherpu,Thrissur Cherpu,Thrissur, Cherpu, Thrissur - 680561, Dist.Thrissur, Kerala",8048249729,4229
Maternity Belt,https://www.indiamart.com/proddetail/maternity-belt-12668965588.html?pos=200&kwd=maternity belts&tags=CC||||8954.051|Price|product|||NA|rsf:gd-|-stype:attr=1|qr_nm:gd|res:RC3|com-cf:nl|ptrs:na|ktp:N0|mc:9909|mtp:S|qry_typ:P|lang:en|wc:2|cs:8794|v=4,Ascend Lifecare,https://www.indiamart.com/ascendlifecare/?pos=200&kwd=maternity belts&tags=CC||||8954.051|Price|product|||NA|rsf:gd-|-stype:attr=1|qr_nm:gd|res:RC3|com-cf:nl|ptrs:na|ktp:N0|mc:9909|mtp:S|qry_typ:P|lang:en|wc:2|cs:8794|v=4,False,Perambur,Chennai,"NEW NO 18 / OLD NO 7B JAGANATHAN STREET, FOXEN STREET PERAMBUR Foxen Street, Perambur, Perambur, Chennai - 600011, Dist.Chennai, Tamil Nadu",8047796514,
"Maternity Belt, For Personal",https://www.indiamart.com/proddetail/maternity-belt-22900686630.html?pos=201&kwd=maternity belts&tags=CC||||8228.275|Price|product|||NA|rsf:gd-|-stype:attr=1|qr_nm:gd|res:RC3|com-cf:nl|ptrs:na|ktp:N0|mc:9909|mtp:S|qry_typ:P|lang:en|wc:2|cs:8794|v=4,Cousins Corporation,https://www.indiamart.com/cousinscorporation/?pos=201&kwd=maternity belts&tags=CC||||8228.275|Price|product|||NA|rsf:gd-|-stype:attr=1|qr_nm:gd|res:RC3|com-cf:nl|ptrs:na|ktp:N0|mc:9909|mtp:S|qry_typ:P|lang:en|wc:2|cs:8794|v=4,False,Bhattha,Ahmedabad,"209/B, Sahajanand Plaza, Near Bhattha Bus Stand Paldi, Bhattha, Ahmedabad - 380007, Dist.Ahmedabad, Gujarat",8043869834,
Maternity Belt,https://www.indiamart.com/proddetail/maternity-belt-21492084812.html?pos=202&kwd=maternity belts&tags=CC||||8532.341|Price|product|||NA|rsf:gd-|-stype:attr=1|qr_nm:gd|res:RC3|com-cf:nl|ptrs:na|ktp:N0|mc:9909|mtp:S|qry_typ:P|lang:en|wc:2|cs:8794|v=4,Ortho Trader,https://www.indiamart.com/ortho-trader/?pos=202&kwd=maternity belts&tags=CC||||8532.341|Price|product|||NA|rsf:gd-|-stype:attr=1|qr_nm:gd|res:RC3|com-cf:nl|ptrs:na|ktp:N0|mc:9909|mtp:S|qry_typ:P|lang:en|wc:2|cs:8794|v=4,False,Kacheri Road,Jalna,"khanspure galli kacheri road, Kacheri Road, Jalna - 431203, Dist.Jalna, Maharashtra",8043823079,
"Maternity Belt, Usage: Clinical, Personal",https://www.indiamart.com/proddetail/maternity-belt-18713697112.html?pos=203&kwd=maternity belts&tags=CC||||8778.123|Price|product|||NA|rsf:gd-|-stype:attr=1|qr_nm:gd|res:RC3|com-cf:nl|ptrs:na|ktp:N0|mc:9909|mtp:S|qry_typ:P|lang:en|wc:2|cs:8794|v=4,NS Viklang And Surgical House,https://www.indiamart.com/nsviklangsurgicalhouse/?pos=203&kwd=maternity belts&tags=CC||||8778.123|Price|product|||NA|rsf:gd-|-stype:attr=1|qr_nm:gd|res:RC3|com-cf:nl|ptrs:na|ktp:N0|mc:9909|mtp:S|qry_typ:P|lang:en|wc:2|cs:8794|v=4,False,Sector 62,Noida,"RN 22,,MARKET ROAD,SEC 62 NOIDA RN-22, Basement, Sector-62, B/h. Fortis Hospital, Near Patanjali Store,201301,Noida, Sector 62, Noida - 201309, Dist.Gautam Budh Nagar, Uttar Pradesh",8048204244,
Maternity Belt,https://www.indiamart.com/proddetail/maternity-belt-22607224497.html?pos=204&kwd=maternity belts&tags=CC||||8663.873|Price|product|||NA|rsf:gd-|-stype:attr=1|qr_nm:gd|res:RC3|com-cf:nl|ptrs:na|ktp:N0|mc:9909|mtp:S|qry_typ:P|lang:en|wc:2|cs:8794|v=4,Shree Devi Medical Systems,https://www.indiamart.com/shreedevimedicalsystems/?pos=204&kwd=maternity belts&tags=CC||||8663.873|Price|product|||NA|rsf:gd-|-stype:attr=1|qr_nm:gd|res:RC3|com-cf:nl|ptrs:na|ktp:N0|mc:9909|mtp:S|qry_typ:P|lang:en|wc:2|cs:8794|v=4,False,Bengaluru,Bengaluru,"No - 45/2 B Behind Tulsi Theater Vinayak Theater Road Meramarathahalli, Bengaluru, Bengaluru - 560037, Dist.Bengaluru, Karnataka",7949345747,
"Medilink Maternity Belt During Pregnancy, For Personal",https://www.indiamart.com/proddetail/medilink-maternity-belt-during-pregnancy-2854033781888.html?pos=205&kwd=maternity belts&tags=CC||||8752.144||product|||NA|rsf:gd-|-stype:attr=1|qr_nm:gd|res:RC3|com-cf:nl|ptrs:na|ktp:N0|mc:9909|mtp:S|qry_typ:P|lang:en|wc:2|cs:8794|v=4,Medilink Enterprises,https://www.indiamart.com/medilinkenterprises-delhi/?pos=205&kwd=maternity belts&tags=CC||||8752.144||product|||NA|rsf:gd-|-stype:attr=1|qr_nm:gd|res:RC3|com-cf:nl|ptrs:na|ktp:N0|mc:9909|mtp:S|qry_typ:P|lang:en|wc:2|cs:8794|v=4,False,New Delhi 110059,New Delhi,"Plot No-O-74 Vani Vihar, New Delhi 110059, New Delhi - 110059, Dist.Delhi, Delhi",8047833722,
Maternity Belt,https://www.indiamart.com/proddetail/maternity-belt-6346249473.html?pos=206&kwd=maternity belts&tags=CC||||8876.815||product|||NA|rsf:gd-|-stype:attr=1|qr_nm:gd|res:RC3|com-cf:nl|ptrs:na|ktp:N0|mc:9909|mtp:S|qry_typ:P|lang:en|wc:2|cs:8794|v=4,Matrix Surgicals / Arc Ventures,https://www.indiamart.com/matrixsurgicals-com-3114154/?pos=206&kwd=maternity belts&tags=CC||||8876.815||product|||NA|rsf:gd-|-stype:attr=1|qr_nm:gd|res:RC3|com-cf:nl|ptrs:na|ktp:N0|mc:9909|mtp:S|qry_typ:P|lang:en|wc:2|cs:8794|v=4,False,Byramji Town,Nagpur,"Plot No. 4, Chitnavis Layout, Byramji Town, Byramji Town, Nagpur - 440013, Dist.Nagpur, Maharashtra",8062245113,132
IRIS Maternity Support for Personal,https://www.indiamart.com/proddetail/maternity-support-20652891773.html?pos=207&kwd=maternity belts&tags=CC||||8661.854||product|||NA|rsf:gd-|-stype:attr=1|qr_nm:gd|res:RC3|com-cf:nl|ptrs:na|ktp:N0|mc:9909|mtp:S|qry_typ:P|lang:en|wc:2|cs:8794|v=4,Rishab Sports,https://www.indiamart.com/rishabsports/?pos=207&kwd=maternity belts&tags=CC||||8661.854||product|||NA|rsf:gd-|-stype:attr=1|qr_nm:gd|res:RC3|com-cf:nl|ptrs:na|ktp:N0|mc:9909|mtp:S|qry_typ:P|lang:en|wc:2|cs:8794|v=4,False,Jamalpur Colony,Ludhiana,"Rishab Sports,Opp Bbmb Power House, Jamalpur Chowk,Chandigarh Road Opposite BBMB Power House, Chandigarh Road,141010,Ludhiana, Jamalpur Colony, Ludhiana - 141112, Dist.Ludhiana, Punjab",8047668922,
MATERNITY BELT,https://www.indiamart.com/proddetail/maternity-belt-24501713088.html?pos=208&kwd=maternity belts&tags=CC||||8228.275|Price|product|||NA|rsf:gd-|-stype:attr=1|qr_nm:gd|res:RC3|com-cf:nl|ptrs:na|ktp:N0|mc:9909|mtp:S|qry_typ:P|lang:en|wc:2|cs:8794|v=4,Sion Surgimed,https://www.indiamart.com/sion-surgimed-ahmedabad/?pos=208&kwd=maternity belts&tags=CC||||8228.275|Price|product|||NA|rsf:gd-|-stype:attr=1|qr_nm:gd|res:RC3|com-cf:nl|ptrs:na|ktp:N0|mc:9909|mtp:S|qry_typ:P|lang:en|wc:2|cs:8794|v=4,False,,Ahmedabad,"4-C,Sumel Business Park-5,Near Chamunda Bridge,Asarva, Ahmedabad - 380016, Dist.Ahmedabad, Gujarat",7942543289,
Maternity Belt,,M/S Sports Villa,https://www.indiamart.com/sportsvillaludhiana/?pos=209&kwd=maternity belts&tags=CC||||8661.854|Price|product|||NA|rsf:gd-|-stype:attr=1|qr_nm:gd|res:RC3|com-cf:nl|ptrs:na|ktp:N0|mc:9909|mtp:S|qry_typ:P|lang:en|wc:2|cs:8794|v=4,False,,Ludhiana,"M/S Sports Villa, 1st Floor, Opp Bbmb Power House, Chandigarh Road, Ludhiana - 141010, Dist.Ludhiana, Punjab",7942541584,
Sukham Maternity Belt,https://www.indiamart.com/proddetail/maternity-belt-17034675497.html?pos=210&kwd=maternity belts&tags=CC||||8954.051|Price|product|||NA|rsf:gd-|-stype:attr=1|qr_nm:gd|res:RC3|com-cf:nl|ptrs:na|ktp:N0|mc:9909|mtp:S|qry_typ:P|lang:en|wc:2|cs:8794|v=4,Sukham Healthcare,https://www.indiamart.com/sri-krishna-pharmacy/?pos=210&kwd=maternity belts&tags=CC||||8954.051|Price|product|||NA|rsf:gd-|-stype:attr=1|qr_nm:gd|res:RC3|com-cf:nl|ptrs:na|ktp:N0|mc:9909|mtp:S|qry_typ:P|lang:en|wc:2|cs:8794|v=4,False,,Chennai,"AP-708, 1st Street, 12th Main Road, Anna Nagar, Chennai - 600040, Dist.Chennai, Tamil Nadu",8047677589,
