product_title,product_link,company_name,company_link,is_verified_exporter,city_region,city,address_details,phone_number,phone_number_extension
red Kids Diaper Bag,https://www.indiamart.com/proddetail/kids-diaper-bag-2851736556673.html?pos=1&kwd=mommy bag&tags=A||||8783.355|Price|product|||MDC|rsf:gd-|-stype:attr=1|qr_nm:gd|res:RC3|com-cf:nl|ptrs:na|ktp:N0|mc:111595|mtp:S|qry_typ:P|lang:en|wc:2|flavl:0|cs:9648|v=4,Om Shiv International,https://www.indiamart.com/omshivinternational/?pos=1&kwd=mommy bag&tags=A||||8783.355|Price|product|||MDC|rsf:gd-|-stype:attr=1|qr_nm:gd|res:RC3|com-cf:nl|ptrs:na|ktp:N0|mc:111595|mtp:S|qry_typ:P|lang:en|wc:2|flavl:0|cs:9648|v=4,False,Baghpat,Aminagar Sarai,"170, Gauspur, Baghpat, Baghpat, Aminagar Sarai - 250606, Dist.Bagpat, Uttar Pradesh",8048616452,
Baby Diaper Bag Mothers Bag Mom Bag Baby Bag,https://www.indiamart.com/proddetail/baby-diaper-bag-mothers-bag-mom-bag-baby-bag-2854036997173.html?pos=2&kwd=mommy bag&tags=A||||8211.142|Price|product|||TS|rsf:gd-|-stype:attr=1|qr_nm:gd|res:RC3|com-cf:nl|ptrs:na|ktp:N0|mc:111595|mtp:S|qry_typ:P|lang:en|wc:2|flavl:0|cs:9648|v=4,P For Panda Baby Products Private Limited,https://www.p4pandababyproducts.com/?pos=2&kwd=mommy bag&tags=A||||8211.142|Price|product|||TS|rsf:gd-|-stype:attr=1|qr_nm:gd|res:RC3|com-cf:nl|ptrs:na|ktp:N0|mc:111595|mtp:S|qry_typ:P|lang:en|wc:2|flavl:0|cs:9648|v=4,False,Goregaon West,Mumbai,"904 A Wing,9 Th Floor,Triple S Heights,Jakeria Road, Goregaon West, Mumbai - 400064, Dist.Mumbai, Maharashtra",7942710871,
Printed Blue Backpack Bag,https://www.indiamart.com/proddetail/mommy-bags-26196786712.html?pos=3&kwd=mommy bag&tags=A||||8752.144|Price|product|||TS|rsf:gd-|-stype:attr=1|qr_nm:gd|res:RC3|com-cf:nl|ptrs:na|ktp:N0|mc:111595|mtp:S|qry_typ:P|lang:en|wc:2|flavl:0|cs:9648|v=4,Meego Merchandise Company,https://www.meegomerchandise.com/?pos=3&kwd=mommy bag&tags=A||||8752.144|Price|product|||TS|rsf:gd-|-stype:attr=1|qr_nm:gd|res:RC3|com-cf:nl|ptrs:na|ktp:N0|mc:111595|mtp:S|qry_typ:P|lang:en|wc:2|flavl:0|cs:9648|v=4,False,Manglapuri,New Delhi,"B- 39 , Dwarka puri , Vijay Enclave Palam Dwarka Road, Manglapuri, New Delhi - 110045, Dist.Delhi, Delhi",7942533895,
Mommy Bags,https://www.indiamart.com/proddetail/mommy-bags-2854351294691.html?pos=4&kwd=mommy bag&tags=A||||8739.675|Price|product|||MDC|rsf:gd-|-stype:attr=1|qr_nm:gd|res:RC3|com-cf:nl|ptrs:na|ktp:N0|mc:111595|mtp:S|qry_typ:P|lang:en|wc:2|flavl:0|cs:9648|v=4,Saanvi Marketing,https://www.indiamart.com/saanvi-marketing-maharashtra/?pos=4&kwd=mommy bag&tags=A||||8739.675|Price|product|||MDC|rsf:gd-|-stype:attr=1|qr_nm:gd|res:RC3|com-cf:nl|ptrs:na|ktp:N0|mc:111595|mtp:S|qry_typ:P|lang:en|wc:2|flavl:0|cs:9648|v=4,False,Upper Wardha Colony,Amravati,"45/1 Om Sai,Sahakar Nagar,Sahakar Nagar,Amravati, Upper Wardha Colony, Amravati - 444603, Dist.Amravati, Maharashtra",8044563257,
large capacity Mommy travel bag,https://www.indiamart.com/proddetail/large-capacity-mommy-travel-bag-2850809939488.html?pos=5&kwd=mommy bag&tags=A||||8230.883|Price|product|||TS|rsf:gd-|-stype:attr=1|qr_nm:gd|res:RC3|com-cf:nl|ptrs:na|ktp:N0|mc:111595|mtp:S|qry_typ:P|lang:en|wc:2|flavl:0|cs:9648|v=4,BESTZONE BK LLP,https://www.bestzone.co.in/?pos=5&kwd=mommy bag&tags=A||||8230.883|Price|product|||TS|rsf:gd-|-stype:attr=1|qr_nm:gd|res:RC3|com-cf:nl|ptrs:na|ktp:N0|mc:111595|mtp:S|qry_typ:P|lang:en|wc:2|flavl:0|cs:9648|v=4,False,Shraddha Society,Surat,"4/5 RJD PARTY PLOT NEAR VRAJ CHOWK, Shraddha Society, Surat - 395006, Dist.Surat, Gujarat",8048983884,
"Cotton Mother Diaper Bag Pink, 3-12 Months",https://www.indiamart.com/proddetail/mother-diaper-bag-pink-2854614761288.html?pos=6&kwd=mommy bag&tags=BA||||8211.142|Price|product|||TS|rsf:gd-|-stype:attr=1|qr_nm:gd|res:RC3|com-cf:nl|ptrs:na|ktp:N0|mc:111595|mtp:S|qry_typ:P|lang:en|wc:2|flavl:0|cs:9648|v=4,Bhavya Fashion,https://www.indiamart.com/bhavya-fashion/?pos=6&kwd=mommy bag&tags=BA||||8211.142|Price|product|||TS|rsf:gd-|-stype:attr=1|qr_nm:gd|res:RC3|com-cf:nl|ptrs:na|ktp:N0|mc:111595|mtp:S|qry_typ:P|lang:en|wc:2|flavl:0|cs:9648|v=4,False,Dadar West,Mumbai,"71, Vijay Nagar Building, M. C. Jawale Marg, Above Kamat Hotel, Dadar West, Mumbai - 400028, Dist.Mumbai, Maharashtra",8046048817,
VISMIINTREND Sky Blue & Gray Mommy Bag,https://www.indiamart.com/proddetail/mommy-bag-22314411733.html?pos=7&kwd=mommy bag&tags=BA||||8601.347|Price|product|||TS|rsf:gd-|-stype:attr=1|qr_nm:gd|res:RC3|com-cf:nl|ptrs:na|ktp:N0|mc:111595|mtp:S|qry_typ:P|lang:en|wc:2|flavl:0|cs:9648|v=4,Beena Internationals,https://www.aahanvibags.com/?pos=7&kwd=mommy bag&tags=BA||||8601.347|Price|product|||TS|rsf:gd-|-stype:attr=1|qr_nm:gd|res:RC3|com-cf:nl|ptrs:na|ktp:N0|mc:111595|mtp:S|qry_typ:P|lang:en|wc:2|flavl:0|cs:9648|v=4,False,,Jaipur,"E-131, Ambabari, Jaipur - 302023, Dist.Jaipur, Rajasthan",8047645446,
Little Monkey Baby Diaper Bag,https://www.indiamart.com/proddetail/little-monkey-baby-diaper-bag-2851497303691.html?pos=8&kwd=mommy bag&tags=BA||||8752.144|Price|product|||TS|rsf:gd-|-stype:attr=1|qr_nm:gd|res:RC3|com-cf:nl|ptrs:na|ktp:N0|mc:111595|mtp:S|qry_typ:P|lang:en|wc:2|flavl:0|cs:9648|v=4,Ekta Overseas,https://www.indiamart.com/ektaoverseas-newdelhi/?pos=8&kwd=mommy bag&tags=BA||||8752.144|Price|product|||TS|rsf:gd-|-stype:attr=1|qr_nm:gd|res:RC3|com-cf:nl|ptrs:na|ktp:N0|mc:111595|mtp:S|qry_typ:P|lang:en|wc:2|flavl:0|cs:9648|v=4,False,Shahdara,New Delhi,"1/95, Gali No.3, Near Navjeevan Phisical Center, Vishwas Nagar, Shahdara,, Shahdara, New Delhi - 110032, Dist.Delhi, Delhi",7942628926,
Baby Mother Bag,https://www.indiamart.com/proddetail/baby-mother-bag-27429681130.html?pos=9&kwd=mommy bag&tags=BA||||8752.144|Price|product|||TS|rsf:gd-|-stype:attr=1|qr_nm:gd|res:RC3|com-cf:nl|ptrs:na|ktp:N0|mc:111595|mtp:S|qry_typ:P|lang:en|wc:2|flavl:0|cs:9648|v=4,Chinmay Kids,https://www.indiamart.com/chinmaykids/?pos=9&kwd=mommy bag&tags=BA||||8752.144|Price|product|||TS|rsf:gd-|-stype:attr=1|qr_nm:gd|res:RC3|com-cf:nl|ptrs:na|ktp:N0|mc:111595|mtp:S|qry_typ:P|lang:en|wc:2|flavl:0|cs:9648|v=4,False,Nayagaon,New Delhi,"C-99, Street No. 4, First Pusta, Nayagaon, New Delhi - 110053, Dist.Delhi, Delhi",8046054858,
Diaper Bag,https://www.indiamart.com/proddetail/diaper-bag-2851504732412.html?pos=10&kwd=mommy bag&tags=BA||||8752.144|Price|product|||MDC|rsf:gd-|-stype:attr=1|qr_nm:gd|res:RC3|com-cf:nl|ptrs:na|ktp:N0|mc:111595|mtp:S|qry_typ:P|lang:en|wc:2|flavl:0|cs:9648|v=4,Moulshree Impex,https://www.indiamart.com/moulshree-impex-delhi/?pos=10&kwd=mommy bag&tags=BA||||8752.144|Price|product|||MDC|rsf:gd-|-stype:attr=1|qr_nm:gd|res:RC3|com-cf:nl|ptrs:na|ktp:N0|mc:111595|mtp:S|qry_typ:P|lang:en|wc:2|flavl:0|cs:9648|v=4,False,Karol Bagh,New Delhi,"khasra No. 25/14, Karol Bagh, New Delhi - 110041, Dist.Delhi, Delhi",7942843759,
"Polyester Shoulder Nappy Mommy Bag Diaper Bag, 3-12 Months",https://www.indiamart.com/proddetail/shoulder-nappy-mommy-bag-diaper-bag-2854425076730.html?pos=11&kwd=mommy bag&tags=BA||||8663.873|Price|product|||MDC|rsf:gd-|-stype:attr=1|qr_nm:gd|res:RC3|com-cf:nl|ptrs:na|ktp:N0|mc:111595|mtp:S|qry_typ:P|lang:en|wc:2|flavl:0|cs:9648|v=4,Niram Enterprises,https://www.indiamart.com/niram-enterprises-bengaluru/?pos=11&kwd=mommy bag&tags=BA||||8663.873|Price|product|||MDC|rsf:gd-|-stype:attr=1|qr_nm:gd|res:RC3|com-cf:nl|ptrs:na|ktp:N0|mc:111595|mtp:S|qry_typ:P|lang:en|wc:2|flavl:0|cs:9648|v=4,False,,Bengaluru,"81, Smilee Orchids, Singena Agrahara Road, Bhoomi No. 116/14, Gullimangala Village, Bengaluru Urban,, Bengaluru - 560099, Dist.Bengaluru, Karnataka",8044560374,
Baby Mother Bags,https://www.indiamart.com/proddetail/baby-mother-bags-3725332788.html?pos=12&kwd=mommy bag&tags=BB||||8211.142|Price|product|||TS|rsf:gd-|-stype:attr=1|qr_nm:gd|res:RC3|com-cf:nl|ptrs:na|ktp:N0|mc:111595|mtp:S|qry_typ:P|lang:en|wc:2|flavl:0|cs:9648|v=4,Dhrupti Creation,https://www.indiamart.com/littlecare/?pos=12&kwd=mommy bag&tags=BB||||8211.142|Price|product|||TS|rsf:gd-|-stype:attr=1|qr_nm:gd|res:RC3|com-cf:nl|ptrs:na|ktp:N0|mc:111595|mtp:S|qry_typ:P|lang:en|wc:2|flavl:0|cs:9648|v=4,False,Malad East,Mumbai,"Gala No. 3, Jignesh Diamond House, Near Vaishnavdevi Mandir, Subhash Lane, Malad East, Malad East, Mumbai - 400097, Dist.Mumbai, Maharashtra",8048970316,
Baby Mother Bag,https://www.indiamart.com/proddetail/baby-mother-bag-2854235098197.html?pos=13&kwd=mommy bag&tags=BA||||8230.883|Price|product|||TS|rsf:gd-|-stype:attr=1|qr_nm:gd|res:RC3|com-cf:nl|ptrs:na|ktp:N0|mc:111595|mtp:S|qry_typ:P|lang:en|wc:2|flavl:0|cs:9648|v=4,BABYHOLIC,https://www.babyholic.in/?pos=13&kwd=mommy bag&tags=BA||||8230.883|Price|product|||TS|rsf:gd-|-stype:attr=1|qr_nm:gd|res:RC3|com-cf:nl|ptrs:na|ktp:N0|mc:111595|mtp:S|qry_typ:P|lang:en|wc:2|flavl:0|cs:9648|v=4,False,,Surat,"Ground Floor, Plot No. F/56/, And F/57, Laxmi Narayan Industrial Estate, Udhana, Kailash Fashion, Surat - 394210, Dist.Surat, Gujarat",8045732096,
Baby Mother Bag,https://www.indiamart.com/proddetail/baby-mother-bag-2854011655397.html?pos=14&kwd=mommy bag&tags=BA||||8230.883|Price|product|||TS|rsf:gd-|-stype:attr=1|qr_nm:gd|res:RC3|com-cf:nl|ptrs:na|ktp:N0|mc:111595|mtp:S|qry_typ:P|lang:en|wc:2|flavl:0|cs:9648|v=4,Basketo,https://www.basketo.net/?pos=14&kwd=mommy bag&tags=BA||||8230.883|Price|product|||TS|rsf:gd-|-stype:attr=1|qr_nm:gd|res:RC3|com-cf:nl|ptrs:na|ktp:N0|mc:111595|mtp:S|qry_typ:P|lang:en|wc:2|flavl:0|cs:9648|v=4,False,Singanpor,Surat,"PLOT NO-32,Laxmi Narayan Society,DABHOLI CHAR RASTA, VED ROAD,Surat, Singanpor, Surat - 395004, Dist.Surat, Gujarat",7942716532,
Mummy Bags,,Invogue Collection,https://www.indiamart.com/invogue-mumbai/?pos=15&kwd=mommy bag&tags=BA||||8211.142|Price|product|||TS|rsf:gd-|-stype:attr=1|qr_nm:gd|res:RC3|com-cf:nl|ptrs:na|ktp:N0|mc:111595|mtp:S|qry_typ:P|lang:en|wc:2|cs:8885|v=4,False,Malad East,Mumbai,"17, Plot no 33/B, Sarvar Manzil, Pushpa Park, Malad East, Suburban, Malad East, Mumbai - 400097, Dist.Mumbai, Maharashtra",8047677715,
Pink And White Printed Cotton Mother Bag,https://www.indiamart.com/proddetail/cotton-mother-bag-4297677312.html?pos=16&kwd=mommy bag&tags=BB||||8223.226|Price|product|||MDC|rsf:gd-|-stype:attr=1|qr_nm:gd|res:RC3|com-cf:nl|ptrs:na|ktp:N0|mc:111595|mtp:S|qry_typ:P|lang:en|wc:2|cs:8885|v=4,Wecare Solutions,https://www.indiamart.com/wecare-solutions/?pos=16&kwd=mommy bag&tags=BB||||8223.226|Price|product|||MDC|rsf:gd-|-stype:attr=1|qr_nm:gd|res:RC3|com-cf:nl|ptrs:na|ktp:N0|mc:111595|mtp:S|qry_typ:P|lang:en|wc:2|cs:8885|v=4,False,Valiv,Thane,"Gala No. F-19-20, 1st Floor, Rajprabha Anand Industrial Estate Naikpada, Waliv, Valiv, Thane - 401208, Dist.Thane, Maharashtra",8047631791,
"Cotton Small Diaper Bags, 1-2 Years",https://www.indiamart.com/proddetail/baby-mother-bag-2854722814862.html?pos=17&kwd=mommy bag&tags=BB||||8211.142|Price|product|||MDC|rsf:gd-|-stype:attr=1|qr_nm:gd|res:RC3|com-cf:nl|ptrs:na|ktp:N0|mc:111595|mtp:S|qry_typ:P|lang:en|wc:2|cs:8885|v=4,Apple Kids,https://www.indiamart.com/applekids-mumbai/?pos=17&kwd=mommy bag&tags=BB||||8211.142|Price|product|||MDC|rsf:gd-|-stype:attr=1|qr_nm:gd|res:RC3|com-cf:nl|ptrs:na|ktp:N0|mc:111595|mtp:S|qry_typ:P|lang:en|wc:2|cs:8885|v=4,False,,Mumbai,"Room No 1,211/4, Janu Seth Chawl, Puspa Park, Daftary Road, Malad East Suburban, Mumbai - 400097, Dist.Mumbai, Maharashtra",7949326883,
Mother Bag,,Priyanshi International,https://www.indiamart.com/priyanshi-international-uttarpradesh/?pos=18&kwd=mommy bag&tags=BA||||8752.144|Price|product|||MDC|rsf:gd-|-stype:attr=1|qr_nm:gd|res:RC3|com-cf:nl|ptrs:na|ktp:N0|mc:111595|mtp:S|qry_typ:P|lang:en|wc:2|cs:8885|v=4,False,,New Delhi,"3,PROP NO S228,SCHOOL BLOCK,SHAKARPUR UGF, 3, Prop No S228, School Block, Shakarpur,110092, New Delhi - 110092, Dist.Delhi, Delhi",7942676139,
"Conava Multicolor Mommy Diaper Bag, Packaging Type: Polybag",https://www.indiamart.com/proddetail/mommy-diaper-bag-2850321378197.html?pos=19&kwd=mommy bag&tags=BB||||8752.144|Price|product|||TS|rsf:gd-|-stype:attr=1|qr_nm:gd|res:RC3|com-cf:nl|ptrs:na|ktp:N0|mc:111595|mtp:S|qry_typ:P|lang:en|wc:2|cs:8885|v=4,House Of Luxury,https://www.theholworld.net/?pos=19&kwd=mommy bag&tags=BB||||8752.144|Price|product|||TS|rsf:gd-|-stype:attr=1|qr_nm:gd|res:RC3|com-cf:nl|ptrs:na|ktp:N0|mc:111595|mtp:S|qry_typ:P|lang:en|wc:2|cs:8885|v=4,False,Budh Vihar,New Delhi,"Plot No - 5, Kh. No. - 89/10/2, 1, Block No. - I-1, Budh Vihar Phase 1, Delhi, North West Delhi, Del, Budh Vihar, New Delhi - 110086, Dist.Delhi, Delhi",7942819716,
Generic Baby Diaper Bag 2 in 1 Multifunctional Travel Mommy Backpack,https://www.indiamart.com/proddetail/2-in-1-multifunctional-travel-mommy-backpack-26867208273.html?pos=20&kwd=mommy bag&tags=BB||||8230.883|Price|product|||TS|rsf:gd-|-stype:attr=1|qr_nm:gd|res:RC3|com-cf:nl|ptrs:na|ktp:N0|mc:111595|mtp:S|qry_typ:P|lang:en|wc:2|cs:8885|v=4,The Guru Shop,https://www.indiamart.com/thegurushop/?pos=20&kwd=mommy bag&tags=BB||||8230.883|Price|product|||TS|rsf:gd-|-stype:attr=1|qr_nm:gd|res:RC3|com-cf:nl|ptrs:na|ktp:N0|mc:111595|mtp:S|qry_typ:P|lang:en|wc:2|cs:8885|v=4,False,Katargam,Surat,"F-33/34, 1st Floor, Radhe Shyam Society, Near Singanpore Char Rasta, Ved Road,, Katargam, Surat - 395004, Dist.Surat, Gujarat",8046037459,
"Orange Baby Mother Bag, Packaging Type: Bottle, Newly Born",https://www.indiamart.com/proddetail/baby-mother-bag-2850514397297.html?pos=21&kwd=mommy bag&tags=BA||||8752.144|Price|product|||TS|rsf:gd-|-stype:attr=1|qr_nm:gd|res:RC3|com-cf:nl|ptrs:na|ktp:N0|mc:111595|mtp:S|qry_typ:P|lang:en|wc:2|cs:8885|v=4,Anand Garments Pvt Ltd,https://www.indiamart.com/anand-garments-newdelhi/?pos=21&kwd=mommy bag&tags=BA||||8752.144|Price|product|||TS|rsf:gd-|-stype:attr=1|qr_nm:gd|res:RC3|com-cf:nl|ptrs:na|ktp:N0|mc:111595|mtp:S|qry_typ:P|lang:en|wc:2|cs:8885|v=4,False,mundka,New Delhi,"Plot No-276, Area Pocket-m Sector-1, Dsiidc Bawana,, mundka, New Delhi - 110039, Dist.Delhi, Delhi",8048262855,
Rexine Printed Baby Bag,https://www.indiamart.com/proddetail/rexine-printed-baby-bag-21889026148.html?pos=22&kwd=mommy bag&tags=BA||||8752.144|Price|product|||TS|rsf:gd-|-stype:attr=1|qr_nm:gd|res:RC3|com-cf:nl|ptrs:na|ktp:N0|mc:111595|mtp:S|qry_typ:P|lang:en|wc:2|cs:8885|v=4,Mom & Son,https://www.theindianchoice.com/?pos=22&kwd=mommy bag&tags=BA||||8752.144|Price|product|||TS|rsf:gd-|-stype:attr=1|qr_nm:gd|res:RC3|com-cf:nl|ptrs:na|ktp:N0|mc:111595|mtp:S|qry_typ:P|lang:en|wc:2|cs:8885|v=4,False,Karawal Nagar,New Delhi,"B-57 Gali Number-1 Mukund Vihar, Near Pnb Bank, Karawal Nagar, New Delhi - 110094, Dist.Delhi, Delhi",7942565509,
Grey Chic Buddy Printed Diaper Bag,https://www.indiamart.com/proddetail/chic-buddy-printed-diaper-bag-24185405712.html?pos=23&kwd=mommy bag&tags=BA||||8786.56|Price|product|||TS|rsf:gd-|-stype:attr=1|qr_nm:gd|res:RC3|com-cf:nl|ptrs:na|ktp:N0|mc:111595|mtp:S|qry_typ:P|lang:en|wc:2|cs:8885|v=4,Totcase Services Private Limited,https://www.totcase.com/?pos=23&kwd=mommy bag&tags=BA||||8786.56|Price|product|||TS|rsf:gd-|-stype:attr=1|qr_nm:gd|res:RC3|com-cf:nl|ptrs:na|ktp:N0|mc:111595|mtp:S|qry_typ:P|lang:en|wc:2|cs:8885|v=4,False,Alwal,Hyderabad,"1-4-177/ A13/402 Shivasai Residency Greenwood Colony Old Alwal, Alwal, Hyderabad - 500010, Dist.Hyderabad, Telangana",8045910096,
Baby Mother Bag,https://www.indiamart.com/proddetail/baby-mother-bag-27468312173.html?pos=24&kwd=mommy bag&tags=BA||||8507.67|Price|product|||TS|rsf:gd-|-stype:attr=1|qr_nm:gd|res:RC3|com-cf:nl|ptrs:na|ktp:N0|mc:111595|mtp:S|qry_typ:P|lang:en|wc:2|cs:8885|v=4,OZO,https://www.indiamart.com/ozo/?pos=24&kwd=mommy bag&tags=BA||||8507.67|Price|product|||TS|rsf:gd-|-stype:attr=1|qr_nm:gd|res:RC3|com-cf:nl|ptrs:na|ktp:N0|mc:111595|mtp:S|qry_typ:P|lang:en|wc:2|cs:8885|v=4,False,Elamakkara,Ernakulam,"Elamakkara Road, Near Karukappilly Junction, Elamakkara, Elamakkara, Ernakulam - 682026, Dist.Ernakulam, Kerala",8046054569,
Mother Beg White (Base) 150 GSM Printed Mommy Bag,https://www.indiamart.com/proddetail/150-gsm-printed-mommy-bag-2850422409048.html?pos=25&kwd=mommy bag&tags=BB||||8211.142||product|||NA|rsf:gd-|-stype:attr=1|qr_nm:gd|res:RC3|com-cf:nl|ptrs:na|ktp:N0|mc:111595|mtp:S|qry_typ:P|lang:en|wc:2|cs:8885|v=4,Mahavir Baby,https://www.indiamart.com/mahavirbaby/?pos=25&kwd=mommy bag&tags=BB||||8211.142||product|||NA|rsf:gd-|-stype:attr=1|qr_nm:gd|res:RC3|com-cf:nl|ptrs:na|ktp:N0|mc:111595|mtp:S|qry_typ:P|lang:en|wc:2|cs:8885|v=4,False,,Mumbai,"Room No. 8, Prabha Sadan, 198 2 Datta Mandir X Road, Malad East Suburban, Mumbai - 400097, Dist.Mumbai, Maharashtra",7942821207,
Mommy bag portable shoulder back multifunctional mother and baby diaper bag Waterproof Backpack,https://www.indiamart.com/proddetail/mommy-bag-portable-shoulder-back-multifunctional-mother-and-baby-diaper-bag-waterproof-backpack-2850957735497.html?pos=26&kwd=mommy bag&tags=BB||||8211.142|Price|product|||NA|rsf:gd-|-stype:attr=1|qr_nm:gd|res:RC3|com-cf:nl|ptrs:na|ktp:N0|mc:111595|mtp:S|qry_typ:P|lang:en|wc:2|cs:8885|v=4,Jam Enterprises,https://www.indiamart.com/rajkotwala-creation/?pos=26&kwd=mommy bag&tags=BB||||8211.142|Price|product|||NA|rsf:gd-|-stype:attr=1|qr_nm:gd|res:RC3|com-cf:nl|ptrs:na|ktp:N0|mc:111595|mtp:S|qry_typ:P|lang:en|wc:2|cs:8885|v=4,False,Morland road,Mumbai,"Floor-loft D6a,plot97d Mamsa Estate,mohammed Shahid Marg,madanpura,mumbai Central D6, Naya nagar, Morland road, Mumbai - 400008, Dist.Mumbai, Maharashtra",8048249721,1218
2 in 1 Multifunctional Diaper Bag Baby Bed Travel Mommy Backpack,https://www.indiamart.com/proddetail/2-in-1-multifunctional-diaper-bag-baby-bed-travel-mommy-backpack-27503517155.html?pos=27&kwd=mommy bag&tags=BB||||8752.144|Price|product|||NA|rsf:gd-|-stype:attr=1|qr_nm:gd|res:RC3|com-cf:nl|ptrs:na|ktp:N0|mc:111595|mtp:S|qry_typ:P|lang:en|wc:2|cs:8885|v=4,House of Luxury( A brand of RV Retail ),https://www.indiamart.com/vivek-trading-co-delhi/?pos=27&kwd=mommy bag&tags=BB||||8752.144|Price|product|||NA|rsf:gd-|-stype:attr=1|qr_nm:gd|res:RC3|com-cf:nl|ptrs:na|ktp:N0|mc:111595|mtp:S|qry_typ:P|lang:en|wc:2|cs:8885|v=4,False,Budh Vihar,New Delhi,"I 1/5 B, Budh Vihar, Phase 1, Budh Vihar, New Delhi - 110086, Dist.Delhi, Delhi",8047634723,
Baby Mother Bag,https://www.indiamart.com/proddetail/baby-mother-bag-2853201963033.html?pos=28&kwd=mommy bag&tags=BA||||8785.791|Price|product|||NA|rsf:gd-|-stype:attr=1|qr_nm:gd|res:RC3|com-cf:nl|ptrs:na|ktp:N0|mc:111595|mtp:S|qry_typ:P|lang:en|wc:2|cs:8885|v=4,Krishna Hosiery Industries,https://www.indiamart.com/krishnahosieryindustries/?pos=28&kwd=mommy bag&tags=BA||||8785.791|Price|product|||NA|rsf:gd-|-stype:attr=1|qr_nm:gd|res:RC3|com-cf:nl|ptrs:na|ktp:N0|mc:111595|mtp:S|qry_typ:P|lang:en|wc:2|cs:8885|v=4,False,DLF Ankur Vihar,Ghaziabad,"A-155, Sector A-4, DLF Ankur Vihar, Ghaziabad - 201102, Dist.Ghaziabad, Uttar Pradesh",8047788950,
Multicolor Cotton Baby Mother Bag,https://www.indiamart.com/proddetail/baby-mother-bag-27375781773.html?pos=29&kwd=mommy bag&tags=BB||||9110.092|Price|product|||NA|rsf:gd-|-stype:attr=1|qr_nm:gd|res:RC3|com-cf:nl|ptrs:na|ktp:N0|mc:111595|mtp:S|qry_typ:P|lang:en|wc:2|cs:8885|v=4,Abeer_india,https://www.indiamart.com/abeerindia/?pos=29&kwd=mommy bag&tags=BB||||9110.092|Price|product|||NA|rsf:gd-|-stype:attr=1|qr_nm:gd|res:RC3|com-cf:nl|ptrs:na|ktp:N0|mc:111595|mtp:S|qry_typ:P|lang:en|wc:2|cs:8885|v=4,False,,Lucknow,"90, Eldeco Green Gomti Nagar,, Lucknow - 226010, Dist.Lucknow, Uttar Pradesh",8047545575,
"Bagpack Mix print Baby Mother Bag, Newly Born",https://www.indiamart.com/proddetail/baby-mother-bag-2849776223830.html?pos=30&kwd=mommy bag&tags=BB||||8211.142|Price|product|||NA|rsf:gd-|-stype:attr=1|qr_nm:gd|res:RC3|com-cf:nl|ptrs:na|ktp:N0|mc:111595|mtp:S|qry_typ:P|lang:en|wc:2|cs:8885|v=4,Keval Enterprises,https://www.indiamart.com/keval-enterprises-mumbai/?pos=30&kwd=mommy bag&tags=BB||||8211.142|Price|product|||NA|rsf:gd-|-stype:attr=1|qr_nm:gd|res:RC3|com-cf:nl|ptrs:na|ktp:N0|mc:111595|mtp:S|qry_typ:P|lang:en|wc:2|cs:8885|v=4,False,Dadar West,Mumbai,"Shop No. 20, Madhani Industrial Estate Senapati Bapat Marg, Dadar West, Mumbai - 400028, Dist.Mumbai, Maharashtra",8048951266,
"Long Handle Blue (Base) Cartoon Printed Cotton Baby Mother Bag, Capacity: 10kg, Size/Dimension: 24 X 14inch",https://www.indiamart.com/proddetail/cartoon-printed-cotton-baby-mother-bag-24682879388.html?pos=31&kwd=mommy bag&tags=BB||||8752.144|Price|product|||NA|rsf:gd-|-stype:attr=1|qr_nm:gd|res:RC3|com-cf:nl|ptrs:na|ktp:N0|mc:111595|mtp:S|qry_typ:P|lang:en|wc:2|cs:8885|v=4,Aashia Fashion,https://www.indiamart.com/aashia-fashion/?pos=31&kwd=mommy bag&tags=BB||||8752.144|Price|product|||NA|rsf:gd-|-stype:attr=1|qr_nm:gd|res:RC3|com-cf:nl|ptrs:na|ktp:N0|mc:111595|mtp:S|qry_typ:P|lang:en|wc:2|cs:8885|v=4,False,,New Delhi,"A-21 Shiv Vihar, Vikas Nagar Near Rama Sweets, Uttam Nagar, New Delhi - 110059, Dist.Delhi, Delhi",8047676001,
Mother Bag Waterproof 25 l New And Fashionable Unicorn Design Diaper Bag For Mothers,https://www.indiamart.com/proddetail/mother-bag-waterproof-25-l-new-and-fashionable-unicorn-design-diaper-bag-for-mothers-21840691962.html?pos=32&kwd=mommy bag&tags=BB||||8752.144|Price|product|||NA|rsf:gd-|-stype:attr=1|qr_nm:gd|res:RC3|com-cf:nl|ptrs:na|ktp:N0|mc:111595|mtp:S|qry_typ:P|lang:en|wc:2|cs:8885|v=4,Livsmart,https://www.indiamart.com/liv-smart-newdelhi/?pos=32&kwd=mommy bag&tags=BB||||8752.144|Price|product|||NA|rsf:gd-|-stype:attr=1|qr_nm:gd|res:RC3|com-cf:nl|ptrs:na|ktp:N0|mc:111595|mtp:S|qry_typ:P|lang:en|wc:2|cs:8885|v=4,False,Inderpuri,New Delhi,"2nd Floor B491/A Budh Nagar Inder Puri Central, Inderpuri, New Delhi - 110012, Dist.Delhi, Delhi",8047666163,
"Multicolor Cotton Mommy Bag, Newly Born",https://www.indiamart.com/proddetail/cotton-mommy-bag-2851637022997.html?pos=33&kwd=mommy bag&tags=BA||||8228.275|Price|product|||NA|rsf:gd-|-stype:attr=1|qr_nm:gd|res:RC3|com-cf:nl|ptrs:na|ktp:N0|mc:111595|mtp:S|qry_typ:P|lang:en|wc:2|cs:8885|v=4,Bag Palace,https://www.indiamart.com/bag-palace-gujarat/?pos=33&kwd=mommy bag&tags=BA||||8228.275|Price|product|||NA|rsf:gd-|-stype:attr=1|qr_nm:gd|res:RC3|com-cf:nl|ptrs:na|ktp:N0|mc:111595|mtp:S|qry_typ:P|lang:en|wc:2|cs:8885|v=4,False,Narol,Ahmedabad,"56, Ashra Ind Estate Behind Mahalaxmi Fab, Narol, Narol, Ahmedabad - 382405, Dist.Ahmedabad, Gujarat",7942836166,
"Kiko Pink Diaper Bag, Packaging Type: Box, Newly Born",https://www.indiamart.com/proddetail/pink-diaper-bag-21883993191.html?pos=34&kwd=mommy bag&tags=BB||||8778.123|Price|product|||NA|rsf:gd-|-stype:attr=1|qr_nm:gd|res:RC3|com-cf:nl|ptrs:na|ktp:N0|mc:111595|mtp:S|qry_typ:P|lang:en|wc:2|cs:8885|v=4,J.K Creations,https://www.indiamart.com/jkcreationskiko/?pos=34&kwd=mommy bag&tags=BB||||8778.123|Price|product|||NA|rsf:gd-|-stype:attr=1|qr_nm:gd|res:RC3|com-cf:nl|ptrs:na|ktp:N0|mc:111595|mtp:S|qry_typ:P|lang:en|wc:2|cs:8885|v=4,False,,Noida,"A 16, Sector 7, Noida - 201301, Dist.Gautam Budh Nagar, Uttar Pradesh",8047852161,
"Polka Tots Diaper Backpack, Mother Diaper Bag Cat Design",https://www.indiamart.com/proddetail/polka-tots-diaper-backpack-mother-diaper-bag-cat-design-22483001797.html?pos=35&kwd=mommy bag&tags=BB||||8228.275|Price|product|||NA|rsf:gd-|-stype:attr=1|qr_nm:gd|res:RC3|com-cf:nl|ptrs:na|ktp:N0|mc:111595|mtp:S|qry_typ:P|lang:en|wc:2|cs:8885|v=4,Eclat Globalbiz LLP,https://www.indiamart.com/eclatglobalbiz/?pos=35&kwd=mommy bag&tags=BB||||8228.275|Price|product|||NA|rsf:gd-|-stype:attr=1|qr_nm:gd|res:RC3|com-cf:nl|ptrs:na|ktp:N0|mc:111595|mtp:S|qry_typ:P|lang:en|wc:2|cs:8885|v=4,False,,Ahmedabad,"Shilp Zaveri, Ahmedabad - 380004, Dist.Ahmedabad, Gujarat",8047627244,
Mom's Maternity Bag,https://www.indiamart.com/proddetail/mom-s-maternity-bag-27096288291.html?pos=36&kwd=mommy bag&tags=BA||||9839.57||product|||NA|rsf:gd-|-stype:attr=1|qr_nm:gd|res:RC3|com-cf:nl|ptrs:na|ktp:N0|mc:111595|mtp:S|qry_typ:P|lang:en|wc:2|cs:8885|v=4,Sri Ganesh Enterprise,https://www.indiamart.com/sriganeshenterprise/?pos=36&kwd=mommy bag&tags=BA||||9839.57||product|||NA|rsf:gd-|-stype:attr=1|qr_nm:gd|res:RC3|com-cf:nl|ptrs:na|ktp:N0|mc:111595|mtp:S|qry_typ:P|lang:en|wc:2|cs:8885|v=4,False,,Kolkata,"8, 2nd Floor, Ashyana Building, Ram Lochan Mullick Street, Kolkata - 700007, Dist.Kolkata, West Bengal",8047668863,
Mommy Bag,,Sami Tader,https://www.indiamart.com/sami-tader/?pos=37&kwd=mommy bag&tags=BB||||9839.57|Price|product|||NA|rsf:gd-|-stype:attr=1|qr_nm:gd|res:RC3|com-cf:nl|ptrs:na|ktp:N0|mc:111595|mtp:S|qry_typ:P|lang:en|wc:2|cs:8885|v=4,False,,Kolkata,"j/102 ramnager lane, Kolkata - 700024, Dist.Kolkata, West Bengal",8045374904,1981
Mother Bag,,Shree Ji Sales,https://www.indiamart.com/shree-ji-sales-indore/?pos=38&kwd=mommy bag&tags=BB||||8559.269|Price|product|||NA|rsf:gd-|-stype:attr=1|qr_nm:gd|res:RC3|com-cf:nl|ptrs:na|ktp:N0|mc:111595|mtp:S|qry_typ:P|lang:en|wc:2|cs:8885|v=4,False,,Indore,"Shakkar bazar,32/1, Indore - 452002, Dist.Indore, Madhya Pradesh",8047308866,1871
Mother bag,,Ahuja Trading,https://www.indiamart.com/company/153394839/?pos=39&kwd=mommy bag&tags=BB||||8752.144|Price|product|||NA|rsf:gd-|-stype:attr=1|qr_nm:gd|res:RC3|com-cf:nl|ptrs:na|ktp:N0|mc:111595|mtp:S|qry_typ:P|lang:en|wc:2|cs:8885|v=4,False,,New Delhi,"Opposite Police Booth, Ground Floor, 196/7 C E, Than Singh Nagar, Military Road, Anand Parbat, New, New Delhi - 110005, Dist.Delhi, Delhi",8048206554,
Baby Mother Bags,,Arc Trading Co.,https://www.indiamart.com/arc-trading-company/?pos=40&kwd=mommy bag&tags=BB||||8211.142||product|||NA|rsf:gd-|-stype:attr=1|qr_nm:gd|res:RC3|com-cf:nl|ptrs:na|ktp:N0|mc:111595|mtp:S|qry_typ:P|lang:en|wc:2|cs:8885|v=4,False,Vasai East,Mumbai,"Gala No. 107, Building No. 5, 1st Floor, Range Office, Vasai East, Mumbai - 401208, Dist.Mumbai, Maharashtra",7942658405,
Baby Mother Bag,,Reyansh Enterprise,https://www.indiamart.com/reyansh-enterprise-vilholi/?pos=41&kwd=mommy bag&tags=BA||||8308.097|Price|product|||NA|rsf:gd-|-stype:attr=1|qr_nm:gd|res:RC3|com-cf:nl|ptrs:na|ktp:N0|mc:111595|mtp:S|qry_typ:P|lang:en|wc:2|cs:8885|v=4,False,,Vilholi,"Nashik, Vilholi - 422010, Dist.Nashik, Maharashtra",8048370728,1754
Mother Care Bag Niwar,https://www.indiamart.com/proddetail/mother-care-bag-niwar-2850409773233.html?pos=42&kwd=mommy bag&tags=CC||||8752.144|Price|product|||TS|rsf:gd-|-stype:attr=1|qr_nm:gd|res:RC3|com-cf:nl|ptrs:na|ktp:N0|mc:111595|mtp:S|qry_typ:P|lang:en|wc:2|cs:8885|v=4,Luxmi Kant Traders,https://www.luxmikant.com/?pos=42&kwd=mommy bag&tags=CC||||8752.144|Price|product|||TS|rsf:gd-|-stype:attr=1|qr_nm:gd|res:RC3|com-cf:nl|ptrs:na|ktp:N0|mc:111595|mtp:S|qry_typ:P|lang:en|wc:2|cs:8885|v=4,False,Rohini,New Delhi,"No. 246, Firna Road, Shahbad, Rohini, New Delhi - 110042, Dist.Delhi, Delhi",8048619401,
Mother Care Bag Niwar,https://www.indiamart.com/proddetail/mother-care-bag-niwar-2850409773233.html?pos=43&kwd=mommy bag&tags=CC||||8752.144|Price|product|||TS|rsf:gd-|-stype:attr=1|qr_nm:gd|res:RC3|com-cf:nl|ptrs:na|ktp:N0|mc:111595|mtp:S|qry_typ:P|lang:en|wc:2|cs:8885|v=4,Luxmi Kant Traders,https://www.luxmikant.com/?pos=43&kwd=mommy bag&tags=CC||||8752.144|Price|product|||TS|rsf:gd-|-stype:attr=1|qr_nm:gd|res:RC3|com-cf:nl|ptrs:na|ktp:N0|mc:111595|mtp:S|qry_typ:P|lang:en|wc:2|cs:8885|v=4,False,Rohini,New Delhi,"No. 246, Firna Road, Shahbad, Rohini, New Delhi - 110042, Dist.Delhi, Delhi",8048619401,
Mommy bag for baby care,https://www.indiamart.com/proddetail/mommy-bag-for-baby-care-2854166434991.html?pos=44&kwd=mommy bag&tags=CC||||8584.299|Price|product|||TS|rsf:gd-|-stype:attr=1|qr_nm:gd|res:RC3|com-cf:nl|ptrs:na|ktp:N0|mc:111595|mtp:S|qry_typ:P|lang:en|wc:2|cs:8885|v=4,BKH Enterprises,https://www.bkhenterprises.net/?pos=44&kwd=mommy bag&tags=CC||||8584.299|Price|product|||TS|rsf:gd-|-stype:attr=1|qr_nm:gd|res:RC3|com-cf:nl|ptrs:na|ktp:N0|mc:111595|mtp:S|qry_typ:P|lang:en|wc:2|cs:8885|v=4,False,Annai Indra Nagar,Coimbatore,"45,West Subramaniam Street,RS Puram, Annai Indra Nagar, Coimbatore - 641001, Dist.Coimbatore, Tamil Nadu",8046066722,
DB-832 Mommy Bag,https://www.indiamart.com/proddetail/db-832-mommy-bag-2854145016191.html?pos=45&kwd=mommy bag&tags=CC||||8693.162||product|||MDC|rsf:gd-|-stype:attr=1|qr_nm:gd|res:RC3|com-cf:nl|ptrs:na|ktp:N0|mc:111595|mtp:S|qry_typ:P|lang:en|wc:2|cs:8885|v=4,Dear Baby,https://www.indiamart.com/dearbaby/?pos=45&kwd=mommy bag&tags=CC||||8693.162||product|||MDC|rsf:gd-|-stype:attr=1|qr_nm:gd|res:RC3|com-cf:nl|ptrs:na|ktp:N0|mc:111595|mtp:S|qry_typ:P|lang:en|wc:2|cs:8885|v=4,False,Begambur,Dindigul,"2nd Floor, No 7, Ahmad Appartment, S P Nagar, Begambur, Begambur, Dindigul - 624002, Dist.Dindigul, Tamil Nadu",8045731862,
Printed Baby Cotton Mother Bag Set,https://www.indiamart.com/proddetail/printed-baby-cotton-mother-bag-set-24514359830.html?pos=46&kwd=mommy bag&tags=CC||||8785.791|Price|product|||TS|rsf:gd-|-stype:attr=1|qr_nm:gd|res:RC3|com-cf:nl|ptrs:na|ktp:N0|mc:111595|mtp:S|qry_typ:P|lang:en|wc:2|cs:8885|v=4,Ilaki Intercraft (India),https://www.indiamart.com/ilakiintercraft/?pos=46&kwd=mommy bag&tags=CC||||8785.791|Price|product|||TS|rsf:gd-|-stype:attr=1|qr_nm:gd|res:RC3|com-cf:nl|ptrs:na|ktp:N0|mc:111595|mtp:S|qry_typ:P|lang:en|wc:2|cs:8885|v=4,False,Tronica City,Ghaziabad,"D-69 Sector D-1 Tronica City, Tronica City, Ghaziabad - 201103, Dist.Ghaziabad, Uttar Pradesh",7942552124,
Baby Mother Bag,https://www.indiamart.com/proddetail/baby-mother-bag-2854011650533.html?pos=47&kwd=mommy bag&tags=CC||||8230.883|Price|product|||TS|rsf:gd-|-stype:attr=1|qr_nm:gd|res:RC3|com-cf:nl|ptrs:na|ktp:N0|mc:111595|mtp:S|qry_typ:P|lang:en|wc:2|cs:8885|v=4,Sixfire Pvt,https://www.sixfirepvt.com/?pos=47&kwd=mommy bag&tags=CC||||8230.883|Price|product|||TS|rsf:gd-|-stype:attr=1|qr_nm:gd|res:RC3|com-cf:nl|ptrs:na|ktp:N0|mc:111595|mtp:S|qry_typ:P|lang:en|wc:2|cs:8885|v=4,False,Singanpor,Surat,"Plot No-32, Ground Floor, Laxmi Narayan Co. Op. Housing Society, Ved Road, Singanpor, Surat - 395004, Dist.Surat, Gujarat",7942957589,
Mother Bag,https://www.indiamart.com/proddetail/mother-bag-23344488562.html?pos=48&kwd=mommy bag&tags=CC||||8752.144|Price|product|||MDC|rsf:gd-|-stype:attr=1|qr_nm:gd|res:RC3|com-cf:nl|ptrs:na|ktp:N0|mc:111595|mtp:S|qry_typ:P|lang:en|wc:2|cs:8885|v=4,Nagar Mal And Co.,https://www.indiamart.com/nagarmalandco/?pos=48&kwd=mommy bag&tags=CC||||8752.144|Price|product|||MDC|rsf:gd-|-stype:attr=1|qr_nm:gd|res:RC3|com-cf:nl|ptrs:na|ktp:N0|mc:111595|mtp:S|qry_typ:P|lang:en|wc:2|cs:8885|v=4,False,,New Delhi,"4581, Cloth Market mahavir bazaar chandni chowk, New Delhi - 110006, Dist.Delhi, Delhi",8046053529,
Baby Mother Bag,https://www.indiamart.com/proddetail/baby-mother-bag-2853905599630.html?pos=49&kwd=mommy bag&tags=CC||||8226.563|Price|product|||MDC|rsf:gd-|-stype:attr=1|qr_nm:gd|res:RC3|com-cf:nl|ptrs:na|ktp:N0|mc:111595|mtp:S|qry_typ:P|lang:en|wc:2|cs:8885|v=4,Vanbon Clothing Co.,https://www.indiamart.com/vanbon-clothing-co/?pos=49&kwd=mommy bag&tags=CC||||8226.563|Price|product|||MDC|rsf:gd-|-stype:attr=1|qr_nm:gd|res:RC3|com-cf:nl|ptrs:na|ktp:N0|mc:111595|mtp:S|qry_typ:P|lang:en|wc:2|cs:8885|v=4,False,Vashi (Thane),Navi Mumbai,"1st Floor Ofice No.16, Plot No.73, D Wing Vallabh Bhai Patel Marg, Vashi (Thane), Navi Mumbai - 400703, Dist.Thane, Maharashtra",8044012603,
Polycotton Mother Bag,https://www.indiamart.com/proddetail/polycotton-mother-bag-25499477833.html?pos=50&kwd=mommy bag&tags=CC||||8752.144|Price|product|||MDC|rsf:gd-|-stype:attr=1|qr_nm:gd|res:RC3|com-cf:nl|ptrs:na|ktp:N0|mc:111595|mtp:S|qry_typ:P|lang:en|wc:2|cs:8885|v=4,Akhlaq Bags Industry,https://www.indiamart.com/akhlaqbagsindustry/?pos=50&kwd=mommy bag&tags=CC||||8752.144|Price|product|||MDC|rsf:gd-|-stype:attr=1|qr_nm:gd|res:RC3|com-cf:nl|ptrs:na|ktp:N0|mc:111595|mtp:S|qry_typ:P|lang:en|wc:2|cs:8885|v=4,False,Khazoori Khas,New Delhi,"Kh No 106, First Floor, Gali No B-17, Vill Khajoori Khas, New Delhi, Khazoori Khas, New Delhi - 110094, Dist.Delhi, Delhi",8047676498,
Baby Mother Bag,https://www.indiamart.com/proddetail/baby-mother-bag-2853953780588.html?pos=51&kwd=mommy bag&tags=CC||||8954.051|Price|product|||MDC|rsf:gd-|-stype:attr=1|qr_nm:gd|res:RC3|com-cf:nl|ptrs:na|ktp:N0|mc:111595|mtp:S|qry_typ:P|lang:en|wc:2|cs:8885|v=4,Aradhana Shoppee,https://www.indiamart.com/aradhana-shoppee/?pos=51&kwd=mommy bag&tags=CC||||8954.051|Price|product|||MDC|rsf:gd-|-stype:attr=1|qr_nm:gd|res:RC3|com-cf:nl|ptrs:na|ktp:N0|mc:111595|mtp:S|qry_typ:P|lang:en|wc:2|cs:8885|v=4,False,Kondithop,Chennai,"44, Peddunaicken Street, Kondithope, Kondithop, Chennai - 600079, Dist.Chennai, Tamil Nadu",8044562898,
Grasshopper Mother Bag,https://www.indiamart.com/proddetail/grasshopper-mother-bag-9466448730.html?pos=52&kwd=mommy bag&tags=CB||||8211.142|Price|product|||MDC|rsf:gd-|-stype:attr=1|qr_nm:gd|res:RC3|com-cf:nl|ptrs:na|ktp:N0|mc:111595|mtp:S|qry_typ:P|lang:en|wc:2|cs:8885|v=4,Milee Fashion,https://www.indiamart.com/mileefashion/?pos=52&kwd=mommy bag&tags=CB||||8211.142|Price|product|||MDC|rsf:gd-|-stype:attr=1|qr_nm:gd|res:RC3|com-cf:nl|ptrs:na|ktp:N0|mc:111595|mtp:S|qry_typ:P|lang:en|wc:2|cs:8885|v=4,False,Chedda Nagar,Mumbai,"Veer Sambhaji Nagar, Near Hanuman Mandir PL Lokhande Marg, Chembur, Chedda Nagar, Mumbai - 400089, Dist.Mumbai, Maharashtra",8048966118,
"Diaper Bag, Age Group: 0-3 Years",https://www.indiamart.com/proddetail/diaper-bag-22239516373.html?pos=53&kwd=mommy bag&tags=CC||||8752.144|Price|product|||TS|rsf:gd-|-stype:attr=1|qr_nm:gd|res:RC3|com-cf:nl|ptrs:na|ktp:N0|mc:111595|mtp:S|qry_typ:P|lang:en|wc:2|cs:8885|v=4,Innovent E-Com LLP,https://www.indiamart.com/homesmart-newdelhi/?pos=53&kwd=mommy bag&tags=CC||||8752.144|Price|product|||TS|rsf:gd-|-stype:attr=1|qr_nm:gd|res:RC3|com-cf:nl|ptrs:na|ktp:N0|mc:111595|mtp:S|qry_typ:P|lang:en|wc:2|cs:8885|v=4,False,Mundka,New Delhi,"KH.NO.93/5&94/1/1,,Firni Road,New Delhi, Mundka, New Delhi - 110041, Dist.Delhi, Delhi",8046055753,
Oscar Home Multicolor Diaper Bag / Diaper Pouch,https://www.indiamart.com/proddetail/diaper-bag-diaper-pouch-13843505055.html?pos=54&kwd=mommy bag&tags=CC||||8778.123||product|||TS|rsf:gd-|-stype:attr=1|qr_nm:gd|res:RC3|com-cf:nl|ptrs:na|ktp:N0|mc:111595|mtp:S|qry_typ:P|lang:en|wc:2|cs:8885|v=4,Oscar Overseas,https://www.oscar-india.com/?pos=54&kwd=mommy bag&tags=CC||||8778.123||product|||TS|rsf:gd-|-stype:attr=1|qr_nm:gd|res:RC3|com-cf:nl|ptrs:na|ktp:N0|mc:111595|mtp:S|qry_typ:P|lang:en|wc:2|cs:8885|v=4,False,,Noida,"A-99 Sector 5, Noida - 201301, Dist.Gautam Budh Nagar, Uttar Pradesh",8046058290,
Baby Diaper bag large capacity travel mummy backpack,https://www.indiamart.com/proddetail/baby-diaper-bag-large-capacity-travel-mummy-backpack-2851076258355.html?pos=55&kwd=mommy bag&tags=CC||||8211.142|Price|product|||TS|rsf:gd-|-stype:attr=1|qr_nm:gd|res:RC3|com-cf:nl|ptrs:na|ktp:N0|mc:111595|mtp:S|qry_typ:P|lang:en|wc:2|cs:8885|v=4,Online Shopy NX,https://www.onlineshopynx.com/?pos=55&kwd=mommy bag&tags=CC||||8211.142|Price|product|||TS|rsf:gd-|-stype:attr=1|qr_nm:gd|res:RC3|com-cf:nl|ptrs:na|ktp:N0|mc:111595|mtp:S|qry_typ:P|lang:en|wc:2|cs:8885|v=4,False,Malad West,Mumbai,"Shop No 13, Ground Floor, Malad Shopping Center, Ismail Baug, S.V Road West, Suburban, Malad West, Mumbai - 400064, Dist.Mumbai, Maharashtra",8047674377,
KIDOYZZ Multicolour Mother Bags,https://www.indiamart.com/proddetail/mother-bags-19981243648.html?pos=56&kwd=mommy bag&tags=CC||||8752.144|Price|product|||TS|rsf:gd-|-stype:attr=1|qr_nm:gd|res:RC3|com-cf:nl|ptrs:na|ktp:N0|mc:111595|mtp:S|qry_typ:P|lang:en|wc:2|cs:8885|v=4,Shaifali Traders,https://www.shopphiez.com/?pos=56&kwd=mommy bag&tags=CC||||8752.144|Price|product|||TS|rsf:gd-|-stype:attr=1|qr_nm:gd|res:RC3|com-cf:nl|ptrs:na|ktp:N0|mc:111595|mtp:S|qry_typ:P|lang:en|wc:2|cs:8885|v=4,False,PATPARGANJ,New Delhi,"Plot No 10, main road patparganj ganj, PATPARGANJ, New Delhi - 110091, Dist.Delhi, Delhi",8046033629,
Printed Baby Cotton Mother Bag Set,https://www.indiamart.com/proddetail/printed-baby-cotton-mother-bag-set-24514359830.html?pos=57&kwd=mommy bag&tags=CC||||8785.791|Price|product|||TS|rsf:gd-|-stype:attr=1|qr_nm:gd|res:RC3|com-cf:nl|ptrs:na|ktp:N0|mc:111595|mtp:S|qry_typ:P|lang:en|wc:2|cs:8885|v=4,Ilaki Intercraft (India),https://www.indiamart.com/ilakiintercraft/?pos=57&kwd=mommy bag&tags=CC||||8785.791|Price|product|||TS|rsf:gd-|-stype:attr=1|qr_nm:gd|res:RC3|com-cf:nl|ptrs:na|ktp:N0|mc:111595|mtp:S|qry_typ:P|lang:en|wc:2|cs:8885|v=4,False,Tronica City,Ghaziabad,"D-69 Sector D-1 Tronica City, Tronica City, Ghaziabad - 201103, Dist.Ghaziabad, Uttar Pradesh",7942552124,
"Polyester Stylish Mommy Tote Bag: Travel-Friendly Diaper Tote Bag, 1-2 Years",https://www.indiamart.com/proddetail/stylish-mommy-tote-bag-travel-friendly-diaper-tote-bag-2854216463455.html?pos=58&kwd=mommy bag&tags=||||8752.144|Price|product|||TS|rsf:gd-|-stype:attr=1|qr_nm:gd|res:RC3|com-cf:nl|ptrs:na|ktp:N0|mc:111595|mtp:S|qry_typ:P|lang:en|wc:2|cs:8885|v=4,Loyals India Sales Corp,https://www.indiamart.com/loyalsindiasalescrop/?pos=58&kwd=mommy bag&tags=||||8752.144|Price|product|||TS|rsf:gd-|-stype:attr=1|qr_nm:gd|res:RC3|com-cf:nl|ptrs:na|ktp:N0|mc:111595|mtp:S|qry_typ:P|lang:en|wc:2|cs:8885|v=4,False,Pitampura,New Delhi,"B171, Lok Vihar, Pitampura North West, Pitampura, New Delhi - 110034, Dist.Delhi, Delhi",8046044793,
Blue 5 Kg Printed Baby Diaper Bag,https://www.indiamart.com/proddetail/5-kg-printed-baby-diaper-bag-2851066214630.html?pos=59&kwd=mommy bag&tags=CC||||8242.731|Price|product|||MDC|rsf:gd-|-stype:attr=1|qr_nm:gd|res:RC3|com-cf:nl|ptrs:na|ktp:N0|mc:111595|mtp:S|qry_typ:P|lang:en|wc:2|cs:8885|v=4,M-Kumar Trader,https://www.indiamart.com/m-kumartrader/?pos=59&kwd=mommy bag&tags=CC||||8242.731|Price|product|||MDC|rsf:gd-|-stype:attr=1|qr_nm:gd|res:RC3|com-cf:nl|ptrs:na|ktp:N0|mc:111595|mtp:S|qry_typ:P|lang:en|wc:2|cs:8885|v=4,False,,Ulhasnagar,"Shop No. 842, Opp. Minister Complex, Pawai Chowk, Thane, Ulhasnagar - 421003, Dist.Thane, Maharashtra",7942828147,
Waterproof Multi-functional Compact Mommy Bag,https://www.indiamart.com/proddetail/waterproof-multi-functional-compact-mommy-bag-2853708713430.html?pos=66&kwd=mommy bag&tags=||||9097.53|Price|product|||TS|rsf:gd-|-stype:attr=1|qr_nm:gd|res:RC3|com-cf:nl|ptrs:na|ktp:N0|mc:111595|mtp:S|qry_typ:P|lang:en|wc:2|cs:8885|v=4,My Bear Hugs,https://www.indiamart.com/bear-hugs/?pos=66&kwd=mommy bag&tags=||||9097.53|Price|product|||TS|rsf:gd-|-stype:attr=1|qr_nm:gd|res:RC3|com-cf:nl|ptrs:na|ktp:N0|mc:111595|mtp:S|qry_typ:P|lang:en|wc:2|cs:8885|v=4,False,,Fatehpur,"44/38,,CHAUDHARANA,Fatehpur Ist Floor 44/38 Chaudharana,212601,, Fatehpur - 212601, Uttar Pradesh",,
Mommy & Me series Polyester Multipurpose Diaper Backpack/Handbag with Bottle Organizer & Mat/Sheet,https://www.indiamart.com/proddetail/mommy-me-series-polyester-multipurpose-diaper-backpack-handbag-with-bottle-organizer-mat-sheet-2850577842112.html?pos=61&kwd=mommy bag&tags=||||8211.142|Price|product|||TS|rsf:gd-|-stype:attr=1|qr_nm:gd|res:RC3|com-cf:nl|ptrs:na|ktp:N0|mc:111595|mtp:S|qry_typ:P|lang:en|wc:2|cs:8885|v=4,Sky Venture,https://www.indiamart.com/clownfish/?pos=61&kwd=mommy bag&tags=||||8211.142|Price|product|||TS|rsf:gd-|-stype:attr=1|qr_nm:gd|res:RC3|com-cf:nl|ptrs:na|ktp:N0|mc:111595|mtp:S|qry_typ:P|lang:en|wc:2|cs:8885|v=4,False,Thane Bazar,Mumbai,"Prathamesh Apartment, Ground Floor Kharkar Ali, Thane Bazar, Mumbai - 400601, Dist.Mumbai, Maharashtra",8047634690,
Mother bag,https://www.indiamart.com/proddetail/mother-bag-14969333491.html?pos=62&kwd=mommy bag&tags=CA||||8211.142|Price|product|||NA|rsf:gd-|-stype:attr=1|qr_nm:gd|res:RC3|com-cf:nl|ptrs:na|ktp:N0|mc:111595|mtp:S|qry_typ:P|lang:en|wc:2|cs:8885|v=4,Babe Solution,https://www.indiamart.com/jb-enterprise-mumbai/?pos=62&kwd=mommy bag&tags=CA||||8211.142|Price|product|||NA|rsf:gd-|-stype:attr=1|qr_nm:gd|res:RC3|com-cf:nl|ptrs:na|ktp:N0|mc:111595|mtp:S|qry_typ:P|lang:en|wc:2|cs:8885|v=4,False,Pawane MIDC,Mumbai,"Gala No. 8, Gami Industrial Part, Group Floor, Pawane Midc, Opposite Pawane Kata, Pawane MIDC, Mumbai - 400704, Dist.Mumbai, Maharashtra",8069196809,703
Multicolor Mother Bag Diaper Bag,https://www.indiamart.com/proddetail/mother-bag-diaper-bag-27280558730.html?pos=63&kwd=mommy bag&tags=||||8211.142|Price|product|||TS|rsf:gd-|-stype:attr=1|qr_nm:gd|res:RC3|com-cf:nl|ptrs:na|ktp:N0|mc:111595|mtp:S|qry_typ:P|lang:en|wc:2|cs:8885|v=4,Rainbow House,https://www.unicolorbags.com/?pos=63&kwd=mommy bag&tags=||||8211.142|Price|product|||TS|rsf:gd-|-stype:attr=1|qr_nm:gd|res:RC3|com-cf:nl|ptrs:na|ktp:N0|mc:111595|mtp:S|qry_typ:P|lang:en|wc:2|cs:8885|v=4,False,Kalbadevi,Mumbai,"602, 6th Floor, 1 Discovery Building Chs Ltd, Dattapada Road, Opp Jb Khot School, Borvali East, Kalbadevi, Mumbai - 400066, Dist.Mumbai, Maharashtra",8047619424,
Black Grey Polyester Baby Diaper Bag,https://www.indiamart.com/proddetail/black-grey-polyester-baby-diaper-bag-2854398983888.html?pos=64&kwd=mommy bag&tags=||||8785.791|Price|proxy|||MDC|rsf:gd-|-stype:attr=1|qr_nm:gd|res:RC3|com-cf:nl|ptrs:na|ktp:N0|mc:111595|mtp:S|qry_typ:P|lang:en|wc:2|cs:8885|v=4,Adinath Handloom,https://www.indiamart.com/adinath-handloom-ghaziabad/?pos=64&kwd=mommy bag&tags=||||8785.791|Price|proxy|||MDC|rsf:gd-|-stype:attr=1|qr_nm:gd|res:RC3|com-cf:nl|ptrs:na|ktp:N0|mc:111595|mtp:S|qry_typ:P|lang:en|wc:2|cs:8885|v=4,False,,Ghaziabad,"104, Vill, Asalatpur, Asalatpur Farakh Nagar, Ghaziabad - 201003, Dist.Ghaziabad, Uttar Pradesh",7942711074,
Junior Toddler Personalised Diaper Bag,https://www.indiamart.com/proddetail/junior-toddler-personalised-diaper-bag-2854247657297.html?pos=65&kwd=mommy bag&tags=||||8601.347|Price|proxy|||TS|rsf:gd-|-stype:attr=1|qr_nm:gd|res:RC3|com-cf:nl|ptrs:na|ktp:N0|mc:111595|mtp:S|qry_typ:P|lang:en|wc:2|cs:8885|v=4,Aradhya Eccotex,https://www.aradhyaeccotex.com/?pos=65&kwd=mommy bag&tags=||||8601.347|Price|proxy|||TS|rsf:gd-|-stype:attr=1|qr_nm:gd|res:RC3|com-cf:nl|ptrs:na|ktp:N0|mc:111595|mtp:S|qry_typ:P|lang:en|wc:2|cs:8885|v=4,False,,Jaipur,"PLOT NO. 194,,SHIV NAGAR FIRST,Jaipur PLOT NO. 194, SHIV NAGAR FIRST, MURLIPURA SCHEME, Jaipur, Jaipur, Rajasthan, 302039,302039, Jaipur - 302039, Dist.Jaipur, Rajasthan",8045733042,
Waterproof Multi-functional Compact Mommy Bag,https://www.indiamart.com/proddetail/waterproof-multi-functional-compact-mommy-bag-2853708713430.html?pos=66&kwd=mommy bag&tags=||||9097.53|Price|product|||TS|rsf:gd-|-stype:attr=1|qr_nm:gd|res:RC3|com-cf:nl|ptrs:na|ktp:N0|mc:111595|mtp:S|qry_typ:P|lang:en|wc:2|cs:8885|v=4,My Bear Hugs,https://www.indiamart.com/bear-hugs/?pos=66&kwd=mommy bag&tags=||||9097.53|Price|product|||TS|rsf:gd-|-stype:attr=1|qr_nm:gd|res:RC3|com-cf:nl|ptrs:na|ktp:N0|mc:111595|mtp:S|qry_typ:P|lang:en|wc:2|cs:8885|v=4,False,,Fatehpur,"44/38,,CHAUDHARANA,Fatehpur Ist Floor 44/38 Chaudharana,212601,, Fatehpur - 212601, Uttar Pradesh",,
Babymoon Mother Diaper Bag,https://www.indiamart.com/proddetail/babymoon-mother-diaper-bag-24519208173.html?pos=67&kwd=mommy bag&tags=||||8228.275|Price|product|||MDC|rsf:gd-|-stype:attr=1|qr_nm:gd|res:RC3|com-cf:nl|ptrs:na|ktp:N0|mc:111595|mtp:S|qry_typ:P|lang:en|wc:2|cs:8885|v=4,Dream Works,https://www.indiamart.com/dreamworks-ahmedabad/?pos=67&kwd=mommy bag&tags=||||8228.275|Price|product|||MDC|rsf:gd-|-stype:attr=1|qr_nm:gd|res:RC3|com-cf:nl|ptrs:na|ktp:N0|mc:111595|mtp:S|qry_typ:P|lang:en|wc:2|cs:8885|v=4,False,Sanathal,Ahmedabad,"5,Chanakya Bunglows,Nr Lad Society Common Plot,Vastrapur, Sanathal, Ahmedabad - 380054, Dist.Ahmedabad, Gujarat",8047663803,
"Custom Polyester Motherly Diaper Bags, Bag Capacity: Standard",https://www.indiamart.com/proddetail/motherly-diaper-bags-23278171062.html?pos=68&kwd=mommy bag&tags=||||8752.144|Price|proxy|||TS|rsf:gd-|-stype:attr=1|qr_nm:gd|res:RC3|com-cf:nl|ptrs:na|ktp:N0|mc:111595|mtp:S|qry_typ:P|lang:en|wc:2|cs:8885|v=4,Rehmat International,https://www.rehmatinternational.in/?pos=68&kwd=mommy bag&tags=||||8752.144|Price|proxy|||TS|rsf:gd-|-stype:attr=1|qr_nm:gd|res:RC3|com-cf:nl|ptrs:na|ktp:N0|mc:111595|mtp:S|qry_typ:P|lang:en|wc:2|cs:8885|v=4,False,Bara Hindu Rao,New Delhi,"Ahata Kidara, T-511, Bara Hindu Rao, Bara Hindu Rao, New Delhi - 110006, Dist.Delhi, Delhi",8048960644,
Polyester Pink Printed Diaper Bag,https://www.indiamart.com/proddetail/polyester-pink-printed-diaper-bag-24259961633.html?pos=69&kwd=mommy bag&tags=||||8211.142|Price|proxy|||MDC|rsf:gd-|-stype:attr=1|qr_nm:gd|res:RC3|com-cf:nl|ptrs:na|ktp:N0|mc:111595|mtp:S|qry_typ:P|lang:en|wc:2|cs:8885|v=4,Zainten,https://www.indiamart.com/zainten/?pos=69&kwd=mommy bag&tags=||||8211.142|Price|proxy|||MDC|rsf:gd-|-stype:attr=1|qr_nm:gd|res:RC3|com-cf:nl|ptrs:na|ktp:N0|mc:111595|mtp:S|qry_typ:P|lang:en|wc:2|cs:8885|v=4,False,Dharavi,Mumbai,"Plot 144 Ashok mill compound sant rohidas marg kala killa Dharavi Mumbai 400017 #97552three8130, Dharavi, Mumbai - 400017, Dist.Mumbai, Maharashtra",8043889953,
"Polyester Baby Diaper Bag Mothers Bag Mom Bag Baby Bag, 3-12 Months",https://www.indiamart.com/proddetail/baby-diaper-bag-mothers-bag-mom-bag-baby-bag-2853069149262.html?pos=70&kwd=mommy bag&tags=||||9189.305|Price|proxy|||MDC|rsf:gd-|-stype:attr=1|qr_nm:gd|res:RC3|com-cf:nl|ptrs:na|ktp:N0|mc:111595|mtp:S|qry_typ:P|lang:en|wc:2|cs:8885|v=4,Sudhanjali Enterprises,https://www.indiamart.com/sudhanjalienterprises/?pos=70&kwd=mommy bag&tags=||||9189.305|Price|proxy|||MDC|rsf:gd-|-stype:attr=1|qr_nm:gd|res:RC3|com-cf:nl|ptrs:na|ktp:N0|mc:111595|mtp:S|qry_typ:P|lang:en|wc:2|cs:8885|v=4,False,,Prayagraj,"H No-10/7, Basahi, Nataka Babura, Khain, Prayagraj - 212307, Dist.Allahabad, Uttar Pradesh",7942964273,
Multicolor Printed Baby Mommy Bag,https://www.indiamart.com/proddetail/baby-mommy-bag-20471400997.html?pos=71&kwd=mommy bag&tags=CC||||8601.347||product|||NA|rsf:gd-|-stype:attr=1|qr_nm:gd|res:RC3|com-cf:nl|ptrs:na|ktp:N0|mc:111595|mtp:S|qry_typ:P|lang:en|wc:2|cs:8885|v=4,Gurukripa Dresses,https://www.indiamart.com/guru-kripa-dresses-jaipur/?pos=71&kwd=mommy bag&tags=CC||||8601.347||product|||NA|rsf:gd-|-stype:attr=1|qr_nm:gd|res:RC3|com-cf:nl|ptrs:na|ktp:N0|mc:111595|mtp:S|qry_typ:P|lang:en|wc:2|cs:8885|v=4,False,Sitapura,Jaipur,"185/51, Pratap Nagar, Sitapura, Jaipur - 302033, Dist.Jaipur, Rajasthan",8048207293,
Cotton Printed Imported Mommy Bag,https://www.indiamart.com/proddetail/imported-mommy-bag-22380318962.html?pos=72&kwd=mommy bag&tags=CB||||8500.97|Price|product|||NA|rsf:gd-|-stype:attr=1|qr_nm:gd|res:RC3|com-cf:nl|ptrs:na|ktp:N0|mc:111595|mtp:S|qry_typ:P|lang:en|wc:2|cs:8885|v=4,G.K. Tradings,https://www.indiamart.com/g-k-tradings/?pos=72&kwd=mommy bag&tags=CB||||8500.97|Price|product|||NA|rsf:gd-|-stype:attr=1|qr_nm:gd|res:RC3|com-cf:nl|ptrs:na|ktp:N0|mc:111595|mtp:S|qry_typ:P|lang:en|wc:2|cs:8885|v=4,False,Thriprayar,Thrissur,"Ix/626,627, 628 Triprayar Nattika, Thriprayar, Thrissur - 680566, Dist.Thrissur, Kerala",7942560526,
Mother Bag,https://www.indiamart.com/proddetail/mother-bag-7067362262.html?pos=73&kwd=mommy bag&tags=CC||||8211.142||product|||NA|rsf:gd-|-stype:attr=1|qr_nm:gd|res:RC3|com-cf:nl|ptrs:na|ktp:N0|mc:111595|mtp:S|qry_typ:P|lang:en|wc:2|cs:8885|v=4,Wecare Solutions,https://www.indiamart.com/wecaresolutions-mumbai/?pos=73&kwd=mommy bag&tags=CC||||8211.142||product|||NA|rsf:gd-|-stype:attr=1|qr_nm:gd|res:RC3|com-cf:nl|ptrs:na|ktp:N0|mc:111595|mtp:S|qry_typ:P|lang:en|wc:2|cs:8885|v=4,False,,Mumbai,"Gala No. F1/F2/F3, Rajprabha Anand Industrial Estate, 1st Floor, Building No. 3, Naikpada, Waliv Vasai East, Mumbai - 400068, Dist.Mumbai, Maharashtra",8047309003,7582
Mother Bag,https://www.indiamart.com/proddetail/mother-bag-8632457262.html?pos=74&kwd=mommy bag&tags=CC||||8752.144||product|||NA|rsf:gd-|-stype:attr=1|qr_nm:gd|res:RC3|com-cf:nl|ptrs:na|ktp:N0|mc:111595|mtp:S|qry_typ:P|lang:en|wc:2|cs:8885|v=4,H K Grover & Co.,https://www.indiamart.com/hkgrovercompany/?pos=74&kwd=mommy bag&tags=CC||||8752.144||product|||NA|rsf:gd-|-stype:attr=1|qr_nm:gd|res:RC3|com-cf:nl|ptrs:na|ktp:N0|mc:111595|mtp:S|qry_typ:P|lang:en|wc:2|cs:8885|v=4,False,Sadar Bazar,New Delhi,",279/2,POST OFFICE STREET,,TOLIAYA WALI GALI SADAR BAZAR DE, Sadar Bazar, New Delhi - 110006, Dist.Delhi, Delhi",8047308700,8592
Mummy Bag,https://www.indiamart.com/proddetail/mummy-bag-21729681173.html?pos=75&kwd=mommy bag&tags=CC||||8223.226|Price|product|||NA|rsf:gd-|-stype:attr=1|qr_nm:gd|res:RC3|com-cf:nl|ptrs:na|ktp:N0|mc:111595|mtp:S|qry_typ:P|lang:en|wc:2|cs:8885|v=4,Aayka Creations,https://www.indiamart.com/aayka-creations/?pos=75&kwd=mommy bag&tags=CC||||8223.226|Price|product|||NA|rsf:gd-|-stype:attr=1|qr_nm:gd|res:RC3|com-cf:nl|ptrs:na|ktp:N0|mc:111595|mtp:S|qry_typ:P|lang:en|wc:2|cs:8885|v=4,False,,Thane,"14, D Sapphire 2, Cosmos Jewels, Near D Mart, GB Road Kadarvadli, Thane - 400615, Dist.Thane, Maharashtra",8048371603,485
Mother Bag,https://www.indiamart.com/proddetail/mother-bag-15593871397.html?pos=76&kwd=mommy bag&tags=CC||||8211.142|Price|product|||NA|rsf:gd-|-stype:attr=1|qr_nm:gd|res:RC3|com-cf:nl|ptrs:na|ktp:N0|mc:111595|mtp:S|qry_typ:P|lang:en|wc:2|cs:8885|v=4,Tini Mini Care,https://www.indiamart.com/tini-mini-care-mumbai/?pos=76&kwd=mommy bag&tags=CC||||8211.142|Price|product|||NA|rsf:gd-|-stype:attr=1|qr_nm:gd|res:RC3|com-cf:nl|ptrs:na|ktp:N0|mc:111595|mtp:S|qry_typ:P|lang:en|wc:2|cs:8885|v=4,False,Malad East,Mumbai,"18,GAUTAM CO-OP SOCIETY, MAHANT ROAD, NEAR RUIA SCHOOL,VILEPARLE EAST No. 3, 1st Floor, Yeuvabial Colony, Datta Mandir Road, Malad East,400097,Mumbai, Malad East, Mumbai - 400057, Dist.Mumbai, Maharashtra",8062245146,268
"HDPE Printed Mother Bag, For Shipping",https://www.indiamart.com/proddetail/mother-bag-21680534048.html?pos=77&kwd=mommy bag&tags=CC||||8231.259|Price|product|||NA|rsf:gd-|-stype:attr=1|qr_nm:gd|res:RC3|com-cf:nl|ptrs:na|ktp:N0|mc:111595|mtp:S|qry_typ:P|lang:en|wc:2|cs:8885|v=4,Kraft Eco Bags,https://www.indiamart.com/krafteco-bags/?pos=77&kwd=mommy bag&tags=CC||||8231.259|Price|product|||NA|rsf:gd-|-stype:attr=1|qr_nm:gd|res:RC3|com-cf:nl|ptrs:na|ktp:N0|mc:111595|mtp:S|qry_typ:P|lang:en|wc:2|cs:8885|v=4,False,,Bhiwandi,"2nd Floor D-3, 218 Dapoda Road, Near Mankoli Naka Prerna Complex, Bhiwandi - 421302, Maharashtra",8046037120,
Baby Madher Bag,,Shifa baby,https://www.indiamart.com/aadil-garment-store/?pos=78&kwd=mommy bag&tags=CC||||8211.142|Price|product|||NA|rsf:gd-|-stype:attr=1|qr_nm:gd|res:RC3|com-cf:nl|ptrs:na|ktp:N0|mc:111595|mtp:S|qry_typ:P|lang:en|wc:2|cs:8885|v=4,False,,Mumbai,"Santacruz, Mumbai - 400054, Dist.Mumbai, Maharashtra",8047309001,7347
"Red,Black Printed Kudos Mother Bag",https://www.indiamart.com/proddetail/kudos-mother-bag-21689527412.html?pos=79&kwd=mommy bag&tags=CB||||8211.142|Price|product|||NA|rsf:gd-|-stype:attr=1|qr_nm:gd|res:RC3|com-cf:nl|ptrs:na|ktp:N0|mc:111595|mtp:S|qry_typ:P|lang:en|wc:2|cs:8885|v=4,Kudos Kids Utilities Pvt. Ltd.,https://www.indiamart.com/kudos-kids-utilities/?pos=79&kwd=mommy bag&tags=CB||||8211.142|Price|product|||NA|rsf:gd-|-stype:attr=1|qr_nm:gd|res:RC3|com-cf:nl|ptrs:na|ktp:N0|mc:111595|mtp:S|qry_typ:P|lang:en|wc:2|cs:8885|v=4,False,Vikhroli West,Mumbai,"Near D/8, BMC Colony Park Site, Vikhroli West, Mumbai - 400079, Dist.Mumbai, Maharashtra",8047643976,
"IMPORTED Deniam BABY MOTHER BAG, 0-5 Years",https://www.indiamart.com/proddetail/baby-mother-bag-22029466712.html?pos=80&kwd=mommy bag&tags=CC||||8663.873|Price|product|||NA|rsf:gd-|-stype:attr=1|qr_nm:gd|res:RC3|com-cf:nl|ptrs:na|ktp:N0|mc:111595|mtp:S|qry_typ:P|lang:en|wc:2|cs:8885|v=4,M.M. Marketing,https://www.indiamart.com/m-mmarketing/?pos=80&kwd=mommy bag&tags=CC||||8663.873|Price|product|||NA|rsf:gd-|-stype:attr=1|qr_nm:gd|res:RC3|com-cf:nl|ptrs:na|ktp:N0|mc:111595|mtp:S|qry_typ:P|lang:en|wc:2|cs:8885|v=4,False,Chickpet,Bengaluru,"No. 17, 1st Floor, 12th Cross, Cubbonpet, Chickpet, Bengaluru - 560002, Dist.Bengaluru, Karnataka",8047677597,
Diaper Bags Waterproof Diaper Bag Backpack Large Capacity Mommy Travel Bag Multifunctional Maternity Baby Stroller Bags Organizer Nappy,,Shree Shakti Krupa Export Import,https://www.indiamart.com/shree-shaktikrupa-export-import/?pos=81&kwd=mommy bag&tags=CC||||8038.093|Price|product|||NA|rsf:gd-|-stype:attr=1|qr_nm:gd|res:RC3|com-cf:nl|ptrs:na|ktp:N0|mc:111595|mtp:S|qry_typ:P|lang:en|wc:2|cs:8885|v=4,False,Bhakti Nagar,Rajkot,"SHOP NO.111,NAKSHATRA VI,GONDAL ROAD,RAJKOT Nakshatra 6 Complex 12, Vijay Plot,360002,Rajkot, Bhakti Nagar, Rajkot - 360004, Dist.Rajkot, Gujarat",,
1st Step Baby Mother Bag Brown,https://www.indiamart.com/proddetail/1st-step-baby-mother-bag-brown-3826190755.html?pos=82&kwd=mommy bag&tags=CB||||8230.883||product|||NA|rsf:gd-|-stype:attr=1|qr_nm:gd|res:RC3|com-cf:nl|ptrs:na|ktp:N0|mc:111595|mtp:S|qry_typ:P|lang:en|wc:2|cs:8885|v=4,Yapaa Dot Com,https://www.indiamart.com/yapaa-dsurat/?pos=82&kwd=mommy bag&tags=CB||||8230.883||product|||NA|rsf:gd-|-stype:attr=1|qr_nm:gd|res:RC3|com-cf:nl|ptrs:na|ktp:N0|mc:111595|mtp:S|qry_typ:P|lang:en|wc:2|cs:8885|v=4,False,,Surat,"Ghod Dod Road, Surat - 395007, Dist.Surat, Gujarat",8047308899,7252
"Fish Bone Patterned Bun Mother Bag Six Piece Set, Single Shoulder Diagonal Cross Portable Bun Mother Bag",https://www.indiamart.com/proddetail/fish-bone-patterned-bun-mother-bag-six-piece-set-single-shoulder-diagonal-cross-portable-bun-mother-bag-2854074262030.html?pos=83&kwd=mommy bag&tags=CC||||8211.142|Price|product|||NA|rsf:gd-|-stype:attr=1|qr_nm:gd|res:RC3|com-cf:nl|ptrs:na|ktp:N0|mc:111595|mtp:S|qry_typ:P|lang:en|wc:2|cs:8885|v=4,Bhavitha Sree Trading,https://www.indiamart.com/bhavitha-sree-trading-mumbai/?pos=83&kwd=mommy bag&tags=CC||||8211.142|Price|product|||NA|rsf:gd-|-stype:attr=1|qr_nm:gd|res:RC3|com-cf:nl|ptrs:na|ktp:N0|mc:111595|mtp:S|qry_typ:P|lang:en|wc:2|cs:8885|v=4,False,EAST MUMBAI Mumbai City Maharashtra,Mumbai,"349 AND 349-1,TIMES SQUARE BUILDING,WESTERN EXPRESS HIGHWAY,ANDHERI EAST MUMBAI TIMES SQUARE BUILDING,400069,, EAST MUMBAI Mumbai City Maharashtra, Mumbai - 400069, Dist.Mumbai, Maharashtra",,
Baby stroller universal storage bag multifunctional mummy bag.,https://www.indiamart.com/proddetail/baby-stroller-universal-storage-bag-multifunctional-mummy-bag-2854610313997.html?pos=84&kwd=mommy bag&tags=CC||||8211.142|Price|product|||NA|rsf:gd-|-stype:attr=1|qr_nm:gd|res:RC3|com-cf:nl|ptrs:na|ktp:N0|mc:111595|mtp:S|qry_typ:P|lang:en|wc:2|cs:8885|v=4,Sonal Communication,https://www.indiamart.com/sonal-communication-mumbai/?pos=84&kwd=mommy bag&tags=CC||||8211.142|Price|product|||NA|rsf:gd-|-stype:attr=1|qr_nm:gd|res:RC3|com-cf:nl|ptrs:na|ktp:N0|mc:111595|mtp:S|qry_typ:P|lang:en|wc:2|cs:8885|v=4,False,,Mumbai,"B/602, Comet Building, Bhakti Park, Near Imax Cinema, Wadala,, Mumbai - 400037, Dist.Mumbai, Maharashtra",8047656217,
Mother Bags,https://www.indiamart.com/proddetail/mother-bags-12713290412.html?pos=85&kwd=mommy bag&tags=CB||||8752.144||product|||NA|rsf:gd-|-stype:attr=1|qr_nm:gd|res:RC3|com-cf:nl|ptrs:na|ktp:N0|mc:111595|mtp:S|qry_typ:P|lang:en|wc:2|cs:8885|v=4,Rishav Handicrafts,https://www.indiamart.com/rishavhandicraft/?pos=85&kwd=mommy bag&tags=CB||||8752.144||product|||NA|rsf:gd-|-stype:attr=1|qr_nm:gd|res:RC3|com-cf:nl|ptrs:na|ktp:N0|mc:111595|mtp:S|qry_typ:P|lang:en|wc:2|cs:8885|v=4,False,Karol Bagh,New Delhi,"No. 30/3232, Beadon Pura, Karol Bagh Saraswati Marg, Karol Bagh, New Delhi - 110005, Dist.Delhi, Delhi",8047669026,
Mother Bags,,Best Baby Shop,https://www.indiamart.com/bestbaby-shop/?pos=86&kwd=mommy bag&tags=CC||||8954.051||product|||NA|rsf:gd-|-stype:attr=1|qr_nm:gd|res:RC3|com-cf:nl|ptrs:na|ktp:N0|mc:111595|mtp:S|qry_typ:P|lang:en|wc:2|cs:8885|v=4,False,Anna Nagar,Chennai,"New No. 23/1, 3362 K, AE Block, 8th Street, Annanagar Post Office, Anna Nagar West, Anna Nagar, Chennai - 600040, Dist.Chennai, Tamil Nadu",8048372379,303
Mother Baby Bag,https://www.indiamart.com/proddetail/mother-baby-bag-11903992333.html?pos=87&kwd=mommy bag&tags=CC||||8661.854|Price|product|||NA|rsf:gd-|-stype:attr=1|qr_nm:gd|res:RC3|com-cf:nl|ptrs:na|ktp:N0|mc:111595|mtp:S|qry_typ:P|lang:en|wc:2|cs:8885|v=4,Mahavir Bag Industries,https://www.indiamart.com/mahavirbagindustries/?pos=87&kwd=mommy bag&tags=CC||||8661.854|Price|product|||NA|rsf:gd-|-stype:attr=1|qr_nm:gd|res:RC3|com-cf:nl|ptrs:na|ktp:N0|mc:111595|mtp:S|qry_typ:P|lang:en|wc:2|cs:8885|v=4,False,Civil Lines,Ludhiana,"Chakki Wali Building, Civil Lines, Ludhiana - 141001, Dist.Ludhiana, Punjab",8048372001,997
"Red,White And Blue Bulk Polyester Diaper Bag, Newly Born",https://www.indiamart.com/proddetail/bulk-polyester-diaper-bag-2852592198455.html?pos=88&kwd=mommy bag&tags=CC||||8752.144|Price|product|||NA|rsf:gd-|-stype:attr=1|qr_nm:gd|res:RC3|com-cf:nl|ptrs:na|ktp:N0|mc:111595|mtp:S|qry_typ:P|lang:en|wc:2|cs:8885|v=4,Ayesha Enterprises,https://www.indiamart.com/ayesha-enterprises-newdelhi/?pos=88&kwd=mommy bag&tags=CC||||8752.144|Price|product|||NA|rsf:gd-|-stype:attr=1|qr_nm:gd|res:RC3|com-cf:nl|ptrs:na|ktp:N0|mc:111595|mtp:S|qry_typ:P|lang:en|wc:2|cs:8885|v=4,False,North East,New Delhi,"C-169, Gali No-23, Vill. Gokalpur, North East, North East, New Delhi - 110094, Dist.Delhi, Delhi",7942713113,
Baby Diaper Bags,https://www.indiamart.com/proddetail/baby-diaper-bags-11746592212.html?pos=89&kwd=mommy bag&tags=CC||||8226.563||product|||NA|rsf:gd-|-stype:attr=1|qr_nm:gd|res:RC3|com-cf:nl|ptrs:na|ktp:N0|mc:111595|mtp:S|qry_typ:P|lang:en|wc:2|cs:8885|v=4,Priyadarshani Ladies & Kids Wear,https://www.indiamart.com/priyadarshaniladies/?pos=89&kwd=mommy bag&tags=CC||||8226.563||product|||NA|rsf:gd-|-stype:attr=1|qr_nm:gd|res:RC3|com-cf:nl|ptrs:na|ktp:N0|mc:111595|mtp:S|qry_typ:P|lang:en|wc:2|cs:8885|v=4,False,Ghansoli,Navi Mumbai,"Shop No. 2, Ganga Deep, Plot No. 342 Sector 4, Ghansoli, Ghansoli, Navi Mumbai - 400701, Dist.Thane, Maharashtra",8048371810,359
Multicolor Polyester Multi Purpose Premium Baby Diaper Shoulder Bag,https://www.indiamart.com/proddetail/multi-purpose-premium-baby-diaper-shoulder-bag-22045684897.html?pos=90&kwd=mommy bag&tags=CC||||8752.144|Price|product|||NA|rsf:gd-|-stype:attr=1|qr_nm:gd|res:RC3|com-cf:nl|ptrs:na|ktp:N0|mc:111595|mtp:S|qry_typ:P|lang:en|wc:2|cs:8885|v=4,SMBJ Impex,https://www.indiamart.com/smbjimpex/?pos=90&kwd=mommy bag&tags=CC||||8752.144|Price|product|||NA|rsf:gd-|-stype:attr=1|qr_nm:gd|res:RC3|com-cf:nl|ptrs:na|ktp:N0|mc:111595|mtp:S|qry_typ:P|lang:en|wc:2|cs:8885|v=4,False,Industrial Area,New Delhi,"Basement Floor,b-26,patparganj Industrial Area,,patparganj,,north Ea, Industrial Area, New Delhi - 110092, Dist.Delhi, Delhi",8048371512,509
New Female Motherly Exclusive Baby Diaper Bag Collection At Shopmotherly,https://www.indiamart.com/proddetail/motherly-exclusive-baby-diaper-bag-collection-at-shopmotherly-21455454973.html?pos=91&kwd=mommy bag&tags=CC||||8778.123|Price|product|||NA|rsf:gd-|-stype:attr=1|qr_nm:gd|res:RC3|com-cf:nl|ptrs:na|ktp:N0|mc:111595|mtp:S|qry_typ:P|lang:en|wc:2|cs:8885|v=4,Motherly,https://www.indiamart.com/motherly-noida/?pos=91&kwd=mommy bag&tags=CC||||8778.123|Price|product|||NA|rsf:gd-|-stype:attr=1|qr_nm:gd|res:RC3|com-cf:nl|ptrs:na|ktp:N0|mc:111595|mtp:S|qry_typ:P|lang:en|wc:2|cs:8885|v=4,False,,Noida,"C-198, C Block, Sector 63, Noida, UP-201301, India, Noida - 201301, Dist.Gautam Budh Nagar, Uttar Pradesh",8069023896,385
Offspring Outing Mama Tote Diaper Bag Owl Print,https://www.indiamart.com/proddetail/offspring-outing-mama-tote-diaper-bag-owl-print-21817475662.html?pos=92&kwd=mommy bag&tags=CC||||8211.142||product|||NA|rsf:gd-|-stype:attr=1|qr_nm:gd|res:RC3|com-cf:nl|ptrs:na|ktp:N0|mc:111595|mtp:S|qry_typ:P|lang:en|wc:2|cs:8885|v=4,Offspring,https://www.indiamart.com/offspring/?pos=92&kwd=mommy bag&tags=CC||||8211.142||product|||NA|rsf:gd-|-stype:attr=1|qr_nm:gd|res:RC3|com-cf:nl|ptrs:na|ktp:N0|mc:111595|mtp:S|qry_typ:P|lang:en|wc:2|cs:8885|v=4,False,Ghatkopar West,Mumbai,"No. 316, Subhash Nagar, Dutt Nagar J. M. Mandir Road, Asalpha, Ghatkopar West, Ghatkopar West, Mumbai - 400084, Dist.Mumbai, Maharashtra",8047629614,
"Generic Ulti 3 In 1 Baby Diaper Bag Traveling Crib, Packaging Type: Box",https://www.indiamart.com/proddetail/3-in-1-baby-diaper-bag-traveling-crib-23263606362.html?pos=93&kwd=mommy bag&tags=CC||||8230.883|Price|product|||NA|rsf:gd-|-stype:attr=1|qr_nm:gd|res:RC3|com-cf:nl|ptrs:na|ktp:N0|mc:111595|mtp:S|qry_typ:P|lang:en|wc:2|cs:8885|v=4,Perfect Shopo,https://www.indiamart.com/sharnam-emall/?pos=93&kwd=mommy bag&tags=CC||||8230.883|Price|product|||NA|rsf:gd-|-stype:attr=1|qr_nm:gd|res:RC3|com-cf:nl|ptrs:na|ktp:N0|mc:111595|mtp:S|qry_typ:P|lang:en|wc:2|cs:8885|v=4,False,Singanpore Char Rasta,Surat,"148, Vihar Society, Singanpore Char Rasta, Surat - 395004, Dist.Surat, Gujarat",8047666483,
Printed Nylon KBX-0227 Children Multipurpose Bag mix Designs mix,https://www.indiamart.com/proddetail/kbx-0227-children-multipurpose-bag-mix-designs-mix-2852058331030.html?pos=94&kwd=mommy bag&tags=||||8211.142|Price|product|||TS|rsf:gd-|-stype:attr=1|qr_nm:gd|res:RC3|com-cf:nl|ptrs:na|ktp:N0|mc:111595|mtp:S|qry_typ:P|lang:en|wc:2|cs:8885|v=4,Taaj Traders,https://www.taajtraders.com/?pos=94&kwd=mommy bag&tags=||||8211.142|Price|product|||TS|rsf:gd-|-stype:attr=1|qr_nm:gd|res:RC3|com-cf:nl|ptrs:na|ktp:N0|mc:111595|mtp:S|qry_typ:P|lang:en|wc:2|cs:8885|v=4,False,Mandvi,Mumbai,"12,1st, Plot - 30/32, Naseem Manzil, Miya Ahmed Chotani Marg, Mandvi, Mumbai - 400003, Dist.Mumbai, Maharashtra",8048209836,
Baby Diaper Bag,https://www.indiamart.com/proddetail/baby-diaper-bag-2853588143962.html?pos=95&kwd=mommy bag&tags=CC||||8230.883|Price|product|||NA|rsf:gd-|-stype:attr=1|qr_nm:gd|res:RC3|com-cf:nl|ptrs:na|ktp:N0|mc:111595|mtp:S|qry_typ:P|lang:en|wc:2|cs:8885|v=4,Wild Child,https://www.indiamart.com/wildchild/?pos=95&kwd=mommy bag&tags=CC||||8230.883|Price|product|||NA|rsf:gd-|-stype:attr=1|qr_nm:gd|res:RC3|com-cf:nl|ptrs:na|ktp:N0|mc:111595|mtp:S|qry_typ:P|lang:en|wc:2|cs:8885|v=4,False,,Surat,"N-1101,Avadh Carolina,Nr Utopia Club,Opp Air Port,Surat Dumas Road,Surat,Surat, Surat - 394550, Dist.Surat, Gujarat",8047311003,4512
Printed Baby Mother Bag,https://www.indiamart.com/proddetail/printed-baby-mother-bag-2850160935773.html?pos=96&kwd=mommy bag&tags=CC||||8331.224|Price|product|||NA|rsf:gd-|-stype:attr=1|qr_nm:gd|res:RC3|com-cf:nl|ptrs:na|ktp:N0|mc:111595|mtp:S|qry_typ:P|lang:en|wc:2|cs:8885|v=4,Minakshi Garments,https://www.indiamart.com/minakshi-garments-kolhapur/?pos=96&kwd=mommy bag&tags=CC||||8331.224|Price|product|||NA|rsf:gd-|-stype:attr=1|qr_nm:gd|res:RC3|com-cf:nl|ptrs:na|ktp:N0|mc:111595|mtp:S|qry_typ:P|lang:en|wc:2|cs:8885|v=4,False,Tarabai Park,Kolhapur,"Gala No 14 B Parvati Plaza, Main Market Road Swastik Market, Gandhinagar, Tarabai Park, Kolhapur - 416119, Dist.Kolhapur, Maharashtra",7942670858,
Mommy Diaper Bag,https://www.indiamart.com/proddetail/mommy-diaper-bag-21474939912.html?pos=97&kwd=mommy bag&tags=||||8223.226|Price|product|||NA|rsf:gd-|-stype:attr=1|qr_nm:gd|res:RC3|com-cf:nl|ptrs:na|ktp:N0|mc:111595|mtp:S|qry_typ:P|lang:en|wc:2|cs:8885|v=4,S.S. Enterprises,https://www.indiamart.com/s-s-entpsmumbai/?pos=97&kwd=mommy bag&tags=||||8223.226|Price|product|||NA|rsf:gd-|-stype:attr=1|qr_nm:gd|res:RC3|com-cf:nl|ptrs:na|ktp:N0|mc:111595|mtp:S|qry_typ:P|lang:en|wc:2|cs:8885|v=4,False,Masjid Bander West,Thane,"C 101,ACHALA APARTMENT, DATAA MANDIR,DIVA 204, Arihant Tower, V. V. Chandan Street, Masjid Bandar,400003,Mumbai, Masjid Bander West, Thane - 400612, Dist.Thane, Maharashtra",8047765714,
"Pink Kiddale Spacious Baby Diaper Bag Stylish Mommy Handbag, Newly Born",https://www.indiamart.com/proddetail/kiddale-spacious-baby-diaper-bag-stylish-mommy-handbag-2852003440862.html?pos=98&kwd=mommy bag&tags=||||8663.873|Price|product|||NA|rsf:gd-|-stype:attr=1|qr_nm:gd|res:RC3|com-cf:nl|ptrs:na|ktp:N0|mc:111595|mtp:S|qry_typ:P|lang:en|wc:2|cs:8885|v=4,Billionwares Enterprises,https://www.indiamart.com/billionwares-enterprises/?pos=98&kwd=mommy bag&tags=||||8663.873|Price|product|||NA|rsf:gd-|-stype:attr=1|qr_nm:gd|res:RC3|com-cf:nl|ptrs:na|ktp:N0|mc:111595|mtp:S|qry_typ:P|lang:en|wc:2|cs:8885|v=4,False,,Bengaluru,"Number 1 Veerasagara,Attur Post Layout,Yealahanka Bangalore Bengaluru (Bangalore) Urban, Bengaluru - 560064, Dist.Bengaluru, Karnataka",7949345298,
Kids School Bag,https://www.indiamart.com/proddetail/kids-school-bag-2853717786373.html?pos=99&kwd=mommy bag&tags=||||8752.144|Price|product|||TS|rsf:gd-|-stype:attr=1|qr_nm:gd|res:RC3|com-cf:nl|ptrs:na|ktp:N0|mc:111595|mtp:S|qry_typ:P|lang:en|wc:2|cs:8885|v=4,Jain Knitwears,https://www.uniformsindia.net/?pos=99&kwd=mommy bag&tags=||||8752.144|Price|product|||TS|rsf:gd-|-stype:attr=1|qr_nm:gd|res:RC3|com-cf:nl|ptrs:na|ktp:N0|mc:111595|mtp:S|qry_typ:P|lang:en|wc:2|cs:8885|v=4,False,Kamla Nagar,New Delhi,"Flat No. 1, MCD Building, 2nd Floor, Shakti Nagar Chowk, Kamla Nagar, New Delhi - 110007, Dist.Delhi, Delhi",8047645910,
"Multicolor Innerwear Travel Toiletry Organizer Bag, Rectangle",https://www.indiamart.com/proddetail/innerwear-travel-toiletry-organizer-bag-22912941255.html?pos=100&kwd=mommy bag&tags=||||8230.883|Price|product|||TS|rsf:gd-|-stype:attr=1|qr_nm:gd|res:RC3|com-cf:nl|ptrs:na|ktp:N0|mc:111595|mtp:S|qry_typ:P|lang:en|wc:2|cs:8885|v=4,Emall,https://www.maharajmarketing.in/?pos=100&kwd=mommy bag&tags=||||8230.883|Price|product|||TS|rsf:gd-|-stype:attr=1|qr_nm:gd|res:RC3|com-cf:nl|ptrs:na|ktp:N0|mc:111595|mtp:S|qry_typ:P|lang:en|wc:2|cs:8885|v=4,False,Dabholi,Surat,"C-202, Mahendrapark, Opp. Essar Petrol Pump, Near Iskon Circle,, Dabholi, Surat - 395004, Dist.Surat, Gujarat",8048961829,
Blue Polyester American Tourister Moodle 2.0 School Bag,https://www.indiamart.com/proddetail/american-tourister-moodle-2-0-school-bag-2853944199673.html?pos=101&kwd=mommy bag&tags=||||8954.051||product|||MDC|rsf:gd-|-stype:attr=1|qr_nm:gd|res:RC3|com-cf:nl|ptrs:na|ktp:N0|mc:111595|mtp:S|qry_typ:P|lang:en|wc:2|cs:8885|v=4,Dasa Agency,https://www.indiamart.com/dasa-agency/?pos=101&kwd=mommy bag&tags=||||8954.051||product|||MDC|rsf:gd-|-stype:attr=1|qr_nm:gd|res:RC3|com-cf:nl|ptrs:na|ktp:N0|mc:111595|mtp:S|qry_typ:P|lang:en|wc:2|cs:8885|v=4,False,Maduravoyal,Chennai,"1st Floor,No.491-a Poonamallee High Road, Dayasadan Agarwal Cbse School, Maduravoyal,Tiruvallur, Maduravoyal, Chennai - 600095, Dist.Chennai, Tamil Nadu",8044561095,
"NTITY Nyx Waterproof Unisex Travel Lunch Bag, Tiffing Bag For Office",https://www.indiamart.com/proddetail/ntity-nyx-waterproof-unisex-travel-lunch-bag-tiffing-bag-for-office-2852563596933.html?pos=102&kwd=mommy bag&tags=||||8752.144|Price|product|||MDC|rsf:gd-|-stype:attr=1|qr_nm:gd|res:RC3|com-cf:nl|ptrs:na|ktp:N0|mc:111595|mtp:S|qry_typ:P|lang:en|wc:2|cs:8885|v=4,Uneven,https://www.indiamart.com/uneven-delhi/?pos=102&kwd=mommy bag&tags=||||8752.144|Price|product|||MDC|rsf:gd-|-stype:attr=1|qr_nm:gd|res:RC3|com-cf:nl|ptrs:na|ktp:N0|mc:111595|mtp:S|qry_typ:P|lang:en|wc:2|cs:8885|v=4,False,Budh Vihar,New Delhi,"Khasra No.73/15 Budh Vihar, House No B-28/2, Pooth Kalan Ph-2 Near Teen Murti Mandir, North West, Budh Vihar, New Delhi - 110086, Dist.Delhi, Delhi",7942702112,
Babymoon Mother Diaper Bag,https://www.indiamart.com/proddetail/babymoon-mother-diaper-bag-24519208173.html?pos=103&kwd=mommy bag&tags=||||8228.275|Price|product|||MDC|rsf:gd-|-stype:attr=1|qr_nm:gd|res:RC3|com-cf:nl|ptrs:na|ktp:N0|mc:111595|mtp:S|qry_typ:P|lang:en|wc:2|cs:8885|v=4,Dream Works,https://www.indiamart.com/dreamworks-ahmedabad/?pos=103&kwd=mommy bag&tags=||||8228.275|Price|product|||MDC|rsf:gd-|-stype:attr=1|qr_nm:gd|res:RC3|com-cf:nl|ptrs:na|ktp:N0|mc:111595|mtp:S|qry_typ:P|lang:en|wc:2|cs:8885|v=4,False,Sanathal,Ahmedabad,"5,Chanakya Bunglows,Nr Lad Society Common Plot,Vastrapur, Sanathal, Ahmedabad - 380054, Dist.Ahmedabad, Gujarat",8047663803,
My Fav Grey Polyester Diaper Bag,https://www.indiamart.com/proddetail/polyester-diaper-bag-2853042101055.html?pos=104&kwd=mommy bag&tags=||||8752.144|Price|product|||NA|rsf:gd-|-stype:attr=1|qr_nm:gd|res:RC3|com-cf:nl|ptrs:na|ktp:N0|mc:111595|mtp:S|qry_typ:P|lang:en|wc:2|cs:8885|v=4,Mangal Trading.Co.,https://www.indiamart.com/mangaltrading-delhi/?pos=104&kwd=mommy bag&tags=||||8752.144|Price|product|||NA|rsf:gd-|-stype:attr=1|qr_nm:gd|res:RC3|com-cf:nl|ptrs:na|ktp:N0|mc:111595|mtp:S|qry_typ:P|lang:en|wc:2|cs:8885|v=4,False,,New Delhi,"3rd Floor, Plot No 4 And 5, Khasra.no.589/333, Old Rohtak Road, Shahzada Bagh, New Delhi - 110035, Dist.Delhi, Delhi",7942543348,
"Multicolor Foldable Diaper Bag, Packaging Type: Polybag, 3-12 Months",https://www.indiamart.com/proddetail/foldable-diaper-bag-2852139662412.html?pos=105&kwd=mommy bag&tags=||||8752.144|Price|product|||NA|rsf:gd-|-stype:attr=1|qr_nm:gd|res:RC3|com-cf:nl|ptrs:na|ktp:N0|mc:111595|mtp:S|qry_typ:P|lang:en|wc:2|cs:8885|v=4,Indirocks,https://www.indiamart.com/indirocks/?pos=105&kwd=mommy bag&tags=||||8752.144|Price|product|||NA|rsf:gd-|-stype:attr=1|qr_nm:gd|res:RC3|com-cf:nl|ptrs:na|ktp:N0|mc:111595|mtp:S|qry_typ:P|lang:en|wc:2|cs:8885|v=4,False,Kirari New Delhi,New Delhi,"Ground Floor, B-45 Sainik Enaclave, Vikas Nagar, Uttam Nagar, Hastsal, West Delhi,, Kirari New Delhi, New Delhi - 110059, Dist.Delhi, Delhi",7949221721,
Baby Diaper tote bag,https://www.indiamart.com/proddetail/baby-diaper-tote-bag-27152012933.html?pos=106&kwd=mommy bag&tags=||||8364.597|Price|product|||NA|rsf:gd-|-stype:attr=1|qr_nm:gd|res:RC3|com-cf:nl|ptrs:na|ktp:N0|mc:111595|mtp:S|qry_typ:P|lang:en|wc:2|cs:8885|v=4,Haqiba,https://www.indiamart.com/haqiba/?pos=106&kwd=mommy bag&tags=||||8364.597|Price|product|||NA|rsf:gd-|-stype:attr=1|qr_nm:gd|res:RC3|com-cf:nl|ptrs:na|ktp:N0|mc:111595|mtp:S|qry_typ:P|lang:en|wc:2|cs:8885|v=4,False,UDAIPUR ( RAJ ),Udaipur,"shop No 72 Inside Hatipole Haqiba Udaipur, UDAIPUR ( RAJ ), Udaipur - 313001, Rajasthan",7942629676,
"Bembika Diaper Bag - B Plus Solid - Red (BE45), 1-2 Years",https://www.indiamart.com/proddetail/diaper-bag-b-plus-solid-red-be45-2852622806030.html?pos=107&kwd=mommy bag&tags=||||8752.144|Price|product|||NA|rsf:gd-|-stype:attr=1|qr_nm:gd|res:RC3|com-cf:nl|ptrs:na|ktp:N0|mc:111595|mtp:S|qry_typ:P|lang:en|wc:2|cs:8885|v=4,Bembika International,https://www.indiamart.com/bembika-international/?pos=107&kwd=mommy bag&tags=||||8752.144|Price|product|||NA|rsf:gd-|-stype:attr=1|qr_nm:gd|res:RC3|com-cf:nl|ptrs:na|ktp:N0|mc:111595|mtp:S|qry_typ:P|lang:en|wc:2|cs:8885|v=4,False,Mandawali,New Delhi,"Commissionerate - AHMEDABAD-NORTH Division - DIVISION-VI - S G HIGHWAY WEST Range - RANGE I, Mandawali, New Delhi - 110092, Dist.Delhi, Delhi",8043831801,
Multifunctional Waterproof Diaper Backpack Bag For Moms For Travel And Daily Use With Insulation,https://www.indiamart.com/proddetail/multifunctional-waterproof-diaper-backpack-bag-for-moms-for-travel-and-daily-use-with-insulation-25204589473.html?pos=108&kwd=mommy bag&tags=||||8230.883||product|||NA|rsf:gd-|-stype:attr=1|qr_nm:gd|res:RC3|com-cf:nl|ptrs:na|ktp:N0|mc:111595|mtp:S|qry_typ:P|lang:en|wc:2|cs:8885|v=4,Nilkanth Sales,https://www.indiamart.com/nilkanthsales-9114977/?pos=108&kwd=mommy bag&tags=||||8230.883||product|||NA|rsf:gd-|-stype:attr=1|qr_nm:gd|res:RC3|com-cf:nl|ptrs:na|ktp:N0|mc:111595|mtp:S|qry_typ:P|lang:en|wc:2|cs:8885|v=4,False,Dabholi Road,Surat,"11, Madhav Kunj Society, Dabholi Road, Surat - 395004, Dist.Surat, Gujarat",8047663430,
VISMIINTREND Sky Blue & Gray Mommy Bag,https://www.indiamart.com/proddetail/mommy-bag-22314411733.html?pos=109&kwd=mommy bag&tags=||||8601.347|Price|proxy|||TS|rsf:gd-|-stype:attr=1|qr_nm:gd|res:RC3|com-cf:nl|ptrs:na|ktp:N0|mc:111595|mtp:S|qry_typ:P|lang:en|wc:2|cs:8885|v=4,Beena Internationals,https://www.aahanvibags.com/?pos=109&kwd=mommy bag&tags=||||8601.347|Price|proxy|||TS|rsf:gd-|-stype:attr=1|qr_nm:gd|res:RC3|com-cf:nl|ptrs:na|ktp:N0|mc:111595|mtp:S|qry_typ:P|lang:en|wc:2|cs:8885|v=4,False,,Jaipur,"E-131, Ambabari, Jaipur - 302023, Dist.Jaipur, Rajasthan",8047645446,
American Tourister Moodle 2.0 Sky Blue Backpack 29 Ltrs,https://www.indiamart.com/proddetail/american-tourister-moodle-2-0-sky-blue-backpack-29-ltrs-2853453938291.html?pos=110&kwd=mommy bag&tags=||||8785.791|Price|product|||FCPE|rsf:gd-|-stype:attr=1|qr_nm:gd|res:RC3|com-cf:nl|ptrs:na|ktp:N0|mc:111595|mtp:S|qry_typ:P|lang:en|wc:2|cs:8885|v=4,Purab Enterprises,https://www.indiamart.com/purab-enterprise/?pos=110&kwd=mommy bag&tags=||||8785.791|Price|product|||FCPE|rsf:gd-|-stype:attr=1|qr_nm:gd|res:RC3|com-cf:nl|ptrs:na|ktp:N0|mc:111595|mtp:S|qry_typ:P|lang:en|wc:2|cs:8885|v=4,False,,Ghaziabad,"Shop No-10, C-Block Market, Kavi Nagar, Ghaziabad - 201002, Dist.Ghaziabad, Uttar Pradesh",,
Baby Mother Bag,,Gala Enterprises,https://www.indiamart.com/galaenterprises-mumbai/?pos=111&kwd=mommy bag&tags=CA||||8211.142|Price|product|||NA|rsf:gd-|-stype:attr=1|qr_nm:gd|res:RC3|com-cf:nl|ptrs:na|ktp:N0|mc:111595|mtp:S|qry_typ:P|lang:en|wc:2|cs:8885|v=4,False,Andheri East,Mumbai,"Shop No. 4, Sarda Nivas, Shop No. Gali No. 2, Sahar Road Koldongri, Andheri East, Andheri East, Mumbai - 400069, Dist.Mumbai, Maharashtra",8048371824,109
Mommy Bag,,Baby Shop,https://www.indiamart.com/baby-shop-ernakulam/?pos=112&kwd=mommy bag&tags=CC||||8507.67||product|||NA|rsf:gd-|-stype:attr=1|qr_nm:gd|res:RC3|com-cf:nl|ptrs:na|ktp:N0|mc:111595|mtp:S|qry_typ:P|lang:en|wc:2|cs:8885|v=4,False,,Ernakulam,"Club Junction Unichira, Ernakulam - 682024, Dist.Ernakulam, Kerala",8047311017,1362
Mommy Bag,,A&A Trading Company,https://www.indiamart.com/aa-trading-company-ernakulam/?pos=113&kwd=mommy bag&tags=CC||||8503.868||product|||NA|rsf:gd-|-stype:attr=1|qr_nm:gd|res:RC3|com-cf:nl|ptrs:na|ktp:N0|mc:111595|mtp:S|qry_typ:P|lang:en|wc:2|cs:8885|v=4,False,,Kochi,"29/317-H1,LANE NO.44, JANATHA ROAD,VYTTILA 29/317-H1, LANE NO.44, JANATHA ROAD, VYTTILA, Ernakulam,,683021,Ernakulam, Kochi - 682019, Dist.Ernakulam, Kerala",8048372517,780
Mommy Bag,,New Collections,https://www.indiamart.com/new-collections-jaipur/?pos=114&kwd=mommy bag&tags=CC||||8601.347||product|||NA|rsf:gd-|-stype:attr=1|qr_nm:gd|res:RC3|com-cf:nl|ptrs:na|ktp:N0|mc:111595|mtp:S|qry_typ:P|lang:en|wc:2|cs:8885|v=4,False,Ghat Darwaza,Jaipur,"F19, Swarn Bhoomi Complex, Dara Market, Haldion Ka Rasta,, Ghat Darwaza, Jaipur - 302003, Dist.Jaipur, Rajasthan",8048372750,171
Mommy Bag,,SS Enterprises,https://www.indiamart.com/ss-enterprises-kozhikode/?pos=115&kwd=mommy bag&tags=CC||||8457.459||product|||NA|rsf:gd-|-stype:attr=1|qr_nm:gd|res:RC3|com-cf:nl|ptrs:na|ktp:N0|mc:111595|mtp:S|qry_typ:P|lang:en|wc:2|cs:8885|v=4,False,,Kozhikode,", Kozhikode - 673571, Dist.Kozhikode, Kerala",8048265251,434
Mommy Bag,,Rahul Agency,https://www.indiamart.com/rahul-agencies-pimpri-chinchwad/?pos=116&kwd=mommy bag&tags=CC||||8302.941||product|||NA|rsf:gd-|-stype:attr=1|qr_nm:gd|res:RC3|com-cf:nl|ptrs:na|ktp:N0|mc:111595|mtp:S|qry_typ:P|lang:en|wc:2|cs:8885|v=4,False,Tapkir Nagar,Pimpri Chinchwad,"Servey No 71/1A1B1C Flat No 201 Apple Savli Building Tapkir Nagar Kalewadi Pune, Tapkir Nagar, Pimpri Chinchwad - 411017, Maharashtra",8047308778,9207
Mommy Bags,,Taibani Collection,https://www.indiamart.com/taibani-collection-mumbai/?pos=117&kwd=mommy bag&tags=CC||||8211.142||product|||NA|rsf:gd-|-stype:attr=1|qr_nm:gd|res:RC3|com-cf:nl|ptrs:na|ktp:N0|mc:111595|mtp:S|qry_typ:P|lang:en|wc:2|cs:8885|v=4,False,Kazi Mohalla,Mumbai,"Ground Floor Shop No 11 2/19 Nowroji Hill Road,Dongri Market Rehmatbai Habib House New Kazi Street, Kazi Mohalla, Mumbai - 400009, Dist.Mumbai, Maharashtra",7942636894,
mommy cotton bags,,Bebe Moma,https://www.indiamart.com/bebe-moma/?pos=118&kwd=mommy bag&tags=CC||||8509.724|Price|product|||NA|rsf:gd-|-stype:attr=1|qr_nm:gd|res:RC3|com-cf:nl|ptrs:na|ktp:N0|mc:111595|mtp:S|qry_typ:P|lang:en|wc:2|cs:8885|v=4,False,Vellakkinar,Alappuzha,", Vellakkinar, Alappuzha, Dist.Alappuzha, Kerala",8045849754,228
Mommy Bags,,A.K. Enterprises,https://www.indiamart.com/akentphowrah/?pos=119&kwd=mommy bag&tags=CC||||9829.308||product|||NA|rsf:gd-|-stype:attr=1|qr_nm:gd|res:RC3|com-cf:nl|ptrs:na|ktp:N0|mc:111595|mtp:S|qry_typ:P|lang:en|wc:2|cs:8885|v=4,False,,Howrah,"122/103, J. N. Mukherjee Road Ghusuri, Howrah - 711107, Dist.Howrah, West Bengal",8048372607,476
Mom Mommy Bruh,,Wicked Stitch,https://www.indiamart.com/wickedstitch-121704438/?pos=120&kwd=mommy bag&tags=CC||||8211.142||product|||NA|rsf:gd-|-stype:attr=1|qr_nm:gd|res:RC3|com-cf:nl|ptrs:na|ktp:N0|mc:111595|mtp:S|qry_typ:P|lang:en|wc:2|cs:8885|v=4,False,Hingorani House Worli,Mumbai,"1ST FLOOR 78/A, FLAT NO.6 DR. ANNIE BESANT ROAD HINGORANI HOUSE WORLI W 1st Floor 78/A, Hingorani House Worli, Mumbai - 400018, Dist.Mumbai, Maharashtra",8048249676,8180
Mommy To Be,,Mithali Decorations,https://www.indiamart.com/mithali-decorations/?pos=121&kwd=mommy bag&tags=CC||||8663.873||product|||NA|rsf:gd-|-stype:attr=1|qr_nm:gd|res:RC3|com-cf:nl|ptrs:na|ktp:N0|mc:111595|mtp:S|qry_typ:P|lang:en|wc:2|cs:8885|v=4,False,Nagartapete,Bengaluru,"No.37, Opp.rajendra Market, Avenue Road Cross, O K Road,,, Nagartapete, Bengaluru - 560002, Dist.Bengaluru, Karnataka",8048249856,289
Bag Multi-function Fashion Mother Bag,,My Store,https://www.indiamart.com/company/114899941/?pos=122&kwd=mommy bag&tags=CC||||8228.275|Price|product|||FCPE|rsf:gd-|-stype:attr=1|qr_nm:gd|res:RC3|com-cf:nl|ptrs:na|ktp:N0|mc:111595|mtp:S|qry_typ:P|lang:en|wc:2|cs:8885|v=4,False,,Ahmedabad,"Ahm, Ahmedabad - 382210, Dist.Ahmedabad, Gujarat",,
Mother Bag,,Kidlite Products,https://www.indiamart.com/kidlite-products-noida/?pos=123&kwd=mommy bag&tags=CC||||8778.123|Price|product|||NA|rsf:gd-|-stype:attr=1|qr_nm:gd|res:RC3|com-cf:nl|ptrs:na|ktp:N0|mc:111595|mtp:S|qry_typ:P|lang:en|wc:2|cs:8885|v=4,False,Noida,Noida,"Flat No A3/201 Gardenia Glory Sector 46 Gautam Buddha Nagar, Noida, Noida - 201301, Dist.Gautam Budh Nagar, Uttar Pradesh",8048250486,755
Mother Bag,,Baby Planet,https://www.indiamart.com/baby-planet-vasai/?pos=124&kwd=mommy bag&tags=CC||||8210.732||product|||NA|rsf:gd-|-stype:attr=1|qr_nm:gd|res:RC3|com-cf:nl|ptrs:na|ktp:N0|mc:111595|mtp:S|qry_typ:P|lang:en|wc:2|cs:8885|v=4,False,Vasai East,Vasai,"Shop No.1, Hillary Appartment. Janakpuri Complex, Navghar Road, Vasai East., Vasai East, Vasai - 401210, Dist.Thane, Maharashtra",8048372328,186
Mother Bag,,Siva Yarn,https://www.indiamart.com/siva-yarn/?pos=125&kwd=mommy bag&tags=CC||||8706.587||product|||NA|rsf:gd-|-stype:attr=1|qr_nm:gd|res:RC3|com-cf:nl|ptrs:na|ktp:N0|mc:111595|mtp:S|qry_typ:P|lang:en|wc:2|cs:8885|v=4,False,,Madurai,"168a/1,Na,Kamarajar Road,Maduraimadurai,Madurai, Madurai - 625009, Dist.Madurai, Tamil Nadu",8048372772,903
Mother Bag,,1st Step Baby Shop,https://www.indiamart.com/1st-step-baby-shop/?pos=126&kwd=mommy bag&tags=CC||||8503.868||product|||NA|rsf:gd-|-stype:attr=1|qr_nm:gd|res:RC3|com-cf:nl|ptrs:na|ktp:N0|mc:111595|mtp:S|qry_typ:P|lang:en|wc:2|cs:8885|v=4,False,,Kochi,"G-287, Main Avenue Road, Ground Floor, Panampilly Nagar, Kochi - 682036, Dist.Ernakulam, Kerala",8048250167,991
Mother Bag,,Shubham Enterprise,https://www.indiamart.com/shubhamenterprise-50790321/?pos=127&kwd=mommy bag&tags=CC||||8211.142|Price|product|||NA|rsf:gd-|-stype:attr=1|qr_nm:gd|res:RC3|com-cf:nl|ptrs:na|ktp:N0|mc:111595|mtp:S|qry_typ:P|lang:en|wc:2|cs:8885|v=4,False,Dadar,Mumbai,"Shyam Wadi, 40, Ranade Road, Dadar, Mumbai - 400028, Dist.Mumbai, Maharashtra",8048249688,9179
Mother Bag,,Hariika Bags & Luggage,https://www.indiamart.com/hariika-bags-luggage/?pos=128&kwd=mommy bag&tags=CC||||8786.56||product|||NA|rsf:gd-|-stype:attr=1|qr_nm:gd|res:RC3|com-cf:nl|ptrs:na|ktp:N0|mc:111595|mtp:S|qry_typ:P|lang:en|wc:2|cs:8885|v=4,False,Jagathgirigutta,Hyderabad,"No. 52-113/NR,Maqdoom Nagar, Jagathgirigutta, Hyderabad - 500037, Dist.Hyderabad, Telangana",8045849821,537
Mother Bag,,Saba Bags,https://www.indiamart.com/sababags-hyderabad/?pos=129&kwd=mommy bag&tags=CC||||8786.56||product|||NA|rsf:gd-|-stype:attr=1|qr_nm:gd|res:RC3|com-cf:nl|ptrs:na|ktp:N0|mc:111595|mtp:S|qry_typ:P|lang:en|wc:2|cs:8885|v=4,False,,Hyderabad,"11-3-559, Mallepally, Opp. Anwarul Uloom College, Hyderabad - 500001, Dist.Hyderabad, Telangana",8045849703,340
Disney Bag,,Fancy Bag Collection,https://www.indiamart.com/fancy-bag-collection/?pos=130&kwd=mommy bag&tags=CC||||8559.269||product|||NA|rsf:gd-|-stype:attr=1|qr_nm:gd|res:RC3|com-cf:nl|ptrs:na|ktp:N0|mc:111595|mtp:S|qry_typ:P|lang:en|wc:2|cs:8885|v=4,False,,Indore,"26, Khatipura Main Road, Ranipura, Indore - 452007, Dist.Indore, Madhya Pradesh",8069033758,561
Moms Bag,,Supriya Collection,https://www.indiamart.com/supriya-collection-raigad/?pos=131&kwd=mommy bag&tags=CC||||8236.946||product|||NA|rsf:gd-|-stype:attr=1|qr_nm:gd|res:RC3|com-cf:nl|ptrs:na|ktp:N0|mc:111595|mtp:S|qry_typ:P|lang:en|wc:2|cs:8885|v=4,False,Near GMart,Raigad,"Mahalaxmi Mall,Shop No 33, Sector.35, Kamothe , Near GMart, Near GMart, Raigad - 410206, Maharashtra",8048263262,596
Mother Bag,,Pretty Krafts,https://www.indiamart.com/pretty-krafts/?pos=132&kwd=mommy bag&tags=CC||||8559.269||product|||NA|rsf:gd-|-stype:attr=1|qr_nm:gd|res:RC3|com-cf:nl|ptrs:na|ktp:N0|mc:111595|mtp:S|qry_typ:P|lang:en|wc:2|cs:8885|v=4,False,Pardesipura,Indore,"Readymade Complex, Pardesipura, Pardesipura, Indore - 452011, Dist.Indore, Madhya Pradesh",8048372970,9762
Mothers Bag,,Cute Baby,https://www.indiamart.com/cute-baby-enterprises/?pos=133&kwd=mommy bag&tags=CC||||8226.563||product|||NA|rsf:gd-|-stype:attr=1|qr_nm:gd|res:RC3|com-cf:nl|ptrs:na|ktp:N0|mc:111595|mtp:S|qry_typ:P|lang:en|wc:2|cs:8885|v=4,False,Abhyudaya Bank Marg,Navi Mumbai,"Bombay Annexe, Shop no 1, Abhyudaya Bank marg, sector 17, Abhyudaya Bank Marg, Navi Mumbai - 400703, Dist.Thane, Maharashtra",8048361255,934
Mother Bag,,Darling Baby,https://www.indiamart.com/darling-baby/?pos=134&kwd=mommy bag&tags=CC||||8954.051||product|||NA|rsf:gd-|-stype:attr=1|qr_nm:gd|res:RC3|com-cf:nl|ptrs:na|ktp:N0|mc:111595|mtp:S|qry_typ:P|lang:en|wc:2|cs:8885|v=4,False,Gopalapuram,Chennai,"No. 102, Cathedral Road, Gopalapuram, Chennai - 600086, Dist.Chennai, Tamil Nadu",8048249718,6964
Mother Bags,,Mahavir Baby Craft,https://www.indiamart.com/mahavir-baby-craft/?pos=135&kwd=mommy bag&tags=CC||||8210.732||product|||NA|rsf:gd-|-stype:attr=1|qr_nm:gd|res:RC3|com-cf:nl|ptrs:na|ktp:N0|mc:111595|mtp:S|qry_typ:P|lang:en|wc:2|cs:8885|v=4,False,Vasai East,Vasai,"Gala No. 12-14, Rajprabha Landmark, Industrial Estate No. 6, Bhoidapada,, Vasai East, Vasai - 401208, Dist.Thane, Maharashtra",7942647744,
Mother Bag,,First Step Baby Shop,https://www.indiamart.com/first-step-baby-shop/?pos=136&kwd=mommy bag&tags=CC||||8316.457||product|||NA|rsf:gd-|-stype:attr=1|qr_nm:gd|res:RC3|com-cf:nl|ptrs:na|ktp:N0|mc:111595|mtp:S|qry_typ:P|lang:en|wc:2|cs:8885|v=4,False,Pathardi Phata,Nashik,"Pathardi Phata, Pathardi Phata, Nashik - 422010, Dist.Nashik, Maharashtra",8048264070,925
Mother Bag,,Shri Sai Bags,https://www.indiamart.com/shri-sai-bags/?pos=137&kwd=mommy bag&tags=CC||||9140.514|Price|product|||NA|rsf:gd-|-stype:attr=1|qr_nm:gd|res:RC3|com-cf:nl|ptrs:na|ktp:N0|mc:111595|mtp:S|qry_typ:P|lang:en|wc:2|cs:8885|v=4,False,Tatibandh,Raipur,"Opposite Bharat Mata School, G. E. Road, Tatibandh, Raipur - 492099, Chhattisgarh",8062245111,105
Mother Bag,,Maruti Kids Zone,https://www.indiamart.com/maruti-kids-zone/?pos=138&kwd=mommy bag&tags=CC||||9839.57||product|||NA|rsf:gd-|-stype:attr=1|qr_nm:gd|res:RC3|com-cf:nl|ptrs:na|ktp:N0|mc:111595|mtp:S|qry_typ:P|lang:en|wc:2|cs:8885|v=4,False,Muktaram Babu Street,Kolkata,"No. 109, 1st Floor, Muktaram Babu Street, Kolkata - 700007, Dist.Kolkata, West Bengal",7949342709,
Mother Bag,,nn trading co.,https://www.indiamart.com/m-kumarbengaluru/?pos=139&kwd=mommy bag&tags=CC||||8663.873||product|||NA|rsf:gd-|-stype:attr=1|qr_nm:gd|res:RC3|com-cf:nl|ptrs:na|ktp:N0|mc:111595|mtp:S|qry_typ:P|lang:en|wc:2|cs:8885|v=4,False,Virupakshapura,Bengaluru,"no.475,1st floor, rajeev gandhi nagar, Virupakshapura, Bengaluru - 560092, Dist.Bengaluru, Karnataka",8062270227,193
Mother Bag,,New Bourn Junction,https://www.indiamart.com/new-born-junction/?pos=140&kwd=mommy bag&tags=CC||||8984.809||product|||NA|rsf:gd-|-stype:attr=1|qr_nm:gd|res:RC3|com-cf:nl|ptrs:na|ktp:N0|mc:111595|mtp:S|qry_typ:P|lang:en|wc:2|cs:8885|v=4,False,Kamania Gate Near Vijay Cutpiece,Jabalpur,"568/1 Bhaldarpura Narghaiya Road Sarafa Ward, Kamania Gate Near Vijay Cutpiece, Jabalpur - 482002, Dist.Jabalpur, Madhya Pradesh",8048371748,794
Mother Bag,,Jay Ambe Engineering And Fabrication,https://www.indiamart.com/jayambeengineeringandfabrication-ahmedabad/?pos=141&kwd=mommy bag&tags=CC||||8228.275|Price|product|||NA|rsf:gd-|-stype:attr=1|qr_nm:gd|res:RC3|com-cf:nl|ptrs:na|ktp:N0|mc:111595|mtp:S|qry_typ:P|lang:en|wc:2|cs:8885|v=4,False,,Ahmedabad,"Ground Floor, C-54, Zaveri Industrial Estate, Singarva Road,, Ahmedabad - 382430, Dist.Ahmedabad, Gujarat",8069707447,189
Mother Bag,,K M Trading,https://www.indiamart.com/kmtrading-delhi/?pos=142&kwd=mommy bag&tags=CC||||8752.144|Price|product|||NA|rsf:gd-|-stype:attr=1|qr_nm:gd|res:RC3|com-cf:nl|ptrs:na|ktp:N0|mc:111595|mtp:S|qry_typ:P|lang:en|wc:2|cs:8885|v=4,False,Sadar Bazar,New Delhi,"316/1, Press Street Sadar Bazar, Sadar Bazar, New Delhi - 110006, Dist.Delhi, Delhi",8069023791,675
Fancy Mother Bag,,Kids World,https://www.indiamart.com/kids-world-chennai/?pos=143&kwd=mommy bag&tags=CC||||8954.051||product|||NA|rsf:gd-|-stype:attr=1|qr_nm:gd|res:RC3|com-cf:nl|ptrs:na|ktp:N0|mc:111595|mtp:S|qry_typ:P|lang:en|wc:2|cs:8885|v=4,False,Choolai,Chennai,"Plot No.8, Nehru Timber Market, New No.41,, Old No.14,1st Floor, Sattanna Naicken Street, Choolai, Choolai, Chennai - 600112, Dist.Chennai, Tamil Nadu",8047793260,
Baby Mother Bag,,Rama Enterprise,https://www.indiamart.com/rama-enterprise-hooghly/?pos=144&kwd=mommy bag&tags=CC||||9842.824|Price|product|||NA|rsf:gd-|-stype:attr=1|qr_nm:gd|res:RC3|com-cf:nl|ptrs:na|ktp:N0|mc:111595|mtp:S|qry_typ:P|lang:en|wc:2|cs:8885|v=4,False,,Hooghly,"Mandirtala,Chak Bansberia,Chak Bansberia,Chak Bansberia,Chak Bansberia,Hooghly, Hooghly - 712502, Dist.Hooghly, West Bengal",8069416008,956
Baby Mother Bag,,Kanchan Kids,https://www.indiamart.com/kanchan-kids/?pos=145&kwd=mommy bag&tags=CC||||8211.142||product|||NA|rsf:gd-|-stype:attr=1|qr_nm:gd|res:RC3|com-cf:nl|ptrs:na|ktp:N0|mc:111595|mtp:S|qry_typ:P|lang:en|wc:2|cs:8885|v=4,False,Malad West,Mumbai,"Shop No. 22, A1, Natraj Market, Durga Galli, S V Road, Malad West, Mumbai - 400064, Dist.Mumbai, Maharashtra",8043823511,
Baby Mother Bag,,Dream Kids,https://www.indiamart.com/dream-kids/?pos=146&kwd=mommy bag&tags=CB||||8211.142||product|||NA|rsf:gd-|-stype:attr=1|qr_nm:gd|res:RC3|com-cf:nl|ptrs:na|ktp:N0|mc:111595|mtp:S|qry_typ:P|lang:en|wc:2|cs:8885|v=4,False,Ranade Road,Mumbai,"Factory No. 40, Shyam Wadi, Ranade Road, Ranade Road, Mumbai - 400028, Dist.Mumbai, Maharashtra",8048361314,680
Baby Mother Bag,,Jai Shree Garments,https://www.indiamart.com/jai-shree-garments-meerut/?pos=147&kwd=mommy bag&tags=CC||||8813.969||product|||NA|rsf:gd-|-stype:attr=1|qr_nm:gd|res:RC3|com-cf:nl|ptrs:na|ktp:N0|mc:111595|mtp:S|qry_typ:P|lang:en|wc:2|cs:8885|v=4,False,,Meerut,"H 185/A Shastri Nagar Garh Road Meerut, Meerut - 250004, Dist.Meerut, Uttar Pradesh",8047308788,2771
Baby Mother Bag,,Bhasins Industries,https://www.indiamart.com/bhasins-industries-new-delhi/?pos=148&kwd=mommy bag&tags=CC||||8752.144|Price|product|||NA|rsf:gd-|-stype:attr=1|qr_nm:gd|res:RC3|com-cf:nl|ptrs:na|ktp:N0|mc:111595|mtp:S|qry_typ:P|lang:en|wc:2|cs:8885|v=4,False,,New Delhi,"H. NO-1/6166, GALI NO - 3,,EAST ROHTASH NAGAR,SHAHDARA H. No-1/6166, Gali No - 3 East Rohtash Nagar Shahdara,110032,, New Delhi - 110032, Dist.Delhi, Delhi",8048249738,8523
Mother Bags,,Welcome Enterprise,https://www.indiamart.com/welcome-enterprise-mehsana/?pos=149&kwd=mommy bag&tags=CC||||8215.6||product|||NA|rsf:gd-|-stype:attr=1|qr_nm:gd|res:RC3|com-cf:nl|ptrs:na|ktp:N0|mc:111595|mtp:S|qry_typ:P|lang:en|wc:2|cs:8885|v=4,False,,Mehsana,"F-119 Jail Road Dharti Manan Plaza Mehsana, Mehsana - 384002, Dist.Mehsana, Gujarat",8069017427,455
Luxury Mother Bags,,Divya International,https://www.indiamart.com/divya-international/?pos=150&kwd=mommy bag&tags=CC||||8752.144||product|||NA|rsf:gd-|-stype:attr=1|qr_nm:gd|res:RC3|com-cf:nl|ptrs:na|ktp:N0|mc:111595|mtp:S|qry_typ:P|lang:en|wc:2|cs:8885|v=4,False,,New Delhi,"2891/1, Singhara Chowk Sadar Bazar, Nabi Karim, New Delhi - 110055, Dist.Delhi, Delhi",8048361329,499
Mother Bags,,Little Baby,https://www.indiamart.com/little-baby-hyderabad/?pos=151&kwd=mommy bag&tags=CC||||8786.56||product|||NA|rsf:gd-|-stype:attr=1|qr_nm:gd|res:RC3|com-cf:nl|ptrs:na|ktp:N0|mc:111595|mtp:S|qry_typ:P|lang:en|wc:2|cs:8885|v=4,False,,Hyderabad,"2-4-268, Lane Opp Genral Bazaar, Ramgopalpet, Secunderabad, 500003, Hyderabad - 500003, Dist.Hyderabad, Telangana",8047805066,
Mummty,,Yashodh Enterprises,https://www.indiamart.com/yoshodha-enterprises/?pos=152&kwd=mommy bag&tags=CC||||8663.873||product|||NA|rsf:gd-|-stype:attr=1|qr_nm:gd|res:RC3|com-cf:nl|ptrs:na|ktp:N0|mc:111595|mtp:S|qry_typ:P|lang:en|wc:2|cs:8885|v=4,False,,Bengaluru,"No 98,7th Cross Jai Maruthinagara Ravi Badavane Nandini Layout (Bangalore) Urban, Bengaluru - 560096, Dist.Bengaluru, Karnataka",8048250306,985
Mothers Bags,,Happy Baby Shoppee,https://www.indiamart.com/happy-baby-shoppee/?pos=153&kwd=mommy bag&tags=CC||||8316.457||product|||NA|rsf:gd-|-stype:attr=1|qr_nm:gd|res:RC3|com-cf:nl|ptrs:na|ktp:N0|mc:111595|mtp:S|qry_typ:P|lang:en|wc:2|cs:8885|v=4,False,,Nashik,"Shop No B 1, Dhondi Ambad Commercial Complex, Kanade Maruti Lane, Dahi Pul, Nashik - 422001, Dist.Nashik, Maharashtra",8045849865,760
Mother Bags,,L.R.Enterprises,https://www.indiamart.com/lrenterprises-kota/?pos=154&kwd=mommy bag&tags=CC||||8588.208||product|||NA|rsf:gd-|-stype:attr=1|qr_nm:gd|res:RC3|com-cf:nl|ptrs:na|ktp:N0|mc:111595|mtp:S|qry_typ:P|lang:en|wc:2|cs:8885|v=4,False,Talwandi,Kota,"No. 2 A-7, Talwandi, Near Keshopura Circle, Talwandi, Kota - 324005, Rajasthan",8048361325,771
Imported Mummy Bags,,Aditya Industries,https://www.indiamart.com/adityaindustriesmumbai/?pos=155&kwd=mommy bag&tags=CC||||8211.142|Price|product|||NA|rsf:gd-|-stype:attr=1|qr_nm:gd|res:RC3|com-cf:nl|ptrs:na|ktp:N0|mc:111595|mtp:S|qry_typ:P|lang:en|wc:2|cs:8885|v=4,False,Malad West,Mumbai,"B104,VASANT SAGAR YAMUNA CO OP HSG SOC LTD, VASANT SAGAR COMPLEX, THAKUR VILLEGE,KANDIVALI EAST 730, Ljmima Metroplex, New Link Road, Opp. Inter Face, Behind Goregaon Sports Club,400064,Mumbai, Malad West, Mumbai - 400101, Dist.Mumbai, Maharashtra",8048361294,175
Baby Mothers Beg,,T.R Garments,https://www.indiamart.com/middya-garment/?pos=156&kwd=mommy bag&tags=CC||||9839.57||product|||NA|rsf:gd-|-stype:attr=1|qr_nm:gd|res:RC3|com-cf:nl|ptrs:na|ktp:N0|mc:111595|mtp:S|qry_typ:P|lang:en|wc:2|cs:8885|v=4,False,esplanade,Kolkata,"Kolkata, esplanade, Kolkata - 700087, Dist.Kolkata, West Bengal",8048371741,818
New Born Baby Mother Bags,,N. N. Apparels,https://www.indiamart.com/nnapparels/?pos=157&kwd=mommy bag&tags=CC||||8559.269||product|||NA|rsf:gd-|-stype:attr=1|qr_nm:gd|res:RC3|com-cf:nl|ptrs:na|ktp:N0|mc:111595|mtp:S|qry_typ:P|lang:en|wc:2|cs:8885|v=4,False,Nihalpura,Indore,"F-301, Sancheti Readymade Market,10/1, Nihal Pura, Nihalpura, Indore - 452004, Dist.Indore, Madhya Pradesh",8043814568,
Joker Bag,,Srinivasa Bags,https://www.indiamart.com/srinivasa-bags/?pos=158&kwd=mommy bag&tags=CC||||8663.873||product|||NA|rsf:gd-|-stype:attr=1|qr_nm:gd|res:RC3|com-cf:nl|ptrs:na|ktp:N0|mc:111595|mtp:S|qry_typ:P|lang:en|wc:2|cs:8885|v=4,False,Vijaya Nagar,Bengaluru,"16/4,1st Main, 2nd Cross, Marenahalli,, Vijaya Nagar, Bengaluru - 560040, Dist.Bengaluru, Karnataka",8062245011,319
Mother Baby Bag,,Baba Bag House,https://www.indiamart.com/baba-bag-alwar/?pos=159&kwd=mommy bag&tags=CC||||8692.544||product|||NA|rsf:gd-|-stype:attr=1|qr_nm:gd|res:RC3|com-cf:nl|ptrs:na|ktp:N0|mc:111595|mtp:S|qry_typ:P|lang:en|wc:2|cs:8885|v=4,False,,Alwar,"Teej Ke Road,Scheme No- 10,Near Hanuman Temple,Alwar,Alwar, Alwar - 301001, Dist.Alwar, Rajasthan",8048250440,827
Mothers Bag For Baby,,Nahar Business House,https://www.indiamart.com/naharbusinesshouse/?pos=160&kwd=mommy bag&tags=CC||||8954.051||product|||NA|rsf:gd-|-stype:attr=1|qr_nm:gd|res:RC3|com-cf:nl|ptrs:na|ktp:N0|mc:111595|mtp:S|qry_typ:P|lang:en|wc:2|cs:8885|v=4,False,,Chennai,"Shop No. 22, Prince Plaza, No. 46, Pantheon Road, Egmore, Chennai - 600008, Dist.Chennai, Tamil Nadu",8043823382,
Mother Bag,,Chetan Wear,https://www.indiamart.com/chetan-wear/?pos=161&kwd=mommy bag&tags=CC||||8211.142||product|||NA|rsf:gd-|-stype:attr=1|qr_nm:gd|res:RC3|com-cf:nl|ptrs:na|ktp:N0|mc:111595|mtp:S|qry_typ:P|lang:en|wc:2|cs:8885|v=4,False,Babasaheb Ambedkar Nagar,Mumbai,"No. 6, Madhani Estate, Senapati Bapat Marg, Dadar West, Babasaheb Ambedkar Nagar, Mumbai - 400028, Dist.Mumbai, Maharashtra",8048371816,412
Mother Bags,,Ramdev Traders,https://www.indiamart.com/rising-star-babycare/?pos=162&kwd=mommy bag&tags=CC||||8211.142||product|||NA|rsf:gd-|-stype:attr=1|qr_nm:gd|res:RC3|com-cf:nl|ptrs:na|ktp:N0|mc:111595|mtp:S|qry_typ:P|lang:en|wc:2|cs:8885|v=4,False,Motilal Nagar,Mumbai,"Gala No 202/b, 2nd Floor, Parmar Industrial Mall Bldg, Gokhivare, Vasai East, Palghar, Goregaon West, Motilal Nagar, Mumbai - 401208, Dist.Mumbai, Maharashtra",8048249701,9240
Mother Bags,,Baby Station,https://www.indiamart.com/baby-station/?pos=163&kwd=mommy bag&tags=CC||||8239.3955||product|||NA|rsf:gd-|-stype:attr=1|qr_nm:gd|res:RC3|com-cf:nl|ptrs:na|ktp:N0|mc:111595|mtp:S|qry_typ:P|lang:en|wc:2|cs:8885|v=4,False,Murbad Road,Kalyan,"Shop No. 4, Voilet Apartment, Syndicate, Murbad Road, Kalyan - 421301, Dist.Thane, Maharashtra",8069196787,630
Mama Bags,,Alistair Ventures,https://www.indiamart.com/alistair-ventures/?pos=164&kwd=mommy bag&tags=CC||||9045.955||product|||NA|rsf:gd-|-stype:attr=1|qr_nm:gd|res:RC3|com-cf:nl|ptrs:na|ktp:N0|mc:111595|mtp:S|qry_typ:P|lang:en|wc:2|cs:8885|v=4,False,KANPUR,Kanpur,"117/k/90 Sarvodaya Nagar Kanpur, KANPUR, Kanpur - 208025, Uttar Pradesh",8048250440,930
Mommy Diaper Bag,,ritvi collection,https://www.indiamart.com/ritvi-collection-mumbai/?pos=165&kwd=mommy bag&tags=||||8211.142|Price|product|||NA|rsf:gd-|-stype:attr=1|qr_nm:gd|res:RC3|com-cf:nl|ptrs:na|ktp:N0|mc:111595|mtp:S|qry_typ:P|lang:en|wc:2|cs:8885|v=4,False,Borivali West,Mumbai,"Borivali west, Borivali West, Mumbai - 400092, Dist.Mumbai, Maharashtra",8047313156,
"Medemove Pregnancy Belt, For Personal",https://www.indiamart.com/proddetail/medemove-pregnancy-belt-2853290051591.html?pos=166&kwd=mommy bag&tags=||||9461.351|Price|product|||TS|rsf:gd-|-stype:attr=1|qr_nm:gd|res:RC3|com-cf:nl|ptrs:na|ktp:N0|mc:111595|mtp:S|qry_typ:P|lang:en|wc:2|cs:8885|v=4,Ridhi Krish Surgicals,https://www.indiamart.com/ridhi-krish-surgicals/?pos=166&kwd=mommy bag&tags=||||9461.351|Price|product|||TS|rsf:gd-|-stype:attr=1|qr_nm:gd|res:RC3|com-cf:nl|ptrs:na|ktp:N0|mc:111595|mtp:S|qry_typ:P|lang:en|wc:2|cs:8885|v=4,False,Hillpatna,Berhampur,"1 1259/3887 M/s Ridhi Krish Surgicals Hillpatna Sub Post Office, Hillpatna, Berhampur - 760005, Dist.Ganjam, Odisha",7949225588,
Ziplo Care Pregnancy Support Maternity Belt Belly Bump Girdle Adjustable Band Brace for pregnant,https://www.indiamart.com/proddetail/ziplo-care-pregnancy-support-maternity-belt-belly-bump-girdle-adjustable-band-brace-for-pregnant-2854235295073.html?pos=167&kwd=mommy bag&tags=||||9110.092|Price|product|||MDC|rsf:gd-|-stype:attr=1|qr_nm:gd|res:RC3|com-cf:nl|ptrs:na|ktp:N0|mc:111595|mtp:S|qry_typ:P|lang:en|wc:2|cs:8885|v=4,Global Infotech,https://www.indiamart.com/globalinfotech-lucknow/?pos=167&kwd=mommy bag&tags=||||9110.092|Price|product|||MDC|rsf:gd-|-stype:attr=1|qr_nm:gd|res:RC3|com-cf:nl|ptrs:na|ktp:N0|mc:111595|mtp:S|qry_typ:P|lang:en|wc:2|cs:8885|v=4,False,Alambagh,Lucknow,"12/1, Chandan Nagar, Alambagh, Alambagh, Lucknow - 226005, Dist.Lucknow, Uttar Pradesh",8045732099,
