product_title,product_link,company_name,company_link,is_verified_exporter,city_region,city,address_details,phone_number,phone_number_extension
"Pink Baby Walker, Four to Twelve Months",https://www.indiamart.com/proddetail/pink-baby-walker-2854796550830.html?pos=1&kwd=musical walker&tags=A||||8785.791|Price|product|||MDC|rsf:gd-|-stype:attr=1|qr_nm:gd|res:RC3|com-cf:nl|ptrs:na|ktp:N0|mc:655885|mtp:S|qry_typ:P|lang:en|wc:2|flavl:0|cs:9663|v=4,J M D Inernational,https://www.indiamart.com/jmd-inernational-ghaziabad/?pos=1&kwd=musical walker&tags=A||||8785.791|Price|product|||MDC|rsf:gd-|-stype:attr=1|qr_nm:gd|res:RC3|com-cf:nl|ptrs:na|ktp:N0|mc:655885|mtp:S|qry_typ:P|lang:en|wc:2|flavl:0|cs:9663|v=4,False,,Ghaziabad,"Commercial First Floor C/2/25, Village Chikamberpur, Block-C,Rawal Pindi Garden, Ghaziabad - 201005, Dist.Ghaziabad, Uttar Pradesh",7949326628,
"ekta Male Round Plastic Boomer Musical Walker, Age Group: 3-12 Months, 4",https://www.indiamart.com/proddetail/round-plastic-boomer-musical-walker-14673541655.html?pos=2&kwd=musical walker&tags=BA||||8752.144||product|||TS|rsf:gd-|-stype:attr=1|qr_nm:gd|res:RC3|com-cf:nl|ptrs:na|ktp:N0|mc:655885|mtp:S|qry_typ:P|lang:en|wc:2|flavl:0|cs:9663|v=4,Ekta Cycle Industries,https://www.indiamart.com/ektacycleindustries/?pos=2&kwd=musical walker&tags=BA||||8752.144||product|||TS|rsf:gd-|-stype:attr=1|qr_nm:gd|res:RC3|com-cf:nl|ptrs:na|ktp:N0|mc:655885|mtp:S|qry_typ:P|lang:en|wc:2|flavl:0|cs:9663|v=4,False,Mandawali,New Delhi,"C84 A, Patparganj opposite tarawati hospital, Mandawali, New Delhi - 110092, Dist.Delhi, Delhi",8046055583,
Vikas Musical Horn Walker,https://www.indiamart.com/proddetail/musical-horn-walker-13457999433.html?pos=3&kwd=musical walker&tags=BA||||8752.144|Price|product|||TS|rsf:gd-|-stype:attr=1|qr_nm:gd|res:RC3|com-cf:nl|ptrs:na|ktp:N0|mc:655885|mtp:S|qry_typ:P|lang:en|wc:2|flavl:0|cs:9663|v=4,Vikas Enterprises,https://www.indiamart.com/vikasenterprises-shahdara/?pos=3&kwd=musical walker&tags=BA||||8752.144|Price|product|||TS|rsf:gd-|-stype:attr=1|qr_nm:gd|res:RC3|com-cf:nl|ptrs:na|ktp:N0|mc:655885|mtp:S|qry_typ:P|lang:en|wc:2|flavl:0|cs:9663|v=4,False,Geeta Colony,New Delhi,"No. 7/37, Geeta Colony, 7 Block, Gurudwara Road, Geeta Colony, New Delhi - 110031, Dist.Delhi, Delhi",8048614370,
"Plastic 5 Sood 8 Bend Grip Music baby walkers, Four to Twelve Months",https://www.indiamart.com/proddetail/5-sood-8-bend-grip-music-baby-walkers-2850762251733.html?pos=4&kwd=musical walker&tags=BB||||8752.144|Price|product|||TS|rsf:gd-|-stype:attr=1|qr_nm:gd|res:RC3|com-cf:nl|ptrs:na|ktp:N0|mc:655885|mtp:S|qry_typ:P|lang:en|wc:2|flavl:0|cs:9663|v=4,Pinksara Khilonewala,https://www.indiamart.com/pinksarakhilonewala/?pos=4&kwd=musical walker&tags=BB||||8752.144|Price|product|||TS|rsf:gd-|-stype:attr=1|qr_nm:gd|res:RC3|com-cf:nl|ptrs:na|ktp:N0|mc:655885|mtp:S|qry_typ:P|lang:en|wc:2|flavl:0|cs:9663|v=4,False,Karawal Nagar,New Delhi,"A-25/A, Second, Prop No. 38, Kesho Ram Park, South-West Delhi, Karawal Nagar, New Delhi - 110059, Dist.Delhi, Delhi",8045909104,
"Multicolor Plastic Baby Walker, Four to Twelve Months, Packaging Type: Box Packed",https://www.indiamart.com/proddetail/musical-baby-walker-2854445848662.html?pos=5&kwd=musical walker&tags=A||||8752.144|Price|product|||TS|rsf:gd-|-stype:attr=1|qr_nm:gd|res:RC3|com-cf:nl|ptrs:na|ktp:N0|mc:655885|mtp:S|qry_typ:P|lang:en|wc:2|flavl:0|cs:9663|v=4,Indial Premium Products,https://www.indiamart.com/indial-premium-products/?pos=5&kwd=musical walker&tags=A||||8752.144|Price|product|||TS|rsf:gd-|-stype:attr=1|qr_nm:gd|res:RC3|com-cf:nl|ptrs:na|ktp:N0|mc:655885|mtp:S|qry_typ:P|lang:en|wc:2|flavl:0|cs:9663|v=4,False,,New Delhi,"68, K Block, Jahangirpuri North West Delhi, New Delhi - 110033, Dist.Delhi, Delhi",8045732973,
80 cm Plastic And Stainless Steel Blue 8 Wheels Musical Baby Walker,https://www.indiamart.com/proddetail/blue-8-wheels-musical-baby-walker-2852637544055.html?pos=6&kwd=musical walker&tags=BA||||8752.144|Price|product|||MDC|rsf:gd-|-stype:attr=1|qr_nm:gd|res:RC3|com-cf:nl|ptrs:na|ktp:N0|mc:655885|mtp:S|qry_typ:P|lang:en|wc:2|flavl:0|cs:9663|v=4,Shiv Shakti Jhoola,https://www.indiamart.com/shiv-shakti-jhoola/?pos=6&kwd=musical walker&tags=BA||||8752.144|Price|product|||MDC|rsf:gd-|-stype:attr=1|qr_nm:gd|res:RC3|com-cf:nl|ptrs:na|ktp:N0|mc:655885|mtp:S|qry_typ:P|lang:en|wc:2|flavl:0|cs:9663|v=4,False,Sultanpuri F Block,New Delhi,"86, Ground Floor, East Friends Enclave, North West Delhi, Sultanpuri F Block, New Delhi - 110086, Dist.Delhi, Delhi",7942616391,
"Pink And Blue Plastic Musical Baby Walker, One to Two Years",https://www.indiamart.com/proddetail/musical-baby-walker-21041667088.html?pos=7&kwd=musical walker&tags=BA||||8752.144|Price|product|||MDC|rsf:gd-|-stype:attr=1|qr_nm:gd|res:RC3|com-cf:nl|ptrs:na|ktp:N0|mc:655885|mtp:S|qry_typ:P|lang:en|wc:2|flavl:0|cs:9663|v=4,Sony Super India,https://www.indiamart.com/sony-super-india/?pos=7&kwd=musical walker&tags=BA||||8752.144|Price|product|||MDC|rsf:gd-|-stype:attr=1|qr_nm:gd|res:RC3|com-cf:nl|ptrs:na|ktp:N0|mc:655885|mtp:S|qry_typ:P|lang:en|wc:2|flavl:0|cs:9663|v=4,False,,New Delhi,"Ground Floor, H No-36/A, Karhana Wali Gali, Near Ramveer Counciler, Village Sher Pur, North East Delhi, New Delhi - 110094, Dist.Delhi, Delhi",8044456980,
"Multicolor Plastic and Stainless Steel Raja Musical Walker, One to Two Years",https://www.indiamart.com/proddetail/raja-musical-walker-2854707980130.html?pos=8&kwd=musical walker&tags=BA||||8226.563|Price|product|||MDC|rsf:gd-|-stype:attr=1|qr_nm:gd|res:RC3|com-cf:nl|ptrs:na|ktp:N0|mc:655885|mtp:S|qry_typ:P|lang:en|wc:2|flavl:0|cs:9663|v=4,Kamal Baby Cycle,https://www.indiamart.com/kamalbabycycle/?pos=8&kwd=musical walker&tags=BA||||8226.563|Price|product|||MDC|rsf:gd-|-stype:attr=1|qr_nm:gd|res:RC3|com-cf:nl|ptrs:na|ktp:N0|mc:655885|mtp:S|qry_typ:P|lang:en|wc:2|flavl:0|cs:9663|v=4,False,,Navi Mumbai,"Ground Floor, Below Flat No. 03, Choudhary House, Plot No.33, Sector No. 07, Koparkhairane,, Navi Mumbai - 400709, Dist.Thane, Maharashtra",7949324995,
"Plastic 85 cm Musical Baby Walker, One to Two Years",https://www.indiamart.com/proddetail/85-cm-musical-baby-walker-2854887597355.html?pos=9&kwd=musical walker&tags=A||||8559.269||product|||MDC|rsf:gd-|-stype:attr=1|qr_nm:gd|res:RC3|com-cf:nl|ptrs:na|ktp:N0|mc:655885|mtp:S|qry_typ:P|lang:en|wc:2|flavl:0|cs:9663|v=4,Anand Sales Corporation,https://www.indiamart.com/anand-salescorporation-indore/?pos=9&kwd=musical walker&tags=A||||8559.269||product|||MDC|rsf:gd-|-stype:attr=1|qr_nm:gd|res:RC3|com-cf:nl|ptrs:na|ktp:N0|mc:655885|mtp:S|qry_typ:P|lang:en|wc:2|flavl:0|cs:9663|v=4,False,,Indore,"Survey No 199/1, 311/2, Patthar Mundla Road, Palda, Indore - 452001, Dist.Indore, Madhya Pradesh",8044457792,
Baby Musical Walker,https://www.indiamart.com/proddetail/baby-musical-walker-21370494733.html?pos=10&kwd=musical walker&tags=BA||||8752.144|Price|product|||TS|rsf:gd-|-stype:attr=1|qr_nm:gd|res:RC3|com-cf:nl|ptrs:na|ktp:N0|mc:655885|mtp:S|qry_typ:P|lang:en|wc:2|flavl:0|cs:9663|v=4,Ashish Trading Co.,https://www.indiamart.com/ashish-trading/?pos=10&kwd=musical walker&tags=BA||||8752.144|Price|product|||TS|rsf:gd-|-stype:attr=1|qr_nm:gd|res:RC3|com-cf:nl|ptrs:na|ktp:N0|mc:655885|mtp:S|qry_typ:P|lang:en|wc:2|flavl:0|cs:9663|v=4,False,Shalimar Bagh,New Delhi,"BC- 67 A, East Shalimar Bagh, Kela Godown Road Shalimar, Shalimar Bagh, New Delhi - 110088, Dist.Delhi, Delhi",8048979347,
"Plastic and Stainless Steel Red Musical Baby Walker, Four to Twelve Months",https://www.indiamart.com/proddetail/red-musical-baby-walker-2854303263491.html?pos=11&kwd=musical walker&tags=BA||||8752.144|Price|product|||MDC|rsf:gd-|-stype:attr=1|qr_nm:gd|res:RC3|com-cf:nl|ptrs:na|ktp:N0|mc:655885|mtp:S|qry_typ:P|lang:en|wc:2|flavl:0|cs:9663|v=4,J R Industries,https://www.indiamart.com/jrindustriesnewdelhi/?pos=11&kwd=musical walker&tags=BA||||8752.144|Price|product|||MDC|rsf:gd-|-stype:attr=1|qr_nm:gd|res:RC3|com-cf:nl|ptrs:na|ktp:N0|mc:655885|mtp:S|qry_typ:P|lang:en|wc:2|flavl:0|cs:9663|v=4,False,,New Delhi,"Ground Floor, H.No.G-96, Khasra No 25/5/2, Laxmi Park, Nangloi, West Delhi,, New Delhi - 110041, Dist.Delhi, Delhi",8044560413,
"Plastic and Stainless Steel Pink 8 Bend Grip Music Baby Walker, Four to Twelve Months",https://www.indiamart.com/proddetail/pink-8-bend-grip-music-baby-walker-2854114278048.html?pos=12&kwd=musical walker&tags=BA||||8752.144|Price|product|||MDC|rsf:gd-|-stype:attr=1|qr_nm:gd|res:RC3|com-cf:nl|ptrs:na|ktp:N0|mc:655885|mtp:S|qry_typ:P|lang:en|wc:2|flavl:0|cs:9663|v=4,Luxury Enterprises,https://www.indiamart.com/luxury-enterprisesnewdelhi/?pos=12&kwd=musical walker&tags=BA||||8752.144|Price|product|||MDC|rsf:gd-|-stype:attr=1|qr_nm:gd|res:RC3|com-cf:nl|ptrs:na|ktp:N0|mc:655885|mtp:S|qry_typ:P|lang:en|wc:2|flavl:0|cs:9663|v=4,False,Dayalpur,New Delhi,"Ground Floor, KH. NO.-422, Dayalpur, Biharipura, Near David School Gokalpuri North East, Dayalpur, New Delhi - 110094, Dist.Delhi, Delhi",8045732900,
"Green And White Baby Plastic Wheeled Music Walker, Six to Eighteen Months",https://www.indiamart.com/proddetail/baby-plastic-wheeled-music-walker-2855070423530.html?pos=13&kwd=musical walker&tags=A||||8785.791|Price|product|||MDC|rsf:gd-|-stype:attr=1|qr_nm:gd|res:RC3|com-cf:nl|ptrs:na|ktp:N0|mc:655885|mtp:S|qry_typ:P|lang:en|wc:2|flavl:0|cs:9663|v=4,ATS Toys,https://www.indiamart.com/atstoys/?pos=13&kwd=musical walker&tags=A||||8785.791|Price|product|||MDC|rsf:gd-|-stype:attr=1|qr_nm:gd|res:RC3|com-cf:nl|ptrs:na|ktp:N0|mc:655885|mtp:S|qry_typ:P|lang:en|wc:2|flavl:0|cs:9663|v=4,False,,Ghaziabad,"Plot No - 20,Harnarayan Gopi Nath Compound , Up Borders , S B D, Ghaziabad - 201001, Dist.Ghaziabad, Uttar Pradesh",7949306158,
Musical Baby Walker,https://www.indiamart.com/proddetail/musical-baby-walker-2854787501630.html?pos=14&kwd=musical walker&tags=BB||||8230.883|Price|product|||TS|rsf:gd-|-stype:attr=1|qr_nm:gd|res:RC3|com-cf:nl|ptrs:na|ktp:N0|mc:655885|mtp:S|qry_typ:P|lang:en|wc:2|flavl:0|cs:9663|v=4,Hilltop Enterprises,https://www.indiamart.com/hilltop-enterprisesgujarat/?pos=14&kwd=musical walker&tags=BB||||8230.883|Price|product|||TS|rsf:gd-|-stype:attr=1|qr_nm:gd|res:RC3|com-cf:nl|ptrs:na|ktp:N0|mc:655885|mtp:S|qry_typ:P|lang:en|wc:2|flavl:0|cs:9663|v=4,False,,Surat,"132,1st Floor,Gruham Icon,Kosad Road, Surat - 394107, Dist.Surat, Gujarat",8044456788,
Plastic and Stainless Steel Musical Baby Walker,,Sahil Enterprises,https://www.indiamart.com/sahilenterprisesbengaluru/?pos=15&kwd=musical walker&tags=BB||||8663.873|Price|product|||NA|rsf:gd-|-stype:attr=1|qr_nm:gd|res:RC3|com-cf:nl|ptrs:na|ktp:N0|mc:655885|mtp:S|qry_typ:P|lang:en|wc:2|cs:8900|v=4,False,Padarayana Pura,Bengaluru,"No.36,,5th Cross Rafath Nagar West Of Padarayanpura,Bengaluru, Padarayana Pura, Bengaluru - 560026, Dist.Bengaluru, Karnataka",7942717298,
Musical Horn Baby Walker,,Nisha Manisha Traders,https://www.indiamart.com/nisha-manisha-traders/?pos=16&kwd=musical walker&tags=BB||||8752.144|Price|product|||NA|rsf:gd-|-stype:attr=1|qr_nm:gd|res:RC3|com-cf:nl|ptrs:na|ktp:N0|mc:655885|mtp:S|qry_typ:P|lang:en|wc:2|cs:8900|v=4,False,,New Delhi,"Ground Floor House No 54 Gali No 3 Khasra No 15/7 Khajani Nagar Johripur New, New Delhi - 110094, Dist.Delhi, Delhi",8048371566,515
Star Music Grip Baby Walker,,Niyom Walkers,https://www.indiamart.com/niyom-walkers/?pos=17&kwd=musical walker&tags=BB||||8785.791|Price|product|||NA|rsf:gd-|-stype:attr=1|qr_nm:gd|res:RC3|com-cf:nl|ptrs:na|ktp:N0|mc:655885|mtp:S|qry_typ:P|lang:en|wc:2|cs:8900|v=4,False,,Ghaziabad,"tronika City, Ghaziabad - 201102, Dist.Ghaziabad, Uttar Pradesh",8048370718,5021
"5 Plastic Baby walker, 6, f28",https://www.indiamart.com/proddetail/baby-walker-20280716273.html?pos=18&kwd=musical walker&tags=CC||||8752.144|Price|product|||TS|rsf:gd-|-stype:attr=1|qr_nm:gd|res:RC3|com-cf:nl|ptrs:na|ktp:N0|mc:655885|mtp:S|qry_typ:P|lang:en|wc:2|cs:8900|v=4,Swing 'N' Fly (A Brand of Zen Marketing),https://www.indiamart.com/zenmarketing-sahibabad/?pos=18&kwd=musical walker&tags=CC||||8752.144|Price|product|||TS|rsf:gd-|-stype:attr=1|qr_nm:gd|res:RC3|com-cf:nl|ptrs:na|ktp:N0|mc:655885|mtp:S|qry_typ:P|lang:en|wc:2|cs:8900|v=4,False,Alipur,New Delhi,"Ground Floor, Kh No 55/17/2, Pawan Triveni Colony, Village Bakhtawarpur triveni colony, Alipur, New Delhi - 110036, Dist.Delhi, Delhi",7942559295,
"Plastic Pink Round Musical Baby Walker, One to Two Years",https://www.indiamart.com/proddetail/pink-round-musical-baby-walker-2854577930262.html?pos=19&kwd=musical walker&tags=CC||||8752.144|Price|product|||MDC|rsf:gd-|-stype:attr=1|qr_nm:gd|res:RC3|com-cf:nl|ptrs:na|ktp:N0|mc:655885|mtp:S|qry_typ:P|lang:en|wc:2|cs:8900|v=4,Aman & Brothers,https://www.indiamart.com/amanbrothers/?pos=19&kwd=musical walker&tags=CC||||8752.144|Price|product|||MDC|rsf:gd-|-stype:attr=1|qr_nm:gd|res:RC3|com-cf:nl|ptrs:na|ktp:N0|mc:655885|mtp:S|qry_typ:P|lang:en|wc:2|cs:8900|v=4,False,,New Delhi,"E-241, Prop No.E-99, G/F Kh No.400, Gali No.1, Chand Bagh Near Madina Masjid, Gokal Puri Sub Post Office, Gokalpuri, North East Delhi,, New Delhi - 110094, Dist.Delhi, Delhi",7949341935,
"85 cm Plastic And Plastic Blue Musical Baby Walker, 6 Wheels",https://www.indiamart.com/proddetail/blue-musical-baby-walker-2851574271962.html?pos=20&kwd=musical walker&tags=CC||||8752.144|Price|product|||MDC|rsf:gd-|-stype:attr=1|qr_nm:gd|res:RC3|com-cf:nl|ptrs:na|ktp:N0|mc:655885|mtp:S|qry_typ:P|lang:en|wc:2|cs:8900|v=4,Indira Toys,https://www.indiamart.com/indiratoysdelhi/?pos=20&kwd=musical walker&tags=CC||||8752.144|Price|product|||MDC|rsf:gd-|-stype:attr=1|qr_nm:gd|res:RC3|com-cf:nl|ptrs:na|ktp:N0|mc:655885|mtp:S|qry_typ:P|lang:en|wc:2|cs:8900|v=4,False,Shahdara,New Delhi,"E-758, Lohiya, Gali No. 1, Babarpur, Shahdara, Shahdara, New Delhi - 110032, Dist.Delhi, Delhi",8043882366,
"Plastic and Stainless Steel Baby Turquoise Musical Dolphin Handle Adjustable Seat Walker, Six to Eighteen Months",https://www.indiamart.com/proddetail/baby-turquoise-musical-dolphin-handle-adjustable-seat-walker-2854405367133.html?pos=21&kwd=musical walker&tags=CC||||8210.732|Price|product|||MDC|rsf:gd-|-stype:attr=1|qr_nm:gd|res:RC3|com-cf:nl|ptrs:na|ktp:N0|mc:655885|mtp:S|qry_typ:P|lang:en|wc:2|cs:8900|v=4,Navkar Traders,https://www.indiamart.com/navkartradersmaharashtra/?pos=21&kwd=musical walker&tags=CC||||8210.732|Price|product|||MDC|rsf:gd-|-stype:attr=1|qr_nm:gd|res:RC3|com-cf:nl|ptrs:na|ktp:N0|mc:655885|mtp:S|qry_typ:P|lang:en|wc:2|cs:8900|v=4,False,,Vasai Virar,"Ground Floor, B/001, Shivam Apt, Rd. No. 1 Vasant Nagri,, Vasai Virar - 401209, Dist.Thane, Maharashtra",7949338602,
"Perfect Pvc Iron Kusum Enterprises square cp musical baby walker, 8",https://www.indiamart.com/proddetail/kusum-enterprises-square-cp-musical-baby-walker-2850672881488.html?pos=22&kwd=musical walker&tags=||||8752.144|Price|product|||TS|rsf:gd-|-stype:attr=1|qr_nm:gd|res:RC3|com-cf:nl|ptrs:na|ktp:N0|mc:655885|mtp:S|qry_typ:P|lang:en|wc:2|cs:8900|v=4,Kusum Enterprrises,https://www.indiamart.com/kusum-enterprises-delhi/?pos=22&kwd=musical walker&tags=||||8752.144|Price|product|||TS|rsf:gd-|-stype:attr=1|qr_nm:gd|res:RC3|com-cf:nl|ptrs:na|ktp:N0|mc:655885|mtp:S|qry_typ:P|lang:en|wc:2|cs:8900|v=4,False,Saboli,New Delhi,"D-1/419, K H. No. 769, Halifax No. 13 Ashok Nagar, Saboli, New Delhi - 110093, Dist.Delhi, Delhi",8048969783,
Plastic Single Horn Foldable Baby Walker Musical,https://www.indiamart.com/proddetail/single-horn-foldable-baby-walker-musical-2854166251288.html?pos=23&kwd=musical walker&tags=||||8778.123|Price|product|||TS|rsf:gd-|-stype:attr=1|qr_nm:gd|res:RC3|com-cf:nl|ptrs:na|ktp:N0|mc:655885|mtp:S|qry_typ:P|lang:en|wc:2|cs:8900|v=4,Maxonova Novelty Ventures,https://www.indiamart.com/maxonova-novelty-ventures/?pos=23&kwd=musical walker&tags=||||8778.123|Price|product|||TS|rsf:gd-|-stype:attr=1|qr_nm:gd|res:RC3|com-cf:nl|ptrs:na|ktp:N0|mc:655885|mtp:S|qry_typ:P|lang:en|wc:2|cs:8900|v=4,False,,Noida,"C-86, Ground Floor, Sector 63, Noida, Gautam Buddha Nagar, Noida - 201301, Dist.Gautam Budh Nagar, Uttar Pradesh",8045736058,
"3'' Plastic Musical Baby Walker, 4",https://www.indiamart.com/proddetail/musical-baby-walker-2850670126297.html?pos=24&kwd=musical walker&tags=CC||||8785.791|Price|product|||TS|rsf:gd-|-stype:attr=1|qr_nm:gd|res:RC3|com-cf:nl|ptrs:na|ktp:N0|mc:655885|mtp:S|qry_typ:P|lang:en|wc:2|cs:8900|v=4,M K Enterprises,https://www.mkenterpriseindia.in/?pos=24&kwd=musical walker&tags=CC||||8785.791|Price|product|||TS|rsf:gd-|-stype:attr=1|qr_nm:gd|res:RC3|com-cf:nl|ptrs:na|ktp:N0|mc:655885|mtp:S|qry_typ:P|lang:en|wc:2|cs:8900|v=4,False,Loni,Ghaziabad,"House No G 3264, First Floor, Khasra No 279, Ram Park Extension, Near Sidh Baba Mandir, Loni, Ghaziabad - 201102, Dist.Ghaziabad, Uttar Pradesh",8047658296,
"Blue Plastic Baby musical walker, One to Two Years",https://www.indiamart.com/proddetail/baby-musical-walker-2854172453533.html?pos=25&kwd=musical walker&tags=||||8752.144|Price|product|||MDC|rsf:gd-|-stype:attr=1|qr_nm:gd|res:RC3|com-cf:nl|ptrs:na|ktp:N0|mc:655885|mtp:S|qry_typ:P|lang:en|wc:2|cs:8900|v=4,Jatin Ji Enterrprises,https://www.indiamart.com/jatin-ji-enterrprises/?pos=25&kwd=musical walker&tags=||||8752.144|Price|product|||MDC|rsf:gd-|-stype:attr=1|qr_nm:gd|res:RC3|com-cf:nl|ptrs:na|ktp:N0|mc:655885|mtp:S|qry_typ:P|lang:en|wc:2|cs:8900|v=4,False,North East,New Delhi,"House no.-978C, Street No.-16 Shaheed Bhagat Singh Colony, Karawal Nagar North East, North East, New Delhi - 110094, Dist.Delhi, Delhi",8044010231,
"Red (base Color) Plastic Little Pilot Musical Activity Walker, Six Months to Four Years",https://www.indiamart.com/proddetail/little-pilot-musical-activity-walker-2854851652912.html?pos=26&kwd=musical walker&tags=||||8752.144|Price|product|||MDC|rsf:gd-|-stype:attr=1|qr_nm:gd|res:RC3|com-cf:nl|ptrs:na|ktp:N0|mc:655885|mtp:S|qry_typ:P|lang:en|wc:2|cs:8900|v=4,V P Product,https://www.indiamart.com/vpproduct/?pos=26&kwd=musical walker&tags=||||8752.144|Price|product|||MDC|rsf:gd-|-stype:attr=1|qr_nm:gd|res:RC3|com-cf:nl|ptrs:na|ktp:N0|mc:655885|mtp:S|qry_typ:P|lang:en|wc:2|cs:8900|v=4,False,,New Delhi,"Ground Floor, H.No.- E-5/139, Gali No. - 5, East Gokal Pur, North East Delhi, New Delhi - 110094, Dist.Delhi, Delhi",8044460681,
"Walker with 4 Level Height Adjustment, Push Handlebar and Musical Play Tray (Green)",https://www.indiamart.com/proddetail/walker-with-4-level-height-adjustment-push-handlebar-and-musical-play-tray-green-2852506701048.html?pos=27&kwd=musical walker&tags=CC||||9140.514|Price|product|||TS|rsf:gd-|-stype:attr=1|qr_nm:gd|res:RC3|com-cf:nl|ptrs:na|ktp:N0|mc:655885|mtp:S|qry_typ:P|lang:en|wc:2|cs:8900|v=4,Anjaneya Enterprises,https://www.ridenslide.in/?pos=27&kwd=musical walker&tags=CC||||9140.514|Price|product|||TS|rsf:gd-|-stype:attr=1|qr_nm:gd|res:RC3|com-cf:nl|ptrs:na|ktp:N0|mc:655885|mtp:S|qry_typ:P|lang:en|wc:2|cs:8900|v=4,False,Pandri,Raipur,"SHOP NO-10,SHOPPERS PARADISE,BEHIND CITY CENTER MALL,PANDRI,RAIPUR, Pandri, Raipur - 492001, Chhattisgarh",8046045761,
PANDA Plastic BMW Baby Musical Walker,https://www.indiamart.com/proddetail/bmw-baby-musical-walker-20830670155.html?pos=28&kwd=musical walker&tags=CC||||8752.144|Price|product|||TS|rsf:gd-|-stype:attr=1|qr_nm:gd|res:RC3|com-cf:nl|ptrs:na|ktp:N0|mc:655885|mtp:S|qry_typ:P|lang:en|wc:2|cs:8900|v=4,Gupta Plastic Works,https://www.indiamart.com/guptaplasticworks/?pos=28&kwd=musical walker&tags=CC||||8752.144|Price|product|||TS|rsf:gd-|-stype:attr=1|qr_nm:gd|res:RC3|com-cf:nl|ptrs:na|ktp:N0|mc:655885|mtp:S|qry_typ:P|lang:en|wc:2|cs:8900|v=4,False,Azadpur,New Delhi,"A-80/1, G.T. Karnal Road, Industrial Area, Azadpur, New Delhi - 110033, Dist.Delhi, Delhi",8046032300,
Baby Walker Musical,,Priya Industries,https://www.indiamart.com/priyaindustries-new-delhi/?pos=29&kwd=musical walker&tags=CC||||8752.144|Price|product|||TS|rsf:gd-|-stype:attr=1|qr_nm:gd|res:RC3|com-cf:nl|ptrs:na|ktp:N0|mc:655885|mtp:S|qry_typ:P|lang:en|wc:2|cs:8900|v=4,False,Gandhi Nagar,New Delhi,"9/3363, Gali No.8, Dharampura, Gandhi Nagar, Delhi, Gandhi Nagar, New Delhi - 110031, Dist.Delhi, Delhi",8046053493,
Red And Yellow Plastic Musical Baby Walker,https://www.indiamart.com/proddetail/musical-baby-walker-2854071532712.html?pos=30&kwd=musical walker&tags=||||8785.791|Price|product|||MDC|rsf:gd-|-stype:attr=1|qr_nm:gd|res:RC3|com-cf:nl|ptrs:na|ktp:N0|mc:655885|mtp:S|qry_typ:P|lang:en|wc:2|cs:8900|v=4,Laxmi Enterprises,https://www.indiamart.com/laxmi-enterprisesindia/?pos=30&kwd=musical walker&tags=||||8785.791|Price|product|||MDC|rsf:gd-|-stype:attr=1|qr_nm:gd|res:RC3|com-cf:nl|ptrs:na|ktp:N0|mc:655885|mtp:S|qry_typ:P|lang:en|wc:2|cs:8900|v=4,False,Behta Hajipur,Ghaziabad,"Kh No.-1985, GALI NO.07, RYI Properties, Krishna Vihar II, LONI, Behta Hajipur, Behta Hajipur, Ghaziabad - 201102, Dist.Ghaziabad, Uttar Pradesh",8044563149,
"Normal Baby Walker Musical Walker Plastic Ring, 6",https://www.indiamart.com/proddetail/baby-walker-musical-walker-plastic-ring-14674983291.html?pos=31&kwd=musical walker&tags=CC||||8211.142|Price|product|||MDC|rsf:gd-|-stype:attr=1|qr_nm:gd|res:RC3|com-cf:nl|ptrs:na|ktp:N0|mc:655885|mtp:S|qry_typ:P|lang:en|wc:2|cs:8900|v=4,Sara Traders,https://www.indiamart.com/saratraders-mumbai/?pos=31&kwd=musical walker&tags=CC||||8211.142|Price|product|||MDC|rsf:gd-|-stype:attr=1|qr_nm:gd|res:RC3|com-cf:nl|ptrs:na|ktp:N0|mc:655885|mtp:S|qry_typ:P|lang:en|wc:2|cs:8900|v=4,False,Princess Dock,Mumbai,"DONGRI,5/7 NISHANPADA CROSS LANE,2, DASTAGIR BUILDING,Mumbai, Princess Dock, Mumbai - 400009, Dist.Mumbai, Maharashtra",8048265712,
"70 Cm Stainless Steel,Plastic Musical Baby Walker, 8 Wheels",https://www.indiamart.com/proddetail/musical-baby-walker-22708309973.html?pos=32&kwd=musical walker&tags=CC||||8752.144|Price|product|||TS|rsf:gd-|-stype:attr=1|qr_nm:gd|res:RC3|com-cf:nl|ptrs:na|ktp:N0|mc:655885|mtp:S|qry_typ:P|lang:en|wc:2|cs:8900|v=4,Mayur Steel Furniture,https://www.stylemayur.com/?pos=32&kwd=musical walker&tags=CC||||8752.144|Price|product|||TS|rsf:gd-|-stype:attr=1|qr_nm:gd|res:RC3|com-cf:nl|ptrs:na|ktp:N0|mc:655885|mtp:S|qry_typ:P|lang:en|wc:2|cs:8900|v=4,False,Multani Dhanda,New Delhi,"9525 Street No. 13 Multani Dhanda Paharganj since 1989, Multani Dhanda, New Delhi - 110055, Dist.Delhi, Delhi",8047635904,
Adjustable Baby Walker,https://www.indiamart.com/proddetail/adjustable-baby-walker-2853044015391.html?pos=33&kwd=musical walker&tags=CC||||8663.873|Price|product|||TS|rsf:gd-|-stype:attr=1|qr_nm:gd|res:RC3|com-cf:nl|ptrs:na|ktp:N0|mc:655885|mtp:S|qry_typ:P|lang:en|wc:2|cs:8900|v=4,Hitendar Sales Corporation,https://www.indiamart.com/hitendarsalescorporation/?pos=33&kwd=musical walker&tags=CC||||8663.873|Price|product|||TS|rsf:gd-|-stype:attr=1|qr_nm:gd|res:RC3|com-cf:nl|ptrs:na|ktp:N0|mc:655885|mtp:S|qry_typ:P|lang:en|wc:2|cs:8900|v=4,False,Chickpet,Bengaluru,"No. 109, BB Temple Street, Mamulpet, Chickpet, Chickpet, Bengaluru - 560053, Dist.Bengaluru, Karnataka",8047693080,
"Multicolor Plastic Musical Baby Walker, Packaging Type: Box",https://www.indiamart.com/proddetail/musical-baby-walker-2853996121133.html?pos=34&kwd=musical walker&tags=||||8752.144|Price|product|||TS|rsf:gd-|-stype:attr=1|qr_nm:gd|res:RC3|com-cf:nl|ptrs:na|ktp:N0|mc:655885|mtp:S|qry_typ:P|lang:en|wc:2|cs:8900|v=4,Krishna Toys,https://www.indiamart.com/krishnatoys/?pos=34&kwd=musical walker&tags=||||8752.144|Price|product|||TS|rsf:gd-|-stype:attr=1|qr_nm:gd|res:RC3|com-cf:nl|ptrs:na|ktp:N0|mc:655885|mtp:S|qry_typ:P|lang:en|wc:2|cs:8900|v=4,False,Teliwara,New Delhi,"2495,Teliwara Chowk,New Qutab Road,Sadar Bazar,Central, Teliwara, New Delhi - 110006, Dist.Delhi, Delhi",8044013544,
Musical Baby Walker,https://www.indiamart.com/proddetail/musical-baby-walker-2853972277297.html?pos=35&kwd=musical walker&tags=CC||||8752.144|Price|product|||MDC|rsf:gd-|-stype:attr=1|qr_nm:gd|res:RC3|com-cf:nl|ptrs:na|ktp:N0|mc:655885|mtp:S|qry_typ:P|lang:en|wc:2|cs:8900|v=4,Swastik Toys,https://www.indiamart.com/swastik-toys-delhi/?pos=35&kwd=musical walker&tags=CC||||8752.144|Price|product|||MDC|rsf:gd-|-stype:attr=1|qr_nm:gd|res:RC3|com-cf:nl|ptrs:na|ktp:N0|mc:655885|mtp:S|qry_typ:P|lang:en|wc:2|cs:8900|v=4,False,Tihar,New Delhi,"WZ 125, Mahakavi Goswami Tulsidas Marg, Tihar, West Delhi, Tihar, New Delhi - 110018, Dist.Delhi, Delhi",8044015186,
Musical Baby Walker,https://www.indiamart.com/proddetail/musical-baby-walker-2854521232655.html?pos=36&kwd=musical walker&tags=CC||||8785.791|Price|product|||MDC|rsf:gd-|-stype:attr=1|qr_nm:gd|res:RC3|com-cf:nl|ptrs:na|ktp:N0|mc:655885|mtp:S|qry_typ:P|lang:en|wc:2|cs:8900|v=4,AS Creations,https://www.indiamart.com/ascreations-ghaziabad/?pos=36&kwd=musical walker&tags=CC||||8785.791|Price|product|||MDC|rsf:gd-|-stype:attr=1|qr_nm:gd|res:RC3|com-cf:nl|ptrs:na|ktp:N0|mc:655885|mtp:S|qry_typ:P|lang:en|wc:2|cs:8900|v=4,False,Sahibabad,Ghaziabad,"Ground Floor, B-169, Shalimar Garden Main, Sahibabad, Sahibabad, Ghaziabad - 201005, Dist.Ghaziabad, Uttar Pradesh",7949329190,
"Multicolor Plastic Musical Baby Walker, One to Two Years, Packaging Type: Box",https://www.indiamart.com/proddetail/musical-baby-walker-2854421503391.html?pos=37&kwd=musical walker&tags=CC||||8663.873|Price|product|||MDC|rsf:gd-|-stype:attr=1|qr_nm:gd|res:RC3|com-cf:nl|ptrs:na|ktp:N0|mc:655885|mtp:S|qry_typ:P|lang:en|wc:2|cs:8900|v=4,Parmeshwara Toys & Gift Center,https://www.indiamart.com/parmeshwaratoysgiftcenter/?pos=37&kwd=musical walker&tags=CC||||8663.873|Price|product|||MDC|rsf:gd-|-stype:attr=1|qr_nm:gd|res:RC3|com-cf:nl|ptrs:na|ktp:N0|mc:655885|mtp:S|qry_typ:P|lang:en|wc:2|cs:8900|v=4,False,,Bengaluru,"Basement, 37, Old No.1302 Shop No.01, 25th Main Road 9th Block, Jayanagar, Bengaluru Urban, Bengaluru - 560069, Dist.Bengaluru, Karnataka",7942837553,
"2 Feet Plastic Musical Kids Walker, 6",https://www.indiamart.com/proddetail/musical-kids-walker-25697721055.html?pos=38&kwd=musical walker&tags=CC||||8768.45|Price|product|||MDC|rsf:gd-|-stype:attr=1|qr_nm:gd|res:RC3|com-cf:nl|ptrs:na|ktp:N0|mc:655885|mtp:S|qry_typ:P|lang:en|wc:2|cs:8900|v=4,V.V ENTERPRISES,https://www.indiamart.com/vv-enterprises-up/?pos=38&kwd=musical walker&tags=CC||||8768.45|Price|product|||MDC|rsf:gd-|-stype:attr=1|qr_nm:gd|res:RC3|com-cf:nl|ptrs:na|ktp:N0|mc:655885|mtp:S|qry_typ:P|lang:en|wc:2|cs:8900|v=4,False,Haqiqatpur Urf Khudawas,Tronica City,"D-54/1, Sector-A-7, P-1, Trans Delhi Signature City, Haqiqatpur Urf Khudawas, Tronica City - 201102, Dist.Ghaziabad, Uttar Pradesh",8047651839,
"Plastic Musical Baby Walker, 3",https://www.indiamart.com/proddetail/musical-baby-walker-2852513110130.html?pos=39&kwd=musical walker&tags=CC||||8752.144|Price|product|||TS|rsf:gd-|-stype:attr=1|qr_nm:gd|res:RC3|com-cf:nl|ptrs:na|ktp:N0|mc:655885|mtp:S|qry_typ:P|lang:en|wc:2|cs:8900|v=4,PR Trading Co.,https://www.indiamart.com/prtradingco-delhi/?pos=39&kwd=musical walker&tags=CC||||8752.144|Price|product|||TS|rsf:gd-|-stype:attr=1|qr_nm:gd|res:RC3|com-cf:nl|ptrs:na|ktp:N0|mc:655885|mtp:S|qry_typ:P|lang:en|wc:2|cs:8900|v=4,False,Brahmpuri,New Delhi,"X-1/15, Krishna Kunj, Street Number 5, Lalla Halwai, Brahmpuri, New Delhi, North East Delhi, Brahmpuri, New Delhi - 110053, Dist.Delhi, Delhi",7942874465,
"Kids Round PVC Blue Music Walker, Age Group: 1-2 Years",https://www.indiamart.com/proddetail/kids-round-pvc-blue-music-walker-21581333655.html?pos=40&kwd=musical walker&tags=CC||||8752.144|Price|product|||TS|rsf:gd-|-stype:attr=1|qr_nm:gd|res:RC3|com-cf:nl|ptrs:na|ktp:N0|mc:655885|mtp:S|qry_typ:P|lang:en|wc:2|cs:8900|v=4,Giriraj Enterprises,https://www.indiamart.com/giriraj-enterprises-delhi/?pos=40&kwd=musical walker&tags=CC||||8752.144|Price|product|||TS|rsf:gd-|-stype:attr=1|qr_nm:gd|res:RC3|com-cf:nl|ptrs:na|ktp:N0|mc:655885|mtp:S|qry_typ:P|lang:en|wc:2|cs:8900|v=4,False,Shakurpur,New Delhi,"WZ 313 A, Shakurpur Village, Shakurpur, New Delhi - 110034, Dist.Delhi, Delhi",8048262415,
Plastic 8 Wheeler Green Musical Baby Walker,https://www.indiamart.com/proddetail/8-wheeler-green-musical-baby-walker-2851971638562.html?pos=41&kwd=musical walker&tags=CC||||8752.144|Price|product|||TS|rsf:gd-|-stype:attr=1|qr_nm:gd|res:RC3|com-cf:nl|ptrs:na|ktp:N0|mc:655885|mtp:S|qry_typ:P|lang:en|wc:2|cs:8900|v=4,Shree Shyam Enterprises,https://www.indiamart.com/shreeshyamenterpriseskarwalnagar/?pos=41&kwd=musical walker&tags=CC||||8752.144|Price|product|||TS|rsf:gd-|-stype:attr=1|qr_nm:gd|res:RC3|com-cf:nl|ptrs:na|ktp:N0|mc:655885|mtp:S|qry_typ:P|lang:en|wc:2|cs:8900|v=4,False,Karawal Nagar,New Delhi,"Kh No. 230, Nr-P-M-C Factory, Village- Karawal Nagar, Shahdara, Karawal Nagar, New Delhi - 110094, Dist.Delhi, Delhi",7942871443,
"42 CM Plastic Single Horn Musical Baby Walker, 8",https://www.indiamart.com/proddetail/single-horn-musical-baby-walker-23803631512.html?pos=42&kwd=musical walker&tags=CC||||8752.144|Price|product|||TS|rsf:gd-|-stype:attr=1|qr_nm:gd|res:RC3|com-cf:nl|ptrs:na|ktp:N0|mc:655885|mtp:S|qry_typ:P|lang:en|wc:2|cs:8900|v=4,Nishant Industries,https://www.indiamart.com/nishantindustries-newdelhi/?pos=42&kwd=musical walker&tags=CC||||8752.144|Price|product|||TS|rsf:gd-|-stype:attr=1|qr_nm:gd|res:RC3|com-cf:nl|ptrs:na|ktp:N0|mc:655885|mtp:S|qry_typ:P|lang:en|wc:2|cs:8900|v=4,False,Shastri Nagar,New Delhi,"1/14, Gali No. 4 Rani Garden, Shastri Nagar, Shastri Nagar, New Delhi - 110096, Dist.Delhi, Delhi",8047637221,
"Pink Up To 1. 5 Feet Baby Walker With Music, Age Group: 1-2 Years, 6",https://www.indiamart.com/proddetail/baby-walker-with-music-21732461955.html?pos=50&kwd=musical walker&tags=CC||||9839.57|Price|product|||TS|rsf:gd-|-stype:attr=1|qr_nm:gd|res:RC3|com-cf:nl|ptrs:na|ktp:N0|mc:655885|mtp:S|qry_typ:P|lang:en|wc:2|cs:8900|v=4,Mittal Traders,https://www.mittaltraderskolkata.com/?pos=50&kwd=musical walker&tags=CC||||9839.57|Price|product|||TS|rsf:gd-|-stype:attr=1|qr_nm:gd|res:RC3|com-cf:nl|ptrs:na|ktp:N0|mc:655885|mtp:S|qry_typ:P|lang:en|wc:2|cs:8900|v=4,False,Lalbazar,Kolkata,"Mercantile Building, 9/12, Lal Bazar Street, Lalbazar, Kolkata - 700001, Dist.Kolkata, West Bengal",7942531952,
40 cm Polypropylene 6 Wheel Pink Round Baby Walker,https://www.indiamart.com/proddetail/6-wheel-pink-round-baby-walker-2850607868597.html?pos=44&kwd=musical walker&tags=CC||||8752.144|Price|product|||TS|rsf:gd-|-stype:attr=1|qr_nm:gd|res:RC3|com-cf:nl|ptrs:na|ktp:N0|mc:655885|mtp:S|qry_typ:P|lang:en|wc:2|cs:8900|v=4,VKP Trading India,https://www.vkptrading.com/?pos=44&kwd=musical walker&tags=CC||||8752.144|Price|product|||TS|rsf:gd-|-stype:attr=1|qr_nm:gd|res:RC3|com-cf:nl|ptrs:na|ktp:N0|mc:655885|mtp:S|qry_typ:P|lang:en|wc:2|cs:8900|v=4,False,Prem Nagar,New Delhi,"G-132/B, Prem Nagar-1, Kirari Sulaiman Nagar, Nangloi, North West Delhi, Prem Nagar, New Delhi - 110086, Dist.Delhi, Delhi",7942611251,
"Plastic Musical Baby Walker, 3",https://www.indiamart.com/proddetail/musical-baby-walker-2852513110130.html?pos=45&kwd=musical walker&tags=CC||||8752.144|Price|product|||TS|rsf:gd-|-stype:attr=1|qr_nm:gd|res:RC3|com-cf:nl|ptrs:na|ktp:N0|mc:655885|mtp:S|qry_typ:P|lang:en|wc:2|cs:8900|v=4,PR Trading Co.,https://www.indiamart.com/prtradingco-delhi/?pos=45&kwd=musical walker&tags=CC||||8752.144|Price|product|||TS|rsf:gd-|-stype:attr=1|qr_nm:gd|res:RC3|com-cf:nl|ptrs:na|ktp:N0|mc:655885|mtp:S|qry_typ:P|lang:en|wc:2|cs:8900|v=4,False,Brahmpuri,New Delhi,"X-1/15, Krishna Kunj, Street Number 5, Lalla Halwai, Brahmpuri, New Delhi, North East Delhi, Brahmpuri, New Delhi - 110053, Dist.Delhi, Delhi",7942874465,
Peach (base) Plastic Baybee Activity Walker,https://www.indiamart.com/proddetail/activity-walker-2853491277697.html?pos=46&kwd=musical walker&tags=CC||||8954.051|Price|product|||MDC|rsf:gd-|-stype:attr=1|qr_nm:gd|res:RC3|com-cf:nl|ptrs:na|ktp:N0|mc:655885|mtp:S|qry_typ:P|lang:en|wc:2|cs:8900|v=4,Mom's Fashion World,https://www.indiamart.com/moms-fashion-world/?pos=46&kwd=musical walker&tags=CC||||8954.051|Price|product|||MDC|rsf:gd-|-stype:attr=1|qr_nm:gd|res:RC3|com-cf:nl|ptrs:na|ktp:N0|mc:655885|mtp:S|qry_typ:P|lang:en|wc:2|cs:8900|v=4,False,Adyar,Chennai,"10/2 ,12th Street, Bakthavatchallam Nagar,Nanganallur, Adyar, Chennai - 600061, Dist.Chennai, Tamil Nadu",7949091874,
MM toys Adjustable Baby Walker With Music For 6+ Months,https://www.indiamart.com/proddetail/mm-toys-adjustable-baby-walker-with-music-for-6-months-2853192927548.html?pos=47&kwd=musical walker&tags=CC||||8614.241|Price|product|||MDC|rsf:gd-|-stype:attr=1|qr_nm:gd|res:RC3|com-cf:nl|ptrs:na|ktp:N0|mc:655885|mtp:S|qry_typ:P|lang:en|wc:2|cs:8900|v=4,M.M. Toy World,https://www.indiamart.com/mmtoyworld/?pos=47&kwd=musical walker&tags=CC||||8614.241|Price|product|||MDC|rsf:gd-|-stype:attr=1|qr_nm:gd|res:RC3|com-cf:nl|ptrs:na|ktp:N0|mc:655885|mtp:S|qry_typ:P|lang:en|wc:2|cs:8900|v=4,False,Achli Gate,Batala,"M.M. Toys World, Bedian Gali, Khujari Gate, Gurdaspur, Achli Gate, Batala - 143505, Dist.Gurdaspur, Punjab",,
"42 CM Plastic Single Horn Musical Baby Walker, 8",https://www.indiamart.com/proddetail/single-horn-musical-baby-walker-23803631512.html?pos=48&kwd=musical walker&tags=CC||||8752.144|Price|product|||TS|rsf:gd-|-stype:attr=1|qr_nm:gd|res:RC3|com-cf:nl|ptrs:na|ktp:N0|mc:655885|mtp:S|qry_typ:P|lang:en|wc:2|cs:8900|v=4,Nishant Industries,https://www.indiamart.com/nishantindustries-newdelhi/?pos=48&kwd=musical walker&tags=CC||||8752.144|Price|product|||TS|rsf:gd-|-stype:attr=1|qr_nm:gd|res:RC3|com-cf:nl|ptrs:na|ktp:N0|mc:655885|mtp:S|qry_typ:P|lang:en|wc:2|cs:8900|v=4,False,Shastri Nagar,New Delhi,"1/14, Gali No. 4 Rani Garden, Shastri Nagar, Shastri Nagar, New Delhi - 110096, Dist.Delhi, Delhi",8047637221,
"Multicolor Plastic 2 in 1 musical baby play gym with convertible walker for kids, Four to Twelve Months",https://www.indiamart.com/proddetail/2-in-1-musical-baby-play-gym-with-convertible-walker-for-kids-2853969535862.html?pos=49&kwd=musical walker&tags=||||8752.144|Price|product|||TS|rsf:gd-|-stype:attr=1|qr_nm:gd|res:RC3|com-cf:nl|ptrs:na|ktp:N0|mc:655885|mtp:S|qry_typ:P|lang:en|wc:2|cs:8900|v=4,Arora Toys,https://www.aroratoys.com/?pos=49&kwd=musical walker&tags=||||8752.144|Price|product|||TS|rsf:gd-|-stype:attr=1|qr_nm:gd|res:RC3|com-cf:nl|ptrs:na|ktp:N0|mc:655885|mtp:S|qry_typ:P|lang:en|wc:2|cs:8900|v=4,False,Teliwara,New Delhi,"2nd Floor 2807/8 Teliwara Chowk Timber Market Sadar Bazar Central, Teliwara, New Delhi - 110006, Dist.Delhi, Delhi",8047668613,
"Pink Up To 1. 5 Feet Baby Walker With Music, Age Group: 1-2 Years, 6",https://www.indiamart.com/proddetail/baby-walker-with-music-21732461955.html?pos=50&kwd=musical walker&tags=CC||||9839.57|Price|product|||TS|rsf:gd-|-stype:attr=1|qr_nm:gd|res:RC3|com-cf:nl|ptrs:na|ktp:N0|mc:655885|mtp:S|qry_typ:P|lang:en|wc:2|cs:8900|v=4,Mittal Traders,https://www.mittaltraderskolkata.com/?pos=50&kwd=musical walker&tags=CC||||9839.57|Price|product|||TS|rsf:gd-|-stype:attr=1|qr_nm:gd|res:RC3|com-cf:nl|ptrs:na|ktp:N0|mc:655885|mtp:S|qry_typ:P|lang:en|wc:2|cs:8900|v=4,False,Lalbazar,Kolkata,"Mercantile Building, 9/12, Lal Bazar Street, Lalbazar, Kolkata - 700001, Dist.Kolkata, West Bengal",7942531952,
Kids toys baby walker with light music,,I B International,https://www.indiamart.com/i-b-internationalmumbai/?pos=51&kwd=musical walker&tags=CC||||8211.142|Price|product|||MDC|rsf:gd-|-stype:attr=1|qr_nm:gd|res:RC3|com-cf:nl|ptrs:na|ktp:N0|mc:655885|mtp:S|qry_typ:P|lang:en|wc:2|cs:8900|v=4,False,Masjid,Mumbai,"4Th Floor Shop No. 21, Dontad Street Plot No. 63, Kadri Manzil Chinch Bunder Chinch Bunder, Masjid, Mumbai - 400009, Dist.Mumbai, Maharashtra",7942790812,
"Blue And White Plastic Musical Baby Walker, One to Two Years",https://www.indiamart.com/proddetail/musical-baby-walker-2854376358312.html?pos=52&kwd=musical walker&tags=||||8211.142||product|||MDC|rsf:gd-|-stype:attr=1|qr_nm:gd|res:RC3|com-cf:nl|ptrs:na|ktp:N0|mc:655885|mtp:S|qry_typ:P|lang:en|wc:2|cs:8900|v=4,Indu Die Blocks Pvt. Ltd.,https://www.indiamart.com/indudieblocks/?pos=52&kwd=musical walker&tags=||||8211.142||product|||MDC|rsf:gd-|-stype:attr=1|qr_nm:gd|res:RC3|com-cf:nl|ptrs:na|ktp:N0|mc:655885|mtp:S|qry_typ:P|lang:en|wc:2|cs:8900|v=4,False,Off Aarey Road Goregaon East Mumbai Suburban,Mumbai,"Ground Floor, A/9,B-8 Synthofine Industrial Estate,, Off Aarey Road Goregaon East Mumbai Suburban, Mumbai - 400063, Dist.Mumbai, Maharashtra",7948549618,
Panda Musical Baby Walker With Tray For 6 Months Babies,https://www.indiamart.com/proddetail/panda-musical-baby-walker-with-tray-for-6-months-babies-2854341497473.html?pos=53&kwd=musical walker&tags=||||8230.883|Price|product|||MDC|rsf:gd-|-stype:attr=1|qr_nm:gd|res:RC3|com-cf:nl|ptrs:na|ktp:N0|mc:655885|mtp:S|qry_typ:P|lang:en|wc:2|cs:8900|v=4,Shiv Marketing,https://www.indiamart.com/shivmarketing/?pos=53&kwd=musical walker&tags=||||8230.883|Price|product|||MDC|rsf:gd-|-stype:attr=1|qr_nm:gd|res:RC3|com-cf:nl|ptrs:na|ktp:N0|mc:655885|mtp:S|qry_typ:P|lang:en|wc:2|cs:8900|v=4,False,Katargam,Surat,"2nd Floor Blog-F, Flat 201, Shivam Avenue, Singanpore Dabholi Road, Katargam,, Katargam, Surat - 395004, Dist.Surat, Gujarat",7949093095,
"38cm Plastic And Stainless Steel Musical Baby Walker, 8 Wheels",https://www.indiamart.com/proddetail/musical-baby-walker-2849549246273.html?pos=54&kwd=musical walker&tags=||||8752.144|Price|product|||MDC|rsf:gd-|-stype:attr=1|qr_nm:gd|res:RC3|com-cf:nl|ptrs:na|ktp:N0|mc:655885|mtp:S|qry_typ:P|lang:en|wc:2|cs:8900|v=4,Ride Well,https://www.indiamart.com/ridewell/?pos=54&kwd=musical walker&tags=||||8752.144|Price|product|||MDC|rsf:gd-|-stype:attr=1|qr_nm:gd|res:RC3|com-cf:nl|ptrs:na|ktp:N0|mc:655885|mtp:S|qry_typ:P|lang:en|wc:2|cs:8900|v=4,False,Dilshad Garden,New Delhi,"Plot No. 13, Damodar Park Indl. Area, Opp. Dilshad Garden, Telephone Exchange, East Delhi, Dilshad Garden, New Delhi - 110095, Dist.Delhi, Delhi",7942791990,
"Plastic Marvel Baby Walker with Music, Packaging Type: Bundle Containing 30-36 Pcs",https://www.indiamart.com/proddetail/marvel-baby-walker-with-music-2853857149097.html?pos=55&kwd=musical walker&tags=||||8752.144|Price|product|||MDC|rsf:gd-|-stype:attr=1|qr_nm:gd|res:RC3|com-cf:nl|ptrs:na|ktp:N0|mc:655885|mtp:S|qry_typ:P|lang:en|wc:2|cs:8900|v=4,Rishabh Enterprises,https://www.indiamart.com/rishabh-enterprisesdelhiindia/?pos=55&kwd=musical walker&tags=||||8752.144|Price|product|||MDC|rsf:gd-|-stype:attr=1|qr_nm:gd|res:RC3|com-cf:nl|ptrs:na|ktp:N0|mc:655885|mtp:S|qry_typ:P|lang:en|wc:2|cs:8900|v=4,False,Kailash Nagar,New Delhi,"All Floor, IX/2159, Gali No-8, Kailash Nagar, East Delhi, Kailash Nagar, New Delhi - 110031, Dist.Delhi, Delhi",7949372125,
Gol greep music Big wheel,,Mother India,https://www.indiamart.com/mother-india-newdelhi/?pos=56&kwd=musical walker&tags=||||8752.144|Price|product|||MDC|rsf:gd-|-stype:attr=1|qr_nm:gd|res:RC3|com-cf:nl|ptrs:na|ktp:N0|mc:655885|mtp:S|qry_typ:P|lang:en|wc:2|cs:8900|v=4,False,Karawal Nagar,New Delhi,"Kh No. 94, H.no.672,, Near Payre Lal Marg, Village Karawal Nagar North East Delhi, Karawal Nagar, New Delhi - 110094, Dist.Delhi, Delhi",7949095739,
"Plastic 5 Sood 8 Bend Grip Music baby walkers, Four to Twelve Months",https://www.indiamart.com/proddetail/5-sood-8-bend-grip-music-baby-walkers-2850762251733.html?pos=57&kwd=musical walker&tags=||||8752.144|Price|product|||TS|rsf:gd-|-stype:attr=1|qr_nm:gd|res:RC3|com-cf:nl|ptrs:na|ktp:N0|mc:655885|mtp:S|qry_typ:P|lang:en|wc:2|cs:8900|v=4,Pinksara Khilonewala,https://www.indiamart.com/pinksarakhilonewala/?pos=57&kwd=musical walker&tags=||||8752.144|Price|product|||TS|rsf:gd-|-stype:attr=1|qr_nm:gd|res:RC3|com-cf:nl|ptrs:na|ktp:N0|mc:655885|mtp:S|qry_typ:P|lang:en|wc:2|cs:8900|v=4,False,Karawal Nagar,New Delhi,"A-25/A, Second, Prop No. 38, Kesho Ram Park, South-West Delhi, Karawal Nagar, New Delhi - 110059, Dist.Delhi, Delhi",8045909104,
"2 Feet Handle Plastic Baby Walker, 6 Wheel",https://www.indiamart.com/proddetail/handle-plastic-baby-walker-2852374655197.html?pos=58&kwd=musical walker&tags=||||8752.144|Price|product|||TS|rsf:gd-|-stype:attr=1|qr_nm:gd|res:RC3|com-cf:nl|ptrs:na|ktp:N0|mc:655885|mtp:S|qry_typ:P|lang:en|wc:2|cs:8900|v=4,Rocky India,https://www.indiamart.com/rocky-india/?pos=58&kwd=musical walker&tags=||||8752.144|Price|product|||TS|rsf:gd-|-stype:attr=1|qr_nm:gd|res:RC3|com-cf:nl|ptrs:na|ktp:N0|mc:655885|mtp:S|qry_typ:P|lang:en|wc:2|cs:8900|v=4,False,Brahampuri,New Delhi,"Ground Floor, I-36/10, Gali No. 10, Brahampuri, Brahampuri, New Delhi - 110053, Dist.Delhi, Delhi",7942708012,
Aybee Astro 2 In 1 Baby Walker : Walker With 3 Adjustable Height & Musical Toy Bar,https://www.indiamart.com/proddetail/aybee-astro-2-in-1-baby-walker-walker-with-3-adjustable-height-musical-toy-bar-26532608062.html?pos=59&kwd=musical walker&tags=||||8954.051|Price|product|||MDC|rsf:gd-|-stype:attr=1|qr_nm:gd|res:RC3|com-cf:nl|ptrs:na|ktp:N0|mc:655885|mtp:S|qry_typ:P|lang:en|wc:2|cs:8900|v=4,Goodluck Plastic Trading Company,https://www.indiamart.com/good-luck-plastic/?pos=59&kwd=musical walker&tags=||||8954.051|Price|product|||MDC|rsf:gd-|-stype:attr=1|qr_nm:gd|res:RC3|com-cf:nl|ptrs:na|ktp:N0|mc:655885|mtp:S|qry_typ:P|lang:en|wc:2|cs:8900|v=4,False,Red Hills,Chennai,"No 29,,Kasi Chetty Street,Chennai, Red Hills, Chennai - 600079, Dist.Chennai, Tamil Nadu",8048615063,
Blue And Yellow Steel and cloth 8 wheel Heavy frame Baby walker,https://www.indiamart.com/proddetail/8-wheel-heavy-frame-baby-walker-2851026218030.html?pos=60&kwd=musical walker&tags=||||8706.587|Price|product|||MDC|rsf:gd-|-stype:attr=1|qr_nm:gd|res:RC3|com-cf:nl|ptrs:na|ktp:N0|mc:655885|mtp:S|qry_typ:P|lang:en|wc:2|cs:8900|v=4,Chum Sales Promoters,https://www.indiamart.com/chum-sales-promoters/?pos=60&kwd=musical walker&tags=||||8706.587|Price|product|||MDC|rsf:gd-|-stype:attr=1|qr_nm:gd|res:RC3|com-cf:nl|ptrs:na|ktp:N0|mc:655885|mtp:S|qry_typ:P|lang:en|wc:2|cs:8900|v=4,False,,Madurai,"37-38, West Avani Moola Street, Madurai - 625001, Dist.Madurai, Tamil Nadu",7949358648,
"Mix Colours 1 Panda Hummer Plus Musical Rider for Kids with Parental Handle, 2-5 Yrs",https://www.indiamart.com/proddetail/panda-hummer-plus-musical-rider-for-kids-with-parental-handle-2853735706462.html?pos=61&kwd=musical walker&tags=||||8752.144|Price|product|||TS|rsf:gd-|-stype:attr=1|qr_nm:gd|res:RC3|com-cf:nl|ptrs:na|ktp:N0|mc:655885|mtp:S|qry_typ:P|lang:en|wc:2|cs:8900|v=4,Shri Krishna Trading,https://www.indiamart.com/shrikrishna-trading/?pos=61&kwd=musical walker&tags=||||8752.144|Price|product|||TS|rsf:gd-|-stype:attr=1|qr_nm:gd|res:RC3|com-cf:nl|ptrs:na|ktp:N0|mc:655885|mtp:S|qry_typ:P|lang:en|wc:2|cs:8900|v=4,False,Pitampura,New Delhi,"WZ-351, Pitampura, New Delhi - 110034, Dist.Delhi, Delhi",8047634011,
Blue And Grey Plastic and Stainless Steel Parental Push Handle Baby Walker,https://www.indiamart.com/proddetail/parental-push-handle-baby-walker-2852137149433.html?pos=62&kwd=musical walker&tags=||||8663.873|Price|product|||MDC|rsf:gd-|-stype:attr=1|qr_nm:gd|res:RC3|com-cf:nl|ptrs:na|ktp:N0|mc:655885|mtp:S|qry_typ:P|lang:en|wc:2|cs:8900|v=4,AQ Corporation,https://www.indiamart.com/aqcorporation/?pos=62&kwd=musical walker&tags=||||8663.873|Price|product|||MDC|rsf:gd-|-stype:attr=1|qr_nm:gd|res:RC3|com-cf:nl|ptrs:na|ktp:N0|mc:655885|mtp:S|qry_typ:P|lang:en|wc:2|cs:8900|v=4,False,,Bengaluru,"Ground And First Floor, No 88, 2nd Cross, 4th Main, NGEF Layout, Nagashetty Halli, Sanjaynagar Bengaluru Urban, Bengaluru - 560094, Dist.Bengaluru, Karnataka",7949325043,
"Multicolor Plastic and Stainless Steel Baby Activity Walker, Six to Eighteen Months, Packaging Type: Box",https://www.indiamart.com/proddetail/baby-activity-walker-2855024884212.html?pos=63&kwd=musical walker&tags=||||8230.883|Price|product|||TS|rsf:gd-|-stype:attr=1|qr_nm:gd|res:RC3|com-cf:nl|ptrs:na|ktp:N0|mc:655885|mtp:S|qry_typ:P|lang:en|wc:2|cs:8900|v=4,Aenci Enterprise,https://www.indiamart.com/aencienterprise/?pos=63&kwd=musical walker&tags=||||8230.883|Price|product|||TS|rsf:gd-|-stype:attr=1|qr_nm:gd|res:RC3|com-cf:nl|ptrs:na|ktp:N0|mc:655885|mtp:S|qry_typ:P|lang:en|wc:2|cs:8900|v=4,False,,Surat,"Basement, A/2, Lackview Appartment, Near Kasa Nagar, Mota Talav, Japti Faliya, Laxmikant Road Opposite Lackview Garden, Katargam, Surat - 395004, Dist.Surat, Gujarat",7949358264,
"15 Inch Kia Baby Walker, 6",https://www.indiamart.com/proddetail/kia-baby-walker-2852426736388.html?pos=64&kwd=musical walker&tags=||||8785.791|Price|proxy|||TS|rsf:gd-|-stype:attr=1|qr_nm:gd|res:RC3|com-cf:nl|ptrs:na|ktp:N0|mc:655885|mtp:S|qry_typ:P|lang:en|wc:2|cs:8900|v=4,Redplus Toys LLP,https://www.redplustoys.com/?pos=64&kwd=musical walker&tags=||||8785.791|Price|proxy|||TS|rsf:gd-|-stype:attr=1|qr_nm:gd|res:RC3|com-cf:nl|ptrs:na|ktp:N0|mc:655885|mtp:S|qry_typ:P|lang:en|wc:2|cs:8900|v=4,False,Loni,Ghaziabad,"Plot No B-9, Sector-A7, Part-1, Ambey Chowk Tronica City, Loni, Loni, Ghaziabad - 201102, Dist.Ghaziabad, Uttar Pradesh",7942868116,
Snail Adjustable Baby Walker,https://www.indiamart.com/proddetail/snail-adjustable-baby-walker-2854075204830.html?pos=65&kwd=musical walker&tags=||||8752.144|Price|proxy|||TS|rsf:gd-|-stype:attr=1|qr_nm:gd|res:RC3|com-cf:nl|ptrs:na|ktp:N0|mc:655885|mtp:S|qry_typ:P|lang:en|wc:2|cs:8900|v=4,Neelam Enterprises,https://www.indiamart.com/neelam-enterprisesdelhi/?pos=65&kwd=musical walker&tags=||||8752.144|Price|proxy|||TS|rsf:gd-|-stype:attr=1|qr_nm:gd|res:RC3|com-cf:nl|ptrs:na|ktp:N0|mc:655885|mtp:S|qry_typ:P|lang:en|wc:2|cs:8900|v=4,False,North East,New Delhi,"Gf,Pradhan Parshadi Lal Market,Main Tukmirpur Road,Karawal Nagar, North East, New Delhi - 110094, Dist.Delhi, Delhi",7942814861,
"Plastic Panda Baby Walker, 6",https://www.indiamart.com/proddetail/panda-baby-walker-2851506024030.html?pos=66&kwd=musical walker&tags=||||8752.144|Price|proxy|||TS|rsf:gd-|-stype:attr=1|qr_nm:gd|res:RC3|com-cf:nl|ptrs:na|ktp:N0|mc:655885|mtp:S|qry_typ:P|lang:en|wc:2|cs:8900|v=4,Neeta & Sons,https://www.neetaandsons.com/?pos=66&kwd=musical walker&tags=||||8752.144|Price|proxy|||TS|rsf:gd-|-stype:attr=1|qr_nm:gd|res:RC3|com-cf:nl|ptrs:na|ktp:N0|mc:655885|mtp:S|qry_typ:P|lang:en|wc:2|cs:8900|v=4,False,Shalimar Bagh,New Delhi,"First Floor, 9/55 Kh. No. 902/990, Street No 2, SHALIMAR VILLAGE, Shalimar Bagh, New Delhi - 110088, Dist.Delhi, Delhi",7942790875,
2 Feet Handle Plastic Baby Walker,https://www.indiamart.com/proddetail/2-feet-handle-plastic-baby-walker-26460220362.html?pos=67&kwd=musical walker&tags=||||8461.862|Price|product|||MDC|rsf:gd-|-stype:attr=1|qr_nm:gd|res:RC3|com-cf:nl|ptrs:na|ktp:N0|mc:655885|mtp:S|qry_typ:P|lang:en|wc:2|cs:8900|v=4,Arjun Cycle & Auto Tyres,https://www.indiamart.com/arjuncycleautotyres/?pos=67&kwd=musical walker&tags=||||8461.862|Price|product|||MDC|rsf:gd-|-stype:attr=1|qr_nm:gd|res:RC3|com-cf:nl|ptrs:na|ktp:N0|mc:655885|mtp:S|qry_typ:P|lang:en|wc:2|cs:8900|v=4,False,Vidyut Nagar,Bhilwara,"G-10, Ganesh Plaza, Near Bus Stand,, Vidyut Nagar, Bhilwara - 311001, Dist.Bhilwara, Rajasthan",8044565909,
"Plastic Blue Baby Walker, Four to Twelve Months",https://www.indiamart.com/proddetail/plastic-blue-baby-musical-walker-2854552492733.html?pos=68&kwd=musical walker&tags=CC||||8752.144|Price|product|||NA|rsf:gd-|-stype:attr=1|qr_nm:gd|res:RC3|com-cf:nl|ptrs:na|ktp:N0|mc:655885|mtp:S|qry_typ:P|lang:en|wc:2|cs:8900|v=4,Shree Shyam Sales,https://www.indiamart.com/shree-shyamsalesdelhi/?pos=68&kwd=musical walker&tags=CC||||8752.144|Price|product|||NA|rsf:gd-|-stype:attr=1|qr_nm:gd|res:RC3|com-cf:nl|ptrs:na|ktp:N0|mc:655885|mtp:S|qry_typ:P|lang:en|wc:2|cs:8900|v=4,False,,New Delhi,"Ground Floor, NO. 176/6A, Block-K, 70 Foot Road, Prem Nagar 2, Near By Jaanu Building, Kirari Suleman Nagar, North Delhi,, New Delhi - 110086, Dist.Delhi, Delhi",7949325238,
Artist Management Services,https://www.indiamart.com/proddetail/artist-management-services-2851319454248.html?pos=69&kwd=musical walker&tags=||||8507.67|Price|product|||MDC|rsf:gd-|-stype:attr=1|qr_nm:gd|res:RC3|com-cf:nl|ptrs:na|ktp:N0|mc:655885|mtp:S|qry_typ:P|lang:en|wc:2|cs:8900|v=4,Presto Events & Artistcafe,https://www.indiamart.com/presto-events-artistcafe/?pos=69&kwd=musical walker&tags=||||8507.67|Price|product|||MDC|rsf:gd-|-stype:attr=1|qr_nm:gd|res:RC3|com-cf:nl|ptrs:na|ktp:N0|mc:655885|mtp:S|qry_typ:P|lang:en|wc:2|cs:8900|v=4,False,Kaloor,Ernakulam,"65/2420-D, Mazhuvanchery Parambathu, Ponothu Road, Kaloor, Kaloor, Ernakulam - 682017, Dist.Ernakulam, Kerala",7942664379,
"Blue Plastic Baby Walker, Four to Twelve Months",https://www.indiamart.com/proddetail/blue-plastic-baby-walker-2854441660830.html?pos=70&kwd=musical walker&tags=||||8752.144|Price|proxy|||MDC|rsf:gd-|-stype:attr=1|qr_nm:gd|res:RC3|com-cf:nl|ptrs:na|ktp:N0|mc:655885|mtp:S|qry_typ:P|lang:en|wc:2|cs:8900|v=4,Play Mart,https://www.indiamart.com/play-mart/?pos=70&kwd=musical walker&tags=||||8752.144|Price|proxy|||MDC|rsf:gd-|-stype:attr=1|qr_nm:gd|res:RC3|com-cf:nl|ptrs:na|ktp:N0|mc:655885|mtp:S|qry_typ:P|lang:en|wc:2|cs:8900|v=4,False,,New Delhi,"16/149, Geeta Colony, East Delhi,, New Delhi - 110031, Dist.Delhi, Delhi",7949340635,
Wireless ABS Kids Musical Toy,https://www.indiamart.com/proddetail/kids-musical-toy-24982765912.html?pos=71&kwd=musical walker&tags=||||8230.883|Price|product|||TS|rsf:gd-|-stype:attr=1|qr_nm:gd|res:RC3|com-cf:nl|ptrs:na|ktp:N0|mc:655885|mtp:S|qry_typ:P|lang:en|wc:2|cs:8900|v=4,Roswell,https://www.indiamart.com/varni-variety-store/?pos=71&kwd=musical walker&tags=||||8230.883|Price|product|||TS|rsf:gd-|-stype:attr=1|qr_nm:gd|res:RC3|com-cf:nl|ptrs:na|ktp:N0|mc:655885|mtp:S|qry_typ:P|lang:en|wc:2|cs:8900|v=4,False,Katargam,Surat,"A-202, Maruti Residancy, Shyamdham Society Near Tarankund Katargam, Surat, Katargam, Surat - 395004, Dist.Surat, Gujarat",8048273281,
"Pink Baby Walker, Four to Twelve Months, Packaging Type: Plastic Packing",https://www.indiamart.com/proddetail/baby-walker-2854587605730.html?pos=72&kwd=musical walker&tags=||||8226.563|Price|product|||TS|rsf:gd-|-stype:attr=1|qr_nm:gd|res:RC3|com-cf:nl|ptrs:na|ktp:N0|mc:655885|mtp:S|qry_typ:P|lang:en|wc:2|cs:8900|v=4,Kailash Enterprises,https://www.kailashenterprisesvashi.com/?pos=72&kwd=musical walker&tags=||||8226.563|Price|product|||TS|rsf:gd-|-stype:attr=1|qr_nm:gd|res:RC3|com-cf:nl|ptrs:na|ktp:N0|mc:655885|mtp:S|qry_typ:P|lang:en|wc:2|cs:8900|v=4,False,Sanpada,Navi Mumbai,"SHOP NO. 07,,MERCHANT CENTER, patel, Sanpada, Navi Mumbai - 400705, Dist.Thane, Maharashtra",8047672246,
"40cm Plastic Fancy Baby Walker, 4, 2023",https://www.indiamart.com/proddetail/fancy-baby-walker-2851654497233.html?pos=73&kwd=musical walker&tags=||||8168.6484|Price|product|||TS|rsf:gd-|-stype:attr=1|qr_nm:gd|res:RC3|com-cf:nl|ptrs:na|ktp:N0|mc:655885|mtp:S|qry_typ:P|lang:en|wc:2|cs:8900|v=4,D.K. Enterprise,https://www.indiamart.com/dkenterprise-bhavnagar/?pos=73&kwd=musical walker&tags=||||8168.6484|Price|product|||TS|rsf:gd-|-stype:attr=1|qr_nm:gd|res:RC3|com-cf:nl|ptrs:na|ktp:N0|mc:655885|mtp:S|qry_typ:P|lang:en|wc:2|cs:8900|v=4,False,Bhavnagar,Bhavnagar,"Plot No. 161/a, Gatorbhai Kanzariya Vijayrajnagar, Bhavnagar, Bhavnagar - 364001, Dist.Bhavnagar, Gujarat",7942843262,
Baby Tricycle Seat Gooday,https://www.indiamart.com/proddetail/baby-tricycle-seat-gooday-2851731269433.html?pos=74&kwd=musical walker&tags=||||8752.144||product|||MDC|rsf:gd-|-stype:attr=1|qr_nm:gd|res:RC3|com-cf:nl|ptrs:na|ktp:N0|mc:655885|mtp:S|qry_typ:P|lang:en|wc:2|cs:8900|v=4,Plasticoo Product And Services,https://www.indiamart.com/plasticoo-product-services/?pos=74&kwd=musical walker&tags=||||8752.144||product|||MDC|rsf:gd-|-stype:attr=1|qr_nm:gd|res:RC3|com-cf:nl|ptrs:na|ktp:N0|mc:655885|mtp:S|qry_typ:P|lang:en|wc:2|cs:8900|v=4,False,,New Delhi,"G/f, 361, Ram Nagar Extention, Near Lzxmi Narayan Mandir, Krishna Nagar, New Delhi - 110051, Dist.Delhi, Delhi",7942831987,
"Light Purple Baybee Plastic Baby Walker, Four to Twelve Months",https://www.indiamart.com/proddetail/baybee-plastic-baby-walker-2854710923255.html?pos=75&kwd=musical walker&tags=||||8954.051|Price|product|||MDC|rsf:gd-|-stype:attr=1|qr_nm:gd|res:RC3|com-cf:nl|ptrs:na|ktp:N0|mc:655885|mtp:S|qry_typ:P|lang:en|wc:2|cs:8900|v=4,Shanjay Enterprises,https://www.indiamart.com/shanjay-enterprises-chennai/?pos=75&kwd=musical walker&tags=||||8954.051|Price|product|||MDC|rsf:gd-|-stype:attr=1|qr_nm:gd|res:RC3|com-cf:nl|ptrs:na|ktp:N0|mc:655885|mtp:S|qry_typ:P|lang:en|wc:2|cs:8900|v=4,False,,Chennai,"No 5, Alapakkam Main Road, Maduravoyal, Chennai - 600095, Dist.Chennai, Tamil Nadu",8044461007,
"Musical Flash Drum, For School/Play School, Round",https://www.indiamart.com/proddetail/musical-flash-drum-2850762959730.html?pos=76&kwd=musical walker&tags=||||8230.883|Price|product|||TS|rsf:gd-|-stype:attr=1|qr_nm:gd|res:RC3|com-cf:nl|ptrs:na|ktp:N0|mc:655885|mtp:S|qry_typ:P|lang:en|wc:2|cs:8900|v=4,Khilona House,https://www.indiamart.com/khilona-house-surat/?pos=76&kwd=musical walker&tags=||||8230.883|Price|product|||TS|rsf:gd-|-stype:attr=1|qr_nm:gd|res:RC3|com-cf:nl|ptrs:na|ktp:N0|mc:655885|mtp:S|qry_typ:P|lang:en|wc:2|cs:8900|v=4,False,Singanpor,Surat,"SY.No.-0047, Plot A/19, First, Madhav Mandir Society-1, Dabholi Road, Katargam, Singanpor, Surat - 395004, Dist.Surat, Gujarat",8047783031,
"Plastic Walker TZ- 309, 8",https://www.indiamart.com/proddetail/walker-tz-309-2850956100588.html?pos=77&kwd=musical walker&tags=||||8752.144|Price|proxy|||MDC|rsf:gd-|-stype:attr=1|qr_nm:gd|res:RC3|com-cf:nl|ptrs:na|ktp:N0|mc:655885|mtp:S|qry_typ:P|lang:en|wc:2|cs:8900|v=4,Bajaj Baby Products Private Limited,https://www.indiamart.com/bajajbabyprodcuts/?pos=77&kwd=musical walker&tags=||||8752.144|Price|proxy|||MDC|rsf:gd-|-stype:attr=1|qr_nm:gd|res:RC3|com-cf:nl|ptrs:na|ktp:N0|mc:655885|mtp:S|qry_typ:P|lang:en|wc:2|cs:8900|v=4,False,,New Delhi,"PLOT NO.11, BLOCK-P,SECTOR-1,DSIIDC BAWANA INDUSTRIAL AREA,NEW DELHI, New Delhi - 110039, Dist.Delhi, Delhi",7942825591,
"Plastic Fancy Baby Walker, Four to Twelve Months",https://www.indiamart.com/proddetail/fancy-baby-walker-2854682199912.html?pos=78&kwd=musical walker&tags=||||9110.092|Price|proxy|||TS|rsf:gd-|-stype:attr=1|qr_nm:gd|res:RC3|com-cf:nl|ptrs:na|ktp:N0|mc:655885|mtp:S|qry_typ:P|lang:en|wc:2|cs:8900|v=4,Pawan Cycle Store,https://www.indiamart.com/pawancyclestore-lucknow/?pos=78&kwd=musical walker&tags=||||9110.092|Price|proxy|||TS|rsf:gd-|-stype:attr=1|qr_nm:gd|res:RC3|com-cf:nl|ptrs:na|ktp:N0|mc:655885|mtp:S|qry_typ:P|lang:en|wc:2|cs:8900|v=4,False,Darul Safa,Lucknow,"91/8, Yadunath Sanyal Road, Darul Safa, Lucknow - 226001, Dist.Lucknow, Uttar Pradesh",8043851096,
Gurtoy,,Gurtoy,https://www.gurtoys.com/?pos=79&kwd=musical walker&tags=||||8661.854||bl|||TS|rsf:gd-|-stype:attr=1|qr_nm:gd|res:RC3|com-cf:nl|ptrs:na|ktp:N0|mc:655885|mtp:S|qry_typ:P|lang:en|wc:2|cs:8900|v=4,False,Model Town,Ludhiana,"B-18-3977 Model Town Road Gurtoy Ludhiana Ludhiana, Model Town, Ludhiana - 141002, Dist.Ludhiana, Punjab",7949082314,
"12 Inch Steel Round Baby Walker, 6",https://www.indiamart.com/proddetail/steel-round-baby-walker-2849895267373.html?pos=80&kwd=musical walker&tags=||||8752.144|Price|proxy|||TS|rsf:gd-|-stype:attr=1|qr_nm:gd|res:RC3|com-cf:nl|ptrs:na|ktp:N0|mc:655885|mtp:S|qry_typ:P|lang:en|wc:2|cs:8900|v=4,Rajbir Trading Company,https://www.indiamart.com/rajbir-tradingcompany/?pos=80&kwd=musical walker&tags=||||8752.144|Price|proxy|||TS|rsf:gd-|-stype:attr=1|qr_nm:gd|res:RC3|com-cf:nl|ptrs:na|ktp:N0|mc:655885|mtp:S|qry_typ:P|lang:en|wc:2|cs:8900|v=4,False,Khyala,New Delhi,"NW-26-B, Vishnu Garden, Khyala, New Delhi - 110018, Dist.Delhi, Delhi",7942799536,
Musical Baby Walker,https://www.indiamart.com/proddetail/musical-baby-walker-14968594530.html?pos=81&kwd=musical walker&tags=CC||||8752.144|Price|product|||NA|rsf:gd-|-stype:attr=1|qr_nm:gd|res:RC3|com-cf:nl|ptrs:na|ktp:N0|mc:655885|mtp:S|qry_typ:P|lang:en|wc:2|cs:8900|v=4,Tandon Enterprises,https://www.indiamart.com/tandon-enterprises-delhi/?pos=81&kwd=musical walker&tags=CC||||8752.144|Price|product|||NA|rsf:gd-|-stype:attr=1|qr_nm:gd|res:RC3|com-cf:nl|ptrs:na|ktp:N0|mc:655885|mtp:S|qry_typ:P|lang:en|wc:2|cs:8900|v=4,False,Rani Bagh,New Delhi,"1062/306 307,,PAN MANDI,SADAR BAZAR C-153, Rishi Nagar, Rani Bagh,110034,Delhi, Rani Bagh, New Delhi - 110006, Dist.Delhi, Delhi",8069033746,192
Musical Baby Walker,https://www.indiamart.com/proddetail/musical-baby-walker-9402326712.html?pos=82&kwd=musical walker&tags=CC||||8752.144||product|||NA|rsf:gd-|-stype:attr=1|qr_nm:gd|res:RC3|com-cf:nl|ptrs:na|ktp:N0|mc:655885|mtp:S|qry_typ:P|lang:en|wc:2|cs:8900|v=4,Chopra Gold,https://www.indiamart.com/chopragold/?pos=82&kwd=musical walker&tags=CC||||8752.144||product|||NA|rsf:gd-|-stype:attr=1|qr_nm:gd|res:RC3|com-cf:nl|ptrs:na|ktp:N0|mc:655885|mtp:S|qry_typ:P|lang:en|wc:2|cs:8900|v=4,False,Shastri nagar,New Delhi,"90,91 sunder park Shastri nagar, Shastri nagar, New Delhi - 110031, Dist.Delhi, Delhi",8043881050,
Musical Baby Walker,https://www.indiamart.com/proddetail/musical-baby-walker-7271726548.html?pos=83&kwd=musical walker&tags=CC||||8752.144||product|||NA|rsf:gd-|-stype:attr=1|qr_nm:gd|res:RC3|com-cf:nl|ptrs:na|ktp:N0|mc:655885|mtp:S|qry_typ:P|lang:en|wc:2|cs:8900|v=4,Pragati International,https://www.indiamart.com/babypower/?pos=83&kwd=musical walker&tags=CC||||8752.144||product|||NA|rsf:gd-|-stype:attr=1|qr_nm:gd|res:RC3|com-cf:nl|ptrs:na|ktp:N0|mc:655885|mtp:S|qry_typ:P|lang:en|wc:2|cs:8900|v=4,False,Rohini Sector 9 Parvana Vihar,New Delhi,"Plot Number- I-6, Parvana Vihar, Sector 9, Rohini, Rohini Sector 9 Parvana Vihar, New Delhi - 110085, Dist.Delhi, Delhi",8048371914,871
Sunbaby Musical Walker,https://www.indiamart.com/proddetail/sunbaby-musical-walker-23307552448.html?pos=84&kwd=musical walker&tags=CC||||8239.3955||product|||NA|rsf:gd-|-stype:attr=1|qr_nm:gd|res:RC3|com-cf:nl|ptrs:na|ktp:N0|mc:655885|mtp:S|qry_typ:P|lang:en|wc:2|cs:8900|v=4,Mymoppet Enterprises,https://www.indiamart.com/bunty-food-store/?pos=84&kwd=musical walker&tags=CC||||8239.3955||product|||NA|rsf:gd-|-stype:attr=1|qr_nm:gd|res:RC3|com-cf:nl|ptrs:na|ktp:N0|mc:655885|mtp:S|qry_typ:P|lang:en|wc:2|cs:8900|v=4,False,Ulhasnagar Nehru chowk,Kalyan,"A1-1103,,GODREJ RIVERSIDE BARAVE VILLAGE GODREJ HILL,Kalyan 1st Floor,u No 111 Nehru Chowk Shop On Sheet No 62/sec/6a Ulhasnagar,421002,Ulhasnagar, Ulhasnagar Nehru chowk, Kalyan - 421301, Dist.Thane, Maharashtra",8048372124,122
Baby Musical Walker,https://www.indiamart.com/proddetail/baby-musical-walker-20581084891.html?pos=85&kwd=musical walker&tags=CC||||8211.142|Price|product|||NA|rsf:gd-|-stype:attr=1|qr_nm:gd|res:RC3|com-cf:nl|ptrs:na|ktp:N0|mc:655885|mtp:S|qry_typ:P|lang:en|wc:2|cs:8900|v=4,Novelty Traders,https://www.indiamart.com/novelty-traders-mumbai/?pos=85&kwd=musical walker&tags=CC||||8211.142|Price|product|||NA|rsf:gd-|-stype:attr=1|qr_nm:gd|res:RC3|com-cf:nl|ptrs:na|ktp:N0|mc:655885|mtp:S|qry_typ:P|lang:en|wc:2|cs:8900|v=4,False,Mandvi,Mumbai,"27 A, Samuel Street, Dongri, Mandvi, Mumbai - 400009, Dist.Mumbai, Maharashtra",8047802209,
Musical Baby Walker,,Kajal Enterprise,https://www.indiamart.com/kajalenterprise-surat/?pos=86&kwd=musical walker&tags=CC||||8230.883|Price|product|||NA|rsf:gd-|-stype:attr=1|qr_nm:gd|res:RC3|com-cf:nl|ptrs:na|ktp:N0|mc:655885|mtp:S|qry_typ:P|lang:en|wc:2|cs:8900|v=4,False,,Surat,"B-56 , Jalaram Nagar , g .h.b. Pandesara, Surat - 394221, Dist.Surat, Gujarat",8048372480,586
Musical Baby Walker,https://www.indiamart.com/proddetail/musical-baby-walker-2853747699588.html?pos=87&kwd=musical walker&tags=CC||||9572.14|Price|product|||NA|rsf:gd-|-stype:attr=1|qr_nm:gd|res:RC3|com-cf:nl|ptrs:na|ktp:N0|mc:655885|mtp:S|qry_typ:P|lang:en|wc:2|cs:8900|v=4,Trigunn Enterprises,https://www.indiamart.com/company/44296004/?pos=87&kwd=musical walker&tags=CC||||9572.14|Price|product|||NA|rsf:gd-|-stype:attr=1|qr_nm:gd|res:RC3|com-cf:nl|ptrs:na|ktp:N0|mc:655885|mtp:S|qry_typ:P|lang:en|wc:2|cs:8900|v=4,False,,Bhubaneswar,"Near Chandrashekhar Petrol Pump, Damana, Bhubaneswar, Bhubaneswar - 751021, Dist.Khorda, Odisha",7949313859,
Baby Walker Musical,https://www.indiamart.com/proddetail/baby-walker-musical-23013983033.html?pos=88&kwd=musical walker&tags=CC||||8595.936||product|||NA|rsf:gd-|-stype:attr=1|qr_nm:gd|res:RC3|com-cf:nl|ptrs:na|ktp:N0|mc:655885|mtp:S|qry_typ:P|lang:en|wc:2|cs:8900|v=4,Child World,https://www.indiamart.com/ms-child-world/?pos=88&kwd=musical walker&tags=CC||||8595.936||product|||NA|rsf:gd-|-stype:attr=1|qr_nm:gd|res:RC3|com-cf:nl|ptrs:na|ktp:N0|mc:655885|mtp:S|qry_typ:P|lang:en|wc:2|cs:8900|v=4,False,,Jammu,"Sundar Singh Road, Raghunath Bazar, Jammu, J&K, Jammu - 180001, Dist.Jammu, Jammu & Kashmir",8047806501,
Baby Walker Musical,,S.P Cycle Industries,https://www.indiamart.com/spcycleindustries/?pos=89&kwd=musical walker&tags=CC||||8752.144|Price|product|||NA|rsf:gd-|-stype:attr=1|qr_nm:gd|res:RC3|com-cf:nl|ptrs:na|ktp:N0|mc:655885|mtp:S|qry_typ:P|lang:en|wc:2|cs:8900|v=4,False,Geeta Colony,New Delhi,"7/205, Main Road, Geeta Colony, New Delhi - 110031, Dist.Delhi, Delhi",8043800280,
Musical Baby Walker,,Aibani Traders,https://www.indiamart.com/aibani-traders/?pos=90&kwd=musical walker&tags=CC||||8211.142|Price|product|||NA|rsf:gd-|-stype:attr=1|qr_nm:gd|res:RC3|com-cf:nl|ptrs:na|ktp:N0|mc:655885|mtp:S|qry_typ:P|lang:en|wc:2|cs:8900|v=4,False,Bandar West,Mumbai,"Building No. 338, Katha Bazar, 3rd Floor, Bandar West, Mumbai - 400009, Dist.Mumbai, Maharashtra",8047671522,
"Poonam Enterprises Multicolor STAR MUSICAL, Age Group: 3-12 Months, 6",https://www.indiamart.com/proddetail/star-musical-21747485748.html?pos=91&kwd=musical walker&tags=CC||||8752.144|Price|product|||NA|rsf:gd-|-stype:attr=1|qr_nm:gd|res:RC3|com-cf:nl|ptrs:na|ktp:N0|mc:655885|mtp:S|qry_typ:P|lang:en|wc:2|cs:8900|v=4,Poonam Enterprises,https://www.indiamart.com/poonam-enterprises-shastrinagar/?pos=91&kwd=musical walker&tags=CC||||8752.144|Price|product|||NA|rsf:gd-|-stype:attr=1|qr_nm:gd|res:RC3|com-cf:nl|ptrs:na|ktp:N0|mc:655885|mtp:S|qry_typ:P|lang:en|wc:2|cs:8900|v=4,False,Geeta Colony,New Delhi,"Taj Enclave Geeta Colony, Geeta Colony, New Delhi - 110031, Dist.Delhi, Delhi",8048372827,970
"cosmo Pink Boomer Musical Walker, 6, Age Group: 3-12 Months",https://www.indiamart.com/proddetail/boomer-musical-walker-2178521973.html?pos=92&kwd=musical walker&tags=CC||||8752.144||product|||NA|rsf:gd-|-stype:attr=1|qr_nm:gd|res:RC3|com-cf:nl|ptrs:na|ktp:N0|mc:655885|mtp:S|qry_typ:P|lang:en|wc:2|cs:8900|v=4,Cosmo Incorporation,https://www.indiamart.com/cosmotricycle-industries/?pos=92&kwd=musical walker&tags=CC||||8752.144||product|||NA|rsf:gd-|-stype:attr=1|qr_nm:gd|res:RC3|com-cf:nl|ptrs:na|ktp:N0|mc:655885|mtp:S|qry_typ:P|lang:en|wc:2|cs:8900|v=4,False,Dilshad Garden,New Delhi,"21/2,OBEROI COMPLEX,G T ROAD,DILSHAD GARDEN ,21/2,G T ROAD,OBEROI COMPLEX,DILSHAD GARDEN,,110001,Delhi, Dilshad Garden, New Delhi - 110095, Dist.Delhi, Delhi",8048372969,1095
"Pink Plastic Square Capsule Music Baby Walkers, One to Two Years",https://www.indiamart.com/proddetail/square-capsule-music-baby-walkers-2854280123912.html?pos=93&kwd=musical walker&tags=CC||||8752.144|Price|product|||NA|rsf:gd-|-stype:attr=1|qr_nm:gd|res:RC3|com-cf:nl|ptrs:na|ktp:N0|mc:655885|mtp:S|qry_typ:P|lang:en|wc:2|cs:8900|v=4,P.S. Tradingco.,https://www.indiamart.com/ps-tradingco-newdelhi/?pos=93&kwd=musical walker&tags=CC||||8752.144|Price|product|||NA|rsf:gd-|-stype:attr=1|qr_nm:gd|res:RC3|com-cf:nl|ptrs:na|ktp:N0|mc:655885|mtp:S|qry_typ:P|lang:en|wc:2|cs:8900|v=4,False,,New Delhi,"Khasra No.102/1 Gali Number 3,4,F Block,Tomar Colony, Pupm Burari Central Delhi, New Delhi - 110084, Dist.Delhi, Delhi",8045736423,
Plastic Round Baby Walker,https://www.indiamart.com/proddetail/round-baby-walker-2853693482362.html?pos=94&kwd=musical walker&tags=||||8785.791|Price|proxy|||MDC|rsf:gd-|-stype:attr=1|qr_nm:gd|res:RC3|com-cf:nl|ptrs:na|ktp:N0|mc:655885|mtp:S|qry_typ:P|lang:en|wc:2|cs:8900|v=4,M K Industries,https://www.indiamart.com/mk-industries-uttarpradesh/?pos=94&kwd=musical walker&tags=||||8785.791|Price|proxy|||MDC|rsf:gd-|-stype:attr=1|qr_nm:gd|res:RC3|com-cf:nl|ptrs:na|ktp:N0|mc:655885|mtp:S|qry_typ:P|lang:en|wc:2|cs:8900|v=4,False,Rampuri,Ghaziabad,"Ground Floor,Kh No-77,Dhtc Compound,Delhi Up Border,Sahibabad,Ghaziabad,Ghaziabad, Rampuri, Ghaziabad - 201005, Dist.Ghaziabad, Uttar Pradesh",7949086935,
Wireless Unisex PVC Kids Music Toys,https://www.indiamart.com/proddetail/pvc-kids-music-toys-2853344127273.html?pos=95&kwd=musical walker&tags=||||8752.144|Price|proxy|||MDC|rsf:gd-|-stype:attr=1|qr_nm:gd|res:RC3|com-cf:nl|ptrs:na|ktp:N0|mc:655885|mtp:S|qry_typ:P|lang:en|wc:2|cs:8900|v=4,Aryan Enterprises,https://www.indiamart.com/aryan-enterprises-mustafabadnewdelhi/?pos=95&kwd=musical walker&tags=||||8752.144|Price|proxy|||MDC|rsf:gd-|-stype:attr=1|qr_nm:gd|res:RC3|com-cf:nl|ptrs:na|ktp:N0|mc:655885|mtp:S|qry_typ:P|lang:en|wc:2|cs:8900|v=4,False,Mustafabad,New Delhi,"First Floor, D-206, Kh. No. - 353, Near Noor Masjid, Gali No.- 15, Mustafabad Old, North East Delhi, Mustafabad, New Delhi - 110094, Dist.Delhi, Delhi",8045167436,
"Multicolor Plastic Fancy Baby Walker, Four to Twelve Months",https://www.indiamart.com/proddetail/fancy-baby-walker-2854451328212.html?pos=96&kwd=musical walker&tags=||||8752.144|Price|proxy|||MDC|rsf:gd-|-stype:attr=1|qr_nm:gd|res:RC3|com-cf:nl|ptrs:na|ktp:N0|mc:655885|mtp:S|qry_typ:P|lang:en|wc:2|cs:8900|v=4,Vikas Enterprises,https://www.indiamart.com/vikasentp-delhi/?pos=96&kwd=musical walker&tags=||||8752.144|Price|proxy|||MDC|rsf:gd-|-stype:attr=1|qr_nm:gd|res:RC3|com-cf:nl|ptrs:na|ktp:N0|mc:655885|mtp:S|qry_typ:P|lang:en|wc:2|cs:8900|v=4,False,Nangloi,New Delhi,"HN 35, Tyagi Colony, Rajendra Park, Main Rohtak Road Nangloi, Nangloi, New Delhi - 110041, Dist.Delhi, Delhi",8046065409,
"15 Inches Musical Baby Walker, 8",https://www.indiamart.com/proddetail/musical-baby-walker-23157200873.html?pos=97&kwd=musical walker&tags=CC||||8752.144|Price|product|||NA|rsf:gd-|-stype:attr=1|qr_nm:gd|res:RC3|com-cf:nl|ptrs:na|ktp:N0|mc:655885|mtp:S|qry_typ:P|lang:en|wc:2|cs:8900|v=4,Alimento Exim Private Limited,https://www.indiamart.com/alimento-exim-private-limited/?pos=97&kwd=musical walker&tags=CC||||8752.144|Price|product|||NA|rsf:gd-|-stype:attr=1|qr_nm:gd|res:RC3|com-cf:nl|ptrs:na|ktp:N0|mc:655885|mtp:S|qry_typ:P|lang:en|wc:2|cs:8900|v=4,False,,New Delhi,"Punjabi Bagh, Near By Punjabi Bagh Club, New Delhi - 110026, Dist.Delhi, Delhi",8048249679,9753
"14 Metal And Plastic Musical Baby Walker, 6, Mje_music",https://www.indiamart.com/proddetail/musical-baby-walker-22935502933.html?pos=98&kwd=musical walker&tags=CC||||8752.144|Price|product|||NA|rsf:gd-|-stype:attr=1|qr_nm:gd|res:RC3|com-cf:nl|ptrs:na|ktp:N0|mc:655885|mtp:S|qry_typ:P|lang:en|wc:2|cs:8900|v=4,M J Enterprises,https://www.indiamart.com/mjenterprises-delhi/?pos=98&kwd=musical walker&tags=CC||||8752.144|Price|product|||NA|rsf:gd-|-stype:attr=1|qr_nm:gd|res:RC3|com-cf:nl|ptrs:na|ktp:N0|mc:655885|mtp:S|qry_typ:P|lang:en|wc:2|cs:8900|v=4,False,Kirari Suleman Nagar,New Delhi,"H NO-PVT-467-B,,GALI NO.12 BLK-B,PREM NAGAR PH-2,,DELHI B-467, Prem Nagar, 2nd,110086,Delhi, Kirari Suleman Nagar, New Delhi - 110041, Dist.Delhi, Delhi",8048261644,
"Plastic Musical Baby Walker, 4",https://www.indiamart.com/proddetail/musical-baby-walker-26749484955.html?pos=99&kwd=musical walker&tags=CC||||8740.707|Price|product|||NA|rsf:gd-|-stype:attr=1|qr_nm:gd|res:RC3|com-cf:nl|ptrs:na|ktp:N0|mc:655885|mtp:S|qry_typ:P|lang:en|wc:2|cs:8900|v=4,Mum's World,https://www.indiamart.com/mumsworld-mohali/?pos=99&kwd=musical walker&tags=CC||||8740.707|Price|product|||NA|rsf:gd-|-stype:attr=1|qr_nm:gd|res:RC3|com-cf:nl|ptrs:na|ktp:N0|mc:655885|mtp:S|qry_typ:P|lang:en|wc:2|cs:8900|v=4,False,,Sas Nagar,"SCF 1827/1, Near KV Aata Chakki, Randhawa Road, Kharar, SAS Nagar, Sas Nagar - 140301, Dist.Mohali, Punjab",8047532475,
Musical Baby Walker,https://www.indiamart.com/proddetail/musical-baby-walker-9559205848.html?pos=100&kwd=musical walker&tags=CC||||8752.144||product|||NA|rsf:gd-|-stype:attr=1|qr_nm:gd|res:RC3|com-cf:nl|ptrs:na|ktp:N0|mc:655885|mtp:S|qry_typ:P|lang:en|wc:2|cs:8900|v=4,Neha International,https://www.indiamart.com/neha-international-delhi/?pos=100&kwd=musical walker&tags=CC||||8752.144||product|||NA|rsf:gd-|-stype:attr=1|qr_nm:gd|res:RC3|com-cf:nl|ptrs:na|ktp:N0|mc:655885|mtp:S|qry_typ:P|lang:en|wc:2|cs:8900|v=4,False,Preet Vihar,New Delhi,"C-39, Preet Vihar, New Delhi - 110092, Dist.Delhi, Delhi",8043887600,
Musical Baby Walker,,First Smile,https://www.indiamart.com/first-smile-delhi/?pos=101&kwd=musical walker&tags=CC||||8752.144|Price|product|||NA|rsf:gd-|-stype:attr=1|qr_nm:gd|res:RC3|com-cf:nl|ptrs:na|ktp:N0|mc:655885|mtp:S|qry_typ:P|lang:en|wc:2|cs:8900|v=4,False,,New Delhi,"Jain Temple, Arya Pura, New Delhi - 110007, Dist.Delhi, Delhi",8048249698,7004
"12 Inch Mild Steel Musical Baby Walker, 6",https://www.indiamart.com/proddetail/musical-baby-walker-2849517918330.html?pos=102&kwd=musical walker&tags=CC||||8752.144|Price|product|||NA|rsf:gd-|-stype:attr=1|qr_nm:gd|res:RC3|com-cf:nl|ptrs:na|ktp:N0|mc:655885|mtp:S|qry_typ:P|lang:en|wc:2|cs:8900|v=4,Trisha Enterprises,https://www.indiamart.com/trisha-enterprises-delhi/?pos=102&kwd=musical walker&tags=CC||||8752.144|Price|product|||NA|rsf:gd-|-stype:attr=1|qr_nm:gd|res:RC3|com-cf:nl|ptrs:na|ktp:N0|mc:655885|mtp:S|qry_typ:P|lang:en|wc:2|cs:8900|v=4,False,,New Delhi,"B-29 Kh-19/4 G No3 Ambika Vihar Karawal Nagar, New Delhi - 110094, Dist.Delhi, Delhi",7942790661,
"22 cm Plastic And Metal Musical Baby Walker, 6 Wheels",https://www.indiamart.com/proddetail/musical-baby-walker-21661123891.html?pos=103&kwd=musical walker&tags=CC||||8752.144|Price|product|||NA|rsf:gd-|-stype:attr=1|qr_nm:gd|res:RC3|com-cf:nl|ptrs:na|ktp:N0|mc:655885|mtp:S|qry_typ:P|lang:en|wc:2|cs:8900|v=4,Khushboo Toys,https://www.indiamart.com/khushboo-toys/?pos=103&kwd=musical walker&tags=CC||||8752.144|Price|product|||NA|rsf:gd-|-stype:attr=1|qr_nm:gd|res:RC3|com-cf:nl|ptrs:na|ktp:N0|mc:655885|mtp:S|qry_typ:P|lang:en|wc:2|cs:8900|v=4,False,,New Delhi,"House No-7, Gali No-2, Village Sherpur, Agarwal Dharmshala, New Delhi - 110094, Dist.Delhi, Delhi",8047547632,
50 Iron And Plastic 8 bend musical walker nickle,https://www.indiamart.com/proddetail/8-bend-musical-walker-nickle-26768720555.html?pos=104&kwd=musical walker&tags=CC||||8752.144|Price|product|||NA|rsf:gd-|-stype:attr=1|qr_nm:gd|res:RC3|com-cf:nl|ptrs:na|ktp:N0|mc:655885|mtp:S|qry_typ:P|lang:en|wc:2|cs:8900|v=4,Sonam Steel Industries,https://www.indiamart.com/sonam-steel-industries/?pos=104&kwd=musical walker&tags=CC||||8752.144|Price|product|||NA|rsf:gd-|-stype:attr=1|qr_nm:gd|res:RC3|com-cf:nl|ptrs:na|ktp:N0|mc:655885|mtp:S|qry_typ:P|lang:en|wc:2|cs:8900|v=4,False,,New Delhi,"Gali No 1, Vill Biharipur Extn, Karwal Nagar, New Delhi - 110094, Dist.Delhi, Delhi",8048211596,
Patel India Gagan Musical Kids Walker,https://www.indiamart.com/proddetail/gagan-musical-kids-walker-16185054173.html?pos=105&kwd=musical walker&tags=CC||||8785.791|Price|product|||NA|rsf:gd-|-stype:attr=1|qr_nm:gd|res:RC3|com-cf:nl|ptrs:na|ktp:N0|mc:655885|mtp:S|qry_typ:P|lang:en|wc:2|cs:8900|v=4,Shri Krishna Industries,https://www.indiamart.com/pawanindustriesdelhi/?pos=105&kwd=musical walker&tags=CC||||8785.791|Price|product|||NA|rsf:gd-|-stype:attr=1|qr_nm:gd|res:RC3|com-cf:nl|ptrs:na|ktp:N0|mc:655885|mtp:S|qry_typ:P|lang:en|wc:2|cs:8900|v=4,False,TDS City,Ghaziabad,"Plot No. B-9, Sector A-7 (P-1) Tronica City, Loni, Ghaziabad,, TDS City, Ghaziabad - 201102, Dist.Ghaziabad, Uttar Pradesh",8047766185,
"Mild Steel,Cotton Musical Baby Walker, 6",https://www.indiamart.com/proddetail/musical-baby-walker-23199310591.html?pos=106&kwd=musical walker&tags=CC||||8984.809|Price|product|||NA|rsf:gd-|-stype:attr=1|qr_nm:gd|res:RC3|com-cf:nl|ptrs:na|ktp:N0|mc:655885|mtp:S|qry_typ:P|lang:en|wc:2|cs:8900|v=4,Vidyansh Baby Care,https://www.indiamart.com/vidyansh-baby-care/?pos=106&kwd=musical walker&tags=CC||||8984.809|Price|product|||NA|rsf:gd-|-stype:attr=1|qr_nm:gd|res:RC3|com-cf:nl|ptrs:na|ktp:N0|mc:655885|mtp:S|qry_typ:P|lang:en|wc:2|cs:8900|v=4,False,,Jabalpur,"714,TILAK BHUMI KI TAILAIYA, BHALDAARPURA,JABALPUR Tilak Bhumi Taliya, Near Sardar Koyla,482002,Jabalpur, Jabalpur - 482001, Dist.Jabalpur, Madhya Pradesh",8043840036,
Plastic Baby Musical Walker,https://www.indiamart.com/proddetail/baby-musical-walker-23292643333.html?pos=107&kwd=musical walker&tags=CC||||8752.144|Price|product|||NA|rsf:gd-|-stype:attr=1|qr_nm:gd|res:RC3|com-cf:nl|ptrs:na|ktp:N0|mc:655885|mtp:S|qry_typ:P|lang:en|wc:2|cs:8900|v=4,Jain Trendz,https://www.indiamart.com/jaintrendznewdelhi/?pos=107&kwd=musical walker&tags=CC||||8752.144|Price|product|||NA|rsf:gd-|-stype:attr=1|qr_nm:gd|res:RC3|com-cf:nl|ptrs:na|ktp:N0|mc:655885|mtp:S|qry_typ:P|lang:en|wc:2|cs:8900|v=4,False,near Pacific Mall,New Delhi,"4/66 Sahibabad Industrial area Site 4 Ghaziabad, near Pacific Mall, New Delhi - 110029, Dist.Delhi, Delhi",8048609979,
"15 Inch Crp Pipe,Plastic Musical Baby Walker, 8, Fw 08",https://www.indiamart.com/proddetail/musical-baby-walker-2849561168591.html?pos=108&kwd=musical walker&tags=CC||||8752.144|Price|product|||NA|rsf:gd-|-stype:attr=1|qr_nm:gd|res:RC3|com-cf:nl|ptrs:na|ktp:N0|mc:655885|mtp:S|qry_typ:P|lang:en|wc:2|cs:8900|v=4,Friends Enterprises,https://www.indiamart.com/friends-enterprisesdelhi/?pos=108&kwd=musical walker&tags=CC||||8752.144|Price|product|||NA|rsf:gd-|-stype:attr=1|qr_nm:gd|res:RC3|com-cf:nl|ptrs:na|ktp:N0|mc:655885|mtp:S|qry_typ:P|lang:en|wc:2|cs:8900|v=4,False,,New Delhi,"C-33,h 5 Jagat Puri Extention North, New Delhi - 110093, Dist.Delhi, Delhi",8047841629,
"Red Stainless Steel Musical Baby Walker, Packaging Type: Polythene",https://www.indiamart.com/proddetail/musical-baby-walker-2853606461955.html?pos=109&kwd=musical walker&tags=CC||||8752.144|Price|product|||NA|rsf:gd-|-stype:attr=1|qr_nm:gd|res:RC3|com-cf:nl|ptrs:na|ktp:N0|mc:655885|mtp:S|qry_typ:P|lang:en|wc:2|cs:8900|v=4,Fraxus Global,https://www.indiamart.com/fraxus-global/?pos=109&kwd=musical walker&tags=CC||||8752.144|Price|product|||NA|rsf:gd-|-stype:attr=1|qr_nm:gd|res:RC3|com-cf:nl|ptrs:na|ktp:N0|mc:655885|mtp:S|qry_typ:P|lang:en|wc:2|cs:8900|v=4,False,,New Delhi,"Second Floor Back Side, E2/34b, Chanakya Place, Uttam Nagar, West Delhi, New Delhi - 110059, Dist.Delhi, Delhi",7949227326,
Red Baby Musical Walker,https://www.indiamart.com/proddetail/baby-musical-walker-19646626297.html?pos=110&kwd=musical walker&tags=CC||||9110.092|Price|product|||NA|rsf:gd-|-stype:attr=1|qr_nm:gd|res:RC3|com-cf:nl|ptrs:na|ktp:N0|mc:655885|mtp:S|qry_typ:P|lang:en|wc:2|cs:8900|v=4,Janta Sports And Toys,https://www.indiamart.com/janta-sportstoys/?pos=110&kwd=musical walker&tags=CC||||9110.092|Price|product|||NA|rsf:gd-|-stype:attr=1|qr_nm:gd|res:RC3|com-cf:nl|ptrs:na|ktp:N0|mc:655885|mtp:S|qry_typ:P|lang:en|wc:2|cs:8900|v=4,False,Yahiyaganj,Lucknow,"Opposite Chhote Lal Misthan Bhandar, Yahiyaganj, Lucknow - 226004, Dist.Lucknow, Uttar Pradesh",8047670822,
"Up To 500mm Musical Baby Walker, Age Group: 3-12 Months",https://www.indiamart.com/proddetail/musical-baby-walker-21322161612.html?pos=111&kwd=musical walker&tags=CC||||8307.81|Price|product|||NA|rsf:gd-|-stype:attr=1|qr_nm:gd|res:RC3|com-cf:nl|ptrs:na|ktp:N0|mc:655885|mtp:S|qry_typ:P|lang:en|wc:2|cs:8900|v=4,Manoj Trading Company,https://www.indiamart.com/manoj-trading-company-pune/?pos=111&kwd=musical walker&tags=CC||||8307.81|Price|product|||NA|rsf:gd-|-stype:attr=1|qr_nm:gd|res:RC3|com-cf:nl|ptrs:na|ktp:N0|mc:655885|mtp:S|qry_typ:P|lang:en|wc:2|cs:8900|v=4,False,,Pune,"Dattawadi Akurdi, Pune - 411035, Dist.Pune, Maharashtra",8048372686,187
"Iron And Plastic Baby Musical Walker, 8",https://www.indiamart.com/proddetail/baby-musical-walker-22360500762.html?pos=112&kwd=musical walker&tags=CC||||8752.144|Price|product|||NA|rsf:gd-|-stype:attr=1|qr_nm:gd|res:RC3|com-cf:nl|ptrs:na|ktp:N0|mc:655885|mtp:S|qry_typ:P|lang:en|wc:2|cs:8900|v=4,Garg Steel Furniture,https://www.indiamart.com/gargsteelfurniture/?pos=112&kwd=musical walker&tags=CC||||8752.144|Price|product|||NA|rsf:gd-|-stype:attr=1|qr_nm:gd|res:RC3|com-cf:nl|ptrs:na|ktp:N0|mc:655885|mtp:S|qry_typ:P|lang:en|wc:2|cs:8900|v=4,False,Paharganj,New Delhi,"Shop No. 9575/13, Multani Dhanda, Paharganj, New Delhi - 110055, Dist.Delhi, Delhi",7942655451,
"2ft Plastic Musical Baby Walker, 8",https://www.indiamart.com/proddetail/musical-baby-walker-22961802955.html?pos=113&kwd=musical walker&tags=CC||||8740.707|Price|product|||NA|rsf:gd-|-stype:attr=1|qr_nm:gd|res:RC3|com-cf:nl|ptrs:na|ktp:N0|mc:655885|mtp:S|qry_typ:P|lang:en|wc:2|cs:8900|v=4,Sai Enterprises,https://www.indiamart.com/sai-enterprises-zirakpur/?pos=113&kwd=musical walker&tags=CC||||8740.707|Price|product|||NA|rsf:gd-|-stype:attr=1|qr_nm:gd|res:RC3|com-cf:nl|ptrs:na|ktp:N0|mc:655885|mtp:S|qry_typ:P|lang:en|wc:2|cs:8900|v=4,False,,Sas Nagar,"Plot No. 71, Godown Area, Bhabat Road, Sas Nagar - 140603, Dist.Mohali, Punjab",8043823310,
"Plastic Baby Musical Walker, 6",https://www.indiamart.com/proddetail/baby-musical-walker-22405643488.html?pos=114&kwd=musical walker&tags=CC||||8645.561|Price|product|||NA|rsf:gd-|-stype:attr=1|qr_nm:gd|res:RC3|com-cf:nl|ptrs:na|ktp:N0|mc:655885|mtp:S|qry_typ:P|lang:en|wc:2|cs:8900|v=4,Prateek Furniture,https://www.indiamart.com/prateekfurniture/?pos=114&kwd=musical walker&tags=CC||||8645.561|Price|product|||NA|rsf:gd-|-stype:attr=1|qr_nm:gd|res:RC3|com-cf:nl|ptrs:na|ktp:N0|mc:655885|mtp:S|qry_typ:P|lang:en|wc:2|cs:8900|v=4,False,Dadri Gate,Bhiwani,"0 DHANA ROAD BHIWANI, Dadri Gate, Bhiwani - 127021, Dist.Bhiwani, Haryana",8048955817,
"12 Inch Plastic Blue Musical Baby Walker, 5",https://www.indiamart.com/proddetail/blue-musical-baby-walker-25883199962.html?pos=115&kwd=musical walker&tags=CC||||8785.791|Price|product|||NA|rsf:gd-|-stype:attr=1|qr_nm:gd|res:RC3|com-cf:nl|ptrs:na|ktp:N0|mc:655885|mtp:S|qry_typ:P|lang:en|wc:2|cs:8900|v=4,Goodluck Sales Corp.,https://www.indiamart.com/goodlucksalescorp/?pos=115&kwd=musical walker&tags=CC||||8785.791|Price|product|||NA|rsf:gd-|-stype:attr=1|qr_nm:gd|res:RC3|com-cf:nl|ptrs:na|ktp:N0|mc:655885|mtp:S|qry_typ:P|lang:en|wc:2|cs:8900|v=4,False,,Ghaziabad,"H. No- D-2/20, Block-D-2, Rawal Pindy Vill, Chikamberbpur, Ghaziabad - 201006, Dist.Ghaziabad, Uttar Pradesh",8047677034,
Plastic 8 Band Grip Music Baby Walker,https://www.indiamart.com/proddetail/8-band-grip-music-baby-walker-2853998071991.html?pos=116&kwd=musical walker&tags=CC||||8752.144|Price|product|||NA|rsf:gd-|-stype:attr=1|qr_nm:gd|res:RC3|com-cf:nl|ptrs:na|ktp:N0|mc:655885|mtp:S|qry_typ:P|lang:en|wc:2|cs:8900|v=4,K.L.Baby Products,https://www.indiamart.com/kl-babyproducts/?pos=116&kwd=musical walker&tags=CC||||8752.144|Price|product|||NA|rsf:gd-|-stype:attr=1|qr_nm:gd|res:RC3|com-cf:nl|ptrs:na|ktp:N0|mc:655885|mtp:S|qry_typ:P|lang:en|wc:2|cs:8900|v=4,False,New Mustafabad,New Delhi,"B-57, Gali No. 2, Village Sadat Pur, New Mustafabad, New Delhi - 110094, Dist.Delhi, Delhi",7942836421,
"60 Cm ABS Plastic Musical Baby Walker, 12",https://www.indiamart.com/proddetail/musical-baby-walker-2851897262930.html?pos=117&kwd=musical walker&tags=CC||||8785.791|Price|product|||NA|rsf:gd-|-stype:attr=1|qr_nm:gd|res:RC3|com-cf:nl|ptrs:na|ktp:N0|mc:655885|mtp:S|qry_typ:P|lang:en|wc:2|cs:8900|v=4,Deepak Products,https://www.indiamart.com/deepak-products-ghaziabad/?pos=117&kwd=musical walker&tags=CC||||8785.791|Price|product|||NA|rsf:gd-|-stype:attr=1|qr_nm:gd|res:RC3|com-cf:nl|ptrs:na|ktp:N0|mc:655885|mtp:S|qry_typ:P|lang:en|wc:2|cs:8900|v=4,False,,Ghaziabad,"1904, Khasra No 1904, Near Durga Mandir, Bhati Market, Bhati Enclave, Behta Hajipur,, Ghaziabad - 201102, Dist.Ghaziabad, Uttar Pradesh",7942874265,
"Plastic Musical Baby Walker, 6",https://www.indiamart.com/proddetail/musical-baby-walker-23291340588.html?pos=118&kwd=musical walker&tags=CC||||8785.791|Price|product|||NA|rsf:gd-|-stype:attr=1|qr_nm:gd|res:RC3|com-cf:nl|ptrs:na|ktp:N0|mc:655885|mtp:S|qry_typ:P|lang:en|wc:2|cs:8900|v=4,Dbolt Baby Products,https://www.indiamart.com/dbolt-baby-products/?pos=118&kwd=musical walker&tags=CC||||8785.791|Price|product|||NA|rsf:gd-|-stype:attr=1|qr_nm:gd|res:RC3|com-cf:nl|ptrs:na|ktp:N0|mc:655885|mtp:S|qry_typ:P|lang:en|wc:2|cs:8900|v=4,False,,Ghaziabad,"C - 92 Shaheed Nagar, Ghaziabad - 201006, Dist.Ghaziabad, Uttar Pradesh",8046052616,
SHISHU.ONLINE Red Musical Walker,https://www.indiamart.com/proddetail/red-musical-walker-15735220748.html?pos=119&kwd=musical walker&tags=CC||||8752.144|Price|product|||NA|rsf:gd-|-stype:attr=1|qr_nm:gd|res:RC3|com-cf:nl|ptrs:na|ktp:N0|mc:655885|mtp:S|qry_typ:P|lang:en|wc:2|cs:8900|v=4,Palamu Enterprises,https://www.indiamart.com/palamu-enterpris-delhi/?pos=119&kwd=musical walker&tags=CC||||8752.144|Price|product|||NA|rsf:gd-|-stype:attr=1|qr_nm:gd|res:RC3|com-cf:nl|ptrs:na|ktp:N0|mc:655885|mtp:S|qry_typ:P|lang:en|wc:2|cs:8900|v=4,False,,New Delhi,"Main Market, Okhla Vihar, New Delhi - 110025, Dist.Delhi, Delhi",8048247125,8777
"Iron And Plastic 50cm Musical Baby Walker, 6",https://www.indiamart.com/proddetail/50cm-musical-baby-walker-24155641255.html?pos=120&kwd=musical walker&tags=CC||||8752.144|Price|product|||NA|rsf:gd-|-stype:attr=1|qr_nm:gd|res:RC3|com-cf:nl|ptrs:na|ktp:N0|mc:655885|mtp:S|qry_typ:P|lang:en|wc:2|cs:8900|v=4,B.K. Traders,https://www.indiamart.com/bktraders-india/?pos=120&kwd=musical walker&tags=CC||||8752.144|Price|product|||NA|rsf:gd-|-stype:attr=1|qr_nm:gd|res:RC3|com-cf:nl|ptrs:na|ktp:N0|mc:655885|mtp:S|qry_typ:P|lang:en|wc:2|cs:8900|v=4,False,SHAHDARA,New Delhi,"H.No-5a/1, Ground Floor, New Vishwas Nagar, Shahdara,, SHAHDARA, New Delhi - 110032, Dist.Delhi, Delhi",8045908374,
"50 Cm Plastic Kids Musical Activity Walker, Age Group: 6-12 Months",https://www.indiamart.com/proddetail/kids-musical-activity-walker-22006496548.html?pos=121&kwd=musical walker&tags=CC||||8624.416|Price|product|||NA|rsf:gd-|-stype:attr=1|qr_nm:gd|res:RC3|com-cf:nl|ptrs:na|ktp:N0|mc:655885|mtp:S|qry_typ:P|lang:en|wc:2|cs:8900|v=4,Goyal Traders,https://www.indiamart.com/goyal-traders-haryana/?pos=121&kwd=musical walker&tags=CC||||8624.416|Price|product|||NA|rsf:gd-|-stype:attr=1|qr_nm:gd|res:RC3|com-cf:nl|ptrs:na|ktp:N0|mc:655885|mtp:S|qry_typ:P|lang:en|wc:2|cs:8900|v=4,False,New Grain Market,Hisar,",New Grain Market,Hisar,Shop No-236,Haryana, New Grain Market, Hisar - 125001, Dist.Hisar, Haryana",8048204855,
"Thermal Plastic,Steel Foldable Baby Musical Walker, 8",https://www.indiamart.com/proddetail/foldable-baby-musical-walker-22439000248.html?pos=122&kwd=musical walker&tags=CC||||8663.873|Price|product|||NA|rsf:gd-|-stype:attr=1|qr_nm:gd|res:RC3|com-cf:nl|ptrs:na|ktp:N0|mc:655885|mtp:S|qry_typ:P|lang:en|wc:2|cs:8900|v=4,Z-Excel Corporation,https://www.indiamart.com/zexcel-corporation/?pos=122&kwd=musical walker&tags=CC||||8663.873|Price|product|||NA|rsf:gd-|-stype:attr=1|qr_nm:gd|res:RC3|com-cf:nl|ptrs:na|ktp:N0|mc:655885|mtp:S|qry_typ:P|lang:en|wc:2|cs:8900|v=4,False,ST. Thomas Town Post Bangalore,Bengaluru,"Ground Floor No.461 2nd main road, ST. Thomas Town Post Bangalore, Bengaluru - 560084, Dist.Bengaluru, Karnataka",8048371510,344
"1.5 Feet Plastic Baby Musical Walker, 8",https://www.indiamart.com/proddetail/plastic-baby-musical-walker-25509525473.html?pos=123&kwd=musical walker&tags=CC||||8230.883|Price|product|||NA|rsf:gd-|-stype:attr=1|qr_nm:gd|res:RC3|com-cf:nl|ptrs:na|ktp:N0|mc:655885|mtp:S|qry_typ:P|lang:en|wc:2|cs:8900|v=4,Shree Hari Gift & Khilona,https://www.indiamart.com/shreeharigiftkhilona/?pos=123&kwd=musical walker&tags=CC||||8230.883|Price|product|||NA|rsf:gd-|-stype:attr=1|qr_nm:gd|res:RC3|com-cf:nl|ptrs:na|ktp:N0|mc:655885|mtp:S|qry_typ:P|lang:en|wc:2|cs:8900|v=4,False,,Surat,"Plot No-49, Tirupati Nagar Society-2, B/H Gangeshwar Society, Kapodra,, Surat - 395006, Dist.Surat, Gujarat",8047650154,
"1 Feet Dazzler Musical Adjustable Walker, 4 Wheels",https://www.indiamart.com/proddetail/dazzler-musical-adjustable-walker-22875104655.html?pos=124&kwd=musical walker&tags=CC||||8307.81|Price|product|||NA|rsf:gd-|-stype:attr=1|qr_nm:gd|res:RC3|com-cf:nl|ptrs:na|ktp:N0|mc:655885|mtp:S|qry_typ:P|lang:en|wc:2|cs:8900|v=4,Priya Cycle City,https://www.indiamart.com/priya-cycle-city/?pos=124&kwd=musical walker&tags=CC||||8307.81|Price|product|||NA|rsf:gd-|-stype:attr=1|qr_nm:gd|res:RC3|com-cf:nl|ptrs:na|ktp:N0|mc:655885|mtp:S|qry_typ:P|lang:en|wc:2|cs:8900|v=4,False,,Pune,"Shop No.2, C1,Brahma Estate Kondhwa Khurd, Pune - 411048, Dist.Pune, Maharashtra",8047767180,
"12 Inch Plastic And Mild Steel Pink Musical Baby Walker, 6, KWE-104",https://www.indiamart.com/proddetail/pink-musical-baby-walker-25388847988.html?pos=125&kwd=musical walker&tags=CC||||8752.144|Price|product|||NA|rsf:gd-|-stype:attr=1|qr_nm:gd|res:RC3|com-cf:nl|ptrs:na|ktp:N0|mc:655885|mtp:S|qry_typ:P|lang:en|wc:2|cs:8900|v=4,Kiddiewing Enterprises,https://www.indiamart.com/kiddiewingenterprises/?pos=125&kwd=musical walker&tags=CC||||8752.144|Price|product|||NA|rsf:gd-|-stype:attr=1|qr_nm:gd|res:RC3|com-cf:nl|ptrs:na|ktp:N0|mc:655885|mtp:S|qry_typ:P|lang:en|wc:2|cs:8900|v=4,False,,New Delhi,"House No. New No.61-A, Plot No.170-A, Khasra No.1337, Floor Ground, Gali No.3, Block-H, Ph-1, North West Delhi, New Delhi - 110086, Dist.Delhi, Delhi",8048269061,
"Plastic & Iron R One Musical Walker, 3",https://www.indiamart.com/proddetail/r-one-musical-walker-2849568556230.html?pos=126&kwd=musical walker&tags=CC||||8752.144||product|||NA|rsf:gd-|-stype:attr=1|qr_nm:gd|res:RC3|com-cf:nl|ptrs:na|ktp:N0|mc:655885|mtp:S|qry_typ:P|lang:en|wc:2|cs:8900|v=4,Horse Baby Cycle,https://www.indiamart.com/horsebabycycle/?pos=126&kwd=musical walker&tags=CC||||8752.144||product|||NA|rsf:gd-|-stype:attr=1|qr_nm:gd|res:RC3|com-cf:nl|ptrs:na|ktp:N0|mc:655885|mtp:S|qry_typ:P|lang:en|wc:2|cs:8900|v=4,False,Shahdara,New Delhi,"42,PVT.NO. 42/2,,GALI NO. 3, PROPERTY NO.-42,,FRIENDS COLONY INDUSTRIAL AREA B-42/2, Gali No. 3, Friends Colony, Industrial Area,110032,Delhi, Shahdara, New Delhi - 110095, Dist.Delhi, Delhi",8046053368,
"60cm Plastic Datoes Musical Baby Walker, 08",https://www.indiamart.com/proddetail/datoes-musical-baby-walker-24767197955.html?pos=127&kwd=musical walker&tags=CC||||8752.144|Price|product|||NA|rsf:gd-|-stype:attr=1|qr_nm:gd|res:RC3|com-cf:nl|ptrs:na|ktp:N0|mc:655885|mtp:S|qry_typ:P|lang:en|wc:2|cs:8900|v=4,Shiv Shakti Traders,https://www.indiamart.com/shivshaktitraders-bawana/?pos=127&kwd=musical walker&tags=CC||||8752.144|Price|product|||NA|rsf:gd-|-stype:attr=1|qr_nm:gd|res:RC3|com-cf:nl|ptrs:na|ktp:N0|mc:655885|mtp:S|qry_typ:P|lang:en|wc:2|cs:8900|v=4,False,,New Delhi,"E-213, Sec-4, DSIDC Bawana, North West Delhi, New Delhi - 110039, Dist.Delhi, Delhi",8048269354,
"Metal & Plastic Love Baby Musical Walker, 8, Lb 303h",https://www.indiamart.com/proddetail/love-baby-musical-walker-22827507512.html?pos=128&kwd=musical walker&tags=CC||||8752.144|Price|product|||NA|rsf:gd-|-stype:attr=1|qr_nm:gd|res:RC3|com-cf:nl|ptrs:na|ktp:N0|mc:655885|mtp:S|qry_typ:P|lang:en|wc:2|cs:8900|v=4,SG Enterprises,https://www.indiamart.com/sg-enterprises-newdelhi/?pos=128&kwd=musical walker&tags=CC||||8752.144|Price|product|||NA|rsf:gd-|-stype:attr=1|qr_nm:gd|res:RC3|com-cf:nl|ptrs:na|ktp:N0|mc:655885|mtp:S|qry_typ:P|lang:en|wc:2|cs:8900|v=4,False,,New Delhi,"G-8/20, GALI NO-7, SHIV MANDIR ROAD, SWAROOP NAGAR, North West Delhi,, New Delhi - 110042, Dist.Delhi, Delhi",8048980525,
"1.5feet Plastic And Aluminium Pink Round Baby Musical Foldable Walker, 8",https://www.indiamart.com/proddetail/pink-round-baby-musical-foldable-walker-23928315573.html?pos=129&kwd=musical walker&tags=CC||||8752.144|Price|product|||NA|rsf:gd-|-stype:attr=1|qr_nm:gd|res:RC3|com-cf:nl|ptrs:na|ktp:N0|mc:655885|mtp:S|qry_typ:P|lang:en|wc:2|cs:8900|v=4,Metrobuzz,https://www.indiamart.com/metrobuzz/?pos=129&kwd=musical walker&tags=CC||||8752.144|Price|product|||NA|rsf:gd-|-stype:attr=1|qr_nm:gd|res:RC3|com-cf:nl|ptrs:na|ktp:N0|mc:655885|mtp:S|qry_typ:P|lang:en|wc:2|cs:8900|v=4,False,Nangloi,New Delhi,"Plot No-65-A, Kh No-1303, 1st Floor, Extn, Prem Nagar Ph-1, Police Station,, Nangloi, New Delhi - 110086, Dist.Delhi, Delhi",8048615303,
"Plastic And Fibre Offspring Baby Musical Walker, 8",https://www.indiamart.com/proddetail/offspring-baby-musical-walker-23173820062.html?pos=130&kwd=musical walker&tags=CC||||8211.142||product|||NA|rsf:gd-|-stype:attr=1|qr_nm:gd|res:RC3|com-cf:nl|ptrs:na|ktp:N0|mc:655885|mtp:S|qry_typ:P|lang:en|wc:2|cs:8900|v=4,Offspring,https://www.indiamart.com/offspring/?pos=130&kwd=musical walker&tags=CC||||8211.142||product|||NA|rsf:gd-|-stype:attr=1|qr_nm:gd|res:RC3|com-cf:nl|ptrs:na|ktp:N0|mc:655885|mtp:S|qry_typ:P|lang:en|wc:2|cs:8900|v=4,False,Ghatkopar West,Mumbai,"No. 316, Subhash Nagar, Dutt Nagar J. M. Mandir Road, Asalpha, Ghatkopar West, Ghatkopar West, Mumbai - 400084, Dist.Mumbai, Maharashtra",8047629614,
3 Feet 8 Wheel Musical Baby Walker,https://www.indiamart.com/proddetail/8-wheel-musical-baby-walker-25402829848.html?pos=131&kwd=musical walker&tags=CC||||8785.791|Price|product|||NA|rsf:gd-|-stype:attr=1|qr_nm:gd|res:RC3|com-cf:nl|ptrs:na|ktp:N0|mc:655885|mtp:S|qry_typ:P|lang:en|wc:2|cs:8900|v=4,A K Enterprises,https://www.indiamart.com/ak-enterprises-uttarpradesh/?pos=131&kwd=musical walker&tags=CC||||8785.791|Price|product|||NA|rsf:gd-|-stype:attr=1|qr_nm:gd|res:RC3|com-cf:nl|ptrs:na|ktp:N0|mc:655885|mtp:S|qry_typ:P|lang:en|wc:2|cs:8900|v=4,False,,Ghaziabad,"Ground Floor Village Behata Hazipur Nahar Road, Ghaziabad - 201102, Dist.Ghaziabad, Uttar Pradesh",8048267813,
Green (base) Kids Plastic Adjustable Musical Walker,https://www.indiamart.com/proddetail/kids-plastic-adjustable-musical-walker-2853091678948.html?pos=132&kwd=musical walker&tags=CC||||8752.144|Price|product|||NA|rsf:gd-|-stype:attr=1|qr_nm:gd|res:RC3|com-cf:nl|ptrs:na|ktp:N0|mc:655885|mtp:S|qry_typ:P|lang:en|wc:2|cs:8900|v=4,Sahni Plastic,https://www.indiamart.com/sahniplastic-newdelhi/?pos=132&kwd=musical walker&tags=CC||||8752.144|Price|product|||NA|rsf:gd-|-stype:attr=1|qr_nm:gd|res:RC3|com-cf:nl|ptrs:na|ktp:N0|mc:655885|mtp:S|qry_typ:P|lang:en|wc:2|cs:8900|v=4,False,Rohini,New Delhi,"Ground Floor, J-115, Sector-5, DSIIDC Bawana, North West Delhi, Rohini, New Delhi - 110039, Dist.Delhi, Delhi",7942964711,
"1.5 Feet PVC Music Baby Walkers, 6",https://www.indiamart.com/proddetail/pvc-music-baby-walkers-22803947348.html?pos=133&kwd=musical walker&tags=CC||||8752.144|Price|product|||NA|rsf:gd-|-stype:attr=1|qr_nm:gd|res:RC3|com-cf:nl|ptrs:na|ktp:N0|mc:655885|mtp:S|qry_typ:P|lang:en|wc:2|cs:8900|v=4,R. N. India Baby Products,https://www.indiamart.com/rnindiababyproducts/?pos=133&kwd=musical walker&tags=CC||||8752.144|Price|product|||NA|rsf:gd-|-stype:attr=1|qr_nm:gd|res:RC3|com-cf:nl|ptrs:na|ktp:N0|mc:655885|mtp:S|qry_typ:P|lang:en|wc:2|cs:8900|v=4,False,,New Delhi,"D-49, 1st Floor, Milan Garden, Mandoli North East, New Delhi - 110093, Dist.Delhi, Delhi",8047659731,
"20 Inch Virgin Plastic,6 Sut Pipe Baby Walker 8 Bend Dolphin Grip (non Musical/musical), Bw-3004",https://www.indiamart.com/proddetail/baby-walker-8-bend-dolphin-grip-non-musical-musical-23434255155.html?pos=134&kwd=musical walker&tags=CC||||9111.322|Price|product|||NA|rsf:gd-|-stype:attr=1|qr_nm:gd|res:RC3|com-cf:nl|ptrs:na|ktp:N0|mc:655885|mtp:S|qry_typ:P|lang:en|wc:2|cs:8900|v=4,Ashish Traders,https://www.indiamart.com/ashish-traders-bhilai/?pos=134&kwd=musical walker&tags=CC||||9111.322|Price|product|||NA|rsf:gd-|-stype:attr=1|qr_nm:gd|res:RC3|com-cf:nl|ptrs:na|ktp:N0|mc:655885|mtp:S|qry_typ:P|lang:en|wc:2|cs:8900|v=4,False,,Bhilai,"Ashish Trdaers Bajarang Para / G.e.road Bhilai-3 Bajrang Para, Near New Police Station, Bhilai - 490025, Dist.Durg, Chhattisgarh",8048372181,724
Musical Activity Walker,,Tiffiny Toys,https://www.indiamart.com/tiffiny-toys/?pos=135&kwd=musical walker&tags=CC||||8223.226||product|||NA|rsf:gd-|-stype:attr=1|qr_nm:gd|res:RC3|com-cf:nl|ptrs:na|ktp:N0|mc:655885|mtp:S|qry_typ:P|lang:en|wc:2|cs:8900|v=4,False,,Thane,"Ground Floor 1/6 Sitaram Naik Chawl Mukund Company Station Road, Thane - 400605, Dist.Thane, Maharashtra",8048372947,837
Multicolor Pvc And Stainless Steel 6 Wheeler Baby Musical Walker,https://www.indiamart.com/proddetail/6-wheeler-baby-musical-walker-20508804162.html?pos=136&kwd=musical walker&tags=CC||||8752.144|Price|product|||NA|rsf:gd-|-stype:attr=1|qr_nm:gd|res:RC3|com-cf:nl|ptrs:na|ktp:N0|mc:655885|mtp:S|qry_typ:P|lang:en|wc:2|cs:8900|v=4,Fancy Products,https://www.indiamart.com/fancyproducts/?pos=136&kwd=musical walker&tags=CC||||8752.144|Price|product|||NA|rsf:gd-|-stype:attr=1|qr_nm:gd|res:RC3|com-cf:nl|ptrs:na|ktp:N0|mc:655885|mtp:S|qry_typ:P|lang:en|wc:2|cs:8900|v=4,False,,New Delhi,"D-16, Rani Garden Extension, Shastri Nagar, New Delhi - 110031, Dist.Delhi, Delhi",8048371879,809
Multicolor Abs Plastic And Iron Musical Baby Walkers,https://www.indiamart.com/proddetail/musical-baby-walkers-20643626097.html?pos=137&kwd=musical walker&tags=CC||||8281.036|Price|product|||NA|rsf:gd-|-stype:attr=1|qr_nm:gd|res:RC3|com-cf:nl|ptrs:na|ktp:N0|mc:655885|mtp:S|qry_typ:P|lang:en|wc:2|cs:8900|v=4,Sai Steel Furniture,https://www.indiamart.com/sai-steel-furniture-vadodara/?pos=137&kwd=musical walker&tags=CC||||8281.036|Price|product|||NA|rsf:gd-|-stype:attr=1|qr_nm:gd|res:RC3|com-cf:nl|ptrs:na|ktp:N0|mc:655885|mtp:S|qry_typ:P|lang:en|wc:2|cs:8900|v=4,False,Mandvi,Vadodara,"Rokadnath Temple Road, Mandvi, Vadodara - 390001, Dist.Vadodara, Gujarat",8062245088,845
"Plastic And Stainless Steel 13 Inch Musical Baby Walker, 6",https://www.indiamart.com/proddetail/13-inch-musical-baby-walker-23190486088.html?pos=138&kwd=musical walker&tags=CC||||8752.144|Price|product|||NA|rsf:gd-|-stype:attr=1|qr_nm:gd|res:RC3|com-cf:nl|ptrs:na|ktp:N0|mc:655885|mtp:S|qry_typ:P|lang:en|wc:2|cs:8900|v=4,M K Industries,https://www.indiamart.com/mkindustries-newdelhi/?pos=138&kwd=musical walker&tags=CC||||8752.144|Price|product|||NA|rsf:gd-|-stype:attr=1|qr_nm:gd|res:RC3|com-cf:nl|ptrs:na|ktp:N0|mc:655885|mtp:S|qry_typ:P|lang:en|wc:2|cs:8900|v=4,False,Shahdara,New Delhi,"32/31,,GF,East Delhi,Delhi,110032,BHIKAM SINGH COLONY VISHWAS NAGAR SHAHDARA, Shahdara, New Delhi - 110032, Dist.Delhi, Delhi",7942648283,
"40 Cm Plastic And Fabric Super Single Musical Baby Walker, 8",https://www.indiamart.com/proddetail/super-single-musical-baby-walker-27148630862.html?pos=139&kwd=musical walker&tags=CC||||8228.275|Price|product|||NA|rsf:gd-|-stype:attr=1|qr_nm:gd|res:RC3|com-cf:nl|ptrs:na|ktp:N0|mc:655885|mtp:S|qry_typ:P|lang:en|wc:2|cs:8900|v=4,Arsh Marketing,https://www.indiamart.com/arshmarketingahmedabad/?pos=139&kwd=musical walker&tags=CC||||8228.275|Price|product|||NA|rsf:gd-|-stype:attr=1|qr_nm:gd|res:RC3|com-cf:nl|ptrs:na|ktp:N0|mc:655885|mtp:S|qry_typ:P|lang:en|wc:2|cs:8900|v=4,False,Juhapura,Ahmedabad,"1153 1, Pankore Naka, G P O, Juhapura, Ahmedabad - 380001, Dist.Ahmedabad, Gujarat",8047546762,
12 Inch Steel And Plastic 8 Wheels Musical Baby Walker,https://www.indiamart.com/proddetail/8-wheels-musical-baby-walker-26044492648.html?pos=140&kwd=musical walker&tags=CC||||8661.854|Price|product|||NA|rsf:gd-|-stype:attr=1|qr_nm:gd|res:RC3|com-cf:nl|ptrs:na|ktp:N0|mc:655885|mtp:S|qry_typ:P|lang:en|wc:2|cs:8900|v=4,D. K Toys,https://www.indiamart.com/dk-toys-ludhiana/?pos=140&kwd=musical walker&tags=CC||||8661.854|Price|product|||NA|rsf:gd-|-stype:attr=1|qr_nm:gd|res:RC3|com-cf:nl|ptrs:na|ktp:N0|mc:655885|mtp:S|qry_typ:P|lang:en|wc:2|cs:8900|v=4,False,,Ludhiana,"4620/SCO-13, Urban Estate PH-1, Jamalpur, Ludhiana - 141010, Dist.Ludhiana, Punjab",8043853974,
"Plastic And Steel 2.6 Feet Musical Baby Walker, 6 Wheels",https://www.indiamart.com/proddetail/2-6-feet-musical-baby-walker-2849147548488.html?pos=141&kwd=musical walker&tags=CC||||8752.144|Price|product|||NA|rsf:gd-|-stype:attr=1|qr_nm:gd|res:RC3|com-cf:nl|ptrs:na|ktp:N0|mc:655885|mtp:S|qry_typ:P|lang:en|wc:2|cs:8900|v=4,M K Accessories,https://www.indiamart.com/m-k-accessoriesdelhi/?pos=141&kwd=musical walker&tags=CC||||8752.144|Price|product|||NA|rsf:gd-|-stype:attr=1|qr_nm:gd|res:RC3|com-cf:nl|ptrs:na|ktp:N0|mc:655885|mtp:S|qry_typ:P|lang:en|wc:2|cs:8900|v=4,False,,New Delhi,"F-263/9, First Floor, G.N. 9, Chand Bagh, North East Delhi, New Delhi - 110094, Dist.Delhi, Delhi",8047819072,
"Plastic And Stainless Steel 1 Year Musical Baby Walker, 8",https://www.indiamart.com/proddetail/1-year-musical-baby-walker-2849390069133.html?pos=142&kwd=musical walker&tags=CC||||9733.506|Price|product|||NA|rsf:gd-|-stype:attr=1|qr_nm:gd|res:RC3|com-cf:nl|ptrs:na|ktp:N0|mc:655885|mtp:S|qry_typ:P|lang:en|wc:2|cs:8900|v=4,G S Marketing,https://www.indiamart.com/gsmarketing-westbenngal/?pos=142&kwd=musical walker&tags=CC||||9733.506|Price|product|||NA|rsf:gd-|-stype:attr=1|qr_nm:gd|res:RC3|com-cf:nl|ptrs:na|ktp:N0|mc:655885|mtp:S|qry_typ:P|lang:en|wc:2|cs:8900|v=4,False,Bidhannagar,Durgapur,"Bhairab Park, Plot No-181, Bamunara, Bardhaman, Bidhannagar, Durgapur - 713212, West Bengal",7942786739,
"65cm Plastic Dash Crystal Musical Baby Walker, 8 Wheels",https://www.indiamart.com/proddetail/dash-crystal-musical-baby-walker-11925870948.html?pos=143&kwd=musical walker&tags=CC||||8476.868|Price|product|||NA|rsf:gd-|-stype:attr=1|qr_nm:gd|res:RC3|com-cf:nl|ptrs:na|ktp:N0|mc:655885|mtp:S|qry_typ:P|lang:en|wc:2|cs:8900|v=4,SMK Enterprises,https://www.indiamart.com/smkenterprisesaurangabad/?pos=143&kwd=musical walker&tags=CC||||8476.868|Price|product|||NA|rsf:gd-|-stype:attr=1|qr_nm:gd|res:RC3|com-cf:nl|ptrs:na|ktp:N0|mc:655885|mtp:S|qry_typ:P|lang:en|wc:2|cs:8900|v=4,False,Juna Bazar,Aurangabad,"Shop No-1/2, Opp Zain Tailor, Beside Axis Bank ATM,, Juna Bazar, Aurangabad - 431001, Maharashtra",7942554688,
AMALOVE Mama love Musical Baby Walkers,https://www.indiamart.com/proddetail/mama-love-musical-baby-walkers-19336790255.html?pos=144&kwd=musical walker&tags=CC||||8752.144|Price|product|||NA|rsf:gd-|-stype:attr=1|qr_nm:gd|res:RC3|com-cf:nl|ptrs:na|ktp:N0|mc:655885|mtp:S|qry_typ:P|lang:en|wc:2|cs:8900|v=4,Hitesh Toy Products,https://www.indiamart.com/hiteshtoyproducts/?pos=144&kwd=musical walker&tags=CC||||8752.144|Price|product|||NA|rsf:gd-|-stype:attr=1|qr_nm:gd|res:RC3|com-cf:nl|ptrs:na|ktp:N0|mc:655885|mtp:S|qry_typ:P|lang:en|wc:2|cs:8900|v=4,False,Bawana,New Delhi,"12/88,GEETA COLONY,,BLOCK 12 J 25, Sector 4,110039,Delhi, Bawana, New Delhi - 110031, Dist.Delhi, Delhi",8047668917,
Deziner Baby Walker - Musical,,Sarna Cycle Co.,https://www.indiamart.com/sarna-cycle/?pos=145&kwd=musical walker&tags=CC||||9045.955|Price|product|||NA|rsf:gd-|-stype:attr=1|qr_nm:gd|res:RC3|com-cf:nl|ptrs:na|ktp:N0|mc:655885|mtp:S|qry_typ:P|lang:en|wc:2|cs:8900|v=4,False,Colenal ganj,Kanpur,"Shop No. 95- 96, Cycle Market, Lal Imli Cycle Market GIC Intercillage, Lal Imli Mill, Colenal ganj, Kanpur - 208001, Uttar Pradesh",8047819665,
Baby Walker In Nickle & Musical,https://www.indiamart.com/proddetail/baby-walker-in-nickle-musical-17052520288.html?pos=146&kwd=musical walker&tags=CC||||8752.144|Price|product|||NA|rsf:gd-|-stype:attr=1|qr_nm:gd|res:RC3|com-cf:nl|ptrs:na|ktp:N0|mc:655885|mtp:S|qry_typ:P|lang:en|wc:2|cs:8900|v=4,SH. Vidyasagar Enterprises,https://www.indiamart.com/shvidyasagarenterprises/?pos=146&kwd=musical walker&tags=CC||||8752.144|Price|product|||NA|rsf:gd-|-stype:attr=1|qr_nm:gd|res:RC3|com-cf:nl|ptrs:na|ktp:N0|mc:655885|mtp:S|qry_typ:P|lang:en|wc:2|cs:8900|v=4,False,Shahdara,New Delhi,"C - 36, Khasra No. - 179, Shiv Mandir Marg, Babarpur, chajjupur, Shahdara, Delhi -, Shahdara, New Delhi - 110032, Dist.Delhi, Delhi",8043867972,
Pvc Single Horn Musical 8 Bend C.P Baby Walker,https://www.indiamart.com/proddetail/single-horn-musical-8-bend-c-p-baby-walker-23005696988.html?pos=147&kwd=musical walker&tags=CC||||8752.144|Price|product|||NA|rsf:gd-|-stype:attr=1|qr_nm:gd|res:RC3|com-cf:nl|ptrs:na|ktp:N0|mc:655885|mtp:S|qry_typ:P|lang:en|wc:2|cs:8900|v=4,Royal Enterprises,https://www.indiamart.com/royalenterprises-49300469/?pos=147&kwd=musical walker&tags=CC||||8752.144|Price|product|||NA|rsf:gd-|-stype:attr=1|qr_nm:gd|res:RC3|com-cf:nl|ptrs:na|ktp:N0|mc:655885|mtp:S|qry_typ:P|lang:en|wc:2|cs:8900|v=4,False,Mandoli Extension,New Delhi,"C block43 gali no - 5 Milan Garden mandoli, Mandoli Extension, New Delhi - 110093, Dist.Delhi, Delhi",8048372502,747
Walker,https://www.indiamart.com/proddetail/walker-13961464197.html?pos=148&kwd=musical walker&tags=CC||||8507.67|Price|product|||NA|rsf:gd-|-stype:attr=1|qr_nm:gd|res:RC3|com-cf:nl|ptrs:na|ktp:N0|mc:655885|mtp:S|qry_typ:P|lang:en|wc:2|cs:8900|v=4,Baby Care Stores,https://www.indiamart.com/baby-care-stores/?pos=148&kwd=musical walker&tags=CC||||8507.67|Price|product|||NA|rsf:gd-|-stype:attr=1|qr_nm:gd|res:RC3|com-cf:nl|ptrs:na|ktp:N0|mc:655885|mtp:S|qry_typ:P|lang:en|wc:2|cs:8900|v=4,False,Maradu,Ernakulam,"2nd Floor, Nucleus Mall, NH 49, Maradu, Maradu, Ernakulam - 682304, Dist.Ernakulam, Kerala",8069013474,416
Panda Walker,,P.K. Cycle Agencies,https://www.indiamart.com/company/27301132/?pos=149&kwd=musical walker&tags=CC||||8641.487|Price|product|||NA|rsf:gd-|-stype:attr=1|qr_nm:gd|res:RC3|com-cf:nl|ptrs:na|ktp:N0|mc:655885|mtp:S|qry_typ:P|lang:en|wc:2|cs:8900|v=4,False,Pratap Bagh,Jalandhar,",HOUSE NO.2,PARTAP BAGH,MANDI ROAD,, Pratap Bagh, Jalandhar - 144001, Dist.Jalandhar, Punjab",8048372047,862
Kids Walker,,Badshah Furniture,https://www.indiamart.com/badshahfurniture-27019857/?pos=150&kwd=musical walker&tags=CC||||8396.988||product|||NA|rsf:gd-|-stype:attr=1|qr_nm:gd|res:RC3|com-cf:nl|ptrs:na|ktp:N0|mc:655885|mtp:S|qry_typ:P|lang:en|wc:2|cs:8900|v=4,False,Aziz Market,Dohad,"Jesawada Road Jesawada Road, Aziz Market, Dohad - 389151, Dist.Dahod, Gujarat",8048372411,869
Baby Walker,https://www.indiamart.com/proddetail/baby-walker-12448495548.html?pos=151&kwd=musical walker&tags=CC||||8954.051|Price|product|||NA|rsf:gd-|-stype:attr=1|qr_nm:gd|res:RC3|com-cf:nl|ptrs:na|ktp:N0|mc:655885|mtp:S|qry_typ:P|lang:en|wc:2|cs:8900|v=4,Kankaria International,https://www.indiamart.com/kankariainternational/?pos=151&kwd=musical walker&tags=CC||||8954.051|Price|product|||NA|rsf:gd-|-stype:attr=1|qr_nm:gd|res:RC3|com-cf:nl|ptrs:na|ktp:N0|mc:655885|mtp:S|qry_typ:P|lang:en|wc:2|cs:8900|v=4,False,Krishnammal Road,Chennai,"Shop No. 148, Krishnammal Road, Chennai - 600034, Dist.Chennai, Tamil Nadu",8043802944,
Baby Walker,,Akay Rolling Mills Private Limited,https://www.indiamart.com/akay-rolling-mills/?pos=152&kwd=musical walker&tags=CC||||8752.144||product|||NA|rsf:gd-|-stype:attr=1|qr_nm:gd|res:RC3|com-cf:nl|ptrs:na|ktp:N0|mc:655885|mtp:S|qry_typ:P|lang:en|wc:2|cs:8900|v=4,False,Bali Nagar,New Delhi,"No. H-27, Bali Nagar, Bali Nagar, New Delhi - 110015, Dist.Delhi, Delhi",8048372274,137
Activity Walker,https://www.indiamart.com/proddetail/activity-walker-3621597233.html?pos=153&kwd=musical walker&tags=CC||||8954.051||product|||NA|rsf:gd-|-stype:attr=1|qr_nm:gd|res:RC3|com-cf:nl|ptrs:na|ktp:N0|mc:655885|mtp:S|qry_typ:P|lang:en|wc:2|cs:8900|v=4,Kids World,https://www.indiamart.com/kids-world-chennai/?pos=153&kwd=musical walker&tags=CC||||8954.051||product|||NA|rsf:gd-|-stype:attr=1|qr_nm:gd|res:RC3|com-cf:nl|ptrs:na|ktp:N0|mc:655885|mtp:S|qry_typ:P|lang:en|wc:2|cs:8900|v=4,False,Choolai,Chennai,"Plot No.8, Nehru Timber Market, New No.41,, Old No.14,1st Floor, Sattanna Naicken Street, Choolai, Choolai, Chennai - 600112, Dist.Chennai, Tamil Nadu",8047793260,
Baby Walker,https://www.indiamart.com/proddetail/baby-walker-7447467491.html?pos=154&kwd=musical walker&tags=CC||||8242.532|Price|product|||NA|rsf:gd-|-stype:attr=1|qr_nm:gd|res:RC3|com-cf:nl|ptrs:na|ktp:N0|mc:655885|mtp:S|qry_typ:P|lang:en|wc:2|cs:8900|v=4,Guru Kirpa Garments,https://www.indiamart.com/guru-kirpa-garments/?pos=154&kwd=musical walker&tags=CC||||8242.532|Price|product|||NA|rsf:gd-|-stype:attr=1|qr_nm:gd|res:RC3|com-cf:nl|ptrs:na|ktp:N0|mc:655885|mtp:S|qry_typ:P|lang:en|wc:2|cs:8900|v=4,False,,Mansa,"Khoo Wali Gali, Opposite Vijaya Bank Mans, Mansa - 151505, Gujarat",8048249733,8007
Baby Walker,https://www.indiamart.com/proddetail/baby-walker-25421273530.html?pos=155&kwd=musical walker&tags=CC||||8785.791|Price|product|||NA|rsf:gd-|-stype:attr=1|qr_nm:gd|res:RC3|com-cf:nl|ptrs:na|ktp:N0|mc:655885|mtp:S|qry_typ:P|lang:en|wc:2|cs:8900|v=4,Shree Jee Enterprises,https://www.indiamart.com/shreejeeenterprises-87386041/?pos=155&kwd=musical walker&tags=CC||||8785.791|Price|product|||NA|rsf:gd-|-stype:attr=1|qr_nm:gd|res:RC3|com-cf:nl|ptrs:na|ktp:N0|mc:655885|mtp:S|qry_typ:P|lang:en|wc:2|cs:8900|v=4,False,Nandni Kunj Nandgram,Ghaziabad,"C-653 Near New Ramlila Ground Telephone Exchange, Nandni Kunj Nandgram, Ghaziabad - 201001, Dist.Ghaziabad, Uttar Pradesh",8069033764,609
"30 Inch Plastic And Iron Baby Walker, 6",https://www.indiamart.com/proddetail/baby-walker-2849701341430.html?pos=156&kwd=musical walker&tags=CC||||8785.791|Price|product|||NA|rsf:gd-|-stype:attr=1|qr_nm:gd|res:RC3|com-cf:nl|ptrs:na|ktp:N0|mc:655885|mtp:S|qry_typ:P|lang:en|wc:2|cs:8900|v=4,Aryan Enterprises,https://www.indiamart.com/aryanenterprises-58562001/?pos=156&kwd=musical walker&tags=CC||||8785.791|Price|product|||NA|rsf:gd-|-stype:attr=1|qr_nm:gd|res:RC3|com-cf:nl|ptrs:na|ktp:N0|mc:655885|mtp:S|qry_typ:P|lang:en|wc:2|cs:8900|v=4,False,,Ghaziabad,"F-4,First Floor,435,Near By Sbi Atm,Ghaziabad,Ghaziabad, Ghaziabad - 201005, Dist.Ghaziabad, Uttar Pradesh",8069857304,270
"2 Plastic Baby Walker, 6, Ashoka 6wheel Chrome Music",https://www.indiamart.com/proddetail/baby-walker-25121231812.html?pos=157&kwd=musical walker&tags=CC||||8974.737|Price|product|||NA|rsf:gd-|-stype:attr=1|qr_nm:gd|res:RC3|com-cf:nl|ptrs:na|ktp:N0|mc:655885|mtp:S|qry_typ:P|lang:en|wc:2|cs:8900|v=4,Ashoka & Ashoka Company,https://www.indiamart.com/ashoka-ashoka-company/?pos=157&kwd=musical walker&tags=CC||||8974.737|Price|product|||NA|rsf:gd-|-stype:attr=1|qr_nm:gd|res:RC3|com-cf:nl|ptrs:na|ktp:N0|mc:655885|mtp:S|qry_typ:P|lang:en|wc:2|cs:8900|v=4,False,Rampur Garden,Bareilly,"35-9/A-4,,Rampur Garden,Civil Lines, Rampur Garden, Bareilly - 243001, Dist.Bareilly, Uttar Pradesh",8048372809,259
"ABS Plastic adjustable baby walker, 6 And 8, Lb 303 H",https://www.indiamart.com/proddetail/adjustable-baby-walker-22814401730.html?pos=158&kwd=musical walker&tags=CC||||8752.144|Price|product|||NA|rsf:gd-|-stype:attr=1|qr_nm:gd|res:RC3|com-cf:nl|ptrs:na|ktp:N0|mc:655885|mtp:S|qry_typ:P|lang:en|wc:2|cs:8900|v=4,Tradex Pro Private Limited,https://www.indiamart.com/tradexpro/?pos=158&kwd=musical walker&tags=CC||||8752.144|Price|product|||NA|rsf:gd-|-stype:attr=1|qr_nm:gd|res:RC3|com-cf:nl|ptrs:na|ktp:N0|mc:655885|mtp:S|qry_typ:P|lang:en|wc:2|cs:8900|v=4,False,Adarsh Nagar,New Delhi,"G Block Kh-8/20 Swaroop Nagar, Adarsh Nagar, New Delhi - 110042, Dist.Delhi, Delhi",7942559159,
BABY WALKER MUSICAL,,RDC Brothers,https://www.indiamart.com/rdc-brothers/?pos=159&kwd=musical walker&tags=CC||||8823.154|Price|product|||NA|rsf:gd-|-stype:attr=1|qr_nm:gd|res:RC3|com-cf:nl|ptrs:na|ktp:N0|mc:655885|mtp:S|qry_typ:P|lang:en|wc:2|cs:8900|v=4,False,Rajpur Chungi,Agra,"Near Rajeshwar mandir, Shamashabad road beside upadhyay tent house, Rajpur Chungi, Agra - 282001, Dist.Agra, Uttar Pradesh",8046067443,
Baby walker,https://www.indiamart.com/proddetail/baby-walker-11652369773.html?pos=160&kwd=musical walker&tags=CC||||10534.79|Price|product|||NA|rsf:gd-|-stype:attr=1|qr_nm:gd|res:RC3|com-cf:nl|ptrs:na|ktp:N0|mc:655885|mtp:S|qry_typ:P|lang:en|wc:2|cs:8900|v=4,Shakti Steels,https://www.indiamart.com/shaktisteels-tinsukia/?pos=160&kwd=musical walker&tags=CC||||10534.79|Price|product|||NA|rsf:gd-|-stype:attr=1|qr_nm:gd|res:RC3|com-cf:nl|ptrs:na|ktp:N0|mc:655885|mtp:S|qry_typ:P|lang:en|wc:2|cs:8900|v=4,False,Tinsukia,Tinsukia,"Gaurishankar Building, G. N. B. Road Ttoys, Tinsukia, Tinsukia - 786125, Dist.Tinsukia, Assam",8048201248,
Stainless Steel Baby walker,https://www.indiamart.com/proddetail/baby-walker-2854041651630.html?pos=161&kwd=musical walker&tags=CC||||9472.047|Price|product|||NA|rsf:gd-|-stype:attr=1|qr_nm:gd|res:RC3|com-cf:nl|ptrs:na|ktp:N0|mc:655885|mtp:S|qry_typ:P|lang:en|wc:2|cs:8900|v=4,Agrawal Multiplast,https://www.indiamart.com/kb-furnitures-arrah/?pos=161&kwd=musical walker&tags=CC||||9472.047|Price|product|||NA|rsf:gd-|-stype:attr=1|qr_nm:gd|res:RC3|com-cf:nl|ptrs:na|ktp:N0|mc:655885|mtp:S|qry_typ:P|lang:en|wc:2|cs:8900|v=4,False,Jail Road,Arrah,"Na, S/O M Pd Agrawal, Jail Road, Arrah NA, S/O M PD AGRAWAL, JAIL ROAD, ARRAH, Jail Road, Arrah - 802301, Dist.Bhojpur, Bihar",8048247119,6354
8 Wheel Green Plastic Baby Walker,https://www.indiamart.com/proddetail/8-wheel-green-plastic-baby-walker-24293721730.html?pos=162&kwd=musical walker&tags=CC||||8752.144|Price|product|||NA|rsf:gd-|-stype:attr=1|qr_nm:gd|res:RC3|com-cf:nl|ptrs:na|ktp:N0|mc:655885|mtp:S|qry_typ:P|lang:en|wc:2|cs:8900|v=4,Chauhan Sons,https://www.indiamart.com/chauhansons/?pos=162&kwd=musical walker&tags=CC||||8752.144|Price|product|||NA|rsf:gd-|-stype:attr=1|qr_nm:gd|res:RC3|com-cf:nl|ptrs:na|ktp:N0|mc:655885|mtp:S|qry_typ:P|lang:en|wc:2|cs:8900|v=4,False,Karawal Nagar delhi,New Delhi,"D-25, Khasra No. 228 Gali No. 6, Khajoori Khas, Karawal Nagar delhi, New Delhi - 110094, Dist.Delhi, Delhi",7942534470,
"2 Feet Plastic Pink Baby Music Walker, 6",https://www.indiamart.com/proddetail/pink-baby-music-walker-20911737630.html?pos=163&kwd=musical walker&tags=CC||||8752.144|Price|product|||NA|rsf:gd-|-stype:attr=1|qr_nm:gd|res:RC3|com-cf:nl|ptrs:na|ktp:N0|mc:655885|mtp:S|qry_typ:P|lang:en|wc:2|cs:8900|v=4,Shiva Swing Works,https://www.indiamart.com/shiva-swing-works/?pos=163&kwd=musical walker&tags=CC||||8752.144|Price|product|||NA|rsf:gd-|-stype:attr=1|qr_nm:gd|res:RC3|com-cf:nl|ptrs:na|ktp:N0|mc:655885|mtp:S|qry_typ:P|lang:en|wc:2|cs:8900|v=4,False,Mustafabad North East Delhi,New Delhi,"B-470, Gali No. 19, Mahalakshmi Enclave, Bhagat Vihar, Karawal Nagar, Mustafabad North East Delhi, New Delhi - 110094, Dist.Delhi, Delhi",8045911773,
Walker Cum Rocker,https://www.indiamart.com/proddetail/walker-cum-rocker-6819462530.html?pos=164&kwd=musical walker&tags=CC||||8752.144||product|||NA|rsf:gd-|-stype:attr=1|qr_nm:gd|res:RC3|com-cf:nl|ptrs:na|ktp:N0|mc:655885|mtp:S|qry_typ:P|lang:en|wc:2|cs:8900|v=4,Kgloballyurs,https://www.indiamart.com/kgloballyurs/?pos=164&kwd=musical walker&tags=CC||||8752.144||product|||NA|rsf:gd-|-stype:attr=1|qr_nm:gd|res:RC3|com-cf:nl|ptrs:na|ktp:N0|mc:655885|mtp:S|qry_typ:P|lang:en|wc:2|cs:8900|v=4,False,Pitampura,New Delhi,"C-181, Maharana Pratap Enclave,, Pitampura, New Delhi - 110034, Dist.Delhi, Delhi",8045849792,549
Sunbaby Bouncer With Music And Vibration,https://www.indiamart.com/proddetail/sunbaby-bouncer-with-music-and-vibration-6617046748.html?pos=165&kwd=musical walker&tags=CC||||8228.275||product|||NA|rsf:gd-|-stype:attr=1|qr_nm:gd|res:RC3|com-cf:nl|ptrs:na|ktp:N0|mc:655885|mtp:S|qry_typ:P|lang:en|wc:2|cs:8900|v=4,Nikiz Dot Com,https://www.indiamart.com/nikiz-ahmedabad/?pos=165&kwd=musical walker&tags=CC||||8228.275||product|||NA|rsf:gd-|-stype:attr=1|qr_nm:gd|res:RC3|com-cf:nl|ptrs:na|ktp:N0|mc:655885|mtp:S|qry_typ:P|lang:en|wc:2|cs:8900|v=4,False,Navrangpura,Ahmedabad,"Webtech System, No. 203, Kashiparekh Complex, Opposite City Centre, Swastik Cross Roads, Navrangpura, Navrangpura, Ahmedabad - 380009, Dist.Ahmedabad, Gujarat",8045849605,562
888 Baby Walker,,Swastik Kids Products,https://www.indiamart.com/swastik-enterprises/?pos=166&kwd=musical walker&tags=CC||||8752.144||product|||NA|rsf:gd-|-stype:attr=1|qr_nm:gd|res:RC3|com-cf:nl|ptrs:na|ktp:N0|mc:655885|mtp:S|qry_typ:P|lang:en|wc:2|cs:8900|v=4,False,Babarpur,New Delhi,"E/1052, Indra Gali, Babarpur Shahdara, Babarpur, New Delhi - 110032, Dist.Delhi, Delhi",8043885652,
"FATEVALLEY Baby Walker, 8",https://www.indiamart.com/proddetail/fatevalley-baby-walker-24737277097.html?pos=167&kwd=musical walker&tags=CC||||8752.144|Price|product|||NA|rsf:gd-|-stype:attr=1|qr_nm:gd|res:RC3|com-cf:nl|ptrs:na|ktp:N0|mc:655885|mtp:S|qry_typ:P|lang:en|wc:2|cs:8900|v=4,Fatevalley,https://www.indiamart.com/fatevalley/?pos=167&kwd=musical walker&tags=CC||||8752.144|Price|product|||NA|rsf:gd-|-stype:attr=1|qr_nm:gd|res:RC3|com-cf:nl|ptrs:na|ktp:N0|mc:655885|mtp:S|qry_typ:P|lang:en|wc:2|cs:8900|v=4,False,Rohini,New Delhi,"A-222 RAMESH ENCLAVE STREET NO 8 DELHI North Near Rohini Sector-21, Rohini, New Delhi - 110086, Dist.Delhi, Delhi",8047690254,
Blue Plastic Sunny Dx Baby Walker,https://www.indiamart.com/proddetail/sunny-dx-baby-walker-19300327533.html?pos=168&kwd=musical walker&tags=CC||||9839.57||product|||NA|rsf:gd-|-stype:attr=1|qr_nm:gd|res:RC3|com-cf:nl|ptrs:na|ktp:N0|mc:655885|mtp:S|qry_typ:P|lang:en|wc:2|cs:8900|v=4,Lakshmi Cycle & Sons,https://www.indiamart.com/lakshmi-cycle-sons-kolkata/?pos=168&kwd=musical walker&tags=CC||||9839.57||product|||NA|rsf:gd-|-stype:attr=1|qr_nm:gd|res:RC3|com-cf:nl|ptrs:na|ktp:N0|mc:655885|mtp:S|qry_typ:P|lang:en|wc:2|cs:8900|v=4,False,Chowringhee North,Kolkata,"30,BANTINCK STREET,,KOLKATA 30, Bentick Street,700001,Kolkata, Chowringhee North, Kolkata - 700069, Dist.Kolkata, West Bengal",7942709621,
"24 Inch Plastic Genie Baby Walker, 4",https://www.indiamart.com/proddetail/genie-baby-walker-2852545385073.html?pos=169&kwd=musical walker&tags=CC||||8211.142|Price|product|||NA|rsf:gd-|-stype:attr=1|qr_nm:gd|res:RC3|com-cf:nl|ptrs:na|ktp:N0|mc:655885|mtp:S|qry_typ:P|lang:en|wc:2|cs:8900|v=4,Spinners Bicycles And Fitness,https://www.indiamart.com/spinnersbicyclesfitness/?pos=169&kwd=musical walker&tags=CC||||8211.142|Price|product|||NA|rsf:gd-|-stype:attr=1|qr_nm:gd|res:RC3|com-cf:nl|ptrs:na|ktp:N0|mc:655885|mtp:S|qry_typ:P|lang:en|wc:2|cs:8900|v=4,False,,Mumbai,"Mezzanine Floor, 203/205, Cream Apartment, Sheriff Devji Street, Chakla, Mandvi,, Mumbai - 400003, Dist.Mumbai, Maharashtra",7942711423,
Sunbaby Mousie Walker,https://www.indiamart.com/proddetail/sunbaby-mousie-walker-16034371862.html?pos=170&kwd=musical walker&tags=CC||||8752.144|Price|product|||NA|rsf:gd-|-stype:attr=1|qr_nm:gd|res:RC3|com-cf:nl|ptrs:na|ktp:N0|mc:655885|mtp:S|qry_typ:P|lang:en|wc:2|cs:8900|v=4,I Tigar Shop Dot Com,https://www.indiamart.com/i-tigar-shopcom/?pos=170&kwd=musical walker&tags=CC||||8752.144|Price|product|||NA|rsf:gd-|-stype:attr=1|qr_nm:gd|res:RC3|com-cf:nl|ptrs:na|ktp:N0|mc:655885|mtp:S|qry_typ:P|lang:en|wc:2|cs:8900|v=4,False,,New Delhi,"Near Indira Gandhi Gandhi International Airport, New Delhi - 110037, Dist.Delhi, Delhi",8048372371,331
"40 cm Plastic Kids Music Walker, 4, HE0801(12)",https://www.indiamart.com/proddetail/kids-music-walker-24248633588.html?pos=171&kwd=musical walker&tags=CC||||8211.142|Price|product|||NA|rsf:gd-|-stype:attr=1|qr_nm:gd|res:RC3|com-cf:nl|ptrs:na|ktp:N0|mc:655885|mtp:S|qry_typ:P|lang:en|wc:2|cs:8900|v=4,Toy Kingdom,https://www.indiamart.com/toykingdommumbai/?pos=171&kwd=musical walker&tags=CC||||8211.142|Price|product|||NA|rsf:gd-|-stype:attr=1|qr_nm:gd|res:RC3|com-cf:nl|ptrs:na|ktp:N0|mc:655885|mtp:S|qry_typ:P|lang:en|wc:2|cs:8900|v=4,False,,Mumbai,"Shop No. 2, Ground Floor, Unity Chs, Road 186-188-190, Sheriff Deoji Street, Mandvi, Mumbai - 400003, Dist.Mumbai, Maharashtra",8048603195,
Yellow Baby Walker,https://www.indiamart.com/proddetail/yellow-baby-walker-22982767997.html?pos=172&kwd=musical walker&tags=CC||||9839.57|Price|product|||NA|rsf:gd-|-stype:attr=1|qr_nm:gd|res:RC3|com-cf:nl|ptrs:na|ktp:N0|mc:655885|mtp:S|qry_typ:P|lang:en|wc:2|cs:8900|v=4,Mitra Cycle Stores,https://www.indiamart.com/mitracyclestores/?pos=172&kwd=musical walker&tags=CC||||9839.57|Price|product|||NA|rsf:gd-|-stype:attr=1|qr_nm:gd|res:RC3|com-cf:nl|ptrs:na|ktp:N0|mc:655885|mtp:S|qry_typ:P|lang:en|wc:2|cs:8900|v=4,False,,Kolkata,"38/1, Jessore Road, Barasat, , North Twenty Four Parganas, Kolkata - 700124, Dist.Kolkata, West Bengal",8046066834,
Baby Walker BW05 Blue,https://www.indiamart.com/proddetail/baby-walker-bw05-blue-8933147797.html?pos=173&kwd=musical walker&tags=CC||||8211.142||product|||NA|rsf:gd-|-stype:attr=1|qr_nm:gd|res:RC3|com-cf:nl|ptrs:na|ktp:N0|mc:655885|mtp:S|qry_typ:P|lang:en|wc:2|cs:8900|v=4,Mahesh & Sons HUF,https://www.indiamart.com/mahesh-and-sons-huf/?pos=173&kwd=musical walker&tags=CC||||8211.142||product|||NA|rsf:gd-|-stype:attr=1|qr_nm:gd|res:RC3|com-cf:nl|ptrs:na|ktp:N0|mc:655885|mtp:S|qry_typ:P|lang:en|wc:2|cs:8900|v=4,False,Santacruz East,Mumbai,"B 3/2, BK Chhabra Estate, Santacruz East, Mumbai - 400055, Dist.Mumbai, Maharashtra",8047668053,
Plastic Adjustable Baby Walker,https://www.indiamart.com/proddetail/adjustable-baby-walker-2853111643855.html?pos=174&kwd=musical walker&tags=CC||||10104.094|Price|product|||NA|rsf:gd-|-stype:attr=1|qr_nm:gd|res:RC3|com-cf:nl|ptrs:na|ktp:N0|mc:655885|mtp:S|qry_typ:P|lang:en|wc:2|cs:8900|v=4,M/S ALFA SALES & SERVICES,https://www.indiamart.com/machine-and-other-equiptment-consultant/?pos=174&kwd=musical walker&tags=CC||||10104.094|Price|product|||NA|rsf:gd-|-stype:attr=1|qr_nm:gd|res:RC3|com-cf:nl|ptrs:na|ktp:N0|mc:655885|mtp:S|qry_typ:P|lang:en|wc:2|cs:8900|v=4,False,ward no 9,Barpeta Road,"NORTH BARPETA ROAD shanti nagar, ward no 9, Barpeta Road - 781315, Dist.Barpeta, Assam",8048361285,231
Fancy Baby Walker,https://www.indiamart.com/proddetail/fancy-baby-walker-23767430088.html?pos=175&kwd=musical walker&tags=CC||||8646.539|Price|product|||NA|rsf:gd-|-stype:attr=1|qr_nm:gd|res:RC3|com-cf:nl|ptrs:na|ktp:N0|mc:655885|mtp:S|qry_typ:P|lang:en|wc:2|cs:8900|v=4,Sardar Cycle Store,https://www.indiamart.com/sardar-cycle-store-fatehnagar/?pos=175&kwd=musical walker&tags=CC||||8646.539|Price|product|||NA|rsf:gd-|-stype:attr=1|qr_nm:gd|res:RC3|com-cf:nl|ptrs:na|ktp:N0|mc:655885|mtp:S|qry_typ:P|lang:en|wc:2|cs:8900|v=4,False,Fatehnagar Rajasthan,Sawai Madhopur,"0,,M.P.COLONY,BAJRIYA Pratap chiraya , Main Charura ,,313205,Fatehnagar, Fatehnagar Rajasthan, Sawai Madhopur - 322001, Dist.Sawai Madhopur, Rajasthan",8048247140,5422
"Giggles - Activity Walker, Multicolour Wooden Musical Walker,",,Poddar & Sons,https://www.indiamart.com/poddarsonsnewdelhi/?pos=176&kwd=musical walker&tags=CC||||8752.144|Price|product|||NA|rsf:gd-|-stype:attr=1|qr_nm:gd|res:RC3|com-cf:nl|ptrs:na|ktp:N0|mc:655885|mtp:S|qry_typ:P|lang:en|wc:2|cs:8900|v=4,False,,New Delhi,"R 14 Ground Floor, Pul Prahladpur, Mehrauli Badarpur Mehrauli Road, South Delhi, New Delhi - 110019, Dist.Delhi, Delhi",8048274828,
"1.5feet Baby Plastic Music Walker, 6",https://www.indiamart.com/proddetail/baby-plastic-music-walker-26229451673.html?pos=177&kwd=musical walker&tags=CC||||8752.144|Price|product|||NA|rsf:gd-|-stype:attr=1|qr_nm:gd|res:RC3|com-cf:nl|ptrs:na|ktp:N0|mc:655885|mtp:S|qry_typ:P|lang:en|wc:2|cs:8900|v=4,Poonam Enterprises,https://www.indiamart.com/poonam-enterprisesdelhi/?pos=177&kwd=musical walker&tags=CC||||8752.144|Price|product|||NA|rsf:gd-|-stype:attr=1|qr_nm:gd|res:RC3|com-cf:nl|ptrs:na|ktp:N0|mc:655885|mtp:S|qry_typ:P|lang:en|wc:2|cs:8900|v=4,False,,New Delhi,"House No.95A,Sarojini Naidu Park, Shastri Nagar, East Delhi, New Delhi - 110031, Dist.Delhi, Delhi",8048269027,
Baby Walker With Music,https://www.indiamart.com/proddetail/baby-walker-with-music-10767740591.html?pos=178&kwd=musical walker&tags=CC||||8661.854|Price|product|||NA|rsf:gd-|-stype:attr=1|qr_nm:gd|res:RC3|com-cf:nl|ptrs:na|ktp:N0|mc:655885|mtp:S|qry_typ:P|lang:en|wc:2|cs:8900|v=4,Rocket Cycle Private Limited,https://www.indiamart.com/imperial-cycle-manufacturing/?pos=178&kwd=musical walker&tags=CC||||8661.854|Price|product|||NA|rsf:gd-|-stype:attr=1|qr_nm:gd|res:RC3|com-cf:nl|ptrs:na|ktp:N0|mc:655885|mtp:S|qry_typ:P|lang:en|wc:2|cs:8900|v=4,False,Focal Point,Ludhiana,"C-184, Phase 6, Focal Point, Focal Point, Ludhiana - 141010, Dist.Ludhiana, Punjab",8043883204,
75cm Plastic Music Baby Walker,https://www.indiamart.com/proddetail/plastic-music-baby-walker-22804331233.html?pos=179&kwd=musical walker&tags=CC||||8752.144|Price|product|||NA|rsf:gd-|-stype:attr=1|qr_nm:gd|res:RC3|com-cf:nl|ptrs:na|ktp:N0|mc:655885|mtp:S|qry_typ:P|lang:en|wc:2|cs:8900|v=4,Vinoresa Enterprises,https://www.indiamart.com/vinoresa-enterprises/?pos=179&kwd=musical walker&tags=CC||||8752.144|Price|product|||NA|rsf:gd-|-stype:attr=1|qr_nm:gd|res:RC3|com-cf:nl|ptrs:na|ktp:N0|mc:655885|mtp:S|qry_typ:P|lang:en|wc:2|cs:8900|v=4,False,Karawal nagar,New Delhi,"Shiv Vihar, Karawal nagar, New Delhi - 110094, Dist.Delhi, Delhi",8069196737,486
Shop And Learn Walker,https://www.indiamart.com/proddetail/shop-and-learn-walker-3363483033.html?pos=180&kwd=musical walker&tags=CC||||8954.051||product|||NA|rsf:gd-|-stype:attr=1|qr_nm:gd|res:RC3|com-cf:nl|ptrs:na|ktp:N0|mc:655885|mtp:S|qry_typ:P|lang:en|wc:2|cs:8900|v=4,Toyz Day Out,https://www.indiamart.com/toyz-day-out-chennai/?pos=180&kwd=musical walker&tags=CC||||8954.051||product|||NA|rsf:gd-|-stype:attr=1|qr_nm:gd|res:RC3|com-cf:nl|ptrs:na|ktp:N0|mc:655885|mtp:S|qry_typ:P|lang:en|wc:2|cs:8900|v=4,False,Velacheri,Chennai,"No. 27 & 28, Velachery Main Road, Above Nathella Jewellery, Velacheri, Chennai - 600042, Dist.Chennai, Tamil Nadu",8048372235,566
"Up To 1. 5 Feet Plastic Baby Walker With Music, 6",https://www.indiamart.com/proddetail/baby-walker-with-music-22933829497.html?pos=181&kwd=musical walker&tags=CC||||8752.144|Price|product|||NA|rsf:gd-|-stype:attr=1|qr_nm:gd|res:RC3|com-cf:nl|ptrs:na|ktp:N0|mc:655885|mtp:S|qry_typ:P|lang:en|wc:2|cs:8900|v=4,K.L Baby Product,https://www.indiamart.com/kl-baby-products/?pos=181&kwd=musical walker&tags=CC||||8752.144|Price|product|||NA|rsf:gd-|-stype:attr=1|qr_nm:gd|res:RC3|com-cf:nl|ptrs:na|ktp:N0|mc:655885|mtp:S|qry_typ:P|lang:en|wc:2|cs:8900|v=4,False,,New Delhi,"B/136 K.H NUMBER 29/4 B- BLOCK SUSHILA GARDEN,STREET NUMBER 8,,MANDOLI ROAD Gali No. 7, House No. 308, Neelam Garden,110094,Delhi, New Delhi - 110093, Dist.Delhi, Delhi",8043819547,
Capsule ring Apple music Walker,,Rahul Toys,https://www.indiamart.com/rahultoys/?pos=182&kwd=musical walker&tags=CC||||8752.144|Price|product|||NA|rsf:gd-|-stype:attr=1|qr_nm:gd|res:RC3|com-cf:nl|ptrs:na|ktp:N0|mc:655885|mtp:S|qry_typ:P|lang:en|wc:2|cs:8900|v=4,False,Karawal Nagar,New Delhi,"B 127, Gali Number 3/3, Ambika Vihar, Shiv Vihar, Karawal Nagar, New Delhi - 110094, Dist.Delhi, Delhi",7942564058,
Plastic Small Music Grip Walker,https://www.indiamart.com/proddetail/small-music-grip-walker-23558851833.html?pos=183&kwd=musical walker&tags=CC||||8785.791|Price|product|||NA|rsf:gd-|-stype:attr=1|qr_nm:gd|res:RC3|com-cf:nl|ptrs:na|ktp:N0|mc:655885|mtp:S|qry_typ:P|lang:en|wc:2|cs:8900|v=4,Krishana Enterprises Baby Products,https://www.indiamart.com/krishanaenterprises-baby-products/?pos=183&kwd=musical walker&tags=CC||||8785.791|Price|product|||NA|rsf:gd-|-stype:attr=1|qr_nm:gd|res:RC3|com-cf:nl|ptrs:na|ktp:N0|mc:655885|mtp:S|qry_typ:P|lang:en|wc:2|cs:8900|v=4,False,,Ghaziabad,"G-3264, Nanda Colony, Ram Park, Loni, Ghaziabad - 201102, Dist.Ghaziabad, Uttar Pradesh",8046078434,
"2.5 Feet Plastic Music Baby Walker, 4 Wheel",https://www.indiamart.com/proddetail/plastic-music-baby-walker-2852711465397.html?pos=184&kwd=musical walker&tags=CC||||8231.259||product|||NA|rsf:gd-|-stype:attr=1|qr_nm:gd|res:RC3|com-cf:nl|ptrs:na|ktp:N0|mc:655885|mtp:S|qry_typ:P|lang:en|wc:2|cs:8900|v=4,Bush Impex,https://www.indiamart.com/bush-impex-bhiwandimaharashtra/?pos=184&kwd=musical walker&tags=CC||||8231.259||product|||NA|rsf:gd-|-stype:attr=1|qr_nm:gd|res:RC3|com-cf:nl|ptrs:na|ktp:N0|mc:655885|mtp:S|qry_typ:P|lang:en|wc:2|cs:8900|v=4,False,,Bhiwandi,"6th, 603, A Wing., Farid Arcade, Khandupada, Thane, Bhiwandi - 421302, Maharashtra",7942717940,
"18 Inch Crc Pipe BABY WALKER 8 WHEEL, Music",https://www.indiamart.com/proddetail/baby-walker-8-wheel-22667080297.html?pos=185&kwd=musical walker&tags=CC||||8752.144|Price|product|||NA|rsf:gd-|-stype:attr=1|qr_nm:gd|res:RC3|com-cf:nl|ptrs:na|ktp:N0|mc:655885|mtp:S|qry_typ:P|lang:en|wc:2|cs:8900|v=4,Shiv Shakti Steel Industries,https://www.indiamart.com/shivshaktisteelindustries/?pos=185&kwd=musical walker&tags=CC||||8752.144|Price|product|||NA|rsf:gd-|-stype:attr=1|qr_nm:gd|res:RC3|com-cf:nl|ptrs:na|ktp:N0|mc:655885|mtp:S|qry_typ:P|lang:en|wc:2|cs:8900|v=4,False,,New Delhi,"Plot No.576 Khasra No. 957 Sultan Puri Road Furniture Mkt Kirari Delhi, New Delhi - 110086, Dist.Delhi, Delhi",8047841100,
1st Step Baby Walker With Music,https://www.indiamart.com/proddetail/1st-step-baby-walker-with-music-3837270462.html?pos=186&kwd=musical walker&tags=CC||||8230.883||product|||NA|rsf:gd-|-stype:attr=1|qr_nm:gd|res:RC3|com-cf:nl|ptrs:na|ktp:N0|mc:655885|mtp:S|qry_typ:P|lang:en|wc:2|cs:8900|v=4,Yapaa Dot Com,https://www.indiamart.com/yapaa-dsurat/?pos=186&kwd=musical walker&tags=CC||||8230.883||product|||NA|rsf:gd-|-stype:attr=1|qr_nm:gd|res:RC3|com-cf:nl|ptrs:na|ktp:N0|mc:655885|mtp:S|qry_typ:P|lang:en|wc:2|cs:8900|v=4,False,,Surat,"Ghod Dod Road, Surat - 395007, Dist.Surat, Gujarat",8047308899,7252
18inch Plastic Baby Walker,https://www.indiamart.com/proddetail/18inch-plastic-baby-walker-2850505382712.html?pos=187&kwd=musical walker&tags=CC||||8383.113|Price|product|||NA|rsf:gd-|-stype:attr=1|qr_nm:gd|res:RC3|com-cf:nl|ptrs:na|ktp:N0|mc:655885|mtp:S|qry_typ:P|lang:en|wc:2|cs:8900|v=4,Star Riders,https://www.indiamart.com/starrider/?pos=187&kwd=musical walker&tags=CC||||8383.113|Price|product|||NA|rsf:gd-|-stype:attr=1|qr_nm:gd|res:RC3|com-cf:nl|ptrs:na|ktp:N0|mc:655885|mtp:S|qry_typ:P|lang:en|wc:2|cs:8900|v=4,False,,Moodbidri,"2-1-16, Shop No 106, First Floor, Fortune Highway, Moodbidri, Dakshina Kannada, Moodbidri - 574227, Karnataka",7942823643,
Plastic Baby Pink Music Walker,https://www.indiamart.com/proddetail/baby-pink-music-walker-20563061173.html?pos=188&kwd=musical walker&tags=CC||||8559.269|Price|product|||NA|rsf:gd-|-stype:attr=1|qr_nm:gd|res:RC3|com-cf:nl|ptrs:na|ktp:N0|mc:655885|mtp:S|qry_typ:P|lang:en|wc:2|cs:8900|v=4,Mehta Enterprises,https://www.indiamart.com/mehta-entps-indore/?pos=188&kwd=musical walker&tags=CC||||8559.269|Price|product|||NA|rsf:gd-|-stype:attr=1|qr_nm:gd|res:RC3|com-cf:nl|ptrs:na|ktp:N0|mc:655885|mtp:S|qry_typ:P|lang:en|wc:2|cs:8900|v=4,False,Scheme 54 PU4,Indore,"Shop no. 106,First Floor, 148 Hanuman Plaza, Imli bazar,INDORE AH-215, Scheme No. 54, Vijay Nagar,452010,Indore, Scheme 54 PU4, Indore - 452007, Dist.Indore, Madhya Pradesh",8043826421,
Hoopoe 1601 Baby Walker,https://www.indiamart.com/proddetail/hoopoe-1601-baby-walker-23052792348.html?pos=189&kwd=musical walker&tags=CC||||8230.883|Price|product|||NA|rsf:gd-|-stype:attr=1|qr_nm:gd|res:RC3|com-cf:nl|ptrs:na|ktp:N0|mc:655885|mtp:S|qry_typ:P|lang:en|wc:2|cs:8900|v=4,National Traders,https://www.indiamart.com/national-traders-surat/?pos=189&kwd=musical walker&tags=CC||||8230.883|Price|product|||NA|rsf:gd-|-stype:attr=1|qr_nm:gd|res:RC3|com-cf:nl|ptrs:na|ktp:N0|mc:655885|mtp:S|qry_typ:P|lang:en|wc:2|cs:8900|v=4,False,Gopipura,Surat,"12/1339, Mughal Mahal Basement , Behind SMC, Turkiwad Turkiwad, Gopipura, Surat - 395003, Dist.Surat, Gujarat",8047668591,
"Plastic And Steel Mango Music Coating Walker, for School/Play School",https://www.indiamart.com/proddetail/mango-music-coating-walker-21953294030.html?pos=190&kwd=musical walker&tags=CC||||8364.597|Price|product|||NA|rsf:gd-|-stype:attr=1|qr_nm:gd|res:RC3|com-cf:nl|ptrs:na|ktp:N0|mc:655885|mtp:S|qry_typ:P|lang:en|wc:2|cs:8900|v=4,Ramesh Cycle Store,https://www.indiamart.com/rameshcyclestore/?pos=190&kwd=musical walker&tags=CC||||8364.597|Price|product|||NA|rsf:gd-|-stype:attr=1|qr_nm:gd|res:RC3|com-cf:nl|ptrs:na|ktp:N0|mc:655885|mtp:S|qry_typ:P|lang:en|wc:2|cs:8900|v=4,False,,Udaipur,"Plot No.117,118,Teliwara Bhamashah Marg, Udaipur - 313001, Rajasthan",7942541753,
"1 Feet Iron,Cloth And Plastic Bheem Grip Music Baby Walker, 6",https://www.indiamart.com/proddetail/bheem-grip-music-baby-walker-22905322297.html?pos=191&kwd=musical walker&tags=CC||||8752.144|Price|product|||NA|rsf:gd-|-stype:attr=1|qr_nm:gd|res:RC3|com-cf:nl|ptrs:na|ktp:N0|mc:655885|mtp:S|qry_typ:P|lang:en|wc:2|cs:8900|v=4,Toy Factory,https://www.indiamart.com/toy-factory-delhi/?pos=191&kwd=musical walker&tags=CC||||8752.144|Price|product|||NA|rsf:gd-|-stype:attr=1|qr_nm:gd|res:RC3|com-cf:nl|ptrs:na|ktp:N0|mc:655885|mtp:S|qry_typ:P|lang:en|wc:2|cs:8900|v=4,False,,New Delhi,"7/33, Geeta Colony, East Delhi, New Delhi - 110031, Dist.Delhi, Delhi",8048981652,
Red Pink Yellow Plastics & Steal Fancy Music Walkers 8bend Pvc Ring,https://www.indiamart.com/proddetail/fancy-music-walkers-8bend-pvc-ring-19108239230.html?pos=192&kwd=musical walker&tags=CC||||8752.144|Price|product|||NA|rsf:gd-|-stype:attr=1|qr_nm:gd|res:RC3|com-cf:nl|ptrs:na|ktp:N0|mc:655885|mtp:S|qry_typ:P|lang:en|wc:2|cs:8900|v=4,Swastik Infrastructure,https://www.indiamart.com/little-champs-a-brand-of-swastik-inf/?pos=192&kwd=musical walker&tags=CC||||8752.144|Price|product|||NA|rsf:gd-|-stype:attr=1|qr_nm:gd|res:RC3|com-cf:nl|ptrs:na|ktp:N0|mc:655885|mtp:S|qry_typ:P|lang:en|wc:2|cs:8900|v=4,False,Geeta Colony,New Delhi,"D- 8, Rani Garden, Geeta Colony, Geeta Colony, New Delhi - 110031, Dist.Delhi, Delhi",8048371830,358
"20 Inch Mee Mee PVC Baby Walker, 6",https://www.indiamart.com/proddetail/mee-mee-pvc-baby-walker-2851821371688.html?pos=193&kwd=musical walker&tags=CC||||8663.873|Price|product|||NA|rsf:gd-|-stype:attr=1|qr_nm:gd|res:RC3|com-cf:nl|ptrs:na|ktp:N0|mc:655885|mtp:S|qry_typ:P|lang:en|wc:2|cs:8900|v=4,Krishna Born Baby,https://www.indiamart.com/krishna-born-baby/?pos=193&kwd=musical walker&tags=CC||||8663.873|Price|product|||NA|rsf:gd-|-stype:attr=1|qr_nm:gd|res:RC3|com-cf:nl|ptrs:na|ktp:N0|mc:655885|mtp:S|qry_typ:P|lang:en|wc:2|cs:8900|v=4,False,,Bengaluru,"No 524, 24th Main, HSR Layout Sector-2, Urban, Bengaluru - 560102, Dist.Bengaluru, Karnataka",8047671592,
"Plastic Baby Walkers Kids Walkers With Music Panel, 6",https://www.indiamart.com/proddetail/baby-walkers-kids-walkers-with-music-panel-2852925747688.html?pos=194&kwd=musical walker&tags=CC||||8624.416|Price|product|||NA|rsf:gd-|-stype:attr=1|qr_nm:gd|res:RC3|com-cf:nl|ptrs:na|ktp:N0|mc:655885|mtp:S|qry_typ:P|lang:en|wc:2|cs:8900|v=4,JSD Impex,https://www.indiamart.com/jsd-impex-hisar/?pos=194&kwd=musical walker&tags=CC||||8624.416|Price|product|||NA|rsf:gd-|-stype:attr=1|qr_nm:gd|res:RC3|com-cf:nl|ptrs:na|ktp:N0|mc:655885|mtp:S|qry_typ:P|lang:en|wc:2|cs:8900|v=4,False,,Hisar,"274 B, Model Town, Hisar - 125001, Dist.Hisar, Haryana",8047622417,
"1.5 Feet Plastic Pink Lion Music Baby Walker, 8 Wheel",https://www.indiamart.com/proddetail/plastic-pink-lion-music-baby-walker-2849753037512.html?pos=195&kwd=musical walker&tags=CC||||8752.144|Price|product|||NA|rsf:gd-|-stype:attr=1|qr_nm:gd|res:RC3|com-cf:nl|ptrs:na|ktp:N0|mc:655885|mtp:S|qry_typ:P|lang:en|wc:2|cs:8900|v=4,Little's Kingdom Toys World,https://www.indiamart.com/littleskingdomtoysworld/?pos=195&kwd=musical walker&tags=CC||||8752.144|Price|product|||NA|rsf:gd-|-stype:attr=1|qr_nm:gd|res:RC3|com-cf:nl|ptrs:na|ktp:N0|mc:655885|mtp:S|qry_typ:P|lang:en|wc:2|cs:8900|v=4,False,,New Delhi,"H No 268/A, Khasra No 268,Om Bikanerwali Gali, Village Krawal Nagar, New Delhi - 110094, Dist.Delhi, Delhi",7942796805,
Plastic Wireless Gooyo Musical Phone Toy,https://www.indiamart.com/proddetail/gooyo-musical-phone-toy-2853256590873.html?pos=196&kwd=musical walker&tags=CC||||8752.144|Price|product|||NA|rsf:gd-|-stype:attr=1|qr_nm:gd|res:RC3|com-cf:nl|ptrs:na|ktp:N0|mc:655885|mtp:S|qry_typ:P|lang:en|wc:2|cs:8900|v=4,Bellerosa Marketing,https://www.indiamart.com/bellerosa-marketing-new-delhi/?pos=196&kwd=musical walker&tags=CC||||8752.144|Price|product|||NA|rsf:gd-|-stype:attr=1|qr_nm:gd|res:RC3|com-cf:nl|ptrs:na|ktp:N0|mc:655885|mtp:S|qry_typ:P|lang:en|wc:2|cs:8900|v=4,False,,New Delhi,"Block P P 40b Chanakya Place,Part Ii Uttam Nagar South West, New Delhi - 110059, Dist.Delhi, Delhi",7949347396,
"Baby Walker, Activity Walker, Activity Runner, Push Walker",https://www.indiamart.com/proddetail/baby-walker-activity-walker-activity-runner-push-walker-2853773304288.html?pos=197&kwd=musical walker&tags=CC||||8752.144|Price|product|||NA|rsf:gd-|-stype:attr=1|qr_nm:gd|res:RC3|com-cf:nl|ptrs:na|ktp:N0|mc:655885|mtp:S|qry_typ:P|lang:en|wc:2|cs:8900|v=4,Kanha Enterprises,https://www.indiamart.com/kanhaenterprises-126711748/?pos=197&kwd=musical walker&tags=CC||||8752.144|Price|product|||NA|rsf:gd-|-stype:attr=1|qr_nm:gd|res:RC3|com-cf:nl|ptrs:na|ktp:N0|mc:655885|mtp:S|qry_typ:P|lang:en|wc:2|cs:8900|v=4,False,,New Delhi,", New Delhi - 110059, Dist.Delhi, Delhi",8048249671,3249
"Walker For Kids, Music & Light, Height Adjustment, Easy Foldable & Coloured Seat",https://www.indiamart.com/proddetail/walker-for-kids-music-light-height-adjustment-easy-foldable-coloured-seat-21951261533.html?pos=198&kwd=musical walker&tags=CC||||8752.144|Price|product|||NA|rsf:gd-|-stype:attr=1|qr_nm:gd|res:RC3|com-cf:nl|ptrs:na|ktp:N0|mc:655885|mtp:S|qry_typ:P|lang:en|wc:2|cs:8900|v=4,Yours Shop,https://www.indiamart.com/yoursshop-delhi/?pos=198&kwd=musical walker&tags=CC||||8752.144|Price|product|||NA|rsf:gd-|-stype:attr=1|qr_nm:gd|res:RC3|com-cf:nl|ptrs:na|ktp:N0|mc:655885|mtp:S|qry_typ:P|lang:en|wc:2|cs:8900|v=4,False,Karol Bagh,New Delhi,"Shop No. 102A, Jhandewalan, Cycle Market, Karol Bagh, New Delhi - 110055, Dist.Delhi, Delhi",8047811540,
PVC Red Baby Moving Chair,https://www.indiamart.com/proddetail/baby-moving-chair-19056173762.html?pos=199&kwd=musical walker&tags=CC||||8752.144|Price|product|||NA|rsf:gd-|-stype:attr=1|qr_nm:gd|res:RC3|com-cf:nl|ptrs:na|ktp:N0|mc:655885|mtp:S|qry_typ:P|lang:en|wc:2|cs:8900|v=4,Gourav Traders,https://www.indiamart.com/gourav-tradrs/?pos=199&kwd=musical walker&tags=CC||||8752.144|Price|product|||NA|rsf:gd-|-stype:attr=1|qr_nm:gd|res:RC3|com-cf:nl|ptrs:na|ktp:N0|mc:655885|mtp:S|qry_typ:P|lang:en|wc:2|cs:8900|v=4,False,Karawal Nagar,New Delhi,"C-259, Gali No.10, Prem Vihar, Karawal Nagar, New Delhi - 110094, Dist.Delhi, Delhi",8048371979,960
Beby waker with music,,Vishal Bartan Bhandar,https://www.indiamart.com/vishalbartanbhandar-kushinagar/?pos=200&kwd=musical walker&tags=CC||||9400.744|Price|product|||NA|rsf:gd-|-stype:attr=1|qr_nm:gd|res:RC3|com-cf:nl|ptrs:na|ktp:N0|mc:655885|mtp:S|qry_typ:P|lang:en|wc:2|cs:8900|v=4,False,,Kushinagar,"Near Station Market, Dudahi, Dudahi, Kushinagar - 274302, Dist.Kushinagar, Uttar Pradesh",8048249733,2554
1.50 Plastic And Crc Pipe 8 band nickal walkar Big music,https://www.indiamart.com/proddetail/8-band-nickal-walkar-big-music-2852853278333.html?pos=201&kwd=musical walker&tags=CC||||8752.144|Price|product|||NA|rsf:gd-|-stype:attr=1|qr_nm:gd|res:RC3|com-cf:nl|ptrs:na|ktp:N0|mc:655885|mtp:S|qry_typ:P|lang:en|wc:2|cs:8900|v=4,Aaradhya Toys,https://www.indiamart.com/aaradhya-toys-new-delhi/?pos=201&kwd=musical walker&tags=CC||||8752.144|Price|product|||NA|rsf:gd-|-stype:attr=1|qr_nm:gd|res:RC3|com-cf:nl|ptrs:na|ktp:N0|mc:655885|mtp:S|qry_typ:P|lang:en|wc:2|cs:8900|v=4,False,,New Delhi,"Ground Floor House No. 13, Kh. No. 1222 Kirari Suleman Nagar, New Delhi - 110086, Dist.Delhi, Delhi",8069264886,728
1St Step Blue And Yellow swing with music - blue and yellow,https://www.indiamart.com/proddetail/1st-step-swing-with-music-blue-and-yellow-19226190012.html?pos=202&kwd=musical walker&tags=CC||||8954.051|Price|product|||NA|rsf:gd-|-stype:attr=1|qr_nm:gd|res:RC3|com-cf:nl|ptrs:na|ktp:N0|mc:655885|mtp:S|qry_typ:P|lang:en|wc:2|cs:8900|v=4,Mandot Impex,https://www.indiamart.com/mandotimpexchennai/?pos=202&kwd=musical walker&tags=CC||||8954.051|Price|product|||NA|rsf:gd-|-stype:attr=1|qr_nm:gd|res:RC3|com-cf:nl|ptrs:na|ktp:N0|mc:655885|mtp:S|qry_typ:P|lang:en|wc:2|cs:8900|v=4,False,Choolai,Chennai,"109, Sydenhams Road, 1st Floor, Choolai, Chennai - 600003, Dist.Chennai, Tamil Nadu",8043809214,
"28 cm Mild Steel And Plastic Handle Baby Walkers, 6 Wheel",https://www.indiamart.com/proddetail/handle-baby-walkers-24974624162.html?pos=203&kwd=musical walker&tags=CC||||8752.144|Price|product|||NA|rsf:gd-|-stype:attr=1|qr_nm:gd|res:RC3|com-cf:nl|ptrs:na|ktp:N0|mc:655885|mtp:S|qry_typ:P|lang:en|wc:2|cs:8900|v=4,Aries Enterprises,https://www.indiamart.com/aries-enterprises-newdelhi/?pos=203&kwd=musical walker&tags=CC||||8752.144|Price|product|||NA|rsf:gd-|-stype:attr=1|qr_nm:gd|res:RC3|com-cf:nl|ptrs:na|ktp:N0|mc:655885|mtp:S|qry_typ:P|lang:en|wc:2|cs:8900|v=4,False,Budh Vihar Phase -1,New Delhi,"Prop No 15, KH No 80/22, 1st Floor, Block F-2, Budh Vihar, Phase-1, Pooth Kalan, Budh Vihar Phase -1, New Delhi - 110086, Dist.Delhi, Delhi",8047307345,
Fisher-price Musical Walker Lion,https://www.indiamart.com/proddetail/fisher-price-musical-walker-lion-7710611712.html?pos=204&kwd=musical walker&tags=CC||||9839.57||product|||NA|rsf:gd-|-stype:attr=1|qr_nm:gd|res:RC3|com-cf:nl|ptrs:na|ktp:N0|mc:655885|mtp:S|qry_typ:P|lang:en|wc:2|cs:8900|v=4,Babys Joy,https://www.indiamart.com/babys-joy/?pos=204&kwd=musical walker&tags=CC||||9839.57||product|||NA|rsf:gd-|-stype:attr=1|qr_nm:gd|res:RC3|com-cf:nl|ptrs:na|ktp:N0|mc:655885|mtp:S|qry_typ:P|lang:en|wc:2|cs:8900|v=4,False,,Kolkata,"No. 14/8B, Golf Club Road, Ground Floor, Near RCGC Club, Kolkata - 700033, Dist.Kolkata, West Bengal",8043884156,
"cosmo Pink Boomer Musical Walker, 6, Age Group: 3-12 Months",https://www.indiamart.com/proddetail/boomer-musical-walker-2178521973.html?pos=205&kwd=musical walker&tags=CC||||8752.144||product|||NA|rsf:gd-|-stype:attr=1|qr_nm:gd|res:RC3|com-cf:nl|ptrs:na|ktp:N0|mc:655885|mtp:S|qry_typ:P|lang:en|wc:2|cs:8900|v=4,Cosmo Incorporation,https://www.indiamart.com/cosmotricycle-industries/?pos=205&kwd=musical walker&tags=CC||||8752.144||product|||NA|rsf:gd-|-stype:attr=1|qr_nm:gd|res:RC3|com-cf:nl|ptrs:na|ktp:N0|mc:655885|mtp:S|qry_typ:P|lang:en|wc:2|cs:8900|v=4,False,Dilshad Garden,New Delhi,"21/2,OBEROI COMPLEX,G T ROAD,DILSHAD GARDEN ,21/2,G T ROAD,OBEROI COMPLEX,DILSHAD GARDEN,,110001,Delhi, Dilshad Garden, New Delhi - 110095, Dist.Delhi, Delhi",8048372969,1095
Winfun Grow With Me Musical Walker,https://www.indiamart.com/proddetail/winfun-grow-with-me-musical-walker-2854218778662.html?pos=206&kwd=musical walker&tags=||||8752.144|Price|product|||NA|rsf:gd-|-stype:attr=1|qr_nm:gd|res:RC3|com-cf:nl|ptrs:na|ktp:N0|mc:655885|mtp:S|qry_typ:P|lang:en|wc:2|cs:8900|v=4,BD Impex,https://www.indiamart.com/company/2395482/?pos=206&kwd=musical walker&tags=||||8752.144|Price|product|||NA|rsf:gd-|-stype:attr=1|qr_nm:gd|res:RC3|com-cf:nl|ptrs:na|ktp:N0|mc:655885|mtp:S|qry_typ:P|lang:en|wc:2|cs:8900|v=4,False,,New Delhi,"The Moms Darling - Baby Shop 163, Kapil Vihar, Pitampura, New Delhi - 110034, Dist.Delhi, Delhi",,
Vaishnavi Enterprises,,Vaishnavi Enterprises,https://www.indiamart.com/vaishnavienterprises-haryana/?pos=207&kwd=musical walker&tags=||||8769.508||bl|||MDC|rsf:gd-|-stype:attr=1|qr_nm:gd|res:RC3|com-cf:nl|ptrs:na|ktp:N0|mc:655885|mtp:S|qry_typ:P|lang:en|wc:2|cs:8900|v=4,False,Ballabhgarh,Faridabad,"House No 68, Near Govt. Primary School, Mothuka Shiv Mandir, Ballabhgarh, Faridabad - 121101, Dist.Faridabad, Haryana",7949093248,
"Stainless Steel Baby Music Walker, Six to Eighteen Months",https://www.indiamart.com/proddetail/baby-music-walker-2854903334348.html?pos=208&kwd=musical walker&tags=||||8855.495|Price|product|||NA|rsf:gd-|-stype:attr=1|qr_nm:gd|res:RC3|com-cf:nl|ptrs:na|ktp:N0|mc:655885|mtp:S|qry_typ:P|lang:en|wc:2|cs:8900|v=4,Ebinesar Fancy Store,https://www.indiamart.com/ebinesar-fancy-store/?pos=208&kwd=musical walker&tags=||||8855.495|Price|product|||NA|rsf:gd-|-stype:attr=1|qr_nm:gd|res:RC3|com-cf:nl|ptrs:na|ktp:N0|mc:655885|mtp:S|qry_typ:P|lang:en|wc:2|cs:8900|v=4,False,,Walajapet,"53/3, Sholingur Road, Walajapet - 632513, Dist.Vellore, Tamil Nadu",8047311027,4469
"2 Pink grip music walker, 6, 00987",https://www.indiamart.com/proddetail/pink-grip-music-walker-25583994297.html?pos=209&kwd=musical walker&tags=||||8752.144|Price|product|||NA|rsf:gd-|-stype:attr=1|qr_nm:gd|res:RC3|com-cf:nl|ptrs:na|ktp:N0|mc:655885|mtp:S|qry_typ:P|lang:en|wc:2|cs:8900|v=4,Bobby Toys,https://www.indiamart.com/bobby-toys-newdelhi/?pos=209&kwd=musical walker&tags=||||8752.144|Price|product|||NA|rsf:gd-|-stype:attr=1|qr_nm:gd|res:RC3|com-cf:nl|ptrs:na|ktp:N0|mc:655885|mtp:S|qry_typ:P|lang:en|wc:2|cs:8900|v=4,False,Karawal Nagar North West Delhi,New Delhi,"U-29-B, G/F Temp. Kh. No.-18/12, U-Block, Gali No.-1, Phase-IV, Shiv Vihar Near Kali Mandir, Karawal Nagar North West Delhi, New Delhi - 110090, Dist.Delhi, Delhi",8047651123,
"2-2.5 Feet Iron,Plastic 8 BEND PLASTIC WITH MUSIC WALKER",https://www.indiamart.com/proddetail/8-bend-plastic-with-music-walker-24320497791.html?pos=210&kwd=musical walker&tags=||||8752.144|Price|product|||NA|rsf:gd-|-stype:attr=1|qr_nm:gd|res:RC3|com-cf:nl|ptrs:na|ktp:N0|mc:655885|mtp:S|qry_typ:P|lang:en|wc:2|cs:8900|v=4,N.G. Usma Gold Baby Try Cycle,https://www.indiamart.com/ngusma-gold-babytrycycle/?pos=210&kwd=musical walker&tags=||||8752.144|Price|product|||NA|rsf:gd-|-stype:attr=1|qr_nm:gd|res:RC3|com-cf:nl|ptrs:na|ktp:N0|mc:655885|mtp:S|qry_typ:P|lang:en|wc:2|cs:8900|v=4,False,YAMUNA DAIRY,New Delhi,"H. No. 228, GF, Gali No. 7, New Kardam Puri, YAMUNA DAIRY, New Delhi - 110094, Dist.Delhi, Delhi",8048610135,
