product_title,product_link,company_name,company_link,is_verified_exporter,city_region,city,address_details,phone_number,phone_number_extension
Pigeon Nipple Puller,https://www.indiamart.com/proddetail/pigeon-nipple-puller-26941620430.html?pos=1&kwd=nipple puller&tags=A||||8584.299|Price|product|||MDC|rsf:gd-|-qr_nm:gd|res:RC2|com-cf:nl|ptrs:na|ktp:N0|mc:235535|mtp:S|qry_typ:P|lang:en|wc:2|flavl:0|cs:8348|v=4,Vino Mani Enterprises,https://www.indiamart.com/vino-mani-enterprises/?pos=1&kwd=nipple puller&tags=A||||8584.299|Price|product|||MDC|rsf:gd-|-qr_nm:gd|res:RC2|com-cf:nl|ptrs:na|ktp:N0|mc:235535|mtp:S|qry_typ:P|lang:en|wc:2|flavl:0|cs:8348|v=4,False,,Coimbatore,"No 89A, NA, Azad Road, R S Puram, Coimbatore - 641002, Dist.Coimbatore, Tamil Nadu",7942546353,
Silicone Nipple Puller,https://www.indiamart.com/proddetail/silicone-nipple-puller-2852713931548.html?pos=2&kwd=nipple puller&tags=BA||||8954.051|Price|product|||TS|rsf:gd-|-qr_nm:gd|res:RC2|com-cf:nl|ptrs:na|ktp:N0|mc:235535|mtp:S|qry_typ:P|lang:en|wc:2|flavl:0|cs:8348|v=4,Medisil Engineers,https://www.medisilengineers.in/?pos=2&kwd=nipple puller&tags=BA||||8954.051|Price|product|||TS|rsf:gd-|-qr_nm:gd|res:RC2|com-cf:nl|ptrs:na|ktp:N0|mc:235535|mtp:S|qry_typ:P|lang:en|wc:2|flavl:0|cs:8348|v=4,False,Iyappanthangal Srinivasa Nagar,Chennai,"No. 2/17, Plot No. 35, 2nd Cross Street, Srinivasapuram Gajalakshmi Nagar, Iyappanthangal Srinivasa Nagar, Chennai - 600056, Dist.Chennai, Tamil Nadu",8048985001,
Silicone Nipple Puller,https://www.indiamart.com/proddetail/silicone-nipple-puller-2854102046862.html?pos=3&kwd=nipple puller&tags=BA||||8954.051|Price|product|||TS|rsf:gd-|-qr_nm:gd|res:RC2|com-cf:nl|ptrs:na|ktp:N0|mc:235535|mtp:S|qry_typ:P|lang:en|wc:2|flavl:0|cs:8348|v=4,Paul Medical Systems,https://www.paulmedicalsystems.in/?pos=3&kwd=nipple puller&tags=BA||||8954.051|Price|product|||TS|rsf:gd-|-qr_nm:gd|res:RC2|com-cf:nl|ptrs:na|ktp:N0|mc:235535|mtp:S|qry_typ:P|lang:en|wc:2|flavl:0|cs:8348|v=4,True,Maduravoyal,Chennai,"168, P H Road, 1st Floor, Maduravoyal, Chennai - 600095, Dist.Chennai, Tamil Nadu",8048606605,
Women Cotton Breast Lift Nipple Pasties Adhesive Straples Backless Lifting Bra Cups Breathable black,https://www.indiamart.com/proddetail/women-cotton-breast-lift-nipple-pasties-adhesive-straples-backless-lifting-bra-cups-breathable-black-2850234679948.html?pos=4&kwd=nipple puller&tags=BA||||8223.226|Price|product|||TS|rsf:gd-|-qr_nm:gd|res:RC2|com-cf:nl|ptrs:na|ktp:N0|mc:235535|mtp:S|qry_typ:P|lang:en|wc:2|flavl:0|cs:8348|v=4,Jenico World,https://www.jenicoworld.com/?pos=4&kwd=nipple puller&tags=BA||||8223.226|Price|product|||TS|rsf:gd-|-qr_nm:gd|res:RC2|com-cf:nl|ptrs:na|ktp:N0|mc:235535|mtp:S|qry_typ:P|lang:en|wc:2|flavl:0|cs:8348|v=4,False,Mira Road,Thane,"ndra Maternity And Surgical Nursing Home, GROUND FLOOR, D-8, FLAT NO - 002, Panchami Cooperative Housing Society Ltd, SECTOR - 7, Shanti Nagar,, Mira Road, Thane - 401107, Dist.Thane, Maharashtra",8043855594,
Latch-on Nipple Puller,https://www.indiamart.com/proddetail/latch-on-nipple-puller-18991027955.html?pos=5&kwd=nipple puller&tags=BB||||8663.873|Price|product|||TS|rsf:gd-|-qr_nm:gd|res:RC2|com-cf:nl|ptrs:na|ktp:N0|mc:235535|mtp:S|qry_typ:P|lang:en|wc:2|flavl:0|cs:8348|v=4,Krishco Medical Products Pvt. Ltd.,https://www.krishcomedicalproducts.com/?pos=5&kwd=nipple puller&tags=BB||||8663.873|Price|product|||TS|rsf:gd-|-qr_nm:gd|res:RC2|com-cf:nl|ptrs:na|ktp:N0|mc:235535|mtp:S|qry_typ:P|lang:en|wc:2|flavl:0|cs:8348|v=4,False,Banashankari,Bengaluru,"No. 181, 3rd Main, 5th Cross, Srinivasa Nagar, Banashankari 1st Stage, Banashankari, Bengaluru - 560050, Dist.Bengaluru, Karnataka",8048962026,
Silicone Nipple Puller,https://www.indiamart.com/proddetail/silicone-nipple-puller-2854951085462.html?pos=6&kwd=nipple puller&tags=BB||||8601.347|Price|product|||NA|rsf:gd-|-qr_nm:gd|res:RC2|com-cf:nl|ptrs:na|ktp:N0|mc:235535|mtp:S|qry_typ:P|lang:en|wc:2|flavl:0|cs:8348|v=4,Shreeja India,https://www.indiamart.com/shreeja-india/?pos=6&kwd=nipple puller&tags=BB||||8601.347|Price|product|||NA|rsf:gd-|-qr_nm:gd|res:RC2|com-cf:nl|ptrs:na|ktp:N0|mc:235535|mtp:S|qry_typ:P|lang:en|wc:2|flavl:0|cs:8348|v=4,False,,Jaipur,", Jaipur - 302020, Dist.Jaipur, Rajasthan",8048247102,1151
Luvlap Silicone Inverted Nipple Puller,https://www.indiamart.com/proddetail/luvlap-silicone-inverted-nipple-puller-2852374689988.html?pos=7&kwd=nipple puller&tags=BA||||9644.414|Price|product|||NA|rsf:gd-|-qr_nm:gd|res:RC2|com-cf:nl|ptrs:na|ktp:N0|mc:235535|mtp:S|qry_typ:P|lang:en|wc:2|flavl:0|cs:8348|v=4,Kanhaiya Enterprises,https://www.indiamart.com/kanhaiya-enterprises-dhanbad/?pos=7&kwd=nipple puller&tags=BA||||9644.414|Price|product|||NA|rsf:gd-|-qr_nm:gd|res:RC2|com-cf:nl|ptrs:na|ktp:N0|mc:235535|mtp:S|qry_typ:P|lang:en|wc:2|flavl:0|cs:8348|v=4,False,,Dhanbad,"Ratanji Road, Purana Bazar, Dhanbad - 826001, Dist.Dhanbad, Jharkhand",8046043892,
Silicone Nipple Puller,,Chaithra Enterprises,https://www.indiamart.com/chaithra-enterprises-mysuru/?pos=8&kwd=nipple puller&tags=BB||||8556.61||product|||NA|rsf:gd-|-qr_nm:gd|res:RC2|com-cf:nl|ptrs:na|ktp:N0|mc:235535|mtp:S|qry_typ:P|lang:en|wc:2|flavl:0|cs:8348|v=4,False,,Mysuru,"No 294,Lalithadripura,Jss Layout 2nd Stage,Mysuru,Mysuru, Mysuru - 570028, Dist.Mysuru, Karnataka",8069196709,619
Female Silicone Nipple Puller,https://www.indiamart.com/proddetail/silicone-nipple-puller-8727956697.html?pos=9&kwd=nipple puller&tags=CC||||8954.051|Price|product|||TS|rsf:gd-|-qr_nm:gd|res:RC2|com-cf:nl|ptrs:na|ktp:N0|mc:235535|mtp:S|qry_typ:P|lang:en|wc:2|flavl:0|cs:8348|v=4,Auro Mira Medi Aids,https://www.indiamart.com/auromiramediaids/?pos=9&kwd=nipple puller&tags=CC||||8954.051|Price|product|||TS|rsf:gd-|-qr_nm:gd|res:RC2|com-cf:nl|ptrs:na|ktp:N0|mc:235535|mtp:S|qry_typ:P|lang:en|wc:2|flavl:0|cs:8348|v=4,False,Adyar,Chennai,"New No. 36, Old No. 32, Shriram Nagar Main Road, Adyar, Chennai - 600113, Dist.Chennai, Tamil Nadu",8048988682,
Pigeon Nipple Puller,https://www.indiamart.com/proddetail/pigeon-nipple-puller-2852306869191.html?pos=10&kwd=nipple puller&tags=CC||||8307.81|Price|product|||MDC|rsf:gd-|-qr_nm:gd|res:RC2|com-cf:nl|ptrs:na|ktp:N0|mc:235535|mtp:S|qry_typ:P|lang:en|wc:2|flavl:0|cs:8348|v=4,Bhavana Agency,https://www.indiamart.com/bhavana-agency/?pos=10&kwd=nipple puller&tags=CC||||8307.81|Price|product|||MDC|rsf:gd-|-qr_nm:gd|res:RC2|com-cf:nl|ptrs:na|ktp:N0|mc:235535|mtp:S|qry_typ:P|lang:en|wc:2|flavl:0|cs:8348|v=4,False,Sadashiv Peth,Pune,"S No 4, 841/1, Asset Gold, Sadashiv Peth, Sadashiv Peth, Pune - 411030, Dist.Pune, Maharashtra",8047788291,
Latch-On Pink Silicone Nipple Puller,https://www.indiamart.com/proddetail/latch-on-pink-silicone-nipple-puller-26900424062.html?pos=11&kwd=nipple puller&tags=CC||||8954.051|Price|product|||MDC|rsf:gd-|-qr_nm:gd|res:RC2|com-cf:nl|ptrs:na|ktp:N0|mc:235535|mtp:S|qry_typ:P|lang:en|wc:2|flavl:0|cs:8348|v=4,SIDRA MEDISOLUTIONS,https://www.indiamart.com/sidra-medisolutions-chennai/?pos=11&kwd=nipple puller&tags=CC||||8954.051|Price|product|||MDC|rsf:gd-|-qr_nm:gd|res:RC2|com-cf:nl|ptrs:na|ktp:N0|mc:235535|mtp:S|qry_typ:P|lang:en|wc:2|flavl:0|cs:8348|v=4,False,1st Street,Chennai,"1/7, Taylors Estate, Station View Road, Rangarajapuram, 1st Street, Chennai - 600024, Dist.Chennai, Tamil Nadu",8048211611,
silicone nipple puller,https://www.indiamart.com/proddetail/silicone-nipple-puller-2852795942712.html?pos=12&kwd=nipple puller&tags=CC||||8601.347|Price|product|||NA|rsf:gd-|-qr_nm:gd|res:RC2|com-cf:nl|ptrs:na|ktp:N0|mc:235535|mtp:S|qry_typ:P|lang:en|wc:2|flavl:0|cs:8348|v=4,The Star India,https://www.indiamart.com/the-star-india-jaipur/?pos=12&kwd=nipple puller&tags=CC||||8601.347|Price|product|||NA|rsf:gd-|-qr_nm:gd|res:RC2|com-cf:nl|ptrs:na|ktp:N0|mc:235535|mtp:S|qry_typ:P|lang:en|wc:2|flavl:0|cs:8348|v=4,False,,Jaipur,"11/239,kaveri Path Mansarover JAIPUR, Jaipur - 302020, Dist.Jaipur, Rajasthan",8048372234,850
Silicone Nipple Puller,https://www.indiamart.com/proddetail/silicone-nipple-puller-2849190686988.html?pos=13&kwd=nipple puller&tags=CC||||8601.347||product|||NA|rsf:gd-|-qr_nm:gd|res:RC2|com-cf:nl|ptrs:na|ktp:N0|mc:235535|mtp:S|qry_typ:P|lang:en|wc:2|flavl:0|cs:8348|v=4,Joy Surgitech,https://www.indiamart.com/joy-surgitech/?pos=13&kwd=nipple puller&tags=CC||||8601.347||product|||NA|rsf:gd-|-qr_nm:gd|res:RC2|com-cf:nl|ptrs:na|ktp:N0|mc:235535|mtp:S|qry_typ:P|lang:en|wc:2|flavl:0|cs:8348|v=4,False,,Jaipur,"Flao G Plot No 10 Teeja Nagar Vistar,Niwaru Road,Main Ganesh Nagar,Jaipur,Jaipur, Jaipur - 302012, Dist.Jaipur, Rajasthan",8047309006,7648
JPG India Silicone Nipple Puller,https://www.indiamart.com/proddetail/silicone-nipple-puller-19775350297.html?pos=14&kwd=nipple puller&tags=CC||||8601.347|Price|product|||NA|rsf:gd-|-qr_nm:gd|res:RC2|com-cf:nl|ptrs:na|ktp:N0|mc:235535|mtp:S|qry_typ:P|lang:en|wc:2|flavl:0|cs:8348|v=4,JPG India,https://www.indiamart.com/m-s-jpg-india/?pos=14&kwd=nipple puller&tags=CC||||8601.347|Price|product|||NA|rsf:gd-|-qr_nm:gd|res:RC2|com-cf:nl|ptrs:na|ktp:N0|mc:235535|mtp:S|qry_typ:P|lang:en|wc:2|flavl:0|cs:8348|v=4,False,Modikhana,Jaipur,"59 PANCHVATI YOJNA Jaipur M Corp Part JAGDISH PRASAD GOYAL, Modikhana, Jaipur - 302019, Dist.Jaipur, Rajasthan",8047667186,
Silicon Nipple Puller /Rettractor,,Medi Polymer,https://www.indiamart.com/medipolymer/?pos=15&kwd=nipple puller&tags=CC||||8954.051|Price|product|||NA|rsf:gd-|-qr_nm:gd|res:RC2|com-cf:nl|ptrs:na|ktp:N0|mc:235535|mtp:S|qry_typ:P|lang:en|wc:2|cs:7585|v=4,False,Porur,Chennai,"No. 3/9, 3rd Street, Dharmaraja Nagar Sheik Maniyam, Porur, Porur, Chennai - 600116, Dist.Chennai, Tamil Nadu",8043875342,
"Pigeon Nipple Puller For Inverted Nipples,Easy To Latch For Babies ,Multicolor, (4902508166614)",https://www.indiamart.com/proddetail/pigeon-nipple-puller-for-inverted-nipples-easy-to-latch-for-babies-multicolor-4902508166614-2853741078030.html?pos=16&kwd=nipple puller&tags=CC||||8663.873|Price|product|||NA|rsf:gd-|-qr_nm:gd|res:RC2|com-cf:nl|ptrs:na|ktp:N0|mc:235535|mtp:S|qry_typ:P|lang:en|wc:2|cs:7585|v=4,Wellnex,https://www.indiamart.com/wellnex/?pos=16&kwd=nipple puller&tags=CC||||8663.873|Price|product|||NA|rsf:gd-|-qr_nm:gd|res:RC2|com-cf:nl|ptrs:na|ktp:N0|mc:235535|mtp:S|qry_typ:P|lang:en|wc:2|cs:7585|v=4,False,Bangalore,Bengaluru,"NO.25 9TH CROSS, 1ST MAIN, MAGADI ROAD PRASHANTH NAGAR 9th cross, Prashant Nagar, Bangalore, Bengaluru - 560079, Dist.Bengaluru, Karnataka",8046033558,
Pigeon Nipple Puller,https://www.indiamart.com/proddetail/pigeon-nipple-puller-22133555673.html?pos=17&kwd=nipple puller&tags=CC||||8954.051|Price|product|||NA|rsf:gd-|-qr_nm:gd|res:RC2|com-cf:nl|ptrs:na|ktp:N0|mc:235535|mtp:S|qry_typ:P|lang:en|wc:2|cs:7585|v=4,Sri Lakshmi Agency,https://www.indiamart.com/srilakshmiagencychennai/?pos=17&kwd=nipple puller&tags=CC||||8954.051|Price|product|||NA|rsf:gd-|-qr_nm:gd|res:RC2|com-cf:nl|ptrs:na|ktp:N0|mc:235535|mtp:S|qry_typ:P|lang:en|wc:2|cs:7585|v=4,False,Kolathur,Chennai,"No 4/3 A, Theatre Street, Santhi Nagar, Kolathur, Chennai - 600099, Dist.Chennai, Tamil Nadu",8047693467,
Nipple Puller,,Om Medicals,https://www.indiamart.com/ommedicals-chennai/?pos=18&kwd=nipple puller&tags=CC||||8939.123||product|||NA|rsf:gd-|-qr_nm:gd|res:RC2|com-cf:nl|ptrs:na|ktp:N0|mc:235535|mtp:S|qry_typ:P|lang:en|wc:2|cs:7585|v=4,False,,Adyar,"No. 9, LB Road, Near Anand Mohon Sweet Shop, Adyar - 600020, Tamil Nadu",8048247115,4424
Nipple Puller With Case,,Pigeon India Private Limited,https://www.indiamart.com/ms-pigeon-india-private-limited/?pos=19&kwd=nipple puller&tags=||||8819.914||product|||NA|rsf:gd-|-qr_nm:gd|res:RC2|com-cf:nl|ptrs:na|ktp:N0|mc:235535|mtp:S|qry_typ:P|lang:en|wc:2|cs:7585|v=4,False,,Muzaffarnagar,"Plot No 6e Ecotech 1 Sector 40-41 Greater Noida Gautam Buddha Nagar, Muzaffarnagar - 201308, Dist.Muzaffarnagar, Uttar Pradesh",8069033725,891
PUR -NIPPLE PULLER,,Beads Kids,https://www.indiamart.com/bead-kids/?pos=20&kwd=nipple puller&tags=CC||||8531.645||product|||NA|rsf:gd-|-qr_nm:gd|res:RC2|com-cf:nl|ptrs:na|ktp:N0|mc:235535|mtp:S|qry_typ:P|lang:en|wc:2|cs:7585|v=4,False,Kanjikuzhy,Changanacherry,"94/IV,1, Beads Kids, kanjikuzhy,kanjikuzhy Trio Chamber,,686004,Kottayam, Kanjikuzhy, Changanacherry - 686501, Dist.Kottayam, Kerala",7942656732,
Niple Puller,,Maa N Mee,https://www.indiamart.com/maanmee-pune/?pos=21&kwd=nipple puller&tags=||||8307.81||product|||NA|rsf:gd-|-qr_nm:gd|res:RC2|com-cf:nl|ptrs:na|ktp:N0|mc:235535|mtp:S|qry_typ:P|lang:en|wc:2|cs:7585|v=4,False,Kharadi,Pune,"Majestic Plaza, Shop No. 2, Next To Columbia Asia Hospital, Kharadi, Pune - 411014, Dist.Pune, Maharashtra",8043840338,
Manual Breast Pump With Nipple,,Surgi King,https://www.indiamart.com/surgi-king/?pos=22&kwd=nipple puller&tags=||||8661.854|Price|product|||TS|rsf:gd-|-qr_nm:gd|res:RC2|com-cf:nl|ptrs:na|ktp:N0|mc:235535|mtp:S|qry_typ:P|lang:en|wc:2|cs:7585|v=4,False,Railway Colony,Ludhiana,"Shop No-8, Manmohan Market ,Pindi Gali,, Railway Colony, Ludhiana - 141008, Dist.Ludhiana, Punjab",8046030681,
Cotton Maternity Pad Belt,https://www.indiamart.com/proddetail/maternity-pad-belt-2853677080230.html?pos=23&kwd=nipple puller&tags=||||8230.883|Price|product|||MDC|rsf:gd-|-qr_nm:gd|res:RC2|com-cf:nl|ptrs:na|ktp:N0|mc:235535|mtp:S|qry_typ:P|lang:en|wc:2|cs:7585|v=4,Zainab Enterprise,https://www.indiamart.com/zainabenterprise-surat/?pos=23&kwd=nipple puller&tags=||||8230.883|Price|product|||MDC|rsf:gd-|-qr_nm:gd|res:RC2|com-cf:nl|ptrs:na|ktp:N0|mc:235535|mtp:S|qry_typ:P|lang:en|wc:2|cs:7585|v=4,False,Begampura,Surat,"Shop No.5,Ground Floor,Al Meena Appt.,,2210 - Zapabazar,Zampa Surat Surat City, Begampura, Surat - 395003, Dist.Surat, Gujarat",8048956780,
Manual Breast Pump,https://www.indiamart.com/proddetail/manual-breast-pump-2854410192162.html?pos=24&kwd=nipple puller&tags=||||8230.883|Price|product|||TS|rsf:gd-|-qr_nm:gd|res:RC2|com-cf:nl|ptrs:na|ktp:N0|mc:235535|mtp:S|qry_typ:P|lang:en|wc:2|cs:7585|v=4,United Medicare,https://www.unitedmedicare.in/?pos=24&kwd=nipple puller&tags=||||8230.883|Price|product|||TS|rsf:gd-|-qr_nm:gd|res:RC2|com-cf:nl|ptrs:na|ktp:N0|mc:235535|mtp:S|qry_typ:P|lang:en|wc:2|cs:7585|v=4,False,,Surat,"Shop No.23 Ramnagar Rang Avdhut Society 3, Surat - 395005, Dist.Surat, Gujarat",8045734127,
Manual Breast Pump,https://www.indiamart.com/proddetail/manual-breast-pump-2854881685573.html?pos=25&kwd=nipple puller&tags=||||8828.05|Price|product|||MDC|rsf:gd-|-qr_nm:gd|res:RC2|com-cf:nl|ptrs:na|ktp:N0|mc:235535|mtp:S|qry_typ:P|lang:en|wc:2|cs:7585|v=4,Sri Padmavathi Surgicals And Health Services,https://www.indiamart.com/sripadmavathisurgicalshealthservices/?pos=25&kwd=nipple puller&tags=||||8828.05|Price|product|||MDC|rsf:gd-|-qr_nm:gd|res:RC2|com-cf:nl|ptrs:na|ktp:N0|mc:235535|mtp:S|qry_typ:P|lang:en|wc:2|cs:7585|v=4,False,,Chittoor,"Ground Floor, 17-431, Sundarayya Street, Chittoor - 517001, Dist.Chittoor, Andhra Pradesh",8046046046,
Harmony Manual Breast Pump,https://www.indiamart.com/proddetail/harmony-manual-breast-pump-21270187062.html?pos=26&kwd=nipple puller&tags=||||8740.707|Price|product|||TS|rsf:gd-|-qr_nm:gd|res:RC2|com-cf:nl|ptrs:na|ktp:N0|mc:235535|mtp:S|qry_typ:P|lang:en|wc:2|cs:7585|v=4,Cardio Care,https://www.indiamart.com/cardio-care-mohali/?pos=26&kwd=nipple puller&tags=||||8740.707|Price|product|||TS|rsf:gd-|-qr_nm:gd|res:RC2|com-cf:nl|ptrs:na|ktp:N0|mc:235535|mtp:S|qry_typ:P|lang:en|wc:2|cs:7585|v=4,True,Papri Village,Mohali,"Plot 197 Jlpl Ind Park Sec 82 Cardio Care Jlpl Ind Park Sec 82, Papri Village, Mohali - 140306, Dist.Mohali, Punjab",8048973649,
Spectra Electric Breast Pump,https://www.indiamart.com/proddetail/electric-breast-pump-14144007062.html?pos=27&kwd=nipple puller&tags=||||8211.142||proxy|||TS|rsf:gd-|-qr_nm:gd|res:RC2|com-cf:nl|ptrs:na|ktp:N0|mc:235535|mtp:S|qry_typ:P|lang:en|wc:2|cs:7585|v=4,Aditya Enterprise,https://www.aditya-enterprise.com/?pos=27&kwd=nipple puller&tags=||||8211.142||proxy|||TS|rsf:gd-|-qr_nm:gd|res:RC2|com-cf:nl|ptrs:na|ktp:N0|mc:235535|mtp:S|qry_typ:P|lang:en|wc:2|cs:7585|v=4,False,Malad West,Mumbai,"Shop No 8, Sainath Chambers ,sainath Road ,opp Life Line Hospital, Near Malad Subway, Malad West, Malad West, Mumbai - 400064, Dist.Mumbai, Maharashtra",8048966469,
Manual Breast Pump With Nipple,https://www.indiamart.com/proddetail/manual-breast-pump-with-nipple-27525678797.html?pos=28&kwd=nipple puller&tags=||||8752.144|Price|proxy|||TS|rsf:gd-|-qr_nm:gd|res:RC2|com-cf:nl|ptrs:na|ktp:N0|mc:235535|mtp:S|qry_typ:P|lang:en|wc:2|cs:7585|v=4,Kapoor Agencies,https://www.sagarproducts.co.in/?pos=28&kwd=nipple puller&tags=||||8752.144|Price|proxy|||TS|rsf:gd-|-qr_nm:gd|res:RC2|com-cf:nl|ptrs:na|ktp:N0|mc:235535|mtp:S|qry_typ:P|lang:en|wc:2|cs:7585|v=4,False,Shahdara,New Delhi,"Iv/1697,Mahavir Block,Bhola Nath Nagar,Shahdar, Shahdara, New Delhi - 110032, Dist.Delhi, Delhi",8046069171,
Syga Home Furnishing,,Syga Home Furnishing,https://www.indiamart.com/sygahomefurnishing/?pos=29&kwd=nipple puller&tags=||||8228.275||bl|||TS|rsf:gd-|-stype:graph|qr_nm:gd|res:RC2|com-cf:nl|ptrs:na|ktp:N0|mc:235535|mtp:S|qry_typ:P|lang:en|wc:2|cs:8862|v=4,False,Navrangpura,Ahmedabad,"A-503, Samudra Complex, Near Girish Cold Drinks C. G. Road, Navrangpura, Navrangpura, Ahmedabad - 380009, Dist.Ahmedabad, Gujarat",8048985837,
Seward Systems Inc,,Seward Systems Inc,https://www.indiamart.com/seward-systems/?pos=30&kwd=nipple puller&tags=||||8211.142||bl|||TS|rsf:gd-|-stype:graph|qr_nm:gd|res:RC2|com-cf:nl|ptrs:na|ktp:N0|mc:235535|mtp:S|qry_typ:P|lang:en|wc:2|cs:8862|v=4,False,Borivali East,Mumbai,"No. 302, Triveni Krupa Building, Carter Road, No. 3, Borivali East, Mumbai - 400066, Dist.Mumbai, Maharashtra",8048602086,
Life Healthcare,,Life Healthcare,https://www.lifehealthcare.in.net/?pos=31&kwd=nipple puller&tags=||||8228.275||bl|||TS|rsf:gd-|-stype:graph|qr_nm:gd|res:RC2|com-cf:nl|ptrs:na|ktp:N0|mc:235535|mtp:S|qry_typ:P|lang:en|wc:2|cs:8862|v=4,False,Dabgarwad,Ahmedabad,"6/7 Ground Floor, Relife Shopping Center, G P O, Dabgarwad, Ahmedabad - 380001, Dist.Ahmedabad, Gujarat",7942871208,
R. K. Surgical,,R. K. Surgical,https://www.indiamart.com/r-ksurgical/?pos=32&kwd=nipple puller&tags=||||8752.144||bl|||MDC|rsf:gd-|-stype:graph|qr_nm:gd|res:RC2|com-cf:nl|ptrs:na|ktp:N0|mc:235535|mtp:S|qry_typ:P|lang:en|wc:2|cs:8862|v=4,False,North East,New Delhi,"C-312 Gali Ni-12, Mata Wali Gali, Juhri Pur, North East Delhi, North East, New Delhi - 110094, Dist.Delhi, Delhi",8043822779,
Shree Balaji Medical Devices,,Shree Balaji Medical Devices,https://www.oxyval.in/?pos=33&kwd=nipple puller&tags=||||8785.791||bl|||TS|rsf:gd-|-stype:graph|qr_nm:gd|res:RC2|com-cf:nl|ptrs:na|ktp:N0|mc:235535|mtp:S|qry_typ:P|lang:en|wc:2|cs:8862|v=4,False,Loni,Ghaziabad,"Ground Floor,A-22, Roop Nagar, Bakori Road, Roop Nagar, Loni, Loni, Ghaziabad - 201102, Dist.Ghaziabad, Uttar Pradesh",7942835333,
Medigold Manual Breast Pump,https://www.indiamart.com/proddetail/medigold-manual-breast-pump-2853669846830.html?pos=34&kwd=nipple puller&tags=||||8669.942|Price|product|||NA|rsf:gd-|-stype:graph|qr_nm:gd|res:RC2|com-cf:nl|ptrs:na|ktp:N0|mc:235535|mtp:S|qry_typ:P|lang:en|wc:2|cs:8862|v=4,Sankar Pharma Surgicalss,https://www.indiamart.com/sankar-pharma-surgicalss/?pos=34&kwd=nipple puller&tags=||||8669.942|Price|product|||NA|rsf:gd-|-stype:graph|qr_nm:gd|res:RC2|com-cf:nl|ptrs:na|ktp:N0|mc:235535|mtp:S|qry_typ:P|lang:en|wc:2|cs:8862|v=4,False,Kamarajapuram Colony,Sivakasi,"2041A, Periyakaruppan Road, Sivakasi, Virudhunagar, Kamarajapuram Colony, Sivakasi - 626189, Dist.Virudhunagar, Tamil Nadu",8043864537,
Dr. ORG Breast Reliever,https://www.indiamart.com/proddetail/dr-org-breast-reliever-2854133579288.html?pos=35&kwd=nipple puller&tags=||||9110.092|Price|product|||NA|rsf:gd-|-stype:graph|qr_nm:gd|res:RC2|com-cf:nl|ptrs:na|ktp:N0|mc:235535|mtp:S|qry_typ:P|lang:en|wc:2|cs:8862|v=4,Med X Square,https://www.indiamart.com/med-x-square/?pos=35&kwd=nipple puller&tags=||||9110.092|Price|product|||NA|rsf:gd-|-stype:graph|qr_nm:gd|res:RC2|com-cf:nl|ptrs:na|ktp:N0|mc:235535|mtp:S|qry_typ:P|lang:en|wc:2|cs:8862|v=4,False,Chinhat,Lucknow,"Khasra No - 354/1, Shop No - 01, Chinhat Malhour Road, Chinhat,, Chinhat, Lucknow - 226028, Dist.Lucknow, Uttar Pradesh",8045734425,
Manual Breast Pump,https://www.indiamart.com/proddetail/manual-breast-pump-2854606628788.html?pos=36&kwd=nipple puller&tags=||||8752.144||product|||NA|rsf:gd-|-stype:graph|qr_nm:gd|res:RC2|com-cf:nl|ptrs:na|ktp:N0|mc:235535|mtp:S|qry_typ:P|lang:en|wc:2|cs:8862|v=4,Surgicave Healthcare Private Limited,https://www.indiamart.com/surgicave-healthcare-private-limited/?pos=36&kwd=nipple puller&tags=||||8752.144||product|||NA|rsf:gd-|-stype:graph|qr_nm:gd|res:RC2|com-cf:nl|ptrs:na|ktp:N0|mc:235535|mtp:S|qry_typ:P|lang:en|wc:2|cs:8862|v=4,False,,New Delhi,"164-B, First Floor, Ekta Enclave, Peeragarhi, New Delhi - 110087, Dist.Delhi, Delhi",8048249672,5804
