product_title,product_link,company_name,company_link,is_verified_exporter,city_region,city,address_details,phone_number,phone_number_extension
Nursing Pillow Breastfeeding Nursing Pillow,https://www.indiamart.com/proddetail/nursing-pillow-breastfeeding-nursing-pillow-2854270318733.html?pos=1&kwd=nursing pillows&tags=A||||8741.812|Price|product|||TS|rsf:gd-|-qr_nm:gd|res:RC3|com-cf:nl|ptrs:na|ktp:N0|mc:117695|mtp:S|qry_typ:P|lang:en|wc:2|flavl:0-1|cs:8449|v=4,Sleepsia India Private Limited,https://www.indiamart.com/sleepsia-india-limited/?pos=1&kwd=nursing pillows&tags=A||||8741.812|Price|product|||TS|rsf:gd-|-qr_nm:gd|res:RC3|com-cf:nl|ptrs:na|ktp:N0|mc:117695|mtp:S|qry_typ:P|lang:en|wc:2|flavl:0-1|cs:8449|v=4,False,Sector 19,Gurugram,"Plot No 880, Third Floor, Udyog Vihar Phase 5,Gurugram, Sector 19, Gurugram - 122016, Dist.Gurgaon, Haryana",8043855636,
Blue U Breast Feeding Pillow,https://www.indiamart.com/proddetail/breast-feeding-pillow-2850160658630.html?pos=2&kwd=nursing pillows&tags=A||||8752.144|Price|product|||TS|rsf:gd-|-qr_nm:gd|res:RC3|com-cf:nl|ptrs:na|ktp:N0|mc:117695|mtp:S|qry_typ:P|lang:en|wc:2|flavl:0-1|cs:8449|v=4,Verma Enterprises,https://www.styaloindia.com/?pos=2&kwd=nursing pillows&tags=A||||8752.144|Price|product|||TS|rsf:gd-|-qr_nm:gd|res:RC3|com-cf:nl|ptrs:na|ktp:N0|mc:117695|mtp:S|qry_typ:P|lang:en|wc:2|flavl:0-1|cs:8449|v=4,False,Samaypur,New Delhi,"Plot No.180/1-B, Kh.No. 955/1, 1st, Block-C, Raja Vihar, Siraspur, Badli, North West Delhi, Samaypur, New Delhi - 110042, Dist.Delhi, Delhi",8047654672,
"Breastfeeding & Nursing Pillow - Positioner, Bottle Feeding, Tummy Time, Propping Comfort",https://www.indiamart.com/proddetail/breastfeeding-nursing-pillow-positioner-bottle-feeding-tummy-time-propping-comfort-13301402897.html?pos=3&kwd=nursing pillows&tags=A||||8778.123|Price|product|||TS|rsf:gd-|-qr_nm:gd|res:RC3|com-cf:nl|ptrs:na|ktp:N0|mc:117695|mtp:S|qry_typ:P|lang:en|wc:2|flavl:0-1|cs:8449|v=4,Oscar Overseas,https://www.oscar-india.com/?pos=3&kwd=nursing pillows&tags=A||||8778.123|Price|product|||TS|rsf:gd-|-qr_nm:gd|res:RC3|com-cf:nl|ptrs:na|ktp:N0|mc:117695|mtp:S|qry_typ:P|lang:en|wc:2|flavl:0-1|cs:8449|v=4,False,,Noida,"A-99 Sector 5, Noida - 201301, Dist.Gautam Budh Nagar, Uttar Pradesh",8046058290,
Best Original Organic Cotton Breastfeeding Nursing Pillow for Newborn Toddler Babies - Firstin,https://www.indiamart.com/proddetail/best-original-organic-cotton-breastfeeding-nursing-pillow-for-newborn-toddler-babies-firstin-2850015447412.html?pos=4&kwd=nursing pillows&tags=BA||||8668.838|Price|product|||TS|rsf:gd-|-qr_nm:gd|res:RC3|com-cf:nl|ptrs:na|ktp:N0|mc:117695|mtp:S|qry_typ:P|lang:en|wc:2|flavl:0-1|cs:8449|v=4,Sri Kalyan Export Private Limited,https://www.firstinbabydress.com/?pos=4&kwd=nursing pillows&tags=BA||||8668.838|Price|product|||TS|rsf:gd-|-qr_nm:gd|res:RC3|com-cf:nl|ptrs:na|ktp:N0|mc:117695|mtp:S|qry_typ:P|lang:en|wc:2|flavl:0-1|cs:8449|v=4,False,Vilarasampatti,Erode,"192/4, Ishwarya Garden, Sengodampalayam, Villarasampatti Post, Erode,, Vilarasampatti, Erode - 638107, Dist.Erode, Tamil Nadu",8046030291,
Neck Pillow Pink Baby Nursing Pillows,https://www.indiamart.com/proddetail/baby-nursing-pillows-20590899673.html?pos=5&kwd=nursing pillows&tags=A||||8954.051||product|||TS|rsf:gd-|-qr_nm:gd|res:RC3|com-cf:nl|ptrs:na|ktp:N0|mc:117695|mtp:S|qry_typ:P|lang:en|wc:2|flavl:0-1|cs:8449|v=4,Prira Wellness Solutions,https://www.prirawellnesssolutions.com/?pos=5&kwd=nursing pillows&tags=A||||8954.051||product|||TS|rsf:gd-|-qr_nm:gd|res:RC3|com-cf:nl|ptrs:na|ktp:N0|mc:117695|mtp:S|qry_typ:P|lang:en|wc:2|flavl:0-1|cs:8449|v=4,False,T Nagar,Chennai,"No. 46, 1st Floor, Ramasamy Street, T Nagar, Chennai - 600017, Dist.Chennai, Tamil Nadu",8047637490,
Printed Yellow Cotton Baby Nursing Pillows,https://www.indiamart.com/proddetail/yellow-cotton-nursing-pillows-2854954191462.html?pos=6&kwd=nursing pillows&tags=A||||8626.744|Price|product|||MDC|rsf:gd-|-qr_nm:gd|res:RC3|com-cf:nl|ptrs:na|ktp:N0|mc:117695|mtp:S|qry_typ:P|lang:en|wc:2|flavl:0-1|cs:8449|v=4,Bawse Baby,https://www.indiamart.com/bawseebaby/?pos=6&kwd=nursing pillows&tags=A||||8626.744|Price|product|||MDC|rsf:gd-|-qr_nm:gd|res:RC3|com-cf:nl|ptrs:na|ktp:N0|mc:117695|mtp:S|qry_typ:P|lang:en|wc:2|flavl:0-1|cs:8449|v=4,False,,Tiruppur,"1/125A Semmetuth Thottam, Kulathuputhur, Andipalayam, Tiruppur - 641687, Dist.Coimbatore, Tamil Nadu",8047552265,
Feeding Baby Pillow,https://www.indiamart.com/proddetail/feeding-baby-pillow-2854872342933.html?pos=7&kwd=nursing pillows&tags=A||||8230.883|Price|product|||TS|rsf:gd-|-qr_nm:gd|res:RC3|com-cf:nl|ptrs:na|ktp:N0|mc:117695|mtp:S|qry_typ:P|lang:en|wc:2|flavl:0-1|cs:8449|v=4,Godfather Medicare Agency,https://www.godfatherimpex.com/?pos=7&kwd=nursing pillows&tags=A||||8230.883|Price|product|||TS|rsf:gd-|-qr_nm:gd|res:RC3|com-cf:nl|ptrs:na|ktp:N0|mc:117695|mtp:S|qry_typ:P|lang:en|wc:2|flavl:0-1|cs:8449|v=4,False,,Surat,"165, Shubhlaxmi Society, Nana Varachha, Surat - 395006, Dist.Surat, Gujarat",8044456116,
Nursing Pillows,https://www.indiamart.com/proddetail/nursing-pillows-2851318063591.html?pos=8&kwd=nursing pillows&tags=BA||||8752.144|Price|product|||TS|rsf:gd-|-qr_nm:gd|res:RC3|com-cf:nl|ptrs:na|ktp:N0|mc:117695|mtp:S|qry_typ:P|lang:en|wc:2|flavl:0-1|cs:8449|v=4,Bankey Bihari Enterprises,https://www.indiamart.com/bankey-bihari-enterprisesnewdelhi/?pos=8&kwd=nursing pillows&tags=BA||||8752.144|Price|product|||TS|rsf:gd-|-qr_nm:gd|res:RC3|com-cf:nl|ptrs:na|ktp:N0|mc:117695|mtp:S|qry_typ:P|lang:en|wc:2|flavl:0-1|cs:8449|v=4,False,Jahangirpuri,New Delhi,"Plot No 51 First Floor Street No 11 Harijan Colony Village Bhalsva, Jahangirpuri, New Delhi - 110033, Dist.Delhi, Delhi",7942825166,
Baby Nursing Arm Breastfeeding Pillow Soft Cotton Bottle Feeding Pillows,https://www.indiamart.com/proddetail/baby-nursing-arm-breastfeeding-pillow-soft-cotton-bottle-feeding-pillows-2854949219733.html?pos=9&kwd=nursing pillows&tags=BA||||8230.883|Price|product|||TS|rsf:gd-|-qr_nm:gd|res:RC3|com-cf:nl|ptrs:na|ktp:N0|mc:117695|mtp:S|qry_typ:P|lang:en|wc:2|flavl:0-1|cs:8449|v=4,Ravirandal,https://www.indiamart.com/ravirandal/?pos=9&kwd=nursing pillows&tags=BA||||8230.883|Price|product|||TS|rsf:gd-|-qr_nm:gd|res:RC3|com-cf:nl|ptrs:na|ktp:N0|mc:117695|mtp:S|qry_typ:P|lang:en|wc:2|flavl:0-1|cs:8449|v=4,False,Mota Varachha,Surat,"2nd, BLD-A,Shop No.212, Sicilia Commercial Complex, Mota Varachha, Mota Varachha, Surat - 394101, Dist.Surat, Gujarat",8045729479,
Multicolor Rectangular Nursing Arm Pillow,https://www.indiamart.com/proddetail/nursing-arm-pillow-2854874125091.html?pos=10&kwd=nursing pillows&tags=BB||||8230.883|Price|product|||TS|rsf:gd-|-qr_nm:gd|res:RC3|com-cf:nl|ptrs:na|ktp:N0|mc:117695|mtp:S|qry_typ:P|lang:en|wc:2|flavl:0-1|cs:8449|v=4,Mahant,https://www.themahant.com/?pos=10&kwd=nursing pillows&tags=BB||||8230.883|Price|product|||TS|rsf:gd-|-qr_nm:gd|res:RC3|com-cf:nl|ptrs:na|ktp:N0|mc:117695|mtp:S|qry_typ:P|lang:en|wc:2|flavl:0-1|cs:8449|v=4,False,Katargam,Surat,"E-1103, Shukan Heights, Opp, Kantareshwar Hanuman Temple, Singanpore, Katargam, Surat - 395004, Dist.Surat, Gujarat",8048954505,
Blue Feeding Pillow Nursing Pillow,https://www.indiamart.com/proddetail/feeding-pillow-nursing-pillow-27595059448.html?pos=11&kwd=nursing pillows&tags=BA||||8706.263|Price|product|||TS|rsf:gd-|-qr_nm:gd|res:RC3|com-cf:nl|ptrs:na|ktp:N0|mc:117695|mtp:S|qry_typ:P|lang:en|wc:2|flavl:0-1|cs:8449|v=4,Karur Export Company,https://www.karurexportcompany.in/?pos=11&kwd=nursing pillows&tags=BA||||8706.263|Price|product|||TS|rsf:gd-|-qr_nm:gd|res:RC3|com-cf:nl|ptrs:na|ktp:N0|mc:117695|mtp:S|qry_typ:P|lang:en|wc:2|flavl:0-1|cs:8449|v=4,True,Sri Poonkuyil Nagar,Karur,"41, 43, Kuluthu Palayam Road, Vengamedu, Sri Poonkuyil Nagar, Karur - 639006, Dist.Karur, Tamil Nadu",8048600914,
Baby Bed Pillow Multicolor Nursing Pillows cover,https://www.indiamart.com/proddetail/nursing-pillows-cover-26230506133.html?pos=12&kwd=nursing pillows&tags=BA||||8230.883|Price|product|||TS|rsf:gd-|-qr_nm:gd|res:RC3|com-cf:nl|ptrs:na|ktp:N0|mc:117695|mtp:S|qry_typ:P|lang:en|wc:2|flavl:0-1|cs:8449|v=4,PYOS,https://www.pyosofficial.com/?pos=12&kwd=nursing pillows&tags=BA||||8230.883|Price|product|||TS|rsf:gd-|-qr_nm:gd|res:RC3|com-cf:nl|ptrs:na|ktp:N0|mc:117695|mtp:S|qry_typ:P|lang:en|wc:2|flavl:0-1|cs:8449|v=4,False,Magdalla,Surat,"Plot No. 78, Ground Floor, S K Industrial Society-2, Udhana Magdalla Road, Magdalla, Surat - 395007, Dist.Surat, Gujarat",7942557798,
Baby Feeding Pillow,,Preeti Textiles,https://www.indiamart.com/preetitextiles/?pos=13&kwd=nursing pillows&tags=BA||||8559.269|Price|product|||TS|rsf:gd-|-qr_nm:gd|res:RC3|com-cf:nl|ptrs:na|ktp:N0|mc:117695|mtp:S|qry_typ:P|lang:en|wc:2|flavl:0-1|cs:8449|v=4,False,Vyankatesh Nagar,Indore,"133-134, 2nd Floor, Muchhal Chamber, MT Cloth Market, Vyankatesh Nagar, Indore - 452009, Dist.Indore, Madhya Pradesh",8048600421,
Pink Baby Nursing Pillow,https://www.indiamart.com/proddetail/baby-nursing-pillow-27456608033.html?pos=14&kwd=nursing pillows&tags=BA||||8785.791||product|||MDC|rsf:gd-|-qr_nm:gd|res:RC3|com-cf:nl|ptrs:na|ktp:N0|mc:117695|mtp:S|qry_typ:P|lang:en|wc:2|flavl:0-1|cs:8449|v=4,First Smile Enterprises,https://www.indiamart.com/firstsmileenterprises/?pos=14&kwd=nursing pillows&tags=BA||||8785.791||product|||MDC|rsf:gd-|-qr_nm:gd|res:RC3|com-cf:nl|ptrs:na|ktp:N0|mc:117695|mtp:S|qry_typ:P|lang:en|wc:2|flavl:0-1|cs:8449|v=4,False,Ahmed Nagar Nawada,Ghaziabad,"Khasra No 263, New Anand Vihar, Loni,, Ahmed Nagar Nawada, Ghaziabad - 201102, Dist.Ghaziabad, Uttar Pradesh",8043850100,
Baby Nursing Pillow,https://www.indiamart.com/proddetail/baby-nursing-pillow-2854787718488.html?pos=15&kwd=nursing pillows&tags=BA||||8752.144|Price|product|||MDC|rsf:gd-|-qr_nm:gd|res:RC3|com-cf:nl|ptrs:na|ktp:N0|mc:117695|mtp:S|qry_typ:P|lang:en|wc:2|cs:7592|v=4,Komal Embroidery,https://www.indiamart.com/komal-embroidery-newdelhi/?pos=15&kwd=nursing pillows&tags=BA||||8752.144|Price|product|||MDC|rsf:gd-|-qr_nm:gd|res:RC3|com-cf:nl|ptrs:na|ktp:N0|mc:117695|mtp:S|qry_typ:P|lang:en|wc:2|cs:7592|v=4,False,Rithala,New Delhi,"Ground Floor, Shop No. PVT-3, KH No. 1203, Lal Doora Village Rithala Near Surya Hotel, Rithala, New Delhi - 110085, Dist.Delhi, Delhi",8045730251,
Multicolor U Striped Baby Feeding Pillow,https://www.indiamart.com/proddetail/striped-baby-feeding-pillow-2854561461033.html?pos=16&kwd=nursing pillows&tags=BA||||8663.873|Price|product|||MDC|rsf:gd-|-qr_nm:gd|res:RC3|com-cf:nl|ptrs:na|ktp:N0|mc:117695|mtp:S|qry_typ:P|lang:en|wc:2|cs:7592|v=4,AQ Corporation,https://www.indiamart.com/aqcorporation/?pos=16&kwd=nursing pillows&tags=BA||||8663.873|Price|product|||MDC|rsf:gd-|-qr_nm:gd|res:RC3|com-cf:nl|ptrs:na|ktp:N0|mc:117695|mtp:S|qry_typ:P|lang:en|wc:2|cs:7592|v=4,False,,Bengaluru,"Ground And First Floor, No 88, 2nd Cross, 4th Main, NGEF Layout, Nagashetty Halli, Sanjaynagar Bengaluru Urban, Bengaluru - 560094, Dist.Bengaluru, Karnataka",7949325043,
Ergonomic deisgn baby sleeping nursing feeding pillow,,Universal Enterprise,https://www.indiamart.com/universal-enterprisemumbai/?pos=17&kwd=nursing pillows&tags=A||||8211.142|Price|product|||MDC|rsf:gd-|-qr_nm:gd|res:RC3|com-cf:nl|ptrs:na|ktp:N0|mc:117695|mtp:S|qry_typ:P|lang:en|wc:2|cs:7592|v=4,False,,Mumbai,"Besment-A, Plot No 67E Office No 22, Maganlal Chambers, Baburao Bobde Marg, Mandavi, Chinch Bandar, Mumbai - 400009, Dist.Mumbai, Maharashtra",8044456905,
Pink Pseudo Breastfeeding Cradle Arm Pillow,https://www.indiamart.com/proddetail/pseudo-breastfeeding-cradle-arm-pillow-2855024379330.html?pos=18&kwd=nursing pillows&tags=A||||8752.144|Price|product|||MDC|rsf:gd-|-qr_nm:gd|res:RC3|com-cf:nl|ptrs:na|ktp:N0|mc:117695|mtp:S|qry_typ:P|lang:en|wc:2|cs:7592|v=4,Dealsup,https://www.indiamart.com/dealsup-north-delhi/?pos=18&kwd=nursing pillows&tags=A||||8752.144|Price|product|||MDC|rsf:gd-|-qr_nm:gd|res:RC3|com-cf:nl|ptrs:na|ktp:N0|mc:117695|mtp:S|qry_typ:P|lang:en|wc:2|cs:7592|v=4,False,,New Delhi,"Kamal Pur Majra, Khasra No. 7/14, Kamal Vihar, Village Burari North Delhi, New Delhi - 110084, Dist.Delhi, Delhi",7942532252,
White Feeding C Pillow,https://www.indiamart.com/proddetail/white-feeding-c-pillow-2852616580855.html?pos=19&kwd=nursing pillows&tags=BA||||8706.263|Price|product|||MDC|rsf:gd-|-qr_nm:gd|res:RC3|com-cf:nl|ptrs:na|ktp:N0|mc:117695|mtp:S|qry_typ:P|lang:en|wc:2|cs:7592|v=4,Sri Balaji Fabric,https://www.indiamart.com/sribalaji-fabric/?pos=19&kwd=nursing pillows&tags=BA||||8706.263|Price|product|||MDC|rsf:gd-|-qr_nm:gd|res:RC3|com-cf:nl|ptrs:na|ktp:N0|mc:117695|mtp:S|qry_typ:P|lang:en|wc:2|cs:7592|v=4,False,Athur,Karur,"D No 1/390,Sanjai Nagar,Andan Kovil Keelpagam,Erode Road,Athur Po, Athur, Karur - 639002, Dist.Karur, Tamil Nadu",7942704917,
"Kaevion Cotton U Shape Baby Nursing Pillow, For Home, Size/Dimension: L-45 X B-24 X H-23 cm",https://www.indiamart.com/proddetail/u-shape-baby-nursing-pillow-27186179373.html?pos=20&kwd=nursing pillows&tags=BA||||8723.301|Price|product|||MDC|rsf:gd-|-qr_nm:gd|res:RC3|com-cf:nl|ptrs:na|ktp:N0|mc:117695|mtp:S|qry_typ:P|lang:en|wc:2|cs:7592|v=4,Kaevion,https://www.indiamart.com/kaevion-bhopal/?pos=20&kwd=nursing pillows&tags=BA||||8723.301|Price|product|||MDC|rsf:gd-|-qr_nm:gd|res:RC3|com-cf:nl|ptrs:na|ktp:N0|mc:117695|mtp:S|qry_typ:P|lang:en|wc:2|cs:7592|v=4,False,Nivesh Colony,Bhopal,"New Mla Colony H No 41 Behind Unique College Jawahar Chowk, Nivesh Colony, Bhopal - 462003, Dist.Bhopal, Madhya Pradesh",7942834010,
Multicolor U Maternity Feeding Pillow,https://www.indiamart.com/proddetail/maternity-feeding-pillow-2851449890955.html?pos=21&kwd=nursing pillows&tags=BA||||8211.142|Price|product|||MDC|rsf:gd-|-qr_nm:gd|res:RC3|com-cf:nl|ptrs:na|ktp:N0|mc:117695|mtp:S|qry_typ:P|lang:en|wc:2|cs:7592|v=4,Maruti,https://www.indiamart.com/maruti-maharashtra/?pos=21&kwd=nursing pillows&tags=BA||||8211.142|Price|product|||MDC|rsf:gd-|-qr_nm:gd|res:RC3|com-cf:nl|ptrs:na|ktp:N0|mc:117695|mtp:S|qry_typ:P|lang:en|wc:2|cs:7592|v=4,False,Kandivali West,Mumbai,"Ground Floor, Room No D 46 / Plot No 270, Apeksha Society, Sector No 2 Charkop, Kandivali, Kandivali West, Mumbai - 400067, Dist.Mumbai, Maharashtra",8047306987,
Feeding pillow,,Sidhshlok Enterprises,https://www.indiamart.com/sidhshlokenterprises/?pos=22&kwd=nursing pillows&tags=BB||||8211.142|Price|product|||TS|rsf:gd-|-qr_nm:gd|res:RC3|com-cf:nl|ptrs:na|ktp:N0|mc:117695|mtp:S|qry_typ:P|lang:en|wc:2|cs:7592|v=4,False,Mulund West,Mumbai,"A-9, Chagpar Khimaji, R R T Road, Mumbai Suburban, Mulund West, Mumbai - 400080, Dist.Mumbai, Maharashtra",7942832648,
Breas feeding pillow,,Kapil Enterprises,https://www.indiamart.com/kapilenterprisesnew-delhi/?pos=23&kwd=nursing pillows&tags=BA||||8752.144|Price|product|||MDC|rsf:gd-|-qr_nm:gd|res:RC3|com-cf:nl|ptrs:na|ktp:N0|mc:117695|mtp:S|qry_typ:P|lang:en|wc:2|cs:7592|v=4,False,Vijay Vihar,New Delhi,"Ground Floor, E-25, Vijay Vihar, Near Badi Masjid, Rohini Sector 7, North West Delhi, Vijay Vihar, New Delhi - 110085, Dist.Delhi, Delhi",7949092118,
White C Shape Feeding/ Nursing Pillow,https://www.indiamart.com/proddetail/feeding-nursing-pillow-2852133877612.html?pos=24&kwd=nursing pillows&tags=BB||||8588.545|Price|product|||NA|rsf:gd-|-qr_nm:gd|res:RC3|com-cf:nl|ptrs:na|ktp:N0|mc:117695|mtp:S|qry_typ:P|lang:en|wc:2|cs:7592|v=4,VI-Enterprises,https://www.indiamart.com/vienterprisestiruppur/?pos=24&kwd=nursing pillows&tags=BB||||8588.545|Price|product|||NA|rsf:gd-|-qr_nm:gd|res:RC3|com-cf:nl|ptrs:na|ktp:N0|mc:117695|mtp:S|qry_typ:P|lang:en|wc:2|cs:7592|v=4,False,Udumalpet (TK),Pollachi,"6/158 A. Ammapatti Post Mounagurusamy Udumalpet Taluk Tiruppur, Udumalpet (TK), Pollachi - 642205, Dist.Coimbatore, Tamil Nadu",8048617483,
Blue(Base) Semicircular Baby Printed Nursing Feeding Pillow,https://www.indiamart.com/proddetail/baby-printed-nursing-feeding-pillow-2850548187273.html?pos=25&kwd=nursing pillows&tags=BA||||8211.142|Price|product|||NA|rsf:gd-|-qr_nm:gd|res:RC3|com-cf:nl|ptrs:na|ktp:N0|mc:117695|mtp:S|qry_typ:P|lang:en|wc:2|cs:7592|v=4,Colours Baby Clothing Co.,https://www.indiamart.com/coloursbabyclothing/?pos=25&kwd=nursing pillows&tags=BA||||8211.142|Price|product|||NA|rsf:gd-|-qr_nm:gd|res:RC3|com-cf:nl|ptrs:na|ktp:N0|mc:117695|mtp:S|qry_typ:P|lang:en|wc:2|cs:7592|v=4,False,,Mumbai,"1st Floor Gandhi Industrial Estates Poomi Ka Road, Villlage Mohali, Mumbai - 400070, Dist.Mumbai, Maharashtra",8047785453,
"PRINTED BABY NURSING PILLOW / BABY BREAST FEEDING PILLOW, Packaging Type: POLYBAG, 0-18 MONTHS",https://www.indiamart.com/proddetail/baby-nursing-pillow-baby-breast-feeding-pillow-2850712607430.html?pos=26&kwd=nursing pillows&tags=BA||||8236.946|Price|product|||NA|rsf:gd-|-qr_nm:gd|res:RC3|com-cf:nl|ptrs:na|ktp:N0|mc:117695|mtp:S|qry_typ:P|lang:en|wc:2|cs:7592|v=4,Pranita Textile,https://www.indiamart.com/pranita-textile/?pos=26&kwd=nursing pillows&tags=BA||||8236.946|Price|product|||NA|rsf:gd-|-qr_nm:gd|res:RC3|com-cf:nl|ptrs:na|ktp:N0|mc:117695|mtp:S|qry_typ:P|lang:en|wc:2|cs:7592|v=4,False,,Raigad,"Unit No 206, 2nd Fioor, Silver Springs, Taloja Midc, Taloja Panchanand, Raigad., Raigad - 410208, Maharashtra",8043855238,
"Get It Brand 100 % Cotton Breast Nursing Feeding Recron Pillow, Removable cover withZip,",https://www.indiamart.com/proddetail/get-it-brand-100-cotton-breast-nursing-feeding-recron-pillow-removable-cover-withzip-2850679615391.html?pos=27&kwd=nursing pillows&tags=BA||||8954.051|Price|product|||NA|rsf:gd-|-qr_nm:gd|res:RC3|com-cf:nl|ptrs:na|ktp:N0|mc:117695|mtp:S|qry_typ:P|lang:en|wc:2|cs:7592|v=4,GET IT Brand Product Manufacture,https://www.indiamart.com/get-it-traders-chennai/?pos=27&kwd=nursing pillows&tags=BA||||8954.051|Price|product|||NA|rsf:gd-|-qr_nm:gd|res:RC3|com-cf:nl|ptrs:na|ktp:N0|mc:117695|mtp:S|qry_typ:P|lang:en|wc:2|cs:7592|v=4,False,,Chennai,"Hyder Garden 1st , Perambur, Chennai - 600012, Dist.Chennai, Tamil Nadu",8069264858,497
Pink U Breastfeeding Pillow,https://www.indiamart.com/proddetail/breastfeeding-pillow-2854286667948.html?pos=28&kwd=nursing pillows&tags=BA||||8752.144|Price|product|||NA|rsf:gd-|-qr_nm:gd|res:RC3|com-cf:nl|ptrs:na|ktp:N0|mc:117695|mtp:S|qry_typ:P|lang:en|wc:2|cs:7592|v=4,Varnar Viral,https://www.indiamart.com/varnar-viral/?pos=28&kwd=nursing pillows&tags=BA||||8752.144|Price|product|||NA|rsf:gd-|-qr_nm:gd|res:RC3|com-cf:nl|ptrs:na|ktp:N0|mc:117695|mtp:S|qry_typ:P|lang:en|wc:2|cs:7592|v=4,False,,New Delhi,"First Floor, House No.1049, Karol Bagh,blk- T, Bhagat Singh Nagar, Near By Kumar Studio, Manakpura Central Delhi, New Delhi - 110005, Dist.Delhi, Delhi",8045729464,
"K JOON Multicolor Breastfeeding Pillow, For Home, Shape: Round",https://www.indiamart.com/proddetail/breastfeeding-pillow-2853281452948.html?pos=29&kwd=nursing pillows&tags=BA||||8734.695|Price|product|||NA|rsf:gd-|-qr_nm:gd|res:RC3|com-cf:nl|ptrs:na|ktp:N0|mc:117695|mtp:S|qry_typ:P|lang:en|wc:2|cs:7592|v=4,K Joon Exports,https://www.indiamart.com/k-joon-exports/?pos=29&kwd=nursing pillows&tags=BA||||8734.695|Price|product|||NA|rsf:gd-|-qr_nm:gd|res:RC3|com-cf:nl|ptrs:na|ktp:N0|mc:117695|mtp:S|qry_typ:P|lang:en|wc:2|cs:7592|v=4,False,Sarai Aurangabad,Bahadurgarh,"H No 151, VPO Nuna Majra, Tehsil Bahadurgarh, Jhajjar, Sarai Aurangabad, Bahadurgarh - 124507, Dist.Jhajjar, Haryana",8047662139,
Multicolor Rectangular Breast Feeding Pillow,https://www.indiamart.com/proddetail/breast-feeding-pillow-2851131484448.html?pos=30&kwd=nursing pillows&tags=BA||||8752.144|Price|product|||NA|rsf:gd-|-qr_nm:gd|res:RC3|com-cf:nl|ptrs:na|ktp:N0|mc:117695|mtp:S|qry_typ:P|lang:en|wc:2|cs:7592|v=4,Galaxy Enterprises,https://www.indiamart.com/galaxyenterprisesnewdelhi/?pos=30&kwd=nursing pillows&tags=BA||||8752.144|Price|product|||NA|rsf:gd-|-qr_nm:gd|res:RC3|com-cf:nl|ptrs:na|ktp:N0|mc:117695|mtp:S|qry_typ:P|lang:en|wc:2|cs:7592|v=4,False,,New Delhi,"No 2530, 3rd Floor, Basti Punjabian, Central Delhi, New Delhi - 110007, Dist.Delhi, Delhi",7942827200,
Feeding Nursing Pillow,https://www.indiamart.com/proddetail/feeding-nursing-pillow-26390544430.html?pos=31&kwd=nursing pillows&tags=BA||||8626.744|Price|product|||NA|rsf:gd-|-qr_nm:gd|res:RC3|com-cf:nl|ptrs:na|ktp:N0|mc:117695|mtp:S|qry_typ:P|lang:en|wc:2|cs:7592|v=4,Selvavinayagartexstyles,https://www.indiamart.com/selvavinayagartexstyles/?pos=31&kwd=nursing pillows&tags=BA||||8626.744|Price|product|||NA|rsf:gd-|-qr_nm:gd|res:RC3|com-cf:nl|ptrs:na|ktp:N0|mc:117695|mtp:S|qry_typ:P|lang:en|wc:2|cs:7592|v=4,False,KNS Subramaniam Nagar,Tiruppur,"No. 373, K. Chettipalayam, KNS Subramaniam Nagar, Tiruppur - 641608, Dist.Coimbatore, Tamil Nadu",8047795869,
Blue (base) Baby U Shape Nursing Pillow,https://www.indiamart.com/proddetail/u-shape-baby-pillow-2852975116762.html?pos=32&kwd=nursing pillows&tags=BA||||8559.269|Price|product|||NA|rsf:gd-|-qr_nm:gd|res:RC3|com-cf:nl|ptrs:na|ktp:N0|mc:117695|mtp:S|qry_typ:P|lang:en|wc:2|cs:7592|v=4,Navkar Traders,https://www.indiamart.com/navkar-tradersindore/?pos=32&kwd=nursing pillows&tags=BA||||8559.269|Price|product|||NA|rsf:gd-|-qr_nm:gd|res:RC3|com-cf:nl|ptrs:na|ktp:N0|mc:117695|mtp:S|qry_typ:P|lang:en|wc:2|cs:7592|v=4,False,Sukhlia,Indore,"304, Shyam Bhatika Ke Pass, Shyam Nagar,, Sukhlia, Indore - 452010, Dist.Indore, Madhya Pradesh",7942962327,
Rectangular Baby mother feeding pillow,https://www.indiamart.com/proddetail/baby-mother-feeding-pillow-2850838933897.html?pos=33&kwd=nursing pillows&tags=BB||||8954.051|Price|product|||NA|rsf:gd-|-qr_nm:gd|res:RC3|com-cf:nl|ptrs:na|ktp:N0|mc:117695|mtp:S|qry_typ:P|lang:en|wc:2|cs:7592|v=4,Baby Doll Traders,https://www.indiamart.com/baby-doll-traders/?pos=33&kwd=nursing pillows&tags=BB||||8954.051|Price|product|||NA|rsf:gd-|-qr_nm:gd|res:RC3|com-cf:nl|ptrs:na|ktp:N0|mc:117695|mtp:S|qry_typ:P|lang:en|wc:2|cs:7592|v=4,False,,Chennai,"7/64, Pillaiyar Koil Street, Eadapalayam, Alamathi, Chennai - 600052, Dist.Chennai, Tamil Nadu",7942958583,
Twins Nursing Pillow,,R R Enterprises,https://www.indiamart.com/r-r-enterprises-hazaribagh/?pos=34&kwd=nursing pillows&tags=B||||9537.216||product|||NA|rsf:gd-|-qr_nm:gd|res:RC3|com-cf:nl|ptrs:na|ktp:N0|mc:117695|mtp:S|qry_typ:P|lang:en|wc:2|cs:7592|v=4,False,Panathur,Hazaribagh,"1,Baba Path,Binod General Store,Hurhuru,Hazaribag,Hazaribag, Panathur, Hazaribagh - 825301, Dist.Hazaribag, Jharkhand",8047311027,5940
Feeding Nursing Shawl,,M Cube Creations,https://www.indiamart.com/m-cube-creations-tiruppur/?pos=35&kwd=nursing pillows&tags=BA||||8626.744||product|||NA|rsf:gd-|-qr_nm:gd|res:RC3|com-cf:nl|ptrs:na|ktp:N0|mc:117695|mtp:S|qry_typ:P|lang:en|wc:2|cs:7592|v=4,False,tirupur Tsr layout kongu main road,Tiruppur,"Door No.11/5, Kongu Main Road T.s.r Layout 4th Street Tsr layout kongu main road, tirupur Tsr layout kongu main road, Tiruppur - 641607, Dist.Coimbatore, Tamil Nadu",8069416042,441
Feeding Pillow Nursing Pillow,,Ashriti Wardrobe,https://www.indiamart.com/ashriti-wardrobe/?pos=36&kwd=nursing pillows&tags=BA||||8651.144|Price|product|||NA|rsf:gd-|-qr_nm:gd|res:RC3|com-cf:nl|ptrs:na|ktp:N0|mc:117695|mtp:S|qry_typ:P|lang:en|wc:2|cs:7592|v=4,False,,Sangrur,"Bxi 1862 New Grain Market Road, Opposite FCI Godowns, Barnala, Sangrur - 148101, Dist.Sangrur, Punjab",8069416034,700
Feeding Pillow Nursing Pillow,,Navstar Impex,https://www.indiamart.com/navstar-impex/?pos=37&kwd=nursing pillows&tags=BA||||8687.934|Price|product|||NA|rsf:gd-|-qr_nm:gd|res:RC3|com-cf:nl|ptrs:na|ktp:N0|mc:117695|mtp:S|qry_typ:P|lang:en|wc:2|cs:7592|v=4,False,Sivakasi,Virudhunagar,"2/1423f Thirupathi Nagar Sivakasi, Sivakasi, Virudhunagar - 626123, Dist.Virudhunagar, Tamil Nadu",8048372134,752
Feeding Pillow Nursing Pillow,,Knead Your Dream,https://www.indiamart.com/knead-your-dream/?pos=38&kwd=nursing pillows&tags=BB||||8457.459|Price|product|||NA|rsf:gd-|-qr_nm:gd|res:RC3|com-cf:nl|ptrs:na|ktp:N0|mc:117695|mtp:S|qry_typ:P|lang:en|wc:2|cs:7592|v=4,False,Kakkur,Kozhikode,"586 Kakkur Kakkuparambath Chelannur, Kakkur, Kozhikode - 673613, Dist.Kozhikode, Kerala",8043885486,
Feeding Pillow Nursing Pillow,,Mommies,https://www.indiamart.com/mommies-thiruvananthapuram/?pos=39&kwd=nursing pillows&tags=BB||||8571.301||product|||NA|rsf:gd-|-qr_nm:gd|res:RC3|com-cf:nl|ptrs:na|ktp:N0|mc:117695|mtp:S|qry_typ:P|lang:en|wc:2|cs:7592|v=4,False,Kowdiar,Thiruvananthapuram,"TC 24/3088, Dotspace Business Center, Ushasandya Building Devasom Board Road, Kowdiar, Thiruvananthapuram - 695003, Dist.Thiruvananthapuram, Kerala",8048268238,
Feeding Pillow,,A To Z Garments,https://www.indiamart.com/atozgarments-godhra/?pos=40&kwd=nursing pillows&tags=BA||||8331.18||product|||NA|rsf:gd-|-qr_nm:gd|res:RC3|com-cf:nl|ptrs:na|ktp:N0|mc:117695|mtp:S|qry_typ:P|lang:en|wc:2|cs:7592|v=4,False,,Godhra,"patelwada, Godhra - 389001, Dist.Panch Mahals, Gujarat",8048371653,186
Feeding Pillow,,Momo Traders,https://www.indiamart.com/momo-traders/?pos=41&kwd=nursing pillows&tags=B||||8488.621||product|||NA|rsf:gd-|-qr_nm:gd|res:RC3|com-cf:nl|ptrs:na|ktp:N0|mc:117695|mtp:S|qry_typ:P|lang:en|wc:2|cs:7592|v=4,False,,Akathiyoor,"1/376/2,Cheruvathani,Vadutala,Kunnamkulam,Thrissur, Akathiyoor - 680523, Kerala",8048370722,4857
IMPORTIKAAH Baby Breastfeeding Pillow (Price-1199),,Importikah,https://www.indiamart.com/importikah/?pos=42&kwd=nursing pillows&tags=BB||||8350.861||product|||NA|rsf:gd-|-qr_nm:gd|res:RC3|com-cf:nl|ptrs:na|ktp:N0|mc:117695|mtp:S|qry_typ:P|lang:en|wc:2|cs:7592|v=4,False,,Belgaum,"H.No.31, 4th Cross, Shivaji Nagar, Belagavi, Belgaum - 590016, Dist.Belgaum, Karnataka",7942821639,
Feeding Pillow,,A To Z Garments,https://www.indiamart.com/atozgarments-godhra/?pos=43&kwd=nursing pillows&tags=BA||||8331.18||product|||NA|rsf:gd-|-qr_nm:gd|res:RC3|com-cf:nl|ptrs:na|ktp:N0|mc:117695|mtp:S|qry_typ:P|lang:en|wc:2|cs:7592|v=4,False,,Godhra,"patelwada, Godhra - 389001, Dist.Panch Mahals, Gujarat",8048371653,186
Feeding Pillow,,Momo Traders,https://www.indiamart.com/momo-traders/?pos=44&kwd=nursing pillows&tags=B||||8488.621||product|||NA|rsf:gd-|-qr_nm:gd|res:RC3|com-cf:nl|ptrs:na|ktp:N0|mc:117695|mtp:S|qry_typ:P|lang:en|wc:2|cs:7592|v=4,False,,Akathiyoor,"1/376/2,Cheruvathani,Vadutala,Kunnamkulam,Thrissur, Akathiyoor - 680523, Kerala",8048370722,4857
IMPORTIKAAH Baby Breastfeeding Pillow (Price-1199),,Importikah,https://www.indiamart.com/importikah/?pos=45&kwd=nursing pillows&tags=BB||||8350.861||product|||NA|rsf:gd-|-qr_nm:gd|res:RC3|com-cf:nl|ptrs:na|ktp:N0|mc:117695|mtp:S|qry_typ:P|lang:en|wc:2|cs:7592|v=4,False,,Belgaum,"H.No.31, 4th Cross, Shivaji Nagar, Belagavi, Belgaum - 590016, Dist.Belgaum, Karnataka",7942821639,
Baby Nursing Pillow,https://www.indiamart.com/proddetail/baby-nursing-pillow-2854787718488.html?pos=46&kwd=nursing pillows&tags=||||8752.144|Price|product|||MDC|rsf:gd-|-qr_nm:gd|res:RC3|com-cf:nl|ptrs:na|ktp:N0|mc:117695|mtp:S|qry_typ:P|lang:en|wc:2|cs:7592|v=4,Komal Embroidery,https://www.indiamart.com/komal-embroidery-newdelhi/?pos=46&kwd=nursing pillows&tags=||||8752.144|Price|product|||MDC|rsf:gd-|-qr_nm:gd|res:RC3|com-cf:nl|ptrs:na|ktp:N0|mc:117695|mtp:S|qry_typ:P|lang:en|wc:2|cs:7592|v=4,False,Rithala,New Delhi,"Ground Floor, Shop No. PVT-3, KH No. 1203, Lal Doora Village Rithala Near Surya Hotel, Rithala, New Delhi - 110085, Dist.Delhi, Delhi",8045730251,
Nursing Pillows,https://www.indiamart.com/proddetail/nursing-pillows-11698151755.html?pos=47&kwd=nursing pillows&tags=CC||||8211.142||product|||TS|rsf:gd-|-qr_nm:gd|res:RC3|com-cf:nl|ptrs:na|ktp:N0|mc:117695|mtp:S|qry_typ:P|lang:en|wc:2|cs:7592|v=4,Neo Polly Pillow,https://www.indiamart.com/neo-polly-pillow/?pos=47&kwd=nursing pillows&tags=CC||||8211.142||product|||TS|rsf:gd-|-qr_nm:gd|res:RC3|com-cf:nl|ptrs:na|ktp:N0|mc:117695|mtp:S|qry_typ:P|lang:en|wc:2|cs:7592|v=4,False,Ghatkopar West,Mumbai,"D-4, Ashapura Estate, Jungleshwar Mandir Road, Subhash Nagar Asalpha, Ghatkopar West, Mumbai - 400084, Dist.Mumbai, Maharashtra",8046071532,
"Nursing Cotton Pillow, Size: Standard",https://www.indiamart.com/proddetail/nursing-cotton-pillow-15275296533.html?pos=48&kwd=nursing pillows&tags=CC||||8706.263||product|||TS|rsf:gd-|-qr_nm:gd|res:RC3|com-cf:nl|ptrs:na|ktp:N0|mc:117695|mtp:S|qry_typ:P|lang:en|wc:2|cs:7592|v=4,Saravana Traders,https://www.indiamart.com/saravana-traders-karur/?pos=48&kwd=nursing pillows&tags=CC||||8706.263||product|||TS|rsf:gd-|-qr_nm:gd|res:RC3|com-cf:nl|ptrs:na|ktp:N0|mc:117695|mtp:S|qry_typ:P|lang:en|wc:2|cs:7592|v=4,True,Lvb Nagar,Karur,"No. 71, Lvb Nagar, Karur - 639002, Dist.Karur, Tamil Nadu",8048958966,
Feeding Baby Pillow,https://www.indiamart.com/proddetail/feeding-baby-pillow-2853636882955.html?pos=49&kwd=nursing pillows&tags=CC||||9148.645|Price|product|||MDC|rsf:gd-|-qr_nm:gd|res:RC3|com-cf:nl|ptrs:na|ktp:N0|mc:117695|mtp:S|qry_typ:P|lang:en|wc:2|cs:7592|v=4,Sri Jaya Enterprises,https://www.indiamart.com/sri-jayaenterprises/?pos=49&kwd=nursing pillows&tags=CC||||9148.645|Price|product|||MDC|rsf:gd-|-qr_nm:gd|res:RC3|com-cf:nl|ptrs:na|ktp:N0|mc:117695|mtp:S|qry_typ:P|lang:en|wc:2|cs:7592|v=4,False,Machara,Mandapeta,"31-1-27/1, Ward No 13, Alamuru Road, Mandapeta, East Godavari, Machara, Mandapeta - 533308, Dist.East Godavari, Andhra Pradesh",7949093426,
DB-197 Velvet Feeding Pillow,https://www.indiamart.com/proddetail/db-197-velvet-feeding-pillow-2854144952262.html?pos=50&kwd=nursing pillows&tags=CC||||8693.162||product|||MDC|rsf:gd-|-qr_nm:gd|res:RC3|com-cf:nl|ptrs:na|ktp:N0|mc:117695|mtp:S|qry_typ:P|lang:en|wc:2|cs:7592|v=4,Dear Baby,https://www.indiamart.com/dearbaby/?pos=50&kwd=nursing pillows&tags=CC||||8693.162||product|||MDC|rsf:gd-|-qr_nm:gd|res:RC3|com-cf:nl|ptrs:na|ktp:N0|mc:117695|mtp:S|qry_typ:P|lang:en|wc:2|cs:7592|v=4,False,Begambur,Dindigul,"2nd Floor, No 7, Ahmad Appartment, S P Nagar, Begambur, Begambur, Dindigul - 624002, Dist.Dindigul, Tamil Nadu",8045731862,
Pregnancy Pillow Baby Nursing Breast Feeding Pillow Full Body Support Sleeping Pillow,https://www.indiamart.com/proddetail/pregnancy-pillow-baby-nursing-breast-feeding-pillow-full-body-support-sleeping-pillow-26286844988.html?pos=51&kwd=nursing pillows&tags=CC||||8723.301|Price|product|||TS|rsf:gd-|-qr_nm:gd|res:RC3|com-cf:nl|ptrs:na|ktp:N0|mc:117695|mtp:S|qry_typ:P|lang:en|wc:2|cs:7592|v=4,NETBOON,https://www.oxywave.in/?pos=51&kwd=nursing pillows&tags=CC||||8723.301|Price|product|||TS|rsf:gd-|-qr_nm:gd|res:RC3|com-cf:nl|ptrs:na|ktp:N0|mc:117695|mtp:S|qry_typ:P|lang:en|wc:2|cs:7592|v=4,False,M.A.C.T.,Bhopal,"6/9, Sanjay Complex, M.A.C.T., Bhopal - 462003, Dist.Bhopal, Madhya Pradesh",8048964961,
G Shape Pregnancy pillow,https://www.indiamart.com/proddetail/pregnancy-pillow-2853780577630.html?pos=52&kwd=nursing pillows&tags=CC||||8752.144|Price|product|||MDC|rsf:gd-|-qr_nm:gd|res:RC3|com-cf:nl|ptrs:na|ktp:N0|mc:117695|mtp:S|qry_typ:P|lang:en|wc:2|cs:7592|v=4,RV Enterprises,https://www.indiamart.com/rventerprises-northdelhi/?pos=52&kwd=nursing pillows&tags=CC||||8752.144|Price|product|||MDC|rsf:gd-|-qr_nm:gd|res:RC3|com-cf:nl|ptrs:na|ktp:N0|mc:117695|mtp:S|qry_typ:P|lang:en|wc:2|cs:7592|v=4,False,Mukundpur,New Delhi,"KH No . 234 Ground Floor, Village Mukandpur Extn, North Delhi, Mukundpur, New Delhi - 110042, Dist.Delhi, Delhi",7942964445,
White Printed Nursing Pillow,https://www.indiamart.com/proddetail/printed-nursing-pillow-2853704098373.html?pos=53&kwd=nursing pillows&tags=||||8706.263|Price|product|||TS|rsf:gd-|-qr_nm:gd|res:RC3|com-cf:nl|ptrs:na|ktp:N0|mc:117695|mtp:S|qry_typ:P|lang:en|wc:2|cs:7592|v=4,L S Textiles And Exports Private Limited,https://www.indiamart.com/lstextiles/?pos=53&kwd=nursing pillows&tags=||||8706.263|Price|product|||TS|rsf:gd-|-qr_nm:gd|res:RC3|com-cf:nl|ptrs:na|ktp:N0|mc:117695|mtp:S|qry_typ:P|lang:en|wc:2|cs:7592|v=4,True,Punnam,Karur,"S.F.No.141/13 South Punnam Village, Pugalur Taluk Palamapuram, Punnam, Karur - 639136, Dist.Karur, Tamil Nadu",8047851645,
Baby Nest Comfyt Baby Pillow Portable Bassinet Newborn Bed Baby Cocoon Travel Crib Sleeping,https://www.indiamart.com/proddetail/baby-nest-comfyt-baby-pillow-portable-bassinet-newborn-bed-baby-cocoon-travel-crib-sleeping-2852551595612.html?pos=54&kwd=nursing pillows&tags=CC||||8211.142|Price|product|||TS|rsf:gd-|-qr_nm:gd|res:RC3|com-cf:nl|ptrs:na|ktp:N0|mc:117695|mtp:S|qry_typ:P|lang:en|wc:2|cs:7592|v=4,Homenity,https://www.homenity.in/?pos=54&kwd=nursing pillows&tags=CC||||8211.142|Price|product|||TS|rsf:gd-|-qr_nm:gd|res:RC3|com-cf:nl|ptrs:na|ktp:N0|mc:117695|mtp:S|qry_typ:P|lang:en|wc:2|cs:7592|v=4,False,Masjid Bandar,Mumbai,"203, 2nd Floor, Plot-13a Mehajabeen Arcade, Chakala Cross Lane, Mumbai, Mumbai, Maharashtra, Masjid Bandar, Mumbai - 400003, Dist.Mumbai, Maharashtra",8047673711,
"Kaevion Cotton U Shape Baby Nursing Pillow, For Home, Size/Dimension: L-45 X B-24 X H-23 cm",https://www.indiamart.com/proddetail/u-shape-baby-nursing-pillow-27186179373.html?pos=55&kwd=nursing pillows&tags=||||8723.301|Price|product|||MDC|rsf:gd-|-qr_nm:gd|res:RC3|com-cf:nl|ptrs:na|ktp:N0|mc:117695|mtp:S|qry_typ:P|lang:en|wc:2|cs:7592|v=4,Kaevion,https://www.indiamart.com/kaevion-bhopal/?pos=55&kwd=nursing pillows&tags=||||8723.301|Price|product|||MDC|rsf:gd-|-qr_nm:gd|res:RC3|com-cf:nl|ptrs:na|ktp:N0|mc:117695|mtp:S|qry_typ:P|lang:en|wc:2|cs:7592|v=4,False,Nivesh Colony,Bhopal,"New Mla Colony H No 41 Behind Unique College Jawahar Chowk, Nivesh Colony, Bhopal - 462003, Dist.Bhopal, Madhya Pradesh",7942834010,
Baby Head Shaping D Shape Pillow,https://www.indiamart.com/proddetail/baby-head-shaping-d-shape-pillow-2853364438662.html?pos=56&kwd=nursing pillows&tags=||||8741.812|Price|product|||TS|rsf:gd-|-qr_nm:gd|res:RC3|com-cf:nl|ptrs:na|ktp:N0|mc:117695|mtp:S|qry_typ:P|lang:en|wc:2|cs:7592|v=4,Saimson,https://www.saimson.com/?pos=56&kwd=nursing pillows&tags=||||8741.812|Price|product|||TS|rsf:gd-|-qr_nm:gd|res:RC3|com-cf:nl|ptrs:na|ktp:N0|mc:117695|mtp:S|qry_typ:P|lang:en|wc:2|cs:7592|v=4,False,Punhana,Gurugram,"Kewat No/ Khata No 477/534 M. N 51, Kila No 8/2 7-3, Punhana, Lohinga Kalan,, Punhana, Gurugram - 122508, Dist.Gurgaon, Haryana",7942964240,
Comfortable Full Body U Shaped Memory Foam Maternity Pregnancy Pillow For Sleeping,https://www.indiamart.com/proddetail/comfortable-full-body-u-shaped-memory-foam-maternity-pregnancy-pillow-for-sleeping-2851637823930.html?pos=57&kwd=nursing pillows&tags=||||8785.791|Price|product|||TS|rsf:gd-|-qr_nm:gd|res:RC3|com-cf:nl|ptrs:na|ktp:N0|mc:117695|mtp:S|qry_typ:P|lang:en|wc:2|cs:7592|v=4,SMR Merchandise LLP,https://www.smrmerchandise.com/?pos=57&kwd=nursing pillows&tags=||||8785.791|Price|product|||TS|rsf:gd-|-qr_nm:gd|res:RC3|com-cf:nl|ptrs:na|ktp:N0|mc:117695|mtp:S|qry_typ:P|lang:en|wc:2|cs:7592|v=4,False,Vasundhara,Ghaziabad,"R - 312, Vvip Addresses, Raj Nagar Extension, Vasundhara, Ghaziabad - 201017, Dist.Ghaziabad, Uttar Pradesh",8048604571,
White U Baby Feeding Pillow,https://www.indiamart.com/proddetail/baby-feeding-pillow-25521932430.html?pos=58&kwd=nursing pillows&tags=||||8584.299|Price|product|||TS|rsf:gd-|-qr_nm:gd|res:RC3|com-cf:nl|ptrs:na|ktp:N0|mc:117695|mtp:S|qry_typ:P|lang:en|wc:2|cs:7592|v=4,Monigaa Shree Bed House,https://www.cosybedandpillowmsbh.com/?pos=58&kwd=nursing pillows&tags=||||8584.299|Price|product|||TS|rsf:gd-|-qr_nm:gd|res:RC3|com-cf:nl|ptrs:na|ktp:N0|mc:117695|mtp:S|qry_typ:P|lang:en|wc:2|cs:7592|v=4,False,Urumandampalayan,Coimbatore,"No. 28-D, 10/162, Sri Ragavendra Colony, GN Mill Post, Urumandampalayan, Coimbatore - 641029, Dist.Coimbatore, Tamil Nadu",8048610786,
Red And Black Round Feeding Baby Cotton Pillow,https://www.indiamart.com/proddetail/feeding-baby-cotton-pillow-2855017190888.html?pos=59&kwd=nursing pillows&tags=||||8752.144|Price|product|||MDC|rsf:gd-|-qr_nm:gd|res:RC3|com-cf:nl|ptrs:na|ktp:N0|mc:117695|mtp:S|qry_typ:P|lang:en|wc:2|cs:7592|v=4,A.S.Enterprises,https://www.indiamart.com/a-senterprisesdelhi-india/?pos=59&kwd=nursing pillows&tags=||||8752.144|Price|product|||MDC|rsf:gd-|-qr_nm:gd|res:RC3|com-cf:nl|ptrs:na|ktp:N0|mc:117695|mtp:S|qry_typ:P|lang:en|wc:2|cs:7592|v=4,False,,New Delhi,"G F, 816, Pan Mandi, Near Press Street Sadar Bazar Area, Central Delhi, New Delhi - 110006, Dist.Delhi, Delhi",7942537259,
"siroki bond Micro Fiber The Sleep Company C-Shape Pregnancy Pillow, For Home",https://www.indiamart.com/proddetail/the-sleep-company-c-shape-pregnancy-pillow-27335606748.html?pos=60&kwd=nursing pillows&tags=||||8601.347|Price|product|||TS|rsf:gd-|-qr_nm:gd|res:RC3|com-cf:nl|ptrs:na|ktp:N0|mc:117695|mtp:S|qry_typ:P|lang:en|wc:2|cs:7592|v=4,Supreme Bond Mattress,https://www.indiamart.com/supreme-bond-mattress/?pos=60&kwd=nursing pillows&tags=||||8601.347|Price|product|||TS|rsf:gd-|-qr_nm:gd|res:RC3|com-cf:nl|ptrs:na|ktp:N0|mc:117695|mtp:S|qry_typ:P|lang:en|wc:2|cs:7592|v=4,False,Bagru,Jaipur,"I/d-4, Solitaire Industrial Park, Phase- 2, Bagru, Bagru, Jaipur - 303007, Dist.Jaipur, Rajasthan",8047640386,
Red Prince Love Theme Heart Baby Pillow,https://www.indiamart.com/proddetail/love-theme-heart-baby-pillow-20610863633.html?pos=61&kwd=nursing pillows&tags=D||||8752.144|Price|proxy|||TS|rsf:gd-|-qr_nm:gd|res:RC3|com-cf:nl|ptrs:na|ktp:N0|mc:117695|mtp:S|qry_typ:P|lang:en|wc:2|cs:7592|v=4,Prince International Soft Toys,https://www.princeinternationals.com/?pos=61&kwd=nursing pillows&tags=D||||8752.144|Price|proxy|||TS|rsf:gd-|-qr_nm:gd|res:RC3|com-cf:nl|ptrs:na|ktp:N0|mc:117695|mtp:S|qry_typ:P|lang:en|wc:2|cs:7592|v=4,False,Mukundpur,New Delhi,"Plot No. 8 , Gali No. 3, Mukundpur Village, Near Shiv Mandir, Mukundpur, New Delhi - 110042, Dist.Delhi, Delhi",8048976675,
Baby Pink Nursing Pillows,https://www.indiamart.com/proddetail/nursing-pillows-22753457291.html?pos=62&kwd=nursing pillows&tags=CC||||8663.873||product|||NA|rsf:gd-|-qr_nm:gd|res:RC3|com-cf:nl|ptrs:na|ktp:N0|mc:117695|mtp:S|qry_typ:P|lang:en|wc:2|cs:7592|v=4,Tiny Hugs,https://www.indiamart.com/tiny-hugs/?pos=62&kwd=nursing pillows&tags=CC||||8663.873||product|||NA|rsf:gd-|-qr_nm:gd|res:RC3|com-cf:nl|ptrs:na|ktp:N0|mc:117695|mtp:S|qry_typ:P|lang:en|wc:2|cs:7592|v=4,False,Malleshwaram West,Bengaluru,"Shop No. 159, 9th Cross, Near Central Library, Sampige Road, Malleswaram, Malleshwaram West, Bengaluru - 560003, Dist.Bengaluru, Karnataka",8069023914,641
Nursing Products,https://www.indiamart.com/proddetail/nursing-products-2853241186430.html?pos=63&kwd=nursing pillows&tags=CC||||9839.57|Price|product|||NA|rsf:gd-|-qr_nm:gd|res:RC3|com-cf:nl|ptrs:na|ktp:N0|mc:117695|mtp:S|qry_typ:P|lang:en|wc:2|cs:7592|v=4,Pappu Nursery,https://www.indiamart.com/pappu-nursery/?pos=63&kwd=nursing pillows&tags=CC||||9839.57|Price|product|||NA|rsf:gd-|-qr_nm:gd|res:RC3|com-cf:nl|ptrs:na|ktp:N0|mc:117695|mtp:S|qry_typ:P|lang:en|wc:2|cs:7592|v=4,False,,Kolkata,"ultodanga road, Kolkata - 700067, Dist.Kolkata, West Bengal",8048263500,432
Baby Nursing Pillow,https://www.indiamart.com/proddetail/baby-nursing-pillow-2853918742688.html?pos=64&kwd=nursing pillows&tags=CC||||8706.263||product|||NA|rsf:gd-|-qr_nm:gd|res:RC3|com-cf:nl|ptrs:na|ktp:N0|mc:117695|mtp:S|qry_typ:P|lang:en|wc:2|cs:7592|v=4,Casa Fashions,https://www.indiamart.com/casa-fashions/?pos=64&kwd=nursing pillows&tags=CC||||8706.263||product|||NA|rsf:gd-|-qr_nm:gd|res:RC3|com-cf:nl|ptrs:na|ktp:N0|mc:117695|mtp:S|qry_typ:P|lang:en|wc:2|cs:7592|v=4,False,,Karur,"Old 389/08,new Number 1/811 K.e.rengasamy Nagar,andankovil K.E.RENGASAMY NAGAR,ANDANKOVIL EAST, VADIVEL NAGAR, Karur - 639008, Dist.Karur, Tamil Nadu",8047308883,2685
"Muticolor Multi Feeding and Nursing Baby Neck Pillow, Size: 26 cm x 5 cmx 27 cm",https://www.indiamart.com/proddetail/multi-feeding-and-nursing-baby-neck-pillow-22045585988.html?pos=65&kwd=nursing pillows&tags=CB||||8752.144|Price|product|||NA|rsf:gd-|-qr_nm:gd|res:RC3|com-cf:nl|ptrs:na|ktp:N0|mc:117695|mtp:S|qry_typ:P|lang:en|wc:2|cs:7592|v=4,SMBJ Impex,https://www.indiamart.com/smbjimpex/?pos=65&kwd=nursing pillows&tags=CB||||8752.144|Price|product|||NA|rsf:gd-|-qr_nm:gd|res:RC3|com-cf:nl|ptrs:na|ktp:N0|mc:117695|mtp:S|qry_typ:P|lang:en|wc:2|cs:7592|v=4,False,Industrial Area,New Delhi,"Basement Floor,b-26,patparganj Industrial Area,,patparganj,,north Ea, Industrial Area, New Delhi - 110092, Dist.Delhi, Delhi",8048371512,509
U-Shaped Imported Superman Pillow Avengers Pattern Office Nap Car Airplane Headrest Nursing Travel N,https://www.indiamart.com/proddetail/u-shaped-imported-superman-pillow-avengers-pattern-office-nap-car-airplane-headrest-nursing-travel-n-19098331912.html?pos=66&kwd=nursing pillows&tags=CC||||8226.563|Price|product|||NA|rsf:gd-|-qr_nm:gd|res:RC3|com-cf:nl|ptrs:na|ktp:N0|mc:117695|mtp:S|qry_typ:P|lang:en|wc:2|cs:7592|v=4,Rapidx Solutions,https://www.indiamart.com/rapidxsolutions/?pos=66&kwd=nursing pillows&tags=CC||||8226.563|Price|product|||NA|rsf:gd-|-qr_nm:gd|res:RC3|com-cf:nl|ptrs:na|ktp:N0|mc:117695|mtp:S|qry_typ:P|lang:en|wc:2|cs:7592|v=4,False,Vashi,Navi Mumbai,"Office No. F-102, Haware Fantasia Business Park Plot No. 47, Sector 30 A, Vashi, Navi Mumbai - 400703, Dist.Thane, Maharashtra",8047665748,
"Premium Nursing Cover For Breastfeeding - Feeding Apron For Mom, Stretchy Feeding Cover For Mother",https://www.indiamart.com/proddetail/premium-nursing-cover-for-breastfeeding-feeding-apron-for-mom-stretchy-feeding-cover-for-mother-24247140033.html?pos=67&kwd=nursing pillows&tags=CC||||8210.732|Price|product|||NA|rsf:gd-|-qr_nm:gd|res:RC3|com-cf:nl|ptrs:na|ktp:N0|mc:117695|mtp:S|qry_typ:P|lang:en|wc:2|cs:7592|v=4,Crazy Commerce,https://www.indiamart.com/crazy-commerce/?pos=67&kwd=nursing pillows&tags=CC||||8210.732|Price|product|||NA|rsf:gd-|-qr_nm:gd|res:RC3|com-cf:nl|ptrs:na|ktp:N0|mc:117695|mtp:S|qry_typ:P|lang:en|wc:2|cs:7592|v=4,False,Virar West,Vasai,"C-105 Opp To Ekta Park Villae, Near Global City Vinay Unique Homes Dongre Village, Virar West, Vasai - 401303, Dist.Thane, Maharashtra",8062245126,587
Feeding pillow with back support,,Priya Creations,https://www.indiamart.com/priyacreations-jaipur/?pos=68&kwd=nursing pillows&tags=CC||||8601.347|Price|product|||NA|rsf:gd-|-qr_nm:gd|res:RC3|com-cf:nl|ptrs:na|ktp:N0|mc:117695|mtp:S|qry_typ:P|lang:en|wc:2|cs:7592|v=4,False,,Jaipur,"A-1, Shyam Vihar Samod Road, Chomu, Jaipur - 303702, Dist.Jaipur, Rajasthan",8048371818,443
Velvet Cotton Baby Self Feeding Support Pillow,https://www.indiamart.com/proddetail/baby-self-feeding-support-pillow-21181557912.html?pos=69&kwd=nursing pillows&tags=CC||||8752.144|Price|product|||NA|rsf:gd-|-qr_nm:gd|res:RC3|com-cf:nl|ptrs:na|ktp:N0|mc:117695|mtp:S|qry_typ:P|lang:en|wc:2|cs:7592|v=4,E-Shopy Mart,https://www.indiamart.com/eshopymart/?pos=69&kwd=nursing pillows&tags=CC||||8752.144|Price|product|||NA|rsf:gd-|-qr_nm:gd|res:RC3|com-cf:nl|ptrs:na|ktp:N0|mc:117695|mtp:S|qry_typ:P|lang:en|wc:2|cs:7592|v=4,False,,New Delhi,"House No. 22, Block A, Mange Ram Park, New Delhi - 110086, Dist.Delhi, Delhi",8048361339,311
Twins Feeding Pillow,,Aarohi Apperals,https://www.indiamart.com/aarohi-apperals-mumbai/?pos=70&kwd=nursing pillows&tags=CB||||8211.142|Price|product|||NA|rsf:gd-|-qr_nm:gd|res:RC3|com-cf:nl|ptrs:na|ktp:N0|mc:117695|mtp:S|qry_typ:P|lang:en|wc:2|cs:7592|v=4,False,Jogeshwari East,Mumbai,"Gala No 2, First Floor, Asian Chemical Compound, Subhash Road, Jogeshwari East, Mumbai - 400060, Dist.Mumbai, Maharashtra",8069017404,864
Baby Feeding Pillow,https://www.indiamart.com/proddetail/baby-feeding-pillow-12493038648.html?pos=71&kwd=nursing pillows&tags=CC||||8211.142|Price|product|||NA|rsf:gd-|-qr_nm:gd|res:RC3|com-cf:nl|ptrs:na|ktp:N0|mc:117695|mtp:S|qry_typ:P|lang:en|wc:2|cs:7592|v=4,Khodiyar Sons,https://www.indiamart.com/khodiyarsons/?pos=71&kwd=nursing pillows&tags=CC||||8211.142|Price|product|||NA|rsf:gd-|-qr_nm:gd|res:RC3|com-cf:nl|ptrs:na|ktp:N0|mc:117695|mtp:S|qry_typ:P|lang:en|wc:2|cs:7592|v=4,False,Borivali East,Mumbai,"Ishwarbhai Desai Chawl, Chawl Number- 4, Room Number- 9, Shiv Vallabh Road, Borivali East, Mumbai - 400068, Dist.Mumbai, Maharashtra",8048371946,169
Cotton Feeding Pillow,https://www.indiamart.com/proddetail/feeding-pillow-21306284891.html?pos=72&kwd=nursing pillows&tags=CC||||8211.304|Price|product|||NA|rsf:gd-|-qr_nm:gd|res:RC3|com-cf:nl|ptrs:na|ktp:N0|mc:117695|mtp:S|qry_typ:P|lang:en|wc:2|cs:7592|v=4,Royal Tech,https://www.indiamart.com/royaltech-mumbai/?pos=72&kwd=nursing pillows&tags=CC||||8211.304|Price|product|||NA|rsf:gd-|-qr_nm:gd|res:RC3|com-cf:nl|ptrs:na|ktp:N0|mc:117695|mtp:S|qry_typ:P|lang:en|wc:2|cs:7592|v=4,False,,Bhayandar,"Shweta Apartment, 304, Station Road, Bhayandar West, Bhayandar - 401101, Dist.Thane, Maharashtra",8048262708,
Blue Base D Shape Baby Feeding Pillow,https://www.indiamart.com/proddetail/baby-feeding-pillow-2849176230233.html?pos=73&kwd=nursing pillows&tags=CC||||8584.299|Price|product|||NA|rsf:gd-|-qr_nm:gd|res:RC3|com-cf:nl|ptrs:na|ktp:N0|mc:117695|mtp:S|qry_typ:P|lang:en|wc:2|cs:7592|v=4,3I Innovations,https://www.indiamart.com/3iinnovations/?pos=73&kwd=nursing pillows&tags=CC||||8584.299|Price|product|||NA|rsf:gd-|-qr_nm:gd|res:RC3|com-cf:nl|ptrs:na|ktp:N0|mc:117695|mtp:S|qry_typ:P|lang:en|wc:2|cs:7592|v=4,False,,Coimbatore,"448, Bharathiyar Road, P.N. Palayam, Coimbatore - 641037, Dist.Coimbatore, Tamil Nadu",7942633263,
Hang Over Pillow,https://www.indiamart.com/proddetail/hang-over-pillow-15239613688.html?pos=74&kwd=nursing pillows&tags=CC||||8741.812||product|||NA|rsf:gd-|-qr_nm:gd|res:RC3|com-cf:nl|ptrs:na|ktp:N0|mc:117695|mtp:S|qry_typ:P|lang:en|wc:2|cs:7592|v=4,La-Medicca (India) Private Limited,https://www.indiamart.com/lamedicca-india/?pos=74&kwd=nursing pillows&tags=CC||||8741.812||product|||NA|rsf:gd-|-qr_nm:gd|res:RC3|com-cf:nl|ptrs:na|ktp:N0|mc:117695|mtp:S|qry_typ:P|lang:en|wc:2|cs:7592|v=4,False,Sector 7,Gurgaon,"Plot No. 168, Sector 7, IMT Manesar, Sector 7, Gurgaon - 122050, Dist.Gurgaon, Haryana",8047843912,
Baby Feeding Pillow,https://www.indiamart.com/proddetail/baby-feeding-pillow-13492777297.html?pos=75&kwd=nursing pillows&tags=CC||||8239.3955|Price|product|||NA|rsf:gd-|-qr_nm:gd|res:RC3|com-cf:nl|ptrs:na|ktp:N0|mc:117695|mtp:S|qry_typ:P|lang:en|wc:2|cs:7592|v=4,Tiny Toes,https://www.indiamart.com/tiny-toes/?pos=75&kwd=nursing pillows&tags=CC||||8239.3955|Price|product|||NA|rsf:gd-|-qr_nm:gd|res:RC3|com-cf:nl|ptrs:na|ktp:N0|mc:117695|mtp:S|qry_typ:P|lang:en|wc:2|cs:7592|v=4,False,,Kalyan,"Shop No 4, Jai Sonali Building Dr. Ambedkar road, Kalyan - 421301, Dist.Thane, Maharashtra",8047699360,
All Colours Available Cotton Feeding Pillow / Nursing Pillow,https://www.indiamart.com/proddetail/feeding-pillow-nursing-pillow-17526394412.html?pos=76&kwd=nursing pillows&tags=CC||||8559.269|Price|product|||NA|rsf:gd-|-qr_nm:gd|res:RC3|com-cf:nl|ptrs:na|ktp:N0|mc:117695|mtp:S|qry_typ:P|lang:en|wc:2|cs:7592|v=4,Emotions,https://www.indiamart.com/emotions-indore/?pos=76&kwd=nursing pillows&tags=CC||||8559.269|Price|product|||NA|rsf:gd-|-qr_nm:gd|res:RC3|com-cf:nl|ptrs:na|ktp:N0|mc:117695|mtp:S|qry_typ:P|lang:en|wc:2|cs:7592|v=4,False,Pipliyahana,Indore,"302, D Block, Sampat Garden, 2nd Floor, Sapna Appartment, Pipliyahana, Indore - 452001, Dist.Indore, Madhya Pradesh",8047311000,2450
"Cotton Plain U Shape Pillow, For Daily",https://www.indiamart.com/proddetail/u-shape-pillow-20953959197.html?pos=77&kwd=nursing pillows&tags=||||8601.347|Price|product|||TS|rsf:gd-|-qr_nm:gd|res:RC3|com-cf:nl|ptrs:na|ktp:N0|mc:117695|mtp:S|qry_typ:P|lang:en|wc:2|cs:7592|v=4,Vicky Garments,https://www.hotellinenmanufacturer.com/?pos=77&kwd=nursing pillows&tags=||||8601.347|Price|product|||TS|rsf:gd-|-qr_nm:gd|res:RC3|com-cf:nl|ptrs:na|ktp:N0|mc:117695|mtp:S|qry_typ:P|lang:en|wc:2|cs:7592|v=4,False,Jhotwara,Jaipur,"No. 82, Ganga Vihar Colony, Nagal Jaisa Bohra Dadi Ka Phatak, Jhotwara, Jaipur - 302012, Dist.Jaipur, Rajasthan",8046042378,
Baby Head Shaping D Shape Pillow,https://www.indiamart.com/proddetail/baby-head-shaping-d-shape-pillow-2853364438662.html?pos=78&kwd=nursing pillows&tags=||||8741.812|Price|product|||TS|rsf:gd-|-qr_nm:gd|res:RC3|com-cf:nl|ptrs:na|ktp:N0|mc:117695|mtp:S|qry_typ:P|lang:en|wc:2|cs:7592|v=4,Saimson,https://www.saimson.com/?pos=78&kwd=nursing pillows&tags=||||8741.812|Price|product|||TS|rsf:gd-|-qr_nm:gd|res:RC3|com-cf:nl|ptrs:na|ktp:N0|mc:117695|mtp:S|qry_typ:P|lang:en|wc:2|cs:7592|v=4,False,Punhana,Gurugram,"Kewat No/ Khata No 477/534 M. N 51, Kila No 8/2 7-3, Punhana, Lohinga Kalan,, Punhana, Gurugram - 122508, Dist.Gurgaon, Haryana",7942964240,
"Grey Full Body Pregnancy Microfiber Pillow, For Home, Shape: Rectangular",https://www.indiamart.com/proddetail/full-body-pregnancy-microfiber-pillow-2853469217591.html?pos=79&kwd=nursing pillows&tags=||||8582.464|Price|product|||MDC|rsf:gd-|-qr_nm:gd|res:RC3|com-cf:nl|ptrs:na|ktp:N0|mc:117695|mtp:S|qry_typ:P|lang:en|wc:2|cs:7592|v=4,Homerz Solution,https://www.indiamart.com/homerz-solution-india/?pos=79&kwd=nursing pillows&tags=||||8582.464|Price|product|||MDC|rsf:gd-|-qr_nm:gd|res:RC3|com-cf:nl|ptrs:na|ktp:N0|mc:117695|mtp:S|qry_typ:P|lang:en|wc:2|cs:7592|v=4,False,Mohall Rodu Shah,Tarn Taran,"Green Avenue, Mohall Rodu Shah, Tarn Taran - 143401, Dist.Tarn Taran, Punjab",7949092569,
Cozie Cradle Baby Pillow - Ultimate Nursing And Feeding Comfort,https://www.indiamart.com/proddetail/cozie-cradle-baby-pillow-ultimate-nursing-and-feeding-comfort-2854744587633.html?pos=80&kwd=nursing pillows&tags=||||10180.86|Price|product|||NA|rsf:gd-|-qr_nm:gd|res:RC3|com-cf:nl|ptrs:na|ktp:N0|mc:117695|mtp:S|qry_typ:P|lang:en|wc:2|cs:7592|v=4,5nine Flash Solution Private Limited,https://www.indiamart.com/5nine-flash-solution-private-limited/?pos=80&kwd=nursing pillows&tags=||||10180.86|Price|product|||NA|rsf:gd-|-qr_nm:gd|res:RC3|com-cf:nl|ptrs:na|ktp:N0|mc:117695|mtp:S|qry_typ:P|lang:en|wc:2|cs:7592|v=4,False,,Guwahati,"H/no 1, Kundil Nagar, Hirimbapur Path, Odalbakra, Hirimbapur Path, Odalbakra, Guwahati, Guwahati - 781034, Dist.Kamrup, Assam",,
"Cozie Cradle Baby Pillow, Cozie Cradle Baby Nursing Pillow, Cozy Cradle Pillow-feeding Pillow",https://www.indiamart.com/proddetail/cozie-cradle-baby-pillow-cozie-cradle-baby-nursing-pillow-cozy-cradle-pillow-feeding-pillow-2854774722333.html?pos=81&kwd=nursing pillows&tags=||||8746.929|Price|product|||FCPE|rsf:gd-|-qr_nm:gd|res:RC3|com-cf:nl|ptrs:na|ktp:N0|mc:117695|mtp:S|qry_typ:P|lang:en|wc:2|cs:7592|v=4,AD ENTERPRISES,https://www.indiamart.com/company/134592362/?pos=81&kwd=nursing pillows&tags=||||8746.929|Price|product|||FCPE|rsf:gd-|-qr_nm:gd|res:RC3|com-cf:nl|ptrs:na|ktp:N0|mc:117695|mtp:S|qry_typ:P|lang:en|wc:2|cs:7592|v=4,False,,Chandigarh,"Dharampur Road Vill Bhatiwala, Chandigarh - 134104, Chandigarh",,
"Cozie Cradle Baby Pillow, Cozie Cradle Baby Nursing Pillow, Cozy Cradle Pillow-feeding Pillow",https://www.indiamart.com/proddetail/cozie-cradle-baby-pillow-cozie-cradle-baby-nursing-pillow-cozy-cradle-pillow-feeding-pillow-2854682300948.html?pos=82&kwd=nursing pillows&tags=||||8786.56|Price|product|||NA|rsf:gd-|-qr_nm:gd|res:RC3|com-cf:nl|ptrs:na|ktp:N0|mc:117695|mtp:S|qry_typ:P|lang:en|wc:2|cs:7592|v=4,saniecommerce.in,https://www.indiamart.com/saniecommercein/?pos=82&kwd=nursing pillows&tags=||||8786.56|Price|product|||NA|rsf:gd-|-qr_nm:gd|res:RC3|com-cf:nl|ptrs:na|ktp:N0|mc:117695|mtp:S|qry_typ:P|lang:en|wc:2|cs:7592|v=4,False,,Hyderabad,"Officers Colony Chanchalguda RS tower , flat 101, Hyderabad - 500024, Dist.Hyderabad, Telangana",,
"Cozie Cradle Baby Pillow, Cozie Cradle Baby Nursing Pillow, Cozy Cradle Pillow-feeding Pillow",https://www.indiamart.com/proddetail/cozie-cradle-baby-pillow-cozie-cradle-baby-nursing-pillow-cozy-cradle-pillow-feeding-pillow-2854306266391.html?pos=83&kwd=nursing pillows&tags=||||8461.862|Price|product|||NA|rsf:gd-|-qr_nm:gd|res:RC3|com-cf:nl|ptrs:na|ktp:N0|mc:117695|mtp:S|qry_typ:P|lang:en|wc:2|cs:7592|v=4,Kultura India,https://www.indiamart.com/trenbee-solutions/?pos=83&kwd=nursing pillows&tags=||||8461.862|Price|product|||NA|rsf:gd-|-qr_nm:gd|res:RC3|com-cf:nl|ptrs:na|ktp:N0|mc:117695|mtp:S|qry_typ:P|lang:en|wc:2|cs:7592|v=4,False,,Bhilwara,"B-07 Aditya Vihar, Bhilwara - 311001, Dist.Bhilwara, Rajasthan",,
"Cozie Cradle Baby Pillow, Cozie Cradle Baby Nursing Pillow, Cozy Cradle Pillow-feeding Pillow",https://www.indiamart.com/proddetail/cozie-cradle-baby-pillow-cozie-cradle-baby-nursing-pillow-cozy-cradle-pillow-feeding-pillow-2855060568788.html?pos=84&kwd=nursing pillows&tags=||||8745.513|Price|product|||FCPE|rsf:gd-|-qr_nm:gd|res:RC3|com-cf:nl|ptrs:na|ktp:N0|mc:117695|mtp:S|qry_typ:P|lang:en|wc:2|cs:7592|v=4,Eshop9,https://www.indiamart.com/company/233048983/?pos=84&kwd=nursing pillows&tags=||||8745.513|Price|product|||FCPE|rsf:gd-|-qr_nm:gd|res:RC3|com-cf:nl|ptrs:na|ktp:N0|mc:117695|mtp:S|qry_typ:P|lang:en|wc:2|cs:7592|v=4,False,,Jadcherla,"JADCHERLA, MAHBOOB NAGAR, Jadcherla - 509301, Dist.Mahabub Nagar, Telangana",,
"Cozie Cradle Baby Pillow, Cozie Cradle Baby Nursing Pillow, Cozy Cradle Pillow-feeding Pillow",https://www.indiamart.com/proddetail/cozie-cradle-baby-pillow-cozie-cradle-baby-nursing-pillow-cozy-cradle-pillow-feeding-pillow-2854740891012.html?pos=85&kwd=nursing pillows&tags=||||8228.275|Price|product|||NA|rsf:gd-|-qr_nm:gd|res:RC3|com-cf:nl|ptrs:na|ktp:N0|mc:117695|mtp:S|qry_typ:P|lang:en|wc:2|cs:7592|v=4,Uttamrobotics,https://www.indiamart.com/uttamrobotics-ltd/?pos=85&kwd=nursing pillows&tags=||||8228.275|Price|product|||NA|rsf:gd-|-qr_nm:gd|res:RC3|com-cf:nl|ptrs:na|ktp:N0|mc:117695|mtp:S|qry_typ:P|lang:en|wc:2|cs:7592|v=4,False,Nikol,Ahmedabad,"323, Vishala Supreme Sardar Patel Ring Road, Nikol, Ahmedabad - 382350, Dist.Ahmedabad, Gujarat",,
"Cozie Cradle Baby Pillow, Cozie Cradle Baby Nursing Pillow, Cozy Cradle Pillow-feeding Pillow",https://www.indiamart.com/proddetail/cozie-cradle-baby-pillow-cozie-cradle-baby-nursing-pillow-cozy-cradle-pillow-feeding-pillow-2855023217812.html?pos=86&kwd=nursing pillows&tags=||||8228.275|Price|product|||FCPE|rsf:gd-|-qr_nm:gd|res:RC3|com-cf:nl|ptrs:na|ktp:N0|mc:117695|mtp:S|qry_typ:P|lang:en|wc:2|cs:7592|v=4,My Store,https://www.indiamart.com/company/114899941/?pos=86&kwd=nursing pillows&tags=||||8228.275|Price|product|||FCPE|rsf:gd-|-qr_nm:gd|res:RC3|com-cf:nl|ptrs:na|ktp:N0|mc:117695|mtp:S|qry_typ:P|lang:en|wc:2|cs:7592|v=4,False,,Ahmedabad,"Ahm, Ahmedabad - 382210, Dist.Ahmedabad, Gujarat",,
Pink Velvet Self- Nursing Feeding Support Baby Cushion Infant Pillow,https://www.indiamart.com/proddetail/self-nursing-feeding-support-baby-cushion-infant-pillow-20559635630.html?pos=87&kwd=nursing pillows&tags=||||8601.347||product|||NA|rsf:gd-|-qr_nm:gd|res:RC3|com-cf:nl|ptrs:na|ktp:N0|mc:117695|mtp:S|qry_typ:P|lang:en|wc:2|cs:7592|v=4,Gurukripa Dresses,https://www.indiamart.com/guru-kripa-dresses-jaipur/?pos=87&kwd=nursing pillows&tags=||||8601.347||product|||NA|rsf:gd-|-qr_nm:gd|res:RC3|com-cf:nl|ptrs:na|ktp:N0|mc:117695|mtp:S|qry_typ:P|lang:en|wc:2|cs:7592|v=4,False,Sitapura,Jaipur,"185/51, Pratap Nagar, Sitapura, Jaipur - 302033, Dist.Jaipur, Rajasthan",8048207293,
BORN BABY DIGITAL FOURPIS SET,https://www.indiamart.com/proddetail/born-baby-digital-fourpis-set-2853403598755.html?pos=88&kwd=nursing pillows&tags=||||8230.883|Price|proxy|||TS|rsf:gd-|-qr_nm:gd|res:RC3|com-cf:nl|ptrs:na|ktp:N0|mc:117695|mtp:S|qry_typ:P|lang:en|wc:2|cs:7592|v=4,Maa Kiran Handloom & Jiyana,https://www.indiamart.com/maakiranhandloomjiyana/?pos=88&kwd=nursing pillows&tags=||||8230.883|Price|proxy|||TS|rsf:gd-|-qr_nm:gd|res:RC3|com-cf:nl|ptrs:na|ktp:N0|mc:117695|mtp:S|qry_typ:P|lang:en|wc:2|cs:7592|v=4,False,Udhana,Surat,"Shop No.17, Ground Floor, Astha Business Centre, Canal Road,, Udhana, Surat - 394185, Dist.Surat, Gujarat",7942788374,
Blue Rectangular Baby U Bend Pillow,https://www.indiamart.com/proddetail/baby-u-bend-pillow-9466962255.html?pos=89&kwd=nursing pillows&tags=||||8211.142|Price|proxy|||MDC|rsf:gd-|-qr_nm:gd|res:RC3|com-cf:nl|ptrs:na|ktp:N0|mc:117695|mtp:S|qry_typ:P|lang:en|wc:2|cs:7592|v=4,Milee Fashion,https://www.indiamart.com/mileefashion/?pos=89&kwd=nursing pillows&tags=||||8211.142|Price|proxy|||MDC|rsf:gd-|-qr_nm:gd|res:RC3|com-cf:nl|ptrs:na|ktp:N0|mc:117695|mtp:S|qry_typ:P|lang:en|wc:2|cs:7592|v=4,False,Chedda Nagar,Mumbai,"Veer Sambhaji Nagar, Near Hanuman Mandir PL Lokhande Marg, Chembur, Chedda Nagar, Mumbai - 400089, Dist.Mumbai, Maharashtra",8048966118,
Red U Detachable Cover Baby Feeding Pillow,https://www.indiamart.com/proddetail/detachable-cover-baby-feeding-pillow-23476897933.html?pos=90&kwd=nursing pillows&tags=||||8954.051|Price|product|||NA|rsf:gd-|-qr_nm:gd|res:RC3|com-cf:nl|ptrs:na|ktp:N0|mc:117695|mtp:S|qry_typ:P|lang:en|wc:2|cs:7592|v=4,Ray India Inc,https://www.indiamart.com/rayindia-inc/?pos=90&kwd=nursing pillows&tags=||||8954.051|Price|product|||NA|rsf:gd-|-qr_nm:gd|res:RC3|com-cf:nl|ptrs:na|ktp:N0|mc:117695|mtp:S|qry_typ:P|lang:en|wc:2|cs:7592|v=4,False,,Chennai,"37/88, CYS Road, Samiyar Madam, Mangalapuram, Perambur, Chennai - 600012, Dist.Chennai, Tamil Nadu",7942563640,
coolkids U Baby Feeding Pillow,https://www.indiamart.com/proddetail/baby-feeding-pillow-22274651597.html?pos=91&kwd=nursing pillows&tags=||||8668.838||product|||NA|rsf:gd-|-qr_nm:gd|res:RC3|com-cf:nl|ptrs:na|ktp:N0|mc:117695|mtp:S|qry_typ:P|lang:en|wc:2|cs:7592|v=4,Cool Kids,https://www.indiamart.com/coolkidserode/?pos=91&kwd=nursing pillows&tags=||||8668.838||product|||NA|rsf:gd-|-qr_nm:gd|res:RC3|com-cf:nl|ptrs:na|ktp:N0|mc:117695|mtp:S|qry_typ:P|lang:en|wc:2|cs:7592|v=4,False,KK Nagar,Erode,"No. 46, KK Nagar, KK Nagar, Erode - 638009, Dist.Erode, Tamil Nadu",7942647078,
Clubindia Baby Breastfeeding Pillow For Newborn Babies For Home,https://www.indiamart.com/proddetail/clubindia-baby-breastfeeding-pillow-for-newborn-babies-22188514391.html?pos=92&kwd=nursing pillows&tags=||||8047.7524|Price|product|||NA|rsf:gd-|-qr_nm:gd|res:RC3|com-cf:nl|ptrs:na|ktp:N0|mc:117695|mtp:S|qry_typ:P|lang:en|wc:2|cs:7592|v=4,Club India,https://www.indiamart.com/club-india/?pos=92&kwd=nursing pillows&tags=||||8047.7524|Price|product|||NA|rsf:gd-|-qr_nm:gd|res:RC3|com-cf:nl|ptrs:na|ktp:N0|mc:117695|mtp:S|qry_typ:P|lang:en|wc:2|cs:7592|v=4,False,,Morbi,"Street No. 4, 153, Alif, Avenue Park, Ravapar Road, Morbi - 363641, Dist.Rajkot, Gujarat",8047666187,
Baby Pillow,https://www.indiamart.com/proddetail/baby-pillow-13732955897.html?pos=93&kwd=nursing pillows&tags=||||8211.142||product|||NA|rsf:gd-|-qr_nm:gd|res:RC3|com-cf:nl|ptrs:na|ktp:N0|mc:117695|mtp:S|qry_typ:P|lang:en|wc:2|cs:7592|v=4,Advance Baby Products LLP,https://www.indiamart.com/advance-baby-products-llp-mumbai/?pos=93&kwd=nursing pillows&tags=||||8211.142||product|||NA|rsf:gd-|-qr_nm:gd|res:RC3|com-cf:nl|ptrs:na|ktp:N0|mc:117695|mtp:S|qry_typ:P|lang:en|wc:2|cs:7592|v=4,False,Dadar West,Mumbai,"C-26,Antophill warehousing,vidya lankar college marg,wadala, Dadar West, Mumbai - 400028, Dist.Mumbai, Maharashtra",8069023912,425
"Cotton Multicolor Kalina Maternity Pillow, For Home, Shape: C-Shaped",https://www.indiamart.com/proddetail/kalina-maternity-pillow-23150178273.html?pos=94&kwd=nursing pillows&tags=||||8778.123|Price|product|||NA|rsf:gd-|-qr_nm:gd|res:RC3|com-cf:nl|ptrs:na|ktp:N0|mc:117695|mtp:S|qry_typ:P|lang:en|wc:2|cs:7592|v=4,Kalina Fabtex Private Limited,https://www.indiamart.com/kalina-fabtex/?pos=94&kwd=nursing pillows&tags=||||8778.123|Price|product|||NA|rsf:gd-|-qr_nm:gd|res:RC3|com-cf:nl|ptrs:na|ktp:N0|mc:117695|mtp:S|qry_typ:P|lang:en|wc:2|cs:7592|v=4,False,,Noida,"A-51, Sector 64, Gautam Buddha, Noida - 201301, Dist.Gautam Budh Nagar, Uttar Pradesh",8043818216,
"Fibbo Dotted Sleepcover Body Pillow, For Home, Size/Dimension: L 91 Cm X B 22 Cm X H 132 Cm",https://www.indiamart.com/proddetail/sleepcover-body-pillow-7247266333.html?pos=95&kwd=nursing pillows&tags=||||8584.299|Price|product|||NA|rsf:gd-|-qr_nm:gd|res:RC3|com-cf:nl|ptrs:na|ktp:N0|mc:117695|mtp:S|qry_typ:P|lang:en|wc:2|cs:7592|v=4,Dreams Hometex Products,https://www.indiamart.com/dreams-hometex-products/?pos=95&kwd=nursing pillows&tags=||||8584.299|Price|product|||NA|rsf:gd-|-qr_nm:gd|res:RC3|com-cf:nl|ptrs:na|ktp:N0|mc:117695|mtp:S|qry_typ:P|lang:en|wc:2|cs:7592|v=4,False,Neelikonampalayam,Coimbatore,"45, Mahatma Gandhi Road, SIHS Colony, Neelikonampalayam Post, Neelikonampalayam, Coimbatore - 641033, Dist.Coimbatore, Tamil Nadu",8047831558,
Pink Infant Fish Shape Soft Neck Pillow for New Borns,https://www.indiamart.com/proddetail/pink-infant-fish-shape-soft-neck-pillow-for-new-borns-16415016455.html?pos=96&kwd=nursing pillows&tags=||||8752.144|Price|product|||NA|rsf:gd-|-qr_nm:gd|res:RC3|com-cf:nl|ptrs:na|ktp:N0|mc:117695|mtp:S|qry_typ:P|lang:en|wc:2|cs:7592|v=4,Babies Bloom Store,https://www.indiamart.com/babies-bloom-store/?pos=96&kwd=nursing pillows&tags=||||8752.144|Price|product|||NA|rsf:gd-|-qr_nm:gd|res:RC3|com-cf:nl|ptrs:na|ktp:N0|mc:117695|mtp:S|qry_typ:P|lang:en|wc:2|cs:7592|v=4,False,Paschim Vihar,New Delhi,"IST FLOOR,670,GH-14,,PASCHIM VIHAR,,,, Paschim Vihar, New Delhi - 110087, Dist.Delhi, Delhi",8062245014,210
Blue (base) Baby U Shape Nursing Pillow,https://www.indiamart.com/proddetail/u-shape-baby-pillow-2852975116762.html?pos=97&kwd=nursing pillows&tags=||||8559.269|Price|product|||NA|rsf:gd-|-qr_nm:gd|res:RC3|com-cf:nl|ptrs:na|ktp:N0|mc:117695|mtp:S|qry_typ:P|lang:en|wc:2|cs:7592|v=4,Navkar Traders,https://www.indiamart.com/navkar-tradersindore/?pos=97&kwd=nursing pillows&tags=||||8559.269|Price|product|||NA|rsf:gd-|-qr_nm:gd|res:RC3|com-cf:nl|ptrs:na|ktp:N0|mc:117695|mtp:S|qry_typ:P|lang:en|wc:2|cs:7592|v=4,False,Sukhlia,Indore,"304, Shyam Bhatika Ke Pass, Shyam Nagar,, Sukhlia, Indore - 452010, Dist.Indore, Madhya Pradesh",7942962327,
Dark Blue Cotton Momsyard C Shaped Full Body Pregnancy Pillow With Cotton Cover-,https://www.indiamart.com/proddetail/momsyard-c-shaped-full-body-pregnancy-pillow-with-cotton-cover-dark-blue-19434414391.html?pos=98&kwd=nursing pillows&tags=||||8211.142|Price|product|||NA|rsf:gd-|-qr_nm:gd|res:RC3|com-cf:nl|ptrs:na|ktp:N0|mc:117695|mtp:S|qry_typ:P|lang:en|wc:2|cs:7592|v=4,Momsyard,https://www.indiamart.com/moms-yard/?pos=98&kwd=nursing pillows&tags=||||8211.142|Price|product|||NA|rsf:gd-|-qr_nm:gd|res:RC3|com-cf:nl|ptrs:na|ktp:N0|mc:117695|mtp:S|qry_typ:P|lang:en|wc:2|cs:7592|v=4,False,Andheri West,Mumbai,"Room No. 547, Adarsh Nagar, Jogeshwari, New Link Road Opposite HP Petrol Pump, Beside Amar Glass Lane, Andheri West, Mumbai - 400102, Dist.Mumbai, Maharashtra",8047827737,
Nursing Pillows,,National Polyfele,https://www.indiamart.com/national-polyfele/?pos=99&kwd=nursing pillows&tags=CC||||8580.032||product|||NA|rsf:gd-|-qr_nm:gd|res:RC3|com-cf:nl|ptrs:na|ktp:N0|mc:117695|mtp:S|qry_typ:P|lang:en|wc:2|cs:7592|v=4,False,,Amritsar,"Sheran Wali Mill,Tarn Taran Road Sangrana Sahib, Amritsar - 143001, Dist.Amritsar, Punjab",8047308877,7371
Nursing Pillows,,Up Above Online Retail,https://www.indiamart.com/awww/?pos=100&kwd=nursing pillows&tags=CC||||8211.142||product|||NA|rsf:gd-|-qr_nm:gd|res:RC3|com-cf:nl|ptrs:na|ktp:N0|mc:117695|mtp:S|qry_typ:P|lang:en|wc:2|cs:7592|v=4,False,Juhu,Mumbai,"31, Ritu Appt, Juhu Versova Link Rd, Andheri%28West%29, Juhu, Mumbai - 400053, Dist.Mumbai, Maharashtra",8062245061,293
Nursing Pillows,,Momsyard,https://www.indiamart.com/momsyard/?pos=101&kwd=nursing pillows&tags=CC||||8211.142||product|||NA|rsf:gd-|-qr_nm:gd|res:RC3|com-cf:nl|ptrs:na|ktp:N0|mc:117695|mtp:S|qry_typ:P|lang:en|wc:2|cs:7592|v=4,False,Mumbai,Mumbai,"Andheri West Near by Lokhandwala, Mumbai, Mumbai - 400053, Dist.Mumbai, Maharashtra",8062245556,721
Nursing Pillows Manufacturer in Tiruppur,,Mini Moi,https://www.indiamart.com/mini-moi/?pos=102&kwd=nursing pillows&tags=CC||||8626.744||product|||NA|rsf:gd-|-qr_nm:gd|res:RC3|com-cf:nl|ptrs:na|ktp:N0|mc:117695|mtp:S|qry_typ:P|lang:en|wc:2|cs:7592|v=4,False,,Tiruppur,"21-18-1,Rve Layout First Street,Thennampalayam,Tiruppur, Tiruppur - 641604, Dist.Coimbatore, Tamil Nadu",8069051334,664
Feeding Pillows,,Baby Station,https://www.indiamart.com/baby-station/?pos=103&kwd=nursing pillows&tags=CC||||8239.3955||product|||NA|rsf:gd-|-qr_nm:gd|res:RC3|com-cf:nl|ptrs:na|ktp:N0|mc:117695|mtp:S|qry_typ:P|lang:en|wc:2|cs:7592|v=4,False,Murbad Road,Kalyan,"Shop No. 4, Voilet Apartment, Syndicate, Murbad Road, Kalyan - 421301, Dist.Thane, Maharashtra",8069196787,630
Feeding Pillows,,Sweet Root,https://www.indiamart.com/sweet-root/?pos=104&kwd=nursing pillows&tags=CC||||8663.873||product|||NA|rsf:gd-|-qr_nm:gd|res:RC3|com-cf:nl|ptrs:na|ktp:N0|mc:117695|mtp:S|qry_typ:P|lang:en|wc:2|cs:7592|v=4,False,New Thippasandra,Bengaluru,"No. 5/1, First Floor, New Thippasandra Market Above Univercell HAL, 3rd Stage, New Thippasandra, Bengaluru - 560075, Dist.Bengaluru, Karnataka",8043842581,
Nursing Pillow,,Nithish Hometex,https://www.indiamart.com/nithish-hometex/?pos=105&kwd=nursing pillows&tags=CC||||8706.263||product|||NA|rsf:gd-|-qr_nm:gd|res:RC3|com-cf:nl|ptrs:na|ktp:N0|mc:117695|mtp:S|qry_typ:P|lang:en|wc:2|cs:7592|v=4,False,Vengamadu,Karur,"10,MGR STREET,KONGU NAGAR,VENGAMEDU Vengamedu, Vengamadu, Karur - 639006, Dist.Karur, Tamil Nadu",8048372579,293
Nursing Pillow,,Aadhavan Textiles,https://www.indiamart.com/ls-textiles/?pos=106&kwd=nursing pillows&tags=CC||||8706.263||product|||NA|rsf:gd-|-qr_nm:gd|res:RC3|com-cf:nl|ptrs:na|ktp:N0|mc:117695|mtp:S|qry_typ:P|lang:en|wc:2|cs:7592|v=4,False,,Karur,"L 162 Tnhb Colony Gandhigramam South Pasupathipalayam, Karur - 639004, Dist.Karur, Tamil Nadu",8062245037,518
Nursing Pillow,,Cee Pee Agencies,https://www.indiamart.com/cee-pee-agencies-ernakulam/?pos=107&kwd=nursing pillows&tags=CC||||8507.67||product|||NA|rsf:gd-|-qr_nm:gd|res:RC3|com-cf:nl|ptrs:na|ktp:N0|mc:117695|mtp:S|qry_typ:P|lang:en|wc:2|cs:7592|v=4,False,Kathrikadavu,Ernakulam,"63/829, Parakkatt Building, Kaloor, Kathrikadavu, Ernakulam - 682017, Dist.Ernakulam, Kerala",8048371985,826
Nursing Pillow,,Shoppax Retail,https://www.indiamart.com/shoppax-retail-vasai-virar/?pos=108&kwd=nursing pillows&tags=CC||||8210.732||product|||NA|rsf:gd-|-qr_nm:gd|res:RC3|com-cf:nl|ptrs:na|ktp:N0|mc:117695|mtp:S|qry_typ:P|lang:en|wc:2|cs:7592|v=4,False,BILAL PADA,Vasai Virar,"ROOM NO. 8 ROOM NO. 8, REHMAN CHAWL, BILAL PADA, DONGAR PADA, PELHAR ROAD, NALLASOPARA EAST, Palghar, Maharasht, BILAL PADA, Vasai Virar - 401209, Dist.Thane, Maharashtra",8047308883,4451
Adjustable Nursing Pillow,,Times Fibrefill Pvt. Ltd.,https://www.indiamart.com/timesfibrefillpvtltd-kolkata/?pos=109&kwd=nursing pillows&tags=CC||||9839.57||product|||NA|rsf:gd-|-qr_nm:gd|res:RC3|com-cf:nl|ptrs:na|ktp:N0|mc:117695|mtp:S|qry_typ:P|lang:en|wc:2|cs:7592|v=4,False,,Kolkata,"13th Floor Module No 28, Plot, Kolkata - 700091, Dist.Kolkata, West Bengal",8048370720,6893
Baby Nursing Pillow,,Shopify,https://www.indiamart.com/company/228485881/?pos=110&kwd=nursing pillows&tags=CC||||9732.269||product|||NA|rsf:gd-|-qr_nm:gd|res:RC3|com-cf:nl|ptrs:na|ktp:N0|mc:117695|mtp:S|qry_typ:P|lang:en|wc:2|cs:7592|v=4,False,,Midnapur,", Midnapur - 721101, Dist.West Midnapore, West Bengal",8048249781,1322
Baby Nursing Pillow,,Zanz Baby,https://www.indiamart.com/zanz-baby-kunnamkulam/?pos=111&kwd=nursing pillows&tags=CC||||8485.943||product|||NA|rsf:gd-|-qr_nm:gd|res:RC3|com-cf:nl|ptrs:na|ktp:N0|mc:117695|mtp:S|qry_typ:P|lang:en|wc:2|cs:7592|v=4,False,Kanippayur,Kunnamkulam,"Kunnamkulam Thrissur Road, Kanippayur, Kunnamkulam - 680517, Dist.Thrissur, Kerala",8048372558,253
Boppy Nursing Pillow Original,,Haryana Handloom Centre,https://www.indiamart.com/haryana-handloom-centre/?pos=112&kwd=nursing pillows&tags=CC||||8860.933||product|||NA|rsf:gd-|-qr_nm:gd|res:RC3|com-cf:nl|ptrs:na|ktp:N0|mc:117695|mtp:S|qry_typ:P|lang:en|wc:2|cs:7592|v=4,False,Chakrata Road,Dehradun,"No. 54, Chakrata Road, Chakrata Road, Dehradun - 248001, Dist.Dehradun, Uttarakhand",8048371549,420
Animal Print Nursing Pillow White,,The Design Den,https://www.indiamart.com/ms-the-design-den/?pos=113&kwd=nursing pillows&tags=CC||||8778.123|Price|product|||NA|rsf:gd-|-qr_nm:gd|res:RC3|com-cf:nl|ptrs:na|ktp:N0|mc:117695|mtp:S|qry_typ:P|lang:en|wc:2|cs:7592|v=4,False,,Noida,"B-77 Sector-67 Noida Gautam Buddha Nagar, Noida - 201301, Dist.Gautam Budh Nagar, Uttar Pradesh",8048250224,288
Flurry Fickle Baby Feeding Nursing,,Motherly,https://www.indiamart.com/motherly-noida/?pos=114&kwd=nursing pillows&tags=CC||||8778.123|Price|product|||NA|rsf:gd-|-qr_nm:gd|res:RC3|com-cf:nl|ptrs:na|ktp:N0|mc:117695|mtp:S|qry_typ:P|lang:en|wc:2|cs:7592|v=4,False,,Noida,"C-198, C Block, Sector 63, Noida, UP-201301, India, Noida - 201301, Dist.Gautam Budh Nagar, Uttar Pradesh",8069023896,385
Adjustable Baby Cotton Nursing Arm Pillow Breastfeeding Washable Baby Infant Nursing Breastfeeding Pillow Cushion Arm Pad,,Bhavitha Sree Trading,https://www.indiamart.com/bhavitha-sree-trading-mumbai/?pos=115&kwd=nursing pillows&tags=CC||||8211.142|Price|product|||NA|rsf:gd-|-qr_nm:gd|res:RC3|com-cf:nl|ptrs:na|ktp:N0|mc:117695|mtp:S|qry_typ:P|lang:en|wc:2|cs:7592|v=4,False,EAST MUMBAI Mumbai City Maharashtra,Mumbai,"349 AND 349-1,TIMES SQUARE BUILDING,WESTERN EXPRESS HIGHWAY,ANDHERI EAST MUMBAI TIMES SQUARE BUILDING,400069,, EAST MUMBAI Mumbai City Maharashtra, Mumbai - 400069, Dist.Mumbai, Maharashtra",,
NURSING PILLOW - Moon And The Starry Night - Butternut Squash,,Conscious Ecofashion Pvt. Ltd.,https://www.indiamart.com/conscious-ecofashion-pvt-ltd/?pos=116&kwd=nursing pillows&tags=CC||||8559.269||product|||NA|rsf:gd-|-qr_nm:gd|res:RC3|com-cf:nl|ptrs:na|ktp:N0|mc:117695|mtp:S|qry_typ:P|lang:en|wc:2|cs:7592|v=4,False,,Indore,"127, Gopur Colony, Annapurna Road, Indore - 452009, Dist.Indore, Madhya Pradesh",8069416022,183
"Premium Cotton Nursing Pillow with Infant Support, Adjustable Backrest & Headrest",,Digital Robox,https://www.indiamart.com/digital-robox/?pos=117&kwd=nursing pillows&tags=CC||||9618.383||product|||NA|rsf:gd-|-qr_nm:gd|res:RC3|com-cf:nl|ptrs:na|ktp:N0|mc:117695|mtp:S|qry_typ:P|lang:en|wc:2|cs:7592|v=4,False,,Jamshedpur,"Ichhapur,Gulapada,Adityapur 2,Jamshedpur,Seraikela Kharsawan, Jamshedpur - 831013, Dist.East Singhbhum, Jharkhand",8048247104,1094
Feeding Pillow,,Femy9,https://www.indiamart.com/femy9/?pos=118&kwd=nursing pillows&tags=CC||||8571.301||product|||NA|rsf:gd-|-qr_nm:gd|res:RC3|com-cf:nl|ptrs:na|ktp:N0|mc:117695|mtp:S|qry_typ:P|lang:en|wc:2|cs:7592|v=4,False,,Thiruvananthapuram,"T.C.11/400, FEMY9, KESTON ROAD,KOWDIAR, DEVASWOM JUNCTION, Thiruvananthapuram - 695003, Dist.Thiruvananthapuram, Kerala",8048372064,262
Feeding Pillow,,G P Tex Tiles,https://www.indiamart.com/g-p-tex-tiles/?pos=119&kwd=nursing pillows&tags=CC||||8830.044||product|||NA|rsf:gd-|-qr_nm:gd|res:RC3|com-cf:nl|ptrs:na|ktp:N0|mc:117695|mtp:S|qry_typ:P|lang:en|wc:2|cs:7592|v=4,False,Parupalliveedhi,Siddipet,"Lal kaman main road, Parupalliveedhi, Siddipet - 502103, Dist.Medak, Telangana",8048249677,8814
Feeding Pillow,,Baby Shine Creation,https://www.indiamart.com/baby-shine-creation/?pos=120&kwd=nursing pillows&tags=CC||||8211.142||product|||NA|rsf:gd-|-qr_nm:gd|res:RC3|com-cf:nl|ptrs:na|ktp:N0|mc:117695|mtp:S|qry_typ:P|lang:en|wc:2|cs:7592|v=4,False,,Mumbai,"Room No.1, 1st Floor, Ekta Chawl, Padmavati Road,chaitanya Nagar,, Mumbai - 400076, Dist.Mumbai, Maharashtra",8069707407,235
Baby Feeding Pillow,,Gautam Traders,https://www.indiamart.com/karmagroup-delhi/?pos=121&kwd=nursing pillows&tags=CC||||8752.144||product|||NA|rsf:gd-|-qr_nm:gd|res:RC3|com-cf:nl|ptrs:na|ktp:N0|mc:117695|mtp:S|qry_typ:P|lang:en|wc:2|cs:7592|v=4,False,Johripur,New Delhi,"Hno. 65,Gali No 3 Tunda Nagar, Johripur, New Delhi - 110094, Dist.Delhi, Delhi",8047837511,
Feeding Pillow,,Pushpak Enterprises,https://www.indiamart.com/pushpak-enterprisehyderabad/?pos=122&kwd=nursing pillows&tags=CC||||8786.56||product|||NA|rsf:gd-|-qr_nm:gd|res:RC3|com-cf:nl|ptrs:na|ktp:N0|mc:117695|mtp:S|qry_typ:P|lang:en|wc:2|cs:7592|v=4,False,Begum Bazar,Hyderabad,"1ST FLOOR,15-8-433/106/A,VCR TOWERS,FEELKHANA Begum Bazar, Begum Bazar, Hyderabad - 500012, Dist.Hyderabad, Telangana",8062245022,403
Feeding Pillow,,A.N.B. Health Care Products,https://www.indiamart.com/anb-healthcare/?pos=123&kwd=nursing pillows&tags=CC||||8954.051||product|||NA|rsf:gd-|-qr_nm:gd|res:RC3|com-cf:nl|ptrs:na|ktp:N0|mc:117695|mtp:S|qry_typ:P|lang:en|wc:2|cs:7592|v=4,False,Ayanavaram,Chennai,"124, Mettu Street, Ayanavaram, Chennai - 600023, Dist.Chennai, Tamil Nadu",8047815855,
Feeding Pillow,,Parichay,https://www.indiamart.com/bombay-fashion-bengaluru/?pos=124&kwd=nursing pillows&tags=CC||||8663.873||product|||NA|rsf:gd-|-qr_nm:gd|res:RC3|com-cf:nl|ptrs:na|ktp:N0|mc:117695|mtp:S|qry_typ:P|lang:en|wc:2|cs:7592|v=4,False,Mamulpet,Bengaluru,"41/1, Kapinappa Market, Mamulpet, Mamulpet, Bengaluru - 560053, Dist.Bengaluru, Karnataka",8047846524,
Baby Feeding Pillow,,Orbit Enterprises,https://www.indiamart.com/orbitenterprises-88783674/?pos=125&kwd=nursing pillows&tags=CC||||8211.142||product|||NA|rsf:gd-|-qr_nm:gd|res:RC3|com-cf:nl|ptrs:na|ktp:N0|mc:117695|mtp:S|qry_typ:P|lang:en|wc:2|cs:7592|v=4,False,Nair Wadi Kherani Road,Mumbai,"GALA NO.8,9,10, SIDHPURA IND ESTATE, S.V.ROAD,GOREGAON WEST,Greater Mumbai Gala No. 105, 1 St Floor,,400072,Mumbai, Nair Wadi Kherani Road, Mumbai - 400062, Dist.Mumbai, Maharashtra",8069728344,769
Feeding Pillow,,EZ Woman,https://www.indiamart.com/ez-woman/?pos=126&kwd=nursing pillows&tags=CC||||8500.97||product|||NA|rsf:gd-|-qr_nm:gd|res:RC3|com-cf:nl|ptrs:na|ktp:N0|mc:117695|mtp:S|qry_typ:P|lang:en|wc:2|cs:7592|v=4,False,,Thrissur,"Tc 8/78/3,Ezwoman,Bharathakshemam Building,East Fort,Thrissur, Thrissur - 680005, Dist.Thrissur, Kerala",8048372001,421
Get it now Choco Yellow,,The Cakery Shop,https://www.indiamart.com/the-cakery-shop/?pos=127&kwd=nursing pillows&tags=CC||||8752.144|Price|product|||NA|rsf:gd-|-qr_nm:gd|res:RC3|com-cf:nl|ptrs:na|ktp:N0|mc:117695|mtp:S|qry_typ:P|lang:en|wc:2|cs:7592|v=4,False,Uthukottai Tiruvallur,New Delhi,"B/5, Manek Apartment, C. S. Road Shivalik Complex, Uthukottai Tiruvallur, New Delhi - 110096, Dist.Delhi, Delhi",8048371690,673
Hoopa Feeding Pillow,,AB Baby,https://www.indiamart.com/ab-baby/?pos=128&kwd=nursing pillows&tags=CC||||8226.563||product|||NA|rsf:gd-|-qr_nm:gd|res:RC3|com-cf:nl|ptrs:na|ktp:N0|mc:117695|mtp:S|qry_typ:P|lang:en|wc:2|cs:7592|v=4,False,Vashi,Navi Mumbai,"Shop No. B 8, Gagangiri Co Operative Housing Society, Plot 47, Sector 17, Vashi, Navi Mumbai - 400703, Dist.Thane, Maharashtra",8043835160,
Enchanted Bunny Feeding Pillow,,Lill Mulbery,https://www.indiamart.com/company/31348118/?pos=129&kwd=nursing pillows&tags=CC||||8663.873|Price|product|||NA|rsf:gd-|-qr_nm:gd|res:RC3|com-cf:nl|ptrs:na|ktp:N0|mc:117695|mtp:S|qry_typ:P|lang:en|wc:2|cs:7592|v=4,False,,Bengaluru,"103, 19th cross, 12th main, HSR Layout Sector 7, Bengaluru - 560102, Dist.Bengaluru, Karnataka",8048249781,8319
Baby Feeding Pillow,,Banaav,https://www.indiamart.com/banaav/?pos=130&kwd=nursing pillows&tags=||||8307.81||product|||NA|rsf:gd-|-qr_nm:gd|res:RC3|com-cf:nl|ptrs:na|ktp:N0|mc:117695|mtp:S|qry_typ:P|lang:en|wc:2|cs:7592|v=4,False,,Pune,"S No 7,Flat No 1001,Bldg C1,Pristine Royal Building,Behind Spicer College,Aundh,Pune,Pune, Pune - 411007, Dist.Pune, Maharashtra",8048370723,6396
Feeding pillow,,Yuvan Square,https://www.indiamart.com/yuvan-square/?pos=131&kwd=nursing pillows&tags=CC||||8457.459||product|||NA|rsf:gd-|-qr_nm:gd|res:RC3|com-cf:nl|ptrs:na|ktp:N0|mc:117695|mtp:S|qry_typ:P|lang:en|wc:2|cs:7592|v=4,False,,Kozhikode,"Ground Floor Block B, 69/1366/a2 P.o.nadakkave Pm Complex Veluthedath Paramb, Kozhikode - 673011, Dist.Kozhikode, Kerala",8047311002,2978
Baby Feeding Pillow,,Sadhubandhu,https://www.indiamart.com/sadhubandhu/?pos=132&kwd=nursing pillows&tags=CC||||8902.11||product|||NA|rsf:gd-|-qr_nm:gd|res:RC3|com-cf:nl|ptrs:na|ktp:N0|mc:117695|mtp:S|qry_typ:P|lang:en|wc:2|cs:7592|v=4,False,,Narsinghpur,"927 Plot No-65 Mahakoushal Colony Dhanare Colony Raj nagar, Narsinghpur - 487001, Madhya Pradesh",8048370708,5689
Baby Feeding Pillow,,Goodluck Kids World,https://www.indiamart.com/goodluck-kids-world/?pos=133&kwd=nursing pillows&tags=CC||||8876.815||product|||NA|rsf:gd-|-qr_nm:gd|res:RC3|com-cf:nl|ptrs:na|ktp:N0|mc:117695|mtp:S|qry_typ:P|lang:en|wc:2|cs:7592|v=4,False,,Nagpur,"HOUSE NO 71, ITWARI, Parwarpura, Nagpur, Nagpur, Maharashtra, 440002, Nagpur - 440002, Dist.Nagpur, Maharashtra",8048249724,2218
Feeding Pillow,,Kanmani,https://www.indiamart.com/baby-bump/?pos=134&kwd=nursing pillows&tags=CC||||8584.299||product|||NA|rsf:gd-|-qr_nm:gd|res:RC3|com-cf:nl|ptrs:na|ktp:N0|mc:117695|mtp:S|qry_typ:P|lang:en|wc:2|cs:7592|v=4,False,Gandhipuram,Coimbatore,"Door No. 20, 10th Street, Behind The Chennai Silks, Gandhipuram, Coimbatore - 641012, Dist.Coimbatore, Tamil Nadu",8047803863,
Feeding Pillow,,Orbit Enterprises,https://www.indiamart.com/orbit-ent/?pos=135&kwd=nursing pillows&tags=CC||||8211.142||product|||NA|rsf:gd-|-qr_nm:gd|res:RC3|com-cf:nl|ptrs:na|ktp:N0|mc:117695|mtp:S|qry_typ:P|lang:en|wc:2|cs:7592|v=4,False,,Mumbai,"Gali No. 5, 2nd Floor, Diamond Shivagiri House, Khairani Road Nair Wadi Sakinaka, Mumbai - 400072, Dist.Mumbai, Maharashtra",8048372790,681
Baby Feeding Pillow Rs 24,,Nancy Creation,https://www.indiamart.com/company/52099393/?pos=136&kwd=nursing pillows&tags=CC||||8228.275|Price|product|||NA|rsf:gd-|-qr_nm:gd|res:RC3|com-cf:nl|ptrs:na|ktp:N0|mc:117695|mtp:S|qry_typ:P|lang:en|wc:2|cs:7592|v=4,False,,Ahmedabad,"1810, Desai Ni Pole, Khadia, Ahmedabad - 380001, Dist.Ahmedabad, Gujarat",8048247097,8911
Maternity Feeding Pillow,,Ziva Maternity Wear,https://www.indiamart.com/jewish-apprels-accessories/?pos=137&kwd=nursing pillows&tags=CC||||8503.868||product|||NA|rsf:gd-|-qr_nm:gd|res:RC3|com-cf:nl|ptrs:na|ktp:N0|mc:117695|mtp:S|qry_typ:P|lang:en|wc:2|cs:7592|v=4,False,Vyttila,Kochi,"Door No. 32/324A, Ladlee Towers, Vailllopily, Vyttila, Kochi - 682032, Dist.Ernakulam, Kerala",8048247125,3086
Baby Feeding Pillow,,Gaurav Associates,https://www.indiamart.com/gaurav-associates-kolkata/?pos=138&kwd=nursing pillows&tags=CC||||9839.57|Price|product|||NA|rsf:gd-|-qr_nm:gd|res:RC3|com-cf:nl|ptrs:na|ktp:N0|mc:117695|mtp:S|qry_typ:P|lang:en|wc:2|cs:7592|v=4,False,,Kolkata,"4, 5 A/1A, Amarsudha Building, Lord Sinha Road, Kolkata - 700071, Dist.Kolkata, West Bengal",8069033735,780
Baby Feeding Pillow,,Hycon Ventures,https://www.indiamart.com/hycon-ventures/?pos=139&kwd=nursing pillows&tags=CC||||8478.36|Price|product|||NA|rsf:gd-|-qr_nm:gd|res:RC3|com-cf:nl|ptrs:na|ktp:N0|mc:117695|mtp:S|qry_typ:P|lang:en|wc:2|cs:7592|v=4,False,,Vengara,"First Floor 9/ 985 - C9 Malappuram Parappanangadi Road, Vengara - 676304, Dist.Malappuram, Kerala",8048250512,960
